"ID","Address","City","State","Zip","lat","long","id","input_address","match_indicator","match_type","matched_address","tiger_line_id","tiger_side"
9001,"1025 BRIELLE AVENUE","OVIEDO","FL",32765,28.6535882810001,-81.189526573,1,"1025 BRIELLE AVENUE, OVIEDO, FL, 32765","Match","Exact","1025 BRIELLE AVE, OVIEDO, FL, 32765",93765402,"R"
9002,"1025 CACHUMA AVENUE UNIT 68","VENTURA","CA",93004,34.279014542,-119.164115232,2,"1025 CACHUMA AVENUE UNIT 68, VENTURA, CA, 93004","Match","Exact","1025 CACHUMA AVE, VENTURA, CA, 93004",110032905,"R"
9003,"1025 CANTERBURY LN NW","ROCHESTER","MN",55901,44.0726080200001,-92.479734368,3,"1025 CANTERBURY LN NW, ROCHESTER, MN, 55901","Match","Exact","1025 CANTERBURY LN NW, ROCHESTER, MN, 55901",30563106,"L"
9004,"1025 CAROLINA RD APT BB1","CONWAY","SC",29526,33.8019975770001,-79.010046506,4,"1025 CAROLINA RD APT BB1, CONWAY, SC, 29526","Match","Exact","1025 CAROLINA RD, CONWAY, SC, 29526",636589174,"L"
9005,"1025 CHES BROUSSARD","BREAUX BRIDGE","LA",70517,30.275453988,-91.9476502969999,5,"1025 CHES BROUSSARD, BREAUX BRIDGE, LA, 70517","Match","Non_Exact","1025 CHESS BROUSSARD RD, BREAUX BRIDGE, LA, 70517",85816484,"R"
9006,"1025 CHESSRIDGE WAY","MORRISVILLE","NC",27560,35.8326135020001,-78.853611826,6,"1025 CHESSRIDGE WAY, MORRISVILLE, NC, 27560","Match","Exact","1025 CHESSRIDGE WAY, MORRISVILLE, NC, 27560",630407258,"L"
9007,"1025 CLAUDE CIR  SUITE 500","HUNTSVILLE","AL",35806,34.7428318680001,-86.665318263,7,"1025 CLAUDE CIR  SUITE 500, HUNTSVILLE, AL, 35806","Match","Non_Exact","1025 CLAUDE CIR NW, HUNTSVILLE, AL, 35806",58195606,"R"
9008,"1025 COMMONS CIRCLE","NAPLES","FL",34119,26.2427892650001,-81.730967425,8,"1025 COMMONS CIRCLE, NAPLES, FL, 34119","Match","Exact","1025 COMMONS CIR, NAPLES, FL, 34119",115231147,"L"
9009,"1025 COUNTY ROUTE 48","RICHLAND","NY",13144,43.5642553010001,-76.0505853939999,9,"1025 COUNTY ROUTE 48, RICHLAND, NY, 13144","Match","Exact","1025 CO RTE 48, RICHLAND, NY, 13144",57841653,"R"
9010,"1025 DANIELSVILLE RD","ATHENS","GA",30601,33.9853241650001,-83.35936,10,"1025 DANIELSVILLE RD, ATHENS, GA, 30601","Match","Exact","1025 DANIELSVILLE RD, ATHENS, GA, 30601",647432547,"L"
9011,"1025 DAVE GIBSON BOULVARD","TEGA CAY","SC",29708,35.040152291,-80.989248821,11,"1025 DAVE GIBSON BOULVARD, TEGA CAY, SC, 29708","Match","Non_Exact","1025 DAVE GIBSON BLVD, TEGA CAY, SC, 29708",19835723,"L"
9012,"1025 E 37TH STREET","LONG BEACH","CA",90807,33.82421429,-118.180090275,12,"1025 E 37TH STREET, LONG BEACH, CA, 90807","Match","Exact","1025 E 37TH ST, LONG BEACH, CA, 90807",141686445,"L"
9013,"1025 E 74TH","CLEVELAND","OH",44103,41.526953141,-81.6372193079999,13,"1025 E 74TH, CLEVELAND, OH, 44103","Match","Non_Exact","1025 E 74TH ST, CLEVELAND, OH, 44103",61112108,"L"
9014,"1025 E 7TH STREET RM 290","BLOOMINGTON","IN",47405,39.1684798540001,-86.521790757,14,"1025 E 7TH STREET RM 290, BLOOMINGTON, IN, 47405","Match","Non_Exact","1025 E 7TH ST, BLOOMINGTON, IN, 47405",42332490,"L"
9015,"1025 E 7TH STREET ROOM 290","BLOOMINGTON","IN",47405,39.1684798540001,-86.521790757,15,"1025 E 7TH STREET ROOM 290, BLOOMINGTON, IN, 47405","Match","Non_Exact","1025 E 7TH ST, BLOOMINGTON, IN, 47405",42332490,"L"
9016,"1025 E 8TH STREET","FERRIS","TX",75125,32.5315914080001,-96.652754893,16,"1025 E 8TH STREET, FERRIS, TX, 75125","Match","Exact","1025 E 8TH ST, FERRIS, TX, 75125",616704691,"L"
9017,"1025 E CREIGHTON STREET","FORT WAYNE","IN",46803,41.064762639,-85.124081953,17,"1025 E CREIGHTON STREET, FORT WAYNE, IN, 46803","Match","Non_Exact","1025 E CREIGHTON AVE, FORT WAYNE, IN, 46803",6379929,"L"
9018,"1025 E FOREST AVE BLDG B ROOM 118","DETROIT","MI",48207,42.3591361490001,-83.051701741,18,"1025 E FOREST AVE BLDG B ROOM 118, DETROIT, MI, 48207","Match","Non_Exact","1025 E FOREST AVE, DETROIT, MI, 48207",95477816,"L"
9019,"1025 E HALLANDALE BCH BLVD S15780","HALLANDALE BEACH","FL",33009,NA,NA,19,"1025 E HALLANDALE BCH BLVD S15780, HALLANDALE BEACH, FL, 33009","Tie",NA,NA,NA,NA
9020,"1025 E HASTAIN AVE","SAPULPA","OK",74066,35.9862972710001,-96.0998012919999,20,"1025 E HASTAIN AVE, SAPULPA, OK, 74066","Match","Exact","1025 E HASTAIN AVE, SAPULPA, OK, 74066",165899293,"L"
9021,"1025 E JOHNS AVE","DECATUR","IL",62521,39.8387378690001,-88.942805737,21,"1025 E JOHNS AVE, DECATUR, IL, 62521","Match","Exact","1025 E JOHNS AVE, DECATUR, IL, 62521",20747346,"R"
9022,"1025 E JOSEPH AVE","SPOKANE","WA",99208,47.709693439,-117.394822834,22,"1025 E JOSEPH AVE, SPOKANE, WA, 99208","Match","Exact","1025 E JOSEPH AVE, SPOKANE, WA, 99208",189877937,"L"
9023,"1025 EAST 79TH STREET","CHICAGO","IL",60619,41.7513426960001,-87.599555111,23,"1025 EAST 79TH STREET, CHICAGO, IL, 60619","Match","Exact","1025 E 79TH ST, CHICAGO, IL, 60619",605552594,"R"
9024,"1025 EAST CARDINAL DRIVE","SUNNYVALE","CA",94087,37.363202286,-122.061373152,24,"1025 EAST CARDINAL DRIVE, SUNNYVALE, CA, 94087","Match","Exact","1025 E CARDINAL DR, SUNNYVALE, CA, 94087",122936853,"R"
9025,"1025 EAST MAIN","LADOGA","IN",47954,39.9140956520001,-86.7905692909999,25,"1025 EAST MAIN, LADOGA, IN, 47954","Match","Non_Exact","1025 E MAIN ST, LADOGA, IN, 47954",635559413,"R"
9026,"1025 EASTERN PARKWAY","BROOKLYN","NY",11213,40.669215208,-73.9344814729999,26,"1025 EASTERN PARKWAY, BROOKLYN, NY, 11213","Match","Exact","1025 EASTERN PKWY, BROOKLYN, NY, 11213",640852588,"R"
9027,"1025 ELIZABETH DRIVE","HAMILTON","OH",45013,39.403716882,-84.5968303229999,27,"1025 ELIZABETH DRIVE, HAMILTON, OH, 45013","Match","Exact","1025 ELIZABETH DR, HAMILTON, OH, 45013",113787703,"L"
9028,"1025 FAIRFAX STREET","FAIRMONT","WV",26554,39.4814728060001,-80.122957831,28,"1025 FAIRFAX STREET, FAIRMONT, WV, 26554","Match","Exact","1025 FAIRFAX ST, FAIRMONT, WV, 26554",51435000,"R"
9029,"1025 FIFTH AVENUE APT 6BC","NEW YORK","NY",10028,40.779966744,-73.9615518849999,29,"1025 FIFTH AVENUE APT 6BC, NEW YORK, NY, 10028","Match","Exact","1025 5TH AVE, NEW YORK, NY, 10028",59657319,"R"
9030,"1025 FRANKLIN STREET","CENTER POINT","IA",52213,42.1936887090001,-91.783225455,30,"1025 FRANKLIN STREET, CENTER POINT, IA, 52213","Match","Exact","1025 FRANKLIN ST, CENTER POINT, IA, 52213",17012323,"L"
9031,"1025 FRONT ST STE 1","CONWAY","AR",72032,35.0921500170001,-92.441560169,31,"1025 FRONT ST STE 1, CONWAY, AR, 72032","Match","Exact","1025 FRONT ST, CONWAY, AR, 72032",141043947,"L"
9032,"1025 GALVIN RD S","BELLEVUE","NE",68005,41.1506681170001,-95.917330017,32,"1025 GALVIN RD S, BELLEVUE, NE, 68005","Match","Exact","1025 GALVIN RD S, BELLEVUE, NE, 68005",28497930,"L"
9033,"1025 GARFIELD AVENUE","SOUTH PASADENA","CA",91030,34.1153054710001,-118.141465429,33,"1025 GARFIELD AVENUE, SOUTH PASADENA, CA, 91030","Match","Exact","1025 GARFIELD AVE, SOUTH PASADENA, CA, 91030",141631120,"R"
9034,"1025 GATEWAY BLVD SUITE 303-333","BOYNTON BEACH","FL",33426,26.5506650130001,-80.074132366,34,"1025 GATEWAY BLVD SUITE 303-333, BOYNTON BEACH, FL, 33426","Match","Exact","1025 GATEWAY BLVD, BOYNTON BEACH, FL, 33426",630034311,"L"
9035,"1025 GATEWAY BLVD SUITE 303","BOYNTON BEACH","FL",33426,26.5506650130001,-80.074132366,35,"1025 GATEWAY BLVD SUITE 303, BOYNTON BEACH, FL, 33426","Match","Exact","1025 GATEWAY BLVD, BOYNTON BEACH, FL, 33426",630034311,"L"
9036,"1025 GEBHART ROAD","WINDSOR","PA",17366,39.9244712300001,-76.5670178239999,36,"1025 GEBHART ROAD, WINDSOR, PA, 17366","Match","Exact","1025 GEBHART RD, WINDSOR, PA, 17366",88767175,"L"
9037,"1025 GROGANS MILL DRIVE","CARY","NC",27519,35.8109795300001,-78.909610479,37,"1025 GROGANS MILL DRIVE, CARY, NC, 27519","Match","Exact","1025 GROGANS MILL DR, CARY, NC, 27519",639849123,"L"
9038,"1025 HAMPTON DRIVE","FORNEY","TX",75126,32.743372128,-96.4063671439999,38,"1025 HAMPTON DRIVE, FORNEY, TX, 75126","Match","Exact","1025 HAMPTON DR, FORNEY, TX, 75126",616067752,"R"
9039,"1025 HANLEY RD","LYNDHURST","OH",44124,41.5328105790001,-81.505923202,39,"1025 HANLEY RD, LYNDHURST, OH, 44124","Match","Exact","1025 HANLEY RD, LYNDHURST, OH, 44124",61133577,"L"
9040,"1025 HAVEN DRIVE","DALTON","GA",30271,34.8677947460001,-84.97528956,40,"1025 HAVEN DRIVE, DALTON, GA, 30271","Match","Non_Exact","1025 HAVEN DR, DALTON, GA, 30721",618815543,"L"
9041,"1025 HERITAGE ROAD","LINN CREEK","MO",65052,38.0182758240001,-92.6627032499999,41,"1025 HERITAGE ROAD, LINN CREEK, MO, 65052","Match","Exact","1025 HERITAGE RD, LINN CREEK, MO, 65052",22847350,"R"
9042,"1025 HOLLYHOCK CIR","LINCOLN","NE",68521,NA,NA,42,"1025 HOLLYHOCK CIR, LINCOLN, NE, 68521","No_Match",NA,NA,NA,NA
9043,"1025 HOUCHIN DR","FRANKLIN","TN",37064,NA,NA,43,"1025 HOUCHIN DR, FRANKLIN, TN, 37064","No_Match",NA,NA,NA,NA
9044,"1025 JOHNSON CREEK ROAD","ARBOR VITAE","WI",54568,45.900072235,-89.7361238299999,44,"1025 JOHNSON CREEK ROAD, ARBOR VITAE, WI, 54568","Match","Exact","1025 JOHNSON CREEK RD, ARBOR VITAE, WI, 54568",635638003,"L"
9045,"1025 KILLIAN HILL ROAD SUITE I","LILBURN","GA",30047,33.867954518,-84.0928989069999,45,"1025 KILLIAN HILL ROAD SUITE I, LILBURN, GA, 30047","Match","Non_Exact","1025 KILLIAN HILL RD SW, LILBURN, GA, 30047",88887705,"R"
9046,"1025 LINCOLN PLACE","TEANECK","NJ",7666,40.8964525530001,-74.0226982629999,46,"1025 LINCOLN PLACE, TEANECK, NJ, 7666","Match","Exact","1025 LINCOLN PL, TEANECK, NJ, 07666",64388570,"R"
9047,"1025 MERIWETHER STREET","GRIFFIN","GA",30224,33.240595871,-84.279170941,47,"1025 MERIWETHER STREET, GRIFFIN, GA, 30224","Match","Exact","1025 MERIWETHER ST, GRIFFIN, GA, 30224",23761339,"L"
9048,"1025 MIFFLIN STREET","PHILADELPHIA","PA",19148,39.9260252670001,-75.163059269,48,"1025 MIFFLIN STREET, PHILADELPHIA, PA, 19148","Match","Exact","1025 MIFFLIN ST, PHILADELPHIA, PA, 19148",131412100,"R"
9049,"1025 MLK JR BLVD SUITE 600","GAINESVILLE","GA",30501,34.2884882320001,-83.825041665,49,"1025 MLK JR BLVD SUITE 600, GAINESVILLE, GA, 30501","Match","Exact","1025 MARTIN LUTHER KING JR BLVD, GAINESVILLE, GA, 30501",98249709,"L"
9050,"1025 MONDRIAN TERRACE","SILVER SPRING","MD",20904,39.072238053,-76.9909106859999,50,"1025 MONDRIAN TERRACE, SILVER SPRING, MD, 20904","Match","Exact","1025 MONDRIAN TER, SILVER SPRING, MD, 20904",62094183,"L"
9051,"1025 MONTVALE ROAD","MARYVILLE","TN",37803,35.744176199,-83.968378501,51,"1025 MONTVALE ROAD, MARYVILLE, TN, 37803","Match","Exact","1025 MONTVALE RD, MARYVILLE, TN, 37803",624826648,"L"
9052,"1025 MT VERNON HWY NW","SANDY SPRINGS","GA",30327,NA,NA,52,"1025 MT VERNON HWY NW, SANDY SPRINGS, GA, 30327","No_Match",NA,NA,NA,NA
9053,"1025 N 10TH ST","PHOENIX","AZ",85006,33.4590539590001,-112.060778348,53,"1025 N 10TH ST, PHOENIX, AZ, 85006","Match","Exact","1025 N 10TH ST, PHOENIX, AZ, 85006",128213305,"R"
9054,"1025 N 12TH STREET","COLLINSVILLE","OK",74021,36.373252957,-95.8391303179999,54,"1025 N 12TH STREET, COLLINSVILLE, OK, 74021","Match","Exact","1025 N 12TH ST, COLLINSVILLE, OK, 74021",647824158,"R"
9055,"1025 N 4TH AVE","WASHINGTON","IA",52353,41.308030317,-91.68822758,55,"1025 N 4TH AVE, WASHINGTON, IA, 52353","Match","Exact","1025 N 4TH AVE, WASHINGTON, IA, 52353",84182164,"L"
9056,"1025 N FILLMORE ST APT 511","ARLINGTON","VA",22201,38.8850306240001,-77.0927637299999,56,"1025 N FILLMORE ST APT 511, ARLINGTON, VA, 22201","Match","Non_Exact","1025 N FILLMORE ST, ARLINGTON, VA, 22201",76470236,"R"
9057,"1025 N KINGS RD UNIT 106","WEST HOLLYWOOD","CA",90069,34.089375595,-118.371741081,57,"1025 N KINGS RD UNIT 106, WEST HOLLYWOOD, CA, 90069","Match","Non_Exact","1025 N KINGS RD, W HOLLYWOOD, CA, 90069",241240237,"L"
9058,"1025 N RODNEY ST","HELENA","MT",59601,46.595516628,-112.026387544,58,"1025 N RODNEY ST, HELENA, MT, 59601","Match","Exact","1025 N RODNEY ST, HELENA, MT, 59601",202349409,"R"
9059,"1025 N TONOPAH DR","LAS VEGAS","NV",89106,36.1832248470001,-115.169935444,59,"1025 N TONOPAH DR, LAS VEGAS, NV, 89106","Match","Exact","1025 N TONOPAH DR, LAS VEGAS, NV, 89106",201865074,"L"
9060,"1025 NE 176TH AVE","PORTLAND","OR",97230,45.530227622,-122.481960156,60,"1025 NE 176TH AVE, PORTLAND, OR, 97230","Match","Exact","1025 NE 176TH AVE, PORTLAND, OR, 97230",157522992,"L"
9061,"1025 NEWTON ST NW","WASHINGTON","DC",20010,NA,NA,61,"1025 NEWTON ST NW, WASHINGTON, DC, 20010","No_Match",NA,NA,NA,NA
9062,"1025 NEWTOWN ROAD","NORFOLK","VA",23502,36.8549346840001,-76.1776476329999,62,"1025 NEWTOWN ROAD, NORFOLK, VA, 23502","Match","Exact","1025 NEWTOWN RD, NORFOLK, VA, 23502",639822931,"L"
9063,"1025 NORTH MADISON STREET","WILMINGTON","DE",19801,39.748338855,-75.553827837,63,"1025 NORTH MADISON STREET, WILMINGTON, DE, 19801","Match","Exact","1025 N MADISON ST, WILMINGTON, DE, 19801",187257696,"L"
9064,"1025 NORTHERN BOULEVARD SUITE 301","ROSLYN","NY",11576,40.7974086840001,-73.66793777,64,"1025 NORTHERN BOULEVARD SUITE 301, ROSLYN, NY, 11576","Match","Exact","1025 NORTHERN BLVD, ROSLYN, NY, 11576",147662674,"L"
9065,"1025 NW 155 LANE SUITE 203","MIAMI","FL",33169,25.91729195,-80.215592252,65,"1025 NW 155 LANE SUITE 203, MIAMI, FL, 33169","Match","Non_Exact","1025 NW 155TH LN, MIAMI, FL, 33169",641972668,"R"
9066,"1025 NW BASCO","ROSEBURG","OR",97471,43.220388514,-123.37771119,66,"1025 NW BASCO, ROSEBURG, OR, 97471","Match","Non_Exact","1025 NW BASCO AVE, ROSEBURG, OR, 97471",137240046,"L"
9067,"1025 OAKHAVEN","MEMPHIS","TN",38119,35.1036414530001,-89.8762538409999,67,"1025 OAKHAVEN, MEMPHIS, TN, 38119","Match","Non_Exact","1025 OAKHAVEN RD, MEMPHIS, TN, 38119",72927209,"R"
9068,"1025 OLD COUNTRY ROAD     STE 404","WESTBURY","NY",11590,40.7542939300001,-73.560850839,68,"1025 OLD COUNTRY ROAD     STE 404, WESTBURY, NY, 11590","Match","Non_Exact","1025 OLD COUNTRY RD, WESTBURY, NY, 11590",147824764,"L"
9069,"1025 OVILLA ROAD","WAXAHACHIE","TX",75167,32.442957189,-96.8735934279999,69,"1025 OVILLA ROAD, WAXAHACHIE, TX, 75167","Match","Exact","1025 OVILLA RD, WAXAHACHIE, TX, 75167",624552974,"L"
9070,"1025 PENNSYLVANIA STREET","DENVER","CO",80203,39.732499293,-104.98103612,70,"1025 PENNSYLVANIA STREET, DENVER, CO, 80203","Match","Exact","1025 PENNSYLVANIA ST, DENVER, CO, 80203",612926973,"L"
9071,"1025 PLEASANT GROVE ROAD","PLEASANT GROVE","AL",35127,33.484754035,-86.9600248199999,71,"1025 PLEASANT GROVE ROAD, PLEASANT GROVE, AL, 35127","Match","Exact","1025 PLEASANT GROVE RD, PLEASANT GROVE, AL, 35127",81545818,"R"
9072,"1025 REAGAN ST","MOUNT JOY","PA",17552,40.11758983,-76.525597337,72,"1025 REAGAN ST, MOUNT JOY, PA, 17552","Match","Exact","1025 REAGAN ST, MOUNT JOY, PA, 17552",627245638,"R"
9073,"1025 RETIREMENT FARM TRL","EAST BEND","NC",27018,36.216915973,-80.4920593259999,73,"1025 RETIREMENT FARM TRL, EAST BEND, NC, 27018","Match","Exact","1025 RETIREMENT FARM TRL, EAST BEND, NC, 27018",647073653,"L"
9074,"1025 RICE STREET","MILAN","MO",63556,40.1928766670001,-93.1232485849999,74,"1025 RICE STREET, MILAN, MO, 63556","Match","Exact","1025 RICE ST, MILAN, MO, 63556",25756635,"L"
9075,"1025 ROSE CREEK DRIVE SUITE 620 162","WOODSTOCK","GA",30189,NA,NA,75,"1025 ROSE CREEK DRIVE SUITE 620 162, WOODSTOCK, GA, 30189","No_Match",NA,NA,NA,NA
9076,"1025 S 1ST AVE","OTHELLO","WA",99344,46.816485196,-119.173973109,76,"1025 S 1ST AVE, OTHELLO, WA, 99344","Match","Exact","1025 S 1ST AVE, OTHELLO, WA, 99344",181833753,"R"
9077,"1025 S 1ST STREET 185","LAS VEGAS","NV",89119,NA,NA,77,"1025 S 1ST STREET 185, LAS VEGAS, NV, 89119","No_Match",NA,NA,NA,NA
9078,"1025 S 61ST ST","WEST ALLIS","WI",53214,43.020627872,-87.9887147859999,78,"1025 S 61ST ST, WEST ALLIS, WI, 53214","Match","Exact","1025 S 61ST ST, WEST ALLIS, WI, 53214",77733589,"R"
9079,"1025 S ORANGE BLOSSOM TRAIL","ORLANDO","FL",32805,28.529612039,-81.397091368,79,"1025 S ORANGE BLOSSOM TRAIL, ORLANDO, FL, 32805","Match","Exact","1025 S ORANGE BLOSSOM TRL, ORLANDO, FL, 32805",94281038,"L"
9080,"1025 SACRAMENTO","PORTLAND","TX",78374,27.8957698780001,-97.302172163,80,"1025 SACRAMENTO, PORTLAND, TX, 78374","Match","Non_Exact","1025 SACRAMENTO ST, PORTLAND, TX, 78374",637065175,"R"
9081,"1025 SENA DRIVE","METAIRIE","LA",70005,30.0093716740001,-90.134809161,81,"1025 SENA DRIVE, METAIRIE, LA, 70005","Match","Exact","1025 SENA DR, METAIRIE, LA, 70005",93498643,"R"
9082,"1025 SHELMIRE AVENUE","PHILADELPHIA","PA",19111,40.0638426250001,-75.080258257,82,"1025 SHELMIRE AVENUE, PHILADELPHIA, PA, 19111","Match","Exact","1025 SHELMIRE AVE, PHILADELPHIA, PA, 19111",131415771,"L"
9083,"1025 SOUTH ORANGE BLOSSOM TRAIL","ORLANDO","FL",32805,28.5296142290001,-81.397091368,83,"1025 SOUTH ORANGE BLOSSOM TRAIL, ORLANDO, FL, 32805","Match","Exact","1025 S ORANGE BLOSSOM TRL, ORLANDO, FL, 32805",94281038,"L"
9084,"1025 SOUTH ORTONVILLE ROAD","ORTONVILLE","MI",48462,42.8393343560001,-83.4476243139999,84,"1025 SOUTH ORTONVILLE ROAD, ORTONVILLE, MI, 48462","Match","Exact","1025 S ORTONVILLE RD, ORTONVILLE, MI, 48462",69688703,"R"
9085,"1025 SOUTHWOOD DRIVE UNIT U","SAN LUIS OBISPO","CA",93401,35.266055199,-120.643444061,85,"1025 SOUTHWOOD DRIVE UNIT U, SAN LUIS OBISPO, CA, 93401","Match","Exact","1025 SOUTHWOOD DR, SAN LUIS OBISPO, CA, 93401",645446531,"L"
9086,"1025 SPAULDING AVENUE","GRAND RAPIDS","MI",49546,42.9447250320001,-85.540077979,86,"1025 SPAULDING AVENUE, GRAND RAPIDS, MI, 49546","Match","Non_Exact","1025 SPAULDING AVE SE, GRAND RAPIDS, MI, 49546",650607259,"R"
9087,"1025 SWEET BRIER DR","ALIQUIPPA","PW",15001,NA,NA,87,"1025 SWEET BRIER DR, ALIQUIPPA, PW, 15001","No_Match",NA,NA,NA,NA
9088,"1025 TELEGRAPH STREET","RENO","NV",89502,39.516433621,-119.77341903,88,"1025 TELEGRAPH STREET, RENO, NV, 89502","Match","Exact","1025 TELEGRAPH ST, RENO, NV, 89502",107052949,"R"
9089,"1025 TERRA BELLA AVENUE SUITE BU","MOUNTAIN VIEW","CA",94043,37.4084474430001,-122.073457922,89,"1025 TERRA BELLA AVENUE SUITE BU, MOUNTAIN VIEW, CA, 94043","Match","Exact","1025 TERRA BELLA AVE, MOUNTAIN VIEW, CA, 94043",614026264,"L"
9090,"1025 THOMAS JEFFERSON ST NW STE110G","WASHINGTON","DC",20007,38.903300325,-77.060114499,90,"1025 THOMAS JEFFERSON ST NW STE110G, WASHINGTON, DC, 20007","Match","Exact","1025 THOMAS JEFFERSON ST NW, WASHINGTON, DC, 20007",639577641,"R"
9091,"1025 TRAMWAY LN NE","ALBUQUERQUE","NM",87122,35.169386009,-106.48510838,91,"1025 TRAMWAY LN NE, ALBUQUERQUE, NM, 87122","Match","Exact","1025 TRAMWAY LN NE, ALBUQUERQUE, NM, 87122",206723340,"L"
9092,"1025 VERMONT AVENUE NW SUITE 1130","WASHINGTON","DC",20005,38.9028818620001,-77.033554765,92,"1025 VERMONT AVENUE NW SUITE 1130, WASHINGTON, DC, 20005","Match","Exact","1025 VERMONT AVE NW, WASHINGTON, DC, 20005",76225764,"R"
9093,"1025 W 48TH STREET","SAN BERNARDINO","CA",92407,34.171837451,-117.305533773,93,"1025 W 48TH STREET, SAN BERNARDINO, CA, 92407","Match","Exact","1025 48TH ST, SAN BERNARDINO, CA, 92407",144651467,"L"
9094,"1025 W 77TH AVE","ANCHORAGE","AK",99518,61.151464064,-149.898758485,94,"1025 W 77TH AVE, ANCHORAGE, AK, 99518","Match","Exact","1025 W 77TH AVE, ANCHORAGE, AK, 99518",190798252,"R"
9095,"1025 W ADDISON ST SUITE 633","CHICAGO","IL",60613,41.947222663,-87.655513422,95,"1025 W ADDISON ST SUITE 633, CHICAGO, IL, 60613","Match","Non_Exact","1025 W ADDISON ST, CHICAGO, IL, 60613",605238496,"L"
9096,"1025 W ARROW HWY APT 105","GLENDORA","CA",91740,NA,NA,96,"1025 W ARROW HWY APT 105, GLENDORA, CA, 91740","Tie",NA,NA,NA,NA
9097,"1025 W INDIANTOWN ROAD STE 106","JUPITER","FL",33458,26.934020923,-80.1127626379999,97,"1025 W INDIANTOWN ROAD STE 106, JUPITER, FL, 33458","Match","Non_Exact","1025 W INDIANTOWN RD, JUPITER, FL, 33458",640586296,"R"
9098,"1025 W LOOP 820 N","FORT WORTH","TX",76108,NA,NA,98,"1025 W LOOP 820 N, FORT WORTH, TX, 76108","No_Match",NA,NA,NA,NA
9099,"1025 W MACARTHUR AVE APT 122","EAU CLAIRE","WI",54701,NA,NA,99,"1025 W MACARTHUR AVE APT 122, EAU CLAIRE, WI, 54701","Tie",NA,NA,NA,NA
9100,"1025 W SPOFFORD AVE","SPOKANE","WA",99205,47.6722047200001,-117.427123111,100,"1025 W SPOFFORD AVE, SPOKANE, WA, 99205","Match","Exact","1025 W SPOFFORD AVE, SPOKANE, WA, 99205",189874939,"L"
9101,"1025 W SUNNYSIDE AVE SUITE 300","CHICAGO","IL",60640,41.963592572,-87.65561801,101,"1025 W SUNNYSIDE AVE SUITE 300, CHICAGO, IL, 60640","Match","Non_Exact","1025 W SUNNYSIDE AVE, CHICAGO, IL, 60640",605200667,"L"
9102,"1025 W SYCAMORE ST","WILLOWS","CA",95988,39.5204795220001,-122.206386321,102,"1025 W SYCAMORE ST, WILLOWS, CA, 95988","Match","Exact","1025 W SYCAMORE ST, WILLOWS, CA, 95988",67189658,"L"
9103,"1025 W WHEELER AVE","ARANSAS PASS","TX",78336,27.9116186750001,-97.154023164,103,"1025 W WHEELER AVE, ARANSAS PASS, TX, 78336","Match","Exact","1025 W WHEELER AVE, ARANSAS PASS, TX, 78336",36326312,"L"
9104,"1025 WAKEROBIN LANE APT D202","FORT COLLINS","CO",80526,40.5245257610001,-105.094434428,104,"1025 WAKEROBIN LANE APT D202, FORT COLLINS, CO, 80526","Match","Exact","1025 WAKEROBIN LN, FORT COLLINS, CO, 80526",188493671,"R"
9105,"1025 WATER STREET","CARROLLTON","TX",75007,32.9906233470001,-96.9094898499999,105,"1025 WATER STREET, CARROLLTON, TX, 75007","Match","Exact","1025 WATER ST, CARROLLTON, TX, 75007",646661730,"L"
9106,"1025 WAVERLY AVE","HOLTSVILLE","NY",11742,40.8151748590001,-73.044798994,106,"1025 WAVERLY AVE, HOLTSVILLE, NY, 11742","Match","Exact","1025 WAVERLY AVE, HOLTSVILLE, NY, 11742",114007662,"R"
9107,"1025 WERMELING LANE","ELSMERE","KY",41018,38.9967057370001,-84.593610846,107,"1025 WERMELING LANE, ELSMERE, KY, 41018","Match","Exact","1025 WERMELING LN, ELSMERE, KY, 41018",619852017,"L"
9108,"1025 WEST GRANT ST","MACOMB","IL",61455,40.447707393,-90.6865817789999,108,"1025 WEST GRANT ST, MACOMB, IL, 61455","Match","Exact","1025 W GRANT ST, MACOMB, IL, 61455",5369461,"L"
9109,"1025 WEST MAIN ST","BLYTHEVILLE","AR",72315,35.9274069640001,-89.915004921,109,"1025 WEST MAIN ST, BLYTHEVILLE, AR, 72315","Match","Exact","1025 W MAIN ST, BLYTHEVILLE, AR, 72315",47216785,"R"
9110,"1025 WILLOW ST","PORT TOWNSEND","WA",98368,48.1231722530001,-122.769409703,110,"1025 WILLOW ST, PORT TOWNSEND, WA, 98368","Match","Exact","1025 WILLOW ST, PORT TOWNSEND, WA, 98368",152002342,"L"
9111,"1025 WOODYCREST AVE","BRONX","NY",10452,40.8329201010001,-73.92774953,111,"1025 WOODYCREST AVE, BRONX, NY, 10452","Match","Exact","1025 WOODYCREST AVE, BRONX, NY, 10452",80299373,"L"
9112,"10250 BETULA DR","ANCHORAGE","AK",99507,61.1280849290001,-149.849861199,112,"10250 BETULA DR, ANCHORAGE, AK, 99507","Match","Exact","10250 BETULA DR, ANCHORAGE, AK, 99507",190808871,"L"
9113,"10250 BREEZEWAY CIRCLE","BROWNSBURG","IN",46112,39.9132063050001,-86.382404301,113,"10250 BREEZEWAY CIRCLE, BROWNSBURG, IN, 46112","Match","Exact","10250 BREEZEWAY CIR, BROWNSBURG, IN, 46112",89209077,"L"
9114,"10250 CONSTELLATION BLVD 23RD FL","CENTURY CITY","CA",90067,34.057099672,-118.418166347,114,"10250 CONSTELLATION BLVD 23RD FL, CENTURY CITY, CA, 90067","Match","Exact","10250 CONSTELLATION BLVD, CENTURY CITY, CA, 90067",642863946,"R"
9115,"10250 CONSTELLATION BLVD STE 100","CENTURY CITY","CA",90067,34.057099672,-118.418166347,115,"10250 CONSTELLATION BLVD STE 100, CENTURY CITY, CA, 90067","Match","Exact","10250 CONSTELLATION BLVD, CENTURY CITY, CA, 90067",642863946,"R"
9116,"10250 CONSTELLATION BLVD STE 100","LOS ANGELES","CA",90067,34.057099672,-118.418166347,116,"10250 CONSTELLATION BLVD STE 100, LOS ANGELES, CA, 90067","Match","Exact","10250 CONSTELLATION BLVD, LOS ANGELES, CA, 90067",642863946,"R"
9117,"10250 CONSTELLATION BLVD STE 2300","CENTURY CITY","CA",90067,34.057099672,-118.418166347,117,"10250 CONSTELLATION BLVD STE 2300, CENTURY CITY, CA, 90067","Match","Exact","10250 CONSTELLATION BLVD, CENTURY CITY, CA, 90067",642863946,"R"
9118,"10250 CONSTELLATION BOULEVARD 2300","LOS ANGELES","CA",90067,34.057099672,-118.418166347,118,"10250 CONSTELLATION BOULEVARD 2300, LOS ANGELES, CA, 90067","Match","Exact","10250 CONSTELLATION BLVD, LOS ANGELES, CA, 90067",642863946,"R"
9119,"10250 LANDIS BLVD","FISHERS","IN",46040,39.936589729,-85.88655113,119,"10250 LANDIS BLVD, FISHERS, IN, 46040","Match","Exact","10250 LANDIS BLVD, FISHERS, IN, 46040",626227055,"L"
9120,"10250 NE 110TH STREET","ARCHER","FL",32618,29.493729839,-82.6025169709999,120,"10250 NE 110TH STREET, ARCHER, FL, 32618","Match","Exact","10250 NE 110TH ST, ARCHER, FL, 32618",612312679,"R"
9121,"10250 NORMANDY BLVD STE 504","JACKSONVILLE","FL",32221,30.2767293950001,-81.827611706,121,"10250 NORMANDY BLVD STE 504, JACKSONVILLE, FL, 32221","Match","Exact","10250 NORMANDY BLVD, JACKSONVILLE, FL, 32221",83967781,"L"
9122,"10250 NORMANDY BLVD STE 505","JACKSONVILLE","FL",32221,30.2767293950001,-81.827611706,122,"10250 NORMANDY BLVD STE 505, JACKSONVILLE, FL, 32221","Match","Exact","10250 NORMANDY BLVD, JACKSONVILLE, FL, 32221",83967781,"L"
9123,"10250 NORMANDY BLVD SUITE 205","JACKSONVILLE","FL",32221,30.2767293950001,-81.827611706,123,"10250 NORMANDY BLVD SUITE 205, JACKSONVILLE, FL, 32221","Match","Exact","10250 NORMANDY BLVD, JACKSONVILLE, FL, 32221",83967781,"L"
9124,"10250 SE 96TH AVE","HAPPY VALLEY","OR",97086,45.44879861,-122.564449053,124,"10250 SE 96TH AVE, HAPPY VALLEY, OR, 97086","Match","Exact","10250 SE 96TH AVE, HAPPY VALLEY, OR, 97086",633197053,"L"
9125,"10250 SPENCER STREET UNIT 1079","LAS VEGAS","NV",89183,36.0033119940001,-115.127875201,125,"10250 SPENCER STREET UNIT 1079, LAS VEGAS, NV, 89183","Match","Exact","10250 SPENCER ST, LAS VEGAS, NV, 89183",653252768,"L"
9126,"10250 SW 56 STREET STE D201","MIAMI","FL",33165,25.7157242500001,-80.359913467,126,"10250 SW 56 STREET STE D201, MIAMI, FL, 33165","Match","Non_Exact","10250 SW 56TH ST, MIAMI, FL, 33165",116075114,"L"
9127,"10250 SW 57 AVE","MIAMI","FL",33156,NA,NA,127,"10250 SW 57 AVE, MIAMI, FL, 33156","No_Match",NA,NA,NA,NA
9128,"102500 SW GREENBURG RD SUITE 300","PORTLAND","OR",97223,NA,NA,128,"102500 SW GREENBURG RD SUITE 300, PORTLAND, OR, 97223","No_Match",NA,NA,NA,NA
9129,"10251 MAGNOLIA GROVE DR","MANASSAS","VA",20110,38.731836511,-77.478339847,129,"10251 MAGNOLIA GROVE DR, MANASSAS, VA, 20110","Match","Exact","10251 MAGNOLIA GROVE DR, MANASSAS, VA, 20110",653476083,"L"
9130,"10251 MILLER AVE","CUPERTINO","CA",95014,37.3195225270001,-122.013986037,130,"10251 MILLER AVE, CUPERTINO, CA, 95014","Match","Exact","10251 MILLER AVE, CUPERTINO, CA, 95014",618199259,"L"
9131,"10251 SHERWOOD CIRCLE","VILLA PARK","CA",92861,33.8134062080001,-117.820369279,131,"10251 SHERWOOD CIRCLE, VILLA PARK, CA, 92861","Match","Exact","10251 SHERWOOD CIR, VILLA PARK, CA, 92861",144032094,"R"
9132,"10251 TRADEMARK ST SUITE B","RANCHO CUCAMONGA","CA",91730,34.0805837,-117.58079615,132,"10251 TRADEMARK ST SUITE B, RANCHO CUCAMONGA, CA, 91730","Match","Exact","10251 TRADEMARK ST, RANCHO CUCAMONGA, CA, 91730",144991879,"L"
9133,"10251 VISTA SORRENTO PKWY/STE 250","SAN DIEGO","CA",92121,32.8945666910001,-117.213185632,133,"10251 VISTA SORRENTO PKWY/STE 250, SAN DIEGO, CA, 92121","Match","Non_Exact","10251 VISTA SORRENTO PKWY, SAN DIEGO, CA, 92121",637720853,"R"
9134,"10251 W 44TH AVE","WHEAT RIDGE","CO",80033,39.7781601780001,-105.112667637,134,"10251 W 44TH AVE, WHEAT RIDGE, CO, 80033","Match","Exact","10251 W 44TH AVE, WHEAT RIDGE, CO, 80033",177734205,"R"
9135,"10251 W 84TH PLACE","ARVADA","CO",80005,39.8515899000001,-105.112299261,135,"10251 W 84TH PLACE, ARVADA, CO, 80005","Match","Exact","10251 W 84TH PL, ARVADA, CO, 80005",177738356,"L"
9136,"10251 W CRANBERRY CT","BOISE","ID",83704,43.6498264520001,-116.31013821,136,"10251 W CRANBERRY CT, BOISE, ID, 83704","Match","Exact","10251 W CRANBERRY CT, BOISE, ID, 83704",117879843,"L"
9137,"10252 DISTRICT LINE ROAD","BURLINGTON","WA",98233,48.4955862560001,-122.291431318,137,"10252 DISTRICT LINE ROAD, BURLINGTON, WA, 98233","Match","Exact","10252 DISTRICT LINE RD, BURLINGTON, WA, 98233",183651400,"L"
9138,"10252 MILLS AVE","WHITTIER","CA",90604,33.940140931,-118.033673311,138,"10252 MILLS AVE, WHITTIER, CA, 90604","Match","Exact","10252 MILLS AVE, WHITTIER, CA, 90604",640115557,"L"
9139,"10252 STONE CREEK DRIVE","DELAWARE","DE",19956,38.591574128,-75.5738081819999,139,"10252 STONE CREEK DRIVE, DELAWARE, DE, 19956","Match","Non_Exact","10252 STONE CREEK DR, LAUREL, DE, 19956",625877900,"R"
9140,"10253 N SCOTTSDALE RD","PARADISE VALLEY","AZ",85253,33.5793277540001,-111.926003049,140,"10253 N SCOTTSDALE RD, PARADISE VALLEY, AZ, 85253","Match","Exact","10253 N SCOTTSDALE RD, PARADISE VALLEY, AZ, 85253",128221283,"R"
9141,"10254 242ND AVE NE","REDMOND","WA",98053,47.6892336550001,-122.015836645,141,"10254 242ND AVE NE, REDMOND, WA, 98053","Match","Exact","10254 242ND AVE NE, REDMOND, WA, 98053",640914308,"L"
9142,"10254 CANADEO CIRCLE","ELK GROVE","CA",95757,38.3848002410001,-121.445834204,142,"10254 CANADEO CIRCLE, ELK GROVE, CA, 95757","Match","Exact","10254 CANADEO CIR, ELK GROVE, CA, 95757",633434390,"L"
9143,"10254 NW 153RD TERRACE","ALACHUA","FL",32615,29.7497812620001,-82.507655525,143,"10254 NW 153RD TERRACE, ALACHUA, FL, 32615","Match","Exact","10254 153RD TER, ALACHUA, FL, 32615",646106883,"R"
9144,"10255 BRIGHT HARBOR AVE","LAS VEGAS","NV",89135,36.129269353,-115.316775449,144,"10255 BRIGHT HARBOR AVE, LAS VEGAS, NV, 89135","Match","Exact","10255 BRIGHT HARBOR AVE, LAS VEGAS, NV, 89135",201970191,"L"
9145,"10255 DWELL COURT","ORLANDA","FL",32832,28.382939122,-81.2419760289999,145,"10255 DWELL COURT, ORLANDA, FL, 32832","Match","Non_Exact","10255 DWELL CT, ORLANDO, FL, 32832",646615861,"L"
9146,"10255 LEMBERGER BLVD","ZIONVILLE","IN",46077,39.933870487,-86.2617402879999,146,"10255 LEMBERGER BLVD, ZIONVILLE, IN, 46077","Match","Non_Exact","10255 LEMBERGER BLVD, ZIONSVILLE, IN, 46077",651086696,"R"
9147,"10255 PRETTY LAKE TRAIL","PLYMOUTH","IN",46563,41.3283568050001,-86.3704164279999,147,"10255 PRETTY LAKE TRAIL, PLYMOUTH, IN, 46563","Match","Exact","10255 PRETTY LAKE TRL, PLYMOUTH, IN, 46563",7642516,"L"
9148,"10255 S HOYNE AVE","CHICAGO","IL",60643,41.707039207,-87.675224106,148,"10255 S HOYNE AVE, CHICAGO, IL, 60643","Match","Exact","10255 S HOYNE AVE, CHICAGO, IL, 60643",604992730,"L"
9149,"10256 GLENCOE DRIVE","CUPERTINO","CA",95014,37.3266231220001,-122.040338332,149,"10256 GLENCOE DRIVE, CUPERTINO, CA, 95014","Match","Exact","10256 GLENCOE DR, CUPERTINO, CA, 95014",122938149,"R"
9150,"10256 REBEL ST","HOUSTON","TX",77016,29.859696791,-95.291590823,150,"10256 REBEL ST, HOUSTON, TX, 77016","Match","Non_Exact","10256 REBEL RD, HOUSTON, TX, 77016",96075697,"R"
9151,"10257 BERMUDA DRIVE","COOPER CITY","FL",33026,26.041578934,-80.282573052,151,"10257 BERMUDA DRIVE, COOPER CITY, FL, 33026","Match","Non_Exact","10257 BERMUDA DR, HOLLYWOOD, FL, 33026",114760773,"L"
9152,"10257 CASANES AVE","DOWNEY","CA",90241,33.940920373,-118.10767068,152,"10257 CASANES AVE, DOWNEY, CA, 90241","Match","Exact","10257 CASANES AVE, DOWNEY, CA, 90241",142793456,"R"
9153,"10257 SW 37TH PL","GAINESVILLE","FL",32608,29.6198152050001,-82.45101077,153,"10257 SW 37TH PL, GAINESVILLE, FL, 32608","Match","Exact","10257 SW 37TH PL, GAINESVILLE, FL, 32608",633560807,"L"
9154,"10258 N 2400 E RD","DOWNS","IL",61736,40.4325095200001,-88.805939692,154,"10258 N 2400 E RD, DOWNS, IL, 61736","Match","Exact","10258 N 2400 EAST RD, DOWNS, IL, 61736",20592024,"L"
9155,"10258 W CR 18","LAKE BUTLER","FL",32054,29.9460105270001,-82.4506072199999,155,"10258 W CR 18, LAKE BUTLER, FL, 32054","Match","Exact","10258 CO RD 18, LAKE BUTLER, FL, 32054",6779518,"R"
9156,"10258 WEST PASADENA AVE","GLENDALE","AZ",85037,33.5088796800001,-112.280188125,156,"10258 WEST PASADENA AVE, GLENDALE, AZ, 85037","Match","Non_Exact","10258 W PASADENA AVE, GLENDALE, AZ, 85307",128930905,"L"
9157,"10259 BRISTOL RD","SWARTZ CREEK","MI",48473,42.97164359,-83.873155658,157,"10259 BRISTOL RD, SWARTZ CREEK, MI, 48473","Match","Exact","10259 BRISTOL RD, SWARTZ CREEK, MI, 48473",69615227,"L"
9158,"10259 ENGLEWOOD DRIVE","EDEN PRAIRIE","MN",55347,44.8176836600001,-93.429721076,158,"10259 ENGLEWOOD DRIVE, EDEN PRAIRIE, MN, 55347","Match","Exact","10259 ENGLEWOOD DR, EDEN PRAIRIE, MN, 55347",43810098,"L"
9159,"1026 1/2 PINE ST","BOULDER","CO",80302,40.0194352620001,-105.282931378,159,"1026 1/2 PINE ST, BOULDER, CO, 80302","Match","Exact","1026 PINE ST, BOULDER, CO, 80302",188159477,"R"
9160,"1026 10TH AVE SE","SAINT CLOUD","MN",56304,45.555089095,-94.1385970809999,160,"1026 10TH AVE SE, SAINT CLOUD, MN, 56304","Match","Exact","1026 10TH AVE SE, SAINT CLOUD, MN, 56304",97757907,"L"
9161,"1026 12TH AVE S","SAINT CLOUD","MN",56301,45.549014792,-94.164690171,161,"1026 12TH AVE S, SAINT CLOUD, MN, 56301","Match","Exact","1026 12TH AVE S, SAINT CLOUD, MN, 56301",107415376,"L"
9162,"1026 212TH AVE NE","SAMMAMISH","WA",98074,47.6192043240001,-122.057114133,162,"1026 212TH AVE NE, SAMMAMISH, WA, 98074","Match","Exact","1026 212TH AVE NE, SAMMAMISH, WA, 98074",186617499,"R"
9163,"1026 4TH ST NE","MASSILLON","OH",44646,40.8089605050001,-81.519138734,163,"1026 4TH ST NE, MASSILLON, OH, 44646","Match","Exact","1026 4TH ST NE, MASSILLON, OH, 44646",64668658,"R"
9164,"1026 AMELIA ST","NEW ORLEANS","LA",70115,29.9209493000001,-90.093052681,164,"1026 AMELIA ST, NEW ORLEANS, LA, 70115","Match","Exact","1026 AMELIA ST, NEW ORLEANS, LA, 70115",191713201,"L"
9165,"1026 B ATLANTA AVENUE","DECATUR","GA",30030,33.768141905,-84.304715121,165,"1026 B ATLANTA AVENUE, DECATUR, GA, 30030","Match","Exact","1026 ATLANTA AVE, DECATUR, GA, 30030",23388136,"L"
9166,"1026 BEAL CT","INDIANAPOLIS","IN",46217,39.6633506860001,-86.178348973,166,"1026 BEAL CT, INDIANAPOLIS, IN, 46217","Match","Exact","1026 BEAL CT, INDIANAPOLIS, IN, 46217",108046227,"R"
9167,"1026 BRYDEN AVE","LEWISTON","ID",83501,46.3803185730001,-116.978196247,167,"1026 BRYDEN AVE, LEWISTON, ID, 83501","Match","Exact","1026 BRYDEN AVE, LEWISTON, ID, 83501",173132771,"L"
9168,"1026 CASCADE DRIVE","MENLO PARK","CA",94025,37.428214344,-122.208413434,168,"1026 CASCADE DRIVE, MENLO PARK, CA, 94025","Match","Exact","1026 CASCADE DR, MENLO PARK, CA, 94025",192364628,"R"
9169,"1026 CAYER DRIVE SUITE 701","GLEN BURNIE","MD",21061,39.1501601690001,-76.624611451,169,"1026 CAYER DRIVE SUITE 701, GLEN BURNIE, MD, 21061","Match","Exact","1026 CAYER DR, GLEN BURNIE, MD, 21061",606943964,"R"
9170,"1026 COLLIER RD E5","ATLANTA","GA",30318,NA,NA,170,"1026 COLLIER RD E5, ATLANTA, GA, 30318","No_Match",NA,NA,NA,NA
9171,"1026 CRICKET LANE","WOODBRIDGE","NJ",7095,40.542873937,-74.2866239699999,171,"1026 CRICKET LANE, WOODBRIDGE, NJ, 7095","Match","Exact","1026 CRICKET LN, WOODBRIDGE, NJ, 07095",60351458,"L"
9172,"1026 DOROTHY DR","CORPUS CHRISTI","TX",78412,27.7132587450001,-97.363418173,172,"1026 DOROTHY DR, CORPUS CHRISTI, TX, 78412","Match","Non_Exact","1026 DORTHY DR, CORPUS CHRISTI, TX, 78412",178521634,"L"
9173,"1026 EDDINGTON ROAD","PONTOTOC","MS",38863,34.1268396200001,-88.9168805899999,173,"1026 EDDINGTON ROAD, PONTOTOC, MS, 38863","Match","Exact","1026 EDDINGTON RD, PONTOTOC, MS, 38863",77005889,"L"
9174,"1026 EMORY ST","OXFORD","GA",30054,33.624018532,-83.8674645569999,174,"1026 EMORY ST, OXFORD, GA, 30054","Match","Exact","1026 EMORY ST, OXFORD, GA, 30054",23615719,"R"
9175,"1026 F AVENUE","PLANO","TX",75074,33.012615813,-96.705652754,175,"1026 F AVENUE, PLANO, TX, 75074","Match","Exact","1026 F AVE, PLANO, TX, 75074",123511520,"R"
9176,"1026 FAIRVIEW PLACE","HILLSIDE","NJ",7205,40.6888254990001,-74.22499284,176,"1026 FAIRVIEW PLACE, HILLSIDE, NJ, 7205","Match","Exact","1026 FAIRVIEW PL, HILLSIDE, NJ, 07205",60577701,"L"
9177,"1026 FLAGSTONE DR","SAN ANTONIO","TX",78260,29.6714225220001,-98.5103991289999,177,"1026 FLAGSTONE DR, SAN ANTONIO, TX, 78260","Match","Exact","1026 FLAGSTONE DR, SAN ANTONIO, TX, 78260",101490426,"L"
9178,"1026 FLEEMAN RD","HOSCHTON","GA",30548,34.062652993,-83.820608684,178,"1026 FLEEMAN RD, HOSCHTON, GA, 30548","Match","Exact","1026 FLEEMAN RD, HOSCHTON, GA, 30548",632644458,"L"
9179,"1026 FOUNTAIN ROAD","JACKSONVILLE","FL",32205,30.3072112900001,-81.74566437,179,"1026 FOUNTAIN ROAD, JACKSONVILLE, FL, 32205","Match","Exact","1026 FOUNTAIN RD, JACKSONVILLE, FL, 32205",83968366,"R"
9180,"1026 GOODVIEW DRIVE","FRONT ROYAL","VA",22630,38.926380055,-78.167422189,180,"1026 GOODVIEW DRIVE, FRONT ROYAL, VA, 22630","Match","Exact","1026 GOODVIEW DR, FRONT ROYAL, VA, 22630",159079683,"R"
9181,"1026 HICKORY STREET","IRVING","TX",75060,32.8043826270001,-96.98519598,181,"1026 HICKORY STREET, IRVING, TX, 75060","Match","Exact","1026 HICKORY ST, IRVING, TX, 75060",102887367,"L"
9182,"1026 JAY STREET SUITE B17","CHARLOTTE","NC",28208,NA,NA,182,"1026 JAY STREET SUITE B17, CHARLOTTE, NC, 28208","No_Match",NA,NA,NA,NA
9183,"1026 JULIA LANE APT A","LAFAYETTE","IN",47905,40.405183519,-86.834837213,183,"1026 JULIA LANE APT A, LAFAYETTE, IN, 47905","Match","Exact","1026 JULIA LN, LAFAYETTE, IN, 47905",636518660,"R"
9184,"1026 KINGS FOREST LANE","RICHMOND","TX",77469,29.5152059600001,-95.671522555,184,"1026 KINGS FOREST LANE, RICHMOND, TX, 77469","Match","Exact","1026 KINGS FOREST LN, RICHMOND, TX, 77469",627737701,"L"
9185,"1026 LAKE CLAIRE DR","ANNAPOLIS","MD",21409,39.049043694,-76.450175068,185,"1026 LAKE CLAIRE DR, ANNAPOLIS, MD, 21409","Match","Exact","1026 LAKE CLAIRE DR, ANNAPOLIS, MD, 21409",68174759,"L"
9186,"1026 MONROE STREET NE","WASHINGTON","MD",20017,NA,NA,186,"1026 MONROE STREET NE, WASHINGTON, MD, 20017","No_Match",NA,NA,NA,NA
9187,"1026 N BLACKBIRD DR","GILBERT","AZ",85234,33.369113272,-111.691643022,187,"1026 N BLACKBIRD DR, GILBERT, AZ, 85234","Match","Exact","1026 N BLACKBIRD DR, GILBERT, AZ, 85234",128791129,"L"
9188,"1026 N HIGHLAND AVENUE","LOS ANGELES","CA",90038,34.0894613450001,-118.33858545,188,"1026 N HIGHLAND AVENUE, LOS ANGELES, CA, 90038","Match","Exact","1026 N HIGHLAND AVE, LOS ANGELES, CA, 90038",141599523,"R"
9189,"1026 N LINCOLN ST","GREENSBURG","IN",47240,39.346372418,-85.479324724,189,"1026 N LINCOLN ST, GREENSBURG, IN, 47240","Match","Exact","1026 N LINCOLN ST, GREENSBURG, IN, 47240",31188959,"R"
9190,"1026 NORTH 7TH STREET","NASHVILLE","TN",37207,36.188781082,-86.760024463,190,"1026 NORTH 7TH STREET, NASHVILLE, TN, 37207","Match","Exact","1026 N 7TH ST, NASHVILLE, TN, 37207",97187705,"L"
9191,"1026 NORTH CENTER ST","HICKORY","NC",28601,35.7467336220001,-81.338055911,191,"1026 NORTH CENTER ST, HICKORY, NC, 28601","Match","Exact","1026 N CENTER ST, HICKORY, NC, 28601",45904341,"R"
9192,"1026 NORTH TOWNSEND STREET","SYRACUSE","NY",13208,43.0614024610001,-76.152162802,192,"1026 NORTH TOWNSEND STREET, SYRACUSE, NY, 13208","Match","Exact","1026 N TOWNSEND ST, SYRACUSE, NY, 13208",46569322,"R"
9193,"1026 OLD HUNTER RUN","BYRON","IL",61010,42.138650881,-89.285994549,193,"1026 OLD HUNTER RUN, BYRON, IL, 61010","Match","Exact","1026 OLD HUNTER RUN, BYRON, IL, 61010",52332249,"L"
9194,"1026 OLD PEACHTREE ROAD NE","LAWRENCEVILLE","GA",30043,34.0341066400001,-83.992880637,194,"1026 OLD PEACHTREE ROAD NE, LAWRENCEVILLE, GA, 30043","Match","Exact","1026 OLD PEACHTREE RD NE, LAWRENCEVILLE, GA, 30043",644928717,"L"
9195,"1026 PALM ST SUITE 211","SAN LUIS OBISPO","CA",93401,35.282929773,-120.661682385,195,"1026 PALM ST SUITE 211, SAN LUIS OBISPO, CA, 93401","Match","Exact","1026 PALM ST, SAN LUIS OBISPO, CA, 93401",109732111,"L"
9196,"1026 PINNACLE HILLS DRIVE","MURFREESBORO","TN",37128,35.7739622190001,-86.493358111,196,"1026 PINNACLE HILLS DRIVE, MURFREESBORO, TN, 37128","Match","Exact","1026 PINNACLE HILLS DR, MURFREESBORO, TN, 37128",606769674,"R"
9197,"1026 PRUITT PL","TYLER","TX",75703,32.301647518,-95.312787271,197,"1026 PRUITT PL, TYLER, TX, 75703","Match","Exact","1026 PRUITT PL, TYLER, TX, 75703",141292972,"R"
9198,"1026 RED OAK DRIVE","LONGMONT","CO",80504,40.18434374,-105.072756271,198,"1026 RED OAK DRIVE, LONGMONT, CO, 80504","Match","Exact","1026 RED OAK DR, LONGMONT, CO, 80504",188183173,"L"
9199,"1026 REESE STREET","SILVERTON","CO",81433,37.8107274590001,-107.666568778,199,"1026 REESE STREET, SILVERTON, CO, 81433","Match","Exact","1026 REESE ST, SILVERTON, CO, 81433",91651533,"R"
9200,"1026 S 12TH AVE","MAYWOOD","IL",60153,41.877939778,-87.8474664299999,200,"1026 S 12TH AVE, MAYWOOD, IL, 60153","Match","Exact","1026 S 12TH AVE, MAYWOOD, IL, 60153",605142681,"R"
9201,"1026 S 32ND AVE","SHELBY","MI",49455,43.627663307,-86.478338266,201,"1026 S 32ND AVE, SHELBY, MI, 49455","Match","Exact","1026 S 32ND AVE, SHELBY, MI, 49455",163722170,"R"
9202,"1026 S 52ND STREET","PHILADELPHIA","PA",19143,39.9441321840001,-75.223164558,202,"1026 S 52ND STREET, PHILADELPHIA, PA, 19143","Match","Exact","1026 S 52ND ST, PHILADELPHIA, PA, 19143",131399859,"R"
9203,"1026 S ROBERTSON BLVD THIRD FLOOR","LOS ANGELES","CA",90035,34.058670932,-118.383623026,203,"1026 S ROBERTSON BLVD THIRD FLOOR, LOS ANGELES, CA, 90035","Match","Non_Exact","1026 S ROBERTSON BLVD, LOS ANGELES, CA, 90035",141573004,"L"
9204,"1026 S WINDSOR BLVD","LOS ANGELES","CA",90019,34.054847501,-118.325776025,204,"1026 S WINDSOR BLVD, LOS ANGELES, CA, 90019","Match","Exact","1026 S WINDSOR BLVD, LOS ANGELES, CA, 90019",141600546,"L"
9205,"1026 SANTA CLARA","BROWNWOOD","TX",76801,31.721591007,-99.006832701,205,"1026 SANTA CLARA, BROWNWOOD, TX, 76801","Match","Non_Exact","1026 SANTA CLARA DR, BROWNWOOD, TX, 76801",129453240,"R"
9206,"1026 SIMS AVE NW SIDE B","ATLANTA","GA",30318,33.7820476540001,-84.452756347,206,"1026 SIMS AVE NW SIDE B, ATLANTA, GA, 30318","Match","Exact","1026 SIMS AVE NW, ATLANTA, GA, 30318",17339613,"L"
9207,"1026 SIMS AVE NW","ATLANTA","GA",30318,33.7820476540001,-84.452756347,207,"1026 SIMS AVE NW, ATLANTA, GA, 30318","Match","Exact","1026 SIMS AVE NW, ATLANTA, GA, 30318",17339613,"L"
9208,"1026 SMITH MANOR BLVD","WEST ORANGE","NJ",7052,40.800497975,-74.242938975,208,"1026 SMITH MANOR BLVD, WEST ORANGE, NJ, 7052","Match","Exact","1026 SMITH MANOR BLVD, WEST ORANGE, NJ, 07052",617271513,"R"
9209,"1026 SOUTH FULTON STREET","SALISBURY","NC",28144,35.661690209,-80.484271349,209,"1026 SOUTH FULTON STREET, SALISBURY, NC, 28144","Match","Exact","1026 S FULTON ST, SALISBURY, NC, 28144",25268725,"R"
9210,"1026 SPRUCE ST","NORTON","VA",24273,NA,NA,210,"1026 SPRUCE ST, NORTON, VA, 24273","No_Match",NA,NA,NA,NA
9211,"1026 STANFORD","IRVINE","CA",92612,33.651835455,-117.838876827,211,"1026 STANFORD, IRVINE, CA, 92612","Match","Non_Exact","1026 STANFORD CT, IRVINE, CA, 92612",144410281,"L"
9212,"1026 STATE ST","ADRIAN","MI",49221,41.8838752280001,-84.035224177,212,"1026 STATE ST, ADRIAN, MI, 49221","Match","Exact","1026 STATE ST, ADRIAN, MI, 49221",25943475,"L"
9213,"1026 SW 24TH AVE","BOYNTON BEACH","FL",33426,26.506285556,-80.080261202,213,"1026 SW 24TH AVE, BOYNTON BEACH, FL, 33426","Match","Exact","1026 SW 24TH AVE, BOYNTON BEACH, FL, 33426",115289415,"L"
9214,"1026 TRELLIS DR","GARLAND","TX",75040,32.9212785980001,-96.624666237,214,"1026 TRELLIS DR, GARLAND, TX, 75040","Match","Exact","1026 TRELLIS DR, GARLAND, TX, 75040",102926463,"R"
9215,"1026 W 7TH PL","JUNCTION CITY","OR",97448,44.2202228260001,-123.211310824,215,"1026 W 7TH PL, JUNCTION CITY, OR, 97448","Match","Exact","1026 W 7TH PL, JUNCTION CITY, OR, 97448",178204784,"R"
9216,"1026 W ALFRED ST","TAMPA","FL",33603,27.9713579890001,-82.474307104,216,"1026 W ALFRED ST, TAMPA, FL, 33603","Match","Exact","1026 W ALFRED ST, TAMPA, FL, 33603",104521138,"L"
9217,"1026 WAR BONNET WAY","INCLINE VILLAGE","NV",89451,39.2431590510001,-119.932368525,217,"1026 WAR BONNET WAY, INCLINE VILLAGE, NV, 89451","Match","Exact","1026 WAR BONNET WAY, INCLINE VILLAGE, NV, 89451",107056892,"L"
9218,"1026 WENTWOOD DRIVE","DESOTO","TX",75115,32.572011015,-96.8681496629999,218,"1026 WENTWOOD DRIVE, DESOTO, TX, 75115","Match","Exact","1026 WENTWOOD DR, DESOTO, TX, 75115",102995214,"L"
9219,"1026 WEST 5TH STREET","HASTINGS","MN",55033,NA,NA,219,"1026 WEST 5TH STREET, HASTINGS, MN, 55033","No_Match",NA,NA,NA,NA
9220,"1026 WINTERGREEN TERRACE","ROCKVILLE","MD",20850,39.1036227610001,-77.1712007259999,220,"1026 WINTERGREEN TERRACE, ROCKVILLE, MD, 20850","Match","Exact","1026 WINTERGREEN TER, ROCKVILLE, MD, 20850",62052860,"L"
9221,"1026 WOOD PARK DRIVE","NORTH BALDWIN","NY",11510,40.681600884,-73.603008804,221,"1026 WOOD PARK DRIVE, NORTH BALDWIN, NY, 11510","Match","Exact","1026 WOOD PARK DR, N BALDWIN, NY, 11510",147629394,"L"
9222,"10260 LINDSEY MEADOW CT","FAIRFAX","VA",22032,38.8080911750001,-77.30045468,222,"10260 LINDSEY MEADOW CT, FAIRFAX, VA, 22032","Match","Exact","10260 LINDSEY MEADOW CT, FAIRFAX, VA, 22032",624435125,"L"
9223,"10260 N CENTRAL EXPWY SUITE 285","DALLAS","TX",75231,32.885785862,-96.769678417,223,"10260 N CENTRAL EXPWY SUITE 285, DALLAS, TX, 75231","Match","Non_Exact","10260 N CENTRAL EXPY, DALLAS, TX, 75231",102902472,"R"
9224,"10260 PLAINVIEW AVE APT 29","TUJUNGA","CA",91042,34.2553808220001,-118.297912217,224,"10260 PLAINVIEW AVE APT 29, TUJUNGA, CA, 91042","Match","Exact","10260 PLAINVIEW AVE, TUJUNGA, CA, 91042",141588073,"R"
9225,"10260 PORTO MONIZ WAY","ELK GROVE","CA",95757,38.384641565,-121.426411214,225,"10260 PORTO MONIZ WAY, ELK GROVE, CA, 95757","Match","Exact","10260 PORTO MONIZ WAY, ELK GROVE, CA, 95757",133442805,"R"
9226,"10260 SW GREENBURG RD SUITE 1180","PORTLAND","OR",97223,45.445707676,-122.776478857,226,"10260 SW GREENBURG RD SUITE 1180, PORTLAND, OR, 97223","Match","Non_Exact","10260 SW GREENBURG RD, PORTLAND, OR, 97223",637872182,"L"
9227,"10260 SW GREENBURG ROAD  SUITE 400","PORTLAND","OR",97223,45.445707676,-122.776478857,227,"10260 SW GREENBURG ROAD  SUITE 400, PORTLAND, OR, 97223","Match","Non_Exact","10260 SW GREENBURG RD, PORTLAND, OR, 97223",637872182,"L"
9228,"10262 SEDALIA STREET","COMMERCE CITY","CO",80022,39.8820392170001,-104.783354775,228,"10262 SEDALIA STREET, COMMERCE CITY, CO, 80022","Match","Exact","10262 SEDALIA ST, COMMERCE CITY, CO, 80022",177463311,"R"
9229,"10263 COUNTRY FLATS LANE","LAS VEGAS","NV",89135,36.143115542,-115.317865557,229,"10263 COUNTRY FLATS LANE, LAS VEGAS, NV, 89135","Match","Exact","10263 COUNTRY FLATS LN, LAS VEGAS, NV, 89135",201957728,"R"
9230,"10263 LA CANADA WAY","SHADOW HILLS","CA",91040,34.25960966,-118.3532947,230,"10263 LA CANADA WAY, SHADOW HILLS, CA, 91040","Match","Exact","10263 LA CANADA WAY, SHADOW HILLS, CA, 91040",141586212,"R"
9231,"10264 GRECIAN LAUREL CT","LAS VEGAS","NV",89183,36.0037163860001,-115.146372325,231,"10264 GRECIAN LAUREL CT, LAS VEGAS, NV, 89183","Match","Exact","10264 GRECIAN LAUREL CT, LAS VEGAS, NV, 89183",201961870,"L"
9232,"10264 N FRONTAGE RD","YUMA","AZ",85365,32.6702234590001,-114.456003201,232,"10264 N FRONTAGE RD, YUMA, AZ, 85365","Match","Non_Exact","10264 E FRONTAGE RD, YUMA, AZ, 85365",129673143,"R"
9233,"10264 PRITAM DR","EL PASO","TX",79927,31.665914609,-106.276899763,233,"10264 PRITAM DR, EL PASO, TX, 79927","Match","Exact","10264 PRITAM DR, EL PASO, TX, 79927",189356405,"L"
9234,"10264 SPRINGHILL DR","SPRINGHILL","FL",34608,28.458532975,-82.5522393219999,234,"10264 SPRINGHILL DR, SPRINGHILL, FL, 34608","Match","Non_Exact","10264 SPRING HILL DR, SPRING HILL, FL, 34608",85447916,"R"
9235,"10265 BRIDGE ST","DENTON","MD",21629,38.8895146360001,-75.839870269,235,"10265 BRIDGE ST, DENTON, MD, 21629","Match","Exact","10265 BRIDGE ST, DENTON, MD, 21629",68306950,"R"
9236,"10265 CARMEL DR","PLAIN CITY","OH",43064,40.1555956080001,-83.239433527,236,"10265 CARMEL DR, PLAIN CITY, OH, 43064","Match","Exact","10265 CARMEL DR, PLAIN CITY, OH, 43064",210637579,"R"
9237,"10265 ROCKINGHAM DRIVE SUITE 140","SACRAMENTO","CA",95827,38.57396285,-121.308167364,237,"10265 ROCKINGHAM DRIVE SUITE 140, SACRAMENTO, CA, 95827","Match","Exact","10265 ROCKINGHAM DR, SACRAMENTO, CA, 95827",133410283,"L"
9238,"10265 SHAWNS GROVE PLACE","Mechanicsville","VA",23116,37.686502438,-77.414119609,238,"10265 SHAWNS GROVE PLACE, Mechanicsville, VA, 23116","Match","Exact","10265 SHAWNS GROVE PL, MECHANICSVILLE, VA, 23116",84969746,"R"
9239,"10266 E 112TH WAY","HENDERSON","CO",80640,39.9018770060001,-104.868370618,239,"10266 E 112TH WAY, HENDERSON, CO, 80640","Match","Exact","10266 E 112TH WAY, HENDERSON, CO, 80640",177468648,"R"
9240,"10266 ROCKINGHAM ROAD","SACRAMENTO","CA",95827,38.5739491470001,-121.308238969,240,"10266 ROCKINGHAM ROAD, SACRAMENTO, CA, 95827","Match","Non_Exact","10266 ROCKINGHAM DR, SACRAMENTO, CA, 95827",133410283,"R"
9241,"10268 JENNY LYNN WAY","ELK GROVE","CA",95757,38.384330586,-121.430979825,241,"10268 JENNY LYNN WAY, ELK GROVE, CA, 95757","Match","Exact","10268 JENNY LYNN WAY, ELK GROVE, CA, 95757",133435874,"R"
9242,"10268 S ANDOVER COACH LN UNIT B2","LAKE WORTH","FL",33449,26.6156443620001,-80.208851062,242,"10268 S ANDOVER COACH LN UNIT B2, LAKE WORTH, FL, 33449","Match","Exact","10268 ANDOVER COACH LN, LAKE WORTH, FL, 33449",115486763,"R"
9243,"10269 CHEVIOT DRIVE","LOS ANGELES","CA",90064,34.036893057,-118.407975664,243,"10269 CHEVIOT DRIVE, LOS ANGELES, CA, 90064","Match","Exact","10269 CHEVIOT DR, LOS ANGELES, CA, 90064",141573499,"R"
9244,"1027 140TH AVE SE APT 207","BELLEVUE","WA",98005,47.6008006340001,-122.153133754,244,"1027 140TH AVE SE APT 207, BELLEVUE, WA, 98005","Match","Exact","1027 140TH AVE SE, BELLEVUE, WA, 98005",652992161,"R"
9245,"1027 18TH AVENUE","HONOLULU","HI",96816,21.2766687880001,-157.793886049,245,"1027 18TH AVENUE, HONOLULU, HI, 96816","Match","Exact","1027 18TH AVE, HONOLULU, HI, 96816",203243054,"R"
9246,"1027 33RD STREET NW SUITE 260","WASHINGTON","DC",20007,38.9044547550001,-77.065993486,246,"1027 33RD STREET NW SUITE 260, WASHINGTON, DC, 20007","Match","Exact","1027 33RD ST NW, WASHINGTON, DC, 20007",76237792,"R"
9247,"1027 45TH STREET NE","WASHINGTON","DC",20019,38.9034078220001,-76.937651868,247,"1027 45TH STREET NE, WASHINGTON, DC, 20019","Match","Exact","1027 45TH ST NE, WASHINGTON, DC, 20019",76233267,"R"
9248,"1027 7TH AVE E","CRESCO","IA",52136,43.3783497060001,-92.101374816,248,"1027 7TH AVE E, CRESCO, IA, 52136","Match","Exact","1027 7TH AVE E, CRESCO, IA, 52136",27407710,"R"
9249,"1027 7TH AVE","GRACEVILLE","FL",32440,30.9562991130001,-85.511730571,249,"1027 7TH AVE, GRACEVILLE, FL, 32440","Match","Exact","1027 7TH AVE, GRACEVILLE, FL, 32440",636359831,"L"
9250,"1027 9TH ST 10","SANTA MONICA","CA",90403,34.0252757420001,-118.496257232,250,"1027 9TH ST 10, SANTA MONICA, CA, 90403","Match","Exact","1027 9TH ST, SANTA MONICA, CA, 90403",141559114,"L"
9251,"1027 ACACIA DR NE","CEDAR RAPIDS","IA",52402,42.053711042,-91.651277759,251,"1027 ACACIA DR NE, CEDAR RAPIDS, IA, 52402","Match","Exact","1027 ACACIA DR NE, CEDAR RAPIDS, IA, 52402",641816414,"R"
9252,"1027 ADELINE STREET","OAKLAND","CA",94607,37.8069108440001,-122.287186664,252,"1027 ADELINE STREET, OAKLAND, CA, 94607","Match","Exact","1027 ADELINE ST, OAKLAND, CA, 94607",606150824,"L"
9253,"1027 B STATE ROAD 503","CUNDIYO","NM",87522,NA,NA,253,"1027 B STATE ROAD 503, CUNDIYO, NM, 87522","No_Match",NA,NA,NA,NA
9254,"1027 BONNIE BLUE CIRCLE","WILLIAMSTOWN","NJ",8094,39.678757293,-75.026291049,254,"1027 BONNIE BLUE CIRCLE, WILLIAMSTOWN, NJ, 8094","Match","Exact","1027 BONNIE BLUE CIR, WILLIAMSTOWN, NJ, 08094",614833449,"L"
9255,"1027 BRANWELL DR","DURHAM","NC",27703,35.8985155350001,-78.8270339589999,255,"1027 BRANWELL DR, DURHAM, NC, 27703","Match","Exact","1027 BRANWELL DR, DURHAM, NC, 27703",648115682,"L"
9256,"1027 CARRIAGE LANE","CASPER","WY",82609,42.840212787,-106.268563727,256,"1027 CARRIAGE LANE, CASPER, WY, 82609","Match","Exact","1027 CARRIAGE LN, CASPER, WY, 82609",149031145,"L"
9257,"1027 CHAPLINE STREET","WHEELING","WV",26003,40.0697483210001,-80.721712463,257,"1027 CHAPLINE STREET, WHEELING, WV, 26003","Match","Exact","1027 CHAPLINE ST, WHEELING, WV, 26003",38088697,"R"
9258,"1027 CHICAMAUGA AVE","NASHVILLE","TN",37206,36.18494329,-86.750555193,258,"1027 CHICAMAUGA AVE, NASHVILLE, TN, 37206","Match","Exact","1027 CHICAMAUGA AVE, NASHVILLE, TN, 37206",97188823,"L"
9259,"1027 CHRISTY DRIVE","NICEVILLE","FL",32578,30.5075089910001,-86.4805607599999,259,"1027 CHRISTY DRIVE, NICEVILLE, FL, 32578","Match","Exact","1027 CHRISTY DR, NICEVILLE, FL, 32578",74393519,"R"
9260,"1027 CLIFF STREET","NORTH BRADDOCK","PA",15104,40.4069922080001,-79.85852447,260,"1027 CLIFF STREET, NORTH BRADDOCK, PA, 15104","Match","Non_Exact","1027 CLIFF ST, BRADDOCK, PA, 15104",51670112,"L"
9261,"1027 COLUMBIA ST","HOOD RIVER","OR",97031,45.710097456,-121.52201355,261,"1027 COLUMBIA ST, HOOD RIVER, OR, 97031","Match","Exact","1027 COLUMBIA ST, HOOD RIVER, OR, 97031",158132550,"R"
9262,"1027 DAYLAN HEIGHTS","SCHERTZ","TX",78154,29.574032479,-98.2673069099999,262,"1027 DAYLAN HEIGHTS, SCHERTZ, TX, 78154","Match","Exact","1027 DAYLAN HTS, SCHERTZ, TX, 78154",650204373,"L"
9263,"1027 DEEP ROOTS LN","WEIMAR","TX",78962,NA,NA,263,"1027 DEEP ROOTS LN, WEIMAR, TX, 78962","No_Match",NA,NA,NA,NA
9264,"1027 DYER CREEK PLACE","ROUND ROCK","TX",78665,30.507481221,-97.634544835,264,"1027 DYER CREEK PLACE, ROUND ROCK, TX, 78665","Match","Exact","1027 DYER CREEK PL, ROUND ROCK, TX, 78665",617768100,"L"
9265,"1027 E MILLCREEK WAY","SALT LAKE CITY","UT",84106,40.695452286,-111.861877222,265,"1027 E MILLCREEK WAY, SALT LAKE CITY, UT, 84106","Match","Exact","1027 E MILLCREEK WAY, SALT LAKE CITY, UT, 84106",176082511,"L"
9266,"1027 FILMORE AVE","ERIE","PA",16505,42.1025333380001,-80.143953983,266,"1027 FILMORE AVE, ERIE, PA, 16505","Match","Exact","1027 FILMORE AVE, ERIE, PA, 16505",117492722,"L"
9267,"1027 GEORGIA AVE","THOMASVILLE","NC",27360,35.879296459,-80.0602646679999,267,"1027 GEORGIA AVE, THOMASVILLE, NC, 27360","Match","Exact","1027 GEORGIA AVE, THOMASVILLE, NC, 27360",20219018,"L"
9268,"1027 GEORGIA AVENUE","THOMASVILLE","NC",27360,35.879296459,-80.0602646679999,268,"1027 GEORGIA AVENUE, THOMASVILLE, NC, 27360","Match","Exact","1027 GEORGIA AVE, THOMASVILLE, NC, 27360",20219018,"L"
9269,"1027 HENRY DR","ALABASTER","AL",35007,33.207028925,-86.8212587529999,269,"1027 HENRY DR, ALABASTER, AL, 35007","Match","Exact","1027 HENRY DR, ALABASTER, AL, 35007",609316343,"R"
9270,"1027 HICKORY RIDGE ROAD","SMYRNA","DE",19977,39.2500784010001,-75.594264143,270,"1027 HICKORY RIDGE ROAD, SMYRNA, DE, 19977","Match","Exact","1027 HICKORY RIDGE RD, SMYRNA, DE, 19977",648167965,"R"
9271,"1027 HOOPER AVENUE STE 5","TOMS RIVER","NJ",8753,39.968881733,-74.1840289519999,271,"1027 HOOPER AVENUE STE 5, TOMS RIVER, NJ, 8753","Match","Exact","1027 HOOPER AVE, TOMS RIVER, NJ, 08753",642135071,"L"
9272,"1027 JERUSALEM AVE UNIT 119","UNIONDALE","NY",11553,40.6948849070001,-73.581252351,272,"1027 JERUSALEM AVE UNIT 119, UNIONDALE, NY, 11553","Match","Exact","1027 JERUSALEM AVE, UNIONDALE, NY, 11553",638297502,"L"
9273,"1027 KAINS AVE APT B","ALBANY","CA",94706,37.8859583560001,-122.296616443,273,"1027 KAINS AVE APT B, ALBANY, CA, 94706","Match","Exact","1027 KAINS AVE, ALBANY, CA, 94706",124992819,"L"
9274,"1027 MALBEC LANE","BRENTWOOD","CA",94513,37.909601669,-121.731549257,274,"1027 MALBEC LANE, BRENTWOOD, CA, 94513","Match","Exact","1027 MALBEC LN, BRENTWOOD, CA, 94513",627906106,"R"
9275,"1027 MARCY PLAZA 402","OMAHA","NE",68108,NA,NA,275,"1027 MARCY PLAZA 402, OMAHA, NE, 68108","No_Match",NA,NA,NA,NA
9276,"1027 MEADOW DRIVE","READING","PA",19605,40.406290153,-75.9558209369999,276,"1027 MEADOW DRIVE, READING, PA, 19605","Match","Exact","1027 MEADOW DR, READING, PA, 19605",80426601,"L"
9277,"1027 MEDLIN DR","CARY","NC",27511,35.770946081,-78.801696691,277,"1027 MEDLIN DR, CARY, NC, 27511","Match","Exact","1027 MEDLIN DR, CARY, NC, 27511",72497334,"R"
9278,"1027 MOUNTAIN ROAD/ P O BOX 652","HALIFAX","VA",24558,36.7556357330001,-79.037500479,278,"1027 MOUNTAIN ROAD/ P O BOX 652, HALIFAX, VA, 24558","Match","Non_Exact","1027 MOUNTAIN RD, HALIFAX, VA, 24558",648429171,"R"
9279,"1027 MT AIRY DRIVE SW","ATLANTA","GA",30311,33.7279922600001,-84.4648016369999,279,"1027 MT AIRY DRIVE SW, ATLANTA, GA, 30311","Match","Exact","1027 MOUNT AIRY DR SW, ATLANTA, GA, 30311",17433526,"R"
9280,"1027 N 8TH AVE E","DULUTH","MN",55805,46.8013552520001,-92.0993039589999,280,"1027 N 8TH AVE E, DULUTH, MN, 55805","Match","Exact","1027 N 8TH AVE E, DULUTH, MN, 55805",163222731,"L"
9281,"1027 N CENTRAL AVE","PIERRE","SD",57501,44.3802021000001,-100.353015498,281,"1027 N CENTRAL AVE, PIERRE, SD, 57501","Match","Exact","1027 N CENTRAL AVE, PIERRE, SD, 57501",200328059,"L"
9282,"1027 N CYPRESS AVE","CLOVIS","CA",93611,36.8485829100001,-119.676792219,282,"1027 N CYPRESS AVE, CLOVIS, CA, 93611","Match","Exact","1027 N CYPRESS AVE, CLOVIS, CA, 93611",197621771,"R"
9283,"1027 NORTH BROADWAY","BALTIMORE","MD",21205,39.30230642,-76.594383826,283,"1027 NORTH BROADWAY, BALTIMORE, MD, 21205","Match","Exact","1027 N BROADWAY, BALTIMORE, MD, 21205",646504301,"L"
9284,"1027 OPELIKA RD","AUBURN","AL",36830,32.6189187200001,-85.460488829,284,"1027 OPELIKA RD, AUBURN, AL, 36830","Match","Exact","1027 OPELIKA RD, AUBURN, AL, 36830",1572758,"L"
9285,"1027 PALACE GARDEN WAY","RALEIGH","NC",27603,35.7397421470001,-78.656732801,285,"1027 PALACE GARDEN WAY, RALEIGH, NC, 27603","Match","Exact","1027 PALACE GARDEN WAY, RALEIGH, NC, 27603",653484586,"L"
9286,"1027 RHODES ROAD","EDEN","NC",27288,36.5113505360001,-79.8126619449999,286,"1027 RHODES ROAD, EDEN, NC, 27288","Match","Exact","1027 RHODES RD, EDEN, NC, 27288",56226136,"R"
9287,"1027 RIVERWOOD DRIVE","LONGVIEW","TX",75604,32.525077513,-94.767155286,287,"1027 RIVERWOOD DRIVE, LONGVIEW, TX, 75604","Match","Non_Exact","1027 RIVERWOOD, LONGVIEW, TX, 75604",624019154,"R"
9288,"1027 S RAINBOW BLVD STE 162","LAS VEGAS","NV",89145,NA,NA,288,"1027 S RAINBOW BLVD STE 162, LAS VEGAS, NV, 89145","No_Match",NA,NA,NA,NA
9289,"1027 S VANDEVENTER AVE 6TH FLOOR","SAINT LOUIS","MO",63110,38.6273691850001,-90.249002526,289,"1027 S VANDEVENTER AVE 6TH FLOOR, SAINT LOUIS, MO, 63110","Match","Non_Exact","1027 S VANDEVENTER AVE, SAINT LOUIS, MO, 63110",618275945,"R"
9290,"1027 S VANDEVENTER AVE","SAINT LOUIS","MO",63110,38.6273691850001,-90.249002526,290,"1027 S VANDEVENTER AVE, SAINT LOUIS, MO, 63110","Match","Exact","1027 S VANDEVENTER AVE, SAINT LOUIS, MO, 63110",618275945,"R"
9291,"1027 SANTA CRUZ AVE APT 3","MENLO PARK","CA",94025,37.4480640580001,-122.187465558,291,"1027 SANTA CRUZ AVE APT 3, MENLO PARK, CA, 94025","Match","Exact","1027 SANTA CRUZ AVE, MENLO PARK, CA, 94025",192365403,"L"
9292,"1027 SHILOH STREET","HUNTSVILLE","AL",35803,34.6174854720001,-86.548020035,292,"1027 SHILOH STREET, HUNTSVILLE, AL, 35803","Match","Exact","1027 SHILOH ST, HUNTSVILLE, AL, 35803",58163784,"R"
9293,"1027 SOUTH PENDLETON STREET","EASLEY","SC",29640,34.812967144,-82.6021380879999,293,"1027 SOUTH PENDLETON STREET, EASLEY, SC, 29640","Match","Non_Exact","1027 S PENDLETON ST, EASLEY, SC, 29642",26169582,"L"
9294,"1027 SOUTH RAINBOW BLVD NUM 253","LAS VEGAS","NV",89145,NA,NA,294,"1027 SOUTH RAINBOW BLVD NUM 253, LAS VEGAS, NV, 89145","No_Match",NA,NA,NA,NA
9295,"1027 SPIRE DRIVE","PRESCOTT","AZ",86305,34.6053180930001,-112.457025171,295,"1027 SPIRE DRIVE, PRESCOTT, AZ, 86305","Match","Exact","1027 SPIRE DR, PRESCOTT, AZ, 86305",159535818,"R"
9296,"1027 STEELE STREET","DENVER","CO",80206,39.732578167,-104.949496084,296,"1027 STEELE STREET, DENVER, CO, 80206","Match","Exact","1027 STEELE ST, DENVER, CO, 80206",177311097,"L"
9297,"1027 SUMMER RIDGE LANE","LAWRENCEVILLE","GA",30044,33.9100465810001,-84.107947757,297,"1027 SUMMER RIDGE LANE, LAWRENCEVILLE, GA, 30044","Match","Exact","1027 SUMMER RIDGE LN, LAWRENCEVILLE, GA, 30044",635042021,"L"
9298,"1027 SUMMIT WAY","LAGUNA BEACH","CA",92651,33.5339820030001,-117.766616477,298,"1027 SUMMIT WAY, LAGUNA BEACH, CA, 92651","Match","Exact","1027 SUMMIT WAY, LAGUNA BEACH, CA, 92651",640209180,"R"
9299,"1027 TWIN LAKES DRIVE","DECATUR","IN",46733,40.8299653990001,-84.8955006899999,299,"1027 TWIN LAKES DRIVE, DECATUR, IN, 46733","Match","Exact","1027 TWIN LAKES DR, DECATUR, IN, 46733",6491012,"R"
9300,"1027 VALLEY VIEW APT 27","JUNCTION CITY","KS",66441,39.013465696,-96.85384844,300,"1027 VALLEY VIEW APT 27, JUNCTION CITY, KS, 66441","Match","Non_Exact","1027 VALLEY VIEW DR, JUNCTION CITY, KS, 66441",636663944,"R"
9301,"1027 VISTA PLACE","WENATCHEE","WA",98801,47.4107068160001,-120.332693802,301,"1027 VISTA PLACE, WENATCHEE, WA, 98801","Match","Exact","1027 VISTA PL, WENATCHEE, WA, 98801",156974782,"L"
9302,"1027 WEST 1033 NORTH","OREM","UT",84057,40.3162691370001,-111.721134524,302,"1027 WEST 1033 NORTH, OREM, UT, 84057","Match","Exact","1027 W 1033 N, OREM, UT, 84057",645135812,"L"
9303,"1027 WEST SUMMIT ST","LIVINGSTON","MT",59047,45.6613713990001,-110.57748995,303,"1027 WEST SUMMIT ST, LIVINGSTON, MT, 59047","Match","Exact","1027 W SUMMIT ST, LIVINGSTON, MT, 59047",610910495,"R"
9304,"1027 WILBURN DRIVE SW","MARIETTA","GA",30064,33.9206303560001,-84.582993919,304,"1027 WILBURN DRIVE SW, MARIETTA, GA, 30064","Match","Exact","1027 WILBURN DR SW, MARIETTA, GA, 30064",17172391,"L"
9305,"1027 YATES WAY","SAN MATEO","CA",94403,37.5458887180001,-122.294031102,305,"1027 YATES WAY, SAN MATEO, CA, 94403","Match","Exact","1027 YATES WAY, SAN MATEO, CA, 94403",192404967,"L"
9306,"10270 COMMONWEALTH ST APT 7451","LONE TREE","CO",80124,39.5296153200001,-104.877711148,306,"10270 COMMONWEALTH ST APT 7451, LONE TREE, CO, 80124","Match","Exact","10270 COMMONWEALTH ST, LONE TREE, CO, 80124",617967488,"L"
9307,"10270 NE 12TH ST F103","BELLEVUE","WA",98004,47.6210817680001,-122.20335023,307,"10270 NE 12TH ST F103, BELLEVUE, WA, 98004","Match","Non_Exact","10270 NE 12TH ST, BELLEVUE, WA, 98004",239779695,"L"
9308,"10270 OLD COLUMBIA ROAD SUITE 100 B","COLUMBIA","MD",21046,39.177980301,-76.870244224,308,"10270 OLD COLUMBIA ROAD SUITE 100 B, COLUMBIA, MD, 21046","Match","Non_Exact","10270 OLD COLUMBIA RD, COLUMBIA, MD, 21046",158924936,"R"
9309,"10270 SW 49TH ST","MIAMI","FL",33165,25.722025752,-80.3615046639999,309,"10270 SW 49TH ST, MIAMI, FL, 33165","Match","Exact","10270 SW 49TH ST, MIAMI, FL, 33165",115972499,"L"
9310,"10271 E SOUTHHILL DRIVE","MOBILE","AL",36695,30.6625428090001,-88.285397232,310,"10271 E SOUTHHILL DRIVE, MOBILE, AL, 36695","Match","Exact","10271 SOUTHHILL DR, MOBILE, AL, 36695",61835110,"R"
9311,"10271 EAST DIVISION ROAD","MONTICELLO","IN",47960,40.7514269710001,-86.672013329,311,"10271 EAST DIVISION ROAD, MONTICELLO, IN, 47960","Match","Exact","10271 E DIVISION RD, MONTICELLO, IN, 47960",606927611,"R"
9312,"10271 GERALDINE ROAD","GARDEN GROVE","CA",92840,33.7954921940001,-117.954089719,312,"10271 GERALDINE ROAD, GARDEN GROVE, CA, 92840","Match","Exact","10271 GERALDINE RD, GARDEN GROVE, CA, 92840",144024095,"L"
9313,"10271 HAMMERSCHMIDT COURT","LAS VEGAS","NV",89135,36.1359963210001,-115.318266915,313,"10271 HAMMERSCHMIDT COURT, LAS VEGAS, NV, 89135","Match","Exact","10271 HAMMERSCHMIDT CT, LAS VEGAS, NV, 89135",201957036,"L"
9314,"10271 SUNSET DR SUITE D101","MIAMI","FL",33173,NA,NA,314,"10271 SUNSET DR SUITE D101, MIAMI, FL, 33173","No_Match",NA,NA,NA,NA
9315,"10271 SW 6 STREET","MIAMI","FL",33174,25.763638631,-80.36194347,315,"10271 SW 6 STREET, MIAMI, FL, 33174","Match","Exact","10271 SW 6TH ST, MIAMI, FL, 33174",115970255,"R"
9316,"10272 AURORA DRIVE","FORT WORTH","TX",76108,32.7512729960001,-97.505863397,316,"10272 AURORA DRIVE, FORT WORTH, TX, 76108","Match","Exact","10272 AURORA DR, FORT WORTH, TX, 76108",101927862,"L"
9317,"10272 BIG VALLEY PIKE","MILL CREEK","PA",17060,NA,NA,317,"10272 BIG VALLEY PIKE, MILL CREEK, PA, 17060","No_Match",NA,NA,NA,NA
9318,"10272 TERRY WAY APT 3","CUPERTINO","CA",95014,37.318700289,-122.033862603,318,"10272 TERRY WAY APT 3, CUPERTINO, CA, 95014","Match","Exact","10272 TERRY WAY, CUPERTINO, CA, 95014",122940266,"L"
9319,"10272 WEST LIMERICK LANE","CRYSTAL RIVER","FL",34428,28.967961605,-82.606293884,319,"10272 WEST LIMERICK LANE, CRYSTAL RIVER, FL, 34428","Match","Exact","10272 W LIMERICK LN, CRYSTAL RIVER, FL, 34428",610758624,"L"
9320,"10273 REMINGTON ST","SUMMERSET","SD",57718,44.18119532,-103.33908239,320,"10273 REMINGTON ST, SUMMERSET, SD, 57718","Match","Exact","10273 REMINGTON ST, SUMMERSET, SD, 57718",200932299,"R"
9321,"10273 RENFREW","EL PASO","TX",75925,NA,NA,321,"10273 RENFREW, EL PASO, TX, 75925","No_Match",NA,NA,NA,NA
9322,"10273 SOUTHRIDGE DRIVE","RANCHO CUCAMONGA","CA",91737,34.1454632960001,-117.580953723,322,"10273 SOUTHRIDGE DRIVE, RANCHO CUCAMONGA, CA, 91737","Match","Exact","10273 SOUTHRIDGE DR, RANCHO CUCAMONGA, CA, 91737",144693477,"L"
9323,"10274 FM 775","LA VERNIA","TX",78121,29.446296854,-98.10672002,323,"10274 FM 775, LA VERNIA, TX, 78121","Match","Exact","10274 FM 775, LA VERNIA, TX, 78121",54853044,"L"
9324,"10274 STATE HWY 104","FAIRHOPE","AL",36532,NA,NA,324,"10274 STATE HWY 104, FAIRHOPE, AL, 36532","No_Match",NA,NA,NA,NA
9325,"10274 W HWY 40","OCALA","FL",34482,29.1870054440001,-82.289041201,325,"10274 W HWY 40, OCALA, FL, 34482","Match","Non_Exact","10274 STATE HWY 40, OCALA, FL, 34482",116779596,"R"
9326,"10275 BALFOUR","DETROIT","MI",48224,42.4159131530001,-82.948051812,326,"10275 BALFOUR, DETROIT, MI, 48224","Match","Non_Exact","10275 BALFOUR RD, DETROIT, MI, 48224",95469875,"L"
9327,"10275 CARRARA TERRACE","PARKER","CO",80134,39.5299818720001,-104.805185132,327,"10275 CARRARA TERRACE, PARKER, CO, 80134","Match","Exact","10275 CARRARA TER, PARKER, CO, 80134",130805197,"L"
9328,"10275 COLLINS AVENUE APT 1032","BAL HARBOUR","FL",33154,25.897921635,-80.1244647779999,328,"10275 COLLINS AVENUE APT 1032, BAL HARBOUR, FL, 33154","Match","Exact","10275 COLLINS AVE, BAL HARBOUR, FL, 33154",610918596,"R"
9329,"10275 CYPRESS VINE DR","ORLANDO","FL",32827,28.4207668930001,-81.2536541919999,329,"10275 CYPRESS VINE DR, ORLANDO, FL, 32827","Match","Exact","10275 CYPRESS VINE DR, ORLANDO, FL, 32827",634027883,"L"
9330,"10275 HOLE AVE  UNIT 7562","RIVERSIDE","CA",92513,33.9150848510001,-117.463315656,330,"10275 HOLE AVE  UNIT 7562, RIVERSIDE, CA, 92513","Match","Non_Exact","10275 HOLE AVE, RIVERSIDE, CA, 92503",194836135,"R"
9331,"10275 JAMAICA RD","CARLISLE","OH",45005,39.5945885290001,-84.323851208,331,"10275 JAMAICA RD, CARLISLE, OH, 45005","Match","Exact","10275 JAMAICA RD, CARLISLE, OH, 45005",647949064,"R"
9332,"10275 OLD ST AUGUSTINE RD","JACKSONVILLE","FL",32277,30.190033139,-81.608132934,332,"10275 OLD ST AUGUSTINE RD, JACKSONVILLE, FL, 32277","Match","Non_Exact","10275 ST AUGUSTINE RD, JACKSONVILLE, FL, 32257",83949690,"L"
9333,"10275 TANGIERS","HOUSTON","TX",77041,29.846260628,-95.547718931,333,"10275 TANGIERS, HOUSTON, TX, 77041","Match","Non_Exact","10275 TANGIERS RD, HOUSTON, TX, 77041",96019578,"R"
9334,"10276 ISLE WYND CT","BOYNTON BEACH","FL",33437,26.5247305230001,-80.139509791,334,"10276 ISLE WYND CT, BOYNTON BEACH, FL, 33437","Match","Exact","10276 ISLE WYND CT, BOYNTON BEACH, FL, 33437",636183186,"R"
9335,"10278 LORETO RIDGE DRIVE","KIRTLAND","OH",44094,41.592319263,-81.329481247,335,"10278 LORETO RIDGE DRIVE, KIRTLAND, OH, 44094","Match","Exact","10278 LORETO RIDGE DR, KIRTLAND, OH, 44094",617536529,"L"
9336,"10278 NW ALTO LN","BRISTOL","FL",32321,30.418645069,-84.983494889,336,"10278 NW ALTO LN, BRISTOL, FL, 32321","Match","Exact","10278 NW ALTO LN, BRISTOL, FL, 32321",650923289,"L"
9337,"10279 LOCHNER DRIVE","SAN JOSE","CA",95127,37.3535783900001,-121.812643106,337,"10279 LOCHNER DRIVE, SAN JOSE, CA, 95127","Match","Exact","10279 LOCHNER DR, SAN JOSE, CA, 95127",122913479,"R"
9338,"10279 SW 144TH PL","MIAMI","FL",33186,25.6718930390001,-80.428195025,338,"10279 SW 144TH PL, MIAMI, FL, 33186","Match","Non_Exact","10279 SW 144TH PL, MIAMI, FL, 33186",116092026,"L"
9339,"1027A LOWELL PLACE","HONOLULU","HI",96817,21.3280620840001,-157.864550415,339,"1027A LOWELL PLACE, HONOLULU, HI, 96817","Match","Exact","1027 LOWELL PL, HONOLULU, HI, 96817",203235421,"L"
9340,"1028 10TH ST APT A","OAKLAND","CA",94607,37.8060371810001,-122.284627986,340,"1028 10TH ST APT A, OAKLAND, CA, 94607","Match","Exact","1028 10TH ST, OAKLAND, CA, 94607",124996774,"R"
9341,"1028 44TH AVE","OAKLAND","CA",94601,37.7703819650001,-122.215888143,341,"1028 44TH AVE, OAKLAND, CA, 94601","Match","Exact","1028 44TH AVE, OAKLAND, CA, 94601",125007494,"R"
9342,"1028 ALABAMA DRIVE","ELK GROVE VILLAGE","IL",60007,41.995318974,-88.0491415819999,342,"1028 ALABAMA DRIVE, ELK GROVE VILLAGE, IL, 60007","Match","Exact","1028 ALABAMA DR, ELK GROVE VILLAGE, IL, 60007",111699239,"R"
9343,"1028 ASHFORD COURT","FORT COLLINS","CO",80526,40.5169042160001,-105.09441389,343,"1028 ASHFORD COURT, FORT COLLINS, CO, 80526","Match","Exact","1028 ASHFORD CT, FORT COLLINS, CO, 80526",188519739,"R"
9344,"1028 AUGUSTA FARMS ROAD","STUARTS DRAFT","VA",24477,38.046347542,-79.0146503399999,344,"1028 AUGUSTA FARMS ROAD, STUARTS DRAFT, VA, 24477","Match","Exact","1028 AUGUSTA FARMS RD, STUARTS DRAFT, VA, 24477",98840982,"R"
9345,"1028 BENNETT ST","SCRANTON","PA",18508,41.449678529,-75.66790316,345,"1028 BENNETT ST, SCRANTON, PA, 18508","Match","Non_Exact","1028 BENNETT AVE, SCRANTON, PA, 18508",139324776,"R"
9346,"1028 BERKLEY AVE","PUEBLO","CO",81004,38.2490114280001,-104.627718453,346,"1028 BERKLEY AVE, PUEBLO, CO, 81004","Match","Exact","1028 BERKLEY AVE, PUEBLO, CO, 81004",105025022,"L"
9347,"1028 BERKSHIRE RD","GROSSE POINTE PARK","MI",48230,42.3792140510001,-82.931104541,347,"1028 BERKSHIRE RD, GROSSE POINTE PARK, MI, 48230","Match","Non_Exact","1028 BERKSHIRE, GROSSE POINTE PARK, MI, 48230",95489004,"R"
9348,"1028 CAPRI CIR","HUEYTOWN","AL",35023,33.4414398850001,-86.997180499,348,"1028 CAPRI CIR, HUEYTOWN, AL, 35023","Match","Exact","1028 CAPRI CIR, HUEYTOWN, AL, 35023",81546355,"L"
9349,"1028 CHARLES AVE","MORGANTOWN","WV",26505,39.6340924360001,-79.9405370809999,349,"1028 CHARLES AVE, MORGANTOWN, WV, 26505","Match","Exact","1028 CHARLES AVE, MORGANTOWN, WV, 26505",50742614,"R"
9350,"1028 CHUMUCKLA SPRINGS RD","JAY","FL",32565,30.7799275450001,-87.2384776769999,350,"1028 CHUMUCKLA SPRINGS RD, JAY, FL, 32565","Match","Exact","1028 CHUMUCKLA SPRINGS RD, JAY, FL, 32565",635488484,"R"
9351,"1028 DOGWOOD STREET","TYLER","TX",75701,32.3235052200001,-95.31178505,351,"1028 DOGWOOD STREET, TYLER, TX, 75701","Match","Exact","1028 DOGWOOD ST, TYLER, TX, 75701",141270577,"L"
9352,"1028 E 169TH ST","SOUTH HOLLAND","IL",60473,41.588216678,-87.5918349459999,352,"1028 E 169TH ST, SOUTH HOLLAND, IL, 60473","Match","Exact","1028 E 169TH ST, SOUTH HOLLAND, IL, 60473",111780651,"L"
9353,"1028 E 169TH STREET","SOUTH HOLLAND","IL",60473,41.588216678,-87.5918349459999,353,"1028 E 169TH STREET, SOUTH HOLLAND, IL, 60473","Match","Exact","1028 E 169TH ST, SOUTH HOLLAND, IL, 60473",111780651,"L"
9354,"1028 E COLFAX AVE","SOUTH BEND","IN",46617,41.677861261,-86.236332139,354,"1028 E COLFAX AVE, SOUTH BEND, IN, 46617","Match","Exact","1028 E COLFAX AVE, SOUTH BEND, IN, 46617",8054759,"R"
9355,"1028 E FORREST HILL AVE","PEORIA","IL",61603,40.724738233,-89.58087145,355,"1028 E FORREST HILL AVE, PEORIA, IL, 61603","Match","Exact","1028 E FORREST HILL AVE, PEORIA, IL, 61603",8719188,"R"
9356,"1028 E PARK AVENUE","TALLAHASSEE","FL",32301,30.441753743,-84.2654042359999,356,"1028 E PARK AVENUE, TALLAHASSEE, FL, 32301","Match","Exact","1028 E PARK AVE, TALLAHASSEE, FL, 32301",82853937,"L"
9357,"1028 E SILVER SPRINGS BLVD","OCALA","FL",34470,NA,NA,357,"1028 E SILVER SPRINGS BLVD, OCALA, FL, 34470","No_Match",NA,NA,NA,NA
9358,"1028 E TABERNACLE","ST GEORGE","UT",84770,37.1081159660001,-113.561408721,358,"1028 E TABERNACLE, ST GEORGE, UT, 84770","Match","Non_Exact","1028 E TABERNACLE ST, SAINT GEORGE, UT, 84770",617996552,"R"
9359,"1028 E UNION BOWER RD","IRVING","TX",75061,32.823061538,-96.933710458,359,"1028 E UNION BOWER RD, IRVING, TX, 75061","Match","Exact","1028 E UNION BOWER RD, IRVING, TX, 75061",102892218,"R"
9360,"1028 EASTMAN DRIVE","COLUMBIA","SC",29203,34.060160554,-81.013195233,360,"1028 EASTMAN DRIVE, COLUMBIA, SC, 29203","Match","Non_Exact","1028 EASTMAN ST, COLUMBIA, SC, 29203",71844683,"L"
9361,"1028 FOREST KNOLL DR","SAN JOSE","CA",95129,37.307692285,-122.012651479,361,"1028 FOREST KNOLL DR, SAN JOSE, CA, 95129","Match","Exact","1028 FOREST KNOLL DR, SAN JOSE, CA, 95129",122940811,"L"
9362,"1028 FOREST KNOLL DRIVE","SAN JOSE","CA",95129,37.307692285,-122.012651479,362,"1028 FOREST KNOLL DRIVE, SAN JOSE, CA, 95129","Match","Exact","1028 FOREST KNOLL DR, SAN JOSE, CA, 95129",122940811,"L"
9363,"1028 FREEMAN STREET","BRONX","NY",10459,40.8289508,-73.887089695,363,"1028 FREEMAN STREET, BRONX, NY, 10459","Match","Exact","1028 FREEMAN ST, BRONX, NY, 10459",80302362,"R"
9364,"1028 FRIENDLY WAY SOUTH","SAINT PETERSBURG","FL",33705,27.702351417,-82.6479726919999,364,"1028 FRIENDLY WAY SOUTH, SAINT PETERSBURG, FL, 33705","Match","Exact","1028 FRIENDLY WAY S, SAINT PETERSBURG, FL, 33705",124711735,"L"
9365,"1028 GLADISH LANE","GLENVIEW","IL",60025,42.07359166,-87.8255301469999,365,"1028 GLADISH LANE, GLENVIEW, IL, 60025","Match","Exact","1028 GLADISH LN, GLENVIEW, IL, 60025",111731093,"L"
9366,"1028 GRIDER DRIVE","GALLATIN","TN",37066,36.3726747970001,-86.549501472,366,"1028 GRIDER DRIVE, GALLATIN, TN, 37066","Match","Exact","1028 GRIDER DR, GALLATIN, TN, 37066",617212318,"R"
9367,"1028 HARVIN WAY","ROCKLEDGE","FL",32955,28.3252630910001,-80.7263547589999,367,"1028 HARVIN WAY, ROCKLEDGE, FL, 32955","Match","Exact","1028 HARVIN WAY, ROCKLEDGE, FL, 32955",601722549,"R"
9368,"1028 HAZEL PL 1FL","RAHWAY","NJ",7065,40.60018562,-74.2772221289999,368,"1028 HAZEL PL 1FL, RAHWAY, NJ, 7065","Match","Exact","1028 HAZEL PL, RAHWAY, NJ, 07065",60563212,"L"
9369,"1028 HENRY LONG BLVD","STOCKTON","CA",95206,37.9015236710001,-121.29995274,369,"1028 HENRY LONG BLVD, STOCKTON, CA, 95206","Match","Exact","1028 HENRY LONG BLVD, STOCKTON, CA, 95206",133928757,"L"
9370,"1028 INDIAN TRACE CIRCLE APT 208","WEST PALM BEACH","FL",33407,26.7753370560001,-80.109495451,370,"1028 INDIAN TRACE CIRCLE APT 208, WEST PALM BEACH, FL, 33407","Match","Exact","1028 INDIAN TRACE CIR, WEST PALM BEACH, FL, 33407",640137285,"L"
9371,"1028 JAMIESON ROAD","LUTHERVILLE","MD",21093,39.4226099590001,-76.647617721,371,"1028 JAMIESON ROAD, LUTHERVILLE, MD, 21093","Match","Exact","1028 JAMIESON RD, LUTHERVILLE, MD, 21093",191535491,"R"
9372,"1028 KOKOMO KEY LN","DELRAY BEACH","FL",33483,26.48356324,-80.062744638,372,"1028 KOKOMO KEY LN, DELRAY BEACH, FL, 33483","Match","Exact","1028 KOKOMO KEY LN, DELRAY BEACH, FL, 33483",115540237,"L"
9373,"1028 MAIN ST","BARBOURSVILLE","WV",25504,38.408534194,-82.291121212,373,"1028 MAIN ST, BARBOURSVILLE, WV, 25504","Match","Exact","1028 MAIN ST, BARBOURSVILLE, WV, 25504",101321498,"L"
9374,"1028 MANHATTAN BLVD NUMBER 4","HERMOSA BEACH","CA",90254,33.861205367,-118.398737203,374,"1028 MANHATTAN BLVD NUMBER 4, HERMOSA BEACH, CA, 90254","Match","Non_Exact","1028 MANHATTAN AVE, HERMOSA BEACH, CA, 90254",141583094,"R"
9375,"1028 MAUMEE STREET","ORLANDO","FL",32828,28.55224258,-81.1564611109999,375,"1028 MAUMEE STREET, ORLANDO, FL, 32828","Match","Exact","1028 MAUMEE ST, ORLANDO, FL, 32828",640903130,"L"
9376,"1028 MEADOWBEND DRIVE","CEDAR HILL","TX",75104,32.570091738,-96.94598704,376,"1028 MEADOWBEND DRIVE, CEDAR HILL, TX, 75104","Match","Exact","1028 MEADOWBEND DR, CEDAR HILL, TX, 75104",102981980,"R"
9377,"1028 MISSION ST","SAN FRANCISCO","CA",94103,37.7803519920001,-122.409502339,377,"1028 MISSION ST, SAN FRANCISCO, CA, 94103","Match","Exact","1028 MISSION ST, SAN FRANCISCO, CA, 94103",650099725,"R"
9378,"1028 N AUSTIN BLVD APT 2E","OAK PARK","IL",60302,41.899091588,-87.775275557,378,"1028 N AUSTIN BLVD APT 2E, OAK PARK, IL, 60302","Match","Non_Exact","1028 N AUSTIN BLVD, OAK PARK, IL, 60302",605048724,"L"
9379,"1028 N CHERRY ST","TULARE","CA",93274,36.222797181,-119.337521844,379,"1028 N CHERRY ST, TULARE, CA, 93274","Match","Exact","1028 N CHERRY ST, TULARE, CA, 93274",637365462,"L"
9380,"1028 NEDERLAND AVE","NEDERLAND","TX",77627,29.976761406,-93.9873080409999,380,"1028 NEDERLAND AVE, NEDERLAND, TX, 77627","Match","Exact","1028 NEDERLAND AVE, NEDERLAND, TX, 77627",73860573,"R"
9381,"1028 NEWBURGH CIRCLE","RALEIGH","NC",27603,35.6187460840001,-78.642060549,381,"1028 NEWBURGH CIRCLE, RALEIGH, NC, 27603","Match","Exact","1028 NEWBURGH CIR, RALEIGH, NC, 27603",612818159,"R"
9382,"1028 OLIVERA WAY","SACRAMENTO","CA",95815,38.6142773500001,-121.442756925,382,"1028 OLIVERA WAY, SACRAMENTO, CA, 95815","Match","Exact","1028 OLIVERA WAY, SACRAMENTO, CA, 95815",133330118,"R"
9383,"1028 PANORAMA WAY W","GUNTERSVILLE","AL",35976,34.3597187,-86.263657888,383,"1028 PANORAMA WAY W, GUNTERSVILLE, AL, 35976","Match","Exact","1028 PANORAMA WAY W, GUNTERSVILLE, AL, 35976",620693965,"L"
9384,"1028 PARK ST","JACKSONVILLE","FL",32204,30.315112705,-81.680614625,384,"1028 PARK ST, JACKSONVILLE, FL, 32204","Match","Exact","1028 PARK ST, JACKSONVILLE, FL, 32204",83896785,"L"
9385,"1028 ROLLING PARK LN","FORT MILL","SC",29715,34.9714826750001,-80.887198124,385,"1028 ROLLING PARK LN, FORT MILL, SC, 29715","Match","Exact","1028 ROLLING PARK LN, FORT MILL, SC, 29715",19836904,"R"
9386,"1028 ROUTE 206 SUITE 1","Bordentown","NJ",8022,NA,NA,386,"1028 ROUTE 206 SUITE 1, Bordentown, NJ, 8022","No_Match",NA,NA,NA,NA
9387,"1028 S MAIN ST STE C","FOND DU LAC","WI",54935,43.7504963700001,-88.449759108,387,"1028 S MAIN ST STE C, FOND DU LAC, WI, 54935","Match","Non_Exact","1028 S MAIN ST, FOND DU LAC, WI, 54935",640205293,"R"
9388,"1028 SHAGBARK COURT","CHAPEL HILL","NC",27517,35.865257924,-79.074394469,388,"1028 SHAGBARK COURT, CHAPEL HILL, NC, 27517","Match","Exact","1028 SHAGBARK CT, CHAPEL HILL, NC, 27517",650099957,"R"
9389,"1028 SHORE VIEW CIRCLE","CROWNSVILLE","MD",21032,39.067127015,-76.579048201,389,"1028 SHORE VIEW CIRCLE, CROWNSVILLE, MD, 21032","Match","Exact","1028 SHORE VIEW CIR, CROWNSVILLE, MD, 21032",68167386,"L"
9390,"1028 SPOTSWOOD AVE","NORFOLK","VA",23507,36.8691363830001,-76.30213579,390,"1028 SPOTSWOOD AVE, NORFOLK, VA, 23507","Match","Exact","1028 SPOTSWOOD AVE, NORFOLK, VA, 23507",635826155,"R"
9391,"1028 SUNSWEPT TER","PLANO","TX",75075,33.013901796,-96.726133551,391,"1028 SUNSWEPT TER, PLANO, TX, 75075","Match","Exact","1028 SUNSWEPT TER, PLANO, TX, 75075",123488254,"R"
9392,"1028 SUNSWEPT TERRACE","PLANO","TX",75075,33.013901796,-96.726133551,392,"1028 SUNSWEPT TERRACE, PLANO, TX, 75075","Match","Exact","1028 SUNSWEPT TER, PLANO, TX, 75075",123488254,"R"
9393,"1028 VAUGHN CREST DRIVE","FRANKLIN","TN",37069,36.0383701430001,-86.902369853,393,"1028 VAUGHN CREST DRIVE, FRANKLIN, TN, 37069","Match","Exact","1028 VAUGHN CREST DR, FRANKLIN, TN, 37069",652881742,"L"
9394,"1028 VISTA POINTE CIRCLE","SAN RAMON","CA",94582,37.7736001000001,-121.949517275,394,"1028 VISTA POINTE CIRCLE, SAN RAMON, CA, 94582","Match","Exact","1028 VISTA POINTE CIR, SAN RAMON, CA, 94582",192093516,"L"
9395,"1028 W 1420 N","OREM","UT",84057,40.3230262060001,-111.720527279,395,"1028 W 1420 N, OREM, UT, 84057","Match","Exact","1028 W 1420 N, OREM, UT, 84057",134204120,"R"
9396,"1028 W 52ND STREET","LOS ANGELES","CA",90037,33.995065421,-118.292370609,396,"1028 W 52ND STREET, LOS ANGELES, CA, 90037","Match","Exact","1028 W 52ND ST, LOS ANGELES, CA, 90037",141659165,"L"
9397,"1028 W CANYON DR","PRESCOTT","AZ",86303,34.525988822,-112.488887864,397,"1028 W CANYON DR, PRESCOTT, AZ, 86303","Match","Exact","1028 W CANYON DR, PRESCOTT, AZ, 86303",159457535,"L"
9398,"1028 WAKEMANS GROVE RD","EDINBURG","VA",22824,38.8469985880001,-78.6124171179999,398,"1028 WAKEMANS GROVE RD, EDINBURG, VA, 22824","Match","Exact","1028 WAKEMANS GROVE RD, EDINBURG, VA, 22824",55930199,"R"
9399,"1028 WEST OLIVE STREET","CORONA","CA",92882,33.8695628890001,-117.582539311,399,"1028 WEST OLIVE STREET, CORONA, CA, 92882","Match","Exact","1028 W OLIVE ST, CORONA, CA, 92882",194777336,"L"
9400,"1028 WHIRLAWAY CIRCLE","ANDERSON","SC",29621,34.560420992,-82.644792052,400,"1028 WHIRLAWAY CIRCLE, ANDERSON, SC, 29621","Match","Exact","1028 WHIRLAWAY CIR, ANDERSON, SC, 29621",624968070,"R"
9401,"1028 WHITE OAK DR","FRANKFORT","KY",40601,38.2384504550001,-84.8547040509999,401,"1028 WHITE OAK DR, FRANKFORT, KY, 40601","Match","Non_Exact","1028 WHITEOAK DR, FRANKFORT, KY, 40601",97051839,"L"
9402,"1028 WILDROSE AVENUE","MONROVIA","CA",91016,34.1498061290001,-117.983049234,402,"1028 WILDROSE AVENUE, MONROVIA, CA, 91016","Match","Non_Exact","1028 E WILDROSE AVE, MONROVIA, CA, 91016",641280568,"R"
9403,"1028 WOODVALE DRIVE","NASHVILLE","TN",37204,36.102091488,-86.793553475,403,"1028 WOODVALE DRIVE, NASHVILLE, TN, 37204","Match","Exact","1028 WOODVALE DR, NASHVILLE, TN, 37204",647610509,"R"
9404,"1028 ZURICH AVENUE","HENDERSON","NV",89015,36.0290134800001,-114.94798269,404,"1028 ZURICH AVENUE, HENDERSON, NV, 89015","Match","Exact","1028 ZURICH AVE, HENDERSON, NV, 89015",636308539,"L"
9405,"10280 CENTER VILLAGE ROAD","GALENA","OH",43021,40.1679401320001,-82.8567974159999,405,"10280 CENTER VILLAGE ROAD, GALENA, OH, 43021","Match","Exact","10280 CENTER VILLAGE RD, GALENA, OH, 43021",635844140,"R"
9406,"10280 CHESTER RD","CINCINNATI","OH",45215,39.254488558,-84.456810901,406,"10280 CHESTER RD, CINCINNATI, OH, 45215","Match","Exact","10280 CHESTER RD, CINCINNATI, OH, 45215",103950169,"R"
9407,"10280 DONNER PASS RD","TRUCKEE","CA",96161,39.3265678710001,-120.188886556,407,"10280 DONNER PASS RD, TRUCKEE, CA, 96161","Match","Exact","10280 DONNER PASS RD, TRUCKEE, CA, 96161",106556655,"L"
9408,"10280 ENOCH LANE","BONITA SPRINGS","FL",34135,26.3812726200001,-81.781828818,408,"10280 ENOCH LANE, BONITA SPRINGS, FL, 34135","Match","Exact","10280 ENOCH LN, BONITA SPGS, FL, 34135",117980065,"L"
9409,"10280 GODWIN RD","ARLINGTON","TN",38002,35.3484144650001,-89.7195289489999,409,"10280 GODWIN RD, ARLINGTON, TN, 38002","Match","Exact","10280 GODWIN RD, ARLINGTON, TN, 38002",607385222,"L"
9410,"10280 GODWIN ROAD","ARLINGTON","TN",38002,35.3484144650001,-89.7195289489999,410,"10280 GODWIN ROAD, ARLINGTON, TN, 38002","Match","Exact","10280 GODWIN RD, ARLINGTON, TN, 38002",607385222,"L"
9411,"10280 LARSON ROAD","BELLAIRE","MI",49615,45.00067089,-85.296192128,411,"10280 LARSON ROAD, BELLAIRE, MI, 49615","Match","Exact","10280 LARSON RD, BELLAIRE, MI, 49615",649839398,"L"
9412,"10280 OLIVEWOOD WAY UNIT 65","ESTERO","FL",33928,26.4409954010001,-81.7843251199999,412,"10280 OLIVEWOOD WAY UNIT 65, ESTERO, FL, 33928","Match","Exact","10280 OLIVEWOOD WAY, ESTERO, FL, 33928",641068110,"L"
9413,"10280 RATTALEE LAKE RD","DAVISBURG","MI",48350,42.773458346,-83.493212413,413,"10280 RATTALEE LAKE RD, DAVISBURG, MI, 48350","Match","Exact","10280 RATTALEE LAKE RD, DAVISBURG, MI, 48350",69689461,"L"
9414,"10281 CORPORATE DRIVE","GULFPORT","MS",39503,30.4365048490001,-89.042351428,414,"10281 CORPORATE DRIVE, GULFPORT, MS, 39503","Match","Exact","10281 CORPORATE DR, GULFPORT, MS, 39503",111414376,"L"
9415,"10281 MICHALA PLACE","SANTEE","CA",92071,32.8686352190001,-116.974552224,415,"10281 MICHALA PLACE, SANTEE, CA, 92071","Match","Exact","10281 MICHALA PL, SANTEE, CA, 92071",195327075,"R"
9416,"10281 RANCHO MONTECITO DRIVE","PARKER","CO",80138,39.509849511,-104.693315703,416,"10281 RANCHO MONTECITO DRIVE, PARKER, CO, 80138","Match","Exact","10281 RANCHO MONTECITO DR, PARKER, CO, 80138",635302254,"L"
9417,"10282 JOHNS HOLLOW ROAD","VIENNA","VA",22182,38.95075288,-77.3006921689999,417,"10282 JOHNS HOLLOW ROAD, VIENNA, VA, 22182","Match","Exact","10282 JOHNS HOLLOW RD, VIENNA, VA, 22182",76038069,"L"
9418,"10283 BARTEE AVE","ARLETA","CA",91331,34.2574715470001,-118.439465423,418,"10283 BARTEE AVE, ARLETA, CA, 91331","Match","Exact","10283 BARTEE AVE, ARLETA, CA, 91331",141548482,"L"
9419,"10283 GEORGIA HIGHWAY 15","SOPERTON","GA",30457,NA,NA,419,"10283 GEORGIA HIGHWAY 15, SOPERTON, GA, 30457","No_Match",NA,NA,NA,NA
9420,"10284 LAKEWOOD AVE","LUNA PIER","MI",48157,41.803656957,-83.442855788,420,"10284 LAKEWOOD AVE, LUNA PIER, MI, 48157","Match","Exact","10284 LAKEWOOD AVE, LUNA PIER, MI, 48157",40485612,"L"
9421,"10285 COUNTRYSIDE WAY","SACRAMENTO","CA",95827,38.5744396740001,-121.309725946,421,"10285 COUNTRYSIDE WAY, SACRAMENTO, CA, 95827","Match","Exact","10285 COUNTRYSIDE WAY, SACRAMENTO, CA, 95827",133348486,"R"
9422,"10285 SW 77 COURT","MIAMI","FL",33156,25.6754447750001,-80.3208561,422,"10285 SW 77 COURT, MIAMI, FL, 33156","Match","Exact","10285 SW 77TH CT, MIAMI, FL, 33156",640561127,"L"
9423,"10286 STAPLES MILL ROAD  NUM 240","GLEN ALLEN","VA",23060,37.658476383,-77.524865064,423,"10286 STAPLES MILL ROAD  NUM 240, GLEN ALLEN, VA, 23060","Match","Exact","10286 STAPLES MILL RD, GLEN ALLEN, VA, 23060",106690934,"L"
9424,"10286 STAPLES MILL ROAD NUM 240","GLEN ALLEN","VA",23060,37.658476383,-77.524865064,424,"10286 STAPLES MILL ROAD NUM 240, GLEN ALLEN, VA, 23060","Match","Exact","10286 STAPLES MILL RD, GLEN ALLEN, VA, 23060",106690934,"L"
9425,"10288 MITCHELL DEWITT ROAD","PLAIN CITY","OH",43064,40.121365111,-83.2177993939999,425,"10288 MITCHELL DEWITT ROAD, PLAIN CITY, OH, 43064","Match","Exact","10288 MITCHELL DEWITT RD, PLAIN CITY, OH, 43064",135336908,"R"
9426,"10288 WRANGLER DRIVE","ELK GROVE","CA",95624,38.4197735870001,-121.305256604,426,"10288 WRANGLER DRIVE, ELK GROVE, CA, 95624","Match","Exact","10288 WRANGLER DR, ELK GROVE, CA, 95624",133355637,"R"
9427,"10289 SW 45TH PATH","LAKE BUTLER","FL",32054,29.9431777560001,-82.450656797,427,"10289 SW 45TH PATH, LAKE BUTLER, FL, 32054","Match","Exact","10289 SW 45TH PATH, LAKE BUTLER, FL, 32054",6787266,"L"
9428,"1029 12 AVE","PLEASANTGROVE","AL",35217,33.483003065,-86.99091857,428,"1029 12 AVE, PLEASANTGROVE, AL, 35217","Match","Non_Exact","1029 12TH AVE, PLEASANT GROVE, AL, 35127",81546046,"R"
9429,"1029 220TH STREET","WAVERLY","IA",50677,42.7301135600001,-92.549007535,429,"1029 220TH STREET, WAVERLY, IA, 50677","Match","Exact","1029 220TH ST, WAVERLY, IA, 50677",77364504,"R"
9430,"1029 48TH AVE","LONG ISLAND CITY","NY",11101,NA,NA,430,"1029 48TH AVE, LONG ISLAND CITY, NY, 11101","No_Match",NA,NA,NA,NA
9431,"1029 5TH ST N","SARTELL","MN",56377,45.635482648,-94.212540199,431,"1029 5TH ST N, SARTELL, MN, 56377","Match","Non_Exact","1029 5TH AVE N, SARTELL, MN, 56377",107447169,"L"
9432,"1029 ANDERSON GROVE RD","CALEDONIA","MS",39740,33.6240320790001,-88.3529741999999,432,"1029 ANDERSON GROVE RD, CALEDONIA, MS, 39740","Match","Exact","1029 ANDERSON GROVE RD, CALEDONIA, MS, 39740",649526192,"R"
9433,"1029 ARROWOOD DR","MARION","NC",28752,35.5784453750001,-81.967008476,433,"1029 ARROWOOD DR, MARION, NC, 28752","Match","Exact","1029 ARROWOOD DR, MARION, NC, 28752",35908285,"L"
9434,"1029 BARBARA DR","BILLINGS","MT",59101,45.815996387,-108.401120343,434,"1029 BARBARA DR, BILLINGS, MT, 59101","Match","Exact","1029 BARBARA DR, BILLINGS, MT, 59101",181480602,"R"
9435,"1029 BEEHIVE ROAD","AWENDAW","SC",29429,32.88389607,-79.740346904,435,"1029 BEEHIVE ROAD, AWENDAW, SC, 29429","Match","Non_Exact","1029 BEE HIVE RD, AWENDAW, SC, 29429",636590318,"R"
9436,"1029 BELFIORE LN","CORDOVA","TN",38018,35.153239845,-89.77728124,436,"1029 BELFIORE LN, CORDOVA, TN, 38018","Match","Exact","1029 BELFIORE LN, CORDOVA, TN, 38018",618377972,"L"
9437,"1029 BENDER RIDGE DR","MORRISVILLE","NC",27560,35.8318655150001,-78.863300382,437,"1029 BENDER RIDGE DR, MORRISVILLE, NC, 27560","Match","Exact","1029 BENDER RIDGE DR, MORRISVILLE, NC, 27560",648792915,"L"
9438,"1029 BOSTON POST ROAD EAST","MARLBOROUGH","MA",1752,42.3519561190001,-71.4863048989999,438,"1029 BOSTON POST ROAD EAST, MARLBOROUGH, MA, 1752","Match","Exact","1029 BOSTON POST RD E, MARLBOROUGH, MA, 01752",86921904,"L"
9439,"1029 BUCHHOLZ DR","WOOSTER","OH",44691,40.811961581,-81.958068113,439,"1029 BUCHHOLZ DR, WOOSTER, OH, 44691","Match","Exact","1029 BUCHHOLZ DR, WOOSTER, OH, 44691",58742456,"R"
9440,"1029 CENTIPEDE DRIVE","ROCKY MOUNT","NC",27801,35.9499992770001,-77.74501042,440,"1029 CENTIPEDE DRIVE, ROCKY MOUNT, NC, 27801","Match","Exact","1029 CENTIPEDE DR, ROCKY MOUNT, NC, 27801",90194617,"L"
9441,"1029 CHESTERFIELD RD","HADDONFIELD","NJ",8033,39.8772599870001,-75.042439154,441,"1029 CHESTERFIELD RD, HADDONFIELD, NJ, 8033","Match","Exact","1029 CHESTERFIELD RD, HADDONFIELD, NJ, 08033",134419115,"L"
9442,"1029 CHESTNUT STREET","NEWTON UPPER FALLS","MA",2464,42.314289166,-71.225015522,442,"1029 CHESTNUT STREET, NEWTON UPPER FALLS, MA, 2464","Match","Exact","1029 CHESTNUT ST, NEWTON UPPER FALLS, MA, 02464",86863583,"R"
9443,"1029 COUNTY ROUTE 7A","HILLSDALE","NY",12529,42.1443497280001,-73.5585239,443,"1029 COUNTY ROUTE 7A, HILLSDALE, NY, 12529","Match","Exact","1029 CO RTE 7A, HILLSDALE, NY, 12529",648890327,"L"
9444,"1029 DAISY DRIVE","TEMPLE","PA",19560,40.413282548,-75.910933116,444,"1029 DAISY DRIVE, TEMPLE, PA, 19560","Match","Exact","1029 DAISY DR, TEMPLE, PA, 19560",617380097,"R"
9445,"1029 DALBY WAY","AUSTELL","GA",30106,33.8587198180001,-84.581175123,445,"1029 DALBY WAY, AUSTELL, GA, 30106","Match","Exact","1029 DALBY WAY, AUSTELL, GA, 30106",17222280,"L"
9446,"1029 DUSTY LANE","SHOW LOW","AZ",85901,34.286049097,-110.141784311,446,"1029 DUSTY LANE, SHOW LOW, AZ, 85901","Match","Exact","1029 DUSTY LN, SHOW LOW, AZ, 85901",172577939,"R"
9447,"1029 E 17TH AVE APT 2","DENVER","CO",80218,39.743257219,-104.974308443,447,"1029 E 17TH AVE APT 2, DENVER, CO, 80218","Match","Non_Exact","1029 E 17TH AVE, DENVER, CO, 80218",177305827,"L"
9448,"1029 E 2ND ST","BROOKLYN","NY",11230,40.6253402140001,-73.974921603,448,"1029 E 2ND ST, BROOKLYN, NY, 11230","Match","Exact","1029 E 2ND ST, BROOKLYN, NY, 11230",59097917,"L"
9449,"1029 E 2ND STREET","BROOKLYN","NY",11230,40.6253402140001,-73.974921603,449,"1029 E 2ND STREET, BROOKLYN, NY, 11230","Match","Exact","1029 E 2ND ST, BROOKLYN, NY, 11230",59097917,"L"
9450,"1029 EAST IDEL ST","TYLER","TX",75701,32.3402433260001,-95.2895892499999,450,"1029 EAST IDEL ST, TYLER, TX, 75701","Match","Non_Exact","1029 IDEL ST, TYLER, TX, 75701",141271598,"R"
9451,"1029 GRACE MARIE LANE","ELLENWOOD","GA",30294,33.6396148060001,-84.271732614,451,"1029 GRACE MARIE LANE, ELLENWOOD, GA, 30294","Match","Exact","1029 GRACE MARIE LN, ELLENWOOD, GA, 30294",627695800,"L"
9452,"1029 GRACE MARIE LN","ELLENWOOD","GA",30294,33.6396148060001,-84.271732614,452,"1029 GRACE MARIE LN, ELLENWOOD, GA, 30294","Match","Exact","1029 GRACE MARIE LN, ELLENWOOD, GA, 30294",627695800,"L"
9453,"1029 GREENLAND CIRCLE","SOUTH CHARLESTON","WV",25309,38.349599261,-81.751495626,453,"1029 GREENLAND CIRCLE, SOUTH CHARLESTON, WV, 25309","Match","Exact","1029 GREENLAND CIR, S CHARLESTON, WV, 25309",78586651,"L"
9454,"1029 HEATHROW DR","HENDERSONVILLE","TN",37075,36.376222999,-86.598689153,454,"1029 HEATHROW DR, HENDERSONVILLE, TN, 37075","Match","Exact","1029 HEATHROW DR, HENDERSONVILLE, TN, 37075",617303163,"L"
9455,"1029 HIGHWAY Z","SILEX","MO",63377,NA,NA,455,"1029 HIGHWAY Z, SILEX, MO, 63377","No_Match",NA,NA,NA,NA
9456,"1029 HORSETRAIL WAY","WAKE FOREST","NC",27587,35.9585686890001,-78.5392942249999,456,"1029 HORSETRAIL WAY, WAKE FOREST, NC, 27587","Match","Exact","1029 HORSETRAIL WAY, WAKE FOREST, NC, 27587",72600894,"L"
9457,"1029 LINDEN AVE","CHESTER SPRINGS","PA",19425,40.114431811,-75.6785309159999,457,"1029 LINDEN AVE, CHESTER SPRINGS, PA, 19425","Match","Exact","1029 LINDEN AVE, CHESTER SPRINGS, PA, 19425",627158389,"L"
9458,"1029 MARTIN DRIVE","ROCKLEDGE","FL",32955,28.344740589,-80.7504121009999,458,"1029 MARTIN DRIVE, ROCKLEDGE, FL, 32955","Match","Exact","1029 MARTIN DR, ROCKLEDGE, FL, 32955",93915860,"L"
9459,"1029 MERIDIAN DRIVE","SNEADS FERRY","NC",28460,34.5419960890001,-77.38806698,459,"1029 MERIDIAN DRIVE, SNEADS FERRY, NC, 28460","Match","Exact","1029 MERIDIAN DR, SNEADS FERRY, NC, 28460",14033807,"R"
9460,"1029 N CLOUD CLIFF PASS","PRESCOTT VALLEY","AZ",86314,NA,NA,460,"1029 N CLOUD CLIFF PASS, PRESCOTT VALLEY, AZ, 86314","Tie",NA,NA,NA,NA
9461,"1029 N PEACHTREE PARKWAY SUITE 246","PEACHTREE CITY","GA",30269,33.440999436,-84.587877523,461,"1029 N PEACHTREE PARKWAY SUITE 246, PEACHTREE CITY, GA, 30269","Match","Non_Exact","1029 N PEACHTREE PKWY, PEACHTREE CITY, GA, 30269",75941451,"R"
9462,"1029 N PEACHTREE PARKWAY","PEACHTREE CITY","GA",30269,33.440999436,-84.587877523,462,"1029 N PEACHTREE PARKWAY, PEACHTREE CITY, GA, 30269","Match","Exact","1029 N PEACHTREE PKWY, PEACHTREE CITY, GA, 30269",75941451,"R"
9463,"1029 N SAGINAW BLVD NUM F10615","SAGINAW","TX",76179,32.8754215870001,-97.376983932,463,"1029 N SAGINAW BLVD NUM F10615, SAGINAW, TX, 76179","Match","Exact","1029 SAGINAW BLVD, SAGINAW, TX, 76179",101853846,"L"
9464,"1029 N SAGINAW BLVD STE F-10 260","SAGINAW","TX",76179,32.8754215870001,-97.376983932,464,"1029 N SAGINAW BLVD STE F-10 260, SAGINAW, TX, 76179","Match","Exact","1029 SAGINAW BLVD, SAGINAW, TX, 76179",101853846,"L"
9465,"1029 N SAGINAW BLVD STE F10-212","SAGINAW","TX",76179,32.8754215870001,-97.376983932,465,"1029 N SAGINAW BLVD STE F10-212, SAGINAW, TX, 76179","Match","Exact","1029 SAGINAW BLVD, SAGINAW, TX, 76179",101853846,"L"
9466,"1029 N STUART ST","ARLINGTON","VA",22201,38.8827081050001,-77.111874085,466,"1029 N STUART ST, ARLINGTON, VA, 22201","Match","Exact","1029 N STUART ST, ARLINGTON, VA, 22201",76479113,"R"
9467,"1029 NORTH ROAD PMB 171","WESTFIELD","MA",1085,NA,NA,467,"1029 NORTH ROAD PMB 171, WESTFIELD, MA, 1085","No_Match",NA,NA,NA,NA
9468,"1029 PEACHTREE PKWY N - 105","PEACHTREE CITY","GA",30269,NA,NA,468,"1029 PEACHTREE PKWY N - 105, PEACHTREE CITY, GA, 30269","No_Match",NA,NA,NA,NA
9469,"1029 PINE ISLAND ROAD","COLCHESTER","VT",5446,44.5212819490001,-73.2186920679999,469,"1029 PINE ISLAND ROAD, COLCHESTER, VT, 5446","Match","Exact","1029 PINE ISLAND RD, COLCHESTER, VT, 05446",135842701,"R"
9470,"1029 POTTAWATOMIE","LEAVENWORTH","KS",66048,39.321356505,-94.929141257,470,"1029 POTTAWATOMIE, LEAVENWORTH, KS, 66048","Match","Non_Exact","1029 POTTAWATOMIE ST, LEAVENWORTH, KS, 66048",619291692,"L"
9471,"1029 REGAL MANOR LANE","FORT MILL","SC",29715,35.0537165540001,-80.916518647,471,"1029 REGAL MANOR LANE, FORT MILL, SC, 29715","Match","Exact","1029 REGAL MANOR LN, FORT MILL, SC, 29715",646615888,"L"
9472,"1029 RIVERPOINTE DR","EAST BEND","NC",27018,36.1355256480001,-80.4500207899999,472,"1029 RIVERPOINTE DR, EAST BEND, NC, 27018","Match","Exact","1029 RIVERPOINTE DR, EAST BEND, NC, 27018",84770593,"L"
9473,"1029 S 7TH STREET NO 1","PHILADELPHIA","PA",19147,NA,NA,473,"1029 S 7TH STREET NO 1, PHILADELPHIA, PA, 19147","No_Match",NA,NA,NA,NA
9474,"1029 S APACHE CIRCLE","PRESCOTT","AZ",86303,34.524236343,-112.481459893,474,"1029 S APACHE CIRCLE, PRESCOTT, AZ, 86303","Match","Exact","1029 APACHE CIR, PRESCOTT, AZ, 86303",159508232,"L"
9475,"1029 S MAIN ST","ROCKFORD","IL",61101,42.2627259280001,-89.100255503,475,"1029 S MAIN ST, ROCKFORD, IL, 61101","Match","Exact","1029 S MAIN ST, ROCKFORD, IL, 61101",49253574,"R"
9476,"1029 SHANESVILLE ROAD","SUGARCREEK","OH",44681,40.469415262,-81.638609355,476,"1029 SHANESVILLE ROAD, SUGARCREEK, OH, 44681","Match","Non_Exact","1029 SHANESVILLE RD SW, SUGARCREEK, OH, 44681",612288150,"R"
9477,"1029 SOLANO AVENUE - SUITE A","ALBANY","CA",94706,37.890084345,-122.300108766,477,"1029 SOLANO AVENUE - SUITE A, ALBANY, CA, 94706","Match","Exact","1029 SOLANO AVE, ALBANY, CA, 94706",124991983,"L"
9478,"1029 SOUTH 10TH STREET","LEBANON","OR",97355,44.535304771,-122.920906228,478,"1029 SOUTH 10TH STREET, LEBANON, OR, 97355","Match","Exact","1029 S 10TH ST, LEBANON, OR, 97355",606053181,"L"
9479,"1029 SPRUCE STREET","BRENTWOOD","CA",94513,37.938215272,-121.686177658,479,"1029 SPRUCE STREET, BRENTWOOD, CA, 94513","Match","Exact","1029 SPRUCE ST, BRENTWOOD, CA, 94513",627229088,"R"
9480,"1029 STATE HWY 6 N SUITE 650 - 111","HOUSTON","TX",77079,NA,NA,480,"1029 STATE HWY 6 N SUITE 650 - 111, HOUSTON, TX, 77079","No_Match",NA,NA,NA,NA
9481,"1029 SUNDANCE DRIVE","GASTONIA","NC",28054,35.2806810450001,-81.1695839929999,481,"1029 SUNDANCE DRIVE, GASTONIA, NC, 28054","Match","Exact","1029 SUNDANCE DR, GASTONIA, NC, 28054",650903317,"L"
9482,"1029 SUNDERLAND LANE","FORT WORTH","TX",76134,32.64609153,-97.333643813,482,"1029 SUNDERLAND LANE, FORT WORTH, TX, 76134","Match","Exact","1029 SUNDERLAND LN, FORT WORTH, TX, 76134",619868987,"L"
9483,"1029 SUPERBA AVENUE","VENICE","CA",90291,33.9970639650001,-118.457001781,483,"1029 SUPERBA AVENUE, VENICE, CA, 90291","Match","Exact","1029 SUPERBA AVE, VENICE, CA, 90291",141569408,"L"
9484,"1029 TALL OAK DR","VIRGINIA BEACH","VA",23462,36.806598874,-76.121772985,484,"1029 TALL OAK DR, VIRGINIA BEACH, VA, 23462","Match","Exact","1029 TALL OAK DR, VA BCH, VA, 23462",122267599,"R"
9485,"1029 UNIVERSITY AVENUE SUITE101","MORGANTOWN","WV",26505,39.6288149100001,-79.959211486,485,"1029 UNIVERSITY AVENUE SUITE101, MORGANTOWN, WV, 26505","Match","Exact","1029 UNIVERSITY AVE, MORGANTOWN, WV, 26505",50744848,"L"
9486,"1029 VALLEY FORGE ROAD","TUSCALOOSA","AL",35406,33.2431929090001,-87.522732009,486,"1029 VALLEY FORGE ROAD, TUSCALOOSA, AL, 35406","Match","Exact","1029 VALLEY FORGE RD, TUSCALOOSA, AL, 35406",82195143,"R"
9487,"1029 VERMONT AVENUE NW SUITE 800","WASHINGTON","DC",20005,38.902923038,-77.0335319389999,487,"1029 VERMONT AVENUE NW SUITE 800, WASHINGTON, DC, 20005","Match","Exact","1029 VERMONT AVE NW, WASHINGTON, DC, 20005",76225764,"R"
9488,"1029 VIA GANDALFI","HENDERSON","NV",89011,36.079896461,-114.959244368,488,"1029 VIA GANDALFI, HENDERSON, NV, 89011","Match","Exact","1029 VIA GANDALFI, HENDERSON, NV, 89011",641508702,"L"
9489,"1029 W 200 N","PERU","IN",46970,40.793139087,-86.092996364,489,"1029 W 200 N, PERU, IN, 46970","Match","Exact","1029 W 200 N, PERU, IN, 46970",106390192,"R"
9490,"1029 W 2ND ST APT 1","WILMINGTON","DE",19805,39.742953067,-75.562660891,490,"1029 W 2ND ST APT 1, WILMINGTON, DE, 19805","Match","Non_Exact","1029 W 2ND ST, WILMINGTON, DE, 19805",187257399,"R"
9491,"1029 W 35TH ST","CHICAGO","IL",60609,41.830666627,-87.65216373,491,"1029 W 35TH ST, CHICAGO, IL, 60609","Match","Exact","1029 W 35TH ST, CHICAGO, IL, 60609",111846415,"L"
9492,"1029 W 35TH STREET SUITE 200","CHICAGO","IL",60609,41.830666627,-87.65216373,492,"1029 W 35TH STREET SUITE 200, CHICAGO, IL, 60609","Match","Non_Exact","1029 W 35TH ST, CHICAGO, IL, 60609",111846415,"L"
9493,"1029 W 6TH ST","MESA","AZ",85201,33.4258263790001,-111.853358107,493,"1029 W 6TH ST, MESA, AZ, 85201","Match","Exact","1029 W 6TH ST, MESA, AZ, 85201",128234248,"L"
9494,"1029 W MANZANITA ST","APACHE JUNCTION","AZ",85120,33.426851787,-111.557115015,494,"1029 W MANZANITA ST, APACHE JUNCTION, AZ, 85120","Match","Exact","1029 W MANZANITA ST, APACHE JUNCTION, AZ, 85120",647405134,"R"
9495,"1029 WEST 35TH STREET","CHICAGO","IL",60609,41.830666734,-87.6521568219999,495,"1029 WEST 35TH STREET, CHICAGO, IL, 60609","Match","Exact","1029 W 35TH ST, CHICAGO, IL, 60609",111846415,"L"
9496,"1029 WEST ROUNDBUNCH RD","BRIDGE CITY","TX",77611,30.0351142700001,-93.8527538549999,496,"1029 WEST ROUNDBUNCH RD, BRIDGE CITY, TX, 77611","Match","Non_Exact","1029 W ROUND BUNCH RD, BRIDGE CITY, TX, 77611",642978445,"R"
9497,"1029 WOODLAWN STREET","SCRANTON","PA",18509,41.43380188,-75.6404319819999,497,"1029 WOODLAWN STREET, SCRANTON, PA, 18509","Match","Exact","1029 WOODLAWN ST, SCRANTON, PA, 18509",618242812,"L"
9498,"1029 WOODSIDE DRIVE","NAPA","CA",94558,38.3276130530001,-122.270536927,498,"1029 WOODSIDE DRIVE, NAPA, CA, 94558","Match","Exact","1029 WOODSIDE DR, NAPA, CA, 94558",67415727,"R"
9499,"1029 ZELDA DR","HURST","TX",76053,32.828115541,-97.193742382,499,"1029 ZELDA DR, HURST, TX, 76053","Match","Exact","1029 ZELDA DR, HURST, TX, 76053",101865762,"L"
9500,"10290 DAVISON RD STE13","DAVISON","MI",48423,43.034975925,-83.505525141,500,"10290 DAVISON RD STE13, DAVISON, MI, 48423","Match","Exact","10290 DAVISON RD, DAVISON, MI, 48423",644931292,"R"
