"ID","Address","City","State","Zip","lat","long","id","input_address","match_indicator","match_type","matched_address","tiger_line_id","tiger_side"
260501,"6204 PARKSIDE DR","ARLINGTON","TX",76001,32.644558869,-97.144915313,1,"6204 PARKSIDE DR, ARLINGTON, TX, 76001","Match","Exact","6204 PARKSIDE DR, ARLINGTON, TX, 76001",102130840,"R"
260502,"6204 PRICE LANE","LOUISVILLE","KY",40229,38.1044458380001,-85.647499571,2,"6204 PRICE LANE, LOUISVILLE, KY, 40229","Match","Non_Exact","6204 PRICE LANE RD, LOUISVILLE, KY, 40229",96860853,"R"
260503,"6204 S 222ND EAST PL","BROKEN ARROW","OK",74014,36.073437289,-95.730117088,3,"6204 S 222ND EAST PL, BROKEN ARROW, OK, 74014","Match","Exact","6204 S 222ND EAST PL, BROKEN ARROW, OK, 74014",83149793,"L"
260504,"6204 S NAGLE AVE","CHICAGO","IL",60638,41.7792987980001,-87.7825530549999,4,"6204 S NAGLE AVE, CHICAGO, IL, 60638","Match","Exact","6204 S NAGLE AVE, CHICAGO, IL, 60638",605293764,"R"
260505,"6204 WASHINGTON ST","NAPA","CA",94599,38.3871213460001,-122.349903157,5,"6204 WASHINGTON ST, NAPA, CA, 94599","Match","Non_Exact","6204 WASHINGTON ST, NAPA, CA, 94558",646907511,"R"
260506,"6204D HACKERS BEND COURT","WINSTON-SALEM","NC",27103,36.0395649270001,-80.371602158,6,"6204D HACKERS BEND COURT, WINSTON-SALEM, NC, 27103","Match","Exact","6204 HACKERS BEND CT, WINSTON SALEM, NC, 27103",84643184,"L"
260507,"6205  WARRINGTON PLACE","FT WORTH","TX",76112,32.758629603,-97.2254890149999,7,"6205  WARRINGTON PLACE, FT WORTH, TX, 76112","Match","Exact","6205 WARRINGTON PL, FORT WORTH, TX, 76112",101900085,"L"
260508,"6205 BLUE LAGOON DR STE 130","MIAMI","FL",33126,25.7831312550001,-80.295554637,8,"6205 BLUE LAGOON DR STE 130, MIAMI, FL, 33126","Match","Exact","6205 BLUE LAGOON DR, MIAMI, FL, 33126",650006963,"L"
260509,"6205 BURGESS ROAD","COLORADO SPRINGS","CO",80908,38.9982807310001,-104.711758005,9,"6205 BURGESS ROAD, COLORADO SPRINGS, CO, 80908","Match","Exact","6205 BURGESS RD, COLORADO SPRINGS, CO, 80908",105538867,"L"
260510,"6205 COIT RD SUITE 201","PLANO","TX",75024,33.0579419900001,-96.770577335,10,"6205 COIT RD SUITE 201, PLANO, TX, 75024","Match","Exact","6205 COIT RD, PLANO, TX, 75024",210487873,"R"
260511,"6205 DISTRICT BLVD","BAKERSFIELD","CA",93313,35.3131114400001,-119.073510811,11,"6205 DISTRICT BLVD, BAKERSFIELD, CA, 93313","Match","Exact","6205 DISTRICT BLVD, BAKERSFIELD, CA, 93313",109091340,"L"
260512,"6205 EAST 78TH PLACE","TULSA","OK",74136,36.050586475,-95.907727052,12,"6205 EAST 78TH PLACE, TULSA, OK, 74136","Match","Exact","6205 E 78TH PL, TULSA, OK, 74136",166452730,"L"
260513,"6205 FALKENBURY ROAD","NORTH BRANCH","MI",48461,43.212296156,-83.300141429,13,"6205 FALKENBURY ROAD, NORTH BRANCH, MI, 48461","Match","Exact","6205 FALKENBURY RD, NORTH BRANCH, MI, 48461",110468680,"L"
260514,"6205 FLORA SPRINGS LN APT 4D","NORTH CHESTERFIELD","VA",23234,37.4191686620001,-77.505266467,14,"6205 FLORA SPRINGS LN APT 4D, NORTH CHESTERFIELD, VA, 23234","Match","Exact","6205 FLORA SPRINGS LN, NORTH CHESTERFIELD, VA, 23234",641682371,"L"
260515,"6205 KENILWORTH AVE STE 100","RIVERDALE","MD",20737,38.9620751640001,-76.919483967,15,"6205 KENILWORTH AVE STE 100, RIVERDALE, MD, 20737","Match","Exact","6205 KENILWORTH AVE, RIVERDALE, MD, 20737",76414659,"R"
260516,"6205 LA VISTA DR","DALLAS","TX",75214,32.812715837,-96.7586171149999,16,"6205 LA VISTA DR, DALLAS, TX, 75214","Match","Exact","6205 LA VISTA DR, DALLAS, TX, 75214",102919678,"L"
260517,"6205 LAKE LIZZIE DRIVE","SAINT CLOUD,","FL",34771,28.238394527,-81.191796874,17,"6205 LAKE LIZZIE DRIVE, SAINT CLOUD,, FL, 34771","Match","Exact","6205 LAKE LIZZIE DR, SAINT CLOUD, FL, 34771",638653082,"L"
260518,"6205 LANE PLACE","DOWNERS GROVE","IL",60516,41.7754198870001,-88.009487975,18,"6205 LANE PLACE, DOWNERS GROVE, IL, 60516","Match","Exact","6205 LANE PL, DOWNERS GROVE, IL, 60516",112540168,"L"
260519,"6205 N MILWAUKEE AVENUE UNIT 1F","CHICAGO","IL",60646,41.993923963,-87.7846020699999,19,"6205 N MILWAUKEE AVENUE UNIT 1F, CHICAGO, IL, 60646","Match","Non_Exact","6205 N MILWAUKEE AVE, CHICAGO, IL, 60646",111736395,"R"
260520,"6205 N W ST","PENSACOLA","FL",32505,30.476068652,-87.2564322809999,20,"6205 N W ST, PENSACOLA, FL, 32505","Match","Exact","6205 N W ST, PENSACOLA, FL, 32505",93232052,"R"
260521,"6205 NORVO RD","BALTIMORE","MD",21207,39.3358196350001,-76.7186531519999,21,"6205 NORVO RD, BALTIMORE, MD, 21207","Match","Exact","6205 NORVO RD, BALTIMORE, MD, 21207",191469285,"R"
260522,"6205 RIVER BLUFF COURT","RALEIGH","NC",27604,35.843407303,-78.532928192,22,"6205 RIVER BLUFF COURT, RALEIGH, NC, 27604","Match","Exact","6205 RIVER BLUFF CT, RALEIGH, NC, 27604",72602014,"L"
260523,"6205 S 172 ST","OMAHA","NE",68135,41.1956304920001,-96.182087984,23,"6205 S 172 ST, OMAHA, NE, 68135","Match","Exact","6205 S 172ND ST, OMAHA, NE, 68135",117006911,"L"
260524,"6205 SW 22ND STREET","MIRAMAR","FL",33023,25.9910103450001,-80.211406854,24,"6205 SW 22ND STREET, MIRAMAR, FL, 33023","Match","Exact","6205 SW 22ND ST, MIRAMAR, FL, 33023",114734530,"R"
260525,"6205 WEST AVENUE","SAN ANTONIO","TX",78213,29.518691577,-98.5259283239999,25,"6205 WEST AVENUE, SAN ANTONIO, TX, 78213","Match","Exact","6205 WEST AVE, SAN ANTONIO, TX, 78213",637813532,"L"
260526,"6206 CALICO POINTE CT","SUGAR LAND","TX",77479,29.569505468,-95.673649062,26,"6206 CALICO POINTE CT, SUGAR LAND, TX, 77479","Match","Exact","6206 CALICO POINTE CT, SUGAR LAND, TX, 77479",651080896,"L"
260527,"6206 CHECKREIN ST","SAN ANTONIO","TX",78240,29.5059554420001,-98.6096704349999,27,"6206 CHECKREIN ST, SAN ANTONIO, TX, 78240","Match","Exact","6206 CHECKREIN ST, SAN ANTONIO, TX, 78240",101491217,"L"
260528,"6206 DUCK CREEK DR APT 7104","GARLAND","TX",75043,32.844791463,-96.600183762,28,"6206 DUCK CREEK DR APT 7104, GARLAND, TX, 75043","Match","Exact","6206 DUCK CREEK DR, GARLAND, TX, 75043",103236259,"L"
260529,"6206 HIGHLAND AVE","RICHMOND","CA",94805,37.9456420550001,-122.313819758,29,"6206 HIGHLAND AVE, RICHMOND, CA, 94805","Match","Exact","6206 HIGHLAND AVE, RICHMOND, CA, 94805",617628613,"R"
260530,"6206 JOPLIN CT","MAGALIA","CA",95954,39.815523829,-121.606365477,30,"6206 JOPLIN CT, MAGALIA, CA, 95954","Match","Exact","6206 JOPLIN CT, MAGALIA, CA, 95954",68412203,"R"
260531,"6206 LONE PRARIE WAY","KATY","TX",77449,29.8655089050001,-95.723094098,31,"6206 LONE PRARIE WAY, KATY, TX, 77449","Match","Non_Exact","6206 LONE PRAIRIE WAY, KATY, TX, 77449",624658753,"R"
260532,"6206 MOORES CREEK DRIVE","SUMMERFIELD","NC",27358,36.168952129,-79.925805226,32,"6206 MOORES CREEK DRIVE, SUMMERFIELD, NC, 27358","Match","Exact","6206 MOORES CREEK DR, SUMMERFIELD, NC, 27358",131098666,"R"
260533,"6206 N HAMLIN AVE","CHICAGO","IL",60659,41.993955607,-87.723938652,33,"6206 N HAMLIN AVE, CHICAGO, IL, 60659","Match","Exact","6206 N HAMLIN AVE, CHICAGO, IL, 60659",111742347,"L"
260534,"6206 NE BLAKEWOOD CT","KINGSTON","WA",98346,47.817165448,-122.565876379,34,"6206 NE BLAKEWOOD CT, KINGSTON, WA, 98346","Match","Exact","6206 NE BLAKEWOOD CT, KINGSTON, WA, 98346",187673447,"L"
260535,"6206 NORTH IDLEWHILE DRIVE","PEORIA","IL",61615,40.7629055210001,-89.659828122,35,"6206 NORTH IDLEWHILE DRIVE, PEORIA, IL, 61615","Match","Exact","6206 N IDLEWHILE DR, PEORIA, IL, 61615",8711308,"R"
260536,"6206 NW FERRIS AVE","LAWTON","OK",73505,34.616625748,-98.4678375459999,36,"6206 NW FERRIS AVE, LAWTON, OK, 73505","Match","Exact","6206 NW FERRIS AVE, LAWTON, OK, 73505",14990452,"L"
260537,"6206 OCHOCO LN","PASCO","WA",99301,46.28362001,-119.175384517,37,"6206 OCHOCO LN, PASCO, WA, 99301","Match","Non_Exact","6206 OCHOCO RD, PASCO, WA, 99301",643452678,"L"
260538,"6206 OLEANDER DRIVE","WILMINGTON","NC",28403,34.2103895380001,-77.8367797289999,38,"6206 OLEANDER DRIVE, WILMINGTON, NC, 28403","Match","Exact","6206 OLEANDER DR, WILMINGTON, NC, 28403",152734982,"R"
260539,"6206 PLEAK ROAD","RICHMOND","TX",77469,29.4828565980001,-95.79986767,39,"6206 PLEAK ROAD, RICHMOND, TX, 77469","Match","Exact","6206 PLEAK RD, RICHMOND, TX, 77469",78345286,"R"
260540,"6206 PORTAL COURT","DALE CITY","VA",22193,38.6640978390001,-77.391625034,40,"6206 PORTAL COURT, DALE CITY, VA, 22193","Match","Exact","6206 PORTAL CT, DALE CITY, VA, 22193",76519978,"R"
260541,"6206 S MONTEZUMA ST","PHOENIX","AZ",85041,33.389458099,-112.077627557,41,"6206 S MONTEZUMA ST, PHOENIX, AZ, 85041","Match","Exact","6206 S MONTEZUMA ST, PHOENIX, AZ, 85041",128212863,"R"
260542,"6206 SUMMER AVE","BARTLETT","TN",38134,35.1840525530001,-89.856191128,42,"6206 SUMMER AVE, BARTLETT, TN, 38134","Match","Exact","6206 SUMMER AVE, BARTLETT, TN, 38134",72924587,"L"
260543,"6206 W 900 N","MCCORDSVILLE","IN",46055,39.913263704,-85.922778556,43,"6206 W 900 N, MCCORDSVILLE, IN, 46055","Match","Exact","6206 W 900 N, MCCORDSVILLE, IN, 46055",649312223,"L"
260544,"6207 BUCKNERS PASS","FORT WAYNE","IN",46818,41.1042420680001,-85.223241466,44,"6207 BUCKNERS PASS, FORT WAYNE, IN, 46818","Match","Exact","6207 BUCKNERS PASS, FORT WAYNE, IN, 46818",627094124,"R"
260545,"6207 BURROWING OWL COVE","BRADENTON","FL",34202,27.4297673930001,-82.400672388,45,"6207 BURROWING OWL COVE, BRADENTON, FL, 34202","Match","Exact","6207 BURROWING OWL COVE, BRADENTON, FL, 34202",16289854,"L"
260546,"6207 COLFAX AVE NORTH","BROOKLYN CENTER","MN",55430,45.067325258,-93.29250906,46,"6207 COLFAX AVE NORTH, BROOKLYN CENTER, MN, 55430","Match","Exact","6207 COLFAX AVE N, BROOKLYN CENTER, MN, 55430",43616728,"L"
260547,"6207 GLENCAIRN CT","CHARLOTTE","NC",28269,35.383781126,-80.7792514559999,47,"6207 GLENCAIRN CT, CHARLOTTE, NC, 28269","Match","Exact","6207 GLENCAIRN CT, CHARLOTTE, NC, 28269",70519392,"L"
260548,"6207 JULIAN ST","SPRINGFIELD","VA",22150,38.7822832740001,-77.1973941219999,48,"6207 JULIAN ST, SPRINGFIELD, VA, 22150","Match","Exact","6207 JULIAN ST, SPRINGFIELD, VA, 22150",75983503,"L"
260549,"6207 KATY GASTON RD STE 2315","KATY","TX",77494,29.705142778,-95.798340332,49,"6207 KATY GASTON RD STE 2315, KATY, TX, 77494","Match","Exact","6207 KATY GASTON RD, KATY, TX, 77494",642101825,"L"
260550,"6207 KLONDIKE RIVER RD","LITHOINA","GA",30038,33.6376998760001,-84.1363145509999,50,"6207 KLONDIKE RIVER RD, LITHOINA, GA, 30038","Match","Non_Exact","6207 KLONDIKE RIVER RD, LITHONIA, GA, 30038",23395845,"L"
260551,"6207 MORTON ST","PHILADELPHIA","PA",19144,40.045532795,-75.176517459,51,"6207 MORTON ST, PHILADELPHIA, PA, 19144","Match","Exact","6207 MORTON ST, PHILADELPHIA, PA, 19144",131395498,"R"
260552,"6207 N CATTLETRACK ROAD SUITE 7","SCOTTSDALE","AZ",85250,33.5271649920001,-111.91733167,52,"6207 N CATTLETRACK ROAD SUITE 7, SCOTTSDALE, AZ, 85250","Match","Non_Exact","6207 N CATTLE TRACK RD, SCOTTSDALE, AZ, 85250",128298514,"R"
260553,"6207 NORTH SEMINARY ROAD","EDINBURG","TX",78541,26.3691965670001,-98.165842798,53,"6207 NORTH SEMINARY ROAD, EDINBURG, TX, 78541","Match","Non_Exact","6207 SEMINARY RD, EDINBURG, TX, 78541",624400797,"L"
260554,"6207 S UNIVERSITY AVE","CHICAGO","IL",60637,41.7820864120001,-87.5978550199999,54,"6207 S UNIVERSITY AVE, CHICAGO, IL, 60637","Match","Exact","6207 S UNIVERSITY AVE, CHICAGO, IL, 60637",111771819,"L"
260555,"6208  COUNTY ROAD 1440","LUBBOCK","TX",79407,NA,NA,55,"6208  COUNTY ROAD 1440, LUBBOCK, TX, 79407","No_Match",NA,NA,NA,NA
260556,"6208 BECKWITH RD","MT. JULIET","TN",37122,36.1599320990001,-86.459250904,56,"6208 BECKWITH RD, MT. JULIET, TN, 37122","Match","Exact","6208 BECKWITH RD, MOUNT JULIET, TN, 37122",642146337,"L"
260557,"6208 BRIDGE AVENUE","CLEVELAND","OH",44102,41.4806284220001,-81.728683511,57,"6208 BRIDGE AVENUE, CLEVELAND, OH, 44102","Match","Exact","6208 BRIDGE AVE, CLEVELAND, OH, 44102",61101343,"R"
260558,"6208 CHATHAM GLENN WAY N","HARRISBURG","PA",17111,40.2749622800001,-76.78066115,58,"6208 CHATHAM GLENN WAY N, HARRISBURG, PA, 17111","Match","Exact","6208 CHATHAM GLENN WAY N, HARRISBURG, PA, 17111",70837294,"L"
260559,"6208 CLARIDGE DR","RIVERSIDE","CA",92506,33.9386472950001,-117.339830034,59,"6208 CLARIDGE DR, RIVERSIDE, CA, 92506","Match","Exact","6208 CLARIDGE DR, RIVERSIDE, CA, 92506",194746870,"L"
260560,"6208 E 149TH TERR","GRANDVIEW","MO",64030,38.852777674,-94.5235269899999,60,"6208 E 149TH TERR, GRANDVIEW, MO, 64030","Match","Exact","6208 E 149TH TER, GRANDVIEW, MO, 64030",91477404,"L"
260561,"6208 EAGLE LAKE DR","ZIONSVILLE","IN",46077,39.9259088410001,-86.3451315739999,61,"6208 EAGLE LAKE DR, ZIONSVILLE, IN, 46077","Match","Exact","6208 EAGLE LAKE DR, ZIONSVILLE, IN, 46077",625356986,"R"
260562,"6208 FOREST RIVER DRIVE","FORT WORTH","TX",76112,32.7791724410001,-97.2249445739999,62,"6208 FOREST RIVER DRIVE, FORT WORTH, TX, 76112","Match","Exact","6208 FOREST RIVER DR, FORT WORTH, TX, 76112",102103172,"R"
260563,"6208 HIGHWAY 61/67","IMPERIAL","MO",63052,NA,NA,63,"6208 HIGHWAY 61/67, IMPERIAL, MO, 63052","No_Match",NA,NA,NA,NA
260564,"6208 OLD RICHMOND ROAD","LEXINGTON","KY",40515,37.935387769,-84.39713901,64,"6208 OLD RICHMOND ROAD, LEXINGTON, KY, 40515","Match","Exact","6208 OLD RICHMOND RD, LEXINGTON, KY, 40515",31929150,"L"
260565,"6208 PENNSYLVANIA AVENUE","ST. LOUIS","MO",63111,38.5580923470001,-90.247362176,65,"6208 PENNSYLVANIA AVENUE, ST. LOUIS, MO, 63111","Match","Exact","6208 PENNSYLVANIA AVE, SAINT LOUIS, MO, 63111",107602037,"L"
260566,"6208 PINEBURR RD","CHARLOTTE","NC",28211,35.152864854,-80.754994843,66,"6208 PINEBURR RD, CHARLOTTE, NC, 28211","Match","Exact","6208 PINEBURR RD, CHARLOTTE, NC, 28211",70493291,"R"
260567,"6208 TERRY ROAD APT 2","LOUISVILLE","KY",40258,38.1607102720001,-85.866791,67,"6208 TERRY ROAD APT 2, LOUISVILLE, KY, 40258","Match","Exact","6208 TERRY RD, LOUISVILLE, KY, 40258",96870566,"R"
260568,"6208 US HIGHWAY 61 67","IMPERIAL","MO",63052,38.3633927860001,-90.375175149,68,"6208 US HIGHWAY 61 67, IMPERIAL, MO, 63052","Match","Non_Exact","6208 US HWY 61, IMPERIAL, MO, 63052",613373320,"R"
260569,"6208 WEST ACOMA DRIVE","GLENDALE","AZ",85306,33.616967464,-112.191110987,69,"6208 WEST ACOMA DRIVE, GLENDALE, AZ, 85306","Match","Exact","6208 W ACOMA DR, GLENDALE, AZ, 85306",128174494,"R"
260570,"62081","SAN ANGELO","TX",76906,NA,NA,70,"62081, SAN ANGELO, TX, 76906","No_Match",NA,NA,NA,NA
260571,"6209 48TH AVE S","SEATTLE","WA",98118,47.546826401,-122.272650888,71,"6209 48TH AVE S, SEATTLE, WA, 98118","Match","Exact","6209 48TH AVE S, SEATTLE, WA, 98118",186596571,"R"
260572,"6209 ARLINGTON AVE","LAS VEGAS","NV",89107,36.1678659880001,-115.228582964,72,"6209 ARLINGTON AVE, LAS VEGAS, NV, 89107","Match","Exact","6209 ARLINGTON AVE, LAS VEGAS, NV, 89107",201860360,"L"
260573,"6209 BEVERLY COURT","HUNTINGTON","WV",25705,38.4221402000001,-82.3044401669999,73,"6209 BEVERLY COURT, HUNTINGTON, WV, 25705","Match","Exact","6209 BEVERLY CT, HUNTINGTON, WV, 25705",101321177,"R"
260574,"6209 BOULEVARD EAST  APT 1AS","WEST NEW YORK","NJ",7093,NA,NA,74,"6209 BOULEVARD EAST  APT 1AS, WEST NEW YORK, NJ, 7093","No_Match",NA,NA,NA,NA
260575,"6209 E SHALLOWFORD COURT","SUFFOLK","VA",23435,36.883943833,-76.444256394,75,"6209 E SHALLOWFORD COURT, SUFFOLK, VA, 23435","Match","Exact","6209 E SHALLOWFORD CT, SUFFOLK, VA, 23435",122233232,"L"
260576,"6209 FOXCROFT ROAD","ALEXANDRIA","VA",22307,38.783449454,-77.0684636789999,76,"6209 FOXCROFT ROAD, ALEXANDRIA, VA, 22307","Match","Exact","6209 FOXCROFT RD, ALEXANDRIA, VA, 22307",76024529,"R"
260577,"6209 GILBRALTER LANE","BOWIE","MD",20720,38.975210771,-76.769866069,77,"6209 GILBRALTER LANE, BOWIE, MD, 20720","Match","Exact","6209 GILBRALTER LN, BOWIE, MD, 20720",76354173,"L"
260578,"6209 LEA RAY DRIVE","GREENSBORO","NC",27410,36.0827248690001,-79.902534557,78,"6209 LEA RAY DRIVE, GREENSBORO, NC, 27410","Match","Exact","6209 LEA RAY DR, GREENSBORO, NC, 27410",131053782,"L"
260579,"6209 MADDLINGLY LANE","LEAGUE CITY","TX",77573,29.470265726,-95.169213927,79,"6209 MADDLINGLY LANE, LEAGUE CITY, TX, 77573","Match","Non_Exact","6209 MADDINGLY LN, LEAGUE CITY, TX, 77573",646509074,"L"
260580,"6209 MEADOW VIEW DRIVE","ST. JOSEPH","MO",64504,39.7116566720001,-94.8250720359999,80,"6209 MEADOW VIEW DRIVE, ST. JOSEPH, MO, 64504","Match","Exact","6209 MEADOW VIEW DR, SAINT JOSEPH, MO, 64504",618536222,"R"
260581,"6209 MID RIVERS MALL DR","SAINT PETERS","MO",63304,38.741066797,-90.6340784,81,"6209 MID RIVERS MALL DR, SAINT PETERS, MO, 63304","Match","Exact","6209 MID RIVERS MALL DR, SAINT PETERS, MO, 63304",605593391,"L"
260582,"6209 MID RIVERS MALL DRIVE","ST CHARLES","MO",63304,38.741066797,-90.6340784,82,"6209 MID RIVERS MALL DRIVE, ST CHARLES, MO, 63304","Match","Exact","6209 MID RIVERS MALL DR, SAINT CHARLES, MO, 63304",605593391,"L"
260583,"6209 NEEDLETAIL RD","COLUMBUS","OH",43230,40.0575773030001,-82.8521424259999,83,"6209 NEEDLETAIL RD, COLUMBUS, OH, 43230","Match","Exact","6209 NEEDLETAIL RD, COLUMBUS, OH, 43230",624575116,"R"
260584,"6209 NW 246TH AVE","ALACHUA","FL",32615,29.8810750970001,-82.411999409,84,"6209 NW 246TH AVE, ALACHUA, FL, 32615","Match","Exact","6209 NW 246TH AVE, ALACHUA, FL, 32615",624105075,"L"
260585,"6209 NW 246TH","ALACHUA","FL",32615,29.8810750970001,-82.411999409,85,"6209 NW 246TH, ALACHUA, FL, 32615","Match","Non_Exact","6209 NW 246TH AVE, ALACHUA, FL, 32615",624105075,"L"
260586,"6209 NW 96TH ST","JOHNSTON","IA",50131,41.673867156,-93.750682462,86,"6209 NW 96TH ST, JOHNSTON, IA, 50131","Match","Exact","6209 NW 96TH ST, JOHNSTON, IA, 50131",65863081,"R"
260587,"6209 RACCOON RUN COURT","LOUISVILLE","KY",40241,38.3128689280001,-85.631369827,87,"6209 RACCOON RUN COURT, LOUISVILLE, KY, 40241","Match","Exact","6209 RACCOON RUN CT, LOUISVILLE, KY, 40241",96880102,"L"
260588,"6209 S JONES ROAD","TAMPA","FL",33611,27.877403117,-82.487720299,88,"6209 S JONES ROAD, TAMPA, FL, 33611","Match","Exact","6209 JONES RD, TAMPA, FL, 33611",104529392,"R"
260589,"6209 WEST HUSTIS STREET","MILWAUKEE","WI",53223,43.144445723,-87.9882008869999,89,"6209 WEST HUSTIS STREET, MILWAUKEE, WI, 53223","Match","Exact","6209 W HUSTIS ST, MILWAUKEE, WI, 53223",77726491,"L"
260590,"6209 WEST MONTGOMERY RD BLDG A","HOUSTON","TX",77091,29.8541472260001,-95.4171622169999,90,"6209 WEST MONTGOMERY RD BLDG A, HOUSTON, TX, 77091","Match","Exact","6209 W MONTGOMERY RD, HOUSTON, TX, 77091",96053198,"L"
260591,"62092 HOLLIS LESLIE RD","ANGIE","LA",70426,30.980878987,-89.851384359,91,"62092 HOLLIS LESLIE RD, ANGIE, LA, 70426","Match","Exact","62092 HOLLIS LESLIE RD, ANGIE, LA, 70426",82474462,"L"
260592,"621 1/2 PIONEER ROAD","GRAND JUNCTION","CO",81504,39.094881963,-108.504028464,92,"621 1/2 PIONEER ROAD, GRAND JUNCTION, CO, 81504","Match","Exact","621 PIONEER RD, GRAND JCT, CO, 81504",621859882,"L"
260593,"621 151 ST PL NE","BELLEVUE","WA",98007,47.615519287,-122.138292066,93,"621 151 ST PL NE, BELLEVUE, WA, 98007","Match","Non_Exact","621 151ST PL NE, BELLEVUE, WA, 98007",186611555,"L"
260594,"621 43RD ST","WEST PALM BEACH","FL",33407,26.7514648370001,-80.0568631679999,94,"621 43RD ST, WEST PALM BEACH, FL, 33407","Match","Exact","621 43RD ST, WEST PALM BEACH, FL, 33407",115277306,"R"
260595,"621 43RD STREET","WEST PALM BEACH","FL",33407,26.7514648370001,-80.0568631679999,95,"621 43RD STREET, WEST PALM BEACH, FL, 33407","Match","Exact","621 43RD ST, WEST PALM BEACH, FL, 33407",115277306,"R"
260596,"621 ARBOR STREET","LOMPOC","CA",93437,34.7551309420001,-120.54209929,96,"621 ARBOR STREET, LOMPOC, CA, 93437","Match","Exact","621 ARBOR ST, LOMPOC, CA, 93437",108621672,"L"
260597,"621 BARRETTO ST","BRONX","NY",10474,40.812376123,-73.888804207,97,"621 BARRETTO ST, BRONX, NY, 10474","Match","Exact","621 BARRETTO ST, BRONX, NY, 10474",80302598,"L"
260598,"621 BAYVIEW DRIVE","MANHATTAN BEACH","CA",90266,33.881475558,-118.408432886,98,"621 BAYVIEW DRIVE, MANHATTAN BEACH, CA, 90266","Match","Exact","621 BAYVIEW DR, MANHATTAN BEACH, CA, 90266",141581815,"L"
260599,"621 BELMONT CREST DR","MARIETTA","GA",30067,NA,NA,99,"621 BELMONT CREST DR, MARIETTA, GA, 30067","No_Match",NA,NA,NA,NA
260600,"621 BLUFF VIEW DRIVE","PEGRAM","TN",37143,36.0934393090001,-87.060951202,100,"621 BLUFF VIEW DRIVE, PEGRAM, TN, 37143","Match","Exact","621 BLUFF VIEW DR, PEGRAM, TN, 37143",72879569,"R"
260601,"621 BUSLEIGH CASTLE WAY","PFLUGERVILLE","TX",78660,30.477340456,-97.61189082,101,"621 BUSLEIGH CASTLE WAY, PFLUGERVILLE, TX, 78660","Match","Exact","621 BUSLEIGH CASTLE WAY, PFLUGERVILLE, TX, 78660",64112828,"R"
260602,"621 CAPE CORAL PARKWAY EAST SUITE 2","CAPE CORAL","FL",33904,NA,NA,102,"621 CAPE CORAL PARKWAY EAST SUITE 2, CAPE CORAL, FL, 33904","No_Match",NA,NA,NA,NA
260603,"621 CAPITOL MALL SUITE 2500","SACRAMENTO","CA",95814,38.5783141730001,-121.499863523,103,"621 CAPITOL MALL SUITE 2500, SACRAMENTO, CA, 95814","Match","Exact","621 CAPITOL MALL, SACRAMENTO, CA, 95814",133321856,"L"
260604,"621 CARROLL STREET","BROOKLYN","NY",11215,40.67496414,-73.980838611,104,"621 CARROLL STREET, BROOKLYN, NY, 11215","Match","Exact","621 CARROLL ST, BROOKLYN, NY, 11215",59078110,"L"
260605,"621 CELESTE STREET SUITE 100","NEW ORLEANS","LA",70130,29.928219939,-90.068175545,105,"621 CELESTE STREET SUITE 100, NEW ORLEANS, LA, 70130","Match","Exact","621 CELESTE ST, NEW ORLEANS, LA, 70130",191714772,"R"
260606,"621 CENTRAL AVENUE","CONNERSVILLE","IN",47331,39.642466224,-85.138518888,106,"621 CENTRAL AVENUE, CONNERSVILLE, IN, 47331","Match","Non_Exact","621 N CENTRAL AVE, CONNERSVILLE, IN, 47331",606878028,"L"
260607,"621 CLAY ST","CEDAR FALLS","IA",50613,42.532989952,-92.4481291229999,107,"621 CLAY ST, CEDAR FALLS, IA, 50613","Match","Exact","621 CLAY ST, CEDAR FALLS, IA, 50613",77248491,"R"
260608,"621 CLEVELAND STREET","CLEARWATER","FL",33755,27.9656254990001,-82.798260133,108,"621 CLEVELAND STREET, CLEARWATER, FL, 33755","Match","Exact","621 CLEVELAND ST, CLEARWATER, FL, 33755",124747864,"R"
260609,"621 COPPER RIDGE TRL","ANTIOCH","TN",37013,36.0347337170001,-86.6801596459999,109,"621 COPPER RIDGE TRL, ANTIOCH, TN, 37013","Match","Exact","621 COPPER RIDGE TRL, ANTIOCH, TN, 37013",97221704,"L"
260610,"621 CROWN STREET  APT C11","BROOKLYN","NY",11213,40.665587412,-73.9377718809999,110,"621 CROWN STREET  APT C11, BROOKLYN, NY, 11213","Match","Exact","621 CROWN ST, BROOKLYN, NY, 11213",59079808,"L"
260611,"621 D ROCKY LAKE ROAD","COLVILLE","WA",99114,48.494661379,-117.878512605,111,"621 D ROCKY LAKE ROAD, COLVILLE, WA, 99114","Match","Exact","621 ROCKY LAKE RD, COLVILLE, WA, 99114",628068576,"R"
260612,"621 DARROW ROAD","SPRAKERS","NY",12166,42.8223918510001,-74.4755840889999,112,"621 DARROW ROAD, SPRAKERS, NY, 12166","Match","Exact","621 DARROW RD, SPRAKERS, NY, 12166",18619289,"R"
260613,"621 DEL MAR AVENUE","CHULA VISTA","CA",91910,32.630656695,-117.073477508,113,"621 DEL MAR AVENUE, CHULA VISTA, CA, 91910","Match","Exact","621 DEL MAR AVE, CHULA VISTA, CA, 91910",195356342,"L"
260614,"621 DELAWARE ST","NEW CASTLE","DE",19720,39.6622637630001,-75.56706035,114,"621 DELAWARE ST, NEW CASTLE, DE, 19720","Match","Exact","621 DELAWARE ST, NEW CASTLE, DE, 19720",187270639,"R"
260615,"621 DUPRE LANE APT","MOUNT PLEASANT","SC",29464,32.823341306,-79.866722591,115,"621 DUPRE LANE APT, MOUNT PLEASANT, SC, 29464","Match","Exact","621 DUPRE LN, MOUNT PLEASANT, SC, 29464",645479913,"R"
260616,"621 E 45TH PLACE N","TULSA","OK",74106,36.2194771910001,-95.9857906509999,116,"621 E 45TH PLACE N, TULSA, OK, 74106","Match","Exact","621 E 45TH PL N, TULSA, OK, 74106",166435917,"L"
260617,"621 E 4TH STREET","TULSA","OK",74120,36.1546219360001,-95.9843258,117,"621 E 4TH STREET, TULSA, OK, 74120","Match","Exact","621 E 4TH ST, TULSA, OK, 74120",166438067,"L"
260618,"621 E LIBERTY ST","RAPID CITY","SD",57701,44.0511537740001,-103.206638935,118,"621 E LIBERTY ST, RAPID CITY, SD, 57701","Match","Exact","621 E LIBERTY ST, RAPID CITY, SD, 57701",205510340,"R"
260619,"621 E MEHRING WAY APT 809","CINCINNATI","OH",45202,39.095421661,-84.512186754,119,"621 E MEHRING WAY APT 809, CINCINNATI, OH, 45202","Match","Exact","621 MEHRING WAY, CINCINNATI, OH, 45202",647385024,"R"
260620,"621 E ROBINSON AVENUE","GROVETOWN","GA",30813,33.4417168960001,-82.184882583,120,"621 E ROBINSON AVENUE, GROVETOWN, GA, 30813","Match","Exact","621 E ROBINSON AVE, GROVETOWN, GA, 30813",55387184,"R"
260621,"621 E SILVER ST","SULLIVAN","IN",47882,39.084522539,-87.3997302349999,121,"621 E SILVER ST, SULLIVAN, IN, 47882","Match","Exact","621 E SILVER ST, SULLIVAN, IN, 47882",27078816,"L"
260622,"621 EAST 6 STREET","HIALEAH","FL",33010,25.827440413,-80.2689355919999,122,"621 EAST 6 STREET, HIALEAH, FL, 33010","Match","Exact","621 E 6TH ST, HIALEAH, FL, 33010",116000073,"L"
260623,"621 EAST 62ND STREET","KANSAS CITY","MO",64110,39.0144445450001,-94.580378369,123,"621 EAST 62ND STREET, KANSAS CITY, MO, 64110","Match","Exact","621 E 62ND ST, KANSAS CITY, MO, 64110",91448418,"R"
260624,"621 EAST 99TH STREET 6","INGLEWOOD","CA",90301,33.9466807320001,-118.345951559,124,"621 EAST 99TH STREET 6, INGLEWOOD, CA, 90301","Match","Exact","621 E 99TH ST, INGLEWOOD, CA, 90301",141655387,"L"
260625,"621 EAST 99TH STREET UNIT 24","INGLEWOOD","CA",90301,33.9466807320001,-118.345951559,125,"621 EAST 99TH STREET UNIT 24, INGLEWOOD, CA, 90301","Match","Exact","621 E 99TH ST, INGLEWOOD, CA, 90301",141655387,"L"
260626,"621 EAST COLLEGE AVENUE","GREENVILLE","IL",62246,38.8928511080001,-89.405038776,126,"621 EAST COLLEGE AVENUE, GREENVILLE, IL, 62246","Match","Exact","621 E COLLEGE AVE, GREENVILLE, IL, 62246",101037806,"L"
260627,"621 EAST-WEST ROAD","E DUMMERSTON","VT",5346,42.9333619170001,-72.558240804,127,"621 EAST-WEST ROAD, E DUMMERSTON, VT, 5346","Match","Exact","621 EAST-WEST RD, E DUMMERSTON, VT, 05346",171114256,"L"
260628,"621 ED BEEGLES LANE UNIT 7","GREELEY","CO",80631,NA,NA,128,"621 ED BEEGLES LANE UNIT 7, GREELEY, CO, 80631","No_Match",NA,NA,NA,NA
260629,"621 ELBA DRIVE","GOODLETTSVILLE","TN",37072,36.3326954,-86.6905478099999,129,"621 ELBA DRIVE, GOODLETTSVILLE, TN, 37072","Match","Exact","621 ELBA DR, GOODLETTSVILLE, TN, 37072",29792517,"R"
260630,"621 ELM STREET","LUDLOW","KY",41016,39.090076219,-84.555221621,130,"621 ELM STREET, LUDLOW, KY, 41016","Match","Exact","621 ELM ST, LUDLOW, KY, 41016",103883946,"L"
260631,"621 EUCALYPTUS WAY","MILL VALLEY","CA",94941,37.881677541,-122.547169511,131,"621 EUCALYPTUS WAY, MILL VALLEY, CA, 94941","Match","Exact","621 EUCALYPTUS WAY, MILL VALLEY, CA, 94941",192769283,"L"
260632,"621 EUCLID AVE","PAINTSVILLE","KY",41240,37.8148510820001,-82.797132124,132,"621 EUCLID AVE, PAINTSVILLE, KY, 41240","Match","Exact","621 EUCLID AVE, PAINTSVILLE, KY, 41240",33659788,"L"
260633,"621 FLORIDA AVE NW","WASHINGTON","DC",20001,38.915939537,-77.02111242,133,"621 FLORIDA AVE NW, WASHINGTON, DC, 20001","Match","Exact","621 FLORIDA AVE NW, WASHINGTON, DC, 20001",76224407,"R"
260634,"621 FOREMAN STREET","HILLSBOROUGH","NC",27278,NA,NA,134,"621 FOREMAN STREET, HILLSBOROUGH, NC, 27278","No_Match",NA,NA,NA,NA
260635,"621 FRANKLIN STREET","PELLA","IA",50219,41.406695739,-92.915149688,135,"621 FRANKLIN STREET, PELLA, IA, 50219","Match","Exact","621 FRANKLIN ST, PELLA, IA, 50219",89472624,"L"
260636,"621 FREDERICK ROAD","LANSDALE","PA",19446,40.237558612,-75.2664177349999,136,"621 FREDERICK ROAD, LANSDALE, PA, 19446","Match","Exact","621 FREDERICK RD, LANSDALE, PA, 19446",135075282,"L"
260637,"621 GROVESIDE DRIVE","SAN JACINTO","CA",92582,33.7816028760001,-117.023499427,137,"621 GROVESIDE DRIVE, SAN JACINTO, CA, 92582","Match","Exact","621 GROVESIDE DR, SAN JACINTO, CA, 92582",638577116,"R"
260638,"621 HIGH POINT DRIVE SW","CEDAR RAPIDS","IA",52404,41.9663714060001,-91.757459312,138,"621 HIGH POINT DRIVE SW, CEDAR RAPIDS, IA, 52404","Match","Exact","621 HIGH POINT DR SW, CEDAR RAPIDS, IA, 52404",17037099,"L"
260639,"621 HILLCOCK COURT","GRAND HAVEN","MI",49417,NA,NA,139,"621 HILLCOCK COURT, GRAND HAVEN, MI, 49417","No_Match",NA,NA,NA,NA
260640,"621 HONEY LOCUST LN","DARIEN","IL",60561,41.7460866330001,-87.959924739,140,"621 HONEY LOCUST LN, DARIEN, IL, 60561","Match","Exact","621 HONEY LOCUST LN, DARIEN, IL, 60561",112551582,"L"
260641,"621 I ST NE APT B19","AUBURN","WA",98002,NA,NA,141,"621 I ST NE APT B19, AUBURN, WA, 98002","No_Match",NA,NA,NA,NA
260642,"621 IRONWOOD TERRACE","WINTERHAVEN","CA",92283,32.7469448900001,-114.593126039,142,"621 IRONWOOD TERRACE, WINTERHAVEN, CA, 92283","Match","Exact","621 IRONWOOD TER, WINTERHAVEN, CA, 92283",641277963,"L"
260643,"621 JEALOUSE WAY","CEDAR HILL","TX",75104,32.5757370310001,-96.964852208,143,"621 JEALOUSE WAY, CEDAR HILL, TX, 75104","Match","Exact","621 JEALOUSE WAY, CEDAR HILL, TX, 75104",102984672,"R"
260644,"621 JEFFERSON STREET","RED WING","MN",55066,44.5587665630001,-92.550853949,144,"621 JEFFERSON STREET, RED WING, MN, 55066","Match","Exact","621 JEFFERSON ST, RED WING, MN, 55066",31539204,"R"
260645,"621 KALAMATH","DENVER","CO",80210,NA,NA,145,"621 KALAMATH, DENVER, CO, 80210","No_Match",NA,NA,NA,NA
260646,"621 LAKEWOOD DRIVE","LINCOLN","NE",68510,40.8076138750001,-96.618037925,146,"621 LAKEWOOD DRIVE, LINCOLN, NE, 68510","Match","Exact","621 LAKEWOOD DR, LINCOLN, NE, 68510",28259946,"R"
260647,"621 LATIMER WAY","MONROE","NC",28110,35.0031011780001,-80.6396233419999,147,"621 LATIMER WAY, MONROE, NC, 28110","Match","Exact","621 LATIMER WAY, MONROE, NC, 28110",618606385,"R"
260648,"621 LAUREL GLEN TER","FREMONT","CA",94539,37.529945737,-121.926429881,148,"621 LAUREL GLEN TER, FREMONT, CA, 94539","Match","Exact","621 LAUREL GLEN TER, FREMONT, CA, 94539",125044228,"R"
260649,"621 LEFFERTS AVENUE 15F","BROOKLYN","NY",11203,40.662975079,-73.940866769,149,"621 LEFFERTS AVENUE 15F, BROOKLYN, NY, 11203","Match","Exact","621 LEFFERTS AVE, BROOKLYN, NY, 11203",642653715,"L"
260650,"621 LIECHTY CT","HEATH","TX",75032,32.8705113070001,-96.462120488,150,"621 LIECHTY CT, HEATH, TX, 75032","Match","Exact","621 LIECHTY CT, HEATH, TX, 75032",123785289,"L"
260651,"621 LOMA ALTA DR","FLOWER MOUND","TX",75022,32.9932838230001,-97.069457087,151,"621 LOMA ALTA DR, FLOWER MOUND, TX, 75022","Match","Exact","621 LOMA ALTA DR, FLOWER MOUND, TX, 75022",646765425,"R"
260652,"621 MAIN ST","SHREWSBURY","MA",1545,42.296633091,-71.711617285,152,"621 MAIN ST, SHREWSBURY, MA, 1545","Match","Exact","621 MAIN ST, SHREWSBURY, MA, 01545",40013701,"L"
260653,"621 MAIN ST","TELL CITY","IN",47586,37.9496625800001,-86.7697992019999,153,"621 MAIN ST, TELL CITY, IN, 47586","Match","Exact","621 MAIN ST, TELL CITY, IN, 47586",7682568,"L"
260654,"621 MAIN ST","WILBRAHAM","MA",1095,42.1124417180001,-72.4347992249999,154,"621 MAIN ST, WILBRAHAM, MA, 1095","Match","Exact","621 MAIN ST, WILBRAHAM, MA, 01095",649724332,"R"
260655,"621 MAIN STREET","SIMPSON","PA",18407,41.594719744,-75.4843108919999,155,"621 MAIN STREET, SIMPSON, PA, 18407","Match","Exact","621 MAIN ST, SIMPSON, PA, 18407",139331349,"L"
260656,"621 MARKS RD UNIT I","BRUSWICK","OH",44212,41.258118617,-81.878165189,156,"621 MARKS RD UNIT I, BRUSWICK, OH, 44212","Match","Non_Exact","621 MARKS RD, BRUNSWICK, OH, 44212",58688792,"L"
260657,"621 MINER STREET","ANN ARBOR","MI",48103,42.286494238,-83.755668438,157,"621 MINER STREET, ANN ARBOR, MI, 48103","Match","Exact","621 MINER ST, ANN ARBOR, MI, 48103",26014224,"L"
260658,"621 MORICHES ROAD","SAINT JAMES","NY",11780,40.896899454,-73.190924676,158,"621 MORICHES ROAD, SAINT JAMES, NY, 11780","Match","Exact","621 MORICHES RD, SAINT JAMES, NY, 11780",642663454,"L"
260659,"621 MORNING GLORY LANE","MILAN","MI",48160,42.0979504530001,-83.684692119,159,"621 MORNING GLORY LANE, MILAN, MI, 48160","Match","Exact","621 MORNING GLORY LN, MILAN, MI, 48160",26056367,"L"
260660,"621 N 10TH ST STE C","MCALLEN","TX",78501,NA,NA,160,"621 N 10TH ST STE C, MCALLEN, TX, 78501","Tie",NA,NA,NA,NA
260661,"621 N 4TH ST","LA CRESCENT","MN",55947,43.8337093230001,-91.3113087259999,161,"621 N 4TH ST, LA CRESCENT, MN, 55947","Match","Exact","621 N 4TH ST, LA CRESCENT, MN, 55947",648038042,"L"
260662,"621 N CHEROKEE","TAYLORVILLE","IL",62568,39.5552942050001,-89.290450326,162,"621 N CHEROKEE, TAYLORVILLE, IL, 62568","Match","Non_Exact","621 N CHEROKEE ST, TAYLORVILLE, IL, 62568",99308327,"L"
260663,"621 N VINITY RD","SEARCY","AR",72143,35.0912572440001,-91.760975538,163,"621 N VINITY RD, SEARCY, AR, 72143","Match","Exact","621 N VINITY RD, SEARCY, AR, 72143",641123023,"R"
260664,"621 N WISCONSIN ST","MITCHELL","SD",57301,43.7146450110001,-98.032476457,164,"621 N WISCONSIN ST, MITCHELL, SD, 57301","Match","Exact","621 N WISCONSIN ST, MITCHELL, SD, 57301",200658078,"L"
260665,"621 NATCHEZ COURT","HURST","TX",76054,32.8792202660001,-97.174805437,165,"621 NATCHEZ COURT, HURST, TX, 76054","Match","Exact","621 NATCHEZ CT, HURST, TX, 76054",102103910,"R"
260666,"621 NE CUMBERLAND DRIVE","BLUE SPRINGS","MO",64014,39.0508405750001,-94.2540143269999,166,"621 NE CUMBERLAND DRIVE, BLUE SPRINGS, MO, 64014","Match","Exact","621 NE CUMBERLAND DR, BLUE SPRINGS, MO, 64014",91519583,"R"
260667,"621 NEBRASKA ST","LOUISIANA","MO",63353,39.456172037,-91.059241597,167,"621 NEBRASKA ST, LOUISIANA, MO, 63353","Match","Exact","621 NEBRASKA ST, LOUISIANA, MO, 63353",44640225,"R"
260668,"621 NORTH 600 EAST","LOGAN","UT",84321,41.7430487980001,-111.819201678,168,"621 NORTH 600 EAST, LOGAN, UT, 84321","Match","Exact","621 N 600 E, LOGAN, UT, 84321",155101615,"L"
260669,"621 NORTH MADISON","WEBB CITY","MO",64870,37.151758101,-94.4743359509999,169,"621 NORTH MADISON, WEBB CITY, MO, 64870","Match","Non_Exact","621 N MADISON AVE, WEBB CITY, MO, 64870",66147788,"R"
260670,"621 NORTH ROSE DRIVE - UNIT G304","PLACENTIA","CA",92870,33.877157862,-117.843520666,170,"621 NORTH ROSE DRIVE - UNIT G304, PLACENTIA, CA, 92870","Match","Exact","621 N ROSE DR, PLACENTIA, CA, 92870",609051354,"L"
260671,"621 NW 15TH TERRACE","FORT LAUDERDALE","FL",33311,26.1296845150001,-80.162872506,171,"621 NW 15TH TERRACE, FORT LAUDERDALE, FL, 33311","Match","Exact","621 NW 15TH TER, FORT LAUDERDALE, FL, 33311",114721128,"L"
260672,"621 OAK TREE PL","BRONX","NY",10457,40.8511321230001,-73.890200609,172,"621 OAK TREE PL, BRONX, NY, 10457","Match","Exact","621 OAK TREE PL, BRONX, NY, 10457",80309063,"R"
260673,"621 OAKPARK DR","BROWNWOOD","TX",76801,31.6851389820001,-98.955103719,173,"621 OAKPARK DR, BROWNWOOD, TX, 76801","Match","Exact","621 OAKPARK DR, BROWNWOOD, TX, 76801",129461872,"L"
260674,"621 OGRADY DRIVE","CHATTANOOGA","TN",37419,35.0441038070001,-85.3608970619999,174,"621 OGRADY DRIVE, CHATTANOOGA, TN, 37419","Match","Exact","621 OGRADY DR, CHATTANOOGA, TN, 37419",59302284,"L"
260675,"621 OLD SANTA FE TRAIL","SANTA FE","NM",87505,35.6792534470001,-105.937500695,175,"621 OLD SANTA FE TRAIL, SANTA FE, NM, 87505","Match","Exact","621 OLD SANTA FE TRL, SANTA FE, NM, 87505",169378909,"L"
260676,"621 PASEO CANADA ST","SAN ANTONIO","TX",78232,29.6066824380001,-98.49374796,176,"621 PASEO CANADA ST, SAN ANTONIO, TX, 78232","Match","Exact","621 PASEO CANADA ST, SAN ANTONIO, TX, 78232",101494968,"R"
260677,"621 PAWNEE CIR","WOODWARD","OK",73801,36.4402166790001,-99.42804625,177,"621 PAWNEE CIR, WOODWARD, OK, 73801","Match","Exact","621 PAWNEE CIR, WOODWARD, OK, 73801",198735160,"L"
260678,"621 POLONIA COURT","TOLEDO","OH",43607,41.6459604940001,-83.601100665,178,"621 POLONIA COURT, TOLEDO, OH, 43607","Match","Exact","621 POLONIA CT, TOLEDO, OH, 43607",33937605,"L"
260679,"621 PRATTS CHAPEL LANE","KNOXVILLE","TN",37924,36.010392838,-83.788786121,179,"621 PRATTS CHAPEL LANE, KNOXVILLE, TN, 37924","Match","Exact","621 PRATTS CHAPEL LN, KNOXVILLE, TN, 37924",42626689,"R"
260680,"621 REDDICK ST","MELBOURNE","FL",32901,28.0656084930001,-80.610527304,180,"621 REDDICK ST, MELBOURNE, FL, 32901","Match","Exact","621 REDDICK ST, MELBOURNE, FL, 32901",93905401,"R"
260681,"621 REDWOOD DRIVE","GRAND PRAIRIE","TX",75052,32.686323358,-97.0006902539999,181,"621 REDWOOD DRIVE, GRAND PRAIRIE, TX, 75052","Match","Exact","621 REDWOOD DR, GRAND PRAIRIE, TX, 75052",103000167,"R"
260682,"621 RIVER MOSS DRIVE","ST PETERS","MO",63376,38.7878148930001,-90.593786387,182,"621 RIVER MOSS DRIVE, ST PETERS, MO, 63376","Match","Exact","621 RIVER MOSS DR, SAINT PETERS, MO, 63376",605560307,"L"
260683,"621 RUSSELL DRIVE","DAYTONA BEACH","FL",32114,29.1959637080001,-81.029695525,183,"621 RUSSELL DRIVE, DAYTONA BEACH, FL, 32114","Match","Exact","621 RUSSELL DR, DAYTONA BEACH, FL, 32114",94524946,"L"
260684,"621 S 48TH STREET STE 105","TEMPE","AZ",85281,33.423732767,-111.977305288,184,"621 S 48TH STREET STE 105, TEMPE, AZ, 85281","Match","Non_Exact","621 S 48TH ST, TEMPE, AZ, 85281",128224647,"L"
260685,"621 S HENRY AVE","SAN JOSE","CA",95117,37.3156375900001,-121.955689988,185,"621 S HENRY AVE, SAN JOSE, CA, 95117","Match","Exact","621 S HENRY AVE, SAN JOSE, CA, 95117",122903904,"R"
260686,"621 S LEE AVE","OLATHE","KS",66061,38.8761183490001,-94.829774546,186,"621 S LEE AVE, OLATHE, KS, 66061","Match","Exact","621 S LEE AVE, OLATHE, KS, 66061",91282306,"R"
260687,"621 S NEW BALLAS ROAD SUITE 7006B","SAINT LOUIS","MO",63141,38.6677768980001,-90.4385641009999,187,"621 S NEW BALLAS ROAD SUITE 7006B, SAINT LOUIS, MO, 63141","Match","Non_Exact","621 OLD BALLAS RD, SAINT LOUIS, MO, 63141",100125059,"L"
260688,"621 S RANGELINE RD","CARMEL","IN",46032,39.9721174050001,-86.1270023869999,188,"621 S RANGELINE RD, CARMEL, IN, 46032","Match","Non_Exact","621 S RANGE LINE RD, CARMEL, IN, 46032",29294694,"L"
260689,"621 S VIRGIL AVE STE 450","LOS ANGELES","CA",90005,34.06322485,-118.287043308,189,"621 S VIRGIL AVE STE 450, LOS ANGELES, CA, 90005","Match","Non_Exact","621 S VIRGIL AVE, LOS ANGELES, CA, 90005",642861464,"R"
260690,"621 SARAH LAWRENCE COURT","RALEIGH","NC",27609,35.836296567,-78.629687202,190,"621 SARAH LAWRENCE COURT, RALEIGH, NC, 27609","Match","Exact","621 SARAH LAWRENCE CT, RALEIGH, NC, 27609",72595596,"R"
260691,"621 SE 9TH AVE","CAPE CORAL","FL",33990,26.640318968,-81.956411224,191,"621 SE 9TH AVE, CAPE CORAL, FL, 33990","Match","Exact","621 SE 9TH AVE, CAPE CORAL, FL, 33990",118008946,"L"
260692,"621 SOUTH FEDERAL HIGHWAY SUITE 5","FORT LAUDERDALE","FL",33301,26.114683773,-80.1371524429999,192,"621 SOUTH FEDERAL HIGHWAY SUITE 5, FORT LAUDERDALE, FL, 33301","Match","Exact","621 S FEDERAL HWY, FORT LAUDERDALE, FL, 33301",636890666,"R"
260693,"621 SOUTH SPRING ST STE 1206","LOS ANGELES","CA",90014,34.04538932,-118.251499346,193,"621 SOUTH SPRING ST STE 1206, LOS ANGELES, CA, 90014","Match","Exact","621 S SPRING ST, LOS ANGELES, CA, 90014",648177630,"R"
260694,"621 SPENCE ST","STARKE","FL",32091,29.9501482480001,-82.11535509,194,"621 SPENCE ST, STARKE, FL, 32091","Match","Non_Exact","621 W SPENCE ST, STARKE, FL, 32091",6905439,"L"
260695,"621 SR 9 NE PMB D-21","LAKE STEVENS","WA",98258,48.00152209,-122.10608209,195,"621 SR 9 NE PMB D-21, LAKE STEVENS, WA, 98258","Match","Non_Exact","621 STATE RTE 9 NE, LAKE STEVENS, WA, 98258",187772091,"R"
260696,"621 ST CHARLES AVE","NEW ORLEANS","LA",70130,29.9479999800001,-90.0710454269999,196,"621 ST CHARLES AVE, NEW ORLEANS, LA, 70130","Match","Exact","621 SAINT CHARLES AVE, NEW ORLEANS, LA, 70130",191714297,"R"
260697,"621 ST LOUIS STREET","EDWARDSVILLE","IL",62025,38.8109838290001,-89.963039334,197,"621 ST LOUIS STREET, EDWARDSVILLE, IL, 62025","Match","Exact","621 SAINT LOUIS ST, EDWARDSVILLE, IL, 62025",107689733,"R"
260698,"621 STATE STREET","HOOD RIVER","OR",97031,45.7080899440001,-121.516875055,198,"621 STATE STREET, HOOD RIVER, OR, 97031","Match","Exact","621 STATE ST, HOOD RIVER, OR, 97031",158132639,"R"
260699,"621 SUPERIOR AVENUE SUITE B","TOMAH","WI",54660,43.981265863,-90.504763334,199,"621 SUPERIOR AVENUE SUITE B, TOMAH, WI, 54660","Match","Exact","621 SUPERIOR AVE, TOMAH, WI, 54660",51069553,"L"
260700,"621 SW 10TH PLACE","CAPE CORAL","FL",33991,26.6374683970001,-81.9977750739999,200,"621 SW 10TH PLACE, CAPE CORAL, FL, 33991","Match","Exact","621 SW 10TH PL, CAPE CORAL, FL, 33991",118005905,"R"
260701,"621 SW MORRISON STREET - SUITE 1050","PORTLAND","OR",97205,45.5191439500001,-122.678853058,201,"621 SW MORRISON STREET - SUITE 1050, PORTLAND, OR, 97205","Match","Non_Exact","621 SW MORRISON ST, PORTLAND, OR, 97205",157499248,"R"
260702,"621 SW MORRISON STREET SUITE 900","PORTLAND","OR",97205,45.5191439500001,-122.678853058,202,"621 SW MORRISON STREET SUITE 900, PORTLAND, OR, 97205","Match","Non_Exact","621 SW MORRISON ST, PORTLAND, OR, 97205",157499248,"R"
260703,"621 TRAVELLER COURT","LOTHIAN","DC",20711,NA,NA,203,"621 TRAVELLER COURT, LOTHIAN, DC, 20711","No_Match",NA,NA,NA,NA
260704,"621 TULLY ROAD SUITE 224","SAN JOSE","CA",95111,37.308937455,-121.846166948,204,"621 TULLY ROAD SUITE 224, SAN JOSE, CA, 95111","Match","Exact","621 TULLY RD, SAN JOSE, CA, 95111",123015385,"L"
260705,"621 UNIVERSITY DRIVE","WALDORF","MD",20602,38.587670637,-76.91844481,205,"621 UNIVERSITY DRIVE, WALDORF, MD, 20602","Match","Exact","621 UNIVERSITY DR, WALDORF, MD, 20602",25396403,"L"
260706,"621 UTICA ST PO BOX 428","ORISKANY","NY",13424,43.156554149,-75.3314231319999,206,"621 UTICA ST PO BOX 428, ORISKANY, NY, 13424","Match","Exact","621 UTICA ST, ORISKANY, NY, 13424",171526038,"L"
260707,"621 VALLEY MILLS DR","ARLINGTON","TX",76018,32.6474271650001,-97.1030797129999,207,"621 VALLEY MILLS DR, ARLINGTON, TX, 76018","Match","Exact","621 VALLEY MILLS DR, ARLINGTON, TX, 76018",101943528,"L"
260708,"621 VIA ALONDRA STE 611A","CAMARILLO","CA",93012,34.22272918,-119.025422927,208,"621 VIA ALONDRA STE 611A, CAMARILLO, CA, 93012","Match","Exact","621 VIA ALONDRA, CAMARILLO, CA, 93012",110014511,"R"
260709,"621 W 145TH STREET","NEW YORK","NY",10031,40.8265911350001,-73.950833324,209,"621 W 145TH STREET, NEW YORK, NY, 10031","Match","Exact","621 W 145TH ST, NEW YORK, NY, 10031",59655857,"R"
260710,"621 W CHARLES","OELWEIN","IA",50662,42.6782260480001,-91.9236949639999,210,"621 W CHARLES, OELWEIN, IA, 50662","Match","Non_Exact","621 W CHARLES ST, OELWEIN, IA, 50662",108200711,"L"
260711,"621 W CLYBOURN COURT","PEORIA","IL",61614,40.7710321810001,-89.6008392209999,211,"621 W CLYBOURN COURT, PEORIA, IL, 61614","Match","Exact","621 W CLYBOURN CT, PEORIA, IL, 61614",8712393,"R"
260712,"621 W FALLBROOK AVE","FRESNO","CA",93711,36.8495503410001,-119.805368505,212,"621 W FALLBROOK AVE, FRESNO, CA, 93711","Match","Exact","621 W FALLBROOK AVE, FRESNO, CA, 93711",639047249,"L"
260713,"621 W FIRST ST","MOUNTAIN GROVE","MO",65711,37.129309709,-92.2727849199999,213,"621 W FIRST ST, MOUNTAIN GROVE, MO, 65711","Match","Exact","621 W 1ST ST, MOUNTAIN GROVE, MO, 65711",26656139,"R"
260714,"621 W HOUSTON ST APT 1","TYLER","TX",75702,NA,NA,214,"621 W HOUSTON ST APT 1, TYLER, TX, 75702","Tie",NA,NA,NA,NA
260715,"621 W INDIANA AVE APT 15","DELAND","FL",32720,29.028999207,-81.31412861,215,"621 W INDIANA AVE APT 15, DELAND, FL, 32720","Match","Non_Exact","621 W INDIANA AVE, DELAND, FL, 32720",94547046,"R"
260716,"621 W JEFFERSON STREET","BROOKSVILLE","FL",34601,28.555580058,-82.395103976,216,"621 W JEFFERSON STREET, BROOKSVILLE, FL, 34601","Match","Exact","621 W JEFFERSON ST, BROOKSVILLE, FL, 34601",85425869,"L"
260717,"621 W LAWRENCE ST","APPLETON","WI",54911,44.2606951610001,-88.4141358049999,217,"621 W LAWRENCE ST, APPLETON, WI, 54911","Match","Exact","621 W LAWRENCE ST, APPLETON, WI, 54911",74920605,"L"
260718,"621 W RIVERSIDE DR A 296","PARKER","AZ",85344,NA,NA,218,"621 W RIVERSIDE DR A 296, PARKER, AZ, 85344","No_Match",NA,NA,NA,NA
260719,"621 W SKYLINE DR","BLOOMINGTON","IN",47404,39.189306969,-86.5398664799999,219,"621 W SKYLINE DR, BLOOMINGTON, IN, 47404","Match","Exact","621 W SKYLINE DR, BLOOMINGTON, IN, 47404",42321658,"L"
260720,"621 W UNION BOWER ROAD","IRVING","TX",75061,32.821919226,-96.9520486869999,220,"621 W UNION BOWER ROAD, IRVING, TX, 75061","Match","Exact","621 W UNION BOWER RD, IRVING, TX, 75061",103279444,"L"
260721,"621 W172ND ST APT 59","NEW YORK","NY",10032,NA,NA,221,"621 W172ND ST APT 59, NEW YORK, NY, 10032","No_Match",NA,NA,NA,NA
260722,"621 WEST STATE STREET","ALGONA","IA",50511,43.0688026060001,-94.244415278,222,"621 WEST STATE STREET, ALGONA, IA, 50511","Match","Exact","621 W STATE ST, ALGONA, IA, 50511",9838574,"L"
260723,"621 WEST THORNWOOD DRIVE","SOUTH ELGIN","IL",60177,41.978783746,-88.352950732,223,"621 WEST THORNWOOD DRIVE, SOUTH ELGIN, IL, 60177","Match","Exact","621 W THORNWOOD DR, SOUTH ELGIN, IL, 60177",119560775,"R"
260724,"621 WILLOW RIDGE DRIVE","MARIETTA","GA",30068,33.966057214,-84.474090754,224,"621 WILLOW RIDGE DRIVE, MARIETTA, GA, 30068","Match","Exact","621 WILLOW RIDGE DR, MARIETTA, GA, 30068",17182694,"L"
260725,"621 WINDHAVEN DRIVE","HINESVILLE","GA",31313,31.84069551,-81.6183725129999,225,"621 WINDHAVEN DRIVE, HINESVILLE, GA, 31313","Match","Exact","621 WINDHAVEN DR, HINESVILLE, GA, 31313",646423713,"R"
260726,"621-D ROCKY LAKE ROAD","COLVILLE","WA",99114,48.494675133,-117.878632212,226,"621-D ROCKY LAKE ROAD, COLVILLE, WA, 99114","Match","Exact","621 ROCKY LAKE RD, COLVILLE, WA, 99114",628068576,"R"
260727,"6210 14TH STREET","SACRAMENTO","CA",95831,38.5125859360001,-121.507813125,227,"6210 14TH STREET, SACRAMENTO, CA, 95831","Match","Exact","6210 14TH ST, SACRAMENTO, CA, 95831",653168380,"R"
260728,"6210 95TH STREET","LUBBOCK","TX",79424,33.507000148,-101.943563096,228,"6210 95TH STREET, LUBBOCK, TX, 79424","Match","Exact","6210 95TH ST, LUBBOCK, TX, 79424",185273236,"L"
260729,"6210 BEAUMONT AVENUE","ORLANDO","FL",32808,28.5994573890001,-81.465870925,229,"6210 BEAUMONT AVENUE, ORLANDO, FL, 32808","Match","Exact","6210 BEAUMONT AVE, ORLANDO, FL, 32808",94268627,"L"
260730,"6210 BEECHDALE COURT","ROCKVILLE","MD",20855,39.1608044120001,-77.124984312,230,"6210 BEECHDALE COURT, ROCKVILLE, MD, 20855","Match","Exact","6210 BEECHDALE CT, ROCKVILLE, MD, 20855",62070659,"L"
260731,"6210 BELCREST ROAD APT 1233","HYATTSVILLE","MD",20782,38.965034019,-76.953782715,231,"6210 BELCREST ROAD APT 1233, HYATTSVILLE, MD, 20782","Match","Exact","6210 BELCREST RD, HYATTSVILLE, MD, 20782",76388777,"L"
260732,"6210 BENHURST ROAD","BALTIMORE","MD",21209,39.3659913170001,-76.689485729,232,"6210 BENHURST ROAD, BALTIMORE, MD, 21209","Match","Exact","6210 BENHURST RD, BALTIMORE, MD, 21209",206404453,"L"
260733,"6210 BIGELOW DRIVE","RIVERDALE","GA",30296,33.5859126290001,-84.430489719,233,"6210 BIGELOW DRIVE, RIVERDALE, GA, 30296","Match","Exact","6210 BIGELOW DR, RIVERDALE, GA, 30296",23312365,"L"
260734,"6210 BOCA RATON DR","SAN ANTONIO","TX",78244,29.482945989,-98.337503944,234,"6210 BOCA RATON DR, SAN ANTONIO, TX, 78244","Match","Exact","6210 BOCA RATON DR, SAN ANTONIO, TX, 78244",101537537,"L"
260735,"6210 BRISTOL PARKWAY108","CULVER CITY","CA",90230,33.98335753,-118.390982819,235,"6210 BRISTOL PARKWAY108, CULVER CITY, CA, 90230","Match","Non_Exact","6210 BRISTOL PKWY, CULVER CITY, CA, 90230",141579073,"L"
260736,"6210 BROOKS BLVD","MENTOR","OH",44060,41.701993348,-81.365603321,236,"6210 BROOKS BLVD, MENTOR, OH, 44060","Match","Exact","6210 BROOKS BLVD, MENTOR, OH, 44060",604776646,"R"
260737,"6210 CAMPBELL ROAD SUITE 120","DALLAS","TX",75248,32.9798948070001,-96.799368349,237,"6210 CAMPBELL ROAD SUITE 120, DALLAS, TX, 75248","Match","Exact","6210 CAMPBELL RD, DALLAS, TX, 75248",102895998,"R"
260738,"6210 CANDLEVIEW CT","SAN ANTONIO","TX",78244,29.455397104,-98.3663054739999,238,"6210 CANDLEVIEW CT, SAN ANTONIO, TX, 78244","Match","Exact","6210 CANDLEVIEW CT, SAN ANTONIO, TX, 78244",101546110,"R"
260739,"6210 CARMEL DRIVE","PLAINFIELD","IL",60586,41.5653583750001,-88.235544632,239,"6210 CARMEL DRIVE, PLAINFIELD, IL, 60586","Match","Exact","6210 CARMEL DR, PLAINFIELD, IL, 60586",111627170,"R"
260740,"6210 CONSTITUTION DR STE E","FORT WAYNE","IN",46804,41.0679623680001,-85.2214728229999,240,"6210 CONSTITUTION DR STE E, FORT WAYNE, IN, 46804","Match","Exact","6210 CONSTITUTION DR, FORT WAYNE, IN, 46804",6373265,"R"
260741,"6210 DAVIDSON DR","SAND SPRINGS","OK",74063,36.070700232,-96.1584153209999,241,"6210 DAVIDSON DR, SAND SPRINGS, OK, 74063","Match","Exact","6210 DAVIDSON DR, SAND SPRINGS, OK, 74063",165871422,"R"
260742,"6210 E OLD BLACK CANYON HWY","PRESCOTT","AZ",86303,NA,NA,242,"6210 E OLD BLACK CANYON HWY, PRESCOTT, AZ, 86303","Tie",NA,NA,NA,NA
260743,"6210 GEORGIA AVE NW","WASHINGTON","DC",20011,38.965152899,-77.027698153,243,"6210 GEORGIA AVE NW, WASHINGTON, DC, 20011","Match","Exact","6210 GEORGIA AVE NW, WASHINGTON, DC, 20011",76221858,"L"
260744,"6210 HILLMONT DRIVE","OAKLAND","CA",94605,37.7791107200001,-122.174470709,244,"6210 HILLMONT DRIVE, OAKLAND, CA, 94605","Match","Exact","6210 HILLMONT DR, OAKLAND, CA, 94605",125008834,"L"
260745,"6210 JEFFREY ROAD","RICHMOND","VA",23226,37.5854466160001,-77.5173551359999,245,"6210 JEFFREY ROAD, RICHMOND, VA, 23226","Match","Exact","6210 JEFFREY RD, RICHMOND, VA, 23226",106645594,"R"
260746,"6210 JONES BLVD - PO BOX 751811","LAS VEGAS","NV",89130,36.272478388,-115.2249419,246,"6210 JONES BLVD - PO BOX 751811, LAS VEGAS, NV, 89130","Match","Non_Exact","6210 N JONES BLVD, LAS VEGAS, NV, 89130",201961830,"R"
260747,"6210 LANGDON CT","ST LOUIS","MO",63134,38.750067906,-90.3367466019999,247,"6210 LANGDON CT, ST LOUIS, MO, 63134","Match","Exact","6210 LANGDON CT, SAINT LOUIS, MO, 63134",100121237,"R"
260748,"6210 MORITZ COURT","PROSPECT","KY",40059,38.3327330770001,-85.544791416,248,"6210 MORITZ COURT, PROSPECT, KY, 40059","Match","Exact","6210 MORITZ CT, PROSPECT, KY, 40059",130924108,"R"
260749,"6210 N JONES BLVD 750673","LAS VEGAS","NV",89136,NA,NA,249,"6210 N JONES BLVD 750673, LAS VEGAS, NV, 89136","No_Match",NA,NA,NA,NA
260750,"6210 OAKGLEN DRIVE","SUFFOLK","VA",23435,36.8828030120001,-76.417192046,250,"6210 OAKGLEN DRIVE, SUFFOLK, VA, 23435","Match","Exact","6210 OAKGLEN DR, SUFFOLK, VA, 23435",122232542,"R"
260751,"6210 PRESIDIO CANYON DRIVE","KATY","TX",77450,29.7120078900001,-95.731089246,251,"6210 PRESIDIO CANYON DRIVE, KATY, TX, 77450","Match","Exact","6210 PRESIDIO CANYON DR, KATY, TX, 77450",78328848,"R"
260752,"6210 REMINGTON PARK","LITHONIA","GA",30058,33.732480868,-84.135545741,252,"6210 REMINGTON PARK, LITHONIA, GA, 30058","Match","Exact","6210 REMINGTON PARK, LITHONIA, GA, 30058",619387881,"L"
260753,"6210 ROTHWAY ST SUITE 150","HOUSTON","TX",77040,29.860931888,-95.529425712,253,"6210 ROTHWAY ST SUITE 150, HOUSTON, TX, 77040","Match","Exact","6210 ROTHWAY ST, HOUSTON, TX, 77040",96646805,"R"
260754,"6210 SEMINOLE BLVD","SEMINOLE","FL",33772,27.828526722,-82.787031449,254,"6210 SEMINOLE BLVD, SEMINOLE, FL, 33772","Match","Exact","6210 SEMINOLE BLVD, SEMINOLE, FL, 33772",124787442,"L"
260755,"6210 SHORELINE DRIVE","PORT ORANGE","FL",32127,29.0794870490001,-80.996589548,255,"6210 SHORELINE DRIVE, PORT ORANGE, FL, 32127","Match","Exact","6210 SHORELINE DR, PORT ORANGE, FL, 32127",94530514,"L"
260756,"6210 SONGWOOD DR","DALLAS","TX",75241,32.672548217,-96.7992260249999,256,"6210 SONGWOOD DR, DALLAS, TX, 75241","Match","Exact","6210 SONGWOOD DR, DALLAS, TX, 75241",102951890,"L"
260757,"6210 SOUTH KIMBARK AVE UNIT 401","CHICAGO","IL",60637,41.782141756,-87.594686662,257,"6210 SOUTH KIMBARK AVE UNIT 401, CHICAGO, IL, 60637","Match","Exact","6210 S KIMBARK AVE, CHICAGO, IL, 60637",605501792,"R"
260758,"6210 SOUTH KIMBARK","CHICAGO","IL",60637,41.782141756,-87.594686662,258,"6210 SOUTH KIMBARK, CHICAGO, IL, 60637","Match","Non_Exact","6210 S KIMBARK AVE, CHICAGO, IL, 60637",605501792,"R"
260759,"6210 STATE ROUTE 235 N","LEWISTOWN","OH",43333,40.4371310990001,-83.9062891999999,259,"6210 STATE ROUTE 235 N, LEWISTOWN, OH, 43333","Match","Exact","6210 STATE RTE 235 N, LEWISTOWN, OH, 43333",640630741,"R"
260760,"6210 W SHANNON ST","CHANDLER","AZ",85226,33.3182099370001,-111.950260167,260,"6210 W SHANNON ST, CHANDLER, AZ, 85226","Match","Exact","6210 W SHANNON ST, CHANDLER, AZ, 85226",128777696,"L"
260761,"6210 WAKEFIELD AVENUE","CLEVELAND","OH",44102,41.478925427,-81.729047569,261,"6210 WAKEFIELD AVENUE, CLEVELAND, OH, 44102","Match","Exact","6210 WAKEFIELD AVE, CLEVELAND, OH, 44102",61101354,"R"
260762,"6211 APPALOOSA TRAIL","SOUTHWEST RANCHES","FL",33330,26.041765495,-80.317248842,262,"6211 APPALOOSA TRAIL, SOUTHWEST RANCHES, FL, 33330","Match","Exact","6211 APPALOOSA TRL, SOUTHWEST RANCHES, FL, 33330",653167420,"R"
260763,"6211 ARROYO SPRING LANE","FULSHEAR","TX",77441,29.7002647210001,-95.8600166749999,263,"6211 ARROYO SPRING LANE, FULSHEAR, TX, 77441","Match","Exact","6211 ARROYO SPRINGS LN, FULSHEAR, TX, 77441",641060862,"R"
260764,"6211 BORDEAUX CIRCLE","SANFORD","FL",32771,28.7960053830001,-81.3703069429999,264,"6211 BORDEAUX CIRCLE, SANFORD, FL, 32771","Match","Exact","6211 BORDEAUX CIR, SANFORD, FL, 32771",647536425,"R"
260765,"6211 CLUBHOUSE WAY","SWARTZ CREEK","MI",48473,42.95599772,-83.805023019,265,"6211 CLUBHOUSE WAY, SWARTZ CREEK, MI, 48473","Match","Exact","6211 CLUBHOUSE WAY, SWARTZ CREEK, MI, 48473",618336420,"R"
260766,"6211 E SAGUARO VISTA CT","CAVE CREEK","AZ",85331,33.7475174940001,-111.946783116,266,"6211 E SAGUARO VISTA CT, CAVE CREEK, AZ, 85331","Match","Exact","6211 E SAGUARO VISTA CT, CAVE CREEK, AZ, 85331",128184403,"L"
260767,"6211 EASTVIEW AVE SW","CEDAR RAPIDS","IA",52404,41.968698343,-91.7518914029999,267,"6211 EASTVIEW AVE SW, CEDAR RAPIDS, IA, 52404","Match","Exact","6211 EASTVIEW AVE SW, CEDAR RAPIDS, IA, 52404",17017826,"L"
260768,"6211 ELM AVENUE","PINSON","AL",35126,33.6819609230001,-86.688530525,268,"6211 ELM AVENUE, PINSON, AL, 35126","Match","Exact","6211 ELM AVE, PINSON, AL, 35126",81734169,"R"
260769,"6211 GREENBRIER DRIVE","HUNTINGTON BEACH","CA",92648,33.6788995310001,-118.022956249,269,"6211 GREENBRIER DRIVE, HUNTINGTON BEACH, CA, 92648","Match","Exact","6211 GREENBRIER DR, HUNTINGTON BEACH, CA, 92648",144077973,"L"
260770,"6211 JOHNSTON RD ESSEX HOUSE APT 8","ALBANY","NY",12203,42.6846165000001,-73.8690379669999,270,"6211 JOHNSTON RD ESSEX HOUSE APT 8, ALBANY, NY, 12203","Match","Exact","6211 JOHNSTON RD, ALBANY, NY, 12203",18328862,"R"
260771,"6211 LOGAN CREEK LANE","SUGARLAND","TX",77479,29.550031608,-95.61217598,271,"6211 LOGAN CREEK LANE, SUGARLAND, TX, 77479","Match","Non_Exact","6211 LOGAN CREEK LN, SUGAR LAND, TX, 77479",642934700,"L"
260772,"6211 OLD GLORY LANE","RIXEYVILLE","VA",22151,38.6162747860001,-77.980030598,272,"6211 OLD GLORY LANE, RIXEYVILLE, VA, 22151","Match","Non_Exact","6211 OLD GLORY LN, RIXEYVILLE, VA, 22737",29846341,"R"
260773,"6211 POINTE TREMBE ROAD   PO BOX 71","ALGONAC","MI",48001,42.6279068810001,-82.603938743,273,"6211 POINTE TREMBE ROAD   PO BOX 71, ALGONAC, MI, 48001","Match","Non_Exact","6211 POINTE TREMBLE RD, ALGONAC, MI, 48001",110976874,"L"
260774,"6211 QUENTIN CANYON CT","KATY","TX",77450,29.7109932590001,-95.732872081,274,"6211 QUENTIN CANYON CT, KATY, TX, 77450","Match","Exact","6211 QUENTIN CANYON CT, KATY, TX, 77450",78324832,"L"
260775,"6211 S CANDICE ANNE DR","TUCSON","AZ",85746,32.1389511450001,-111.001076658,275,"6211 S CANDICE ANNE DR, TUCSON, AZ, 85746","Match","Exact","6211 S CANDICE ANNE DR, TUCSON, AZ, 85746",121407578,"L"
260776,"6211 SANTIAGO MOUNTAIN COURT","KATY","TX",77450,29.7122387470001,-95.737621952,276,"6211 SANTIAGO MOUNTAIN COURT, KATY, TX, 77450","Match","Exact","6211 SANTIAGO MOUNTAIN CT, KATY, TX, 77450",78324757,"R"
260777,"6211 SIERRA AVE STE 1341","FONTANA","CA",92336,34.138076185,-117.436076143,277,"6211 SIERRA AVE STE 1341, FONTANA, CA, 92336","Match","Exact","6211 SIERRA AVE, FONTANA, CA, 92336",614861494,"L"
260778,"6211 UNDERWOOD AVE","CHARLOTTE","NC",28213,35.3043368290001,-80.6801512219999,278,"6211 UNDERWOOD AVE, CHARLOTTE, NC, 28213","Match","Exact","6211 UNDERWOOD AVE, CHARLOTTE, NC, 28213",70562800,"R"
260779,"6211 VIEW CREST DRIVE","OAKLAND","CA",94619,37.782978627,-122.166407239,279,"6211 VIEW CREST DRIVE, OAKLAND, CA, 94619","Match","Exact","6211 VIEW CREST DR, OAKLAND, CA, 94619",125008869,"R"
260780,"6211 W 64TH TER","MISSION","KS",66202,39.0121087300001,-94.657510917,280,"6211 W 64TH TER, MISSION, KS, 66202","Match","Exact","6211 W 64TH TER, MISSION, KS, 66202",91277826,"L"
260781,"6211 W DOUGLAS LANE SUITE 202","BOISE","ID",83704,43.605885673,-116.258864586,281,"6211 W DOUGLAS LANE SUITE 202, BOISE, ID, 83704","Match","Non_Exact","6211 W DOUGLAS LN, BOISE, ID, 83704",117934975,"L"
260782,"6211 W NORTHWEST HWY SUITE C120","DALLAS","TX",75225,NA,NA,282,"6211 W NORTHWEST HWY SUITE C120, DALLAS, TX, 75225","No_Match",NA,NA,NA,NA
260783,"6211 W WILLOW HWY","LANSING","MI",48917,42.755496362,-84.637731486,283,"6211 W WILLOW HWY, LANSING, MI, 48917","Match","Exact","6211 W WILLOW HWY, LANSING, MI, 48917",638720483,"L"
260784,"6211 WEST NORTHWEST HIGHWAY S 707","DALLAS","TX",75225,NA,NA,284,"6211 WEST NORTHWEST HIGHWAY S 707, DALLAS, TX, 75225","No_Match",NA,NA,NA,NA
260785,"6211 WESTERHOFF AVE","ST LOUIS","MO",63121,38.69756812,-90.2731269509999,285,"6211 WESTERHOFF AVE, ST LOUIS, MO, 63121","Match","Exact","6211 WESTERHOFF AVE, SAINT LOUIS, MO, 63121",100152897,"L"
260786,"6211 WIMBLEDON DRIVE","NORTH CHESTERFIELD","VA",23224,37.4692164520001,-77.510540904,286,"6211 WIMBLEDON DRIVE, NORTH CHESTERFIELD, VA, 23224","Match","Exact","6211 WIMBLEDON DR, NORTH CHESTERFIELD, VA, 23224",201544884,"L"
260787,"6212 3RD ST NW","WASHINGTON","DC",20011,38.9651686810001,-77.016171127,287,"6212 3RD ST NW, WASHINGTON, DC, 20011","Match","Exact","6212 3RD ST NW, WASHINGTON, DC, 20011",76222067,"L"
260788,"6212 3RD STREET NW","WASHINGTON","DC",20011,38.9651686810001,-77.016171127,288,"6212 3RD STREET NW, WASHINGTON, DC, 20011","Match","Exact","6212 3RD ST NW, WASHINGTON, DC, 20011",76222067,"L"
260789,"6212 ABERDEEN AVE","GOLETA","CA",93117,34.4416831250001,-119.839273497,289,"6212 ABERDEEN AVE, GOLETA, CA, 93117","Match","Exact","6212 ABERDEEN AVE, GOLETA, CA, 93117",108601091,"R"
260790,"6212 ALFALFA LANE","WAKE FOREST","NC",27587,35.948494125,-78.466452331,290,"6212 ALFALFA LANE, WAKE FOREST, NC, 27587","Match","Exact","6212 ALFALFA LN, WAKE FOREST, NC, 27587",639438839,"R"
260791,"6212 BLAYNEY DRIVE","KILLEEN","TX",76549,31.0766049850001,-97.798532377,291,"6212 BLAYNEY DRIVE, KILLEEN, TX, 76549","Match","Exact","6212 BLAYNEY DR, KILLEEN, TX, 76549",146233430,"L"
260792,"6212 CHINABERRY DRIVE","ORLANDO","FL",32808,28.5979704480001,-81.466878002,292,"6212 CHINABERRY DRIVE, ORLANDO, FL, 32808","Match","Exact","6212 CHINABERRY DR, ORLANDO, FL, 32808",94268613,"L"
260793,"6212 CROW LANE APT 324","AUSTIN","TX",78745,30.1973380270001,-97.7709359039999,293,"6212 CROW LANE APT 324, AUSTIN, TX, 78745","Match","Exact","6212 CROW LN, AUSTIN, TX, 78745",650114736,"L"
260794,"6212 E 110TH ST","KANSAS CITY","MO",64134,38.9254706240001,-94.518078203,294,"6212 E 110TH ST, KANSAS CITY, MO, 64134","Match","Exact","6212 E 110TH ST, KANSAS CITY, MO, 64134",91458382,"L"
260795,"6212 FM 933","BLUM","TX",76627,32.0730545340001,-97.375086335,295,"6212 FM 933, BLUM, TX, 76627","Match","Exact","6212 FM 933, BLUM, TX, 76627",160514970,"R"
260796,"6212 HARDGATE STREET","LAS VEGAS","NV",89031,36.273308382,-115.139997085,296,"6212 HARDGATE STREET, LAS VEGAS, NV, 89031","Match","Non_Exact","6212 N HARDGATE ST, N LAS VEGAS, NV, 89031",624312874,"R"
260797,"6212 LAKE RD","MARIBEL","WI",54227,44.2871418010001,-87.7354269149999,297,"6212 LAKE RD, MARIBEL, WI, 54227","Match","Exact","6212 LAKE RD, MARIBEL, WI, 54227",147968790,"R"
260798,"6212 MONTE CRISTO LANE","PLANO","TX",75024,33.0591778,-96.817107671,298,"6212 MONTE CRISTO LANE, PLANO, TX, 75024","Match","Exact","6212 MONTE CRISTO LN, PLANO, TX, 75024",642947158,"R"
260799,"6212 NW 54 DRIVE","CORAL SPRINGS","FL",33067,26.2961466410001,-80.214223239,299,"6212 NW 54 DRIVE, CORAL SPRINGS, FL, 33067","Match","Exact","6212 NW 54TH DR, CORAL SPRINGS, FL, 33067",114773045,"L"
260800,"6212 PILGRIM RD","BALTIMORE","MD",21214,39.3619610330001,-76.569979592,300,"6212 PILGRIM RD, BALTIMORE, MD, 21214","Match","Exact","6212 PILGRIM RD, BALTIMORE, MD, 21214",206448904,"L"
260801,"6212 SHAKESPEARE ROAD","COLUMBIA","SC",29223,34.059307129,-80.973513462,301,"6212 SHAKESPEARE ROAD, COLUMBIA, SC, 29223","Match","Exact","6212 SHAKESPEARE RD, COLUMBIA, SC, 29223",71823156,"R"
260802,"6212 SOUTH 66TH STREET","FORT SMITH","AR",72903,35.3225894490001,-94.3607268229999,302,"6212 SOUTH 66TH STREET, FORT SMITH, AR, 72903","Match","Exact","6212 S 66TH ST, FORT SMITH, AR, 72903",56106074,"R"
260803,"6212 SOUTH SANGAMON","CHICAGO","IL",60621,41.781346566,-87.6484687449999,303,"6212 SOUTH SANGAMON, CHICAGO, IL, 60621","Match","Non_Exact","6212 S SANGAMON ST, CHICAGO, IL, 60621",111830000,"R"
260804,"6212 TIMBERWOLFE DR","GLEN CARBON","IL",62034,38.7699458920001,-89.977625518,304,"6212 TIMBERWOLFE DR, GLEN CARBON, IL, 62034","Match","Exact","6212 TIMBERWOLFE DR, GLEN CARBON, IL, 62034",107763822,"R"
260805,"6212 WINGHAVEN POINTE DRIVE","OFALLON","MO",63368,38.739792417,-90.740982106,305,"6212 WINGHAVEN POINTE DRIVE, OFALLON, MO, 63368","Match","Non_Exact","6212 WINGHAVEN POINTE DR, O FALLON, MO, 63368",651356236,"L"
260806,"621238","OVIEDO","FL",32762,NA,NA,306,"621238, OVIEDO, FL, 32762","No_Match",NA,NA,NA,NA
260807,"62126 FRIENDSHIP CHURCH RD","AMITE","LA",70422,30.7536166470001,-90.363066154,307,"62126 FRIENDSHIP CHURCH RD, AMITE, LA, 70422","Match","Exact","62126 FRIENDSHIP CHURCH RD, AMITE, LA, 70422",75746836,"R"
260808,"6213 CLEVELAND BLVD","CALDWELL","ID",83607,43.6253715820001,-116.632131545,308,"6213 CLEVELAND BLVD, CALDWELL, ID, 83607","Match","Exact","6213 CLEVELAND BLVD, CALDWELL, ID, 83607",122840689,"L"
260809,"6213 CLOVERLY AVE","TEMPLE CITY","CA",91780,34.1112677470001,-118.065021599,309,"6213 CLOVERLY AVE, TEMPLE CITY, CA, 91780","Match","Exact","6213 CLOVERLY AVE, TEMPLE CITY, CA, 91780",141644474,"L"
260810,"6213 EASTERN AVE","BALTIMORE","MD",21224,39.287529856,-76.542199716,310,"6213 EASTERN AVE, BALTIMORE, MD, 21224","Match","Exact","6213 EASTERN AVE, BALTIMORE, MD, 21224",640556030,"R"
260811,"6213 LAKE ATHABASKA PLACE","SAN DIEGO","CA",92119,32.7923367710001,-117.009784373,311,"6213 LAKE ATHABASKA PLACE, SAN DIEGO, CA, 92119","Match","Exact","6213 LAKE ATHABASKA PL, SAN DIEGO, CA, 92119",195326174,"R"
260812,"6213 MAZWOOD RD","ROCKVILLE","MD",20852,39.0339438290001,-77.130883465,312,"6213 MAZWOOD RD, ROCKVILLE, MD, 20852","Match","Exact","6213 MAZWOOD RD, ROCKVILLE, MD, 20852",62056492,"R"
260813,"6213 SANDERS DRIVE","TAMPA","FL",33611,27.8779866690001,-82.4894793029999,313,"6213 SANDERS DRIVE, TAMPA, FL, 33611","Match","Exact","6213 SANDERS DR, TAMPA, FL, 33611",104529355,"R"
260814,"6213 SHADY SIDE RD","SHADY SIDE","MD",20764,38.834090105,-76.513689732,314,"6213 SHADY SIDE RD, SHADY SIDE, MD, 20764","Match","Exact","6213 SHADY SIDE RD, SHADY SIDE, MD, 20764",68178327,"R"
260815,"6213 SMITHWICK DR","MCKINNEY","TX",75070,33.142385118,-96.7146434379999,315,"6213 SMITHWICK DR, MCKINNEY, TX, 75070","Match","Exact","6213 SMITHWICK DR, MCKINNEY, TX, 75070",650326512,"L"
260816,"6213 STONEY CREEK DR","PASADENA","TX",77503,29.67380294,-95.142440294,316,"6213 STONEY CREEK DR, PASADENA, TX, 77503","Match","Exact","6213 STONEY CREEK DR, PASADENA, TX, 77503",619059176,"L"
260817,"6213 W 138TH STREET","OVERLAND PARK","KS",66223,38.87865227,-94.655524773,317,"6213 W 138TH STREET, OVERLAND PARK, KS, 66223","Match","Exact","6213 W 138TH ST, OVERLAND PARK, KS, 66223",91347972,"L"
260818,"6213 W WABANSIA AVE APT 1","CHICAGO","IL",60639,41.9110099220001,-87.780771793,318,"6213 W WABANSIA AVE APT 1, CHICAGO, IL, 60639","Match","Non_Exact","6213 W WABANSIA AVE, CHICAGO, IL, 60639",605053650,"L"
260819,"62139","JACKSONVILLE","FL",32208,NA,NA,319,"62139, JACKSONVILLE, FL, 32208","No_Match",NA,NA,NA,NA
260820,"6214 AUDRAIN RD 165","STRUGEON","MO",65284,39.256164556,-92.272853421,320,"6214 AUDRAIN RD 165, STRUGEON, MO, 65284","Match","Non_Exact","6214 AUDRAIN RD 165, STURGEON, MO, 65284",648001544,"R"
260821,"6214 BALTUSROL TRACE","FAIRBURN","GA",30213,33.6086230340001,-84.5948158589999,321,"6214 BALTUSROL TRACE, FAIRBURN, GA, 30213","Match","Exact","6214 BALTUSROL TRCE, FAIRBURN, GA, 30213",627596543,"L"
260822,"6214 CAMDEN CIRCLE","CRESTWOOD","KY",40014,38.345610257,-85.474080853,322,"6214 CAMDEN CIRCLE, CRESTWOOD, KY, 40014","Match","Exact","6214 CAMDEN CIR, CRESTWOOD, KY, 40014",130921934,"L"
260823,"6214 CHANCEL GATE DRIVE","DELAWARE","OH",43015,40.2190450940001,-83.1269777529999,323,"6214 CHANCEL GATE DRIVE, DELAWARE, OH, 43015","Match","Exact","6214 CHANCEL GATE DR, DELAWARE, OH, 43015",24593983,"L"
260824,"6214 CHESTNUT OAK LANE","LINTHICUM","MD",21090,39.207269051,-76.658087713,324,"6214 CHESTNUT OAK LANE, LINTHICUM, MD, 21090","Match","Exact","6214 CHESTNUT OAK LN, LINTHICUM, MD, 21090",68189840,"R"
260825,"6214 CREEKSIDE DR","MTN GREEN","UT",84050,41.146176165,-111.816144461,325,"6214 CREEKSIDE DR, MTN GREEN, UT, 84050","Match","Exact","6214 CREEKSIDE DR, MOUNTAIN GREEN, UT, 84050",649998119,"R"
260826,"6214 N  49TH ST","OMAHA","NE",68104,41.315054903,-95.987787716,326,"6214 N  49TH ST, OMAHA, NE, 68104","Match","Exact","6214 N 49TH ST, OMAHA, NE, 68104",116977936,"L"
260827,"6214 NE 4TH CIRCLE","RENTON","WA",98059,47.48890479,-122.136071391,327,"6214 NE 4TH CIRCLE, RENTON, WA, 98059","Match","Exact","6214 NE 4TH CIR, RENTON, WA, 98059",627331773,"L"
260828,"6214 OLD KEENE MILL CT","SPRINGFIELD","VA",22152,38.778682125,-77.237189907,328,"6214 OLD KEENE MILL CT, SPRINGFIELD, VA, 22152","Match","Exact","6214 OLD KEENE MILL CT, SPRINGFIELD, VA, 22152",76023660,"R"
260829,"6214 PARK LANE","DALLAS","TX",75225,32.8734236220001,-96.798530839,329,"6214 PARK LANE, DALLAS, TX, 75225","Match","Exact","6214 PARK LN, DALLAS, TX, 75225",102901765,"R"
260830,"6214 S TALMAN","CHICAGO","IL",60629,41.780723332,-87.689787401,330,"6214 S TALMAN, CHICAGO, IL, 60629","Match","Non_Exact","6214 S TALMAN AVE, CHICAGO, IL, 60629",605308345,"R"
260831,"6214 SCHROEDER ROAD APT 114","MADISON","WI",53711,43.046317453,-89.486947265,331,"6214 SCHROEDER ROAD APT 114, MADISON, WI, 53711","Match","Exact","6214 SCHROEDER RD, MADISON, WI, 53711",49467489,"R"
260832,"6214 SOUTHRIDGE TERRACE","HARRISBURG","PA",17111,40.2731490630001,-76.780648366,332,"6214 SOUTHRIDGE TERRACE, HARRISBURG, PA, 17111","Match","Exact","6214 SOUTHRIDGE TER, HARRISBURG, PA, 17111",70837300,"R"
260833,"6214 TARGON COURT","FORT WASHINGTON","MD",20744,38.804000339,-76.9743968449999,333,"6214 TARGON COURT, FORT WASHINGTON, MD, 20744","Match","Exact","6214 TARGON CT, FT WASHINGTON, MD, 20744",76315454,"L"
260834,"6215 BENNETT LAKE RD","FENTON","MI",48430,42.7708031170001,-83.8371473189999,334,"6215 BENNETT LAKE RD, FENTON, MI, 48430","Match","Exact","6215 BENNETT LAKE RD, FENTON, MI, 48430",652797860,"L"
260835,"6215 BUNKER COMMONS COURT","LAS VEGAS","NV",89108,36.2106887480001,-115.229426852,335,"6215 BUNKER COMMONS COURT, LAS VEGAS, NV, 89108","Match","Non_Exact","6215 W BUNKER COMMONS CT, LAS VEGAS, NV, 89108",624760938,"L"
260836,"6215 DEER HOLLOW COURT","ST LOUIS","MO",63129,38.4529599890001,-90.2954037809999,336,"6215 DEER HOLLOW COURT, ST LOUIS, MO, 63129","Match","Exact","6215 DEER HOLLOW CT, SAINT LOUIS, MO, 63129",100183175,"R"
260837,"6215 FAIRFIELD AVENUE","SHREVEPORT","LA",71106,32.449124333,-93.750245137,337,"6215 FAIRFIELD AVENUE, SHREVEPORT, LA, 71106","Match","Exact","6215 FAIRFIELD AVE, SHREVEPORT, LA, 71106",57440009,"L"
260838,"6215 FRANKLIN AVENUE","NEW ORLEANS","LA",70122,30.0228726780001,-90.051781729,338,"6215 FRANKLIN AVENUE, NEW ORLEANS, LA, 70122","Match","Exact","6215 FRANKLIN AVE, NEW ORLEANS, LA, 70122",191751582,"R"
260839,"6215 GLEN MANOR DRIVE","CHARLOTTE","NC",28269,35.3770250580001,-80.7760144659999,339,"6215 GLEN MANOR DRIVE, CHARLOTTE, NC, 28269","Match","Exact","6215 GLEN MANOR DR, CHARLOTTE, NC, 28269",70519374,"R"
260840,"6215 GONDOLA DR","RIVERVIEW","FL",33578,27.8857527210001,-82.336586311,340,"6215 GONDOLA DR, RIVERVIEW, FL, 33578","Match","Exact","6215 GONDOLA DR, RIVERVIEW, FL, 33578",104641205,"L"
260841,"6215 GREENBELT RD 206B","BERWYN HEIGHTS","MD",20740,38.9969567300001,-76.906648709,341,"6215 GREENBELT RD 206B, BERWYN HEIGHTS, MD, 20740","Match","Exact","6215 GREENBELT RD, BERWYN HEIGHTS, MD, 20740",76305507,"R"
260842,"6215 HEATHER GLEN WAY","CLARKSVILLE","MD",21029,39.203883207,-76.949407919,342,"6215 HEATHER GLEN WAY, CLARKSVILLE, MD, 21029","Match","Exact","6215 HEATHER GLEN WAY, CLARKSVILLE, MD, 21029",617728922,"L"
260843,"6215 HWY 278 NW UNIT 113","COVINGTON","GA",30014,NA,NA,343,"6215 HWY 278 NW UNIT 113, COVINGTON, GA, 30014","No_Match",NA,NA,NA,NA
260844,"6215 JEFFREY DR","LOUISVILLE","KY",40258,38.1636170250001,-85.867092456,344,"6215 JEFFREY DR, LOUISVILLE, KY, 40258","Match","Exact","6215 JEFFREY DR, LOUISVILLE, KY, 40258",643883562,"R"
260845,"6215 LAVELL COURT","SPRINGFIELD","VA",22152,38.783353434,-77.2095185429999,345,"6215 LAVELL COURT, SPRINGFIELD, VA, 22152","Match","Exact","6215 LAVELL CT, SPRINGFIELD, VA, 22152",75976582,"L"
260846,"6215 NOVATO DR","HOUSTON","TX",77053,29.5891000510001,-95.477447569,346,"6215 NOVATO DR, HOUSTON, TX, 77053","Match","Exact","6215 NOVATO DR, HOUSTON, TX, 77053",78298777,"R"
260847,"6215 NOVATO DRIVE","HOUSTON","TX",77053,29.5891000510001,-95.477447569,347,"6215 NOVATO DRIVE, HOUSTON, TX, 77053","Match","Exact","6215 NOVATO DR, HOUSTON, TX, 77053",78298777,"R"
260848,"6215 OPAL LN","GRAND BLANC","MI",48439,42.939903799,-83.5894312199999,348,"6215 OPAL LN, GRAND BLANC, MI, 48439","Match","Exact","6215 OPAL LN, GRAND BLANC, MI, 48439",617492427,"R"
260849,"6215 PANTHER COURT","WALDORF","MD",20603,38.623642481,-76.950976821,349,"6215 PANTHER COURT, WALDORF, MD, 20603","Match","Exact","6215 PANTHER CT, WALDORF, MD, 20603",25384738,"R"
260850,"6215 REGENCY PKWY NW STE 950","NORCROSS","GA",30071,33.9263456730001,-84.222518346,350,"6215 REGENCY PKWY NW STE 950, NORCROSS, GA, 30071","Match","Non_Exact","6215 REGENCY PKWY, NORCROSS, GA, 30071",638203135,"R"
260851,"6215 SHADY BROOKS LANE","LITTLE ROCK","AR",72204,NA,NA,351,"6215 SHADY BROOKS LANE, LITTLE ROCK, AR, 72204","No_Match",NA,NA,NA,NA
260852,"6215 SW 35TH WAY","GAINESVILLE","FL",32608,29.592431902,-82.373044981,352,"6215 SW 35TH WAY, GAINESVILLE, FL, 32608","Match","Exact","6215 SW 35TH WAY, GAINESVILLE, FL, 32608",6807135,"L"
260853,"6215 SW PAMELA ST PORTLAND","PORTLAND","OR",97219,45.4267029960001,-122.740072506,353,"6215 SW PAMELA ST PORTLAND, PORTLAND, OR, 97219","Match","Non_Exact","6215 SW PAMELA ST, PORTLAND, OR, 97219",650923513,"R"
260854,"6215 TRANSIT ROAD","EAST AMHERST","NY",14051,43.016759893,-78.696942096,354,"6215 TRANSIT ROAD, EAST AMHERST, NY, 14051","Match","Exact","6215 TRANSIT RD, EAST AMHERST, NY, 14051",48285705,"R"
260855,"6215 W PINEDALE CIR","CRYSTAL RIVER","FL",34429,28.8755674070001,-82.5375878729999,355,"6215 W PINEDALE CIR, CRYSTAL RIVER, FL, 34429","Match","Exact","6215 W PINEDALE CIR, CRYSTAL RIVER, FL, 34429",86224474,"R"
260856,"62150 EAST 80 ROAD","MIAMI","OK",74354,36.9001678290001,-94.768107019,356,"62150 EAST 80 ROAD, MIAMI, OK, 74354","Match","Exact","62150 E 80 RD, MIAMI, OK, 74354",612010989,"L"
260857,"6216 A ST","TACOMA","WA",98408,47.2005105760001,-122.431324245,357,"6216 A ST, TACOMA, WA, 98408","Match","Exact","6216 A ST, TACOMA, WA, 98408",652986591,"R"
260858,"6216 APPLE STREET","SUFFOLK","VA",23435,36.875593645,-76.412690896,358,"6216 APPLE STREET, SUFFOLK, VA, 23435","Match","Exact","6216 APPLE ST, SUFFOLK, VA, 23435",645575136,"R"
260859,"6216 EAST PACIFIC COAST HIGHWAY","LONG BEACH","CA",90803,33.7660999610001,-118.116438055,359,"6216 EAST PACIFIC COAST HIGHWAY, LONG BEACH, CA, 90803","Match","Exact","6216 E PACIFIC COAST HWY, LONG BEACH, CA, 90803",141755338,"R"
260860,"6216 GRAND BOULEVARD","NEW PORT RICHEY","FL",34652,28.249071187,-82.719574025,360,"6216 GRAND BOULEVARD, NEW PORT RICHEY, FL, 34652","Match","Exact","6216 GRAND BLVD, NEW PORT RICHEY, FL, 34652",86403125,"R"
260861,"6216 HIGHLAND PLACE WAY SUITE 102","KNOXVILLE","TN",37919,35.934112989,-84.004646765,361,"6216 HIGHLAND PLACE WAY SUITE 102, KNOXVILLE, TN, 37919","Match","Exact","6216 HIGHLAND PLACE WAY, KNOXVILLE, TN, 37919",604624991,"L"
260862,"6216 LEDGEWOOD PKWY APT 3","LOUISVILLE","KY",40214,38.1613663530001,-85.79931541,362,"6216 LEDGEWOOD PKWY APT 3, LOUISVILLE, KY, 40214","Match","Exact","6216 LEDGEWOOD PKWY, LOUISVILLE, KY, 40214",96848317,"R"
260863,"6216 PERIMETER DR","CHATTANOOGA","TN",37421,35.0293495270001,-85.184104783,363,"6216 PERIMETER DR, CHATTANOOGA, TN, 37421","Match","Exact","6216 PERIMETER DR, CHATTANOOGA, TN, 37421",605445610,"R"
260864,"6216 RANSOM ROAD","BIRMINGHANM","AL",35210,33.5852663490001,-86.6199743879999,364,"6216 RANSOM ROAD, BIRMINGHANM, AL, 35210","Match","Non_Exact","6216 RANSOM RD, BIRMINGHAM, AL, 35210",81589602,"R"
260865,"6216 S 238TH ST APT N301","KENT","WA",98032,47.3890909290001,-122.256087873,365,"6216 S 238TH ST APT N301, KENT, WA, 98032","Match","Non_Exact","6216 S 238TH ST, KENT, WA, 98032",186715815,"L"
260866,"6216 S LEWIS AVE SUITE 180","TULSA","OK",74136,36.0732819090001,-95.957981025,366,"6216 S LEWIS AVE SUITE 180, TULSA, OK, 74136","Match","Non_Exact","6216 S LEWIS AVE, TULSA, OK, 74136",611253486,"R"
260867,"6216 S NASHVILLE AVE","CHICAGO","IL",60638,41.7791346500001,-87.786211483,367,"6216 S NASHVILLE AVE, CHICAGO, IL, 60638","Match","Exact","6216 S NASHVILLE AVE, CHICAGO, IL, 60638",605302201,"R"
260868,"6216 SANDALWOOD DR","BILLINGS","MT",59106,45.8159476760001,-108.674593683,368,"6216 SANDALWOOD DR, BILLINGS, MT, 59106","Match","Non_Exact","6216 SANDALWOOD, BILLINGS, MT, 59106",181504725,"R"
260869,"6216 TRAIL BOULEVARD","NAPLES","FL",34108,26.2144266010001,-81.800153084,369,"6216 TRAIL BOULEVARD, NAPLES, FL, 34108","Match","Exact","6216 TRAIL BLVD, NAPLES, FL, 34108",115229725,"R"
260870,"6216 W SKAGIT CT","SPOKANE","WA",99208,47.7545255270001,-117.497965107,370,"6216 W SKAGIT CT, SPOKANE, WA, 99208","Match","Exact","6216 W SKAGIT CT, SPOKANE, WA, 99208",189904173,"L"
260871,"6216 W STATE STREET STE 308","BOISE","ID",83703,43.660421189,-116.266424976,371,"6216 W STATE STREET STE 308, BOISE, ID, 83703","Match","Non_Exact","6216 W STATE ST, BOISE, ID, 83703",652697905,"R"
260872,"6217 16TH STREET SOUTH","FARGO","ND",58104,46.791755998,-96.808018733,372,"6217 16TH STREET SOUTH, FARGO, ND, 58104","Match","Exact","6217 16TH ST S, FARGO, ND, 58104",151463069,"L"
260873,"6217 196TH ST SE","SNOHOMISH","WA",98296,47.81954597,-122.149396163,373,"6217 196TH ST SE, SNOHOMISH, WA, 98296","Match","Exact","6217 196TH ST SE, SNOHOMISH, WA, 98296",187764710,"L"
260874,"6217 BEECHMONT BLVD","ORLANDO","FL",32818,28.591441037,-81.466508366,374,"6217 BEECHMONT BLVD, ORLANDO, FL, 32818","Match","Non_Exact","6217 BEECHMONT BLVD, ORLANDO, FL, 32808",94268873,"R"
260875,"6217 BLOOMINGTON RD","FORT SNELLING","MN",55111,44.8906239630001,-93.193337823,375,"6217 BLOOMINGTON RD, FORT SNELLING, MN, 55111","Match","Exact","6217 BLOOMINGTON RD, FORT SNELLING, MN, 55111",640273270,"L"
260876,"6217 CHRISTIAN KEMP DRIVE N","FREDERICK","MD",21703,39.3709899250001,-77.450123563,376,"6217 CHRISTIAN KEMP DRIVE N, FREDERICK, MD, 21703","Match","Exact","6217 CHRISTIAN KEMP DR N, FREDERICK, MD, 21703",625352272,"R"
260877,"6217 COFFMAN RD","INDIANAPOLIS","IN",46268,39.868145079,-86.240971734,377,"6217 COFFMAN RD, INDIANAPOLIS, IN, 46268","Match","Exact","6217 COFFMAN RD, INDIANAPOLIS, IN, 46268",637356065,"R"
260878,"6217 DARTLE ST","LAS VEGAS","NV",89130,36.273055534,-115.225740198,378,"6217 DARTLE ST, LAS VEGAS, NV, 89130","Match","Exact","6217 DARTLE ST, LAS VEGAS, NV, 89130",201961847,"L"
260879,"6217 DOMINION DRIVE","MADISON","WI",53718,43.091617639,-89.272319421,379,"6217 DOMINION DRIVE, MADISON, WI, 53718","Match","Exact","6217 DOMINION DR, MADISON, WI, 53718",627015039,"R"
260880,"6217 E 127TH STREET","GRANDVIEW","MO",64030,38.89414972,-94.520606591,380,"6217 E 127TH STREET, GRANDVIEW, MO, 64030","Match","Exact","6217 E 127TH ST, GRANDVIEW, MO, 64030",91476938,"R"
260881,"6217 HOTT SPRINGS DRIVE","ARLINGTON","TX",76001,32.6447143190001,-97.1749452189999,381,"6217 HOTT SPRINGS DRIVE, ARLINGTON, TX, 76001","Match","Exact","6217 HOTT SPRINGS DR, ARLINGTON, TX, 76001",101910615,"L"
260882,"6217 MINUTEMAN LN","ARLINGTON","TX",76002,32.644407238,-97.1107090959999,382,"6217 MINUTEMAN LN, ARLINGTON, TX, 76002","Match","Exact","6217 MINUTEMAN LN, ARLINGTON, TX, 76002",101911812,"L"
260883,"6217 N 600 W","DECATUR","IN",46733,40.834949855,-85.0532740689999,383,"6217 N 600 W, DECATUR, IN, 46733","Match","Exact","6217 N 600 W, DECATUR, IN, 46733",639090458,"R"
260884,"6217 N BELL AVENUE APT 3","CHICAGO","IL",60659,41.994649967,-87.6860930509999,384,"6217 N BELL AVENUE APT 3, CHICAGO, IL, 60659","Match","Non_Exact","6217 N BELL AVE, CHICAGO, IL, 60659",605165985,"R"
260885,"6217 PIONEER DRIVE","BALTIMORE","MD",21214,39.3618202380001,-76.5721791079999,385,"6217 PIONEER DRIVE, BALTIMORE, MD, 21214","Match","Exact","6217 PIONEER DR, BALTIMORE, MD, 21214",206409807,"R"
260886,"6217 S 28TH STREET","ROGERS","AR",72758,36.2719804210001,-94.1616697759999,386,"6217 S 28TH STREET, ROGERS, AR, 72758","Match","Exact","6217 S 28TH ST, ROGERS, AR, 72758",646940478,"L"
260887,"6217 SW CROSS CREEK AVE","BEAVERTON","OR",97078,45.4753936810001,-122.887583921,387,"6217 SW CROSS CREEK AVE, BEAVERTON, OR, 97078","Match","Exact","6217 SW CROSS CREEK AVE, BEAVERTON, OR, 97078",158194862,"L"
260888,"6218 3RD STREET","WASHINGTON","DC",20011,38.9652292550001,-77.016171127,388,"6218 3RD STREET, WASHINGTON, DC, 20011","Match","Non_Exact","6218 3RD ST NW, WASHINGTON, DC, 20011",76222067,"L"
260889,"6218 95TH STREET CIRCLE EAST","BRADENTON","FL",34202,27.4297523920001,-82.4468568309999,389,"6218 95TH STREET CIRCLE EAST, BRADENTON, FL, 34202","Match","Exact","6218 95TH STREET CIR E, BRADENTON, FL, 34202",16276568,"L"
260890,"6218 CHAUNCY STREET","TAMPA","FL",33647,28.0970721150001,-82.383694222,390,"6218 CHAUNCY STREET, TAMPA, FL, 33647","Match","Exact","6218 CHAUNCY ST, TAMPA, FL, 33647",104574433,"L"
260891,"6218 GEORGIA AVENUE NW STE 1 - 492","WASHINGTON","DC",20011,38.965233665,-77.027690481,391,"6218 GEORGIA AVENUE NW STE 1 - 492, WASHINGTON, DC, 20011","Match","Exact","6218 GEORGIA AVE NW, WASHINGTON, DC, 20011",76221858,"L"
260892,"6218 GEORGIA AVENUE NW SUITE 1-481","WASHINGTON","DC",20011,38.965233665,-77.027690481,392,"6218 GEORGIA AVENUE NW SUITE 1-481, WASHINGTON, DC, 20011","Match","Exact","6218 GEORGIA AVE NW, WASHINGTON, DC, 20011",76221858,"L"
260893,"6218 GLENWOOD AVE","MISSION","KS",66202,39.016792208,-94.662519865,393,"6218 GLENWOOD AVE, MISSION, KS, 66202","Match","Non_Exact","6218 GLENWOOD ST, MISSION, KS, 66202",91273460,"R"
260894,"6218 LAMPTON POND DRIVE","HILLIARD","OH",43026,40.0197246760001,-83.183546598,394,"6218 LAMPTON POND DRIVE, HILLIARD, OH, 43026","Match","Exact","6218 LAMPTON POND DR, HILLIARD, OH, 43026",135782456,"R"
260895,"6218 N 47TH ST","PARADISE VALLEY","AZ",85253,33.526339406,-111.98110382,395,"6218 N 47TH ST, PARADISE VALLEY, AZ, 85253","Match","Exact","6218 N 47TH ST, PARADISE VALLEY, AZ, 85253",128219993,"L"
260896,"6218 N SUFFOLK DR","PEORIA","IL",61615,40.764938468,-89.6651936709999,396,"6218 N SUFFOLK DR, PEORIA, IL, 61615","Match","Exact","6218 N SUFFOLK DR, PEORIA, IL, 61615",8711234,"L"
260897,"6218 OZANO MILL","SAN ANTONIO","TX",78253,29.496219008,-98.737271725,397,"6218 OZANO MILL, SAN ANTONIO, TX, 78253","Match","Non_Exact","6218 OZONA MILL, SAN ANTONIO, TX, 78253",619958115,"L"
260898,"6218 RIDGE AVENUE","SAINT LOUIS","MO",63133,38.6742918470001,-90.288845303,398,"6218 RIDGE AVENUE, SAINT LOUIS, MO, 63133","Match","Exact","6218 RIDGE AVE, SAINT LOUIS, MO, 63133",100161284,"R"
260899,"6218 S 65TH DR","LAVEEN","AZ",85339,33.3899677650001,-112.199432232,399,"6218 S 65TH DR, LAVEEN, AZ, 85339","Match","Exact","6218 S 65TH DR, LAVEEN, AZ, 85339",128200634,"R"
260900,"621841","CHARLOTTE","NC",28262,NA,NA,400,"621841, CHARLOTTE, NC, 28262","No_Match",NA,NA,NA,NA
260901,"6219 BAXTER PLACE","LINCOLN","NE",68516,40.7497485060001,-96.6807225919999,401,"6219 BAXTER PLACE, LINCOLN, NE, 68516","Match","Exact","6219 BAXTER PL, LINCOLN, NE, 68516",28271428,"R"
260902,"6219 BENHURST RD","BALTIMORE","MD",21209,39.3662502110001,-76.689735613,402,"6219 BENHURST RD, BALTIMORE, MD, 21209","Match","Exact","6219 BENHURST RD, BALTIMORE, MD, 21209",206404453,"R"
260903,"6219 BENHURST ROAD","BALTIMORE","MD",21209,39.3662502110001,-76.689735613,403,"6219 BENHURST ROAD, BALTIMORE, MD, 21209","Match","Exact","6219 BENHURST RD, BALTIMORE, MD, 21209",206404453,"R"
260904,"6219 FIVE BRIDGE RD","CLINTON","NC",28328,35.0555365270001,-78.438584143,404,"6219 FIVE BRIDGE RD, CLINTON, NC, 28328","Match","Exact","6219 FIVE BRIDGE RD, CLINTON, NC, 28328",604985630,"L"
260905,"6219 KENNEDY DRIVE","CHEVY CHASE","MD",20815,38.972177878,-77.1034924589999,405,"6219 KENNEDY DRIVE, CHEVY CHASE, MD, 20815","Match","Exact","6219 KENNEDY DR, CHEVY CHASE, MD, 20815",62065895,"R"
260906,"6219 N HERMITAGE AVE UNIT 3","CHICAGO","IL",60660,41.994980814,-87.673410202,406,"6219 N HERMITAGE AVE UNIT 3, CHICAGO, IL, 60660","Match","Non_Exact","6219 N HERMITAGE AVE, CHICAGO, IL, 60660",605169679,"R"
260907,"6219 NORTH OAK PARK AVENUE","CHICAGO","IL",60631,41.9944527310001,-87.794951436,407,"6219 NORTH OAK PARK AVENUE, CHICAGO, IL, 60631","Match","Exact","6219 N OAK PARK AVE, CHICAGO, IL, 60631",605171320,"R"
260908,"6219 RIVER MANOR DR","KINGWOOD","TX",77345,30.07489859,-95.1610419249999,408,"6219 RIVER MANOR DR, KINGWOOD, TX, 77345","Match","Exact","6219 RIVER MANOR DR, KINGWOOD, TX, 77345",631847344,"R"
260909,"6219 ROCKING HORSE WAY","ORANGE","CA",92869,33.785190678,-117.78753901,409,"6219 ROCKING HORSE WAY, ORANGE, CA, 92869","Match","Non_Exact","6219 E ROCKING HORSE WAY, ORANGE, CA, 92869",609069272,"L"
260910,"6219 SAUNTER LN","TAYLORSVILLE","UT",84123,40.6383077610001,-111.936234505,410,"6219 SAUNTER LN, TAYLORSVILLE, UT, 84123","Match","Exact","6219 SAUNTER LN, TAYLORSVILLE, UT, 84123",641069212,"R"
260911,"6219 SERENITY COURT","LOUISVILLE","KY",40219,38.159981492,-85.68085583,411,"6219 SERENITY COURT, LOUISVILLE, KY, 40219","Match","Exact","6219 SERENITY CT, LOUISVILLE, KY, 40219",96883035,"R"
260912,"6219 TREYWOOD LANE","MANASSAS","VA",20112,38.6858758760001,-77.3926650069999,412,"6219 TREYWOOD LANE, MANASSAS, VA, 20112","Match","Exact","6219 TREYWOOD LN, MANASSAS, VA, 20112",76532489,"L"
260913,"62196 HOLLIS LESLIE RD","ANGIE","LA",70426,30.979860795,-89.8509645239999,413,"62196 HOLLIS LESLIE RD, ANGIE, LA, 70426","Match","Exact","62196 HOLLIS LESLIE RD, ANGIE, LA, 70426",82474462,"L"
260914,"621D ROCKY LAKE RD","COLVILLE","WA",99114,48.494661379,-117.878512605,414,"621D ROCKY LAKE RD, COLVILLE, WA, 99114","Match","Exact","621 ROCKY LAKE RD, COLVILLE, WA, 99114",628068576,"R"
260915,"622 1/2 N WILTON PL","LOS ANGELES","CA",90004,34.0823347990001,-118.313516388,415,"622 1/2 N WILTON PL, LOS ANGELES, CA, 90004","Match","Exact","622 N WILTON PL, LOS ANGELES, CA, 90004",141603069,"R"
260916,"622 11TH STREET","ROANOKE","VA",24017,37.281353476,-79.95616204,416,"622 11TH STREET, ROANOKE, VA, 24017","Match","Non_Exact","622 11TH ST NW, ROANOKE, VA, 24017",62940868,"L"
260917,"622 2ND STREET","GREENPORT","NY",11944,41.107997272,-72.3641916239999,417,"622 2ND STREET, GREENPORT, NY, 11944","Match","Exact","622 2 ST, GREENPORT, NY, 11944",113957746,"L"
260918,"622 9TH AVE W","BRADENTON","FL",34205,27.491780991,-82.568515819,418,"622 9TH AVE W, BRADENTON, FL, 34205","Match","Exact","622 9TH AVE W, BRADENTON, FL, 34205",16235318,"R"
260919,"622 ADAMS AVE","WEST HEMPSTEAD","NY",11552,40.6940276220001,-73.658249031,419,"622 ADAMS AVE, WEST HEMPSTEAD, NY, 11552","Match","Exact","622 ADAMS AVE, W HEMPSTEAD, NY, 11552",147674443,"R"
260920,"622 AIRYBROOK LANE","HOUSTON","TX",77094,29.777334985,-95.7055703459999,420,"622 AIRYBROOK LANE, HOUSTON, TX, 77094","Match","Exact","622 AIRYBROOK LN, HOUSTON, TX, 77094",96293298,"L"
260921,"622 ALLISON AVE SW APT 3","ROANOKE","VA",24016,37.2610028550001,-79.953337255,421,"622 ALLISON AVE SW APT 3, ROANOKE, VA, 24016","Match","Exact","622 ALLISON AVE SW, ROANOKE, VA, 24016",62909868,"L"
260922,"622 ARMENA ROAD","LEESBURG","GA",31763,31.702704408,-84.273405963,422,"622 ARMENA ROAD, LEESBURG, GA, 31763","Match","Exact","622 ARMENA RD, LEESBURG, GA, 31763",635767942,"L"
260923,"622 BELLEVUE ST","PADUCAH","KY",42001,37.0737963080001,-88.6522551739999,423,"622 BELLEVUE ST, PADUCAH, KY, 42001","Match","Non_Exact","622 BELLEVUE DR, PADUCAH, KY, 42001",8394025,"R"
260924,"622 BLAIR AVENUE","PIEDMONT","CA",94611,37.827227437,-122.227690197,424,"622 BLAIR AVENUE, PIEDMONT, CA, 94611","Match","Exact","622 BLAIR AVE, PIEDMONT, CA, 94611",624453992,"R"
260925,"622 BLOOMFIELD AVENUE SUITE 205-B","BLOOMFIELD","NJ",7003,40.7948739080001,-74.198803206,425,"622 BLOOMFIELD AVENUE SUITE 205-B, BLOOMFIELD, NJ, 7003","Match","Exact","622 BLOOMFIELD AVE, BLOOMFIELD, NJ, 07003",63451064,"L"
260926,"622 BLUE SCHOOL ROAD","PERKASIE","PA",18944,40.38522348,-75.243650788,426,"622 BLUE SCHOOL ROAD, PERKASIE, PA, 18944","Match","Exact","622 BLUE SCHOOL RD, PERKASIE, PA, 18944",134698998,"L"
260927,"622 CASTANO AVENUE","ALAMO HEIGHTS","TX",78209,29.490166468,-98.476128675,427,"622 CASTANO AVENUE, ALAMO HEIGHTS, TX, 78209","Match","Exact","622 CASTANO AVE, ALAMO HEIGHTS, TX, 78209",101524297,"L"
260928,"622 COLLYER DRIVE","REDDING","CA",96003,40.6181273780001,-122.358303703,428,"622 COLLYER DRIVE, REDDING, CA, 96003","Match","Exact","622 COLLYER DR, REDDING, CA, 96003",126660621,"L"
260929,"622 COOPER STREET - SECOND FLOOR","CAMDEN","NJ",8102,39.9463505520001,-75.118090334,429,"622 COOPER STREET - SECOND FLOOR, CAMDEN, NJ, 8102","Match","Exact","622 COOPER ST, CAMDEN, NJ, 08102",134387217,"R"
260930,"622 CORBEL DRIVE","NAPLES","FL",34110,26.286868773,-81.7668191239999,430,"622 CORBEL DRIVE, NAPLES, FL, 34110","Match","Exact","622 CORBEL DR, NAPLES, FL, 34110",115172015,"R"
260931,"622 COUNTRY PATH DR","NEW CASTLE","DE",19720,39.6187665890001,-75.6514102259999,431,"622 COUNTRY PATH DR, NEW CASTLE, DE, 19720","Match","Exact","622 COUNTRY PATH DR, NEW CASTLE, DE, 19720",187281661,"L"
260932,"622 COUNTRY PATH DRIVE","NEW CASTLE","DE",19720,39.6187665890001,-75.6514102259999,432,"622 COUNTRY PATH DRIVE, NEW CASTLE, DE, 19720","Match","Exact","622 COUNTRY PATH DR, NEW CASTLE, DE, 19720",187281661,"L"
260933,"622 CROSS CREEK DRIVE","SAINT LOUIS","MO",63141,38.6691845030001,-90.456506221,433,"622 CROSS CREEK DRIVE, SAINT LOUIS, MO, 63141","Match","Exact","622 CROSS CREEK DR, SAINT LOUIS, MO, 63141",100124487,"R"
260934,"622 DAWSON TERRACE NW","HUNTSVILLE","AL",35811,34.760035756,-86.583557351,434,"622 DAWSON TERRACE NW, HUNTSVILLE, AL, 35811","Match","Exact","622 DAWSON TER NW, HUNTSVILLE, AL, 35811",58117263,"L"
260935,"622 DOGWOOD CIRCLE","HIGH POINT","NC",27260,35.9975593300001,-79.963019136,435,"622 DOGWOOD CIRCLE, HIGH POINT, NC, 27260","Match","Exact","622 DOGWOOD CIR, HIGH POINT, NC, 27260",131042341,"R"
260936,"622 DOGWOOD TRL","DALLAS","TX",75224,32.706447874,-96.833988506,436,"622 DOGWOOD TRL, DALLAS, TX, 75224","Match","Exact","622 DOGWOOD TRL, DALLAS, TX, 75224",102947798,"L"
260937,"622 E 22ND STREET","LOS ANGELES","CA",90011,34.0254662340001,-118.260487012,437,"622 E 22ND STREET, LOS ANGELES, CA, 90011","Match","Exact","622 E 22ND ST, LOS ANGELES, CA, 90011",141619211,"R"
260938,"622 E 90TH PLACE","CHICAGO","IL",60619,41.7302382020001,-87.6088524579999,438,"622 E 90TH PLACE, CHICAGO, IL, 60619","Match","Exact","622 E 90TH PL, CHICAGO, IL, 60619",111773152,"L"
260939,"622 E BASIN RD STE A","NEW CASTLE","DE",19720,39.672352135,-75.584662698,439,"622 E BASIN RD STE A, NEW CASTLE, DE, 19720","Match","Non_Exact","622 E BASIN RD, NEW CASTLE, DE, 19720",187268882,"L"
260940,"622 EAST MAPLE STREET","CAMPBELLSVILLE","KY",42718,37.344881473,-85.340209004,440,"622 EAST MAPLE STREET, CAMPBELLSVILLE, KY, 42718","Match","Exact","622 E MAPLE ST, CAMPBELLSVILLE, KY, 42718",636250648,"R"
260941,"622 EAST MYERS BLVD","MASCOTTE","FL",34753,28.5724658500001,-81.8794799309999,441,"622 EAST MYERS BLVD, MASCOTTE, FL, 34753","Match","Exact","622 E MYERS BLVD, MASCOTTE, FL, 34753",94210133,"L"
260942,"622 ELK ESTATES","ELKVIEW","WV",25071,38.4439809360001,-81.448205639,442,"622 ELK ESTATES, ELKVIEW, WV, 25071","Match","Non_Exact","622 ELK EST, ELKVIEW, WV, 25071",647479336,"R"
260943,"622 ELM STREET","LIMERICK","ME",4048,43.6599243860001,-70.836841213,443,"622 ELM STREET, LIMERICK, ME, 4048","Match","Exact","622 ELM ST, LIMERICK, ME, 04048",640074853,"R"
260944,"622 EVERGREEN STREET","FRESNO","TX",77545,29.546728832,-95.459622952,444,"622 EVERGREEN STREET, FRESNO, TX, 77545","Match","Non_Exact","622 EVERGREEN RD, FRESNO, TX, 77545",78271964,"L"
260945,"622 FILMORE STREET APT 119A","ORANGE PARK","FL",32065,30.149245234,-81.756477418,445,"622 FILMORE STREET APT 119A, ORANGE PARK, FL, 32065","Match","Exact","622 FILMORE ST, ORANGE PARK, FL, 32065",606222368,"R"
260946,"622 FORT WILLIAMS PARKWAY","ALEXANDRIA","VA",22304,38.8174272580001,-77.0950246909999,446,"622 FORT WILLIAMS PARKWAY, ALEXANDRIA, VA, 22304","Match","Exact","622 FORT WILLIAMS PKWY, ALEXANDRIA, VA, 22304",75986966,"L"
260947,"622 FOUR ROD ROAD","ALDEN","NY",14004,42.88147359,-78.537915288,447,"622 FOUR ROD ROAD, ALDEN, NY, 14004","Match","Exact","622 FOUR ROD RD, ALDEN, NY, 14004",48346467,"L"
260948,"622 GIBSON AVE","KINGSTON","PA",18704,41.266370404,-75.88259263,448,"622 GIBSON AVE, KINGSTON, PA, 18704","Match","Exact","622 GIBSON AVE, KINGSTON, PA, 18704",80914051,"L"
260949,"622 HALL ST","OPELOUSAS","LA",70570,30.5235396420001,-92.0913483749999,449,"622 HALL ST, OPELOUSAS, LA, 70570","Match","Exact","622 HALL ST, OPELOUSAS, LA, 70570",106435167,"R"
260950,"622 HARVEY TEAGUE ROAD","WINSTON SALEM","NC",27107,36.0160157010001,-80.127952982,450,"622 HARVEY TEAGUE ROAD, WINSTON SALEM, NC, 27107","Match","Exact","622 HARVEY TEAGUE RD, WINSTON SALEM, NC, 27107",604813588,"R"
260951,"622 HENSHAW STREET","ROCHDALE","MA",1542,42.1972516170001,-71.895016734,451,"622 HENSHAW STREET, ROCHDALE, MA, 1542","Match","Exact","622 HENSHAW ST, ROCHDALE, MA, 01542",618973514,"R"
260952,"622 HOLLAND PLANCE","LUMBERTON","NJ",8048,39.9791269630001,-74.778356651,452,"622 HOLLAND PLANCE, LUMBERTON, NJ, 8048","Match","Non_Exact","622 HOLLAND PL, LUMBERTON, NJ, 08048",134059350,"L"
260953,"622 LABORE ROAD","LITTLE CANADA","MN",55117,45.0271228820001,-93.075062148,453,"622 LABORE ROAD, LITTLE CANADA, MN, 55117","Match","Exact","622 LABORE RD, LITTLE CANADA, MN, 55117",97649422,"R"
260954,"622 LAKEVIEW TRAIL","MARIETTA","GA",30068,33.965825206,-84.439296375,454,"622 LAKEVIEW TRAIL, MARIETTA, GA, 30068","Match","Exact","622 LAKEVIEW TRL, MARIETTA, GA, 30068",17183133,"R"
260955,"622 LELANDHAVEN WAY","SACRAMENTO","CA",95831,38.512888844,-121.542396249,455,"622 LELANDHAVEN WAY, SACRAMENTO, CA, 95831","Match","Exact","622 LELANDHAVEN WAY, SACRAMENTO, CA, 95831",133322122,"L"
260956,"622 LIBERTY AVE FLOOR 1","JERSEY CITY","NJ",7307,40.7562255810001,-74.052638765,456,"622 LIBERTY AVE FLOOR 1, JERSEY CITY, NJ, 7307","Match","Exact","622 LIBERTY AVE, JERSEY CITY, NJ, 07307",59597443,"R"
260957,"622 MABLE STREET","WINONA","MS",38967,NA,NA,457,"622 MABLE STREET, WINONA, MS, 38967","No_Match",NA,NA,NA,NA
260958,"622 MAIN STREET","RAPID CITY","SD",57701,44.081149677,-103.22747302,458,"622 MAIN STREET, RAPID CITY, SD, 57701","Match","Exact","622 MAIN ST, RAPID CITY, SD, 57701",205508487,"R"
260959,"622 MARTIN LN","LEXINGTON","MO",64067,39.192830256,-93.853834639,459,"622 MARTIN LN, LEXINGTON, MO, 64067","Match","Exact","622 MARTIN LN, LEXINGTON, MO, 64067",648938216,"R"
260960,"622 MARTIN LUTHER KING JR BLVD","SEBRING","FL",33870,27.5019519210001,-81.433376792,460,"622 MARTIN LUTHER KING JR BLVD, SEBRING, FL, 33870","Match","Exact","622 MARTIN LUTHER KING JR BLVD, SEBRING, FL, 33870",4630529,"R"
260961,"622 MORNINGSIDE ST","ELKHORN","WI",53121,42.6867554130001,-88.5343447829999,461,"622 MORNINGSIDE ST, ELKHORN, WI, 53121","Match","Exact","622 MORNINGSIDE ST, ELKHORN, WI, 53121",53689875,"L"
260962,"622 N 22ND ST","SAINT JOSEPH","MO",64506,39.7723481530001,-94.834177532,462,"622 N 22ND ST, SAINT JOSEPH, MO, 64506","Match","Exact","622 N 22ND ST, SAINT JOSEPH, MO, 64506",618535478,"L"
260963,"622 N 2ND ST","TECUMSEH","OK",74873,35.263051218,-96.932892094,463,"622 N 2ND ST, TECUMSEH, OK, 74873","Match","Exact","622 N 2ND ST, TECUMSEH, OK, 74873",100579922,"L"
260964,"622 N 31ST ST","RICHMOND","VA",23223,37.531178213,-77.4106563139999,464,"622 N 31ST ST, RICHMOND, VA, 23223","Match","Exact","622 N 31ST ST, RICHMOND, VA, 23223",201548565,"L"
260965,"622 N 7TH ST","FORT SMITH","AR",72901,35.391439828,-94.4196889469999,465,"622 N 7TH ST, FORT SMITH, AR, 72901","Match","Exact","622 N 7TH ST, FORT SMITH, AR, 72901",56100026,"R"
260966,"622 N CUMMINGS AVE","BARTLESVILLE","OK",74006,36.7658661680001,-95.924454237,466,"622 N CUMMINGS AVE, BARTLESVILLE, OK, 74006","Match","Exact","622 N CUMMINGS AVE, BARTLESVILLE, OK, 74006",618217952,"R"
260967,"622 N MILL ST","WELLINGTON","OH",44090,41.1760664920001,-82.2260185389999,467,"622 N MILL ST, WELLINGTON, OH, 44090","Match","Exact","622 N MILL ST, WELLINGTON, OH, 44090",55422493,"R"
260968,"622 N RICHLAND RD","TUTTLE","OK",73089,35.2997783220001,-97.794539239,468,"622 N RICHLAND RD, TUTTLE, OK, 73089","Match","Exact","622 N RICHLAND RD, TUTTLE, OK, 73089",648561623,"L"
260969,"622 NEEDLE LEAF DRIVE","BLYTHEWOOD","SC",29016,34.1814419670001,-80.9504074179999,469,"622 NEEDLE LEAF DRIVE, BLYTHEWOOD, SC, 29016","Match","Exact","622 NEEDLE LEAF DR, BLYTHEWOOD, SC, 29016",646668869,"R"
260970,"622 NEW CASTLE AVE","WILMINGTON","DE",19801,39.727072423,-75.543516514,470,"622 NEW CASTLE AVE, WILMINGTON, DE, 19801","Match","Exact","622 NEW CASTLE AVE, WILMINGTON, DE, 19801",187270327,"L"
260971,"622 NEW CASTLE AVENUE","WILMINGTON","DE",19801,39.727072423,-75.543516514,471,"622 NEW CASTLE AVENUE, WILMINGTON, DE, 19801","Match","Exact","622 NEW CASTLE AVE, WILMINGTON, DE, 19801",187270327,"L"
260972,"622 NORTH 7TH STREET","FORT SMITH","AR",72901,35.3914368590001,-94.4196918059999,472,"622 NORTH 7TH STREET, FORT SMITH, AR, 72901","Match","Exact","622 N 7TH ST, FORT SMITH, AR, 72901",56100026,"R"
260973,"622 OLD FORGE LN","UNIVERSITY PARK","IL",60484,41.428815555,-87.6786774669999,473,"622 OLD FORGE LN, UNIVERSITY PARK, IL, 60484","Match","Exact","622 OLD FORGE LN, UNIVERSITY PARK, IL, 60484",111552637,"L"
260974,"622 OLD LOUISVILLE RD","GUYTON","GA",31312,32.3235960850001,-81.423280048,474,"622 OLD LOUISVILLE RD, GUYTON, GA, 31312","Match","Exact","622 OLD LOUISVILLE RD, GUYTON, GA, 31312",642625118,"R"
260975,"622 PARKFAIR PL","COLUMBUS","OH",43213,39.9672151390001,-82.8342190499999,475,"622 PARKFAIR PL, COLUMBUS, OH, 43213","Match","Exact","622 PARKFAIR PL, COLUMBUS, OH, 43213",135607699,"R"
260976,"622 PELZER DRIVE","MOUNT PLEASANT","SC",29464,32.7985511160001,-79.877063493,476,"622 PELZER DRIVE, MOUNT PLEASANT, SC, 29464","Match","Exact","622 PELZER DR, MOUNT PLEASANT, SC, 29464",108808481,"L"
260977,"622 RIPPLING STREAM ROAD","DURHAM","NC",27704,36.0731982180001,-78.9011963849999,477,"622 RIPPLING STREAM ROAD, DURHAM, NC, 27704","Match","Exact","622 RIPPLING STREAM RD, DURHAM, NC, 27704",71735596,"R"
260978,"622 RIVER LANDING DRIVE","SODDY DAISY","TN",37379,35.2795509970001,-85.147647238,478,"622 RIVER LANDING DRIVE, SODDY DAISY, TN, 37379","Match","Exact","622 RIVER LANDING DR, SODDY DAISY, TN, 37379",59329777,"L"
260979,"622 ROCK CREEK ROAD","HOT SPRINGS","AR",71913,34.4673802450001,-93.159872655,479,"622 ROCK CREEK ROAD, HOT SPRINGS, AR, 71913","Match","Exact","622 ROCK CREEK RD, HOT SPRINGS, AR, 71913",645716168,"R"
260980,"622 ROYAL ST APT A","LAKE CHARLES","LA",70607,30.170097771,-93.2134353709999,480,"622 ROYAL ST APT A, LAKE CHARLES, LA, 70607","Match","Exact","622 ROYAL ST, LAKE CHARLES, LA, 70607",88438514,"R"
260981,"622 S 17TH  ST","LOUISVILLE","KY",40203,38.2503346510001,-85.779569635,481,"622 S 17TH  ST, LOUISVILLE, KY, 40203","Match","Exact","622 S 17TH ST, LOUISVILLE, KY, 40203",96842173,"R"
260982,"622 S CALHOUN ST SUITE 316","FORT WAYNE","IN",46802,41.08105326,-85.14008711,482,"622 S CALHOUN ST SUITE 316, FORT WAYNE, IN, 46802","Match","Non_Exact","622 S CALHOUN ST, FORT WAYNE, IN, 46802",618120293,"R"
260983,"622 SANFORD ST APT 4","COVINGTON","KY",41011,39.0849478710001,-84.506258837,483,"622 SANFORD ST APT 4, COVINGTON, KY, 41011","Match","Exact","622 SANFORD ST, COVINGTON, KY, 41011",103876160,"L"
260984,"622 SANTOS CT","MILPITAS","CA",95035,37.4448135210001,-121.884476699,484,"622 SANTOS CT, MILPITAS, CA, 95035","Match","Exact","622 SANTOS CT, MILPITAS, CA, 95035",123179175,"R"
260985,"622 SE GRAND AVE","PORTLAND","OR",97214,45.5184587570001,-122.660728006,485,"622 SE GRAND AVE, PORTLAND, OR, 97214","Match","Exact","622 SE GRAND AVE, PORTLAND, OR, 97214",157505336,"L"
260986,"622 SKYLINE DRIVE","NORTH LITTLE ROCK","AR",72116,34.781243422,-92.2538947,486,"622 SKYLINE DRIVE, NORTH LITTLE ROCK, AR, 72116","Match","Exact","622 SKYLINE DR, N LITTLE ROCK, AR, 72116",83514437,"R"
260987,"622 SKYWAY DRIVE","SAN JOSE","CA",95111,37.2729857350001,-121.810749464,487,"622 SKYWAY DRIVE, SAN JOSE, CA, 95111","Match","Exact","622 SKYWAY DR, SAN JOSE, CA, 95111",122974301,"R"
260988,"622 SOUTH 6TH AVE","MOUNT VERNON","NY",10550,40.8963207460001,-73.8333019519999,488,"622 SOUTH 6TH AVE, MOUNT VERNON, NY, 10550","Match","Exact","622 S 6TH AVE, MOUNT VERNON, NY, 10550",139747576,"R"
260989,"622 SUNRISE DR SUITE 400","SAINT PETER","MN",56082,44.330871261,-93.969443656,489,"622 SUNRISE DR SUITE 400, SAINT PETER, MN, 56082","Match","Exact","622 SUNRISE DR, SAINT PETER, MN, 56082",28698841,"L"
260990,"622 SUNSET STREET","MANCHESTER","MI",48158,42.147986018,-84.0284409719999,490,"622 SUNSET STREET, MANCHESTER, MI, 48158","Match","Non_Exact","622 SUNSET DR, MANCHESTER, MI, 48158",26009614,"L"
260991,"622 W 120TH ST","CHICAGO","IL",60628,41.676046238,-87.637721389,491,"622 W 120TH ST, CHICAGO, IL, 60628","Match","Exact","622 W 120TH ST, CHICAGO, IL, 60628",605515058,"R"
260992,"622 W 168TH ST PH 1540","NEW YORK","NY",10032,40.8415751410001,-73.9409362389999,492,"622 W 168TH ST PH 1540, NEW YORK, NY, 10032","Match","Non_Exact","622 W 168TH ST, NEW YORK, NY, 10032",59655674,"L"
260993,"622 W 500 N","SALT LAKE CITY","UT",84116,40.7802193200001,-111.908716458,493,"622 W 500 N, SALT LAKE CITY, UT, 84116","Match","Exact","622 W 500 N, SALT LAKE CITY, UT, 84116",176066840,"R"
260994,"622 W 550 S","TRAFALGAR","IN",46181,39.3943877250001,-86.1155865649999,494,"622 W 550 S, TRAFALGAR, IN, 46181","Match","Exact","622 W 550 S, TRAFALGAR, IN, 46181",606954736,"L"
260995,"622 W AZURE AVE","NORTH LAS VEGAS","NV",89031,36.272848815,-115.150098091,495,"622 W AZURE AVE, NORTH LAS VEGAS, NV, 89031","Match","Exact","622 W AZURE AVE, N LAS VEGAS, NV, 89031",201943776,"R"
260996,"622 W GUMP RD","FORT WAYNE","IN",46845,41.2249290830001,-85.150201657,496,"622 W GUMP RD, FORT WAYNE, IN, 46845","Match","Exact","622 W GUMP RD, FORT WAYNE, IN, 46845",646266930,"R"
260997,"622 W JEFFERSON ST","SULLIVAN","IL",61951,39.5985527920001,-88.613268416,497,"622 W JEFFERSON ST, SULLIVAN, IL, 61951","Match","Exact","622 W JEFFERSON ST, SULLIVAN, IL, 61951",5818455,"L"
260998,"622 W STATE ROAD 16","LUCERNE","IN",46950,NA,NA,498,"622 W STATE ROAD 16, LUCERNE, IN, 46950","No_Match",NA,NA,NA,NA
260999,"622 W SYCAMORE ST","FAYETTEVILLE","AR",72703,36.084697012,-94.1671766699999,499,"622 W SYCAMORE ST, FAYETTEVILLE, AR, 72703","Match","Exact","622 W SYCAMORE ST, FAYETTEVILLE, AR, 72703",49070699,"L"
261000,"622 WASHINGTON STREET","WATERTOWN","NY",13601,43.968098765,-75.912134931,500,"622 WASHINGTON STREET, WATERTOWN, NY, 13601","Match","Exact","622 WASHINGTON ST, WATERTOWN, NY, 13601",154240421,"L"
