"ID","Address","City","State","Zip","lat","long","id","input_address","match_indicator","match_type","matched_address","tiger_line_id","tiger_side"
338501,"PO BOX 2012","LAUREL","MS",39442,NA,NA,1,"PO BOX 2012, LAUREL, MS, 39442","No_Match",NA,NA,NA,NA
338502,"PO BOX 2012","LEWISTION","ID",83501,NA,NA,2,"PO BOX 2012, LEWISTION, ID, 83501","No_Match",NA,NA,NA,NA
338503,"PO BOX 2012","PFLUGERVILLE","TX",78660,NA,NA,3,"PO BOX 2012, PFLUGERVILLE, TX, 78660","No_Match",NA,NA,NA,NA
338504,"PO BOX 20123","ALBUQUERQUE","NM",87154,NA,NA,4,"PO BOX 20123, ALBUQUERQUE, NM, 87154","No_Match",NA,NA,NA,NA
338505,"PO BOX 20124","KNOXVILLE","TN",37940,NA,NA,5,"PO BOX 20124, KNOXVILLE, TN, 37940","No_Match",NA,NA,NA,NA
338506,"PO BOX 20126","SCRANTON","PA",18503,NA,NA,6,"PO BOX 20126, SCRANTON, PA, 18503","No_Match",NA,NA,NA,NA
338507,"PO BOX 2013","ANACORTES","WA",98221,NA,NA,7,"PO BOX 2013, ANACORTES, WA, 98221","No_Match",NA,NA,NA,NA
338508,"PO BOX 2013","LOS GATOS","CA",95031,NA,NA,8,"PO BOX 2013, LOS GATOS, CA, 95031","No_Match",NA,NA,NA,NA
338509,"PO BOX 2013","LOVELOCK","NV",89419,NA,NA,9,"PO BOX 2013, LOVELOCK, NV, 89419","No_Match",NA,NA,NA,NA
338510,"PO BOX 2013","WOODBRIDGE","VA",22195,NA,NA,10,"PO BOX 2013, WOODBRIDGE, VA, 22195","No_Match",NA,NA,NA,NA
338511,"PO BOX 20133","SCRANTON","PA",18503,NA,NA,11,"PO BOX 20133, SCRANTON, PA, 18503","No_Match",NA,NA,NA,NA
338512,"PO BOX 201354","NEW HAVEN","CT",6520,NA,NA,12,"PO BOX 201354, NEW HAVEN, CT, 6520","No_Match",NA,NA,NA,NA
338513,"PO BOX 20138","NEW YORK","NY",10017,NA,NA,13,"PO BOX 20138, NEW YORK, NY, 10017","No_Match",NA,NA,NA,NA
338514,"PO BOX 2014","EDGEWOOD","NM",87015,NA,NA,14,"PO BOX 2014, EDGEWOOD, NM, 87015","No_Match",NA,NA,NA,NA
338515,"PO BOX 2014","GRAPEVINE","TX",76099,NA,NA,15,"PO BOX 2014, GRAPEVINE, TX, 76099","No_Match",NA,NA,NA,NA
338516,"PO BOX 2014","MONTGOMERY","TX",77356,NA,NA,16,"PO BOX 2014, MONTGOMERY, TX, 77356","No_Match",NA,NA,NA,NA
338517,"PO BOX 2014","PORTAGE","IN",46368,NA,NA,17,"PO BOX 2014, PORTAGE, IN, 46368","No_Match",NA,NA,NA,NA
338518,"PO BOX 20142","BROOKLYN","NY",11202,NA,NA,18,"PO BOX 20142, BROOKLYN, NY, 11202","No_Match",NA,NA,NA,NA
338519,"PO BOX 20143","OKLAHOMA CITY","OK",73156,NA,NA,19,"PO BOX 20143, OKLAHOMA CITY, OK, 73156","No_Match",NA,NA,NA,NA
338520,"PO BOX 2015","CHEROKEE","NC",28719,NA,NA,20,"PO BOX 2015, CHEROKEE, NC, 28719","No_Match",NA,NA,NA,NA
338521,"PO BOX 2015","WINDHAM","ME",4062,NA,NA,21,"PO BOX 2015, WINDHAM, ME, 4062","No_Match",NA,NA,NA,NA
338522,"PO BOX 20151","BILLINGS","MT",59104,NA,NA,22,"PO BOX 20151, BILLINGS, MT, 59104","No_Match",NA,NA,NA,NA
338523,"PO BOX 201514","TAMPA","FL",33622,NA,NA,23,"PO BOX 201514, TAMPA, FL, 33622","No_Match",NA,NA,NA,NA
338524,"PO BOX 201552","SHAKER HTS","OH",44120,NA,NA,24,"PO BOX 201552, SHAKER HTS, OH, 44120","No_Match",NA,NA,NA,NA
338525,"PO BOX 201583","ARLINGTON","TX",76006,NA,NA,25,"PO BOX 201583, ARLINGTON, TX, 76006","No_Match",NA,NA,NA,NA
338526,"PO BOX 2016","KINGSHILL","VI",851,NA,NA,26,"PO BOX 2016, KINGSHILL, VI, 851","No_Match",NA,NA,NA,NA
338527,"PO BOX 2016","MANSFIELD","TX",76063,NA,NA,27,"PO BOX 2016, MANSFIELD, TX, 76063","No_Match",NA,NA,NA,NA
338528,"PO BOX 201608","ARLINGTON","TX",76006,NA,NA,28,"PO BOX 201608, ARLINGTON, TX, 76006","No_Match",NA,NA,NA,NA
338529,"PO BOX 201630","NEW HAVEN","CT",6520,NA,NA,29,"PO BOX 201630, NEW HAVEN, CT, 6520","No_Match",NA,NA,NA,NA
338530,"PO BOX 20164","NEW YORK","NY",10011,NA,NA,30,"PO BOX 20164, NEW YORK, NY, 10011","No_Match",NA,NA,NA,NA
338531,"PO BOX 20166","CHEYENNE","WY",82003,NA,NA,31,"PO BOX 20166, CHEYENNE, WY, 82003","No_Match",NA,NA,NA,NA
338532,"PO BOX 2017","CONROE","TX",77305,NA,NA,32,"PO BOX 2017, CONROE, TX, 77305","No_Match",NA,NA,NA,NA
338533,"PO BOX 2017","YELM","WA",98597,NA,NA,33,"PO BOX 2017, YELM, WA, 98597","No_Match",NA,NA,NA,NA
338534,"PO BOX 20171","CINCINNATI","OH",45220,NA,NA,34,"PO BOX 20171, CINCINNATI, OH, 45220","No_Match",NA,NA,NA,NA
338535,"PO BOX 20172","BROOKLYN","NY",11202,NA,NA,35,"PO BOX 20172, BROOKLYN, NY, 11202","No_Match",NA,NA,NA,NA
338536,"PO BOX 20178","COLORADO CITY","CO",81019,NA,NA,36,"PO BOX 20178, COLORADO CITY, CO, 81019","No_Match",NA,NA,NA,NA
338537,"PO BOX 2018","DUBOIS","WY",82513,NA,NA,37,"PO BOX 2018, DUBOIS, WY, 82513","No_Match",NA,NA,NA,NA
338538,"PO BOX 20181","KANSAS CITY","MO",64195,NA,NA,38,"PO BOX 20181, KANSAS CITY, MO, 64195","No_Match",NA,NA,NA,NA
338539,"PO BOX 201812","AUSTIN","TX",78720,NA,NA,39,"PO BOX 201812, AUSTIN, TX, 78720","No_Match",NA,NA,NA,NA
338540,"PO BOX 201867 3675 WARRENSVILLE CTR","CLEVELAND","OH",44120,41.4599855660001,-81.535654138,40,"PO BOX 201867 3675 WARRENSVILLE CTR, CLEVELAND, OH, 44120","Match","Non_Exact","3675 WARRENSVILLE CENTER RD, CLEVELAND, OH, 44120",648315332,"L"
338541,"PO BOX 2019","PINE RIDGE","SD",57770,NA,NA,41,"PO BOX 2019, PINE RIDGE, SD, 57770","No_Match",NA,NA,NA,NA
338542,"PO BOX 20192","NEW YORK","NY",10017,NA,NA,42,"PO BOX 20192, NEW YORK, NY, 10017","No_Match",NA,NA,NA,NA
338543,"PO BOX 20193","PORTLAND","OR",97294,NA,NA,43,"PO BOX 20193, PORTLAND, OR, 97294","No_Match",NA,NA,NA,NA
338544,"PO BOX 202 - 825 YOUNG ST","JESUP","IA",50648,42.4751058580001,-92.070876917,44,"PO BOX 202 - 825 YOUNG ST, JESUP, IA, 50648","Match","Exact","202 YOUNG ST, JESUP, IA, 50648",101148075,"R"
338545,"PO BOX 202","BELPRE","OH",45714,NA,NA,45,"PO BOX 202, BELPRE, OH, 45714","No_Match",NA,NA,NA,NA
338546,"PO BOX 202","BETHANY","OK",73008,NA,NA,46,"PO BOX 202, BETHANY, OK, 73008","No_Match",NA,NA,NA,NA
338547,"PO BOX 202","BUFFALO","MO",65622,NA,NA,47,"PO BOX 202, BUFFALO, MO, 65622","No_Match",NA,NA,NA,NA
338548,"PO BOX 202","BURNS","OR",97720,NA,NA,48,"PO BOX 202, BURNS, OR, 97720","No_Match",NA,NA,NA,NA
338549,"PO BOX 202","CENTER POINT","TX",78010,NA,NA,49,"PO BOX 202, CENTER POINT, TX, 78010","No_Match",NA,NA,NA,NA
338550,"PO BOX 202","CHERRY VALLEY","NY",13320,NA,NA,50,"PO BOX 202, CHERRY VALLEY, NY, 13320","No_Match",NA,NA,NA,NA
338551,"PO BOX 202","CROMWELL","CT",6416,NA,NA,51,"PO BOX 202, CROMWELL, CT, 6416","No_Match",NA,NA,NA,NA
338552,"PO BOX 202","DAYTON","OH",45401,NA,NA,52,"PO BOX 202, DAYTON, OH, 45401","No_Match",NA,NA,NA,NA
338553,"PO BOX 202","DODD CITY","TX",75438,NA,NA,53,"PO BOX 202, DODD CITY, TX, 75438","No_Match",NA,NA,NA,NA
338554,"PO BOX 202","EMPIRE","CO",80438,NA,NA,54,"PO BOX 202, EMPIRE, CO, 80438","No_Match",NA,NA,NA,NA
338555,"PO BOX 202","FRIENDSVILLE","MD",21531,NA,NA,55,"PO BOX 202, FRIENDSVILLE, MD, 21531","No_Match",NA,NA,NA,NA
338556,"PO BOX 202","FRUITLAND","ID",83619,NA,NA,56,"PO BOX 202, FRUITLAND, ID, 83619","No_Match",NA,NA,NA,NA
338557,"PO BOX 202","HANA","HI",96713,NA,NA,57,"PO BOX 202, HANA, HI, 96713","No_Match",NA,NA,NA,NA
338558,"PO BOX 202","HANALEI","HI",96714,NA,NA,58,"PO BOX 202, HANALEI, HI, 96714","No_Match",NA,NA,NA,NA
338559,"PO BOX 202","HILLSBOROUGH","NH",3244,NA,NA,59,"PO BOX 202, HILLSBOROUGH, NH, 3244","No_Match",NA,NA,NA,NA
338560,"PO BOX 202","JULESBURG","CO",80737,NA,NA,60,"PO BOX 202, JULESBURG, CO, 80737","No_Match",NA,NA,NA,NA
338561,"PO BOX 202","LAKE WACCAMAW","NC",28450,NA,NA,61,"PO BOX 202, LAKE WACCAMAW, NC, 28450","No_Match",NA,NA,NA,NA
338562,"PO BOX 202","LYNDHURST","NJ",7071,NA,NA,62,"PO BOX 202, LYNDHURST, NJ, 7071","No_Match",NA,NA,NA,NA
338563,"PO BOX 202","MARLETTE","MI",48453,NA,NA,63,"PO BOX 202, MARLETTE, MI, 48453","No_Match",NA,NA,NA,NA
338564,"PO BOX 202","MONTALBA","TX",75853,NA,NA,64,"PO BOX 202, MONTALBA, TX, 75853","No_Match",NA,NA,NA,NA
338565,"PO BOX 202","MONTICELLO","IL",61856,NA,NA,65,"PO BOX 202, MONTICELLO, IL, 61856","No_Match",NA,NA,NA,NA
338566,"PO BOX 202","MOUNT MOURNE","NC",28123,NA,NA,66,"PO BOX 202, MOUNT MOURNE, NC, 28123","No_Match",NA,NA,NA,NA
338567,"PO BOX 202","NORTH SUTTON","NH",3260,NA,NA,67,"PO BOX 202, NORTH SUTTON, NH, 3260","No_Match",NA,NA,NA,NA
338568,"PO BOX 202","OAK CREEK","CO",80467,NA,NA,68,"PO BOX 202, OAK CREEK, CO, 80467","No_Match",NA,NA,NA,NA
338569,"PO BOX 202","OWINGS","MD",20736,NA,NA,69,"PO BOX 202, OWINGS, MD, 20736","No_Match",NA,NA,NA,NA
338570,"PO BOX 202","RICHMOND","MI",48062,NA,NA,70,"PO BOX 202, RICHMOND, MI, 48062","No_Match",NA,NA,NA,NA
338571,"PO BOX 202","ROSALIA","WA",99170,NA,NA,71,"PO BOX 202, ROSALIA, WA, 99170","No_Match",NA,NA,NA,NA
338572,"PO BOX 202","ROSENDALE","NY",12472,NA,NA,72,"PO BOX 202, ROSENDALE, NY, 12472","No_Match",NA,NA,NA,NA
338573,"PO BOX 202","STANTON","NE",68779,NA,NA,73,"PO BOX 202, STANTON, NE, 68779","No_Match",NA,NA,NA,NA
338574,"PO BOX 202","TURLOCK","CA",95381,NA,NA,74,"PO BOX 202, TURLOCK, CA, 95381","No_Match",NA,NA,NA,NA
338575,"PO BOX 202","WALDORF","MD",20604,NA,NA,75,"PO BOX 202, WALDORF, MD, 20604","No_Match",NA,NA,NA,NA
338576,"PO BOX 202","WALLS","MS",38680,NA,NA,76,"PO BOX 202, WALLS, MS, 38680","No_Match",NA,NA,NA,NA
338577,"PO BOX 20202","KALAMAZOO","MI",49019,NA,NA,77,"PO BOX 20202, KALAMAZOO, MI, 49019","No_Match",NA,NA,NA,NA
338578,"PO BOX 202024","SAN ANTONIO","TX",78220,NA,NA,78,"PO BOX 202024, SAN ANTONIO, TX, 78220","No_Match",NA,NA,NA,NA
338579,"PO BOX 20204","SEATTLE","WA",98102,NA,NA,79,"PO BOX 20204, SEATTLE, WA, 98102","No_Match",NA,NA,NA,NA
338580,"PO BOX 202042","DENVER","CO",80220,NA,NA,80,"PO BOX 202042, DENVER, CO, 80220","No_Match",NA,NA,NA,NA
338581,"PO BOX 202092","AUSTIN","TX",78720,NA,NA,81,"PO BOX 202092, AUSTIN, TX, 78720","No_Match",NA,NA,NA,NA
338582,"PO BOX 202092","DENVER","CO",80220,NA,NA,82,"PO BOX 202092, DENVER, CO, 80220","No_Match",NA,NA,NA,NA
338583,"PO BOX 2021","MONUMENT","CO",80132,NA,NA,83,"PO BOX 2021, MONUMENT, CO, 80132","No_Match",NA,NA,NA,NA
338584,"PO BOX 202130","NEW HAVEN","CT",6529,NA,NA,84,"PO BOX 202130, NEW HAVEN, CT, 6529","No_Match",NA,NA,NA,NA
338585,"PO BOX 202182","AUSTIN","TX",78720,NA,NA,85,"PO BOX 202182, AUSTIN, TX, 78720","No_Match",NA,NA,NA,NA
338586,"PO BOX 2022","ELIZABETH","CO",80107,NA,NA,86,"PO BOX 2022, ELIZABETH, CO, 80107","No_Match",NA,NA,NA,NA
338587,"PO BOX 2022","JANESVILLE","WI",53547,NA,NA,87,"PO BOX 2022, JANESVILLE, WI, 53547","No_Match",NA,NA,NA,NA
338588,"PO BOX 2022","OTTAWA","IL",61350,NA,NA,88,"PO BOX 2022, OTTAWA, IL, 61350","No_Match",NA,NA,NA,NA
338589,"PO BOX 2022","VERADALE","WA",99037,NA,NA,89,"PO BOX 2022, VERADALE, WA, 99037","No_Match",NA,NA,NA,NA
338590,"PO BOX 202233","SAN ANTONIO","TX",78220,NA,NA,90,"PO BOX 202233, SAN ANTONIO, TX, 78220","No_Match",NA,NA,NA,NA
338591,"PO BOX 20228","HOT SPRINGS","AR",71903,NA,NA,91,"PO BOX 20228, HOT SPRINGS, AR, 71903","No_Match",NA,NA,NA,NA
338592,"PO BOX 2023","KAILUA KONA","HI",96745,NA,NA,92,"PO BOX 2023, KAILUA KONA, HI, 96745","No_Match",NA,NA,NA,NA
338593,"PO BOX 2023","NEW BEDFORD","MA",2741,NA,NA,93,"PO BOX 2023, NEW BEDFORD, MA, 2741","No_Match",NA,NA,NA,NA
338594,"PO BOX 2023","PARKERSBURG","WV",26102,NA,NA,94,"PO BOX 2023, PARKERSBURG, WV, 26102","No_Match",NA,NA,NA,NA
338595,"PO BOX 20234","OAKLAND","CA",94620,NA,NA,95,"PO BOX 20234, OAKLAND, CA, 94620","No_Match",NA,NA,NA,NA
338596,"PO BOX 20236","RENO","NV",89515,NA,NA,96,"PO BOX 20236, RENO, NV, 89515","No_Match",NA,NA,NA,NA
338597,"PO BOX 20237","LONG BEACH","CA",90801,NA,NA,97,"PO BOX 20237, LONG BEACH, CA, 90801","No_Match",NA,NA,NA,NA
338598,"PO BOX 2024","ANTIOCH","TN",37011,NA,NA,98,"PO BOX 2024, ANTIOCH, TN, 37011","No_Match",NA,NA,NA,NA
338599,"PO BOX 2024","BOISE","ID",83701,NA,NA,99,"PO BOX 2024, BOISE, ID, 83701","No_Match",NA,NA,NA,NA
338600,"PO BOX 2024","CRIDERSVILLE","OH",45806,NA,NA,100,"PO BOX 2024, CRIDERSVILLE, OH, 45806","No_Match",NA,NA,NA,NA
338601,"PO BOX 2024","GONZALES","LA",70707,NA,NA,101,"PO BOX 2024, GONZALES, LA, 70707","No_Match",NA,NA,NA,NA
338602,"PO BOX 2024","PECOS","TX",79772,NA,NA,102,"PO BOX 2024, PECOS, TX, 79772","No_Match",NA,NA,NA,NA
338603,"PO BOX 2024","TERRELL","TX",75160,NA,NA,103,"PO BOX 2024, TERRELL, TX, 75160","No_Match",NA,NA,NA,NA
338604,"PO BOX 20242","PHOENIX","AZ",85036,NA,NA,104,"PO BOX 20242, PHOENIX, AZ, 85036","No_Match",NA,NA,NA,NA
338605,"PO BOX 202425","DENVER","CO",80220,NA,NA,105,"PO BOX 202425, DENVER, CO, 80220","No_Match",NA,NA,NA,NA
338606,"PO BOX 20243","MONTGOMERY","AL",36120,NA,NA,106,"PO BOX 20243, MONTGOMERY, AL, 36120","No_Match",NA,NA,NA,NA
338607,"PO BOX 20246","BRADENTON","FL",34204,NA,NA,107,"PO BOX 20246, BRADENTON, FL, 34204","No_Match",NA,NA,NA,NA
338608,"PO BOX 20246","GREENVILLE","NC",27833,NA,NA,108,"PO BOX 20246, GREENVILLE, NC, 27833","No_Match",NA,NA,NA,NA
338609,"PO BOX 20248 C/O MARLENE MONTESINOS","NEWARK","TX",7102,NA,NA,109,"PO BOX 20248 C/O MARLENE MONTESINOS, NEWARK, TX, 7102","No_Match",NA,NA,NA,NA
338610,"PO BOX 2025","BELLEVILLE","MI",48112,NA,NA,110,"PO BOX 2025, BELLEVILLE, MI, 48112","No_Match",NA,NA,NA,NA
338611,"PO BOX 2025","FORT PIERCE","FL",34954,NA,NA,111,"PO BOX 2025, FORT PIERCE, FL, 34954","No_Match",NA,NA,NA,NA
338612,"PO BOX 2025","LARCHMONT","NY",10538,NA,NA,112,"PO BOX 2025, LARCHMONT, NY, 10538","No_Match",NA,NA,NA,NA
338613,"PO BOX 20252","TAMPA","FL",33622,NA,NA,113,"PO BOX 20252, TAMPA, FL, 33622","No_Match",NA,NA,NA,NA
338614,"PO BOX 2026","CEDAR PARK","TX",78630,NA,NA,114,"PO BOX 2026, CEDAR PARK, TX, 78630","No_Match",NA,NA,NA,NA
338615,"PO BOX 2026","HARRISONBURG","VA",22801,NA,NA,115,"PO BOX 2026, HARRISONBURG, VA, 22801","No_Match",NA,NA,NA,NA
338616,"PO BOX 2026","LILLINGTON","NC",27546,NA,NA,116,"PO BOX 2026, LILLINGTON, NC, 27546","No_Match",NA,NA,NA,NA
338617,"PO BOX 202660","NEW HAVEN","CT",6511,NA,NA,117,"PO BOX 202660, NEW HAVEN, CT, 6511","No_Match",NA,NA,NA,NA
338618,"PO BOX 202697","ARLINGTON","TX",76006,NA,NA,118,"PO BOX 202697, ARLINGTON, TX, 76006","No_Match",NA,NA,NA,NA
338619,"PO BOX 2027","PETOSKEY","MI",49770,NA,NA,119,"PO BOX 2027, PETOSKEY, MI, 49770","No_Match",NA,NA,NA,NA
338620,"PO BOX 202707","AUSTIN","TX",78759,NA,NA,120,"PO BOX 202707, AUSTIN, TX, 78759","No_Match",NA,NA,NA,NA
338621,"PO BOX 202720","SHAKER HEIGHTS","OH",44120,NA,NA,121,"PO BOX 202720, SHAKER HEIGHTS, OH, 44120","No_Match",NA,NA,NA,NA
338622,"PO BOX 202735","DENVER","CO",80220,NA,NA,122,"PO BOX 202735, DENVER, CO, 80220","No_Match",NA,NA,NA,NA
338623,"PO BOX 202736","ARLINGTON","TX",76006,NA,NA,123,"PO BOX 202736, ARLINGTON, TX, 76006","No_Match",NA,NA,NA,NA
338624,"PO BOX 20276","OKLAHOMA CITY","OK",73156,NA,NA,124,"PO BOX 20276, OKLAHOMA CITY, OK, 73156","No_Match",NA,NA,NA,NA
338625,"PO BOX 2028","WESTFIELD","MA",1086,NA,NA,125,"PO BOX 2028, WESTFIELD, MA, 1086","No_Match",NA,NA,NA,NA
338626,"PO BOX 2029","BATESBURG-LEESVILLE","SC",29070,NA,NA,126,"PO BOX 2029, BATESBURG-LEESVILLE, SC, 29070","No_Match",NA,NA,NA,NA
338627,"PO BOX 2029","DACULA","GA",30019,NA,NA,127,"PO BOX 2029, DACULA, GA, 30019","No_Match",NA,NA,NA,NA
338628,"PO BOX 2029","SCOTIA","NY",12302,NA,NA,128,"PO BOX 2029, SCOTIA, NY, 12302","No_Match",NA,NA,NA,NA
338629,"PO BOX 20294","PORTLAND","OR",97294,NA,NA,129,"PO BOX 20294, PORTLAND, OR, 97294","No_Match",NA,NA,NA,NA
338630,"PO BOX 20295","OKLAHOMA CITY","OK",73156,NA,NA,130,"PO BOX 20295, OKLAHOMA CITY, OK, 73156","No_Match",NA,NA,NA,NA
338631,"PO BOX 20296","BRADENTON","FL",34204,NA,NA,131,"PO BOX 20296, BRADENTON, FL, 34204","No_Match",NA,NA,NA,NA
338632,"PO BOX 202967","ARLINGTON","TX",76006,NA,NA,132,"PO BOX 202967, ARLINGTON, TX, 76006","No_Match",NA,NA,NA,NA
338633,"PO BOX 203","AITKIN","MN",56431,NA,NA,133,"PO BOX 203, AITKIN, MN, 56431","No_Match",NA,NA,NA,NA
338634,"PO BOX 203","ANGLETON","TX",77516,NA,NA,134,"PO BOX 203, ANGLETON, TX, 77516","No_Match",NA,NA,NA,NA
338635,"PO BOX 203","BLACKWOOD","NJ",8012,NA,NA,135,"PO BOX 203, BLACKWOOD, NJ, 8012","No_Match",NA,NA,NA,NA
338636,"PO BOX 203","BRADFORD","NH",3221,NA,NA,136,"PO BOX 203, BRADFORD, NH, 3221","No_Match",NA,NA,NA,NA
338637,"PO BOX 203","GRAND JUNCTION","CO",81502,NA,NA,137,"PO BOX 203, GRAND JUNCTION, CO, 81502","No_Match",NA,NA,NA,NA
338638,"PO BOX 203","GRAND RAPIDS","ME",55744,NA,NA,138,"PO BOX 203, GRAND RAPIDS, ME, 55744","No_Match",NA,NA,NA,NA
338639,"PO BOX 203","GRAND RIVER","OH",44045,NA,NA,139,"PO BOX 203, GRAND RIVER, OH, 44045","No_Match",NA,NA,NA,NA
338640,"PO BOX 203","HENDERSON","CO",80640,NA,NA,140,"PO BOX 203, HENDERSON, CO, 80640","No_Match",NA,NA,NA,NA
338641,"PO BOX 203","IRVINE","KY",40336,NA,NA,141,"PO BOX 203, IRVINE, KY, 40336","No_Match",NA,NA,NA,NA
338642,"PO BOX 203","LEWISBURG","PA",17837,NA,NA,142,"PO BOX 203, LEWISBURG, PA, 17837","No_Match",NA,NA,NA,NA
338643,"PO BOX 203","MAIZE","KS",67101,NA,NA,143,"PO BOX 203, MAIZE, KS, 67101","No_Match",NA,NA,NA,NA
338644,"PO BOX 203","MANASQUAN","NJ",8736,NA,NA,144,"PO BOX 203, MANASQUAN, NJ, 8736","No_Match",NA,NA,NA,NA
338645,"PO BOX 203","MARLOW","OK",73055,NA,NA,145,"PO BOX 203, MARLOW, OK, 73055","No_Match",NA,NA,NA,NA
338646,"PO BOX 203","MILL NECK","NY",11765,NA,NA,146,"PO BOX 203, MILL NECK, NY, 11765","No_Match",NA,NA,NA,NA
338647,"PO BOX 203","MONTALBA","TX",75853,NA,NA,147,"PO BOX 203, MONTALBA, TX, 75853","No_Match",NA,NA,NA,NA
338648,"PO BOX 203","NEW HARTFORD","CT",6057,NA,NA,148,"PO BOX 203, NEW HARTFORD, CT, 6057","No_Match",NA,NA,NA,NA
338649,"PO BOX 203","NEWBERN","TN",38059,NA,NA,149,"PO BOX 203, NEWBERN, TN, 38059","No_Match",NA,NA,NA,NA
338650,"PO BOX 203","NEWCASTLE","TX",76372,NA,NA,150,"PO BOX 203, NEWCASTLE, TX, 76372","No_Match",NA,NA,NA,NA
338651,"PO BOX 203","PERU","NY",12972,NA,NA,151,"PO BOX 203, PERU, NY, 12972","No_Match",NA,NA,NA,NA
338652,"PO BOX 203","SPENCER","IA",51301,NA,NA,152,"PO BOX 203, SPENCER, IA, 51301","No_Match",NA,NA,NA,NA
338653,"PO BOX 203","SPLENDORA","TX",77372,NA,NA,153,"PO BOX 203, SPLENDORA, TX, 77372","No_Match",NA,NA,NA,NA
338654,"PO BOX 203","SPRING VALLEY","MN",55975,NA,NA,154,"PO BOX 203, SPRING VALLEY, MN, 55975","No_Match",NA,NA,NA,NA
338655,"PO BOX 203","TORONTO","OH",43964,NA,NA,155,"PO BOX 203, TORONTO, OH, 43964","No_Match",NA,NA,NA,NA
338656,"PO BOX 203","TOWANDA","PA",18848,NA,NA,156,"PO BOX 203, TOWANDA, PA, 18848","No_Match",NA,NA,NA,NA
338657,"PO BOX 203","YAKUTAT","AK",99689,NA,NA,157,"PO BOX 203, YAKUTAT, AK, 99689","No_Match",NA,NA,NA,NA
338658,"PO BOX 2030","AUBURNDALE","FL",33823,NA,NA,158,"PO BOX 2030, AUBURNDALE, FL, 33823","No_Match",NA,NA,NA,NA
338659,"PO BOX 2030","MAYAGUEZ","PR",681,NA,NA,159,"PO BOX 2030, MAYAGUEZ, PR, 681","No_Match",NA,NA,NA,NA
338660,"PO BOX 2030","PERRY","GA",31069,NA,NA,160,"PO BOX 2030, PERRY, GA, 31069","No_Match",NA,NA,NA,NA
338661,"PO BOX 2030","SPRINDGALE","AR",72765,NA,NA,161,"PO BOX 2030, SPRINDGALE, AR, 72765","No_Match",NA,NA,NA,NA
338662,"PO BOX 2031","BALA CYNWYD","PA",19004,NA,NA,162,"PO BOX 2031, BALA CYNWYD, PA, 19004","No_Match",NA,NA,NA,NA
338663,"PO BOX 2031","BELLINGHAM","WA",98227,NA,NA,163,"PO BOX 2031, BELLINGHAM, WA, 98227","No_Match",NA,NA,NA,NA
338664,"PO BOX 2031","ROSEBURG","OR",97470,NA,NA,164,"PO BOX 2031, ROSEBURG, OR, 97470","No_Match",NA,NA,NA,NA
338665,"PO BOX 2031","SAN GABRIEL","CA",91778,NA,NA,165,"PO BOX 2031, SAN GABRIEL, CA, 91778","No_Match",NA,NA,NA,NA
338666,"PO BOX 2031","SAPULPA","OK",74067,NA,NA,166,"PO BOX 2031, SAPULPA, OK, 74067","No_Match",NA,NA,NA,NA
338667,"PO BOX 20314","NEWARK","NJ",7101,NA,NA,167,"PO BOX 20314, NEWARK, NJ, 7101","No_Match",NA,NA,NA,NA
338668,"PO BOX 2032","LOS ALTOS","CA",94023,NA,NA,168,"PO BOX 2032, LOS ALTOS, CA, 94023","No_Match",NA,NA,NA,NA
338669,"PO BOX 2032","ROUND ROCK","TX",78680,NA,NA,169,"PO BOX 2032, ROUND ROCK, TX, 78680","No_Match",NA,NA,NA,NA
338670,"PO BOX 203264","AUSTIN","TX",78720,NA,NA,170,"PO BOX 203264, AUSTIN, TX, 78720","No_Match",NA,NA,NA,NA
338671,"PO BOX 2033","LOGAN","WV",25601,NA,NA,171,"PO BOX 2033, LOGAN, WV, 25601","No_Match",NA,NA,NA,NA
338672,"PO BOX 2033","MOULTRIE","GA",31776,NA,NA,172,"PO BOX 2033, MOULTRIE, GA, 31776","No_Match",NA,NA,NA,NA
338673,"PO BOX 2033","SNOQUALMIE","WA",98065,NA,NA,173,"PO BOX 2033, SNOQUALMIE, WA, 98065","No_Match",NA,NA,NA,NA
338674,"PO BOX 2033","WACO","TX",76703,NA,NA,174,"PO BOX 2033, WACO, TX, 76703","No_Match",NA,NA,NA,NA
338675,"PO BOX 203341","AUSTIN","TX",78720,NA,NA,175,"PO BOX 203341, AUSTIN, TX, 78720","No_Match",NA,NA,NA,NA
338676,"PO BOX 20347","ATLANTA","GA",30325,NA,NA,176,"PO BOX 20347, ATLANTA, GA, 30325","No_Match",NA,NA,NA,NA
338677,"PO BOX 2035","PARKERSBURG","WV",26102,NA,NA,177,"PO BOX 2035, PARKERSBURG, WV, 26102","No_Match",NA,NA,NA,NA
338678,"PO BOX 2035","PINE RIDGE","SD",57770,NA,NA,178,"PO BOX 2035, PINE RIDGE, SD, 57770","No_Match",NA,NA,NA,NA
338679,"PO BOX 20350","INDIANAPOLIS","IN",46220,NA,NA,179,"PO BOX 20350, INDIANAPOLIS, IN, 46220","No_Match",NA,NA,NA,NA
338680,"PO BOX 20352","NEW YORK","NY",10001,NA,NA,180,"PO BOX 20352, NEW YORK, NY, 10001","No_Match",NA,NA,NA,NA
338681,"PO BOX 2036","BENTONVILLE","AR",72712,NA,NA,181,"PO BOX 2036, BENTONVILLE, AR, 72712","No_Match",NA,NA,NA,NA
338682,"PO BOX 2036","CAROLINA BEACH","NC",28428,NA,NA,182,"PO BOX 2036, CAROLINA BEACH, NC, 28428","No_Match",NA,NA,NA,NA
338683,"PO BOX 2036","OAKHURST","CA",93644,NA,NA,183,"PO BOX 2036, OAKHURST, CA, 93644","No_Match",NA,NA,NA,NA
338684,"PO BOX 20365","HOUSTON","TX",77225,NA,NA,184,"PO BOX 20365, HOUSTON, TX, 77225","No_Match",NA,NA,NA,NA
338685,"PO BOX 20379   55 N PARKWAY","COLORADO CITY","CO",81019,NA,NA,185,"PO BOX 20379   55 N PARKWAY, COLORADO CITY, CO, 81019","Tie",NA,NA,NA,NA
338686,"PO BOX 20379 55 N PARKWAY","COLORADO CITY","CO",81019,NA,NA,186,"PO BOX 20379 55 N PARKWAY, COLORADO CITY, CO, 81019","Tie",NA,NA,NA,NA
338687,"PO BOX 2038","BRISTOL","PA",19007,NA,NA,187,"PO BOX 2038, BRISTOL, PA, 19007","No_Match",NA,NA,NA,NA
338688,"PO BOX 2038","CHESTER","SC",29706,NA,NA,188,"PO BOX 2038, CHESTER, SC, 29706","No_Match",NA,NA,NA,NA
338689,"PO BOX 2038","GAFFNEY","SC",29342,NA,NA,189,"PO BOX 2038, GAFFNEY, SC, 29342","No_Match",NA,NA,NA,NA
338690,"PO BOX 2038","NEW YORK","NY",10021,NA,NA,190,"PO BOX 2038, NEW YORK, NY, 10021","No_Match",NA,NA,NA,NA
338691,"PO BOX 2038","TAPPAHANNOCK","VA",22560,NA,NA,191,"PO BOX 2038, TAPPAHANNOCK, VA, 22560","No_Match",NA,NA,NA,NA
338692,"PO BOX 20381","PHOENIX","AZ",85036,NA,NA,192,"PO BOX 20381, PHOENIX, AZ, 85036","No_Match",NA,NA,NA,NA
338693,"PO BOX 2039","SANTA ROSA BEACH","FL",32459,NA,NA,193,"PO BOX 2039, SANTA ROSA BEACH, FL, 32459","No_Match",NA,NA,NA,NA
338694,"PO BOX 20392","BAKERSFIELD","CA",93390,NA,NA,194,"PO BOX 20392, BAKERSFIELD, CA, 93390","No_Match",NA,NA,NA,NA
338695,"PO BOX 20392","CASTRO VALLEY","CA",94546,NA,NA,195,"PO BOX 20392, CASTRO VALLEY, CA, 94546","No_Match",NA,NA,NA,NA
338696,"PO BOX 20393","ATLANTA","GA",30318,NA,NA,196,"PO BOX 20393, ATLANTA, GA, 30318","No_Match",NA,NA,NA,NA
338697,"PO BOX 203965","AUSTIN","TX",78720,NA,NA,197,"PO BOX 203965, AUSTIN, TX, 78720","No_Match",NA,NA,NA,NA
338698,"PO BOX 204","AUGUSTA","KY",41002,NA,NA,198,"PO BOX 204, AUGUSTA, KY, 41002","No_Match",NA,NA,NA,NA
338699,"PO BOX 204","AUSTIN","TX",78767,NA,NA,199,"PO BOX 204, AUSTIN, TX, 78767","No_Match",NA,NA,NA,NA
338700,"PO BOX 204","AVANT","OK",74001,NA,NA,200,"PO BOX 204, AVANT, OK, 74001","No_Match",NA,NA,NA,NA
338701,"PO BOX 204","AVELLA","PA",15312,NA,NA,201,"PO BOX 204, AVELLA, PA, 15312","No_Match",NA,NA,NA,NA
338702,"PO BOX 204","BLACKWOOD","NJ",8012,NA,NA,202,"PO BOX 204, BLACKWOOD, NJ, 8012","No_Match",NA,NA,NA,NA
338703,"PO BOX 204","BONITA","CA",91908,NA,NA,203,"PO BOX 204, BONITA, CA, 91908","No_Match",NA,NA,NA,NA
338704,"PO BOX 204","BREVARD","NC",28712,NA,NA,204,"PO BOX 204, BREVARD, NC, 28712","No_Match",NA,NA,NA,NA
338705,"PO BOX 204","BUNNELL","FL",32110,NA,NA,205,"PO BOX 204, BUNNELL, FL, 32110","No_Match",NA,NA,NA,NA
338706,"PO BOX 204","CLOSTER","NJ",7624,NA,NA,206,"PO BOX 204, CLOSTER, NJ, 7624","No_Match",NA,NA,NA,NA
338707,"PO BOX 204","COLUMBUS","IN",47202,NA,NA,207,"PO BOX 204, COLUMBUS, IN, 47202","No_Match",NA,NA,NA,NA
338708,"PO BOX 204","DAYTON","OH",45401,NA,NA,208,"PO BOX 204, DAYTON, OH, 45401","No_Match",NA,NA,NA,NA
338709,"PO BOX 204","DYERSBURG","TN",38025,NA,NA,209,"PO BOX 204, DYERSBURG, TN, 38025","No_Match",NA,NA,NA,NA
338710,"PO BOX 204","FALMOUTH","KY",41040,NA,NA,210,"PO BOX 204, FALMOUTH, KY, 41040","No_Match",NA,NA,NA,NA
338711,"PO BOX 204","FRANCESVILLE","IN",47946,NA,NA,211,"PO BOX 204, FRANCESVILLE, IN, 47946","No_Match",NA,NA,NA,NA
338712,"PO BOX 204","GOLDEN","CO",80402,NA,NA,212,"PO BOX 204, GOLDEN, CO, 80402","No_Match",NA,NA,NA,NA
338713,"PO BOX 204","HALLSVILLE","TX",75650,NA,NA,213,"PO BOX 204, HALLSVILLE, TX, 75650","No_Match",NA,NA,NA,NA
338714,"PO BOX 204","IRMO","SC",29063,NA,NA,214,"PO BOX 204, IRMO, SC, 29063","No_Match",NA,NA,NA,NA
338715,"PO BOX 204","KINGSVILLE","OH",44048,NA,NA,215,"PO BOX 204, KINGSVILLE, OH, 44048","No_Match",NA,NA,NA,NA
338716,"PO BOX 204","LAGRANGEVILLE","NY",12540,NA,NA,216,"PO BOX 204, LAGRANGEVILLE, NY, 12540","No_Match",NA,NA,NA,NA
338717,"PO BOX 204","LIBERTY LAKE","WA",99019,NA,NA,217,"PO BOX 204, LIBERTY LAKE, WA, 99019","No_Match",NA,NA,NA,NA
338718,"PO BOX 204","LINCOLNVILLE","ME",4849,NA,NA,218,"PO BOX 204, LINCOLNVILLE, ME, 4849","No_Match",NA,NA,NA,NA
338719,"PO BOX 204","LUMMI ISLAND","WA",98262,NA,NA,219,"PO BOX 204, LUMMI ISLAND, WA, 98262","No_Match",NA,NA,NA,NA
338720,"PO BOX 204","MARQUETTE","MI",49855,NA,NA,220,"PO BOX 204, MARQUETTE, MI, 49855","No_Match",NA,NA,NA,NA
338721,"PO BOX 204","MINFORD","OH",45653,NA,NA,221,"PO BOX 204, MINFORD, OH, 45653","No_Match",NA,NA,NA,NA
338722,"PO BOX 204","MINOCQUA","WI",54548,NA,NA,222,"PO BOX 204, MINOCQUA, WI, 54548","No_Match",NA,NA,NA,NA
338723,"PO BOX 204","NEENAH","WI",54957,NA,NA,223,"PO BOX 204, NEENAH, WI, 54957","No_Match",NA,NA,NA,NA
338724,"PO BOX 204","OAKLAND","OR",97462,NA,NA,224,"PO BOX 204, OAKLAND, OR, 97462","No_Match",NA,NA,NA,NA
338725,"PO BOX 204","OMEGA","GA",31775,NA,NA,225,"PO BOX 204, OMEGA, GA, 31775","No_Match",NA,NA,NA,NA
338726,"PO BOX 204","PARIS","ID",83261,NA,NA,226,"PO BOX 204, PARIS, ID, 83261","No_Match",NA,NA,NA,NA
338727,"PO BOX 204","PHELPS","WI",54554,NA,NA,227,"PO BOX 204, PHELPS, WI, 54554","No_Match",NA,NA,NA,NA
338728,"PO BOX 204","PILOT POINT","TX",76258,NA,NA,228,"PO BOX 204, PILOT POINT, TX, 76258","No_Match",NA,NA,NA,NA
338729,"PO BOX 204","PITTSFIELD","IL",62363,NA,NA,229,"PO BOX 204, PITTSFIELD, IL, 62363","No_Match",NA,NA,NA,NA
338730,"PO BOX 204","ROSELLE PARK","NJ",7204,NA,NA,230,"PO BOX 204, ROSELLE PARK, NJ, 7204","No_Match",NA,NA,NA,NA
338731,"PO BOX 204","SHOSHONI","WY",82649,NA,NA,231,"PO BOX 204, SHOSHONI, WY, 82649","No_Match",NA,NA,NA,NA
338732,"PO BOX 204","STRAFFORD","NH",3884,NA,NA,232,"PO BOX 204, STRAFFORD, NH, 3884","No_Match",NA,NA,NA,NA
338733,"PO BOX 204","TIPTON","IA",52772,NA,NA,233,"PO BOX 204, TIPTON, IA, 52772","No_Match",NA,NA,NA,NA
338734,"PO BOX 204","WHITE HEATH","IL",61884,NA,NA,234,"PO BOX 204, WHITE HEATH, IL, 61884","No_Match",NA,NA,NA,NA
338735,"PO BOX 20401","KEIZER","OR",97307,NA,NA,235,"PO BOX 20401, KEIZER, OR, 97307","No_Match",NA,NA,NA,NA
338736,"PO BOX 2041","AGUADA","PR",602,NA,NA,236,"PO BOX 2041, AGUADA, PR, 602","No_Match",NA,NA,NA,NA
338737,"PO BOX 2041","PORTLAND","OR",97201,NA,NA,237,"PO BOX 2041, PORTLAND, OR, 97201","No_Match",NA,NA,NA,NA
338738,"PO BOX 20419","NEW YORK","NY",10023,NA,NA,238,"PO BOX 20419, NEW YORK, NY, 10023","No_Match",NA,NA,NA,NA
338739,"PO BOX 2042","FRIENDSWOOD","TX",77549,NA,NA,239,"PO BOX 2042, FRIENDSWOOD, TX, 77549","No_Match",NA,NA,NA,NA
338740,"PO BOX 2042","MARSHALL","TX",75671,NA,NA,240,"PO BOX 2042, MARSHALL, TX, 75671","No_Match",NA,NA,NA,NA
338741,"PO BOX 2042","PATERSON","NJ",7509,NA,NA,241,"PO BOX 2042, PATERSON, NJ, 7509","No_Match",NA,NA,NA,NA
338742,"PO BOX 2042","STOCKTON","CA",95201,NA,NA,242,"PO BOX 2042, STOCKTON, CA, 95201","No_Match",NA,NA,NA,NA
338743,"PO BOX 2042","TIFTON","GA",31793,NA,NA,243,"PO BOX 2042, TIFTON, GA, 31793","No_Match",NA,NA,NA,NA
338744,"PO BOX 2042","WEATHERFORD","TX",76086,NA,NA,244,"PO BOX 2042, WEATHERFORD, TX, 76086","No_Match",NA,NA,NA,NA
338745,"PO BOX 2043","CULLOWHEE","NC",28723,NA,NA,245,"PO BOX 2043, CULLOWHEE, NC, 28723","No_Match",NA,NA,NA,NA
338746,"PO BOX 2043","OROVILLE","WA",98844,NA,NA,246,"PO BOX 2043, OROVILLE, WA, 98844","No_Match",NA,NA,NA,NA
338747,"PO BOX 2043","PURCELLVILLE","VA",20134,NA,NA,247,"PO BOX 2043, PURCELLVILLE, VA, 20134","No_Match",NA,NA,NA,NA
338748,"PO BOX 2043","THOMPSON FALLS","MT",59873,NA,NA,248,"PO BOX 2043, THOMPSON FALLS, MT, 59873","No_Match",NA,NA,NA,NA
338749,"PO BOX 2043","WOODVILLE","TX",75979,NA,NA,249,"PO BOX 2043, WOODVILLE, TX, 75979","No_Match",NA,NA,NA,NA
338750,"PO BOX 204312","AUSTIN","TX",78720,NA,NA,250,"PO BOX 204312, AUSTIN, TX, 78720","No_Match",NA,NA,NA,NA
338751,"PO BOX 20433","HOUSTON","TX",77225,NA,NA,251,"PO BOX 20433, HOUSTON, TX, 77225","No_Match",NA,NA,NA,NA
338752,"PO BOX 20435","NEW YORK","NY",10021,NA,NA,252,"PO BOX 20435, NEW YORK, NY, 10021","No_Match",NA,NA,NA,NA
338753,"PO BOX 2044","FAIR OAKS","CA",95628,NA,NA,253,"PO BOX 2044, FAIR OAKS, CA, 95628","No_Match",NA,NA,NA,NA
338754,"PO BOX 2044","LAFAYETTE","LA",70502,NA,NA,254,"PO BOX 2044, LAFAYETTE, LA, 70502","No_Match",NA,NA,NA,NA
338755,"PO BOX 2044","LOWER BURRELL","PA",15068,NA,NA,255,"PO BOX 2044, LOWER BURRELL, PA, 15068","No_Match",NA,NA,NA,NA
338756,"PO BOX 2044","LUTZ","FL",33548,NA,NA,256,"PO BOX 2044, LUTZ, FL, 33548","No_Match",NA,NA,NA,NA
338757,"PO BOX 2044","RIDGWAY","CO",81432,NA,NA,257,"PO BOX 2044, RIDGWAY, CO, 81432","No_Match",NA,NA,NA,NA
338758,"PO BOX 2044","RIVERVIEW","FL",33568,NA,NA,258,"PO BOX 2044, RIVERVIEW, FL, 33568","No_Match",NA,NA,NA,NA
338759,"PO BOX 2044","SALINA","KS",67402,NA,NA,259,"PO BOX 2044, SALINA, KS, 67402","No_Match",NA,NA,NA,NA
338760,"PO BOX 20442","OKLAHOMA CITY","OK",73156,NA,NA,260,"PO BOX 20442, OKLAHOMA CITY, OK, 73156","No_Match",NA,NA,NA,NA
338761,"PO BOX 20443","TUSCALOOSA","AL",35402,NA,NA,261,"PO BOX 20443, TUSCALOOSA, AL, 35402","No_Match",NA,NA,NA,NA
338762,"PO BOX 2045","CASPER","WY",82602,NA,NA,262,"PO BOX 2045, CASPER, WY, 82602","No_Match",NA,NA,NA,NA
338763,"PO BOX 2045","FOREST","VA",24551,NA,NA,263,"PO BOX 2045, FOREST, VA, 24551","No_Match",NA,NA,NA,NA
338764,"PO BOX 20452","STANFORD","CA",94309,NA,NA,264,"PO BOX 20452, STANFORD, CA, 94309","No_Match",NA,NA,NA,NA
338765,"PO BOX 20461","WICHITA","KS",67208,NA,NA,265,"PO BOX 20461, WICHITA, KS, 67208","No_Match",NA,NA,NA,NA
338766,"PO BOX 2047","BOLINGBROOK","IL",60440,NA,NA,266,"PO BOX 2047, BOLINGBROOK, IL, 60440","No_Match",NA,NA,NA,NA
338767,"PO BOX 2047","CEDAR HILL","TX",75106,NA,NA,267,"PO BOX 2047, CEDAR HILL, TX, 75106","No_Match",NA,NA,NA,NA
338768,"PO BOX 2047","CORVALLIS","OR",97339,NA,NA,268,"PO BOX 2047, CORVALLIS, OR, 97339","No_Match",NA,NA,NA,NA
338769,"PO BOX 20472","CANTON","OH",44710,NA,NA,269,"PO BOX 20472, CANTON, OH, 44710","No_Match",NA,NA,NA,NA
338770,"PO BOX 20473","STATEN ISLAND","NY",10302,NA,NA,270,"PO BOX 20473, STATEN ISLAND, NY, 10302","No_Match",NA,NA,NA,NA
338771,"PO BOX 20474","CHARLESTON","SC",29413,NA,NA,271,"PO BOX 20474, CHARLESTON, SC, 29413","No_Match",NA,NA,NA,NA
338772,"PO BOX 204845","NEW HAVEN","CT",6520,NA,NA,272,"PO BOX 204845, NEW HAVEN, CT, 6520","No_Match",NA,NA,NA,NA
338773,"PO BOX 20487","TALLAHASSEE","FL",32310,NA,NA,273,"PO BOX 20487, TALLAHASSEE, FL, 32310","No_Match",NA,NA,NA,NA
338774,"PO BOX 205","ASHLAND CITY","TN",37015,NA,NA,274,"PO BOX 205, ASHLAND CITY, TN, 37015","No_Match",NA,NA,NA,NA
338775,"PO BOX 205","BARBERVILLE","FL",32105,NA,NA,275,"PO BOX 205, BARBERVILLE, FL, 32105","No_Match",NA,NA,NA,NA
338776,"PO BOX 205","BATESVILLE","IN",47006,NA,NA,276,"PO BOX 205, BATESVILLE, IN, 47006","No_Match",NA,NA,NA,NA
338777,"PO BOX 205","BATH","NY",14810,NA,NA,277,"PO BOX 205, BATH, NY, 14810","No_Match",NA,NA,NA,NA
338778,"PO BOX 205","BERKELEY","CA",94701,NA,NA,278,"PO BOX 205, BERKELEY, CA, 94701","No_Match",NA,NA,NA,NA
338779,"PO BOX 205","BURNS","TN",37029,NA,NA,279,"PO BOX 205, BURNS, TN, 37029","No_Match",NA,NA,NA,NA
338780,"PO BOX 205","CASTLE ROCK","CO",80104,NA,NA,280,"PO BOX 205, CASTLE ROCK, CO, 80104","No_Match",NA,NA,NA,NA
338781,"PO BOX 205","CENTRAL FALLS","RI",2863,NA,NA,281,"PO BOX 205, CENTRAL FALLS, RI, 2863","No_Match",NA,NA,NA,NA
338782,"PO BOX 205","CHICO","CA",95927,NA,NA,282,"PO BOX 205, CHICO, CA, 95927","No_Match",NA,NA,NA,NA
338783,"PO BOX 205","COALGATE","OK",74538,NA,NA,283,"PO BOX 205, COALGATE, OK, 74538","No_Match",NA,NA,NA,NA
338784,"PO BOX 205","DEWITT","AR",72042,NA,NA,284,"PO BOX 205, DEWITT, AR, 72042","No_Match",NA,NA,NA,NA
338785,"PO BOX 205","EASLEY","SC",29641,NA,NA,285,"PO BOX 205, EASLEY, SC, 29641","No_Match",NA,NA,NA,NA
338786,"PO BOX 205","FOND DU LAC","WI",54936,NA,NA,286,"PO BOX 205, FOND DU LAC, WI, 54936","No_Match",NA,NA,NA,NA
338787,"PO BOX 205","GALION","OH",44833,NA,NA,287,"PO BOX 205, GALION, OH, 44833","No_Match",NA,NA,NA,NA
338788,"PO BOX 205","GRANBURY","TX",76048,NA,NA,288,"PO BOX 205, GRANBURY, TX, 76048","No_Match",NA,NA,NA,NA
338789,"PO BOX 205","GREEN BANK","WV",24944,NA,NA,289,"PO BOX 205, GREEN BANK, WV, 24944","No_Match",NA,NA,NA,NA
338790,"PO BOX 205","HARRINGTON","DE",19952,NA,NA,290,"PO BOX 205, HARRINGTON, DE, 19952","No_Match",NA,NA,NA,NA
338791,"PO BOX 205","HIGHLANDS","NJ",7732,NA,NA,291,"PO BOX 205, HIGHLANDS, NJ, 7732","No_Match",NA,NA,NA,NA
338792,"PO BOX 205","HUTSONVILLE","IL",62433,NA,NA,292,"PO BOX 205, HUTSONVILLE, IL, 62433","No_Match",NA,NA,NA,NA
338793,"PO BOX 205","LAKE NEBAGAMON","WI",54849,NA,NA,293,"PO BOX 205, LAKE NEBAGAMON, WI, 54849","No_Match",NA,NA,NA,NA
338794,"PO BOX 205","LANETT","AL",36863,NA,NA,294,"PO BOX 205, LANETT, AL, 36863","No_Match",NA,NA,NA,NA
338795,"PO BOX 205","LIBERTY","ME",4949,NA,NA,295,"PO BOX 205, LIBERTY, ME, 4949","No_Match",NA,NA,NA,NA
338796,"PO BOX 205","MADISON","FL",32341,NA,NA,296,"PO BOX 205, MADISON, FL, 32341","No_Match",NA,NA,NA,NA
338797,"PO BOX 205","MORRISVILLE","NC",27560,NA,NA,297,"PO BOX 205, MORRISVILLE, NC, 27560","No_Match",NA,NA,NA,NA
338798,"PO BOX 205","SEATTLE","WA",98199,NA,NA,298,"PO BOX 205, SEATTLE, WA, 98199","No_Match",NA,NA,NA,NA
338799,"PO BOX 205","SNEADS FERRY","NC",28460,NA,NA,299,"PO BOX 205, SNEADS FERRY, NC, 28460","No_Match",NA,NA,NA,NA
338800,"PO BOX 205","STEVENSVILLE","MT",59870,NA,NA,300,"PO BOX 205, STEVENSVILLE, MT, 59870","No_Match",NA,NA,NA,NA
338801,"PO BOX 205","SYRACUSE","NY",13205,NA,NA,301,"PO BOX 205, SYRACUSE, NY, 13205","No_Match",NA,NA,NA,NA
338802,"PO BOX 205","TIPTON","IN",46072,NA,NA,302,"PO BOX 205, TIPTON, IN, 46072","No_Match",NA,NA,NA,NA
338803,"PO BOX 205","TUNICA","MS",38676,NA,NA,303,"PO BOX 205, TUNICA, MS, 38676","No_Match",NA,NA,NA,NA
338804,"PO BOX 205","WAYNESVILLE","NC",28786,NA,NA,304,"PO BOX 205, WAYNESVILLE, NC, 28786","No_Match",NA,NA,NA,NA
338805,"PO BOX 2050","ANGLETON","TX",77516,NA,NA,305,"PO BOX 2050, ANGLETON, TX, 77516","No_Match",NA,NA,NA,NA
338806,"PO BOX 20502","JUNEAU","AK",99802,NA,NA,306,"PO BOX 20502, JUNEAU, AK, 99802","No_Match",NA,NA,NA,NA
338807,"PO BOX 20507","ALBUQUERQUE","NM",87111,NA,NA,307,"PO BOX 20507, ALBUQUERQUE, NM, 87111","No_Match",NA,NA,NA,NA
338808,"PO BOX 20509","BALTIMORE","MD",21223,NA,NA,308,"PO BOX 20509, BALTIMORE, MD, 21223","No_Match",NA,NA,NA,NA
338809,"PO BOX 2051","AMHERST","MA",1004,NA,NA,309,"PO BOX 2051, AMHERST, MA, 1004","No_Match",NA,NA,NA,NA
338810,"PO BOX 2051","ATHENS","TX",75751,NA,NA,310,"PO BOX 2051, ATHENS, TX, 75751","No_Match",NA,NA,NA,NA
338811,"PO BOX 2051","AUBURN","NY",13021,NA,NA,311,"PO BOX 2051, AUBURN, NY, 13021","No_Match",NA,NA,NA,NA
338812,"PO BOX 2051","BURLINGTON","NC",27216,NA,NA,312,"PO BOX 2051, BURLINGTON, NC, 27216","No_Match",NA,NA,NA,NA
338813,"PO BOX 2051","DURHAM","NC",27703,NA,NA,313,"PO BOX 2051, DURHAM, NC, 27703","No_Match",NA,NA,NA,NA
338814,"PO BOX 2051","HENDERSON","NC",27536,NA,NA,314,"PO BOX 2051, HENDERSON, NC, 27536","No_Match",NA,NA,NA,NA
338815,"PO BOX 2051","SHAWNEE MISSION","KS",66202,NA,NA,315,"PO BOX 2051, SHAWNEE MISSION, KS, 66202","No_Match",NA,NA,NA,NA
338816,"PO BOX 2051","SPOTSYLVANIA","VA",22553,NA,NA,316,"PO BOX 2051, SPOTSYLVANIA, VA, 22553","No_Match",NA,NA,NA,NA
338817,"PO BOX 20519","CHEYENNE","WY",82003,NA,NA,317,"PO BOX 20519, CHEYENNE, WY, 82003","No_Match",NA,NA,NA,NA
338818,"PO BOX 2052","CODY","WY",82414,NA,NA,318,"PO BOX 2052, CODY, WY, 82414","No_Match",NA,NA,NA,NA
338819,"PO BOX 2053","DURYEA","PA",18642,NA,NA,319,"PO BOX 2053, DURYEA, PA, 18642","No_Match",NA,NA,NA,NA
338820,"PO BOX 2053","MOUNT VERNON","WA",98273,NA,NA,320,"PO BOX 2053, MOUNT VERNON, WA, 98273","No_Match",NA,NA,NA,NA
338821,"PO BOX 2053","TARPON SPRINGS","FL",34689,NA,NA,321,"PO BOX 2053, TARPON SPRINGS, FL, 34689","No_Match",NA,NA,NA,NA
338822,"PO BOX 2054","CLEONA","PA",17042,NA,NA,322,"PO BOX 2054, CLEONA, PA, 17042","No_Match",NA,NA,NA,NA
338823,"PO BOX 2054","MARIETTA","GA",30061,NA,NA,323,"PO BOX 2054, MARIETTA, GA, 30061","No_Match",NA,NA,NA,NA
338824,"PO BOX 2054","PRESTONSBURG","KY",41653,NA,NA,324,"PO BOX 2054, PRESTONSBURG, KY, 41653","No_Match",NA,NA,NA,NA
338825,"PO BOX 20545","SARASOTA","FL",34276,NA,NA,325,"PO BOX 20545, SARASOTA, FL, 34276","No_Match",NA,NA,NA,NA
338826,"PO BOX 2055","PAHOA","HI",96778,NA,NA,326,"PO BOX 2055, PAHOA, HI, 96778","No_Match",NA,NA,NA,NA
338827,"PO BOX 20551","WORCESTER","MA",1602,NA,NA,327,"PO BOX 20551, WORCESTER, MA, 1602","No_Match",NA,NA,NA,NA
338828,"PO BOX 20554","RENO","NV",89515,NA,NA,328,"PO BOX 20554, RENO, NV, 89515","No_Match",NA,NA,NA,NA
338829,"PO BOX 2057","EVANSVILLE","IN",47728,NA,NA,329,"PO BOX 2057, EVANSVILLE, IN, 47728","No_Match",NA,NA,NA,NA
338830,"PO BOX 2057","NORTH BEND","WA",98045,NA,NA,330,"PO BOX 2057, NORTH BEND, WA, 98045","No_Match",NA,NA,NA,NA
338831,"PO BOX 2057","OLIVE BRANCH","MS",38654,NA,NA,331,"PO BOX 2057, OLIVE BRANCH, MS, 38654","No_Match",NA,NA,NA,NA
338832,"PO BOX 2057","UNIVERSAL CITY","TX",78148,NA,NA,332,"PO BOX 2057, UNIVERSAL CITY, TX, 78148","No_Match",NA,NA,NA,NA
338833,"PO BOX 20576","JUNEAU","AK",99802,NA,NA,333,"PO BOX 20576, JUNEAU, AK, 99802","No_Match",NA,NA,NA,NA
338834,"PO BOX 2058","WESTERLY","RI",2891,NA,NA,334,"PO BOX 2058, WESTERLY, RI, 2891","No_Match",NA,NA,NA,NA
338835,"PO BOX 2059","RIDGECREST","CA",93556,NA,NA,335,"PO BOX 2059, RIDGECREST, CA, 93556","No_Match",NA,NA,NA,NA
338836,"PO BOX 2059","ST AUGUSTINE","FL",32085,NA,NA,336,"PO BOX 2059, ST AUGUSTINE, FL, 32085","No_Match",NA,NA,NA,NA
338837,"PO BOX 20596","WHITE HALL","AR",71602,NA,NA,337,"PO BOX 20596, WHITE HALL, AR, 71602","No_Match",NA,NA,NA,NA
338838,"PO BOX 206","AHOSKIE","NC",27910,NA,NA,338,"PO BOX 206, AHOSKIE, NC, 27910","No_Match",NA,NA,NA,NA
338839,"PO BOX 206","BARRINGTON","NJ",8007,NA,NA,339,"PO BOX 206, BARRINGTON, NJ, 8007","No_Match",NA,NA,NA,NA
338840,"PO BOX 206","BRUTUS","MI",49716,NA,NA,340,"PO BOX 206, BRUTUS, MI, 49716","No_Match",NA,NA,NA,NA
338841,"PO BOX 206","BUTLER","AL",36904,NA,NA,341,"PO BOX 206, BUTLER, AL, 36904","No_Match",NA,NA,NA,NA
338842,"PO BOX 206","DRYDEN","VA",24243,NA,NA,342,"PO BOX 206, DRYDEN, VA, 24243","No_Match",NA,NA,NA,NA
338843,"PO BOX 206","EBEN JUNCTION","MI",49825,NA,NA,343,"PO BOX 206, EBEN JUNCTION, MI, 49825","No_Match",NA,NA,NA,NA
338844,"PO BOX 206","FRUITPORT","MI",49415,NA,NA,344,"PO BOX 206, FRUITPORT, MI, 49415","No_Match",NA,NA,NA,NA
338845,"PO BOX 206","HORSEHEADS","NY",14845,NA,NA,345,"PO BOX 206, HORSEHEADS, NY, 14845","No_Match",NA,NA,NA,NA
338846,"PO BOX 206","KINMUNDY","IL",62854,NA,NA,346,"PO BOX 206, KINMUNDY, IL, 62854","No_Match",NA,NA,NA,NA
338847,"PO BOX 206","LAKELAND","MI",48143,NA,NA,347,"PO BOX 206, LAKELAND, MI, 48143","No_Match",NA,NA,NA,NA
338848,"PO BOX 206","LINCOLN","AR",72744,NA,NA,348,"PO BOX 206, LINCOLN, AR, 72744","No_Match",NA,NA,NA,NA
338849,"PO BOX 206","MEETEETSE","WY",82433,NA,NA,349,"PO BOX 206, MEETEETSE, WY, 82433","No_Match",NA,NA,NA,NA
338850,"PO BOX 206","MOLALLA","OR",97038,NA,NA,350,"PO BOX 206, MOLALLA, OR, 97038","No_Match",NA,NA,NA,NA
338851,"PO BOX 206","MOUNTAIN TOP","PA",18707,NA,NA,351,"PO BOX 206, MOUNTAIN TOP, PA, 18707","No_Match",NA,NA,NA,NA
338852,"PO BOX 206","PORT ST JOE","FL",32457,NA,NA,352,"PO BOX 206, PORT ST JOE, FL, 32457","No_Match",NA,NA,NA,NA
338853,"PO BOX 206","RINGGOLD","GA",30736,NA,NA,353,"PO BOX 206, RINGGOLD, GA, 30736","No_Match",NA,NA,NA,NA
338854,"PO BOX 206","ROBSTONW","TX",78380,NA,NA,354,"PO BOX 206, ROBSTONW, TX, 78380","No_Match",NA,NA,NA,NA
338855,"PO BOX 206","ROSEVILLE","MI",48066,NA,NA,355,"PO BOX 206, ROSEVILLE, MI, 48066","No_Match",NA,NA,NA,NA
338856,"PO BOX 206","SCOTTSBURG","IN",47170,NA,NA,356,"PO BOX 206, SCOTTSBURG, IN, 47170","No_Match",NA,NA,NA,NA
338857,"PO BOX 206","WARRENSBURG","IL",62573,NA,NA,357,"PO BOX 206, WARRENSBURG, IL, 62573","No_Match",NA,NA,NA,NA
338858,"PO BOX 206","WILMOT","AR",71676,NA,NA,358,"PO BOX 206, WILMOT, AR, 71676","No_Match",NA,NA,NA,NA
338859,"PO BOX 20600","TALLAHASSEE","FL",32316,NA,NA,359,"PO BOX 20600, TALLAHASSEE, FL, 32316","No_Match",NA,NA,NA,NA
338860,"PO BOX 20606","BLOOMINGTON","MN",55420,NA,NA,360,"PO BOX 20606, BLOOMINGTON, MN, 55420","No_Match",NA,NA,NA,NA
338861,"PO BOX 20606","ROCHESTER","NY",14602,NA,NA,361,"PO BOX 20606, ROCHESTER, NY, 14602","No_Match",NA,NA,NA,NA
338862,"PO BOX 2061","CONCORD","NC",28026,NA,NA,362,"PO BOX 2061, CONCORD, NC, 28026","No_Match",NA,NA,NA,NA
338863,"PO BOX 2061","FORT MYERS","FL",33902,NA,NA,363,"PO BOX 2061, FORT MYERS, FL, 33902","No_Match",NA,NA,NA,NA
338864,"PO BOX 2061","IDAHO SPRINGS","CO",80452,NA,NA,364,"PO BOX 2061, IDAHO SPRINGS, CO, 80452","No_Match",NA,NA,NA,NA
338865,"PO BOX 2061","PAGE","AZ",86040,NA,NA,365,"PO BOX 2061, PAGE, AZ, 86040","No_Match",NA,NA,NA,NA
338866,"PO BOX 2061","WARSAW","IN",46581,NA,NA,366,"PO BOX 2061, WARSAW, IN, 46581","No_Match",NA,NA,NA,NA
338867,"PO BOX 206141","LOUISVILLE","KY",40250,NA,NA,367,"PO BOX 206141, LOUISVILLE, KY, 40250","No_Match",NA,NA,NA,NA
338868,"PO BOX 2062","BROOFKIELD","WI",53008,NA,NA,368,"PO BOX 2062, BROOFKIELD, WI, 53008","No_Match",NA,NA,NA,NA
338869,"PO BOX 2062","HARRISON","AR",72602,NA,NA,369,"PO BOX 2062, HARRISON, AR, 72602","No_Match",NA,NA,NA,NA
338870,"PO BOX 2062","HUMBLE","TX",77347,NA,NA,370,"PO BOX 2062, HUMBLE, TX, 77347","No_Match",NA,NA,NA,NA
338871,"PO BOX 20620","AMARILLO","TX",79114,NA,NA,371,"PO BOX 20620, AMARILLO, TX, 79114","No_Match",NA,NA,NA,NA
338872,"PO BOX 20623","ALBUQUERQUE","NM",87154,NA,NA,372,"PO BOX 20623, ALBUQUERQUE, NM, 87154","No_Match",NA,NA,NA,NA
338873,"PO BOX 20623","WACO","TX",76702,NA,NA,373,"PO BOX 20623, WACO, TX, 76702","No_Match",NA,NA,NA,NA
338874,"PO BOX 20625","GREENFIELD","WI",53220,NA,NA,374,"PO BOX 20625, GREENFIELD, WI, 53220","No_Match",NA,NA,NA,NA
338875,"PO BOX 20626","RENO","NV",89515,NA,NA,375,"PO BOX 20626, RENO, NV, 89515","No_Match",NA,NA,NA,NA
338876,"PO BOX 2063","AVON","CO",81620,NA,NA,376,"PO BOX 2063, AVON, CO, 81620","No_Match",NA,NA,NA,NA
338877,"PO BOX 2063","ROCKVILLE","MD",20847,NA,NA,377,"PO BOX 2063, ROCKVILLE, MD, 20847","No_Match",NA,NA,NA,NA
338878,"PO BOX 20634","HOT SPRINGS","AR",71902,NA,NA,378,"PO BOX 20634, HOT SPRINGS, AR, 71902","No_Match",NA,NA,NA,NA
338879,"PO BOX 20634","SAINT SIMONS ISLAND","GA",31522,NA,NA,379,"PO BOX 20634, SAINT SIMONS ISLAND, GA, 31522","No_Match",NA,NA,NA,NA
338880,"PO BOX 2064","COEUR D ALENE","ID",83816,NA,NA,380,"PO BOX 2064, COEUR D ALENE, ID, 83816","No_Match",NA,NA,NA,NA
338881,"PO BOX 2064","COLLIERVILLE","TN",38027,NA,NA,381,"PO BOX 2064, COLLIERVILLE, TN, 38027","No_Match",NA,NA,NA,NA
338882,"PO BOX 2064","EAST BREWTON","AL",36426,NA,NA,382,"PO BOX 2064, EAST BREWTON, AL, 36426","No_Match",NA,NA,NA,NA
338883,"PO BOX 2064","ROCKINGHAM","NC",28380,NA,NA,383,"PO BOX 2064, ROCKINGHAM, NC, 28380","No_Match",NA,NA,NA,NA
338884,"PO BOX 2065","JACKSONVILLE","FL",32203,NA,NA,384,"PO BOX 2065, JACKSONVILLE, FL, 32203","No_Match",NA,NA,NA,NA
338885,"PO BOX 2065","OSBURN","ID",83849,NA,NA,385,"PO BOX 2065, OSBURN, ID, 83849","No_Match",NA,NA,NA,NA
338886,"PO BOX 2065","ROSEBURG","OR",97470,NA,NA,386,"PO BOX 2065, ROSEBURG, OR, 97470","No_Match",NA,NA,NA,NA
338887,"PO BOX 2066","WIMBERLEY","TX",78676,NA,NA,387,"PO BOX 2066, WIMBERLEY, TX, 78676","No_Match",NA,NA,NA,NA
338888,"PO BOX 20666","PHILADELPHIA","PA",19138,NA,NA,388,"PO BOX 20666, PHILADELPHIA, PA, 19138","No_Match",NA,NA,NA,NA
338889,"PO BOX 2067","DULUTH","GA",30096,NA,NA,389,"PO BOX 2067, DULUTH, GA, 30096","No_Match",NA,NA,NA,NA
338890,"PO BOX 20670","OAKLAND","CA",94620,NA,NA,390,"PO BOX 20670, OAKLAND, CA, 94620","No_Match",NA,NA,NA,NA
338891,"PO BOX 20671","SEATTLE","WA",98102,NA,NA,391,"PO BOX 20671, SEATTLE, WA, 98102","No_Match",NA,NA,NA,NA
338892,"PO BOX 2068","LYTLE","TX",78052,NA,NA,392,"PO BOX 2068, LYTLE, TX, 78052","No_Match",NA,NA,NA,NA
338893,"PO BOX 2068","MOBILE","AL",36652,NA,NA,393,"PO BOX 2068, MOBILE, AL, 36652","No_Match",NA,NA,NA,NA
338894,"PO BOX 2068","STOCKBRIDGE","GA",30281,NA,NA,394,"PO BOX 2068, STOCKBRIDGE, GA, 30281","No_Match",NA,NA,NA,NA
338895,"PO BOX 20680","NEW YORK","NY",10009,NA,NA,395,"PO BOX 20680, NEW YORK, NY, 10009","No_Match",NA,NA,NA,NA
338896,"PO BOX 2069","BAY ST LOUIS","MS",39521,NA,NA,396,"PO BOX 2069, BAY ST LOUIS, MS, 39521","No_Match",NA,NA,NA,NA
338897,"PO BOX 2069","MCCALL","ID",83638,NA,NA,397,"PO BOX 2069, MCCALL, ID, 83638","No_Match",NA,NA,NA,NA
338898,"PO BOX 2069","TEANECK","NJ",7666,NA,NA,398,"PO BOX 2069, TEANECK, NJ, 7666","No_Match",NA,NA,NA,NA
338899,"PO BOX 20693","NEW YORK","NY",10009,NA,NA,399,"PO BOX 20693, NEW YORK, NY, 10009","No_Match",NA,NA,NA,NA
338900,"PO BOX 207","ALTHEIMER","AR",72004,NA,NA,400,"PO BOX 207, ALTHEIMER, AR, 72004","No_Match",NA,NA,NA,NA
338901,"PO BOX 207","AVONDALE","CO",81022,NA,NA,401,"PO BOX 207, AVONDALE, CO, 81022","No_Match",NA,NA,NA,NA
338902,"PO BOX 207","BARBOURSVILLE","WV",25504,NA,NA,402,"PO BOX 207, BARBOURSVILLE, WV, 25504","No_Match",NA,NA,NA,NA
338903,"PO BOX 207","BRIMFIELD","MA",1010,NA,NA,403,"PO BOX 207, BRIMFIELD, MA, 1010","No_Match",NA,NA,NA,NA
338904,"PO BOX 207","CLARKSTON","MI",48347,NA,NA,404,"PO BOX 207, CLARKSTON, MI, 48347","No_Match",NA,NA,NA,NA
338905,"PO BOX 207","COOPER","TX",75432,NA,NA,405,"PO BOX 207, COOPER, TX, 75432","No_Match",NA,NA,NA,NA
338906,"PO BOX 207","COTTLEVILLE","MO",63338,NA,NA,406,"PO BOX 207, COTTLEVILLE, MO, 63338","No_Match",NA,NA,NA,NA
338907,"PO BOX 207","ELGIN","MN",55932,NA,NA,407,"PO BOX 207, ELGIN, MN, 55932","No_Match",NA,NA,NA,NA
338908,"PO BOX 207","FULTONVILLE","NY",12072,NA,NA,408,"PO BOX 207, FULTONVILLE, NY, 12072","No_Match",NA,NA,NA,NA
338909,"PO BOX 207","GREENVILLE","CA",95947,NA,NA,409,"PO BOX 207, GREENVILLE, CA, 95947","No_Match",NA,NA,NA,NA
338910,"PO BOX 207","HAVRE","MT",59501,NA,NA,410,"PO BOX 207, HAVRE, MT, 59501","No_Match",NA,NA,NA,NA
338911,"PO BOX 207","MANHATTAN","MT",59741,NA,NA,411,"PO BOX 207, MANHATTAN, MT, 59741","No_Match",NA,NA,NA,NA
338912,"PO BOX 207","MOUNT VERNON","ME",4352,NA,NA,412,"PO BOX 207, MOUNT VERNON, ME, 4352","No_Match",NA,NA,NA,NA
338913,"PO BOX 207","OAK HILL","WV",25901,NA,NA,413,"PO BOX 207, OAK HILL, WV, 25901","No_Match",NA,NA,NA,NA
338914,"PO BOX 207","PORT HOPE","MI",48468,NA,NA,414,"PO BOX 207, PORT HOPE, MI, 48468","No_Match",NA,NA,NA,NA
338915,"PO BOX 207","ROCKSPRINGS","TX",78880,NA,NA,415,"PO BOX 207, ROCKSPRINGS, TX, 78880","No_Match",NA,NA,NA,NA
338916,"PO BOX 207","SHARON","VT",5065,NA,NA,416,"PO BOX 207, SHARON, VT, 5065","No_Match",NA,NA,NA,NA
338917,"PO BOX 207","TIOGA","TX",76271,NA,NA,417,"PO BOX 207, TIOGA, TX, 76271","No_Match",NA,NA,NA,NA
338918,"PO BOX 207","TOAST","NC",27049,NA,NA,418,"PO BOX 207, TOAST, NC, 27049","No_Match",NA,NA,NA,NA
338919,"PO BOX 2071","MECHANICSVILLE","VA",23116,NA,NA,419,"PO BOX 2071, MECHANICSVILLE, VA, 23116","No_Match",NA,NA,NA,NA
338920,"PO BOX 20712","PIEDMONT","CA",94620,NA,NA,420,"PO BOX 20712, PIEDMONT, CA, 94620","No_Match",NA,NA,NA,NA
338921,"PO BOX 20718","WHITE HALL","AR",71612,NA,NA,421,"PO BOX 20718, WHITE HALL, AR, 71612","No_Match",NA,NA,NA,NA
338922,"PO BOX 2072","BROCKTON","MA",2305,NA,NA,422,"PO BOX 2072, BROCKTON, MA, 2305","No_Match",NA,NA,NA,NA
338923,"PO BOX 2072","GAINESVILLE","TX",76241,NA,NA,423,"PO BOX 2072, GAINESVILLE, TX, 76241","No_Match",NA,NA,NA,NA
338924,"PO BOX 2072","GLENDALE","CA",91209,NA,NA,424,"PO BOX 2072, GLENDALE, CA, 91209","No_Match",NA,NA,NA,NA
338925,"PO BOX 2072","SEARCY","AR",72143,NA,NA,425,"PO BOX 2072, SEARCY, AR, 72143","No_Match",NA,NA,NA,NA
338926,"PO BOX 2073","CHESAPEAKE","VA",23327,NA,NA,426,"PO BOX 2073, CHESAPEAKE, VA, 23327","No_Match",NA,NA,NA,NA
338927,"PO BOX 2073","KINSTON","NC",28502,NA,NA,427,"PO BOX 2073, KINSTON, NC, 28502","No_Match",NA,NA,NA,NA
338928,"PO BOX 2073","PARADISE","CA",95967,NA,NA,428,"PO BOX 2073, PARADISE, CA, 95967","No_Match",NA,NA,NA,NA
338929,"PO BOX 2073","SHELBY","NC",28150,NA,NA,429,"PO BOX 2073, SHELBY, NC, 28150","No_Match",NA,NA,NA,NA
338930,"PO BOX 2074","CONROE","TX",77305,NA,NA,430,"PO BOX 2074, CONROE, TX, 77305","No_Match",NA,NA,NA,NA
338931,"PO BOX 2074","FORT LAUDERDALE","FL",33303,NA,NA,431,"PO BOX 2074, FORT LAUDERDALE, FL, 33303","No_Match",NA,NA,NA,NA
338932,"PO BOX 2074","MONTGOMERY","TX",77356,NA,NA,432,"PO BOX 2074, MONTGOMERY, TX, 77356","No_Match",NA,NA,NA,NA
338933,"PO BOX 20741","BAKERSFIELD","CA",93390,NA,NA,433,"PO BOX 20741, BAKERSFIELD, CA, 93390","No_Match",NA,NA,NA,NA
338934,"PO BOX 20743","GREENFIELD","WI",53220,NA,NA,434,"PO BOX 20743, GREENFIELD, WI, 53220","No_Match",NA,NA,NA,NA
338935,"PO BOX 2075","MEDINA","OH",44258,NA,NA,435,"PO BOX 2075, MEDINA, OH, 44258","No_Match",NA,NA,NA,NA
338936,"PO BOX 2075","SEWARD","AK",99664,NA,NA,436,"PO BOX 2075, SEWARD, AK, 99664","No_Match",NA,NA,NA,NA
338937,"PO BOX 2076","FORT WALTON BEACH","FL",32549,NA,NA,437,"PO BOX 2076, FORT WALTON BEACH, FL, 32549","No_Match",NA,NA,NA,NA
338938,"PO BOX 20761","WACO","TX",76702,NA,NA,438,"PO BOX 20761, WACO, TX, 76702","No_Match",NA,NA,NA,NA
338939,"PO BOX 20765","HOT SPRINGS","AR",71901,NA,NA,439,"PO BOX 20765, HOT SPRINGS, AR, 71901","No_Match",NA,NA,NA,NA
338940,"PO BOX 2078","MUSKOGEE","OK",74402,NA,NA,440,"PO BOX 2078, MUSKOGEE, OK, 74402","No_Match",NA,NA,NA,NA
338941,"PO BOX 2078","MYRTLE CREEK","OR",97457,NA,NA,441,"PO BOX 2078, MYRTLE CREEK, OR, 97457","No_Match",NA,NA,NA,NA
338942,"PO BOX 20795","BEAUMONT","TX",77720,NA,NA,442,"PO BOX 20795, BEAUMONT, TX, 77720","No_Match",NA,NA,NA,NA
338943,"PO BOX 208","BERNE","NY",12023,NA,NA,443,"PO BOX 208, BERNE, NY, 12023","No_Match",NA,NA,NA,NA
338944,"PO BOX 208","BOVARD","PA",15619,NA,NA,444,"PO BOX 208, BOVARD, PA, 15619","No_Match",NA,NA,NA,NA
338945,"PO BOX 208","BRISTOL","IL",60512,NA,NA,445,"PO BOX 208, BRISTOL, IL, 60512","No_Match",NA,NA,NA,NA
338946,"PO BOX 208","CORONA","CA",92878,NA,NA,446,"PO BOX 208, CORONA, CA, 92878","No_Match",NA,NA,NA,NA
338947,"PO BOX 208","ENGLEWOOD","OH",45322,NA,NA,447,"PO BOX 208, ENGLEWOOD, OH, 45322","No_Match",NA,NA,NA,NA
338948,"PO BOX 208","GARDEN CITY","UT",84028,NA,NA,448,"PO BOX 208, GARDEN CITY, UT, 84028","No_Match",NA,NA,NA,NA
338949,"PO BOX 208","HALEYVILLE","AL",35565,NA,NA,449,"PO BOX 208, HALEYVILLE, AL, 35565","No_Match",NA,NA,NA,NA
338950,"PO BOX 208","HORTON","KS",66439,NA,NA,450,"PO BOX 208, HORTON, KS, 66439","No_Match",NA,NA,NA,NA
338951,"PO BOX 208","JEFFERSON","ME",4348,NA,NA,451,"PO BOX 208, JEFFERSON, ME, 4348","No_Match",NA,NA,NA,NA
338952,"PO BOX 208","LINCOLN PARK","MI",48146,NA,NA,452,"PO BOX 208, LINCOLN PARK, MI, 48146","No_Match",NA,NA,NA,NA
338953,"PO BOX 208","MARATHON","TX",79842,NA,NA,453,"PO BOX 208, MARATHON, TX, 79842","No_Match",NA,NA,NA,NA
338954,"PO BOX 208","MORA","MN",55051,NA,NA,454,"PO BOX 208, MORA, MN, 55051","No_Match",NA,NA,NA,NA
338955,"PO BOX 208","NOTTINGHAM","NH",3290,NA,NA,455,"PO BOX 208, NOTTINGHAM, NH, 3290","No_Match",NA,NA,NA,NA
338956,"PO BOX 208","PALATKA","FL",32178,NA,NA,456,"PO BOX 208, PALATKA, FL, 32178","No_Match",NA,NA,NA,NA
338957,"PO BOX 208","PALMYRA","PA",17078,NA,NA,457,"PO BOX 208, PALMYRA, PA, 17078","No_Match",NA,NA,NA,NA
338958,"PO BOX 208","PEEKSKILL","NY",10566,NA,NA,458,"PO BOX 208, PEEKSKILL, NY, 10566","No_Match",NA,NA,NA,NA
338959,"PO BOX 208","ROCKSPRINGS","TX",78880,NA,NA,459,"PO BOX 208, ROCKSPRINGS, TX, 78880","No_Match",NA,NA,NA,NA
338960,"PO BOX 208","ROCKY HILL","CT",6067,NA,NA,460,"PO BOX 208, ROCKY HILL, CT, 6067","No_Match",NA,NA,NA,NA
338961,"PO BOX 208","RUSSELL SPRINGS","KY",42642,NA,NA,461,"PO BOX 208, RUSSELL SPRINGS, KY, 42642","No_Match",NA,NA,NA,NA
338962,"PO BOX 208","VAUGHN","WA",98394,NA,NA,462,"PO BOX 208, VAUGHN, WA, 98394","No_Match",NA,NA,NA,NA
338963,"PO BOX 208","VENETIA","PA",15367,NA,NA,463,"PO BOX 208, VENETIA, PA, 15367","No_Match",NA,NA,NA,NA
338964,"PO BOX 2080","WESTPORT","IL",98595,NA,NA,464,"PO BOX 2080, WESTPORT, IL, 98595","No_Match",NA,NA,NA,NA
338965,"PO BOX 20804","BOULDER","CO",80308,NA,NA,465,"PO BOX 20804, BOULDER, CO, 80308","No_Match",NA,NA,NA,NA
338966,"PO BOX 2081","DACULA","GA",30019,NA,NA,466,"PO BOX 2081, DACULA, GA, 30019","No_Match",NA,NA,NA,NA
338967,"PO BOX 2081","LABELLE","FL",33975,NA,NA,467,"PO BOX 2081, LABELLE, FL, 33975","No_Match",NA,NA,NA,NA
338968,"PO BOX 2081","PORT ORCHARD","WA",98366,NA,NA,468,"PO BOX 2081, PORT ORCHARD, WA, 98366","No_Match",NA,NA,NA,NA
338969,"PO BOX 2081","RICHMOND HILL","GA",31324,NA,NA,469,"PO BOX 2081, RICHMOND HILL, GA, 31324","No_Match",NA,NA,NA,NA
338970,"PO BOX 20811","OKLAHOMA CITY","OK",73156,NA,NA,470,"PO BOX 20811, OKLAHOMA CITY, OK, 73156","No_Match",NA,NA,NA,NA
338971,"PO BOX 20813","BILLINGS","MT",59104,NA,NA,471,"PO BOX 20813, BILLINGS, MT, 59104","No_Match",NA,NA,NA,NA
338972,"PO BOX 2082","FORT RILEY","KS",66442,NA,NA,472,"PO BOX 2082, FORT RILEY, KS, 66442","No_Match",NA,NA,NA,NA
338973,"PO BOX 2082","LIVINGSTON","MT",59047,NA,NA,473,"PO BOX 2082, LIVINGSTON, MT, 59047","No_Match",NA,NA,NA,NA
338974,"PO BOX 2082","MORRISTOWN","NJ",7962,NA,NA,474,"PO BOX 2082, MORRISTOWN, NJ, 7962","No_Match",NA,NA,NA,NA
338975,"PO BOX 2082","OCEANSIDE","CA",92051,NA,NA,475,"PO BOX 2082, OCEANSIDE, CA, 92051","No_Match",NA,NA,NA,NA
338976,"PO BOX 2082","ORTING","WA",98360,NA,NA,476,"PO BOX 2082, ORTING, WA, 98360","No_Match",NA,NA,NA,NA
338977,"PO BOX 20821","SEDONA","AZ",86341,NA,NA,477,"PO BOX 20821, SEDONA, AZ, 86341","No_Match",NA,NA,NA,NA
338978,"PO BOX 2083","CROSSETT","AR",71635,NA,NA,478,"PO BOX 2083, CROSSETT, AR, 71635","No_Match",NA,NA,NA,NA
338979,"PO BOX 2083","KENAI","AK",99611,NA,NA,479,"PO BOX 2083, KENAI, AK, 99611","No_Match",NA,NA,NA,NA
338980,"PO BOX 2083","OZONA","TX",76943,NA,NA,480,"PO BOX 2083, OZONA, TX, 76943","No_Match",NA,NA,NA,NA
338981,"PO BOX 2083","SKYLAND","NC",28776,NA,NA,481,"PO BOX 2083, SKYLAND, NC, 28776","No_Match",NA,NA,NA,NA
338982,"PO BOX 2083","UPLAND","CA",91785,NA,NA,482,"PO BOX 2083, UPLAND, CA, 91785","No_Match",NA,NA,NA,NA
338983,"PO BOX 20832","CHARLESTON","SC",29413,NA,NA,483,"PO BOX 20832, CHARLESTON, SC, 29413","No_Match",NA,NA,NA,NA
338984,"PO BOX 2084","PRESTONSBURG","KY",41653,NA,NA,484,"PO BOX 2084, PRESTONSBURG, KY, 41653","No_Match",NA,NA,NA,NA
338985,"PO BOX 2084","SEQUIM","WA",98382,NA,NA,485,"PO BOX 2084, SEQUIM, WA, 98382","No_Match",NA,NA,NA,NA
338986,"PO BOX 20844","FERNDALE","MI",48220,NA,NA,486,"PO BOX 20844, FERNDALE, MI, 48220","No_Match",NA,NA,NA,NA
338987,"PO BOX 208443","CHICAGO","IL",60620,NA,NA,487,"PO BOX 208443, CHICAGO, IL, 60620","No_Match",NA,NA,NA,NA
338988,"PO BOX 20846","ALBUQUERQUE","NM",87154,NA,NA,488,"PO BOX 20846, ALBUQUERQUE, NM, 87154","No_Match",NA,NA,NA,NA
338989,"PO BOX 20847","RENO","NV",89515,NA,NA,489,"PO BOX 20847, RENO, NV, 89515","No_Match",NA,NA,NA,NA
338990,"PO BOX 20854","ST SIMONS ISLAND","GA",31522,NA,NA,490,"PO BOX 20854, ST SIMONS ISLAND, GA, 31522","No_Match",NA,NA,NA,NA
338991,"PO BOX 20858","BILLINGS","MT",59104,NA,NA,491,"PO BOX 20858, BILLINGS, MT, 59104","No_Match",NA,NA,NA,NA
338992,"PO BOX 2086","CLARKSVILLE","IN",47131,NA,NA,492,"PO BOX 2086, CLARKSVILLE, IN, 47131","No_Match",NA,NA,NA,NA
338993,"PO BOX 2086","COVINA","CA",91722,NA,NA,493,"PO BOX 2086, COVINA, CA, 91722","No_Match",NA,NA,NA,NA
338994,"PO BOX 2086","SPRING","TX",77380,NA,NA,494,"PO BOX 2086, SPRING, TX, 77380","No_Match",NA,NA,NA,NA
338995,"PO BOX 20864","CHARLESTON","SC",29413,NA,NA,495,"PO BOX 20864, CHARLESTON, SC, 29413","No_Match",NA,NA,NA,NA
338996,"PO BOX 20864","ROANOKE","VA",24018,NA,NA,496,"PO BOX 20864, ROANOKE, VA, 24018","No_Match",NA,NA,NA,NA
338997,"PO BOX 208673","CHICAGO","IL",60620,NA,NA,497,"PO BOX 208673, CHICAGO, IL, 60620","No_Match",NA,NA,NA,NA
338998,"PO BOX 2087","SANTA CRUZ","CA",95063,NA,NA,498,"PO BOX 2087, SANTA CRUZ, CA, 95063","No_Match",NA,NA,NA,NA
338999,"PO BOX 20871","CHARLESTON","SC",29413,NA,NA,499,"PO BOX 20871, CHARLESTON, SC, 29413","No_Match",NA,NA,NA,NA
339000,"PO BOX 20876","ROANOKE","VA",24018,NA,NA,500,"PO BOX 20876, ROANOKE, VA, 24018","No_Match",NA,NA,NA,NA
