"ID","Address","City","State","Zip","lat","long","id","input_address","match_indicator","match_type","matched_address","tiger_line_id","tiger_side"
16501,"1079 HARVEST LN NE","THOMPSON","ND",58278,47.8304234980001,-96.994955085,1,"1079 HARVEST LN NE, THOMPSON, ND, 58278","Match","Exact","1079 HARVEST LN NE, THOMPSON, ND, 58278",171293986,"R"
16502,"1079 JEFFERSON ROAD","PITTSBURGH","PA",15235,40.4476645030001,-79.8066303159999,2,"1079 JEFFERSON ROAD, PITTSBURGH, PA, 15235","Match","Exact","1079 JEFFERSON RD, PITTSBURGH, PA, 15235",607714684,"L"
16503,"1079 KEMPER DRIVE","WARMINSTER","PA",18974,40.23127236,-75.111212517,3,"1079 KEMPER DRIVE, WARMINSTER, PA, 18974","Match","Exact","1079 KEMPER DR, WARMINSTER, PA, 18974",649172992,"R"
16504,"1079 MULLINS STATION ROAD","MEMPHIS","TN",38134,35.155664045,-89.851086841,4,"1079 MULLINS STATION ROAD, MEMPHIS, TN, 38134","Match","Exact","1079 MULLINS STATION RD, MEMPHIS, TN, 38134",72978271,"L"
16505,"1079 OAKLEY ROAD","ROSEBURG","OR",97471,43.259262812,-123.53032634,5,"1079 OAKLEY ROAD, ROSEBURG, OR, 97471","Match","Exact","1079 OAKLEY RD, ROSEBURG, OR, 97471",614053364,"L"
16506,"1079 QUEEN AVE SW","ALBANY","OR",97321,44.6236714090001,-123.115946337,6,"1079 QUEEN AVE SW, ALBANY, OR, 97321","Match","Exact","1079 QUEEN AVE SW, ALBANY, OR, 97321",156073372,"L"
16507,"1079 STEPHEN F AUSTIN","DIME BOX","TX",77853,30.357005987,-96.825842918,7,"1079 STEPHEN F AUSTIN, DIME BOX, TX, 77853","Match","Non_Exact","1079 STEPHEN F AUSTIN BLVD, DIME BOX, TX, 77853",39131675,"L"
16508,"1079 SUNRISE AVE  STE B  224","ROSEVILLE","CA",95661,38.728536757,-121.272064264,8,"1079 SUNRISE AVE  STE B  224, ROSEVILLE, CA, 95661","Match","Exact","1079 SUNRISE AVE, ROSEVILLE, CA, 95661",106765244,"L"
16509,"1079 SUNRISE AVE SUITE B-17","ROSEVILLE","CA",95661,38.728536757,-121.272064264,9,"1079 SUNRISE AVE SUITE B-17, ROSEVILLE, CA, 95661","Match","Exact","1079 SUNRISE AVE, ROSEVILLE, CA, 95661",106765244,"L"
16510,"1079 SUNRISE AVENUE STE B332","ROSEVILLE","CA",95661,38.728536757,-121.272064264,10,"1079 SUNRISE AVENUE STE B332, ROSEVILLE, CA, 95661","Match","Exact","1079 SUNRISE AVE, ROSEVILLE, CA, 95661",106765244,"L"
16511,"1079 US HIGHWAY 85 87 SPACE 8","WALSENBURG","CO",81089,NA,NA,11,"1079 US HIGHWAY 85 87 SPACE 8, WALSENBURG, CO, 81089","No_Match",NA,NA,NA,NA
16512,"10790 HIDDEN MEADOW TRAIL","CORNING","NY",14830,42.1009490160001,-77.088047565,12,"10790 HIDDEN MEADOW TRAIL, CORNING, NY, 14830","Match","Exact","10790 HIDDEN MEADOW TRL, CORNING, NY, 14830",14740872,"L"
16513,"10791 N 55TH DR","GLENDALE","AZ",85304,33.583699284,-112.178002204,13,"10791 N 55TH DR, GLENDALE, AZ, 85304","Match","Exact","10791 N 55TH DR, GLENDALE, AZ, 85304",128283275,"R"
16514,"10791 NE 116TH STREET","ARCHER","FL",32618,29.50289321,-82.593294137,14,"10791 NE 116TH STREET, ARCHER, FL, 32618","Match","Exact","10791 NE 116TH ST, ARCHER, FL, 32618",647878908,"L"
16515,"10791 NW 14TH ST APT 309","PLANTATION","FL",33322,26.1426798900001,-80.292520038,15,"10791 NW 14TH ST APT 309, PLANTATION, FL, 33322","Match","Non_Exact","10791 NW 14TH ST, PLANTATION, FL, 33322",114775092,"R"
16516,"10791 NW 14TH STREET 296","Plantation","FL",33322,26.1426798900001,-80.292520038,16,"10791 NW 14TH STREET 296, Plantation, FL, 33322","Match","Non_Exact","10791 NW 14TH ST, PLANTATION, FL, 33322",114775092,"R"
16517,"10792 HARDIN VALLEY ROAD","KNOXVILLE","TN",37932,35.9461462290001,-84.161506029,17,"10792 HARDIN VALLEY ROAD, KNOXVILLE, TN, 37932","Match","Exact","10792 HARDIN VALLEY RD, KNOXVILLE, TN, 37932",645248063,"L"
16518,"10792 MONTGOMERY RD","CINCINNATI","OH",45242,39.2591213310001,-84.340448376,18,"10792 MONTGOMERY RD, CINCINNATI, OH, 45242","Match","Exact","10792 MONTGOMERY RD, CINCINNATI, OH, 45242",103968547,"R"
16519,"10795 GLENGATE CIRCLE","HIGHLANDS RANCH","CO",80130,39.5185399170001,-104.93337701,19,"10795 GLENGATE CIRCLE, HIGHLANDS RANCH, CO, 80130","Match","Exact","10795 GLENGATE CIR, HIGHLANDS RANCH, CO, 80130",631032248,"R"
16520,"10795 ROGERS CIRCLE","JOHNS CREEK","GA",30097,34.0431308510001,-84.130071355,20,"10795 ROGERS CIRCLE, JOHNS CREEK, GA, 30097","Match","Exact","10795 ROGERS CIR, JOHNS CREEK, GA, 30097",628057417,"R"
16521,"10795 TOWNSHIP ROAD 274","MILLERSBURG","OH",44654,NA,NA,21,"10795 TOWNSHIP ROAD 274, MILLERSBURG, OH, 44654","No_Match",NA,NA,NA,NA
16522,"10796 TIGERTON LANE","CHARLOTTE","NC",28269,35.345578974,-80.767357153,22,"10796 TIGERTON LANE, CHARLOTTE, NC, 28269","Match","Exact","10796 TIGERTON LN, CHARLOTTE, NC, 28269",70543691,"R"
16523,"10799 BURBANK RD","CARBONDALE","IL",62901,37.750456996,-89.1502489169999,23,"10799 BURBANK RD, CARBONDALE, IL, 62901","Match","Exact","10799 BURBANK RD, CARBONDALE, IL, 62901",6006175,"L"
16524,"10799 POPULAR STREET APT 147","LOMA LINDA","CA",92354,34.0575127120001,-117.254600328,24,"10799 POPULAR STREET APT 147, LOMA LINDA, CA, 92354","Match","Non_Exact","10799 POPLAR ST, LOMA LINDA, CA, 92354",144660108,"L"
16525,"107A EAST 6TH AVE","RANSON","WV",25438,39.296998784,-77.861099597,25,"107A EAST 6TH AVE, RANSON, WV, 25438","Match","Exact","107 E 6TH AVE, RANSON, WV, 25438",638666972,"L"
16526,"107B ANDERSON ST","BELTON","SC",29627,34.5217975800001,-82.493964045,26,"107B ANDERSON ST, BELTON, SC, 29627","Match","Exact","107 ANDERSON ST, BELTON, SC, 29627",25446812,"L"
16527,"107B NORTH 6TH STREET","ALPINE","TX",79830,30.357444748,-103.662376873,27,"107B NORTH 6TH STREET, ALPINE, TX, 79830","Match","Exact","107 N 6TH ST, ALPINE, TX, 79830",183977177,"L"
16528,"108  8TH STREET S  SUITE  3","ST JAMES","MN",56081,43.982823049,-94.625779704,28,"108  8TH STREET S  SUITE  3, ST JAMES, MN, 56081","Match","Exact","108 8TH ST S, SAINT JAMES, MN, 56081",611815519,"L"
16529,"108  STODDARD RD","WATERBURY","CT",6708,41.5670339870001,-73.0796941099999,29,"108  STODDARD RD, WATERBURY, CT, 6708","Match","Exact","108 STODDARD RD, WATERBURY, CT, 06708",3727774,"R"
16530,"108 - 136 MARTIN LUTHER KING BLVD","NEWARK","NJ",7104,NA,NA,30,"108 - 136 MARTIN LUTHER KING BLVD, NEWARK, NJ, 7104","Tie",NA,NA,NA,NA
16531,"108 1/2 MAIN STREET","GUEYDAN","LA",70542,NA,NA,31,"108 1/2 MAIN STREET, GUEYDAN, LA, 70542","No_Match",NA,NA,NA,NA
16532,"108 1ST STREET","WENATCHEE","WA",98801,47.4258626380001,-120.312652008,32,"108 1ST STREET, WENATCHEE, WA, 98801","Match","Exact","108 1ST ST, WENATCHEE, WA, 98801",156974025,"L"
16533,"108 2ND ST","PLEASANTON","TX",78064,NA,NA,33,"108 2ND ST, PLEASANTON, TX, 78064","No_Match",NA,NA,NA,NA
16534,"108 2ND STREET","DARIEN","GA",31305,31.3700062790001,-81.434610455,34,"108 2ND STREET, DARIEN, GA, 31305","Match","Non_Exact","108 2ND ST W, DARIEN, GA, 31305",639829992,"R"
16535,"108 3RD ST","SMOLAN","KS",67456,38.7398919400001,-97.684405835,35,"108 3RD ST, SMOLAN, KS, 67456","Match","Exact","108 3RD ST, SMOLAN, KS, 67456",196689698,"L"
16536,"108 6TH AVENUE","ROEBLING","NJ",8554,40.117854376,-74.7774298319999,36,"108 6TH AVENUE, ROEBLING, NJ, 8554","Match","Exact","108 6TH AVE, ROEBLING, NJ, 08554",134033949,"L"
16537,"108 89TH AVE","TREASURE ISLAND","FL",33706,27.7533812250001,-82.763213364,37,"108 89TH AVE, TREASURE ISLAND, FL, 33706","Match","Exact","108 89TH AVE, TREASURE ISLAND, FL, 33706",124694135,"L"
16538,"108 ALEXANDER LANE","BETHPAGE","TN",37022,36.4614323710001,-86.337913838,38,"108 ALEXANDER LANE, BETHPAGE, TN, 37022","Match","Exact","108 ALEXANDER LN, BETHPAGE, TN, 37022",611939667,"L"
16539,"108 ANNOTTO BAY LANE","GARNER","NC",27529,35.723730888,-78.591876584,39,"108 ANNOTTO BAY LANE, GARNER, NC, 27529","Match","Exact","108 ANNOTTO BAY LN, GARNER, NC, 27529",612818625,"R"
16540,"108 ANTIQUE DRIVE","KING","NC",27021,36.2711156130001,-80.392282183,40,"108 ANTIQUE DRIVE, KING, NC, 27021","Match","Exact","108 ANTIQUE DR, KING, NC, 27021",56330581,"R"
16541,"108 ARBUCKLE AVENUE","FOLSOM","CA",95630,38.664699334,-121.161475515,41,"108 ARBUCKLE AVENUE, FOLSOM, CA, 95630","Match","Exact","108 ARBUCKLE AVE, FOLSOM, CA, 95630",133384259,"R"
16542,"108 ARIEL WAY","EASLEY","SC",29642,34.7419436640001,-82.5435287019999,42,"108 ARIEL WAY, EASLEY, SC, 29642","Match","Exact","108 ARIEL WAY, EASLEY, SC, 29642",624112600,"L"
16543,"108 AVENUE D APT 10E","NEW YORK","NY",10009,40.723720332,-73.97599851,43,"108 AVENUE D APT 10E, NEW YORK, NY, 10009","Match","Exact","108 AVE D, NEW YORK, NY, 10009",610246052,"R"
16544,"108 AWEEMA WAY","MELROSE","FL",32666,29.735255135,-81.994871362,44,"108 AWEEMA WAY, MELROSE, FL, 32666","Match","Exact","108 AWEEMA WAY, MELROSE, FL, 32666",619842592,"L"
16545,"108 BANSHEE ST","GWINN","MI",49841,46.322417489,-87.3646235319999,45,"108 BANSHEE ST, GWINN, MI, 49841","Match","Non_Exact","108 BANSHEE, GWINN, MI, 49841",182052730,"L"
16546,"108 BARRINGTON DRIVE","BRANDON","FL",33511,27.921934897,-82.282101944,46,"108 BARRINGTON DRIVE, BRANDON, FL, 33511","Match","Exact","108 BARRINGTON DR, BRANDON, FL, 33511",104543437,"R"
16547,"108 BEASLEY DR","FRANKLIN","TN",37064,35.8991364890001,-86.8779258009999,47,"108 BEASLEY DR, FRANKLIN, TN, 37064","Match","Exact","108 BEASLEY DR, FRANKLIN, TN, 37064",607914696,"R"
16548,"108 BECK LANE","LAFAYETTE","IN",47909,40.387930571,-86.90386467,48,"108 BECK LANE, LAFAYETTE, IN, 47909","Match","Exact","108 BECK LN, LAFAYETTE, IN, 47909",618729194,"L"
16549,"108 BEECH STREET","ROCKLAND","ME",4841,44.1063022070001,-69.118534164,49,"108 BEECH STREET, ROCKLAND, ME, 4841","Match","Exact","108 BEECH ST, ROCKLAND, ME, 04841",75550467,"L"
16550,"108 BELLEVUE DRIVE","COATESVILLE","PA",19320,39.9773359210001,-75.7930302,50,"108 BELLEVUE DRIVE, COATESVILLE, PA, 19320","Match","Exact","108 BELLEVUE DR, COATESVILLE, PA, 19320",649241241,"R"
16551,"108 BELPRE PL W","WESTERVILLE","OH",43081,40.1266796460001,-82.9585620569999,51,"108 BELPRE PL W, WESTERVILLE, OH, 43081","Match","Exact","108 BELPRE PL W, WESTERVILLE, OH, 43081",218663880,"R"
16552,"108 BELWOOD LANE","LOS GATOS","CA",95032,37.234804232,-121.916154074,52,"108 BELWOOD LANE, LOS GATOS, CA, 95032","Match","Exact","108 BELWOOD LN, LOS GATOS, CA, 95032",122946313,"R"
16553,"108 BENNETT STREET","HAMBURY","AR",71646,33.2370115480001,-91.797241664,53,"108 BENNETT STREET, HAMBURY, AR, 71646","Match","Non_Exact","108 BENNETT ST, HAMBURG, AR, 71646",31447700,"R"
16554,"108 BENNINGTON COURT","TROY","MO",63379,38.9764223970001,-91.045662713,54,"108 BENNINGTON COURT, TROY, MO, 63379","Match","Exact","108 BENNINGTON CT, TROY, MO, 63379",618450141,"R"
16555,"108 BERKSHIRE RD","RICHMOND","VA",23221,37.559703927,-77.502581617,55,"108 BERKSHIRE RD, RICHMOND, VA, 23221","Match","Exact","108 BERKSHIRE RD, RICHMOND, VA, 23221",616124454,"R"
16556,"108 BLACK ISLAND ROAD","OXFORD","ME",4270,44.0710187620001,-70.4798229199999,56,"108 BLACK ISLAND ROAD, OXFORD, ME, 4270","Match","Exact","108 BLACK ISLAND RD, OXFORD, ME, 04270",92669528,"R"
16557,"108 BLUE SAGE PLACE","SIMPSONVILLE","SC",29680,34.6930401110001,-82.254410137,57,"108 BLUE SAGE PLACE, SIMPSONVILLE, SC, 29680","Match","Exact","108 BLUE SAGE PL, SIMPSONVILLE, SC, 29680",627609074,"R"
16558,"108 BOND STREET","ISELIN","NJ",8850,NA,NA,58,"108 BOND STREET, ISELIN, NJ, 8850","No_Match",NA,NA,NA,NA
16559,"108 BOWHILL COURT","IRMO","SC",29063,34.096610839,-81.1513784749999,59,"108 BOWHILL COURT, IRMO, SC, 29063","Match","Exact","108 BOWHILL CT, IRMO, SC, 29063",71846287,"R"
16560,"108 BOYKIN CT","SMITHFIELD","NC",27577,35.458146777,-78.23104068,60,"108 BOYKIN CT, SMITHFIELD, NC, 27577","Match","Exact","108 BOYKIN CT, SMITHFIELD, NC, 27577",26557916,"R"
16561,"108 BOYS AVENUE","FRANKLIN","OH",45005,39.571776248,-84.2992614789999,61,"108 BOYS AVENUE, FRANKLIN, OH, 45005","Match","Exact","108 BOYS AVE, FRANKLIN, OH, 45005",159018224,"R"
16562,"108 BRANEGAN COURT UNIT D","BOZEMAN","MT",59715,45.6676449990001,-111.061523449,62,"108 BRANEGAN COURT UNIT D, BOZEMAN, MT, 59715","Match","Exact","108 BRANEGAN CT, BOZEMAN, MT, 59715",163564126,"R"
16563,"108 BRENTWOOD ST","PORTLAND","ME",4103,43.6770826760001,-70.298878846,63,"108 BRENTWOOD ST, PORTLAND, ME, 4103","Match","Exact","108 BRENTWOOD ST, PORTLAND, ME, 04103",78025332,"L"
16564,"108 BRENTWOOD STREEET","PORTLAND","ME",4103,43.6770826760001,-70.298878846,64,"108 BRENTWOOD STREEET, PORTLAND, ME, 4103","Match","Non_Exact","108 BRENTWOOD ST, PORTLAND, ME, 04103",78025332,"L"
16565,"108 BRIDGEWAY DR","WARNER ROBINS","GA",31088,32.5683896840001,-83.692047095,65,"108 BRIDGEWAY DR, WARNER ROBINS, GA, 31088","Match","Exact","108 BRIDGEWAY DR, WARNER ROBINS, GA, 31088",618739026,"R"
16566,"108 BROADVIEW AVE UNIT A","GRASS VALLEY","CA",95945,39.2234268010001,-121.060291034,66,"108 BROADVIEW AVE UNIT A, GRASS VALLEY, CA, 95945","Match","Exact","108 BROADVIEW AVE, GRASS VALLEY, CA, 95945",106533655,"L"
16567,"108 BUCKEYE AVENUE","PORT CHARLOTTE","FL",33952,26.9706026470001,-82.1033115,67,"108 BUCKEYE AVENUE, PORT CHARLOTTE, FL, 33952","Match","Exact","108 BUCKEYE AVE, PORT CHARLOTTE, FL, 33952",4305955,"L"
16568,"108 BUCKWORTH CIR","TRAFFORD","AL",35172,33.8759875470001,-86.6832117609999,68,"108 BUCKWORTH CIR, TRAFFORD, AL, 35172","Match","Exact","108 BUCKWORTH CIR, TRAFFORD, AL, 35172",99069828,"R"
16569,"108 BUTTERFLY COVE","GEORGETOWN","TX",78633,30.7308523770001,-97.735744129,69,"108 BUTTERFLY COVE, GEORGETOWN, TX, 78633","Match","Exact","108 BUTTERFLY COVE, GEORGETOWN, TX, 78633",126533875,"L"
16570,"108 CALLE AMBAR  URB COSTA BRAVA","ISABELA","PR",662,18.5051221000001,-67.030234798,70,"108 CALLE AMBAR  URB COSTA BRAVA, ISABELA, PR, 662","Match","Non_Exact","108 CLL AMBAR, ISABELA, PR, 00662",204913677,"R"
16571,"108 CANNONBALL LN","NEWARK","DE",19702,39.6513813020001,-75.6818971069999,71,"108 CANNONBALL LN, NEWARK, DE, 19702","Match","Exact","108 CANNONBALL LN, NEWARK, DE, 19702",187281457,"L"
16572,"108 CANTERBURY CLOSE","GALLATIN","TN",37066,36.40405724,-86.424622012,72,"108 CANTERBURY CLOSE, GALLATIN, TN, 37066","Match","Exact","108 CANTERBURY CLOSE, GALLATIN, TN, 37066",29781558,"L"
16573,"108 CAPRICORN STREET","CEDAR HILL","TX",75104,32.56202555,-96.943548548,73,"108 CAPRICORN STREET, CEDAR HILL, TX, 75104","Match","Exact","108 CAPRICORN ST, CEDAR HILL, TX, 75104",102944388,"L"
16574,"108 CARNEGIE AVENUE","EAST ORANGE","NJ",7018,40.758133038,-74.217348033,74,"108 CARNEGIE AVENUE, EAST ORANGE, NJ, 7018","Match","Exact","108 CARNEGIE AVE, EAST ORANGE, NJ, 07018",63450609,"R"
16575,"108 CARRIAGE HILL COURT","WEATHERFORD","TX",76087,32.733864205,-97.753730073,75,"108 CARRIAGE HILL COURT, WEATHERFORD, TX, 76087","Match","Exact","108 CARRIAGE HILL CT, WEATHERFORD, TX, 76087",103603884,"R"
16576,"108 CARROLL AVENUE","DEKALB","IL",60115,41.9312080890001,-88.7671866909999,76,"108 CARROLL AVENUE, DEKALB, IL, 60115","Match","Exact","108 CARROLL AVE, DEKALB, IL, 60115",52257479,"R"
16577,"108 CARSON","DUMAS","TX",79029,35.865757532,-101.952471096,77,"108 CARSON, DUMAS, TX, 79029","Match","Non_Exact","108 CARSON AVE, DUMAS, TX, 79029",164659684,"R"
16578,"108 CASTLEBURY CT","ROCKY MOUNT","NC",27804,35.9654899430001,-77.892751576,78,"108 CASTLEBURY CT, ROCKY MOUNT, NC, 27804","Match","Exact","108 CASTLEBURY CT, ROCKY MOUNT, NC, 27804",604969054,"L"
16579,"108 CENTRAL PARK SQUARE NUMBER 166","LOS ALAMOS","NM",87544,NA,NA,79,"108 CENTRAL PARK SQUARE NUMBER 166, LOS ALAMOS, NM, 87544","No_Match",NA,NA,NA,NA
16580,"108 CHARITY CIRCLE","MONTROSE","MN",55363,45.0702604050001,-93.9165814949999,80,"108 CHARITY CIRCLE, MONTROSE, MN, 55363","Match","Exact","108 CHARITY CIR, MONTROSE, MN, 55363",605182232,"R"
16581,"108 CHESTERTON DRIVE","GOOSE CREEK","SC",29445,33.020514,-80.062420983,81,"108 CHESTERTON DRIVE, GOOSE CREEK, SC, 29445","Match","Exact","108 CHESTERTON DR, GOOSE CREEK, SC, 29445",100759298,"L"
16582,"108 CHESTNUT GROVE","GUILFORD","CT",6437,41.3304209090001,-72.736673598,82,"108 CHESTNUT GROVE, GUILFORD, CT, 6437","Match","Exact","108 CHESTNUT GRV, GUILFORD, CT, 06437",624243537,"L"
16583,"108 CHURCH STREET","MILTON","MA",2186,42.2615640280001,-71.040097073,83,"108 CHURCH STREET, MILTON, MA, 2186","Match","Exact","108 CHURCH ST, MILTON, MA, 02186",87248140,"L"
16584,"108 CIRCLE DRIVE","PORT HAYWOOD","VA",23138,37.334205922,-76.290829056,84,"108 CIRCLE DRIVE, PORT HAYWOOD, VA, 23138","Match","Exact","108 CIRCLE DR, PORT HAYWOOD, VA, 23138",199446472,"R"
16585,"108 CLARK RD TRLR 65","NAUGATUCK","CT",6770,41.4697867020001,-73.004436485,85,"108 CLARK RD TRLR 65, NAUGATUCK, CT, 6770","Match","Exact","108 CLARK RD, NAUGATUCK, CT, 06770",604754392,"L"
16586,"108 CLEAR CV","MONTICELLO","AR",71655,NA,NA,86,"108 CLEAR CV, MONTICELLO, AR, 71655","No_Match",NA,NA,NA,NA
16587,"108 CLEARMEADOW DR","COLUMBIA","SC",29229,34.1563515820001,-80.882315244,87,"108 CLEARMEADOW DR, COLUMBIA, SC, 29229","Match","Exact","108 CLEARMEADOW DR, COLUMBIA, SC, 29229",604758765,"L"
16588,"108 CLEMWOOD PKWY","HAMPTON","VA",23669,37.0591653380001,-76.337241846,88,"108 CLEMWOOD PKWY, HAMPTON, VA, 23669","Match","Exact","108 CLEMWOOD PKWY, HAMPTON, VA, 23669",103810175,"L"
16589,"108 COBBLESTONE LANE","GREENWOOD","SC",29649,34.2128205880001,-82.192114902,89,"108 COBBLESTONE LANE, GREENWOOD, SC, 29649","Match","Exact","108 COBBLESTONE LN, GREENWOOD, SC, 29649",50823490,"R"
16590,"108 COLEMAN ROAD","CRAWFORDVILLE","FL",32327,30.229673909,-84.375940376,90,"108 COLEMAN ROAD, CRAWFORDVILLE, FL, 32327","Match","Exact","108 COLEMAN RD, CRAWFORDVILLE, FL, 32327",610435976,"R"
16591,"108 COLONY CIRCLE","NATCHEZ","MS",39073,31.459978209,-91.377150563,91,"108 COLONY CIRCLE, NATCHEZ, MS, 39073","Match","Non_Exact","108 COLONY CIR, NATCHEZ, MS, 39120",79851998,"R"
16592,"108 COLUMBIA ST","HUNTINGTON STATION","NY",11746,40.8509181690001,-73.417140947,92,"108 COLUMBIA ST, HUNTINGTON STATION, NY, 11746","Match","Exact","108 COLUMBIA ST, HUNTINGTON STATION, NY, 11746",113965628,"L"
16593,"108 COLUMBIAN STREET","DARLINGTON","SC",29532,34.3047644420001,-79.8677643729999,93,"108 COLUMBIAN STREET, DARLINGTON, SC, 29532","Match","Exact","108 COLUMBIAN ST, DARLINGTON, SC, 29532",78398759,"L"
16594,"108 COPLEY AVENUE","TEANECK","NJ",7666,40.877155558,-74.0145336639999,94,"108 COPLEY AVENUE, TEANECK, NJ, 7666","Match","Exact","108 COPLEY AVE, TEANECK, NJ, 07666",64389280,"L"
16595,"108 CORAL REEF CT","SANFORD","FL",32771,28.80443547,-81.245684334,95,"108 CORAL REEF CT, SANFORD, FL, 32771","Match","Exact","108 CORAL REEF CT, SANFORD, FL, 32771",627421577,"R"
16596,"108 CORONADO SHORES","LINCOLN CITY","OR",97367,44.864211718,-124.038518024,96,"108 CORONADO SHORES, LINCOLN CITY, OR, 97367","Match","Exact","108 CORONADO SHORES, LINCOLN CITY, OR, 97367",155928536,"L"
16597,"108 COSTILL AVE","CLAYTON","NJ",8312,39.665669877,-75.089977109,97,"108 COSTILL AVE, CLAYTON, NJ, 8312","Match","Exact","108 COSTILL AVE, CLAYTON, NJ, 08312",134589901,"R"
16598,"108 COUNTRY CLUB DRIVE APT D","AMERICUS","GA",31709,32.0468526820001,-84.222040836,98,"108 COUNTRY CLUB DRIVE APT D, AMERICUS, GA, 31709","Match","Exact","108 COUNTRY CLUB DR, AMERICUS, GA, 31709",30749361,"L"
16599,"108 COURRANT STREET","CARTERSVILLE","GA",30120,34.1776433690001,-84.795837574,99,"108 COURRANT STREET, CARTERSVILLE, GA, 30120","Match","Exact","108 COURRANT ST, CARTERSVILLE, GA, 30120",30445242,"L"
16600,"108 COVE ROAD","NORTHPORT","NY",11768,40.9381931730001,-73.3841641239999,100,"108 COVE ROAD, NORTHPORT, NY, 11768","Match","Exact","108 COVE RD, NORTHPORT, NY, 11768",114033681,"R"
16601,"108 CRAWFORD STREET","CLARKSVILLE","AR",72830,35.4713512440001,-93.478778258,101,"108 CRAWFORD STREET, CLARKSVILLE, AR, 72830","Match","Non_Exact","108 S CRAWFORD ST, CLARKSVILLE, AR, 72830",73518124,"L"
16602,"108 CREEKSIDE DRIVE - 4","FRISCO","CO",80443,39.577909694,-106.103119187,102,"108 CREEKSIDE DRIVE - 4, FRISCO, CO, 80443","Match","Exact","108 CREEKSIDE DR, FRISCO, CO, 80443",106051516,"R"
16603,"108 CREEKSIDE DRIVE","HUTTO","TX",78634,30.550979388,-97.5441721779999,103,"108 CREEKSIDE DRIVE, HUTTO, TX, 78634","Match","Exact","108 CREEKSIDE DR, HUTTO, TX, 78634",126426334,"L"
16604,"108 CREEKSIDE DRIVE","HUTTO","TX",78635,30.550979388,-97.5441721779999,104,"108 CREEKSIDE DRIVE, HUTTO, TX, 78635","Match","Non_Exact","108 CREEKSIDE DR, HUTTO, TX, 78634",126426334,"L"
16605,"108 CRISP ROAD HIGHWAY 92","INGRAM","KY",40955,NA,NA,105,"108 CRISP ROAD HIGHWAY 92, INGRAM, KY, 40955","No_Match",NA,NA,NA,NA
16606,"108 CRYSTAL LAKE DRIVE","EGG HARBOR TWP","NJ",8401,NA,NA,106,"108 CRYSTAL LAKE DRIVE, EGG HARBOR TWP, NJ, 8401","No_Match",NA,NA,NA,NA
16607,"108 CUMBERLAND ST","ASHLAND CITY","TN",37015,36.2739174440001,-87.065319842,107,"108 CUMBERLAND ST, ASHLAND CITY, TN, 37015","Match","Exact","108 CUMBERLAND ST, ASHLAND CITY, TN, 37015",72874580,"R"
16608,"108 CURLEY MAPLE COURT","APEX","NC",27502,35.7292766,-78.882702332,108,"108 CURLEY MAPLE COURT, APEX, NC, 27502","Match","Exact","108 CURLEY MAPLE CT, APEX, NC, 27502",72640034,"R"
16609,"108 D A KING DRIVE","WILLOW SPRING","NC",27592,35.54850701,-78.627607799,109,"108 D A KING DRIVE, WILLOW SPRING, NC, 27592","Match","Exact","108 D A KING DR, WILLOW SPRING, NC, 27592",26555777,"L"
16610,"108 DAPHNE DRIVE","MARLTON","NJ",8053,39.892898072,-74.8732497669999,110,"108 DAPHNE DRIVE, MARLTON, NJ, 8053","Match","Exact","108 DAPHNE DR, MARLTON, NJ, 08053",134095845,"R"
16611,"108 DAYSPRING DRIVE","COLUMBIA","MO",65203,38.9551984080001,-92.401624657,111,"108 DAYSPRING DRIVE, COLUMBIA, MO, 65203","Match","Exact","108 DAYSPRING DR, COLUMBIA, MO, 65203",23486575,"R"
16612,"108 DEER CROSSING DR","MAGNOLIA","AR",71753,33.2915792160001,-93.208822595,112,"108 DEER CROSSING DR, MAGNOLIA, AR, 71753","Match","Exact","108 DEER CROSSING DR, MAGNOLIA, AR, 71753",651407945,"L"
16613,"108 DEERFIELD PLACE","ARCHDALE","NC",27263,35.894674514,-79.9306758869999,113,"108 DEERFIELD PLACE, ARCHDALE, NC, 27263","Match","Exact","108 DEERFIELD PL, ARCHDALE, NC, 27263",628959414,"R"
16614,"108 DEVONSHIRE CT","CLEMSON","SC",29631,34.6805724010001,-82.806061578,114,"108 DEVONSHIRE CT, CLEMSON, SC, 29631","Match","Exact","108 DEVONSHIRE CT, CLEMSON, SC, 29631",26224635,"R"
16615,"108 DEXTER AVE PO BOX 337","ORISKANY","NY",13424,43.157837821,-75.333892552,115,"108 DEXTER AVE PO BOX 337, ORISKANY, NY, 13424","Match","Exact","108 DEXTER AVE, ORISKANY, NY, 13424",171526029,"R"
16616,"108 DEXTER AVE","ORISKANY","NY",13424,43.157837821,-75.333892552,116,"108 DEXTER AVE, ORISKANY, NY, 13424","Match","Exact","108 DEXTER AVE, ORISKANY, NY, 13424",171526029,"R"
16617,"108 DILL DRIVE","PIEDMONT","SC",29673,34.704440983,-82.469785897,117,"108 DILL DRIVE, PIEDMONT, SC, 29673","Match","Exact","108 DILL DR, PIEDMONT, SC, 29673",25493193,"R"
16618,"108 DRUID STREET","GREENVILLE","SC",29609,34.87997274,-82.381223742,118,"108 DRUID STREET, GREENVILLE, SC, 29609","Match","Exact","108 DRUID ST, GREENVILLE, SC, 29609",38299092,"R"
16619,"108 DUCK BRANCH DRIVE","HOLLY SPRINGS","NC",27540,35.660020258,-78.882084313,119,"108 DUCK BRANCH DRIVE, HOLLY SPRINGS, NC, 27540","Match","Exact","108 DUCK BRANCH DR, HOLLY SPRINGS, NC, 27540",646862905,"L"
16620,"108 DUNDIN PLACE","MATTHEWS","NC",28104,35.028145873,-80.698773519,120,"108 DUNDIN PLACE, MATTHEWS, NC, 28104","Match","Exact","108 DUNDIN PL, MATTHEWS, NC, 28104",14186401,"R"
16621,"108 DUSKMOORE PLACE","MACON","GA",31220,32.84091074,-83.753756279,121,"108 DUSKMOORE PLACE, MACON, GA, 31220","Match","Exact","108 DUSKMOORE PL, MACON, GA, 31220",81093006,"L"
16622,"108 E 11 ST","CASA GRANDE","AZ",85122,32.8837076950001,-111.752836816,122,"108 E 11 ST, CASA GRANDE, AZ, 85122","Match","Exact","108 E 11TH ST, CASA GRANDE, AZ, 85122",129280373,"R"
16623,"108 E 124TH ST","CHICAGO","IL",60628,41.668957892,-87.619806545,123,"108 E 124TH ST, CHICAGO, IL, 60628","Match","Exact","108 E 124TH ST, CHICAGO, IL, 60628",605456560,"L"
16624,"108 E 240TH ST PO BOX 185","RINGSTED","IA",50578,43.298747238,-94.5086231989999,124,"108 E 240TH ST PO BOX 185, RINGSTED, IA, 50578","Match","Exact","108 240TH ST, RINGSTED, IA, 50578",9588189,"L"
16625,"108 E 38TH ST 18B","NEW YORK","NY",10016,40.74941189,-73.9790558239999,125,"108 E 38TH ST 18B, NEW YORK, NY, 10016","Match","Non_Exact","108 E 38TH ST, NEW YORK, NY, 10016",59654389,"R"
16626,"108 E 5TH ST","SAN DIMAS","CA",91773,34.11165743,-117.806635135,126,"108 E 5TH ST, SAN DIMAS, CA, 91773","Match","Exact","108 E 5TH ST, SAN DIMAS, CA, 91773",142788307,"R"
16627,"108 E 6TH ST","OSMOND","NE",68765,42.362023686,-97.597016206,127,"108 E 6TH ST, OSMOND, NE, 68765","Match","Non_Exact","108 W 6TH ST, OSMOND, NE, 68765",161756797,"R"
16628,"108 E 7TH ST APT 460","CORALVILLE","IA",52241,41.678000506,-91.568992669,128,"108 E 7TH ST APT 460, CORALVILLE, IA, 52241","Match","Exact","108 7TH ST, CORALVILLE, IA, 52241",84494147,"L"
16629,"108 E AMHERST AVE","LOUISVILLE","KY",40214,38.1750624850001,-85.762600952,129,"108 E AMHERST AVE, LOUISVILLE, KY, 40214","Match","Exact","108 E AMHERST AVE, LOUISVILLE, KY, 40214",96848997,"R"
16630,"108 E BAGDAD AVE STE 200","ROUND ROCK","TX",78664,NA,NA,130,"108 E BAGDAD AVE STE 200, ROUND ROCK, TX, 78664","Tie",NA,NA,NA,NA
16631,"108 E EGLIN BLVD BLDG 600","EGLIN AFB","FL",32542,NA,NA,131,"108 E EGLIN BLVD BLDG 600, EGLIN AFB, FL, 32542","No_Match",NA,NA,NA,NA
16632,"108 E HILL DRIVE","JOHNSTON","SC",29832,NA,NA,132,"108 E HILL DRIVE, JOHNSTON, SC, 29832","Tie",NA,NA,NA,NA
16633,"108 E IRONWOOD DR","REPUBLIC","MO",65738,37.0851135510001,-93.489004028,133,"108 E IRONWOOD DR, REPUBLIC, MO, 65738","Match","Non_Exact","108 IRONWOOD DR, REPUBLIC, MO, 65738",633481509,"R"
16634,"108 E MAIN STREET  SUITE 207","MONROE","WA",98272,NA,NA,134,"108 E MAIN STREET  SUITE 207, MONROE, WA, 98272","Tie",NA,NA,NA,NA
16635,"108 E MAIN STREET","NEWARK","DE",19711,39.6834337600001,-75.748199396,135,"108 E MAIN STREET, NEWARK, DE, 19711","Match","Exact","108 E MAIN ST, NEWARK, DE, 19711",187262920,"L"
16636,"108 E MARKET APT 2B","TAYLORVILLE","IL",62568,NA,NA,136,"108 E MARKET APT 2B, TAYLORVILLE, IL, 62568","No_Match",NA,NA,NA,NA
16637,"108 E MONTICELLO STREET","BROOKHAVEN","MS",39601,31.57946982,-90.4420087,137,"108 E MONTICELLO STREET, BROOKHAVEN, MS, 39601","Match","Exact","108 E MONTICELLO ST, BROOKHAVEN, MS, 39601",65675090,"L"
16638,"108 E OKLAHOMA AVE","GUTHRIE","OK",73044,35.8780397470001,-97.425136911,138,"108 E OKLAHOMA AVE, GUTHRIE, OK, 73044","Match","Exact","108 E OKLAHOMA AVE, GUTHRIE, OK, 73044",121956107,"R"
16639,"108 E WALNUT STREET","HARRISBURG","IL",62946,37.740347688,-88.539269523,139,"108 E WALNUT STREET, HARRISBURG, IL, 62946","Match","Exact","108 E WALNUT ST, HARRISBURG, IL, 62946",104098908,"R"
16640,"108 E WYANDOT AVENUE","UPPER SANDUSKY","OH",43351,40.8275087120001,-83.280945252,140,"108 E WYANDOT AVENUE, UPPER SANDUSKY, OH, 43351","Match","Exact","108 E WYANDOT AVE, UPPER SANDUSKY, OH, 43351",638736147,"R"
16641,"108 EAST 12TH ST","METROPOLIS","IL",62960,37.1569278320001,-88.725891814,141,"108 EAST 12TH ST, METROPOLIS, IL, 62960","Match","Exact","108 E 12TH ST, METROPOLIS, IL, 62960",5904140,"L"
16642,"108 EAST 24TH STREET","COVINGTON","KY",41014,39.062922337,-84.503240152,142,"108 EAST 24TH STREET, COVINGTON, KY, 41014","Match","Exact","108 E 24TH ST, COVINGTON, KY, 41014",103894565,"L"
16643,"108 EAST 5TH STREET","OXNARD","CA",93030,34.197649665,-119.177152677,143,"108 EAST 5TH STREET, OXNARD, CA, 93030","Match","Exact","108 E 5TH ST, OXNARD, CA, 93030",109962132,"R"
16644,"108 EAST 81ST ST APT 9A","NEW YORK CITY","NY",10028,40.7767814420001,-73.959138746,144,"108 EAST 81ST ST APT 9A, NEW YORK CITY, NY, 10028","Match","Exact","108 E 81ST ST, NEW YORK, NY, 10028",59657348,"R"
16645,"108 EAST BOBBY GERALD PARKWAY","MARION","SC",29571,NA,NA,145,"108 EAST BOBBY GERALD PARKWAY, MARION, SC, 29571","No_Match",NA,NA,NA,NA
16646,"108 EAST DEE STREET","LEBANON","IL",62254,38.601999042,-89.807384344,146,"108 EAST DEE STREET, LEBANON, IL, 62254","Match","Exact","108 E DEE ST, LEBANON, IL, 62254",107846032,"L"
16647,"108 EAST DUNN ROAD","NEW CARLISLE","IN",46552,41.701611379,-86.506170637,147,"108 EAST DUNN ROAD, NEW CARLISLE, IN, 46552","Match","Non_Exact","108 DUNN RD, NEW CARLISLE, IN, 46552",639712200,"L"
16648,"108 EAST FORSYTH STREET","AMERICUS","GA",31709,32.0738713590001,-84.241371332,148,"108 EAST FORSYTH STREET, AMERICUS, GA, 31709","Match","Non_Exact","108 W FORSYTH ST, AMERICUS, GA, 31709",619829142,"R"
16649,"108 EAST JAMES STREET","DAVENPORT","FL",33837,28.165575775,-81.596497572,149,"108 EAST JAMES STREET, DAVENPORT, FL, 33837","Match","Non_Exact","108 JAMES ST, DAVENPORT, FL, 33837",104805421,"L"
16650,"108 EAST LINCOLN AVE","WATERLOO","NE",68069,41.286946808,-96.2808027089999,150,"108 EAST LINCOLN AVE, WATERLOO, NE, 68069","Match","Exact","108 E LINCOLN AVE, WATERLOO, NE, 68069",116964481,"L"
16651,"108 EAST LINDEN AVE","DUMONT","NJ",7628,40.9459595370001,-73.98726568,151,"108 EAST LINDEN AVE, DUMONT, NJ, 7628","Match","Exact","108 E LINDEN AVE, DUMONT, NJ, 07628",64372017,"L"
16652,"108 EAST MAIN ST SUITE 204","MONROE","WA",98272,47.8558156830001,-121.970546367,152,"108 EAST MAIN ST SUITE 204, MONROE, WA, 98272","Match","Exact","108 E MAIN ST, MONROE, WA, 98272",187767646,"R"
16653,"108 EAST MAIN STREET SUITE 5","CARRBORO","NC",27510,35.9103362320001,-79.071950628,153,"108 EAST MAIN STREET SUITE 5, CARRBORO, NC, 27510","Match","Exact","108 E MAIN ST, CARRBORO, NC, 27510",72378713,"R"
16654,"108 EAST OAK RIDGE PLACE","BREWTON","AL",36426,31.148626603,-87.0533978989999,154,"108 EAST OAK RIDGE PLACE, BREWTON, AL, 36426","Match","Exact","108 E OAK RIDGE PL, BREWTON, AL, 36426",1937933,"R"
16655,"108 EAST SOUTH FIRST ST","GRANGEVILLE","ID",83530,45.924276251,-116.120348859,155,"108 EAST SOUTH FIRST ST, GRANGEVILLE, ID, 83530","Match","Exact","108 E SOUTH 1ST ST, GRANGEVILLE, ID, 83530",195898654,"L"
16656,"108 EAST VERMONT STREET","KING CITY","MO",64463,40.0511112670001,-94.523394222,156,"108 EAST VERMONT STREET, KING CITY, MO, 64463","Match","Exact","108 E VERMONT ST, KING CITY, MO, 64463",17827811,"R"
16657,"108 EL CAMINO REAL","SAN CARLOS","CA",94070,37.511609041,-122.265976784,157,"108 EL CAMINO REAL, SAN CARLOS, CA, 94070","Match","Exact","108 EL CAMINO REAL, SAN CARLOS, CA, 94070",192382105,"R"
16658,"108 ELAINE DRIVE","LAFAYETTE","LA",70507,30.2928518150001,-92.050328264,158,"108 ELAINE DRIVE, LAFAYETTE, LA, 70507","Match","Exact","108 ELAINE DR, LAFAYETTE, LA, 70507",85627838,"R"
16659,"108 ELLSWORTH CIRCLE","SAINT JOHNS","FL",32259,30.077578783,-81.53809337,159,"108 ELLSWORTH CIRCLE, SAINT JOHNS, FL, 32259","Match","Exact","108 ELLSWORTH CIR, SAINT JOHNS, FL, 32259",639335407,"L"
16660,"108 ELM STREET","SWANSEA","MA",2777,41.7465507920001,-71.1871780709999,160,"108 ELM STREET, SWANSEA, MA, 2777","Match","Exact","108 ELM ST, SWANSEA, MA, 02777",46816988,"L"
16661,"108 ELMWOOD DR","SALISBURY","NC",28147,35.700667308,-80.5325950439999,161,"108 ELMWOOD DR, SALISBURY, NC, 28147","Match","Exact","108 ELMWOOD DR, SALISBURY, NC, 28147",25267006,"R"
16662,"108 ENGLAND RD","CHAPLIN","CT",6235,41.789273381,-72.1173820829999,162,"108 ENGLAND RD, CHAPLIN, CT, 6235","Match","Exact","108 ENGLAND RD, CHAPLIN, CT, 06235",56458255,"R"
16663,"108 ESPY STREET","NANTICOKE","PA",18634,41.185289594,-75.986484388,163,"108 ESPY STREET, NANTICOKE, PA, 18634","Match","Exact","108 ESPY ST, NANTICOKE, PA, 18634",80906788,"R"
16664,"108 ESTES CT","LYONS","CO",80540,40.2161882090001,-105.263293426,164,"108 ESTES CT, LYONS, CO, 80540","Match","Exact","108 ESTES CT, LYONS, CO, 80540",627308767,"L"
16665,"108 FALL CREEK DR","KYLE","TX",78640,30.0052070840001,-97.875659008,165,"108 FALL CREEK DR, KYLE, TX, 78640","Match","Exact","108 FALL CREEK DR, KYLE, TX, 78640",63847211,"R"
16666,"108 FARLEY ROAD","BRUNSWICK","ME",4011,43.9091336970001,-69.9136713469999,166,"108 FARLEY ROAD, BRUNSWICK, ME, 4011","Match","Exact","108 FARLEY RD, BRUNSWICK, ME, 04011",78076426,"L"
16667,"108 FIELDSTONE DRIVE","GRAY","TN",37615,36.417800662,-82.441235351,167,"108 FIELDSTONE DRIVE, GRAY, TN, 37615","Match","Exact","108 FIELDSTONE DR, GRAY, TN, 37615",127943981,"R"
16668,"108 FISHER ROAD","JENKINTOWN","PA",19046,40.0837777890001,-75.1207620059999,168,"108 FISHER ROAD, JENKINTOWN, PA, 19046","Match","Exact","108 FISHER RD, JENKINTOWN, PA, 19046",135094405,"L"
16669,"108 FLEETWOOD AVE","MOUNT LAUREL","NJ",8054,39.9831480170001,-74.8702103209999,169,"108 FLEETWOOD AVE, MOUNT LAUREL, NJ, 8054","Match","Exact","108 FLEETWOOD AVE, MOUNT LAUREL, NJ, 08054",134032760,"L"
16670,"108 FLEURIE DR","FLORISSANT","MO",63031,38.8057862420001,-90.378462687,170,"108 FLEURIE DR, FLORISSANT, MO, 63031","Match","Exact","108 FLEURIE DR, FLORISSANT, MO, 63031",100162231,"R"
16671,"108 FOREST HILLS COURT","CARY","NC",27511,35.7604891460001,-78.794211102,171,"108 FOREST HILLS COURT, CARY, NC, 27511","Match","Exact","108 FOREST HILLS CT, CARY, NC, 27511",72556487,"R"
16672,"108 FOUR OCLOCK LANE","WAGGAMAN","LA",70094,29.947295008,-90.2375878399999,172,"108 FOUR OCLOCK LANE, WAGGAMAN, LA, 70094","Match","Non_Exact","108 FOUR OCLOCK LN, WESTWEGO, LA, 70094",93496521,"L"
16673,"108 FOX CHAPEL RD","IRMO","SC",29063,34.1188998850001,-81.1584530439999,173,"108 FOX CHAPEL RD, IRMO, SC, 29063","Match","Exact","108 FOX CHAPEL RD, IRMO, SC, 29063",71860831,"R"
16674,"108 FRANCOLYN TERRACE","WEST POINT","GA",31833,32.8684855390001,-85.180578693,174,"108 FRANCOLYN TERRACE, WEST POINT, GA, 31833","Match","Exact","108 FRANCOLYN TER, WEST POINT, GA, 31833",1735185,"L"
16675,"108 FRANKLIN COURT","LA PORTE","IN",46350,41.6026620280001,-86.712185571,175,"108 FRANKLIN COURT, LA PORTE, IN, 46350","Match","Exact","108 FRANKLIN CT, LA PORTE, IN, 46350",618482630,"L"
16676,"108 FREDRICKSBURG CIR","HALLSVILLE","TX",75650,32.4959323030001,-94.559657015,176,"108 FREDRICKSBURG CIR, HALLSVILLE, TX, 75650","Match","Exact","108 FREDRICKSBURG CIR, HALLSVILLE, TX, 75650",613759024,"R"
16677,"108 FREEDOM CIRCLE","WINCHESTER","VA",22602,39.184459066,-78.112922322,177,"108 FREEDOM CIRCLE, WINCHESTER, VA, 22602","Match","Exact","108 FREEDOM CIR, WINCHESTER, VA, 22602",55587358,"R"
16678,"108 FRIAR WAY","CAMPBELL","CA",95008,37.276062488,-121.951238648,178,"108 FRIAR WAY, CAMPBELL, CA, 95008","Match","Exact","108 FRIAR WAY, CAMPBELL, CA, 95008",618174544,"L"
16679,"108 GATES ROAD","ANDOVER","VT",5143,43.244550808,-72.723706498,179,"108 GATES ROAD, ANDOVER, VT, 5143","Match","Exact","108 GATES RD, ANDOVER, VT, 05143",139248405,"L"
16680,"108 GEORGE AVENUE","NEW ELLENTON","SC",29809,33.42178956,-81.6842413909999,180,"108 GEORGE AVENUE, NEW ELLENTON, SC, 29809","Match","Exact","108 GEORGE AVE, NEW ELLENTON, SC, 29809",64969980,"R"
16681,"108 GILLETTE AVENUE","BUFFALO","NY",14214,42.9245511980001,-78.843811205,181,"108 GILLETTE AVENUE, BUFFALO, NY, 14214","Match","Exact","108 GILLETTE AVE, BUFFALO, NY, 14214",48296340,"L"
16682,"108 GLENLOCH PKWY","STOCKBRIDGE","GA",30281,33.591016569,-84.2304918889999,182,"108 GLENLOCH PKWY, STOCKBRIDGE, GA, 30281","Match","Exact","108 GLENLOCH PKWY, STOCKBRIDGE, GA, 30281",23195730,"R"
16683,"108 GLENRIDGE AVE","MONTCLAIR","NJ",7042,NA,NA,183,"108 GLENRIDGE AVE, MONTCLAIR, NJ, 7042","No_Match",NA,NA,NA,NA
16684,"108 GLENSHIRE DRIVE","COLUMBIA","SC",29203,34.0829979170001,-81.0031711,184,"108 GLENSHIRE DRIVE, COLUMBIA, SC, 29203","Match","Exact","108 GLENSHIRE DR, COLUMBIA, SC, 29203",71819193,"R"
16685,"108 GRACE PLACE","FESTUS","MO",63028,38.195767561,-90.453090805,185,"108 GRACE PLACE, FESTUS, MO, 63028","Match","Exact","108 GRACE PL, FESTUS, MO, 63028",62773603,"R"
16686,"108 GREEN FOREST ESTATES","ST. PETERS","MO",63376,38.785816541,-90.6524876249999,186,"108 GREEN FOREST ESTATES, ST. PETERS, MO, 63376","Match","Non_Exact","108 GREEN FOREST ESTATES DR, SAINT PETERS, MO, 63376",100052720,"R"
16687,"108 GREENWOOD PLACE","DECATUR","GA",30030,33.767263771,-84.302590901,187,"108 GREENWOOD PLACE, DECATUR, GA, 30030","Match","Exact","108 GREENWOOD PL, DECATUR, GA, 30030",23366471,"L"
16688,"108 GROVE STREET","NORTH ATTLEBORO","MA",2760,41.9855979450001,-71.335760533,188,"108 GROVE STREET, NORTH ATTLEBORO, MA, 2760","Match","Exact","108 GROVE ST, NORTH ATTLEBORO, MA, 02760",46744966,"R"
16689,"108 GUENTHER AVE","VALLEY STREAM","NY",11580,40.6737785240001,-73.7176614799999,189,"108 GUENTHER AVE, VALLEY STREAM, NY, 11580","Match","Exact","108 GUENTHER AVE, VALLEY STREAM, NY, 11580",147668363,"L"
16690,"108 HALSEY","CHATTANOOGA","TN",37410,34.9898581,-85.321835613,190,"108 HALSEY, CHATTANOOGA, TN, 37410","Match","Non_Exact","108 HALSEY ST, CHATTANOOGA, TN, 37410",59312816,"L"
16691,"108 HAMILTON PLACE","HEADLAND","AL",36345,NA,NA,191,"108 HAMILTON PLACE, HEADLAND, AL, 36345","No_Match",NA,NA,NA,NA
16692,"108 HAMPTON STREET","SAG HARBOR","NY",11963,40.9968006720001,-72.286869232,192,"108 HAMPTON STREET, SAG HARBOR, NY, 11963","Match","Exact","108 HAMPTON ST, SAG HARBOR, NY, 11963",113960036,"R"
16693,"108 HANCOCK ROAD","PETERBOROUGH","NH",3458,42.9130935100001,-71.9387963189999,193,"108 HANCOCK ROAD, PETERBOROUGH, NH, 3458","Match","Exact","108 HANCOCK RD, PETERBOROUGH, NH, 03458",113578560,"L"
16694,"108 HARNESS DR","MERIDEN","CT",6450,41.5197390760001,-72.777194061,194,"108 HARNESS DR, MERIDEN, CT, 6450","Match","Exact","108 HARNESS DR, MERIDEN, CT, 06450",3725024,"L"
16695,"108 HARVEST CIR APT 105P","SHEFFIELD","AL",35660,NA,NA,195,"108 HARVEST CIR APT 105P, SHEFFIELD, AL, 35660","No_Match",NA,NA,NA,NA
16696,"108 HAWTHORN STREET","COLONIAL BEACH","VA",22443,NA,NA,196,"108 HAWTHORN STREET, COLONIAL BEACH, VA, 22443","No_Match",NA,NA,NA,NA
16697,"108 HAZELWOOD AVENUE","ANDERSON","SC",29626,34.49277985,-82.6854400839999,197,"108 HAZELWOOD AVENUE, ANDERSON, SC, 29626","Match","Non_Exact","108 HAZELWOOD DR, ANDERSON, SC, 29626",25451938,"R"
16698,"108 HEIDI LANE","EASLEY","SC",29640,34.8399958140001,-82.635913686,198,"108 HEIDI LANE, EASLEY, SC, 29640","Match","Exact","108 HEIDI LN, EASLEY, SC, 29640",26161174,"L"
16699,"108 HEIN DR","CLAYTON","NC",27527,35.6346273680001,-78.3836805999999,199,"108 HEIN DR, CLAYTON, NC, 27527","Match","Exact","108 HEIN DR, CLAYTON, NC, 27527",638962875,"R"
16700,"108 HERMITAGE PLACE","PEACHTREE CITY","GA",30269,33.407124659,-84.588544459,200,"108 HERMITAGE PLACE, PEACHTREE CITY, GA, 30269","Match","Exact","108 HERMITAGE PL, PEACHTREE CITY, GA, 30269",75926762,"R"
16701,"108 HERNDON MILL CIRCLE","HERNDON","VA",20170,38.9702404940001,-77.372270637,201,"108 HERNDON MILL CIRCLE, HERNDON, VA, 20170","Match","Exact","108 HERNDON MILL CIR, HERNDON, VA, 20170",215968613,"R"
16702,"108 HIDDEN PASTURE TRAIL","FOUNTAIN INN","SC",29644,NA,NA,202,"108 HIDDEN PASTURE TRAIL, FOUNTAIN INN, SC, 29644","No_Match",NA,NA,NA,NA
16703,"108 HIDE A WAY LN E","HIDEAWAY","TX",75771,32.4727225940001,-95.4551375899999,203,"108 HIDE A WAY LN E, HIDEAWAY, TX, 75771","Match","Non_Exact","108 HIDE-A-WAY LN E, HIDEAWAY, TX, 75771",641485289,"R"
16704,"108 HIGH STREET  SUITE 7","HACKETTSTOWN","NJ",7480,NA,NA,204,"108 HIGH STREET  SUITE 7, HACKETTSTOWN, NJ, 7480","No_Match",NA,NA,NA,NA
16705,"108 HIGH STREET","EDINBORO","PA",16412,41.87449732,-80.1300883169999,205,"108 HIGH STREET, EDINBORO, PA, 16412","Match","Exact","108 HIGH ST, EDINBORO, PA, 16412",117490880,"L"
16706,"108 HILLCREST DRIVE","ORINDA","CA",94563,37.8775530500001,-122.162029367,206,"108 HILLCREST DRIVE, ORINDA, CA, 94563","Match","Exact","108 HILLCREST DR, ORINDA, CA, 94563",192050890,"R"
16707,"108 HILLS LOROUGH LOOP","JACKSONVILLE","NC",28546,34.811219114,-77.419970999,207,"108 HILLS LOROUGH LOOP, JACKSONVILLE, NC, 28546","Match","Exact","108 HILLS LOROUGH LOOP, JACKSONVILLE, NC, 28546",633816281,"L"
16708,"108 HOLLY DRIVE","WARNER ROBINS","GA",31088,32.5708887550001,-83.578894464,208,"108 HOLLY DRIVE, WARNER ROBINS, GA, 31088","Match","Exact","108 HOLLY DR, WARNER ROBINS, GA, 31088",91250260,"R"
16709,"108 HOLT STREET","HILLSBOROUGH","NC",27278,36.0747592450001,-79.113030548,209,"108 HOLT STREET, HILLSBOROUGH, NC, 27278","Match","Exact","108 HOLT ST, HILLSBOROUGH, NC, 27278",72376492,"R"
16710,"108 HOMEWOOD DRIVE","FAYETTEVILLE","NY",13066,43.029103191,-76.028642581,210,"108 HOMEWOOD DRIVE, FAYETTEVILLE, NY, 13066","Match","Exact","108 HOMEWOOD DR, FAYETTEVILLE, NY, 13066",46576334,"R"
16711,"108 HOUSTON AVENUE SUITE 200","WEATHERFORD","TX",76086,32.758556862,-97.798084822,211,"108 HOUSTON AVENUE SUITE 200, WEATHERFORD, TX, 76086","Match","Non_Exact","108 HOUSTON ST, WEATHERFORD, TX, 76086",103588295,"L"
16712,"108 HUME COURT","BECKLEY","WV",25801,37.783415953,-81.187536338,212,"108 HUME COURT, BECKLEY, WV, 25801","Match","Exact","108 HUME CT, BECKLEY, WV, 25801",647695197,"L"
16713,"108 HUNTER PARK DRIVE","YORK","SC",29745,34.9963714720001,-81.215606387,213,"108 HUNTER PARK DRIVE, YORK, SC, 29745","Match","Exact","108 HUNTER PARK DR, YORK, SC, 29745",19833891,"R"
16714,"108 HUNTERS RUN ROAD","KING OF PRUSSIA","PA",19406,40.103297184,-75.370959274,214,"108 HUNTERS RUN ROAD, KING OF PRUSSIA, PA, 19406","Match","Exact","108 HUNTERS RUN RD, KING OF PRUSSIA, PA, 19406",135130428,"R"
16715,"108 HUNTINGTON VW","BRANDON","MS",39047,32.3687938140001,-90.034795598,215,"108 HUNTINGTON VW, BRANDON, MS, 39047","Match","Exact","108 HUNTINGTON VW, BRANDON, MS, 39047",624588109,"R"
16716,"108 HURON COVE","MADISON","AL",35758,34.7328568720001,-86.717082884,216,"108 HURON COVE, MADISON, AL, 35758","Match","Exact","108 HURON COVE, MADISON, AL, 35758",58160187,"R"
16717,"108 IDAHO ST","GLIDDEN","IA",51443,42.055411561,-94.7288818059999,217,"108 IDAHO ST, GLIDDEN, IA, 51443","Match","Non_Exact","108 S IDAHO ST, GLIDDEN, IA, 51443",68631774,"R"
16718,"108 IDYLWOOD PLACE","VICTORIA","TX",77901,28.8210770580001,-96.962384404,218,"108 IDYLWOOD PLACE, VICTORIA, TX, 77901","Match","Exact","108 IDYLWOOD PL, VICTORIA, TX, 77901",44561418,"L"
16719,"108 IMMANUEL LN","MILLINGTON","MD",21651,39.246255439,-75.863704403,219,"108 IMMANUEL LN, MILLINGTON, MD, 21651","Match","Non_Exact","108 IMANUEL LN, MILLINGTON, MD, 21651",68052743,"R"
16720,"108 IOWA LANE","TALLAHASSEE","FL",32305,30.3881311590001,-84.2717961879999,220,"108 IOWA LANE, TALLAHASSEE, FL, 32305","Match","Exact","108 IOWA LN, TALLAHASSEE, FL, 32305",82880253,"R"
16721,"108 J STREET","TURNERS FALLS","MA",1376,42.6059164150001,-72.561142178,221,"108 J STREET, TURNERS FALLS, MA, 1376","Match","Exact","108 J ST, TURNERS FALLS, MA, 01376",39916270,"L"
16722,"108 JAMESTOWN OAKS","JAMESTOWN","NC",27282,35.9819651550001,-79.9264325039999,222,"108 JAMESTOWN OAKS, JAMESTOWN, NC, 27282","Match","Non_Exact","108 JAMESTOWN OAKS DR, JAMESTOWN, NC, 27282",131098345,"R"
16723,"108 JAY LANE A","HAMPTON","GA",30228,33.391960812,-84.2961333379999,223,"108 JAY LANE A, HAMPTON, GA, 30228","Match","Exact","108 JAY LN, HAMPTON, GA, 30228",23195069,"L"
16724,"108 JENNINGS LANE","BRONSTON","KY",42518,36.980424772,-84.656620037,224,"108 JENNINGS LANE, BRONSTON, KY, 42518","Match","Exact","108 JENNINGS LN, BRONSTON, KY, 42518",39113797,"R"
16725,"108 JORALEMON STREET","BROOKLYN","NY",11201,40.6931543150001,-73.995147291,225,"108 JORALEMON STREET, BROOKLYN, NY, 11201","Match","Exact","108 JORALEMON ST, BROOKLYN, NY, 11201",59075000,"R"
16726,"108 KATHLEEN COURT","KING","NC",27021,36.2931640990001,-80.3391974199999,226,"108 KATHLEEN COURT, KING, NC, 27021","Match","Exact","108 KATHLEEN CT, KING, NC, 27021",56336081,"R"
16727,"108 KENSHIRE DRIVE","BENBROOK","TX",76126,32.66572982,-97.481414705,227,"108 KENSHIRE DRIVE, BENBROOK, TX, 76126","Match","Exact","108 KENSHIRE DR, BENBROOK, TX, 76126",101878509,"R"
16728,"108 KENTMERE LN","CLOVER","SC",29710,35.0981728900001,-81.102671087,228,"108 KENTMERE LN, CLOVER, SC, 29710","Match","Exact","108 KENTMERE LN, CLOVER, SC, 29710",618911108,"R"
16729,"108 KEPLAR PL","FAIRHOPE","AL",36532,30.561897593,-87.884999608,229,"108 KEPLAR PL, FAIRHOPE, AL, 36532","Match","Non_Exact","108 KEPLER PL, FAIRHOPE, AL, 36532",131718441,"R"
16730,"108 KIME AVE","NORTH BABYLON","NY",11703,40.733690713,-73.3137224069999,230,"108 KIME AVE, NORTH BABYLON, NY, 11703","Match","Exact","108 KIME AVE, NORTH BABYLON, NY, 11703",113993126,"R"
16731,"108 KIMERON ST SE","SALEM","OR",97306,44.882254163,-123.060711723,231,"108 KIMERON ST SE, SALEM, OR, 97306","Match","Exact","108 KIMERON ST SE, SALEM, OR, 97306",613678487,"R"
16732,"108 KING STREET","KINGSTON","TN",37763,35.86181062,-84.5028562099999,232,"108 KING STREET, KINGSTON, TN, 37763","Match","Exact","108 KING ST, KINGSTON, TN, 37763",88595458,"L"
16733,"108 LA GRANGE AVENUE","LA PLATA","MD",20646,38.5278109060001,-76.976868382,233,"108 LA GRANGE AVENUE, LA PLATA, MD, 20646","Match","Exact","108 LA GRANGE AVE, LA PLATA, MD, 20646",25400661,"R"
16734,"108 LANCASHIRE ROAD","SUMMERVILLE","SC",29486,33.031281871,-80.120384367,234,"108 LANCASHIRE ROAD, SUMMERVILLE, SC, 29486","Match","Exact","108 LANCASHIRE RD, SUMMERVILLE, SC, 29486",100752752,"L"
16735,"108 LANDFALL COURT","ROANOKE RAPIDS","NC",27870,36.4736439820001,-77.684213886,235,"108 LANDFALL COURT, ROANOKE RAPIDS, NC, 27870","Match","Exact","108 LANDFALL CT, ROANOKE RAPIDS, NC, 27870",56726089,"L"
16736,"108 LANDING PT","STOCKBRIDGE","GA",30281,33.51755411,-84.231069879,236,"108 LANDING PT, STOCKBRIDGE, GA, 30281","Match","Exact","108 LANDING PT, STOCKBRIDGE, GA, 30281",619945671,"L"
16737,"108 LEWISTON STREET","MECHANIC FALLS","ME",4256,44.108473614,-70.377795436,237,"108 LEWISTON STREET, MECHANIC FALLS, ME, 4256","Match","Exact","108 LEWISTON ST, MECHANIC FALLS, ME, 04256",77982569,"L"
16738,"108 LEXINGTON AVENUE","OYSTER BAY","NY",11771,40.8695522560001,-73.5352435729999,238,"108 LEXINGTON AVENUE, OYSTER BAY, NY, 11771","Match","Exact","108 LEXINGTON AVE, OYSTER BAY, NY, 11771",147622488,"R"
16739,"108 LEXINGTON STREET","WHITEHOUSE","TX",75791,32.226458167,-95.2172804209999,239,"108 LEXINGTON STREET, WHITEHOUSE, TX, 75791","Match","Exact","108 LEXINGTON ST, WHITEHOUSE, TX, 75791",141299241,"L"
16740,"108 LOCUST STREET","OBERLIN","OH",44074,41.286249421,-82.2142155669999,240,"108 LOCUST STREET, OBERLIN, OH, 44074","Match","Exact","108 LOCUST ST, OBERLIN, OH, 44074",55411561,"L"
16741,"108 LONG SHADOW PLACE","DURHAM","NC",27713,35.9259460920001,-78.940190532,241,"108 LONG SHADOW PLACE, DURHAM, NC, 27713","Match","Exact","108 LONG SHADOW PL, DURHAM, NC, 27713",71787990,"L"
16742,"108 LORD KITCHENER","NEW ROCHELLE","NY",10804,40.957399781,-73.7904802039999,242,"108 LORD KITCHENER, NEW ROCHELLE, NY, 10804","Match","Non_Exact","108 LORD KITCHNER RD, NEW ROCHELLE, NY, 10804",139788320,"L"
16743,"108 LORRAINE DRIVE","FREDERICA","DE",19946,39.0324336140001,-75.5096673369999,243,"108 LORRAINE DRIVE, FREDERICA, DE, 19946","Match","Exact","108 LORRAINE DR, FREDERICA, DE, 19946",68093243,"R"
16744,"108 LOUISE LANE","SHREVEPORT","LA",71107,32.58450635,-93.888386805,244,"108 LOUISE LANE, SHREVEPORT, LA, 71107","Match","Exact","108 LOUISE LN, SHREVEPORT, LA, 71107",57428518,"R"
16745,"108 LOWELL STREET","SPRINGFIELD","MA",1107,42.1119133110001,-72.613320384,245,"108 LOWELL STREET, SPRINGFIELD, MA, 1107","Match","Exact","108 LOWELL ST, SPRINGFIELD, MA, 01107",4062043,"R"
16746,"108 MAIN ST W","EAGLE BEND","MN",56446,46.1648404640001,-95.036650778,246,"108 MAIN ST W, EAGLE BEND, MN, 56446","Match","Exact","108 MAIN ST W, EAGLE BEND, MN, 56446",201421306,"L"
16747,"108 MAIN ST","BRUNSWICK","ME",4011,NA,NA,247,"108 MAIN ST, BRUNSWICK, ME, 4011","No_Match",NA,NA,NA,NA
16748,"108 MAIN STREET","JOPLIN","MO",64801,NA,NA,248,"108 MAIN STREET, JOPLIN, MO, 64801","Tie",NA,NA,NA,NA
16749,"108 MAIN STREET","NORWAY","ME",4268,44.2047420220001,-70.531680147,249,"108 MAIN STREET, NORWAY, ME, 4268","Match","Exact","108 MAIN ST, NORWAY, ME, 04268",92661510,"L"
16750,"108 MAIN STREET","TILTONSVILLE","OH",43963,40.1691198830001,-80.6957880689999,250,"108 MAIN STREET, TILTONSVILLE, OH, 43963","Match","Exact","108 MAIN ST, TILTONSVILLE, OH, 43963",37805077,"R"
16751,"108 MAPLE AVE","WATERFORD WORKS","NJ",8089,39.7216904420001,-74.853143468,251,"108 MAPLE AVE, WATERFORD WORKS, NJ, 8089","Match","Exact","108 MAPLE AVE, WATERFORD WORKS, NJ, 08089",134376074,"L"
16752,"108 MARRGATE DRIVE","YUKON","OK",73099,35.467543644,-97.746240974,252,"108 MARRGATE DRIVE, YUKON, OK, 73099","Match","Exact","108 MARRGATE DR, YUKON, OK, 73099",640431841,"L"
16753,"108 MARSHALL WOOD ROAD","REISTERSTOWN","MD",21136,39.4506461340001,-76.824907775,253,"108 MARSHALL WOOD ROAD, REISTERSTOWN, MD, 21136","Match","Exact","108 MARSHALL WOOD RD, REISTERSTOWN, MD, 21136",191502160,"L"
16754,"108 MATTHES PL","WILMINGTON","DE",19804,39.728007588,-75.589859441,254,"108 MATTHES PL, WILMINGTON, DE, 19804","Match","Exact","108 MATTHES PL, WILMINGTON, DE, 19804",187268236,"L"
16755,"108 MCARTHUR CT","YOUNGSVILLE","LA",70592,30.1172029480001,-91.9845718669999,255,"108 MCARTHUR CT, YOUNGSVILLE, LA, 70592","Match","Exact","108 MCARTHUR CT, YOUNGSVILLE, LA, 70592",648193801,"R"
16756,"108 MCCOY CIRCLE","BASTROP","TX",78602,30.121947144,-97.404250121,256,"108 MCCOY CIRCLE, BASTROP, TX, 78602","Match","Exact","108 MCCOY CIR, BASTROP, TX, 78602",635219024,"L"
16757,"108 MEADOW POINT ROAD","POINT PLEASANT","NJ",8742,40.0916693570001,-74.081706025,257,"108 MEADOW POINT ROAD, POINT PLEASANT, NJ, 8742","Match","Exact","108 MEADOW POINT RD, PT PLEASANT, NJ, 08742",203734348,"R"
16758,"108 MEADOWBROOK DR","SAN ANTONIO","TX",78232,29.5973732640001,-98.4787449679999,258,"108 MEADOWBROOK DR, SAN ANTONIO, TX, 78232","Match","Exact","108 MEADOWBROOK DR, SAN ANTONIO, TX, 78232",101495135,"L"
16759,"108 MEADOWGREE DRIVE","ROYERSFORD","PA",19468,NA,NA,259,"108 MEADOWGREE DRIVE, ROYERSFORD, PA, 19468","No_Match",NA,NA,NA,NA
16760,"108 MIDDLE RD","DRESDEN","ME",4342,44.100807425,-69.730197816,260,"108 MIDDLE RD, DRESDEN, ME, 4342","Match","Exact","108 MIDDLE RD, DRESDEN, ME, 04342",75298061,"R"
16761,"108 MIDIAN COURT","WINSTON-SALEM","NC",27105,36.113784653,-80.2450765839999,261,"108 MIDIAN COURT, WINSTON-SALEM, NC, 27105","Match","Exact","108 MIDIAN CT, WINSTON SALEM, NC, 27105",84640130,"R"
16762,"108 MINNESOTA AVE STE 6","SAINT PETER","MN",56082,NA,NA,262,"108 MINNESOTA AVE STE 6, SAINT PETER, MN, 56082","Tie",NA,NA,NA,NA
16763,"108 MIRA MONTE ROAD","GRAND JUNCTION","CO",81507,39.0544765120001,-108.589389575,263,"108 MIRA MONTE ROAD, GRAND JUNCTION, CO, 81507","Match","Exact","108 MIRA MONTE RD, GRAND JCT, CO, 81507",122460901,"L"
16764,"108 MORNINGSIDE DR SE","GRAND RAPIDS","MI",49506,42.96078206,-85.591258124,264,"108 MORNINGSIDE DR SE, GRAND RAPIDS, MI, 49506","Match","Exact","108 MORNINGSIDE DR SE, GRAND RAPIDS, MI, 49506",12467523,"L"
16765,"108 MORNINGSTAR CT","WILLIAMSVILLE","NY",14221,42.9772046900001,-78.771416318,265,"108 MORNINGSTAR CT, WILLIAMSVILLE, NY, 14221","Match","Exact","108 MORNINGSTAR CT, WILLIAMSVILLE, NY, 14221",48298456,"L"
16766,"108 MUNICIPAL ROAD","MILLERSBURG","PA",17061,40.5752706230001,-76.839428884,266,"108 MUNICIPAL ROAD, MILLERSBURG, PA, 17061","Match","Exact","108 MUNICIPAL RD, MILLERSBURG, PA, 17061",70808777,"R"
16767,"108 N 14TH ST","KENILWORTH","NJ",7033,40.6780056050001,-74.2981014009999,267,"108 N 14TH ST, KENILWORTH, NJ, 7033","Match","Exact","108 N 14TH ST, KENILWORTH, NJ, 07033",60570138,"L"
16768,"108 N 875 W","LAYTON","UT",84041,41.0614573770001,-111.982499717,268,"108 N 875 W, LAYTON, UT, 84041","Match","Exact","108 N 875 W, LAYTON, UT, 84041",229339354,"R"
16769,"108 N ADAMS ST","YPSILANTI","MI",48197,42.24243289,-83.615985011,269,"108 N ADAMS ST, YPSILANTI, MI, 48197","Match","Exact","108 N ADAMS ST, YPSILANTI, MI, 48197",26020803,"R"
16770,"108 N BRAND BLVD SUITE 201","GLENDALE","CA",91203,NA,NA,270,"108 N BRAND BLVD SUITE 201, GLENDALE, CA, 91203","No_Match",NA,NA,NA,NA
16771,"108 N BROAD STREET","EDENTON","NC",27932,36.061071628,-76.6081872189999,271,"108 N BROAD STREET, EDENTON, NC, 27932","Match","Exact","108 N BROAD ST, EDENTON, NC, 27932",18468766,"R"
16772,"108 N DEPOT DR 107","FORT PIERCE","FL",34950,NA,NA,272,"108 N DEPOT DR 107, FORT PIERCE, FL, 34950","Tie",NA,NA,NA,NA
16773,"108 N DORSET AVENUE","VENTNOR CITY","NJ",8406,39.342222656,-74.47872266,273,"108 N DORSET AVENUE, VENTNOR CITY, NJ, 8406","Match","Exact","108 N DORSET AVE, VENTNOR CITY, NJ, 08406",202488593,"L"
16774,"108 N GIBBS RD","MOORESVILLE","NC",28117,35.574065004,-80.857145107,274,"108 N GIBBS RD, MOORESVILLE, NC, 28117","Match","Exact","108 N GIBBS RD, MOORESVILLE, NC, 28117",45991591,"R"
16775,"108 N JEFFERSON WAY","INDIANOLA","IA",50125,41.360447031,-93.558299388,275,"108 N JEFFERSON WAY, INDIANOLA, IA, 50125","Match","Exact","108 N JEFFERSON WAY, INDIANOLA, IA, 50125",83763688,"L"
16776,"108 N KERR AVENUE SUITE J2","WILMINGTON","NY",28405,NA,NA,276,"108 N KERR AVENUE SUITE J2, WILMINGTON, NY, 28405","No_Match",NA,NA,NA,NA
16777,"108 N LIGHTFOOT RD","FARMINGTON","IL",61531,NA,NA,277,"108 N LIGHTFOOT RD, FARMINGTON, IL, 61531","No_Match",NA,NA,NA,NA
16778,"108 N MAIN STREET","Petersburg","WV",26847,38.996683079,-79.124379227,278,"108 N MAIN STREET, Petersburg, WV, 26847","Match","Exact","108 N MAIN ST, PETERSBURG, WV, 26847",611547003,"R"
16779,"108 N MARION STREET","HINTON","OK",73047,NA,NA,279,"108 N MARION STREET, HINTON, OK, 73047","Tie",NA,NA,NA,NA
16780,"108 N REED ST","BRYAN","TX",77803,30.6748239250001,-96.382443614,280,"108 N REED ST, BRYAN, TX, 77803","Match","Non_Exact","108 N REED AVE, BRYAN, TX, 77803",21812676,"L"
16781,"108 N ROLLINS DR","KERSHAW","SC",29067,NA,NA,281,"108 N ROLLINS DR, KERSHAW, SC, 29067","Tie",NA,NA,NA,NA
16782,"108 N RUSSELL","PAMPA","TX",79065,35.53546184,-100.962627133,282,"108 N RUSSELL, PAMPA, TX, 79065","Match","Non_Exact","108 N RUSSELL ST, PAMPA, TX, 79065",182344277,"R"
16783,"108 N WASHINGTON STREET","MANSFIELD","IL",61854,40.2153334930001,-88.5065104399999,283,"108 N WASHINGTON STREET, MANSFIELD, IL, 61854","Match","Exact","108 N WASHINGTON ST, MANSFIELD, IL, 61854",8551514,"R"
16784,"108 N YNEZ AVENUE SUITE 208","MONTEREY PARK","CA",91754,NA,NA,284,"108 N YNEZ AVENUE SUITE 208, MONTEREY PARK, CA, 91754","Tie",NA,NA,NA,NA
16785,"108 NASH DR","QUEENSTOWN","MD",21658,38.923416467,-76.176949435,285,"108 NASH DR, QUEENSTOWN, MD, 21658","Match","Exact","108 NASH DR, QUEENSTOWN, MD, 21658",68044687,"R"
16786,"108 NATCHEZ ST","NATCHEZ","MS",39120,31.5435459120001,-91.4012116339999,286,"108 NATCHEZ ST, NATCHEZ, MS, 39120","Match","Exact","108 NATCHEZ ST, NATCHEZ, MS, 39120",79845527,"L"
16787,"108 NE 13TH AVE","CHIEFLAND","FL",32626,29.490737827,-82.859679482,287,"108 NE 13TH AVE, CHIEFLAND, FL, 32626","Match","Exact","108 NE 13TH AVE, CHIEFLAND, FL, 32626",635500944,"R"
16788,"108 NE 16TH AVENUE","FORT LAUDERDALE","FL",33301,26.1237387210001,-80.1272874159999,288,"108 NE 16TH AVENUE, FORT LAUDERDALE, FL, 33301","Match","Exact","108 NE 16TH AVE, FORT LAUDERDALE, FL, 33301",114726085,"R"
16789,"108 NEW CASTLE DRIVE","CHAPEL HILL","NC",27517,35.9216726700001,-79.006963049,289,"108 NEW CASTLE DRIVE, CHAPEL HILL, NC, 27517","Match","Exact","108 NEW CASTLE DR, CHAPEL HILL, NC, 27517",72405757,"L"
16790,"108 NIBLICK CIRCLE","SUFFOLK","VA",23434,36.7802540550001,-76.5663559719999,290,"108 NIBLICK CIRCLE, SUFFOLK, VA, 23434","Match","Exact","108 NIBLICK CIR, SUFFOLK, VA, 23434",122245066,"R"
16791,"108 NORTH ALEXANDER AVENUE","WASHINGTON","GA",30673,33.7368650550001,-82.7364891939999,291,"108 NORTH ALEXANDER AVENUE, WASHINGTON, GA, 30673","Match","Exact","108 N ALEXANDER AVE, WASHINGTON, GA, 30673",34177690,"L"
16792,"108 NORTH BOND STREET","BELAIR","MD",21014,39.5369696870001,-76.351639424,292,"108 NORTH BOND STREET, BELAIR, MD, 21014","Match","Non_Exact","108 N BOND ST, BEL AIR, MD, 21014",191641045,"L"
16793,"108 NORTH BRAND BLVD","GLENDALE","CA",91203,NA,NA,293,"108 NORTH BRAND BLVD, GLENDALE, CA, 91203","No_Match",NA,NA,NA,NA
16794,"108 NORTH CHERRY","MARION","AR",72364,35.215410084,-90.2008602289999,294,"108 NORTH CHERRY, MARION, AR, 72364","Match","Non_Exact","108 N CHERRY ST, MARION, AR, 72364",69371576,"L"
16795,"108 NORTH JEFFERSON STREET","NEWBERN","TN",38059,36.112889679,-89.2623153659999,295,"108 NORTH JEFFERSON STREET, NEWBERN, TN, 38059","Match","Non_Exact","108 JEFFERSON ST, NEWBERN, TN, 38059",40653563,"R"
16796,"108 NORTH MAIN STREET","CUBA CITY","WI",53807,42.6065679600001,-90.430799157,296,"108 NORTH MAIN STREET, CUBA CITY, WI, 53807","Match","Exact","108 N MAIN ST, CUBA CITY, WI, 53807",32757157,"R"
16797,"108 NORTH MAIN STREET","ELDERTON","PA",15736,40.6982166990001,-79.3440082449999,297,"108 NORTH MAIN STREET, ELDERTON, PA, 15736","Match","Exact","108 N MAIN ST, ELDERTON, PA, 15736",52482865,"L"
16798,"108 NORTH ORANGE BLOSSOM TRAIL","ORLANDO","FL",32805,28.544253053,-81.397302429,298,"108 NORTH ORANGE BLOSSOM TRAIL, ORLANDO, FL, 32805","Match","Exact","108 N ORANGE BLOSSOM TRL, ORLANDO, FL, 32805",94280450,"L"
16799,"108 NORTH TRAVIS STREET","SHERMAN","TX",75090,33.63670402,-96.609351224,299,"108 NORTH TRAVIS STREET, SHERMAN, TX, 75090","Match","Exact","108 N TRAVIS ST, SHERMAN, TX, 75090",63355789,"L"
16800,"108 NORTH VIRGINIA STREET","GOLDSBORO","NC",27530,35.3845898340001,-78.001630717,300,"108 NORTH VIRGINIA STREET, GOLDSBORO, NC, 27530","Match","Exact","108 NORTH VIRGINIA ST, GOLDSBORO, NC, 27530",14403345,"R"
16801,"108 NORTHGATE","AVON","CT",6001,41.7930971530001,-72.899846834,301,"108 NORTHGATE, AVON, CT, 6001","Match","Exact","108 NORTHGATE, AVON, CT, 06001",627612983,"R"
16802,"108 NW 21ST TERRACE","GAINESVILLE","FL",32603,29.6527603590001,-82.352200941,302,"108 NW 21ST TERRACE, GAINESVILLE, FL, 32603","Match","Exact","108 NW 21ST TER, GAINESVILLE, FL, 32603",647858826,"L"
16803,"108 OAK FOREST TRAIL","EULESS","TX",76039,32.8566610390001,-97.082914269,303,"108 OAK FOREST TRAIL, EULESS, TX, 76039","Match","Exact","108 OAK FOREST TRL, EULESS, TX, 76039",101872755,"R"
16804,"108 OAK HILL DR","LIBERTY HILL","TX",78642,30.654876464,-97.999251493,304,"108 OAK HILL DR, LIBERTY HILL, TX, 78642","Match","Exact","108 OAK HILL DR, LIBERTY HILL, TX, 78642",648537051,"R"
16805,"108 OAKWOOD AVENUE APT B8","WEST HARTFORD","CT",6119,41.753951559,-72.7220190149999,305,"108 OAKWOOD AVENUE APT B8, WEST HARTFORD, CT, 6119","Match","Exact","108 OAKWOOD AVE, WEST HARTFORD, CT, 06119",3494052,"L"
16806,"108 OCONEE STREET","EATONTON","GA",31024,33.325918389,-83.386304637,306,"108 OCONEE STREET, EATONTON, GA, 31024","Match","Exact","108 OCONEE ST, EATONTON, GA, 31024",16670613,"L"
16807,"108 OLD VEECHDALE ROAD  PO BOX 557","SIMPSONVILLE","KY",40067,38.2218451090001,-85.3534259579999,307,"108 OLD VEECHDALE ROAD  PO BOX 557, SIMPSONVILLE, KY, 40067","Match","Non_Exact","108 OLD VEECHDALE RD, SIMPSONVILLE, KY, 40067",97074580,"L"
16808,"108 OLIVE AVENUE","RIALTO","CA",92376,NA,NA,308,"108 OLIVE AVENUE, RIALTO, CA, 92376","Tie",NA,NA,NA,NA
16809,"108 ORANGE ST SUITE 12A","REDLANDS","CA",92373,34.0565827830001,-117.182570368,309,"108 ORANGE ST SUITE 12A, REDLANDS, CA, 92373","Match","Exact","108 ORANGE ST, REDLANDS, CA, 92373",144664367,"R"
16810,"108 ORCHARD AVENUE","MAPLE SHADE","NJ",8052,39.9675743440001,-75.007923568,310,"108 ORCHARD AVENUE, MAPLE SHADE, NJ, 8052","Match","Exact","108 ORCHARD AVE, MAPLE SHADE, NJ, 08052",134026807,"R"
16811,"108 ORCHARD ROAD","BARBOURSVILLE","WV",25504,38.3996066720001,-82.29412787,311,"108 ORCHARD ROAD, BARBOURSVILLE, WV, 25504","Match","Exact","108 ORCHARD RD, BARBOURSVILLE, WV, 25504",101321565,"R"
16812,"108 ORIOLE","ARLINGTON","TX",76010,32.737671366,-97.0781476939999,312,"108 ORIOLE, ARLINGTON, TX, 76010","Match","Non_Exact","108 ORIOLE DR, ARLINGTON, TX, 76010",101908884,"R"
16813,"108 PARADISE VALLEY RD","FALLING WATERS","WV",25419,39.597029934,-77.8450352569999,313,"108 PARADISE VALLEY RD, FALLING WATERS, WV, 25419","Match","Exact","108 PARADISE VALLEY RD, FALLING WATERS, WV, 25419",636718687,"R"
16814,"108 PARALLEL STREET","BEAVER DAM","WI",53916,43.468037634,-88.829892424,314,"108 PARALLEL STREET, BEAVER DAM, WI, 53916","Match","Exact","108 PARALLEL ST, BEAVER DAM, WI, 53916",53529016,"R"
16815,"108 PASCO CT","PIEDMONT","SC",29673,34.7718665520001,-82.40932314,315,"108 PASCO CT, PIEDMONT, SC, 29673","Match","Exact","108 PASCO CT, PIEDMONT, SC, 29673",627172487,"R"
16816,"108 PAULA CT","LEESBURG","GA",31763,31.666537267,-84.093197984,316,"108 PAULA CT, LEESBURG, GA, 31763","Match","Exact","108 PAULA CT, LEESBURG, GA, 31763",630311476,"R"
16817,"108 PEBBLE COURT","MADISON","AL",35758,34.747295788,-86.747914379,317,"108 PEBBLE COURT, MADISON, AL, 35758","Match","Exact","108 PEBBLE CT, MADISON, AL, 35758",58137240,"R"
16818,"108 PECAN ST","BLUE RIDGE","TX",75424,33.2971797590001,-96.4122680689999,318,"108 PECAN ST, BLUE RIDGE, TX, 75424","Match","Exact","108 PECAN ST, BLUE RIDGE, TX, 75424",642934458,"L"
16819,"108 PENNSYLVANIA AVE - PO BOX 519","NIANTIC","CT",6357,41.3269841960001,-72.193661493,319,"108 PENNSYLVANIA AVE - PO BOX 519, NIANTIC, CT, 6357","Match","Exact","108 PENNSYLVANIA AVE, NIANTIC, CT, 06357",611628943,"R"
16820,"108 PINE CIRCLE","NEW BERN","NC",28560,34.9728123,-76.945132921,320,"108 PINE CIRCLE, NEW BERN, NC, 28560","Match","Exact","108 PINE CIR, NEW BERN, NC, 28560",34118327,"R"
16821,"108 PINE COURT","PLYMOUTH","NC",27962,35.858242132,-76.759258775,321,"108 PINE COURT, PLYMOUTH, NC, 27962","Match","Exact","108 PINE CT, PLYMOUTH, NC, 27962",18681392,"L"
16822,"108 PINE GROVE CIRCLE","NEWNAN","GA",30263,33.367108785,-84.820672133,322,"108 PINE GROVE CIRCLE, NEWNAN, GA, 30263","Match","Exact","108 PINE GROVE CIR, NEWNAN, GA, 30263",9340134,"R"
16823,"108 PINE LANE","SCHROON LAKE","NY",12807,43.8159791590001,-73.7794721349999,323,"108 PINE LANE, SCHROON LAKE, NY, 12807","Match","Non_Exact","108 PINE LN, SCHROON LAKE, NY, 12870",136255219,"R"
16824,"108 PINECREST BLVD APT 5","SAN ANTONIO","TX",78209,29.4877804700001,-98.4571706469999,324,"108 PINECREST BLVD APT 5, SAN ANTONIO, TX, 78209","Match","Exact","108 PINECREST BLVD, SAN ANTONIO, TX, 78209",101529658,"R"
16825,"108 PINENEEDLE LN","GREENWOOD","SC",29649,34.2100520760001,-82.196701129,325,"108 PINENEEDLE LN, GREENWOOD, SC, 29649","Match","Exact","108 PINENEEDLE LN, GREENWOOD, SC, 29649",50812376,"R"
16826,"108 PLATO PLACE","QUINCY","FL",32351,30.5122727290001,-84.567862009,326,"108 PLATO PLACE, QUINCY, FL, 32351","Match","Exact","108 PLATO PL, QUINCY, FL, 32351",87825681,"R"
16827,"108 PLATT STREET","ANSONIA","CT",6401,41.3323020600001,-73.072279339,327,"108 PLATT STREET, ANSONIA, CT, 6401","Match","Exact","108 PLATT ST, ANSONIA, CT, 06401",3734842,"L"
16828,"108 PLEASANT STREET","CLAREMONT","NH",3743,43.3698602750001,-72.339667269,328,"108 PLEASANT STREET, CLAREMONT, NH, 3743","Match","Exact","108 PLEASANT ST, CLAREMONT, NH, 03743",124343699,"R"
16829,"108 PLEASANT STREET","FORT KENT","ME",4743,47.242436861,-68.581813332,329,"108 PLEASANT STREET, FORT KENT, ME, 4743","Match","Exact","108 PLEASANT ST, FORT KENT, ME, 04743",625492409,"R"
16830,"108 POINT PLEASANT ROAD","GLEN BURNIE","MD",21060,39.1734496340001,-76.601872906,330,"108 POINT PLEASANT ROAD, GLEN BURNIE, MD, 21060","Match","Exact","108 POINT PLEASANT RD, GLEN BURNIE, MD, 21060",649914179,"L"
16831,"108 POND SIDE TRAIL","HAWTHORNE","FL",32640,29.5539361960001,-81.9546392779999,331,"108 POND SIDE TRAIL, HAWTHORNE, FL, 32640","Match","Exact","108 POND SIDE TRL, HAWTHORNE, FL, 32640",636399630,"L"
16832,"108 POPLAR ST","PORT ORCHARD","WA",98366,47.5224012200001,-122.647305956,332,"108 POPLAR ST, PORT ORCHARD, WA, 98366","Match","Exact","108 POPLAR ST, PORT ORCHARD, WA, 98366",639425055,"R"
16833,"108 POSHARD ST","PLEASANT HILL","CA",94523,37.9431853190001,-122.071195126,333,"108 POSHARD ST, PLEASANT HILL, CA, 94523","Match","Exact","108 POSHARD ST, PLEASANT HILL, CA, 94523",647701319,"L"
16834,"108 PRICKETT DRIVE","EUTAWVILLE","SC",29048,33.4286912050001,-80.349268256,334,"108 PRICKETT DRIVE, EUTAWVILLE, SC, 29048","Match","Exact","108 PRICKETT DR, EUTAWVILLE, SC, 29048",19221463,"R"
16835,"108 PRIMROSE LANE","CARRBORO","NC",27510,35.899524844,-79.087984658,335,"108 PRIMROSE LANE, CARRBORO, NC, 27510","Match","Exact","108 PRIMROSE LN, CARRBORO, NC, 27510",627375186,"L"
16836,"108 PROSPECT STREET","MECHANICSBURG","OH",43044,40.0729487410001,-83.563603466,336,"108 PROSPECT STREET, MECHANICSBURG, OH, 43044","Match","Exact","108 PROSPECT ST, MECHANICSBURG, OH, 43044",606293120,"L"
16837,"108 RACHELS RETREAT","SAVANNAH","GA",31406,NA,NA,337,"108 RACHELS RETREAT, SAVANNAH, GA, 31406","No_Match",NA,NA,NA,NA
16838,"108 RALPH AVE","BELLMORE","NY",11710,40.6853280180001,-73.535429571,338,"108 RALPH AVE, BELLMORE, NY, 11710","Match","Exact","108 RALPH AVE, BELLMORE, NY, 11710",147684396,"L"
16839,"108 RALPH AVE","NORTH BELLMORE","NY",11710,40.6853280180001,-73.535429571,339,"108 RALPH AVE, NORTH BELLMORE, NY, 11710","Match","Exact","108 RALPH AVE, N BELLMORE, NY, 11710",147684396,"L"
16840,"108 RAVENCREST COURT","SIMPSONVILLE","SC",29680,34.7206330380001,-82.296095028,340,"108 RAVENCREST COURT, SIMPSONVILLE, SC, 29680","Match","Exact","108 RAVENCREST CT, SIMPSONVILLE, SC, 29680",652019112,"R"
16841,"108 RAYMOND CIR","LEXINGTON","SC",29072,33.995413323,-81.209450417,341,"108 RAYMOND CIR, LEXINGTON, SC, 29072","Match","Exact","108 RAYMOND CIR, LEXINGTON, SC, 29072",627776390,"L"
16842,"108 RED LAKE STREET","GARNER","NC",27529,35.725248611,-78.593837792,342,"108 RED LAKE STREET, GARNER, NC, 27529","Match","Exact","108 RED LAKE ST, GARNER, NC, 27529",208375156,"R"
16843,"108 REDSTEM DR","SIMPSONVILLE","SC",29681,34.7357083840001,-82.233427299,343,"108 REDSTEM DR, SIMPSONVILLE, SC, 29681","Match","Exact","108 REDSTEM DR, SIMPSONVILLE, SC, 29681",618095576,"R"
16844,"108 RICHARD B MYERS HALL","MANHATTAN","KS",66506,NA,NA,344,"108 RICHARD B MYERS HALL, MANHATTAN, KS, 66506","No_Match",NA,NA,NA,NA
16845,"108 RICKER RD","NEW GLOUCESTER","ME",4260,44.027827389,-70.3130432839999,345,"108 RICKER RD, NEW GLOUCESTER, ME, 4260","Match","Exact","108 RICKER RD, NEW GLOUCESTER, ME, 04260",78077321,"R"
16846,"108 RIDDELL DR","GEORGETOWN","KY",40324,38.211411522,-84.583682411,346,"108 RIDDELL DR, GEORGETOWN, KY, 40324","Match","Exact","108 RIDDELL DR, GEORGETOWN, KY, 40324",634140191,"L"
16847,"108 RIVERVIEW DRIVE","MANITOWOC","WI",54220,44.0965468300001,-87.677623443,347,"108 RIVERVIEW DRIVE, MANITOWOC, WI, 54220","Match","Exact","108 RIVERVIEW DR, MANITOWOC, WI, 54220",147949606,"L"
16848,"108 RIVERWOODS DR","MORGANTON","NC",28655,35.770081856,-81.707086847,348,"108 RIVERWOODS DR, MORGANTON, NC, 28655","Match","Exact","108 RIVERWOODS DR, MORGANTON, NC, 28655",37171005,"R"
16849,"108 ROCKWATER COURT","ROCKY MOUNT","NC",27803,35.9350583180001,-77.8358472899999,349,"108 ROCKWATER COURT, ROCKY MOUNT, NC, 27803","Match","Exact","108 ROCKWATER CT, ROCKY MOUNT, NC, 27803",90400596,"R"
16850,"108 ROGUE LANE","ROGUE RIVER","OR",97537,42.4354816370001,-123.162580669,350,"108 ROGUE LANE, ROGUE RIVER, OR, 97537","Match","Exact","108 ROGUE LN, ROGUE RIVER, OR, 97537",639265438,"L"
16851,"108 ROSE BUD","BOERNE","TX",78006,NA,NA,351,"108 ROSE BUD, BOERNE, TX, 78006","No_Match",NA,NA,NA,NA
16852,"108 ROYAL OAK LANE","KATHLEEN","GA",31047,32.5449992490001,-83.713000847,352,"108 ROYAL OAK LANE, KATHLEEN, GA, 31047","Match","Exact","108 ROYAL OAK LN, KATHLEEN, GA, 31047",91253577,"R"
16853,"108 S 10TH ST","MURPHYSBORO","IL",62966,37.763606806,-89.334476866,353,"108 S 10TH ST, MURPHYSBORO, IL, 62966","Match","Exact","108 S 10TH ST, MURPHYSBORO, IL, 62966",95063123,"R"
16854,"108 S 4TH STREET","CABOT","AR",72023,NA,NA,354,"108 S 4TH STREET, CABOT, AR, 72023","Tie",NA,NA,NA,NA
16855,"108 S 5TH STREET","CROCKETT","TX",75835,31.318276514,-95.457037127,355,"108 S 5TH STREET, CROCKETT, TX, 75835","Match","Exact","108 S 5TH ST, CROCKETT, TX, 75835",21990042,"R"
16856,"108 S CASS AVE","OBERLIN","KS",67749,39.8205524950001,-100.531427263,356,"108 S CASS AVE, OBERLIN, KS, 67749","Match","Exact","108 S CASS AVE, OBERLIN, KS, 67749",164206952,"R"
16857,"108 S CAYLOR ST","AGENCY","IA",52530,NA,NA,357,"108 S CAYLOR ST, AGENCY, IA, 52530","Tie",NA,NA,NA,NA
16858,"108 S COLORADO STREET","WHITNEY","TX",76692,31.949419795,-97.3222550579999,358,"108 S COLORADO STREET, WHITNEY, TX, 76692","Match","Exact","108 S COLORADO ST, WHITNEY, TX, 76692",160518570,"L"
16859,"108 S KAYLA DRIVE","SALISBURY","NC",28146,35.616301891,-80.458113262,359,"108 S KAYLA DRIVE, SALISBURY, NC, 28146","Match","Exact","108 S KAYLA DR, SALISBURY, NC, 28146",604939928,"R"
16860,"108 S MAIN","LUTHER","OK",73054,NA,NA,360,"108 S MAIN, LUTHER, OK, 73054","Tie",NA,NA,NA,NA
16861,"108 S MAIN","MOULTON","IA",52572,40.684754227,-92.6771539549999,361,"108 S MAIN, MOULTON, IA, 52572","Match","Non_Exact","108 S MAIN ST, MOULTON, IA, 52572",54619322,"L"
16862,"108 S MAPLE STREET","GREEN BAY","WI",54303,44.516984667,-88.024348936,362,"108 S MAPLE STREET, GREEN BAY, WI, 54303","Match","Non_Exact","108 S MAPLE AVE, GREEN BAY, WI, 54303",148100637,"R"
16863,"108 S MARKET ST","INGLEWOOD","CA",90301,33.962847593,-118.351876214,363,"108 S MARKET ST, INGLEWOOD, CA, 90301","Match","Exact","108 S MARKET ST, INGLEWOOD, CA, 90301",241109659,"L"
16864,"108 S NEIL ST","CHAMPAIGN","IL",61820,40.115883689,-88.243499874,364,"108 S NEIL ST, CHAMPAIGN, IL, 61820","Match","Exact","108 S NEIL ST, CHAMPAIGN, IL, 61820",8810402,"L"
16865,"108 S PINE ST","MAXWELL","NE",69151,NA,NA,365,"108 S PINE ST, MAXWELL, NE, 69151","No_Match",NA,NA,NA,NA
16866,"108 S PRITCHARD AVE","FULLERTON","CA",92833,33.869536377,-117.973599796,366,"108 S PRITCHARD AVE, FULLERTON, CA, 92833","Match","Exact","108 S PRITCHARD AVE, FULLERTON, CA, 92833",144104068,"L"
16867,"108 S SUNLAND DR","SANFORD","FL",32773,28.7510068600001,-81.283095836,367,"108 S SUNLAND DR, SANFORD, FL, 32773","Match","Exact","108 S SUNLAND DR, SANFORD, FL, 32773",93751499,"R"
16868,"108 S THORNTON AVE","DALTON","GA",30720,34.7713406820001,-84.971766595,368,"108 S THORNTON AVE, DALTON, GA, 30720","Match","Exact","108 S THORNTON AVE, DALTON, GA, 30720",57380309,"L"
16869,"108 S WOODDALE RD","KNOXVILLE","TN",37924,36.021919987,-83.7692968869999,369,"108 S WOODDALE RD, KNOXVILLE, TN, 37924","Match","Exact","108 S WOODDALE RD, KNOXVILLE, TN, 37924",638983460,"L"
16870,"108 SAINT JOHN STREET","PARSONS","WV",26287,NA,NA,370,"108 SAINT JOHN STREET, PARSONS, WV, 26287","No_Match",NA,NA,NA,NA
16871,"108 SANDYRIDGE ROAD","EDENTON","NC",27932,36.162242518,-76.6537937689999,371,"108 SANDYRIDGE ROAD, EDENTON, NC, 27932","Match","Non_Exact","108 SANDY RIDGE RD, EDENTON, NC, 27932",18467681,"R"
16872,"108 SANTANDER DR","JUPITER","FL",33458,26.899998591,-80.107410025,372,"108 SANTANDER DR, JUPITER, FL, 33458","Match","Exact","108 SANTANDER DR, JUPITER, FL, 33458",115571764,"L"
16873,"108 SAWYER DRIVE","GREENVILLE","SC",29605,34.7490240590001,-82.338619468,373,"108 SAWYER DRIVE, GREENVILLE, SC, 29605","Match","Exact","108 SAWYER DR, GREENVILLE, SC, 29605",38345362,"R"
16874,"108 SAXAPAHAW RUN","CHAPEL HILL","NC",27516,35.827502096,-79.104413141,374,"108 SAXAPAHAW RUN, CHAPEL HILL, NC, 27516","Match","Exact","108 SAXAPAHAW RUN, CHAPEL HILL, NC, 27516",624792082,"R"
16875,"108 SCOTT DRIVE","SANFORD","FL",32771,28.7960805880001,-81.250059838,375,"108 SCOTT DRIVE, SANFORD, FL, 32771","Match","Exact","108 SCOTT DR, SANFORD, FL, 32771",93750983,"R"
16876,"108 SEAWARD AVENUE","BRADFORD","PA",16701,41.972060168,-78.629564702,376,"108 SEAWARD AVENUE, BRADFORD, PA, 16701","Match","Exact","108 SEAWARD AVE, BRADFORD, PA, 16701",122638897,"R"
16877,"108 SECOND STREET W","DARIEN","GA",31305,31.3700062790001,-81.434610455,377,"108 SECOND STREET W, DARIEN, GA, 31305","Match","Exact","108 2ND ST W, DARIEN, GA, 31305",639829992,"R"
16878,"108 SECOND STREET","PLEASANTON","TX",78064,NA,NA,378,"108 SECOND STREET, PLEASANTON, TX, 78064","No_Match",NA,NA,NA,NA
16879,"108 SEQUOIA DRIVE SE","ROME","GA",30161,34.2557757180001,-85.1287356399999,379,"108 SEQUOIA DRIVE SE, ROME, GA, 30161","Match","Exact","108 SEQUOIA DR SE, ROME, GA, 30161",30706187,"L"
16880,"108 SHERIDAN ST","MARIETTA","OH",45750,39.4146116850001,-81.423694084,380,"108 SHERIDAN ST, MARIETTA, OH, 45750","Match","Exact","108 SHERIDAN ST, MARIETTA, OH, 45750",641179091,"R"
16881,"108 SHERMAN","WEST CHICAGO","IL",60185,41.882439925,-88.2124740419999,381,"108 SHERMAN, WEST CHICAGO, IL, 60185","Match","Non_Exact","108 SHERMAN ST, WEST CHICAGO, IL, 60185",112516050,"R"
16882,"108 SHERONDALE LANE","SIMPSONVILLE","SC",29680,34.731234543,-82.272044125,382,"108 SHERONDALE LANE, SIMPSONVILLE, SC, 29680","Match","Exact","108 SHERONDALE LN, SIMPSONVILLE, SC, 29680",38312803,"R"
16883,"108 SHORE AVENUE","KEY WEST","FL",33040,24.5951248530001,-81.665993925,383,"108 SHORE AVENUE, KEY WEST, FL, 33040","Match","Exact","108 SHORE AVE, KEY WEST, FL, 33040",116476446,"R"
16884,"108 SICILY STREET","HARRISONBURG","LA",71340,31.7717601210001,-91.819518106,384,"108 SICILY STREET, HARRISONBURG, LA, 71340","Match","Exact","108 SICILY ST, HARRISONBURG, LA, 71340",118964752,"R"
16885,"108 SOUTH COMMERCE STREET","RIPLEY","MO",38663,NA,NA,385,"108 SOUTH COMMERCE STREET, RIPLEY, MO, 38663","No_Match",NA,NA,NA,NA
16886,"108 SOUTH MAIN ST","ROXBORO","NC",27573,36.3934395310001,-78.983762535,386,"108 SOUTH MAIN ST, ROXBORO, NC, 27573","Match","Exact","108 S MAIN ST, ROXBORO, NC, 27573",77204070,"R"
16887,"108 SOUTH MAIN STREET","GARNAVILLO","IA",52049,42.8675469840001,-91.235350227,387,"108 SOUTH MAIN STREET, GARNAVILLO, IA, 52049","Match","Exact","108 S MAIN ST, GARNAVILLO, IA, 52049",48478117,"L"
16888,"108 SOUTH MILLS STREET","MADISON","WI",53715,43.0660619390001,-89.404060326,388,"108 SOUTH MILLS STREET, MADISON, WI, 53715","Match","Exact","108 S MILLS ST, MADISON, WI, 53715",49469502,"R"
16889,"108 SOUTH MONROE AVENUE","NEW UNDERWOOD","SD",57761,44.0960134580001,-102.830654978,389,"108 SOUTH MONROE AVENUE, NEW UNDERWOOD, SD, 57761","Match","Exact","108 S MONROE AVE, NEW UNDERWOOD, SD, 57761",205502836,"R"
16890,"108 SOUTH STREET ANDREWS DRIVE","DAYTONA BEACH","FL",32114,29.200440153,-81.014300254,390,"108 SOUTH STREET ANDREWS DRIVE, DAYTONA BEACH, FL, 32114","Match","Exact","108 SOUTH ST, DAYTONA BEACH, FL, 32114",94525606,"R"
16891,"108 SOUTH UNIVERSITY STE 1","MOUNT PLEASANT","MI",48858,43.6043328170001,-84.775408837,391,"108 SOUTH UNIVERSITY STE 1, MOUNT PLEASANT, MI, 48858","Match","Non_Exact","108 S UNIVERSITY AVE, MOUNT PLEASANT, MI, 48858",110217838,"L"
16892,"108 SOUTHERN VALLEY COURT","MARS","PA",16046,40.678899938,-80.056612195,392,"108 SOUTHERN VALLEY COURT, MARS, PA, 16046","Match","Exact","108 SOUTHERN VALLEY CT, MARS, PA, 16046",607356518,"L"
16893,"108 SOUTHERN WOODS DRIVE","SOUTH CHARLESTON","WV",25309,38.3226942640001,-81.7289589109999,393,"108 SOUTHERN WOODS DRIVE, SOUTH CHARLESTON, WV, 25309","Match","Exact","108 SOUTHERN WOODS DR, S CHARLESTON, WV, 25309",78620741,"L"
16894,"108 SOUTHVIEW CT","BRANSON","MO",65616,36.63726767,-93.3132499339999,394,"108 SOUTHVIEW CT, BRANSON, MO, 65616","Match","Exact","108 SOUTHVIEW CT, BRANSON, MO, 65616",625099526,"L"
16895,"108 SOUTHWOOD COVE","BRUNSWICK","GA",31525,31.25402001,-81.490753776,395,"108 SOUTHWOOD COVE, BRUNSWICK, GA, 31525","Match","Exact","108 SOUTHWOOD COVE, BRUNSWICK, GA, 31525",636101824,"L"
16896,"108 SPRING GROVE AVE","SAN RAFAEL","CA",94901,37.9735655260001,-122.546408069,396,"108 SPRING GROVE AVE, SAN RAFAEL, CA, 94901","Match","Exact","108 SPRING GROVE AVE, SAN RAFAEL, CA, 94901",192764302,"R"
16897,"108 STAPLEHURST DR","SAINT JOHNS","FL",32259,30.083500241,-81.5457400239999,397,"108 STAPLEHURST DR, SAINT JOHNS, FL, 32259","Match","Exact","108 STAPLEHURST DR, SAINT JOHNS, FL, 32259",639335072,"R"
16898,"108 STRAUBE CENTER BLVD I-3","PENNINGTON","NJ",8534,NA,NA,398,"108 STRAUBE CENTER BLVD I-3, PENNINGTON, NJ, 8534","No_Match",NA,NA,NA,NA
16899,"108 SULPHUR SPRINGS ROAD","PAULINE","SC",29374,34.8179267880001,-81.809645427,399,"108 SULPHUR SPRINGS ROAD, PAULINE, SC, 29374","Match","Exact","108 SULPHUR SPRINGS RD, PAULINE, SC, 29374",19452661,"L"
16900,"108 SUMMERCHASE DRIVE","DULUTH","GA",30096,33.9914072490001,-84.1713548829999,400,"108 SUMMERCHASE DRIVE, DULUTH, GA, 30096","Match","Exact","108 SUMMERCHASE DR, DULUTH, GA, 30096",88941329,"L"
16901,"108 SUNBRIAR CT","MADISON","AL",35756,NA,NA,401,"108 SUNBRIAR CT, MADISON, AL, 35756","No_Match",NA,NA,NA,NA
16902,"108 SUNNYSIDE LN","COLUMBUS","OH",43214,40.0698917180001,-83.0171801669999,402,"108 SUNNYSIDE LN, COLUMBUS, OH, 43214","Match","Exact","108 SUNNYSIDE LN, COLUMBUS, OH, 43214",218685313,"L"
16903,"108 SUNNYSIDE ROAD","CUMBERLAND","VA",23040,37.476941083,-78.1761010879999,403,"108 SUNNYSIDE ROAD, CUMBERLAND, VA, 23040","Match","Exact","108 SUNNYSIDE RD, CUMBERLAND, VA, 23040",73717364,"L"
16904,"108 SUNSET AVE","VERONA","NJ",7044,40.8241939660001,-74.2359878939999,404,"108 SUNSET AVE, VERONA, NJ, 7044","Match","Exact","108 SUNSET AVE, VERONA, NJ, 07044",63447943,"R"
16905,"108 SUSAN LN","BREWSTER","MA",2631,41.75178786,-70.0932082579999,405,"108 SUSAN LN, BREWSTER, MA, 2631","Match","Exact","108 SUSAN LN, BREWSTER, MA, 02631",121546995,"R"
16906,"108 SW THIRD STREET","FORT MEADE","FL",33841,NA,NA,406,"108 SW THIRD STREET, FORT MEADE, FL, 33841","Tie",NA,NA,NA,NA
16907,"108 SYCAMORE RIDGE LN","HOLLY SPRINGS","NC",27540,35.6396658030001,-78.864465189,407,"108 SYCAMORE RIDGE LN, HOLLY SPRINGS, NC, 27540","Match","Exact","108 SYCAMORE RIDGE LN, HOLLY SPRINGS, NC, 27540",646870237,"R"
16908,"108 TAMARISK RD","MORENCI","AZ",85540,33.039557046,-109.324348428,408,"108 TAMARISK RD, MORENCI, AZ, 85540","Match","Exact","108 TAMARISK RD, MORENCI, AZ, 85540",137420242,"R"
16909,"108 TANGLEWOOD DRIVE","LAFAYETTE","LA",70503,30.193949065,-92.03542056,409,"108 TANGLEWOOD DRIVE, LAFAYETTE, LA, 70503","Match","Exact","108 TANGLEWOOD DR, LAFAYETTE, LA, 70503",85618266,"R"
16910,"108 TAYLOR ST","OCOEE","FL",34761,28.570804809,-81.5477257599999,410,"108 TAYLOR ST, OCOEE, FL, 34761","Match","Exact","108 TAYLOR ST, OCOEE, FL, 34761",94263675,"L"
16911,"108 TEMPLE CIRCLE","LYNCHBURG","VA",24502,37.3566026030001,-79.194428979,411,"108 TEMPLE CIRCLE, LYNCHBURG, VA, 24502","Match","Exact","108 TEMPLE CIR, LYNCHBURG, VA, 24502",62625835,"L"
16912,"108 TEMPLE STREET","HINTON","WV",25951,37.673287182,-80.892497178,412,"108 TEMPLE STREET, HINTON, WV, 25951","Match","Exact","108 TEMPLE ST, HINTON, WV, 25951",647449083,"R"
16913,"108 THIRD STREET SUITE 200","DES MOINES","IA",50309,41.5843342050001,-93.620094191,413,"108 THIRD STREET SUITE 200, DES MOINES, IA, 50309","Match","Exact","108 3RD ST, DES MOINES, IA, 50309",638774136,"L"
16914,"108 THOMASON LANE","EUGENE","OR",97404,44.064697514,-123.115922835,414,"108 THOMASON LANE, EUGENE, OR, 97404","Match","Exact","108 THOMASON LN, EUGENE, OR, 97404",648504268,"R"
16915,"108 THOMPSON LANE D8","NASHVILLE","TN",37211,36.1101038910001,-86.736119242,415,"108 THOMPSON LANE D8, NASHVILLE, TN, 37211","Match","Exact","108 THOMPSON LN, NASHVILLE, TN, 37211",97213281,"R"
16916,"108 THORNBERRY ROAD","WINCHESTER","MA",1890,42.4470739330001,-71.179811414,416,"108 THORNBERRY ROAD, WINCHESTER, MA, 1890","Match","Exact","108 THORNBERRY RD, WINCHESTER, MA, 01890",87086945,"L"
16917,"108 TIGER CIRCLE","TEMPLE","TX",76502,31.116182173,-97.406336773,417,"108 TIGER CIRCLE, TEMPLE, TX, 76502","Match","Exact","108 TIGER CIR, TEMPLE, TX, 76502",146157810,"R"
16918,"108 TODD CREEK","FORSYTH","GA",31029,NA,NA,418,"108 TODD CREEK, FORSYTH, GA, 31029","Tie",NA,NA,NA,NA
16919,"108 TOWER RD","LINCOLN","MA",1773,42.409519168,-71.311072327,419,"108 TOWER RD, LINCOLN, MA, 1773","Match","Exact","108 TOWER RD, LINCOLN, MA, 01773",87100898,"R"
16920,"108 TROLLEY COURT","LYNCHBURG","VA",24503,37.4376317570001,-79.193998402,420,"108 TROLLEY COURT, LYNCHBURG, VA, 24503","Match","Non_Exact","108 TROLLY CT, LYNCHBURG, VA, 24503",641048452,"R"
16921,"108 TUSCANY COURT","MCDONOUGH","GA",30252,33.550655863,-84.1331552349999,421,"108 TUSCANY COURT, MCDONOUGH, GA, 30252","Match","Exact","108 TUSCANY CT, MCDONOUGH, GA, 30252",638811608,"R"
16922,"108 TWILIGHT WAY","HUTTO","TX",78634,30.5371680330001,-97.542144327,422,"108 TWILIGHT WAY, HUTTO, TX, 78634","Match","Exact","108 TWILIGHT WAY, HUTTO, TX, 78634",126477076,"R"
16923,"108 URTON LANE","LOUISVILLE","KY",40243,NA,NA,423,"108 URTON LANE, LOUISVILLE, KY, 40243","No_Match",NA,NA,NA,NA
16924,"108 VAQUERO LANE APT 13","EL PASO","TX",79912,31.80733029,-106.507893092,424,"108 VAQUERO LANE APT 13, EL PASO, TX, 79912","Match","Exact","108 VAQUERO LN, EL PASO, TX, 79912",189410579,"R"
16925,"108 VIA LA SOLEDAD","REDONDO BEACH","CA",90277,33.809374012,-118.385610131,425,"108 VIA LA SOLEDAD, REDONDO BEACH, CA, 90277","Match","Exact","108 VIA LA SOLEDAD, REDONDO BEACH, CA, 90277",141584526,"L"
16926,"108 VILLAGE BLVD 108","MADISON","MS",39110,32.440199426,-90.083704107,426,"108 VILLAGE BLVD 108, MADISON, MS, 39110","Match","Non_Exact","108 VILLAGE DR, MADISON, MS, 39110",152479797,"R"
16927,"108 VILLAGE BROOK RD","YARMOUTH","ME",4096,43.7969652640001,-70.193151681,427,"108 VILLAGE BROOK RD, YARMOUTH, ME, 4096","Match","Exact","108 VILLAGE BROOK RD, YARMOUTH, ME, 04096",646667276,"L"
16928,"108 VILLAGE SQ PMB 216","SOMERS","NY",10589,41.3277383110001,-73.686649893,428,"108 VILLAGE SQ PMB 216, SOMERS, NY, 10589","Match","Exact","108 VILLAGE SQ, SOMERS, NY, 10589",635515125,"L"
16929,"108 VILLAGE SQUARE SUITE 325","SOMERS","NY",10589,41.3277383110001,-73.686649893,429,"108 VILLAGE SQUARE SUITE 325, SOMERS, NY, 10589","Match","Exact","108 VILLAGE SQ, SOMERS, NY, 10589",635515125,"L"
16930,"108 VILLAGE SQUARE SUITE 407","SOMERS","NY",10589,41.3277383110001,-73.686649893,430,"108 VILLAGE SQUARE SUITE 407, SOMERS, NY, 10589","Match","Exact","108 VILLAGE SQ, SOMERS, NY, 10589",635515125,"L"
16931,"108 VIRGINIA AVE","CARTHAGE","TN",37030,36.2552204360001,-85.9427761279999,431,"108 VIRGINIA AVE, CARTHAGE, TN, 37030","Match","Exact","108 VIRGINIA AVE, CARTHAGE, TN, 37030",34224744,"L"
16932,"108 VOSS RD","GRAND ISLAND","NE",68801,40.9310266570001,-98.3127166739999,432,"108 VOSS RD, GRAND ISLAND, NE, 68801","Match","Exact","108 VOSS RD, GRAND ISLAND, NE, 68801",196250395,"L"
16933,"108 VZCR 2151","CANTON","TX",75103,NA,NA,433,"108 VZCR 2151, CANTON, TX, 75103","No_Match",NA,NA,NA,NA
16934,"108 W 13TH STREET","WILMINGTON","DE",19801,39.7488152240001,-75.547645444,434,"108 W 13TH STREET, WILMINGTON, DE, 19801","Match","Exact","108 W 13TH ST, WILMINGTON, DE, 19801",187257866,"L"
16935,"108 W 17TH ST APT 10","NEW YORK","NY",10011,40.739450203,-73.9958736729999,435,"108 W 17TH ST APT 10, NEW YORK, NY, 10011","Match","Non_Exact","108 W 17TH ST, NEW YORK, NY, 10011",59653321,"L"
16936,"108 W 3RD STREET","TRINIDAD","CO",81082,37.165988989,-104.504100284,436,"108 W 3RD STREET, TRINIDAD, CO, 81082","Match","Exact","108 W 3RD ST, TRINIDAD, CO, 81082",112753194,"L"
16937,"108 W 4TH ST","ROYAL OAK","MI",48067,42.487279357,-83.1443714599999,437,"108 W 4TH ST, ROYAL OAK, MI, 48067","Match","Exact","108 W 4TH ST, ROYAL OAK, MI, 48067",69745740,"R"
16938,"108 W BAXTER STREET","BRINKLEY","AR",72021,34.8944875230001,-91.1919949379999,438,"108 W BAXTER STREET, BRINKLEY, AR, 72021","Match","Exact","108 W BAXTER ST, BRINKLEY, AR, 72021",10911273,"L"
16939,"108 W BROADWAY","WEST MEMPHIS","AR",72301,35.1465219020001,-90.186788812,439,"108 W BROADWAY, WEST MEMPHIS, AR, 72301","Match","Exact","108 W BROADWAY, WEST MEMPHIS, AR, 72301",69372731,"R"
16940,"108 W CENTRAL PARKWAY","CINCINNATI","OH",45202,39.1068145460001,-84.516693908,440,"108 W CENTRAL PARKWAY, CINCINNATI, OH, 45202","Match","Exact","108 W CENTRAL PKWY, CINCINNATI, OH, 45202",647373283,"R"
16941,"108 W COCOA ST","COMPON","CA",90220,33.889178702,-118.224416618,441,"108 W COCOA ST, COMPON, CA, 90220","Match","Non_Exact","108 W COCOA ST, COMPTON, CA, 90220",142766523,"L"
16942,"108 W FIRETOWER ROAD STE G","WINTERVILLE","NC",28590,35.5507792670001,-77.388715624,442,"108 W FIRETOWER ROAD STE G, WINTERVILLE, NC, 28590","Match","Non_Exact","108 W FIRETOWER RD, WINTERVILLE, NC, 28590",623002894,"L"
16943,"108 W GREEN STREET","PRINCETON","KY",42445,37.1123610920001,-87.8800768249999,443,"108 W GREEN STREET, PRINCETON, KY, 42445","Match","Exact","108 W GREEN ST, PRINCETON, KY, 42445",10646916,"R"
16944,"108 W HIGHWAY 6","IREDELL","TX",76649,NA,NA,444,"108 W HIGHWAY 6, IREDELL, TX, 76649","No_Match",NA,NA,NA,NA
16945,"108 W HOUSTON ST APT 8","NEW YORK","NY",10012,40.7273225070001,-74.0006863419999,445,"108 W HOUSTON ST APT 8, NEW YORK, NY, 10012","Match","Non_Exact","108 W HOUSTON ST, NEW YORK, NY, 10012",59660262,"R"
16946,"108 W JACKSON ST","PINCKNEYVILLE","IL",62274,38.080849453,-89.383068825,446,"108 W JACKSON ST, PINCKNEYVILLE, IL, 62274","Match","Exact","108 W JACKSON ST, PINCKNEYVILLE, IL, 62274",93114673,"L"
16947,"108 W KENNEDY ROAD","NORTH WALES","PA",19454,40.2192729990001,-75.2256821999999,447,"108 W KENNEDY ROAD, NORTH WALES, PA, 19454","Match","Exact","108 KENNEDY RD, NORTH WALES, PA, 19454",645866896,"L"
16948,"108 W LONGFIELD LN","WOODRUFF","SC",29388,34.8570495800001,-82.1155971489999,448,"108 W LONGFIELD LN, WOODRUFF, SC, 29388","Match","Non_Exact","108 E LONGFIELD LN, WOODRUFF, SC, 29388",652971389,"R"
16949,"108 W MAIN ST","DENISON","TX",75021,33.755295404,-96.535527765,449,"108 W MAIN ST, DENISON, TX, 75021","Match","Exact","108 W MAIN ST, DENISON, TX, 75021",63357841,"L"
16950,"108 W MAIN STREET","FAIRFIELD","PA",17320,39.7856927490001,-77.3713091719999,450,"108 W MAIN STREET, FAIRFIELD, PA, 17320","Match","Exact","108 W MAIN ST, FAIRFIELD, PA, 17320",60863287,"R"
16951,"108 W MAIN","HUMBLE","TX",77338,29.9991945720001,-95.2684305929999,451,"108 W MAIN, HUMBLE, TX, 77338","Match","Non_Exact","108 W MAIN ST, HUMBLE, TX, 77338",642867904,"R"
16952,"108 W MARKET STREET","SAVANNAH","MO",64485,39.940444659,-94.824644513,452,"108 W MARKET STREET, SAVANNAH, MO, 64485","Match","Exact","108 W MARKET ST, SAVANNAH, MO, 64485",15922826,"L"
16953,"108 W POPLAR ST  P O BOX 730","FORT GIBSON","OK",74434,35.797673801,-95.2498953469999,453,"108 W POPLAR ST  P O BOX 730, FORT GIBSON, OK, 74434","Match","Non_Exact","108 E POPLAR ST, FORT GIBSON, OK, 74434",91944168,"L"
16954,"108 W STATE ST","MONTROSE","MI",48457,43.1762291160001,-83.893374143,454,"108 W STATE ST, MONTROSE, MI, 48457","Match","Exact","108 W STATE ST, MONTROSE, MI, 48457",69558866,"R"
16955,"108 W STATE ST","PENDLETON","IN",46064,40.002479341,-85.7465176329999,455,"108 W STATE ST, PENDLETON, IN, 46064","Match","Exact","108 W STATE ST, PENDLETON, IN, 46064",31112245,"R"
16956,"108 WALNUT STREET SUITE 2","COLUMBUS JUNCTION","IA",52738,41.2801124110001,-91.360816396,456,"108 WALNUT STREET SUITE 2, COLUMBUS JUNCTION, IA, 52738","Match","Exact","108 WALNUT ST, COLUMBUS JUNCTION, IA, 52738",9385119,"R"
16957,"108 WASHINGTON STREET PO BOX 452","DARIEN","GA",31305,NA,NA,457,"108 WASHINGTON STREET PO BOX 452, DARIEN, GA, 31305","No_Match",NA,NA,NA,NA
16958,"108 WELLESLEY DR SE","ALBUQUERQUE","NM",87106,35.0800388330001,-106.608271936,458,"108 WELLESLEY DR SE, ALBUQUERQUE, NM, 87106","Match","Exact","108 WELLESLEY DR SE, ALBUQUERQUE, NM, 87106",636452932,"L"
16959,"108 WEST 13TH STREET","WILMINGTON","DE",19801,39.7488152240001,-75.547645444,459,"108 WEST 13TH STREET, WILMINGTON, DE, 19801","Match","Exact","108 W 13TH ST, WILMINGTON, DE, 19801",187257866,"L"
16960,"108 WEST ADAIR ST","VALDOSTA","GA",31601,30.8383396560001,-83.283003654,460,"108 WEST ADAIR ST, VALDOSTA, GA, 31601","Match","Exact","108 W ADAIR ST, VALDOSTA, GA, 31601",87717921,"L"
16961,"108 WEST CENTRAL PARKWAY","CINCINNATI","OH",45202,39.1068146800001,-84.516692974,461,"108 WEST CENTRAL PARKWAY, CINCINNATI, OH, 45202","Match","Exact","108 W CENTRAL PKWY, CINCINNATI, OH, 45202",647373283,"R"
16962,"108 WEST CLINTON STREET","LOCK HAVEN","PA",17745,41.1338104000001,-77.4495918489999,462,"108 WEST CLINTON STREET, LOCK HAVEN, PA, 17745","Match","Exact","108 W CLINTON ST, LOCK HAVEN, PA, 17745",77150386,"R"
16963,"108 WEST MAIN STREET","EAST BEND","NC",27018,36.216649413,-80.507515241,463,"108 WEST MAIN STREET, EAST BEND, NC, 27018","Match","Non_Exact","108 MAIN ST, EAST BEND, NC, 27018",84741216,"L"
16964,"108 WEST MCKOWN ROAD","ALBANY","NY",12203,42.6748131190001,-73.8477323499999,464,"108 WEST MCKOWN ROAD, ALBANY, NY, 12203","Match","Exact","108 W MCKOWN RD, ALBANY, NY, 12203",18335604,"R"
16965,"108 WEST OLIVE ST","LOCKHART","TX",78644,29.8926685750001,-97.674600437,465,"108 WEST OLIVE ST, LOCKHART, TX, 78644","Match","Exact","108 W OLIVE ST, LOCKHART, TX, 78644",45530848,"R"
16966,"108 WEST SPENCER STREET","PHILADELPHIA","PA",19120,40.0431084570001,-75.121289124,466,"108 WEST SPENCER STREET, PHILADELPHIA, PA, 19120","Match","Exact","108 W SPENCER ST, PHILADELPHIA, PA, 19120",131414497,"L"
16967,"108 WEST STREET","WILMINGTON","DE",19801,39.7395495330001,-75.555745455,467,"108 WEST STREET, WILMINGTON, DE, 19801","Match","Exact","108 WEST ST, WILMINGTON, DE, 19801",645547306,"L"
16968,"108 WEST TELEGRAPH ST","DOWAGIAC","MI",49047,41.9871778400001,-86.107495457,468,"108 WEST TELEGRAPH ST, DOWAGIAC, MI, 49047","Match","Exact","108 W TELEGRAPH ST, DOWAGIAC, MI, 49047",22571347,"R"
16969,"108 WEST TIMONIUM ROAD SUITE 303","TIMONIUM","MD",21093,39.4392847670001,-76.630867076,469,"108 WEST TIMONIUM ROAD SUITE 303, TIMONIUM, MD, 21093","Match","Exact","108 W TIMONIUM RD, TIMONIUM, MD, 21093",191470919,"R"
16970,"108 WHISPERINGBROOK DR","MAULDIN","SC",29662,34.7634540280001,-82.307900493,470,"108 WHISPERINGBROOK DR, MAULDIN, SC, 29662","Match","Exact","108 WHISPERINGBROOK DR, MAULDIN, SC, 29662",38312015,"L"
16971,"108 WHITTIER STREET","FALL RIVER","MA",2724,41.6786144960001,-71.191375518,471,"108 WHITTIER STREET, FALL RIVER, MA, 2724","Match","Exact","108 WHITTIER ST, FALL RIVER, MA, 02724",46767325,"R"
16972,"108 WILDCAT DRIVE","WHITEHOUES","TX",75791,NA,NA,472,"108 WILDCAT DRIVE, WHITEHOUES, TX, 75791","No_Match",NA,NA,NA,NA
16973,"108 WILDFLOWER DRIVE","WHITESBORO","TX",76273,33.662777797,-96.913889389,473,"108 WILDFLOWER DRIVE, WHITESBORO, TX, 76273","Match","Exact","108 WILDFLOWER DR, WHITESBORO, TX, 76273",63390321,"R"
16974,"108 WILLARD STREET","SHERMAN","NY",14781,42.1595529140001,-79.593946817,474,"108 WILLARD STREET, SHERMAN, NY, 14781","Match","Exact","108 WILLARD ST, SHERMAN, NY, 14781",120764283,"R"
16975,"108 WILLIAM DRIVE","ATHENS","GA",30606,33.965690447,-83.427110429,475,"108 WILLIAM DRIVE, ATHENS, GA, 30606","Match","Exact","108 WILLIAM DR, ATHENS, GA, 30606",4811078,"L"
16976,"108 WILLIAMS ST","TAUNTON","MA",2718,NA,NA,476,"108 WILLIAMS ST, TAUNTON, MA, 2718","No_Match",NA,NA,NA,NA
16977,"108 WILLOW BEND DR","TAYLORS","SC",29687,34.9141353430001,-82.297051029,477,"108 WILLOW BEND DR, TAYLORS, SC, 29687","Match","Exact","108 WILLOW BEND DR, TAYLORS, SC, 29687",38370267,"R"
16978,"108 WILLOW CREEK SOUTH LANE","ALABASTER","AL",35007,33.260433408,-86.8171836559999,478,"108 WILLOW CREEK SOUTH LANE, ALABASTER, AL, 35007","Match","Exact","108 WILLOW CREEK SOUTH LN, ALABASTER, AL, 35007",82122719,"L"
16979,"108 WINDWARD HILLS","MCDONOUGH","GA",30253,33.4540897810001,-84.2146981939999,479,"108 WINDWARD HILLS, MCDONOUGH, GA, 30253","Match","Exact","108 WINDWARD HILLS, MCDONOUGH, GA, 30253",619943945,"R"
16980,"108 WINTERS TRAIL","EDWARDSVILLE","IL",62025,38.836309838,-89.9639163259999,480,"108 WINTERS TRAIL, EDWARDSVILLE, IL, 62025","Match","Exact","108 WINTERS TRL, EDWARDSVILLE, IL, 62025",107741811,"L"
16981,"108 WOODHURST DR","ATHENS","GA",30605,33.933293215,-83.304958707,481,"108 WOODHURST DR, ATHENS, GA, 30605","Match","Exact","108 WOODHURST DR, ATHENS, GA, 30605",614138735,"R"
16982,"108 WOODLAND HIIL DRIVE","BROOKHAVEN","MS",39601,31.567572032,-90.453650849,482,"108 WOODLAND HIIL DRIVE, BROOKHAVEN, MS, 39601","Match","Non_Exact","108 WOODLAND HILL DR, BROOKHAVEN, MS, 39601",65681416,"R"
16983,"108 WOODS AVENUE","MOORE","OK",73160,35.338010135,-97.478356941,483,"108 WOODS AVENUE, MOORE, OK, 73160","Match","Exact","108 WOODS AVE, MOORE, OK, 73160",99907609,"L"
16984,"108 WOOSTER STREET 4A","NEW YORK","NY",10012,40.7246026560001,-74.000748828,484,"108 WOOSTER STREET 4A, NEW YORK, NY, 10012","Match","Exact","108 WOOSTER ST, NEW YORK, NY, 10012",59660282,"R"
16985,"108 WYNNWOOD DRIVE","PITTSBURGH","PA",15215,40.5112422970001,-79.909211942,485,"108 WYNNWOOD DRIVE, PITTSBURGH, PA, 15215","Match","Exact","108 WYNNWOOD DR, PITTSBURGH, PA, 15215",51645508,"R"
16986,"108 WYOMING STREET","LAFAYETTE","LA",70501,30.2380239610001,-91.995106279,486,"108 WYOMING STREET, LAFAYETTE, LA, 70501","Match","Exact","108 WYOMING ST, LAFAYETTE, LA, 70501",85617105,"R"
16987,"108 YORKSHIRE CT","VERSAILLES","KY",40383,38.046735417,-84.702352488,487,"108 YORKSHIRE CT, VERSAILLES, KY, 40383","Match","Exact","108 YORKSHIRE CT, VERSAILLES, KY, 40383",38496420,"L"
16988,"108 ZARLEY DRIVE","COPPERAS COVE","TX",76522,31.132536325,-97.8917317519999,488,"108 ZARLEY DRIVE, COPPERAS COVE, TX, 76522","Match","Exact","108 ZARLEY DR, COPPERAS COVE, TX, 76522",146566465,"R"
16989,"108-01 NORTHERN BOULEVARD","CORONA","NY",11368,40.757834169,-73.8609559769999,489,"108-01 NORTHERN BOULEVARD, CORONA, NY, 11368","Match","Exact","108-01 NORTHERN BLVD, CORONA, NY, 11368",59699472,"L"
16990,"108-02 SUTPHIN BLVD","JAMIACA","NY",11435,40.6929587380001,-73.7993412769999,490,"108-02 SUTPHIN BLVD, JAMIACA, NY, 11435","Match","Non_Exact","108 SUTPHIN BLVD, JAMAICA, NY, 11435",59714250,"R"
16991,"108-136 MARTIN LUTHER KING JR BLVD","NEWARK","NJ",7104,NA,NA,491,"108-136 MARTIN LUTHER KING JR BLVD, NEWARK, NJ, 7104","Tie",NA,NA,NA,NA
16992,"108-136 MLK JR BLVD APT 905","NEWARK","NJ",7104,NA,NA,492,"108-136 MLK JR BLVD APT 905, NEWARK, NJ, 7104","Tie",NA,NA,NA,NA
16993,"108-28 DITMARS BLVD","EAST ELMHURST","NY",11369,NA,NA,493,"108-28 DITMARS BLVD, EAST ELMHURST, NY, 11369","Tie",NA,NA,NA,NA
16994,"108-33 CORONA AVENUE PO BOX 121","CORONA","NY",11368,40.7426160750001,-73.854225517,494,"108-33 CORONA AVENUE PO BOX 121, CORONA, NY, 11368","Match","Exact","108-33 CORONA AVE, CORONA, NY, 11368",59705657,"L"
16995,"108-36 167 STREET","JAMAICA","NY",11433,40.6971814620001,-73.787204044,495,"108-36 167 STREET, JAMAICA, NY, 11433","Match","Exact","108-36 167TH ST, JAMAICA, NY, 11433",59714710,"R"
16996,"108","CHICAGO","IL",60628,NA,NA,496,"108, CHICAGO, IL, 60628","No_Match",NA,NA,NA,NA
16997,"108","ROCHESTER","NY",14626,NA,NA,497,"108, ROCHESTER, NY, 14626","No_Match",NA,NA,NA,NA
16998,"1080 14TH AVE DR NW","HICKORY","NC",28601,35.755391554,-81.3607766819999,498,"1080 14TH AVE DR NW, HICKORY, NC, 28601","Match","Exact","1080 14TH AVENUE DR NW, HICKORY, NC, 28601",45903718,"R"
16999,"1080 45TH STREET","DES MOINES","IA",50311,41.59818935,-93.678668791,499,"1080 45TH STREET, DES MOINES, IA, 50311","Match","Exact","1080 45TH ST, DES MOINES, IA, 50311",65779814,"L"
17000,"1080 89TH AVE NE","BELLEVUE","WA",98004,47.619752481,-122.221127426,500,"1080 89TH AVE NE, BELLEVUE, WA, 98004","Match","Exact","1080 89TH AVE NE, BELLEVUE, WA, 98004",186602788,"R"
