"ID","Address","City","State","Zip","lat","long","id","input_address","match_indicator","match_type","matched_address","tiger_line_id","tiger_side"
166501,"311 STATION WAY","HUNTINGTON STATION","NY",11746,40.854757052,-73.398486208,1,"311 STATION WAY, HUNTINGTON STATION, NY, 11746","Match","Exact","311 STATION WAY, HUNTINGTON STATION, NY, 11746",648200770,"R"
166502,"311 STONEWOOD DR","HIXSON","TN",37343,35.162628823,-85.254452325,2,"311 STONEWOOD DR, HIXSON, TN, 37343","Match","Exact","311 STONEWOOD DR, HIXSON, TN, 37343",59342978,"R"
166503,"311 SW GREEN TEAL ST","LEES SUMMIT","MO",64082,38.8309018690001,-94.384089461,3,"311 SW GREEN TEAL ST, LEES SUMMIT, MO, 64082","Match","Exact","311 SW GREEN TEAL ST, LEES SUMMIT, MO, 64082",100908593,"L"
166504,"311 TATES COURT","LOGANVILLE","GA",30052,NA,NA,4,"311 TATES COURT, LOGANVILLE, GA, 30052","No_Match",NA,NA,NA,NA
166505,"311 TENNESSEE AVENUE","ELIZABETHVILLE","PA",17023,40.559394099,-76.819739778,5,"311 TENNESSEE AVENUE, ELIZABETHVILLE, PA, 17023","Match","Exact","311 TENNESSEE AVE, ELIZABETHVILLE, PA, 17023",70841119,"L"
166506,"311 TEXAS STREET","VIDALIA","LA",71373,NA,NA,6,"311 TEXAS STREET, VIDALIA, LA, 71373","No_Match",NA,NA,NA,NA
166507,"311 THIRD STREET SOUTH","NAMPA","ID",83651,43.5843177300001,-116.572077976,7,"311 THIRD STREET SOUTH, NAMPA, ID, 83651","Match","Exact","311 3RD ST S, NAMPA, ID, 83651",122786688,"L"
166508,"311 TOCCOA PL","JONESBORO","GA",30236,33.515599493,-84.272870101,8,"311 TOCCOA PL, JONESBORO, GA, 30236","Match","Exact","311 TOCCOA PL, JONESBORO, GA, 30236",23196794,"L"
166509,"311 VILLAGE DR PMB 3174","TAMARACK","ID",83615,NA,NA,9,"311 VILLAGE DR PMB 3174, TAMARACK, ID, 83615","No_Match",NA,NA,NA,NA
166510,"311 VILLAGE DR","NACOGDOCHES","TX",75965,31.7223209370001,-94.6167471529999,10,"311 VILLAGE DR, NACOGDOCHES, TX, 75965","Match","Exact","311 VILLAGE DR, NACOGDOCHES, TX, 75965",636374267,"R"
166511,"311 W 127TH ST APT 309","NEW YORK","NY",10027,40.8116246860001,-73.9505474819999,11,"311 W 127TH ST APT 309, NEW YORK, NY, 10027","Match","Non_Exact","311 W 127TH ST, NEW YORK, NY, 10027",59656166,"R"
166512,"311 W 20TH STREET","NORTH LITTLE ROCK","AR",72114,34.7739044890001,-92.26998212,12,"311 W 20TH STREET, NORTH LITTLE ROCK, AR, 72114","Match","Exact","311 W 20TH ST, N LITTLE ROCK, AR, 72114",83508441,"R"
166513,"311 W 2ND ST","RUSHVILLE","IN",46173,39.6081465350001,-85.4479840609999,13,"311 W 2ND ST, RUSHVILLE, IN, 46173","Match","Exact","311 W 2ND ST, RUSHVILLE, IN, 46173",31295889,"L"
166514,"311 W 5TH ST","PALMYRA","NJ",8065,40.002182164,-75.0279634569999,14,"311 W 5TH ST, PALMYRA, NJ, 8065","Match","Exact","311 W 5TH ST, PALMYRA, NJ, 08065",134024764,"R"
166515,"311 W 6TH STREET","PERRIS","CA",92570,33.780261936,-117.232724739,15,"311 W 6TH STREET, PERRIS, CA, 92570","Match","Exact","311 W 6TH ST, PERRIS, CA, 92570",194728197,"R"
166516,"311 W 74TH ST","RICHFIELD","MN",55423,44.869085012,-93.2836428479999,16,"311 W 74TH ST, RICHFIELD, MN, 55423","Match","Exact","311 W 74TH ST, RICHFIELD, MN, 55423",43592975,"L"
166517,"311 W CRYSTAL LAKE AVENUE","CRYSTAL LAKE","IL",60014,42.2409939140001,-88.3325265559999,17,"311 W CRYSTAL LAKE AVENUE, CRYSTAL LAKE, IL, 60014","Match","Exact","311 W CRYSTAL LAKE AVE, CRYSTAL LAKE, IL, 60014",119865470,"R"
166518,"311 W FRANKLIN ST","RICHMOND","VA",23220,37.545563294,-77.44632953,18,"311 W FRANKLIN ST, RICHMOND, VA, 23220","Match","Exact","311 W FRANKLIN ST, RICHMOND, VA, 23220",201539113,"L"
166519,"311 W MAIN ST","WHITEHOUSE","TX",75791,32.2267408330001,-95.23022209,19,"311 W MAIN ST, WHITEHOUSE, TX, 75791","Match","Exact","311 W MAIN ST, WHITEHOUSE, TX, 75791",632796695,"L"
166520,"311 W MONTGOMERY AVE","ROCKVILLE","MD",20850,39.084361529,-77.159679438,20,"311 W MONTGOMERY AVE, ROCKVILLE, MD, 20850","Match","Exact","311 W MONTGOMERY AVE, ROCKVILLE, MD, 20850",62053365,"R"
166521,"311 W RALPH ST APT A","SAN GABRIEL","CA",91776,34.077517535,-118.104334474,21,"311 W RALPH ST APT A, SAN GABRIEL, CA, 91776","Match","Non_Exact","311 W RALPH ST, SAN GABRIEL, CA, 91776",642862253,"R"
166522,"311 W RICHARDSON ST","SELMA","NC",27576,35.54026407,-78.2829307649999,22,"311 W RICHARDSON ST, SELMA, NC, 27576","Match","Exact","311 W RICHARDSON ST, SELMA, NC, 27576",26523747,"L"
166523,"311 WARREN ST","FAYETTEVILLE","NY",13066,43.027174739,-76.009218427,23,"311 WARREN ST, FAYETTEVILLE, NY, 13066","Match","Exact","311 WARREN ST, FAYETTEVILLE, NY, 13066",46576488,"L"
166524,"311 WARREN STREET","BEVERLY","NJ",8010,40.0651843910001,-74.919736202,24,"311 WARREN STREET, BEVERLY, NJ, 8010","Match","Exact","311 WARREN ST, BEVERLY, NJ, 08010",134028408,"R"
166525,"311 WASHINGTON RD","PITTSBURGH","PA",15216,40.386668688,-80.0437659,25,"311 WASHINGTON RD, PITTSBURGH, PA, 15216","Match","Exact","311 WASHINGTON RD, PITTSBURGH, PA, 15216",51920556,"L"
166526,"311 WEST 10TH STREET","COFFEYVILLE","KS",67337,37.0339956030001,-95.619058445,26,"311 WEST 10TH STREET, COFFEYVILLE, KS, 67337","Match","Exact","311 W 10TH ST, COFFEYVILLE, KS, 67337",13805084,"L"
166527,"311 WEST 111TH STREET APT 2D","NEW YORK","NY",10026,40.8013398750001,-73.957930045,27,"311 WEST 111TH STREET APT 2D, NEW YORK, NY, 10026","Match","Exact","311 W 111TH ST, NEW YORK, NY, 10026",59656888,"R"
166528,"311 WEST 24TH STREET APT 19H","NEW YORK","NY",10011,40.7460355810001,-73.9985529099999,28,"311 WEST 24TH STREET APT 19H, NEW YORK, NY, 10011","Match","Exact","311 W 24TH ST, NEW YORK, NY, 10011",611185459,"R"
166529,"311 WEST 7TH STREET","AUSTIN","TX",78701,30.2697016650001,-97.7450277039999,29,"311 WEST 7TH STREET, AUSTIN, TX, 78701","Match","Exact","311 W 7TH ST, AUSTIN, TX, 78701",63943408,"L"
166530,"311 WEST DRIVE","DUBLIN","GA",31021,32.5394770250001,-82.9212773089999,30,"311 WEST DRIVE, DUBLIN, GA, 31021","Match","Exact","311 WEST DR, DUBLIN, GA, 31021",100652445,"R"
166531,"311 WEST MATTHEWS","JONESBORO","AR",72401,35.835795998,-90.706972427,31,"311 WEST MATTHEWS, JONESBORO, AR, 72401","Match","Non_Exact","311 W MATTHEWS AVE, JONESBORO, AR, 72401",46909392,"R"
166532,"311 WEST RED BIRD LANE","DUNCANVILLE","TX",75116,32.6746435330001,-96.9103071339999,32,"311 WEST RED BIRD LANE, DUNCANVILLE, TX, 75116","Match","Exact","311 W RED BIRD LN, DUNCANVILLE, TX, 75116",102940876,"R"
166533,"311 WEST SUPERIOR/ SUITE 509","CHICAGO","IL",60654,NA,NA,33,"311 WEST SUPERIOR/ SUITE 509, CHICAGO, IL, 60654","No_Match",NA,NA,NA,NA
166534,"311 WEST WALLACE ST APT 307","BURGAW","NC",28425,34.5549119070001,-77.9307380559999,34,"311 WEST WALLACE ST APT 307, BURGAW, NC, 28425","Match","Exact","311 W WALLACE ST, BURGAW, NC, 28425",14135855,"R"
166535,"311 WHITE MOUNTAIN MEADOWS DRIVE","RUIDOSO","NM",88345,33.3717797950001,-105.657312984,35,"311 WHITE MOUNTAIN MEADOWS DRIVE, RUIDOSO, NM, 88345","Match","Exact","311 WHITE MOUNTAIN MEADOWS DR, RUIDOSO, NM, 88345",649814401,"R"
166536,"311 WILKINSON ROAD","RICHMOND","VA",23227,37.629590723,-77.444214689,36,"311 WILKINSON ROAD, RICHMOND, VA, 23227","Match","Exact","311 WILKINSON RD, RICHMOND, VA, 23227",106648682,"L"
166537,"311 WILLIAMS AVE","AUBURN","AL",36830,32.6131694380001,-85.4863223629999,37,"311 WILLIAMS AVE, AUBURN, AL, 36830","Match","Non_Exact","311 WILLIAMS ST, AUBURN, AL, 36830",1581593,"L"
166538,"311 WILLIAMS STREET","NILES","OH",44446,41.1852361250001,-80.769214555,38,"311 WILLIAMS STREET, NILES, OH, 44446","Match","Non_Exact","311 WILLIAMS ST SE, NILES, OH, 44446",117408522,"L"
166539,"311 WILLOW ST APT 203","FORT COLLINS","CO",80524,40.591466675,-105.07504836,39,"311 WILLOW ST APT 203, FORT COLLINS, CO, 80524","Match","Exact","311 WILLOW ST, FORT COLLINS, CO, 80524",188520318,"R"
166540,"311 WINDY DRIVE","WATERBURY","CT",6705,41.5634317490001,-72.994393182,40,"311 WINDY DRIVE, WATERBURY, CT, 6705","Match","Exact","311 WINDY DR, WATERBURY, CT, 06705",3742892,"L"
166541,"311 WOODEND RD","STRATFORD","CT",6615,41.1756236840001,-73.1328367949999,41,"311 WOODEND RD, STRATFORD, CT, 6615","Match","Exact","311 WOODEND RD, STRATFORD, CT, 06615",3228195,"R"
166542,"311-B BELT ROAD","AGUADILLA","PR",603,18.4945890000001,-67.1424455709999,42,"311-B BELT ROAD, AGUADILLA, PR, 603","Match","Exact","311 BELT RD, AGUADILLA, PR, 00603",204877588,"R"
166543,"3110 1ST AVE N SUITE 2M","SAINT PETERSBURG","FL",33713,27.77185891,-82.6756214119999,43,"3110 1ST AVE N SUITE 2M, SAINT PETERSBURG, FL, 33713","Match","Exact","3110 1ST AVE N, SAINT PETERSBURG, FL, 33713",124705462,"L"
166544,"3110 1ST AVENUE NORTH SUITE H","ST PETERSBURG","FL",33713,27.77185891,-82.6756214119999,44,"3110 1ST AVENUE NORTH SUITE H, ST PETERSBURG, FL, 33713","Match","Exact","3110 1ST AVE N, SAINT PETERSBURG, FL, 33713",124705462,"L"
166545,"3110 BARRONS WAY","SUGAR LAND","TX",77479,29.567651534,-95.6426418409999,45,"3110 BARRONS WAY, SUGAR LAND, TX, 77479","Match","Exact","3110 BARRONS WAY, SUGAR LAND, TX, 77479",641152184,"L"
166546,"3110 BIDDLE RD","BELLVILLE","OH",44813,40.6171752750001,-82.623217769,46,"3110 BIDDLE RD, BELLVILLE, OH, 44813","Match","Exact","3110 BIDDLE RD, BELLVILLE, OH, 44813",12855683,"L"
166547,"3110 CABRINI DR NW","GIG HARBOR","WA",98332,47.286169316,-122.607929443,47,"3110 CABRINI DR NW, GIG HARBOR, WA, 98332","Match","Non_Exact","3110 CABRINI DR NW, GIG HARBOR, WA, 98335",184642475,"L"
166548,"3110 CHERRY PALM DR SUITE 290","TAMPA","FL",33619,27.971662619,-82.344409286,48,"3110 CHERRY PALM DR SUITE 290, TAMPA, FL, 33619","Match","Exact","3110 CHERRY PALM DR, TAMPA, FL, 33619",104537572,"L"
166549,"3110 CHERRY PALM DR","TAMPA","FL",33619,27.971662619,-82.344409286,49,"3110 CHERRY PALM DR, TAMPA, FL, 33619","Match","Exact","3110 CHERRY PALM DR, TAMPA, FL, 33619",104537572,"L"
166550,"3110 CONGRESS PARK DRIVE 1132","LAKE WORTH","FL",33461,26.607558662,-80.093767811,50,"3110 CONGRESS PARK DRIVE 1132, LAKE WORTH, FL, 33461","Match","Exact","3110 CONGRESS PARK DR, LAKE WORTH, FL, 33461",115568427,"R"
166551,"3110 DAVID DRIVE","METAIRIE","LA",70003,30.00413819,-90.220439164,51,"3110 DAVID DRIVE, METAIRIE, LA, 70003","Match","Exact","3110 DAVID DR, METAIRIE, LA, 70003",93538197,"L"
166552,"3110 DUNN COMMONS PARKWAY APT 309","CHARLOTTE","NC",28216,NA,NA,52,"3110 DUNN COMMONS PARKWAY APT 309, CHARLOTTE, NC, 28216","No_Match",NA,NA,NA,NA
166553,"3110 E 79TH STREET","CHICAGO","IL",60649,41.7519704360001,-87.549065738,53,"3110 E 79TH STREET, CHICAGO, IL, 60649","Match","Exact","3110 E 79TH ST, CHICAGO, IL, 60649",605557278,"L"
166554,"3110 E BATTALA CT","GILBERT","AZ",85297,33.280605715,-111.722498384,54,"3110 E BATTALA CT, GILBERT, AZ, 85297","Match","Exact","3110 E BATTALA CT, GILBERT, AZ, 85297",601672083,"L"
166555,"3110 E CORONET DR","SALT LAKE CITY","UT",84124,40.679119144,-111.804925013,55,"3110 E CORONET DR, SALT LAKE CITY, UT, 84124","Match","Exact","3110 E CORONET DR, SALT LAKE CITY, UT, 84124",176094537,"R"
166556,"3110 E MEDICINE LAKE BLVD","PLYMOUTH","MN",55441,NA,NA,56,"3110 E MEDICINE LAKE BLVD, PLYMOUTH, MN, 55441","No_Match",NA,NA,NA,NA
166557,"3110 E PALM DR - UNIT 12","FULLERTON","CA",92831,33.891220552,-117.87108847,57,"3110 E PALM DR - UNIT 12, FULLERTON, CA, 92831","Match","Non_Exact","3110 E PALM DR, FULLERTON, CA, 92831",143993750,"R"
166558,"3110 E SUNSET RD","LAS VEGAS","NV",89121,36.0715730470001,-115.107804376,58,"3110 E SUNSET RD, LAS VEGAS, NV, 89121","Match","Non_Exact","3110 E SUNSET RD, LAS VEGAS, NV, 89120",201977217,"L"
166559,"3110 EAST 1ST ST","LOS ANGELES","CA",90063,34.0393945750001,-118.200059981,59,"3110 EAST 1ST ST, LOS ANGELES, CA, 90063","Match","Exact","3110 E 1ST ST, LOS ANGELES, CA, 90063",141624725,"R"
166560,"3110 EAST BOUNDARY CT","MIDLOTHIAN","VA",23112,37.449099892,-77.6451130569999,60,"3110 EAST BOUNDARY CT, MIDLOTHIAN, VA, 23112","Match","Non_Exact","3110 E BOUNDARY RD, MIDLOTHIAN, VA, 23112",648463554,"L"
166561,"3110 EDWARDS MILL ROAD SUITE 100","RALEIGH","NC",27612,35.824113649,-78.706724923,61,"3110 EDWARDS MILL ROAD SUITE 100, RALEIGH, NC, 27612","Match","Exact","3110 EDWARDS MILL RD, RALEIGH, NC, 27612",72522692,"L"
166562,"3110 ELMWOOD AVE","ROCHESTER","NY",14618,43.1268526800001,-77.552160097,62,"3110 ELMWOOD AVE, ROCHESTER, NY, 14618","Match","Exact","3110 ELMWOOD AVE, ROCHESTER, NY, 14618",14562079,"L"
166563,"3110 FAIRFIELD AVENUE","BRONX","NY",10463,40.883379921,-73.9141916359999,63,"3110 FAIRFIELD AVENUE, BRONX, NY, 10463","Match","Exact","3110 FAIRFIELD AVE, BRONX, NY, 10463",80295921,"R"
166564,"3110 HAVERHILL DR","AURORA","IL",60502,41.784331164,-88.240005374,64,"3110 HAVERHILL DR, AURORA, IL, 60502","Match","Exact","3110 HAVERHILL DR, AURORA, IL, 60502",112590277,"L"
166565,"3110 HEATHSTEAD PLACE","CHARLOTTE","NC",28210,35.129752436,-80.831478799,65,"3110 HEATHSTEAD PLACE, CHARLOTTE, NC, 28210","Match","Exact","3110 HEATHSTEAD PL, CHARLOTTE, NC, 28210",70505665,"L"
166566,"3110 HIDDEN CREEK DRIVE","CHICO","CA",95973,39.7639607140001,-121.87858685,66,"3110 HIDDEN CREEK DRIVE, CHICO, CA, 95973","Match","Exact","3110 HIDDEN CREEK DR, CHICO, CA, 95973",68469817,"R"
166567,"3110 HOLLY AVE","COLONIAL HEIGHTS","VA",23834,37.2633597940001,-77.3968008049999,67,"3110 HOLLY AVE, COLONIAL HEIGHTS, VA, 23834","Match","Exact","3110 HOLLY AVE, COLONIAL HEIGHTS, VA, 23834",201634304,"L"
166568,"3110 JUDSON ST STE 102","GIG HARBOR","WA",98335,47.3279954480001,-122.580525194,68,"3110 JUDSON ST STE 102, GIG HARBOR, WA, 98335","Match","Exact","3110 JUDSON ST, GIG HARBOR, WA, 98335",184668713,"L"
166569,"3110 JUDSON STREET PMB 109","GIG HARBOR","WA",98335,47.3279954480001,-122.580525194,69,"3110 JUDSON STREET PMB 109, GIG HARBOR, WA, 98335","Match","Exact","3110 JUDSON ST, GIG HARBOR, WA, 98335",184668713,"L"
166570,"3110 LEYLAND COURT","DECATUR","GA",30034,33.668357288,-84.2621414509999,70,"3110 LEYLAND COURT, DECATUR, GA, 30034","Match","Exact","3110 LEYLAND CT, DECATUR, GA, 30034",619382847,"L"
166571,"3110 LIBERTY HEIGHTS AVENUE","BALTIMORE","MD",21215,39.3233821100001,-76.668632272,71,"3110 LIBERTY HEIGHTS AVENUE, BALTIMORE, MD, 21215","Match","Exact","3110 LIBERTY HEIGHTS AVE, BALTIMORE, MD, 21215",206406486,"R"
166572,"3110 LUMBY DRIVE APT 4208","DECATUR","GA",30034,33.7015337290001,-84.264640882,72,"3110 LUMBY DRIVE APT 4208, DECATUR, GA, 30034","Match","Exact","3110 LUMBY DR, DECATUR, GA, 30034",23387890,"R"
166573,"3110 MARTIN LN","ROLLING MEADOWS","IL",60008,42.0759541460001,-88.019427214,73,"3110 MARTIN LN, ROLLING MEADOWS, IL, 60008","Match","Exact","3110 MARTIN LN, ROLLING MDWS, IL, 60008",111698333,"R"
166574,"3110 MT  ZION RD APT 705","STOCKBRIDGE","GA",30281,33.5528032780001,-84.287326526,74,"3110 MT  ZION RD APT 705, STOCKBRIDGE, GA, 30281","Match","Exact","3110 MOUNT ZION RD, STOCKBRIDGE, GA, 30281",23334269,"L"
166575,"3110 MUSTANG ROAD","ALVIN","TX",77511,29.3905231050001,-95.236356883,75,"3110 MUSTANG ROAD, ALVIN, TX, 77511","Match","Exact","3110 MUSTANG RD, ALVIN, TX, 77511",116585517,"L"
166576,"3110 N SHERIDAN RD APT 707","CHICAGO","IL",60657,41.9381248,-87.6394852129999,76,"3110 N SHERIDAN RD APT 707, CHICAGO, IL, 60657","Match","Non_Exact","3110 N SHERIDAN RD, CHICAGO, IL, 60657",111766905,"L"
166577,"3110 NORTH PENNSYLVANIA ST","INDIANAPOLIS","IN",46205,39.812416227,-86.15470916,77,"3110 NORTH PENNSYLVANIA ST, INDIANAPOLIS, IN, 46205","Match","Exact","3110 N PENNSYLVANIA ST, INDIANAPOLIS, IN, 46205",107989096,"L"
166578,"3110 NOTTINGHAM","MARKHAM","IL",60426,NA,NA,78,"3110 NOTTINGHAM, MARKHAM, IL, 60426","No_Match",NA,NA,NA,NA
166579,"3110 NW 166ST","MIAMI GARDENS","FL",33054,NA,NA,79,"3110 NW 166ST, MIAMI GARDENS, FL, 33054","No_Match",NA,NA,NA,NA
166580,"3110 NW 211TH ST","MIAMI GARDENS","FL",33056,25.967934515,-80.253744797,80,"3110 NW 211TH ST, MIAMI GARDENS, FL, 33056","Match","Exact","3110 NW 211TH ST, MIAMI GARDENS, FL, 33056",116255041,"L"
166581,"3110 PHEASANT CREEK","NORTHBROOK","IL",60062,42.1358289390001,-87.855873198,81,"3110 PHEASANT CREEK, NORTHBROOK, IL, 60062","Match","Non_Exact","3110 PHEASANT CREEK DR, NORTHBROOK, IL, 60062",112367947,"R"
166582,"3110 PIONEER ROAD","ROANOKE","VA",24012,37.3048022460001,-79.944141225,82,"3110 PIONEER ROAD, ROANOKE, VA, 24012","Match","Non_Exact","3110 PIONEER RD NW, ROANOKE, VA, 24012",62904936,"L"
166583,"3110 PONDEROSA DRIVE","ALLISON PARK","PA",15101,40.5524191870001,-79.94267338,83,"3110 PONDEROSA DRIVE, ALLISON PARK, PA, 15101","Match","Exact","3110 PONDEROSA DR, ALLISON PARK, PA, 15101",51609012,"R"
166584,"3110 QUAIL CREST AVE","HENDERSON","NV",89052,35.9886181160001,-115.123065065,84,"3110 QUAIL CREST AVE, HENDERSON, NV, 89052","Match","Exact","3110 QUAIL CREST AVE, HENDERSON, NV, 89052",201927459,"R"
166585,"3110 RAVEN CT","IOWA CITY","IA",52245,41.6578581900001,-91.486940788,85,"3110 RAVEN CT, IOWA CITY, IA, 52245","Match","Exact","3110 RAVEN CT, IOWA CITY, IA, 52245",84496760,"L"
166586,"3110 RIPPLEWOOD DR","SEFFNER","FL",33584,27.963868646,-82.28257846,86,"3110 RIPPLEWOOD DR, SEFFNER, FL, 33584","Match","Exact","3110 RIPPLEWOOD DR, SEFFNER, FL, 33584",104541861,"L"
166587,"3110 S STREET","SACRAMENTO","CA",95816,38.5627815920001,-121.469237954,87,"3110 S STREET, SACRAMENTO, CA, 95816","Match","Exact","3110 S ST, SACRAMENTO, CA, 95816",133325196,"R"
166588,"3110 SABINE POINT WAY","MISSOURI CITY","TX",77459,29.4919960450001,-95.516284603,88,"3110 SABINE POINT WAY, MISSOURI CITY, TX, 77459","Match","Exact","3110 SABINE POINT WAY, MISSOURI CITY, TX, 77459",635270852,"R"
166589,"3110 SADE CT","HUNTINGTOWN","MD",20639,38.607377023,-76.549752473,89,"3110 SADE CT, HUNTINGTOWN, MD, 20639","Match","Exact","3110 SADE CT, HUNTINGTOWN, MD, 20639",78172512,"R"
166590,"3110 SCARLET OAK COVE","ROUND ROCK","TX",78665,30.513052798,-97.6173125829999,90,"3110 SCARLET OAK COVE, ROUND ROCK, TX, 78665","Match","Exact","3110 SCARLET OAK COVE, ROUND ROCK, TX, 78665",126476406,"R"
166591,"3110 SE 30TH ST","MOORE","OK",73165,35.3089708160001,-97.427127372,91,"3110 SE 30TH ST, MOORE, OK, 73165","Match","Exact","3110 SE 30TH ST, MOORE, OK, 73165",99916848,"R"
166592,"3110 SHARON DRIVE","CHAMPAIGN","IL",61822,40.13119146,-88.296894134,92,"3110 SHARON DRIVE, CHAMPAIGN, IL, 61822","Match","Exact","3110 SHARON DR, CHAMPAIGN, IL, 61822",8833593,"L"
166593,"3110 STOCKMAN ST","NATIONAL CITY","CA",91950,32.6609927970001,-117.065480861,93,"3110 STOCKMAN ST, NATIONAL CITY, CA, 91950","Match","Exact","3110 STOCKMAN ST, NATIONAL CITY, CA, 91950",650369780,"R"
166594,"3110 STONE OAK DR","DOUGLASVILLE","GA",30134,33.720773449,-84.7295128109999,94,"3110 STONE OAK DR, DOUGLASVILLE, GA, 30134","Match","Non_Exact","3110 STONE OAK DR, DOUGLASVILLE, GA, 30135",16650588,"L"
166595,"3110 SW RALEIGHVIEW DR","PORTLAND","OR",97225,45.497287677,-122.746940639,95,"3110 SW RALEIGHVIEW DR, PORTLAND, OR, 97225","Match","Exact","3110 SW RALEIGHVIEW DR, PORTLAND, OR, 97225",158195454,"L"
166596,"3110 TIOGA PKWY","BALTIMORE","MD",21215,39.317641108,-76.658867936,96,"3110 TIOGA PKWY, BALTIMORE, MD, 21215","Match","Exact","3110 TIOGA PKWY, BALTIMORE, MD, 21215",206414288,"L"
166597,"3110 ULYSSES STREET NE","MINNEAPOLIS","MN",55418,NA,NA,97,"3110 ULYSSES STREET NE, MINNEAPOLIS, MN, 55418","No_Match",NA,NA,NA,NA
166598,"3110 UVALDE AVE","NEDERLAND","TX",77627,29.973046131,-94.0199277359999,98,"3110 UVALDE AVE, NEDERLAND, TX, 77627","Match","Exact","3110 UVALDE AVE, NEDERLAND, TX, 77627",73859328,"R"
166599,"3110 W FARM ROAD 102","SPRINGFIELD","MO",65803,37.262312922,-93.337750523,99,"3110 W FARM ROAD 102, SPRINGFIELD, MO, 65803","Match","Non_Exact","3110 W FARM RD 102, SPRINGFIELD, MO, 65803",629849448,"L"
166600,"3110 W LEIGH STREET","RICHMOND","VA",23230,37.567457318,-77.471150818,100,"3110 W LEIGH STREET, RICHMOND, VA, 23230","Match","Exact","3110 W LEIGH ST, RICHMOND, VA, 23230",201535579,"R"
166601,"3110 W RIVERSIDE AVE","MUNCIE","IN",47304,40.200225953,-85.422961253,101,"3110 W RIVERSIDE AVE, MUNCIE, IN, 47304","Match","Exact","3110 W RIVERSIDE AVE, MUNCIE, IN, 47304",30834123,"R"
166602,"3110 WILDERNESS HILLS BLVD 6-112","LINCOLN","NE",68516,40.72312134,-96.6762293419999,102,"3110 WILDERNESS HILLS BLVD 6-112, LINCOLN, NE, 68516","Match","Exact","3110 WILDERNESS HILLS BLVD, LINCOLN, NE, 68516",646639496,"R"
166603,"3110-A ASHFORD DUNWOODY RD","ATLANTA","GA",30319,33.879965945,-84.327394665,103,"3110-A ASHFORD DUNWOODY RD, ATLANTA, GA, 30319","Match","Non_Exact","3110 ASHFORD DUNWOODY RD NE, ATLANTA, GA, 30319",23399032,"L"
166604,"31100 SOLON ROAD SUITE 16","SOLON","OH",44139,41.3871256420001,-81.456705818,104,"31100 SOLON ROAD SUITE 16, SOLON, OH, 44139","Match","Exact","31100 SOLON RD, SOLON, OH, 44139",61168382,"R"
166605,"31100 TELEGRAPH RD","BINGHAM FARMS","MI",48025,NA,NA,105,"31100 TELEGRAPH RD, BINGHAM FARMS, MI, 48025","No_Match",NA,NA,NA,NA
166606,"31101 STIRLING COURT","WINCHESTER","CA",92596,NA,NA,106,"31101 STIRLING COURT, WINCHESTER, CA, 92596","No_Match",NA,NA,NA,NA
166607,"31103 CLAREWOOD DRIVE","BAY VILLAGE","OH",44140,41.488847359,-81.962724227,107,"31103 CLAREWOOD DRIVE, BAY VILLAGE, OH, 44140","Match","Exact","31103 CLAREWOOD DR, BAY VILLAGE, OH, 44140",61137352,"L"
166608,"31103 RANCHO VIEJO ROAD - UNIT 2328","SAN JUAN CAPISTRANO","CA",92675,33.5094007530001,-117.658758294,108,"31103 RANCHO VIEJO ROAD - UNIT 2328, SAN JUAN CAPISTRANO, CA, 92675","Match","Exact","31103 RANCHO VIEJO RD, SAN JUAN CAPISTRANO, CA, 92675",609046651,"L"
166609,"31103 RANCHO VIEJO ROAD 2328","SAN JUAN CAPISTRANO","CA",92675,33.5094007530001,-117.658758294,109,"31103 RANCHO VIEJO ROAD 2328, SAN JUAN CAPISTRANO, CA, 92675","Match","Exact","31103 RANCHO VIEJO RD, SAN JUAN CAPISTRANO, CA, 92675",609046651,"L"
166610,"31103 RANCHO VIEJO ROAD D2335","SAN JUAN CAPISTRANO","CA",92675,33.5094007530001,-117.658758294,110,"31103 RANCHO VIEJO ROAD D2335, SAN JUAN CAPISTRANO, CA, 92675","Match","Exact","31103 RANCHO VIEJO RD, SAN JUAN CAPISTRANO, CA, 92675",609046651,"L"
166611,"31103-D210 RANCHO VIEJO ROAD","SAN JUAN CAPISTRANO","CA",92675,NA,NA,111,"31103-D210 RANCHO VIEJO ROAD, SAN JUAN CAPISTRANO, CA, 92675","No_Match",NA,NA,NA,NA
166612,"31105 FURTOSO WAY","BOERNE","TX",78015,29.7580417560001,-98.6565375919999,112,"31105 FURTOSO WAY, BOERNE, TX, 78015","Match","Exact","31105 FURTOSO WAY, BOERNE, TX, 78015",639749183,"L"
166613,"31105 RANCHO VIEJO ROAD SUITE C9","SAN JUAN CAPISTRANO","CA",92675,33.5093891290001,-117.658747961,113,"31105 RANCHO VIEJO ROAD SUITE C9, SAN JUAN CAPISTRANO, CA, 92675","Match","Exact","31105 RANCHO VIEJO RD, SAN JUAN CAPISTRANO, CA, 92675",609046651,"L"
166614,"3111 20 MAHAN DRIVE 2145","TALLAHASSEE","FL",32308,NA,NA,114,"3111 20 MAHAN DRIVE 2145, TALLAHASSEE, FL, 32308","No_Match",NA,NA,NA,NA
166615,"3111 4TH STREET 409","SANTA MONICA","CA",90405,33.999620431,-118.477076405,115,"3111 4TH STREET 409, SANTA MONICA, CA, 90405","Match","Exact","3111 4TH ST, SANTA MONICA, CA, 90405",141568926,"L"
166616,"3111 4TH STREET SUITE 409","SANTA MONICA","CA",90405,33.999620431,-118.477076405,116,"3111 4TH STREET SUITE 409, SANTA MONICA, CA, 90405","Match","Exact","3111 4TH ST, SANTA MONICA, CA, 90405",141568926,"L"
166617,"3111 62ND STREET","SAUGATUCK","MI",49453,42.648239098,-86.153741748,117,"3111 62ND STREET, SAUGATUCK, MI, 49453","Match","Exact","3111 62ND ST, SAUGATUCK, MI, 49453",635606741,"R"
166618,"3111 ABRAHAM DR","CEDAR FALLS","IA",50613,42.5317631890001,-92.478207721,118,"3111 ABRAHAM DR, CEDAR FALLS, IA, 50613","Match","Exact","3111 ABRAHAM DR, CEDAR FALLS, IA, 50613",212733021,"R"
166619,"3111 AMADOR DR","LANDOVER","MD",20785,38.932992916,-76.858783156,119,"3111 AMADOR DR, LANDOVER, MD, 20785","Match","Exact","3111 AMADOR DR, LANDOVER, MD, 20785",76310027,"R"
166620,"3111 AURELIA COURT APT 103","BROOKLYN","NY",11210,40.6299651520001,-73.946292618,120,"3111 AURELIA COURT APT 103, BROOKLYN, NY, 11210","Match","Exact","3111 AURELIA CT, BROOKLYN, NY, 11210",59081800,"L"
166621,"3111 CAMINO DEL RIO N STE 400","SAN DIEGO","CA",92108,NA,NA,121,"3111 CAMINO DEL RIO N STE 400, SAN DIEGO, CA, 92108","No_Match",NA,NA,NA,NA
166622,"3111 CAMINO DEL RIO N SUITE 401","SAN DIEGO","CA",92108,NA,NA,122,"3111 CAMINO DEL RIO N SUITE 401, SAN DIEGO, CA, 92108","No_Match",NA,NA,NA,NA
166623,"3111 CAMINO DEL RIO NORTH SUITE 400","SAN DIEGO","CA",92108,NA,NA,123,"3111 CAMINO DEL RIO NORTH SUITE 400, SAN DIEGO, CA, 92108","No_Match",NA,NA,NA,NA
166624,"3111 CARDINAL DRIVE","VERO BEACH","FL",32963,27.65072307,-80.356977182,124,"3111 CARDINAL DRIVE, VERO BEACH, FL, 32963","Match","Exact","3111 CARDINAL DR, VERO BEACH, FL, 32963",120307922,"L"
166625,"3111 CARSON AVE","CLOVIS","CA",93611,36.796400566,-119.658985808,125,"3111 CARSON AVE, CLOVIS, CA, 93611","Match","Exact","3111 CARSON AVE, CLOVIS, CA, 93611",606267476,"L"
166626,"3111 CEDARBROOK","ANN ARBOR","MI",48105,42.315987755,-83.700539121,126,"3111 CEDARBROOK, ANN ARBOR, MI, 48105","Match","Non_Exact","3111 CEDARBROOK RD, ANN ARBOR, MI, 48105",26035638,"L"
166627,"3111 CENTER COURT LANE 700","ANTELOPE","CA",95843,38.7190272030001,-121.391714496,127,"3111 CENTER COURT LANE 700, ANTELOPE, CA, 95843","Match","Exact","3111 CENTER COURT LN, ANTELOPE, CA, 95843",133390318,"L"
166628,"3111 COUNTRY CLUB DRIVE","CHARLOTTE","NC",28205,35.233391253,-80.793348452,128,"3111 COUNTRY CLUB DRIVE, CHARLOTTE, NC, 28205","Match","Exact","3111 COUNTRY CLUB DR, CHARLOTTE, NC, 28205",70481291,"L"
166629,"3111 CREEK HAVEN DRIVE","HIGHLAND VILLAGE","TX",75077,33.092816956,-97.0738527999999,129,"3111 CREEK HAVEN DRIVE, HIGHLAND VILLAGE, TX, 75077","Match","Exact","3111 CREEK HAVEN DR, HIGHLAND VILLAGE, TX, 75077",103415569,"L"
166630,"3111 E STONE POINT DRIVE","BOISE","ID",83712,43.5848666950001,-116.147639799,130,"3111 E STONE POINT DRIVE, BOISE, ID, 83712","Match","Exact","3111 E STONE POINT DR, BOISE, ID, 83712",117867316,"R"
166631,"3111 FALLBROOK DR","HOUSTON","TX",77038,29.9193571110001,-95.46786501,131,"3111 FALLBROOK DR, HOUSTON, TX, 77038","Match","Exact","3111 FALLBROOK DR, HOUSTON, TX, 77038",96653691,"R"
166632,"3111 FONSECA PASS","ATLANTA","GA",30349,33.670134987,-84.6401378159999,132,"3111 FONSECA PASS, ATLANTA, GA, 30349","Match","Non_Exact","3111 FONSECA LN, ATLANTA, GA, 30349",625655995,"L"
166633,"3111 GRANT STREET SUITE B","MISSOULA","MT",59801,46.8423769670001,-114.026319564,133,"3111 GRANT STREET SUITE B, MISSOULA, MT, 59801","Match","Exact","3111 GRANT ST, MISSOULA, MT, 59801",205258983,"R"
166634,"3111 HEATH AVENUE APT 42B","BRONX","NY",10463,40.878391849,-73.9009730079999,134,"3111 HEATH AVENUE APT 42B, BRONX, NY, 10463","Match","Exact","3111 HEATH AVE, BRONX, NY, 10463",80310361,"L"
166635,"3111 HENDON RD","LOUISVILLE","KY",40220,38.218002728,-85.64659864,135,"3111 HENDON RD, LOUISVILLE, KY, 40220","Match","Exact","3111 HENDON RD, LOUISVILLE, KY, 40220",618510006,"L"
166636,"3111 LINDBERGH AVE","BELLINGHAM","WA",98225,48.7656316520001,-122.513689485,136,"3111 LINDBERGH AVE, BELLINGHAM, WA, 98225","Match","Exact","3111 LINDBERGH AVE, BELLINGHAM, WA, 98225",650672281,"L"
166637,"3111 MARITA DRIVE","FAYETTEVILLE","NC",28301,35.09987513,-78.872132344,137,"3111 MARITA DRIVE, FAYETTEVILLE, NC, 28301","Match","Exact","3111 MARITA DR, FAYETTEVILLE, NC, 28301",64201212,"L"
166638,"3111 MONROE","DEARBORN","MI",48124,42.289216084,-83.2513915499999,138,"3111 MONROE, DEARBORN, MI, 48124","Match","Non_Exact","3111 MONROE ST, DEARBORN, MI, 48124",95436765,"L"
166639,"3111 N 34TH PLACE","PHOENIX","AZ",85018,33.4844022500001,-112.00715773,139,"3111 N 34TH PLACE, PHOENIX, AZ, 85018","Match","Exact","3111 N 34TH PL, PHOENIX, AZ, 85018",128219737,"R"
166640,"3111 N CENTRAL AVE SUITE 101","PHOENIX","AZ",85012,33.4841348630001,-112.073768611,140,"3111 N CENTRAL AVE SUITE 101, PHOENIX, AZ, 85012","Match","Non_Exact","3111 N CENTRAL AVE, PHOENIX, AZ, 85012",128208790,"R"
166641,"3111 N UNIVERSITY DR STE 105","CORAL SPRINGS","FL",33065,26.26827201,-80.250044227,141,"3111 N UNIVERSITY DR STE 105, CORAL SPRINGS, FL, 33065","Match","Non_Exact","3111 N UNIVERSITY DR, CORAL SPRINGS, FL, 33065",114690364,"R"
166642,"3111 NORTH 12TH STREET","QUINCY","IL",62305,39.9689150880001,-91.396288467,142,"3111 NORTH 12TH STREET, QUINCY, IL, 62305","Match","Exact","3111 N 12TH ST, QUINCY, IL, 62305",652778266,"L"
166643,"3111 NORTHSIDE AVE","RICHMOND","VA",23228,37.6049244700001,-77.490765718,143,"3111 NORTHSIDE AVE, RICHMOND, VA, 23228","Match","Exact","3111 NORTHSIDE AVE, RICHMOND, VA, 23228",106647315,"L"
166644,"3111 PIEDMONT AVENUE","COLUMBIA","SC",29204,34.028639932,-81.023070691,144,"3111 PIEDMONT AVENUE, COLUMBIA, SC, 29204","Match","Non_Exact","3111 PIEDMONT AVE, COLUMBIA, SC, 29203",71821083,"L"
166645,"3111 QUIET HILLS PLACE","ESCONDIDO","CA",92029,33.0725924760001,-117.079935263,145,"3111 QUIET HILLS PLACE, ESCONDIDO, CA, 92029","Match","Exact","3111 QUIET HILLS PL, ESCONDIDO, CA, 92029",195315018,"R"
166646,"3111 ROUTE 38 SUITE 11 192","MOUNT LAUREL","NJ",8054,NA,NA,146,"3111 ROUTE 38 SUITE 11 192, MOUNT LAUREL, NJ, 8054","No_Match",NA,NA,NA,NA
166647,"3111 ROUTE 38 SUITE 11 257","MT LAUREL","NJ",8054,NA,NA,147,"3111 ROUTE 38 SUITE 11 257, MT LAUREL, NJ, 8054","No_Match",NA,NA,NA,NA
166648,"3111 ROUTE 38 SUITE 11-612","MOUNT LAUREL","NJ",8054,NA,NA,148,"3111 ROUTE 38 SUITE 11-612, MOUNT LAUREL, NJ, 8054","No_Match",NA,NA,NA,NA
166649,"3111 S BIRMINGHAN","AMARILLO","TX",79103,35.181253989,-101.810489456,149,"3111 S BIRMINGHAN, AMARILLO, TX, 79103","Match","Non_Exact","3111 S BIRMINGHAM ST, AMARILLO, TX, 79103",182655744,"L"
166650,"3111 S CEDAR CREST COURT","INDEPENDENCE","MO",64057,39.0634806480001,-94.372162869,150,"3111 S CEDAR CREST COURT, INDEPENDENCE, MO, 64057","Match","Exact","3111 S CEDAR CREST CT, INDEPENDENCE, MO, 64057",641561007,"L"
166651,"3111 S MARYLAND PARKWAY","LAS VEGAS","NV",89109,36.1331737240001,-115.136871141,151,"3111 S MARYLAND PARKWAY, LAS VEGAS, NV, 89109","Match","Exact","3111 S MARYLAND PKWY, LAS VEGAS, NV, 89109",639326041,"R"
166652,"3111 S VALLEY VIEW STE A-208","LAS VEGAS","NV",89102,NA,NA,152,"3111 S VALLEY VIEW STE A-208, LAS VEGAS, NV, 89102","No_Match",NA,NA,NA,NA
166653,"3111 S VENTURA AVE","SPRINGFIELD","MO",65804,37.1561935870001,-93.244325658,153,"3111 S VENTURA AVE, SPRINGFIELD, MO, 65804","Match","Exact","3111 S VENTURA AVE, SPRINGFIELD, MO, 65804",76700849,"L"
166654,"3111 SOUTH JASMINE WAY","DENVER","CO",80222,39.6599604990001,-104.919216666,154,"3111 SOUTH JASMINE WAY, DENVER, CO, 80222","Match","Exact","3111 S JASMINE WAY, DENVER, CO, 80222",177341752,"R"
166655,"3111 SOUTHERN AVE","BALTIMORE","MD",21214,39.343922745,-76.566549814,155,"3111 SOUTHERN AVE, BALTIMORE, MD, 21214","Match","Exact","3111 SOUTHERN AVE, BALTIMORE, MD, 21214",206411151,"R"
166656,"3111 SULLEN PLACE","NEW ORLEANS","LA",70131,29.921196439,-89.985398818,156,"3111 SULLEN PLACE, NEW ORLEANS, LA, 70131","Match","Exact","3111 SULLEN PL, NEW ORLEANS, LA, 70131",191723616,"R"
166657,"3111 TYLER ST NE","MINNEAPOLIS","MN",55418,NA,NA,157,"3111 TYLER ST NE, MINNEAPOLIS, MN, 55418","No_Match",NA,NA,NA,NA
166658,"3111 VERDUN AVE","NORFOLK","VA",23509,36.8742855310001,-76.256400223,158,"3111 VERDUN AVE, NORFOLK, VA, 23509","Match","Exact","3111 VERDUN AVE, NORFOLK, VA, 23509",122136697,"L"
166659,"3111 W 83RD ST","CHICAGO","IL",60652,41.7425305560001,-87.699916093,159,"3111 W 83RD ST, CHICAGO, IL, 60652","Match","Exact","3111 W 83RD ST, CHICAGO, IL, 60652",605312490,"L"
166660,"3111 W ORANGE AVE","ANAHEIM","CA",92804,33.824701739,-117.998029917,160,"3111 W ORANGE AVE, ANAHEIM, CA, 92804","Match","Exact","3111 W ORANGE AVE, ANAHEIM, CA, 92804",144010980,"R"
166661,"3111 WALTON WAY","ROSWELL","GA",30076,NA,NA,161,"3111 WALTON WAY, ROSWELL, GA, 30076","No_Match",NA,NA,NA,NA
166662,"3111 WELBORN STREET  UNIT 1204","DALLAS","TX",75219,32.808456043,-96.807661598,162,"3111 WELBORN STREET  UNIT 1204, DALLAS, TX, 75219","Match","Exact","3111 WELBORN ST, DALLAS, TX, 75219",102908554,"L"
166663,"3111 WEST BAY VILLA AVENUE","TAMPA","FL",33611,27.9079047560001,-82.494208121,163,"3111 WEST BAY VILLA AVENUE, TAMPA, FL, 33611","Match","Exact","3111 W BAY VILLA AVE, TAMPA, FL, 33611",104527591,"R"
166664,"3111 WEST POLK AVENUE","ANAHEIM","CA",92801,33.8329870370001,-117.998596662,164,"3111 WEST POLK AVENUE, ANAHEIM, CA, 92801","Match","Exact","3111 W POLK AVE, ANAHEIM, CA, 92801",144116715,"R"
166665,"3111 WINSTON DRIVE","BETTENDORF","IA",52722,41.564697412,-90.488898921,165,"3111 WINSTON DRIVE, BETTENDORF, IA, 52722","Match","Exact","3111 WINSTON DR, BETTENDORF, IA, 52722",122713987,"R"
166666,"3111 WOODROW AVENUE","RICHMOND","VA",23222,37.573323251,-77.429102932,166,"3111 WOODROW AVENUE, RICHMOND, VA, 23222","Match","Exact","3111 WOODROW AVE, RICHMOND, VA, 23222",201539630,"R"
166667,"31110 IMPERIAL OAKS BLVD","SPRING","TX",77386,30.1383394310001,-95.410605086,167,"31110 IMPERIAL OAKS BLVD, SPRING, TX, 77386","Match","Exact","31110 IMPERIAL OAKS BLVD, SPRING, TX, 77386",79331857,"L"
166668,"31115 ALICE LANE","TOMBALL","TX",77375,30.112580763,-95.6394126979999,168,"31115 ALICE LANE, TOMBALL, TX, 77375","Match","Exact","31115 ALICE LN, TOMBALL, TX, 77375",96001218,"L"
166669,"31117 24TH AVE S","FEDERAL WAY","WA",98003,47.323276435,-122.302825001,169,"31117 24TH AVE S, FEDERAL WAY, WA, 98003","Match","Exact","31117 24TH AVE S, FEDERAL WAY, WA, 98003",186719548,"R"
166670,"31119 BRAE BURN AVE","HAYWARD","CA",94544,37.61795856,-122.038112626,170,"31119 BRAE BURN AVE, HAYWARD, CA, 94544","Match","Exact","31119 BRAE BURN AVE, HAYWARD, CA, 94544",650206303,"R"
166671,"3111SW MORGAN ST","SEATTLE","WA",98126,47.544647594,-122.372888114,171,"3111SW MORGAN ST, SEATTLE, WA, 98126","Match","Non_Exact","3111 SW MORGAN ST, SEATTLE, WA, 98126",627327890,"L"
166672,"3112 ALEXANDER AVE","SHREVEPORT","LA",71104,32.4815532050001,-93.7316266019999,172,"3112 ALEXANDER AVE, SHREVEPORT, LA, 71104","Match","Exact","3112 ALEXANDER AVE, SHREVEPORT, LA, 71104",57438346,"R"
166673,"3112 ARUNDEL DRIVE","CHARLOTTE","NC",28209,35.1552791450001,-80.843391729,173,"3112 ARUNDEL DRIVE, CHARLOTTE, NC, 28209","Match","Exact","3112 ARUNDEL DR, CHARLOTTE, NC, 28209",70489181,"R"
166674,"3112 BARNETT ROAD","SUMMIT","MS",39666,31.2953269650001,-90.412600085,174,"3112 BARNETT ROAD, SUMMIT, MS, 39666","Match","Exact","3112 BARNETT RD, SUMMIT, MS, 39666",650636951,"L"
166675,"3112 BERKLEY ST","FLINT","MI",48504,43.0281938360001,-83.734763791,175,"3112 BERKLEY ST, FLINT, MI, 48504","Match","Exact","3112 BERKLEY ST, FLINT, MI, 48504",69564923,"R"
166676,"3112 BETTY BROOK ROAD","SOUTH KORTRIGHT","NY",13842,42.388145502,-74.7336911209999,176,"3112 BETTY BROOK ROAD, SOUTH KORTRIGHT, NY, 13842","Match","Exact","3112 BETTY BROOK RD, S KORTRIGHT, NY, 13842",41577993,"R"
166677,"3112 BIRCHSTONE LANE","CHARLOTTE","NC",28269,35.289784264,-80.816027586,177,"3112 BIRCHSTONE LANE, CHARLOTTE, NC, 28269","Match","Exact","3112 BIRCHSTONE LN, CHARLOTTE, NC, 28269",70560544,"R"
166678,"3112 BRAEPARK CT","DICKINSON","TX",77539,29.4606402310001,-95.091765421,178,"3112 BRAEPARK CT, DICKINSON, TX, 77539","Match","Non_Exact","3112 BRAEPARK LN, DICKINSON, TX, 77539",614176236,"L"
166679,"3112 BRUNO DRIVE","CHESAPEAKE","VA",23323,36.783173026,-76.3547978569999,179,"3112 BRUNO DRIVE, CHESAPEAKE, VA, 23323","Match","Exact","3112 BRUNO DR, CHESAPEAKE, VA, 23323",121768894,"R"
166680,"3112 BUCKINGHAM COURT","MODESTO","CA",95350,37.683535159,-120.986795207,180,"3112 BUCKINGHAM COURT, MODESTO, CA, 95350","Match","Exact","3112 BUCKINGHAM CT, MODESTO, CA, 95350",102600531,"R"
166681,"3112 CAMDEN AV","LORAIN","OH",44055,41.442348904,-82.1093970599999,181,"3112 CAMDEN AV, LORAIN, OH, 44055","Match","Exact","3112 CAMDEN AVE, LORAIN, OH, 44055",55408206,"R"
166682,"3112 CHATHAM ROAD","DIBERVILLE","MS",39540,30.4470814470001,-88.8855962069999,182,"3112 CHATHAM ROAD, DIBERVILLE, MS, 39540","Match","Exact","3112 CHATHAM RD, DIBERVILLE, MS, 39540",111397936,"R"
166683,"3112 CLAIR RD","LEXINGTON","KY",40502,38.0033155680001,-84.488422444,183,"3112 CLAIR RD, LEXINGTON, KY, 40502","Match","Exact","3112 CLAIR RD, LEXINGTON, KY, 40502",31924056,"L"
166684,"3112 DOMINION WAY","DENTON","TX",76209,33.2432472890001,-97.093849769,184,"3112 DOMINION WAY, DENTON, TX, 76209","Match","Non_Exact","3112 DOMINION ST, DENTON, TX, 76209",650962872,"R"
166685,"3112 EASY STREET","KOKOMO","IN",46902,40.4507743200001,-86.128825429,185,"3112 EASY STREET, KOKOMO, IN, 46902","Match","Exact","3112 EASY ST, KOKOMO, IN, 46902",27268726,"L"
166686,"3112 ELLEN TERRY DRIVE","OCEANSIDE","NY",11572,40.63684808,-73.625656519,186,"3112 ELLEN TERRY DRIVE, OCEANSIDE, NY, 11572","Match","Exact","3112 ELLEN TERRY DR, OCEANSIDE, NY, 11572",147686034,"R"
166687,"3112 GLOSS AVE","CINCINNATI","OH",45213,39.1772227640001,-84.429299815,187,"3112 GLOSS AVE, CINCINNATI, OH, 45213","Match","Exact","3112 GLOSS AVE, CINCINNATI, OH, 45213",103929485,"R"
166688,"3112 GRANT ST","MCKINNEY","TX",75071,33.22257861,-96.65375345,188,"3112 GRANT ST, MCKINNEY, TX, 75071","Match","Exact","3112 GRANT ST, MCKINNEY, TX, 75071",616583274,"L"
166689,"3112 GREENPOND RD","GRAY COURT","SC",29645,34.6136687740001,-82.20163817,189,"3112 GREENPOND RD, GRAY COURT, SC, 29645","Match","Exact","3112 GREENPOND RD, GRAY COURT, SC, 29645",44455245,"L"
166690,"3112 HOLLOWSTONE DRIVE","LOGANVILLE","GA",30052,33.867351597,-83.942857722,190,"3112 HOLLOWSTONE DRIVE, LOGANVILLE, GA, 30052","Match","Exact","3112 HOLLOWSTONE DR, LOGANVILLE, GA, 30052",627670284,"R"
166691,"3112 JONES RIDGE DRIVE","CHARLOTTE","NC",28226,35.1195616790001,-80.785949408,191,"3112 JONES RIDGE DRIVE, CHARLOTTE, NC, 28226","Match","Exact","3112 JONES RIDGE DR, CHARLOTTE, NC, 28226",641598568,"R"
166692,"3112 MINNEHAHA AVE APARTMENT 201","MINNEAPOLIS","MN",55406,44.9460515470001,-93.232597792,192,"3112 MINNEHAHA AVE APARTMENT 201, MINNEAPOLIS, MN, 55406","Match","Exact","3112 MINNEHAHA AVE, MINNEAPOLIS, MN, 55406",43639711,"R"
166693,"3112 MOKIHANA STREET","HONOLULU","HI",96816,21.2830884630001,-157.813552514,193,"3112 MOKIHANA STREET, HONOLULU, HI, 96816","Match","Exact","3112 MOKIHANA ST, HONOLULU, HI, 96816",203242243,"L"
166694,"3112 MURIEL AVE","KETTERING","OH",45429,39.7012330700001,-84.140335141,194,"3112 MURIEL AVE, KETTERING, OH, 45429","Match","Exact","3112 MURIEL AVE, KETTERING, OH, 45429",143583077,"L"
166695,"3112 N 50TH STREET","PHOENIX","AZ",85018,33.484216303,-111.973834624,195,"3112 N 50TH STREET, PHOENIX, AZ, 85018","Match","Exact","3112 N 50TH ST, PHOENIX, AZ, 85018",128225138,"L"
166696,"3112 N MADISON STREET","WILMINGTON","DE",19802,39.7612258350001,-75.534210364,196,"3112 N MADISON STREET, WILMINGTON, DE, 19802","Match","Exact","3112 N MADISON ST, WILMINGTON, DE, 19802",187258447,"R"
166697,"3112 NORTH GREYSTONE DRIVE","MORGANTOWN","WV",26508,39.685196999,-79.861817006,197,"3112 NORTH GREYSTONE DRIVE, MORGANTOWN, WV, 26508","Match","Exact","3112 N GREYSTONE DR, MORGANTOWN, WV, 26508",50752279,"R"
166698,"3112 PIKE RD","BIRMINGHAM","AL",35208,33.5131169960001,-86.867475543,198,"3112 PIKE RD, BIRMINGHAM, AL, 35208","Match","Exact","3112 PIKE RD, BIRMINGHAM, AL, 35208",81554060,"L"
166699,"3112 PROPHECY RD","MIDDLESEX","NC",27557,35.877812018,-78.165146653,199,"3112 PROPHECY RD, MIDDLESEX, NC, 27557","Match","Exact","3112 PROPHECY RD, MIDDLESEX, NC, 27557",90397357,"L"
166700,"3112 SCHOOL HOUSE ROAD","GOSHEN","KY",40026,38.433629684,-85.509175113,200,"3112 SCHOOL HOUSE ROAD, GOSHEN, KY, 40026","Match","Non_Exact","3112 SCHOOL HOUSE LN, GOSHEN, KY, 40026",637394066,"L"
166701,"3112 SPRUNT AVE","DURHAM","NC",27705,36.022166558,-78.941725289,201,"3112 SPRUNT AVE, DURHAM, NC, 27705","Match","Exact","3112 SPRUNT AVE, DURHAM, NC, 27705",71738079,"R"
166702,"3112 SPRUNT AVENUE","DURHAM","NC",27705,36.022166558,-78.941725289,202,"3112 SPRUNT AVENUE, DURHAM, NC, 27705","Match","Exact","3112 SPRUNT AVE, DURHAM, NC, 27705",71738079,"R"
166703,"3112 WALTERS LANE","DISTRICT HEIGHTS","MD",20747,38.8461541230001,-76.891439243,203,"3112 WALTERS LANE, DISTRICT HEIGHTS, MD, 20747","Match","Exact","3112 WALTERS LN, DISTRICT HEIGHTS, MD, 20747",76318631,"L"
166704,"3112 WEST HIGHLAND BLVD","MILWAUKEE","WI",53208,43.0445395200001,-87.952445048,204,"3112 WEST HIGHLAND BLVD, MILWAUKEE, WI, 53208","Match","Exact","3112 W HIGHLAND BLVD, MILWAUKEE, WI, 53208",616467269,"R"
166705,"3112 WEST LAKE FOREST DRIVE","AUGUST","GA",30309,NA,NA,205,"3112 WEST LAKE FOREST DRIVE, AUGUST, GA, 30309","No_Match",NA,NA,NA,NA
166706,"3112 WESTOVER DR SE","WASHINGTON","DC",20020,38.868271227,-76.962656118,206,"3112 WESTOVER DR SE, WASHINGTON, DC, 20020","Match","Exact","3112 WESTOVER DR SE, WASHINGTON, DC, 20020",76232052,"L"
166707,"3112 WINDSOR ROAD SUITE A368","AUSTIN","TX",78703,30.2961697580001,-97.7676552679999,207,"3112 WINDSOR ROAD SUITE A368, AUSTIN, TX, 78703","Match","Exact","3112 WINDSOR RD, AUSTIN, TX, 78703",63941441,"R"
166708,"3112 WINDSOR ROAD","AUSTIN","TX",78703,30.2961697580001,-97.7676552679999,208,"3112 WINDSOR ROAD, AUSTIN, TX, 78703","Match","Exact","3112 WINDSOR RD, AUSTIN, TX, 78703",63941441,"R"
166709,"31127 SOUTH 80TH RD","BEATRICE","NE",68310,NA,NA,209,"31127 SOUTH 80TH RD, BEATRICE, NE, 68310","No_Match",NA,NA,NA,NA
166710,"3113  S 70TH ST","OMAHA","NE",68106,41.230420037,-96.0215158189999,210,"3113  S 70TH ST, OMAHA, NE, 68106","Match","Exact","3113 S 70TH ST, OMAHA, NE, 68106",116981834,"L"
166711,"3113 13TH ST NE","WASHINGTON","DC",20017,38.9288871110001,-76.988374587,211,"3113 13TH ST NE, WASHINGTON, DC, 20017","Match","Exact","3113 13TH ST NE, WASHINGTON, DC, 20017",76228753,"R"
166712,"3113 AGECROFT RD","RALEIGH","NC",27608,35.8164710890001,-78.666580306,212,"3113 AGECROFT RD, RALEIGH, NC, 27608","Match","Exact","3113 AGECROFT RD, RALEIGH, NC, 27608",72638560,"L"
166713,"3113 ALAFAYA BAY LANE APT 304","ORLANDO","FL",32817,28.584944842,-81.214533806,213,"3113 ALAFAYA BAY LANE APT 304, ORLANDO, FL, 32817","Match","Exact","3113 ALAFAYA BAY LN, ORLANDO, FL, 32817",94375832,"R"
166714,"3113 BOXLEY VIEW LANE","FRANKLIN","TN",37064,35.9186360200001,-86.9541279429999,214,"3113 BOXLEY VIEW LANE, FRANKLIN, TN, 37064","Match","Exact","3113 BOXLEY VIEW LN, FRANKLIN, TN, 37064",631972826,"R"
166715,"3113 CAMELOT BLVD","CHESAPEAKE","VA",23322,36.7812996860001,-76.3537430709999,215,"3113 CAMELOT BLVD, CHESAPEAKE, VA, 23322","Match","Non_Exact","3113 CAMELOT BLVD, CHESAPEAKE, VA, 23323",121768914,"L"
166716,"3113 CEDRIC CT","FORT MILL","SC",29715,35.0714226970001,-80.913832828,216,"3113 CEDRIC CT, FORT MILL, SC, 29715","Match","Exact","3113 CEDRIC CT, FORT MILL, SC, 29715",651854793,"L"
166717,"3113 CLARIDGE DRIVE","CONYERS","GA",30094,33.615096583,-84.08541153,217,"3113 CLARIDGE DRIVE, CONYERS, GA, 30094","Match","Exact","3113 CLARIDGE DR, CONYERS, GA, 30094",614160848,"R"
166718,"3113 CLINT MOORE ROAD APT 101","BOCA RATON","FL",33496,26.40771046,-80.14963535,218,"3113 CLINT MOORE ROAD APT 101, BOCA RATON, FL, 33496","Match","Exact","3113 CLINT MOORE RD, BOCA RATON, FL, 33496",630032619,"R"
166719,"3113 CORNELL AVENUE","DALLAS","TX",75205,32.833482723,-96.781863984,219,"3113 CORNELL AVENUE, DALLAS, TX, 75205","Match","Exact","3113 CORNELL AVE, DALLAS, TX, 75205",102907791,"L"
166720,"3113 CORONADO DRIVE","FULLERTON","CA",92835,33.9064455060001,-117.931918464,220,"3113 CORONADO DRIVE, FULLERTON, CA, 92835","Match","Exact","3113 CORONADO DR, FULLERTON, CA, 92835",609049598,"L"
166721,"3113 FALLOW CIRCLE","FLOWER MOUND","TX",75028,33.027884897,-97.052067254,221,"3113 FALLOW CIRCLE, FLOWER MOUND, TX, 75028","Match","Exact","3113 FALLOW CIR, FLOWER MOUND, TX, 75028",103376741,"R"
166722,"3113 GASCONADE","ST LOUIS","MO",63118,38.581902459,-90.237246214,222,"3113 GASCONADE, ST LOUIS, MO, 63118","Match","Non_Exact","3113 GASCONADE ST, SAINT LOUIS, MO, 63118",605138171,"R"
166723,"3113 GASCONADE","ST. LOUIS","MO",63118,38.581902459,-90.237246214,223,"3113 GASCONADE, ST. LOUIS, MO, 63118","Match","Non_Exact","3113 GASCONADE ST, SAINT LOUIS, MO, 63118",605138171,"R"
166724,"3113 LAKEHURST AVE","FORESTVILLE","MD",20747,38.8468100540001,-76.8805442409999,224,"3113 LAKEHURST AVE, FORESTVILLE, MD, 20747","Match","Exact","3113 LAKEHURST AVE, FORESTVILLE, MD, 20747",76318868,"R"
166725,"3113 LAUREL LANE","PORTSMOUTH","VA",23703,36.8571031970001,-76.38864598,225,"3113 LAUREL LANE, PORTSMOUTH, VA, 23703","Match","Exact","3113 LAUREL LN, PORTSMOUTH, VA, 23703",122190847,"R"
166726,"3113 LOUISE ST SUITE A","FORT WORTH","TX",76112,32.734760733,-97.223072223,226,"3113 LOUISE ST SUITE A, FORT WORTH, TX, 76112","Match","Exact","3113 LOUISE ST, FORT WORTH, TX, 76112",101900593,"L"
166727,"3113 LUNAR COURT","LAUREL","MD",20724,39.108073054,-76.794031886,227,"3113 LUNAR COURT, LAUREL, MD, 20724","Match","Exact","3113 LUNAR CT, LAUREL, MD, 20724",68216297,"R"
166728,"3113 MARTHA ST","HIGHLAND","IN",46322,41.547554899,-87.453154003,228,"3113 MARTHA ST, HIGHLAND, IN, 46322","Match","Non_Exact","3113 W MARTHA ST, HIGHLAND, IN, 46322",98422259,"L"
166729,"3113 MARTIN L KING JR AVE SE","WASHINGTON","DC",20032,NA,NA,229,"3113 MARTIN L KING JR AVE SE, WASHINGTON, DC, 20032","No_Match",NA,NA,NA,NA
166730,"3113 N VAN BUREN ST","WILMINGTON","DE",19802,39.7631254130001,-75.535627486,230,"3113 N VAN BUREN ST, WILMINGTON, DE, 19802","Match","Exact","3113 N VAN BUREN ST, WILMINGTON, DE, 19802",187258426,"L"
166731,"3113 OLD FENCE ROAD","ELLICOTT CITY","MD",21042,39.2858857480001,-76.8378030979999,231,"3113 OLD FENCE ROAD, ELLICOTT CITY, MD, 21042","Match","Exact","3113 OLD FENCE RD, ELLICOTT CITY, MD, 21042",158923203,"L"
166732,"3113 PICKLE ROAD","OREGON","OH",43616,41.6296248560001,-83.475228986,232,"3113 PICKLE ROAD, OREGON, OH, 43616","Match","Exact","3113 PICKLE RD, OREGON, OH, 43616",648331035,"L"
166733,"3113 RAYCRAFT RD","WOODSTOCK","IL",60098,42.3708520500001,-88.45200741,233,"3113 RAYCRAFT RD, WOODSTOCK, IL, 60098","Match","Exact","3113 RAYCRAFT RD, WOODSTOCK, IL, 60098",629565819,"L"
166734,"3113 REID AVENUE","CULVER CITY","CA",90232,34.0297327650001,-118.376663984,234,"3113 REID AVENUE, CULVER CITY, CA, 90232","Match","Exact","3113 REID AVE, CULVER CITY, CA, 90232",141575269,"R"
166735,"3113 ROBERTA DR NW","ATLANTA","GA",30327,33.839476382,-84.4223817719999,235,"3113 ROBERTA DR NW, ATLANTA, GA, 30327","Match","Exact","3113 ROBERTA DR NW, ATLANTA, GA, 30327",17334810,"R"
166736,"3113 TERRACE PARK TRAIL","NORMAN","OK",73069,35.255729957,-97.4478272119999,236,"3113 TERRACE PARK TRAIL, NORMAN, OK, 73069","Match","Exact","3113 TERRACE PARK TRL, NORMAN, OK, 73069",648401915,"L"
166737,"3113 VERMILLION DRIVE","PLANO","TX",75093,33.039810958,-96.787336759,237,"3113 VERMILLION DRIVE, PLANO, TX, 75093","Match","Exact","3113 VERMILLION DR, PLANO, TX, 75093",210523229,"R"
166738,"3113 VIEW ROAD","MADISON","WI",53711,43.0154216170001,-89.3601400169999,238,"3113 VIEW ROAD, MADISON, WI, 53711","Match","Exact","3113 VIEW RD, MADISON, WI, 53711",49474028,"R"
166739,"3113 VISTA HEIGHTS LANE","HIGHLAND VILLAGE","TX",75077,33.0930886830001,-97.074388098,239,"3113 VISTA HEIGHTS LANE, HIGHLAND VILLAGE, TX, 75077","Match","Exact","3113 VISTA HEIGHTS LN, HIGHLAND VILLAGE, TX, 75077",103415571,"L"
166740,"3113 W KENSINGTON AVENUE","TAMPA","FL",33629,NA,NA,240,"3113 W KENSINGTON AVENUE, TAMPA, FL, 33629","Tie",NA,NA,NA,NA
166741,"3113 WATERCASTLE CT","LEAGUE CITY","TX",77573,29.5210580680001,-95.043081779,241,"3113 WATERCASTLE CT, LEAGUE CITY, TX, 77573","Match","Exact","3113 WATERCASTLE CT, LEAGUE CITY, TX, 77573",96700081,"L"
166742,"3113 WAYSIDE LANE","ANDERSON","IN",46011,40.106352633,-85.728020972,242,"3113 WAYSIDE LANE, ANDERSON, IN, 46011","Match","Exact","3113 WAYSIDE LN, ANDERSON, IN, 46011",31128502,"R"
166743,"3113 WEST LORIENT DRIVE","MCHENRY","IL",60050,42.3297852600001,-88.258706137,243,"3113 WEST LORIENT DRIVE, MCHENRY, IL, 60050","Match","Exact","3113 W LORIENT DR, MCHENRY, IL, 60050",119830958,"R"
166744,"3113 WINNIE ST","GALVESTON","TX",77550,29.3002706780001,-94.802564864,244,"3113 WINNIE ST, GALVESTON, TX, 77550","Match","Exact","3113 WINNIE ST, GALVESTON, TX, 77550",96727729,"L"
166745,"31132 ASPEN LANE","POLSON","MT",59860,47.759295884,-114.254934064,245,"31132 ASPEN LANE, POLSON, MT, 59860","Match","Exact","31132 ASPEN LN, POLSON, MT, 59860",206920416,"R"
166746,"31132 CEANOTHUS DRIVE","LAGUNA BEACH","CA",92651,NA,NA,246,"31132 CEANOTHUS DRIVE, LAGUNA BEACH, CA, 92651","No_Match",NA,NA,NA,NA
166747,"31139 CO 7 BLVD","WELCH","MN",55089,NA,NA,247,"31139 CO 7 BLVD, WELCH, MN, 55089","No_Match",NA,NA,NA,NA
166748,"3114 143RD AVE","DORR","MI",49323,42.7317566770001,-85.851863472,248,"3114 143RD AVE, DORR, MI, 49323","Match","Exact","3114 143RD AVE, DORR, MI, 49323",11415766,"L"
166749,"3114 16TH STREET NW APT A","WASHINGTON","DC",20010,38.9290797720001,-77.036479594,249,"3114 16TH STREET NW APT A, WASHINGTON, DC, 20010","Match","Exact","3114 16TH ST NW, WASHINGTON, DC, 20010",76222909,"L"
166750,"3114 1ST ST","DES MOINES","IA",50313,41.6233313430001,-93.618740313,250,"3114 1ST ST, DES MOINES, IA, 50313","Match","Exact","3114 1ST ST, DES MOINES, IA, 50313",65783168,"L"
166751,"3114 22ND AVE S","SEATTLE","WA",98144,47.57571763,-122.304331451,251,"3114 22ND AVE S, SEATTLE, WA, 98144","Match","Exact","3114 22ND AVE S, SEATTLE, WA, 98144",186594199,"L"
166752,"3114 BAY TO BAY BLVD","TAMPA","FL",33629,27.9197171230001,-82.495501641,252,"3114 BAY TO BAY BLVD, TAMPA, FL, 33629","Match","Non_Exact","3114 W BAY TO BAY BLVD, TAMPA, FL, 33629",104527087,"L"
166753,"3114 BLUFFFVIEW DRIVE","GARLAND","TX",75043,32.8799797240001,-96.59515827,253,"3114 BLUFFFVIEW DRIVE, GARLAND, TX, 75043","Match","Non_Exact","3114 BLUFFVIEW DR, GARLAND, TX, 75043",102979593,"R"
166754,"3114 CABOT ST","MONTGOMERY","AL",36110,32.4046315520001,-86.2762091879999,254,"3114 CABOT ST, MONTGOMERY, AL, 36110","Match","Exact","3114 CABOT ST, MONTGOMERY, AL, 36110",1505424,"R"
166755,"3114 CHIPPEWA STREET","SAINT LOUIS","MO",63118,38.587317602,-90.2366319879999,255,"3114 CHIPPEWA STREET, SAINT LOUIS, MO, 63118","Match","Exact","3114 CHIPPEWA ST, SAINT LOUIS, MO, 63118",613841513,"L"
166756,"3114 E 9TH ST","JOPLIN","MO",64801,37.08172311,-94.4746982889999,256,"3114 E 9TH ST, JOPLIN, MO, 64801","Match","Exact","3114 E 9TH ST, JOPLIN, MO, 64801",66149746,"R"
166757,"3114 EDWARDS PLACE NO 202","MARYLAND HEIGHTS","MO",63043,38.725479862,-90.418781834,257,"3114 EDWARDS PLACE NO 202, MARYLAND HEIGHTS, MO, 63043","Match","Non_Exact","3114 EDWARDS PL, MARYLAND HEIGHTS, MO, 63043",100175773,"L"
166758,"3114 EL PASEO","ALAMEDA","CA",94502,37.7329551130001,-122.245898876,258,"3114 EL PASEO, ALAMEDA, CA, 94502","Match","Exact","3114 EL PASEO, ALAMEDA, CA, 94502",606128687,"R"
166759,"3114 HIDDEN RIDGE TER","ABINGDON","MD",21009,39.4709962840001,-76.3049530709999,259,"3114 HIDDEN RIDGE TER, ABINGDON, MD, 21009","Match","Exact","3114 HIDDEN RIDGE TER, ABINGDON, MD, 21009",191654688,"L"
166760,"3114 HUBBELL AVENUE","DES MOINES","IA",50317,41.6232840390001,-93.55563805,260,"3114 HUBBELL AVENUE, DES MOINES, IA, 50317","Match","Exact","3114 HUBBELL AVE, DES MOINES, IA, 50317",65855447,"L"
166761,"3114 HWY 421","BEDFORD","KY",40006,38.566072891,-85.280340641,261,"3114 HWY 421, BEDFORD, KY, 40006","Match","Non_Exact","3114 US HWY 421, BEDFORD, KY, 40006",65159375,"R"
166762,"3114 MADELEY STREET","HOUSTON","TX",77093,29.8237208190001,-95.339431215,262,"3114 MADELEY STREET, HOUSTON, TX, 77093","Match","Exact","3114 MADELEY ST, HOUSTON, TX, 77093",96059460,"R"
166763,"3114 MERLE HAY RD 500","DES MOINES","IA",50310,41.6232959390001,-93.697742424,263,"3114 MERLE HAY RD 500, DES MOINES, IA, 50310","Match","Exact","3114 MERLE HAY RD, DES MOINES, IA, 50310",65777113,"L"
166764,"3114 MOUNT MIGUEL DRIVE","SAN DIEGO","CA",92139,32.6661205300001,-117.059667534,264,"3114 MOUNT MIGUEL DRIVE, SAN DIEGO, CA, 92139","Match","Exact","3114 MOUNT MIGUEL DR, SAN DIEGO, CA, 92139",195353762,"R"
166765,"3114 N MARKET ST","WILMINGTON","DE",19802,39.756735345,-75.530824668,265,"3114 N MARKET ST, WILMINGTON, DE, 19802","Match","Exact","3114 N MARKET ST, WILMINGTON, DE, 19802",187259378,"R"
166766,"3114 NORTH PATTON STREET","PHILADELPHIA","PA",19132,40.0040301220001,-75.1812595759999,266,"3114 NORTH PATTON STREET, PHILADELPHIA, PA, 19132","Match","Exact","3114 N PATTON ST, PHILADELPHIA, PA, 19132",636465309,"L"
166767,"3114 OAK BEND","TYLER","TX",75707,32.2851051710001,-95.260101683,267,"3114 OAK BEND, TYLER, TX, 75707","Match","Exact","3114 OAK BEND, TYLER, TX, 75707",637847521,"R"
166768,"3114 PARKINGTON AVE APT C","BALTIMORE","MD",21215,39.3605080020001,-76.684834478,268,"3114 PARKINGTON AVE APT C, BALTIMORE, MD, 21215","Match","Exact","3114 PARKINGTON AVE, BALTIMORE, MD, 21215",206404500,"R"
166769,"3114 PASEO BLVD","KANSAS CITY MO","MO",64109,39.0702125110001,-94.566809431,269,"3114 PASEO BLVD, KANSAS CITY MO, MO, 64109","Match","Non_Exact","3114 PASEO BLVD, KANSAS CITY, MO, 64109",91534129,"R"
166770,"3114 PASEO BLVD","KANSAS CITY","MO",64109,39.0702125110001,-94.566809431,270,"3114 PASEO BLVD, KANSAS CITY, MO, 64109","Match","Exact","3114 PASEO BLVD, KANSAS CITY, MO, 64109",91534129,"R"
166771,"3114 QUARTZ WAY","AUGUSTA","GA",30907,33.5321783570001,-82.0468101169999,271,"3114 QUARTZ WAY, AUGUSTA, GA, 30907","Match","Non_Exact","3114 QUARTZ RD, AUGUSTA, GA, 30907",627302819,"R"
166772,"3114 ROAD 103","PASCO","WA",99301,46.260825428,-119.227558073,272,"3114 ROAD 103, PASCO, WA, 99301","Match","Exact","3114 RD 103, PASCO, WA, 99301",175247628,"L"
166773,"3114 S JEFFERSON AVE 3D","SPRINGFIELD","MO",65807,37.158505012,-93.2911191759999,273,"3114 S JEFFERSON AVE 3D, SPRINGFIELD, MO, 65807","Match","Non_Exact","3114 S JEFFERSON AVE, SPRINGFIELD, MO, 65807",605894638,"L"
166774,"3114 S RACINE ST","CHICAGO","IL",60608,41.8374275310001,-87.656012212,274,"3114 S RACINE ST, CHICAGO, IL, 60608","Match","Non_Exact","3114 S RACINE AVE, CHICAGO, IL, 60608",616793691,"R"
166775,"3114 SANDSPUR DRIVE","TAMPA","FL",33618,28.102505288,-82.495155842,275,"3114 SANDSPUR DRIVE, TAMPA, FL, 33618","Match","Exact","3114 SANDSPUR DR, TAMPA, FL, 33618",104550202,"R"
166776,"3114 SW 172ND STREET","BURIEN","WA",98166,47.44948093,-122.373700819,276,"3114 SW 172ND STREET, BURIEN, WA, 98166","Match","Exact","3114 SW 172ND ST, BURIEN, WA, 98166",629178205,"R"
166777,"3114 TRUMAN ST NE","ALBUQUERQUE","NM",87110,35.118403534,-106.587657522,277,"3114 TRUMAN ST NE, ALBUQUERQUE, NM, 87110","Match","Exact","3114 TRUMAN ST NE, ALBUQUERQUE, NM, 87110",642853065,"R"
166778,"3114 US RTE 7","PITTSFORD","VT",5763,43.7054743580001,-73.0140669749999,278,"3114 US RTE 7, PITTSFORD, VT, 5763","Match","Non_Exact","3114 US HWY 7, PITTSFORD, VT, 05763",635531535,"R"
166779,"3114 WEST IRVING PARK ROAD SUITE 1W","CHICAGO","IL",60618,41.953941365,-87.706231181,279,"3114 WEST IRVING PARK ROAD SUITE 1W, CHICAGO, IL, 60618","Match","Exact","3114 W IRVING PARK RD, CHICAGO, IL, 60618",605199020,"R"
166780,"31143 S AMENITY DRIVE","ORACLE","AZ",85623,32.5903091000001,-110.92023303,280,"31143 S AMENITY DRIVE, ORACLE, AZ, 85623","Match","Exact","31143 S AMENITY DR, ORACLE, AZ, 85623",649788747,"R"
166781,"31145 S KOSTER RD","TRACY","CA",95304,37.6704578590001,-121.324540733,281,"31145 S KOSTER RD, TRACY, CA, 95304","Match","Exact","31145 S KOSTER RD, TRACY, CA, 95304",133932685,"R"
166782,"3115 52ND AV DR W","BRADENTON","FL",34207,27.4491846130001,-82.59306608,282,"3115 52ND AV DR W, BRADENTON, FL, 34207","Match","Exact","3115 52ND AVENUE DR W, BRADENTON, FL, 34207",16234255,"R"
166783,"3115 68TH STREET","WOODSIDE","NY",11377,NA,NA,283,"3115 68TH STREET, WOODSIDE, NY, 11377","No_Match",NA,NA,NA,NA
166784,"3115 6TH STREET","METAIRIE","LA",70002,30.017924457,-90.1532934969999,284,"3115 6TH STREET, METAIRIE, LA, 70002","Match","Exact","3115 6TH ST, METAIRIE, LA, 70002",93533835,"R"
166785,"3115 ADDISON LANE","JOHNS CREEK","GA",30005,34.0629896500001,-84.209435785,285,"3115 ADDISON LANE, JOHNS CREEK, GA, 30005","Match","Exact","3115 ADDISON LN, JOHNS CREEK, GA, 30005",17402620,"L"
166786,"3115 BORGER STREET","DALLAS","TX",75212,32.7796877100001,-96.842066072,286,"3115 BORGER STREET, DALLAS, TX, 75212","Match","Exact","3115 BORGER ST, DALLAS, TX, 75212",102905328,"L"
166787,"3115 CABLE DR","HOLIDAY","FL",34691,28.185288911,-82.762507753,287,"3115 CABLE DR, HOLIDAY, FL, 34691","Match","Exact","3115 CABLE DR, HOLIDAY, FL, 34691",86357722,"L"
166788,"3115 CEMETERY RD","SANFORD","NC",27332,35.4422092520001,-79.153304503,288,"3115 CEMETERY RD, SANFORD, NC, 27332","Match","Exact","3115 CEMETERY RD, SANFORD, NC, 27332",640499416,"R"
166789,"3115 CENTRAL AVE APT E","CHARLOTTE","NC",28205,35.2171497750001,-80.792013018,289,"3115 CENTRAL AVE APT E, CHARLOTTE, NC, 28205","Match","Exact","3115 CENTRAL AVE, CHARLOTTE, NC, 28205",70491406,"L"
166790,"3115 DEXTER DRIVE","FORT WAYNE","IN",46816,41.019912963,-85.097302805,290,"3115 DEXTER DRIVE, FORT WAYNE, IN, 46816","Match","Exact","3115 DEXTER DR, FORT WAYNE, IN, 46816",6383967,"L"
166791,"3115 DUNHILL LANE","PUYALLUP","WA",98372,47.179104308,-122.252504354,291,"3115 DUNHILL LANE, PUYALLUP, WA, 98372","Match","Exact","3115 DUNHILL LN, PUYALLUP, WA, 98372",634805414,"R"
166792,"3115 DUPONT AVENUE","RICHMOND","VA",23234,37.4648428620001,-77.455307702,292,"3115 DUPONT AVENUE, RICHMOND, VA, 23234","Match","Exact","3115 DUPONT AVE, RICHMOND, VA, 23234",201546573,"L"
166793,"3115 E 13TH ST","WICHITA","KS",67214,37.7082466730001,-97.2999498889999,293,"3115 E 13TH ST, WICHITA, KS, 67214","Match","Non_Exact","3115 E 13TH ST N, WICHITA, KS, 67214",115637829,"R"
166794,"3115 E 13TH STRRET N","WICHITA","KS",67214,NA,NA,294,"3115 E 13TH STRRET N, WICHITA, KS, 67214","No_Match",NA,NA,NA,NA
166795,"3115 E ESCOBA 2201","PALM SPRINGS","CA",92264,33.8013985040001,-116.511768865,295,"3115 E ESCOBA 2201, PALM SPRINGS, CA, 92264","Match","Non_Exact","3115 ESCOBA DR, PALM SPRINGS, CA, 92264",647402430,"R"
166796,"3115 EULA MORGAN ROAD","KATY","TX",77493,29.8180477000001,-95.832922676,296,"3115 EULA MORGAN ROAD, KATY, TX, 77493","Match","Exact","3115 EULA MORGAN RD, KATY, TX, 77493",96012362,"L"
166797,"3115 FAIRLAND RD","SILVER SPRING","MD",20904,39.0655540180001,-76.9421421709999,297,"3115 FAIRLAND RD, SILVER SPRING, MD, 20904","Match","Exact","3115 FAIRLAND RD, SILVER SPRING, MD, 20904",618606328,"R"
166798,"3115 FILBERT ST","OAKLAND","CA",94608,37.822284048,-122.278124078,298,"3115 FILBERT ST, OAKLAND, CA, 94608","Match","Exact","3115 FILBERT ST, OAKLAND, CA, 94608",124996349,"L"
166799,"3115 FORK SHOALS ROAD","SIMPSONVILLE","SC",29680,34.6900727350001,-82.3234717139999,299,"3115 FORK SHOALS ROAD, SIMPSONVILLE, SC, 29680","Match","Exact","3115 FORK SHOALS RD, SIMPSONVILLE, SC, 29680",38347906,"L"
166800,"3115 GRIERTON COURT UNIT 8","CHARLOTTE","NC",28205,35.197177142,-80.80767667,300,"3115 GRIERTON COURT UNIT 8, CHARLOTTE, NC, 28205","Match","Exact","3115 GRIERTON CT, CHARLOTTE, NC, 28205",70488822,"L"
166801,"3115 GROVE RD","PALM BEACH GARDENS","FL",33410,26.85588721,-80.081726993,301,"3115 GROVE RD, PALM BEACH GARDENS, FL, 33410","Match","Exact","3115 GROVE RD, PALM BEACH GARDENS, FL, 33410",640585880,"R"
166802,"3115 HARBOR BLVD","PORT CHARLOTTE","FL",33952,26.9847558600001,-82.0962598629999,302,"3115 HARBOR BLVD, PORT CHARLOTTE, FL, 33952","Match","Exact","3115 HARBOR BLVD, PORT CHARLOTTE, FL, 33952",647551455,"L"
166803,"3115 HINGSTON AVE APT 74","EGG HARBOR TOWNSHIP","NJ",8234,39.3911248850001,-74.558913278,303,"3115 HINGSTON AVE APT 74, EGG HARBOR TOWNSHIP, NJ, 8234","Match","Exact","3115 HINGSTON AVE, EGG HARBOR TOWNSHIP, NJ, 08234",202511600,"L"
166804,"3115 HOOD ST","DALLAS","TX",75219,32.807456362,-96.806318916,304,"3115 HOOD ST, DALLAS, TX, 75219","Match","Exact","3115 HOOD ST, DALLAS, TX, 75219",102908867,"L"
166805,"3115 KEATS AVE","CLOVIS","CA",93619,36.8104847000001,-119.652189937,305,"3115 KEATS AVE, CLOVIS, CA, 93619","Match","Exact","3115 KEATS AVE, CLOVIS, CA, 93619",642309613,"L"
166806,"3115 KEWANEE LN","NAPERVILLE","IL",60564,41.7009473210001,-88.208431397,306,"3115 KEWANEE LN, NAPERVILLE, IL, 60564","Match","Exact","3115 KEWANEE LN, NAPERVILLE, IL, 60564",111622943,"L"
166807,"3115 LAYLA STREET","TALLAHASSEE","FL",32303,30.512253904,-84.345785307,307,"3115 LAYLA STREET, TALLAHASSEE, FL, 32303","Match","Exact","3115 LAYLA ST, TALLAHASSEE, FL, 32303",82877589,"R"
166808,"3115 MADISON ROAD","CINCINNATI","OH",45209,39.153348067,-84.429728821,308,"3115 MADISON ROAD, CINCINNATI, OH, 45209","Match","Exact","3115 MADISON RD, CINCINNATI, OH, 45209",103931037,"R"
166809,"3115 MARTIN LUTHER KING JR AVE SE","WASHINGTON","DC",20032,NA,NA,309,"3115 MARTIN LUTHER KING JR AVE SE, WASHINGTON, DC, 20032","No_Match",NA,NA,NA,NA
166810,"3115 MEADOW OAK DRIVE","HOUSTON","TX",77068,30.002683749,-95.479727462,310,"3115 MEADOW OAK DRIVE, HOUSTON, TX, 77068","Match","Exact","3115 MEADOW OAK DR, HOUSTON, TX, 77068",96164619,"R"
166811,"3115 MORRILL ROAD","ROGERS CITY","MI",49779,45.4335299530001,-83.857542823,311,"3115 MORRILL ROAD, ROGERS CITY, MI, 49779","Match","Exact","3115 MORRILL RD, ROGERS CITY, MI, 49779",637411325,"L"
166812,"3115 NORTH AVE","RICHMOND","VA",23222,37.573327443,-77.432577048,312,"3115 NORTH AVE, RICHMOND, VA, 23222","Match","Exact","3115 NORTH AVE, RICHMOND, VA, 23222",201539640,"R"
166813,"3115 NORTH GOVERNMENT WAY 4","COEURDALENE","ID",83815,47.7058818240001,-116.786379567,313,"3115 NORTH GOVERNMENT WAY 4, COEURDALENE, ID, 83815","Match","Non_Exact","3115 N GOVERNMENT WAY, COEUR D ALENE, ID, 83815",192904820,"L"
166814,"3115 NORTHINGTON COURT","FLORENCE","AL",35630,34.8756394330001,-87.667229537,314,"3115 NORTHINGTON COURT, FLORENCE, AL, 35630","Match","Exact","3115 NORTHINGTON CT, FLORENCE, AL, 35630",41345250,"L"
166815,"3115 NW COUNTY ROAD 150","JASPER","FL",32052,30.596137094,-83.0451867739999,315,"3115 NW COUNTY ROAD 150, JASPER, FL, 32052","Match","Exact","3115 CO RD 150, JASPER, FL, 32052",635261866,"R"
166816,"3115 PINE AVE","WACO","TX",76708,31.557377295,-97.174841253,316,"3115 PINE AVE, WACO, TX, 76708","Match","Exact","3115 PINE AVE, WACO, TX, 76708",146734496,"R"
166817,"3115 PRIMROSE LANE","WINNEMUCCCA","NV",89445,41.079506085,-117.70491789,317,"3115 PRIMROSE LANE, WINNEMUCCCA, NV, 89445","Match","Non_Exact","3115 PRIMROSE LN, WINNEMUCCA, NV, 89445",170969205,"L"
166818,"3115 RANCH ROAD 12","SAN MARCOS","TX",78666,29.9055151590001,-97.996082762,318,"3115 RANCH ROAD 12, SAN MARCOS, TX, 78666","Match","Exact","3115 RANCH RD 12, SAN MARCOS, TX, 78666",651096540,"L"
166819,"3115 S GRAND BLVD","ST. LOUIS","MO",63118,38.6022195790001,-90.24232947,319,"3115 S GRAND BLVD, ST. LOUIS, MO, 63118","Match","Exact","3115 S GRAND BLVD, SAINT LOUIS, MO, 63118",605124823,"R"
166820,"3115 SACBE CV","AUSTIN","TX",78745,30.1970182090001,-97.831484393,320,"3115 SACBE CV, AUSTIN, TX, 78745","Match","Exact","3115 SACBE COVE, AUSTIN, TX, 78745",623852893,"L"
166821,"3115 SE 20TH AVE","PORTLAND","OR",97202,45.5004170340001,-122.645656739,321,"3115 SE 20TH AVE, PORTLAND, OR, 97202","Match","Exact","3115 SE 20TH AVE, PORTLAND, OR, 97202",157509469,"R"
166822,"3115 STRATHMORE AVE","NORFOLK","VA",23504,36.845125744,-76.247005137,322,"3115 STRATHMORE AVE, NORFOLK, VA, 23504","Match","Exact","3115 STRATHMORE AVE, NORFOLK, VA, 23504",122129269,"R"
166823,"3115 SUMNER AVE","HUNTINGTON","WV",25705,38.4070375530001,-82.3891754319999,323,"3115 SUMNER AVE, HUNTINGTON, WV, 25705","Match","Exact","3115 SUMNER AVE, HUNTINGTON, WV, 25705",101319581,"L"
166824,"3115 SUNDIAL ROAD","DOVER","PA",71315,39.9696630890001,-76.8374422369999,324,"3115 SUNDIAL ROAD, DOVER, PA, 71315","Match","Non_Exact","3115 SUNDIAL RD, DOVER, PA, 17315",88769385,"R"
166825,"3115 SWITZER DRIVE","AUGUSTA","GA",30909,33.477813069,-82.047920931,325,"3115 SWITZER DRIVE, AUGUSTA, GA, 30909","Match","Exact","3115 SWITZER DR, AUGUSTA, GA, 30909",55654665,"R"
166826,"3115 TANGLEWOOD LN","BELLINGHAM","WA",98226,48.7722041870001,-122.424989902,326,"3115 TANGLEWOOD LN, BELLINGHAM, WA, 98226","Match","Exact","3115 TANGLEWOOD LN, BELLINGHAM, WA, 98226",183785873,"L"
166827,"3115 TEASDALE COURT","SEAGOVILLE","TX",75159,32.69164992,-96.5528638279999,327,"3115 TEASDALE COURT, SEAGOVILLE, TX, 75159","Match","Exact","3115 TEASDALE CT, SEAGOVILLE, TX, 75159",615300622,"R"
166828,"3115 THOMPKINS SQUARE QT","INDIANAPOLIS","IN",46205,39.8262039790001,-86.111305031,328,"3115 THOMPKINS SQUARE QT, INDIANAPOLIS, IN, 46205","Match","Non_Exact","3115 THOMPKINS SQUARE CT, INDIANAPOLIS, IN, 46205",640835420,"R"
166829,"3115 W BROADWAY BLVD","SEDALIA","MO",65301,38.7085815780001,-93.265404152,329,"3115 W BROADWAY BLVD, SEDALIA, MO, 65301","Match","Exact","3115 W BROADWAY BLVD, SEDALIA, MO, 65301",54735554,"L"
166830,"3115 W VIA MONTOYA DR","PHOENIX","AZ",85027,33.687519115,-112.126780166,330,"3115 W VIA MONTOYA DR, PHOENIX, AZ, 85027","Match","Exact","3115 W VIA MONTOYA DR, PHOENIX, AZ, 85027",128373683,"L"
166831,"3115 WALLACE RD","OMAHA","IL",62871,37.897708402,-88.316819835,331,"3115 WALLACE RD, OMAHA, IL, 62871","Match","Exact","3115 WALLACE RD, OMAHA, IL, 62871",148012610,"L"
166832,"3115 WESTFIELD RD","CHARLOTTE","NC",28209,35.178519253,-80.845317396,332,"3115 WESTFIELD RD, CHARLOTTE, NC, 28209","Match","Exact","3115 WESTFIELD RD, CHARLOTTE, NC, 28209",70486203,"L"
166833,"3115 WRIGHT CARPENTER","SAN ANTONIO","TX",78221,29.2462863320001,-98.440239071,333,"3115 WRIGHT CARPENTER, SAN ANTONIO, TX, 78221","Match","Exact","3115 WRIGHT CARPENTER, SAN ANTONIO, TX, 78221",649936937,"R"
166834,"3116 46TH AVE S","FARGO","ND",58104,46.8123773470001,-96.827455319,334,"3116 46TH AVE S, FARGO, ND, 58104","Match","Exact","3116 46TH AVE S, FARGO, ND, 58104",151466938,"R"
166835,"3116 68TH AVE SW","TUMWATER","WA",98512,NA,NA,335,"3116 68TH AVE SW, TUMWATER, WA, 98512","No_Match",NA,NA,NA,NA
166836,"3116 A ST","SAN DIEGO","CA",92102,32.719014814,-117.127284456,336,"3116 A ST, SAN DIEGO, CA, 92102","Match","Exact","3116 A ST, SAN DIEGO, CA, 92102",195346416,"L"
166837,"3116 BENJAMIN E MAYS DR SW","ATLANTA","GA",30311,33.734122116,-84.491067449,337,"3116 BENJAMIN E MAYS DR SW, ATLANTA, GA, 30311","Match","Exact","3116 BENJAMIN E MAYS DR SW, ATLANTA, GA, 30311",17337466,"L"
166838,"3116 BOYKIN BRIDGE ROAD","CLINTON","NC",28328,34.964057704,-78.3561216809999,338,"3116 BOYKIN BRIDGE ROAD, CLINTON, NC, 28328","Match","Exact","3116 BOYKIN BRIDGE RD, CLINTON, NC, 28328",14257066,"L"
166839,"3116 BRAEMAR LANE","WILMINGTON","NC",28409,34.19045335,-77.8802248599999,339,"3116 BRAEMAR LANE, WILMINGTON, NC, 28409","Match","Exact","3116 BRAEMAR LN, WILMINGTON, NC, 28409",639114316,"R"
166840,"3116 BUNCH WALNUTS RD","CHESAPEAKE","VA",23322,36.613972522,-76.277412249,340,"3116 BUNCH WALNUTS RD, CHESAPEAKE, VA, 23322","Match","Exact","3116 BUNCH WALNUTS RD, CHESAPEAKE, VA, 23322",121790979,"R"
166841,"3116 GLEASON AVENUE","COLUMBUS","GA",31907,32.4923187110001,-84.891310952,341,"3116 GLEASON AVENUE, COLUMBUS, GA, 31907","Match","Exact","3116 GLEASON AVE, COLUMBUS, GA, 31907",98941146,"R"
166842,"3116 HACIENDA STREET","SAN MATEO","CA",94403,37.5358046970001,-122.305412579,342,"3116 HACIENDA STREET, SAN MATEO, CA, 94403","Match","Exact","3116 HACIENDA ST, SAN MATEO, CA, 94403",192379882,"R"
166843,"3116 HOLLY HALL ST","HOUSTON","TX",77054,29.686345606,-95.382175392,343,"3116 HOLLY HALL ST, HOUSTON, TX, 77054","Match","Exact","3116 HOLLY HALL ST, HOUSTON, TX, 77054",96088065,"R"
166844,"3116 HONEYWOOD LN APT G","ROANOKE","VA",24018,37.2320234680001,-79.981639145,344,"3116 HONEYWOOD LN APT G, ROANOKE, VA, 24018","Match","Exact","3116 HONEYWOOD LN, ROANOKE, VA, 24018",62915486,"L"
166845,"3116 INDIAN GAP STREET","WEATHERFORD","TX",76087,32.5276093750001,-97.843355818,345,"3116 INDIAN GAP STREET, WEATHERFORD, TX, 76087","Match","Exact","3116 INDIAN GAP ST, WEATHERFORD, TX, 76087",158813211,"L"
166846,"3116 KIRBY SMITH DR","WILMINGTON","NC",28409,34.1907688690001,-77.8818806099999,346,"3116 KIRBY SMITH DR, WILMINGTON, NC, 28409","Match","Exact","3116 KIRBY SMITH DR, WILMINGTON, NC, 28409",152757219,"L"
166847,"3116 LAND O LAKES BLVD","LAND O LAKES","FL",34639,NA,NA,347,"3116 LAND O LAKES BLVD, LAND O LAKES, FL, 34639","No_Match",NA,NA,NA,NA
166848,"3116 MELROSE DR","COLUMBUS","GA",31906,32.469511819,-84.9455140059999,348,"3116 MELROSE DR, COLUMBUS, GA, 31906","Match","Exact","3116 MELROSE DR, COLUMBUS, GA, 31906",98939397,"R"
166849,"3116 MIAMI APT A","SAINT LOUIS","MO",63118,38.590909298,-90.235916678,349,"3116 MIAMI APT A, SAINT LOUIS, MO, 63118","Match","Non_Exact","3116 MIAMI ST, SAINT LOUIS, MO, 63118",107602362,"L"
166850,"3116 N SALLY HILL ROAD","TIMMONSVILLE","SC",29161,34.2017172650001,-79.9155094119999,350,"3116 N SALLY HILL ROAD, TIMMONSVILLE, SC, 29161","Match","Exact","3116 SALLY HILL RD, TIMMONSVILLE, SC, 29161",78411293,"L"
166851,"3116 NE 3RD DRIVE","HOMESTEAD","FL",33033,25.472911562,-80.430546109,351,"3116 NE 3RD DRIVE, HOMESTEAD, FL, 33033","Match","Exact","3116 NE 3RD DR, HOMESTEAD, FL, 33033",631833983,"L"
166852,"3116 NORTH ALEXANDER","BAYTOWN","TX",77520,NA,NA,352,"3116 NORTH ALEXANDER, BAYTOWN, TX, 77520","No_Match",NA,NA,NA,NA
166853,"3116 OLD FAITHFUL ROAD","CHEYENNE","WY",82001,41.138813026,-104.77657284,353,"3116 OLD FAITHFUL ROAD, CHEYENNE, WY, 82001","Match","Exact","3116 OLD FAITHFUL RD, CHEYENNE, WY, 82001",160152107,"L"
166854,"3116 QUINLEY PLACE","RALEIGH","NC",27604,35.8302358610001,-78.58858458,354,"3116 QUINLEY PLACE, RALEIGH, NC, 27604","Match","Exact","3116 QUINLEY PL, RALEIGH, NC, 27604",72638720,"R"
166855,"3116 RAWHIDE DRIVE","PRESCOTT","AZ",86305,34.598764037,-112.477027087,355,"3116 RAWHIDE DRIVE, PRESCOTT, AZ, 86305","Match","Exact","3116 RAWHIDE DR, PRESCOTT, AZ, 86305",638559135,"R"
166856,"3116 RIVERSIDE DR","PORT HURON","MI",48060,43.0073285500001,-82.451541468,356,"3116 RIVERSIDE DR, PORT HURON, MI, 48060","Match","Exact","3116 RIVERSIDE DR, PORT HURON, MI, 48060",647680812,"R"
166857,"3116 S 74TH LANE","PHOENIX","AZ",85043,33.420119212,-112.220593527,357,"3116 S 74TH LANE, PHOENIX, AZ, 85043","Match","Exact","3116 S 74TH LN, PHOENIX, AZ, 85043",243943696,"L"
166858,"3116 S MADISON AVE","TULSA","OK",74105,36.118316357,-95.979583104,358,"3116 S MADISON AVE, TULSA, OK, 74105","Match","Exact","3116 S MADISON AVE, TULSA, OK, 74105",166442398,"R"
166859,"3116 S MILL AVE - 188","TEMPE","AZ",85282,33.3960924200001,-111.939634782,359,"3116 S MILL AVE - 188, TEMPE, AZ, 85282","Match","Non_Exact","3116 S MILL AVE, TEMPE, AZ, 85282",128227386,"R"
166860,"3116 S MILL AVE APT 173","TEMPE","AZ",85282,33.3960924200001,-111.939634782,360,"3116 S MILL AVE APT 173, TEMPE, AZ, 85282","Match","Non_Exact","3116 S MILL AVE, TEMPE, AZ, 85282",128227386,"R"
166861,"3116 SANGRIA LN","FORT WORTH","TX",76177,32.9638230780001,-97.2947353609999,361,"3116 SANGRIA LN, FORT WORTH, TX, 76177","Match","Exact","3116 SANGRIA LN, FORT WORTH, TX, 76177",652014214,"R"
166862,"3116 SHREWSBURY LN","RIVA","MD",21140,38.946340309,-76.5855143169999,362,"3116 SHREWSBURY LN, RIVA, MD, 21140","Match","Exact","3116 SHREWSBURY LN, RIVA, MD, 21140",68170916,"L"
166863,"3116 SW 130TH PLACE","OKLAHOMA CITY","OK",73170,35.338114879,-97.571834951,363,"3116 SW 130TH PLACE, OKLAHOMA CITY, OK, 73170","Match","Exact","3116 SW 130TH PL, OKLAHOMA CITY, OK, 73170",649816080,"R"
166864,"3116 SWIFT STREET","MELBOURNE","FL",32901,28.0634002350001,-80.599737293,364,"3116 SWIFT STREET, MELBOURNE, FL, 32901","Match","Exact","3116 SWIFT ST, MELBOURNE, FL, 32901",93905560,"R"
166865,"3116 W MONTGOMERY ROAD SUITE C 262","MAINEVILLE","OH",45039,NA,NA,365,"3116 W MONTGOMERY ROAD SUITE C 262, MAINEVILLE, OH, 45039","No_Match",NA,NA,NA,NA
166866,"3116 YELLOWSTONE CIR","FORT PIERCE","FL",34945,27.4087856350001,-80.4100273459999,366,"3116 YELLOWSTONE CIR, FORT PIERCE, FL, 34945","Match","Exact","3116 YELLOWSTONE CIR, FORT PIERCE, FL, 34945",619611392,"L"
166867,"31160 PORTSIDE DR APT 5110","NOVI","MI",48377,42.5223576180001,-83.506258367,367,"31160 PORTSIDE DR APT 5110, NOVI, MI, 48377","Match","Exact","31160 PORTSIDE DR, NOVI, MI, 48377",635624876,"R"
166868,"3117 B STREET","SACRAMENTO","CA",95816,38.5813676600001,-121.46101198,368,"3117 B STREET, SACRAMENTO, CA, 95816","Match","Exact","3117 B ST, SACRAMENTO, CA, 95816",133324764,"L"
166869,"3117 BEACH BLVD","PASCAGOULA","MS",39567,30.3430576910001,-88.5306092929999,369,"3117 BEACH BLVD, PASCAGOULA, MS, 39567","Match","Exact","3117 BEACH BLVD, PASCAGOULA, MS, 39567",623600026,"L"
166870,"3117 BUCKHORN LN","WAKE FOREST","NC",27587,36.0463109510001,-78.615913717,370,"3117 BUCKHORN LN, WAKE FOREST, NC, 27587","Match","Exact","3117 BUCKHORN LN, WAKE FOREST, NC, 27587",639837416,"L"
166871,"3117 CASCADE DRIVE","SPRINGFIELD","IL",62704,39.7653594930001,-89.713508312,371,"3117 CASCADE DRIVE, SPRINGFIELD, IL, 62704","Match","Exact","3117 CASCADE DR, SPRINGFIELD, IL, 62704",97349033,"L"
166872,"3117 CEDAR RIDGE DR","RICHARDSON","TX",75082,33.001864412,-96.662709665,372,"3117 CEDAR RIDGE DR, RICHARDSON, TX, 75082","Match","Exact","3117 CEDAR RIDGE DR, RICHARDSON, TX, 75082",123567318,"R"
166873,"3117 DELAMERE DRIVE","MATTHEWS","NC",28104,35.0570194150001,-80.709407539,373,"3117 DELAMERE DRIVE, MATTHEWS, NC, 28104","Match","Exact","3117 DELAMERE DR, MATTHEWS, NC, 28104",634087027,"R"
166874,"3117 DOUGLAS STREET","HUTCHINSON","NC",27607,35.7909171260001,-78.6773266119999,374,"3117 DOUGLAS STREET, HUTCHINSON, NC, 27607","Match","Non_Exact","3117 DOUGLAS ST, RALEIGH, NC, 27607",72501992,"L"
166875,"3117 EASTHILL DRIVE","BETHLEHEM","PA",18017,40.6598803190001,-75.3411430049999,375,"3117 EASTHILL DRIVE, BETHLEHEM, PA, 18017","Match","Exact","3117 EASTHILL DR, BETHLEHEM, PA, 18017",136877343,"L"
166876,"3117 GRANT WAY","EAST POINT","GA",30344,33.666555724,-84.4910242829999,376,"3117 GRANT WAY, EAST POINT, GA, 30344","Match","Exact","3117 GRANT WAY, EAST POINT, GA, 30344",636750867,"L"
166877,"3117 HANEY RD","DAYTON","OH",45405,39.8058981070001,-84.2374625099999,377,"3117 HANEY RD, DAYTON, OH, 45405","Match","Exact","3117 HANEY RD, DAYTON, OH, 45405",143614362,"R"
166878,"3117 HOLY HILL ROAD","RICHFIELD","WI",53076,43.2507755180001,-88.1920341329999,378,"3117 HOLY HILL ROAD, RICHFIELD, WI, 53076","Match","Exact","3117 HOLY HILL RD, RICHFIELD, WI, 53076",79562294,"L"
166879,"3117 KINGS ARMS CT","ATLANTA","GA",30345,33.856862607,-84.25965107,379,"3117 KINGS ARMS CT, ATLANTA, GA, 30345","Match","Exact","3117 KINGS ARMS CT, ATLANTA, GA, 30345",23390511,"R"
166880,"3117 LATHROP AVENUE","RACINE","WI",53405,42.6946459270001,-87.825917932,380,"3117 LATHROP AVENUE, RACINE, WI, 53405","Match","Exact","3117 LATHROP AVE, RACINE, WI, 53405",77926909,"L"
166881,"3117 MEADOW LARK AVENUE","LOUISVILLE","KY",40213,38.2091499270001,-85.725262674,381,"3117 MEADOW LARK AVENUE, LOUISVILLE, KY, 40213","Match","Exact","3117 MEADOW LARK AVE, LOUISVILLE, KY, 40213",96871417,"L"
166882,"3117 MOUNTAIN VIEW ROAD","STANFORD","MT",59479,47.115189351,-110.214272856,382,"3117 MOUNTAIN VIEW ROAD, STANFORD, MT, 59479","Match","Exact","3117 MOUNTAIN VIEW RD, STANFORD, MT, 59479",170731916,"L"
166883,"3117 N NEVADA ST","SPOKANE","WA",99207,47.686957181,-117.395177687,383,"3117 N NEVADA ST, SPOKANE, WA, 99207","Match","Exact","3117 N NEVADA ST, SPOKANE, WA, 99207",605652317,"L"
166884,"3117 PIONEER CIR","WACO","TX",76712,31.51041235,-97.301609631,384,"3117 PIONEER CIR, WACO, TX, 76712","Match","Exact","3117 PIONEER CIR, WACO, TX, 76712",146767124,"R"
166885,"3117 RICES LANE","WINDSOR MILL","MD",21244,39.3461726460001,-76.779507971,385,"3117 RICES LANE, WINDSOR MILL, MD, 21244","Match","Exact","3117 RICES LN, WINDSOR MILL, MD, 21244",191495397,"R"
166886,"3117 ROYCE PL","YUKON","OK",73099,35.50125188,-97.709888479,386,"3117 ROYCE PL, YUKON, OK, 73099","Match","Exact","3117 ROYCE PL, YUKON, OK, 73099",92538631,"R"
166887,"3117 S HIGLEY RD","GILBERT","AZ",85297,NA,NA,387,"3117 S HIGLEY RD, GILBERT, AZ, 85297","No_Match",NA,NA,NA,NA
166888,"3117 ST ROCH","NEW ORLEANS","LA",70122,29.9903381280001,-90.053721673,388,"3117 ST ROCH, NEW ORLEANS, LA, 70122","Match","Non_Exact","3117 SAINT ROCH AVE, NEW ORLEANS, LA, 70122",191735391,"R"
166889,"3117 TOMAHAWK DR","LAWRENCE","KS",66049,38.9817304170001,-95.275051105,389,"3117 TOMAHAWK DR, LAWRENCE, KS, 66049","Match","Exact","3117 TOMAHAWK DR, LAWRENCE, KS, 66049",647992644,"L"
166890,"3117 TRACE WAY","TRUSSVILLE","AL",35173,33.599596951,-86.621137829,390,"3117 TRACE WAY, TRUSSVILLE, AL, 35173","Match","Exact","3117 TRACE WAY, TRUSSVILLE, AL, 35173",81639988,"R"
166891,"3117 W 59TH ST UNIT 2","LOS ANGELES","CA",90043,33.9871982330001,-118.326748509,391,"3117 W 59TH ST UNIT 2, LOS ANGELES, CA, 90043","Match","Non_Exact","3117 W 59TH ST, LOS ANGELES, CA, 90043",141655057,"R"
166892,"3117 W 6250 S","TAYLORSVILLE","UT",84129,NA,NA,392,"3117 W 6250 S, TAYLORSVILLE, UT, 84129","Tie",NA,NA,NA,NA
166893,"3117 W 63RD ST","CHICAGO","IL",60629,41.7789948220001,-87.701380963,393,"3117 W 63RD ST, CHICAGO, IL, 60629","Match","Exact","3117 W 63RD ST, CHICAGO, IL, 60629",111819431,"L"
166894,"3117 WEST 41 STREET","ERIE","PA",16506,42.0739212650001,-80.1346622739999,394,"3117 WEST 41 STREET, ERIE, PA, 16506","Match","Exact","3117 W 41ST ST, ERIE, PA, 16506",117506778,"L"
166895,"3117 WOODED WAY","JEFFERSONVILLE","IN",47130,38.3206487370001,-85.706657229,395,"3117 WOODED WAY, JEFFERSONVILLE, IN, 47130","Match","Exact","3117 WOODED WAY, JEFFERSONVILLE, IN, 47130",648098574,"L"
166896,"3117 WOODYMORE DRIVE","ANTIOCH","TN",37013,36.076160218,-86.610071185,396,"3117 WOODYMORE DRIVE, ANTIOCH, TN, 37013","Match","Exact","3117 WOODYMORE DR, ANTIOCH, TN, 37013",97213592,"L"
166897,"3117","TUCSON","AZ",85716,NA,NA,397,"3117, TUCSON, AZ, 85716","No_Match",NA,NA,NA,NA
166898,"31176 NORTH ORANGE BLOSSOM CIRCLE","SAN TAN VALLEY","AZ",85143,33.1622280280001,-111.574774226,398,"31176 NORTH ORANGE BLOSSOM CIRCLE, SAN TAN VALLEY, AZ, 85143","Match","Non_Exact","31176 ORANGE BLOSSOM CIR, SAN TAN VALLEY, AZ, 85143",627912986,"L"
166899,"31177 US HIGHWAY 19 N","PALM HARBOR","FL",34684,28.054984565,-82.7388366389999,399,"31177 US HIGHWAY 19 N, PALM HARBOR, FL, 34684","Match","Exact","31177 US HWY 19 N, PALM HARBOR, FL, 34684",124800596,"R"
166900,"3118 103RD AVE NE","BELLEVUE","WA",98004,47.6394072900001,-122.201889084,400,"3118 103RD AVE NE, BELLEVUE, WA, 98004","Match","Exact","3118 103RD AVE NE, BELLEVUE, WA, 98004",186605024,"R"
166901,"3118 14TH AV NW","GIG HARBOR","WA",98335,47.2865282220001,-122.557953436,401,"3118 14TH AV NW, GIG HARBOR, WA, 98335","Match","Exact","3118 14TH AVE NW, GIG HARBOR, WA, 98335",645393033,"L"
166902,"3118 AIRLINE DRIVE","HOUSTON","TX",77022,29.8154247320001,-95.382682286,402,"3118 AIRLINE DRIVE, HOUSTON, TX, 77022","Match","Exact","3118 AIRLINE DR, HOUSTON, TX, 77022",233409914,"L"
166903,"3118 BARTON AVE","RICHMOND","VA",23222,37.573363161,-77.4314281109999,403,"3118 BARTON AVE, RICHMOND, VA, 23222","Match","Exact","3118 BARTON AVE, RICHMOND, VA, 23222",201539609,"L"
166904,"3118 BAYSHORE AVE","BRIGANTINE","NJ",8203,39.396391163,-74.387481335,404,"3118 BAYSHORE AVE, BRIGANTINE, NJ, 8203","Match","Exact","3118 BAYSHORE AVE, BRIGANTINE, NJ, 08203",202531054,"L"
166905,"3118 BLODGETT STREET","HOUSTON","TX",77004,29.7213827090001,-95.366358958,405,"3118 BLODGETT STREET, HOUSTON, TX, 77004","Match","Exact","3118 BLODGETT ST, HOUSTON, TX, 77004",96071961,"R"
166906,"3118 CHAUCER ST","LOS ANGELES","CA",90065,34.097810252,-118.229295526,406,"3118 CHAUCER ST, LOS ANGELES, CA, 90065","Match","Exact","3118 CHAUCER ST, LOS ANGELES, CA, 90065",141617515,"R"
166907,"3118 COVINGTON STREET","FAIRFAX","VA",22031,38.8659868280001,-77.258706068,407,"3118 COVINGTON STREET, FAIRFAX, VA, 22031","Match","Exact","3118 COVINGTON ST, FAIRFAX, VA, 22031",76062354,"R"
166908,"3118 DAWSON LANE SW","ATLANTA","GA",30331,33.6685814510001,-84.511831045,408,"3118 DAWSON LANE SW, ATLANTA, GA, 30331","Match","Non_Exact","3118 DAWSON LN, ATLANTA, GA, 30331",618355058,"R"
166909,"3118 ESTERO TERRACE","FREMONT","CA",94538,37.5373558000001,-121.954870223,409,"3118 ESTERO TERRACE, FREMONT, CA, 94538","Match","Exact","3118 ESTERO TER, FREMONT, CA, 94538",640794655,"L"
166910,"3118 GRACEFIELD ROAD","SILVER SPRING","MD",20904,39.0529672010001,-76.9506634429999,410,"3118 GRACEFIELD ROAD, SILVER SPRING, MD, 20904","Match","Exact","3118 GRACEFIELD RD, SILVER SPRING, MD, 20904",608328440,"R"
166911,"3118 GREEN ST","HOUSTON","TX",77020,29.771608298,-95.3384927,411,"3118 GREEN ST, HOUSTON, TX, 77020","Match","Exact","3118 GREEN ST, HOUSTON, TX, 77020",96070171,"R"
166912,"3118 HOLLY POINT","CLARKSVILLE","TN",37043,36.5343750800001,-87.218502757,412,"3118 HOLLY POINT, CLARKSVILLE, TN, 37043","Match","Exact","3118 HOLLY PT, CLARKSVILLE, TN, 37043",632103831,"R"
166913,"3118 ISLAND CLUB LN F","INDIANAPOLIS","IN",46214,39.8110791570001,-86.296822048,413,"3118 ISLAND CLUB LN F, INDIANAPOLIS, IN, 46214","Match","Exact","3118 ISLAND CLUB LN, INDIANAPOLIS, IN, 46214",108055082,"L"
166914,"3118 KIOWA CT","INDIANAPOLIS","IN",46235,39.8142756500001,-85.983741229,414,"3118 KIOWA CT, INDIANAPOLIS, IN, 46235","Match","Exact","3118 KIOWA CT, INDIANAPOLIS, IN, 46235",108012880,"L"
166915,"3118 MARKEY ROCK","SAN ANTONIO","TX",78253,NA,NA,415,"3118 MARKEY ROCK, SAN ANTONIO, TX, 78253","No_Match",NA,NA,NA,NA
166916,"3118 MCCRAREY DR","HOUSTON","TX",77088,29.8874686130001,-95.457094183,416,"3118 MCCRAREY DR, HOUSTON, TX, 77088","Match","Exact","3118 MCCRAREY DR, HOUSTON, TX, 77088",96027230,"R"
166917,"3118 RIVER HEIGHTS","BENTON","AR",72019,34.5964867270001,-92.602523146,417,"3118 RIVER HEIGHTS, BENTON, AR, 72019","Match","Exact","3118 RIVER HTS, BENTON, AR, 72019",24207116,"R"
166918,"3118 S JOPLIN COURT","AURORA","CO",80013,39.659157012,-104.803205135,418,"3118 S JOPLIN COURT, AURORA, CO, 80013","Match","Exact","3118 S JOPLIN CT, AURORA, CO, 80013",177357283,"L"
166919,"3118 SHERBROOKE CANYON LANE","HOUSTON","TX",77047,29.607177585,-95.374031642,419,"3118 SHERBROOKE CANYON LANE, HOUSTON, TX, 77047","Match","Exact","3118 SHERBROOKE CANYON, HOUSTON, TX, 77047",635039980,"R"
166920,"3118 SPRUCE PLACE","TYLER","TX",75707,NA,NA,420,"3118 SPRUCE PLACE, TYLER, TX, 75707","No_Match",NA,NA,NA,NA
166921,"3118 TREMBLING CREEK CIRCLE","SPRING","TX",77373,30.0432279790001,-95.379397877,421,"3118 TREMBLING CREEK CIRCLE, SPRING, TX, 77373","Match","Exact","3118 TREMBLING CREEK CIR, SPRING, TX, 77373",96042669,"R"
166922,"3118 US HIGHWAY 62 NE","WASHINGTON COURT HOU","OH",43160,NA,NA,422,"3118 US HIGHWAY 62 NE, WASHINGTON COURT HOU, OH, 43160","No_Match",NA,NA,NA,NA
166923,"3118 W MAIN ST EXT","ELIZABETH CITY","NC",27909,36.339253097,-76.2896053809999,423,"3118 W MAIN ST EXT, ELIZABETH CITY, NC, 27909","Match","Non_Exact","3118 W MAIN ST EXD, ELIZABETH CITY, NC, 27909",636538192,"R"
166924,"3118 W MERCER LANE","PHOENIX","AZ",85029,33.585227967,-112.126364404,424,"3118 W MERCER LANE, PHOENIX, AZ, 85029","Match","Exact","3118 W MERCER LN, PHOENIX, AZ, 85029",128202474,"R"
166925,"3118 WHITE BIRD DRIVE","CORPUS CHRISTI","TX",78415,27.715445749,-97.423827467,425,"3118 WHITE BIRD DRIVE, CORPUS CHRISTI, TX, 78415","Match","Exact","3118 WHITE BIRD DR, CORPUS CHRISTI, TX, 78415",178518751,"R"
166926,"3118 WILSHIRE BLVD STE D","SANTA MONICA","CA",90403,34.040100689,-118.472379356,426,"3118 WILSHIRE BLVD STE D, SANTA MONICA, CA, 90403","Match","Exact","3118 WILSHIRE BLVD, SANTA MONICA, CA, 90403",142717321,"R"
166927,"3118 WILSHIRE BLVD","SANTA MONICA","CA",90403,34.040100689,-118.472379356,427,"3118 WILSHIRE BLVD, SANTA MONICA, CA, 90403","Match","Exact","3118 WILSHIRE BLVD, SANTA MONICA, CA, 90403",142717321,"R"
166928,"3119 ARROW LN","CLARKSVILLE","TN",37043,36.5361663420001,-87.2184521349999,428,"3119 ARROW LN, CLARKSVILLE, TN, 37043","Match","Exact","3119 ARROW LN, CLARKSVILLE, TN, 37043",31830815,"L"
166929,"3119 ASPEN DR","CASPER","WY",82601,42.815406561,-106.338338308,429,"3119 ASPEN DR, CASPER, WY, 82601","Match","Exact","3119 ASPEN DR, CASPER, WY, 82601",149040644,"L"
166930,"3119 BELZ ROAD","SANGER","TX",76266,33.3765976190001,-97.1805655109999,430,"3119 BELZ ROAD, SANGER, TX, 76266","Match","Exact","3119 BELZ RD, SANGER, TX, 76266",646676622,"L"
166931,"3119 CONVERSE","EAST ST LOUIS","IL",62207,38.5973195880001,-90.134457621,431,"3119 CONVERSE, EAST ST LOUIS, IL, 62207","Match","Non_Exact","3119 CONVERSE AVE, E SAINT LOUIS, IL, 62207",107929823,"L"
166932,"3119 DIDIER ROAD","VALLEY SPRINGS","CA",95252,38.168962569,-120.863773294,432,"3119 DIDIER ROAD, VALLEY SPRINGS, CA, 95252","Match","Exact","3119 DIDIER RD, VALLEY SPRINGS, CA, 95252",102265128,"R"
166933,"3119 DUBLIN WAY","GRAND JUNCTION","CO",81504,39.095524057,-108.470965809,433,"3119 DUBLIN WAY, GRAND JUNCTION, CO, 81504","Match","Exact","3119 DUBLIN WAY, GRAND JCT, CO, 81504",624479614,"L"
166934,"3119 EAST HARRISON STREET","GILBERT","AZ",85295,33.316381203,-111.723326688,434,"3119 EAST HARRISON STREET, GILBERT, AZ, 85295","Match","Exact","3119 E HARRISON ST, GILBERT, AZ, 85295",601666551,"R"
166935,"3119 FONDREN ST","LA PORTE","TX",77571,29.626750782,-95.011794639,435,"3119 FONDREN ST, LA PORTE, TX, 77571","Match","Exact","3119 FONDREN ST, LA PORTE, TX, 77571",96112536,"R"
166936,"3119 G ST SE","WASHINGTON","DC",20019,38.880232719,-76.962166171,436,"3119 G ST SE, WASHINGTON, DC, 20019","Match","Exact","3119 G ST SE, WASHINGTON, DC, 20019",76231908,"R"
166937,"3119 HALLDALE AVE","LOS ANGELES","CA",90018,34.026260574,-118.302758407,437,"3119 HALLDALE AVE, LOS ANGELES, CA, 90018","Match","Exact","3119 HALLDALE AVE, LOS ANGELES, CA, 90018",141606132,"R"
166938,"3119 HIGHPLAINS DRIVE","HOPE MILLS","NC",28348,34.978964235,-78.913239436,438,"3119 HIGHPLAINS DRIVE, HOPE MILLS, NC, 28348","Match","Exact","3119 HIGHPLAINS DR, HOPE MILLS, NC, 28348",627430861,"R"
166939,"3119 IRVING AVE N","MINNEAPOLIS","MN",55411,45.0124200180001,-93.299367038,439,"3119 IRVING AVE N, MINNEAPOLIS, MN, 55411","Match","Exact","3119 IRVING AVE N, MINNEAPOLIS, MN, 55411",43622189,"L"
166940,"3119 LENORA SPRINGS DR","SPRING","TX",77386,30.130340253,-95.394938769,440,"3119 LENORA SPRINGS DR, SPRING, TX, 77386","Match","Exact","3119 LENORA SPRINGS DR, SPRING, TX, 77386",627735395,"L"
166941,"3119 MILLERDALE LANE","DALLAS","TX",75227,32.7644815190001,-96.698840444,441,"3119 MILLERDALE LANE, DALLAS, TX, 75227","Match","Exact","3119 MILLERDALE LN, DALLAS, TX, 75227",103197213,"L"
166942,"3119 MILTON AVENUE","DALLAS","TX",75205,32.8488682020001,-96.781333694,442,"3119 MILTON AVENUE, DALLAS, TX, 75205","Match","Exact","3119 MILTON AVE, DALLAS, TX, 75205",102907480,"L"
166943,"3119 N SHERMAN DR","INDIANAPOLIS","IN",46218,39.811980217,-86.102575338,443,"3119 N SHERMAN DR, INDIANAPOLIS, IN, 46218","Match","Exact","3119 N SHERMAN DR, INDIANAPOLIS, IN, 46218",107998579,"R"
166944,"3119 OLIVE ST","VANCOUVER","WA",98660,NA,NA,444,"3119 OLIVE ST, VANCOUVER, WA, 98660","No_Match",NA,NA,NA,NA
166945,"3119 PENRYN RD STE 230","PENRYN","CA",95663,38.836933614,-121.168521408,445,"3119 PENRYN RD STE 230, PENRYN, CA, 95663","Match","Exact","3119 PENRYN RD, PENRYN, CA, 95663",106776444,"R"
166946,"3119 PORTLAND AVE","LOUISVILLE","KY",40212,38.2740013960001,-85.798146837,446,"3119 PORTLAND AVE, LOUISVILLE, KY, 40212","Match","Exact","3119 PORTLAND AVE, LOUISVILLE, KY, 40212",96840904,"R"
166947,"3119 QUENTIN ROAD","BROOKLYN","NY",11234,40.6124295380001,-73.9402325949999,447,"3119 QUENTIN ROAD, BROOKLYN, NY, 11234","Match","Exact","3119 QUENTIN RD, BROOKLYN, NY, 11234",59090462,"L"
166948,"3119 SOUTH 2800 EAST","SALT LAKE CITY","UT",84109,40.7031310620001,-111.812538465,448,"3119 SOUTH 2800 EAST, SALT LAKE CITY, UT, 84109","Match","Non_Exact","3119 S 2800 EAST ST, SALT LAKE CITY, UT, 84109",176101925,"L"
166949,"3119 SOUTH ACADEMY BLVD","COLORADO SPRINGS","CO",80916,38.787168754,-104.757456562,449,"3119 SOUTH ACADEMY BLVD, COLORADO SPRINGS, CO, 80916","Match","Exact","3119 S ACADEMY BLVD, COLORADO SPRINGS, CO, 80916",637580950,"L"
166950,"3119 SWEETVIOLET DR","SAN RAMON","CA",94582,37.767278392,-121.919011071,450,"3119 SWEETVIOLET DR, SAN RAMON, CA, 94582","Match","Exact","3119 SWEETVIOLET DR, SAN RAMON, CA, 94582",635113593,"R"
166951,"3119 TIMBER VIEW DR","SUGAR LAND","TX",77479,29.5767360300001,-95.598033524,451,"3119 TIMBER VIEW DR, SUGAR LAND, TX, 77479","Match","Exact","3119 TIMBER VIEW DR, SUGAR LAND, TX, 77479",78285912,"R"
166952,"3119 TINA MARIE DR","WESLEY CHAPEL","FL",33543,28.2036238150001,-82.268686754,452,"3119 TINA MARIE DR, WESLEY CHAPEL, FL, 33543","Match","Exact","3119 TINA MARIE DR, WESLEY CHAPEL, FL, 33543",86387970,"R"
166953,"3119 UNIVERSITY AVE SUITE C","MORGANTOWN","WV",26505,39.6544480810001,-79.970948356,453,"3119 UNIVERSITY AVE SUITE C, MORGANTOWN, WV, 26505","Match","Exact","3119 UNIVERSITY AVE, MORGANTOWN, WV, 26505",50770115,"L"
166954,"3119 VAIL DRIVE","CAPE GIRARDEAU","MO",63701,37.3245278320001,-89.577120083,454,"3119 VAIL DRIVE, CAPE GIRARDEAU, MO, 63701","Match","Exact","3119 VAIL DR, CAPE GIRARDEAU, MO, 63701",650016449,"L"
166955,"3119 VIA DOLCE BROADWAY BLDG 306","MARINA DEL REY","CA",90292,33.980590394,-118.463080402,455,"3119 VIA DOLCE BROADWAY BLDG 306, MARINA DEL REY, CA, 90292","Match","Exact","3119 VIA DOLCE, MARINA DEL REY, CA, 90292",650064803,"R"
166956,"3119 VIA DOLCE UNIT 116","MARINA DEL REY","CA",90292,33.980590394,-118.463080402,456,"3119 VIA DOLCE UNIT 116, MARINA DEL REY, CA, 90292","Match","Exact","3119 VIA DOLCE, MARINA DEL REY, CA, 90292",650064803,"R"
166957,"3119 W 6TH STREET","LOS ANGELES","CA",90020,34.063703832,-118.289034173,457,"3119 W 6TH STREET, LOS ANGELES, CA, 90020","Match","Exact","3119 W 6TH ST, LOS ANGELES, CA, 90020",141605017,"R"
166958,"3119 W GEORGE ST","CHICAGO","IL",60618,41.933863767,-87.705748547,458,"3119 W GEORGE ST, CHICAGO, IL, 60618","Match","Exact","3119 W GEORGE ST, CHICAGO, IL, 60618",605214762,"L"
166959,"3119 W HARVARD","VISALIA","CA",93277,36.315693857,-119.324874938,459,"3119 W HARVARD, VISALIA, CA, 93277","Match","Non_Exact","3119 W HARVARD AVE, VISALIA, CA, 93277",202819685,"L"
166960,"3119 WEST FAIR OAKS AVENUE","TAMPA","FL",33611,27.9005603630001,-82.494338887,460,"3119 WEST FAIR OAKS AVENUE, TAMPA, FL, 33611","Match","Exact","3119 W FAIR OAKS AVE, TAMPA, FL, 33611",104528696,"R"
166961,"31192 LA BAYA DRIVE SUITE C","WESTLAKE VILLAGE","CA",91362,34.156140479,-118.804315066,461,"31192 LA BAYA DRIVE SUITE C, WESTLAKE VILLAGE, CA, 91362","Match","Non_Exact","31192 LA BAYA DR, WESTLAKE VILLAGE, CA, 91362",241245868,"R"
166962,"31193 COLUMBIA DRIVE","NOVI","MI",48377,42.5260839960001,-83.4568212629999,462,"31193 COLUMBIA DRIVE, NOVI, MI, 48377","Match","Exact","31193 COLUMBIA DR, NOVI, MI, 48377",69781658,"R"
166963,"31194 ELEPHANT ROCK LN","BUENA VISTA","CO",81211,NA,NA,463,"31194 ELEPHANT ROCK LN, BUENA VISTA, CO, 81211","Tie",NA,NA,NA,NA
166964,"31196 HIGHWAY 190","LACOMBE","LA",70445,30.307231438,-89.8814963629999,464,"31196 HIGHWAY 190, LACOMBE, LA, 70445","Match","Non_Exact","31196 US HWY 190, LACOMBE, LA, 70445",111338339,"L"
166965,"3119A LACKLAND AVENUE","ST LOUIS","MO",63116,38.604323128,-90.265808606,465,"3119A LACKLAND AVENUE, ST LOUIS, MO, 63116","Match","Exact","3119 LACKLAND AVE, SAINT LOUIS, MO, 63116",605125484,"R"
166966,"311SOUTH GIRARD STREET","WOODBURY","NJ",8096,NA,NA,466,"311SOUTH GIRARD STREET, WOODBURY, NJ, 8096","No_Match",NA,NA,NA,NA
166967,"312 10TH AVE SE","ROSEAU","MN",56751,48.8433373410001,-95.74836047,467,"312 10TH AVE SE, ROSEAU, MN, 56751","Match","Exact","312 10TH AVE SE, ROSEAU, MN, 56751",176612490,"L"
166968,"312 10TH STREET NORTH","HUMBOLDT","IA",50548,NA,NA,468,"312 10TH STREET NORTH, HUMBOLDT, IA, 50548","No_Match",NA,NA,NA,NA
166969,"312 11TH STREET","SACRAMENTO","CA",95814,38.587178126,-121.488997287,469,"312 11TH STREET, SACRAMENTO, CA, 95814","Match","Exact","312 11TH ST, SACRAMENTO, CA, 95814",133421716,"R"
166970,"312 1ST AVE","SPOKANE","WA",99201,47.6566077730001,-117.416361908,470,"312 1ST AVE, SPOKANE, WA, 99201","Match","Non_Exact","312 W 1ST AVE, SPOKANE, WA, 99201",189876689,"R"
166971,"312 4TH AVENUE E","OLYMPIA","WA",98501,47.045088305,-122.898968601,471,"312 4TH AVENUE E, OLYMPIA, WA, 98501","Match","Exact","312 4TH AVE E, OLYMPIA, WA, 98501",180944173,"L"
166972,"312 4TH STREET","WALLACE","ID",83873,47.473084509,-115.926990617,472,"312 4TH STREET, WALLACE, ID, 83873","Match","Exact","312 4TH ST, WALLACE, ID, 83873",203522336,"L"
166973,"312 60TH AVENUE DR E","BRADENTON","FL",34203,27.4343778360001,-82.5604731829999,473,"312 60TH AVENUE DR E, BRADENTON, FL, 34203","Match","Exact","312 60TH AVENUE DR E, BRADENTON, FL, 34203",16256954,"L"
166974,"312 6TH AVE","ALBANY","GA",31701,31.594347693,-84.15423451,474,"312 6TH AVE, ALBANY, GA, 31701","Match","Exact","312 6TH AVE, ALBANY, GA, 31701",84314392,"L"
166975,"312 7 AND A HALF ST SW","CHARLOTTESVILLE","VA",22903,NA,NA,475,"312 7 AND A HALF ST SW, CHARLOTTESVILLE, VA, 22903","No_Match",NA,NA,NA,NA
166976,"312 A CHRISTA DRIVE","CHESAPEAKE","VA",23322,36.695056064,-76.223020307,476,"312 A CHRISTA DRIVE, CHESAPEAKE, VA, 23322","Match","Exact","312 CHRISTA DR, CHESAPEAKE, VA, 23322",644729323,"L"
166977,"312 AGATE DR","COLLEGE STATION","TX",77845,30.5615552080001,-96.250155604,477,"312 AGATE DR, COLLEGE STATION, TX, 77845","Match","Exact","312 AGATE DR, COLLEGE STATION, TX, 77845",21834739,"L"
166978,"312 AMSTERDAM AVE","ROSELLE","NJ",7203,40.6555323160001,-74.277338416,478,"312 AMSTERDAM AVE, ROSELLE, NJ, 7203","Match","Exact","312 AMSTERDAM AVE, ROSELLE, NJ, 07203",60572742,"R"
166979,"312 ARBORVITAE LANE","DE PERE","WI",54115,NA,NA,479,"312 ARBORVITAE LANE, DE PERE, WI, 54115","No_Match",NA,NA,NA,NA
166980,"312 ASHBY STREET APT D","ALEXANDRIA","VA",22305,38.8334379190001,-77.055098619,480,"312 ASHBY STREET APT D, ALEXANDRIA, VA, 22305","Match","Exact","312 ASHBY ST, ALEXANDRIA, VA, 22305",76066485,"L"
166981,"312 AUDUBON STREET","ADAIR","IA",50002,NA,NA,481,"312 AUDUBON STREET, ADAIR, IA, 50002","No_Match",NA,NA,NA,NA
166982,"312 AUSTIN AVE","WYLIE","TX",75098,33.0116616660001,-96.549281648,482,"312 AUSTIN AVE, WYLIE, TX, 75098","Match","Exact","312 AUSTIN AVE, WYLIE, TX, 75098",619981597,"L"
166983,"312 AYRES HALL 1403 CIRCLE DRIVE","KNOXVILLE","TN",37996,35.958374684,-83.92612098,483,"312 AYRES HALL 1403 CIRCLE DRIVE, KNOXVILLE, TN, 37996","Match","Non_Exact","1403 CIRCLE DR, KNOXVILLE, TN, 37916",643395466,"R"
166984,"312 BANDANA WAY","CAMERON","NC",28326,35.265811952,-79.0149498169999,484,"312 BANDANA WAY, CAMERON, NC, 28326","Match","Exact","312 BANDANA WAY, CAMERON, NC, 28326",642394504,"R"
166985,"312 BARTOW DRIVE","FAYETTEVILLE","NC",28301,35.103344866,-78.8740653899999,485,"312 BARTOW DRIVE, FAYETTEVILLE, NC, 28301","Match","Exact","312 BARTOW DR, FAYETTEVILLE, NC, 28301",64200786,"R"
166986,"312 BENTON ST","JEFFERSON CITY","MO",65101,38.5655297530001,-92.15790935,486,"312 BENTON ST, JEFFERSON CITY, MO, 65101","Match","Exact","312 BENTON ST, JEFFERSON CITY, MO, 65101",604584449,"L"
166987,"312 BERRYWOOD LN","OSWEGO","IL",60543,41.6919890240001,-88.388607069,487,"312 BERRYWOOD LN, OSWEGO, IL, 60543","Match","Exact","312 BERRYWOOD LN, OSWEGO, IL, 60543",54496844,"R"
166988,"312 BORDER STREET","EAST BOSTON","MA",2128,42.378097977,-71.0399877839999,488,"312 BORDER STREET, EAST BOSTON, MA, 2128","Match","Exact","312 BORDER ST, EAST BOSTON, MA, 02128",85709635,"L"
166989,"312 BRANDIWOOD COURT","OLD HICKORY","TN",37138,36.2215298400001,-86.6279682269999,489,"312 BRANDIWOOD COURT, OLD HICKORY, TN, 37138","Match","Exact","312 BRANDIWOOD CT, OLD HICKORY, TN, 37138",97203043,"R"
166990,"312 BUCKEYE STREET","POWHATAN POINT","OH",43942,39.870798031,-80.79186406,490,"312 BUCKEYE STREET, POWHATAN POINT, OH, 43942","Match","Exact","312 BUCKEYE ST, POWHATAN POINT, OH, 43942",625992148,"L"
166991,"312 BUSINESS 53 PO BOX 22","MINONG","WI",54859,NA,NA,491,"312 BUSINESS 53 PO BOX 22, MINONG, WI, 54859","No_Match",NA,NA,NA,NA
166992,"312 CABINWOOD TRL","CANTON","GA",30115,34.2160069880001,-84.4738453099999,492,"312 CABINWOOD TRL, CANTON, GA, 30115","Match","Exact","312 CABINWOOD TRL, CANTON, GA, 30115",627051051,"R"
166993,"312 CANYON COURT DR","OMAK","WA",98841,48.4070241090001,-119.539112299,493,"312 CANYON COURT DR, OMAK, WA, 98841","Match","Exact","312 CANYON COURT DR, OMAK, WA, 98841",157344805,"L"
166994,"312 CAPE FEAR WAY","WHITSETT","NC",27377,36.074489015,-79.556072953,494,"312 CAPE FEAR WAY, WHITSETT, NC, 27377","Match","Exact","312 CAPE FEAR WAY, WHITSETT, NC, 27377",639625058,"R"
166995,"312 CAPRICE COURT","LOVELAND","OH",45140,39.271943832,-84.2503705829999,495,"312 CAPRICE COURT, LOVELAND, OH, 45140","Match","Exact","312 CAPRICE CT, LOVELAND, OH, 45140",159039302,"R"
166996,"312 CARPENTER DAM ROAD","HOT SPRINGS NATIONAL","AR",71901,34.468913624,-93.020711739,496,"312 CARPENTER DAM ROAD, HOT SPRINGS NATIONAL, AR, 71901","Match","Non_Exact","312 CARPENTER DAM RD, HOT SPRINGS NATIONAL PARK, AR, 71901",650172977,"L"
166997,"312 CARPENTER DAM ROAD","HOT SPRINGS","AR",71901,34.468913624,-93.020711739,497,"312 CARPENTER DAM ROAD, HOT SPRINGS, AR, 71901","Match","Exact","312 CARPENTER DAM RD, HOT SPRINGS, AR, 71901",650172977,"L"
166998,"312 CHALFORD CT","FRANKLIN","TN",37069,36.0434569020001,-86.899203443,498,"312 CHALFORD CT, FRANKLIN, TN, 37069","Match","Exact","312 CHALFORD CT, FRANKLIN, TN, 37069",73123863,"L"
166999,"312 CHATHAM ST","NEWPORT","NC",28570,34.7940438520001,-76.859886887,499,"312 CHATHAM ST, NEWPORT, NC, 28570","Match","Exact","312 CHATHAM ST, NEWPORT, NC, 28570",33856538,"R"
167000,"312 CHESTER AVE","BAKERSFIELD","CA",93301,35.3593675700001,-119.018890984,500,"312 CHESTER AVE, BAKERSFIELD, CA, 93301","Match","Exact","312 CHESTER AVE, BAKERSFIELD, CA, 93301",109089174,"R"
