"ID","Address","City","State","Zip","lat","long","id","input_address","match_indicator","match_type","matched_address","tiger_line_id","tiger_side"
41501,"1245 S MICHIGAN AVE 184","CHICAGO","IL",60605,NA,NA,1,"1245 S MICHIGAN AVE 184, CHICAGO, IL, 60605","No_Match",NA,NA,NA,NA
41502,"1245 S MICHIGAN AVENUE UNIT 234","CHICAGO","IL",60605,NA,NA,2,"1245 S MICHIGAN AVENUE UNIT 234, CHICAGO, IL, 60605","No_Match",NA,NA,NA,NA
41503,"1245 SOUTH SUNBURY RD SUITE 102","WESTERVILLE","OH",43081,40.095051857,-82.891538623,3,"1245 SOUTH SUNBURY RD SUITE 102, WESTERVILLE, OH, 43081","Match","Non_Exact","1245 SUNBURY RD, WESTERVILLE, OH, 43081",135749689,"L"
41504,"1245 STANFORD AVE","ST PAUL","MN",55105,44.932388759,-93.152881064,4,"1245 STANFORD AVE, ST PAUL, MN, 55105","Match","Exact","1245 STANFORD AVE, SAINT PAUL, MN, 55105",97646514,"R"
41505,"1245 STARCROSS DRIVE","INDIANAPOLIS","IN",46239,39.753248007,-85.9843359929999,5,"1245 STARCROSS DRIVE, INDIANAPOLIS, IN, 46239","Match","Exact","1245 STARCROSS DR, INDIANAPOLIS, IN, 46239",624982064,"R"
41506,"1245 STONEFIELD CROSSING COURT","WINSTON SALEM","NC",27107,36.0833673930001,-80.19632913,6,"1245 STONEFIELD CROSSING COURT, WINSTON SALEM, NC, 27107","Match","Exact","1245 STONEFIELD CROSSING CT, WINSTON SALEM, NC, 27107",650209998,"L"
41507,"1245 SWAINSON ROAD","EATON","CO",80615,40.543077947,-104.703153678,7,"1245 SWAINSON ROAD, EATON, CO, 80615","Match","Exact","1245 SWAINSON RD, EATON, CO, 80615",188733739,"R"
41508,"1245 THRUSH AVENUE","MIAMI SPRINGS","FL",33166,25.838011135,-80.3048650859999,8,"1245 THRUSH AVENUE, MIAMI SPRINGS, FL, 33166","Match","Exact","1245 THRUSH AVE, MIAMI SPRINGS, FL, 33166",115958120,"R"
41509,"1245 TILIA ST","SAN MATEO","CA",94402,37.5502473280001,-122.325048484,9,"1245 TILIA ST, SAN MATEO, CA, 94402","Match","Exact","1245 TILIA ST, SAN MATEO, CA, 94402",192378250,"L"
41510,"1245 TOTTEN DRIVE","NEW ALBANY","OH",43054,40.049867394,-82.816498972,10,"1245 TOTTEN DRIVE, NEW ALBANY, OH, 43054","Match","Exact","1245 TOTTEN DR, NEW ALBANY, OH, 43054",218696798,"R"
41511,"1245 US HWY 27 S","SEBRING","FL",33825,27.473627725,-81.468859229,11,"1245 US HWY 27 S, SEBRING, FL, 33825","Match","Non_Exact","1245 US HWY 27 S, SEBRING, FL, 33870",647638145,"L"
41512,"1245 VAN NESS  AVENUE  PO BOX1438","FERNDALE","CA",95536,40.5880409100001,-124.255878713,12,"1245 VAN NESS  AVENUE  PO BOX1438, FERNDALE, CA, 95536","Match","Exact","1245 VAN NESS AVE, FERNDALE, CA, 95536",112995400,"R"
41513,"1245 W HAMILTON STREET","ALLENTOWN","PA",18102,40.5991057360001,-75.4830934349999,13,"1245 W HAMILTON STREET, ALLENTOWN, PA, 18102","Match","Exact","1245 W HAMILTON ST, ALLENTOWN, PA, 18102",80769824,"R"
41514,"1245 W PRINCESS STREET","YORK","PA",17404,39.95150217,-76.752663787,14,"1245 W PRINCESS STREET, YORK, PA, 17404","Match","Exact","1245 W PRINCESS ST, YORK, PA, 17404",88729669,"R"
41515,"1245 WEBB CIRCLE","CORONA","CA",92879,33.8755660900001,-117.54704352,15,"1245 WEBB CIRCLE, CORONA, CA, 92879","Match","Exact","1245 WEBB CIR, CORONA, CA, 92879",195094423,"R"
41516,"1245 WESTOVER AVE C4","NORFOLK","VA",23507,36.868117338,-76.307499945,16,"1245 WESTOVER AVE C4, NORFOLK, VA, 23507","Match","Exact","1245 WESTOVER AVE, NORFOLK, VA, 23507",122122557,"L"
41517,"12450 GLEN OAK ROAD","POWAY","CA",92064,32.9736643790001,-117.062146057,17,"12450 GLEN OAK ROAD, POWAY, CA, 92064","Match","Non_Exact","12450 GLENOAK RD, POWAY, CA, 92064",195316719,"L"
41518,"12450 HEATHGAGTE CT","JACKSONVILLE","FL",32225,NA,NA,18,"12450 HEATHGAGTE CT, JACKSONVILLE, FL, 32225","No_Match",NA,NA,NA,NA
41519,"12450 HEATHGATE CT","JACKSONVILLE","FL",32225,30.342202548,-81.480127958,19,"12450 HEATHGATE CT, JACKSONVILLE, FL, 32225","Match","Exact","12450 HEATHGATE CT, JACKSONVILLE, FL, 32225",627298080,"R"
41520,"12450 HWY 205","LAVON","TX",75166,32.9881540040001,-96.466780907,20,"12450 HWY 205, LAVON, TX, 75166","Match","Non_Exact","12450 STATE HWY 205, LAVON, TX, 75166",642474959,"L"
41521,"12450 JULIA ST","SEMINOLE","FL",33772,27.845372018,-82.8109864159999,21,"12450 JULIA ST, SEMINOLE, FL, 33772","Match","Exact","12450 JULIA ST, SEMINOLE, FL, 33772",124690377,"L"
41522,"12450 LAKEVIEW DRIVE","DADE CITY","FL",33525,28.3385521980001,-82.236415858,22,"12450 LAKEVIEW DRIVE, DADE CITY, FL, 33525","Match","Exact","12450 LAKEVIEW DR, DADE CITY, FL, 33525",86361226,"L"
41523,"12450 PERRY HIGHWAY","WEXFORD","PA",15090,40.6396590080001,-80.0648149949999,23,"12450 PERRY HIGHWAY, WEXFORD, PA, 15090","Match","Exact","12450 PERRY HWY, WEXFORD, PA, 15090",647506784,"R"
41524,"12451 CLARKSVILLE PIKE","CLARKSVILLE","MD",21029,39.205893556,-76.9429390189999,24,"12451 CLARKSVILLE PIKE, CLARKSVILLE, MD, 21029","Match","Exact","12451 CLARKSVILLE PIKE, CLARKSVILLE, MD, 21029",653294089,"L"
41525,"12452 HICKORY FOREST ROAD","JACKSONVILLE","FL",32226,30.4605516300001,-81.57347448,25,"12452 HICKORY FOREST ROAD, JACKSONVILLE, FL, 32226","Match","Exact","12452 HICKORY FOREST RD, JACKSONVILLE, FL, 32226",83963212,"L"
41526,"12452 RUSSELL CIR","GARDEN GROVE","CA",92843,33.768761039,-117.911882797,26,"12452 RUSSELL CIR, GARDEN GROVE, CA, 92843","Match","Exact","12452 RUSSELL CIR, GARDEN GROVE, CA, 92843",144039817,"R"
41527,"12453 STAMPEDE RD","MOODY","TX",76557,31.285548152,-97.415212703,27,"12453 STAMPEDE RD, MOODY, TX, 76557","Match","Exact","12453 STAMPEDE RD, MOODY, TX, 76557",146190295,"L"
41528,"12453 W BRIARWOOD DR","BOISE","ID",83713,43.631230617,-116.337345089,28,"12453 W BRIARWOOD DR, BOISE, ID, 83713","Match","Exact","12453 W BRIARWOOD DR, BOISE, ID, 83713",117854300,"L"
41529,"12454 MOSS HOLLOW RD","MARKHAM","VA",22643,38.8840403470001,-78.0294648939999,29,"12454 MOSS HOLLOW RD, MARKHAM, VA, 22643","Match","Exact","12454 MOSS HOLLOW RD, MARKHAM, VA, 22643",146302937,"L"
41530,"12454 PLAZA DRIVE","PARMA","OH",44130,41.400186768,-81.778276492,30,"12454 PLAZA DRIVE, PARMA, OH, 44130","Match","Exact","12454 PLAZA DR, PARMA, OH, 44130",650142311,"L"
41531,"12455 MYERS RD PO BOX 892","DALLAS","OR",97338,44.9755296110001,-123.283774781,31,"12455 MYERS RD PO BOX 892, DALLAS, OR, 97338","Match","Exact","12455 MYERS RD, DALLAS, OR, 97338",648162284,"R"
41532,"12456 KIBBIE LAKE WY","RANCHO CORDOVA","CA",95742,38.5586939900001,-121.206893226,32,"12456 KIBBIE LAKE WY, RANCHO CORDOVA, CA, 95742","Match","Exact","12456 KIBBIE LAKE WAY, RANCHO CORDOVA, CA, 95742",618061478,"R"
41533,"12456 LAKESIDE DRIVE","CONNEAUT LAKE","PA",16316,41.615170219,-80.284045701,33,"12456 LAKESIDE DRIVE, CONNEAUT LAKE, PA, 16316","Match","Exact","12456 LAKESIDE DR, CONNEAUT LAKE, PA, 16316",98576358,"R"
41534,"12456 SHADY BRIDGE TRAIL","JACKSONVILLE","FL",32258,30.1463049600001,-81.584078948,34,"12456 SHADY BRIDGE TRAIL, JACKSONVILLE, FL, 32258","Match","Exact","12456 SHADY BRIDGE TRL, JACKSONVILLE, FL, 32258",651725106,"L"
41535,"12456 VIA DIEGO","LAKESIDE","CA",92040,32.8361777690001,-116.917750955,35,"12456 VIA DIEGO, LAKESIDE, CA, 92040","Match","Exact","12456 VIA DIEGO, LAKESIDE, CA, 92040",195333061,"L"
41536,"12456 WEEPING BRANCH CIRCLE","JACKSONVILLE","FL",32218,30.459653852,-81.755435618,36,"12456 WEEPING BRANCH CIRCLE, JACKSONVILLE, FL, 32218","Match","Exact","12456 WEEPING BRANCH CIR, JACKSONVILLE, FL, 32218",641107206,"R"
41537,"12457 E VIA HERMOSA","YUMA","AZ",85367,NA,NA,37,"12457 E VIA HERMOSA, YUMA, AZ, 85367","No_Match",NA,NA,NA,NA
41538,"12457 OSPREY LANE UNIT 1","PLAYA VISTA","CA",90094,NA,NA,38,"12457 OSPREY LANE UNIT 1, PLAYA VISTA, CA, 90094","No_Match",NA,NA,NA,NA
41539,"12459 MANCHESTER WAY","WOODBRIDGE","VA",22192,38.6846814620001,-77.332821856,39,"12459 MANCHESTER WAY, WOODBRIDGE, VA, 22192","Match","Exact","12459 MANCHESTER WAY, WOODBRIDGE, VA, 22192",76532370,"R"
41540,"12459 S LOWE AVE","CHICAGO","IL",60628,41.6676903700001,-87.637946397,40,"12459 S LOWE AVE, CHICAGO, IL, 60628","Match","Exact","12459 S LOWE AVE, CHICAGO, IL, 60628",111834340,"L"
41541,"1245B EDWARD L GRANT HIGHWAY","BRONX","NY",10452,40.8374748700001,-73.922302018,41,"1245B EDWARD L GRANT HIGHWAY, BRONX, NY, 10452","Match","Exact","1245 EDWARD L GRANT HWY, BRONX, NY, 10452",80312590,"L"
41542,"1246 14TH ROAD","ELLSWORTH","KS",67439,38.7093300880001,-98.234560475,42,"1246 14TH ROAD, ELLSWORTH, KS, 67439","Match","Exact","1246 14TH RD, ELLSWORTH, KS, 67439",646039743,"L"
41543,"1246 BANNON AVENUE","LA PUENTE","CA",91744,34.0429231900001,-117.944172288,43,"1246 BANNON AVENUE, LA PUENTE, CA, 91744","Match","Exact","1246 BANNON AVE, LA PUENTE, CA, 91744",142781383,"R"
41544,"1246 BAYOU LACARPE ROAD","HOUMA","LA",70363,29.568606265,-90.7121058769999,44,"1246 BAYOU LACARPE ROAD, HOUMA, LA, 70363","Match","Exact","1246 BAYOU LACARPE RD, HOUMA, LA, 70363",92061754,"R"
41545,"1246 DEDI AVE","SOUTH LAKE TAHOE","CA",96150,38.9039102040001,-120.004096566,45,"1246 DEDI AVE, SOUTH LAKE TAHOE, CA, 96150","Match","Exact","1246 DEDI AVE, SOUTH LAKE TAHOE, CA, 96150",133015295,"L"
41546,"1246 DOUGLAS MACARTHUR STREET","ORANGEBURG","SC",29115,33.4746213290001,-80.8558422899999,46,"1246 DOUGLAS MACARTHUR STREET, ORANGEBURG, SC, 29115","Match","Non_Exact","1246 DOUGLAS MACARTHUR ST SW, ORANGEBURG, SC, 29115",19217971,"L"
41547,"1246 E CHARLESTON AVE","PHOENIX","AZ",85022,33.6490716770001,-112.05582713,47,"1246 E CHARLESTON AVE, PHOENIX, AZ, 85022","Match","Exact","1246 E CHARLESTON AVE, PHOENIX, AZ, 85022",128362379,"L"
41548,"1246 E GILMER DRIVE","SALT LAKE CITY","UT",84105,40.748527826,-111.85518286,48,"1246 E GILMER DRIVE, SALT LAKE CITY, UT, 84105","Match","Exact","1246 E GILMER DR, SALT LAKE CITY, UT, 84105",176118209,"R"
41549,"1246 EAST 72ND STREET APT B","BROOKLYN","NY",11234,40.6258085220001,-73.9133036009999,49,"1246 EAST 72ND STREET APT B, BROOKLYN, NY, 11234","Match","Exact","1246 E 72ND ST, BROOKLYN, NY, 11234",59098203,"R"
41550,"1246 EAST 72ND STREET","BROOKLYN","NY",11234,40.6258085220001,-73.9133036009999,50,"1246 EAST 72ND STREET, BROOKLYN, NY, 11234","Match","Exact","1246 E 72ND ST, BROOKLYN, NY, 11234",59098203,"R"
41551,"1246 HINES ROAD","LAGRANGE","GA",30241,33.0683843620001,-84.902909804,51,"1246 HINES ROAD, LAGRANGE, GA, 30241","Match","Exact","1246 HINES RD, LAGRANGE, GA, 30241",1774747,"L"
41552,"1246 KEIGER FARM ROAD","TOBACCOVILLE","NC",27050,36.2918588790001,-80.416832093,52,"1246 KEIGER FARM ROAD, TOBACCOVILLE, NC, 27050","Match","Exact","1246 KEIGER FARM RD, TOBACCOVILLE, NC, 27050",56330109,"R"
41553,"1246 LIBERTY BELL DRIVE","CHERRY HILL","NJ",8003,39.8806377000001,-74.9861135579999,53,"1246 LIBERTY BELL DRIVE, CHERRY HILL, NJ, 8003","Match","Exact","1246 LIBERTY BELL DR, CHERRY HILL, NJ, 08003",134358577,"L"
41554,"1246 LOTTIE LN NW","SALEM","OR",97304,44.952217681,-123.064331371,54,"1246 LOTTIE LN NW, SALEM, OR, 97304","Match","Exact","1246 LOTTIE LN NW, SALEM, OR, 97304",155779166,"R"
41555,"1246 LOWER MAIN ST","WAILUKU","HI",96793,20.8962854690001,-156.491915053,55,"1246 LOWER MAIN ST, WAILUKU, HI, 96793","Match","Exact","1246 LOWER MAIN ST, WAILUKU, HI, 96793",85088214,"R"
41556,"1246 N ARDEN CIRCLE","MESA","AZ",85205,33.4389117330001,-111.708653048,56,"1246 N ARDEN CIRCLE, MESA, AZ, 85205","Match","Exact","1246 N ARDEN CIR, MESA, AZ, 85205",128330772,"L"
41557,"1246 NE 12TH STREET","BEND","OR",97701,44.0625093460001,-121.289354611,57,"1246 NE 12TH STREET, BEND, OR, 97701","Match","Exact","1246 NE 12TH ST, BEND, OR, 97701",152553697,"R"
41558,"1246 NORTH 25TH STREET","PHILADELPHIA","PA",19121,39.974890418,-75.177014565,58,"1246 NORTH 25TH STREET, PHILADELPHIA, PA, 19121","Match","Exact","1246 N 25TH ST, PHILADELPHIA, PA, 19121",131405202,"L"
41559,"1246 P STREET","SACRAMENTO","CA",95814,38.5727545400001,-121.492907595,59,"1246 P STREET, SACRAMENTO, CA, 95814","Match","Exact","1246 P ST, SACRAMENTO, CA, 95814",133421629,"R"
41560,"1246 RIVERVIEW DR","ALMA","WI",54610,44.344318591,-91.923814835,60,"1246 RIVERVIEW DR, ALMA, WI, 54610","Match","Exact","1246 RIVERVIEW DR, ALMA, WI, 54610",635891197,"L"
41561,"1246 SILVER VALLEY ROAD","OSBURN","ID",83849,NA,NA,61,"1246 SILVER VALLEY ROAD, OSBURN, ID, 83849","No_Match",NA,NA,NA,NA
41562,"1246 VANE AVENUE","AKRON","OH",44310,41.0984289310001,-81.4807391429999,62,"1246 VANE AVENUE, AKRON, OH, 44310","Match","Exact","1246 VANE AVE, AKRON, OH, 44310",61350636,"L"
41563,"1246","TOLEDO","OH",43607,NA,NA,63,"1246, TOLEDO, OH, 43607","No_Match",NA,NA,NA,NA
41564,"12460 CRABAPPLE RD SUITE 202-150","ALPHARETTA","GA",30004,34.0859739220001,-84.354139813,64,"12460 CRABAPPLE RD SUITE 202-150, ALPHARETTA, GA, 30004","Match","Exact","12460 CRABAPPLE RD, ALPHARETTA, GA, 30004",642626477,"L"
41565,"12460 CRABAPPLE RD SUITE 202-316","ALPHARETTA","GA",30004,34.0859739220001,-84.354139813,65,"12460 CRABAPPLE RD SUITE 202-316, ALPHARETTA, GA, 30004","Match","Exact","12460 CRABAPPLE RD, ALPHARETTA, GA, 30004",642626477,"L"
41566,"12460 CRABAPPLE ROAD STE 202 503","ALPHARETTA","GA",30004,34.0859739220001,-84.354139813,66,"12460 CRABAPPLE ROAD STE 202 503, ALPHARETTA, GA, 30004","Match","Exact","12460 CRABAPPLE RD, ALPHARETTA, GA, 30004",642626477,"L"
41567,"12460 SILVER BAY CIRCLE","INDIANAPOLIS","IN",46236,39.9170340380001,-85.943627643,67,"12460 SILVER BAY CIRCLE, INDIANAPOLIS, IN, 46236","Match","Exact","12460 SILVER BAY CIR, INDIANAPOLIS, IN, 46236",108033640,"L"
41568,"12460 SW 8 ST UNIT 204","MIAMI","FL",33184,25.7609878440001,-80.396085983,68,"12460 SW 8 ST UNIT 204, MIAMI, FL, 33184","Match","Non_Exact","12460 SW 8TH ST, MIAMI, FL, 33184",641711254,"L"
41569,"12461 MCGREGOR PALMS DRIVE","FORT MYERS","FL",33908,26.5047073480001,-81.962405799,69,"12461 MCGREGOR PALMS DRIVE, FORT MYERS, FL, 33908","Match","Exact","12461 MCGREGOR PALMS DR, FORT MYERS, FL, 33908",118111103,"L"
41570,"12461 PENDRAGON WAY","MANASSAS","VA",20112,38.68341881,-77.4228764109999,70,"12461 PENDRAGON WAY, MANASSAS, VA, 20112","Match","Exact","12461 PENDRAGON WAY, MANASSAS, VA, 20112",634582578,"L"
41571,"12461 VETERANS MEMORIAL HWY STE 307","DOUGLASVILLE","GA",30134,NA,NA,71,"12461 VETERANS MEMORIAL HWY STE 307, DOUGLASVILLE, GA, 30134","No_Match",NA,NA,NA,NA
41572,"12461 VETERANS MEMORIAL HWY STE 566","DOUGLASSVILLE","GA",30134,NA,NA,72,"12461 VETERANS MEMORIAL HWY STE 566, DOUGLASSVILLE, GA, 30134","No_Match",NA,NA,NA,NA
41573,"12461 VETERANS MEMORIAL HWY","DOUGLASVILLE","GA",30134,NA,NA,73,"12461 VETERANS MEMORIAL HWY, DOUGLASVILLE, GA, 30134","No_Match",NA,NA,NA,NA
41574,"12463 RANCHO BERNARDO RD 523","SAN DIEGO","CA",92128,33.018658685,-117.061646382,74,"12463 RANCHO BERNARDO RD 523, SAN DIEGO, CA, 92128","Match","Exact","12463 RANCHO BERNARDO RD, SAN DIEGO, CA, 92128",195316286,"R"
41575,"12463 RANCHO BERNARDO RD STE 555","SAN DIEGO","CA",92128,33.018658685,-117.061646382,75,"12463 RANCHO BERNARDO RD STE 555, SAN DIEGO, CA, 92128","Match","Exact","12463 RANCHO BERNARDO RD, SAN DIEGO, CA, 92128",195316286,"R"
41576,"12463 S WABASH AVE","CHICAGO","IL",60628,41.66703929,-87.6211467699999,76,"12463 S WABASH AVE, CHICAGO, IL, 60628","Match","Exact","12463 S WABASH AVE, CHICAGO, IL, 60628",616792766,"L"
41577,"12465 N OWL HEAD CANYON RD","MARANA","AZ",85658,32.432906599,-111.082851557,77,"12465 N OWL HEAD CANYON RD, MARANA, AZ, 85658","Match","Exact","12465 N OWL HEAD CANYON RD, MARANA, AZ, 85658",627599296,"R"
41578,"12465 S FORT STREET SUITE 240","DRAPER","UT",84020,40.5241462540001,-111.864245847,78,"12465 S FORT STREET SUITE 240, DRAPER, UT, 84020","Match","Exact","12465 FORT ST, DRAPER, UT, 84020",176093104,"R"
41579,"12465 US HIGHWAY 64","SOMERVILLE","TN",38068,35.2346182530001,-89.423904674,79,"12465 US HIGHWAY 64, SOMERVILLE, TN, 38068","Match","Exact","12465 US HWY 64, SOMERVILLE, TN, 38068",608441761,"L"
41580,"12466 BALSTON ROAD","PHILADELPHIA","PA",19154,40.0991174910001,-74.9766959249999,80,"12466 BALSTON ROAD, PHILADELPHIA, PA, 19154","Match","Exact","12466 BALSTON RD, PHILADELPHIA, PA, 19154",131441448,"R"
41581,"12466 BROAD OAKS DRIVE","COLORADO SPRINGS","CO",80921,39.0128834930001,-104.801455182,81,"12466 BROAD OAKS DRIVE, COLORADO SPRINGS, CO, 80921","Match","Exact","12466 BROAD OAKS DR, COLORADO SPRINGS, CO, 80921",610685993,"R"
41582,"12466 LOS INDIOS TRL STE 200","AUSTIN","TX",78729,NA,NA,82,"12466 LOS INDIOS TRL STE 200, AUSTIN, TX, 78729","No_Match",NA,NA,NA,NA
41583,"12466 SCENIC VIEW COURT","MILFORD","MI",48380,42.561983808,-83.699344712,83,"12466 SCENIC VIEW COURT, MILFORD, MI, 48380","Match","Exact","12466 SCENIC VIEW CT, MILFORD, MI, 48380",23560891,"L"
41584,"12466 SILVERLAKES CT","MIRA LOMA","CA",91752,33.9668216630001,-117.555017887,84,"12466 SILVERLAKES CT, MIRA LOMA, CA, 91752","Match","Exact","12466 SILVERLAKES CT, MIRA LOMA, CA, 91752",608989005,"L"
41585,"12469 WEST HALL PLACE","WELLINGTON","FL",33414,26.6722000780001,-80.241726704,85,"12469 WEST HALL PLACE, WELLINGTON, FL, 33414","Match","Non_Exact","12469 WESTHALL PL, WELLINGTON, FL, 33414",115265233,"R"
41586,"1247 33RD ST","DES MOINES","IA",50311,41.6026642260001,-93.662038531,86,"1247 33RD ST, DES MOINES, IA, 50311","Match","Exact","1247 33RD ST, DES MOINES, IA, 50311",65780401,"R"
41587,"1247 35TH STREET NW","WASHINGTON","DC",20007,38.906078284,-77.0689746429999,87,"1247 35TH STREET NW, WASHINGTON, DC, 20007","Match","Exact","1247 35TH ST NW, WASHINGTON, DC, 20007",76224829,"R"
41588,"1247 BALSAM ROAD","WELLSBORO","PA",16901,41.7141981350001,-77.349720878,88,"1247 BALSAM ROAD, WELLSBORO, PA, 16901","Match","Exact","1247 BALSAM RD, WELLSBORO, PA, 16901",189662573,"R"
41589,"1247 BEACON ST APT 3","BROOKLINE","MA",2446,42.3429599020001,-71.117812976,89,"1247 BEACON ST APT 3, BROOKLINE, MA, 2446","Match","Exact","1247 BEACON ST, BROOKLINE, MA, 02446",87244495,"L"
41590,"1247 BLACKBERRY RIDGE RD","HIGH POINT","NC",27265,36.0584534160001,-79.9795821709999,90,"1247 BLACKBERRY RIDGE RD, HIGH POINT, NC, 27265","Match","Non_Exact","1247 BLACKBERRY RIDGE DR, HIGH POINT, NC, 27265",131080794,"R"
41591,"1247 CAMINO DEL LAGO","SAN MARCOS","CA",92078,33.1214448000001,-117.210138656,91,"1247 CAMINO DEL LAGO, SAN MARCOS, CA, 92078","Match","Non_Exact","1247 CMNO DEL LAGO, SAN MARCOS, CA, 92078",195295597,"L"
41592,"1247 CHESTERFIELD LN","GRAYSLAKE","IL",60030,42.3647964940001,-88.055388957,92,"1247 CHESTERFIELD LN, GRAYSLAKE, IL, 60030","Match","Exact","1247 CHESTERFIELD LN, GRAYSLAKE, IL, 60030",119698883,"L"
41593,"1247 CROSS STREET","OGDEN","UT",84404,41.2472578220001,-111.946219056,93,"1247 CROSS STREET, OGDEN, UT, 84404","Match","Exact","1247 CROSS ST, OGDEN, UT, 84404",155697577,"R"
41594,"1247 E COLUMBIA AVE APT 4","PHILADELPHIA","PA",19125,39.971207678,-75.130994054,94,"1247 E COLUMBIA AVE APT 4, PHILADELPHIA, PA, 19125","Match","Non_Exact","1247 E COLUMBIA AVE, PHILADELPHIA, PA, 19125",131425603,"R"
41595,"1247 E SHADY LANE","NEENAH","WI",54956,44.2288404560001,-88.489853437,95,"1247 E SHADY LANE, NEENAH, WI, 54956","Match","Exact","1247 SHADY LN, NEENAH, WI, 54956",74519195,"L"
41596,"1247 EAST STATE ST","TRENTON","NJ",8609,40.227733168,-74.738039219,96,"1247 EAST STATE ST, TRENTON, NJ, 8609","Match","Exact","1247 E STATE ST, TRENTON, NJ, 08609",60181091,"R"
41597,"1247 GASKINS RD APT M","HENRICO","VA",23228,37.5992854840001,-77.592002141,97,"1247 GASKINS RD APT M, HENRICO, VA, 23228","Match","Non_Exact","1247 GASKINS RD, HENRICO, VA, 23238",106685090,"R"
41598,"1247 GATEMOUTH MOORE RD","YAZOO CITY","MS",39194,NA,NA,98,"1247 GATEMOUTH MOORE RD, YAZOO CITY, MS, 39194","Tie",NA,NA,NA,NA
41599,"1247 MARA COURT","ATLANTIC BEACH","NY",11509,40.588308544,-73.707492906,99,"1247 MARA COURT, ATLANTIC BEACH, NY, 11509","Match","Exact","1247 MARA CT, ATLANTIC BEACH, NY, 11509",147679224,"L"
41600,"1247 NW 95TH ST","MIAMI","FL",33147,25.861558012,-80.217663508,100,"1247 NW 95TH ST, MIAMI, FL, 33147","Match","Exact","1247 NW 95TH ST, MIAMI, FL, 33147",641746173,"R"
41601,"1247 REDWOOD TERRACE - PO BOX 267","POCONO PINES","PA",18350,41.123926366,-75.452931485,101,"1247 REDWOOD TERRACE - PO BOX 267, POCONO PINES, PA, 18350","Match","Exact","1247 REDWOOD TER, POCONO PINES, PA, 18350",136755269,"L"
41602,"1247 RETURN CHURCH ROAD","SENECA","SC",29678,34.6276387020001,-83.0260846529999,102,"1247 RETURN CHURCH ROAD, SENECA, SC, 29678","Match","Exact","1247 RETURN CHURCH RD, SENECA, SC, 29678",25638540,"R"
41603,"1247 ROCKY RD","MECHANICSBURG","PA",17055,40.2071447060001,-76.972760598,103,"1247 ROCKY RD, MECHANICSBURG, PA, 17055","Match","Exact","1247 ROCKY RD, MECHANICSBURG, PA, 17055",60956775,"L"
41604,"1247 ROYAL OAK DR","DUNEDIN","FL",34698,28.035006777,-82.771461213,104,"1247 ROYAL OAK DR, DUNEDIN, FL, 34698","Match","Exact","1247 ROYAL OAK DR, DUNEDIN, FL, 34698",124665039,"R"
41605,"1247 RUSSELL AVE","LOS ALTOS","CA",94024,37.3607398340001,-122.089722802,105,"1247 RUSSELL AVE, LOS ALTOS, CA, 94024","Match","Exact","1247 RUSSELL AVE, LOS ALTOS, CA, 94024",122934523,"L"
41606,"1247 S ARKANSAS AVE","VAN BUREN","AR",72956,35.417019521,-94.2497778279999,106,"1247 S ARKANSAS AVE, VAN BUREN, AR, 72956","Match","Exact","1247 S ARKANSAS AVE, VAN BUREN, AR, 72956",53478263,"R"
41607,"1247 S CEDAR CREST BLVD STE 100","ALLENTOWN","PA",18103,40.5654821800001,-75.518304034,107,"1247 S CEDAR CREST BLVD STE 100, ALLENTOWN, PA, 18103","Match","Non_Exact","1247 S CEDAR CREST BLVD, ALLENTOWN, PA, 18103",80803160,"L"
41608,"1247 TOM HUNTER ROAD","CHARLOTTE","NC",28213,35.277011074,-80.7877084259999,108,"1247 TOM HUNTER ROAD, CHARLOTTE, NC, 28213","Match","Exact","1247 TOM HUNTER RD, CHARLOTTE, NC, 28213",640628932,"L"
41609,"1247 WAGON WHEEL RD","DEL NORTE","CO",81132,37.612704691,-106.380081142,109,"1247 WAGON WHEEL RD, DEL NORTE, CO, 81132","Match","Exact","1247 WAGON WHEEL RD, DEL NORTE, CO, 81132",633322737,"L"
41610,"1247 WEST MAN OF WAR COVE","SOUTH JORDAN","UT",84095,40.5461825740001,-111.928013978,110,"1247 WEST MAN OF WAR COVE, SOUTH JORDAN, UT, 84095","Match","Exact","1247 W MAN OF WAR COVE, SOUTH JORDAN, UT, 84095",176135676,"R"
41611,"12470 OLD CEDAR POINT ROAD","CODEN","AL",36523,30.4315982590001,-88.110637174,111,"12470 OLD CEDAR POINT ROAD, CODEN, AL, 36523","Match","Exact","12470 OLD CEDAR POINT RD, CODEN, AL, 36523",61963052,"L"
41612,"12470 SW 185TH ST","MIAMI","FL",33177,25.5964337720001,-80.394392947,112,"12470 SW 185TH ST, MIAMI, FL, 33177","Match","Exact","12470 SW 185TH ST, MIAMI, FL, 33177",115989186,"L"
41613,"12471 BULLIS ROAD","EAST AURORA","NY",14052,42.8422069910001,-78.522966519,113,"12471 BULLIS ROAD, EAST AURORA, NY, 14052","Match","Exact","12471 BULLIS RD, EAST AURORA, NY, 14052",48345513,"R"
41614,"12471 LARIMER AVE","NORTH HUNTINGDON","PA",15642,40.3422569730001,-79.740587154,114,"12471 LARIMER AVE, NORTH HUNTINGDON, PA, 15642","Match","Exact","12471 LARIMER AVE, N HUNTINGDON, PA, 15642",53012102,"R"
41615,"12471 LITTLE MORONGO RD","DESERT HOT SPRINGS","CA",92240,33.9582018180001,-116.527612377,115,"12471 LITTLE MORONGO RD, DESERT HOT SPRINGS, CA, 92240","Match","Exact","12471 LITTLE MORONGO RD, DESERT HOT SPRINGS, CA, 92240",608983047,"L"
41616,"12471 PASEO CERRO","SARATOGA","CA",95070,37.2865509640001,-121.995997509,116,"12471 PASEO CERRO, SARATOGA, CA, 95070","Match","Non_Exact","12471 PSO CERRO, SARATOGA, CA, 95070",122900241,"R"
41617,"12472 CLINTON ROAD","DOYLESTOWN","OH",44230,40.9504186280001,-81.674531304,117,"12472 CLINTON ROAD, DOYLESTOWN, OH, 44230","Match","Exact","12472 CLINTON RD, DOYLESTOWN, OH, 44230",635801896,"L"
41618,"12472 E CAMINO AMBATO","VAIL","AZ",85641,NA,NA,118,"12472 E CAMINO AMBATO, VAIL, AZ, 85641","No_Match",NA,NA,NA,NA
41619,"12472 HAND ST","CARLETON","MI",48117,42.057023434,-83.3878920719999,119,"12472 HAND ST, CARLETON, MI, 48117","Match","Exact","12472 HAND ST, CARLETON, MI, 48117",623817294,"R"
41620,"12472 LAKE UNDERHILL RD  SUITE 504","ORLANDO","FL",32828,28.546771425,-81.201539973,120,"12472 LAKE UNDERHILL RD  SUITE 504, ORLANDO, FL, 32828","Match","Exact","12472 LAKE UNDERHILL RD, ORLANDO, FL, 32828",641064762,"R"
41621,"12472 LAKE UNDERHILL RD 417","ORLANDO","FL",32828,28.546771425,-81.201539973,121,"12472 LAKE UNDERHILL RD 417, ORLANDO, FL, 32828","Match","Exact","12472 LAKE UNDERHILL RD, ORLANDO, FL, 32828",641064762,"R"
41622,"12472 LAKE UNDERHILL RD SUITE 314","ORLANDO","FL",32828,28.546771425,-81.201539973,122,"12472 LAKE UNDERHILL RD SUITE 314, ORLANDO, FL, 32828","Match","Exact","12472 LAKE UNDERHILL RD, ORLANDO, FL, 32828",641064762,"R"
41623,"12472 LAKE UNDERHILL ROAD 454","ORLANDO","FL",32828,28.546771425,-81.201539973,123,"12472 LAKE UNDERHILL ROAD 454, ORLANDO, FL, 32828","Match","Exact","12472 LAKE UNDERHILL RD, ORLANDO, FL, 32828",641064762,"R"
41624,"12473 E NUNN RD","ATHOL","ID",83801,47.9039648660001,-116.616885414,124,"12473 E NUNN RD, ATHOL, ID, 83801","Match","Exact","12473 E NUNN RD, ATHOL, ID, 83801",649943596,"R"
41625,"12473 PENDRAGON WAY","MANASSAS","VA",20112,38.683339253,-77.4232057469999,125,"12473 PENDRAGON WAY, MANASSAS, VA, 20112","Match","Exact","12473 PENDRAGON WAY, MANASSAS, VA, 20112",634582578,"L"
41626,"12474 BRANTLEY COMMONS COURT","FORT MYERS","FL",33907,26.5615229790001,-81.882852343,126,"12474 BRANTLEY COMMONS COURT, FORT MYERS, FL, 33907","Match","Exact","12474 BRANTLEY COMMONS CT, FORT MYERS, FL, 33907",618018481,"R"
41627,"12474 TIPPERARY ST","BUFFALO","SD",57720,45.5887959390001,-103.550574414,127,"12474 TIPPERARY ST, BUFFALO, SD, 57720","Match","Exact","12474 TIPPERARY ST, BUFFALO, SD, 57720",197376445,"R"
41628,"12474 TURTLE DOVE PLACE","WALDORF","MD",20602,38.6103440270001,-76.8777242479999,128,"12474 TURTLE DOVE PLACE, WALDORF, MD, 20602","Match","Exact","12474 TURTLE DOVE PL, WALDORF, MD, 20602",25383674,"R"
41629,"12475 COCKSPUR COURT","EDEN PRAIRIE","MN",55347,44.841962262,-93.435063473,129,"12475 COCKSPUR COURT, EDEN PRAIRIE, MN, 55347","Match","Exact","12475 COCKSPUR CT, EDEN PRAIRIE, MN, 55347",43809842,"R"
41630,"12476 NORMA LANE","ST LOUIS","MO",63138,38.801603426,-90.2237372769999,130,"12476 NORMA LANE, ST LOUIS, MO, 63138","Match","Exact","12476 NORMA LN, SAINT LOUIS, MO, 63138",604555444,"L"
41631,"12477 SCENIC VIEW CT","MILFORD","MI",48380,42.5619303720001,-83.699166396,131,"12477 SCENIC VIEW CT, MILFORD, MI, 48380","Match","Exact","12477 SCENIC VIEW CT, MILFORD, MI, 48380",23560891,"R"
41632,"12478 COUNTY ROAD 29","DOLORES","CO",81323,37.3927173060001,-108.517523401,132,"12478 COUNTY ROAD 29, DOLORES, CO, 81323","Match","Exact","12478 CO RD 29, DOLORES, CO, 81323",605783097,"R"
41633,"12478 E COUNTY ROAD 700 S","SHERIDAN","IN",46069,40.187162691,-86.2713748959999,133,"12478 E COUNTY ROAD 700 S, SHERIDAN, IN, 46069","Match","Exact","12478 E CO RD 700 S, SHERIDAN, IN, 46069",27230978,"L"
41634,"1248 BANCROFT RD","KELLER","TX",76248,32.9489408360001,-97.2233353619999,134,"1248 BANCROFT RD, KELLER, TX, 76248","Match","Exact","1248 BANCROFT RD, KELLER, TX, 76248",102175886,"L"
41635,"1248 BOOTH BRANCH RD","GRUNDY","VA",24614,37.281867187,-82.059196909,135,"1248 BOOTH BRANCH RD, GRUNDY, VA, 24614","Match","Exact","1248 BOOTH BRANCH RD, GRUNDY, VA, 24614",648967202,"L"
41636,"1248 BURNETT ST","BERKELEY","CA",94702,37.8533090350001,-122.28547525,136,"1248 BURNETT ST, BERKELEY, CA, 94702","Match","Exact","1248 BURNETT ST, BERKELEY, CA, 94702",124994260,"R"
41637,"1248 CANVASBACK","AUBREY","TX",76227,33.2271443160001,-96.93901304,137,"1248 CANVASBACK, AUBREY, TX, 76227","Match","Non_Exact","1248 CANVASBACK DR, AUBREY, TX, 76227",218074754,"R"
41638,"1248 CHALLEN AVENUE","JACKSONVILLE","FL",32205,30.3072722260001,-81.7109650419999,138,"1248 CHALLEN AVENUE, JACKSONVILLE, FL, 32205","Match","Exact","1248 CHALLEN AVE, JACKSONVILLE, FL, 32205",83913151,"R"
41639,"1248 CRESTFIELD DRIVE","WILLIAMSPORT","PA",17701,41.27076457,-76.9809333969999,139,"1248 CRESTFIELD DRIVE, WILLIAMSPORT, PA, 17701","Match","Exact","1248 CRESTFIELD DR, WILLIAMSPORT, PA, 17701",59456707,"R"
41640,"1248 CULLIGAN LANE","MENDOTA HEIGHTS","MN",55118,44.886958081,-93.156040952,140,"1248 CULLIGAN LANE, MENDOTA HEIGHTS, MN, 55118","Match","Exact","1248 CULLIGAN LN, MENDOTA HEIGHTS, MN, 55118",37939115,"L"
41641,"1248 E HILLSBOROUGH AVE","TAMPA","FL",33604,27.9960770920001,-82.447264465,141,"1248 E HILLSBOROUGH AVE, TAMPA, FL, 33604","Match","Exact","1248 E HILLSBOROUGH AVE, TAMPA, FL, 33604",104522211,"L"
41642,"1248 EAST 2000 NORTH","VERNAL","UT",84078,40.485254888,-109.505379684,142,"1248 EAST 2000 NORTH, VERNAL, UT, 84078","Match","Exact","1248 E 2000 N, VERNAL, UT, 84078",126117895,"L"
41643,"1248 FOX CREST WAY","CHARLOTTESVILLE","VA",22902,38.003718178,-78.504674732,143,"1248 FOX CREST WAY, CHARLOTTESVILLE, VA, 22902","Match","Exact","1248 FOX CREST WAY, CHARLOTTESVILLE, VA, 22902",83379372,"R"
41644,"1248 HAYNES ROAD","MEMPHIS","TN",38114,35.097989925,-89.965771559,144,"1248 HAYNES ROAD, MEMPHIS, TN, 38114","Match","Non_Exact","1248 HAYNES ST, MEMPHIS, TN, 38114",72918284,"L"
41645,"1248 HERON LAKES CIRCLE","MOBILE","AL",36693,30.6401142870001,-88.131263344,145,"1248 HERON LAKES CIRCLE, MOBILE, AL, 36693","Match","Exact","1248 HERON LAKES CIR, MOBILE, AL, 36693",61995976,"R"
41646,"1248 HIGHBRIDGE ROAD","SCHENECTADY","NY",12303,42.7698078350001,-73.9158712609999,146,"1248 HIGHBRIDGE ROAD, SCHENECTADY, NY, 12303","Match","Exact","1248 HIGHBRIDGE RD, SCHENECTADY, NY, 12303",18036482,"L"
41647,"1248 IRVING ST NW","WASHINGTON","DC",20010,38.9286293260001,-77.029063213,147,"1248 IRVING ST NW, WASHINGTON, DC, 20010","Match","Exact","1248 IRVING ST NW, WASHINGTON, DC, 20010",76224098,"L"
41648,"1248 KENESAW VILLAGE DRIVE","LEXINGTON","KY",40515,37.959720584,-84.4823564329999,148,"1248 KENESAW VILLAGE DRIVE, LEXINGTON, KY, 40515","Match","Exact","1248 KENESAW VILLAGE DR, LEXINGTON, KY, 40515",31934168,"R"
41649,"1248 KONDOS AVENUE","SACRAMENTO","CA",95814,38.572204689,-121.493115853,149,"1248 KONDOS AVENUE, SACRAMENTO, CA, 95814","Match","Exact","1248 KONDOS AVE, SACRAMENTO, CA, 95814",133421699,"R"
41650,"1248 LAWRY AVENUE","LAS VEGAS","NV",89106,36.198442959,-115.157882614,150,"1248 LAWRY AVENUE, LAS VEGAS, NV, 89106","Match","Exact","1248 LAWRY AVE, LAS VEGAS, NV, 89106",201863989,"R"
41651,"1248 LINCOLN AVENUE","SHEBOYGAN","WI",53081,43.764803966,-87.720777886,151,"1248 LINCOLN AVENUE, SHEBOYGAN, WI, 53081","Match","Exact","1248 LINCOLN AVE, SHEBOYGAN, WI, 53081",79496629,"R"
41652,"1248 LOUISE STREET","PINCKNEY","MI",48169,42.425605089,-83.920856661,152,"1248 LOUISE STREET, PINCKNEY, MI, 48169","Match","Exact","1248 LOUISE ST, PINCKNEY, MI, 48169",640411644,"L"
41653,"1248 LOWELL STREET","SEASIDE","CA",93955,36.603427912,-121.836592461,153,"1248 LOWELL STREET, SEASIDE, CA, 93955","Match","Exact","1248 LOWELL ST, SEASIDE, CA, 93955",196821299,"R"
41654,"1248 N SCARLET DR","ADDISON","IL",60101,41.9516268200001,-88.027022239,154,"1248 N SCARLET DR, ADDISON, IL, 60101","Match","Exact","1248 SCARLET DR, ADDISON, IL, 60101",112593979,"L"
41655,"1248 S 19TH STREET","PHILADELPHIA","PA",19146,39.935597187,-75.1754520169999,155,"1248 S 19TH STREET, PHILADELPHIA, PA, 19146","Match","Exact","1248 S 19TH ST, PHILADELPHIA, PA, 19146",131411084,"R"
41656,"1248 SALEM STREET","NORTH ANDOVER","MA",1845,42.658794685,-71.069298251,156,"1248 SALEM STREET, NORTH ANDOVER, MA, 1845","Match","Exact","1248 SALEM ST, NORTH ANDOVER, MA, 01845",86704073,"L"
41657,"1248 SECOND NH TPKE","WINDSOR","NH",3244,43.1431921070001,-72.017494738,157,"1248 SECOND NH TPKE, WINDSOR, NH, 3244","Match","Exact","1248 2ND NH TPKE, WINDSOR, NH, 03244",113528252,"R"
41658,"1248 URSULA ST","AURORA","CO",80011,39.7354152400001,-104.838070279,158,"1248 URSULA ST, AURORA, CO, 80011","Match","Exact","1248 URSULA ST, AURORA, CO, 80011",177350854,"R"
41659,"1248 VALERIAN COURT APT 1","SUNNYVALE","CA",94086,37.3540982910001,-122.006687445,159,"1248 VALERIAN COURT APT 1, SUNNYVALE, CA, 94086","Match","Exact","1248 VALERIAN CT, SUNNYVALE, CA, 94086",123001696,"R"
41660,"1248 W FOUNTAIN WAY","FRESNO","CA",93705,36.7811429270001,-119.82585167,160,"1248 W FOUNTAIN WAY, FRESNO, CA, 93705","Match","Exact","1248 W FOUNTAIN WAY, FRESNO, CA, 93705",197569333,"R"
41661,"1248 W LEXINGTON STREET UPPR","CHICAGO","IL",60607,41.8722292320001,-87.658771298,161,"1248 W LEXINGTON STREET UPPR, CHICAGO, IL, 60607","Match","Non_Exact","1248 W LEXINGTON ST, CHICAGO, IL, 60607",111802803,"L"
41662,"1248 W ROAD 2 SOUTH","CHINO VALLEY","AZ",86323,34.731023442,-112.469377636,162,"1248 W ROAD 2 SOUTH, CHINO VALLEY, AZ, 86323","Match","Exact","1248 W RD 2 S, CHINO VALLEY, AZ, 86323",159451333,"R"
41663,"1248 WATERVIEW STREET","FAR ROCKAWAY","NY",11691,NA,NA,163,"1248 WATERVIEW STREET, FAR ROCKAWAY, NY, 11691","No_Match",NA,NA,NA,NA
41664,"1248 WHITE PLAINS RD","BRONX","NY",10472,40.8316482430001,-73.862114654,164,"1248 WHITE PLAINS RD, BRONX, NY, 10472","Match","Exact","1248 WHITE PLAINS RD, BRONX, NY, 10472",80312697,"R"
41665,"1248 WINDFALL FARM LANE","HARTSVILLE","SC",29550,34.353589426,-80.033540164,165,"1248 WINDFALL FARM LANE, HARTSVILLE, SC, 29550","Match","Exact","1248 WINDFALL FARM LN, HARTSVILLE, SC, 29550",78410650,"R"
41666,"12480 SW 58TH STREET","MARTELL","NE",68404,40.6903297910001,-96.799963688,166,"12480 SW 58TH STREET, MARTELL, NE, 68404","Match","Exact","12480 SW 58TH ST, MARTELL, NE, 68404",28246994,"R"
41667,"12481 JARVIS AVE NW","ANNANDALE","MN",55302,45.3320464290001,-94.076138852,167,"12481 JARVIS AVE NW, ANNANDALE, MN, 55302","Match","Exact","12481 JARVIS AVE NW, ANNANDALE, MN, 55302",43994123,"L"
41668,"12481 PORT REPUBLIC RD","GROTTOES","VA",24441,38.273637906,-78.7928074989999,168,"12481 PORT REPUBLIC RD, GROTTOES, VA, 24441","Match","Exact","12481 PORT REPUBLIC RD, GROTTOES, VA, 24441",649989650,"R"
41669,"12481 W FIELDING CIRCLE  SUITE 314","PLAYA VISTA","CA",90094,33.9792685370001,-118.410961598,169,"12481 W FIELDING CIRCLE  SUITE 314, PLAYA VISTA, CA, 90094","Match","Exact","12481 FIELDING CIR, PLAYA VISTA, CA, 90094",648178458,"R"
41670,"12483 ALFA ROMEO WAY SUITE","FRISCO","TX",75033,33.1826421440001,-96.877306571,170,"12483 ALFA ROMEO WAY SUITE, FRISCO, TX, 75033","Match","Exact","12483 ALFA ROMEO WAY, FRISCO, TX, 75033",103412806,"R"
41671,"12484 ABRAMS ROAD SUITE 2202","DALLAS","TX",75243,32.9174524650001,-96.7353652099999,171,"12484 ABRAMS ROAD SUITE 2202, DALLAS, TX, 75243","Match","Exact","12484 ABRAMS RD, DALLAS, TX, 75243",103248564,"R"
41672,"12484 OLD MILL DRIVE","GEISMAR","LA",70734,30.252972599,-90.985523278,172,"12484 OLD MILL DRIVE, GEISMAR, LA, 70734","Match","Exact","12484 OLD MILL DR, GEISMAR, LA, 70734",115040782,"R"
41673,"12484 SW BROADWAY ST","BEAVERTON","OR",97005,45.487415846,-122.805273129,173,"12484 SW BROADWAY ST, BEAVERTON, OR, 97005","Match","Exact","12484 SW BROADWAY ST, BEAVERTON, OR, 97005",158185849,"L"
41674,"12485 QUEENSBURY AVENUE","BATON ROUGE","LA",70815,30.4434909660001,-91.045632929,174,"12485 QUEENSBURY AVENUE, BATON ROUGE, LA, 70815","Match","Exact","12485 QUEENSBURY AVE, BATON ROUGE, LA, 70815",92191695,"L"
41675,"12485 SOUTH CONNECTOR BLVD","LUSBY","MD",20657,NA,NA,175,"12485 SOUTH CONNECTOR BLVD, LUSBY, MD, 20657","No_Match",NA,NA,NA,NA
41676,"12485 SOUTHERN CONNECTOR BLVD","LUSBY","MD",20657,NA,NA,176,"12485 SOUTHERN CONNECTOR BLVD, LUSBY, MD, 20657","No_Match",NA,NA,NA,NA
41677,"12485 SW 137TH AVE   STE 212","MIAMI","FL",33186,NA,NA,177,"12485 SW 137TH AVE   STE 212, MIAMI, FL, 33186","No_Match",NA,NA,NA,NA
41678,"12488 HEATHERSTONE PLACE","CARMEL","IN",46033,39.9705084080001,-86.085864779,178,"12488 HEATHERSTONE PLACE, CARMEL, IN, 46033","Match","Exact","12488 HEATHERSTONE PL, CARMEL, IN, 46033",29311306,"L"
41679,"12489 OLIVE LN","SANTA FE SPRINGS","CA",90670,33.9395676870001,-118.065957959,179,"12489 OLIVE LN, SANTA FE SPRINGS, CA, 90670","Match","Exact","12489 OLIVE LN, SANTA FE SPRINGS, CA, 90670",647640641,"L"
41680,"12489 TROPIC DR E","JACKSONVILLE","FL",32225,30.3233179490001,-81.483119893,180,"12489 TROPIC DR E, JACKSONVILLE, FL, 32225","Match","Non_Exact","12489 TROPIC DR, JACKSONVILLE, FL, 32225",641008366,"L"
41681,"1249 26TH ST","SANTA MONICA","CA",90404,34.035135369,-118.476403633,181,"1249 26TH ST, SANTA MONICA, CA, 90404","Match","Exact","1249 26TH ST, SANTA MONICA, CA, 90404",142717300,"L"
41682,"1249 BLALOCK RD SUITE E","HOUSTON","TX",77055,29.7917596880001,-95.5217750319999,182,"1249 BLALOCK RD SUITE E, HOUSTON, TX, 77055","Match","Exact","1249 BLALOCK RD, HOUSTON, TX, 77055",96630890,"L"
41683,"1249 CARBON LOOP","VILLE PLATTE","LA",70586,30.733063272,-92.247897231,183,"1249 CARBON LOOP, VILLE PLATTE, LA, 70586","Match","Exact","1249 CARBON LOOP, VILLE PLATTE, LA, 70586",13192698,"L"
41684,"1249 CELEBRATION BLVD","FLORENCE","SC",29501,34.171837414,-79.8325056319999,184,"1249 CELEBRATION BLVD, FLORENCE, SC, 29501","Match","Exact","1249 CELEBRATION BLVD, FLORENCE, SC, 29501",645421198,"R"
41685,"1249 CENTER ST","WAVERLY","FL",33877,27.986333216,-81.612919457,185,"1249 CENTER ST, WAVERLY, FL, 33877","Match","Exact","1249 CENTER ST, WAVERLY, FL, 33877",104911388,"L"
41686,"1249 E CARLA VISTA COURT","GILBERT","AZ",85295,33.311090311,-111.762195417,186,"1249 E CARLA VISTA COURT, GILBERT, AZ, 85295","Match","Exact","1249 E CARLA VISTA CT, GILBERT, AZ, 85295",128810381,"L"
41687,"1249 E OCEAN BLVD 2","LONG BEACH","CA",90802,33.7655159350001,-118.176169428,187,"1249 E OCEAN BLVD 2, LONG BEACH, CA, 90802","Match","Non_Exact","1249 E OCEAN BLVD, LONG BEACH, CA, 90802",141695162,"L"
41688,"1249 E VERNON AVE","LOS ANGELES","CA",90011,34.0039114580001,-118.253368378,188,"1249 E VERNON AVE, LOS ANGELES, CA, 90011","Match","Exact","1249 E VERNON AVE, LOS ANGELES, CA, 90011",141620199,"L"
41689,"1249 EAST JOHN STREET","EVANSVILLE","IN",47714,37.976306885,-87.541599957,189,"1249 EAST JOHN STREET, EVANSVILLE, IN, 47714","Match","Exact","1249 E JOHN ST, EVANSVILLE, IN, 47714",39801065,"R"
41690,"1249 ELDEN ST SUITE 304","HERNDON","VA",20170,38.96190389,-77.399642447,190,"1249 ELDEN ST SUITE 304, HERNDON, VA, 20170","Match","Exact","1249 ELDEN ST, HERNDON, VA, 20170",638241494,"L"
41691,"1249 ELLSWORTH DRIVE NW SUITE 118","ATLANTA","GA",30318,33.7890424140001,-84.427603215,191,"1249 ELLSWORTH DRIVE NW SUITE 118, ATLANTA, GA, 30318","Match","Exact","1249 ELLSWORTH DR NW, ATLANTA, GA, 30318",17341754,"R"
41692,"1249 FLAGSTONE WAY","NORCROSS","GA",30093,33.928938998,-84.129884578,192,"1249 FLAGSTONE WAY, NORCROSS, GA, 30093","Match","Non_Exact","1249 FLAGSTONE WAY NW, NORCROSS, GA, 30093",640547160,"R"
41693,"1249 HIGHVIEW DRIVE","CEDAR HILL","TX",75104,32.6123520800001,-96.945145473,193,"1249 HIGHVIEW DRIVE, CEDAR HILL, TX, 75104","Match","Exact","1249 HIGHVIEW DR, CEDAR HILL, TX, 75104",653212644,"R"
41694,"1249 LYDAY LANE","WALLA WALLA","WA",99362,46.005532164,-118.348303721,194,"1249 LYDAY LANE, WALLA WALLA, WA, 99362","Match","Exact","1249 LYDAY LN, WALLA WALLA, WA, 99362",174686539,"L"
41695,"1249 NORTH STATE ROUTE 2","NEW MARTINSVILLE","WV",26155,39.691417492,-80.854742505,195,"1249 NORTH STATE ROUTE 2, NEW MARTINSVILLE, WV, 26155","Match","Non_Exact","1249 STATE RTE 2, NEW MARTINSVILLE, WV, 26155",51582366,"R"
41696,"1249 PEBBLE BEACH DR","CASEYVILLE","IL",62232,38.6359690850001,-89.977664358,196,"1249 PEBBLE BEACH DR, CASEYVILLE, IL, 62232","Match","Exact","1249 PEBBLE BEACH DR, CASEYVILLE, IL, 62232",648045797,"R"
41697,"1249 REMSEN AVE","BROOKLYN","NY",11236,40.6393513940001,-73.904972814,197,"1249 REMSEN AVE, BROOKLYN, NY, 11236","Match","Exact","1249 REMSEN AVE, BROOKLYN, NY, 11236",59086639,"L"
41698,"1249 ROUTE 590","HAWLEY","PA",18428,41.477528917,-75.048883111,198,"1249 ROUTE 590, HAWLEY, PA, 18428","Match","Non_Exact","1249 STATE RTE 590, HAWLEY, PA, 18428",191411403,"R"
41699,"1249 S DIAMOND BAR BLVD SUITE 244","DIAMOND BAR","CA",91765,34.039915464,-117.799048951,199,"1249 S DIAMOND BAR BLVD SUITE 244, DIAMOND BAR, CA, 91765","Match","Non_Exact","1249 N DIAMOND BAR BLVD, DIAMOND BAR, CA, 91765",142790236,"L"
41700,"1249 S DIAMOND BAR BLVD","DIAMOND  BAR","CA",91765,34.039915464,-117.799048951,200,"1249 S DIAMOND BAR BLVD, DIAMOND  BAR, CA, 91765","Match","Non_Exact","1249 N DIAMOND BAR BLVD, DIAMOND BAR, CA, 91765",142790236,"L"
41701,"1249 US 31-W BYPASS","BOWLING GREEN","KY",42101,NA,NA,201,"1249 US 31-W BYPASS, BOWLING GREEN, KY, 42101","No_Match",NA,NA,NA,NA
41702,"1249 W LASALLE","SPRINGFIELD","MO",65807,37.142337239,-93.309840564,202,"1249 W LASALLE, SPRINGFIELD, MO, 65807","Match","Non_Exact","1249 W LASALLE ST, SPRINGFIELD, MO, 65807",76676792,"L"
41703,"1249 W MADISON ST APT 203","CHICAGO","IL",60607,41.8815504020001,-87.658919956,203,"1249 W MADISON ST APT 203, CHICAGO, IL, 60607","Match","Exact","1249 MADISON ST, CHICAGO, IL, 60607",605014429,"R"
41704,"1249 WEST WASHINGTON ST","BROWNSVILLE","TX",78520,25.918392865,-97.515202006,204,"1249 WEST WASHINGTON ST, BROWNSVILLE, TX, 78520","Match","Exact","1249 W WASHINGTON ST, BROWNSVILLE, TX, 78520",89964110,"L"
41705,"1249 WILHELMINA RISE","HONOLULU","HI",96816,21.2823600880001,-157.797579147,205,"1249 WILHELMINA RISE, HONOLULU, HI, 96816","Match","Exact","1249 WILHELMINA RISE, HONOLULU, HI, 96816",203242548,"R"
41706,"12490 SCHOOL CREEK RD","SAINT GEORGE","KS",66535,39.2213775600001,-96.424377063,206,"12490 SCHOOL CREEK RD, SAINT GEORGE, KS, 66535","Match","Exact","12490 SCHOOL CREEK RD, SAINT GEORGE, KS, 66535",22314030,"R"
41707,"12490 SE VERLIE ST","HAPPY VALLEY","OR",97086,45.4284353310001,-122.515713867,207,"12490 SE VERLIE ST, HAPPY VALLEY, OR, 97086","Match","Exact","12490 SE VERLIE ST, HAPPY VALLEY, OR, 97086",641447904,"L"
41708,"12490 SW 95TH TERRACE","MIAMI","FL",33186,25.6790824390001,-80.3980966139999,208,"12490 SW 95TH TERRACE, MIAMI, FL, 33186","Match","Exact","12490 SW 95TH TER, MIAMI, FL, 33186",116046098,"L"
41709,"12491 HAYES CT 101","FAIRFAX","VA",22033,38.8640569900001,-77.378304148,209,"12491 HAYES CT 101, FAIRFAX, VA, 22033","Match","Exact","12491 HAYES CT, FAIRFAX, VA, 22033",624844959,"R"
41710,"12491 SW 134 COURTS SUITE 19","MIAMI","FL",33186,NA,NA,210,"12491 SW 134 COURTS SUITE 19, MIAMI, FL, 33186","No_Match",NA,NA,NA,NA
41711,"12491 WEST CANCER DR","ELOY","AZ",85131,32.5538666640001,-111.702557347,211,"12491 WEST CANCER DR, ELOY, AZ, 85131","Match","Exact","12491 W CANCER DR, ELOY, AZ, 85131",129318125,"R"
41712,"12492 FRIENDSVILLE ROAD","BURBANK","OH",44214,40.949995373,-81.956889331,212,"12492 FRIENDSVILLE ROAD, BURBANK, OH, 44214","Match","Exact","12492 FRIENDSVILLE RD, BURBANK, OH, 44214",647848101,"L"
41713,"12492 GRAINDWOOD WAY","SAN DIEGO","CA",92131,NA,NA,213,"12492 GRAINDWOOD WAY, SAN DIEGO, CA, 92131","No_Match",NA,NA,NA,NA
41714,"12492","TOLEDO","OH",43606,NA,NA,214,"12492, TOLEDO, OH, 43606","No_Match",NA,NA,NA,NA
41715,"12494 OAKWOOD DR","WOODBRIDGE","VA",22192,38.683461229,-77.298850751,215,"12494 OAKWOOD DR, WOODBRIDGE, VA, 22192","Match","Exact","12494 OAKWOOD DR, WOODBRIDGE, VA, 22192",76510551,"L"
41716,"12495 NE 8 AVENUE","MIAMI","FL",33161,25.890345562,-80.182406521,216,"12495 NE 8 AVENUE, MIAMI, FL, 33161","Match","Exact","12495 NE 8TH AVE, MIAMI, FL, 33161",116034516,"R"
41717,"12495 QUERCUS LANE","WELLINGTON","FL",33414,26.6781089680001,-80.242734814,217,"12495 QUERCUS LANE, WELLINGTON, FL, 33414","Match","Exact","12495 QUERCUS LN, WELLINGTON, FL, 33414",115265022,"L"
41718,"12496 PINTAIL COURT","POWAY","CA",92064,32.944197936,-117.066205044,218,"12496 PINTAIL COURT, POWAY, CA, 92064","Match","Exact","12496 PINTAIL CT, POWAY, CA, 92064",195725239,"R"
41719,"12496 SARSI PLACE","APPLE VALLEY","CA",92308,34.4789850550001,-117.218235057,219,"12496 SARSI PLACE, APPLE VALLEY, CA, 92308","Match","Non_Exact","12496 SARSI CT, APPLE VALLEY, CA, 92308",614844484,"R"
41720,"12496 US HIGHWAY 20 W","LENA","IL",61048,42.3566945220001,-89.85845018,220,"12496 US HIGHWAY 20 W, LENA, IL, 61048","Match","Exact","12496 US HWY 20 W, LENA, IL, 61048",635593031,"R"
41721,"12496 WINTER RIDGE DR","WALKER","LA",70785,30.5026436090001,-90.881228613,221,"12496 WINTER RIDGE DR, WALKER, LA, 70785","Match","Exact","12496 WINTER RIDGE DR, WALKER, LA, 70785",646612479,"R"
41722,"12497 CEDAR ROAD  APT 8A","CLEVELAND HEIGHTS","OH",44106,41.501070563,-81.591243401,222,"12497 CEDAR ROAD  APT 8A, CLEVELAND HEIGHTS, OH, 44106","Match","Exact","12497 CEDAR RD, CLEVELAND HEIGHTS, OH, 44106",61122478,"L"
41723,"12498 BROAD OAKS DRIVE","COLORADO SPRINGS","CO",80921,39.0129981640001,-104.801443054,223,"12498 BROAD OAKS DRIVE, COLORADO SPRINGS, CO, 80921","Match","Exact","12498 BROAD OAKS DR, COLORADO SPRINGS, CO, 80921",610685993,"R"
41724,"12498 EQUINE LANE","WELLINGTON","FL",33414,26.623302919,-80.244287432,224,"12498 EQUINE LANE, WELLINGTON, FL, 33414","Match","Exact","12498 EQUINE LN, WELLINGTON, FL, 33414",115559296,"L"
41725,"12498 W HIGHWAY 318","WILLISTON","FL",32696,NA,NA,225,"12498 W HIGHWAY 318, WILLISTON, FL, 32696","No_Match",NA,NA,NA,NA
41726,"12499 ANESWORTH CT","JACKSONVILLE","FL",32225,30.3641406150001,-81.490696982,226,"12499 ANESWORTH CT, JACKSONVILLE, FL, 32225","Match","Exact","12499 ANESWORTH CT, JACKSONVILLE, FL, 32225",83930620,"L"
41727,"12499 INDEPENDENCE PKWY","FRISCO","TX",75035,33.17826583,-96.750249834,227,"12499 INDEPENDENCE PKWY, FRISCO, TX, 75035","Match","Exact","12499 INDEPENDENCE PKWY, FRISCO, TX, 75035",638562722,"L"
41728,"12499 PASEO FLORES","SARATOGA","CA",95070,37.2858238040001,-121.99540735,228,"12499 PASEO FLORES, SARATOGA, CA, 95070","Match","Non_Exact","12499 PSO FLORES, SARATOGA, CA, 95070",122900316,"R"
41729,"12499 TAYLORSTOWN RD","LOVETTSVILLE","VA",20180,39.269760863,-77.585699284,229,"12499 TAYLORSTOWN RD, LOVETTSVILLE, VA, 20180","Match","Exact","12499 TAYLORSTOWN RD, LOVETTSVILLE, VA, 20180",62350699,"L"
41730,"12499 UNIVERSITY AVE STE 200","CLIVE","IA",50325,41.6004360250001,-93.7898662599999,230,"12499 UNIVERSITY AVE STE 200, CLIVE, IA, 50325","Match","Exact","12499 UNIVERSITY AVE, CLIVE, IA, 50325",65809313,"R"
41731,"1249M BLALOCK RD","HOUSTON","TX",77055,NA,NA,231,"1249M BLALOCK RD, HOUSTON, TX, 77055","Tie",NA,NA,NA,NA
41732,"124A CASTLERIDGE DRIVE","LITTLE ELM","TX",75068,33.169314532,-96.918697606,232,"124A CASTLERIDGE DRIVE, LITTLE ELM, TX, 75068","Match","Exact","124 CASTLERIDGE DR, LITTLE ELM, TX, 75068",636276830,"R"
41733,"125 126TH AVE","TREASURE ISLAND","FL",33706,27.780227412,-82.780920839,233,"125 126TH AVE, TREASURE ISLAND, FL, 33706","Match","Non_Exact","125 126TH AVE E, TREASURE ISLAND, FL, 33706",124693518,"R"
41734,"125 12TH ST SUITE 100","OAKLAND","CA",94607,NA,NA,234,"125 12TH ST SUITE 100, OAKLAND, CA, 94607","No_Match",NA,NA,NA,NA
41735,"125 184TH PL SW","BOTHELL","WA",98012,47.8310270150001,-122.23525479,235,"125 184TH PL SW, BOTHELL, WA, 98012","Match","Exact","125 184TH PL SW, BOTHELL, WA, 98012",648622687,"R"
41736,"125 18TH AVE SOUTH","SAINT PETERSBURG","FL",33705,27.752686227,-82.6344059849999,236,"125 18TH AVE SOUTH, SAINT PETERSBURG, FL, 33705","Match","Exact","125 18TH AVE S, SAINT PETERSBURG, FL, 33705",652511309,"R"
41737,"125 18TH ST NE","OWATONNA","MN",55060,44.1024873260001,-93.225668986,237,"125 18TH ST NE, OWATONNA, MN, 55060","Match","Exact","125 18TH ST NE, OWATONNA, MN, 55060",38172680,"R"
41738,"125 1ST ST UNIT 103","LA CONNER","WA",98257,NA,NA,238,"125 1ST ST UNIT 103, LA CONNER, WA, 98257","Tie",NA,NA,NA,NA
41739,"125 2ND ST","EMBDEN","ND",58079,46.7753545740001,-97.3557382239999,239,"125 2ND ST, EMBDEN, ND, 58079","Match","Exact","125 2ND ST, EMBDEN, ND, 58079",151435269,"R"
41740,"125 42ND STREET GULF SUITE B","MARATHON","FM",33050,NA,NA,240,"125 42ND STREET GULF SUITE B, MARATHON, FM, 33050","No_Match",NA,NA,NA,NA
41741,"125 6TH ST APT 205","SAN FRANCISCO","CA",94103,37.780649269,-122.408288869,241,"125 6TH ST APT 205, SAN FRANCISCO, CA, 94103","Match","Exact","125 6TH ST, SAN FRANCISCO, CA, 94103",192287356,"L"
41742,"125 ADAMS STREET","ROYERSFORD","PA",19468,40.1815520480001,-75.539972092,242,"125 ADAMS STREET, ROYERSFORD, PA, 19468","Match","Exact","125 ADAMS ST, ROYERSFORD, PA, 19468",135065645,"L"
41743,"125 AIRPORT ROAD","CONCORD","NH",3301,43.1993091310001,-71.50580966,243,"125 AIRPORT ROAD, CONCORD, NH, 3301","Match","Exact","125 AIRPORT RD, CONCORD, NH, 03301",117725429,"R"
41744,"125 ALMOND LANE","WILKES-BARRE","PA",18702,41.2320247640001,-75.8838033819999,244,"125 ALMOND LANE, WILKES-BARRE, PA, 18702","Match","Exact","125 ALMOND LN, WILKES BARRE, PA, 18702",80914857,"R"
41745,"125 ANDRES RD","SCOTT","LA",70583,30.2385012550001,-92.1249355909999,245,"125 ANDRES RD, SCOTT, LA, 70583","Match","Exact","125 ANDRES RD, SCOTT, LA, 70583",624601701,"R"
41746,"125 ARENAS VALLEY ROAD","ARENAS VALLEY","NM",88022,32.7864635600001,-108.199987584,246,"125 ARENAS VALLEY ROAD, ARENAS VALLEY, NM, 88022","Match","Exact","125 ARENAS VALLEY RD, ARENAS VALLEY, NM, 88022",635843438,"L"
41747,"125 ASHEVILLE COMMERCE PKWY","CANDLER","NC",28715,NA,NA,247,"125 ASHEVILLE COMMERCE PKWY, CANDLER, NC, 28715","No_Match",NA,NA,NA,NA
41748,"125 AUTRY AVE","MOORESVILLE","NC",28117,35.589608829,-80.881101235,248,"125 AUTRY AVE, MOORESVILLE, NC, 28117","Match","Exact","125 AUTRY AVE, MOORESVILLE, NC, 28117",46022399,"R"
41749,"125 BARBERRY LN","LEXINGTON","KY",40503,38.022246464,-84.513772208,249,"125 BARBERRY LN, LEXINGTON, KY, 40503","Match","Exact","125 BARBERRY LN, LEXINGTON, KY, 40503",635632123,"R"
41750,"125 BARROW STREET APT 4B","NEW YORK","NY",10014,40.731883205,-74.00893457,250,"125 BARROW STREET APT 4B, NEW YORK, NY, 10014","Match","Exact","125 BARROW ST, NEW YORK, NY, 10014",59659377,"L"
41751,"125 BEACH 91ST STREET","ROCKAWAY BEACH","NY",11693,40.5849713220001,-73.81336927,251,"125 BEACH 91ST STREET, ROCKAWAY BEACH, NY, 11693","Match","Exact","125 BEACH 91ST ST, ROCKAWAY BEACH, NY, 11693",59722495,"L"
41752,"125 BEEHCMONT DR NE","CORYDON","IN",47112,NA,NA,252,"125 BEEHCMONT DR NE, CORYDON, IN, 47112","No_Match",NA,NA,NA,NA
41753,"125 BEHLMAN MEADOWS WAY","FLORISSANT","MO",63033,38.8179333510001,-90.266585571,253,"125 BEHLMAN MEADOWS WAY, FLORISSANT, MO, 63033","Match","Non_Exact","125 BEHLMANN MEADOWS WAY, FLORISSANT, MO, 63034",645120433,"L"
41754,"125 BELMONT DRIVE","BOOTHWYN","PA",19061,39.849295602,-75.458414692,254,"125 BELMONT DRIVE, BOOTHWYN, PA, 19061","Match","Exact","125 BELMONT DR, BOOTHWYN, PA, 19061",134887825,"L"
41755,"125 BETHANY DRIVE","SCOTTS VALLEY","CA",95066,37.0681329710001,-121.997003829,255,"125 BETHANY DRIVE, SCOTTS VALLEY, CA, 95066","Match","Exact","125 BETHANY DR, SCOTTS VALLEY, CA, 95066",651633602,"L"
41756,"125 BLOUNT LANE","ROSE HILL","NC",28458,34.806307438,-78.015365894,256,"125 BLOUNT LANE, ROSE HILL, NC, 28458","Match","Exact","125 BLOUNT LN, ROSE HILL, NC, 28458",13418654,"R"
41757,"125 BOND STREET","BROOKLYN","NY",11217,40.685828934,-73.9855664469999,257,"125 BOND STREET, BROOKLYN, NY, 11217","Match","Exact","125 BOND ST, BROOKLYN, NY, 11217",59075376,"L"
41758,"125 BORINQUEN PL APT 504","BROOKLYN","NY",11211,40.710637316,-73.954405804,258,"125 BORINQUEN PL APT 504, BROOKLYN, NY, 11211","Match","Exact","125 BORINQUEN PL, BROOKLYN, NY, 11211",641038395,"L"
41759,"125 BRADSHAW CROSSING","CANTON","MS",39046,32.5106400610001,-90.077205812,259,"125 BRADSHAW CROSSING, CANTON, MS, 39046","Match","Exact","125 BRADSHAW CROSSING, CANTON, MS, 39046",152520758,"R"
41760,"125 BRIARCLIFF RD","CENTRAL","SC",29630,34.7306083710001,-82.831676661,260,"125 BRIARCLIFF RD, CENTRAL, SC, 29630","Match","Exact","125 BRIARCLIFF RD, CENTRAL, SC, 29630",26208171,"R"
41761,"125 BRIDGEVIEW DR","BLOOMFIELD HILLS","MI",48304,NA,NA,261,"125 BRIDGEVIEW DR, BLOOMFIELD HILLS, MI, 48304","No_Match",NA,NA,NA,NA
41762,"125 BROAD STREET 12TH FLOOR","NEW YORK","NY",10004,40.702690692,-74.0114187899999,262,"125 BROAD STREET 12TH FLOOR, NEW YORK, NY, 10004","Match","Exact","125 BROAD ST, NEW YORK, NY, 10004",59660685,"L"
41763,"125 BROOKFIELD LANE","ROANOKE","VA",24012,37.340633111,-79.853977379,263,"125 BROOKFIELD LANE, ROANOKE, VA, 24012","Match","Exact","125 BROOKFIELD LN, ROANOKE, VA, 24012",650283149,"R"
41764,"125 BROOKWOOD DR","SENECA","SC",29678,34.698939452,-82.9201642899999,264,"125 BROOKWOOD DR, SENECA, SC, 29678","Match","Exact","125 BROOKWOOD DR, SENECA, SC, 29678",25676798,"L"
41765,"125 CALHOUN ROAD","MONTGOMERY","AL",36109,32.386555231,-86.266869608,265,"125 CALHOUN ROAD, MONTGOMERY, AL, 36109","Match","Exact","125 CALHOUN RD, MONTGOMERY, AL, 36109",1471205,"L"
41766,"125 CALVES PASTURE LANE","BARNSTABLE","MA",2630,41.709355568,-70.3262512279999,266,"125 CALVES PASTURE LANE, BARNSTABLE, MA, 2630","Match","Exact","125 CALVES PASTURE LN, BARNSTABLE, MA, 02630",121627036,"R"
41767,"125 CAMBON DRIVE APT 6H","SAN FRANCISCO","CA",94123,37.7166206900001,-122.47422573,267,"125 CAMBON DRIVE APT 6H, SAN FRANCISCO, CA, 94123","Match","Non_Exact","125 CAMBON DR, SAN FRANCISCO, CA, 94132",641020926,"L"
41768,"125 CANDLEWOOD LAKE RD","BROOKFIELD","CT",6804,41.4534494220001,-73.4184903619999,268,"125 CANDLEWOOD LAKE RD, BROOKFIELD, CT, 6804","Match","Exact","125 CANDLEWOOD LAKE RD, BROOKFIELD, CT, 06804",3232944,"R"
41769,"125 CARLEY AVE","HUNTINGTON","NY",11743,40.8663775790001,-73.4347030489999,269,"125 CARLEY AVE, HUNTINGTON, NY, 11743","Match","Exact","125 CARLEY AVE, HUNTINGTON, NY, 11743",113962644,"R"
41770,"125 CARRIAGE HILL ROAD","GLENSHAW","PA",15116,40.5521949320001,-79.9929840149999,270,"125 CARRIAGE HILL ROAD, GLENSHAW, PA, 15116","Match","Exact","125 CARRIAGE HILL RD, GLENSHAW, PA, 15116",647535504,"R"
41771,"125 CARTER LANE","TROY","VA",22974,37.966898923,-78.2877298939999,271,"125 CARTER LANE, TROY, VA, 22974","Match","Exact","125 CARTER LN, TROY, VA, 22974",73794793,"L"
41772,"125 CASCADE COURT","RIVER FALLS","WI",54022,44.8517088150001,-92.6301796129999,272,"125 CASCADE COURT, RIVER FALLS, WI, 54022","Match","Exact","125 CASCADE CT, RIVER FALLS, WI, 54022",95856433,"L"
41773,"125 CASTLEFERN DRIVE","CARY","NC",27513,35.7770862840001,-78.81004351,273,"125 CASTLEFERN DRIVE, CARY, NC, 27513","Match","Exact","125 CASTLEFERN DR, CARY, NC, 27513",72593430,"L"
41774,"125 CAVE CIRCLE","BOERNE","TX",78006,29.8735404810001,-98.610767176,274,"125 CAVE CIRCLE, BOERNE, TX, 78006","Match","Exact","125 CAVE CIR, BOERNE, TX, 78006",605901837,"R"
41775,"125 CEDAR STREET APT 7N","NEW YORK","NY",10006,40.70968529,-74.012761855,275,"125 CEDAR STREET APT 7N, NEW YORK, NY, 10006","Match","Exact","125 CEDAR ST, NEW YORK, NY, 10006",59659589,"L"
41776,"125 CHAMALE DR","SLIDELL","LA",70460,30.279355891,-89.7913609029999,276,"125 CHAMALE DR, SLIDELL, LA, 70460","Match","Exact","125 CHAMALE DR, SLIDELL, LA, 70460",111248555,"R"
41777,"125 CHERRY LAUREL DRIVE","LEXINGTON","SC",29073,33.901341415,-81.240350469,277,"125 CHERRY LAUREL DRIVE, LEXINGTON, SC, 29073","Match","Exact","125 CHERRY LAUREL DR, LEXINGTON, SC, 29073",614121286,"R"
41778,"125 CHESTNUT STREET","BOONTON","NJ",7005,40.9080056990001,-74.423215835,278,"125 CHESTNUT STREET, BOONTON, NJ, 7005","Match","Exact","125 CHESTNUT ST, BOONTON, NJ, 07005",60444696,"R"
41779,"125 CHOPIN ST","TROY","MI",48083,42.5492700940001,-83.1442109449999,279,"125 CHOPIN ST, TROY, MI, 48083","Match","Exact","125 CHOPIN ST, TROY, MI, 48083",69742843,"L"
41780,"125 CHURCHILL HUBBARD ROAD","YOUNGSTOWN","OH",44505,NA,NA,280,"125 CHURCHILL HUBBARD ROAD, YOUNGSTOWN, OH, 44505","No_Match",NA,NA,NA,NA
41781,"125 CLAURA DR","SCOTT","LA",70583,30.2545943800001,-92.1509451639999,281,"125 CLAURA DR, SCOTT, LA, 70583","Match","Non_Exact","125 CLAURA RD, SCOTT, LA, 70583",623887055,"L"
41782,"125 CLAY DRIVE STE 125","BEREA","KY",40403,37.5829349580001,-84.284276372,282,"125 CLAY DRIVE STE 125, BEREA, KY, 40403","Match","Exact","125 CLAY DR, BEREA, KY, 40403",31989771,"L"
41783,"125 CLINTON STREET","HICKMAN","KY",42050,36.5732401700001,-89.1909077989999,283,"125 CLINTON STREET, HICKMAN, KY, 42050","Match","Exact","125 CLINTON ST, HICKMAN, KY, 42050",30310157,"L"
41784,"125 COLLEGE STREET","BUTLER","OH",44822,40.590520122,-82.4281531619999,284,"125 COLLEGE STREET, BUTLER, OH, 44822","Match","Exact","125 COLLEGE ST, BUTLER, OH, 44822",12828117,"L"
41785,"125 COLONIAL DRIVE","ST SIMONS ISLAND","GA",31522,31.193056439,-81.37283895,285,"125 COLONIAL DRIVE, ST SIMONS ISLAND, GA, 31522","Match","Exact","125 COLONIAL DR, ST SIMONS ISLAND, GA, 31522",9137072,"L"
41786,"125 COMMERCE CIRCLE","FAYETTEVILLE","GA",30214,33.4640745680001,-84.454116138,286,"125 COMMERCE CIRCLE, FAYETTEVILLE, GA, 30214","Match","Exact","125 COMMERCE CIR, FAYETTEVILLE, GA, 30214",75930492,"R"
41787,"125 COMMERCE DR STE J","FAYETTEVILLE","GA",30214,33.4640507350001,-84.451273294,287,"125 COMMERCE DR STE J, FAYETTEVILLE, GA, 30214","Match","Exact","125 COMMERCE DR, FAYETTEVILLE, GA, 30214",75939859,"R"
41788,"125 COMMERCE DRIVE SUITE J","FAYETTEVILLE","GA",30214,33.4640507350001,-84.451273294,288,"125 COMMERCE DRIVE SUITE J, FAYETTEVILLE, GA, 30214","Match","Exact","125 COMMERCE DR, FAYETTEVILLE, GA, 30214",75939859,"R"
41789,"125 COMMUNITY DRIVE","AUGUSTA","ME",4330,44.340531549,-69.794961875,289,"125 COMMUNITY DRIVE, AUGUSTA, ME, 4330","Match","Exact","125 COMMUNITY DR, AUGUSTA, ME, 04330",619537211,"R"
41790,"125 CONNEMARA WAY UNIT 143","SUNNYVALE","CA",94087,37.3477219330001,-122.030918566,290,"125 CONNEMARA WAY UNIT 143, SUNNYVALE, CA, 94087","Match","Exact","125 CONNEMARA WAY, SUNNYVALE, CA, 94087",614038367,"L"
41791,"125 CONNEMARA WAY UNIT 66","SUNNYVALE","CA",94087,37.3477219330001,-122.030918566,291,"125 CONNEMARA WAY UNIT 66, SUNNYVALE, CA, 94087","Match","Exact","125 CONNEMARA WAY, SUNNYVALE, CA, 94087",614038367,"L"
41792,"125 COOLIDGE AVENUE APT 809","WATERTOWN","MA",2472,42.36766865,-71.151591095,292,"125 COOLIDGE AVENUE APT 809, WATERTOWN, MA, 2472","Match","Non_Exact","125 COOLIDGE HILL, WATERTOWN, MA, 02472",87108113,"R"
41793,"125 COOPER RIDGE RD","CRUMPLER","NC",28617,36.4881350210001,-81.3369996659999,293,"125 COOPER RIDGE RD, CRUMPLER, NC, 28617","Match","Exact","125 COOPER RIDGE RD, CRUMPLER, NC, 28617",154049981,"L"
41794,"125 COUNTESS COURT","WHISPERING PINES","NC",28327,35.254537246,-79.3503518099999,294,"125 COUNTESS COURT, WHISPERING PINES, NC, 28327","Match","Exact","125 COUNTESS CT, WHISPERING PINES, NC, 28327",20329449,"L"
41795,"125 COWAN DRIVE","STOCKBRIDGE","GA",30281,33.564157246,-84.1929390619999,295,"125 COWAN DRIVE, STOCKBRIDGE, GA, 30281","Match","Exact","125 COWAN DR, STOCKBRIDGE, GA, 30281",23195440,"R"
41796,"125 CRESTVIEW DR","VALPARAISO","IN",46383,41.453800888,-87.059617277,296,"125 CRESTVIEW DR, VALPARAISO, IN, 46383","Match","Exact","125 CRESTVIEW DR, VALPARAISO, IN, 46383",119914464,"L"
41797,"125 CRESTWAY LANE","PONTE VEDRA","FL",32081,30.122906716,-81.4426698789999,297,"125 CRESTWAY LANE, PONTE VEDRA, FL, 32081","Match","Exact","125 CRESTWAY LN, PONTE VEDRA, FL, 32081",646787053,"L"
41798,"125 CROLLS MILL ROAD","SLIPPERY ROCK","PA",16057,41.016639329,-80.049166056,298,"125 CROLLS MILL ROAD, SLIPPERY ROCK, PA, 16057","Match","Exact","125 CROLLS MILL RD, SLIPPERY ROCK, PA, 16057",52668862,"L"
41799,"125 CROSSWINDS","IRVINE","CA",92602,33.7430127960001,-117.757682146,299,"125 CROSSWINDS, IRVINE, CA, 92602","Match","Exact","125 CROSSWINDS, IRVINE, CA, 92602",650681219,"R"
41800,"125 CROSWELL ROAD","COLUMBUS","OH",43214,40.045954329,-83.023294874,300,"125 CROSWELL ROAD, COLUMBUS, OH, 43214","Match","Exact","125 CROSWELL RD, COLUMBUS, OH, 43214",218693437,"L"
41801,"125 CROWN OAKS DRIVE","STOCKBRIDGE","GA",30281,33.498766011,-84.273428936,301,"125 CROWN OAKS DRIVE, STOCKBRIDGE, GA, 30281","Match","Exact","125 CROWN OAKS DR, STOCKBRIDGE, GA, 30281",23202647,"L"
41802,"125 CYPRESS STREET","MILLBURN","NJ",7041,40.7286374240001,-74.293304841,302,"125 CYPRESS STREET, MILLBURN, NJ, 7041","Match","Exact","125 CYPRESS ST, MILLBURN, NJ, 07041",63461750,"R"
41803,"125 DALTON ROAD","GEORGETOWN","KY",40324,38.222854108,-84.526858187,303,"125 DALTON ROAD, GEORGETOWN, KY, 40324","Match","Exact","125 DALTON RD, GEORGETOWN, KY, 40324",627390466,"R"
41804,"125 DEERFIELD CIR","BRYAN","OH",43506,41.4695167850001,-84.5803212449999,304,"125 DEERFIELD CIR, BRYAN, OH, 43506","Match","Exact","125 DEERFIELD CIR, BRYAN, OH, 43506",649954254,"R"
41805,"125 DIBBLE LANE","COLUMBIA","SC",29223,34.0995834030001,-80.877405659,305,"125 DIBBLE LANE, COLUMBIA, SC, 29223","Match","Exact","125 DIBBLE LN, COLUMBIA, SC, 29223",71826907,"L"
41806,"125 DICKIE AVENUE","STATEN ISLAND","NY",10314,40.621013954,-74.1369223299999,306,"125 DICKIE AVENUE, STATEN ISLAND, NY, 10314","Match","Exact","125 DICKIE AVE, STATEN ISLAND, NY, 10314",59875987,"L"
41807,"125 DILLMONT DR","COLUMBUS","OH",43235,40.1340581960001,-83.012651394,307,"125 DILLMONT DR, COLUMBUS, OH, 43235","Match","Exact","125 DILLMONT DR, COLUMBUS, OH, 43235",218664678,"R"
41808,"125 DILLMONT DRIVE","COLUMBUS","OH",43235,40.1340581960001,-83.012651394,308,"125 DILLMONT DRIVE, COLUMBUS, OH, 43235","Match","Exact","125 DILLMONT DR, COLUMBUS, OH, 43235",218664678,"R"
41809,"125 DIXIE BLVD","DELRAY BEACH","FL",33444,26.4711083,-80.0720430709999,309,"125 DIXIE BLVD, DELRAY BEACH, FL, 33444","Match","Non_Exact","125 N DIXIE BLVD, DELRAY BEACH, FL, 33444",636395344,"L"
41810,"125 DODBROOK CT","ROSEVILLE","CA",95747,38.777347299,-121.367444004,310,"125 DODBROOK CT, ROSEVILLE, CA, 95747","Match","Exact","125 DODBROOK CT, ROSEVILLE, CA, 95747",646020535,"L"
41811,"125 DOGWOOD","MANNFORD","OK",74044,36.116107992,-96.353316869,311,"125 DOGWOOD, MANNFORD, OK, 74044","Match","Non_Exact","125 DOGWOOD RD, MANNFORD, OK, 74044",165905483,"L"
41812,"125 DORY DRIVE","SALVISA","KY",40372,37.913627702,-84.861816875,312,"125 DORY DRIVE, SALVISA, KY, 40372","Match","Exact","125 DORY DR, SALVISA, KY, 40372",32614879,"R"
41813,"125 DOUBLE EAGLE COURT","FREEPORT","FL",32439,30.490707812,-86.0284987369999,313,"125 DOUBLE EAGLE COURT, FREEPORT, FL, 32439","Match","Exact","125 DOUBLE EAGLE CT, FREEPORT, FL, 32439",614168056,"R"
41814,"125 DURHAM STREET","HOLDEN BEACH","NC",28462,33.912347846,-78.297467298,314,"125 DURHAM STREET, HOLDEN BEACH, NC, 28462","Match","Exact","125 DURHAM ST, HOLDEN BEACH, NC, 28462",153188088,"L"
41815,"125 E 153RD STREET","HARVEY","IL",60426,41.6117450780001,-87.649043489,315,"125 E 153RD STREET, HARVEY, IL, 60426","Match","Exact","125 E 153RD ST, HARVEY, IL, 60426",605710643,"L"
41816,"125 E 37TH ST","LOVELAND","CO",80538,40.430471906,-105.077159781,316,"125 E 37TH ST, LOVELAND, CO, 80538","Match","Exact","125 E 37TH ST, LOVELAND, CO, 80538",188513593,"L"
41817,"125 E 3RD STREET PMB 4","CALEXICO","CA",92231,32.667757017,-115.497118946,317,"125 E 3RD STREET PMB 4, CALEXICO, CA, 92231","Match","Non_Exact","125 E 3RD ST, CALEXICO, CA, 92231",194538119,"R"
41818,"125 E 7TH ST","PUEBLO","CO",81003,38.2734537480001,-104.606652059,318,"125 E 7TH ST, PUEBLO, CO, 81003","Match","Exact","125 E 7TH ST, PUEBLO, CO, 81003",105025655,"L"
41819,"125 E 8TH AVE","EUGENE","OR",97401,44.0510207620001,-123.090170593,319,"125 E 8TH AVE, EUGENE, OR, 97401","Match","Exact","125 E 8TH AVE, EUGENE, OR, 97401",178167089,"L"
41820,"125 E 8TH AVENUE","EUGENE","OR",97401,44.0510207620001,-123.090170593,320,"125 E 8TH AVENUE, EUGENE, OR, 97401","Match","Exact","125 E 8TH AVE, EUGENE, OR, 97401",178167089,"L"
41821,"125 E ACORN HILL DR","OLYPHANT","PA",18447,41.4553763170001,-75.5942014509999,321,"125 E ACORN HILL DR, OLYPHANT, PA, 18447","Match","Exact","125 E ACORN HILL DR, OLYPHANT, PA, 18447",624716916,"R"
41822,"125 E BUFFALO ST","KELLYVILLE","OK",74039,35.9436866360001,-96.215496201,322,"125 E BUFFALO ST, KELLYVILLE, OK, 74039","Match","Exact","125 E BUFFALO ST, KELLYVILLE, OK, 74039",165851019,"R"
41823,"125 E CHEVES ST","FLORENCE","SC",29506,34.195602949,-79.765347338,323,"125 E CHEVES ST, FLORENCE, SC, 29506","Match","Exact","125 E CHEVES ST, FLORENCE, SC, 29506",28878792,"L"
41824,"125 E GRANGEVILLE BLVD","HANFORD","CA",93230,36.3426197310001,-119.645526425,324,"125 E GRANGEVILLE BLVD, HANFORD, CA, 93230","Match","Exact","125 E GRANGEVILLE BLVD, HANFORD, CA, 93230",197961505,"L"
41825,"125 E IDAHO","BOISE","ID",83712,43.612098981,-116.19430375,325,"125 E IDAHO, BOISE, ID, 83712","Match","Non_Exact","125 E IDAHO ST, BOISE, ID, 83712",639305218,"R"
41826,"125 E LIME STREET","TARPON SPRINGS","FL",34689,28.143189475,-82.756054036,326,"125 E LIME STREET, TARPON SPRINGS, FL, 34689","Match","Exact","125 E LIME ST, TARPON SPNGS, FL, 34689",124660848,"L"
41827,"125 E PASEO AVE","VISALIA","CA",93277,36.3008160570001,-119.291179425,327,"125 E PASEO AVE, VISALIA, CA, 93277","Match","Exact","125 E PASEO AVE, VISALIA, CA, 93277",202782558,"R"
41828,"125 E PLEASANT AVE","COVINGTON","TN",38019,35.563738023,-89.6457527479999,328,"125 E PLEASANT AVE, COVINGTON, TN, 38019","Match","Exact","125 E PLEASANT AVE, COVINGTON, TN, 38019",73162573,"L"
41829,"125 E POKAGON","SOUTH BEND","IN",46617,41.693097347,-86.249480553,329,"125 E POKAGON, SOUTH BEND, IN, 46617","Match","Non_Exact","125 E POKAGON ST, SOUTH BEND, IN, 46617",8054082,"L"
41830,"125 E TOWNSHIP ST SUITE 16","FAYETTEVILLE","AR",72703,36.0952139990001,-94.155986475,330,"125 E TOWNSHIP ST SUITE 16, FAYETTEVILLE, AR, 72703","Match","Non_Exact","125 E TOWNSHIP ST, FAYETTEVILLE, AR, 72703",640550377,"L"
41831,"125 E WELLS ST APT 207","MILWAUKEE","WI",53202,43.0407399540001,-87.911018854,331,"125 E WELLS ST APT 207, MILWAUKEE, WI, 53202","Match","Non_Exact","125 E WELLS ST, MILWAUKEE, WI, 53202",639918093,"R"
41832,"125 EAST 3RD STREET","MT VERNON","NY",10550,40.907975424,-73.830498145,332,"125 EAST 3RD STREET, MT VERNON, NY, 10550","Match","Exact","125 E 3RD ST, MOUNT VERNON, NY, 10550",139747540,"L"
41833,"125 EAST 87TH STREET 2G","NEW YORK","NY",10128,40.7804939540001,-73.955833169,333,"125 EAST 87TH STREET 2G, NEW YORK, NY, 10128","Match","Exact","125 E 87TH ST, NEW YORK, NY, 10128",642471756,"L"
41834,"125 EAST 8TH AVENUE","EUGENE","OR",97401,44.0510207620001,-123.090173573,334,"125 EAST 8TH AVENUE, EUGENE, OR, 97401","Match","Exact","125 E 8TH AVE, EUGENE, OR, 97401",178167089,"L"
41835,"125 EAST COMMERCIAL ST - STE 150","WILLITS","CA",95490,39.4124392740001,-123.353222082,335,"125 EAST COMMERCIAL ST - STE 150, WILLITS, CA, 95490","Match","Exact","125 E COMMERCIAL ST, WILLITS, CA, 95490",67259497,"R"
41836,"125 EAST RD","ST JOHNSVILLE","NY",13452,43.0557850920001,-74.5942813509999,336,"125 EAST RD, ST JOHNSVILLE, NY, 13452","Match","Exact","125 EAST RD, SAINT JOHNSVILLE, NY, 13452",153645583,"L"
41837,"125 ELM HILL AVE APT 17","DORCHESTER","MA",2121,NA,NA,337,"125 ELM HILL AVE APT 17, DORCHESTER, MA, 2121","No_Match",NA,NA,NA,NA
41838,"125 ELMORE TOWN ROAD","BAXTER","TN",38544,36.151434667,-85.641612782,338,"125 ELMORE TOWN ROAD, BAXTER, TN, 38544","Match","Exact","125 ELMORE TOWN RD, BAXTER, TN, 38544",25158944,"L"
41839,"125 EMERYVILLE DRIVE STE 230","CRANBERRY TWP","PA",16066,40.676371074,-80.1008316799999,339,"125 EMERYVILLE DRIVE STE 230, CRANBERRY TWP, PA, 16066","Match","Exact","125 EMERYVILLE DR, CRANBERRY TOWNSHIP, PA, 16066",52693860,"L"
41840,"125 ERRIN DR","SOMERSET","KY",42503,37.1312045440001,-84.577942464,340,"125 ERRIN DR, SOMERSET, KY, 42503","Match","Exact","125 ERRIN DR, SOMERSET, KY, 42503",39084459,"L"
41841,"125 EUCLID DRIVE","FAYETTEVILLE","NY",13066,43.027020501,-76.0178698669999,341,"125 EUCLID DRIVE, FAYETTEVILLE, NY, 13066","Match","Exact","125 EUCLID DR, FAYETTEVILLE, NY, 13066",46576405,"L"
41842,"125 EVANS ROAD","LAFAYETTE","TN",37083,36.534047876,-86.0796154,342,"125 EVANS ROAD, LAFAYETTE, TN, 37083","Match","Exact","125 EVANS RD, LAFAYETTE, TN, 37083",29697797,"L"
41843,"125 FAWLEY ST","WARSAW","IN",46580,41.220135102,-85.856321871,343,"125 FAWLEY ST, WARSAW, IN, 46580","Match","Exact","125 FAWLEY ST, WARSAW, IN, 46580",7921601,"L"
41844,"125 FERNWOOD TERRACE","LINDEN","NJ",7036,40.6418789040001,-74.276428054,344,"125 FERNWOOD TERRACE, LINDEN, NJ, 7036","Match","Exact","125 FERNWOOD TER, LINDEN, NJ, 07036",60575324,"L"
41845,"125 FIELDCREST ST","ANN ARBOR","MI",48103,42.2521489010001,-83.751105501,345,"125 FIELDCREST ST, ANN ARBOR, MI, 48103","Match","Exact","125 FIELDCREST ST, ANN ARBOR, MI, 48103",627085136,"R"
41846,"125 FLOYD SMITH OFFICE PARK DR S 45","CHARLOTTE","NC",28262,35.3463275400001,-80.6980437829999,346,"125 FLOYD SMITH OFFICE PARK DR S 45, CHARLOTTE, NC, 28262","Match","Non_Exact","125 FLOYD SMITH OFFICE PARK DR, CHARLOTTE, NC, 28262",70562400,"L"
41847,"125 FOREST AVE","WYOMING","OH",45215,39.2360469920001,-84.475997596,347,"125 FOREST AVE, WYOMING, OH, 45215","Match","Exact","125 FOREST AVE, WYOMING, OH, 45215",103926622,"L"
41848,"125 FOREST PARK DR","WAYNESVILLE","NC",28785,35.5324343820001,-82.9947659009999,348,"125 FOREST PARK DR, WAYNESVILLE, NC, 28785","Match","Exact","125 FOREST PARK DR, WAYNESVILLE, NC, 28785",151829117,"L"
41849,"125 FORREST AVENUE","SHIRLEY","NY",11967,40.8120550630001,-72.873142505,349,"125 FORREST AVENUE, SHIRLEY, NY, 11967","Match","Exact","125 FORREST AVE, SHIRLEY, NY, 11967",114018592,"R"
41850,"125 FOUNTAIN CT 223","FAIRVIEW","TX",75069,33.1326298550001,-96.651618067,350,"125 FOUNTAIN CT 223, FAIRVIEW, TX, 75069","Match","Exact","125 FOUNTAIN CT, FAIRVIEW, TX, 75069",642955265,"R"
41851,"125 FREDERICK ST","MARIETTA","OH",45750,39.4157517840001,-81.423380636,351,"125 FREDERICK ST, MARIETTA, OH, 45750","Match","Exact","125 FREDERICK ST, MARIETTA, OH, 45750",623703838,"L"
41852,"125 FRUITWOOD TRCE APT B","RIVERDALE","GA",30296,33.5640538540001,-84.474119545,352,"125 FRUITWOOD TRCE APT B, RIVERDALE, GA, 30296","Match","Exact","125 FRUITWOOD TRCE, RIVERDALE, GA, 30296",17362091,"R"
41853,"125 FURLONG DR","UNIVERSAL CITY","TX",78148,29.5544829990001,-98.299823185,353,"125 FURLONG DR, UNIVERSAL CITY, TX, 78148","Match","Non_Exact","125 FURLONG, UNIVERSAL CITY, TX, 78148",101538797,"L"
41854,"125 G WAPPOO CREEK DRIVE","CHARLESTON","SC",29412,32.763923807,-79.975650312,354,"125 G WAPPOO CREEK DRIVE, CHARLESTON, SC, 29412","Match","Exact","125 WAPPOO CREEK DR, CHARLESTON, SC, 29412",605840923,"R"
41855,"125 GALWAY PL","TEANECK","NJ",7666,40.90558099,-73.9998869249999,355,"125 GALWAY PL, TEANECK, NJ, 7666","Match","Exact","125 GALWAY PL, TEANECK, NJ, 07666",64430504,"R"
41856,"125 GERALD AVE","CLAWSON","MI",48017,42.5329111950001,-83.151442961,356,"125 GERALD AVE, CLAWSON, MI, 48017","Match","Exact","125 GERALD AVE, CLAWSON, MI, 48017",636252180,"L"
41857,"125 GLEN RIDGE ROAD","HAMDEN","CT",6815,NA,NA,357,"125 GLEN RIDGE ROAD, HAMDEN, CT, 6815","No_Match",NA,NA,NA,NA
41858,"125 GLENRIDGE AVE 906","MONTCLAIR","NJ",7003,NA,NA,358,"125 GLENRIDGE AVE 906, MONTCLAIR, NJ, 7003","No_Match",NA,NA,NA,NA
41859,"125 GOODALL WOODS DRIVE","MACON","GA",31216,32.7209435190001,-83.708476595,359,"125 GOODALL WOODS DRIVE, MACON, GA, 31216","Match","Exact","125 GOODALL WOODS DR, MACON, GA, 31216",645704717,"R"
41860,"125 GRACE ST","JERSEY CITY","NJ",7307,40.755835796,-74.0482412709999,360,"125 GRACE ST, JERSEY CITY, NJ, 7307","Match","Exact","125 GRACE ST, JERSEY CITY, NJ, 07307",59597464,"L"
41861,"125 GRAMPIAN CT","MARIETTA","GA",30008,33.9225935370001,-84.555062403,361,"125 GRAMPIAN CT, MARIETTA, GA, 30008","Match","Exact","125 GRAMPIAN CT, MARIETTA, GA, 30008",625387830,"L"
41862,"125 GREAT CIRCLE RD","WEST HAVEN","CT",6516,41.2386585790001,-72.973455346,362,"125 GREAT CIRCLE RD, WEST HAVEN, CT, 6516","Match","Exact","125 GREAT CIRCLE RD, W HAVEN, CT, 06516",3716504,"L"
41863,"125 GREAT ROAD","MAPLE SHADE","NJ",8052,39.9315225460001,-74.9777651059999,363,"125 GREAT ROAD, MAPLE SHADE, NJ, 8052","Match","Exact","125 GREAT RD, MAPLE SHADE, NJ, 08052",134027977,"R"
41864,"125 GREENWOOD AVE","NASHUA","IA",50658,42.9572708700001,-92.533750614,364,"125 GREENWOOD AVE, NASHUA, IA, 50658","Match","Exact","125 GREENWOOD AVE, NASHUA, IA, 50658",9743064,"L"
41865,"125 GREYLAWN AVENUE","WARWICK","RI",2889,41.7172666070001,-71.406149515,365,"125 GREYLAWN AVENUE, WARWICK, RI, 2889","Match","Exact","125 GREYLAWN AVE, WARWICK, RI, 02889",159149285,"R"
41866,"125 HABERSHAM DRIVE SUITE B","FAYETTEVILLE","GA",30214,33.458914067,-84.4549982899999,366,"125 HABERSHAM DRIVE SUITE B, FAYETTEVILLE, GA, 30214","Match","Exact","125 HABERSHAM DR, FAYETTEVILLE, GA, 30214",75930351,"L"
41867,"125 HANES PLACE","VISTA","CA",92084,33.202022636,-117.242404507,367,"125 HANES PLACE, VISTA, CA, 92084","Match","Exact","125 HANES PL, VISTA, CA, 92084",627186400,"L"
41868,"125 HANNA ST","CARRBORO","NC",27510,35.9215918990001,-79.078654501,368,"125 HANNA ST, CARRBORO, NC, 27510","Match","Exact","125 HANNA ST, CARRBORO, NC, 27510",72405914,"L"
41869,"125 HARBOR ROAD","SWANS ISLAND","ME",4685,44.1562438810001,-68.449501152,369,"125 HARBOR ROAD, SWANS ISLAND, ME, 4685","Match","Exact","125 HARBOR RD, SWANS ISLAND, ME, 04685",110295375,"L"
41870,"125 HARINGEY DR","RALEIGH","NC",27615,35.9093408040001,-78.651068734,370,"125 HARINGEY DR, RALEIGH, NC, 27615","Match","Non_Exact","125 HARINGEY RD, RALEIGH, NC, 27615",72613976,"R"
41871,"125 HARMON ROAD","BRIDGTON","ME",4009,44.071451714,-70.758130562,371,"125 HARMON ROAD, BRIDGTON, ME, 4009","Match","Exact","125 HARMON RD, BRIDGTON, ME, 04009",635831351,"L"
41872,"125 HARVEY AVENUE","OAK PARK","IL",60302,NA,NA,372,"125 HARVEY AVENUE, OAK PARK, IL, 60302","Tie",NA,NA,NA,NA
41873,"125 HEATHER DRIVE","ATHERTON","CA",94027,37.4663358190001,-122.185810026,373,"125 HEATHER DRIVE, ATHERTON, CA, 94027","Match","Exact","125 HEATHER DR, ATHERTON, CA, 94027",192364997,"L"
41874,"125 HEDGEROW TRCE","DULUTH","GA",30097,34.0372595430001,-84.1514996509999,374,"125 HEDGEROW TRCE, DULUTH, GA, 30097","Match","Exact","125 HEDGEROW TRCE, DULUTH, GA, 30097",17402753,"R"
41875,"125 HERITAGE CIR","FARMINGTON","ME",4938,NA,NA,375,"125 HERITAGE CIR, FARMINGTON, ME, 4938","No_Match",NA,NA,NA,NA
41876,"125 HIGH HILL ROAD","MERIDEN","CT",6450,41.505624207,-72.751311661,376,"125 HIGH HILL ROAD, MERIDEN, CT, 6450","Match","Exact","125 HIGH HILL RD, MERIDEN, CT, 06450",632339072,"R"
41877,"125 HIGHLAND DRIVE","COUNCIL BLUFFS","IA",51503,41.2796511870001,-95.833568675,377,"125 HIGHLAND DRIVE, COUNCIL BLUFFS, IA, 51503","Match","Exact","125 HIGHLAND DR, COUNCIL BLUFFS, IA, 51503",43903597,"R"
41878,"125 HIGHLAND VIEW DRIVE","RIVERSIDE","AL",35135,33.5990034170001,-86.237629753,378,"125 HIGHLAND VIEW DRIVE, RIVERSIDE, AL, 35135","Match","Exact","125 HIGHLAND VIEW DR, RIVERSIDE, AL, 35135",630162180,"L"
41879,"125 HILLTOP DRIVE","MORGANTOWN","KY",42661,37.1830323470001,-86.633501569,379,"125 HILLTOP DRIVE, MORGANTOWN, KY, 42661","Match","Non_Exact","125 HILLTOP DR, MORGANTOWN, KY, 42261",15630798,"L"
41880,"125 HIRST ROAD STE 6C","PURCELLVILLE","VA",20132,39.144143,-77.72294389,380,"125 HIRST ROAD STE 6C, PURCELLVILLE, VA, 20132","Match","Exact","125 HIRST RD, PURCELLVILLE, VA, 20132",642574971,"L"
41881,"125 HOBBS LN","MOORESVILLE","NC",28115,35.5388630100001,-80.846642579,381,"125 HOBBS LN, MOORESVILLE, NC, 28115","Match","Exact","125 HOBBS LN, MOORESVILLE, NC, 28115",46021234,"L"
41882,"125 HOE CREEK ROAD","GILLETTE","WY",82718,NA,NA,382,"125 HOE CREEK ROAD, GILLETTE, WY, 82718","No_Match",NA,NA,NA,NA
41883,"125 HOOPER  RD","WYLIE","TX",75098,33.0106956880001,-96.578278439,383,"125 HOOPER  RD, WYLIE, TX, 75098","Match","Exact","125 HOOPER RD, WYLIE, TX, 75098",123529514,"L"
41884,"125 HUNTINGTON PLACE","MACON","GA",31210,32.8812321610001,-83.7061488909999,384,"125 HUNTINGTON PLACE, MACON, GA, 31210","Match","Exact","125 HUNTINGTON PL, MACON, GA, 31210",81077897,"L"
41885,"125 HWY 138 SE","RIVERDALE","GA",30274,NA,NA,385,"125 HWY 138 SE, RIVERDALE, GA, 30274","No_Match",NA,NA,NA,NA
41886,"125 HWY A1A","SATELLITE BEACH","FL",32937,NA,NA,386,"125 HWY A1A, SATELLITE BEACH, FL, 32937","No_Match",NA,NA,NA,NA
41887,"125 ISABELLA CT","LOVELAND","OH",45140,39.256649333,-84.242598168,387,"125 ISABELLA CT, LOVELAND, OH, 45140","Match","Exact","125 ISABELLA CT, LOVELAND, OH, 45140",618767975,"L"
41888,"125 ISLAND LAKE WAY","ROCKWOOD","TN",37854,NA,NA,388,"125 ISLAND LAKE WAY, ROCKWOOD, TN, 37854","No_Match",NA,NA,NA,NA
41889,"125 JERICHO TURNPIKE STE 200","JERICHO","NY",11753,40.780945009,-73.557815605,389,"125 JERICHO TURNPIKE STE 200, JERICHO, NY, 11753","Match","Exact","125 JERICHO TPKE, JERICHO, NY, 11753",147830007,"R"
41890,"125 JEROME STREET UNIT G","ROSELLE PARK","NJ",7204,40.659946281,-74.281615054,390,"125 JEROME STREET UNIT G, ROSELLE PARK, NJ, 7204","Match","Exact","125 JEROME ST, ROSELLE PARK, NJ, 07204",60593605,"R"
41891,"125 JOHN J KOLDUS BUILDING","COLLEGE STATION","TX",77840,NA,NA,391,"125 JOHN J KOLDUS BUILDING, COLLEGE STATION, TX, 77840","No_Match",NA,NA,NA,NA
41892,"125 JONATHAN CT","BRANSON","MO",65616,36.6555509880001,-93.170643849,392,"125 JONATHAN CT, BRANSON, MO, 65616","Match","Exact","125 JONATHAN CT, BRANSON, MO, 65616",20166185,"L"
41893,"125 KELLERTON CT","WINNABOW","NC",28479,34.1837811360001,-77.9930199949999,393,"125 KELLERTON CT, WINNABOW, NC, 28479","Match","Exact","125 KELLERTON CT, WINNABOW, NC, 28479",625614258,"R"
41894,"125 KEYSTONE AVE","BARDSTOWN","KY",40004,37.8129160460001,-85.4295853359999,394,"125 KEYSTONE AVE, BARDSTOWN, KY, 40004","Match","Exact","125 KEYSTONE AVE, BARDSTOWN, KY, 40004",617090282,"L"
41895,"125 KILLIS BLVD","RICHLANDS","NC",28574,34.9359336520001,-77.550724421,395,"125 KILLIS BLVD, RICHLANDS, NC, 28574","Match","Exact","125 KILLIS BLVD, RICHLANDS, NC, 28574",620025833,"R"
41896,"125 KINGS HIGHWAY","NORTH HAVEN","CT",6473,41.4081878920001,-72.871335248,396,"125 KINGS HIGHWAY, NORTH HAVEN, CT, 6473","Match","Exact","125 KINGS HWY, NORTH HAVEN, CT, 06473",651701102,"L"
41897,"125 KINGSTON RD","EXETER","NH",3833,42.9630257220001,-70.99309128,397,"125 KINGSTON RD, EXETER, NH, 3833","Match","Exact","125 KINGSTON RD, EXETER, NH, 03833",113713555,"R"
41898,"125 LAKEFOREST TRAIL","SANFORD","NC",27332,35.2891702260001,-79.021768602,398,"125 LAKEFOREST TRAIL, SANFORD, NC, 27332","Match","Exact","125 LAKEFOREST TRL, SANFORD, NC, 27332",71978770,"L"
41899,"125 LANCASTER BLVD","MECHANICSBURG","PA",17055,40.213978238,-76.9786935779999,399,"125 LANCASTER BLVD, MECHANICSBURG, PA, 17055","Match","Exact","125 LANCASTER BLVD, MECHANICSBURG, PA, 17055",60942960,"L"
41900,"125 LANCASTER STREET","COHOES","NY",12047,42.7679124050001,-73.7025986089999,400,"125 LANCASTER STREET, COHOES, NY, 12047","Match","Exact","125 LANCASTER ST, COHOES, NY, 12047",18312485,"R"
41901,"125 LARK STREET","COBLESKILL","NY",12043,42.6796038620001,-74.482496392,401,"125 LARK STREET, COBLESKILL, NY, 12043","Match","Exact","125 LARK ST, COBLESKILL, NY, 12043",640420204,"L"
41902,"125 LEONE DRIVE","BRICK","NJ",8724,40.065038391,-74.090830404,402,"125 LEONE DRIVE, BRICK, NJ, 8724","Match","Exact","125 LEONE DR, BRICK, NJ, 08724",203733934,"L"
41903,"125 LINCOLN STREET","JEFFERSON","WI",53038,43.078331919,-88.774801467,403,"125 LINCOLN STREET, JEFFERSON, WI, 53038","Match","Non_Exact","125 LINCOLN ST, JOHNSON CREEK, WI, 53038",53213150,"L"
41904,"125 LINCOLN STREET","JOHNSON CREEK","WI",53038,43.078331919,-88.774801467,404,"125 LINCOLN STREET, JOHNSON CREEK, WI, 53038","Match","Exact","125 LINCOLN ST, JOHNSON CREEK, WI, 53038",53213150,"L"
41905,"125 LITTTLE ROCK ROAD","DEKALB","MS",39328,32.7278759270001,-88.848761856,405,"125 LITTTLE ROCK ROAD, DEKALB, MS, 39328","Match","Non_Exact","125 LITTLE ROCK RD, DE KALB, MS, 39328",607672995,"L"
41906,"125 LOCHWEED DRIVE","COLUMBIA","SC",29212,34.084873497,-81.221623312,406,"125 LOCHWEED DRIVE, COLUMBIA, SC, 29212","Match","Exact","125 LOCHWEED DR, COLUMBIA, SC, 29212",70073143,"L"
41907,"125 LOCUST AVENU","OAKDALE","NY",11769,40.7376579370001,-73.113259334,407,"125 LOCUST AVENU, OAKDALE, NY, 11769","Match","Exact","125 LOCUST AVE, OAKDALE, NY, 11769",114015003,"L"
41908,"125 LOCUST STREET","HARRISBURG","PA",17101,40.260624396,-76.884341351,408,"125 LOCUST STREET, HARRISBURG, PA, 17101","Match","Exact","125 LOCUST ST, HARRISBURG, PA, 17101",70817640,"R"
41909,"125 LOWER RED ROCK ROAD","BASTROP","TX",78602,30.0749168890001,-97.359307813,409,"125 LOWER RED ROCK ROAD, BASTROP, TX, 78602","Match","Exact","125 LOWER RED ROCK RD, BASTROP, TX, 78602",45467370,"R"
41910,"125 LUNDY STREET","COLUMBUS","OH",43215,39.977894377,-83.0060758939999,410,"125 LUNDY STREET, COLUMBUS, OH, 43215","Match","Exact","125 LUNDY ST, COLUMBUS, OH, 43215",218681170,"L"
41911,"125 MAIN ROAD NE","HUNTSVILLE","AL",35811,34.7964932630001,-86.55225702,411,"125 MAIN ROAD NE, HUNTSVILLE, AL, 35811","Match","Exact","125 MAIN RD NE, HUNTSVILLE, AL, 35811",236725768,"R"
41912,"125 MAIN ST 845","SOUTHINGTON","CT",6489,41.5996466080001,-72.8780674349999,412,"125 MAIN ST 845, SOUTHINGTON, CT, 6489","Match","Exact","125 MAIN ST, SOUTHINGTON, CT, 06489",3508908,"L"
41913,"125 MAIN ST PO BOX 488","BRIDGEPORT","NJ",8014,39.8007907960001,-75.341376299,413,"125 MAIN ST PO BOX 488, BRIDGEPORT, NJ, 8014","Match","Exact","125 MAIN ST, BRIDGEPORT, NJ, 08014",134579112,"R"
41914,"125 MAIN ST STE 500-204","BLACKSBURG","VA",24060,NA,NA,414,"125 MAIN ST STE 500-204, BLACKSBURG, VA, 24060","Tie",NA,NA,NA,NA
41915,"125 MAIN ST","COLESBURG","IA",52035,42.6349041620001,-91.202503324,415,"125 MAIN ST, COLESBURG, IA, 52035","Match","Exact","125 MAIN ST, COLESBURG, IA, 52035",634189621,"R"
41916,"125 MAPLE AVE EXT","BLAIRSVILLE","PA",15717,40.4405719220001,-79.239350883,416,"125 MAPLE AVE EXT, BLAIRSVILLE, PA, 15717","Match","Non_Exact","125 MAPLE AVE EXD, BLAIRSVILLE, PA, 15717",66296191,"R"
41917,"125 MAPLE AVENUE EXTENSION","BLAIRSVILLE","PA",15717,NA,NA,417,"125 MAPLE AVENUE EXTENSION, BLAIRSVILLE, PA, 15717","No_Match",NA,NA,NA,NA
41918,"125 MAPLE JONES DRIVE","CANYON LAKE","TX",78133,NA,NA,418,"125 MAPLE JONES DRIVE, CANYON LAKE, TX, 78133","No_Match",NA,NA,NA,NA
41919,"125 MARIA BLVD","ARCHBALD","PA",18403,41.492626925,-75.56480837,419,"125 MARIA BLVD, ARCHBALD, PA, 18403","Match","Exact","125 MARIA BLVD, ARCHBALD, PA, 18403",139342923,"L"
41920,"125 MARIA BOULEVARD","ARCHBALD","PA",18403,41.492626925,-75.56480837,420,"125 MARIA BOULEVARD, ARCHBALD, PA, 18403","Match","Exact","125 MARIA BLVD, ARCHBALD, PA, 18403",139342923,"L"
41921,"125 MARINERS COVE ROAD UNIT A","HAMPTON","VA",23669,37.025574061,-76.335578074,421,"125 MARINERS COVE ROAD UNIT A, HAMPTON, VA, 23669","Match","Exact","125 MARINERS COVE RD, HAMPTON, VA, 23669",103803809,"L"
41922,"125 MASON ST","OSHKOSH","WI",54902,44.017528929,-88.568632868,422,"125 MASON ST, OSHKOSH, WI, 54902","Match","Exact","125 MASON ST, OSHKOSH, WI, 54902",74489612,"R"
41923,"125 MCKAIG RD","MURFREESBORO","TN",37129,35.736441303,-86.409176988,423,"125 MCKAIG RD, MURFREESBORO, TN, 37129","Match","Non_Exact","125 MCKAIG RD, MURFREESBORO, TN, 37127",59018076,"R"
41924,"125 MCLAUGHLIN DRIVE","MAHOPAC","NY",10541,41.3715207180001,-73.703889891,424,"125 MCLAUGHLIN DRIVE, MAHOPAC, NY, 10541","Match","Exact","125 MCLAUGHLIN DR, MAHOPAC, NY, 10541",139679256,"L"
41925,"125 MEADOWVIEW CT","SEVEN DEVILS","NC",28604,36.1648047210001,-81.7923789399999,425,"125 MEADOWVIEW CT, SEVEN DEVILS, NC, 28604","Match","Exact","125 MEADOWVIEW CT, SEVEN DEVILS, NC, 28604",234425342,"L"
41926,"125 MERCURY DRIVE","ARAB","AL",35016,34.3040418460001,-86.544890922,426,"125 MERCURY DRIVE, ARAB, AL, 35016","Match","Exact","125 MERCURY DR, ARAB, AL, 35016",99238727,"L"
41927,"125 MIDDLETOWN ROAD","WATERFORD","NY",12188,42.8118135220001,-73.685857588,427,"125 MIDDLETOWN ROAD, WATERFORD, NY, 12188","Match","Exact","125 MIDDLETOWN RD, WATERFORD, NY, 12188",18814394,"R"
41928,"125 MILES ST","HARRIMAN","TN",37748,35.8708371490001,-84.54632086,428,"125 MILES ST, HARRIMAN, TN, 37748","Match","Exact","125 MILES ST, HARRIMAN, TN, 37748",88595306,"R"
41929,"125 MILL ROCK ROAD","HAMDEN","CT",6517,41.338140379,-72.917831399,429,"125 MILL ROCK ROAD, HAMDEN, CT, 6517","Match","Exact","125 MILL ROCK RD, HAMDEN, CT, 06517",3699939,"R"
41930,"125 MILLER DRIVE","SEBASTIAN","FL",32958,27.766467274,-80.457263434,430,"125 MILLER DRIVE, SEBASTIAN, FL, 32958","Match","Exact","125 MILLER DR, SEBASTIAN, FL, 32958",120337378,"L"
41931,"125 MILTON AVENUE","ALPHARETTA","GA",30009,34.075840429,-84.2997538879999,431,"125 MILTON AVENUE, ALPHARETTA, GA, 30009","Match","Exact","125 MILTON AVE, ALPHARETTA, GA, 30009",17387166,"R"
41932,"125 MORROW ROAD","SPARTANBURG","SC",29303,34.97515015,-82.035084636,432,"125 MORROW ROAD, SPARTANBURG, SC, 29303","Match","Exact","125 MORROW RD, SPARTANBURG, SC, 29303",19514758,"L"
41933,"125 MORSE ST","WATERTOWN","MA",2472,42.3619102060001,-71.1914816359999,433,"125 MORSE ST, WATERTOWN, MA, 2472","Match","Exact","125 MORSE ST, WATERTOWN, MA, 02472",86864863,"R"
41934,"125 MOUNTAIN LAUREL LANE","ABINGTON","MA",2351,42.1352432100001,-70.9563952619999,434,"125 MOUNTAIN LAUREL LANE, ABINGTON, MA, 2351","Match","Exact","125 MOUNTAIN LAUREL LN, ABINGTON, MA, 02351",87490007,"R"
41935,"125 MUNICIPAL DRIVE","SUGAR GROVE","IL",60554,41.762676712,-88.455553557,435,"125 MUNICIPAL DRIVE, SUGAR GROVE, IL, 60554","Match","Exact","125 MUNICIPAL DR, SUGAR GROVE, IL, 60554",633570005,"R"
41936,"125 N 12TH ST","COLORADO SPRINGS","CO",80904,38.8383590450001,-104.842501524,436,"125 N 12TH ST, COLORADO SPRINGS, CO, 80904","Match","Exact","125 N 12TH ST, COLORADO SPRINGS, CO, 80904",105563732,"R"
41937,"125 N 27TH STREET","FORT DODGE","IA",50501,42.508260627,-94.160719759,437,"125 N 27TH STREET, FORT DODGE, IA, 50501","Match","Exact","125 N 27TH ST, FORT DODGE, IA, 50501",66085178,"R"
41938,"125 N 2ND ST STE 110-543","PHOENIX","AZ",85004,NA,NA,438,"125 N 2ND ST STE 110-543, PHOENIX, AZ, 85004","Tie",NA,NA,NA,NA
41939,"125 N 2ND ST STE 110","PHOENIX","AZ",85004,NA,NA,439,"125 N 2ND ST STE 110, PHOENIX, AZ, 85004","Tie",NA,NA,NA,NA
41940,"125 N 380 E PO BOX 744","MILLVILLE","UT",84326,NA,NA,440,"125 N 380 E PO BOX 744, MILLVILLE, UT, 84326","No_Match",NA,NA,NA,NA
41941,"125 N BROADNAX STREET ROOM 23","DADEVILLE","AL",36853,NA,NA,441,"125 N BROADNAX STREET ROOM 23, DADEVILLE, AL, 36853","Tie",NA,NA,NA,NA
41942,"125 N CEDAR STREET NO 5","TRUTH OR CONSEQUENCE","NM",87901,33.1307953040001,-107.249306638,442,"125 N CEDAR STREET NO 5, TRUTH OR CONSEQUENCE, NM, 87901","Match","Non_Exact","125 CEDAR ST, TRUTH OR CONSEQUENCES, NM, 87901",193101083,"R"
41943,"125 N COUNTY ROAD 425E","ARCOLA","IL",61910,39.670391093,-88.3905655299999,443,"125 N COUNTY ROAD 425E, ARCOLA, IL, 61910","Match","Exact","125 N CO RD 425E, ARCOLA, IL, 61910",606301019,"R"
41944,"125 N EXECUTIVE DR  STE100","BROOKFIELD","WI",53005,NA,NA,444,"125 N EXECUTIVE DR  STE100, BROOKFIELD, WI, 53005","Tie",NA,NA,NA,NA
41945,"125 N HAMILTON ST UNIT 406","MADISON","WI",53703,NA,NA,445,"125 N HAMILTON ST UNIT 406, MADISON, WI, 53703","Tie",NA,NA,NA,NA
41946,"125 N JACKSON AVENUE SUITE 104","SAN JOSE","CA",95116,NA,NA,446,"125 N JACKSON AVENUE SUITE 104, SAN JOSE, CA, 95116","Tie",NA,NA,NA,NA
41947,"125 N KALAMAZOO STREET SUITE 538","PAW PAW","MI",49079,42.2179500600001,-85.8909109429999,447,"125 N KALAMAZOO STREET SUITE 538, PAW PAW, MI, 49079","Match","Exact","125 KALAMAZOO ST, PAW PAW, MI, 49079",651985723,"L"
41948,"125 N LAKE SILVER DR NW","WINTER HAVEN","FL",33881,28.029703994,-81.726685683,448,"125 N LAKE SILVER DR NW, WINTER HAVEN, FL, 33881","Match","Non_Exact","125 LAKE SILVER DR, WINTER HAVEN, FL, 33881",104892673,"R"
41949,"125 N LEE STREET APT 503","ALEXANDRIA","VA",22314,NA,NA,449,"125 N LEE STREET APT 503, ALEXANDRIA, VA, 22314","Tie",NA,NA,NA,NA
41950,"125 N LIBERTY ST","ORWIGSBURG","PA",17961,40.6558556260001,-76.101658041,450,"125 N LIBERTY ST, ORWIGSBURG, PA, 17961","Match","Exact","125 N LIBERTY ST, ORWIGSBURG, PA, 17961",70949903,"L"
41951,"125 N MAIN AVENUE","HARTFORD","SD",57033,43.6222678830001,-96.945675701,451,"125 N MAIN AVENUE, HARTFORD, SD, 57033","Match","Exact","125 N MAIN AVE, HARTFORD, SD, 57033",34964795,"L"
41952,"125 N MAIN ST","BLUE EARTH","MN",56013,43.638910111,-94.102492632,452,"125 N MAIN ST, BLUE EARTH, MN, 56013","Match","Exact","125 N MAIN ST, BLUE EARTH, MN, 56013",28609919,"L"
41953,"125 N MARKET ST SUITE 1603","WICHITA","KS",67202,NA,NA,453,"125 N MARKET ST SUITE 1603, WICHITA, KS, 67202","Tie",NA,NA,NA,NA
41954,"125 N RURAL ST","HARTFORD","WI",53027,43.320617767,-88.38089997,454,"125 N RURAL ST, HARTFORD, WI, 53027","Match","Exact","125 N RURAL ST, HARTFORD, WI, 53027",79556142,"L"
41955,"125 N SANDUSKY ST","DELAWARE","OH",43015,40.3029883090001,-83.067416628,455,"125 N SANDUSKY ST, DELAWARE, OH, 43015","Match","Exact","125 N SANDUSKY ST, DELAWARE, OH, 43015",635844951,"L"
41956,"125 N SCHOOL ST","MANCHESTER","CT",6042,41.798213504,-72.522865797,456,"125 N SCHOOL ST, MANCHESTER, CT, 6042","Match","Exact","125 N SCHOOL ST, MANCHESTER, CT, 06042",3492186,"R"
41957,"125 N SHADOWHAVEN WAY","HENDERSONVILLE","TN",37075,NA,NA,457,"125 N SHADOWHAVEN WAY, HENDERSONVILLE, TN, 37075","Tie",NA,NA,NA,NA
41958,"125 N WILLOW ST STE B","KENAI","AK",99611,NA,NA,458,"125 N WILLOW ST STE B, KENAI, AK, 99611","Tie",NA,NA,NA,NA
41959,"125 NATCHES LN","ROYAL","AR",71968,34.518266499,-93.191330501,459,"125 NATCHES LN, ROYAL, AR, 71968","Match","Exact","125 NATCHES LN, ROYAL, AR, 71968",22741758,"L"
41960,"125 NEAL STREET","GRASS VALLEY","CA",95945,39.216801091,-121.062420731,460,"125 NEAL STREET, GRASS VALLEY, CA, 95945","Match","Exact","125 NEAL ST, GRASS VALLEY, CA, 95945",106535601,"L"
41961,"125 NELSON ST","BARRE","VT",5641,44.194910335,-72.48808432,461,"125 NELSON ST, BARRE, VT, 5641","Match","Exact","125 NELSON ST, BARRE, VT, 05641",136676648,"R"
41962,"125 NICKAJACK NORTH","SANTA ROSA BEACH","FL",32459,30.351905163,-86.2151285309999,462,"125 NICKAJACK NORTH, SANTA ROSA BEACH, FL, 32459","Match","Exact","125 NICKAJACK N, SANTA ROSA BEACH, FL, 32459",624859117,"R"
41963,"125 NORMANDY AVE","ROCHESTER","NY",14619,43.144977012,-77.644594089,463,"125 NORMANDY AVE, ROCHESTER, NY, 14619","Match","Exact","125 NORMANDY AVE, ROCHESTER, NY, 14619",14533079,"R"
41964,"125 NORTH 11TH ST POB 631","PONCHATOULA","LA",70454,30.446959113,-90.4470757,464,"125 NORTH 11TH ST POB 631, PONCHATOULA, LA, 70454","Match","Exact","125 N 11TH ST, PONCHATOULA, LA, 70454",75755522,"R"
41965,"125 NORTH 16TH STREET","MAMMOTH SPRING","AR",72554,36.494945462,-91.55580048,465,"125 NORTH 16TH STREET, MAMMOTH SPRING, AR, 72554","Match","Exact","125 N 16TH ST, MAMMOTH SPRING, AR, 72554",2048382,"R"
41966,"125 NORTH BROAD STREET","KLAMATH FALLS","OR",97601,42.228594849,-121.77567103,466,"125 NORTH BROAD STREET, KLAMATH FALLS, OR, 97601","Match","Exact","125 N BROAD ST, KLAMATH FALLS, OR, 97601",156657393,"R"
41967,"125 NORTH PALM AVENUE","VIRGINIA BEACH","VA",23452,36.84054001,-76.1231929369999,467,"125 NORTH PALM AVENUE, VIRGINIA BEACH, VA, 23452","Match","Exact","125 N PALM AVE, VA BCH, VA, 23452",122279690,"L"
41968,"125 NORTH WATER STREET","PAULDING","OH",45879,41.137587533,-84.578565854,468,"125 NORTH WATER STREET, PAULDING, OH, 45879","Match","Exact","125 N WATER ST, PAULDING, OH, 45879",6711060,"R"
41969,"125 NORTH WEST STREET","CARLINVILLE","IL",62626,39.2799333030001,-89.882907906,469,"125 NORTH WEST STREET, CARLINVILLE, IL, 62626","Match","Exact","125 N WEST ST, CARLINVILLE, IL, 62626",97939063,"R"
41970,"125 NUNNERY LANE","CATONSVILLE","MD",21228,39.2792920900001,-76.716091202,470,"125 NUNNERY LANE, CATONSVILLE, MD, 21228","Match","Exact","125 NUNNERY LN, CATONSVILLE, MD, 21228",191556778,"R"
41971,"125 OAKRIDGE WAY","RIO VISTA","CA",94571,38.189052309,-121.717196494,471,"125 OAKRIDGE WAY, RIO VISTA, CA, 94571","Match","Exact","125 OAKRIDGE WAY, RIO VISTA, CA, 94571",192614423,"L"
41972,"125 OLD ALICE RD","BROWNSVILLE","TX",78520,25.9241547780001,-97.495871119,472,"125 OLD ALICE RD, BROWNSVILLE, TX, 78520","Match","Exact","125 OLD ALICE RD, BROWNSVILLE, TX, 78520",89965042,"L"
41973,"125 OLD LITCHFIELD ROAD","WASHINGTON DEPOT","CT",6794,41.654271302,-73.2849528469999,473,"125 OLD LITCHFIELD ROAD, WASHINGTON DEPOT, CT, 6794","Match","Exact","125 OLD LITCHFIELD RD, WASHINGTON DEPOT, CT, 06794",649728045,"L"
41974,"125 OLD SONORA ROAD","SONORA","KY",42776,37.53858905,-85.8792163259999,474,"125 OLD SONORA ROAD, SONORA, KY, 42776","Match","Exact","125 OLD SONORA RD, SONORA, KY, 42776",34624844,"L"
41975,"125 OLDE GREENWICH DRIVE SUITE 160","FREDERICKSBURG","VA",22408,38.271738343,-77.48232777,475,"125 OLDE GREENWICH DRIVE SUITE 160, FREDERICKSBURG, VA, 22408","Match","Exact","125 OLDE GREENWICH DR, FREDERICKSBURG, VA, 22408",641114995,"R"
41976,"125 OLDE GREENWICH SUITE 240","FREDERICKSBURG","VA",22408,38.271738343,-77.48232777,476,"125 OLDE GREENWICH SUITE 240, FREDERICKSBURG, VA, 22408","Match","Non_Exact","125 OLDE GREENWICH DR, FREDERICKSBURG, VA, 22408",641114995,"R"
41977,"125 ORIOLE DR","ANNA","TX",75409,33.3762175590001,-96.5518925279999,477,"125 ORIOLE DR, ANNA, TX, 75409","Match","Exact","125 ORIOLE DR, ANNA, TX, 75409",614154250,"R"
41978,"125 PALISADES DRIVE","SANTA BARBARA","CA",93109,34.397526091,-119.728119522,478,"125 PALISADES DRIVE, SANTA BARBARA, CA, 93109","Match","Exact","125 PALISADES DR, SANTA BARBARA, CA, 93109",108607221,"L"
41979,"125 PALMER LN","POTTSBORO","TX",75076,33.824313848,-96.690650772,479,"125 PALMER LN, POTTSBORO, TX, 75076","Match","Exact","125 PALMER LN, POTTSBORO, TX, 75076",617530920,"R"
41980,"125 PARK AVENUE- 25TH FLOOR","NEW YORK","NY",10017,40.751567714,-73.978073878,480,"125 PARK AVENUE- 25TH FLOOR, NEW YORK, NY, 10017","Match","Non_Exact","125 PARK AVE, NEW YORK, NY, 10017",59658666,"R"
41981,"125 PARK PLACE BLVD","WAXAHACHIE","TX",75165,32.40755505,-96.82303555,481,"125 PARK PLACE BLVD, WAXAHACHIE, TX, 75165","Match","Exact","125 PARK PLACE BLVD, WAXAHACHIE, TX, 75165",639355298,"R"
41982,"125 PASEO JOSE A POCHO MARTINEZ","MANATI","PR",674,NA,NA,482,"125 PASEO JOSE A POCHO MARTINEZ, MANATI, PR, 674","No_Match",NA,NA,NA,NA
41983,"125 PAUWELA RD","HAIKU","HI",96708,20.92754669,-156.322506835,483,"125 PAUWELA RD, HAIKU, HI, 96708","Match","Exact","125 PAUWELA RD, HAIKU, HI, 96708",642551199,"L"
41984,"125 PAWNEE DR","OLD FORGE","NY",13420,43.7160187900001,-74.95541817,484,"125 PAWNEE DR, OLD FORGE, NY, 13420","Match","Exact","125 PAWNEE DR, OLD FORGE, NY, 13420",153734395,"R"
41985,"125 PEBBLE CREEK HEIGHTS","MESQUITE","NV",89027,36.8297377760001,-114.065565926,485,"125 PEBBLE CREEK HEIGHTS, MESQUITE, NV, 89027","Match","Exact","125 PEBBLE CREEK HTS, MESQUITE, NV, 89027",626507812,"R"
41986,"125 PHEASANT RUN","KALISPELL","MT",59901,48.226473733,-114.311784569,486,"125 PHEASANT RUN, KALISPELL, MT, 59901","Match","Exact","125 PHEASANT RUN, KALISPELL, MT, 59901",204106411,"L"
41987,"125 PICKWICK STREET","SAVANNAH","TN",38372,NA,NA,487,"125 PICKWICK STREET, SAVANNAH, TN, 38372","Tie",NA,NA,NA,NA
41988,"125 PIN OAK DR","FLORENCE","AL",35633,34.878055724,-87.6858099,488,"125 PIN OAK DR, FLORENCE, AL, 35633","Match","Exact","125 PIN OAK DR, FLORENCE, AL, 35633",642895091,"L"
41989,"125 PINE TREE AVE","BOALSBURG","PA",16827,40.7868745820001,-77.794398766,489,"125 PINE TREE AVE, BOALSBURG, PA, 16827","Match","Exact","125 PINE TREE AVE, BOALSBURG, PA, 16827",50372005,"L"
41990,"125 PINELAND DRIVE","COPLEY","OH",44321,41.1322651400001,-81.665554527,490,"125 PINELAND DRIVE, COPLEY, OH, 44321","Match","Exact","125 PINELAND DR, COPLEY, OH, 44321",61361734,"L"
41991,"125 PINEVIEW RD","MONTEVALLO","AL",35115,33.105934759,-86.857128799,491,"125 PINEVIEW RD, MONTEVALLO, AL, 35115","Match","Exact","125 PINEVIEW RD, MONTEVALLO, AL, 35115",82061244,"R"
41992,"125 PINEVIEW WAY SE","CALHOUN","GA",30701,34.487879003,-84.927411438,492,"125 PINEVIEW WAY SE, CALHOUN, GA, 30701","Match","Non_Exact","125 PINEVIEW WAY, CALHOUN, GA, 30701",57347861,"L"
41993,"125 PINEWOOD PLACE","EMERALD ISLE","NC",28594,34.6546077240001,-77.0685260289999,493,"125 PINEWOOD PLACE, EMERALD ISLE, NC, 28594","Match","Exact","125 PINEWOOD PL, EMERALD ISLE, NC, 28594",33871219,"L"
41994,"125 PIPER LANE","MERIDIANVILLE","AL",35759,34.8553745770001,-86.591297755,494,"125 PIPER LANE, MERIDIANVILLE, AL, 35759","Match","Exact","125 PIPER LN, MERIDIANVILLE, AL, 35759",58135199,"L"
41995,"125 PLAIN STREET","HOPEDALE","MA",1747,42.112023578,-71.514605751,495,"125 PLAIN STREET, HOPEDALE, MA, 1747","Match","Exact","125 PLAIN ST, HOPEDALE, MA, 01747",40100493,"R"
41996,"125 PONDS VIEW DR","OXFORD","PA",19363,39.7720921750001,-75.974081235,496,"125 PONDS VIEW DR, OXFORD, PA, 19363","Match","Exact","125 PONDS VIEW DR, OXFORD, PA, 19363",179585931,"L"
41997,"125 PRAIRIE VIEW DR","PRINCETON","TX",75407,33.1874028990001,-96.531092759,497,"125 PRAIRIE VIEW DR, PRINCETON, TX, 75407","Match","Exact","125 PRAIRIE VIEW DR, PRINCETON, TX, 75407",210516140,"L"
41998,"125 PROSPERITY DRIVE  SUITE 500","WINCHESTER","VA",22602,NA,NA,498,"125 PROSPERITY DRIVE  SUITE 500, WINCHESTER, VA, 22602","No_Match",NA,NA,NA,NA
41999,"125 QUANTUM STREET","HOLLY SPRINGS","NC",27540,35.6583149250001,-78.835890363,499,"125 QUANTUM STREET, HOLLY SPRINGS, NC, 27540","Match","Non_Exact","125 QUANTUM DR, HOLLY SPRINGS, NC, 27540",208360279,"L"
42000,"125 RAILROAD AVE SUITE 2","HIGHTSTOWN","NJ",8520,NA,NA,500,"125 RAILROAD AVE SUITE 2, HIGHTSTOWN, NJ, 8520","No_Match",NA,NA,NA,NA
