"ID","Address","City","State","Zip","lat","long","id","input_address","match_indicator","match_type","matched_address","tiger_line_id","tiger_side"
363501,"URB SANTA MARIA CALLE ORQUIDEA 43","SAN JUAN","PR",927,NA,NA,1,"URB SANTA MARIA CALLE ORQUIDEA 43, SAN JUAN, PR, 927","No_Match",NA,NA,NA,NA
363502,"URB SANTA PAULA CALLE A 8","GUAYNABO","PR",969,NA,NA,2,"URB SANTA PAULA CALLE A 8, GUAYNABO, PR, 969","No_Match",NA,NA,NA,NA
363503,"URB TINTIILO GARDENS B19 CALLE 1","GUAYNABO","PR",966,NA,NA,3,"URB TINTIILO GARDENS B19 CALLE 1, GUAYNABO, PR, 966","Tie",NA,NA,NA,NA
363504,"URB VEREDAS 764 CAMINO DE LOS CEDRO","GURABO","PR",778,NA,NA,4,"URB VEREDAS 764 CAMINO DE LOS CEDRO, GURABO, PR, 778","No_Match",NA,NA,NA,NA
363505,"URB VILLA RETIRO CALLE 13 N7","SANTA ISABEL","PR",757,NA,NA,5,"URB VILLA RETIRO CALLE 13 N7, SANTA ISABEL, PR, 757","No_Match",NA,NA,NA,NA
363506,"URB VILLA SERENA Q 16 CALLE LIRIO","ARECIBO","PR",612,NA,NA,6,"URB VILLA SERENA Q 16 CALLE LIRIO, ARECIBO, PR, 612","Tie",NA,NA,NA,NA
363507,"URB VISTA ALEGRE SEVILLA 66","AGUADILLA","PR",603,NA,NA,7,"URB VISTA ALEGRE SEVILLA 66, AGUADILLA, PR, 603","No_Match",NA,NA,NA,NA
363508,"USAG-J - UNIT 45006 - ATTN IMJN-CH","APO","AP",96343,NA,NA,8,"USAG-J - UNIT 45006 - ATTN IMJN-CH, APO, AP, 96343","No_Match",NA,NA,NA,NA
363509,"UW MADISON 1430 MONROE STREET","MADISON","WI",53711,NA,NA,9,"UW MADISON 1430 MONROE STREET, MADISON, WI, 53711","No_Match",NA,NA,NA,NA
363510,"VALERIE VANDE PANNE PO BOX 390782","CAMBRIDGE","MA",2139,NA,NA,10,"VALERIE VANDE PANNE PO BOX 390782, CAMBRIDGE, MA, 2139","No_Match",NA,NA,NA,NA
363511,"VALLE ALTO CALLE COLINA 2040","PONCE","PR",730,NA,NA,11,"VALLE ALTO CALLE COLINA 2040, PONCE, PR, 730","No_Match",NA,NA,NA,NA
363512,"VALLEY DRIVE BUILDING 381","COLLEGE PARK","MD",20742,NA,NA,12,"VALLEY DRIVE BUILDING 381, COLLEGE PARK, MD, 20742","No_Match",NA,NA,NA,NA
363513,"VAMCSLC 500 FOOTHILL DRIVE BLDG 16","SALT LAKE CITY","UT",84148,NA,NA,13,"VAMCSLC 500 FOOTHILL DRIVE BLDG 16, SALT LAKE CITY, UT, 84148","No_Match",NA,NA,NA,NA
363514,"VAN MUNCHING HALL MOWATT LANE","COLLEGE PARK","MD",20740,NA,NA,14,"VAN MUNCHING HALL MOWATT LANE, COLLEGE PARK, MD, 20740","No_Match",NA,NA,NA,NA
363515,"VANS COY CALLE COLON CC-54","BAYAMON","PR",957,NA,NA,15,"VANS COY CALLE COLON CC-54, BAYAMON, PR, 957","No_Match",NA,NA,NA,NA
363516,"VCU DEPT OF ENGLISH 900 PARK AVE","RICHMOND","VA",23284,NA,NA,16,"VCU DEPT OF ENGLISH 900 PARK AVE, RICHMOND, VA, 23284","No_Match",NA,NA,NA,NA
363517,"VENICE WEST PO BOX 5601","SANTA MONICA","CA",90409,NA,NA,17,"VENICE WEST PO BOX 5601, SANTA MONICA, CA, 90409","No_Match",NA,NA,NA,NA
363518,"VFW POST 4766 19757 HIGHWAY 5","MOUNTAIN VIEW","AR",72560,35.893761419,-92.104284935,18,"VFW POST 4766 19757 HIGHWAY 5, MOUNTAIN VIEW, AR, 72560","Match","Non_Exact","19757 STATE HWY 5, MOUNTAIN VIEW, AR, 72560",639675618,"L"
363519,"VFW POST 4933/ 830 MINGA ROAD","KINGSPORT","TN",37663,36.4457498090001,-82.432677065,19,"VFW POST 4933/ 830 MINGA ROAD, KINGSPORT, TN, 37663","Match","Exact","830 MINGA RD, KINGSPORT, TN, 37663",127833324,"L"
363520,"VICTORY LINKS GOLF  2010 105TH AVE","BLAINE","MN",55449,45.160763697,-93.219332933,20,"VICTORY LINKS GOLF  2010 105TH AVE, BLAINE, MN, 55449","Match","Non_Exact","2010 105TH AVE NE, BLAINE, MN, 55449",97524058,"R"
363521,"VILLA BORINQUEN CALLE GUANINA I-14","CAGUAS","PR",725,NA,NA,21,"VILLA BORINQUEN CALLE GUANINA I-14, CAGUAS, PR, 725","No_Match",NA,NA,NA,NA
363522,"VILLA CARIBE 242 VIA CAMPINA","CAGUAS","PR",727,18.236817725,-66.068114037,22,"VILLA CARIBE 242 VIA CAMPINA, CAGUAS, PR, 727","Match","Exact","242 VIA CAMPINA, CAGUAS, PR, 00727",653322535,"L"
363523,"VILLA CARIBE 4 CAMPESINOS","CAGUAS","PR",727,NA,NA,23,"VILLA CARIBE 4 CAMPESINOS, CAGUAS, PR, 727","No_Match",NA,NA,NA,NA
363524,"VIRGINIA H HINCHMAN 117 US HWY 46","HACKETTSTOWN","NJ",7840,40.8598542220001,-74.872035046,24,"VIRGINIA H HINCHMAN 117 US HWY 46, HACKETTSTOWN, NJ, 7840","Match","Exact","117 US HWY 46, HACKETTSTOWN, NJ, 07840",647613814,"R"
363525,"VISTA ELEMENTARY-1701 N YOUNG ST","KENNEWICK","WA",99336,NA,NA,25,"VISTA ELEMENTARY-1701 N YOUNG ST, KENNEWICK, WA, 99336","No_Match",NA,NA,NA,NA
363526,"W  HIGH ST","ALLIANCE","OH",44601,NA,NA,26,"W  HIGH ST, ALLIANCE, OH, 44601","No_Match",NA,NA,NA,NA
363527,"W 11TH AND VINE STREETS","BERWICK","PA",18603,NA,NA,27,"W 11TH AND VINE STREETS, BERWICK, PA, 18603","No_Match",NA,NA,NA,NA
363528,"W 140TH TERRACE","OLATHE","KS",66062,NA,NA,28,"W 140TH TERRACE, OLATHE, KS, 66062","No_Match",NA,NA,NA,NA
363529,"W 1991 EAST RIVER RD","BERLIN","WI",54923,NA,NA,29,"W 1991 EAST RIVER RD, BERLIN, WI, 54923","Tie",NA,NA,NA,NA
363530,"W 477 HWY 60","RUBICON","WI",53078,43.325429871,-88.446410219,30,"W 477 HWY 60, RUBICON, WI, 53078","Match","Non_Exact","W STATE HWY 60, RUBICON, WI, 53078",53541606,"L"
363531,"W 9810 MELVILLE ROAD","CHENEY","WA",99004,NA,NA,31,"W 9810 MELVILLE ROAD, CHENEY, WA, 99004","No_Match",NA,NA,NA,NA
363532,"W COLFAX AVE NUM 222","LAKEWOOD","CO",80401,NA,NA,32,"W COLFAX AVE NUM 222, LAKEWOOD, CO, 80401","No_Match",NA,NA,NA,NA
363533,"W LEHIGH AVENUE STE 202","PHILADELPHIA","PA",19133,NA,NA,33,"W LEHIGH AVENUE STE 202, PHILADELPHIA, PA, 19133","No_Match",NA,NA,NA,NA
363534,"W1008 FROELICH RD","SULLIVAN","WI",53178,42.99313898,-88.604504877,34,"W1008 FROELICH RD, SULLIVAN, WI, 53178","Match","Exact","W1008 FROELICH RD, SULLIVAN, WI, 53178",53228362,"L"
363535,"W10121 29TH STREET","CAMP DOUGLAS","WI",54618,43.9739096070001,-90.281196715,35,"W10121 29TH STREET, CAMP DOUGLAS, WI, 54618","Match","Exact","W10121 29TH ST, CAMP DOUGLAS, WI, 54618",50947457,"R"
363536,"W10255 STATE ROAD 60","LODI","WI",53555,NA,NA,36,"W10255 STATE ROAD 60, LODI, WI, 53555","No_Match",NA,NA,NA,NA
363537,"W10493 OAK CENTER ROAD","WAUPUN","WI",53963,43.6474654020001,-88.684018841,37,"W10493 OAK CENTER ROAD, WAUPUN, WI, 53963","Match","Exact","W10493 OAK CENTER RD, WAUPUN, WI, 53963",74817853,"L"
363538,"W10528 GEIDER RD","GRESHAM","WI",54128,44.85876403,-88.775073901,38,"W10528 GEIDER RD, GRESHAM, WI, 54128","Match","Exact","W10528 GEIDER RD, GRESHAM, WI, 54128",126862983,"R"
363539,"W10574 COUNTY ROAD V","POYNETTE","WI",53955,NA,NA,39,"W10574 COUNTY ROAD V, POYNETTE, WI, 53955","No_Match",NA,NA,NA,NA
363540,"W10635 COUNTY ROAD I","REESEVILLE","WI",53579,NA,NA,40,"W10635 COUNTY ROAD I, REESEVILLE, WI, 53579","No_Match",NA,NA,NA,NA
363541,"W10804 E HARMONY DR","LODI","WI",53555,43.3730151070001,-89.53601893,41,"W10804 E HARMONY DR, LODI, WI, 53555","Match","Exact","W10804 E HARMONY DR, LODI, WI, 53555",73324548,"R"
363542,"W10812 EVIE LN","ELCHO","WI",54428,45.4400879630001,-89.190372969,42,"W10812 EVIE LN, ELCHO, WI, 54428","Match","Exact","W10812 EVIE LN, ELCHO, WI, 54428",196406221,"R"
363543,"W10882 COUNTY ROAD X","STANLEY","WI",54768,NA,NA,43,"W10882 COUNTY ROAD X, STANLEY, WI, 54768","No_Match",NA,NA,NA,NA
363544,"W10909 CURTIS LAKE ROAD","COLOMA","WI",54930,44.004172485,-89.424997258,44,"W10909 CURTIS LAKE ROAD, COLOMA, WI, 54930","Match","Exact","W10909 CURTIS LAKE RD, COLOMA, WI, 54930",73482474,"L"
363545,"W11085 RIVERSIDE RD","MARION","WI",54950,44.737526159,-88.816579917,45,"W11085 RIVERSIDE RD, MARION, WI, 54950","Match","Exact","W11085 RIVERSIDE RD, MARION, WI, 54950",635741682,"R"
363546,"W11096 CHRISTMAN ROAD LOT 12","BRUCE","WI",54819,45.46162401,-91.244281367,46,"W11096 CHRISTMAN ROAD LOT 12, BRUCE, WI, 54819","Match","Exact","W11096 CHRISTMAN RD, BRUCE, WI, 54819",126547862,"R"
363547,"W11098 LAKE POINT DRIVE","LODI","WI",53555,43.374544111,-89.550093754,47,"W11098 LAKE POINT DRIVE, LODI, WI, 53555","Match","Exact","W11098 LAKE POINT DR, LODI, WI, 53555",73335510,"R"
363548,"W1110 CTY V","BERLIN","WI",54923,NA,NA,48,"W1110 CTY V, BERLIN, WI, 54923","No_Match",NA,NA,NA,NA
363549,"W11157 BOGUS RD","DEERBROOK","WI",54424,45.32175991,-89.21375094,49,"W11157 BOGUS RD, DEERBROOK, WI, 54424","Match","Exact","W11157 BOGUS RD, DEERBROOK, WI, 54424",196400382,"R"
363550,"W11369 CO RD V","LODI","WI",53555,43.3567993890001,-89.565604122,50,"W11369 CO RD V, LODI, WI, 53555","Match","Exact","W11369 CO RD V, LODI, WI, 53555",73324617,"L"
363551,"W11415 HAWTHORN DR","WAUPUN","WI",53963,43.643484582,-88.7344269019999,51,"W11415 HAWTHORN DR, WAUPUN, WI, 53963","Match","Exact","W11415 HAWTHORN DR, WAUPUN, WI, 53963",74828626,"L"
363552,"W11499 COUNTY ROAD M","RIVER FALLS","WI",54022,NA,NA,52,"W11499 COUNTY ROAD M, RIVER FALLS, WI, 54022","No_Match",NA,NA,NA,NA
363553,"W11567 REYNOLDS ROAD","LODI","WI",53555,43.3146494630001,-89.568362524,53,"W11567 REYNOLDS ROAD, LODI, WI, 53555","Match","Exact","W11567 REYNOLDS RD, LODI, WI, 53555",73324957,"L"
363554,"W11945 PRINDLE RD","ALMA CENTER","WI",54611,44.4148755350001,-90.905933018,54,"W11945 PRINDLE RD, ALMA CENTER, WI, 54611","Match","Exact","W11945 PRINDLE RD, ALMA CENTER, WI, 54611",50676994,"L"
363555,"W11946 MAPLE RIDGE ROAD","GRESHAM","WI",54128,44.8257093330001,-88.8387213459999,55,"W11946 MAPLE RIDGE ROAD, GRESHAM, WI, 54128","Match","Exact","W11946 MAPLE RIDGE RD, GRESHAM, WI, 54128",635640482,"R"
363556,"W12002 SLACK ROAD","LODI","WI",53555,43.3547146270001,-89.596345254,56,"W12002 SLACK ROAD, LODI, WI, 53555","Match","Exact","W12002 SLACK RD, LODI, WI, 53555",73324626,"R"
363557,"W12025 COUNTY ROAD AA","RANDOLPH","WI",53956,NA,NA,57,"W12025 COUNTY ROAD AA, RANDOLPH, WI, 53956","No_Match",NA,NA,NA,NA
363558,"W12151 STATE ROAD 113","LODI","WI",53555,43.3657760560001,-89.6037695049999,58,"W12151 STATE ROAD 113, LODI, WI, 53555","Match","Exact","W12151 STATE RD 113, LODI, WI, 53555",636685371,"L"
363559,"W12297 820TH AVE","RIVER FALLS","WI",54022,44.838326409,-92.751039288,59,"W12297 820TH AVE, RIVER FALLS, WI, 54022","Match","Exact","W12297 820TH AVE, RIVER FALLS, WI, 54022",95869943,"R"
363560,"W12317 WHITETAIL RUN","LODI","WI",53555,43.364529808,-89.612121132,60,"W12317 WHITETAIL RUN, LODI, WI, 53555","Match","Exact","W12317 WHITETAIL RUN, LODI, WI, 53555",73339583,"R"
363561,"W1268 S SHORE DRIVE","PALMYRA","WI",53156,42.856799853,-88.5952935349999,61,"W1268 S SHORE DRIVE, PALMYRA, WI, 53156","Match","Exact","W1268 S SHORE DR, PALMYRA, WI, 53156",640793145,"L"
363562,"W13431 SPUR FIVE","SHELDON","WI",54766,45.3204307300001,-90.721051231,62,"W13431 SPUR FIVE, SHELDON, WI, 54766","Match","Non_Exact","W13431 SPR FIVE, SHELDON, WI, 54766",117242621,"R"
363563,"W1349 GRANT RD","RUBICON","WI",53078,43.3474089150001,-88.473234371,63,"W1349 GRANT RD, RUBICON, WI, 53078","Match","Exact","W1349 GRANT RD, RUBICON, WI, 53078",53558752,"R"
363564,"W1382 GREENVIEW ROAD","GENOA CITY","WI",53128,42.538329112,-88.367790796,64,"W1382 GREENVIEW ROAD, GENOA CITY, WI, 53128","Match","Exact","W1382 GREENVIEW RD, GENOA CITY, WI, 53128",607317045,"R"
363565,"W14012 CRESTVIEW DR","PRAIRIE DU SAC","WI",53578,43.3244420710001,-89.696102882,65,"W14012 CRESTVIEW DR, PRAIRIE DU SAC, WI, 53578","Match","Exact","W14012 CRESTVIEW DR, PRAIRIE DU SAC, WI, 53578",627096921,"L"
363566,"W14050 ISLAND LAKE ROAD","WEYERHAEUSER","WI",54895,45.3134407840001,-91.4071781919999,66,"W14050 ISLAND LAKE ROAD, WEYERHAEUSER, WI, 54895","Match","Exact","W14050 ISLAND LAKE RD, WEYERHAEUSER, WI, 54895",126548696,"L"
363567,"W140N9100 LILLY RD","MENOMONEE FALLS","WI",53051,43.181821965,-88.08359508,67,"W140N9100 LILLY RD, MENOMONEE FALLS, WI, 53051","Match","Exact","W140N9100 LILLY RD, MENOMONEE FALLS, WI, 53051",640037850,"R"
363568,"W142 S7602 CONCORD COURT","MUSKEGO","WI",53150,NA,NA,68,"W142 S7602 CONCORD COURT, MUSKEGO, WI, 53150","Tie",NA,NA,NA,NA
363569,"W1422 WESTVIEW COURT","SPRING VALLEY","WI",54767,44.8324575950001,-92.266638125,69,"W1422 WESTVIEW COURT, SPRING VALLEY, WI, 54767","Match","Exact","W1422 WESTVIEW CT, SPRING VALLEY, WI, 54767",95868430,"L"
363570,"W144 S7435 INDIAN TRAIL","MUSKEGO","WI",53150,NA,NA,70,"W144 S7435 INDIAN TRAIL, MUSKEGO, WI, 53150","Tie",NA,NA,NA,NA
363571,"W14479 HOOKER ROAD","GILMAN","WI",54433,45.263716543,-90.782932956,71,"W14479 HOOKER ROAD, GILMAN, WI, 54433","Match","Exact","W14479 HOOKER RD, GILMAN, WI, 54433",117233800,"L"
363572,"W146 N8243 SCHLAFER DR","MENOMONEE FALLS","WI",53051,NA,NA,72,"W146 N8243 SCHLAFER DR, MENOMONEE FALLS, WI, 53051","Tie",NA,NA,NA,NA
363573,"W147S6800 DURHAM PL","MUSKEGO","WI",53150,42.92158254,-88.099440148,73,"W147S6800 DURHAM PL, MUSKEGO, WI, 53150","Match","Exact","W147S6800 DURHAM PL, MUSKEGO, WI, 53150",625302482,"L"
363574,"W148 N7167 TERRIWOOD CT","MENOMONEE FALLS","WI",53051,43.147654162,-88.0954522919999,74,"W148 N7167 TERRIWOOD CT, MENOMONEE FALLS, WI, 53051","Match","Exact","W148 TERRIWOOD CT, MENOMONEE FALLS, WI, 53051",53839691,"L"
363575,"W148N10912 HIGH RIDGE CT","GERMANTOWN","WI",53022,43.216662076,-88.094377476,75,"W148N10912 HIGH RIDGE CT, GERMANTOWN, WI, 53022","Match","Exact","W148N10912 HIGH RIDGE CT, GERMANTOWN, WI, 53022",79572126,"L"
363576,"W149 N7548 SYLVAN LANE","MENOMONEE FALLS","WI",53051,NA,NA,76,"W149 N7548 SYLVAN LANE, MENOMONEE FALLS, WI, 53051","Tie",NA,NA,NA,NA
363577,"W149N9841 TREE TOPS CT","GERMANTOWN","WI",53022,43.1957525450001,-88.09763106,77,"W149N9841 TREE TOPS CT, GERMANTOWN, WI, 53022","Match","Exact","W149N9841 TREE TOPS CT, GERMANTOWN, WI, 53022",605353742,"L"
363578,"W153N8681 MARGARET ROAD","MENOMONEE FALLS","WI",53051,43.1759174580001,-88.0997603869999,78,"W153N8681 MARGARET ROAD, MENOMONEE FALLS, WI, 53051","Match","Exact","W153 MARGARET RD, MENOMONEE FALLS, WI, 53051",53813978,"R"
363579,"W1550 DREIER ROAD","HILBERT","WI",54129,44.09526743,-88.1185304429999,79,"W1550 DREIER ROAD, HILBERT, WI, 54129","Match","Exact","W1550 DREIER RD, HILBERT, WI, 54129",74787227,"L"
363580,"W156 N11347 PILGRIM RD PO BOX 430","GERMANTOWN","WI",53022,NA,NA,80,"W156 N11347 PILGRIM RD PO BOX 430, GERMANTOWN, WI, 53022","Tie",NA,NA,NA,NA
363581,"W156N11385 PILGRIM RD","GERMANTOWN","WI",53022,43.2236135460001,-88.103196172,81,"W156N11385 PILGRIM RD, GERMANTOWN, WI, 53022","Match","Exact","W156N11385 PILGRIM RD, GERMANTOWN, WI, 53022",79559751,"R"
363582,"W156N8480 PILGRIM RD","MENOMONEE FALLS","WI",53051,43.171820994,-88.103681804,82,"W156N8480 PILGRIM RD, MENOMONEE FALLS, WI, 53051","Match","Exact","W156N8480 PILGRIM RD, MENOMONEE FALLS, WI, 53051",53893007,"R"
363583,"W157 N193 W FOND DU LAC AVE","GERMANTOWN","WI",53022,NA,NA,83,"W157 N193 W FOND DU LAC AVE, GERMANTOWN, WI, 53022","Tie",NA,NA,NA,NA
363584,"W15790 US HWY 10","OSSEO","WI",54758,NA,NA,84,"W15790 US HWY 10, OSSEO, WI, 54758","No_Match",NA,NA,NA,NA
363585,"W157N10460 FIELDSTONE PASS","GERMANTOWN","WI",53022,43.211464877,-88.114564192,85,"W157N10460 FIELDSTONE PASS, GERMANTOWN, WI, 53022","Match","Exact","W157N10460 FIELDSTONE PASS, GERMANTOWN, WI, 53022",79563551,"L"
363586,"W1584 CESLER VALLEY ROAD","ALMA","WI",54610,44.396639437,-91.8490502989999,86,"W1584 CESLER VALLEY ROAD, ALMA, WI, 54610","Match","Exact","W1584 CESLER VALLEY RD, ALMA, WI, 54610",45734982,"L"
363587,"W159N4940 GRAYSLAND DR","MENOMONEE FALLS","WI",53051,43.107016501,-88.110148705,87,"W159N4940 GRAYSLAND DR, MENOMONEE FALLS, WI, 53051","Match","Non_Exact","W159 GRAYSLAND DR E, MENOMONEE FALLS, WI, 53051",53852174,"L"
363588,"W159S7181 MARTIN DR","MUSKEGO","WI",53150,NA,NA,88,"W159S7181 MARTIN DR, MUSKEGO, WI, 53150","Tie",NA,NA,NA,NA
363589,"W1642 RADER ROAD","MARINETTE","WI",54143,45.056627581,-87.678375724,89,"W1642 RADER ROAD, MARINETTE, WI, 54143","Match","Exact","W1642 RADER RD, MARINETTE, WI, 54143",169998903,"L"
363590,"W16623 BALL PARK ROAD","OSSEO","WI",54758,44.570205264,-91.2146167,90,"W16623 BALL PARK ROAD, OSSEO, WI, 54758","Match","Exact","W16623 BALL PARK RD, OSSEO, WI, 54758",46249520,"L"
363591,"W166S11015 LOOMIS DRIVE","MUSKEGO","WI",53150,NA,NA,91,"W166S11015 LOOMIS DRIVE, MUSKEGO, WI, 53150","No_Match",NA,NA,NA,NA
363592,"W16714 LANGNER ROAD","OSSEO","WI",54758,NA,NA,92,"W16714 LANGNER ROAD, OSSEO, WI, 54758","No_Match",NA,NA,NA,NA
363593,"W1689 COUNTY HWY J","MUKWONAGO","WI",53149,NA,NA,93,"W1689 COUNTY HWY J, MUKWONAGO, WI, 53149","No_Match",NA,NA,NA,NA
363594,"W16898 US HWY 10","OSSEO","WI",54758,44.5885279180001,-91.160045125,94,"W16898 US HWY 10, OSSEO, WI, 54758","Match","Exact","W16898 US HWY 10, OSSEO, WI, 54758",649744118,"R"
363595,"W1733 CTY HWY G","RANDOLPH","WI",53956,NA,NA,95,"W1733 CTY HWY G, RANDOLPH, WI, 53956","No_Match",NA,NA,NA,NA
363596,"W173N8490 WESTBRIDGE AVE","MENOMONEE FALLS","ID",53051,NA,NA,96,"W173N8490 WESTBRIDGE AVE, MENOMONEE FALLS, ID, 53051","No_Match",NA,NA,NA,NA
363597,"W174N10351 AUTUMN CT","GERMANTOWN","WI",53022,43.205762206,-88.126582975,97,"W174N10351 AUTUMN CT, GERMANTOWN, WI, 53022","Match","Exact","W174N10351 AUTUMN CT, GERMANTOWN, WI, 53022",79568386,"R"
363598,"W175N11117 STONE WOOD DR UNIT 211","GERMANTOWN","WI",53022,43.2197594880001,-88.12659454,98,"W175N11117 STONE WOOD DR UNIT 211, GERMANTOWN, WI, 53022","Match","Non_Exact","W175N11117 STONEWOOD DR, GERMANTOWN, WI, 53022",637359804,"R"
363599,"W176N5153 EVELYN TERR","MENOMONEE FALLS","WI",53051,43.110681566,-88.131117189,99,"W176N5153 EVELYN TERR, MENOMONEE FALLS, WI, 53051","Match","Exact","W176N5153 EVELYN TER, MENOMONEE FALLS, WI, 53051",53813726,"L"
363600,"W181 CHURCH RD","OCONTO FALLS","WI",54154,44.838411664,-88.255414593,100,"W181 CHURCH RD, OCONTO FALLS, WI, 54154","Match","Exact","W181 CHURCH RD, OCONTO FALLS, WI, 54154",126875608,"R"
363601,"W181N6052 JACKSON DR","MENOMONEE FALLS","WI",53051,43.1236818580001,-88.1365179909999,101,"W181N6052 JACKSON DR, MENOMONEE FALLS, WI, 53051","Match","Exact","W181N6052 JACKSON DR, MENOMONEE FALLS, WI, 53051",53813700,"R"
363602,"W1833 COUNTY RD S","ALMA","WI",54610,NA,NA,102,"W1833 COUNTY RD S, ALMA, WI, 54610","No_Match",NA,NA,NA,NA
363603,"W185 S8750 RACINE AVE","MUSKEGO","WI",53150,NA,NA,103,"W185 S8750 RACINE AVE, MUSKEGO, WI, 53150","Tie",NA,NA,NA,NA
363604,"W1869 BRYE ROAD","COON VALLEY","WI",54623,43.7322173640001,-91.0004018879999,104,"W1869 BRYE ROAD, COON VALLEY, WI, 54623","Match","Exact","W1869 BRYE RD, COON VALLEY, WI, 54623",51008562,"R"
363605,"W186S6746 JEWEL CREST DRIVE","MUSKEGO","WI",53150,42.9214506650001,-88.147706178,105,"W186S6746 JEWEL CREST DRIVE, MUSKEGO, WI, 53150","Match","Exact","W186S6746 JEWEL CREST DR, MUSKEGO, WI, 53150",53822507,"R"
363606,"W1889 HOFA PARK DRIVE","SEYMOUR","WI",54165,44.6215356810001,-88.272354029,106,"W1889 HOFA PARK DRIVE, SEYMOUR, WI, 54165","Match","Exact","W1889 HOFA PARK DR, SEYMOUR, WI, 54165",126869776,"L"
363607,"W1903 KEMPEN RD","FREEDOM","WI",54130,44.408189259,-88.283548313,107,"W1903 KEMPEN RD, FREEDOM, WI, 54130","Match","Exact","W1903 KEMPEN RD, FREEDOM, WI, 54130",74879390,"R"
363608,"W19184 LUND ROAD","STRUM","WI",54770,44.4931437210001,-91.3298773339999,108,"W19184 LUND ROAD, STRUM, WI, 54770","Match","Exact","W19184 LUND RD, STRUM, WI, 54770",46241072,"L"
363609,"W191S6445 HILLENDALE DRIVE","MUSKEGO","WI",53150,42.923697878,-88.15507968,109,"W191S6445 HILLENDALE DRIVE, MUSKEGO, WI, 53150","Match","Exact","W191S6445 HILLENDALE DR, MUSKEGO, WI, 53150",53822378,"L"
363610,"W1942 EAGLE ROAD","NESHKORO","WI",54960,NA,NA,110,"W1942 EAGLE ROAD, NESHKORO, WI, 54960","No_Match",NA,NA,NA,NA
363611,"W1951 TWIN LAKES RD","MARKESAN","WI",53946,43.794631456,-88.98552476,111,"W1951 TWIN LAKES RD, MARKESAN, WI, 53946","Match","Exact","W1951 TWIN LAKES RD, MARKESAN, WI, 53946",73448561,"R"
363612,"W196N13704 FOND DU LAC AVE","RICHFIELD","WI",53076,43.2581235050001,-88.148611343,112,"W196N13704 FOND DU LAC AVE, RICHFIELD, WI, 53076","Match","Exact","W196N13704 FOND DU LAC AVE, RICHFIELD, WI, 53076",79566877,"R"
363613,"W1971 EAGLE ROAD","NESHKORO","WI",54960,43.89040126,-89.266568419,113,"W1971 EAGLE ROAD, NESHKORO, WI, 54960","Match","Exact","W1971 EAGLE RD, NESHKORO, WI, 54960",611908124,"R"
363614,"W1973 VANS CT","FREEDOM","WI",54130,44.383835198,-88.282812233,114,"W1973 VANS CT, FREEDOM, WI, 54130","Match","Exact","W1973 VANS CT, FREEDOM, WI, 54130",74879217,"R"
363615,"W1980 OCONNOR CT","FREEDOM","WI",54130,44.3926653520001,-88.2853497999999,115,"W1980 OCONNOR CT, FREEDOM, WI, 54130","Match","Exact","W1980 OCONNOR CT, FREEDOM, WI, 54130",74899216,"L"
363616,"W1980 STATE ROAD 60","RUBICON","WI",53078,NA,NA,116,"W1980 STATE ROAD 60, RUBICON, WI, 53078","No_Match",NA,NA,NA,NA
363617,"W2017 VANS CT","FREEDOM","WI",54130,44.383835198,-88.282812233,117,"W2017 VANS CT, FREEDOM, WI, 54130","Match","Exact","W2017 VANS CT, FREEDOM, WI, 54130",74879217,"R"
363618,"W20410 STATE RD 121","WHITEHALL","WI",54773,NA,NA,118,"W20410 STATE RD 121, WHITEHALL, WI, 54773","No_Match",NA,NA,NA,NA
363619,"W2086 FINNIGANS RIDGE LANE","FREEDOM","WI",54130,44.3959927860001,-88.282575822,119,"W2086 FINNIGANS RIDGE LANE, FREEDOM, WI, 54130","Match","Exact","W2086 FINNIGANS RIDGE LN, FREEDOM, WI, 54130",617908745,"R"
363620,"W215N10015 HICKORY DR","COLGATE","WI",53017,43.202660914,-88.1763204279999,120,"W215N10015 HICKORY DR, COLGATE, WI, 53017","Match","Exact","W215N10015 HICKORY DR, COLGATE, WI, 53017",79559981,"R"
363621,"W215N10367 LAUREL COURT","COLGATE","WI",53017,43.206435017,-88.176371977,121,"W215N10367 LAUREL COURT, COLGATE, WI, 53017","Match","Exact","W215 LAUREL CT, COLGATE, WI, 53017",79559973,"R"
363622,"W216 S10586 CROWBAR ROAD","MUSKEGO","WI",53150,NA,NA,122,"W216 S10586 CROWBAR ROAD, MUSKEGO, WI, 53150","Tie",NA,NA,NA,NA
363623,"W2162 DAISY LN","BRILLION","WI",54110,44.2137247680001,-88.1445049869999,123,"W2162 DAISY LN, BRILLION, WI, 54110","Match","Exact","W2162 DAISY LN, BRILLION, WI, 54110",74788496,"R"
363624,"W2183 COUNTY ROAD B","MARINETTE","WI",54143,NA,NA,124,"W2183 COUNTY ROAD B, MARINETTE, WI, 54143","No_Match",NA,NA,NA,NA
363625,"W221S4522 SUNRIDGE COURT","WAUKESHA","WI",53189,42.9630233840001,-88.1919146069999,125,"W221S4522 SUNRIDGE COURT, WAUKESHA, WI, 53189","Match","Non_Exact","W221 SUN RIDGE CT, WAUKESHA, WI, 53189",53847328,"L"
363626,"W223 N4994 EASTVIEW DR","SUSSEX","WI",53089,NA,NA,126,"W223 N4994 EASTVIEW DR, SUSSEX, WI, 53089","Tie",NA,NA,NA,NA
363627,"W223 S9880 BIG BEND DR","BIG BEND","WI",53103,42.86526989,-88.196506083,127,"W223 S9880 BIG BEND DR, BIG BEND, WI, 53103","Match","Exact","W223 BIG BEND DR, BIG BEND, WI, 53103",627815039,"R"
363628,"W224 S7250 GUTHRIE DRIVE","BIG BEND","WI",53103,NA,NA,128,"W224 S7250 GUTHRIE DRIVE, BIG BEND, WI, 53103","Tie",NA,NA,NA,NA
363629,"W2251 COMMERCIAL ST","POY SIPPI","WI",54967,NA,NA,129,"W2251 COMMERCIAL ST, POY SIPPI, WI, 54967","No_Match",NA,NA,NA,NA
363630,"W228N791 WESTMOUND DRIVE","WAUKESHA","WI",53186,43.037804948,-88.201971267,130,"W228N791 WESTMOUND DRIVE, WAUKESHA, WI, 53186","Match","Exact","W228N791 WESTMOUND DR, WAUKESHA, WI, 53186",53812405,"L"
363631,"W228N791 WESTMOUND DRIVE","WAUWKESHA","WI",53186,43.037804948,-88.201971267,131,"W228N791 WESTMOUND DRIVE, WAUWKESHA, WI, 53186","Match","Non_Exact","W228 WESTMOUND DR, WAUKESHA, WI, 53186",53812405,"L"
363632,"W229 COUNTY ROAD V V","SEYMOUR","WI",54165,NA,NA,132,"W229 COUNTY ROAD V V, SEYMOUR, WI, 54165","No_Match",NA,NA,NA,NA
363633,"W22N5956 LYNWOOD DRIVE","LISBON","WI",53089,NA,NA,133,"W22N5956 LYNWOOD DRIVE, LISBON, WI, 53089","No_Match",NA,NA,NA,NA
363634,"W230 S9185 NEVINS STREET","BIG BEND","WI",53103,NA,NA,134,"W230 S9185 NEVINS STREET, BIG BEND, WI, 53103","Tie",NA,NA,NA,NA
363635,"W2304 COUNTY ROAD V","SHEBOYGAN FALLS","WI",53085,NA,NA,135,"W2304 COUNTY ROAD V, SHEBOYGAN FALLS, WI, 53085","No_Match",NA,NA,NA,NA
363636,"W231 S9205 RIVERSIDE STREET","BIG BEND","WI",53103,42.876820858,-88.210859939,136,"W231 S9205 RIVERSIDE STREET, BIG BEND, WI, 53103","Match","Non_Exact","W231 RIVERSIDE DR, BIG BEND, WI, 53103",53862928,"L"
363637,"W2317 E JEFFERSON ROAD","CHILTON","WI",53014,NA,NA,137,"W2317 E JEFFERSON ROAD, CHILTON, WI, 53014","No_Match",NA,NA,NA,NA
363638,"W231N7956 MARTIN CT","SUSSEX","WI",53089,43.160055309,-88.207172441,138,"W231N7956 MARTIN CT, SUSSEX, WI, 53089","Match","Exact","W231N7956 MARTIN CT, SUSSEX, WI, 53089",53859010,"R"
363639,"W234N7871 MALLARD CT","SUSSEX","WI",53089,43.1601727140001,-88.212173385,139,"W234N7871 MALLARD CT, SUSSEX, WI, 53089","Match","Exact","W234N7871 MALLARD CT, SUSSEX, WI, 53089",53859016,"L"
363640,"W23588 AMERICAN HEIGHTS LN","ARCADIA","WI",54612,NA,NA,140,"W23588 AMERICAN HEIGHTS LN, ARCADIA, WI, 54612","No_Match",NA,NA,NA,NA
363641,"W238N6924","SUSSEX","WI",53089,NA,NA,141,"W238N6924, SUSSEX, WI, 53089","No_Match",NA,NA,NA,NA
363642,"W2390 LINTON ROAD","LAKE GENEVA","WI",53147,NA,NA,142,"W2390 LINTON ROAD, LAKE GENEVA, WI, 53147","No_Match",NA,NA,NA,NA
363643,"W239N7474 HIGH RIDGE DRIVE","SUSSEX","WI",53089,NA,NA,143,"W239N7474 HIGH RIDGE DRIVE, SUSSEX, WI, 53089","No_Match",NA,NA,NA,NA
363644,"W240N6059 MAPLE AVE","SUSSEX","WI",53089,43.1250350290001,-88.224484564,144,"W240N6059 MAPLE AVE, SUSSEX, WI, 53089","Match","Exact","W240N6059 MAPLE AVE, SUSSEX, WI, 53089",53835383,"L"
363645,"W244N4850 SWAN RD","PEWAUKEE","WI",53072,43.11145543,-88.23481591,145,"W244N4850 SWAN RD, PEWAUKEE, WI, 53072","Match","Exact","W244N4850 SWAN RD, PEWAUKEE, WI, 53072",53810238,"L"
363646,"W24525 WESTVIEW LANE","TREMPEALEAU","WI",54661,NA,NA,146,"W24525 WESTVIEW LANE, TREMPEALEAU, WI, 54661","No_Match",NA,NA,NA,NA
363647,"W245N2799 SINGLE TREE DR","PEWAUKEE","WI",53072,43.0712018,-88.2343282799999,147,"W245N2799 SINGLE TREE DR, PEWAUKEE, WI, 53072","Match","Exact","W245N2799 SINGLE TREE DR, PEWAUKEE, WI, 53072",221922112,"R"
363648,"W2490 LINTON ROAD","LAKE GENEVA","WI",53147,NA,NA,148,"W2490 LINTON ROAD, LAKE GENEVA, WI, 53147","No_Match",NA,NA,NA,NA
363649,"W25281 TODD RD","TREMPEALEAU","WI",54661,44.072812759,-91.4538010049999,149,"W25281 TODD RD, TREMPEALEAU, WI, 54661","Match","Exact","W25281 TODD RD, TREMPEALEAU, WI, 54661",649752952,"L"
363650,"W256S10215 SANDHILL RDG","MUKWONAGO","WI",53149,42.858812764,-88.260656081,150,"W256S10215 SANDHILL RDG, MUKWONAGO, WI, 53149","Match","Non_Exact","W256 SANDHILL RIDGE RD, MUKWONAGO, WI, 53149",53858820,"R"
363651,"W2570 BLOCK ROAD","APPLETON","WI",54915,44.249453094,-88.317600059,151,"W2570 BLOCK ROAD, APPLETON, WI, 54915","Match","Exact","W2570 BLOCK RD, APPLETON, WI, 54915",74893219,"R"
363652,"W261 COUNTY ROAD H","FREMONT","WI",54940,NA,NA,152,"W261 COUNTY ROAD H, FREMONT, WI, 54940","No_Match",NA,NA,NA,NA
363653,"W261N4340 HIGH ROAD","PEWAUKEE","WI",53072,43.0973326430001,-88.270307657,153,"W261N4340 HIGH ROAD, PEWAUKEE, WI, 53072","Match","Exact","W261N4340 HIGH RD, PEWAUKEE, WI, 53072",53834170,"L"
363654,"W2620 RUBY CT","APPLETON","WI",54915,44.245249528,-88.320730093,154,"W2620 RUBY CT, APPLETON, WI, 54915","Match","Exact","W2620 RUBY CT, APPLETON, WI, 54915",74899670,"L"
363655,"W263 HILLENDALE DR","OCONOMOWOC","WI",53066,43.133644244,-88.546618068,155,"W263 HILLENDALE DR, OCONOMOWOC, WI, 53066","Match","Exact","W263 HILLENDALE DR, OCONOMOWOC, WI, 53066",53219765,"R"
363656,"W2637 OTTO COURT","EAST TROY","WI",53120,42.8189471690001,-88.425933333,156,"W2637 OTTO COURT, EAST TROY, WI, 53120","Match","Exact","W2637 OTTO CT, EAST TROY, WI, 53120",53675305,"R"
363657,"W2668 CLARENCE CT","LA CROSSE","WI",54601,43.7852380460001,-91.039835501,157,"W2668 CLARENCE CT, LA CROSSE, WI, 54601","Match","Exact","W2668 CLARENCE CT, LA CROSSE, WI, 54601",646405219,"L"
363658,"W267 N6982 HICKORY CHASM DR","LISBON","WI",53089,NA,NA,158,"W267 N6982 HICKORY CHASM DR, LISBON, WI, 53089","No_Match",NA,NA,NA,NA
363659,"W2679 COUNTY ROAD HH","WARRENS","WI",54666,NA,NA,159,"W2679 COUNTY ROAD HH, WARRENS, WI, 54666","No_Match",NA,NA,NA,NA
363660,"W268 N7189 THOUSAND OAKS DRIVE","LISBON","WI",53089,NA,NA,160,"W268 N7189 THOUSAND OAKS DRIVE, LISBON, WI, 53089","No_Match",NA,NA,NA,NA
363661,"W2685 LUMBER YARD ROAD","JUDA","WI",53550,42.589471518,-89.494697376,161,"W2685 LUMBER YARD ROAD, JUDA, WI, 53550","Match","Exact","W2685 LUMBER YARD RD, JUDA, WI, 53550",605416698,"R"
363662,"W270N7534 OAKWOOD CT","HARTLAND","WI",53029,43.1557016180001,-88.28762453,162,"W270N7534 OAKWOOD CT, HARTLAND, WI, 53029","Match","Exact","W270N7534 OAKWOOD CT, HARTLAND, WI, 53029",53856629,"L"
363663,"W272 N2684 LAKEVIEW BLVD","PEWAUKEE","WI",53072,NA,NA,163,"W272 N2684 LAKEVIEW BLVD, PEWAUKEE, WI, 53072","Tie",NA,NA,NA,NA
363664,"W279N8428 COPPER CT","HARTLAND","WI",53029,43.171272914,-88.299528111,164,"W279N8428 COPPER CT, HARTLAND, WI, 53029","Match","Exact","W279 COPPER CT, HARTLAND, WI, 53029",633846608,"R"
363665,"W2887 KLOSS RD","LA CROSSE","WI",54601,43.811195481,-91.0522305379999,165,"W2887 KLOSS RD, LA CROSSE, WI, 54601","Match","Exact","W2887 KLOSS RD, LA CROSSE, WI, 54601",51006611,"R"
363666,"W2887 KLOSS RD","LACROSSE","WI",54601,43.810216489,-91.054278527,166,"W2887 KLOSS RD, LACROSSE, WI, 54601","Match","Non_Exact","W2887 KLOSS RD, LA CROSSE, WI, 54601",51006611,"R"
363667,"W290N3855 FOX FIELD COURT","PEWAUKEE","WI",53072,43.087797805,-88.323543667,167,"W290N3855 FOX FIELD COURT, PEWAUKEE, WI, 53072","Match","Exact","W290 FOX FIELD CT, PEWAUKEE, WI, 53072",53844985,"R"
363668,"W291N3923 ROUND HILL CIR","PEWAUKEE","WI",53072,NA,NA,168,"W291N3923 ROUND HILL CIR, PEWAUKEE, WI, 53072","Tie",NA,NA,NA,NA
363669,"W291N3923 ROUND HILL CIRCLE","PEWAUKEE","WI",53072,NA,NA,169,"W291N3923 ROUND HILL CIRCLE, PEWAUKEE, WI, 53072","Tie",NA,NA,NA,NA
363670,"W291S5270 RIDGEFIELD ROAD","WAUKESHA","WI",53189,42.9477055090001,-88.32504044,170,"W291S5270 RIDGEFIELD ROAD, WAUKESHA, WI, 53189","Match","Exact","W291S5270 RIDGEFIELD RD, WAUKESHA, WI, 53189",53845270,"R"
363671,"W299S10917 VALLEY RIDGE DR","MUKWONAGO","WI",53149,42.8455061070001,-88.344677566,171,"W299S10917 VALLEY RIDGE DR, MUKWONAGO, WI, 53149","Match","Exact","W299S10917 VALLEY RIDGE DR, MUKWONAGO, WI, 53149",53832489,"L"
363672,"W301S1487 BRANDYBROOK RD","WAUKESHA","WI",53188,43.0172208220001,-88.346802892,172,"W301S1487 BRANDYBROOK RD, WAUKESHA, WI, 53188","Match","Exact","W301S1487 BRANDYBROOK RD, WAUKESHA, WI, 53188",653398618,"R"
363673,"W303 N8690 WOODLAND DRIVE","HARTLAND","WI",53029,NA,NA,173,"W303 N8690 WOODLAND DRIVE, HARTLAND, WI, 53029","Tie",NA,NA,NA,NA
363674,"W305N6519 BEAVER VIEW ROAD","HARTLAND","WI",53029,43.1396654000001,-88.3527256419999,174,"W305N6519 BEAVER VIEW ROAD, HARTLAND, WI, 53029","Match","Exact","W305N6519 BEAVER VIEW RD, HARTLAND, WI, 53029",53808274,"R"
363675,"W3063 STATE RD","CHILTON","WI",53014,44.0449975290001,-88.183791175,175,"W3063 STATE RD, CHILTON, WI, 53014","Match","Exact","W3063 STATE RD, CHILTON, WI, 53014",639208432,"L"
363676,"W307 NEBRASKA HALL 901 N 17TH","LINCOLN","NE",68588,40.821063425,-96.696507961,176,"W307 NEBRASKA HALL 901 N 17TH, LINCOLN, NE, 68588","Match","Non_Exact","901 N 17TH ST, LINCOLN, NE, 68588",645239413,"L"
363677,"W3097 LEHMAN ROAD","NEOSHO","WI",53059,43.334007882,-88.5504512429999,177,"W3097 LEHMAN ROAD, NEOSHO, WI, 53059","Match","Exact","W3097 LEHMAN RD, NEOSHO, WI, 53059",650742572,"R"
363678,"W3130 EAST BROADWAY DRIVE TRLR106","FREEDOM","WI",54913,44.331485704,-88.343012346,178,"W3130 EAST BROADWAY DRIVE TRLR106, FREEDOM, WI, 54913","Match","Exact","W3130 E BROADWAY DR, FREEDOM, WI, 54913",653393231,"R"
363679,"W323 S4224 GRACE COURT","WAUKESHA","WI",53189,NA,NA,179,"W323 S4224 GRACE COURT, WAUKESHA, WI, 53189","Tie",NA,NA,NA,NA
363680,"W3239 SCHMIDT RD","BRILLION","WI",54110,44.2269182850001,-88.189113929,180,"W3239 SCHMIDT RD, BRILLION, WI, 54110","Match","Exact","W3239 SCHMIDT RD, BRILLION, WI, 54110",74804956,"L"
363681,"W326 S7144 TOWER HILL CT","MUKWONAGO","WI",53149,NA,NA,181,"W326 S7144 TOWER HILL CT, MUKWONAGO, WI, 53149","Tie",NA,NA,NA,NA
363682,"W3269 COURTHOUSE LANE - P O BOX 264","KESHENA","WI",54135,44.886063279,-88.650886671,182,"W3269 COURTHOUSE LANE - P O BOX 264, KESHENA, WI, 54135","Match","Exact","W3269 COURTHOUSE LN, KESHENA, WI, 54135",196438854,"R"
363683,"W327N3883 WOODED LN","NASHOTAH","WI",53058,43.0866802410001,-88.400040637,183,"W327N3883 WOODED LN, NASHOTAH, WI, 53058","Match","Exact","W327N3883 WOODED LN, NASHOTAH, WI, 53058",53838796,"L"
363684,"W328S4389 SPRING RIDGE LN","WAUKESHA","WI",53189,42.96387509,-88.402384497,184,"W328S4389 SPRING RIDGE LN, WAUKESHA, WI, 53189","Match","Exact","W328S4389 SPRING RIDGE LN, WAUKESHA, WI, 53189",53844612,"L"
363685,"W330S6473 COUNTY RD E","NORTH PRAIRIE","WI",53153,NA,NA,185,"W330S6473 COUNTY RD E, NORTH PRAIRIE, WI, 53153","No_Match",NA,NA,NA,NA
363686,"W332N4263 GLEN PARC CIR","NASHOTAH","WI",53058,NA,NA,186,"W332N4263 GLEN PARC CIR, NASHOTAH, WI, 53058","No_Match",NA,NA,NA,NA
363687,"W333S9995 GENEVIEVE DR","MUKWONAGO","WI",53149,42.864473907,-88.4053941779999,187,"W333S9995 GENEVIEVE DR, MUKWONAGO, WI, 53149","Match","Exact","W333S9995 GENEVIEVE DR, MUKWONAGO, WI, 53149",641267568,"R"
363688,"W334N5585 ISLAND VIEW LANE","NASHOTAH","WI",53058,43.1194332430001,-88.4118319249999,188,"W334N5585 ISLAND VIEW LANE, NASHOTAH, WI, 53058","Match","Exact","W334 ISLAND VIEW LN, NASHOTAH, WI, 53058",53831942,"L"
363689,"W335N7107 STONE BANK RD","OCONOMOWOC","WI",53066,43.145390541,-88.410769514,189,"W335N7107 STONE BANK RD, OCONOMOWOC, WI, 53066","Match","Exact","W335N7107 STONE BANK RD, OCONOMOWOC, WI, 53066",53806527,"L"
363690,"W3362 CTY E","CHILTON","WI",53014,NA,NA,190,"W3362 CTY E, CHILTON, WI, 53014","No_Match",NA,NA,NA,NA
363691,"W3375 OUTLOOK DR","APPLETON","WI",54913,44.400361762,-88.3555914519999,191,"W3375 OUTLOOK DR, APPLETON, WI, 54913","Match","Exact","W3375 OUTLOOK DR, APPLETON, WI, 54913",653393240,"L"
363692,"W338N8351 PRAIRIE HOLLOW DR","OCONOMOWOC","WI",53066,43.1709366530001,-88.416299651,192,"W338N8351 PRAIRIE HOLLOW DR, OCONOMOWOC, WI, 53066","Match","Exact","W338N8351 PRAIRIE HOLLOW DR, OCONOMOWOC, WI, 53066",53910433,"R"
363693,"W345S10397 WAMBOLD ROAD","MUKWONAGO","WI",53149,42.856379653,-88.435598235,193,"W345S10397 WAMBOLD ROAD, MUKWONAGO, WI, 53149","Match","Exact","W345S10397 WAMBOLD RD, MUKWONAGO, WI, 53149",648464912,"L"
363694,"W348 S7450 COLONIAL DRIVE","EAGLE","WI",53119,NA,NA,194,"W348 S7450 COLONIAL DRIVE, EAGLE, WI, 53119","Tie",NA,NA,NA,NA
363695,"W350N5330 ROAD B","OKAUCHEE","WI",53069,NA,NA,195,"W350N5330 ROAD B, OKAUCHEE, WI, 53069","Tie",NA,NA,NA,NA
363696,"W354 N6400 MEGAN LN","OCONOMOWOC","WI",53066,NA,NA,196,"W354 N6400 MEGAN LN, OCONOMOWOC, WI, 53066","Tie",NA,NA,NA,NA
363697,"W356 N6665 E STONEWOOD DRIVE","OCONOMOWOC","WI",53066,NA,NA,197,"W356 N6665 E STONEWOOD DRIVE, OCONOMOWOC, WI, 53066","Tie",NA,NA,NA,NA
363698,"W358 N4920 HARBOR CT","OCONOMOWOC","WI",53066,NA,NA,198,"W358 N4920 HARBOR CT, OCONOMOWOC, WI, 53066","Tie",NA,NA,NA,NA
363699,"W3633 US HWY 2/41","SPALDING","MI",49886,NA,NA,199,"W3633 US HWY 2/41, SPALDING, MI, 49886","No_Match",NA,NA,NA,NA
363700,"W377S6030 COUNTY RD ZC","DOUSMAN","WI",53118,NA,NA,200,"W377S6030 COUNTY RD ZC, DOUSMAN, WI, 53118","No_Match",NA,NA,NA,NA
363701,"W3799 HWY 50","LAKE GENEVA","WI",53147,42.585297295,-88.488193904,201,"W3799 HWY 50, LAKE GENEVA, WI, 53147","Match","Non_Exact","W3899 STATE RD 50, LAKE GENEVA, WI, 53147",53678393,"R"
363702,"W379S4703 E PRETTY LAKE ROAD","DOUSMAN","WI",53118,42.954243623,-88.495546013,202,"W379S4703 E PRETTY LAKE ROAD, DOUSMAN, WI, 53118","Match","Exact","W379S4703 E PRETTY LAKE RD, DOUSMAN, WI, 53118",53864394,"L"
363703,"W3816 COUNTY RD J","PRINCETON","WI",54968,NA,NA,203,"W3816 COUNTY RD J, PRINCETON, WI, 54968","No_Match",NA,NA,NA,NA
363704,"W393 ALPINE DR","DE PERE","WI",54115,44.4657857830001,-88.2083447049999,204,"W393 ALPINE DR, DE PERE, WI, 54115","Match","Exact","W393 ALPINE DR, DE PERE, WI, 54115",74893517,"R"
363705,"W393N5888 MARY LANE","OCONOMOWOC","WI",53066,43.1279063700001,-88.5272901289999,205,"W393N5888 MARY LANE, OCONOMOWOC, WI, 53066","Match","Exact","W393N5888 MARY LN, OCONOMOWOC, WI, 53066",53804769,"R"
363706,"W3970 HWY A","ELKHORN","WI",53121,NA,NA,206,"W3970 HWY A, ELKHORN, WI, 53121","No_Match",NA,NA,NA,NA
363707,"W4054 LITTLE PRAIRIE ROAD","EAST TROY","WI",53120,42.817471389,-88.502548476,207,"W4054 LITTLE PRAIRIE ROAD, EAST TROY, WI, 53120","Match","Exact","W4054 LITTLE PRAIRIE RD, EAST TROY, WI, 53120",53682029,"L"
363708,"W4115 MANITOWOC ROAD","MENASHA","WI",54952,44.220136773,-88.246081712,208,"W4115 MANITOWOC ROAD, MENASHA, WI, 54952","Match","Exact","W4115 MANITOWOC RD, MENASHA, WI, 54952",74796976,"R"
363709,"W4139 CENTER ST","WAUBEKA","WI",53021,43.473844796,-87.995242672,209,"W4139 CENTER ST, WAUBEKA, WI, 53021","Match","Exact","W4139 CENTER ST, WAUBEKA, WI, 53021",95898635,"R"
363710,"W414 ALLISION DRIVE","KAUKAUNA","WI",54130,44.278437968,-88.207708926,210,"W414 ALLISION DRIVE, KAUKAUNA, WI, 54130","Match","Non_Exact","W414 ALLISON DR, KAUKAUNA, WI, 54130",74902451,"L"
363711,"W4233 PORTERFIELD LAKE ROAD","PORTERFIELD","WI",54159,45.164558492,-87.801509365,211,"W4233 PORTERFIELD LAKE ROAD, PORTERFIELD, WI, 54159","Match","Exact","W4233 PORTERFIELD LAKE RD, PORTERFIELD, WI, 54159",645621548,"L"
363712,"W4240 PINE POINTE LANE","TOMAHAWK","WI",54487,45.4850458970001,-89.639883171,212,"W4240 PINE POINTE LANE, TOMAHAWK, WI, 54487","Match","Exact","W4240 PINE POINTE LN, TOMAHAWK, WI, 54487",201791966,"L"
363713,"W4264 CARTER ROAD","JUDA","WI",53550,42.557576291,-89.56428175,213,"W4264 CARTER ROAD, JUDA, WI, 53550","Match","Exact","W4264 CARTER RD, JUDA, WI, 53550",48537715,"R"
363714,"W4350 WIRTH LANE","MONTICELLO","WI",53590,NA,NA,214,"W4350 WIRTH LANE, MONTICELLO, WI, 53590","No_Match",NA,NA,NA,NA
363715,"W4385 CHASE HILL DRIVE","IRMA","WI",54442,45.3660960730001,-89.648806271,215,"W4385 CHASE HILL DRIVE, IRMA, WI, 54442","Match","Exact","W4385 CHASE HILL DR, IRMA, WI, 54442",201789181,"R"
363716,"W4593 OLD 352RD","STEPHENSON","MI",49887,NA,NA,216,"W4593 OLD 352RD, STEPHENSON, MI, 49887","No_Match",NA,NA,NA,NA
363717,"W4608 RIVER RD","FREDONIA","WI",53021,43.480917435,-88.011437991,217,"W4608 RIVER RD, FREDONIA, WI, 53021","Match","Exact","W4608 RIVER RD, FREDONIA, WI, 53021",95905910,"R"
363718,"W4637 COUNTY ROAD EH","ELKHART LAKE","WI",53020,NA,NA,218,"W4637 COUNTY ROAD EH, ELKHART LAKE, WI, 53020","No_Match",NA,NA,NA,NA
363719,"W4720 PINE CT","ELKHORN","WI",53121,42.7125419560001,-88.538576598,219,"W4720 PINE CT, ELKHORN, WI, 53121","Match","Exact","W4720 PINE CT, ELKHORN, WI, 53121",53683311,"R"
363720,"W4778 ROCK RD","APPLETO","WI",54913,44.3723049560001,-88.4336662429999,220,"W4778 ROCK RD, APPLETO, WI, 54913","Match","Non_Exact","W4778 ROCK RD, APPLETON, WI, 54913",74883866,"L"
363721,"W4785 CTY HWY H C3","FREDONIA","WI",53021,NA,NA,221,"W4785 CTY HWY H C3, FREDONIA, WI, 53021","No_Match",NA,NA,NA,NA
363722,"W47N855 BOBOLINK LN","CEDARBURG","WI",53012,43.3059570660001,-87.969613395,222,"W47N855 BOBOLINK LN, CEDARBURG, WI, 53012","Match","Non_Exact","W47 BOBOLINK AVE, CEDARBURG, WI, 53012",640761049,"R"
363723,"W480 ST ROAD 18","SULLIVAN","WI",53178,NA,NA,223,"W480 ST ROAD 18, SULLIVAN, WI, 53178","No_Match",NA,NA,NA,NA
363724,"W4816 SPRINGHILL DRIVE","SHERWOOD","WI",54169,44.1724644220001,-88.282706363,224,"W4816 SPRINGHILL DRIVE, SHERWOOD, WI, 54169","Match","Non_Exact","W4816 SPRING HILL DR, SHERWOOD, WI, 54169",74785362,"L"
363725,"W4825 MEYERS RD","LA CROSSE","WI",54601,NA,NA,225,"W4825 MEYERS RD, LA CROSSE, WI, 54601","No_Match",NA,NA,NA,NA
363726,"W4849 BUTTERCUP DR","REDGRANITE","WI",54970,44.0762715390001,-89.127273354,226,"W4849 BUTTERCUP DR, REDGRANITE, WI, 54970","Match","Exact","W4849 BUTTERCUP DR, REDGRANITE, WI, 54970",73488994,"R"
363727,"W4878 CLIFF VIEW DRIVE","SHERWOOD","WI",54169,44.179748612,-88.283433975,227,"W4878 CLIFF VIEW DRIVE, SHERWOOD, WI, 54169","Match","Exact","W4878 CLIFF VIEW DR, SHERWOOD, WI, 54169",74797416,"L"
363728,"W4988 ROBINSON DR","ELKHORN","WI",53121,42.7829360120001,-88.553029779,228,"W4988 ROBINSON DR, ELKHORN, WI, 53121","Match","Exact","W4988 ROBINSON DR, ELKHORN, WI, 53121",53686527,"L"
363729,"W4994 CARLYLE RD","NEILLSVILLE","WI",54456,44.5003387830001,-90.563405893,229,"W4994 CARLYLE RD, NEILLSVILLE, WI, 54456","Match","Exact","W4994 CARLYLE RD, NEILLSVILLE, WI, 54456",50869364,"L"
363730,"W5008 COUNTY ROAD MM","COON VALLEY","WI",54623,NA,NA,230,"W5008 COUNTY ROAD MM, COON VALLEY, WI, 54623","No_Match",NA,NA,NA,NA
363731,"W5225 LAKEWOOD CIRCLE","ELKHORN","WI",53121,42.754344051,-88.56106705,231,"W5225 LAKEWOOD CIRCLE, ELKHORN, WI, 53121","Match","Exact","W5225 LAKEWOOD CIR, ELKHORN, WI, 53121",53675036,"R"
363732,"W5259 SOUTH COURT","SHAWANO","WI",54166,NA,NA,232,"W5259 SOUTH COURT, SHAWANO, WI, 54166","No_Match",NA,NA,NA,NA
363733,"W5279 HORSESHOE PL","LA CROSSE","WI",54601,43.79250847,-91.1690276909999,233,"W5279 HORSESHOE PL, LA CROSSE, WI, 54601","Match","Exact","W5279 HORSESHOE PL, LA CROSSE, WI, 54601",51022980,"R"
363734,"W5306 COUNTY RD W","HOLMEN","WI",54636,NA,NA,234,"W5306 COUNTY RD W, HOLMEN, WI, 54636","No_Match",NA,NA,NA,NA
363735,"W5327 WINDMILL RIDGE ROAD","NEW GLARUS","WI",53574,42.843224439,-89.622813094,235,"W5327 WINDMILL RIDGE ROAD, NEW GLARUS, WI, 53574","Match","Exact","W5327 WINDMILL RIDGE RD, NEW GLARUS, WI, 53574",629346787,"L"
363736,"W5378 HILLCREST RD","PHILLIPS","WI",54555,45.6485663880001,-90.31022088,236,"W5378 HILLCREST RD, PHILLIPS, WI, 54555","Match","Exact","W5378 HILLCREST RD, PHILLIPS, WI, 54555",612039300,"R"
363737,"W5427 SUNRISE RD","BONDUEL","WI",54107,44.710127458,-88.505894933,237,"W5427 SUNRISE RD, BONDUEL, WI, 54107","Match","Exact","W5427 SUNRISE RD, BONDUEL, WI, 54107",126872510,"L"
363738,"W5461 S COUNTY ROAD A","WILD ROSE","WI",54984,NA,NA,238,"W5461 S COUNTY ROAD A, WILD ROSE, WI, 54984","No_Match",NA,NA,NA,NA
363739,"W5467 HILLVIEW RD","ELKHORN","WI",53121,42.749320997,-88.575010441,239,"W5467 HILLVIEW RD, ELKHORN, WI, 53121","Match","Exact","W5467 HILLVIEW RD, ELKHORN, WI, 53121",53666396,"L"
363740,"W547 BIELEFELDT RD","MONDOVI","WI",54755,NA,NA,240,"W547 BIELEFELDT RD, MONDOVI, WI, 54755","No_Match",NA,NA,NA,NA
363741,"W5480 PLANTATION RD","ELKHORN","WI",53121,42.7546049310001,-88.563983583,241,"W5480 PLANTATION RD, ELKHORN, WI, 53121","Match","Exact","W5480 PLANTATION RD, ELKHORN, WI, 53121",635617344,"R"
363742,"W5481 PLEASANT AVE","MEDFORD","WI",54451,45.192479387,-90.31399914,242,"W5481 PLEASANT AVE, MEDFORD, WI, 54451","Match","Exact","W5481 PLEASANT AVE, MEDFORD, WI, 54451",117238719,"L"
363743,"W55 N861 CEDAR RIDGE DRIVE","CEDARBURG","WI",53012,NA,NA,243,"W55 N861 CEDAR RIDGE DRIVE, CEDARBURG, WI, 53012","Tie",NA,NA,NA,NA
363744,"W5562 NAVARINO RD","SHIOCTON","WI",54170,44.6255280060001,-88.5192501289999,244,"W5562 NAVARINO RD, SHIOCTON, WI, 54170","Match","Exact","W5562 NAVARINO RD, SHIOCTON, WI, 54170",639072394,"R"
363745,"W5588 RIVER AVE","MERRILL","WI",54452,45.1344836530001,-89.706380442,245,"W5588 RIVER AVE, MERRILL, WI, 54452","Match","Exact","W5588 RIVER AVE, MERRILL, WI, 54452",201783234,"R"
363746,"W5599 SOUTHDALE DR","LA CROSSE","WI",54601,43.7911644660001,-91.183435636,246,"W5599 SOUTHDALE DR, LA CROSSE, WI, 54601","Match","Exact","W5599 SOUTHDALE DR, LA CROSSE, WI, 54601",51022994,"L"
363747,"W56 N786 HAWTHORNE AVE","CEDARBURG","WI",53012,NA,NA,247,"W56 N786 HAWTHORNE AVE, CEDARBURG, WI, 53012","Tie",NA,NA,NA,NA
363748,"W561 STATE HIGHWAY 70","PARK FALLS","WI",54552,45.8836680420001,-90.06526368,248,"W561 STATE HIGHWAY 70, PARK FALLS, WI, 54552","Match","Exact","W561 STATE HWY 70, PARK FALLS, WI, 54552",612043690,"R"
363749,"W5689 COUNTRY MANOR RD","RANDOM LAKE","WI",53075,43.545103598,-87.979364547,249,"W5689 COUNTRY MANOR RD, RANDOM LAKE, WI, 53075","Match","Exact","W5689 COUNTRY MANOR RD, RANDOM LAKE, WI, 53075",79509685,"L"
363750,"W5739 EMERALD LN","PLYMOUTH","WI",53073,43.770954794,-87.9835970189999,250,"W5739 EMERALD LN, PLYMOUTH, WI, 53073","Match","Exact","W5739 EMERALD LN, PLYMOUTH, WI, 53073",79490940,"R"
363751,"W5742 DIANA CIRCLE DRIVE","MERRILL","WI",54452,45.1697356490001,-89.714371055,251,"W5742 DIANA CIRCLE DRIVE, MERRILL, WI, 54452","Match","Exact","W5742 DIANA CIRCLE DR, MERRILL, WI, 54452",640211940,"L"
363752,"W5762 HICKORY POINT CT","ONALASKA","WI",54650,43.884788799,-91.19214944,252,"W5762 HICKORY POINT CT, ONALASKA, WI, 54650","Match","Exact","W5762 HICKORY POINT CT, ONALASKA, WI, 54650",51011046,"R"
363753,"W5781 COUNTY ROAD G","RIO","WI",53960,NA,NA,253,"W5781 COUNTY ROAD G, RIO, WI, 53960","No_Match",NA,NA,NA,NA
363754,"W5793 COUNTY HIGHWAY A","SPOONER","WI",54801,NA,NA,254,"W5793 COUNTY HIGHWAY A, SPOONER, WI, 54801","No_Match",NA,NA,NA,NA
363755,"W5812 NUMBER 13 PT 5 LANE","WALLACE","MI",49893,NA,NA,255,"W5812 NUMBER 13 PT 5 LANE, WALLACE, MI, 49893","No_Match",NA,NA,NA,NA
363756,"W5848 DEERTAIL RD","TONY","WI",54563,NA,NA,256,"W5848 DEERTAIL RD, TONY, WI, 54563","No_Match",NA,NA,NA,NA
363757,"W5852 S GILBERT LAKE ROAD","WILD ROSE","WI",54984,44.2100955270001,-89.1769564429999,257,"W5852 S GILBERT LAKE ROAD, WILD ROSE, WI, 54984","Match","Exact","W5852 S GILBERT LAKE RD, WILD ROSE, WI, 54984",73481621,"L"
363758,"W5940 THEISEN RD","TOMAHAWK","WI",54487,45.543987895,-89.724564411,258,"W5940 THEISEN RD, TOMAHAWK, WI, 54487","Match","Exact","W5940 THEISEN RD, TOMAHAWK, WI, 54487",201776184,"L"
363759,"W5957 COUNTY ROAD X","WAUSAUKEE","WI",54177,NA,NA,259,"W5957 COUNTY ROAD X, WAUSAUKEE, WI, 54177","No_Match",NA,NA,NA,NA
363760,"W5963 NUMBER 5 25 LANE","MENOMINEE","WI",49858,NA,NA,260,"W5963 NUMBER 5 25 LANE, MENOMINEE, WI, 49858","No_Match",NA,NA,NA,NA
363761,"W5964 EASTER LILY DRIVE","APPLETON","WI",54915,44.226057268,-88.335782831,261,"W5964 EASTER LILY DRIVE, APPLETON, WI, 54915","Match","Exact","W5964 EASTER LILY DR, APPLETON, WI, 54915",612748772,"R"
363762,"W5966 SCENIC DRIVE","VULCAN","MI",49892,NA,NA,262,"W5966 SCENIC DRIVE, VULCAN, MI, 49892","No_Match",NA,NA,NA,NA
363763,"W5990 W PIONEER RD","FOND DU LAC","WI",54935,NA,NA,263,"W5990 W PIONEER RD, FOND DU LAC, WI, 54935","No_Match",NA,NA,NA,NA
363764,"W6045 COUNTY ROAD S","BLACK CREEK","WI",54106,NA,NA,264,"W6045 COUNTY ROAD S, BLACK CREEK, WI, 54106","No_Match",NA,NA,NA,NA
363765,"W6078 COUNTY ROAD J","PRINCETON","WI",54968,NA,NA,265,"W6078 COUNTY ROAD J, PRINCETON, WI, 54968","No_Match",NA,NA,NA,NA
363766,"W6151 RAWLEY POINT DRIVE","GREENVILLE","WI",54942,44.305806337,-88.496603681,266,"W6151 RAWLEY POINT DRIVE, GREENVILLE, WI, 54942","Match","Exact","W6151 RAWLEY POINT DR, GREENVILLE, WI, 54942",617907604,"L"
363767,"W6189 N WALWORTH RD","WALWORTH","WI",53184,42.574576382,-88.604462365,267,"W6189 N WALWORTH RD, WALWORTH, WI, 53184","Match","Exact","W6189 N WALWORTH RD, WALWORTH, WI, 53184",53669572,"L"
363768,"W61N306 WASHINGTON AVE","CEDARBURG","WI",53012,43.288745631,-87.986150948,268,"W61N306 WASHINGTON AVE, CEDARBURG, WI, 53012","Match","Exact","W61N306 WASHINGTON AVE, CEDARBURG, WI, 53012",95900585,"L"
363769,"W62 N718 RIVEREDGE DRIVE","CEDARBURG","WI",53012,NA,NA,269,"W62 N718 RIVEREDGE DRIVE, CEDARBURG, WI, 53012","Tie",NA,NA,NA,NA
363770,"W62N600 WASHINGTON AVE","CEDARBURG","WI",53012,43.297681063,-87.987952149,270,"W62N600 WASHINGTON AVE, CEDARBURG, WI, 53012","Match","Exact","W62N600 WASHINGTON AVE, CEDARBURG, WI, 53012",95900133,"L"
363771,"W63 N539 HANOVER AVENUE","CEDARBURG","WI",53012,NA,NA,271,"W63 N539 HANOVER AVENUE, CEDARBURG, WI, 53012","Tie",NA,NA,NA,NA
363772,"W6324 STATE ROAD 39","NEW GLARUS","WI",53574,NA,NA,272,"W6324 STATE ROAD 39, NEW GLARUS, WI, 53574","Tie",NA,NA,NA,NA
363773,"W6334 RAVINE COURT","MENASHA","WI",54952,44.204938258,-88.353586161,273,"W6334 RAVINE COURT, MENASHA, WI, 54952","Match","Exact","W6334 RAVINE CT, MENASHA, WI, 54952",74797087,"R"
363774,"W6346 HIGHPOINT RD","MONTICELLO","WI",53570,42.7196867370001,-89.663105891,274,"W6346 HIGHPOINT RD, MONTICELLO, WI, 53570","Match","Exact","W6346 HIGHPOINT RD, MONTICELLO, WI, 53570",48528887,"R"
363775,"W6357 CHAPEL RD","MAUSTON","WI",53948,43.7208283100001,-90.090422911,275,"W6357 CHAPEL RD, MAUSTON, WI, 53948","Match","Exact","W6357 CHAPEL RD, MAUSTON, WI, 53948",50953161,"R"
363776,"W63N645 WASHINGTON AVE","CEDARBURG","WI",53012,43.2985442730001,-87.9883066949999,276,"W63N645 WASHINGTON AVE, CEDARBURG, WI, 53012","Match","Exact","W63N645 WASHINGTON AVE, CEDARBURG, WI, 53012",640327691,"R"
363777,"W64N319 MADISON AVE","CEDARBURG","WI",53012,43.2880631450001,-87.9904238829999,277,"W64N319 MADISON AVE, CEDARBURG, WI, 53012","Match","Exact","W64N319 MADISON AVE, CEDARBURG, WI, 53012",95900192,"R"
363778,"W664 KEARNEY RD","BURLINGTON","WI",53105,42.715569982,-88.336361871,278,"W664 KEARNEY RD, BURLINGTON, WI, 53105","Match","Exact","W664 KEARNEY RD, BURLINGTON, WI, 53105",607341519,"L"
363779,"W6688 EMERALD COURT","GREENVILLE","WI",54942,44.298181851,-88.524985084,279,"W6688 EMERALD COURT, GREENVILLE, WI, 54942","Match","Exact","W6688 EMERALD CT, GREENVILLE, WI, 54942",74896984,"R"
363780,"W6744 ROGERSVILLE RD","FOND DU LAC","WI",54937,43.762875369,-88.4985991409999,280,"W6744 ROGERSVILLE RD, FOND DU LAC, WI, 54937","Match","Exact","W6744 ROGERSVILLE RD, FOND DU LAC, WI, 54937",74838594,"L"
363781,"W6764 COUNTY ROAD B","MONROE","WI",53566,NA,NA,281,"W6764 COUNTY ROAD B, MONROE, WI, 53566","No_Match",NA,NA,NA,NA
363782,"W6846 MARRIHILL CT","GREENVILLE","WI",54942,44.3267821170001,-88.532617353,282,"W6846 MARRIHILL CT, GREENVILLE, WI, 54942","Match","Exact","W6846 MARRIHILL CT, GREENVILLE, WI, 54942",74896834,"R"
363783,"W68N611 EVERGREEN BLVD","CEDARBURG","WI",53012,43.2976109620001,-87.9946200539999,283,"W68N611 EVERGREEN BLVD, CEDARBURG, WI, 53012","Match","Exact","W68N611 EVERGREEN BLVD, CEDARBURG, WI, 53012",636713143,"R"
363784,"W7018 DISCOVERY DR","FOND DU LAC","WI",54937,43.8169129020001,-88.511341151,284,"W7018 DISCOVERY DR, FOND DU LAC, WI, 54937","Match","Exact","W7018 DISCOVERY DR, FOND DU LAC, WI, 54937",74830077,"R"
363785,"W7061 GRUENBERG RD","BRYANT","WI",54418,45.161296173,-88.992182509,285,"W7061 GRUENBERG RD, BRYANT, WI, 54418","Match","Exact","W7061 GRUENBERG RD, BRYANT, WI, 54418",196397428,"L"
363786,"W7089 STATE HIGHWAY 180","WAUSAUKEE","WI",54177,45.366709176,-87.942699069,286,"W7089 STATE HIGHWAY 180, WAUSAUKEE, WI, 54177","Match","Exact","W7089 STATE HWY 180, WAUSAUKEE, WI, 54177",169991486,"L"
363787,"W728 RIVER BEND DRIVE","KAUKAUNA","WI",54130,44.313704939,-88.221349828,287,"W728 RIVER BEND DRIVE, KAUKAUNA, WI, 54130","Match","Exact","W728 RIVER BEND DR, KAUKAUNA, WI, 54130",74897966,"R"
363788,"W72N853 HARRISON AVENUE","CEDARBURG","WI",53012,43.3093813780001,-87.9996036909999,288,"W72N853 HARRISON AVENUE, CEDARBURG, WI, 53012","Match","Exact","W72N853 HARRISON AVE, CEDARBURG, WI, 53012",95906065,"R"
363789,"W7323 2ND LANE","PORTAGE","WI",53901,43.546925383,-89.3715792089999,289,"W7323 2ND LANE, PORTAGE, WI, 53901","Match","Exact","W7323 2ND LN, PORTAGE, WI, 53901",73348451,"R"
363790,"W7335 COUNTY ROAD F","PHILLIPS","WI",54555,NA,NA,290,"W7335 COUNTY ROAD F, PHILLIPS, WI, 54555","No_Match",NA,NA,NA,NA
363791,"W7401 UPPER PINE CREEK DRIVE","IRON MOUNTAIN","MI",49801,45.8491364160001,-88.001200312,291,"W7401 UPPER PINE CREEK DRIVE, IRON MOUNTAIN, MI, 49801","Match","Exact","W7401 UPPER PINE CREEK DR, IRON MOUNTAIN, MI, 49801",170167935,"R"
363792,"W7444 HWY 33","BEAVER DAM","WI",53916,43.444368631,-88.774636199,292,"W7444 HWY 33, BEAVER DAM, WI, 53916","Match","Non_Exact","W7444 STATE HWY 33, BEAVER DAM, WI, 53916",637072210,"R"
363793,"W7505 HIGHWAY 11","MONROE","WI",53566,42.590258185,-89.731097427,293,"W7505 HIGHWAY 11, MONROE, WI, 53566","Match","Non_Exact","W7505 STATE HWY 11, MONROE, WI, 53566",48533324,"L"
363794,"W7530 IROQUOIS TRAIL","DELAVAN","WI",53115,42.734999477,-88.671465776,294,"W7530 IROQUOIS TRAIL, DELAVAN, WI, 53115","Match","Exact","W7530 IROQUOIS TRL, DELAVAN, WI, 53115",53683475,"R"
363795,"W7573 RAPPY LAKE ROAD","SPOONER","WI",54801,45.9317548940001,-91.923502377,295,"W7573 RAPPY LAKE ROAD, SPOONER, WI, 54801","Match","Exact","W7573 RAPPY LAKE RD, SPOONER, WI, 54801",634974962,"L"
363796,"W7605 JOE SNOW RD","MERRILL","WI",54452,45.1634973320001,-89.8078835749999,296,"W7605 JOE SNOW RD, MERRILL, WI, 54452","Match","Exact","W7605 JOE SNOW RD, MERRILL, WI, 54452",201788626,"L"
363797,"W7673 NORTH STREET","WAUSAUKEE","WI",54177,45.3121362520001,-87.976087057,297,"W7673 NORTH STREET, WAUSAUKEE, WI, 54177","Match","Exact","W7673 NORTH ST, WAUSAUKEE, WI, 54177",170008632,"L"
363798,"W7690 165TH AVENUE","HAGER CITY","WI",54014,44.60031186,-92.516896982,298,"W7690 165TH AVENUE, HAGER CITY, WI, 54014","Match","Exact","W7690 165TH AVE, HAGER CITY, WI, 54014",95861920,"R"
363799,"W7725 US HWY 10","ELLSWORTH","WI",54011,NA,NA,299,"W7725 US HWY 10, ELLSWORTH, WI, 54011","No_Match",NA,NA,NA,NA
363800,"W7743 WISCONSIN PKWY","DELAVAN","WI",53115,42.7298002100001,-88.683334996,300,"W7743 WISCONSIN PKWY, DELAVAN, WI, 53115","Match","Exact","W7743 WISCONSIN PKWY, DELAVAN, WI, 53115",648511136,"R"
363801,"W7835 SHORE ACRES ROAD","LAKE MILLS","WI",53551,43.0895824140001,-88.920784853,301,"W7835 SHORE ACRES ROAD, LAKE MILLS, WI, 53551","Match","Exact","W7835 SHORE ACRES RD, LAKE MILLS, WI, 53551",53231908,"R"
363802,"W7842 AIRPORT RD","CRIVITZ","WI",54114,45.2030689920001,-87.990986479,302,"W7842 AIRPORT RD, CRIVITZ, WI, 54114","Match","Exact","W7842 AIRPORT RD, CRIVITZ, WI, 54114",624175798,"R"
363803,"W7863 COUNTY ROAD YY","WAUTOMA","WI",54982,NA,NA,303,"W7863 COUNTY ROAD YY, WAUTOMA, WI, 54982","No_Match",NA,NA,NA,NA
363804,"W7929 STATE HIGHWAY M69","IRON MOUNTAIN","MI",49801,NA,NA,304,"W7929 STATE HIGHWAY M69, IRON MOUNTAIN, MI, 49801","No_Match",NA,NA,NA,NA
363805,"W797 COUNTY ROAD K","BRILLION","WI",54110,NA,NA,305,"W797 COUNTY ROAD K, BRILLION, WI, 54110","No_Match",NA,NA,NA,NA
363806,"W799 TOWN LINE ROAD","RIPON","WI",54971,43.8952565450001,-88.916391474,306,"W799 TOWN LINE ROAD, RIPON, WI, 54971","Match","Exact","W799 TOWN LINE RD, RIPON, WI, 54971",73453814,"L"
363807,"W7996 GLACIER LN","OXFORD","WI",53952,43.8072376920001,-89.556942421,307,"W7996 GLACIER LN, OXFORD, WI, 53952","Match","Exact","W7996 GLACIER LN, OXFORD, WI, 53952",627226107,"L"
363808,"W7998 COUNTY ROAD W","BEAVER DAM","WI",53916,NA,NA,308,"W7998 COUNTY ROAD W, BEAVER DAM, WI, 53916","No_Match",NA,NA,NA,NA
363809,"W8003 COUNTY ROAD J","WATERTOWN","WI",53098,NA,NA,309,"W8003 COUNTY ROAD J, WATERTOWN, WI, 53098","No_Match",NA,NA,NA,NA
363810,"W8022 SMOCK VALLEY RD","MONROE","WI",53566,42.610364942,-89.741848455,310,"W8022 SMOCK VALLEY RD, MONROE, WI, 53566","Match","Exact","W8022 SMOCK VALLEY RD, MONROE, WI, 53566",605416429,"R"
363811,"W8087 MAPLE STREET","HOLMEN","WI",54636,43.980782365,-91.30935626,311,"W8087 MAPLE STREET, HOLMEN, WI, 54636","Match","Exact","W8087 MAPLE ST, HOLMEN, WI, 54636",632559891,"L"
363812,"W8157 COUNTY HWY A","SPOONER","WI",54801,NA,NA,312,"W8157 COUNTY HWY A, SPOONER, WI, 54801","No_Match",NA,NA,NA,NA
363813,"W8160 LEEMAN ROAD","SAGOLA","MI",49881,46.0873578910001,-88.037624877,313,"W8160 LEEMAN ROAD, SAGOLA, MI, 49881","Match","Exact","W8160 LEEMAN RD, SAGOLA, MI, 49881",170175088,"L"
363814,"W8294 COUNTY ROAD M","MERRILL","WI",54452,NA,NA,314,"W8294 COUNTY ROAD M, MERRILL, WI, 54452","No_Match",NA,NA,NA,NA
363815,"W8330 ROYAL OAKS DR","WAUTOMA","WI",54982,44.084044643,-89.293194104,315,"W8330 ROYAL OAKS DR, WAUTOMA, WI, 54982","Match","Exact","W8330 ROYAL OAKS DR, WAUTOMA, WI, 54982",73488711,"L"
363816,"W8471 STATE ROAD 39","BLANCHARDVILLE","WI",53516,NA,NA,316,"W8471 STATE ROAD 39, BLANCHARDVILLE, WI, 53516","No_Match",NA,NA,NA,NA
363817,"W8485 STATE ROAD 39","BLANCHARDVILLE","WI",53516,NA,NA,317,"W8485 STATE ROAD 39, BLANCHARDVILLE, WI, 53516","No_Match",NA,NA,NA,NA
363818,"W8485 STATE ROAD","BLANCHARDVILLE","WI",53516,NA,NA,318,"W8485 STATE ROAD, BLANCHARDVILLE, WI, 53516","No_Match",NA,NA,NA,NA
363819,"W8644 COUNTY ROAD M","MERRILL","WI",54452,NA,NA,319,"W8644 COUNTY ROAD M, MERRILL, WI, 54452","No_Match",NA,NA,NA,NA
363820,"W8709 SAWMILL ROAD","BLANCHARDVILLE","WI",53516,42.7929217280001,-89.786700541,320,"W8709 SAWMILL ROAD, BLANCHARDVILLE, WI, 53516","Match","Exact","W8709 SAWMILL RD, BLANCHARDVILLE, WI, 53516",48526288,"L"
363821,"W8803 LAKEVIEW DRIVE","IRON MOUNATIN","MI",49801,45.8522454490001,-88.062619277,321,"W8803 LAKEVIEW DRIVE, IRON MOUNATIN, MI, 49801","Match","Non_Exact","W8803 LAKEVIEW DR, IRON MOUNTAIN, MI, 49801",170160496,"R"
363822,"W8823 CTY RD TC","OAKFIELD","WI",53065,NA,NA,322,"W8823 CTY RD TC, OAKFIELD, WI, 53065","No_Match",NA,NA,NA,NA
363823,"W891 MADSEN ROAD","MARINETTE","WI",54143,45.0634062440001,-87.63827759,323,"W891 MADSEN ROAD, MARINETTE, WI, 54143","Match","Exact","W891 MADSEN RD, MARINETTE, WI, 54143",169995562,"L"
363824,"W9015 BADGER LN","SPOONER","WI",54801,45.9190601400001,-92.0035661319999,324,"W9015 BADGER LN, SPOONER, WI, 54801","Match","Exact","W9015 BADGER LN, SPOONER, WI, 54801",196352934,"R"
363825,"W9120 WA KA JA HUK ROAD","BLACK RIVER FALLS","WI",54615,44.3426061070001,-90.781526398,325,"W9120 WA KA JA HUK ROAD, BLACK RIVER FALLS, WI, 54615","Match","Exact","W9120 WA KA JA HUK RD, BLACK RIVER FALLS, WI, 54615",648703770,"L"
363826,"W9565 APPLE AVE","MEDFORD","WI",54451,45.1033242350001,-90.524717634,326,"W9565 APPLE AVE, MEDFORD, WI, 54451","Match","Exact","W9565 APPLE AVE, MEDFORD, WI, 54451",653036056,"L"
363827,"W9579 CEDAR DRIVE","PEPIN","WI",54759,44.4398272550001,-92.1306919629999,327,"W9579 CEDAR DRIVE, PEPIN, WI, 54759","Match","Exact","W9579 CEDAR DR, PEPIN, WI, 54759",46208014,"L"
363828,"W9693 LIBERTY LN","CATAWBA","WI",54515,45.566262115,-90.555685426,328,"W9693 LIBERTY LN, CATAWBA, WI, 54515","Match","Exact","W9693 LIBERTY LN, CATAWBA, WI, 54515",612044951,"L"
363829,"W9706 BONNIN RD","NEW LONDON","WI",54961,44.4073342570001,-88.675902728,329,"W9706 BONNIN RD, NEW LONDON, WI, 54961","Match","Exact","W9706 BONNIN RD, NEW LONDON, WI, 54961",74902539,"R"
363830,"W9837 COUNTY RD S","NEW LONDON","WI",54961,NA,NA,330,"W9837 COUNTY RD S, NEW LONDON, WI, 54961","No_Match",NA,NA,NA,NA
363831,"W99 N14127 SEVEN PINES WAY UNIT C","GERMANTOWN","WI",53022,NA,NA,331,"W99 N14127 SEVEN PINES WAY UNIT C, GERMANTOWN, WI, 53022","No_Match",NA,NA,NA,NA
363832,"WALNUT RIDGE ROAD","SALEM","IN",46167,NA,NA,332,"WALNUT RIDGE ROAD, SALEM, IN, 46167","No_Match",NA,NA,NA,NA
363833,"WASHINGTON AND LEE LAW ROOM 236","LEXINGTON","VA",24450,NA,NA,333,"WASHINGTON AND LEE LAW ROOM 236, LEXINGTON, VA, 24450","No_Match",NA,NA,NA,NA
363834,"WASHINGTON AND LEE SCHOOL OF LAW","LEXINGTON","VA",24450,NA,NA,334,"WASHINGTON AND LEE SCHOOL OF LAW, LEXINGTON, VA, 24450","No_Match",NA,NA,NA,NA
363835,"WASHINGTON","WASHINGTON","DC",20020,NA,NA,335,"WASHINGTON, WASHINGTON, DC, 20020","No_Match",NA,NA,NA,NA
363836,"WASHOUGAL ARTS AND CULTURE ALLIANCE","WASHOUGAL","WA",98671,NA,NA,336,"WASHOUGAL ARTS AND CULTURE ALLIANCE, WASHOUGAL, WA, 98671","No_Match",NA,NA,NA,NA
363837,"WDH RM 5-110 308 HARVARD ST SE","MINNEAPOLIS","MN",55455,44.9734989130001,-93.230315094,337,"WDH RM 5-110 308 HARVARD ST SE, MINNEAPOLIS, MN, 55455","Match","Non_Exact","308 HARVARD ST SE, MINNEAPOLIS, MN, 55414",645548290,"R"
363838,"WEBB BUILDING 2100 FOXHALL ROAD","WASHINGTON","DC",20007,38.918604982,-77.0887686569999,338,"WEBB BUILDING 2100 FOXHALL ROAD, WASHINGTON, DC, 20007","Match","Non_Exact","2100 FOXHALL RD NW, WASHINGTON, DC, 20007",623977276,"L"
363839,"WEIGEL HALL 1866 COLLEGE RD N 110","COLUMBUS","OH",43210,NA,NA,339,"WEIGEL HALL 1866 COLLEGE RD N 110, COLUMBUS, OH, 43210","No_Match",NA,NA,NA,NA
363840,"WEST ALBION ST","AVILLA","IN",46710,NA,NA,340,"WEST ALBION ST, AVILLA, IN, 46710","No_Match",NA,NA,NA,NA
363841,"WEST END WASHINGTON ST","LAREDO","TX",78040,NA,NA,341,"WEST END WASHINGTON ST, LAREDO, TX, 78040","No_Match",NA,NA,NA,NA
363842,"WEST JAKE ALEXANDER BLVD PMB 125","SALISBURY","NC",28147,NA,NA,342,"WEST JAKE ALEXANDER BLVD PMB 125, SALISBURY, NC, 28147","No_Match",NA,NA,NA,NA
363843,"WEST SILVERSPRINGS BLVD RM 2","OCALA","FL",34475,NA,NA,343,"WEST SILVERSPRINGS BLVD RM 2, OCALA, FL, 34475","No_Match",NA,NA,NA,NA
363844,"WESTBROOK","CONYERS","GA",30094,NA,NA,344,"WESTBROOK, CONYERS, GA, 30094","No_Match",NA,NA,NA,NA
363845,"WESTERN CENTER BLVD STE 303","FORT WORTH","TX",76137,NA,NA,345,"WESTERN CENTER BLVD STE 303, FORT WORTH, TX, 76137","No_Match",NA,NA,NA,NA
363846,"WEWORK CO JEN CLARK 220 NW 8TH AVE","PORTLAND","OR",97209,45.524494621,-122.678496114,346,"WEWORK CO JEN CLARK 220 NW 8TH AVE, PORTLAND, OR, 97209","Match","Exact","220 NW 8TH AVE, PORTLAND, OR, 97209",157499129,"R"
363847,"WEWORK PDC 750 N SAN VICENTE BLVD","WEST HOLLYWOOD","CA",90069,34.0835162770001,-118.383731369,347,"WEWORK PDC 750 N SAN VICENTE BLVD, WEST HOLLYWOOD, CA, 90069","Match","Exact","750 N SAN VICENTE BLVD, W HOLLYWOOD, CA, 90069",142848030,"R"
363848,"WIC 290 1025 EAST 7TH STREET","BLOOMINGTON","IN",47405,39.1684798920001,-86.5217973749999,348,"WIC 290 1025 EAST 7TH STREET, BLOOMINGTON, IN, 47405","Match","Exact","1025 E 7TH ST, BLOOMINGTON, IN, 47405",42332490,"L"
363849,"WILDCAT WAY","LOGAN","WV",25601,NA,NA,349,"WILDCAT WAY, LOGAN, WV, 25601","No_Match",NA,NA,NA,NA
363850,"WINNIPEG AVE","BROWNSVILLE","TX",78526,NA,NA,350,"WINNIPEG AVE, BROWNSVILLE, TX, 78526","No_Match",NA,NA,NA,NA
363851,"WIRTSHAFTER LAW OFFICE","GUYSVILLE","OH",45735,NA,NA,351,"WIRTSHAFTER LAW OFFICE, GUYSVILLE, OH, 45735","No_Match",NA,NA,NA,NA
363852,"WISCONSIN AVENUE","BRENTWOOD","NY",11717,NA,NA,352,"WISCONSIN AVENUE, BRENTWOOD, NY, 11717","No_Match",NA,NA,NA,NA
363853,"WISHING WELL LN","WILMINGTON","NC",28409,NA,NA,353,"WISHING WELL LN, WILMINGTON, NC, 28409","No_Match",NA,NA,NA,NA
363854,"WMS STATE SVS CNTR 805 RIVER RD","DOVER","DE",19901,39.1523920770001,-75.5142059949999,354,"WMS STATE SVS CNTR 805 RIVER RD, DOVER, DE, 19901","Match","Exact","805 RIVER RD, DOVER, DE, 19901",68088545,"R"
363855,"WOLVERTON LIBRARY  - 200 COLLEGE DR","BLACKWOOD","NJ",8012,39.784051708,-75.048584166,355,"WOLVERTON LIBRARY  - 200 COLLEGE DR, BLACKWOOD, NJ, 8012","Match","Exact","200 COLLEGE DR, BLACKWOOD, NJ, 08012",134417667,"R"
363856,"WORCESTER ST UNIV - 486 CHANDLER ST","WORCESTER","MA",1602,42.267341995,-71.839734107,356,"WORCESTER ST UNIV - 486 CHANDLER ST, WORCESTER, MA, 1602","Match","Exact","486 CHANDLER ST, WORCESTER, MA, 01602",40084687,"L"
363857,"WQ8 CALLE DELFIN URB SANTA JUANITA","BAYAMON","PR",956,18.358018632,-66.1633253219999,357,"WQ8 CALLE DELFIN URB SANTA JUANITA, BAYAMON, PR, 956","Match","Non_Exact","WQ8 CLL DELFIN, BAYAMON, PR, 00956",206020181,"L"
363858,"WTC  2200 ALASKAN WAY  SUITE 490","SEATTLE","WA",98121,NA,NA,358,"WTC  2200 ALASKAN WAY  SUITE 490, SEATTLE, WA, 98121","No_Match",NA,NA,NA,NA
363859,"WWU GEOLOGY 516 HIGH STREET","BELLINGHAM","WA",98225,48.73851037,-122.485695024,359,"WWU GEOLOGY 516 HIGH STREET, BELLINGHAM, WA, 98225","Match","Exact","516 HIGH ST, BELLINGHAM, WA, 98225",183774125,"R"
363860,"X2459","HAYS","KS",67601,NA,NA,360,"X2459, HAYS, KS, 67601","No_Match",NA,NA,NA,NA
363861,"Y","GREENSBORO","NC",27205,NA,NA,361,"Y, GREENSBORO, NC, 27205","No_Match",NA,NA,NA,NA
363862,"ZORZAL 26 URB PALMA REAL","JUNCOS","PR",777,NA,NA,362,"ZORZAL 26 URB PALMA REAL, JUNCOS, PR, 777","No_Match",NA,NA,NA,NA
