"ID","Address","City","State","Zip","lat","long","id","input_address","match_indicator","match_type","matched_address","tiger_line_id","tiger_side"
78501,"1625 HOWARD RD  BOX 210","MADERA","CA",93637,36.9527599580001,-120.076967141,1,"1625 HOWARD RD  BOX 210, MADERA, CA, 93637","Match","Exact","1625 HOWARD RD, MADERA, CA, 93637",102372473,"R"
78502,"1625 HOWARD RD 199","MADERA","CA",93637,36.9527599580001,-120.076967141,2,"1625 HOWARD RD 199, MADERA, CA, 93637","Match","Exact","1625 HOWARD RD, MADERA, CA, 93637",102372473,"R"
78503,"1625 IRVING COURT","LAWRENCE","KS",66044,38.9543837000001,-95.211884289,3,"1625 IRVING COURT, LAWRENCE, KS, 66044","Match","Exact","1625 IRVING CT, LAWRENCE, KS, 66044",17696324,"R"
78504,"1625 LEWIS LANDING AVE","WILMINGTON","NC",28405,34.2736229600001,-77.8639606039999,4,"1625 LEWIS LANDING AVE, WILMINGTON, NC, 28405","Match","Exact","1625 LEWIS LANDING AVE, WILMINGTON, NC, 28405",652172851,"R"
78505,"1625 LOST DAUPHIN RD","DEPERE","WI",54115,44.431707783,-88.07655228,5,"1625 LOST DAUPHIN RD, DEPERE, WI, 54115","Match","Non_Exact","1625 LOST DAUPHIN RD, DE PERE, WI, 54115",646230141,"L"
78506,"1625 MADISON WAY","LYNNWOOD","WA",98087,47.870047146,-122.256724746,6,"1625 MADISON WAY, LYNNWOOD, WA, 98087","Match","Exact","1625 MADISON WAY, LYNNWOOD, WA, 98087",648623806,"R"
78507,"1625 MONTVIEW RD","GREELEY","CO",80631,40.4132502590001,-104.706929847,7,"1625 MONTVIEW RD, GREELEY, CO, 80631","Match","Exact","1625 MONTVIEW RD, GREELEY, CO, 80631",188697792,"R"
78508,"1625 MOUNTVIEW RD","GREELEY","CO",80631,40.4132502590001,-104.706929847,8,"1625 MOUNTVIEW RD, GREELEY, CO, 80631","Match","Non_Exact","1625 MONTVIEW RD, GREELEY, CO, 80631",188697792,"R"
78509,"1625 N COMMERCE PKWY STE 315","WESTON","FL",33326,26.095993176,-80.365423753,9,"1625 N COMMERCE PKWY STE 315, WESTON, FL, 33326","Match","Non_Exact","1625 N COMMERCE PKWY, WESTON, FL, 33326",114789626,"L"
78510,"1625 N FREDERIC ST","BURBANK","CA",91505,34.1854548480001,-118.339392259,10,"1625 N FREDERIC ST, BURBANK, CA, 91505","Match","Exact","1625 N FREDERIC ST, BURBANK, CA, 91505",142725656,"L"
78511,"1625 NEW LONDON ST","NORTH PORT","FL",34288,27.0629709340001,-82.113842162,11,"1625 NEW LONDON ST, NORTH PORT, FL, 34288","Match","Exact","1625 NEW LONDON ST, NORTH PORT, FL, 34288",16344817,"L"
78512,"1625 NEWTON AVE","SAN DIEGO","CA",92113,32.703006848,-117.150395275,12,"1625 NEWTON AVE, SAN DIEGO, CA, 92113","Match","Exact","1625 NEWTON AVE, SAN DIEGO, CA, 92113",195344926,"R"
78513,"1625 OLD HIGHWAY 21","FOREST","MS",39074,32.382227916,-89.451876375,13,"1625 OLD HIGHWAY 21, FOREST, MS, 39074","Match","Exact","1625 OLD HWY 21, FOREST, MS, 39074",607990286,"R"
78514,"1625 PAUGER STREET","NEW ORLEANS","LA",70116,29.9666344940001,-90.060261507,14,"1625 PAUGER STREET, NEW ORLEANS, LA, 70116","Match","Exact","1625 PAUGER ST, NEW ORLEANS, LA, 70116",191716471,"R"
78515,"1625 PELICAN LAKES POINT SUITE 201","WINDSOR","CO",80550,NA,NA,15,"1625 PELICAN LAKES POINT SUITE 201, WINDSOR, CO, 80550","No_Match",NA,NA,NA,NA
78516,"1625 PORTAGE RUN","GLENVIEW","IL",60025,42.0850987050001,-87.8569110619999,16,"1625 PORTAGE RUN, GLENVIEW, IL, 60025","Match","Exact","1625 PORTAGE RUN, GLENVIEW, IL, 60025",112375575,"L"
78517,"1625 POWDER HORN LANE","ARLINGTON","TX",76018,32.645985416,-97.082090733,17,"1625 POWDER HORN LANE, ARLINGTON, TX, 76018","Match","Exact","1625 POWDER HORN LN, ARLINGTON, TX, 76018",102189711,"L"
78518,"1625 QUARRY RD","YARDLEY","PA",19067,40.245687235,-74.875218838,18,"1625 QUARRY RD, YARDLEY, PA, 19067","Match","Exact","1625 QUARRY RD, YARDLEY, PA, 19067",134779353,"L"
78519,"1625 RENAISSANCE COMMONS BLVD","BOYNTON BEACH","FL",33426,26.543230027,-80.089413247,19,"1625 RENAISSANCE COMMONS BLVD, BOYNTON BEACH, FL, 33426","Match","Exact","1625 RENAISSANCE COMMONS BLVD, BOYNTON BEACH, FL, 33426",648308647,"R"
78520,"1625 ROCK MOUNTAIN BLVD STE Q","STONE MOUNTAIN","GA",30083,33.8263225050001,-84.183693283,20,"1625 ROCK MOUNTAIN BLVD STE Q, STONE MOUNTAIN, GA, 30083","Match","Exact","1625 ROCK MOUNTAIN BLVD, STONE MOUNTAIN, GA, 30083",23399660,"R"
78521,"1625 ROCKAWAY PKWY 7D","BROOKLYN","NY",11236,40.6412070320001,-73.897926803,21,"1625 ROCKAWAY PKWY 7D, BROOKLYN, NY, 11236","Match","Exact","1625 ROCKAWAY PKWY, BROOKLYN, NY, 11236",59086745,"L"
78522,"1625 ROSWELL ROAD  SUITE 1029","MARIETTA","GA",30062,33.9507832690001,-84.510942146,22,"1625 ROSWELL ROAD  SUITE 1029, MARIETTA, GA, 30062","Match","Exact","1625 ROSWELL RD, MARIETTA, GA, 30062",649401444,"R"
78523,"1625 S BIRCH ST APT 908","DENVER","CO",80222,39.686985587,-104.936019394,23,"1625 S BIRCH ST APT 908, DENVER, CO, 80222","Match","Non_Exact","1625 S BIRCH ST, DENVER, CO, 80222",177339298,"R"
78524,"1625 S MAIN ST STE 1","LAS CRUCES","NM",88005,NA,NA,24,"1625 S MAIN ST STE 1, LAS CRUCES, NM, 88005","No_Match",NA,NA,NA,NA
78525,"1625 S SHERWOOD DR","NEW BERLIN","WI",53151,43.0136026070001,-88.096724401,25,"1625 S SHERWOOD DR, NEW BERLIN, WI, 53151","Match","Exact","1625 S SHERWOOD DR, NEW BERLIN, WI, 53151",53817235,"R"
78526,"1625 S WALNUT ST C","BURLINGTON","WA",98233,NA,NA,26,"1625 S WALNUT ST C, BURLINGTON, WA, 98233","No_Match",NA,NA,NA,NA
78527,"1625 SAWYER RD","TRAVERSE CITY","MI",49685,44.6644373840001,-85.676511515,27,"1625 SAWYER RD, TRAVERSE CITY, MI, 49685","Match","Exact","1625 SAWYER RD, TRAVERSE CITY, MI, 49685",145518601,"R"
78528,"1625 SCHRADER BLVD 3RD FL","LOS ANGELES","CA",90028,34.1002843040001,-118.332475828,28,"1625 SCHRADER BLVD 3RD FL, LOS ANGELES, CA, 90028","Match","Exact","1625 SCHRADER BLVD, LOS ANGELES, CA, 90028",141594813,"L"
78529,"1625 SHADOWMOSS CIRCLE","LAKE MARY","FL",32746,28.7677627420001,-81.4015301589999,29,"1625 SHADOWMOSS CIRCLE, LAKE MARY, FL, 32746","Match","Exact","1625 SHADOWMOSS CIR, LAKE MARY, FL, 32746",93791876,"R"
78530,"1625 SPRUCE ST","PHILADELPHIA","PA",9103,NA,NA,30,"1625 SPRUCE ST, PHILADELPHIA, PA, 9103","No_Match",NA,NA,NA,NA
78531,"1625 STEWART ST","OCEANSIDE","CA",92054,33.1814622520001,-117.358550135,31,"1625 STEWART ST, OCEANSIDE, CA, 92054","Match","Exact","1625 STEWART ST, OCEANSIDE, CA, 92054",195281127,"R"
78532,"1625 SUMMERS DRIVE","CEDAR HILL","TX",75104,32.62559888,-96.953019037,32,"1625 SUMMERS DRIVE, CEDAR HILL, TX, 75104","Match","Exact","1625 SUMMERS DR, CEDAR HILL, TX, 75104",650491707,"L"
78533,"1625 SUNNYBROOK CIRCLE","MOUND","MN",55364,44.9495470210001,-93.6662369049999,33,"1625 SUNNYBROOK CIRCLE, MOUND, MN, 55364","Match","Exact","1625 SUNNYBROOK CIR, MOUND, MN, 55364",43861270,"L"
78534,"1625 SW 3RD TERR","CAPE CORAL","FL",33991,26.646092164,-82.008922637,34,"1625 SW 3RD TERR, CAPE CORAL, FL, 33991","Match","Exact","1625 SW 3RD TER, CAPE CORAL, FL, 33991",118068012,"L"
78535,"1625 THE ALAMEDA SUITE 401","SAN JOSE","CA",95126,37.336329339,-121.917765267,35,"1625 THE ALAMEDA SUITE 401, SAN JOSE, CA, 95126","Match","Non_Exact","1625 THE ALAMEDA, SAN JOSE, CA, 95126",122903704,"L"
78536,"1625 THE FALLS PAKWAY","DULUTH","GA",30096,NA,NA,36,"1625 THE FALLS PAKWAY, DULUTH, GA, 30096","No_Match",NA,NA,NA,NA
78537,"1625 TULLY ROAD SUITE E","SAN JOSE","CA",95122,37.320841129,-121.828127196,37,"1625 TULLY ROAD SUITE E, SAN JOSE, CA, 95122","Match","Exact","1625 TULLY RD, SAN JOSE, CA, 95122",122915109,"L"
78538,"1625 VALLEY HIGH AVE","THOUSAND OAKS","CA",91362,34.199640849,-118.842976244,38,"1625 VALLEY HIGH AVE, THOUSAND OAKS, CA, 91362","Match","Exact","1625 VALLEY HIGH AVE, THOUSAND OAKS, CA, 91362",109976912,"L"
78539,"1625 VIOLET MEADOW ST S","TACOMA","WA",98444,47.1527623950001,-122.456168354,39,"1625 VIOLET MEADOW ST S, TACOMA, WA, 98444","Match","Exact","1625 VIOLET MEADOW ST S, TACOMA, WA, 98444",184629343,"R"
78540,"1625 W 17TH STREET","JACKSONVILLE","FL",32209,30.3541056670001,-81.6833652999999,40,"1625 W 17TH STREET, JACKSONVILLE, FL, 32209","Match","Exact","1625 W 17TH ST, JACKSONVILLE, FL, 32209",83895164,"R"
78541,"1625 W 222ND ST","TORRANCE","CA",90501,33.8256475800001,-118.30710705,41,"1625 W 222ND ST, TORRANCE, CA, 90501","Match","Exact","1625 W 222ND ST, TORRANCE, CA, 90501",141668555,"R"
78542,"1625 W 6TH STREET","BROOKLYN","NY",11223,40.6074600260001,-73.979565545,42,"1625 W 6TH STREET, BROOKLYN, NY, 11223","Match","Exact","1625 W 6TH ST, BROOKLYN, NY, 11223",59089424,"L"
78543,"1625 W EDWARDS STREET","SPRINGFIELD","IL",62704,39.795965982,-89.681104584,43,"1625 W EDWARDS STREET, SPRINGFIELD, IL, 62704","Match","Exact","1625 W EDWARDS ST, SPRINGFIELD, IL, 62704",630009348,"R"
78544,"1625 W GARRIOTT SUITE G","ENID","OK",73703,NA,NA,44,"1625 W GARRIOTT SUITE G, ENID, OK, 73703","No_Match",NA,NA,NA,NA
78545,"1625 W GLENOAKS BLVD","GLENDALE","CA",91202,34.170433743,-118.288563116,45,"1625 W GLENOAKS BLVD, GLENDALE, CA, 91202","Match","Non_Exact","1625 W GLENOAKS BLVD, GLENDALE, CA, 91201",141596363,"R"
78546,"1625 WALKER AVE NW NO 141181","GRAND RAPIDS","MI",49504,42.9876082260001,-85.709579708,46,"1625 WALKER AVE NW NO 141181, GRAND RAPIDS, MI, 49504","Match","Exact","1625 WALKER AVE NW, GRAND RAPIDS, MI, 49504",12453341,"L"
78547,"1625 WALNUT DRIVE","NACOGDOCHES","TX",75965,31.6273679540001,-94.631629301,47,"1625 WALNUT DRIVE, NACOGDOCHES, TX, 75965","Match","Exact","1625 WALNUT DR, NACOGDOCHES, TX, 75965",72433282,"R"
78548,"1625 WALNUT ST APT 2","HASTINGS","MN",55033,44.729630291,-92.858940137,48,"1625 WALNUT ST APT 2, HASTINGS, MN, 55033","Match","Exact","1625 WALNUT ST, HASTINGS, MN, 55033",37913995,"L"
78549,"1625 WASHINGTON AVENUE","PHILADELPHIA","PA",19146,39.938385146,-75.170972069,49,"1625 WASHINGTON AVENUE, PHILADELPHIA, PA, 19146","Match","Exact","1625 WASHINGTON AVE, PHILADELPHIA, PA, 19146",131440830,"R"
78550,"1625 WEST 26TH STREET","ERIE","PA",16508,42.098784885,-80.109198578,50,"1625 WEST 26TH STREET, ERIE, PA, 16508","Match","Exact","1625 W 26TH ST, ERIE, PA, 16508",117493850,"L"
78551,"1625 WEST AVENUE J","MULESHOE","TX",79347,34.226660086,-102.745848475,51,"1625 WEST AVENUE J, MULESHOE, TX, 79347","Match","Exact","1625 W AVE J, MULESHOE, TX, 79347",163971173,"L"
78552,"1625 WICKHAM AVE","NEWPORT NEWS","VA",23601,36.9784358270001,-76.409147863,52,"1625 WICKHAM AVE, NEWPORT NEWS, VA, 23601","Match","Non_Exact","1625 WICKHAM AVE, NEWPORT NEWS, VA, 23607",103746633,"L"
78553,"1625 WILDWOOD RD","LEDBETTER","TX",78946,30.1631681000001,-96.779453855,53,"1625 WILDWOOD RD, LEDBETTER, TX, 78946","Match","Exact","1625 WILDWOOD RD, LEDBETTER, TX, 78946",650016666,"L"
78554,"1625 WILSON AVE","SHEBOYGAN","WI",53081,43.723079447,-87.726679573,54,"1625 WILSON AVE, SHEBOYGAN, WI, 53081","Match","Exact","1625 WILSON AVE, SHEBOYGAN, WI, 53081",79497982,"L"
78555,"1625 XANTHIA ST","DENVER","CO",80220,39.742498869,-104.886998897,55,"1625 XANTHIA ST, DENVER, CO, 80220","Match","Exact","1625 XANTHIA ST, DENVER, CO, 80220",177313706,"L"
78556,"16250 HICKORY STREET","FOUNTAIN VALLEY","CA",92708,33.7272789450001,-117.970838525,56,"16250 HICKORY STREET, FOUNTAIN VALLEY, CA, 92708","Match","Exact","16250 HICKORY ST, FOUNTAIN VALLEY, CA, 92708",144018465,"L"
78557,"16250 HOMECOMING DRIVE 1437","CHINO","CA",91708,33.9590914730001,-117.615456579,57,"16250 HOMECOMING DRIVE 1437, CHINO, CA, 91708","Match","Exact","16250 HOMECOMING DR, CHINO, CA, 91708",647991545,"L"
78558,"16250 HOMECOMING DRIVE STE 1644","CHINO","CA",91708,33.9590914730001,-117.615456579,58,"16250 HOMECOMING DRIVE STE 1644, CHINO, CA, 91708","Match","Exact","16250 HOMECOMING DR, CHINO, CA, 91708",647991545,"L"
78559,"16250 HOMECOMING DRIVE","CHINO","CA",91708,33.9590914730001,-117.615456579,59,"16250 HOMECOMING DRIVE, CHINO, CA, 91708","Match","Exact","16250 HOMECOMING DR, CHINO, CA, 91708",647991545,"L"
78560,"16250 NORTHLAND DRIVE STE 160","SOUTHFIELD","MI",48075,42.4449246020001,-83.2107027499999,60,"16250 NORTHLAND DRIVE STE 160, SOUTHFIELD, MI, 48075","Match","Exact","16250 NORTHLAND DR, SOUTHFIELD, MI, 48075",69839296,"R"
78561,"16250 NORTHLAND DRIVE SUITE 200A","SOUTHFIELD","MI",48075,42.4449246020001,-83.2107027499999,61,"16250 NORTHLAND DRIVE SUITE 200A, SOUTHFIELD, MI, 48075","Match","Exact","16250 NORTHLAND DR, SOUTHFIELD, MI, 48075",69839296,"R"
78562,"16250 NORTHLAND DRIVE SUITE 241","SOUTHFIELD","MI",48075,42.4449246020001,-83.2107027499999,62,"16250 NORTHLAND DRIVE SUITE 241, SOUTHFIELD, MI, 48075","Match","Exact","16250 NORTHLAND DR, SOUTHFIELD, MI, 48075",69839296,"R"
78563,"16250 NORTHLAND DRIVE","SOUTHFIELD","MI",48075,42.4449246020001,-83.2107027499999,63,"16250 NORTHLAND DRIVE, SOUTHFIELD, MI, 48075","Match","Exact","16250 NORTHLAND DR, SOUTHFIELD, MI, 48075",69839296,"R"
78564,"16251 EAST COLFAX AVE","AURORA","CO",80011,39.7402833830001,-104.798361029,64,"16251 EAST COLFAX AVE, AURORA, CO, 80011","Match","Exact","16251 E COLFAX AVE, AURORA, CO, 80011",642487807,"L"
78565,"16251 LAWRENCE 1125","MOUNT VERNON","MO",65712,37.040970685,-93.834280373,65,"16251 LAWRENCE 1125, MOUNT VERNON, MO, 65712","Match","Exact","16251 LAWRENCE 1125, MOUNT VERNON, MO, 65712",99875773,"L"
78566,"16251 NE 6TH AVENUE","TRENTON","FL",32693,29.5640521240001,-82.760635205,66,"16251 NE 6TH AVENUE, TRENTON, FL, 32693","Match","Non_Exact","16251 NE 6TH AVE, TRENTON, FL, 32693",43324868,"R"
78567,"16251 SW PALOMINO STREET","INDIANATOWN","FL",34956,27.047360805,-80.4754131189999,67,"16251 SW PALOMINO STREET, INDIANATOWN, FL, 34956","Match","Non_Exact","16251 SW PALOMINO ST, INDIANTOWN, FL, 34956",120406934,"R"
78568,"16251 WYOMING","DETROIT","MI",48221,42.4106708250001,-83.160053591,68,"16251 WYOMING, DETROIT, MI, 48221","Match","Non_Exact","16251 WYOMING ST, DETROIT, MI, 48221",95425996,"L"
78569,"16253 SUFFOLK DR","SPRING LAKE","MI",49456,43.086618894,-86.192225892,69,"16253 SUFFOLK DR, SPRING LAKE, MI, 49456","Match","Exact","16253 SUFFOLK DR, SPRING LAKE, MI, 49456",640445376,"L"
78570,"16253 SW 18TH PLACE","MIRAMAR","FL",33027,25.9917813590001,-80.3631295879999,70,"16253 SW 18TH PLACE, MIRAMAR, FL, 33027","Match","Non_Exact","16253 SW 18TH PL, MIRAMAR, FL, 33027",114797740,"R"
78571,"16253 W YAVAPAI STREET","GOODYEAR","AZ",85338,33.433808883,-112.408402191,71,"16253 W YAVAPAI STREET, GOODYEAR, AZ, 85338","Match","Exact","16253 W YAVAPAI ST, GOODYEAR, AZ, 85338",618468825,"L"
78572,"16254 CERES AVE  APT A12","FONTANA","CA",92335,34.0938317060001,-117.450113364,72,"16254 CERES AVE  APT A12, FONTANA, CA, 92335","Match","Exact","16254 CERES AVE, FONTANA, CA, 92335",144641659,"L"
78573,"16254 NE 3RD PL","BELLEVUE","WA",98008,47.6129098110001,-122.122976392,73,"16254 NE 3RD PL, BELLEVUE, WA, 98008","Match","Exact","16254 NE 3RD PL, BELLEVUE, WA, 98008",239772965,"L"
78574,"16254 SW 82 ST","MIAMI","FL",33193,25.6893173170001,-80.455089324,74,"16254 SW 82 ST, MIAMI, FL, 33193","Match","Non_Exact","16254 SW 82ND ST, MIAMI, FL, 33193",116079324,"R"
78575,"16255 SUSSEX HIGHWAY","BRIDGEVILLE","DE",19933,38.7606229310001,-75.5933321319999,75,"16255 SUSSEX HIGHWAY, BRIDGEVILLE, DE, 19933","Match","Exact","16255 SUSSEX HWY, BRIDGEVILLE, DE, 19933",106125842,"R"
78576,"16255 VENTURA BLVD SUITE 1240","ENCINO","CA",91436,34.156876298,-118.487260595,76,"16255 VENTURA BLVD SUITE 1240, ENCINO, CA, 91436","Match","Exact","16255 VENTURA BLVD, ENCINO, CA, 91436",637822090,"R"
78577,"16255 VENTURA BLVD SUITE 510","ENCINO","CA",91436,34.156876298,-118.487260595,77,"16255 VENTURA BLVD SUITE 510, ENCINO, CA, 91436","Match","Exact","16255 VENTURA BLVD, ENCINO, CA, 91436",637822090,"R"
78578,"16255 VENTURA BOULEVARD STE 515","ENCINO","CA",91436,34.156876298,-118.487260595,78,"16255 VENTURA BOULEVARD STE 515, ENCINO, CA, 91436","Match","Exact","16255 VENTURA BLVD, ENCINO, CA, 91436",637822090,"R"
78579,"16258 E ROYAL OAK DR","PERRY","FL",32348,29.8892452220001,-83.606369071,79,"16258 E ROYAL OAK DR, PERRY, FL, 32348","Match","Exact","16258 ROYAL OAK DR, PERRY, FL, 32348",627755669,"L"
78580,"16258 SW 22 LANE","OCALA","FL",34481,29.1667533450001,-82.390287386,80,"16258 SW 22 LANE, OCALA, FL, 34481","Match","Exact","16258 SW 22ND LN, OCALA, FL, 34481",116838096,"L"
78581,"16259 S KILL CREEK ROAD","GARDNER","KS",66030,38.8335096010001,-94.9616086249999,81,"16259 S KILL CREEK ROAD, GARDNER, KS, 66030","Match","Exact","16259 KILL CREEK RD, GARDNER, KS, 66030",601180762,"R"
78582,"1626 19TH ST STE 23","BAKERSFIELD","CA",93301,35.376237734,-119.020372287,82,"1626 19TH ST STE 23, BAKERSFIELD, CA, 93301","Match","Exact","1626 19TH ST, BAKERSFIELD, CA, 93301",109088852,"R"
78583,"1626 BALLTOWN RD","NISKAYUNA","NY",12309,42.818254272,-73.892407341,83,"1626 BALLTOWN RD, NISKAYUNA, NY, 12309","Match","Exact","1626 BALLTOWN RD, NISKAYUNA, NY, 12309",18029780,"R"
78584,"1626 BELLE VIEW BLVD UNIT 7422","ALEXANDRIA","VA",22307,38.775075391,-77.0604645609999,84,"1626 BELLE VIEW BLVD UNIT 7422, ALEXANDRIA, VA, 22307","Match","Exact","1626 BELLE VIEW BLVD, ALEXANDRIA, VA, 22307",641080852,"R"
78585,"1626 BLANCA DRIVE","LINCOLN","NE",68521,40.8767805620001,-96.696450256,85,"1626 BLANCA DRIVE, LINCOLN, NE, 68521","Match","Exact","1626 BLANCA DR, LINCOLN, NE, 68521",623804141,"R"
78586,"1626 BOISE DRIVE","ODESSA","TX",79762,31.901413867,-102.370016804,86,"1626 BOISE DRIVE, ODESSA, TX, 79762","Match","Exact","1626 BOISE DR, ODESSA, TX, 79762",642958965,"L"
78587,"1626 BRILL ROAD","MOBILE","AL",36605,30.6083285290001,-88.0770296219999,87,"1626 BRILL ROAD, MOBILE, AL, 36605","Match","Exact","1626 BRILL RD, MOBILE, AL, 36605",61965240,"R"
78588,"1626 C CENTRAL STREET","EVANSTON","IL",60201,42.0642816700001,-87.6948611719999,88,"1626 C CENTRAL STREET, EVANSTON, IL, 60201","Match","Exact","1626 CENTRAL ST, EVANSTON, IL, 60201",605266142,"L"
78589,"1626 CARNEGIE STREET","MEMPHIS","TN",38106,35.102676468,-90.043413893,89,"1626 CARNEGIE STREET, MEMPHIS, TN, 38106","Match","Exact","1626 CARNEGIE ST, MEMPHIS, TN, 38106",72907838,"L"
78590,"1626 CENTINELA AVE SUITE 210","INGLEWOOD","CA",90302,33.977095117,-118.367563317,90,"1626 CENTINELA AVE SUITE 210, INGLEWOOD, CA, 90302","Match","Exact","1626 CENTINELA AVE, INGLEWOOD, CA, 90302",141653658,"R"
78591,"1626 DUTCH BROADWAY","ELMONT","NY",11003,40.6872723010001,-73.703182525,91,"1626 DUTCH BROADWAY, ELMONT, NY, 11003","Match","Exact","1626 DUTCH BROADWAY, ELMONT, NY, 11003",147668144,"R"
78592,"1626 FOREST LN S","GARLAND","TX",75042,32.9089695770001,-96.653859801,92,"1626 FOREST LN S, GARLAND, TX, 75042","Match","Non_Exact","1626 FOREST LN, GARLAND, TX, 75042",103207282,"L"
78593,"1626 HAWKINS ROAD","FENTON","MO",63026,38.508854129,-90.4928744169999,93,"1626 HAWKINS ROAD, FENTON, MO, 63026","Match","Exact","1626 HAWKINS RD, FENTON, MO, 63026",100180033,"L"
78594,"1626 HILLWOOD DR","MESQUITE","TX",75149,32.754876417,-96.5760603859999,94,"1626 HILLWOOD DR, MESQUITE, TX, 75149","Match","Exact","1626 HILLWOOD DR, MESQUITE, TX, 75149",102964131,"R"
78595,"1626 KENRO DRIVE","KNOXVILLE","TN",37915,35.9724695520001,-83.887627988,95,"1626 KENRO DRIVE, KNOXVILLE, TN, 37915","Match","Exact","1626 KENRO DR, KNOXVILLE, TN, 37915",42677411,"L"
78596,"1626 LOST CREEK ROAD","HAZARD","KY",41701,37.3361141730001,-83.183638682,96,"1626 LOST CREEK ROAD, HAZARD, KY, 41701","Match","Exact","1626 LOST CREEK RD, HAZARD, KY, 41701",88082297,"L"
78597,"1626 MARTIN LUTHER KING JUNIOR BLVD","NEW ORLEANS","LA",70130,29.939311715,-90.07594146,97,"1626 MARTIN LUTHER KING JUNIOR BLVD, NEW ORLEANS, LA, 70130","Match","Non_Exact","1626 MARTIN LUTHER KING JR BLVD, NEW ORLEANS, LA, 70130",191713839,"L"
78598,"1626 MONTANA AVENUE SUITE 605","SANTA MONICA","CA",90403,34.033954796,-118.492987348,98,"1626 MONTANA AVENUE SUITE 605, SANTA MONICA, CA, 90403","Match","Exact","1626 MONTANA AVE, SANTA MONICA, CA, 90403",141559096,"R"
78599,"1626 N FRANKLIN","DANVILLE","IL",61832,40.1534209430001,-87.632955033,99,"1626 N FRANKLIN, DANVILLE, IL, 61832","Match","Non_Exact","1626 FRANKLIN ST, DANVILLE, IL, 61832",619000865,"L"
78600,"1626 N HERMITAGE RD","FORT MYERS","FL",33919,26.5408287820001,-81.8905698679999,100,"1626 N HERMITAGE RD, FORT MYERS, FL, 33919","Match","Exact","1626 N HERMITAGE RD, FORT MYERS, FL, 33919",118026273,"R"
78601,"1626 N WILCOX AVE 955","HOLLYWOOD","CA",90028,34.0968846800001,-118.330998919,101,"1626 N WILCOX AVE 955, HOLLYWOOD, CA, 90028","Match","Exact","1626 WILCOX AVE, HOLLYWOOD, CA, 90028",141599725,"R"
78602,"1626 N WILCOX AVE SUITE 630","LOS ANGELES","CA",90028,34.0968846800001,-118.330998919,102,"1626 N WILCOX AVE SUITE 630, LOS ANGELES, CA, 90028","Match","Exact","1626 WILCOX AVE, LOS ANGELES, CA, 90028",141599725,"R"
78603,"1626 N WILCOX AVENUE 541","HOLLYWOOD","CA",90028,34.0968846800001,-118.330998919,103,"1626 N WILCOX AVENUE 541, HOLLYWOOD, CA, 90028","Match","Exact","1626 WILCOX AVE, HOLLYWOOD, CA, 90028",141599725,"R"
78604,"1626 N WILCOX AVENUE SUITE 541","HOLLYWOOD","CA",90028,34.0968846800001,-118.330998919,104,"1626 N WILCOX AVENUE SUITE 541, HOLLYWOOD, CA, 90028","Match","Exact","1626 WILCOX AVE, HOLLYWOOD, CA, 90028",141599725,"R"
78605,"1626 NATCHEZ TRACE BLVD","ORLANDO","FL",32818,28.565602062,-81.5115822019999,105,"1626 NATCHEZ TRACE BLVD, ORLANDO, FL, 32818","Match","Exact","1626 NATCHEZ TRACE BLVD, ORLANDO, FL, 32818",94333234,"L"
78606,"1626 NORTH WILCOX AVENUE SUITE 103","HOLLYWOOD","CA",90028,34.1003220360001,-118.331019654,106,"1626 NORTH WILCOX AVENUE SUITE 103, HOLLYWOOD, CA, 90028","Match","Exact","1626 N WILCOX AVE, HOLLYWOOD, CA, 90028",141594816,"R"
78607,"1626 OLD HICKORY TRAIL STE 22106","DESOTO","TX",75115,32.623980626,-96.865656272,107,"1626 OLD HICKORY TRAIL STE 22106, DESOTO, TX, 75115","Match","Non_Exact","1626 OLD HICKORY TRL, DESOTO, TX, 75115",642755211,"L"
78608,"1626 PINE KNOB ROAD","ELDERSBURG","MD",21784,39.4237134260001,-76.9388118809999,108,"1626 PINE KNOB ROAD, ELDERSBURG, MD, 21784","Match","Exact","1626 PINE KNOB RD, ELDERSBURG, MD, 21784",61755521,"R"
78609,"1626 POCA RIVER RD","CHARLESTON","WV",25320,38.5469859730001,-81.607829566,109,"1626 POCA RIVER RD, CHARLESTON, WV, 25320","Match","Exact","1626 POCA RIVER RD, CHARLESTON, WV, 25320",78581108,"R"
78610,"1626 PRIVET COURT APT C","CORONA","CA",92879,33.8631120750001,-117.549577354,110,"1626 PRIVET COURT APT C, CORONA, CA, 92879","Match","Exact","1626 PRIVET CT, CORONA, CA, 92879",194789830,"L"
78611,"1626 RED OAK STREET","CHARLESTON","WV",25387,38.3745317390001,-81.661894323,111,"1626 RED OAK STREET, CHARLESTON, WV, 25387","Match","Exact","1626 RED OAK ST, CHARLESTON, WV, 25387",78591139,"R"
78612,"1626 SETTLERS DRIVE","SEWICKLEY","PA",15143,40.5878294140001,-80.09394156,112,"1626 SETTLERS DRIVE, SEWICKLEY, PA, 15143","Match","Exact","1626 SETTLERS DR, SEWICKLEY, PA, 15143",632007261,"R"
78613,"1626 SHADOW RIDGE","COLUMBIA","IL",62236,38.426454877,-90.172378029,113,"1626 SHADOW RIDGE, COLUMBIA, IL, 62236","Match","Exact","1626 SHADOW RIDGE, COLUMBIA, IL, 62236",116451625,"L"
78614,"1626 SPRUCE ST","SANDPOINT","ID",83864,48.28222314,-116.572510306,114,"1626 SPRUCE ST, SANDPOINT, ID, 83864","Match","Exact","1626 SPRUCE ST, SANDPOINT, ID, 83864",169491589,"R"
78615,"1626 SW 15TH PLACE","CAPE CORAL","FL",33991,26.6213531230001,-82.0061118039999,115,"1626 SW 15TH PLACE, CAPE CORAL, FL, 33991","Match","Exact","1626 SW 15TH PL, CAPE CORAL, FL, 33991",117999519,"L"
78616,"1626 SW MITCHELL STREET","PORTLAND","OR",97239,45.4867260870001,-122.69432027,116,"1626 SW MITCHELL STREET, PORTLAND, OR, 97239","Match","Exact","1626 SW MITCHELL ST, PORTLAND, OR, 97239",157501289,"L"
78617,"1626 SW PANCOAST ST","PORT ST LUCIE","FL",34987,27.293158281,-80.429174678,117,"1626 SW PANCOAST ST, PORT ST LUCIE, FL, 34987","Match","Exact","1626 SW PANCOAST ST, PORT ST LUCIE, FL, 34987",120180396,"L"
78618,"1626 SWEETWATER RD G255","NATIONAL CITY","CA",91950,32.661337196,-117.082806834,118,"1626 SWEETWATER RD G255, NATIONAL CITY, CA, 91950","Match","Exact","1626 SWEETWATER RD, NATIONAL CITY, CA, 91950",195355498,"R"
78619,"1626 TAHITI CIRCLE","DAVENPORT","FL",33897,28.328821928,-81.6765488729999,119,"1626 TAHITI CIRCLE, DAVENPORT, FL, 33897","Match","Exact","1626 TAHITI CIR, DAVENPORT, FL, 33897",616663443,"L"
78620,"1626 TENDRIL CT","COLUMBUS","OH",43229,40.1026144240001,-82.972024203,120,"1626 TENDRIL CT, COLUMBUS, OH, 43229","Match","Exact","1626 TENDRIL CT, COLUMBUS, OH, 43229",135570160,"L"
78621,"1626 W 65TH PLACE","LOS ANGELES","CA",90047,33.9798079080001,-118.305267079,121,"1626 W 65TH PLACE, LOS ANGELES, CA, 90047","Match","Exact","1626 W 65TH PL, LOS ANGELES, CA, 90047",141658361,"L"
78622,"1626 W LAWRENCE AVENUE","CHICAGO","IL",60640,41.96887589,-87.6705521169999,122,"1626 W LAWRENCE AVENUE, CHICAGO, IL, 60640","Match","Exact","1626 W LAWRENCE AVE, CHICAGO, IL, 60640",605185023,"R"
78623,"1626 W ORANGE BLOSSOM TRAIL 1015","APOPKA","FL",32712,28.688114818,-81.540971381,123,"1626 W ORANGE BLOSSOM TRAIL 1015, APOPKA, FL, 32712","Match","Non_Exact","1626 W ORANGE BLOSSOM TRL, APOPKA, FL, 32712",647516561,"L"
78624,"1626 WHITE BEAR AVENUE","SAINT PAUL","MN",55106,44.990319845,-93.0252129789999,124,"1626 WHITE BEAR AVENUE, SAINT PAUL, MN, 55106","Match","Non_Exact","1626 WHITE BEAR AVE N, SAINT PAUL, MN, 55106",97653034,"R"
78625,"1626 YOSEMITE AVENUE","SAN FRANCISCO","CA",94124,37.726961363,-122.391849404,125,"1626 YOSEMITE AVENUE, SAN FRANCISCO, CA, 94124","Match","Exact","1626 YOSEMITE AVE, SAN FRANCISCO, CA, 94124",640914475,"R"
78626,"16260 LOS SERENOS ROBLES","LOS GATOS","CA",95030,37.2307148740001,-122.005779445,126,"16260 LOS SERENOS ROBLES, LOS GATOS, CA, 95030","Match","Exact","16260 LOS SERENOS ROBLES, LOS GATOS, CA, 95030",649875032,"L"
78627,"16260 LOUIS AVE","SOUTH HOLLAND","IL",60473,41.5995406690001,-87.608538395,127,"16260 LOUIS AVE, SOUTH HOLLAND, IL, 60473","Match","Exact","16260 LOUIS AVE, SOUTH HOLLAND, IL, 60473",111778731,"R"
78628,"16262 89TH PL N","LOXAHATCHEE","FL",33470,26.807939418,-80.298495139,128,"16262 89TH PL N, LOXAHATCHEE, FL, 33470","Match","Exact","16262 89TH PL N, LOXAHATCHEE, FL, 33470",115323895,"R"
78629,"16263 GAYLE COURT","TRIANGLE","VA",22172,38.555538428,-77.31877446,129,"16263 GAYLE COURT, TRIANGLE, VA, 22172","Match","Exact","16263 GAYLE CT, TRIANGLE, VA, 22172",76521283,"L"
78630,"16263 WHITEHEAD DR","LINDEN","MI",48451,42.794954181,-83.835239235,130,"16263 WHITEHEAD DR, LINDEN, MI, 48451","Match","Exact","16263 WHITEHEAD DR, LINDEN, MI, 48451",69558479,"R"
78631,"16264 PINE RIDGE DR N","FRASER","MI",48026,42.545628886,-82.9585417769999,131,"16264 PINE RIDGE DR N, FRASER, MI, 48026","Match","Exact","16264 PINE RIDGE DR N, FRASER, MI, 48026",110693095,"L"
78632,"16264 SW GAGE LN","BEAVERTON","OR",97006,45.511000724,-122.843707099,132,"16264 SW GAGE LN, BEAVERTON, OR, 97006","Match","Exact","16264 SW GAGE LN, BEAVERTON, OR, 97006",623952402,"L"
78633,"16266 MONTGOMERY AVE","FONTANA","CA",92336,34.118859973,-117.449961701,133,"16266 MONTGOMERY AVE, FONTANA, CA, 92336","Match","Exact","16266 MONTGOMERY AVE, FONTANA, CA, 92336",144731567,"L"
78634,"16267 OAK FOREST COURT","NORTHVILLE","MI",48168,42.404563002,-83.491090884,134,"16267 OAK FOREST COURT, NORTHVILLE, MI, 48168","Match","Exact","16267 OAK FOREST CT, NORTHVILLE, MI, 48168",617695100,"L"
78635,"16268 WILDFOX COURT","ROMULUS","MI",48174,42.1861927040001,-83.3225562489999,135,"16268 WILDFOX COURT, ROMULUS, MI, 48174","Match","Exact","16268 WILDFOX CT, ROMULUS, MI, 48174",95454694,"R"
78636,"1627 15TH AVENUE","SAN FRANCISCO","CA",94122,37.757101391,-122.472220512,136,"1627 15TH AVENUE, SAN FRANCISCO, CA, 94122","Match","Exact","1627 15TH AVE, SAN FRANCISCO, CA, 94122",192301030,"R"
78637,"1627 55TH ST NW","ALBUQUERQUE","NM",87105,35.1046583250001,-106.70231937,137,"1627 55TH ST NW, ALBUQUERQUE, NM, 87105","Match","Exact","1627 55TH ST NW, ALBUQUERQUE, NM, 87105",642657156,"L"
78638,"1627 AUGUST RD","NORTH BABYLON","NY",11703,40.733850794,-73.335137491,138,"1627 AUGUST RD, NORTH BABYLON, NY, 11703","Match","Exact","1627 AUGUST RD, NORTH BABYLON, NY, 11703",114056579,"R"
78639,"1627 BINGHAM DR","FAYETTEVILLE","NC",28314,35.0197107330001,-78.985320687,139,"1627 BINGHAM DR, FAYETTEVILLE, NC, 28314","Match","Non_Exact","1627 BINGHAM DR, FAYETTEVILLE, NC, 28304",640608183,"L"
78640,"1627 BRUNSWICK DRIVE","COLUMBIA","SC",29203,34.056596057,-81.008180179,140,"1627 BRUNSWICK DRIVE, COLUMBIA, SC, 29203","Match","Exact","1627 BRUNSWICK DR, COLUMBIA, SC, 29203",71819560,"R"
78641,"1627 CEMETERY HILL RD","CARROLLTON","TX",75007,32.992965493,-96.898971439,141,"1627 CEMETERY HILL RD, CARROLLTON, TX, 75007","Match","Exact","1627 CEMETERY HILL RD, CARROLLTON, TX, 75007",103382911,"L"
78642,"1627 CHARLES DRIVE","LUXEMBURG","WI",54217,44.5291705830001,-87.7068064109999,142,"1627 CHARLES DRIVE, LUXEMBURG, WI, 54217","Match","Exact","1627 CHARLES DR, LUXEMBURG, WI, 54217",648548676,"R"
78643,"1627 COHASSETT AVENUE","LAKEWOOD","OH",44107,41.4786270560001,-81.7790886449999,143,"1627 COHASSETT AVENUE, LAKEWOOD, OH, 44107","Match","Exact","1627 COHASSETT AVE, LAKEWOOD, OH, 44107",61100616,"L"
78644,"1627 COUNTY ROAD 386","KARNES CITY","TX",78118,NA,NA,144,"1627 COUNTY ROAD 386, KARNES CITY, TX, 78118","No_Match",NA,NA,NA,NA
78645,"1627 D UPPER AFTON ROAD","ST PAUL","MN",55106,44.946088328,-93.031893896,145,"1627 D UPPER AFTON ROAD, ST PAUL, MN, 55106","Match","Exact","1627 UPPER AFTON RD, SAINT PAUL, MN, 55106",97664662,"L"
78646,"1627 DEVIN","CARTHAGE","MO",64836,37.1592828990001,-94.340857138,146,"1627 DEVIN, CARTHAGE, MO, 64836","Match","Non_Exact","1627 DEVIN DR, CARTHAGE, MO, 64836",653599411,"R"
78647,"1627 E 3350 S","SALT LAKE CITY","UT",84106,40.698780422,-111.845134277,147,"1627 E 3350 S, SALT LAKE CITY, UT, 84106","Match","Non_Exact","1627 E 3350 SOUTH ST, SALT LAKE CITY, UT, 84106",176083370,"L"
78648,"1627 E BRIDGEPORT AVE","SPOKANE","WA",99207,47.6885243680001,-117.386231574,148,"1627 E BRIDGEPORT AVE, SPOKANE, WA, 99207","Match","Exact","1627 E BRIDGEPORT AVE, SPOKANE, WA, 99207",189878834,"L"
78649,"1627 E MILITARY AVE","FREMONT","NE",68025,41.4346472570001,-96.476510118,149,"1627 E MILITARY AVE, FREMONT, NE, 68025","Match","Exact","1627 E MILITARY AVE, FREMONT, NE, 68025",136314899,"L"
78650,"1627 EAST 59TH STREET","KANSAS CITY","MO",64110,39.0196945610001,-94.566893605,150,"1627 EAST 59TH STREET, KANSAS CITY, MO, 64110","Match","Exact","1627 E 59TH ST, KANSAS CITY, MO, 64110",91452513,"R"
78651,"1627 ENCINO AVENUE","MONROVIA","CA",91016,34.134270411,-118.017244492,151,"1627 ENCINO AVENUE, MONROVIA, CA, 91016","Match","Exact","1627 ENCINO AVE, MONROVIA, CA, 91016",141645307,"R"
78652,"1627 HOLLYWOOD COURT","FALCON HEIGHTS","MN",55108,44.9904418460001,-93.168460007,152,"1627 HOLLYWOOD COURT, FALCON HEIGHTS, MN, 55108","Match","Exact","1627 HOLLYWOOD CT, FALCON HEIGHTS, MN, 55108",638479086,"R"
78653,"1627 JAMACHA WAY","EL CAJON","CA",92019,32.755640166,-116.921978744,153,"1627 JAMACHA WAY, EL CAJON, CA, 92019","Match","Exact","1627 JAMACHA WAY, EL CAJON, CA, 92019",635994341,"L"
78654,"1627 LINKS OVERLOOK","STONE MOUNTAIN","GA",30088,33.7437464860001,-84.188611048,154,"1627 LINKS OVERLOOK, STONE MOUNTAIN, GA, 30088","Match","Exact","1627 LINKS OVERLOOK, STONE MOUNTAIN, GA, 30088",23389420,"L"
78655,"1627 MARVELLE AVE","ROCKY MOUNT","NC",27803,35.9397805190001,-77.820468391,155,"1627 MARVELLE AVE, ROCKY MOUNT, NC, 27803","Match","Exact","1627 MARVELLE AVE, ROCKY MOUNT, NC, 27803",636705720,"R"
78656,"1627 MILLER HILL ROAD","LENOIR","NC",28645,35.8731331440001,-81.576176822,156,"1627 MILLER HILL ROAD, LENOIR, NC, 28645","Match","Exact","1627 MILLER HILL RD, LENOIR, NC, 28645",45861664,"R"
78657,"1627 MONUMENT AVE","RICHMOND","VA",23220,37.552761909,-77.458557275,157,"1627 MONUMENT AVE, RICHMOND, VA, 23220","Match","Exact","1627 MONUMENT AVE, RICHMOND, VA, 23220",616125564,"R"
78658,"1627 N LONG AVE","CHICAGO","IL",60639,41.9102098430001,-87.76056726,158,"1627 N LONG AVE, CHICAGO, IL, 60639","Match","Exact","1627 N LONG AVE, CHICAGO, IL, 60639",605039807,"R"
78659,"1627 N WOODROW CT","WICHITA","KS",67203,37.7130556270001,-97.359650474,159,"1627 N WOODROW CT, WICHITA, KS, 67203","Match","Exact","1627 N WOODROW CT, WICHITA, KS, 67203",115633483,"L"
78660,"1627 NORTH GOWER STREET","LOS ANGELES","CA",90028,34.100614905,-118.322315871,160,"1627 NORTH GOWER STREET, LOS ANGELES, CA, 90028","Match","Exact","1627 N GOWER ST, LOS ANGELES, CA, 90028",141597069,"L"
78661,"1627 PINK LILY ROAD","PRATTVILLE","AL",36067,32.544500511,-86.47878034,161,"1627 PINK LILY ROAD, PRATTVILLE, AL, 36067","Match","Non_Exact","1627 PINK LILLY RD, PRATTVILLE, AL, 36067",2834333,"L"
78662,"1627 PLAYER COURT","SOUTH LAKE TAHOE","CA",96150,38.866831652,-119.995296582,162,"1627 PLAYER COURT, SOUTH LAKE TAHOE, CA, 96150","Match","Non_Exact","1627 PLAYER DR, SOUTH LAKE TAHOE, CA, 96150",133053872,"L"
78663,"1627 RUSTIC OAK LN","SEABROOK","TX",77586,29.588046106,-95.055826247,163,"1627 RUSTIC OAK LN, SEABROOK, TX, 77586","Match","Exact","1627 RUSTIC OAK LN, SEABROOK, TX, 77586",96547548,"R"
78664,"1627 S PARK","SAN ANGELO","TX",76901,NA,NA,164,"1627 S PARK, SAN ANGELO, TX, 76901","No_Match",NA,NA,NA,NA
78665,"1627 SADDLE CREEK CIRCLE APT 1512","ARLINGTON","TX",76015,32.689303884,-97.1371667449999,165,"1627 SADDLE CREEK CIRCLE APT 1512, ARLINGTON, TX, 76015","Match","Exact","1627 SADDLE CREEK CIR, ARLINGTON, TX, 76015",101955883,"R"
78666,"1627 SADDLE CREEK CIRCLE APT 1521","ARLINGTON","TX",76015,32.689303884,-97.1371667449999,166,"1627 SADDLE CREEK CIRCLE APT 1521, ARLINGTON, TX, 76015","Match","Exact","1627 SADDLE CREEK CIR, ARLINGTON, TX, 76015",101955883,"R"
78667,"1627 SHANLEY DRIVE APT 3","COLUMBUS","OH",43224,40.0552582340001,-82.974368364,167,"1627 SHANLEY DRIVE APT 3, COLUMBUS, OH, 43224","Match","Exact","1627 SHANLEY DR, COLUMBUS, OH, 43224",218697262,"R"
78668,"1627 SOUTH STREET","PHILADELPHIA","PA",19146,39.9441170000001,-75.169234199,168,"1627 SOUTH STREET, PHILADELPHIA, PA, 19146","Match","Exact","1627 SOUTH ST, PHILADELPHIA, PA, 19146",131407854,"R"
78669,"1627 STADIUM AVENUE","BRONX","NY",10465,40.8471840780001,-73.8201889439999,169,"1627 STADIUM AVENUE, BRONX, NY, 10465","Match","Exact","1627 STADIUM AVE, BRONX, NY, 10465",80306786,"L"
78670,"1627 STATE ST","QUINCY","IL",62301,39.9263679490001,-91.389814437,170,"1627 STATE ST, QUINCY, IL, 62301","Match","Exact","1627 STATE ST, QUINCY, IL, 62301",35064521,"R"
78671,"1627 TANGLEWOOD DRIVE","AZLE","TX",76020,32.9136604120001,-97.573564117,171,"1627 TANGLEWOOD DRIVE, AZLE, TX, 76020","Match","Exact","1627 TANGLEWOOD DR, AZLE, TX, 76020",103584870,"R"
78672,"1627 THIRD AVENUE","WATERVLIET","NY",12189,42.7283525380001,-73.7029947249999,172,"1627 THIRD AVENUE, WATERVLIET, NY, 12189","Match","Exact","1627 3RD AVE, WATERVLIET, NY, 12189",18313174,"L"
78673,"1627 VALLEJO STREET","SEASIDE","CA",93955,36.609810311,-121.831985293,173,"1627 VALLEJO STREET, SEASIDE, CA, 93955","Match","Exact","1627 VALLEJO ST, SEASIDE, CA, 93955",196820471,"L"
78674,"1627 VALLEY VIEW ROAD","BULGER","PA",15019,40.4017840610001,-80.329486916,174,"1627 VALLEY VIEW ROAD, BULGER, PA, 15019","Match","Non_Exact","1627 VALLEYVIEW RD, BULGER, PA, 15019",52798389,"R"
78675,"1627 VINE ST","DENVER","CO",80206,39.742108251,-104.962246483,175,"1627 VINE ST, DENVER, CO, 80206","Match","Exact","1627 VINE ST, DENVER, CO, 80206",177306177,"L"
78676,"1627 VIRGINIA AVE  A","BAKERSFIELD","CA",93307,35.361232177,-118.98320025,176,"1627 VIRGINIA AVE  A, BAKERSFIELD, CA, 93307","Match","Exact","1627 VIRGINIA AVE, BAKERSFIELD, CA, 93307",109096233,"R"
78677,"1627 VIRGINIA AVE","BAKERSFIELD","CA",93307,35.361232177,-118.98320025,177,"1627 VIRGINIA AVE, BAKERSFIELD, CA, 93307","Match","Exact","1627 VIRGINIA AVE, BAKERSFIELD, CA, 93307",109096233,"R"
78678,"1627 W 64TH ST","LOS ANGELES","CA",90047,33.981422808,-118.305263088,178,"1627 W 64TH ST, LOS ANGELES, CA, 90047","Match","Exact","1627 W 64TH ST, LOS ANGELES, CA, 90047",141658413,"R"
78679,"1627 W EUCLID AVE","SPOKANE","WA",99205,47.686221135,-117.436928724,179,"1627 W EUCLID AVE, SPOKANE, WA, 99205","Match","Non_Exact","1627 W EUCLID AVE, SPOKANE, WA, 99205",189915005,"L"
78680,"1627 WALTERSWOOD ROAD","BALTIMORE","MD",21239,39.3616984820001,-76.582577728,180,"1627 WALTERSWOOD ROAD, BALTIMORE, MD, 21239","Match","Exact","1627 WALTERSWOOD RD, BALTIMORE, MD, 21239",206409602,"R"
78681,"1627 WEST MAIN STREET NUM 307","BOZEMAN","MT",59715,45.6793109210001,-111.058893247,181,"1627 WEST MAIN STREET NUM 307, BOZEMAN, MT, 59715","Match","Exact","1627 W MAIN ST, BOZEMAN, MT, 59715",163549998,"L"
78682,"1627 WEST MCGALLIARD AVE","HAMILTON","NJ",8610,40.1952673690001,-74.709331934,182,"1627 WEST MCGALLIARD AVE, HAMILTON, NJ, 8610","Match","Exact","1627 W MCGALLIARD AVE, HAMILTON, NJ, 08610",60183543,"R"
78683,"16270 S 300 W","COLUMBUS","IN",47201,39.0599249650001,-85.960250387,183,"16270 S 300 W, COLUMBUS, IN, 47201","Match","Exact","16270 S 300 W, COLUMBUS, IN, 47201",606521332,"L"
78684,"16271 AQUILA CT","HUNTERTOWN","IN",46748,NA,NA,184,"16271 AQUILA CT, HUNTERTOWN, IN, 46748","No_Match",NA,NA,NA,NA
78685,"16273 SHEET BEND WAY","FRIENDSWOOD","TX",77546,NA,NA,185,"16273 SHEET BEND WAY, FRIENDSWOOD, TX, 77546","No_Match",NA,NA,NA,NA
78686,"16274 NEWMAN NICKENS RD","PRAIRIEVILLE","LA",70769,30.308510202,-90.877493493,186,"16274 NEWMAN NICKENS RD, PRAIRIEVILLE, LA, 70769","Match","Exact","16274 NEWMAN NICKENS RD, PRAIRIEVILLE, LA, 70769",115040428,"R"
78687,"16274 VASQUEZ CANYON RD STE 7","CANYON COUNTRY","CA",91351,34.455892867,-118.421523262,187,"16274 VASQUEZ CANYON RD STE 7, CANYON COUNTRY, CA, 91351","Match","Exact","16274 VASQUEZ CANYON RD, CANYON COUNTRY, CA, 91351",141520764,"R"
78688,"16274 WILD OAK LN","CONROE","TX",77302,30.2193668570001,-95.3281249839999,188,"16274 WILD OAK LN, CONROE, TX, 77302","Match","Exact","16274 WILD OAK LN, CONROE, TX, 77302",79336844,"L"
78689,"16275 EAST CRESTLINE PLACE","CENTENNIAL","CO",80015,39.61886752,-104.80013499,189,"16275 EAST CRESTLINE PLACE, CENTENNIAL, CO, 80015","Match","Exact","16275 E CRESTLINE PL, CENTENNIAL, CO, 80015",177359365,"L"
78690,"16275 NOME STREET","BRIGHTON","CO",80602,39.9926984430001,-104.849483774,190,"16275 NOME STREET, BRIGHTON, CO, 80602","Match","Exact","16275 NOME ST, BRIGHTON, CO, 80602",646614426,"L"
78691,"16276 W ADAMS ST","GOOD YEAR","AZ",85338,33.4479900920001,-112.408738539,191,"16276 W ADAMS ST, GOOD YEAR, AZ, 85338","Match","Non_Exact","16276 W ADAMS ST, GOODYEAR, AZ, 85338",128421653,"L"
78692,"16278 FM 2090 RD 3","CONROE","TX",77306,NA,NA,192,"16278 FM 2090 RD 3, CONROE, TX, 77306","No_Match",NA,NA,NA,NA
78693,"1628 16TH NW","WASHINGTON","DC",20009,38.9119298680001,-77.036519791,193,"1628 16TH NW, WASHINGTON, DC, 20009","Match","Non_Exact","1628 16TH ST NW, WASHINGTON, DC, 20009",76223192,"L"
78694,"1628 16TH STREET NW","WASHINGTION","VA",20009,NA,NA,194,"1628 16TH STREET NW, WASHINGTION, VA, 20009","No_Match",NA,NA,NA,NA
78695,"1628 ADNA AVENUE","HACIENDA HEIGHTS","CA",91745,34.009494257,-117.991679392,195,"1628 ADNA AVENUE, HACIENDA HEIGHTS, CA, 91745","Match","Exact","1628 ADNA AVE, HACIENDA HTS, CA, 91745",141652633,"L"
78696,"1628 BENNETT DRIVE","MCDONOUGH","GA",30253,33.409539769,-84.203437294,196,"1628 BENNETT DRIVE, MCDONOUGH, GA, 30253","Match","Exact","1628 BENNETT DR, MCDONOUGH, GA, 30253",634028206,"R"
78697,"1628 C STREET SE APARTMENT 103","WASHINGTON","DC",20003,38.885361,-76.981924407,197,"1628 C STREET SE APARTMENT 103, WASHINGTON, DC, 20003","Match","Exact","1628 C ST SE, WASHINGTON, DC, 20003",76230939,"L"
78698,"1628 CARDIFF ROAD","COLUMBUS","OH",43221,40.0043520140001,-83.053151487,198,"1628 CARDIFF ROAD, COLUMBUS, OH, 43221","Match","Exact","1628 CARDIFF RD, COLUMBUS, OH, 43221",218690110,"R"
78699,"1628 CHURCH ST","PHILADELPHIA","PA",19104,40.010595707,-75.08790694,199,"1628 CHURCH ST, PHILADELPHIA, PA, 19104","Match","Non_Exact","1628 CHURCH ST, PHILADELPHIA, PA, 19124",131427787,"R"
78700,"1628 CHURCH ST","PHILADELPHIA","PA",19124,40.010595707,-75.08790694,200,"1628 CHURCH ST, PHILADELPHIA, PA, 19124","Match","Exact","1628 CHURCH ST, PHILADELPHIA, PA, 19124",131427787,"R"
78701,"1628 CHURCH STREET","DETROIT","MI",48216,42.3304348790001,-83.068421051,201,"1628 CHURCH STREET, DETROIT, MI, 48216","Match","Exact","1628 CHURCH ST, DETROIT, MI, 48216",95479326,"R"
78702,"1628 CONSTELLATION CT","MURFREESBORO","TN",37129,35.891805264,-86.555398493,202,"1628 CONSTELLATION CT, MURFREESBORO, TN, 37129","Match","Exact","1628 CONSTELLATION CT, MURFREESBORO, TN, 37129",648108161,"R"
78703,"1628 COVINGTON MEADOWS CIR","LEHIGH ACRES","FL",33936,26.597702111,-81.6566855849999,203,"1628 COVINGTON MEADOWS CIR, LEHIGH ACRES, FL, 33936","Match","Exact","1628 COVINGTON MEADOWS CIR, LEHIGH ACRES, FL, 33936",118060329,"R"
78704,"1628 DEARMAND AVE","CINCINNATI","OH",45239,NA,NA,204,"1628 DEARMAND AVE, CINCINNATI, OH, 45239","No_Match",NA,NA,NA,NA
78705,"1628 E MADISON ST","PETALUMA","CA",94954,38.255500184,-122.624398004,205,"1628 E MADISON ST, PETALUMA, CA, 94954","Match","Exact","1628 E MADISON ST, PETALUMA, CA, 94954",639986657,"R"
78706,"1628 GLENCOE WAY","GLENDALE","CA",91208,34.1990642370001,-118.230924274,206,"1628 GLENCOE WAY, GLENDALE, CA, 91208","Match","Exact","1628 GLENCOE WAY, GLENDALE, CA, 91208",141609000,"R"
78707,"1628 GOOD HOPE ROAD SE","WASHINGTON","DC",20020,38.866132448,-76.98155285,207,"1628 GOOD HOPE ROAD SE, WASHINGTON, DC, 20020","Match","Exact","1628 GOOD HOPE RD SE, WASHINGTON, DC, 20020",76231205,"L"
78708,"1628 HARBOR AVE","STOCKTON","CA",95203,37.9474178880001,-121.312490856,208,"1628 HARBOR AVE, STOCKTON, CA, 95203","Match","Non_Exact","1628 HARBOR ST, STOCKTON, CA, 95203",133848919,"L"
78709,"1628 HOLBROOK AVENUE","BESSEMER","AL",35020,33.3920893120001,-86.94267579,209,"1628 HOLBROOK AVENUE, BESSEMER, AL, 35020","Match","Exact","1628 HOLBROOK AVE, BESSEMER, AL, 35020",81550050,"L"
78710,"1628 JACOBS LANE","NASHVILLE","IN",47448,39.2006344110001,-86.218974961,210,"1628 JACOBS LANE, NASHVILLE, IN, 47448","Match","Exact","1628 JACOBS LN, NASHVILLE, IN, 47448",43524690,"R"
78711,"1628 KALAKAUA AVE","HONOLULU","HI",96826,21.294244846,-157.836848214,211,"1628 KALAKAUA AVE, HONOLULU, HI, 96826","Match","Exact","1628 KALAKAUA AVE, HONOLULU, HI, 96826",650067505,"L"
78712,"1628 LA SELVA AVE","GROVER BEACH","CA",93433,35.1101244120001,-120.611851013,212,"1628 LA SELVA AVE, GROVER BEACH, CA, 93433","Match","Exact","1628 LA SELVA AVE, GROVER BEACH, CA, 93433",109855492,"R"
78713,"1628 NORTH HERMITAGE","CHICAGO","IL",60622,41.911343661,-87.6713784569999,213,"1628 NORTH HERMITAGE, CHICAGO, IL, 60622","Match","Non_Exact","1628 N HERMITAGE AVE, CHICAGO, IL, 60622",605066962,"L"
78714,"1628 QUAKER RD","BARKER","NY",14012,43.3332412510001,-78.55496863,214,"1628 QUAKER RD, BARKER, NY, 14012","Match","Exact","1628 QUAKER RD, BARKER, NY, 14012",48696310,"L"
78715,"1628 S TUXEDO AVENUE","STOCKTON","CA",95204,37.9663819250001,-121.317416515,215,"1628 S TUXEDO AVENUE, STOCKTON, CA, 95204","Match","Exact","1628 S TUXEDO AVE, STOCKTON, CA, 95204",133927809,"L"
78716,"1628 SAN MARCO BLVD STE 14B","JACKSONVILLE","FL",32207,30.3020331020001,-81.6482168759999,216,"1628 SAN MARCO BLVD STE 14B, JACKSONVILLE, FL, 32207","Match","Non_Exact","1628 MARCO PL, JACKSONVILLE, FL, 32207",83915084,"R"
78717,"1628 SAN MARCO BLVD STE 9","JACKSONVILLE","FL",32207,30.3020331020001,-81.6482168759999,217,"1628 SAN MARCO BLVD STE 9, JACKSONVILLE, FL, 32207","Match","Non_Exact","1628 MARCO PL, JACKSONVILLE, FL, 32207",83915084,"R"
78718,"1628 SNOWMASS WAY","DURHAM","NC",27713,35.9429361800001,-78.889629638,218,"1628 SNOWMASS WAY, DURHAM, NC, 27713","Match","Exact","1628 SNOWMASS WAY, DURHAM, NC, 27713",618109136,"R"
78719,"1628 THIRD PKWY","WASHINGTON","MO",63090,38.548433161,-90.9911515059999,219,"1628 THIRD PKWY, WASHINGTON, MO, 63090","Match","Exact","1628 3RD PKWY, WASHINGTON, MO, 63090",99723019,"L"
78720,"1628 TOUGHY AVE UNIT 303","CHICAGO","IL",60626,NA,NA,220,"1628 TOUGHY AVE UNIT 303, CHICAGO, IL, 60626","No_Match",NA,NA,NA,NA
78721,"1628 VECUNA CIRCLE","PANAMA CITY BEACH","FL",32407,30.186921225,-85.7850073229999,221,"1628 VECUNA CIRCLE, PANAMA CITY BEACH, FL, 32407","Match","Exact","1628 VECUNA CIR, PANAMA CITY BEACH, FL, 32407",7049045,"R"
78722,"1628 W IRVING PARK RD","CHICAGO","IL",60613,41.9542851,-87.669962773,222,"1628 W IRVING PARK RD, CHICAGO, IL, 60613","Match","Exact","1628 W IRVING PARK RD, CHICAGO, IL, 60613",605175399,"R"
78723,"1628 W IRVING PARK ROAD APT 3W","CHICAGO","IL",60613,41.9542851,-87.669962773,223,"1628 W IRVING PARK ROAD APT 3W, CHICAGO, IL, 60613","Match","Non_Exact","1628 W IRVING PARK RD, CHICAGO, IL, 60613",605175399,"R"
78724,"1628 W ORANGE GROVE AVE","POMONA","CA",91768,34.0642444100001,-117.780056704,224,"1628 W ORANGE GROVE AVE, POMONA, CA, 91768","Match","Exact","1628 W ORANGE GROVE AVE, POMONA, CA, 91768",141729951,"L"
78725,"1628 WEST ST","HOMESTEAD","PW",15120,NA,NA,225,"1628 WEST ST, HOMESTEAD, PW, 15120","No_Match",NA,NA,NA,NA
78726,"1628 WESTOVER RD","CHICOPEE","MA",1020,42.1812314570001,-72.5737176809999,226,"1628 WESTOVER RD, CHICOPEE, MA, 1020","Match","Exact","1628 WESTOVER RD, CHICOPEE, MA, 01020",4058867,"L"
78727,"16281 GOLDEN GATE LN","HUNTINGTON BEACH","CA",92649,33.7250578150001,-118.037768674,227,"16281 GOLDEN GATE LN, HUNTINGTON BEACH, CA, 92649","Match","Exact","16281 GOLDEN GATE LN, HUNTINGTON BEACH, CA, 92649",144014067,"R"
78728,"16281 HIGHWAY 62  SUITE B","TAHLEQUAH","OK",74464,35.849200071,-95.015615036,228,"16281 HIGHWAY 62  SUITE B, TAHLEQUAH, OK, 74464","Match","Non_Exact","16281 US HWY 62, TAHLEQUAH, OK, 74464",53647514,"R"
78729,"16281 OAKHILL ROAD","CLEVELAND HTS","OH",44112,41.5301764120001,-81.56379507,229,"16281 OAKHILL ROAD, CLEVELAND HTS, OH, 44112","Match","Exact","16281 OAKHILL RD, CLEVELAND HEIGHTS, OH, 44112",61121882,"L"
78730,"16282 E MAIN STREET 36E","TUSTIN","CA",92780,33.7419805490001,-117.842600199,230,"16282 E MAIN STREET 36E, TUSTIN, CA, 92780","Match","Non_Exact","16282 E MAIN ST, TUSTIN, CA, 92780",650356090,"R"
78731,"16283 PEBBLE BLUFF LOOP","WINTER GARDEN","FL",34787,28.4166282480001,-81.643093004,231,"16283 PEBBLE BLUFF LOOP, WINTER GARDEN, FL, 34787","Match","Exact","16283 PEBBLE BLUFF LOOP, WINTER GARDEN, FL, 34787",650622902,"L"
78732,"16283 STATE ROUTE 729","JEFFERSONVILLE","OH",43128,39.7016859020001,-83.5509824119999,232,"16283 STATE ROUTE 729, JEFFERSONVILLE, OH, 43128","Match","Exact","16283 STATE RTE 729, JEFFERSONVILLE, OH, 43128",119057497,"L"
78733,"16287 MIRAMAR PLACE","SAN LEANDRO","CA",94578,37.7021992800001,-122.10611759,233,"16287 MIRAMAR PLACE, SAN LEANDRO, CA, 94578","Match","Exact","16287 MIRAMAR PL, SAN LEANDRO, CA, 94578",125071215,"L"
78734,"16288 WILLOW STREAM LANE","NORTH FORT MYERS","FL",33917,26.702291707,-81.843153536,234,"16288 WILLOW STREAM LANE, NORTH FORT MYERS, FL, 33917","Match","Exact","16288 WILLOW STREAM LN, N FORT MYERS, FL, 33917",118020561,"L"
78735,"1629 171ST AVE NE","BELLEVUE","WA",98008,47.6247719020001,-122.112520116,235,"1629 171ST AVE NE, BELLEVUE, WA, 98008","Match","Exact","1629 171ST AVE NE, BELLEVUE, WA, 98008",186612780,"L"
78736,"1629 4TH AVE SE","DECATUR","AL",35601,34.583470569,-86.9830313589999,236,"1629 4TH AVE SE, DECATUR, AL, 35601","Match","Exact","1629 4TH AVE SE, DECATUR, AL, 35601",97114211,"R"
78737,"1629 4TH AVENUE SE","DECATUR","AL",35601,34.583470569,-86.9830313589999,237,"1629 4TH AVENUE SE, DECATUR, AL, 35601","Match","Exact","1629 4TH AVE SE, DECATUR, AL, 35601",97114211,"R"
78738,"1629 70TH AVENUE","GREELEY","CO",80634,40.4127828430001,-104.793539159,238,"1629 70TH AVENUE, GREELEY, CO, 80634","Match","Exact","1629 70TH AVE, GREELEY, CO, 80634",188727461,"R"
78739,"1629 ACKERMANT STREET","WATERLOO","IA",50703,42.5245506040001,-92.3440238479999,239,"1629 ACKERMANT STREET, WATERLOO, IA, 50703","Match","Exact","1629 ACKERMANT ST, WATERLOO, IA, 50703",77251820,"L"
78740,"1629 BENNETT STREET","RALEIGH","NC",27604,35.7952335040001,-78.617597358,240,"1629 BENNETT STREET, RALEIGH, NC, 27604","Match","Exact","1629 BENNETT ST, RALEIGH, NC, 27604",612826647,"L"
78741,"1629 BENOLI COURT","ODENTON","MD",21113,39.106036599,-76.702977421,241,"1629 BENOLI COURT, ODENTON, MD, 21113","Match","Exact","1629 BENOLI CT, ODENTON, MD, 21113",68216605,"R"
78742,"1629 BRENTFORD RD","NAPERVILLE","IL",60563,41.798901088,-88.140426341,242,"1629 BRENTFORD RD, NAPERVILLE, IL, 60563","Match","Non_Exact","1629 BRENTFORD DR, NAPERVILLE, IL, 60563",112528789,"L"
78743,"1629 CROSS BEAM DR","CHARLOTTE","NC",28217,35.1796449920001,-80.926467378,243,"1629 CROSS BEAM DR, CHARLOTTE, NC, 28217","Match","Exact","1629 CROSS BEAM DR, CHARLOTTE, NC, 28217",70517414,"R"
78744,"1629 DARBY DR","FLORENCE","AL",35630,34.820351923,-87.656528131,244,"1629 DARBY DR, FLORENCE, AL, 35630","Match","Exact","1629 DARBY DR, FLORENCE, AL, 35630",41339510,"L"
78745,"1629 DUDLEY AVE","UTICA","NY",13501,43.0840667150001,-75.236756693,245,"1629 DUDLEY AVE, UTICA, NY, 13501","Match","Exact","1629 DUDLEY AVE, UTICA, NY, 13501",171531637,"L"
78746,"1629 DUDLEY AVENUE","UTICA","NY",13501,43.0840667150001,-75.236756693,246,"1629 DUDLEY AVENUE, UTICA, NY, 13501","Match","Exact","1629 DUDLEY AVE, UTICA, NY, 13501",171531637,"L"
78747,"1629 EAST PICKRELL DR","PHOENIX","AZ",85042,33.365463925,-112.046787585,247,"1629 EAST PICKRELL DR, PHOENIX, AZ, 85042","Match","Exact","1629 E PICKRELL DR, PHOENIX, AZ, 85042",128217998,"R"
78748,"1629 FALLING STAR DRIVE","CHULA VISTA","CA",91915,32.6257128460001,-116.953666149,248,"1629 FALLING STAR DRIVE, CHULA VISTA, CA, 91915","Match","Exact","1629 FALLING STAR DR, CHULA VISTA, CA, 91915",195764372,"L"
78749,"1629 GOLFERS RIDGE DRIVE SE","BOLIVIA","NC",28422,33.981778762,-78.248955983,249,"1629 GOLFERS RIDGE DRIVE SE, BOLIVIA, NC, 28422","Match","Exact","1629 GOLFERS RIDGE DR SE, BOLIVIA, NC, 28422",153176541,"R"
78750,"1629 HASLETT RD PMB 109","HASLETT","MI",48840,42.7473488790001,-84.4102065279999,250,"1629 HASLETT RD PMB 109, HASLETT, MI, 48840","Match","Exact","1629 HASLETT RD, HASLETT, MI, 48840",17520735,"L"
78751,"1629 HOLDEN STREET","DETROIT","MI",48208,42.363415337,-83.0868200529999,251,"1629 HOLDEN STREET, DETROIT, MI, 48208","Match","Exact","1629 HOLDEN ST, DETROIT, MI, 48208",95475734,"L"
78752,"1629 IDYLLWILD CT","PLANO","TX",75075,33.038719703,-96.72665532,252,"1629 IDYLLWILD CT, PLANO, TX, 75075","Match","Exact","1629 IDYLLWILD CT, PLANO, TX, 75075",123487643,"R"
78753,"1629 K ST NW STE 300","WASHINGTON DC","DC",20006,38.902533959,-77.037169921,253,"1629 K ST NW STE 300, WASHINGTON DC, DC, 20006","Match","Exact","1629 K ST NW, WASHINGTON, DC, 20006",76225668,"R"
78754,"1629 K ST NW STE 300","WASHINGTON","DC",20006,38.902533959,-77.037169921,254,"1629 K ST NW STE 300, WASHINGTON, DC, 20006","Match","Exact","1629 K ST NW, WASHINGTON, DC, 20006",76225668,"R"
78755,"1629 K ST NW SUITE 300","WASHINGTON","DC",20006,38.902533959,-77.037169921,255,"1629 K ST NW SUITE 300, WASHINGTON, DC, 20006","Match","Exact","1629 K ST NW, WASHINGTON, DC, 20006",76225668,"R"
78756,"1629 K ST NW","WASHINGTON","DC",20006,38.902533959,-77.037169921,256,"1629 K ST NW, WASHINGTON, DC, 20006","Match","Exact","1629 K ST NW, WASHINGTON, DC, 20006",76225668,"R"
78757,"1629 K ST SUITE 300 NW","WASHINGTON","DC",20006,38.902533959,-77.037169921,257,"1629 K ST SUITE 300 NW, WASHINGTON, DC, 20006","Match","Non_Exact","1629 K ST NW, WASHINGTON, DC, 20006",76225668,"R"
78758,"1629 K ST SUITE 300","WASHINGTON","DC",20006,38.902533959,-77.037169921,258,"1629 K ST SUITE 300, WASHINGTON, DC, 20006","Match","Non_Exact","1629 K ST NW, WASHINGTON, DC, 20006",76225668,"R"
78759,"1629 K STEET NW SUITE 300","WASHINGTON","DC",20006,38.902533959,-77.037169921,259,"1629 K STEET NW SUITE 300, WASHINGTON, DC, 20006","Match","Exact","1629 K ST NW, WASHINGTON, DC, 20006",76225668,"R"
78760,"1629 K STREET NW  SUITE 300","WASHINGTON","DC",20006,38.902533959,-77.037169921,260,"1629 K STREET NW  SUITE 300, WASHINGTON, DC, 20006","Match","Exact","1629 K ST NW, WASHINGTON, DC, 20006",76225668,"R"
78761,"1629 K STREET NW - SUITE 300","WASHINGTON","DC",20006,38.902533959,-77.037169921,261,"1629 K STREET NW - SUITE 300, WASHINGTON, DC, 20006","Match","Exact","1629 K ST NW, WASHINGTON, DC, 20006",76225668,"R"
78762,"1629 K STREET NW 300","WASHINGTON","DC",20006,38.902533959,-77.037169921,262,"1629 K STREET NW 300, WASHINGTON, DC, 20006","Match","Exact","1629 K ST NW, WASHINGTON, DC, 20006",76225668,"R"
78763,"1629 K STREET NW 3RD FLOOR","WASHINGTON","DC",20006,38.902533959,-77.037169921,263,"1629 K STREET NW 3RD FLOOR, WASHINGTON, DC, 20006","Match","Exact","1629 K ST NW, WASHINGTON, DC, 20006",76225668,"R"
78764,"1629 K STREET NW ROOM 300","WASHINGTON","DC",20006,38.902533959,-77.037169921,264,"1629 K STREET NW ROOM 300, WASHINGTON, DC, 20006","Match","Exact","1629 K ST NW, WASHINGTON, DC, 20006",76225668,"R"
78765,"1629 K STREET NW STE 300","WASHINGTON","DC",20006,38.902533959,-77.037169921,265,"1629 K STREET NW STE 300, WASHINGTON, DC, 20006","Match","Exact","1629 K ST NW, WASHINGTON, DC, 20006",76225668,"R"
78766,"1629 K STREET NW SUITE 300","WASHINGTON DC","DC",20006,38.902533959,-77.037169921,266,"1629 K STREET NW SUITE 300, WASHINGTON DC, DC, 20006","Match","Exact","1629 K ST NW, WASHINGTON, DC, 20006",76225668,"R"
78767,"1629 K STREET NW SUITE 300","WASHINGTON","DC",20006,38.902533959,-77.037169921,267,"1629 K STREET NW SUITE 300, WASHINGTON, DC, 20006","Match","Exact","1629 K ST NW, WASHINGTON, DC, 20006",76225668,"R"
78768,"1629 K STREET NW","WASHINGTON","DC",20006,38.902533959,-77.037169921,268,"1629 K STREET NW, WASHINGTON, DC, 20006","Match","Exact","1629 K ST NW, WASHINGTON, DC, 20006",76225668,"R"
78769,"1629 K STREET SUITE  300 NW","WASHINGTON","DC",20006,38.902533959,-77.037169921,269,"1629 K STREET SUITE  300 NW, WASHINGTON, DC, 20006","Match","Non_Exact","1629 K ST NW, WASHINGTON, DC, 20006",76225668,"R"
78770,"1629 K STREET SUITE 300 NW","WASHINGTON","DC",20006,38.902533959,-77.037169921,270,"1629 K STREET SUITE 300 NW, WASHINGTON, DC, 20006","Match","Non_Exact","1629 K ST NW, WASHINGTON, DC, 20006",76225668,"R"
78771,"1629 K STREET SUITE 300","WASHINGTON","DC",20006,38.902533959,-77.037169921,271,"1629 K STREET SUITE 300, WASHINGTON, DC, 20006","Match","Non_Exact","1629 K ST NW, WASHINGTON, DC, 20006",76225668,"R"
78772,"1629 KNOTTS RUN ROAD","RIPLEY","WV",25271,38.866742468,-81.711796603,272,"1629 KNOTTS RUN ROAD, RIPLEY, WV, 25271","Match","Exact","1629 KNOTTS RUN RD, RIPLEY, WV, 25271",130501355,"R"
78773,"1629 LAMBORN AVENUE","SUPERIOR","WI",54880,46.7186358000001,-92.093448315,273,"1629 LAMBORN AVENUE, SUPERIOR, WI, 54880","Match","Exact","1629 LAMBORN AVE, SUPERIOR, WI, 54880",164840638,"R"
78774,"1629 MARTEN STREET","WAUSAU","WI",54401,44.9851516000001,-89.6271563769999,274,"1629 MARTEN STREET, WAUSAU, WI, 54401","Match","Exact","1629 MARTEN ST, WAUSAU, WI, 54401",117136044,"R"
78775,"1629 MASTERS CT","NAPERVILLE","IL",60563,41.7983304360001,-88.21902739,275,"1629 MASTERS CT, NAPERVILLE, IL, 60563","Match","Exact","1629 MASTERS CT, NAPERVILLE, IL, 60563",112667639,"L"
78776,"1629 MERROWAY LN","PONTE VEDRA","FL",32081,30.0918200250001,-81.448558395,276,"1629 MERROWAY LN, PONTE VEDRA, FL, 32081","Match","Exact","1629 MERROWAY LN, PONTE VEDRA, FL, 32081",92623895,"L"
78777,"1629 N LAUREL AVE","PHOENIX","AZ",85007,33.466341152,-112.092593695,277,"1629 N LAUREL AVE, PHOENIX, AZ, 85007","Match","Exact","1629 N LAUREL AVE, PHOENIX, AZ, 85007",128211142,"R"
78778,"1629 NW 4TH ST","OCALA","FL",34475,29.1897544920001,-82.1530713609999,278,"1629 NW 4TH ST, OCALA, FL, 34475","Match","Exact","1629 NW 4TH ST, OCALA, FL, 34475",116724580,"R"
78779,"1629 NW COLLEGE AVE","ANKENY","IA",50023,41.7447624970001,-93.6269599519999,279,"1629 NW COLLEGE AVE, ANKENY, IA, 50023","Match","Exact","1629 NW COLLEGE AVE, ANKENY, IA, 50023",65815672,"L"
78780,"1629 OAK FOREST DRIVE","THE VILLAGES","FL",32162,28.9512561560001,-82.002833735,280,"1629 OAK FOREST DRIVE, THE VILLAGES, FL, 32162","Match","Exact","1629 OAK FOREST DR, THE VILLAGES, FL, 32162",627430135,"L"
78781,"1629 OLD TOWN RD SE","GRAND RAPIDS","MI",49508,42.8940783690001,-85.625710017,281,"1629 OLD TOWN RD SE, GRAND RAPIDS, MI, 49508","Match","Exact","1629 OLD TOWN RD SE, GRAND RAPIDS, MI, 49508",12478027,"L"
78782,"1629 OLEANDER ST","BATON ROUGE","LA",70802,30.441851324,-91.171795061,282,"1629 OLEANDER ST, BATON ROUGE, LA, 70802","Match","Exact","1629 OLEANDER ST, BATON ROUGE, LA, 70802",92182687,"L"
78783,"1629 POST RD UNIT 4332","SAN MARCOS","TX",78666,29.901086041,-97.9166338749999,283,"1629 POST RD UNIT 4332, SAN MARCOS, TX, 78666","Match","Exact","1629 POST RD, SAN MARCOS, TX, 78666",63825419,"L"
78784,"1629 QUARRIER STREET - APARTMENT 3","CHARLESTON","WV",25311,38.3388358990001,-81.6164003659999,284,"1629 QUARRIER STREET - APARTMENT 3, CHARLESTON, WV, 25311","Match","Non_Exact","1629 QUARRIER ST E, CHARLESTON, WV, 25311",78593848,"R"
78785,"1629 RODI","MEMPHIS","TN",38109,35.011789026,-90.11821759,285,"1629 RODI, MEMPHIS, TN, 38109","Match","Non_Exact","1629 RODI COVE, MEMPHIS, TN, 38109",72896827,"L"
78786,"1629 ROSS AVE","ST. LOUIS","MO",63146,38.6915624110001,-90.455578158,286,"1629 ROSS AVE, ST. LOUIS, MO, 63146","Match","Exact","1629 ROSS AVE, SAINT LOUIS, MO, 63146",100124229,"L"
78787,"1629 S DEFRAME ST UNIT B8","LAKEWOOD","CO",80228,39.684845657,-105.155378414,287,"1629 S DEFRAME ST UNIT B8, LAKEWOOD, CO, 80228","Match","Non_Exact","1629 S DEFRAME ST, LAKEWOOD, CO, 80228",177777231,"L"
78788,"1629 S PRAIRE AVENUE SUITE 1510","CHICAGO","IL",60616,41.8589507040001,-87.6207826199999,288,"1629 S PRAIRE AVENUE SUITE 1510, CHICAGO, IL, 60616","Match","Non_Exact","1629 S PRAIRIE AVE, CHICAGO, IL, 60616",618345335,"L"
78789,"1629 SAND CASTLE ROAD","SANIBEL","FL",33957,26.4554373190001,-82.043432337,289,"1629 SAND CASTLE ROAD, SANIBEL, FL, 33957","Match","Exact","1629 SAND CASTLE RD, SANIBEL, FL, 33957",636403581,"R"
78790,"1629 SE NORTH BLACKWELL DRIVE","PORT ST. LUCIE","FL",34952,27.289791253,-80.264016614,290,"1629 SE NORTH BLACKWELL DRIVE, PORT ST. LUCIE, FL, 34952","Match","Exact","1629 SE NORTH BLACKWELL DR, PORT ST LUCIE, FL, 34952",120173674,"L"
78791,"1629 SHEPHERD DR","SHREVEPORT","LA",71107,32.54987492,-93.817438833,291,"1629 SHEPHERD DR, SHREVEPORT, LA, 71107","Match","Exact","1629 SHEPHERD DR, SHREVEPORT, LA, 71107",57486594,"L"
78792,"1629 SOUTH MAIN STREET SUITE 320","SPRINGBORO","OH",45066,39.5356342580001,-84.235098538,292,"1629 SOUTH MAIN STREET SUITE 320, SPRINGBORO, OH, 45066","Match","Non_Exact","1629 MAIN ST, SPRINGBORO, OH, 45066",652639862,"R"
78793,"1629 SUMMERS DR","CEDAR HILL","TX",75104,32.6256749290001,-96.953071247,293,"1629 SUMMERS DR, CEDAR HILL, TX, 75104","Match","Exact","1629 SUMMERS DR, CEDAR HILL, TX, 75104",650491707,"L"
78794,"1629 W 84TH PLACE","LOS ANGELES","CA",90047,33.9618244800001,-118.305348234,294,"1629 W 84TH PLACE, LOS ANGELES, CA, 90047","Match","Exact","1629 W 84TH PL, LOS ANGELES, CA, 90047",141658884,"R"
78795,"1629 W ARDMORE","SPOKANE","WA",99218,47.7553617510001,-117.43567157,295,"1629 W ARDMORE, SPOKANE, WA, 99218","Match","Non_Exact","1629 W ARDMORE DR, SPOKANE, WA, 99218",189867982,"L"
78796,"1629 WESTCHESTER BOULEVARD NUMBER 3","SPRINGFIELD","IL",62704,39.7569567190001,-89.681165053,296,"1629 WESTCHESTER BOULEVARD NUMBER 3, SPRINGFIELD, IL, 62704","Match","Exact","1629 WESTCHESTER BLVD, SPRINGFIELD, IL, 62704",97357412,"R"
78797,"1629 WHEELING AVE","ZANESVILLE","OH",43701,39.9402839030001,-81.984261854,297,"1629 WHEELING AVE, ZANESVILLE, OH, 43701","Match","Exact","1629 WHEELING AVE, ZANESVILLE, OH, 43701",45585445,"L"
78798,"16290 LOWER COLFAX ROAD","GRASS VALLEY","CA",95945,39.159409156,-120.978951313,298,"16290 LOWER COLFAX ROAD, GRASS VALLEY, CA, 95945","Match","Exact","16290 LOWER COLFAX RD, GRASS VALLEY, CA, 95945",106527325,"R"
78799,"16290 MERSON CT","BUCHANAN","MI",49107,41.8254161340001,-86.3480292529999,299,"16290 MERSON CT, BUCHANAN, MI, 49107","Match","Exact","16290 MERSON CT, BUCHANAN, MI, 49107",649806002,"R"
78800,"16291 132ND TER N","JUPITER","FL",33478,26.9167389400001,-80.243652513,300,"16291 132ND TER N, JUPITER, FL, 33478","Match","Exact","16291 132ND TER N, JUPITER, FL, 33478",115524458,"L"
78801,"16292 CALA ROJO DR","COLORADO SPRINGS","CO",80926,38.605271487,-104.910780043,301,"16292 CALA ROJO DR, COLORADO SPRINGS, CO, 80926","Match","Exact","16292 CALA ROJO DR, COLORADO SPRINGS, CO, 80926",647963302,"R"
78802,"16293 GALE AVE","CITY OF INDUSTRY","CA",91745,34.00725341,-117.951071485,302,"16293 GALE AVE, CITY OF INDUSTRY, CA, 91745","Match","Non_Exact","16293 E GALE AVE, CITY OF INDUSTRY, CA, 91745",647606668,"L"
78803,"16293 S 333RD  E AVE","COWETA","OK",74429,35.927886807,-95.605284897,303,"16293 S 333RD  E AVE, COWETA, OK, 74429","Match","Exact","16293 S 333RD EAST AVE, COWETA, OK, 74429",606225807,"L"
78804,"16293 S 333RD E AVE","COWETA","OK",74429,35.927886807,-95.605284897,304,"16293 S 333RD E AVE, COWETA, OK, 74429","Match","Exact","16293 S 333RD EAST AVE, COWETA, OK, 74429",606225807,"L"
78805,"16295 S TAMIAMI TRAIL 133","FORT MYERS","FL",33908,26.512622725,-81.863163973,305,"16295 S TAMIAMI TRAIL 133, FORT MYERS, FL, 33908","Match","Non_Exact","16295 S TAMIAMI TRL, FORT MYERS, FL, 33908",614288365,"L"
78806,"16298 CEDAR LANE LOOP","WILLIS","TX",77378,30.439832988,-95.336068659,306,"16298 CEDAR LANE LOOP, WILLIS, TX, 77378","Match","Non_Exact","16298 CEDAR LN LP, WILLIS, TX, 77378",642462579,"L"
78807,"16299 LINDSEY RD","MILTON","IN",47357,39.759185298,-85.184049686,307,"16299 LINDSEY RD, MILTON, IN, 47357","Match","Exact","16299 LINDSEY RD, MILTON, IN, 47357",31341161,"L"
78808,"163 44TH STREET","PITTSBURGH","PA",15201,40.472304481,-79.960943916,308,"163 44TH STREET, PITTSBURGH, PA, 15201","Match","Exact","163 44TH ST, PITTSBURGH, PA, 15201",51642269,"L"
78809,"163 9TH ST CIRCLE SE","SIOUX CENTER","IA",51250,43.0866585740001,-96.175321195,309,"163 9TH ST CIRCLE SE, SIOUX CENTER, IA, 51250","Match","Non_Exact","163 9TH ST CIR, SIOUX CENTER, IA, 51250",650219817,"L"
78810,"163 ALBANY TPKE  STE 150","CANTON","CT",6019,41.8242306010001,-72.892977366,310,"163 ALBANY TPKE  STE 150, CANTON, CT, 6019","Match","Exact","163 ALBANY TPKE, CANTON, CT, 06019",604950928,"R"
78811,"163 BALANCE ROCK ROAD","PITTSFIELD","MA",1201,42.501118981,-73.271386368,311,"163 BALANCE ROCK ROAD, PITTSFIELD, MA, 1201","Match","Exact","163 BALANCE ROCK RD, PITTSFIELD, MA, 01201",3962515,"L"
78812,"163 BARNETTS RUN RD","WARFORDSBURG","PA",17267,39.815071974,-78.18801906,312,"163 BARNETTS RUN RD, WARFORDSBURG, PA, 17267","Match","Exact","163 BARNETTS RUN RD, WARFORDSBURG, PA, 17267",61020596,"L"
78813,"163 BEACH 91ST ST","ROCKAWAY BEACH","NY",11693,40.585842395,-73.813965916,313,"163 BEACH 91ST ST, ROCKAWAY BEACH, NY, 11693","Match","Exact","163 BEACH 91ST ST, ROCKAWAY BEACH, NY, 11693",59722467,"L"
78814,"163 BOAL ESTATE DRIVE  PO BOX 116","BOALSBURG","PA",16827,40.778284103,-77.799682449,314,"163 BOAL ESTATE DRIVE  PO BOX 116, BOALSBURG, PA, 16827","Match","Exact","163 BOAL ESTATE DR, BOALSBURG, PA, 16827",50401966,"L"
78815,"163 CAPE PRIVATE CIR","GALLATIN","TN",37066,36.3415155380001,-86.513499354,315,"163 CAPE PRIVATE CIR, GALLATIN, TN, 37066","Match","Exact","163 CAPE PRIVATE CIR, GALLATIN, TN, 37066",651702115,"L"
78816,"163 CAROLINE ST APT 2","ROCHESTER","NY",14620,43.139547667,-77.60160346,316,"163 CAROLINE ST APT 2, ROCHESTER, NY, 14620","Match","Exact","163 CAROLINE ST, ROCHESTER, NY, 14620",14540462,"R"
78817,"163 CARRIER ST","LIBERTY","NY",12754,41.7915781900001,-74.7399993349999,317,"163 CARRIER ST, LIBERTY, NY, 12754","Match","Exact","163 CARRIER ST, LIBERTY, NY, 12754",647747558,"R"
78818,"163 CENTENARY AVE NW APT 4","CLEVELAND","TN",37311,35.1666733610001,-84.872871762,318,"163 CENTENARY AVE NW APT 4, CLEVELAND, TN, 37311","Match","Exact","163 CENTENARY AVE NW, CLEVELAND, TN, 37311",57574276,"L"
78819,"163 CENTRAL STREET  APT 2","SOMERVILLE","MA",2145,42.393393141,-71.099933296,319,"163 CENTRAL STREET  APT 2, SOMERVILLE, MA, 2145","Match","Exact","163 CENTRAL ST, SOMERVILLE, MA, 02145",86868983,"R"
78820,"163 CHAPEL BROOKE CIRCLE","REEDSVILLE","WV",26547,39.5356584730001,-79.8004510979999,320,"163 CHAPEL BROOKE CIRCLE, REEDSVILLE, WV, 26547","Match","Exact","163 CHAPEL BROOKE CIR, REEDSVILLE, WV, 26547",633135785,"R"
78821,"163 CHESTER STREET","EAST  HARTFORD","CT",6108,41.77330791,-72.595577276,321,"163 CHESTER STREET, EAST  HARTFORD, CT, 6108","Match","Exact","163 CHESTER ST, EAST HARTFORD, CT, 06108",3496851,"R"
78822,"163 COVINGTON CIRCLE","STATEN ISLAND","NY",10312,40.5458421230001,-74.201825775,322,"163 COVINGTON CIRCLE, STATEN ISLAND, NY, 10312","Match","Exact","163 COVINGTON CIR, STATEN ISLAND, NY, 10312",59895584,"L"
78823,"163 CR 461","JONESBORO","AR",72404,35.7171905550001,-90.674013805,323,"163 CR 461, JONESBORO, AR, 72404","Match","Exact","163 CO RD 461, JONESBORO, AR, 72404",46945288,"L"
78824,"163 CREAMERY LN","BALLY","PA",19503,40.3995637100001,-75.5948131809999,324,"163 CREAMERY LN, BALLY, PA, 19503","Match","Exact","163 CREAMERY LN, BALLY, PA, 19503",649166547,"L"
78825,"163 DABBS DRIVE","SPRING CITY","TN",37381,35.780402166,-84.7466546639999,325,"163 DABBS DRIVE, SPRING CITY, TN, 37381","Match","Exact","163 DABBS DR, SPRING CITY, TN, 37381",59532336,"R"
78826,"163 E 2ND AVENUE","SALT LAKE CITY","UT",84103,40.771709856,-111.884892564,326,"163 E 2ND AVENUE, SALT LAKE CITY, UT, 84103","Match","Exact","163 2ND AVE, SALT LAKE CITY, UT, 84103",176101646,"R"
78827,"163 E CAPITOL DR","HARTLAND","WI",53029,43.104608188,-88.345583391,327,"163 E CAPITOL DR, HARTLAND, WI, 53029","Match","Exact","163 E CAPITOL DR, HARTLAND, WI, 53029",53808975,"R"
78828,"163 E OLIVE ST","SAN BERNARDINO","CA",92410,34.1185979590001,-117.283298951,328,"163 E OLIVE ST, SAN BERNARDINO, CA, 92410","Match","Exact","163 E OLIVE ST, SAN BERNARDINO, CA, 92410",144655537,"R"
78829,"163 ELLERS GROVE","COLORADO SPRINGS","CO",80916,38.827675845,-104.735784201,329,"163 ELLERS GROVE, COLORADO SPRINGS, CO, 80916","Match","Exact","163 ELLERS GROVE, COLORADO SPRINGS, CO, 80916",105573674,"R"
78830,"163 FOREST POINT DR","JACKSON","TN",38305,NA,NA,330,"163 FOREST POINT DR, JACKSON, TN, 38305","No_Match",NA,NA,NA,NA
78831,"163 GRANADA SQ","CANTON","TX",75103,32.538801989,-95.8714616729999,331,"163 GRANADA SQ, CANTON, TX, 75103","Match","Exact","163 GRANADA SQ, CANTON, TX, 75103",637601463,"R"
78832,"163 HEPBURN ROAD","HAMDEN","CT",6517,41.3482083910001,-72.898373368,332,"163 HEPBURN ROAD, HAMDEN, CT, 6517","Match","Exact","163 HEPBURN RD, HAMDEN, CT, 06517",3702713,"R"
78833,"163 HEWLETT NECK ROAD","WOODMERE","NY",11598,40.625545763,-73.699285834,333,"163 HEWLETT NECK ROAD, WOODMERE, NY, 11598","Match","Exact","163 HEWLETT NECK RD, WOODMERE, NY, 11598",147678995,"R"
78834,"163 HOSTETTER LN","LANCASTER","PA",17602,40.0312810120001,-76.258670276,334,"163 HOSTETTER LN, LANCASTER, PA, 17602","Match","Exact","163 HOSTETTER LN, LANCASTER, PA, 17602",179698736,"L"
78835,"163 INDIAN HILL ROAD","GROTON","MA",1450,42.5876517890001,-71.5587968629999,335,"163 INDIAN HILL ROAD, GROTON, MA, 1450","Match","Exact","163 INDIAN HILL RD, GROTON, MA, 01450",86834373,"R"
78836,"163 KI KE ACRES RD","SEARCY","AR",72143,35.2026178140001,-91.763985178,336,"163 KI KE ACRES RD, SEARCY, AR, 72143","Match","Exact","163 KI KE ACRES RD, SEARCY, AR, 72143",82960433,"L"
78837,"163 KID ROW","BARNET","VT",5821,44.3057636560001,-72.08060921,337,"163 KID ROW, BARNET, VT, 5821","Match","Exact","163 KID ROW, BARNET, VT, 05821",181077330,"L"
78838,"163 KIRK DRIVE","NEWPORT NEWS","VA",23608,37.1487397180001,-76.525063871,338,"163 KIRK DRIVE, NEWPORT NEWS, VA, 23608","Match","Exact","163 KIRK DR, NEWPORT NEWS, VA, 23608",103750834,"R"
78839,"163 LAKE MIST DRIVE","MOORSEVILLE","NC",28117,NA,NA,339,"163 LAKE MIST DRIVE, MOORSEVILLE, NC, 28117","No_Match",NA,NA,NA,NA
78840,"163 LAKESHORE DRIVE APT5","LEXINGTON","KY",40502,38.0192579160001,-84.469029558,340,"163 LAKESHORE DRIVE APT5, LEXINGTON, KY, 40502","Match","Exact","163 LAKESHORE DR, LEXINGTON, KY, 40502",31927024,"R"
78841,"163 LARAWAY LANE","FAIRHOPE","AL",36532,NA,NA,341,"163 LARAWAY LANE, FAIRHOPE, AL, 36532","No_Match",NA,NA,NA,NA
78842,"163 LOCKSUNART WAY","SUNNYVALE","CA",94087,37.339033649,-122.030273859,342,"163 LOCKSUNART WAY, SUNNYVALE, CA, 94087","Match","Exact","163 LOCKSUNART WAY, SUNNYVALE, CA, 94087",635290521,"L"
78843,"163 LOCUST FENCE ROAD","ST. HELENA","SC",29920,32.438801921,-80.577889279,343,"163 LOCUST FENCE ROAD, ST. HELENA, SC, 29920","Match","Non_Exact","163 LOCUST FENCE RD, ST HELENA IS, SC, 29920",87623898,"R"
78844,"163 LYNDHURST DR","LA VERGNE","TN",37086,36.037755331,-86.540209718,344,"163 LYNDHURST DR, LA VERGNE, TN, 37086","Match","Exact","163 LYNDHURST DR, LA VERGNE, TN, 37086",635802483,"R"
78845,"163 MAE LN","WAKE","VA",23176,37.5712508990001,-76.3948034209999,345,"163 MAE LN, WAKE, VA, 23176","Match","Exact","163 MAE LN, WAKE, VA, 23176",22084603,"L"
78846,"163 MAIN STREET","BEACON","NY",12508,41.508248753,-73.9756947779999,346,"163 MAIN STREET, BEACON, NY, 12508","Match","Exact","163 MAIN ST, BEACON, NY, 12508",4161995,"R"
78847,"163 MANNING ROAD","MALTA","NY",12020,43.0253010770001,-73.7611509509999,347,"163 MANNING ROAD, MALTA, NY, 12020","Match","Exact","163 MANNING RD, MALTA, NY, 12020",18766138,"R"
78848,"163 MARKET ST APT 4","PASSAIC","NJ",7055,40.8672949620001,-74.117064624,348,"163 MARKET ST APT 4, PASSAIC, NJ, 7055","Match","Exact","163 MARKET ST, PASSAIC, NJ, 07055",65249576,"L"
78849,"163 MARTIN LUTHER KING JR DR","WINDER","GA",30680,NA,NA,349,"163 MARTIN LUTHER KING JR DR, WINDER, GA, 30680","No_Match",NA,NA,NA,NA
78850,"163 MICHAEL LN","BRANDENBURG","KY",40108,37.9856061030001,-86.1513585,350,"163 MICHAEL LN, BRANDENBURG, KY, 40108","Match","Exact","163 MICHAEL LN, BRANDENBURG, KY, 40108",650476623,"L"
78851,"163 MINROL STREET","PORT JEFF STA","NY",11776,40.9141731600001,-73.062645472,351,"163 MINROL STREET, PORT JEFF STA, NY, 11776","Match","Exact","163 MINROL ST, PORT JEFF STA, NY, 11776",114002845,"L"
78852,"163 MITCHELLS CHANCE RD SUITE 240","EDGEWATER","MD",20137,38.930266181,-76.564210249,352,"163 MITCHELLS CHANCE RD SUITE 240, EDGEWATER, MD, 20137","Match","Non_Exact","163 MITCHELLS CHANCE RD, EDGEWATER, MD, 21037",635790597,"R"
78853,"163 MLK JR DRIVE","WINDER","GA",30680,NA,NA,353,"163 MLK JR DRIVE, WINDER, GA, 30680","No_Match",NA,NA,NA,NA
78854,"163 NEW YORK AVENUE","DUMONT","NJ",7628,40.942374962,-73.986910327,354,"163 NEW YORK AVENUE, DUMONT, NJ, 7628","Match","Exact","163 NEW YORK AVE, DUMONT, NJ, 07628",64372035,"R"
78855,"163 NORTH MAIN STREET","BOWLING GREEN","OH",43402,41.375779015,-83.650418746,355,"163 NORTH MAIN STREET, BOWLING GREEN, OH, 43402","Match","Exact","163 N MAIN ST, BOWLING GREEN, OH, 43402",38740913,"L"
78856,"163 NORTH ST","AUBURN","NY",13021,42.9425774170001,-76.566932236,356,"163 NORTH ST, AUBURN, NY, 13021","Match","Exact","163 NORTH ST, AUBURN, NY, 13021",33496455,"L"
78857,"163 NORTHAMPTON STREET   SUITE B","EASTHAMPTON","MA",1027,42.2829091560001,-72.667631575,357,"163 NORTHAMPTON STREET   SUITE B, EASTHAMPTON, MA, 1027","Match","Exact","163 NORTHAMPTON ST, EASTHAMPTON, MA, 01027",39867907,"R"
78858,"163 OAKVIEW DRIVE","CRANBERRY TOWNSHIP","PA",16066,40.7397331770001,-80.079541757,358,"163 OAKVIEW DRIVE, CRANBERRY TOWNSHIP, PA, 16066","Match","Exact","163 OAKVIEW DR, CRANBERRY TOWNSHIP, PA, 16066",52694725,"R"
78859,"163 OLD GEORGETOWN STREET UNIT 203","LEXINGTON","KY",40508,38.0545742130001,-84.503108133,359,"163 OLD GEORGETOWN STREET UNIT 203, LEXINGTON, KY, 40508","Match","Non_Exact","163 OLD GEORGETOWN ST, LEXINGTON, KY, 40508",31921455,"L"
78860,"163 OLD WARNER ROAD","BRADFORD","NH",3221,43.266453083,-71.937807699,360,"163 OLD WARNER ROAD, BRADFORD, NH, 3221","Match","Exact","163 OLD WARNER RD, BRADFORD, NH, 03221",117736485,"L"
78861,"163 PARIS PLANTATION ROAD","COLUMBIA","LA",71418,NA,NA,361,"163 PARIS PLANTATION ROAD, COLUMBIA, LA, 71418","No_Match",NA,NA,NA,NA
78862,"163 PAWTUCKET BLVD","LOWELL","MA",1854,42.643713946,-71.3402747929999,362,"163 PAWTUCKET BLVD, LOWELL, MA, 1854","Match","Exact","163 PAWTUCKET BLVD, LOWELL, MA, 01854",86876161,"R"
78863,"163 PEASE RD","WOODBRIDGE","CT",6525,41.3495373270001,-72.997669053,363,"163 PEASE RD, WOODBRIDGE, CT, 6525","Match","Exact","163 PEASE RD, WOODBRIDGE, CT, 06525",3696873,"R"
78864,"163 PERRY DR","HAINES CITY","FL",33844,28.1603514670001,-81.686304799,364,"163 PERRY DR, HAINES CITY, FL, 33844","Match","Exact","163 PERRY DR, HAINES CITY, FL, 33844",104825970,"R"
78865,"163 PIER LANDING","SOUTH MILLS","NC",27976,36.487832369,-76.337114559,365,"163 PIER LANDING, SOUTH MILLS, NC, 27976","Match","Exact","163 PIER LNDG, SOUTH MILLS, NC, 27976",614117668,"R"
78866,"163 PONCE DE LEON AVENUE NE","ATLANTA","GA",30308,33.7724887090001,-84.381984476,366,"163 PONCE DE LEON AVENUE NE, ATLANTA, GA, 30308","Match","Exact","163 PONCE DE LEON AVE NE, ATLANTA, GA, 30308",17343755,"R"
78867,"163 QUARTER LN","MOORESVILLE","NC",28117,35.5866233180001,-80.878483213,367,"163 QUARTER LN, MOORESVILLE, NC, 28117","Match","Exact","163 QUARTER LN, MOORESVILLE, NC, 28117",652182140,"R"
78868,"163 RANDY DR","GRANTS PASS","OR",97527,42.377026631,-123.351401618,368,"163 RANDY DR, GRANTS PASS, OR, 97527","Match","Exact","163 RANDY DR, GRANTS PASS, OR, 97527",156573048,"L"
78869,"163 RICHARD DRIVE","XENIA","OH",45385,39.691060598,-83.953952981,369,"163 RICHARD DRIVE, XENIA, OH, 45385","Match","Exact","163 RICHARD DR, XENIA, OH, 45385",143379434,"R"
78870,"163 RICHMOND AVE","BUFFALO","NY",14222,42.906991254,-78.881951659,370,"163 RICHMOND AVE, BUFFALO, NY, 14222","Match","Exact","163 RICHMOND AVE, BUFFALO, NY, 14222",642136018,"R"
78871,"163 RICHMOND AVENUE","BUFFALO","NY",14222,42.906991254,-78.881951659,371,"163 RICHMOND AVENUE, BUFFALO, NY, 14222","Match","Exact","163 RICHMOND AVE, BUFFALO, NY, 14222",642136018,"R"
78872,"163 RIFLE RANGE ROAD","MONTGOMERY","AL",36117,32.398056395,-86.100454127,372,"163 RIFLE RANGE ROAD, MONTGOMERY, AL, 36117","Match","Exact","163 RIFLE RANGE RD, MONTGOMERY, AL, 36117",1544884,"R"
78873,"163 RIVER ILL CT","TAYLORSVILLE","KY",40071,NA,NA,373,"163 RIVER ILL CT, TAYLORSVILLE, KY, 40071","No_Match",NA,NA,NA,NA
78874,"163 RIVERS EDGE DRIVE","HAYESVILLE","NC",28904,35.0363226700001,-83.8090766029999,374,"163 RIVERS EDGE DRIVE, HAYESVILLE, NC, 28904","Match","Exact","163 RIVERS EDGE DR, HAYESVILLE, NC, 28904",635952474,"L"
78875,"163 ROBERTS RD","BOLINGBROOK","IL",60440,41.7138604300001,-88.065470531,375,"163 ROBERTS RD, BOLINGBROOK, IL, 60440","Match","Exact","163 ROBERTS RD, BOLINGBROOK, IL, 60440",111535118,"R"
78876,"163 ROSLINDALE AVENUE UNIT 1","BOSTON","MA",2131,42.2822958340001,-71.1365733439999,376,"163 ROSLINDALE AVENUE UNIT 1, BOSTON, MA, 2131","Match","Exact","163 ROSLINDALE AVE, BOSTON, MA, 02131",85703450,"R"
78877,"163 ROYAL OAKS DRIVE","HEBER SPRINGS","AR",72543,35.4490668660001,-92.028912812,377,"163 ROYAL OAKS DRIVE, HEBER SPRINGS, AR, 72543","Match","Exact","163 ROYAL OAKS DR, HEBER SPRINGS, AR, 72543",627260777,"R"
78878,"163 RUSSELLS MILLS ROAD","DARTMOUTH","MA",2748,41.6038951790001,-70.954159811,378,"163 RUSSELLS MILLS ROAD, DARTMOUTH, MA, 2748","Match","Exact","163 RUSSELLS MILLS RD, DARTMOUTH, MA, 02748",636133187,"L"
78879,"163 S 3RD ST/PO BOX 336","HALLOCK","MN",56728,NA,NA,379,"163 S 3RD ST/PO BOX 336, HALLOCK, MN, 56728","No_Match",NA,NA,NA,NA
78880,"163 S WASHINGTON STREET SUITE B","SONORA","CA",95370,NA,NA,380,"163 S WASHINGTON STREET SUITE B, SONORA, CA, 95370","Tie",NA,NA,NA,NA
78881,"163 SAINT JAMES DRIVE","PIEDMONT","CA",94611,37.8162335540001,-122.218248536,381,"163 SAINT JAMES DRIVE, PIEDMONT, CA, 94611","Match","Exact","163 SAINT JAMES DR, PIEDMONT, CA, 94611",125002260,"R"
78882,"163 SEATON ROAD SUITE  3","STAMFORD","CT",6902,41.0589683380001,-73.517467062,382,"163 SEATON ROAD SUITE  3, STAMFORD, CT, 6902","Match","Exact","163 SEATON RD, STAMFORD, CT, 06902",3246869,"R"
78883,"163 SHAFFERS HOLLOW LN","ROSELAND","VA",22967,37.777632166,-78.9510370309999,383,"163 SHAFFERS HOLLOW LN, ROSELAND, VA, 22967","Match","Non_Exact","163 SHAEFFERS HOLLOW LN, ROSELAND, VA, 22967",98895749,"R"
78884,"163 SPRINGVALLEY CIR","STOCKBRIDGE","GA",30281,33.56283152,-84.215442705,384,"163 SPRINGVALLEY CIR, STOCKBRIDGE, GA, 30281","Match","Non_Exact","163 SPRING VALLEY CIR, STOCKBRIDGE, GA, 30281",23211962,"R"
78885,"163 ST NICHOLAS AVENUE   5E","NEW YORK","NY",10026,NA,NA,385,"163 ST NICHOLAS AVENUE   5E, NEW YORK, NY, 10026","No_Match",NA,NA,NA,NA
78886,"163 STAR BLVD","MADISON","TN",37115,36.285404385,-86.71968094,386,"163 STAR BLVD, MADISON, TN, 37115","Match","Exact","163 STAR BLVD, MADISON, TN, 37115",606836920,"R"
78887,"163 STORMONT ST","NEW CONCORD","OH",43762,39.997395791,-81.738134139,387,"163 STORMONT ST, NEW CONCORD, OH, 43762","Match","Exact","163 STORMONT ST, NEW CONCORD, OH, 43762",45587760,"L"
78888,"163 STRATFORD COURT SUITE 155","WINSTON SALEM","NC",27103,36.092909784,-80.277956715,388,"163 STRATFORD COURT SUITE 155, WINSTON SALEM, NC, 27103","Match","Exact","163 STRATFORD CT, WINSTON SALEM, NC, 27103",84679425,"R"
78889,"163 SUNSET DRIVE","HUDSON","OH",44236,41.232592298,-81.433936484,389,"163 SUNSET DRIVE, HUDSON, OH, 44236","Match","Exact","163 SUNSET DR, HUDSON, OH, 44236",61372899,"R"
78890,"163 SWAN WAY","TAYLORSVILLE","KY",40071,NA,NA,390,"163 SWAN WAY, TAYLORSVILLE, KY, 40071","Tie",NA,NA,NA,NA
78891,"163 TRELLIS LN","IRVINE","CA",92620,33.730078715,-117.758410898,391,"163 TRELLIS LN, IRVINE, CA, 92620","Match","Exact","163 TRELLIS LN, IRVINE, CA, 92620",144136681,"L"
78892,"163 TWO PONDS RD","FALMOUTH","MA",2540,41.55706924,-70.639580651,392,"163 TWO PONDS RD, FALMOUTH, MA, 2540","Match","Exact","163 TWO PONDS RD, FALMOUTH, MA, 02540",121571935,"R"
78893,"163 UDEN RD E","GLENOMA","WA",98336,46.514128693,-122.167715106,393,"163 UDEN RD E, GLENOMA, WA, 98336","Match","Exact","163 UDEN RD E, GLENOMA, WA, 98336",180736810,"R"
78894,"163 US HIGHWAY 63 EAST","BURKEVILLE","TX",75932,30.9988142340001,-93.669348671,394,"163 US HIGHWAY 63 EAST, BURKEVILLE, TX, 75932","Match","Non_Exact","163 HWY 63, BURKEVILLE, TX, 75932",177221916,"L"
78895,"163 VILLAGE DRIVE","BOYERTOWN","PA",19512,40.3257010890001,-75.653296983,395,"163 VILLAGE DRIVE, BOYERTOWN, PA, 19512","Match","Exact","163 VILLAGE DR, BOYERTOWN, PA, 19512",80425322,"R"
78896,"163 VIOLA AVERY STREET","THOMSON","GA",30824,33.4781107790001,-82.506938863,396,"163 VIOLA AVERY STREET, THOMSON, GA, 30824","Match","Exact","163 VIOLA AVERY ST, THOMSON, GA, 30824",43141524,"L"
78897,"163 W 200 S APT 208","SALT LAKE CITY","UT",84101,NA,NA,397,"163 W 200 S APT 208, SALT LAKE CITY, UT, 84101","No_Match",NA,NA,NA,NA
78898,"163 W EATON","TRACY","CA",95376,37.743525839,-121.423719505,398,"163 W EATON, TRACY, CA, 95376","Match","Non_Exact","163 EATON AVE, TRACY, CA, 95376",133854062,"L"
78899,"163 WATER OAK DRIVE","PINEVILLE","NC",28134,35.077561116,-80.895485362,399,"163 WATER OAK DRIVE, PINEVILLE, NC, 28134","Match","Exact","163 WATER OAK DR, PINEVILLE, NC, 28134",70569239,"L"
78900,"163 WATERS EDGE LANE","HENDERSONVILLE","TN",37075,36.252735075,-86.608375074,400,"163 WATERS EDGE LANE, HENDERSONVILLE, TN, 37075","Match","Exact","163 WATERS EDGE LN, HENDERSONVILLE, TN, 37075",29786170,"L"
78901,"163 WEST GIRARD AVE","PHILADELPHIA","PA",19123,39.9693264270001,-75.138533223,401,"163 WEST GIRARD AVE, PHILADELPHIA, PA, 19123","Match","Exact","163 W GIRARD AVE, PHILADELPHIA, PA, 19123",642122423,"R"
78902,"163 WOODLANDS GLEN CIRCLE","BRANDON","MS",39047,32.3421412320001,-89.989223189,402,"163 WOODLANDS GLEN CIRCLE, BRANDON, MS, 39047","Match","Exact","163 WOODLANDS GLEN CIR, BRANDON, MS, 39047",625656886,"L"
78903,"163-07 DEPOT RD SUITE B4","FLUSHING","NY",11358,40.762026887,-73.8034078269999,403,"163-07 DEPOT RD SUITE B4, FLUSHING, NY, 11358","Match","Exact","163-7 DEPOT RD, FLUSHING, NY, 11358",59702256,"L"
78904,"163-07 DEPOT ROAD SUITE B1","FLUSHING","NY",10462,40.762026887,-73.8034078269999,404,"163-07 DEPOT ROAD SUITE B1, FLUSHING, NY, 10462","Match","Non_Exact","163-7 DEPOT RD, FLUSHING, NY, 11358",59702256,"L"
78905,"163-19 91 STREET","HOWARD BEACH","NY",11414,40.6519849360001,-73.840060286,405,"163-19 91 STREET, HOWARD BEACH, NY, 11414","Match","Exact","163-19 91ST ST, HOWARD BEACH, NY, 11414",59709106,"L"
78906,"163-29 130TH AVE APT 1G","JAMAICA","NY",11434,40.676593117,-73.777861211,406,"163-29 130TH AVE APT 1G, JAMAICA, NY, 11434","Match","Exact","163-29 130TH AVE, JAMAICA, NY, 11434",650054012,"R"
78907,"163-35 130TH AVENUE APT 7E","JAMAICA","NY",11434,40.6766533540001,-73.777739853,407,"163-35 130TH AVENUE APT 7E, JAMAICA, NY, 11434","Match","Exact","163-35 130TH AVE, JAMAICA, NY, 11434",650054012,"R"
78908,"163-37 23RD AVENUE","WHITESTONE","NY",11357,40.7766892080001,-73.799184763,408,"163-37 23RD AVENUE, WHITESTONE, NY, 11357","Match","Exact","163-37 23RD AVE, WHITESTONE, NY, 11357",59702041,"L"
78909,"163-45 130TH AVENUE","JAMAICA","NY",11434,40.6767537480001,-73.777537588,409,"163-45 130TH AVENUE, JAMAICA, NY, 11434","Match","Exact","163-45 130TH AVE, JAMAICA, NY, 11434",650054012,"R"
78910,"163","DURHAM","CT",6422,NA,NA,410,"163, DURHAM, CT, 6422","No_Match",NA,NA,NA,NA
78911,"1630 23RD ST","SACRAMENTO","CA",95816,38.568324616,-121.479060956,411,"1630 23RD ST, SACRAMENTO, CA, 95816","Match","Exact","1630 23RD ST, SACRAMENTO, CA, 95816",133420061,"R"
78912,"1630 30TH ST STE A352","BOULDER","CO",80301,40.015382678,-105.253594389,412,"1630 30TH ST STE A352, BOULDER, CO, 80301","Match","Exact","1630 30TH ST, BOULDER, CO, 80301",632347785,"R"
78913,"1630 30TH STREET","BOULDER","CO",80301,40.015382678,-105.253594389,413,"1630 30TH STREET, BOULDER, CO, 80301","Match","Exact","1630 30TH ST, BOULDER, CO, 80301",632347785,"R"
78914,"1630 43RD STREET","BROOKLYN","NY",11204,40.6338920580001,-73.981189827,414,"1630 43RD STREET, BROOKLYN, NY, 11204","Match","Exact","1630 43RD ST, BROOKLYN, NY, 11204",59080673,"R"
78915,"1630 56TH ST","KENOSHA","WI",53140,42.5837818090001,-87.829336853,415,"1630 56TH ST, KENOSHA, WI, 53140","Match","Exact","1630 56TH ST, KENOSHA, WI, 53140",79800580,"R"
78916,"1630 A 30TH ST BOX 287","BOULDER","CO",80301,40.0153933290001,-105.253594421,416,"1630 A 30TH ST BOX 287, BOULDER, CO, 80301","Match","Exact","1630 30TH ST, BOULDER, CO, 80301",632347785,"R"
78917,"1630 BILTMORE LANE","PITTSBURGH","PA",15217,40.4184140930001,-79.9207747089999,417,"1630 BILTMORE LANE, PITTSBURGH, PA, 15217","Match","Exact","1630 BILTMORE LN, PITTSBURGH, PA, 15217",641851974,"L"
78918,"1630 BRAZOS TRACES DRIVE","RICHMOND","TX",77469,29.557894171,-95.6969920829999,418,"1630 BRAZOS TRACES DRIVE, RICHMOND, TX, 77469","Match","Exact","1630 BRAZOS TRACES DR, RICHMOND, TX, 77469",632755945,"L"
78919,"1630 BROADWAY","HANOVER","PA",17331,39.8297231080001,-76.972759283,419,"1630 BROADWAY, HANOVER, PA, 17331","Match","Exact","1630 BROADWAY, HANOVER, PA, 17331",641156205,"L"
78920,"1630 CALIFORNIA STREET SUITE 405","SAN FRANCISCO","CA",94109,37.790519757,-122.421196552,420,"1630 CALIFORNIA STREET SUITE 405, SAN FRANCISCO, CA, 94109","Match","Exact","1630 CALIFORNIA ST, SAN FRANCISCO, CA, 94109",640940458,"R"
78921,"1630 CASTLETON RD","DARLINGTON","MD",21034,39.657520162,-76.262361799,421,"1630 CASTLETON RD, DARLINGTON, MD, 21034","Match","Exact","1630 CASTLETON RD, DARLINGTON, MD, 21034",191679534,"L"
78922,"1630 CATON ST","NEW ORLEANS","LA",70122,29.9980954070001,-90.073088492,422,"1630 CATON ST, NEW ORLEANS, LA, 70122","Match","Exact","1630 CATON ST, NEW ORLEANS, LA, 70122",191735115,"R"
78923,"1630 CENTINELA AVE SUITE 211","INGLEWOOD","CA",90302,33.9771027420001,-118.367656122,423,"1630 CENTINELA AVE SUITE 211, INGLEWOOD, CA, 90302","Match","Exact","1630 CENTINELA AVE, INGLEWOOD, CA, 90302",141653658,"R"
78924,"1630 CHINO VISTA CT","LANCASTER","CA",93535,34.6990568310001,-118.10064693,424,"1630 CHINO VISTA CT, LANCASTER, CA, 93535","Match","Exact","1630 CHINO VISTA CT, LANCASTER, CA, 93535",141797876,"R"
78925,"1630 COUNTY ROAD 3119","GREENVILLE","TX",75402,33.0945765320001,-96.019484371,425,"1630 COUNTY ROAD 3119, GREENVILLE, TX, 75402","Match","Exact","1630 CO RD 3119, GREENVILLE, TX, 75402",42865903,"L"
78926,"1630 E UNION AVE","FULLERTON","CA",92831,33.878486116,-117.899610554,426,"1630 E UNION AVE, FULLERTON, CA, 92831","Match","Exact","1630 E UNION AVE, FULLERTON, CA, 92831",144009141,"R"
78927,"1630 EAST 8TH STREET","BROOKLYN","NY",11223,40.608950986,-73.965091241,427,"1630 EAST 8TH STREET, BROOKLYN, NY, 11223","Match","Exact","1630 E 8TH ST, BROOKLYN, NY, 11223",59089799,"R"
78928,"1630 EDGAR EVINS PARK RD","SILVER POINT","TN",38582,NA,NA,428,"1630 EDGAR EVINS PARK RD, SILVER POINT, TN, 38582","No_Match",NA,NA,NA,NA
78929,"1630 FALCON DRIVE","DESOTO","TX",75115,32.622866564,-96.851881388,429,"1630 FALCON DRIVE, DESOTO, TX, 75115","Match","Exact","1630 FALCON DR, DESOTO, TX, 75115",102998683,"R"
78930,"1630 FIFTH AVENUE SUITE 300","MOLINE","IL",61265,NA,NA,430,"1630 FIFTH AVENUE SUITE 300, MOLINE, IL, 61265","No_Match",NA,NA,NA,NA
78931,"1630 FOXCROFT","EAST LANSING","MI",48823,42.752275432,-84.4678752149999,431,"1630 FOXCROFT, EAST LANSING, MI, 48823","Match","Non_Exact","1630 FOXCROFT RD, EAST LANSING, MI, 48823",17504640,"R"
78932,"1630 KRISTI CIRCLE","BIRMINGHAM","AL",35243,33.4592506270001,-86.7424725229999,432,"1630 KRISTI CIRCLE, BIRMINGHAM, AL, 35243","Match","Exact","1630 KRISTI CIR, BIRMINGHAM, AL, 35243",645290209,"R"
78933,"1630 LATIMER LANE","HENDERSONVILLE","TN",37075,36.391356903,-86.61108391,433,"1630 LATIMER LANE, HENDERSONVILLE, TN, 37075","Match","Exact","1630 LATIMER LN, HENDERSONVILLE, TN, 37075",29795041,"L"
78934,"1630 N MAIN ST 297","WALNUT CREE","CA",94596,NA,NA,434,"1630 N MAIN ST 297, WALNUT CREE, CA, 94596","Tie",NA,NA,NA,NA
78935,"1630 N MAIN ST 452","WALNUT CREEK","CA",94596,NA,NA,435,"1630 N MAIN ST 452, WALNUT CREEK, CA, 94596","Tie",NA,NA,NA,NA
78936,"1630 N MERIDIAN STREET","INDIANAPOLIS","IN",46202,39.7887842050001,-86.157275935,436,"1630 N MERIDIAN STREET, INDIANAPOLIS, IN, 46202","Match","Exact","1630 N MERIDIAN ST, INDIANAPOLIS, IN, 46202",107989563,"L"
78937,"1630 N W 26 TERRACE","FORT LAUDERDALE","FL",33311,26.146307328,-80.1779819609999,437,"1630 N W 26 TERRACE, FORT LAUDERDALE, FL, 33311","Match","Exact","1630 NW 26TH TER, FORT LAUDERDALE, FL, 33311",114720155,"R"
78938,"1630 N WELLER","SPRINGFIELD","MO",65803,37.227554454,-93.2681835179999,438,"1630 N WELLER, SPRINGFIELD, MO, 65803","Match","Non_Exact","1630 N WELLER AVE, SPRINGFIELD, MO, 65803",76677774,"R"
78939,"1630 NE 20TH STREET","FT. LAUDERDALE","FM",33305,NA,NA,439,"1630 NE 20TH STREET, FT. LAUDERDALE, FM, 33305","No_Match",NA,NA,NA,NA
78940,"1630 PARK BLVD","WEST SACRAMENTO","CA",95691,38.5684445320001,-121.532605824,440,"1630 PARK BLVD, WEST SACRAMENTO, CA, 95691","Match","Exact","1630 PARK BLVD, WEST SACRAMENTO, CA, 95691",639802208,"R"
78941,"1630 PINNACLE RIDGE LN","COLORADO SPRINGS","CO",80919,38.9397215820001,-104.860933355,441,"1630 PINNACLE RIDGE LN, COLORADO SPRINGS, CO, 80919","Match","Exact","1630 PINNACLE RIDGE LN, COLORADO SPRINGS, CO, 80919",105569598,"L"
78942,"1630 RED MILL DRIVE","PITTSBURGH","PA",15241,40.322075969,-80.090759141,442,"1630 RED MILL DRIVE, PITTSBURGH, PA, 15241","Match","Exact","1630 RED MILL DR, PITTSBURGH, PA, 15241",51618873,"R"
78943,"1630 RIGEL STREET","BEAUMONT","CA",92223,33.936489743,-116.949613933,443,"1630 RIGEL STREET, BEAUMONT, CA, 92223","Match","Exact","1630 RIGEL ST, BEAUMONT, CA, 92223",626568799,"R"
78944,"1630 S BROADWAY","COAL CITY","IL",60416,41.2733261070001,-88.285014208,444,"1630 S BROADWAY, COAL CITY, IL, 60416","Match","Non_Exact","1630 S BROADWAY ST, COAL CITY, IL, 60416",54465085,"L"
78945,"1630 S SAVANNAH CT","VISALIA","CA",93277,36.315587984,-119.362915002,445,"1630 S SAVANNAH CT, VISALIA, CA, 93277","Match","Exact","1630 S SAVANNAH CT, VISALIA, CA, 93277",202808262,"R"
78946,"1630 SE HOLLY STREET","PORTLAND","OR",97214,45.511279406,-122.648881196,446,"1630 SE HOLLY STREET, PORTLAND, OR, 97214","Match","Exact","1630 SE HOLLY ST, PORTLAND, OR, 97214",157509112,"R"
78947,"1630 SOUTH INDIAN CREEK DRIVE","STONE MOUNTAIN","GA",30083,33.7493717780001,-84.2211613429999,447,"1630 SOUTH INDIAN CREEK DRIVE, STONE MOUNTAIN, GA, 30083","Match","Exact","1630 S INDIAN CREEK DR, STONE MOUNTAIN, GA, 30083",634882815,"L"
78948,"1630 STUART ST","HELENA","MT",59601,46.5997823860001,-112.062045813,448,"1630 STUART ST, HELENA, MT, 59601","Match","Exact","1630 STUART ST, HELENA, MT, 59601",202371643,"R"
78949,"1630 SUMMERS DRIVE","CEDAR HILL","TX",75104,32.625718443,-96.953086082,449,"1630 SUMMERS DRIVE, CEDAR HILL, TX, 75104","Match","Exact","1630 SUMMERS DR, CEDAR HILL, TX, 75104",650491707,"R"
78950,"1630 TIPPERARY DR","MIDDLETOWN","OH",45042,39.5267218500001,-84.3355823109999,450,"1630 TIPPERARY DR, MIDDLETOWN, OH, 45042","Match","Exact","1630 TIPPERARY DR, MIDDLETOWN, OH, 45042",113793233,"L"
78951,"1630 UPPER CANYON RD","SANTA FE","NM",87501,35.6810695610001,-105.907018215,451,"1630 UPPER CANYON RD, SANTA FE, NM, 87501","Match","Exact","1630 UPPER CANYON RD, SANTA FE, NM, 87501",169416198,"R"
78952,"1630 VAN BUREN AVE","CHARLOTTE","NC",28216,35.2460933990001,-80.850065248,452,"1630 VAN BUREN AVE, CHARLOTTE, NC, 28216","Match","Exact","1630 VAN BUREN AVE, CHARLOTTE, NC, 28216",70507650,"R"
78953,"1630 VRAIN STREET","DENVER","CO",80204,39.742780177,-105.046319068,453,"1630 VRAIN STREET, DENVER, CO, 80204","Match","Exact","1630 VRAIN ST, DENVER, CO, 80204",177300276,"R"
78954,"1630 W LAUREL ST","SPRINGFIELD","IL",62704,39.782363778,-89.680482566,454,"1630 W LAUREL ST, SPRINGFIELD, IL, 62704","Match","Exact","1630 W LAUREL ST, SPRINGFIELD, IL, 62704",97323618,"L"
78955,"1630 W OLYMPIC BLV","LOS ANGELES","CA",90015,34.049369713,-118.274579274,455,"1630 W OLYMPIC BLV, LOS ANGELES, CA, 90015","Match","Exact","1630 W OLYMPIC BLVD, LOS ANGELES, CA, 90015",142453044,"L"
78956,"1630 W REDLANDS BLVD UNIT J","REDLANDS","CA",92373,34.0629071230001,-117.210352269,456,"1630 W REDLANDS BLVD UNIT J, REDLANDS, CA, 92373","Match","Non_Exact","1630 W REDLANDS BLVD, REDLANDS, CA, 92373",144732435,"L"
78957,"1630 WELBURN AVE","GILROY","CA",95020,37.0195385590001,-121.605374702,457,"1630 WELBURN AVE, GILROY, CA, 95020","Match","Exact","1630 WELBURN AVE, GILROY, CA, 95020",618187553,"L"
78958,"1630 WENDY DRIVE","PLEASANT HILL","CA",94523,37.9539825210001,-122.058599025,458,"1630 WENDY DRIVE, PLEASANT HILL, CA, 94523","Match","Exact","1630 WENDY DR, PLEASANT HILL, CA, 94523",192053930,"R"
78959,"1630 WEST 38TH STREET","LOS ANGELES","CA",90062,34.017348208,-118.309611408,459,"1630 WEST 38TH STREET, LOS ANGELES, CA, 90062","Match","Exact","1630 W 38TH ST, LOS ANGELES, CA, 90062",141606487,"L"
78960,"1630 WEST 84TH PL","LOS ANGELES","CA",90047,33.9618134180001,-118.305374632,460,"1630 WEST 84TH PL, LOS ANGELES, CA, 90047","Match","Exact","1630 W 84TH PL, LOS ANGELES, CA, 90047",141658884,"L"
78961,"1630 WILLIAMS HIGHWAY- PMB 312","GRANTS PASS","OR",97527,42.4173606050001,-123.338906585,461,"1630 WILLIAMS HIGHWAY- PMB 312, GRANTS PASS, OR, 97527","Match","Non_Exact","1630 WILLIAMS HWY, GRANTS PASS, OR, 97527",639855517,"L"
78962,"1630-A 30TH STREET BOX 186","BOULDER","CO",80301,40.015382678,-105.253594389,462,"1630-A 30TH STREET BOX 186, BOULDER, CO, 80301","Match","Exact","1630 30TH ST, BOULDER, CO, 80301",632347785,"R"
78963,"16300 112TH AVE NE","BOTHELL","WA",98011,47.7457730620001,-122.191492135,463,"16300 112TH AVE NE, BOTHELL, WA, 98011","Match","Exact","16300 112TH AVE NE, BOTHELL, WA, 98011",648625396,"R"
78964,"16300 COUNTY HOME ROAD","MARYSVILLE","OH",43040,40.2628308180001,-83.355425713,464,"16300 COUNTY HOME ROAD, MARYSVILLE, OH, 43040","Match","Exact","16300 COUNTY HOME RD, MARYSVILLE, OH, 43040",647888229,"L"
78965,"16300 E STATE ROAD 64","BRADENTON","FL",34212,27.4754539080001,-82.369294354,465,"16300 E STATE ROAD 64, BRADENTON, FL, 34212","Match","Non_Exact","16300 E STATE RD 64, BRADENTON, FL, 34212",642581135,"R"
78966,"16300 EUCLID AVENUE","EAST CLEVELAND","OH",44112,41.5452797090001,-81.566616656,466,"16300 EUCLID AVENUE, EAST CLEVELAND, OH, 44112","Match","Exact","16300 EUCLID AVE, EAST CLEVELAND, OH, 44112",61121765,"R"
78967,"16300 KUYKENDAHL RD STE 450","HOUSTON","TX",77068,30.013456884,-95.468380462,467,"16300 KUYKENDAHL RD STE 450, HOUSTON, TX, 77068","Match","Exact","16300 KUYKENDAHL RD, HOUSTON, TX, 77068",96565341,"R"
78968,"16300 NORTH PARK DR STE 1119","SOUTHFIELD","MI",48075,42.4560229000001,-83.2092549829999,468,"16300 NORTH PARK DR STE 1119, SOUTHFIELD, MI, 48075","Match","Exact","16300 N PARK DR, SOUTHFIELD, MI, 48075",630369739,"R"
78969,"16300 NORTH PARK DRIVE APT 201","SOUTHFIELD","MI",48075,42.4560229000001,-83.2092549829999,469,"16300 NORTH PARK DRIVE APT 201, SOUTHFIELD, MI, 48075","Match","Exact","16300 N PARK DR, SOUTHFIELD, MI, 48075",630369739,"R"
78970,"16300 SAND CANYON AVE STE 911","IRVINE","CA",92618,33.6612173620001,-117.774418384,470,"16300 SAND CANYON AVE STE 911, IRVINE, CA, 92618","Match","Exact","16300 SAND CANYON AVE, IRVINE, CA, 92618",612206695,"L"
78971,"16300 STATE ROAD 64 EAST","BRADENTON","FL",34212,NA,NA,471,"16300 STATE ROAD 64 EAST, BRADENTON, FL, 34212","No_Match",NA,NA,NA,NA
78972,"16300 SW 137TH AVE UNIT 113","MIAMI","FL",33157,NA,NA,472,"16300 SW 137TH AVE UNIT 113, MIAMI, FL, 33157","No_Match",NA,NA,NA,NA
78973,"16300 SW 137TH AVE UNIT 130","MIAMI","FL",33177,25.617621136,-80.4144698699999,473,"16300 SW 137TH AVE UNIT 130, MIAMI, FL, 33177","Match","Non_Exact","16300 SW 137TH AVE, MIAMI, FL, 33177",115968966,"R"
78974,"16300 SW FAMEL AVE","INDIANTOWN","FL",34956,27.0168867580001,-80.466848267,474,"16300 SW FAMEL AVE, INDIANTOWN, FL, 34956","Match","Exact","16300 SW FAMEL AVE, INDIANTOWN, FL, 34956",636393964,"L"
78975,"16300 SW FAMEL AVENUE","INDIANTOWN","FL",34956,27.0168867580001,-80.466848267,475,"16300 SW FAMEL AVENUE, INDIANTOWN, FL, 34956","Match","Exact","16300 SW FAMEL AVE, INDIANTOWN, FL, 34956",636393964,"L"
78976,"16301 BLACK RUN ROAD","ORANGE","VA",22960,38.244660615,-78.089816846,476,"16301 BLACK RUN ROAD, ORANGE, VA, 22960","Match","Exact","16301 BLACK RUN RD, ORANGE, VA, 22960",29887291,"L"
78977,"16301 DECKER LAKE RD","MANOR","TX",78653,30.2606557290001,-97.562699333,477,"16301 DECKER LAKE RD, MANOR, TX, 78653","Match","Exact","16301 DECKER LAKE RD, MANOR, TX, 78653",63952984,"R"
78978,"16301 EAGLE FLIGHT CIR","WOODBRIDGE","VA",22191,38.599286567,-77.3027362509999,478,"16301 EAGLE FLIGHT CIR, WOODBRIDGE, VA, 22191","Match","Exact","16301 EAGLE FLIGHT CIR, WOODBRIDGE, VA, 22191",610226712,"R"
78979,"16301 MEADOWHOUSE AVE UNIT 1236","CHINO","CA",91708,33.956619356,-117.641264801,479,"16301 MEADOWHOUSE AVE UNIT 1236, CHINO, CA, 91708","Match","Non_Exact","16301 MEADOWHOUSE AVE, CHINO, CA, 91710",650711716,"R"
78980,"16301 SW 80TH AVE","PALMETTO BAY","FL",33157,25.6191586840001,-80.322800281,480,"16301 SW 80TH AVE, PALMETTO BAY, FL, 33157","Match","Exact","16301 SW 80TH AVE, PALMETTO BAY, FL, 33157",115986901,"L"
78981,"16302 ARCHERY RANGE RD","SHAWNEE","OK",74801,NA,NA,481,"16302 ARCHERY RANGE RD, SHAWNEE, OK, 74801","No_Match",NA,NA,NA,NA
78982,"16302 COFFEE LAKE DRIVE","ROSHARON","TX",77583,29.353866281,-95.533709124,482,"16302 COFFEE LAKE DRIVE, ROSHARON, TX, 77583","Match","Exact","16302 COFFEE LAKE DR, ROSHARON, TX, 77583",641818997,"R"
78983,"16302 FIR ROAD","SANTA FE","TX",77517,29.3880483180001,-95.149041559,483,"16302 FIR ROAD, SANTA FE, TX, 77517","Match","Exact","16302 FIR RD, SANTA FE, TX, 77517",96683751,"L"
78984,"16302 IDLEWOOD COURT","WILDWOOD","MO",63005,38.608221133,-90.599017266,484,"16302 IDLEWOOD COURT, WILDWOOD, MO, 63005","Match","Exact","16302 IDLEWOOD CT, WILDWOOD, MO, 63005",100110018,"L"
78985,"16302 STATE ROAD 148","AURORA","IN",47001,39.107247305,-84.932089073,485,"16302 STATE ROAD 148, AURORA, IN, 47001","Match","Exact","16302 STATE RD 148, AURORA, IN, 47001",76871541,"L"
78986,"16303 BEDFORD FALLS LN","FRISCO","TX",75068,33.2137905750001,-96.890045641,486,"16303 BEDFORD FALLS LN, FRISCO, TX, 75068","Match","Non_Exact","16303 BEDFORD FALLS LN, OAK POINT, TX, 75068",648141169,"R"
78987,"16303 DOUBLEGROVE ST","LA PUENTE","CA",91744,34.048097565,-117.927730592,487,"16303 DOUBLEGROVE ST, LA PUENTE, CA, 91744","Match","Exact","16303 DOUBLEGROVE ST, LA PUENTE, CA, 91744",142781822,"L"
78988,"16303 FM 1227 RD","NAVASOTA","TX",77868,30.298214832,-96.05165565,488,"16303 FM 1227 RD, NAVASOTA, TX, 77868","Match","Non_Exact","16303 FM 1227, NAVASOTA, TX, 77868",21895687,"L"
78989,"16303 LAUDER LN","DALLAS","TX",75248,32.976822305,-96.7706959879999,489,"16303 LAUDER LN, DALLAS, TX, 75248","Match","Exact","16303 LAUDER LN, DALLAS, TX, 75248",102988788,"L"
78990,"16303 NE 15TH ST","VANCOUVER","WA",98684,45.6329401570001,-122.50453154,490,"16303 NE 15TH ST, VANCOUVER, WA, 98684","Match","Exact","16303 NE 15TH ST, VANCOUVER, WA, 98684",158359570,"R"
78991,"16303 NEW PROVIDENCE LANE","CHARLOTTE","NC",28277,35.026366114,-80.856307385,491,"16303 NEW PROVIDENCE LANE, CHARLOTTE, NC, 28277","Match","Exact","16303 NEW PROVIDENCE LN, CHARLOTTE, NC, 28277",70561062,"R"
78992,"16303 VILLAGE PARKWAY","FREDERICKTOWN","OH",43019,40.4775510790001,-82.560180626,492,"16303 VILLAGE PARKWAY, FREDERICKTOWN, OH, 43019","Match","Exact","16303 VILLAGE PKWY, FREDERICKTOWN, OH, 43019",24657095,"R"
78993,"16305 22ND DR SE","MILL CREEK","WA",98012,47.850478996,-122.202900635,493,"16305 22ND DR SE, MILL CREEK, WA, 98012","Match","Exact","16305 22ND DR SE, MILL CREEK, WA, 98012",187799090,"L"
78994,"16305 COUNTRY RD","CANYON","TX",79015,35.0427035050001,-101.945583707,494,"16305 COUNTRY RD, CANYON, TX, 79015","Match","Exact","16305 COUNTRY RD, CANYON, TX, 79015",182661464,"R"
78995,"16305 SUNCATCHER LN","PIONEER","CA",95666,38.4443542990001,-120.51850246,495,"16305 SUNCATCHER LN, PIONEER, CA, 95666","Match","Exact","16305 SUNCATCHER LN, PIONEER, CA, 95666",132731131,"R"
78996,"16306 BANBURY LN","BOWIE","MD",20715,38.967882268,-76.7224833339999,496,"16306 BANBURY LN, BOWIE, MD, 20715","Match","Exact","16306 BANBURY LN, BOWIE, MD, 20715",76399565,"R"
78997,"16306 CHERRY FALL LN","CERRITOS","CA",90703,33.8830890580001,-118.069634188,497,"16306 CHERRY FALL LN, CERRITOS, CA, 90703","Match","Exact","16306 CHERRY FALL LN, CERRITOS, CA, 90703",141744073,"L"
78998,"16306 HILLSIDE GARDEN LN","HOUSTON","TX",77084,29.87333203,-95.655422571,498,"16306 HILLSIDE GARDEN LN, HOUSTON, TX, 77084","Match","Exact","16306 HILLSIDE GARDEN LN, HOUSTON, TX, 77084",646671300,"R"
78999,"16306 THORNRIDGE DR","GRAND BLANC","MI",48439,NA,NA,499,"16306 THORNRIDGE DR, GRAND BLANC, MI, 48439","No_Match",NA,NA,NA,NA
79000,"16307 BOARDWALK TERRACE","ORLAND HILLS","IL",60487,41.5937153900001,-87.843304984,500,"16307 BOARDWALK TERRACE, ORLAND HILLS, IL, 60487","Match","Exact","16307 BOARDWALK TER, ORLAND HILLS, IL, 60487",629316874,"R"
