"ID","Address","City","State","Zip","lat","long","id","input_address","match_indicator","match_type","matched_address","tiger_line_id","tiger_side"
75501,"160 E QUEEN ANNE DR","CHULA VISTA","CA",91911,32.616351916,-117.049179648,1,"160 E QUEEN ANNE DR, CHULA VISTA, CA, 91911","Match","Exact","160 E QUEEN ANNE DR, CHULA VISTA, CA, 91911",195357327,"R"
75502,"160 EAGLE CHASE LANE","TROUTMAN","NC",28166,35.6579406170001,-80.93465415,2,"160 EAGLE CHASE LANE, TROUTMAN, NC, 28166","Match","Exact","160 EAGLE CHASE LN, TROUTMAN, NC, 28166",46011393,"R"
75503,"160 EAST 84TH ST SUITE 18A","NEW YORK","NY",10028,40.777955579,-73.956020743,3,"160 EAST 84TH ST SUITE 18A, NEW YORK, NY, 10028","Match","Exact","160 E 84TH ST, NEW YORK, NY, 10028",59658259,"R"
75504,"160 EAST 97TH ST UNIT 4D","NEW YORK","NY",10029,NA,NA,4,"160 EAST 97TH ST UNIT 4D, NEW YORK, NY, 10029","No_Match",NA,NA,NA,NA
75505,"160 EAST COACHMAN PLACE","MUTTONTOWN","NY",11791,NA,NA,5,"160 EAST COACHMAN PLACE, MUTTONTOWN, NY, 11791","No_Match",NA,NA,NA,NA
75506,"160 EAST DOE RUN ROAD","KENNETT SQUARE","PA",19348,39.8864968440001,-75.710719964,6,"160 EAST DOE RUN ROAD, KENNETT SQUARE, PA, 19348","Match","Exact","160 E DOE RUN RD, KENNETT SQUARE, PA, 19348",624042536,"L"
75507,"160 EAST HIGHLAND AVENUE  / SUITE A","SIERRA MADRE","CA",91024,34.1643470590001,-118.048834923,7,"160 EAST HIGHLAND AVENUE  / SUITE A, SIERRA MADRE, CA, 91024","Match","Exact","160 E HIGHLAND AVE, SIERRA MADRE, CA, 91024",142741068,"R"
75508,"160 EAST MAIN ST","GEORGETOWN","KY",40324,38.209879277,-84.5585409509999,8,"160 EAST MAIN ST, GEORGETOWN, KY, 40324","Match","Exact","160 E MAIN ST, GEORGETOWN, KY, 40324",41232122,"L"
75509,"160 EAST MAIN STREET","LITTLE FALLS","NJ",7424,40.877648289,-74.218120729,9,"160 EAST MAIN STREET, LITTLE FALLS, NJ, 7424","Match","Exact","160 E MAIN ST, LITTLE FALLS, NJ, 07424",65280914,"L"
75510,"160 EAST MARQUETTE RD","CHICAGO","IL",60637,41.772894131,-87.621270775,10,"160 EAST MARQUETTE RD, CHICAGO, IL, 60637","Match","Exact","160 E MARQUETTE RD, CHICAGO, IL, 60637",605841211,"L"
75511,"160 ELLENDALE LANE NW","ATLANTA","GA",30318,33.7592331970001,-84.466354084,11,"160 ELLENDALE LANE NW, ATLANTA, GA, 30318","Match","Exact","160 ELLENDALE LN NW, ATLANTA, GA, 30318",17339814,"L"
75512,"160 EVERGREEN RD","BROCKPORT","NY",14420,43.2173582130001,-77.948324299,12,"160 EVERGREEN RD, BROCKPORT, NY, 14420","Match","Exact","160 EVERGREEN RD, BROCKPORT, NY, 14420",14560607,"R"
75513,"160 FAIROAKS CIRCLE","STOCKBRIDGE","GA",30281,33.620394984,-84.197913534,13,"160 FAIROAKS CIRCLE, STOCKBRIDGE, GA, 30281","Match","Exact","160 FAIROAKS CIR, STOCKBRIDGE, GA, 30281",210418860,"R"
75514,"160 FISHTOWN ROAD","MYSTIC","CT",6355,41.34707093,-71.999172041,14,"160 FISHTOWN ROAD, MYSTIC, CT, 6355","Match","Exact","160 FISHTOWN RD, MYSTIC, CT, 06355",56857229,"L"
75515,"160 FOLLYHATCH","IRVINE","CA",92618,33.69007136,-117.736794341,15,"160 FOLLYHATCH, IRVINE, CA, 92618","Match","Exact","160 FOLLYHATCH, IRVINE, CA, 92618",650738070,"L"
75516,"160 FOREST DRIVE","ADVANCE","NC",27006,36.0114183850001,-80.457527032,16,"160 FOREST DRIVE, ADVANCE, NC, 27006","Match","Exact","160 FOREST DR, ADVANCE, NC, 27006",635896359,"L"
75517,"160 FOREST DRIVE","MOUNT KISCO","NY",10549,41.2053869480001,-73.7375016079999,17,"160 FOREST DRIVE, MOUNT KISCO, NY, 10549","Match","Exact","160 FOREST DR, MOUNT KISCO, NY, 10549",139758645,"L"
75518,"160 FOSTER CENTER ROAD","FOSTER","RI",2825,41.8052358830001,-71.7278344429999,18,"160 FOSTER CENTER ROAD, FOSTER, RI, 2825","Match","Exact","160 FOSTER CENTER RD, FOSTER, RI, 02825",47445578,"R"
75519,"160 FRASIER FIR LANE","COLUMBIA","SC",29229,34.1511411810001,-80.8930165419999,19,"160 FRASIER FIR LANE, COLUMBIA, SC, 29229","Match","Exact","160 FRASIER FIR LN, COLUMBIA, SC, 29229",612219265,"R"
75520,"160 FREMONT STREET - UNIT 235","WORCESTER","MA",1603,42.24261475,-71.824297115,20,"160 FREMONT STREET - UNIT 235, WORCESTER, MA, 1603","Match","Exact","160 FREMONT ST, WORCESTER, MA, 01603",40009627,"R"
75521,"160 GALE BLVD APT 202","MELVINDALE","MI",48122,42.2736421910001,-83.187661619,21,"160 GALE BLVD APT 202, MELVINDALE, MI, 48122","Match","Exact","160 GALE BLVD, MELVINDALE, MI, 48122",95504661,"R"
75522,"160 GENESEE STREET 6TH FLOOR","AUBURN","NY",13021,NA,NA,22,"160 GENESEE STREET 6TH FLOOR, AUBURN, NY, 13021","No_Match",NA,NA,NA,NA
75523,"160 GREENCROFT PLACE","DANVILLE","VA",24541,36.558010729,-79.396720065,23,"160 GREENCROFT PLACE, DANVILLE, VA, 24541","Match","Exact","160 GREENCROFT PL, DANVILLE, VA, 24541",56664617,"R"
75524,"160 GREENWAY FARM RD","SENECA","SC",29672,34.721376079,-83.000096159,24,"160 GREENWAY FARM RD, SENECA, SC, 29672","Match","Exact","160 GREENWAY FARM RD, SENECA, SC, 29672",25651885,"L"
75525,"160 HARBOR DRIVE","KEY BISCAYNE","FL",33149,25.698870395,-80.167205914,25,"160 HARBOR DRIVE, KEY BISCAYNE, FL, 33149","Match","Exact","160 HARBOR DR, KEY BISCAYNE, FL, 33149",116021256,"R"
75526,"160 HARMONY RD","WEXFORD","PA",15090,40.6471625340001,-80.082970771,26,"160 HARMONY RD, WEXFORD, PA, 15090","Match","Exact","160 HARMONY RD, WEXFORD, PA, 15090",614394211,"R"
75527,"160 HILLCREST AVE","MORRIRSTOWN","NJ",7960,40.7925997930001,-74.501203924,27,"160 HILLCREST AVE, MORRIRSTOWN, NJ, 7960","Match","Non_Exact","160 HILLCREST AVE, MORRISTOWN, NJ, 07960",647642411,"L"
75528,"160 HOBSON ST","NEWARK","NJ",7112,40.714697888,-74.2182945439999,28,"160 HOBSON ST, NEWARK, NJ, 7112","Match","Exact","160 HOBSON ST, NEWARK, NJ, 07112",647616164,"L"
75529,"160 HOLLYHOCK COURT","MARCO ISLAND","FL",34145,25.9434043590001,-81.693005081,29,"160 HOLLYHOCK COURT, MARCO ISLAND, FL, 34145","Match","Exact","160 HOLLYHOCK CT, MARCO ISLAND, FL, 34145",115123237,"L"
75530,"160 HYANNIS CT","VACAVILLE","CA",95687,38.332478603,-121.953461087,30,"160 HYANNIS CT, VACAVILLE, CA, 95687","Match","Exact","160 HYANNIS CT, VACAVILLE, CA, 95687",192535931,"L"
75531,"160 ILLINOIS STREET","CENTRAL FALLS","RI",2863,41.8883204860001,-71.392762776,31,"160 ILLINOIS STREET, CENTRAL FALLS, RI, 2863","Match","Exact","160 ILLINOIS ST, CENTRAL FALLS, RI, 02863",47455531,"L"
75532,"160 JAMES STREET","ATTLEBORO","MA",2703,41.933083003,-71.2804287239999,32,"160 JAMES STREET, ATTLEBORO, MA, 2703","Match","Exact","160 JAMES ST, ATTLEBORO, MA, 02703",46748057,"L"
75533,"160 JOAN STREET","SPRINGFIELD","MA",1129,42.1240635820001,-72.481571329,33,"160 JOAN STREET, SPRINGFIELD, MA, 1129","Match","Exact","160 JOAN ST, SPRINGFIELD, MA, 01129",4083038,"R"
75534,"160 JOHN ROLFE LANE","WILLIAMSBURG","VA",23185,37.244309888,-76.8082270529999,34,"160 JOHN ROLFE LANE, WILLIAMSBURG, VA, 23185","Match","Exact","160 JOHN ROLFE LN, WILLIAMSBURG, VA, 23185",103770213,"R"
75535,"160 KENDALL DR APT 1017","LEXINGTON","VA",24450,37.7834202240001,-79.4613362699999,35,"160 KENDALL DR APT 1017, LEXINGTON, VA, 24450","Match","Exact","160 KENDALL DR, LEXINGTON, VA, 24450",63144473,"L"
75536,"160 KERRY COMMON","FREMONT","CA",94536,37.583849898,-121.996461518,36,"160 KERRY COMMON, FREMONT, CA, 94536","Match","Exact","160 KERRY CMN, FREMONT, CA, 94536",125057252,"L"
75537,"160 KIRKWOOD DRIVE","WEST SENECA","NY",14224,42.84842703,-78.794361666,37,"160 KIRKWOOD DRIVE, WEST SENECA, NY, 14224","Match","Exact","160 KIRKWOOD DR, WEST SENECA, NY, 14224",48304321,"L"
75538,"160 LAKESIDE PT","COVINGTON","GA",30016,33.6045119840001,-83.962337529,38,"160 LAKESIDE PT, COVINGTON, GA, 30016","Match","Exact","160 LAKESIDE PT, COVINGTON, GA, 30016",23638257,"R"
75539,"160 LEAMINGTON LN SE","CLEVELAND","TN",37323,35.0698905180001,-84.891711417,39,"160 LEAMINGTON LN SE, CLEVELAND, TN, 37323","Match","Exact","160 LEAMINGTON LN SE, CLEVELAND, TN, 37323",635784823,"L"
75540,"160 LEXINGTON ROAD","VERSAILLES","KY",40383,38.0528262170001,-84.729866068,40,"160 LEXINGTON ROAD, VERSAILLES, KY, 40383","Match","Non_Exact","160 LEXINGTON ST, VERSAILLES, KY, 40383",38496158,"R"
75541,"160 LINDA LANE","PRATTVILLE","AL",36067,32.4407977910001,-86.46289703,41,"160 LINDA LANE, PRATTVILLE, AL, 36067","Match","Exact","160 LINDA LN, PRATTVILLE, AL, 36067",2837480,"R"
75542,"160 LORRY LANE","PACIFICA","CA",94044,37.647526011,-122.476760324,42,"160 LORRY LANE, PACIFICA, CA, 94044","Match","Exact","160 LORRY LN, PACIFICA, CA, 94044",192397181,"R"
75543,"160 LOUISIANA ST","WINNSBORO","LA",71295,32.159449877,-91.680832362,43,"160 LOUISIANA ST, WINNSBORO, LA, 71295","Match","Exact","160 LOUISIANA ST, WINNSBORO, LA, 71295",160861718,"L"
75544,"160 LOVE LN","RYE","NH",3870,42.984441544,-70.7795436229999,44,"160 LOVE LN, RYE, NH, 3870","Match","Exact","160 LOVE LN, RYE, NH, 03870",113676687,"L"
75545,"160 LOVE ROAD","RYE","NH",3870,42.984441544,-70.7795436229999,45,"160 LOVE ROAD, RYE, NH, 3870","Match","Non_Exact","160 LOVE LN, RYE, NH, 03870",113676687,"L"
75546,"160 MADISION AVE STE 33","ELIZABETH","NJ",7201,40.6663460400001,-74.210219342,46,"160 MADISION AVE STE 33, ELIZABETH, NJ, 7201","Match","Non_Exact","160 MADISON AVE, ELIZABETH, NJ, 07201",60578811,"L"
75547,"160 MADISON CT","SOUTHAMPTION","PA",18966,40.20949842,-74.967714287,47,"160 MADISON CT, SOUTHAMPTION, PA, 18966","Match","Non_Exact","160 MADISON CT, SOUTHAMPTON, PA, 18966",134709132,"R"
75548,"160 MADISON STREET APT 8B","NYC","NY",10002,40.7124477180001,-73.9926002139999,48,"160 MADISON STREET APT 8B, NYC, NY, 10002","Match","Exact","160 MADISON ST, NEW YORK, NY, 10002",640783459,"R"
75549,"160 MAIN STREET PO BOX 300","WERNERSVILLE","PA",19565,NA,NA,49,"160 MAIN STREET PO BOX 300, WERNERSVILLE, PA, 19565","No_Match",NA,NA,NA,NA
75550,"160 MAIN STREET","SAYVILLE","NY",11782,NA,NA,50,"160 MAIN STREET, SAYVILLE, NY, 11782","Tie",NA,NA,NA,NA
75551,"160 MANNING RIDGE DR","SEVIERVILLE","TN",37876,35.8793695090001,-83.457742479,51,"160 MANNING RIDGE DR, SEVIERVILLE, TN, 37876","Match","Non_Exact","160 MANNING RIDGE RD, SEVIERVILLE, TN, 37876",627508789,"R"
75552,"160 MANOR DRIVE","FAYETTEVILLE","GA",30215,33.331057011,-84.511995086,52,"160 MANOR DRIVE, FAYETTEVILLE, GA, 30215","Match","Exact","160 MANOR DR, FAYETTEVILLE, GA, 30215",75943055,"L"
75553,"160 MARY ANN DRIVE","PEARL","MS",39208,32.2808722680001,-90.1090451969999,53,"160 MARY ANN DRIVE, PEARL, MS, 39208","Match","Exact","160 MARY ANN DR, PEARL, MS, 39208",116906643,"R"
75554,"160 MCKAY ROAD","HUNTINGTON","NY",11746,40.849436579,-73.422186914,54,"160 MCKAY ROAD, HUNTINGTON, NY, 11746","Match","Non_Exact","160 MCKAY RD, S HUNTINGTON, NY, 11746",647272811,"L"
75555,"160 MEDICAL CIRCLE SUITE C","WEST COLUMBIA","SC",29169,34.0025689500001,-81.112776083,55,"160 MEDICAL CIRCLE SUITE C, WEST COLUMBIA, SC, 29169","Match","Exact","160 MEDICAL CIR, WEST COLUMBIA, SC, 29169",648720159,"L"
75556,"160 MERION AVE","HADDONFIELD","NJ",8033,39.903025798,-75.0369130939999,56,"160 MERION AVE, HADDONFIELD, NJ, 8033","Match","Exact","160 MERION AVE, HADDONFIELD, NJ, 08033",134354225,"R"
75557,"160 MERION AVENUE","HADDONFIELD","NJ",8033,39.903025798,-75.0369130939999,57,"160 MERION AVENUE, HADDONFIELD, NJ, 8033","Match","Exact","160 MERION AVE, HADDONFIELD, NJ, 08033",134354225,"R"
75558,"160 MILDRED PARKWAY","NEW ROCHELLE","NY",10804,40.953366782,-73.7883667359999,58,"160 MILDRED PARKWAY, NEW ROCHELLE, NY, 10804","Match","Exact","160 MILDRED PKWY, NEW ROCHELLE, NY, 10804",139749527,"L"
75559,"160 MILLER PARK RD","MILFORD","NJ",8848,40.5905843210001,-75.075274085,59,"160 MILLER PARK RD, MILFORD, NJ, 8848","Match","Exact","160 MILLER PARK RD, MILFORD, NJ, 08848",60041838,"R"
75560,"160 MINE LAKE CT - SUITE 200","RALEIGH","NC",27615,35.875899593,-78.644200612,60,"160 MINE LAKE CT - SUITE 200, RALEIGH, NC, 27615","Match","Exact","160 MINE LAKE CT, RALEIGH, NC, 27615",72516974,"R"
75561,"160 MOHAWK RIVER RD","ALMA","GA",31510,31.5489679620001,-82.491976364,61,"160 MOHAWK RIVER RD, ALMA, GA, 31510","Match","Exact","160 MOHAWK RIVER RD, ALMA, GA, 31510",641857706,"R"
75562,"160 MONMOUTH ST","TRENTON","NJ",8609,40.2231126020001,-74.7519965549999,62,"160 MONMOUTH ST, TRENTON, NJ, 8609","Match","Exact","160 MONMOUTH ST, TRENTON, NJ, 08609",60179292,"L"
75563,"160 MORNING GLORY LANE NE","CLEVELAND","TN",37320,35.1707610440001,-84.8151679379999,63,"160 MORNING GLORY LANE NE, CLEVELAND, TN, 37320","Match","Non_Exact","160 MORNING GLORY LN NE, CLEVELAND, TN, 37323",627658087,"R"
75564,"160 MORNING WALK DR","WARRINGTON","PA",18976,40.2511543050001,-75.177782398,64,"160 MORNING WALK DR, WARRINGTON, PA, 18976","Match","Exact","160 MORNING WALK DR, WARRINGTON, PA, 18976",134806331,"L"
75565,"160 MORRILL STREET","BUCKFIELD","ME",4220,44.3004161530001,-70.359934642,65,"160 MORRILL STREET, BUCKFIELD, ME, 4220","Match","Exact","160 MORRILL ST, BUCKFIELD, ME, 04220",635783089,"L"
75566,"160 MOUNT EPHRAIM ROAD","SEARSPORT","ME",4974,44.476272362,-68.9372570789999,66,"160 MOUNT EPHRAIM ROAD, SEARSPORT, ME, 4974","Match","Exact","160 MT EPHRAIM RD, SEARSPORT, ME, 04974",75635486,"L"
75567,"160 MOUNT EPHRAM ROAD","SEARSPORT","ME",4974,44.476272362,-68.9372570789999,67,"160 MOUNT EPHRAM ROAD, SEARSPORT, ME, 4974","Match","Non_Exact","160 MT EPHRAIM RD, SEARSPORT, ME, 04974",75635486,"L"
75568,"160 MURPHY DRIVE","KING OF PRUSSIA","PA",19406,40.103281752,-75.374308737,68,"160 MURPHY DRIVE, KING OF PRUSSIA, PA, 19406","Match","Exact","160 MURPHY DR, KING OF PRUSSIA, PA, 19406",135118325,"L"
75569,"160 N BROADWAY","NEW PHILADELPHIA","OH",44663,40.4908027720001,-81.445215283,69,"160 N BROADWAY, NEW PHILADELPHIA, OH, 44663","Match","Non_Exact","160 N BROADWAY ST, NEW PHILADELPHIA, OH, 44663",44225556,"L"
75570,"160 NATALIE CT","BRANDENBURG","KY",40108,NA,NA,70,"160 NATALIE CT, BRANDENBURG, KY, 40108","No_Match",NA,NA,NA,NA
75571,"160 NE 121 ST","MIAMI","FL",33161,25.886065183,-80.195234398,71,"160 NE 121 ST, MIAMI, FL, 33161","Match","Non_Exact","160 NE 121ST ST, MIAMI, FL, 33161",639330851,"R"
75572,"160 NE 142ND ST   APT - C","MIAMI","FL",33161,25.9058223100001,-80.196423426,72,"160 NE 142ND ST   APT - C, MIAMI, FL, 33161","Match","Non_Exact","160 NE 142ND ST, MIAMI, FL, 33161",629012875,"R"
75573,"160 NE 203 TER E30","MIAMI","FL",33179,25.9620966480001,-80.199474503,73,"160 NE 203 TER E30, MIAMI, FL, 33179","Match","Non_Exact","160 NE 203RD TER, MIAMI, FL, 33179",116029015,"L"
75574,"160 NEW ROAD","TOLLAND","CT",6084,41.8370806520001,-72.392938145,74,"160 NEW ROAD, TOLLAND, CT, 6084","Match","Exact","160 NEW RD, TOLLAND, CT, 06084",610944118,"R"
75575,"160 NEWFIELD DRIVE","TYRONE","GA",30290,33.4661899720001,-84.5806270579999,75,"160 NEWFIELD DRIVE, TYRONE, GA, 30290","Match","Exact","160 NEWFIELD DR, TYRONE, GA, 30290",75943220,"L"
75576,"160 NORTH 2ND STREET WEST","COWLEY","WY",82420,44.8857531830001,-108.473657972,76,"160 NORTH 2ND STREET WEST, COWLEY, WY, 82420","Match","Exact","160 N 2ND ST W, COWLEY, WY, 82420",180490772,"L"
75577,"160 NORTH MAIN STREET","LOGAN","UT",84321,41.734437604,-111.834875203,77,"160 NORTH MAIN STREET, LOGAN, UT, 84321","Match","Exact","160 N MAIN ST, LOGAN, UT, 84321",155094042,"R"
75578,"160 NORTH MAIN","NEPHI","UT",84648,39.710862734,-111.836141414,78,"160 NORTH MAIN, NEPHI, UT, 84648","Match","Non_Exact","160 N MAIN ST, NEPHI, UT, 84648",188081397,"R"
75579,"160 NORTH OAKLAND AVENUE","PASADENA","CA",91101,34.1491663190001,-118.139949396,79,"160 NORTH OAKLAND AVENUE, PASADENA, CA, 91101","Match","Exact","160 N OAKLAND AVE, PASADENA, CA, 91101",141630587,"R"
75580,"160 NORTH STEWART","FORREST CITY","AR",72335,34.998097262,-90.812288667,80,"160 NORTH STEWART, FORREST CITY, AR, 72335","Match","Non_Exact","160 N STEWART ST, FORREST CITY, AR, 72335",12649900,"R"
75581,"160 NW 176 STREET SUITE 421","MIAMI GARDENS","FL",33169,25.9361036980001,-80.203452543,81,"160 NW 176 STREET SUITE 421, MIAMI GARDENS, FL, 33169","Match","Non_Exact","160 NW 176TH ST, MIAMI GARDENS, FL, 33169",116030593,"L"
75582,"160 NW 176TH ST SUITE 201","MIAMI","FL",33169,25.9361036980001,-80.203452543,82,"160 NW 176TH ST SUITE 201, MIAMI, FL, 33169","Match","Non_Exact","160 NW 176TH ST, MIAMI, FL, 33169",116030593,"L"
75583,"160 NW GILMAN BLVD STE D","ISSAQUAH","WA",98027,NA,NA,83,"160 NW GILMAN BLVD STE D, ISSAQUAH, WA, 98027","No_Match",NA,NA,NA,NA
75584,"160 OAKRIDGE AVENUE","IOWA CITY","IA",52246,41.67345441,-91.5428574859999,84,"160 OAKRIDGE AVENUE, IOWA CITY, IA, 52246","Match","Exact","160 OAKRIDGE AVE, IOWA CITY, IA, 52246",84495124,"R"
75585,"160 OLD MOUNTAIN ROAD","WINONA","MS",38967,33.4779095590001,-89.705377589,85,"160 OLD MOUNTAIN ROAD, WINONA, MS, 38967","Match","Exact","160 OLD MOUNTAIN RD, WINONA, MS, 38967",161382648,"R"
75586,"160 OLYMPIC DR","STAFFORD","VA",22554,38.489557598,-77.375621324,86,"160 OLYMPIC DR, STAFFORD, VA, 22554","Match","Exact","160 OLYMPIC DR, STAFFORD, VA, 22554",626754060,"L"
75587,"160 ORCHARD STREET","EAST PROVIDENCE","RI",2914,41.816980437,-71.3729354129999,87,"160 ORCHARD STREET, EAST PROVIDENCE, RI, 2914","Match","Exact","160 ORCHARD ST, E PROVIDENCE, RI, 02914",47472910,"L"
75588,"160 OVERTON LOOP","TOONE","TN",38381,35.373830834,-88.956435248,88,"160 OVERTON LOOP, TOONE, TN, 38381","Match","Non_Exact","160 OVERTON LOOP RD, TOONE, TN, 38381",21104104,"R"
75589,"160 PARK AVENUE","MONTICELLO","KY",42633,36.835670771,-84.840289828,89,"160 PARK AVENUE, MONTICELLO, KY, 42633","Match","Exact","160 PARK AVE, MONTICELLO, KY, 42633",29496120,"L"
75590,"160 PATRICK ST","PETERSON AFB","CO",80914,NA,NA,90,"160 PATRICK ST, PETERSON AFB, CO, 80914","No_Match",NA,NA,NA,NA
75591,"160 PENNYWISE LANE","GLASTONBURY","CT",6033,41.674089108,-72.5701848209999,91,"160 PENNYWISE LANE, GLASTONBURY, CT, 6033","Match","Exact","160 PENNYWISE LN, GLASTONBURY, CT, 06033",3499684,"L"
75592,"160 PIAZZA POMINO MONTALUCE","DAHLONEGA","GA",30533,34.565112646,-84.0608416489999,92,"160 PIAZZA POMINO MONTALUCE, DAHLONEGA, GA, 30533","Match","Exact","160 PIAZZA POMINO, DAHLONEGA, GA, 30533",632278083,"R"
75593,"160 PIERCE ST","ROCHESTER","MA",2770,NA,NA,93,"160 PIERCE ST, ROCHESTER, MA, 2770","No_Match",NA,NA,NA,NA
75594,"160 PINE RIDGE DRIVE SUITE A","STATELINE","NV",89449,38.9700821970001,-119.927123478,94,"160 PINE RIDGE DRIVE SUITE A, STATELINE, NV, 89449","Match","Non_Exact","160 PINERIDGE DR, STATELINE, NV, 89449",173744341,"L"
75595,"160 QUAKER RIDGE ROAD","MANHASSET","NY",11030,40.791801999,-73.683023496,95,"160 QUAKER RIDGE ROAD, MANHASSET, NY, 11030","Match","Exact","160 QUAKER RIDGE RD, MANHASSET, NY, 11030",147661021,"R"
75596,"160 QUEEN LAURENS CT","FREDERICKSBURG","VA",22406,38.468704582,-77.6304427059999,96,"160 QUEEN LAURENS CT, FREDERICKSBURG, VA, 22406","Match","Exact","160 QUEEN LAURENS CT, FREDERICKSBURG, VA, 22406",624509468,"R"
75597,"160 RABBITS RUN","FAYETTEVILLE","GA",30214,33.4593784910001,-84.448714891,97,"160 RABBITS RUN, FAYETTEVILLE, GA, 30214","Match","Exact","160 RABBITS RUN, FAYETTEVILLE, GA, 30214",217345561,"L"
75598,"160 RHODE ISLAND AVENUE","EAST ORANGE","NJ",7018,40.7526015450001,-74.222858059,98,"160 RHODE ISLAND AVENUE, EAST ORANGE, NJ, 7018","Match","Exact","160 RHODE ISLAND AVE, EAST ORANGE, NJ, 07018",63456024,"R"
75599,"160 RIDGEVIEW DR","VEAZIE","ME",4401,44.845315456,-68.708662179,99,"160 RIDGEVIEW DR, VEAZIE, ME, 4401","Match","Exact","160 RIDGEVIEW DR, VEAZIE, ME, 04401",123633917,"R"
75600,"160 RIDGEWOOD RD","RIVERSIDE","IL",60546,41.827748478,-87.831690887,100,"160 RIDGEWOOD RD, RIVERSIDE, IL, 60546","Match","Exact","160 RIDGEWOOD RD, RIVERSIDE, IL, 60546",618896363,"R"
75601,"160 RIVERWOOD DRIVE","FUQUAY-VARINA","NC",27526,35.536519642,-78.786674653,101,"160 RIVERWOOD DRIVE, FUQUAY-VARINA, NC, 27526","Match","Exact","160 RIVERWOOD DR, FUQUAY VARINA, NC, 27526",71980339,"R"
75602,"160 ROCKVILLE SPRINGS DRIVE","EATONTON","GA",31024,33.303013315,-83.1740480569999,102,"160 ROCKVILLE SPRINGS DRIVE, EATONTON, GA, 31024","Match","Exact","160 ROCKVILLE SPRINGS DR, EATONTON, GA, 31024",16680991,"R"
75603,"160 RUBY LANE","ADEL","GA",31620,NA,NA,103,"160 RUBY LANE, ADEL, GA, 31620","No_Match",NA,NA,NA,NA
75604,"160 RUDD POND ROAD","MILLERTON","NY",12546,41.964187542,-73.501763115,104,"160 RUDD POND ROAD, MILLERTON, NY, 12546","Match","Exact","160 RUDD POND RD, MILLERTON, NY, 12546",4172345,"R"
75605,"160 RUSK AVENUE","WELLS","TX",75976,31.487272483,-94.9374947589999,105,"160 RUSK AVENUE, WELLS, TX, 75976","Match","Exact","160 RUSK AVE, WELLS, TX, 75976",72299842,"R"
75606,"160 RUSTIC MILL LANE","FAYETTEVILLE","GA",30214,33.525492156,-84.491689837,106,"160 RUSTIC MILL LANE, FAYETTEVILLE, GA, 30214","Match","Exact","160 RUSTIC MILL LN, FAYETTEVILLE, GA, 30214",75950197,"L"
75607,"160 S 3RD EAST ST","MOUNTAIN HOME","ID",83647,43.132032914,-115.692439619,107,"160 S 3RD EAST ST, MOUNTAIN HOME, ID, 83647","Match","Non_Exact","160 N 3RD EAST ST, MOUNTAIN HOME, ID, 83647",117615344,"R"
75608,"160 S BLOOMINGDALE RD STE M","BLOOMINGDALE","IL",60108,NA,NA,108,"160 S BLOOMINGDALE RD STE M, BLOOMINGDALE, IL, 60108","Tie",NA,NA,NA,NA
75609,"160 S HUDSON AVE APT 414","PASADENA","CA",91101,NA,NA,109,"160 S HUDSON AVE APT 414, PASADENA, CA, 91101","Tie",NA,NA,NA,NA
75610,"160 S MUNICIPAL DRIVE SUITE 100","SUGAR GROVE","IL",60554,41.762174128,-88.455885573,110,"160 S MUNICIPAL DRIVE SUITE 100, SUGAR GROVE, IL, 60554","Match","Exact","160 MUNICIPAL DR, SUGAR GROVE, IL, 60554",633570005,"L"
75611,"160 S OAK ST STE 151","SISTERS","OR",97759,NA,NA,111,"160 S OAK ST STE 151, SISTERS, OR, 97759","No_Match",NA,NA,NA,NA
75612,"160 S OAK ST STE 179","SISTERS","OR",97759,NA,NA,112,"160 S OAK ST STE 179, SISTERS, OR, 97759","No_Match",NA,NA,NA,NA
75613,"160 SANDOVAL ST","BUDA","TX",78610,30.0760962050001,-97.830089879,113,"160 SANDOVAL ST, BUDA, TX, 78610","Match","Non_Exact","160 SANDOVAL LN, BUDA, TX, 78610",63820048,"R"
75614,"160 SE 3RD LANE","LAMAR","MO",64759,37.473789955,-94.2924121199999,114,"160 SE 3RD LANE, LAMAR, MO, 64759","Match","Exact","160 SE 3RD LN, LAMAR, MO, 64759",649972682,"R"
75615,"160 SEASCAPE RIDGE DR","APTOS","CA",95003,36.949303936,-121.864868022,115,"160 SEASCAPE RIDGE DR, APTOS, CA, 95003","Match","Exact","160 SEASCAPE RIDGE DR, APTOS, CA, 95003",645981716,"L"
75616,"160 SHADETREE RD","SHAVERTOWN","PA",18708,41.33241365,-75.9199982169999,116,"160 SHADETREE RD, SHAVERTOWN, PA, 18708","Match","Exact","160 SHADETREE RD, SHAVERTOWN, PA, 18708",80935869,"L"
75617,"160 SHERBURN DR","HAMBURG","NY",14075,42.7270526550001,-78.816023902,117,"160 SHERBURN DR, HAMBURG, NY, 14075","Match","Exact","160 SHERBURN DR, HAMBURG, NY, 14075",48310067,"L"
75618,"160 SHERMAN AVE APT 54","NEW YORK","NY",10034,40.8647172780001,-73.9229406429999,118,"160 SHERMAN AVE APT 54, NEW YORK, NY, 10034","Match","Exact","160 SHERMAN AVE, NEW YORK, NY, 10034",59658870,"L"
75619,"160 SIERRA TIMBER ROAD","BLACK HAWK","CO",80422,NA,NA,119,"160 SIERRA TIMBER ROAD, BLACK HAWK, CO, 80422","Tie",NA,NA,NA,NA
75620,"160 SIOUX LANE","FREEPORT","FL",32439,30.4851747230001,-86.2811368329999,120,"160 SIOUX LANE, FREEPORT, FL, 32439","Match","Exact","160 SIOUX LN, FREEPORT, FL, 32439",32960223,"L"
75621,"160 SNAPFINGER LANE","ATHENS","GA",30605,33.904212498,-83.348468505,121,"160 SNAPFINGER LANE, ATHENS, GA, 30605","Match","Exact","160 SNAPFINGER LN, ATHENS, GA, 30605",619378230,"L"
75622,"160 SOUTH BRIDGE STREET","SOMERVILLE","NJ",8876,40.5628049260001,-74.613317084,122,"160 SOUTH BRIDGE STREET, SOMERVILLE, NJ, 8876","Match","Exact","160 S BRIDGE ST, SOMERVILLE, NJ, 08876",59938114,"R"
75623,"160 SOUTH MAIN ST","WOODSFIELD","OH",43793,39.7616083720001,-81.116443223,123,"160 SOUTH MAIN ST, WOODSFIELD, OH, 43793","Match","Exact","160 S MAIN ST, WOODSFIELD, OH, 43793",37862491,"R"
75624,"160 SOUTH STATE HWY M553 LOT 127","GWINN","MI",49841,46.3944938060001,-87.4071286779999,124,"160 SOUTH STATE HWY M553 LOT 127, GWINN, MI, 49841","Match","Exact","160 S STATE HWY M553, GWINN, MI, 49841",648664073,"R"
75625,"160 SOUTH VIRGIL AVE SUITE 247","LOS ANGELES","CA",90004,34.071679606,-118.28675401,125,"160 SOUTH VIRGIL AVE SUITE 247, LOS ANGELES, CA, 90004","Match","Exact","160 S VIRGIL AVE, LOS ANGELES, CA, 90004",141604462,"L"
75626,"160 SOUTHPORT WOODS DRIVE",NA,"CT",6890,41.141138632,-73.290415461,126,"160 SOUTHPORT WOODS DRIVE, , CT, 6890","Match","Exact","160 SOUTHPORT WOODS DR, SOUTHPORT, CT, 06890",602362548,"L"
75627,"160 SPORTS CLUB DRIVE","HAINESVILLE","IL",60030,42.329141507,-88.0702320679999,127,"160 SPORTS CLUB DRIVE, HAINESVILLE, IL, 60030","Match","Exact","160 SPORTS CLUB DR, HAINESVILLE, IL, 60030",641153759,"R"
75628,"160 SPRING RIDGE CT","ROSWELL","GA",30076,34.0211598280001,-84.294772237,128,"160 SPRING RIDGE CT, ROSWELL, GA, 30076","Match","Exact","160 SPRING RIDGE CT, ROSWELL, GA, 30076",17353512,"L"
75629,"160 STEWART DR","ATLANTA","GA",30342,33.9032912480001,-84.382067347,129,"160 STEWART DR, ATLANTA, GA, 30342","Match","Non_Exact","160 STEWART DR NE, ATLANTA, GA, 30342",609089584,"L"
75630,"160 STONE HENGE DRIVE","DUNN","NC",28334,35.2297942930001,-78.5294281769999,130,"160 STONE HENGE DRIVE, DUNN, NC, 28334","Match","Non_Exact","160 STONEHENGE DR, DUNN, NC, 28334",636179948,"R"
75631,"160 STONE PARK BLVD APT 1707","PIKE ROAD","AL",36064,32.3622736020001,-86.055990858,131,"160 STONE PARK BLVD APT 1707, PIKE ROAD, AL, 36064","Match","Exact","160 STONE PARK BLVD, PIKE ROAD, AL, 36064",650694367,"R"
75632,"160 STONE PARK BLVD APT 2205","PIKE ROAD","AL",36064,32.3622736020001,-86.055990858,132,"160 STONE PARK BLVD APT 2205, PIKE ROAD, AL, 36064","Match","Exact","160 STONE PARK BLVD, PIKE ROAD, AL, 36064",650694367,"R"
75633,"160 STONEY BANK RD","GLEN MILLS","PA",19342,39.916154631,-75.486392242,133,"160 STONEY BANK RD, GLEN MILLS, PA, 19342","Match","Exact","160 STONEY BANK RD, GLEN MILLS, PA, 19342",134893543,"R"
75634,"160 SWEET HOLLOW ROAD","WEST HILLS","NY",11743,40.8127125330001,-73.426568899,134,"160 SWEET HOLLOW ROAD, WEST HILLS, NY, 11743","Match","Non_Exact","160 SWEET HOLLOW RD, HALESITE, NY, 11743",114236003,"R"
75635,"160 TAYLORS COURT","BLAIRSVILLE","GA",30512,34.8370976410001,-84.006241162,135,"160 TAYLORS COURT, BLAIRSVILLE, GA, 30512","Match","Exact","160 TAYLORS CT, BLAIRSVILLE, GA, 30512",85283375,"R"
75636,"160 THE BLUFFS BLDG 37 APT 3","BRANSON","MO",65616,36.5966307890001,-93.284249928,136,"160 THE BLUFFS BLDG 37 APT 3, BRANSON, MO, 65616","Match","Non_Exact","160 THE BLUFFS, BRANSON, MO, 65616",20183339,"R"
75637,"160 THREE MILE HARBOR ROAD","EAST HAMPTON","NY",11937,NA,NA,137,"160 THREE MILE HARBOR ROAD, EAST HAMPTON, NY, 11937","No_Match",NA,NA,NA,NA
75638,"160 TRACY STREET SUITE 4","ATHENS","GA",30601,33.9695466740001,-83.388746678,138,"160 TRACY STREET SUITE 4, ATHENS, GA, 30601","Match","Exact","160 TRACY ST, ATHENS, GA, 30601",4802063,"L"
75639,"160 TWO HITCH ROAD","GOOSE CREEK","SC",29445,33.028634164,-80.078429214,139,"160 TWO HITCH ROAD, GOOSE CREEK, SC, 29445","Match","Exact","160 TWO HITCH RD, GOOSE CREEK, SC, 29445",626961598,"R"
75640,"160 UNCAS POINT ROAD","GUILFORD","CT",6437,41.249258626,-72.709199235,140,"160 UNCAS POINT ROAD, GUILFORD, CT, 6437","Match","Exact","160 UNCAS POINT RD, GUILFORD, CT, 06437",604745165,"L"
75641,"160 URSULA PLACE APT 3","STAMFORD","CT",6902,41.0517050450001,-73.518326163,141,"160 URSULA PLACE APT 3, STAMFORD, CT, 6902","Match","Exact","160 URSULA PL, STAMFORD, CT, 06902",618528873,"L"
75642,"160 VALLEY DRIVE","LIBERTY","TX",77575,30.082369725,-94.773833592,142,"160 VALLEY DRIVE, LIBERTY, TX, 77575","Match","Exact","160 VALLEY DR, LIBERTY, TX, 77575",24115450,"R"
75643,"160 VAN WYCK RD","BLAUVELT","NY",10913,41.061982372,-73.9706502929999,143,"160 VAN WYCK RD, BLAUVELT, NY, 10913","Match","Exact","160 VAN WYCK RD, BLAUVELT, NY, 10913",124598504,"R"
75644,"160 VICTOR ST","HIGHLAND PARK","MI",48203,42.4080548700001,-83.0926902589999,144,"160 VICTOR ST, HIGHLAND PARK, MI, 48203","Match","Exact","160 VICTOR ST, HIGHLAND PARK, MI, 48203",95463583,"R"
75645,"160 W  CENTRAL AVE","COOLIDGE","AZ",85128,32.9776720450001,-111.517217892,145,"160 W  CENTRAL AVE, COOLIDGE, AZ, 85128","Match","Exact","160 W CENTRAL AVE, COOLIDGE, AZ, 85128",129179750,"R"
75646,"160 W 146TH ST","NEW YORK","NY",10039,40.8218305450001,-73.9374650509999,146,"160 W 146TH ST, NEW YORK, NY, 10039","Match","Exact","160 W 146TH ST, NEW YORK, NY, 10039",59656368,"L"
75647,"160 W CAMINO REAL UNIT 252","BOCA RATON","FL",33432,NA,NA,147,"160 W CAMINO REAL UNIT 252, BOCA RATON, FL, 33432","No_Match",NA,NA,NA,NA
75648,"160 W COCHRAN ST","SIMI VALLEY","CA",93065,34.2842559740001,-118.802040158,148,"160 W COCHRAN ST, SIMI VALLEY, CA, 93065","Match","Exact","160 W COCHRAN ST, SIMI VALLEY, CA, 93065",647343681,"R"
75649,"160 W SMITH ST","CORRY","PA",16407,41.9252869750001,-79.6455113059999,149,"160 W SMITH ST, CORRY, PA, 16407","Match","Exact","160 W SMITH ST, CORRY, PA, 16407",117519681,"L"
75650,"160 WARM SUNDAY WAY","MECHANICSBURG","PA",17050,40.2438700870001,-77.012975123,150,"160 WARM SUNDAY WAY, MECHANICSBURG, PA, 17050","Match","Exact","160 WARM SUNDAY WAY, MECHANICSBURG, PA, 17050",627710653,"R"
75651,"160 WARREN STREET","BOSTON","MA",2119,42.32537252,-71.083168448,151,"160 WARREN STREET, BOSTON, MA, 2119","Match","Exact","160 WARREN ST, BOSTON, MA, 02119",85724307,"L"
75652,"160 WATERBURY DR","HARVEST","AL",35749,34.848036069,-86.7302779139999,152,"160 WATERBURY DR, HARVEST, AL, 35749","Match","Exact","160 WATERBURY DR, HARVEST, AL, 35749",58135083,"L"
75653,"160 WAYNE STREET","PERTH AMBOY","NJ",8861,40.521415464,-74.262888647,153,"160 WAYNE STREET, PERTH AMBOY, NJ, 8861","Match","Exact","160 WAYNE ST, PERTH AMBOY, NJ, 08861",60281385,"R"
75654,"160 WEST 116 STREET","NEW YORK","NY",10026,40.802678422,-73.951242983,154,"160 WEST 116 STREET, NEW YORK, NY, 10026","Match","Exact","160 W 116TH ST, NEW YORK, NY, 10026",59657686,"L"
75655,"160 WEST 146TH STREET","NEW YORK","NY",10039,40.8218176670001,-73.9374346439999,155,"160 WEST 146TH STREET, NEW YORK, NY, 10039","Match","Exact","160 W 146TH ST, NEW YORK, NY, 10039",59656368,"L"
75656,"160 WEST 66TH STREET APT 55B","NEW YORK","NY",10023,40.774695389,-73.9841539399999,156,"160 WEST 66TH STREET APT 55B, NEW YORK, NY, 10023","Match","Exact","160 W 66TH ST, NEW YORK, NY, 10023",639471688,"L"
75657,"160 WEST 71ST APT 12F","NEW YORK","NY",10023,40.777415848,-73.9809126769999,157,"160 WEST 71ST APT 12F, NEW YORK, NY, 10023","Match","Non_Exact","160 W 71ST ST, NEW YORK, NY, 10023",59655117,"R"
75658,"160 WEST END AVE APT 21B","NEW YORK","NY",10023,40.7768737970001,-73.986605173,158,"160 WEST END AVE APT 21B, NEW YORK, NY, 10023","Match","Exact","160 W END AVE, NEW YORK, NY, 10023",650066893,"R"
75659,"160 WEST FORT STREET SUITE 400","DETROIT","MI",48226,42.3303628200001,-83.04821817,159,"160 WEST FORT STREET SUITE 400, DETROIT, MI, 48226","Match","Exact","160 W FORT ST, DETROIT, MI, 48226",95479999,"R"
75660,"160 WEST LOUIS BROER RD","EAST PALATKA","FL",32131,NA,NA,160,"160 WEST LOUIS BROER RD, EAST PALATKA, FL, 32131","Tie",NA,NA,NA,NA
75661,"160 WILDERWOOD DRIVE","GUILFORD","CT",6437,41.3180569570001,-72.733709457,161,"160 WILDERWOOD DRIVE, GUILFORD, CT, 6437","Match","Exact","160 WILDERWOOD DR, GUILFORD, CT, 06437",3745985,"L"
75662,"160 WILSON DR","MCDONOUGH","GA",30252,33.450282669,-84.058001208,162,"160 WILSON DR, MCDONOUGH, GA, 30252","Match","Exact","160 WILSON DR, MCDONOUGH, GA, 30252",649120284,"L"
75663,"160 WINCHESTER ST","NEWTON","MA",2461,42.314406203,-71.209013956,163,"160 WINCHESTER ST, NEWTON, MA, 2461","Match","Exact","160 WINCHESTER ST, NEWTON, MA, 02461",86866326,"L"
75664,"160 WINDY HILL RD","CENTRAL","SC",29630,34.750798423,-82.8393173169999,164,"160 WINDY HILL RD, CENTRAL, SC, 29630","Match","Exact","160 WINDY HILL RD, CENTRAL, SC, 29630",26174986,"R"
75665,"160 WISTERIA DR","DAYTON","OH",45419,39.7234105320001,-84.168763956,165,"160 WISTERIA DR, DAYTON, OH, 45419","Match","Exact","160 WISTERIA DR, DAYTON, OH, 45419",143581360,"R"
75666,"160 WOLFE ROAD","BUDD LAKE","NJ",7828,40.8550754080001,-74.754651606,166,"160 WOLFE ROAD, BUDD LAKE, NJ, 7828","Match","Exact","160 WOLFE RD, BUDD LAKE, NJ, 07828",60514515,"L"
75667,"160 WOODBRIDGE","MANCHESTER","CT",6042,41.7946597370001,-72.516959201,167,"160 WOODBRIDGE, MANCHESTER, CT, 6042","Match","Non_Exact","160 WOODBRIDGE ST, MANCHESTER, CT, 06042",3492218,"R"
75668,"160-04 CROSS BAY BLVD SUITE 211","QUEENS","NY",11414,40.6572969600001,-73.839520336,168,"160-04 CROSS BAY BLVD SUITE 211, QUEENS, NY, 11414","Match","Non_Exact","160-4 CROSSBAY BLVD, JAMAICA, NY, 11414",59708892,"R"
75669,"160-04 CROSS BAY BOULEVARD STE 195","HOWARD BEACH","NY",11414,40.6572969600001,-73.839520336,169,"160-04 CROSS BAY BOULEVARD STE 195, HOWARD BEACH, NY, 11414","Match","Non_Exact","160-4 CROSSBAY BLVD, HOWARD BEACH, NY, 11414",59708892,"R"
75670,"1600 10TH STREET WEST","PALMETTO","FL",34221,27.52131296,-82.5839736469999,170,"1600 10TH STREET WEST, PALMETTO, FL, 34221","Match","Exact","1600 10TH ST W, PALMETTO, FL, 34221",16242922,"L"
75671,"1600 10TH STREET","PALMETTO","FL",34221,27.52131296,-82.5839736469999,171,"1600 10TH STREET, PALMETTO, FL, 34221","Match","Non_Exact","1600 10TH ST W, PALMETTO, FL, 34221",16242922,"L"
75672,"1600 11TH AVE SE","ROCHESTER","MN",55904,44.0004115990001,-92.446091989,172,"1600 11TH AVE SE, ROCHESTER, MN, 55904","Match","Exact","1600 11TH AVE SE, ROCHESTER, MN, 55904",30554209,"L"
75673,"1600 13TH STREET STE A","ST CLOUD","FL",34769,28.2460142310001,-81.2870077979999,173,"1600 13TH STREET STE A, ST CLOUD, FL, 34769","Match","Exact","1600 13TH ST, SAINT CLOUD, FL, 34769",176660327,"L"
75674,"1600 18TH AVE NE PO BOX 18675","MINNEAPOLIS","MN",55418,45.005973915,-93.2370701149999,174,"1600 18TH AVE NE PO BOX 18675, MINNEAPOLIS, MN, 55418","Match","Exact","1600 18TH AVE NE, MINNEAPOLIS, MN, 55418",43636378,"R"
75675,"1600 20TH STREET","ANACORTES","WA",98221,48.506195985,-122.620633305,175,"1600 20TH STREET, ANACORTES, WA, 98221","Match","Exact","1600 20TH ST, ANACORTES, WA, 98221",183641854,"R"
75676,"1600 29TH ST S","ST PETERSBURG","FL",33712,27.754623667,-82.672192293,176,"1600 29TH ST S, ST PETERSBURG, FL, 33712","Match","Exact","1600 29TH ST S, SAINT PETERSBURG, FL, 33712",124706154,"L"
75677,"1600 31ST STREET SE","WASHINGTON","DC",20020,38.871086894,-76.962620645,177,"1600 31ST STREET SE, WASHINGTON, DC, 20020","Match","Exact","1600 31ST ST SE, WASHINGTON, DC, 20020",76232042,"L"
75678,"1600 4TH AVENUE","OAKLAND","CA",94606,37.79783517,-122.252794956,178,"1600 4TH AVENUE, OAKLAND, CA, 94606","Match","Exact","1600 4TH AVE, OAKLAND, CA, 94606",125001241,"R"
75679,"1600 61ST AVE SOUTH","SAINT PETERSBURG","FL",33712,27.7128248650001,-82.654738983,179,"1600 61ST AVE SOUTH, SAINT PETERSBURG, FL, 33712","Match","Exact","1600 61ST AVE S, SAINT PETERSBURG, FL, 33712",124711271,"L"
75680,"1600 69TH ST W","INVER GROVE HEIGHTS","MN",55077,44.849145406,-93.0970345219999,180,"1600 69TH ST W, INVER GROVE HEIGHTS, MN, 55077","Match","Exact","1600 69TH ST W, INVER GROVE HEIGHTS, MN, 55077",37909762,"L"
75681,"1600 AIRPORT WAY","HERMISTON","OR",97838,45.8293313010001,-119.262529248,181,"1600 AIRPORT WAY, HERMISTON, OR, 97838","Match","Exact","1600 AIRPORT WAY, HERMISTON, OR, 97838",170392186,"R"
75682,"1600 ALCAZAR WAY S","ST PETERSBURG","FL",33712,NA,NA,182,"1600 ALCAZAR WAY S, ST PETERSBURG, FL, 33712","No_Match",NA,NA,NA,NA
75683,"1600 AMPHITHEATRE PARKWAY","MOUNTAIN VIEW","CA",94043,37.423074693,-122.083516149,183,"1600 AMPHITHEATRE PARKWAY, MOUNTAIN VIEW, CA, 94043","Match","Exact","1600 AMPHITHEATRE PKWY, MOUNTAIN VIEW, CA, 94043",123000140,"R"
75684,"1600 ANDERSON STREET APT D5","DURHAM","NC",27707,35.9840695070001,-78.9334869209999,184,"1600 ANDERSON STREET APT D5, DURHAM, NC, 27707","Match","Exact","1600 ANDERSON ST, DURHAM, NC, 27707",71739793,"R"
75685,"1600 ANTIETAM AVENUE / 512","DETROIT","MI",48207,42.3433007140001,-83.037380442,185,"1600 ANTIETAM AVENUE / 512, DETROIT, MI, 48207","Match","Exact","1600 ANTIETAM AVE, DETROIT, MI, 48207",648772231,"R"
75686,"1600 ARMY POST ROAD","DES MOINES","IA",50315,41.5265412840001,-93.638190738,186,"1600 ARMY POST ROAD, DES MOINES, IA, 50315","Match","Exact","1600 ARMY POST RD, DES MOINES, IA, 50315",65786183,"L"
75687,"1600 ASHLAND AVE","EVANSTON","IL",60201,42.0472577850001,-87.693637849,187,"1600 ASHLAND AVE, EVANSTON, IL, 60201","Match","Exact","1600 ASHLAND AVE, EVANSTON, IL, 60201",111743230,"L"
75688,"1600 ATLANTIC AVENUE","LONG BEACH","CA",90813,33.7881182180001,-118.185013074,188,"1600 ATLANTIC AVENUE, LONG BEACH, CA, 90813","Match","Exact","1600 ATLANTIC AVE, LONG BEACH, CA, 90813",141693707,"R"
75689,"1600 BARBARA ROAD","NAPA","CA",94558,38.315890605,-122.316125059,189,"1600 BARBARA ROAD, NAPA, CA, 94558","Match","Exact","1600 BARBARA RD, NAPA, CA, 94558",67415058,"R"
75690,"1600 BARCELONA WAY","WINTER PARK","FL",32789,28.584772236,-81.356632502,190,"1600 BARCELONA WAY, WINTER PARK, FL, 32789","Match","Exact","1600 BARCELONA WAY, WINTER PARK, FL, 32789",94277747,"L"
75691,"1600 BEAR LAKE RD","FOREST CITY","FL",32703,28.657114157,-81.443875577,191,"1600 BEAR LAKE RD, FOREST CITY, FL, 32703","Match","Exact","1600 BEAR LAKE RD, FOREST CITY, FL, 32703",93741398,"R"
75692,"1600 BICKETT BLVD","RALEIGH","NC",27608,35.801089785,-78.63786146,192,"1600 BICKETT BLVD, RALEIGH, NC, 27608","Match","Exact","1600 BICKETT BLVD, RALEIGH, NC, 27608",72507458,"R"
75693,"1600 BIG TIMBER RD","HAMPSHIRE","IL",60140,NA,NA,193,"1600 BIG TIMBER RD, HAMPSHIRE, IL, 60140","No_Match",NA,NA,NA,NA
75694,"1600 BIRCH ST","PARK RIDGE","IL",60068,42.0316709260001,-87.84778791,194,"1600 BIRCH ST, PARK RIDGE, IL, 60068","Match","Exact","1600 BIRCH ST, PARK RIDGE, IL, 60068",111732036,"R"
75695,"1600 BOOK RD","LAMPETER","PA",17602,39.9942962200001,-76.231497162,195,"1600 BOOK RD, LAMPETER, PA, 17602","Match","Non_Exact","1600 BOOK RD, LANCASTER, PA, 17602",641514396,"R"
75696,"1600 BOOK ROAD","LAMPETER","PA",17537,NA,NA,196,"1600 BOOK ROAD, LAMPETER, PA, 17537","No_Match",NA,NA,NA,NA
75697,"1600 BROAD STREET","SELMA","AL",36701,32.421813694,-87.024251625,197,"1600 BROAD STREET, SELMA, AL, 36701","Match","Exact","1600 BROAD ST, SELMA, AL, 36701",1283395,"R"
75698,"1600 BROADWAY STE 900","DENVER","CO",80202,39.741974004,-104.987401966,198,"1600 BROADWAY STE 900, DENVER, CO, 80202","Match","Exact","1600 BROADWAY, DENVER, CO, 80202",619113263,"R"
75699,"1600 BROADWAY SUITE 1600","DENVER","CO",80202,39.741974004,-104.987401966,199,"1600 BROADWAY SUITE 1600, DENVER, CO, 80202","Match","Exact","1600 BROADWAY, DENVER, CO, 80202",619113263,"R"
75700,"1600 BROOKWOOD DR","IOWA CITY","IA",52240,41.6418140810001,-91.513764125,200,"1600 BROOKWOOD DR, IOWA CITY, IA, 52240","Match","Exact","1600 BROOKWOOD DR, IOWA CITY, IA, 52240",84496325,"L"
75701,"1600 BRUDER COURT","O'FALLON","MO",63366,38.8406369370001,-90.7558613039999,201,"1600 BRUDER COURT, O'FALLON, MO, 63366","Match","Non_Exact","1600 BRUDER CT, O FALLON, MO, 63366",633460511,"R"
75702,"1600 BUCKEYE STREET","FORT COLLINS","CO",80524,40.570095789,-105.049625314,202,"1600 BUCKEYE STREET, FORT COLLINS, CO, 80524","Match","Exact","1600 BUCKEYE ST, FORT COLLINS, CO, 80524",188492417,"L"
75703,"1600 BUENA VISTA RD APT 108","COLUMBUS","GA",31906,32.4669099430001,-84.9682076829999,203,"1600 BUENA VISTA RD APT 108, COLUMBUS, GA, 31906","Match","Exact","1600 BUENA VISTA RD, COLUMBUS, GA, 31906",98938423,"R"
75704,"1600 BUTTONWOOD CIRCLE APT 3313","SCHAUMBURG","IL",60173,42.0256953520001,-88.0401306219999,204,"1600 BUTTONWOOD CIRCLE APT 3313, SCHAUMBURG, IL, 60173","Match","Exact","1600 BUTTONWOOD CIR, SCHAUMBURG, IL, 60173",112371493,"R"
75705,"1600 CADDIE DRIVE","BOURBONNAIS","IL",60914,41.1696534540001,-87.829853615,205,"1600 CADDIE DRIVE, BOURBONNAIS, IL, 60914","Match","Exact","1600 CADDIE DR, BOURBONNAIS, IL, 60914",653190372,"L"
75706,"1600 CALVIN DAVIS CIRCLE","LAWRENCEVILLE","GA",30043,34.0059446700001,-83.996801702,206,"1600 CALVIN DAVIS CIRCLE, LAWRENCEVILLE, GA, 30043","Match","Non_Exact","1600 CALVIN DAVIS CIR NE, LAWRENCEVILLE, GA, 30043",88920774,"R"
75707,"1600 CAROLYN ROAD","SALEM","VA",24153,37.277987696,-80.080643692,207,"1600 CAROLYN ROAD, SALEM, VA, 24153","Match","Exact","1600 CAROLYN RD, SALEM, VA, 24153",62959828,"R"
75708,"1600 CATON AVENUE APT 5L","BROOKLYN","NY",11226,40.6506596070001,-73.9652065559999,208,"1600 CATON AVENUE APT 5L, BROOKLYN, NY, 11226","Match","Exact","1600 CATON AVE, BROOKLYN, NY, 11226",59080869,"R"
75709,"1600 CENTRAL AVENUE","GREAT FALLS","MT",59401,47.5051784010001,-111.279763765,209,"1600 CENTRAL AVENUE, GREAT FALLS, MT, 59401","Match","Exact","1600 CENTRAL AVE, GREAT FALLS, MT, 59401",202226483,"R"
75710,"1600 CHAPEL DRIVE","VALPARAISO","IN",46383,41.4635969500001,-87.0454520339999,210,"1600 CHAPEL DRIVE, VALPARAISO, IN, 46383","Match","Exact","1600 CHAPEL DR, VALPARAISO, IN, 46383",638449080,"R"
75711,"1600 CHATEAU LANE","MANTECA","CA",95337,37.778614874,-121.254111103,211,"1600 CHATEAU LANE, MANTECA, CA, 95337","Match","Exact","1600 CHATEAU LN, MANTECA, CA, 95337",133893541,"L"
75712,"1600 CLAY CT","OSKALOOSA","IA",52577,41.2846781800001,-92.626977224,212,"1600 CLAY CT, OSKALOOSA, IA, 52577","Match","Exact","1600 CLAY CT, OSKALOOSA, IA, 52577",89387179,"R"
75713,"1600 CLAY","DETROIT","MI",48211,42.3788919510001,-83.061195883,213,"1600 CLAY, DETROIT, MI, 48211","Match","Non_Exact","1600 CLAY ST, DETROIT, MI, 48211",95476853,"R"
75714,"1600 CRESCENT DRIVE","FORT COLLINS","CO",80526,40.5328037730001,-105.106232525,214,"1600 CRESCENT DRIVE, FORT COLLINS, CO, 80526","Match","Exact","1600 CRESCENT DR, FORT COLLINS, CO, 80526",188621746,"R"
75715,"1600 DANTON LANE","BOWIE","MD",20721,38.9098343260001,-76.750130239,215,"1600 DANTON LANE, BOWIE, MD, 20721","Match","Exact","1600 DANTON LN, BOWIE, MD, 20721",76354147,"R"
75716,"1600 DEER PARK AVENUE","DEER PARK","NY",11729,40.7516909140001,-73.32551841,216,"1600 DEER PARK AVENUE, DEER PARK, NY, 11729","Match","Exact","1600 DEER PARK AVE, DEER PARK, NY, 11729",638210832,"L"
75717,"1600 DR IVERSON C BELL LANE","TERRE HAUTE","IN",47807,NA,NA,217,"1600 DR IVERSON C BELL LANE, TERRE HAUTE, IN, 47807","No_Match",NA,NA,NA,NA
75718,"1600 E CANAL DR","TURLOCK","CA",93580,37.500126763,-120.831975764,218,"1600 E CANAL DR, TURLOCK, CA, 93580","Match","Non_Exact","1600 E CANAL DR, TURLOCK, CA, 95380",102597473,"R"
75719,"1600 E CANAL DR","TURLOCK","CA",95380,37.500126763,-120.831975764,219,"1600 E CANAL DR, TURLOCK, CA, 95380","Match","Exact","1600 E CANAL DR, TURLOCK, CA, 95380",102597473,"R"
75720,"1600 E CENTURY AVE STE 3","BISMARCK","ND",58503,NA,NA,220,"1600 E CENTURY AVE STE 3, BISMARCK, ND, 58503","Tie",NA,NA,NA,NA
75721,"1600 E COVELL RD","EDMOND","OK",73034,35.6817530710001,-97.459354107,221,"1600 E COVELL RD, EDMOND, OK, 73034","Match","Exact","1600 E COVELL RD, EDMOND, OK, 73034",100408215,"R"
75722,"1600 E EAST FORSYTH STREET","AMERICUS","GA",31709,32.07232843,-84.2142608629999,222,"1600 E EAST FORSYTH STREET, AMERICUS, GA, 31709","Match","Exact","1600 E FORSYTH ST, AMERICUS, GA, 31709",30755851,"R"
75723,"1600 E LITTLE CREEK ROAD SUITE 100","NORFOLK","VA",23518,36.9168757830001,-76.231286629,223,"1600 E LITTLE CREEK ROAD SUITE 100, NORFOLK, VA, 23518","Match","Non_Exact","1600 E LITTLE CREEK RD, NORFOLK, VA, 23518",647854437,"L"
75724,"1600 E MAIN ST","WILBURTON","OK",74578,34.919808377,-95.2853793529999,224,"1600 E MAIN ST, WILBURTON, OK, 74578","Match","Exact","1600 E MAIN ST, WILBURTON, OK, 74578",80589459,"R"
75725,"1600 E MINNESOTA AVE","DELAND","FL",32724,29.035717764,-81.272586014,225,"1600 E MINNESOTA AVE, DELAND, FL, 32724","Match","Exact","1600 E MINNESOTA AVE, DELAND, FL, 32724",639873541,"R"
75726,"1600 E SUNRISE BLVD STE 3505","FORT LAUDERDALE","FL",33304,26.137227608,-80.127628939,226,"1600 E SUNRISE BLVD STE 3505, FORT LAUDERDALE, FL, 33304","Match","Non_Exact","1600 E SUNRISE BLVD, FORT LAUDERDALE, FL, 33304",114821670,"R"
75727,"1600 E TEXAS ST","BOSSIER CITY","LA",71111,32.5263538940001,-93.729972994,227,"1600 E TEXAS ST, BOSSIER CITY, LA, 71111","Match","Exact","1600 E TEXAS ST, BOSSIER CITY, LA, 71111",108535639,"R"
75728,"1600 EAGLE COVE","PADUCAH","KY",42001,37.050240596,-88.694545332,228,"1600 EAGLE COVE, PADUCAH, KY, 42001","Match","Exact","1600 EAGLE COVE, PADUCAH, KY, 42001",8404621,"R"
75729,"1600 EAGLE WING DRIVE","CEDAR PARK","TX",78613,30.4799253890001,-97.836830639,229,"1600 EAGLE WING DRIVE, CEDAR PARK, TX, 78613","Match","Exact","1600 EAGLE WING DR, CEDAR PARK, TX, 78613",126449585,"L"
75730,"1600 EAGLEVILLE RD","TIVERTON","RI",2878,41.6560344440001,-71.157619817,230,"1600 EAGLEVILLE RD, TIVERTON, RI, 2878","Match","Exact","1600 EAGLEVILLE RD, TIVERTON, RI, 02878",47358377,"L"
75731,"1600 EAST CLARK AVENUE SPACE 67","SANTA MARIA","CA",93455,34.865379379,-120.400793045,231,"1600 EAST CLARK AVENUE SPACE 67, SANTA MARIA, CA, 93455","Match","Exact","1600 E CLARK AVE, SANTA MARIA, CA, 93455",108671247,"R"
75732,"1600 EAST HOUSTON","CLEVELAND","TX",77327,30.341087513,-95.074115867,232,"1600 EAST HOUSTON, CLEVELAND, TX, 77327","Match","Non_Exact","1600 E HOUSTON ST, CLEVELAND, TX, 77327",24124918,"L"
75733,"1600 EAST LAKE STREET","MINNEAPOLIS","MN",55407,44.948372175,-93.251108814,233,"1600 EAST LAKE STREET, MINNEAPOLIS, MN, 55407","Match","Exact","1600 E LAKE ST, MINNEAPOLIS, MN, 55407",43654368,"L"
75734,"1600 EAST LONG STREET","COLUMBUS","OH",43203,39.9686752850001,-82.958569634,234,"1600 EAST LONG STREET, COLUMBUS, OH, 43203","Match","Exact","1600 E LONG ST, COLUMBUS, OH, 43203",135581359,"L"
75735,"1600 EAST SAMFORD AVENUE UNIT 702","AUBURN","AL",36830,32.5988125010001,-85.4478945929999,235,"1600 EAST SAMFORD AVENUE UNIT 702, AUBURN, AL, 36830","Match","Exact","1600 E SAMFORD AVE, AUBURN, AL, 36830",650692424,"R"
75736,"1600 EAU GALLIE BLVD SUITE 205H","MELBOURNE","FL",32935,28.1288217360001,-80.646120315,236,"1600 EAU GALLIE BLVD SUITE 205H, MELBOURNE, FL, 32935","Match","Non_Exact","1600 W EAU GALLIE BLVD, MELBOURNE, FL, 32935",93902466,"R"
75737,"1600 EDGEWATER DRIVE","ORLANDO","FL",32804,28.5657657100001,-81.389369587,237,"1600 EDGEWATER DRIVE, ORLANDO, FL, 32804","Match","Exact","1600 EDGEWATER DR, ORLANDO, FL, 32804",94280491,"L"
75738,"1600 EDGEWOOD DRIVE","CHARLESTON","WV",25302,38.3774765640001,-81.63986259,238,"1600 EDGEWOOD DRIVE, CHARLESTON, WV, 25302","Match","Exact","1600 EDGEWOOD DR, CHARLESTON, WV, 25302",78591313,"R"
75739,"1600 EDMUND DR","BARNHART","MO",63012,38.356878238,-90.3864473949999,239,"1600 EDMUND DR, BARNHART, MO, 63012","Match","Exact","1600 EDMUND DR, BARNHART, MO, 63012",62768040,"R"
75740,"1600 EL CAMINO REAL SUITE 165","MENLO PARK","CA",94025,NA,NA,240,"1600 EL CAMINO REAL SUITE 165, MENLO PARK, CA, 94025","No_Match",NA,NA,NA,NA
75741,"1600 ELBOW ROAD","CHESAPEAKE","VA",23320,36.7388882760001,-76.184618268,241,"1600 ELBOW ROAD, CHESAPEAKE, VA, 23320","Match","Exact","1600 ELBOW RD, CHESAPEAKE, VA, 23320",648488266,"L"
75742,"1600 ELEVENTH STREET","WICHITA FALLS","TX",76301,33.902846879,-98.500520143,242,"1600 ELEVENTH STREET, WICHITA FALLS, TX, 76301","Match","Exact","1600 11TH ST, WICHITA FALLS, TX, 76301",169844098,"R"
75743,"1600 ELMWOOD AVENUE APARTMENT 2","ROCHESTER","NY",14620,43.125544823,-77.595122805,243,"1600 ELMWOOD AVENUE APARTMENT 2, ROCHESTER, NY, 14620","Match","Exact","1600 ELMWOOD AVE, ROCHESTER, NY, 14620",14575066,"L"
75744,"1600 FAWCETT LN","RICHMOND","VA",23231,37.489160258,-77.3827457199999,244,"1600 FAWCETT LN, RICHMOND, VA, 23231","Match","Exact","1600 FAWCETT LN, RICHMOND, VA, 23231",106672062,"R"
75745,"1600 FRONT ST","TOLEDO","OH",43605,41.6582946950001,-83.5062200259999,245,"1600 FRONT ST, TOLEDO, OH, 43605","Match","Exact","1600 FRONT ST, TOLEDO, OH, 43605",33946008,"R"
75746,"1600 FULTON STREET 9C","BROOKLYN","NY",11213,40.679682314,-73.936565588,246,"1600 FULTON STREET 9C, BROOKLYN, NY, 11213","Match","Exact","1600 FULTON ST, BROOKLYN, NY, 11213",59098413,"R"
75747,"1600 GALA WAY","RICHLAND","WA",99352,NA,NA,247,"1600 GALA WAY, RICHLAND, WA, 99352","No_Match",NA,NA,NA,NA
75748,"1600 GARRETT RD BARCLAY SQ APT F203","UPPER DARBY","PA",19082,39.9552020340001,-75.27411545,248,"1600 GARRETT RD BARCLAY SQ APT F203, UPPER DARBY, PA, 19082","Match","Exact","1600 GARRETT RD, UPPER DARBY, PA, 19082",134877613,"L"
75749,"1600 GARRETT ROAD APT E209","UPPER DARBY","PA",19082,39.9552020340001,-75.27411545,249,"1600 GARRETT ROAD APT E209, UPPER DARBY, PA, 19082","Match","Exact","1600 GARRETT RD, UPPER DARBY, PA, 19082",134877613,"L"
75750,"1600 GARRETT ROAD","UPPER DARBY","PA",19082,39.9552020340001,-75.27411545,250,"1600 GARRETT ROAD, UPPER DARBY, PA, 19082","Match","Exact","1600 GARRETT RD, UPPER DARBY, PA, 19082",134877613,"L"
75751,"1600 GOGUAC STREET W","SPRINGFIELD","MI",49015,42.311940473,-85.23026817,251,"1600 GOGUAC STREET W, SPRINGFIELD, MI, 49015","Match","Exact","1600 GOGUAC ST W, SPRINGFIELD, MI, 49015",11711465,"R"
75752,"1600 GOLF ROAD SUITE 1200","ROLLING MEADOWS","IL",60008,42.0513745640001,-88.002158005,252,"1600 GOLF ROAD SUITE 1200, ROLLING MEADOWS, IL, 60008","Match","Exact","1600 GOLF RD, ROLLING MDWS, IL, 60008",605600759,"L"
75753,"1600 GORSUCH AVE","BALTIMORE","MD",21218,39.3218113980001,-76.5955528709999,253,"1600 GORSUCH AVE, BALTIMORE, MD, 21218","Match","Exact","1600 GORSUCH AVE, BALTIMORE, MD, 21218",206409453,"L"
75754,"1600 GOVERNMENT STREET","OCEAN SPRINGS","MS",39564,30.4135939,-88.821105669,254,"1600 GOVERNMENT STREET, OCEAN SPRINGS, MS, 39564","Match","Exact","1600 GOVERNMENT ST, OCEAN SPRINGS, MS, 39564",89257845,"R"
75755,"1600 GRAND AVE NUM 1475","SAINT PAUL","MN",55105,44.9400614300001,-93.16720708,255,"1600 GRAND AVE NUM 1475, SAINT PAUL, MN, 55105","Match","Exact","1600 GRAND AVE, SAINT PAUL, MN, 55105",97645798,"L"
75756,"1600 GRAND AVE","SAINT PAUL","MN",55105,44.9400614300001,-93.16720708,256,"1600 GRAND AVE, SAINT PAUL, MN, 55105","Match","Exact","1600 GRAND AVE, SAINT PAUL, MN, 55105",97645798,"L"
75757,"1600 GRAND AVENUE","LIBERTY","TX",77575,30.0630607730001,-94.8006968299999,257,"1600 GRAND AVENUE, LIBERTY, TX, 77575","Match","Exact","1600 GRAND AVE, LIBERTY, TX, 77575",24115349,"R"
75758,"1600 GREENACRES DRIVE","KOKOMO","IN",46901,40.46774836,-86.296241112,258,"1600 GREENACRES DRIVE, KOKOMO, IN, 46901","Match","Exact","1600 GREENACRES DR, KOKOMO, IN, 46901",27260753,"R"
75759,"1600 H G MOSLEY PKWY","LONGVIEW","TX",75604,32.518459389,-94.7748639599999,259,"1600 H G MOSLEY PKWY, LONGVIEW, TX, 75604","Match","Non_Exact","1600 H G MOSELEY PKWY, LONGVIEW, TX, 75604",141127592,"R"
75760,"1600 HAMPTON ROAD","ROCKY RIVER","OH",44446,41.4770445240001,-81.840992403,260,"1600 HAMPTON ROAD, ROCKY RIVER, OH, 44446","Match","Non_Exact","1600 HAMPTON RD, ROCKY RIVER, OH, 44116",61097612,"R"
75761,"1600 HARDEN STREET","COLUMBIA","SC",29204,34.0112094680001,-81.021453046,261,"1600 HARDEN STREET, COLUMBIA, SC, 29204","Match","Exact","1600 HARDEN ST, COLUMBIA, SC, 29204",71821514,"R"
75762,"1600 HARRIS SCHOOL RD","RINEYVILLE","KY",40162,37.7328639580001,-86.072459559,262,"1600 HARRIS SCHOOL RD, RINEYVILLE, KY, 40162","Match","Exact","1600 HARRIS SCHOOL RD, RINEYVILLE, KY, 40162",34626581,"R"
75763,"1600 HASKELL AVE","LAWRENCE","KS",66044,38.9545748030001,-95.223488436,263,"1600 HASKELL AVE, LAWRENCE, KS, 66044","Match","Exact","1600 HASKELL AVE, LAWRENCE, KS, 66044",17685704,"L"
75764,"1600 HEMLOCK WAY","BROOMFIELD","CO",80020,39.9382179290001,-105.08065943,264,"1600 HEMLOCK WAY, BROOMFIELD, CO, 80020","Match","Exact","1600 HEMLOCK WAY, BROOMFIELD, CO, 80020",210040033,"L"
75765,"1600 HIGHWAY 79","O FALLON","MO",63366,NA,NA,265,"1600 HIGHWAY 79, O FALLON, MO, 63366","No_Match",NA,NA,NA,NA
75766,"1600 HOLLOWAY AVE LEADOFFICESSB 105","SAN FRANCISCO","CA",94132,37.720833768,-122.476143743,266,"1600 HOLLOWAY AVE LEADOFFICESSB 105, SAN FRANCISCO, CA, 94132","Match","Exact","1600 HOLLOWAY AVE, SAN FRANCISCO, CA, 94132",645282720,"R"
75767,"1600 HOLLOWAY AVE","SAN FRANCISCO","CA",94132,37.720833768,-122.476143743,267,"1600 HOLLOWAY AVE, SAN FRANCISCO, CA, 94132","Match","Exact","1600 HOLLOWAY AVE, SAN FRANCISCO, CA, 94132",645282720,"R"
75768,"1600 HOLLOWAY- VCS-C OIP","SAN FRANCISCO","CA",94132,NA,NA,268,"1600 HOLLOWAY- VCS-C OIP, SAN FRANCISCO, CA, 94132","No_Match",NA,NA,NA,NA
75769,"1600 HORN LANE","EUGENE","OR",97404,44.081256303,-123.137891008,269,"1600 HORN LANE, EUGENE, OR, 97404","Match","Exact","1600 HORN LN, EUGENE, OR, 97404",616900675,"L"
75770,"1600 HUNT DRIVE SUITE B","NORMAL","IL",61761,NA,NA,270,"1600 HUNT DRIVE SUITE B, NORMAL, IL, 61761","No_Match",NA,NA,NA,NA
75771,"1600 HWY 6 STE 480","SUGAR LAND","TX",77478,29.600543826,-95.628630415,271,"1600 HWY 6 STE 480, SUGAR LAND, TX, 77478","Match","Non_Exact","1600 STATE HWY 6, SUGAR LAND, TX, 77478",227756907,"L"
75772,"1600 HYLAN AVE","HAMLET","NC",28345,34.8997780080001,-79.7313638059999,272,"1600 HYLAN AVE, HAMLET, NC, 28345","Match","Exact","1600 HYLAN AVE, HAMLET, NC, 28345",639955666,"L"
75773,"1600 INVERNESS","LANSING","MI",48915,42.7366597440001,-84.574133919,273,"1600 INVERNESS, LANSING, MI, 48915","Match","Non_Exact","1600 INVERNESS AVE, LANSING, MI, 48915",17498048,"R"
75774,"1600 JERSEY AVE","NORTH BRUNSWICK","NJ",8902,40.4583528260001,-74.484816926,274,"1600 JERSEY AVE, NORTH BRUNSWICK, NJ, 8902","Match","Exact","1600 JERSEY AVE, N BRUNSWICK, NJ, 08902",60339638,"L"
75775,"1600 JOE RAMSEY BLVD N","GREENVILLE","TX",75401,33.149976456,-96.134932484,275,"1600 JOE RAMSEY BLVD N, GREENVILLE, TX, 75401","Match","Non_Exact","1600 JOE RAMSEY BLVD, GREENVILLE, TX, 75401",615803101,"L"
75776,"1600 JUTEWOOD AVENUE","HYATTSVILLE","MD",20785,38.9121166030001,-76.9138202089999,276,"1600 JUTEWOOD AVENUE, HYATTSVILLE, MD, 20785","Match","Exact","1600 JUTEWOOD AVE, HYATTSVILLE, MD, 20785",76307821,"L"
75777,"1600 KERRIGAN AVE","UNION CITY","NJ",7087,40.764453492,-74.041227813,277,"1600 KERRIGAN AVE, UNION CITY, NJ, 7087","Match","Exact","1600 KERRIGAN AVE, UNION CITY, NJ, 07087",59597791,"R"
75778,"1600 KICKINGBIRD RD 921A","EDMOND","OK",73034,35.658237781,-97.457989326,278,"1600 KICKINGBIRD RD 921A, EDMOND, OK, 73034","Match","Exact","1600 KICKINGBIRD RD, EDMOND, OK, 73034",617263487,"R"
75779,"1600 KICKINGBIRD ROAD","EDMOND","OK",73034,35.658237781,-97.457989326,279,"1600 KICKINGBIRD ROAD, EDMOND, OK, 73034","Match","Exact","1600 KICKINGBIRD RD, EDMOND, OK, 73034",617263487,"R"
75780,"1600 LAKE AIR DR","WACO","TX",76710,31.5375777250001,-97.188879616,280,"1600 LAKE AIR DR, WACO, TX, 76710","Match","Exact","1600 LAKE AIR DR, WACO, TX, 76710",146742594,"L"
75781,"1600 LAYTON RD","FOWLERVILLE","MI",48836,42.6233336220001,-84.010098609,281,"1600 LAYTON RD, FOWLERVILLE, MI, 48836","Match","Exact","1600 LAYTON RD, FOWLERVILLE, MI, 48836",23558000,"R"
75782,"1600 LEXINGTON AVE","MANSFIELD","OH",44907,40.71615927,-82.5478726649999,282,"1600 LEXINGTON AVE, MANSFIELD, OH, 44907","Match","Exact","1600 LEXINGTON AVE, MANSFIELD, OH, 44907",207222106,"R"
75783,"1600 LIBERTY BUILDING","BUFFALO","NY",14202,NA,NA,283,"1600 LIBERTY BUILDING, BUFFALO, NY, 14202","No_Match",NA,NA,NA,NA
75784,"1600 LIMEKILN PIKE","GLENSIDE","PA",19038,NA,NA,284,"1600 LIMEKILN PIKE, GLENSIDE, PA, 19038","No_Match",NA,NA,NA,NA
75785,"1600 LINE CIRCLE APT 3","DECATUR","GA",30032,33.7449268550001,-84.278951083,285,"1600 LINE CIRCLE APT 3, DECATUR, GA, 30032","Match","Exact","1600 LINE CIR, DECATUR, GA, 30032",23367746,"L"
75786,"1600 LOMAR DR","CARROLLTON","TX",75007,33.0215393060001,-96.895842644,286,"1600 LOMAR DR, CARROLLTON, TX, 75007","Match","Exact","1600 LOMAR DR, CARROLLTON, TX, 75007",614154367,"L"
75787,"1600 LOS GAMOS DR   RM 200","SAN RAFAEL","CA",94903,38.019955141,-122.542088978,287,"1600 LOS GAMOS DR   RM 200, SAN RAFAEL, CA, 94903","Match","Non_Exact","1600 LOS GAMOS RD, SAN RAFAEL, CA, 94903",192785586,"L"
75788,"1600 MAIDEN LANE","SPRINGFIELD","OH",45504,39.92959152,-83.8366416979999,288,"1600 MAIDEN LANE, SPRINGFIELD, OH, 45504","Match","Exact","1600 MAIDEN LN, SPRINGFIELD, OH, 45504",135008304,"R"
75789,"1600 MAN-O-WAR BOULEVARD","LEXINGTON","KY",40513,38.030367347,-84.585922136,289,"1600 MAN-O-WAR BOULEVARD, LEXINGTON, KY, 40513","Match","Non_Exact","1600 MAN O WAR BLVD, LEXINGTON, KY, 40510",31952628,"R"
75790,"1600 MAPLE AVE","LAKE CITY","PA",16423,42.015450652,-80.3545269909999,290,"1600 MAPLE AVE, LAKE CITY, PA, 16423","Match","Exact","1600 MAPLE AVE, LAKE CITY, PA, 16423",117481265,"L"
75791,"1600 MARKET STREET SUITE 1320","PHILADELPHIA","PA",19103,39.9527906710001,-75.1669832699999,291,"1600 MARKET STREET SUITE 1320, PHILADELPHIA, PA, 19103","Match","Exact","1600 MARKET ST, PHILADELPHIA, PA, 19103",131407493,"L"
75792,"1600 MARKET STREET SUITE 3300","PHILADELPHIA","PA",19103,39.9527906710001,-75.1669832699999,292,"1600 MARKET STREET SUITE 3300, PHILADELPHIA, PA, 19103","Match","Exact","1600 MARKET ST, PHILADELPHIA, PA, 19103",131407493,"L"
75793,"1600 MARTIN STREET APT N","WINSTON SALEM","NC",27103,36.0685844860001,-80.275926215,293,"1600 MARTIN STREET APT N, WINSTON SALEM, NC, 27103","Match","Exact","1600 MARTIN ST, WINSTON SALEM, NC, 27103",636641096,"R"
75794,"1600 MARTINE AVENUE","SCOTCH PLAINS","NJ",7076,40.627144931,-74.359382754,294,"1600 MARTINE AVENUE, SCOTCH PLAINS, NJ, 7076","Match","Exact","1600 MARTINE AVE, SCOTCH PLAINS, NJ, 07076",647618390,"R"
75795,"1600 MARYLAND AVE NE APT 368","WASHINGTON","DC",20002,38.9012320140001,-76.980730162,295,"1600 MARYLAND AVE NE APT 368, WASHINGTON, DC, 20002","Match","Exact","1600 MARYLAND AVE NE, WASHINGTON, DC, 20002",76230281,"L"
75796,"1600 MARYLAND AVE NE APT 407","WASHINGTON","DC",20002,38.9012320140001,-76.980730162,296,"1600 MARYLAND AVE NE APT 407, WASHINGTON, DC, 20002","Match","Exact","1600 MARYLAND AVE NE, WASHINGTON, DC, 20002",76230281,"L"
75797,"1600 MARYLAND AVENUE NE APT 352","WASHINGTON","DC",20002,38.9012320140001,-76.980730162,297,"1600 MARYLAND AVENUE NE APT 352, WASHINGTON, DC, 20002","Match","Exact","1600 MARYLAND AVE NE, WASHINGTON, DC, 20002",76230281,"L"
75798,"1600 MASSACHUSETTS AVE NE MLBX 110","WASHINGTON","DC",20002,NA,NA,298,"1600 MASSACHUSETTS AVE NE MLBX 110, WASHINGTON, DC, 20002","No_Match",NA,NA,NA,NA
75799,"1600 MEDICIAL CENTER DRIVE 2403-P","HUNTINGTON","WV",25701,NA,NA,299,"1600 MEDICIAL CENTER DRIVE 2403-P, HUNTINGTON, WV, 25701","No_Match",NA,NA,NA,NA
75800,"1600 MOUNT MARIAH RD NE","ATLANTA","GA",30329,33.8277928260001,-84.323429649,300,"1600 MOUNT MARIAH RD NE, ATLANTA, GA, 30329","Match","Exact","1600 MOUNT MARIAH RD NE, ATLANTA, GA, 30329",23405732,"L"
75801,"1600 N CALVERT STREET","BALTIMORE","MD",21202,39.3078934810001,-76.6136090209999,301,"1600 N CALVERT STREET, BALTIMORE, MD, 21202","Match","Exact","1600 N CALVERT ST, BALTIMORE, MD, 21202",206419434,"L"
75802,"1600 N CLEVELAND","HUTCHINSON","KS",67501,38.070729849,-97.917830721,302,"1600 N CLEVELAND, HUTCHINSON, KS, 67501","Match","Non_Exact","1600 N CLEVELAND ST, HUTCHINSON, KS, 67501",142933917,"R"
75803,"1600 N HOWARD STREET","SPOKANE","WA",99205,47.672230057,-117.420395819,303,"1600 N HOWARD STREET, SPOKANE, WA, 99205","Match","Exact","1600 N HOWARD ST, SPOKANE, WA, 99205",189875046,"R"
75804,"1600 N HOWARD","SPOKANE","WA",99205,47.672230057,-117.420395819,304,"1600 N HOWARD, SPOKANE, WA, 99205","Match","Non_Exact","1600 N HOWARD ST, SPOKANE, WA, 99205",189875046,"R"
75805,"1600 N MISSOURI AVE","LARGO","FL",33770,27.933104891,-82.7874931809999,305,"1600 N MISSOURI AVE, LARGO, FL, 33770","Match","Non_Exact","1600 MISSOURI AVE S, LARGO, FL, 33770",124777310,"R"
75806,"1600 N OAK STREET APT 1817","ARLINGTON","VA",22209,NA,NA,306,"1600 N OAK STREET APT 1817, ARLINGTON, VA, 22209","No_Match",NA,NA,NA,NA
75807,"1600 N OAK STREET UNIT 1229","ARLINGTON","VA",22209,NA,NA,307,"1600 N OAK STREET UNIT 1229, ARLINGTON, VA, 22209","No_Match",NA,NA,NA,NA
75808,"1600 N SAN MATEO ST","HOBBS","NM",88240,32.7167188270001,-103.150397154,308,"1600 N SAN MATEO ST, HOBBS, NM, 88240","Match","Exact","1600 N SAN MATEO ST, HOBBS, NM, 88240",132017196,"R"
75809,"1600 N TRINNAMAN LN","LEHI","UT",84043,40.407343827,-111.86497631,309,"1600 N TRINNAMAN LN, LEHI, UT, 84043","Match","Exact","1600 TRINNAMAN LN, LEHI, UT, 84043",134246304,"L"
75810,"1600 N WALL STREET","BENSON","NC",27504,35.390729305,-78.531391315,310,"1600 N WALL STREET, BENSON, NC, 27504","Match","Exact","1600 N WALL ST, BENSON, NC, 27504",635212372,"R"
75811,"1600 N WILMOT RD UNIT 106","TUCSON","AZ",85712,32.2410155690001,-110.857868682,311,"1600 N WILMOT RD UNIT 106, TUCSON, AZ, 85712","Match","Non_Exact","1600 N WILMOT RD, TUCSON, AZ, 85712",648146036,"R"
75812,"1600 NE CORONADO  SUITE 242","BLUE SPRINGS","MO",64014,NA,NA,312,"1600 NE CORONADO  SUITE 242, BLUE SPRINGS, MO, 64014","No_Match",NA,NA,NA,NA
75813,"1600 NEW ENGLAND","CHICAGO","IL",60707,NA,NA,313,"1600 NEW ENGLAND, CHICAGO, IL, 60707","No_Match",NA,NA,NA,NA
75814,"1600 NORTH 85TH TERRACE","KANSAS CITY","KS",66112,39.122872611,-94.7763980669999,314,"1600 NORTH 85TH TERRACE, KANSAS CITY, KS, 66112","Match","Exact","1600 N 85TH TER, KANSAS CITY, KS, 66112",91132681,"L"
75815,"1600 NORTH A AVE","SIOUX FALLS","SD",57104,43.5667551560001,-96.733597837,315,"1600 NORTH A AVE, SIOUX FALLS, SD, 57104","Match","Non_Exact","1600 A AVE, SIOUX FALLS, SD, 57104",34971913,"R"
75816,"1600 NORTH CHICKASAW TRAIL","ORLANDO","FL",32825,28.521906164,-81.269061892,316,"1600 NORTH CHICKASAW TRAIL, ORLANDO, FL, 32825","Match","Non_Exact","1600 S CHICKASAW TRL, ORLANDO, FL, 32825",611303577,"R"
75817,"1600 NORTH FEDERAL HIGHWAY SUITE 10","BOYNTON BEACH","FL",33435,26.5414470850001,-80.0572532589999,317,"1600 NORTH FEDERAL HIGHWAY SUITE 10, BOYNTON BEACH, FL, 33435","Match","Exact","1600 N FEDERAL HWY, BOYNTON BEACH, FL, 33435",115582984,"R"
75818,"1600 NORTH MARION ROAD","SIOUX FALLS","SD",57107,43.5655743070001,-96.791023535,318,"1600 NORTH MARION ROAD, SIOUX FALLS, SD, 57107","Match","Exact","1600 N MARION RD, SIOUX FALLS, SD, 57107",618451275,"R"
75819,"1600 NORTH MORRIS STREET","GASTONIA","NC",28052,35.279701602,-81.189710468,319,"1600 NORTH MORRIS STREET, GASTONIA, NC, 28052","Match","Exact","1600 N MORRIS ST, GASTONIA, NC, 28052",70378210,"R"
75820,"1600 NORTH OAK STREET SUITE 408","ARLINGTON","VA",22209,NA,NA,320,"1600 NORTH OAK STREET SUITE 408, ARLINGTON, VA, 22209","No_Match",NA,NA,NA,NA
75821,"1600 NW 14 CIRCLE SUITE 128","POMPANO BEACH","FL",33069,26.244360332,-80.145824338,321,"1600 NW 14 CIRCLE SUITE 128, POMPANO BEACH, FL, 33069","Match","Non_Exact","1600 NW 14TH CIR, POMPANO BEACH, FL, 33069",114807307,"R"
75822,"1600 NW 179TH TER","EDMOND","OK",73012,35.6535553470001,-97.538766749,322,"1600 NW 179TH TER, EDMOND, OK, 73012","Match","Exact","1600 NW 179TH TER, EDMOND, OK, 73012",100435412,"R"
75823,"1600 NW 3RD AVENUE BLDG D","MIAMI","FL",33136,25.7903037020001,-80.199998288,323,"1600 NW 3RD AVENUE BLDG D, MIAMI, FL, 33136","Match","Non_Exact","1600 NW 3RD AVE, MIAMI, FL, 33136",116017505,"L"
75824,"1600 NW 4TH AVE UNIT 37","GAINESVILLE","FL",32603,29.6549631180001,-82.343334983,324,"1600 NW 4TH AVE UNIT 37, GAINESVILLE, FL, 32603","Match","Non_Exact","1600 NW 4TH AVE, GAINESVILLE, FL, 32603",6806255,"R"
75825,"1600 NW FAWN PL","BLUE SPRINGS","MO",64015,39.0361186870001,-94.289750582,325,"1600 NW FAWN PL, BLUE SPRINGS, MO, 64015","Match","Exact","1600 NW FAWN PL, BLUE SPRINGS, MO, 64015",91492456,"R"
75826,"1600 NW KENNY DRIVE","PULLMAN","WA",99163,46.7436332990001,-117.177277768,326,"1600 NW KENNY DRIVE, PULLMAN, WA, 99163","Match","Non_Exact","1600 NW KENNY ST, PULLMAN, WA, 99163",173294364,"L"
75827,"1600 NW NORTH RIVER DR ST APT 205","MIAMI","FL",33125,NA,NA,327,"1600 NW NORTH RIVER DR ST APT 205, MIAMI, FL, 33125","No_Match",NA,NA,NA,NA
75828,"1600 OAK STREET","NEW ULM","MN",56073,NA,NA,328,"1600 OAK STREET, NEW ULM, MN, 56073","No_Match",NA,NA,NA,NA
75829,"1600 ORMOND RD","WHITE LAKE","MI",48383,42.6561726400001,-83.552572077,329,"1600 ORMOND RD, WHITE LAKE, MI, 48383","Match","Exact","1600 ORMOND RD, WHITE LAKE, MI, 48383",635625156,"L"
75830,"1600 OSBORNE RD","ST MARYS","GA",31558,NA,NA,330,"1600 OSBORNE RD, ST MARYS, GA, 31558","No_Match",NA,NA,NA,NA
75831,"1600 PACIFIC HIGHWAY - RM 400","SAN DIEGO","CA",92101,32.723512972,-117.171351058,331,"1600 PACIFIC HIGHWAY - RM 400, SAN DIEGO, CA, 92101","Match","Exact","1600 PACIFIC HWY, SAN DIEGO, CA, 92101",195343254,"L"
75832,"1600 PACIFIC HIGHWAY ROOM 166","SAN DIEGO","CA",92101,32.723512972,-117.171351058,332,"1600 PACIFIC HIGHWAY ROOM 166, SAN DIEGO, CA, 92101","Match","Exact","1600 PACIFIC HWY, SAN DIEGO, CA, 92101",195343254,"L"
75833,"1600 PACIFIC HIGHWAY SUITE 206","SAN DIEGO","CA",92101,32.723512972,-117.171351058,333,"1600 PACIFIC HIGHWAY SUITE 206, SAN DIEGO, CA, 92101","Match","Exact","1600 PACIFIC HWY, SAN DIEGO, CA, 92101",195343254,"L"
75834,"1600 PATTON AVENUE","LIMA","OH",45805,40.7664113270001,-84.13349601,334,"1600 PATTON AVENUE, LIMA, OH, 45805","Match","Exact","1600 PATTON AVE, LIMA, OH, 45805",209543254,"L"
75835,"1600 PENNSYLVANIA AVE","DALLAS","TX",75215,32.759272692,-96.776223019,335,"1600 PENNSYLVANIA AVE, DALLAS, TX, 75215","Match","Exact","1600 PENNSYLVANIA AVE, DALLAS, TX, 75215",102950477,"R"
75836,"1600 PINE ST","LAS VEGAS","NV",89102,36.151743912,-115.171385187,336,"1600 PINE ST, LAS VEGAS, NV, 89102","Match","Exact","1600 PINE ST, LAS VEGAS, NV, 89102",201949085,"R"
75837,"1600 PINE STREET","ST. LOUIS","MO",63103,38.6303565480001,-90.204478299,337,"1600 PINE STREET, ST. LOUIS, MO, 63103","Match","Exact","1600 PINE ST, SAINT LOUIS, MO, 63103",651750705,"L"
75838,"1600 PINEBROOK BLVD  UNIT B4","PARK CITY","UT",84098,40.742977593,-111.564554777,338,"1600 PINEBROOK BLVD  UNIT B4, PARK CITY, UT, 84098","Match","Exact","1600 PINEBROOK BLVD, PARK CITY, UT, 84098",160635248,"L"
75839,"1600 PONCE DE LEON BLV STE 904","CORAL GABLES","FL",33134,25.7576075050001,-80.258903792,339,"1600 PONCE DE LEON BLV STE 904, CORAL GABLES, FL, 33134","Match","Exact","1600 PONCE DE LEON BLVD, CORAL GABLES, FL, 33134",116010780,"R"
75840,"1600 POST STREET","SAN FRANCISCO","CA",94115,37.7857754080001,-122.428276125,340,"1600 POST STREET, SAN FRANCISCO, CA, 94115","Match","Exact","1600 POST ST, SAN FRANCISCO, CA, 94115",192280046,"R"
75841,"1600 PRESIDENT GEORGE BUSH HWY 7004","ROWLETT","TX",75088,32.8760144330001,-96.552547556,341,"1600 PRESIDENT GEORGE BUSH HWY 7004, ROWLETT, TX, 75088","Match","Non_Exact","1600 N PRESIDENT GEORGE BUSH HWY, ROWLETT, TX, 75088",638421503,"L"
75842,"1600 PULLEN RD APT 9D","TALLAHASSEE","FL",32303,30.4780072950001,-84.312401563,342,"1600 PULLEN RD APT 9D, TALLAHASSEE, FL, 32303","Match","Exact","1600 PULLEN RD, TALLAHASSEE, FL, 32303",618806930,"R"
75843,"1600 RESERVOIR AVE","WILLOW GROVE","PA",19090,40.135323339,-75.1281845669999,343,"1600 RESERVOIR AVE, WILLOW GROVE, PA, 19090","Match","Exact","1600 RESERVOIR AVE, WILLOW GROVE, PA, 19090",135092900,"L"
75844,"1600 ROBERTA DR APT 1304","MARIETTA","GA",30008,33.91469569,-84.557404966,344,"1600 ROBERTA DR APT 1304, MARIETTA, GA, 30008","Match","Non_Exact","1600 ROBERTA DR SW, MARIETTA, GA, 30008",642621461,"R"
75845,"1600 ROBLE DR SE","RIO RANCHO","NM",87124,35.23121078,-106.679312063,345,"1600 ROBLE DR SE, RIO RANCHO, NM, 87124","Match","Exact","1600 ROBLE DR SE, RIO RANCHO, NM, 87124",629768655,"L"
75846,"1600 ROOSEVELT ROAD","VALPARAISO","IN",48383,41.4828661870001,-87.046527415,346,"1600 ROOSEVELT ROAD, VALPARAISO, IN, 48383","Match","Non_Exact","1600 ROOSEVELT RD, VALPARAISO, IN, 46383",119913790,"R"
75847,"1600 ROSENEATH RD STE E","RICHMOND","VA",23230,37.5704849480001,-77.472944545,347,"1600 ROSENEATH RD STE E, RICHMOND, VA, 23230","Match","Exact","1600 ROSENEATH RD, RICHMOND, VA, 23230",201535444,"L"
75848,"1600 ROSENEATH RD SUITE E","RICHMOND","VA",23230,37.5704849480001,-77.472944545,348,"1600 ROSENEATH RD SUITE E, RICHMOND, VA, 23230","Match","Exact","1600 ROSENEATH RD, RICHMOND, VA, 23230",201535444,"L"
75849,"1600 ROUTE 130 2ND FLR","NORTH BRUNSWICK","NJ",8902,NA,NA,349,"1600 ROUTE 130 2ND FLR, NORTH BRUNSWICK, NJ, 8902","No_Match",NA,NA,NA,NA
75850,"1600 ROWAN STREET","WILMINGTON","DE",19806,39.757311659,-75.559902483,350,"1600 ROWAN STREET, WILMINGTON, DE, 19806","Match","Exact","1600 ROWAN ST, WILMINGTON, DE, 19806",187256769,"R"
75851,"1600 S  SOWELL CT","VISALIA","CA",93277,36.3167094460001,-119.303162512,351,"1600 S  SOWELL CT, VISALIA, CA, 93277","Match","Exact","1600 S SOWELL CT, VISALIA, CA, 93277",202780641,"L"
75852,"1600 S BALDWIN AVE UNIT 24","ARCADIA","CA",91007,34.1211014130001,-118.05492124,352,"1600 S BALDWIN AVE UNIT 24, ARCADIA, CA, 91007","Match","Non_Exact","1600 S BALDWIN AVE, ARCADIA, CA, 91007",641077449,"L"
75853,"1600 S BLUEBELL RD","BRENHAM","TX",77833,30.1609120960001,-96.3770207109999,353,"1600 S BLUEBELL RD, BRENHAM, TX, 77833","Match","Non_Exact","1600 S BLUE BELL RD, BRENHAM, TX, 77833",39247584,"L"
75854,"1600 S BROADWAY","OAK GROVE","MO",64075,38.9999936070001,-94.129380832,354,"1600 S BROADWAY, OAK GROVE, MO, 64075","Match","Non_Exact","1600 S BROADWAY ST, OAK GROVE, MO, 64075",640638952,"R"
75855,"1600 S COURT STREET","MONTGOMERY","AL",36104,32.358082939,-86.308527926,355,"1600 S COURT STREET, MONTGOMERY, AL, 36104","Match","Exact","1600 S COURT ST, MONTGOMERY, AL, 36104",1499710,"R"
75856,"1600 S CYPRESS AVE","BROKEN ARROW","OK",74012,36.037962565,-95.8460816,356,"1600 S CYPRESS AVE, BROKEN ARROW, OK, 74012","Match","Exact","1600 S CYPRESS AVE, BROKEN ARROW, OK, 74012",166499953,"R"
75857,"1600 S FEAZEL ST","HARRISBURG","IL",62946,37.7181455140001,-88.552906908,357,"1600 S FEAZEL ST, HARRISBURG, IL, 62946","Match","Exact","1600 S FEAZEL ST, HARRISBURG, IL, 62946",104100127,"R"
75858,"1600 S JOSEY LANE","CARROLLTON","TX",75006,32.947610786,-96.89039719,358,"1600 S JOSEY LANE, CARROLLTON, TX, 75006","Match","Exact","1600 S JOSEY LN, CARROLLTON, TX, 75006",102889061,"R"
75859,"1600 S JOYCE ST 1534","ARLINGTON","VA",22202,38.8602978600001,-77.063339846,359,"1600 S JOYCE ST 1534, ARLINGTON, VA, 22202","Match","Non_Exact","1600 S JOYCE ST, ARLINGTON, VA, 22202",611306400,"R"
75860,"1600 S JOYCE STREET STE 521","ARLINGTON","VA",22202,38.8602978600001,-77.063339846,360,"1600 S JOYCE STREET STE 521, ARLINGTON, VA, 22202","Match","Non_Exact","1600 S JOYCE ST, ARLINGTON, VA, 22202",611306400,"R"
75861,"1600 S KANNER HWY APT 213","STUART","FL",34994,27.1845350500001,-80.253084808,361,"1600 S KANNER HWY APT 213, STUART, FL, 34994","Match","Non_Exact","1600 S KANNER HWY, STUART, FL, 34994",120420694,"L"
75862,"1600 S MEADE STREET","DENVER","CO",80219,39.687096909,-105.037019313,362,"1600 S MEADE STREET, DENVER, CO, 80219","Match","Exact","1600 S MEADE ST, DENVER, CO, 80219",177328059,"L"
75863,"1600 S PARK AVE","SANFORD","FL",32771,28.797553738,-81.2678910239999,363,"1600 S PARK AVE, SANFORD, FL, 32771","Match","Exact","1600 S PARK AVE, SANFORD, FL, 32771",93750315,"R"
75864,"1600 S SAGINAW STREET","FLINT","MI",48502,43.006916957,-83.681872418,364,"1600 S SAGINAW STREET, FLINT, MI, 48502","Match","Non_Exact","1600 S SAGINAW ST, FLINT, MI, 48503",69575249,"R"
75865,"1600 SACRAMENTO INN WAY STE 128","SACRAMENTO","CA",95815,38.607459168,-121.430200533,365,"1600 SACRAMENTO INN WAY STE 128, SACRAMENTO, CA, 95815","Match","Exact","1600 SACRAMENTO INN WAY, SACRAMENTO, CA, 95815",133330404,"L"
75866,"1600 SAN SOUCI PARKWAY","HANOVER TWP","PA",18706,41.215316638,-75.951016668,366,"1600 SAN SOUCI PARKWAY, HANOVER TWP, PA, 18706","Match","Non_Exact","1600 SANS SOUCI PKWY, HANOVER TOWNSHIP, PA, 18706",639934642,"L"
75867,"1600 SARNO ROAD - SUITE 12","MELBOURNE","FL",32935,28.1216575710001,-80.646795341,367,"1600 SARNO ROAD - SUITE 12, MELBOURNE, FL, 32935","Match","Exact","1600 SARNO RD, MELBOURNE, FL, 32935",617425286,"R"
75868,"1600 SE 27TH STREET","TOPEKA","KS",66605,39.0189334950001,-95.656798472,368,"1600 SE 27TH STREET, TOPEKA, KS, 66605","Match","Exact","1600 SE 27TH ST, TOPEKA, KS, 66605",17890819,"L"
75869,"1600 SE J ST SUITE 2","BENTONVILLE","AR",72712,NA,NA,369,"1600 SE J ST SUITE 2, BENTONVILLE, AR, 72712","Tie",NA,NA,NA,NA
75870,"1600 SE J STREET SUITE 2","BENTONVILLE","AR",72712,NA,NA,370,"1600 SE J STREET SUITE 2, BENTONVILLE, AR, 72712","Tie",NA,NA,NA,NA
75871,"1600 SEDGWICK AVENUE","BRONX","NY",10453,40.848070234,-73.9241880709999,371,"1600 SEDGWICK AVENUE, BRONX, NY, 10453","Match","Exact","1600 SEDGWICK AVE, BRONX, NY, 10453",609081929,"R"
75872,"1600 SEXTON RD","HOWELL","MI",48843,42.5641142040001,-83.954687151,372,"1600 SEXTON RD, HOWELL, MI, 48843","Match","Exact","1600 SEXTON RD, HOWELL, MI, 48843",23542910,"R"
75873,"1600 SHOLAR AVE","CHATTANOOGA","TN",37406,35.0578386550001,-85.267688882,373,"1600 SHOLAR AVE, CHATTANOOGA, TN, 37406","Match","Exact","1600 SHOLAR AVE, CHATTANOOGA, TN, 37406",59308579,"R"
75874,"1600 SKYLINE BLVD","EUGENE","OR",97403,44.041932467,-123.056981627,374,"1600 SKYLINE BLVD, EUGENE, OR, 97403","Match","Exact","1600 SKYLINE BLVD, EUGENE, OR, 97403",178171701,"R"
75875,"1600 SNYDER AVENUE","CARSON CITY","NV",89701,39.1145391360001,-119.751209079,375,"1600 SNYDER AVENUE, CARSON CITY, NV, 89701","Match","Exact","1600 SNYDER AVE, CARSON CITY, NV, 89701",199523914,"R"
75876,"1600 SOUTH WEST 83RD AVENUE","NORTH LAUDERDALE","FL",33068,NA,NA,376,"1600 SOUTH WEST 83RD AVENUE, NORTH LAUDERDALE, FL, 33068","No_Match",NA,NA,NA,NA
75877,"1600 STATE STREET","HOUSTON","TX",77007,29.7647071230001,-95.374028328,377,"1600 STATE STREET, HOUSTON, TX, 77007","Match","Exact","1600 STATE ST, HOUSTON, TX, 77007",96066691,"R"
75878,"1600 STENTON AVENUE","PHILADELPHIA","PA",19141,40.0491965950001,-75.145888215,378,"1600 STENTON AVENUE, PHILADELPHIA, PA, 19141","Match","Exact","1600 STENTON AVE, PHILADELPHIA, PA, 19141",131413849,"L"
75879,"1600 STONEFIELD ST","LAS VEGAS","NV",89144,36.1899987300001,-115.327589987,379,"1600 STONEFIELD ST, LAS VEGAS, NV, 89144","Match","Exact","1600 STONEFIELD ST, LAS VEGAS, NV, 89144",201958953,"L"
75880,"1600 STOUT STREET SUITE 1500","DENVER","CO",80202,39.7459294490001,-104.992977046,380,"1600 STOUT STREET SUITE 1500, DENVER, CO, 80202","Match","Exact","1600 STOUT ST, DENVER, CO, 80202",177304534,"R"
75881,"1600 SUMMERLYN DR","NOLENSVILLE","TN",37135,35.941539312,-86.656213758,381,"1600 SUMMERLYN DR, NOLENSVILLE, TN, 37135","Match","Exact","1600 SUMMERLYN DR, NOLENSVILLE, TN, 37135",648245740,"L"
75882,"1600 SUN PLUS PARKWAY","PORT ALLEN","LA",70767,30.426352653,-91.223992821,382,"1600 SUN PLUS PARKWAY, PORT ALLEN, LA, 70767","Match","Exact","1600 SUN PLUS PKWY, PORT ALLEN, LA, 70767",92296456,"R"
75883,"1600 SW 5TH PLACE","FORT LAUDERDALE","FL",33312,NA,NA,383,"1600 SW 5TH PLACE, FORT LAUDERDALE, FL, 33312","Tie",NA,NA,NA,NA
75884,"1600 SW 78TH AVE APT 119","PLANTATION","FL",33324,26.1020528390001,-80.25231902,384,"1600 SW 78TH AVE APT 119, PLANTATION, FL, 33324","Match","Non_Exact","1600 SW 78TH AVE, PLANTATION, FL, 33324",114710949,"L"
75885,"1600 SW 83RD AVENUE","NORTH LAUDERDALE","FL",33068,26.2097927360001,-80.239501218,385,"1600 SW 83RD AVENUE, NORTH LAUDERDALE, FL, 33068","Match","Exact","1600 SW 83RD AVE, N LAUDERDALE, FL, 33068",114702669,"R"
75886,"1600 SW 87TH ST","OKLAHOMA CITY","OK",73159,35.3791322530001,-97.545548212,386,"1600 SW 87TH ST, OKLAHOMA CITY, OK, 73159","Match","Exact","1600 SW 87TH ST, OKLAHOMA CITY, OK, 73159",100406190,"L"
75887,"1600 SW DASH POINT RD PBM 140","FEDERAL WAY","WA",98023,47.3236207780001,-122.354899623,387,"1600 SW DASH POINT RD PBM 140, FEDERAL WAY, WA, 98023","Match","Non_Exact","1600 SW DASH POINT RD, FEDERAL WAY, WA, 98023",239767790,"L"
75888,"1600 TAFT AVENUE APT 511","LOS ANGELES","CA",90028,34.0999385970001,-118.31479338,388,"1600 TAFT AVENUE APT 511, LOS ANGELES, CA, 90028","Match","Exact","1600 TAFT AVE, LOS ANGELES, CA, 90028",141597168,"R"
75889,"1600 TAYLOR ST NE","WASHINGTON","DC",20017,38.940726909,-76.981307954,389,"1600 TAYLOR ST NE, WASHINGTON, DC, 20017","Match","Exact","1600 TAYLOR ST NE, WASHINGTON, DC, 20017",76228409,"L"
75890,"1600 THIRD STREET","ATWATER","CA",95301,37.350846351,-120.60657474,390,"1600 THIRD STREET, ATWATER, CA, 95301","Match","Exact","1600 3RD ST, ATWATER, CA, 95301",636417088,"R"
75891,"1600 UNIVERSITY AVE W STE 212","ST PAUL","MN",55104,44.955666394,-93.168001289,391,"1600 UNIVERSITY AVE W STE 212, ST PAUL, MN, 55104","Match","Exact","1600 UNIVERSITY AVE W, SAINT PAUL, MN, 55104",638357643,"L"
75892,"1600 UNIVERSITY AVE WEST - SUITE 10","ST PAUL","MN",55104,44.955666394,-93.168001289,392,"1600 UNIVERSITY AVE WEST - SUITE 10, ST PAUL, MN, 55104","Match","Exact","1600 UNIVERSITY AVE W, SAINT PAUL, MN, 55104",638357643,"L"
75893,"1600 UNIVERSITY DRIVE","STATE COLLEGE","PA",16801,40.786574366,-77.8385463499999,393,"1600 UNIVERSITY DRIVE, STATE COLLEGE, PA, 16801","Match","Exact","1600 UNIVERSITY DR, STATE COLLEGE, PA, 16801",636402015,"R"
75894,"1600 UPSHAW ROAD","AYLETT","VA",23009,37.794130023,-77.159825814,394,"1600 UPSHAW ROAD, AYLETT, VA, 23009","Match","Exact","1600 UPSHAW RD, AYLETT, VA, 23009",639273111,"L"
75895,"1600 VALLEJO WAY","SACRAMENTO","CA",95818,38.5526269980001,-121.496210639,395,"1600 VALLEJO WAY, SACRAMENTO, CA, 95818","Match","Exact","1600 VALLEJO WAY, SACRAMENTO, CA, 95818",133325690,"R"
75896,"1600 VERQUER","BLOOMFIELD","NM",87413,36.6909824960001,-107.99036782,396,"1600 VERQUER, BLOOMFIELD, NM, 87413","Match","Non_Exact","1600 VERQUER LN, BLOOMFIELD, NM, 87413",641143084,"L"
75897,"1600 VIA PALERMO","MONTEBELLO","CA",90640,34.032513339,-118.116268651,397,"1600 VIA PALERMO, MONTEBELLO, CA, 90640","Match","Exact","1600 VIA PALERMO, MONTEBELLO, CA, 90640",141641770,"R"
75898,"1600 W 35TH STREET","CHICAGO","IL",60609,41.830507348,-87.6656092869999,398,"1600 W 35TH STREET, CHICAGO, IL, 60609","Match","Exact","1600 W 35TH ST, CHICAGO, IL, 60609",604987906,"R"
75899,"1600 W 3RD STREET","SANTA ANA","CA",92703,33.7470375670001,-117.890068494,399,"1600 W 3RD STREET, SANTA ANA, CA, 92703","Match","Exact","1600 W 3RD ST, SANTA ANA, CA, 92703",144040801,"L"
75900,"1600 W 40TH AVE","DENVER","CO",80211,39.7717818290001,-105.005499924,400,"1600 W 40TH AVE, DENVER, CO, 80211","Match","Exact","1600 W 40TH AVE, DENVER, CO, 80211",177303395,"L"
75901,"1600 W 4TH AVENUE","HUTCHINSON","KS",67501,38.0572340570001,-97.963636342,401,"1600 W 4TH AVENUE, HUTCHINSON, KS, 67501","Match","Exact","1600 W 4TH AVE, HUTCHINSON, KS, 67501",607885769,"R"
75902,"1600 W 80TH STREET","LOS ANGELES","CA",90047,33.9663827210001,-118.304810706,402,"1600 W 80TH STREET, LOS ANGELES, CA, 90047","Match","Exact","1600 W 80TH ST, LOS ANGELES, CA, 90047",141658846,"L"
75903,"1600 W ACOMA BLVD SUITE 64","LAKE HAVASU CITY","AZ",86403,34.4960953360001,-114.353979338,403,"1600 W ACOMA BLVD SUITE 64, LAKE HAVASU CITY, AZ, 86403","Match","Non_Exact","1600 ACOMA BLVD W, LAKE HAVASU CITY, AZ, 86403",638568413,"L"
75904,"1600 W AUSTIN ST","BROKEN ARROW","OK",74011,36.007349565,-95.8076026539999,404,"1600 W AUSTIN ST, BROKEN ARROW, OK, 74011","Match","Exact","1600 W AUSTIN ST, BROKEN ARROW, OK, 74011",617313187,"R"
75905,"1600 W BROAD AVE","ALBANY","GA",31701,31.5755406820001,-84.188890681,405,"1600 W BROAD AVE, ALBANY, GA, 31701","Match","Non_Exact","1600 W BROAD AVE, ALBANY, GA, 31707",84325188,"L"
75906,"1600 W COUNTY RD 225 S","GREENCASTLE","IN",46135,39.6295005870001,-86.878783626,406,"1600 W COUNTY RD 225 S, GREENCASTLE, IN, 46135","Match","Exact","1600 W CO RD 225 S, GREENCASTLE, IN, 46135",50103514,"R"
75907,"1600 W LAWNDALE APT 130","SAN ANTONIO","TX",78209,NA,NA,407,"1600 W LAWNDALE APT 130, SAN ANTONIO, TX, 78209","No_Match",NA,NA,NA,NA
75908,"1600 W SETTLERS VALLEY DRIVE","PFLUGERVILLE","TX",78660,30.442231685,-97.6421247929999,408,"1600 W SETTLERS VALLEY DRIVE, PFLUGERVILLE, TX, 78660","Match","Exact","1600 SETTLERS VALLEY DR, PFLUGERVILLE, TX, 78660",641852360,"L"
75909,"1600 WASHINGTON AVENUE","CONWAY","AR",72032,35.1008536850001,-92.444320951,409,"1600 WASHINGTON AVENUE, CONWAY, AR, 72032","Match","Exact","1600 WASHINGTON AVE, CONWAY, AR, 72032",636163125,"R"
75910,"1600 WASHINGTON/ HENDRIX COLLEGE","CONWAY","AR",72032,NA,NA,410,"1600 WASHINGTON/ HENDRIX COLLEGE, CONWAY, AR, 72032","No_Match",NA,NA,NA,NA
75911,"1600 WEST COLONIAL DRIVE","ORLANDO","FL",32804,28.5529120190001,-81.401668935,411,"1600 WEST COLONIAL DRIVE, ORLANDO, FL, 32804","Match","Exact","1600 W COLONIAL DR, ORLANDO, FL, 32804",94280328,"L"
75912,"1600 WEST EAU GALLIE BLVD","MELBOURNE","FL",32935,28.1288217360001,-80.646120315,412,"1600 WEST EAU GALLIE BLVD, MELBOURNE, FL, 32935","Match","Exact","1600 W EAU GALLIE BLVD, MELBOURNE, FL, 32935",93902466,"R"
75913,"1600 WEST MARKET STREET","NAPPANEE","IN",46550,41.4427385650001,-86.0208849109999,413,"1600 WEST MARKET STREET, NAPPANEE, IN, 46550","Match","Exact","1600 W MARKET ST, NAPPANEE, IN, 46550",7748936,"R"
75914,"1600 WEST NORRIS STREET","PHILADELPHIA","PA",19121,39.9836392880001,-75.160272804,414,"1600 WEST NORRIS STREET, PHILADELPHIA, PA, 19121","Match","Exact","1600 W NORRIS ST, PHILADELPHIA, PA, 19121",131405901,"L"
75915,"1600 WEST ST","REDDING","CA",96001,40.5817762880001,-122.396814704,415,"1600 WEST ST, REDDING, CA, 96001","Match","Exact","1600 WEST ST, REDDING, CA, 96001",640089583,"R"
75916,"1600 WESTCHESTER AVE","WINTER PARK","FL",32789,28.583631998,-81.3712165219999,416,"1600 WESTCHESTER AVE, WINTER PARK, FL, 32789","Match","Exact","1600 WESTCHESTER AVE, WINTER PARK, FL, 32789",94277250,"L"
75917,"1600 WESTFIELD CT","ALBANY","GA",31721,31.6017566670001,-84.222546213,417,"1600 WESTFIELD CT, ALBANY, GA, 31721","Match","Exact","1600 WESTFIELD CT, ALBANY, GA, 31721",84320680,"R"
75918,"1600 WITHERS AVE","MOBILE","AL",36618,30.7215288240001,-88.197211936,418,"1600 WITHERS AVE, MOBILE, AL, 36618","Match","Exact","1600 WITHERS AVE, MOBILE, AL, 36618",61846720,"R"
75919,"1600 WOODMERE DRIVE","BIRMINGHAM","AL",35226,NA,NA,419,"1600 WOODMERE DRIVE, BIRMINGHAM, AL, 35226","No_Match",NA,NA,NA,NA
75920,"1600 WOODSIDE AVE","KENAI","AK",99611,60.575022587,-151.281011976,420,"1600 WOODSIDE AVE, KENAI, AK, 99611","Match","Exact","1600 WOODSIDE AVE, KENAI, AK, 99611",191004237,"L"
75921,"1600 WRIGHT BROTHERS AVE","SEYMOUR JOHNSON AFB","NC",27531,NA,NA,421,"1600 WRIGHT BROTHERS AVE, SEYMOUR JOHNSON AFB, NC, 27531","No_Match",NA,NA,NA,NA
75922,"1600-B SW DASH POINT ROAD NO 1114","FEDERAL WAY","WA",98023,47.3236207780001,-122.354899623,422,"1600-B SW DASH POINT ROAD NO 1114, FEDERAL WAY, WA, 98023","Match","Non_Exact","1600 SW DASH POINT RD, FEDERAL WAY, WA, 98023",239767790,"L"
75923,"16000 BENT TREE FORREST CIRCLE","DALLAS","TX",75248,32.966199132,-96.813705901,423,"16000 BENT TREE FORREST CIRCLE, DALLAS, TX, 75248","Match","Non_Exact","16000 BENT TREE FOREST CIR, DALLAS, TX, 75248",648835308,"R"
75924,"16000 EAST HIGH ST","MIDDLEFIELD","OH",44062,41.4619310910001,-81.071503767,424,"16000 EAST HIGH ST, MIDDLEFIELD, OH, 44062","Match","Exact","16000 E HIGH ST, MIDDLEFIELD, OH, 44062",137440538,"R"
75925,"16000 EAST MICHIGAN AVENUE","ALBION","MI",49224,42.2602975280001,-84.7009265579999,425,"16000 EAST MICHIGAN AVENUE, ALBION, MI, 49224","Match","Exact","16000 E MICHIGAN AVE, ALBION, MI, 49224",615005028,"L"
75926,"16000 GARDEN PARKWAY","BASEHOR","KS",66007,NA,NA,426,"16000 GARDEN PARKWAY, BASEHOR, KS, 66007","No_Match",NA,NA,NA,NA
75927,"16000 PINES BLVD  PO BOX 820205","PEMBROKE PINES","FL",33082,NA,NA,427,"16000 PINES BLVD  PO BOX 820205, PEMBROKE PINES, FL, 33082","No_Match",NA,NA,NA,NA
75928,"16000 PINES BOULEVARD 822311","PEMBROKE PINES","FL",33082,NA,NA,428,"16000 PINES BOULEVARD 822311, PEMBROKE PINES, FL, 33082","No_Match",NA,NA,NA,NA
75929,"16000 TRADE ZONE AVENUE UNIT 406","UPPER MARLBORO","MD",20774,38.880515292,-76.726893111,429,"16000 TRADE ZONE AVENUE UNIT 406, UPPER MARLBORO, MD, 20774","Match","Exact","16000 TRADE ZONE AVE, UPPER MARLBORO, MD, 20774",76395952,"L"
75930,"16000 WEST CHICAGO STREET","DETROIT","MI",48228,42.3653044770001,-83.20211158,430,"16000 WEST CHICAGO STREET, DETROIT, MI, 48228","Match","Exact","16000 W CHICAGO ST, DETROIT, MI, 48228",95440223,"R"
75931,"16000 WEST NINE MILE ROAD STE 303C","SOUTHFIELD","MI",48075,42.4592210980001,-83.204910464,431,"16000 WEST NINE MILE ROAD STE 303C, SOUTHFIELD, MI, 48075","Match","Exact","16000 W 9 MILE RD, SOUTHFIELD, MI, 48075",69765719,"R"
75932,"16001 CHATEAU AVE","AUSTIN","TX",76734,30.3899620010001,-97.9452403509999,432,"16001 CHATEAU AVE, AUSTIN, TX, 76734","Match","Non_Exact","16001 CHATEAU AVE, AUSTIN, TX, 78734",64008300,"L"
75933,"16001 E  ALASKA PL","AURORA","CO",80016,39.708334311,-104.799809029,433,"16001 E  ALASKA PL, AURORA, CO, 80016","Match","Non_Exact","16001 E ALASKA PL, AURORA, CO, 80017",177550435,"L"
75934,"16001 EASY BIRD LOOP","WOODBRIDGE","VA",22191,38.6050284820001,-77.307975044,434,"16001 EASY BIRD LOOP, WOODBRIDGE, VA, 22191","Match","Exact","16001 EASY BIRD LOOP, WOODBRIDGE, VA, 22191",646642951,"R"
75935,"16001 HOLMES AVENUE","CLEVELAND","OH",44110,41.560279103,-81.568622569,435,"16001 HOLMES AVENUE, CLEVELAND, OH, 44110","Match","Exact","16001 HOLMES AVE, CLEVELAND, OH, 44110",61121356,"L"
75936,"16001 IVY LAKE DRIVE - 27","ODESSA","FL",33556,28.180641344,-82.542961299,436,"16001 IVY LAKE DRIVE - 27, ODESSA, FL, 33556","Match","Exact","16001 IVY LAKE DR, ODESSA, FL, 33556",640194576,"R"
75937,"16001 WEST E STREET","KERMAN","CA",93630,NA,NA,437,"16001 WEST E STREET, KERMAN, CA, 93630","No_Match",NA,NA,NA,NA
75938,"16002","LANSING","MI",48901,NA,NA,438,"16002, LANSING, MI, 48901","No_Match",NA,NA,NA,NA
75939,"16003 N HEATHERGLEN CT","SPOKANE","WA",99208,47.8028428010001,-117.391394406,439,"16003 N HEATHERGLEN CT, SPOKANE, WA, 99208","Match","Exact","16003 N HEATHERGLEN CT, SPOKANE, WA, 99208",189903903,"L"
75940,"16003 SUNSET BEND CIRCLE","ANCHORAGE","AK",99516,61.0761034770001,-149.782434335,440,"16003 SUNSET BEND CIRCLE, ANCHORAGE, AK, 99516","Match","Exact","16003 SUNSET BEND CIR, ANCHORAGE, AK, 99516",605184101,"L"
75941,"16003 VALENCIA CLUB DRIVE","WIMAUMA","FL",33598,NA,NA,441,"16003 VALENCIA CLUB DRIVE, WIMAUMA, FL, 33598","No_Match",NA,NA,NA,NA
75942,"16003 W DESERT BLOOM ST","GOODYEAR","AZ",85338,33.437035915,-112.403281863,442,"16003 W DESERT BLOOM ST, GOODYEAR, AZ, 85338","Match","Exact","16003 W DESERT BLOOM ST, GOODYEAR, AZ, 85338",128404843,"R"
75943,"16004 CHARLES HILL DRIVE","NORTH POTOMAC","MD",20878,39.1206401200001,-77.2546874989999,443,"16004 CHARLES HILL DRIVE, NORTH POTOMAC, MD, 20878","Match","Exact","16004 CHARLES HILL DR, N POTOMAC, MD, 20878",62047388,"R"
75944,"16004 CHATEAU AVENUE","AUSTIN","TX",78734,30.3902325540001,-97.945965873,444,"16004 CHATEAU AVENUE, AUSTIN, TX, 78734","Match","Exact","16004 CHATEAU AVE, AUSTIN, TX, 78734",64008300,"R"
75945,"16005 CORKHILL RD","MAPLE HTS","OH",44137,41.390169288,-81.568524509,445,"16005 CORKHILL RD, MAPLE HTS, OH, 44137","Match","Exact","16005 CORKHILL RD, MAPLE HEIGHTS, OH, 44137",61128691,"L"
75946,"16005 NW 126TH STREET","PLATTE CITY","MO",64079,39.321412686,-94.765798457,446,"16005 NW 126TH STREET, PLATTE CITY, MO, 64079","Match","Exact","16005 NW 126TH ST, PLATTE CITY, MO, 64079",39719336,"L"
75947,"16006 FIRST STREET","PEARLINGTON","MS",39572,30.245020998,-89.609577674,447,"16006 FIRST STREET, PEARLINGTON, MS, 39572","Match","Exact","16006 1ST ST, PEARLINGTON, MS, 39572",111126212,"L"
75948,"16006 N 4TH DR","PHOENIX","AZ",85023,33.6316538880001,-112.079573752,448,"16006 N 4TH DR, PHOENIX, AZ, 85023","Match","Exact","16006 N 4TH DR, PHOENIX, AZ, 85023",128281662,"R"
75949,"16006 OLLIVETT ST","WINTER GARDEN","FL",34787,28.55124613,-81.662469307,449,"16006 OLLIVETT ST, WINTER GARDEN, FL, 34787","Match","Exact","16006 OLLIVETT ST, WINTER GARDEN, FL, 34787",648416841,"R"
75950,"16006 PONDEROSA PASS","HELOTES","TX",78023,29.5938043640001,-98.659300504,450,"16006 PONDEROSA PASS, HELOTES, TX, 78023","Match","Exact","16006 PONDEROSA PASS, HELOTES, TX, 78023",619994375,"L"
75951,"16006 ROSE WREATH LANE","FLORISSANT","MO",63034,38.839040175,-90.304901345,451,"16006 ROSE WREATH LANE, FLORISSANT, MO, 63034","Match","Exact","16006 ROSE WREATH LN, FLORISSANT, MO, 63034",100173216,"L"
75952,"16006 VIA HARRIET","SAN LORENZO","CA",94580,37.6711451670001,-122.149019391,452,"16006 VIA HARRIET, SAN LORENZO, CA, 94580","Match","Exact","16006 VIA HARRIET, SAN LORENZO, CA, 94580",125019023,"L"
75953,"16007 DOOLIN COURT APT 207","CHARLOTTE","NC",28273,35.105152075,-80.981751937,453,"16007 DOOLIN COURT APT 207, CHARLOTTE, NC, 28273","Match","Exact","16007 DOOLIN CT, CHARLOTTE, NC, 28273",648376528,"L"
75954,"16007 EAGLE RIDGE DR","TINLEY PARK","IL",60477,41.5993963240001,-87.8198693099999,454,"16007 EAGLE RIDGE DR, TINLEY PARK, IL, 60477","Match","Exact","16007 EAGLE RIDGE DR, TINLEY PARK, IL, 60477",624175794,"L"
75955,"16007 GARDEN HILL LN","HOUSTON","TX",77095,29.8908323580001,-95.652216149,455,"16007 GARDEN HILL LN, HOUSTON, TX, 77095","Match","Exact","16007 GARDEN HILL LN, HOUSTON, TX, 77095",96144049,"L"
75956,"16007 YORK ROAD","SPARKS","MD",21152,39.5641268790001,-76.655695741,456,"16007 YORK ROAD, SPARKS, MD, 21152","Match","Exact","16007 YORK RD, SPARKS, MD, 21152",191545929,"R"
75957,"16008 HARTS MILL ROAD","EDMOND","OK",73013,35.632492047,-97.517293992,457,"16008 HARTS MILL ROAD, EDMOND, OK, 73013","Match","Exact","16008 HARTS MILL RD, EDMOND, OK, 73013",100450740,"L"
75958,"16008 HIDDEN VALLEY ROAD","SONORA","CA",95370,38.0102725030001,-120.286065482,458,"16008 HIDDEN VALLEY ROAD, SONORA, CA, 95370","Match","Exact","16008 HIDDEN VALLEY RD, SONORA, CA, 95370",101453976,"L"
75959,"16008 RAMAGE AVENUE","MAPLE HEIGHTS","OH",44137,41.3994237630001,-81.5679870389999,459,"16008 RAMAGE AVENUE, MAPLE HEIGHTS, OH, 44137","Match","Exact","16008 RAMAGE AVE, MAPLE HEIGHTS, OH, 44137",61128603,"R"
75960,"16009 SONOMA LAKE BLVD","EDMOND","OK",73013,35.6342864920001,-97.543346414,460,"16009 SONOMA LAKE BLVD, EDMOND, OK, 73013","Match","Exact","16009 SONOMA LAKE BLVD, EDMOND, OK, 73013",606076020,"L"
75961,"1600B QUESADA AVENUE","SAN FRANCISCO","CA",94124,37.7323701010001,-122.389725173,461,"1600B QUESADA AVENUE, SAN FRANCISCO, CA, 94124","Match","Exact","1600 QUESADA AVE, SAN FRANCISCO, CA, 94124",640911611,"R"
75962,"1600B SW DASH POINT ROAD STE 466","FEDERAL WAY","WA",98023,47.323597987,-122.354923115,462,"1600B SW DASH POINT ROAD STE 466, FEDERAL WAY, WA, 98023","Match","Exact","1600 SW DASH POINT RD, FEDERAL WAY, WA, 98023",239767790,"L"
75963,"1600B SW DASHPOINT ROAD 404","FEDERAL WAY","WA",98023,47.323597987,-122.354923115,463,"1600B SW DASHPOINT ROAD 404, FEDERAL WAY, WA, 98023","Match","Non_Exact","1600 SW DASH POINT RD, FEDERAL WAY, WA, 98023",239767790,"L"
75964,"1601 12TH STREET W","HASTINGS","MN",55033,44.7357172100001,-92.883115142,464,"1601 12TH STREET W, HASTINGS, MN, 55033","Match","Exact","1601 12TH ST W, HASTINGS, MN, 55033",37913539,"L"
75965,"1601 16TH ST SE","WASHINGTON","DC",20020,38.870640961,-76.982227189,465,"1601 16TH ST SE, WASHINGTON, DC, 20020","Match","Exact","1601 16TH ST SE, WASHINGTON, DC, 20020",76231135,"R"
75966,"1601 18TH ST NW UNIT 902","WASHINGTON","DC",20009,38.911163521,-77.041659196,466,"1601 18TH ST NW UNIT 902, WASHINGTON, DC, 20009","Match","Exact","1601 18TH ST NW, WASHINGTON, DC, 20009",76225577,"R"
75967,"1601 18TH STREET NW","WASHINGTON","DC",20009,38.911163521,-77.041659196,467,"1601 18TH STREET NW, WASHINGTON, DC, 20009","Match","Exact","1601 18TH ST NW, WASHINGTON, DC, 20009",76225577,"R"
75968,"1601 1ST STREET SOUTH","SAINT CLOUD","MN",56301,45.554794761,-94.170043224,468,"1601 1ST STREET SOUTH, SAINT CLOUD, MN, 56301","Match","Exact","1601 1ST ST S, SAINT CLOUD, MN, 56301",107415073,"R"
75969,"1601 22ND STREET  SUITE 400","WEST DES MOINES","IA",50266,41.595666742,-93.735952479,469,"1601 22ND STREET  SUITE 400, WEST DES MOINES, IA, 50266","Match","Exact","1601 22ND ST, WEST DES MOINES, IA, 50266",65776544,"R"
75970,"1601 3RD AVE APT 6G","NEW YORK","NY",10128,40.7814347890001,-73.952077916,470,"1601 3RD AVE APT 6G, NEW YORK, NY, 10128","Match","Exact","1601 3RD AVE, NEW YORK, NY, 10128",59657880,"R"
75971,"1601 42ND STREET","SACRAMENTO","CA",95819,38.5623084800001,-121.453372817,471,"1601 42ND STREET, SACRAMENTO, CA, 95819","Match","Exact","1601 42ND ST, SACRAMENTO, CA, 95819",133392174,"L"
75972,"1601 5TH AVENUE NORTH SUITE 121","BIRMINGHAM","AL",35203,33.5154886010001,-86.813654887,472,"1601 5TH AVENUE NORTH SUITE 121, BIRMINGHAM, AL, 35203","Match","Exact","1601 5TH AVE N, BIRMINGHAM, AL, 35203",81574666,"R"
75973,"1601 AIRPORT RD","SHELBY","NC",28150,NA,NA,473,"1601 AIRPORT RD, SHELBY, NC, 28150","No_Match",NA,NA,NA,NA
75974,"1601 ALHAMBRA BLVD 100","SACRAMENTO","CA",95816,38.566050734,-121.468117737,474,"1601 ALHAMBRA BLVD 100, SACRAMENTO, CA, 95816","Match","Exact","1601 ALHAMBRA BLVD, SACRAMENTO, CA, 95816",133325193,"L"
75975,"1601 ALHAMBRA BLVD SUITE 100","SACRAMENTO","CA",95816,38.566050734,-121.468117737,475,"1601 ALHAMBRA BLVD SUITE 100, SACRAMENTO, CA, 95816","Match","Exact","1601 ALHAMBRA BLVD, SACRAMENTO, CA, 95816",133325193,"L"
75976,"1601 ALHAMBRA BOULEVARD SUITE 100","SACRAMENTO","CA",95816,38.566050734,-121.468117737,476,"1601 ALHAMBRA BOULEVARD SUITE 100, SACRAMENTO, CA, 95816","Match","Exact","1601 ALHAMBRA BLVD, SACRAMENTO, CA, 95816",133325193,"L"
75977,"1601 AMOUR DRIVE","LEESVILLE","LA",71446,31.125932564,-93.2725659279999,477,"1601 AMOUR DRIVE, LEESVILLE, LA, 71446","Match","Exact","1601 AMOUR DR, LEESVILLE, LA, 71446",13567046,"L"
75978,"1601 ANDOVER AVENUE","GREENSBORO","NC",27405,36.0982076990001,-79.767722798,478,"1601 ANDOVER AVENUE, GREENSBORO, NC, 27405","Match","Exact","1601 ANDOVER AVE, GREENSBORO, NC, 27405",131034684,"L"
75979,"1601 AVENUE D","SNOHOMISH","WA",98290,47.9293905960001,-122.099849343,479,"1601 AVENUE D, SNOHOMISH, WA, 98290","Match","Exact","1601 AVE D, SNOHOMISH, WA, 98290",187750351,"R"
75980,"1601 BARNES ST","ROCKY MOUNT","NC",27801,35.956574018,-77.771903362,480,"1601 BARNES ST, ROCKY MOUNT, NC, 27801","Match","Exact","1601 BARNES ST, ROCKY MOUNT, NC, 27801",90175766,"R"
75981,"1601 BATESVILLE BLVD","BATESVILLE","AR",72501,35.7120099480001,-91.632021177,481,"1601 BATESVILLE BLVD, BATESVILLE, AR, 72501","Match","Exact","1601 BATESVILLE BLVD, BATESVILLE, AR, 72501",650088351,"R"
75982,"1601 BAYSHORE HWY SUITE 148","BURLINGAME","CA",94010,37.5994196020001,-122.367514477,482,"1601 BAYSHORE HWY SUITE 148, BURLINGAME, CA, 94010","Match","Exact","1601 BAYSHORE HWY, BURLINGAME, CA, 94010",192375219,"L"
75983,"1601 BEAUCAIRE DR","SAINT LOUIS","MO",63122,38.6078469830001,-90.393161191,483,"1601 BEAUCAIRE DR, SAINT LOUIS, MO, 63122","Match","Exact","1601 BEAUCAIRE DR, SAINT LOUIS, MO, 63122",100181213,"L"
75984,"1601 BEVERLEY ROAD APT 4L","BROOKLYN","NY",11226,40.644423772,-73.96400887,484,"1601 BEVERLEY ROAD APT 4L, BROOKLYN, NY, 11226","Match","Exact","1601 BEVERLEY RD, BROOKLYN, NY, 11226",59081003,"L"
75985,"1601 BLUEBIRD LN","MUNSTER","IN",46321,41.5470841700001,-87.4901695999999,485,"1601 BLUEBIRD LN, MUNSTER, IN, 46321","Match","Exact","1601 BLUEBIRD LN, MUNSTER, IN, 46321",98421632,"L"
75986,"1601 BRATTLEBORO DRIVE","WEBSTER","NY",14580,43.254968107,-77.404338891,486,"1601 BRATTLEBORO DRIVE, WEBSTER, NY, 14580","Match","Exact","1601 BRATTLEBORO DR, WEBSTER, NY, 14580",14550802,"R"
75987,"1601 BROWN TRAIL","HURST","TX",76054,32.8418925120001,-97.159803336,487,"1601 BROWN TRAIL, HURST, TX, 76054","Match","Exact","1601 BROWN TRL, HURST, TX, 76054",101870107,"L"
75988,"1601 BUICK LN","KOKOMO","IN",46902,40.4689017810001,-86.100865208,488,"1601 BUICK LN, KOKOMO, IN, 46902","Match","Exact","1601 BUICK LN, KOKOMO, IN, 46902",27265719,"R"
75989,"1601 CARRSVILLE HWY","FRANKLIN","VA",23851,36.691201935,-76.897871887,489,"1601 CARRSVILLE HWY, FRANKLIN, VA, 23851","Match","Exact","1601 CARRSVILLE HWY, FRANKLIN, VA, 23851",616030393,"L"
75990,"1601 CELLENY CT","KISSIMMEE","FL",34744,28.3070266190001,-81.3417214529999,490,"1601 CELLENY CT, KISSIMMEE, FL, 34744","Match","Exact","1601 CELLENY CT, KISSIMMEE, FL, 34744",176679080,"L"
75991,"1601 CHERRY STREET ROOM 1057","PHILADELPHIA","PA",19102,39.9557564340001,-75.1663082169999,491,"1601 CHERRY STREET ROOM 1057, PHILADELPHIA, PA, 19102","Match","Non_Exact","1601 CHERRY ST, PHILADELPHIA, PA, 19103",131407556,"R"
75992,"1601 CHESTNUT STREET","CLIFTON FORGE","VA",24422,NA,NA,492,"1601 CHESTNUT STREET, CLIFTON FORGE, VA, 24422","No_Match",NA,NA,NA,NA
75993,"1601 CLINT MOORE RD STE 170","BOCA RATON","FL",33487,26.4081878220001,-80.1140203579999,493,"1601 CLINT MOORE RD STE 170, BOCA RATON, FL, 33487","Match","Exact","1601 CLINT MOORE RD, BOCA RATON, FL, 33487",115335591,"L"
75994,"1601 COLUMBIA PINE LANE 1606","BRANDON","FL",33511,27.9093293770001,-82.320793749,494,"1601 COLUMBIA PINE LANE 1606, BRANDON, FL, 33511","Match","Non_Exact","1601 COLUMBIA PINES LN, BRANDON, FL, 33511",104652940,"R"
75995,"1601 COLUMBIA PLACE","DECATUR","GA",30032,NA,NA,495,"1601 COLUMBIA PLACE, DECATUR, GA, 30032","Tie",NA,NA,NA,NA
75996,"1601 COLVIN BOULEVARD","TONAWANDA","NY",14223,42.9847591020001,-78.858599591,496,"1601 COLVIN BOULEVARD, TONAWANDA, NY, 14223","Match","Exact","1601 COLVIN BLVD, TONAWANDA, NY, 14223",48287777,"R"
75997,"1601 CONNECTICUT AVENUE NW STE 502","WASHINGTON, DC","DC",20009,38.911192468,-77.0443312789999,497,"1601 CONNECTICUT AVENUE NW STE 502, WASHINGTON, DC, DC, 20009","Match","Exact","1601 CONNECTICUT AVE NW, WASHINGTON, DC, 20009",76225305,"R"
75998,"1601 CORPORATE CENTER DR","MONTEREY PARK","CA",91754,34.045012909,-118.167035056,498,"1601 CORPORATE CENTER DR, MONTEREY PARK, CA, 91754","Match","Exact","1601 CORPORATE CENTER DR, MONTEREY PARK, CA, 91754",241250362,"L"
75999,"1601 CORPORATE CENTER DRIVE","MONTEREY PARK","CA",91754,34.045012909,-118.167035056,499,"1601 CORPORATE CENTER DRIVE, MONTEREY PARK, CA, 91754","Match","Exact","1601 CORPORATE CENTER DR, MONTEREY PARK, CA, 91754",241250362,"L"
76000,"1601 COTSWALD CT","WILMINGTON","NC",28411,34.3013809390001,-77.839702188,500,"1601 COTSWALD CT, WILMINGTON, NC, 28411","Match","Exact","1601 COTSWALD CT, WILMINGTON, NC, 28411",640609287,"L"
