"ID","Address","City","State","Zip","lat","long","id","input_address","match_indicator","match_type","matched_address","tiger_line_id","tiger_side"
290501,"7836 MARGARET CIR","NEWBURGH","IN",47630,37.9828562120001,-87.394074345,1,"7836 MARGARET CIR, NEWBURGH, IN, 47630","Match","Exact","7836 MARGARET CIR, NEWBURGH, IN, 47630",32220386,"R"
290502,"7836 MILAN AVENUE","SAINT LOUIS","MO",63130,38.6803830050001,-90.340090956,2,"7836 MILAN AVENUE, SAINT LOUIS, MO, 63130","Match","Exact","7836 MILAN AVE, SAINT LOUIS, MO, 63130",100133784,"L"
290503,"7836 N 13TH ST","PHOENIX","AZ",85020,33.551477817,-112.05438453,3,"7836 N 13TH ST, PHOENIX, AZ, 85020","Match","Exact","7836 N 13TH ST, PHOENIX, AZ, 85020",128207326,"L"
290504,"7836 N 13TH STREET","PHOENIX","AZ",85020,33.551477817,-112.05438453,4,"7836 N 13TH STREET, PHOENIX, AZ, 85020","Match","Exact","7836 N 13TH ST, PHOENIX, AZ, 85020",128207326,"L"
290505,"7836 N LINSCOMB","VIDOR","TX",77662,30.186766161,-93.950926694,5,"7836 N LINSCOMB, VIDOR, TX, 77662","Match","Non_Exact","7836 N LINSCOMB RD, VIDOR, TX, 77662",636821901,"R"
290506,"7836 N NEVA AVE","NILES","IL",60714,42.023315462,-87.80404318,6,"7836 N NEVA AVE, NILES, IL, 60714","Match","Exact","7836 N NEVA AVE, NILES, IL, 60714",111735733,"L"
290507,"7836 NW 62ND WAY","PARKLAND","FL",33067,26.3276098260001,-80.2102185539999,7,"7836 NW 62ND WAY, PARKLAND, FL, 33067","Match","Exact","7836 NW 62ND WAY, PARKLAND, FL, 33067",114768880,"R"
290508,"7836 SW TERWILLIGER BLVD","PORTLAND","OR",97219,45.467511689,-122.684891709,8,"7836 SW TERWILLIGER BLVD, PORTLAND, OR, 97219","Match","Exact","7836 SW TERWILLIGER BLVD, PORTLAND, OR, 97219",157609620,"L"
290509,"7836 WEST 10TH STREET","INDIANAPOLIS","IN",46214,39.7791036770001,-86.299032088,9,"7836 WEST 10TH STREET, INDIANAPOLIS, IN, 46214","Match","Exact","7836 W 10TH ST, INDIANAPOLIS, IN, 46214",107977200,"R"
290510,"78365 HIGHWAY 111  -  368","LA QUINTA","CA",92253,33.715719286,-116.296597974,10,"78365 HIGHWAY 111  -  368, LA QUINTA, CA, 92253","Match","Non_Exact","78365 STATE RTE 111, LA QUINTA, CA, 92253",639323582,"R"
290511,"7837 GATEWAY DRIVE","NEOSHO","MO",64850,36.954389129,-94.418073352,11,"7837 GATEWAY DRIVE, NEOSHO, MO, 64850","Match","Exact","7837 GATEWAY DR, NEOSHO, MO, 64850",630017983,"R"
290512,"7837 ORACLE PLACE","POTOMAC","MD",20854,39.0325361530001,-77.159341604,12,"7837 ORACLE PLACE, POTOMAC, MD, 20854","Match","Exact","7837 ORACLE PL, POTOMAC, MD, 20854",62101647,"L"
290513,"7837 RENAULT DR N","JACKSONVILLE","FL",32244,NA,NA,13,"7837 RENAULT DR N, JACKSONVILLE, FL, 32244","Tie",NA,NA,NA,NA
290514,"7837 S PAULINA ST","CHICAGO","IL",60620,41.751585757,-87.665887595,14,"7837 S PAULINA ST, CHICAGO, IL, 60620","Match","Exact","7837 S PAULINA ST, CHICAGO, IL, 60620",604996680,"L"
290515,"7837 STONEHENGH DR","CHATTANOOGA","TN",37421,NA,NA,15,"7837 STONEHENGH DR, CHATTANOOGA, TN, 37421","No_Match",NA,NA,NA,NA
290516,"7837 VENTURE CENTER WAY STE 5112","BOYNTON BEACH","FM",33437,NA,NA,16,"7837 VENTURE CENTER WAY STE 5112, BOYNTON BEACH, FM, 33437","No_Match",NA,NA,NA,NA
290517,"7838 CLAREMONT DRIVE","DALLAS","TX",75228,32.7964366740001,-96.713024237,17,"7838 CLAREMONT DRIVE, DALLAS, TX, 75228","Match","Exact","7838 CLAREMONT DR, DALLAS, TX, 75228",102923825,"R"
290518,"7838 DALTON AVE","LOS ANGELES","CA",90047,33.9683517350001,-118.303513574,18,"7838 DALTON AVE, LOS ANGELES, CA, 90047","Match","Exact","7838 DALTON AVE, LOS ANGELES, CA, 90047",141658898,"L"
290519,"7838 LYKINS DRIVE","COLUMBUS","IN",47201,39.3009659040001,-85.967771214,19,"7838 LYKINS DRIVE, COLUMBUS, IN, 47201","Match","Exact","7838 LYKINS DR, COLUMBUS, IN, 47201",30967113,"L"
290520,"7838 S GREEN STREET","CHICAGO","IL",60620,41.7513378040001,-87.645282482,20,"7838 S GREEN STREET, CHICAGO, IL, 60620","Match","Exact","7838 S GREEN ST, CHICAGO, IL, 60620",605289227,"R"
290521,"7838 SOUTH SUPERIOR AVENUE","CONCRETE","WA",98237,48.531653019,-121.759065618,21,"7838 SOUTH SUPERIOR AVENUE, CONCRETE, WA, 98237","Match","Exact","7838 S SUPERIOR AVE, CONCRETE, WA, 98237",183673812,"L"
290522,"7838 WILKERSON CT","SAN DIEGO","CA",92111,32.8155214070001,-117.156214841,22,"7838 WILKERSON CT, SAN DIEGO, CA, 92111","Match","Exact","7838 WILKERSON CT, SAN DIEGO, CA, 92111",195306375,"L"
290523,"7839  ISLAND ROAD","VENTRESS","LA",70783,30.6369820560001,-91.480508462,23,"7839  ISLAND ROAD, VENTRESS, LA, 70783","Match","Exact","7839 ISLAND RD, VENTRESS, LA, 70783",632475673,"L"
290524,"7839 123RD AVE NE","KIRKLAND","WA",98033,47.673966223,-122.176093213,24,"7839 123RD AVE NE, KIRKLAND, WA, 98033","Match","Exact","7839 123RD AVE NE, KIRKLAND, WA, 98033",186604349,"L"
290525,"7839 RIVERDALE ROAD APT 103","NEW CARROLLTON","MD",20784,38.9562738860001,-76.8730576469999,25,"7839 RIVERDALE ROAD APT 103, NEW CARROLLTON, MD, 20784","Match","Exact","7839 RIVERDALE RD, NEW CARROLLTON, MD, 20784",76413433,"R"
290526,"784 BLANDING BLVD 108","ORANGE PARK","FL",32065,30.1452464000001,-81.761941711,26,"784 BLANDING BLVD 108, ORANGE PARK, FL, 32065","Match","Exact","784 BLANDING BLVD, ORANGE PARK, FL, 32065",636071279,"L"
290527,"784 CHAPMAN ST","JONESBORO","GA",30238,33.504036716,-84.41881818,27,"784 CHAPMAN ST, JONESBORO, GA, 30238","Match","Exact","784 CHAPMAN ST, JONESBORO, GA, 30238",629796291,"L"
290528,"784 CLYDESDALE DRIVE","LAFAYETTE","IN",47905,40.4055796750001,-86.795939038,28,"784 CLYDESDALE DRIVE, LAFAYETTE, IN, 47905","Match","Exact","784 CLYDESDALE DR, LAFAYETTE, IN, 47905",648437654,"L"
290529,"784 GLOUCESTER LANE","NASHVILLE","TN",37221,36.073850593,-86.991587232,29,"784 GLOUCESTER LANE, NASHVILLE, TN, 37221","Match","Exact","784 GLOUCESTER LN, NASHVILLE, TN, 37221",625895794,"L"
290530,"784 LOVEBRIDGE ROAD NE","CALHOUN","GA",30701,34.505981234,-84.861938272,30,"784 LOVEBRIDGE ROAD NE, CALHOUN, GA, 30701","Match","Exact","784 LOVEBRIDGE RD NE, CALHOUN, GA, 30701",625307975,"R"
290531,"784 MADISON ST APT 1A","BROOKLYN","NY",11221,40.6875116570001,-73.926278506,31,"784 MADISON ST APT 1A, BROOKLYN, NY, 11221","Match","Exact","784 MADISON ST, BROOKLYN, NY, 11221",59082828,"R"
290532,"784 MANOR WAY","LOS ALTOS","CA",94024,37.357533104,-122.091169662,32,"784 MANOR WAY, LOS ALTOS, CA, 94024","Match","Exact","784 MANOR WAY, LOS ALTOS, CA, 94024",122934521,"R"
290533,"784 MOORES MILL ROAD","CYNTHIANA","KY",41031,38.5381956310001,-84.216190661,33,"784 MOORES MILL ROAD, CYNTHIANA, KY, 41031","Match","Exact","784 MOORES MILL RD, CYNTHIANA, KY, 41031",57900951,"L"
290534,"784 MORRIS TURNPIKE - SUITE 111","SHORT HILLS","NJ",7078,40.7212463650001,-74.33425348,34,"784 MORRIS TURNPIKE - SUITE 111, SHORT HILLS, NJ, 7078","Match","Exact","784 MORRIS TPKE, SHORT HILLS, NJ, 07078",641254489,"R"
290535,"784 MOUNTAIN VIEW ROAD","FREDERICKSBURG","VA",22406,38.396328822,-77.472995639,35,"784 MOUNTAIN VIEW ROAD, FREDERICKSBURG, VA, 22406","Match","Exact","784 MOUNTAIN VIEW RD, FREDERICKSBURG, VA, 22406",647893531,"R"
290536,"784 PARK AVE APT 17A","NEW YORK","NY",10021,40.772108372,-73.963100142,36,"784 PARK AVE APT 17A, NEW YORK, NY, 10021","Match","Exact","784 PARK AVE, NEW YORK, NY, 10021",59657373,"L"
290537,"784 PARK AVENUE-APARTMENT 17A","NEW YORK","NY",10021,40.772108372,-73.963100142,37,"784 PARK AVENUE-APARTMENT 17A, NEW YORK, NY, 10021","Match","Non_Exact","784 PARK AVE, NEW YORK, NY, 10021",59657373,"L"
290538,"784 ROSSER RD","BEAR CREEK","NC",27207,35.616654899,-79.234276525,38,"784 ROSSER RD, BEAR CREEK, NC, 27207","Match","Exact","784 ROSSER RD, BEAR CREEK, NC, 27207",71381813,"L"
290539,"784 S CLEARWATER LOOP SUITE R","POST FALLS","ID",83854,47.696861142,-117.01024643,39,"784 S CLEARWATER LOOP SUITE R, POST FALLS, ID, 83854","Match","Non_Exact","784 W CLEARWATER LOOP, POST FALLS, ID, 83854",192956582,"L"
290540,"784 TOLEDO DRIVE","BOCA RATON","FL",33432,26.322493503,-80.0785456959999,40,"784 TOLEDO DRIVE, BOCA RATON, FL, 33432","Match","Exact","784 TOLEDO DR, BOCA RATON, FL, 33432",115539494,"R"
290541,"784 US HIGHWAY 1 SUITE 24","NORTH PALM BEACH","FL",33418,NA,NA,41,"784 US HIGHWAY 1 SUITE 24, NORTH PALM BEACH, FL, 33418","No_Match",NA,NA,NA,NA
290542,"784 VAN NEST DRIVE","MARTINSVILLE","NJ",8836,40.597488501,-74.5523208979999,42,"784 VAN NEST DRIVE, MARTINSVILLE, NJ, 8836","Match","Exact","784 VAN NEST DR, MARTINSVILLE, NJ, 08836",59938897,"R"
290543,"784 WAKEMONT DR","ORANGE PARK","FL",32065,30.1781538540001,-81.8076696159999,43,"784 WAKEMONT DR, ORANGE PARK, FL, 32065","Match","Exact","784 WAKEMONT DR, ORANGE PARK, FL, 32065",83836429,"L"
290544,"784 WEEKS ST","AKRON","OH",44306,41.0501601280001,-81.482621749,44,"784 WEEKS ST, AKRON, OH, 44306","Match","Exact","784 WEEKS ST, AKRON, OH, 44306",61354201,"R"
290545,"784 WILSON RD RM G-100","EAST LANSING","MI",48910,NA,NA,45,"784 WILSON RD RM G-100, EAST LANSING, MI, 48910","No_Match",NA,NA,NA,NA
290546,"7840 133RD STREET W","APPLE VALLEY","MN",55124,44.7566146670001,-93.224697046,46,"7840 133RD STREET W, APPLE VALLEY, MN, 55124","Match","Exact","7840 133RD ST W, APPLE VALLEY, MN, 55124",37905587,"R"
290547,"7840 5TH AVE SOUTH","BIRMINGHAM","AL",35206,33.5607793360001,-86.72000019,47,"7840 5TH AVE SOUTH, BIRMINGHAM, AL, 35206","Match","Exact","7840 5TH AVE S, BIRMINGHAM, AL, 35206",81729264,"L"
290548,"7840 BURMA ROAD","JACKSONVILLE","FL",32221,30.3089595800001,-81.7797619839999,48,"7840 BURMA ROAD, JACKSONVILLE, FL, 32221","Match","Exact","7840 BURMA RD, JACKSONVILLE, FL, 32221",83932271,"L"
290549,"7840 CAVALIER WAY","SACRAMENTO","CA",95832,38.4728876680001,-121.499738977,49,"7840 CAVALIER WAY, SACRAMENTO, CA, 95832","Match","Exact","7840 CAVALIER WAY, SACRAMENTO, CA, 95832",133434561,"R"
290550,"7840 E CAMELBACK RD UNIT 312","SCOTTSDALE","AZ",85251,33.502152509,-111.911866585,50,"7840 E CAMELBACK RD UNIT 312, SCOTTSDALE, AZ, 85251","Match","Non_Exact","7840 E CAMELBACK RD, SCOTTSDALE, AZ, 85251",612834722,"L"
290551,"7840 EASTERN ELK STREET","LAS VEGAS","NV",89149,36.304253912,-115.292949381,51,"7840 EASTERN ELK STREET, LAS VEGAS, NV, 89149","Match","Exact","7840 EASTERN ELK ST, LAS VEGAS, NV, 89149",650879634,"R"
290552,"7840 EL CAJON BOULEVARD - SUITE 200","LA MESA","CA",91942,NA,NA,52,"7840 EL CAJON BOULEVARD - SUITE 200, LA MESA, CA, 91942","No_Match",NA,NA,NA,NA
290553,"7840 GAINES ROAD","CINCINNATI","OH",45247,39.2208494110001,-84.635652969,53,"7840 GAINES ROAD, CINCINNATI, OH, 45247","Match","Exact","7840 GAINES RD, CINCINNATI, OH, 45247",103959379,"R"
290554,"7840 MAYFIELD ROAD","CHESTERLAND","OH",44026,41.52242612,-81.3622529359999,54,"7840 MAYFIELD ROAD, CHESTERLAND, OH, 44026","Match","Exact","7840 MAYFIELD RD, CHESTERLAND, OH, 44026",137432931,"L"
290555,"7840 N CAMINO DE MAXIMILLIAN","TUCSON","AZ",85704,NA,NA,55,"7840 N CAMINO DE MAXIMILLIAN, TUCSON, AZ, 85704","No_Match",NA,NA,NA,NA
290556,"7840 NW 50TH ST SUITE 302","LAUDERHILL","FL",33351,26.1874300650001,-80.255931007,56,"7840 NW 50TH ST SUITE 302, LAUDERHILL, FL, 33351","Match","Non_Exact","7840 NW 50TH ST, LAUDERHILL, FL, 33351",114810302,"R"
290557,"7840 ROSWELL ROAD BUILDING 500","SANDY SPRINGS","GA",30350,33.9738032600001,-84.356646828,57,"7840 ROSWELL ROAD BUILDING 500, SANDY SPRINGS, GA, 30350","Match","Exact","7840 ROSWELL RD, SANDY SPRINGS, GA, 30350",17417877,"L"
290558,"7840 S 25 RD","BOON","MI",49618,44.225137885,-85.578470997,58,"7840 S 25 RD, BOON, MI, 49618","Match","Exact","7840 S 25 RD, BOON, MI, 49618",146100655,"L"
290559,"7840 SCHEIDLER WAY","ANTELOPE","CA",95843,38.710372336,-121.344336795,59,"7840 SCHEIDLER WAY, ANTELOPE, CA, 95843","Match","Exact","7840 SCHEIDLER WAY, ANTELOPE, CA, 95843",133440720,"R"
290560,"7840 TRAILSIDE WAY","GAINESVILLE","GA",30506,34.3002841410001,-83.996512163,60,"7840 TRAILSIDE WAY, GAINESVILLE, GA, 30506","Match","Exact","7840 TRAILSIDE WAY, GAINESVILLE, GA, 30506",649197185,"R"
290561,"7841 BALBOA AVENUE SUITE 100","SAN DIEGO","CA",92111,32.821759849,-117.153892297,61,"7841 BALBOA AVENUE SUITE 100, SAN DIEGO, CA, 92111","Match","Exact","7841 BALBOA AVE, SAN DIEGO, CA, 92111",195698255,"R"
290562,"7841 CROSSBAY DRIVE","SEVERN","MD",21144,39.1315696980001,-76.715053301,62,"7841 CROSSBAY DRIVE, SEVERN, MD, 21144","Match","Exact","7841 CROSSBAY DR, SEVERN, MD, 21144",68196531,"L"
290563,"7841 FORREST AVENUE","PHILADELPHIA","PA",19150,40.07039809,-75.1652597029999,63,"7841 FORREST AVENUE, PHILADELPHIA, PA, 19150","Match","Exact","7841 FORREST AVE, PHILADELPHIA, PA, 19150",131395053,"R"
290564,"7841 RED SPRING RD","DALLAS","TX",75241,32.6517103620001,-96.82136105,64,"7841 RED SPRING RD, DALLAS, TX, 75241","Match","Exact","7841 RED SPRING RD, DALLAS, TX, 75241",619136190,"R"
290565,"7841 SANDPIPER DR","NEW ORLEANS","LA",70128,30.060840903,-89.959203606,65,"7841 SANDPIPER DR, NEW ORLEANS, LA, 70128","Match","Exact","7841 SANDPIPER DR, NEW ORLEANS, LA, 70128",191720283,"R"
290566,"7841 SANDPIPER DR","NEW ORLEANS","LA",71028,30.060840903,-89.959203606,66,"7841 SANDPIPER DR, NEW ORLEANS, LA, 71028","Match","Non_Exact","7841 SANDPIPER DR, NEW ORLEANS, LA, 70128",191720283,"R"
290567,"7841 SW 1ST ST","MARGATE","FL",33068,26.228991831,-80.23197671,67,"7841 SW 1ST ST, MARGATE, FL, 33068","Match","Exact","7841 SW 1ST ST, MARGATE, FL, 33068",114691901,"R"
290568,"7841 SYCAMORE DRIVE","LINCOLN","NE",68506,40.7982238750001,-96.613723895,68,"7841 SYCAMORE DRIVE, LINCOLN, NE, 68506","Match","Exact","7841 SYCAMORE DR, LINCOLN, NE, 68506",28261992,"R"
290569,"7841 W SWEETWATER AVE","PEORIA","AZ",85381,33.6029602,-112.226787168,69,"7841 W SWEETWATER AVE, PEORIA, AZ, 85381","Match","Exact","7841 W SWEETWATER AVE, PEORIA, AZ, 85381",637439620,"R"
290570,"7841 WESTMINSTER BLVD","WESTMINSTER","CA",92683,NA,NA,70,"7841 WESTMINSTER BLVD, WESTMINSTER, CA, 92683","No_Match",NA,NA,NA,NA
290571,"7842 DAVIE ROAD EXTENSION","HOLLYWOOD","FL",33024,NA,NA,71,"7842 DAVIE ROAD EXTENSION, HOLLYWOOD, FL, 33024","No_Match",NA,NA,NA,NA
290572,"7842 EMBRY PT","SAN DIEGO","CA",92126,32.9006087230001,-117.155218049,72,"7842 EMBRY PT, SAN DIEGO, CA, 92126","Match","Exact","7842 EMBRY PT, SAN DIEGO, CA, 92126",195301094,"L"
290573,"7842 NW 1ST STREET","MARGATE","FL",33063,26.2308481600001,-80.2307909209999,73,"7842 NW 1ST STREET, MARGATE, FL, 33063","Match","Exact","7842 NW 1ST ST, MARGATE, FL, 33063",114692426,"L"
290574,"7842 SUNKIST BLVD","BROOKLYN PARK","MN",55444,45.0972845320001,-93.2836778929999,74,"7842 SUNKIST BLVD, BROOKLYN PARK, MN, 55444","Match","Exact","7842 SUNKIST BLVD, BROOKLYN PARK, MN, 55444",43667560,"R"
290575,"7842 VERAGUA DR","PLAYA DEL REY","CA",90293,33.9641862030001,-118.434661738,75,"7842 VERAGUA DR, PLAYA DEL REY, CA, 90293","Match","Exact","7842 VERAGUA DR, PLAYA DEL REY, CA, 90293",142816066,"L"
290576,"7843 CLEARVIEW CIRCLE","RIVERDALE","GA",30296,NA,NA,76,"7843 CLEARVIEW CIRCLE, RIVERDALE, GA, 30296","No_Match",NA,NA,NA,NA
290577,"7843 GILBERT RD","OAKDALE","CA",95361,37.7856437930001,-120.852751729,77,"7843 GILBERT RD, OAKDALE, CA, 95361","Match","Exact","7843 GILBERT RD, OAKDALE, CA, 95361",650863852,"L"
290578,"7843 HEMINGWAY AVE S","COTTAGE GROVE","MN",55016,44.836553376,-92.952646825,78,"7843 HEMINGWAY AVE S, COTTAGE GROVE, MN, 55016","Match","Exact","7843 HEMINGWAY AVE S, COTTAGE GROVE, MN, 55016",97799384,"L"
290579,"7843 MELVIN ROAD UNIT 1","JACKSONVILLE","FL",32210,30.2546128590001,-81.777058174,79,"7843 MELVIN ROAD UNIT 1, JACKSONVILLE, FL, 32210","Match","Exact","7843 MELVIN RD, JACKSONVILLE, FL, 32210",625225892,"R"
290580,"7843 NEWCASTLE AVE","BURBANK","IL",60459,41.7495044840001,-87.791229256,80,"7843 NEWCASTLE AVE, BURBANK, IL, 60459","Match","Exact","7843 NEWCASTLE AVE, BURBANK, IL, 60459",605296789,"L"
290581,"7843 PARK PLACE BLVD","HOUSTON","TX",77087,29.685439574,-95.2829867299999,81,"7843 PARK PLACE BLVD, HOUSTON, TX, 77087","Match","Exact","7843 PARK PLACE BLVD, HOUSTON, TX, 77087",96605940,"L"
290582,"7843 S 70TH E AVE","TULSA","OK",74133,36.0484862640001,-95.899089814,82,"7843 S 70TH E AVE, TULSA, OK, 74133","Match","Exact","7843 S 70TH EAST AVE, TULSA, OK, 74133",166452824,"L"
290583,"78430 PRAIRIE FLOWER DRIVE","PALM DESERT","CA",92211,33.7764851690001,-116.293866563,83,"78430 PRAIRIE FLOWER DRIVE, PALM DESERT, CA, 92211","Match","Exact","78430 PRAIRIE FLOWER DR, PALM DESERT, CA, 92211",639963653,"L"
290584,"7844 KIMBERLY BLVD","NORTH LAUDERDALE","FL",33068,26.2175121600001,-80.232579142,84,"7844 KIMBERLY BLVD, NORTH LAUDERDALE, FL, 33068","Match","Exact","7844 KIMBERLY BLVD, N LAUDERDALE, FL, 33068",114692061,"L"
290585,"7844 MADISON DR","SAINT LOUIS","MO",63133,38.6845169150001,-90.3257448479999,85,"7844 MADISON DR, SAINT LOUIS, MO, 63133","Match","Exact","7844 MADISON DR, SAINT LOUIS, MO, 63133",100133745,"L"
290586,"7845 BLUE LAKE PEAK ST","LAS VEGAS","NV",89166,36.304100701,-115.325313043,86,"7845 BLUE LAKE PEAK ST, LAS VEGAS, NV, 89166","Match","Exact","7845 BLUE LAKE PEAK ST, LAS VEGAS, NV, 89166",641297239,"L"
290587,"7845 BRANDON ROAD","NEW ALBANY","OH",43054,40.0612934530001,-82.813794735,87,"7845 BRANDON ROAD, NEW ALBANY, OH, 43054","Match","Exact","7845 BRANDON RD, NEW ALBANY, OH, 43054",218659742,"R"
290588,"7845 CANDLEFLOWER CIR","COLORADO SPRINGS","CO",80920,38.9499125310001,-104.744610386,88,"7845 CANDLEFLOWER CIR, COLORADO SPRINGS, CO, 80920","Match","Exact","7845 CANDLEFLOWER CIR, CO SPGS, CO, 80920",105569255,"L"
290589,"7845 CHADWICK ROAD","WOODWAY","TX",76712,31.5115559550001,-97.2139725119999,89,"7845 CHADWICK ROAD, WOODWAY, TX, 76712","Match","Exact","7845 CHADWICK RD, WOODWAY, TX, 76712",630430538,"R"
290590,"7845 CRAWFORD AVE","SKOKIE","IL",60076,42.0237595180001,-87.728246631,90,"7845 CRAWFORD AVE, SKOKIE, IL, 60076","Match","Exact","7845 CRAWFORD AVE, SKOKIE, IL, 60076",111741798,"R"
290591,"7845 OAK COURT","HIGHLAND","CA",92346,34.1109142770001,-117.169898468,91,"7845 OAK COURT, HIGHLAND, CA, 92346","Match","Exact","7845 OAK CT, HIGHLAND, CA, 92346",144985457,"L"
290592,"7845 PORT TOBACCO ROAD","PORT TOBACCO","MD",20677,38.5020669960001,-77.059778208,92,"7845 PORT TOBACCO ROAD, PORT TOBACCO, MD, 20677","Match","Exact","7845 PORT TOBACCO RD, PORT TOBACCO, MD, 20677",25381149,"R"
290593,"7845 S ABERDEEN","CHICAGO","IL",60620,41.7516974100001,-87.6513357219999,93,"7845 S ABERDEEN, CHICAGO, IL, 60620","Match","Non_Exact","7845 S ABERDEEN ST, CHICAGO, IL, 60620",604997310,"L"
290594,"7845 S MERRILL","CHICAGO","IL",60649,41.752833588,-87.572339283,94,"7845 S MERRILL, CHICAGO, IL, 60649","Match","Non_Exact","7845 S MERRILL AVE, CHICAGO, IL, 60649",605553633,"L"
290595,"7845 SW 102 LN","MIAMI","FL",33156,25.6750975780001,-80.322370937,95,"7845 SW 102 LN, MIAMI, FL, 33156","Match","Exact","7845 SW 102ND LN, MIAMI, FL, 33156",116066134,"L"
290596,"7845 W MANCHESTER AVE APT 1","PLAYA DEL REY","CA",90293,33.959812937,-118.433914752,96,"7845 W MANCHESTER AVE APT 1, PLAYA DEL REY, CA, 90293","Match","Non_Exact","7845 W MANCHESTER AVE, PLAYA DEL REY, CA, 90293",241170024,"R"
290597,"7845","COLORADO SPRINGS","CO",80920,NA,NA,97,"7845, COLORADO SPRINGS, CO, 80920","No_Match",NA,NA,NA,NA
290598,"7846 LEWIS RD","BLOSSVALE","NY",13308,43.2419498940001,-75.667368933,98,"7846 LEWIS RD, BLOSSVALE, NY, 13308","Match","Exact","7846 LEWIS RD, BLOSSVALE, NY, 13308",652955804,"R"
290599,"7847 ABALONE BAY STREET","LAS VEGAS","NV",89139,36.0459926080001,-115.23801047,99,"7847 ABALONE BAY STREET, LAS VEGAS, NV, 89139","Match","Exact","7847 ABALONE BAY ST, LAS VEGAS, NV, 89139",201983393,"R"
290600,"7847 BIRCHMONT DRIVE","ST LOUIS","MO",63130,38.679854463,-90.339423086,100,"7847 BIRCHMONT DRIVE, ST LOUIS, MO, 63130","Match","Exact","7847 BIRCHMONT DR, SAINT LOUIS, MO, 63130",100174607,"L"
290601,"7847 CLINARD FARMS ROAD","HIGH POINT","NC",27265,NA,NA,101,"7847 CLINARD FARMS ROAD, HIGH POINT, NC, 27265","No_Match",NA,NA,NA,NA
290602,"7847 CRESCENT VILLAGE LANE","RICHMOND","TX",77407,29.691125691,-95.692886656,102,"7847 CRESCENT VILLAGE LANE, RICHMOND, TX, 77407","Match","Exact","7847 CRESCENT VILLAGE LN, RICHMOND, TX, 77407",633670470,"L"
290603,"7847 GOLF PARADISE WAY","CLERMONT","FL",34711,28.5316641160001,-81.824958856,103,"7847 GOLF PARADISE WAY, CLERMONT, FL, 34711","Match","Exact","7847 GOLF PARADISE WAY, CLERMONT, FL, 34711",94161492,"R"
290604,"7847 MILKSHED PLACE","ELKRIDGE","MD",21075,39.1954863510001,-76.7833276439999,104,"7847 MILKSHED PLACE, ELKRIDGE, MD, 21075","Match","Exact","7847 MILKSHED PL, ELKRIDGE, MD, 21075",158927657,"L"
290605,"7847 S 442 RD","LOCUST GROVE","OK",74352,36.1931842660001,-95.136430635,105,"7847 S 442 RD, LOCUST GROVE, OK, 74352","Match","Exact","7847 S 442 RD, LOCUST GROVE, OK, 74352",610837050,"R"
290606,"7848 CHASEWOOD LOOP","COLORADO SPRINGS","CO",80908,38.9468124420001,-104.697869166,106,"7848 CHASEWOOD LOOP, COLORADO SPRINGS, CO, 80908","Match","Exact","7848 CHASEWOOD LOOP, COLORADO SPRINGS, CO, 80908",630111676,"L"
290607,"7848 CUB DRIVE","MARSHALL","VA",20115,38.713770729,-77.990424784,107,"7848 CUB DRIVE, MARSHALL, VA, 20115","Match","Exact","7848 CUB DR, MARSHALL, VA, 20115",146296398,"L"
290608,"7848 MICHIGAN RD","INDIANAPOLIS","IN",46268,39.8953274890001,-86.2148884919999,108,"7848 MICHIGAN RD, INDIANAPOLIS, IN, 46268","Match","Exact","7848 MICHIGAN RD, INDIANAPOLIS, IN, 46268",108028619,"L"
290609,"7848 NIXON STREET","PHILADELPHIA","PA",19128,40.0446688530001,-75.25010171,109,"7848 NIXON STREET, PHILADELPHIA, PA, 19128","Match","Exact","7848 NIXON ST, PHILADELPHIA, PA, 19128",131459177,"R"
290610,"7848 OLD GUILD RD","NORTH CHESTERFIELD","VA",23237,NA,NA,110,"7848 OLD GUILD RD, NORTH CHESTERFIELD, VA, 23237","No_Match",NA,NA,NA,NA
290611,"7848 PARKMONT DR","MEMPHIS","TN",38125,35.0140461300001,-89.801295533,111,"7848 PARKMONT DR, MEMPHIS, TN, 38125","Match","Exact","7848 PARKMONT DR, MEMPHIS, TN, 38125",618713377,"L"
290612,"7848 ROCK ROSE LANE","FAIRBURN","GA",30213,33.5439652910001,-84.509638383,112,"7848 ROCK ROSE LANE, FAIRBURN, GA, 30213","Match","Exact","7848 ROCK ROSE LN, FAIRBURN, GA, 30213",636774209,"L"
290613,"7848 S FEDERAL HIGHWAY SUITE 218","PORT SAINT LUCIE","FL",34952,NA,NA,113,"7848 S FEDERAL HIGHWAY SUITE 218, PORT SAINT LUCIE, FL, 34952","No_Match",NA,NA,NA,NA
290614,"7848 S NORMAL AVENUE","CHICAGO","IL",60620,41.7512080930001,-87.6367539409999,114,"7848 S NORMAL AVENUE, CHICAGO, IL, 60620","Match","Exact","7848 S NORMAL AVE, CHICAGO, IL, 60620",111831867,"R"
290615,"7848 W SAHARA AVE","LAS VEGAS","NV",89117,36.143712717,-115.26206598,115,"7848 W SAHARA AVE, LAS VEGAS, NV, 89117","Match","Exact","7848 W SAHARA AVE, LAS VEGAS, NV, 89117",201949127,"R"
290616,"7848 W SAHARA AVENUE","LAS VEGAS","NV",89117,36.143712717,-115.26206598,116,"7848 W SAHARA AVENUE, LAS VEGAS, NV, 89117","Match","Exact","7848 W SAHARA AVE, LAS VEGAS, NV, 89117",201949127,"R"
290617,"7848 WEST SAHARA AVENUE","LAS VEGAS","NV",89117,36.1437125910001,-115.262046645,117,"7848 WEST SAHARA AVENUE, LAS VEGAS, NV, 89117","Match","Exact","7848 W SAHARA AVE, LAS VEGAS, NV, 89117",201949127,"R"
290618,"7848 WEST SAHARA","LAS VEGAS","NV",89117,36.1437125910001,-115.262046645,118,"7848 WEST SAHARA, LAS VEGAS, NV, 89117","Match","Non_Exact","7848 W SAHARA AVE, LAS VEGAS, NV, 89117",201949127,"R"
290619,"7849 4TH STREET","AMHERST","WI",54406,44.46317457,-89.391398307,119,"7849 4TH STREET, AMHERST, WI, 54406","Match","Exact","7849 4TH ST, AMHERST, WI, 54406",126800152,"L"
290620,"7849 ASHFORD GLEN COURT","WEST CHESTER","OH",45069,39.359863454,-84.4451259209999,120,"7849 ASHFORD GLEN COURT, WEST CHESTER, OH, 45069","Match","Exact","7849 ASHFORD GLEN CT, WEST CHESTER, OH, 45069",113809686,"R"
290621,"7849 CONTINENTAL DRIVE","MOORESVILLE","IN",46158,39.641745142,-86.382761999,121,"7849 CONTINENTAL DRIVE, MOORESVILLE, IN, 46158","Match","Exact","7849 CONTINENTAL DR, MOORESVILLE, IN, 46158",89201395,"L"
290622,"7849 EAST VIEWRIM DRIVE","ANAHEIM","CA",92808,33.854188933,-117.741316949,122,"7849 EAST VIEWRIM DRIVE, ANAHEIM, CA, 92808","Match","Exact","7849 E VIEWRIM DR, ANAHEIM, CA, 92808",144126094,"L"
290623,"7849 GRAY SHOALS DRIVE","COLUMBUS","GA",31904,32.561533406,-84.980277356,123,"7849 GRAY SHOALS DRIVE, COLUMBUS, GA, 31904","Match","Exact","7849 GRAY SHOALS DR, COLUMBUS, GA, 31904",635651696,"R"
290624,"7849 N MIAMI GARDENS ST","BRAZIL","IN",47834,39.5608247150001,-87.238836991,124,"7849 N MIAMI GARDENS ST, BRAZIL, IN, 47834","Match","Exact","7849 N MIAMI GARDENS ST, BRAZIL, IN, 47834",27131453,"R"
290625,"7849 N PERSHING AVE","STOCKTON","CA",95207,38.020623529,-121.330015649,125,"7849 N PERSHING AVE, STOCKTON, CA, 95207","Match","Exact","7849 N PERSHING AVE, STOCKTON, CA, 95207",133840505,"L"
290626,"7849 PROVIDENT STREET","PHILADELPHIA","PA",19150,40.0729356750001,-75.1621676779999,126,"7849 PROVIDENT STREET, PHILADELPHIA, PA, 19150","Match","Non_Exact","7849 PROVIDENT RD, PHILADELPHIA, PA, 19150",131395078,"R"
290627,"7849 SW BIRCH ST","PORTLAND","OR",97223,45.4538127110001,-122.758059209,127,"7849 SW BIRCH ST, PORTLAND, OR, 97223","Match","Exact","7849 SW BIRCH ST, PORTLAND, OR, 97223",158191642,"R"
290628,"7849 W 110TH AVENUE","WESTMINSTER","CO",80021,39.8959518010001,-105.084543433,128,"7849 W 110TH AVENUE, WESTMINSTER, CO, 80021","Match","Exact","7849 W 110TH AVE, WESTMINSTER, CO, 80021",177281744,"L"
290629,"785 19TH STREET NE","WASHINGTON","DC",20002,38.89984322,-76.9762073909999,129,"785 19TH STREET NE, WASHINGTON, DC, 20002","Match","Exact","785 19TH ST NE, WASHINGTON, DC, 20002",76231266,"R"
290630,"785 ALABAMA HWY 157","CULLMAN","AL",35058,NA,NA,130,"785 ALABAMA HWY 157, CULLMAN, AL, 35058","No_Match",NA,NA,NA,NA
290631,"785 ALAMEDA AVE","ASTORIA","OR",97103,46.18142133,-123.853214609,131,"785 ALAMEDA AVE, ASTORIA, OR, 97103","Match","Exact","785 ALAMEDA AVE, ASTORIA, OR, 97103",159221792,"R"
290632,"785 ASHLEY DR","CHASKA","MN",55318,44.8240274770001,-93.622547874,132,"785 ASHLEY DR, CHASKA, MN, 55318","Match","Exact","785 ASHLEY DR, CHASKA, MN, 55318",43508293,"L"
290633,"785 BUCKEYE AVE","NEWARK","OH",43055,40.047512259,-82.435762002,133,"785 BUCKEYE AVE, NEWARK, OH, 43055","Match","Exact","785 BUCKEYE AVE, NEWARK, OH, 43055",61552939,"L"
290634,"785 CORAL DRIVE","RODEO","CA",94572,38.0185321110001,-122.254733996,134,"785 CORAL DRIVE, RODEO, CA, 94572","Match","Exact","785 CORAL DR, RODEO, CA, 94572",192034883,"L"
290635,"785 CORRAL DRIVE","RODEO","CA",94572,38.0185321110001,-122.254733996,135,"785 CORRAL DRIVE, RODEO, CA, 94572","Match","Non_Exact","785 CORAL DR, RODEO, CA, 94572",192034883,"L"
290636,"785 CRYSTAL LAKE DR","POMPANO BEACH","FL",33064,26.2798246880001,-80.13342976,136,"785 CRYSTAL LAKE DR, POMPANO BEACH, FL, 33064","Match","Exact","785 CRYSTAL LAKE DR, POMPANO BEACH, FL, 33064",641073602,"R"
290637,"785 CUMBERLAND RD NE","ATLANTA","GA",30306,33.7961765100001,-84.361453916,137,"785 CUMBERLAND RD NE, ATLANTA, GA, 30306","Match","Exact","785 CUMBERLAND RD NE, ATLANTA, GA, 30306",652435308,"R"
290638,"785 DAVIS BEND ROAD","ALVIN","TX",77511,29.417088881,-95.2708695809999,138,"785 DAVIS BEND ROAD, ALVIN, TX, 77511","Match","Exact","785 DAVIS BEND RD, ALVIN, TX, 77511",116576383,"R"
290639,"785 E CENTER AVE","EARLIMART","CA",93219,NA,NA,139,"785 E CENTER AVE, EARLIMART, CA, 93219","No_Match",NA,NA,NA,NA
290640,"785 GRAND AVE SUITE 101","CARLSBAD","CA",92008,33.162346745,-117.346730179,140,"785 GRAND AVE SUITE 101, CARLSBAD, CA, 92008","Match","Exact","785 GRAND AVE, CARLSBAD, CA, 92008",647701991,"R"
290641,"785 HOPEWELL PLACE DR","MILTON","GA",30004,34.096696062,-84.295506512,141,"785 HOPEWELL PLACE DR, MILTON, GA, 30004","Match","Exact","785 HOPEWELL PLACE DR, MILTON, GA, 30004",648800774,"R"
290642,"785 KING GEORGE BLVD - STE 208","SAVANNAH","GA",31419,31.9887913430001,-81.212595011,142,"785 KING GEORGE BLVD - STE 208, SAVANNAH, GA, 31419","Match","Exact","785 KING GEORGE BLVD, SAVANNAH, GA, 31419",641807364,"L"
290643,"785 LIBERTY CHURCH RD","MADISONVILLE","KY",42431,37.330143133,-87.444365771,143,"785 LIBERTY CHURCH RD, MADISONVILLE, KY, 42431","Match","Exact","785 LIBERTY CHURCH RD, MADISONVILLE, KY, 42431",11504555,"R"
290644,"785 LITTLE RIVER DRIVE","MIAMI","FL",33150,25.85520209,-80.211255157,144,"785 LITTLE RIVER DRIVE, MIAMI, FL, 33150","Match","Exact","785 LITTLE RIVER DR, MIAMI, FL, 33150",642153838,"R"
290645,"785 MAMARONECK","WHITE PLAINS","NY",10605,41.0138899080001,-73.7551324249999,145,"785 MAMARONECK, WHITE PLAINS, NY, 10605","Match","Non_Exact","785 MAMARONECK AVE, WHITE PLAINS, NY, 10605",139827338,"L"
290646,"785 MILL HILL RD","SAINT CLAIR","MO",63077,38.3470136660001,-90.9786951359999,146,"785 MILL HILL RD, SAINT CLAIR, MO, 63077","Match","Exact","785 MILL HILL RD, SAINT CLAIR, MO, 63077",611751021,"R"
290647,"785 MOODY BRIDGE ROAD","CLEVELAND","SC",29635,35.0505800080001,-82.5748993779999,147,"785 MOODY BRIDGE ROAD, CLEVELAND, SC, 29635","Match","Exact","785 MOODY BRIDGE RD, CLEVELAND, SC, 29635",633405320,"R"
290648,"785 N SLEEPY HOLLOW LN","ROMEOVILLE","IL",60446,41.6602078920001,-88.094124683,148,"785 N SLEEPY HOLLOW LN, ROMEOVILLE, IL, 60446","Match","Exact","785 N SLEEPY HOLLOW LN, ROMEOVILLE, IL, 60446",600378287,"R"
290649,"785 NE 83RD TERRACE","MIAMI","FL",33138,25.8522950180001,-80.181540792,149,"785 NE 83RD TERRACE, MIAMI, FL, 33138","Match","Exact","785 NE 83RD TER, MIAMI, FL, 33138",116006818,"L"
290650,"785 NORTH EDGEWOOD AVE","SOMERSET","PA",15501,40.015253106,-79.080514753,150,"785 NORTH EDGEWOOD AVE, SOMERSET, PA, 15501","Match","Exact","785 N EDGEWOOD AVE, SOMERSET, PA, 15501",649992637,"L"
290651,"785 NW 164TH AVENUE","PEMBROKE PINES","FL",33028,26.013855747,-80.365647493,151,"785 NW 164TH AVENUE, PEMBROKE PINES, FL, 33028","Match","Exact","785 NW 164TH AVE, PEMBROKE PINES, FL, 33028",114781684,"R"
290652,"785 NW KINGSTON STREET","PORT SAINT LUCIE","FL",34983,27.336786713,-80.365504175,152,"785 NW KINGSTON STREET, PORT SAINT LUCIE, FL, 34983","Match","Exact","785 NW KINGSTON ST, PORT ST LUCIE, FL, 34983",120150636,"R"
290653,"785 OAK GROVE RD E/2 264","CONCORD","CA",95815,NA,NA,153,"785 OAK GROVE RD E/2 264, CONCORD, CA, 95815","No_Match",NA,NA,NA,NA
290654,"785 OAK GROVE RD E2-113","CONCORD","CA",94518,NA,NA,154,"785 OAK GROVE RD E2-113, CONCORD, CA, 94518","No_Match",NA,NA,NA,NA
290655,"785 PONCE DE LEON PL NE APT 8","ATLANTA","GA",30306,33.776076608,-84.3636843479999,155,"785 PONCE DE LEON PL NE APT 8, ATLANTA, GA, 30306","Match","Exact","785 PONCE DE LEON PL NE, ATLANTA, GA, 30306",17356996,"R"
290656,"785 RIVERSIDE AVE NO 1","ADRIAN","MI",49221,41.912722536,-84.0494217689999,156,"785 RIVERSIDE AVE NO 1, ADRIAN, MI, 49221","Match","Non_Exact","785 RIVERSIDE AVE, ADRIAN, MI, 49221",25942604,"L"
290657,"785 RIVERSIDE AVE","ADRIAN","MI",49221,41.912722536,-84.0494217689999,157,"785 RIVERSIDE AVE, ADRIAN, MI, 49221","Match","Exact","785 RIVERSIDE AVE, ADRIAN, MI, 49221",25942604,"L"
290658,"785 RIVERSIDE DRIVE","NORTH GROSVENORDALE","CT",6277,NA,NA,158,"785 RIVERSIDE DRIVE, NORTH GROSVENORDALE, CT, 6277","No_Match",NA,NA,NA,NA
290659,"785 RUTLAND CIR","PORT CHARLOTTE","FL",33954,27.0241716510001,-82.130412867,159,"785 RUTLAND CIR, PORT CHARLOTTE, FL, 33954","Match","Exact","785 RUTLAND CIR, PORT CHARLOTTE, FL, 33954",4322433,"R"
290660,"785 TUCKER ROAD SUITE G PMB 5890","TEHACHAPI","CA",93561,35.125071747,-118.467774768,160,"785 TUCKER ROAD SUITE G PMB 5890, TEHACHAPI, CA, 93561","Match","Exact","785 TUCKER RD, TEHACHAPI, CA, 93561",109574218,"L"
290661,"785 W WHEATLAND","DUNCANVILLE","TX",75116,32.64746826,-96.9250518869999,161,"785 W WHEATLAND, DUNCANVILLE, TX, 75116","Match","Non_Exact","785 W WHEATLAND RD, DUNCANVILLE, TX, 75116",103189236,"R"
290662,"785 WASHINGTON STREET UNIT 11B","CANTON","MA",2021,42.1585972500001,-71.14513719,162,"785 WASHINGTON STREET UNIT 11B, CANTON, MA, 2021","Match","Exact","785 WASHINGTON ST, CANTON, MA, 02021",87297932,"R"
290663,"785 WEST CHESAPEAKE CIRCLE","MURRAY","UT",84123,40.6421694210001,-111.9122349,163,"785 WEST CHESAPEAKE CIRCLE, MURRAY, UT, 84123","Match","Non_Exact","785 CHESAPEAKE CIR, MURRAY, UT, 84123",176113944,"R"
290664,"7850 5 MILE RD","CINCINNATI","OH",45230,39.063643196,-84.351967077,164,"7850 5 MILE RD, CINCINNATI, OH, 45230","Match","Exact","7850 FIVE MILE RD, CINCINNATI, OH, 45230",103969102,"L"
290665,"7850 AMADEUS DR","INDIANAPOLIS","IN",46239,39.726417596,-86.027878922,165,"7850 AMADEUS DR, INDIANAPOLIS, IN, 46239","Match","Exact","7850 AMADEUS DR, INDIANAPOLIS, IN, 46239",627343961,"R"
290666,"7850 APACHE COURT","MANASAS","VA",20109,NA,NA,166,"7850 APACHE COURT, MANASAS, VA, 20109","No_Match",NA,NA,NA,NA
290667,"7850 KIMBERLY BLVD","N LAUDERDALE","FL",33068,26.217512372,-80.232664584,167,"7850 KIMBERLY BLVD, N LAUDERDALE, FL, 33068","Match","Exact","7850 KIMBERLY BLVD, N LAUDERDALE, FL, 33068",114692061,"L"
290668,"7850 MCGROARTY STREET","SUNLAND","CA",91040,34.2523905830001,-118.304500321,168,"7850 MCGROARTY STREET, SUNLAND, CA, 91040","Match","Exact","7850 MCGROARTY ST, SUNLAND, CA, 91040",141588274,"L"
290669,"7850 N SILVERBELL ROAD 114-302","TUCSON","AZ",85743,32.348642248,-111.100220701,169,"7850 N SILVERBELL ROAD 114-302, TUCSON, AZ, 85743","Match","Non_Exact","7850 N SILVERBELL RD, TUCSON, AZ, 85743",121222526,"R"
290670,"7850 N SILVERBELL SUITE 114-435","TUCSON","AZ",85743,NA,NA,170,"7850 N SILVERBELL SUITE 114-435, TUCSON, AZ, 85743","No_Match",NA,NA,NA,NA
290671,"7850 SLATER AVE 59","HUNTINGTON BEACH","CA",92647,33.7084185100001,-117.990006863,171,"7850 SLATER AVE 59, HUNTINGTON BEACH, CA, 92647","Match","Exact","7850 SLATER AVE, HUNTINGTON BEACH, CA, 92647",647294862,"R"
290672,"7850 SOUTH HUDSON STREET","CENTENNIAL","CO",80122,39.573880671,-104.92390291,172,"7850 SOUTH HUDSON STREET, CENTENNIAL, CO, 80122","Match","Exact","7850 S HUDSON ST, CENTENNIAL, CO, 80122",177517438,"R"
290673,"7850 TRAVELLERS STREET","FRISCO","TX",75034,33.1434645580001,-96.8516414759999,173,"7850 TRAVELLERS STREET, FRISCO, TX, 75034","Match","Non_Exact","7850 TRAVELLER ST, FRISCO, TX, 75034",646704206,"R"
290674,"7850 W 28 AVENUE  STE 103","HIALEAH","FL",33018,25.894995126,-80.3407090159999,174,"7850 W 28 AVENUE  STE 103, HIALEAH, FL, 33018","Match","Non_Exact","7850 W 28TH AVE, HIALEAH, FL, 33018",611809363,"R"
290675,"7850 W SHORE CT","RIVERDALE","GA",30296,33.541802821,-84.428662404,175,"7850 W SHORE CT, RIVERDALE, GA, 30296","Match","Exact","7850 W SHORE CT, RIVERDALE, GA, 30296",23325642,"L"
290676,"7850 WEST SUNSET BLVD APT 301","LOS ANGELES","CA",90046,34.0980635550001,-118.360566605,176,"7850 WEST SUNSET BLVD APT 301, LOS ANGELES, CA, 90046","Match","Exact","7850 W SUNSET BLVD, LOS ANGELES, CA, 90046",642864238,"L"
290677,"7850 WHITE LANE STE E","BAKERSFIELD","CA",93309,35.3182422450001,-119.089688701,177,"7850 WHITE LANE STE E, BAKERSFIELD, CA, 93309","Match","Exact","7850 WHITE LN, BAKERSFIELD, CA, 93309",109139769,"R"
290678,"7851 54TH AVE NORTH","ST PETERSBURG","FL",33709,NA,NA,178,"7851 54TH AVE NORTH, ST PETERSBURG, FL, 33709","No_Match",NA,NA,NA,NA
290679,"7851 DALEN STREET","DOWNEY","CA",90242,33.923683313,-118.155530446,179,"7851 DALEN STREET, DOWNEY, CA, 90242","Match","Exact","7851 DALEN ST, DOWNEY, CA, 90242",141696739,"L"
290680,"7851 SPRING ARBOR ROAD","SPRING ARBOR","MI",49283,42.2093444270001,-84.5358451709999,180,"7851 SPRING ARBOR ROAD, SPRING ARBOR, MI, 49283","Match","Exact","7851 SPRING ARBOR RD, SPRING ARBOR, MI, 49283",17614436,"L"
290681,"7851 SPRUCE HILL RD","SEVERN","MD",21144,39.1338157500001,-76.665713345,181,"7851 SPRUCE HILL RD, SEVERN, MD, 21144","Match","Exact","7851 SPRUCE HILL RD, SEVERN, MD, 21144",68156025,"L"
290682,"7851 SW 105TH AVENUE","MIAMI","FL",33173,25.694951045,-80.3631756409999,182,"7851 SW 105TH AVENUE, MIAMI, FL, 33173","Match","Exact","7851 SW 105TH AVE, MIAMI, FL, 33173",116074434,"L"
290683,"7851 YELLOWWOOD DRIVE","MASON","OH",45040,39.3254183120001,-84.308982455,183,"7851 YELLOWWOOD DRIVE, MASON, OH, 45040","Match","Exact","7851 YELLOWWOOD DR, MASON, OH, 45040",159039885,"R"
290684,"7852 16TH STREET NW","WASHINGTON","DC",20012,38.986815909,-77.036341217,184,"7852 16TH STREET NW, WASHINGTON, DC, 20012","Match","Exact","7852 16TH ST NW, WASHINGTON, DC, 20012",76221486,"L"
290685,"7852 9 MILE ROAD","BIG RAPIDS","MI",49307,43.685511843,-85.606294995,185,"7852 9 MILE ROAD, BIG RAPIDS, MI, 49307","Match","Exact","7852 9 MILE RD, BIG RAPIDS, MI, 49307",150240906,"L"
290686,"7852 AMAWALK CIR","JOHNS CREEK","GA",30097,34.050413883,-84.127703109,186,"7852 AMAWALK CIR, JOHNS CREEK, GA, 30097","Match","Exact","7852 AMAWALK CIR, JOHNS CREEK, GA, 30097",627272884,"R"
290687,"7852 ENGLISH DRIVE","BRECKSVILLE","OH",44141,41.347885467,-81.640133837,187,"7852 ENGLISH DRIVE, BRECKSVILLE, OH, 44141","Match","Exact","7852 ENGLISH DR, BRECKSVILLE, OH, 44141",61141722,"R"
290688,"7853 131ST ST W","APPLE VALLEY","MN",55124,44.760035621,-93.225032528,188,"7853 131ST ST W, APPLE VALLEY, MN, 55124","Match","Exact","7853 131ST ST W, APPLE VALLEY, MN, 55124",37905581,"L"
290689,"7853 E ARAPAHOE CT   STE 1225","CENTENNIAL","CO",80112,39.5939771390001,-104.897303408,189,"7853 E ARAPAHOE CT   STE 1225, CENTENNIAL, CO, 80112","Match","Non_Exact","7853 E ARAPAHOE CT, CENTENNIAL, CO, 80112",636170598,"L"
290690,"7853 E LORENZO LN","YUMA","AZ",85365,32.682124129,-114.496600033,190,"7853 E LORENZO LN, YUMA, AZ, 85365","Match","Exact","7853 E LORENZO LN, YUMA, AZ, 85365",129661330,"L"
290691,"7853 GUNN HWY 390","TAMPA","FL",33626,28.0787119290001,-82.576400586,191,"7853 GUNN HWY 390, TAMPA, FL, 33626","Match","Exact","7853 GUNN HWY, TAMPA, FL, 33626",104505451,"L"
290692,"7853 GUNN HWY UNIT 184","TAMPA","FL",33626,28.0787119290001,-82.576400586,192,"7853 GUNN HWY UNIT 184, TAMPA, FL, 33626","Match","Exact","7853 GUNN HWY, TAMPA, FL, 33626",104505451,"L"
290693,"7853 ROUTE 31","BRIDGEPORT","NY",13030,43.163280946,-75.987428039,193,"7853 ROUTE 31, BRIDGEPORT, NY, 13030","Match","Non_Exact","7853 STATE RTE 31, BRIDGEPORT, NY, 13030",46560170,"R"
290694,"7853 SE 27TH STREET  APARTMENT E306","MERCER ISLAND","WA",98040,47.5867021110001,-122.233037767,194,"7853 SE 27TH STREET  APARTMENT E306, MERCER ISLAND, WA, 98040","Match","Non_Exact","7853 SE 27TH ST, MERCER ISLAND, WA, 98040",239779701,"R"
290695,"7854 CHESTNUT AVE","WOODRIDGE","IL",60517,41.743502893,-88.042909692,195,"7854 CHESTNUT AVE, WOODRIDGE, IL, 60517","Match","Exact","7854 CHESTNUT AVE, WOODRIDGE, IL, 60517",112539286,"R"
290696,"7854 DAVIS PARKWAY","SOUTHAVEN","MS",38671,34.975289773,-90.014561618,196,"7854 DAVIS PARKWAY, SOUTHAVEN, MS, 38671","Match","Exact","7854 DAVIS PKWY, SOUTHAVEN, MS, 38671",91854369,"R"
290697,"7854 S MARYLAND AVENUE","CHICAGO","IL",60619,41.752118642,-87.6039914629999,197,"7854 S MARYLAND AVENUE, CHICAGO, IL, 60619","Match","Exact","7854 S MARYLAND AVE, CHICAGO, IL, 60619",111772974,"R"
290698,"7855 CLIFFORD","FAIR HAVEN","MI",48023,42.6795674780001,-82.658446829,198,"7855 CLIFFORD, FAIR HAVEN, MI, 48023","Match","Non_Exact","7855 CLIFFORD ST, FAIR HAVEN, MI, 48023",110972766,"R"
290699,"7855 COWLES MOUNTAIN COURT UNIT A6","SAN DIEGO","CA",92119,32.8020105730001,-117.026245179,199,"7855 COWLES MOUNTAIN COURT UNIT A6, SAN DIEGO, CA, 92119","Match","Exact","7855 COWLES MOUNTAIN CT, SAN DIEGO, CA, 92119",195325364,"R"
290700,"7855 E ARROWLEAF TRAIL","COAL CITY","IL",60416,41.3293247220001,-88.269352414,200,"7855 E ARROWLEAF TRAIL, COAL CITY, IL, 60416","Match","Exact","7855 E ARROWLEAF TRL, COAL CITY, IL, 60416",651627328,"L"
290701,"7855 FALLSTONE","MEMPHIS","TN",38125,35.016076674,-89.801440685,201,"7855 FALLSTONE, MEMPHIS, TN, 38125","Match","Non_Exact","7855 FALLSTONE RD, MEMPHIS, TN, 38125",618746646,"R"
290702,"7855 NE 2ND AVE APT 1009","MIAMI","FL",33138,25.8470402300001,-80.192788052,202,"7855 NE 2ND AVE APT 1009, MIAMI, FL, 33138","Match","Non_Exact","7855 NE 2ND AVE, MIAMI, FL, 33138",116006272,"R"
290703,"7855 NW 109TH PL","DORAL","FL",33178,25.8452049470001,-80.375359115,203,"7855 NW 109TH PL, DORAL, FL, 33178","Match","Exact","7855 NW 109TH PL, DORAL, FL, 33178",638324136,"L"
290704,"7855 SUGAR PINE BLVD","LAKELAND","FL",33810,28.145274553,-82.010313146,204,"7855 SUGAR PINE BLVD, LAKELAND, FL, 33810","Match","Exact","7855 SUGAR PINE BLVD, LAKELAND, FL, 33810",616525008,"R"
290705,"78550 COON CREEK RD","ARMADA","MI",48005,42.8756715710001,-82.920309424,205,"78550 COON CREEK RD, ARMADA, MI, 48005","Match","Exact","78550 COON CREEK RD, ARMADA, MI, 48005",110723873,"L"
290706,"7856 BLENHEIM ROAD","SCOTTSVILLE","VA",24590,37.8214626450001,-78.4895473459999,206,"7856 BLENHEIM ROAD, SCOTTSVILLE, VA, 24590","Match","Exact","7856 BLENHEIM RD, SCOTTSVILLE, VA, 24590",83392918,"L"
290707,"7856 POE ST","DETROIT","MI",48206,42.369127963,-83.089114571,207,"7856 POE ST, DETROIT, MI, 48206","Match","Exact","7856 POE ST, DETROIT, MI, 48206",642524832,"R"
290708,"7856 RENDERBROOK BEND","IRVING","TX",75063,32.9154629820001,-96.942313321,208,"7856 RENDERBROOK BEND, IRVING, TX, 75063","Match","Exact","7856 RENDERBROOK BEND, IRVING, TX, 75063",643182753,"L"
290709,"7856 ROLLING MEADOWS LANE","HUNTERSVILLE","NC",28078,35.3931597420001,-80.90376457,209,"7856 ROLLING MEADOWS LANE, HUNTERSVILLE, NC, 28078","Match","Exact","7856 ROLLING MEADOWS LN, HUNTERSVILLE, NC, 28078",70584324,"R"
290710,"7857  JASMINE","NEOSHO","MO",64850,36.902977052,-94.502756163,210,"7857  JASMINE, NEOSHO, MO, 64850","Match","Non_Exact","7857 JASMINE DR, NEOSHO, MO, 64850",649644734,"R"
290711,"7857 AMERICANA CIRCLE 201","GLEN BURNIE","MD",21060,39.13828325,-76.596633297,211,"7857 AMERICANA CIRCLE 201, GLEN BURNIE, MD, 21060","Match","Exact","7857 AMERICANA CIR, GLEN BURNIE, MD, 21060",68195066,"L"
290712,"7857 FULLER STREET","BRIGHTON","MI",48116,42.4987470090001,-83.7939291609999,212,"7857 FULLER STREET, BRIGHTON, MI, 48116","Match","Non_Exact","7857 FULLER, BRIGHTON, MI, 48116",23558531,"R"
290713,"7857 JASMINE DR","NEOSHO","MO",64850,36.902977052,-94.502756163,213,"7857 JASMINE DR, NEOSHO, MO, 64850","Match","Exact","7857 JASMINE DR, NEOSHO, MO, 64850",649644734,"R"
290714,"7857 JASMINE DRIVE","NEOSHO","MO",64850,36.902977052,-94.502756163,214,"7857 JASMINE DRIVE, NEOSHO, MO, 64850","Match","Exact","7857 JASMINE DR, NEOSHO, MO, 64850",649644734,"R"
290715,"7857 W SAMPLE ROAD STE 159","CORAL SPRINGS","FL",33065,26.272266282,-80.234525648,215,"7857 W SAMPLE ROAD STE 159, CORAL SPRINGS, FL, 33065","Match","Non_Exact","7857 W SAMPLE RD, CORAL SPRINGS, FL, 33065",632699873,"L"
290716,"7857 W SAMPLE ROAD","CORAL SPRINGS","FL",33065,26.272266282,-80.234525648,216,"7857 W SAMPLE ROAD, CORAL SPRINGS, FL, 33065","Match","Exact","7857 W SAMPLE RD, CORAL SPRINGS, FL, 33065",632699873,"L"
290717,"7858 BELLVIEW RD 103","BUFFALO","MT",59418,46.853670617,-109.966030973,217,"7858 BELLVIEW RD 103, BUFFALO, MT, 59418","Match","Non_Exact","7858 BELVIEW RD, BUFFALO, MT, 59418",170733259,"R"
290718,"7858 MELVIN RD","JACKSONVILLE","FL",32210,30.2541705200001,-81.7783480699999,218,"7858 MELVIN RD, JACKSONVILLE, FL, 32210","Match","Exact","7858 MELVIN RD, JACKSONVILLE, FL, 32210",625225892,"L"
290719,"7858 NW 189 STREET","HIALEAH","FL",33015,25.9467885080001,-80.3289703889999,219,"7858 NW 189 STREET, HIALEAH, FL, 33015","Match","Exact","7858 NW 189TH ST, HIALEAH, FL, 33015",116059480,"R"
290720,"7858 ORACLE PL","POTOMAC","MD",20854,39.0325405130001,-77.159935983,220,"7858 ORACLE PL, POTOMAC, MD, 20854","Match","Exact","7858 ORACLE PL, POTOMAC, MD, 20854",62101647,"R"
290721,"7858 ORACLE PLACE","POTOMAC","MD",20854,39.0325405130001,-77.159935983,221,"7858 ORACLE PLACE, POTOMAC, MD, 20854","Match","Exact","7858 ORACLE PL, POTOMAC, MD, 20854",62101647,"R"
290722,"7858 VALLEYVIEW DR","YPSILANTI","MI",48197,42.212228065,-83.603890868,222,"7858 VALLEYVIEW DR, YPSILANTI, MI, 48197","Match","Exact","7858 VALLEYVIEW DR, YPSILANTI, MI, 48197",26043228,"L"
290723,"7859 BOBOLINK DRIVE","CINCINNATI","OH",45224,39.213139842,-84.5356593129999,223,"7859 BOBOLINK DRIVE, CINCINNATI, OH, 45224","Match","Exact","7859 BOBOLINK DR, CINCINNATI, OH, 45224",103921195,"L"
290724,"7859 BROADWAY AVENUE","LEMON GROVE","CA",91945,32.7427153890001,-117.029319432,224,"7859 BROADWAY AVENUE, LEMON GROVE, CA, 91945","Match","Non_Exact","7859 BROADWAY, LEMON GROVE, CA, 91945",195359517,"R"
290725,"7859 DOGUE INDIAN CIR","LORTON","VA",22079,38.695151524,-77.215045015,225,"7859 DOGUE INDIAN CIR, LORTON, VA, 22079","Match","Exact","7859 DOGUE INDIAN CIR, LORTON, VA, 22079",619523202,"L"
290726,"7859 E PASEO HERMOSO","PRESCOTT VALLEY","AZ",86314,34.6068170410001,-112.328020897,226,"7859 E PASEO HERMOSO, PRESCOTT VALLEY, AZ, 86314","Match","Non_Exact","7859 E PSO HERMOSA, PRESCOTT VALLEY, AZ, 86314",159460622,"R"
290727,"7859 GLADWATER RD","PEYTON","CO",80831,38.9471757630001,-104.595541562,227,"7859 GLADWATER RD, PEYTON, CO, 80831","Match","Exact","7859 GLADWATER RD, PEYTON, CO, 80831",105572741,"L"
290728,"7859 S ASHLAND","CHICAGO","IL",60620,41.7508539040001,-87.6634424009999,228,"7859 S ASHLAND, CHICAGO, IL, 60620","Match","Non_Exact","7859 S ASHLAND AVE, CHICAGO, IL, 60620",604997117,"L"
290729,"7859 SABER TOOTH ST","LAS VEGAS","NV",89149,36.304357011,-115.296212352,229,"7859 SABER TOOTH ST, LAS VEGAS, NV, 89149","Match","Exact","7859 SABER TOOTH ST, LAS VEGAS, NV, 89149",650879636,"L"
290730,"7859 SITIO COCO","CARLSBAD","CA",92009,33.077811458,-117.256097837,230,"7859 SITIO COCO, CARLSBAD, CA, 92009","Match","Exact","7859 SITIO COCO, CARLSBAD, CA, 92009",195451564,"L"
290731,"7859-S-ASHLAND AVE","CHICAGO","IL",60624,NA,NA,231,"7859-S-ASHLAND AVE, CHICAGO, IL, 60624","No_Match",NA,NA,NA,NA
290732,"78590 HIGHWAY 37","PENDLETON","OR",97801,45.810539851,-118.82015084,232,"78590 HIGHWAY 37, PENDLETON, OR, 97801","Match","Exact","78590 HWY 37, PENDLETON, OR, 97801",170429451,"L"
290733,"786 AMSTERDAM AVENUE APT 2S","NEW YORK","NY",10025,40.7956541460001,-73.9692079719999,233,"786 AMSTERDAM AVENUE APT 2S, NEW YORK, NY, 10025","Match","Exact","786 AMSTERDAM AVE, NEW YORK, NY, 10025",650072227,"L"
290734,"786 ASPEN EAST DRIVE","LAYTON","UT",84041,41.073009251,-111.951672018,234,"786 ASPEN EAST DRIVE, LAYTON, UT, 84041","Match","Exact","786 ASPEN EAST DR, LAYTON, UT, 84041",645284118,"R"
290735,"786 BEAVER RUN TRACE","MCDONOUGH","GA",30253,33.446742934,-84.1647318829999,235,"786 BEAVER RUN TRACE, MCDONOUGH, GA, 30253","Match","Exact","786 BEAVER RUN TRCE, MCDONOUGH, GA, 30253",23199384,"L"
290736,"786 CHERRY HILLS CT","LAS VEGAS","NV",89148,36.0337258480001,-115.290329637,236,"786 CHERRY HILLS CT, LAS VEGAS, NV, 89148","Match","Exact","786 CHERRY HILLS CT, LAS VEGAS, NV, 89148",650743522,"L"
290737,"786 CLEMONS ROAD","FRANKFORT","NY",13340,43.007424637,-75.114050933,237,"786 CLEMONS ROAD, FRANKFORT, NY, 13340","Match","Exact","786 CLEMONS RD, FRANKFORT, NY, 13340",640444064,"R"
290738,"786 CORNELIA DR","HUNTSVILLE","AL",35802,34.650973374,-86.54430056,238,"786 CORNELIA DR, HUNTSVILLE, AL, 35802","Match","Non_Exact","786 CORNELIA DR SE, HUNTSVILLE, AL, 35802",58132796,"L"
290739,"786 DILL AVENUE","ATLANTA","GA",30310,33.718287333,-84.413625688,239,"786 DILL AVENUE, ATLANTA, GA, 30310","Match","Non_Exact","786 DILL AVE SW, ATLANTA, GA, 30310",17345434,"L"
290740,"786 FRANKLIN AVE  1R","BROOKLYN","NY",11238,40.6716697000001,-73.9576156319999,240,"786 FRANKLIN AVE  1R, BROOKLYN, NY, 11238","Match","Exact","786 FRANKLIN AVE, BROOKLYN, NY, 11238",59079340,"R"
290741,"786 HENRIETTA ST","BIRMINGHAM","MI",48009,42.5410754270001,-83.21587191,241,"786 HENRIETTA ST, BIRMINGHAM, MI, 48009","Match","Exact","786 HENRIETTA ST, BIRMINGHAM, MI, 48009",69735386,"R"
290742,"786 INCLINATION DRIVE","WESTMINSTER","MD",21157,39.553746351,-77.0221469109999,242,"786 INCLINATION DRIVE, WESTMINSTER, MD, 21157","Match","Exact","786 INCLINATION DR, WESTMINSTER, MD, 21157",61768188,"L"
290743,"786 INTERLACHEN DRAW","WOODBURY","MN",55125,44.937428482,-92.92166551,243,"786 INTERLACHEN DRAW, WOODBURY, MN, 55125","Match","Exact","786 INTERLACHEN DRAW, WOODBURY, MN, 55125",97807238,"L"
290744,"786 LOIS AVE","NEWBURY PARK","CA",91320,NA,NA,244,"786 LOIS AVE, NEWBURY PARK, CA, 91320","Tie",NA,NA,NA,NA
290745,"786 LONGMEADOW DRIVE","CAROL STREAM","IL",60188,41.924394179,-88.149657351,245,"786 LONGMEADOW DRIVE, CAROL STREAM, IL, 60188","Match","Exact","786 LONGMEADOW DR, CAROL STREAM, IL, 60188",639892149,"L"
290746,"786 MCCOOL RD 4","VALPARAISO","IN",46385,41.548739278,-87.143429383,246,"786 MCCOOL RD 4, VALPARAISO, IN, 46385","Match","Exact","786 MCCOOL RD, VALPARAISO, IN, 46385",119911467,"R"
290747,"786 NW STEPHEN FOSTER DR","WHITE SPRINGS","FL",32096,30.3188586530001,-82.753845658,247,"786 NW STEPHEN FOSTER DR, WHITE SPRINGS, FL, 32096","Match","Exact","786 STEPHEN FOSTER DR, WHITE SPRINGS, FL, 32096",5153590,"R"
290748,"786 S TIBURON AVE","MERIDIAN","ID",83642,43.598121742,-116.370147194,248,"786 S TIBURON AVE, MERIDIAN, ID, 83642","Match","Exact","786 S TIBURON AVE, MERIDIAN, ID, 83642",117937095,"L"
290749,"786 SACKMAN STREET","BROOKLYN","NY",11212,40.658215398,-73.9019684149999,249,"786 SACKMAN STREET, BROOKLYN, NY, 11212","Match","Exact","786 SACKMAN ST, BROOKLYN, NY, 11212",59084820,"R"
290750,"786 SILVERTHORNE CIRCLE","DOUGLASVILLE","GA",30134,33.8034415280001,-84.8261991099999,250,"786 SILVERTHORNE CIRCLE, DOUGLASVILLE, GA, 30134","Match","Exact","786 SILVERTHORNE CIR, DOUGLASVILLE, GA, 30134",17742282,"R"
290751,"786 SPYGLASS BLVD","FORSYTH","IL",62535,39.9268328580001,-88.97105385,251,"786 SPYGLASS BLVD, FORSYTH, IL, 62535","Match","Exact","786 SPYGLASS BLVD, FORSYTH, IL, 62535",610722285,"R"
290752,"786 STONY BROOK RD","ELMIRA","NY",14905,42.090583672,-76.8497754059999,252,"786 STONY BROOK RD, ELMIRA, NY, 14905","Match","Exact","786 STONY BROOK RD, ELMIRA, NY, 14905",18554925,"R"
290753,"786 TOBACCO TRL","SOPERTON","GA",30457,32.4132106440001,-82.4520454359999,253,"786 TOBACCO TRL, SOPERTON, GA, 30457","Match","Exact","786 TOBACCO TRL, SOPERTON, GA, 30457",625654882,"L"
290754,"786 VIA DONTE","NEWBURY PARK","CA",91320,NA,NA,254,"786 VIA DONTE, NEWBURY PARK, CA, 91320","No_Match",NA,NA,NA,NA
290755,"786 WESLEY CHAPEL ROAD","LAWRENCEBURG","TN",38464,35.2048232240001,-87.2782095379999,255,"786 WESLEY CHAPEL ROAD, LAWRENCEBURG, TN, 38464","Match","Exact","786 WESLEY CHAPEL RD, LAWRENCEBURG, TN, 38464",608431310,"R"
290756,"786 WINTER AVE","UNIONDALE","NY",11553,40.6921848150001,-73.590875597,256,"786 WINTER AVE, UNIONDALE, NY, 11553","Match","Exact","786 WINTER AVE, UNIONDALE, NY, 11553",147630426,"R"
290757,"786","EDMOND","OK",73083,NA,NA,257,"786, EDMOND, OK, 73083","No_Match",NA,NA,NA,NA
290758,"7860  N VILLAGE AVE","ORO VALLEY","AZ",85704,32.3495306240001,-110.971598746,258,"7860  N VILLAGE AVE, ORO VALLEY, AZ, 85704","Match","Exact","7860 N VILLAGE AVE, ORO VALLEY, AZ, 85704",121165435,"R"
290759,"7860 BEECHTREE LN","WEST DES MOINES","IA",50266,41.570530567,-93.815905829,259,"7860 BEECHTREE LN, WEST DES MOINES, IA, 50266","Match","Exact","7860 BEECHTREE LN, WEST DES MOINES, IA, 50266",649917869,"R"
290760,"7860 BEVELHYMER RD","NEW ALBANY","OH",43054,40.115764551,-82.791613319,260,"7860 BEVELHYMER RD, NEW ALBANY, OH, 43054","Match","Exact","7860 BEVELHYMER RD, NEW ALBANY, OH, 43054",218664359,"R"
290761,"7860 CAMINO REAL - NUMBER L","MIAMI","FL",33143,NA,NA,261,"7860 CAMINO REAL - NUMBER L, MIAMI, FL, 33143","No_Match",NA,NA,NA,NA
290762,"7860 PETERS ROAD SUITE F107","PLANTATION","FL",33324,26.105380252,-80.2533844129999,262,"7860 PETERS ROAD SUITE F107, PLANTATION, FL, 33324","Match","Exact","7860 PETERS RD, PLANTATION, FL, 33324",114795028,"R"
290763,"7860 SE 32ND ROAD","SAINT JOSEPH","MO",64507,NA,NA,263,"7860 SE 32ND ROAD, SAINT JOSEPH, MO, 64507","No_Match",NA,NA,NA,NA
290764,"7860 SILVER CREEK RD","DAWSONVILLE","GA",30534,34.325526,-84.084015139,264,"7860 SILVER CREEK RD, DAWSONVILLE, GA, 30534","Match","Exact","7860 SILVER CREEK RD, DAWSONVILLE, GA, 30534",618695997,"R"
290765,"7860 TANIAS COURT","APTOS","CA",95003,36.9800116600001,-121.905622284,265,"7860 TANIAS COURT, APTOS, CA, 95003","Match","Exact","7860 TANIAS CT, APTOS, CA, 95003",125533711,"R"
290766,"7860 W FUQUA","MISSOURI CITY","TX",77489,29.601369827,-95.5051148859999,266,"7860 W FUQUA, MISSOURI CITY, TX, 77489","Match","Non_Exact","7860 W FUQUA DR, MISSOURI CITY, TX, 77489",227757051,"L"
290767,"7861 BELLE POINT DR","GREENBELT","MD",20770,38.9972054950001,-76.889767218,267,"7861 BELLE POINT DR, GREENBELT, MD, 20770","Match","Exact","7861 BELLE POINT DR, GREENBELT, MD, 20770",76349257,"R"
290768,"7861 PADDOCKWAY","BALTIMORE","MD",21244,NA,NA,268,"7861 PADDOCKWAY, BALTIMORE, MD, 21244","No_Match",NA,NA,NA,NA
290769,"7862 W IRLO BRONSON MEM HWY SUI 761","KISSIMMEE","FL",34747,28.3432246150001,-81.600747336,269,"7862 W IRLO BRONSON MEM HWY SUI 761, KISSIMMEE, FL, 34747","Match","Non_Exact","7862 W IRLO BRONSON MEMORIAL HWY, KISSIMMEE, FL, 34747",607064229,"R"
290770,"7862 WINDING WAY-814","FAIR OAKS","CA",95628,38.644705307,-121.275240269,270,"7862 WINDING WAY-814, FAIR OAKS, CA, 95628","Match","Non_Exact","7862 WINDING WAY, FAIR OAKS, CA, 95628",631759317,"R"
290771,"7863 GRIBBLE ST","SAN DIEGO","CA",92114,32.703218496,-117.031749933,271,"7863 GRIBBLE ST, SAN DIEGO, CA, 92114","Match","Exact","7863 GRIBBLE ST, SAN DIEGO, CA, 92114",195361039,"R"
290772,"7863 LUMBER JACK DRIVE","HOUSTON","TX",77040,29.8860844450001,-95.509311687,272,"7863 LUMBER JACK DRIVE, HOUSTON, TX, 77040","Match","Exact","7863 LUMBER JACK DR, HOUSTON, TX, 77040",96024896,"R"
290773,"7863","CINCINNATI","OH",45247,NA,NA,273,"7863, CINCINNATI, OH, 45247","No_Match",NA,NA,NA,NA
290774,"7864 BRENTWOOD COVE","SOUTHAVEN","MS",38671,34.9751378180001,-90.0306334489999,274,"7864 BRENTWOOD COVE, SOUTHAVEN, MS, 38671","Match","Exact","7864 BRENTWOOD COVE, SOUTHAVEN, MS, 38671",91824013,"R"
290775,"7864 DALLAS STREET APT 108","NORFOLK","VA",23505,36.916868429,-76.258866434,275,"7864 DALLAS STREET APT 108, NORFOLK, VA, 23505","Match","Exact","7864 DALLAS ST, NORFOLK, VA, 23505",122144865,"R"
290776,"7864 OLD TARLTON PIKE","CIRCLEVILLE","OH",43113,39.5856414560001,-82.8819281199999,276,"7864 OLD TARLTON PIKE, CIRCLEVILLE, OH, 43113","Match","Exact","7864 OLD TARLTON PIKE, CIRCLEVILLE, OH, 43113",37451956,"L"
290777,"7864 S KEDVALE","CHICAGO","IL",60652,41.750638333,-87.725270807,277,"7864 S KEDVALE, CHICAGO, IL, 60652","Match","Non_Exact","7864 S KEDVALE AVE, CHICAGO, IL, 60652",111817008,"R"
290778,"7865 E MISSISSIPPI AVE APT 601","DENVER","CO",80247,39.6965819070001,-104.896875559,278,"7865 E MISSISSIPPI AVE APT 601, DENVER, CO, 80247","Match","Non_Exact","7865 E MISSISSIPPI AVE, DENVER, CO, 80247",636077329,"L"
290779,"7865 GOLDEN PINE CIRCLE","SEVERN","MD",21144,39.139423912,-76.705497173,279,"7865 GOLDEN PINE CIRCLE, SEVERN, MD, 21144","Match","Exact","7865 GOLDEN PINE CIR, SEVERN, MD, 21144",68205859,"R"
290780,"7865 GREEN BAY ROAD","KENOSHA","WI",53142,42.56188417,-87.888660782,280,"7865 GREEN BAY ROAD, KENOSHA, WI, 53142","Match","Exact","7865 GREEN BAY RD, KENOSHA, WI, 53142",618146563,"L"
290781,"7865 KAY STREET","FRANKLIN","OH",45005,39.573156381,-84.3430688889999,281,"7865 KAY STREET, FRANKLIN, OH, 45005","Match","Exact","7865 KAY ST, FRANKLIN, OH, 45005",159017159,"L"
290782,"7865 WINTERBOURNE DR","MONCLOVA","OH",43542,41.552180365,-83.729757284,282,"7865 WINTERBOURNE DR, MONCLOVA, OH, 43542","Match","Exact","7865 WINTERBOURNE DR, MONCLOVA, OH, 43542",619729865,"L"
290783,"7866 74TH ST S","COTTAGE GROVE","MN",55016,44.843163379,-92.946651549,283,"7866 74TH ST S, COTTAGE GROVE, MN, 55016","Match","Exact","7866 74TH ST S, COTTAGE GROVE, MN, 55016",97786697,"L"
290784,"7866","SPRINGFIELD","OR",97475,NA,NA,284,"7866, SPRINGFIELD, OR, 97475","No_Match",NA,NA,NA,NA
290785,"7867 MERCER PIKE","MEADVILLE","PA",16335,41.572227366,-80.1560695269999,285,"7867 MERCER PIKE, MEADVILLE, PA, 16335","Match","Exact","7867 MERCER PIKE, MEADVILLE, PA, 16335",98578739,"L"
290786,"7867 S 83RD STREET","FRANKLIN","WI",53132,42.9019854970001,-88.018854064,286,"7867 S 83RD STREET, FRANKLIN, WI, 53132","Match","Exact","7867 S 83RD ST, FRANKLIN, WI, 53132",77750321,"L"
290787,"7868 CR 140 SUITE B","FINDLAY","OH",45840,41.0531891580001,-83.6885063239999,287,"7868 CR 140 SUITE B, FINDLAY, OH, 45840","Match","Non_Exact","7868 CO RD 140, FINDLAY, OH, 45840",622210926,"L"
290788,"7868 HOLCOMB ROAD","CLARKSTON","MI",48348,42.7519857890001,-83.445528539,288,"7868 HOLCOMB ROAD, CLARKSTON, MI, 48348","Match","Exact","7868 HOLCOMB RD, CLARKSTON, MI, 48348",69798422,"R"
290789,"7868 REX HILL TRAIL","ORLANDO","FL",32818,28.608101629,-81.493391188,289,"7868 REX HILL TRAIL, ORLANDO, FL, 32818","Match","Exact","7868 REX HILL TRL, ORLANDO, FL, 32818",611248814,"L"
290790,"7868 VISTA RIDGE DRIVE","CITRUS HEIGHTS","CA",95610,38.69964925,-121.273046327,290,"7868 VISTA RIDGE DRIVE, CITRUS HEIGHTS, CA, 95610","Match","Non_Exact","7868 VISTARIDGE RD, CITRUS HEIGHTS, CA, 95610",133344297,"R"
290791,"7868 WAGONWOOD PL","COLORADO SPRINGS","CO",80908,38.945569973,-104.685909083,291,"7868 WAGONWOOD PL, COLORADO SPRINGS, CO, 80908","Match","Exact","7868 WAGONWOOD PL, COLORADO SPRINGS, CO, 80908",643508785,"R"
290792,"7868 WINDY WILLOW RD","MEMPHIS","TN",38125,35.016854568,-89.801207263,292,"7868 WINDY WILLOW RD, MEMPHIS, TN, 38125","Match","Exact","7868 WINDY WILLOW RD, MEMPHIS, TN, 38125",618746648,"L"
290793,"7869 M COBBLEROCK ROAD","LAKE POINT","UT",84074,40.6720247650001,-112.256365022,293,"7869 M COBBLEROCK ROAD, LAKE POINT, UT, 84074","Match","Non_Exact","7869 N COBBLEROCK RD, LAKE POINT, UT, 84074",647291564,"R"
290794,"7869 NE DAY ROAD W SUITE 206","BAINBRIDGE ISLAND","WA",98110,47.6794525770001,-122.545266139,294,"7869 NE DAY ROAD W SUITE 206, BAINBRIDGE ISLAND, WA, 98110","Match","Non_Exact","7869 NE DAY RD W, BAINBRIDGE ISLAND, WA, 98110",649207276,"L"
290795,"7869 S VALENTIA STREET","CENTENNIAL","CO",80112,39.57392294,-104.893833193,295,"7869 S VALENTIA STREET, CENTENNIAL, CO, 80112","Match","Exact","7869 S VALENTIA ST, CENTENNIAL, CO, 80112",177347650,"R"
290796,"7869 SILSBY ROAD","ROSCOMMON","MI",48653,44.5099489680001,-84.453228953,296,"7869 SILSBY ROAD, ROSCOMMON, MI, 48653","Match","Exact","7869 SILSBY RD, ROSCOMMON, MI, 48653",174469155,"R"
290797,"7869 WASHINGTON AVE","SEBASTOPOL","CA",95472,38.400110596,-122.835389023,297,"7869 WASHINGTON AVE, SEBASTOPOL, CA, 95472","Match","Exact","7869 WASHINGTON AVE, SEBASTOPOL, CA, 95472",67530139,"L"
290798,"787 AKINS ROAD","CHICKAMAUGA","GA",30707,34.7554472090001,-85.4001933549999,298,"787 AKINS ROAD, CHICKAMAUGA, GA, 30707","Match","Exact","787 AKINS RD, CHICKAMAUGA, GA, 30707",636155350,"R"
290799,"787 BRAMBLE COURT","WALNUT CREEK","CA",94598,37.915861255,-122.001241228,299,"787 BRAMBLE COURT, WALNUT CREEK, CA, 94598","Match","Exact","787 BRAMBLE CT, WALNUT CREEK, CA, 94598",192059467,"R"
290800,"787 CEDARHILL DR","CINCINNATI","OH",45240,39.3003549000001,-84.505173004,300,"787 CEDARHILL DR, CINCINNATI, OH, 45240","Match","Exact","787 CEDARHILL DR, CINCINNATI, OH, 45240",103943547,"L"
290801,"787 CHALET DRIVE","WOODBRIDGE","NJ",7095,40.5688788580001,-74.2788764319999,301,"787 CHALET DRIVE, WOODBRIDGE, NJ, 7095","Match","Exact","787 CHALET DR, WOODBRIDGE, NJ, 07095",60362163,"L"
290802,"787 FEATHERBED LANE","CLARK","NJ",7066,40.6242224860001,-74.3227439509999,302,"787 FEATHERBED LANE, CLARK, NJ, 7066","Match","Exact","787 FEATHERBED LN, CLARK, NJ, 07066",60585328,"R"
290803,"787 LAFAYETTE ROAD","MEDINA","OH",44256,41.1277340560001,-81.8832939769999,303,"787 LAFAYETTE ROAD, MEDINA, OH, 44256","Match","Exact","787 LAFAYETTE RD, MEDINA, OH, 44256",58678397,"L"
290804,"787 MATTNER COURT","RIVER VALE","NJ",7675,40.997330321,-73.992907488,304,"787 MATTNER COURT, RIVER VALE, NJ, 7675","Match","Exact","787 MATTNER CT, RIVER VALE, NJ, 07675",64369488,"L"
290805,"787 N 14TH STREET","SAN JOSE","CA",95112,37.3572273120001,-121.888146595,305,"787 N 14TH STREET, SAN JOSE, CA, 95112","Match","Exact","787 N 14TH ST, SAN JOSE, CA, 95112",122907214,"L"
290806,"787 N PALM CANYON RD","PALM SPRINGS","CA",92262,33.833821637,-116.546766043,306,"787 N PALM CANYON RD, PALM SPRINGS, CA, 92262","Match","Non_Exact","787 N PALM CANYON DR, PALM SPRINGS, CA, 92262",194761465,"R"
290807,"787 NORTH SHORE ROAD","LAKE OSWEGO","OR",97034,45.4152535090001,-122.6727005,307,"787 NORTH SHORE ROAD, LAKE OSWEGO, OR, 97034","Match","Exact","787 N SHORE RD, LAKE OSWEGO, OR, 97034",157912247,"R"
290808,"787 RAGGED RIDGE RD","FRANKFORT","OH",45628,39.408152628,-83.268134935,308,"787 RAGGED RIDGE RD, FRANKFORT, OH, 45628","Match","Exact","787 RAGGED RIDGE RD, FRANKFORT, OH, 45628",37486300,"R"
290809,"787 RIVERS EDGE PARKWAY","ROANOKE RAPIDS","NC",27870,36.450473028,-77.6360028559999,309,"787 RIVERS EDGE PARKWAY, ROANOKE RAPIDS, NC, 27870","Match","Exact","787 RIVERS EDGE PKWY, ROANOKE RAPIDS, NC, 27870",617064592,"R"
290810,"787 ROSEMOUNT RD","OAKLAND","CA",95610,37.8086840080001,-122.237708893,310,"787 ROSEMOUNT RD, OAKLAND, CA, 95610","Match","Non_Exact","787 ROSEMOUNT RD, OAKLAND, CA, 94610",125002277,"R"
290811,"787 SEA STREET","QUINCY","MA",2169,42.2661238320001,-70.969544582,311,"787 SEA STREET, QUINCY, MA, 2169","Match","Exact","787 SEA ST, QUINCY, MA, 02169",87250127,"R"
290812,"787 SPRUCE HILL DR","DECATUR","IL",62521,39.8346966020001,-88.89766188,312,"787 SPRUCE HILL DR, DECATUR, IL, 62521","Match","Exact","787 SPRUCE HILL DR, DECATUR, IL, 62521",20761235,"L"
290813,"787 SW 6 TERR","FLORIDA CITY","FL",33034,25.4412201530001,-80.488155706,313,"787 SW 6 TERR, FLORIDA CITY, FL, 33034","Match","Exact","787 SW 6TH TER, FLORIDA CITY, FL, 33034",115962215,"L"
290814,"787 W COLL ST","NEW BRAUNFELS","TX",78130,29.6942960810001,-98.1268448979999,314,"787 W COLL ST, NEW BRAUNFELS, TX, 78130","Match","Exact","787 W COLL ST, NEW BRAUNFELS, TX, 78130",72246987,"R"
290815,"787 W GRAND BOULEVARD","DETROIT","MI",48216,42.328511742,-83.093298674,315,"787 W GRAND BOULEVARD, DETROIT, MI, 48216","Match","Exact","787 W GRAND BLVD, DETROIT, MI, 48216",95478233,"L"
290816,"787 WINDSOR STREET","ATLANTA","GA",30315,33.7330574650001,-84.3982396759999,316,"787 WINDSOR STREET, ATLANTA, GA, 30315","Match","Non_Exact","787 WINDSOR ST SW, ATLANTA, GA, 30315",639071525,"R"
290817,"787","PRINCETON","KS",66078,NA,NA,317,"787, PRINCETON, KS, 66078","No_Match",NA,NA,NA,NA
290818,"7870 ANSELMO LANE","BATON ROUGE","LA",70810,30.3929954760001,-91.100898935,318,"7870 ANSELMO LANE, BATON ROUGE, LA, 70810","Match","Exact","7870 ANSELMO LN, BATON ROUGE, LA, 70810",643668707,"R"
290819,"7870 AUSTIN CT","PLAINFIELD","IN",46168,39.6706905940001,-86.382943701,319,"7870 AUSTIN CT, PLAINFIELD, IN, 46168","Match","Exact","7870 AUSTIN CT, PLAINFIELD, IN, 46168",89208687,"L"
290820,"7870 GABLE DRIVE","DOUGLASVILLE","GA",30135,33.6017088080001,-84.834200601,320,"7870 GABLE DRIVE, DOUGLASVILLE, GA, 30135","Match","Exact","7870 GABLE DR, DOUGLASVILLE, GA, 30135",619852014,"L"
290821,"7870 TALON CIRCLE","WESTERVILLE","OH",43082,40.1582900700001,-82.893421804,321,"7870 TALON CIRCLE, WESTERVILLE, OH, 43082","Match","Exact","7870 TALON CIR, WESTERVILLE, OH, 43082",213001842,"R"
290822,"7870 TIDEWATER DR STE 206","NORFOLK","VA",23505,36.9134733000001,-76.254836729,322,"7870 TIDEWATER DR STE 206, NORFOLK, VA, 23505","Match","Exact","7870 TIDEWATER DR, NORFOLK, VA, 23505",122145222,"R"
290823,"7870 WATERLACE DR","FAIRBURN","GA",30213,33.5780444280001,-84.6392163149999,323,"7870 WATERLACE DR, FAIRBURN, GA, 30213","Match","Exact","7870 WATERLACE DR, FAIRBURN, GA, 30213",629549759,"L"
290824,"7871 RIDGE RD","FRAZEYSBURG","OH",43822,40.16683098,-82.241956124,324,"7871 RIDGE RD, FRAZEYSBURG, OH, 43822","Match","Exact","7871 RIDGE RD, FRAZEYSBURG, OH, 43822",61547816,"L"
290825,"7871 W 400 NORTH","MICHIGAN CITY","IN",46360,41.6656850270001,-86.85088001,325,"7871 W 400 NORTH, MICHIGAN CITY, IN, 46360","Match","Exact","7871 W 400 N, MICHIGAN CITY, IN, 46360",604787248,"L"
290826,"7872 E CR 600 S","GREENCASTLE","IN",46135,NA,NA,326,"7872 E CR 600 S, GREENCASTLE, IN, 46135","No_Match",NA,NA,NA,NA
290827,"7872 HIGHWAY A","VERONA","WI",53593,NA,NA,327,"7872 HIGHWAY A, VERONA, WI, 53593","No_Match",NA,NA,NA,NA
290828,"7872 OXBOW LANE","DUBLIN","CA",94568,37.7096363160001,-121.935721365,328,"7872 OXBOW LANE, DUBLIN, CA, 94568","Match","Exact","7872 OXBOW LN, DUBLIN, CA, 94568",125080889,"R"
290829,"7873 ELK DR","NINEVEH","IN",46164,39.3118019020001,-86.1245781169999,329,"7873 ELK DR, NINEVEH, IN, 46164","Match","Exact","7873 ELK DR, NINEVEH, IN, 46164",43524366,"R"
290830,"7873 MOUNT WHITNEY CIR","LAS VEGAS","NV",89145,36.1669360240001,-115.26637575,330,"7873 MOUNT WHITNEY CIR, LAS VEGAS, NV, 89145","Match","Exact","7873 MOUNT WHITNEY CIR, LAS VEGAS, NV, 89145",201918886,"R"
290831,"7873 SCOTLAND DRIVE","POTOMAC","MD",20854,39.0311624550001,-77.16094538,331,"7873 SCOTLAND DRIVE, POTOMAC, MD, 20854","Match","Exact","7873 SCOTLAND DR, POTOMAC, MD, 20854",62105276,"L"
290832,"7874 DEEP RUN - UNIT 9910","BLOOMFIELD HILLS","MI",48301,NA,NA,332,"7874 DEEP RUN - UNIT 9910, BLOOMFIELD HILLS, MI, 48301","No_Match",NA,NA,NA,NA
290833,"7874 S CORONET CT APT D","NEW ORLEANS","LA",70126,NA,NA,333,"7874 S CORONET CT APT D, NEW ORLEANS, LA, 70126","Tie",NA,NA,NA,NA
290834,"7874 WHITEHALL RD","WHITEHALL","MI",49461,43.400295133,-86.308568706,334,"7874 WHITEHALL RD, WHITEHALL, MI, 49461","Match","Exact","7874 WHITEHALL RD, WHITEHALL, MI, 49461",77644417,"R"
290835,"7874","PORTLAND","ME",4112,NA,NA,335,"7874, PORTLAND, ME, 4112","No_Match",NA,NA,NA,NA
290836,"78745 VILLETA DR","LA QUINTA","CA",92253,33.7277453180001,-116.290698733,336,"78745 VILLETA DR, LA QUINTA, CA, 92253","Match","Exact","78745 VILLETA DR, LA QUINTA, CA, 92253",195042693,"R"
290837,"7875 CHASE MEADOWS DR E","JACKSONVILLE","FL",32256,30.228405642,-81.516505998,337,"7875 CHASE MEADOWS DR E, JACKSONVILLE, FL, 32256","Match","Exact","7875 CHASE MEADOWS DR E, JACKSONVILLE, FL, 32256",83963367,"L"
290838,"7875 E BRAMBLE BERRY LANE","PRESCOTT VALLEY","AZ",86315,34.648917458,-112.326612092,338,"7875 E BRAMBLE BERRY LANE, PRESCOTT VALLEY, AZ, 86315","Match","Exact","7875 BRAMBLE BERRY LN, PRESCOTT VALLEY, AZ, 86315",159537615,"L"
290839,"7875 HIGHLAND VILLAGE PL  B102-233","SAN DIEGO","CA",92129,32.9621742840001,-117.153741866,339,"7875 HIGHLAND VILLAGE PL  B102-233, SAN DIEGO, CA, 92129","Match","Non_Exact","7875 HIGHLANDS VILLAGE PL, SAN DIEGO, CA, 92129",645503315,"R"
290840,"7875 HIGHLAND VILLAGE PL B102-220","SAN DIEGO","CA",92129,32.9621742840001,-117.153741866,340,"7875 HIGHLAND VILLAGE PL B102-220, SAN DIEGO, CA, 92129","Match","Non_Exact","7875 HIGHLANDS VILLAGE PL, SAN DIEGO, CA, 92129",645503315,"R"
290841,"7875 HIGHLAND VILLAGE PL STE B102","SAN DIEGO","CA",92129,32.9621742840001,-117.153741866,341,"7875 HIGHLAND VILLAGE PL STE B102, SAN DIEGO, CA, 92129","Match","Non_Exact","7875 HIGHLANDS VILLAGE PL, SAN DIEGO, CA, 92129",645503315,"R"
290842,"7875 HIGHLANDS VILLAGE PL  B102-215","SAN DIEGO","CA",92129,32.9621742840001,-117.153741866,342,"7875 HIGHLANDS VILLAGE PL  B102-215, SAN DIEGO, CA, 92129","Match","Exact","7875 HIGHLANDS VILLAGE PL, SAN DIEGO, CA, 92129",645503315,"R"
290843,"7875 NW 57TH ST BOX 26593","TAMARAC","FL",33320,NA,NA,343,"7875 NW 57TH ST BOX 26593, TAMARAC, FL, 33320","No_Match",NA,NA,NA,NA
290844,"7875 NW 57TH STREET UNIT 26482","TAMARAC","FL",33320,NA,NA,344,"7875 NW 57TH STREET UNIT 26482, TAMARAC, FL, 33320","No_Match",NA,NA,NA,NA
290845,"7875 SW 104 STREET STE 202-E","MIAMI","FL",33156,25.6738270010001,-80.322217253,345,"7875 SW 104 STREET STE 202-E, MIAMI, FL, 33156","Match","Non_Exact","7875 SW 104TH ST, MIAMI, FL, 33156",640558037,"R"
290846,"7875 ZINNIA STREET","ARVADA","CO",80005,39.8384001860001,-105.146436278,346,"7875 ZINNIA STREET, ARVADA, CO, 80005","Match","Exact","7875 ZINNIA ST, ARVADA, CO, 80005",177762784,"L"
290847,"7876 E 34TH STREET","TUCSON","AZ",85710,32.194090766,-110.82467443,347,"7876 E 34TH STREET, TUCSON, AZ, 85710","Match","Exact","7876 E 34TH ST, TUCSON, AZ, 85710",618211576,"R"
290848,"7876 LANTANA CREEK ROAD","LARGO","FL",33777,27.8599572260001,-82.7485244809999,348,"7876 LANTANA CREEK ROAD, LARGO, FL, 33777","Match","Exact","7876 LANTANA CREEK RD, LARGO, FL, 33777",124755355,"R"
290849,"7876 SCENIC OAKS RD","KNOXVILLE","TN",37938,36.091813039,-83.959093356,349,"7876 SCENIC OAKS RD, KNOXVILLE, TN, 37938","Match","Exact","7876 SCENIC OAKS RD, KNOXVILLE, TN, 37938",42665486,"R"
290850,"7876 SHEPHERDS GLEN","KALAMAZOO","MI",49009,NA,NA,350,"7876 SHEPHERDS GLEN, KALAMAZOO, MI, 49009","Tie",NA,NA,NA,NA
290851,"7876 SOUTH BRIDGE VIEW DRIVE","FRANKLIN","WI",53132,42.9021488650001,-87.965866224,351,"7876 SOUTH BRIDGE VIEW DRIVE, FRANKLIN, WI, 53132","Match","Exact","7876 S BRIDGE VIEW DR, FRANKLIN, WI, 53132",612191946,"L"
290852,"7877 COYAN COURT","POWELL","OH",43065,40.185646187,-83.076443269,352,"7877 COYAN COURT, POWELL, OH, 43065","Match","Exact","7877 COYAN CT, POWELL, OH, 43065",213001852,"L"
290853,"7877 PORCELLO WALK","SACRAMENTO","CA",95823,38.4711685520001,-121.45082372,353,"7877 PORCELLO WALK, SACRAMENTO, CA, 95823","Match","Exact","7877 PORCELLO WALK, SACRAMENTO, CA, 95823",618068063,"L"
290854,"7877-203 AMERICANA CIRCLE","GLEN BURNIE","MD",21060,39.139093589,-76.59445923,354,"7877-203 AMERICANA CIRCLE, GLEN BURNIE, MD, 21060","Match","Exact","7877 AMERICANA CIR, GLEN BURNIE, MD, 21060",68195066,"L"
290855,"7878 BRIGHTON ROAD","BRIGHTON","MI",48116,42.5291893930001,-83.7955596369999,355,"7878 BRIGHTON ROAD, BRIGHTON, MI, 48116","Match","Exact","7878 BRIGHTON RD, BRIGHTON, MI, 48116",23544613,"R"
290856,"7878 DIAMONDBACK DR","COLLEGE PARK","MD",20742,NA,NA,356,"7878 DIAMONDBACK DR, COLLEGE PARK, MD, 20742","No_Match",NA,NA,NA,NA
290857,"7878 E COUNTY ROAD 100 N","AVON","IN",46123,39.7483106500001,-86.383158243,357,"7878 E COUNTY ROAD 100 N, AVON, IN, 46123","Match","Non_Exact","7878 E CO RD 100 S, AVON, IN, 46123",89215902,"L"
290858,"7878 EAST INDEPENDENCE ST","TULSA","OK",74115,36.166640757,-95.889087326,358,"7878 EAST INDEPENDENCE ST, TULSA, OK, 74115","Match","Exact","7878 E INDEPENDENCE ST, TULSA, OK, 74115",166448011,"R"
290859,"7878 MOHANSIC PARK LN","LITHONIA","GA",30058,33.7288910140001,-84.0698970449999,359,"7878 MOHANSIC PARK LN, LITHONIA, GA, 30058","Match","Exact","7878 MOHANSIC PARK LN, LITHONIA, GA, 30058",23400508,"L"
290860,"7878 OLD REAVES FERRY RD","CONWAY","SC",29526,33.844563168,-78.8718051869999,360,"7878 OLD REAVES FERRY RD, CONWAY, SC, 29526","Match","Exact","7878 OLD REAVES FERRY RD, CONWAY, SC, 29526",631413980,"L"
290861,"7878 ROSWELL ROAD SUITE 1","ATLANTA","GA",30350,33.973897144,-84.356457061,361,"7878 ROSWELL ROAD SUITE 1, ATLANTA, GA, 30350","Match","Exact","7878 ROSWELL RD, ATLANTA, GA, 30350",17417877,"L"
290862,"7879 BLACK WILLOW DRIVE","BLACKLICK","OH",43004,40.0098618540001,-82.802308519,362,"7879 BLACK WILLOW DRIVE, BLACKLICK, OH, 43004","Match","Exact","7879 BLACK WILLOW DR, BLACKLICK, OH, 43004",218670880,"R"
290863,"7879 DUNN RD","PIGEON","MI",48755,43.901410894,-83.2981263779999,363,"7879 DUNN RD, PIGEON, MI, 48755","Match","Exact","7879 DUNN RD, PIGEON, MI, 48755",161254840,"R"
290864,"7879 OLD ELM COURT","ADA","MI",49301,42.9417270370001,-85.473392651,364,"7879 OLD ELM COURT, ADA, MI, 49301","Match","Exact","7879 OLD ELM CT, ADA, MI, 49301",627599409,"L"
290865,"7879 WINTERCRESS LN","SPRINGFIELD","VA",22152,38.7640512840001,-77.214014623,365,"7879 WINTERCRESS LN, SPRINGFIELD, VA, 22152","Match","Exact","7879 WINTERCRESS LN, SPRINGFIELD, VA, 22152",76005381,"R"
290866,"788 110TH AVENUE NE APT N2303","BELLEVUE","WA",98004,47.616237556,-122.193619321,366,"788 110TH AVENUE NE APT N2303, BELLEVUE, WA, 98004","Match","Exact","788 110TH AVE NE, BELLEVUE, WA, 98004",650107962,"R"
290867,"788 ALAPAHA HWY","OCILLA","GA",31744,31.5402368040001,-83.252979317,367,"788 ALAPAHA HWY, OCILLA, GA, 31744","Match","Non_Exact","788 ALAPAHA HWY, OCILLA, GA, 31774",189726274,"R"
290868,"788 ARBRA MOUNTAIN ROAD","BOSTIC","NC",28018,35.4830624620001,-81.8262783009999,368,"788 ARBRA MOUNTAIN ROAD, BOSTIC, NC, 28018","Match","Non_Exact","788 ARBRA MOUNTAIN WAY, BOSTIC, NC, 28018",611360655,"R"
290869,"788 BROTZMAN ROAD","BINGHAMTON","NY",13901,42.2240025680001,-75.896310748,369,"788 BROTZMAN ROAD, BINGHAMTON, NY, 13901","Match","Exact","788 BROTZMAN RD, BINGHAMTON, NY, 13901",46356663,"L"
290870,"788 CENTINO DRIVE D107","SOUTH JORDAN","UT",84095,40.573163134,-111.913342213,370,"788 CENTINO DRIVE D107, SOUTH JORDAN, UT, 84095","Match","Non_Exact","788 W CENTINO DR, SOUTH JORDAN, UT, 84095",641500808,"R"
290871,"788 COLUMBUS AVE 15T","NEW YORK","NY",10025,40.794505004,-73.966328,371,"788 COLUMBUS AVE 15T, NEW YORK, NY, 10025","Match","Exact","788 COLUMBUS AVE, NEW YORK, NY, 10025",650087255,"L"
290872,"788 COLUMBUS AVE","NEW YORK","NY",10025,40.794505004,-73.966328,372,"788 COLUMBUS AVE, NEW YORK, NY, 10025","Match","Exact","788 COLUMBUS AVE, NEW YORK, NY, 10025",650087255,"L"
290873,"788 COTSWOLD WAY","AUBURN","AL",36832,32.6258440840001,-85.5338756519999,373,"788 COTSWOLD WAY, AUBURN, AL, 36832","Match","Exact","788 COTSWOLD WAY, AUBURN, AL, 36832",646763548,"L"
290874,"788 COUNTRY CLUB DRIVE","MORAGA","CA",94556,37.835420265,-122.133671927,374,"788 COUNTRY CLUB DRIVE, MORAGA, CA, 94556","Match","Exact","788 COUNTRY CLUB DR, MORAGA, CA, 94556",607857125,"R"
290875,"788 CROSSLAND DRIVE","GRAYSLAKE","IL",60030,42.354364026,-88.023006988,375,"788 CROSSLAND DRIVE, GRAYSLAKE, IL, 60030","Match","Exact","788 CROSSLAND DR, GRAYSLAKE, IL, 60030",119674323,"L"
290876,"788 FAIRWOOD AVE","COLUMBUS","OH",43205,39.950789818,-82.953445653,376,"788 FAIRWOOD AVE, COLUMBUS, OH, 43205","Match","Exact","788 FAIRWOOD AVE, COLUMBUS, OH, 43205",135582044,"L"
290877,"788 HUCKLEBERRY DRIVE","GERARDSTOWN","NC",25420,NA,NA,377,"788 HUCKLEBERRY DRIVE, GERARDSTOWN, NC, 25420","No_Match",NA,NA,NA,NA
290878,"788 HWY 261 S","PALESTINE","AR",72372,NA,NA,378,"788 HWY 261 S, PALESTINE, AR, 72372","No_Match",NA,NA,NA,NA
290879,"788 MAHOGANY DR","CASSELBERRY","FL",32707,28.68648219,-81.324495337,379,"788 MAHOGANY DR, CASSELBERRY, FL, 32707","Match","Exact","788 MAHOGANY DR, CASSELBERRY, FL, 32707",93780360,"L"
290880,"788 MORGANTON DRIVE","JOHNS CREEK","GA",30024,34.049327121,-84.116522258,380,"788 MORGANTON DRIVE, JOHNS CREEK, GA, 30024","Match","Exact","788 MORGANTON DR, JOHNS CREEK, GA, 30024",627273000,"R"
290881,"788 PITTSBURG AVENUE","WINSTON SALEM","NC",27105,36.1163244970001,-80.252217988,381,"788 PITTSBURG AVENUE, WINSTON SALEM, NC, 27105","Match","Exact","788 PITTSBURG AVE, WINSTON SALEM, NC, 27105",640150331,"L"
290882,"788 RESERVOIR AVE","BRIDGEPORT","CT",6606,41.212238874,-73.191656194,382,"788 RESERVOIR AVE, BRIDGEPORT, CT, 6606","Match","Exact","788 RESERVOIR AVE, BRIDGEPORT, CT, 06606",3223383,"R"
290883,"788 RODEO ROAD","COLUMBIA","LA",71418,32.133731445,-92.054006564,383,"788 RODEO ROAD, COLUMBIA, LA, 71418","Match","Exact","788 RODEO RD, COLUMBIA, LA, 71418",118944953,"L"
290884,"788 SE MEADOWS LOOP","SHERIDAN","OR",97378,45.093670704,-123.390927462,384,"788 SE MEADOWS LOOP, SHERIDAN, OR, 97378","Match","Exact","788 SE MEADOWS LOOP, SHERIDAN, OR, 97378",156510368,"L"
290885,"788 SENECA","VENICE","FL",34293,NA,NA,385,"788 SENECA, VENICE, FL, 34293","No_Match",NA,NA,NA,NA
290886,"788 SW BIRCH STREET","DALLAS","OR",97338,44.915490214,-123.327093257,386,"788 SW BIRCH STREET, DALLAS, OR, 97338","Match","Exact","788 SW BIRCH ST, DALLAS, OR, 97338",155770962,"R"
290887,"788 VISTA SAN JAVIER","SAN DIEGO","CA",92154,32.5808082510001,-117.010887558,387,"788 VISTA SAN JAVIER, SAN DIEGO, CA, 92154","Match","Exact","788 VIS SAN JAVIER, SAN DIEGO, CA, 92154",195758586,"R"
290888,"788 WHISPERING MARSH DRIVE","CHARLESTON","SC",29412,32.74519902,-79.927309173,388,"788 WHISPERING MARSH DRIVE, CHARLESTON, SC, 29412","Match","Exact","788 WHISPERING MARSH DR, CHARLESTON, SC, 29412",108901956,"L"
290889,"7880 BUENA VISTA RD","INDEPENDENCE","OR",97351,44.8197398120001,-123.157314985,389,"7880 BUENA VISTA RD, INDEPENDENCE, OR, 97351","Match","Exact","7880 BUENA VISTA RD, INDEPENDENCE, OR, 97351",155776148,"R"
290890,"7880 CHASE RD","Lima","NY",14485,42.876977851,-77.5762848099999,390,"7880 CHASE RD, Lima, NY, 14485","Match","Exact","7880 CHASE RD, LIMA, NY, 14485",14460766,"R"
290891,"7880 CHASE RD","LIMA","NY",14485,42.876977851,-77.5762848099999,391,"7880 CHASE RD, LIMA, NY, 14485","Match","Exact","7880 CHASE RD, LIMA, NY, 14485",14460766,"R"
290892,"7880 S HOMESTEADER DR","MORRISON","CO",80465,39.5732447030001,-105.247027741,392,"7880 S HOMESTEADER DR, MORRISON, CO, 80465","Match","Exact","7880 S HOMESTEADER DR, MORRISON, CO, 80465",177785664,"L"
290893,"7881 BEACHPOINT CIRCLE D16","HUNTINGTON BEACH","CA",92648,33.695839187,-117.990553531,393,"7881 BEACHPOINT CIRCLE D16, HUNTINGTON BEACH, CA, 92648","Match","Exact","7881 BEACHPOINT CIR, HUNTINGTON BEACH, CA, 92648",624672307,"R"
290894,"7881 COCONUT BLVD","WEST PALM BEACH","FL",33412,26.7935372170001,-80.237162785,394,"7881 COCONUT BLVD, WEST PALM BEACH, FL, 33412","Match","Exact","7881 COCONUT BLVD, WEST PALM BEACH, FL, 33412",115264169,"L"
290895,"7881 COLBURN CULVER ROAD","SANDPOINT","ID",83864,48.3647675600001,-116.439906605,395,"7881 COLBURN CULVER ROAD, SANDPOINT, ID, 83864","Match","Exact","7881 COLBURN CULVER RD, SANDPOINT, ID, 83864",169477645,"R"
290896,"7881 FLIGHT PLACE","LOS ANGELES","CA",90045,33.9660206570001,-118.386734116,396,"7881 FLIGHT PLACE, LOS ANGELES, CA, 90045","Match","Exact","7881 FLIGHT PL, LOS ANGELES, CA, 90045",141579539,"R"
290897,"7881 MACATAWA TRAIL","GAYLORD","MI",48725,44.9455950350001,-84.827005696,397,"7881 MACATAWA TRAIL, GAYLORD, MI, 48725","Match","Non_Exact","7881 MACATAWA TRL, GAYLORD, MI, 49735",647331627,"L"
290898,"7881 SW 141ST STREET","PALMETTO BAY","FL",33158,25.6396774290001,-80.320588121,398,"7881 SW 141ST STREET, PALMETTO BAY, FL, 33158","Match","Exact","7881 SW 141ST ST, PALMETTO BAY, FL, 33158",115986348,"R"
290899,"7881 SW 48 PLACE","MIAMI","FL",33143,25.698737212,-80.272043265,399,"7881 SW 48 PLACE, MIAMI, FL, 33143","Match","Exact","7881 SW 48TH PL, MIAMI, FL, 33143",116019394,"L"
290900,"7881 TRAIN COURT","DUNN LORING","VA",22027,38.8953106280001,-77.2172132489999,400,"7881 TRAIN COURT, DUNN LORING, VA, 22027","Match","Exact","7881 TRAIN CT, DUNN LORING, VA, 22027",636771659,"R"
290901,"7882 E 7500 N","LAPOINT","UT",84039,40.410937484,-109.853479023,401,"7882 E 7500 N, LAPOINT, UT, 84039","Match","Exact","7882 7500 N, LAPOINT, UT, 84039",126144433,"L"
290902,"7882 FM 141","DIME BOX","TX",77853,30.3516591220001,-96.818922695,402,"7882 FM 141, DIME BOX, TX, 77853","Match","Exact","7882 FM 141, DIME BOX, TX, 77853",39144026,"R"
290903,"7882 POND CREEK ST","LAS VEGAS","NV",89139,36.0466262690001,-115.201954026,403,"7882 POND CREEK ST, LAS VEGAS, NV, 89139","Match","Exact","7882 POND CREEK ST, LAS VEGAS, NV, 89139",202002785,"L"
290904,"7882 S CEDAR LOOP DRIVE","OGDEN","UT",84405,41.123439481,-111.925704101,404,"7882 S CEDAR LOOP DRIVE, OGDEN, UT, 84405","Match","Exact","7882 S CEDAR LOOP DR, OGDEN, UT, 84405",229361439,"R"
290905,"7882 US HWY 280","GOODWATER","AL",35072,33.0352137680001,-86.120304608,405,"7882 US HWY 280, GOODWATER, AL, 35072","Match","Exact","7882 US HWY 280, GOODWATER, AL, 35072",98228921,"R"
290906,"7882 W GLASGOW PL","LITTLETON","CO",80128,39.582518023,-105.08529125,406,"7882 W GLASGOW PL, LITTLETON, CO, 80128","Match","Exact","7882 W GLASGOW PL, LITTLETON, CO, 80128",177324354,"L"
290907,"7883 FIESTA LANE","CUPERTINO","CA",95014,37.3109275850001,-122.046745274,407,"7883 FIESTA LANE, CUPERTINO, CA, 95014","Match","Exact","7883 FIESTA LN, CUPERTINO, CA, 95014",122939937,"R"
290908,"7883 N STATE ROAD 39","LIZTON","IN",46149,39.8766697400001,-86.543415739,408,"7883 N STATE ROAD 39, LIZTON, IN, 46149","Match","Non_Exact","7883 S STATE RD 39, LIZTON, IN, 46149",649694831,"R"
290909,"7883 NORTH STATE ROUTE 39","LIZTON","IN",46149,NA,NA,409,"7883 NORTH STATE ROUTE 39, LIZTON, IN, 46149","No_Match",NA,NA,NA,NA
290910,"7884 DAVIS PARKWAY","SOUTHAVEN","MS",38671,34.975791413,-90.014573169,410,"7884 DAVIS PARKWAY, SOUTHAVEN, MS, 38671","Match","Exact","7884 DAVIS PKWY, SOUTHAVEN, MS, 38671",91854369,"R"
290911,"7884 W SAHARA AVE SUITE 110","LAS VEGAS","NV",89117,36.1437300520001,-115.262776023,411,"7884 W SAHARA AVE SUITE 110, LAS VEGAS, NV, 89117","Match","Non_Exact","7884 W SAHARA AVE, LAS VEGAS, NV, 89117",201949127,"R"
290912,"7885 HEM STREET","ALANSON","MI",49706,45.436162161,-84.766897043,412,"7885 HEM STREET, ALANSON, MI, 49706","Match","Exact","7885 HEM ST, ALANSON, MI, 49706",628680146,"L"
290913,"7885 TOWER RD","HILLSBORO","MO",63050,38.333880676,-90.536819784,413,"7885 TOWER RD, HILLSBORO, MO, 63050","Match","Exact","7885 TOWER RD, HILLSBORO, MO, 63050",639161031,"L"
290914,"7885 W ROCHELLE AVE","LAS VEGAS","NV",89147,36.1109125190001,-115.262860321,414,"7885 W ROCHELLE AVE, LAS VEGAS, NV, 89147","Match","Exact","7885 W ROCHELLE AVE, LAS VEGAS, NV, 89147",201978371,"L"
290915,"7885 WEST FLAMINGO ROAD UNIT 2127","LAS VEGAS","NV",89147,36.114670819,-115.26279692,415,"7885 WEST FLAMINGO ROAD UNIT 2127, LAS VEGAS, NV, 89147","Match","Exact","7885 W FLAMINGO RD, LAS VEGAS, NV, 89147",201861694,"L"
290916,"7886 S WHITNER","PARLIER","CA",93648,NA,NA,416,"7886 S WHITNER, PARLIER, CA, 93648","Tie",NA,NA,NA,NA
290917,"7887 BEECHNUT ST","HOUSTON","TX",77074,29.6918139960001,-95.526173638,417,"7887 BEECHNUT ST, HOUSTON, TX, 77074","Match","Exact","7887 BEECHNUT ST, HOUSTON, TX, 77074",96036922,"L"
290918,"7887 E 64TH AVE","COMMERCE CITY","CO",80022,NA,NA,418,"7887 E 64TH AVE, COMMERCE CITY, CO, 80022","No_Match",NA,NA,NA,NA
290919,"7887 HWY 6 SOUTH STE A","HOUSTON","TX",77083,NA,NA,419,"7887 HWY 6 SOUTH STE A, HOUSTON, TX, 77083","No_Match",NA,NA,NA,NA
290920,"7887 N LA CHOLLA BLVD APT 1113","TUCSON","AZ",85741,32.349227114,-111.012774308,420,"7887 N LA CHOLLA BLVD APT 1113, TUCSON, AZ, 85741","Match","Non_Exact","7887 N LA CHOLLA BLVD, TUCSON, AZ, 85741",646160284,"L"
290921,"7887 US HWY 87 NORTH","SAN ANGELO","TX",76901,31.556239465,-100.533390204,421,"7887 US HWY 87 NORTH, SAN ANGELO, TX, 76901","Match","Non_Exact","7887 US HWY 87, SAN ANGELO, TX, 76901",635377430,"L"
290922,"7888 CHILDSDALE AVENUE","ROCKFORD","MI",49341,NA,NA,422,"7888 CHILDSDALE AVENUE, ROCKFORD, MI, 49341","No_Match",NA,NA,NA,NA
290923,"7888 NEW RIGGS ROAD APT 211","HYATTSVILLE","MD",20783,NA,NA,423,"7888 NEW RIGGS ROAD APT 211, HYATTSVILLE, MD, 20783","No_Match",NA,NA,NA,NA
290924,"7889 BLAKELY DRIVE NE","ROCKFORD","MI",49341,43.1057791380001,-85.529944041,424,"7889 BLAKELY DRIVE NE, ROCKFORD, MI, 49341","Match","Exact","7889 BLAKELY DR NE, ROCKFORD, MI, 49341",12467036,"L"
290925,"7889 HWY 190","RAGLEY","LA",70657,30.512881357,-93.197198139,425,"7889 HWY 190, RAGLEY, LA, 70657","Match","Non_Exact","7889 US HWY 190, RAGLEY, LA, 70657",88391510,"L"
290926,"7889 LICHEN DRIVE - 180","CITRUS HEIGHTS","CA",95621,38.7085473820001,-121.311762053,426,"7889 LICHEN DRIVE - 180, CITRUS HEIGHTS, CA, 95621","Match","Exact","7889 LICHEN DR, CITRUS HEIGHTS, CA, 95621",133328484,"L"
290927,"789 BACKHAUS RD","PIPE CREEK","TX",78063,NA,NA,427,"789 BACKHAUS RD, PIPE CREEK, TX, 78063","No_Match",NA,NA,NA,NA
290928,"789 CARTPATH ROAD","NORTH WILKESBORO","NC",28659,36.21192546,-81.150184907,428,"789 CARTPATH ROAD, NORTH WILKESBORO, NC, 28659","Match","Exact","789 CARTPATH RD, N WILKESBORO, NC, 28659",635478793,"L"
290929,"789 CONEY ISLAND AVE FL 2","BROOKLYN","NY",11218,40.6382230720001,-73.968481551,429,"789 CONEY ISLAND AVE FL 2, BROOKLYN, NY, 11218","Match","Exact","789 CONEY ISLAND AVE, BROOKLYN, NY, 11218",59081049,"L"
290930,"789 DEER CROSSING LANE","ORANGE","VA",22960,38.2903820170001,-78.185570201,430,"789 DEER CROSSING LANE, ORANGE, VA, 22960","Match","Exact","789 DEER CROSSING LN, ORANGE, VA, 22960",29589789,"R"
290931,"789 EAST 10TH STREET","LITCHFIELD","MN",55355,45.1371077640001,-94.519853502,431,"789 EAST 10TH STREET, LITCHFIELD, MN, 55355","Match","Exact","789 E 10TH ST, LITCHFIELD, MN, 55355",36985000,"R"
290932,"789 EAST VILLA STREET NO 11","PASADENA","CA",91101,34.154273114,-118.134395121,432,"789 EAST VILLA STREET NO 11, PASADENA, CA, 91101","Match","Non_Exact","789 E VILLA ST, PASADENA, CA, 91101",640416001,"L"
290933,"789 GARRISON DRIVE","SAN BENITO","TX",78586,26.146652858,-97.628609236,433,"789 GARRISON DRIVE, SAN BENITO, TX, 78586","Match","Exact","789 GARRISON DR, SAN BENITO, TX, 78586",89959125,"L"
290934,"789 HAMILTON PARKWAY SUITE L","NOVATO","CA",94949,38.0572321430001,-122.517392232,434,"789 HAMILTON PARKWAY SUITE L, NOVATO, CA, 94949","Match","Exact","789 HAMILTON PKWY, NOVATO, CA, 94949",192762909,"L"
290935,"789 HAMMOND DRIVE","SANDY SPRINGS","GA",30328,33.918952018,-84.3593792789999,435,"789 HAMMOND DRIVE, SANDY SPRINGS, GA, 30328","Match","Non_Exact","789 HAMMOND DR NE, SANDY SPRINGS, GA, 30328",17354890,"R"
290936,"789 HARRISON AVE","CAMPBELL","CA",95008,37.2985213160001,-121.942464146,436,"789 HARRISON AVE, CAMPBELL, CA, 95008","Match","Exact","789 HARRISON AVE, CAMPBELL, CA, 95008",122904901,"L"
290937,"789 HILDEBRAND CIR","FOLSOM","CA",95630,38.671065733,-121.097542449,437,"789 HILDEBRAND CIR, FOLSOM, CA, 95630","Match","Non_Exact","789 HILDENBRAND CIR, FOLSOM, CA, 95630",631768056,"L"
290938,"789 HWY 1207","DEVILLE","LA",71328,31.362919732,-92.179553472,438,"789 HWY 1207, DEVILLE, LA, 71328","Match","Non_Exact","789 STATE RTE 1207, DEVILLE, LA, 71328",11786809,"L"
290939,"789 MANCHESTER CT","PICKERINGTON","OH",43147,39.88118847,-82.7726839969999,439,"789 MANCHESTER CT, PICKERINGTON, OH, 43147","Match","Exact","789 MANCHESTER CT, PICKERINGTON, OH, 43147",37246960,"R"
290940,"789 MERRIMON AVE","ASHEVILLE","NC",28804,35.6259707610001,-82.553713215,440,"789 MERRIMON AVE, ASHEVILLE, NC, 28804","Match","Exact","789 MERRIMON AVE, ASHEVILLE, NC, 28804",36844751,"R"
290941,"789 MILL WIND CT E","WESTERVILLE","OH",43082,40.134100549,-82.9038814629999,441,"789 MILL WIND CT E, WESTERVILLE, OH, 43082","Match","Exact","789 MILL WIND CT E, WESTERVILLE, OH, 43082",24598013,"R"
290942,"789 NATIONAL GUARD ROAD","COLCHESTER","VT",5446,NA,NA,442,"789 NATIONAL GUARD ROAD, COLCHESTER, VT, 5446","No_Match",NA,NA,NA,NA
290943,"789 ROARING BROOK RD","CHESHIRE","CT",6410,41.482268597,-72.9320552949999,443,"789 ROARING BROOK RD, CHESHIRE, CT, 6410","Match","Exact","789 ROARING BROOK RD, CHESHIRE, CT, 06410",3712485,"L"
290944,"789 ROARING BROOK ROAD","CHESHIRE","CT",6410,41.482268597,-72.9320552949999,444,"789 ROARING BROOK ROAD, CHESHIRE, CT, 6410","Match","Exact","789 ROARING BROOK RD, CHESHIRE, CT, 06410",3712485,"L"
290945,"789 STUYVESANT AVE APT D5","IRVINGTON","NJ",7111,40.7210506970001,-74.2420709099999,445,"789 STUYVESANT AVE APT D5, IRVINGTON, NJ, 7111","Match","Exact","789 STUYVESANT AVE, IRVINGTON, NJ, 07111",63463696,"R"
290946,"789 TURNPIKE RD","NORWICH","VT",5055,43.752186018,-72.328492281,446,"789 TURNPIKE RD, NORWICH, VT, 5055","Match","Exact","789 TURNPIKE RD, NORWICH, VT, 05055",139281933,"L"
290947,"789 TURQUOISE TRAIL","ESTES PARK","CO",80517,40.3657199150001,-105.53029423,447,"789 TURQUOISE TRAIL, ESTES PARK, CO, 80517","Match","Exact","789 TURQUOISE TRL, ESTES PARK, CO, 80517",188520630,"L"
290948,"789 W 27TH ST","YUMA","AZ",85364,32.678468133,-114.628668025,448,"789 W 27TH ST, YUMA, AZ, 85364","Match","Exact","789 W 27TH ST, YUMA, AZ, 85364",129668713,"L"
290949,"789 WEST ANN ARBOR TRAIL","PLYMOUTH","MI",48170,42.3697584170001,-83.46923121,449,"789 WEST ANN ARBOR TRAIL, PLYMOUTH, MI, 48170","Match","Exact","789 W ANN ARBOR TRL, PLYMOUTH, MI, 48170",95498460,"L"
290950,"789 WILDCAT WAY","BREA","CA",92821,33.930955639,-117.873934769,450,"789 WILDCAT WAY, BREA, CA, 92821","Match","Exact","789 WILDCAT WAY, BREA, CA, 92821",649771432,"R"
290951,"7890 CESSNA DR","PEYTON","CO",80831,38.9513087930001,-104.569825906,451,"7890 CESSNA DR, PEYTON, CO, 80831","Match","Exact","7890 CESSNA DR, PEYTON, CO, 80831",610692307,"R"
290952,"7890 CLUB DR APT 175","CORDOVA","TN",38016,35.1606779890001,-89.799555906,452,"7890 CLUB DR APT 175, CORDOVA, TN, 38016","Match","Exact","7890 CLUB DR, CORDOVA, TN, 38016",607416440,"R"
290953,"7890 E MCCLAIN DR STE 2","SCOTTSDALE","AZ",85260,33.6284219,-111.910990364,453,"7890 E MCCLAIN DR STE 2, SCOTTSDALE, AZ, 85260","Match","Non_Exact","7890 E MCCLAIN DR, SCOTTSDALE, AZ, 85260",653305357,"L"
290954,"7890 HIGHWAY 355","OWENTON","KY",40359,38.489920442,-84.9640107979999,454,"7890 HIGHWAY 355, OWENTON, KY, 40359","Match","Non_Exact","7890 STATE HWY 355, OWENTON, KY, 40359",642590586,"R"
290955,"7890 KELLY FIELD ROAD","CENTURY","FL",32535,30.9765707060001,-87.2572358309999,455,"7890 KELLY FIELD ROAD, CENTURY, FL, 32535","Match","Exact","7890 KELLY FIELD RD, CENTURY, FL, 32535",93265156,"R"
290956,"7890 LILAC LANE","SIMI VALLEY","CA",93063,34.2618680690001,-118.633330587,456,"7890 LILAC LANE, SIMI VALLEY, CA, 93063","Match","Exact","7890 LILAC LN, SIMI VALLEY, CA, 93063",635642174,"R"
290957,"7890 NAVARRE ROAD SW","MASSILLON","OH",44646,40.7467974690001,-81.502580742,457,"7890 NAVARRE ROAD SW, MASSILLON, OH, 44646","Match","Exact","7890 NAVARRE RD SW, MASSILLON, OH, 44646",649495431,"L"
290958,"7890 NAVARRE ROAD SW","MASSILLON","OH",44664,40.7467974690001,-81.502580742,458,"7890 NAVARRE ROAD SW, MASSILLON, OH, 44664","Match","Non_Exact","7890 NAVARRE RD SW, MASSILLON, OH, 44646",649495431,"L"
290959,"7890 PIPPIN ROAD","CINCINNATI","OH",45239,39.217032546,-84.573277945,459,"7890 PIPPIN ROAD, CINCINNATI, OH, 45239","Match","Exact","7890 PIPPIN RD, CINCINNATI, OH, 45239",103920505,"R"
290960,"7890 VALLAGIO LANE","ENGLEWOOD","CO",80112,39.575997461,-104.87001582,460,"7890 VALLAGIO LANE, ENGLEWOOD, CO, 80112","Match","Exact","7890 VALLAGIO LN, ENGLEWOOD, CO, 80112",645238177,"L"
290961,"78900 AVENUE 50","LA QUINTA","CA",92253,33.684942537,-116.304657417,461,"78900 AVENUE 50, LA QUINTA, CA, 92253","Match","Exact","78900 AVE 50, LA QUINTA, CA, 92253",650033692,"L"
290962,"7891 GARNER ST","LONG BEACH","CA",90808,33.812353779,-118.078330294,462,"7891 GARNER ST, LONG BEACH, CA, 90808","Match","Exact","7891 GARNER ST, LONG BEACH, CA, 90808",141746640,"L"
290963,"7891 NARROW LEAF DRIVE","BLACKLICK","OH",43004,40.0161277880001,-82.781770271,463,"7891 NARROW LEAF DRIVE, BLACKLICK, OH, 43004","Match","Non_Exact","7891 NARROWLEAF DR, BLACKLICK, OH, 43004",646888172,"R"
290964,"7892 BAYMEADOWS WAY","JACKSONVILLE","FL",32256,30.236026785,-81.585877403,464,"7892 BAYMEADOWS WAY, JACKSONVILLE, FL, 32256","Match","Exact","7892 BAYMEADOWS WAY, JACKSONVILLE, FL, 32256",83958276,"L"
290965,"7892 E STATE ROAD 66","GRANDVIEW","IN",47615,37.9668746360001,-86.9105974829999,465,"7892 E STATE ROAD 66, GRANDVIEW, IN, 47615","Match","Exact","7892 STATE RD 66, GRANDVIEW, IN, 47615",7985018,"L"
290966,"7892 HILL RD","WOODBURY","MN",55125,44.8940052930001,-92.946359853,466,"7892 HILL RD, WOODBURY, MN, 55125","Match","Exact","7892 HILL RD, WOODBURY, MN, 55125",97810802,"L"
290967,"7892 KENDALIA DR","HOUSTON","TX",77036,29.6920499230001,-95.547186118,467,"7892 KENDALIA DR, HOUSTON, TX, 77036","Match","Exact","7892 KENDALIA DR, HOUSTON, TX, 77036",645179424,"R"
290968,"7893 ELIZABETH DRIVE","OAK RIDGE","NC",27310,36.172429557,-79.970712624,468,"7893 ELIZABETH DRIVE, OAK RIDGE, NC, 27310","Match","Exact","7893 ELIZABETH DR, OAK RIDGE, NC, 27310",131114191,"L"
290969,"7893 FIELDCREEK COURT","LAS VEGAS","NV",89113,36.04496779,-115.249480238,469,"7893 FIELDCREEK COURT, LAS VEGAS, NV, 89113","Match","Exact","7893 FIELDCREEK CT, LAS VEGAS, NV, 89113",612991400,"R"
290970,"7893 S CASTLE BAY ST","TUCSON","AZ",85747,32.1086793960001,-110.789421409,470,"7893 S CASTLE BAY ST, TUCSON, AZ, 85747","Match","Exact","7893 S CASTLE BAY ST, TUCSON, AZ, 85747",121191469,"R"
290971,"7894 JOYCE DRIVE","SEBASTOPOL","CA",95472,38.418863276,-122.843987628,471,"7894 JOYCE DRIVE, SEBASTOPOL, CA, 95472","Match","Exact","7894 JOYCE DR, SEBASTOPOL, CA, 95472",67464628,"R"
290972,"7894 SW HANSEN LANE","TIGARD","OR",97224,45.4125897850001,-122.757791953,472,"7894 SW HANSEN LANE, TIGARD, OR, 97224","Match","Exact","7894 SW HANSEN LN, TIGARD, OR, 97224",653426588,"R"
290973,"7894 WINCHESTER AVE STE 600","MEMPHIS","TN",38119,NA,NA,473,"7894 WINCHESTER AVE STE 600, MEMPHIS, TN, 38119","No_Match",NA,NA,NA,NA
290974,"7894 WOODRUFF ST","FT LUPTON","CO",80621,40.1149844990001,-104.755630759,474,"7894 WOODRUFF ST, FT LUPTON, CO, 80621","Match","Exact","7894 WOODRUFF ST, FORT LUPTON, CO, 80621",188669831,"L"
290975,"7895 CONVOY CT STE 17","SAN DIEGO","CA",92111,32.834545787,-117.151489037,475,"7895 CONVOY CT STE 17, SAN DIEGO, CA, 92111","Match","Exact","7895 CONVOY CT, SAN DIEGO, CA, 92111",195305216,"R"
290976,"7895 FINLEY LANE","CINCINNATI","OH",45242,39.2194163190001,-84.355053748,476,"7895 FINLEY LANE, CINCINNATI, OH, 45242","Match","Exact","7895 FINLEY LN, CINCINNATI, OH, 45242",103938559,"R"
290977,"7895 MAPLE RD","AKRON","NY",14001,43.065375024,-78.514701725,477,"7895 MAPLE RD, AKRON, NY, 14001","Match","Exact","7895 MAPLE RD, AKRON, NY, 14001",48349576,"R"
290978,"7895 S CANDLESTICK LN 305","Midvale","UT",84047,40.6089103960001,-111.888593993,478,"7895 S CANDLESTICK LN 305, Midvale, UT, 84047","Match","Exact","7895 CANDLESTICK LN, MIDVALE, UT, 84047",176103231,"L"
290979,"7895 SENOIA ROAD","FAIRBURN","GA",30213,33.5424280330001,-84.577081025,479,"7895 SENOIA ROAD, FAIRBURN, GA, 30213","Match","Exact","7895 SENOIA RD, FAIRBURN, GA, 30213",17370756,"R"
290980,"7895 TURNEY AVENUE","MONROE","MI",48161,41.8650251460001,-83.390173219,480,"7895 TURNEY AVENUE, MONROE, MI, 48161","Match","Exact","7895 TURNEY AVE, MONROE, MI, 48161",40485779,"R"
290981,"7896 AMSTERDAM COURT","AVON","IN",46123,39.739670281,-86.383670528,481,"7896 AMSTERDAM COURT, AVON, IN, 46123","Match","Exact","7896 AMSTERDAM CT, AVON, IN, 46123",89205282,"R"
290982,"7896 HWY 42   BOX 140","EGG HARBOR","WI",54209,45.05415356,-87.28053002,482,"7896 HWY 42   BOX 140, EGG HARBOR, WI, 54209","Match","Non_Exact","7896 STATE HWY 42, EGG HARBOR, WI, 54209",647189835,"R"
290983,"7896 WINANS LAKE RD","BRIGHTON","MI",48116,42.462491454,-83.792107914,483,"7896 WINANS LAKE RD, BRIGHTON, MI, 48116","Match","Exact","7896 WINANS LAKE RD, BRIGHTON, MI, 48116",23573772,"L"
290984,"7897 DEERLEAF DR","SACRAMENTO","CA",95823,38.470298422,-121.456272973,484,"7897 DEERLEAF DR, SACRAMENTO, CA, 95823","Match","Exact","7897 DEERLEAF DR, SACRAMENTO, CA, 95823",133389313,"L"
290985,"7897 RIO GRANDE TRL","DOUGLASVILLE","GA",30135,33.6046481710001,-84.8330769139999,485,"7897 RIO GRANDE TRL, DOUGLASVILLE, GA, 30135","Match","Exact","7897 RIO GRANDE TRL, DOUGLASVILLE, GA, 30135",645836332,"R"
290986,"7897 S SAILBOAT KEY BLVD","S PASADENA","FL",33707,27.749641281,-82.7480238919999,486,"7897 S SAILBOAT KEY BLVD, S PASADENA, FL, 33707","Match","Non_Exact","7897 SAILBOAT KEY BLVD S, SOUTH PASADENA, FL, 33707",636396400,"R"
290987,"7897 SITIO MIRTO","CARLSBAD","CA",92009,33.076202774,-117.244490646,487,"7897 SITIO MIRTO, CARLSBAD, CA, 92009","Match","Exact","7897 SITIO MIRTO, CARLSBAD, CA, 92009",195455935,"R"
290988,"7897 THOMASVILLE ROAD","NORTH CHARLESTON","SC",29418,32.907816854,-80.087995026,488,"7897 THOMASVILLE ROAD, NORTH CHARLESTON, SC, 29418","Match","Exact","7897 THOMASVILLE RD, N CHARLESTON, SC, 29418",646629157,"L"
290989,"7898 20TH AVE N","LINO LAKES","MN",55038,45.19358715,-93.040763645,489,"7898 20TH AVE N, LINO LAKES, MN, 55038","Match","Exact","7898 20TH AVE N, LINO LAKES, MN, 55038",97521566,"L"
290990,"7898 COLLINSWOOD COURT","JONESBORO","GA",30236,33.5399076150001,-84.3328895229999,490,"7898 COLLINSWOOD COURT, JONESBORO, GA, 30236","Match","Exact","7898 COLLINSWOOD CT, JONESBORO, GA, 30236",632339987,"L"
290991,"7898 PEA NECK RD","ST MICHAELS","MD",21663,38.766788976,-76.2096470229999,491,"7898 PEA NECK RD, ST MICHAELS, MD, 21663","Match","Exact","7898 PEA NECK RD, SAINT MICHAELS, MD, 21663",635830150,"L"
290992,"7898 W CR 350S","SHIRLEY","IN",47384,NA,NA,492,"7898 W CR 350S, SHIRLEY, IN, 47384","No_Match",NA,NA,NA,NA
290993,"7899 FOXCROFT LANE","CHARLOTTE","NC",28213,35.3056944100001,-80.675061549,493,"7899 FOXCROFT LANE, CHARLOTTE, NC, 28213","Match","Exact","7899 FOXCROFT LN, CHARLOTTE, NC, 28213",24918371,"L"
290994,"7899 GRANT CREEK RD NW","BEMIDJI","MN",56601,47.5457573960001,-95.055506803,494,"7899 GRANT CREEK RD NW, BEMIDJI, MN, 56601","Match","Exact","7899 GRANT CREEK RD NW, BEMIDJI, MN, 56601",636129271,"L"
290995,"7899 TAYLOR DOWNS WAY","RIVERDALE","GA",30274,33.5399187140001,-84.401638011,495,"7899 TAYLOR DOWNS WAY, RIVERDALE, GA, 30274","Match","Exact","7899 TAYLOR DOWNS WAY, RIVERDALE, GA, 30274",23324566,"L"
290996,"7899 W CO RD 300 N","BROWNSTOWN","IN",47220,38.9190781400001,-86.187037346,496,"7899 W CO RD 300 N, BROWNSTOWN, IN, 47220","Match","Exact","7899 W CO RD 300 N, BROWNSTOWN, IN, 47220",31265481,"R"
290997,"789Q VIA LOS ALTOS","LAGUNA WOODS","CA",92637,33.599326741,-117.70243324,497,"789Q VIA LOS ALTOS, LAGUNA WOODS, CA, 92637","Match","Exact","789 VIA LOS ALTOS, LAGUNA WOODS, CA, 92637",609044115,"R"
290998,"79 33RD AVE S","NAPLES","FL",34102,26.108818381,-81.802038405,498,"79 33RD AVE S, NAPLES, FL, 34102","Match","Exact","79 33RD AVE S, NAPLES, FL, 34102",115140207,"L"
290999,"79 ACADEMY STREET","MARION","NC",28752,35.6842689280001,-82.011537254,499,"79 ACADEMY STREET, MARION, NC, 28752","Match","Exact","79 ACADEMY ST, MARION, NC, 28752",35886819,"L"
291000,"79 ALISSA LANE","GRANT","AL",35474,34.5305047780001,-86.240557296,500,"79 ALISSA LANE, GRANT, AL, 35474","Match","Non_Exact","79 ALISSA LN, GRANT, AL, 35747",639679377,"L"
