"ID","Address","City","State","Zip","lat","long","id","input_address","match_indicator","match_type","matched_address","tiger_line_id","tiger_side"
83501,"1700 UNIVERSITY BOULEVARD","ANDERSON","IN",46012,40.1131419230001,-85.65904765,1,"1700 UNIVERSITY BOULEVARD, ANDERSON, IN, 46012","Match","Exact","1700 UNIVERSITY BLVD, ANDERSON, IN, 46012",31127715,"L"
83502,"1700 VAN NESS AVE 1011","SAN FRANCISCO","CA",94109,37.7913786780001,-122.422396189,2,"1700 VAN NESS AVE 1011, SAN FRANCISCO, CA, 94109","Match","Exact","1700 VAN NESS AVE, SAN FRANCISCO, CA, 94109",192302004,"R"
83503,"1700 VAN NESS AVE 1118","SAN FRANCISCO","CA",94109,37.7913786780001,-122.422396189,3,"1700 VAN NESS AVE 1118, SAN FRANCISCO, CA, 94109","Match","Exact","1700 VAN NESS AVE, SAN FRANCISCO, CA, 94109",192302004,"R"
83504,"1700 VAN NESS AVE 1180","SAN FRANCISCO","CA",94109,37.7913786780001,-122.422396189,4,"1700 VAN NESS AVE 1180, SAN FRANCISCO, CA, 94109","Match","Exact","1700 VAN NESS AVE, SAN FRANCISCO, CA, 94109",192302004,"R"
83505,"1700 VINEYARDS PARKWAY","BRENTWOOD","CA",94513,NA,NA,5,"1700 VINEYARDS PARKWAY, BRENTWOOD, CA, 94513","No_Match",NA,NA,NA,NA
83506,"1700 W 25TH ST APT A-11","CASPER","WY",82604,42.8248747220001,-106.343100956,6,"1700 W 25TH ST APT A-11, CASPER, WY, 82604","Match","Non_Exact","1700 W 25TH ST, CASPER, WY, 82604",149022364,"R"
83507,"1700 W 31ST","AUSTIN","TX",78703,30.303403937,-97.7542182879999,7,"1700 W 31ST, AUSTIN, TX, 78703","Match","Non_Exact","1700 W 31ST ST, AUSTIN, TX, 78703",63942089,"R"
83508,"1700 W ALBERTA RD","EDINBURG","TX",78539,26.256438987,-98.186170548,8,"1700 W ALBERTA RD, EDINBURG, TX, 78539","Match","Exact","1700 W ALBERTA RD, EDINBURG, TX, 78539",71542923,"R"
83509,"1700 W CEDAR STREET","EL DORADO","AR",71730,33.211773194,-92.684236841,9,"1700 W CEDAR STREET, EL DORADO, AR, 71730","Match","Exact","1700 W CEDAR ST, EL DORADO, AR, 71730",28160175,"R"
83510,"1700 W MARKET ST  309","AKRON","OH",44313,41.1101457620001,-81.570479808,10,"1700 W MARKET ST  309, AKRON, OH, 44313","Match","Non_Exact","1700 W MARKET ST, AKRON, OH, 44313",640697355,"L"
83511,"1700 W MARKET ST BOX 403","AKRON","OH",44313,41.1101457620001,-81.570479808,11,"1700 W MARKET ST BOX 403, AKRON, OH, 44313","Match","Non_Exact","1700 W MARKET ST, AKRON, OH, 44313",640697355,"L"
83512,"1700 W NEW HAVEN AVE","WEST MELBOURNE","FL",32904,NA,NA,12,"1700 W NEW HAVEN AVE, WEST MELBOURNE, FL, 32904","No_Match",NA,NA,NA,NA
83513,"1700 W OLNEY AVE","PHILADELPHIA","PA",19141,40.0389742830001,-75.1500961959999,13,"1700 W OLNEY AVE, PHILADELPHIA, PA, 19141","Match","Exact","1700 W OLNEY AVE, PHILADELPHIA, PA, 19141",639343838,"L"
83514,"1700 W PIONEER DR","IRVING","TX",75061,32.8224044660001,-96.967861101,14,"1700 W PIONEER DR, IRVING, TX, 75061","Match","Exact","1700 W PIONEER DR, IRVING, TX, 75061",102891395,"L"
83515,"1700 W STADIUM BLVD","ANN ARBOR","MI",48103,42.26471013,-83.767741853,15,"1700 W STADIUM BLVD, ANN ARBOR, MI, 48103","Match","Exact","1700 W STADIUM BLVD, ANN ARBOR, MI, 48103",26012710,"R"
83516,"1700 W TUMBLE CREEK DR","MERIDIAN","ID",83646,43.631196952,-116.415067375,16,"1700 W TUMBLE CREEK DR, MERIDIAN, ID, 83646","Match","Exact","1700 W TUMBLE CREEK DR, MERIDIAN, ID, 83646",117916276,"L"
83517,"1700 W WASHINGTON STREET","PHOENIX","AZ",85007,33.448124724,-112.098332052,17,"1700 W WASHINGTON STREET, PHOENIX, AZ, 85007","Match","Exact","1700 W WASHINGTON ST, PHOENIX, AZ, 85007",128211545,"R"
83518,"1700 WALWORTH AVENUE","PASADENA","CA",91104,34.175105779,-118.135518423,18,"1700 WALWORTH AVENUE, PASADENA, CA, 91104","Match","Exact","1700 WALWORTH AVE, PASADENA, CA, 91104",141628577,"R"
83519,"1700 WATERFORD ROAD","WALWORTH","NY",14568,43.12792282,-77.2961042479999,19,"1700 WATERFORD ROAD, WALWORTH, NY, 14568","Match","Exact","1700 WATERFORD RD, WALWORTH, NY, 14568",14928117,"L"
83520,"1700 WEBB STREET","ASBURY PARK","NJ",7712,40.2285167810001,-74.00027815,20,"1700 WEBB STREET, ASBURY PARK, NJ, 7712","Match","Exact","1700 WEBB ST, ASBURY PARK, NJ, 07712",90464889,"R"
83521,"1700 WESCOTT DRIVE","RALEIGH","NC",27614,35.917049718,-78.5819458399999,21,"1700 WESCOTT DRIVE, RALEIGH, NC, 27614","Match","Exact","1700 WESCOTT DR, RALEIGH, NC, 27614",72648088,"R"
83522,"1700 WEST  HILLSDALE BLVD","SAN MATEO","CA",94402,37.531615903,-122.334006428,22,"1700 WEST  HILLSDALE BLVD, SAN MATEO, CA, 94402","Match","Exact","1700 W HILLSDALE BLVD, SAN MATEO, CA, 94402",192409848,"R"
83523,"1700 WEST ANNA","LAREDO","TX",78040,NA,NA,23,"1700 WEST ANNA, LAREDO, TX, 78040","No_Match",NA,NA,NA,NA
83524,"1700 WEST ARROW HWY 115","UPLAND","CA",91786,34.099592639,-117.686765473,24,"1700 WEST ARROW HWY 115, UPLAND, CA, 91786","Match","Exact","1700 W ARROW HWY, UPLAND, CA, 91786",144965702,"L"
83525,"1700 WEST WASHINGTON STREET","PHOENIX","AZ",85007,33.448124724,-112.098332052,25,"1700 WEST WASHINGTON STREET, PHOENIX, AZ, 85007","Match","Exact","1700 W WASHINGTON ST, PHOENIX, AZ, 85007",128211545,"R"
83526,"1700 WEST WATER STREET","MONTPELIER","IN",47359,NA,NA,26,"1700 WEST WATER STREET, MONTPELIER, IN, 47359","No_Match",NA,NA,NA,NA
83527,"1700 WHIRLAWAY LN","TRACY","CA",95377,37.6968270180001,-121.447793074,27,"1700 WHIRLAWAY LN, TRACY, CA, 95377","Match","Exact","1700 WHIRLAWAY LN, TRACY, CA, 95377",623835397,"L"
83528,"1700 WILDLIFE COURT","WAUSAU","WI",54403,44.971096082,-89.607165962,28,"1700 WILDLIFE COURT, WAUSAU, WI, 54403","Match","Exact","1700 WILDLIFE CT, WAUSAU, WI, 54403",600618386,"L"
83529,"1700 WILLOWWOOD","DENTON","TX",76205,33.196344089,-97.150363853,29,"1700 WILLOWWOOD, DENTON, TX, 76205","Match","Non_Exact","1700 WILLOWWOOD ST, DENTON, TX, 76205",103339305,"R"
83530,"1700 WILSON ROAD","HUMBLE","TX",77338,29.978148253,-95.2484027789999,30,"1700 WILSON ROAD, HUMBLE, TX, 77338","Match","Non_Exact","1700 WILSON RD, HUMBLE, TX, 77396",642863295,"R"
83531,"1700 WYOMING NO  4","EL PASO","TX",79902,NA,NA,31,"1700 WYOMING NO  4, EL PASO, TX, 79902","No_Match",NA,NA,NA,NA
83532,"1700 ZAVALA DRIVE","ALLEN","TX",75002,33.126061141,-96.6426540529999,32,"1700 ZAVALA DRIVE, ALLEN, TX, 75002","Match","Exact","1700 ZAVALA DR, ALLEN, TX, 75002",210528409,"R"
83533,"1700","MELROSE PARK","IL",60160,NA,NA,33,"1700, MELROSE PARK, IL, 60160","No_Match",NA,NA,NA,NA
83534,"17000 140TH AVE NE UNIT E102","WOODINVILLE","WA",98072,47.7510065880001,-122.152666159,34,"17000 140TH AVE NE UNIT E102, WOODINVILLE, WA, 98072","Match","Exact","17000 140TH AVE NE, WOODINVILLE, WA, 98072",640606062,"R"
83535,"17000 185TH AVENUE NE","FOLEY","MN",56329,NA,NA,35,"17000 185TH AVENUE NE, FOLEY, MN, 56329","No_Match",NA,NA,NA,NA
83536,"17000 ASTURIA COURT NE","RIO RANCHO","NY",87144,NA,NA,36,"17000 ASTURIA COURT NE, RIO RANCHO, NY, 87144","No_Match",NA,NA,NA,NA
83537,"17000 BANYAN VINE COURT","FORT MYERS","FL",33908,26.488734284,-81.890466803,37,"17000 BANYAN VINE COURT, FORT MYERS, FL, 33908","Match","Exact","17000 BANYAN VINE CT, FORT MYERS, FL, 33908",618017998,"R"
83538,"17000 EXECUTIVE PLAZA DR SUITE 103","DEARBORN","MI",48126,42.3245797230001,-83.212908009,38,"17000 EXECUTIVE PLAZA DR SUITE 103, DEARBORN, MI, 48126","Match","Exact","17000 EXECUTIVE PLAZA DR, DEARBORN, MI, 48126",95713493,"L"
83539,"17000 GRANITE FALLS WAY","CHOWCHILLA","CA",93610,37.1257220420001,-120.230418638,39,"17000 GRANITE FALLS WAY, CHOWCHILLA, CA, 93610","Match","Exact","17000 GRANITE FALLS WAY, CHOWCHILLA, CA, 93610",612102271,"L"
83540,"17000 SILICA DRIVE","VICTORVILLE","CA",92395,34.4782033320001,-117.294685735,40,"17000 SILICA DRIVE, VICTORVILLE, CA, 92395","Match","Exact","17000 SILICA DR, VICTORVILLE, CA, 92395",144745484,"L"
83541,"17000 SOUTH VERMONT AVE SUITE A","GARDENA","CA",90247,33.8763730480001,-118.291059053,41,"17000 SOUTH VERMONT AVE SUITE A, GARDENA, CA, 90247","Match","Exact","17000 S VERMONT AVE, GARDENA, CA, 90247",638619077,"L"
83542,"17000 TAFT ROAD","SPRING LAKE","MI",49456,43.1031483420001,-86.2102803669999,42,"17000 TAFT ROAD, SPRING LAKE, MI, 49456","Match","Non_Exact","17000 TAFT ST, SPRING LAKE, MI, 49456",71084973,"R"
83543,"17000 TIMOTHY DRIVE","SOUTHGATE","MI",48195,42.196710233,-83.221449821,43,"17000 TIMOTHY DRIVE, SOUTHGATE, MI, 48195","Match","Exact","17000 TIMOTHY DR, SOUTHGATE, MI, 48195",95448309,"R"
83544,"17000 VENTURA BLVD SUITE 201","ENCINO","CA",91316,34.1597898370001,-118.503367763,44,"17000 VENTURA BLVD SUITE 201, ENCINO, CA, 91316","Match","Exact","17000 VENTURA BLVD, ENCINO, CA, 91316",141556183,"L"
83545,"17000 WEDGE PARKWAY 3121","RENO","NV",89511,39.396010366,-119.767110901,45,"17000 WEDGE PARKWAY 3121, RENO, NV, 89511","Match","Exact","17000 WEDGE PKWY, RENO, NV, 89511",107075616,"R"
83546,"17001 BIRCHVIEW DRIVE","NUNICA","MI",49448,43.0774852810001,-86.1225660819999,46,"17001 BIRCHVIEW DRIVE, NUNICA, MI, 49448","Match","Exact","17001 BIRCHVIEW DR, NUNICA, MI, 49448",651888382,"L"
83547,"17001 FERRIS STREET","GRAND HAVEN","MI",49417,43.0084347870001,-86.210922082,47,"17001 FERRIS STREET, GRAND HAVEN, MI, 49417","Match","Exact","17001 FERRIS ST, GRAND HAVEN, MI, 49417",642646052,"L"
83548,"17001 HURRICANE BLVD","IRVINGTON","AL",36544,NA,NA,48,"17001 HURRICANE BLVD, IRVINGTON, AL, 36544","No_Match",NA,NA,NA,NA
83549,"17001 JEANETTE","SOUTHFIELD","MI",48075,42.475398539,-83.2129487779999,49,"17001 JEANETTE, SOUTHFIELD, MI, 48075","Match","Non_Exact","17001 JEANETTE ST, SOUTHFIELD, MI, 48075",69740051,"L"
83550,"17001 SW 87 COURT","PALMETTO BAY","FL",33157,25.612497772,-80.333735173,50,"17001 SW 87 COURT, PALMETTO BAY, FL, 33157","Match","Exact","17001 SW 87TH CT, PALMETTO BAY, FL, 33157",115983976,"L"
83551,"17001 W LAKESHORE DRIVE","BRIMLEY","MI",49715,46.472097181,-84.711905867,51,"17001 W LAKESHORE DRIVE, BRIMLEY, MI, 49715","Match","Exact","17001 W LAKESHORE DR, BRIMLEY, MI, 49715",130571081,"L"
83552,"17002 S CATALINA AVE","GARDENA","CA",90247,33.8765470430001,-118.294070213,52,"17002 S CATALINA AVE, GARDENA, CA, 90247","Match","Exact","17002 S CATALINA AVE, GARDENA, CA, 90247",141667515,"L"
83553,"17002 S PRAIRIE AVE","TORRANCE","CA",90504,33.876600038,-118.343793612,53,"17002 S PRAIRIE AVE, TORRANCE, CA, 90504","Match","Exact","17002 PRAIRIE AVE, TORRANCE, CA, 90504",638620118,"L"
83554,"17002 SAGO DR","DIBERVILLE","MS",39540,30.5018719980001,-88.9131737129999,54,"17002 SAGO DR, DIBERVILLE, MS, 39540","Match","Exact","17002 SAGO DR, DIBERVILLE, MS, 39540",637756046,"L"
83555,"17002 W MARCONI AVENUE","SURPRISE","AZ",85388,33.6285590410001,-112.424535798,55,"17002 W MARCONI AVENUE, SURPRISE, AZ, 85388","Match","Non_Exact","17002 N MARCONI AVE, SURPRISE, AZ, 85388",243971642,"L"
83556,"17002 WAUSAU","CASA GRANDE","IL",85122,NA,NA,56,"17002 WAUSAU, CASA GRANDE, IL, 85122","No_Match",NA,NA,NA,NA
83557,"17003 BILLINGS DRIVE","CARSON","CA",90746,33.8771719490001,-118.271924822,57,"17003 BILLINGS DRIVE, CARSON, CA, 90746","Match","Exact","17003 BILLINGS DR, CARSON, CA, 90746",141680054,"R"
83558,"17003 CHESTNUT AVENUE","ATASCADERO","CA",93422,35.418663689,-120.607992472,58,"17003 CHESTNUT AVENUE, ATASCADERO, CA, 93422","Match","Exact","17003 CHESTNUT AVE, ATASCADERO, CA, 93422",109726653,"L"
83559,"17003 COLT CREEK CT","HUMBLE","TX",77346,29.9639678990001,-95.187948617,59,"17003 COLT CREEK CT, HUMBLE, TX, 77346","Match","Exact","17003 COLT CREEK CT, HUMBLE, TX, 77346",645133627,"L"
83560,"17003 E KNOX LANE","SPOKANE VALLEY","WA",99016,NA,NA,60,"17003 E KNOX LANE, SPOKANE VALLEY, WA, 99016","No_Match",NA,NA,NA,NA
83561,"17003 KEITH HARROW","HOUSTON","TX",77084,NA,NA,61,"17003 KEITH HARROW, HOUSTON, TX, 77084","No_Match",NA,NA,NA,NA
83562,"17003 NOWTHEN BOULEVARD","RAMSEY","MN",55303,45.2795564290001,-93.439858009,62,"17003 NOWTHEN BOULEVARD, RAMSEY, MN, 55303","Match","Non_Exact","17003 NOWTHEN BLVD NW, RAMSEY, MN, 55303",635816316,"R"
83563,"17003 VENTURA BLVD SUITE 208","ENCINO","CA",91316,34.159814952,-118.503426639,63,"17003 VENTURA BLVD SUITE 208, ENCINO, CA, 91316","Match","Exact","17003 VENTURA BLVD, ENCINO, CA, 91316",141556183,"R"
83564,"17005 UPLAND AVE","FONTANA","CA",92335,34.102920511,-117.432740552,64,"17005 UPLAND AVE, FONTANA, CA, 92335","Match","Exact","17005 UPLAND AVE, FONTANA, CA, 92335",144642556,"R"
83565,"17005 YUKON AVENUE NUMBER 17","TORRANCE","CA",90504,33.876351701,-118.335124719,65,"17005 YUKON AVENUE NUMBER 17, TORRANCE, CA, 90504","Match","Exact","17005 YUKON AVE, TORRANCE, CA, 90504",142755971,"R"
83566,"170056","BROOKLYN","NY",11217,NA,NA,66,"170056, BROOKLYN, NY, 11217","No_Match",NA,NA,NA,NA
83567,"17006 SE 5TH STREET","VANCOUVER","WA",98684,45.6190019420001,-122.496589042,67,"17006 SE 5TH STREET, VANCOUVER, WA, 98684","Match","Non_Exact","17006 SE 5TH ST, VANCOUVER, WA, 98684",158363434,"R"
83568,"17007 N HWS CLEVELAND BLVD","BENNINGTON","NE",68007,NA,NA,68,"17007 N HWS CLEVELAND BLVD, BENNINGTON, NE, 68007","No_Match",NA,NA,NA,NA
83569,"17007 SW 142 PL","MIAMI","FL",33177,25.6095659650001,-80.4204816,69,"17007 SW 142 PL, MIAMI, FL, 33177","Match","Non_Exact","17007 SW 142ND PL, MIAMI, FL, 33177",116080099,"R"
83570,"17007 W BRISTOL LANE","SURPRISE","AZ",85374,33.647452898,-112.424953187,70,"17007 W BRISTOL LANE, SURPRISE, AZ, 85374","Match","Exact","17007 W BRISTOL LN, SURPRISE, AZ, 85374",128848860,"L"
83571,"170074 SPRING CREEK RD","MITCHELL","NE",69357,41.917585843,-103.754364986,71,"170074 SPRING CREEK RD, MITCHELL, NE, 69357","Match","Exact","170074 SPRING CREEK RD, MITCHELL, NE, 69357",160068837,"R"
83572,"17008 119TH CT NE","BOTHELL","WA",98011,47.7515735850001,-122.180125991,72,"17008 119TH CT NE, BOTHELL, WA, 98011","Match","Exact","17008 119TH CT NE, BOTHELL, WA, 98011",186599701,"R"
83573,"17008 ASHBURTON DRIVE","LOUISVILLE","KY",40245,38.2288611550001,-85.482057389,73,"17008 ASHBURTON DRIVE, LOUISVILLE, KY, 40245","Match","Exact","17008 ASHBURTON DR, LOUISVILLE, KY, 40245",96877768,"R"
83574,"17008 LAURELMONT CT","INDIAN LAND","SC",29707,35.0192961830001,-80.858319658,74,"17008 LAURELMONT CT, INDIAN LAND, SC, 29707","Match","Exact","17008 LAURELMONT CT, INDIAN LAND, SC, 29707",625645222,"R"
83575,"17008 SPANISH STAR DRIVE","ROUND ROCK","TX",78664,30.471542195,-97.657589092,75,"17008 SPANISH STAR DRIVE, ROUND ROCK, TX, 78664","Match","Exact","17008 SPANISH STAR DR, ROUND ROCK, TX, 78664",649000063,"L"
83576,"17009 SE 261ST STREET","COVINGTON","WA",98042,47.3680520030001,-122.114474509,76,"17009 SE 261ST STREET, COVINGTON, WA, 98042","Match","Exact","17009 SE 261ST ST, COVINGTON, WA, 98042",630052777,"L"
83577,"1701 12TH AVE","ALBANY","GA",31707,31.6022602910001,-84.187184615,77,"1701 12TH AVE, ALBANY, GA, 31707","Match","Exact","1701 12TH AVE, ALBANY, GA, 31707",84312841,"R"
83578,"1701 16TH AVE    PO BOX 1338","STERLING","IL",61081,41.802312516,-89.679427606,78,"1701 16TH AVE    PO BOX 1338, STERLING, IL, 61081","Match","Exact","1701 16TH AVE, STERLING, IL, 61081",611676058,"L"
83579,"1701 16TH STREET NW APT 627","WASHINGTON","DC",20009,38.912669527,-77.0365057,79,"1701 16TH STREET NW APT 627, WASHINGTON, DC, 20009","Match","Exact","1701 16TH ST NW, WASHINGTON, DC, 20009",76223190,"R"
83580,"1701 1ST AVE N APT 213","MOORHEAD","MN",56560,NA,NA,80,"1701 1ST AVE N APT 213, MOORHEAD, MN, 56560","Tie",NA,NA,NA,NA
83581,"1701 1ST AVE S APT 525","BIRMINGHAM","AL",35233,33.509835222,-86.808016371,81,"1701 1ST AVE S APT 525, BIRMINGHAM, AL, 35233","Match","Exact","1701 1ST AVE S, BIRMINGHAM, AL, 35233",81576347,"R"
83582,"1701 3RD AVE E","SPENCER","IA",51301,43.15481191,-95.14145632,82,"1701 3RD AVE E, SPENCER, IA, 51301","Match","Exact","1701 3RD AVE E, SPENCER, IA, 51301",82785742,"L"
83583,"1701 42ND ST UNIT D","KENNER","LA",70065,30.0329181390001,-90.243100891,83,"1701 42ND ST UNIT D, KENNER, LA, 70065","Match","Exact","1701 42ND ST, KENNER, LA, 70065",93492711,"R"
83584,"1701 46 ST SW","NAPLES","FL",34116,26.1968830530001,-81.700589817,84,"1701 46 ST SW, NAPLES, FL, 34116","Match","Exact","1701 46TH ST SW, NAPLES, FL, 34116",115134793,"L"
83585,"1701 46TH STREET","PENNSAUKEN","NJ",8110,39.9603210710001,-75.071530684,85,"1701 46TH STREET, PENNSAUKEN, NJ, 8110","Match","Exact","1701 46TH ST, PENNSAUKEN, NJ, 08110",134342782,"R"
83586,"1701 5TH STREET NW","GREAT FALLS","MT",59405,47.5212467170001,-111.322204233,86,"1701 5TH STREET NW, GREAT FALLS, MT, 59405","Match","Non_Exact","1701 5TH ST NW, GREAT FALLS, MT, 59404",202222899,"R"
83587,"1701 90TH AVE NE","CLYDE HILL","WA",98004,47.6255594690001,-122.220837585,87,"1701 90TH AVE NE, CLYDE HILL, WA, 98004","Match","Exact","1701 90TH AVE NE, CLYDE HILL, WA, 98004",186602758,"L"
83588,"1701 ADAIR ST","OCOEE","FL",34761,28.5900382790001,-81.534306199,88,"1701 ADAIR ST, OCOEE, FL, 34761","Match","Exact","1701 ADAIR ST, OCOEE, FL, 34761",94303688,"R"
83589,"1701 ALLSTON WAY UNIT 1","BERKELEY","CA",94703,37.8682401630001,-122.277159218,89,"1701 ALLSTON WAY UNIT 1, BERKELEY, CA, 94703","Match","Exact","1701 ALLSTON WAY, BERKELEY, CA, 94703",124993961,"L"
83590,"1701 ALMA DRIVE","PLANO","TX",75075,33.022227947,-96.7165209199999,90,"1701 ALMA DRIVE, PLANO, TX, 75075","Match","Exact","1701 ALMA DR, PLANO, TX, 75075",210470569,"L"
83591,"1701 ARDGLASS CT","KENNESAW","GA",30152,33.9962400090001,-84.6245000489999,91,"1701 ARDGLASS CT, KENNESAW, GA, 30152","Match","Exact","1701 ARDGLASS CT, KENNESAW, GA, 30152",614181072,"L"
83592,"1701 B AVE","MUSCATINE","IA",52761,41.4724121940001,-91.006889681,92,"1701 B AVE, MUSCATINE, IA, 52761","Match","Exact","1701 B AVE, MUSCATINE, IA, 52761",99011395,"R"
83593,"1701 BEACH ROAD UNIT 302","ENGLEWOOD","FL",34223,26.9289728150001,-82.355730373,93,"1701 BEACH ROAD UNIT 302, ENGLEWOOD, FL, 34223","Match","Exact","1701 BEACH RD, ENGLEWOOD, FL, 34223",4338320,"L"
83594,"1701 BELLEVUE RD","DUBLIN","GA",31021,32.5336929900001,-82.9352983539999,94,"1701 BELLEVUE RD, DUBLIN, GA, 31021","Match","Exact","1701 BELLEVUE RD, DUBLIN, GA, 31021",100652662,"L"
83595,"1701 BIG HORN BASIN DR","WILDWOOD","MO",63011,38.604619471,-90.615303017,95,"1701 BIG HORN BASIN DR, WILDWOOD, MO, 63011","Match","Exact","1701 BIG HORN BASIN DR, WILDWOOD, MO, 63011",100179502,"R"
83596,"1701 BLOOMINGDALE RD","GLENDALE HEIGHTS","IL",60139,41.9220187650001,-88.081366644,96,"1701 BLOOMINGDALE RD, GLENDALE HEIGHTS, IL, 60139","Match","Exact","1701 BLOOMINGDALE RD, GLENDALE HEIGHTS, IL, 60139",112520464,"R"
83597,"1701 BRIAR ST","AUSTIN","TX",78704,30.250084884,-97.759924123,97,"1701 BRIAR ST, AUSTIN, TX, 78704","Match","Exact","1701 BRIAR ST, AUSTIN, TX, 78704",63944614,"L"
83598,"1701 BROADWAY 400","VANCOUVER","WA",98663,45.6341879890001,-122.670413197,98,"1701 BROADWAY 400, VANCOUVER, WA, 98663","Match","Non_Exact","1701 BROADWAY ST, VANCOUVER, WA, 98663",158325456,"R"
83599,"1701 BROADWAY NUM 258","VANCOUVER","WA",98663,45.6341879890001,-122.670413197,99,"1701 BROADWAY NUM 258, VANCOUVER, WA, 98663","Match","Non_Exact","1701 BROADWAY ST, VANCOUVER, WA, 98663",158325456,"R"
83600,"1701 BROOKHAVEN DRIVE","GREENVILLE","NC",27834,35.671930683,-77.3622335809999,100,"1701 BROOKHAVEN DRIVE, GREENVILLE, NC, 27834","Match","Exact","1701 BROOKHAVEN DR, GREENVILLE, NC, 27834",636008463,"R"
83601,"1701 BROWN AVE","OSAWATOMIE","KS",66064,38.495879223,-94.971646398,101,"1701 BROWN AVE, OSAWATOMIE, KS, 66064","Match","Exact","1701 BROWN AVE, OSAWATOMIE, KS, 66064",651159960,"L"
83602,"1701 BUDDY HOLLY AVE STE A","LUBBOCK","TX",79401,33.57978229,-101.84438873,102,"1701 BUDDY HOLLY AVE STE A, LUBBOCK, TX, 79401","Match","Exact","1701 BUDDY HOLLY AVE, LUBBOCK, TX, 79401",185254717,"L"
83603,"1701 CASTLE ROCK DRIVE","LEWISVILLE","TX",75077,33.068111603,-97.042644477,103,"1701 CASTLE ROCK DRIVE, LEWISVILLE, TX, 75077","Match","Exact","1701 CASTLE ROCK DR, LEWISVILLE, TX, 75077",103388310,"R"
83604,"1701 CHERBOURG DR APT 1301","FORT WORTH","TX",76120,32.752275792,-97.172815683,104,"1701 CHERBOURG DR APT 1301, FORT WORTH, TX, 76120","Match","Exact","1701 CHERBOURG DR, FORT WORTH, TX, 76120",102138515,"L"
83605,"1701 CHERRY AVE","BIRMINGHAM","AL",35214,33.5745305190001,-86.877955196,105,"1701 CHERRY AVE, BIRMINGHAM, AL, 35214","Match","Exact","1701 CHERRY AVE, BIRMINGHAM, AL, 35214",81552945,"R"
83606,"1701 CHURCH STREET SUITE B","NORFOLK","VA",23504,36.863440134,-76.278867323,106,"1701 CHURCH STREET SUITE B, NORFOLK, VA, 23504","Match","Exact","1701 CHURCH ST, NORFOLK, VA, 23504",639823064,"L"
83607,"1701 COLORADO AVENUE","LA JUNTA","CO",81050,37.972722194,-103.543079025,107,"1701 COLORADO AVENUE, LA JUNTA, CO, 81050","Match","Exact","1701 COLORADO AVE, LA JUNTA, CO, 81050",112922622,"R"
83608,"1701 COUNTRY CLUB ROAD","PARAGOULD","AR",72450,36.0707886330001,-90.507309305,108,"1701 COUNTRY CLUB ROAD, PARAGOULD, AR, 72450","Match","Exact","1701 COUNTRY CLUB RD, PARAGOULD, AR, 72450",47064555,"R"
83609,"1701 COUNTRY CLUB","EL DORADO","KS",67042,37.838281792,-96.840567075,109,"1701 COUNTRY CLUB, EL DORADO, KS, 67042","Match","Non_Exact","1701 COUNTRY CLUB RD, EL DORADO, KS, 67042",32265921,"R"
83610,"1701 CREEK ROAD","TEMPLE","TX",76501,31.0862285480001,-97.242863756,110,"1701 CREEK ROAD, TEMPLE, TX, 76501","Match","Exact","1701 CREEK RD, TEMPLE, TX, 76501",146180719,"R"
83611,"1701 CREOSOTE DR","FORT WORTH","TX",76177,32.91122403,-97.334286602,111,"1701 CREOSOTE DR, FORT WORTH, TX, 76177","Match","Exact","1701 CREOSOTE DR, FORT WORTH, TX, 76177",648631986,"L"
83612,"1701 CURRANT COURT","WILLIAMSTOWN","NJ",8094,39.6847716250001,-75.048041295,112,"1701 CURRANT COURT, WILLIAMSTOWN, NJ, 8094","Match","Exact","1701 CURRANT CT, WILLIAMSTOWN, NJ, 08094",134600923,"L"
83613,"1701 DALTON ROAD APT 501","LIMA","NY",14485,42.911918074,-77.6225727349999,113,"1701 DALTON ROAD APT 501, LIMA, NY, 14485","Match","Exact","1701 DALTON RD, LIMA, NY, 14485",14460669,"R"
83614,"1701 DIRECTORS BLVD STE 800","AUSTIN","TX",78744,30.213815379,-97.751468439,114,"1701 DIRECTORS BLVD STE 800, AUSTIN, TX, 78744","Match","Exact","1701 DIRECTORS BLVD, AUSTIN, TX, 78744",63945395,"R"
83615,"1701 DISCOVERY PLACE","NAMPA","ID",83686,43.5527855350001,-116.537972458,115,"1701 DISCOVERY PLACE, NAMPA, ID, 83686","Match","Exact","1701 DISCOVERY PL, NAMPA, ID, 83686",122806532,"L"
83616,"1701 DIVISADERO ST NUM 0316","SAN FRANCISCO","CA",94115,37.7853195170001,-122.439935456,116,"1701 DIVISADERO ST NUM 0316, SAN FRANCISCO, CA, 94115","Match","Exact","1701 DIVISADERO ST, SAN FRANCISCO, CA, 94115",192279648,"L"
83617,"1701 DIXIELAND RD","HARLINGEN","TX",78552,NA,NA,117,"1701 DIXIELAND RD, HARLINGEN, TX, 78552","No_Match",NA,NA,NA,NA
83618,"1701 DIXIELAND ROAD","HARLINGEN","TX",78552,NA,NA,118,"1701 DIXIELAND ROAD, HARLINGEN, TX, 78552","No_Match",NA,NA,NA,NA
83619,"1701 DR ANDREW J BROWN AVENUE","INDIANAPOLIS","IN",46202,39.7905072040001,-86.135358707,119,"1701 DR ANDREW J BROWN AVENUE, INDIANAPOLIS, IN, 46202","Match","Exact","1701 DR ANDREW J BROWN AVE, INDIANAPOLIS, IN, 46202",107990698,"R"
83620,"1701 E 12TH ST STE 103","CLEVELAND","OH",44114,41.503211321,-81.685939304,120,"1701 E 12TH ST STE 103, CLEVELAND, OH, 44114","Match","Non_Exact","1701 E 12TH ST, CLEVELAND, OH, 44114",61110558,"L"
83621,"1701 E CENTERVILLE RD APT 5","GARLAND","TX",75041,32.8897061920001,-96.608016935,121,"1701 E CENTERVILLE RD APT 5, GARLAND, TX, 75041","Match","Non_Exact","1701 E CENTERVILLE RD, GARLAND, TX, 75041",103165038,"L"
83622,"1701 E COLTER STREET APT 410","PHOENIX","AZ",85016,33.5128828960001,-112.045295657,122,"1701 E COLTER STREET APT 410, PHOENIX, AZ, 85016","Match","Non_Exact","1701 E COLTER ST, PHOENIX, AZ, 85016",647734329,"L"
83623,"1701 E EMPIRE ST STE 360-323","BLOOMINGTON","IL",61704,40.488071726,-88.950780884,123,"1701 E EMPIRE ST STE 360-323, BLOOMINGTON, IL, 61704","Match","Non_Exact","1701 E EMPIRE ST, BLOOMINGTON, IL, 61704",20587963,"R"
83624,"1701 E EMPIRE ST SUITE 360-320","BLOOMINTON","IL",61704,40.488071726,-88.950780884,124,"1701 E EMPIRE ST SUITE 360-320, BLOOMINTON, IL, 61704","Match","Non_Exact","1701 E EMPIRE ST, BLOOMINGTON, IL, 61704",20587963,"R"
83625,"1701 E EUCLID AVE","PHOENIX","AZ",85042,33.3668721340001,-112.046629244,125,"1701 E EUCLID AVE, PHOENIX, AZ, 85042","Match","Exact","1701 E EUCLID AVE, PHOENIX, AZ, 85042",128217995,"R"
83626,"1701 E HEBRON PARKWAY APT 4103","CARROLLTON","TX",75010,NA,NA,126,"1701 E HEBRON PARKWAY APT 4103, CARROLLTON, TX, 75010","Tie",NA,NA,NA,NA
83627,"1701 E HEBRON PKWY APT 8307","CARROLLTON","TX",75010,NA,NA,127,"1701 E HEBRON PKWY APT 8307, CARROLLTON, TX, 75010","Tie",NA,NA,NA,NA
83628,"1701 E LYON STATION RD","CREEDMOOR","NC",27522,36.110518429,-78.7349545499999,128,"1701 E LYON STATION RD, CREEDMOOR, NC, 27522","Match","Exact","1701 E LYON STATION RD, CREEDMOOR, NC, 27522",77106785,"L"
83629,"1701 E MCINTYRE","EDINBURG","TX",78542,26.300014752,-98.144812069,129,"1701 E MCINTYRE, EDINBURG, TX, 78542","Match","Non_Exact","1701 E MCINTYRE ST, EDINBURG, TX, 78542",71521098,"L"
83630,"1701 E PRATER WAY","SPARKS","NV",89434,39.5419351200001,-119.710823644,130,"1701 E PRATER WAY, SPARKS, NV, 89434","Match","Exact","1701 E PRATER WAY, SPARKS, NV, 89434",107080966,"R"
83631,"1701 E PUTNAM AVE","PORTERVILLE","CA",93257,NA,NA,131,"1701 E PUTNAM AVE, PORTERVILLE, CA, 93257","Tie",NA,NA,NA,NA
83632,"1701 E WESTCHESTER DR","TEMPE","AZ",85283,33.36700002,-111.91321716,132,"1701 E WESTCHESTER DR, TEMPE, AZ, 85283","Match","Exact","1701 E WESTCHESTER DR, TEMPE, AZ, 85283",128238650,"R"
83633,"1701 EAST ATLANTIC BLVD STE 4","POMPANO BEACH","FL",33060,26.231792753,-80.106854926,133,"1701 EAST ATLANTIC BLVD STE 4, POMPANO BEACH, FL, 33060","Match","Exact","1701 E ATLANTIC BLVD, POMPANO BEACH, FL, 33060",114695530,"L"
83634,"1701 EAST LAKE AVENUE SUITE 315","GLENVIEW","IL",60025,42.0800107910001,-87.798587648,134,"1701 EAST LAKE AVENUE SUITE 315, GLENVIEW, IL, 60025","Match","Exact","1701 E LAKE AVE, GLENVIEW, IL, 60025",630187472,"R"
83635,"1701 EAST LYON STATION ROAD","CREEDMOOR","NC",27522,36.110514175,-78.734957386,135,"1701 EAST LYON STATION ROAD, CREEDMOOR, NC, 27522","Match","Exact","1701 E LYON STATION RD, CREEDMOOR, NC, 27522",77106785,"L"
83636,"1701 EAST MOUNTAIN VIEW ROAD","PHOENIX","AZ",85020,33.575199443,-112.045685802,136,"1701 EAST MOUNTAIN VIEW ROAD, PHOENIX, AZ, 85020","Match","Exact","1701 E MOUNTAIN VIEW RD, PHOENIX, AZ, 85020",128207592,"R"
83637,"1701 EAST TRINITY BOULEVARD","MONTGOMERY","AL",36106,32.355060672,-86.232909725,137,"1701 EAST TRINITY BOULEVARD, MONTGOMERY, AL, 36106","Match","Exact","1701 E TRINITY BLVD, MONTGOMERY, AL, 36106",642149688,"L"
83638,"1701 ELMWOOD AVE","WILMETTE","IL",60091,42.08214294,-87.718732368,138,"1701 ELMWOOD AVE, WILMETTE, IL, 60091","Match","Exact","1701 ELMWOOD AVE, WILMETTE, IL, 60091",111739447,"L"
83639,"1701 EMMA CIRCLE","SPRING HILL","TN",37174,35.7478859550001,-86.878675089,139,"1701 EMMA CIRCLE, SPRING HILL, TN, 37174","Match","Exact","1701 EMMA CIR, SPRING HILL, TN, 37174",634036859,"L"
83640,"1701 ENTERPRISE","SOCORRO","NM",87801,34.0337539490001,-106.916334449,140,"1701 ENTERPRISE, SOCORRO, NM, 87801","Match","Exact","1701 ENTERPRISE, SOCORRO, NM, 87801",193201591,"R"
83641,"1701 FRANCIS ST APT D","ST JOSEPH","MO",64501,39.7674934410001,-94.83989281,141,"1701 FRANCIS ST APT D, ST JOSEPH, MO, 64501","Match","Exact","1701 FRANCIS ST, SAINT JOSEPH, MO, 64501",15975581,"L"
83642,"1701 FRANKFORT ROAD","SHELBYVILLE","KY",40065,38.2090979560001,-85.1779172289999,142,"1701 FRANKFORT ROAD, SHELBYVILLE, KY, 40065","Match","Exact","1701 FRANKFORT RD, SHELBYVILLE, KY, 40065",650445622,"R"
83643,"1701 FRANKLIN AVENUE","NEW ORLEANS","LA",70017,29.9751916450001,-90.048247875,143,"1701 FRANKLIN AVENUE, NEW ORLEANS, LA, 70017","Match","Non_Exact","1701 FRANKLIN AVE, NEW ORLEANS, LA, 70117",191716594,"R"
83644,"1701 GATEWAY BLVD STE 403","RICHARDSON","TX",75080,32.971308682,-96.7215894189999,144,"1701 GATEWAY BLVD STE 403, RICHARDSON, TX, 75080","Match","Exact","1701 GATEWAY BLVD, RICHARDSON, TX, 75080",102896743,"L"
83645,"1701 GATEWAY BLVD SUITE 447","RICHARDSON","TX",75080,32.971308682,-96.7215894189999,145,"1701 GATEWAY BLVD SUITE 447, RICHARDSON, TX, 75080","Match","Exact","1701 GATEWAY BLVD, RICHARDSON, TX, 75080",102896743,"L"
83646,"1701 GILLESPIE AVENUE","ALBANY","GA",31707,31.5711830160001,-84.190491862,146,"1701 GILLESPIE AVENUE, ALBANY, GA, 31707","Match","Exact","1701 GILLESPIE AVE, ALBANY, GA, 31707",84313510,"R"
83647,"1701 GILLIS AVE","DEL RIO","TX",78840,29.3550657920001,-100.881231818,147,"1701 GILLIS AVE, DEL RIO, TX, 78840","Match","Non_Exact","1701 GILLIS ST, DEL RIO, TX, 78840",173575924,"R"
83648,"1701 GORSUCH AVENUE","BALTIMORE","MD",21218,39.3208635920001,-76.594078579,148,"1701 GORSUCH AVENUE, BALTIMORE, MD, 21218","Match","Exact","1701 GORSUCH AVE, BALTIMORE, MD, 21218",206423385,"R"
83649,"1701 GREENBROOK BLVD","HANOVER PARK","IL",60133,41.9739141800001,-88.145060448,149,"1701 GREENBROOK BLVD, HANOVER PARK, IL, 60133","Match","Exact","1701 GREENBROOK BLVD, HANOVER PARK, IL, 60133",112583564,"L"
83650,"1701 HIGHWAY 193","COOL","CA",95614,38.8962746990001,-120.992141468,150,"1701 HIGHWAY 193, COOL, CA, 95614","Match","Non_Exact","1701 STATE HWY 193, COOL, CA, 95614",636428321,"L"
83651,"1701 HILLCREST ROAD","SAN PABLO","CA",94806,37.957248312,-122.326395517,151,"1701 HILLCREST ROAD, SAN PABLO, CA, 94806","Match","Exact","1701 HILLCREST RD, SAN PABLO, CA, 94806",616811742,"R"
83652,"1701 HOME RD","DELAWARE","OH",43015,40.194503341,-83.062717796,152,"1701 HOME RD, DELAWARE, OH, 43015","Match","Exact","1701 HOME RD, DELAWARE, OH, 43015",633548797,"R"
83653,"1701 HUNTINGTON WOODS CT","WINSTON SALEM","NC",27103,36.0408236000001,-80.335740049,153,"1701 HUNTINGTON WOODS CT, WINSTON SALEM, NC, 27103","Match","Exact","1701 HUNTINGTON WOODS CT, WINSTON SALEM, NC, 27103",84638017,"L"
83654,"1701 KALAMAZOO AVENUE SE","GRAND RAPIDS","MI",49507,42.932470547,-85.637632104,154,"1701 KALAMAZOO AVENUE SE, GRAND RAPIDS, MI, 49507","Match","Exact","1701 KALAMAZOO AVE SE, GRAND RAPIDS, MI, 49507",12461886,"R"
83655,"1701 LAFAYETTE PKWY","OPELIKA","AL",36801,32.6689857430001,-85.368154885,155,"1701 LAFAYETTE PKWY, OPELIKA, AL, 36801","Match","Exact","1701 LAFAYETTE PKWY, OPELIKA, AL, 36801",1601787,"R"
83656,"1701 LAGUNA STREET APT 207","CONCORD","CA",94520,37.968930121,-122.039160523,156,"1701 LAGUNA STREET APT 207, CONCORD, CA, 94520","Match","Exact","1701 LAGUNA ST, CONCORD, CA, 94520",192053852,"L"
83657,"1701 LAMBERT RD UNIT C","LA HABRA","CA",90631,NA,NA,157,"1701 LAMBERT RD UNIT C, LA HABRA, CA, 90631","Tie",NA,NA,NA,NA
83658,"1701 LAY ST","DES MOINES","IA",50317,41.609182192,-93.5724352889999,158,"1701 LAY ST, DES MOINES, IA, 50317","Match","Exact","1701 LAY ST, DES MOINES, IA, 50317",65854416,"R"
83659,"1701 LEE ROAD APT J333","WINTER PARK","FL",32789,NA,NA,159,"1701 LEE ROAD APT J333, WINTER PARK, FL, 32789","No_Match",NA,NA,NA,NA
83660,"1701 LITTLE FLOCK CHURCH ROAD","COLLINS","GA",30421,32.15685968,-82.169394003,160,"1701 LITTLE FLOCK CHURCH ROAD, COLLINS, GA, 30421","Match","Exact","1701 LITTLE FLOCK CHURCH RD, COLLINS, GA, 30421",4740420,"L"
83661,"1701 LYNN ROAD","GREENSBORO","NC",27405,36.095921564,-79.725333485,161,"1701 LYNN ROAD, GREENSBORO, NC, 27405","Match","Exact","1701 LYNN RD, GREENSBORO, NC, 27405",131036565,"L"
83662,"1701 MAIN AVE SW STE 5","CULLMAN","AL",35055,34.1586923030001,-86.8480684739999,162,"1701 MAIN AVE SW STE 5, CULLMAN, AL, 35055","Match","Exact","1701 MAIN AVE SW, CULLMAN, AL, 35055",130257154,"L"
83663,"1701 MEADOWLARK DRIVE","MINOT","ND",58701,48.204490896,-101.319277443,163,"1701 MEADOWLARK DRIVE, MINOT, ND, 58701","Match","Non_Exact","1701 MEADOWLARK DR SW, MINOT, ND, 58701",200520713,"L"
83664,"1701 MEADOWS AVE","LANTANA","TX",76226,33.1005382490001,-97.116576392,164,"1701 MEADOWS AVE, LANTANA, TX, 76226","Match","Exact","1701 MEADOWS AVE, LANTANA, TX, 76226",629784265,"L"
83665,"1701 MILTON STREET","TURTLE CREEK","PA",15145,40.4103961440001,-79.813679279,165,"1701 MILTON STREET, TURTLE CREEK, PA, 15145","Match","Exact","1701 MILTON ST, TURTLE CREEK, PA, 15145",51673951,"R"
83666,"1701 MOLLY LANE","BIRMINGHAM","AL",35235,33.6279393020001,-86.648845082,166,"1701 MOLLY LANE, BIRMINGHAM, AL, 35235","Match","Exact","1701 MOLLY LN, BIRMINGHAM, AL, 35235",81569827,"R"
83667,"1701 MURPHY LANE","MOAB","UT",84532,38.547406203,-109.508624728,167,"1701 MURPHY LANE, MOAB, UT, 84532","Match","Exact","1701 MURPHY LN, MOAB, UT, 84532",651082347,"R"
83668,"1701 N 165TH RD","LINCOLN","KS",67455,NA,NA,168,"1701 N 165TH RD, LINCOLN, KS, 67455","No_Match",NA,NA,NA,NA
83669,"1701 N 16TH ST","PEKIN","IL",61554,40.584148946,-89.6282663979999,169,"1701 N 16TH ST, PEKIN, IL, 61554","Match","Exact","1701 N 16TH ST, PEKIN, IL, 61554",22497618,"L"
83670,"1701 N 8TH ST","MCALLEN","TX",78501,26.218675546,-98.22520265,170,"1701 N 8TH ST, MCALLEN, TX, 78501","Match","Exact","1701 N 8TH ST, MCALLEN, TX, 78501",71495052,"L"
83671,"1701 N JONES BLVD UNIT 2082","LAS VEGAS","NV",89108,36.190327417,-115.224033791,171,"1701 N JONES BLVD UNIT 2082, LAS VEGAS, NV, 89108","Match","Non_Exact","1701 N JONES BLVD, LAS VEGAS, NV, 89108",201936077,"L"
83672,"1701 N LEE TREVINO STE A","EL PASO","TX",79936,NA,NA,172,"1701 N LEE TREVINO STE A, EL PASO, TX, 79936","No_Match",NA,NA,NA,NA
83673,"1701 N MARKET ST","SPARTA","IL",62286,38.1452931310001,-89.7034942879999,173,"1701 N MARKET ST, SPARTA, IL, 62286","Match","Exact","1701 N MARKET ST, SPARTA, IL, 62286",95191887,"L"
83674,"1701 N MARTIN LUTHER KING AVE","OKLAHOMA CITY","OK",73111,NA,NA,174,"1701 N MARTIN LUTHER KING AVE, OKLAHOMA CITY, OK, 73111","No_Match",NA,NA,NA,NA
83675,"1701 N ORANGE GROVE AVENUE","LOS ANGELES","CA",90046,34.101628454,-118.360483279,175,"1701 N ORANGE GROVE AVENUE, LOS ANGELES, CA, 90046","Match","Exact","1701 N ORANGE GROVE AVE, LOS ANGELES, CA, 90046",141593982,"L"
83676,"1701 NE 164 STREET STE 303","NORTH MIAMI BEACH","FL",33162,25.9269711220001,-80.165900928,176,"1701 NE 164 STREET STE 303, NORTH MIAMI BEACH, FL, 33162","Match","Non_Exact","1701 NE 164TH ST, N MIAMI BEACH, FL, 33162",116036293,"L"
83677,"1701 NE 97TH STREET","KANSAS CITY","MO",64155,39.2693064790001,-94.5581388099999,177,"1701 NE 97TH STREET, KANSAS CITY, MO, 64155","Match","Non_Exact","1701 NE 97TH TER, KANSAS CITY, MO, 64155",624045863,"R"
83678,"1701 NE OCEAN BLVD APT 301","STUART","FL",34996,NA,NA,178,"1701 NE OCEAN BLVD APT 301, STUART, FL, 34996","Tie",NA,NA,NA,NA
83679,"1701 NEW YORK AVE","EGG HARBOR CITY","NJ",8215,NA,NA,179,"1701 NEW YORK AVE, EGG HARBOR CITY, NJ, 8215","No_Match",NA,NA,NA,NA
83680,"1701 NORMANDY LN","MIDLAND","TX",79705,32.0459628180001,-102.1072814,180,"1701 NORMANDY LN, MIDLAND, TX, 79705","Match","Exact","1701 NORMANDY LN, MIDLAND, TX, 79705",139589485,"R"
83681,"1701 NORTH 211TH DRIVE","BUCKEYE","AZ",85396,33.466203556,-112.514033144,181,"1701 NORTH 211TH DRIVE, BUCKEYE, AZ, 85396","Match","Exact","1701 N 211TH DR, BUCKEYE, AZ, 85396",645746975,"R"
83682,"1701 NORTH BLVD","TAMPA","FL",33607,27.95715463,-82.4683790559999,182,"1701 NORTH BLVD, TAMPA, FL, 33607","Match","Non_Exact","1701 NORTH BLVD, TAMPA, FL, 33606",640441022,"R"
83683,"1701 NORTH BOULEVARD","TAMPA","FL",33607,NA,NA,183,"1701 NORTH BOULEVARD, TAMPA, FL, 33607","No_Match",NA,NA,NA,NA
83684,"1701 NORTH GREEN VALLEY PARKWAY 9A","HENDERSON","NV",89074,36.034609045,-115.084558101,184,"1701 NORTH GREEN VALLEY PARKWAY 9A, HENDERSON, NV, 89074","Match","Exact","1701 N GREEN VALLEY PKWY, HENDERSON, NV, 89074",613449326,"L"
83685,"1701 NORTH STREET 1ST FL BLDG 40","ENDICOTT","NY",13760,42.1048450580001,-76.047809473,185,"1701 NORTH STREET 1ST FL BLDG 40, ENDICOTT, NY, 13760","Match","Exact","1701 NORTH ST, ENDICOTT, NY, 13760",46337844,"L"
83686,"1701 NW 26 AVENUE","FORT LAUDERDALE","FL",33311,26.1480363630001,-80.1772493939999,186,"1701 NW 26 AVENUE, FORT LAUDERDALE, FL, 33311","Match","Exact","1701 NW 26TH AVE, FORT LAUDERDALE, FL, 33311",114720141,"L"
83687,"1701 NW 7TH ST","OKLAHOMA CITY","OK",73106,35.4758348620001,-97.539070311,187,"1701 NW 7TH ST, OKLAHOMA CITY, OK, 73106","Match","Exact","1701 NW 7TH ST, OKLAHOMA CITY, OK, 73106",100398882,"R"
83688,"1701 NW THURMAN ST STE 204","PORTLAND","OR",97209,45.535680127,-122.68875825,188,"1701 NW THURMAN ST STE 204, PORTLAND, OR, 97209","Match","Non_Exact","1701 NW THURMAN ST, PORTLAND, OR, 97209",157498238,"R"
83689,"1701 OAK HALL DRIVE","SANDSTON","VA",23150,37.543787826,-77.299451792,189,"1701 OAK HALL DRIVE, SANDSTON, VA, 23150","Match","Exact","1701 OAK HALL DR, SANDSTON, VA, 23150",106688816,"R"
83690,"1701 OAKHURST SCENIC DR","FORT WORTH","TX",76111,32.787286538,-97.3195194479999,190,"1701 OAKHURST SCENIC DR, FORT WORTH, TX, 76111","Match","Exact","1701 OAKHURST SCENIC DR, FORT WORTH, TX, 76111",101858032,"L"
83691,"1701 PAGE AVE","BELLEVILLE","IL",62221,38.52527135,-89.968133645,191,"1701 PAGE AVE, BELLEVILLE, IL, 62221","Match","Exact","1701 PAGE AVE, BELLEVILLE, IL, 62221",107930803,"L"
83692,"1701 PARK ROAD APT 412","WASHINGTON","DC",20010,38.932455643,-77.040027336,192,"1701 PARK ROAD APT 412, WASHINGTON, DC, 20010","Match","Non_Exact","1701 PARK RD NW, WASHINGTON, DC, 20010",76222822,"R"
83693,"1701 PEACEFUL MEADOW CT SUITE 456B","LAREDO","TX",78041,27.5747576210001,-99.468978036,193,"1701 PEACEFUL MEADOW CT SUITE 456B, LAREDO, TX, 78041","Match","Non_Exact","1701 PEACEFULL MEADOW CT, LAREDO, TX, 78041",21694808,"L"
83694,"1701 PENNSYLVANIA AVE NW STE 200","WASHINGTON","DC",20006,38.8988823230001,-77.0396355619999,194,"1701 PENNSYLVANIA AVE NW STE 200, WASHINGTON, DC, 20006","Match","Exact","1701 PENNSYLVANIA AVE NW, WASHINGTON, DC, 20006",76225654,"R"
83695,"1701 PENNSYLVANIA AVE NW SUITE 300","WASHINGTON","DC",20006,38.8988823230001,-77.0396355619999,195,"1701 PENNSYLVANIA AVE NW SUITE 300, WASHINGTON, DC, 20006","Match","Exact","1701 PENNSYLVANIA AVE NW, WASHINGTON, DC, 20006",76225654,"R"
83696,"1701 PENNSYLVANIA AVE NW","WASHINGTON DC","DC",20006,38.8988823230001,-77.0396355619999,196,"1701 PENNSYLVANIA AVE NW, WASHINGTON DC, DC, 20006","Match","Exact","1701 PENNSYLVANIA AVE NW, WASHINGTON, DC, 20006",76225654,"R"
83697,"1701 PENNSYLVANIA AVE NW","WASHINGTON","DC",20006,38.8988823230001,-77.0396355619999,197,"1701 PENNSYLVANIA AVE NW, WASHINGTON, DC, 20006","Match","Exact","1701 PENNSYLVANIA AVE NW, WASHINGTON, DC, 20006",76225654,"R"
83698,"1701 PENNSYLVANIA AVENUE NW STE 200","WASHINGTON","MD",20006,NA,NA,198,"1701 PENNSYLVANIA AVENUE NW STE 200, WASHINGTON, MD, 20006","No_Match",NA,NA,NA,NA
83699,"1701 PENNSYLVANIA AVENUE SUITE 300","WASHINGTON","DC",20006,38.8988823230001,-77.0396355619999,199,"1701 PENNSYLVANIA AVENUE SUITE 300, WASHINGTON, DC, 20006","Match","Non_Exact","1701 PENNSYLVANIA AVE NW, WASHINGTON, DC, 20006",76225654,"R"
83700,"1701 QUINCY AVENUE NO 4","NAPERVILLE","IL",60540,41.7747907420001,-88.194505942,200,"1701 QUINCY AVENUE NO 4, NAPERVILLE, IL, 60540","Match","Non_Exact","1701 QUINCY AVE, NAPERVILLE, IL, 60540",112535408,"L"
83701,"1701 REGATTA BLVD","RICHMOND","CA",94804,37.9172635890001,-122.35182578,201,"1701 REGATTA BLVD, RICHMOND, CA, 94804","Match","Exact","1701 REGATTA BLVD, RICHMOND, CA, 94804",637920723,"L"
83702,"1701 RIGGERS RD","NEZPERCE","ID",83543,46.1910465940001,-116.303721,202,"1701 RIGGERS RD, NEZPERCE, ID, 83543","Match","Exact","1701 RIGGERS RD, NEZPERCE, ID, 83543",201761287,"R"
83703,"1701 RUGG STREET","KENT","OH",44240,41.157674683,-81.3331850979999,203,"1701 RUGG STREET, KENT, OH, 44240","Match","Exact","1701 RUGG ST, KENT, OH, 44240",137516425,"L"
83704,"1701 RUTH STREET","HOUSTON","TX",77004,29.729246833,-95.377832543,204,"1701 RUTH STREET, HOUSTON, TX, 77004","Match","Exact","1701 RUTH ST, HOUSTON, TX, 77004",96071305,"L"
83705,"1701 S BROADWAY DEPARTMENT OF CHEM","PITTSBURG","KS",66762,NA,NA,205,"1701 S BROADWAY DEPARTMENT OF CHEM, PITTSBURG, KS, 66762","No_Match",NA,NA,NA,NA
83706,"1701 S CLEMATIS RD","WEST LINN","OR",97068,45.375938933,-122.660223171,206,"1701 S CLEMATIS RD, WEST LINN, OR, 97068","Match","Exact","1701 S CLEMATIS RD, WEST LINN, OR, 97068",157979071,"L"
83707,"1701 S FEDERAL HWY APT 10","LAKE WORTH","FL",33460,NA,NA,207,"1701 S FEDERAL HWY APT 10, LAKE WORTH, FL, 33460","Tie",NA,NA,NA,NA
83708,"1701 S LESLIE AVENUE","KANSAS CITY","MO",64055,NA,NA,208,"1701 S LESLIE AVENUE, KANSAS CITY, MO, 64055","No_Match",NA,NA,NA,NA
83709,"1701 S MAIN STREET STE 3334","BROKEN ARROW","OK",74012,36.032196191,-95.79083965,209,"1701 S MAIN STREET STE 3334, BROKEN ARROW, OK, 74012","Match","Exact","1701 MAIN ST, BROKEN ARROW, OK, 74012",166465284,"L"
83710,"1701 S SHEPHERD DRIVE SUITE D","HOUSTON","TX",77019,29.775626517,-95.4095490989999,210,"1701 S SHEPHERD DRIVE SUITE D, HOUSTON, TX, 77019","Match","Non_Exact","1701 SHEPHERD DR, HOUSTON, TX, 77007",96061123,"L"
83711,"1701 SALMON CREEK LANE","JUNEAU","AK",99801,58.331743235,-134.46748515,211,"1701 SALMON CREEK LANE, JUNEAU, AK, 99801","Match","Exact","1701 SALMON CREEK LN, JUNEAU, AK, 99801",638014428,"L"
83712,"1701 SAN JACINTO STREET","HOUSTON","TX",77002,29.750617177,-95.367369432,212,"1701 SAN JACINTO STREET, HOUSTON, TX, 77002","Match","Exact","1701 SAN JACINTO ST, HOUSTON, TX, 77002",96067656,"L"
83713,"1701 SAN PABLO ROAD SOUTH APT 117","JACKSONVILLE","FL",32224,NA,NA,213,"1701 SAN PABLO ROAD SOUTH APT 117, JACKSONVILLE, FL, 32224","No_Match",NA,NA,NA,NA
83714,"1701 SE 5TH STREET","OCALA","FL",34471,29.1821167160001,-82.115497787,214,"1701 SE 5TH STREET, OCALA, FL, 34471","Match","Exact","1701 SE 5TH ST, OCALA, FL, 34471",116729491,"L"
83715,"1701 SHREYA ST","EL PASO","TX",79928,31.7551439480001,-106.251100121,215,"1701 SHREYA ST, EL PASO, TX, 79928","Match","Exact","1701 SHREYA ST, EL PASO, TX, 79928",645344424,"R"
83716,"1701 SIERA HIGHLANDS CT","PLAINFIELD","IL",60586,41.551819563,-88.219798613,216,"1701 SIERA HIGHLANDS CT, PLAINFIELD, IL, 60586","Match","Non_Exact","1701 SIERRA HIGHLANDS CT, PLAINFIELD, IL, 60586",111622721,"L"
83717,"1701 SIMPKINS ST","NASHVILLE","TN",37208,36.185588045,-86.812410668,217,"1701 SIMPKINS ST, NASHVILLE, TN, 37208","Match","Exact","1701 SIMPKINS ST, NASHVILLE, TN, 37208",97184578,"L"
83718,"1701 SOUTH 28TH STREET APT 113B","PHILADELPHIA","PA",19145,39.9321392350001,-75.191519542,218,"1701 SOUTH 28TH STREET APT 113B, PHILADELPHIA, PA, 19145","Match","Exact","1701 S 28TH ST, PHILADELPHIA, PA, 19145",131410262,"L"
83719,"1701 SOUTH 2ND STREET","CABOT","AR",72023,34.9632050060001,-92.03129052,219,"1701 SOUTH 2ND STREET, CABOT, AR, 72023","Match","Exact","1701 S 2ND ST, CABOT, AR, 72023",79709747,"R"
83720,"1701 SOUTH B STREET STE 100","ALBIA","IA",50231,41.012472626,-92.810626311,220,"1701 SOUTH B STREET STE 100, ALBIA, IA, 50231","Match","Non_Exact","1701 S B ST, ALBIA, IA, 52531",89517879,"L"
83721,"1701 SOUTH BROADWAY","PITTSBURG","KS",66762,37.3918453100001,-94.7050085,221,"1701 SOUTH BROADWAY, PITTSBURG, KS, 66762","Match","Non_Exact","1701 S BROADWAY ST, PITTSBURG, KS, 66762",33423864,"R"
83722,"1701 SOUTH FIRST AVENUE SUITE 407","MAYWOOD","IL",60153,41.87579529,-87.833855348,222,"1701 SOUTH FIRST AVENUE SUITE 407, MAYWOOD, IL, 60153","Match","Exact","1701 S 1ST AVE, MAYWOOD, IL, 60153",112205379,"L"
83723,"1701 SOUTH PARK AVENUE","OSKALOOSA","IA",52577,41.301100988,-92.6268935749999,223,"1701 SOUTH PARK AVENUE, OSKALOOSA, IA, 52577","Match","Non_Exact","1701 N PARK AVE, OSKALOOSA, IA, 52577",640691996,"L"
83724,"1701 SOUTH RAUL LONGORIA ROAD","EDINBURG","TX",78542,26.286280135,-98.138997827,224,"1701 SOUTH RAUL LONGORIA ROAD, EDINBURG, TX, 78542","Match","Exact","1701 S RAUL LONGORIA RD, EDINBURG, TX, 78542",71552473,"R"
83725,"1701 SOUTH ROAD","GARRETT","IN",46738,NA,NA,225,"1701 SOUTH ROAD, GARRETT, IN, 46738","No_Match",NA,NA,NA,NA
83726,"1701 SW 160TH AVE","MIRAMAR","FL",33027,NA,NA,226,"1701 SW 160TH AVE, MIRAMAR, FL, 33027","No_Match",NA,NA,NA,NA
83727,"1701 TEE DEE STREET","RALEIGH","NC",27610,35.7508528340001,-78.6096639259999,227,"1701 TEE DEE STREET, RALEIGH, NC, 27610","Match","Exact","1701 TEE DEE ST, RALEIGH, NC, 27610",72509896,"L"
83728,"1701 THURMOND STREET","WINSTON-SALEM","NC",27105,36.1164708590001,-80.258084203,228,"1701 THURMOND STREET, WINSTON-SALEM, NC, 27105","Match","Exact","1701 THURMOND ST, WINSTON SALEM, NC, 27105",84608239,"R"
83729,"1701 TINA LANE","FLOSSMOOR","IL",60422,41.531385121,-87.655944762,229,"1701 TINA LANE, FLOSSMOOR, IL, 60422","Match","Exact","1701 TINA LN, FLOSSMOOR, IL, 60422",111873594,"L"
83730,"1701 TURK STREET APT 9","SAN FRANCISCO","CA",94115,37.7798566430001,-122.437133045,230,"1701 TURK STREET APT 9, SAN FRANCISCO, CA, 94115","Match","Exact","1701 TURK ST, SAN FRANCISCO, CA, 94115",192283339,"L"
83731,"1701 VALLEY RD","WILLITS","CA",95490,39.413553413,-123.322083767,231,"1701 VALLEY RD, WILLITS, CA, 95490","Match","Exact","1701 VALLEY RD, WILLITS, CA, 95490",67312602,"L"
83732,"1701 VINEYARD DR APT 1","WILSON","NC",27893,35.7497859010001,-77.915223144,232,"1701 VINEYARD DR APT 1, WILSON, NC, 27893","Match","Non_Exact","1701 VINEYARD DR N, WILSON, NC, 27893",26704389,"L"
83733,"1701 W 143RD ST APT 216","BURNSVILLE","MN",55306,44.7427969550001,-93.300753319,233,"1701 W 143RD ST APT 216, BURNSVILLE, MN, 55306","Match","Non_Exact","1701 143RD ST W, BURNSVILLE, MN, 55306",647222109,"R"
83734,"1701 W 4TH STREET F2","LAWRENCE","KS",66044,38.9769307880001,-95.254700869,234,"1701 W 4TH STREET F2, LAWRENCE, KS, 66044","Match","Non_Exact","1701 W 4TH ST, LAWRENCE, KS, 66044",17683601,"L"
83735,"1701 W NORTHWEST HWY SUITE 100","GRAPEVINE","TX",76051,32.9411208980001,-97.09376221,235,"1701 W NORTHWEST HWY SUITE 100, GRAPEVINE, TX, 76051","Match","Non_Exact","1701 W NORTHWEST HWY, GRAPEVINE, TX, 76051",649631284,"L"
83736,"1701 W PRIEN LAKE RD","LAKE CHARLES","LA",70601,30.197740428,-93.246982287,236,"1701 W PRIEN LAKE RD, LAKE CHARLES, LA, 70601","Match","Exact","1701 W PRIEN LAKE RD, LAKE CHARLES, LA, 70601",648774659,"L"
83737,"1701 W WETHERBEE RD    UNIT 771611","ORLANDO","FL",32877,NA,NA,237,"1701 W WETHERBEE RD    UNIT 771611, ORLANDO, FL, 32877","No_Match",NA,NA,NA,NA
83738,"1701 W WILL ROGERS BLVD","CLAREMORE","OK",74017,36.319483383,-95.632573002,238,"1701 W WILL ROGERS BLVD, CLAREMORE, OK, 74017","Match","Exact","1701 W WILL ROGERS BLVD, CLAREMORE, OK, 74017",639328561,"L"
83739,"1701 WADING HERON WAY","THE VILLAGES","FL",32163,28.8342279030001,-81.9966391899999,239,"1701 WADING HERON WAY, THE VILLAGES, FL, 32163","Match","Exact","1701 WADING HERON WAY, THE VILLAGES, FL, 32163",642215053,"R"
83740,"1701 WALNUT STREET FLOOR 7","PHILADELPHIA","PA",19103,39.9499667010001,-75.169222479,240,"1701 WALNUT STREET FLOOR 7, PHILADELPHIA, PA, 19103","Match","Exact","1701 WALNUT ST, PHILADELPHIA, PA, 19103",651785533,"R"
83741,"1701 WARREN AVENUE","JACKSON","MI",49203,42.22892211,-84.444143786,241,"1701 WARREN AVENUE, JACKSON, MI, 49203","Match","Exact","1701 WARREN AVE, JACKSON, MI, 49203",17615966,"L"
83742,"1701 WASHINGTON AVENUE","MIAMI BEACH","FL",33139,25.7923621460001,-80.131915593,242,"1701 WASHINGTON AVENUE, MIAMI BEACH, FL, 33139","Match","Exact","1701 WASHINGTON AVE, MIAMI BEACH, FL, 33139",116286976,"R"
83743,"1701 WATERLOO TRL UNIT A","AUSTIN","TX",78704,30.2410982160001,-97.775478176,243,"1701 WATERLOO TRL UNIT A, AUSTIN, TX, 78704","Match","Exact","1701 WATERLOO TRL, AUSTIN, TX, 78704",63943869,"L"
83744,"1701 WEDGEWOOD","BLYTHEVILLE","AR",72315,35.944479745,-89.908297831,244,"1701 WEDGEWOOD, BLYTHEVILLE, AR, 72315","Match","Non_Exact","1701 WEDGEWOOD ST, BLYTHEVILLE, AR, 72315",47234799,"L"
83745,"1701 WEST LEHIGH AVENUE","PHILADELPHIA","PA",19132,39.9945374210001,-75.1594053379999,245,"1701 WEST LEHIGH AVENUE, PHILADELPHIA, PA, 19132","Match","Exact","1701 W LEHIGH AVE, PHILADELPHIA, PA, 19132",131418084,"R"
83746,"1701 WESTCHESTER DRIVE","COLUMBIA","SC",29210,34.04751508,-81.094312906,246,"1701 WESTCHESTER DRIVE, COLUMBIA, SC, 29210","Match","Exact","1701 WESTCHESTER DR, COLUMBIA, SC, 29210",608831889,"L"
83747,"1701 WESTWIND DRIVE 108","BAKERSFIELD","CA",93301,35.3756902970001,-119.04255005,247,"1701 WESTWIND DRIVE 108, BAKERSFIELD, CA, 93301","Match","Exact","1701 WESTWIND DR, BAKERSFIELD, CA, 93301",109126420,"L"
83748,"1701 WHITNEY MESA DRIVE SUITE 101","HENDERSON","NV",89104,36.0763161030001,-115.070106096,248,"1701 WHITNEY MESA DRIVE SUITE 101, HENDERSON, NV, 89104","Match","Non_Exact","1701 WHITNEY MESA DR, HENDERSON, NV, 89014",638864692,"R"
83749,"1701 WILD  CIRCLE","CLARKSTON","GA",30021,33.818728316,-84.241115809,249,"1701 WILD  CIRCLE, CLARKSTON, GA, 30021","Match","Exact","1701 WILD CIR, CLARKSTON, GA, 30021",23390977,"R"
83750,"1701 WOODROW AVENUE","WICHITA FALLS","TX",76301,33.8870910860001,-98.504292028,250,"1701 WOODROW AVENUE, WICHITA FALLS, TX, 76301","Match","Exact","1701 WOODROW AVE, WICHITA FALLS, TX, 76301",169845637,"L"
83751,"1701 WRIGHT STREET","MADISON","WI",53704,43.1203859490001,-89.330418489,251,"1701 WRIGHT STREET, MADISON, WI, 53704","Match","Exact","1701 WRIGHT ST, MADISON, WI, 53704",49471809,"R"
83752,"1701 WRIGHTSBORO RD","AUGUSTA","GA",30904,33.4658520680001,-82.0001162789999,252,"1701 WRIGHTSBORO RD, AUGUSTA, GA, 30904","Match","Exact","1701 WRIGHTSBORO RD, AUGUSTA, GA, 30904",55638757,"R"
83753,"17010 116TH AVE E","PUYALLUP","WA",98374,47.1010739600001,-122.274818483,253,"17010 116TH AVE E, PUYALLUP, WA, 98374","Match","Exact","17010 116TH AVE E, PUYALLUP, WA, 98374",184752467,"R"
83754,"17010 137TH PL SE","RENTON","WA",98058,47.450028724,-122.157389978,254,"17010 137TH PL SE, RENTON, WA, 98058","Match","Exact","17010 137TH PL SE, RENTON, WA, 98058",187009532,"L"
83755,"17010 CAIRNLASSIE STREET","HOUSTON","TX",77084,29.8482998200001,-95.662894528,255,"17010 CAIRNLASSIE STREET, HOUSTON, TX, 77084","Match","Exact","17010 CAIRNLASSIE ST, HOUSTON, TX, 77084",96154661,"R"
83756,"17010 ROBERTS RD","LOS GATOS","CA",95032,37.2343712810001,-121.966280962,256,"17010 ROBERTS RD, LOS GATOS, CA, 95032","Match","Exact","17010 ROBERTS RD, LOS GATOS, CA, 95032",123018946,"L"
83757,"17011 BEACH BLVD SUITE 900","HUNTINGTON BEACH","CA",92647,NA,NA,257,"17011 BEACH BLVD SUITE 900, HUNTINGTON BEACH, CA, 92647","No_Match",NA,NA,NA,NA
83758,"17011 GOYA STREET","GRANADA HILLS","CA",91344,34.3047114240001,-118.502003864,258,"17011 GOYA STREET, GRANADA HILLS, CA, 91344","Match","Exact","17011 GOYA ST, GRANADA HILLS, CA, 91344",141538485,"L"
83759,"17011 LAKE ARLINGTON LN","HOUSTON","TX",77044,29.970129661,-95.165788547,259,"17011 LAKE ARLINGTON LN, HOUSTON, TX, 77044","Match","Non_Exact","17011 LAKE ARLINGTON, HOUSTON, TX, 77044",635219318,"R"
83760,"17011 LINCOLN  SUITE 458","PARKER","CO",80134,NA,NA,260,"17011 LINCOLN  SUITE 458, PARKER, CO, 80134","No_Match",NA,NA,NA,NA
83761,"17011 LINCOLN AVE","PARKER","CO",80134,39.533991745,-104.791847981,261,"17011 LINCOLN AVE, PARKER, CO, 80134","Match","Non_Exact","17011 E LINCOLN AVE, PARKER, CO, 80134",651704493,"L"
83762,"17011 LINCOLN AVENUE BOX 185","PARKER","CO",80134,39.533991745,-104.791847981,262,"17011 LINCOLN AVENUE BOX 185, PARKER, CO, 80134","Match","Non_Exact","17011 E LINCOLN AVE, PARKER, CO, 80134",651704493,"L"
83763,"17011 VASHON HWY SW","VASHON","WA",98070,47.452924749,-122.460444897,263,"17011 VASHON HWY SW, VASHON, WA, 98070","Match","Exact","17011 VASHON HWY SW, VASHON, WA, 98070",186663909,"L"
83764,"17012 GLEN OAK RUN","ROCKVILLE","MD",20855,39.1355513190001,-77.137497264,264,"17012 GLEN OAK RUN, ROCKVILLE, MD, 20855","Match","Exact","17012 GLEN OAK RUN, ROCKVILLE, MD, 20855",62052307,"L"
83765,"17012 TRAILWOOD DR","WHITNEY","TX",76692,32.0167592930001,-97.404822338,265,"17012 TRAILWOOD DR, WHITNEY, TX, 76692","Match","Exact","17012 TRAILWOOD DR, WHITNEY, TX, 76692",160530947,"L"
83766,"17013 71ST DR N E","ARLINGTON","WA",98223,48.1497747590001,-122.132611547,266,"17013 71ST DR N E, ARLINGTON, WA, 98223","Match","Exact","17013 71ST DR NE, ARLINGTON, WA, 98223",187741523,"R"
83767,"17013 ASPEN LEAF DRIVE","BOWIE","MD",20716,38.9504461340001,-76.711542572,267,"17013 ASPEN LEAF DRIVE, BOWIE, MD, 20716","Match","Exact","17013 ASPEN LEAF DR, BOWIE, MD, 20716",76348166,"R"
83768,"17014 WINNING COLORS PLACE","LEESBURG","VA",20176,39.1454658060001,-77.588123947,268,"17014 WINNING COLORS PLACE, LEESBURG, VA, 20176","Match","Exact","17014 WINNING COLORS PL, LEESBURG, VA, 20176",62355996,"R"
83769,"17015 HAAS AVE","TORRANCE","CA",90504,33.876103679,-118.316898079,269,"17015 HAAS AVE, TORRANCE, CA, 90504","Match","Exact","17015 HAAS AVE, TORRANCE, CA, 90504",141666608,"R"
83770,"17015 MAGNOLIA DRIVE","HAZEL CREST","IL",60429,41.5795662310001,-87.7059764859999,270,"17015 MAGNOLIA DRIVE, HAZEL CREST, IL, 60429","Match","Exact","17015 MAGNOLIA DR, HAZEL CREST, IL, 60429",111704452,"L"
83771,"17015 N WOLF COURT","SPLENDORA","TX",77372,30.1969307530001,-95.131552137,271,"17015 N WOLF COURT, SPLENDORA, TX, 77372","Match","Exact","17015 WOLF CT, SPLENDORA, TX, 77372",629662895,"R"
83772,"17015 SE 82ND ST","CLACKAMAS","OR",97015,45.400097643,-122.569119141,272,"17015 SE 82ND ST, CLACKAMAS, OR, 97015","Match","Non_Exact","17015 SE 82ND DR, CLACKAMAS, OR, 97015",157993060,"R"
83773,"17015 SEVEN PINES DRVE BUILDING 3","SPRING","TX",77379,30.0278320530001,-95.5188995939999,273,"17015 SEVEN PINES DRVE BUILDING 3, SPRING, TX, 77379","Match","Exact","17015 SEVEN PINES DR, SPRING, TX, 77379",627868898,"R"
83774,"17015 SNOWWOOD DR","MONUMENT","CO",80132,39.079855045,-104.868100884,274,"17015 SNOWWOOD DR, MONUMENT, CO, 80132","Match","Exact","17015 SNOWWOOD DR, MONUMENT, CO, 80132",105564673,"L"
83775,"17015 TORTOISE ST","ROUND ROCK","TX",78664,30.465707207,-97.648348814,275,"17015 TORTOISE ST, ROUND ROCK, TX, 78664","Match","Exact","17015 TORTOISE ST, ROUND ROCK, TX, 78664",640588389,"R"
83776,"17018 PITKENNEDY PATH","RICHMOND","TX",77407,29.647542059,-95.684060438,276,"17018 PITKENNEDY PATH, RICHMOND, TX, 77407","Match","Exact","17018 PITKENNEDY PATH, RICHMOND, TX, 77407",648706757,"R"
83777,"17018 SE 1ST PL","BELLEVUE","WA",98008,NA,NA,277,"17018 SE 1ST PL, BELLEVUE, WA, 98008","No_Match",NA,NA,NA,NA
83778,"1701B SOUTH 28TH STREET - APT 202B","PHILADELPHIA","PA",19145,39.9321392350001,-75.191519542,278,"1701B SOUTH 28TH STREET - APT 202B, PHILADELPHIA, PA, 19145","Match","Exact","1701 S 28TH ST, PHILADELPHIA, PA, 19145",131410262,"L"
83779,"1702 146TH AVE NW","ALEXANDER","ND",58831,NA,NA,279,"1702 146TH AVE NW, ALEXANDER, ND, 58831","No_Match",NA,NA,NA,NA
83780,"1702 3RD AVE","BEAVER FALLS","PA",15010,40.7579461240001,-80.3139357439999,280,"1702 3RD AVE, BEAVER FALLS, PA, 15010","Match","Exact","1702 3RD AVE, BEAVER FALLS, PA, 15010",52557084,"R"
83781,"1702 4TH ST","SAN FERNANDO","CA",91340,34.2906344030001,-118.441306748,281,"1702 4TH ST, SAN FERNANDO, CA, 91340","Match","Exact","1702 4TH ST, SAN FERNANDO, CA, 91340",141547559,"L"
83782,"1702 98TH ST SO","TACOMA","WA",98444,47.168332095,-122.45823688,282,"1702 98TH ST SO, TACOMA, WA, 98444","Match","Exact","1702 98TH ST S, TACOMA, WA, 98444",184677174,"L"
83783,"1702 AMSTERDAM AVE","NEW YORK","NY",10031,40.824684286,-73.948018237,283,"1702 AMSTERDAM AVE, NEW YORK, NY, 10031","Match","Exact","1702 AMSTERDAM AVE, NEW YORK, NY, 10031",59655968,"L"
83784,"1702 AVERY WAY","CASTLE ROCK","CO",80109,39.383495419,-104.906681106,284,"1702 AVERY WAY, CASTLE ROCK, CO, 80109","Match","Exact","1702 AVERY WAY, CASTLE ROCK, CO, 80109",625224387,"R"
83785,"1702 BIRCHWOOD ST UNIT 8","DELAVAN","WI",53115,NA,NA,285,"1702 BIRCHWOOD ST UNIT 8, DELAVAN, WI, 53115","No_Match",NA,NA,NA,NA
83786,"1702 BOULDER WALK LANE","ATLANTA","GA",30316,33.701827564,-84.330782251,286,"1702 BOULDER WALK LANE, ATLANTA, GA, 30316","Match","Exact","1702 BOULDER WALK LN, ATLANTA, GA, 30316",619385116,"L"
83787,"1702 BREEZY BEND DRIVE","KATY","TX",77494,29.7667927850001,-95.809851056,287,"1702 BREEZY BEND DRIVE, KATY, TX, 77494","Match","Exact","1702 BREEZY BEND DR, KATY, TX, 77494",78261758,"R"
83788,"1702 BRIGHTSEAT ROAD APT T4","HYATTSVILLE","MD",20785,38.915414222,-76.857488556,288,"1702 BRIGHTSEAT ROAD APT T4, HYATTSVILLE, MD, 20785","Match","Exact","1702 BRIGHTSEAT RD, HYATTSVILLE, MD, 20785",76381235,"L"
83789,"1702 CARDIFF ROAD","COLUMBUS","OH",43221,40.0044390100001,-83.0551492499999,289,"1702 CARDIFF ROAD, COLUMBUS, OH, 43221","Match","Exact","1702 CARDIFF RD, COLUMBUS, OH, 43221",218690099,"R"
83790,"1702 DOGWOOD RIDGE RD","WHEELERSBURG","OH",45694,38.739954321,-82.837644037,290,"1702 DOGWOOD RIDGE RD, WHEELERSBURG, OH, 45694","Match","Exact","1702 DOGWOOD RIDGE RD, WHEELERSBURG, OH, 45694",55114321,"R"
83791,"1702 E 71ST ST APT 411","TULSA","OK",74136,36.0607580010001,-95.966105283,291,"1702 E 71ST ST APT 411, TULSA, OK, 74136","Match","Non_Exact","1702 E 71ST ST, TULSA, OK, 74136",166444596,"R"
83792,"1702 E BECKY CIRCLE","PAYSON","AZ",85541,NA,NA,292,"1702 E BECKY CIRCLE, PAYSON, AZ, 85541","No_Match",NA,NA,NA,NA
83793,"1702 E GLENDALE AVENUE","PHOENIX","AZ",85020,33.5382918870001,-112.04511585,293,"1702 E GLENDALE AVENUE, PHOENIX, AZ, 85020","Match","Exact","1702 E GLENDALE AVE, PHOENIX, AZ, 85020",638560779,"L"
83794,"1702 EAST 63RD ST","LONG BEACH","CA",90805,33.8691860690001,-118.171881918,294,"1702 EAST 63RD ST, LONG BEACH, CA, 90805","Match","Exact","1702 E 63RD ST, LONG BEACH, CA, 90805",141684082,"R"
83795,"1702 EISENHOWER DRIVE","SANTA CLARA","CA",95054,37.4004806350001,-121.9575957,295,"1702 EISENHOWER DRIVE, SANTA CLARA, CA, 95054","Match","Exact","1702 EISENHOWER DR, SANTA CLARA, CA, 95054",122959245,"L"
83796,"1702 ENTERPRISE DR SUITE E","FAIRFIELD","CA",94533,38.243055343,-122.06303573,296,"1702 ENTERPRISE DR SUITE E, FAIRFIELD, CA, 94533","Match","Exact","1702 ENTERPRISE DR, FAIRFIELD, CA, 94533",192563115,"L"
83797,"1702 FAIRMONT ST","DOTHAN","AL",36303,31.25906709,-85.428281023,297,"1702 FAIRMONT ST, DOTHAN, AL, 36303","Match","Exact","1702 FAIRMONT ST, DOTHAN, AL, 36303",101212457,"R"
83798,"1702 HERITAGE LOOP","HOOD RIVER","OR",97031,45.6979428500001,-121.534827303,298,"1702 HERITAGE LOOP, HOOD RIVER, OR, 97031","Match","Exact","1702 HERITAGE LOOP, HOOD RIVER, OR, 97031",645304334,"R"
83799,"1702 HORSEMAN CT","SANTA MARIA","CA",93454,34.96162961,-120.40394124,299,"1702 HORSEMAN CT, SANTA MARIA, CA, 93454","Match","Exact","1702 HORSEMAN CT, SANTA MARIA, CA, 93454",108624465,"L"
83800,"1702 HUNTINGTON PATH","THE VILLAGES","FL",32162,28.8808098980001,-81.9938203299999,300,"1702 HUNTINGTON PATH, THE VILLAGES, FL, 32162","Match","Exact","1702 HUNTINGTON PATH, THE VILLAGES, FL, 32162",612341455,"L"
83801,"1702 INDEPENDENCE AVE SE","WASHINGTON","DC",20003,38.8875960570001,-76.980589107,301,"1702 INDEPENDENCE AVE SE, WASHINGTON, DC, 20003","Match","Exact","1702 INDEPENDENCE AVE SE, WASHINGTON, DC, 20003",76230530,"L"
83802,"1702 KILBOURN STREET","LOS ANGELES","CA",90065,34.101781664,-118.229700428,302,"1702 KILBOURN STREET, LOS ANGELES, CA, 90065","Match","Exact","1702 KILBOURN ST, LOS ANGELES, CA, 90065",642864232,"L"
83803,"1702 L ST SUITE 128","FRESNO","CA",93721,36.742404752,-119.795807259,303,"1702 L ST SUITE 128, FRESNO, CA, 93721","Match","Exact","1702 L ST, FRESNO, CA, 93721",197578803,"R"
83804,"1702 LYNNWOOD COURT","FLOSSMOOR","IL",60422,41.5358977750001,-87.6588969319999,304,"1702 LYNNWOOD COURT, FLOSSMOOR, IL, 60422","Match","Exact","1702 LYNNWOOD CT, FLOSSMOOR, IL, 60422",111873591,"L"
83805,"1702 MACY DRIVE","ROSWELL","GA",30076,NA,NA,305,"1702 MACY DRIVE, ROSWELL, GA, 30076","No_Match",NA,NA,NA,NA
83806,"1702 MAGNOLIA COVE","POCAHONTAS","AR",72455,36.2722664780001,-90.971767899,306,"1702 MAGNOLIA COVE, POCAHONTAS, AR, 72455","Match","Exact","1702 MAGNOLIA COVE, POCAHONTAS, AR, 72455",52388841,"R"
83807,"1702 MELLON WAY","SARASOTA","FL",34232,27.3189583920001,-82.453923146,307,"1702 MELLON WAY, SARASOTA, FL, 34232","Match","Exact","1702 MELLON WAY, SARASOTA, FL, 34232",16435062,"R"
83808,"1702 MONROE ST","YORK","PA",17404,39.9517721810001,-76.764890759,308,"1702 MONROE ST, YORK, PA, 17404","Match","Exact","1702 MONROE ST, YORK, PA, 17404",88729373,"L"
83809,"1702 MOSCOW AVE","HICKMAN","KY",42050,36.5708765200001,-89.1728371579999,309,"1702 MOSCOW AVE, HICKMAN, KY, 42050","Match","Exact","1702 MOSCOW AVE, HICKMAN, KY, 42050",30308199,"L"
83810,"1702 MOSSBACK CIRCLE","FRESNO","TX",77545,29.5103459430001,-95.48453742,310,"1702 MOSSBACK CIRCLE, FRESNO, TX, 77545","Match","Exact","1702 MOSSBACK CIR, FRESNO, TX, 77545",641138692,"L"
83811,"1702 N HOWARD AVE SUITE A","TAMPA","FL",33607,27.957235682,-82.482914803,311,"1702 N HOWARD AVE SUITE A, TAMPA, FL, 33607","Match","Non_Exact","1702 N HOWARD AVE, TAMPA, FL, 33607",104517153,"L"
83812,"1702 N MAIN","DAVENPORT","IA",52803,41.5371836680001,-90.575552923,312,"1702 N MAIN, DAVENPORT, IA, 52803","Match","Non_Exact","1702 N MAIN ST, DAVENPORT, IA, 52803",122726870,"L"
83813,"1702 N WOODLAND BLVD 116-176","DELAND","FL",32720,29.0610189770001,-81.304582153,313,"1702 N WOODLAND BLVD 116-176, DELAND, FL, 32720","Match","Non_Exact","1702 N WOODLAND BLVD, DELAND, FL, 32720",639298899,"R"
83814,"1702 NURSERY WAY","PLEASANTON","CA",94588,37.680506157,-121.867149149,314,"1702 NURSERY WAY, PLEASANTON, CA, 94588","Match","Exact","1702 NURSERY WAY, PLEASANTON, CA, 94588",125081968,"R"
83815,"1702 PARKWAY DRIVE","LUBBOCK","TX",79403,33.5932908950001,-101.81684655,315,"1702 PARKWAY DRIVE, LUBBOCK, TX, 79403","Match","Exact","1702 PARKWAY DR, LUBBOCK, TX, 79403",185313603,"R"
83816,"1702 PASEO CORTO DR","CEDAR PARK","TX",78613,30.475330829,-97.854576381,316,"1702 PASEO CORTO DR, CEDAR PARK, TX, 78613","Match","Exact","1702 PASEO CORTO DR, CEDAR PARK, TX, 78613",64079186,"L"
83817,"1702 PEBBLE CV","HOOLVER","AL",35244,33.33279406,-86.901292304,317,"1702 PEBBLE CV, HOOLVER, AL, 35244","Match","Non_Exact","1702 PEBBLE COVE, HOOVER, AL, 35244",81762821,"L"
83818,"1702 PINE HARRIER CIR","SARASOTA","FL",34231,27.285136504,-82.536185459,318,"1702 PINE HARRIER CIR, SARASOTA, FL, 34231","Match","Exact","1702 PINE HARRIER CIR, SARASOTA, FL, 34231",16348932,"R"
83819,"1702 REPUBLIC ST","SAN DIEGO","CA",92114,32.7229215410001,-117.065071662,319,"1702 REPUBLIC ST, SAN DIEGO, CA, 92114","Match","Exact","1702 REPUBLIC ST, SAN DIEGO, CA, 92114",195351637,"L"
83820,"1702 ROSEWOOD SE","GRAND RAPIDS","MI",49506,42.9323644230001,-85.626713025,320,"1702 ROSEWOOD SE, GRAND RAPIDS, MI, 49506","Match","Non_Exact","1702 ROSEWOOD AVE SE, GRAND RAPIDS, MI, 49506",12462542,"L"
83821,"1702 S 9TH STREET","ST LOUIS","MO",63104,38.610647656,-90.202719641,321,"1702 S 9TH STREET, ST LOUIS, MO, 63104","Match","Exact","1702 S 9TH ST, SAINT LOUIS, MO, 63104",107605592,"L"
83822,"1702 S BAYSHORE DRIVE","MIAMI","FL",33133,25.7401015560001,-80.221123038,322,"1702 S BAYSHORE DRIVE, MIAMI, FL, 33133","Match","Exact","1702 S BAYSHORE DR, MIAMI, FL, 33133",116019135,"L"
83823,"1702 S RACE ST","URBANA","IL",61801,40.098186952,-88.2096277529999,323,"1702 S RACE ST, URBANA, IL, 61801","Match","Exact","1702 S RACE ST, URBANA, IL, 61801",8813402,"L"
83824,"1702 S STATE HIGHWAY 336","EDINBURG","TX",78539,NA,NA,324,"1702 S STATE HIGHWAY 336, EDINBURG, TX, 78539","No_Match",NA,NA,NA,NA
83825,"1702 SCHOOL STREET","FREEDOM","PA",15042,NA,NA,325,"1702 SCHOOL STREET, FREEDOM, PA, 15042","No_Match",NA,NA,NA,NA
83826,"1702 STENTON AVENUE","PHILADELPHIA","PA",19141,40.0500399840001,-75.147406614,326,"1702 STENTON AVENUE, PHILADELPHIA, PA, 19141","Match","Exact","1702 STENTON AVE, PHILADELPHIA, PA, 19141",131453106,"L"
83827,"1702 STONE ST STE A","JONESBORO","AR",72401,35.824679519,-90.675597854,327,"1702 STONE ST STE A, JONESBORO, AR, 72401","Match","Exact","1702 STONE ST, JONESBORO, AR, 72401",46909984,"R"
83828,"1702 SUMMERHILL COURT","ROSEVILLE","CA",95661,38.7190951040001,-121.252155167,328,"1702 SUMMERHILL COURT, ROSEVILLE, CA, 95661","Match","Non_Exact","1702 SUMMERHILL DR, ROSEVILLE, CA, 95661",106765841,"R"
83829,"1702 SUNSET DRIVE","MENDOTA","IL",61342,41.558931118,-89.1229330909999,329,"1702 SUNSET DRIVE, MENDOTA, IL, 61342","Match","Exact","1702 SUNSET DR, MENDOTA, IL, 61342",8582259,"L"
83830,"1702 TEAL RUN PLACE DR","FRESNO","TX",77545,29.5289900600001,-95.479119828,330,"1702 TEAL RUN PLACE DR, FRESNO, TX, 77545","Match","Exact","1702 TEAL RUN PLACE DR, FRESNO, TX, 77545",78299491,"R"
83831,"1702 TODDS LANE - SUITE 327","HAMPTON","VA",23666,37.039755879,-76.4100523509999,331,"1702 TODDS LANE - SUITE 327, HAMPTON, VA, 23666","Match","Exact","1702 TODDS LN, HAMPTON, VA, 23666",103804616,"R"
83832,"1702 W MAIN STREET","ELMA","WA",98541,47.0032644020001,-123.422299482,332,"1702 W MAIN STREET, ELMA, WA, 98541","Match","Exact","1702 W MAIN ST, ELMA, WA, 98541",180600805,"L"
83833,"1702 WALNUT","AUSTIN","TX",78702,30.279012908,-97.712947223,333,"1702 WALNUT, AUSTIN, TX, 78702","Match","Non_Exact","1702 WALNUT AVE, AUSTIN, TX, 78702",63947637,"L"
83834,"1702 WESTSIDE DRIVE","SHERMAN","TX",75092,33.6510255690001,-96.634152897,334,"1702 WESTSIDE DRIVE, SHERMAN, TX, 75092","Match","Exact","1702 WESTSIDE DR, SHERMAN, TX, 75092",63353661,"L"
83835,"1702 WILTSHIRE VILLAGE DRIVE","WELLINGTON","FL",33414,26.656792866,-80.257221693,335,"1702 WILTSHIRE VILLAGE DRIVE, WELLINGTON, FL, 33414","Match","Exact","1702 WILTSHIRE VILLAGE DR, WELLINGTON, FL, 33414",115579053,"L"
83836,"1702 WOODBINE ST APT 10","QUEENS","NY",11385,40.7013531480001,-73.907981949,336,"1702 WOODBINE ST APT 10, QUEENS, NY, 11385","Match","Non_Exact","1702 WOODBINE ST, FLUSHING, NY, 11385",59695050,"R"
83837,"1702 WOODBINE STREET APT 5","RIDGEWOOD","NY",11385,40.7013531480001,-73.907981949,337,"1702 WOODBINE STREET APT 5, RIDGEWOOD, NY, 11385","Match","Exact","1702 WOODBINE ST, RIDGEWOOD, NY, 11385",59695050,"R"
83838,"17021 RETRAC WAY","GRASS VALLEY","CA",95949,39.1172383000001,-121.103495663,338,"17021 RETRAC WAY, GRASS VALLEY, CA, 95949","Match","Exact","17021 RETRAC WAY, GRASS VALLEY, CA, 95949",651443264,"R"
83839,"17022 BUDOWSKI RD","BROOKSVILLE","FL",34614,28.6252550350001,-82.449468221,339,"17022 BUDOWSKI RD, BROOKSVILLE, FL, 34614","Match","Exact","17022 BUDOWSKI RD, BROOKSVILLE, FL, 34614",85450124,"R"
83840,"17022 WINCHESTER","NORTHVILLE","MI",48168,42.4104236330001,-83.454525404,340,"17022 WINCHESTER, NORTHVILLE, MI, 48168","Match","Non_Exact","17022 WINCHESTER DR, NORTHVILLE, MI, 48168",95405663,"R"
83841,"17023 CROGAN PIKE","SHIRLEYSBURG","PA",17260,NA,NA,341,"17023 CROGAN PIKE, SHIRLEYSBURG, PA, 17260","No_Match",NA,NA,NA,NA
83842,"17023 OLD NATIONAL PIKE SW","FROSTBURG","MD",21532,39.650488297,-78.8996167129999,342,"17023 OLD NATIONAL PIKE SW, FROSTBURG, MD, 21532","Match","Exact","17023 OLD NATIONAL PIKE SW, FROSTBURG, MD, 21532",123310435,"L"
83843,"17023 W DIXIE HWY","N MIAMI BEACH","FL",33160,25.933061034,-80.152844913,343,"17023 W DIXIE HWY, N MIAMI BEACH, FL, 33160","Match","Exact","17023 W DIXIE HWY, N MIAMI BEACH, FL, 33160",116036773,"R"
83844,"17023 W RIO VISTA LANE","GOODYEAR","AZ",85338,33.422135331,-112.424672242,344,"17023 W RIO VISTA LANE, GOODYEAR, AZ, 85338","Match","Exact","17023 W RIO VISTA LN, GOODYEAR, AZ, 85338",618476306,"L"
83845,"17027 24TH AVE SE","BOTHELL","WA",98012,47.84317014,-122.200742932,345,"17027 24TH AVE SE, BOTHELL, WA, 98012","Match","Exact","17027 24TH AVE SE, BOTHELL, WA, 98012",187761187,"L"
83846,"17027 W DIXIE HIGHWAY STE 106","NORTH MIAMI BEACH","FL",33160,25.933088562,-80.152817004,346,"17027 W DIXIE HIGHWAY STE 106, NORTH MIAMI BEACH, FL, 33160","Match","Non_Exact","17027 W DIXIE HWY, N MIAMI BEACH, FL, 33160",116036773,"R"
83847,"17028 LAVIGNE ROAD","PONCHATOULA","LA",70454,30.4538309230001,-90.4424916949999,347,"17028 LAVIGNE ROAD, PONCHATOULA, LA, 70454","Match","Exact","17028 LAVIGNE RD, PONCHATOULA, LA, 70454",75763488,"L"
83848,"17028 MCKEEVER ST","GRANADA HILLS","CA",91344,34.274710724,-118.503676494,348,"17028 MCKEEVER ST, GRANADA HILLS, CA, 91344","Match","Exact","17028 MCKEEVER ST, GRANADA HILLS, CA, 91344",141542440,"L"
83849,"17029 PINEVIEW DRIVE","HOMER GLEN","IL",60491,41.5803173780001,-87.914050109,349,"17029 PINEVIEW DRIVE, HOMER GLEN, IL, 60491","Match","Exact","17029 PINEVIEW DR, HOMER GLEN, IL, 60491",111590266,"L"
83850,"1702L MERIDIAN AVE NUM 199","SAN JOSE","CA",95125,37.293343258,-121.913515218,350,"1702L MERIDIAN AVE NUM 199, SAN JOSE, CA, 95125","Match","Exact","1702 MERIDIAN AVE, SAN JOSE, CA, 95125",635860494,"L"
83851,"1703 18TH ST","LAKE CHARLES","LA",70601,30.2057046520001,-93.197275243,351,"1703 18TH ST, LAKE CHARLES, LA, 70601","Match","Exact","1703 18TH ST, LAKE CHARLES, LA, 70601",88438847,"L"
83852,"1703 AVENUE H","ABERNATHY","TX",79311,33.842015716,-101.848418511,352,"1703 AVENUE H, ABERNATHY, TX, 79311","Match","Exact","1703 AVE H, ABERNATHY, TX, 79311",185703236,"L"
83853,"1703 BRENWOOD DRIVE","MESQUITE","TX",75181,32.744531221,-96.547559651,353,"1703 BRENWOOD DRIVE, MESQUITE, TX, 75181","Match","Exact","1703 BRENWOOD DR, MESQUITE, TX, 75181",103166338,"R"
83854,"1703 CANOE CREEK FALLS DR","ORLANDO","FL",32824,28.3735117620001,-81.3373016149999,354,"1703 CANOE CREEK FALLS DR, ORLANDO, FL, 32824","Match","Exact","1703 CANOE CREEK FALLS DR, ORLANDO, FL, 32824",631777651,"L"
83855,"1703 CEDAR","QUINCYI","IL",62301,39.94546805,-91.388616379,355,"1703 CEDAR, QUINCYI, IL, 62301","Match","Non_Exact","1703 CEDAR ST, QUINCY, IL, 62301",35063905,"R"
83856,"1703 CENTRAL STREET","YORKTOWN HEIGHTS","NY",10598,41.2672892210001,-73.776357347,356,"1703 CENTRAL STREET, YORKTOWN HEIGHTS, NY, 10598","Match","Exact","1703 CENTRAL ST, YORKTOWN HEIGHTS, NY, 10598",139728542,"L"
83857,"1703 COLUMBINE RD","SANFORD","NC",27330,35.494211754,-79.2243820639999,357,"1703 COLUMBINE RD, SANFORD, NC, 27330","Match","Exact","1703 COLUMBINE RD, SANFORD, NC, 27330",72072968,"L"
83858,"1703 COURT NORTH DR","MELVILLE","NY",11747,40.7620902290001,-73.414640381,358,"1703 COURT NORTH DR, MELVILLE, NY, 11747","Match","Exact","1703 COURT NORTH DR, MELVILLE, NY, 11747",641628250,"R"
83859,"1703 CR 478","NEW ALBANY","MS",38652,34.545707502,-89.0587695149999,359,"1703 CR 478, NEW ALBANY, MS, 38652","Match","Exact","1703 CO RD 478, NEW ALBANY, MS, 38652",76606272,"L"
83860,"1703 DELAFORD DRIVE","CARROLLTON","TX",75007,33.0090867910001,-96.896658718,360,"1703 DELAFORD DRIVE, CARROLLTON, TX, 75007","Match","Exact","1703 DELAFORD DR, CARROLLTON, TX, 75007",103370590,"L"
83861,"1703 DOLBY WAY","CHESTER SPRGS","PA",19425,40.1007677760001,-75.689950638,361,"1703 DOLBY WAY, CHESTER SPRGS, PA, 19425","Match","Exact","1703 DOLBY WAY, CHESTER SPRINGS, PA, 19425",632196734,"R"
83862,"1703 DUNRAVEN ROAD","BLOOMINGTON","IL",61704,40.456886765,-88.9084831389999,362,"1703 DUNRAVEN ROAD, BLOOMINGTON, IL, 61704","Match","Exact","1703 DUNRAVEN RD, BLOOMINGTON, IL, 61704",648188669,"R"
83863,"1703 E 26TH AVE UNIT A","TAMPA","FL",33605,27.974132839,-82.439801108,363,"1703 E 26TH AVE UNIT A, TAMPA, FL, 33605","Match","Non_Exact","1703 E 26TH AVE, TAMPA, FL, 33605",104523801,"R"
83864,"1703 E 66TH STREET","TULSA","OK",74136,36.068607893,-95.966106102,364,"1703 E 66TH STREET, TULSA, OK, 74136","Match","Exact","1703 E 66TH ST, TULSA, OK, 74136",166444584,"L"
83865,"1703 E BEVERLY RD","SHOREWOOD","WI",53211,43.0860100200001,-87.8882252989999,365,"1703 E BEVERLY RD, SHOREWOOD, WI, 53211","Match","Exact","1703 E BEVERLY RD, SHOREWOOD, WI, 53211",77743274,"R"
83866,"1703 E MCNEILL STREET","LILLINGTON","NC",27546,35.3897737360001,-78.796667548,366,"1703 E MCNEILL STREET, LILLINGTON, NC, 27546","Match","Exact","1703 E MCNEILL ST, LILLINGTON, NC, 27546",642878714,"R"
83867,"1703 E SINGLETREE COURT","FLAGSTAFF","AZ",86005,35.1647236700001,-111.642203833,367,"1703 E SINGLETREE COURT, FLAGSTAFF, AZ, 86005","Match","Exact","1703 SINGLETREE CT, FLAGSTAFF, AZ, 86005",189147917,"L"
83868,"1703 EDENSIDE AVE","LOUISVILLE","KY",40204,38.2310134320001,-85.713518896,368,"1703 EDENSIDE AVE, LOUISVILLE, KY, 40204","Match","Exact","1703 EDENSIDE AVE, LOUISVILLE, KY, 40204",96847348,"L"
83869,"1703 FERN FOREST DR","GASTONIA","NC",28054,35.2406414110001,-81.166258211,369,"1703 FERN FOREST DR, GASTONIA, NC, 28054","Match","Exact","1703 FERN FOREST DR, GASTONIA, NC, 28054",70380509,"R"
83870,"1703 GRAND AVE","YAZOO CITY","MS",39194,32.868140796,-90.397934428,370,"1703 GRAND AVE, YAZOO CITY, MS, 39194","Match","Exact","1703 GRAND AVE, YAZOO CITY, MS, 39194",152213581,"L"
83871,"1703 GUNWALE RD","HOUSTON","TX",77062,29.5740804590001,-95.119598013,371,"1703 GUNWALE RD, HOUSTON, TX, 77062","Match","Exact","1703 GUNWALE RD, HOUSTON, TX, 77062",96115519,"L"
83872,"1703 JASPER LANE","CROFTON","MD",21114,39.016197592,-76.6837404359999,372,"1703 JASPER LANE, CROFTON, MD, 21114","Match","Exact","1703 JASPER LN, CROFTON, MD, 21114",68198797,"R"
83873,"1703 KENYON DRIVE","REDDING","CA",96001,40.541845487,-122.397392675,373,"1703 KENYON DRIVE, REDDING, CA, 96001","Match","Exact","1703 KENYON DR, REDDING, CA, 96001",126682675,"R"
83874,"1703 KILBOURNE PL NW STE 2","WASHINGTON","DC",20010,38.930572673,-77.039085988,374,"1703 KILBOURNE PL NW STE 2, WASHINGTON, DC, 20010","Match","Exact","1703 KILBOURNE PL NW, WASHINGTON, DC, 20010",76222866,"R"
83875,"1703 LAWRENCE STREET NE","WASHINGTON","DC",20018,38.93204845,-76.980946214,375,"1703 LAWRENCE STREET NE, WASHINGTON, DC, 20018","Match","Exact","1703 LAWRENCE ST NE, WASHINGTON, DC, 20018",76228826,"R"
83876,"1703 LENORE CT","BALTIMORE","MD",21207,39.3184054820001,-76.740584795,376,"1703 LENORE CT, BALTIMORE, MD, 21207","Match","Exact","1703 LENORE CT, BALTIMORE, MD, 21207",191483575,"R"
83877,"1703 LONG PAW LANE","CHARLOTTE","NC",28214,35.2956919980001,-80.9612036469999,377,"1703 LONG PAW LANE, CHARLOTTE, NC, 28214","Match","Exact","1703 LONG PAW LN, CHARLOTTE, NC, 28214",70603817,"L"
83878,"1703 MAIN STREET","SOUTHAVEN","MS",38671,34.991841595,-90.019980074,378,"1703 MAIN STREET, SOUTHAVEN, MS, 38671","Match","Exact","1703 MAIN ST, SOUTHAVEN, MS, 38671",641219614,"R"
83879,"1703 MARLBROOK LANE","LANSDALE","PA",19446,40.226595193,-75.304637788,379,"1703 MARLBROOK LANE, LANSDALE, PA, 19446","Match","Exact","1703 MARLBROOK LN, LANSDALE, PA, 19446",605628943,"R"
83880,"1703 N BEAUREGARD ST STE 420","ALEXANDRIA","VA",22311,38.831931642,-77.123947965,380,"1703 N BEAUREGARD ST STE 420, ALEXANDRIA, VA, 22311","Match","Non_Exact","1703 N BEAUREGARD ST, ALEXANDRIA, VA, 22311",638921004,"L"
83881,"1703 N MCMULLEN BOOTH RD 201","SAFETY HARBOR","FL",34695,NA,NA,381,"1703 N MCMULLEN BOOTH RD 201, SAFETY HARBOR, FL, 34695","No_Match",NA,NA,NA,NA
83882,"1703 N MCMULLEN BOOTH ROAD 201","SAFETY HARBOR","FL",34695,NA,NA,382,"1703 N MCMULLEN BOOTH ROAD 201, SAFETY HARBOR, FL, 34695","No_Match",NA,NA,NA,NA
83883,"1703 NW 42 PL","GAINESVILLE","FL",32605,29.693039512,-82.344341261,383,"1703 NW 42 PL, GAINESVILLE, FL, 32605","Match","Exact","1703 NW 42ND PL, GAINESVILLE, FL, 32605",6805546,"R"
83884,"1703 OCOTILLO CT","KATY","TX",77494,29.754460974,-95.77926211,384,"1703 OCOTILLO CT, KATY, TX, 77494","Match","Exact","1703 OCOTILLO CT, KATY, TX, 77494",78326517,"L"
83885,"1703 OLIVE SPRINGS ROAD","SOQUEL","CA",95073,37.0595473710001,-121.924169818,385,"1703 OLIVE SPRINGS ROAD, SOQUEL, CA, 95073","Match","Exact","1703 OLIVE SPRINGS RD, SOQUEL, CA, 95073",617411082,"L"
83886,"1703 PINECREST STREET","BURLINGTON","NC",27215,36.0800530880001,-79.456601468,386,"1703 PINECREST STREET, BURLINGTON, NC, 27215","Match","Exact","1703 PINECREST ST, BURLINGTON, NC, 27215",71663514,"R"
83887,"1703 RUST STREET","EAU CLAIRE","WI",54701,44.7977215830001,-91.488173687,387,"1703 RUST STREET, EAU CLAIRE, WI, 54701","Match","Exact","1703 RUST ST, EAU CLAIRE, WI, 54701",46068743,"L"
83888,"1703 S 94TH E AVE","TULSA","OK",74112,36.1373593540001,-95.872660689,388,"1703 S 94TH E AVE, TULSA, OK, 74112","Match","Exact","1703 S 94TH EAST AVE, TULSA, OK, 74112",166453096,"L"
83889,"1703 S CENTRAL AVE","ROCKFORD","IL",61102,42.2545623030001,-89.116072872,389,"1703 S CENTRAL AVE, ROCKFORD, IL, 61102","Match","Exact","1703 S CENTRAL AVE, ROCKFORD, IL, 61102",49252453,"R"
83890,"1703 S HALL","MESA","AZ",85204,33.384071717,-111.793050568,390,"1703 S HALL, MESA, AZ, 85204","Match","Exact","1703 S HALL, MESA, AZ, 85204",128246932,"R"
83891,"1703 S PACIFIC ST","BOISE","ID",83705,43.5884117940001,-116.227345979,391,"1703 S PACIFIC ST, BOISE, ID, 83705","Match","Exact","1703 S PACIFIC ST, BOISE, ID, 83705",117863757,"R"
83892,"1703 S PIFER RD","STAR TANNERY","VA",22654,39.0845053250001,-78.445402369,392,"1703 S PIFER RD, STAR TANNERY, VA, 22654","Match","Exact","1703 S PIFER RD, STAR TANNERY, VA, 22654",55602621,"R"
83893,"1703 SCHOENHEIT STREET","FALLS CITY","NE",68355,40.06183552,-95.60961148,393,"1703 SCHOENHEIT STREET, FALLS CITY, NE, 68355","Match","Exact","1703 SCHOENHEIT ST, FALLS CITY, NE, 68355",10298250,"L"
83894,"1703 SINGER RD","JOPPA","MD",21085,39.469063164,-76.351229592,394,"1703 SINGER RD, JOPPA, MD, 21085","Match","Exact","1703 SINGER RD, JOPPA, MD, 21085",191662422,"L"
83895,"1703 SKILLMAN AVE W","ROSEVILLE","MN",55113,45.002991777,-93.1721332819999,395,"1703 SKILLMAN AVE W, ROSEVILLE, MN, 55113","Match","Exact","1703 SKILLMAN AVE W, ROSEVILLE, MN, 55113",97640811,"R"
83896,"1703 SOUTH SOUTHFIELD DR","MAHOMET","IL",61853,40.1784039610001,-88.404905351,396,"1703 SOUTH SOUTHFIELD DR, MAHOMET, IL, 61853","Match","Exact","1703 S SOUTHFIELD DR, MAHOMET, IL, 61853",8835056,"R"
83897,"1703 SOUTHERN HILLS DRIVE","ARDMORE","OK",73401,34.1519206850001,-97.1762888279999,397,"1703 SOUTHERN HILLS DRIVE, ARDMORE, OK, 73401","Match","Exact","1703 SOUTHERN HILLS DR, ARDMORE, OK, 73401",647931069,"L"
83898,"1703 STONEY TERRACE DRIVE","BALLWIN","MO",63021,38.5532385020001,-90.523219307,398,"1703 STONEY TERRACE DRIVE, BALLWIN, MO, 63021","Match","Exact","1703 STONEY TERRACE DR, BALLWIN, MO, 63021",100185043,"L"
83899,"1703 SUDDERTH DR SUITE 133","RUIDOSO","NM",88345,33.328111935,-105.662164494,399,"1703 SUDDERTH DR SUITE 133, RUIDOSO, NM, 88345","Match","Exact","1703 SUDDERTH DR, RUIDOSO, NM, 88345",169113867,"L"
83900,"1703 SUDDERTH DRIVE 435","RUIDOSO","NM",88345,33.328111935,-105.662164494,400,"1703 SUDDERTH DRIVE 435, RUIDOSO, NM, 88345","Match","Exact","1703 SUDDERTH DR, RUIDOSO, NM, 88345",169113867,"L"
83901,"1703 SUMTER AVE 101","CHARLOTTE","NC",28208,35.240409852,-80.861397682,401,"1703 SUMTER AVE 101, CHARLOTTE, NC, 28208","Match","Exact","1703 SUMTER AVE, CHARLOTTE, NC, 28208",70477523,"L"
83902,"1703 SUSAN DRIVE","ARLINGTON","TX",76010,32.717930971,-97.0571919929999,402,"1703 SUSAN DRIVE, ARLINGTON, TX, 76010","Match","Exact","1703 SUSAN DR, ARLINGTON, TX, 76010",101913302,"L"
83903,"1703 THONOTOSASSA ROAD","PLANT CITY","FL",33563,28.01756098,-82.140103312,403,"1703 THONOTOSASSA ROAD, PLANT CITY, FL, 33563","Match","Exact","1703 THONOTOSASSA RD, PLANT CITY, FL, 33563",104658395,"R"
83904,"1703 TIMBERLANE DRIVE","FLINT","MI",48507,42.9888831920001,-83.706448929,404,"1703 TIMBERLANE DRIVE, FLINT, MI, 48507","Match","Exact","1703 TIMBERLANE DR, FLINT, MI, 48507",69574522,"L"
83905,"1703 W 34TH STREET","AUSTIN","TX",78703,30.306930095,-97.752814418,405,"1703 W 34TH STREET, AUSTIN, TX, 78703","Match","Exact","1703 W 34TH ST, AUSTIN, TX, 78703",63942317,"L"
83906,"1703 YARBOROUGH DR","PEACHTREE CITY","GA",30269,NA,NA,406,"1703 YARBOROUGH DR, PEACHTREE CITY, GA, 30269","No_Match",NA,NA,NA,NA
83907,"17030 DYKES ROAD","FRENCH SETTLEMENT","LA",70733,30.3281848080001,-90.804264409,407,"17030 DYKES ROAD, FRENCH SETTLEMENT, LA, 70733","Match","Exact","17030 DYKES RD, FRENCH SETTLEMENT, LA, 70733",612919464,"L"
83908,"17030 E LA MONTANA DR 207","FOUNTAIN HILLS","AZ",85268,NA,NA,408,"17030 E LA MONTANA DR 207, FOUNTAIN HILLS, AZ, 85268","No_Match",NA,NA,NA,NA
83909,"17030 LAKESIDE HILLS PLAZA","OMAHA","NE",68130,NA,NA,409,"17030 LAKESIDE HILLS PLAZA, OMAHA, NE, 68130","No_Match",NA,NA,NA,NA
83910,"17030 TURKEY POINT","SAN ANTONIO","TX",78232,29.592347966,-98.443897932,410,"17030 TURKEY POINT, SAN ANTONIO, TX, 78232","Match","Non_Exact","17030 TURKEY POINT ST, SAN ANTONIO, TX, 78232",101498237,"R"
83911,"17031 WING ROAD","CHAGRIN FALLS","OH",44023,41.4054749090001,-81.2609865809999,411,"17031 WING ROAD, CHAGRIN FALLS, OH, 44023","Match","Exact","17031 WING RD, CHAGRIN FALLS, OH, 44023",137440650,"R"
83912,"17032 SILVER CHARM PLACE","LEESBURG","VA",20176,39.1450163710001,-77.596961784,412,"17032 SILVER CHARM PLACE, LEESBURG, VA, 20176","Match","Exact","17032 SILVER CHARM PL, LEESBURG, VA, 20176",62355951,"L"
83913,"17032 WEST SOUTHAMPTON ROAD","SURPRISE","AZ",85374,33.641423413,-112.424959718,413,"17032 WEST SOUTHAMPTON ROAD, SURPRISE, AZ, 85374","Match","Non_Exact","17032 N SOUTHAMPTON RD, SURPRISE, AZ, 85374",243967339,"L"
83914,"17034 PINE AVE","LOS GATOS","CA",95032,37.228460565,-121.967543867,414,"17034 PINE AVE, LOS GATOS, CA, 95032","Match","Exact","17034 PINE AVE, LOS GATOS, CA, 95032",122944294,"L"
83915,"17035 HUNT RD","HILLMAN","MI",49746,45.0437905090001,-84.041232494,415,"17035 HUNT RD, HILLMAN, MI, 49746","Match","Exact","17035 HUNT RD, HILLMAN, MI, 49746",135975555,"R"
83916,"17038 NW 19 ST","PEMBROKE PINES","FL",33028,26.022549213,-80.3752448239999,416,"17038 NW 19 ST, PEMBROKE PINES, FL, 33028","Match","Exact","17038 NW 19TH ST, PEMBROKE PINES, FL, 33028",114790614,"L"
83917,"1704 APRYL COURT","BEL AIR","MD",21015,39.554319752,-76.306892698,417,"1704 APRYL COURT, BEL AIR, MD, 21015","Match","Exact","1704 APRYL CT, BEL AIR, MD, 21015",191685814,"L"
83918,"1704 BAYOU GRANDE BLVD NE","ST PETERSBURG","FL",33703,27.821321154,-82.6048332139999,418,"1704 BAYOU GRANDE BLVD NE, ST PETERSBURG, FL, 33703","Match","Exact","1704 BAYOU GRANDE BLVD NE, SAINT PETERSBURG, FL, 33703",124712787,"R"
83919,"1704 BEACON ROAD","TALBOTT","TN",37877,36.1561951940001,-83.439401477,419,"1704 BEACON ROAD, TALBOTT, TN, 37877","Match","Exact","1704 BEACON RD, TALBOTT, TN, 37877",42213856,"L"
83920,"1704 BERESFORD RD","N LITTLE ROCK","AR",72116,34.8053584400001,-92.2455699389999,420,"1704 BERESFORD RD, N LITTLE ROCK, AR, 72116","Match","Exact","1704 BERESFORD RD, N LITTLE ROCK, AR, 72116",83514184,"R"
83921,"1704 BLUEBIRD DR","LITTLE ELM","TX",75068,33.2180681740001,-96.9341203449999,421,"1704 BLUEBIRD DR, LITTLE ELM, TX, 75068","Match","Exact","1704 BLUEBIRD DR, LITTLE ELM, TX, 75068",614134813,"R"
83922,"1704 BLUFFS ISLAND COURT","ODENTON","MD",21113,39.104710719,-76.702372628,422,"1704 BLUFFS ISLAND COURT, ODENTON, MD, 21113","Match","Exact","1704 BLUFFS ISLAND CT, ODENTON, MD, 21113",68199083,"L"
83923,"1704 BREDA DRIVE","KNOXVILLE","TN",37918,NA,NA,423,"1704 BREDA DRIVE, KNOXVILLE, TN, 37918","Tie",NA,NA,NA,NA
83924,"1704 BROOKFIELD MANOR","COLUMBIA","MO",65203,38.8979683430001,-92.3654498669999,424,"1704 BROOKFIELD MANOR, COLUMBIA, MO, 65203","Match","Exact","1704 BROOKFIELD MANOR, COLUMBIA, MO, 65203",604997198,"L"
83925,"1704 CALLE PAZ PL","EL PASO","TX",79935,31.7630147460001,-106.330496545,425,"1704 CALLE PAZ PL, EL PASO, TX, 79935","Match","Exact","1704 CALLE PAZ PL, EL PASO, TX, 79935",189366198,"L"
83926,"1704 CEDAR LANE","SELAH","WA",98942,46.6543538230001,-120.554402632,426,"1704 CEDAR LANE, SELAH, WA, 98942","Match","Exact","1704 CEDAR LN, SELAH, WA, 98942",184966230,"L"
83927,"1704 DEVONSHIRE DRIVE","BENICIA","CA",94510,38.0703282760001,-122.179499785,427,"1704 DEVONSHIRE DRIVE, BENICIA, CA, 94510","Match","Exact","1704 DEVONSHIRE DR, BENICIA, CA, 94510",192544617,"L"
83928,"1704 DEXTER AVENUE SUITE 100","CINCINNATI","OH",45206,39.1339390040001,-84.474117737,428,"1704 DEXTER AVENUE SUITE 100, CINCINNATI, OH, 45206","Match","Exact","1704 DEXTER AVE, CINCINNATI, OH, 45206",103930102,"L"
83929,"1704 FAWN VISTA DR N APT H2","MYRTLE BEACH","SC",29575,NA,NA,429,"1704 FAWN VISTA DR N APT H2, MYRTLE BEACH, SC, 29575","No_Match",NA,NA,NA,NA
83930,"1704 FLOWERS CREEK DRIVE","MCDONOUGH","GA",30253,33.4430715170001,-84.1676467189999,430,"1704 FLOWERS CREEK DRIVE, MCDONOUGH, GA, 30253","Match","Exact","1704 FLOWERS CREEK DR, MCDONOUGH, GA, 30253",619941330,"R"
83931,"1704 FOWLER ST","FORT MYERS","FL",33901,26.644452809,-81.864606436,431,"1704 FOWLER ST, FORT MYERS, FL, 33901","Match","Exact","1704 FOWLER ST, FORT MYERS, FL, 33901",118081428,"R"
83932,"1704 FUNNY CIDE DRIVE","WAXHAW","NC",28173,34.9784188410001,-80.815274131,432,"1704 FUNNY CIDE DRIVE, WAXHAW, NC, 28173","Match","Exact","1704 FUNNY CIDE DR, WAXHAW, NC, 28173",614176924,"R"
83933,"1704 GRAND HIGHLANDS DR","PLAINFIELD","IL",60586,41.551967502,-88.2181004079999,433,"1704 GRAND HIGHLANDS DR, PLAINFIELD, IL, 60586","Match","Exact","1704 GRAND HIGHLANDS DR, PLAINFIELD, IL, 60586",111635795,"R"
83934,"1704 GRAY STREET","RICHLAND","WA",99352,46.2722309530001,-119.294412432,434,"1704 GRAY STREET, RICHLAND, WA, 99352","Match","Exact","1704 GRAY ST, RICHLAND, WA, 99352",174988197,"R"
83935,"1704 HALIFAX WAY","EL DORADO HILLS","CA",95762,38.722005881,-121.088633641,435,"1704 HALIFAX WAY, EL DORADO HILLS, CA, 95762","Match","Exact","1704 HALIFAX WAY, EL DORADO HILLS, CA, 95762",133061122,"L"
83936,"1704 HOLLYWOOD DRIVE","MONROE","LA",71202,32.4653045260001,-92.093438383,436,"1704 HOLLYWOOD DRIVE, MONROE, LA, 71202","Match","Exact","1704 HOLLYWOOD DR, MONROE, LA, 71202",161088145,"R"
83937,"1704 HUDSON CIRCLE","GRAND ISLAND","NE",68801,40.8982577470001,-98.353225831,437,"1704 HUDSON CIRCLE, GRAND ISLAND, NE, 68801","Match","Exact","1704 HUDSON CIR, GRAND ISLAND, NE, 68801",196263803,"R"
83938,"1704 JACKSON AVE","SEYMOUR","TN",37865,35.897640073,-83.705063271,438,"1704 JACKSON AVE, SEYMOUR, TN, 37865","Match","Exact","1704 JACKSON AVE, SEYMOUR, TN, 37865",107521701,"L"
83939,"1704 JOHN ANDERSON DRIVE","ORMOND BEACH","FL",32176,29.332363742,-81.066830485,439,"1704 JOHN ANDERSON DRIVE, ORMOND BEACH, FL, 32176","Match","Exact","1704 JOHN ANDERSON DR, ORMOND BEACH, FL, 32176",94520144,"L"
83940,"1704 JOLLIT AVENUE","OPELIKA","AL",36801,32.6438471870001,-85.400604577,440,"1704 JOLLIT AVENUE, OPELIKA, AL, 36801","Match","Exact","1704 JOLLIT AVE, OPELIKA, AL, 36801",1570541,"R"
83941,"1704 KELLEY DRIVE","ROGERS","AR",72756,36.359589838,-94.141558732,441,"1704 KELLEY DRIVE, ROGERS, AR, 72756","Match","Exact","1704 KELLEY DR, ROGERS, AR, 72756",633291644,"R"
83942,"1704 LASALLE AVENUE","SAN FRANCISCO","CA",94124,NA,NA,442,"1704 LASALLE AVENUE, SAN FRANCISCO, CA, 94124","No_Match",NA,NA,NA,NA
83943,"1704 LAUREL LAKE DRIVE","WACO","TX",76710,31.535398577,-97.195557885,443,"1704 LAUREL LAKE DRIVE, WACO, TX, 76710","Match","Exact","1704 LAUREL LAKE DR, WACO, TX, 76710",146742434,"L"
83944,"1704 LEXINGTON AVE","ALLEN","TX",75013,33.1135516730001,-96.717108646,444,"1704 LEXINGTON AVE, ALLEN, TX, 75013","Match","Exact","1704 LEXINGTON AVE, ALLEN, TX, 75013",210528516,"L"
83945,"1704 LINCOLN AVE NUMBER 3","SAN RAFAEL","CA",94901,37.984848178,-122.525303341,445,"1704 LINCOLN AVE NUMBER 3, SAN RAFAEL, CA, 94901","Match","Exact","1704 LINCOLN AVE, SAN RAFAEL, CA, 94901",192764493,"R"
83946,"1704 LLANO ST STE B-176","SANTA FE","NM",87505,35.6583686760001,-105.972775293,446,"1704 LLANO ST STE B-176, SANTA FE, NM, 87505","Match","Exact","1704 LLANO ST, SANTA FE, NM, 87505",637987212,"R"
83947,"1704 LLANO ST SUITE B 1453","SANTE FE","NM",87505,35.6583686760001,-105.972775293,447,"1704 LLANO ST SUITE B 1453, SANTE FE, NM, 87505","Match","Non_Exact","1704 LLANO ST, SANTA FE, NM, 87505",637987212,"R"
83948,"1704 LORETO COURT","MODESTO","CA",95355,37.6737524280001,-120.968093699,448,"1704 LORETO COURT, MODESTO, CA, 95355","Match","Exact","1704 LORETO CT, MODESTO, CA, 95355",102605676,"R"
83949,"1704 MAGNOLIA ROAD","ST GEORGE ISLAND","FL",32328,29.629511446,-84.928306817,449,"1704 MAGNOLIA ROAD, ST GEORGE ISLAND, FL, 32328","Match","Exact","1704 MAGNOLIA RD, SAINT GEORGE ISLAND, FL, 32328",610427311,"R"
83950,"1704 MARY LOU LANE","ATLANTA","GA",30316,33.7030081030001,-84.319199756,450,"1704 MARY LOU LANE, ATLANTA, GA, 30316","Match","Non_Exact","1704 MARY LOU LN SE, ATLANTA, GA, 30316",23368031,"L"
83951,"1704 MELVILLE STREET","OAKHURST","NJ",7755,40.258319269,-74.038835692,451,"1704 MELVILLE STREET, OAKHURST, NJ, 7755","Match","Exact","1704 MELVILLE ST, OAKHURST, NJ, 07755",90455896,"L"
83952,"1704 N BUCKEYE","ABILENE","KS",67410,38.9333758000001,-97.213968553,452,"1704 N BUCKEYE, ABILENE, KS, 67410","Match","Non_Exact","1704 N BUCKEYE AVE, ABILENE, KS, 67410",635492958,"L"
83953,"1704 N ROOSEVELT BLVD","KEY WEST","FL",33040,24.5589526360001,-81.786419729,453,"1704 N ROOSEVELT BLVD, KEY WEST, FL, 33040","Match","Exact","1704 N ROOSEVELT BLVD, KEY WEST, FL, 33040",116474645,"L"
83954,"1704 N SEDGWICK APT 2","CHICAGO","IL",60614,NA,NA,454,"1704 N SEDGWICK APT 2, CHICAGO, IL, 60614","No_Match",NA,NA,NA,NA
83955,"1704 NE COUNTY ROAD 14963","MONTROSE","MO",64770,NA,NA,455,"1704 NE COUNTY ROAD 14963, MONTROSE, MO, 64770","No_Match",NA,NA,NA,NA
83956,"1704 NORTH HAMPTON RD 201","DESOTO","TX",75115,32.622568331,-96.85693546,456,"1704 NORTH HAMPTON RD 201, DESOTO, TX, 75115","Match","Exact","1704 N HAMPTON RD, DESOTO, TX, 75115",102984736,"R"
83957,"1704 NORTH PEARL STREET","JACKSONVILLE","FL",32206,30.344954113,-81.6587373799999,457,"1704 NORTH PEARL STREET, JACKSONVILLE, FL, 32206","Match","Exact","1704 N PEARL ST, JACKSONVILLE, FL, 32206",83898859,"L"
83958,"1704 NW 35TH ST","OCALA","FL",34475,29.223152602,-82.1527443849999,458,"1704 NW 35TH ST, OCALA, FL, 34475","Match","Exact","1704 NW 35TH ST, OCALA, FL, 34475",628446623,"L"
83959,"1704 NW 75TH STREET","VANCOUVER","WA",98665,45.676638789,-122.688815918,459,"1704 NW 75TH STREET, VANCOUVER, WA, 98665","Match","Exact","1704 NW 75TH ST, VANCOUVER, WA, 98665",158321037,"R"
83960,"1704 NW FEDERAL HWY","STUART","FL",34994,27.225556694,-80.2648753829999,460,"1704 NW FEDERAL HWY, STUART, FL, 34994","Match","Exact","1704 NW FEDERAL HWY, STUART, FL, 34994",120431691,"R"
83961,"1704 OLD CANYON DR","HACIENDA HEIGHTS","CA",91745,34.0097822650001,-117.994621422,461,"1704 OLD CANYON DR, HACIENDA HEIGHTS, CA, 91745","Match","Exact","1704 OLD CANYON DR, HACIENDA HTS, CA, 91745",141652616,"L"
83962,"1704 OLD PARK LANE","BELLEVILLE","IL",62226,38.5602830610001,-90.002606825,462,"1704 OLD PARK LANE, BELLEVILLE, IL, 62226","Match","Exact","1704 OLD PARK LN, BELLEVILLE, IL, 62226",645532952,"L"
83963,"1704 PENNWOOD DR APT","HAMPTON","VA",23666,37.0343018080001,-76.4188538669999,463,"1704 PENNWOOD DR APT, HAMPTON, VA, 23666","Match","Exact","1704 PENNWOOD DR, HAMPTON, VA, 23666",103804436,"R"
83964,"1704 PICNIC PLACE","RALEIGH","NC",27603,35.7505181000001,-78.663771592,464,"1704 PICNIC PLACE, RALEIGH, NC, 27603","Match","Exact","1704 PICNIC PL, RALEIGH, NC, 27603",72565101,"R"
83965,"1704 PINE HILLS LANE","CORINTH","TX",76210,33.156068094,-97.091099153,465,"1704 PINE HILLS LANE, CORINTH, TX, 76210","Match","Exact","1704 PINE HILLS LN, CORINTH, TX, 76210",638482658,"L"
83966,"1704 PINTO LANE","LAS VEGAS","NV",89106,36.164335432,-115.164282621,466,"1704 PINTO LANE, LAS VEGAS, NV, 89106","Match","Exact","1704 PINTO LN, LAS VEGAS, NV, 89106",201865542,"R"
83967,"1704 POLO CLUB CT","GLENDALE HEIGHTS","IL",60139,41.9216541210001,-88.079767246,467,"1704 POLO CLUB CT, GLENDALE HEIGHTS, IL, 60139","Match","Exact","1704 POLO CLUB CT, GLENDALE HEIGHTS, IL, 60139",112520471,"L"
83968,"1704 RIDGE OAK PL","MEMPHIS","TN",38120,35.101824348,-89.8390485479999,468,"1704 RIDGE OAK PL, MEMPHIS, TN, 38120","Match","Exact","1704 RIDGE OAK PL, MEMPHIS, TN, 38120",72929266,"L"
83969,"1704 S 12TH AVENUE","OZARK","MO",65721,37.0036415280001,-93.195854384,469,"1704 S 12TH AVENUE, OZARK, MO, 65721","Match","Exact","1704 S 12TH AVE, OZARK, MO, 65721",647826479,"L"
83970,"1704 S 12TH ST","OMAHA","NE",68108,41.2427124860001,-95.931928167,470,"1704 S 12TH ST, OMAHA, NE, 68108","Match","Exact","1704 S 12TH ST, OMAHA, NE, 68108",116988746,"R"
83971,"1704 S 7TH ST","ABERDEEN","SD",57401,45.446973997,-98.497867005,471,"1704 S 7TH ST, ABERDEEN, SD, 57401","Match","Exact","1704 S 7TH ST, ABERDEEN, SD, 57401",200796943,"L"
83972,"1704 S CLINTON AVE","TRENTON","NJ",8610,40.203573369,-74.737448552,472,"1704 S CLINTON AVE, TRENTON, NJ, 8610","Match","Exact","1704 S CLINTON AVE, TRENTON, NJ, 08610",60182452,"L"
83973,"1704 SHEA CENTER DRIVE UNIT 204","HIGHLANDS RANCH","CO",80129,39.5532792860001,-105.009502981,473,"1704 SHEA CENTER DRIVE UNIT 204, HIGHLANDS RANCH, CO, 80129","Match","Exact","1704 SHEA CENTER DR, HIGHLANDS RANCH, CO, 80129",130839987,"L"
83974,"1704 SHERWOOD DR","FREDERICKSBURG","VA",22405,38.317752607,-77.428502091,474,"1704 SHERWOOD DR, FREDERICKSBURG, VA, 22405","Match","Exact","1704 SHERWOOD DR, FREDERICKSBURG, VA, 22405",25558048,"L"
83975,"1704 SPARTA RD","BELTON","TX",76513,31.083799168,-97.470736261,475,"1704 SPARTA RD, BELTON, TX, 76513","Match","Exact","1704 SPARTA RD, BELTON, TX, 76513",653214371,"L"
83976,"1704 STATE RD","CROYDON","PA",19021,40.089637785,-74.895495776,476,"1704 STATE RD, CROYDON, PA, 19021","Match","Exact","1704 STATE RD, CROYDON, PA, 19021",134717538,"R"
83977,"1704 SWEETBRIAR DR","BLOOMINGTON","IL",61701,40.4614071340001,-89.0121969689999,477,"1704 SWEETBRIAR DR, BLOOMINGTON, IL, 61701","Match","Exact","1704 SWEETBRIAR DR, BLOOMINGTON, IL, 61701",20556815,"R"
83978,"1704 THE WOODS DRIVE","EL CAJON","CA",92019,32.7744869100001,-116.920658861,478,"1704 THE WOODS DRIVE, EL CAJON, CA, 92019","Match","Exact","1704 THE WOODS DR, EL CAJON, CA, 92019",195334012,"L"
83979,"1704 TRAILS END LN","BOLINGBROOK","IL",60490,41.681405747,-88.143378253,479,"1704 TRAILS END LN, BOLINGBROOK, IL, 60490","Match","Exact","1704 TRAILS END LN, BOLINGBROOK, IL, 60490",111624129,"R"
83980,"1704 VICKI LANE","MENDOTA HEIGHTS","MN",55118,44.894133025,-93.137785052,480,"1704 VICKI LANE, MENDOTA HEIGHTS, MN, 55118","Match","Exact","1704 VICKI LN, MENDOTA HEIGHTS, MN, 55118",37915340,"L"
83981,"1704 VINE STREET","LEESBURG","FL",34748,28.810341914,-81.892009918,481,"1704 VINE STREET, LEESBURG, FL, 34748","Match","Exact","1704 VINE ST, LEESBURG, FL, 34748",94096993,"R"
83982,"1704 W CERMAK RD 2ND FLOOR REAR","CHICAGO","IL",60608,41.8522864780001,-87.668776483,482,"1704 W CERMAK RD 2ND FLOOR REAR, CHICAGO, IL, 60608","Match","Non_Exact","1704 W CERMAK RD, CHICAGO, IL, 60608",111803131,"R"
83983,"1704 W MANCHESTER AVE  STE 201B","LOS ANGELES","CA",90047,33.959969743,-118.306987524,483,"1704 W MANCHESTER AVE  STE 201B, LOS ANGELES, CA, 90047","Match","Non_Exact","1704 W MANCHESTER AVE, LOS ANGELES, CA, 90047",615000295,"L"
83984,"1704 W MANCHESTER AVE STE 206B","LOS ANGELES","CA",90047,33.959969743,-118.306987524,484,"1704 W MANCHESTER AVE STE 206B, LOS ANGELES, CA, 90047","Match","Non_Exact","1704 W MANCHESTER AVE, LOS ANGELES, CA, 90047",615000295,"L"
83985,"1704 W MANCHESTER AVE SUITE 209D","LOS ANGELES","CA",90303,NA,NA,485,"1704 W MANCHESTER AVE SUITE 209D, LOS ANGELES, CA, 90303","No_Match",NA,NA,NA,NA
83986,"1704 W MANCHESTER AVE SUITE 210 B","LOS ANGELES","CA",90047,33.959969743,-118.306987524,486,"1704 W MANCHESTER AVE SUITE 210 B, LOS ANGELES, CA, 90047","Match","Non_Exact","1704 W MANCHESTER AVE, LOS ANGELES, CA, 90047",615000295,"L"
83987,"1704 WEST CHESTNUT STREET","LOUISVILLE","KY",40203,38.251333511,-85.77958411,487,"1704 WEST CHESTNUT STREET, LOUISVILLE, KY, 40203","Match","Exact","1704 W CHESTNUT ST, LOUISVILLE, KY, 40203",96842160,"L"
83988,"17040 E 11 MILE RD B6","ROSEVILLE","MI",48066,42.4943710540001,-82.944913877,488,"17040 E 11 MILE RD B6, ROSEVILLE, MI, 48066","Match","Non_Exact","17040 E 11 MILE RD, ROSEVILLE, MI, 48066",110678885,"R"
83989,"17040 EL CAMINO REAL SUITE 200","HOUSTON","TX",77058,NA,NA,489,"17040 EL CAMINO REAL SUITE 200, HOUSTON, TX, 77058","No_Match",NA,NA,NA,NA
83990,"17040 HASTINGS AVENUE","PARKER","CO",80134,39.5181645920001,-104.788576321,490,"17040 HASTINGS AVENUE, PARKER, CO, 80134","Match","Exact","17040 HASTINGS AVE, PARKER, CO, 80134",130822372,"R"
83991,"17041 BARN RIDGE DRIVE","SILVER SPRING","MD",20906,39.1215073700001,-77.043832466,491,"17041 BARN RIDGE DRIVE, SILVER SPRING, MD, 20906","Match","Exact","17041 BARN RIDGE DR, SILVER SPRING, MD, 20906",62089554,"L"
83992,"17042 PARKSIDE DRIVE SOUTH","COMMERCE CITY","CO",80022,39.890658968,-104.787367518,492,"17042 PARKSIDE DRIVE SOUTH, COMMERCE CITY, CO, 80022","Match","Exact","17042 PARKSIDE DR S, COMMERCE CITY, CO, 80022",177426472,"R"
83993,"17043 ASHBURY LODGE","SAN ANTONIO","TX",78247,29.5972752800001,-98.3883867229999,493,"17043 ASHBURY LODGE, SAN ANTONIO, TX, 78247","Match","Exact","17043 ASHBURY LODGE, SAN ANTONIO, TX, 78247",629582615,"L"
83994,"17043 SPERRY LANDING DRIVE","HOUSTON","TX",77095,29.913789143,-95.670056425,494,"17043 SPERRY LANDING DRIVE, HOUSTON, TX, 77095","Match","Exact","17043 SPERRY LANDING DR, HOUSTON, TX, 77095",635781162,"L"
83995,"17045 LOFTRIDGE LANE","GAINESVILLE","VA",20155,38.814813859,-77.622275612,495,"17045 LOFTRIDGE LANE, GAINESVILLE, VA, 20155","Match","Exact","17045 LOFTRIDGE LN, GAINESVILLE, VA, 20155",616828866,"L"
83996,"17045 PENROD","STERLING HEIGHTS","MI",48312,NA,NA,496,"17045 PENROD, STERLING HEIGHTS, MI, 48312","No_Match",NA,NA,NA,NA
83997,"17047 OLD STATE HIGHWAY 28","PIKEVILLE","TN",37367,35.6769476280001,-85.1341567279999,497,"17047 OLD STATE HIGHWAY 28, PIKEVILLE, TN, 37367","Match","Exact","17047 OLD STATE HWY 28, PIKEVILLE, TN, 37367",633906520,"L"
83998,"17048 FM 449","HALLSVILLE","TX",75650,32.6007237680001,-94.617773305,498,"17048 FM 449, HALLSVILLE, TX, 75650","Match","Exact","17048 FM 449, HALLSVILLE, TX, 75650",633775262,"R"
83999,"17048 GRANDEE WAY","SAN DIEGO","CA",92128,33.0226694350001,-117.064729272,499,"17048 GRANDEE WAY, SAN DIEGO, CA, 92128","Match","Exact","17048 GRANDEE WAY, SAN DIEGO, CA, 92128",195316276,"L"
84000,"17048 NW CATALPA ST","PORTLAND","OR",97229,45.576578843,-122.853617457,500,"17048 NW CATALPA ST, PORTLAND, OR, 97229","Match","Exact","17048 NW CATALPA ST, PORTLAND, OR, 97229",649032379,"L"
