"ID","Address","City","State","Zip","lat","long","id","input_address","match_indicator","match_type","matched_address","tiger_line_id","tiger_side"
116501,"2131 WOODRUFF RD  STE 2100 NO 180","GREENVILLE","SC",29607,34.820070378,-82.2575966639999,1,"2131 WOODRUFF RD  STE 2100 NO 180, GREENVILLE, SC, 29607","Match","Exact","2131 WOODRUFF RD, GREENVILLE, SC, 29607",38327179,"R"
116502,"2131 WOODRUFF RD 354","GREENVILLE","SC",29607,34.820070378,-82.2575966639999,2,"2131 WOODRUFF RD 354, GREENVILLE, SC, 29607","Match","Exact","2131 WOODRUFF RD, GREENVILLE, SC, 29607",38327179,"R"
116503,"2131 WOODRUFF ROAD SUITE 2100-396","GREENVILLE","SC",29607,34.820070378,-82.2575966639999,3,"2131 WOODRUFF ROAD SUITE 2100-396, GREENVILLE, SC, 29607","Match","Exact","2131 WOODRUFF RD, GREENVILLE, SC, 29607",38327179,"R"
116504,"21310 FULTONHAM CIRCLE","ASHBURN","VA",20147,39.0264001790001,-77.4729032079999,4,"21310 FULTONHAM CIRCLE, ASHBURN, VA, 20147","Match","Exact","21310 FULTONHAM CIR, ASHBURN, VA, 20147",62336867,"R"
116505,"21311 COSHOCTON RD","HOWARD","OH",43028,40.408465806,-82.362932469,5,"21311 COSHOCTON RD, HOWARD, OH, 43028","Match","Exact","21311 COSHOCTON RD, HOWARD, OH, 43028",647914410,"R"
116506,"21314 IL STATE ROUTE 9","TREMONT","IL",61568,40.530931524,-89.505460361,6,"21314 IL STATE ROUTE 9, TREMONT, IL, 61568","Match","Exact","21314 STATE RTE 9, TREMONT, IL, 61568",653613407,"L"
116507,"21314 PARK HOLLY CT","KATY","TX",74450,29.767158931,-95.73882615,7,"21314 PARK HOLLY CT, KATY, TX, 74450","Match","Non_Exact","21314 PARK HOLLY CT, KATY, TX, 77450",96016440,"R"
116508,"21315 41ST AVE E","SPANAWAY","WA",98387,47.0628808530001,-122.374082427,8,"21315 41ST AVE E, SPANAWAY, WA, 98387","Match","Exact","21315 41ST AVE E, SPANAWAY, WA, 98387",184681022,"R"
116509,"21315 41ST AVENUE E","SPANAWAY","WA",98387,47.0628808530001,-122.374082427,9,"21315 41ST AVENUE E, SPANAWAY, WA, 98387","Match","Exact","21315 41ST AVE E, SPANAWAY, WA, 98387",184681022,"R"
116510,"21315 BENDING GREEN WAY","KATY","TX",77450,29.7514525300001,-95.736940324,10,"21315 BENDING GREEN WAY, KATY, TX, 77450","Match","Exact","21315 BENDING GREEN WAY, KATY, TX, 77450",640246653,"R"
116511,"21315 BLOOMFIELD AVE 204","LAKEWOOD","CA",90715,33.8364092140001,-118.063342597,11,"21315 BLOOMFIELD AVE 204, LAKEWOOD, CA, 90715","Match","Exact","21315 BLOOMFIELD AVE, LAKEWOOD, CA, 90715",653240313,"R"
116512,"21315 COUNTY ROAD 482","LINDALE","TX",75771,32.576372953,-95.496456311,12,"21315 COUNTY ROAD 482, LINDALE, TX, 75771","Match","Exact","21315 CO RD 482, LINDALE, TX, 75771",141261072,"L"
116513,"21315 HIAWATHA ST","CHATSWORTH","CA",91311,34.259451513,-118.595203773,13,"21315 HIAWATHA ST, CHATSWORTH, CA, 91311","Match","Exact","21315 HIAWATHA ST, CHATSWORTH, CA, 91311",141532034,"R"
116514,"21315 SLATE CROSSING LANE","KATY","TX",77449,29.814409606,-95.741574626,14,"21315 SLATE CROSSING LANE, KATY, TX, 77449","Match","Exact","21315 SLATE CROSSING LN, KATY, TX, 77449",638580486,"R"
116515,"21316 GLEN PLACE APT 7","CUPERTINO","CA",95014,37.325881334,-122.047601978,15,"21316 GLEN PLACE APT 7, CUPERTINO, CA, 95014","Match","Exact","21316 GLEN PL, CUPERTINO, CA, 95014",122938076,"L"
116516,"21317 SWEETBAY MAGNOLIA DR","PORTER","TX",77365,30.1149249280001,-95.2491113199999,16,"21317 SWEETBAY MAGNOLIA DR, PORTER, TX, 77365","Match","Exact","21317 SWEETBAY MAGNOLIA DR, PORTER, TX, 77365",651991541,"R"
116517,"21317 WEST 64TH TERRACE","SHAWNEE","KS",66218,39.011491764,-94.832841764,17,"21317 WEST 64TH TERRACE, SHAWNEE, KS, 66218","Match","Non_Exact","21317 64TH TER, SHAWNEE, KS, 66218",633213430,"R"
116518,"21318 W STARRY LN","LAKE ZURICH","IL",60047,42.208779985,-88.0487697189999,18,"21318 W STARRY LN, LAKE ZURICH, IL, 60047","Match","Exact","21318 W STARRY LN, LAKE ZURICH, IL, 60047",604661945,"L"
116519,"21319 NE 68TH ST","VANCOUVER","WA",98682,45.6721620280001,-122.45344648,19,"21319 NE 68TH ST, VANCOUVER, WA, 98682","Match","Exact","21319 NE 68TH ST, VANCOUVER, WA, 98682",627778060,"R"
116520,"2132 84TH STREET","BROOKLYN","NY",11214,40.6039588520001,-73.9940603809999,20,"2132 84TH STREET, BROOKLYN, NY, 11214","Match","Exact","2132 84TH ST, BROOKLYN, NY, 11214",59088485,"R"
116521,"2132 ARGYLE DRIVE","PLANO","TX",75023,33.0555076850001,-96.735940607,21,"2132 ARGYLE DRIVE, PLANO, TX, 75023","Match","Exact","2132 ARGYLE DR, PLANO, TX, 75023",123530302,"R"
116522,"2132 ARGYLE","BUTTE","MT",59701,45.9984663720001,-112.506817641,22,"2132 ARGYLE, BUTTE, MT, 59701","Match","Non_Exact","2132 ARGYLE ST, BUTTE, MT, 59701",153578848,"L"
116523,"2132 AULT ROAD","CHILLICOTHE","OH",45601,39.2935252720001,-82.845677392,23,"2132 AULT ROAD, CHILLICOTHE, OH, 45601","Match","Exact","2132 AULT RD, CHILLICOTHE, OH, 45601",37484614,"L"
116524,"2132 CHANDLER ST","CAMARILLO","CA",93010,34.2255515210001,-119.042092184,24,"2132 CHANDLER ST, CAMARILLO, CA, 93010","Match","Exact","2132 CHANDLER ST, CAMARILLO, CA, 93010",109960327,"R"
116525,"2132 CLIFFSIDE DR","PLANO","TX",75023,33.055890721,-96.737394566,25,"2132 CLIFFSIDE DR, PLANO, TX, 75023","Match","Exact","2132 CLIFFSIDE DR, PLANO, TX, 75023",210475236,"L"
116526,"2132 CRISTINA ANNE CT","HOWELL","MI",48855,NA,NA,26,"2132 CRISTINA ANNE CT, HOWELL, MI, 48855","No_Match",NA,NA,NA,NA
116527,"2132 DRUID RD E UNIT 1107","CLEARWATER","FL",33764,27.956853274,-82.748500436,27,"2132 DRUID RD E UNIT 1107, CLEARWATER, FL, 33764","Match","Exact","2132 DRUID RD E, CLEARWATER, FL, 33764",649872344,"L"
116528,"2132 E BELT LINE RD","RICHARDSON","TX",75081,32.9452244060001,-96.684684469,28,"2132 E BELT LINE RD, RICHARDSON, TX, 75081","Match","Exact","2132 E BELT LINE RD, RICHARDSON, TX, 75081",102916712,"R"
116529,"2132 EAGLE ROCK ROAD","VIRGINIA BEACH","VA",23456,36.772189257,-76.132229755,29,"2132 EAGLE ROCK ROAD, VIRGINIA BEACH, VA, 23456","Match","Exact","2132 EAGLE ROCK RD, VA BCH, VA, 23456",122280470,"R"
116530,"2132 EAST DAYTON ST","MADISON","WI",53704,43.096735402,-89.357276774,30,"2132 EAST DAYTON ST, MADISON, WI, 53704","Match","Exact","2132 E DAYTON ST, MADISON, WI, 53704",49473041,"L"
116531,"2132 ELK HORN BLVD","RIO LINDA","CA",95673,38.6907098240001,-121.416894073,31,"2132 ELK HORN BLVD, RIO LINDA, CA, 95673","Match","Non_Exact","2132 ELKHORN BLVD, RIO LINDA, CA, 95673",133329441,"R"
116532,"2132 EVANS DAIRY RD","FAYETTEVILLE","NE",28312,NA,NA,32,"2132 EVANS DAIRY RD, FAYETTEVILLE, NE, 28312","No_Match",NA,NA,NA,NA
116533,"2132 GOLF COURSE DRIVE","RESTON","VA",20191,38.942178739,-77.353680648,33,"2132 GOLF COURSE DRIVE, RESTON, VA, 20191","Match","Exact","2132 GOLF COURSE DR, RESTON, VA, 20191",76023773,"R"
116534,"2132 N CLARMAR AVE","FREMONT","NE",68025,41.4494662600001,-96.472752228,34,"2132 N CLARMAR AVE, FREMONT, NE, 68025","Match","Exact","2132 N CLARMAR AVE, FREMONT, NE, 68025",136314304,"R"
116535,"2132 N SAN RAFAEL CT","ORANGE","CA",92867,33.823935432,-117.780631377,35,"2132 N SAN RAFAEL CT, ORANGE, CA, 92867","Match","Exact","2132 SAN RAFAEL CT, ORANGE, CA, 92867",144139620,"R"
116536,"2132 NW 60 TH CIRCLE","BOCA RATON","FL",33496,26.4031083900001,-80.125428117,36,"2132 NW 60 TH CIRCLE, BOCA RATON, FL, 33496","Match","Non_Exact","2132 NW 60TH CIR, BOCA RATON, FL, 33496",115575743,"R"
116537,"2132 PECH ROAD","HOUSTON","TX",77055,29.811859446,-95.4962775289999,37,"2132 PECH ROAD, HOUSTON, TX, 77055","Match","Exact","2132 PECH RD, HOUSTON, TX, 77055",96026413,"R"
116538,"2132 TURNBERRY DRIVE","OVIEDO","FL",32765,28.6389102640001,-81.167457137,38,"2132 TURNBERRY DRIVE, OVIEDO, FL, 32765","Match","Exact","2132 TURNBERRY DR, OVIEDO, FL, 32765",93759448,"L"
116539,"2132 W 79TH STREET","LOS ANGELES","CA",90047,33.967277708,-118.316338442,39,"2132 W 79TH STREET, LOS ANGELES, CA, 90047","Match","Exact","2132 W 79TH ST, LOS ANGELES, CA, 90047",142753237,"L"
116540,"2132 W NORTHWEST BLVD","SPOKANE","WA",99205,47.6830159630001,-117.4442746,40,"2132 W NORTHWEST BLVD, SPOKANE, WA, 99205","Match","Exact","2132 W NORTHWEST BLVD, SPOKANE, WA, 99205",189873305,"R"
116541,"2132 W ROSCOE","CHICAGO","IL",60618,41.943178635,-87.6822151439999,41,"2132 W ROSCOE, CHICAGO, IL, 60618","Match","Non_Exact","2132 W ROSCOE ST, CHICAGO, IL, 60618",111761023,"R"
116542,"2132 WAGNER HEIGHTS RD","STOCKTON","CA",95209,38.0355086660001,-121.339629765,42,"2132 WAGNER HEIGHTS RD, STOCKTON, CA, 95209","Match","Exact","2132 WAGNER HEIGHTS RD, STOCKTON, CA, 95209",133884604,"L"
116543,"21320 CAMERON HUNT PLACE","ASHBURN","VA",20147,39.025577565,-77.47135578,43,"21320 CAMERON HUNT PLACE, ASHBURN, VA, 20147","Match","Exact","21320 CAMERON HUNT PL, ASHBURN, VA, 20147",62346812,"R"
116544,"21320 PLAZA CIR","CROSBY","TX",77532,29.979041287,-95.007260547,44,"21320 PLAZA CIR, CROSBY, TX, 77532","Match","Exact","21320 PLAZA CIR, CROSBY, TX, 77532",96107820,"R"
116545,"21320 PROVINCIAL BLVD SUITE 100","KATY","TX",77450,29.777117816,-95.7406319729999,45,"21320 PROVINCIAL BLVD SUITE 100, KATY, TX, 77450","Match","Exact","21320 PROVINCIAL BLVD, KATY, TX, 77450",233399158,"L"
116546,"21321 CONEFLOWER DRIVE","MOKENA","IL",60448,41.5009013600001,-87.894688941,46,"21321 CONEFLOWER DRIVE, MOKENA, IL, 60448","Match","Exact","21321 CONEFLOWER DR, MOKENA, IL, 60448",607947942,"L"
116547,"21323 BELLA FLORA CT","SPRING","TX",77379,30.0758733920001,-95.523819519,47,"21323 BELLA FLORA CT, SPRING, TX, 77379","Match","Exact","21323 BELLA FLORA CT, SPRING, TX, 77379",627642354,"R"
116548,"21323 LIVINGSTON DRIVE","BEND","OR",97701,44.0530994170001,-121.257804742,48,"21323 LIVINGSTON DRIVE, BEND, OR, 97701","Match","Exact","21323 LIVINGSTON DR, BEND, OR, 97701",624910041,"R"
116549,"21324 SUNNYDALE","ST CLAIR SHORES","MI",48081,42.4895605400001,-82.899711262,49,"21324 SUNNYDALE, ST CLAIR SHORES, MI, 48081","Match","Non_Exact","21324 SUNNYDALE ST, SAINT CLAIR SHORES, MI, 48081",110685944,"R"
116550,"21325 POINT CIRCLE","REHOBOTH BEACH","DE",19971,38.695221878,-75.1217259379999,50,"21325 POINT CIRCLE, REHOBOTH BEACH, DE, 19971","Match","Exact","21325 POINT CIR, REHOBOTH BCH, DE, 19971",106123392,"R"
116551,"21326 CAVALIER CIRCLE","BRISTOL","VA",24202,36.6401498820001,-82.093219779,51,"21326 CAVALIER CIRCLE, BRISTOL, VA, 24202","Match","Exact","21326 CAVALIER CIR, BRISTOL, VA, 24202",154346590,"L"
116552,"21327 HUNTER HILL DRIVE","DADE CITY","FL",33523,28.468927713,-82.217948639,52,"21327 HUNTER HILL DRIVE, DADE CITY, FL, 33523","Match","Exact","21327 HUNTER HILL DR, DADE CITY, FL, 33523",86386756,"L"
116553,"21327 VILLAGE GREEN CIRCLE","GERMANTOWN","MD",20874,39.205735799,-77.2621914539999,53,"21327 VILLAGE GREEN CIRCLE, GERMANTOWN, MD, 20874","Match","Non_Exact","21327 VILLAGE GREEN CIR, GERMANTOWN, MD, 20876",62101429,"R"
116554,"21327 VILLAGE GREEN CIRCLE","GERMANTOWN","MD",20876,39.205735799,-77.2621914539999,54,"21327 VILLAGE GREEN CIRCLE, GERMANTOWN, MD, 20876","Match","Exact","21327 VILLAGE GREEN CIR, GERMANTOWN, MD, 20876",62101429,"R"
116555,"2133 35TH STREET","SACRAMENTO","CA",95817,38.5586866630001,-121.464955848,55,"2133 35TH STREET, SACRAMENTO, CA, 95817","Match","Exact","2133 35TH ST, SACRAMENTO, CA, 95817",640619635,"L"
116556,"2133 BIRCH HOLLOW COVE","DRAPER","UT",84020,40.527544629,-111.830478659,56,"2133 BIRCH HOLLOW COVE, DRAPER, UT, 84020","Match","Exact","2133 BIRCH HOLLOW COVE, DRAPER, UT, 84020",176123932,"L"
116557,"2133 BROADWAY AVE","JACKSONVILLE","FL",32209,30.333864099,-81.696439083,57,"2133 BROADWAY AVE, JACKSONVILLE, FL, 32209","Match","Exact","2133 BROADWAY AVE, JACKSONVILLE, FL, 32209",83894661,"R"
116558,"2133 CHESTNUT OAK CIR","COLLEGE STATION","TX",77845,30.613743721,-96.287505665,58,"2133 CHESTNUT OAK CIR, COLLEGE STATION, TX, 77845","Match","Exact","2133 CHESTNUT OAK CIR, COLLEGE STATION, TX, 77845",651197737,"R"
116559,"2133 CONGRESBURY PLACE","UPPER MARLBORO","MD",20774,38.8604908080001,-76.7401044279999,59,"2133 CONGRESBURY PLACE, UPPER MARLBORO, MD, 20774","Match","Exact","2133 CONGRESBURY PL, UPPER MARLBORO, MD, 20774",648466915,"R"
116560,"2133 CROMWELL AVE","CLOVIS","CA",93611,36.8467964340001,-119.676951252,60,"2133 CROMWELL AVE, CLOVIS, CA, 93611","Match","Exact","2133 CROMWELL AVE, CLOVIS, CA, 93611",197619243,"L"
116561,"2133 E 54TH ST","INDIANAPOLIS","IN",46220,39.851287159,-86.1259338789999,61,"2133 E 54TH ST, INDIANAPOLIS, IN, 46220","Match","Exact","2133 E 54TH ST, INDIANAPOLIS, IN, 46220",107985257,"R"
116562,"2133 E HAWKEN WAY","CHANDLER","AZ",85286,33.287316408,-111.804526586,62,"2133 E HAWKEN WAY, CHANDLER, AZ, 85286","Match","Exact","2133 E HAWKEN WAY, CHANDLER, AZ, 85286",128805749,"L"
116563,"2133 EAST HAWKEN WAY","CHANDLER","AZ",85286,33.287316189,-111.804538549,63,"2133 EAST HAWKEN WAY, CHANDLER, AZ, 85286","Match","Exact","2133 E HAWKEN WAY, CHANDLER, AZ, 85286",128805749,"L"
116564,"2133 EAST WHITTON AVE","PHOENIX","AZ",85016,33.489350981,-112.035955527,64,"2133 EAST WHITTON AVE, PHOENIX, AZ, 85016","Match","Exact","2133 E WHITTON AVE, PHOENIX, AZ, 85016",128209956,"R"
116565,"2133 EL DORADO WAY","CARROLLTON","TX",75006,32.9795511240001,-96.881839363,65,"2133 EL DORADO WAY, CARROLLTON, TX, 75006","Match","Exact","2133 EL DORADO WAY, CARROLLTON, TX, 75006",102884411,"L"
116566,"2133 ENGLEWOOD DR SE","GRAND RAPDIS","MI",49506,42.932063762,-85.615315731,66,"2133 ENGLEWOOD DR SE, GRAND RAPDIS, MI, 49506","Match","Non_Exact","2133 ENGLEWOOD DR SE, GRAND RAPIDS, MI, 49506",12462788,"L"
116567,"2133 ENGLEWOOD DR SE","GRAND RAPIDS","MI",49506,42.932063762,-85.615315731,67,"2133 ENGLEWOOD DR SE, GRAND RAPIDS, MI, 49506","Match","Exact","2133 ENGLEWOOD DR SE, GRAND RAPIDS, MI, 49506",12462788,"L"
116568,"2133 ENGLEWOOD DR","GRAND RAPIDS","MI",49506,42.932063762,-85.615315731,68,"2133 ENGLEWOOD DR, GRAND RAPIDS, MI, 49506","Match","Non_Exact","2133 ENGLEWOOD DR SE, GRAND RAPIDS, MI, 49506",12462788,"L"
116569,"2133 HWY 317 SUITE 12-221","SUWANEE","GA",30024,NA,NA,69,"2133 HWY 317 SUITE 12-221, SUWANEE, GA, 30024","No_Match",NA,NA,NA,NA
116570,"2133 KRUMLAUF RD SE","KALKASKA","MI",49646,44.6833088600001,-85.165083088,70,"2133 KRUMLAUF RD SE, KALKASKA, MI, 49646","Match","Exact","2133 KRUMLAUF RD SE, KALKASKA, MI, 49646",145937487,"R"
116571,"2133 L-SUWANEE RD STE 12405","SUWANEE","GA",30024,NA,NA,71,"2133 L-SUWANEE RD STE 12405, SUWANEE, GA, 30024","No_Match",NA,NA,NA,NA
116572,"2133 LADERA LN","LEXINGTON","KY",40514,37.9846298410001,-84.5824908769999,72,"2133 LADERA LN, LEXINGTON, KY, 40514","Match","Exact","2133 LADERA LN, LEXINGTON, KY, 40514",31944992,"R"
116573,"2133 LVILLE SUWANEE RD  STE 12314","SUWANEE","GA",30024,NA,NA,73,"2133 LVILLE SUWANEE RD  STE 12314, SUWANEE, GA, 30024","No_Match",NA,NA,NA,NA
116574,"2133 NE BROADWAY STREET SUITE 302","PORTLAND","OR",97232,45.5350210510001,-122.644170562,74,"2133 NE BROADWAY STREET SUITE 302, PORTLAND, OR, 97232","Match","Non_Exact","2133 NE BROADWAY ST, PORTLAND, OR, 97232",157506748,"L"
116575,"2133 NIGHT SKY LANE","LAFAYETTE","CO",80026,40.001141137,-105.1187114,75,"2133 NIGHT SKY LANE, LAFAYETTE, CO, 80026","Match","Exact","2133 NIGHT SKY LN, LAFAYETTE, CO, 80026",188186198,"R"
116576,"2133 PLANTATION LANE","BATON ROUGE","LA",70820,30.38572021,-91.1828905959999,76,"2133 PLANTATION LANE, BATON ROUGE, LA, 70820","Match","Exact","2133 PLANTATION LN, BATON ROUGE, LA, 70820",606187355,"L"
116577,"2133 PORTERFIELD WAY - C","UPLAND","CA",91786,NA,NA,77,"2133 PORTERFIELD WAY - C, UPLAND, CA, 91786","No_Match",NA,NA,NA,NA
116578,"2133 RIVIERA PARKWAY","POINT PLEASANT","NJ",8742,40.0693068240001,-74.0656321669999,78,"2133 RIVIERA PARKWAY, POINT PLEASANT, NJ, 8742","Match","Exact","2133 RIVIERA PKWY, PT PLEASANT, NJ, 08742",645491098,"L"
116579,"2133 S GREAT SW PKWY SUITE 507","GRAND PRAIRIE","TX",75051,NA,NA,79,"2133 S GREAT SW PKWY SUITE 507, GRAND PRAIRIE, TX, 75051","No_Match",NA,NA,NA,NA
116580,"2133 TRARES RD","MOGADORE","OH",44260,41.041967545,-81.314863867,80,"2133 TRARES RD, MOGADORE, OH, 44260","Match","Exact","2133 TRARES RD, MOGADORE, OH, 44260",649987269,"L"
116581,"21330 US HWY 10 E","CLINTON","MT",59825,46.7424660280001,-113.701186788,81,"21330 US HWY 10 E, CLINTON, MT, 59825","Match","Exact","21330 US HWY 10 E, CLINTON, MT, 59825",634953504,"L"
116582,"21332 ASTORIA","MISSION VIEJO","CA",92692,33.6524910840001,-117.627879933,82,"21332 ASTORIA, MISSION VIEJO, CA, 92692","Match","Exact","21332 ASTORIA, MISSION VIEJO, CA, 92692",144109918,"L"
116583,"21332 WEST DIXIE HWY","MIAMI","FL",33180,25.9731433040001,-80.148004863,83,"21332 WEST DIXIE HWY, MIAMI, FL, 33180","Match","Exact","21332 W DIXIE HWY, MIAMI, FL, 33180",116035109,"L"
116584,"21333 CHIRPING SPARROW RD","DIAMOND BAR","CA",91765,33.9626463770001,-117.843005716,84,"21333 CHIRPING SPARROW RD, DIAMOND BAR, CA, 91765","Match","Exact","21333 CHIRPING SPARROW RD, DIAMOND BAR, CA, 91765",141736358,"R"
116585,"21333 LASSEN STREET UNIT 6B","CHATSWORTH","CA",91311,34.2499817280001,-118.596136404,85,"21333 LASSEN STREET UNIT 6B, CHATSWORTH, CA, 91311","Match","Exact","21333 LASSEN ST, CHATSWORTH, CA, 91311",141532893,"R"
116586,"21337 DRAKE ROAD","STRONGSVILLE","OH",44149,41.290167094,-81.862098195,86,"21337 DRAKE ROAD, STRONGSVILLE, OH, 44149","Match","Exact","21337 DRAKE RD, STRONGSVILLE, OH, 44149",638360036,"L"
116587,"21337 PELICAN DR","BEND","OR",97701,44.0740638510001,-121.256912719,87,"21337 PELICAN DR, BEND, OR, 97701","Match","Exact","21337 PELICAN DR, BEND, OR, 97701",152576587,"L"
116588,"21338 79TH STREET","CALIFORNIA CIGTY","CA",93505,35.131390192,-117.986994768,88,"21338 79TH STREET, CALIFORNIA CIGTY, CA, 93505","Match","Non_Exact","21338 79TH ST, CALIFORNIA CITY, CA, 93505",109016887,"R"
116589,"21338 CHURCH ST PO BOX 73","THREE SPRINGS","PA",17264,40.1947476140001,-77.9834753109999,89,"21338 CHURCH ST PO BOX 73, THREE SPRINGS, PA, 17264","Match","Exact","21338 CHURCH ST, THREE SPRINGS, PA, 17264",645563764,"L"
116590,"21338 KENDAVILLE RD","HOWARD CITY","MI",49329,43.366633855,-85.5069057809999,90,"21338 KENDAVILLE RD, HOWARD CITY, MI, 49329","Match","Exact","21338 KENDAVILLE RD, HOWARD CITY, MI, 49329",110575613,"L"
116591,"21338 N ACORN WAY","LEWES","DE",19958,38.697206201,-75.203585472,91,"21338 N ACORN WAY, LEWES, DE, 19958","Match","Exact","21338 N ACORN WAY, LEWES, DE, 19958",626121875,"R"
116592,"21338 THOMAS DRIVE","CARSON","CA",90815,33.8347951550001,-118.2545023,92,"21338 THOMAS DRIVE, CARSON, CA, 90815","Match","Non_Exact","21338 THOMAS DR, CARSON, CA, 90745",142651715,"R"
116593,"2134 10TH AVE","LOS ANGELES","CA",90018,34.0372329210001,-118.327914064,93,"2134 10TH AVE, LOS ANGELES, CA, 90018","Match","Exact","2134 10TH AVE, LOS ANGELES, CA, 90018",141602065,"L"
116594,"2134 AVALON RIDGE CIRLCE","FENTON","MO",63026,38.5285630700001,-90.5039635109999,94,"2134 AVALON RIDGE CIRLCE, FENTON, MO, 63026","Match","Non_Exact","2134 AVALON RIDGE CIR, FENTON, MO, 63026",100198017,"R"
116595,"2134 CATHERWOOD AVE","INDIANAPOLIS","IN",46219,39.797425569,-86.061338781,95,"2134 CATHERWOOD AVE, INDIANAPOLIS, IN, 46219","Match","Non_Exact","2134 N CATHERWOOD AVE, INDIANAPOLIS, IN, 46219",108002210,"L"
116596,"2134 DEERFILED DR","LAKELAND","FL",33813,27.9910990710001,-81.925781451,96,"2134 DEERFILED DR, LAKELAND, FL, 33813","Match","Non_Exact","2134 DEERFIELD DR, LAKELAND, FL, 33813",104813028,"L"
116597,"2134 E SERGEANT ST UNIT 1","PHILADELPHIA","PA",19125,39.983191026,-75.124038976,97,"2134 E SERGEANT ST UNIT 1, PHILADELPHIA, PA, 19125","Match","Non_Exact","2134 E SERGEANT ST, PHILADELPHIA, PA, 19125",131425344,"R"
116598,"2134 EDGEWOOD BLVD","BERKLEY","MI",48072,42.4996878630001,-83.1809168089999,98,"2134 EDGEWOOD BLVD, BERKLEY, MI, 48072","Match","Exact","2134 EDGEWOOD BLVD, BERKLEY, MI, 48072",630356640,"R"
116599,"2134 MAIN STREET  SUITE 100","HUNITNGTON BEACH","CA",92648,NA,NA,99,"2134 MAIN STREET  SUITE 100, HUNITNGTON BEACH, CA, 92648","No_Match",NA,NA,NA,NA
116600,"2134 MAPLE VIEW COURT","SCOTCH PLAINS","NJ",7076,40.642570972,-74.3707237089999,100,"2134 MAPLE VIEW COURT, SCOTCH PLAINS, NJ, 7076","Match","Exact","2134 MAPLE VIEW CT, SCOTCH PLAINS, NJ, 07076",60603803,"R"
116601,"2134 N 50TH ST","PHILADELPHIA","PA",19131,39.990911684,-75.2248491299999,101,"2134 N 50TH ST, PHILADELPHIA, PA, 19131","Match","Exact","2134 N 50TH ST, PHILADELPHIA, PA, 19131",131396808,"L"
116602,"2134 NE 1ST CT","BOYNTON BEACH","FL",33435,26.5480464980001,-80.064169538,102,"2134 NE 1ST CT, BOYNTON BEACH, FL, 33435","Match","Exact","2134 NE 1ST CT, BOYNTON BEACH, FL, 33435",115295467,"R"
116603,"2134 NORTH BISSELL STREET","CHICAGO","IL",60614,41.920448838,-87.652235769,103,"2134 NORTH BISSELL STREET, CHICAGO, IL, 60614","Match","Exact","2134 N BISSELL ST, CHICAGO, IL, 60614",605215672,"L"
116604,"2134 PALM GROVE","LOS ANGELES","CA",90016,NA,NA,104,"2134 PALM GROVE, LOS ANGELES, CA, 90016","No_Match",NA,NA,NA,NA
116605,"2134 ROCKLYN STREET","CAMARILLO","CA",93010,34.232242705,-119.042142898,105,"2134 ROCKLYN STREET, CAMARILLO, CA, 93010","Match","Exact","2134 ROCKLYN ST, CAMARILLO, CA, 93010",109960661,"R"
116606,"2134 SUGARLOAF DR","COLUMBIA","IL",62239,38.4937856130001,-90.211758123,106,"2134 SUGARLOAF DR, COLUMBIA, IL, 62239","Match","Non_Exact","2134 SUGARLOAF DR, DUPO, IL, 62239",107889207,"L"
116607,"2134 SUGARLOAF DR","DUPO","IL",62239,38.4937856130001,-90.211758123,107,"2134 SUGARLOAF DR, DUPO, IL, 62239","Match","Exact","2134 SUGARLOAF DR, DUPO, IL, 62239",107889207,"L"
116608,"2134 W EL SEGUNDO BLVD UNIT 4","GARDENA","CA",90249,33.91645572,-118.317257232,108,"2134 W EL SEGUNDO BLVD UNIT 4, GARDENA, CA, 90249","Match","Non_Exact","2134 W EL SEGUNDO BLVD, GARDENA, CA, 90249",142753984,"L"
116609,"2134 W MITCHELL DR","PHOENIX","AZ",85015,33.488710817,-112.105333788,109,"2134 W MITCHELL DR, PHOENIX, AZ, 85015","Match","Exact","2134 W MITCHELL DR, PHOENIX, AZ, 85015",128205262,"R"
116610,"2134 WASHINGTON AVENUE","VINCENNES","IN",47591,38.6829864040001,-87.504308543,110,"2134 WASHINGTON AVENUE, VINCENNES, IN, 47591","Match","Exact","2134 WASHINGTON AVE, VINCENNES, IN, 47591",653679321,"L"
116611,"2134 WEST HIGHLAND AVE","CHICAGO","IL",60659,41.9969232240001,-87.684163226,111,"2134 WEST HIGHLAND AVE, CHICAGO, IL, 60659","Match","Exact","2134 W HIGHLAND AVE, CHICAGO, IL, 60659",111744874,"R"
116612,"2134 WEST LAWN AVE","MADISON","WI",53711,43.063821166,-89.420484533,112,"2134 WEST LAWN AVE, MADISON, WI, 53711","Match","Exact","2134 W LAWN AVE, MADISON, WI, 53711",49469207,"R"
116613,"2134","FREMONT","CA",94536,NA,NA,113,"2134, FREMONT, CA, 94536","No_Match",NA,NA,NA,NA
116614,"21345 MILES DRIVE","WEST LINN","OR",97068,45.3704523160001,-122.641062224,114,"21345 MILES DRIVE, WEST LINN, OR, 97068","Match","Exact","21345 MILES DR, WEST LINN, OR, 97068",157948888,"R"
116615,"21346 GOULD ROAD","WATERTOWN","NY",13601,44.0654675820001,-75.943908096,115,"21346 GOULD ROAD, WATERTOWN, NY, 13601","Match","Exact","21346 GOULD RD, WATERTOWN, NY, 13601",154236129,"R"
116616,"21348 CR 1495","ADA","OK",74820,34.8470497070001,-96.573807974,116,"21348 CR 1495, ADA, OK, 74820","Match","Exact","21348 CR 1495, ADA, OK, 74820",58490926,"R"
116617,"21348 KILDARE AVENUE","MATTESON","IL",60443,41.501210304,-87.719489111,117,"21348 KILDARE AVENUE, MATTESON, IL, 60443","Match","Exact","21348 KILDARE AVE, MATTESON, IL, 60443",111873532,"R"
116618,"2135 A AIRPARK DRIVE","REDDING","CA",96001,40.5749225160001,-122.404835884,118,"2135 A AIRPARK DRIVE, REDDING, CA, 96001","Match","Exact","2135 AIRPARK DR, REDDING, CA, 96001",126644244,"L"
116619,"2135 BANCROFT LANE","HOUSTON","TX",77027,29.745417543,-95.451815118,119,"2135 BANCROFT LANE, HOUSTON, TX, 77027","Match","Non_Exact","2135 BANCROFT ST, HOUSTON, TX, 77027",96033814,"L"
116620,"2135 BANCROFT PLACE NW","WASHINGTON","DC",20008,38.9148388340001,-77.047314045,120,"2135 BANCROFT PLACE NW, WASHINGTON, DC, 20008","Match","Exact","2135 BANCROFT PL NW, WASHINGTON, DC, 20008",652614252,"R"
116621,"2135 BRINGLE FERRY ROAD","SALISBURY","NC",28146,35.6629271850001,-80.43929743,121,"2135 BRINGLE FERRY ROAD, SALISBURY, NC, 28146","Match","Exact","2135 BRINGLE FERRY RD, SALISBURY, NC, 28146",25276926,"R"
116622,"2135 BROADWAY SUITE 3","RIVIERA BEACH","FL",33404,26.779882824,-80.054877489,122,"2135 BROADWAY SUITE 3, RIVIERA BEACH, FL, 33404","Match","Exact","2135 BROADWAY, RIVIERA BEACH, FL, 33404",115276310,"L"
116623,"2135 BROADWAY","OAKLAND","CA",94612,37.8103793820001,-122.267513785,123,"2135 BROADWAY, OAKLAND, CA, 94612","Match","Exact","2135 BROADWAY, OAKLAND, CA, 94612",124996656,"L"
116624,"2135 CHARLOTTE ST SUITE 3","BOZEMAN","MT",59718,45.686538689,-111.064708559,124,"2135 CHARLOTTE ST SUITE 3, BOZEMAN, MT, 59718","Match","Exact","2135 CHARLOTTE ST, BOZEMAN, MT, 59718",163538443,"L"
116625,"2135 COLONIAL AVE SW","ROANOKE","VA",24015,37.254020369,-79.957292598,125,"2135 COLONIAL AVE SW, ROANOKE, VA, 24015","Match","Exact","2135 COLONIAL AVE SW, ROANOKE, VA, 24015",62909854,"R"
116626,"2135 DOGWOOD KELLY RD","HOPKINSVILLE","KY",42240,36.9601309880001,-87.454274158,126,"2135 DOGWOOD KELLY RD, HOPKINSVILLE, KY, 42240","Match","Exact","2135 DOGWOOD KELLY RD, HOPKINSVILLE, KY, 42240",11294080,"L"
116627,"2135 E ROCK RIDGE DR","DIAMOND","IL",60416,41.274688166,-88.2536635879999,127,"2135 E ROCK RIDGE DR, DIAMOND, IL, 60416","Match","Exact","2135 E ROCK RIDGE DR, DIAMOND, IL, 60416",54465252,"R"
116628,"2135 FLOWERS DRIVE","JACKSON","MS",39204,32.276631305,-90.2485632889999,128,"2135 FLOWERS DRIVE, JACKSON, MS, 39204","Match","Exact","2135 FLOWERS DR, JACKSON, MS, 39204",611221425,"R"
116629,"2135 HAYSTACK ROAD","CASTLE ROCK","CO",80104,39.3474296310001,-104.847543327,129,"2135 HAYSTACK ROAD, CASTLE ROCK, CO, 80104","Match","Exact","2135 HAYSTACK RD, CASTLE ROCK, CO, 80104",624586893,"L"
116630,"2135 HILL CANYON CT","SUGAR LAND","TX",77479,29.5748594250001,-95.6771652749999,130,"2135 HILL CANYON CT, SUGAR LAND, TX, 77479","Match","Exact","2135 HILL CANYON CT, SUGAR LAND, TX, 77479",78327930,"L"
116631,"2135 HOLLISTER AVE","MADISON","WI",53726,43.0662273040001,-89.422451248,131,"2135 HOLLISTER AVE, MADISON, WI, 53726","Match","Exact","2135 HOLLISTER AVE, MADISON, WI, 53726",49469013,"L"
116632,"2135 INTERSTATE DR SUITE 129","OPELIKA","AL",36801,NA,NA,132,"2135 INTERSTATE DR SUITE 129, OPELIKA, AL, 36801","No_Match",NA,NA,NA,NA
116633,"2135 JEFFERSON AVE SW","BIRMINGHAM","AL",35211,33.476250206,-86.870796172,133,"2135 JEFFERSON AVE SW, BIRMINGHAM, AL, 35211","Match","Exact","2135 JEFFERSON AVE SW, BIRMINGHAM, AL, 35211",81705463,"L"
116634,"2135 JODI LANE","CARSON CITY","NV",89701,39.147261116,-119.752431641,134,"2135 JODI LANE, CARSON CITY, NV, 89701","Match","Exact","2135 JODI LN, CARSON CITY, NV, 89701",199526826,"R"
116635,"2135 MOUNTAIN VIEW RD","STAFFORD","VA",22556,38.462176297,-77.4950722459999,135,"2135 MOUNTAIN VIEW RD, STAFFORD, VA, 22556","Match","Exact","2135 MOUNTAIN VIEW RD, STAFFORD, VA, 22556",25561692,"L"
116636,"2135 NE 44TH AVE","PORTLAND","OR",97213,45.5380567830001,-122.617910677,136,"2135 NE 44TH AVE, PORTLAND, OR, 97213","Match","Exact","2135 NE 44TH AVE, PORTLAND, OR, 97213",157511674,"L"
116637,"2135 NISKEY LAKE RD SW","ATLANTA","GA",30331,33.697447385,-84.527970591,137,"2135 NISKEY LAKE RD SW, ATLANTA, GA, 30331","Match","Exact","2135 NISKEY LAKE RD SW, ATLANTA, GA, 30331",17337235,"R"
116638,"2135 NORTHLAKE PARKWAY","TUCKER","GA",30084,33.8461579,-84.2445782789999,138,"2135 NORTHLAKE PARKWAY, TUCKER, GA, 30084","Match","Exact","2135 NORTHLAKE PKWY, TUCKER, GA, 30084",23361834,"R"
116639,"2135 PALM VALLEY ROAD","PONTE VEDRA","FL",32081,NA,NA,139,"2135 PALM VALLEY ROAD, PONTE VEDRA, FL, 32081","No_Match",NA,NA,NA,NA
116640,"2135 PROVIDENCE DR","JACKSON","MO",63755,37.4010609370001,-89.6879745969999,140,"2135 PROVIDENCE DR, JACKSON, MO, 63755","Match","Exact","2135 PROVIDENCE DR, JACKSON, MO, 63755",35201531,"R"
116641,"2135 RAILROAD AVE","RENTZ","GA",31075,32.380961783,-82.9930595069999,141,"2135 RAILROAD AVE, RENTZ, GA, 31075","Match","Non_Exact","2135 RAILROAD ST, RENTZ, GA, 31075",100645057,"L"
116642,"2135 REYNOLDS STREET APT 106","COVINGTON","GA",30014,33.5953229990001,-83.863154107,142,"2135 REYNOLDS STREET APT 106, COVINGTON, GA, 30014","Match","Non_Exact","2135 REYNOLDS ST SW, COVINGTON, GA, 30014",23640523,"L"
116643,"2135 ROCK MOUNTAIN DRIVE","MCCALLA","AL",35111,33.3289706850001,-87.065697023,143,"2135 ROCK MOUNTAIN DRIVE, MCCALLA, AL, 35111","Match","Non_Exact","2135 ROCK MOUNTAIN DR, MC CALLA, AL, 35111",81544137,"R"
116644,"2135 S 165TH STREET","OMAHA","NE",68130,41.238197863,-96.1709609549999,144,"2135 S 165TH STREET, OMAHA, NE, 68130","Match","Exact","2135 S 165TH ST, OMAHA, NE, 68130",116966621,"R"
116645,"2135 S 61 STREET","LINCOLN","NE",68508,40.7911940000001,-96.637003314,145,"2135 S 61 STREET, LINCOLN, NE, 68508","Match","Non_Exact","2135 S 61ST ST, LINCOLN, NE, 68506",28261208,"R"
116646,"2135 S AMMON RD","IDAHO FALLS","ID",83402,43.477963313,-111.964221005,146,"2135 S AMMON RD, IDAHO FALLS, ID, 83402","Match","Non_Exact","2135 S AMMON RD, IDAHO FALLS, ID, 83406",119195112,"R"
116647,"2135 S HANNA STREET","FORT WAYNE","IN",46803,41.0658281180001,-85.128444659,147,"2135 S HANNA STREET, FORT WAYNE, IN, 46803","Match","Exact","2135 HANNA ST, FORT WAYNE, IN, 46803",6379856,"L"
116648,"2135 S MANOR DRIVE","ERIE","PA",16501,42.1065864710001,-80.1288674469999,148,"2135 S MANOR DRIVE, ERIE, PA, 16501","Match","Non_Exact","2135 S MANOR DR, ERIE, PA, 16505",117493381,"L"
116649,"2135 SAINT FRANCIS DRIVE","EAU CLAIRE","WI",54703,NA,NA,149,"2135 SAINT FRANCIS DRIVE, EAU CLAIRE, WI, 54703","Tie",NA,NA,NA,NA
116650,"2135 SHERWOOD AVE SW","ROANOKE","VA",24015,37.262173897,-79.9824105929999,150,"2135 SHERWOOD AVE SW, ROANOKE, VA, 24015","Match","Exact","2135 SHERWOOD AVE SW, ROANOKE, VA, 24015",62939072,"R"
116651,"2135 SKYTOP DR","STONE MOUNTAIN","GA",30087,33.846508649,-84.167761215,151,"2135 SKYTOP DR, STONE MOUNTAIN, GA, 30087","Match","Exact","2135 SKYTOP DR, STONE MOUNTAIN, GA, 30087",23373942,"R"
116652,"2135 SLEEPY HOLLOW ROAD","FORT RIPLEY","MN",56449,46.2306109950001,-94.352485789,152,"2135 SLEEPY HOLLOW ROAD, FORT RIPLEY, MN, 56449","Match","Exact","2135 SLEEPY HOLLOW RD, FORT RIPLEY, MN, 56449",636235623,"L"
116653,"2135 SOMERSET ST","BEAUMONT","TX",77707,30.055237365,-94.201133187,153,"2135 SOMERSET ST, BEAUMONT, TX, 77707","Match","Exact","2135 SOMERSET ST, BEAUMONT, TX, 77707",73851465,"L"
116654,"2135 SOUTH 38TH AVENUE","OMAHA","NE",68105,41.239511367,-95.971439543,154,"2135 SOUTH 38TH AVENUE, OMAHA, NE, 68105","Match","Exact","2135 S 38TH AVE, OMAHA, NE, 68105",116984961,"L"
116655,"2135 STONEHENGE","GARLAND","TX",75041,32.885175272,-96.658513971,155,"2135 STONEHENGE, GARLAND, TX, 75041","Match","Non_Exact","2135 STONEHENGE DR, GARLAND, TX, 75041",102927198,"R"
116656,"2135 SW 19 TERRACE","MIAMI","FL",33145,25.753597746,-80.2289711769999,156,"2135 SW 19 TERRACE, MIAMI, FL, 33145","Match","Exact","2135 SW 19TH TER, MIAMI, FL, 33145",116018856,"R"
116657,"2135 THISTLEROCK LN","SUGAR LAND","TX",77479,29.5785691340001,-95.682517043,157,"2135 THISTLEROCK LN, SUGAR LAND, TX, 77479","Match","Exact","2135 THISTLEROCK LN, SUGAR LAND, TX, 77479",78327765,"L"
116658,"2135 UPTOWN SQUARE","MCDONOUGH","GA",30252,33.421901183,-84.137103274,158,"2135 UPTOWN SQUARE, MCDONOUGH, GA, 30252","Match","Exact","2135 UPTOWN SQ, MCDONOUGH, GA, 30252",634027985,"R"
116659,"2135 W FAIRBANKS AVENUE","WINTER PARK","FL",32789,28.5931546640001,-81.3782418549999,159,"2135 W FAIRBANKS AVENUE, WINTER PARK, FL, 32789","Match","Exact","2135 W FAIRBANKS AVE, WINTER PARK, FL, 32789",94277084,"R"
116660,"2135 W POSADA AVE","MESA","AZ",85202,33.35829327,-111.879355189,160,"2135 W POSADA AVE, MESA, AZ, 85202","Match","Exact","2135 W POSADA AVE, MESA, AZ, 85202",128239902,"L"
116661,"2135 WATER OAK DRIVE","SLIDELL","WY",82834,NA,NA,161,"2135 WATER OAK DRIVE, SLIDELL, WY, 82834","No_Match",NA,NA,NA,NA
116662,"2135 WEST FOSTER","CHICAGO","IL",60640,NA,NA,162,"2135 WEST FOSTER, CHICAGO, IL, 60640","No_Match",NA,NA,NA,NA
116663,"21350 HWY 112","TOOMSBORO","GA",31090,32.801521769,-83.0763627059999,163,"21350 HWY 112, TOOMSBORO, GA, 31090","Match","Non_Exact","21350 STATE RTE 112, TOOMSBORO, GA, 31090",65561547,"R"
116664,"21350 MISSOURI AVE","LITTLE ROCK","AR",72118,34.837262019,-92.2975195559999,164,"21350 MISSOURI AVE, LITTLE ROCK, AR, 72118","Match","Non_Exact","21350 MISSOURI AVE, N LITTLE ROCK, AR, 72199",83602439,"R"
116665,"21351 GENTRY DRIVE SUITE 150","STERLING","VA",20166,39.0250255460001,-77.40577856,165,"21351 GENTRY DRIVE SUITE 150, STERLING, VA, 20166","Match","Exact","21351 GENTRY DR, STERLING, VA, 20166",62364430,"R"
116666,"21351 PROSPECT ROAD","SARATOGA","CA",95070,37.2907540190001,-122.045468328,166,"21351 PROSPECT ROAD, SARATOGA, CA, 95070","Match","Exact","21351 PROSPECT RD, SARATOGA, CA, 95070",614042520,"R"
116667,"21352 N DENTON DRIVE","MARICOPA","AZ",85138,33.0743984480001,-112.009096163,167,"21352 N DENTON DRIVE, MARICOPA, AZ, 85138","Match","Exact","21352 DENTON DR, MARICOPA, AZ, 85138",624983435,"R"
116668,"21352 SW 112 AVE APT 106","CUTLER BAY","FL",33189,25.5686686820001,-80.3722715649999,168,"21352 SW 112 AVE APT 106, CUTLER BAY, FL, 33189","Match","Non_Exact","21352 SW 112TH AVE, CUTLER BAY, FL, 33189",653229970,"R"
116669,"21354 E 1200TH AVE","DIETERICH","IL",62424,39.0895184290001,-88.4118151609999,169,"21354 E 1200TH AVE, DIETERICH, IL, 62424","Match","Exact","21354 E 1200TH AVE, DIETERICH, IL, 62424",94770718,"L"
116670,"21354 NORDHOFF ST SUITE 114","CHATSWORTH","CA",91311,34.2354498610001,-118.596169407,170,"21354 NORDHOFF ST SUITE 114, CHATSWORTH, CA, 91311","Match","Exact","21354 NORDHOFF ST, CHATSWORTH, CA, 91311",141532960,"L"
116671,"21355 HICKORYWOOD CT","DEARBORN HEIGHTS","MI",48127,42.3280664440001,-83.248329746,171,"21355 HICKORYWOOD CT, DEARBORN HEIGHTS, MI, 48127","Match","Non_Exact","21355 HICKORY WOOD CT, DEARBORN HEIGHTS, MI, 48127",95440491,"L"
116672,"21359 MICHELLE","MACOMB TOWNSHIP","MI",48044,42.6401778640001,-82.9041194659999,172,"21359 MICHELLE, MACOMB TOWNSHIP, MI, 48044","Match","Non_Exact","21359 MICHELLE DR, MACOMB, MI, 48044",618372210,"L"
116673,"21359 NEW GAMBIER ROAD","GAMBIER","OH",43022,40.387801869,-82.365374617,173,"21359 NEW GAMBIER ROAD, GAMBIER, OH, 43022","Match","Exact","21359 NEW GAMBIER RD, GAMBIER, OH, 43022",24618640,"L"
116674,"21359 TULANE AVENUE APT 201","FARMINGTON HILLS","MI",48336,42.447709423,-83.337746968,174,"21359 TULANE AVENUE APT 201, FARMINGTON HILLS, MI, 48336","Match","Exact","21359 TULANE AVE, FARMINGTON HILLS, MI, 48336",630512884,"L"
116675,"2136 3RD AVENUE","LOS ANGELES","CA",90018,34.0377325220001,-118.320056858,175,"2136 3RD AVENUE, LOS ANGELES, CA, 90018","Match","Exact","2136 3RD AVE, LOS ANGELES, CA, 90018",141605590,"L"
116676,"2136 CANERIDGE DR SW","MARIETTA","GA",30064,NA,NA,176,"2136 CANERIDGE DR SW, MARIETTA, GA, 30064","Tie",NA,NA,NA,NA
116677,"2136 CHAGALL CIRCLE","WEST PALM BEACH","FL",33409,26.7332553740001,-80.1021973169999,177,"2136 CHAGALL CIRCLE, WEST PALM BEACH, FL, 33409","Match","Exact","2136 CHAGALL CIR, WEST PALM BEACH, FL, 33409",650127620,"R"
116678,"2136 EAST CLIPPER LANE","GILBERT","AZ",85234,33.3748260340001,-111.745711351,178,"2136 EAST CLIPPER LANE, GILBERT, AZ, 85234","Match","Exact","2136 E CLIPPER LN, GILBERT, AZ, 85234",128335471,"L"
116679,"2136 EASTMAN BLVD","WEST BLOOMFIELD","MI",48323,42.556545983,-83.325111001,179,"2136 EASTMAN BLVD, WEST BLOOMFIELD, MI, 48323","Match","Exact","2136 EASTMAN BLVD, W BLOOMFIELD, MI, 48323",69806689,"R"
116680,"2136 EDGEHILL ROAD","VISTA","CA",92804,33.211932119,-117.20409619,180,"2136 EDGEHILL ROAD, VISTA, CA, 92804","Match","Non_Exact","2136 EDGEHILL RD, VISTA, CA, 92084",612863277,"L"
116681,"2136 FORD PARKWAY SUITE 5339","SAINT PAUL","MN",55116,44.9179035390001,-93.1905555979999,181,"2136 FORD PARKWAY SUITE 5339, SAINT PAUL, MN, 55116","Match","Exact","2136 FORD PKWY, SAINT PAUL, MN, 55116",97639559,"L"
116682,"2136 FORD PARKWAY SUITE 8052","SAINT PAUL","MN",55116,44.9179035390001,-93.1905555979999,182,"2136 FORD PARKWAY SUITE 8052, SAINT PAUL, MN, 55116","Match","Exact","2136 FORD PKWY, SAINT PAUL, MN, 55116",97639559,"L"
116683,"2136 HAZLETT DRIVE","HOUSTON","TX",77032,29.94332358,-95.3596153139999,183,"2136 HAZLETT DRIVE, HOUSTON, TX, 77032","Match","Non_Exact","2136 HAZLITT DR, HOUSTON, TX, 77032",96044863,"R"
116684,"2136 LEROY PLACE NW","WASHINGTON","DC",20008,38.915506196,-77.0475585089999,184,"2136 LEROY PLACE NW, WASHINGTON, DC, 20008","Match","Exact","2136 LEROY PL NW, WASHINGTON, DC, 20008",652614249,"L"
116685,"2136 LINDEN RD","WINTER PARK","FL",32792,28.621137301,-81.318476318,185,"2136 LINDEN RD, WINTER PARK, FL, 32792","Match","Exact","2136 LINDEN RD, WINTER PARK, FL, 32792",93744846,"R"
116686,"2136 MAGNOLIA AVENUE","PETALUMA","CA",94952,38.248707321,-122.668591902,186,"2136 MAGNOLIA AVENUE, PETALUMA, CA, 94952","Match","Exact","2136 MAGNOLIA AVE, PETALUMA, CA, 94952",636416204,"L"
116687,"2136 MARTIN LUTHER KING JR WAY","TACOMA","WA",98405,47.2412236170001,-122.449275635,187,"2136 MARTIN LUTHER KING JR WAY, TACOMA, WA, 98405","Match","Exact","2136 MARTIN LUTHER KING JR WAY, TACOMA, WA, 98405",184624653,"R"
116688,"2136 MARTIN LUTHER KING JR WAY","TACOMA","WA",98409,47.2412236170001,-122.449275635,188,"2136 MARTIN LUTHER KING JR WAY, TACOMA, WA, 98409","Match","Non_Exact","2136 MARTIN LUTHER KING JR WAY, TACOMA, WA, 98405",184624653,"R"
116689,"2136 NE 123RD ST","NORTH MIAMI","FL",33181,25.8895032520001,-80.154575127,189,"2136 NE 123RD ST, NORTH MIAMI, FL, 33181","Match","Exact","2136 NE 123RD ST, NORTH MIAMI, FL, 33181",116038047,"R"
116690,"2136 OLD MILL RD","SEA GIRT","NJ",8750,40.140754239,-74.054916954,190,"2136 OLD MILL RD, SEA GIRT, NJ, 8750","Match","Exact","2136 OLD MILL RD, SEA GIRT, NJ, 08750",90459137,"L"
116691,"2136 PHOENIX AVE","JACKSONVILLE","FL",32206,30.350060528,-81.6410811919999,191,"2136 PHOENIX AVE, JACKSONVILLE, FL, 32206","Match","Exact","2136 PHOENIX AVE, JACKSONVILLE, FL, 32206",83899317,"L"
116692,"2136 RYELAND LANE","FORT COLLINS","CO",80526,40.559119234,-105.123413411,192,"2136 RYELAND LANE, FORT COLLINS, CO, 80526","Match","Exact","2136 RYELAND LN, FORT COLLINS, CO, 80526",188489607,"L"
116693,"2136 S HARDING AVE UNIT 1","CHICAGO","IL",60623,41.852919785,-87.723539334,193,"2136 S HARDING AVE UNIT 1, CHICAGO, IL, 60623","Match","Non_Exact","2136 S HARDING AVE, CHICAGO, IL, 60623",605096805,"R"
116694,"2136 S WASHINGTON STREET","DENVER","CO",80210,39.6778414710001,-104.979293317,194,"2136 S WASHINGTON STREET, DENVER, CO, 80210","Match","Exact","2136 S WASHINGTON ST, DENVER, CO, 80210",177333774,"L"
116695,"2136 SHELBY DRIVE","COLUMBUS","GA",31903,32.416740729,-84.931588372,195,"2136 SHELBY DRIVE, COLUMBUS, GA, 31903","Match","Non_Exact","2136 SHELBY ST, COLUMBUS, GA, 31903",98943299,"L"
116696,"2136 TALMADGE DRIVE","TITUSVILLE","FL",32780,28.589646079,-80.8207489979999,196,"2136 TALMADGE DRIVE, TITUSVILLE, FL, 32780","Match","Exact","2136 TALMADGE DR, TITUSVILLE, FL, 32780",93890969,"R"
116697,"2136 W CHESTERFIELD BLVD SUITE D202","SPRINGFIELD","MO",65807,37.145719451,-93.321670081,197,"2136 W CHESTERFIELD BLVD SUITE D202, SPRINGFIELD, MO, 65807","Match","Non_Exact","2136 W CHESTERFIELD BLVD, SPRINGFIELD, MO, 65807",76700659,"R"
116698,"2136 W EMORY RD","POWELL","TN",37849,36.0288722240001,-84.031573263,198,"2136 W EMORY RD, POWELL, TN, 37849","Match","Exact","2136 W EMORY RD, POWELL, TN, 37849",615470517,"R"
116699,"2136 W EMORY ROAD","POWELL","TN",37849,36.0288722240001,-84.031573263,199,"2136 W EMORY ROAD, POWELL, TN, 37849","Match","Exact","2136 W EMORY RD, POWELL, TN, 37849",615470517,"R"
116700,"2136 WOODFORD PLACE","LOUISVILLE","KY",40205,38.2269611900001,-85.6928858759999,200,"2136 WOODFORD PLACE, LOUISVILLE, KY, 40205","Match","Exact","2136 WOODFORD PL, LOUISVILLE, KY, 40205",96852923,"R"
116701,"21361 AVENUE SAN LUIS","WOODLAND HILLS","CA",91364,34.1659985650001,-118.597294079,201,"21361 AVENUE SAN LUIS, WOODLAND HILLS, CA, 91364","Match","Exact","21361 AVE SAN LUIS, WOODLAND HILLS, CA, 91364",141535476,"R"
116702,"21361 GLEN LODGE RD","FERNDALE","MI",48220,42.4517844380001,-83.159769016,202,"21361 GLEN LODGE RD, FERNDALE, MI, 48220","Match","Exact","21361 GLEN LODGE RD, FERNDALE, MI, 48220",69742380,"L"
116703,"21363 ESCONDIDO WAY S","BOCA RATON","FL",33433,26.359376308,-80.1860171289999,203,"21363 ESCONDIDO WAY S, BOCA RATON, FL, 33433","Match","Exact","21363 ESCONDIDO WAY S, BOCA RATON, FL, 33433",115574924,"R"
116704,"21364 MADRONA AVE","TORRANCE","CA",90503,33.8345895140001,-118.344846962,204,"21364 MADRONA AVE, TORRANCE, CA, 90503","Match","Exact","21364 MADRONA AVE, TORRANCE, CA, 90503",141665589,"L"
116705,"21364 WOODLAND WAY","SHOREWOOD","IL",60404,41.494068627,-88.220234337,205,"21364 WOODLAND WAY, SHOREWOOD, IL, 60404","Match","Exact","21364 WOODLAND WAY, SHOREWOOD, IL, 60404",617392793,"R"
116706,"21366 ASHBURN RUN PLACE","ASHBURN","VA",20147,39.0250252280001,-77.498037956,206,"21366 ASHBURN RUN PLACE, ASHBURN, VA, 20147","Match","Exact","21366 ASHBURN RUN PL, ASHBURN, VA, 20147",62355134,"R"
116707,"21366 W MULE DEER WAY","BUCKEYE","AZ",85396,33.4913675010001,-112.519606215,207,"21366 W MULE DEER WAY, BUCKEYE, AZ, 85396","Match","Exact","21366 W MULE DEER WAY, BUCKEYE, AZ, 85396",243949780,"L"
116708,"2137 74TH ST","BLAIRSTOWN","IA",52209,41.949195392,-92.0764452069999,208,"2137 74TH ST, BLAIRSTOWN, IA, 52209","Match","Exact","2137 74TH ST, BLAIRSTOWN, IA, 52209",94723327,"L"
116709,"2137 CEDAR TREE LANE","WALDORF","MD",20601,38.654013811,-76.856845494,209,"2137 CEDAR TREE LANE, WALDORF, MD, 20601","Match","Exact","2137 CEDAR TREE LN, WALDORF, MD, 20601",25383889,"R"
116710,"2137 COLBY AVENUE","LOS ANGELES","CA",90025,34.036896981,-118.445800794,210,"2137 COLBY AVENUE, LOS ANGELES, CA, 90025","Match","Exact","2137 COLBY AVE, LOS ANGELES, CA, 90025",141569523,"R"
116711,"2137 CRAWFORD AVE","EVANSTON","IL",60201,42.056301666,-87.727444008,211,"2137 CRAWFORD AVE, EVANSTON, IL, 60201","Match","Exact","2137 CRAWFORD AVE, EVANSTON, IL, 60201",111739968,"R"
116712,"2137 DARBY CREEK RD","HAVERTOWN","PA",19083,39.9823008220001,-75.336585009,212,"2137 DARBY CREEK RD, HAVERTOWN, PA, 19083","Match","Exact","2137 DARBY CREEK RD, HAVERTOWN, PA, 19083",134906392,"R"
116713,"2137 E 67TH ST","KANSAS CITY","MO",64132,39.0054647590001,-94.561058755,213,"2137 E 67TH ST, KANSAS CITY, MO, 64132","Match","Exact","2137 E 67TH ST, KANSAS CITY, MO, 64132",91456481,"R"
116714,"2137 E EDISON ST","TUCSON","AZ",85719,32.24837488,-110.940832588,214,"2137 E EDISON ST, TUCSON, AZ, 85719","Match","Exact","2137 E EDISON ST, TUCSON, AZ, 85719",121173622,"L"
116715,"2137 FLEUR DE LIS CT","ARLINGTON","TX",76110,32.753689513,-97.143108774,215,"2137 FLEUR DE LIS CT, ARLINGTON, TX, 76110","Match","Non_Exact","2137 FLEUR DE LIS CT, ARLINGTON, TX, 76012",101905029,"L"
116716,"2137 GRAY OAK CV","PORTAGE","MI",49024,42.1892777950001,-85.6147866489999,216,"2137 GRAY OAK CV, PORTAGE, MI, 49024","Match","Exact","2137 GRAY OAK COVE, PORTAGE, MI, 49024",617448569,"R"
116717,"2137 KIDD ROAD","NOLENSVILLE","TN",37135,35.976719308,-86.659185112,217,"2137 KIDD ROAD, NOLENSVILLE, TN, 37135","Match","Exact","2137 KIDD RD, NOLENSVILLE, TN, 37135",648279981,"R"
116718,"2137 MC ARTHUR AVE","COLORADO SPRINGS","CO",80909,38.86244929,-104.784507547,218,"2137 MC ARTHUR AVE, COLORADO SPRINGS, CO, 80909","Match","Non_Exact","2137 MCARTHUR AVE, COLORADO SPRINGS, CO, 80909",105515795,"R"
116719,"2137 N TAMY LN","SANTA ANA","CA",92706,33.7639645670001,-117.890135106,219,"2137 N TAMY LN, SANTA ANA, CA, 92706","Match","Exact","2137 TAMY LN, SANTA ANA, CA, 92706",144040598,"R"
116720,"2137 NIGHT SKY LANE","LAFAYETTE","CO",80026,40.0011548750001,-105.118680873,220,"2137 NIGHT SKY LANE, LAFAYETTE, CO, 80026","Match","Exact","2137 NIGHT SKY LN, LAFAYETTE, CO, 80026",188186198,"R"
116721,"2137 NORTHAM DR","FULLERTON","CA",92833,33.8860798600001,-117.960709137,221,"2137 NORTHAM DR, FULLERTON, CA, 92833","Match","Exact","2137 NORTHAM DR, FULLERTON, CA, 92833",609050839,"L"
116722,"2137 PARKHAVEN DR","PLANO","TX",75075,33.0369229360001,-96.7345246039999,222,"2137 PARKHAVEN DR, PLANO, TX, 75075","Match","Exact","2137 PARKHAVEN DR, PLANO, TX, 75075",210470096,"R"
116723,"2137 ROUTE 11","LAFAYETTE","NY",13084,NA,NA,223,"2137 ROUTE 11, LAFAYETTE, NY, 13084","No_Match",NA,NA,NA,NA
116724,"2137 ROUTE 35 NORTH","HOLMDEL","NJ",7733,NA,NA,224,"2137 ROUTE 35 NORTH, HOLMDEL, NJ, 7733","No_Match",NA,NA,NA,NA
116725,"2137 SAN JOSE BLVD","ORLANDO","FL",32808,28.57042733,-81.440515023,225,"2137 SAN JOSE BLVD, ORLANDO, FL, 32808","Match","Exact","2137 SAN JOSE BLVD, ORLANDO, FL, 32808",94270376,"R"
116726,"2137 STATE ROUTE 225","DEERFIELD","OH",44411,41.0468747140001,-81.050321255,226,"2137 STATE ROUTE 225, DEERFIELD, OH, 44411","Match","Exact","2137 STATE RTE 225, DEERFIELD, OH, 44411",137547840,"L"
116727,"2137 SUNSET DR","STILLWATER","OK",74074,36.120398492,-97.084443605,227,"2137 SUNSET DR, STILLWATER, OK, 74074","Match","Non_Exact","2137 W SUNSET DR, STILLWATER, OK, 74074",166359984,"L"
116728,"2137 SW 114 STREET","BURIEN","WA",98146,47.500962159,-122.361612704,228,"2137 SW 114 STREET, BURIEN, WA, 98146","Match","Exact","2137 SW 114TH ST, BURIEN, WA, 98146",186667726,"L"
116729,"2137 SYCAMORE ROAD","YORK","PA",17408,39.975299374,-76.798182518,229,"2137 SYCAMORE ROAD, YORK, PA, 17408","Match","Exact","2137 SYCAMORE RD, YORK, PA, 17408",88728527,"R"
116730,"2137 WESTON PL SW","ROCHESTER","MN",55902,43.972275971,-92.493311069,230,"2137 WESTON PL SW, ROCHESTER, MN, 55902","Match","Exact","2137 WESTON PL SW, ROCHESTER, MN, 55902",617754070,"L"
116731,"2137 WYNDHAM WAY","UNION","KY",41091,38.9447749230001,-84.659889052,231,"2137 WYNDHAM WAY, UNION, KY, 41091","Match","Exact","2137 WYNDHAM WAY, UNION, KY, 41091",634104543,"L"
116732,"21370 CRYSTAL AVENUE","EUCLID","OH",44123,41.5994910740001,-81.531414667,232,"21370 CRYSTAL AVENUE, EUCLID, OH, 44123","Match","Exact","21370 CRYSTAL AVE, EUCLID, OH, 44123",61108505,"R"
116733,"21370 SW LANGER FARMS PKWY -142-429","SHERWOOD","OR",97140,45.364766493,-122.835986557,233,"21370 SW LANGER FARMS PKWY -142-429, SHERWOOD, OR, 97140","Match","Non_Exact","21370 SW LANGER FARMS PKWY, SHERWOOD, OR, 97140",641905951,"R"
116734,"21371 HOO SHOO TOO ROAD","BATON ROUGE","LA",70817,30.3502173640001,-90.9506637969999,234,"21371 HOO SHOO TOO ROAD, BATON ROUGE, LA, 70817","Match","Exact","21371 HOO SHOO TOO RD, BATON ROUGE, LA, 70817",638604493,"L"
116735,"21372 CREEKSIDE DRIVE","RED BLUFF","CA",96080,40.2185648760001,-122.241301267,235,"21372 CREEKSIDE DRIVE, RED BLUFF, CA, 96080","Match","Exact","21372 CREEKSIDE DR, RED BLUFF, CA, 96080",119404988,"L"
116736,"21372 SPRINGWELL DR","ASHBURN","VA",20148,39.0250726130001,-77.515741291,236,"21372 SPRINGWELL DR, ASHBURN, VA, 20148","Match","Exact","21372 SPRINGWELL DR, ASHBURN, VA, 20148",62347384,"R"
116737,"21374 NW 165TH AVE","HIGH SPRINGS","FL",32643,29.803136878,-82.5717296509999,237,"21374 NW 165TH AVE, HIGH SPRINGS, FL, 32643","Match","Exact","21374 NW 165 AVE, HIGH SPRINGS, FL, 32643",6847907,"R"
116738,"21375 WILLOW WAY DRIVE","LAKE VIEW","AL",35111,33.273507459,-87.1311216129999,238,"21375 WILLOW WAY DRIVE, LAKE VIEW, AL, 35111","Match","Exact","21375 WILLOW WAY DR, LAKE VIEW, AL, 35111",82194561,"L"
116739,"2138 279TH DR SE","SAMMAMISH","WA",98075,47.589596971,-121.969011102,239,"2138 279TH DR SE, SAMMAMISH, WA, 98075","Match","Exact","2138 279TH DR SE, SAMMAMISH, WA, 98075",638601734,"R"
116740,"2138 AUMAKUA STREET","PEARL CITY","HI",96782,21.4213610260001,-157.959378701,240,"2138 AUMAKUA STREET, PEARL CITY, HI, 96782","Match","Exact","2138 AUMAKUA ST, PEARL CITY, HI, 96782",203257865,"L"
116741,"2138 BONANZA LN","NORTH PORT","FL",34286,27.0526166770001,-82.17448498,241,"2138 BONANZA LN, NORTH PORT, FL, 34286","Match","Exact","2138 BONANZA LN, NORTH PORT, FL, 34286",16340152,"R"
116742,"2138 CHERRY ST","PHILADELPHIA","PA",19103,39.9568849610001,-75.175409649,242,"2138 CHERRY ST, PHILADELPHIA, PA, 19103","Match","Exact","2138 CHERRY ST, PHILADELPHIA, PA, 19103",642122502,"L"
116743,"2138 CRESCENT STREET APT D3","ASTORIA","NY",11105,NA,NA,243,"2138 CRESCENT STREET APT D3, ASTORIA, NY, 11105","No_Match",NA,NA,NA,NA
116744,"2138 E 39TH STREET","LORAIN","OH",44055,41.4350685300001,-82.122375679,244,"2138 E 39TH STREET, LORAIN, OH, 44055","Match","Exact","2138 E 39TH ST, LORAIN, OH, 44055",55408017,"R"
116745,"2138 E 550TH RD","OGLESBY","IL",61348,41.24145751,-89.057142502,245,"2138 E 550TH RD, OGLESBY, IL, 61348","Match","Exact","2138 E 550TH RD, OGLESBY, IL, 61348",8599879,"R"
116746,"2138 E CALLE DE ARCOS","TEMPE","AZ",85284,33.332418955,-111.89491997,246,"2138 E CALLE DE ARCOS, TEMPE, AZ, 85284","Match","Non_Exact","2138 E CLL DE ARCOS, TEMPE, AZ, 85284",128240107,"L"
116747,"2138 E FALCON RIDGE DR","DRAPER","UT",84020,40.470547464,-111.828220306,247,"2138 E FALCON RIDGE DR, DRAPER, UT, 84020","Match","Exact","2138 FALCON RIDGE DR, DRAPER, UT, 84020",633415560,"R"
116748,"2138 EAST CAMBRIA STREET","PHILADELPHIA","PA",19134,39.9881858950001,-75.1163388579999,248,"2138 EAST CAMBRIA STREET, PHILADELPHIA, PA, 19134","Match","Exact","2138 E CAMBRIA ST, PHILADELPHIA, PA, 19134",131421480,"R"
116749,"2138 EAST TIFFANY COURT","GILBERT","AZ",85298,33.246095935,-111.743829807,249,"2138 EAST TIFFANY COURT, GILBERT, AZ, 85298","Match","Exact","2138 E TIFFANY CT, GILBERT, AZ, 85298",244000992,"L"
116750,"2138 GLENBURY AVENUE","LAKEWOOD","OH",44107,41.4738991930001,-81.8150538199999,250,"2138 GLENBURY AVENUE, LAKEWOOD, OH, 44107","Match","Exact","2138 GLENBURY AVE, LAKEWOOD, OH, 44107",61100071,"R"
116751,"2138 GREENLEAF BLVD","WINTER HAVEN","FL",33884,28.013703031,-81.662873615,251,"2138 GREENLEAF BLVD, WINTER HAVEN, FL, 33884","Match","Exact","2138 GREENLEAF BLVD, WINTER HAVEN, FL, 33884",104847129,"L"
116752,"2138 HATFIELD ROAD","PEARLAND","TX",77581,29.5703621540001,-95.3079248829999,252,"2138 HATFIELD ROAD, PEARLAND, TX, 77581","Match","Exact","2138 HATFIELD RD, PEARLAND, TX, 77581",650805121,"L"
116753,"2138 HUDSON ST","SAVANNAH","GA",31415,32.091716639,-81.124663837,253,"2138 HUDSON ST, SAVANNAH, GA, 31415","Match","Exact","2138 HUDSON ST, SAVANNAH, GA, 31415",6170027,"R"
116754,"2138 JAMISON STREET","SHREVEPORT","LA",71107,32.5368185310001,-93.8073365399999,254,"2138 JAMISON STREET, SHREVEPORT, LA, 71107","Match","Exact","2138 JAMISON ST, SHREVEPORT, LA, 71107",57430712,"R"
116755,"2138 MENDON ROAD SUITE 202","CUMBERLAND","RI",2864,41.947186817,-71.439209572,255,"2138 MENDON ROAD SUITE 202, CUMBERLAND, RI, 2864","Match","Exact","2138 MENDON RD, CUMBERLAND, RI, 02864",47453091,"L"
116756,"2138 N TALKINGTON DR","FLAGSTAFF","AZ",86001,35.2213389950001,-111.653562463,256,"2138 N TALKINGTON DR, FLAGSTAFF, AZ, 86001","Match","Exact","2138 N TALKINGTON DR, FLAGSTAFF, AZ, 86001",188860572,"R"
116757,"2138 NE CHERRY LANE","MADRAS","OR",97741,44.664387279,-121.090203042,257,"2138 NE CHERRY LANE, MADRAS, OR, 97741","Match","Exact","2138 NE CHERRY LN, MADRAS, OR, 97741",153250732,"R"
116758,"2138 NE HANCOCK ST","PORTLAND","OR",97212,45.5364353090001,-122.644068323,258,"2138 NE HANCOCK ST, PORTLAND, OR, 97212","Match","Exact","2138 NE HANCOCK ST, PORTLAND, OR, 97212",157506714,"R"
116759,"2138 PALIFOX DR NE","ATLANTA","GA",30307,33.7646229200001,-84.318369387,259,"2138 PALIFOX DR NE, ATLANTA, GA, 30307","Match","Exact","2138 PALIFOX DR NE, ATLANTA, GA, 30307",23366556,"L"
116760,"2138 RIVER WALK LANE","LONGMONT","CO",80504,40.1342501560001,-105.127276121,260,"2138 RIVER WALK LANE, LONGMONT, CO, 80504","Match","Exact","2138 RIVER WALK LN, LONGMONT, CO, 80504",639815900,"R"
116761,"2138 S INDIANA AVE UNIT 2007","CHICAGO","IL",60616,41.8537555030001,-87.6223324599999,261,"2138 S INDIANA AVE UNIT 2007, CHICAGO, IL, 60616","Match","Non_Exact","2138 S INDIANA AVE, CHICAGO, IL, 60616",111769998,"R"
116762,"2138 S ROGERS","MESA","AZ",85202,33.3757027080001,-111.865878512,262,"2138 S ROGERS, MESA, AZ, 85202","Match","Exact","2138 S ROGERS, MESA, AZ, 85202",128965816,"R"
116763,"2138 STATE HIGHWAY 286","CORPUS CHRISTI","TX",78415,27.6638415730001,-97.4543801889999,263,"2138 STATE HIGHWAY 286, CORPUS CHRISTI, TX, 78415","Match","Exact","2138 STATE HWY 286, CORPUS CHRISTI, TX, 78415",178518138,"R"
116764,"2138 STONE HOLLOW COURT","MARIETTA","GA",30062,34.0029413090001,-84.416669326,264,"2138 STONE HOLLOW COURT, MARIETTA, GA, 30062","Match","Exact","2138 STONE HOLLOW CT, MARIETTA, GA, 30062",17170704,"R"
116765,"2138 TSUSHIMA STREET","HERCULES","CA",94547,38.0161181330001,-122.277934677,265,"2138 TSUSHIMA STREET, HERCULES, CA, 94547","Match","Exact","2138 TSUSHIMA ST, HERCULES, CA, 94547",618377132,"L"
116766,"2138 VILLA CT","NAVARRE","FL",32566,30.4127648460001,-86.8962931409999,266,"2138 VILLA CT, NAVARRE, FL, 32566","Match","Exact","2138 VILLA CT, NAVARRE, FL, 32566",74582183,"L"
116767,"2138 WANTAGH AVENUE SUITE 101","WANTAGH","NY",11793,40.668480254,-73.5108249629999,267,"2138 WANTAGH AVENUE SUITE 101, WANTAGH, NY, 11793","Match","Exact","2138 WANTAGH AVE, WANTAGH, NY, 11793",147647520,"R"
116768,"2138 WASHINGTON ST NE","PALM BAY","FL",32905,28.0532912420001,-80.598745863,268,"2138 WASHINGTON ST NE, PALM BAY, FL, 32905","Match","Exact","2138 WASHINGTON ST NE, PALM BAY, FL, 32905",93909838,"L"
116769,"2138 WAYNESVILLE RD","BELLBROOK","OH",45305,39.629319423,-84.0713276989999,269,"2138 WAYNESVILLE RD, BELLBROOK, OH, 45305","Match","Exact","2138 WAYNESVILLE RD, BELLBROOK, OH, 45305",143417155,"L"
116770,"2138 WOODSTON DRIVE","ROUND ROCK","TX",78681,30.5327345540001,-97.708044065,270,"2138 WOODSTON DRIVE, ROUND ROCK, TX, 78681","Match","Exact","2138 WOODSTON DR, ROUND ROCK, TX, 78681",126476006,"L"
116771,"21380 RUNAROUND ROAD","SUTHERLAND","VA",23885,37.163963408,-77.553979942,271,"21380 RUNAROUND ROAD, SUTHERLAND, VA, 23885","Match","Exact","21380 RUNAROUND RD, SUTHERLAND, VA, 23885",54168810,"R"
116772,"21380 SW 194 AVE","MIAMI",NA,33187,25.566962652,-80.506707934,272,"21380 SW 194 AVE, MIAMI, , 33187","Match","Exact","21380 SW 194TH AVE, MIAMI, FL, 33187",115960082,"R"
116773,"21380 WESTHAMOTON","OAK PARK","MI",48237,NA,NA,273,"21380 WESTHAMOTON, OAK PARK, MI, 48237","No_Match",NA,NA,NA,NA
116774,"21382 ALABAMA HWY 79","SCOTTSBORO","AL",35768,NA,NA,274,"21382 ALABAMA HWY 79, SCOTTSBORO, AL, 35768","No_Match",NA,NA,NA,NA
116775,"21383 GATLIN ROAD","KENTWOOD","LA",70444,30.981977429,-90.3675636419999,275,"21383 GATLIN ROAD, KENTWOOD, LA, 70444","Match","Exact","21383 GATLIN RD, KENTWOOD, LA, 70444",75744720,"L"
116776,"21384 COUNTY ROAD 116","TYLER","TX",75703,32.1705703150001,-95.253453076,276,"21384 COUNTY ROAD 116, TYLER, TX, 75703","Match","Exact","21384 CO RD 116, TYLER, TX, 75703",141275239,"L"
116777,"21385 PARKVIEW TERRACE","WEST LINN","OR",97068,45.369957033,-122.635397534,277,"21385 PARKVIEW TERRACE, WEST LINN, OR, 97068","Match","Exact","21385 PARKVIEW TER, WEST LINN, OR, 97068",157944205,"L"
116778,"2139 ALEX HARVIN HIGHWAY","MANNING","SC",29102,NA,NA,278,"2139 ALEX HARVIN HIGHWAY, MANNING, SC, 29102","Tie",NA,NA,NA,NA
116779,"2139 BENEDICT RD","JACKSONVILLE","FL",32209,30.3776013880001,-81.69661107,279,"2139 BENEDICT RD, JACKSONVILLE, FL, 32209","Match","Exact","2139 BENEDICT RD, JACKSONVILLE, FL, 32209",83892065,"R"
116780,"2139 BENEDICT ROAD","JACKSONVILLE","FL",32209,30.3776013880001,-81.69661107,280,"2139 BENEDICT ROAD, JACKSONVILLE, FL, 32209","Match","Exact","2139 BENEDICT RD, JACKSONVILLE, FL, 32209",83892065,"R"
116781,"2139 BENNETT AVENUE","MEMPHIS","TN",38114,35.1055196980001,-89.991269501,281,"2139 BENNETT AVENUE, MEMPHIS, TN, 38114","Match","Exact","2139 BENNETT AVE, MEMPHIS, TN, 38114",72917341,"R"
116782,"2139 BROAD STREET","CRANSTON","RI",2905,41.7668788180001,-71.3913874,282,"2139 BROAD STREET, CRANSTON, RI, 2905","Match","Exact","2139 BROAD ST, CRANSTON, RI, 02905",47472220,"R"
116783,"2139 CEDAR GROVE TRAIL","EAGAN","MN",55122,44.814120959,-93.211715602,283,"2139 CEDAR GROVE TRAIL, EAGAN, MN, 55122","Match","Exact","2139 CEDAR GROVE TRL, EAGAN, MN, 55122",642571829,"R"
116784,"2139 CIMARRON HILL DR","HENDERSON","NV",89074,36.0430522300001,-115.077845501,284,"2139 CIMARRON HILL DR, HENDERSON, NV, 89074","Match","Exact","2139 CIMARRON HILL DR, HENDERSON, NV, 89074",201898901,"R"
116785,"2139 DEFENSE HIGHWAY SUITE 7","CROFTON","MD",21114,38.992008845,-76.697404411,285,"2139 DEFENSE HIGHWAY SUITE 7, CROFTON, MD, 21114","Match","Exact","2139 DEFENSE HWY, CROFTON, MD, 21114",647392947,"L"
116786,"2139 GARNET CIRCLE","VALLEJO","CA",94591,38.128469049,-122.209568632,286,"2139 GARNET CIRCLE, VALLEJO, CA, 94591","Match","Exact","2139 GARNET CIR, VALLEJO, CA, 94591",192559427,"L"
116787,"2139 HOLLY LANE","SOLVANG","CA",93463,34.603904131,-120.123646171,287,"2139 HOLLY LANE, SOLVANG, CA, 93463","Match","Exact","2139 HOLLY LN, SOLVANG, CA, 93463",645531163,"R"
116788,"2139 MARTIN LUTHER KING JR BLVD","AUGUSTA","GA",30901,33.451037544,-81.9986098099999,288,"2139 MARTIN LUTHER KING JR BLVD, AUGUSTA, GA, 30901","Match","Exact","2139 MARTIN LUTHER KING JR BLVD, AUGUSTA, GA, 30901",55639154,"R"
116789,"2139 N COBB PKWY","KENNESAW","GA",30152,34.0058530060001,-84.604448082,289,"2139 N COBB PKWY, KENNESAW, GA, 30152","Match","Non_Exact","2139 COBB PKWY N, KENNESAW, GA, 30152",649156139,"L"
116790,"2139 N EDGEWOOD RD","EAGLE","ID",83616,43.7156736000001,-116.333972012,290,"2139 N EDGEWOOD RD, EAGLE, ID, 83616","Match","Exact","2139 EDGEWOOD RD, EAGLE, ID, 83616",117973777,"R"
116791,"2139 RIDGEWOOD WAY","BOUNTIFUL","UT",84010,40.8663222770001,-111.850510841,291,"2139 RIDGEWOOD WAY, BOUNTIFUL, UT, 84010","Match","Exact","2139 RIDGEWOOD WAY, BOUNTIFUL, UT, 84010",229360204,"L"
116792,"2139 RIGGS AVE","SACRAMENTO","CA",95835,38.665124554,-121.505907598,292,"2139 RIGGS AVE, SACRAMENTO, CA, 95835","Match","Exact","2139 RIGGS AVE, SACRAMENTO, CA, 95835",133408078,"L"
116793,"2139 RIM ROCK DRIVE","KELLER","TX",76248,32.892858425,-97.2419798769999,293,"2139 RIM ROCK DRIVE, KELLER, TX, 76248","Match","Exact","2139 RIM ROCK DR, KELLER, TX, 76248",102100514,"R"
116794,"2139 ROSELAKE CIRCLE","COTTLEVILLE","MO",63376,38.7581843250001,-90.6567029189999,294,"2139 ROSELAKE CIRCLE, COTTLEVILLE, MO, 63376","Match","Exact","2139 ROSELAKE CIR, COTTLEVILLE, MO, 63376",605588864,"R"
116795,"2139 S 8TH ST","PHILADELPHIA","PA",19148,39.922154818,-75.159922395,295,"2139 S 8TH ST, PHILADELPHIA, PA, 19148","Match","Exact","2139 S 8TH ST, PHILADELPHIA, PA, 19148",131436546,"L"
116796,"2139 S ALBANY AVE APT 2F","CHICAGO","IL",60623,41.852302407,-87.702827223,296,"2139 S ALBANY AVE APT 2F, CHICAGO, IL, 60623","Match","Non_Exact","2139 S ALBANY AVE, CHICAGO, IL, 60623",605095347,"L"
116797,"2139 TAPO STREET UNIT 2","SIMI VALLEY","CA",93063,34.274125091,-118.708946906,297,"2139 TAPO STREET UNIT 2, SIMI VALLEY, CA, 93063","Match","Exact","2139 TAPO ST, SIMI VALLEY, CA, 93063",109979573,"L"
116798,"2139 TEXAS AVE","GRAND JUNCTION","CO",81501,39.081890646,-108.540211696,298,"2139 TEXAS AVE, GRAND JUNCTION, CO, 81501","Match","Exact","2139 TEXAS AVE, GRAND JCT, CO, 81501",122433782,"R"
116799,"2139 W 71ST ST","CHICAGO","IL",60636,41.764763185,-87.677464892,299,"2139 W 71ST ST, CHICAGO, IL, 60636","Match","Exact","2139 W 71ST ST, CHICAGO, IL, 60636",111820571,"L"
116800,"2139 W ADAMS STREET     UNIT 2E","CHICAGO","IL",60612,41.8786707130001,-87.6805367219999,300,"2139 W ADAMS STREET     UNIT 2E, CHICAGO, IL, 60612","Match","Non_Exact","2139 W ADAMS ST, CHICAGO, IL, 60612",605089706,"L"
116801,"2139 WASHINGTON AVE STE 1","BRONX","NY",10457,40.8526711050001,-73.894888766,301,"2139 WASHINGTON AVE STE 1, BRONX, NY, 10457","Match","Exact","2139 WASHINGTON AVE, BRONX, NY, 10457",80301434,"L"
116802,"2139 YELLOWSTONE AVE","TRACY","CA",95377,37.736760153,-121.455547891,302,"2139 YELLOWSTONE AVE, TRACY, CA, 95377","Match","Exact","2139 YELLOWSTONE AVE, TRACY, CA, 95377",133918654,"L"
116803,"21392 KALYNN DRIVE","WEST LAFAYETTE","OH",43845,40.2609860740001,-81.75319763,303,"21392 KALYNN DRIVE, WEST LAFAYETTE, OH, 43845","Match","Exact","21392 KALYNN DR, W LAFAYETTE, OH, 43845",624733092,"R"
116804,"21392 TOWN LAKES DR APT 1022","BOCA RATON","FL",33486,26.3587193340001,-80.130296387,304,"21392 TOWN LAKES DR APT 1022, BOCA RATON, FL, 33486","Match","Exact","21392 TOWN LAKES DR, BOCA RATON, FL, 33486",648410059,"R"
116805,"21395 19 MILE RD","BIG RAPIDS","MI",49307,43.7427643440001,-85.5092533599999,305,"21395 19 MILE RD, BIG RAPIDS, MI, 49307","Match","Exact","21395 19 MILE RD, BIG RAPIDS, MI, 49307",110514679,"L"
116806,"213A FORREST ST","CONSHOHOCKEN","PA",19428,40.075222598,-75.3061043559999,306,"213A FORREST ST, CONSHOHOCKEN, PA, 19428","Match","Exact","213 FORREST ST, CONSHOHOCKEN, PA, 19428",605656737,"R"
116807,"214 10TH STREET","WEST EASTON","PA",18042,40.68304205,-75.237038022,307,"214 10TH STREET, WEST EASTON, PA, 18042","Match","Exact","214 10TH ST, WEST EASTON, PA, 18042",136882531,"L"
116808,"214 198TH PL SW","BOTHELL","WA",98012,47.8178005030001,-122.235701673,308,"214 198TH PL SW, BOTHELL, WA, 98012","Match","Exact","214 198TH PL SW, BOTHELL, WA, 98012",608925973,"L"
116809,"214 1ST ST NE","NORA SPRINGS","IA",50458,43.1436397300001,-93.002842822,309,"214 1ST ST NE, NORA SPRINGS, IA, 50458","Match","Exact","214 1ST ST NE, NORA SPRINGS, IA, 50458",7338040,"R"
116810,"214 2ND ST NE","WATERTOWN","SD",57201,44.9039357,-97.1094072829999,310,"214 2ND ST NE, WATERTOWN, SD, 57201","Match","Exact","214 2ND ST NE, WATERTOWN, SD, 57201",200729874,"R"
116811,"214 2ND STREET","BROKAW","WI",54417,45.0278393300001,-89.653031579,311,"214 2ND STREET, BROKAW, WI, 54417","Match","Exact","214 2ND ST, BROKAW, WI, 54417",117135271,"R"
116812,"214 38TH AVENUE NORTH","NASHVILLE","TN",37209,36.1431665540001,-86.830038456,312,"214 38TH AVENUE NORTH, NASHVILLE, TN, 37209","Match","Exact","214 38TH AVE N, NASHVILLE, TN, 37209",97189596,"R"
116813,"214 47TH ST","UNION CITY","NJ",7087,40.7795402400001,-74.019081946,313,"214 47TH ST, UNION CITY, NJ, 7087","Match","Exact","214 47TH ST, UNION CITY, NJ, 07087",59599537,"R"
116814,"214 4TH AVENUE NW","CUT BANK","MT",59427,48.642022948,-112.332414603,314,"214 4TH AVENUE NW, CUT BANK, MT, 59427","Match","Exact","214 4TH AVE NW, CUT BANK, MT, 59427",204001720,"L"
116815,"214 4TH STREET","JERSEY CITY","NJ",7302,40.723864473,-74.043134848,315,"214 4TH STREET, JERSEY CITY, NJ, 7302","Match","Exact","214 4TH ST, JERSEY CITY, NJ, 07302",59606176,"R"
116816,"214 5TH STREET","SPENCER","NC",28159,35.689582204,-80.436079514,316,"214 5TH STREET, SPENCER, NC, 28159","Match","Exact","214 5TH ST, SPENCER, NC, 28159",25268518,"R"
116817,"214 7TH AVE SW","ABERDEEN","SD",57401,45.458089871,-98.491202377,317,"214 7TH AVE SW, ABERDEEN, SD, 57401","Match","Exact","214 7TH AVE SW, ABERDEEN, SD, 57401",200795783,"R"
116818,"214 7TH ST","COALDALE","PA",18218,40.8206980900001,-75.9124894,318,"214 7TH ST, COALDALE, PA, 18218","Match","Exact","214 7TH ST, COALDALE, PA, 18218",70955883,"L"
116819,"214 8TH AVE EAST","SPRINGFIELD","TN",37172,NA,NA,319,"214 8TH AVE EAST, SPRINGFIELD, TN, 37172","No_Match",NA,NA,NA,NA
116820,"214 8TH AVENUE SW","LARGO","FL",33770,27.909347365,-82.7902218,320,"214 8TH AVENUE SW, LARGO, FL, 33770","Match","Exact","214 8TH AVE SW, LARGO, FL, 33770",124672043,"R"
116821,"214 A 84TH STREET","VIRGINIA BEACH","VA",23451,36.9089099110001,-75.994341269,321,"214 A 84TH STREET, VIRGINIA BEACH, VA, 23451","Match","Exact","214 84TH ST, VA BCH, VA, 23451",122261844,"L"
116822,"214 A BEACON DRIVE","WINTERVILLE","NC",28590,NA,NA,322,"214 A BEACON DRIVE, WINTERVILLE, NC, 28590","No_Match",NA,NA,NA,NA
116823,"214 ALMUR LANE","WYNNEWOOD","PA",19096,40.012725951,-75.2776523699999,323,"214 ALMUR LANE, WYNNEWOOD, PA, 19096","Match","Exact","214 ALMUR LN, WYNNEWOOD, PA, 19096",135105888,"R"
116824,"214 ARDENWOOD DRIVE","LAFAYETTE","LA",70508,30.1419985740001,-92.067536519,324,"214 ARDENWOOD DRIVE, LAFAYETTE, LA, 70508","Match","Exact","214 ARDENWOOD DR, LAFAYETTE, LA, 70508",643091325,"R"
116825,"214 ARGUS DR SUITE 2","DEPEW","NY",14043,42.9218623570001,-78.691390709,325,"214 ARGUS DR SUITE 2, DEPEW, NY, 14043","Match","Exact","214 ARGUS DR, DEPEW, NY, 14043",48323024,"L"
116826,"214 ARLINGTON STREET","CHELSEA","MA",2150,42.394470864,-71.036885994,326,"214 ARLINGTON STREET, CHELSEA, MA, 2150","Match","Exact","214 ARLINGTON ST, CHELSEA, MA, 02150",85729660,"L"
116827,"214 ASPENWOOD","FORNEY","TX",75126,32.735340271,-96.469400704,327,"214 ASPENWOOD, FORNEY, TX, 75126","Match","Non_Exact","214 ASPENWOOD TRL, FORNEY, TX, 75126",614184450,"L"
116828,"214 BARTON SPRINGS RD APT 1416","AUSTIN","TX",78704,30.2589303870001,-97.747058124,328,"214 BARTON SPRINGS RD APT 1416, AUSTIN, TX, 78704","Match","Exact","214 BARTON SPRINGS RD, AUSTIN, TX, 78704",63944889,"R"
116829,"214 BARTON SPRINGS RD","AUSTIN","TX",78704,30.2589303870001,-97.747058124,329,"214 BARTON SPRINGS RD, AUSTIN, TX, 78704","Match","Exact","214 BARTON SPRINGS RD, AUSTIN, TX, 78704",63944889,"R"
116830,"214 BEACHWALK LANE","MICHIGAN CITY","IN",46360,41.73034319,-86.882833475,330,"214 BEACHWALK LANE, MICHIGAN CITY, IN, 46360","Match","Exact","214 BEACHWALK LN, MICHIGAN CITY, IN, 46360",604787861,"L"
116831,"214 BIRCH HILL LN","SOMERVILLE","TX",77879,30.3162492500001,-96.6357084969999,331,"214 BIRCH HILL LN, SOMERVILLE, TX, 77879","Match","Exact","214 BIRCH HILL LN, SOMERVILLE, TX, 77879",24817114,"R"
116832,"214 BLACKHAWK COURT","MEDIA","PA",19063,39.9155951490001,-75.4426113179999,332,"214 BLACKHAWK COURT, MEDIA, PA, 19063","Match","Non_Exact","214 BLACK HAWK CT, MEDIA, PA, 19063",648092039,"L"
116833,"214 BLAKE ST","BARABOO","WI",53913,43.462353573,-89.742365158,333,"214 BLAKE ST, BARABOO, WI, 53913","Match","Exact","214 BLAKE ST, BARABOO, WI, 53913",86550929,"L"
116834,"214 BOYETTE ST","RALEIGH","NC",27616,NA,NA,334,"214 BOYETTE ST, RALEIGH, NC, 27616","No_Match",NA,NA,NA,NA
116835,"214 BRAZILIAN AVENUE SUITE 200","PALM BEACH","FL",33480,26.704326785,-80.036930308,335,"214 BRAZILIAN AVENUE SUITE 200, PALM BEACH, FL, 33480","Match","Exact","214 BRAZILIAN AVE, PALM BEACH, FL, 33480",115279786,"L"
116836,"214 BRECKENRIDGE GLEN DRIVE","MOUNT JULIET","TN",37122,36.1420480990001,-86.52544769,336,"214 BRECKENRIDGE GLEN DRIVE, MOUNT JULIET, TN, 37122","Match","Exact","214 BRECKENRIDGE GLEN DR, MOUNT JULIET, TN, 37122",627174593,"R"
116837,"214 BREEDLOVE AVENUE","DURHAM","NC",27703,35.986912207,-78.833230669,337,"214 BREEDLOVE AVENUE, DURHAM, NC, 27703","Match","Exact","214 BREEDLOVE AVE, DURHAM, NC, 27703",71769864,"R"
116838,"214 BRIDGEFORD BLVD","RIDGELAND","MS",39157,32.408240425,-90.1005008179999,338,"214 BRIDGEFORD BLVD, RIDGELAND, MS, 39157","Match","Exact","214 BRIDGEFORD BLVD, RIDGELAND, MS, 39157",152487548,"R"
116839,"214 BURCHWOOD BAY ROAD","HOT SPRINGS","AR",71913,34.4478167020001,-93.091805928,339,"214 BURCHWOOD BAY ROAD, HOT SPRINGS, AR, 71913","Match","Exact","214 BURCHWOOD BAY RD, HOT SPRINGS, AR, 71913",22775809,"R"
116840,"214 CARRIAGE DRIVE EAST","MERIDEN","CT",6450,41.5034608660001,-72.77804536,340,"214 CARRIAGE DRIVE EAST, MERIDEN, CT, 6450","Match","Exact","214 CARRIAGE DR E, MERIDEN, CT, 06450",648733793,"R"
116841,"214 CAUDLE DR","MADISON","AL",35756,34.6072909640001,-86.737162138,341,"214 CAUDLE DR, MADISON, AL, 35756","Match","Exact","214 CAUDLE DR, MADISON, AL, 35756",650653504,"L"
116842,"214 CENTER AVE","BELLEVUE","PA",15202,40.513196695,-80.09778011,342,"214 CENTER AVE, BELLEVUE, PA, 15202","Match","Exact","214 CENTER AVE, BELLEVUE, PA, 15202",51614116,"R"
116843,"214 CENTER ST","ASHLAND","OH",44805,40.867159417,-82.314338763,343,"214 CENTER ST, ASHLAND, OH, 44805","Match","Exact","214 CENTER ST, ASHLAND, OH, 44805",30146570,"L"
116844,"214 CENTRAL AVE STE 212","DUNKIRK","NY",14048,NA,NA,344,"214 CENTRAL AVE STE 212, DUNKIRK, NY, 14048","No_Match",NA,NA,NA,NA
116845,"214 CHARING CROSS DR","MATTHEWS","NC",28105,35.120595929,-80.737394078,345,"214 CHARING CROSS DR, MATTHEWS, NC, 28105","Match","Exact","214 CHARING CROSS DR, MATTHEWS, NC, 28105",70495630,"R"
116846,"214 CHEADLE LOOP RD","SEAFORD","VA",23696,37.185020653,-76.431734282,346,"214 CHEADLE LOOP RD, SEAFORD, VA, 23696","Match","Exact","214 CHEADLE LOOP RD, SEAFORD, VA, 23696",103793486,"R"
116847,"214 CITRUS POINTE","HAINES CITY","FL",33844,28.142590355,-81.6269636229999,347,"214 CITRUS POINTE, HAINES CITY, FL, 33844","Match","Non_Exact","214 CITRUS POINTE DR, HAINES CITY, FL, 33844",652720242,"L"
116848,"214 COON ROAD","NEW IBERIA","LA",70563,30.0077145750001,-91.7464448119999,348,"214 COON ROAD, NEW IBERIA, LA, 70563","Match","Exact","214 COON RD, NEW IBERIA, LA, 70563",85370225,"L"
116849,"214 CORINTH DR","BAY ST LOUIS","MS",39520,30.3299567920001,-89.3401086489999,349,"214 CORINTH DR, BAY ST LOUIS, MS, 39520","Match","Exact","214 CORINTH DR, BAY SAINT LOUIS, MS, 39520",111136550,"L"
116850,"214 COWESETT RD","WARWICK","RI",2886,41.6853910070001,-71.461751401,350,"214 COWESETT RD, WARWICK, RI, 2886","Match","Exact","214 COWESETT RD, WARWICK, RI, 02886",159172794,"L"
116851,"214 COX STREET","CORNELIA","GA",30531,34.5153154180001,-83.5231555569999,351,"214 COX STREET, CORNELIA, GA, 30531","Match","Exact","214 COX ST, CORNELIA, GA, 30531",41711372,"R"
116852,"214 CYPRESS STREET","PARK HILLS","MO",63601,37.8623548400001,-90.522050991,352,"214 CYPRESS STREET, PARK HILLS, MO, 63601","Match","Exact","214 CYPRESS ST, PARK HILLS, MO, 63601",639637567,"L"
116853,"214 DAVIS ST N","SULPHUR SPRINGS","TX",75482,33.1384876290001,-95.602888158,353,"214 DAVIS ST N, SULPHUR SPRINGS, TX, 75482","Match","Exact","214 DAVIS ST N, SULPHUR SPRINGS, TX, 75482",42785410,"R"
116854,"214 DELGADA LANE","STANSBURY PARK","UT",84074,40.6468223160001,-112.299885906,354,"214 DELGADA LANE, STANSBURY PARK, UT, 84074","Match","Non_Exact","214 E DELGADA LN, STANSBURY PARK, UT, 84074",617534103,"R"
116855,"214 DELMONT AVE","ARDMORE","PA",19003,39.999825301,-75.29369866,355,"214 DELMONT AVE, ARDMORE, PA, 19003","Match","Exact","214 DELMONT AVE, ARDMORE, PA, 19003",135087165,"R"
116856,"214 DOVE CREEK LN","DANVILLE","CA",94506,37.7977131590001,-121.910876153,356,"214 DOVE CREEK LN, DANVILLE, CA, 94506","Match","Exact","214 DOVE CREEK LN, DANVILLE, CA, 94506",192100867,"L"
116857,"214 DUNELLEN AVE","DUNELLEN","NJ",8812,40.5947235140001,-74.462648697,357,"214 DUNELLEN AVE, DUNELLEN, NJ, 8812","Match","Exact","214 DUNELLEN AVE, DUNELLEN, NJ, 08812",60259472,"R"
116858,"214 E 116TH STREET","LOS ANGELES","CA",90061,33.9291786630001,-118.271229512,358,"214 E 116TH STREET, LOS ANGELES, CA, 90061","Match","Exact","214 E 116TH ST, LOS ANGELES, CA, 90061",141673129,"R"
116859,"214 E 30TH ST","EL DORADO","AR",71730,33.246502949,-92.662481006,359,"214 E 30TH ST, EL DORADO, AR, 71730","Match","Exact","214 E 30TH ST, EL DORADO, AR, 71730",610669040,"R"
116860,"214 E 9TH STREET","GREGORY","SD",57533,43.235523157,-99.428955123,360,"214 E 9TH STREET, GREGORY, SD, 57533","Match","Exact","214 E 9TH ST, GREGORY, SD, 57533",174554964,"R"
116861,"214 E 9TH STREET","JACKSONVILLE","FL",32206,30.3467874350001,-81.6504124049999,361,"214 E 9TH STREET, JACKSONVILLE, FL, 32206","Match","Exact","214 E 9TH ST, JACKSONVILLE, FL, 32206",83899336,"R"
116862,"214 E FOURTH","HENRIETTA","TX",76365,NA,NA,362,"214 E FOURTH, HENRIETTA, TX, 76365","No_Match",NA,NA,NA,NA
116863,"214 E HORTON STREET","ZEBULON","NC",27957,35.823156613,-78.31093806,363,"214 E HORTON STREET, ZEBULON, NC, 27957","Match","Non_Exact","214 E HORTON ST, ZEBULON, NC, 27597",72487854,"R"
116864,"214 E HWY 67 APT 36","KEENE","TX",76059,NA,NA,364,"214 E HWY 67 APT 36, KEENE, TX, 76059","No_Match",NA,NA,NA,NA
116865,"214 E LOMITA AVE UNIT D","GLENDALE","CA",91205,34.140768253,-118.253583803,365,"214 E LOMITA AVE UNIT D, GLENDALE, CA, 91205","Match","Non_Exact","214 E LOMITA AVE, GLENDALE, CA, 91205",142730736,"R"
116866,"214 E MADISON ST","WASHINGTON","IA",52353,41.2964490140001,-91.690258339,366,"214 E MADISON ST, WASHINGTON, IA, 52353","Match","Exact","214 E MADISON ST, WASHINGTON, IA, 52353",84182495,"R"
116867,"214 E MAIN ST","FESTUS","MO",63028,NA,NA,367,"214 E MAIN ST, FESTUS, MO, 63028","Tie",NA,NA,NA,NA
116868,"214 E MAIN ST","GALESBURG","IL",61401,NA,NA,368,"214 E MAIN ST, GALESBURG, IL, 61401","Tie",NA,NA,NA,NA
116869,"214 E OHIO ST","KENTON","OH",43326,40.645977427,-83.606546457,369,"214 E OHIO ST, KENTON, OH, 43326","Match","Exact","214 E OHIO ST, KENTON, OH, 43326",36523458,"L"
116870,"214 E REDLANDS BLVD","REDLANDS","CA",92373,34.0573004870001,-117.180136681,370,"214 E REDLANDS BLVD, REDLANDS, CA, 92373","Match","Exact","214 E REDLANDS BLVD, REDLANDS, CA, 92373",144664395,"R"
116871,"214 E ROOSEVELT STREET","PHOENIX","AZ",85004,33.4586931580001,-112.070998461,371,"214 E ROOSEVELT STREET, PHOENIX, AZ, 85004","Match","Exact","214 E ROOSEVELT ST, PHOENIX, AZ, 85004",243920941,"L"
116872,"214 E ST ANDREWS LANE","DEERFIELD","IL",60015,42.157294188,-87.825368554,372,"214 E ST ANDREWS LANE, DEERFIELD, IL, 60015","Match","Exact","214 E SAINT ANDREWS LN, DEERFIELD, IL, 60015",119651492,"R"
116873,"214 EAST BLACKHAWK AVE","PRAIRIE DU CHIEN","WI",53821,43.0517454120001,-91.1448117209999,373,"214 EAST BLACKHAWK AVE, PRAIRIE DU CHIEN, WI, 53821","Match","Exact","214 E BLACKHAWK AVE, PRAIRIE DU CHIEN, WI, 53821",47968719,"R"
116874,"214 EAST MAIN STREET SUITE 1","WORTHINGTON","PA",16262,40.836804563,-79.62666526,374,"214 EAST MAIN STREET SUITE 1, WORTHINGTON, PA, 16262","Match","Non_Exact","214 MAIN ST, WORTHINGTON, PA, 16262",632939715,"R"
116875,"214 EAST MAPLE STREET","RIVER FALLS","MI",54022,NA,NA,375,"214 EAST MAPLE STREET, RIVER FALLS, MI, 54022","No_Match",NA,NA,NA,NA
116876,"214 ELLIS DRIVE","LITTLE ROCK","AR",72205,34.755411628,-92.3845698969999,376,"214 ELLIS DRIVE, LITTLE ROCK, AR, 72205","Match","Exact","214 ELLIS DR, LITTLE ROCK, AR, 72205",83501153,"L"
116877,"214 EMMONS ROAD","SOUTHAMPTON","NJ",8088,39.936758223,-74.713303745,377,"214 EMMONS ROAD, SOUTHAMPTON, NJ, 8088","Match","Exact","214 EMMONS RD, SOUTHAMPTON, NJ, 08088",134041592,"R"
116878,"214 EMORY PLACE","ORLANDO","FL",32804,28.5721561920001,-81.3816121849999,378,"214 EMORY PLACE, ORLANDO, FL, 32804","Match","Exact","214 EMORY PL, ORLANDO, FL, 32804",94277346,"L"
116879,"214 ERIE AVE","FAIRBORN","OH",45324,39.815935482,-84.01061184,379,"214 ERIE AVE, FAIRBORN, OH, 45324","Match","Exact","214 ERIE AVE, FAIRBORN, OH, 45324",143385164,"R"
116880,"214 EVERGREEN FOREST BLVD","AVENEL","NJ",7001,NA,NA,380,"214 EVERGREEN FOREST BLVD, AVENEL, NJ, 7001","No_Match",NA,NA,NA,NA
116881,"214 FAYEMARSH ROAD","WILMINGTON","NC",28412,34.1301579020001,-77.913633472,381,"214 FAYEMARSH ROAD, WILMINGTON, NC, 28412","Match","Exact","214 FAYEMARSH RD, WILMINGTON, NC, 28412",614165172,"R"
116882,"214 FERN HOLLOW LANE","BROOKVILLE","PA",15825,41.182094976,-79.117966318,382,"214 FERN HOLLOW LANE, BROOKVILLE, PA, 15825","Match","Exact","214 FERN HOLLOW LN, BROOKVILLE, PA, 15825",66445215,"R"
116883,"214 FRAZIER STREET","MINGO JUNCTION","OH",43938,40.321170567,-80.613031927,383,"214 FRAZIER STREET, MINGO JUNCTION, OH, 43938","Match","Exact","214 FRAZIER ST, MINGO JCT, OH, 43938",648884002,"R"
116884,"214 GIVENS BRANCH TRAIL","NEWPORT","VA",24128,37.369333678,-80.343752921,384,"214 GIVENS BRANCH TRAIL, NEWPORT, VA, 24128","Match","Exact","214 GIVENS BRANCH TRL, NEWPORT, VA, 24128",62884421,"R"
116885,"214 GLENFOREST CT","LEXINGTON","SC",29072,33.921178196,-81.3097581759999,385,"214 GLENFOREST CT, LEXINGTON, SC, 29072","Match","Exact","214 GLENFOREST CT, LEXINGTON, SC, 29072",640858047,"R"
116886,"214 GLENWOOD CIRCLE","MANCHESTER","MI",48158,42.1561522380001,-84.0325574029999,386,"214 GLENWOOD CIRCLE, MANCHESTER, MI, 48158","Match","Exact","214 GLENWOOD CIR, MANCHESTER, MI, 48158",26056766,"R"
116887,"214 GOLF VIEW DR","AUBURNDALE","FL",33823,28.0556346990001,-81.845012175,387,"214 GOLF VIEW DR, AUBURNDALE, FL, 33823","Match","Exact","214 GOLF VIEW DR, AUBURNDALE, FL, 33823",104914823,"R"
116888,"214 GREENTREE PARKWAY","LIBERTYVILLE","IL",60048,42.2641573600001,-87.952412377,388,"214 GREENTREE PARKWAY, LIBERTYVILLE, IL, 60048","Match","Exact","214 GREENTREE PKWY, LIBERTYVILLE, IL, 60048",119733325,"L"
116889,"214 GREENWOOD ST","WESTWOOD","CA",96137,40.3005340170001,-121.00815437,389,"214 GREENWOOD ST, WESTWOOD, CA, 96137","Match","Exact","214 GREENWOOD ST, WESTWOOD, CA, 96137",126918862,"R"
116890,"214 HAMILTON ROAD","GLASSBORO","NJ",8028,39.709260021,-75.124827554,390,"214 HAMILTON ROAD, GLASSBORO, NJ, 8028","Match","Exact","214 HAMILTON RD, GLASSBORO, NJ, 08028",134588420,"L"
116891,"214 HARLEQUIN DR","NEW CASTLE","DE",19720,39.6428819020001,-75.626930251,391,"214 HARLEQUIN DR, NEW CASTLE, DE, 19720","Match","Exact","214 HARLEQUIN DR, NEW CASTLE, DE, 19720",647595865,"R"
116892,"214 HARRISON ROAD","CHESHIRE","CT",6410,41.461984095,-72.9144950689999,392,"214 HARRISON ROAD, CHESHIRE, CT, 6410","Match","Exact","214 HARRISON RD, CHESHIRE, CT, 06410",3712664,"R"
116893,"214 HARTWOOD CT","SUGAR LAND","TX",77479,29.597090356,-95.6845786809999,393,"214 HARTWOOD CT, SUGAR LAND, TX, 77479","Match","Exact","214 HARTWOOD CT, SUGAR LAND, TX, 77479",78289005,"L"
116894,"214 HAYNES ST","DAYTONA BEACH","FL",32114,29.205166508,-81.029834081,394,"214 HAYNES ST, DAYTONA BEACH, FL, 32114","Match","Exact","214 HAYNES ST, DAYTONA BEACH, FL, 32114",94524815,"R"
116895,"214 HIGH AVE EAST","OSKALOOSA","IA",52577,41.295350139,-92.643169734,395,"214 HIGH AVE EAST, OSKALOOSA, IA, 52577","Match","Exact","214 HIGH AVE E, OSKALOOSA, IA, 52577",638306255,"R"
116896,"214 HIGHLAND PARK DR","BONAIRE","GA",31005,32.5357412970001,-83.6364775929999,396,"214 HIGHLAND PARK DR, BONAIRE, GA, 31005","Match","Exact","214 HIGHLAND PARK DR, BONAIRE, GA, 31005",624900700,"R"
116897,"214 HOLLAND AVE","ARDMORE","PA",19003,40.0083447480001,-75.3005370659999,397,"214 HOLLAND AVE, ARDMORE, PA, 19003","Match","Exact","214 HOLLAND AVE, ARDMORE, PA, 19003",616038320,"R"
116898,"214 HOMEWOOD DRIVE","BECKLEY","WV",25801,37.7889229190001,-81.2069788219999,398,"214 HOMEWOOD DRIVE, BECKLEY, WV, 25801","Match","Exact","214 HOMEWOOD DR, BECKLEY, WV, 25801",78814183,"R"
116899,"214 HORNE ST","DUNCANVILLE","TX",75116,NA,NA,399,"214 HORNE ST, DUNCANVILLE, TX, 75116","Tie",NA,NA,NA,NA
116900,"214 HORNING ROAD","BETHEL PARK","PA",15102,40.3451460640001,-80.023896626,400,"214 HORNING ROAD, BETHEL PARK, PA, 15102","Match","Exact","214 HORNING RD, BETHEL PARK, PA, 15102",51657782,"R"
116901,"214 ICEY ST SW","ORTING","WA",98360,47.0902335690001,-122.201777625,401,"214 ICEY ST SW, ORTING, WA, 98360","Match","Exact","214 ICEY ST SW, ORTING, WA, 98360",630334971,"R"
116902,"214 IRONBRIDGE PL","EULESS","TX",76040,32.830073124,-97.0791217,402,"214 IRONBRIDGE PL, EULESS, TX, 76040","Match","Exact","214 IRONBRIDGE PL, EULESS, TX, 76040",101873182,"R"
116903,"214 JEFFERSON ROAD","HOLTS SUMMIT","MO",65043,38.651889382,-92.105016284,403,"214 JEFFERSON ROAD, HOLTS SUMMIT, MO, 65043","Match","Exact","214 JEFFERSON RD, HOLTS SUMMIT, MO, 65043",635580546,"L"
116904,"214 KARINS BLVD","TOWNSEND","DE",19734,39.4035044290001,-75.69699137,404,"214 KARINS BLVD, TOWNSEND, DE, 19734","Match","Exact","214 KARINS BLVD, TOWNSEND, DE, 19734",187304565,"L"
116905,"214 LILY STREET APT 2","PATERSON","NJ",7522,40.9321193430001,-74.177827909,405,"214 LILY STREET APT 2, PATERSON, NJ, 7522","Match","Exact","214 LILY ST, PATERSON, NJ, 07522",65262681,"R"
116906,"214 LOMBARDY CIRCLE","LEWISTOWN","PA",17044,40.5885253920001,-77.559483007,406,"214 LOMBARDY CIRCLE, LEWISTOWN, PA, 17044","Match","Exact","214 LOMBARDY CIR, LEWISTOWN, PA, 17044",612950758,"R"
116907,"214 MAGNAVIEW DRIVE","MCDONOUGH","GA",30253,33.411598504,-84.175816094,407,"214 MAGNAVIEW DRIVE, MCDONOUGH, GA, 30253","Match","Exact","214 MAGNAVIEW DR, MCDONOUGH, GA, 30253",619923774,"L"
116908,"214 MAIN STREET 170","EL SEGUNDO","CA",90245,33.9180844810001,-118.415914429,408,"214 MAIN STREET 170, EL SEGUNDO, CA, 90245","Match","Exact","214 MAIN ST, EL SEGUNDO, CA, 90245",141580127,"R"
116909,"214 MAIN STREET 255","EL SEGUNDO","CA",90245,33.9180844810001,-118.415914429,409,"214 MAIN STREET 255, EL SEGUNDO, CA, 90245","Match","Exact","214 MAIN ST, EL SEGUNDO, CA, 90245",141580127,"R"
116910,"214 MAIN STREET SUITE 1","VERGENNES","VT",5491,44.1677920980001,-73.252262102,410,"214 MAIN STREET SUITE 1, VERGENNES, VT, 5491","Match","Exact","214 MAIN ST, VERGENNES, VT, 05491",136443090,"L"
116911,"214 MAIN STREET SUITE 487","EL SEGUNDO","CA",90245,33.9180844810001,-118.415914429,411,"214 MAIN STREET SUITE 487, EL SEGUNDO, CA, 90245","Match","Exact","214 MAIN ST, EL SEGUNDO, CA, 90245",141580127,"R"
116912,"214 MAIN STREET","NOONAN","ND",58765,NA,NA,412,"214 MAIN STREET, NOONAN, ND, 58765","No_Match",NA,NA,NA,NA
116913,"214 MANCHESTER AVENUE","JACKSON","MS",39209,32.3307641980001,-90.249443135,413,"214 MANCHESTER AVENUE, JACKSON, MS, 39209","Match","Exact","214 MANCHESTER AVE, JACKSON, MS, 39209",65365353,"R"
116914,"214 MARTIN LUTHER KING JR DR","MONROE","LA",71201,32.5206297930001,-92.080392543,414,"214 MARTIN LUTHER KING JR DR, MONROE, LA, 71201","Match","Exact","214 MARTIN LUTHER KING JR DR, MONROE, LA, 71201",161086683,"R"
116915,"214 MEADES CT","LEXINGTON","SC",29073,33.894056591,-81.2414968369999,415,"214 MEADES CT, LEXINGTON, SC, 29073","Match","Exact","214 MEADES CT, LEXINGTON, SC, 29073",633777704,"L"
116916,"214 MILFORD AVENUE","NEW MILFORD","NJ",7646,40.9428007390001,-74.019430514,416,"214 MILFORD AVENUE, NEW MILFORD, NJ, 7646","Match","Exact","214 MILFORD AVE, NEW MILFORD, NJ, 07646",64387005,"R"
116917,"214 MILWAUKEE AVENUE E","FORT ATKINSON","WI",53538,42.92686257,-88.834242027,417,"214 MILWAUKEE AVENUE E, FORT ATKINSON, WI, 53538","Match","Exact","214 MILWAUKEE AVE E, FORT ATKINSON, WI, 53538",53216384,"L"
116918,"214 N 11TH STREET","BOZEMAN","MT",59715,45.6814410790001,-111.051412363,418,"214 N 11TH STREET, BOZEMAN, MT, 59715","Match","Non_Exact","214 N 11TH AVE, BOZEMAN, MT, 59715",163549937,"R"
116919,"214 N 11TH","SENECA","KS",66538,39.840079131,-96.070778945,419,"214 N 11TH, SENECA, KS, 66538","Match","Non_Exact","214 N 11TH ST, SENECA, KS, 66538",10197025,"L"
116920,"214 N 4TH ST STE 4456","IRONTON","OH",45638,NA,NA,420,"214 N 4TH ST STE 4456, IRONTON, OH, 45638","Tie",NA,NA,NA,NA
116921,"214 N 5TH AVENUE","ANN ARBOR","MI",48104,42.282469442,-83.745923921,421,"214 N 5TH AVENUE, ANN ARBOR, MI, 48104","Match","Exact","214 N 5TH AVE, ANN ARBOR, MI, 48104",26014537,"R"
116922,"214 N CHERRY ALLEY","ELIZABETHTOWN","PA",17022,40.1547703410001,-76.607182409,422,"214 N CHERRY ALLEY, ELIZABETHTOWN, PA, 17022","Match","Exact","214 N CHERRY ALY, ELIZABETHTOWN, PA, 17022",179686037,"R"
116923,"214 N CLAY STREET SUITE 210","SAINT LOUIS","MO",63122,NA,NA,423,"214 N CLAY STREET SUITE 210, SAINT LOUIS, MO, 63122","No_Match",NA,NA,NA,NA
116924,"214 N COLONIAL DRIVE","HAGERSTOWN","MD",21742,39.631141459,-77.6944543929999,424,"214 N COLONIAL DRIVE, HAGERSTOWN, MD, 21742","Match","Exact","214 N COLONIAL DR, HAGERSTOWN, MD, 21742",60808338,"L"
116925,"214 N CORNERSTONE WAY","STAR VALLEY","AZ",85541,NA,NA,425,"214 N CORNERSTONE WAY, STAR VALLEY, AZ, 85541","No_Match",NA,NA,NA,NA
116926,"214 N DADE 81","LOCKWOOD","MO",65682,37.420262892,-93.933783647,426,"214 N DADE 81, LOCKWOOD, MO, 65682","Match","Exact","214 N DADE 81, LOCKWOOD, MO, 65682",76645080,"R"
116927,"214 N HAZELCREST CIRCLE","THE WOODLANDS","TX",77382,30.179641788,-95.548601339,427,"214 N HAZELCREST CIRCLE, THE WOODLANDS, TX, 77382","Match","Exact","214 N HAZELCREST CIR, THE WOODLANDS, TX, 77382",79340338,"R"
116928,"214 N PARK ST","FAIRMONT","MN",56031,NA,NA,428,"214 N PARK ST, FAIRMONT, MN, 56031","Tie",NA,NA,NA,NA
116929,"214 N PLEASANT DR","GLENWOOD","IL",60425,41.5502192280001,-87.629871932,429,"214 N PLEASANT DR, GLENWOOD, IL, 60425","Match","Exact","214 N PLEASANT DR, GLENWOOD, IL, 60425",111712925,"L"
116930,"214 N ROLLAND ROAD","WEIDMAN","MI",48893,43.6403779020001,-85.0286510719999,430,"214 N ROLLAND ROAD, WEIDMAN, MI, 48893","Match","Non_Exact","214 N ROLAND RD, WEIDMAN, MI, 48893",651723638,"R"
116931,"214 N ROYAL ST","JACKSON","TN",38301,35.615588641,-88.81334048,431,"214 N ROYAL ST, JACKSON, TN, 38301","Match","Exact","214 N ROYAL ST, JACKSON, TN, 38301",21322129,"R"
116932,"214 N SHERMAN ST SUITE 3","MEXIA","TX",76667,NA,NA,432,"214 N SHERMAN ST SUITE 3, MEXIA, TX, 76667","Tie",NA,NA,NA,NA
116933,"214 N SHERMAN ST","MEXIA","TX",76667,31.6812852040001,-96.483784949,433,"214 N SHERMAN ST, MEXIA, TX, 76667","Match","Exact","214 N SHERMAN ST, MEXIA, TX, 76667",25049266,"R"
116934,"214 NORTH HALE STREET","WHEATON","IL",60187,41.866251505,-88.1082273069999,434,"214 NORTH HALE STREET, WHEATON, IL, 60187","Match","Exact","214 N HALE ST, WHEATON, IL, 60187",112529279,"L"
116935,"214 NORTH LUCIA AVENUE - A","REDONDO BEACH","CA",90277,33.8447351400001,-118.378760119,435,"214 NORTH LUCIA AVENUE - A, REDONDO BEACH, CA, 90277","Match","Exact","214 N LUCIA AVE, REDONDO BEACH, CA, 90277",141583903,"R"
116936,"214 NORTH MAIN STREET","GREENEVILLE","TN",37745,36.1647466840001,-82.829999731,436,"214 NORTH MAIN STREET, GREENEVILLE, TN, 37745","Match","Exact","214 N MAIN ST, GREENEVILLE, TN, 37745",127753854,"R"
116937,"214 NORTH NINTH STREET","CAMBRIDGE","OH",43725,40.0266512000001,-81.588164924,437,"214 NORTH NINTH STREET, CAMBRIDGE, OH, 43725","Match","Exact","214 N 9TH ST, CAMBRIDGE, OH, 43725",612397409,"R"
116938,"214 NORTH SCOTT STREET","SIKESTON","MO",63801,36.8774011080001,-89.59118155,438,"214 NORTH SCOTT STREET, SIKESTON, MO, 63801","Match","Exact","214 N SCOTT ST, SIKESTON, MO, 63801",38939988,"R"
116939,"214 NORTH WHITCOMB ST","FORT COLLINS","CO",80521,40.5895812430001,-105.086050013,439,"214 NORTH WHITCOMB ST, FORT COLLINS, CO, 80521","Match","Exact","214 N WHITCOMB ST, FORT COLLINS, CO, 80521",188570953,"R"
116940,"214 NORTH WHITCOMB STREET","FORT COLLINS","CO",80521,40.5895812430001,-105.086050013,440,"214 NORTH WHITCOMB STREET, FORT COLLINS, CO, 80521","Match","Exact","214 N WHITCOMB ST, FORT COLLINS, CO, 80521",188570953,"R"
116941,"214 NORTHAMPTON RD","SENECA","SC",29672,34.7056396250001,-82.956574872,441,"214 NORTHAMPTON RD, SENECA, SC, 29672","Match","Exact","214 NORTHAMPTON RD, SENECA, SC, 29672",640556549,"R"
116942,"214 NORTHRIDGE LANE","LONGVIEW","WA",98632,46.1944426490001,-123.029074679,442,"214 NORTHRIDGE LANE, LONGVIEW, WA, 98632","Match","Non_Exact","214 NORTHRIDGE DR, LONGVIEW, WA, 98632",184516219,"R"
116943,"214 NORTHRIDGE","LONGVIEW","WA",98632,46.1944426490001,-123.029074679,443,"214 NORTHRIDGE, LONGVIEW, WA, 98632","Match","Non_Exact","214 NORTHRIDGE DR, LONGVIEW, WA, 98632",184516219,"R"
116944,"214 NORWOOD AVE","BROOKLYN","NY",11208,40.6812777550001,-73.8790309899999,444,"214 NORWOOD AVE, BROOKLYN, NY, 11208","Match","Exact","214 NORWOOD AVE, BROOKLYN, NY, 11208",59085467,"R"
116945,"214 NW 15TH STREET","MCMINNVILLE","OR",97128,45.218449402,-123.199596732,445,"214 NW 15TH STREET, MCMINNVILLE, OR, 97128","Match","Exact","214 NW 15TH ST, MCMINNVILLE, OR, 97128",156493514,"L"
116946,"214 NW ABBIE DR","ANKENY","IA",50023,41.732679633,-93.6618057059999,446,"214 NW ABBIE DR, ANKENY, IA, 50023","Match","Exact","214 NW ABBIE DR, ANKENY, IA, 50023",640624231,"R"
116947,"214 PARK LANE","COATS","NC",27521,35.398796793,-78.65454305,447,"214 PARK LANE, COATS, NC, 27521","Match","Exact","214 PARK LN, COATS, NC, 27521",71989466,"R"
116948,"214 PARK VILLAGE LANE","SEGUIN","TX",78155,29.578496795,-97.938537937,448,"214 PARK VILLAGE LANE, SEGUIN, TX, 78155","Match","Exact","214 PARK VILLAGE LN, SEGUIN, TX, 78155",54828725,"R"
116949,"214 PARKER ST","CARLSBAD","NM",88220,32.3790853890001,-104.222068711,449,"214 PARKER ST, CARLSBAD, NM, 88220","Match","Exact","214 PARKER ST, CARLSBAD, NM, 88220",131211108,"R"
116950,"214 PATERSON RD","FANWOOD","NJ",7023,40.6429688090001,-74.3901669379999,450,"214 PATERSON RD, FANWOOD, NJ, 7023","Match","Exact","214 PATERSON RD, FANWOOD, NJ, 07023",60567512,"R"
116951,"214 PINE STREET","MEADVILLE","PW",16335,NA,NA,451,"214 PINE STREET, MEADVILLE, PW, 16335","No_Match",NA,NA,NA,NA
116952,"214 POND VIEW DR","BREWSTER","MA",2631,41.734890018,-70.138182233,452,"214 POND VIEW DR, BREWSTER, MA, 2631","Match","Non_Exact","214 PONDVIEW DR, BREWSTER, MA, 02631",121586133,"R"
116953,"214 PORKY OLIVER DRIVE","MIDDLETOWN","DE",19709,39.4673071280001,-75.7139761189999,453,"214 PORKY OLIVER DRIVE, MIDDLETOWN, DE, 19709","Match","Exact","214 PORKY OLIVER DR, MIDDLETOWN, DE, 19709",634290125,"R"
116954,"214 RAINBOW DRIVE PO BOX 1519","CABOT","AR",72023,NA,NA,454,"214 RAINBOW DRIVE PO BOX 1519, CABOT, AR, 72023","No_Match",NA,NA,NA,NA
116955,"214 REMINGTON DRIVE","DOTHAN","AL",36303,31.278442678,-85.374640058,455,"214 REMINGTON DRIVE, DOTHAN, AL, 36303","Match","Exact","214 REMINGTON DR, DOTHAN, AL, 36303",101222434,"R"
116956,"214 REYNOLDS RD","RALEIGH","NC",27609,35.8409888520001,-78.637806328,456,"214 REYNOLDS RD, RALEIGH, NC, 27609","Match","Exact","214 REYNOLDS RD, RALEIGH, NC, 27609",72505696,"R"
116957,"214 RICCI COURT","STOCKBRIDGE","GA",30281,33.600791052,-84.225646105,457,"214 RICCI COURT, STOCKBRIDGE, GA, 30281","Match","Exact","214 RICCI CT, STOCKBRIDGE, GA, 30281",619943567,"R"
116958,"214 RIDGE ROAD","NORTH ARLINGTON","NJ",7031,NA,NA,458,"214 RIDGE ROAD, NORTH ARLINGTON, NJ, 7031","No_Match",NA,NA,NA,NA
116959,"214 RIGGS DR","CLEMSON","SC",29631,34.685385576,-82.82914023,459,"214 RIGGS DR, CLEMSON, SC, 29631","Match","Exact","214 RIGGS DR, CLEMSON, SC, 29631",26163874,"R"
116960,"214 RIVERSIDE CT","SANTA MARIA","CA",93458,34.986416858,-120.436336432,460,"214 RIVERSIDE CT, SANTA MARIA, CA, 93458","Match","Exact","214 RIVERSIDE CT, SANTA MARIA, CA, 93458",108620289,"L"
116961,"214 ROBITAILLE RD","NEW IBERIA","LA",70560,29.9432059850001,-91.880521554,461,"214 ROBITAILLE RD, NEW IBERIA, LA, 70560","Match","Exact","214 ROBITAILLE RD, NEW IBERIA, LA, 70560",85353523,"L"
116962,"214 ROOSEVELT AVENUE","PAWTUCKET","RI",2860,41.8807342200001,-71.382397087,462,"214 ROOSEVELT AVENUE, PAWTUCKET, RI, 2860","Match","Exact","214 ROOSEVELT AVE, PAWTUCKET, RI, 02860",47455854,"L"
116963,"214 S  AUGUSTA STREET","BALTIMORE","MD",21229,39.282626518,-76.684689798,463,"214 S  AUGUSTA STREET, BALTIMORE, MD, 21229","Match","Non_Exact","214 S AUGUSTA AVE, BALTIMORE, MD, 21229",206413487,"R"
116964,"214 S 11TH ST","SARCOXIE","MO",64862,37.067401606,-94.1218511979999,464,"214 S 11TH ST, SARCOXIE, MO, 64862","Match","Exact","214 S 11TH ST, SARCOXIE, MO, 64862",66144899,"R"
116965,"214 S 19TH AVE","MAYWOOD","IL",60153,41.8855282330001,-87.8565039389999,465,"214 S 19TH AVE, MAYWOOD, IL, 60153","Match","Exact","214 S 19TH AVE, MAYWOOD, IL, 60153",111748246,"R"
116966,"214 S 5TH ST","MIDLOTHIAN","TX",76065,32.480945498,-96.99774329,466,"214 S 5TH ST, MIDLOTHIAN, TX, 76065","Match","Exact","214 S 5TH ST, MIDLOTHIAN, TX, 76065",103497555,"L"
116967,"214 S 8TH STREET STE 301","LOUISVILLE","KY",40202,38.255816012,-85.763418031,467,"214 S 8TH STREET STE 301, LOUISVILLE, KY, 40202","Match","Non_Exact","214 S 8TH ST, LOUISVILLE, KY, 40202",96842524,"R"
116968,"214 S EDISON AVE","TAMPA","FM",33606,NA,NA,468,"214 S EDISON AVE, TAMPA, FM, 33606","No_Match",NA,NA,NA,NA
116969,"214 S EUCLID AVE","ONTARIO","CA",91762,34.06243048,-117.651159712,469,"214 S EUCLID AVE, ONTARIO, CA, 91762","Match","Exact","214 S EUCLID AVE, ONTARIO, CA, 91762",640053423,"R"
116970,"214 S HAYNES ST","POPLARVILLE","MS",39470,30.842174173,-89.539902421,470,"214 S HAYNES ST, POPLARVILLE, MS, 39470","Match","Exact","214 S HAYNES ST, POPLARVILLE, MS, 39470",111466639,"L"
116971,"214 S KING ST","LEESBURG","VA",20175,39.1133512580001,-77.5654902859999,471,"214 S KING ST, LEESBURG, VA, 20175","Match","Exact","214 S KING ST, LEESBURG, VA, 20175",62328430,"R"
116972,"214 S MAIN ST","SIGOURNEY","IA",52591,41.3325366,-92.205155578,472,"214 S MAIN ST, SIGOURNEY, IA, 52591","Match","Exact","214 S MAIN ST, SIGOURNEY, IA, 52591",647781249,"L"
116973,"214 S MISSION RIDGE DRIVE","ROSSVILLE","GA",30741,34.9719946500001,-85.2845782699999,473,"214 S MISSION RIDGE DRIVE, ROSSVILLE, GA, 30741","Match","Exact","214 S MISSION RIDGE DR, ROSSVILLE, GA, 30741",66724871,"L"
116974,"214 S OCEAN BLVD","MANALAPAN","FL",33462,26.5827126830001,-80.039101745,474,"214 S OCEAN BLVD, MANALAPAN, FL, 33462","Match","Exact","214 S OCEAN BLVD, MANALAPAN, FL, 33462",115295264,"L"
116975,"214 S WEST ST","ANAHEIM","CA",92805,33.8308636410001,-117.926518964,475,"214 S WEST ST, ANAHEIM, CA, 92805","Match","Exact","214 S WEST ST, ANAHEIM, CA, 92805",609066940,"L"
116976,"214 SAINT ANTONS WAY","ARNOLD","MD",21012,39.0610797890001,-76.511719232,476,"214 SAINT ANTONS WAY, ARNOLD, MD, 21012","Match","Exact","214 SAINT ANTONS WAY, ARNOLD, MD, 21012",68201413,"L"
116977,"214 SALT LICK RD","FRONT ROYAL","VA",22630,38.8933749920001,-78.115008234,477,"214 SALT LICK RD, FRONT ROYAL, VA, 22630","Match","Exact","214 SALT LICK RD, FRONT ROYAL, VA, 22630",159080743,"L"
116978,"214 SAM KINLEY DRIVE","THOMASVILLE","NC",27360,35.8731102350001,-80.111260471,478,"214 SAM KINLEY DRIVE, THOMASVILLE, NC, 27360","Match","Exact","214 SAM KINLEY DR, THOMASVILLE, NC, 27360",20226552,"R"
116979,"214 SAN DIEGO STREET STE 20","OCEANSIDE","CA",92058,33.20236864,-117.369467856,479,"214 SAN DIEGO STREET STE 20, OCEANSIDE, CA, 92058","Match","Exact","214 SAN DIEGO ST, OCEANSIDE, CA, 92058",195280694,"R"
116980,"214 SCHOOL STREET","BERLIN","NH",3570,44.4726596080001,-71.1798077619999,480,"214 SCHOOL STREET, BERLIN, NH, 3570","Match","Exact","214 SCHOOL ST, BERLIN, NH, 03570",167897111,"R"
116981,"214 SEABOARD AVE","GREENWOOD","SC",29646,34.192868592,-82.15916784,481,"214 SEABOARD AVE, GREENWOOD, SC, 29646","Match","Exact","214 SEABOARD AVE, GREENWOOD, SC, 29646",50804074,"R"
116982,"214 SEYMOUR RD","HACKETTSTOWN","NJ",7840,40.841583466,-74.840962509,482,"214 SEYMOUR RD, HACKETTSTOWN, NJ, 7840","Match","Exact","214 SEYMOUR RD, HACKETTSTOWN, NJ, 07840",98092101,"R"
116983,"214 SHELLEY RENEE LANE","MEMPHIS","TN",38018,35.1237546560001,-89.7750707879999,483,"214 SHELLEY RENEE LANE, MEMPHIS, TN, 38018","Match","Non_Exact","214 SHELLEY RENEE LN, CORDOVA, TN, 38018",72947664,"L"
116984,"214 SILER LANE","SANTA MARIA","CA",93455,34.886835902,-120.434686932,484,"214 SILER LANE, SANTA MARIA, CA, 93455","Match","Exact","214 SILER LN, SANTA MARIA, CA, 93455",108596885,"R"
116985,"214 SMILAX RD","SAN MARCOS","CA",92069,33.1603418930001,-117.205789741,485,"214 SMILAX RD, SAN MARCOS, CA, 92069","Match","Exact","214 SMILAX RD, SAN MARCOS, CA, 92069",195294832,"L"
116986,"214 SMITH ST","HENDERSON","TX",75654,32.1417789440001,-94.800417325,486,"214 SMITH ST, HENDERSON, TX, 75654","Match","Exact","214 SMITH ST, HENDERSON, TX, 75654",79632464,"R"
116987,"214 SMITH STREET","HENDERSON","TX",75654,32.1417789440001,-94.800417325,487,"214 SMITH STREET, HENDERSON, TX, 75654","Match","Exact","214 SMITH ST, HENDERSON, TX, 75654",79632464,"R"
116988,"214 SOUTH 214TH STREET","ELKHORN","NE",68022,NA,NA,488,"214 SOUTH 214TH STREET, ELKHORN, NE, 68022","No_Match",NA,NA,NA,NA
116989,"214 SOUTH 7TH AVENUE","CLARION","PA",16214,41.207818978,-79.386026135,489,"214 SOUTH 7TH AVENUE, CLARION, PA, 16214","Match","Exact","214 S 7TH AVE, CLARION, PA, 16214",66221403,"L"
116990,"214 SOUTH 8TH STREET","MOUNT HOREB","WI",53572,43.006905772,-89.730456198,490,"214 SOUTH 8TH STREET, MOUNT HOREB, WI, 53572","Match","Exact","214 S 8TH ST, MOUNT HOREB, WI, 53572",49461860,"L"
116991,"214 SOUTH COUNTY ROAD 470","ALICE","TX",78332,27.6656427080001,-98.084509469,491,"214 SOUTH COUNTY ROAD 470, ALICE, TX, 78332","Match","Non_Exact","214 CO RD 470, ALICE, TX, 78332",635374562,"R"
116992,"214 SOUTH HALE STREET","TAMPA","FL",33609,27.941406527,-82.510972148,492,"214 SOUTH HALE STREET, TAMPA, FL, 33609","Match","Non_Exact","214 S HALE AVE, TAMPA, FL, 33609",104524963,"R"
116993,"214 SOUTH MARION STREET","ATHENS","AL",35611,34.802141969,-86.971104204,493,"214 SOUTH MARION STREET, ATHENS, AL, 35611","Match","Exact","214 S MARION ST, ATHENS, AL, 35611",95231660,"L"
116994,"214 SOUTH VINE AVENUE","FULLERTON","CA",92833,33.867703394,-117.974536388,494,"214 SOUTH VINE AVENUE, FULLERTON, CA, 92833","Match","Non_Exact","214 VINE AVE, FULLERTON, CA, 92833",144010573,"L"
116995,"214 STEWARTS LANDING CIRCLE","SMYRNA","TN",37167,NA,NA,495,"214 STEWARTS LANDING CIRCLE, SMYRNA, TN, 37167","No_Match",NA,NA,NA,NA
116996,"214 STONEWALL COURT","MINERAL","VA",23117,38.1105863820001,-77.915544654,496,"214 STONEWALL COURT, MINERAL, VA, 23117","Match","Exact","214 STONEWALL CT, MINERAL, VA, 23117",653481186,"R"
116997,"214 SULLIVAN DR","MICKLETON","NJ",8056,39.7889643550001,-75.260116995,497,"214 SULLIVAN DR, MICKLETON, NJ, 8056","Match","Exact","214 SULLIVAN DR, MICKLETON, NJ, 08056",641653558,"R"
116998,"214 SUMMERFIELD DR","PIKEVILLE","NC",27863,35.4918315960001,-78.008314602,498,"214 SUMMERFIELD DR, PIKEVILLE, NC, 27863","Match","Exact","214 SUMMERFIELD DR, PIKEVILLE, NC, 27863",651379498,"R"
116999,"214 SW 6TH PL","CANBY","OR",97013,45.257376664,-122.690374264,499,"214 SW 6TH PL, CANBY, OR, 97013","Match","Exact","214 SW 6TH PL, CANBY, OR, 97013",157943773,"R"
117000,"214 SW 8TH ST","POMPANO BEACH","FL",33060,26.219617258,-80.126102255,500,"214 SW 8TH ST, POMPANO BEACH, FL, 33060","Match","Exact","214 SW 8TH ST, POMPANO BEACH, FL, 33060",114695220,"L"
