"ID","Address","City","State","Zip","lat","long","id","input_address","match_indicator","match_type","matched_address","tiger_line_id","tiger_side"
147001,"2701 WEST DAWNVIEW DR","RIALTO","CA",92377,34.1598799980001,-117.427715188,1,"2701 WEST DAWNVIEW DR, RIALTO, CA, 92377","Match","Exact","2701 W DAWNVIEW DR, RIALTO, CA, 92377",144966208,"R"
147002,"2701 WEST ELWOOD AVE","SOUTH BEND","IN",46628,41.693743726,-86.2887177059999,2,"2701 WEST ELWOOD AVE, SOUTH BEND, IN, 46628","Match","Non_Exact","2701 ELWOOD AVE, SOUTH BEND, IN, 46628",8052283,"R"
147003,"2701 WILLIAMSBURG STREET - 204","ALEXANDRIA","VA",22314,38.8032074880001,-77.079427854,3,"2701 WILLIAMSBURG STREET - 204, ALEXANDRIA, VA, 22314","Match","Exact","2701 WILLIAMSBURG ST, ALEXANDRIA, VA, 22314",76063553,"R"
147004,"2701 WILLOWCREEK ROAD","VALPARAISO","IN",46268,NA,NA,4,"2701 WILLOWCREEK ROAD, VALPARAISO, IN, 46268","No_Match",NA,NA,NA,NA
147005,"2701","SNELLVILLE","GA",30039,NA,NA,5,"2701, SNELLVILLE, GA, 30039","No_Match",NA,NA,NA,NA
147006,"27010 CONCHO TRL","MAGNOLIA","TX",77355,30.213175623,-95.800590536,6,"27010 CONCHO TRL, MAGNOLIA, TX, 77355","Match","Exact","27010 CONCHO TRL, MAGNOLIA, TX, 77355",614136815,"R"
147007,"27010 EDGEWOOD RD","EXCELSIOR","MN",55331,44.9063573610001,-93.622952568,7,"27010 EDGEWOOD RD, EXCELSIOR, MN, 55331","Match","Exact","27010 EDGEWOOD RD, EXCELSIOR, MN, 55331",43794288,"R"
147008,"27010 ROCK ISLAND ROAD","HEMPSTEAD","TX",77445,30.171101465,-96.087944038,8,"27010 ROCK ISLAND ROAD, HEMPSTEAD, TX, 77445","Match","Exact","27010 ROCK ISLAND RD, HEMPSTEAD, TX, 77445",78359261,"R"
147009,"27015 LINDENWOOD CREEK LANE","KATY","TX",77494,29.7391250760001,-95.835960471,9,"27015 LINDENWOOD CREEK LANE, KATY, TX, 77494","Match","Exact","27015 LINDENWOOD CREEK LN, KATY, TX, 77494",648705418,"L"
147010,"27015 NE HATHAWAY ROAD","CAMAS","WA",98607,45.624741511,-122.39457168,10,"27015 NE HATHAWAY ROAD, CAMAS, WA, 98607","Match","Exact","27015 NE HATHAWAY RD, CAMAS, WA, 98607",158331355,"R"
147011,"2702 4TH AVENUE W","SEATTLE","WA",98119,47.6441774190001,-122.362215867,11,"2702 4TH AVENUE W, SEATTLE, WA, 98119","Match","Exact","2702 4TH AVE W, SEATTLE, WA, 98119",186581259,"R"
147012,"2702 ACR 489","MONTALBA","TX",75853,32.018927311,-95.8386965189999,12,"2702 ACR 489, MONTALBA, TX, 75853","Match","Non_Exact","2702 CO RD 489, MONTALBA, TX, 75853",74646973,"R"
147013,"2702 ADELPHI LANE","BRYANS ROAD","MD",20616,38.6340321860001,-77.08179126,13,"2702 ADELPHI LANE, BRYANS ROAD, MD, 20616","Match","Exact","2702 ADELPHI LN, BRYANS ROAD, MD, 20616",25376630,"R"
147014,"2702 ANDREW SPRINGS LN","SPRING","TX",77386,30.094685181,-95.382508525,14,"2702 ANDREW SPRINGS LN, SPRING, TX, 77386","Match","Exact","2702 ANDREW SPRINGS LN, SPRING, TX, 77386",627952234,"R"
147015,"2702 BARSHA FIELDS LANE","MARYVILLE","TN",37804,35.776284113,-83.941373368,15,"2702 BARSHA FIELDS LANE, MARYVILLE, TN, 37804","Match","Non_Exact","2702 BRASHA FIELDS LN, MARYVILLE, TN, 37804",627247465,"R"
147016,"2702 CURDES AVE","FORT WAYNE","IN",48605,41.101802133,-85.1048611209999,16,"2702 CURDES AVE, FORT WAYNE, IN, 48605","Match","Non_Exact","2702 CURDES AVE, FORT WAYNE, IN, 46805",6380257,"R"
147017,"2702 DELLWOOD DRIVE","PARMA","OH",44134,41.3917082200001,-81.701329887,17,"2702 DELLWOOD DRIVE, PARMA, OH, 44134","Match","Exact","2702 DELLWOOD DR, PARMA, OH, 44134",61117331,"R"
147018,"2702 DULUTH HWY SUITE A","DULUTH","GA",30096,33.9843046230001,-84.124399211,18,"2702 DULUTH HWY SUITE A, DULUTH, GA, 30096","Match","Exact","2702 DULUTH HWY, DULUTH, GA, 30096",88916371,"R"
147019,"2702 E 76TH PL","CHICAGO","IL",60649,41.756237861,-87.558404877,19,"2702 E 76TH PL, CHICAGO, IL, 60649","Match","Exact","2702 E 76TH PL, CHICAGO, IL, 60649",111775860,"L"
147020,"2702 E LACEWOOD DRIVE","MERIDIAN","ID",83646,43.6447181090001,-116.360716186,20,"2702 E LACEWOOD DRIVE, MERIDIAN, ID, 83646","Match","Exact","2702 E LACEWOOD DR, MERIDIAN, ID, 83646",646839410,"R"
147021,"2702 EAST FIFTH STREET SUITE 409","TYLER","TX",75701,32.3324074550001,-95.2657629619999,21,"2702 EAST FIFTH STREET SUITE 409, TYLER, TX, 75701","Match","Exact","2702 E 5TH ST, TYLER, TX, 75701",141316375,"R"
147022,"2702 EMANCIPATION AVE","HOUSTON","TX",77004,NA,NA,22,"2702 EMANCIPATION AVE, HOUSTON, TX, 77004","No_Match",NA,NA,NA,NA
147023,"2702 ETHEL STREET","INDIANAPOLIS","IN",46208,39.8054416260001,-86.169137661,23,"2702 ETHEL STREET, INDIANAPOLIS, IN, 46208","Match","Non_Exact","2702 ETHEL AVE, INDIANAPOLIS, IN, 46208",107989215,"L"
147024,"2702 GILMER ST","CADDO MILLS","TX",75135,33.071823985,-96.230032848,24,"2702 GILMER ST, CADDO MILLS, TX, 75135","Match","Exact","2702 GILMER ST, CADDO MILLS, TX, 75135",635380201,"R"
147025,"2702 GLYNN CT","DETROIT","MI",48206,42.37851928,-83.1133948029999,25,"2702 GLYNN CT, DETROIT, MI, 48206","Match","Exact","2702 GLYNN CT, DETROIT, MI, 48206",95471582,"R"
147026,"2702 HINTON DRIVE","LAKE CHARLES","LA",70615,30.216925417,-93.1786097149999,26,"2702 HINTON DRIVE, LAKE CHARLES, LA, 70615","Match","Exact","2702 HINTON DR, LAKE CHARLES, LA, 70615",88440004,"R"
147027,"2702 INDIAN MOUND BLVD","MONROE","LA",71201,32.5492083230001,-92.1182101099999,27,"2702 INDIAN MOUND BLVD, MONROE, LA, 71201","Match","Exact","2702 INDIAN MOUND BLVD, MONROE, LA, 71201",161083230,"R"
147028,"2702 INWOOD DRIVE","HARRISON","AR",72601,36.22659708,-93.1423732229999,28,"2702 INWOOD DRIVE, HARRISON, AR, 72601","Match","Exact","2702 INWOOD DR, HARRISON, AR, 72601",19999549,"L"
147029,"2702 JOSHUA TREE LANE","MANVEL","TX",77578,29.5240575390001,-95.379454385,29,"2702 JOSHUA TREE LANE, MANVEL, TX, 77578","Match","Exact","2702 JOSHUA TREE LN, MANVEL, TX, 77578",641828392,"L"
147030,"2702 LARMON DRIVE","NASHVILLE","TN",37204,36.1195706770001,-86.769895861,30,"2702 LARMON DRIVE, NASHVILLE, TN, 37204","Match","Non_Exact","2702 LARMON AVE, NASHVILLE, TN, 37204",97192219,"L"
147031,"2702 LINDSEY AVENUE","ALBANY","GA",31705,31.5835729340001,-84.077399655,31,"2702 LINDSEY AVENUE, ALBANY, GA, 31705","Match","Exact","2702 LINDSEY AVE, ALBANY, GA, 31705",84316936,"R"
147032,"2702 LOVE FIELD DRIVE HDQ-6FP","DALLAS","TX",75235,32.8467358140001,-96.8636626319999,32,"2702 LOVE FIELD DRIVE HDQ-6FP, DALLAS, TX, 75235","Match","Exact","2702 LOVE FIELD DR, DALLAS, TX, 75235",640543771,"R"
147033,"2702 MARTIN ST","PASADENA","TX",77502,29.670634621,-95.174493588,33,"2702 MARTIN ST, PASADENA, TX, 77502","Match","Exact","2702 MARTIN ST, PASADENA, TX, 77502",652311196,"L"
147034,"2702 MAY STREET APT 8","CINCINNATI","OH",45206,NA,NA,34,"2702 MAY STREET APT 8, CINCINNATI, OH, 45206","No_Match",NA,NA,NA,NA
147035,"2702 MCGOWEN STREET","HOUSTON","TX",77004,29.7365720830001,-95.359434659,35,"2702 MCGOWEN STREET, HOUSTON, TX, 77004","Match","Exact","2702 MCGOWEN ST, HOUSTON, TX, 77004",96072818,"R"
147036,"2702 NE 114TH AVENUE SUITE 4 - 101","VANCOUVER","WA",98684,45.6418846240001,-122.55546869,36,"2702 NE 114TH AVENUE SUITE 4 - 101, VANCOUVER, WA, 98684","Match","Non_Exact","2702 NE 114TH AVE, VANCOUVER, WA, 98684",615102040,"L"
147037,"2702 NW 49TH PLACE","GAINESVILLE","FL",32605,29.699898578,-82.36205248,37,"2702 NW 49TH PLACE, GAINESVILLE, FL, 32605","Match","Exact","2702 NW 49TH PL, GAINESVILLE, FL, 32605",6802690,"R"
147038,"2702 NW 52ND PL","TAMARAC","FL",33309,26.190915127,-80.179467835,38,"2702 NW 52ND PL, TAMARAC, FL, 33309","Match","Exact","2702 NW 52ND PL, TAMARAC, FL, 33309",114706941,"L"
147039,"2702 OHIO STREET","GLENBURN","ME",4401,44.8694470990001,-68.8712502079999,39,"2702 OHIO STREET, GLENBURN, ME, 4401","Match","Exact","2702 OHIO ST, GLENBURN, ME, 04401",123650363,"L"
147040,"2702 P STREET","VANCOUVER","WA",98663,45.640857258,-122.655378273,40,"2702 P STREET, VANCOUVER, WA, 98663","Match","Exact","2702 P ST, VANCOUVER, WA, 98663",158326001,"L"
147041,"2702 PLANK ROAD","ALTOONA","PA",16601,40.456505226,-78.4097850059999,41,"2702 PLANK ROAD, ALTOONA, PA, 16601","Match","Non_Exact","2702 W PLANK RD, ALTOONA, PA, 16601",647079276,"R"
147042,"2702 PONY FARM COURT","OAKTON","VA",22124,38.901955177,-77.32712094,42,"2702 PONY FARM COURT, OAKTON, VA, 22124","Match","Exact","2702 PONY FARM CT, OAKTON, VA, 22124",75965773,"R"
147043,"2702 RAHN BLVD","BELLEVUE","NE",68123,41.1088643580001,-95.949863501,43,"2702 RAHN BLVD, BELLEVUE, NE, 68123","Match","Exact","2702 RAHN BLVD, BELLEVUE, NE, 68123",28490011,"R"
147044,"2702 RASKOB ST","FLINT","MI",48504,43.024685721,-83.7259869,44,"2702 RASKOB ST, FLINT, MI, 48504","Match","Exact","2702 RASKOB ST, FLINT, MI, 48504",69565053,"R"
147045,"2702 SAVANNAH DR","PLANT CITY","FL",33563,28.0398366900001,-82.099144815,45,"2702 SAVANNAH DR, PLANT CITY, FL, 33563","Match","Exact","2702 SAVANNAH DR, PLANT CITY, FL, 33563",104589450,"R"
147046,"2702 SE 15TH ST","HOMESTEAD","FL",33035,NA,NA,46,"2702 SE 15TH ST, HOMESTEAD, FL, 33035","Tie",NA,NA,NA,NA
147047,"2702 SE GOLDEN AVE","TOPEKA","KS",66605,39.0194104930001,-95.644331079,47,"2702 SE GOLDEN AVE, TOPEKA, KS, 66605","Match","Exact","2702 SE GOLDEN AVE, TOPEKA, KS, 66605",17943341,"L"
147048,"2702 SUNBRIGHT DRIVE","DIAMOND BAR","CA",91765,33.976793888,-117.840964257,48,"2702 SUNBRIGHT DRIVE, DIAMOND BAR, CA, 91765","Match","Exact","2702 SUNBRIGHT DR, DIAMOND BAR, CA, 91765",141736231,"L"
147049,"2702 TOLOSA DRIVE","DALLAS","TX",75228,32.851535998,-96.668367145,49,"2702 TOLOSA DRIVE, DALLAS, TX, 75228","Match","Exact","2702 TOLOSA DR, DALLAS, TX, 75228",102923191,"R"
147050,"2702 W 77TH ST","INGLEWOOD","CA",90305,33.969993194,-118.322878637,50,"2702 W 77TH ST, INGLEWOOD, CA, 90305","Match","Exact","2702 W 77TH ST, INGLEWOOD, CA, 90305",141655515,"L"
147051,"2702 W FLORENCE AVE","LOS ANGELES","CA",90043,33.9745637010001,-118.322557296,51,"2702 W FLORENCE AVE, LOS ANGELES, CA, 90043","Match","Exact","2702 W FLORENCE AVE, LOS ANGELES, CA, 90043",141658041,"L"
147052,"2702 W YORKSHIRE DRIVE -2036","PHOENIX","AZ",85027,33.6626591400001,-112.117248042,52,"2702 W YORKSHIRE DRIVE -2036, PHOENIX, AZ, 85027","Match","Non_Exact","2702 W YORKSHIRE DR, PHOENIX, AZ, 85027",648213745,"R"
147053,"2702 WEST CREEK DRIVE","EL CAMPO","TX",77437,29.2083782010001,-96.291189179,53,"2702 WEST CREEK DRIVE, EL CAMPO, TX, 77437","Match","Exact","2702 W CREEK DR, EL CAMPO, TX, 77437",42492170,"L"
147054,"27021 EDEN ROCK COURT","BONITA SPRINGS","FL",34135,26.345335877,-81.766461014,54,"27021 EDEN ROCK COURT, BONITA SPRINGS, FL, 34135","Match","Exact","27021 EDEN ROCK CT, BONITA SPGS, FL, 34135",646606329,"R"
147055,"27023 LEXINGTON PKWY","SOUTHFIELD","MI",48076,42.4885010410001,-83.214894112,55,"27023 LEXINGTON PKWY, SOUTHFIELD, MI, 48076","Match","Exact","27023 LEXINGTON PKWY, SOUTHFIELD, MI, 48076",69739809,"L"
147056,"27023 VALESIDE LANE","OLMSTED TWP","OH",44138,41.3775460250001,-81.934607532,56,"27023 VALESIDE LANE, OLMSTED TWP, OH, 44138","Match","Exact","27023 VALESIDE LN, OLMSTED TWP, OH, 44138",61152706,"L"
147057,"27025 CALLE JUANITA","DANA POINT","CA",92624,33.4639827880001,-117.658475465,57,"27025 CALLE JUANITA, DANA POINT, CA, 92624","Match","Non_Exact","27025 CLL JUANITA, DANA POINT, CA, 92624",144074043,"L"
147058,"27028 GARO PARK ROAD","BLANCA","CO",81123,NA,NA,58,"27028 GARO PARK ROAD, BLANCA, CO, 81123","No_Match",NA,NA,NA,NA
147059,"27029 E IRISH PL","AURORA","CO",80016,39.5797184300001,-104.674923183,59,"27029 E IRISH PL, AURORA, CO, 80016","Match","Exact","27029 E IRISH PL, AURORA, CO, 80016",617958128,"L"
147060,"27029 E PAISANO DR","FLORENCE","AZ",85132,32.914974381,-111.276472987,60,"27029 E PAISANO DR, FLORENCE, AZ, 85132","Match","Exact","27029 E PAISANO DR, FLORENCE, AZ, 85132",129218091,"R"
147061,"2703 4TH AVE","COUNCIL BLUFFS","IA",51501,41.2580052980001,-95.8869900719999,61,"2703 4TH AVE, COUNCIL BLUFFS, IA, 51501","Match","Exact","2703 4TH AVE, COUNCIL BLUFFS, IA, 51501",43900110,"L"
147062,"2703 4TH ST","PERU","IL",61354,41.327504925,-89.141109494,62,"2703 4TH ST, PERU, IL, 61354","Match","Exact","2703 4TH ST, PERU, IL, 61354",8595804,"L"
147063,"2703 ALAMOSA PLACE","LAKE MARY","FL",32746,28.782276133,-81.3037274179999,63,"2703 ALAMOSA PLACE, LAKE MARY, FL, 32746","Match","Exact","2703 ALAMOSA PL, LAKE MARY, FL, 32746",93771416,"L"
147064,"2703 BROUSE AVE","INDIANAPOLIS","IN",46218,39.805428577,-86.122735239,64,"2703 BROUSE AVE, INDIANAPOLIS, IN, 46218","Match","Exact","2703 BROUSE AVE, INDIANAPOLIS, IN, 46218",107990849,"R"
147065,"2703 CHERRY VALLEY BLVD","DALLAS","TX",75241,32.64528341,-96.777226189,65,"2703 CHERRY VALLEY BLVD, DALLAS, TX, 75241","Match","Exact","2703 CHERRY VALLEY BLVD, DALLAS, TX, 75241",102954786,"L"
147066,"2703 DIAMOND VISTA LN","ROSHARON","TX",77583,29.443975691,-95.434254589,66,"2703 DIAMOND VISTA LN, ROSHARON, TX, 77583","Match","Exact","2703 DIAMOND VISTA LN, ROSHARON, TX, 77583",641880616,"R"
147067,"2703 EAGLE DR","DALLAS","TX",75216,32.7159480600001,-96.7831641499999,67,"2703 EAGLE DR, DALLAS, TX, 75216","Match","Exact","2703 EAGLE DR, DALLAS, TX, 75216",102951994,"L"
147068,"2703 EAST TOWER DRIVE","CINCINNATI","OH",45238,39.1319859160001,-84.5941988599999,68,"2703 EAST TOWER DRIVE, CINCINNATI, OH, 45238","Match","Exact","2703 E TOWER DR, CINCINNATI, OH, 45238",103965266,"L"
147069,"2703 ELM ST","CAYCE","SC",29033,33.957596172,-81.06304084,69,"2703 ELM ST, CAYCE, SC, 29033","Match","Exact","2703 ELM ST, CAYCE, SC, 29033",70056760,"L"
147070,"2703 ELY PARK LANE","KNOXVILLE","TN",37924,NA,NA,70,"2703 ELY PARK LANE, KNOXVILLE, TN, 37924","No_Match",NA,NA,NA,NA
147071,"2703 FATIMA AVENUE","DALLAS","TX",75241,32.676892391,-96.7775456689999,71,"2703 FATIMA AVENUE, DALLAS, TX, 75241","Match","Exact","2703 FATIMA AVE, DALLAS, TX, 75241",102952534,"L"
147072,"2703 HENDRIX DR","BLOOMINGTON","IL",61704,NA,NA,72,"2703 HENDRIX DR, BLOOMINGTON, IL, 61704","No_Match",NA,NA,NA,NA
147073,"2703 HIGHWAY 6 S SUITE 123","HOUSTON","TX",77083,NA,NA,73,"2703 HIGHWAY 6 S SUITE 123, HOUSTON, TX, 77083","No_Match",NA,NA,NA,NA
147074,"2703 MARTIN CIRCLE","SPRING LAKE","NC",28390,35.204510349,-78.954872649,74,"2703 MARTIN CIRCLE, SPRING LAKE, NC, 28390","Match","Exact","2703 MARTIN CIR, SPRING LAKE, NC, 28390",64192140,"L"
147075,"2703 MAYHEW LAKE RD NE APT 111","SAUK RAPIDS","MN",56379,45.60891947,-94.133216061,75,"2703 MAYHEW LAKE RD NE APT 111, SAUK RAPIDS, MN, 56379","Match","Exact","2703 MAYHEW LAKE RD NE, SAUK RAPIDS, MN, 56379",635755493,"L"
147076,"2703 NORTH DRAKE AVE","CHICAGO","IL",60647,41.9302322730001,-87.71591939,76,"2703 NORTH DRAKE AVE, CHICAGO, IL, 60647","Match","Exact","2703 N DRAKE AVE, CHICAGO, IL, 60647",605224381,"R"
147077,"2703 OAK STREET","BETTENDORF","IA",52722,41.5332216150001,-90.495576077,77,"2703 OAK STREET, BETTENDORF, IA, 52722","Match","Exact","2703 OAK ST, BETTENDORF, IA, 52722",122713997,"R"
147078,"2703 PARK PLACE CT","ARLINGTON","TX",76016,32.700676205,-97.157840286,78,"2703 PARK PLACE CT, ARLINGTON, TX, 76016","Match","Exact","2703 PARK PLACE CT, ARLINGTON, TX, 76016",101932492,"R"
147079,"2703 PECAN RIDGE DR","SUGAR LAND","TX",77479,29.58360392,-95.602275334,79,"2703 PECAN RIDGE DR, SUGAR LAND, TX, 77479","Match","Exact","2703 PECAN RIDGE DR, SUGAR LAND, TX, 77479",78268889,"R"
147080,"2703 PHEASANT HUNT ROAD","WOODBRIDGE","VA",22192,38.659843188,-77.305332655,80,"2703 PHEASANT HUNT ROAD, WOODBRIDGE, VA, 22192","Match","Exact","2703 PHEASANT HUNT RD, WOODBRIDGE, VA, 22192",76531684,"L"
147081,"2703 PINE HILL DR","KNOXVILLE","TN",37932,35.9088227780001,-84.259424039,81,"2703 PINE HILL DR, KNOXVILLE, TN, 37932","Match","Exact","2703 PINE HILL DR, KNOXVILLE, TN, 37932",42601786,"L"
147082,"2703 ROBINWOOD LN","DENTON","TX",76209,33.240021031,-97.1176878699999,82,"2703 ROBINWOOD LN, DENTON, TX, 76209","Match","Exact","2703 ROBINWOOD LN, DENTON, TX, 76209",103339738,"R"
147083,"2703 SECREST SHORT CUT ROAD","MONROE","NC",28110,35.01734201,-80.5581270879999,83,"2703 SECREST SHORT CUT ROAD, MONROE, NC, 28110","Match","Non_Exact","2703 SECREST SHORTCUT RD, MONROE, NC, 28110",216854300,"L"
147084,"2703 SHADY BAYOU LN","SPRING","TX",77373,30.081228454,-95.3992407279999,84,"2703 SHADY BAYOU LN, SPRING, TX, 77373","Match","Exact","2703 SHADY BAYOU LN, SPRING, TX, 77373",96041554,"R"
147085,"2703 SHERRILL PARK DRIVE","RICHARDSON","TX",75082,32.988577849,-96.683762588,85,"2703 SHERRILL PARK DRIVE, RICHARDSON, TX, 75082","Match","Exact","2703 SHERRILL PARK DR, RICHARDSON, TX, 75082",123490441,"R"
147086,"2703 SPELMAN RD","BALTIMORE","MD",21225,39.2477988700001,-76.629018063,86,"2703 SPELMAN RD, BALTIMORE, MD, 21225","Match","Exact","2703 SPELMAN RD, BALTIMORE, MD, 21225",206466568,"L"
147087,"2703 TRIP HOLLOW WAY","GRAYSON","GA",30017,33.8795735300001,-83.964795296,87,"2703 TRIP HOLLOW WAY, GRAYSON, GA, 30017","Match","Non_Exact","2703 TRIP HOLLOW WAY SW, GRAYSON, GA, 30017",624794809,"R"
147088,"2703 WARD AVENUE","CARUTHERSVILLE","MO",63830,36.1709474730001,-89.663807262,88,"2703 WARD AVENUE, CARUTHERSVILLE, MO, 63830","Match","Non_Exact","2703 S WARD AVE, CARUTHERSVILLE, MO, 63830",38907695,"R"
147089,"2703 WEST 78 PLACE","INGLEWOOD","CA",90305,33.968181058,-118.32287995,89,"2703 WEST 78 PLACE, INGLEWOOD, CA, 90305","Match","Exact","2703 W 78TH PL, INGLEWOOD, CA, 90305",141655520,"R"
147090,"2703 WEST ROYAL LN  APT 901","IRVING","TX",75063,32.9071973220001,-96.9819265359999,90,"2703 WEST ROYAL LN  APT 901, IRVING, TX, 75063","Match","Exact","2703 W ROYAL LN, IRVING, TX, 75063",103271046,"L"
147091,"2703 WEYLAND CIRCLE","PENSACOLA","FL",32526,30.4649121030001,-87.289653962,91,"2703 WEYLAND CIRCLE, PENSACOLA, FL, 32526","Match","Exact","2703 WEYLAND CIR, PENSACOLA, FL, 32526",93212851,"L"
147092,"2703 YANCEY LN","GLENARDEN","MD",20706,38.927635804,-76.860384289,92,"2703 YANCEY LN, GLENARDEN, MD, 20706","Match","Exact","2703 YANCEY LN, GLENARDEN, MD, 20706",76418659,"L"
147093,"27030 RIGBYLOT RD","EASTON","MD",21601,38.7429141700001,-76.1397366849999,93,"27030 RIGBYLOT RD, EASTON, MD, 21601","Match","Exact","27030 RIGBYLOT RD, EASTON, MD, 21601",209755161,"L"
147094,"27030 VICTORIA LANE UNIT 76","VALENCIA","CA",91355,34.4288445030001,-118.560955902,94,"27030 VICTORIA LANE UNIT 76, VALENCIA, CA, 91355","Match","Exact","27030 VICTORIA LN, VALENCIA, CA, 91355",142678716,"L"
147095,"27031 NORTH 71ST PLACE","SCOTTSDALE","AZ",85266,33.7307176520001,-111.927254591,95,"27031 NORTH 71ST PLACE, SCOTTSDALE, AZ, 85266","Match","Exact","27031 N 71ST PL, SCOTTSDALE, AZ, 85266",128184514,"L"
147096,"27032 OAKWOOD CIRCLE  APT 101","OLMSTED FALLS","OH",44138,41.3900400370001,-81.937898171,96,"27032 OAKWOOD CIRCLE  APT 101, OLMSTED FALLS, OH, 44138","Match","Exact","27032 OAKWOOD CIR, OLMSTED FALLS, OH, 44138",61157052,"L"
147097,"27034 DOWNING PARK BLVD","KATY","TX",77494,29.713040205,-95.810319443,97,"27034 DOWNING PARK BLVD, KATY, TX, 77494","Match","Exact","27034 DOWNING PARK BLVD, KATY, TX, 77494",638048966,"R"
147098,"27038 HOPKINS STREET","INKSTER","MI",48141,42.276483037,-83.305230318,98,"27038 HOPKINS STREET, INKSTER, MI, 48141","Match","Exact","27038 HOPKINS ST, INKSTER, MI, 48141",642524273,"R"
147099,"27039 S 4440 RD","VINITA","OK",74301,36.626725304,-95.089418941,99,"27039 S 4440 RD, VINITA, OK, 74301","Match","Exact","27039 S 4440 RD, VINITA, OK, 74301",20646472,"L"
147100,"2704 14TH AVENUE S","MINNEAPOLIS","MN",55407,44.953539978,-93.254986977,100,"2704 14TH AVENUE S, MINNEAPOLIS, MN, 55407","Match","Exact","2704 14TH AVE S, MINNEAPOLIS, MN, 55407",43633353,"R"
147101,"2704 171ST ST SE","BOTHELL","WA",98012,47.843201272,-122.196073667,101,"2704 171ST ST SE, BOTHELL, WA, 98012","Match","Exact","2704 171ST ST SE, BOTHELL, WA, 98012",608928222,"L"
147102,"2704 17TH STREET","ZION","IL",60099,42.4642176450001,-87.853195463,102,"2704 17TH STREET, ZION, IL, 60099","Match","Exact","2704 17TH ST, ZION, IL, 60099",613800520,"L"
147103,"2704 65TH ST","LUBBOCK","TX",79413,33.5351829480001,-101.873115344,103,"2704 65TH ST, LUBBOCK, TX, 79413","Match","Exact","2704 65TH ST, LUBBOCK, TX, 79413",185256010,"R"
147104,"2704 ALHAMBRA DR","IRVING","TX",75062,32.8431231170001,-97.012353696,104,"2704 ALHAMBRA DR, IRVING, TX, 75062","Match","Exact","2704 ALHAMBRA DR, IRVING, TX, 75062",635290059,"R"
147105,"2704 ANACAPA","IRVINE","CA",92602,33.726140812,-117.783096015,105,"2704 ANACAPA, IRVINE, CA, 92602","Match","Exact","2704 ANACAPA, IRVINE, CA, 92602",625707202,"L"
147106,"2704 ARCARO COURT","DECATUR","GA",30034,33.7076444410001,-84.236059672,106,"2704 ARCARO COURT, DECATUR, GA, 30034","Match","Exact","2704 ARCARO CT, DECATUR, GA, 30034",23371232,"L"
147107,"2704 ARK DRIVE","BLOOMINGTON","IL",61704,40.5155711560001,-88.90964944,107,"2704 ARK DRIVE, BLOOMINGTON, IL, 61704","Match","Exact","2704 ARK DR, BLOOMINGTON, IL, 61704",20576793,"L"
147108,"2704 ASCENSION COURT","MARRERO","LA",70072,29.815092357,-90.107297382,108,"2704 ASCENSION COURT, MARRERO, LA, 70072","Match","Exact","2704 ASCENSION CT, MARRERO, LA, 70072",637322155,"L"
147109,"2704 ASHBY POND TRAIL","DULUTH","GA",30097,34.0099034030001,-84.1287693899999,109,"2704 ASHBY POND TRAIL, DULUTH, GA, 30097","Match","Exact","2704 ASHBY POND TRL, DULUTH, GA, 30097",645845647,"L"
147110,"2704 BARKLEY AVE","FLORENCE","SC",29505,34.15501197,-79.744031013,110,"2704 BARKLEY AVE, FLORENCE, SC, 29505","Match","Exact","2704 BARKLEY AVE, FLORENCE, SC, 29505",28879444,"L"
147111,"2704 BELLAIRE CT","ARLINGTON","TX",76013,32.7293896640001,-97.151832117,111,"2704 BELLAIRE CT, ARLINGTON, TX, 76013","Match","Exact","2704 BELLAIRE CT, ARLINGTON, TX, 76013",101905443,"L"
147112,"2704 BENJAMIN LANE","HEBRON","KY",41048,39.0671358010001,-84.723471839,112,"2704 BENJAMIN LANE, HEBRON, KY, 41048","Match","Exact","2704 BENJAMIN LN, HEBRON, KY, 41048",81964914,"R"
147113,"2704 BIGLER AVENUE","NORTHERN CAMBRIA","PA",15714,40.648099959,-78.778730291,113,"2704 BIGLER AVENUE, NORTHERN CAMBRIA, PA, 15714","Match","Exact","2704 BIGLER AVE, NORTHERN CAMBRIA, PA, 15714",50243515,"L"
147114,"2704 BLUE RAVINE RD","WAKE FOREST","NC",27587,36.0078218850001,-78.5440671869999,114,"2704 BLUE RAVINE RD, WAKE FOREST, NC, 27587","Match","Exact","2704 BLUE RAVINE RD, WAKE FOREST, NC, 27587",72600914,"L"
147115,"2704 CLUBHOUSE DR","PLANT CITY","FL",33566,27.986883194,-82.163588476,115,"2704 CLUBHOUSE DR, PLANT CITY, FL, 33566","Match","Exact","2704 CLUBHOUSE DR, PLANT CITY, FL, 33566",104699909,"R"
147116,"2704 COTTON RIDGE DRIVE","MEMPHIS","TN",38133,35.1998111230001,-89.817248195,116,"2704 COTTON RIDGE DRIVE, MEMPHIS, TN, 38133","Match","Exact","2704 COTTON RIDGE DR, MEMPHIS, TN, 38133",72945289,"R"
147117,"2704 DORENE DRIVE","PLANT CITY","FL",33563,28.034504573,-82.097744302,117,"2704 DORENE DRIVE, PLANT CITY, FL, 33563","Match","Exact","2704 DORENE DR, PLANT CITY, FL, 33563",104503979,"L"
147118,"2704 E LOCUST ST","MILWAUKEE","WI",53211,43.0709820050001,-87.876694024,118,"2704 E LOCUST ST, MILWAUKEE, WI, 53211","Match","Non_Exact","2704 E LOCUST ST, MILWAUKEE, WI, 53211",77744250,"L"
147119,"2704 EL RASTRO LANE","CARLSBAD","CA",92009,33.068582529,-117.252737638,119,"2704 EL RASTRO LANE, CARLSBAD, CA, 92009","Match","Exact","2704 EL RASTRO LN, CARLSBAD, CA, 92009",195293333,"L"
147120,"2704 GATEWOOD CIR","VESTAVIA","AL",35216,33.42669872,-86.807457211,120,"2704 GATEWOOD CIR, VESTAVIA, AL, 35216","Match","Exact","2704 GATEWOOD CIR, VESTAVIA, AL, 35216",81646223,"R"
147121,"2704 GREENCLIFF DRIVE","SOUTHAVEN","MS",38672,34.968183519,-89.942230294,121,"2704 GREENCLIFF DRIVE, SOUTHAVEN, MS, 38672","Match","Exact","2704 GREENCLIFF DR, SOUTHAVEN, MS, 38672",91854260,"L"
147122,"2704 LA PAZ STREET","EDINBURG","TX",78542,26.3207609020001,-98.1009204649999,122,"2704 LA PAZ STREET, EDINBURG, TX, 78542","Match","Non_Exact","2704 LA PAZ, EDINBURG, TX, 78542",71542122,"R"
147123,"2704 MAHAN RD","SUMMERVILLE","GA",30747,34.507875283,-85.3668848359999,123,"2704 MAHAN RD, SUMMERVILLE, GA, 30747","Match","Exact","2704 MAHAN RD, SUMMERVILLE, GA, 30747",82033585,"R"
147124,"2704 MARINER COURT","LYNWOOD","IL",60411,41.5387441920001,-87.5508148979999,124,"2704 MARINER COURT, LYNWOOD, IL, 60411","Match","Exact","2704 MARINER CT, LYNWOOD, IL, 60411",111786807,"L"
147125,"2704 MARLETTE STREET","SARASOTA","FL",34231,27.2929596910001,-82.5162172839999,125,"2704 MARLETTE STREET, SARASOTA, FL, 34231","Match","Exact","2704 MARLETTE ST, SARASOTA, FL, 34231",16352495,"R"
147126,"2704 MIDWAY PARK CT","RALEIGH","NC",27610,35.742592648,-78.6096002529999,126,"2704 MIDWAY PARK CT, RALEIGH, NC, 27610","Match","Exact","2704 MIDWAY PARK CT, RALEIGH, NC, 27610",72619043,"L"
147127,"2704 N 500 E","VERNAL","UT",84078,NA,NA,127,"2704 N 500 E, VERNAL, UT, 84078","Tie",NA,NA,NA,NA
147128,"2704 N STERLING","MESA","AZ",85207,33.4646707380001,-111.669397494,128,"2704 N STERLING, MESA, AZ, 85207","Match","Exact","2704 N STERLING, MESA, AZ, 85207",128862198,"L"
147129,"2704 NAPLES ST","BROWNSVILLE","TX",78520,25.95996051,-97.5387891399999,129,"2704 NAPLES ST, BROWNSVILLE, TX, 78520","Match","Exact","2704 NAPLES ST, BROWNSVILLE, TX, 78520",90002417,"R"
147130,"2704 NATIONAL AVENUE","MADERA","CA",93637,36.9583704980001,-120.093745529,130,"2704 NATIONAL AVENUE, MADERA, CA, 93637","Match","Exact","2704 NATIONAL AVE, MADERA, CA, 93637",102339470,"L"
147131,"2704 NEWTON STREET","JASPER","IN",47546,38.412999556,-86.937886261,131,"2704 NEWTON STREET, JASPER, IN, 47546","Match","Exact","2704 NEWTON ST, JASPER, IN, 47546",7870843,"R"
147132,"2704 NORTHERN DR","LEAGUE CITY","TX",77573,29.48585188,-95.130339142,132,"2704 NORTHERN DR, LEAGUE CITY, TX, 77573","Match","Exact","2704 NORTHERN DR, LEAGUE CITY, TX, 77573",635764811,"R"
147133,"2704 OAK DRIVE","MONROE","LA",71201,32.5472407770001,-92.104488367,133,"2704 OAK DRIVE, MONROE, LA, 71201","Match","Exact","2704 OAK DR, MONROE, LA, 71201",651087614,"R"
147134,"2704 OLD REGISTER ROAD","STATESBORO","GA",30458,32.404857861,-81.7990295439999,134,"2704 OLD REGISTER ROAD, STATESBORO, GA, 30458","Match","Exact","2704 OLD REGISTER RD, STATESBORO, GA, 30458",6116285,"R"
147135,"2704 RIDGELAKE DRIVE","SHREVEPORT","LA",71109,32.4865188370001,-93.8109387919999,135,"2704 RIDGELAKE DRIVE, SHREVEPORT, LA, 71109","Match","Non_Exact","2704 RIDGE LAKE DR, SHREVEPORT, LA, 71109",57431013,"R"
147136,"2704 SHERIDAN AVENUE","DES MOINES","IA",50310,41.6186304730001,-93.653924817,136,"2704 SHERIDAN AVENUE, DES MOINES, IA, 50310","Match","Exact","2704 SHERIDAN AVE, DES MOINES, IA, 50310",65780301,"L"
147137,"2704 STARKEY DRIVE","BROOKEVILLE","MD",20833,39.1676844620001,-77.056616866,137,"2704 STARKEY DRIVE, BROOKEVILLE, MD, 20833","Match","Exact","2704 STARKEY DR, BROOKEVILLE, MD, 20833",62112232,"R"
147138,"2704 TEA OLIVE DR","GLENN HEIGHTS","TX",75154,32.5361384130001,-96.8401717409999,138,"2704 TEA OLIVE DR, GLENN HEIGHTS, TX, 75154","Match","Exact","2704 TEA OLIVE DR, GLENN HEIGHTS, TX, 75154",214500326,"R"
147139,"2704 W 167TH STREET","TORRANCE","CA",90504,33.8785970860001,-118.32304092,139,"2704 W 167TH STREET, TORRANCE, CA, 90504","Match","Exact","2704 W 167TH ST, TORRANCE, CA, 90504",141666508,"L"
147140,"2704 WATER OAK DR","GRAND PRAIRIE","TX",75052,32.6551868290001,-97.0515904,140,"2704 WATER OAK DR, GRAND PRAIRIE, TX, 75052","Match","Exact","2704 WATER OAK DR, GRAND PRAIRIE, TX, 75052",102132169,"L"
147141,"2704 WEST AVERY STREET","PENSACOLA","FL",32505,30.431437621,-87.2474699109999,141,"2704 WEST AVERY STREET, PENSACOLA, FL, 32505","Match","Exact","2704 W AVERY ST, PENSACOLA, FL, 32505",93215048,"R"
147142,"27040 E US HWY 380 APT 9204","AUBREY","TX",76227,NA,NA,142,"27040 E US HWY 380 APT 9204, AUBREY, TX, 76227","Tie",NA,NA,NA,NA
147143,"27040 MALIBU HILLS ROAD","CALABASAS","CA",91301,34.1363804470001,-118.710883085,143,"27040 MALIBU HILLS ROAD, CALABASAS, CA, 91301","Match","Exact","27040 MALIBU HILLS RD, CALABASAS, CA, 91301",142814924,"L"
147144,"27040 SMITHSON VALLEY RD","SAN ANTONIO","TX",78261,29.7003994930001,-98.433104263,144,"27040 SMITHSON VALLEY RD, SAN ANTONIO, TX, 78261","Match","Exact","27040 SMITHSON VALLEY RD, SAN ANTONIO, TX, 78261",101714927,"R"
147145,"27041 SCHOENHERR RD STE A","WARREN","MI",48088,42.4937663950001,-82.987171485,145,"27041 SCHOENHERR RD STE A, WARREN, MI, 48088","Match","Exact","27041 SCHOENHERR RD, WARREN, MI, 48088",110677874,"L"
147146,"27041 STAR GAZER WAY","SPRING","TX",77386,30.0739634190001,-95.334465772,146,"27041 STAR GAZER WAY, SPRING, TX, 77386","Match","Exact","27041 STAR GAZER WAY, SPRING, TX, 77386",641130465,"L"
147147,"27043 7TH PL SO","DES MOINES","WA",98198,47.3589853770001,-122.323403852,147,"27043 7TH PL SO, DES MOINES, WA, 98198","Match","Exact","27043 7TH PL S, DES MOINES, WA, 98198",186714934,"R"
147148,"27044 SE 9TH WAY","SAMMAMISH","WA",98075,47.6003616290001,-121.977415577,148,"27044 SE 9TH WAY, SAMMAMISH, WA, 98075","Match","Exact","27044 SE 9TH WAY, SAMMAMISH, WA, 98075",632009739,"R"
147149,"27045 NOTRE DAME ST","INKSTER","MI",48141,42.2864301330001,-83.305456907,149,"27045 NOTRE DAME ST, INKSTER, MI, 48141","Match","Exact","27045 NOTRE DAME ST, INKSTER, MI, 48141",95434825,"L"
147150,"27047 VICTORIA LN","VALENCIA","CA",91355,34.428908908,-118.560910858,150,"27047 VICTORIA LN, VALENCIA, CA, 91355","Match","Exact","27047 VICTORIA LN, VALENCIA, CA, 91355",142678716,"R"
147151,"27048 CAMERONS RUN","LEESBURG","FL",34748,28.7401849940001,-81.881691285,151,"27048 CAMERONS RUN, LEESBURG, FL, 34748","Match","Exact","27048 CAMERONS RUN, LEESBURG, FL, 34748",618797460,"R"
147152,"270491","SAN DIEGO","CA",92128,NA,NA,152,"270491, SAN DIEGO, CA, 92128","No_Match",NA,NA,NA,NA
147153,"2705 ARMFIELD ROAD","HILLSBOROUGH","NC",27278,36.072012924,-79.055254588,153,"2705 ARMFIELD ROAD, HILLSBOROUGH, NC, 27278","Match","Exact","2705 ARMFIELD RD, HILLSBOROUGH, NC, 27278",72377298,"R"
147154,"2705 AUGUSTA DR","HOMESTEAD","FL",33035,25.4446312800001,-80.44678413,154,"2705 AUGUSTA DR, HOMESTEAD, FL, 33035","Match","Exact","2705 AUGUSTA DR, HOMESTEAD, FL, 33035",116276941,"R"
147155,"2705 AUGUSTA LANE","ARLINGTON","TX",76012,32.7559167410001,-97.148447407,155,"2705 AUGUSTA LANE, ARLINGTON, TX, 76012","Match","Exact","2705 AUGUSTA LN, ARLINGTON, TX, 76012",101904892,"R"
147156,"2705 BEE CAVES ROAD SUITE 225","AUSTIN","TX",78746,30.269285068,-97.786186658,156,"2705 BEE CAVES ROAD SUITE 225, AUSTIN, TX, 78746","Match","Exact","2705 BEE CAVES RD, AUSTIN, TX, 78746",646518274,"L"
147157,"2705 BERING COURT","NOLENSVILLE","TN",37135,35.9596417130001,-86.697901924,157,"2705 BERING COURT, NOLENSVILLE, TN, 37135","Match","Exact","2705 BERING CT, NOLENSVILLE, TN, 37135",631976570,"L"
147158,"2705 COUNTRY VALLEY ROAD","GARLAND","TX",75043,32.8868153970001,-96.607887718,158,"2705 COUNTRY VALLEY ROAD, GARLAND, TX, 75043","Match","Exact","2705 COUNTRY VALLEY RD, GARLAND, TX, 75043",103206061,"R"
147159,"2705 DRIFTWOOD DR","MESQUITE","TX",75150,32.8124976710001,-96.639306313,159,"2705 DRIFTWOOD DR, MESQUITE, TX, 75150","Match","Exact","2705 DRIFTWOOD DR, MESQUITE, TX, 75150",102931947,"R"
147160,"2705 E CENTER RD","KOKOMO","IN",46902,40.4337490620001,-86.093881987,160,"2705 E CENTER RD, KOKOMO, IN, 46902","Match","Exact","2705 E CENTER RD, KOKOMO, IN, 46902",27285490,"R"
147161,"2705 EBENEZER RD","TOONE","TN",38381,35.3000792990001,-88.9111665789999,161,"2705 EBENEZER RD, TOONE, TN, 38381","Match","Exact","2705 EBENEZER RD, TOONE, TN, 38381",636643043,"R"
147162,"2705 FILBERT LANE","BOWIE","MD",20715,38.962939385,-76.7441605189999,162,"2705 FILBERT LANE, BOWIE, MD, 20715","Match","Exact","2705 FILBERT LN, BOWIE, MD, 20715",76327581,"R"
147163,"2705 FULLER ROAD","MINDEN","LA",71055,32.6717972660001,-93.421352683,163,"2705 FULLER ROAD, MINDEN, LA, 71055","Match","Exact","2705 FULLER RD, MINDEN, LA, 71055",73416155,"R"
147164,"2705 FULTON DRIVE NW","CANTON","OH",44718,40.826230815,-81.400991948,164,"2705 FULTON DRIVE NW, CANTON, OH, 44718","Match","Exact","2705 FULTON DR NW, CANTON, OH, 44718",64677501,"R"
147165,"2705 GEARTNER ROAD","BALTIMORE","MD",21209,39.3768942670001,-76.688056886,165,"2705 GEARTNER ROAD, BALTIMORE, MD, 21209","Match","Exact","2705 GEARTNER RD, BALTIMORE, MD, 21209",191471883,"L"
147166,"2705 GEORGIA DR","PERRYTON","TX",79070,36.373882456,-100.811193035,166,"2705 GEORGIA DR, PERRYTON, TX, 79070","Match","Exact","2705 GEORGIA DR, PERRYTON, TX, 79070",188008221,"R"
147167,"2705 HERRING AVENUE","WACO","TX",76708,31.561619985,-97.171799947,167,"2705 HERRING AVENUE, WACO, TX, 76708","Match","Exact","2705 HERRING AVE, WACO, TX, 76708",146734458,"R"
147168,"2705 HILLCREST RD","RICHMOND","VA",23225,37.522214752,-77.462868927,168,"2705 HILLCREST RD, RICHMOND, VA, 23225","Match","Exact","2705 HILLCREST RD, RICHMOND, VA, 23225",645562503,"R"
147169,"2705 HOMESTEAD RD APT 11","SANTA CLARA","CA",95051,37.339080175,-121.974691008,169,"2705 HOMESTEAD RD APT 11, SANTA CLARA, CA, 95051","Match","Exact","2705 HOMESTEAD RD, SANTA CLARA, CA, 95051",638614532,"R"
147170,"2705 K ST STE 1","SACRAMENTO","CA",95816,38.5730710510001,-121.470872829,170,"2705 K ST STE 1, SACRAMENTO, CA, 95816","Match","Exact","2705 K ST, SACRAMENTO, CA, 95816",133324916,"L"
147171,"2705 KAIMUKI AVE","HONOLULU","HI",96816,21.288256335,-157.81629059,171,"2705 KAIMUKI AVE, HONOLULU, HI, 96816","Match","Exact","2705 KAIMUKI AVE, HONOLULU, HI, 96816",652961245,"R"
147172,"2705 LUELLA AVE","DEER PARK","TX",77536,29.6882553180001,-95.1133156449999,172,"2705 LUELLA AVE, DEER PARK, TX, 77536","Match","Exact","2705 LUELLA AVE, DEER PARK, TX, 77536",96106315,"R"
147173,"2705 MAGAZINE STREET APT B","NEW ORLEANS","LA",70130,29.9266337290001,-90.0816942609999,173,"2705 MAGAZINE STREET APT B, NEW ORLEANS, LA, 70130","Match","Exact","2705 MAGAZINE ST, NEW ORLEANS, LA, 70130",191714057,"R"
147174,"2705 MALL OF GEORGIA BLVD APT 811","BUFORD","GA",30519,34.0623442290001,-83.972287406,174,"2705 MALL OF GEORGIA BLVD APT 811, BUFORD, GA, 30519","Match","Exact","2705 MALL OF GEORGIA BLVD, BUFORD, GA, 30519",633788640,"L"
147175,"2705 MALL OF GEORGIA BOULEVARD","BUFORD","GA",30519,34.0623442290001,-83.972287406,175,"2705 MALL OF GEORGIA BOULEVARD, BUFORD, GA, 30519","Match","Exact","2705 MALL OF GEORGIA BLVD, BUFORD, GA, 30519",633788640,"L"
147176,"2705 MARQUETTE BLVD","SOUTH BEND","IN",46628,41.6992352980001,-86.2876112339999,176,"2705 MARQUETTE BLVD, SOUTH BEND, IN, 46628","Match","Exact","2705 MARQUETTE BLVD, SOUTH BEND, IN, 46628",8052272,"R"
147177,"2705 MEADOW PARK DR APT A","BEDFORD","TX",76021,32.8495680710001,-97.132872903,177,"2705 MEADOW PARK DR APT A, BEDFORD, TX, 76021","Match","Exact","2705 MEADOW PARK DR, BEDFORD, TX, 76021",101870775,"L"
147178,"2705 MILL BAY RD STE 205","KODIAK","AK",99615,57.80988388,-152.364215488,178,"2705 MILL BAY RD STE 205, KODIAK, AK, 99615","Match","Exact","2705 MILL BAY RD, KODIAK, AK, 99615",645988538,"L"
147179,"2705 MLK AVENUE C","DICKINSON","TX",77539,29.4728497180001,-95.060148183,179,"2705 MLK AVENUE C, DICKINSON, TX, 77539","Match","Exact","2705 AVE C, DICKINSON, TX, 77539",96673467,"R"
147180,"2705 MORRIS AVE APT 2B","BRONX","NY",10468,40.867898423,-73.895642304,180,"2705 MORRIS AVE APT 2B, BRONX, NY, 10468","Match","Exact","2705 MORRIS AVE, BRONX, NY, 10468",80298707,"L"
147181,"2705 N RIVERSIDE DR","TAMPA","FL",33602,27.9670866930001,-82.474507275,181,"2705 N RIVERSIDE DR, TAMPA, FL, 33602","Match","Exact","2705 N RIVERSIDE DR, TAMPA, FL, 33602",104521152,"R"
147182,"2705 NARCISSUS DR","HOLIDAY","FL",34691,28.178821171,-82.7689508829999,182,"2705 NARCISSUS DR, HOLIDAY, FL, 34691","Match","Exact","2705 NARCISSUS DR, HOLIDAY, FL, 34691",86362110,"L"
147183,"2705 OAK AVENUE","NEWPORT NEWS","VA",23607,36.989713158,-76.404498313,183,"2705 OAK AVENUE, NEWPORT NEWS, VA, 23607","Match","Exact","2705 OAK AVE, NEWPORT NEWS, VA, 23607",103746662,"L"
147184,"2705 PEBBLE CREEK CT","COLUMBIA","MO",65201,38.924447925,-92.297883126,184,"2705 PEBBLE CREEK CT, COLUMBIA, MO, 65201","Match","Exact","2705 PEBBLE CREEK CT, COLUMBIA, MO, 65201",23492238,"R"
147185,"2705 PLACIDA RD","ENGLEWOOD","FL",34224,26.9159767090001,-82.328262525,185,"2705 PLACIDA RD, ENGLEWOOD, FL, 34224","Match","Exact","2705 PLACIDA RD, ENGLEWOOD, FL, 34224",4297820,"L"
147186,"2705 REED ROAD SUITE B","HOUSTON","TX",77051,29.657893189,-95.385640761,186,"2705 REED ROAD SUITE B, HOUSTON, TX, 77051","Match","Exact","2705 REED RD, HOUSTON, TX, 77051",638161394,"L"
147187,"2705 S LINCOLN ST","ENGLEWOOD","CO",80113,39.667478384,-104.986361218,187,"2705 S LINCOLN ST, ENGLEWOOD, CO, 80113","Match","Exact","2705 S LINCOLN ST, ENGLEWOOD, CO, 80113",177332975,"R"
147188,"2705 S MANCHESTER","INGLEWOOD","CA",90305,NA,NA,188,"2705 S MANCHESTER, INGLEWOOD, CA, 90305","No_Match",NA,NA,NA,NA
147189,"2705 S","PFLUGERVILLE","TX",78660,NA,NA,189,"2705 S, PFLUGERVILLE, TX, 78660","No_Match",NA,NA,NA,NA
147190,"2705 SANTA CRUZ STREET","ROUND ROCK","TX",78665,30.5528240730001,-97.619947439,190,"2705 SANTA CRUZ STREET, ROUND ROCK, TX, 78665","Match","Exact","2705 SANTA CRUZ ST, ROUND ROCK, TX, 78665",641107526,"L"
147191,"2705 SE ASH 3","PORTLAND","OR",97214,NA,NA,191,"2705 SE ASH 3, PORTLAND, OR, 97214","No_Match",NA,NA,NA,NA
147192,"2705 SE COUNTY RD 3110","CORSICANA","TX",75109,NA,NA,192,"2705 SE COUNTY RD 3110, CORSICANA, TX, 75109","No_Match",NA,NA,NA,NA
147193,"2705 SIR MICHAEL PLACE","GLENARDEN","MD",20706,38.92756045,-76.8461770919999,193,"2705 SIR MICHAEL PLACE, GLENARDEN, MD, 20706","Match","Exact","2705 SIR MICHAEL PL, GLENARDEN, MD, 20706",648061705,"R"
147194,"2705 SOUTHHILLS DRIVE","MISSOULA","MT",59803,46.8254508530001,-114.04550929,194,"2705 SOUTHHILLS DRIVE, MISSOULA, MT, 59803","Match","Exact","2705 SOUTHHILLS DR, MISSOULA, MT, 59803",624086744,"L"
147195,"2705 SUNSET LN","HENDERSON","KY",42420,37.876697801,-87.5729791099999,195,"2705 SUNSET LN, HENDERSON, KY, 42420","Match","Exact","2705 SUNSET LN, HENDERSON, KY, 42420",618415236,"R"
147196,"2705 TAYLOR ROAD","CHESAPEAKE","VA",23321,36.831669823,-76.414203345,196,"2705 TAYLOR ROAD, CHESAPEAKE, VA, 23321","Match","Exact","2705 TAYLOR RD, CHESAPEAKE, VA, 23321",642143399,"R"
147197,"2705 TIMBERGLEN DRIVE","WEXFORD","PA",15090,40.607228073,-80.0784171509999,197,"2705 TIMBERGLEN DRIVE, WEXFORD, PA, 15090","Match","Non_Exact","2705 TIMBERGLEN DR E, WEXFORD, PA, 15090",51696141,"L"
147198,"2705 VETERANS MEMORIAL PARKWAY","ST CHARLES","MO",63303,38.7804107360001,-90.517787367,198,"2705 VETERANS MEMORIAL PARKWAY, ST CHARLES, MO, 63303","Match","Exact","2705 VETERANS MEMORIAL PKWY, SAINT CHARLES, MO, 63303",641641432,"R"
147199,"2705 W  FIG ST","TAMPA","FL",33609,27.9477339270001,-82.487945265,199,"2705 W  FIG ST, TAMPA, FL, 33609","Match","Exact","2705 FIG ST, TAMPA, FL, 33609",104526580,"R"
147200,"2705 W MANCHESTER BLVD","INGLEWOOD","CA",90305,33.9600537330001,-118.3230416,200,"2705 W MANCHESTER BLVD, INGLEWOOD, CA, 90305","Match","Exact","2705 W MANCHESTER BLVD, INGLEWOOD, CA, 90305",640125182,"R"
147201,"2705 WEBSTER STREET SUITE 5885","BERKELEY","CA",94705,37.855824661,-122.252565292,201,"2705 WEBSTER STREET SUITE 5885, BERKELEY, CA, 94705","Match","Exact","2705 WEBSTER ST, BERKELEY, CA, 94705",606232183,"L"
147202,"2705 WEXFORD LANE","YORK","PA",17404,40.009733107,-76.7654565939999,202,"2705 WEXFORD LANE, YORK, PA, 17404","Match","Exact","2705 WEXFORD LN, YORK, PA, 17404",88755461,"L"
147203,"27051 ROBERT C LEE PARKWAY","SANTA CLARITA","CA",91350,NA,NA,203,"27051 ROBERT C LEE PARKWAY, SANTA CLARITA, CA, 91350","No_Match",NA,NA,NA,NA
147204,"27051 ROBERT C LEE PKWY","SANTA CLARITA","CA",91350,NA,NA,204,"27051 ROBERT C LEE PKWY, SANTA CLARITA, CA, 91350","No_Match",NA,NA,NA,NA
147205,"27055  ORCHARD LAKE RD B201","FARMINGTON HILLS","MI",48334,42.4930865700001,-83.358440545,205,"27055  ORCHARD LAKE RD B201, FARMINGTON HILLS, MI, 48334","Match","Exact","27055 ORCHARD LAKE RD, FARMINGTON HILLS, MI, 48334",635818032,"R"
147206,"27055 FAIRFAX ST","SOUTHFIELD","MI",48076,42.4889121690001,-83.205676341,206,"27055 FAIRFAX ST, SOUTHFIELD, MI, 48076","Match","Exact","27055 FAIRFAX ST, SOUTHFIELD, MI, 48076",69740006,"L"
147207,"27059 SILVER DR","PIONEER","CA",95666,38.4530617820001,-120.523569291,207,"27059 SILVER DR, PIONEER, CA, 95666","Match","Exact","27059 SILVER DR, PIONEER, CA, 95666",132724163,"L"
147208,"2706 60TH ST","LUBBOCK","TX",79413,33.539304212,-101.873720088,208,"2706 60TH ST, LUBBOCK, TX, 79413","Match","Exact","2706 60TH ST, LUBBOCK, TX, 79413",185253983,"R"
147209,"2706 BARTOW STREET","BRUNSWICK","GA",31520,31.16826422,-81.489318576,209,"2706 BARTOW STREET, BRUNSWICK, GA, 31520","Match","Exact","2706 BARTOW ST, BRUNSWICK, GA, 31520",9134159,"R"
147210,"2706 BLADENSBURG ROAD NE","WASHINGTON","DC",20018,38.924567354,-76.9660149979999,210,"2706 BLADENSBURG ROAD NE, WASHINGTON, DC, 20018","Match","Exact","2706 BLADENSBURG RD NE, WASHINGTON, DC, 20018",638239930,"L"
147211,"2706 CARRIAGE LANE","LINCOLNTON","NC",28092,35.531279983,-81.265399469,211,"2706 CARRIAGE LANE, LINCOLNTON, NC, 28092","Match","Exact","2706 CARRIAGE LN, LINCOLNTON, NC, 28092",69543956,"R"
147212,"2706 CASTLEWOOD CT SE","OLYMPIA","WA",98501,47.024863345,-122.858541401,212,"2706 CASTLEWOOD CT SE, OLYMPIA, WA, 98501","Match","Exact","2706 CASTLEWOOD CT SE, OLYMPIA, WA, 98501",180946895,"L"
147213,"2706 CLUBLAKE TRAIL","MCKINNEY","TX",75072,33.18150202,-96.6499822759999,213,"2706 CLUBLAKE TRAIL, MCKINNEY, TX, 75072","Match","Exact","2706 CLUBLAKE TRL, MCKINNEY, TX, 75072",123491318,"R"
147214,"2706 COLUMBINE DRIVE","DURANGO","CO",81301,37.2971384430001,-107.881141689,214,"2706 COLUMBINE DRIVE, DURANGO, CO, 81301","Match","Exact","2706 COLUMBINE DR, DURANGO, CO, 81301",91695583,"R"
147215,"2706 CREEKVIEW DRIVE","ARLINGTON","TX",76015,32.6998261210001,-97.17298764,215,"2706 CREEKVIEW DRIVE, ARLINGTON, TX, 76015","Match","Non_Exact","2706 CREEKVIEW DR, ARLINGTON, TX, 76016",101905933,"R"
147216,"2706 CROSS ROADS PLAZA DRIVE","COLUMBUS","OH",43219,40.026156309,-82.933266975,216,"2706 CROSS ROADS PLAZA DRIVE, COLUMBUS, OH, 43219","Match","Non_Exact","2706 CROSSROADS PLAZA DR, COLUMBUS, OH, 43219",637074954,"R"
147217,"2706 E MAIN STREET","MESA","AZ",85213,33.415449622,-111.773489673,217,"2706 E MAIN STREET, MESA, AZ, 85213","Match","Exact","2706 E MAIN ST, MESA, AZ, 85213",128246635,"L"
147218,"2706 E PERSHING BLVD","CHEYENNE","WY",82001,41.1456530930001,-104.779419405,218,"2706 E PERSHING BLVD, CHEYENNE, WY, 82001","Match","Exact","2706 E PERSHING BLVD, CHEYENNE, WY, 82001",160151611,"L"
147219,"2706 EDGEHILL DRIVE UNIT 1","LOS ANGELES","CA",90018,34.031913269,-118.328838505,219,"2706 EDGEHILL DRIVE UNIT 1, LOS ANGELES, CA, 90018","Match","Exact","2706 EDGEHILL DR, LOS ANGELES, CA, 90018",141602185,"L"
147220,"2706 GARDEN FALLS DR","MANVEL","TX",77578,29.5383242520001,-95.379262447,220,"2706 GARDEN FALLS DR, MANVEL, TX, 77578","Match","Exact","2706 GARDEN FALLS DR, MANVEL, TX, 77578",116643387,"R"
147221,"2706 HARRIS STREET","EAST POINT","GA",30344,33.6813871410001,-84.435563072,221,"2706 HARRIS STREET, EAST POINT, GA, 30344","Match","Exact","2706 HARRIS ST, EAST POINT, GA, 30344",17348109,"L"
147222,"2706 HOFFPAUIR ROAD","RAYNE","LA",70578,30.1475366810001,-92.226220524,222,"2706 HOFFPAUIR ROAD, RAYNE, LA, 70578","Match","Exact","2706 HOFFPAUIR RD, RAYNE, LA, 70578",627231504,"L"
147223,"2706 IDA ST","LIVE OAK","CA",95953,39.262259826,-121.6639584,223,"2706 IDA ST, LIVE OAK, CA, 95953","Match","Exact","2706 IDA ST, LIVE OAK, CA, 95953",633767992,"R"
147224,"2706 IVANDELL AVE","DALLAS","TX",75211,32.7366220440001,-96.863918944,224,"2706 IVANDELL AVE, DALLAS, TX, 75211","Match","Exact","2706 IVANDELL AVE, DALLAS, TX, 75211",102945120,"L"
147225,"2706 KERSHAW STREET","CHARLESTON","SC",29405,32.861343914,-79.998422311,225,"2706 KERSHAW STREET, CHARLESTON, SC, 29405","Match","Exact","2706 KERSHAW ST, CHARLESTON, SC, 29405",108801795,"L"
147226,"2706 KILDAIRE DRIVE","BALTIMORE","MD",21234,39.3673852790001,-76.556759528,226,"2706 KILDAIRE DRIVE, BALTIMORE, MD, 21234","Match","Exact","2706 KILDAIRE DR, BALTIMORE, MD, 21234",206410623,"L"
147227,"2706 KILIHAU ST  -  103","HONOLULU","HI",96819,21.3355826420001,-157.8981606,227,"2706 KILIHAU ST  -  103, HONOLULU, HI, 96819","Match","Exact","2706 KILIHAU ST, HONOLULU, HI, 96819",635040622,"R"
147228,"2706 KILIHAU ST  SUITE 3","HONOLULU","HI",96819,21.3355826420001,-157.8981606,228,"2706 KILIHAU ST  SUITE 3, HONOLULU, HI, 96819","Match","Exact","2706 KILIHAU ST, HONOLULU, HI, 96819",635040622,"R"
147229,"2706 LAKE VILLA DRIVE","MISSOURI CITY","TX",77459,29.5448812830001,-95.522900282,229,"2706 LAKE VILLA DRIVE, MISSOURI CITY, TX, 77459","Match","Exact","2706 LAKE VILLA DR, MISSOURI CITY, TX, 77459",641271951,"L"
147230,"2706 LIBERTY LANDING COURT","FLORISSANT","MO",63033,38.776413529,-90.266502534,230,"2706 LIBERTY LANDING COURT, FLORISSANT, MO, 63033","Match","Exact","2706 LIBERTY LANDING CT, FLORISSANT, MO, 63033",100183733,"R"
147231,"2706 MENNIFIELD CT","ALEXANDRIA","VA",22306,38.74291921,-77.078912378,231,"2706 MENNIFIELD CT, ALEXANDRIA, VA, 22306","Match","Non_Exact","2706 MENNIEFIELD CT, ALEXANDRIA, VA, 22306",76016477,"R"
147232,"2706 N BALTIMORE AVE","HASTINGS","NE",68901,40.612938576,-98.401479888,232,"2706 N BALTIMORE AVE, HASTINGS, NE, 68901","Match","Exact","2706 N BALTIMORE AVE, HASTINGS, NE, 68901",653881685,"R"
147233,"2706 N CHITWOOD WAY","BOISE","ID",83704,43.629539505,-116.268027158,233,"2706 N CHITWOOD WAY, BOISE, ID, 83704","Match","Exact","2706 CHITWOOD WAY, BOISE, ID, 83704",117857988,"R"
147234,"2706 NELSON STREET","MANISTEE","MI",49660,44.2205681450001,-86.304193482,234,"2706 NELSON STREET, MANISTEE, MI, 49660","Match","Exact","2706 NELSON ST, MANISTEE, MI, 49660",146023471,"L"
147235,"2706 QUENTIN AVENUE SOUTH","ST. LOUIS PARK","MN",55416,44.953641831,-93.342894149,235,"2706 QUENTIN AVENUE SOUTH, ST. LOUIS PARK, MN, 55416","Match","Non_Exact","2706 QUENTIN AVE, SAINT LOUIS PARK, MN, 55416",43620349,"R"
147236,"2706 RIDGEWAY ROAD","PELL CITY","AL",35128,33.5814872940001,-86.268504325,236,"2706 RIDGEWAY ROAD, PELL CITY, AL, 35128","Match","Non_Exact","2706 RIDGEWAY DR, PELL CITY, AL, 35128",66858285,"L"
147237,"2706 ROBE MENZEL RD","GRANITE FALLS","WA",98252,48.0207856530001,-121.931512487,237,"2706 ROBE MENZEL RD, GRANITE FALLS, WA, 98252","Match","Exact","2706 ROBE MENZEL RD, GRANITE FALLS, WA, 98252",187797738,"L"
147238,"2706 ROLLINGWOOD ROAD","PETERSBURG","VA",23805,37.1945901030001,-77.387053161,238,"2706 ROLLINGWOOD ROAD, PETERSBURG, VA, 23805","Match","Exact","2706 ROLLINGWOOD RD, PETERSBURG, VA, 23805",54152518,"R"
147239,"2706 SE YAMHILL STREET","PORTLAND","OR",97214,45.5157160520001,-122.637985197,239,"2706 SE YAMHILL STREET, PORTLAND, OR, 97214","Match","Exact","2706 SE YAMHILL ST, PORTLAND, OR, 97214",157509652,"R"
147240,"2706 SUNNYBROOK CT","SCHERERVILLE","IN",46375,41.472483062,-87.461291379,240,"2706 SUNNYBROOK CT, SCHERERVILLE, IN, 46375","Match","Non_Exact","2706 SUNNY BROOK CT, SCHERERVILLE, IN, 46375",98452139,"L"
147241,"2706 SW 13TH DR","DEERFIELD BEACH","FL",33442,26.2991108630001,-80.1408901409999,241,"2706 SW 13TH DR, DEERFIELD BEACH, FL, 33442","Match","Exact","2706 SW 13TH DR, DEERFIELD BEACH, FL, 33442",114740489,"L"
147242,"2706 TODD CIRCLE","DECATUR","AL",35603,34.57309422,-87.041986997,242,"2706 TODD CIRCLE, DECATUR, AL, 35603","Match","Non_Exact","2706 TODD CIR SW, DECATUR, AL, 35603",97156663,"R"
147243,"2706 TOLEDO STREET","PITTSBURGH","PA",15204,40.4516642300001,-80.053562703,243,"2706 TOLEDO STREET, PITTSBURGH, PA, 15204","Match","Exact","2706 TOLEDO ST, PITTSBURGH, PA, 15204",51622314,"R"
147244,"2706 TUPELO DRIVE","CHARLESTOWN","IN",47111,38.4824487600001,-85.669597439,244,"2706 TUPELO DRIVE, CHARLESTOWN, IN, 47111","Match","Exact","2706 TUPELO DR, CHARLESTOWN, IN, 47111",64918269,"L"
147245,"2706 WILD ROSE","WICHITA","KS",67205,NA,NA,245,"2706 WILD ROSE, WICHITA, KS, 67205","No_Match",NA,NA,NA,NA
147246,"27061 CRANFORD LANE","DEARBORN HEIGHTS","MI",48127,42.314939017,-83.306806087,246,"27061 CRANFORD LANE, DEARBORN HEIGHTS, MI, 48127","Match","Exact","27061 CRANFORD LN, DEARBORN HEIGHTS, MI, 48127",650889629,"L"
147247,"27067 STAMLIN CT","MORENO VALLEY","CA",92555,33.8946343470001,-117.19016155,247,"27067 STAMLIN CT, MORENO VALLEY, CA, 92555","Match","Exact","27067 STAMLIN CT, MORENO VALLEY, CA, 92555",619789811,"R"
147248,"27068 LA PAZ ROAD STE 150","ALISO VIEJO","CA",92656,33.564644672,-117.707646977,248,"27068 LA PAZ ROAD STE 150, ALISO VIEJO, CA, 92656","Match","Non_Exact","27068 LA PAZ RD, ALISO VIEJO, CA, 92656",653202412,"L"
147249,"2707 130TH ST SE","EVERETT","WA",98208,47.8796369610001,-122.196170727,249,"2707 130TH ST SE, EVERETT, WA, 98208","Match","Exact","2707 130TH ST SE, EVERETT, WA, 98208",606930413,"R"
147250,"2707 34TH STREET","LUBBOCK","TX",79410,33.563271609,-101.875394074,250,"2707 34TH STREET, LUBBOCK, TX, 79410","Match","Exact","2707 34TH ST, LUBBOCK, TX, 79410",185253386,"L"
147251,"2707 ALVAR DRIVE","HOUSTON","TX",77014,29.9667087450001,-95.463046415,251,"2707 ALVAR DRIVE, HOUSTON, TX, 77014","Match","Exact","2707 ALVAR DR, HOUSTON, TX, 77014",623998377,"L"
147252,"2707 AMBER FOREST TRAIL","BELTON","TX",76513,31.100767322,-97.481459607,252,"2707 AMBER FOREST TRAIL, BELTON, TX, 76513","Match","Exact","2707 AMBER FOREST TRL, BELTON, TX, 76513",146228683,"L"
147253,"2707 ANCIENT COURT","BOWIE","MD",20716,38.927133542,-76.731928727,253,"2707 ANCIENT COURT, BOWIE, MD, 20716","Match","Exact","2707 ANCIENT CT, BOWIE, MD, 20716",76328315,"L"
147254,"2707 AVON STREET","DALLAS","TX",75211,32.753979526,-96.865087837,254,"2707 AVON STREET, DALLAS, TX, 75211","Match","Exact","2707 AVON ST, DALLAS, TX, 75211",102944634,"R"
147255,"2707 BONITA CIRCLE","PALM SPRINGS","CA",92264,33.783084758,-116.539061089,255,"2707 BONITA CIRCLE, PALM SPRINGS, CA, 92264","Match","Exact","2707 BONITA CIR, PALM SPRINGS, CA, 92264",194762584,"R"
147256,"2707 BRECKENRIDGE STREET STE 1","OWENSBORO","KY",42303,37.7535002560001,-87.097649699,256,"2707 BRECKENRIDGE STREET STE 1, OWENSBORO, KY, 42303","Match","Exact","2707 BRECKENRIDGE ST, OWENSBORO, KY, 42303",37578724,"L"
147257,"2707 BUTLER PLACE","AUGUSTA","GA",30909,33.4959326790001,-82.034327021,257,"2707 BUTLER PLACE, AUGUSTA, GA, 30909","Match","Exact","2707 BUTLER PL, AUGUSTA, GA, 30909",55634149,"R"
147258,"2707 CLAYS ALLEY","TUCSON","AZ",85716,32.2737857480001,-110.931730696,258,"2707 CLAYS ALLEY, TUCSON, AZ, 85716","Match","Non_Exact","2707 E CLAYS ALY, TUCSON, AZ, 85716",121168422,"L"
147259,"2707 CONGER AVE NW","OLYMPIA","WA",98502,47.0515239010001,-122.939408859,259,"2707 CONGER AVE NW, OLYMPIA, WA, 98502","Match","Exact","2707 CONGER AVE NW, OLYMPIA, WA, 98502",180952073,"L"
147260,"2707 CR 247","MOULTON","TX",77975,29.5897331950001,-97.00695868,260,"2707 CR 247, MOULTON, TX, 77975","Match","Exact","2707 CO RD 247, MOULTON, TX, 77975",649167579,"R"
147261,"2707 CROPSEY AVENUE","BROOKLYN","NY",11214,40.5881844310001,-73.989749549,261,"2707 CROPSEY AVENUE, BROOKLYN, NY, 11214","Match","Exact","2707 CROPSEY AVE, BROOKLYN, NY, 11214",59089014,"L"
147262,"2707 DAFFODIL AVENUE","HUEYTOWN","AL",35023,33.4284033000001,-86.976458679,262,"2707 DAFFODIL AVENUE, HUEYTOWN, AL, 35023","Match","Exact","2707 DAFFODIL AVE, HUEYTOWN, AL, 35023",81548108,"R"
147263,"2707 DARBY BROOK DRIVE","FRESNO","TX",77545,29.545240628,-95.489537376,263,"2707 DARBY BROOK DRIVE, FRESNO, TX, 77545","Match","Exact","2707 DARBY BROOK DR, FRESNO, TX, 77545",624576739,"L"
147264,"2707 E RICH AVE","SPOKANE","WA",99207,47.6970585880001,-117.370564696,264,"2707 E RICH AVE, SPOKANE, WA, 99207","Match","Exact","2707 E RICH AVE, SPOKANE, WA, 99207",189879450,"L"
147265,"2707 E VALLEY BLVD STE 300","WEST COVINA","CA",91792,NA,NA,265,"2707 E VALLEY BLVD STE 300, WEST COVINA, CA, 91792","No_Match",NA,NA,NA,NA
147266,"2707 ELIZABETH ANN STREET","TEXARKANA","TX",75503,33.459306355,-94.10556966,266,"2707 ELIZABETH ANN STREET, TEXARKANA, TX, 75503","Match","Exact","2707 ELIZABETH ANN ST, TEXARKANA, TX, 75503",57667638,"L"
147267,"2707 FLORENCE STREET","DENVER","CO",80238,39.7556950260001,-104.871517834,267,"2707 FLORENCE STREET, DENVER, CO, 80238","Match","Non_Exact","2707 N FLORENCE ST, DENVER, CO, 80238",617526268,"L"
147268,"2707 GOLF AVE","RACINE","WI",53404,42.7529130880001,-87.8167309419999,268,"2707 GOLF AVE, RACINE, WI, 53404","Match","Exact","2707 GOLF AVE, RACINE, WI, 53404",647206596,"R"
147269,"2707 GRAHAM AVE","REDONDO BEACH","CA",90278,33.879427971,-118.362076104,269,"2707 GRAHAM AVE, REDONDO BEACH, CA, 90278","Match","Exact","2707 GRAHAM AVE, REDONDO BEACH, CA, 90278",141663135,"L"
147270,"2707 HIGHLAND BLVD","BOZEMAN","MT",59715,45.6532978010001,-111.021814013,270,"2707 HIGHLAND BLVD, BOZEMAN, MT, 59715","Match","Exact","2707 HIGHLAND BLVD, BOZEMAN, MT, 59715",640598827,"R"
147271,"2707 HIGHWAY 95","HATTIEVILLE","AR",72063,NA,NA,271,"2707 HIGHWAY 95, HATTIEVILLE, AR, 72063","No_Match",NA,NA,NA,NA
147272,"2707 HIPAWAI PLACE","HONOLULU","HI",96822,21.3046278950001,-157.811710656,272,"2707 HIPAWAI PLACE, HONOLULU, HI, 96822","Match","Exact","2707 HIPAWAI PL, HONOLULU, HI, 96822",624601117,"R"
147273,"2707 HOWARD DR","PINE BLUFF","AR",71603,34.203109414,-92.037731278,273,"2707 HOWARD DR, PINE BLUFF, AR, 71603","Match","Exact","2707 HOWARD DR, PINE BLUFF, AR, 71603",2567542,"L"
147274,"2707 HOWARD DRIVE","PINE BLUFF","AR",71603,34.203109414,-92.037731278,274,"2707 HOWARD DRIVE, PINE BLUFF, AR, 71603","Match","Exact","2707 HOWARD DR, PINE BLUFF, AR, 71603",2567542,"L"
147275,"2707 KELLY LANE","SALT LAKE CITY","UT",84117,40.667010518,-111.814899374,275,"2707 KELLY LANE, SALT LAKE CITY, UT, 84117","Match","Non_Exact","2707 E KELLY LN, SALT LAKE CITY, UT, 84117",176094731,"L"
147276,"2707 KIRKWOOD HWY","NEWARK","DE",19711,NA,NA,276,"2707 KIRKWOOD HWY, NEWARK, DE, 19711","No_Match",NA,NA,NA,NA
147277,"2707 MERLOT LANE","ANNAPOLIS","MD",21401,38.9736146550001,-76.558118796,277,"2707 MERLOT LANE, ANNAPOLIS, MD, 21401","Match","Exact","2707 MERLOT LN, ANNAPOLIS, MD, 21401",618261095,"L"
147278,"2707 N CLINTON STREET","FORT WAYNE","IN",46805,41.1005122770001,-85.1382094909999,278,"2707 N CLINTON STREET, FORT WAYNE, IN, 46805","Match","Exact","2707 N CLINTON ST, FORT WAYNE, IN, 46805",6378763,"L"
147279,"2707 NORTH MILDRED UNIT 1A","CHICAGO","IL",60614,41.931093661,-87.651371677,279,"2707 NORTH MILDRED UNIT 1A, CHICAGO, IL, 60614","Match","Non_Exact","2707 N MILDRED AVE, CHICAGO, IL, 60614",605237336,"R"
147280,"2707 NOTTHINGHAM LN APT I","MONROE","NC",28110,35.0154053380001,-80.576670787,280,"2707 NOTTHINGHAM LN APT I, MONROE, NC, 28110","Match","Non_Exact","2707 NOTTINGHAM LN, MONROE, NC, 28110",628794012,"L"
147281,"2707 OVERBROOK RD","CUYAHOGA FALLS","OH",44221,41.145989087,-81.467183674,281,"2707 OVERBROOK RD, CUYAHOGA FALLS, OH, 44221","Match","Exact","2707 OVERBROOK RD, CUYAHOGA FALLS, OH, 44221",61348838,"R"
147282,"2707 OVERCREST ST","DALLAS","TX",75211,32.7509913270001,-96.86392662,282,"2707 OVERCREST ST, DALLAS, TX, 75211","Match","Exact","2707 OVERCREST ST, DALLAS, TX, 75211",103196658,"R"
147283,"2707 PARKWAY PLACE","CHEVERLY","MD",20785,38.9233988350001,-76.912311213,283,"2707 PARKWAY PLACE, CHEVERLY, MD, 20785","Match","Exact","2707 PARKWAY PL, CHEVERLY, MD, 20785",76307792,"R"
147284,"2707 PINE GROVE ROAD","PARIS","KY",40361,NA,NA,284,"2707 PINE GROVE ROAD, PARIS, KY, 40361","No_Match",NA,NA,NA,NA
147285,"2707 POLLARD PIKE","NICHOLASVILLE","KY",40356,37.804205562,-84.5158561489999,285,"2707 POLLARD PIKE, NICHOLASVILLE, KY, 40356","Match","Exact","2707 POLLARD PIKE, NICHOLASVILLE, KY, 40356",635549357,"R"
147286,"2707 RAMBLER PLACE","ADELPHI","MD",20783,38.9922115520001,-76.9609481699999,286,"2707 RAMBLER PLACE, ADELPHI, MD, 20783","Match","Exact","2707 RAMBLER PL, ADELPHI, MD, 20783",76303591,"R"
147287,"2707 RIDGECREST DRIVE","CHATTANOOGA","TN",37406,35.077821333,-85.2364117069999,287,"2707 RIDGECREST DRIVE, CHATTANOOGA, TN, 37406","Match","Non_Exact","2707 RIDGE CREST DR, CHATTANOOGA, TN, 37406",605434106,"L"
147288,"2707 ROGLIANO LN","LEAGUE CITY","TX",77573,29.495701984,-95.0586294889999,288,"2707 ROGLIANO LN, LEAGUE CITY, TX, 77573","Match","Exact","2707 ROGLIANO LN, LEAGUE CITY, TX, 77573",650388943,"R"
147289,"2707 SAN LEANDRO BLVD APT 202","SAN LEANDRO","CA",94578,37.713773206,-122.144867599,289,"2707 SAN LEANDRO BLVD APT 202, SAN LEANDRO, CA, 94578","Match","Exact","2707 SAN LEANDRO BLVD, SAN LEANDRO, CA, 94578",606313870,"R"
147290,"2707 SANIBEL PL","GULF BREEZE","FL",32563,30.3867289180001,-87.1085988029999,290,"2707 SANIBEL PL, GULF BREEZE, FL, 32563","Match","Exact","2707 SANIBEL PL, GULF BREEZE, FL, 32563",74604193,"R"
147291,"2707 SOUTH MARKET ST","BRENHAM","TX",77833,30.146035866,-96.373804212,291,"2707 SOUTH MARKET ST, BRENHAM, TX, 77833","Match","Exact","2707 S MARKET ST, BRENHAM, TX, 77833",614554190,"R"
147292,"2707 SPRUCE STREET","BOULDER","CO",80302,40.0232029480001,-105.259503431,292,"2707 SPRUCE STREET, BOULDER, CO, 80302","Match","Exact","2707 SPRUCE ST, BOULDER, CO, 80302",188215895,"L"
147293,"2707 STATE ROUTE 7","FOWLER","OH",44418,41.2939945580001,-80.568387597,293,"2707 STATE ROUTE 7, FOWLER, OH, 44418","Match","Exact","2707 STATE RTE 7, FOWLER, OH, 44418",117398516,"R"
147294,"2707 SW WESTPORT DRIVE","TOPEKA","KS",66614,39.0174766390001,-95.757986682,294,"2707 SW WESTPORT DRIVE, TOPEKA, KS, 66614","Match","Exact","2707 SW WESTPORT DR, TOPEKA, KS, 66614",17884753,"R"
147295,"2707 W AGATITE","CHICAGO","IL",60625,41.9621798580001,-87.695738177,295,"2707 W AGATITE, CHICAGO, IL, 60625","Match","Non_Exact","2707 W AGATITE AVE, CHICAGO, IL, 60625",605153754,"L"
147296,"2707 W CARY ST","RICHMOND","VA",23221,37.551228258,-77.475261782,296,"2707 W CARY ST, RICHMOND, VA, 23221","Match","Non_Exact","2707 W CARY ST, RICHMOND, VA, 23220",610882635,"L"
147297,"2707 W MARKET STREET","LOUISVILLE","KY",40212,38.2597300630001,-85.795822469,297,"2707 W MARKET STREET, LOUISVILLE, KY, 40212","Match","Exact","2707 W MARKET ST, LOUISVILLE, KY, 40212",96841439,"R"
147298,"2707","CENTENNIAL","CO",80161,NA,NA,298,"2707, CENTENNIAL, CO, 80161","No_Match",NA,NA,NA,NA
147299,"27072 CHERRY WILLOW DRIVE","CANYON COUNTRY","CA",91387,34.4069754760001,-118.437779842,299,"27072 CHERRY WILLOW DRIVE, CANYON COUNTRY, CA, 91387","Match","Exact","27072 CHERRY WILLOW DR, CANYON COUNTRY, CA, 91387",624423076,"L"
147300,"27074 COUNTY ROAD 20","ELKHART","IN",46517,41.654370844,-85.986546032,300,"27074 COUNTY ROAD 20, ELKHART, IN, 46517","Match","Exact","27074 CO RD 20, ELKHART, IN, 46517",7752142,"L"
147301,"27075 W KENSINGTON CT","BARRINGTON","IL",60010,42.213516875,-88.162989479,301,"27075 W KENSINGTON CT, BARRINGTON, IL, 60010","Match","Exact","27075 W KENSINGTON CT, BARRINGTON, IL, 60010",119667987,"R"
147302,"27078 LA PAZ ROAD SUITE 150","ALISO VIEJO","CA",92656,33.5643276970001,-117.707676506,302,"27078 LA PAZ ROAD SUITE 150, ALISO VIEJO, CA, 92656","Match","Non_Exact","27078 LA PAZ RD, ALISO VIEJO, CA, 92656",653202412,"L"
147303,"27078 N LAKE RD","SLEEPY EYE","MN",56085,44.311687846,-94.7327655989999,303,"27078 N LAKE RD, SLEEPY EYE, MN, 56085","Match","Exact","27078 N LAKE RD, SLEEPY EYE, MN, 56085",28567840,"R"
147304,"2708 33RD ST SE","WASHINGTON","DC",20020,38.857155365,-76.960180104,304,"2708 33RD ST SE, WASHINGTON, DC, 20020","Match","Exact","2708 33RD ST SE, WASHINGTON, DC, 20020",76232918,"L"
147305,"2708 ANTONE PKWY","LOUISVILLE","KY",40220,38.2055066250001,-85.600842187,305,"2708 ANTONE PKWY, LOUISVILLE, KY, 40220","Match","Exact","2708 ANTONE PKWY, LOUISVILLE, KY, 40220",640117125,"L"
147306,"2708 BLOSSUM DRIVE APT B","AUGUSTA","GA",30906,33.4245867400001,-82.080840764,306,"2708 BLOSSUM DRIVE APT B, AUGUSTA, GA, 30906","Match","Non_Exact","2708 BLOSSOM DR, AUGUSTA, GA, 30906",55658567,"R"
147307,"2708 BUILD AMERICA DRIVE","HAMPTON","VA",23666,37.042066984,-76.4010660719999,307,"2708 BUILD AMERICA DRIVE, HAMPTON, VA, 23666","Match","Exact","2708 BUILD AMERICA DR, HAMPTON, VA, 23666",103803803,"R"
147308,"2708 CAPLIS SLIGO PLANTATION DRIVE","BOSSIER CITY","LA",71112,32.4483735750001,-93.587673179,308,"2708 CAPLIS SLIGO PLANTATION DRIVE, BOSSIER CITY, LA, 71112","Match","Exact","2708 CAPLIS SLIGO PLANTATION DR, BOSSIER CITY, LA, 71112",624154219,"L"
147309,"2708 CHINKAPIN CT","HARVEY","LA",70058,29.852993886,-90.076726057,309,"2708 CHINKAPIN CT, HARVEY, LA, 70058","Match","Exact","2708 CHINKAPIN CT, HARVEY, LA, 70058",93509817,"R"
147310,"2708 COHN GARDEN LANE","HOUSTON","TX",77007,29.7828451180001,-95.4237766799999,310,"2708 COHN GARDEN LANE, HOUSTON, TX, 77007","Match","Non_Exact","2708 COHN GARDEN DR, HOUSTON, TX, 77007",645183954,"R"
147311,"2708 CYPRESS LAWN DRIVE","MARRERO","LA",70072,29.861457382,-90.090139731,311,"2708 CYPRESS LAWN DRIVE, MARRERO, LA, 70072","Match","Exact","2708 CYPRESS LAWN DR, MARRERO, LA, 70072",93509215,"R"
147312,"2708 E MELISSA ST","WEST COVINA","CA",91792,34.0305723560001,-117.892652802,312,"2708 E MELISSA ST, WEST COVINA, CA, 91792","Match","Exact","2708 MELISSA ST, WEST COVINA, CA, 91792",141716614,"R"
147313,"2708 E SPRING ST","TUCSON","AZ",85716,32.2514143590001,-110.93210213,313,"2708 E SPRING ST, TUCSON, AZ, 85716","Match","Exact","2708 E SPRING ST, TUCSON, AZ, 85716",121408214,"R"
147314,"2708 EAST THOMAS CIRCLE","SIOUX FALLS","SD",57103,43.5121337240001,-96.691503708,314,"2708 EAST THOMAS CIRCLE, SIOUX FALLS, SD, 57103","Match","Exact","2708 E THOMAS CIR, SIOUX FALLS, SD, 57103",34981960,"L"
147315,"2708 FROBERG RD","VALPARAISO","IN",46385,NA,NA,315,"2708 FROBERG RD, VALPARAISO, IN, 46385","No_Match",NA,NA,NA,NA
147316,"2708 GALESHEAD DRIVE","UPPER MARLBORO","MD",20774,38.851580449,-76.7328684399999,316,"2708 GALESHEAD DRIVE, UPPER MARLBORO, MD, 20774","Match","Exact","2708 GALESHEAD DR, UPPER MARLBORO, MD, 20774",76417310,"L"
147317,"2708 GARY ROAD","ROCKY MOUNT","NC",27803,35.9127051,-77.822489757,317,"2708 GARY ROAD, ROCKY MOUNT, NC, 27803","Match","Exact","2708 GARY RD, ROCKY MOUNT, NC, 27803",90390803,"R"
147318,"2708 GINGER COVE LN","PEARLAND","TX",77584,29.5614302550001,-95.4388589499999,318,"2708 GINGER COVE LN, PEARLAND, TX, 77584","Match","Exact","2708 GINGER COVE LN, PEARLAND, TX, 77584",635193352,"L"
147319,"2708 HEBRON AVE APT B","ZION","IL",60099,42.445993489,-87.846420721,319,"2708 HEBRON AVE APT B, ZION, IL, 60099","Match","Exact","2708 HEBRON AVE, ZION, IL, 60099",119627694,"R"
147320,"2708 HOLLY DR","BETTENDORF","IA",52722,41.549577094,-90.517432831,320,"2708 HOLLY DR, BETTENDORF, IA, 52722","Match","Exact","2708 HOLLY DR, BETTENDORF, IA, 52722",122711006,"L"
147321,"2708 JUDY DRIVE","MESQUITE","TX",75149,32.7873101280001,-96.637110548,321,"2708 JUDY DRIVE, MESQUITE, TX, 75149","Match","Exact","2708 JUDY DR, MESQUITE, TX, 75149",102932259,"L"
147322,"2708 KINSLEY PLACE","RALEIGH","NC",27616,35.899559762,-78.510888935,322,"2708 KINSLEY PLACE, RALEIGH, NC, 27616","Match","Exact","2708 KINSLEY PL, RALEIGH, NC, 27616",612827633,"R"
147323,"2708 KRISTEN COURT","CONYERS","GA",30012,33.71312506,-84.0080935889999,323,"2708 KRISTEN COURT, CONYERS, GA, 30012","Match","Exact","2708 KRISTEN CT, CONYERS, GA, 30012",615297654,"L"
147324,"2708 LEGACY CT","BARTLESVILLE","OK",74006,36.710824637,-95.943061095,324,"2708 LEGACY CT, BARTLESVILLE, OK, 74006","Match","Exact","2708 LEGACY CT, BARTLESVILLE, OK, 74006",645550722,"L"
147325,"2708 MCCOMAS AVE","KENSINGTON","MD",20895,39.032682385,-77.055959877,325,"2708 MCCOMAS AVE, KENSINGTON, MD, 20895","Match","Exact","2708 MCCOMAS AVE, KENSINGTON, MD, 20895",62090266,"L"
147326,"2708 MOGADORE RD","AKRON","OH",44312,41.0600185960001,-81.4329874169999,326,"2708 MOGADORE RD, AKRON, OH, 44312","Match","Exact","2708 MOGADORE RD, AKRON, OH, 44312",61392694,"R"
147327,"2708 MONTEZUMA DR","EMPORIA","KS",66801,38.4288862230001,-96.2026295489999,327,"2708 MONTEZUMA DR, EMPORIA, KS, 66801","Match","Exact","2708 MONTEZUMA DR, EMPORIA, KS, 66801",10957309,"R"
147328,"2708 N MARSHFIELD AVE UNIT 1","CHICAGO","IL",60614,41.930645187,-87.6695565859999,328,"2708 N MARSHFIELD AVE UNIT 1, CHICAGO, IL, 60614","Match","Non_Exact","2708 N MARSHFIELD AVE, CHICAGO, IL, 60614",605235507,"L"
147329,"2708 OLD BRANDON RD","PEARL","MS",39208,32.27825768,-90.1226594569999,329,"2708 OLD BRANDON RD, PEARL, MS, 39208","Match","Exact","2708 OLD BRANDON RD, PEARL, MS, 39208",116904729,"L"
147330,"2708 OLD IRONSIDE DRIVE","CHARLOTTE","NC",28213,35.2846335570001,-80.739316641,330,"2708 OLD IRONSIDE DRIVE, CHARLOTTE, NC, 28213","Match","Exact","2708 OLD IRONSIDE DR, CHARLOTTE, NC, 28213",70558046,"L"
147331,"2708 PILLSBURY ROAD","CHICO","CA",95973,39.7649129500001,-121.846883985,331,"2708 PILLSBURY ROAD, CHICO, CA, 95973","Match","Exact","2708 PILLSBURY RD, CHICO, CA, 95973",640586273,"R"
147332,"2708 SANDALWOOD CIRCLE","LOCUST GROVE","GA",30248,33.3371420190001,-84.181598767,332,"2708 SANDALWOOD CIRCLE, LOCUST GROVE, GA, 30248","Match","Exact","2708 SANDALWOOD CIR, LOCUST GROVE, GA, 30248",619924970,"L"
147333,"2708 SCHOFIELD CT","PLANO","TX",75093,33.0357494260001,-96.7842985359999,333,"2708 SCHOFIELD CT, PLANO, TX, 75093","Match","Exact","2708 SCHOFIELD CT, PLANO, TX, 75093",123531923,"L"
147334,"2708 SEALARK LANE","MILTON","FL",32583,30.5366793250001,-87.119557349,334,"2708 SEALARK LANE, MILTON, FL, 32583","Match","Exact","2708 SEALARK LN, MILTON, FL, 32583",74580343,"R"
147335,"2708 SHEFFIELD DR","INDIANAPOLIS","IN",46229,39.80744201,-85.98302538,335,"2708 SHEFFIELD DR, INDIANAPOLIS, IN, 46229","Match","Exact","2708 SHEFFIELD DR, INDIANAPOLIS, IN, 46229",108012907,"L"
147336,"2708 SOUTH RIVER ROAD UNIT 21","ST GEORGE","UT",84790,37.062980962,-113.545173642,336,"2708 SOUTH RIVER ROAD UNIT 21, ST GEORGE, UT, 84790","Match","Exact","2708 S RIVER RD, SAINT GEORGE, UT, 84790",607587841,"L"
147337,"2708 SPRINGBROOK RD","RAPID CITY","SD",57701,44.0415237780001,-103.264511396,337,"2708 SPRINGBROOK RD, RAPID CITY, SD, 57701","Match","Non_Exact","2708 SPRINGBROOK RD, RAPID CITY, SD, 57702",205508126,"R"
147338,"2708 TIMBERPEG CT","CONWAY","AR",72034,35.0802344320001,-92.468773949,338,"2708 TIMBERPEG CT, CONWAY, AR, 72034","Match","Exact","2708 TIMBERPEG CT, CONWAY, AR, 72034",141053109,"L"
147339,"2708 TOWERGATE COURT APARTMENT 9","WINSTON-SALEM","NC",27106,36.163306424,-80.3110586339999,339,"2708 TOWERGATE COURT APARTMENT 9, WINSTON-SALEM, NC, 27106","Match","Exact","2708 TOWERGATE CT, WINSTON SALEM, NC, 27106",84698442,"L"
147340,"2708 W MADISON CIRCLE","ANAHEIM","CA",92801,33.836431899,-117.977898198,340,"2708 W MADISON CIRCLE, ANAHEIM, CA, 92801","Match","Exact","2708 W MADISON CIR, ANAHEIM, CA, 92801",647297890,"R"
147341,"2708 W TEMPLE","CHANDLER","AZ",85224,33.333282475,-111.888013066,341,"2708 W TEMPLE, CHANDLER, AZ, 85224","Match","Non_Exact","2708 W TEMPLE ST, CHANDLER, AZ, 85224",128240126,"R"
147342,"2708 W THOMAS ST UNIT 1","CHICAGO","IL",60622,41.9011333070001,-87.6947934729999,342,"2708 W THOMAS ST UNIT 1, CHICAGO, IL, 60622","Match","Non_Exact","2708 W THOMAS ST, CHICAGO, IL, 60622",605065976,"R"
147343,"2708 WILSHIRE BLVD 427","SANTA MONICA","CA",90403,34.0371632320001,-118.476010248,343,"2708 WILSHIRE BLVD 427, SANTA MONICA, CA, 90403","Match","Exact","2708 WILSHIRE BLVD, SANTA MONICA, CA, 90403",241239410,"R"
147344,"2708 WILSHIRE BLVD NUM 369","SANTA MONICA","CA",90403,34.0371632320001,-118.476010248,344,"2708 WILSHIRE BLVD NUM 369, SANTA MONICA, CA, 90403","Match","Exact","2708 WILSHIRE BLVD, SANTA MONICA, CA, 90403",241239410,"R"
147345,"2708 WILSHIRE BLVD STE 369","LOS ANGELES","CA",90403,34.0371632320001,-118.476010248,345,"2708 WILSHIRE BLVD STE 369, LOS ANGELES, CA, 90403","Match","Non_Exact","2708 WILSHIRE BLVD, SANTA MONICA, CA, 90403",241239410,"R"
147346,"2708 WILSHIRE BLVD UNIT 134","SANTA MONICA","CA",90403,34.0371632320001,-118.476010248,346,"2708 WILSHIRE BLVD UNIT 134, SANTA MONICA, CA, 90403","Match","Exact","2708 WILSHIRE BLVD, SANTA MONICA, CA, 90403",241239410,"R"
147347,"2708 WILSHIRE BLVD","SANTA MONICA","CA",90403,34.0371632320001,-118.476010248,347,"2708 WILSHIRE BLVD, SANTA MONICA, CA, 90403","Match","Exact","2708 WILSHIRE BLVD, SANTA MONICA, CA, 90403",241239410,"R"
147348,"2708 WILSHIRE BOULEVARD NUMBER 369","SANTA MONICA","CA",90403,34.0371632320001,-118.476010248,348,"2708 WILSHIRE BOULEVARD NUMBER 369, SANTA MONICA, CA, 90403","Match","Exact","2708 WILSHIRE BLVD, SANTA MONICA, CA, 90403",241239410,"R"
147349,"2708 ZANE AVENUE NORTH","CRYSTAL","MN",55422,45.007460338,-93.355006723,349,"2708 ZANE AVENUE NORTH, CRYSTAL, MN, 55422","Match","Exact","2708 ZANE AVE N, CRYSTAL, MN, 55422",43618603,"R"
147350,"27081 32 MILE ROAD","RICHMOND","MI",48062,42.8071110910001,-82.844637979,350,"27081 32 MILE ROAD, RICHMOND, MI, 48062","Match","Exact","27081 32 MILE RD, RICHMOND, MI, 48062",110723957,"L"
147351,"27083 TUNNEY TERRACE","PUNTA GORDA","FL",33983,NA,NA,351,"27083 TUNNEY TERRACE, PUNTA GORDA, FL, 33983","No_Match",NA,NA,NA,NA
147352,"27086 WATERSIDE DRIVE","OLMSTED TOWNSHIP","OH",44138,41.3567311080001,-81.9405592859999,352,"27086 WATERSIDE DRIVE, OLMSTED TOWNSHIP, OH, 44138","Match","Exact","27086 WATERSIDE DR, OLMSTED TWP, OH, 44138",617273788,"R"
147353,"27089 HIGHLAND RD NE","KINGSTON","WA",98346,47.8077572350001,-122.552355257,353,"27089 HIGHLAND RD NE, KINGSTON, WA, 98346","Match","Exact","27089 HIGHLAND RD NE, KINGSTON, WA, 98346",187662552,"L"
147354,"2709 23RD STREET","SACRAMENTO","CA",95818,38.5554699410001,-121.484714559,354,"2709 23RD STREET, SACRAMENTO, CA, 95818","Match","Exact","2709 23RD ST, SACRAMENTO, CA, 95818",133324474,"L"
147355,"2709 77TH BLVD","BROOKLYN PARK","MN",55444,45.097808141,-93.3153305169999,355,"2709 77TH BLVD, BROOKLYN PARK, MN, 55444","Match","Non_Exact","2709 77TH BLVD N, BROOKLYN PARK, MN, 55444",43829755,"R"
147356,"2709 ALLENDALE ROAD","BALTIMORE","MD",21216,39.318296205,-76.680551227,356,"2709 ALLENDALE ROAD, BALTIMORE, MD, 21216","Match","Exact","2709 ALLENDALE RD, BALTIMORE, MD, 21216",206413089,"R"
147357,"2709 BERWYCK RD SE","EAST GRAND RAPIDS","MI",49506,42.9323300090001,-85.6016173199999,357,"2709 BERWYCK RD SE, EAST GRAND RAPIDS, MI, 49506","Match","Exact","2709 BERWYCK RD SE, EAST GRAND RAPIDS, MI, 49506",12482736,"L"
147358,"2709 CAMELOT DRIVE","OKLAHOMA CITY","OK",73120,35.588949922,-97.5670904089999,358,"2709 CAMELOT DRIVE, OKLAHOMA CITY, OK, 73120","Match","Exact","2709 CAMELOT DR, OKLAHOMA CITY, OK, 73120",100392573,"R"
147359,"2709 CHURCH ROAD","SAUQUOIT","NY",13456,42.9932177040001,-75.245474117,359,"2709 CHURCH ROAD, SAUQUOIT, NY, 13456","Match","Exact","2709 CHURCH RD, SAUQUOIT, NY, 13456",171519868,"L"
147360,"2709 CONEY ISLAND AVENUE SUITE 303","BROOKLYN","NY",11234,40.590544745,-73.960591709,360,"2709 CONEY ISLAND AVENUE SUITE 303, BROOKLYN, NY, 11234","Match","Non_Exact","2709 CONEY ISLAND AVE, BROOKLYN, NY, 11235",59091058,"L"
147361,"2709 CRAWFORDVILLE HWY225","CRAWFORDVILLE","FL",32327,30.189595894,-84.372978341,361,"2709 CRAWFORDVILLE HWY225, CRAWFORDVILLE, FL, 32327","Match","Non_Exact","2709 CRAWFORDVILLE HWY, CRAWFORDVILLE, FL, 32327",610435148,"R"
147362,"2709 E 10TH ST","BLOOMINGTON","IN",47408,39.17155688,-86.502115185,362,"2709 E 10TH ST, BLOOMINGTON, IN, 47408","Match","Exact","2709 E 10TH ST, BLOOMINGTON, IN, 47408",42332531,"L"
147363,"2709 E 37TH STREET","DAVENPORT","IA",52807,41.557621807,-90.535820706,363,"2709 E 37TH STREET, DAVENPORT, IA, 52807","Match","Exact","2709 E 37TH ST, DAVENPORT, IA, 52807",122709179,"R"
147364,"2709 EAST BRAGSTAD DRIVE","SIOUX FALLS","SD",57103,43.527328594,-96.693260047,364,"2709 EAST BRAGSTAD DRIVE, SIOUX FALLS, SD, 57103","Match","Exact","2709 E BRAGSTAD DR, SIOUX FALLS, SD, 57103",34974495,"R"
147365,"2709 EDGEHILL DRIVE  APT 10","LOS ANGELES","CA",90018,34.0319098570001,-118.328856257,365,"2709 EDGEHILL DRIVE  APT 10, LOS ANGELES, CA, 90018","Match","Exact","2709 EDGEHILL DR, LOS ANGELES, CA, 90018",141602185,"R"
147366,"2709 FOUNTAINVIEW DR","CORINTH","TX",76210,33.137746043,-97.058129989,366,"2709 FOUNTAINVIEW DR, CORINTH, TX, 76210","Match","Exact","2709 FOUNTAINVIEW DR, CORINTH, TX, 76210",103363256,"L"
147367,"2709 GENTRY DRIVE","DOUGLASVILLE","GA",30135,33.73269464,-84.7009254009999,367,"2709 GENTRY DRIVE, DOUGLASVILLE, GA, 30135","Match","Exact","2709 GENTRY DR, DOUGLASVILLE, GA, 30135",618478594,"L"
147368,"2709 HADEN AVE","RICHMOND","VA",23234,37.47728134,-77.445492131,368,"2709 HADEN AVE, RICHMOND, VA, 23234","Match","Exact","2709 HADEN AVE, RICHMOND, VA, 23234",201546617,"R"
147369,"2709 HASTINGS DR","TALLAHASSEE","FL",32303,30.50390099,-84.338919118,369,"2709 HASTINGS DR, TALLAHASSEE, FL, 32303","Match","Exact","2709 HASTINGS DR, TALLAHASSEE, FL, 32303",82847236,"L"
147370,"2709 HOLLYWELL COURT","BOWIE","MD",20721,38.9270098870001,-76.83840036,370,"2709 HOLLYWELL COURT, BOWIE, MD, 20721","Match","Non_Exact","2709 HOLLWELL CT, BOWIE, MD, 20721",634470998,"R"
147371,"2709 HOUSE RD","KETTLE FALLS","WA",99141,48.8111167390001,-118.144433907,371,"2709 HOUSE RD, KETTLE FALLS, WA, 99141","Match","Exact","2709 HOUSE RD, KETTLE FALLS, WA, 99141",635356003,"R"
147372,"2709 KENT DRIVE","OKLAHOMA CITY","OK",73120,35.572910881,-97.563727511,372,"2709 KENT DRIVE, OKLAHOMA CITY, OK, 73120","Match","Exact","2709 KENT DR, OKLAHOMA CITY, OK, 73120",100393001,"R"
147373,"2709 KING DR","TIFTON","GA",31794,31.437424955,-83.513323825,373,"2709 KING DR, TIFTON, GA, 31794","Match","Exact","2709 KING DR, TIFTON, GA, 31794",87774134,"R"
147374,"2709 LEGISLATIVE LANE","BUFORD","GA",30519,34.1102020020001,-83.8804683399999,374,"2709 LEGISLATIVE LANE, BUFORD, GA, 30519","Match","Exact","2709 LEGISLATIVE LN, BUFORD, GA, 30519",618453891,"L"
147375,"2709 LOCUST ST APT 3K","SAINT LOUIS","MO",63103,38.6346799560001,-90.216404948,375,"2709 LOCUST ST APT 3K, SAINT LOUIS, MO, 63103","Match","Exact","2709 LOCUST ST, SAINT LOUIS, MO, 63103",107598112,"R"
147376,"2709 MARIPOSA DRIVE","BURLINGAME","CA",94010,37.5857158490001,-122.393060316,376,"2709 MARIPOSA DRIVE, BURLINGAME, CA, 94010","Match","Exact","2709 MARIPOSA DR, BURLINGAME, CA, 94010",192375087,"L"
147377,"2709 MEADOW LAKE DR","ABILENE","TX",79606,NA,NA,377,"2709 MEADOW LAKE DR, ABILENE, TX, 79606","No_Match",NA,NA,NA,NA
147378,"2709 MEADOW RIDGE DRIVE","SAINT JOSEPH","MO",64504,39.710915566,-94.826925591,378,"2709 MEADOW RIDGE DRIVE, SAINT JOSEPH, MO, 64504","Match","Exact","2709 MEADOW RIDGE DR, SAINT JOSEPH, MO, 64504",15964590,"L"
147379,"2709 MEDICAL OFFICE PLACE","GOLDSBORO","NC",27534,35.401109863,-77.955640993,379,"2709 MEDICAL OFFICE PLACE, GOLDSBORO, NC, 27534","Match","Exact","2709 MEDICAL OFFICE PL, GOLDSBORO, NC, 27534",14424733,"R"
147380,"2709 OAK PARK COURT","TALLAHASSEE","FL",32308,30.4978563600001,-84.2326769969999,380,"2709 OAK PARK COURT, TALLAHASSEE, FL, 32308","Match","Exact","2709 OAK PARK CT, TALLAHASSEE, FL, 32308",82883968,"L"
147381,"2709 PARKVIEW LANE / 313","BEDFORD","TX",76022,32.830252923,-97.1217668739999,381,"2709 PARKVIEW LANE / 313, BEDFORD, TX, 76022","Match","Exact","2709 PARKVIEW LN, BEDFORD, TX, 76022",101918911,"L"
147382,"2709 PEMBROKE DR","PANAMA CITY","FL",32405,30.1980441900001,-85.660047247,382,"2709 PEMBROKE DR, PANAMA CITY, FL, 32405","Match","Exact","2709 PEMBROKE DR, PANAMA CITY, FL, 32405",7041865,"R"
147383,"2709 PINE STREET","SAGINAW","MI",48604,43.4429300410001,-83.946371563,383,"2709 PINE STREET, SAGINAW, MI, 48604","Match","Exact","2709 PINE ST, SAGINAW, MI, 48604",80227314,"L"
147384,"2709 PURPLE THISTLE DR","PFLUGERVILLE","TX",78724,30.4889886130001,-97.562351139,384,"2709 PURPLE THISTLE DR, PFLUGERVILLE, TX, 78724","Match","Non_Exact","2709 PURPLE THISTLE DR, PFLUGERVILLE, TX, 78660",617952375,"L"
147385,"2709 S 108TH DR","AVONDALE","AZ",85323,33.4221541740001,-112.29315241,385,"2709 S 108TH DR, AVONDALE, AZ, 85323","Match","Exact","2709 S 108TH DR, AVONDALE, AZ, 85323",128871340,"R"
147386,"2709 SCHOFIELD COURT","PLANO","TX",75093,33.0357498110001,-96.7843116069999,386,"2709 SCHOFIELD COURT, PLANO, TX, 75093","Match","Exact","2709 SCHOFIELD CT, PLANO, TX, 75093",123531923,"R"
147387,"2709 SE 97TH ST","MOORE","OK",73160,35.37083217,-97.463931851,387,"2709 SE 97TH ST, MOORE, OK, 73160","Match","Exact","2709 SE 97TH ST, MOORE, OK, 73160",99963078,"L"
147388,"2709 SHADY HILL CT","GRAPEVINE","TX",76051,32.9012508270001,-97.1053552719999,388,"2709 SHADY HILL CT, GRAPEVINE, TX, 76051","Match","Exact","2709 SHADY HILL CT, GRAPEVINE, TX, 76051",101933151,"R"
147389,"2709 SUNNY SKY LN SW","ALBUQUERQUE","NM",87121,35.0385232180001,-106.741756648,389,"2709 SUNNY SKY LN SW, ALBUQUERQUE, NM, 87121","Match","Exact","2709 SUNNY SKY LN SW, ALBUQUERQUE, NM, 87121",614096714,"R"
147390,"2709 SUNSET LANE","YORK","PA",17408,39.9693459150001,-76.811401342,390,"2709 SUNSET LANE, YORK, PA, 17408","Match","Exact","2709 SUNSET LN, YORK, PA, 17408",649990565,"R"
147391,"2709 SW 139TH STREET","OKLAHOMA CITY","OK",73170,35.328934481,-97.5612828389999,391,"2709 SW 139TH STREET, OKLAHOMA CITY, OK, 73170","Match","Exact","2709 SW 139TH ST, OKLAHOMA CITY, OK, 73170",627469735,"L"
147392,"2709 VAUCLUSE ROAD","AIKEN","SC",29801,33.566902597,-81.733529431,392,"2709 VAUCLUSE ROAD, AIKEN, SC, 29801","Match","Exact","2709 VAUCLUSE RD, AIKEN, SC, 29801",652380616,"R"
147393,"2709 VERONA CT","EDMOND","OK",73034,35.6477302060001,-97.444146254,393,"2709 VERONA CT, EDMOND, OK, 73034","Match","Exact","2709 VERONA CT, EDMOND, OK, 73034",606128080,"L"
147394,"2709 W 81ST STREET","INGLEWOOD","CA",90305,33.965683078,-118.322938745,394,"2709 W 81ST STREET, INGLEWOOD, CA, 90305","Match","Exact","2709 W 81ST ST, INGLEWOOD, CA, 90305",141655532,"R"
147395,"2709 W LONE ROCK CIRCLE","CEDAR CITY","UT",84720,37.6732107350001,-113.102600879,395,"2709 W LONE ROCK CIRCLE, CEDAR CITY, UT, 84720","Match","Exact","2709 W LONE ROCK CIR, CEDAR CITY, UT, 84720",634236028,"L"
147396,"2709 W ROOSEVELT RD","CHICAGO","IL",60608,41.8665369870001,-87.69374292,396,"2709 W ROOSEVELT RD, CHICAGO, IL, 60608","Match","Exact","2709 W ROOSEVELT RD, CHICAGO, IL, 60608",642123409,"L"
147397,"2709 WALNUT STREET","WEST DES MOINES","IA",50265,41.575158742,-93.741347113,397,"2709 WALNUT STREET, WEST DES MOINES, IA, 50265","Match","Exact","2709 WALNUT ST, W DES MOINES, IA, 50265",65796664,"L"
147398,"2709 WHITBY LANE","GRAPEVINE","TX",76051,32.8938355170001,-97.1082810569999,398,"2709 WHITBY LANE, GRAPEVINE, TX, 76051","Match","Exact","2709 WHITBY LN, GRAPEVINE, TX, 76051",102110483,"R"
147399,"2709 WHITE SETTLEMENT RD","WEATHERFORD","TX",76087,32.78049967,-97.718083031,399,"2709 WHITE SETTLEMENT RD, WEATHERFORD, TX, 76087","Match","Exact","2709 WHITE SETTLEMENT RD, WEATHERFORD, TX, 76087",103603813,"R"
147400,"2709 WORCHESTER ST","AURORA","CO",80011,39.755129971,-104.830078056,400,"2709 WORCHESTER ST, AURORA, CO, 80011","Match","Exact","2709 WORCHESTER ST, AURORA, CO, 80011",177351232,"L"
147401,"27094 RIDGEVIEW SPRINGS RD","HOT SPRINGS","SD",57747,43.4780552830001,-103.451876213,401,"27094 RIDGEVIEW SPRINGS RD, HOT SPRINGS, SD, 57747","Match","Exact","27094 RIDGEVIEW SPRINGS RD, HOT SPRINGS, SD, 57747",636624015,"R"
147402,"27095 25 MILE ROAD","CHESTERFIELD","MI",48051,42.7037271930001,-82.8376635129999,402,"27095 25 MILE ROAD, CHESTERFIELD, MI, 48051","Match","Exact","27095 25 MILE RD, CHESTERFIELD, MI, 48051",110664817,"L"
147403,"27097 MONARCH WOODS DRIVE","KINGWOOD","TX",77339,30.054529722,-95.2337219079999,403,"27097 MONARCH WOODS DRIVE, KINGWOOD, TX, 77339","Match","Exact","27097 MONARCH WOODS DR, KINGWOOD, TX, 77339",627919889,"R"
147404,"271 17TH STREET NW STE 530","ATLANTA","GA",30363,33.7912873920001,-84.3957253789999,404,"271 17TH STREET NW STE 530, ATLANTA, GA, 30363","Match","Non_Exact","271 17TH ST, ATLANTA, GA, 30363",618356145,"R"
147405,"271 269 LEHIGH AVE","PALMERTON","PA",18071,40.8000796860001,-75.610709503,405,"271 269 LEHIGH AVE, PALMERTON, PA, 18071","Match","Exact","269 LEHIGH AVE, PALMERTON, PA, 18071",80622246,"L"
147406,"271 ADAIR DR","RICHLAND","WA",99352,46.2435002300001,-119.273114477,406,"271 ADAIR DR, RICHLAND, WA, 99352","Match","Exact","271 ADAIR DR, RICHLAND, WA, 99352",175002917,"R"
147407,"271 ASHLIN MEADOW LANE NE","CLEVELAND","TN",37312,35.2188006370001,-84.816111119,407,"271 ASHLIN MEADOW LANE NE, CLEVELAND, TN, 37312","Match","Non_Exact","271 ASHLIN MEADOW LN, CLEVELAND, TN, 37312",623981999,"L"
147408,"271 AVENUE C APT 7G","NEW YORK","NY",10009,40.729748564,-73.9748206049999,408,"271 AVENUE C APT 7G, NEW YORK, NY, 10009","Match","Exact","271 AVE C, NEW YORK, NY, 10009",59654785,"L"
147409,"271 BEAVERKILL ROAD","KINGSTON","NY",12401,41.933978059,-74.183014552,409,"271 BEAVERKILL ROAD, KINGSTON, NY, 12401","Match","Exact","271 BEAVERKILL RD, KINGSTON, NY, 12401",41931205,"L"
147410,"271 BEDFORD LANE","VOLO","IL",60073,42.3260473060001,-88.140848977,410,"271 BEDFORD LANE, VOLO, IL, 60073","Match","Exact","271 BEDFORD LN, VOLO, IL, 60073",601202532,"R"
147411,"271 BELLA VISTA TERRACE","MCDONOUGH","GA",30253,33.4686753400001,-84.1322234359999,411,"271 BELLA VISTA TERRACE, MCDONOUGH, GA, 30253","Match","Exact","271 BELLA VISTA TER, MCDONOUGH, GA, 30253",619918190,"R"
147412,"271 BELLE VUE LANE","SUGAR GROVE","IL",60554,41.776608271,-88.4298729719999,412,"271 BELLE VUE LANE, SUGAR GROVE, IL, 60554","Match","Exact","271 BELLE VUE LN, SUGAR GROVE, IL, 60554",119558631,"R"
147413,"271 C C CAMP RD LOT 6","COOKEVILLE","TN",38501,36.1594068910001,-85.5350884819999,413,"271 C C CAMP RD LOT 6, COOKEVILLE, TN, 38501","Match","Exact","271 C C CAMP RD, COOKEVILLE, TN, 38501",25141358,"L"
147414,"271 CADMAN PLAZA E 24891","BROOKLYN","NY",11202,40.6960416920001,-73.990034053,414,"271 CADMAN PLAZA E 24891, BROOKLYN, NY, 11202","Match","Non_Exact","271 CADMAN PLZ E, BROOKLYN, NY, 11201",641018518,"L"
147415,"271 CENTRAL AVENUE","ALBANY","NY",12206,42.663409207,-73.770893768,415,"271 CENTRAL AVENUE, ALBANY, NY, 12206","Match","Exact","271 CENTRAL AVE, ALBANY, NY, 12206",18310061,"R"
147416,"271 COMMERCIAL DR","BUDA","TX",78610,30.06811652,-97.832682011,416,"271 COMMERCIAL DR, BUDA, TX, 78610","Match","Exact","271 COMMERCIAL DR, BUDA, TX, 78610",63842810,"L"
147417,"271 COUNTY ROAD 31","FLORISSANT","CO",80816,38.965544886,-105.32996245,417,"271 COUNTY ROAD 31, FLORISSANT, CO, 80816","Match","Exact","271 CO RD 31, FLORISSANT, CO, 80816",653323113,"R"
147418,"271 CREEDON CIR","ALAMEDA","CA",94502,37.74309184,-122.260708855,418,"271 CREEDON CIR, ALAMEDA, CA, 94502","Match","Exact","271 CREEDON CIR, ALAMEDA, CA, 94502",125053953,"L"
147419,"271 CROWE DAIRY ROAD","FOREST CITY","NC",28043,35.3262640820001,-81.921254572,419,"271 CROWE DAIRY ROAD, FOREST CITY, NC, 28043","Match","Exact","271 CROWE DAIRY RD, FOREST CITY, NC, 28043",639995001,"R"
147420,"271 DANIEL RD","VILLA RICA","GA",30180,33.718168103,-84.9234288819999,420,"271 DANIEL RD, VILLA RICA, GA, 30180","Match","Exact","271 DANIEL RD, VILLA RICA, GA, 30180",17125993,"L"
147421,"271 DUNSMUIR AVENUE","VENTURA","CA",93004,34.2788331130001,-119.183450783,421,"271 DUNSMUIR AVENUE, VENTURA, CA, 93004","Match","Exact","271 DUNSMUIR AVE, VENTURA, CA, 93004",109956604,"R"
147422,"271 EAST 43RD ST","BROOKLYN","NY",11203,40.649210408,-73.93689889,422,"271 EAST 43RD ST, BROOKLYN, NY, 11203","Match","Exact","271 E 43RD ST, BROOKLYN, NY, 11203",59081897,"L"
147423,"271 EDGEWOOD AVE","WATERBURY","CT",6706,41.536561772,-73.02271301,423,"271 EDGEWOOD AVE, WATERBURY, CT, 6706","Match","Exact","271 EDGEWOOD AVE, WATERBURY, CT, 06706",3730649,"L"
147424,"271 ELEUTHERA DRIVE","LAKE ALFRED","FL",33850,28.115397484,-81.7242188229999,424,"271 ELEUTHERA DRIVE, LAKE ALFRED, FL, 33850","Match","Exact","271 ELEUTHERA DR, LAKE ALFRED, FL, 33850",650061023,"L"
147425,"271 EUSTON ROAD","GARDEN CITY","NY",11530,40.7340380250001,-73.6618566929999,425,"271 EUSTON ROAD, GARDEN CITY, NY, 11530","Match","Exact","271 EUSTON RD, GARDEN CITY, NY, 11530",147671694,"R"
147426,"271 FISH FRY DRIVE","ST JOHN","VI",830,NA,NA,426,"271 FISH FRY DRIVE, ST JOHN, VI, 830","No_Match",NA,NA,NA,NA
147427,"271 FOREST AVENUE","GLEN ELLYN","IL",60137,41.8692090440001,-88.06462786,427,"271 FOREST AVENUE, GLEN ELLYN, IL, 60137","Match","Exact","271 FOREST AVE, GLEN ELLYN, IL, 60137",112530138,"R"
147428,"271 GALLOWAY ROAD","STAMPING GROUND","KY",40379,38.237487452,-84.65311074,428,"271 GALLOWAY ROAD, STAMPING GROUND, KY, 40379","Match","Exact","271 GALLOWAY RD, STAMPING GROUND, KY, 40379",41241085,"L"
147429,"271 GASSAWAY MAIN ST","LIBERTY","TN",37095,35.9388586850001,-85.995428924,429,"271 GASSAWAY MAIN ST, LIBERTY, TN, 37095","Match","Exact","271 GASSAWAY MAIN ST, LIBERTY, TN, 37095",87946399,"R"
147430,"271 GATES AVENUE","JERSEY CITY","NJ",7305,40.695665595,-74.100185322,430,"271 GATES AVENUE, JERSEY CITY, NJ, 7305","Match","Exact","271 GATES AVE, JERSEY CITY, NJ, 07305",641143870,"L"
147431,"271 GLENLYON DRIVE","ORANGE PARK","FL",32073,30.173656286,-81.7521920359999,431,"271 GLENLYON DRIVE, ORANGE PARK, FL, 32073","Match","Exact","271 GLENLYON DR, ORANGE PARK, FL, 32073",83813912,"L"
147432,"271 GODDARD AVENUE","BROOKLINE","MA",2445,42.3143333370001,-71.137608555,432,"271 GODDARD AVENUE, BROOKLINE, MA, 2445","Match","Exact","271 GODDARD AVE, BROOKLINE, MA, 02445",87294973,"R"
147433,"271 GREEN PASTURE RD","NAPLES","ID",83847,48.5734049340001,-116.387140912,433,"271 GREEN PASTURE RD, NAPLES, ID, 83847","Match","Exact","271 GREEN PASTURE RD, NAPLES, ID, 83847",169231035,"R"
147434,"271 HOFFMEISTER ROAD","SAINT HELEN","MI",48656,44.337886428,-84.406309488,434,"271 HOFFMEISTER ROAD, SAINT HELEN, MI, 48656","Match","Non_Exact","271 HOFFMIESTER RD, SAINT HELEN, MI, 48656",617092909,"L"
147435,"271 LAKE SHORE DR","BOLINGBROOK","IL",60440,41.6959542860001,-88.0629471729999,435,"271 LAKE SHORE DR, BOLINGBROOK, IL, 60440","Match","Exact","271 LAKE SHORE DR, BOLINGBROOK, IL, 60440",607940021,"L"
147436,"271 LEHIGH AVE P O BOX140","PALMERTON","PA",18071,40.8000978950001,-75.610662608,436,"271 LEHIGH AVE P O BOX140, PALMERTON, PA, 18071","Match","Exact","271 LEHIGH AVE, PALMERTON, PA, 18071",80622246,"L"
147437,"271 LEISURE CIRCLE","HENDERSON","NV",89074,36.04748585,-115.073652561,437,"271 LEISURE CIRCLE, HENDERSON, NV, 89074","Match","Exact","271 LEISURE CIR, HENDERSON, NV, 89074",201915816,"R"
147438,"271 LINCOLN AVE","RIDGEWOOD","NJ",7451,NA,NA,438,"271 LINCOLN AVE, RIDGEWOOD, NJ, 7451","No_Match",NA,NA,NA,NA
147439,"271 LONG POND RD","DANVILLE","NH",3819,42.9182912590001,-71.098845566,439,"271 LONG POND RD, DANVILLE, NH, 3819","Match","Exact","271 LONG POND RD, DANVILLE, NH, 03819",643189252,"L"
147440,"271 MADISON AVENUE 20TH FL","NY","NY",10016,40.7512506240001,-73.980412304,440,"271 MADISON AVENUE 20TH FL, NY, NY, 10016","Match","Exact","271 MADISON AVE, NEW YORK, NY, 10016",59658659,"R"
147441,"271 MAIN STREET","SACO","ME",4072,43.498385892,-70.445244654,441,"271 MAIN STREET, SACO, ME, 4072","Match","Exact","271 MAIN ST, SACO, ME, 04072",92741514,"R"
147442,"271 MAR VISTA DR","VISTA","CA",92083,33.1804219590001,-117.226408467,442,"271 MAR VISTA DR, VISTA, CA, 92083","Match","Exact","271 MAR VISTA DR, VISTA, CA, 92083",195721443,"R"
147443,"271 MARIGOLD ROAD","POCAHONTAS","AR",72455,36.2862709720001,-91.049558218,443,"271 MARIGOLD ROAD, POCAHONTAS, AR, 72455","Match","Non_Exact","271 MARIGOLD LN, POCAHONTAS, AR, 72455",52389047,"L"
147444,"271 MARSTON ROAD","WHITINSVILLE","MA",1588,NA,NA,444,"271 MARSTON ROAD, WHITINSVILLE, MA, 1588","No_Match",NA,NA,NA,NA
147445,"271 MERVINE STREET","POTTSTOWN","PA",19464,40.2649796310001,-75.630287998,445,"271 MERVINE STREET, POTTSTOWN, PA, 19464","Match","Exact","271 MERVINE ST, POTTSTOWN, PA, 19464",135131648,"L"
147446,"271 MILL STREET","OAK HILL","OH",45656,38.8974813300001,-82.572939766,446,"271 MILL STREET, OAK HILL, OH, 45656","Match","Exact","271 MILL ST, OAK HILL, OH, 45656",54777689,"L"
147447,"271 MUNGER LN APT 32","HANNIBAL","MO",63401,39.7177480570001,-91.4005527479999,447,"271 MUNGER LN APT 32, HANNIBAL, MO, 63401","Match","Exact","271 MUNGER LN, HANNIBAL, MO, 63401",648777975,"L"
147448,"271 N CROSSLANE RD","MONROE","GA",30656,33.897506779,-83.7779755239999,448,"271 N CROSSLANE RD, MONROE, GA, 30656","Match","Non_Exact","271 N CROSS LANE RD, MONROE, GA, 30656",647918504,"R"
147449,"271 OAKMONT ST","CHESNEE","SC",29323,35.100637309,-81.952690393,449,"271 OAKMONT ST, CHESNEE, SC, 29323","Match","Exact","271 OAKMONT ST, CHESNEE, SC, 29323",19458179,"L"
147450,"271 OCEAN AVENUE APT 2R","JERSEY CITY","NJ",7305,40.6968341190001,-74.0886839309999,450,"271 OCEAN AVENUE APT 2R, JERSEY CITY, NJ, 7305","Match","Exact","271 OCEAN AVE, JERSEY CITY, NJ, 07305",59603348,"L"
147451,"271 PURVIS ROAD","RAYVILLE","LA",71269,32.4145730070001,-91.842309353,451,"271 PURVIS ROAD, RAYVILLE, LA, 71269","Match","Exact","271 PURVIS RD, RAYVILLE, LA, 71269",71215114,"L"
147452,"271 RIDGE VIEW DR","BERKELEY SPRINGS","WV",25411,39.6435454250001,-78.19309643,452,"271 RIDGE VIEW DR, BERKELEY SPRINGS, WV, 25411","Match","Exact","271 RIDGE VIEW DR, BERKELEY SPRINGS, WV, 25411",652045494,"L"
147453,"271 ROUTE 46 WEST SUITE B101","FAIRFIELD","NJ",7004,NA,NA,453,"271 ROUTE 46 WEST SUITE B101, FAIRFIELD, NJ, 7004","No_Match",NA,NA,NA,NA
147454,"271 ROUTE 59","SPRING VALLEY","NY",10977,41.1095913520001,-74.047755302,454,"271 ROUTE 59, SPRING VALLEY, NY, 10977","Match","Non_Exact","271 STATE RTE 59, SPRING VALLEY, NY, 10977",124594163,"L"
147455,"271 ROXBURY STREET","KEENE","NH",3431,42.9360385050001,-72.268693066,455,"271 ROXBURY STREET, KEENE, NH, 3431","Match","Exact","271 ROXBURY ST, KEENE, NH, 03431",124051136,"R"
147456,"271 SAN DIMAS AVENUE","OCEANSIDE","CA",92057,33.223315857,-117.321598872,456,"271 SAN DIMAS AVENUE, OCEANSIDE, CA, 92057","Match","Exact","271 SAN DIMAS AVE, OCEANSIDE, CA, 92057",195284736,"R"
147457,"271 SECOND STREET","SOUTH AMBOY","NJ",8879,40.483996711,-74.284583791,457,"271 SECOND STREET, SOUTH AMBOY, NJ, 8879","Match","Exact","271 2ND ST, SOUTH AMBOY, NJ, 08879",60284156,"L"
147458,"271 SHERMAN AVENUE","LEXINGTON","KY",40502,38.0324381020001,-84.47234739,458,"271 SHERMAN AVENUE, LEXINGTON, KY, 40502","Match","Exact","271 SHERMAN AVE, LEXINGTON, KY, 40502",31926933,"L"
147459,"271 SHIRLEY SQUARE SE","LEEESBURG","VA",20175,39.0978452150001,-77.554220465,459,"271 SHIRLEY SQUARE SE, LEEESBURG, VA, 20175","Match","Non_Exact","271 SHIRLEY SQ SE, LEESBURG, VA, 20175",649919933,"L"
147460,"271 SHREWSBURY STREET","WORCESTER","MA",1604,42.2679659350001,-71.781533634,460,"271 SHREWSBURY STREET, WORCESTER, MA, 1604","Match","Exact","271 SHREWSBURY ST, WORCESTER, MA, 01604",40014067,"R"
147461,"271 SUNSHINE DR","SAINT AUGUSTINE","FL",32086,29.7846016660001,-81.321926751,461,"271 SUNSHINE DR, SAINT AUGUSTINE, FL, 32086","Match","Exact","271 SUNSHINE DR, SAINT AUGUSTINE, FL, 32086",651763424,"R"
147462,"271 SW PALM DRIVE APT 304","PORT SAINT LUCIE","FL",34986,27.314939064,-80.388392342,462,"271 SW PALM DRIVE APT 304, PORT SAINT LUCIE, FL, 34986","Match","Non_Exact","271 SW PALM DR, PORT ST LUCIE, FL, 34986",610719787,"L"
147463,"271 TAHOE DRIVE","CHICAGO HEIGHTS","IL",60411,41.531848246,-87.6536289429999,463,"271 TAHOE DRIVE, CHICAGO HEIGHTS, IL, 60411","Match","Exact","271 TAHOE DR, CHICAGO HEIGHTS, IL, 60411",111710065,"R"
147464,"271 TONAWANDA DRIVE SE","ATLANTA","GA",30315,33.6845036730001,-84.3858050969999,464,"271 TONAWANDA DRIVE SE, ATLANTA, GA, 30315","Match","Exact","271 TONAWANDA DR SE, ATLANTA, GA, 30315",17349953,"R"
147465,"271 VALLEY DRIVE","HERMOSA BEACH","CA",90254,33.857663271,-118.394493304,465,"271 VALLEY DRIVE, HERMOSA BEACH, CA, 90254","Match","Exact","271 VALLEY DR, HERMOSA BEACH, CA, 90254",141583243,"L"
147466,"271 W 126TH STREET - NUMBER 3","NEW YORK","NY",10027,40.8104805670001,-73.949800914,466,"271 W 126TH STREET - NUMBER 3, NEW YORK, NY, 10027","Match","Non_Exact","271 W 126TH ST, NEW YORK, NY, 10027",59661832,"R"
147467,"271 W TAMICO DR","IMPERIAL","CA",92251,NA,NA,467,"271 W TAMICO DR, IMPERIAL, CA, 92251","No_Match",NA,NA,NA,NA
147468,"271 WASHINGTON STREEY","RAHWAY","NJ",7065,40.6066093760001,-74.270342317,468,"271 WASHINGTON STREEY, RAHWAY, NJ, 7065","Match","Non_Exact","271 WASHINGTON ST, RAHWAY, NJ, 07065",60562803,"R"
147469,"271 WEDGEWOOD RD","SOUTHINGTON","CT",6489,41.6133145090001,-72.83646924,469,"271 WEDGEWOOD RD, SOUTHINGTON, CT, 6489","Match","Exact","271 WEDGEWOOD RD, SOUTHINGTON, CT, 06489",648640193,"R"
147470,"271 WEST SHORT STREET SUITE 600","LEXINGTON","KY",40507,38.0484024940001,-84.4979335,470,"271 WEST SHORT STREET SUITE 600, LEXINGTON, KY, 40507","Match","Exact","271 W SHORT ST, LEXINGTON, KY, 40507",31941812,"R"
147471,"271 WILSON WELCH ROAD","MENDENHALL","MS",39114,31.9100205410001,-89.909822413,471,"271 WILSON WELCH ROAD, MENDENHALL, MS, 39114","Match","Exact","271 WILSON WELCH RD, MENDENHALL, MS, 39114",539664,"L"
147472,"271 WORTMAN AVENUE 7M","BROOKLYN","NY",11207,40.6577601860001,-73.883113725,472,"271 WORTMAN AVENUE 7M, BROOKLYN, NY, 11207","Match","Exact","271 WORTMAN AVE, BROOKLYN, NY, 11207",59098155,"L"
147473,"271-05 80TH AVENUE","NEW HYDE PARK","NY",11040,40.7469290970001,-73.701434814,473,"271-05 80TH AVENUE, NEW HYDE PARK, NY, 11040","Match","Exact","271-5 80TH AVE, NEW HYDE PARK, NY, 11040",59724934,"L"
147474,"2710 21ST AVE S","SEATTLE","WA",98144,47.5787707810001,-122.30536022,474,"2710 21ST AVE S, SEATTLE, WA, 98144","Match","Exact","2710 21ST AVE S, SEATTLE, WA, 98144",186593753,"L"
147475,"2710 5TH ST SW","LEHIGH ACRES","FL",33976,26.608572484,-81.667878147,475,"2710 5TH ST SW, LEHIGH ACRES, FL, 33976","Match","Exact","2710 5TH ST SW, LEHIGH ACRES, FL, 33976",117987404,"R"
147476,"2710 61ST STREET WEST","LEHIGH ACRES","FL",33971,26.6730025590001,-81.670492194,476,"2710 61ST STREET WEST, LEHIGH ACRES, FL, 33971","Match","Exact","2710 61ST ST W, LEHIGH ACRES, FL, 33971",118029775,"L"
147477,"2710 ABBEY GROVE DRIVE","VALRICO","FL",33594,27.9219647690001,-82.241190632,477,"2710 ABBEY GROVE DRIVE, VALRICO, FL, 33594","Match","Exact","2710 ABBEY GROVE DR, VALRICO, FL, 33594",629904436,"R"
147478,"2710 ALBANS RD","HOUSTON","TX",77005,29.7239418180001,-95.420479023,478,"2710 ALBANS RD, HOUSTON, TX, 77005","Match","Exact","2710 ALBANS RD, HOUSTON, TX, 77005",96063259,"R"
147479,"2710 ALPINE BLVD O-343","ALPINE","CA",91901,32.8345971480001,-116.755313072,479,"2710 ALPINE BLVD O-343, ALPINE, CA, 91901","Match","Exact","2710 ALPINE BLVD, ALPINE, CA, 91901",641903574,"L"
147480,"2710 ALPINE BLVD UNIT O-114","ALPINE","CA",91901,32.8345971480001,-116.755313072,480,"2710 ALPINE BLVD UNIT O-114, ALPINE, CA, 91901","Match","Exact","2710 ALPINE BLVD, ALPINE, CA, 91901",641903574,"L"
147481,"2710 ARKANSAS BLVD","TEXARKANA","AR",71854,33.4604983070001,-94.013655178,481,"2710 ARKANSAS BLVD, TEXARKANA, AR, 71854","Match","Exact","2710 ARKANSAS BLVD, TEXARKANA, AR, 71854",636199804,"R"
147482,"2710 BRANTLEY BLVD","NAPLES","FL",34117,26.1849038770001,-81.660098051,482,"2710 BRANTLEY BLVD, NAPLES, FL, 34117","Match","Exact","2710 BRANTLEY BLVD, NAPLES, FL, 34117",619125494,"L"
147483,"2710 BROADWAY NORTH","FARGO","ND",58102,46.911316277,-96.787381029,483,"2710 BROADWAY NORTH, FARGO, ND, 58102","Match","Non_Exact","2710 BROADWAY, FARGO, ND, 58102",151473753,"L"
147484,"2710 BYINGTON SOLWAY RD","KNOXVILLE","TN",37931,35.9675102320001,-84.127907856,484,"2710 BYINGTON SOLWAY RD, KNOXVILLE, TN, 37931","Match","Exact","2710 BYINGTON SOLWAY RD, KNOXVILLE, TN, 37931",639219029,"L"
147485,"2710 BYINGTON SOLWAY ROAD","KNOXVILLE","TN",37931,35.9675102320001,-84.127907856,485,"2710 BYINGTON SOLWAY ROAD, KNOXVILLE, TN, 37931","Match","Exact","2710 BYINGTON SOLWAY RD, KNOXVILLE, TN, 37931",639219029,"L"
147486,"2710 CAMPBELL STREET","SANDUSKY","OH",44870,41.4269964010001,-82.7041395529999,486,"2710 CAMPBELL STREET, SANDUSKY, OH, 44870","Match","Exact","2710 CAMPBELL ST, SANDUSKY, OH, 44870",55340527,"R"
147487,"2710 CHANNING WAY","BERKELEY","CA",94704,37.867546702,-122.253925826,487,"2710 CHANNING WAY, BERKELEY, CA, 94704","Match","Exact","2710 CHANNING WAY, BERKELEY, CA, 94704",124998544,"R"
147488,"2710 CHEROKEE HILLS DRIVE","BARTLESVILLE","OK",74006,36.735530612,-95.947369088,488,"2710 CHEROKEE HILLS DRIVE, BARTLESVILLE, OK, 74006","Match","Exact","2710 CHEROKEE HILLS DR, BARTLESVILLE, OK, 74006",18708731,"R"
147489,"2710 COMMERCE ST","MARBLE FALLS","TX",78654,30.59766532,-98.268290409,489,"2710 COMMERCE ST, MARBLE FALLS, TX, 78654","Match","Exact","2710 COMMERCE ST, MARBLE FALLS, TX, 78654",146492446,"L"
147490,"2710 CONCH HOLLOW DRIVE","BRANDON","FL",33511,27.902676211,-82.301415603,490,"2710 CONCH HOLLOW DRIVE, BRANDON, FL, 33511","Match","Exact","2710 CONCH HOLLOW DR, BRANDON, FL, 33511",611789699,"R"
147491,"2710 CROOKED PINE LANE","ELGIN","SC",29045,34.1515235750001,-80.804268511,491,"2710 CROOKED PINE LANE, ELGIN, SC, 29045","Match","Exact","2710 CROOKED PINE LN, ELGIN, SC, 29045",615785509,"L"
147492,"2710 CROW CANYON ROAD NUMBER 1024","SAN RAMON","CA",94583,37.773991944,-121.985013954,492,"2710 CROW CANYON ROAD NUMBER 1024, SAN RAMON, CA, 94583","Match","Exact","2710 CROW CANYON RD, SAN RAMON, CA, 94583",192065694,"L"
147493,"2710 CUNNINGHAM RD UNIT 2102","KILLEEN","TX",76542,31.084101397,-97.71249907,493,"2710 CUNNINGHAM RD UNIT 2102, KILLEEN, TX, 76542","Match","Exact","2710 CUNNINGHAM RD, KILLEEN, TX, 76542",619907789,"L"
147494,"2710 E 10TH ST","TUCSON","AZ",85716,32.222778874,-110.932150711,494,"2710 E 10TH ST, TUCSON, AZ, 85716","Match","Exact","2710 E 10TH ST, TUCSON, AZ, 85716",121174610,"R"
147495,"2710 E 9TH AVE","TAMPA","FL",33605,27.9616583810001,-82.429224818,495,"2710 E 9TH AVE, TAMPA, FL, 33605","Match","Non_Exact","2710 E 9TH AVE, TAMPA, FL, 33605",104644825,"L"
147496,"2710 E HOFFMAN STREET","BALTIMORE","MD",21213,39.3070193120001,-76.579750437,496,"2710 E HOFFMAN STREET, BALTIMORE, MD, 21213","Match","Exact","2710 E HOFFMAN ST, BALTIMORE, MD, 21213",206466085,"L"
147497,"2710 EAST FRUIT AVENUE","FRESNO","CA",93706,36.702868057,-119.817894405,497,"2710 EAST FRUIT AVENUE, FRESNO, CA, 93706","Match","Non_Exact","2710 S FRUIT AVE, FRESNO, CA, 93706",197571182,"R"
147498,"2710 GARAZI CT","TRACY","CA",95304,37.7114417020001,-121.406718477,498,"2710 GARAZI CT, TRACY, CA, 95304","Match","Non_Exact","2710 GARAZI ST, TRACY, CA, 95304",133920340,"R"
147499,"2710 GRANT STREET","BELLINGHAM","WA",98225,48.7657804950001,-122.469259198,499,"2710 GRANT STREET, BELLINGHAM, WA, 98225","Match","Exact","2710 GRANT ST, BELLINGHAM, WA, 98225",183772148,"R"
147500,"2710 GUSTY LANE","MONROE","NC",28110,35.0021831810001,-80.596603477,500,"2710 GUSTY LANE, MONROE, NC, 28110","Match","Exact","2710 GUSTY LN, MONROE, NC, 28110",601178009,"L"
