"ID","Address","City","State","Zip","lat","long","id","input_address","match_indicator","match_type","matched_address","tiger_line_id","tiger_side"
179501,"3405 S MADISON ST","TACOMA","WA",98409,47.2291223600001,-122.48970057,1,"3405 S MADISON ST, TACOMA, WA, 98409","Match","Exact","3405 S MADISON ST, TACOMA, WA, 98409",184620344,"L"
179502,"3405 S PLAZA DR APT G","SANTA ANA","CA",92704,33.7004298700001,-117.888792245,2,"3405 S PLAZA DR APT G, SANTA ANA, CA, 92704","Match","Non_Exact","3405 S PLAZA DR, SANTA ANA, CA, 92704",630511005,"L"
179503,"3405 SWEETWATER RD APT 824","LAWRENCEVILLE","GA",30044,33.9456903080001,-84.1174032119999,3,"3405 SWEETWATER RD APT 824, LAWRENCEVILLE, GA, 30044","Match","Exact","3405 SWEETWATER RD, LAWRENCEVILLE, GA, 30044",88950931,"R"
179504,"3405 SWEETWATER ROAD APT 717","LAWRENCEVILLE","GA",30044,33.9456903080001,-84.1174032119999,4,"3405 SWEETWATER ROAD APT 717, LAWRENCEVILLE, GA, 30044","Match","Exact","3405 SWEETWATER RD, LAWRENCEVILLE, GA, 30044",88950931,"R"
179505,"3405 TORLANO PLACE","PLEASANTON","CA",94566,37.63975399,-121.805670405,5,"3405 TORLANO PLACE, PLEASANTON, CA, 94566","Match","Non_Exact","3405 TORLANO CT, PLEASANTON, CA, 94566",650176408,"R"
179506,"3405 W MAIN ST","TAMPA","FL",33607,27.9572650800001,-82.4995500859999,6,"3405 W MAIN ST, TAMPA, FL, 33607","Match","Exact","3405 W MAIN ST, TAMPA, FL, 33607",652547997,"R"
179507,"3405 W PATRIOT LN","BATTLEFIELD","MO",65619,37.119448607,-93.351589694,7,"3405 W PATRIOT LN, BATTLEFIELD, MO, 65619","Match","Exact","3405 W PATRIOT LN, BATTLEFIELD, MO, 65619",76676235,"L"
179508,"3405 WALTHAM CIRCLE","VIRGINIA BEACH","VA",23452,36.8135491100001,-76.0939197599999,8,"3405 WALTHAM CIRCLE, VIRGINIA BEACH, VA, 23452","Match","Exact","3405 WALTHAM CIR, VA BCH, VA, 23452",122267478,"L"
179509,"3405 WEST 116TH STREET","CHCIAGO","IL",60655,41.682354907,-87.705620701,9,"3405 WEST 116TH STREET, CHCIAGO, IL, 60655","Match","Non_Exact","3405 W 116TH ST, CHICAGO, IL, 60655",111822345,"L"
179510,"3405 WOODLAND PARK DRIVE","ANCHORAGE","AK",99517,61.189602758,-149.926763033,10,"3405 WOODLAND PARK DRIVE, ANCHORAGE, AK, 99517","Match","Exact","3405 WOODLAND PARK DR, ANCHORAGE, AK, 99517",190794973,"L"
179511,"3405-WOODBRIDGE DRIVE","NEWPORT NEWS","VA",23608,NA,NA,11,"3405-WOODBRIDGE DRIVE, NEWPORT NEWS, VA, 23608","No_Match",NA,NA,NA,NA
179512,"34050 VOLTAIRE VISTA","NUEVO","CA",92567,33.8068635610001,-117.063425913,12,"34050 VOLTAIRE VISTA, NUEVO, CA, 92567","Match","Exact","34050 VOLTAIRE VIS, NUEVO, CA, 92567",194820694,"L"
179513,"3406 BOB ROGERS DR SUITE 230","EAGLE PASS","TX",78850,28.715286258,-100.455648227,13,"3406 BOB ROGERS DR SUITE 230, EAGLE PASS, TX, 78850","Match","Non_Exact","3406 BOB ROGERS DR, EAGLE PASS, TX, 78852",648780782,"R"
179514,"3406 CHEYENNE DR","WOODWARD","OK",73801,36.437546019,-99.425484807,14,"3406 CHEYENNE DR, WOODWARD, OK, 73801","Match","Exact","3406 CHEYENNE DR, WOODWARD, OK, 73801",198724957,"L"
179515,"3406 CLASON CT","PLANO","IL",60545,41.6518193590001,-88.5043882429999,15,"3406 CLASON CT, PLANO, IL, 60545","Match","Non_Exact","3406 CLASON ST, PLANO, IL, 60545",635494021,"R"
179516,"3406 COLLEGE ST","BEAUMONT","TX",77701,30.0683824500001,-94.125169558,16,"3406 COLLEGE ST, BEAUMONT, TX, 77701","Match","Exact","3406 COLLEGE ST, BEAUMONT, TX, 77701",73897817,"R"
179517,"3406 COVE ST","MANDEVILLE","LA",70488,NA,NA,17,"3406 COVE ST, MANDEVILLE, LA, 70488","No_Match",NA,NA,NA,NA
179518,"3406 DUMPLING COURT","SUFFOLK","VA",23435,36.806509412,-76.529632896,18,"3406 DUMPLING COURT, SUFFOLK, VA, 23435","Match","Exact","3406 DUMPLING CT, SUFFOLK, VA, 23435",624274443,"L"
179519,"3406 GLADSTONE LANE","AMARILLO","TX",79121,35.1761660670001,-101.929194023,19,"3406 GLADSTONE LANE, AMARILLO, TX, 79121","Match","Exact","3406 GLADSTONE LN, AMARILLO, TX, 79121",182652246,"L"
179520,"3406 HAMPTON COURT","NEW CASTLE","IN",47362,39.8986969220001,-85.3686397399999,20,"3406 HAMPTON COURT, NEW CASTLE, IN, 47362","Match","Exact","3406 HAMPTON CT, NEW CASTLE, IN, 47362",30001857,"R"
179521,"3406 IOWA STREET","PITTSBURGH","PA",15219,40.4526845600001,-79.956515219,21,"3406 IOWA STREET, PITTSBURGH, PA, 15219","Match","Exact","3406 IOWA ST, PITTSBURGH, PA, 15219",51643191,"R"
179522,"3406 JUNE DRIVE","CHARLOTTE","NC",28205,35.199227675,-80.790433826,22,"3406 JUNE DRIVE, CHARLOTTE, NC, 28205","Match","Exact","3406 JUNE DR, CHARLOTTE, NC, 28205",70491713,"R"
179523,"3406 LONG BRANCH AVE  APT 204","WILLISTON","ND",58801,48.175390883,-103.679238875,23,"3406 LONG BRANCH AVE  APT 204, WILLISTON, ND, 58801","Match","Exact","3406 LONG BRANCH AVE, WILLISTON, ND, 58801",649192418,"L"
179524,"3406 MANCHESTER COMMON","FREMONT","CA",94536,37.5522057090001,-121.986052915,24,"3406 MANCHESTER COMMON, FREMONT, CA, 94536","Match","Exact","3406 MANCHESTER CMN, FREMONT, CA, 94536",125029709,"L"
179525,"3406 MONTE VERDE DRIVE","SALT LAKE CITY","UT",84109,40.697191472,-111.791589669,25,"3406 MONTE VERDE DRIVE, SALT LAKE CITY, UT, 84109","Match","Exact","3406 MONTE VERDE DR, SALT LAKE CITY, UT, 84109",176095000,"R"
179526,"3406 NEW KINGS BRIDGE ROAD","NICHOLSON","GA",30565,34.0646403760001,-83.450763905,26,"3406 NEW KINGS BRIDGE ROAD, NICHOLSON, GA, 30565","Match","Exact","3406 NEW KINGS BRIDGE RD, NICHOLSON, GA, 30565",642925158,"L"
179527,"3406 NW 19TH STREET","GAINESVILLE","FL",32605,29.684258265,-82.3474125129999,27,"3406 NW 19TH STREET, GAINESVILLE, FL, 32605","Match","Non_Exact","3406 NW 19TH ST, GAINESVILLE, FL, 32605",6805563,"L"
179528,"3406 OAK TREE DRIVE SOUTH","INDIANAPOLIS","IN",46227,39.6363672890001,-86.107849597,28,"3406 OAK TREE DRIVE SOUTH, INDIANAPOLIS, IN, 46227","Match","Exact","3406 OAK TREE DR S, INDIANAPOLIS, IN, 46227",108010199,"R"
179529,"3406 PEREGRINE FALCON DRIVE","AUSTIN","TX",78746,30.26916807,-97.808495266,29,"3406 PEREGRINE FALCON DRIVE, AUSTIN, TX, 78746","Match","Exact","3406 PEREGRINE FALCON DR, AUSTIN, TX, 78746",63938245,"R"
179530,"3406 PINERIDGE LANE","BRIGHTON","MI",48116,42.5489317550001,-83.8404199569999,30,"3406 PINERIDGE LANE, BRIGHTON, MI, 48116","Match","Exact","3406 PINERIDGE LN, BRIGHTON, MI, 48116",619584482,"R"
179531,"3406 RAMADAN CT NE","RIO RANCHO","NM",87144,NA,NA,31,"3406 RAMADAN CT NE, RIO RANCHO, NM, 87144","No_Match",NA,NA,NA,NA
179532,"3406 S RAMONA DR","SANTA ANA","CA",92707,33.701778233,-117.878291108,32,"3406 S RAMONA DR, SANTA ANA, CA, 92707","Match","Exact","3406 RAMONA DR, SANTA ANA, CA, 92707",144044086,"R"
179533,"3406 SETON HILL DRIVE","LOUSVILLE","KY",40216,38.1792136710001,-85.862469333,33,"3406 SETON HILL DRIVE, LOUSVILLE, KY, 40216","Match","Non_Exact","3406 SETON HILL DR, LOUISVILLE, KY, 40216",96837368,"L"
179534,"3406 SHADOW BAYOU CT","HOUSTON","TX",77082,29.725654171,-95.594889509,34,"3406 SHADOW BAYOU CT, HOUSTON, TX, 77082","Match","Exact","3406 SHADOW BAYOU CT, HOUSTON, TX, 77082",96294974,"L"
179535,"3406 WATERFORD CIRCLE","NASHVILLE","TN",37221,36.07596076,-86.9285123,35,"3406 WATERFORD CIRCLE, NASHVILLE, TN, 37221","Match","Exact","3406 WATERFORD CIR, NASHVILLE, TN, 37221",642354110,"R"
179536,"3406 WEST 600 SOUTH","SHELBYVILLE","IN",46176,39.4382110270001,-85.844821586,36,"3406 WEST 600 SOUTH, SHELBYVILLE, IN, 46176","Match","Exact","3406 W 600 S, SHELBYVILLE, IN, 46176",33227257,"L"
179537,"34061 NEST AVENUE","GUTTENBERG","IA",52052,42.7331067060001,-91.0812387239999,37,"34061 NEST AVENUE, GUTTENBERG, IA, 52052","Match","Exact","34061 NEST AVE, GUTTENBERG, IA, 52052",48481922,"L"
179538,"340625","LAKEWAY","TX",78734,NA,NA,38,"340625, LAKEWAY, TX, 78734","No_Match",NA,NA,NA,NA
179539,"34065 PENNINGTON LANE","LEBANON","OR",97355,44.574730592,-122.896106748,39,"34065 PENNINGTON LANE, LEBANON, OR, 97355","Match","Exact","34065 PENNINGTON LN, LEBANON, OR, 97355",156094032,"R"
179540,"3407 66TH AVE NE","MARYSVILLE","WA",98270,NA,NA,40,"3407 66TH AVE NE, MARYSVILLE, WA, 98270","Tie",NA,NA,NA,NA
179541,"3407 APPLING WAY","DURHAM","NC",27703,35.9287966430001,-78.82271425,41,"3407 APPLING WAY, DURHAM, NC, 27703","Match","Exact","3407 APPLING WAY, DURHAM, NC, 27703",71749403,"L"
179542,"3407 BREITWIESER LANE","NAPERVILLE","IL",60564,41.705425878,-88.213781067,42,"3407 BREITWIESER LANE, NAPERVILLE, IL, 60564","Match","Exact","3407 BREITWIESER LN, NAPERVILLE, IL, 60564",111618633,"L"
179543,"3407 CAPITOL AVE","SAN ANTONIO","TX",78201,29.4831419430001,-98.513487299,43,"3407 CAPITOL AVE, SAN ANTONIO, TX, 78201","Match","Exact","3407 CAPITOL AVE, SAN ANTONIO, TX, 78201",101513568,"L"
179544,"3407 COLEBRROK COURT","PEARLAND","TX",77584,29.545510112,-95.3525381589999,44,"3407 COLEBRROK COURT, PEARLAND, TX, 77584","Match","Non_Exact","3407 COLEBROOK CT, PEARLAND, TX, 77584",116612205,"R"
179545,"3407 EDMONSON COURT","MISSOURI CITY","TX",77459,29.4970596840001,-95.522241401,45,"3407 EDMONSON COURT, MISSOURI CITY, TX, 77459","Match","Exact","3407 EDMONSON CT, MISSOURI CITY, TX, 77459",635302252,"R"
179546,"3407 EMPRESS DRIVE","NAPERVILLE","IL",60564,41.7053459370001,-88.227004735,46,"3407 EMPRESS DRIVE, NAPERVILLE, IL, 60564","Match","Exact","3407 EMPRESS DR, NAPERVILLE, IL, 60564",646570809,"R"
179547,"3407 GLACIAL LAKE ST","LAS VEGAS","NV",89122,36.1249576280001,-115.034476722,47,"3407 GLACIAL LAKE ST, LAS VEGAS, NV, 89122","Match","Exact","3407 GLACIAL LAKE ST, LAS VEGAS, NV, 89122",612686728,"R"
179548,"3407 GLENSIDE DR","PARKVILLE","MD",21234,39.3867913450001,-76.519558865,48,"3407 GLENSIDE DR, PARKVILLE, MD, 21234","Match","Exact","3407 GLENSIDE DR, PARKVILLE, MD, 21234",191477149,"R"
179549,"3407 HUFFMAN EASTGATE RD","HUFFMAN","TX",77336,30.038720175,-95.0642912439999,49,"3407 HUFFMAN EASTGATE RD, HUFFMAN, TX, 77336","Match","Non_Exact","3407 HUFFMAN-EASTGATE RD, HUFFMAN, TX, 77336",96051111,"L"
179550,"3407 JEFFERSON AVENUE SUITE 514","ST. LOUIS","MO",63118,38.5930223550001,-90.225506809,50,"3407 JEFFERSON AVENUE SUITE 514, ST. LOUIS, MO, 63118","Match","Non_Exact","3407 S JEFFERSON AVE, SAINT LOUIS, MO, 63118",107602571,"R"
179551,"3407 JOHN BARROW RD STE B","LITTLE ROCK","AR",72204,34.722399523,-92.37294682,51,"3407 JOHN BARROW RD STE B, LITTLE ROCK, AR, 72204","Match","Exact","3407 JOHN BARROW RD, LITTLE ROCK, AR, 72204",83501870,"L"
179552,"3407 LUTHER STREET","WINSTON SALEM","NC",27127,36.0498000320001,-80.241662892,52,"3407 LUTHER STREET, WINSTON SALEM, NC, 27127","Match","Exact","3407 LUTHER ST, WINSTON SALEM, NC, 27127",84611847,"L"
179553,"3407 LUTHER STREET","WINSTON-SALEM","NC",27127,36.0498000320001,-80.241662892,53,"3407 LUTHER STREET, WINSTON-SALEM, NC, 27127","Match","Exact","3407 LUTHER ST, WINSTON SALEM, NC, 27127",84611847,"L"
179554,"3407 MANDERES PL","SPRINGDALE","MD",20774,38.936039431,-76.8408176,54,"3407 MANDERES PL, SPRINGDALE, MD, 20774","Match","Exact","3407 MANDERES PL, SPRINGDALE, MD, 20774",76331656,"R"
179555,"3407 MISSION RIDGE CIRCLE","ATLANTA","GA",30339,NA,NA,55,"3407 MISSION RIDGE CIRCLE, ATLANTA, GA, 30339","Tie",NA,NA,NA,NA
179556,"3407 MORGAN AVE N","MINNEAPOLIS","MN",55412,45.017056487,-93.304450829,56,"3407 MORGAN AVE N, MINNEAPOLIS, MN, 55412","Match","Exact","3407 MORGAN AVE N, MINNEAPOLIS, MN, 55412",43622051,"L"
179557,"3407 N ELIZABETH ST","INDIANAPOLIS","IN",46226,39.8188456290001,-86.0525995689999,57,"3407 N ELIZABETH ST, INDIANAPOLIS, IN, 46226","Match","Exact","3407 N ELIZABETH ST, INDIANAPOLIS, IN, 46226",108030821,"R"
179558,"3407 N SALFORD BLVD","NORTH PORT","FL",34286,27.0874113090001,-82.194335783,58,"3407 N SALFORD BLVD, NORTH PORT, FL, 34286","Match","Exact","3407 N SALFORD BLVD, NORTH PORT, FL, 34286",16339066,"L"
179559,"3407 OLIVE RD","LOUISVILLE","KY",40219,38.1461703900001,-85.698835545,59,"3407 OLIVE RD, LOUISVILLE, KY, 40219","Match","Exact","3407 OLIVE RD, LOUISVILLE, KY, 40219",96857908,"R"
179560,"3407 PENNSYLVANIA AVE","AUSTIN","TX",78721,30.2755916850001,-97.696620748,60,"3407 PENNSYLVANIA AVE, AUSTIN, TX, 78721","Match","Exact","3407 PENNSYLVANIA AVE, AUSTIN, TX, 78721",63948045,"R"
179561,"3407 PLATEAU ROAD","NEWTON","NC",28658,35.6164241880001,-81.36762477,61,"3407 PLATEAU ROAD, NEWTON, NC, 28658","Match","Exact","3407 PLATEAU RD, NEWTON, NC, 28658",45925403,"L"
179562,"3407 PLUMWOOD RD","CHATTANOOGA","TN",37411,35.052650117,-85.24110577,62,"3407 PLUMWOOD RD, CHATTANOOGA, TN, 37411","Match","Exact","3407 PLUMWOOD RD, CHATTANOOGA, TN, 37411",59310670,"L"
179563,"3407 RIVER SHOAL AVE","SACRAMENTO","CA",95833,38.604298516,-121.540470564,63,"3407 RIVER SHOAL AVE, SACRAMENTO, CA, 95833","Match","Exact","3407 RIVER SHOAL AVE, SACRAMENTO, CA, 95833",133400970,"R"
179564,"3407 ROCKY DR","MACON","GA",31204,32.8244544450001,-83.692335086,64,"3407 ROCKY DR, MACON, GA, 31204","Match","Exact","3407 ROCKY DR, MACON, GA, 31204",81058706,"R"
179565,"3407 S JEFFERSON AVE STE 518","ST LOUIS","MO",63118,38.593020455,-90.225507219,65,"3407 S JEFFERSON AVE STE 518, ST LOUIS, MO, 63118","Match","Non_Exact","3407 S JEFFERSON AVE, SAINT LOUIS, MO, 63118",107602571,"R"
179566,"3407 S JEFFERSON AVE","SAINT LOUIS","MO",63118,38.593020455,-90.225507219,66,"3407 S JEFFERSON AVE, SAINT LOUIS, MO, 63118","Match","Exact","3407 S JEFFERSON AVE, SAINT LOUIS, MO, 63118",107602571,"R"
179567,"3407 SOUTH JEFFERSON AVE NUMBER 516","ST. LOUIS","MO",63118,38.5930223550001,-90.225506809,67,"3407 SOUTH JEFFERSON AVE NUMBER 516, ST. LOUIS, MO, 63118","Match","Exact","3407 S JEFFERSON AVE, SAINT LOUIS, MO, 63118",107602571,"R"
179568,"3407 SOUTH JEFFERSON AVE","SAINT LOUIS","MO",63118,38.5930223550001,-90.225506809,68,"3407 SOUTH JEFFERSON AVE, SAINT LOUIS, MO, 63118","Match","Exact","3407 S JEFFERSON AVE, SAINT LOUIS, MO, 63118",107602571,"R"
179569,"3407 STERLING GARDEN LANE","PEARLAND","TX",77584,29.545673342,-95.4332623829999,69,"3407 STERLING GARDEN LANE, PEARLAND, TX, 77584","Match","Exact","3407 STERLING GARDEN LN, PEARLAND, TX, 77584",648926338,"L"
179570,"3407 STONEMARSH CT","CHARLOTTE","NC",28269,35.3147400280001,-80.797968333,70,"3407 STONEMARSH CT, CHARLOTTE, NC, 28269","Match","Exact","3407 STONEMARSH CT, CHARLOTTE, NC, 28269",70517922,"R"
179571,"3407 STOVER STREET APT H817","FORT COLLINS","CO",80525,40.542584441,-105.067291191,71,"3407 STOVER STREET APT H817, FORT COLLINS, CO, 80525","Match","Exact","3407 STOVER ST, FORT COLLINS, CO, 80525",609020896,"R"
179572,"3407 SW 35TH ST","ANKENY","IA",50023,41.696023112,-93.644713761,72,"3407 SW 35TH ST, ANKENY, IA, 50023","Match","Exact","3407 SW 35TH ST, ANKENY, IA, 50023",65857399,"L"
179573,"3407 TUTWILER AVE","MEMPHIS","TN",38122,35.152074084,-89.947298963,73,"3407 TUTWILER AVE, MEMPHIS, TN, 38122","Match","Exact","3407 TUTWILER AVE, MEMPHIS, TN, 38122",72915506,"R"
179574,"3407 VARGIS CIRCLE 3A","BALTIMORE","MD",21244,39.3432967740001,-76.747471568,74,"3407 VARGIS CIRCLE 3A, BALTIMORE, MD, 21244","Match","Exact","3407 VARGIS CIR, BALTIMORE, MD, 21244",191558402,"R"
179575,"3407 W 12TH ST","LITTLE ROCK","AR",72204,34.740205239,-92.3118358519999,75,"3407 W 12TH ST, LITTLE ROCK, AR, 72204","Match","Exact","3407 W 12TH ST, LITTLE ROCK, AR, 72204",83508821,"L"
179576,"3407 W 6TH ST STE 408","LOS ANGELES","CA",90020,34.063601077,-118.295603816,76,"3407 W 6TH ST STE 408, LOS ANGELES, CA, 90020","Match","Non_Exact","3407 W 6TH ST, LOS ANGELES, CA, 90020",141604937,"R"
179577,"3407 W 6TH ST STE 510B","LOS ANGELES","CA",90020,34.063601077,-118.295603816,77,"3407 W 6TH ST STE 510B, LOS ANGELES, CA, 90020","Match","Non_Exact","3407 W 6TH ST, LOS ANGELES, CA, 90020",141604937,"R"
179578,"3407 W HOME AVE","FLINT","MI",48504,43.0672951240001,-83.748743668,78,"3407 W HOME AVE, FLINT, MI, 48504","Match","Exact","3407 HOME AVE, FLINT, MI, 48504",69563336,"L"
179579,"3407 WOODLAND CIRCLE NORTH","ISLAND LAKE","IL",60042,42.2808444130001,-88.192460118,79,"3407 WOODLAND CIRCLE NORTH, ISLAND LAKE, IL, 60042","Match","Exact","3407 WOODLAND CIR N, ISLAND LAKE, IL, 60042",119630406,"R"
179580,"34075 FREMONT BLVD","FREMONT","CA",94555,37.5771871960001,-122.045467111,80,"34075 FREMONT BLVD, FREMONT, CA, 94555","Match","Exact","34075 FREMONT BLVD, FREMONT, CA, 94555",125026723,"R"
179581,"34079 WEBFOOT LOOP","FREMONT","CA",94555,37.5661457260001,-122.057329839,81,"34079 WEBFOOT LOOP, FREMONT, CA, 94555","Match","Exact","34079 WEBFOOT LOOP, FREMONT, CA, 94555",125056226,"R"
179582,"3407E 29TH AVENUE","TAMPA","FL",33605,27.976863129,-82.422183918,82,"3407E 29TH AVENUE, TAMPA, FL, 33605","Match","Non_Exact","3407 E 29TH AVE, TAMPA, FL, 33605",104534269,"R"
179583,"3408 16TH STREET","MENOMINEE","MI",49858,45.129916112,-87.621460462,83,"3408 16TH STREET, MENOMINEE, MI, 49858","Match","Exact","3408 16TH ST, MENOMINEE, MI, 49858",170210052,"R"
179584,"3408 33RD AVE S","MINNEAPOLIS","MN",55406,44.94110555,-93.22432486,84,"3408 33RD AVE S, MINNEAPOLIS, MN, 55406","Match","Exact","3408 33RD AVE S, MINNEAPOLIS, MN, 55406",43639817,"R"
179585,"3408 ALLEN RD","CLARKSVILLE","TN",37042,36.6369209430001,-87.3868754,85,"3408 ALLEN RD, CLARKSVILLE, TN, 37042","Match","Exact","3408 ALLEN RD, CLARKSVILLE, TN, 37042",624782421,"R"
179586,"3408 ARDMORE TRAIL","SOUTH BEND","IN",46628,41.6885023880001,-86.297016715,86,"3408 ARDMORE TRAIL, SOUTH BEND, IN, 46628","Match","Exact","3408 ARDMORE TRL, SOUTH BEND, IN, 46628",8052323,"L"
179587,"3408 BARBOUR TRAIL","ODESSA","FL",33556,28.207907649,-82.6029210679999,87,"3408 BARBOUR TRAIL, ODESSA, FL, 33556","Match","Exact","3408 BARBOUR TRL, ODESSA, FL, 33556",651776498,"R"
179588,"3408 CARLISLE AVENUE","BALTIMORE","MD",21216,39.3193871490001,-76.675047374,88,"3408 CARLISLE AVENUE, BALTIMORE, MD, 21216","Match","Exact","3408 CARLISLE AVE, BALTIMORE, MD, 21216",206435479,"R"
179589,"3408 CASTLEBURY DR","CHESTER","VA",23831,37.3711640170001,-77.432529812,89,"3408 CASTLEBURY DR, CHESTER, VA, 23831","Match","Exact","3408 CASTLEBURY DR, CHESTER, VA, 23831",201563372,"L"
179590,"3408 DAUPHINE ST","NEW ORLEANS","LA",70117,29.9635765740001,-90.0413083399999,90,"3408 DAUPHINE ST, NEW ORLEANS, LA, 70117","Match","Exact","3408 DAUPHINE ST, NEW ORLEANS, LA, 70117",191717345,"R"
179591,"3408 DEERFIELD AVE S","DALTON","OH",44618,40.7644334450001,-81.648236852,91,"3408 DEERFIELD AVE S, DALTON, OH, 44618","Match","Exact","3408 DEERFIELD AVE S, DALTON, OH, 44618",635744374,"L"
179592,"3408 DELTA PL","DEL CITY","OK",73115,35.4301442500001,-97.429766542,92,"3408 DELTA PL, DEL CITY, OK, 73115","Match","Exact","3408 DELTA PL, DEL CITY, OK, 73115",100418602,"L"
179593,"3408 DUVENECK DRIVE","RALEIGH","NC",27616,35.8770275260001,-78.5285593569999,93,"3408 DUVENECK DRIVE, RALEIGH, NC, 27616","Match","Exact","3408 DUVENECK DR, RALEIGH, NC, 27616",72601624,"L"
179594,"3408 E 4070 N","KIMBERLY","ID",83341,NA,NA,94,"3408 E 4070 N, KIMBERLY, ID, 83341","No_Match",NA,NA,NA,NA
179595,"3408 E FOREST PARK DRIVE","OKLAHOMA CITY","OK",73121,35.5022941490001,-97.453344585,95,"3408 E FOREST PARK DRIVE, OKLAHOMA CITY, OK, 73121","Match","Exact","3408 E FOREST PARK DR, OKLAHOMA CITY, OK, 73121",642069285,"R"
179596,"3408 E ST BERNARD HWY","MERAUX","LA",70075,29.9288804760001,-89.928651706,96,"3408 E ST BERNARD HWY, MERAUX, LA, 70075","Match","Exact","3408 E ST BERNARD HWY, MERAUX, LA, 70075",111192898,"R"
179597,"3408 EAGLE AVENUE","ATLANTIC","IA",50022,41.519079176,-95.022849637,97,"3408 EAGLE AVENUE, ATLANTIC, IA, 50022","Match","Exact","3408 EAGLE AVE, ATLANTIC, IA, 50022",61730937,"R"
179598,"3408 ELMHURST RD","COLUMBIA","SC",29203,34.0304026000001,-81.043472387,98,"3408 ELMHURST RD, COLUMBIA, SC, 29203","Match","Exact","3408 ELMHURST RD, COLUMBIA, SC, 29203",71819904,"R"
179599,"3408 GRASSMERE RD","NAPERVILLE","IL",60564,41.7080717590001,-88.212867401,99,"3408 GRASSMERE RD, NAPERVILLE, IL, 60564","Match","Exact","3408 GRASSMERE RD, NAPERVILLE, IL, 60564",111618637,"R"
179600,"3408 HAVERFORD AVENUE","PHILADELPHIA","PA",19104,39.96402435,-75.1918156949999,100,"3408 HAVERFORD AVENUE, PHILADELPHIA, PA, 19104","Match","Exact","3408 HAVERFORD AVE, PHILADELPHIA, PA, 19104",131403711,"L"
179601,"3408 KING STREET","ALEXANDRIA","VA",22302,38.826251674,-77.086529312,101,"3408 KING STREET, ALEXANDRIA, VA, 22302","Match","Exact","3408 KING ST, ALEXANDRIA, VA, 22302",648911411,"L"
179602,"3408 LAKE WOODARD DR C","RALEIGH","NC",27604,35.801399013,-78.583717405,102,"3408 LAKE WOODARD DR C, RALEIGH, NC, 27604","Match","Exact","3408 LAKE WOODARD DR, RALEIGH, NC, 27604",72574023,"R"
179603,"3408 LARKSPUR WAY","CEDAR PARK","TX",78613,30.4623622880001,-97.8227200759999,103,"3408 LARKSPUR WAY, CEDAR PARK, TX, 78613","Match","Exact","3408 LARKSPUR WAY, CEDAR PARK, TX, 78613",126431200,"L"
179604,"3408 MEDICAL PARK DRIVE","MONROE","LA",71203,NA,NA,104,"3408 MEDICAL PARK DRIVE, MONROE, LA, 71203","No_Match",NA,NA,NA,NA
179605,"3408 MONROE STREET","LAKE CHARLES","LA",70607,30.1946999940001,-93.180249008,105,"3408 MONROE STREET, LAKE CHARLES, LA, 70607","Match","Exact","3408 MONROE ST, LAKE CHARLES, LA, 70607",88440757,"R"
179606,"3408 OXFORD PLACE","GRANDVIEW","MO",64030,38.897605625,-94.552363272,106,"3408 OXFORD PLACE, GRANDVIEW, MO, 64030","Match","Exact","3408 OXFORD PL, GRANDVIEW, MO, 64030",91487271,"L"
179607,"3408 PINE HILL RD","HEPHZIBAH","GA",30815,33.4073030760001,-82.0897425749999,107,"3408 PINE HILL RD, HEPHZIBAH, GA, 30815","Match","Exact","3408 PINE HILL RD, HEPHZIBAH, GA, 30815",645393760,"R"
179608,"3408 PUTNAM STREET","WEST LAFAYETTE","IN",47906,40.46639515,-86.910765807,108,"3408 PUTNAM STREET, WEST LAFAYETTE, IN, 47906","Match","Exact","3408 PUTNAM ST, W LAFAYETTE, IN, 47906",27316948,"R"
179609,"3408 S LEONINE","WICHITA","KS",67217,37.633016862,-97.383012771,109,"3408 S LEONINE, WICHITA, KS, 67217","Match","Non_Exact","3408 LEONINE ST, WICHITA, KS, 67217",115643031,"L"
179610,"3408 SCHOONER DR","CARY","NC",27519,NA,NA,110,"3408 SCHOONER DR, CARY, NC, 27519","No_Match",NA,NA,NA,NA
179611,"3408 UTAH AVENUE NORTH","CRYSTAL","MN",55427,45.01856594,-93.3817692869999,111,"3408 UTAH AVENUE NORTH, CRYSTAL, MN, 55427","Match","Exact","3408 UTAH AVE N, CRYSTAL, MN, 55427",641287359,"R"
179612,"3408 WAIALAE AVE STE 102","HONOLULU","HI",96816,21.284902178,-157.803190062,112,"3408 WAIALAE AVE STE 102, HONOLULU, HI, 96816","Match","Exact","3408 WAIALAE AVE, HONOLULU, HI, 96816",203242455,"L"
179613,"3408 WESTWOOD RD EXT","HAMPTONVILLE","NC",27020,NA,NA,113,"3408 WESTWOOD RD EXT, HAMPTONVILLE, NC, 27020","No_Match",NA,NA,NA,NA
179614,"3408 WHITE TOWER WAY","HENRICO","VA",23231,37.4573096780001,-77.319933404,114,"3408 WHITE TOWER WAY, HENRICO, VA, 23231","Match","Exact","3408 WHITE TOWER WAY, HENRICO, VA, 23231",651967896,"L"
179615,"3408 WINDSOR BLVD","OKLAHOMA CITY","OK",73122,35.5054240630001,-97.606780287,115,"3408 WINDSOR BLVD, OKLAHOMA CITY, OK, 73122","Match","Non_Exact","3408 N WINDSOR BLVD, OKLAHOMA CITY, OK, 73122",100391288,"R"
179616,"3409 166TH STREET","TORRANCE","CA",90504,33.8797629150001,-118.332494292,116,"3409 166TH STREET, TORRANCE, CA, 90504","Match","Exact","3409 166TH ST, TORRANCE, CA, 90504",141664162,"R"
179617,"3409 ADRICK RD","MEMPHIS","TN",38128,35.2186112320001,-89.925595689,117,"3409 ADRICK RD, MEMPHIS, TN, 38128","Match","Exact","3409 ADRICK RD, MEMPHIS, TN, 38128",72914489,"L"
179618,"3409 ALABAMA AVE SE","WASHINGTON","DC",20020,38.862268606,-76.957387001,118,"3409 ALABAMA AVE SE, WASHINGTON, DC, 20020","Match","Exact","3409 ALABAMA AVE SE, WASHINGTON, DC, 20020",639577284,"R"
179619,"3409 AVENUE S","BROOKLYN","NY",11234,40.6088786990001,-73.9326962929999,119,"3409 AVENUE S, BROOKLYN, NY, 11234","Match","Exact","3409 AVENUE S, BROOKLYN, NY, 11234",59092465,"L"
179620,"3409 BALE DRIVE","FORT COLLINS","CO",80526,40.5407474350001,-105.083654795,120,"3409 BALE DRIVE, FORT COLLINS, CO, 80526","Match","Exact","3409 BALE DR, FORT COLLINS, CO, 80526",188552544,"R"
179621,"3409 CARUATH BLVD","DALLAS","TX",75225,32.859257346,-96.787155887,121,"3409 CARUATH BLVD, DALLAS, TX, 75225","Match","Non_Exact","3409 CARUTH BLVD, DALLAS, TX, 75225",102907145,"L"
179622,"3409 CENTRAL DRIVE","FORT WAYNE","IN",46806,41.054501981,-85.111249987,122,"3409 CENTRAL DRIVE, FORT WAYNE, IN, 46806","Match","Exact","3409 CENTRAL DR, FORT WAYNE, IN, 46806",6383358,"L"
179623,"3409 CERRITOS AVENUE","LOS ALAMITOS","CA",90720,33.810385877,-118.073975054,123,"3409 CERRITOS AVENUE, LOS ALAMITOS, CA, 90720","Match","Exact","3409 CERRITOS AVE, LOS ALAMITOS, CA, 90720",647350383,"L"
179624,"3409 E MAIN ST","HILLSBORO","OR",97123,45.519927485,-122.947463558,124,"3409 E MAIN ST, HILLSBORO, OR, 97123","Match","Exact","3409 E MAIN ST, HILLSBORO, OR, 97123",158179380,"L"
179625,"3409 EXECUTIVE CENTER DR STE 201","AUSTIN","TX",78731,30.360386179,-97.747678916,125,"3409 EXECUTIVE CENTER DR STE 201, AUSTIN, TX, 78731","Match","Exact","3409 EXECUTIVE CENTER DR, AUSTIN, TX, 78731",64023780,"L"
179626,"3409 GENOA PL","PALMDALE","CA",93550,34.6070113590001,-118.189349078,126,"3409 GENOA PL, PALMDALE, CA, 93550","Match","Non_Exact","3409 GENOA PL, PALMDALE, CA, 93551",141822773,"L"
179627,"3409 GENOA PL","PALMDALE","CA",93551,34.6070113590001,-118.189349078,127,"3409 GENOA PL, PALMDALE, CA, 93551","Match","Exact","3409 GENOA PL, PALMDALE, CA, 93551",141822773,"L"
179628,"3409 KIRBY DR","GREENSBORO","NC",27403,36.080668867,-79.838283525,128,"3409 KIRBY DR, GREENSBORO, NC, 27403","Match","Exact","3409 KIRBY DR, GREENSBORO, NC, 27403",131029225,"L"
179629,"3409 LA COSTA WAY","RALEIGH","NC",27610,35.724649162,-78.5258400549999,129,"3409 LA COSTA WAY, RALEIGH, NC, 27610","Match","Exact","3409 LA COSTA WAY, RALEIGH, NC, 27610",72653192,"L"
179630,"3409 LAKESIDE DRIVE","MINERAL RIDGE","OH",44440,41.149596269,-80.7717500809999,130,"3409 LAKESIDE DRIVE, MINERAL RIDGE, OH, 44440","Match","Exact","3409 LAKESIDE DR, MINERAL RIDGE, OH, 44440",117410704,"L"
179631,"3409 LAS PALMAS COURT","FLINT","MI",48504,43.031053453,-83.738273533,131,"3409 LAS PALMAS COURT, FLINT, MI, 48504","Match","Exact","3409 LAS PALMAS CT, FLINT, MI, 48504",69564195,"L"
179632,"3409 MAYFLOWER CT","ARLINGTON","TX",76014,32.691193104,-97.090916982,132,"3409 MAYFLOWER CT, ARLINGTON, TX, 76014","Match","Exact","3409 MAYFLOWER CT, ARLINGTON, TX, 76014",101955852,"L"
179633,"3409 MEADOW BREEZE LOOP","OCOEE","FL",34761,28.619981828,-81.528937607,133,"3409 MEADOW BREEZE LOOP, OCOEE, FL, 34761","Match","Exact","3409 MEADOW BREEZE LOOP, OCOEE, FL, 34761",640926919,"L"
179634,"3409 N 35TH PLACE","PHOENIX","AZ",85018,33.488196999,-112.005305235,134,"3409 N 35TH PLACE, PHOENIX, AZ, 85018","Match","Non_Exact","3409 N 35TH PL, PHOENIX, AZ, 85018",128219763,"R"
179635,"3409 NC HWY 97","WENDELL","NC",27591,35.8033158430001,-78.399283322,135,"3409 NC HWY 97, WENDELL, NC, 27591","Match","Non_Exact","3409 STATE HWY 97, WENDELL, NC, 27591",623737876,"R"
179636,"3409 OBSERVATORY AVE","CINCINNATI","OH",45208,39.1381421350001,-84.42003976,136,"3409 OBSERVATORY AVE, CINCINNATI, OH, 45208","Match","Exact","3409 OBSERVATORY AVE, CINCINNATI, OH, 45208",650433559,"R"
179637,"3409 PADRE LANE","CHICO","CA",95973,39.77526441,-121.88771368,137,"3409 PADRE LANE, CHICO, CA, 95973","Match","Exact","3409 PADRE LN, CHICO, CA, 95973",650857438,"R"
179638,"3409 PALLISER WAY","MODESTO","CA",95355,37.6870161950001,-120.942069369,138,"3409 PALLISER WAY, MODESTO, CA, 95355","Match","Exact","3409 PALLISER WAY, MODESTO, CA, 95355",102643995,"L"
179639,"3409 ROYAL HIGHLAND DRIVE","WINSTON SALEM","NC",27107,36.087994748,-80.16547872,139,"3409 ROYAL HIGHLAND DRIVE, WINSTON SALEM, NC, 27107","Match","Exact","3409 ROYAL HIGHLAND DR, WINSTON SALEM, NC, 27107",84616621,"L"
179640,"3409 S MANITO BLVD","SPOKANE","WA",99203,47.622864457,-117.407409249,140,"3409 S MANITO BLVD, SPOKANE, WA, 99203","Match","Exact","3409 S MANITO BLVD, SPOKANE, WA, 99203",189877745,"L"
179641,"3409 SAN FABIAN","MISSION","TX",78572,26.1613846220001,-98.296387959,141,"3409 SAN FABIAN, MISSION, TX, 78572","Match","Non_Exact","3409 SAN FABIAN ST, MISSION, TX, 78572",641209702,"R"
179642,"3409 SE BELMONT","PORTLAND","OR",97214,45.516454019,-122.629353409,142,"3409 SE BELMONT, PORTLAND, OR, 97214","Match","Non_Exact","3409 SE BELMONT ST, PORTLAND, OR, 97214",157509843,"L"
179643,"3409 SEDAILA RANCH RD","ROANOKE","TX",76262,32.9818625350001,-97.288040702,143,"3409 SEDAILA RANCH RD, ROANOKE, TX, 76262","Match","Exact","3409 SEDAILA RANCH RD, ROANOKE, TX, 76262",102118944,"L"
179644,"3409 SMALLSTOWN RD","WINNSBORO","SC",29180,34.432455405,-81.0605760459999,144,"3409 SMALLSTOWN RD, WINNSBORO, SC, 29180","Match","Exact","3409 SMALLSTOWN RD, WINNSBORO, SC, 29180",40609042,"R"
179645,"3409 SOUTH BARCELONA STREET","SPRING VALLEY","CA",91977,32.742105316,-116.9810987,145,"3409 SOUTH BARCELONA STREET, SPRING VALLEY, CA, 91977","Match","Exact","3409 S BARCELONA ST, SPRING VALLEY, CA, 91977",195362594,"R"
179646,"3409 THISTLE AVENUE","TOMS RIVER","NJ",8753,39.9540225650001,-74.1174093449999,146,"3409 THISTLE AVENUE, TOMS RIVER, NJ, 8753","Match","Exact","3409 THISTLE AVE, TOMS RIVER, NJ, 08753",203737722,"R"
179647,"3409 VETERANS DRIVE","TRAVERSE CITY","MI",49684,NA,NA,147,"3409 VETERANS DRIVE, TRAVERSE CITY, MI, 49684","No_Match",NA,NA,NA,NA
179648,"3409 WALLACE STREET","PHILADELPHIA","PA",19104,39.965186299,-75.192226605,148,"3409 WALLACE STREET, PHILADELPHIA, PA, 19104","Match","Exact","3409 WALLACE ST, PHILADELPHIA, PA, 19104",131403688,"R"
179649,"3409 WEST WHITTON AVENUE","PHOENIX","AZ",85017,33.48965222,-112.13238271,149,"3409 WEST WHITTON AVENUE, PHOENIX, AZ, 85017","Match","Exact","3409 W WHITTON AVE, PHOENIX, AZ, 85017",128199357,"L"
179650,"3409 WESTFIELD DRIVE","PLANO","TX",75093,33.0466008650001,-96.836734577,150,"3409 WESTFIELD DRIVE, PLANO, TX, 75093","Match","Exact","3409 WESTFIELD DR, PLANO, TX, 75093",123531410,"R"
179651,"34090 PINEWOODS CIRCLE SUITE 104","ROMULUS","MI",48174,NA,NA,151,"34090 PINEWOODS CIRCLE SUITE 104, ROMULUS, MI, 48174","No_Match",NA,NA,NA,NA
179652,"34091 US HIGHWAY 280","CHILDERSBURG","AL",35044,NA,NA,152,"34091 US HIGHWAY 280, CHILDERSBURG, AL, 35044","No_Match",NA,NA,NA,NA
179653,"3409B AINSLIE STREET","PHILADELPHIA","PA",19129,40.01359546,-75.1882770239999,153,"3409B AINSLIE STREET, PHILADELPHIA, PA, 19129","Match","Exact","3409 AINSLIE ST, PHILADELPHIA, PA, 19129",131400604,"R"
179654,"341 10TH ST","BROOKLYN","NY",11215,40.6690284470001,-73.987709614,154,"341 10TH ST, BROOKLYN, NY, 11215","Match","Exact","341 10TH ST, BROOKLYN, NY, 11215",59075693,"L"
179655,"341 10TH STREET  APT 8D","BROOKLYN","NY",11215,40.6690284470001,-73.987709614,155,"341 10TH STREET  APT 8D, BROOKLYN, NY, 11215","Match","Exact","341 10TH ST, BROOKLYN, NY, 11215",59075693,"L"
179656,"341 10TH STREET APT 9G","BROOKLYN","NY",11215,40.6690284470001,-73.987709614,156,"341 10TH STREET APT 9G, BROOKLYN, NY, 11215","Match","Exact","341 10TH ST, BROOKLYN, NY, 11215",59075693,"L"
179657,"341 10TH STREET APT18B","BROOKLYN","NY",11215,40.6690284470001,-73.987709614,157,"341 10TH STREET APT18B, BROOKLYN, NY, 11215","Match","Exact","341 10TH ST, BROOKLYN, NY, 11215",59075693,"L"
179658,"341 2ND STREET","SOUTH AMBOY","NJ",8879,40.481764947,-74.286321652,158,"341 2ND STREET, SOUTH AMBOY, NJ, 8879","Match","Exact","341 2ND ST, SOUTH AMBOY, NJ, 08879",60371603,"L"
179659,"341 BARTON RUN BLVD","MARLTON","NJ",8053,39.8753756400001,-74.865546767,159,"341 BARTON RUN BLVD, MARLTON, NJ, 8053","Match","Exact","341 BARTON RUN BLVD, MARLTON, NJ, 08053",134067576,"L"
179660,"341 BEHLMANN MEADOWS WAY","FLORISSANT","MO",63034,38.8141371030001,-90.26341704,160,"341 BEHLMANN MEADOWS WAY, FLORISSANT, MO, 63034","Match","Exact","341 BEHLMANN MEADOWS WAY, FLORISSANT, MO, 63034",645120411,"L"
179661,"341 BENSON ST","HARTWELL","GA",30643,34.3476171500001,-82.928061215,161,"341 BENSON ST, HARTWELL, GA, 30643","Match","Exact","341 BENSON ST, HARTWELL, GA, 30643",22639920,"R"
179662,"341 BENT TREE DRIVE","PRATTVILLE","AL",36067,32.4699190530001,-86.468267866,162,"341 BENT TREE DRIVE, PRATTVILLE, AL, 36067","Match","Exact","341 BENT TREE DR, PRATTVILLE, AL, 36067",624021660,"R"
179663,"341 BUCKLEBURY RD","GREER","SC",29651,34.861391154,-82.1519407499999,163,"341 BUCKLEBURY RD, GREER, SC, 29651","Match","Exact","341 BUCKLEBURY RD, GREER, SC, 29651",648052277,"L"
179664,"341 CHAMPION STREET","TOLEDO","OH",43609,41.634405821,-83.581959508,164,"341 CHAMPION STREET, TOLEDO, OH, 43609","Match","Exact","341 CHAMPION ST, TOLEDO, OH, 43609",33952701,"L"
179665,"341 CHEROKEE AVENUE","HAINES CITY","FL",33844,28.135406388,-81.63183455,165,"341 CHEROKEE AVENUE, HAINES CITY, FL, 33844","Match","Exact","341 CHEROKEE AVE, HAINES CITY, FL, 33844",616523774,"R"
179666,"341 COLLINWOOD DR","FAIRVIEW","TX",75069,33.1332881880001,-96.613323586,166,"341 COLLINWOOD DR, FAIRVIEW, TX, 75069","Match","Exact","341 COLLINWOOD DR, FAIRVIEW, TX, 75069",123495512,"L"
179667,"341 CORRIE RD","ANN ARBOR","MI",48105,42.317482796,-83.755169399,167,"341 CORRIE RD, ANN ARBOR, MI, 48105","Match","Exact","341 CORRIE RD, ANN ARBOR, MI, 48105",26013133,"L"
179668,"341 CORRIE ROAD","ANN ARBOR","MI",48105,42.317482796,-83.755169399,168,"341 CORRIE ROAD, ANN ARBOR, MI, 48105","Match","Exact","341 CORRIE RD, ANN ARBOR, MI, 48105",26013133,"L"
179669,"341 COUNTRY CLUB DR","FRANKLIN","NC",28734,35.1694141630001,-83.463241463,169,"341 COUNTRY CLUB DR, FRANKLIN, NC, 28734","Match","Exact","341 COUNTRY CLUB DR, FRANKLIN, NC, 28734",35506101,"R"
179670,"341 COUNTY ROAD 150","TUSCOLA","TX",79562,32.255732037,-99.7544739739999,170,"341 COUNTY ROAD 150, TUSCOLA, TX, 79562","Match","Exact","341 CO RD 150, TUSCOLA, TX, 79562",129977963,"R"
179671,"341 COUNTY ROAD 162","ORRVILLE","AL",36767,32.349882571,-87.1540400119999,171,"341 COUNTY ROAD 162, ORRVILLE, AL, 36767","Match","Exact","341 CO RD 162, ORRVILLE, AL, 36767",1301776,"L"
179672,"341 COUNTY ROAD C2 W","ROSEVILLE","MN",55113,NA,NA,172,"341 COUNTY ROAD C2 W, ROSEVILLE, MN, 55113","No_Match",NA,NA,NA,NA
179673,"341 DONNER DRIVE","CRESTLINE","CA",92325,34.2477276160001,-117.263375845,173,"341 DONNER DRIVE, CRESTLINE, CA, 92325","Match","Exact","341 DONNER DR, CRESTLINE, CA, 92325",637399699,"R"
179674,"341 E KINGSLEY AVE","POMONA","CA",91767,34.06659798,-117.747330086,174,"341 E KINGSLEY AVE, POMONA, CA, 91767","Match","Exact","341 E KINGSLEY AVE, POMONA, CA, 91767",141733720,"L"
179675,"341 E SOUTH ST APT A","LONG BEACH","CA",90805,33.8600452740001,-118.189229962,175,"341 E SOUTH ST APT A, LONG BEACH, CA, 90805","Match","Non_Exact","341 E SOUTH ST, LONG BEACH, CA, 90805",141684217,"L"
179676,"341 ELAND DRIVE","NORTH FT MYERS","FL",33917,26.7152214560001,-81.896633,176,"341 ELAND DRIVE, NORTH FT MYERS, FL, 33917","Match","Exact","341 ELAND DR, N FORT MYERS, FL, 33917",118077831,"R"
179677,"341 FARMS RD","MCKINNEY","TX",75071,33.2106080460001,-96.554575219,177,"341 FARMS RD, MCKINNEY, TX, 75071","Match","Exact","341 FARMS RD, MCKINNEY, TX, 75071",642473330,"R"
179678,"341 FOREST HILLS BLVD","ORMOND BEACH","FL",32174,29.26957157,-81.083598314,178,"341 FOREST HILLS BLVD, ORMOND BEACH, FL, 32174","Match","Exact","341 FOREST HILLS BLVD, ORMOND BEACH, FL, 32174",94521171,"L"
179679,"341 FOX SQUIRREL ROAD","SOUTHPORT","NC",28461,34.0255314660001,-78.050300282,179,"341 FOX SQUIRREL ROAD, SOUTHPORT, NC, 28461","Match","Exact","341 FOX SQUIRREL RD, SOUTHPORT, NC, 28461",153132656,"L"
179680,"341 GARFIELD AVE","EAU CLAIRE","WI",54701,44.798615258,-91.49411614,180,"341 GARFIELD AVE, EAU CLAIRE, WI, 54701","Match","Exact","341 GARFIELD AVE, EAU CLAIRE, WI, 54701",46067261,"R"
179681,"341 GENERAL ARNOLD STREET NE","ALBUQUERQUE","NM",87123,35.0789578340001,-106.547328679,181,"341 GENERAL ARNOLD STREET NE, ALBUQUERQUE, NM, 87123","Match","Exact","341 GENERAL ARNOLD ST NE, ALBUQUERQUE, NM, 87123",206719770,"L"
179682,"341 GREENTREE PARKWAY","MACON","GA",31220,32.8621990440001,-83.7650894399999,182,"341 GREENTREE PARKWAY, MACON, GA, 31220","Match","Exact","341 GREENTREE PKWY, MACON, GA, 31220",630707026,"R"
179683,"341 GUNTER LANE","LIBERTY","TN",37095,35.8804127720001,-85.959805935,183,"341 GUNTER LANE, LIBERTY, TN, 37095","Match","Exact","341 GUNTER LN, LIBERTY, TN, 37095",624768548,"L"
179684,"341 HARGRAVE ST","INGLEWOOD","CA",90302,33.978301937,-118.355547762,184,"341 HARGRAVE ST, INGLEWOOD, CA, 90302","Match","Exact","341 HARGRAVE ST, INGLEWOOD, CA, 90302",141653928,"L"
179685,"341 HEMPSTEAD GARDENS DR","WEST HEMPSTEAD","NY",11552,40.6954067610001,-73.6457403589999,185,"341 HEMPSTEAD GARDENS DR, WEST HEMPSTEAD, NY, 11552","Match","Exact","341 HEMPSTEAD GARDENS DR, W HEMPSTEAD, NY, 11552",147675869,"L"
179686,"341 HERITAGE ESTATES LN","DELAND","FL",32720,28.999900209,-81.309487468,186,"341 HERITAGE ESTATES LN, DELAND, FL, 32720","Match","Exact","341 HERITAGE ESTATES LN, DELAND, FL, 32720",94567588,"R"
179687,"341 HOLYOKE LN","CHESAPEAKE","VA",23320,36.7384975750001,-76.225106639,187,"341 HOLYOKE LN, CHESAPEAKE, VA, 23320","Match","Non_Exact","341 HOLYOAKE LN, CHESAPEAKE, VA, 23320",641625369,"L"
179688,"341 HOOKS ROAD","CORRIGAN","TX",75939,31.0036132590001,-94.8370321469999,188,"341 HOOKS ROAD, CORRIGAN, TX, 75939","Match","Non_Exact","341 HOOKS RD W, CORRIGAN, TX, 75939",23244637,"L"
179689,"341 HUDSON STREET","SHELBY","NC",28150,35.2990339720001,-81.534115987,189,"341 HUDSON STREET, SHELBY, NC, 28150","Match","Exact","341 HUDSON ST, SHELBY, NC, 28150",636567607,"R"
179690,"341 INDIAN RIDGE TRAIL","WAUCONDA","IL",60084,42.2628854230001,-88.1525101839999,190,"341 INDIAN RIDGE TRAIL, WAUCONDA, IL, 60084","Match","Exact","341 INDIAN RIDGE TRL, WAUCONDA, IL, 60084",119695539,"R"
179691,"341 JEFFERSON RD","WHITEFIELD","ME",4353,44.21077023,-69.565611653,191,"341 JEFFERSON RD, WHITEFIELD, ME, 4353","Match","Exact","341 JEFFERSON RD, WHITEFIELD, ME, 04353",75306043,"L"
179692,"341 KITTANNING PIKE","PITTSBURGH","PA",15215,40.5118949230001,-79.9175026029999,192,"341 KITTANNING PIKE, PITTSBURGH, PA, 15215","Match","Exact","341 KITTANNING PIKE, PITTSBURGH, PA, 15215",617247119,"L"
179693,"341 LAKEVIEW RD","WHITE SALMON","WA",98672,45.773584611,-121.536262188,193,"341 LAKEVIEW RD, WHITE SALMON, WA, 98672","Match","Exact","341 LAKEVIEW RD, WHITE SALMON, WA, 98672",649847904,"R"
179694,"341 LANTERN LANE","CHAMBERSBURG","PA",17201,39.9203941760001,-77.678073239,194,"341 LANTERN LANE, CHAMBERSBURG, PA, 17201","Match","Exact","341 LANTERN LN, CHAMBERSBURG, PA, 17201",648174908,"L"
179695,"341 LEE ROAD 260","OPELIKA","AL",36804,32.6841608920001,-85.238802904,195,"341 LEE ROAD 260, OPELIKA, AL, 36804","Match","Exact","341 LEE ROAD 260, OPELIKA, AL, 36804",1564516,"R"
179696,"341 LEGENDS DRIVE","LEWISVILLE","TX",75057,33.0452164000001,-96.99175301,196,"341 LEGENDS DRIVE, LEWISVILLE, TX, 75057","Match","Exact","341 LEGENDS DR, LEWISVILLE, TX, 75057",616849903,"L"
179697,"341 LIBERTY STREET","PETALUMA","CA",94952,38.237180134,-122.645326097,197,"341 LIBERTY STREET, PETALUMA, CA, 94952","Match","Exact","341 LIBERTY ST, PETALUMA, CA, 94952",67477556,"R"
179698,"341 LOCUST STREET","MOUNT VERNON","NY",10550,40.9182938660001,-73.84400227,198,"341 LOCUST STREET, MOUNT VERNON, NY, 10550","Match","Exact","341 LOCUST ST, MOUNT VERNON, NY, 10550",139746599,"R"
179699,"341 LOWELL DR","SANTA CLARA","CA",95051,37.3295399200001,-122.000893192,199,"341 LOWELL DR, SANTA CLARA, CA, 95051","Match","Exact","341 LOWELL DR, SANTA CLARA, CA, 95051",122941921,"R"
179700,"341 LUDWELL DRIVE","LANCASTER","PA",17601,40.1012264460001,-76.320458537,200,"341 LUDWELL DRIVE, LANCASTER, PA, 17601","Match","Exact","341 LUDWELL DR, LANCASTER, PA, 17601",179676468,"R"
179701,"341 MAIN STREET PO BOX 88","HILL CITY","SD",57745,43.931309405,-103.575567712,201,"341 MAIN STREET PO BOX 88, HILL CITY, SD, 57745","Match","Exact","341 MAIN ST, HILL CITY, SD, 57745",205521193,"L"
179702,"341 MATILDA ST","ILLIOPOLIS","IL",62539,39.8502918350001,-89.2466951869999,202,"341 MATILDA ST, ILLIOPOLIS, IL, 62539","Match","Exact","341 MATILDA ST, ILLIOPOLIS, IL, 62539",97357274,"R"
179703,"341 MCKEE STREET","JACKSON","MS",39202,32.3113840840001,-90.183266381,203,"341 MCKEE STREET, JACKSON, MS, 39202","Match","Exact","341 MCKEE ST, JACKSON, MS, 39202",65371145,"R"
179704,"341 MOUNTAIN VIEW DRIVE","SEQUIM","WA",98382,48.146660125,-123.140579766,204,"341 MOUNTAIN VIEW DRIVE, SEQUIM, WA, 98382","Match","Exact","341 MOUNTAIN VIEW DR, SEQUIM, WA, 98382",150869827,"L"
179705,"341 N EMERY AVE","PESHTIGO","WI",54157,45.0500210590001,-87.750918123,205,"341 N EMERY AVE, PESHTIGO, WI, 54157","Match","Non_Exact","341 S EMERY AVE, PESHTIGO, WI, 54157",169994278,"L"
179706,"341 N LYNN AVE","REPUBLIC","MO",65738,37.121019593,-93.462106241,206,"341 N LYNN AVE, REPUBLIC, MO, 65738","Match","Exact","341 N LYNN AVE, REPUBLIC, MO, 65738",76669471,"R"
179707,"341 N MAIN STREET","SUFFIELD","CT",6078,41.9892722920001,-72.648125963,207,"341 N MAIN STREET, SUFFIELD, CT, 6078","Match","Exact","341 N MAIN ST, SUFFIELD, CT, 06078",604935078,"R"
179708,"341 N SPRING LAKE BLVD NW","PORT CHARLOTTE","FL",33952,NA,NA,208,"341 N SPRING LAKE BLVD NW, PORT CHARLOTTE, FL, 33952","Tie",NA,NA,NA,NA
179709,"341 NATALIE DR","WEST CHICAGO","IL",60185,NA,NA,209,"341 NATALIE DR, WEST CHICAGO, IL, 60185","No_Match",NA,NA,NA,NA
179710,"341 NORTH MADISON TERRACE","MONTGOMERY","AL",36107,32.384521777,-86.283368678,210,"341 NORTH MADISON TERRACE, MONTGOMERY, AL, 36107","Match","Exact","341 N MADISON TER, MONTGOMERY, AL, 36107",1469988,"L"
179711,"341 NORTH MAITLAND AVENUE","MAITLAND","FL",32751,28.6297047690001,-81.3656210679999,211,"341 NORTH MAITLAND AVENUE, MAITLAND, FL, 32751","Match","Exact","341 N MAITLAND AVE, MAITLAND, FL, 32751",94275374,"L"
179712,"341 NW SECOND STREET SUITE 305","LAWTON","OK",73507,34.6130437640001,-98.390413,212,"341 NW SECOND STREET SUITE 305, LAWTON, OK, 73507","Match","Non_Exact","341 NW 2ND ST, LAWTON, OK, 73507",15013672,"R"
179713,"341 ORENDORFF WAY","COLUMBIA HEIGHTS","MN",55421,45.0381443000001,-93.261783085,213,"341 ORENDORFF WAY, COLUMBIA HEIGHTS, MN, 55421","Match","Non_Exact","341 ORENDORF WAY NE, COLUMBIA HEIGHTS, MN, 55421",617527261,"R"
179714,"341 PAINT FORK ROAD","BARNARDSVILLE","NC",28709,35.7511277190001,-82.4605130859999,214,"341 PAINT FORK ROAD, BARNARDSVILLE, NC, 28709","Match","Exact","341 PAINT FORK RD, BARNARDSVILLE, NC, 28709",36893995,"L"
179715,"341 PAWTUCKET BLVD 8","LOWELL","MA",1854,42.6415200070001,-71.34669546,215,"341 PAWTUCKET BLVD 8, LOWELL, MA, 1854","Match","Exact","341 PAWTUCKET BLVD, LOWELL, MA, 01854",87140436,"R"
179716,"341 PINE STREET","SOUTH HEMPSTEAD","NY",11550,40.683086276,-73.624864383,216,"341 PINE STREET, SOUTH HEMPSTEAD, NY, 11550","Match","Exact","341 PINE ST, S HEMPSTEAD, NY, 11550",147676277,"L"
179717,"341 RIGGANS WAY","FRANKLINTON","NC",27525,36.121677096,-78.4751009519999,217,"341 RIGGANS WAY, FRANKLINTON, NC, 27525","Match","Exact","341 RIGGANS WAY, FRANKLINTON, NC, 27525",90235490,"L"
179718,"341 RIVER DRIVE","HADLEY","MA",1035,42.4042616,-72.56713796,218,"341 RIVER DRIVE, HADLEY, MA, 1035","Match","Exact","341 RIVER DR, HADLEY, MA, 01035",39865249,"R"
179719,"341 ROGERS STREET","THOMASTON","GA",30286,32.870083591,-84.3241202679999,219,"341 ROGERS STREET, THOMASTON, GA, 30286","Match","Exact","341 ROGERS ST, THOMASTON, GA, 30286",83695191,"R"
179720,"341 ROOSEVELT STREET","RIO","WI",53960,43.446678573,-89.236952924,220,"341 ROOSEVELT STREET, RIO, WI, 53960","Match","Exact","341 ROOSEVELT ST, RIO, WI, 53960",73322801,"L"
179721,"341 ROOSEVELT STREET","RIP","WI",53960,43.446678573,-89.236952924,221,"341 ROOSEVELT STREET, RIP, WI, 53960","Match","Non_Exact","341 ROOSEVELT ST, RIO, WI, 53960",73322801,"L"
179722,"341 ROSE BUD LN","HOLLY RIDGE","NC",28445,34.4768292970001,-77.564454309,222,"341 ROSE BUD LN, HOLLY RIDGE, NC, 28445","Match","Exact","341 ROSE BUD LN, HOLLY RIDGE, NC, 28445",633815409,"L"
179723,"341 ROUTE 610","PETERSBURG","NJ",8270,NA,NA,223,"341 ROUTE 610, PETERSBURG, NJ, 8270","No_Match",NA,NA,NA,NA
179724,"341 ROYDEN STREET","CAMDEN","NJ",8103,39.938153169,-75.1246280779999,224,"341 ROYDEN STREET, CAMDEN, NJ, 8103","Match","Exact","341 ROYDEN ST, CAMDEN, NJ, 08103",134340890,"L"
179725,"341 S 3RD STREET","COLUMBUS","OH",43215,39.955725268,-82.99666754,225,"341 S 3RD STREET, COLUMBUS, OH, 43215","Match","Exact","341 S 3RD ST, COLUMBUS, OH, 43215",218649125,"R"
179726,"341 S CURTIS AVE","ALHAMBRA","CA",91803,34.086841566,-118.137067345,226,"341 S CURTIS AVE, ALHAMBRA, CA, 91803","Match","Exact","341 S CURTIS AVE, ALHAMBRA, CA, 91803",141636310,"R"
179727,"341 SADDLE PEAK CIRCLE","BOZEMAN","MT",59715,45.776613409,-111.041567757,227,"341 SADDLE PEAK CIRCLE, BOZEMAN, MT, 59715","Match","Non_Exact","341 SADDLE PEAK CIRCLE RD, BOZEMAN, MT, 59715",163569005,"L"
179728,"341 SCIO ST","ROCHESTER","NY",14605,43.1631711680001,-77.5965659249999,228,"341 SCIO ST, ROCHESTER, NY, 14605","Match","Exact","341 SCIO ST, ROCHESTER, NY, 14605",14538518,"L"
179729,"341 SHADY OAKS DRIVE","MURPHY","TX",75094,33.0245691210001,-96.6198741059999,229,"341 SHADY OAKS DRIVE, MURPHY, TX, 75094","Match","Exact","341 SHADY OAKS DR, MURPHY, TX, 75094",210508976,"R"
179730,"341 SPRINGWOOD ROAD","FINCASTLE","VA",24090,37.5029542840001,-79.87126505,230,"341 SPRINGWOOD ROAD, FINCASTLE, VA, 24090","Match","Exact","341 SPRINGWOOD RD, FINCASTLE, VA, 24090",62472532,"L"
179731,"341 SPYGLASS DRIVE","COPPELL","TX",75019,32.9761588530001,-96.9647498959999,231,"341 SPYGLASS DRIVE, COPPELL, TX, 75019","Match","Exact","341 SPYGLASS DR, COPPELL, TX, 75019",102993028,"R"
179732,"341 SUMMER DR","ATLANTA","GA",30328,33.9254401270001,-84.351885447,232,"341 SUMMER DR, ATLANTA, GA, 30328","Match","Exact","341 SUMMER DR, ATLANTA, GA, 30328",17392620,"R"
179733,"341 SW 3RD STREET","BOCA RATON","FL",33432,26.34680761,-80.0926863019999,233,"341 SW 3RD STREET, BOCA RATON, FL, 33432","Match","Exact","341 SW 3RD ST, BOCA RATON, FL, 33432",115303135,"R"
179734,"341 THORN AVENUE","EL PASO","TX",79932,31.8521333,-106.575940019,234,"341 THORN AVENUE, EL PASO, TX, 79932","Match","Exact","341 THORN AVE, EL PASO, TX, 79932",189334412,"L"
179735,"341 TOY LANE","WOODRUFF","SC",29388,34.8406968580001,-82.107124287,235,"341 TOY LANE, WOODRUFF, SC, 29388","Match","Exact","341 TOY LN, WOODRUFF, SC, 29388",636751697,"L"
179736,"341 WASHINGTON STREET","WEST MONROE","LA",71292,32.482719021,-92.1756638909999,236,"341 WASHINGTON STREET, WEST MONROE, LA, 71292","Match","Exact","341 WASHINGTON ST, WEST MONROE, LA, 71292",161081584,"L"
179737,"341 WEST 24TH ST APT 6F","NEW YORK","NY",10011,40.7463249560001,-73.999787622,237,"341 WEST 24TH ST APT 6F, NEW YORK, NY, 10011","Match","Exact","341 W 24TH ST, NEW YORK, NY, 10011",611185460,"R"
179738,"341 WEST 24TH STREET APT 10B","NEW YORK CITY","NY",10011,40.7463249560001,-73.999787622,238,"341 WEST 24TH STREET APT 10B, NEW YORK CITY, NY, 10011","Match","Exact","341 W 24TH ST, NEW YORK, NY, 10011",611185460,"R"
179739,"341 WEST 24TH STREET APT 8F","NEW YORK","NY",10011,40.7463249560001,-73.999787622,239,"341 WEST 24TH STREET APT 8F, NEW YORK, NY, 10011","Match","Exact","341 W 24TH ST, NEW YORK, NY, 10011",611185460,"R"
179740,"341 WEST SHORE RD","WARWICK","RI",2889,41.7300977890001,-71.3953352089999,240,"341 WEST SHORE RD, WARWICK, RI, 2889","Match","Exact","341 W SHORE RD, WARWICK, RI, 02889",650980959,"R"
179741,"3410 21ST STREET SE","WASHINGTON","DC",20020,38.846615796,-76.9738546419999,241,"3410 21ST STREET SE, WASHINGTON, DC, 20020","Match","Exact","3410 21ST ST SE, WASHINGTON, DC, 20020",76244492,"L"
179742,"3410 A VIRGINIA AVENUE","SAINT LOUIS","MO",63118,38.594498055,-90.238075091,242,"3410 A VIRGINIA AVENUE, SAINT LOUIS, MO, 63118","Match","Exact","3410 VIRGINIA AVE, SAINT LOUIS, MO, 63118",605130586,"L"
179743,"3410 ALEXANDER RD NE 501","ATLANTA","GA",30326,33.8532505650001,-84.367232637,243,"3410 ALEXANDER RD NE 501, ATLANTA, GA, 30326","Match","Exact","3410 ALEXANDER RD NE, ATLANTA, GA, 30326",628052512,"R"
179744,"3410 AMNICOLA HWY","CHATTANOOGA","TN",37406,35.083433917,-85.262973025,244,"3410 AMNICOLA HWY, CHATTANOOGA, TN, 37406","Match","Exact","3410 AMNICOLA HWY, CHATTANOOGA, TN, 37406",59307211,"R"
179745,"3410 BALDWIN DR","QUINCY","IL",62301,39.9272338970001,-91.362219341,245,"3410 BALDWIN DR, QUINCY, IL, 62301","Match","Exact","3410 BALDWIN DR, QUINCY, IL, 62301",35098184,"L"
179746,"3410 BOICE DR","NORTH BRUNSWICK","NJ",8902,NA,NA,246,"3410 BOICE DR, NORTH BRUNSWICK, NJ, 8902","No_Match",NA,NA,NA,NA
179747,"3410 CHIHUAHUA AVENUE","DALLAS","TX",75212,32.7838034920001,-96.8456066109999,247,"3410 CHIHUAHUA AVENUE, DALLAS, TX, 75212","Match","Exact","3410 CHIHUAHUA AVE, DALLAS, TX, 75212",102904604,"R"
179748,"3410 DANBURY CHASE TRAIL","FRESNO","TX",77545,29.5374378770001,-95.482340188,248,"3410 DANBURY CHASE TRAIL, FRESNO, TX, 77545","Match","Exact","3410 DANBURY CHASE TRL, FRESNO, TX, 77545",636788968,"R"
179749,"3410 DUNLAP FIELDS","CONVERSE","TX",78109,29.4602615310001,-98.3572160699999,249,"3410 DUNLAP FIELDS, CONVERSE, TX, 78109","Match","Exact","3410 DUNLAP FIELDS, CONVERSE, TX, 78109",645564543,"R"
179750,"3410 E 42ND ST","MINNEAPOLIS","MN",55406,44.926928096,-93.222388596,250,"3410 E 42ND ST, MINNEAPOLIS, MN, 55406","Match","Non_Exact","3410 E 42ND ST, MINNEAPOLIS, MN, 55406",43640564,"L"
179751,"3410 E POWHATAN AVE","TAMPA","FL",33610,27.999015539,-82.421318546,251,"3410 E POWHATAN AVE, TAMPA, FL, 33610","Match","Exact","3410 E POWHATAN AVE, TAMPA, FL, 33610",104533294,"L"
179752,"3410 EASTSTATE ST","TRENTON","NJ",8619,NA,NA,252,"3410 EASTSTATE ST, TRENTON, NJ, 8619","No_Match",NA,NA,NA,NA
179753,"3410 FALKEN CT","HIGHLAND VILLAGE","TX",75077,33.0973313380001,-97.0843149029999,253,"3410 FALKEN CT, HIGHLAND VILLAGE, TX, 75077","Match","Exact","3410 FALKEN CT, HIGHLAND VILLAGE, TX, 75077",614173057,"R"
179754,"3410 FOREST LANE","PFAFFTOWN","NC",27040,36.1952780720001,-80.347946107,254,"3410 FOREST LANE, PFAFFTOWN, NC, 27040","Match","Exact","3410 FOREST LN, PFAFFTOWN, NC, 27040",84647079,"L"
179755,"3410 FOXCROFT ROAD","HOLLYWOOD","FL",33025,25.9759356490001,-80.268051912,255,"3410 FOXCROFT ROAD, HOLLYWOOD, FL, 33025","Match","Non_Exact","3410 FOX CROFT RD, HOLLYWOOD, FL, 33025",608971608,"R"
179756,"3410 GUERNEVILLE ROAD","SANTA ROSA","CA",95401,38.4525464340001,-122.800666492,256,"3410 GUERNEVILLE ROAD, SANTA ROSA, CA, 95401","Match","Exact","3410 GUERNEVILLE RD, SANTA ROSA, CA, 95401",67465002,"L"
179757,"3410 HEALY DRIVE SUITE 201-F","WINSTON-SALEM","NC",27103,36.0760071460001,-80.311162229,257,"3410 HEALY DRIVE SUITE 201-F, WINSTON-SALEM, NC, 27103","Match","Exact","3410 HEALY DR, WINSTON SALEM, NC, 27103",84643204,"L"
179758,"3410 HERRON DRIVE","MELISSA","TX",75454,33.303175341,-96.546247808,258,"3410 HERRON DRIVE, MELISSA, TX, 75454","Match","Exact","3410 HERRON DR, MELISSA, TX, 75454",651635569,"L"
179759,"3410 HONDO PASS AVENUE","EL PASO","TX",79904,31.869417319,-106.453310848,259,"3410 HONDO PASS AVENUE, EL PASO, TX, 79904","Match","Exact","3410 HONDO PASS AVE, EL PASO, TX, 79904",189337462,"R"
179760,"3410 HUNT LN","OVIEDO","FL",32765,28.620338992,-81.203137942,260,"3410 HUNT LN, OVIEDO, FL, 32765","Match","Exact","3410 HUNT LN, OVIEDO, FL, 32765",93746967,"R"
179761,"3410 JEWELL ROAD","WHITE HALL","AR",71602,34.2337097000001,-92.117153236,261,"3410 JEWELL ROAD, WHITE HALL, AR, 71602","Match","Exact","3410 JEWELL RD, WHITE HALL, AR, 71602",646182092,"R"
179762,"3410 KEOKUK AVENUE","SPIRIT LAKE","IA",51360,43.408518594,-95.107864617,262,"3410 KEOKUK AVENUE, SPIRIT LAKE, IA, 51360","Match","Non_Exact","3410 S KEOKUK AVE, SPIRIT LAKE, IA, 51360",624557764,"L"
179763,"3410 LA SIERRA AVE F134","RIVERSIDE","CA",92503,33.897469303,-117.471314282,263,"3410 LA SIERRA AVE F134, RIVERSIDE, CA, 92503","Match","Non_Exact","3410 LA SIERRA AVE, RIVERSIDE, CA, 92503",194737610,"L"
179764,"3410 LA SIERRA AVE F86","RIVERSIODE","CA",92503,33.897469303,-117.471314282,264,"3410 LA SIERRA AVE F86, RIVERSIODE, CA, 92503","Match","Non_Exact","3410 LA SIERRA AVE, RIVERSIDE, CA, 92503",194737610,"L"
179765,"3410 LA SIERRA AVE STE F86","RIVERSIDE","CA",92503,33.897469303,-117.471314282,265,"3410 LA SIERRA AVE STE F86, RIVERSIDE, CA, 92503","Match","Non_Exact","3410 LA SIERRA AVE, RIVERSIDE, CA, 92503",194737610,"L"
179766,"3410 LA SIERRA AVENUE F-717","RIVERSIDE","CA",92503,33.897469303,-117.471314282,266,"3410 LA SIERRA AVENUE F-717, RIVERSIDE, CA, 92503","Match","Non_Exact","3410 LA SIERRA AVE, RIVERSIDE, CA, 92503",194737610,"L"
179767,"3410 LA SIERRA AVENUE F282","RIVERSIDE","CA",92503,33.897469303,-117.471314282,267,"3410 LA SIERRA AVENUE F282, RIVERSIDE, CA, 92503","Match","Non_Exact","3410 LA SIERRA AVE, RIVERSIDE, CA, 92503",194737610,"L"
179768,"3410 LA SIERRA AVENUE SUITE F-914","RIVERSIDE","CA",92503,33.897469303,-117.471314282,268,"3410 LA SIERRA AVENUE SUITE F-914, RIVERSIDE, CA, 92503","Match","Non_Exact","3410 LA SIERRA AVE, RIVERSIDE, CA, 92503",194737610,"L"
179769,"3410 LARGO DRIVE APT 203","MOUNT PLEASANT","SC",29466,NA,NA,269,"3410 LARGO DRIVE APT 203, MOUNT PLEASANT, SC, 29466","No_Match",NA,NA,NA,NA
179770,"3410 LAUREL LANE","HAZEL CREST","IL",60429,41.579535042,-87.7001583219999,270,"3410 LAUREL LANE, HAZEL CREST, IL, 60429","Match","Exact","3410 LAUREL LN, HAZEL CREST, IL, 60429",111704941,"R"
179771,"3410 MAGNOLIA DR","PORTER","TX",77365,30.084523615,-95.185299087,271,"3410 MAGNOLIA DR, PORTER, TX, 77365","Match","Exact","3410 MAGNOLIA DR, PORTER, TX, 77365",96048177,"R"
179772,"3410 MILLER RD","SANDUSKY","OH",44870,41.3776499940001,-82.743981978,272,"3410 MILLER RD, SANDUSKY, OH, 44870","Match","Exact","3410 MILLER RD, SANDUSKY, OH, 44870",55325664,"L"
179773,"3410 MORNINGSIDE DRIVE","EL SOBRANTE","CA",94803,37.9709302900001,-122.284395702,273,"3410 MORNINGSIDE DRIVE, EL SOBRANTE, CA, 94803","Match","Exact","3410 MORNINGSIDE DR, EL SOBRANTE, CA, 94803",192042608,"R"
179774,"3410 NIAGARA","CANTON","MI",48188,42.2806887400001,-83.516961796,274,"3410 NIAGARA, CANTON, MI, 48188","Match","Non_Exact","3410 NIAGRA AVE, CANTON, MI, 48188",95725957,"L"
179775,"3410 NORTH ANTHONY","FORT WAYNE","IN",46806,NA,NA,275,"3410 NORTH ANTHONY, FORT WAYNE, IN, 46806","No_Match",NA,NA,NA,NA
179776,"3410 NW CASABLANCA LANE APT 109","ANKENY","IA",50023,41.759669176,-93.608031349,276,"3410 NW CASABLANCA LANE APT 109, ANKENY, IA, 50023","Match","Non_Exact","3410 NW CASABLANCA LN, ANKENY, IA, 50023",650095868,"L"
179777,"3410 OLD HOPPER RD","CAPE GIRARDEAU","MO",63701,NA,NA,277,"3410 OLD HOPPER RD, CAPE GIRARDEAU, MO, 63701","No_Match",NA,NA,NA,NA
179778,"3410 OLD SELMA ROAD","MONTGOMERY","AL",36108,32.3523521860001,-86.378770738,278,"3410 OLD SELMA ROAD, MONTGOMERY, AL, 36108","Match","Exact","3410 OLD SELMA RD, MONTGOMERY, AL, 36108",1544216,"L"
179779,"3410 PLATEAU DR","BELMONT","CA",94002,37.5158123740001,-122.31655073,279,"3410 PLATEAU DR, BELMONT, CA, 94002","Match","Exact","3410 PLATEAU DR, BELMONT, CA, 94002",192378913,"R"
179780,"3410 REDWOOD LODGE CT","KINGWOOD","TX",77339,30.0537395430001,-95.2055029479999,280,"3410 REDWOOD LODGE CT, KINGWOOD, TX, 77339","Match","Exact","3410 REDWOOD LODGE CT, KINGWOOD, TX, 77339",96141593,"R"
179781,"3410 RENAULT STREET","MEMPHIS","TN",38118,35.0552201720001,-89.909613597,281,"3410 RENAULT STREET, MEMPHIS, TN, 38118","Match","Exact","3410 RENAULT ST, MEMPHIS, TN, 38118",72921784,"L"
179782,"3410 S BIRCH ST","SANTA ANA","CA",92707,33.701378495,-117.871333934,282,"3410 S BIRCH ST, SANTA ANA, CA, 92707","Match","Exact","3410 S BIRCH ST, SANTA ANA, CA, 92707",144044212,"L"
179783,"3410 SANDWEDGE LANE","SNELLVILLE","GA",30039,33.81927161,-84.01967927,283,"3410 SANDWEDGE LANE, SNELLVILLE, GA, 30039","Match","Exact","3410 SANDWEDGE LN, SNELLVILLE, GA, 30039",636146002,"R"
179784,"3410 SNOWBERRY DR","RALEIGH","NC",27610,35.735989074,-78.615650892,284,"3410 SNOWBERRY DR, RALEIGH, NC, 27610","Match","Exact","3410 SNOWBERRY DR, RALEIGH, NC, 27610",648793178,"R"
179785,"3410 TANAGER AVE","DAVIS","CA",95616,38.5734685210001,-121.754882481,285,"3410 TANAGER AVE, DAVIS, CA, 95616","Match","Exact","3410 TANAGER AVE, DAVIS, CA, 95616",67701417,"R"
179786,"3410 VERMONT AVENUE","LOUISVILLE","KY",40211,38.2555788120001,-85.807619315,286,"3410 VERMONT AVENUE, LOUISVILLE, KY, 40211","Match","Exact","3410 VERMONT AVE, LOUISVILLE, KY, 40211",96841194,"L"
179787,"3410 WILLOW CRESCENT COURT","FULSHEAR","TX",77441,29.7317532060001,-95.865673223,287,"3410 WILLOW CRESCENT COURT, FULSHEAR, TX, 77441","Match","Exact","3410 WILLOW CRESCENT CT, FULSHEAR, TX, 77441",648800385,"L"
179788,"3410 WISTERIA COURT","BIRMINGHAM","AL",35216,33.40461715,-86.793418818,288,"3410 WISTERIA COURT, BIRMINGHAM, AL, 35216","Match","Exact","3410 WISTERIA CT, BIRMINGHAM, AL, 35216",81704961,"R"
179789,"3410","ALPHARETTA GA 30022","GA",30022,NA,NA,289,"3410, ALPHARETTA GA 30022, GA, 30022","No_Match",NA,NA,NA,NA
179790,"34100 SE CARMICHAEL ST","SNOQUALMIE","WA",98065,47.5412631200001,-121.885593663,290,"34100 SE CARMICHAEL ST, SNOQUALMIE, WA, 98065","Match","Exact","34100 SE CARMICHAEL ST, SNOQUALMIE, WA, 98065",648883930,"R"
179791,"34101 EMMA CIR","COMMERCE TWP","MI",48390,NA,NA,291,"34101 EMMA CIR, COMMERCE TWP, MI, 48390","No_Match",NA,NA,NA,NA
179792,"34101 SE MAHONIA ST","SNOQUALMIE","WA",98065,47.5166090880001,-121.88556447,292,"34101 SE MAHONIA ST, SNOQUALMIE, WA, 98065","Match","Exact","34101 SE MAHONIA ST, SNOQUALMIE, WA, 98065",640964269,"L"
179793,"34102 FORTUNADO STREET","SORRENTO","FL",32776,28.8469648770001,-81.55241053,293,"34102 FORTUNADO STREET, SORRENTO, FL, 32776","Match","Exact","34102 FORTUNADO ST, SORRENTO, FL, 32776",94215816,"L"
179794,"34104 JANET AVENUE","FRASER","MI",48026,42.5480724650001,-82.9406648579999,294,"34104 JANET AVENUE, FRASER, MI, 48026","Match","Exact","34104 JANET AVE, FRASER, MI, 48026",110679912,"R"
179795,"3411 156 STREET","TACOMA","WA",98446,47.1149346810001,-122.383977443,295,"3411 156 STREET, TACOMA, WA, 98446","Match","Non_Exact","3411 156TH ST E, TACOMA, WA, 98446",184631837,"L"
179796,"3411 AVENUE S","BROOKLYN","NY",11234,NA,NA,296,"3411 AVENUE S, BROOKLYN, NY, 11234","No_Match",NA,NA,NA,NA
179797,"3411 AVOCADO STREET","RIVERSIDE","CA",92507,33.981617774,-117.326635878,297,"3411 AVOCADO STREET, RIVERSIDE, CA, 92507","Match","Exact","3411 AVOCADO ST, RIVERSIDE, CA, 92507",194746173,"R"
179798,"3411 BAUGH STREET","RALEIGH","NC",27604,35.824893758,-78.581085566,298,"3411 BAUGH STREET, RALEIGH, NC, 27604","Match","Exact","3411 BAUGH ST, RALEIGH, NC, 27604",72533211,"L"
179799,"3411 BETTERTON LANE","CHARLOTTE","NC",28269,35.317236947,-80.800845065,299,"3411 BETTERTON LANE, CHARLOTTE, NC, 28269","Match","Exact","3411 BETTERTON LN, CHARLOTTE, NC, 28269",70532617,"L"
179800,"3411 BROOKDALE DRIVE","PITTSBURGH","PW",15241,NA,NA,300,"3411 BROOKDALE DRIVE, PITTSBURGH, PW, 15241","No_Match",NA,NA,NA,NA
179801,"3411 BROWN ROAD","GREEN COVE SPRINGS","FL",32043,30.0144799080001,-81.70493091,301,"3411 BROWN ROAD, GREEN COVE SPRINGS, FL, 32043","Match","Exact","3411 BROWN RD, GREEN COVE SPRINGS, FL, 32043",606236770,"R"
179802,"3411 BUMGARDNER CT","COLUMBIA","SC",29201,34.0420775360001,-81.004017012,302,"3411 BUMGARDNER CT, COLUMBIA, SC, 29201","Match","Non_Exact","3411 BUMGARDNER CT, COLUMBIA, SC, 29204",624853262,"L"
179803,"3411 CELENA CIR","SAINT CLOUD","FL",34769,28.244755195,-81.307513001,303,"3411 CELENA CIR, SAINT CLOUD, FL, 34769","Match","Exact","3411 CELENA CIR, SAINT CLOUD, FL, 34769",176699952,"R"
179804,"3411 CHESTNUT STREET","PHILADELPHIA","PA",19104,39.9543793300001,-75.192105794,304,"3411 CHESTNUT STREET, PHILADELPHIA, PA, 19104","Match","Exact","3411 CHESTNUT ST, PHILADELPHIA, PA, 19104",131404325,"R"
179805,"3411 CORINTH WAY","SOUTHAVEN","MS",38672,NA,NA,305,"3411 CORINTH WAY, SOUTHAVEN, MS, 38672","No_Match",NA,NA,NA,NA
179806,"3411 CRUTCHFIELD PLACE","CHARLOTTE","NC",28213,35.298629578,-80.692463001,306,"3411 CRUTCHFIELD PLACE, CHARLOTTE, NC, 28213","Match","Exact","3411 CRUTCHFIELD PL, CHARLOTTE, NC, 28213",70562505,"L"
179807,"3411 DR LOVE ROAD","ORLANDO","FL",32810,28.620244508,-81.4213713999999,307,"3411 DR LOVE ROAD, ORLANDO, FL, 32810","Match","Exact","3411 DOCTOR LOVE RD, ORLANDO, FL, 32810",94330837,"R"
179808,"3411 EAST DELEUIL AVENUE","TAMPA","FL",33610,27.9982830550001,-82.422155506,308,"3411 EAST DELEUIL AVENUE, TAMPA, FL, 33610","Match","Non_Exact","3411 DELEUIL AVE, TAMPA, FL, 33610",104533296,"R"
179809,"3411 ELLENMERE DRIVE","SACRAMENTO","CA",95821,38.616888804,-121.385377853,309,"3411 ELLENMERE DRIVE, SACRAMENTO, CA, 95821","Match","Exact","3411 ELLENMERE DR, SACRAMENTO, CA, 95821",133333278,"L"
179810,"3411 FAIRWAY LN","DURHAM","NC",27712,36.1216595700001,-78.868099994,310,"3411 FAIRWAY LN, DURHAM, NC, 27712","Match","Exact","3411 FAIRWAY LN, DURHAM, NC, 27712",71751100,"R"
179811,"3411 GUNDRY AVENUE","LONG BEACH","CA",90807,33.8193133250001,-118.174149098,311,"3411 GUNDRY AVENUE, LONG BEACH, CA, 90807","Match","Exact","3411 GUNDRY AVE, LONG BEACH, CA, 90807",141686559,"L"
179812,"3411 HIGHWAY 126 ST 206","BLOUNTVILLE","TN",37617,NA,NA,312,"3411 HIGHWAY 126 ST 206, BLOUNTVILLE, TN, 37617","No_Match",NA,NA,NA,NA
179813,"3411 HINAHINA ST","LIHUE","HI",96766,21.9865081890001,-159.369802144,313,"3411 HINAHINA ST, LIHUE, HI, 96766","Match","Exact","3411 HINAHINA ST, LIHUE, HI, 96766",203392555,"L"
179814,"3411 HONEY BLOSSOM LN","KATY","TX",77494,29.7414349850001,-95.816823291,314,"3411 HONEY BLOSSOM LN, KATY, TX, 77494","Match","Exact","3411 HONEY BLOSSOM LN, KATY, TX, 77494",642950016,"L"
179815,"3411 IDLEWOOD AVE","YOUNGSTOWN","OH",44511,41.0655120500001,-80.665205527,315,"3411 IDLEWOOD AVE, YOUNGSTOWN, OH, 44511","Match","Exact","3411 IDLEWOOD AVE, YOUNGSTOWN, OH, 44511",64596051,"L"
179816,"3411 JAMUL HIGHLANDS RD","JAMUL","CA",91935,32.728177811,-116.843611476,316,"3411 JAMUL HIGHLANDS RD, JAMUL, CA, 91935","Match","Exact","3411 JAMUL HIGHLANDS RD, JAMUL, CA, 91935",195431537,"R"
179817,"3411 KELLEY CHAPEL ROAD","DECATUR","GA",30034,33.6845364600001,-84.214958585,317,"3411 KELLEY CHAPEL ROAD, DECATUR, GA, 30034","Match","Exact","3411 KELLEY CHAPEL RD, DECATUR, GA, 30034",23373546,"R"
179818,"3411 LOBLOLLY","SPRING","TX",77380,30.1325833650001,-95.493964297,318,"3411 LOBLOLLY, SPRING, TX, 77380","Match","Non_Exact","3411 LOBLOLLY ST, SPRING, TX, 77380",79282649,"R"
179819,"3411 LOS ANGELES BLVD","DALLAS","TX",75233,32.7028554350001,-96.887144339,319,"3411 LOS ANGELES BLVD, DALLAS, TX, 75233","Match","Exact","3411 LOS ANGELES BLVD, DALLAS, TX, 75233",103191959,"R"
179820,"3411 MAHOGANY DRIVE","MONTROSE","CO",81401,38.4428179510001,-107.82703082,320,"3411 MAHOGANY DRIVE, MONTROSE, CO, 81401","Match","Exact","3411 MAHOGANY DR, MONTROSE, CO, 81401",619123426,"L"
179821,"3411 N 5TH AVE SUITE 316","PHOENIX","AZ",85013,33.4892730870001,-112.080420402,321,"3411 N 5TH AVE SUITE 316, PHOENIX, AZ, 85013","Match","Non_Exact","3411 N 5TH AVE, PHOENIX, AZ, 85013",128206323,"R"
179822,"3411 N ELAINE PL UNIT 1","CHICAGCO","IL",60657,41.9439624890001,-87.647439209,322,"3411 N ELAINE PL UNIT 1, CHICAGCO, IL, 60657","Match","Non_Exact","3411 N ELAINE PL, CHICAGO, IL, 60657",605201971,"R"
179823,"3411 N KILDARE AVENUE","CHICAGO","IL",60641,41.943056488,-87.7346814059999,323,"3411 N KILDARE AVENUE, CHICAGO, IL, 60641","Match","Exact","3411 N KILDARE AVE, CHICAGO, IL, 60641",111756042,"R"
179824,"3411 N NOTTINGHAM PLACE","FAYETTEVILLE","AR",72703,36.1132672160001,-94.141143181,324,"3411 N NOTTINGHAM PLACE, FAYETTEVILLE, AR, 72703","Match","Exact","3411 N NOTTINGHAM PL, FAYETTEVILLE, AR, 72703",49078924,"L"
179825,"3411 OAKRIDGE DR SW","DECATUR","AL",35603,34.5449609450001,-87.0040524199999,325,"3411 OAKRIDGE DR SW, DECATUR, AL, 35603","Match","Exact","3411 OAKRIDGE DR SW, DECATUR, AL, 35603",97135336,"R"
179826,"3411 OLD VINEYARD RD  SUITE F2","WINSTON SALEM","NC",27103,NA,NA,326,"3411 OLD VINEYARD RD  SUITE F2, WINSTON SALEM, NC, 27103","No_Match",NA,NA,NA,NA
179827,"3411 OLD VINEYARD ROAD B-10","WINSTON SALEM","NC",27103,NA,NA,327,"3411 OLD VINEYARD ROAD B-10, WINSTON SALEM, NC, 27103","No_Match",NA,NA,NA,NA
179828,"3411 PARK BLVD","SAN DIEGO","CA",92103,32.741349288,-117.14752107,328,"3411 PARK BLVD, SAN DIEGO, CA, 92103","Match","Exact","3411 PARK BLVD, SAN DIEGO, CA, 92103",195342949,"R"
179829,"3411 PETERS COLONY RD","FLOWER MOUND","TX",75022,33.0340586520001,-97.081638979,329,"3411 PETERS COLONY RD, FLOWER MOUND, TX, 75022","Match","Exact","3411 PETERS COLONY RD, FLOWER MOUND, TX, 75022",614166339,"L"
179830,"3411 POLK STREET NORTHEAST","MINNEAPOLIS","MN",55418,NA,NA,330,"3411 POLK STREET NORTHEAST, MINNEAPOLIS, MN, 55418","No_Match",NA,NA,NA,NA
179831,"3411 RICHMOND SUITE 700","HOUSTON","TX",77046,29.733849467,-95.4294220149999,331,"3411 RICHMOND SUITE 700, HOUSTON, TX, 77046","Match","Non_Exact","3411 RICHMOND AVE, HOUSTON, TX, 77046",96155653,"L"
179832,"3411 ROBERTSON ROAD","BELLINGHAM","WA",98226,48.7664946260001,-122.652583593,332,"3411 ROBERTSON ROAD, BELLINGHAM, WA, 98226","Match","Exact","3411 ROBERTSON RD, BELLINGHAM, WA, 98226",183763601,"L"
179833,"3411 ROSEBERRY DRIVE","LAPORTE","TX",77571,29.6604008150001,-95.077682575,333,"3411 ROSEBERRY DRIVE, LAPORTE, TX, 77571","Match","Non_Exact","3411 ROSEBERRY DR, LA PORTE, TX, 77571",96107198,"R"
179834,"3411 SENTINEL AVE","MIDLAND","TX",79703,32.002989174,-102.124204412,334,"3411 SENTINEL AVE, MIDLAND, TX, 79703","Match","Exact","3411 SENTINEL AVE, MIDLAND, TX, 79703",139578969,"L"
179835,"3411 SILVERSIDE ROAD TATNALL 104","WILMINGTON","DE",19810,39.8087334480001,-75.542018728,335,"3411 SILVERSIDE ROAD TATNALL 104, WILMINGTON, DE, 19810","Match","Exact","3411 SILVERSIDE RD, WILMINGTON, DE, 19810",187255930,"R"
179836,"3411 SOUTH MISSOURI STREET","PINE BLUFF","AR",71601,34.1942398800001,-91.9958684699999,336,"3411 SOUTH MISSOURI STREET, PINE BLUFF, AR, 71601","Match","Exact","3411 S MISSOURI ST, PINE BLUFF, AR, 71601",2554328,"L"
179837,"3411 SOUTHWAY ST SW","MASSILLON","OH",44646,40.782860079,-81.4706292989999,337,"3411 SOUTHWAY ST SW, MASSILLON, OH, 44646","Match","Exact","3411 SOUTHWAY ST SW, MASSILLON, OH, 44646",636551931,"R"
179838,"3411 SW 142ND AVE","HOLLYWOOD","FL",33027,25.9773477420001,-80.3354026109999,338,"3411 SW 142ND AVE, HOLLYWOOD, FL, 33027","Match","Exact","3411 SW 142ND AVE, HOLLYWOOD, FL, 33027",114778133,"L"
179839,"3411 SW TOPEKA BLVD","TOPEKA","KS",66611,39.006136256,-95.68765323,339,"3411 SW TOPEKA BLVD, TOPEKA, KS, 66611","Match","Exact","3411 TOPEKA BLVD, TOPEKA, KS, 66611",17891904,"R"
179840,"3411 TAMIAMI TRAIL N SUITE 203","NAPLES","FL",34103,NA,NA,340,"3411 TAMIAMI TRAIL N SUITE 203, NAPLES, FL, 34103","No_Match",NA,NA,NA,NA
179841,"3411 TERRIER LN","LOUISVILLE","KY",40218,38.206770299,-85.663289931,341,"3411 TERRIER LN, LOUISVILLE, KY, 40218","Match","Exact","3411 TERRIER LN, LOUISVILLE, KY, 40218",96854198,"L"
179842,"3411 VICTORIA CIRCLE APT A","KILLEEN","TX",76543,31.1135401290001,-97.693271085,342,"3411 VICTORIA CIRCLE APT A, KILLEEN, TX, 76543","Match","Exact","3411 VICTORIA CIR, KILLEEN, TX, 76543",146153200,"L"
179843,"3411 VILLAGE GROVE PLACE WEST APT 1","MEMPHIS","TN",38115,NA,NA,343,"3411 VILLAGE GROVE PLACE WEST APT 1, MEMPHIS, TN, 38115","No_Match",NA,NA,NA,NA
179844,"3411 WALNUT BEND LANE APT 1027","HOUSTON","TX",77042,29.725604322,-95.567963291,344,"3411 WALNUT BEND LANE APT 1027, HOUSTON, TX, 77042","Match","Exact","3411 WALNUT BEND LN, HOUSTON, TX, 77042",96613560,"R"
179845,"3411 WEST 135TH PLACE","ROBBINS","IL",60472,41.6468170530001,-87.704284731,345,"3411 WEST 135TH PLACE, ROBBINS, IL, 60472","Match","Exact","3411 W 135TH PL, ROBBINS, IL, 60472",111825058,"L"
179846,"3411 WHITNEY CT","COLUMBIA","MO",65203,38.9189608830001,-92.396700881,346,"3411 WHITNEY CT, COLUMBIA, MO, 65203","Match","Exact","3411 WHITNEY CT, COLUMBIA, MO, 65203",23493797,"R"
179847,"3412 A WATER VISTAS PARKWAY","LAWRENCEVILLE","GA",30019,33.942127799,-84.1148588579999,347,"3412 A WATER VISTAS PARKWAY, LAWRENCEVILLE, GA, 30019","Match","Non_Exact","3412 WATER VISTAS PKWY, LAWRENCEVILLE, GA, 30044",88964507,"R"
179848,"3412 ALGONQUIN DRIVE","MUSKEGON","MI",49441,43.1906971450001,-86.290266443,348,"3412 ALGONQUIN DRIVE, MUSKEGON, MI, 49441","Match","Exact","3412 ALGONQUIN DR, MUSKEGON, MI, 49441",77652510,"L"
179849,"3412 ARTHUR AVENUE","SAN DIEGO","CA",92116,32.769068222,-117.120175744,349,"3412 ARTHUR AVENUE, SAN DIEGO, CA, 92116","Match","Exact","3412 ARTHUR AVE, SAN DIEGO, CA, 92116",612870160,"L"
179850,"3412 BRONSON BOULEVARD","KALAMAZOO","MI",49008,42.2575910850001,-85.601640426,350,"3412 BRONSON BOULEVARD, KALAMAZOO, MI, 49008","Match","Exact","3412 BRONSON BLVD, KALAMAZOO, MI, 49008",12229330,"R"
179851,"3412 BURLINGTON DRIVE","NEWBERG","OR",97132,45.324806849,-122.971927277,351,"3412 BURLINGTON DRIVE, NEWBERG, OR, 97132","Match","Exact","3412 BURLINGTON DR, NEWBERG, OR, 97132",156512258,"R"
179852,"3412 CHURCH ROCK ST","GALLUP","NM",87301,35.5284077630001,-108.680139285,352,"3412 CHURCH ROCK ST, GALLUP, NM, 87301","Match","Exact","3412 CHURCH ROCK ST, GALLUP, NM, 87301",178850102,"L"
179853,"3412 COVE ROAD","JUPITER","FL",33469,26.9568351990001,-80.083827454,353,"3412 COVE ROAD, JUPITER, FL, 33469","Match","Exact","3412 COVE RD, JUPITER, FL, 33469",115314042,"R"
179854,"3412 CRANE FERRY ROAD","AUGUSTA","GA",30907,33.5107442080001,-82.07343532,354,"3412 CRANE FERRY ROAD, AUGUSTA, GA, 30907","Match","Exact","3412 CRANE FERRY RD, AUGUSTA, GA, 30907",55633185,"L"
179855,"3412 CRICKETEER DRIVE","JANESVILLE","WI",53546,42.7240738940001,-88.976596989,355,"3412 CRICKETEER DRIVE, JANESVILLE, WI, 53546","Match","Exact","3412 CRICKETEER DR, JANESVILLE, WI, 53546",49872355,"R"
179856,"3412 E 104TH ST","CLEVELAND","OH",44104,41.466141346,-81.612578926,356,"3412 E 104TH ST, CLEVELAND, OH, 44104","Match","Exact","3412 E 104TH ST, CLEVELAND, OH, 44104",61126172,"R"
179857,"3412 E CRIMSON FAIRWAY DR","WASHINGTON","UT",84780,37.15638762,-113.452671602,357,"3412 E CRIMSON FAIRWAY DR, WASHINGTON, UT, 84780","Match","Exact","3412 E CRIMSON FAIRWAY DR, WASHINGTON, UT, 84780",607570401,"R"
179858,"3412 EAST 22ND AVENUE","TAMPA","FL",33605,27.9712422280001,-82.421361528,358,"3412 EAST 22ND AVENUE, TAMPA, FL, 33605","Match","Exact","3412 E 22ND AVE, TAMPA, FL, 33605",104534364,"L"
179859,"3412 EAST VIRGINIA BEACH BLVD","NORFOLK","VA",23502,36.8542014450001,-76.241900605,359,"3412 EAST VIRGINIA BEACH BLVD, NORFOLK, VA, 23502","Match","Exact","3412 E VIRGINIA BEACH BLVD, NORFOLK, VA, 23502",122143027,"L"
179860,"3412 EDGEHILL WAY","NORTH LAS VEGAS","NV",89032,36.221576101,-115.181926801,360,"3412 EDGEHILL WAY, NORTH LAS VEGAS, NV, 89032","Match","Exact","3412 EDGEHILL WAY, N LAS VEGAS, NV, 89032",201908735,"R"
179861,"3412 FAIRWAY OAKS DR APT A","LAWRENCEVILLE","GA",30044,33.944927319,-84.115650821,361,"3412 FAIRWAY OAKS DR APT A, LAWRENCEVILLE, GA, 30044","Match","Exact","3412 FAIRWAY OAKS DR, LAWRENCEVILLE, GA, 30044",653484070,"R"
179862,"3412 LANDAU STREET","NORTH LAS VEGAS","NV",89030,36.2221763900001,-115.1026741,362,"3412 LANDAU STREET, NORTH LAS VEGAS, NV, 89030","Match","Exact","3412 LANDAU ST, N LAS VEGAS, NV, 89030",201866623,"R"
179863,"3412 LAS VEGAS","OCEANSIDE","CA",92054,33.214850347,-117.338187171,363,"3412 LAS VEGAS, OCEANSIDE, CA, 92054","Match","Non_Exact","3412 LAS VEGAS DR, OCEANSIDE, CA, 92054",195284366,"L"
179864,"3412 LEWIS ST","GIG HARBOR","WA",98335,47.324914296,-122.583867906,364,"3412 LEWIS ST, GIG HARBOR, WA, 98335","Match","Exact","3412 LEWIS ST, GIG HARBOR, WA, 98335",640610632,"L"
179865,"3412 LOGAN HILL PL","RICHMOND","VA",23223,37.573264696,-77.374631372,365,"3412 LOGAN HILL PL, RICHMOND, VA, 23223","Match","Exact","3412 LOGAN HILL PL, RICHMOND, VA, 23223",106690349,"L"
179866,"3412 MASSAPONAX CHURCH ROAD","FREDERICKSBURG","VA",22408,38.214401201,-77.463083791,366,"3412 MASSAPONAX CHURCH ROAD, FREDERICKSBURG, VA, 22408","Match","Exact","3412 MASSAPONAX CHURCH RD, FREDERICKSBURG, VA, 22408",228798213,"R"
179867,"3412 NE 64TH ST","VANCOUVER","WA",98661,45.668209383,-122.635005428,367,"3412 NE 64TH ST, VANCOUVER, WA, 98661","Match","Exact","3412 NE 64TH ST, VANCOUVER, WA, 98661",158326353,"L"
179868,"3412 NE BLAKELEY ST","SEATTLE","WA",98105,47.6618845770001,-122.29125596,368,"3412 NE BLAKELEY ST, SEATTLE, WA, 98105","Match","Exact","3412 NE BLAKELEY ST, SEATTLE, WA, 98105",186588107,"L"
179869,"3412 NORMAN LANE","BEDFORD","TX",76021,32.8568219740001,-97.1397805129999,369,"3412 NORMAN LANE, BEDFORD, TX, 76021","Match","Exact","3412 NORMAN LN, BEDFORD, TX, 76021",102106652,"R"
179870,"3412 NORTH GREENBRIER ROAD","LONG BEACH","CA",90808,33.819258959,-118.132893748,370,"3412 NORTH GREENBRIER ROAD, LONG BEACH, CA, 90808","Match","Exact","3412 N GREENBRIER RD, LONG BEACH, CA, 90808",141700538,"R"
179871,"3412 OFFICE PARK DR","MARION","IL",62959,37.7362681610001,-88.993879651,371,"3412 OFFICE PARK DR, MARION, IL, 62959","Match","Exact","3412 OFFICE PARK DR, MARION, IL, 62959",639789908,"R"
179872,"3412 PERKINS RD","ARLINGTON","TX",76016,32.6907559750001,-97.1999908449999,372,"3412 PERKINS RD, ARLINGTON, TX, 76016","Match","Exact","3412 PERKINS RD, ARLINGTON, TX, 76016",102111632,"R"
179873,"3412 POWHATAN AVENUE","BALTIMORE","MD",21216,39.32091231,-76.675157031,373,"3412 POWHATAN AVENUE, BALTIMORE, MD, 21216","Match","Exact","3412 POWHATAN AVE, BALTIMORE, MD, 21216",206413168,"R"
179874,"3412 S BALA DRIVE","TEMPE","AZ",85282,33.3910834540001,-111.894384977,374,"3412 S BALA DRIVE, TEMPE, AZ, 85282","Match","Exact","3412 S BALA DR, TEMPE, AZ, 85282",128233091,"R"
179875,"3412 SLOANE STREET NO 206","CARROLLTON","TX",75007,NA,NA,375,"3412 SLOANE STREET NO 206, CARROLLTON, TX, 75007","No_Match",NA,NA,NA,NA
179876,"3412 SUMMIT ROAD SW","PATASKALA","OH",43062,40.039267329,-82.747904492,376,"3412 SUMMIT ROAD SW, PATASKALA, OH, 43062","Match","Exact","3412 SUMMIT RD SW, PATASKALA, OH, 43062",61539635,"L"
179877,"3412 SUNRISE ROSE AVE","NORTH LAS VEGAS","NV",89031,36.264140007,-115.185671155,377,"3412 SUNRISE ROSE AVE, NORTH LAS VEGAS, NV, 89031","Match","Exact","3412 SUNRISE ROSE AVE, N LAS VEGAS, NV, 89031",624092354,"R"
179878,"3412 W 95TH STREET","EVERGREEN PARK","IL",60805,41.7206665940001,-87.70742827,378,"3412 W 95TH STREET, EVERGREEN PARK, IL, 60805","Match","Exact","3412 W 95TH ST, EVERGREEN PARK, IL, 60805",111818817,"R"
179879,"3412 W KILGORE","MUNCIE","IN",47304,40.181499617,-85.426098659,379,"3412 W KILGORE, MUNCIE, IN, 47304","Match","Non_Exact","3412 W KILGORE AVE, MUNCIE, IN, 47304",638488049,"R"
179880,"3412 W VILLAGE GROVE PL APT 1","MEMPHIS","TN",38115,35.0546742860001,-89.852637961,380,"3412 W VILLAGE GROVE PL APT 1, MEMPHIS, TN, 38115","Match","Non_Exact","3412 W VILLAGE GROVE PL, MEMPHIS, TN, 38115",607463873,"R"
179881,"3412 WASHBURN AVE","CHARLOTTE","NC",28205,35.2032396860001,-80.797559701,381,"3412 WASHBURN AVE, CHARLOTTE, NC, 28205","Match","Exact","3412 WASHBURN AVE, CHARLOTTE, NC, 28205",70488760,"R"
179882,"34127 N WOODED GLEN DR","GRAYSLAKE","IL",60030,42.3554748060001,-87.990009527,382,"34127 N WOODED GLEN DR, GRAYSLAKE, IL, 60030","Match","Exact","34127 N WOODED GLEN DR, GRAYSLAKE, IL, 60030",119696751,"R"
179883,"34127 PACIFIC COAST HIGHWAY","DANA POINT","CA",92629,33.4673353420001,-117.697874748,383,"34127 PACIFIC COAST HIGHWAY, DANA POINT, CA, 92629","Match","Exact","34127 PACIFIC COAST HWY, DANA POINT, CA, 92629",609047331,"R"
179884,"34128 WILLOW BLUFF LN","PINEHURST","TX",77362,30.1548742090001,-95.6766166739999,384,"34128 WILLOW BLUFF LN, PINEHURST, TX, 77362","Match","Exact","34128 WILLOW BLUFF LN, PINEHURST, TX, 77362",650936185,"R"
179885,"3413 BUCHANAN STREET","BAKER","LA",70714,30.5832183420001,-91.165756323,385,"3413 BUCHANAN STREET, BAKER, LA, 70714","Match","Exact","3413 BUCHANAN ST, BAKER, LA, 70714",92178044,"L"
179886,"3413 CREST ELM DR","CORPUS CHRISTI","TX",78415,27.7155207010001,-97.415744326,386,"3413 CREST ELM DR, CORPUS CHRISTI, TX, 78415","Match","Exact","3413 CREST ELM DR, CORPUS CHRISTI, TX, 78415",178518858,"L"
179887,"3413 DANDOLO CIRCLE","CAPE CORAL","FL",33909,26.716678191,-81.922355377,387,"3413 DANDOLO CIRCLE, CAPE CORAL, FL, 33909","Match","Exact","3413 DANDOLO CIR, CAPE CORAL, FL, 33909",616711792,"L"
179888,"3413 EAST CONTESSA CIRCLE","MESA","AZ",85213,33.425097771,-111.757413392,388,"3413 EAST CONTESSA CIRCLE, MESA, AZ, 85213","Match","Exact","3413 E CONTESSA CIR, MESA, AZ, 85213",128331460,"L"
179889,"3413 EAST FAIRMONT PLACE","BROKEN ARROW","OK",74014,36.1073313690001,-95.748052466,389,"3413 EAST FAIRMONT PLACE, BROKEN ARROW, OK, 74014","Match","Exact","3413 E FAIRMONT PL, BROKEN ARROW, OK, 74014",617313571,"R"
179890,"3413 GREEN MEADOWS DR","GLEN ROSE","TX",76043,32.1729346590001,-97.7135229419999,390,"3413 GREEN MEADOWS DR, GLEN ROSE, TX, 76043","Match","Exact","3413 GREEN MEADOWS DR, GLEN ROSE, TX, 76043",637783812,"R"
179891,"3413 HARWOOD DRIVE","TYLER","TX",75701,32.31130613,-95.311073646,391,"3413 HARWOOD DRIVE, TYLER, TX, 75701","Match","Exact","3413 HARWOOD DR, TYLER, TX, 75701",647361290,"R"
179892,"3413 HUNTLEY TERRACE","CRETE","IL",60417,41.4694575830001,-87.591399028,392,"3413 HUNTLEY TERRACE, CRETE, IL, 60417","Match","Exact","3413 HUNTLEY TER, CRETE, IL, 60417",111587985,"L"
179893,"3413 INGLE AVE","LOUISVILLE","KY",40207,38.25288562,-85.668536057,393,"3413 INGLE AVE, LOUISVILLE, KY, 40207","Match","Exact","3413 INGLE AVE, LOUISVILLE, KY, 40207",632852414,"R"
179894,"3413 LAWSON STREET","RICHMOND","VA",23224,37.5069289630001,-77.467781411,394,"3413 LAWSON STREET, RICHMOND, VA, 23224","Match","Exact","3413 LAWSON ST, RICHMOND, VA, 23224",201537700,"R"
179895,"3413 LIVINGSTON AVE","FORT WORTH","TX",76110,32.700911392,-97.347094372,395,"3413 LIVINGSTON AVE, FORT WORTH, TX, 76110","Match","Exact","3413 LIVINGSTON AVE, FORT WORTH, TX, 76110",101887331,"L"
179896,"3413 LOOKWOOD DR","SAN DIEGO","CA",92123,NA,NA,396,"3413 LOOKWOOD DR, SAN DIEGO, CA, 92123","No_Match",NA,NA,NA,NA
179897,"3413 PEMBROKE ST","FORT COLLINS","CO",80526,40.5409690220001,-105.106084651,397,"3413 PEMBROKE ST, FORT COLLINS, CO, 80526","Match","Exact","3413 PEMBROKE ST, FORT COLLINS, CO, 80526",188505367,"R"
179898,"3413 PLACE VALENCAY","DELRAY BEACH","FL",33445,26.471302296,-80.10891314,398,"3413 PLACE VALENCAY, DELRAY BEACH, FL, 33445","Match","Exact","3413 PLACE VALENCAY, DELRAY BEACH, FL, 33445",115576599,"L"
179899,"3413 POWHATAN AVENUE","BALTIMORE","MD",21216,39.320902066,-76.6751620859999,399,"3413 POWHATAN AVENUE, BALTIMORE, MD, 21216","Match","Exact","3413 POWHATAN AVE, BALTIMORE, MD, 21216",206413168,"L"
179900,"3413 S COLUMBIA PLACE","TULSA","OK",74105,36.113595665,-95.950532451,400,"3413 S COLUMBIA PLACE, TULSA, OK, 74105","Match","Exact","3413 S COLUMBIA PL, TULSA, OK, 74105",166443599,"L"
179901,"3413 SERENDIPITY DRIVE","RALEIGH","NC",27616,35.8786243820001,-78.514623178,401,"3413 SERENDIPITY DRIVE, RALEIGH, NC, 27616","Match","Exact","3413 SERENDIPITY DR, RALEIGH, NC, 27616",72664470,"L"
179902,"3413 SLOAN ROAD","FORT PIERCE","FL",34947,27.457525839,-80.3593175519999,402,"3413 SLOAN ROAD, FORT PIERCE, FL, 34947","Match","Exact","3413 SLOAN RD, FORT PIERCE, FL, 34947",120146533,"L"
179903,"3413 SNOW CLOUD LN","SILVER SPRING","MD",20904,39.076418124,-76.9365977859999,403,"3413 SNOW CLOUD LN, SILVER SPRING, MD, 20904","Match","Non_Exact","3413 SNOW CLOUD, SILVER SPRING, MD, 20904",618602270,"R"
179904,"3413 SOUTH DUNSMUIR AVENUE","LOS ANGELES","CA",90016,34.0249228930001,-118.36247913,404,"3413 SOUTH DUNSMUIR AVENUE, LOS ANGELES, CA, 90016","Match","Exact","3413 S DUNSMUIR AVE, LOS ANGELES, CA, 90016",142450510,"R"
179905,"3413 SUMMERHILL DRIVE","MONTGOMERY","AL",36111,32.3378235500001,-86.2474543879999,405,"3413 SUMMERHILL DRIVE, MONTGOMERY, AL, 36111","Match","Exact","3413 SUMMERHILL DR, MONTGOMERY, AL, 36111",1488849,"R"
179906,"3413 W 67TH ST","LOS ANGELES","CA",90043,33.9781442280001,-118.331304401,406,"3413 W 67TH ST, LOS ANGELES, CA, 90043","Match","Exact","3413 W 67TH ST, LOS ANGELES, CA, 90043",141655117,"R"
179907,"3413 W 6TH AVENUE","SPOKANE","WA",99224,47.6510560930001,-117.462198641,407,"3413 W 6TH AVENUE, SPOKANE, WA, 99224","Match","Exact","3413 W 6TH AVE, SPOKANE, WA, 99224",189871744,"L"
179908,"3413 WESTERFELD DR NE","ALBUQUERQUE","NM",87111,35.1214981860001,-106.533907572,408,"3413 WESTERFELD DR NE, ALBUQUERQUE, NM, 87111","Match","Exact","3413 WESTERFELD DR NE, ALBUQUERQUE, NM, 87111",206719320,"L"
179909,"3413 WILLOWOOD DR","BARTLESVILLE","OK",74006,36.738608431,-95.9378882569999,409,"3413 WILLOWOOD DR, BARTLESVILLE, OK, 74006","Match","Exact","3413 WILLOWOOD DR, BARTLESVILLE, OK, 74006",18707169,"L"
179910,"3413 WINTER PARK DR APT 60","SACRAMENTO","CA",95834,38.6294751360001,-121.504159879,410,"3413 WINTER PARK DR APT 60, SACRAMENTO, CA, 95834","Match","Exact","3413 WINTER PARK DR, SACRAMENTO, CA, 95834",647406956,"R"
179911,"34130 BORDMAN RD","MEMPHIS","MI",48041,42.8961940730001,-82.777479375,411,"34130 BORDMAN RD, MEMPHIS, MI, 48041","Match","Exact","34130 BORDMAN RD, MEMPHIS, MI, 48041",647609997,"R"
179912,"34134 FAIRFAX COURT","LIVONIA","MI",48152,42.431551191,-83.383324123,412,"34134 FAIRFAX COURT, LIVONIA, MI, 48152","Match","Exact","34134 FAIRFAX CT, LIVONIA, MI, 48152",95683636,"L"
179913,"34136 SUMMERWIND TERRACE","FREMONT","CA",94555,37.57712797,-122.041385569,413,"34136 SUMMERWIND TERRACE, FREMONT, CA, 94555","Match","Exact","34136 SUMMERWIND TER, FREMONT, CA, 94555",627652132,"R"
179914,"3413CHERRY HILL CT","BELTSVILLE","MD",20705,NA,NA,414,"3413CHERRY HILL CT, BELTSVILLE, MD, 20705","No_Match",NA,NA,NA,NA
179915,"3414 34TH AVE S","SEATTLE","WA",98144,47.5723477700001,-122.289901737,415,"3414 34TH AVE S, SEATTLE, WA, 98144","Match","Exact","3414 34TH AVE S, SEATTLE, WA, 98144",186594822,"L"
179916,"3414 CARPENTER ST SE","WASHINGTON","DC",20020,38.8703454750001,-76.95627995,416,"3414 CARPENTER ST SE, WASHINGTON, DC, 20020","Match","Exact","3414 CARPENTER ST SE, WASHINGTON, DC, 20020",76232121,"L"
179917,"3414 CLEVELAND AVE","FORT MYERS","FL",33901,26.613789851,-81.872115701,417,"3414 CLEVELAND AVE, FORT MYERS, FL, 33901","Match","Exact","3414 CLEVELAND AVE, FORT MYERS, FL, 33901",647907713,"R"
179918,"3414 GRANBY STREET","HOPEWELL","VA",23860,37.2751488150001,-77.307324121,418,"3414 GRANBY STREET, HOPEWELL, VA, 23860","Match","Exact","3414 GRANBY ST, HOPEWELL, VA, 23860",54150025,"R"
179919,"3414 ITALIA WAY UNIT 5","OCEANSIDE","CA",92056,33.1813797550001,-117.313864803,419,"3414 ITALIA WAY UNIT 5, OCEANSIDE, CA, 92056","Match","Exact","3414 ITALIA WAY, OCEANSIDE, CA, 92056",624930200,"R"
179920,"3414 KEYSTONE AVE APT 2","LOS ANGELES","CA",90034,34.02630034,-118.411450171,420,"3414 KEYSTONE AVE APT 2, LOS ANGELES, CA, 90034","Match","Exact","3414 KEYSTONE AVE, LOS ANGELES, CA, 90034",141573623,"L"
179921,"3414 LABRANCH STREET STE 2","HOUSTON","TX",77004,NA,NA,421,"3414 LABRANCH STREET STE 2, HOUSTON, TX, 77004","No_Match",NA,NA,NA,NA
179922,"3414 LAKE TERRACE DRIVE","ELK GROVE","CA",95758,38.4154531130001,-121.465150333,422,"3414 LAKE TERRACE DRIVE, ELK GROVE, CA, 95758","Match","Exact","3414 LAKE TERRACE DR, ELK GROVE, CA, 95758",133386494,"L"
179923,"3414 LEDGE LN","COLUMBUS","OH",43221,40.0180131750001,-83.1061422,423,"3414 LEDGE LN, COLUMBUS, OH, 43221","Match","Exact","3414 LEDGE LN, COLUMBUS, OH, 43221",626957076,"L"
179924,"3414 MAGIC OAK LANE","SARASOTA","FL",34232,27.3385046920001,-82.474165216,424,"3414 MAGIC OAK LANE, SARASOTA, FL, 34232","Match","Exact","3414 MAGIC OAK LN, SARASOTA, FL, 34232",640744607,"R"
179925,"3414 OWENS LANDING DRIVE NW","KENNESAW","GA",30152,34.0160875330001,-84.653557131,425,"3414 OWENS LANDING DRIVE NW, KENNESAW, GA, 30152","Match","Non_Exact","3414 OWENS LANDING DR, KENNESAW, GA, 30152",634051488,"R"
179926,"3414 PENN AVENUE APT A","SINKING SPRING","PA",19608,40.3255486530001,-76.010082181,426,"3414 PENN AVENUE APT A, SINKING SPRING, PA, 19608","Match","Non_Exact","3414 W PENN AVE, SINKING SPRING, PA, 19608",80439381,"R"
179927,"3414 RAMSGATE TERRACE","ALEXANDRIA","VA",22309,38.7321546000001,-77.089961563,427,"3414 RAMSGATE TERRACE, ALEXANDRIA, VA, 22309","Match","Exact","3414 RAMSGATE TER, ALEXANDRIA, VA, 22309",75990632,"R"
179928,"3414 REYNARD","MEMPHIS","TN",38128,35.219178072,-89.961832778,428,"3414 REYNARD, MEMPHIS, TN, 38128","Match","Non_Exact","3414 REYNARD RD, MEMPHIS, TN, 38128",72967530,"R"
179929,"3414 SHALLOW POND DR","FORT COLLINS","CO",80528,40.504211588,-105.014183573,429,"3414 SHALLOW POND DR, FORT COLLINS, CO, 80528","Match","Exact","3414 SHALLOW POND DR, FORT COLLINS, CO, 80528",188583157,"L"
179930,"3414 TRIBUNE DR","DALLAS","TX",75224,32.702600993,-96.8313246389999,430,"3414 TRIBUNE DR, DALLAS, TX, 75224","Match","Exact","3414 TRIBUNE DR, DALLAS, TX, 75224",637927052,"L"
179931,"3414 VALEWOOD DRIVE","OAKTON","VA",22124,38.883851066,-77.3585408019999,431,"3414 VALEWOOD DRIVE, OAKTON, VA, 22124","Match","Exact","3414 VALEWOOD DR, OAKTON, VA, 22124",215919036,"R"
179932,"3414 W 13TH ST","THE DALLES","OR",97058,45.6234817910001,-121.228256917,432,"3414 W 13TH ST, THE DALLES, OR, 97058","Match","Exact","3414 W 13TH ST, THE DALLES, OR, 97058",643277045,"L"
179933,"3414 W 34TH AVE","KENNEWICK","WA",99337,46.178227314,-119.166506738,433,"3414 W 34TH AVE, KENNEWICK, WA, 99337","Match","Exact","3414 W 34TH AVE, KENNEWICK, WA, 99337",606992054,"R"
179934,"3414 W 47TH STREET","MINNEAPOLIS","MN",55410,44.9179151170001,-93.322950373,434,"3414 W 47TH STREET, MINNEAPOLIS, MN, 55410","Match","Exact","3414 W 47TH ST, MINNEAPOLIS, MN, 55410",43628153,"R"
179935,"3414 W COULTER STREET","PHILADELPHIA","PA",19129,40.016600598,-75.1908051189999,435,"3414 W COULTER STREET, PHILADELPHIA, PA, 19129","Match","Exact","3414 W COULTER ST, PHILADELPHIA, PA, 19129",131400580,"L"
179936,"34141 ORANGELAWN","LIVONIA","MI",48150,42.3635944980001,-83.378867667,436,"34141 ORANGELAWN, LIVONIA, MI, 48150","Match","Non_Exact","34141 ORANGELAWN ST, LIVONIA, MI, 48150",95413175,"L"
179937,"34145 PACIFIC COAST HWY UNIT 507","DANA POINT","CA",92629,33.467360421,-117.697736309,437,"34145 PACIFIC COAST HWY UNIT 507, DANA POINT, CA, 92629","Match","Exact","34145 PACIFIC COAST HWY, DANA POINT, CA, 92629",609047331,"R"
179938,"3415 7TH STREET","LEWISTON","ID",83501,46.379153138,-116.996733667,438,"3415 7TH STREET, LEWISTON, ID, 83501","Match","Exact","3415 7TH ST, LEWISTON, ID, 83501",173132790,"R"
179939,"3415 ALAMO LANE","SARASOTA","FL",34235,27.3793483850001,-82.5010429179999,439,"3415 ALAMO LANE, SARASOTA, FL, 34235","Match","Exact","3415 ALAMO LN, SARASOTA, FL, 34235",16346187,"L"
179940,"3415 BLANDFORD WAY","DAVIDSONVILLE","MD",21035,38.902166338,-76.6011712599999,440,"3415 BLANDFORD WAY, DAVIDSONVILLE, MD, 21035","Match","Exact","3415 BLANDFORD WAY, DAVIDSONVILLE, MD, 21035",68206675,"R"
179941,"3415 BOX HILL CORPORATE CENTER DR","ABINGDON","MD",21009,39.4694691080001,-76.3051512439999,441,"3415 BOX HILL CORPORATE CENTER DR, ABINGDON, MD, 21009","Match","Exact","3415 BOX HILL CORPORATE CENTER DR, ABINGDON, MD, 21009",191672430,"L"
179942,"3415 BRENDAN AVENUE","BALTIMORE","MD",21213,39.320431698,-76.5678240779999,442,"3415 BRENDAN AVENUE, BALTIMORE, MD, 21213","Match","Exact","3415 BRENDAN AVE, BALTIMORE, MD, 21213",206425574,"R"
179943,"3415 BRIMFIELD","FLINT","MI",48503,43.0172988570001,-83.641510592,443,"3415 BRIMFIELD, FLINT, MI, 48503","Match","Non_Exact","3415 BRIMFIELD DR, FLINT, MI, 48503",69606854,"L"
179944,"3415 BUTTERFLY ARCH","VIRGINIA BEACH","VA",23456,36.728285489,-76.068404258,444,"3415 BUTTERFLY ARCH, VIRGINIA BEACH, VA, 23456","Match","Exact","3415 BUTTERFLY ARCH, VA BCH, VA, 23456",628985758,"L"
179945,"3415 CERRITOS AVENUE","LOS ALAMITOS","CA",90720,33.810385877,-118.073927334,445,"3415 CERRITOS AVENUE, LOS ALAMITOS, CA, 90720","Match","Exact","3415 CERRITOS AVE, LOS ALAMITOS, CA, 90720",647350383,"L"
179946,"3415 CHESTNUT STREET","OAKLAND","CA",94608,37.825444756,-122.279278208,446,"3415 CHESTNUT STREET, OAKLAND, CA, 94608","Match","Exact","3415 CHESTNUT ST, OAKLAND, CA, 94608",124996152,"L"
179947,"3415 DARTMOUTH AVE","DALLAS","TX",75205,32.8301442120001,-96.787503371,447,"3415 DARTMOUTH AVE, DALLAS, TX, 75205","Match","Exact","3415 DARTMOUTH AVE, DALLAS, TX, 75205",102907829,"L"
179948,"3415 DUCHESS LN","LONG BEACH","CA",90815,33.795619748,-118.151009265,448,"3415 DUCHESS LN, LONG BEACH, CA, 90815","Match","Exact","3415 DUCHESS LN, LONG BEACH, CA, 90815",241148825,"R"
179949,"3415 E FAIRMONT PL","BROKEN ARROW","OK",74014,36.1073311500001,-95.7480424889999,449,"3415 E FAIRMONT PL, BROKEN ARROW, OK, 74014","Match","Exact","3415 E FAIRMONT PL, BROKEN ARROW, OK, 74014",617313571,"R"
179950,"3415 EAST PALMETTO STREET","FLORENCE","SC",29506,34.1969150260001,-79.6988317719999,450,"3415 EAST PALMETTO STREET, FLORENCE, SC, 29506","Match","Exact","3415 E PALMETTO ST, FLORENCE, SC, 29506",614624128,"L"
179951,"3415 FALLSTAFF ROAD FIRST FLOOR","BALTIMORE","MD",21215,39.366702478,-76.70090297,451,"3415 FALLSTAFF ROAD FIRST FLOOR, BALTIMORE, MD, 21215","Match","Exact","3415 FALLSTAFF RD, BALTIMORE, MD, 21215",206465034,"L"
179952,"3415 FORDHAM CT NE","MINNEAPOLIS","MN",55421,45.0409665880001,-93.2120582269999,452,"3415 FORDHAM CT NE, MINNEAPOLIS, MN, 55421","Match","Exact","3415 FORDHAM CT NE, MINNEAPOLIS, MN, 55421",633539546,"R"
179953,"3415 FREMONT AVENUE NORTH","MINNEAPOLIS","MN",55412,45.0171124010001,-93.295591578,453,"3415 FREMONT AVENUE NORTH, MINNEAPOLIS, MN, 55412","Match","Exact","3415 FREMONT AVE N, MINNEAPOLIS, MN, 55412",43622313,"L"
179954,"3415 GROVE PARK DRIVE","PEACHTREE CORNERS","GA",30096,33.9710371850001,-84.200783088,454,"3415 GROVE PARK DRIVE, PEACHTREE CORNERS, GA, 30096","Match","Exact","3415 GROVE PARK DR, PEACHTREE CORNERS, GA, 30096",88941400,"L"
179955,"3415 HELIX ST","SPRING VALLEY","CA",91977,32.7434261390001,-116.998727855,455,"3415 HELIX ST, SPRING VALLEY, CA, 91977","Match","Exact","3415 HELIX ST, SPRING VALLEY, CA, 91977",612892974,"R"
179956,"3415 LAUREL ST","BEAUMONT","TX",77707,30.082623395,-94.138060098,456,"3415 LAUREL ST, BEAUMONT, TX, 77707","Match","Exact","3415 LAUREL ST, BEAUMONT, TX, 77707",73852942,"L"
179957,"3415 LEXINGTON AVE S PO BOX 211703","EAGAN","MN",55122,44.831093835,-93.146913925,457,"3415 LEXINGTON AVE S PO BOX 211703, EAGAN, MN, 55122","Match","Non_Exact","3415 LEXINGTON AVE S, EAGAN, MN, 55121",628089326,"R"
179958,"3415 LINDEN AVENUE SUITE 329","LONG BEACH","CA",90807,33.8191413370001,-118.186457993,458,"3415 LINDEN AVENUE SUITE 329, LONG BEACH, CA, 90807","Match","Exact","3415 LINDEN AVE, LONG BEACH, CA, 90807",141686224,"L"
179959,"3415 LOWNESDALE","CLEVELAND HTS","OH",44112,41.5309712160001,-81.55784478,459,"3415 LOWNESDALE, CLEVELAND HTS, OH, 44112","Match","Non_Exact","3415 LOWNESDALE RD, CLEVELAND HEIGHTS, OH, 44112",61124110,"L"
179960,"3415 MADISON ST","SKOKIE","IL",60076,42.031820381,-87.714388915,460,"3415 MADISON ST, SKOKIE, IL, 60076","Match","Exact","3415 MADISON ST, SKOKIE, IL, 60076",605257712,"R"
179961,"3415 MCNIEL AVE SUITE 102B","WICHITA FALLS","TX",76308,33.876680078,-98.547803092,461,"3415 MCNIEL AVE SUITE 102B, WICHITA FALLS, TX, 76308","Match","Exact","3415 MCNIEL AVE, WICHITA FALLS, TX, 76308",169842100,"L"
179962,"3415 MOONLIGHT DRIVE","KIMBERLY","ID",83341,42.568169831,-114.380816338,462,"3415 MOONLIGHT DRIVE, KIMBERLY, ID, 83341","Match","Exact","3415 MOONLIGHT DR, KIMBERLY, ID, 83341",625993817,"R"
179963,"3415 N KINGSHIGHWAY PO BOX 150509","ST. LOUIS","MO",63115,NA,NA,463,"3415 N KINGSHIGHWAY PO BOX 150509, ST. LOUIS, MO, 63115","No_Match",NA,NA,NA,NA
179964,"3415 NEPTUNE AVE","BROOKLYN","NY",11224,40.577019427,-74.002107587,464,"3415 NEPTUNE AVE, BROOKLYN, NY, 11224","Match","Exact","3415 NEPTUNE AVE, BROOKLYN, NY, 11224",650072627,"R"
179965,"3415 NEW JERSEY AVENUE","PENNSAUKEN","NJ",8109,39.9640468170001,-75.023101074,465,"3415 NEW JERSEY AVENUE, PENNSAUKEN, NJ, 8109","Match","Exact","3415 NEW JERSEY AVE, PENNSAUKEN, NJ, 08109",134416452,"R"
179966,"3415 OASIS BLVD","CAPE CORAL","FL",33914,26.589075474,-82.0239155519999,466,"3415 OASIS BLVD, CAPE CORAL, FL, 33914","Match","Exact","3415 OASIS BLVD, CAPE CORAL, FL, 33914",118048142,"R"
179967,"3415 OCATILLO MESA WAY","N LAS VEGAS","NV",89031,36.2519419320001,-115.186296569,467,"3415 OCATILLO MESA WAY, N LAS VEGAS, NV, 89031","Match","Exact","3415 OCATILLO MESA WAY, N LAS VEGAS, NV, 89031",201968187,"R"
179968,"3415 ORAN GULF RD","MANLIUS","NY",13104,42.944162008,-75.940060113,468,"3415 ORAN GULF RD, MANLIUS, NY, 13104","Match","Exact","3415 ORAN GULF RD, MANLIUS, NY, 13104",46624324,"R"
179969,"3415 PACIFIC AVE","TACOMA","WA",98418,47.2299671490001,-122.434043621,469,"3415 PACIFIC AVE, TACOMA, WA, 98418","Match","Exact","3415 PACIFIC AVE, TACOMA, WA, 98418",184625970,"L"
179970,"3415 PACIFIC DRIVE","NAPLES","FL",34119,26.28999449,-81.7178446739999,470,"3415 PACIFIC DRIVE, NAPLES, FL, 34119","Match","Exact","3415 PACIFIC DR, NAPLES, FL, 34119",646516181,"R"
179971,"3415 PAVILION PALMS CIRCLE APT 403","RIVERVIEW","FL",33578,NA,NA,471,"3415 PAVILION PALMS CIRCLE APT 403, RIVERVIEW, FL, 33578","No_Match",NA,NA,NA,NA
179972,"3415 S SEPULVEDA BLVD STE 1250","LOS ANGELES","CA",90034,34.0215424100001,-118.424033893,472,"3415 S SEPULVEDA BLVD STE 1250, LOS ANGELES, CA, 90034","Match","Non_Exact","3415 S SEPULVEDA BLVD, LOS ANGELES, CA, 90034",141573747,"R"
179973,"3415 S SEPULVEDA BLVD SUITE 1100","LOS ANGELES","CA",90034,34.0215424100001,-118.424033893,473,"3415 S SEPULVEDA BLVD SUITE 1100, LOS ANGELES, CA, 90034","Match","Non_Exact","3415 S SEPULVEDA BLVD, LOS ANGELES, CA, 90034",141573747,"R"
179974,"3415 SAPELO WAY","RICHMOND","TX",77469,29.55675775,-95.736573209,474,"3415 SAPELO WAY, RICHMOND, TX, 77469","Match","Exact","3415 SAPELO WAY, RICHMOND, TX, 77469",645771299,"R"
179975,"3415 SE 116TH AVE","PORTLAND","OR",97266,45.4997032040001,-122.543475099,475,"3415 SE 116TH AVE, PORTLAND, OR, 97266","Match","Exact","3415 SE 116TH AVE, PORTLAND, OR, 97266",157521393,"R"
179976,"3415 SE 74TH AVENUE APT 20","PORTLAND","OR",97206,45.4979724360001,-122.587116611,476,"3415 SE 74TH AVENUE APT 20, PORTLAND, OR, 97206","Match","Non_Exact","3415 SE 74TH AVE, PORTLAND, OR, 97206",157516412,"R"
179977,"3415 SMART AVE","KANSAS CITY","MO",64124,39.1096107130001,-94.541742852,477,"3415 SMART AVE, KANSAS CITY, MO, 64124","Match","Exact","3415 SMART AVE, KANSAS CITY, MO, 64124",91449292,"R"
179978,"3415 SO SEPULVEDA BLVD STE 1100","LOS ANGELES","CA",90034,34.0215557930001,-118.424044495,478,"3415 SO SEPULVEDA BLVD STE 1100, LOS ANGELES, CA, 90034","Match","Non_Exact","3415 S SEPULVEDA BLVD, LOS ANGELES, CA, 90034",141573747,"R"
179979,"3415 SOUTH HILLS AVE APT 1002","FORT WORTH","TX",76109,NA,NA,479,"3415 SOUTH HILLS AVE APT 1002, FORT WORTH, TX, 76109","No_Match",NA,NA,NA,NA
179980,"3415 W DIVERSEY AVENUE","CHICAGO","IL",60647,41.9319570220001,-87.713031336,480,"3415 W DIVERSEY AVENUE, CHICAGO, IL, 60647","Match","Exact","3415 W DIVERSEY AVE, CHICAGO, IL, 60647",605224351,"L"
179981,"3415 W EMPEDRADO ST","TAMPA","FL",33629,27.9204485600001,-82.499083183,481,"3415 W EMPEDRADO ST, TAMPA, FL, 33629","Match","Exact","3415 W EMPEDRADO ST, TAMPA, FL, 33629",104527040,"R"
179982,"3415 W LAKE MARY BLVD BOX 954058","LAKE MARY","FL",32795,NA,NA,482,"3415 W LAKE MARY BLVD BOX 954058, LAKE MARY, FL, 32795","No_Match",NA,NA,NA,NA
179983,"3415 W LAKE MARY BLVD UNIT 952528","LAKE MARY","FL",32795,NA,NA,483,"3415 W LAKE MARY BLVD UNIT 952528, LAKE MARY, FL, 32795","No_Match",NA,NA,NA,NA
179984,"3415 WELSH ROAD","PHILADELPHIA","PA",19136,40.0452743480001,-75.026507527,484,"3415 WELSH ROAD, PHILADELPHIA, PA, 19136","Match","Exact","3415 WELSH RD, PHILADELPHIA, PA, 19136",131432833,"L"
179985,"3415 WEST LAKE MARY BLVD 950178","LAKE MARY","FL",32795,28.756127629,-81.339887585,485,"3415 WEST LAKE MARY BLVD 950178, LAKE MARY, FL, 32795","Match","Non_Exact","3415 W LAKE MARY BLVD, LAKE MARY, FL, 32746",646943551,"R"
179986,"3415 WEST LAKE MARY BLVD","LAKE MARY","FL",32795,28.756127629,-81.339887585,486,"3415 WEST LAKE MARY BLVD, LAKE MARY, FL, 32795","Match","Non_Exact","3415 W LAKE MARY BLVD, LAKE MARY, FL, 32746",646943551,"R"
179987,"3415 WESTON ST APT H","CHARLOTTE","NC",28209,35.1932815770001,-80.8716173019999,487,"3415 WESTON ST APT H, CHARLOTTE, NC, 28209","Match","Exact","3415 WESTON ST, CHARLOTTE, NC, 28209",70543740,"L"
179988,"34152 HILLSIDE DR","LAKE ELSINORE","CA",92532,33.659082002,-117.237317671,488,"34152 HILLSIDE DR, LAKE ELSINORE, CA, 92532","Match","Exact","34152 HILLSIDE DR, LAKE ELSINORE, CA, 92532",640880093,"L"
179989,"3416 25TH STREET SE  13","WASHINGTON","DC",20020,38.8477100920001,-76.96908809,489,"3416 25TH STREET SE  13, WASHINGTON, DC, 20020","Match","Exact","3416 25TH ST SE, WASHINGTON, DC, 20020",76232835,"L"
179990,"3416 47TH STREET","NEW BRIGHTON","PA",15066,40.728314122,-80.29668164,490,"3416 47TH STREET, NEW BRIGHTON, PA, 15066","Match","Exact","3416 47TH ST, NEW BRIGHTON, PA, 15066",52560673,"R"
179991,"3416 ARLINE","ROCKFORD","IL",61101,42.2910867960001,-89.111659692,491,"3416 ARLINE, ROCKFORD, IL, 61101","Match","Non_Exact","3416 ARLINE AVE, ROCKFORD, IL, 61101",49252525,"L"
179992,"3416 BAHAMA DRIVE","MIRAMAR","FL",33023,25.9785736210001,-80.234453063,492,"3416 BAHAMA DRIVE, MIRAMAR, FL, 33023","Match","Exact","3416 BAHAMA DR, MIRAMAR, FL, 33023",114734159,"R"
179993,"3416 BELLEVIEW AVENUE","CHEVERLY","MD",20785,38.9314725620001,-76.914967659,493,"3416 BELLEVIEW AVENUE, CHEVERLY, MD, 20785","Match","Exact","3416 BELLEVIEW AVE, CHEVERLY, MD, 20785",76307488,"L"
179994,"3416 BERNIES CT S","CHESAPEAKE","VA",23321,36.8598085580001,-76.4116510169999,494,"3416 BERNIES CT S, CHESAPEAKE, VA, 23321","Match","Exact","3416 BERNIES CT S, CHESAPEAKE, VA, 23321",121777590,"R"
179995,"3416 CARR STORE ROAD","CEDAR GROVE","NC",27231,36.180996518,-79.202043164,495,"3416 CARR STORE ROAD, CEDAR GROVE, NC, 27231","Match","Exact","3416 CARR STORE RD, CEDAR GROVE, NC, 27231",636540541,"L"
179996,"3416 CENTERVILLE HIGHWAY SUITE E","SNELLVILLE","GA",30039,33.803395827,-84.04282397,496,"3416 CENTERVILLE HIGHWAY SUITE E, SNELLVILLE, GA, 30039","Match","Exact","3416 CENTERVILLE HWY, SNELLVILLE, GA, 30039",638651108,"R"
179997,"3416 COLUMBUS AVE","SANDUSKY","OH",44870,41.4195033190001,-82.690095995,497,"3416 COLUMBUS AVE, SANDUSKY, OH, 44870","Match","Exact","3416 COLUMBUS AVE, SANDUSKY, OH, 44870",55325381,"R"
179998,"3416 COUNTRY BROOK LANE","VESTAVIA HILLS","AL",35243,33.4330697780001,-86.7684240849999,498,"3416 COUNTRY BROOK LANE, VESTAVIA HILLS, AL, 35243","Match","Non_Exact","3416 COUNTRY BROOK LN, VESTAVIA, AL, 35243",81713691,"L"
179999,"3416 DODGE PARK RD","LANDOVER","MD",20785,38.9309058900001,-76.8806648089999,499,"3416 DODGE PARK RD, LANDOVER, MD, 20785","Match","Exact","3416 DODGE PARK RD, LANDOVER, MD, 20785",649087505,"L"
180000,"3416 E GRACE AVENUE","SPKANE","WA",99217,47.683110674,-117.360271764,500,"3416 E GRACE AVENUE, SPKANE, WA, 99217","Match","Non_Exact","3416 E GRACE AVE, SPOKANE, WA, 99217",189880178,"R"
