"ID","Address","City","State","Zip","lat","long","id","input_address","match_indicator","match_type","matched_address","tiger_line_id","tiger_side"
196001,"3946 WILLOWIND DR","PASADENA","TX",77504,29.6495800020001,-95.187721212,1,"3946 WILLOWIND DR, PASADENA, TX, 77504","Match","Exact","3946 WILLOWIND DR, PASADENA, TX, 77504",96104512,"R"
196002,"3946 WINKLE AVENUE","SANTA CRUZ","CA",95065,36.999156382,-121.972899678,2,"3946 WINKLE AVENUE, SANTA CRUZ, CA, 95065","Match","Exact","3946 WINKLE AVE, SANTA CRUZ, CA, 95065",125526043,"R"
196003,"39461 MERSEY ST","INDIO","CA",92203,NA,NA,3,"39461 MERSEY ST, INDIO, CA, 92203","No_Match",NA,NA,NA,NA
196004,"3947 CASCADE SKY DRIVE","ARLINGTON","TX",76005,32.797831671,-97.0931071049999,4,"3947 CASCADE SKY DRIVE, ARLINGTON, TX, 76005","Match","Exact","3947 CASCADE SKY DR, ARLINGTON, TX, 76005",641724464,"L"
196005,"3947 DUNN DR","SARASOTA","FL",34233,27.2980287460001,-82.471623407,5,"3947 DUNN DR, SARASOTA, FL, 34233","Match","Exact","3947 DUNN DR, SARASOTA, FL, 34233",16447889,"L"
196006,"3947 E ENCINAS AVE","GILBERT","AZ",85234,33.368847148,-111.706171558,6,"3947 E ENCINAS AVE, GILBERT, AZ, 85234","Match","Exact","3947 E ENCINAS AVE, GILBERT, AZ, 85234",128783994,"R"
196007,"3947 GULF SHORES PKWY   STE 230","GULF SHORES","AL",36542,30.3075487570001,-87.683182702,7,"3947 GULF SHORES PKWY   STE 230, GULF SHORES, AL, 36542","Match","Exact","3947 GULF SHORES PKWY, GULF SHORES, AL, 36542",131641644,"L"
196008,"3947 LITTLESTONE CIRCLE","NAPERVILLE","IL",60564,41.6861817760001,-88.223289267,8,"3947 LITTLESTONE CIRCLE, NAPERVILLE, IL, 60564","Match","Exact","3947 LITTLESTONE CIR, NAPERVILLE, IL, 60564",111635999,"R"
196009,"3947 N HALL STREET","DALLAS","TX",75219,32.811570773,-96.809457236,9,"3947 N HALL STREET, DALLAS, TX, 75219","Match","Exact","3947 N HALL ST, DALLAS, TX, 75219",619141719,"L"
196010,"3947 N LAKE DR","SHOREWOOD","WI",53211,43.088129564,-87.8735722759999,10,"3947 N LAKE DR, SHOREWOOD, WI, 53211","Match","Exact","3947 N LAKE DR, SHOREWOOD, WI, 53211",77744029,"L"
196011,"3947 NW 19TH STREET","LAUDERDALE LAKE","FL",33311,NA,NA,11,"3947 NW 19TH STREET, LAUDERDALE LAKE, FL, 33311","No_Match",NA,NA,NA,NA
196012,"3947 PARK AVE","FAIIRFIELD","CT",6825,41.2091915180001,-73.2289841369999,12,"3947 PARK AVE, FAIIRFIELD, CT, 6825","Match","Non_Exact","3947 PARK AVE, FAIRFIELD, CT, 06825",602139547,"L"
196013,"3947 SANDPIPER LANE","LIVERPOOL","NY",13090,43.1726565230001,-76.239032375,13,"3947 SANDPIPER LANE, LIVERPOOL, NY, 13090","Match","Exact","3947 SANDPIPER LN, LIVERPOOL, NY, 13090",46562000,"L"
196014,"3947 SUNNYBROOK CT","WOODBRIDGE","VA",22192,38.6744969320001,-77.326250999,14,"3947 SUNNYBROOK CT, WOODBRIDGE, VA, 22192","Match","Non_Exact","3947 SUNNY BROOK CT, WOODBRIDGE, VA, 22192",76532732,"R"
196015,"3947 SUTRO AVENUE","LOS ANGELS","CA",90008,34.0132243140001,-118.323154277,15,"3947 SUTRO AVENUE, LOS ANGELS, CA, 90008","Match","Non_Exact","3947 SUTRO AVE, LOS ANGELES, CA, 90008",141606201,"R"
196016,"3947 W CORTLAND ST 3","CHICAGO","IL",60647,NA,NA,16,"3947 W CORTLAND ST 3, CHICAGO, IL, 60647","No_Match",NA,NA,NA,NA
196017,"3947 W LINCOLN HWY STE 341","DOWNINGTOWN","PA",19335,39.9975541330001,-75.735697456,17,"3947 W LINCOLN HWY STE 341, DOWNINGTOWN, PA, 19335","Match","Exact","3947 LINCOLN HWY, DOWNINGTOWN, PA, 19335",179541092,"L"
196018,"3947 WEST SLAUSON AVE","LOS ANGELES","CA",90043,33.98895106,-118.343240121,18,"3947 WEST SLAUSON AVE, LOS ANGELES, CA, 90043","Match","Exact","3947 W SLAUSON AVE, LOS ANGELES, CA, 90043",141654686,"R"
196019,"39470 E 170TH ST","PALMDALE","CA",93591,34.600078291,-117.825929006,19,"39470 E 170TH ST, PALMDALE, CA, 93591","Match","Non_Exact","39470 170TH ST E, PALMDALE, CA, 93591",141811353,"R"
196020,"39472 W 201ST STREET SOUTH","BRISTOW","OK",74010,35.8718033150001,-96.433913153,20,"39472 W 201ST STREET SOUTH, BRISTOW, OK, 74010","Match","Exact","39472 W 201ST ST S, BRISTOW, OK, 74010",165893732,"L"
196021,"3948 3RD STREET SOUTH  SUITE 286","JACKSONVILLE BEACH","FL",32250,NA,NA,21,"3948 3RD STREET SOUTH  SUITE 286, JACKSONVILLE BEACH, FL, 32250","No_Match",NA,NA,NA,NA
196022,"3948 3RD STREET SOUTH SUITE 190","JACKSONVILLE BEACH","FL",32250,NA,NA,22,"3948 3RD STREET SOUTH SUITE 190, JACKSONVILLE BEACH, FL, 32250","No_Match",NA,NA,NA,NA
196023,"3948 ALEXIS CIRCLE","CHATTANOOGA","TN",37406,35.076574549,-85.210843784,23,"3948 ALEXIS CIRCLE, CHATTANOOGA, TN, 37406","Match","Exact","3948 ALEXIS CIR, CHATTANOOGA, TN, 37406",616195170,"L"
196024,"3948 BALDERAS ST","BRIGHTON","CO",80601,39.9907981530001,-104.772830944,24,"3948 BALDERAS ST, BRIGHTON, CO, 80601","Match","Exact","3948 BALDERAS ST, BRIGHTON, CO, 80601",177458485,"R"
196025,"3948 BLOWING SPRINGS ROAD","GREENSBURG","KY",42743,37.2125376430001,-85.4366979769999,25,"3948 BLOWING SPRINGS ROAD, GREENSBURG, KY, 42743","Match","Exact","3948 BLOWING SPRINGS RD, GREENSBURG, KY, 42743",69325373,"L"
196026,"3948 COUNTRY LN","FORT WORTH","TX",76123,32.6101139620001,-97.38038877,26,"3948 COUNTRY LN, FORT WORTH, TX, 76123","Match","Exact","3948 COUNTRY LN, FORT WORTH, TX, 76123",102189933,"L"
196027,"3948 FLINT HILL RD","POWDER SPRINGS","GA",30127,33.857287639,-84.6458570789999,27,"3948 FLINT HILL RD, POWDER SPRINGS, GA, 30127","Match","Exact","3948 FLINT HILL RD, POWDER SPGS, GA, 30127",17172950,"R"
196028,"3948 FOSTER DRIVE","FAYETTEVILLE","NC",28311,35.1144939170001,-78.9066398699999,28,"3948 FOSTER DRIVE, FAYETTEVILLE, NC, 28311","Match","Exact","3948 FOSTER DR, FAYETTEVILLE, NC, 28311",64198466,"R"
196029,"3948 HWY 90","PACE","FL",32571,30.582063727,-87.1797502909999,29,"3948 HWY 90, PACE, FL, 32571","Match","Exact","3948 HWY 90, PACE, FL, 32571",74609271,"L"
196030,"3948 JOHNSON ST","HIGH POINT","NC",27265,36.0276088090001,-80.0200862569999,30,"3948 JOHNSON ST, HIGH POINT, NC, 27265","Match","Exact","3948 JOHNSON ST, HIGH POINT, NC, 27265",131038259,"R"
196031,"3948 LEGACY DR 106-317","PLANO","TX",75023,33.0717185680001,-96.771245971,31,"3948 LEGACY DR 106-317, PLANO, TX, 75023","Match","Exact","3948 LEGACY DR, PLANO, TX, 75023",210475263,"L"
196032,"3948 LINDELL SUITE 201","ST LOUIS","MO",63108,38.6395749550001,-90.243998212,32,"3948 LINDELL SUITE 201, ST LOUIS, MO, 63108","Match","Non_Exact","3948 LINDELL BLVD, SAINT LOUIS, MO, 63108",605111637,"L"
196033,"3948 N CONCORD AVE","PORTLAND","OR",97227,45.55151656,-122.685121608,33,"3948 N CONCORD AVE, PORTLAND, OR, 97227","Match","Exact","3948 N CONCORD AVE, PORTLAND, OR, 97227",157563436,"R"
196034,"3948 N KINGSHIGHWAY BLVD","SAINT LOUIS","MO",63115,38.6785983250001,-90.250060439,34,"3948 N KINGSHIGHWAY BLVD, SAINT LOUIS, MO, 63115","Match","Exact","3948 N KINGSHIGHWAY BLVD, SAINT LOUIS, MO, 63115",107595453,"R"
196035,"3948 NOBLE AVE N","ROBBINSDALE","MN",55422,45.026967691,-93.338994595,35,"3948 NOBLE AVE N, ROBBINSDALE, MN, 55422","Match","Exact","3948 NOBLE AVE N, ROBBINSDALE, MN, 55422",43618729,"R"
196036,"3948 PENHURST AVENUE","BALTIMORE","MD",21215,39.3387523550001,-76.683652985,36,"3948 PENHURST AVENUE, BALTIMORE, MD, 21215","Match","Exact","3948 PENHURST AVE, BALTIMORE, MD, 21215",206464773,"R"
196037,"3948 RIDGE ROAD","WILLIAMSON","NY",14589,NA,NA,37,"3948 RIDGE ROAD, WILLIAMSON, NY, 14589","No_Match",NA,NA,NA,NA
196038,"3948 SHADY RIDGE DRIVE","CORONA","CA",92881,33.8220402960001,-117.549966374,38,"3948 SHADY RIDGE DRIVE, CORONA, CA, 92881","Match","Exact","3948 SHADY RIDGE DR, CORONA, CA, 92881",609012249,"R"
196039,"3948 SOUTH 3RD STREET UNIT 58","JACKSONVILLE BEACH","FL",32250,NA,NA,39,"3948 SOUTH 3RD STREET UNIT 58, JACKSONVILLE BEACH, FL, 32250","No_Match",NA,NA,NA,NA
196040,"3948 THIRD STREET SOUTH 132-02","JACKSONVILLE BEACH","FL",32250,NA,NA,40,"3948 THIRD STREET SOUTH 132-02, JACKSONVILLE BEACH, FL, 32250","No_Match",NA,NA,NA,NA
196041,"3948 THIRD STREET SOUTH 132-06","JACKSONVILLE BEACH","FL",32250,NA,NA,41,"3948 THIRD STREET SOUTH 132-06, JACKSONVILLE BEACH, FL, 32250","No_Match",NA,NA,NA,NA
196042,"3948 W COLORADO AVE","DENVER","CO",80219,39.6844049360001,-105.038986684,42,"3948 W COLORADO AVE, DENVER, CO, 80219","Match","Exact","3948 W COLORADO AVE, DENVER, CO, 80219",177327229,"L"
196043,"3948 WHITEHALL DRIVE","CHARLOTTE","NC",28208,35.2336241730001,-80.903387315,43,"3948 WHITEHALL DRIVE, CHARLOTTE, NC, 28208","Match","Exact","3948 WHITEHALL DR, CHARLOTTE, NC, 28208",70580072,"R"
196044,"39484 WILSON WAY","PINE GROVE","LA",70453,NA,NA,44,"39484 WILSON WAY, PINE GROVE, LA, 70453","No_Match",NA,NA,NA,NA
196045,"39488 SUMMIT ROAD","OAKHURST","CA",93644,37.321103769,-119.587932525,45,"39488 SUMMIT ROAD, OAKHURST, CA, 93644","Match","Non_Exact","39488 SUMMIT DR, OAKHURST, CA, 93644",102328715,"L"
196046,"3949 EVANS-STEED RD","RADNOR","OH",43066,40.3796396810001,-83.165157638,46,"3949 EVANS-STEED RD, RADNOR, OH, 43066","Match","Exact","3949 EVANS-STEED RD, RADNOR, OH, 43066",24591624,"L"
196047,"3949 LOS FELIZ BLVD SUITE 211","LOS ANGELES","CA",90027,34.1134761550001,-118.277974878,47,"3949 LOS FELIZ BLVD SUITE 211, LOS ANGELES, CA, 90027","Match","Exact","3949 LOS FELIZ BLVD, LOS ANGELES, CA, 90027",141597714,"R"
196048,"3949 NORTH VISTA CIRCLE","PALMER","AK",99645,61.6253975770001,-149.042481304,48,"3949 NORTH VISTA CIRCLE, PALMER, AK, 99645","Match","Exact","3949 N VISTA CIR, PALMER, AK, 99645",648398602,"L"
196049,"3949 PERRY PASS","LITHONIA","GA",30038,33.662890416,-84.2063901079999,49,"3949 PERRY PASS, LITHONIA, GA, 30038","Match","Exact","3949 PERRY PASS, LITHONIA, GA, 30038",619381505,"R"
196050,"3949 PRESTWICK LANE","PALMDALE","CA",93551,34.6209099230001,-118.201651144,50,"3949 PRESTWICK LANE, PALMDALE, CA, 93551","Match","Exact","3949 PRESTWICK LN, PALMDALE, CA, 93551",241214920,"R"
196051,"3949 S PENINSULA DR","PORT ORANGE","FL",32127,29.133292969,-80.9613634309999,51,"3949 S PENINSULA DR, PORT ORANGE, FL, 32127","Match","Exact","3949 S PENINSULA DR, PORT ORANGE, FL, 32127",94529228,"L"
196052,"3949 SOUTH MAIN STREET","FARMVILLE","NC",27828,35.5911667570001,-77.590308439,52,"3949 SOUTH MAIN STREET, FARMVILLE, NC, 27828","Match","Exact","3949 S MAIN ST, FARMVILLE, NC, 27828",80008146,"R"
196053,"3949 WINNETKA AVE N","NEW HOPE","MN",55427,45.0282291520001,-93.380260919,53,"3949 WINNETKA AVE N, NEW HOPE, MN, 55427","Match","Exact","3949 WINNETKA AVE N, NEW HOPE, MN, 55427",43660490,"L"
196054,"39494 EDITH DRIVE","CLINTON TOWNSHIP","MI",48038,42.5873411370001,-82.953925399,54,"39494 EDITH DRIVE, CLINTON TOWNSHIP, MI, 48038","Match","Exact","39494 EDITH DR, CLINTON TOWNSHIP, MI, 48038",110702986,"L"
196055,"39497 HWY 1055","MOUNT HERMON","LA",70450,30.9512444550001,-90.228893441,55,"39497 HWY 1055, MOUNT HERMON, LA, 70450","Match","Exact","39497 HWY 1055, MOUNT HERMON, LA, 70450",82450991,"R"
196056,"39498 MEADOWBROOK AVENUE","PRAIRIEVILLE","LA",70769,30.310286041,-90.9410157619999,56,"39498 MEADOWBROOK AVENUE, PRAIRIEVILLE, LA, 70769","Match","Exact","39498 MEADOWBROOK AVE, PRAIRIEVILLE, LA, 70769",115037654,"L"
196057,"395 2ND ST SW","BUFFALO","MN",55313,45.1488483430001,-93.89816538,57,"395 2ND ST SW, BUFFALO, MN, 55313","Match","Exact","395 2ND ST SW, BUFFALO, MN, 55313",636275162,"L"
196058,"395 ALBEMARLE DRIVE","CLAYTON","NC",27527,35.674753708,-78.342099189,58,"395 ALBEMARLE DRIVE, CLAYTON, NC, 27527","Match","Exact","395 ALBEMARLE DR, CLAYTON, NC, 27527",26560425,"L"
196059,"395 APOLLO WAY","HOLLISTER","CA",95023,36.892251609,-121.394918235,59,"395 APOLLO WAY, HOLLISTER, CA, 95023","Match","Exact","395 APOLLO WAY, HOLLISTER, CA, 95023",125444614,"R"
196060,"395 AVENIDA MANANOS","SAN JOSE","CA",95123,37.2577648910001,-121.839165203,60,"395 AVENIDA MANANOS, SAN JOSE, CA, 95123","Match","Non_Exact","395 AVE MANZANOS, SAN JOSE, CA, 95123",122970080,"R"
196061,"395 BORGFELD RD","CIBOLO","TX",78108,29.571800995,-98.240345315,61,"395 BORGFELD RD, CIBOLO, TX, 78108","Match","Non_Exact","395 W BORGFELD RD, CIBOLO, TX, 78108",636855413,"L"
196062,"395 BURCH ROAD","FAYETTEVILLE","GA",30215,33.438436041,-84.4887748949999,62,"395 BURCH ROAD, FAYETTEVILLE, GA, 30215","Match","Exact","395 BURCH RD, FAYETTEVILLE, GA, 30215",75937531,"L"
196063,"395 CARROLL RD","GRAND CANE","LA",71032,32.1585540180001,-93.687428717,63,"395 CARROLL RD, GRAND CANE, LA, 71032","Match","Exact","395 CARROLL RD, GRAND CANE, LA, 71032",67640951,"L"
196064,"395 CENTRAL ST","SAVANNAH","TN",38372,35.2382609570001,-88.2213104429999,64,"395 CENTRAL ST, SAVANNAH, TN, 38372","Match","Non_Exact","395 CENTRAL AVE, SAVANNAH, TN, 38372",21174004,"R"
196065,"395 CHERRY LEAF ROAD","DELAWARE","OH",43015,40.2394725720001,-83.04037061,65,"395 CHERRY LEAF ROAD, DELAWARE, OH, 43015","Match","Exact","395 CHERRY LEAF RD, DELAWARE, OH, 43015",635655996,"R"
196066,"395 CHESTNUT ST","DANVILLE","IN",46122,39.75447453,-86.5295654509999,66,"395 CHESTNUT ST, DANVILLE, IN, 46122","Match","Exact","395 CHESTNUT ST, DANVILLE, IN, 46122",89212504,"L"
196067,"395 COLUMBIA BLVD","WOOD RIDGE","NJ",7075,40.849405258,-74.086562215,67,"395 COLUMBIA BLVD, WOOD RIDGE, NJ, 7075","Match","Exact","395 COLUMBIA BLVD, WOOD RIDGE, NJ, 07075",64395132,"L"
196068,"395 DAUGHTERY SPRINGS RD","TELLICO PLAINS","TN",37385,NA,NA,68,"395 DAUGHTERY SPRINGS RD, TELLICO PLAINS, TN, 37385","No_Match",NA,NA,NA,NA
196069,"395 DAWSON CT","CASTLE ROCK","CO",80104,39.3733392930001,-104.840077634,69,"395 DAWSON CT, CASTLE ROCK, CO, 80104","Match","Exact","395 DAWSON CT, CASTLE ROCK, CO, 80104",130851460,"R"
196070,"395 DOGWOOD DRIVE","COLUMBUS","GA",31907,32.4522415600001,-84.921956591,70,"395 DOGWOOD DRIVE, COLUMBUS, GA, 31907","Match","Exact","395 DOGWOOD DR, COLUMBUS, GA, 31907",98942951,"L"
196071,"395 DURANT ST","MONROE","NC",28112,34.979081535,-80.534087388,71,"395 DURANT ST, MONROE, NC, 28112","Match","Exact","395 DURANT ST, MONROE, NC, 28112",14174305,"R"
196072,"395 E SAINT ANDREWS DR","HIGHLAND HTS","OH",44143,41.561956862,-81.459770506,72,"395 E SAINT ANDREWS DR, HIGHLAND HTS, OH, 44143","Match","Exact","395 ST ANDREWS DR, HIGHLAND HEIGHTS, OH, 44143",61156162,"L"
196073,"395 EMORY ROAD","SALUDA","SC",29138,33.990652262,-81.712553369,73,"395 EMORY ROAD, SALUDA, SC, 29138","Match","Exact","395 EMORY RD, SALUDA, SC, 29138",65529173,"R"
196074,"395 FAIR ST","LEWISBURG","WV",24901,37.7771993590001,-80.455361623,74,"395 FAIR ST, LEWISBURG, WV, 24901","Match","Exact","395 FAIR ST, LEWISBURG, WV, 24901",74750543,"R"
196075,"395 FM 155","LA GRANGE","TX",78945,29.8832712180001,-96.867964726,75,"395 FM 155, LA GRANGE, TX, 78945","Match","Exact","395 FM 155, LA GRANGE, TX, 78945",42017333,"R"
196076,"395 GARNSEY RD","PITTSFORD","NY",14534,43.055000986,-77.452113889,76,"395 GARNSEY RD, PITTSFORD, NY, 14534","Match","Exact","395 GARNSEY RD, PITTSFORD, NY, 14534",14548496,"R"
196077,"395 HUNT RD SE","CLEVELAND","TN",37323,35.0950641810001,-84.865622063,77,"395 HUNT RD SE, CLEVELAND, TN, 37323","Match","Exact","395 HUNT RD SE, CLEVELAND, TN, 37323",57578818,"R"
196078,"395 HURON AVENUE APT 2","CAMBRIDGE","MA",2138,42.3809860280001,-71.1397493709999,78,"395 HURON AVENUE APT 2, CAMBRIDGE, MA, 2138","Match","Exact","395 HURON AVE, CAMBRIDGE, MA, 02138",86892136,"R"
196079,"395 JEROME ST 1ST FLOOR","BROOKLYN","NY",11207,40.672191108,-73.886446687,79,"395 JEROME ST 1ST FLOOR, BROOKLYN, NY, 11207","Match","Exact","395 JEROME ST, BROOKLYN, NY, 11207",59085123,"L"
196080,"395 KANIKSU SHORES RD","SANDPOINT","ID",83864,48.312634802,-116.461694834,80,"395 KANIKSU SHORES RD, SANDPOINT, ID, 83864","Match","Exact","395 KANIKSU SHORES RD, SANDPOINT, ID, 83864",169477735,"L"
196081,"395 LABORCITA CANYON","LA LUZ","NM",88337,NA,NA,81,"395 LABORCITA CANYON, LA LUZ, NM, 88337","Tie",NA,NA,NA,NA
196082,"395 LANTERNBACK ISLAND DRIVE","SATELLITE BEACH","FL",32937,NA,NA,82,"395 LANTERNBACK ISLAND DRIVE, SATELLITE BEACH, FL, 32937","No_Match",NA,NA,NA,NA
196083,"395 LAURENT STREET NW UNIT 8","ATLANTA","GA",30318,33.787439901,-84.399684671,83,"395 LAURENT STREET NW UNIT 8, ATLANTA, GA, 30318","Match","Exact","395 LAURENT ST NW, ATLANTA, GA, 30318",17343146,"R"
196084,"395 MAIN STREET","CROMWELL","CT",6416,41.6019971580001,-72.6464493409999,84,"395 MAIN STREET, CROMWELL, CT, 6416","Match","Exact","395 MAIN ST, CROMWELL, CT, 06416",113887269,"R"
196085,"395 MAIN STREET","ORANGE","NJ",7050,40.773368701,-74.23277194,85,"395 MAIN STREET, ORANGE, NJ, 7050","Match","Exact","395 MAIN ST, ORANGE, NJ, 07050",63450067,"R"
196086,"395 MARTLING AVENUE","TARRYTOWN","NY",10591,41.0677380770001,-73.852471806,86,"395 MARTLING AVENUE, TARRYTOWN, NY, 10591","Match","Exact","395 MARTLING AVE, TARRYTOWN, NY, 10591",649727204,"L"
196087,"395 MASON FARM DR","KEARNEYSVILLE","WV",25430,39.3088978760001,-77.9868117189999,87,"395 MASON FARM DR, KEARNEYSVILLE, WV, 25430","Match","Exact","395 MASON FARM DR, KEARNEYSVILLE, WV, 25430",647533379,"L"
196088,"395 MIDWAY DRIVE","VALPARAISO","IN",46385,41.542512693,-87.140089068,88,"395 MIDWAY DRIVE, VALPARAISO, IN, 46385","Match","Exact","395 MIDWAY DR, VALPARAISO, IN, 46385",119911487,"L"
196089,"395 NEPTUNE DRIVE","AKRON","OH",44319,40.951134342,-81.518282275,89,"395 NEPTUNE DRIVE, AKRON, OH, 44319","Match","Exact","395 NEPTUNE DR, AKRON, OH, 44319",634823763,"L"
196090,"395 NORTH GARDEN WAY","EUGENE","OR",97401,44.0661010740001,-123.051939342,90,"395 NORTH GARDEN WAY, EUGENE, OR, 97401","Match","Exact","395 N GARDEN WAY, EUGENE, OR, 97401",178171376,"R"
196091,"395 OAK ST","COLUMBUS","OH",43215,39.9620999430001,-82.989767466,91,"395 OAK ST, COLUMBUS, OH, 43215","Match","Exact","395 OAK ST, COLUMBUS, OH, 43215",218680131,"R"
196092,"395 OLD NATIVIDAD ROAD","SALINAS","CA",93906,NA,NA,92,"395 OLD NATIVIDAD ROAD, SALINAS, CA, 93906","Tie",NA,NA,NA,NA
196093,"395 PARK AVE","WAYNESBURG","PA",15370,39.897685661,-80.155676442,93,"395 PARK AVE, WAYNESBURG, PA, 15370","Match","Exact","395 PARK AVE, WAYNESBURG, PA, 15370",51362303,"L"
196094,"395 PINTAIL COURT","SUWANEE","GA",30024,34.0928177530001,-84.165210755,94,"395 PINTAIL COURT, SUWANEE, GA, 30024","Match","Exact","395 PINTAIL CT, SUWANEE, GA, 30024",627230759,"L"
196095,"395 PORTER LAKE DR - APT 306","LONGMEADOW","MA",1106,42.0708850350001,-72.5581708999999,95,"395 PORTER LAKE DR - APT 306, LONGMEADOW, MA, 1106","Match","Exact","395 PORTER LAKE DR, LONGMEADOW, MA, 01106",647252715,"R"
196096,"395 RESERVE ROAD","WEST SENECA","NY",14224,42.811288598,-78.747598056,96,"395 RESERVE ROAD, WEST SENECA, NY, 14224","Match","Exact","395 RESERVE RD, WEST SENECA, NY, 14224",48305029,"R"
196097,"395 RIVERBEND RD","OHATCHEE","AL",36271,33.707034252,-86.122048112,97,"395 RIVERBEND RD, OHATCHEE, AL, 36271","Match","Exact","395 RIVERBEND RD, OHATCHEE, AL, 36271",649754710,"R"
196098,"395 RODEO RD","SEDONA","AZ",86336,34.8689729750001,-111.801449257,98,"395 RODEO RD, SEDONA, AZ, 86336","Match","Exact","395 RODEO RD, SEDONA, AZ, 86336",159527330,"R"
196099,"395 RUTLAND AVE","TEANECK","NJ",7666,40.905075411,-74.0119186919999,99,"395 RUTLAND AVE, TEANECK, NJ, 7666","Match","Exact","395 RUTLAND AVE, TEANECK, NJ, 07666",64388854,"R"
196100,"395 S END AVE 14M","NEW YORK","NY",10280,40.7114907370001,-74.015823704,100,"395 S END AVE 14M, NEW YORK, NY, 10280","Match","Non_Exact","395 S END AVE, NEW YORK, NY, 10280",650069442,"L"
196101,"395 SAINT REGIS DRIVE","NEWARK","DE",19711,39.701222928,-75.736125409,101,"395 SAINT REGIS DRIVE, NEWARK, DE, 19711","Match","Exact","395 SAINT REGIS DR, NEWARK, DE, 19711",187279953,"L"
196102,"395 SAWDUST RD PMB 2000","THE WOODLANDS","TX",77380,30.1266926650001,-95.447803863,102,"395 SAWDUST RD PMB 2000, THE WOODLANDS, TX, 77380","Match","Exact","395 SAWDUST RD, THE WOODLANDS, TX, 77380",79284056,"L"
196103,"395 SAWDUST RD STE 2034","THE WOODLANDS","TX",77380,30.1266926650001,-95.447803863,103,"395 SAWDUST RD STE 2034, THE WOODLANDS, TX, 77380","Match","Exact","395 SAWDUST RD, THE WOODLANDS, TX, 77380",79284056,"L"
196104,"395 SAWGRASS WAY","FAYETTEVILLE","GA",30215,33.435941379,-84.401340933,104,"395 SAWGRASS WAY, FAYETTEVILLE, GA, 30215","Match","Exact","395 SAWGRASS WAY, FAYETTEVILLE, GA, 30215",23338721,"R"
196105,"395 SEVEN PONDS RD","AMISSVILLE","VA",20106,38.683157959,-78.020865306,105,"395 SEVEN PONDS RD, AMISSVILLE, VA, 20106","Match","Exact","395 SEVEN PONDS RD, AMISSVILLE, VA, 20106",29946597,"L"
196106,"395 SOUTH 200 EAST","KANAB","UT",84741,37.041455747,-112.524166159,106,"395 SOUTH 200 EAST, KANAB, UT, 84741","Match","Exact","395 S 200 E, KANAB, UT, 84741",166123257,"L"
196107,"395 SOUTH END AVE APT 8N","NEW YORK","NY",10280,40.711456755,-74.015837241,107,"395 SOUTH END AVE APT 8N, NEW YORK, NY, 10280","Match","Exact","395 S END AVE, NEW YORK, NY, 10280",650069442,"L"
196108,"395 SW DE GOUVEA TERRACE","PORT ST LUCIE","FL",34984,27.2831772800001,-80.360220208,108,"395 SW DE GOUVEA TERRACE, PORT ST LUCIE, FL, 34984","Match","Exact","395 SW DE GOUVEA TER, PORT ST LUCIE, FL, 34984",120152808,"R"
196109,"395 TOWN CENTER BLVD","ORLANDO","FL",32837,NA,NA,109,"395 TOWN CENTER BLVD, ORLANDO, FL, 32837","No_Match",NA,NA,NA,NA
196110,"395 W CUBA RD","LAKE ZURICH","IL",60047,42.1756791770001,-88.0841421389999,110,"395 W CUBA RD, LAKE ZURICH, IL, 60047","Match","Exact","395 W CUBA RD, LAKE ZURICH, IL, 60047",119677721,"R"
196111,"395 WEST GOLF ROAD","DES PLAINES","IL",60016,NA,NA,111,"395 WEST GOLF ROAD, DES PLAINES, IL, 60016","No_Match",NA,NA,NA,NA
196112,"395 WINGATE CIRCLE","OLDSMAR","FL",34677,28.055361926,-82.685983924,112,"395 WINGATE CIRCLE, OLDSMAR, FL, 34677","Match","Exact","395 WINGATE CIR, OLDSMAR, FL, 34677",644087790,"R"
196113,"395 WOODLAWN DRIVE","TIPP CITY","OH",45371,39.986803621,-84.207834928,113,"395 WOODLAWN DRIVE, TIPP CITY, OH, 45371","Match","Exact","395 WOODLAWN DR, TIPP CITY, OH, 45371",135298922,"L"
196114,"395","BALA CYNWYD","PA",19004,NA,NA,114,"395, BALA CYNWYD, PA, 19004","No_Match",NA,NA,NA,NA
196115,"3950 168TH PLACE","COUNTRY CLUB HILLS","IL",60478,41.583998455,-87.712686967,115,"3950 168TH PLACE, COUNTRY CLUB HILLS, IL, 60478","Match","Exact","3950 168TH PL, COUNTRY CLUB HILLS, IL, 60478",111704388,"R"
196116,"3950 3RD ST N STE B","ST PETERSBURG","FL",33703,27.808067109,-82.636539662,116,"3950 3RD ST N STE B, ST PETERSBURG, FL, 33703","Match","Exact","3950 3RD ST N, SAINT PETERSBURG, FL, 33703",124704403,"L"
196117,"3950 AMBOY ROAD","STATEN ISLAND","NY",10306,40.5510875080001,-74.14977701,117,"3950 AMBOY ROAD, STATEN ISLAND, NY, 10306","Match","Non_Exact","3950 AMBOY RD, STATEN ISLAND, NY, 10308",59873034,"L"
196118,"3950 AMBOY ROAD","STATEN ISLAND","NY",10308,40.5510875080001,-74.14977701,118,"3950 AMBOY ROAD, STATEN ISLAND, NY, 10308","Match","Exact","3950 AMBOY RD, STATEN ISLAND, NY, 10308",59873034,"L"
196119,"3950 ASHBURNHAM DR APT 181","HOUSTON","TX",77082,29.715286613,-95.609700926,119,"3950 ASHBURNHAM DR APT 181, HOUSTON, TX, 77082","Match","Exact","3950 ASHBURNHAM DR, HOUSTON, TX, 77082",96612642,"L"
196120,"3950 BATTERSEA PL","RICHMOND","VA",23223,37.547027788,-77.3755363339999,120,"3950 BATTERSEA PL, RICHMOND, VA, 23223","Match","Exact","3950 BATTERSEA PL, RICHMOND, VA, 23223",106671811,"L"
196121,"3950 BRAXTON SUITE 100","HOUSTON","TX",77063,29.723850768,-95.5092860409999,121,"3950 BRAXTON SUITE 100, HOUSTON, TX, 77063","Match","Non_Exact","3950 BRAXTON DR, HOUSTON, TX, 77063",96614720,"R"
196122,"3950 BRITTON BLVD","CINCINNATI","OH",45245,39.06301352,-84.2886196379999,122,"3950 BRITTON BLVD, CINCINNATI, OH, 45245","Match","Exact","3950 BRITTON BLVD, CINCINNATI, OH, 45245",118446317,"L"
196123,"3950 CATECROFT LANE","COOL","CA",95614,38.857662195,-121.023608281,123,"3950 CATECROFT LANE, COOL, CA, 95614","Match","Exact","3950 CATECROFT LN, COOL, CA, 95614",133073173,"R"
196124,"3950 CHANEYVILLE RD","OWINGS","MD",20736,38.6628688550001,-76.680586978,124,"3950 CHANEYVILLE RD, OWINGS, MD, 20736","Match","Exact","3950 CHANEYVILLE RD, OWINGS, MD, 20736",78188785,"R"
196125,"3950 CHESAPEAKE STREET NW","WASHINGTON","DC",20016,38.9507254640001,-77.078089682,125,"3950 CHESAPEAKE STREET NW, WASHINGTON, DC, 20016","Match","Exact","3950 CHESAPEAKE ST NW, WASHINGTON, DC, 20016",639577279,"L"
196126,"3950 COBB PARKWAY STE 806","ACWORTH","GA",30101,34.0552481330001,-84.70755368,126,"3950 COBB PARKWAY STE 806, ACWORTH, GA, 30101","Match","Non_Exact","3950 COBB PKWY NW, ACWORTH, GA, 30101",644963545,"R"
196127,"3950 COBB PKWY NW STE 603","ACWORTH","GA",30101,34.0552481330001,-84.70755368,127,"3950 COBB PKWY NW STE 603, ACWORTH, GA, 30101","Match","Exact","3950 COBB PKWY NW, ACWORTH, GA, 30101",644963545,"R"
196128,"3950 COOK AVENUE","SAINT LOUIS","MO",63113,38.648470515,-90.2363323769999,128,"3950 COOK AVENUE, SAINT LOUIS, MO, 63113","Match","Non_Exact","3950 E COOK AVE, SAINT LOUIS, MO, 63113",107597493,"L"
196129,"3950 COUNTRYSIDE WAY","SNELLVILLE","GA",30039,33.801754423,-84.00618062,129,"3950 COUNTRYSIDE WAY, SNELLVILLE, GA, 30039","Match","Exact","3950 COUNTRYSIDE WAY, SNELLVILLE, GA, 30039",88917599,"L"
196130,"3950 CRANDALL","HOWELL","MI",48855,42.6585031750001,-83.9846174909999,130,"3950 CRANDALL, HOWELL, MI, 48855","Match","Non_Exact","3950 CRANDALL RD, HOWELL, MI, 48855",23540923,"R"
196131,"3950 DONIPHAN DR STE H","EL PASO","TX",79922,31.814787392,-106.559674781,131,"3950 DONIPHAN DR STE H, EL PASO, TX, 79922","Match","Exact","3950 DONIPHAN DR, EL PASO, TX, 79922",189335710,"R"
196132,"3950 EL CERRITO","NORMAN","OK",73072,NA,NA,132,"3950 EL CERRITO, NORMAN, OK, 73072","No_Match",NA,NA,NA,NA
196133,"3950 FAIRSTED DR  APT 654","RALEIGH","NC",27612,35.8318958470001,-78.680153492,133,"3950 FAIRSTED DR  APT 654, RALEIGH, NC, 27612","Match","Exact","3950 FAIRSTED DR, RALEIGH, NC, 27612",646943956,"R"
196134,"3950 FAIRSTED DRIVE UNIT 702","RALEIGH","NC",37612,35.8318958470001,-78.680153492,134,"3950 FAIRSTED DRIVE UNIT 702, RALEIGH, NC, 37612","Match","Non_Exact","3950 FAIRSTED DR, RALEIGH, NC, 27612",646943956,"R"
196135,"3950 HILLCREST LANE","SACRAMENTO","CA",95628,38.635464578,-121.372025425,135,"3950 HILLCREST LANE, SACRAMENTO, CA, 95628","Match","Non_Exact","3950 HILLCREST LN, SACRAMENTO, CA, 95821",133333100,"R"
196136,"3950 HOBART ROAD","CARSON CITY","NV",89703,39.2059422140001,-119.810898871,136,"3950 HOBART ROAD, CARSON CITY, NV, 89703","Match","Exact","3950 HOBART RD, CARSON CITY, NV, 89703",199521738,"L"
196137,"3950 INTERSTATE 80","FAIRFIELD","CA",94534,NA,NA,137,"3950 INTERSTATE 80, FAIRFIELD, CA, 94534","No_Match",NA,NA,NA,NA
196138,"3950 LAUREL CANYON BLVD  1521","STUDIO CITY","CA",91614,34.142690067,-118.39491685,138,"3950 LAUREL CANYON BLVD  1521, STUDIO CITY, CA, 91614","Match","Non_Exact","3950 LAUREL CANYON BLVD, STUDIO CITY, CA, 91604",141565783,"R"
196139,"3950 LIVERNOIS","TROY","MI",48083,42.5763997770001,-83.148290323,139,"3950 LIVERNOIS, TROY, MI, 48083","Match","Non_Exact","3950 LIVERNOIS RD, TROY, MI, 48083",69742576,"R"
196140,"3950 MAIDSTONE DR","GAHANNA","OH",43230,40.056489362,-82.876202703,140,"3950 MAIDSTONE DR, GAHANNA, OH, 43230","Match","Exact","3950 MAIDSTONE DR, GAHANNA, OH, 43230",218697382,"L"
196141,"3950 MARGARETA AVE","DETROIT","MI",48221,42.428050865,-83.13893129,141,"3950 MARGARETA AVE, DETROIT, MI, 48221","Match","Exact","3950 MARGARETA AVE, DETROIT, MI, 48221",95460988,"R"
196142,"3950 MARTINS RUN DRIVE","LORAIN","OH",44053,41.437815245,-82.2188282399999,142,"3950 MARTINS RUN DRIVE, LORAIN, OH, 44053","Match","Non_Exact","3950 MARTIN'S RUN DR, LORAIN, OH, 44053",637584587,"L"
196143,"3950 N 104TH PLZ APT 306","OMAHA","NE",68134,41.295926767,-96.0749298119999,143,"3950 N 104TH PLZ APT 306, OMAHA, NE, 68134","Match","Non_Exact","3950 N 104TH PLZ, OMAHA, NE, 68134",116991980,"R"
196144,"3950 N PLACITA SABINO","TUCSON","AZ",85749,NA,NA,144,"3950 N PLACITA SABINO, TUCSON, AZ, 85749","No_Match",NA,NA,NA,NA
196145,"3950 NW 186TH STREET","MIAMI GARDENS","FL",33055,25.9427929880001,-80.266769804,145,"3950 NW 186TH STREET, MIAMI GARDENS, FL, 33055","Match","Exact","3950 NW 186TH ST, MIAMI GARDENS, FL, 33055",116026939,"L"
196146,"3950 OHIO STREET UNIT 428","SAN DIEGO","CA",92104,32.7494196650001,-117.128920089,146,"3950 OHIO STREET UNIT 428, SAN DIEGO, CA, 92104","Match","Exact","3950 OHIO ST, SAN DIEGO, CA, 92104",195345670,"L"
196147,"3950 OVERLAKE DRIVE","CUMMING","GA",30041,34.1511519050001,-84.0960060469999,147,"3950 OVERLAKE DRIVE, CUMMING, GA, 30041","Match","Exact","3950 OVERLAKE DR, CUMMING, GA, 30041",627278108,"R"
196148,"3950 PARAMOUNT BLVD STE 255","LAKEWOOD","CA",90712,33.828211384,-118.159954923,148,"3950 PARAMOUNT BLVD STE 255, LAKEWOOD, CA, 90712","Match","Exact","3950 PARAMOUNT BLVD, LAKEWOOD, CA, 90712",142677228,"R"
196149,"3950 PRIORITY WAY SOUTH DRIVE","INDIANAPOLIS","IN",46240,39.919185102,-86.100012787,149,"3950 PRIORITY WAY SOUTH DRIVE, INDIANAPOLIS, IN, 46240","Match","Exact","3950 PRIORITY WAY SOUTH DR, INDIANAPOLIS, IN, 46240",108025808,"L"
196150,"3950 RCA BLVD SUITE 5012","PALM BEACH GARDENS","FL",33410,26.837973167,-80.095695162,150,"3950 RCA BLVD SUITE 5012, PALM BEACH GARDENS, FL, 33410","Match","Exact","3950 RCA BLVD, PALM BEACH GARDENS, FL, 33410",618462990,"L"
196151,"3950 S EASTERN STE 130","LAS VEGAS","NV",89119,NA,NA,151,"3950 S EASTERN STE 130, LAS VEGAS, NV, 89119","No_Match",NA,NA,NA,NA
196152,"3950 SPRING VALLEY ROAD UNIT 918","FARMERS BRANCH","TX",75244,32.939869865,-96.8444156529999,152,"3950 SPRING VALLEY ROAD UNIT 918, FARMERS BRANCH, TX, 75244","Match","Exact","3950 SPRING VALLEY RD, FARMERS BRANCH, TX, 75244",103250533,"R"
196153,"3950 SUMMERLEE ROAD","OAK HILL","WV",25901,37.9997619800001,-81.135836072,153,"3950 SUMMERLEE ROAD, OAK HILL, WV, 25901","Match","Exact","3950 SUMMERLEE RD, OAK HILL, WV, 25901",75078366,"R"
196154,"3950 SW 61ST AVENUE","DAVIE","FL",33314,26.0725295770001,-80.228283502,154,"3950 SW 61ST AVENUE, DAVIE, FL, 33314","Match","Exact","3950 SW 61ST AVE, DAVIE, FL, 33314",114714044,"L"
196155,"3950 VAN NOORD AVE","STUDIO CITY","CA",91604,34.1414510330001,-118.414518744,155,"3950 VAN NOORD AVE, STUDIO CITY, CA, 91604","Match","Exact","3950 VAN NOORD AVE, STUDIO CITY, CA, 91604",141565297,"R"
196156,"3950 VICTORIA LANDING DR S","JACKSONVILLE","FL",32208,30.4023742360001,-81.7113567329999,156,"3950 VICTORIA LANDING DR S, JACKSONVILLE, FL, 32208","Match","Exact","3950 VICTORIA LANDING DR S, JACKSONVILLE, FL, 32208",640433844,"L"
196157,"3950 W BRYN MAWR AVE 407","CHICAGO","IL",60659,41.982833354,-87.727308711,157,"3950 W BRYN MAWR AVE 407, CHICAGO, IL, 60659","Match","Non_Exact","3950 W BRYN MAWR AVE, CHICAGO, IL, 60659",652590650,"R"
196158,"3950","ACWORTH","GA",30101,NA,NA,158,"3950, ACWORTH, GA, 30101","No_Match",NA,NA,NA,NA
196159,"39506 DAISY MTN DR STE 122-163","ANTHEM","AZ",85086,33.8562386410001,-112.114555412,159,"39506 DAISY MTN DR STE 122-163, ANTHEM, AZ, 85086","Match","Non_Exact","39506 N DAISY MOUNTAIN DR, ANTHEM, AZ, 85086",642642775,"L"
196160,"39506 N DAISY MOUNTAIN DR 122232","ANTHEM","AZ",85086,33.8561938650001,-112.11458549,160,"39506 N DAISY MOUNTAIN DR 122232, ANTHEM, AZ, 85086","Match","Non_Exact","39506 N DAISY MOUNTAIN DR, ANTHEM, AZ, 85086",642642775,"L"
196161,"39506 N DAISY MOUNTAIN DR STE 122","ANTHEM","AZ",85086,33.8561938650001,-112.11458549,161,"39506 N DAISY MOUNTAIN DR STE 122, ANTHEM, AZ, 85086","Match","Non_Exact","39506 N DAISY MOUNTAIN DR, ANTHEM, AZ, 85086",642642775,"L"
196162,"39506 N DAISY MOUNTAIN DR STE 12245","ANTHEM","AZ",85086,33.8561938650001,-112.11458549,162,"39506 N DAISY MOUNTAIN DR STE 12245, ANTHEM, AZ, 85086","Match","Non_Exact","39506 N DAISY MOUNTAIN DR, ANTHEM, AZ, 85086",642642775,"L"
196163,"39506 N DAISY MOUNTAIN DRIVE 122163","ANTHEM","AZ",85086,33.8561938650001,-112.11458549,163,"39506 N DAISY MOUNTAIN DRIVE 122163, ANTHEM, AZ, 85086","Match","Non_Exact","39506 N DAISY MOUNTAIN DR, ANTHEM, AZ, 85086",642642775,"L"
196164,"39507 WANDA AVE","STERLING HEIGHTS","MI",48313,42.585270515,-82.988128187,164,"39507 WANDA AVE, STERLING HEIGHTS, MI, 48313","Match","Exact","39507 WANDA AVE, STERLING HEIGHTS, MI, 48313",110673423,"L"
196165,"3951 ALABAMA AVENUE SE","WASHINGTON","DC",20020,38.8679780750001,-76.948937357,165,"3951 ALABAMA AVENUE SE, WASHINGTON, DC, 20020","Match","Exact","3951 ALABAMA AVE SE, WASHINGTON, DC, 20020",76233732,"R"
196166,"3951 BALTIMORE AVENUE","PHILADELPHIA","PA",19104,39.9499611350001,-75.2023683049999,166,"3951 BALTIMORE AVENUE, PHILADELPHIA, PA, 19104","Match","Exact","3951 BALTIMORE AVE, PHILADELPHIA, PA, 19104",642029078,"R"
196167,"3951 COURVILLE STREET","DETROIT","MI",48224,42.3951543760001,-82.9340198479999,167,"3951 COURVILLE STREET, DETROIT, MI, 48224","Match","Exact","3951 COURVILLE ST, DETROIT, MI, 48224",95487301,"L"
196168,"3951 DUKE FIRTH ST","LAND O LAKES","FL",34638,28.2155010560001,-82.520676395,168,"3951 DUKE FIRTH ST, LAND O LAKES, FL, 34638","Match","Exact","3951 DUKE FIRTH ST, LAND O LAKES, FL, 34638",618490133,"L"
196169,"3951 E TURLEY ST","GILBERT","AZ",85295,33.3131188670001,-111.705262422,169,"3951 E TURLEY ST, GILBERT, AZ, 85295","Match","Exact","3951 E TURLEY ST, GILBERT, AZ, 85295",646887874,"R"
196170,"3951 HAVERHILL ROAD STE 108","WEST PALM BEACH","FL",33411,26.7345144070001,-80.118313703,170,"3951 HAVERHILL ROAD STE 108, WEST PALM BEACH, FL, 33411","Match","Non_Exact","3951 HAVERHILL RD, WEST PALM BEACH, FL, 33417",115268100,"L"
196171,"3951 HAVERHILL ROAD STE 109","WEST PALM BEACH","FL",33417,26.7345144070001,-80.118313703,171,"3951 HAVERHILL ROAD STE 109, WEST PALM BEACH, FL, 33417","Match","Exact","3951 HAVERHILL RD, WEST PALM BEACH, FL, 33417",115268100,"L"
196172,"3951 JENITA DRIVE","PALM HARBOR","FL",34685,28.108673074,-82.6922709579999,172,"3951 JENITA DRIVE, PALM HARBOR, FL, 34685","Match","Exact","3951 JENITA DR, PALM HARBOR, FL, 34685",124730382,"L"
196173,"3951 LEXINGTON MANOR COURT","MISSOURI CITY","TX",77459,29.602790982,-95.566984416,173,"3951 LEXINGTON MANOR COURT, MISSOURI CITY, TX, 77459","Match","Exact","3951 LEXINGTON MANOR CT, MISSOURI CITY, TX, 77459",624902854,"L"
196174,"3951 N STREET","SACRAMENTO","CA",95816,38.565850476,-121.455940607,174,"3951 N STREET, SACRAMENTO, CA, 95816","Match","Exact","3951 N ST, SACRAMENTO, CA, 95816",133420606,"L"
196175,"3951 NORTH COLTRANE ROAD","EDMOND","OK",73034,35.694440856,-97.442888328,175,"3951 NORTH COLTRANE ROAD, EDMOND, OK, 73034","Match","Exact","3951 N COLTRANE RD, EDMOND, OK, 73034",100436151,"L"
196176,"3951 NW 48TH TERRACE NUMBER 306","GAINESVILLE","FL",32606,29.6882160600001,-82.394658503,176,"3951 NW 48TH TERRACE NUMBER 306, GAINESVILLE, FL, 32606","Match","Non_Exact","3951 NW 48 TER, GAINESVILLE, FL, 32606",637954152,"L"
196177,"3951 PLEASANTDALE ROAD SUITE 206","DORAVILLE","GA",30340,33.8991647500001,-84.243379776,177,"3951 PLEASANTDALE ROAD SUITE 206, DORAVILLE, GA, 30340","Match","Exact","3951 PLEASANTDALE RD, DORAVILLE, GA, 30340",611260388,"R"
196178,"3951 SNAPFINGER PARKWAY SUITE 202","DECATUR","GA",30035,33.7144702250001,-84.2283094329999,178,"3951 SNAPFINGER PARKWAY SUITE 202, DECATUR, GA, 30035","Match","Exact","3951 SNAPFINGER PKWY, DECATUR, GA, 30035",23389587,"R"
196179,"3951 STATE ROUTE 121","GREENVILLE","OH",45331,40.03420484,-84.653534731,179,"3951 STATE ROUTE 121, GREENVILLE, OH, 45331","Match","Exact","3951 STATE RTE 121, GREENVILLE, OH, 45331",54557341,"R"
196180,"39511 HWY 160","TRINIDAD","CO",81082,37.2127733470001,-104.457964358,180,"39511 HWY 160, TRINIDAD, CO, 81082","Match","Non_Exact","39511 US HWY 160, TRINIDAD, CO, 81082",617416002,"L"
196181,"39514 AVIATION AVE","ZEPHYRHILLS","FL",33542,28.2275300900001,-82.166067181,181,"39514 AVIATION AVE, ZEPHYRHILLS, FL, 33542","Match","Exact","39514 AVIATION AVE, ZEPHYRHILLS, FL, 33542",645564012,"R"
196182,"3952 1ST STREET","RIVERSIDE","CA",92501,33.9901155150001,-117.372946045,182,"3952 1ST STREET, RIVERSIDE, CA, 92501","Match","Exact","3952 1ST ST, RIVERSIDE, CA, 92501",609003746,"L"
196183,"3952 CUTLER DONAHUE WAY","CUMMING","GA",30040,34.2666880800001,-84.09710225,183,"3952 CUTLER DONAHUE WAY, CUMMING, GA, 30040","Match","Non_Exact","3952 CUTLER DONAHOE WAY, CUMMING, GA, 30040",637337402,"R"
196184,"3952 E ELLIS STREET","MESA","AZ",85205,33.430652325,-111.746332296,184,"3952 E ELLIS STREET, MESA, AZ, 85205","Match","Exact","3952 E ELLIS ST, MESA, AZ, 85205",640930330,"L"
196185,"3952 LAKEWOOD DR","WATERFORD","MI",48329,42.669679758,-83.365830858,185,"3952 LAKEWOOD DR, WATERFORD, MI, 48329","Match","Exact","3952 LAKEWOOD DR, WATERFORD, MI, 48329",69806078,"R"
196186,"3952 LAWN AVENUE","KANSAS CITY","MO",64130,39.0539584750001,-94.529008386,186,"3952 LAWN AVENUE, KANSAS CITY, MO, 64130","Match","Exact","3952 LAWN AVE, KANSAS CITY, MO, 64130",652554052,"R"
196187,"3952 MOORE CREEK DRIVE","CONLEY","GA",30288,33.6641388240001,-84.3150714079999,187,"3952 MOORE CREEK DRIVE, CONLEY, GA, 30288","Match","Exact","3952 MOORE CREEK DR, CONLEY, GA, 30288",23400941,"L"
196188,"3952 N KINGSHIGHWAY","SAINT LOUIS","MO",63115,38.678718394,-90.249972535,188,"3952 N KINGSHIGHWAY, SAINT LOUIS, MO, 63115","Match","Non_Exact","3952 N KINGSHIGHWAY BLVD, SAINT LOUIS, MO, 63115",618274565,"L"
196189,"3952 RAMBLING ACRES DRIVE","TITUSVILLE","FL",32796,28.5952493820001,-80.8603005859999,189,"3952 RAMBLING ACRES DRIVE, TITUSVILLE, FL, 32796","Match","Exact","3952 RAMBLING ACRES DR, TITUSVILLE, FL, 32796",633849235,"R"
196190,"3952 SHIRLEY DRIVE","ATLANTA","GA",30336,33.7642714610001,-84.517852235,190,"3952 SHIRLEY DRIVE, ATLANTA, GA, 30336","Match","Exact","3952 SHIRLEY DR, ATLANTA, GA, 30336",17414126,"L"
196191,"3952 SOUTH WARSAW STREET","SEATTLE","WA",98118,47.543177142,-122.282725657,191,"3952 SOUTH WARSAW STREET, SEATTLE, WA, 98118","Match","Exact","3952 S WARSAW ST, SEATTLE, WA, 98118",186596227,"L"
196192,"3952 W D JUDGE DR 104","ORLANDO","FL",32808,NA,NA,192,"3952 W D JUDGE DR 104, ORLANDO, FL, 32808","No_Match",NA,NA,NA,NA
196193,"39520 MURRIETA HOT SPGS RD 219-2020","MURRIETA","CA",92563,33.5569225,-117.160003611,193,"39520 MURRIETA HOT SPGS RD 219-2020, MURRIETA, CA, 92563","Match","Exact","39520 MURRIETA HOT SPRINGS RD, MURRIETA, CA, 92563",194714401,"L"
196194,"39520 MURRIETA HOT SPRINGS - 219-15","MURRIETA","CA",92563,33.5569225,-117.160003611,194,"39520 MURRIETA HOT SPRINGS - 219-15, MURRIETA, CA, 92563","Match","Non_Exact","39520 MURRIETA HOT SPRINGS RD, MURRIETA, CA, 92563",194714401,"L"
196195,"39520 MURRIETA HOT SPRINGS RD  219A","MURRIETA","CA",92563,33.5569225,-117.160003611,195,"39520 MURRIETA HOT SPRINGS RD  219A, MURRIETA, CA, 92563","Match","Exact","39520 MURRIETA HOT SPRINGS RD, MURRIETA, CA, 92563",194714401,"L"
196196,"39520 WOODWARD AVE SUITE 101","BLOOMFIELD HILLS","MI",48304,NA,NA,196,"39520 WOODWARD AVE SUITE 101, BLOOMFIELD HILLS, MI, 48304","No_Match",NA,NA,NA,NA
196197,"39526 CALLE CASABLANCA","MURREITA","CA",92563,33.5739856930001,-117.175727779,197,"39526 CALLE CASABLANCA, MURREITA, CA, 92563","Match","Non_Exact","39526 CLL CASABLANCA, MURRIETA, CA, 92563",194843753,"L"
196198,"3952D CLAIREMONT MESA BLVD NUM 371","SAN DIEGO","CA",92117,32.828906252,-117.202021501,198,"3952D CLAIREMONT MESA BLVD NUM 371, SAN DIEGO, CA, 92117","Match","Exact","3952 CLAIREMONT MESA BLVD, SAN DIEGO, CA, 92117",195302703,"L"
196199,"3952D CLAIREMONT MESA BLVD STE 275","SAN DIEGO","CA",92117,32.828906252,-117.202021501,199,"3952D CLAIREMONT MESA BLVD STE 275, SAN DIEGO, CA, 92117","Match","Exact","3952 CLAIREMONT MESA BLVD, SAN DIEGO, CA, 92117",195302703,"L"
196200,"3953 COLORADO AVE","SHEFFIELD","OH",44054,41.461229055,-82.1140695509999,200,"3953 COLORADO AVE, SHEFFIELD, OH, 44054","Match","Non_Exact","3953 COLORADO AVE, SHEFFIELD VILLAGE, OH, 44054",55430850,"L"
196201,"3953 FERN VALLEY DRIVE","MEMPHIS","TN",38125,35.0415643040001,-89.790385615,201,"3953 FERN VALLEY DRIVE, MEMPHIS, TN, 38125","Match","Exact","3953 FERN VALLEY DR, MEMPHIS, TN, 38125",72932921,"R"
196202,"3953 MARCUS AVENUE","FRIANT","CA",93626,36.984805275,-119.711474305,202,"3953 MARCUS AVENUE, FRIANT, CA, 93626","Match","Exact","3953 MARCUS AVE, FRIANT, CA, 93626",197612997,"R"
196203,"3953 N PARK CROSSING AVENUE","MERIDIAN","ID",83646,43.640671808,-116.376349612,203,"3953 N PARK CROSSING AVENUE, MERIDIAN, ID, 83646","Match","Exact","3953 N PARK CROSSING AVE, MERIDIAN, ID, 83646",617933364,"L"
196204,"3953 STONEBRIDGE LANE","RANCHO SANTA FE","CA",92091,33.0141659990001,-117.245775471,204,"3953 STONEBRIDGE LANE, RANCHO SANTA FE, CA, 92091","Match","Exact","3953 STONEBRIDGE LN, RANCHO SANTA FE, CA, 92091",195653776,"R"
196205,"39530 BEACON LANE","PALMDALE","CA",93551,34.600258201,-118.19192702,205,"39530 BEACON LANE, PALMDALE, CA, 93551","Match","Exact","39530 BEACON LN, PALMDALE, CA, 93551",141799422,"L"
196206,"39531 CLEARVIEW ST","HARRISON TOWNSHIP","MI",48045,42.591694896,-82.8109756059999,206,"39531 CLEARVIEW ST, HARRISON TOWNSHIP, MI, 48045","Match","Exact","39531 CLEARVIEW ST, HARRISON TOWNSHIP, MI, 48045",110687278,"L"
196207,"39533 WOODWARD AVE SUITE 200","BLOOMFIELD HILLS","MI",48304,NA,NA,207,"39533 WOODWARD AVE SUITE 200, BLOOMFIELD HILLS, MI, 48304","No_Match",NA,NA,NA,NA
196208,"39533 WOODWARD AVE SUITE 306","BLOOMFIELD HILLS","MI",48304,NA,NA,208,"39533 WOODWARD AVE SUITE 306, BLOOMFIELD HILLS, MI, 48304","No_Match",NA,NA,NA,NA
196209,"3954 ANN ARBOR ROAD","LAKEWOOD","CA",90712,NA,NA,209,"3954 ANN ARBOR ROAD, LAKEWOOD, CA, 90712","Tie",NA,NA,NA,NA
196210,"3954 PAUL S BUCHMAN HWY","ZEPHYRHILLS","FL",33542,28.212193089,-82.177616499,210,"3954 PAUL S BUCHMAN HWY, ZEPHYRHILLS, FL, 33542","Match","Exact","3954 PAUL S BUCHMAN HWY, ZEPHYRHILLS, FL, 33542",651784994,"R"
196211,"3954 PENSACOLA ST","TALLAHASSEE","FL",32309,NA,NA,211,"3954 PENSACOLA ST, TALLAHASSEE, FL, 32309","No_Match",NA,NA,NA,NA
196212,"3954 SENASAC AVE","LONG BEACH","CA",90808,33.8293831730001,-118.113807842,212,"3954 SENASAC AVE, LONG BEACH, CA, 90808","Match","Exact","3954 SENASAC AVE, LONG BEACH, CA, 90808",141745089,"R"
196213,"3955 ABBIE COVE LN","CANAL WINCHESTER","OH",43110,NA,NA,213,"3955 ABBIE COVE LN, CANAL WINCHESTER, OH, 43110","No_Match",NA,NA,NA,NA
196214,"3955 ARETHA AVE","DETROIT","MI",48201,42.3457115750001,-83.072530724,214,"3955 ARETHA AVE, DETROIT, MI, 48201","Match","Exact","3955 ARETHA AVE, DETROIT, MI, 48201",627862672,"R"
196215,"3955 BOUNDARY PEAK CT","RENO","NV",89508,39.6808116280001,-119.986128102,215,"3955 BOUNDARY PEAK CT, RENO, NV, 89508","Match","Exact","3955 BOUNDARY PEAK CT, RENO, NV, 89508",107092177,"R"
196216,"3955 HIDDEN HILLS DRIVE","TITUSVILLE","FL",32796,28.6063622890001,-80.858129242,216,"3955 HIDDEN HILLS DRIVE, TITUSVILLE, FL, 32796","Match","Exact","3955 HIDDEN HILLS DR, TITUSVILLE, FL, 32796",93889845,"L"
196217,"3955 HIGHWAY 48","CUNNINGHAM","TN",37052,36.400542091,-87.384741677,217,"3955 HIGHWAY 48, CUNNINGHAM, TN, 37052","Match","Exact","3955 HWY 48, CUNNINGHAM, TN, 37052",604728624,"R"
196218,"3955 N MURRAY AVE APT 204","MILWAUKEE","WI",53211,43.088375904,-87.885023546,218,"3955 N MURRAY AVE APT 204, MILWAUKEE, WI, 53211","Match","Non_Exact","3955 N MURRAY AVE, MILWAUKEE, WI, 53211",77743270,"L"
196219,"3955 NIXON GROVE DR","DOUGLASVILLE","GA",30135,33.724301085,-84.70421698,219,"3955 NIXON GROVE DR, DOUGLASVILLE, GA, 30135","Match","Exact","3955 NIXON GROVE DR, DOUGLASVILLE, GA, 30135",618477784,"L"
196220,"3955 SHERWOOD FOREST DRIVE","TRAVERSE CITY","MI",49686,44.743159834,-85.510873976,220,"3955 SHERWOOD FOREST DRIVE, TRAVERSE CITY, MI, 49686","Match","Exact","3955 SHERWOOD FOREST DR, TRAVERSE CITY, MI, 49686",647597487,"L"
196221,"3955 SHUETOWN ROAD","LYONS FALLS","NY",13368,43.6199528180001,-75.3250660859999,221,"3955 SHUETOWN ROAD, LYONS FALLS, NY, 13368","Match","Exact","3955 SHUETOWN RD, LYONS FALLS, NY, 13368",155037312,"L"
196222,"3955 SOUTH EDDY ST","SEATTLE","WA",98118,47.5452884760001,-122.282752131,222,"3955 SOUTH EDDY ST, SEATTLE, WA, 98118","Match","Exact","3955 S EDDY ST, SEATTLE, WA, 98118",186596217,"R"
196223,"3955 ST FERDINAND AVENUE","ST LOUIS","MO",63113,38.6549980140001,-90.230574615,223,"3955 ST FERDINAND AVENUE, ST LOUIS, MO, 63113","Match","Exact","3955 SAINT FERDINAND AVE, SAINT LOUIS, MO, 63113",107597545,"R"
196224,"3955 STUDEBAKER RD","LONG BEACH","CA",90808,33.8293203220001,-118.099440111,224,"3955 STUDEBAKER RD, LONG BEACH, CA, 90808","Match","Non_Exact","3955 N STUDEBAKER RD, LONG BEACH, CA, 90808",141745426,"R"
196225,"3955 W ARLINGTON ROAD","BLOOMINGTON","IN",47404,39.2025275840001,-86.563442767,225,"3955 W ARLINGTON ROAD, BLOOMINGTON, IN, 47404","Match","Exact","3955 W ARLINGTON RD, BLOOMINGTON, IN, 47404",42334200,"L"
196226,"39552 E ELYSIAN LAKE RD","JANESVILLE","MN",56048,44.144488659,-93.697936937,226,"39552 E ELYSIAN LAKE RD, JANESVILLE, MN, 56048","Match","Exact","39552 E ELYSIAN LAKE RD, JANESVILLE, MN, 56048",28731770,"R"
196227,"39555 US HWY 6","AVON","CO",81620,NA,NA,227,"39555 US HWY 6, AVON, CO, 81620","No_Match",NA,NA,NA,NA
196228,"39558 COZUMEL COURT","MURRIETA","CA",92563,33.547569131,-117.14777251,228,"39558 COZUMEL COURT, MURRIETA, CA, 92563","Match","Exact","39558 COZUMEL CT, MURRIETA, CA, 92563",194870830,"L"
196229,"39558 COZUMEL CT","MUURRIETA","CA",92563,33.547569131,-117.14777251,229,"39558 COZUMEL CT, MUURRIETA, CA, 92563","Match","Non_Exact","39558 COZUMEL CT, MURRIETA, CA, 92563",194870830,"L"
196230,"3956 BLAZE DR","MURFREESBORO","TN",37128,35.8573359120001,-86.4745882559999,230,"3956 BLAZE DR, MURFREESBORO, TN, 37128","Match","Exact","3956 BLAZE DR, MURFREESBORO, TN, 37128",628006266,"R"
196231,"3956 CO RD 79","DAVISTON","AL",36256,33.011017785,-85.67759991,231,"3956 CO RD 79, DAVISTON, AL, 36256","Match","Exact","3956 CO RD 79, DAVISTON, AL, 36256",1662069,"R"
196232,"3956 DALTON AVE","LOS ANGELES","CA",90062,34.013004687,-118.30342645,232,"3956 DALTON AVE, LOS ANGELES, CA, 90062","Match","Exact","3956 DALTON AVE, LOS ANGELES, CA, 90062",141606597,"L"
196233,"3956 E 4TH ST","LOS ANGELES","CA",90063,34.032514738,-118.180717051,233,"3956 E 4TH ST, LOS ANGELES, CA, 90063","Match","Exact","3956 E 4TH ST, LOS ANGELES, CA, 90063",141625865,"R"
196234,"3956 FAUQUIER AVE","RICHMOND","VA",23227,37.5877676330001,-77.455615119,234,"3956 FAUQUIER AVE, RICHMOND, VA, 23227","Match","Exact","3956 FAUQUIER AVE, RICHMOND, VA, 23227",201533884,"L"
196235,"3956 NAVAHOE ROAD","CLEVELAND HEIGHTS","OH",44121,41.5266135900001,-81.5380443399999,235,"3956 NAVAHOE ROAD, CLEVELAND HEIGHTS, OH, 44121","Match","Exact","3956 NAVAHOE RD, CLEVELAND HEIGHTS, OH, 44121",61124383,"R"
196236,"3956 NW 56TH STREET","COCONUT CREEK","FL",33073,26.2998505410001,-80.176977945,236,"3956 NW 56TH STREET, COCONUT CREEK, FL, 33073","Match","Exact","3956 NW 56TH ST, COCONUT CREEK, FL, 33073",114773421,"L"
196237,"3956 SE FRANKLIN ST","PORTLAND","OR",97202,45.499073718,-122.621751031,237,"3956 SE FRANKLIN ST, PORTLAND, OR, 97202","Match","Exact","3956 SE FRANKLIN ST, PORTLAND, OR, 97202",652332208,"R"
196238,"3956 TOWN CENTER BLVD 499","ORLANDO","FL",32837,28.363810965,-81.425295593,238,"3956 TOWN CENTER BLVD 499, ORLANDO, FL, 32837","Match","Non_Exact","3956 W TOWN CENTER BLVD, ORLANDO, FL, 32837",640857532,"L"
196239,"3956 TOWN CENTER BLVD 608","ORLANDO","FL",32837,28.363810965,-81.425295593,239,"3956 TOWN CENTER BLVD 608, ORLANDO, FL, 32837","Match","Non_Exact","3956 W TOWN CENTER BLVD, ORLANDO, FL, 32837",640857532,"L"
196240,"3956 TOWN CENTER BLVD PMB 195","ORLANDO","FL",32837,28.363810965,-81.425295593,240,"3956 TOWN CENTER BLVD PMB 195, ORLANDO, FL, 32837","Match","Non_Exact","3956 W TOWN CENTER BLVD, ORLANDO, FL, 32837",640857532,"L"
196241,"3956 TOWN CENTER BLVD STE 499","ORLANDO","FL",32837,28.363810965,-81.425295593,241,"3956 TOWN CENTER BLVD STE 499, ORLANDO, FL, 32837","Match","Non_Exact","3956 W TOWN CENTER BLVD, ORLANDO, FL, 32837",640857532,"L"
196242,"3956 TOWN CENTER BLVD SUITE 331","ORLANDO","FL",32837,28.363810965,-81.425295593,242,"3956 TOWN CENTER BLVD SUITE 331, ORLANDO, FL, 32837","Match","Non_Exact","3956 W TOWN CENTER BLVD, ORLANDO, FL, 32837",640857532,"L"
196243,"3956 TOWN CENTER BLVD SUITE 450","ORLANDO","FL",32837,28.363810965,-81.425295593,243,"3956 TOWN CENTER BLVD SUITE 450, ORLANDO, FL, 32837","Match","Non_Exact","3956 W TOWN CENTER BLVD, ORLANDO, FL, 32837",640857532,"L"
196244,"3956 TOWN CENTER BLVD SUITE 505","ORLANDO","FL",32837,28.363810965,-81.425295593,244,"3956 TOWN CENTER BLVD SUITE 505, ORLANDO, FL, 32837","Match","Non_Exact","3956 W TOWN CENTER BLVD, ORLANDO, FL, 32837",640857532,"L"
196245,"3956 W LAWRENCE AVE","CHICAGO","IL",60625,41.968255404,-87.72731112,245,"3956 W LAWRENCE AVE, CHICAGO, IL, 60625","Match","Exact","3956 W LAWRENCE AVE, CHICAGO, IL, 60625",111756235,"R"
196246,"39562 HWY 226","SCIO","OR",97374,44.704385749,-122.826742286,246,"39562 HWY 226, SCIO, OR, 97374","Match","Non_Exact","39562 STATE HWY 226, SCIO, OR, 97374",156056999,"L"
196247,"39566 SQUIRE ROAD","NOVI","MI",48375,42.4658557270001,-83.436548608,247,"39566 SQUIRE ROAD, NOVI, MI, 48375","Match","Exact","39566 SQUIRE RD, NOVI, MI, 48375",69785423,"R"
196248,"3957 1ST ST SW","WASHINGTON","DC",20032,38.8327531840001,-77.010173698,248,"3957 1ST ST SW, WASHINGTON, DC, 20032","Match","Exact","3957 1ST ST SW, WASHINGTON, DC, 20032",76227842,"R"
196249,"3957 DALTON AVENUE","LOS ANGELES","CA",90062,34.013004698,-118.303439677,249,"3957 DALTON AVENUE, LOS ANGELES, CA, 90062","Match","Exact","3957 DALTON AVE, LOS ANGELES, CA, 90062",141606597,"R"
196250,"3957 IVY RD","ATLANTA","GA",30342,33.8630855380001,-84.370428959,250,"3957 IVY RD, ATLANTA, GA, 30342","Match","Non_Exact","3957 IVY RD NE, ATLANTA, GA, 30342",17355526,"R"
196251,"3957 N ASHLAND AVE APT 305","CHICAGO","IL",60613,41.9538974060001,-87.6690262389999,251,"3957 N ASHLAND AVE APT 305, CHICAGO, IL, 60613","Match","Non_Exact","3957 N ASHLAND AVE, CHICAGO, IL, 60613",605198882,"R"
196252,"3957 N FEDERAL HIGHWAY","POMPANO BEACH","FL",33064,26.279085185,-80.097008328,252,"3957 N FEDERAL HIGHWAY, POMPANO BEACH, FL, 33064","Match","Non_Exact","3957 N FEDERAL HWY, POMPANO BEACH, FL, 33064",114763344,"L"
196253,"3957 N MULFORD","ROCKLFORD","IL",61114,42.3183947090001,-88.999481051,253,"3957 N MULFORD, ROCKLFORD, IL, 61114","Match","Non_Exact","3957 N MULFORD RD, ROCKFORD, IL, 61114",605025230,"R"
196254,"3957 NORTH DUPONT HWY","DOVER","DE",19901,39.2059723350001,-75.563920799,254,"3957 NORTH DUPONT HWY, DOVER, DE, 19901","Match","Exact","3957 N DUPONT HWY, DOVER, DE, 19901",68111487,"R"
196255,"3957 PEANUT ROAD","COTTONDALE","FL",32431,30.855391281,-85.4221853449999,255,"3957 PEANUT ROAD, COTTONDALE, FL, 32431","Match","Exact","3957 PEANUT RD, COTTONDALE, FL, 32431",7198500,"L"
196256,"3957 RANCHO ROAD","LAFAYETTE","CA",94549,37.893205659,-122.149446955,256,"3957 RANCHO ROAD, LAFAYETTE, CA, 94549","Match","Exact","3957 RANCHO RD, LAFAYETTE, CA, 94549",192046408,"L"
196257,"39570 SE PARK ST APT 7","SNOQUALMIE","WA",98065,47.5263746860001,-121.813451167,257,"39570 SE PARK ST APT 7, SNOQUALMIE, WA, 98065","Match","Exact","39570 PARK ST, SNOQUALMIE, WA, 98065",186950369,"R"
196258,"39571 HEATHERHEATH DR","CLINTON TWP","MI",48038,42.5884524960001,-82.9705843149999,258,"39571 HEATHERHEATH DR, CLINTON TWP, MI, 48038","Match","Exact","39571 HEATHERHEATH DR, CLINTON TOWNSHIP, MI, 48038",651774457,"L"
196259,"39574 CEDARWOOD DR","MURRIETA","CA",92563,33.564385788,-117.167673444,259,"39574 CEDARWOOD DR, MURRIETA, CA, 92563","Match","Exact","39574 CEDARWOOD DR, MURRIETA, CA, 92563",624930162,"R"
196260,"39574 DORCHESTER CIRCLE","CANTON","MI",48188,42.299671039,-83.43051478,260,"39574 DORCHESTER CIRCLE, CANTON, MI, 48188","Match","Exact","39574 DORCHESTER CIR, CANTON, MI, 48188",95712214,"R"
196261,"39575 WASHINGTON STREET STE 105","PALM DESERT","CA",92211,33.7624973490001,-116.300707563,261,"39575 WASHINGTON STREET STE 105, PALM DESERT, CA, 92211","Match","Exact","39575 WASHINGTON ST, PALM DESERT, CA, 92211",195070308,"L"
196262,"3958 BELL MOUNTAIN DR","CASTLE ROCK","CO",80104,39.2997047740001,-104.878581252,262,"3958 BELL MOUNTAIN DR, CASTLE ROCK, CO, 80104","Match","Exact","3958 BELL MOUNTAIN DR, CASTLE ROCK, CO, 80104",130839957,"L"
196263,"3958 DELOR ST","SAINT LOUIS","MO",63116,38.577240427,-90.258848384,263,"3958 DELOR ST, SAINT LOUIS, MO, 63116","Match","Exact","3958 DELOR ST, SAINT LOUIS, MO, 63116",107601510,"L"
196264,"3958 E WOOD DR","CHANDLER","AZ",85249,33.2307377700001,-111.774646291,264,"3958 E WOOD DR, CHANDLER, AZ, 85249","Match","Exact","3958 E WOOD DR, CHANDLER, AZ, 85249",244001476,"L"
196265,"3958 FOX TROT DRIVE","FORT WORTH","TX",76123,32.6154294040001,-97.3805915999999,265,"3958 FOX TROT DRIVE, FORT WORTH, TX, 76123","Match","Exact","3958 FOX TROT DR, FORT WORTH, TX, 76123",101959560,"L"
196266,"3958 HARBOR CT","EULESS","TX",76040,32.820453425,-97.088167692,266,"3958 HARBOR CT, EULESS, TX, 76040","Match","Exact","3958 HARBOR CT, EULESS, TX, 76040",619867459,"R"
196267,"3958 N ACADEMY BLVD STE 117","COLORADO SPRINGS","CO",80917,38.888248162,-104.757045499,267,"3958 N ACADEMY BLVD STE 117, COLORADO SPRINGS, CO, 80917","Match","Non_Exact","3958 N ACADEMY BLVD, COLORADO SPRINGS, CO, 80917",610811215,"L"
196268,"3958 S DEVANE DRIVE","YUMA","AZ",85365,32.6565932230001,-114.49717753,268,"3958 S DEVANE DRIVE, YUMA, AZ, 85365","Match","Exact","3958 DEVANE DR, YUMA, AZ, 85365",617969517,"R"
196269,"3958 SNOW ROAD N SUITE L","SEMMES","AL",36575,30.7728982680001,-88.2765140389999,269,"3958 SNOW ROAD N SUITE L, SEMMES, AL, 36575","Match","Non_Exact","3958 SNOW RD, SEMMES, AL, 36575",636636812,"R"
196270,"3958 STEINER ROAD","CRESTON","OH",44217,40.930669155,-81.8942984559999,270,"3958 STEINER ROAD, CRESTON, OH, 44217","Match","Exact","3958 STEINER RD, CRESTON, OH, 44217",58718570,"L"
196271,"39589 NATIONAL RD","BETHESDA","OH",43719,40.0598154100001,-81.0870423649999,271,"39589 NATIONAL RD, BETHESDA, OH, 43719","Match","Exact","39589 NATIONAL RD, BETHESDA, OH, 43719",36210982,"R"
196272,"3959 44TH STREET 2R","SUNNYSIDE","NY",11104,NA,NA,272,"3959 44TH STREET 2R, SUNNYSIDE, NY, 11104","No_Match",NA,NA,NA,NA
196273,"3959 AERIES WAY","VIRGINIA BEACH","VA",23455,36.910882712,-76.1132237849999,273,"3959 AERIES WAY, VIRGINIA BEACH, VA, 23455","Match","Exact","3959 AERIES WAY, VIRGINIA BCH, VA, 23455",122259945,"L"
196274,"3959 BENNIGAN LN","DULUTH","GA",30097,34.0251540900001,-84.1334961589999,274,"3959 BENNIGAN LN, DULUTH, GA, 30097","Match","Exact","3959 BENNIGAN LN, DULUTH, GA, 30097",88934119,"R"
196275,"3959 BROADWAY","GROVE CITY","OH",43123,39.8833534950001,-83.0926172539999,275,"3959 BROADWAY, GROVE CITY, OH, 43123","Match","Exact","3959 BROADWAY, GROVE CITY, OH, 43123",135584049,"R"
196276,"3959 DIAMOND CHIP CT","WELLINGTON","FL",33414,26.622898634,-80.226160033,276,"3959 DIAMOND CHIP CT, WELLINGTON, FL, 33414","Match","Exact","3959 DIAMOND CHIP CT, WELLINGTON, FL, 33414",115501094,"L"
196277,"3959 DICKSON AVE","CINCINNATI","OH",45229,39.1589496440001,-84.4931743229999,277,"3959 DICKSON AVE, CINCINNATI, OH, 45229","Match","Exact","3959 DICKSON AVE, CINCINNATI, OH, 45229",103925532,"L"
196278,"3959 E MT GARFIELD RD","FRUITPORT","MI",49415,43.146558633,-86.1465742939999,278,"3959 E MT GARFIELD RD, FRUITPORT, MI, 49415","Match","Exact","3959 MT GARFIELD RD, FRUITPORT, MI, 49415",77671953,"L"
196279,"3959 ELECTRIC ROAD SUITE 400","ROANOKE","VA",24018,37.2237134430001,-79.9854910399999,279,"3959 ELECTRIC ROAD SUITE 400, ROANOKE, VA, 24018","Match","Exact","3959 ELECTRIC RD, ROANOKE, VA, 24018",62920537,"R"
196280,"3959 HIGHWAY 18","VACHERIE","LA",70090,30.0006986920001,-90.785421556,280,"3959 HIGHWAY 18, VACHERIE, LA, 70090","Match","Exact","3959 HWY 18, VACHERIE, LA, 70090",93675570,"R"
196281,"3959 LULLWATER MAIN NW","KENNESAW","GA",30144,34.0483573440001,-84.638447244,281,"3959 LULLWATER MAIN NW, KENNESAW, GA, 30144","Match","Exact","3959 LULLWATER MAIN NW, KENNESAW, GA, 30144",17236758,"R"
196282,"3959 S NOVA ROAD SUITE 2","PORT ORANGE","FL",32127,29.1227568630001,-81.002409025,282,"3959 S NOVA ROAD SUITE 2, PORT ORANGE, FL, 32127","Match","Non_Exact","3959 S NOVA RD, PORT ORANGE, FL, 32127",613838996,"L"
196283,"3959 SALLY LN","OCEANSIDE","NY",11572,40.6149006360001,-73.6287666489999,283,"3959 SALLY LN, OCEANSIDE, NY, 11572","Match","Exact","3959 SALLY LN, OCEANSIDE, NY, 11572",147681956,"R"
196284,"3959 SOUTH VAN NESS AVENUE","LOS ANGELES","CA",90062,34.0124768760001,-118.31708287,284,"3959 SOUTH VAN NESS AVENUE, LOS ANGELES, CA, 90062","Match","Exact","3959 S VAN NESS AVE, LOS ANGELES, CA, 90062",141606291,"R"
196285,"3959 VAN DYKE RD APT 241","LUTZ","FL",33558,28.1278094210001,-82.507643856,285,"3959 VAN DYKE RD APT 241, LUTZ, FL, 33558","Match","Exact","3959 VAN DYKE RD, LUTZ, FL, 33558",104572934,"R"
196286,"3959 VAN DYKE RD","LUTZ","FL",33558,28.1278094210001,-82.507643856,286,"3959 VAN DYKE RD, LUTZ, FL, 33558","Match","Exact","3959 VAN DYKE RD, LUTZ, FL, 33558",104572934,"R"
196287,"3959 VAN DYKE ROAD SUITE 207","LUTZ","FL",33558,28.1278094210001,-82.507643856,287,"3959 VAN DYKE ROAD SUITE 207, LUTZ, FL, 33558","Match","Exact","3959 VAN DYKE RD, LUTZ, FL, 33558",104572934,"R"
196288,"3959 VAN DYKE ROD 368","LUTZ","FL",33558,28.1278094210001,-82.507643856,288,"3959 VAN DYKE ROD 368, LUTZ, FL, 33558","Match","Non_Exact","3959 VAN DYKE RD, LUTZ, FL, 33558",104572934,"R"
196289,"3959 VANDYKE ROAD UNIT 207","LUTZ","FL",33558,28.1278094210001,-82.507643856,289,"3959 VANDYKE ROAD UNIT 207, LUTZ, FL, 33558","Match","Non_Exact","3959 VAN DYKE RD, LUTZ, FL, 33558",104572934,"R"
196290,"3959 WELSH RD SUITE 161","WILLOW GROVE","PA",19090,NA,NA,290,"3959 WELSH RD SUITE 161, WILLOW GROVE, PA, 19090","No_Match",NA,NA,NA,NA
196291,"3959 WOODRUFF PARK WAY","BUFORD","GA",30519,34.102708207,-83.963021262,291,"3959 WOODRUFF PARK WAY, BUFORD, GA, 30519","Match","Exact","3959 WOODRUFF PARK WAY, BUFORD, GA, 30519",627509363,"R"
196292,"39597 BENAVENTE PL","FREMONT","CA",94539,37.561756126,-121.953147525,292,"39597 BENAVENTE PL, FREMONT, CA, 94539","Match","Exact","39597 BENAVENTE PL, FREMONT, CA, 94539",125033081,"R"
196293,"3959ELECTRIC ROAD SUITE 400","ROANOKE","VA",24018,NA,NA,293,"3959ELECTRIC ROAD SUITE 400, ROANOKE, VA, 24018","No_Match",NA,NA,NA,NA
196294,"396 4TH ST","BEAVER","PA",15009,40.698324819,-80.302889056,294,"396 4TH ST, BEAVER, PA, 15009","Match","Exact","396 4TH ST, BEAVER, PA, 15009",52561848,"R"
196295,"396 ALEXANDER SPRING ROAD SUITE 5","CARLISLE","PA",17015,40.1846383920001,-77.225272123,295,"396 ALEXANDER SPRING ROAD SUITE 5, CARLISLE, PA, 17015","Match","Exact","396 ALEXANDER SPRING RD, CARLISLE, PA, 17015",60981585,"L"
196296,"396 ASH LICK FRK","PHELPS","KY",41553,37.4738757870001,-82.197465408,296,"396 ASH LICK FRK, PHELPS, KY, 41553","Match","Exact","396 ASH LICK FORK, PHELPS, KY, 41553",40399170,"R"
196297,"396 BEACON AVENUE","ST. PAUL","MN",55104,44.9536212,-93.175906502,297,"396 BEACON AVENUE, ST. PAUL, MN, 55104","Match","Non_Exact","396 BEACON ST, SAINT PAUL, MN, 55104",97641312,"R"
196298,"396 BIG BEAVER CREEK ROAD","TROUT CREEK","MT",59874,47.7036974530001,-115.538372566,298,"396 BIG BEAVER CREEK ROAD, TROUT CREEK, MT, 59874","Match","Exact","396 BIG BEAVER CREEK RD, TROUT CREEK, MT, 59874",607957665,"R"
196299,"396 BLAIRWOOD DRIVE","TROTWOOD","OH",45426,39.804060486,-84.305965784,299,"396 BLAIRWOOD DRIVE, TROTWOOD, OH, 45426","Match","Exact","396 BLAIRWOOD DR, TROTWOOD, OH, 45426",143562368,"R"
196300,"396 CARVER HALL","AMES","IA",50011,NA,NA,300,"396 CARVER HALL, AMES, IA, 50011","No_Match",NA,NA,NA,NA
196301,"396 CLOVERDALE AVE","AKRON","OH",44302,41.0879569090001,-81.531507671,301,"396 CLOVERDALE AVE, AKRON, OH, 44302","Match","Exact","396 CLOVERDALE AVE, AKRON, OH, 44302",61340660,"L"
196302,"396 CRIPPLE CREEK LOOP","WATAUGA","TN",37694,36.380771672,-82.254511473,302,"396 CRIPPLE CREEK LOOP, WATAUGA, TN, 37694","Match","Exact","396 CRIPPLE CREEK LOOP, WATAUGA, TN, 37694",43055494,"L"
196303,"396 CYPRESS STREET","BROOMFIELD","CO",80020,39.909107061,-105.063951948,303,"396 CYPRESS STREET, BROOMFIELD, CO, 80020","Match","Exact","396 CYPRESS ST, BROOMFIELD, CO, 80020",177281872,"R"
196304,"396 DAWKINS ROAD","BLAIR","SC",29015,34.3687894930001,-81.343200564,304,"396 DAWKINS ROAD, BLAIR, SC, 29015","Match","Exact","396 DAWKINS RD, BLAIR, SC, 29015",40609546,"L"
196305,"396 DOERRMANN DR","MICKLETON","NJ",8056,39.794417206,-75.2388810269999,305,"396 DOERRMANN DR, MICKLETON, NJ, 8056","Match","Exact","396 DOERRMANN DR, MICKLETON, NJ, 08056",134598365,"R"
196306,"396 E UNIVERSITY AVE","ORANGE CITY","FL",32763,28.9504919020001,-81.2948517729999,306,"396 E UNIVERSITY AVE, ORANGE CITY, FL, 32763","Match","Exact","396 E UNIVERSITY AVE, ORANGE CITY, FL, 32763",94517888,"R"
196307,"396 EL DORADO DR","DALY CITY","CA",94015,37.678460638,-122.478086036,307,"396 EL DORADO DR, DALY CITY, CA, 94015","Match","Exact","396 EL DORADO DR, DALY CITY, CA, 94015",192402568,"R"
196308,"396 FOREST MEADOW DRIVE","MURPHYS","CA",95247,38.16768109,-120.406091632,308,"396 FOREST MEADOW DRIVE, MURPHYS, CA, 95247","Match","Non_Exact","396 FOREST MEADOWS DR, MURPHYS, CA, 95247",624741127,"L"
196309,"396 FORT DEFIANCE ROAD","FORT DEFIANCE","VA",24437,NA,NA,309,"396 FORT DEFIANCE ROAD, FORT DEFIANCE, VA, 24437","No_Match",NA,NA,NA,NA
196310,"396 FOURTH STREET","HOLLISTER","CA",95023,36.852569961,-121.403669707,310,"396 FOURTH STREET, HOLLISTER, CA, 95023","Match","Exact","396 4TH ST, HOLLISTER, CA, 95023",125461457,"R"
196311,"396 FRONTIER AVE","MORGANTOWN","WV",26505,39.659445829,-79.990823663,311,"396 FRONTIER AVE, MORGANTOWN, WV, 26505","Match","Non_Exact","396 FRONTIER ST, MORGANTOWN, WV, 26505",50744475,"R"
196312,"396 FULTON AVENUE FLOOR 2","JERSEY CITY","NJ",7305,40.7085990530001,-74.0929224659999,312,"396 FULTON AVENUE FLOOR 2, JERSEY CITY, NJ, 7305","Match","Exact","396 FULTON AVE, JERSEY CITY, NJ, 07305",638993265,"R"
196313,"396 HWY 97 N","MOLINO","FL",32577,30.733861458,-87.352017179,313,"396 HWY 97 N, MOLINO, FL, 32577","Match","Non_Exact","396 HWY 97, MOLINO, FL, 32577",93206860,"R"
196314,"396 IRISH SETTLEMENT ROAD","UNDERHILL","VT",5489,44.559897666,-72.8831267149999,314,"396 IRISH SETTLEMENT ROAD, UNDERHILL, VT, 5489","Match","Exact","396 IRISH SETTLEMENT RD, UNDERHILL, VT, 05489",135851012,"R"
196315,"396 KINGS TRACE DR","BEREA","KY",40403,37.6549023170001,-84.23029966,315,"396 KINGS TRACE DR, BEREA, KY, 40403","Match","Exact","396 KINGS TRACE DR, BEREA, KY, 40403",615577935,"L"
196316,"396 N CAMINO MERCADO","CASA GRANDE","AZ",85122,NA,NA,316,"396 N CAMINO MERCADO, CASA GRANDE, AZ, 85122","No_Match",NA,NA,NA,NA
196317,"396 NORTH 100 WEST APT 2","PROVO","UT",84604,NA,NA,317,"396 NORTH 100 WEST APT 2, PROVO, UT, 84604","No_Match",NA,NA,NA,NA
196318,"396 NORTH STATE STREET","SAINT IGNACE","MI",49781,45.868843946,-84.728469977,318,"396 NORTH STATE STREET, SAINT IGNACE, MI, 49781","Match","Exact","396 N STATE ST, SAINT IGNACE, MI, 49781",130710508,"L"
196319,"396 NW OOSTERHOUDT LANE","LAKE CITY","FL",32055,30.2573290820001,-82.6857184899999,319,"396 NW OOSTERHOUDT LANE, LAKE CITY, FL, 32055","Match","Exact","396 NW OOSTERHOUDT LN, LAKE CITY, FL, 32055",5146380,"R"
196320,"396 PHILLIP CIRCLE","FORSYTH","IL",62535,39.932890666,-88.966484937,320,"396 PHILLIP CIRCLE, FORSYTH, IL, 62535","Match","Exact","396 PHILLIP CIR, FORSYTH, IL, 62535",645471985,"R"
196321,"396 PIEDMONT AVE NE STE 5027","ATLANTA","GA",30308,NA,NA,321,"396 PIEDMONT AVE NE STE 5027, ATLANTA, GA, 30308","No_Match",NA,NA,NA,NA
196322,"396 PITTMAN MATTHEWS RD","NICHOLSON","GA",30656,34.071787482,-83.3665668149999,322,"396 PITTMAN MATTHEWS RD, NICHOLSON, GA, 30656","Match","Non_Exact","396 PITTMAN MATTHEWS RD, NICHOLSON, GA, 30565",5026535,"L"
196323,"396 ROLLING MOUNTAIN ROAD","BENTONVILLE","VA",22610,38.8193897800001,-78.226850782,323,"396 ROLLING MOUNTAIN ROAD, BENTONVILLE, VA, 22610","Match","Exact","396 ROLLING MOUNTAIN RD, BENTONVILLE, VA, 22610",159091150,"R"
196324,"396 S SUNNYSIDE AVENUE","ELMHURST","IL",60126,41.8887203130001,-87.956996252,324,"396 S SUNNYSIDE AVENUE, ELMHURST, IL, 60126","Match","Exact","396 S SUNNYSIDE AVE, ELMHURST, IL, 60126",112544832,"R"
196325,"396 SE BLOXHAM WAY","STUART","FL",34997,27.138636752,-80.2466062,325,"396 SE BLOXHAM WAY, STUART, FL, 34997","Match","Exact","396 SE BLOXHAM WAY, STUART, FL, 34997",614127213,"R"
196326,"396 SECOND STREET","MONONGAHELA","PA",15063,40.2001931520001,-79.925837523,326,"396 SECOND STREET, MONONGAHELA, PA, 15063","Match","Exact","396 2ND ST, MONONGAHELA, PA, 15063",52809035,"R"
196327,"396 SIMS LN","FRANKLIN","TN",37069,35.9716924460001,-86.887494362,327,"396 SIMS LN, FRANKLIN, TN, 37069","Match","Exact","396 SIMS LN, FRANKLIN, TN, 37069",73119894,"R"
196328,"396 SOUTHPORT STREET","RONKONKOMA","NY",11779,40.799784817,-73.141943292,328,"396 SOUTHPORT STREET, RONKONKOMA, NY, 11779","Match","Exact","396 SOUTHPORT ST, RONKONKOMA, NY, 11779",113992557,"R"
196329,"396 THRONE RD","FAWN GROVE","PA",17321,39.7872051250001,-76.4614889709999,329,"396 THRONE RD, FAWN GROVE, PA, 17321","Match","Exact","396 THRONE RD, FAWN GROVE, PA, 17321",646975860,"L"
196330,"396 TUTOR RD","ECRU","MS",38841,34.3229295730001,-89.0026954429999,330,"396 TUTOR RD, ECRU, MS, 38841","Match","Exact","396 TUTOR RD, ECRU, MS, 38841",610240053,"R"
196331,"396 TUTOR ROAD","ECRU","MS",38841,34.3229295730001,-89.0026954429999,331,"396 TUTOR ROAD, ECRU, MS, 38841","Match","Exact","396 TUTOR RD, ECRU, MS, 38841",610240053,"R"
196332,"396 WASHINGTON STREET UNIT 169","WELLESLEY HILLS","MA",2481,42.3078554620001,-71.2792003879999,332,"396 WASHINGTON STREET UNIT 169, WELLESLEY HILLS, MA, 2481","Match","Exact","396 WASHINGTON ST, WELLESLEY HILLS, MA, 02481",640942557,"L"
196333,"396 WEST 2ND STREET NORTH","WRIGHT CITY","MO",63390,38.82793422,-91.025689741,333,"396 WEST 2ND STREET NORTH, WRIGHT CITY, MO, 63390","Match","Exact","396 W 2ND ST N, WRIGHT CITY, MO, 63390",90119561,"R"
196334,"396 WEST WINTERHAVEN DRIVE","PUEBLO","CO",81007,38.2885173610001,-104.757362486,334,"396 WEST WINTERHAVEN DRIVE, PUEBLO, CO, 81007","Match","Exact","396 W WINTERHAVEN DR, PUEBLO, CO, 81007",105035086,"L"
196335,"396-406 SOUTH 12TH STREET","NEWARK","NJ",7103,40.7407527880001,-74.202489655,335,"396-406 SOUTH 12TH STREET, NEWARK, NJ, 7103","Match","Exact","396 S 12TH ST, NEWARK, NJ, 07103",63465545,"L"
196336,"3960 BEXHILL DRIVE","PLANO","TX",75025,33.0748974460001,-96.770347895,336,"3960 BEXHILL DRIVE, PLANO, TX, 75025","Match","Exact","3960 BEXHILL DR, PLANO, TX, 75025",123531154,"R"
196337,"3960 BUNK HOUSE DR","COLORADO SPRINGS","CO",80917,38.8890679250001,-104.734359393,337,"3960 BUNK HOUSE DR, COLORADO SPRINGS, CO, 80917","Match","Exact","3960 BUNK HOUSE DR, COLORADO SPRINGS, CO, 80917",105529263,"L"
196338,"3960 COUNTY ROAD 30","FLORENCE","AL",35634,34.8733074290001,-87.609553671,338,"3960 COUNTY ROAD 30, FLORENCE, AL, 35634","Match","Exact","3960 CO RD 30, FLORENCE, AL, 35634",639830606,"L"
196339,"3960 GARRETT STREET","DE PERE","WI",54115,44.4249595260001,-88.010313918,339,"3960 GARRETT STREET, DE PERE, WI, 54115","Match","Exact","3960 GARRETT ST, DE PERE, WI, 54115",632868380,"R"
196340,"3960 HOWARD HUGHES PKWY 500","LAS VEGAS","NV",89169,36.117168754,-115.157505148,340,"3960 HOWARD HUGHES PKWY 500, LAS VEGAS, NV, 89169","Match","Exact","3960 HOWARD HUGHES PKWY, LAS VEGAS, NV, 89169",630520098,"L"
196341,"3960 HOWARD HUGHES PKWY STE 500","LAS VEGAS","NV",89169,36.117168754,-115.157505148,341,"3960 HOWARD HUGHES PKWY STE 500, LAS VEGAS, NV, 89169","Match","Exact","3960 HOWARD HUGHES PKWY, LAS VEGAS, NV, 89169",630520098,"L"
196342,"3960 HOWARD HUGHES PKWY SUITE 500","LAS VEGAS","NV",89169,36.117168754,-115.157505148,342,"3960 HOWARD HUGHES PKWY SUITE 500, LAS VEGAS, NV, 89169","Match","Exact","3960 HOWARD HUGHES PKWY, LAS VEGAS, NV, 89169",630520098,"L"
196343,"3960 HOWARD HUGHES PKWY","LAS VEGAS","NV",89169,36.117168754,-115.157505148,343,"3960 HOWARD HUGHES PKWY, LAS VEGAS, NV, 89169","Match","Exact","3960 HOWARD HUGHES PKWY, LAS VEGAS, NV, 89169",630520098,"L"
196344,"3960 MEDINA RD","FAIRLAWN","OH",44333,41.1359050410001,-81.641790913,344,"3960 MEDINA RD, FAIRLAWN, OH, 44333","Match","Exact","3960 MEDINA RD, FAIRLAWN, OH, 44333",61389875,"L"
196345,"3960 NW 38TH PL","GAINESVILLE","FL",32606,29.688053666,-82.383943131,345,"3960 NW 38TH PL, GAINESVILLE, FL, 32606","Match","Exact","3960 NW 38TH PL, GAINESVILLE, FL, 32606",6803737,"R"
196346,"3960 POPLAR SPRINGS RD","RINGGOLD","GA",30736,34.892875492,-85.1979678119999,346,"3960 POPLAR SPRINGS RD, RINGGOLD, GA, 30736","Match","Exact","3960 POPLAR SPRINGS RD, RINGGOLD, GA, 30736",66691104,"R"
196347,"3960 RICA DR","VIRGINIA BEACH","VA",23453,36.78957884,-76.1064720109999,347,"3960 RICA DR, VIRGINIA BEACH, VA, 23453","Match","Exact","3960 RICA DR, VIRGINIA BCH, VA, 23453",122268401,"L"
196348,"3960 RIVERGLEN CIR","SUWANEE","GA",30024,34.0353814920001,-84.107878813,348,"3960 RIVERGLEN CIR, SUWANEE, GA, 30024","Match","Exact","3960 RIVERGLEN CIR, SUWANEE, GA, 30024",645844625,"L"
196349,"3960 S BANANA RIVER BLVD","COCOA BEACH","FL",32931,28.355063737,-80.611570894,349,"3960 S BANANA RIVER BLVD, COCOA BEACH, FL, 32931","Match","Exact","3960 S BANANA RIVER BLVD, COCOA BEACH, FL, 32931",93899295,"R"
196350,"3960 SW 146TH AVENUE","MIRAMAR","FL",33027,25.9724787070001,-80.3410149969999,350,"3960 SW 146TH AVENUE, MIRAMAR, FL, 33027","Match","Exact","3960 SW 146TH AVE, MIRAMAR, FL, 33027",114778163,"L"
196351,"3960 W POINT LOMA BLVD STE H-138","SAN DIEGO","CA",92110,NA,NA,351,"3960 W POINT LOMA BLVD STE H-138, SAN DIEGO, CA, 92110","No_Match",NA,NA,NA,NA
196352,"3960 WEST POINT LOMA BLVD STE H1010","SAN DIEGO","CA",92110,32.7538188780001,-117.22335641,352,"3960 WEST POINT LOMA BLVD STE H1010, SAN DIEGO, CA, 92110","Match","Exact","3960 W POINT LOMA BLVD, SAN DIEGO, CA, 92110",195340574,"R"
196353,"3960 WEST PT LOMA BLVD H240","SAN DIEGO","CA",92110,32.7538188780001,-117.22335641,353,"3960 WEST PT LOMA BLVD H240, SAN DIEGO, CA, 92110","Match","Exact","3960 W POINT LOMA BLVD, SAN DIEGO, CA, 92110",195340574,"R"
196354,"3960 WILSHIRE BLVD STE 407","LOS ANGELES","CA",90010,34.0616902300001,-118.313226297,354,"3960 WILSHIRE BLVD STE 407, LOS ANGELES, CA, 90010","Match","Exact","3960 WILSHIRE BLVD, LOS ANGELES, CA, 90010",141603636,"L"
196355,"3960 WILSHIRE BLVD SUITE 306","LOS ANGELES","CA",90010,34.0616902300001,-118.313226297,355,"3960 WILSHIRE BLVD SUITE 306, LOS ANGELES, CA, 90010","Match","Exact","3960 WILSHIRE BLVD, LOS ANGELES, CA, 90010",141603636,"L"
196356,"3960 WINSTON DRIVE","HOFFMAN ESTATES","IL",60192,42.0955326000001,-88.099588394,356,"3960 WINSTON DRIVE, HOFFMAN ESTATES, IL, 60192","Match","Exact","3960 WINSTON DR, HOFFMAN EST, IL, 60192",111690295,"L"
196357,"39601 I-27","HAPPY","TX",79042,NA,NA,357,"39601 I-27, HAPPY, TX, 79042","No_Match",NA,NA,NA,NA
196358,"39604 N RATTLESNAKE RD","SAN TAN VALLEY","AZ",85140,33.2398191930001,-111.5413928,358,"39604 N RATTLESNAKE RD, SAN TAN VALLEY, AZ, 85140","Match","Exact","39604 N RATTLESNAKE RD, SAN TAN VALLEY, AZ, 85140",129245875,"R"
196359,"396060 W 4000 RD","SKIATOOK","OK",74070,36.4317375300001,-95.9551588849999,359,"396060 W 4000 RD, SKIATOOK, OK, 74070","Match","Exact","396060 W 4000 RD, SKIATOOK, OK, 74070",606561466,"L"
196360,"39609 MOUNTAIN HOME DRIVE","SWEET HOME","OR",97386,44.4315167330001,-122.81399634,360,"39609 MOUNTAIN HOME DRIVE, SWEET HOME, OR, 97386","Match","Exact","39609 MOUNTAIN HOME DR, SWEET HOME, OR, 97386",156044488,"L"
196361,"3961 BISON BLVD","LAKE HAVASU CITY","AZ",86404,34.5203981940001,-114.280875481,361,"3961 BISON BLVD, LAKE HAVASU CITY, AZ, 86404","Match","Exact","3961 BISON BLVD, LAKE HAVASU CITY, AZ, 86404",618632474,"L"
196362,"3961 E CHANDLER BL STE 111-362","PHOENIX","AZ",85048,33.3052031870001,-111.998057355,362,"3961 E CHANDLER BL STE 111-362, PHOENIX, AZ, 85048","Match","Non_Exact","3961 E CHANDLER BLVD, PHOENIX, AZ, 85048",128929167,"R"
196363,"3961 FLOYD RD 300-257","AUSTELL","GA",30106,33.857154264,-84.591326411,363,"3961 FLOYD RD 300-257, AUSTELL, GA, 30106","Match","Exact","3961 FLOYD RD, AUSTELL, GA, 30106",17241658,"L"
196364,"3961 FLOYD RD SUITE 300","AUSTELL","GA",30106,33.857154264,-84.591326411,364,"3961 FLOYD RD SUITE 300, AUSTELL, GA, 30106","Match","Exact","3961 FLOYD RD, AUSTELL, GA, 30106",17241658,"L"
196365,"3961 FLOYD ROAD STE 300","AUSTELL","GA",30106,33.857154264,-84.591326411,365,"3961 FLOYD ROAD STE 300, AUSTELL, GA, 30106","Match","Exact","3961 FLOYD RD, AUSTELL, GA, 30106",17241658,"L"
196366,"3961 HORTENSIA ST H5","SAN DIEGO","CA",92110,32.7491752400001,-117.190974791,366,"3961 HORTENSIA ST H5, SAN DIEGO, CA, 92110","Match","Exact","3961 HORTENSIA ST, SAN DIEGO, CA, 92110",195707567,"R"
196367,"3961 MCCLELLAN RD","PENSACOLA","FL",32503,30.4586283530001,-87.194904337,367,"3961 MCCLELLAN RD, PENSACOLA, FL, 32503","Match","Exact","3961 MCCLELLAN RD, PENSACOLA, FL, 32503",93231492,"L"
196368,"3961 MONROEVILLE BOULEVARD","MONROEVILLE","PA",15146,NA,NA,368,"3961 MONROEVILLE BOULEVARD, MONROEVILLE, PA, 15146","No_Match",NA,NA,NA,NA
196369,"3961 NORTH BROADWAY STREET","INDIANAPOLIS","IN",46205,39.8279180530001,-86.146253723,369,"3961 NORTH BROADWAY STREET, INDIANAPOLIS, IN, 46205","Match","Non_Exact","3961 BROADWAY ST, INDIANAPOLIS, IN, 46205",107989027,"R"
196370,"3961 POMODORO CIR  APT 102","CAPE CORAL","FL",33909,26.723095474,-81.90857625,370,"3961 POMODORO CIR  APT 102, CAPE CORAL, FL, 33909","Match","Exact","3961 POMODORO CIR, CAPE CORAL, FL, 33909",648416421,"R"
196371,"3961 SUN SHINE AVE","INDIANAPOLIS","IN",46228,39.827967447,-86.2218136119999,371,"3961 SUN SHINE AVE, INDIANAPOLIS, IN, 46228","Match","Non_Exact","3961 SUNSHINE AVE, INDIANAPOLIS, IN, 46228",108022431,"R"
196372,"39610 CARLTON ROAD","DUETTE","FL",34219,27.643222338,-82.1318166739999,372,"39610 CARLTON ROAD, DUETTE, FL, 34219","Match","Exact","39610 CARLTON RD, DUETTE, FL, 34219",16282993,"R"
196373,"3962 FLYNTDALE ROAD","WINSTON-SALEM","NC",27106,36.1556472550001,-80.34694869,373,"3962 FLYNTDALE ROAD, WINSTON-SALEM, NC, 27106","Match","Non_Exact","3962 FLYNTDALE AVE, WINSTON SALEM, NC, 27106",84679151,"R"
196374,"3962 LAKE STAR DRIVE","LEAGUE CITY","TX",77573,29.5028250350001,-95.0110363429999,374,"3962 LAKE STAR DRIVE, LEAGUE CITY, TX, 77573","Match","Exact","3962 LAKE STAR DR, LEAGUE CITY, TX, 77573",614169212,"L"
196375,"3962 MAGAZINE ST","NEW ORLEANS","LA",70115,29.9211850840001,-90.096272775,375,"3962 MAGAZINE ST, NEW ORLEANS, LA, 70115","Match","Exact","3962 MAGAZINE ST, NEW ORLEANS, LA, 70115",191713189,"L"
196376,"3962 POINT CLEAR DR","MISSOURI CITY","TX",77459,29.565010525,-95.532020463,376,"3962 POINT CLEAR DR, MISSOURI CITY, TX, 77459","Match","Exact","3962 POINT CLEAR DR, MISSOURI CITY, TX, 77459",642467705,"L"
196377,"3962 SORRENTO VALLEY ROAD STE 900","SAN DIEGO","CA",92121,32.903096093,-117.220469536,377,"3962 SORRENTO VALLEY ROAD STE 900, SAN DIEGO, CA, 92121","Match","Non_Exact","3962 SORRENTO VALLEY BLVD, SAN DIEGO, CA, 92121",629818074,"L"
196378,"3962 VETERANS MEMORIAL HWY","LITHIA SPRINGS","GA",30122,NA,NA,378,"3962 VETERANS MEMORIAL HWY, LITHIA SPRINGS, GA, 30122","No_Match",NA,NA,NA,NA
196379,"3963 BOULDERCREST RD","ELLENWOOD","GA",30294,33.646750352,-84.282231172,379,"3963 BOULDERCREST RD, ELLENWOOD, GA, 30294","Match","Exact","3963 BOULDERCREST RD, ELLENWOOD, GA, 30294",653850540,"R"
196380,"3963 BRUSHWOOD WAY","CASTLE ROCK","CO",80109,39.4032250400001,-104.897257481,380,"3963 BRUSHWOOD WAY, CASTLE ROCK, CO, 80109","Match","Exact","3963 BRUSHWOOD WAY, CASTLE ROCK, CO, 80109",130844103,"R"
196381,"3963 COLE AVE","DALLAS","TX",75204,32.81171985,-96.794977692,381,"3963 COLE AVE, DALLAS, TX, 75204","Match","Exact","3963 COLE AVE, DALLAS, TX, 75204",102909001,"L"
196382,"3963 EAST ELMWOOD PLACE","CHANDLER","AZ",85249,33.2279615740001,-111.774025661,382,"3963 EAST ELMWOOD PLACE, CHANDLER, AZ, 85249","Match","Exact","3963 E ELMWOOD PL, CHANDLER, AZ, 85249",244004286,"R"
196383,"3963 LELAH LANE","MILLINGTON","TN",38053,35.306052546,-89.930811411,383,"3963 LELAH LANE, MILLINGTON, TN, 38053","Match","Exact","3963 LELAH LN, MILLINGTON, TN, 38053",72898400,"R"
196384,"3963 MAPLE AVENUE STE 300","DALLAS","TX",75219,32.8054221250001,-96.815424209,384,"3963 MAPLE AVENUE STE 300, DALLAS, TX, 75219","Match","Exact","3963 MAPLE AVE, DALLAS, TX, 75219",102908591,"L"
196385,"3963 SAUTEE TRAIL","CONLEY","GA",30288,33.6651852750001,-84.3198724229999,385,"3963 SAUTEE TRAIL, CONLEY, GA, 30288","Match","Exact","3963 SAUTEE TRL, CONLEY, GA, 30288",23399694,"R"
196386,"3963 SOUTH WEST TEMPLE APT D316","SALT LAKE CITY","UT",84107,40.6855796890001,-111.893953671,386,"3963 SOUTH WEST TEMPLE APT D316, SALT LAKE CITY, UT, 84107","Match","Exact","3963 S WEST TEMPLE, SALT LAKE CITY, UT, 84107",638533176,"L"
196387,"3963 SUMMIT HURST DR","NEW BRAUNFELS","TX",78132,29.8361027280001,-98.1527313399999,387,"3963 SUMMIT HURST DR, NEW BRAUNFELS, TX, 78132","Match","Non_Exact","3963 SUMMIT HURST, NEW BRAUNFELS, TX, 78132",72277802,"L"
196388,"39636 BRUNING ST","FREMONT","CA",94538,37.532116258,-121.988060742,388,"39636 BRUNING ST, FREMONT, CA, 94538","Match","Exact","39636 BRUNING ST, FREMONT, CA, 94538",125040466,"L"
196389,"3964 28TH ST","HIGHLAND","CA",92346,34.140957106,-117.201252299,389,"3964 28TH ST, HIGHLAND, CA, 92346","Match","Non_Exact","3964 E 28TH ST, HIGHLAND, CA, 92346",144732366,"L"
196390,"3964 3RD AVENUE","SACRAMENTO","CA",95817,38.5496768730001,-121.461140727,390,"3964 3RD AVENUE, SACRAMENTO, CA, 95817","Match","Exact","3964 3RD AVE, SACRAMENTO, CA, 95817",133326872,"R"
196391,"3964 BLACKMOOR ST","MOUNT PLEASANT","SC",29466,32.8571681980001,-79.770113835,391,"3964 BLACKMOOR ST, MOUNT PLEASANT, SC, 29466","Match","Exact","3964 BLACKMOOR ST, MOUNT PLEASANT, SC, 29466",627521900,"L"
196392,"3964 EMERALD CHASE DR","TALLAHASSEE","FL",32308,30.478497229,-84.211485685,392,"3964 EMERALD CHASE DR, TALLAHASSEE, FL, 32308","Match","Exact","3964 EMERALD CHASE DR, TALLAHASSEE, FL, 32308",82866637,"R"
196393,"3964 GERALDINE","ST ANN","MO",63074,38.7322053560001,-90.3723715579999,393,"3964 GERALDINE, ST ANN, MO, 63074","Match","Non_Exact","3964 GERALDINE AVE, SAINT ANN, MO, 63074",100118155,"R"
196394,"3964 N CEANOTHUS PLACE","CALABASAS","CA",91302,34.1311693860001,-118.705681243,394,"3964 N CEANOTHUS PLACE, CALABASAS, CA, 91302","Match","Exact","3964 CEANOTHUS PL, CALABASAS, CA, 91302",241248286,"R"
196395,"3964 RIVERMARK PLAZA SUITE 209","SANTA CLARA","CA",95054,37.395410446,-121.947278749,395,"3964 RIVERMARK PLAZA SUITE 209, SANTA CLARA, CA, 95054","Match","Non_Exact","3964 RIVERMARK PKWY, SANTA CLARA, CA, 95054",123181902,"R"
196396,"3964 STRATTON DRIVE","RIVERSIDE","CA",92505,33.9040674190001,-117.482906302,396,"3964 STRATTON DRIVE, RIVERSIDE, CA, 92505","Match","Exact","3964 STRATTON DR, RIVERSIDE, CA, 92505",194736969,"R"
196397,"3965 7 TREES BLVD APT 209","SAN JOSE","CA",95111,37.2805698170001,-121.832100623,397,"3965 7 TREES BLVD APT 209, SAN JOSE, CA, 95111","Match","Exact","3965 SEVEN TREES BLVD, SAN JOSE, CA, 95111",618192053,"R"
196398,"3965 ANNA MARIA COURT","CLARKSTON","GA",30021,33.8105305450001,-84.2273769939999,398,"3965 ANNA MARIA COURT, CLARKSTON, GA, 30021","Match","Exact","3965 ANNA MARIA CT, CLARKSTON, GA, 30021",23363222,"R"
196399,"3965 BEAM RD","CRESTLINE","OH",44827,40.7984171740001,-82.65762538,399,"3965 BEAM RD, CRESTLINE, OH, 44827","Match","Exact","3965 BEAM RD, CRESTLINE, OH, 44827",12888021,"R"
196400,"3965 BETHEL RD SE SUITE 1 UNIT 127","PORT ORCHARD","WA",98366,47.5129013740001,-122.631365173,400,"3965 BETHEL RD SE SUITE 1 UNIT 127, PORT ORCHARD, WA, 98366","Match","Exact","3965 BETHEL RD SE, PORT ORCHARD, WA, 98366",187665740,"R"
196401,"3965 BORDER WAY","VIRGINIA BEACH","VA",23456,36.757484515,-76.121117833,401,"3965 BORDER WAY, VIRGINIA BEACH, VA, 23456","Match","Exact","3965 BORDER WAY, VA BCH, VA, 23456",627128201,"R"
196402,"3965 BOULEVARD PL STREET","INDIANAPOLIS","IN",46208,39.8277180810001,-86.163980066,402,"3965 BOULEVARD PL STREET, INDIANAPOLIS, IN, 46208","Match","Exact","3965 BOULEVARD PL, INDIANAPOLIS, IN, 46208",107988761,"R"
196403,"3965 CARSON CUTOFF","MARTINEZ","GA",30907,33.5301913050001,-82.103256211,403,"3965 CARSON CUTOFF, MARTINEZ, GA, 30907","Match","Exact","3965 CARSON CUTOFF, MARTINEZ, GA, 30907",55379967,"R"
196404,"3965 CRYSTAL DOWNS CT","ROSEVILLE","CA",95747,38.7311797510001,-121.351851567,404,"3965 CRYSTAL DOWNS CT, ROSEVILLE, CA, 95747","Match","Exact","3965 CRYSTAL DOWNS CT, ROSEVILLE, CA, 95747",106819664,"L"
196405,"3965 E OWENS AVE 180","LAS VEGAS","NV",89110,36.1883045340001,-115.090696508,405,"3965 E OWENS AVE 180, LAS VEGAS, NV, 89110","Match","Non_Exact","3965 E OWENS AVE, LAS VEGAS, NV, 89110",201874451,"R"
196406,"3965 EAST BROOKSTOWN DRIVE","BATON ROUGE","LA",70805,30.4868395070001,-91.128153035,406,"3965 EAST BROOKSTOWN DRIVE, BATON ROUGE, LA, 70805","Match","Exact","3965 E BROOKSTOWN DR, BATON ROUGE, LA, 70805",92188578,"L"
196407,"3965 INVESTMENT LANE UNIT A-5","WEST PALM BEACH","FL",33404,26.7976803350001,-80.0961087699999,407,"3965 INVESTMENT LANE UNIT A-5, WEST PALM BEACH, FL, 33404","Match","Exact","3965 INVESTMENT LN, WEST PALM BEACH, FL, 33404",115522440,"L"
196408,"3965 LACLEDE AVENUE APT 103","SAINT LOUIS","MO",63108,38.6365927890001,-90.244183062,408,"3965 LACLEDE AVENUE APT 103, SAINT LOUIS, MO, 63108","Match","Exact","3965 LACLEDE AVE, SAINT LOUIS, MO, 63108",606634308,"R"
196409,"3965 MAXON ROAD","PADUCAH","KY",42001,37.0882805630001,-88.7125877129999,409,"3965 MAXON ROAD, PADUCAH, KY, 42001","Match","Exact","3965 MAXON RD, PADUCAH, KY, 42001",8410803,"L"
196410,"3965 N 480 E","PROVO","UT",84604,40.2863208700001,-111.650229115,410,"3965 N 480 E, PROVO, UT, 84604","Match","Exact","3965 N 480 E, PROVO, UT, 84604",134207729,"L"
196411,"3965 NOBEL DRIVE UNIT 246","SAN DIEGO","CA",92122,32.868003528,-117.220286342,411,"3965 NOBEL DRIVE UNIT 246, SAN DIEGO, CA, 92122","Match","Exact","3965 NOBEL DR, SAN DIEGO, CA, 92122",195301891,"R"
196412,"3965 PORTICO RUN DRIVE","SUWANEE","GA",30024,NA,NA,412,"3965 PORTICO RUN DRIVE, SUWANEE, GA, 30024","No_Match",NA,NA,NA,NA
196413,"3965 SUMMERTIME DR","SAINT CHARLES","MO",63304,38.721647101,-90.583722439,413,"3965 SUMMERTIME DR, SAINT CHARLES, MO, 63304","Match","Exact","3965 SUMMERTIME DR, SAINT CHARLES, MO, 63304",100018296,"L"
196414,"3965 SUNKIST STREET","PALMDALE","CA",93551,34.610346468,-118.202563832,414,"3965 SUNKIST STREET, PALMDALE, CA, 93551","Match","Exact","3965 SUNKIST ST, PALMDALE, CA, 93551",142678856,"R"
196415,"3965 WATKINS ROAD","BATTLE CREEK","MI",49015,42.268367605,-85.219235054,415,"3965 WATKINS ROAD, BATTLE CREEK, MI, 49015","Match","Exact","3965 WATKINS RD, BATTLE CREEK, MI, 49015",650706203,"L"
196416,"39656 HOWES LANE","PONCHATOULA","LA",70454,30.435931773,-90.359692111,416,"39656 HOWES LANE, PONCHATOULA, LA, 70454","Match","Exact","39656 HOWES LN, PONCHATOULA, LA, 70454",75757572,"R"
196417,"3966  BANNEN TRAIL DRIVE","CANAL WINCHESTER","OH",43110,39.900047097,-82.8107188979999,417,"3966  BANNEN TRAIL DRIVE, CANAL WINCHESTER, OH, 43110","Match","Exact","3966 BANNEN TRAIL DR, CANAL WINCHESTER, OH, 43110",218560457,"R"
196418,"3966 ATLANTA HGW","MONTGOMERY","AL",36109,32.382397418,-86.243224649,418,"3966 ATLANTA HGW, MONTGOMERY, AL, 36109","Match","Non_Exact","3966 ATLANTA HWY, MONTGOMERY, AL, 36109",1472102,"R"
196419,"3966 ATLANTA HIGHWAY 385","MONTGOMERY","AL",36109,32.382397418,-86.243224649,419,"3966 ATLANTA HIGHWAY 385, MONTGOMERY, AL, 36109","Match","Exact","3966 ATLANTA HWY, MONTGOMERY, AL, 36109",1472102,"R"
196420,"3966 E MARLENE DR","GILBERT","AZ",85296,33.3477563820001,-111.705150961,420,"3966 E MARLENE DR, GILBERT, AZ, 85296","Match","Exact","3966 E MARLENE DR, GILBERT, AZ, 85296",601662212,"L"
196421,"3966 E SOUTHCROSS","SAN ANTONIO","TX",78222,29.3747489670001,-98.415966977,421,"3966 E SOUTHCROSS, SAN ANTONIO, TX, 78222","Match","Non_Exact","3966 E SOUTHCROSS BLVD, SAN ANTONIO, TX, 78222",101535456,"R"
196422,"3966 GLEN ABBY CIRCLE","STOCKTON","CA",95219,37.980045886,-121.356594571,422,"3966 GLEN ABBY CIRCLE, STOCKTON, CA, 95219","Match","Exact","3966 GLEN ABBY CIR, STOCKTON, CA, 95219",133878792,"L"
196423,"3966 LAKESHORE DRIVE","SHREVEPORT","LA",71109,32.491353455,-93.802620444,423,"3966 LAKESHORE DRIVE, SHREVEPORT, LA, 71109","Match","Exact","3966 LAKESHORE DR, SHREVEPORT, LA, 71109",57431038,"R"
196424,"3966 MINNEHAHA AVE SOUTH","MINNEAPOLIS","MN",55407,NA,NA,424,"3966 MINNEHAHA AVE SOUTH, MINNEAPOLIS, MN, 55407","No_Match",NA,NA,NA,NA
196425,"3966 SOUTHERN BEND","MISSOURI CIRY","TX",77459,29.502926454,-95.503944293,425,"3966 SOUTHERN BEND, MISSOURI CIRY, TX, 77459","Match","Non_Exact","3966 SOUTHERN BEND, MISSOURI CITY, TX, 77459",635222150,"R"
196426,"3966 STILLWATER COURT","DUBLIN","CA",94568,37.7229823590001,-121.871014602,426,"3966 STILLWATER COURT, DUBLIN, CA, 94568","Match","Exact","3966 STILLWATER CT, DUBLIN, CA, 94568",627228215,"R"
196427,"3966 TOREES CIR","WEST PALM BEACH","FL",33409,26.7385851230001,-80.10273188,427,"3966 TOREES CIR, WEST PALM BEACH, FL, 33409","Match","Non_Exact","3966 TORRES CIR, WEST PALM BEACH, FL, 33409",115581467,"R"
196428,"3966 TORRES CIR","WEST PALM BEACH","FL",33409,26.7385851230001,-80.10273188,428,"3966 TORRES CIR, WEST PALM BEACH, FL, 33409","Match","Exact","3966 TORRES CIR, WEST PALM BEACH, FL, 33409",115581467,"R"
196429,"3966 W 141ST STREET","SAVAGE","MN",55378,44.74825287,-93.329459962,429,"3966 W 141ST STREET, SAVAGE, MN, 55378","Match","Exact","3966 141 ST, SAVAGE, MN, 55378",635663414,"L"
196430,"39660 BLACOW ROAD","FREMONT","CA",94538,37.5313653540001,-121.988436457,430,"39660 BLACOW ROAD, FREMONT, CA, 94538","Match","Exact","39660 BLACOW RD, FREMONT, CA, 94538",633935212,"L"
196431,"39660 HOOD ST","SANDY","OR",97055,45.3986729760001,-122.255532634,431,"39660 HOOD ST, SANDY, OR, 97055","Match","Exact","39660 HOOD ST, SANDY, OR, 97055",157940757,"R"
196432,"3967 AMES ST NE","WASHINGTON","DC",20019,38.8908814010001,-76.9483440289999,432,"3967 AMES ST NE, WASHINGTON, DC, 20019","Match","Exact","3967 AMES ST NE, WASHINGTON, DC, 20019",76233149,"R"
196433,"3967 ARCHER PKWY","CHEYENNE","WY",82009,41.1522693380001,-104.655815796,433,"3967 ARCHER PKWY, CHEYENNE, WY, 82009","Match","Exact","3967 ARCHER PKWY, CHEYENNE, WY, 82009",645166773,"L"
196434,"3967 FERNANDO DRIVE","EULESS","TX",76040,32.8201565150001,-97.08955378,434,"3967 FERNANDO DRIVE, EULESS, TX, 76040","Match","Exact","3967 FERNANDO DR, EULESS, TX, 76040",619867460,"L"
196435,"3967 PERRY PASS",":LITHONIA","GA",30038,NA,NA,435,"3967 PERRY PASS, :LITHONIA, GA, 30038","No_Match",NA,NA,NA,NA
196436,"3967 PERRY PASS","LITHONIA","GA",30038,33.6623935750001,-84.206407065,436,"3967 PERRY PASS, LITHONIA, GA, 30038","Match","Exact","3967 PERRY PASS, LITHONIA, GA, 30038",619381505,"R"
196437,"3967 RIVEREDGE ROAD","CLEVELAND","OH",44111,41.447160276,-81.8230348829999,437,"3967 RIVEREDGE ROAD, CLEVELAND, OH, 44111","Match","Exact","3967 RIVEREDGE RD, CLEVELAND, OH, 44111",61098968,"L"
196438,"3967 ROSEBAY COURT","FAIRFAX","VA",22033,38.877352343,-77.384649176,438,"3967 ROSEBAY COURT, FAIRFAX, VA, 22033","Match","Exact","3967 ROSEBAY CT, FAIRFAX, VA, 22033",76026438,"R"
196439,"39674 US HWY 10","FRAZEE","MN",56544,46.66934446,-95.664073698,439,"39674 US HWY 10, FRAZEE, MN, 56544","Match","Exact","39674 US HWY 10, FRAZEE, MN, 56544",168306014,"L"
196440,"39677 N ZAMPINO ST","SAN TAN VALLEY","AZ",85140,33.239273462,-111.546854782,440,"39677 N ZAMPINO ST, SAN TAN VALLEY, AZ, 85140","Match","Exact","39677 ZAMPINO ST, SAN TAN VALLEY, AZ, 85140",624651660,"R"
196441,"3968 E ORE BRANCH RD","BLOOMFIELD","IN",47424,39.0273395030001,-86.866805518,441,"3968 E ORE BRANCH RD, BLOOMFIELD, IN, 47424","Match","Exact","3968 E ORE BRANCH RD, BLOOMFIELD, IN, 47424",39309169,"L"
196442,"3968 EAST PARK BLVD","PLANO","TX",75074,33.0310702260001,-96.654059057,442,"3968 EAST PARK BLVD, PLANO, TX, 75074","Match","Exact","3968 E PARK BLVD, PLANO, TX, 75074",210472031,"R"
196443,"3968 MONTGOMERY RD","CINCINNATI","OH",45212,39.152221759,-84.4624189099999,443,"3968 MONTGOMERY RD, CINCINNATI, OH, 45212","Match","Exact","3968 MONTGOMERY RD, CINCINNATI, OH, 45212",103948574,"R"
196444,"3968 ROWENA DR","PHILADELPHIA","PA",19114,40.0636404910001,-74.987175395,444,"3968 ROWENA DR, PHILADELPHIA, PA, 19114","Match","Exact","3968 ROWENA DR, PHILADELPHIA, PA, 19114",131441511,"R"
196445,"3968 S ELLIS AVE APT 3N","CHICAGO","IL",60653,41.8224063800001,-87.604103177,445,"3968 S ELLIS AVE APT 3N, CHICAGO, IL, 60653","Match","Non_Exact","3968 S ELLIS AVE, CHICAGO, IL, 60653",635071864,"R"
196446,"3968 THIRD AVE","BRONX","NY",10457,40.840531393,-73.899479625,446,"3968 THIRD AVE, BRONX, NY, 10457","Match","Exact","3968 3RD AVE, BRONX, NY, 10457",80301344,"R"
196447,"3968 TWILIGHT DR  BUILDING 2","SAN JOSE","CA",95124,37.2584102810001,-121.943013155,447,"3968 TWILIGHT DR  BUILDING 2, SAN JOSE, CA, 95124","Match","Exact","3968 TWILIGHT DR, SAN JOSE, CA, 95124",122920679,"L"
196448,"3968 TWILIGHT DRIVE BUILDING 2","SAN JOSE","CA",95124,37.2584102810001,-121.943013155,448,"3968 TWILIGHT DRIVE BUILDING 2, SAN JOSE, CA, 95124","Match","Exact","3968 TWILIGHT DR, SAN JOSE, CA, 95124",122920679,"L"
196449,"3968 VIRGINIA RAIL DRIVE","PROVIDENCE FORGE","VA",23140,37.4622120020001,-76.98535908,449,"3968 VIRGINIA RAIL DRIVE, PROVIDENCE FORGE, VA, 23140","Match","Exact","3968 VIRGINIA RAIL DR, PROVIDENCE FORGE, VA, 23140",635775181,"L"
196450,"3968 W LUNT","LINCOLNWOOD","IL",60712,42.0081220500001,-87.728087822,450,"3968 W LUNT, LINCOLNWOOD, IL, 60712","Match","Non_Exact","3968 LUNT AVE, LINCOLNWOOD, IL, 60712",605258680,"R"
196451,"39686 GOLDEN SPRINGS COURT","HAMILTON","VA",20158,39.150915954,-77.629279211,451,"39686 GOLDEN SPRINGS COURT, HAMILTON, VA, 20158","Match","Exact","39686 GOLDEN SPRINGS CT, HAMILTON, VA, 20158",62349208,"L"
196452,"39688 DOCKSIDE DRIVE","PONCHATOULA","LA",70454,30.442031464,-90.329121678,452,"39688 DOCKSIDE DRIVE, PONCHATOULA, LA, 70454","Match","Exact","39688 DOCKSIDE DR, PONCHATOULA, LA, 70454",624049899,"R"
196453,"3969 BROOKCREST CIRCLE","DECATUR","GA",30032,33.7460909910001,-84.239659202,453,"3969 BROOKCREST CIRCLE, DECATUR, GA, 30032","Match","Exact","3969 BROOKCREST CIR, DECATUR, GA, 30032",23370292,"R"
196454,"3969 CREEKMOORE DRIVE","WINSTON SALEM","NC",27101,36.1270026060001,-80.179570857,454,"3969 CREEKMOORE DRIVE, WINSTON SALEM, NC, 27101","Match","Exact","3969 CREEKMOORE DR, WINSTON SALEM, NC, 27101",625612193,"L"
196455,"3969 EAST 186TH STREET","CLEVELAND","OH",44122,41.4516706570001,-81.548904088,455,"3969 EAST 186TH STREET, CLEVELAND, OH, 44122","Match","Exact","3969 E 186TH ST, CLEVELAND, OH, 44122",61128912,"L"
196456,"3969 F CIRCLE","WASHOUGAL","WA",98671,45.5805212990001,-122.326470793,456,"3969 F CIRCLE, WASHOUGAL, WA, 98671","Match","Exact","3969 F CIR, WASHOUGAL, WA, 98671",158364141,"L"
196457,"3969 FAIRVIEW AVENUE","DOWNERS GROVE","IL",60515,41.8146547900001,-87.995475902,457,"3969 FAIRVIEW AVENUE, DOWNERS GROVE, IL, 60515","Match","Exact","3969 FAIRVIEW AVE, DOWNERS GROVE, IL, 60515",112702351,"L"
196458,"3969 MEADOWS DRIVE","INDIANAPOLIS","IN",46205,39.828773074,-86.1115714059999,458,"3969 MEADOWS DRIVE, INDIANAPOLIS, IN, 46205","Match","Exact","3969 MEADOWS DR, INDIANAPOLIS, IN, 46205",639123254,"R"
196459,"3969 MIAMI SPRINGS DR","FORT WORTH","TX",76123,32.6182095300001,-97.3802810829999,459,"3969 MIAMI SPRINGS DR, FORT WORTH, TX, 76123","Match","Exact","3969 MIAMI SPRINGS DR, FORT WORTH, TX, 76123",101962250,"R"
196460,"3969 OAKCLIFF RD","MEMPHIS","TN",38111,35.09137287,-89.9292300559999,460,"3969 OAKCLIFF RD, MEMPHIS, TN, 38111","Match","Non_Exact","3969 OAK CLIFF RD, MEMPHIS, TN, 38111",72920637,"R"
196461,"3969 REDWOOD LANE","PUEBLO","CO",81005,38.2306868850001,-104.661491815,461,"3969 REDWOOD LANE, PUEBLO, CO, 81005","Match","Exact","3969 REDWOOD LN, PUEBLO, CO, 81005",105044359,"L"
196462,"3969 SULLIVAN AVENUE","ST LOUIS","MO",63107,38.661473718,-90.226334342,462,"3969 SULLIVAN AVENUE, ST LOUIS, MO, 63107","Match","Exact","3969 SULLIVAN AVE, SAINT LOUIS, MO, 63107",107596417,"R"
196463,"3969","MORROW","OH",45152,NA,NA,463,"3969, MORROW, OH, 45152","No_Match",NA,NA,NA,NA
196464,"39699 TOAD HALL LN","ALDIE","VA",20105,38.969184667,-77.6324765909999,464,"39699 TOAD HALL LN, ALDIE, VA, 20105","Match","Exact","39699 TOAD HALL LN, ALDIE, VA, 20105",62360543,"R"
196465,"396R ROUTE 516","MATAWAN","MO",7747,NA,NA,465,"396R ROUTE 516, MATAWAN, MO, 7747","No_Match",NA,NA,NA,NA
196466,"396R WILLETS AVE","WATERFORD","CT",6385,41.340762565,-72.117710264,466,"396R WILLETS AVE, WATERFORD, CT, 6385","Match","Non_Exact","396 WILLETTS AVE, WATERFORD, CT, 06385",56850452,"L"
196467,"397 ARMED FORCES DRIVE BLDG 8300","GRAND PRAIRIE","TX",75051,NA,NA,467,"397 ARMED FORCES DRIVE BLDG 8300, GRAND PRAIRIE, TX, 75051","No_Match",NA,NA,NA,NA
196468,"397 BRIDGETON PIKE","MANTUA","NJ",8051,39.7826128680001,-75.182107184,468,"397 BRIDGETON PIKE, MANTUA, NJ, 8051","Match","Exact","397 BRIDGETON PIKE, MANTUA, NJ, 08051",134582498,"L"
196469,"397 CLEARVIEW AVE","TORRINGTON","CT",6790,NA,NA,469,"397 CLEARVIEW AVE, TORRINGTON, CT, 6790","No_Match",NA,NA,NA,NA
196470,"397 COUNTY ROAD  4175","LOVELADY","TX",75851,31.1858259030001,-95.347047156,470,"397 COUNTY ROAD  4175, LOVELADY, TX, 75851","Match","Exact","397 CO RD 4175, LOVELADY, TX, 75851",21993429,"L"
196471,"397 COVENEY TRAIL","BOERNE","TX",78006,29.8219867880001,-98.604167086,471,"397 COVENEY TRAIL, BOERNE, TX, 78006","Match","Exact","397 COVENEY TRL, BOERNE, TX, 78006",605900550,"R"
196472,"397 CRESCENT DRIVE","RIO VISTA","CA",94571,38.1598576970001,-121.690840888,472,"397 CRESCENT DRIVE, RIO VISTA, CA, 94571","Match","Exact","397 CRESCENT DR, RIO VISTA, CA, 94571",192526031,"L"
196473,"397 DAREN DRIVE","LYNWOOD","IL",60411,41.4997370040001,-87.525987417,473,"397 DAREN DRIVE, LYNWOOD, IL, 60411","Match","Exact","397 DAREN DR, LYNWOOD, IL, 60411",112381660,"R"
196474,"397 DRINKER TURNPIKE","COVINGTON TOWNSHIP","PA",18424,NA,NA,474,"397 DRINKER TURNPIKE, COVINGTON TOWNSHIP, PA, 18424","No_Match",NA,NA,NA,NA
196475,"397 E PARK STREET","LOCK HAVEN","PA",17745,41.1299101020001,-77.4487563609999,475,"397 E PARK STREET, LOCK HAVEN, PA, 17745","Match","Exact","397 E PARK ST, LOCK HAVEN, PA, 17745",77150622,"L"
196476,"397 FLEETWOOD DRIVE","BARTLESVILLE","OK",74006,36.750262278,-95.925330339,476,"397 FLEETWOOD DRIVE, BARTLESVILLE, OK, 74006","Match","Non_Exact","397 SE FLEETWOOD DR, BARTLESVILLE, OK, 74006",18706621,"L"
196477,"397 HARPER ROAD","ATLANTA","GA",30315,33.696917096,-84.375626675,477,"397 HARPER ROAD, ATLANTA, GA, 30315","Match","Non_Exact","397 HARPER RD SE, ATLANTA, GA, 30315",635813573,"R"
196478,"397 HIGHLAND CIRCLE","MARION","VA",24354,36.782853909,-81.5887699469999,478,"397 HIGHLAND CIRCLE, MARION, VA, 24354","Match","Exact","397 HIGHLAND CIR, MARION, VA, 24354",47190847,"L"
196479,"397 JASPER ROAD","PARAMUS","NJ",7652,40.9479142010001,-74.074466843,479,"397 JASPER ROAD, PARAMUS, NJ, 7652","Match","Exact","397 JASPER RD, PARAMUS, NJ, 07652",64382958,"L"
196480,"397 KIMS LANE","LAMONT","FL",32336,30.463507812,-83.8788445499999,480,"397 KIMS LANE, LAMONT, FL, 32336","Match","Exact","397 KIMS LN, LAMONT, FL, 32336",610849364,"L"
196481,"397 LEWAHANA LOOP","HONOLULU","HI",96818,NA,NA,481,"397 LEWAHANA LOOP, HONOLULU, HI, 96818","No_Match",NA,NA,NA,NA
196482,"397 MAIN STREET","CROMWELL","CT",6416,41.6020814500001,-72.64646399,482,"397 MAIN STREET, CROMWELL, CT, 6416","Match","Exact","397 MAIN ST, CROMWELL, CT, 06416",113903333,"R"
196483,"397 N 100 W","RUPERT","ID",83350,42.677147619,-113.687302284,483,"397 N 100 W, RUPERT, ID, 83350","Match","Exact","397 N 100 W, RUPERT, ID, 83350",105171473,"L"
196484,"397 NEW ORCHARD RD","EPSOM","NH",3234,43.2468058690001,-71.341971335,484,"397 NEW ORCHARD RD, EPSOM, NH, 3234","Match","Exact","397 NEW ORCHARD RD, EPSOM, NH, 03234",649943471,"L"
196485,"397 NICOLLS ROAD","DEER PARK","NY",11729,40.7626708110001,-73.345408457,485,"397 NICOLLS ROAD, DEER PARK, NY, 11729","Match","Exact","397 NICOLLS RD, DEER PARK, NY, 11729",113969479,"L"
196486,"397 OAK STREET","DUCAN FALLS","OH",43734,39.8769217600001,-81.911641801,486,"397 OAK STREET, DUCAN FALLS, OH, 43734","Match","Non_Exact","397 OAK ST, DUNCAN FALLS, OH, 43734",45585724,"R"
196487,"397 OLD DARBONNE RD","WEST MONROE","LA",71291,32.546284535,-92.158023804,487,"397 OLD DARBONNE RD, WEST MONROE, LA, 71291","Match","Exact","397 OLD DARBONNE RD, WEST MONROE, LA, 71291",161082580,"L"
196488,"397 OLD WESTPORT RD","DARTMOUTH","MA",2747,41.6292732370001,-71.0149378579999,488,"397 OLD WESTPORT RD, DARTMOUTH, MA, 2747","Match","Exact","397 OLD WESTPORT RD, DARTMOUTH, MA, 02747",46805159,"R"
196489,"397 PALISADE AVENUE","CLIFFSIDE PARK","NJ",7010,40.817635841,-73.989827982,489,"397 PALISADE AVENUE, CLIFFSIDE PARK, NJ, 7010","Match","Exact","397 PALISADE AVE, CLIFFSIDE PARK, NJ, 07010",64391674,"L"
196490,"397 RIDGES BLVD","GRAND JUNCTION","CO",81507,39.0596519430001,-108.610150466,490,"397 RIDGES BLVD, GRAND JUNCTION, CO, 81507","Match","Exact","397 RIDGES BLVD, GRAND JCT, CO, 81507",122431221,"L"
196491,"397 RIVER CHASE DRIVE","JONESBORO","GA",30238,33.5024179920001,-84.403497849,491,"397 RIVER CHASE DRIVE, JONESBORO, GA, 30238","Match","Exact","397 RIVER CHASE DR, JONESBORO, GA, 30238",23313878,"R"
196492,"397 STATE HWY 518","MORA","NM",87732,NA,NA,492,"397 STATE HWY 518, MORA, NM, 87732","No_Match",NA,NA,NA,NA
196493,"397 WEKIVA SPRINGS ROAD SUITE 221","LONGWOOD","FL",32779,28.691807893,-81.409395552,493,"397 WEKIVA SPRINGS ROAD SUITE 221, LONGWOOD, FL, 32779","Match","Exact","397 WEKIVA SPRINGS RD, LONGWOOD, FL, 32779",605416564,"L"
196494,"397 YOUNG JAMES CIRCLE","SOUTHBRIDGE","GA",30281,33.5847718300001,-84.217202411,494,"397 YOUNG JAMES CIRCLE, SOUTHBRIDGE, GA, 30281","Match","Non_Exact","397 YOUNG JAMES CIR, STOCKBRIDGE, GA, 30281",619943932,"R"
196495,"397 YOUNG JAMES CIRCLE","STOCKBRIDGE","GA",30281,33.5847718300001,-84.217202411,495,"397 YOUNG JAMES CIRCLE, STOCKBRIDGE, GA, 30281","Match","Exact","397 YOUNG JAMES CIR, STOCKBRIDGE, GA, 30281",619943932,"R"
196496,"3970 BOSTIC DRIVE APT 102","GREENVILLE","NC",27834,35.6294634290001,-77.3283987,496,"3970 BOSTIC DRIVE APT 102, GREENVILLE, NC, 27834","Match","Exact","3970 BOSTIC DR, GREENVILLE, NC, 27834",636019107,"L"
196497,"3970 BRIGHTON LN","CANTON","MI",48188,42.2765036580001,-83.514528981,497,"3970 BRIGHTON LN, CANTON, MI, 48188","Match","Exact","3970 BRIGHTON LN, CANTON, MI, 48188",617866506,"L"
196498,"3970 MASSEY WOOD TRAIL","RALEIGH","NC",27616,35.864259019,-78.522632012,498,"3970 MASSEY WOOD TRAIL, RALEIGH, NC, 27616","Match","Exact","3970 MASSEY WOOD TRL, RALEIGH, NC, 27616",612826190,"R"
196499,"3970 NORTHWEST 21ST AVENUE OAK","OAKLAND PARK","FL",33309,26.175873488,-80.170991339,499,"3970 NORTHWEST 21ST AVENUE OAK, OAKLAND PARK, FL, 33309","Match","Exact","3970 NW 21ST AVE, OAKLAND PARK, FL, 33309",114718001,"L"
196500,"3970 OCHS DRIVE","GUTHRIE","OK",73044,NA,NA,500,"3970 OCHS DRIVE, GUTHRIE, OK, 73044","No_Match",NA,NA,NA,NA
