"ID","Address","City","State","Zip","lat","long","id","input_address","match_indicator","match_type","matched_address","tiger_line_id","tiger_side"
58501,"1407 LAKE STREET","WAUSAU","WI",54401,44.9451066990001,-89.653288856,1,"1407 LAKE STREET, WAUSAU, WI, 54401","Match","Exact","1407 LAKE ST, WAUSAU, WI, 54401",617256993,"L"
58502,"1407 LAVACA ST STE 77","AUSTIN","TX",78701,30.2767935420001,-97.742216551,2,"1407 LAVACA ST STE 77, AUSTIN, TX, 78701","Match","Exact","1407 LAVACA ST, AUSTIN, TX, 78701",63943297,"R"
58503,"1407 MCCORMICK STREET","DES MOINES","IA",50316,41.605255228,-93.593924214,3,"1407 MCCORMICK STREET, DES MOINES, IA, 50316","Match","Exact","1407 MCCORMICK ST, DES MOINES, IA, 50316",65783666,"R"
58504,"1407 N 2ND STREET","PHOENIX","MT",85004,NA,NA,4,"1407 N 2ND STREET, PHOENIX, MT, 85004","No_Match",NA,NA,NA,NA
58505,"1407 N ALTA MESA DR","MESA","AZ",85205,33.4438762980001,-111.706300077,5,"1407 N ALTA MESA DR, MESA, AZ, 85205","Match","Exact","1407 N ALTA MESA DR, MESA, AZ, 85205",128251059,"L"
58506,"1407 N BERRY CT","STILLWATER","OK",74075,36.1361367540001,-97.0464915109999,6,"1407 N BERRY CT, STILLWATER, OK, 74075","Match","Exact","1407 N BERRY CT, STILLWATER, OK, 74075",166375811,"R"
58507,"1407 N JERUSALEM RD","EAST MEADOW","NY",11554,40.695949872,-73.571356443,7,"1407 N JERUSALEM RD, EAST MEADOW, NY, 11554","Match","Exact","1407 N JERUSALEM RD, EAST MEADOW, NY, 11554",147634305,"L"
58508,"1407 N PORTER","NORMAN","OK",73071,35.2345961560001,-97.441080418,8,"1407 N PORTER, NORMAN, OK, 73071","Match","Non_Exact","1407 N PORTER AVE, NORMAN, OK, 73071",649815480,"R"
58509,"1407 N WATER ST","BURNET","TX",78611,30.7735408840001,-98.232630151,9,"1407 N WATER ST, BURNET, TX, 78611","Match","Exact","1407 N WATER ST, BURNET, TX, 78611",146486395,"R"
58510,"1407 NAPOLEON AVENUE STE C","NEW ORLEANS","LA",70115,29.9251336460001,-90.101767012,10,"1407 NAPOLEON AVENUE STE C, NEW ORLEANS, LA, 70115","Match","Exact","1407 NAPOLEON AVE, NEW ORLEANS, LA, 70115",191712990,"R"
58511,"1407 NORTH 33RD STREET","OMAHA","NE",68131,41.2723147660001,-95.961456791,11,"1407 NORTH 33RD STREET, OMAHA, NE, 68131","Match","Exact","1407 N 33RD ST, OMAHA, NE, 68131",116980407,"R"
58512,"1407 NORTH PORTER AVENUE","NORMAN","OK",73071,35.234591064,-97.441080379,12,"1407 NORTH PORTER AVENUE, NORMAN, OK, 73071","Match","Exact","1407 N PORTER AVE, NORMAN, OK, 73071",649815480,"R"
58513,"1407 NW 13TH AVENUE","FORT LAUDERDALE","FL",33311,26.1436944920001,-80.159137269,13,"1407 NW 13TH AVENUE, FORT LAUDERDALE, FL, 33311","Match","Exact","1407 NW 13TH AVE, FORT LAUDERDALE, FL, 33311",114720595,"L"
58514,"1407 OAKLAND BLVD SUITE 301","WALNUT CREEK","CA",94596,37.898156197,-122.069879377,14,"1407 OAKLAND BLVD SUITE 301, WALNUT CREEK, CA, 94596","Match","Exact","1407 OAKLAND BLVD, WALNUT CREEK, CA, 94596",192050171,"L"
58515,"1407 PARK AVE","ALAMOGORDO","NM",88310,32.9050343440001,-105.930083357,15,"1407 PARK AVE, ALAMOGORDO, NM, 88310","Match","Exact","1407 PARK AVE, ALAMOGORDO, NM, 88310",132321905,"L"
58516,"1407 PARK GARDEN ROAD","GREAT FALLS","MT",59404,47.4788559200001,-111.339582977,16,"1407 PARK GARDEN ROAD, GREAT FALLS, MT, 59404","Match","Exact","1407 PARK GARDEN RD, GREAT FALLS, MT, 59404",202224888,"R"
58517,"1407 PEARTREE RD","ELIZABETH CITY","NC",27909,36.2838988500001,-76.2236824569999,17,"1407 PEARTREE RD, ELIZABETH CITY, NC, 27909","Match","Exact","1407 PEARTREE RD, ELIZABETH CITY, NC, 27909",18593544,"L"
58518,"1407 RENSEN STREET  SUITE 3","LANSING","MI",48910,42.6848037990001,-84.534128102,18,"1407 RENSEN STREET  SUITE 3, LANSING, MI, 48910","Match","Exact","1407 RENSEN ST, LANSING, MI, 48910",17520403,"L"
58519,"1407 RENSEN STREET","LANSING","MI",48910,42.6848037990001,-84.534128102,19,"1407 RENSEN STREET, LANSING, MI, 48910","Match","Exact","1407 RENSEN ST, LANSING, MI, 48910",17520403,"L"
58520,"1407 RIDGEFIELD DRIVE","DES PERES","MO",63131,38.606992936,-90.447753031,20,"1407 RIDGEFIELD DRIVE, DES PERES, MO, 63131","Match","Exact","1407 RIDGEFIELD DR, DES PERES, MO, 63131",100174179,"R"
58521,"1407 ROBINSON ROAD","JORDANVILLE","NY",13361,42.93131278,-74.9368304289999,21,"1407 ROBINSON ROAD, JORDANVILLE, NY, 13361","Match","Exact","1407 ROBINSON RD, JORDANVILLE, NY, 13361",153723715,"R"
58522,"1407 S 22ND ST","ARTESIA","NM",88210,32.82873948,-104.423387714,22,"1407 S 22ND ST, ARTESIA, NM, 88210","Match","Exact","1407 S 22ND ST, ARTESIA, NM, 88210",131193746,"R"
58523,"1407 S MAIN STREET","BOERNE","TX",78006,29.7769452640001,-98.726146192,23,"1407 S MAIN STREET, BOERNE, TX, 78006","Match","Exact","1407 S MAIN ST, BOERNE, TX, 78006",102769337,"R"
58524,"1407 SCENIC RIDGE DRIVE","HOUSTON","TX",77043,29.791385532,-95.584975202,24,"1407 SCENIC RIDGE DRIVE, HOUSTON, TX, 77043","Match","Exact","1407 SCENIC RIDGE DR, HOUSTON, TX, 77043",96022052,"L"
58525,"1407 SHERWOOD AVE","RICHMOND","VA",23220,37.570143392,-77.454121738,25,"1407 SHERWOOD AVE, RICHMOND, VA, 23220","Match","Exact","1407 SHERWOOD AVE, RICHMOND, VA, 23220",201538226,"L"
58526,"1407 SHETLAND DRIVE","ALLEN","TX",75013,33.117366018,-96.704470423,26,"1407 SHETLAND DRIVE, ALLEN, TX, 75013","Match","Exact","1407 SHETLAND DR, ALLEN, TX, 75013",123561232,"R"
58527,"1407 SIDNEY BAKER ST APT 304","KERRVILLE","TX",78028,30.0571659890001,-99.1291769699999,27,"1407 SIDNEY BAKER ST APT 304, KERRVILLE, TX, 78028","Match","Exact","1407 SIDNEY BAKER ST, KERRVILLE, TX, 78028",642842465,"R"
58528,"1407 SOARING TRAIL","MARIETTA","GA",30062,33.975378376,-84.5084693159999,28,"1407 SOARING TRAIL, MARIETTA, GA, 30062","Match","Exact","1407 SOARING TRL, MARIETTA, GA, 30062",17245634,"L"
58529,"1407 STATE HIGHWAY 134 W","HEADLAND","AL",36345,NA,NA,29,"1407 STATE HIGHWAY 134 W, HEADLAND, AL, 36345","No_Match",NA,NA,NA,NA
58530,"1407 SW 8TH STREET","POMPANO BEACH","FL",33069,26.219047452,-80.1427206989999,30,"1407 SW 8TH STREET, POMPANO BEACH, FL, 33069","Match","Exact","1407 SW 8TH ST, POMPANO BEACH, FL, 33069",114780864,"R"
58531,"1407 SW WISTERIA AVENUE","BENTONVILLE","AR",72712,36.320645191,-94.22850232,31,"1407 SW WISTERIA AVENUE, BENTONVILLE, AR, 72712","Match","Non_Exact","1407 SW WISTERIA AVE, BENTONVILLE, AR, 72713",638763871,"R"
58532,"1407 T ST NW STE 200","WASHINGTON","DC",20009,38.9155784930001,-77.032306396,32,"1407 T ST NW STE 200, WASHINGTON, DC, 20009","Match","Exact","1407 T ST NW, WASHINGTON, DC, 20009",640263812,"R"
58533,"1407 TARBORO STREET SW","WILSON","NC",27893,35.7216703330001,-77.937010511,33,"1407 TARBORO STREET SW, WILSON, NC, 27893","Match","Non_Exact","1407 TARBORO ST W, WILSON, NC, 27893",642914432,"R"
58534,"1407 TAYLOR STREET","BAY CITY","MI",48708,43.561545209,-83.899379896,34,"1407 TAYLOR STREET, BAY CITY, MI, 48708","Match","Exact","1407 TAYLOR ST, BAY CITY, MI, 48708",81142186,"L"
58535,"1407 W 1980 N","PROVO","UT",84604,40.2601378840001,-111.682874588,35,"1407 W 1980 N, PROVO, UT, 84604","Match","Exact","1407 W 1980 N, PROVO, UT, 84604",633410816,"R"
58536,"1407 W 2100 N","CLINTON","UT",84015,41.144199982,-112.053050645,36,"1407 W 2100 N, CLINTON, UT, 84015","Match","Non_Exact","1407 2100 N, CLINTON, UT, 84015",624491005,"L"
58537,"1407 W CHAPEL HILL ST 18B","DURHAM","NC",27701,35.9966865160001,-78.920146889,37,"1407 W CHAPEL HILL ST 18B, DURHAM, NC, 27701","Match","Non_Exact","1407 W CHAPEL HILL ST, DURHAM, NC, 27701",71739197,"L"
58538,"1407 W HOLLYWOOD AVE","CHICAGO","IL",60660,41.9854881840001,-87.665434827,38,"1407 W HOLLYWOOD AVE, CHICAGO, IL, 60660","Match","Exact","1407 W HOLLYWOOD AVE, CHICAGO, IL, 60660",605178668,"L"
58539,"1407 W OHIO UNIT 2","CHICAGO","IL",60642,NA,NA,39,"1407 W OHIO UNIT 2, CHICAGO, IL, 60642","No_Match",NA,NA,NA,NA
58540,"1407 W STREET NW APT 402","WASHINGTON","DC",20009,38.9191945630001,-77.032273389,40,"1407 W STREET NW APT 402, WASHINGTON, DC, 20009","Match","Exact","1407 W ST NW, WASHINGTON, DC, 20009",640262542,"R"
58541,"1407 WEST GRANTHAM STREET","GOLDSBORO","NC",27530,35.4030075590001,-78.02104193,41,"1407 WEST GRANTHAM STREET, GOLDSBORO, NC, 27530","Match","Exact","1407 W GRANTHAM ST, GOLDSBORO, NC, 27530",647195614,"R"
58542,"1407 WESTON LANE","SPRING HILL","TN",37174,35.7519776870001,-86.916750354,42,"1407 WESTON LANE, SPRING HILL, TN, 37174","Match","Exact","1407 WESTON LN, SPRING HILL, TN, 37174",605872426,"L"
58543,"1407 WHISPERING HILLS DR","ST CHARLES","MN",55972,43.9755377650001,-92.043711321,43,"1407 WHISPERING HILLS DR, ST CHARLES, MN, 55972","Match","Exact","1407 WHISPERING HILLS DR, SAINT CHARLES, MN, 55972",614835677,"L"
58544,"1407 WILLIAMSBURG ST","TUSTIN","CA",92782,33.7177029420001,-117.823906519,44,"1407 WILLIAMSBURG ST, TUSTIN, CA, 92782","Match","Exact","1407 WILLIAMSBURG ST, TUSTIN, CA, 92782",624618430,"L"
58545,"14070 109TH STREET","FELLSMERE","FL",32948,27.7938983870001,-80.6124922399999,45,"14070 109TH STREET, FELLSMERE, FL, 32948","Match","Exact","14070 109TH ST, FELLSMERE, FL, 32948",651556491,"R"
58546,"14070 FREEMAN ROAD","TUSCALOOSA","AL",35405,33.0733785080001,-87.5212133159999,46,"14070 FREEMAN ROAD, TUSCALOOSA, AL, 35405","Match","Exact","14070 FREEMAN RD, TUSCALOOSA, AL, 35405",82180186,"L"
58547,"14070 PROTON ROAD SUITE 100","DALLAS","TX",75244,32.94285094,-96.836736808,47,"14070 PROTON ROAD SUITE 100, DALLAS, TX, 75244","Match","Exact","14070 PROTON RD, DALLAS, TX, 75244",103250541,"L"
58548,"14070 WATT ROAD","NOVELTY","OH",44072,41.484203128,-81.313274924,48,"14070 WATT ROAD, NOVELTY, OH, 44072","Match","Exact","14070 WATT RD, NOVELTY, OH, 44072",137433314,"R"
58549,"14071 PEYTON DR UNIT 31","CHINO HILLS","CA",91709,33.9967343060001,-117.732629429,49,"14071 PEYTON DR UNIT 31, CHINO HILLS, CA, 91709","Match","Exact","14071 PEYTON DR, CHINO HILLS, CA, 91709",645935343,"L"
58550,"14071 PEYTON DR UNIT 771","CHINO HILLS","CA",91709,33.9967343060001,-117.732629429,50,"14071 PEYTON DR UNIT 771, CHINO HILLS, CA, 91709","Match","Exact","14071 PEYTON DR, CHINO HILLS, CA, 91709",645935343,"L"
58551,"14071 PEYTON DRIVE NUM 1293","CHINO HILLS","CA",91709,33.9967343060001,-117.732629429,51,"14071 PEYTON DRIVE NUM 1293, CHINO HILLS, CA, 91709","Match","Exact","14071 PEYTON DR, CHINO HILLS, CA, 91709",645935343,"L"
58552,"14071 SOUTHPORT STREET","LATHROP","CA",95330,37.83265579,-121.28037435,52,"14071 SOUTHPORT STREET, LATHROP, CA, 95330","Match","Exact","14071 SOUTHPORT ST, LATHROP, CA, 95330",133876232,"L"
58553,"14072 YEARLING LANE","VICTORVILLE","CA",92394,34.523751066,-117.356053381,53,"14072 YEARLING LANE, VICTORVILLE, CA, 92394","Match","Exact","14072 YEARLING LN, VICTORVILLE, CA, 92394",144745637,"L"
58554,"14073 COURTNEY MEADOW PLACE","LEESBURG","VA",20176,39.2260783090001,-77.588656967,54,"14073 COURTNEY MEADOW PLACE, LEESBURG, VA, 20176","Match","Exact","14073 COURTNEY MEADOW PL, LEESBURG, VA, 20176",651856490,"L"
58555,"14073 TENBURY DR","GRANGER","IN",46530,41.753932514,-86.141550266,55,"14073 TENBURY DR, GRANGER, IN, 46530","Match","Exact","14073 TENBURY DR, GRANGER, IN, 46530",8070997,"L"
58556,"14074 CANNONDALE WAY","GAINESVILLE","VA",20155,38.8065370890001,-77.6100313049999,56,"14074 CANNONDALE WAY, GAINESVILLE, VA, 20155","Match","Exact","14074 CANNONDALE WAY, GAINESVILLE, VA, 20155",641114299,"R"
58557,"14074 ELIZABETH STREET","THORNTON","CO",80602,39.9519097040001,-104.954047319,57,"14074 ELIZABETH STREET, THORNTON, CO, 80602","Match","Exact","14074 ELIZABETH ST, THORNTON, CO, 80602",601666533,"L"
58558,"14075 FURLONG TRAIL","HASTINGS","MN",55033,44.74516249,-92.9708129909999,58,"14075 FURLONG TRAIL, HASTINGS, MN, 55033","Match","Exact","14075 FURLONG TRL, HASTINGS, MN, 55033",37941407,"L"
58559,"14075 S BANGERTER PKWY APT 320","DRAPER","UT",84020,40.495378315,-111.884591388,59,"14075 S BANGERTER PKWY APT 320, DRAPER, UT, 84020","Match","Non_Exact","14075 S BANGERTER PKWY, DRAPER, UT, 84020",619125275,"L"
58560,"14076 REEDER AVE NE","ALLIANCE","OH",44601,40.9752174060001,-81.200099509,60,"14076 REEDER AVE NE, ALLIANCE, OH, 44601","Match","Exact","14076 REEDER AVE NE, ALLIANCE, OH, 44601",64721587,"R"
58561,"14078 ASTORIA ST UNIT 359","SYLMAR","CA",91342,34.310510956,-118.439895595,61,"14078 ASTORIA ST UNIT 359, SYLMAR, CA, 91342","Match","Exact","14078 ASTORIA ST, SYLMAR, CA, 91342",648247790,"L"
58562,"14078 NW 17TH AVENUE","MIAMI","FL",33054,NA,NA,62,"14078 NW 17TH AVENUE, MIAMI, FL, 33054","No_Match",NA,NA,NA,NA
58563,"1408 211TH PLACE SW","LYNNWOOD","WA",98036,47.807019682,-122.252194094,63,"1408 211TH PLACE SW, LYNNWOOD, WA, 98036","Match","Exact","1408 211TH PL SW, LYNNWOOD, WA, 98036",635560554,"R"
58564,"1408 22ND AVENUE SOUTH","SAINT PETERSBURG","FL",33705,27.74842841,-82.6532125749999,64,"1408 22ND AVENUE SOUTH, SAINT PETERSBURG, FL, 33705","Match","Exact","1408 22ND AVE S, SAINT PETERSBURG, FL, 33705",124710685,"L"
58565,"1408 5TH ST","LOCKHART","TX",78644,29.875031134,-97.659326999,65,"1408 5TH ST, LOCKHART, TX, 78644","Match","Exact","1408 5TH ST, LOCKHART, TX, 78644",45544115,"L"
58566,"1408 ALHAMBRA DR","APOLLO BEACH","FL",33572,27.7773977320001,-82.4310025199999,66,"1408 ALHAMBRA DR, APOLLO BEACH, FL, 33572","Match","Exact","1408 ALHAMBRA DR, APOLLO BEACH, FL, 33572",104573861,"L"
58567,"1408 ASTI CT","ORLANDO","FL",33896,28.52572357,-81.239273006,67,"1408 ASTI CT, ORLANDO, FL, 33896","Match","Non_Exact","1408 ASTI CT, ORLANDO, FL, 32825",94315327,"R"
58568,"1408 AVARADO STREET","CARLSBAD","NM",88220,NA,NA,68,"1408 AVARADO STREET, CARLSBAD, NM, 88220","No_Match",NA,NA,NA,NA
58569,"1408 BEECHWOOD BLVD","PITTSBURGH","PA",15217,40.4440234780001,-79.9176928219999,69,"1408 BEECHWOOD BLVD, PITTSBURGH, PA, 15217","Match","Exact","1408 BEECHWOOD BLVD, PITTSBURGH, PA, 15217",51652125,"R"
58570,"1408 BUCKHURST CT","BALLWIN","MO",63021,38.575384172,-90.579129248,70,"1408 BUCKHURST CT, BALLWIN, MO, 63021","Match","Exact","1408 BUCKHURST CT, BALLWIN, MO, 63021",100184265,"R"
58571,"1408 BULL CREEK DRIVE","LIBERTYVILLE","IL",60048,42.3106959730001,-87.9936643469999,71,"1408 BULL CREEK DRIVE, LIBERTYVILLE, IL, 60048","Match","Exact","1408 BULL CREEK DR, LIBERTYVILLE, IL, 60048",119732038,"L"
58572,"1408 BULLCREEK DRIVE","LIBERTYVILLE","IL",60048,42.3106959730001,-87.9936643469999,72,"1408 BULLCREEK DRIVE, LIBERTYVILLE, IL, 60048","Match","Non_Exact","1408 BULL CREEK DR, LIBERTYVILLE, IL, 60048",119732038,"L"
58573,"1408 CLARK HOWARD LN","ATLANTA","GA",30311,33.717405925,-84.445726687,73,"1408 CLARK HOWARD LN, ATLANTA, GA, 30311","Match","Non_Exact","1408 CLARK HOWARD LN SW, ATLANTA, GA, 30311",646524638,"L"
58574,"1408 CLINTON STREET APT 409","HOBOKEN","NJ",7030,40.754249772,-74.0305321549999,74,"1408 CLINTON STREET APT 409, HOBOKEN, NJ, 7030","Match","Exact","1408 CLINTON ST, HOBOKEN, NJ, 07030",59600222,"L"
58575,"1408 DAY BOULEVARD","DALLAS","TX",75203,32.7322521360001,-96.7923603099999,75,"1408 DAY BOULEVARD, DALLAS, TX, 75203","Match","Exact","1408 DAY BLVD, DALLAS, TX, 75203",102950808,"L"
58576,"1408 DOROTHY DR","GLENDALE","CA",91202,34.167272374,-118.264624561,76,"1408 DOROTHY DR, GLENDALE, CA, 91202","Match","Exact","1408 DOROTHY DR, GLENDALE, CA, 91202",141608419,"R"
58577,"1408 DR MARTIN LUTHER KING AVENUE","MOBILE","AL",36603,NA,NA,77,"1408 DR MARTIN LUTHER KING AVENUE, MOBILE, AL, 36603","No_Match",NA,NA,NA,NA
58578,"1408 E 39TH STREET NORTH","SIOUX FALLS","SD",57104,43.5837489300001,-96.708425607,78,"1408 E 39TH STREET NORTH, SIOUX FALLS, SD, 57104","Match","Exact","1408 E 39TH ST N, SIOUX FALLS, SD, 57104",647739247,"L"
58579,"1408 E INDUSTRIAL STREET","STIGLER","OK",74462,NA,NA,79,"1408 E INDUSTRIAL STREET, STIGLER, OK, 74462","No_Match",NA,NA,NA,NA
58580,"1408 E IRWIN LN","CENTENNIAL","CO",80122,39.57862355,-104.97199305,80,"1408 E IRWIN LN, CENTENNIAL, CO, 80122","Match","Exact","1408 E IRWIN LN, CENTENNIAL, CO, 80122",177371151,"R"
58581,"1408 E WASHINGTON ST 3H","GREENSBORO","NC",27401,36.0688384850001,-79.769135171,81,"1408 E WASHINGTON ST 3H, GREENSBORO, NC, 27401","Match","Non_Exact","1408 E WASHINGTON ST, GREENSBORO, NC, 27401",131033869,"R"
58582,"1408 EAST UPLAND DR","SALISBURY","MD",21801,38.3565700610001,-75.6341130599999,82,"1408 EAST UPLAND DR, SALISBURY, MD, 21801","Match","Exact","1408 E UPLAND DR, SALISBURY, MD, 21801",114462323,"R"
58583,"1408 FISHER DRIVE","MYRTLE BEACH","SC",29577,33.7023636260001,-78.88778629,83,"1408 FISHER DRIVE, MYRTLE BEACH, SC, 29577","Match","Exact","1408 FISHER DR, MYRTLE BEACH, SC, 29577",645295322,"R"
58584,"1408 GASTON AVENUE","AUSTIN","TX",78703,30.2951768040001,-97.752488101,84,"1408 GASTON AVENUE, AUSTIN, TX, 78703","Match","Exact","1408 GASTON AVE, AUSTIN, TX, 78703",63942246,"R"
58585,"1408 GRAND ST NE","MINNEAPOLIS","MN",55413,NA,NA,85,"1408 GRAND ST NE, MINNEAPOLIS, MN, 55413","No_Match",NA,NA,NA,NA
58586,"1408 GREEN MOUNTAIN DRIVE","WAKE FOREST","NC",27587,35.960284013,-78.484737991,86,"1408 GREEN MOUNTAIN DRIVE, WAKE FOREST, NC, 27587","Match","Exact","1408 GREEN MOUNTAIN DR, WAKE FOREST, NC, 27587",647322099,"R"
58587,"1408 HADLOW COURT","CONYERS","GA",30094,33.6516582530001,-84.081329502,87,"1408 HADLOW COURT, CONYERS, GA, 30094","Match","Non_Exact","1408 HADLOW CT SE, CONYERS, GA, 30094",614161294,"L"
58588,"1408 HARBINS RIDGE DR","NORCROSS","GA",30093,33.908727157,-84.186752653,88,"1408 HARBINS RIDGE DR, NORCROSS, GA, 30093","Match","Exact","1408 HARBINS RIDGE DR, NORCROSS, GA, 30093",88893783,"L"
58589,"1408 HORIZON AVE SUITE 201","LAFAYETTE","CO",80026,NA,NA,89,"1408 HORIZON AVE SUITE 201, LAFAYETTE, CO, 80026","No_Match",NA,NA,NA,NA
58590,"1408 JAMI DR","NORMAN","OK",73071,35.2109852200001,-97.4252062099999,90,"1408 JAMI DR, NORMAN, OK, 73071","Match","Exact","1408 JAMI DR, NORMAN, OK, 73071",99919461,"R"
58591,"1408 K CIRCLE","KINSTON","NC",28504,NA,NA,91,"1408 K CIRCLE, KINSTON, NC, 28504","No_Match",NA,NA,NA,NA
58592,"1408 KATE LN","RENO","NV",89506,39.587503752,-119.815960722,92,"1408 KATE LN, RENO, NV, 89506","Match","Exact","1408 KATE LN, RENO, NV, 89506",636456767,"R"
58593,"1408 KEEGAN COURT","COLUMBIA","MO",65203,38.881136747,-92.3615416229999,93,"1408 KEEGAN COURT, COLUMBIA, MO, 65203","Match","Exact","1408 KEEGAN CT, COLUMBIA, MO, 65203",23491801,"R"
58594,"1408 KUMMERER ROAD","POTTSTOWN","PA",19464,40.2880639090001,-75.6525075549999,94,"1408 KUMMERER ROAD, POTTSTOWN, PA, 19464","Match","Exact","1408 KUMMERER RD, POTTSTOWN, PA, 19464",615089812,"R"
58595,"1408 LAKE PARK DR","RALEIGH","NC",27612,35.866472109,-78.660315649,95,"1408 LAKE PARK DR, RALEIGH, NC, 27612","Match","Exact","1408 LAKE PARK DR, RALEIGH, NC, 27612",72496118,"L"
58596,"1408 LAKE STREET NE","HOPKINS","MN",55343,44.932256147,-93.382650766,96,"1408 LAKE STREET NE, HOPKINS, MN, 55343","Match","Exact","1408 LAKE ST NE, HOPKINS, MN, 55343",641220305,"R"
58597,"1408 LOBLOLLY DR","MURFREESBORO","TN",37128,35.764579645,-86.4252233029999,97,"1408 LOBLOLLY DR, MURFREESBORO, TN, 37128","Match","Exact","1408 LOBLOLLY DR, MURFREESBORO, TN, 37128",648100196,"R"
58598,"1408 LYLE AVE UNIT 1","ATLANTA","GA",30344,33.6767829570001,-84.4351056199999,98,"1408 LYLE AVE UNIT 1, ATLANTA, GA, 30344","Match","Exact","1408 LYLE AVE, ATLANTA, GA, 30344",17348229,"L"
58599,"1408 MEADOWLANE TERRACE","FORT WORTH","TN",76112,NA,NA,99,"1408 MEADOWLANE TERRACE, FORT WORTH, TN, 76112","No_Match",NA,NA,NA,NA
58600,"1408 MIDDLETON DR","CEDAR HILL","TX",75104,32.6178919490001,-96.955422675,100,"1408 MIDDLETON DR, CEDAR HILL, TX, 75104","Match","Exact","1408 MIDDLETON DR, CEDAR HILL, TX, 75104",103187861,"L"
58601,"1408 MILWAUKEE STREET","KEWAUNEE","WI",54216,44.4489154300001,-87.5037395429999,101,"1408 MILWAUKEE STREET, KEWAUNEE, WI, 54216","Match","Exact","1408 MILWAUKEE ST, KEWAUNEE, WI, 54216",148180452,"R"
58602,"1408 MYRNA AVE","LUFKIN","TX",75901,31.335160939,-94.714321914,102,"1408 MYRNA AVE, LUFKIN, TX, 75901","Match","Exact","1408 MYRNA AVE, LUFKIN, TX, 75901",23842478,"R"
58603,"1408 N BROADWAY APT 5","SANTA ANA","CA",92706,33.75688675,-117.869690289,103,"1408 N BROADWAY APT 5, SANTA ANA, CA, 92706","Match","Non_Exact","1408 N BROADWAY, SANTA ANA, CA, 92706",144041828,"L"
58604,"1408 N E 48TH ST","OKLAHOMA CITY","OK",73111,35.520408,-97.486452048,104,"1408 N E 48TH ST, OKLAHOMA CITY, OK, 73111","Match","Exact","1408 NE 48TH ST, OKLAHOMA CITY, OK, 73111",100401093,"R"
58605,"1408 N HART BLVD","ORLANDO","FL",32818,28.5585155270001,-81.470736127,105,"1408 N HART BLVD, ORLANDO, FL, 32818","Match","Exact","1408 N HART BLVD, ORLANDO, FL, 32818",94271388,"L"
58606,"1408 N RIVERFRONT BLVD SUITE 136","DALLAS","TX",75207,32.790058206,-96.82020261,106,"1408 N RIVERFRONT BLVD SUITE 136, DALLAS, TX, 75207","Match","Non_Exact","1408 N RIVERFRONT BLVD, DALLAS, TX, 75207",103267181,"R"
58607,"1408 N WASHINGTON AVE 220","DALLAS","TX",75204,32.7957417920001,-96.783602249,107,"1408 N WASHINGTON AVE 220, DALLAS, TX, 75204","Match","Non_Exact","1408 N WASHINGTON AVE, DALLAS, TX, 75204",625029942,"R"
58608,"1408 NE KNOTT ST","PORTLAND","OR",97212,45.5420818960001,-122.651301773,108,"1408 NE KNOTT ST, PORTLAND, OR, 97212","Match","Exact","1408 NE KNOTT ST, PORTLAND, OR, 97212",157506555,"R"
58609,"1408 NEW HOLLAND WAY","GAINESVILLE","GA",30501,34.316777813,-83.797244974,109,"1408 NEW HOLLAND WAY, GAINESVILLE, GA, 30501","Match","Exact","1408 NEW HOLLAND WAY, GAINESVILLE, GA, 30501",652498664,"R"
58610,"1408 NORTH STREET","BATON ROUGE","LA",70802,30.452862258,-91.1754656639999,110,"1408 NORTH STREET, BATON ROUGE, LA, 70802","Match","Exact","1408 NORTH ST, BATON ROUGE, LA, 70802",92182363,"R"
58611,"1408 NORTH STREET","MARTINSBURG","WV",25401,39.464953263,-77.980902773,111,"1408 NORTH STREET, MARTINSBURG, WV, 25401","Match","Exact","1408 NORTH ST, MARTINSBURG, WV, 25401",123379797,"R"
58612,"1408 NORTHGATE SQUARE UNIT 1A","RESTON","VA",20190,38.9725988060001,-77.334296228,112,"1408 NORTHGATE SQUARE UNIT 1A, RESTON, VA, 20190","Match","Exact","1408 NORTHGATE SQ, RESTON, VA, 20190",75958262,"L"
58613,"1408 OUTLOOK AVENUE  2","BRONX","NY",10465,40.8448261550001,-73.815456946,113,"1408 OUTLOOK AVENUE  2, BRONX, NY, 10465","Match","Exact","1408 OUTLOOK AVE, BRONX, NY, 10465",80307082,"R"
58614,"1408 PARK BROOKE CIRCLE SOUTHWEST","MARIETTA","GA",30008,NA,NA,114,"1408 PARK BROOKE CIRCLE SOUTHWEST, MARIETTA, GA, 30008","No_Match",NA,NA,NA,NA
58615,"1408 PINEWOODS COURT","UNIVERSITY PARK","IL",60484,41.4482172370001,-87.707017755,115,"1408 PINEWOODS COURT, UNIVERSITY PARK, IL, 60484","Match","Non_Exact","1408 PINE WOODS CT, UNIVERSITY PARK, IL, 60484",111552247,"L"
58616,"1408 PRESERVE LANE","FREDERICKSBURG","VA",22401,38.30882933,-77.4994403809999,116,"1408 PRESERVE LANE, FREDERICKSBURG, VA, 22401","Match","Exact","1408 PRESERVE LN, FREDERICKSBURG, VA, 22401",616392816,"L"
58617,"1408 PRINCESS ANNE STREET","FREDERICKSBURG","VA",22401,38.3072420880001,-77.4631523899999,117,"1408 PRINCESS ANNE STREET, FREDERICKSBURG, VA, 22401","Match","Exact","1408 PRINCESS ANNE ST, FREDERICKSBURG, VA, 22401",85005147,"L"
58618,"1408 ROOSEVELT AVENUE","CARTERET","NJ",7008,40.5937542880001,-74.2475476499999,118,"1408 ROOSEVELT AVENUE, CARTERET, NJ, 7008","Match","Exact","1408 ROOSEVELT AVE, CARTERET, NJ, 07008",60275971,"R"
58619,"1408 ROUNDABOUT RD","MARTINSVILLE","VA",24112,36.6827837110001,-79.8944532259999,119,"1408 ROUNDABOUT RD, MARTINSVILLE, VA, 24112","Match","Exact","1408 ROUNDABOUT RD, MARTINSVILLE, VA, 24112",55515201,"L"
58620,"1408 ROWAN DR","GEORGETOWN","TX",78628,30.6917215890001,-97.707065933,120,"1408 ROWAN DR, GEORGETOWN, TX, 78628","Match","Exact","1408 ROWAN DR, GEORGETOWN, TX, 78628",638225240,"L"
58621,"1408 S BAHAMA ST","AURORA","CO",80017,39.690603724,-104.769481123,121,"1408 S BAHAMA ST, AURORA, CO, 80017","Match","Exact","1408 S BAHAMA ST, AURORA, CO, 80017",177371769,"R"
58622,"1408 S DENVER AVE","TULSA","OK",74119,36.1422616740001,-95.9923636459999,122,"1408 S DENVER AVE, TULSA, OK, 74119","Match","Exact","1408 S DENVER AVE, TULSA, OK, 74119",166441741,"R"
58623,"1408 S JANICE LANE","ROUND LAKE","IL",60073,42.3230688780001,-88.0880452549999,123,"1408 S JANICE LANE, ROUND LAKE, IL, 60073","Match","Exact","1408 JANICE LN, ROUND LAKE, IL, 60073",635888180,"R"
58624,"1408 S KENNETH AVE","CHICAGO","IL",60623,41.8620902160001,-87.7360642639999,124,"1408 S KENNETH AVE, CHICAGO, IL, 60623","Match","Exact","1408 S KENNETH AVE, CHICAGO, IL, 60623",111797915,"R"
58625,"1408 SINGING HILLS DR SE","LONSDALE","MN",55046,44.4679774200001,-93.415250858,125,"1408 SINGING HILLS DR SE, LONSDALE, MN, 55046","Match","Exact","1408 SINGING HILLS DR SE, LONSDALE, MN, 55046",643490867,"R"
58626,"1408 STOCKTON ROAD","JOPPA","MD",21085,39.478530107,-76.351088224,126,"1408 STOCKTON ROAD, JOPPA, MD, 21085","Match","Exact","1408 STOCKTON RD, JOPPA, MD, 21085",191663400,"L"
58627,"1408 SURREY LANE","WYNNEWOOD","PA",19096,39.981088303,-75.270842215,127,"1408 SURREY LANE, WYNNEWOOD, PA, 19096","Match","Exact","1408 SURREY LN, WYNNEWOOD, PA, 19096",135088040,"L"
58628,"1408 SWEET HOME RD SUITE 3","AMHERST","NY",14228,43.000251937,-78.79872268,128,"1408 SWEET HOME RD SUITE 3, AMHERST, NY, 14228","Match","Exact","1408 SWEET HOME RD, AMHERST, NY, 14228",634834766,"L"
58629,"1408 TOWN STREET","GREENSBORO","NC",27407,36.053191849,-79.8452035999999,129,"1408 TOWN STREET, GREENSBORO, NC, 27407","Match","Exact","1408 TOWN ST, GREENSBORO, NC, 27407",131029740,"R"
58630,"1408 VIOLETA DR","ALHAMBRA","CA",91801,34.0770804380001,-118.109281792,130,"1408 VIOLETA DR, ALHAMBRA, CA, 91801","Match","Exact","1408 VIOLETA DR, ALHAMBRA, CA, 91801",141639788,"R"
58631,"1408 W 11TH STREET","LITTLE ROCK","AR",72202,34.7404191410001,-92.287939222,131,"1408 W 11TH STREET, LITTLE ROCK, AR, 72202","Match","Exact","1408 W 11TH ST, LITTLE ROCK, AR, 72202",83509342,"R"
58632,"1408 W 21ST ST","HOUSTON","TX",77008,29.8047980170001,-95.424217471,132,"1408 W 21ST ST, HOUSTON, TX, 77008","Match","Exact","1408 W 21ST ST, HOUSTON, TX, 77008",96054595,"L"
58633,"1408 W 34TH ST S","WICHITA","KS",67217,37.631928224,-97.356068049,133,"1408 W 34TH ST S, WICHITA, KS, 67217","Match","Exact","1408 W 34TH ST S, WICHITA, KS, 67217",115644638,"R"
58634,"1408 W 3RD ST","CHESTER","PA",19013,39.839471813,-75.376376647,134,"1408 W 3RD ST, CHESTER, PA, 19013","Match","Exact","1408 W 3RD ST, CHESTER, PA, 19013",134890365,"R"
58635,"1408 W MAIN ST","MONROE","WA",98272,47.8507705010001,-121.989390867,135,"1408 W MAIN ST, MONROE, WA, 98272","Match","Exact","1408 W MAIN ST, MONROE, WA, 98272",187796999,"R"
58636,"1408 WEST LINDEN ST","ALLENTOWN","PA",18102,40.5996298410001,-75.4869495839999,136,"1408 WEST LINDEN ST, ALLENTOWN, PA, 18102","Match","Non_Exact","1408 LINDEN ST, ALLENTOWN, PA, 18102",80769712,"L"
58637,"1408 WINSTED LANE","AUSTIN","TX",78703,30.285554946,-97.765404808,137,"1408 WINSTED LANE, AUSTIN, TX, 78703","Match","Exact","1408 WINSTED LN, AUSTIN, TX, 78703",63942179,"L"
58638,"1408 WOODGREEN DRIVE","GREENSBORO","NC",27405,36.1239867360001,-79.770690434,138,"1408 WOODGREEN DRIVE, GREENSBORO, NC, 27405","Match","Exact","1408 WOODGREEN DR, GREENSBORO, NC, 27405",131030897,"R"
58639,"14080 NACOGDOCHES RD  PM BOX  585","SAN ANTONIO","TX",78247,29.56972762,-98.383109809,139,"14080 NACOGDOCHES RD  PM BOX  585, SAN ANTONIO, TX, 78247","Match","Exact","14080 NACOGDOCHES RD, SAN ANTONIO, TX, 78247",101501299,"R"
58640,"14080 PALM DRIVE - SUITE D423","DESERT HOT SPRINGS","CA",92240,33.94592993,-116.501337346,140,"14080 PALM DRIVE - SUITE D423, DESERT HOT SPRINGS, CA, 92240","Match","Exact","14080 PALM DR, DESERT HOT SPRINGS, CA, 92240",195067641,"R"
58641,"14080 PALM DRIVE SUITE A","DESERT HOT SPRINGS","CA",92240,33.94592993,-116.501337346,141,"14080 PALM DRIVE SUITE A, DESERT HOT SPRINGS, CA, 92240","Match","Exact","14080 PALM DR, DESERT HOT SPRINGS, CA, 92240",195067641,"R"
58642,"14080 PALM DRIVE SUITE D","DESERT HOT SPRINGS","CA",92240,33.94592993,-116.501337346,142,"14080 PALM DRIVE SUITE D, DESERT HOT SPRINGS, CA, 92240","Match","Exact","14080 PALM DR, DESERT HOT SPRINGS, CA, 92240",195067641,"R"
58643,"14080 PALM DRIVE SUITE D176","DESERT HOT SPRINGS","CA",92240,33.94592993,-116.501337346,143,"14080 PALM DRIVE SUITE D176, DESERT HOT SPRINGS, CA, 92240","Match","Exact","14080 PALM DR, DESERT HOT SPRINGS, CA, 92240",195067641,"R"
58644,"14082 KERRY ST","GARDEN GROVE","CA",92844,33.7581326920001,-117.958735227,144,"14082 KERRY ST, GARDEN GROVE, CA, 92844","Match","Exact","14082 KERRY ST, GARDEN GROVE, CA, 92844",144416356,"L"
58645,"14082 LEFTHAND CANYON DR","JAMESTOWN","CO",80455,40.0617561080001,-105.48643884,145,"14082 LEFTHAND CANYON DR, JAMESTOWN, CO, 80455","Match","Exact","14082 LEFTHAND CANYON DR, JAMESTOWN, CO, 80455",188235255,"R"
58646,"14082 LEMOLI WAY","HAWTHORNE","CA",90250,33.9043226050001,-118.33111069,146,"14082 LEMOLI WAY, HAWTHORNE, CA, 90250","Match","Exact","14082 LEMOLI WAY, HAWTHORNE, CA, 90250",640421220,"L"
58647,"14082 MALTA ST","WOODBRIDGE","VA",22193,38.648388674,-77.317359341,147,"14082 MALTA ST, WOODBRIDGE, VA, 22193","Match","Exact","14082 MALTA ST, WOODBRIDGE, VA, 22193",76532198,"R"
58648,"14083 GILMORE AVENUE","BOW","WA",98232,48.5611215660001,-122.44257427,148,"14083 GILMORE AVENUE, BOW, WA, 98232","Match","Exact","14083 GILMORE AVE, BOW, WA, 98232",183642213,"R"
58649,"14085 NW 88TH PLACE","MIAMI LAKES","FL",33018,25.90055133,-80.343936851,149,"14085 NW 88TH PLACE, MIAMI LAKES, FL, 33018","Match","Exact","14085 NW 88 PL, MIAMI LAKES, FL, 33018",625117270,"R"
58650,"14086 WINTERVILLE RD","BLOXOM","VA",23308,37.8484026190001,-75.6340598099999,150,"14086 WINTERVILLE RD, BLOXOM, VA, 23308","Match","Exact","14086 WINTERVILLE RD, BLOXOM, VA, 23308",114603350,"L"
58651,"14089 CHESTNUT HILL LN","SAN DIEGO","CA",92128,32.973730818,-117.072614082,151,"14089 CHESTNUT HILL LN, SAN DIEGO, CA, 92128","Match","Exact","14089 CHESTNUT HILL LN, SAN DIEGO, CA, 92128",195390737,"L"
58652,"14089 PALISADES AVENUE","HUNTLEY","IL",60142,42.149627638,-88.4711555219999,152,"14089 PALISADES AVENUE, HUNTLEY, IL, 60142","Match","Exact","14089 PALISADES AVE, HUNTLEY, IL, 60142",119591356,"R"
58653,"1409 130 TH STREET FM 1585","LUBBOCK","TX",79423,NA,NA,153,"1409 130 TH STREET FM 1585, LUBBOCK, TX, 79423","No_Match",NA,NA,NA,NA
58654,"1409 174TH STREET","EAST HAZEL CREST","IL",60429,41.5736266210001,-87.651329655,154,"1409 174TH STREET, EAST HAZEL CREST, IL, 60429","Match","Exact","1409 174TH ST, E HAZEL CREST, IL, 60429",111712596,"L"
58655,"1409 18TH AVE","KENOSHA","WI",53140,42.6324100750001,-87.8315600449999,155,"1409 18TH AVE, KENOSHA, WI, 53140","Match","Exact","1409 18TH AVE, KENOSHA, WI, 53140",79802421,"L"
58656,"1409 28TH AVENUE S","SAINT PETERSBURG","FL",33705,27.743169337,-82.6531907359999,156,"1409 28TH AVENUE S, SAINT PETERSBURG, FL, 33705","Match","Exact","1409 28TH AVE S, SAINT PETERSBURG, FL, 33705",124710720,"R"
58657,"1409 31ST NW","WINTER","FL",33881,NA,NA,157,"1409 31ST NW, WINTER, FL, 33881","No_Match",NA,NA,NA,NA
58658,"1409 39TH STREET","GALVESTON","TX",77550,29.291406298,-94.809051631,158,"1409 39TH STREET, GALVESTON, TX, 77550","Match","Exact","1409 39TH ST, GALVESTON, TX, 77550",96692640,"R"
58659,"1409 47TH STREET","BROOKLYN","NY",11219,40.6346251350001,-73.988418947,159,"1409 47TH STREET, BROOKLYN, NY, 11219","Match","Exact","1409 47TH ST, BROOKLYN, NY, 11219",59080292,"L"
58660,"1409 5TH ST","LAVERNE","CA",91750,34.1055662680001,-117.781496766,160,"1409 5TH ST, LAVERNE, CA, 91750","Match","Non_Exact","1409 5TH ST, LA VERNE, CA, 91750",141726926,"L"
58661,"1409 9TH AVE E","TWIN FALLS","ID",83301,42.559511259,-114.456334725,161,"1409 9TH AVE E, TWIN FALLS, ID, 83301","Match","Exact","1409 9TH AVE E, TWIN FALLS, ID, 83301",623830448,"R"
58662,"1409 ALICE LANE","FARMINGTON","UT",84025,41.0024222260001,-111.894228785,162,"1409 ALICE LANE, FARMINGTON, UT, 84025","Match","Non_Exact","1409 N ALICE LN, FARMINGTON, UT, 84025",645492083,"L"
58663,"1409 ALMONT DR SW","ATLANTA","GA",30310,33.7259852990001,-84.433975436,163,"1409 ALMONT DR SW, ATLANTA, GA, 30310","Match","Exact","1409 ALMONT DR SW, ATLANTA, GA, 30310",17341354,"R"
58664,"1409 AUDUBON BLVD STE B1","WILMINGTON","NC",28403,NA,NA,164,"1409 AUDUBON BLVD STE B1, WILMINGTON, NC, 28403","No_Match",NA,NA,NA,NA
58665,"1409 AYERS AVENUE","LODI","CA",95242,38.1408763900001,-121.290608868,165,"1409 AYERS AVENUE, LODI, CA, 95242","Match","Exact","1409 AYERS AVE, LODI, CA, 95242",133861303,"R"
58666,"1409 BELLA VISTA DRIVE","EDMOND","OK",73013,35.6331313530001,-97.463358436,166,"1409 BELLA VISTA DRIVE, EDMOND, OK, 73013","Match","Exact","1409 BELLA VISTA DR, EDMOND, OK, 73013",100427544,"L"
58667,"1409 BLACK HORSE PIKE","HAMMONTON","NJ",8037,39.57347273,-74.824914609,167,"1409 BLACK HORSE PIKE, HAMMONTON, NJ, 8037","Match","Exact","1409 BLACK HORSE PIKE, HAMMONTON, NJ, 08037",202478299,"R"
58668,"1409 BRAWLEY STREET","STEVENS POINT","WI",54481,44.5201388030001,-89.577795883,168,"1409 BRAWLEY STREET, STEVENS POINT, WI, 54481","Match","Exact","1409 BRAWLEY ST, STEVENS POINT, WI, 54481",126794743,"R"
58669,"1409 BRENNER COURT","NASHVILLE","TN",37221,36.063933777,-86.959898443,169,"1409 BRENNER COURT, NASHVILLE, TN, 37221","Match","Exact","1409 BRENNER CT, NASHVILLE, TN, 37221",97214330,"L"
58670,"1409 BUCHANAN STREET","NASHVILLE","TN",37208,36.1800977080001,-86.808019673,170,"1409 BUCHANAN STREET, NASHVILLE, TN, 37208","Match","Exact","1409 BUCHANAN ST, NASHVILLE, TN, 37208",97185360,"L"
58671,"1409 CAMBRIA AVE","WINDBER","PA",15963,40.2373291260001,-78.829749759,171,"1409 CAMBRIA AVE, WINDBER, PA, 15963","Match","Exact","1409 CAMBRIA AVE, WINDBER, PA, 15963",70256892,"L"
58672,"1409 CAPITAL AVENUE NE - APT 12","BATTLE CREEK","MI",49017,42.3427401060001,-85.154294003,172,"1409 CAPITAL AVENUE NE - APT 12, BATTLE CREEK, MI, 49017","Match","Exact","1409 CAPITAL AVE NE, BATTLE CREEK, MI, 49017",11729074,"L"
58673,"1409 CEDAR POINT RD","SANDUSKY","OH",44870,41.458510135,-82.655635594,173,"1409 CEDAR POINT RD, SANDUSKY, OH, 44870","Match","Exact","1409 CEDAR POINT RD, SANDUSKY, OH, 44870",55340790,"L"
58674,"1409 CHERRYCREST DR","DURHAM","NC",27704,36.0542388430001,-78.922284027,174,"1409 CHERRYCREST DR, DURHAM, NC, 27704","Match","Exact","1409 CHERRYCREST DR, DURHAM, NC, 27704",71735632,"R"
58675,"1409 CHESTERBROOK COURT","ANTIOCH","TN",37013,36.068820056,-86.573544861,175,"1409 CHESTERBROOK COURT, ANTIOCH, TN, 37013","Match","Exact","1409 CHESTERBROOK CT, ANTIOCH, TN, 37013",606827077,"L"
58676,"1409 CONNECTICUT AVE","GLEN ALLEN","VA",23060,37.6524592370001,-77.465282421,176,"1409 CONNECTICUT AVE, GLEN ALLEN, VA, 23060","Match","Exact","1409 CONNECTICUT AVE, GLEN ALLEN, VA, 23060",106648253,"L"
58677,"1409 COPPER RUN BLVD","LEXINGTON","KY",40514,37.9833741210001,-84.5755919169999,177,"1409 COPPER RUN BLVD, LEXINGTON, KY, 40514","Match","Exact","1409 COPPER RUN BLVD, LEXINGTON, KY, 40514",31938128,"L"
58678,"1409 COUNTRY CLUB DRIVE","MIDLAND","TX",79701,32.0055240460001,-102.092088587,178,"1409 COUNTRY CLUB DRIVE, MIDLAND, TX, 79701","Match","Exact","1409 COUNTRY CLUB DR, MIDLAND, TX, 79701",139581972,"L"
58679,"1409 COUNTY ROAD 309","GEORGETOWN","FL",32139,29.3885105860001,-81.63646159,179,"1409 COUNTY ROAD 309, GEORGETOWN, FL, 32139","Match","Exact","1409 CO RD 309, GEORGETOWN, FL, 32139",647528348,"L"
58680,"1409 E LIVINGSTON AVENUE","COLUMBUS","OH",43205,39.949180432,-82.9598040399999,180,"1409 E LIVINGSTON AVENUE, COLUMBUS, OH, 43205","Match","Exact","1409 E LIVINGSTON AVE, COLUMBUS, OH, 43205",135581757,"R"
58681,"1409 E MAIN STREET","UNION CITY","TN",38621,36.424718609,-89.041468665,181,"1409 E MAIN STREET, UNION CITY, TN, 38621","Match","Non_Exact","1409 E MAIN ST, UNION CITY, TN, 38261",30894302,"L"
58682,"1409 EAST MAYFAIR AVENUE","ORANGE","CA",92867,33.799110093,-117.838823274,182,"1409 EAST MAYFAIR AVENUE, ORANGE, CA, 92867","Match","Exact","1409 E MAYFAIR AVE, ORANGE, CA, 92867",144031095,"L"
58683,"1409 EAST YELLOW WOOD DR","SIMPSONVILLE","SC",29680,34.7212031980001,-82.275241389,183,"1409 EAST YELLOW WOOD DR, SIMPSONVILLE, SC, 29680","Match","Exact","1409 E YELLOW WOOD DR, SIMPSONVILLE, SC, 29680",38312885,"L"
58684,"1409 FORBUSH OAKS COURT","EAST BEND","NC",27018,36.1229926510001,-80.502083339,184,"1409 FORBUSH OAKS COURT, EAST BEND, NC, 27018","Match","Exact","1409 FORBUSH OAKS CT, EAST BEND, NC, 27018",84745902,"R"
58685,"1409 FOURTH ST","SUSANVILLE","CA",96130,40.4201840760001,-120.65083807,185,"1409 FOURTH ST, SUSANVILLE, CA, 96130","Match","Exact","1409 4TH ST, SUSANVILLE, CA, 96130",126931265,"R"
58686,"1409 GOLDEN DRIVE","SAINT LOUIS","MO",63137,38.7528404280001,-90.2347623329999,186,"1409 GOLDEN DRIVE, SAINT LOUIS, MO, 63137","Match","Exact","1409 GOLDEN DR, SAINT LOUIS, MO, 63137",100150060,"R"
58687,"1409 GOLDENROD CIRCLE","ARGYLE","TX",76226,33.1074792100001,-97.114723592,187,"1409 GOLDENROD CIRCLE, ARGYLE, TX, 76226","Match","Exact","1409 GOLDENROD CIR, ARGYLE, TX, 76226",625311995,"R"
58688,"1409 GRECIAN WOODS PL","RALEIGH","NC",27606,35.7710226840001,-78.708894629,188,"1409 GRECIAN WOODS PL, RALEIGH, NC, 27606","Match","Exact","1409 GRECIAN WOODS PL, RALEIGH, NC, 27606",612818143,"L"
58689,"1409 GREY ROCK DRIVE","FORT COLLINS","CO",80524,40.6466187780001,-105.053574668,189,"1409 GREY ROCK DRIVE, FORT COLLINS, CO, 80524","Match","Exact","1409 GREY ROCK DR, FORT COLLINS, CO, 80524",188479507,"L"
58690,"1409 HARLEQUIN PT","SWANSEA","IL",62226,38.5522006530001,-89.972352029,190,"1409 HARLEQUIN PT, SWANSEA, IL, 62226","Match","Exact","1409 HARLEQUIN PT, SWANSEA, IL, 62226",627090949,"R"
58691,"1409 HARVESTER CIRCLE","MYRTLE BEACH","SC",29579,33.762910407,-78.871727445,191,"1409 HARVESTER CIRCLE, MYRTLE BEACH, SC, 29579","Match","Exact","1409 HARVESTER CIR, MYRTLE BEACH, SC, 29579",633641624,"R"
58692,"1409 HIGHWAY 177A","BONIFAY","FL",32425,30.9299050220001,-85.764093063,192,"1409 HIGHWAY 177A, BONIFAY, FL, 32425","Match","Non_Exact","1409 CO RD 177A, BONIFAY, FL, 32425",642897216,"R"
58693,"1409 HILL STREET","SUFFIELD","CT",6078,42.0179987770001,-72.676210216,193,"1409 HILL STREET, SUFFIELD, CT, 6078","Match","Exact","1409 HILL ST, SUFFIELD, CT, 06078",3479321,"R"
58694,"1409 HUDSON DRIVE","ENID","OK",73703,36.3793569320001,-97.896184875,194,"1409 HUDSON DRIVE, ENID, OK, 73703","Match","Non_Exact","1409 W HUDSON DR, ENID, OK, 73703",154090585,"L"
58695,"1409 IVORY GROVE ROAD","BIG ISLAND","VA",24526,37.5245948470001,-79.4082547959999,195,"1409 IVORY GROVE ROAD, BIG ISLAND, VA, 24526","Match","Exact","1409 IVORY GROVE RD, BIG ISLAND, VA, 24526",228445491,"L"
58696,"1409 KAPALAMA AVE","HONOLULU","HI",96817,21.3325170000001,-157.869479265,196,"1409 KAPALAMA AVE, HONOLULU, HI, 96817","Match","Exact","1409 KAPALAMA AVE, HONOLULU, HI, 96817",203235281,"R"
58697,"1409 KENSINGTON BLVD","FORT WAYNE","IN",46805,41.088796519,-85.1138203679999,197,"1409 KENSINGTON BLVD, FORT WAYNE, IN, 46805","Match","Exact","1409 KENSINGTON BLVD, FORT WAYNE, IN, 46805",606512386,"L"
58698,"1409 KINGSLEY AVE STE 14B","ORANGE PARK","FL",32073,30.1653414990001,-81.723142877,198,"1409 KINGSLEY AVE STE 14B, ORANGE PARK, FL, 32073","Match","Exact","1409 KINGSLEY AVE, ORANGE PARK, FL, 32073",641064147,"L"
58699,"1409 LANGFORD RD","BALTIMORE","MD",21207,39.295181622,-76.723417524,199,"1409 LANGFORD RD, BALTIMORE, MD, 21207","Match","Exact","1409 LANGFORD RD, BALTIMORE, MD, 21207",191557158,"R"
58700,"1409 LIBERTY AVENUE","HILLSIDE","NJ",7205,40.701894344,-74.22884763,200,"1409 LIBERTY AVENUE, HILLSIDE, NJ, 7205","Match","Exact","1409 LIBERTY AVE, HILLSIDE, NJ, 07205",60577399,"R"
58701,"1409 LINCOLN","CONCORDIA","KS",66901,39.5633744580001,-97.6573700119999,201,"1409 LINCOLN, CONCORDIA, KS, 66901","Match","Non_Exact","1409 LINCOLN ST, CONCORDIA, KS, 66901",148207407,"R"
58702,"1409 MAIN STREET","VAN BUREN","AR",72956,35.436633328,-94.344411339,202,"1409 MAIN STREET, VAN BUREN, AR, 72956","Match","Exact","1409 MAIN ST, VAN BUREN, AR, 72956",53476688,"L"
58703,"1409 MASON STREET","KANNAPOLIS","NC",28138,35.4951506850001,-80.6471503189999,203,"1409 MASON STREET, KANNAPOLIS, NC, 28138","Match","Non_Exact","1409 MASON ST, KANNAPOLIS, NC, 28081",24895628,"L"
58704,"1409 MOCKINGBIRD DR","AUBREY","TX",76227,33.2229865470001,-96.9363800149999,204,"1409 MOCKINGBIRD DR, AUBREY, TX, 76227","Match","Exact","1409 MOCKINGBIRD DR, AUBREY, TX, 76227",634084849,"L"
58705,"1409 MOUNT TABOR ROAD","BLACKSBURG","VA",24060,37.267241159,-80.3985504569999,205,"1409 MOUNT TABOR ROAD, BLACKSBURG, VA, 24060","Match","Exact","1409 MOUNT TABOR RD, BLACKSBURG, VA, 24060",73638765,"R"
58706,"1409 MUSKET LANE","FORT WASHINGTON","MD",20744,38.7403931760001,-76.9855491169999,206,"1409 MUSKET LANE, FORT WASHINGTON, MD, 20744","Match","Non_Exact","1409 OLD MUSKET LN, FT WASHINGTON, MD, 20744",641527907,"L"
58707,"1409 N 12TH ST","PEKIN","IL",61554,40.5789216370001,-89.635309391,207,"1409 N 12TH ST, PEKIN, IL, 61554","Match","Exact","1409 N 12TH ST, PEKIN, IL, 61554",22497564,"L"
58708,"1409 N 75TH STREET","PHILADELPHIA","PA",19151,39.9746677520001,-75.264512662,208,"1409 N 75TH STREET, PHILADELPHIA, PA, 19151","Match","Exact","1409 N 75TH ST, PHILADELPHIA, PA, 19151",131393026,"R"
58709,"1409 N 8TH ST","BOISE","ID",83702,43.6267598220001,-116.197574276,209,"1409 N 8TH ST, BOISE, ID, 83702","Match","Exact","1409 N 8TH ST, BOISE, ID, 83702",117860217,"L"
58710,"1409 N HARVEST PARKWAY","LIBERTY LAKE","WA",99016,NA,NA,210,"1409 N HARVEST PARKWAY, LIBERTY LAKE, WA, 99016","No_Match",NA,NA,NA,NA
58711,"1409 N PLEASANTVIEW DR","WICHITA","KS",67203,37.7102148180001,-97.377268357,211,"1409 N PLEASANTVIEW DR, WICHITA, KS, 67203","Match","Non_Exact","1409 PLEASANT VIEW DR, WICHITA, KS, 67203",115656964,"L"
58712,"1409 N ROGERS AVE","CLOVIS","CA",93619,36.8555687520001,-119.703919858,212,"1409 N ROGERS AVE, CLOVIS, CA, 93619","Match","Non_Exact","1409 N ROGERS, CLOVIS, CA, 93619",606263179,"R"
58713,"1409 N SANDBURG TERRACE","CHICAGO","IL",60610,41.908256506,-87.631587052,213,"1409 N SANDBURG TERRACE, CHICAGO, IL, 60610","Match","Exact","1409 SANDBURG TER, CHICAGO, IL, 60610",611639824,"L"
58714,"1409 N WALNUT GROVE AVE","ROSEMEAD","CA",91770,34.044602092,-118.081837019,214,"1409 N WALNUT GROVE AVE, ROSEMEAD, CA, 91770","Match","Exact","1409 WALNUT GROVE AVE, ROSEMEAD, CA, 91770",142813949,"L"
58715,"1409 N ZANG BLVD 1334","DALLAS","TX",75203,32.760918443,-96.8174931029999,215,"1409 N ZANG BLVD 1334, DALLAS, TX, 75203","Match","Non_Exact","1409 N ZANG BLVD, DALLAS, TX, 75203",102948616,"L"
58716,"1409 N ZANG BLVD NO 623","DALLAS","TX",75203,NA,NA,216,"1409 N ZANG BLVD NO 623, DALLAS, TX, 75203","No_Match",NA,NA,NA,NA
58717,"1409 NE 32ND TERR","OCALA","FL",34470,29.2011467180001,-82.091928856,217,"1409 NE 32ND TERR, OCALA, FL, 34470","Match","Exact","1409 NE 32ND TER, OCALA, FL, 34470",637799393,"R"
58718,"1409 NW 85TH ST","SEATTLE","WA",98117,47.6906100160001,-122.374401319,218,"1409 NW 85TH ST, SEATTLE, WA, 98117","Match","Exact","1409 NW 85TH ST, SEATTLE, WA, 98117",186577331,"L"
58719,"1409 PAISLEY STREET","DENTON","TX",76209,33.2203658710001,-97.11553377,219,"1409 PAISLEY STREET, DENTON, TX, 76209","Match","Exact","1409 PAISLEY ST, DENTON, TX, 76209",103340264,"L"
58720,"1409 POLO ROAD","WINSTON SALEM","NC",27106,36.138084668,-80.2866861689999,220,"1409 POLO ROAD, WINSTON SALEM, NC, 27106","Match","Exact","1409 POLO RD, WINSTON SALEM, NC, 27106",84603860,"R"
58721,"1409 RAMONA DR","ENID","OK",73703,36.3852947030001,-97.894762078,221,"1409 RAMONA DR, ENID, OK, 73703","Match","Exact","1409 RAMONA DR, ENID, OK, 73703",154083395,"L"
58722,"1409 ROCKINGHAM ST","RICHMOND","VA",23231,37.4761332740001,-77.3937331499999,222,"1409 ROCKINGHAM ST, RICHMOND, VA, 23231","Match","Exact","1409 ROCKINGHAM ST, RICHMOND, VA, 23231",106671663,"R"
58723,"1409 ROMAIN ST","GRETNA","LA",70053,29.925071534,-90.042985807,223,"1409 ROMAIN ST, GRETNA, LA, 70053","Match","Exact","1409 ROMAIN ST, GRETNA, LA, 70053",93507732,"L"
58724,"1409 S KING STREET","HONOLULU","HI",96814,21.298316637,-157.839796363,224,"1409 S KING STREET, HONOLULU, HI, 96814","Match","Exact","1409 S KING ST, HONOLULU, HI, 96814",203237472,"R"
58725,"1409 S LAMAR ST 237","DALLAS","TX",75215,32.7677089270001,-96.795532242,225,"1409 S LAMAR ST 237, DALLAS, TX, 75215","Match","Non_Exact","1409 S LAMAR ST, DALLAS, TX, 75215",103196860,"R"
58726,"1409 S LAMAR ST APT 101","DALLAS","TX",75215,32.7677089270001,-96.795532242,226,"1409 S LAMAR ST APT 101, DALLAS, TX, 75215","Match","Non_Exact","1409 S LAMAR ST, DALLAS, TX, 75215",103196860,"R"
58727,"1409 S LAMAR ST STE 241","DALLAS","TX",75215,32.7677089270001,-96.795532242,227,"1409 S LAMAR ST STE 241, DALLAS, TX, 75215","Match","Non_Exact","1409 S LAMAR ST, DALLAS, TX, 75215",103196860,"R"
58728,"1409 S LAMAR ST STE 601","DALLAS","TX",75215,32.7677089270001,-96.795532242,228,"1409 S LAMAR ST STE 601, DALLAS, TX, 75215","Match","Non_Exact","1409 S LAMAR ST, DALLAS, TX, 75215",103196860,"R"
58729,"1409 S LAMAR ST","DALLAS","TX",75215,32.7677089270001,-96.795532242,229,"1409 S LAMAR ST, DALLAS, TX, 75215","Match","Exact","1409 S LAMAR ST, DALLAS, TX, 75215",103196860,"R"
58730,"1409 S MAIN STREET","STILLWATER","OK",74074,36.1067860380001,-97.0585056419999,230,"1409 S MAIN STREET, STILLWATER, OK, 74074","Match","Exact","1409 S MAIN ST, STILLWATER, OK, 74074",166386955,"R"
58731,"1409 S MILL AVE","TEMPE","AZ",85281,33.4132486300001,-111.939865979,231,"1409 S MILL AVE, TEMPE, AZ, 85281","Match","Exact","1409 S MILL AVE, TEMPE, AZ, 85281",640590614,"L"
58732,"1409 SAN RAFAEL CT","SAINT AUGUSTINE","FL",32080,29.872931087,-81.286387958,232,"1409 SAN RAFAEL CT, SAINT AUGUSTINE, FL, 32080","Match","Exact","1409 SAN RAFAEL CT, SAINT AUGUSTINE, FL, 32080",92587392,"R"
58733,"1409 SCENIC DRIVE","EWING","NJ",8628,40.271234194,-74.83809188,233,"1409 SCENIC DRIVE, EWING, NJ, 8628","Match","Exact","1409 SCENIC DR, EWING, NJ, 08628",60198700,"L"
58734,"1409 SEMINARY AVE","OAKLAND","CA",94621,37.7652611940001,-122.199349981,234,"1409 SEMINARY AVE, OAKLAND, CA, 94621","Match","Exact","1409 SEMINARY AVE, OAKLAND, CA, 94621",125007975,"L"
58735,"1409 SHELL RD","HAMPTON","VA",23661,37.0044791030001,-76.386984011,235,"1409 SHELL RD, HAMPTON, VA, 23661","Match","Exact","1409 SHELL RD, HAMPTON, VA, 23661",103758913,"L"
58736,"1409 SHERI LEE DRIVE","MISSION","TX",78572,26.220974276,-98.3037427849999,236,"1409 SHERI LEE DRIVE, MISSION, TX, 78572","Match","Exact","1409 SHERI LEE DR, MISSION, TX, 78572",627730405,"R"
58737,"1409 SHIRA ROAD","MINNEOLA","FL",34715,28.583914071,-81.7369863599999,237,"1409 SHIRA ROAD, MINNEOLA, FL, 34715","Match","Exact","1409 SHIRA RD, MINNEOLA, FL, 34715",648416726,"L"
58738,"1409 SOUTH LAMAR 101","DALLAS","TX",75215,32.767709095,-96.7955324759999,238,"1409 SOUTH LAMAR 101, DALLAS, TX, 75215","Match","Non_Exact","1409 S LAMAR ST, DALLAS, TX, 75215",103196860,"R"
58739,"1409 SOUTH LAMAR STREET SUITE 711","DALLAS","TX",75215,32.767709095,-96.7955324759999,239,"1409 SOUTH LAMAR STREET SUITE 711, DALLAS, TX, 75215","Match","Exact","1409 S LAMAR ST, DALLAS, TX, 75215",103196860,"R"
58740,"1409 STACI CIR","TUPELO","MS",38801,34.228235023,-88.72780111,240,"1409 STACI CIR, TUPELO, MS, 38801","Match","Exact","1409 STACI CIR, TUPELO, MS, 38801",90670143,"L"
58741,"1409 SUMMIT STREET - UNIT 402","PITTSBURGH","PA",15221,40.4417456800001,-79.8665943,241,"1409 SUMMIT STREET - UNIT 402, PITTSBURGH, PA, 15221","Match","Exact","1409 SUMMIT ST, PITTSBURGH, PA, 15221",635648270,"L"
58742,"1409 SW BRIDGE STREET","GRANTS PASS","OR",97526,42.435136437,-123.3424877,242,"1409 SW BRIDGE STREET, GRANTS PASS, OR, 97526","Match","Exact","1409 SW BRIDGE ST, GRANTS PASS, OR, 97526",156572489,"L"
58743,"1409 VIDA DRIVE","BALITMORE","MD",21207,39.304834855,-76.736986353,243,"1409 VIDA DRIVE, BALITMORE, MD, 21207","Match","Non_Exact","1409 VIDA DR, BALTIMORE, MD, 21207",191483669,"R"
58744,"1409 VIRGINIA AVE","COLUMBUS","OH",43212,39.9873250530001,-83.036788733,244,"1409 VIRGINIA AVE, COLUMBUS, OH, 43212","Match","Exact","1409 VIRGINIA AVE, COLUMBUS, OH, 43212",135572725,"L"
58745,"1409 W 11TH ST","KANSAS CITY","MO",64101,39.1016629550001,-94.601554638,245,"1409 W 11TH ST, KANSAS CITY, MO, 64101","Match","Exact","1409 W 11TH ST, KANSAS CITY, MO, 64101",642139216,"L"
58746,"1409 W 51ST ST BLDG B","AUSTIN","TX",78756,30.321797921,-97.737748104,246,"1409 W 51ST ST BLDG B, AUSTIN, TX, 78756","Match","Non_Exact","1409 W 51ST ST, AUSTIN, TX, 78756",63931461,"L"
58747,"1409 W 65TH ST","LOS ANGELES","CA",90847,33.980624086,-118.30068003,247,"1409 W 65TH ST, LOS ANGELES, CA, 90847","Match","Non_Exact","1409 W 65TH ST, LOS ANGELES, CA, 90047",652036703,"R"
58748,"1409 W IRVING PARK ROAD","CHICAGO","IL",60613,41.954343755,-87.664648471,248,"1409 W IRVING PARK ROAD, CHICAGO, IL, 60613","Match","Exact","1409 W IRVING PARK RD, CHICAGO, IL, 60613",111762130,"L"
58749,"1409 WALKER AVE","BALTIMORE","MD",21239,39.370540416,-76.585786109,249,"1409 WALKER AVE, BALTIMORE, MD, 21239","Match","Exact","1409 WALKER AVE, BALTIMORE, MD, 21239",206409454,"R"
58750,"1409 WALNUT GROVE AVE","ROSEMEAD","CA",91770,34.044602092,-118.081837019,250,"1409 WALNUT GROVE AVE, ROSEMEAD, CA, 91770","Match","Exact","1409 WALNUT GROVE AVE, ROSEMEAD, CA, 91770",142813949,"L"
58751,"1409 WASHINGTON AVE STE 305","ST LOUIS","MO",63103,38.632385906,-90.199661185,251,"1409 WASHINGTON AVE STE 305, ST LOUIS, MO, 63103","Match","Exact","1409 WASHINGTON AVE, SAINT LOUIS, MO, 63103",107604949,"R"
58752,"1409 WASHINGTON AVENUE SUITE 208","SAINT LOUIS","MO",63103,38.632385906,-90.199661185,252,"1409 WASHINGTON AVENUE SUITE 208, SAINT LOUIS, MO, 63103","Match","Exact","1409 WASHINGTON AVE, SAINT LOUIS, MO, 63103",107604949,"R"
58753,"1409 WEST PARADISE ROAD","SPOKANE","WA",99224,47.5147256330001,-117.434663592,253,"1409 WEST PARADISE ROAD, SPOKANE, WA, 99224","Match","Exact","1409 W PARADISE RD, SPOKANE, WA, 99224",625599032,"L"
58754,"1409 WHITNEY ST","SHAKOPEE","MN",55379,44.78114083,-93.5250016749999,254,"1409 WHITNEY ST, SHAKOPEE, MN, 55379","Match","Non_Exact","1409 WHITNEY AVE, SHAKOPEE, MN, 55379",38157143,"L"
58755,"1409 WINTER PINE TRAIL","SEVERN","MD",21144,39.1107279720001,-76.678509745,255,"1409 WINTER PINE TRAIL, SEVERN, MD, 21144","Match","Exact","1409 WINTER PINE TRL, SEVERN, MD, 21144",649061464,"R"
58756,"1409 WINTHORNE DR","NASHVILLE","TN",37217,36.112863605,-86.7031656459999,256,"1409 WINTHORNE DR, NASHVILLE, TN, 37217","Match","Exact","1409 WINTHORNE DR, NASHVILLE, TN, 37217",97197042,"R"
58757,"1409 WINTHORNE DRIVE","NASHVILLE","TN",37217,36.112863605,-86.7031656459999,257,"1409 WINTHORNE DRIVE, NASHVILLE, TN, 37217","Match","Exact","1409 WINTHORNE DR, NASHVILLE, TN, 37217",97197042,"R"
58758,"1409 WOODLAND DR SW","ROCHESTER","MN",55902,44.0043346850001,-92.492232931,258,"1409 WOODLAND DR SW, ROCHESTER, MN, 55902","Match","Exact","1409 WOODLAND DR SW, ROCHESTER, MN, 55902",30576076,"R"
58759,"14090 47TH LN NW LOT 314","WILLISTON","ND",58801,48.1043860400001,-103.733318327,259,"14090 47TH LN NW LOT 314, WILLISTON, ND, 58801","Match","Exact","14090 47TH LN NW, WILLISTON, ND, 58801",167750630,"L"
58760,"14090 FM 2920 RD SUITE G-316","TOMBALL","TX",77377,NA,NA,260,"14090 FM 2920 RD SUITE G-316, TOMBALL, TX, 77377","No_Match",NA,NA,NA,NA
58761,"14090 SOUHTWEST FWY SUITE 300","SUGARLAND","TX",77478,NA,NA,261,"14090 SOUHTWEST FWY SUITE 300, SUGARLAND, TX, 77478","No_Match",NA,NA,NA,NA
58762,"14090 SOUTHWEST FREEWAY STE 300 460","RICHMOND","TX",77478,NA,NA,262,"14090 SOUTHWEST FREEWAY STE 300 460, RICHMOND, TX, 77478","No_Match",NA,NA,NA,NA
58763,"14090 SOUTHWEST FREEWAY STE 300","SUGAR LAND","TX",77478,NA,NA,263,"14090 SOUTHWEST FREEWAY STE 300, SUGAR LAND, TX, 77478","No_Match",NA,NA,NA,NA
58764,"14090 SOUTHWEST FREEWAY SUITE 300","SUGAR LAND","TX",77478,NA,NA,264,"14090 SOUTHWEST FREEWAY SUITE 300, SUGAR LAND, TX, 77478","No_Match",NA,NA,NA,NA
58765,"14090 SOUTHWEST FREEWAY SUITE 300","SUGARLAND","TX",77478,NA,NA,265,"14090 SOUTHWEST FREEWAY SUITE 300, SUGARLAND, TX, 77478","No_Match",NA,NA,NA,NA
58766,"14090 SOUTHWEST FREEWAY","SUGAR LAND","TX",77478,NA,NA,266,"14090 SOUTHWEST FREEWAY, SUGAR LAND, TX, 77478","No_Match",NA,NA,NA,NA
58767,"14090 SOUTHWEST FWY STE 300","SUGAR LAND","TX",77478,NA,NA,267,"14090 SOUTHWEST FWY STE 300, SUGAR LAND, TX, 77478","No_Match",NA,NA,NA,NA
58768,"14090 SOUTHWEST FWY SUITE 450","SUGAR LAND","TX",77478,NA,NA,268,"14090 SOUTHWEST FWY SUITE 450, SUGAR LAND, TX, 77478","No_Match",NA,NA,NA,NA
58769,"14090 SOUTHWEST FWY","SUGAR LAND","TX",77478,NA,NA,269,"14090 SOUTHWEST FWY, SUGAR LAND, TX, 77478","No_Match",NA,NA,NA,NA
58770,"14090 SUMMER BREEZE DRIVE EAST","JACKSONVILLE","FL",32218,30.487182401,-81.604612907,270,"14090 SUMMER BREEZE DRIVE EAST, JACKSONVILLE, FL, 32218","Match","Exact","14090 SUMMER BREEZE DR E, JACKSONVILLE, FL, 32218",83961156,"L"
58771,"14091 HEARTHWOOD DRIVE","FISHERS","IN",46040,39.9358259900001,-85.9117280259999,271,"14091 HEARTHWOOD DRIVE, FISHERS, IN, 46040","Match","Exact","14091 HEARTHWOOD DR, FISHERS, IN, 46040",640740393,"L"
58772,"14092 WEST STATE FARM ROAD","NORTH PLATTE","NE",69101,41.090455326,-100.931600239,272,"14092 WEST STATE FARM ROAD, NORTH PLATTE, NE, 69101","Match","Exact","14092 W STATE FARM RD, NORTH PLATTE, NE, 69101",151259416,"L"
58773,"14093 PECOS COURT","CARMEL","IN",46033,39.9915273990001,-86.0583884609999,273,"14093 PECOS COURT, CARMEL, IN, 46033","Match","Exact","14093 PECOS CT, CARMEL, IN, 46033",231602276,"R"
58774,"14094 ADRIAN COURT","ROSEMOUNT","MN",55068,44.7474864180001,-93.081141211,274,"14094 ADRIAN COURT, ROSEMOUNT, MN, 55068","Match","Exact","14094 ADRIAN CT, ROSEMOUNT, MN, 55068",648497312,"L"
58775,"14094 BUFFALO ROAD","CLAYTON","NC",27527,35.701288011,-78.382584817,275,"14094 BUFFALO ROAD, CLAYTON, NC, 27527","Match","Exact","14094 BUFFALO RD, CLAYTON, NC, 27527",633702665,"R"
58776,"14094 UPPER 54TH ST N","OAK PARK HEIGHTS","MN",55082,45.02785283,-92.8213116599999,276,"14094 UPPER 54TH ST N, OAK PARK HEIGHTS, MN, 55082","Match","Exact","14094 UPPER 54TH ST N, OAK PARK HEIGHTS, MN, 55082",97801958,"R"
58777,"14096 EAGLE CHASE CIR","CHANTILLY","VA",20151,38.879273653,-77.4342246109999,277,"14096 EAGLE CHASE CIR, CHANTILLY, VA, 20151","Match","Exact","14096 EAGLE CHASE CIR, CHANTILLY, VA, 20151",614138641,"R"
58778,"14098 FENLEY RD","CONROE","TX",77302,30.249962146,-95.415033868,278,"14098 FENLEY RD, CONROE, TX, 77302","Match","Exact","14098 FENLEY RD, CONROE, TX, 77302",79284324,"L"
58779,"14099 HIGHWAY 11 SOUTH","FOSTERS","AL",35463,NA,NA,279,"14099 HIGHWAY 11 SOUTH, FOSTERS, AL, 35463","No_Match",NA,NA,NA,NA
58780,"140B PURCELLVILLE GTEWAY DR STE 547","PURCELLVILLE","VA",20132,39.137080714,-77.694091558,280,"140B PURCELLVILLE GTEWAY DR STE 547, PURCELLVILLE, VA, 20132","Match","Non_Exact","140 PURCELLVILLE GATEWAY DR, PURCELLVILLE, VA, 20132",632803846,"R"
58781,"140R FREMONT ST","TAUNTON","MA",2780,41.919383517,-71.119002859,281,"140R FREMONT ST, TAUNTON, MA, 2780","Match","Exact","140 FREMONT ST, TAUNTON, MA, 02780",653298174,"R"
58782,"141  W 123RD STREET NO 1","NEW YORK","NY",10027,NA,NA,282,"141  W 123RD STREET NO 1, NEW YORK, NY, 10027","No_Match",NA,NA,NA,NA
58783,"141 24 185TH STREET","SPRINGFIELD GARDENS","NY",11413,NA,NA,283,"141 24 185TH STREET, SPRINGFIELD GARDENS, NY, 11413","No_Match",NA,NA,NA,NA
58784,"141 ADVENT STREET","SPARTANBURG","SC",29302,34.9501616210001,-81.924705471,284,"141 ADVENT STREET, SPARTANBURG, SC, 29302","Match","Exact","141 ADVENT ST, SPARTANBURG, SC, 29302",19508157,"R"
58785,"141 AL HIGHWAY 71","SECTION","AL",35771,34.581263967,-85.979146176,285,"141 AL HIGHWAY 71, SECTION, AL, 35771","Match","Non_Exact","141 AL HIGHWAY 71, SECTION, AL, 35771",58041343,"L"
58786,"141 ALBANY AVE APT 1R","BROOKLYN","NY",11213,40.6758853170001,-73.9387964219999,286,"141 ALBANY AVE APT 1R, BROOKLYN, NY, 11213","Match","Exact","141 ALBANY AVE, BROOKLYN, NY, 11213",59079728,"L"
58787,"141 ALMERIA AVENUE","CORAL GABLES","FL",33134,25.7471820490001,-80.257407937,287,"141 ALMERIA AVENUE, CORAL GABLES, FL, 33134","Match","Exact","141 ALMERIA AVE, CORAL GABLES, FL, 33134",116013075,"R"
58788,"141 ARTILLERY DR","GETTYSBURG","PA",17325,39.8489282640001,-77.215216604,288,"141 ARTILLERY DR, GETTYSBURG, PA, 17325","Match","Exact","141 ARTILLERY DR, GETTYSBURG, PA, 17325",60863592,"L"
58789,"141 ASHLEY COURT","JUPITER","FL",33458,26.8940000920001,-80.1264236979999,289,"141 ASHLEY COURT, JUPITER, FL, 33458","Match","Exact","141 ASHLEY CT, JUPITER, FL, 33458",115570960,"L"
58790,"141 ASTON HALL","MACON","GA",31210,32.9039207710001,-83.762407315,290,"141 ASTON HALL, MACON, GA, 31210","Match","Exact","141 ASTON HALL, MACON, GA, 31210",650747741,"L"
58791,"141 AVENIDA ESPANA","SAN JOSE","CA",95139,37.2245604500001,-121.767110599,291,"141 AVENIDA ESPANA, SAN JOSE, CA, 95139","Match","Exact","141 AVE ESPANA, SAN JOSE, CA, 95139",122999919,"R"
58792,"141 AZALEA CIR","STREAMWOOD","IL",60107,42.031049029,-88.1586009809999,292,"141 AZALEA CIR, STREAMWOOD, IL, 60107","Match","Exact","141 AZALEA CIR, STREAMWOOD, IL, 60107",111847908,"R"
58793,"141 BEACH 56TH PL","ARVERNE","NY",11692,40.5908783200001,-73.7861194669999,293,"141 BEACH 56TH PL, ARVERNE, NY, 11692","Match","Exact","141 BEACH 56 PL, ARVERNE, NY, 11692",640989667,"L"
58794,"141 BELLEMEADE BLVD","GRETNA","LA",70056,29.8921762790001,-90.036953145,294,"141 BELLEMEADE BLVD, GRETNA, LA, 70056","Match","Exact","141 BELLEMEADE BLVD, GRETNA, LA, 70056",93510482,"L"
58795,"141 BIG WILLOW CT","SAGINAW","TX",76179,NA,NA,295,"141 BIG WILLOW CT, SAGINAW, TX, 76179","No_Match",NA,NA,NA,NA
58796,"141 BOLDEN ST","HOUSTON","TX",77029,29.737335338,-95.260557897,296,"141 BOLDEN ST, HOUSTON, TX, 77029","Match","Exact","141 BOLDEN ST, HOUSTON, TX, 77029",96085404,"L"
58797,"141 BOYD ST","STATEN ISLAND","NY",10304,40.6262359300001,-74.080313965,297,"141 BOYD ST, STATEN ISLAND, NY, 10304","Match","Exact","141 BOYD ST, STATEN ISLAND, NY, 10304",59879174,"L"
58798,"141 BRADFORD DRIVE","SCHWENKSVILLE","PA",19473,40.234123557,-75.4902044099999,298,"141 BRADFORD DRIVE, SCHWENKSVILLE, PA, 19473","Match","Exact","141 BRADFORD DR, SCHWENKSVILLE, PA, 19473",135125518,"R"
58799,"141 BRINAN FIELDS RUN","MANLIUS","NY",13104,42.99042983,-75.9506799,299,"141 BRINAN FIELDS RUN, MANLIUS, NY, 13104","Match","Exact","141 BRINAN FIELDS RUN, MANLIUS, NY, 13104",648061074,"L"
58800,"141 BRISTOL WOODS DR","ATHENS","GA",30606,33.9645077110001,-83.453935889,300,"141 BRISTOL WOODS DR, ATHENS, GA, 30606","Match","Exact","141 BRISTOL WOODS DR, ATHENS, GA, 30606",614135487,"L"
58801,"141 BROAD STREET","MIDDLETOWN","CT",6457,41.560799183,-72.652622256,301,"141 BROAD STREET, MIDDLETOWN, CT, 6457","Match","Exact","141 BROAD ST, MIDDLETOWN, CT, 06457",610695024,"R"
58802,"141 BROADWAY","BAYONNE","NJ",7002,40.6506484330001,-74.128266863,302,"141 BROADWAY, BAYONNE, NJ, 7002","Match","Exact","141 BROADWAY, BAYONNE, NJ, 07002",59606738,"L"
58803,"141 BRUEY ROAD","NORFOLK","CT",6058,41.9445376800001,-73.192578962,303,"141 BRUEY ROAD, NORFOLK, CT, 6058","Match","Exact","141 BRUEY RD, NORFOLK, CT, 06058",611518151,"R"
58804,"141 BRUNSWICK STREET","JERSEY CITY","NJ",7302,40.7239859810001,-74.0507627059999,304,"141 BRUNSWICK STREET, JERSEY CITY, NJ, 7302","Match","Exact","141 BRUNSWICK ST, JERSEY CITY, NJ, 07302",59605895,"L"
58805,"141 BUCKS ROAD","CRANBERRY TWP","PA",16066,40.6794622420001,-80.121000217,305,"141 BUCKS ROAD, CRANBERRY TWP, PA, 16066","Match","Exact","141 BUCKS RD, CRANBERRY TOWNSHIP, PA, 16066",52671224,"L"
58806,"141 CALUMET DR","BIRMINGHAM","AL",35242,33.432810126,-86.662221405,306,"141 CALUMET DR, BIRMINGHAM, AL, 35242","Match","Exact","141 CALUMET DR, BIRMINGHAM, AL, 35242",221524755,"L"
58807,"141 CAROLINA FOREST BLVD","JACKSONVILLE","NC",28546,NA,NA,307,"141 CAROLINA FOREST BLVD, JACKSONVILLE, NC, 28546","No_Match",NA,NA,NA,NA
58808,"141 CEDAR PLACE APT 2","DANVILLE","VA",24541,36.5911004230001,-79.403950975,308,"141 CEDAR PLACE APT 2, DANVILLE, VA, 24541","Match","Exact","141 CEDAR PL, DANVILLE, VA, 24541",56665683,"L"
58809,"141 CENTER ST W","KIMBERLY","ID",83341,42.5336430190001,-114.364500816,309,"141 CENTER ST W, KIMBERLY, ID, 83341","Match","Non_Exact","141 CENTER ST E, KIMBERLY, ID, 83341",118792036,"L"
58810,"141 CHURCHLAND DRIVE","COLUMBIA","SC",29229,34.151940343,-80.9426755279999,310,"141 CHURCHLAND DRIVE, COLUMBIA, SC, 29229","Match","Exact","141 CHURCHLAND DR, COLUMBIA, SC, 29229",645308706,"L"
58811,"141 COIT STREET","IRVINGTON","NJ",7111,40.7195801180001,-74.2250801289999,311,"141 COIT STREET, IRVINGTON, NJ, 7111","Match","Exact","141 COIT ST, IRVINGTON, NJ, 07111",63464952,"R"
58812,"141 COLLEGE ST","WHITLEY CITY","KY",42653,36.727106511,-84.468164109,312,"141 COLLEGE ST, WHITLEY CITY, KY, 42653","Match","Exact","141 COLLEGE ST, WHITLEY CITY, KY, 42653",98780561,"L"
58813,"141 COMMONAGE DRIVE","GREAT FALLS","VA",22066,39.036109438,-77.303286768,313,"141 COMMONAGE DRIVE, GREAT FALLS, VA, 22066","Match","Exact","141 COMMONAGE DR, GREAT FALLS, VA, 22066",76040160,"L"
58814,"141 COOK LANE","BEACON FALLS","CT",6403,41.443559518,-73.043410911,314,"141 COOK LANE, BEACON FALLS, CT, 6403","Match","Exact","141 COOK LN, BEACON FALLS, CT, 06403",604749118,"L"
58815,"141 COUNTRYSIDE COURT SUITE 150","SOUTHLAKE","TX",76092,32.9594095510001,-97.151581192,315,"141 COUNTRYSIDE COURT SUITE 150, SOUTHLAKE, TX, 76092","Match","Exact","141 COUNTRYSIDE CT, SOUTHLAKE, TX, 76092",102100635,"L"
58816,"141 COUNTY ST APT 5","MILAN","MI",48160,42.084169199,-83.6809148199999,316,"141 COUNTY ST APT 5, MILAN, MI, 48160","Match","Exact","141 COUNTY ST, MILAN, MI, 48160",26019843,"L"
58817,"141 CR 480","PANDORA","TX",78143,NA,NA,317,"141 CR 480, PANDORA, TX, 78143","No_Match",NA,NA,NA,NA
58818,"141 CREEKSIDE DRIVE","AMES","IA",50010,42.005864516,-93.624228038,318,"141 CREEKSIDE DRIVE, AMES, IA, 50010","Match","Exact","141 CREEKSIDE DR, AMES, IA, 50010",65953512,"L"
58819,"141 DEERFIELD COURT","JUPITER","FL",33458,26.920189421,-80.130646175,319,"141 DEERFIELD COURT, JUPITER, FL, 33458","Match","Exact","141 DEERFIELD CT, JUPITER, FL, 33458",115581858,"L"
58820,"141 DELLEKER DR","PORTOLA","CA",96122,39.809509747,-120.498881752,320,"141 DELLEKER DR, PORTOLA, CA, 96122","Match","Exact","141 DELLEKER DR, PORTOLA, CA, 96122",127209200,"L"
58821,"141 DEMETTE ROAD","LAFAYETTE","LA",70508,30.1369283070001,-92.045099541,321,"141 DEMETTE ROAD, LAFAYETTE, LA, 70508","Match","Non_Exact","141 DEMETTE DR, LAFAYETTE, LA, 70508",627876374,"R"
58822,"141 DIVISION STREET","NEW YORK","NY",10002,40.7144371540001,-73.9918347079999,322,"141 DIVISION STREET, NEW YORK, NY, 10002","Match","Exact","141 DIVISION ST, NEW YORK, NY, 10002",59654222,"R"
58823,"141 DOUBLE MOUNTAIN RD","LIBERTY HILL","TX",78642,NA,NA,323,"141 DOUBLE MOUNTAIN RD, LIBERTY HILL, TX, 78642","No_Match",NA,NA,NA,NA
58824,"141 DUNLIN LN","PLEASANTVILLE","NJ",8232,39.3795037100001,-74.494106566,324,"141 DUNLIN LN, PLEASANTVILLE, NJ, 8232","Match","Exact","141 DUNLIN LN, PLEASANTVILLE, NJ, 08232",625403282,"L"
58825,"141 E 13TH STREET APT 5B","NEW YORK","NY",10003,40.732879736,-73.988311901,325,"141 E 13TH STREET APT 5B, NEW YORK, NY, 10003","Match","Non_Exact","141 E 13TH ST, NEW YORK, NY, 10003",639490754,"L"
58826,"141 E 300 N APT 8","LOGAN","UT",84321,NA,NA,326,"141 E 300 N APT 8, LOGAN, UT, 84321","Tie",NA,NA,NA,NA
58827,"141 E 6TH ST","WYOMING","PA",18644,41.3110948190001,-75.832179407,327,"141 E 6TH ST, WYOMING, PA, 18644","Match","Exact","141 6TH ST, WYOMING, PA, 18644",604521795,"R"
58828,"141 E WASHINGTON AVE UNIT 514","LONGWOOD","FL",32779,NA,NA,328,"141 E WASHINGTON AVE UNIT 514, LONGWOOD, FL, 32779","No_Match",NA,NA,NA,NA
58829,"141 EAST 55TH STREET SUITE 2D","NEW YORK","NY",10022,40.7595255730001,-73.9698208469999,329,"141 EAST 55TH STREET SUITE 2D, NEW YORK, NY, 10022","Match","Exact","141 E 55TH ST, NEW YORK, NY, 10022",59657484,"L"
58830,"141 EAST 89TH STREET APARTMENT 4F","NEW YORK","NY",10128,40.7813826280001,-73.954043849,330,"141 EAST 89TH STREET APARTMENT 4F, NEW YORK, NY, 10128","Match","Exact","141 E 89TH ST, NEW YORK, NY, 10128",59657873,"L"
58831,"141 EAST 91ST STREET","BROOKLYN","NY",11212,40.660761984,-73.9275057139999,331,"141 EAST 91ST STREET, BROOKLYN, NY, 11212","Match","Exact","141 E 91ST ST, BROOKLYN, NY, 11212",59083528,"L"
58832,"141 EAST COLLEGE AVENUE BOX 557","DECATUR","GA",30030,33.770170808,-84.2951764059999,332,"141 EAST COLLEGE AVENUE BOX 557, DECATUR, GA, 30030","Match","Exact","141 E COLLEGE AVE, DECATUR, GA, 30030",642413435,"R"
58833,"141 EAST HILL RD","MONSON","MA",1057,42.0964633790001,-72.2868729419999,333,"141 EAST HILL RD, MONSON, MA, 1057","Match","Exact","141 E HILL RD, MONSON, MA, 01057",4056165,"L"
58834,"141 EAST MAIN ST","HYDE PARK","VT",5655,44.5929174660001,-72.6119594629999,334,"141 EAST MAIN ST, HYDE PARK, VT, 5655","Match","Exact","141 E MAIN ST, HYDE PARK, VT, 05655",136632652,"L"
58835,"141 EAST PIKE STREET SUITE 3","CYNTHIANA","KY",41031,38.3889695440001,-84.295863934,335,"141 EAST PIKE STREET SUITE 3, CYNTHIANA, KY, 41031","Match","Exact","141 E PIKE ST, CYNTHIANA, KY, 41031",57893915,"L"
58836,"141 ELLSWORTH HILL RD","CAMPTON","NH",3223,43.848105015,-71.678898939,336,"141 ELLSWORTH HILL RD, CAMPTON, NH, 3223","Match","Exact","141 ELLSWORTH HILL RD, CAMPTON, NH, 03223",145690733,"L"
58837,"141 ELM ST APT 2","MARBLEHEAD","MA",1945,42.504720445,-70.8553830239999,337,"141 ELM ST APT 2, MARBLEHEAD, MA, 1945","Match","Exact","141 ELM ST, MARBLEHEAD, MA, 01945",86648954,"R"
58838,"141 FAPC","STILLWATER","OK",74078,NA,NA,338,"141 FAPC, STILLWATER, OK, 74078","No_Match",NA,NA,NA,NA
58839,"141 FEATHER TRAIL","MORIARTY","NM",87035,NA,NA,339,"141 FEATHER TRAIL, MORIARTY, NM, 87035","No_Match",NA,NA,NA,NA
58840,"141 FERNERY RD APT F8","LAKELAND","FL",33809,28.1025792300001,-81.9539349629999,340,"141 FERNERY RD APT F8, LAKELAND, FL, 33809","Match","Exact","141 FERNERY RD, LAKELAND, FL, 33809",104915906,"R"
58841,"141 FIRST AVENUE NO 2","NEW YORK","NY",10003,NA,NA,341,"141 FIRST AVENUE NO 2, NEW YORK, NY, 10003","No_Match",NA,NA,NA,NA
58842,"141 FLANDERS ST","ROCHESTER","NY",14619,43.135950941,-77.6492343529999,342,"141 FLANDERS ST, ROCHESTER, NY, 14619","Match","Exact","141 FLANDERS ST, ROCHESTER, NY, 14619",14533248,"L"
58843,"141 FLUSHING AVENUE SUITE 301","BROOKLYN","NY",11205,40.697800579,-73.969477258,343,"141 FLUSHING AVENUE SUITE 301, BROOKLYN, NY, 11205","Match","Exact","141 FLUSHING AVE, BROOKLYN, NY, 11205",59098354,"L"
58844,"141 FOREST AVENUE","WATERLOO","IA",50702,42.4821299660001,-92.355725235,344,"141 FOREST AVENUE, WATERLOO, IA, 50702","Match","Exact","141 FOREST AVE, WATERLOO, IA, 50702",77253708,"L"
58845,"141 FRANCIS DRIVE","TROY","MO",63379,39.064067865,-90.98070415,345,"141 FRANCIS DRIVE, TROY, MO, 63379","Match","Exact","141 FRANCIS DR, TROY, MO, 63379",44873431,"R"
58846,"141 FRIENDSHIP CHURCH RD","COLUMBIA","MS",39429,31.2438629850001,-89.788592033,346,"141 FRIENDSHIP CHURCH RD, COLUMBIA, MS, 39429","Match","Exact","141 FRIENDSHIP CHURCH RD, COLUMBIA, MS, 39429",203488078,"L"
58847,"141 GAHR ROAD  PO BOX 320","KERSEY","PA",15846,41.366868594,-78.6169368229999,347,"141 GAHR ROAD  PO BOX 320, KERSEY, PA, 15846","Match","Exact","141 GAHR RD, KERSEY, PA, 15846",157848313,"L"
58848,"141 GAINSWAY DRIVE","NICHOLASVILLE","KY",40356,37.9062985960001,-84.583808273,348,"141 GAINSWAY DRIVE, NICHOLASVILLE, KY, 40356","Match","Non_Exact","141 GAINSWAY CT, NICHOLASVILLE, KY, 40356",38465365,"L"
58849,"141 GARRETT DRIVE","HAMPTON","VA",23669,37.0151495800001,-76.3923537329999,349,"141 GARRETT DRIVE, HAMPTON, VA, 23669","Match","Exact","141 GARRETT DR, HAMPTON, VA, 23669",103756171,"L"
58850,"141 GASQUE DRIVE","LAFAYETTE","GA",30728,34.6840203680001,-85.2829222189999,350,"141 GASQUE DRIVE, LAFAYETTE, GA, 30728","Match","Non_Exact","141 GASQUE DR, LA FAYETTE, GA, 30728",635656240,"L"
58851,"141 GILLESPIE AVE","MIDDLETOWN","DE",19709,39.4499173410001,-75.679916496,351,"141 GILLESPIE AVE, MIDDLETOWN, DE, 19709","Match","Exact","141 GILLESPIE AVE, MIDDLETOWN, DE, 19709",648961439,"R"
58852,"141 GLENSIDE TRAIL","SPARTA","NJ",7871,41.003094355,-74.677435534,352,"141 GLENSIDE TRAIL, SPARTA, NJ, 7871","Match","Exact","141 GLENSIDE TRL, SPARTA, NJ, 07871",647707466,"R"
58853,"141 GODWIN ROAD","FROSTPROOF","FL",33843,27.715054373,-81.490452497,353,"141 GODWIN ROAD, FROSTPROOF, FL, 33843","Match","Exact","141 GODWIN RD, FROSTPROOF, FL, 33843",104803826,"L"
58854,"141 GORDON PLACE","DOVER","DE",19901,39.1884945300001,-75.5181808469999,354,"141 GORDON PLACE, DOVER, DE, 19901","Match","Exact","141 GORDON PL, DOVER, DE, 19901",68108878,"L"
58855,"141 GOULD AVENUE","NORTH CALDWELL","NJ",7006,40.861049431,-74.261859623,355,"141 GOULD AVENUE, NORTH CALDWELL, NJ, 7006","Match","Exact","141 GOULD AVE, N CALDWELL, NJ, 07006",63475738,"R"
58856,"141 GOVERNOR STREET","NEW BRITAIN","CT",6053,41.688654732,-72.7941341699999,356,"141 GOVERNOR STREET, NEW BRITAIN, CT, 6053","Match","Exact","141 GOVERNOR ST, NEW BRITAIN, CT, 06053",3509731,"R"
58857,"141 GRAND AVE","LAPORTE","IN",46350,41.5948563250001,-86.7415598169999,357,"141 GRAND AVE, LAPORTE, IN, 46350","Match","Exact","141 GRAND AVE, LAPORTE, IN, 46350",15407982,"R"
58858,"141 GREAT OAKS LANE","CHARLOTTE","NC",28270,35.1227159640001,-80.7533190779999,358,"141 GREAT OAKS LANE, CHARLOTTE, NC, 28270","Match","Exact","141 GREAT OAKS LN, CHARLOTTE, NC, 28270",70495401,"R"
58859,"141 GROVE ST","WORCESTER","MA",1605,42.2796678810001,-71.804649044,359,"141 GROVE ST, WORCESTER, MA, 1605","Match","Exact","141 GROVE ST, WORCESTER, MA, 01605",40109162,"L"
58860,"141 HAMILTON HILL ROAD","LYNNVILLE","TN",38472,35.3375896810001,-87.068918657,360,"141 HAMILTON HILL ROAD, LYNNVILLE, TN, 38472","Match","Exact","141 HAMILTON HILL RD, LYNNVILLE, TN, 38472",45322341,"R"
58861,"141 HAMMETT ROAD","LAGRANGE","GA",30241,33.0631267640001,-85.0075530029999,361,"141 HAMMETT ROAD, LAGRANGE, GA, 30241","Match","Exact","141 HAMMETT RD, LAGRANGE, GA, 30241",1771767,"L"
58862,"141 HARVARD ST","DORCHESTER","MA",2121,NA,NA,362,"141 HARVARD ST, DORCHESTER, MA, 2121","No_Match",NA,NA,NA,NA
58863,"141 HENRY AVE","CROSSVILLE","TN",38555,35.9474363160001,-85.028419404,363,"141 HENRY AVE, CROSSVILLE, TN, 38555","Match","Non_Exact","141 HENRY ST, CROSSVILLE, TN, 38555",26236076,"L"
58864,"141 HIDDEN LAKE DRIVE","LEAGUE CITY","TX",77573,29.534205759,-95.041823651,364,"141 HIDDEN LAKE DRIVE, LEAGUE CITY, TX, 77573","Match","Exact","141 HIDDEN LAKE DR, LEAGUE CITY, TX, 77573",96711959,"R"
58865,"141 HIGHLAND AVENUE","SPRUCE PINE","NC",28777,35.9150135780001,-82.073175576,365,"141 HIGHLAND AVENUE, SPRUCE PINE, NC, 28777","Match","Exact","141 HIGHLAND AVE, SPRUCE PINE, NC, 28777",636705372,"R"
58866,"141 HILL STREET","MARKS","MS",38646,34.2498893490001,-90.255510285,366,"141 HILL STREET, MARKS, MS, 38646","Match","Exact","141 HILL ST, MARKS, MS, 38646",82535243,"L"
58867,"141 HOWARD AVENUE","SOUTH BOUND BROOK","NJ",8880,40.554681526,-74.5399251389999,367,"141 HOWARD AVENUE, SOUTH BOUND BROOK, NJ, 8880","Match","Exact","141 HOWARD AVE, S BOUND BROOK, NJ, 08880",59940611,"L"
58868,"141 INDIANA STREET","PARK FOREST","IL",60466,41.501894996,-87.6942122459999,368,"141 INDIANA STREET, PARK FOREST, IL, 60466","Match","Exact","141 INDIANA ST, PARK FOREST, IL, 60466",111710324,"L"
58869,"141 JOAN TERRACE","FREMONT","CA",94536,37.5841702860001,-121.997001622,369,"141 JOAN TERRACE, FREMONT, CA, 94536","Match","Exact","141 JOAN TER, FREMONT, CA, 94536",125057275,"R"
58870,"141 JOHN STREET SUITE R18","LOWELL","MA",1852,NA,NA,370,"141 JOHN STREET SUITE R18, LOWELL, MA, 1852","No_Match",NA,NA,NA,NA
58871,"141 JOHNSTON AVENUE","COHOES","NY",12047,42.7746751450001,-73.7104265359999,371,"141 JOHNSTON AVENUE, COHOES, NY, 12047","Match","Exact","141 JOHNSTON AVE, COHOES, NY, 12047",18312338,"R"
58872,"141 JONES STREET","BALA CYNWYD","PA",19004,40.029109756,-75.23689172,372,"141 JONES STREET, BALA CYNWYD, PA, 19004","Match","Exact","141 JONES ST, BALA CYNWYD, PA, 19004",135091274,"R"
58873,"141 JUANITA WAY","SAN FRANCISCO","CA",94127,37.7428293720001,-122.454233826,373,"141 JUANITA WAY, SAN FRANCISCO, CA, 94127","Match","Exact","141 JUANITA WAY, SAN FRANCISCO, CA, 94127",192297602,"L"
58874,"141 JUCUNDA STREET","PITTSBURGH","PA",15210,40.4173735320001,-79.9893306499999,374,"141 JUCUNDA STREET, PITTSBURGH, PA, 15210","Match","Exact","141 JUCUNDA ST, PITTSBURGH, PA, 15210",51636650,"R"
58875,"141 JUNEBERRY CT","SAN JOSE","CA",95136,37.2723184110001,-121.835686613,375,"141 JUNEBERRY CT, SAN JOSE, CA, 95136","Match","Exact","141 JUNEBERRY CT, SAN JOSE, CA, 95136",122923731,"R"
58876,"141 JUPITER LN","SUMMERVILLE","SC",29483,NA,NA,376,"141 JUPITER LN, SUMMERVILLE, SC, 29483","No_Match",NA,NA,NA,NA
58877,"141 KENDRICK RD","HOUTZDALE","PA",16651,40.817717911,-78.38189651,377,"141 KENDRICK RD, HOUTZDALE, PA, 16651","Match","Exact","141 KENDRICK RD, HOUTZDALE, PA, 16651",50506490,"L"
58878,"141 KENNARD AVENUE","BARNESVILLE","OH",43713,39.996755335,-81.1766810839999,378,"141 KENNARD AVENUE, BARNESVILLE, OH, 43713","Match","Exact","141 KENNARD AVE, BARNESVILLE, OH, 43713",36219516,"L"
58879,"141 KING ST","SAVANNAH","GA",31408,32.088741468,-81.140678011,379,"141 KING ST, SAVANNAH, GA, 31408","Match","Exact","141 KING ST, SAVANNAH, GA, 31408",6169375,"R"
58880,"141 KIRKLAND DRIVE","LAWRENCEVILLE","GA",30044,33.931674564,-84.0257604289999,380,"141 KIRKLAND DRIVE, LAWRENCEVILLE, GA, 30044","Match","Exact","141 KIRKLAND DR, LAWRENCEVILLE, GA, 30044",623943052,"L"
58881,"141 LANTERN WICK PL","PONTE VEDRA BEACH","FL",32082,30.2396048580001,-81.4122634719999,381,"141 LANTERN WICK PL, PONTE VEDRA BEACH, FL, 32082","Match","Exact","141 LANTERN WICK PL, PONTE VEDRA BEACH, FL, 32082",92599896,"R"
58882,"141 LEWIS RD","GILLETTE","WY",82718,44.205220716,-105.622221816,382,"141 LEWIS RD, GILLETTE, WY, 82718","Match","Exact","141 LEWIS RD, GILLETTE, WY, 82718",649773388,"R"
58883,"141 LIVINGSTON LN","COVINGTON","GA",30016,33.54257836,-83.993002721,383,"141 LIVINGSTON LN, COVINGTON, GA, 30016","Match","Exact","141 LIVINGSTON LN, COVINGTON, GA, 30016",639843713,"L"
58884,"141 LOCUST AVENUE","MILL VALLEY","CA",94941,37.9022725080001,-122.536040009,384,"141 LOCUST AVENUE, MILL VALLEY, CA, 94941","Match","Exact","141 LOCUST AVE, MILL VALLEY, CA, 94941",192766498,"L"
58885,"141 LOOMIS AVE","COATESVILLE","PA",19320,39.991864664,-75.77612226,385,"141 LOOMIS AVE, COATESVILLE, PA, 19320","Match","Exact","141 LOOMIS AVE, COATESVILLE, PA, 19320",179538365,"R"
58886,"141 M AND M PLACE DR","EUTAW","AL",35462,NA,NA,386,"141 M AND M PLACE DR, EUTAW, AL, 35462","No_Match",NA,NA,NA,NA
58887,"141 MAIN ST","PEMBROKE","NH",3275,43.131317284,-71.452697929,387,"141 MAIN ST, PEMBROKE, NH, 3275","Match","Exact","141 MAIN ST, PEMBROKE, NH, 03275",117718854,"R"
58888,"141 MAIN ST","SOUTHBRIDGE","MA",1550,42.0734537750001,-72.030239093,388,"141 MAIN ST, SOUTHBRIDGE, MA, 1550","Match","Exact","141 MAIN ST, SOUTHBRIDGE, MA, 01550",40000814,"L"
58889,"141 MAIN ST","WILLIAMSVILLE","IL",62693,NA,NA,389,"141 MAIN ST, WILLIAMSVILLE, IL, 62693","Tie",NA,NA,NA,NA
58890,"141 MAIN STREET","RACINE","WI",53403,42.7319561690001,-87.783792998,390,"141 MAIN STREET, RACINE, WI, 53403","Match","Exact","141 MAIN ST, RACINE, WI, 53403",77910433,"L"
58891,"141 MANSION DRIVE SUITE 300","WALPOLE","MA",2032,42.1635101160001,-71.2194923069999,391,"141 MANSION DRIVE SUITE 300, WALPOLE, MA, 2032","Match","Non_Exact","141 MANSION DR, EAST WALPOLE, MA, 02032",612158419,"L"
58892,"141 MAPLETON RD","MURFREESBORO","NC",27855,36.4321555330001,-77.0353997879999,392,"141 MAPLETON RD, MURFREESBORO, NC, 27855","Match","Exact","141 MAPLETON RD, MURFREESBORO, NC, 27855",56781514,"L"
58893,"141 MARION OAKS LANE","OCALA","FL",34473,29.007820935,-82.1929187809999,393,"141 MARION OAKS LANE, OCALA, FL, 34473","Match","Exact","141 MARION OAKS LN, OCALA, FL, 34473",116718397,"R"
58894,"141 MARTINELLI ST","WATSONVILLE","CA",95076,36.9254389000001,-121.747951848,394,"141 MARTINELLI ST, WATSONVILLE, CA, 95076","Match","Exact","141 MARTINELLI ST, WATSONVILLE, CA, 95076",125514125,"L"
58895,"141 MCGUINNESS BLVD","BROOKLYN","NY",11222,40.72722544,-73.949740705,395,"141 MCGUINNESS BLVD, BROOKLYN, NY, 11222","Match","Exact","141 MCGUINNESS BLVD, BROOKLYN, NY, 11222",59076482,"L"
58896,"141 MILL COVE LN","PONTE VEDRA","FL",32082,30.157397023,-81.385922358,396,"141 MILL COVE LN, PONTE VEDRA, FL, 32082","Match","Exact","141 MILL COVE LN, PONTE VEDRA, FL, 32082",92602248,"L"
58897,"141 MISTY OAKS CT","DAYTON","OH",45415,39.851665541,-84.270176931,397,"141 MISTY OAKS CT, DAYTON, OH, 45415","Match","Exact","141 MISTY OAKS CT, DAYTON, OH, 45415",635557069,"R"
58898,"141 MONTE VISTA AVENUE","HEALDSBURG","CA",95448,38.624446397,-122.871800073,398,"141 MONTE VISTA AVENUE, HEALDSBURG, CA, 95448","Match","Exact","141 MONTE VISTA AVE, HEALDSBURG, CA, 95448",67534011,"L"
58899,"141 MUSCOGEE DRIVE","HOSCHTON","GA",30548,34.0942319960001,-83.769813945,399,"141 MUSCOGEE DRIVE, HOSCHTON, GA, 30548","Match","Exact","141 MUSCOGEE DR, HOSCHTON, GA, 30548",619880054,"L"
58900,"141 N 14TH STREET","EAST ORANGE","NJ",7017,40.760026587,-74.194771358,400,"141 N 14TH STREET, EAST ORANGE, NJ, 7017","Match","Exact","141 N 14TH ST, EAST ORANGE, NJ, 07017",63452171,"L"
58901,"141 N 3RD ST  SUITE 1","DANVILLE","KY",40422,NA,NA,401,"141 N 3RD ST  SUITE 1, DANVILLE, KY, 40422","Tie",NA,NA,NA,NA
58902,"141 N BROADWAY","SOUTH AMBOY","NJ",8884,NA,NA,402,"141 N BROADWAY, SOUTH AMBOY, NJ, 8884","No_Match",NA,NA,NA,NA
58903,"141 N LAMAR","HAYSVILLE","KS",67060,NA,NA,403,"141 N LAMAR, HAYSVILLE, KS, 67060","Tie",NA,NA,NA,NA
58904,"141 N MELANIE DR","AZLE","TX",76020,32.915443903,-97.550957252,404,"141 N MELANIE DR, AZLE, TX, 76020","Match","Exact","141 N MELANIE DR, AZLE, TX, 76020",103595391,"L"
58905,"141 N OAKDALE BLVD","DECATUR","IL",62522,39.8416467760001,-88.983374838,405,"141 N OAKDALE BLVD, DECATUR, IL, 62522","Match","Exact","141 OAKDALE BLVD, DECATUR, IL, 62522",20745696,"L"
58906,"141 N PALMETTO AVENUE 1012","EAGLE","ID",83616,43.69571483,-116.343976331,406,"141 N PALMETTO AVENUE 1012, EAGLE, ID, 83616","Match","Non_Exact","141 N PALMETTO AVE, EAGLE, ID, 83616",117939690,"L"
58907,"141 N PLEASANT ST 758","AMHERST","MA",1004,NA,NA,407,"141 N PLEASANT ST 758, AMHERST, MA, 1004","No_Match",NA,NA,NA,NA
58908,"141 N PLEASANT ST BOX 155","AMHERST","MA",1004,NA,NA,408,"141 N PLEASANT ST BOX 155, AMHERST, MA, 1004","No_Match",NA,NA,NA,NA
58909,"141 NEVADA STREET  PO BOX 216","CENTRAL CITY","CO",80427,39.7990639830001,-105.513118189,409,"141 NEVADA STREET  PO BOX 216, CENTRAL CITY, CO, 80427","Match","Exact","141 NEVADA ST, CENTRAL CITY, CO, 80427",636168953,"L"
58910,"141 NEVADA STREET","CENTRAL CITY","CO",80427,39.7990639830001,-105.513118189,410,"141 NEVADA STREET, CENTRAL CITY, CO, 80427","Match","Exact","141 NEVADA ST, CENTRAL CITY, CO, 80427",636168953,"L"
58911,"141 NEW ROAD","TABERNACLE","NJ",8088,39.8483059660001,-74.708271729,411,"141 NEW ROAD, TABERNACLE, NJ, 8088","Match","Exact","141 NEW RD, TABERNACLE, NJ, 08088",624963291,"R"
58912,"141 NEW STREET","MACON","GA",31201,32.84179655,-83.629250597,412,"141 NEW STREET, MACON, GA, 31201","Match","Exact","141 NEW ST, MACON, GA, 31201",81062731,"R"
58913,"141 NORTH 6TH STREET","GREYBULL","WY",82426,44.4901314640001,-108.055275156,413,"141 NORTH 6TH STREET, GREYBULL, WY, 82426","Match","Exact","141 N 6TH ST, GREYBULL, WY, 82426",605620038,"R"
58914,"141 NORTH KENWOOD ST  APT 10","GLENDALE","CA",91206,34.1470942770001,-118.251370656,414,"141 NORTH KENWOOD ST  APT 10, GLENDALE, CA, 91206","Match","Exact","141 N KENWOOD ST, GLENDALE, CA, 91206",241240421,"L"
58915,"141 NORTH MERAMEC","CLAYTON","MO",63105,38.653157585,-90.339266497,415,"141 NORTH MERAMEC, CLAYTON, MO, 63105","Match","Non_Exact","141 N MERAMEC AVE, CLAYTON, MO, 63105",100135482,"L"
58916,"141 NORTH X STREET","WASHOUGAL","WA",98671,45.594357056,-122.372482752,416,"141 NORTH X STREET, WASHOUGAL, WA, 98671","Match","Exact","141 N X ST, WASHOUGAL, WA, 98671",158371857,"R"
58917,"141 NORTHGATE DR","CANTON","MS",39046,32.6274791110001,-90.028658622,417,"141 NORTHGATE DR, CANTON, MS, 39046","Match","Exact","141 NORTHGATE DR, CANTON, MS, 39046",639331423,"R"
58918,"141 NORTHVIEW DR","IRON MOUNTAIN","MI",49801,45.8329582150001,-88.075002393,418,"141 NORTHVIEW DR, IRON MOUNTAIN, MI, 49801","Match","Exact","141 NORTHVIEW DR, IRON MOUNTAIN, MI, 49801",170180919,"R"
58919,"141 NOVOSEL WAY","SPECULATOR","NY",12164,43.5089334580001,-74.357942819,419,"141 NOVOSEL WAY, SPECULATOR, NY, 12164","Match","Exact","141 NOVOSEL WAY, SPECULATOR, NY, 12164",153699085,"L"
58920,"141 NW 10TH ST STE B","POMPANO BEACH","FL",33066,NA,NA,420,"141 NW 10TH ST STE B, POMPANO BEACH, FL, 33066","No_Match",NA,NA,NA,NA
58921,"141 NW 19TH STREET","HOMESTEAD","FL",33030,25.488106794,-80.480395452,421,"141 NW 19TH STREET, HOMESTEAD, FL, 33030","Match","Exact","141 NW 19TH ST, HOMESTEAD, FL, 33030",115991399,"R"
58922,"141 PAGE LANE","ELGIN","AZ",85611,31.5163607170001,-110.464344134,422,"141 PAGE LANE, ELGIN, AZ, 85611","Match","Exact","141 PAGE LN, ELGIN, AZ, 85611",120881091,"L"
58923,"141 PARADISE ROAD","WELLSVILLE","MO",63384,NA,NA,423,"141 PARADISE ROAD, WELLSVILLE, MO, 63384","No_Match",NA,NA,NA,NA
58924,"141 PARIS STREET","INTERLACHEN","FL",32148,29.6196765830001,-81.919219964,424,"141 PARIS STREET, INTERLACHEN, FL, 32148","Match","Exact","141 PARIS ST, INTERLACHEN, FL, 32148",86075791,"L"
58925,"141 PEREGRINE AVE","PLANTATION","FL",33324,26.119178945,-80.2858281749999,425,"141 PEREGRINE AVE, PLANTATION, FL, 33324","Match","Exact","141 PEREGRINE AVE, PLANTATION, FL, 33324",114784409,"R"
58926,"141 PONDEROSA STREET","BISHOP","CA",93514,37.4937969750001,-118.342495966,426,"141 PONDEROSA STREET, BISHOP, CA, 93514","Match","Non_Exact","141 PONDEROSA, BISHOP, CA, 93514",639734181,"R"
58927,"141 PROSPECT BLVD","WATERLOO","IA",50701,42.4814978410001,-92.360080056,427,"141 PROSPECT BLVD, WATERLOO, IA, 50701","Match","Exact","141 PROSPECT BLVD, WATERLOO, IA, 50701",77253656,"L"
58928,"141 RETTGER STREET","ST MARYS","PA",15857,41.4333553980001,-78.545105542,428,"141 RETTGER STREET, ST MARYS, PA, 15857","Match","Exact","141 RETTGER ST, SAINT MARYS, PA, 15857",157856426,"L"
58929,"141 RICHARD COURT","EAST MEADOW","NY",11554,40.7196759010001,-73.569810901,429,"141 RICHARD COURT, EAST MEADOW, NY, 11554","Match","Exact","141 RICHARD CT, EAST MEADOW, NY, 11554",147632332,"L"
58930,"141 RIFLE GAP","UNIVERSAL CITY","TX",78148,29.535484282,-98.322379132,430,"141 RIFLE GAP, UNIVERSAL CITY, TX, 78148","Match","Exact","141 RIFLE GAP, UNIVERSAL CITY, TX, 78148",101504334,"R"
58931,"141 RINGNECK TRAIL","BLOOMINGDALE","IL",60108,41.9514334730001,-88.138669508,431,"141 RINGNECK TRAIL, BLOOMINGDALE, IL, 60108","Match","Non_Exact","141 RING NECK LN, BLOOMINGDALE, IL, 60108",112517483,"L"
58932,"141 ROB ROY RD","LAGRANGE","GA",30240,32.993691577,-85.104075974,432,"141 ROB ROY RD, LAGRANGE, GA, 30240","Match","Exact","141 ROB ROY RD, LAGRANGE, GA, 30240",1774692,"L"
58933,"141 ROBERT E LEE  BOX 266","NEW ORLEANS","LA",70124,30.020071607,-90.1115514099999,433,"141 ROBERT E LEE  BOX 266, NEW ORLEANS, LA, 70124","Match","Non_Exact","141 ROBERT E LEE BLVD, NEW ORLEANS, LA, 70124",191702739,"L"
58934,"141 ROBERT E LEE BLVD 280","NEW ORLEANS","LA",70124,30.020071607,-90.1115514099999,434,"141 ROBERT E LEE BLVD 280, NEW ORLEANS, LA, 70124","Match","Exact","141 ROBERT E LEE BLVD, NEW ORLEANS, LA, 70124",191702739,"L"
58935,"141 ROBERT E LEE BLVD 344","NEW ORLEANS","LA",70124,30.020071607,-90.1115514099999,435,"141 ROBERT E LEE BLVD 344, NEW ORLEANS, LA, 70124","Match","Exact","141 ROBERT E LEE BLVD, NEW ORLEANS, LA, 70124",191702739,"L"
58936,"141 ROBERT E LEE BLVD","NEW ORLEANS","LA",70124,30.020071607,-90.1115514099999,436,"141 ROBERT E LEE BLVD, NEW ORLEANS, LA, 70124","Match","Exact","141 ROBERT E LEE BLVD, NEW ORLEANS, LA, 70124",191702739,"L"
58937,"141 S BLACK HORSE PIKE - SUITE 2","BLACKWOOD","NJ",8012,NA,NA,437,"141 S BLACK HORSE PIKE - SUITE 2, BLACKWOOD, NJ, 8012","No_Match",NA,NA,NA,NA
58938,"141 S BLACK HORSE PIKE SUITE 106","BLACKWOOD","NJ",8012,NA,NA,438,"141 S BLACK HORSE PIKE SUITE 106, BLACKWOOD, NJ, 8012","No_Match",NA,NA,NA,NA
58939,"141 S FRASER STREET","STATE COLLEGE","PA",16801,40.7930020270001,-77.862017279,439,"141 S FRASER STREET, STATE COLLEGE, PA, 16801","Match","Exact","141 S FRASER ST, STATE COLLEGE, PA, 16801",50370662,"L"
58940,"141 S LAKESHORE DRIVE E6","RACINE","WI",53403,42.667269624,-87.8082892259999,440,"141 S LAKESHORE DRIVE E6, RACINE, WI, 53403","Match","Non_Exact","141 S LAKESHORE DR, RACINE, WI, 53403",79820471,"L"
58941,"141 S MAIN ST RM 210","DECATUR","IL",62523,NA,NA,441,"141 S MAIN ST RM 210, DECATUR, IL, 62523","Tie",NA,NA,NA,NA
58942,"141 S MARTHA","DEARBORN","MI",48124,42.311853247,-83.263312931,442,"141 S MARTHA, DEARBORN, MI, 48124","Match","Non_Exact","141 MARTHA ST, DEARBORN, MI, 48124",95503371,"L"
58943,"141 S MYERS ST  APT F","OCEANSIDE","CA",92054,NA,NA,443,"141 S MYERS ST  APT F, OCEANSIDE, CA, 92054","Tie",NA,NA,NA,NA
58944,"141 S PARK DR","STEPHENVILLE","TX",76401,32.2082346660001,-98.223629814,444,"141 S PARK DR, STEPHENVILLE, TX, 76401","Match","Exact","141 S PARK DR, STEPHENVILLE, TX, 76401",158524571,"L"
58945,"141 S PURCELL","PUEBLO WEST","CO",81007,38.3210088860001,-104.703444466,445,"141 S PURCELL, PUEBLO WEST, CO, 81007","Match","Non_Exact","141 S PURCELL BLVD, PUEBLO WEST, CO, 81007",105021655,"L"
58946,"141 S VISTA ST","LOS ANGELES","CA",90036,34.072701303,-118.352208006,446,"141 S VISTA ST, LOS ANGELES, CA, 90036","Match","Exact","141 S VISTA ST, LOS ANGELES, CA, 90036",141598654,"R"
58947,"141 SACO STREET","WESTBROOK","ME",4092,43.672148318,-70.3728035679999,447,"141 SACO STREET, WESTBROOK, ME, 4092","Match","Exact","141 SACO ST, WESTBROOK, ME, 04092",78023796,"R"
58948,"141 SALEM STREET","CHICO","CA",95928,39.729529122,-121.842693141,448,"141 SALEM STREET, CHICO, CA, 95928","Match","Exact","141 SALEM ST, CHICO, CA, 95928",68428600,"L"
58949,"141 SARATOGA AVE 1117","SANTA CLARA","CA",95051,NA,NA,449,"141 SARATOGA AVE 1117, SANTA CLARA, CA, 95051","No_Match",NA,NA,NA,NA
58950,"141 SAVAGE TRAIL","EAST STROUDSBURG","PA",18301,41.0450745840001,-75.169254924,450,"141 SAVAGE TRAIL, EAST STROUDSBURG, PA, 18301","Match","Exact","141 SAVAGE TRL, E STROUDSBURG, PA, 18301",136759931,"R"
58951,"141 SAVONA WALK","LONG BEACH","CA",90803,33.753998374,-118.119859828,451,"141 SAVONA WALK, LONG BEACH, CA, 90803","Match","Non_Exact","141 N SAVONA WALK, LONG BEACH, CA, 90803",141755170,"L"
58952,"141 SEMORA ROAD","ROXBORO","NC",27573,36.396898938,-79.005578341,452,"141 SEMORA ROAD, ROXBORO, NC, 27573","Match","Exact","141 SEMORA RD, ROXBORO, NC, 27573",77206881,"L"
58953,"141 SHAWMUT","CHELSEA","MA",2150,42.391530302,-71.032653571,453,"141 SHAWMUT, CHELSEA, MA, 2150","Match","Non_Exact","141 SHAWMUT ST, CHELSEA, MA, 02150",85711258,"R"
58954,"141 SHELTON STREET","BRIDGEPORT","CT",6608,41.1912105430001,-73.1864638979999,454,"141 SHELTON STREET, BRIDGEPORT, CT, 6608","Match","Exact","141 SHELTON ST, BRIDGEPORT, CT, 06608",3224706,"L"
58955,"141 SKYLINE DR","KERSEY","PA",15846,41.3590127840001,-78.601546266,455,"141 SKYLINE DR, KERSEY, PA, 15846","Match","Exact","141 SKYLINE DR, KERSEY, PA, 15846",634307101,"R"
58956,"141 SKYLINE DRIVE","BYRDSTOWN","TN",38549,36.576394212,-85.133622679,456,"141 SKYLINE DRIVE, BYRDSTOWN, TN, 38549","Match","Exact","141 SKYLINE DR, BYRDSTOWN, TN, 38549",612489205,"L"
58957,"141 SOUTH BURNET STREET","EAST ORANGE","NJ",7018,40.75957049,-74.218052359,457,"141 SOUTH BURNET STREET, EAST ORANGE, NJ, 7018","Match","Non_Exact","141 S BURNETT ST, EAST ORANGE, NJ, 07018",63450615,"R"
58958,"141 SOUTH HOWARD STREET","TEKOA","WA",99033,47.22354762,-117.070449413,458,"141 SOUTH HOWARD STREET, TEKOA, WA, 99033","Match","Non_Exact","141 HOWARD ST, TEKOA, WA, 99033",173301709,"L"
58959,"141 SOUTH RIVERSIDE AVE","RIALTO","CA",92376,34.0998269,-117.370264425,459,"141 SOUTH RIVERSIDE AVE, RIALTO, CA, 92376","Match","Exact","141 S RIVERSIDE AVE, RIALTO, CA, 92376",144701546,"R"
58960,"141 SOUTH SANDUSKY STREET","DELAWARE","OH",43015,40.2941656580001,-83.068148338,460,"141 SOUTH SANDUSKY STREET, DELAWARE, OH, 43015","Match","Exact","141 S SANDUSKY ST, DELAWARE, OH, 43015",24585655,"L"
58961,"141 SPENCER STREET UNIT 203","BROOKLYN","NY",11205,40.694183443,-73.9550879619999,461,"141 SPENCER STREET UNIT 203, BROOKLYN, NY, 11205","Match","Exact","141 SPENCER ST, BROOKLYN, NY, 11205",59078632,"L"
58962,"141 SPRUCE LANE","LAUREL SPRINGS","NC",28644,36.398705572,-81.207244917,462,"141 SPRUCE LANE, LAUREL SPRINGS, NC, 28644","Match","Exact","141 SPRUCE LN, LAUREL SPGS, NC, 28644",154024232,"L"
58963,"141 SPRUCETON ROAD","WEST KILL","NY",12492,42.205411197,-74.3820755089999,463,"141 SPRUCETON ROAD, WEST KILL, NY, 12492","Match","Exact","141 SPRUCETON RD, WEST KILL, NY, 12492",635789661,"R"
58964,"141 STODDARD RD","WATERBURY","CT",6708,41.5663410490001,-73.08034937,464,"141 STODDARD RD, WATERBURY, CT, 6708","Match","Exact","141 STODDARD RD, WATERBURY, CT, 06708",3741485,"R"
58965,"141 STODDARD ROAD","WATERBURY","CT",6708,41.5663410490001,-73.08034937,465,"141 STODDARD ROAD, WATERBURY, CT, 6708","Match","Exact","141 STODDARD RD, WATERBURY, CT, 06708",3741485,"R"
58966,"141 SUMMERS DRIVE","LOUISVILLE","KY",40229,38.064430977,-85.6893517789999,466,"141 SUMMERS DRIVE, LOUISVILLE, KY, 40229","Match","Exact","141 SUMMERS DR, LOUISVILLE, KY, 40229",47747319,"R"
58967,"141 SWEET BRIAR ROAD","STAMFORD","CT",6905,41.108742153,-73.526063431,467,"141 SWEET BRIAR ROAD, STAMFORD, CT, 6905","Match","Exact","141 SWEET BRIAR RD, STAMFORD, CT, 06905",3242846,"R"
58968,"141 TAYLOR ROAD","NATCHITOCHES","LA",71457,31.7462465520001,-93.1246768089999,468,"141 TAYLOR ROAD, NATCHITOCHES, LA, 71457","Match","Exact","141 TAYLOR RD, NATCHITOCHES, LA, 71457",13362530,"L"
58969,"141 TAYLOR ST","JACKSON","MS",39216,32.33288129,-90.183710436,469,"141 TAYLOR ST, JACKSON, MS, 39216","Match","Exact","141 TAYLOR ST, JACKSON, MS, 39216",65370483,"R"
58970,"141 THORNDIKE AVE","LAKEWOOD","NY",8701,NA,NA,470,"141 THORNDIKE AVE, LAKEWOOD, NY, 8701","No_Match",NA,NA,NA,NA
58971,"141 TIMBERLAKE DRIVE","LAKESIDE","MT",59922,48.0357958230001,-114.232298879,471,"141 TIMBERLAKE DRIVE, LAKESIDE, MT, 59922","Match","Non_Exact","141 TIMBER LAKE DR, LAKESIDE, MT, 59922",204094045,"R"
58972,"141 TOWNSHIP AVENUE SUITKENNETE 300","RIDGELAND","MS",39157,32.4440197770001,-90.1513495,472,"141 TOWNSHIP AVENUE SUITKENNETE 300, RIDGELAND, MS, 39157","Match","Exact","141 TOWNSHIP AVE, RIDGELAND, MS, 39157",649904188,"L"
58973,"141 TRACTION ST","GREENVILLE","SC",29611,34.843768228,-82.4251776259999,473,"141 TRACTION ST, GREENVILLE, SC, 29611","Match","Exact","141 TRACTION ST, GREENVILLE, SC, 29611",648664916,"R"
58974,"141 TREMONT STREET - 10F","BOSTON","MA",2111,NA,NA,474,"141 TREMONT STREET - 10F, BOSTON, MA, 2111","Tie",NA,NA,NA,NA
58975,"141 TUCKIE ROAD","NORTH WINDHAM","CT",6256,41.7187275950001,-72.172716314,475,"141 TUCKIE ROAD, NORTH WINDHAM, CT, 6256","Match","Exact","141 TUCKIE RD, NORTH WINDHAM, CT, 06256",626867177,"L"
58976,"141 UHLAND STREET","EAST RUTHERFORD","NJ",7073,40.8339426000001,-74.100537002,476,"141 UHLAND STREET, EAST RUTHERFORD, NJ, 7073","Match","Exact","141 UHLAND ST, E RUTHERFORD, NJ, 07073",64394978,"R"
58977,"141 UNION AVE STE 7","MIDDLESEX","NJ",8846,40.5673029760001,-74.522106712,477,"141 UNION AVE STE 7, MIDDLESEX, NJ, 8846","Match","Exact","141 UNION AVE, MIDDLESEX, NJ, 08846",60258463,"L"
58978,"141 VAUGHN ROAD","COLUMBUS","AR",71831,33.761540632,-93.840491035,478,"141 VAUGHN ROAD, COLUMBUS, AR, 71831","Match","Exact","141 VAUGHN RD, COLUMBUS, AR, 71831",73581175,"R"
58979,"141 VERONICA WAY","TAMUNING","GU",96913,13.5013501180001,144.774411071,479,"141 VERONICA WAY, TAMUNING, GU, 96913","Match","Exact","141 VERONICA WAY, TAMUNING, GU, 96913",204551150,"R"
58980,"141 VILLAGE ROAD","EAST BRIDGEWATER","MA",2333,42.03695127,-70.9644255709999,480,"141 VILLAGE ROAD, EAST BRIDGEWATER, MA, 2333","Match","Exact","141 VILLAGE RD, E BRIDGEWATER, MA, 02333",87445542,"R"
58981,"141 W 10TH ST APT 24","NEW YORK","NY",10014,40.7345914910001,-74.000679098,481,"141 W 10TH ST APT 24, NEW YORK, NY, 10014","Match","Non_Exact","141 W 10TH ST, NEW YORK, NY, 10014",59660012,"R"
58982,"141 W 24TH ST APT 3","NEW YORK","NY",10011,40.744088236,-73.9935350929999,482,"141 W 24TH ST APT 3, NEW YORK, NY, 10011","Match","Non_Exact","141 W 24TH ST, NEW YORK, NY, 10011",642472021,"R"
58983,"141 W 5TH","OXNARD","CA",93030,34.19766701,-119.177881879,483,"141 W 5TH, OXNARD, CA, 93030","Match","Non_Exact","141 W 5TH ST, OXNARD, CA, 93030",109962110,"R"
58984,"141 W 72ND ST 4","NEW YORK","NY",10023,40.7779318670001,-73.980007396,484,"141 W 72ND ST 4, NEW YORK, NY, 10023","Match","Non_Exact","141 W 72ND ST, NEW YORK, NY, 10023",59656999,"R"
58985,"141 W CHAPARRAL DRIVE","BLYTHE","CA",92225,33.621707568,-114.598180307,485,"141 W CHAPARRAL DRIVE, BLYTHE, CA, 92225","Match","Exact","141 W CHAPARRAL DR, BLYTHE, CA, 92225",639035579,"R"
58986,"141 W JACKSON AVE G4","WEST MEMPHIS","AR",72301,NA,NA,486,"141 W JACKSON AVE G4, WEST MEMPHIS, AR, 72301","Tie",NA,NA,NA,NA
58987,"141 W JACKSON BLVD SUITE 300A","CHICAGO","IL",60604,NA,NA,487,"141 W JACKSON BLVD SUITE 300A, CHICAGO, IL, 60604","No_Match",NA,NA,NA,NA
58988,"141 W JOHNSTOWN RD","GAHANNA","OH",43230,40.018044978,-82.8832599579999,488,"141 W JOHNSTOWN RD, GAHANNA, OH, 43230","Match","Exact","141 W JOHNSTOWN RD, GAHANNA, OH, 43230",218655629,"L"
58989,"141 W MAIN ST","HOMER","MI",49245,42.145748853,-84.807900804,489,"141 W MAIN ST, HOMER, MI, 49245","Match","Exact","141 W MAIN ST, HOMER, MI, 49245",11708352,"L"
58990,"141 W MAIN ST","JASONVILLE","IN",47438,39.1630856240001,-87.1997708169999,490,"141 W MAIN ST, JASONVILLE, IN, 47438","Match","Exact","141 W MAIN ST, JASONVILLE, IN, 47438",39300663,"R"
58991,"141 W PULTENEY ST- 304","SOUTH CORNING","NY",14830,NA,NA,491,"141 W PULTENEY ST- 304, SOUTH CORNING, NY, 14830","No_Match",NA,NA,NA,NA
58992,"141 W PULTENEY ST-304","SOUTH CORNING","NY",14830,NA,NA,492,"141 W PULTENEY ST-304, SOUTH CORNING, NY, 14830","No_Match",NA,NA,NA,NA
58993,"141 WAITE FARMS LN","BRUNSWICK","OH",44212,41.2730274140001,-81.802957877,493,"141 WAITE FARMS LN, BRUNSWICK, OH, 44212","Match","Exact","141 WAITE FARMS LN, BRUNSWICK, OH, 44212",643092176,"L"
58994,"141 WALDEN DR","GLEN CARBON","IL",62034,38.762586205,-89.994229144,494,"141 WALDEN DR, GLEN CARBON, IL, 62034","Match","Exact","141 WALDEN DR, GLEN CARBON, IL, 62034",107783130,"L"
58995,"141 WALKER CIR","STATENVILLE","GA",31648,30.704828908,-83.0269465819999,495,"141 WALKER CIR, STATENVILLE, GA, 31648","Match","Exact","141 WALKER CIR, STATENVILLE, GA, 31648",5209111,"R"
58996,"141 WARWICK ST SE","MINNEAPOLIS","MN",55414,44.9638064580001,-93.211509242,496,"141 WARWICK ST SE, MINNEAPOLIS, MN, 55414","Match","Exact","141 WARWICK ST SE, MINNEAPOLIS, MN, 55414",43638807,"L"
58997,"141 WATERSIDE AVENUE","NORTHPORT","NY",11768,40.909965647,-73.32916318,497,"141 WATERSIDE AVENUE, NORTHPORT, NY, 11768","Match","Exact","141 WATERSIDE AVE, NORTHPORT, NY, 11768",114037818,"L"
58998,"141 WEST 5TH STREET  UNIT 4087","CHICO","CA",95927,39.7280211670001,-121.838394274,498,"141 WEST 5TH STREET  UNIT 4087, CHICO, CA, 95927","Match","Non_Exact","141 W 5TH ST, CHICO, CA, 95928",68428649,"L"
58999,"141 WEST BAILEY ROAD","NAPERVILLE","IL",60565,41.741264637,-88.138009561,499,"141 WEST BAILEY ROAD, NAPERVILLE, IL, 60565","Match","Exact","141 W BAILEY RD, NAPERVILLE, IL, 60565",649654983,"R"
59000,"141 WEST NEWELL STREET","SYRACUSE","NY",13205,43.017863601,-76.143216746,500,"141 WEST NEWELL STREET, SYRACUSE, NY, 13205","Match","Exact","141 W NEWELL ST, SYRACUSE, NY, 13205",46622949,"L"
