"ID","Address","City","State","Zip","lat","long","id","input_address","match_indicator","match_type","matched_address","tiger_line_id","tiger_side"
26501,"1134 BELVEDERE ST UNIT B","CINCINNATI","OH",45202,39.1082253340001,-84.4968767089999,1,"1134 BELVEDERE ST UNIT B, CINCINNATI, OH, 45202","Match","Exact","1134 BELVEDERE ST, CINCINNATI, OH, 45202",103937033,"R"
26502,"1134 BERGER ST","UNIT B","TX",78721,30.2713629090001,-97.686979015,2,"1134 BERGER ST, UNIT B, TX, 78721","Match","Non_Exact","1134 BERGER ST, AUSTIN, TX, 78721",63977470,"L"
26503,"1134 BLANDING BLVD","ORANGE PARK","FL",32065,30.130301364,-81.7870405789999,3,"1134 BLANDING BLVD, ORANGE PARK, FL, 32065","Match","Exact","1134 BLANDING BLVD, ORANGE PARK, FL, 32065",636070124,"L"
26504,"1134 BRAVE STREET HOUSE 44","ROSEBUD","SD",57570,NA,NA,4,"1134 BRAVE STREET HOUSE 44, ROSEBUD, SD, 57570","No_Match",NA,NA,NA,NA
26505,"1134 CAYUGA DR","GRAND BLANC","MI",48439,42.9421956580001,-83.687205881,5,"1134 CAYUGA DR, GRAND BLANC, MI, 48439","Match","Exact","1134 CAYUGA DR, GRAND BLANC, MI, 48439",69576262,"L"
26506,"1134 COMSTOCK DR","LAS VEGAS","NV",89106,36.183456001,-115.16537347,6,"1134 COMSTOCK DR, LAS VEGAS, NV, 89106","Match","Exact","1134 COMSTOCK DR, LAS VEGAS, NV, 89106",201865025,"R"
26507,"1134 COMSTOCK DRIVE","LAS VEGAS","NV",89106,36.183456001,-115.16537347,7,"1134 COMSTOCK DRIVE, LAS VEGAS, NV, 89106","Match","Exact","1134 COMSTOCK DR, LAS VEGAS, NV, 89106",201865025,"R"
26508,"1134 COVENTRY LANE","BOLINGBROOK","IL",60440,41.692736407,-88.11746814,8,"1134 COVENTRY LANE, BOLINGBROOK, IL, 60440","Match","Exact","1134 COVENTRY LN, BOLINGBROOK, IL, 60440",111583063,"L"
26509,"1134 CREIGHTON","PENSACOLA","FL",32504,NA,NA,9,"1134 CREIGHTON, PENSACOLA, FL, 32504","No_Match",NA,NA,NA,NA
26510,"1134 CROOKED OAK DR","PAWLEYS ISLAND","SC",29585,33.479106906,-79.119692178,10,"1134 CROOKED OAK DR, PAWLEYS ISLAND, SC, 29585","Match","Exact","1134 CROOKED OAK DR, PAWLEYS ISLAND, SC, 29585",28963690,"L"
26511,"1134 E 152ND STREET","DOLTON","IL",60419,41.619009127,-87.589091302,11,"1134 E 152ND STREET, DOLTON, IL, 60419","Match","Exact","1134 E 152ND ST, DOLTON, IL, 60419",111780236,"L"
26512,"1134 E 81 ST UNIT E","CHICAGO","IL",60619,NA,NA,12,"1134 E 81 ST UNIT E, CHICAGO, IL, 60619","No_Match",NA,NA,NA,NA
26513,"1134 E GORHAM STREET","MADISON","WI",53703,43.0880880620001,-89.372802015,13,"1134 E GORHAM STREET, MADISON, WI, 53703","Match","Exact","1134 E GORHAM ST, MADISON, WI, 53703",49472186,"L"
26514,"1134 EAST HIGH STREET","CHARLOTTESVILLE","VA",22902,NA,NA,14,"1134 EAST HIGH STREET, CHARLOTTESVILLE, VA, 22902","No_Match",NA,NA,NA,NA
26515,"1134 EAST MCKINLEY AVE","SAPULPA","OK",74066,35.994499552,-96.099567182,15,"1134 EAST MCKINLEY AVE, SAPULPA, OK, 74066","Match","Exact","1134 E MCKINLEY AVE, SAPULPA, OK, 74066",165865515,"R"
26516,"1134 FIELDSTONR DR","MCDONOUGH","GA",30253,NA,NA,16,"1134 FIELDSTONR DR, MCDONOUGH, GA, 30253","No_Match",NA,NA,NA,NA
26517,"1134 FLAGMORE DRIVE","KATY","TX",77450,29.7673562700001,-95.73208325,17,"1134 FLAGMORE DRIVE, KATY, TX, 77450","Match","Exact","1134 FLAGMORE DR, KATY, TX, 77450",96016505,"L"
26518,"1134 GIANT DRIVE","BLUE EARTH","MN",56013,43.651008534,-94.094531613,18,"1134 GIANT DRIVE, BLUE EARTH, MN, 56013","Match","Exact","1134 GIANT DR, BLUE EARTH, MN, 56013",28617733,"R"
26519,"1134 HALYARD DR","SANTA ROSA","CA",95401,38.4470496100001,-122.759738485,19,"1134 HALYARD DR, SANTA ROSA, CA, 95401","Match","Exact","1134 HALYARD DR, SANTA ROSA, CA, 95401",67520278,"R"
26520,"1134 HAWTHORNE STREET NE","ATLANTA","GA",30319,33.75461798,-84.351049996,20,"1134 HAWTHORNE STREET NE, ATLANTA, GA, 30319","Match","Non_Exact","1134 HAWTHORNE ST NE, ATLANTA, GA, 30307",17358009,"L"
26521,"1134 LEEWARD DRIVE","FLORENCE","OR",97439,NA,NA,21,"1134 LEEWARD DRIVE, FLORENCE, OR, 97439","No_Match",NA,NA,NA,NA
26522,"1134 LONGSTAFF STREET","MISSOULA","MT",59801,46.8581345810001,-114.016932529,22,"1134 LONGSTAFF STREET, MISSOULA, MT, 59801","Match","Exact","1134 LONGSTAFF ST, MISSOULA, MT, 59801",205238704,"L"
26523,"1134 MARY AVE","ALBANY","GA",31707,31.5810682790001,-84.181329945,23,"1134 MARY AVE, ALBANY, GA, 31707","Match","Exact","1134 MARY AVE, ALBANY, GA, 31707",618684731,"L"
26524,"1134 MOLOKAI DRIVE","TEGA CAY","SC",29708,35.0299595340001,-81.016774669,24,"1134 MOLOKAI DRIVE, TEGA CAY, SC, 29708","Match","Exact","1134 MOLOKAI DR, TEGA CAY, SC, 29708",19798880,"R"
26525,"1134 MUD RD","MADISON","VA",22727,38.386970562,-78.2531392179999,25,"1134 MUD RD, MADISON, VA, 22727","Match","Exact","1134 MUD RD, MADISON, VA, 22727",29589144,"R"
26526,"1134 PLATO TERRACE","LOUISVILLE","KY",40211,38.241680343,-85.828946139,26,"1134 PLATO TERRACE, LOUISVILLE, KY, 40211","Match","Exact","1134 PLATO TER, LOUISVILLE, KY, 40211",96836441,"R"
26527,"1134 RIVERVIEW DRIVE","WEST POINT","KY",40177,38.0001062910001,-85.95492434,27,"1134 RIVERVIEW DRIVE, WEST POINT, KY, 40177","Match","Exact","1134 RIVERVIEW DR, WEST POINT, KY, 40177",34631846,"L"
26528,"1134 ROSEDALE AVENUE","BRONX","NY",10472,40.8282211980001,-73.868398966,28,"1134 ROSEDALE AVENUE, BRONX, NY, 10472","Match","Exact","1134 ROSEDALE AVE, BRONX, NY, 10472",80304848,"R"
26529,"1134 S LINDEN ROAD STE 6","FLINT","MI",48532,43.012615774,-83.7729568949999,29,"1134 S LINDEN ROAD STE 6, FLINT, MI, 48532","Match","Exact","1134 LINDEN RD, FLINT, MI, 48532",69606200,"R"
26530,"1134 S REGIONAL PARK RD","HURRICANE","UT",84737,NA,NA,30,"1134 S REGIONAL PARK RD, HURRICANE, UT, 84737","No_Match",NA,NA,NA,NA
26531,"1134 SHERWOOD AVENUE","BALTIMORE","MD",21239,39.3658050490001,-76.5956300409999,31,"1134 SHERWOOD AVENUE, BALTIMORE, MD, 21239","Match","Exact","1134 SHERWOOD AVE, BALTIMORE, MD, 21239",206437153,"L"
26532,"1134 SHILOH ROAD","SENECA","SC",29678,34.670697267,-82.897877734,32,"1134 SHILOH ROAD, SENECA, SC, 29678","Match","Exact","1134 SHILOH RD, SENECA, SC, 29678",25676515,"L"
26533,"1134 SOUTH MAYFIELD AVE","CHICAGO","IL",60644,41.8663986110001,-87.771709315,33,"1134 SOUTH MAYFIELD AVE, CHICAGO, IL, 60644","Match","Exact","1134 S MAYFIELD AVE, CHICAGO, IL, 60644",605077131,"R"
26534,"1134 SOUTH STREET","POTTSTOWN","PA",19464,40.2419445840001,-75.625271593,34,"1134 SOUTH STREET, POTTSTOWN, PA, 19464","Match","Exact","1134 SOUTH ST, POTTSTOWN, PA, 19464",135063443,"R"
26535,"1134 SPRING LAKE DRIVE","DUNCANVILLE","TX",75137,32.6385045860001,-96.926583867,35,"1134 SPRING LAKE DRIVE, DUNCANVILLE, TX, 75137","Match","Exact","1134 SPRING LAKE DR, DUNCANVILLE, TX, 75137",102942113,"L"
26536,"1134 SPRUCE STREET","CHESTER","PA",19013,39.8575265170001,-75.356720695,36,"1134 SPRUCE STREET, CHESTER, PA, 19013","Match","Exact","1134 SPRUCE ST, CHESTER, PA, 19013",134881710,"L"
26537,"1134 ST PAUL STREET","INDIANAPOLIS","IN",46203,39.7518646720001,-86.123260714,37,"1134 ST PAUL STREET, INDIANAPOLIS, IN, 46203","Match","Exact","1134 ST PAUL ST, INDIANAPOLIS, IN, 46203",107994285,"R"
26538,"1134 TECUMSEH STREET","INDIANAPOLIS","IN",46201,39.782867821,-86.1264810759999,38,"1134 TECUMSEH STREET, INDIANAPOLIS, IN, 46201","Match","Exact","1134 TECUMSEH ST, INDIANAPOLIS, IN, 46201",107991033,"L"
26539,"1134 WEST GRAND STREET","PHOENIX","AZ",85007,33.4408992470001,-112.087423898,39,"1134 WEST GRAND STREET, PHOENIX, AZ, 85007","Match","Non_Exact","1134 W GRANT ST, PHOENIX, AZ, 85007",128211999,"R"
26540,"1134 WEST LEXINGTON STREET","BALTIMORE","MD",21223,39.2909476450001,-76.635455516,40,"1134 WEST LEXINGTON STREET, BALTIMORE, MD, 21223","Match","Exact","1134 W LEXINGTON ST, BALTIMORE, MD, 21223",206417727,"R"
26541,"1134 WEST ONONDAGA STREET","SYRACUSE","NY",13204,43.034083551,-76.1709031949999,41,"1134 WEST ONONDAGA STREET, SYRACUSE, NY, 13204","Match","Exact","1134 W ONONDAGA ST, SYRACUSE, NY, 13204",46569955,"R"
26542,"1134 WEST VERBENA DRIVE","MERIDIAN","ID",83642,43.5949524820001,-116.407218839,42,"1134 WEST VERBENA DRIVE, MERIDIAN, ID, 83642","Match","Exact","1134 W VERBENA DR, MERIDIAN, ID, 83642",117895267,"L"
26543,"11340 HENDLEY DRIVE","STUDIO CITY","CA",91604,34.138263098,-118.376690389,43,"11340 HENDLEY DRIVE, STUDIO CITY, CA, 91604","Match","Exact","11340 HENDLEY DR, STUDIO CITY, CA, 91604",141566071,"L"
26544,"11340 HIGHWAY 37","HIBBING","MN",55746,47.395544699,-92.8740041409999,44,"11340 HIGHWAY 37, HIBBING, MN, 55746","Match","Non_Exact","11340 STATE HWY 37, HIBBING, MN, 55746",163169065,"L"
26545,"11340 LAKEFIELD DRIVE 150","JOHNS CREEK","GA",30097,34.0578044310001,-84.170691087,45,"11340 LAKEFIELD DRIVE 150, JOHNS CREEK, GA, 30097","Match","Exact","11340 LAKEFIELD DR, JOHNS CREEK, GA, 30097",642677304,"L"
26546,"11340 LAKEFIELD DRIVE SUITE 200","JOHNS CREEK","GA",30097,34.0578044310001,-84.170691087,46,"11340 LAKEFIELD DRIVE SUITE 200, JOHNS CREEK, GA, 30097","Match","Exact","11340 LAKEFIELD DR, JOHNS CREEK, GA, 30097",642677304,"L"
26547,"11340 LENOX LANE","FRISCO","TX",75034,33.1714232250001,-96.8559284729999,47,"11340 LENOX LANE, FRISCO, TX, 75034","Match","Non_Exact","11340 LENOX LN, FRISCO, TX, 75033",653235713,"L"
26548,"11340 NE 50TH","SPENCER","OK",73084,35.5220321300001,-97.3299588,48,"11340 NE 50TH, SPENCER, OK, 73084","Match","Non_Exact","11340 NE 50TH ST, SPENCER, OK, 73084",100417150,"R"
26549,"11340 SW 56 ST","MIAMI","FL",33165,25.715029536,-80.377894311,49,"11340 SW 56 ST, MIAMI, FL, 33165","Match","Exact","11340 SW 56TH ST, MIAMI, FL, 33165",115972254,"L"
26550,"11340 V C JOHNSON RD","JACKSONVILLE","FL",32218,30.4405100110001,-81.733428918,50,"11340 V C JOHNSON RD, JACKSONVILLE, FL, 32218","Match","Exact","11340 V C JOHNSON RD, JACKSONVILLE, FL, 32218",83937283,"L"
26551,"11340 WILLOW HILL DRIVE","CHESTERLAND","OH",44026,41.561737527,-81.358662999,51,"11340 WILLOW HILL DRIVE, CHESTERLAND, OH, 44026","Match","Exact","11340 WILLOW HILL DR, CHESTERLAND, OH, 44026",137432789,"R"
26552,"11340","MCLEAN","VA",22102,NA,NA,52,"11340, MCLEAN, VA, 22102","No_Match",NA,NA,NA,NA
26553,"11341 CARTER HEIGHTS RD","ASHLAND","VA",23005,37.717574884,-77.453911192,53,"11341 CARTER HEIGHTS RD, ASHLAND, VA, 23005","Match","Non_Exact","11341 CARTERS HEIGHTS RD, ASHLAND, VA, 23005",84985331,"R"
26554,"11341 GROOMS RD","BLUE ASH","OH",45242,39.281089041,-84.367248305,54,"11341 GROOMS RD, BLUE ASH, OH, 45242","Match","Exact","11341 GROOMS RD, BLUE ASH, OH, 45242",103945309,"L"
26555,"11342 MICHELLE WAY","HAMPTON","GA",30228,33.4448145170001,-84.318841715,55,"11342 MICHELLE WAY, HAMPTON, GA, 30228","Match","Exact","11342 MICHELLE WAY, HAMPTON, GA, 30228",640499979,"L"
26556,"11342 SW 230 TERR","MIAMI","FL",33170,25.553110078,-80.3748978959999,56,"11342 SW 230 TERR, MIAMI, FL, 33170","Match","Exact","11342 SW 230TH TER, MIAMI, FL, 33170",624048835,"R"
26557,"11343 50TH ST NE","ALBERTVILLE","MN",55301,45.224479983,-93.657736394,57,"11343 50TH ST NE, ALBERTVILLE, MN, 55301","Match","Exact","11343 50TH ST NE, ALBERTVILLE, MN, 55301",44010649,"L"
26558,"11343 E SAINT JOSEPH ST","INDIANAPOLIS","IN",46229,39.7816733720001,-85.9642229459999,58,"11343 E SAINT JOSEPH ST, INDIANAPOLIS, IN, 46229","Match","Exact","11343 E ST JOSEPH ST, INDIANAPOLIS, IN, 46229",108017994,"L"
26559,"11343 E ST JOSEPH","INDIANAPOLIS","IN",46229,39.7816733720001,-85.9642229459999,59,"11343 E ST JOSEPH, INDIANAPOLIS, IN, 46229","Match","Non_Exact","11343 E ST JOSEPH ST, INDIANAPOLIS, IN, 46229",108017994,"L"
26560,"11344 EMERALD SHORE DR","RIVERVIEW","FL",33579,27.820990899,-82.317289671,60,"11344 EMERALD SHORE DR, RIVERVIEW, FL, 33579","Match","Exact","11344 EMERALD SHORE DR, RIVERVIEW, FL, 33579",651205941,"L"
26561,"11344 HILLCREST DR","CONROE","TX",77303,30.39643462,-95.298900736,61,"11344 HILLCREST DR, CONROE, TX, 77303","Match","Exact","11344 HILLCREST DR, CONROE, TX, 77303",79267732,"R"
26562,"11345 19TH AVE NE","SEATTLE","WA",98125,47.710797052,-122.30814089,62,"11345 19TH AVE NE, SEATTLE, WA, 98125","Match","Exact","11345 19TH AVE NE, SEATTLE, WA, 98125",186584512,"L"
26563,"11345 AVERING LANE","AUSTIN","TX",78754,30.346821629,-97.6111088499999,63,"11345 AVERING LANE, AUSTIN, TX, 78754","Match","Exact","11345 AVERING LN, AUSTIN, TX, 78754",63983091,"R"
26564,"11345 COUNTRYWAY BLVD","TAMPA","FL",33626,28.0547642550001,-82.623743517,64,"11345 COUNTRYWAY BLVD, TAMPA, FL, 33626","Match","Exact","11345 COUNTRYWAY BLVD, TAMPA, FL, 33626",104578636,"R"
26565,"11345 EASTEX FREEWAY STE B","HOUSTON","TX",77093,NA,NA,65,"11345 EASTEX FREEWAY STE B, HOUSTON, TX, 77093","No_Match",NA,NA,NA,NA
26566,"11345 FOLSOM BLVD","RANCHO CORDOVA","CA",95742,38.6107752,-121.259083415,66,"11345 FOLSOM BLVD, RANCHO CORDOVA, CA, 95742","Match","Exact","11345 FOLSOM BLVD, RANCHO CORDOVA, CA, 95742",133347207,"L"
26567,"11345 MONTGOMERY AVE","GRANADA HILLS","CA",91344,34.276039387,-118.481912942,67,"11345 MONTGOMERY AVE, GRANADA HILLS, CA, 91344","Match","Exact","11345 MONTGOMERY AVE, GRANADA HILLS, CA, 91344",141543200,"L"
26568,"11345 ROBERT TRENT JONES PARKWAY","TRINITY","FL",34655,28.180134588,-82.621331692,68,"11345 ROBERT TRENT JONES PARKWAY, TRINITY, FL, 34655","Match","Exact","11345 ROBERT TRENT JONES PKWY, TRINITY, FL, 34655",653666721,"L"
26569,"11345 SILVER LAKE ROAD","BRIGHTON","MI",48116,42.476743926,-83.7178391959999,69,"11345 SILVER LAKE ROAD, BRIGHTON, MI, 48116","Match","Exact","11345 SILVER LAKE RD, BRIGHTON, MI, 48116",653389454,"R"
26570,"11345 STRATTON AVENUE APT 122","EDEN PRAIRIE","MN",55344,44.851962659,-93.420139126,70,"11345 STRATTON AVENUE APT 122, EDEN PRAIRIE, MN, 55344","Match","Exact","11345 STRATTON AVE, EDEN PRAIRIE, MN, 55344",647768896,"R"
26571,"11345 SW ESSEX DR","LAKE SUZY","FL",34269,27.0354015780001,-82.0469841889999,71,"11345 SW ESSEX DR, LAKE SUZY, FL, 34269","Match","Exact","11345 SW ESSEX DR, LAKE SUZY, FL, 34269",16174030,"L"
26572,"11346 BLANTON VIEW DRIVE","WAYNE","OK",73095,34.8765806420001,-97.371147185,72,"11346 BLANTON VIEW DRIVE, WAYNE, OK, 73095","Match","Non_Exact","11346 BLANTON VIEW AVE, WAYNE, OK, 73095",58364045,"R"
26573,"11346 SW BARTON WAY","PORT ST LUCIE","FL",34987,27.2586202570001,-80.438926365,73,"11346 SW BARTON WAY, PORT ST LUCIE, FL, 34987","Match","Exact","11346 BARTON WAY, PORT ST LUCIE, FL, 34987",649970928,"L"
26574,"11347 E OLD VAIL RD","TUCSON","AZ",85747,32.07343508,-110.749866996,74,"11347 E OLD VAIL RD, TUCSON, AZ, 85747","Match","Exact","11347 E OLD VAIL RD, TUCSON, AZ, 85747",630318961,"R"
26575,"11347 N WATERFORD LOOP ROAD","POST FALLS","ID",83854,47.77510054,-117.036998711,75,"11347 N WATERFORD LOOP ROAD, POST FALLS, ID, 83854","Match","Non_Exact","11347 N WATERFORD LOOP, POST FALLS, ID, 83854",192949461,"R"
26576,"11347 W 500 S","NEW ROSS","IN",47968,NA,NA,76,"11347 W 500 S, NEW ROSS, IN, 47968","No_Match",NA,NA,NA,NA
26577,"11348 BENNY EMLER DRIVE","EL PASO","TX",79934,31.9406424810001,-106.412494494,77,"11348 BENNY EMLER DRIVE, EL PASO, TX, 79934","Match","Exact","11348 BENNY EMLER DR, EL PASO, TX, 79934",618932757,"L"
26578,"11348 HASTINGS STREET NE","BLAINE","MN",55449,45.1767845480001,-93.225555303,78,"11348 HASTINGS STREET NE, BLAINE, MN, 55449","Match","Exact","11348 HASTINGS ST NE, BLAINE, MN, 55449",631584991,"R"
26579,"11348 KAYLA DR","HAMPTON","GA",30228,33.445439918,-84.3175613659999,79,"11348 KAYLA DR, HAMPTON, GA, 30228","Match","Exact","11348 KAYLA DR, HAMPTON, GA, 30228",640499975,"R"
26580,"11348 S ST LAWRENCE","CHICAGO","IL",60628,41.68782192,-87.608318728,80,"11348 S ST LAWRENCE, CHICAGO, IL, 60628","Match","Non_Exact","11348 S ST LAWRENCE AVE, CHICAGO, IL, 60628",605517765,"R"
26581,"11349 PALOMA WAY","SANDY","UT",84094,40.545439914,-111.859790635,81,"11349 PALOMA WAY, SANDY, UT, 84094","Match","Non_Exact","11349 S PALOMA WAY, SANDY, UT, 84094",176092775,"L"
26582,"1135 10TH STREET N","HUDSON","WI",54016,45.007017863,-92.745998489,82,"1135 10TH STREET N, HUDSON, WI, 54016","Match","Exact","1135 10TH ST N, HUDSON, WI, 54016",612039141,"L"
26583,"1135 12TH STREET","SPARKS","NV",89431,39.5441394060001,-119.758320489,83,"1135 12TH STREET, SPARKS, NV, 89431","Match","Exact","1135 12TH ST, SPARKS, NV, 89431",611876124,"L"
26584,"1135 14TH ST","CODY","WY",82414,44.5258523590001,-109.060168694,84,"1135 14TH ST, CODY, WY, 82414","Match","Exact","1135 14TH ST, CODY, WY, 82414",612521751,"L"
26585,"1135 17TH PL SW","VERO BEACH","FL",32962,27.571047005,-80.395896251,85,"1135 17TH PL SW, VERO BEACH, FL, 32962","Match","Exact","1135 17TH PL SW, VERO BEACH, FL, 32962",120317285,"L"
26586,"1135 22ND STREET","SARASOTA","FL",34234,27.356155245,-82.5489434959999,86,"1135 22ND STREET, SARASOTA, FL, 34234","Match","Exact","1135 22ND ST, SARASOTA, FL, 34234",16346910,"L"
26587,"1135 29TH STREET","NEWPORT NEWS","VA",23607,36.989182198,-76.409647777,87,"1135 29TH STREET, NEWPORT NEWS, VA, 23607","Match","Exact","1135 29TH ST, NEWPORT NEWS, VA, 23607",103746642,"L"
26588,"1135 37TH STREET","NEWPORT NEWS","VA",23607,36.9942953930001,-76.412814054,88,"1135 37TH STREET, NEWPORT NEWS, VA, 23607","Match","Exact","1135 37TH ST, NEWPORT NEWS, VA, 23607",103746390,"L"
26589,"1135 65TH INF ITURREGUI PLAZA 225","SAN JUAN","PR",924,NA,NA,89,"1135 65TH INF ITURREGUI PLAZA 225, SAN JUAN, PR, 924","No_Match",NA,NA,NA,NA
26590,"1135 AMANDA LANE","SEGUIN","TX",78155,29.503962931,-97.925115421,90,"1135 AMANDA LANE, SEGUIN, TX, 78155","Match","Exact","1135 AMANDA LN, SEGUIN, TX, 78155",54836300,"L"
26591,"1135 ARLINGTON AVENUE","LOS ANGELES","CA",90019,34.049836821,-118.316449526,91,"1135 ARLINGTON AVENUE, LOS ANGELES, CA, 90019","Match","Exact","1135 ARLINGTON AVE, LOS ANGELES, CA, 90019",141603756,"R"
26592,"1135 B 8TH COURT SW","VERO BEACH","FL",32962,27.582583492,-80.390704896,92,"1135 B 8TH COURT SW, VERO BEACH, FL, 32962","Match","Exact","1135 8TH CT SW, VERO BEACH, FL, 32962",636362564,"L"
26593,"1135 BEAUFAIT ST","DETROIT","MI",48207,42.348827027,-83.010193864,93,"1135 BEAUFAIT ST, DETROIT, MI, 48207","Match","Exact","1135 BEAUFAIT ST, DETROIT, MI, 48207",95483896,"L"
26594,"1135 BUTLER AVENUE","NEW CASTLE","PA",16101,40.990728114,-80.321805199,94,"1135 BUTLER AVENUE, NEW CASTLE, PA, 16101","Match","Exact","1135 BUTLER AVE, NEW CASTLE, PA, 16101",640412173,"R"
26595,"1135 CEDAR STREET","SOUTH BEND","IN",46619,41.6819447710001,-86.2335831509999,95,"1135 CEDAR STREET, SOUTH BEND, IN, 46619","Match","Non_Exact","1135 CEDAR ST, SOUTH BEND, IN, 46617",8088387,"L"
26596,"1135 CHARLES ST","LOUISVILLE","KY",40204,38.227926128,-85.7321544769999,96,"1135 CHARLES ST, LOUISVILLE, KY, 40204","Match","Exact","1135 CHARLES ST, LOUISVILLE, KY, 40204",618511602,"L"
26597,"1135 CIMARRON DR","LAFAYETTE","CO",80026,NA,NA,97,"1135 CIMARRON DR, LAFAYETTE, CO, 80026","No_Match",NA,NA,NA,NA
26598,"1135 COUNTY ROAD 1045","LAMPASAS","TX",76550,31.0783319280001,-98.1947777409999,98,"1135 COUNTY ROAD 1045, LAMPASAS, TX, 76550","Match","Exact","1135 CO RD 1045, LAMPASAS, TX, 76550",643510431,"L"
26599,"1135 CR 1045","LAMPASAS","TX",76550,31.0783319280001,-98.1947777409999,99,"1135 CR 1045, LAMPASAS, TX, 76550","Match","Exact","1135 CO RD 1045, LAMPASAS, TX, 76550",643510431,"L"
26600,"1135 CR 412/PO BOX 1144","GRANBY","CO",80446,NA,NA,100,"1135 CR 412/PO BOX 1144, GRANBY, CO, 80446","No_Match",NA,NA,NA,NA
26601,"1135 CRESTBROOK DR","CUMMING","GA",30040,34.232255772,-84.169612327,101,"1135 CRESTBROOK DR, CUMMING, GA, 30040","Match","Exact","1135 CRESTBROOK DR, CUMMING, GA, 30040",627547623,"L"
26602,"1135 CURRY FORD DR","FAYETTEVILLE","NC",28314,35.0448206130001,-79.0140797139999,102,"1135 CURRY FORD DR, FAYETTEVILLE, NC, 28314","Match","Non_Exact","1135 CURRY FORD RD, FAYETTEVILLE, NC, 28314",64227504,"L"
26603,"1135 CUSTER AVENUE","COLORADO SPRINGS","CO",80903,38.849209375,-104.805959292,103,"1135 CUSTER AVENUE, COLORADO SPRINGS, CO, 80903","Match","Exact","1135 CUSTER AVE, COLORADO SPRINGS, CO, 80903",105516488,"R"
26604,"1135 E 8TH N","MOUNTAIN HOME","ID",83647,43.1374573310001,-115.685422649,104,"1135 E 8TH N, MOUNTAIN HOME, ID, 83647","Match","Exact","1135 E 8TH N, MOUNTAIN HOME, ID, 83647",117615188,"R"
26605,"1135 E ROUTE 66 SUITE 206","GLENDORA","CA",91740,NA,NA,105,"1135 E ROUTE 66 SUITE 206, GLENDORA, CA, 91740","No_Match",NA,NA,NA,NA
26606,"1135 EAST 55TH STREET 1FL","BROOKLYN","NY",11234,40.6292800510001,-73.9231330219999,106,"1135 EAST 55TH STREET 1FL, BROOKLYN, NY, 11234","Match","Exact","1135 E 55TH ST, BROOKLYN, NY, 11234",59086098,"L"
26607,"1135 EAST 84TH STREET","LOS ANGELES","CA",90001,33.9629000420001,-118.255302125,107,"1135 EAST 84TH STREET, LOS ANGELES, CA, 90001","Match","Exact","1135 E 84TH ST, LOS ANGELES, CA, 90001",642862482,"L"
26608,"1135 FILBERT STREET","SAN FRANCISCO","CA",94109,37.8002606490001,-122.418194896,108,"1135 FILBERT STREET, SAN FRANCISCO, CA, 94109","Match","Exact","1135 FILBERT ST, SAN FRANCISCO, CA, 94109",192280273,"L"
26609,"1135 FLOWER LANE","SHERWOOD","MI",49089,42.0462518530001,-85.202477887,109,"1135 FLOWER LANE, SHERWOOD, MI, 49089","Match","Exact","1135 FLOWER LN, SHERWOOD, MI, 49089",8225889,"L"
26610,"1135 FOUR LAKES DRIVE SUITE C","MATTHEWS","NC",28105,35.1201055120001,-80.7049362719999,110,"1135 FOUR LAKES DRIVE SUITE C, MATTHEWS, NC, 28105","Match","Exact","1135 FOUR LAKES DR, MATTHEWS, NC, 28105",635861775,"R"
26611,"1135 FREDERICK BLVD","AKRON","OH",44320,41.0784538460001,-81.5728415039999,111,"1135 FREDERICK BLVD, AKRON, OH, 44320","Match","Exact","1135 FREDERICK BLVD, AKRON, OH, 44320",61338536,"L"
26612,"1135 FUTURITY DRIVE","YORK","PA",17404,39.9975075890001,-76.778033233,112,"1135 FUTURITY DRIVE, YORK, PA, 17404","Match","Exact","1135 FUTURITY DR, YORK, PA, 17404",88753384,"R"
26613,"1135 HEATHERSTONE DRIVE","FREDERICKSBURG","VA",22407,38.2921572290001,-77.5291086939999,113,"1135 HEATHERSTONE DRIVE, FREDERICKSBURG, VA, 22407","Match","Exact","1135 HEATHERSTONE DR, FREDERICKSBURG, VA, 22407",85003851,"R"
26614,"1135 ISLAY ST","SAN LUIS OBISPO","CA",93401,35.2785660750001,-120.655198243,114,"1135 ISLAY ST, SAN LUIS OBISPO, CA, 93401","Match","Exact","1135 ISLAY ST, SAN LUIS OBISPO, CA, 93401",109732233,"R"
26615,"1135 ITHACA STREET","MURFREESBORO","TN",37130,35.895658543,-86.367580843,115,"1135 ITHACA STREET, MURFREESBORO, TN, 37130","Match","Exact","1135 ITHACA ST, MURFREESBORO, TN, 37130",645532998,"L"
26616,"1135 KANE CONCOURSE 3RD FLR","BAY HARBOR ISLANDS","FL",33154,NA,NA,116,"1135 KANE CONCOURSE 3RD FLR, BAY HARBOR ISLANDS, FL, 33154","No_Match",NA,NA,NA,NA
26617,"1135 KILDAIRE FARM RD","CARY","NC",27511,35.767605218,-78.782367923,117,"1135 KILDAIRE FARM RD, CARY, NC, 27511","Match","Exact","1135 KILDAIRE FARM RD, CARY, NC, 27511",208367034,"R"
26618,"1135 KILDAIRE FRM ROAD STE200","CARY","NC",27511,NA,NA,118,"1135 KILDAIRE FRM ROAD STE200, CARY, NC, 27511","No_Match",NA,NA,NA,NA
26619,"1135 KINOOLE ST","HILO","HI",96720,19.711155224,-155.080052107,119,"1135 KINOOLE ST, HILO, HI, 96720","Match","Exact","1135 KINOOLE ST, HILO, HI, 96720",203001619,"R"
26620,"1135 KIRKHAM ST","OAKAND","CA",94607,37.807887421,-122.291300764,120,"1135 KIRKHAM ST, OAKAND, CA, 94607","Match","Non_Exact","1135 KIRKHAM ST, OAKLAND, CA, 94607",125051828,"R"
26621,"1135 KLARR CT NW","SALEM","OR",97304,44.9487335790001,-123.059897026,121,"1135 KLARR CT NW, SALEM, OR, 97304","Match","Exact","1135 KLARR CT NW, SALEM, OR, 97304",155779322,"R"
26622,"1135 LAKE STREET","GIRARD","PA",16417,42.006377838,-80.334132836,122,"1135 LAKE STREET, GIRARD, PA, 16417","Match","Exact","1135 LAKE ST, GIRARD, PA, 16417",117481450,"R"
26623,"1135 LAKESIDE AVE","BURLINGTON","NC",27217,36.1199768270001,-79.444213729,123,"1135 LAKESIDE AVE, BURLINGTON, NC, 27217","Match","Exact","1135 LAKESIDE AVE, BURLINGTON, NC, 27217",652546864,"L"
26624,"1135 MAKAWAO AVENUE PMB 223","MAKAWAO","HI",96768,20.8525197590001,-156.312011112,124,"1135 MAKAWAO AVENUE PMB 223, MAKAWAO, HI, 96768","Match","Exact","1135 MAKAWAO AVE, MAKAWAO, HI, 96768",634070377,"L"
26625,"1135 MARBELLA PLAZA DRIVE","TAMPA","FL",33619,NA,NA,125,"1135 MARBELLA PLAZA DRIVE, TAMPA, FL, 33619","No_Match",NA,NA,NA,NA
26626,"1135 MISSION ROAD","SAN ANTONIO","TX",78210,29.3857284480001,-98.489795409,126,"1135 MISSION ROAD, SAN ANTONIO, TX, 78210","Match","Exact","1135 MISSION RD, SAN ANTONIO, TX, 78210",101532878,"R"
26627,"1135 N LOGAN ST APT 202","DENVER","CO",80203,39.734254768,-104.982293909,127,"1135 N LOGAN ST APT 202, DENVER, CO, 80203","Match","Exact","1135 LOGAN ST, DENVER, CO, 80203",177305778,"L"
26628,"1135 N NORTON AVE","TUCSON","AZ",85719,32.2365201310001,-110.936673788,128,"1135 N NORTON AVE, TUCSON, AZ, 85719","Match","Exact","1135 N NORTON AVE, TUCSON, AZ, 85719",121174017,"L"
26629,"1135 N PENELOPE ST","BELTON","TX",76513,31.066571826,-97.4577478309999,129,"1135 N PENELOPE ST, BELTON, TX, 76513","Match","Exact","1135 N PENELOPE ST, BELTON, TX, 76513",146145796,"R"
26630,"1135 NORTH HOOVER","LOS ANGELES","CA",90029,34.0918809080001,-118.284549777,130,"1135 NORTH HOOVER, LOS ANGELES, CA, 90029","Match","Non_Exact","1135 N HOOVER ST, LOS ANGELES, CA, 90029",141604525,"L"
26631,"1135 NORTH WEST STREET","DUQUOIN","IL",62832,38.0206742300001,-89.2523966689999,131,"1135 NORTH WEST STREET, DUQUOIN, IL, 62832","Match","Non_Exact","1135 N WEST ST, DU QUOIN, IL, 62832",93119778,"L"
26632,"1135 NORTHFORK","BRANSON","MO",65616,36.649335438,-93.1927564389999,132,"1135 NORTHFORK, BRANSON, MO, 65616","Match","Exact","1135 NORTHFORK, BRANSON, MO, 65616",20165987,"R"
26633,"1135 NUGENT AVE","BAY SHORE","NY",11706,40.7556627060001,-73.2830090849999,133,"1135 NUGENT AVE, BAY SHORE, NY, 11706","Match","Exact","1135 NUGENT AVE, BAY SHORE, NY, 11706",113983100,"R"
26634,"1135 NW 22 AVE","MIAMI","FL",33125,25.783599028,-80.231259386,134,"1135 NW 22 AVE, MIAMI, FL, 33125","Match","Exact","1135 NW 22ND AVE, MIAMI, FL, 33125",116011525,"R"
26635,"1135 NW 23RD AVE SUITE K","GAINESVILLE","FL",32609,NA,NA,135,"1135 NW 23RD AVE SUITE K, GAINESVILLE, FL, 32609","Tie",NA,NA,NA,NA
26636,"1135 NW GALVESTON AVE","BEND","OR",97703,44.0566123720001,-121.328156384,136,"1135 NW GALVESTON AVE, BEND, OR, 97703","Match","Exact","1135 NW GALVESTON AVE, BEND, OR, 97703",152553968,"L"
26637,"1135 OAKLAND LANE SW APT D8","ATLANTA","GA",30310,33.719572602,-84.42535651,137,"1135 OAKLAND LANE SW APT D8, ATLANTA, GA, 30310","Match","Exact","1135 OAKLAND LN SW, ATLANTA, GA, 30310",618353737,"R"
26638,"1135 PANDION DR","WILMINGTON","NC",28411,NA,NA,138,"1135 PANDION DR, WILMINGTON, NC, 28411","No_Match",NA,NA,NA,NA
26639,"1135 PARKS BLVD","JACKSON","MS",39212,32.218776661,-90.3208457979999,139,"1135 PARKS BLVD, JACKSON, MS, 39212","Match","Exact","1135 PARKS BLVD, JACKSON, MS, 39212",65386485,"L"
26640,"1135 PASADENA AVE S STE 310","SOUTH PASADENA","FL",33707,27.759461507,-82.7359980379999,140,"1135 PASADENA AVE S STE 310, SOUTH PASADENA, FL, 33707","Match","Exact","1135 PASADENA AVE S, SOUTH PASADENA, FL, 33707",124698799,"R"
26641,"1135 PENLLYN BLUE BELL PIKE","BLUE BELL","PA",19422,40.147513933,-75.270447061,141,"1135 PENLLYN BLUE BELL PIKE, BLUE BELL, PA, 19422","Match","Exact","1135 PENLLYN BLUE BELL PIKE, BLUE BELL, PA, 19422",605618585,"R"
26642,"1135 PERRY STREET","BYRON CENTER","MI",49315,42.7969376770001,-85.811811575,142,"1135 PERRY STREET, BYRON CENTER, MI, 49315","Match","Exact","1135 PERRY ST, BYRON CENTER, MI, 49315",71084093,"L"
26643,"1135 PIEDMONT ROAD","SAN JOSE","CA",95132,37.3957008,-121.844975405,143,"1135 PIEDMONT ROAD, SAN JOSE, CA, 95132","Match","Exact","1135 PIEDMONT RD, SAN JOSE, CA, 95132",122964198,"L"
26644,"1135 REGINA DRIVE","HALETHORPE","MD",21227,39.258417745,-76.70035322,144,"1135 REGINA DRIVE, HALETHORPE, MD, 21227","Match","Exact","1135 REGINA DR, HALETHORPE, MD, 21227",191557256,"R"
26645,"1135 ROCK SPRINGS ROAD STE 120","SMYRNA","TN",37167,35.982886104,-86.549370669,145,"1135 ROCK SPRINGS ROAD STE 120, SMYRNA, TN, 37167","Match","Exact","1135 ROCK SPRINGS RD, SMYRNA, TN, 37167",606774002,"R"
26646,"1135 SCHMIDT LANE","NORTH BRUNSWICK","NJ",8902,40.454985204,-74.5049834549999,146,"1135 SCHMIDT LANE, NORTH BRUNSWICK, NJ, 8902","Match","Exact","1135 SCHMIDT LN, N BRUNSWICK, NJ, 08902",60360364,"R"
26647,"1135 SHERIDAN RD NE","ATLANTA","GA",30324,33.820400283,-84.350301497,147,"1135 SHERIDAN RD NE, ATLANTA, GA, 30324","Match","Exact","1135 SHERIDAN RD NE, ATLANTA, GA, 30324",17356456,"R"
26648,"1135 SOCORRO DR","PUNTA GORDA","FL",33950,26.908925251,-82.0748718089999,148,"1135 SOCORRO DR, PUNTA GORDA, FL, 33950","Match","Exact","1135 SOCORRO DR, PUNTA GORDA, FL, 33950",4307442,"L"
26649,"1135 SONORA CT","SUNNYVALE","CA",94086,37.371527703,-121.998570979,149,"1135 SONORA CT, SUNNYVALE, CA, 94086","Match","Exact","1135 SONORA CT, SUNNYVALE, CA, 94086",122897720,"L"
26650,"1135 SOUTH MAIN SUITE C","LAS CRUCES","NM",88005,NA,NA,150,"1135 SOUTH MAIN SUITE C, LAS CRUCES, NM, 88005","No_Match",NA,NA,NA,NA
26651,"1135 SUMMER RIDGE COURT","AUBURN","CA",95603,38.929865926,-121.075633334,151,"1135 SUMMER RIDGE COURT, AUBURN, CA, 95603","Match","Exact","1135 SUMMER RIDGE CT, AUBURN, CA, 95603",640821006,"L"
26652,"1135 TERMINAL WAY SUITE 209","RENO","NV",89502,39.5142259460001,-119.777436222,152,"1135 TERMINAL WAY SUITE 209, RENO, NV, 89502","Match","Exact","1135 TERMINAL WAY, RENO, NV, 89502",107103255,"R"
26653,"1135 W FARNUM AVE  APT 202","ROYAL OAK","MI",48067,NA,NA,153,"1135 W FARNUM AVE  APT 202, ROYAL OAK, MI, 48067","Tie",NA,NA,NA,NA
26654,"1135 W HAMILTON ST","SPRINGFIELD","MO",65802,37.2229642730001,-93.305644767,154,"1135 W HAMILTON ST, SPRINGFIELD, MO, 65802","Match","Exact","1135 W HAMILTON ST, SPRINGFIELD, MO, 65802",76673371,"R"
26655,"1135 WASHINGTON ST","EASTON","PA",18042,40.686664148,-75.225190572,155,"1135 WASHINGTON ST, EASTON, PA, 18042","Match","Exact","1135 WASHINGTON ST, EASTON, PA, 18042",136882938,"R"
26656,"1135 WEEPING WILLOW WAY","HOLLYWOOD","FL",33019,26.0214450550001,-80.126811125,156,"1135 WEEPING WILLOW WAY, HOLLYWOOD, FL, 33019","Match","Exact","1135 WEEPING WILLOW WAY, HOLLYWOOD, FL, 33019",114766900,"R"
26657,"1135 WEST WESTERN RESERVE RD","YOUNGSTOWN","OH",44514,40.987973552,-80.674997934,157,"1135 WEST WESTERN RESERVE RD, YOUNGSTOWN, OH, 44514","Match","Exact","1135 W WESTERN RESERVE RD, YOUNGSTOWN, OH, 44514",633558161,"L"
26658,"1135 WESTERN RESERVE ROAD STE D","YOUNGSTOWN","OH",44514,NA,NA,158,"1135 WESTERN RESERVE ROAD STE D, YOUNGSTOWN, OH, 44514","Tie",NA,NA,NA,NA
26659,"11350 FOUR POINTS DRIVE  UNIT 338","AUSTIN","TX",78726,30.4031739430001,-97.846234566,159,"11350 FOUR POINTS DRIVE  UNIT 338, AUSTIN, TX, 78726","Match","Exact","11350 FOUR POINTS DR, AUSTIN, TX, 78726",641746500,"R"
26660,"11350 MUSETTE CIRCLE","ALPHARETTA","GA",30009,34.0556678350001,-84.300790153,160,"11350 MUSETTE CIRCLE, ALPHARETTA, GA, 30009","Match","Exact","11350 MUSETTE CIR, ALPHARETTA, GA, 30009",647345948,"L"
26661,"11350 RANDOM HILLS ROAD/800 DR ONGA","FAIRFAX","VA",22030,38.8587435850001,-77.362005193,161,"11350 RANDOM HILLS ROAD/800 DR ONGA, FAIRFAX, VA, 22030","Match","Non_Exact","11350 RANDOM HILLS RD, FAIRFAX, VA, 22030",641085351,"R"
26662,"11350 TOOKS WAY","COLUMBIA","MD",21044,39.219034874,-76.9061146729999,162,"11350 TOOKS WAY, COLUMBIA, MD, 21044","Match","Exact","11350 TOOKS WAY, COLUMBIA, MD, 21044",158921683,"R"
26663,"11351 NW 30TH PL","SUNRISE","FL",33323,26.1640505290001,-80.29971055,163,"11351 NW 30TH PL, SUNRISE, FL, 33323","Match","Exact","11351 NW 30TH PL, SUNRISE, FL, 33323",114697421,"R"
26664,"11351 RANDOM HILLS ROAD SUITE 500","FAIRFAX","VA",22030,38.856670884,-77.3380896959999,164,"11351 RANDOM HILLS ROAD SUITE 500, FAIRFAX, VA, 22030","Match","Exact","11351 RANDOM HILLS RD, FAIRFAX, VA, 22030",639873451,"L"
26665,"11352 CEDAR CREEK DR","CANAL WINCHESTER","OH",43110,39.7740702190001,-82.813403033,165,"11352 CEDAR CREEK DR, CANAL WINCHESTER, OH, 43110","Match","Non_Exact","11352 CEDAR CREEK DR NW, CANAL WINCHESTER, OH, 43110",37238218,"R"
26666,"11352 GATES TERRACE","JOHNS CREEK","GA",30097,34.0573844520001,-84.154262726,166,"11352 GATES TERRACE, JOHNS CREEK, GA, 30097","Match","Exact","11352 GATES TER, JOHNS CREEK, GA, 30097",624971416,"R"
26667,"11352 LEONARD ST","NUNICA","MI",49448,43.063856732,-86.07191748,167,"11352 LEONARD ST, NUNICA, MI, 49448","Match","Non_Exact","11352 LEONARD RD, NUNICA, MI, 49448",71079786,"L"
26668,"11352 MT ABBOTT CT","ALTA LOMA","CA",91737,34.142187617,-117.557582549,168,"11352 MT ABBOTT CT, ALTA LOMA, CA, 91737","Match","Exact","11352 MT ABBOTT CT, RANCHO CUCAMONGA, CA, 91737",144697460,"L"
26669,"11352 W STATE ROAD 84   SUITE 18","DAVIE","FL",33325,NA,NA,169,"11352 W STATE ROAD 84   SUITE 18, DAVIE, FL, 33325","No_Match",NA,NA,NA,NA
26670,"11353 E SAN RAPHAEL DRIVEWAY","SAN DIEGO","CA",92130,32.9249526290001,-117.23063495,170,"11353 E SAN RAPHAEL DRIVEWAY, SAN DIEGO, CA, 92130","Match","Exact","11353 E SAN RAPHAEL DRIVEWAY, SAN DIEGO, CA, 92130",195687219,"R"
26671,"11353 JERSEY WAY","THORNTON","CO",80233,39.901445708,-104.921152862,171,"11353 JERSEY WAY, THORNTON, CO, 80233","Match","Exact","11353 JERSEY WAY, THORNTON, CO, 80233",177430169,"R"
26672,"11353 MANATEE TERRACE","LAKE WORTH","FL",33449,26.581287762,-80.227950304,172,"11353 MANATEE TERRACE, LAKE WORTH, FL, 33449","Match","Exact","11353 MANATEE TER, LAKE WORTH, FL, 33449",115281875,"L"
26673,"11353 S INDIANA","CHICAGO","IL",60628,41.687860325,-87.618124101,173,"11353 S INDIANA, CHICAGO, IL, 60628","Match","Non_Exact","11353 S INDIANA AVE, CHICAGO, IL, 60628",605460290,"L"
26674,"11354 CHERRY HILL RD UNIT 304","BELTSVILLE","MD",20705,39.041876899,-76.949411192,174,"11354 CHERRY HILL RD UNIT 304, BELTSVILLE, MD, 20705","Match","Exact","11354 CHERRY HILL RD, BELTSVILLE, MD, 20705",76411890,"L"
26675,"11354 S LANGLEY AVENUE","CHICAGO","IL",60628,41.6881992900001,-87.605907288,175,"11354 S LANGLEY AVENUE, CHICAGO, IL, 60628","Match","Exact","11354 S LANGLEY AVE, CHICAGO, IL, 60628",111774143,"R"
26676,"11354 W 13TH AVE UNIT 5","LAKEWOOD","CO",80215,39.7365552590001,-105.125295561,176,"11354 W 13TH AVE UNIT 5, LAKEWOOD, CO, 80215","Match","Non_Exact","11354 W 13TH AVE, LAKEWOOD, CO, 80215",640550878,"L"
26677,"11355 GETCHELL DRIVE","THEODORE","AL",36582,30.4542546120001,-88.1491962379999,177,"11355 GETCHELL DRIVE, THEODORE, AL, 36582","Match","Exact","11355 GETCHELL DR, THEODORE, AL, 36582",61905893,"R"
26678,"11355 MES VERDE WAY","PARKER","CO",80138,39.508622528,-104.744738179,178,"11355 MES VERDE WAY, PARKER, CO, 80138","Match","Non_Exact","11355 MESA VERDE WAY, PARKER, CO, 80138",130833285,"R"
26679,"11355 RICHMOND AVE STE 1515","HOUSTON","TX",77082,29.7278344270001,-95.578709369,179,"11355 RICHMOND AVE STE 1515, HOUSTON, TX, 77082","Match","Exact","11355 RICHMOND AVE, HOUSTON, TX, 77082",96613097,"L"
26680,"11355 RICHMOND AVENUE SUITE 911","HOUSTON","TX",77082,29.7278344270001,-95.578709369,180,"11355 RICHMOND AVENUE SUITE 911, HOUSTON, TX, 77082","Match","Exact","11355 RICHMOND AVE, HOUSTON, TX, 77082",96613097,"L"
26681,"11355 SOUTH PRAIRIE","CHICAGO","MS",60628,NA,NA,181,"11355 SOUTH PRAIRIE, CHICAGO, MS, 60628","No_Match",NA,NA,NA,NA
26682,"11355 SW 112 CIR LN N","MIAMI","FL",33176,25.6639055250001,-80.378686692,182,"11355 SW 112 CIR LN N, MIAMI, FL, 33176","Match","Exact","11355 SW 112TH CIRCLE LN N, MIAMI, FL, 33176",115979913,"L"
26683,"11355 W OLYMPIC BL - MANATTPHELPS","LOS ANGELES","CA",90064,34.037537689,-118.442358369,183,"11355 W OLYMPIC BL - MANATTPHELPS, LOS ANGELES, CA, 90064","Match","Non_Exact","11355 W OLYMPIC BLVD, LOS ANGELES, CA, 90064",141569609,"R"
26684,"11355 WEST OLYMPIC BOULEVARD","LOS ANGELES","CA",90064,34.037539426,-118.44235547,184,"11355 WEST OLYMPIC BOULEVARD, LOS ANGELES, CA, 90064","Match","Exact","11355 W OLYMPIC BLVD, LOS ANGELES, CA, 90064",141569609,"R"
26685,"11356 SW 5 STREET","PEMBROKE PINES","FL",33025,NA,NA,185,"11356 SW 5 STREET, PEMBROKE PINES, FL, 33025","No_Match",NA,NA,NA,NA
26686,"11357 LONG JOHN","EL PASO","TX",79936,31.778826838,-106.300018681,186,"11357 LONG JOHN, EL PASO, TX, 79936","Match","Exact","11357 LONG JOHN, EL PASO, TX, 79936",189349224,"L"
26687,"11357 NUCKOLS RD STE 157","GLEN ALLEN","VA",23059,37.683016336,-77.589347484,187,"11357 NUCKOLS RD STE 157, GLEN ALLEN, VA, 23059","Match","Exact","11357 NUCKOLS RD, GLEN ALLEN, VA, 23059",640610405,"R"
26688,"11357 NUCKOLS RD STE 181","GLEN ALLEN","VA",23059,37.683016336,-77.589347484,188,"11357 NUCKOLS RD STE 181, GLEN ALLEN, VA, 23059","Match","Exact","11357 NUCKOLS RD, GLEN ALLEN, VA, 23059",640610405,"R"
26689,"11358 BREEZEHILL LANE","CHARLOTTE","NC",28262,35.3223543240001,-80.6905607259999,189,"11358 BREEZEHILL LANE, CHARLOTTE, NC, 28262","Match","Exact","11358 BREEZEHILL LN, CHARLOTTE, NC, 28262",618153111,"R"
26690,"11358 STRATTON PARK DRIVE","TAMPA","FL",33617,28.05224466,-82.3910296449999,190,"11358 STRATTON PARK DRIVE, TAMPA, FL, 33617","Match","Exact","11358 STRATTON PARK DR, TAMPA, FL, 33617",645548417,"L"
26691,"11359 COFFIELD AVENUE","EL MONTE","CA",91731,34.0745595280001,-118.026824229,191,"11359 COFFIELD AVENUE, EL MONTE, CA, 91731","Match","Exact","11359 COFFIELD AVE, EL MONTE, CA, 91731",141649203,"L"
26692,"11359 DOLE COURT","RIVERSIDE","CA",92505,33.932813314,-117.502327912,192,"11359 DOLE COURT, RIVERSIDE, CA, 92505","Match","Exact","11359 DOLE CT, RIVERSIDE, CA, 92505",194736440,"R"
26693,"1136 22ND STREET SOUTH APT 201","FARGO","ND",58103,46.864237184,-96.815408723,193,"1136 22ND STREET SOUTH APT 201, FARGO, ND, 58103","Match","Exact","1136 22 ST S, FARGO, ND, 58103",151469858,"R"
26694,"1136 68TH STREET","DES MOINES","IA",50324,41.598889204,-93.711029056,194,"1136 68TH STREET, DES MOINES, IA, 50324","Match","Exact","1136 68TH ST, DES MOINES, IA, 50324",65777016,"L"
26695,"1136 ANGELCREST DR","HACIENDA HEIGHTS","CA",91745,34.0131798200001,-117.971969648,195,"1136 ANGELCREST DR, HACIENDA HEIGHTS, CA, 91745","Match","Exact","1136 ANGELCREST DR, HACIENDA HTS, CA, 91745",141653332,"L"
26696,"1136 ASHBOURNE CIRCLE","TRINITY","FL",34655,28.175371049,-82.626977572,196,"1136 ASHBOURNE CIRCLE, TRINITY, FL, 34655","Match","Exact","1136 ASHBOURNE CIR, TRINITY, FL, 34655",86406527,"L"
26697,"1136 BERWOOD DR","MORGANTOWN","WV",26505,NA,NA,197,"1136 BERWOOD DR, MORGANTOWN, WV, 26505","No_Match",NA,NA,NA,NA
26698,"1136 BISHOP ST PH1B UNION SQUARE","HONOLULU","HI",96813,21.3097223820001,-157.859820324,198,"1136 BISHOP ST PH1B UNION SQUARE, HONOLULU, HI, 96813","Match","Exact","1136 BISHOP ST, HONOLULU, HI, 96813",639062117,"L"
26699,"1136 BRADLEY ROAD","FUQUAY VARINA","NC",27526,35.446677618,-78.848749857,199,"1136 BRADLEY ROAD, FUQUAY VARINA, NC, 27526","Match","Exact","1136 BRADLEY RD, FUQUAY VARINA, NC, 27526",71956752,"L"
26700,"1136 CALLE FLORECITA","CHULA VISTA","CA",91910,32.646863857,-117.015731365,200,"1136 CALLE FLORECITA, CHULA VISTA, CA, 91910","Match","Non_Exact","1136 CLL FLORECITA, CHULA VISTA, CA, 91910",195388760,"L"
26701,"1136 CHARLESTON LN","SAVANNAH","TX",76227,33.230708162,-96.908306765,201,"1136 CHARLESTON LN, SAVANNAH, TX, 76227","Match","Exact","1136 CHARLESTON LN, SAVANNAH, TX, 76227",627285493,"R"
26702,"1136 CLEVELAND AVE STE 611","EAST POINT","GA",30344,33.681488389,-84.425755678,202,"1136 CLEVELAND AVE STE 611, EAST POINT, GA, 30344","Match","Exact","1136 CLEVELAND AVE, EAST POINT, GA, 30344",17349162,"L"
26703,"1136 E 14TH ST","BROOKLYN","NY",11230,40.6217449760001,-73.9616934479999,203,"1136 E 14TH ST, BROOKLYN, NY, 11230","Match","Exact","1136 E 14TH ST, BROOKLYN, NY, 11230",59089664,"R"
26704,"1136 E COMMERCE ST","MILFORD","MI",48381,42.5924035620001,-83.588778318,204,"1136 E COMMERCE ST, MILFORD, MI, 48381","Match","Exact","1136 E COMMERCE ST, MILFORD, MI, 48381",69716005,"R"
26705,"1136 FRANKLIN CIRCLE","ATLANTA","GA",30324,33.811597938,-84.3384590539999,205,"1136 FRANKLIN CIRCLE, ATLANTA, GA, 30324","Match","Non_Exact","1136 FRANKLIN CIR NE, ATLANTA, GA, 30324",23358533,"L"
26706,"1136 FREMONT AVE SUITE 108","SOUTH PASADENA","CA",91030,34.113077478,-118.153105014,206,"1136 FREMONT AVE SUITE 108, SOUTH PASADENA, CA, 91030","Match","Exact","1136 FREMONT AVE, SOUTH PASADENA, CA, 91030",141630247,"L"
26707,"1136 GERONIMO PL","VISTA","CA",92084,33.2149812860001,-117.241470323,207,"1136 GERONIMO PL, VISTA, CA, 92084","Match","Exact","1136 GERONIMO PL, VISTA, CA, 92084",195431337,"L"
26708,"1136 GREEN ST","MICHIGAN CITY","IN",46360,41.706623968,-86.9122164729999,208,"1136 GREEN ST, MICHIGAN CITY, IN, 46360","Match","Exact","1136 GREEN ST, MICHIGAN CITY, IN, 46360",15410662,"L"
26709,"1136 HANNA STREET","FORT WAYNE","IN",46802,41.0764748920001,-85.12906219,209,"1136 HANNA STREET, FORT WAYNE, IN, 46802","Match","Exact","1136 HANNA ST, FORT WAYNE, IN, 46802",6379660,"R"
26710,"1136 HAZELWOOD RD","TOMS RIVER","NJ",8753,39.9757682520001,-74.139891335,210,"1136 HAZELWOOD RD, TOMS RIVER, NJ, 8753","Match","Exact","1136 HAZELWOOD RD, TOMS RIVER, NJ, 08753",203729104,"L"
26711,"1136 HUNTMASTER TERRACE NE UNIT 102","LEESBURG","VA",20176,39.119209907,-77.541418344,211,"1136 HUNTMASTER TERRACE NE UNIT 102, LEESBURG, VA, 20176","Match","Exact","1136 HUNTMASTER TER NE, LEESBURG, VA, 20176",62346585,"L"
26712,"1136 KINGS RIDGE BLVD","WADSWORTH","OH",44281,41.131223135,-81.72812046,212,"1136 KINGS RIDGE BLVD, WADSWORTH, OH, 44281","Match","Exact","1136 KINGS RIDGE BLVD, WADSWORTH, OH, 44281",58693689,"R"
26713,"1136 LAUREL GREEN DRIVE NE","NORTH CANTON","OH",44720,NA,NA,213,"1136 LAUREL GREEN DRIVE NE, NORTH CANTON, OH, 44720","Tie",NA,NA,NA,NA
26714,"1136 LEXINGTON LANE","DESOTO","HI",75115,NA,NA,214,"1136 LEXINGTON LANE, DESOTO, HI, 75115","No_Match",NA,NA,NA,NA
26715,"1136 LEXINGTON LANE","DESOTO","TX",75115,32.594041265,-96.884827657,215,"1136 LEXINGTON LANE, DESOTO, TX, 75115","Match","Exact","1136 LEXINGTON LN, DESOTO, TX, 75115",102984812,"L"
26716,"1136 MARIEMONT AVE","SACRAMENTO","CA",95864,38.585417578,-121.359963596,216,"1136 MARIEMONT AVE, SACRAMENTO, CA, 95864","Match","Exact","1136 MARIEMONT AVE, SACRAMENTO, CA, 95864",133339136,"R"
26717,"1136 N TURKEY CREEK RD","LEICESTER","NC",28748,35.627807895,-82.782923087,217,"1136 N TURKEY CREEK RD, LEICESTER, NC, 28748","Match","Exact","1136 N TURKEY CREEK RD, LEICESTER, NC, 28748",36866144,"R"
26718,"1136 NORTH HYVIEW ROAD","MANSFIELD","TX",76063,32.5802393160001,-97.17027746,218,"1136 NORTH HYVIEW ROAD, MANSFIELD, TX, 76063","Match","Non_Exact","1136 N HYVIEW ST, MANSFIELD, TX, 76063",101911221,"L"
26719,"1136 PACIFIC COAST HWY","LONG BEACH","CA",90806,33.7898511240001,-118.177723156,219,"1136 PACIFIC COAST HWY, LONG BEACH, CA, 90806","Match","Non_Exact","1136 E PACIFIC COAST HWY, LONG BEACH, CA, 90806",141694551,"R"
26720,"1136 PAIUTE AVE","WARM SPRINGS","OR",97761,44.7627547760001,-121.267774681,220,"1136 PAIUTE AVE, WARM SPRINGS, OR, 97761","Match","Exact","1136 PAIUTE AVE, WARM SPRINGS, OR, 97761",638340298,"L"
26721,"1136 PHILLIPS STREET","BADEN","PA",15005,40.6424394260001,-80.2150001269999,221,"1136 PHILLIPS STREET, BADEN, PA, 15005","Match","Exact","1136 PHILLIPS ST, BADEN, PA, 15005",52568684,"R"
26722,"1136 ROME ST","PETERSBURG","VA",23803,37.2212230740001,-77.420653885,222,"1136 ROME ST, PETERSBURG, VA, 23803","Match","Exact","1136 ROME ST, PETERSBURG, VA, 23803",54148397,"L"
26723,"1136 S 20TH STREET","LAFAYETTE","IN",47905,40.4060739350001,-86.8743754179999,223,"1136 S 20TH STREET, LAFAYETTE, IN, 47905","Match","Exact","1136 S 20TH ST, LAFAYETTE, IN, 47905",27307909,"R"
26724,"1136 S 4TH STREET","LIBERTYVILLE","IL",60048,42.26535219,-87.942973195,224,"1136 S 4TH STREET, LIBERTYVILLE, IL, 60048","Match","Non_Exact","1136 S 4TH AVE, LIBERTYVILLE, IL, 60048",119642751,"R"
26725,"1136 S ALVARADO ST APT 31","LOS ANGELES","CA",90006,34.0497981450001,-118.281060988,225,"1136 S ALVARADO ST APT 31, LOS ANGELES, CA, 90006","Match","Non_Exact","1136 S ALVARADO ST, LOS ANGELES, CA, 90006",141605433,"L"
26726,"1136 S DELANO COURT WEST SUITE 201B","CHICAGO","IL",60605,41.8682497120001,-87.632802656,226,"1136 S DELANO COURT WEST SUITE 201B, CHICAGO, IL, 60605","Match","Non_Exact","1136 S DELANO CT W, CHICAGO, IL, 60605",641745263,"R"
26727,"1136 S DELANO COURT WEST SUITE B201","CHICAGO","IL",60605,41.8682497120001,-87.632802656,227,"1136 S DELANO COURT WEST SUITE B201, CHICAGO, IL, 60605","Match","Non_Exact","1136 S DELANO CT W, CHICAGO, IL, 60605",641745263,"R"
26728,"1136 SHADOWLAWN ST","INKSTER","MI",48141,42.303521501,-83.298084791,228,"1136 SHADOWLAWN ST, INKSTER, MI, 48141","Match","Exact","1136 SHADOWLAWN ST, INKSTER, MI, 48141",95432455,"R"
26729,"1136 SW 34TH TERRACE","PALM CITY","FL",34990,27.1631044740001,-80.268151599,229,"1136 SW 34TH TERRACE, PALM CITY, FL, 34990","Match","Exact","1136 SW 34TH TER, PALM CITY, FL, 34990",625840790,"L"
26730,"1136 TURNER DRIVE NE","ALBUQUERQUE","NM",87123,35.084789362,-106.489124615,230,"1136 TURNER DRIVE NE, ALBUQUERQUE, NM, 87123","Match","Exact","1136 TURNER DR NE, ALBUQUERQUE, NM, 87123",206723838,"R"
26731,"1136 UNION MALL STE 301","HONOLULU","HI",96813,21.309926379,-157.859687251,231,"1136 UNION MALL STE 301, HONOLULU, HI, 96813","Match","Exact","1136 UNION MALL, HONOLULU, HI, 96813",203236182,"L"
26732,"1136 UNION MALL STE 801","HONOLULU","HI",96813,21.309926379,-157.859687251,232,"1136 UNION MALL STE 801, HONOLULU, HI, 96813","Match","Exact","1136 UNION MALL, HONOLULU, HI, 96813",203236182,"L"
26733,"1136 W ASHBY PL","SAN ANTONIO","TX",78201,29.449121904,-98.508718744,233,"1136 W ASHBY PL, SAN ANTONIO, TX, 78201","Match","Exact","1136 W ASHBY PL, SAN ANTONIO, TX, 78201",101514807,"L"
26734,"1136 W ELGIN ST","CHANDLER","AZ",85224,33.2970809940001,-111.862072091,234,"1136 W ELGIN ST, CHANDLER, AZ, 85224","Match","Exact","1136 W ELGIN ST, CHANDLER, AZ, 85224",128778207,"L"
26735,"1136 WARREN DRIVE","HARVEY","LA",70058,29.895862601,-90.0664834949999,235,"1136 WARREN DRIVE, HARVEY, LA, 70058","Match","Exact","1136 WARREN DR, HARVEY, LA, 70058",93509509,"R"
26736,"1136 WASHINGTON AVE UNIT 803","ST LOUIS","MO",63101,38.631536103,-90.195601208,236,"1136 WASHINGTON AVE UNIT 803, ST LOUIS, MO, 63101","Match","Exact","1136 WASHINGTON AVE, SAINT LOUIS, MO, 63101",107605007,"L"
26737,"1136 WATER STREET SUITE 109","PORT TOWNSEND","WA",98368,48.1133788340001,-122.75899026,237,"1136 WATER STREET SUITE 109, PORT TOWNSEND, WA, 98368","Match","Exact","1136 WATER ST, PORT TOWNSEND, WA, 98368",151992942,"L"
26738,"1136 WRIGHT SCHOOL RD","BELTON","SC",29627,34.3994659200001,-82.5267826369999,238,"1136 WRIGHT SCHOOL RD, BELTON, SC, 29627","Match","Exact","1136 WRIGHT SCHOOL RD, BELTON, SC, 29627",25456755,"L"
26739,"11360 CHARLES E YOUNG DRIVE N","LOS ANGELES","CA",90095,NA,NA,239,"11360 CHARLES E YOUNG DRIVE N, LOS ANGELES, CA, 90095","No_Match",NA,NA,NA,NA
26740,"113600 EDMANDS DRIVE","RENO","NV",89511,NA,NA,240,"113600 EDMANDS DRIVE, RENO, NV, 89511","No_Match",NA,NA,NA,NA
26741,"11361 CLAY STREET","HUNTSBURG","OH",44046,41.564143926,-81.071462445,241,"11361 CLAY STREET, HUNTSBURG, OH, 44046","Match","Exact","11361 CLAY ST, HUNTSBURG, OH, 44046",137439873,"L"
26742,"11361 MALAT WAY","CULVER CITY","CA",90230,33.9927004560001,-118.392517868,242,"11361 MALAT WAY, CULVER CITY, CA, 90230","Match","Exact","11361 MALAT WAY, CULVER CITY, CA, 90230",142688111,"R"
26743,"11361 W STEPNEY ST","BOISE","ID",83709,43.5587165430001,-116.323266906,243,"11361 W STEPNEY ST, BOISE, ID, 83709","Match","Exact","11361 W STEPNEY ST, BOISE, ID, 83709",645975973,"R"
26744,"11361 WEATHERBY ROAD","LOS ALAMITOS","CA",90720,33.7983784740001,-118.073458734,244,"11361 WEATHERBY ROAD, LOS ALAMITOS, CA, 90720","Match","Exact","11361 WEATHERBY RD, LOS ALAMITOS, CA, 90720",143997566,"R"
26745,"11362 JACKSON STREET","OMAHA","NE",68154,41.254583978,-96.089950917,245,"11362 JACKSON STREET, OMAHA, NE, 68154","Match","Exact","11362 JACKSON ST, OMAHA, NE, 68154",116972278,"R"
26746,"11362 US HIGHWAY 280","ROCHELLE","GA",31079,31.9596905930001,-83.427259907,246,"11362 US HIGHWAY 280, ROCHELLE, GA, 31079","Match","Exact","11362 US HWY 280, ROCHELLE, GA, 31079",9566973,"R"
26747,"11363 LINE RD","DELMAR","DE",19940,38.4552645310001,-75.54539111,247,"11363 LINE RD, DELMAR, DE, 19940","Match","Exact","11363 LINE RD, DELMAR, DE, 19940",636737825,"R"
26748,"11363 MCCOURTNEY RD","GRASS VALLEY","CA",95949,39.204972421,-121.077482709,248,"11363 MCCOURTNEY RD, GRASS VALLEY, CA, 95949","Match","Exact","11363 MCCOURTNEY RD, GRASS VALLEY, CA, 95949",106534287,"R"
26749,"11364 COUNTY ROAD 64","DAPHNE","AL",36526,30.603863141,-87.829383604,249,"11364 COUNTY ROAD 64, DAPHNE, AL, 36526","Match","Exact","11364 CO RD 64, DAPHNE, AL, 36526",131632670,"L"
26750,"11364 SW 243 TERRACE","HOMESTEAD","FL",33032,25.5410927840001,-80.375310885,250,"11364 SW 243 TERRACE, HOMESTEAD, FL, 33032","Match","Exact","11364 SW 243RD TER, HOMESTEAD, FL, 33032",634011601,"R"
26751,"11364 W INDIAN WOODS PATH","CRYSTAL RIVER","FL",34428,28.943391127,-82.625463485,251,"11364 W INDIAN WOODS PATH, CRYSTAL RIVER, FL, 34428","Match","Exact","11364 INDIAN WOODS PATH, CRYSTAL RIVER, FL, 34428",86223931,"L"
26752,"11364 WYALUSING NEW ALBANY ROAD","WYALUSING","PA",18853,NA,NA,252,"11364 WYALUSING NEW ALBANY ROAD, WYALUSING, PA, 18853","No_Match",NA,NA,NA,NA
26753,"11365 COMMERCIAL PARKWAY","CASTROVILLE","CA",95012,36.7564797640001,-121.74044451,253,"11365 COMMERCIAL PARKWAY, CASTROVILLE, CA, 95012","Match","Exact","11365 COMMERCIAL PKWY, CASTROVILLE, CA, 95012",196860923,"R"
26754,"11365 MARTIN LAKES DR N","JACKSONVILLE","FL",32220,30.3297972130001,-81.8552348219999,254,"11365 MARTIN LAKES DR N, JACKSONVILLE, FL, 32220","Match","Exact","11365 MARTIN LAKES DR N, JACKSONVILLE, FL, 32220",637526132,"L"
26755,"11365 WEATHERSTONE DR","WAYNESBORO","PA",17268,39.7613538000001,-77.498087304,255,"11365 WEATHERSTONE DR, WAYNESBORO, PA, 17268","Match","Exact","11365 WEATHERSTONE DR, WAYNESBORO, PA, 17268",629863280,"L"
26756,"11366 CHERRY HILL ROAD  202","BELTSVILLE","MD",20705,39.0419991950001,-76.949489747,256,"11366 CHERRY HILL ROAD  202, BELTSVILLE, MD, 20705","Match","Exact","11366 CHERRY HILL RD, BELTSVILLE, MD, 20705",76411890,"L"
26757,"11367 DALBY PLACE","SAN DIEGO","CA",92126,32.9275669470001,-117.130847215,257,"11367 DALBY PLACE, SAN DIEGO, CA, 92126","Match","Exact","11367 DALBY PL, SAN DIEGO, CA, 92126",195373722,"L"
26758,"11367 HOWLAND CT","JACKSONVILLE","FL",32256,NA,NA,258,"11367 HOWLAND CT, JACKSONVILLE, FL, 32256","No_Match",NA,NA,NA,NA
26759,"1137 22ND ST","OTSEGO","MI",49078,42.50274534,-85.760016706,259,"1137 22ND ST, OTSEGO, MI, 49078","Match","Exact","1137 22ND ST, OTSEGO, MI, 49078",635606181,"R"
26760,"1137 2ND STREET NW","ATLANTA","GA",30318,33.786655265,-84.4681080719999,260,"1137 2ND STREET NW, ATLANTA, GA, 30318","Match","Exact","1137 2ND ST NW, ATLANTA, GA, 30318",642630842,"R"
26761,"1137 ALTON ROAD","PORT CHARLOTTE","FL",33952,27.0138353450001,-82.0853470759999,261,"1137 ALTON ROAD, PORT CHARLOTTE, FL, 33952","Match","Exact","1137 ALTON RD, PORT CHARLOTTE, FL, 33952",4287787,"L"
26762,"1137 AVON AVE SW","ATLANTA","GA",30310,33.722274783,-84.425051771,262,"1137 AVON AVE SW, ATLANTA, GA, 30310","Match","Exact","1137 AVON AVE SW, ATLANTA, GA, 30310",17345119,"R"
26763,"1137 BROOKTRAIL DR","PITTSBURG","CA",94565,38.0094852280001,-121.944607518,263,"1137 BROOKTRAIL DR, PITTSBURG, CA, 94565","Match","Exact","1137 BROOKTRAIL DR, PITTSBURG, CA, 94565",192117524,"L"
26764,"1137 BUTTE DR","SANTA ROSA","CA",95403,38.470608434,-122.737611832,264,"1137 BUTTE DR, SANTA ROSA, CA, 95403","Match","Exact","1137 BUTTE DR, SANTA ROSA, CA, 95403",67467157,"R"
26765,"1137 CABOT STREET C/O JANKOWSKI RES","PORT CHARLOTTE","FL",33953,27.0145910040001,-82.2043701649999,265,"1137 CABOT STREET C/O JANKOWSKI RES, PORT CHARLOTTE, FL, 33953","Match","Exact","1137 CABOT ST, PORT CHARLOTTE, FL, 33953",4285454,"L"
26766,"1137 CAUDLE LN","SAVANNAH","TX",76227,33.227302434,-96.9085247039999,266,"1137 CAUDLE LN, SAVANNAH, TX, 76227","Match","Exact","1137 CAUDLE LN, SAVANNAH, TX, 76227",627285782,"R"
26767,"1137 CEDARVIEW LANE","FRANKLIN","TN",37067,35.8884535070001,-86.795485733,267,"1137 CEDARVIEW LANE, FRANKLIN, TN, 37067","Match","Exact","1137 CEDARVIEW LN, FRANKLIN, TN, 37067",73123398,"L"
26768,"1137 COPELAND CREEK DRIVE","ROHNERT PARK","CA",94928,38.343789955,-122.689449446,268,"1137 COPELAND CREEK DRIVE, ROHNERT PARK, CA, 94928","Match","Exact","1137 COPELAND CREEK DR, ROHNERT PARK, CA, 94928",67472988,"R"
26769,"1137 E 10TH ST S","NEWTON","IA",50208,41.6892943510001,-93.040984114,269,"1137 E 10TH ST S, NEWTON, IA, 50208","Match","Exact","1137 E 10TH ST S, NEWTON, IA, 50208",89435661,"L"
26770,"1137 E 27TH ST","SAN BERNARDINO","CA",92404,34.140612678,-117.263132111,270,"1137 E 27TH ST, SAN BERNARDINO, CA, 92404","Match","Exact","1137 E 27TH ST, SAN BERNARDINO, CA, 92404",144655997,"R"
26771,"1137 E GLENCOVE ST","MESA","AZ",85203,33.4389004990001,-111.806359031,271,"1137 E GLENCOVE ST, MESA, AZ, 85203","Match","Exact","1137 E GLENCOVE ST, MESA, AZ, 85203",128244441,"L"
26772,"1137 E JUNIPER","OTHELLO","WA",99344,46.8221488610001,-119.15843232,272,"1137 E JUNIPER, OTHELLO, WA, 99344","Match","Non_Exact","1137 E JUNIPER ST, OTHELLO, WA, 99344",181833083,"R"
26773,"1137 E PALMAIRE AVE","PHOENIX","AZ",85020,33.5407340830001,-112.057972481,273,"1137 E PALMAIRE AVE, PHOENIX, AZ, 85020","Match","Exact","1137 E PALMAIRE AVE, PHOENIX, AZ, 85020",128933365,"R"
26774,"1137 E TAYLOR ST","PHOENIX","AZ",85006,33.4538712030001,-112.057958344,274,"1137 E TAYLOR ST, PHOENIX, AZ, 85006","Match","Exact","1137 E TAYLOR ST, PHOENIX, AZ, 85006",128213920,"R"
26775,"1137 FARRCROFT WAY","VIRGINIA BEACH","VA",23455,36.871722833,-76.156552453,275,"1137 FARRCROFT WAY, VIRGINIA BEACH, VA, 23455","Match","Exact","1137 FARRCROFT WAY, VIRGINIA BCH, VA, 23455",641468300,"L"
26776,"1137 FIENEMANN ROAD","FARMINGTON","CT",6032,41.7093593330001,-72.807697257,276,"1137 FIENEMANN ROAD, FARMINGTON, CT, 6032","Match","Exact","1137 FIENEMANN RD, FARMINGTON, CT, 06032",3512902,"R"
26777,"1137 FRIENDSHIP WAY","MARYVILLE","TN",37803,35.7330823710001,-83.8918267879999,277,"1137 FRIENDSHIP WAY, MARYVILLE, TN, 37803","Match","Exact","1137 FRIENDSHIP WAY, MARYVILLE, TN, 37803",89847810,"R"
26778,"1137 HARVEY LANE","RENO","NV",89509,39.5040439530001,-119.82695191,278,"1137 HARVEY LANE, RENO, NV, 89509","Match","Exact","1137 HARVEY LN, RENO, NV, 89509",107044900,"R"
26779,"1137 HEATHER GLEN DRIVE","MINNEOLA","FL",34715,28.597691464,-81.764887457,279,"1137 HEATHER GLEN DRIVE, MINNEOLA, FL, 34715","Match","Exact","1137 HEATHER GLEN DR, MINNEOLA, FL, 34715",94194165,"R"
26780,"1137 HOPKINS STREET","BERKELEY","CA",94707,37.876018587,-122.292449458,280,"1137 HOPKINS STREET, BERKELEY, CA, 94707","Match","Non_Exact","1137 HOPKINS ST, BERKELEY, CA, 94702",124993360,"L"
26781,"1137 LIBERTY PKWY NW","ATLANTA","GA",30318,33.818088867,-84.443612055,281,"1137 LIBERTY PKWY NW, ATLANTA, GA, 30318","Match","Exact","1137 LIBERTY PKWY NW, ATLANTA, GA, 30318",636130394,"L"
26782,"1137 LONG CRESCENT DRIVE","BRISTOL","VA",24201,36.6146304870001,-82.178668918,282,"1137 LONG CRESCENT DRIVE, BRISTOL, VA, 24201","Match","Exact","1137 LONG CRESCENT DR, BRISTOL, VA, 24201",154347021,"R"
26783,"1137 MAYFAIR LANE","BLYTHEVILLE","AR",72315,35.9339007340001,-89.88506454,283,"1137 MAYFAIR LANE, BLYTHEVILLE, AR, 72315","Match","Exact","1137 MAYFAIR LN, BLYTHEVILLE, AR, 72315",47234791,"R"
26784,"1137 N 65TH STREET","PHILADELPHIA","PA",19151,39.9787156610001,-75.2507774699999,284,"1137 N 65TH STREET, PHILADELPHIA, PA, 19151","Match","Exact","1137 N 65TH ST, PHILADELPHIA, PA, 19151",131396969,"R"
26785,"1137 NE KELLY AVE B109","GRESHAM","OR",97030,45.505306793,-122.426013311,285,"1137 NE KELLY AVE B109, GRESHAM, OR, 97030","Match","Non_Exact","1137 NE KELLY AVE, GRESHAM, OR, 97030",157529037,"L"
26786,"1137 OCCANECCHI TRAIL","EBONY","VA",23845,36.5478111840001,-78.0343867559999,286,"1137 OCCANECCHI TRAIL, EBONY, VA, 23845","Match","Exact","1137 OCCANECCHI TRL, EBONY, VA, 23845",54038985,"L"
26787,"1137 PEARL STREET","BOULDER","CO",80302,40.0177403970001,-105.28079531,287,"1137 PEARL STREET, BOULDER, CO, 80302","Match","Exact","1137 PEARL ST, BOULDER, CO, 80302",188159715,"L"
26788,"1137 RED BANK RD","GOOSE CREEK","SC",29445,32.9719717250001,-80.01731069,288,"1137 RED BANK RD, GOOSE CREEK, SC, 29445","Match","Exact","1137 RED BANK RD, GOOSE CREEK, SC, 29445",100747254,"L"
26789,"1137 ROCK CREEK DR","GARLAND","TX",75040,32.9009625190001,-96.646862518,289,"1137 ROCK CREEK DR, GARLAND, TX, 75040","Match","Exact","1137 ROCK CREEK DR, GARLAND, TX, 75040",102927019,"R"
26790,"1137 ROSEVIEW HEIGHTS AVE","VERNONIA","OR",97064,45.86499565,-123.198267567,290,"1137 ROSEVIEW HEIGHTS AVE, VERNONIA, OR, 97064","Match","Exact","1137 ROSEVIEW HEIGHTS AVE, VERNONIA, OR, 97064",158091463,"L"
26791,"1137 ROSEWOOD WAY","ALAMEDA","CA",94501,37.7638111050001,-122.266425236,291,"1137 ROSEWOOD WAY, ALAMEDA, CA, 94501","Match","Exact","1137 ROSEWOOD WAY, ALAMEDA, CA, 94501",124997879,"L"
26792,"1137 SE 20TH AVE","PORTLAND","OR",97214,45.514757613,-122.645572415,292,"1137 SE 20TH AVE, PORTLAND, OR, 97214","Match","Exact","1137 SE 20TH AVE, PORTLAND, OR, 97214",157509135,"R"
26793,"1137 SE LEXINGTON STREET","PORTLAND","OR",97202,45.4671788370001,-122.654516116,293,"1137 SE LEXINGTON STREET, PORTLAND, OR, 97202","Match","Exact","1137 SE LEXINGTON ST, PORTLAND, OR, 97202",157509056,"L"
26794,"1137 SOUTH NOVA RD","ORMOND BEACH","FL",32174,NA,NA,294,"1137 SOUTH NOVA RD, ORMOND BEACH, FL, 32174","No_Match",NA,NA,NA,NA
26795,"1137 STILFORD AVE","PLAINFIELD","NJ",7060,40.60935034,-74.4046546279999,295,"1137 STILFORD AVE, PLAINFIELD, NJ, 7060","Match","Exact","1137 STILFORD AVE, PLAINFIELD, NJ, 07060",60560822,"L"
26796,"1137 SW 7TH RD","OCALA","FL",34471,29.174593315,-82.1451974559999,296,"1137 SW 7TH RD, OCALA, FL, 34471","Match","Exact","1137 SW 7TH RD, OCALA, FL, 34471",116726352,"L"
26797,"1137 TOWNSHIP ROAD","ALTAMONT","NY",12009,42.7003447060001,-74.078007268,297,"1137 TOWNSHIP ROAD, ALTAMONT, NY, 12009","Match","Exact","1137 TOWNSHIP RD, ALTAMONT, NY, 12009",18300299,"R"
26798,"1137 USHER STREET","COVINGTON","GA",30014,NA,NA,298,"1137 USHER STREET, COVINGTON, GA, 30014","Tie",NA,NA,NA,NA
26799,"1137 W DUARTE ROAD STE F","ARCADIA","CA",91007,NA,NA,299,"1137 W DUARTE ROAD STE F, ARCADIA, CA, 91007","Tie",NA,NA,NA,NA
26800,"1137 W RIDGE RD","GAINESVILLE","GA",30501,34.2801443860001,-83.8172812509999,300,"1137 W RIDGE RD, GAINESVILLE, GA, 30501","Match","Exact","1137 W RIDGE RD, GAINESVILLE, GA, 30501",98250024,"R"
26801,"1137 WAVERLY DR","LAWRENCE","KS",66049,38.9622729160001,-95.318107807,301,"1137 WAVERLY DR, LAWRENCE, KS, 66049","Match","Exact","1137 WAVERLY DR, LAWRENCE, KS, 66049",633236882,"L"
26802,"1137 YELLOW RIVER DRIVE","LAWRENCEVILLE","GA",30043,33.9805846900001,-84.0121583919999,302,"1137 YELLOW RIVER DRIVE, LAWRENCEVILLE, GA, 30043","Match","Exact","1137 YELLOW RIVER DR, LAWRENCEVILLE, GA, 30043",88931629,"R"
26803,"11370 ANDERSON STREET - SUITE 3150","LOMA LINDA","CA",92354,34.0472149660001,-117.261138521,303,"11370 ANDERSON STREET - SUITE 3150, LOMA LINDA, CA, 92354","Match","Exact","11370 ANDERSON ST, LOMA LINDA, CA, 92354",638034300,"R"
26804,"11370 EAST 200 NORTH","MARION","IN",46952,40.581642,-85.459421913,304,"11370 EAST 200 NORTH, MARION, IN, 46952","Match","Exact","11370 E 200 N, MARION, IN, 46952",95015910,"L"
26805,"11370 SE 33RD AVE","MILWAUKIE","OR",97222,45.440970356,-122.628882724,305,"11370 SE 33RD AVE, MILWAUKIE, OR, 97222","Match","Exact","11370 SE 33RD AVE, MILWAUKIE, OR, 97222",157912918,"L"
26806,"11370 WINGFOOT DR","BOYNTON BEACH","FL",33437,26.5083484580001,-80.1306032959999,306,"11370 WINGFOOT DR, BOYNTON BEACH, FL, 33437","Match","Exact","11370 WINGFOOT DR, BOYNTON BEACH, FL, 33437",115339070,"L"
26807,"11371 EAST FRENCH LAKE ROAD","OSSEO","MN",55369,45.1613918410001,-93.4901008429999,307,"11371 EAST FRENCH LAKE ROAD, OSSEO, MN, 55369","Match","Exact","11371 E FRENCH LAKE RD, OSSEO, MN, 55369",43814535,"L"
26808,"11371 SW 176TH STREET","MIAMI","FL",33157,25.605215157,-80.376660595,308,"11371 SW 176TH STREET, MIAMI, FL, 33157","Match","Exact","11371 SW 176TH ST, MIAMI, FL, 33157",116093885,"R"
26809,"11373 150TH AVE SE","BECKER","MN",55308,45.408851343,-93.849934333,309,"11373 150TH AVE SE, BECKER, MN, 55308","Match","Non_Exact","11373 150TH AVE, BECKER, MN, 55308",647406031,"R"
26810,"11374 W RED MAPLE CT","BOISE","ID",83709,43.6041075900001,-116.323865372,310,"11374 W RED MAPLE CT, BOISE, ID, 83709","Match","Exact","11374 W RED MAPLE CT, BOISE, ID, 83709",117888806,"R"
26811,"11375 E VASSAR DRIVE","AURORA","CO",80014,39.6715027590001,-104.855663689,311,"11375 E VASSAR DRIVE, AURORA, CO, 80014","Match","Exact","11375 E VASSAR DR, AURORA, CO, 80014",177354960,"R"
26812,"11375 FRANKLIN ST","NORTHGLENN","CO",80233,39.902671254,-104.968755534,312,"11375 FRANKLIN ST, NORTHGLENN, CO, 80233","Match","Exact","11375 FRANKLIN ST, NORTHGLENN, CO, 80233",177295775,"L"
26813,"11375 HIGH SKY INN RD","HINDSVILLE","AR",72738,36.2653850560001,-93.948274064,313,"11375 HIGH SKY INN RD, HINDSVILLE, AR, 72738","Match","Exact","11375 HIGH SKY INN RD, HINDSVILLE, AR, 72738",640549070,"L"
26814,"11375 LABRADOR DUCK ROAD","WEEKI WACHEE","FL",34614,28.5934092000001,-82.532463713,314,"11375 LABRADOR DUCK ROAD, WEEKI WACHEE, FL, 34614","Match","Exact","11375 LABRADOR DUCK RD, WEEKI WACHEE, FL, 34614",85422105,"L"
26815,"11375 ROWE RD","JONESVILLE","MI",49250,42.0635331240001,-84.627201008,315,"11375 ROWE RD, JONESVILLE, MI, 49250","Match","Exact","11375 ROWE RD, JONESVILLE, MI, 49250",8287469,"R"
26816,"11375 S LAKE DR","HOLLAND","MI",49424,42.820206597,-86.063872598,316,"11375 S LAKE DR, HOLLAND, MI, 49424","Match","Exact","11375 S LAKE DR, HOLLAND, MI, 49424",640046236,"R"
26817,"11376 SHILOH WAY","BOCA RATON","FL",33428,26.36181199,-80.225552196,317,"11376 SHILOH WAY, BOCA RATON, FL, 33428","Match","Exact","11376 SHILOH WAY, BOCA RATON, FL, 33428",115299598,"L"
26818,"11377 AVENIDA DEL GATO","SAN DIEGO","CA",92126,32.928595806,-117.148453264,318,"11377 AVENIDA DEL GATO, SAN DIEGO, CA, 92126","Match","Exact","11377 AVE DEL GATO, SAN DIEGO, CA, 92126",195300672,"R"
26819,"11377 MAXWELL","WARREN","MI",48089,42.4616276690001,-83.009783689,319,"11377 MAXWELL, WARREN, MI, 48089","Match","Non_Exact","11377 MAXWELL AVE, WARREN, MI, 48089",110677704,"L"
26820,"11377 REDBUD RD","ORANGE","VA",22960,38.2627801350001,-77.9787841689999,320,"11377 REDBUD RD, ORANGE, VA, 22960","Match","Exact","11377 REDBUD RD, ORANGE, VA, 22960",29886297,"R"
26821,"11377 W OLYMPIC BLVD","LOS ANGELES","CA",90064,34.037308366,-118.442741112,321,"11377 W OLYMPIC BLVD, LOS ANGELES, CA, 90064","Match","Exact","11377 W OLYMPIC BLVD, LOS ANGELES, CA, 90064",141569609,"R"
26822,"11378 HUNTINGTON WAY","PICKERINGTON","OH",43147,39.897800933,-82.716720247,322,"11378 HUNTINGTON WAY, PICKERINGTON, OH, 43147","Match","Non_Exact","11378 HUNTINGTON WAY NW, PICKERINGTON, OH, 43147",37230044,"R"
26823,"11378 LOGG ROAD NE","BAINBRIDGE ISLAND","WA",98110,47.666480248,-122.508810132,323,"11378 LOGG ROAD NE, BAINBRIDGE ISLAND, WA, 98110","Match","Exact","11378 LOGG RD NE, BAINBRIDGE ISLAND, WA, 98110",187644482,"R"
26824,"11378 MAHA LOOP","AUSTIN","TX",78719,30.1009323700001,-97.6860987489999,324,"11378 MAHA LOOP, AUSTIN, TX, 78719","Match","Non_Exact","11378 MAHA LOOP RD, AUSTIN, TX, 78719",64011822,"L"
26825,"11379 TRADE CENTER UNIT 340","RANCHO CORDOVA","CA",95742,38.607514769,-121.261303804,325,"11379 TRADE CENTER UNIT 340, RANCHO CORDOVA, CA, 95742","Match","Non_Exact","11379 TRADE CENTER DR, RANCHO CORDOVA, CA, 95742",133347157,"L"
26826,"1138  NORTH GERMANTOWN PKWY","CORDOVA","TN",38016,35.1572175470001,-89.7952725069999,326,"1138  NORTH GERMANTOWN PKWY, CORDOVA, TN, 38016","Match","Exact","1138 N GERMANTOWN PKWY, CORDOVA, TN, 38016",72979654,"R"
26827,"1138 14TH ST UNIT 104","SANTA MONICA","CA",90404,34.0275987740001,-118.489788759,327,"1138 14TH ST UNIT 104, SANTA MONICA, CA, 90404","Match","Non_Exact","1138 14TH ST, SANTA MONICA, CA, 90403",141559320,"R"
26828,"1138 51 STREET","BROOKLYN","NY",11219,40.6360230610001,-73.996795311,328,"1138 51 STREET, BROOKLYN, NY, 11219","Match","Exact","1138 51ST ST, BROOKLYN, NY, 11219",59080031,"R"
26829,"1138 ARCH STREET","BERKELEY","CA",94708,37.8881923590001,-122.265761021,329,"1138 ARCH STREET, BERKELEY, CA, 94708","Match","Exact","1138 ARCH ST, BERKELEY, CA, 94708",652205004,"R"
26830,"1138 ARROWHEAD DRIVE","WASHINGTON","PA",15301,40.206915221,-80.204615953,330,"1138 ARROWHEAD DRIVE, WASHINGTON, PA, 15301","Match","Exact","1138 ARROWHEAD DR, WASHINGTON, PA, 15301",642123763,"L"
26831,"1138 CHAPLIN STREET SE","WASHINGTON","DC",20019,38.877218526,-76.938790328,331,"1138 CHAPLIN STREET SE, WASHINGTON, DC, 20019","Match","Exact","1138 CHAPLIN ST SE, WASHINGTON, DC, 20019",76233827,"L"
26832,"1138 CONESTOGA VALLEY CT","BLACKLICK","OH",43004,NA,NA,332,"1138 CONESTOGA VALLEY CT, BLACKLICK, OH, 43004","No_Match",NA,NA,NA,NA
26833,"1138 E ELM","OTHELLO","WA",99344,46.821107569,-119.158411839,333,"1138 E ELM, OTHELLO, WA, 99344","Match","Non_Exact","1138 E ELM ST, OTHELLO, WA, 99344",181833105,"L"
26834,"1138 E ROSECRANS AVE C322","LOS ANGELES","CA",90059,NA,NA,334,"1138 E ROSECRANS AVE C322, LOS ANGELES, CA, 90059","No_Match",NA,NA,NA,NA
26835,"1138 E ROSECRANS SUITE C218","LOS ANGELES","CA",90059,NA,NA,335,"1138 E ROSECRANS SUITE C218, LOS ANGELES, CA, 90059","No_Match",NA,NA,NA,NA
26836,"1138 EARHART STREET","INDIANAPOLIS","IN",46203,39.750975474,-86.1067396349999,336,"1138 EARHART STREET, INDIANAPOLIS, IN, 46203","Match","Exact","1138 EARHART ST, INDIANAPOLIS, IN, 46203",108000808,"R"
26837,"1138 EAST ROSECRANS AVE SUITE C331","LOS ANGELES","CA",90059,NA,NA,337,"1138 EAST ROSECRANS AVE SUITE C331, LOS ANGELES, CA, 90059","No_Match",NA,NA,NA,NA
26838,"1138 EASTDALE AVENUE","NASHVILLE","IN",37216,NA,NA,338,"1138 EASTDALE AVENUE, NASHVILLE, IN, 37216","No_Match",NA,NA,NA,NA
26839,"1138 ELM ST","TEHACHAPI","CA",93561,35.119878462,-118.454589582,339,"1138 ELM ST, TEHACHAPI, CA, 93561","Match","Exact","1138 ELM ST, TEHACHAPI, CA, 93561",109424657,"L"
26840,"1138 ERDMAN RD","LYKENS","PA",17048,40.6421769740001,-76.6895067149999,340,"1138 ERDMAN RD, LYKENS, PA, 17048","Match","Exact","1138 ERDMAN RD, LYKENS, PA, 17048",70806993,"R"
26841,"1138 FEDERAL WAY","TOMS RIVER","NJ",8753,39.968268956,-74.1478533649999,341,"1138 FEDERAL WAY, TOMS RIVER, NJ, 8753","Match","Exact","1138 FEDERAL WAY, TOMS RIVER, NJ, 08753",203754420,"L"
26842,"1138 GRANT AVE","SAN FRANCISCO","CA",94133,37.7974012130001,-122.406922112,342,"1138 GRANT AVE, SAN FRANCISCO, CA, 94133","Match","Exact","1138 GRANT AVE, SAN FRANCISCO, CA, 94133",192281171,"R"
26843,"1138 HAMILTON AVE","TRENTON","NJ",8629,40.219432129,-74.7338836609999,343,"1138 HAMILTON AVE, TRENTON, NJ, 8629","Match","Exact","1138 HAMILTON AVE, TRENTON, NJ, 08629",60225262,"L"
26844,"1138 HEMLOCK FARMS","HAWLEY","PA",18428,NA,NA,344,"1138 HEMLOCK FARMS, HAWLEY, PA, 18428","No_Match",NA,NA,NA,NA
26845,"1138 HIDDEN RIDGE APT 2219","IRVING","TX",75038,32.8772087520001,-96.965662535,345,"1138 HIDDEN RIDGE APT 2219, IRVING, TX, 75038","Match","Exact","1138 HIDDEN RIDGE, IRVING, TX, 75038",103205036,"R"
26846,"1138 KENSINGTON DR","NORTH SALT LAKE","UT",84054,40.8474033370001,-111.941090201,346,"1138 KENSINGTON DR, NORTH SALT LAKE, UT, 84054","Match","Exact","1138 KENSINGTON DR, N SALT LAKE, UT, 84054",635816832,"R"
26847,"1138 KENSINGTON DRIVE","NORTH SALT LAKE","UT",84054,40.8474033370001,-111.941090201,347,"1138 KENSINGTON DRIVE, NORTH SALT LAKE, UT, 84054","Match","Exact","1138 KENSINGTON DR, N SALT LAKE, UT, 84054",635816832,"R"
26848,"1138 KLINE PL","RAHWAY","NJ",7065,40.615121963,-74.295751958,348,"1138 KLINE PL, RAHWAY, NJ, 7065","Match","Exact","1138 KLINE PL, RAHWAY, NJ, 07065",60602514,"L"
26849,"1138 KLINE PLACE","RAHWAY","NJ",7065,40.615121963,-74.295751958,349,"1138 KLINE PLACE, RAHWAY, NJ, 7065","Match","Exact","1138 KLINE PL, RAHWAY, NJ, 07065",60602514,"L"
26850,"1138 LAUREL STREET","SALISBURY","NC",28144,35.6712015370001,-80.4522921,350,"1138 LAUREL STREET, SALISBURY, NC, 28144","Match","Exact","1138 LAUREL ST, SALISBURY, NC, 28144",25269650,"R"
26851,"1138 LIBERTY COURT","CARSON CITY","NV",89703,39.156677346,-119.775229531,351,"1138 LIBERTY COURT, CARSON CITY, NV, 89703","Match","Exact","1138 LIBERTY CT, CARSON CITY, NV, 89703",199524551,"L"
26852,"1138 MANFORD AVENUE","ESTES PARK","CO",80517,40.3719181170001,-105.503940754,352,"1138 MANFORD AVENUE, ESTES PARK, CO, 80517","Match","Exact","1138 MANFORD AVE, ESTES PARK, CO, 80517",640625426,"R"
26853,"1138 MAYFAIR DR","RAHWAY","NJ",7065,40.612922032,-74.296239563,353,"1138 MAYFAIR DR, RAHWAY, NJ, 7065","Match","Exact","1138 MAYFAIR DR, RAHWAY, NJ, 07065",60562041,"L"
26854,"1138 MELROSE AVE","IOWA CITY","IA",52246,41.656875647,-91.555091738,354,"1138 MELROSE AVE, IOWA CITY, IA, 52246","Match","Exact","1138 MELROSE AVE, IOWA CITY, IA, 52246",84494583,"R"
26855,"1138 MILWAUKEE RD","BELOIT","WI",53511,42.509651691,-89.014035301,355,"1138 MILWAUKEE RD, BELOIT, WI, 53511","Match","Exact","1138 MILWAUKEE RD, BELOIT, WI, 53511",49857881,"L"
26856,"1138 MOORLAND RD APT 105","MADISON","WI",53713,43.033060037,-89.36529007,356,"1138 MOORLAND RD APT 105, MADISON, WI, 53713","Match","Exact","1138 MOORLAND RD, MADISON, WI, 53713",639273337,"L"
26857,"1138 MOUNTAIN RD","PORT JERVIS","NY",12771,41.4000892270001,-74.5934549089999,357,"1138 MOUNTAIN RD, PORT JERVIS, NY, 12771","Match","Exact","1138 MOUNTAIN RD, PORT JERVIS, NY, 12771",124429095,"R"
26858,"1138 N CEDAR STREET","GLENDALE","CA",91207,34.161432366,-118.244534799,358,"1138 N CEDAR STREET, GLENDALE, CA, 91207","Match","Exact","1138 N CEDAR ST, GLENDALE, CA, 91207",141609447,"R"
26859,"1138 N EAGLE VALLEY ROAD","HOWARD","PA",16841,40.965921527,-77.757305182,359,"1138 N EAGLE VALLEY ROAD, HOWARD, PA, 16841","Match","Exact","1138 N EAGLE VALLEY RD, HOWARD, PA, 16841",50391549,"L"
26860,"1138 N GERMANTOWN PARKWAY STE 400","CORDOVA","TN",38016,35.157220952,-89.795272229,360,"1138 N GERMANTOWN PARKWAY STE 400, CORDOVA, TN, 38016","Match","Non_Exact","1138 N GERMANTOWN PKWY, CORDOVA, TN, 38016",72979654,"R"
26861,"1138 N GERMANTOWN PKWY STE 101 274","CORDOVA","TN",38016,35.157220952,-89.795272229,361,"1138 N GERMANTOWN PKWY STE 101 274, CORDOVA, TN, 38016","Match","Non_Exact","1138 N GERMANTOWN PKWY, CORDOVA, TN, 38016",72979654,"R"
26862,"1138 N GERMANTOWN PKWY STE 101-317","CORDOVA","TN",38016,35.157220952,-89.795272229,362,"1138 N GERMANTOWN PKWY STE 101-317, CORDOVA, TN, 38016","Match","Non_Exact","1138 N GERMANTOWN PKWY, CORDOVA, TN, 38016",72979654,"R"
26863,"1138 N GERMANTOWN PKWY SUITE 373","CORDOVA","TN",38016,35.157220952,-89.795272229,363,"1138 N GERMANTOWN PKWY SUITE 373, CORDOVA, TN, 38016","Match","Non_Exact","1138 N GERMANTOWN PKWY, CORDOVA, TN, 38016",72979654,"R"
26864,"1138 N STRICKER  STREET","BALTIMORE","MD",21217,39.3016687510001,-76.64174116,364,"1138 N STRICKER  STREET, BALTIMORE, MD, 21217","Match","Exact","1138 N STRICKER ST, BALTIMORE, MD, 21217",206416412,"L"
26865,"1138 Q STREET","RIO LINDA","CA",95673,38.698201564,-121.439879276,365,"1138 Q STREET, RIO LINDA, CA, 95673","Match","Exact","1138 Q ST, RIO LINDA, CA, 95673",133329201,"R"
26866,"1138 RED ROSE LANE","VILLANOVA","PA",19085,40.0591509130001,-75.3165113009999,366,"1138 RED ROSE LANE, VILLANOVA, PA, 19085","Match","Exact","1138 RED ROSE LN, VILLANOVA, PA, 19085",135105618,"L"
26867,"1138 SOUTH BELVOIR BLVD","SOUTH EUCLID","OH",44121,41.5290986910001,-81.5290501759999,367,"1138 SOUTH BELVOIR BLVD, SOUTH EUCLID, OH, 44121","Match","Exact","1138 S BELVOIR BLVD, SOUTH EUCLID, OH, 44121",61124708,"R"
26868,"1138 SW NEW FOREST DR","TOPEKA","KS",66604,39.0470050600001,-95.731503897,368,"1138 SW NEW FOREST DR, TOPEKA, KS, 66604","Match","Exact","1138 SW NEW FOREST DR, TOPEKA, KS, 66604",645782521,"L"
26869,"1138 W 90TH ST","LOS ANGELES","CA",90044,33.9557782580001,-118.294537427,369,"1138 W 90TH ST, LOS ANGELES, CA, 90044","Match","Exact","1138 W 90TH ST, LOS ANGELES, CA, 90044",141660011,"L"
26870,"1138 WESTWOOD AVENUE","COLUMBUS","OH",43212,39.979897355,-83.053093948,370,"1138 WESTWOOD AVENUE, COLUMBUS, OH, 43212","Match","Exact","1138 WESTWOOD AVE, COLUMBUS, OH, 43212",218689284,"R"
26871,"11380 COLONY ROAD   PO BOX 426","WILTON","CA",95693,38.344000228,-121.242107357,371,"11380 COLONY ROAD   PO BOX 426, WILTON, CA, 95693","Match","Exact","11380 COLONY RD, WILTON, CA, 95693",133392812,"R"
26872,"11380 PROSPERITY FARMS ROAD 221E","PALM BEACH GARDENS","FL",33410,26.8441683990001,-80.0721653529999,372,"11380 PROSPERITY FARMS ROAD 221E, PALM BEACH GARDENS, FL, 33410","Match","Exact","11380 PROSPERITY FARMS RD, PALM BEACH GARDENS, FL, 33410",647667753,"R"
26873,"11380 S 4120 RD","OOLOGAH","OK",74053,36.446985409,-95.6716402769999,373,"11380 S 4120 RD, OOLOGAH, OK, 74053","Match","Exact","11380 S 4120 RD, OOLOGAH, OK, 74053",20706940,"L"
26874,"11381 MEADOWGLEN LANE SUITE E","HOUSTON","TX",77082,29.7327565260001,-95.578200791,374,"11381 MEADOWGLEN LANE SUITE E, HOUSTON, TX, 77082","Match","Exact","11381 MEADOWGLEN LN, HOUSTON, TX, 77082",629579648,"R"
26875,"11381 ORANGE GROVE BLVD","WEST PALM BEACH","FL",33411,26.743518839,-80.2212739409999,375,"11381 ORANGE GROVE BLVD, WEST PALM BEACH, FL, 33411","Match","Exact","11381 ORANGE GROVE BLVD, WEST PALM BEACH, FL, 33411",115345565,"R"
26876,"11381 STATE ROUTE 85","KITTANNING","PA",16201,40.8196774730001,-79.44297714,376,"11381 STATE ROUTE 85, KITTANNING, PA, 16201","Match","Exact","11381 STATE RTE 85, KITTANNING, PA, 16201",52484473,"L"
26877,"11382 CHAPMAN AVENUE","GARDEN GROVE","CA",92840,33.7887117400001,-117.934351834,377,"11382 CHAPMAN AVENUE, GARDEN GROVE, CA, 92840","Match","Non_Exact","11382 W CHAPMAN AVE, GARDEN GROVE, CA, 92840",144036215,"R"
26878,"11382 LOUISIANA CIRCLE","BLOOMINGTON","MN",55438,44.7977249460001,-93.376001595,378,"11382 LOUISIANA CIRCLE, BLOOMINGTON, MN, 55438","Match","Exact","11382 LOUISIANA CIR, BLOOMINGTON, MN, 55438",43848390,"L"
26879,"11383 AUBURN","DETROIT","MI",48228,42.370268341,-83.2337849799999,379,"11383 AUBURN, DETROIT, MI, 48228","Match","Non_Exact","11383 AUBURN ST, DETROIT, MI, 48228",95438803,"L"
26880,"11383 MAGNOLIA AVE 30","RIVERSIDE","CA",92505,33.8999826630001,-117.482372025,380,"11383 MAGNOLIA AVE 30, RIVERSIDE, CA, 92505","Match","Exact","11383 MAGNOLIA AVE, RIVERSIDE, CA, 92505",194736987,"R"
26881,"11384 LEGACY CANYON PLACE","SAN DIEGO","CA",92131,32.925183174,-117.058948123,381,"11384 LEGACY CANYON PLACE, SAN DIEGO, CA, 92131","Match","Exact","11384 LEGACY CANYON PL, SAN DIEGO, CA, 92131",195656995,"L"
26882,"11385 ASSYRIA HIGHWAY","BELLEVUE","MI",49021,42.4652437500001,-85.0609931399999,382,"11385 ASSYRIA HIGHWAY, BELLEVUE, MI, 49021","Match","Exact","11385 ASSYRIA HWY, BELLEVUE, MI, 49021",12046411,"R"
26883,"11385 LAKE SHORE DRIVE","COOPER CITY","FM",33026,NA,NA,383,"11385 LAKE SHORE DRIVE, COOPER CITY, FM, 33026","No_Match",NA,NA,NA,NA
26884,"11386 147TH AVENUE","WEST BURLINGTON","IA",52655,40.8483905800001,-91.21367393,384,"11386 147TH AVENUE, WEST BURLINGTON, IA, 52655","Match","Exact","11386 147TH AVE, W BURLINGTON, IA, 52655",5538750,"R"
26885,"11386 BALSAM WAY","WOODBURY","MN",55129,44.914321505,-92.874997314,385,"11386 BALSAM WAY, WOODBURY, MN, 55129","Match","Exact","11386 BALSAM WAY, WOODBURY, MN, 55129",614155907,"L"
26886,"11386 W STATE ROAD 84","DAVIE","FL",33325,NA,NA,386,"11386 W STATE ROAD 84, DAVIE, FL, 33325","No_Match",NA,NA,NA,NA
26887,"11388 79TH ST ME","OTSEGO","MN",55301,45.2650142050001,-93.6543380849999,387,"11388 79TH ST ME, OTSEGO, MN, 55301","Match","Non_Exact","11388 79TH ST NE, OTSEGO, MN, 55301",44021527,"L"
26888,"11388 MICHELLE WAY","HAMPTON","GA",30228,33.444316718,-84.320007447,388,"11388 MICHELLE WAY, HAMPTON, GA, 30228","Match","Exact","11388 MICHELLE WAY, HAMPTON, GA, 30228",640499979,"L"
26889,"11388 MILLER RD","OLIVE BRANCH","MS",38654,34.9040713640001,-89.780033789,389,"11388 MILLER RD, OLIVE BRANCH, MS, 38654","Match","Exact","11388 MILLER RD, OLIVE BRANCH, MS, 38654",620638968,"R"
26890,"11388 NEWARK ST","HENDERSON","CO",80640,39.902632286,-104.852548911,390,"11388 NEWARK ST, HENDERSON, CO, 80640","Match","Exact","11388 NEWARK ST, HENDERSON, CO, 80640",635518214,"L"
26891,"1138A RIVERWAY DRIVE","VISALIA","CA",93291,36.3636636570001,-119.304088987,391,"1138A RIVERWAY DRIVE, VISALIA, CA, 93291","Match","Non_Exact","1138 RIVER WAY DR, VISALIA, CA, 93291",636884722,"R"
26892,"1139  S SANTA FE AVE","VISTA","CA",92083,33.1891528530001,-117.226463247,392,"1139  S SANTA FE AVE, VISTA, CA, 92083","Match","Exact","1139 S SANTA FE AVE, VISTA, CA, 92083",615022446,"R"
26893,"1139 12TH AVENUE","WILMINGTON","DE",19808,39.708065968,-75.6695567369999,393,"1139 12TH AVENUE, WILMINGTON, DE, 19808","Match","Exact","1139 12TH AVE, WILMINGTON, DE, 19808",187289811,"L"
26894,"1139 37TH AVENUE NE","COLUMBIA HEIGHTS","MN",55421,45.0355836310001,-93.242113912,394,"1139 37TH AVENUE NE, COLUMBIA HEIGHTS, MN, 55421","Match","Exact","1139 37TH AVE NE, COLUMBIA HEIGHTS, MN, 55421",635577070,"L"
26895,"1139 46TH PLACE SE","WASHINGTON","DC",20019,38.877367903,-76.933271971,395,"1139 46TH PLACE SE, WASHINGTON, DC, 20019","Match","Exact","1139 46TH PL SE, WASHINGTON, DC, 20019",76236687,"R"
26896,"1139 BIG RIVER RUN CT","KATY","TX",77494,29.771479877,-95.859874303,396,"1139 BIG RIVER RUN CT, KATY, TX, 77494","Match","Exact","1139 BIG RIVER RUN CT, KATY, TX, 77494",653223623,"L"
26897,"1139 BUSHWICK AVE","BROOKLYN","NY",11221,40.6894591810001,-73.918053551,397,"1139 BUSHWICK AVE, BROOKLYN, NY, 11221","Match","Exact","1139 BUSHWICK AVE, BROOKLYN, NY, 11221",59083105,"L"
26898,"1139 COMPASS CT","NAPERVILLE","IL",60540,41.7541101750001,-88.117072204,398,"1139 COMPASS CT, NAPERVILLE, IL, 60540","Match","Exact","1139 COMPASS CT, NAPERVILLE, IL, 60540",112683873,"L"
26899,"1139 COUNTY ROAD 320","LEXINGTON","TX",78947,30.4269037940001,-97.016125247,399,"1139 COUNTY ROAD 320, LEXINGTON, TX, 78947","Match","Exact","1139 CO RD 320, LEXINGTON, TX, 78947",39136697,"L"
26900,"1139 CROSS STREET","PHILADELPHIA","PA",19147,39.930531972,-75.16362233,400,"1139 CROSS STREET, PHILADELPHIA, PA, 19147","Match","Exact","1139 CROSS ST, PHILADELPHIA, PA, 19147",131411969,"R"
26901,"1139 CUSTER PASS ST","SAN ANTONIO","TX",78232,29.582552498,-98.50833505,401,"1139 CUSTER PASS ST, SAN ANTONIO, TX, 78232","Match","Exact","1139 CUSTER PASS ST, SAN ANTONIO, TX, 78232",101576698,"L"
26902,"1139 DATTEL ST","MEMPHIS","TN",38122,35.1626784040001,-89.909233437,402,"1139 DATTEL ST, MEMPHIS, TN, 38122","Match","Exact","1139 DATTEL ST, MEMPHIS, TN, 38122",72916330,"L"
26903,"1139 DAY STAR DRIVE","HARRISBURG","PA",17111,40.28288673,-76.788619554,403,"1139 DAY STAR DRIVE, HARRISBURG, PA, 17111","Match","Exact","1139 DAY STAR DR, HARRISBURG, PA, 17111",624066011,"L"
26904,"1139 E JERSEY STREET","ELIZABETH","NJ",7201,40.6647339780001,-74.2128396749999,404,"1139 E JERSEY STREET, ELIZABETH, NJ, 7201","Match","Exact","1139 E JERSEY ST, ELIZABETH, NJ, 07201",60585384,"R"
26905,"1139 E100 STREET","BROOKLYN","NY",11236,NA,NA,405,"1139 E100 STREET, BROOKLYN, NY, 11236","No_Match",NA,NA,NA,NA
26906,"1139 EASTON RD","ABINGTON","PA",19001,40.1226934530001,-75.132645956,406,"1139 EASTON RD, ABINGTON, PA, 19001","Match","Exact","1139 EASTON RD, ABINGTON, PA, 19001",135092967,"R"
26907,"1139 FLORIDA AVE","SARASOTA","FL",34236,27.3474300070001,-82.5437002689999,407,"1139 FLORIDA AVE, SARASOTA, FL, 34236","Match","Exact","1139 FLORIDA AVE, SARASOTA, FL, 34236",629965886,"L"
26908,"1139 GEMBLER RD","SAN ANTONIO","TX",78219,29.4356345940001,-98.4115071959999,408,"1139 GEMBLER RD, SAN ANTONIO, TX, 78219","Match","Exact","1139 GEMBLER RD, SAN ANTONIO, TX, 78219",101532133,"L"
26909,"1139 HARRISON STREET","MISSOULA","MT",59802,46.8730615800001,-113.975421571,409,"1139 HARRISON STREET, MISSOULA, MT, 59802","Match","Exact","1139 HARRISON ST, MISSOULA, MT, 59802",205239399,"L"
26910,"1139 MAIDEN LANE","ROCHESTER","NY",14615,43.223682318,-77.673410339,410,"1139 MAIDEN LANE, ROCHESTER, NY, 14615","Match","Exact","1139 MAIDEN LN, ROCHESTER, NY, 14615",14568313,"L"
26911,"1139 MAIDEN LN","ROCHESTER","NY",14615,43.223682318,-77.673410339,411,"1139 MAIDEN LN, ROCHESTER, NY, 14615","Match","Exact","1139 MAIDEN LN, ROCHESTER, NY, 14615",14568313,"L"
26912,"1139 MILWAUKEE STREET","HILBERT","WI",54129,44.1380982680001,-88.168299452,412,"1139 MILWAUKEE STREET, HILBERT, WI, 54129","Match","Exact","1139 MILWAUKEE ST, HILBERT, WI, 54129",74788628,"L"
26913,"1139 NORMANDY HEIGHTS CIR","WINTER HAVEN","FL",33880,28.0008806220001,-81.7549985479999,413,"1139 NORMANDY HEIGHTS CIR, WINTER HAVEN, FL, 33880","Match","Exact","1139 NORMANDY HEIGHTS CIR, WINTER HAVEN, FL, 33880",653195231,"R"
26914,"1139 NW MAYFIELD RD","PORTLAND","OR",97229,45.5329209920001,-122.777190475,414,"1139 NW MAYFIELD RD, PORTLAND, OR, 97229","Match","Exact","1139 NW MAYFIELD RD, PORTLAND, OR, 97229",158213536,"R"
26915,"1139 PET SITES RD","CHAPIN","SC",29036,34.1779882450001,-81.281624451,415,"1139 PET SITES RD, CHAPIN, SC, 29036","Match","Exact","1139 PET SITES RD, CHAPIN, SC, 29036",71837831,"L"
26916,"1139 RICHARDS AVENUE","COLORADO SPRINGS","CO",80905,38.798187049,-104.807855788,416,"1139 RICHARDS AVENUE, COLORADO SPRINGS, CO, 80905","Match","Exact","1139 RICHARDS AVE, COLORADO SPRINGS, CO, 80905",105519434,"R"
26917,"1139 S 18TH ST","HARRISBURG","PA",17104,40.2523966730001,-76.856015864,417,"1139 S 18TH ST, HARRISBURG, PA, 17104","Match","Exact","1139 S 18TH ST, HARRISBURG, PA, 17104",636360984,"L"
26918,"1139 SAINT COURT","LOCUST GROVE","GA",30248,NA,NA,418,"1139 SAINT COURT, LOCUST GROVE, GA, 30248","No_Match",NA,NA,NA,NA
26919,"1139 TASKER ROAD","AUGUSTA","ME",4330,44.319226461,-69.6661990809999,419,"1139 TASKER ROAD, AUGUSTA, ME, 4330","Match","Exact","1139 TASKER RD, AUGUSTA, ME, 04330",75472093,"R"
26920,"1139 W LIBERTY DR","LIBERTY","MO",64068,NA,NA,420,"1139 W LIBERTY DR, LIBERTY, MO, 64068","Tie",NA,NA,NA,NA
26921,"1139 W VERMONT AVENUE","CALUMET PARK","IL",60827,41.660071965,-87.6502511469999,421,"1139 W VERMONT AVENUE, CALUMET PARK, IL, 60827","Match","Exact","1139 W VERMONT AVE, CALUMET PARK, IL, 60827",616792838,"L"
26922,"11390 BUHRMAN DRIVE EAST","WAYNESBORO","PA",17268,39.760960421,-77.5477176749999,422,"11390 BUHRMAN DRIVE EAST, WAYNESBORO, PA, 17268","Match","Exact","11390 BUHRMAN DR E, WAYNESBORO, PA, 17268",653374818,"R"
26923,"11390 S HACKBERRY TR / 74","MAYER","AZ",86333,34.380253467,-112.241453087,423,"11390 S HACKBERRY TR / 74, MAYER, AZ, 86333","Match","Exact","11390 HACKBERRY TRL, MAYER, AZ, 86333",159534159,"L"
26924,"11391 ISLAND LAKES LANE","BOCA RATON","FL",33498,26.367728933,-80.227634999,424,"11391 ISLAND LAKES LANE, BOCA RATON, FL, 33498","Match","Exact","11391 ISLAND LAKES LN, BOCA RATON, FL, 33498",115326732,"R"
26925,"11391 OLD HWY 49","GULFPORT","MS",39503,30.452483161,-89.104053555,425,"11391 OLD HWY 49, GULFPORT, MS, 39503","Match","Exact","11391 OLD HWY 49, GULFPORT, MS, 39503",111397209,"L"
26926,"11393 LUZ PLACE","SAN DIEGO","CA",92127,33.0342080340001,-117.083546849,426,"11393 LUZ PLACE, SAN DIEGO, CA, 92127","Match","Exact","11393 LUZ PL, SAN DIEGO, CA, 92127",195315159,"R"
26927,"11395 N COUNTY ROAD 17","FORT COLLINS","CO",80524,NA,NA,427,"11395 N COUNTY ROAD 17, FORT COLLINS, CO, 80524","No_Match",NA,NA,NA,NA
26928,"11395 PANAMA CITY BEACH PARKWAY","PANAMA CITY BEACH","FL",32407,NA,NA,428,"11395 PANAMA CITY BEACH PARKWAY, PANAMA CITY BEACH, FL, 32407","No_Match",NA,NA,NA,NA
26929,"11395 ROESE RD","IOLA","TX",77861,30.65192111,-96.137183928,429,"11395 ROESE RD, IOLA, TX, 77861","Match","Exact","11395 ROESE RD, IOLA, TX, 77861",647653351,"L"
26930,"11397 AMBER HILLS CT","FAIRFAX","VA",22033,38.869056712,-77.340637473,430,"11397 AMBER HILLS CT, FAIRFAX, VA, 22033","Match","Exact","11397 AMBER HILLS CT, FAIRFAX, VA, 22033",624268142,"R"
26931,"11397 WEST 55TH LANE","ARVADA","CO",80002,39.797799051,-105.12477218,431,"11397 WEST 55TH LANE, ARVADA, CO, 80002","Match","Exact","11397 W 55TH LN, ARVADA, CO, 80002",177762671,"R"
26932,"11399 ARISTOTLE DRIVE APT 103","FAIRFAX","VA",22030,38.8594291160001,-77.336368631,432,"11399 ARISTOTLE DRIVE APT 103, FAIRFAX, VA, 22030","Match","Exact","11399 ARISTOTLE DR, FAIRFAX, VA, 22030",632953052,"R"
26933,"113A COUNTY ROAD 1411","NETTLETON","MS",38858,34.1613465830001,-88.577071911,433,"113A COUNTY ROAD 1411, NETTLETON, MS, 38858","Match","Exact","113 CO RD 1411, NETTLETON, MS, 38858",649497128,"L"
26934,"113CAMPBELL STR","ABERDEEN","NC",28315,NA,NA,434,"113CAMPBELL STR, ABERDEEN, NC, 28315","No_Match",NA,NA,NA,NA
26935,"114  BILTMORE COURT","NEWPORT NEWS","VA",23602,NA,NA,435,"114  BILTMORE COURT, NEWPORT NEWS, VA, 23602","No_Match",NA,NA,NA,NA
26936,"114 1/2 ARTHUR DRIVE","CLANTON","AL",35045,NA,NA,436,"114 1/2 ARTHUR DRIVE, CLANTON, AL, 35045","Tie",NA,NA,NA,NA
26937,"114 1/2 EAST COLLEGE STE 4","IOWA CITY","IA",52240,41.658992391,-91.534443068,437,"114 1/2 EAST COLLEGE STE 4, IOWA CITY, IA, 52240","Match","Non_Exact","114 E COLLEGE ST, IOWA CITY, IA, 52240",638434124,"L"
26938,"114 1/2 W WATER ST","DECORAH","IA",52101,43.304171791,-91.786594657,438,"114 1/2 W WATER ST, DECORAH, IA, 52101","Match","Exact","114 W WATER ST, DECORAH, IA, 52101",27510769,"R"
26939,"114 1/2 WEST MARION STREET","EATONTON","GA",31024,NA,NA,439,"114 1/2 WEST MARION STREET, EATONTON, GA, 31024","No_Match",NA,NA,NA,NA
26940,"114 14 197TH STREET","SAINT ALBANS","NY",11412,NA,NA,440,"114 14 197TH STREET, SAINT ALBANS, NY, 11412","No_Match",NA,NA,NA,NA
26941,"114 16TH STREET","CHARLESTOWN","MA",2129,42.3788008860001,-71.050588093,441,"114 16TH STREET, CHARLESTOWN, MA, 2129","Match","Exact","114 16TH ST, CHARLESTOWN, MA, 02129",85709621,"L"
26942,"114 20 205TH STREET","SAINT ALBANS","NY",11412,NA,NA,442,"114 20 205TH STREET, SAINT ALBANS, NY, 11412","No_Match",NA,NA,NA,NA
26943,"114 3RD STREET SW SUITE D","ROSEAU","MN",56751,48.84344786,-95.763133768,443,"114 3RD STREET SW SUITE D, ROSEAU, MN, 56751","Match","Exact","114 3RD ST SW, ROSEAU, MN, 56751",611929828,"L"
26944,"114 4TH AVENUE","RANKIN","PA",15104,40.4118510870001,-79.8776206749999,444,"114 4TH AVENUE, RANKIN, PA, 15104","Match","Exact","114 FOURTH AVE, RANKIN, PA, 15104",51654556,"R"
26945,"114 5TH AVE W","ALEXANDRIA","MN",56308,45.887105408,-95.377937004,445,"114 5TH AVE W, ALEXANDRIA, MN, 56308","Match","Exact","114 5TH AVE W, ALEXANDRIA, MN, 56308",204650606,"L"
26946,"114 5TH ST SE NO 308","MINNEAPOLIS","MN",55414,44.988688687,-93.252996335,446,"114 5TH ST SE NO 308, MINNEAPOLIS, MN, 55414","Match","Exact","114 5TH ST SE, MINNEAPOLIS, MN, 55414",43632990,"R"
26947,"114 6TH AVE W","SPRINGFIELD","TN",37172,NA,NA,447,"114 6TH AVE W, SPRINGFIELD, TN, 37172","No_Match",NA,NA,NA,NA
26948,"114 ALASKAN WAY S SUITE 506","SEATTLE","WA",98104,47.601605443,-122.336473748,448,"114 ALASKAN WAY S SUITE 506, SEATTLE, WA, 98104","Match","Exact","114 ALASKAN WAY S, SEATTLE, WA, 98104",186589632,"L"
26949,"114 ALBION STREET","PASSAIC","NJ",7055,40.852121573,-74.1367174769999,449,"114 ALBION STREET, PASSAIC, NJ, 7055","Match","Exact","114 ALBION ST, PASSAIC, NJ, 07055",65252319,"R"
26950,"114 ARTIST LANE","EAST FREEDOM","PA",16637,40.333486377,-78.434616164,450,"114 ARTIST LANE, EAST FREEDOM, PA, 16637","Match","Exact","114 ARTIST LN, EAST FREEDOM, PA, 16637",49726418,"L"
26951,"114 ASBURY STREET","BRUNSWICK","GA",31522,31.178041272,-81.4039501729999,451,"114 ASBURY STREET, BRUNSWICK, GA, 31522","Match","Exact","114 ASBURY ST, BRUNSWICK, GA, 31522",9133855,"R"
26952,"114 ASHTON DR","MCDONOUGH","GA",30253,33.4367870090001,-84.187454831,452,"114 ASHTON DR, MCDONOUGH, GA, 30253","Match","Exact","114 ASHTON DR, MCDONOUGH, GA, 30253",23201382,"L"
26953,"114 AYLSWORTH AVE","BOZEMAN","MT",59715,45.6780166990001,-111.020492551,453,"114 AYLSWORTH AVE, BOZEMAN, MT, 59715","Match","Non_Exact","114 AYLSWORTH ST, BOZEMAN, MT, 59715",163499816,"R"
26954,"114 AYRSHIRE CT","STEPHENS CITY","VA",22655,39.0990582370001,-78.177368915,454,"114 AYRSHIRE CT, STEPHENS CITY, VA, 22655","Match","Exact","114 AYRSHIRE CT, STEPHENS CITY, VA, 22655",55596700,"R"
26955,"114 BALLENTINE CROSSING LANE 4205","IRMO","SC",29063,34.14072709,-81.2350015069999,455,"114 BALLENTINE CROSSING LANE 4205, IRMO, SC, 29063","Match","Exact","114 BALLENTINE CROSSING LN, IRMO, SC, 29063",645303131,"R"
26956,"114 BAYOU BEND DR","HOUMA","LA",70364,29.664237218,-90.704559094,456,"114 BAYOU BEND DR, HOUMA, LA, 70364","Match","Exact","114 BAYOU BEND DR, HOUMA, LA, 70364",647357021,"L"
26957,"114 BAYSIDE CT","RICHMOND","CA",94804,37.9125890890001,-122.338319533,457,"114 BAYSIDE CT, RICHMOND, CA, 94804","Match","Exact","114 BAYSIDE CT, RICHMOND, CA, 94804",631732208,"R"
26958,"114 BEACH STREET BUILDING 5","ROCKAWAY","NJ",7866,40.9012544330001,-74.504534663,458,"114 BEACH STREET BUILDING 5, ROCKAWAY, NJ, 7866","Match","Exact","114 BEACH ST, ROCKAWAY, NJ, 07866",60439414,"R"
26959,"114 BERENGER WALK","WELLINGTON","FL",33414,26.6714015530001,-80.21198193,459,"114 BERENGER WALK, WELLINGTON, FL, 33414","Match","Exact","114 BERENGER WALK, WELLINGTON, FL, 33414",647714751,"L"
26960,"114 BERKLEY AVE","LAFAYETTE","LA",70501,30.2517469900001,-92.0184204669999,460,"114 BERKLEY AVE, LAFAYETTE, LA, 70501","Match","Exact","114 BERKLEY AVE, LAFAYETTE, LA, 70501",642936701,"R"
26961,"114 BIBLE CAMP ROAD","LUCEDALE","MS",39452,30.8715141860001,-88.475287969,461,"114 BIBLE CAMP ROAD, LUCEDALE, MS, 39452","Match","Exact","114 BIBLE CAMP RD, LUCEDALE, MS, 39452",62287575,"L"
26962,"114 BIG SIOUX DR","POINCIANA","FL",34759,28.0394270560001,-81.5030870579999,462,"114 BIG SIOUX DR, POINCIANA, FL, 34759","Match","Exact","114 BIG SIOUX DR, POINCIANA, FL, 34759",104870698,"L"
26963,"114 BISHOP DR","ASTON","PA",19014,39.8812084190001,-75.4642558149999,463,"114 BISHOP DR, ASTON, PA, 19014","Match","Exact","114 BISHOP DR, ASTON, PA, 19014",648092005,"R"
26964,"114 BLACK FOREST DRIVE","MADISON HEIGHTS","VA",24572,37.479201301,-79.15830854,464,"114 BLACK FOREST DRIVE, MADISON HEIGHTS, VA, 24572","Match","Exact","114 BLACK FOREST DR, MADISON HEIGHTS, VA, 24572",159110168,"R"
26965,"114 BOUTWELL AVE","UNION SPRINGS","AL",36089,32.149654303,-85.678934839,465,"114 BOUTWELL AVE, UNION SPRINGS, AL, 36089","Match","Non_Exact","114 BOUTWELL AVE E, UNION SPRINGS, AL, 36089",649794255,"L"
26966,"114 BRADFORD BLUFF DR","MONTGOMERY","TX",77316,30.272706493,-95.540734055,466,"114 BRADFORD BLUFF DR, MONTGOMERY, TX, 77316","Match","Exact","114 BRADFORD BLUFF DR, MONTGOMERY, TX, 77316",646646858,"R"
26967,"114 BRAELOCK DRIVE","OCOEE","FL",34761,28.524137867,-81.5396722099999,467,"114 BRAELOCK DRIVE, OCOEE, FL, 34761","Match","Exact","114 BRAELOCK DR, OCOEE, FL, 34761",94408734,"L"
26968,"114 BRIAN AVE","SOMERSET","MA",2726,41.7738975190001,-71.150940267,468,"114 BRIAN AVE, SOMERSET, MA, 2726","Match","Exact","114 BRIAN AVE, SOMERSET, MA, 02726",46768113,"R"
26969,"114 BRISTOL LANE","CALHOUN","GA",30701,34.496891616,-84.93316404,469,"114 BRISTOL LANE, CALHOUN, GA, 30701","Match","Non_Exact","114 BRISTOL PL, CALHOUN, GA, 30701",627712829,"L"
26970,"114 BRIX DRIVE","LOCUST GROVE","GA",30248,33.376808962,-84.0834049919999,470,"114 BRIX DRIVE, LOCUST GROVE, GA, 30248","Match","Non_Exact","114 BRIX RD, LOCUST GROVE, GA, 30248",619913510,"R"
26971,"114 BROAD STREET","RICHBURG","SC",29729,34.716518342,-81.017758074,471,"114 BROAD STREET, RICHBURG, SC, 29729","Match","Exact","114 BROAD ST, RICHBURG, SC, 29729",40570273,"R"
26972,"114 BROADWAY SUITE 101","SOMERVILLE","MA",2145,42.387689643,-71.0838649359999,472,"114 BROADWAY SUITE 101, SOMERVILLE, MA, 2145","Match","Exact","114 BROADWAY, SOMERVILLE, MA, 02145",86870482,"L"
26973,"114 BUCCANEER ST","MARINA DEL REY","CA",90292,33.978785053,-118.464551468,473,"114 BUCCANEER ST, MARINA DEL REY, CA, 90292","Match","Exact","114 BUCCANEER ST, MARINA DEL REY, CA, 90292",142444622,"R"
26974,"114 BUCKINGHAM CIRCLE","CHARLOTTESVILLE","VA",22903,38.0285896870001,-78.529977706,474,"114 BUCKINGHAM CIRCLE, CHARLOTTESVILLE, VA, 22903","Match","Exact","114 BUCKINGHAM CIR, CHARLOTTESVILLE, VA, 22903",83398961,"R"
26975,"114 BUDDTOWN ROAD","SOUTHAMPTON","NJ",8088,39.9316138630001,-74.7270593979999,475,"114 BUDDTOWN ROAD, SOUTHAMPTON, NJ, 8088","Match","Exact","114 BUDDTOWN RD, SOUTHAMPTON, NJ, 08088",624772855,"R"
26976,"114 CAJUN PINES CT","BRANCH","LA",70516,30.3564881470001,-92.252328108,476,"114 CAJUN PINES CT, BRANCH, LA, 70516","Match","Exact","114 CAJUN PINES CT, BRANCH, LA, 70516",88298425,"L"
26977,"114 CAMPUS DRIVE","DAYTON","TN",37321,35.4928855580001,-85.112493292,477,"114 CAMPUS DRIVE, DAYTON, TN, 37321","Match","Exact","114 CAMPUS DR, DAYTON, TN, 37321",59538690,"R"
26978,"114 CANARY STREET","ELGIN","TX",78621,30.3489181890001,-97.382386257,478,"114 CANARY STREET, ELGIN, TX, 78621","Match","Exact","114 CANARY ST, ELGIN, TX, 78621",45460584,"L"
26979,"114 CAPITAL ST","LYNCHBURG","VA",24502,37.3408328790001,-79.227229111,479,"114 CAPITAL ST, LYNCHBURG, VA, 24502","Match","Exact","114 CAPITAL ST, LYNCHBURG, VA, 24502",624657613,"L"
26980,"114 CARLISLE SE","ALBUQUERQUE","NM",87106,35.079009569,-106.604542236,480,"114 CARLISLE SE, ALBUQUERQUE, NM, 87106","Match","Non_Exact","114 CARLISLE BLVD SE, ALBUQUERQUE, NM, 87106",206710426,"L"
26981,"114 CARLTON BLVD","RIDGELAND","MS",39157,32.438361505,-90.1624634,481,"114 CARLTON BLVD, RIDGELAND, MS, 39157","Match","Exact","114 CARLTON BLVD, RIDGELAND, MS, 39157",152489784,"R"
26982,"114 CASIMIR DRIVE","NEW CASTLE","DE",19720,39.670549308,-75.5651994899999,482,"114 CASIMIR DRIVE, NEW CASTLE, DE, 19720","Match","Exact","114 CASIMIR DR, NEW CASTLE, DE, 19720",187270620,"R"
26983,"114 CEDARWOOD TRL","HIGH POINT","NC",27265,36.017577997,-80.058163626,483,"114 CEDARWOOD TRL, HIGH POINT, NC, 27265","Match","Exact","114 CEDARWOOD TRL, HIGH POINT, NC, 27265",84644464,"R"
26984,"114 CENTRE ST","HADDONFIELD","NJ",8033,39.894386673,-75.0314241299999,484,"114 CENTRE ST, HADDONFIELD, NJ, 8033","Match","Exact","114 CENTER ST, HADDONFIELD, NJ, 08033",134354932,"R"
26985,"114 CESTWOOD CIRCLE","CENTERVILLE","GA",31028,NA,NA,485,"114 CESTWOOD CIRCLE, CENTERVILLE, GA, 31028","No_Match",NA,NA,NA,NA
26986,"114 CHAMBERS RD","BISHOPVILLE","SC",29010,34.160080835,-80.303235969,486,"114 CHAMBERS RD, BISHOPVILLE, SC, 29010","Match","Exact","114 CHAMBERS RD, BISHOPVILLE, SC, 29010",632128942,"R"
26987,"114 CHAMBORD DRIVE","MAUMELLE","AR",72113,34.843172806,-92.4006850229999,487,"114 CHAMBORD DRIVE, MAUMELLE, AR, 72113","Match","Exact","114 CHAMBORD DR, MAUMELLE, AR, 72113",83537805,"L"
26988,"114 CHAPEL VIEW DRIVE","GREENSBURG","PA",15601,40.333697715,-79.546393625,488,"114 CHAPEL VIEW DRIVE, GREENSBURG, PA, 15601","Match","Exact","114 CHAPEL VIEW DR, GREENSBURG, PA, 15601",52992624,"R"
26989,"114 CHELSEA DRIVE","LATROBE","PA",15650,40.2783986250001,-79.4450829419999,489,"114 CHELSEA DRIVE, LATROBE, PA, 15650","Match","Exact","114 CHELSEA DR, LATROBE, PA, 15650",630424217,"R"
26990,"114 CHERRY STREET SUITE D","MARIETTA","GA",30060,33.967836543,-84.5489139909999,490,"114 CHERRY STREET SUITE D, MARIETTA, GA, 30060","Match","Exact","114 CHERRY ST, MARIETTA, GA, 30060",17175860,"R"
26991,"114 CHESTNUT STREET","KEARNY","NJ",7032,40.755950646,-74.1536587589999,491,"114 CHESTNUT STREET, KEARNY, NJ, 7032","Match","Exact","114 CHESTNUT ST, KEARNY, NJ, 07032",59600521,"R"
26992,"114 CHEYENNE TRAIL","HUNTSVILLE","AL",35806,34.777700155,-86.688754397,492,"114 CHEYENNE TRAIL, HUNTSVILLE, AL, 35806","Match","Exact","114 CHEYENNE TRL, HUNTSVILLE, AL, 35806",58161107,"R"
26993,"114 CIRCLE DRIVE","ANDERSON","IN",46013,40.070791065,-85.676543958,493,"114 CIRCLE DRIVE, ANDERSON, IN, 46013","Match","Exact","114 CIRCLE DR, ANDERSON, IN, 46013",31115475,"L"
26994,"114 CLARA STREET","LAFAYETTE","LA",70501,30.2489731160001,-92.0343368489999,494,"114 CLARA STREET, LAFAYETTE, LA, 70501","Match","Exact","114 CLARA ST, LAFAYETTE, LA, 70501",85639609,"R"
26995,"114 CLAYTON ROAD","EAST HARTFORD","CT",6118,41.7377781180001,-72.614228982,495,"114 CLAYTON ROAD, EAST HARTFORD, CT, 6118","Match","Exact","114 CLAYTON RD, EAST HARTFORD, CT, 06118",3496415,"R"
26996,"114 COLEMAN ROAD","WALDEN","NY",12586,41.5341277270001,-74.184434389,496,"114 COLEMAN ROAD, WALDEN, NY, 12586","Match","Exact","114 COLEMAN RD, WALDEN, NY, 12586",124408282,"R"
26997,"114 COLES STREET UNIT 2L","JERSEY CITY","NJ",7302,40.7260424660001,-74.047060218,497,"114 COLES STREET UNIT 2L, JERSEY CITY, NJ, 7302","Match","Exact","114 COLES ST, JERSEY CITY, NJ, 07302",59606120,"R"
26998,"114 COLLEGE DR","GAFFNEY","SC",29340,35.069394871,-81.6519232799999,498,"114 COLLEGE DR, GAFFNEY, SC, 29340","Match","Exact","114 COLLEGE DR, GAFFNEY, SC, 29340",18988686,"L"
26999,"114 COLUMBINE DRIVE","SALINAS","CA",93906,36.695346333,-121.654004248,499,"114 COLUMBINE DRIVE, SALINAS, CA, 93906","Match","Exact","114 COLUMBINE DR, SALINAS, CA, 93906",196819341,"R"
27000,"114 CONESTOGA ROAD","WAYNE","PW",19087,NA,NA,500,"114 CONESTOGA ROAD, WAYNE, PW, 19087","No_Match",NA,NA,NA,NA
