"ID","Address","City","State","Zip","lat","long","id","input_address","match_indicator","match_type","matched_address","tiger_line_id","tiger_side"
144001,"2623 DIVING DUCK CT","HUMBLE","TX",77396,29.9656721800001,-95.2295362849999,1,"2623 DIVING DUCK CT, HUMBLE, TX, 77396","Match","Exact","2623 DIVING DUCK CT, HUMBLE, TX, 77396",624859687,"L"
144002,"2623 E 6TH ST","LONG BEACH","CA",90814,33.7735235100001,-118.160828511,2,"2623 E 6TH ST, LONG BEACH, CA, 90814","Match","Exact","2623 E 6TH ST, LONG BEACH, CA, 90814",141701421,"L"
144003,"2623 E MADISON STREET","BALTIMORE","MD",21205,39.2999959580001,-76.5802034929999,3,"2623 E MADISON STREET, BALTIMORE, MD, 21205","Match","Exact","2623 E MADISON ST, BALTIMORE, MD, 21205",206424262,"R"
144004,"2623 F STREET SUITE F","BAKERSFIELD","CA",93301,35.383180038,-119.023486022,4,"2623 F STREET SUITE F, BAKERSFIELD, CA, 93301","Match","Exact","2623 F ST, BAKERSFIELD, CA, 93301",109087374,"L"
144005,"2623 HIGHLANDS CREEK WAY","LAKELAND","FL",33813,27.939781768,-81.913381413,5,"2623 HIGHLANDS CREEK WAY, LAKELAND, FL, 33813","Match","Exact","2623 HIGHLANDS CREEK WAY, LAKELAND, FL, 33813",646913513,"L"
144006,"2623 JANIS CIRCLE","ALAMEDA","CA",94501,37.7635878940001,-122.236752522,6,"2623 JANIS CIRCLE, ALAMEDA, CA, 94501","Match","Exact","2623 JANIS CIR, ALAMEDA, CA, 94501",125006177,"L"
144007,"2623 JENNINGS ROAD","NEW LONDON","OH",44851,41.1160550050001,-82.492681063,7,"2623 JENNINGS ROAD, NEW LONDON, OH, 44851","Match","Exact","2623 JENNINGS RD, NEW LONDON, OH, 44851",12623765,"L"
144008,"2623 JOSHUA TREE LANE","MANVEL","TX",77578,29.524898874,-95.379253207,8,"2623 JOSHUA TREE LANE, MANVEL, TX, 77578","Match","Exact","2623 JOSHUA TREE LN, MANVEL, TX, 77578",641828392,"R"
144009,"2623 LAS MERCEDES LANE","CORONA","CA",92879,33.900302846,-117.517671886,9,"2623 LAS MERCEDES LANE, CORONA, CA, 92879","Match","Exact","2623 LAS MERCEDES LN, CORONA, CA, 92879",194852125,"L"
144010,"2623 LAUREL WOODS LANE SE","CONYERS","GA",30094,33.617475503,-84.0287888349999,10,"2623 LAUREL WOODS LANE SE, CONYERS, GA, 30094","Match","Exact","2623 LAUREL WOODS LN SE, CONYERS, GA, 30094",23748283,"L"
144011,"2623 LUCAS DRIVE","DALLAS","TX",75219,32.812652058,-96.821415182,11,"2623 LUCAS DRIVE, DALLAS, TX, 75219","Match","Exact","2623 LUCAS DR, DALLAS, TX, 75219",102905036,"L"
144012,"2623 MILITARY ROAD","ARLINGTON","VA",22207,38.907101089,-77.110413589,12,"2623 MILITARY ROAD, ARLINGTON, VA, 22207","Match","Non_Exact","2623 N MILITARY RD, ARLINGTON, VA, 22207",76468061,"R"
144013,"2623 N CHARLESTON CROSSING","FAYETTEVILLE","AR",72703,36.098638496,-94.112843993,13,"2623 N CHARLESTON CROSSING, FAYETTEVILLE, AR, 72703","Match","Exact","2623 N CHARLESTON CROSSING, FAYETTEVILLE, AR, 72703",49060997,"R"
144014,"2623 N MAIN ST STE E","DANVILLE","VA",24540,36.6219590160001,-79.383638192,14,"2623 N MAIN ST STE E, DANVILLE, VA, 24540","Match","Non_Exact","2623 N MAIN ST, DANVILLE, VA, 24540",56589270,"L"
144015,"2623 PEARY COURT","CHARLOTTE","NC",28211,35.1544663280001,-80.819705869,15,"2623 PEARY COURT, CHARLOTTE, NC, 28211","Match","Exact","2623 PEARY CT, CHARLOTTE, NC, 28211",70489340,"L"
144016,"2623 POLK AND WHITE RD","CHARLOTTE","NC",28269,35.3522534860001,-80.762054456,16,"2623 POLK AND WHITE RD, CHARLOTTE, NC, 28269","Match","Exact","2623 POLK AND WHITE RD, CHARLOTTE, NC, 28269",635657747,"L"
144017,"2623 RUTLAND RD","NAPERVILLE","IL",60564,41.7225061670001,-88.199153387,17,"2623 RUTLAND RD, NAPERVILLE, IL, 60564","Match","Exact","2623 RUTLAND RD, NAPERVILLE, IL, 60564",111585310,"R"
144018,"2623 S 71ST STREET","PHILADELPHIA","PA",19142,39.914619284,-75.237211356,18,"2623 S 71ST STREET, PHILADELPHIA, PA, 19142","Match","Exact","2623 S 71ST ST, PHILADELPHIA, PA, 19142",640222067,"L"
144019,"2623 SPRINGWAY DR","CHARLOTTE","NC",28205,35.2376415570001,-80.783173731,19,"2623 SPRINGWAY DR, CHARLOTTE, NC, 28205","Match","Exact","2623 SPRINGWAY DR, CHARLOTTE, NC, 28205",70481349,"L"
144020,"2623 UNION CHAPEL ROAD","FORT WAYNE","IN",46845,41.2000896910001,-85.110015701,20,"2623 UNION CHAPEL ROAD, FORT WAYNE, IN, 46845","Match","Exact","2623 UNION CHAPEL RD, FORT WAYNE, IN, 46845",641235505,"L"
144021,"2623 URSULINES AVENUE","NEW ORLEANS","LA",70119,29.973196268,-90.079054066,21,"2623 URSULINES AVENUE, NEW ORLEANS, LA, 70119","Match","Exact","2623 URSULINES AVE, NEW ORLEANS, LA, 70119",191709537,"R"
144022,"2623 WEDGEWOOD COURT","TURLOCK","CA",95382,37.511334807,-120.81785526,22,"2623 WEDGEWOOD COURT, TURLOCK, CA, 95382","Match","Exact","2623 WEDGEWOOD CT, TURLOCK, CA, 95382",102625048,"R"
144023,"2623 WENDELL AVE","LOUISVILLE","KY",40205,38.2176654290001,-85.662910122,23,"2623 WENDELL AVE, LOUISVILLE, KY, 40205","Match","Exact","2623 WENDELL AVE, LOUISVILLE, KY, 40205",96854106,"L"
144024,"2623 WEST BLVD       APT 201","LOS ANGELES","CA",90016,34.0321679630001,-118.341698019,24,"2623 WEST BLVD       APT 201, LOS ANGELES, CA, 90016","Match","Exact","2623 WEST BLVD, LOS ANGELES, CA, 90016",141601859,"R"
144025,"26231 W  LONE CACTUS DR","BUCKEYE","AZ",85396,33.678996069,-112.615417025,25,"26231 W  LONE CACTUS DR, BUCKEYE, AZ, 85396","Match","Exact","26231 LONE CACTUS DR, BUCKEYE, AZ, 85396",624618618,"L"
144026,"26233 LEAFWOOD DR","MORENO VALLEY","CA",92555,33.941431971,-117.205219989,26,"26233 LEAFWOOD DR, MORENO VALLEY, CA, 92555","Match","Exact","26233 LEAFWOOD DR, MORENO VALLEY, CA, 92555",609011208,"R"
144027,"26233 WOODVILLA PLACE","SOUTHFIELD","MI",48076,42.4833939640001,-83.2124786319999,27,"26233 WOODVILLA PLACE, SOUTHFIELD, MI, 48076","Match","Exact","26233 WOODVILLA PL, SOUTHFIELD, MI, 48076",69739990,"L"
144028,"26234 INDUSTRIAL BLVD","HAYWARD","CA",94545,37.63446952,-122.111964506,28,"26234 INDUSTRIAL BLVD, HAYWARD, CA, 94545","Match","Exact","26234 INDUSTRIAL BLVD, HAYWARD, CA, 94545",648128796,"L"
144029,"26238 S WIND LAKE RD","WIND LAKE","WI",53185,42.8141142270001,-88.154428108,29,"26238 S WIND LAKE RD, WIND LAKE, WI, 53185","Match","Exact","26238 S WIND LAKE RD, WIND LAKE, WI, 53185",77933587,"L"
144030,"2624 18TH ST BOX 42033","LUBBOCK","TX",79409,NA,NA,30,"2624 18TH ST BOX 42033, LUBBOCK, TX, 79409","No_Match",NA,NA,NA,NA
144031,"2624 95TH STREET","EAST ELMHURST","NY",11369,NA,NA,31,"2624 95TH STREET, EAST ELMHURST, NY, 11369","No_Match",NA,NA,NA,NA
144032,"2624 APOLLO CIRCLE","HOOVER","AL",35226,33.403780929,-86.824351592,32,"2624 APOLLO CIRCLE, HOOVER, AL, 35226","Match","Exact","2624 APOLLO CIR, HOOVER, AL, 35226",81582713,"R"
144033,"2624 BARAMORE OAKS LN","MARIETTA","GA",30062,34.0153961170001,-84.488889593,33,"2624 BARAMORE OAKS LN, MARIETTA, GA, 30062","Match","Exact","2624 BARAMORE OAKS LN, MARIETTA, GA, 30062",17220937,"L"
144034,"2624 BENT TREE DR","HURST","TX",76054,32.8611317630001,-97.1820793589999,34,"2624 BENT TREE DR, HURST, TX, 76054","Match","Exact","2624 BENT TREE DR, HURST, TX, 76054",102100751,"R"
144035,"2624 BOWER COURT","INVER GROVE HEIGHTS","MN",55076,44.881232879,-93.051761673,35,"2624 BOWER COURT, INVER GROVE HEIGHTS, MN, 55076","Match","Exact","2624 BOWER CT, INVER GROVE HEIGHTS, MN, 55076",37977043,"L"
144036,"2624 BRANDEIS AVENUE","SOUTH PARK","PA",15129,NA,NA,36,"2624 BRANDEIS AVENUE, SOUTH PARK, PA, 15129","No_Match",NA,NA,NA,NA
144037,"2624 CHESTERFLELD COURT","MURFREESBORO","TN",37129,NA,NA,37,"2624 CHESTERFLELD COURT, MURFREESBORO, TN, 37129","No_Match",NA,NA,NA,NA
144038,"2624 DOUGLAS FIR","HARKER HEIGHTS","TX",76548,31.0431572370001,-97.6409978739999,38,"2624 DOUGLAS FIR, HARKER HEIGHTS, TX, 76548","Match","Non_Exact","2624 DOUGLAS FIR DR, HARKER HEIGHTS, TX, 76548",642822384,"L"
144039,"2624 E BROOKS ST","GILBERT","AZ",85296,33.335160752,-111.733268467,39,"2624 E BROOKS ST, GILBERT, AZ, 85296","Match","Exact","2624 E BROOKS ST, GILBERT, AZ, 85296",128810722,"L"
144040,"2624 E SEAN AVE","FRESNO","CA",93720,36.8398561180001,-119.735607184,40,"2624 E SEAN AVE, FRESNO, CA, 93720","Match","Exact","2624 E SEAN AVE, FRESNO, CA, 93720",197621738,"L"
144041,"2624 FOURTH AVENUE SOUTHEAST","NAPLES","FL",34117,26.223156144,-81.55095854,41,"2624 FOURTH AVENUE SOUTHEAST, NAPLES, FL, 34117","Match","Exact","2624 4TH AVE SE, NAPLES, FL, 34117",115132166,"R"
144042,"2624 FURLONG AVE","SAINT ALBANS","WV",25177,38.381080501,-81.801748732,42,"2624 FURLONG AVE, SAINT ALBANS, WV, 25177","Match","Exact","2624 FURLONG AVE, SAINT ALBANS, WV, 25177",78585382,"L"
144043,"2624 N HWY 127","HUNTSVILLE","AR",72740,36.1652829710001,-93.6877610939999,43,"2624 N HWY 127, HUNTSVILLE, AR, 72740","Match","Non_Exact","2624 STATE HWY 127, HUNTSVILLE, AR, 72740",48928010,"R"
144044,"2624 PARK PLACE","EVANSTON","IL",60201,42.0666940990001,-87.709555935,44,"2624 PARK PLACE, EVANSTON, IL, 60201","Match","Exact","2624 PARK PL, EVANSTON, IL, 60201",111739896,"L"
144045,"2624 ROLLINS AVENUE","DES MOINES","IA",50312,41.5924499830001,-93.65258553,45,"2624 ROLLINS AVENUE, DES MOINES, IA, 50312","Match","Exact","2624 ROLLINS AVE, DES MOINES, IA, 50312",65850797,"L"
144046,"2624 ROSELAND TER","SAINT LOUIS","MO",63143,38.6149180150001,-90.316282786,46,"2624 ROSELAND TER, SAINT LOUIS, MO, 63143","Match","Exact","2624 ROSELAND TER, SAINT LOUIS, MO, 63143",100164047,"R"
144047,"2624 ROYAL CREST DR","MIDLOTHIAN","VA",23113,37.5428312500001,-77.671728786,47,"2624 ROYAL CREST DR, MIDLOTHIAN, VA, 23113","Match","Exact","2624 ROYAL CREST DR, MIDLOTHIAN, VA, 23113",625627062,"L"
144048,"2624 SOUTH ARLINGTON AVENUE","INDEPENDENCE","MO",64052,39.075247274,-94.466360344,48,"2624 SOUTH ARLINGTON AVENUE, INDEPENDENCE, MO, 64052","Match","Exact","2624 S ARLINGTON AVE, INDEPENDENCE, MO, 64052",91459907,"R"
144049,"2624 TREMONT STREET","PHILADELPHIA","PA",19152,40.0713701770001,-75.033592477,49,"2624 TREMONT STREET, PHILADELPHIA, PA, 19152","Match","Exact","2624 TREMONT ST, PHILADELPHIA, PA, 19152",131431687,"R"
144050,"2624 VICTOR","KANSAS CITY","MO",64128,39.0738051540001,-94.552123625,50,"2624 VICTOR, KANSAS CITY, MO, 64128","Match","Non_Exact","2624 VICTOR ST, KANSAS CITY, MO, 64128",91450155,"L"
144051,"2624 W 38TH PL","DAVENPORT","IA",52806,41.5594836880001,-90.614629569,51,"2624 W 38TH PL, DAVENPORT, IA, 52806","Match","Exact","2624 W 38TH PL, DAVENPORT, IA, 52806",122705721,"R"
144052,"2624 W CALLE PUEBLA","TUCSON","AZ",85745,32.219593467,-111.023683452,52,"2624 W CALLE PUEBLA, TUCSON, AZ, 85745","Match","Non_Exact","2624 W CLL PUEBLA, TUCSON, AZ, 85745",653858920,"R"
144053,"2624 WEST IOWA STREET UNIT 1F","CHICAGO","IL",60622,41.897513141,-87.692519252,53,"2624 WEST IOWA STREET UNIT 1F, CHICAGO, IL, 60622","Match","Exact","2624 W IOWA ST, CHICAGO, IL, 60622",111763485,"R"
144054,"2624 WINDY POINT CT","LITTLE ELM","TX",75068,33.177033657,-96.920767153,54,"2624 WINDY POINT CT, LITTLE ELM, TX, 75068","Match","Exact","2624 WINDY POINT CT, LITTLE ELM, TX, 75068",614157975,"R"
144055,"26240 DEVONSHIRE","MISSION VIEJO","CA",92692,33.58120631,-117.647492935,55,"26240 DEVONSHIRE, MISSION VIEJO, CA, 92692","Match","Exact","26240 DEVONSHIRE, MISSION VIEJO, CA, 92692",144382819,"R"
144056,"26242 AUDREY AVE","WARREN","MI",48091,42.485689689,-83.055412672,56,"26242 AUDREY AVE, WARREN, MI, 48091","Match","Exact","26242 AUDREY AVE, WARREN, MI, 48091",110698418,"R"
144057,"26242 HIGHWAY 71","ROCKY FORD","CO",81067,38.014907608,-103.720162015,57,"26242 HIGHWAY 71, ROCKY FORD, CO, 81067","Match","Non_Exact","26242 STATE HWY 71, ROCKY FORD, CO, 81067",112933824,"R"
144058,"26244 SOUTH ROAD","SPARTANSBURG","PA",16434,41.846935484,-79.750343957,58,"26244 SOUTH ROAD, SPARTANSBURG, PA, 16434","Match","Exact","26244 SOUTH RD, SPARTANSBURG, PA, 16434",98592089,"R"
144059,"26245 PIONEER LN","PARMA","ID",83660,43.752693413,-117.022372794,59,"26245 PIONEER LN, PARMA, ID, 83660","Match","Exact","26245 PIONEER LN, PARMA, ID, 83660",122843332,"L"
144060,"2624EAPRICOTCT","MERIDIAN","ID",83646,NA,NA,60,"2624EAPRICOTCT, MERIDIAN, ID, 83646","No_Match",NA,NA,NA,NA
144061,"2625  PENNY LANE","CHARLOTTESVILLE","VA",22903,37.9623253930001,-78.550412475,61,"2625  PENNY LANE, CHARLOTTESVILLE, VA, 22903","Match","Exact","2625 PENNY LN, CHARLOTTESVILLE, VA, 22903",83396052,"L"
144062,"2625 120TH ST W","ROSEMOUNT","MN",55068,NA,NA,62,"2625 120TH ST W, ROSEMOUNT, MN, 55068","No_Match",NA,NA,NA,NA
144063,"2625 A AVIATION PKWY","GRAND PRAIRIE","TX",75052,32.704943493,-97.0492859189999,63,"2625 A AVIATION PKWY, GRAND PRAIRIE, TX, 75052","Match","Exact","2625 AVIATION PKWY, GRAND PRAIRIE, TX, 75052",101942418,"L"
144064,"2625 ALCATRAZ AVE 357","BERKELEY","CA",94705,NA,NA,64,"2625 ALCATRAZ AVE 357, BERKELEY, CA, 94705","No_Match",NA,NA,NA,NA
144065,"2625 ALCATRAZ AVE STE 118","BERKELEY","CA",94705,NA,NA,65,"2625 ALCATRAZ AVE STE 118, BERKELEY, CA, 94705","No_Match",NA,NA,NA,NA
144066,"2625 ALCATRAZ AVE STE 141","BERKELEY","CA",94705,NA,NA,66,"2625 ALCATRAZ AVE STE 141, BERKELEY, CA, 94705","No_Match",NA,NA,NA,NA
144067,"2625 ALCATRAZ AVE SUITE 124","BERKELEY","CA",94705,NA,NA,67,"2625 ALCATRAZ AVE SUITE 124, BERKELEY, CA, 94705","No_Match",NA,NA,NA,NA
144068,"2625 ALCATRAZ AVENUE SUITE 118","BERKELEY","CA",94705,NA,NA,68,"2625 ALCATRAZ AVENUE SUITE 118, BERKELEY, CA, 94705","No_Match",NA,NA,NA,NA
144069,"2625 ARNOLD CT","SALINA","KS",67401,NA,NA,69,"2625 ARNOLD CT, SALINA, KS, 67401","No_Match",NA,NA,NA,NA
144070,"2625 ASHEHOLLOW LANE","EDMOND","OK",73034,35.685879116,-97.447277868,70,"2625 ASHEHOLLOW LANE, EDMOND, OK, 73034","Match","Exact","2625 ASHEHOLLOW LN, EDMOND, OK, 73034",100448689,"L"
144071,"2625 AVALON ST","RIVERSIDE","CA",92509,34.0112436480001,-117.397708864,71,"2625 AVALON ST, RIVERSIDE, CA, 92509","Match","Exact","2625 AVALON ST, RIVERSIDE, CA, 92509",194733739,"R"
144072,"2625 BENTRIDGE DR WEST","MOBILE","AL",36695,NA,NA,72,"2625 BENTRIDGE DR WEST, MOBILE, AL, 36695","No_Match",NA,NA,NA,NA
144073,"2625 BRYANT AVENUE SOUTH","MINNEAPOLIS","MN",55408,44.9550214270001,-93.290597251,73,"2625 BRYANT AVENUE SOUTH, MINNEAPOLIS, MN, 55408","Match","Exact","2625 BRYANT AVE S, MINNEAPOLIS, MN, 55408",43624750,"L"
144074,"2625 BUTTERFIELD RD SUITE128N","OAK BROOK","IL",60523,41.848612136,-87.9781829299999,74,"2625 BUTTERFIELD RD SUITE128N, OAK BROOK, IL, 60523","Match","Exact","2625 BUTTERFIELD RD, OAK BROOK, IL, 60523",629483801,"L"
144075,"2625 BUTTERFIELD ROAD SUITE 138S","OAK BROOK","IL",60523,41.848612136,-87.9781829299999,75,"2625 BUTTERFIELD ROAD SUITE 138S, OAK BROOK, IL, 60523","Match","Exact","2625 BUTTERFIELD RD, OAK BROOK, IL, 60523",629483801,"L"
144076,"2625 CAMBRIDGE CIRCLE","TAHLEQUAH","OK",74464,35.8882375090001,-94.961743887,76,"2625 CAMBRIDGE CIRCLE, TAHLEQUAH, OK, 74464","Match","Exact","2625 CAMBRIDGE CIR, TAHLEQUAH, OK, 74464",640016164,"L"
144077,"2625 CANYON DRIVE","LOS ANGELES","CA",90068,34.1184526210001,-118.316294059,77,"2625 CANYON DRIVE, LOS ANGELES, CA, 90068","Match","Exact","2625 CANYON DR, LOS ANGELES, CA, 90068",141596937,"L"
144078,"2625 CARSON WAY","ANTIOCH","CA",94531,37.957848346,-121.787081177,78,"2625 CARSON WAY, ANTIOCH, CA, 94531","Match","Exact","2625 CARSON WAY, ANTIOCH, CA, 94531",192111862,"R"
144079,"2625 CASCADE COVE","LITTLE ELM","TX",75068,NA,NA,79,"2625 CASCADE COVE, LITTLE ELM, TX, 75068","No_Match",NA,NA,NA,NA
144080,"2625 CEDAR LANE","ROSENBERG","TX",77471,29.540554958,-95.8005531859999,80,"2625 CEDAR LANE, ROSENBERG, TX, 77471","Match","Exact","2625 CEDAR LN, ROSENBERG, TX, 77471",78285157,"R"
144081,"2625 CHESTNUT HEIGHTS RD","WINSTON SALEM","NC",27107,36.0465178580001,-80.1912196919999,81,"2625 CHESTNUT HEIGHTS RD, WINSTON SALEM, NC, 27107","Match","Exact","2625 CHESTNUT HEIGHTS RD, WINSTON SALEM, NC, 27107",84680242,"L"
144082,"2625 DEARBORN AVENUE  STE 102","MISSOULA","MT",59804,NA,NA,82,"2625 DEARBORN AVENUE  STE 102, MISSOULA, MT, 59804","No_Match",NA,NA,NA,NA
144083,"2625 DOLL PL","TALLAHASSEE","FL",32311,30.425528856,-84.203781001,83,"2625 DOLL PL, TALLAHASSEE, FL, 32311","Match","Exact","2625 DOLL PL, TALLAHASSEE, FL, 32311",619082137,"L"
144084,"2625 DUCALE CT","DUBLIN","CA",94568,37.727366316,-121.847876822,84,"2625 DUCALE CT, DUBLIN, CA, 94568","Match","Exact","2625 DUCALE CT, DUBLIN, CA, 94568",640791185,"L"
144085,"2625 EAST 127TH STREET","CLEVELAND","OH",44120,41.486767667,-81.5944603139999,85,"2625 EAST 127TH STREET, CLEVELAND, OH, 44120","Match","Exact","2625 E 127TH ST, CLEVELAND, OH, 44120",61122769,"L"
144086,"2625 EDGEMONT ST","PHILADELPHIA","PA",19125,39.977240948,-75.115763242,86,"2625 EDGEMONT ST, PHILADELPHIA, PA, 19125","Match","Exact","2625 EDGEMONT ST, PHILADELPHIA, PA, 19125",131426252,"R"
144087,"2625 GLENRIDGE ROAD","ESCONDIDO","CA",92027,33.129832558,-117.031606073,87,"2625 GLENRIDGE ROAD, ESCONDIDO, CA, 92027","Match","Exact","2625 GLENRIDGE RD, ESCONDIDO, CA, 92027",195763884,"R"
144088,"2625 GLOVER RD","QUINTON","AL",35130,33.703413923,-87.080755626,88,"2625 GLOVER RD, QUINTON, AL, 35130","Match","Exact","2625 GLOVER RD, QUINTON, AL, 35130",120582031,"R"
144089,"2625 HWY 14 W STE B","ROCHESTER","MN",55901,NA,NA,89,"2625 HWY 14 W STE B, ROCHESTER, MN, 55901","No_Match",NA,NA,NA,NA
144090,"2625 HWY 513","MANSFIELD","LA",71052,31.9952319170001,-93.690213209,90,"2625 HWY 513, MANSFIELD, LA, 71052","Match","Non_Exact","2625 STATE RTE 513, MANSFIELD, LA, 71052",650842903,"L"
144091,"2625 IVANHOE STREET","DENVER","CO",80207,39.75504426,-104.921127742,91,"2625 IVANHOE STREET, DENVER, CO, 80207","Match","Exact","2625 IVANHOE ST, DENVER, CO, 80207",177311779,"L"
144092,"2625 JOHNSON RD","SOUTHLAKE","TX",76092,32.9415584870001,-97.191918715,92,"2625 JOHNSON RD, SOUTHLAKE, TX, 76092","Match","Exact","2625 JOHNSON RD, SOUTHLAKE, TX, 76092",637136958,"R"
144093,"2625 LEE BLVD SUITE 101","LEHIGH ACRES","FL",33971,26.616460063,-81.666493558,93,"2625 LEE BLVD SUITE 101, LEHIGH ACRES, FL, 33971","Match","Exact","2625 LEE BLVD, LEHIGH ACRES, FL, 33971",117987075,"L"
144094,"2625 LOWER COW LAKES ROAD  BOX 381","JORDAN VALLEY","OR",97910,NA,NA,94,"2625 LOWER COW LAKES ROAD  BOX 381, JORDAN VALLEY, OR, 97910","No_Match",NA,NA,NA,NA
144095,"2625 MAIN ST","KEOKUK","IA",52632,40.412620335,-91.4008723269999,95,"2625 MAIN ST, KEOKUK, IA, 52632","Match","Exact","2625 MAIN ST, KEOKUK, IA, 52632",5597813,"R"
144096,"2625 MCINTYRE ROAD","MCINTYRE","PA",15756,NA,NA,96,"2625 MCINTYRE ROAD, MCINTYRE, PA, 15756","No_Match",NA,NA,NA,NA
144097,"2625 MIDDLEFIELD RD STE 160","PALO ALTO","CA",94306,37.43396059,-122.130181645,97,"2625 MIDDLEFIELD RD STE 160, PALO ALTO, CA, 94306","Match","Exact","2625 MIDDLEFIELD RD, PALO ALTO, CA, 94306",634247370,"L"
144098,"2625 MIDDLEFIELD ROAD APT 413","PALO ALTO","CA",94306,37.43396059,-122.130181645,98,"2625 MIDDLEFIELD ROAD APT 413, PALO ALTO, CA, 94306","Match","Exact","2625 MIDDLEFIELD RD, PALO ALTO, CA, 94306",634247370,"L"
144099,"2625 MIDDLEFIELD ROAD STE 183","PALO ALTO","CA",94306,37.43396059,-122.130181645,99,"2625 MIDDLEFIELD ROAD STE 183, PALO ALTO, CA, 94306","Match","Exact","2625 MIDDLEFIELD RD, PALO ALTO, CA, 94306",634247370,"L"
144100,"2625 N 83RD PL","SCOTTSDALE","AZ",85257,33.4778031910001,-111.901257248,100,"2625 N 83RD PL, SCOTTSDALE, AZ, 85257","Match","Exact","2625 N 83RD PL, SCOTTSDALE, AZ, 85257",128231094,"R"
144101,"2625 N JOSEY LN STE 340","CARROLLTON","TX",75007,32.9865916950001,-96.890902892,101,"2625 N JOSEY LN STE 340, CARROLLTON, TX, 75007","Match","Non_Exact","2625 N JOSEY LN, CARROLLTON, TX, 75007",103255498,"L"
144102,"2625 N STATE HIGHWAY 360 APT 714","GRAND PRAIRIE","TX",75050,32.7937594160001,-97.057293874,102,"2625 N STATE HIGHWAY 360 APT 714, GRAND PRAIRIE, TX, 75050","Match","Non_Exact","2625 N STATE HWY 360, GRAND PRAIRIE, TX, 75050",102140678,"L"
144103,"2625 N STATE HIGHWAY 360 NO 1207","GRAND PRAIRIE","TX",75050,NA,NA,103,"2625 N STATE HIGHWAY 360 NO 1207, GRAND PRAIRIE, TX, 75050","No_Match",NA,NA,NA,NA
144104,"2625 N STATE HWY 360 UNIT 736","GRAND PRAIRIE","TX",75050,32.7937594160001,-97.057293874,104,"2625 N STATE HWY 360 UNIT 736, GRAND PRAIRIE, TX, 75050","Match","Non_Exact","2625 N STATE HWY 360, GRAND PRAIRIE, TX, 75050",102140678,"L"
144105,"2625 NORTH MERIDIAN STREET","INDIANAPOLIS","IN",46208,39.804904697,-86.156636512,105,"2625 NORTH MERIDIAN STREET, INDIANAPOLIS, IN, 46208","Match","Exact","2625 N MERIDIAN ST, INDIANAPOLIS, IN, 46208",639691736,"R"
144106,"2625 NORTHSIDE BLVD","SOUTH BEND","IN",46615,41.660880375,-86.209986828,106,"2625 NORTHSIDE BLVD, SOUTH BEND, IN, 46615","Match","Exact","2625 NORTHSIDE BLVD, SOUTH BEND, IN, 46615",8061335,"L"
144107,"2625 NW 55TH ST","MIAMI","FL",33142,25.8246825190001,-80.239986291,107,"2625 NW 55TH ST, MIAMI, FL, 33142","Match","Exact","2625 NW 55TH ST, MIAMI, FL, 33142",116287622,"R"
144108,"2625 OLD DENTON RD STE 508","CARROLLTON","TX",75007,32.990864948,-96.9100051249999,108,"2625 OLD DENTON RD STE 508, CARROLLTON, TX, 75007","Match","Non_Exact","2625 OLD DENTON RD, CARROLLTON, TX, 75007",103423041,"L"
144109,"2625 OLD LOUISVILLE ROAD","GUYTON","GA",31312,32.372316987,-81.448106788,109,"2625 OLD LOUISVILLE ROAD, GUYTON, GA, 31312","Match","Exact","2625 OLD LOUISVILLE RD, GUYTON, GA, 31312",627433563,"L"
144110,"2625 OXFORD RD","CHATHAM","VA",24531,36.9141175030001,-79.529648444,110,"2625 OXFORD RD, CHATHAM, VA, 24531","Match","Exact","2625 OXFORD RD, CHATHAM, VA, 24531",56623132,"L"
144111,"2625 PAMPAS DR","FORT COLLINS","CO",80526,40.555053157,-105.125827907,111,"2625 PAMPAS DR, FORT COLLINS, CO, 80526","Match","Exact","2625 PAMPAS DR, FORT COLLINS, CO, 80526",188489627,"R"
144112,"2625 PIEDMONT RD 56-456","ATLANTA","GA",30324,33.826467747,-84.3671051109999,112,"2625 PIEDMONT RD 56-456, ATLANTA, GA, 30324","Match","Non_Exact","2625 PIEDMONT RD NE, ATLANTA, GA, 30324",647344059,"R"
144113,"2625 PIEDMONT RD NE STE 56-111","ATLANTA","GA",30324,33.826467747,-84.3671051109999,113,"2625 PIEDMONT RD NE STE 56-111, ATLANTA, GA, 30324","Match","Exact","2625 PIEDMONT RD NE, ATLANTA, GA, 30324",647344059,"R"
144114,"2625 PIEDMONT RD NE STE 56-117","ATLANTA","GA",30324,33.826467747,-84.3671051109999,114,"2625 PIEDMONT RD NE STE 56-117, ATLANTA, GA, 30324","Match","Exact","2625 PIEDMONT RD NE, ATLANTA, GA, 30324",647344059,"R"
144115,"2625 PIEDMONT RD NE STE 56111","ATLANTA","GA",30324,33.826467747,-84.3671051109999,115,"2625 PIEDMONT RD NE STE 56111, ATLANTA, GA, 30324","Match","Exact","2625 PIEDMONT RD NE, ATLANTA, GA, 30324",647344059,"R"
144116,"2625 PIEDMONT RD STE 56-283","ATLANTA","GA",30324,33.826467747,-84.3671051109999,116,"2625 PIEDMONT RD STE 56-283, ATLANTA, GA, 30324","Match","Non_Exact","2625 PIEDMONT RD NE, ATLANTA, GA, 30324",647344059,"R"
144117,"2625 PIEDMONT RD SUITE 56-327","ATLANTA","GA",30324,33.826467747,-84.3671051109999,117,"2625 PIEDMONT RD SUITE 56-327, ATLANTA, GA, 30324","Match","Non_Exact","2625 PIEDMONT RD NE, ATLANTA, GA, 30324",647344059,"R"
144118,"2625 RANSDELL AVE","LOUISVILLE","KY",40204,38.241667546,-85.707159561,118,"2625 RANSDELL AVE, LOUISVILLE, KY, 40204","Match","Exact","2625 RANSDELL AVE, LOUISVILLE, KY, 40204",96852548,"L"
144119,"2625 RESEARCH PARK DR","FITCHBURG","WI",53711,42.997548151,-89.42682623,119,"2625 RESEARCH PARK DR, FITCHBURG, WI, 53711","Match","Exact","2625 RESEARCH PARK DR, FITCHBURG, WI, 53711",49560035,"R"
144120,"2625 ROLLING MEADOWS DRIVE","ROCKWALL","TX",75087,32.9302900070001,-96.421731086,120,"2625 ROLLING MEADOWS DRIVE, ROCKWALL, TX, 75087","Match","Exact","2625 ROLLING MEADOWS DR, ROCKWALL, TX, 75087",123791874,"R"
144121,"2625 ROLLING MEADWOS DRIVE","ROCKWALL","TX",75087,32.9302900070001,-96.421731086,121,"2625 ROLLING MEADWOS DRIVE, ROCKWALL, TX, 75087","Match","Non_Exact","2625 ROLLING MEADOWS DR, ROCKWALL, TX, 75087",123791874,"R"
144122,"2625 S 150TH ST","SEATAC","WA",98188,47.468793283,-122.298686406,122,"2625 S 150TH ST, SEATAC, WA, 98188","Match","Exact","2625 S 150TH ST, SEATAC, WA, 98188",650007119,"R"
144123,"2625 SAINT JAMES AVENUE","KNOXVILLE","TN",37920,35.952951839,-83.876658559,123,"2625 SAINT JAMES AVENUE, KNOXVILLE, TN, 37920","Match","Exact","2625 SAINT JAMES AVE, KNOXVILLE, TN, 37920",42623953,"L"
144124,"2625 SE MARKET ST","PORTLAND","OR",97214,45.51049629,-122.639025856,124,"2625 SE MARKET ST, PORTLAND, OR, 97214","Match","Exact","2625 SE MARKET ST, PORTLAND, OR, 97214",157509308,"L"
144125,"2625 SIMMONS MILL ROAD","THAXTON","VA",24174,37.3031004740001,-79.697127692,125,"2625 SIMMONS MILL ROAD, THAXTON, VA, 24174","Match","Exact","2625 SIMMONS MILL RD, THAXTON, VA, 24174",62677173,"L"
144126,"2625 STATE ROUTE 72 S","JAMESTOWN","OH",45335,39.5980413790001,-83.722108496,126,"2625 STATE ROUTE 72 S, JAMESTOWN, OH, 45335","Match","Non_Exact","2625 STATE RTE 72, JAMESTOWN, OH, 45335",143418255,"L"
144127,"2625 SW 30TH ST","REDMOND","OR",97756,44.251805699,-121.203069531,127,"2625 SW 30TH ST, REDMOND, OR, 97756","Match","Exact","2625 SW 30TH ST, REDMOND, OR, 97756",152547460,"L"
144128,"2625 THE CANYONS","DOUGLASVILLE","GA",30135,33.6997970730001,-84.6634383479999,128,"2625 THE CANYONS, DOUGLASVILLE, GA, 30135","Match","Exact","2625 THE CANYONS, DOUGLASVILLE, GA, 30135",619508688,"L"
144129,"2625 TOWNGATE ROAD SUITE 330","WESTLAKE VILLAGE","CA",91361,NA,NA,129,"2625 TOWNGATE ROAD SUITE 330, WESTLAKE VILLAGE, CA, 91361","No_Match",NA,NA,NA,NA
144130,"2625 TOWNSGATE ROAD","WESTLAKE VILLAGE","CA",91361,34.157462341,-118.82901594,130,"2625 TOWNSGATE ROAD, WESTLAKE VILLAGE, CA, 91361","Match","Exact","2625 TOWNSGATE RD, WESTLAKE VILLAGE, CA, 91361",109977698,"L"
144131,"2625 W BAYLOR CIRCLE 253","ANAHEIM","CA",90281,NA,NA,131,"2625 W BAYLOR CIRCLE 253, ANAHEIM, CA, 90281","No_Match",NA,NA,NA,NA
144132,"2625 W NORTH SHORE AVE","CHICAGO","IL",60645,42.0030818550001,-87.695900232,132,"2625 W NORTH SHORE AVE, CHICAGO, IL, 60645","Match","Exact","2625 W NORTH SHORE AVE, CHICAGO, IL, 60645",605168978,"L"
144133,"2625 W PIONEER PKWY SUITE 803","GRAND PRAIRIE","TX",75051,32.711951534,-97.0460707569999,133,"2625 W PIONEER PKWY SUITE 803, GRAND PRAIRIE, TX, 75051","Match","Non_Exact","2625 W PIONEER PKWY, GRAND PRAIRIE, TX, 75051",102175314,"L"
144134,"2625 WESLEY","BERWYN","IL",60402,41.8424502550001,-87.7906452779999,134,"2625 WESLEY, BERWYN, IL, 60402","Match","Non_Exact","2625 WESLEY AVE, BERWYN, IL, 60402",605125587,"L"
144135,"2625 WILDERNESS RIDGE CIRCLE","LINCOLN","NE",68512,40.724211095,-96.684491747,135,"2625 WILDERNESS RIDGE CIRCLE, LINCOLN, NE, 68512","Match","Exact","2625 WILDERNESS RIDGE CIR, LINCOLN, NE, 68512",28282766,"R"
144136,"2625 WINNE AVENUE","HELENA","MT",59601,46.5819556870001,-111.993044726,136,"2625 WINNE AVENUE, HELENA, MT, 59601","Match","Exact","2625 WINNE AVE, HELENA, MT, 59601",649302546,"R"
144137,"2625-2 HILL AVE APT 12","SUPERIOR","WI",54880,46.7075962070001,-92.076981519,137,"2625-2 HILL AVE APT 12, SUPERIOR, WI, 54880","Match","Exact","2625 HILL AVE, SUPERIOR, WI, 54880",164868972,"R"
144138,"2625-7 RAVEN OAKS DR","DUBUQUE","IA",52001,42.519250099,-90.7187941989999,138,"2625-7 RAVEN OAKS DR, DUBUQUE, IA, 52001","Match","Exact","2625 RAVEN OAKS DR, DUBUQUE, IA, 52001",16914593,"L"
144139,"26250 EUCLID AVE SUITE 211","EUCLID","OH",44132,41.590236734,-81.4981928349999,139,"26250 EUCLID AVE SUITE 211, EUCLID, OH, 44132","Match","Exact","26250 EUCLID AVE, EUCLID, OH, 44132",61160520,"R"
144140,"26250 INDUSTRIAL BLVD  34","HAYWARD","CA",94545,37.6342453130001,-122.111596341,140,"26250 INDUSTRIAL BLVD  34, HAYWARD, CA, 94545","Match","Exact","26250 INDUSTRIAL BLVD, HAYWARD, CA, 94545",648128796,"L"
144141,"26251 370TH AVENUE","ROSEAU","MN",56751,48.7796748370001,-95.810891601,141,"26251 370TH AVENUE, ROSEAU, MN, 56751","Match","Exact","26251 370TH AVE, ROSEAU, MN, 56751",611931854,"R"
144142,"26255 CRAIGS MILL ROAD","SEAFORD","DE",19973,38.6254129230001,-75.643021448,142,"26255 CRAIGS MILL ROAD, SEAFORD, DE, 19973","Match","Exact","26255 CRAIGS MILL RD, SEAFORD, DE, 19973",623808728,"R"
144143,"26255 GARBANI RD","MENIFEE","CA",92584,33.656015258,-117.201771402,143,"26255 GARBANI RD, MENIFEE, CA, 92584","Match","Exact","26255 GARBANI RD, MENIFEE, CA, 92584",650253880,"L"
144144,"26256 W VISTA CT","INGLESIDE","IL",60041,42.3675148610001,-88.145161542,144,"26256 W VISTA CT, INGLESIDE, IL, 60041","Match","Exact","26256 VISTA CT, INGLESIDE, IL, 60041",647231474,"L"
144145,"2626 11TH STREET NW APT A","WASHINGTON","DC",20001,38.924071489,-77.0270449179999,145,"2626 11TH STREET NW APT A, WASHINGTON, DC, 20001","Match","Exact","2626 11TH ST NW, WASHINGTON, DC, 20001",76224241,"L"
144146,"2626 ARACATUBA AVE","LAS VEGAS","NV",89121,36.1420051430001,-115.101731106,146,"2626 ARACATUBA AVE, LAS VEGAS, NV, 89121","Match","Exact","2626 ARACATUBA AVE, LAS VEGAS, NV, 89121",201871740,"L"
144147,"2626 BURD PLACE","ST LOUIS PARK","MN",55426,44.955702611,-93.384851602,147,"2626 BURD PLACE, ST LOUIS PARK, MN, 55426","Match","Exact","2626 BURD PL, SAINT LOUIS PARK, MN, 55426",43619352,"R"
144148,"2626 CEDAR AVE S","MINNEAPOLIS","MN",55047,44.954998876,-93.247364283,148,"2626 CEDAR AVE S, MINNEAPOLIS, MN, 55047","Match","Non_Exact","2626 CEDAR AVE S, MINNEAPOLIS, MN, 55407",43637144,"R"
144149,"2626 CEDAR AVENUE S STE 1","MINNEAPOLIS","MN",55407,44.954998876,-93.247364283,149,"2626 CEDAR AVENUE S STE 1, MINNEAPOLIS, MN, 55407","Match","Exact","2626 CEDAR AVE S, MINNEAPOLIS, MN, 55407",43637144,"R"
144150,"2626 CIMARRON COVE","LAS VEGAS","NV",89156,36.207074295,-115.03854981,150,"2626 CIMARRON COVE, LAS VEGAS, NV, 89156","Match","Non_Exact","2626 CIMARRON COVE CT, LAS VEGAS, NV, 89156",201977722,"R"
144151,"2626 COLE AVENUE SUITE 300 - 525","DALLAS","TX",75204,32.800053442,-96.804299541,151,"2626 COLE AVENUE SUITE 300 - 525, DALLAS, TX, 75204","Match","Exact","2626 COLE AVE, DALLAS, TX, 75204",652304876,"R"
144152,"2626 CORNING STREET","HEPHZIBAH","GA",30815,33.383120148,-82.0825710409999,152,"2626 CORNING STREET, HEPHZIBAH, GA, 30815","Match","Exact","2626 CORNING ST, HEPHZIBAH, GA, 30815",635635007,"R"
144153,"2626 CORONADO AVE SUITE 66","SAN DIEGO","CA",92154,32.576485034,-117.077563118,153,"2626 CORONADO AVE SUITE 66, SAN DIEGO, CA, 92154","Match","Exact","2626 CORONADO AVE, SAN DIEGO, CA, 92154",195686187,"L"
144154,"2626 DALE EARNHARDT BOILEVARD","KANNAPOLIS","NC",28083,35.4732267740001,-80.6025346009999,154,"2626 DALE EARNHARDT BOILEVARD, KANNAPOLIS, NC, 28083","Match","Non_Exact","2626 DALE EARNHARDT BLVD, KANNAPOLIS, NC, 28083",640216553,"L"
144155,"2626 DRY CREEK DRIVE","HUNTSVILLE","AL",35810,34.7615165930001,-86.637553219,155,"2626 DRY CREEK DRIVE, HUNTSVILLE, AL, 35810","Match","Non_Exact","2626 DRY CREEK DR NW, HUNTSVILLE, AL, 35810",58113294,"R"
144156,"2626 ELWICK DRIVE","BATON ROUGE","LA",70816,30.436205817,-91.037501092,156,"2626 ELWICK DRIVE, BATON ROUGE, LA, 70816","Match","Exact","2626 ELWICK DR, BATON ROUGE, LA, 70816",92192053,"R"
144157,"2626 GA HWY","SPARTA","GA",31087,NA,NA,157,"2626 GA HWY, SPARTA, GA, 31087","No_Match",NA,NA,NA,NA
144158,"2626 GARFIELD AVE SE","ALBUQUERQUE","NM",87106,35.0736687310001,-106.616328218,158,"2626 GARFIELD AVE SE, ALBUQUERQUE, NM, 87106","Match","Exact","2626 GARFIELD AVE SE, ALBUQUERQUE, NM, 87106",624247816,"R"
144159,"2626 MERRY OAKS TRAIL","WINSTON SALEM","NC",27103,36.0519755340001,-80.29103878,159,"2626 MERRY OAKS TRAIL, WINSTON SALEM, NC, 27103","Match","Exact","2626 MERRY OAKS TRL, WINSTON SALEM, NC, 27103",84629572,"L"
144160,"2626 MILLGATE COURT","CARMEL","IN",46033,39.991292968,-86.119231188,160,"2626 MILLGATE COURT, CARMEL, IN, 46033","Match","Exact","2626 MILLGATE CT, CARMEL, IN, 46033",231603040,"L"
144161,"2626 MUSIC VALLEY DRIVE","NASHVILLE","TN",37214,36.2331392340001,-86.702388594,161,"2626 MUSIC VALLEY DRIVE, NASHVILLE, TN, 37214","Match","Exact","2626 MUSIC VALLEY DR, NASHVILLE, TN, 37214",642345230,"L"
144162,"2626 N 100 W","LAPORTE","IN",46350,41.6446566830001,-86.7190163069999,162,"2626 N 100 W, LAPORTE, IN, 46350","Match","Exact","2626 N 100 W, LAPORTE, IN, 46350",15417251,"L"
144163,"2626 N SPRING MEADOW","WICHITA","KS",67205,37.731277817,-97.4313493019999,163,"2626 N SPRING MEADOW, WICHITA, KS, 67205","Match","Non_Exact","2626 N SPRING MEADOW ST, WICHITA, KS, 67205",653244991,"L"
144164,"2626 PRESTWICK PL","DECATUR","IL",62521,39.8079839920001,-88.9598994519999,164,"2626 PRESTWICK PL, DECATUR, IL, 62521","Match","Exact","2626 PRESTWICK PL, DECATUR, IL, 62521",20763391,"R"
144165,"2626 QUASQUETON DIAG BLVD LOT 10","INDEPENDENCE","IA",50644,NA,NA,165,"2626 QUASQUETON DIAG BLVD LOT 10, INDEPENDENCE, IA, 50644","No_Match",NA,NA,NA,NA
144166,"2626 S LOOP W SUITE 250","HOUSTON","TX",77054,NA,NA,166,"2626 S LOOP W SUITE 250, HOUSTON, TX, 77054","No_Match",NA,NA,NA,NA
144167,"2626 S LOOP WEST  SUITE 260","HOUSTON","TX",77054,NA,NA,167,"2626 S LOOP WEST  SUITE 260, HOUSTON, TX, 77054","No_Match",NA,NA,NA,NA
144168,"2626 S ROCK RD SUITE 110","WICHITA","KS",67210,NA,NA,168,"2626 S ROCK RD SUITE 110, WICHITA, KS, 67210","No_Match",NA,NA,NA,NA
144169,"2626 SE ASH ST","PORTLAND","OR",97214,45.5214524310001,-122.638972229,169,"2626 SE ASH ST, PORTLAND, OR, 97214","Match","Exact","2626 SE ASH ST, PORTLAND, OR, 97214",157507108,"R"
144170,"2626 SHEPHERDS MILL ROAD","BERRYVILLE","VA",22611,39.1655953600001,-77.9189546219999,170,"2626 SHEPHERDS MILL ROAD, BERRYVILLE, VA, 22611","Match","Exact","2626 SHEPHERDS MILL RD, BERRYVILLE, VA, 22611",125889851,"R"
144171,"2626 SOUTH CHADWICK STREET","PHILADELPHIA","PA",19145,39.918313137,-75.175394365,171,"2626 SOUTH CHADWICK STREET, PHILADELPHIA, PA, 19145","Match","Exact","2626 S CHADWICK ST, PHILADELPHIA, PA, 19145",131452671,"R"
144172,"2626 SOUTH LOOP W STE 426","HOUSTON","TX",77054,NA,NA,172,"2626 SOUTH LOOP W STE 426, HOUSTON, TX, 77054","No_Match",NA,NA,NA,NA
144173,"2626 SOUTH LOOP WEST  STE 650J","HOUSTON","TX",77054,NA,NA,173,"2626 SOUTH LOOP WEST  STE 650J, HOUSTON, TX, 77054","No_Match",NA,NA,NA,NA
144174,"2626 SOUTH LOOP WEST STE 150","HOUSTON","TX",77054,NA,NA,174,"2626 SOUTH LOOP WEST STE 150, HOUSTON, TX, 77054","No_Match",NA,NA,NA,NA
144175,"2626 SOUTH LOOP WEST STE 250","HOUSTON","TX",77054,NA,NA,175,"2626 SOUTH LOOP WEST STE 250, HOUSTON, TX, 77054","No_Match",NA,NA,NA,NA
144176,"2626 SOUTH LOOP WEST STE 380","HOUSTON","TX",77054,NA,NA,176,"2626 SOUTH LOOP WEST STE 380, HOUSTON, TX, 77054","No_Match",NA,NA,NA,NA
144177,"2626 SOUTH LOOP WEST SUITE 250","HOUSTON","TX",77054,NA,NA,177,"2626 SOUTH LOOP WEST SUITE 250, HOUSTON, TX, 77054","No_Match",NA,NA,NA,NA
144178,"2626 SOUTH LOOP WEST SUITE 306","HOUSTON","TX",77054,NA,NA,178,"2626 SOUTH LOOP WEST SUITE 306, HOUSTON, TX, 77054","No_Match",NA,NA,NA,NA
144179,"2626 SOUTH LOOP WEST SUITE 650J","HOUSTON","TX",77054,NA,NA,179,"2626 SOUTH LOOP WEST SUITE 650J, HOUSTON, TX, 77054","No_Match",NA,NA,NA,NA
144180,"2626 SOUTH LOOP WEST SUITE 655","HOUSTON","TX",77054,NA,NA,180,"2626 SOUTH LOOP WEST SUITE 655, HOUSTON, TX, 77054","No_Match",NA,NA,NA,NA
144181,"2626 SOUTH LOOP WEST SUITE 670","HOUSTON","TX",77054,NA,NA,181,"2626 SOUTH LOOP WEST SUITE 670, HOUSTON, TX, 77054","No_Match",NA,NA,NA,NA
144182,"2626 SOUTH LOOP WEST","HOUSTON","TX",77054,NA,NA,182,"2626 SOUTH LOOP WEST, HOUSTON, TX, 77054","No_Match",NA,NA,NA,NA
144183,"2626 TREMONT AVENUE","BRONX","NY",10461,40.8431830170001,-73.846909115,183,"2626 TREMONT AVENUE, BRONX, NY, 10461","Match","Non_Exact","2626 E TREMONT AVE, BRONX, NY, 10461",80312718,"R"
144184,"2626 VFW WAY","EAST POINT","GA",30344,NA,NA,184,"2626 VFW WAY, EAST POINT, GA, 30344","No_Match",NA,NA,NA,NA
144185,"2626 W 63RD STREET","CHICAGO","IL",60629,41.779191294,-87.688896314,185,"2626 W 63RD STREET, CHICAGO, IL, 60629","Match","Exact","2626 W 63RD ST, CHICAGO, IL, 60629",111804829,"R"
144186,"2626 W TOUHY AVE","CHICAGO","IL",60645,42.0121683420001,-87.695711143,186,"2626 W TOUHY AVE, CHICAGO, IL, 60645","Match","Exact","2626 W TOUHY AVE, CHICAGO, IL, 60645",111744131,"R"
144187,"2626 WATERFORD DR","SAN ANTONIO","TX",78217,29.5276853600001,-98.448705734,187,"2626 WATERFORD DR, SAN ANTONIO, TX, 78217","Match","Exact","2626 WATERFORD DR, SAN ANTONIO, TX, 78217",101498925,"R"
144188,"2626 WHITMAN AVE NE","RENTON","WA",98059,47.5148535340001,-122.161878015,188,"2626 WHITMAN AVE NE, RENTON, WA, 98059","Match","Exact","2626 WHITMAN AVE NE, RENTON, WA, 98059",239777455,"R"
144189,"26261 EVERGREEN RD SUITE 280","SOUTHFIELD","MI",48076,42.482316337,-83.240951452,189,"26261 EVERGREEN RD SUITE 280, SOUTHFIELD, MI, 48076","Match","Exact","26261 EVERGREEN RD, SOUTHFIELD, MI, 48076",69820484,"L"
144190,"26261 PAPAGAYO DRIVE","MISSION VIEJO","CA",92691,33.609678247,-117.671990086,190,"26261 PAPAGAYO DRIVE, MISSION VIEJO, CA, 92691","Match","Exact","26261 PAPAGAYO DR, MISSION VIEJO, CA, 92691",144065307,"L"
144191,"26265 WEST 67TH STREET","SHAWNEE","KS",66226,39.007194715,-94.887739024,191,"26265 WEST 67TH STREET, SHAWNEE, KS, 66226","Match","Exact","26265 W 67TH ST, SHAWNEE, KS, 66226",648744094,"L"
144192,"2627 17TH AVENUE","SAN FRANCISCO","CA",94116,37.738855888,-122.473258169,192,"2627 17TH AVENUE, SAN FRANCISCO, CA, 94116","Match","Exact","2627 17TH AVE, SAN FRANCISCO, CA, 94116",192278389,"R"
144193,"2627 57TH AVE","OAKLAND","CA",94605,37.77362127,-122.192240534,193,"2627 57TH AVE, OAKLAND, CA, 94605","Match","Exact","2627 57TH AVE, OAKLAND, CA, 94605",125007885,"L"
144194,"2627 BENT SPUR DR","ACTON","CA",93510,34.4620022770001,-118.173809464,194,"2627 BENT SPUR DR, ACTON, CA, 93510","Match","Exact","2627 BENT SPUR DR, ACTON, CA, 93510",142833385,"L"
144195,"2627 C STREET SUITE 120","ANCHORAGE","AK",99503,61.1967022060001,-149.886639209,195,"2627 C STREET SUITE 120, ANCHORAGE, AK, 99503","Match","Exact","2627 C ST, ANCHORAGE, AK, 99503",190826994,"L"
144196,"2627 CAROUSEL DR","SPRINGFIELD","OH",45503,39.957987487,-83.797926885,196,"2627 CAROUSEL DR, SPRINGFIELD, OH, 45503","Match","Exact","2627 CAROUSEL DR, SPRINGFIELD, OH, 45503",135006763,"L"
144197,"2627 E 4TH ST","RENO","NV",89512,39.5347114160001,-119.783064125,197,"2627 E 4TH ST, RENO, NV, 89512","Match","Exact","2627 E 4TH ST, RENO, NV, 89512",107048634,"L"
144198,"2627 E NEWBERRY BLVD","MILWAUKEE","WI",53211,43.069288278,-87.87767027,198,"2627 E NEWBERRY BLVD, MILWAUKEE, WI, 53211","Match","Exact","2627 E NEWBERRY BLVD, MILWAUKEE, WI, 53211",77744248,"R"
144199,"2627 E OLYMPIC AVENUE 406","LOS ANGELES","CA",90023,NA,NA,199,"2627 E OLYMPIC AVENUE 406, LOS ANGELES, CA, 90023","No_Match",NA,NA,NA,NA
144200,"2627 EAST BEVERLY DRIVE","TUCSON","AZ",85716,32.208771875,-110.933306197,200,"2627 EAST BEVERLY DRIVE, TUCSON, AZ, 85716","Match","Exact","2627 E BEVERLY DR, TUCSON, AZ, 85716",121174775,"L"
144201,"2627 FREELAND CIRCLE","NAPERVILLE","IL",60564,41.687527962,-88.201060952,201,"2627 FREELAND CIRCLE, NAPERVILLE, IL, 60564","Match","Exact","2627 FREELAND CIR, NAPERVILLE, IL, 60564",111610700,"L"
144202,"2627 MADDEN AVENUE","SAN JOSE","CA",95116,37.364662466,-121.840500548,202,"2627 MADDEN AVENUE, SAN JOSE, CA, 95116","Match","Exact","2627 MADDEN AVE, SAN JOSE, CA, 95116",123170477,"L"
144203,"2627 MALL DRIVE STE 105","SARASOTA","FL",34231,27.261398048,-82.516338818,203,"2627 MALL DRIVE STE 105, SARASOTA, FL, 34231","Match","Exact","2627 MALL DR, SARASOTA, FL, 34231",16406184,"L"
144204,"2627 MARTIN LUTHER KING JR BLVD","DALLAS","TX",75215,32.7674079970001,-96.770419625,204,"2627 MARTIN LUTHER KING JR BLVD, DALLAS, TX, 75215","Match","Exact","2627 MARTIN LUTHER KING JR BLVD, DALLAS, TX, 75215",102912645,"L"
144205,"2627 MATTISON LANE 29","SANTA CRUZ","CA",95062,36.982230197,-121.974324493,205,"2627 MATTISON LANE 29, SANTA CRUZ, CA, 95062","Match","Exact","2627 MATTISON LN, SANTA CRUZ, CA, 95062",605998405,"L"
144206,"2627 MLK BLVD","DALLAS","TX",75215,32.7674079970001,-96.770419625,206,"2627 MLK BLVD, DALLAS, TX, 75215","Match","Exact","2627 MARTIN LUTHER KING JR BLVD, DALLAS, TX, 75215",102912645,"L"
144207,"2627 MONTICELLO CT","SAN ANTONIO","TX",78223,29.374105318,-98.451388381,207,"2627 MONTICELLO CT, SAN ANTONIO, TX, 78223","Match","Exact","2627 MONTICELLO CT, SAN ANTONIO, TX, 78223",101534899,"L"
144208,"2627 NE 203 STREET SUITE 109","MIAMI","FL",33180,NA,NA,208,"2627 NE 203 STREET SUITE 109, MIAMI, FL, 33180","No_Match",NA,NA,NA,NA
144209,"2627 NORTH EAST AVENUE","SPRINGFIELD","MO",65803,37.2448208230001,-93.279158775,209,"2627 NORTH EAST AVENUE, SPRINGFIELD, MO, 65803","Match","Exact","2627 N EAST AVE, SPRINGFIELD, MO, 65803",76677390,"L"
144210,"2627 NW 33RD ST APT 2206","OAKLAND PARK","FL",33147,NA,NA,210,"2627 NW 33RD ST APT 2206, OAKLAND PARK, FL, 33147","No_Match",NA,NA,NA,NA
144211,"2627 RODERICK","MISSOULA","MT",59804,46.8737561030001,-114.042526132,211,"2627 RODERICK, MISSOULA, MT, 59804","Match","Non_Exact","2627 RODERICK WAY, MISSOULA, MT, 59804",641023644,"L"
144212,"2627 S LAMB BLVD UNIT 163","LAS VEGAS","NV",89121,36.1418123500001,-115.082932293,212,"2627 S LAMB BLVD UNIT 163, LAS VEGAS, NV, 89121","Match","Non_Exact","2627 S LAMB BLVD, LAS VEGAS, NV, 89121",635796031,"R"
144213,"2627 SILVER OAK DR","COLUMBUS","OH",43232,39.92595305,-82.840606457,213,"2627 SILVER OAK DR, COLUMBUS, OH, 43232","Match","Exact","2627 SILVER OAK DR, COLUMBUS, OH, 43232",637583024,"L"
144214,"2627 SW 121ST TERRACE","MIRAMAR","FL",33025,25.9831587370001,-80.307744311,214,"2627 SW 121ST TERRACE, MIRAMAR, FL, 33025","Match","Exact","2627 SW 121ST TER, MIRAMAR, FL, 33025",637493896,"R"
144215,"2627 TELL ST","TELL CITY","IN",47586,37.955227327,-86.7469700999999,215,"2627 TELL ST, TELL CITY, IN, 47586","Match","Exact","2627 TELL ST, TELL CITY, IN, 47586",606667114,"L"
144216,"2627 W 44TH ST","LOVELAND","CO",80538,40.437027073,-105.112504703,216,"2627 W 44TH ST, LOVELAND, CO, 80538","Match","Exact","2627 W 44TH ST, LOVELAND, CO, 80538",188621214,"R"
144217,"2627 W IDAHO ST","BOISE","ID",83702,43.622722959,-116.222900656,217,"2627 W IDAHO ST, BOISE, ID, 83702","Match","Exact","2627 W IDAHO ST, BOISE, ID, 83702",117859492,"L"
144218,"2627 WILDFLOWER CV","MISHAWAKA","IN",46545,NA,NA,218,"2627 WILDFLOWER CV, MISHAWAKA, IN, 46545","No_Match",NA,NA,NA,NA
144219,"2627 YUKON CLIFF DR","RUSKIN","FL",33570,27.685988385,-82.4293450879999,219,"2627 YUKON CLIFF DR, RUSKIN, FL, 33570","Match","Exact","2627 YUKON CLIFF DR, RUSKIN, FL, 33570",649949278,"R"
144220,"26272 RAMPART BLVD UNIT C","PUNTA GORDA","FL",33983,27.0024818790001,-82.015937621,220,"26272 RAMPART BLVD UNIT C, PUNTA GORDA, FL, 33983","Match","Exact","26272 RAMPART BLVD, PUNTA GORDA, FL, 33983",4289516,"R"
144221,"26273 HORSETAIL STREET","MURRIETA","CA",92562,33.6053863130001,-117.200755794,221,"26273 HORSETAIL STREET, MURRIETA, CA, 92562","Match","Exact","26273 HORSETAIL ST, MURRIETA, CA, 92562",639968971,"L"
144222,"26274 CRAIGS MILL ROAD PO BOX 434","SEAFORD","DE",19973,38.6254656310001,-75.6430953569999,222,"26274 CRAIGS MILL ROAD PO BOX 434, SEAFORD, DE, 19973","Match","Exact","26274 CRAIGS MILL RD, SEAFORD, DE, 19973",623808728,"L"
144223,"26275 FM 2090","SPLENDORA","TX",77372,30.2330395290001,-95.152260622,223,"26275 FM 2090, SPLENDORA, TX, 77372","Match","Exact","26275 FM 2090, SPLENDORA, TX, 77372",641271226,"L"
144224,"26276 DREXEL AVENUE","NEW PRAGUE","MN",56071,44.5672850070001,-93.556988584,224,"26276 DREXEL AVENUE, NEW PRAGUE, MN, 56071","Match","Exact","26276 DREXEL AVE, NEW PRAGUE, MN, 56071",38143167,"R"
144225,"2628 ADAM CLAYTON POWELL JR BLVD","NEW YORK","NY",10039,40.8257658200001,-73.936070431,225,"2628 ADAM CLAYTON POWELL JR BLVD, NEW YORK, NY, 10039","Match","Exact","2628 ADAM CLAYTON POWELL JR BLVD, NEW YORK, NY, 10039",59656336,"L"
144226,"2628 CECIL B MOORE AVE","PHILADELPHIA","PA",19121,39.981328702,-75.1783744419999,226,"2628 CECIL B MOORE AVE, PHILADELPHIA, PA, 19121","Match","Exact","2628 CECIL B MOORE AVE, PHILADELPHIA, PA, 19121",131405016,"L"
144227,"2628 DEL PRADO BOULEVARD","CAPE CORAL","FL",33904,NA,NA,227,"2628 DEL PRADO BOULEVARD, CAPE CORAL, FL, 33904","No_Match",NA,NA,NA,NA
144228,"2628 EAST VIRGINIA STREET","GILBERT","AZ",85296,33.322816313,-111.733150139,228,"2628 EAST VIRGINIA STREET, GILBERT, AZ, 85296","Match","Non_Exact","2628 VIRGINIA ST, GILBERT, AZ, 85296",128878094,"R"
144229,"2628 HALCYON DOWNS LOOP","MONTGOMERY","AL",36117,32.343152929,-86.171740772,229,"2628 HALCYON DOWNS LOOP, MONTGOMERY, AL, 36117","Match","Exact","2628 HALCYON DOWNS LOOP, MONTGOMERY, AL, 36117",642884499,"R"
144230,"2628 HOYT AVE APT 39","EVERETT","WA",98201,47.982578867,-122.209949829,230,"2628 HOYT AVE APT 39, EVERETT, WA, 98201","Match","Exact","2628 HOYT AVE, EVERETT, WA, 98201",637899570,"R"
144231,"2628 ICEFIELD CT","SANTA CLARA","CA",95051,37.3697712860001,-121.984087058,231,"2628 ICEFIELD CT, SANTA CLARA, CA, 95051","Match","Exact","2628 ICEFIELD CT, SANTA CLARA, CA, 95051",122898470,"R"
144232,"2628 MARQUETTE DR","TOPANGA","CA",90290,34.116838628,-118.629482006,232,"2628 MARQUETTE DR, TOPANGA, CA, 90290","Match","Exact","2628 MARQUETTE DR, TOPANGA, CA, 90290",141536010,"R"
144233,"2628 MARTHA ST STE 1B","PHILADELPHIA","PA",19125,39.9845640840001,-75.122675901,233,"2628 MARTHA ST STE 1B, PHILADELPHIA, PA, 19125","Match","Exact","2628 MARTHA ST, PHILADELPHIA, PA, 19125",131425875,"L"
144234,"2628 MAYFLOWER DRIVE","LYNCHBURG","VA",24501,37.3769888790001,-79.147910457,234,"2628 MAYFLOWER DRIVE, LYNCHBURG, VA, 24501","Match","Exact","2628 MAYFLOWER DR, LYNCHBURG, VA, 24501",62739994,"L"
144235,"2628 MORGANTON ROAD","MARYVILLE","TN",37801,35.7329701460001,-84.026650696,235,"2628 MORGANTON ROAD, MARYVILLE, TN, 37801","Match","Exact","2628 MORGANTON RD, MARYVILLE, TN, 37801",89827725,"R"
144236,"2628 MOUNTAIN ROAD","BARTLESVILLE","OK",74003,36.7065806900001,-95.9918780419999,236,"2628 MOUNTAIN ROAD, BARTLESVILLE, OK, 74003","Match","Exact","2628 MOUNTAIN RD, BARTLESVILLE, OK, 74003",646974244,"R"
144237,"2628 N NAPA ST","PHILADELPHIA","PA",19132,39.9964562230001,-75.1825855399999,237,"2628 N NAPA ST, PHILADELPHIA, PA, 19132","Match","Exact","2628 N NAPA ST, PHILADELPHIA, PA, 19132",131401858,"L"
144238,"2628 NATALIE DR","DALLAS","TX",75074,33.0301318960001,-96.678387473,238,"2628 NATALIE DR, DALLAS, TX, 75074","Match","Non_Exact","2628 NATALIE DR, PLANO, TX, 75074",123489591,"R"
144239,"2628 PENN AVE","HUMBOLDT","IA",50541,42.6669923800001,-94.1490477149999,239,"2628 PENN AVE, HUMBOLDT, IA, 50541","Match","Non_Exact","2628 PENN AVE, HUMBOLDT, IA, 50548",97026059,"R"
144240,"2628 QUARRY RIDGE LANE","RALEIGH","NC",27610,35.742426412,-78.5871915769999,240,"2628 QUARRY RIDGE LANE, RALEIGH, NC, 27610","Match","Exact","2628 QUARRY RIDGE LN, RALEIGH, NC, 27610",619516938,"R"
144241,"2628 RA WA SI AVENUE","TRAVERSE CITY","MI",49685,44.725085903,-85.663297046,241,"2628 RA WA SI AVENUE, TRAVERSE CITY, MI, 49685","Match","Exact","2628 RA WA SI AVE, TRAVERSE CITY, MI, 49685",145518051,"R"
144242,"2628 WOODMONT LANE","WEXFORD","PA",15090,40.6137598230001,-80.0755391989999,242,"2628 WOODMONT LANE, WEXFORD, PA, 15090","Match","Exact","2628 WOODMONT LN, WEXFORD, PA, 15090",51605859,"L"
144243,"26281 ROSS","INKSTER","MI",48141,42.282059131,-83.296325883,243,"26281 ROSS, INKSTER, MI, 48141","Match","Non_Exact","26281 ROSS ST, INKSTER, MI, 48141",95435649,"L"
144244,"2629 ATHIS STREET","NEW ORLEANS","LA",70122,30.018485093,-90.05058602,244,"2629 ATHIS STREET, NEW ORLEANS, LA, 70122","Match","Exact","2629 ATHIS ST, NEW ORLEANS, LA, 70122",191755560,"L"
144245,"2629 CATTRACK AVE","NORTH LAS VEGAS","NV",89081,36.2619300740001,-115.113798604,245,"2629 CATTRACK AVE, NORTH LAS VEGAS, NV, 89081","Match","Exact","2629 CATTRACK AVE, N LAS VEGAS, NV, 89081",626861911,"R"
144246,"2629 CHEROKEE AVENUEW","MACON","GA",31204,32.837935143,-83.6632430929999,246,"2629 CHEROKEE AVENUEW, MACON, GA, 31204","Match","Non_Exact","2629 CHEROKEE AVE, MACON, GA, 31204",81059543,"R"
144247,"2629 DIXIANA DRIVE","FARMERS BRANCH","TX",75234,32.92198367,-96.889375613,247,"2629 DIXIANA DRIVE, FARMERS BRANCH, TX, 75234","Match","Exact","2629 DIXIANA DR, FARMERS BRANCH, TX, 75234",102889395,"L"
144248,"2629 E EDGEWOOD CIR","MESA","AZ",85204,33.3999577610001,-111.775100995,248,"2629 E EDGEWOOD CIR, MESA, AZ, 85204","Match","Exact","2629 E EDGEWOOD CIR, MESA, AZ, 85204",128247105,"R"
144249,"2629 ELMWOOD AVE","KANSAS CITY","MO",64127,39.0775916950001,-94.529844643,249,"2629 ELMWOOD AVE, KANSAS CITY, MO, 64127","Match","Exact","2629 ELMWOOD AVE, KANSAS CITY, MO, 64127",91451294,"L"
144250,"2629 ERWIN ROAD","JACKSON","OH",45640,38.983005684,-82.543391339,250,"2629 ERWIN ROAD, JACKSON, OH, 45640","Match","Exact","2629 ERWIN RD, JACKSON, OH, 45640",54776348,"R"
144251,"2629 FOOTHILL BLVD NUM 285","LA CRESCENTA","CA",91214,34.2216239040001,-118.235872696,251,"2629 FOOTHILL BLVD NUM 285, LA CRESCENTA, CA, 91214","Match","Exact","2629 FOOTHILL BLVD, LA CRESCENTA, CA, 91214",141589943,"R"
144252,"2629 FOOTHILL BLVD UNIT 187","LA CRESCENTA","CA",91214,34.2216239040001,-118.235872696,252,"2629 FOOTHILL BLVD UNIT 187, LA CRESCENTA, CA, 91214","Match","Exact","2629 FOOTHILL BLVD, LA CRESCENTA, CA, 91214",141589943,"R"
144253,"2629 GRAND AVE","BELLMORE","NY",11710,40.669526193,-73.5302518949999,253,"2629 GRAND AVE, BELLMORE, NY, 11710","Match","Exact","2629 GRAND AVE, BELLMORE, NY, 11710",147637109,"L"
144254,"2629 KELLIWOOD CIR","SHREVEPORT","LA",71106,32.365899192,-93.7015380509999,254,"2629 KELLIWOOD CIR, SHREVEPORT, LA, 71106","Match","Exact","2629 KELLIWOOD CIR, SHREVEPORT, LA, 71106",57468705,"L"
144255,"2629 LIBERTY HILL ROAD - 2301","CAMDEN","SC",29020,34.278177521,-80.6116840299999,255,"2629 LIBERTY HILL ROAD - 2301, CAMDEN, SC, 29020","Match","Exact","2629 LIBERTY HILL RD, CAMDEN, SC, 29020",640419426,"L"
144256,"2629 MANHATTAN AVE PMB 171","HERMOSA BEACH","CA",90254,33.872744905,-118.404626176,256,"2629 MANHATTAN AVE PMB 171, HERMOSA BEACH, CA, 90254","Match","Exact","2629 MANHATTAN AVE, HERMOSA BEACH, CA, 90254",141582132,"L"
144257,"2629 MANHATTAN AVE UNIT 187","HERMOSA BEACH","CA",90254,33.872744905,-118.404626176,257,"2629 MANHATTAN AVE UNIT 187, HERMOSA BEACH, CA, 90254","Match","Exact","2629 MANHATTAN AVE, HERMOSA BEACH, CA, 90254",141582132,"L"
144258,"2629 MANHATTAN AVE UNIT 296","HERMOSA BEACH","CA",90254,33.872744905,-118.404626176,258,"2629 MANHATTAN AVE UNIT 296, HERMOSA BEACH, CA, 90254","Match","Exact","2629 MANHATTAN AVE, HERMOSA BEACH, CA, 90254",141582132,"L"
144259,"2629 MORTON AVENUE","DES MOINES","IA",50317,41.6195527950001,-93.5663619109999,259,"2629 MORTON AVENUE, DES MOINES, IA, 50317","Match","Exact","2629 MORTON AVE, DES MOINES, IA, 50317",65789312,"R"
144260,"2629 N HARDING AVE","CHICAGO","IL",60647,41.928955441,-87.7256674499999,260,"2629 N HARDING AVE, CHICAGO, IL, 60647","Match","Exact","2629 N HARDING AVE, CHICAGO, IL, 60647",605188089,"R"
144261,"2629 N MOBILE","CHICAGO","IL",60639,41.927971734,-87.783143083,261,"2629 N MOBILE, CHICAGO, IL, 60639","Match","Non_Exact","2629 N MOBILE AVE, CHICAGO, IL, 60639",111752402,"R"
144262,"2629 PALI HWY","HONOLULU","HI",96817,21.331352065,-157.843312292,262,"2629 PALI HWY, HONOLULU, HI, 96817","Match","Exact","2629 PALI HWY, HONOLULU, HI, 96817",624953743,"R"
144263,"2629 REDWIN RD STE 112","FORT COLLINS","CO",80526,NA,NA,263,"2629 REDWIN RD STE 112, FORT COLLINS, CO, 80526","No_Match",NA,NA,NA,NA
144264,"2629 ROSE PLACE","LENOIR","NC",28645,35.82810743,-81.579969266,264,"2629 ROSE PLACE, LENOIR, NC, 28645","Match","Exact","2629 ROSE PL, LENOIR, NC, 28645",45861791,"L"
144265,"2629 S GRAND PENINSULA DR 710","GRAND PRAIRIE","TX",75054,32.6076325670001,-97.046570424,265,"2629 S GRAND PENINSULA DR 710, GRAND PRAIRIE, TX, 75054","Match","Exact","2629 GRAND PENINSULA DR, GRAND PRAIRIE, TX, 75054",617672172,"L"
144266,"2629 SARAH JANE LANE","FORT WORTH","TX",76119,32.6919821170001,-97.29124354,266,"2629 SARAH JANE LANE, FORT WORTH, TX, 76119","Match","Exact","2629 SARAH JANE LN, FORT WORTH, TX, 76119",101893283,"L"
144267,"2629 SYCAMORE DR","DYER","IN",46311,41.4835784030001,-87.513956857,267,"2629 SYCAMORE DR, DYER, IN, 46311","Match","Exact","2629 SYCAMORE DR, DYER, IN, 46311",98421034,"L"
144268,"2629 W 10TH STREET","PANAMA CITY","FL",32401,30.167404462,-85.6991269,268,"2629 W 10TH STREET, PANAMA CITY, FL, 32401","Match","Exact","2629 W 10TH ST, PANAMA CITY, FL, 32401",7028383,"L"
144269,"2629 WEATHERFORD ST","LA VERGNE","TN",37086,36.028189045,-86.571326971,269,"2629 WEATHERFORD ST, LA VERGNE, TN, 37086","Match","Exact","2629 WEATHERFORD ST, LA VERGNE, TN, 37086",59038650,"L"
144270,"26293 CARNEGIE AVE","HEMET","CA",92544,33.7398766680001,-116.927288572,270,"26293 CARNEGIE AVE, HEMET, CA, 92544","Match","Exact","26293 CARNEGIE AVE, HEMET, CA, 92544",194759107,"R"
144271,"26298 HELTEMES LN","LACOMBE","LA",70445,30.3296945290001,-89.9606282189999,271,"26298 HELTEMES LN, LACOMBE, LA, 70445","Match","Exact","26298 HELTEMES LN, LACOMBE, LA, 70445",635839640,"L"
144272,"2629A SOUTH MICHIGAN AVE","CHICAGO","IL",60616,41.8446453720001,-87.623351284,272,"2629A SOUTH MICHIGAN AVE, CHICAGO, IL, 60616","Match","Exact","2629 S MICHIGAN AVE, CHICAGO, IL, 60616",633614623,"L"
144273,"263 BELFORT STREET","JACKSONVILLE","FL",32204,30.3260712090001,-81.690301915,273,"263 BELFORT STREET, JACKSONVILLE, FL, 32204","Match","Exact","263 BELFORT ST, JACKSONVILLE, FL, 32204",83894764,"L"
144274,"263 CLOVER CT","DUBLIN","OH",43017,40.096325687,-83.118355147,274,"263 CLOVER CT, DUBLIN, OH, 43017","Match","Exact","263 CLOVER CT, DUBLIN, OH, 43017",135560517,"L"
144275,"263 COBBLESTONE LANE","BETHLEHEM","PA",18020,40.697812104,-75.313780873,275,"263 COBBLESTONE LANE, BETHLEHEM, PA, 18020","Match","Exact","263 COBBLESTONE LN, BETHLEHEM, PA, 18020",136959056,"L"
144276,"263 CR 956","IUKA","MS",38852,34.825534308,-88.170307521,276,"263 CR 956, IUKA, MS, 38852","Match","Exact","263 CO RD 956, IUKA, MS, 38852",610526434,"L"
144277,"263 E 200 S","IVINS","UT",84738,37.1649690740001,-113.675856094,277,"263 E 200 S, IVINS, UT, 84738","Match","Exact","263 E 200 S, IVINS, UT, 84738",166188568,"R"
144278,"263 E 23RD ST","BROOKLYN","NY",11226,40.643460738,-73.955552144,278,"263 E 23RD ST, BROOKLYN, NY, 11226","Match","Exact","263 E 23RD ST, BROOKLYN, NY, 11226",59081421,"L"
144279,"263 E HENRY PL","ISELIN","NJ",8830,40.581119357,-74.3266844409999,279,"263 E HENRY PL, ISELIN, NJ, 8830","Match","Exact","263 E HENRY PL, ISELIN, NJ, 08830",60273010,"L"
144280,"263 EAST 305 STREET","WILLOWICK","OH",44095,41.637593958,-81.473040351,280,"263 EAST 305 STREET, WILLOWICK, OH, 44095","Match","Exact","263 E 305TH ST, WILLOWICK, OH, 44095",137459029,"L"
144281,"263 EAST 3RD STREET APT 18","KUNA","ID",83634,43.4906021400001,-116.411117952,281,"263 EAST 3RD STREET APT 18, KUNA, ID, 83634","Match","Exact","263 E 3RD ST, KUNA, ID, 83634",647640977,"L"
144282,"263 EAST LAUREL AVENUE","SIERRA MADRE","CA",91024,34.1656019070001,-118.046802667,282,"263 EAST LAUREL AVENUE, SIERRA MADRE, CA, 91024","Match","Exact","263 E LAUREL AVE, SIERRA MADRE, CA, 91024",142250858,"R"
144283,"263 EAST WALNUT PARK DRIVE","PHILADELPHIA","PA",19120,40.046993722,-75.1144344639999,283,"263 EAST WALNUT PARK DRIVE, PHILADELPHIA, PA, 19120","Match","Exact","263 E WALNUT PARK DR, PHILADELPHIA, PA, 19120",628810397,"L"
144284,"263 ESSEX STREET","ORADELL","NJ",7649,40.9511854890001,-74.0405578479999,284,"263 ESSEX STREET, ORADELL, NJ, 7649","Match","Exact","263 ESSEX ST, ORADELL, NJ, 07649",64383950,"L"
144285,"263 GLENDALE LAKE ROAD","PATTON","PA",16668,40.6297034730001,-78.634736613,285,"263 GLENDALE LAKE ROAD, PATTON, PA, 16668","Match","Exact","263 GLENDALE LAKE RD, PATTON, PA, 16668",50244961,"R"
144286,"263 HAMLET STREET","FALL RIVER","RI",2724,NA,NA,286,"263 HAMLET STREET, FALL RIVER, RI, 2724","No_Match",NA,NA,NA,NA
144287,"263 HIGHLAKE AVE","ANN ARBOR","MI",48103,42.279895857,-83.788052378,287,"263 HIGHLAKE AVE, ANN ARBOR, MI, 48103","Match","Exact","263 HIGHLAKE AVE, ANN ARBOR, MI, 48103",26012153,"L"
144288,"263 JACKSON PINES RD","JACKSON","NJ",8527,40.096560314,-74.2656084289999,288,"263 JACKSON PINES RD, JACKSON, NJ, 8527","Match","Exact","263 JACKSON PINES RD, JACKSON, NJ, 08527",647792089,"R"
144289,"263 KENTUCKY AVE SE","WASHINGTON","DC",20003,38.8859499060001,-76.9870469699999,289,"263 KENTUCKY AVE SE, WASHINGTON, DC, 20003","Match","Exact","263 KENTUCKY AVE SE, WASHINGTON, DC, 20003",76230856,"R"
144290,"263 LAKESHORE DR","AMERICUS","GA",31719,32.1101288040001,-84.2516271269999,290,"263 LAKESHORE DR, AMERICUS, GA, 31719","Match","Exact","263 LAKESHORE DR, AMERICUS, GA, 31719",618608111,"R"
144291,"263 LEE ROAD 375","VALLEY","AL",36854,32.726449867,-85.1967547949999,291,"263 LEE ROAD 375, VALLEY, AL, 36854","Match","Exact","263 LEE ROAD 375, VALLEY, AL, 36854",649858447,"L"
144292,"263 LEWIS LANE","HALLIEFORD","VA",23068,37.4911194090001,-76.33670291,292,"263 LEWIS LANE, HALLIEFORD, VA, 23068","Match","Exact","263 LEWIS LN, HALLIEFORD, VA, 23068",640184556,"R"
144293,"263 LIVERNOIS ST","FERNDALE","MI",49220,42.447609743,-83.1422671509999,293,"263 LIVERNOIS ST, FERNDALE, MI, 49220","Match","Non_Exact","263 LIVERNOIS ST, FERNDALE, MI, 48220",69839351,"L"
144294,"263 LONG HILL DRIVE","SHORT HILLS","NJ",7078,40.739852791,-74.336618077,294,"263 LONG HILL DRIVE, SHORT HILLS, NJ, 7078","Match","Exact","263 LONG HILL DR, SHORT HILLS, NJ, 07078",63495561,"L"
144295,"263 MACE STREET","STSTEN ISLAND","NY",10306,40.573634369,-74.137477904,295,"263 MACE STREET, STSTEN ISLAND, NY, 10306","Match","Non_Exact","263 MACE ST, STATEN ISLAND, NY, 10306",59876623,"R"
144296,"263 MAPLE STREET","HAWORTH","NJ",7641,40.9637311270001,-73.993265848,296,"263 MAPLE STREET, HAWORTH, NJ, 7641","Match","Exact","263 MAPLE ST, HAWORTH, NJ, 07641",64369727,"R"
144297,"263 MCLAWS CIRCLE STE 205","WILLIAMSBURG","VA",23185,37.2450012670001,-76.659255507,297,"263 MCLAWS CIRCLE STE 205, WILLIAMSBURG, VA, 23185","Match","Exact","263 MCLAWS CIR, WILLIAMSBURG, VA, 23185",103778598,"L"
144298,"263 MEADOW LAKE DRIVE","FREEPORT","FL",32439,30.498134866,-86.1728960189999,298,"263 MEADOW LAKE DRIVE, FREEPORT, FL, 32439","Match","Exact","263 MEADOW LAKE DR, FREEPORT, FL, 32439",651733774,"L"
144299,"263 MICHENER COURT WEST","SEVERNA PARK","MD",21146,39.0905374280001,-76.539543088,299,"263 MICHENER COURT WEST, SEVERNA PARK, MD, 21146","Match","Exact","263 MICHENER CT W, SEVERNA PARK, MD, 21146",68184048,"R"
144300,"263 MIDLAND POINT RD","CARBONDALE","CO",81623,39.416141974,-107.238620118,300,"263 MIDLAND POINT RD, CARBONDALE, CO, 81623","Match","Exact","263 MIDLAND POINT RD, CARBONDALE, CO, 81623",636151731,"R"
144301,"263 MIDTOWN DRIVE","TRAVERSE CITY","MI",49684,44.76034794,-85.619752007,301,"263 MIDTOWN DRIVE, TRAVERSE CITY, MI, 49684","Match","Exact","263 MIDTOWN DR, TRAVERSE CITY, MI, 49684",650212198,"R"
144302,"263 MILL ROAD","WEST SENECA","NY",14224,42.818933461,-78.744923258,302,"263 MILL ROAD, WEST SENECA, NY, 14224","Match","Exact","263 MILL RD, WEST SENECA, NY, 14224",48307898,"R"
144303,"263 MONTEVIDEO CIR","FREMONT","CA",94539,37.5388284040001,-121.925121792,303,"263 MONTEVIDEO CIR, FREMONT, CA, 94539","Match","Exact","263 MONTEVIDEO CIR, FREMONT, CA, 94539",125081518,"R"
144304,"263 N MINNEWAWA AVENUE","CLOVIS","CA",93612,NA,NA,304,"263 N MINNEWAWA AVENUE, CLOVIS, CA, 93612","Tie",NA,NA,NA,NA
144305,"263 NEW HOLLAND AVE","LANCASTER","PA",17602,40.0433466550001,-76.300731399,305,"263 NEW HOLLAND AVE, LANCASTER, PA, 17602","Match","Exact","263 NEW HOLLAND AVE, LANCASTER, PA, 17602",179662992,"L"
144306,"263 NW 1ST ST","ONTARIO","OR",97914,44.0291455400001,-116.963479073,306,"263 NW 1ST ST, ONTARIO, OR, 97914","Match","Exact","263 NW 1ST ST, ONTARIO, OR, 97914",138642331,"L"
144307,"263 OLEANDER AVE APT 2","PALM BEACH","FL",33480,26.7214632920001,-80.039777429,307,"263 OLEANDER AVE APT 2, PALM BEACH, FL, 33480","Match","Exact","263 OLEANDER AVE, PALM BEACH, FL, 33480",115279671,"R"
144308,"263 PARK AVE","GLENCOE","IL",60022,42.1355712320001,-87.7566237089999,308,"263 PARK AVE, GLENCOE, IL, 60022","Match","Exact","263 PARK AVE, GLENCOE, IL, 60022",112365401,"R"
144309,"263 PERFECT MOMENT DR","DURHAM","NC",27713,35.8524668520001,-78.9227316989999,309,"263 PERFECT MOMENT DR, DURHAM, NC, 27713","Match","Exact","263 PERFECT MOMENT DR, DURHAM, NC, 27713",71378869,"L"
144310,"263 PERIGNON PLACE","NAPLES","FL",34119,26.222058944,-81.734018046,310,"263 PERIGNON PLACE, NAPLES, FL, 34119","Match","Exact","263 PERIGNON PL, NAPLES, FL, 34119",115152350,"R"
144311,"263 PESHINE AVE","NEWARK","NJ",7108,40.7185936880001,-74.199241098,311,"263 PESHINE AVE, NEWARK, NJ, 7108","Match","Exact","263 PESHINE AVE, NEWARK, NJ, 07108",63466355,"R"
144312,"263 PRIVATE ROAD 8508","HILLISTER","TX",77624,NA,NA,312,"263 PRIVATE ROAD 8508, HILLISTER, TX, 77624","No_Match",NA,NA,NA,NA
144313,"263 RICH AVENUE","MOUNT VERNON","NY",10552,40.9201308250001,-73.8314024049999,313,"263 RICH AVENUE, MOUNT VERNON, NY, 10552","Match","Exact","263 RICH AVE, MOUNT VERNON, NY, 10552",139747127,"R"
144314,"263 RUE MAX","HOUMA","LA",70364,NA,NA,314,"263 RUE MAX, HOUMA, LA, 70364","No_Match",NA,NA,NA,NA
144315,"263 RYAN ROAD","WINDER","GA",30680,34.019478529,-83.721426908,315,"263 RYAN ROAD, WINDER, GA, 30680","Match","Exact","263 RYAN RD, WINDER, GA, 30680",77572429,"L"
144316,"263 S CLUBHOUSE DRIVE UNIT 216","PALATINE","IL",60074,42.1048181740001,-88.020557578,316,"263 S CLUBHOUSE DRIVE UNIT 216, PALATINE, IL, 60074","Match","Non_Exact","263 S CLUBHOUSE DR, PALATINE, IL, 60074",112366644,"L"
144317,"263 S LARCHMONT BLVD","LOS ANGELES","CA",90004,34.069770061,-118.323716081,317,"263 S LARCHMONT BLVD, LOS ANGELES, CA, 90004","Match","Exact","263 S LARCHMONT BLVD, LOS ANGELES, CA, 90004",241170257,"R"
144318,"263 S ROYAL ANN CIRCLE","OREM","UT",84058,40.2926047400001,-111.708418954,318,"263 S ROYAL ANN CIRCLE, OREM, UT, 84058","Match","Exact","263 S ROYAL ANN CIR, OREM, UT, 84058",134205892,"L"
144319,"263 SAUNDERS STATION ROAD","LEVEL GREEN","PA",15085,40.403495187,-79.7286228,319,"263 SAUNDERS STATION ROAD, LEVEL GREEN, PA, 15085","Match","Non_Exact","263 SAUNDERS STATION RD, TRAFFORD, PA, 15085",613028171,"L"
144320,"263 SPRING RUN LANE","DOWNINGTOWN","PA",19335,40.048011607,-75.6839469559999,320,"263 SPRING RUN LANE, DOWNINGTOWN, PA, 19335","Match","Exact","263 SPRING RUN LN, DOWNINGTOWN, PA, 19335",179521513,"R"
144321,"263 SYLVAN WAY","EMERALD HILLS","CA",94062,37.4695889130001,-122.274070128,321,"263 SYLVAN WAY, EMERALD HILLS, CA, 94062","Match","Exact","263 SYLVAN WAY, EMERALD HILLS, CA, 94062",635506753,"L"
144322,"263 TATHOM ROAD","EASTOVER","SC",29044,33.9186422880001,-80.730225398,322,"263 TATHOM ROAD, EASTOVER, SC, 29044","Match","Exact","263 TATHOM RD, EASTOVER, SC, 29044",71812826,"R"
144323,"263 W 139TH STREET","NEW YORK","NY",10030,40.8186010210001,-73.943608317,323,"263 W 139TH STREET, NEW YORK, NY, 10030","Match","Exact","263 W 139TH ST, NEW YORK, NY, 10030",59656393,"R"
144324,"263 W OLIVE AVE  NUM 234","BURBANK","CA",91502,NA,NA,324,"263 W OLIVE AVE  NUM 234, BURBANK, CA, 91502","Tie",NA,NA,NA,NA
144325,"263 W RIALTO AVE STE 38","RIALTO","CA",92376,NA,NA,325,"263 W RIALTO AVE STE 38, RIALTO, CA, 92376","Tie",NA,NA,NA,NA
144326,"263 WEST END AVENUE  APT 4B","NEW YORK","NY",10023,40.779932268,-73.9843935009999,326,"263 WEST END AVENUE  APT 4B, NEW YORK, NY, 10023","Match","Exact","263 W END AVE, NEW YORK, NY, 10023",59655106,"L"
144327,"263 WEST END AVENUE SUITE 1D","NEW YORK","NY",10023,40.779932268,-73.9843935009999,327,"263 WEST END AVENUE SUITE 1D, NEW YORK, NY, 10023","Match","Exact","263 W END AVE, NEW YORK, NY, 10023",59655106,"L"
144328,"263 WEST SHILOH UNITY ROAD","LANCASTER","SC",29720,34.770054316,-80.79363086,328,"263 WEST SHILOH UNITY ROAD, LANCASTER, SC, 29720","Match","Exact","263 W SHILOH UNITY RD, LANCASTER, SC, 29720",632090840,"R"
144329,"2630 118TH AVE SE 6-201","BELLEVUE","WA",98005,47.586981306,-122.181518462,329,"2630 118TH AVE SE 6-201, BELLEVUE, WA, 98005","Match","Exact","2630 118TH AVE SE, BELLEVUE, WA, 98005",239779654,"L"
144330,"2630 13TH STREET","CUYAHOGA FALLS","OH",44223,41.149282241,-81.498654168,330,"2630 13TH STREET, CUYAHOGA FALLS, OH, 44223","Match","Exact","2630 13TH ST, CUYAHOGA FALLS, OH, 44223",61347513,"L"
144331,"2630 1ST STREET SOUTH","WILLMAR","MN",56201,45.0973231950001,-95.0426034069999,331,"2630 1ST STREET SOUTH, WILLMAR, MN, 56201","Match","Exact","2630 1ST ST S, WILLMAR, MN, 56201",608816475,"L"
144332,"2630 A TANBARK WAY","MISSOULA","MT",59808,46.8976254200001,-114.116838167,332,"2630 A TANBARK WAY, MISSOULA, MT, 59808","Match","Exact","2630 TANBARK WAY, MISSOULA, MT, 59808",625691651,"R"
144333,"2630 ACR 353","PALESTINE","TX",75801,NA,NA,333,"2630 ACR 353, PALESTINE, TX, 75801","No_Match",NA,NA,NA,NA
144334,"2630 ATLANTIC AVENUE GRND FLR SALON","BROOKLYN","NY",11207,40.6757033640001,-73.8973459219999,334,"2630 ATLANTIC AVENUE GRND FLR SALON, BROOKLYN, NY, 11207","Match","Exact","2630 ATLANTIC AVE, BROOKLYN, NY, 11207",59084647,"R"
144335,"2630 ATLANTIC AVENUE","BROOKLYN","NY",11207,40.6757033640001,-73.8973459219999,335,"2630 ATLANTIC AVENUE, BROOKLYN, NY, 11207","Match","Exact","2630 ATLANTIC AVE, BROOKLYN, NY, 11207",59084647,"R"
144336,"2630 BISSONNET 1413","HOUSTON","TX",77005,29.725476616,-95.419264582,336,"2630 BISSONNET 1413, HOUSTON, TX, 77005","Match","Non_Exact","2630 BISSONNET ST, HOUSTON, TX, 77005",96063247,"R"
144337,"2630 CALLE SERENA","SAN DIEGO","CA",92139,32.6726243040001,-117.057417005,337,"2630 CALLE SERENA, SAN DIEGO, CA, 92139","Match","Non_Exact","2630 CLL SERENA, SAN DIEGO, CA, 92139",195353737,"R"
144338,"2630 CAPITOLA AVENUE","SOQUEL","CA",95073,36.984948844,-121.951708215,338,"2630 CAPITOLA AVENUE, SOQUEL, CA, 95073","Match","Exact","2630 CAPITOLA AVE, SOQUEL, CA, 95073",125509375,"R"
144339,"2630 CENTENARY STREET","HOUSTON","TX",77005,29.7104048900001,-95.418952718,339,"2630 CENTENARY STREET, HOUSTON, TX, 77005","Match","Exact","2630 CENTENARY ST, HOUSTON, TX, 77005",96063791,"R"
144340,"2630 CLAYMONT ROAD","HEPHZIBAH","GA",30815,33.391909636,-82.080118387,340,"2630 CLAYMONT ROAD, HEPHZIBAH, GA, 30815","Match","Exact","2630 CLAYMONT RD, HEPHZIBAH, GA, 30815",55650690,"R"
144341,"2630 CLIFTON RUN PLACE","ATLANTA","GA",30316,33.712154335,-84.323418558,341,"2630 CLIFTON RUN PLACE, ATLANTA, GA, 30316","Match","Exact","2630 CLIFTON RUN PL, ATLANTA, GA, 30316",23390031,"L"
144342,"2630 COCONUT BAY LN APT 3I","SARASOTA","FL",34237,27.3436188050001,-82.5166882839999,342,"2630 COCONUT BAY LN APT 3I, SARASOTA, FL, 34237","Match","Exact","2630 COCONUT BAY LN, SARASOTA, FL, 34237",625407927,"R"
144343,"2630 E CHEYENNE AVE 216","NORTH LAS VEGAS","NV",89030,36.217643158,-115.113404841,343,"2630 E CHEYENNE AVE 216, NORTH LAS VEGAS, NV, 89030","Match","Non_Exact","2630 E CHEYENNE AVE, N LAS VEGAS, NV, 89030",201866353,"L"
144344,"2630 FEWS BRIDGE RD","GREER","SC",29651,35.025866588,-82.3192083279999,344,"2630 FEWS BRIDGE RD, GREER, SC, 29651","Match","Exact","2630 FEWS BRIDGE RD, GREER, SC, 29651",633405288,"R"
144345,"2630 GINGER DR","BUFORD","GA",30519,34.0703979800001,-83.9482285299999,345,"2630 GINGER DR, BUFORD, GA, 30519","Match","Exact","2630 GINGER DR, BUFORD, GA, 30519",88964356,"L"
144346,"2630 GREEN VILLA LANE","EUGENE","OR",97404,44.1020607470001,-123.126071546,346,"2630 GREEN VILLA LANE, EUGENE, OR, 97404","Match","Exact","2630 GREEN VILLA LN, EUGENE, OR, 97404",636195468,"R"
144347,"2630 KALEY DR","TALBOTT","TN",37877,36.192338197,-83.4353404729999,347,"2630 KALEY DR, TALBOTT, TN, 37877","Match","Exact","2630 KALEY DR, TALBOTT, TN, 37877",606974316,"L"
144348,"2630 KENHILL DRIVE","CHARLOTTE","NC",28208,35.217430113,-80.908888282,348,"2630 KENHILL DRIVE, CHARLOTTE, NC, 28208","Match","Exact","2630 KENHILL DR, CHARLOTTE, NC, 28208",70483907,"R"
144349,"2630 KINGSBRIDGE TERRACE   SUITE 3K","BRONX","NY",10469,40.870081736,-73.905660197,349,"2630 KINGSBRIDGE TERRACE   SUITE 3K, BRONX, NY, 10469","Match","Non_Exact","2630 KINGSBRIDGE TER, BRONX, NY, 10463",80298549,"R"
144350,"2630 KINGSBRIDGE TERRACE APT 7W","BRONX","NY",10463,40.870081736,-73.905660197,350,"2630 KINGSBRIDGE TERRACE APT 7W, BRONX, NY, 10463","Match","Exact","2630 KINGSBRIDGE TER, BRONX, NY, 10463",80298549,"R"
144351,"2630 KINGSBRIDGE","BRONX","NY",10463,40.870081736,-73.905660197,351,"2630 KINGSBRIDGE, BRONX, NY, 10463","Match","Non_Exact","2630 KINGSBRIDGE TER, BRONX, NY, 10463",80298549,"R"
144352,"2630 MONROEVILLE BLVD PO BOX 28","MONROEVILLE","PA",15146,40.431721377,-79.784728467,352,"2630 MONROEVILLE BLVD PO BOX 28, MONROEVILLE, PA, 15146","Match","Exact","2630 MONROEVILLE BLVD, MONROEVILLE, PA, 15146",606397006,"R"
144353,"2630 MONROEVILLE BLVD UNIT 531","MONROEVILLE","PA",15146,40.431721377,-79.784728467,353,"2630 MONROEVILLE BLVD UNIT 531, MONROEVILLE, PA, 15146","Match","Exact","2630 MONROEVILLE BLVD, MONROEVILLE, PA, 15146",606397006,"R"
144354,"2630 NE 212TH TERR","MIAMI","FL",33180,25.971714218,-80.149490258,354,"2630 NE 212TH TERR, MIAMI, FL, 33180","Match","Exact","2630 NE 212TH TER, MIAMI, FL, 33180",116273922,"L"
144355,"2630 NEW MARKET ROAD","HENRICO","VA",23231,37.444510123,-77.352002972,355,"2630 NEW MARKET ROAD, HENRICO, VA, 23231","Match","Exact","2630 NEW MARKET RD, HENRICO, VA, 23231",106680121,"L"
144356,"2630 NW 41ST STREET","GAINESVILLE","FL",32627,29.677349377,-82.386578791,356,"2630 NW 41ST STREET, GAINESVILLE, FL, 32627","Match","Non_Exact","2630 NW 41 ST, GAINESVILLE, FL, 32606",6803808,"L"
144357,"2630 OAHU AVENUE","HONOLULU","HI",96822,21.3086009950001,-157.815732889,357,"2630 OAHU AVENUE, HONOLULU, HI, 96822","Match","Exact","2630 OAHU AVE, HONOLULU, HI, 96822",203333712,"L"
144358,"2630 PIKE LANE","LANCASTER","PA",17603,40.019301662,-76.370850893,358,"2630 PIKE LANE, LANCASTER, PA, 17603","Match","Exact","2630 PIKE LN, LANCASTER, PA, 17603",179663185,"L"
144359,"2630 PINEY GROVE CHURCH RD","GRESHAM","SC",29546,33.8444893920001,-79.279993197,359,"2630 PINEY GROVE CHURCH RD, GRESHAM, SC, 29546","Match","Exact","2630 PINEY GROVE CHURCH RD, GRESHAM, SC, 29546",28780188,"R"
144360,"2630 PRESERVE DRIVE","FINKSBURG","MD",21048,39.479924634,-76.90482582,360,"2630 PRESERVE DRIVE, FINKSBURG, MD, 21048","Match","Exact","2630 PRESERVE DR, FINKSBURG, MD, 21048",61767205,"L"
144361,"2630 ROCKCASTLE COURT","MIAMISBURG","OH",45342,39.5995422450001,-84.2153251189999,361,"2630 ROCKCASTLE COURT, MIAMISBURG, OH, 45342","Match","Exact","2630 ROCKCASTLE CT, MIAMISBURG, OH, 45342",645849495,"L"
144362,"2630 S HOOD RANCH PL","MERIDIAN","ID",83642,43.580397168,-116.355362338,362,"2630 S HOOD RANCH PL, MERIDIAN, ID, 83642","Match","Exact","2630 S HOOD RANCH PL, MERIDIAN, ID, 83642",117894614,"L"
144363,"2630 SEGREST ST","CORPUS CHRISTI","TX",78405,27.777069614,-97.419326956,363,"2630 SEGREST ST, CORPUS CHRISTI, TX, 78405","Match","Exact","2630 SEGREST ST, CORPUS CHRISTI, TX, 78405",178515353,"R"
144364,"2630 SOUTH RIDGE RD WEST","ASHTABULA","OH",44004,41.8389082680001,-80.818369836,364,"2630 SOUTH RIDGE RD WEST, ASHTABULA, OH, 44004","Match","Exact","2630 S RIDGE RD W, ASHTABULA, OH, 44004",117314240,"R"
144365,"2630 SOUTH TITANIUM DRIVE","MAGNA","UT",84044,40.7127072280001,-112.09843054,365,"2630 SOUTH TITANIUM DRIVE, MAGNA, UT, 84044","Match","Exact","2630 S TITANIUM DR, MAGNA, UT, 84044",614852454,"L"
144366,"2630 STRATFORD DR","SPRINGFIELD","IL",62704,39.7516211330001,-89.703258999,366,"2630 STRATFORD DR, SPRINGFIELD, IL, 62704","Match","Exact","2630 STRATFORD DR, SPRINGFIELD, IL, 62704",97357649,"R"
144367,"2630 SW 63RD AVE","MIAMI","FL",33155,25.7459709340001,-80.297254887,367,"2630 SW 63RD AVE, MIAMI, FL, 33155","Match","Exact","2630 SW 63RD AVE, MIAMI, FL, 33155",115977519,"R"
144368,"2630 TALLEY ST UNIT 427","DECATUR","GA",30033,33.7705212400001,-84.28379955,368,"2630 TALLEY ST UNIT 427, DECATUR, GA, 30033","Match","Non_Exact","2630 TALLEY ST, DECATUR, GA, 30030",23388189,"L"
144369,"2630 TALLEY STREET 124","DECATUR","GA",30030,33.7705212400001,-84.28379955,369,"2630 TALLEY STREET 124, DECATUR, GA, 30030","Match","Exact","2630 TALLEY ST, DECATUR, GA, 30030",23388189,"L"
144370,"2630 VILLAGE RD","DEARBORN","MI",48124,42.295807864,-83.237611251,370,"2630 VILLAGE RD, DEARBORN, MI, 48124","Match","Exact","2630 VILLAGE RD, DEARBORN, MI, 48124",95712540,"R"
144371,"2630 VIRGINIA COVE","RIVERDALE","GA",30296,33.562755134,-84.475616944,371,"2630 VIRGINIA COVE, RIVERDALE, GA, 30296","Match","Exact","2630 VIRGINIA COVE, RIVERDALE, GA, 30296",625040663,"L"
144372,"2630 W 154TH ST","GARDENA","CA",90249,33.891026428,-118.323192778,372,"2630 W 154TH ST, GARDENA, CA, 90249","Match","Exact","2630 W 154TH ST, GARDENA, CA, 90249",141666331,"L"
144373,"2630 W BROWARD BLVD  SUITE 203-340","FORT LAUDERDALE","FL",33312,26.121519683,-80.1767192619999,373,"2630 W BROWARD BLVD  SUITE 203-340, FORT LAUDERDALE, FL, 33312","Match","Non_Exact","2630 W BROWARD BLVD, FORT LAUDERDALE, FL, 33312",114720843,"L"
144374,"2630 W BROWARD BLVD STE 203-211","FORT LAUDERDALE","FL",33312,26.121519683,-80.1767192619999,374,"2630 W BROWARD BLVD STE 203-211, FORT LAUDERDALE, FL, 33312","Match","Non_Exact","2630 W BROWARD BLVD, FORT LAUDERDALE, FL, 33312",114720843,"L"
144375,"2630 W BROWARD BLVD SUITE 203 717","FT LAUDERDALE","FL",33312,26.121519683,-80.1767192619999,375,"2630 W BROWARD BLVD SUITE 203 717, FT LAUDERDALE, FL, 33312","Match","Non_Exact","2630 W BROWARD BLVD, FORT LAUDERDALE, FL, 33312",114720843,"L"
144376,"2630 W BROWARD BLVD SUITE 203-569","FORT LAUDERDALE","FL",33312,26.121519683,-80.1767192619999,376,"2630 W BROWARD BLVD SUITE 203-569, FORT LAUDERDALE, FL, 33312","Match","Non_Exact","2630 W BROWARD BLVD, FORT LAUDERDALE, FL, 33312",114720843,"L"
144377,"2630 W SOMERSET STREET","PHILADELPHIA","PA",19132,39.9981799190001,-75.174706866,377,"2630 W SOMERSET STREET, PHILADELPHIA, PA, 19132","Match","Exact","2630 W SOMERSET ST, PHILADELPHIA, PA, 19132",131402086,"L"
144378,"2630 WEST 157TH STREET","GARDENA","CA",90249,33.8883143840001,-118.322361644,378,"2630 WEST 157TH STREET, GARDENA, CA, 90249","Match","Exact","2630 W 157TH ST, GARDENA, CA, 90249",141666337,"L"
144379,"2630 WEST BLVD","BELLEVILLE","IL",62221,38.5181518580001,-89.9446908419999,379,"2630 WEST BLVD, BELLEVILLE, IL, 62221","Match","Exact","2630 WEST BLVD, BELLEVILLE, IL, 62221",107861604,"L"
144380,"26300 FORD RD 236","DEARBORN HEIGHTS","MI",48213,42.326459836,-83.2982888289999,380,"26300 FORD RD 236, DEARBORN HEIGHTS, MI, 48213","Match","Non_Exact","26300 FORD RD, DEARBORN HEIGHTS, MI, 48127",95432063,"R"
144381,"26300 FORD ROAD SUITE 260","DEARBORN","MI",48127,42.326459836,-83.2982888289999,381,"26300 FORD ROAD SUITE 260, DEARBORN, MI, 48127","Match","Non_Exact","26300 FORD RD, DEARBORN HEIGHTS, MI, 48127",95432063,"R"
144382,"26301 WYLDEWOOD DR","WEBSTER","MN",55088,44.5682152000001,-93.426854073,382,"26301 WYLDEWOOD DR, WEBSTER, MN, 55088","Match","Exact","26301 WYLDEWOOD DR, WEBSTER, MN, 55088",624567242,"L"
144383,"26303 HWY 31","MCKENZIE","AL",36456,31.457347041,-86.7743006919999,383,"26303 HWY 31, MCKENZIE, AL, 36456","Match","Non_Exact","26303 US HWY 31, MCKENZIE, AL, 36456",651377107,"L"
144384,"26303 MIDDLECREST HILL CT","KATY","TX",77494,29.729244023,-95.8183085209999,384,"26303 MIDDLECREST HILL CT, KATY, TX, 77494","Match","Exact","26303 MIDDLECREST HILL CT, KATY, TX, 77494",642952319,"L"
144385,"26304 W TALLGRASS TRAIL","CHANNAHON","IL",60410,41.4173955840001,-88.248636155,385,"26304 W TALLGRASS TRAIL, CHANNAHON, IL, 60410","Match","Exact","26304 TALLGRASS TRL, CHANNAHON, IL, 60410",111594173,"L"
144386,"26305 NE 44TH ST","CAMAS","WA",98607,45.6541980280001,-122.402483363,386,"26305 NE 44TH ST, CAMAS, WA, 98607","Match","Exact","26305 NE 44TH ST, CAMAS, WA, 98607",158337247,"R"
144387,"26306 135TH AVE SE","KENT","WA",98042,47.3656727590001,-122.161314718,387,"26306 135TH AVE SE, KENT, WA, 98042","Match","Exact","26306 135TH AVE SE, KENT, WA, 98042",239777820,"L"
144388,"26307 CLYDESDALE LN","MORENO VALLEY","CA",92555,33.8812176120001,-117.203463228,388,"26307 CLYDESDALE LN, MORENO VALLEY, CA, 92555","Match","Exact","26307 CLYDESDALE LN, MORENO VALLEY, CA, 92555",608990397,"L"
144389,"26307 WOODED HOLLOW LN","KATY","TX",77494,29.7661736520001,-95.834827365,389,"26307 WOODED HOLLOW LN, KATY, TX, 77494","Match","Exact","26307 WOODED HOLLOW LN, KATY, TX, 77494",627031416,"R"
144390,"26308 COUNTY ROAD 65","ILIFF","CO",80736,40.8299293360001,-102.960507005,390,"26308 COUNTY ROAD 65, ILIFF, CO, 80736","Match","Exact","26308 CO RD 65, ILIFF, CO, 80736",136181517,"R"
144391,"26308 NE 34TH ST","CAMAS","WA",98607,45.647517184,-122.402458275,391,"26308 NE 34TH ST, CAMAS, WA, 98607","Match","Exact","26308 NE 34TH ST, CAMAS, WA, 98607",158319284,"L"
144392,"2631 3RD AVE N","SEATTLE","WA",98109,47.643980191,-122.351743436,392,"2631 3RD AVE N, SEATTLE, WA, 98109","Match","Exact","2631 3RD AVE N, SEATTLE, WA, 98109",239761790,"L"
144393,"2631 ANDY DRIVE","INDIANAPOLIS","IN",46229,39.8061352170001,-86.0021636119999,393,"2631 ANDY DRIVE, INDIANAPOLIS, IN, 46229","Match","Exact","2631 ANDY DR, INDIANAPOLIS, IN, 46229",108012627,"R"
144394,"2631 ARCADIA DRIVE SUITE 2","MIRAMAR","FL",33023,25.986241992,-80.231884456,394,"2631 ARCADIA DRIVE SUITE 2, MIRAMAR, FL, 33023","Match","Exact","2631 ARCADIA DR, MIRAMAR, FL, 33023",114734005,"L"
144395,"2631 ARMAND PLACE  UNIT A","ST LOUIS","MO",63104,38.608594913,-90.223308936,395,"2631 ARMAND PLACE  UNIT A, ST LOUIS, MO, 63104","Match","Exact","2631 ARMAND PL, SAINT LOUIS, MO, 63104",605123455,"R"
144396,"2631 BEDFORD WAY","CARSON CITY","NV",89701,39.167414852,-119.794082475,396,"2631 BEDFORD WAY, CARSON CITY, NV, 89701","Match","Non_Exact","2631 BEDFORD WAY, CARSON CITY, NV, 89703",199526028,"L"
144397,"2631 BEDFORD WAY","CARSON CITY","NV",89703,39.167414852,-119.794082475,397,"2631 BEDFORD WAY, CARSON CITY, NV, 89703","Match","Exact","2631 BEDFORD WAY, CARSON CITY, NV, 89703",199526028,"L"
144398,"2631 BRICKELL SQUARE","ATLANTA","GA",30341,33.8657410230001,-84.250139774,398,"2631 BRICKELL SQUARE, ATLANTA, GA, 30341","Match","Exact","2631 BRICKELL SQ, ATLANTA, GA, 30341",634040975,"R"
144399,"2631 BULVERDE ROAD -  SUITE 105","BULVERDE","TX",78163,29.7427974570001,-98.446649206,399,"2631 BULVERDE ROAD -  SUITE 105, BULVERDE, TX, 78163","Match","Exact","2631 BULVERDE RD, BULVERDE, TX, 78163",72255700,"L"
144400,"2631 CARMEL ST","HOUSTON","TX",77091,29.8599746020001,-95.451453822,400,"2631 CARMEL ST, HOUSTON, TX, 77091","Match","Exact","2631 CARMEL ST, HOUSTON, TX, 77091",96027585,"L"
144401,"2631 CHARLAIS WAY","ARLINGTON","TX",76017,NA,NA,401,"2631 CHARLAIS WAY, ARLINGTON, TX, 76017","No_Match",NA,NA,NA,NA
144402,"2631 CHESTNUT","OAKLAND","CA",94607,37.818797858,-122.281673172,402,"2631 CHESTNUT, OAKLAND, CA, 94607","Match","Non_Exact","2631 CHESTNUT ST, OAKLAND, CA, 94607",124995983,"L"
144403,"2631 CHIVALRY COURT","WHEATON","MD",20902,39.032952906,-77.050840705,403,"2631 CHIVALRY COURT, WHEATON, MD, 20902","Match","Exact","2631 CHIVALRY CT, WHEATON, MD, 20902",62094282,"R"
144404,"2631 COUNTY ROAD 28","FLORENCE","AL",35634,34.905423179,-87.637859441,404,"2631 COUNTY ROAD 28, FLORENCE, AL, 35634","Match","Exact","2631 CO RD 28, FLORENCE, AL, 35634",41312605,"L"
144405,"2631 CR 86","VICTOR","CO",80860,38.6625516140001,-105.120902,405,"2631 CR 86, VICTOR, CO, 80860","Match","Exact","2631 CO RD 86, VICTOR, CO, 80860",130944946,"R"
144406,"2631 FILLMORE ST","PHILADELPHIA","PA",19137,40.0025960090001,-75.070324937,406,"2631 FILLMORE ST, PHILADELPHIA, PA, 19137","Match","Exact","2631 FILLMORE ST, PHILADELPHIA, PA, 19137",131429543,"L"
144407,"2631 HARRIS STREET","FERNDALE","MI",48220,42.4676522840001,-83.1214044,407,"2631 HARRIS STREET, FERNDALE, MI, 48220","Match","Exact","2631 HARRIS ST, FERNDALE, MI, 48220",644959155,"L"
144408,"2631 HARVARD AVE NW","CANTON","OH",44709,40.824487597,-81.372516328,408,"2631 HARVARD AVE NW, CANTON, OH, 44709","Match","Exact","2631 HARVARD AVE NW, CANTON, OH, 44709",64678750,"L"
144409,"2631 JOHN WEST RD APT 1506","DALLAS","TX",75228,NA,NA,409,"2631 JOHN WEST RD APT 1506, DALLAS, TX, 75228","No_Match",NA,NA,NA,NA
144410,"2631 JOHNSON GRASS","SAN ANTONIO","TX",78251,29.461589782,-98.6620117419999,410,"2631 JOHNSON GRASS, SAN ANTONIO, TX, 78251","Match","Non_Exact","2631 JOHNSON GRASS DR, SAN ANTONIO, TX, 78251",101565448,"L"
144411,"2631 MCCLENDON ST","SOUTHSIDE","AL",35907,33.91542278,-86.0340293,411,"2631 MCCLENDON ST, SOUTHSIDE, AL, 35907","Match","Exact","2631 MCCLENDON ST, SOUTHSIDE, AL, 35907",66784375,"R"
144412,"2631 N CAMP CIRCLE","LAMARQUE","TX",77568,29.3695285470001,-94.98290758,412,"2631 N CAMP CIRCLE, LAMARQUE, TX, 77568","Match","Non_Exact","2631 N CAMP CIR, LA MARQUE, TX, 77568",96691429,"L"
144413,"2631 N JESSUP STREET","PHILADELPHIA","PA",19133,39.9921123130001,-75.150109376,413,"2631 N JESSUP STREET, PHILADELPHIA, PA, 19133","Match","Exact","2631 N JESSUP ST, PHILADELPHIA, PA, 19133",131418474,"R"
144414,"2631 NW 2ND ST","OCALA","FL",34474,NA,NA,414,"2631 NW 2ND ST, OCALA, FL, 34474","No_Match",NA,NA,NA,NA
144415,"2631 OLYMPUS","HOUSTON","TX",77084,29.8057258220001,-95.7054145819999,415,"2631 OLYMPUS, HOUSTON, TX, 77084","Match","Non_Exact","2631 OLYMPUS DR, HOUSTON, TX, 77084",96014777,"L"
144416,"2631 PLUM CREEK DRIVE","CORDOVA","TN",38016,35.197535255,-89.7227082319999,416,"2631 PLUM CREEK DRIVE, CORDOVA, TN, 38016","Match","Exact","2631 PLUM CREEK DR, CORDOVA, TN, 38016",72975937,"L"
144417,"2631 S BOSTON PL","TULSA","OK",74114,36.127300871,-95.983728228,417,"2631 S BOSTON PL, TULSA, OK, 74114","Match","Exact","2631 S BOSTON PL, TULSA, OK, 74114",166442173,"L"
144418,"2631 S INDIANA UNIT 1311","CHICAGO","IL",60616,NA,NA,418,"2631 S INDIANA UNIT 1311, CHICAGO, IL, 60616","No_Match",NA,NA,NA,NA
144419,"2631 SKYVIEW COVE CT","HOUSTON","TX",77047,29.619783641,-95.3823860049999,419,"2631 SKYVIEW COVE CT, HOUSTON, TX, 77047","Match","Non_Exact","2631 SKYVIEW GROVE CT, HOUSTON, TX, 77047",635039490,"R"
144420,"2631 STATE ROUTE 34","WINFIELD","WV",25213,NA,NA,420,"2631 STATE ROUTE 34, WINFIELD, WV, 25213","No_Match",NA,NA,NA,NA
144421,"2631 WEDGEWOOD DRIVE","MATTHEWS","NC",28104,NA,NA,421,"2631 WEDGEWOOD DRIVE, MATTHEWS, NC, 28104","No_Match",NA,NA,NA,NA
144422,"2631 WEST GIRARD AVENUE","PHILADELPHIA","PA",19130,39.974093085,-75.179786801,422,"2631 WEST GIRARD AVENUE, PHILADELPHIA, PA, 19130","Match","Exact","2631 W GIRARD AVE, PHILADELPHIA, PA, 19130",640216614,"R"
144423,"26311 NE VALLEY STREET NUMBER A","DUVALL","WA",98019,47.737843463,-121.986908361,423,"26311 NE VALLEY STREET NUMBER A, DUVALL, WA, 98019","Match","Non_Exact","26311 NE VALLEY ST, DUVALL, WA, 98019",186616719,"L"
144424,"26311 WESTHEIMER PKWY","KATY","TX",77406,29.756195754,-95.805388799,424,"26311 WESTHEIMER PKWY, KATY, TX, 77406","Match","Non_Exact","26311 WESTHEIMER PKWY, KATY, TX, 77494",78343793,"R"
144425,"26313 E MEADOW DRIVE","JACKSON","LA",70748,30.7050506250001,-91.251140374,425,"26313 E MEADOW DRIVE, JACKSON, LA, 70748","Match","Non_Exact","26313 W MEADOW DR, JACKSON, LA, 70748",618736501,"R"
144426,"26313 E MEADOW DRIVE","JACKSON","LA",70848,NA,NA,426,"26313 E MEADOW DRIVE, JACKSON, LA, 70848","No_Match",NA,NA,NA,NA
144427,"26313","KNOXVILLE","TN",37912,NA,NA,427,"26313, KNOXVILLE, TN, 37912","No_Match",NA,NA,NA,NA
144428,"26314 CEDAR PINE DR","KATY","TX",77494,29.7064348600001,-95.832887828,428,"26314 CEDAR PINE DR, KATY, TX, 77494","Match","Exact","26314 CEDAR PINE DR, KATY, TX, 77494",641060350,"R"
144429,"26314 LANGDON COURT","KATY","TX",77494,29.733172047,-95.8246068,429,"26314 LANGDON COURT, KATY, TX, 77494","Match","Exact","26314 LANGDON CT, KATY, TX, 77494",641051870,"R"
144430,"26314 LANGDON CT","KATY","TX",77494,29.733172047,-95.8246068,430,"26314 LANGDON CT, KATY, TX, 77494","Match","Exact","26314 LANGDON CT, KATY, TX, 77494",641051870,"R"
144431,"26317 120TH STREET","COMFREY","MN",56019,44.1379207620001,-94.70240044,431,"26317 120TH STREET, COMFREY, MN, 56019","Match","Exact","26317 120TH ST, COMFREY, MN, 56019",28576032,"L"
144432,"2631B NOLENSVILLE PIKE","NASHVILLE","TN",37211,36.1153819960001,-86.7475297839999,432,"2631B NOLENSVILLE PIKE, NASHVILLE, TN, 37211","Match","Exact","2631 NOLENSVILLE PIKE, NASHVILLE, TN, 37211",97192774,"R"
144433,"2632 AMBROSE RD","CRESWELL","NC",27928,35.844611129,-76.4615577289999,433,"2632 AMBROSE RD, CRESWELL, NC, 27928","Match","Exact","2632 AMBROSE RD, CRESWELL, NC, 27928",642902068,"L"
144434,"2632 BROADWAY SUITE 402 NORTH","SAN ANTONIO","TX",78215,29.45148656,-98.473632091,434,"2632 BROADWAY SUITE 402 NORTH, SAN ANTONIO, TX, 78215","Match","Exact","2632 BROADWAY, SAN ANTONIO, TX, 78215",101525030,"R"
144435,"2632 BROOKSIDE DRIVE","IRVING","TX",75063,32.9124059590001,-96.979843203,435,"2632 BROOKSIDE DRIVE, IRVING, TX, 75063","Match","Exact","2632 BROOKSIDE DR, IRVING, TX, 75063",102885319,"L"
144436,"2632 CASTLE PINES DR","BURLESON","TX",76028,32.502257704,-97.370061725,436,"2632 CASTLE PINES DR, BURLESON, TX, 76028","Match","Exact","2632 CASTLE PINES DR, BURLESON, TX, 76028",225919103,"R"
144437,"2632 CHURCHILL ROAD","RALEIGH","NC",27608,35.805333612,-78.667510384,437,"2632 CHURCHILL ROAD, RALEIGH, NC, 27608","Match","Exact","2632 CHURCHILL RD, RALEIGH, NC, 27608",72501914,"R"
144438,"2632 CLEVELAND RD","EFFINGHAM","SC",29541,34.128772181,-79.823963896,438,"2632 CLEVELAND RD, EFFINGHAM, SC, 29541","Match","Exact","2632 CLEVELAND RD, EFFINGHAM, SC, 29541",28891802,"L"
144439,"2632 E IROQUOIS RD","FORT MOHAVE","AZ",86426,34.9834094880001,-114.570921086,439,"2632 E IROQUOIS RD, FORT MOHAVE, AZ, 86426","Match","Exact","2632 IROQUOIS RD, FORT MOHAVE, AZ, 86426",190347239,"R"
144440,"2632 HANSFORD DRIVE","THOMPSON'S STATION","TN",37179,35.778098936,-86.884506699,440,"2632 HANSFORD DRIVE, THOMPSON'S STATION, TN, 37179","Match","Non_Exact","2632 HANSFORD DR, THOMPSONS STATION, TN, 37179",635826233,"R"
144441,"2632 HIGHLAND MEADOWS WAY","VIRGINIA BEACH","VA",23456,36.756579645,-76.113808021,441,"2632 HIGHLAND MEADOWS WAY, VIRGINIA BEACH, VA, 23456","Match","Exact","2632 HIGHLAND MEADOWS WAY, VA BCH, VA, 23456",641468243,"R"
144442,"2632 HILLTOP RD","SPRINGFIELD","IL",62712,39.772923787,-89.5790531059999,442,"2632 HILLTOP RD, SPRINGFIELD, IL, 62712","Match","Non_Exact","2632 HILL TOP RD, SPRINGFIELD, IL, 62712",97348530,"L"
144443,"2632 HOWDEN ST","MUSKEGON","MI",49444,43.204244927,-86.2371454299999,443,"2632 HOWDEN ST, MUSKEGON, MI, 49444","Match","Exact","2632 HOWDEN ST, MUSKEGON, MI, 49444",77672868,"L"
144444,"2632 JOSHUA CIRCLE","BEAUFORT","SC",29902,32.4104990170001,-80.6949128259999,444,"2632 JOSHUA CIRCLE, BEAUFORT, SC, 29902","Match","Exact","2632 JOSHUA CIR, BEAUFORT, SC, 29902",636607342,"L"
144445,"2632 MUSKEG COURT","ATLANTA","GA",30331,33.6823454070001,-84.61832886,445,"2632 MUSKEG COURT, ATLANTA, GA, 30331","Match","Non_Exact","2632 MUSKEG CT SW, ATLANTA, GA, 30331",642059029,"R"
144446,"2632 NE 80TH ST","SEATTLE","WA",98115,47.6866781300001,-122.299137972,446,"2632 NE 80TH ST, SEATTLE, WA, 98115","Match","Exact","2632 NE 80TH ST, SEATTLE, WA, 98115",239762121,"L"
144447,"2632 NORTH 9TH STREET ROAD SUITE D","LAFAYETTE","IN",47904,40.4478629870001,-86.878749926,447,"2632 NORTH 9TH STREET ROAD SUITE D, LAFAYETTE, IN, 47904","Match","Exact","2632 N 9TH STREET RD, LAFAYETTE, IN, 47904",27304716,"L"
144448,"2632 NW 43RD ST SUITE 3110","GAINESVILLE","FL",32606,NA,NA,448,"2632 NW 43RD ST SUITE 3110, GAINESVILLE, FL, 32606","Tie",NA,NA,NA,NA
144449,"2632 NW 43RD STREET - SUITE 1182","GAINESVILLE","FL",32606,NA,NA,449,"2632 NW 43RD STREET - SUITE 1182, GAINESVILLE, FL, 32606","Tie",NA,NA,NA,NA
144450,"2632 OAKLEAF CIRCLE","HELENA","AL",35022,33.3031645030001,-86.9251022289999,450,"2632 OAKLEAF CIRCLE, HELENA, AL, 35022","Match","Exact","2632 OAKLEAF CIR, HELENA, AL, 35022",618048634,"R"
144451,"2632 PEMBERLY AVENUE","HIGHLANDS RANCH","CO",80126,39.5194178030001,-104.958404312,451,"2632 PEMBERLY AVENUE, HIGHLANDS RANCH, CO, 80126","Match","Exact","2632 PEMBERLY AVE, HIGHLANDS RANCH, CO, 80126",130840859,"L"
144452,"2632 S 83RD AVE STE 100-179","PHOENIX","AZ",85043,33.4244224130001,-112.238583062,452,"2632 S 83RD AVE STE 100-179, PHOENIX, AZ, 85043","Match","Non_Exact","2632 S 83RD AVE, PHOENIX, AZ, 85043",243926155,"L"
144453,"2632 S 83RD AVE STE 100/ 152","PHOENIX","AZ",85043,33.4244224130001,-112.238583062,453,"2632 S 83RD AVE STE 100/ 152, PHOENIX, AZ, 85043","Match","Non_Exact","2632 S 83RD AVE, PHOENIX, AZ, 85043",243926155,"L"
144454,"2632 TREMONT ST","PHILADELPHIA","PA",19152,40.071117557,-75.03338415,454,"2632 TREMONT ST, PHILADELPHIA, PA, 19152","Match","Exact","2632 TREMONT ST, PHILADELPHIA, PA, 19152",131431687,"R"
144455,"2632 WAYSIDE DRIVE","ANN ARBOR","MI",48103,42.309960403,-83.7791138169999,455,"2632 WAYSIDE DRIVE, ANN ARBOR, MI, 48103","Match","Exact","2632 WAYSIDE DR, ANN ARBOR, MI, 48103",26011516,"R"
144456,"2632 WHITCHURCH LANE","NAPERVILLE","IL",60564,41.7247717700001,-88.1980794899999,456,"2632 WHITCHURCH LANE, NAPERVILLE, IL, 60564","Match","Exact","2632 WHITCHURCH LN, NAPERVILLE, IL, 60564",111585322,"R"
144457,"26320 DENNISPORT DR","OAKWOOD VLG","OH",44146,41.371594718,-81.491732424,457,"26320 DENNISPORT DR, OAKWOOD VLG, OH, 44146","Match","Exact","26320 DENNISPORT DR, OAKWOOD VILLAGE, OH, 44146",61142586,"L"
144458,"26320 OLD CARRIAGE ROAD","SEAFORD","DE",19973,38.627699084,-75.681631765,458,"26320 OLD CARRIAGE ROAD, SEAFORD, DE, 19973","Match","Exact","26320 OLD CARRIAGE RD, SEAFORD, DE, 19973",106121493,"L"
144459,"26321 OLANCHE ST","MOJAVE","CA",93501,35.2035123530001,-118.019738083,459,"26321 OLANCHE ST, MOJAVE, CA, 93501","Match","Exact","26321 OLANCHE ST, MOJAVE, CA, 93501",108985540,"L"
144460,"26321 PRIVATE ROAD","ROXTON","TX",75477,NA,NA,460,"26321 PRIVATE ROAD, ROXTON, TX, 75477","No_Match",NA,NA,NA,NA
144461,"26323 PRIMROSE WAY","MORENO VALLEY","CA",92555,33.9385505330001,-117.203858963,461,"26323 PRIMROSE WAY, MORENO VALLEY, CA, 92555","Match","Exact","26323 PRIMROSE WAY, MORENO VALLEY, CA, 92555",633950257,"L"
144462,"26324 COTTAGE AVENUE","ELKHART","IN",46514,41.752570398,-85.9730717739999,462,"26324 COTTAGE AVENUE, ELKHART, IN, 46514","Match","Exact","26324 COTTAGE AVE, ELKHART, IN, 46514",7769740,"L"
144463,"26324 STANFORD DRIVE WEST","SOUTHFIELD","MI",48033,42.480807731,-83.314988512,463,"26324 STANFORD DRIVE WEST, SOUTHFIELD, MI, 48033","Match","Exact","26324 STANFORD DR W, SOUTHFIELD, MI, 48033",644599563,"L"
144464,"26329 COUNTY HIGHWAY 35","UNDERWOOD","MN",56586,46.3449572060001,-95.8716041179999,464,"26329 COUNTY HIGHWAY 35, UNDERWOOD, MN, 56586","Match","Exact","26329 CO HWY 35, UNDERWOOD, MN, 56586",168295414,"L"
144465,"26329 HWY 70","RUIDOSO DOWNS","NM",88346,33.3326030590001,-105.587509848,465,"26329 HWY 70, RUIDOSO DOWNS, NM, 88346","Match","Non_Exact","26329 US HWY 70, RUIDOSO DOWNS, NM, 88346",169115688,"L"
144466,"2633 ASHBY AVE","BERKELEY","CA",94705,37.8569610980001,-122.254095174,466,"2633 ASHBY AVE, BERKELEY, CA, 94705","Match","Exact","2633 ASHBY AVE, BERKELEY, CA, 94705",124999133,"L"
144467,"2633 BLACK RIVER ST","DECKERVILLE","MI",48427,43.526825859,-82.7307767889999,467,"2633 BLACK RIVER ST, DECKERVILLE, MI, 48427","Match","Exact","2633 BLACK RIVER ST, DECKERVILLE, MI, 48427",111062628,"R"
144468,"2633 BLACK RIVER STREET","DECKERVILLE","MI",48427,43.526825859,-82.7307767889999,468,"2633 BLACK RIVER STREET, DECKERVILLE, MI, 48427","Match","Exact","2633 BLACK RIVER ST, DECKERVILLE, MI, 48427",111062628,"R"
144469,"2633 CHERRY AVE","SIGNAL HILL","CA",90755,33.8050863500001,-118.167591236,469,"2633 CHERRY AVE, SIGNAL HILL, CA, 90755","Match","Exact","2633 CHERRY AVE, SIGNAL HILL, CA, 90755",647613171,"L"
144470,"2633 E COMMERCIAL BLVD STE E","FORT LAUDERDALE","FL",33308,26.1897913830001,-80.11010543,470,"2633 E COMMERCIAL BLVD STE E, FORT LAUDERDALE, FL, 33308","Match","Non_Exact","2633 E COMMERCIAL BLVD, FORT LAUDERDALE, FL, 33308",637111862,"L"
144471,"2633 E INDIAN SCHOOL ROAD STE 440","PHOENIX","AZ",85016,33.4949557740001,-112.025105989,471,"2633 E INDIAN SCHOOL ROAD STE 440, PHOENIX, AZ, 85016","Match","Non_Exact","2633 E INDIAN SCHOOL RD, PHOENIX, AZ, 85016",128219401,"R"
144472,"2633 EVENTIDE DR","JACKSONVILLE","FL",32209,30.3716570720001,-81.708422356,472,"2633 EVENTIDE DR, JACKSONVILLE, FL, 32209","Match","Exact","2633 EVENTIDE DR, JACKSONVILLE, FL, 32209",83891963,"R"
144473,"2633 GLENCAIRN DRIVE","FORT WAYNE","IN",46815,41.1008435620001,-85.085291006,473,"2633 GLENCAIRN DRIVE, FORT WAYNE, IN, 46815","Match","Exact","2633 GLENCAIRN DR, FORT WAYNE, IN, 46815",6385106,"L"
144474,"2633 GOSHEN ROAD","BELLINGHAM","WA",98226,48.854493818,-122.347587062,474,"2633 GOSHEN ROAD, BELLINGHAM, WA, 98226","Match","Exact","2633 GOSHEN RD, BELLINGHAM, WA, 98226",624809238,"L"
144475,"2633 HAMILTON STREET","OMAHA","NE",68110,41.271979269,-95.950698222,475,"2633 HAMILTON STREET, OMAHA, NE, 68110","Match","Non_Exact","2633 HAMILTON ST, OMAHA, NE, 68131",116980573,"L"
144476,"2633 HOLDEN BEACH ROAD","SUPPLY","NC",28462,33.9268252910001,-78.2902059959999,476,"2633 HOLDEN BEACH ROAD, SUPPLY, NC, 28462","Match","Exact","2633 HOLDEN BEACH RD, SUPPLY, NC, 28462",650651987,"R"
144477,"2633 HWY 101","ILWACO","WA",98624,46.3307468720001,-123.994444268,477,"2633 HWY 101, ILWACO, WA, 98624","Match","Non_Exact","2633 US HWY 101, ILWACO, WA, 98624",176004310,"R"
144478,"2633 INDIANA AVE","SAINT LOUIS","MO",63118,38.603955252,-90.221591808,478,"2633 INDIANA AVE, SAINT LOUIS, MO, 63118","Match","Exact","2633 INDIANA AVE, SAINT LOUIS, MO, 63118",618276291,"R"
144479,"2633 JEFFERSON TERRACE","EAST POINT","GA",30344,33.6831499470001,-84.4273713979999,479,"2633 JEFFERSON TERRACE, EAST POINT, GA, 30344","Match","Exact","2633 JEFFERSON TER, EAST POINT, GA, 30344",17349135,"R"
144480,"2633 KINMERE DRIVE","GASTONIA","NC",28056,35.2045152330001,-81.12621236,480,"2633 KINMERE DRIVE, GASTONIA, NC, 28056","Match","Exact","2633 KINMERE DR, GASTONIA, NC, 28056",617954738,"R"
144481,"2633 LINCOLN BLVD NUM 413","SANTA MONICA","CA",90405,NA,NA,481,"2633 LINCOLN BLVD NUM 413, SANTA MONICA, CA, 90405","No_Match",NA,NA,NA,NA
144482,"2633 LINCOLN BLVD UNIT 258","SANTA MONICA","CA",90405,NA,NA,482,"2633 LINCOLN BLVD UNIT 258, SANTA MONICA, CA, 90405","No_Match",NA,NA,NA,NA
144483,"2633 LINCOLN BLVD UNIT143","SANTA MONICA","CA",90405,NA,NA,483,"2633 LINCOLN BLVD UNIT143, SANTA MONICA, CA, 90405","No_Match",NA,NA,NA,NA
144484,"2633 LYNNVILLE COURT","LINDENWOOD","IL",61049,42.0608006260001,-89.0316879649999,484,"2633 LYNNVILLE COURT, LINDENWOOD, IL, 61049","Match","Exact","2633 LYNNVILLE CT, LINDENWOOD, IL, 61049",52322623,"R"
144485,"2633 MCKINNEY AVE STE 130 -350","DALLAS","TX",75204,32.797472273,-96.80143101,485,"2633 MCKINNEY AVE STE 130 -350, DALLAS, TX, 75204","Match","Exact","2633 MCKINNEY AVE, DALLAS, TX, 75204",102909138,"L"
144486,"2633 MCKINNEY AVE STE 130 NO 755","DALLAS","TX",75204,32.797472273,-96.80143101,486,"2633 MCKINNEY AVE STE 130 NO 755, DALLAS, TX, 75204","Match","Exact","2633 MCKINNEY AVE, DALLAS, TX, 75204",102909138,"L"
144487,"2633 MCKINNEY AVE STE 130-428","DALLAS","TX",75204,32.797472273,-96.80143101,487,"2633 MCKINNEY AVE STE 130-428, DALLAS, TX, 75204","Match","Exact","2633 MCKINNEY AVE, DALLAS, TX, 75204",102909138,"L"
144488,"2633 N POCOMOKE ST","ARLINGTON","VA",22207,38.895798449,-77.153514244,488,"2633 N POCOMOKE ST, ARLINGTON, VA, 22207","Match","Exact","2633 N POCOMOKE ST, ARLINGTON, VA, 22207",76466691,"R"
144489,"2633 PONDEROSA CT APT 4F","ELKHART","IN",46517,41.624535807,-85.914101944,489,"2633 PONDEROSA CT APT 4F, ELKHART, IN, 46517","Match","Exact","2633 PONDEROSA CT, ELKHART, IN, 46517",636073228,"L"
144490,"2633 REID PARK LANE","CHARLOTTE","NC",28208,35.2466889740001,-80.913180612,490,"2633 REID PARK LANE, CHARLOTTE, NC, 28208","Match","Exact","2633 REID PARK LN, CHARLOTTE, NC, 28208",70593573,"L"
144491,"2633 SCAMMEL DRIVE","DALLAS","TX",75227,32.7570615650001,-96.6772121609999,491,"2633 SCAMMEL DRIVE, DALLAS, TX, 75227","Match","Exact","2633 SCAMMEL DR, DALLAS, TX, 75227",102958142,"L"
144492,"2633 W BRYN MAWR AVENUE","CHICAGO","IL",60659,41.9831395460001,-87.695064921,492,"2633 W BRYN MAWR AVENUE, CHICAGO, IL, 60659","Match","Exact","2633 W BRYN MAWR AVE, CHICAGO, IL, 60659",111759998,"L"
144493,"2633 WOODMONT TRL","FORT WORT","TX",76133,32.652791473,-97.3587184629999,493,"2633 WOODMONT TRL, FORT WORT, TX, 76133","Match","Non_Exact","2633 WOODMONT TRL, FORT WORTH, TX, 76133",101893850,"R"
144494,"26330 MULLINIX MILL RD","MOUNT AIRY","MD",21771,39.2882956920001,-77.164049516,494,"26330 MULLINIX MILL RD, MOUNT AIRY, MD, 21771","Match","Exact","26330 MULLINIX MILL RD, MOUNT AIRY, MD, 21771",62070281,"R"
144495,"26332 MEREDITH","LA FERIA","TX",78559,26.1785202020001,-97.7975441309999,495,"26332 MEREDITH, LA FERIA, TX, 78559","Match","Non_Exact","26332 MEREDITH ST, LA FERIA, TX, 78559",90025660,"R"
144496,"26334 PLANTERS HEATH","KATY","TX",77494,29.697580025,-95.833603577,496,"26334 PLANTERS HEATH, KATY, TX, 77494","Match","Non_Exact","26334 PLANTERS HEATH DR, KATY, TX, 77494",627526330,"L"
144497,"26335 116TH AVE SE APT H302","KENT","WA",98030,47.3652716400001,-122.18674249,497,"26335 116TH AVE SE APT H302, KENT, WA, 98030","Match","Exact","26335 116TH AVE SE, KENT, WA, 98030",187042679,"R"
144498,"26335 FRIES LN","WIND LAKE","WI",53185,42.8209035240001,-88.158311136,498,"26335 FRIES LN, WIND LAKE, WI, 53185","Match","Exact","26335 FRIES LN, WIND LAKE, WI, 53185",77903609,"R"
144499,"2634 15TH STREET NW APT 9G","WASHINGTON","DC",20009,38.923943314,-77.035343681,499,"2634 15TH STREET NW APT 9G, WASHINGTON, DC, 20009","Match","Exact","2634 15TH ST NW, WASHINGTON, DC, 20009",76223117,"L"
144500,"2634 BERNARDO AVENUE","ESCONDIDO","CA",92029,33.085791538,-117.090541747,500,"2634 BERNARDO AVENUE, ESCONDIDO, CA, 92029","Match","Exact","2634 BERNARDO AVE, ESCONDIDO, CA, 92029",640048473,"L"
