"ID","Address","City","State","Zip","lat","long","id","input_address","match_indicator","match_type","matched_address","tiger_line_id","tiger_side"
215001,"4432 BLUE HERON WAY","BLADENSBURG","MD",20710,38.9510792950001,-76.911819631,1,"4432 BLUE HERON WAY, BLADENSBURG, MD, 20710","Match","Exact","4432 BLUE HERON WAY, BLADENSBURG, MD, 20710",624562314,"L"
215002,"4432 COOSAW SCENIC DRIVE","RIDGELAND","SC",29936,32.5168573730001,-80.8898874719999,2,"4432 COOSAW SCENIC DRIVE, RIDGELAND, SC, 29936","Match","Exact","4432 COOSAW SCENIC DR, RIDGELAND, SC, 29936",636579149,"R"
215003,"4432 DUNLOE CT","TOLEDO","OH",43615,41.636587279,-83.647009194,3,"4432 DUNLOE CT, TOLEDO, OH, 43615","Match","Exact","4432 DUNLOE CT, TOLEDO, OH, 43615",33949382,"L"
215004,"4432 KINGS MOUNTAIN HWY","BESSEMER CITY","NC",28016,35.2534145980001,-81.27762217,4,"4432 KINGS MOUNTAIN HWY, BESSEMER CITY, NC, 28016","Match","Exact","4432 KINGS MOUNTAIN HWY, BESSEMER CITY, NC, 28016",70453199,"L"
215005,"4432 MALCOLM X BLVD STE A","DALLAS","TX",75215,32.7578469590001,-96.7550678169999,5,"4432 MALCOLM X BLVD STE A, DALLAS, TX, 75215","Match","Exact","4432 MALCOLM X BLVD, DALLAS, TX, 75215",102955529,"L"
215006,"4432 NEAL STARKS LANE","HARDIN","KY",42048,NA,NA,6,"4432 NEAL STARKS LANE, HARDIN, KY, 42048","No_Match",NA,NA,NA,NA
215007,"4432 OAKTON ST","SKOKIE","IL",60076,42.0262517420001,-87.7391830779999,7,"4432 OAKTON ST, SKOKIE, IL, 60076","Match","Exact","4432 OAKTON ST, SKOKIE, IL, 60076",111740939,"R"
215008,"4432 VERMILLION SKY DR","WESLEY CHAPEL","FL",33544,28.220915248,-82.362592717,8,"4432 VERMILLION SKY DR, WESLEY CHAPEL, FL, 33544","Match","Exact","4432 VERMILLION SKY DR, WESLEY CHAPEL, FL, 33544",641297998,"R"
215009,"4432 VERMILLION SKY DRIVE","WESLEY CHAPEL","FL",33544,28.220915248,-82.362592717,9,"4432 VERMILLION SKY DRIVE, WESLEY CHAPEL, FL, 33544","Match","Exact","4432 VERMILLION SKY DR, WESLEY CHAPEL, FL, 33544",641297998,"R"
215010,"4432 W MARYLAND AVENUE","GLENDALE","AZ",85301,33.5311949690001,-112.154372688,10,"4432 W MARYLAND AVENUE, GLENDALE, AZ, 85301","Match","Exact","4432 W MARYLAND AVE, GLENDALE, AZ, 85301",128197858,"R"
215011,"4432 WEST COUNTY ROAD 750 NORTH","SAINT PAUL","IN",47272,39.4450400440001,-85.5644487759999,11,"4432 WEST COUNTY ROAD 750 NORTH, SAINT PAUL, IN, 47272","Match","Exact","4432 W CO RD 750 N, SAINT PAUL, IN, 47272",31180295,"R"
215012,"44320 MEYER DR","LANCASTER","CA",93536,34.688066566,-118.19569833,12,"44320 MEYER DR, LANCASTER, CA, 93536","Match","Exact","44320 MEYER DR, LANCASTER, CA, 93536",141777595,"L"
215013,"44320 STONE ROSES CIR","ASHBURN","VA",20147,39.027262857,-77.467628099,13,"44320 STONE ROSES CIR, ASHBURN, VA, 20147","Match","Exact","44320 STONE ROSES CIR, ASHBURN, VA, 20147",641106620,"R"
215014,"4433 BENTLEY DRIVE","PLANO","TX",75093,33.045643743,-96.77940767,14,"4433 BENTLEY DRIVE, PLANO, TX, 75093","Match","Exact","4433 BENTLEY DR, PLANO, TX, 75093",210477631,"L"
215015,"4433 BROOKFIELD CORPORATE DRIVE","CHANTILLY","VA",20151,38.8853759300001,-77.43884424,15,"4433 BROOKFIELD CORPORATE DRIVE, CHANTILLY, VA, 20151","Match","Exact","4433 BROOKFIELD CORPORATE DR, CHANTILLY, VA, 20151",215918610,"L"
215016,"4433 CLARK AVE","LONG BEACH","CA",90808,33.838341466,-118.133831398,16,"4433 CLARK AVE, LONG BEACH, CA, 90808","Match","Exact","4433 CLARK AVE, LONG BEACH, CA, 90808",141700480,"L"
215017,"4433 COLUMBUS AVENUE SOUTH","MINNEAPOLIS","MN",55407,44.9226915570001,-93.2638328359999,17,"4433 COLUMBUS AVENUE SOUTH, MINNEAPOLIS, MN, 55407","Match","Exact","4433 COLUMBUS AVE S, MINNEAPOLIS, MN, 55407",43634452,"L"
215018,"4433 CONVOY STREET SUITE H","SAN DIEGO","CA",92111,32.820595977,-117.155061449,18,"4433 CONVOY STREET SUITE H, SAN DIEGO, CA, 92111","Match","Exact","4433 CONVOY ST, SAN DIEGO, CA, 92111",195305265,"R"
215019,"4433 E HARTFORD AVE","PHOENIX","AZ",85032,33.644723395,-111.985077638,19,"4433 E HARTFORD AVE, PHOENIX, AZ, 85032","Match","Exact","4433 E HARTFORD AVE, PHOENIX, AZ, 85032",646789458,"R"
215020,"4433 FERN DRIVE","BRADENTON","FL",34208,27.495048894,-82.50532127,20,"4433 FERN DRIVE, BRADENTON, FL, 34208","Match","Exact","4433 FERN DR, BRADENTON, FL, 34208",16269823,"R"
215021,"4433 GREENSBURY DR","NEW ALBANY","OH",43054,40.0702576310001,-82.857257906,21,"4433 GREENSBURY DR, NEW ALBANY, OH, 43054","Match","Exact","4433 GREENSBURY DR, NEW ALBANY, OH, 43054",218685811,"R"
215022,"4433 GREENSBURY DRIVE","NEW ALBANY","OH",43054,40.0702576310001,-82.857257906,22,"4433 GREENSBURY DRIVE, NEW ALBANY, OH, 43054","Match","Exact","4433 GREENSBURY DR, NEW ALBANY, OH, 43054",218685811,"R"
215023,"4433 INGLESIDE LANE","INDIANAPOLIS","IN",46227,39.700724306,-86.114991636,23,"4433 INGLESIDE LANE, INDIANAPOLIS, IN, 46227","Match","Exact","4433 INGLESIDE LN, INDIANAPOLIS, IN, 46227",108009014,"L"
215024,"4433 LAKEFIELD ROAD","CEDARBURG","WI",53012,43.2941855760001,-87.96674365,24,"4433 LAKEFIELD ROAD, CEDARBURG, WI, 53012","Match","Exact","4433 LAKEFIELD RD, CEDARBURG, WI, 53012",95908332,"R"
215025,"4433 MCANDREWS RD","ROSEMOUNT","MN",55068,44.7680524100001,-93.15544378,25,"4433 MCANDREWS RD, ROSEMOUNT, MN, 55068","Match","Exact","4433 MCANDREWS RD, ROSEMOUNT, MN, 55068",37942076,"L"
215026,"4433 P STREET NW","WASHINGTON","DC",20007,38.9086602670001,-77.080989168,26,"4433 P STREET NW, WASHINGTON, DC, 20007","Match","Exact","4433 P ST NW, WASHINGTON, DC, 20007",76224785,"R"
215027,"4433 S COLE ST","MORRISON","CO",80465,39.635137049,-105.15049851,27,"4433 S COLE ST, MORRISON, CO, 80465","Match","Exact","4433 S COLE ST, MORRISON, CO, 80465",177318219,"R"
215028,"4433 S GREENWOOD AVE  APT 303","CHICAGO","IL",60653,41.8142844760001,-87.599352739,28,"4433 S GREENWOOD AVE  APT 303, CHICAGO, IL, 60653","Match","Non_Exact","4433 S GREENWOOD AVE, CHICAGO, IL, 60653",111771497,"L"
215029,"4433 UPTON AVE SOUTH","MINNEAPOLIS","MN",55410,44.922680503,-93.315080197,29,"4433 UPTON AVE SOUTH, MINNEAPOLIS, MN, 55410","Match","Exact","4433 UPTON AVE S, MINNEAPOLIS, MN, 55410",43628200,"L"
215030,"4433 VERONE STREET","BELLAIRE","TX",77401,29.697730753,-95.449946382,30,"4433 VERONE STREET, BELLAIRE, TX, 77401","Match","Exact","4433 VERONE ST, BELLAIRE, TX, 77401",96034553,"L"
215031,"4433 WEST 26TH AVENUE","GARY","IN",46404,41.5715450600001,-87.391696543,31,"4433 WEST 26TH AVENUE, GARY, IN, 46404","Match","Exact","4433 W 26TH AVE, GARY, IN, 46404",98429934,"L"
215032,"4433 WHITE OAK COURT","ROCKLIN","CA",95677,38.796898024,-121.237225373,32,"4433 WHITE OAK COURT, ROCKLIN, CA, 95677","Match","Exact","4433 WHITE OAK CT, ROCKLIN, CA, 95677",106769443,"R"
215033,"4433 ZERON COURT","COLUMBUS","GA",31907,32.4381946300001,-84.918621026,33,"4433 ZERON COURT, COLUMBUS, GA, 31907","Match","Exact","4433 ZERON CT, COLUMBUS, GA, 31907",98943096,"L"
215034,"44330 PREMIER PLAZA SUITE 130","ASHBURN","VA",20147,NA,NA,34,"44330 PREMIER PLAZA SUITE 130, ASHBURN, VA, 20147","No_Match",NA,NA,NA,NA
215035,"4434 CARPENTER AVE","STUDIO CITY","CA",91607,34.151041279,-118.39101431,35,"4434 CARPENTER AVE, STUDIO CITY, CA, 91607","Match","Exact","4434 CARPENTER AVE, STUDIO CITY, CA, 91607",141564790,"R"
215036,"4434 CARVING TREE DR","MINT HILL","NC",28227,35.163800344,-80.6686131119999,36,"4434 CARVING TREE DR, MINT HILL, NC, 28227","Match","Exact","4434 CARVING TREE DR, MINT HILL, NC, 28227",70496596,"R"
215037,"4434 COLUMBIA RD STE 103","AUGUSTA","GA",30907,33.507556763,-82.138746536,37,"4434 COLUMBIA RD STE 103, AUGUSTA, GA, 30907","Match","Exact","4434 COLUMBIA RD, AUGUSTA, GA, 30907",55370869,"R"
215038,"4434 CREEKSIDE DR","MULBERRY","FL",33860,27.9241603180001,-82.034264631,38,"4434 CREEKSIDE DR, MULBERRY, FL, 33860","Match","Exact","4434 CREEKSIDE DR, MULBERRY, FL, 33860",624693357,"L"
215039,"4434 CREEKSIDE DRIVE","MULBERRY","FL",33860,27.9241603180001,-82.034264631,39,"4434 CREEKSIDE DRIVE, MULBERRY, FL, 33860","Match","Exact","4434 CREEKSIDE DR, MULBERRY, FL, 33860",624693357,"L"
215040,"4434 E COTTONWOOD LANE","PHOENIX","AZ",85048,33.2940326740001,-111.987339419,40,"4434 E COTTONWOOD LANE, PHOENIX, AZ, 85048","Match","Exact","4434 E COTTONWOOD LN, PHOENIX, AZ, 85048",128875257,"L"
215041,"4434 GEARHART RD UNIT 2104","TALLAHASSEE","FL",32303,30.4815252020001,-84.3498236409999,41,"4434 GEARHART RD UNIT 2104, TALLAHASSEE, FL, 32303","Match","Exact","4434 GEARHART RD, TALLAHASSEE, FL, 32303",647713875,"R"
215042,"4434 LA GRANADA WAY","LA CANADA FLINTRIDGE","CA",91011,34.2096336050001,-118.214668934,42,"4434 LA GRANADA WAY, LA CANADA FLINTRIDGE, CA, 91011","Match","Exact","4434 LA GRANADA WAY, LA CANADA, CA, 91011",141590716,"R"
215043,"4434 LACLEDE AVE","SAINT LOUIS","MO",63108,38.6395986540001,-90.258636243,43,"4434 LACLEDE AVE, SAINT LOUIS, MO, 63108","Match","Exact","4434 LACLEDE AVE, SAINT LOUIS, MO, 63108",619015054,"L"
215044,"4434 N OAKLAND AVE APT 201","SHOREWOOD","WI",53211,43.0965956970001,-87.8874197539999,44,"4434 N OAKLAND AVE APT 201, SHOREWOOD, WI, 53211","Match","Non_Exact","4434 N OAKLAND AVE, SHOREWOOD, WI, 53211",77743226,"R"
215045,"4434 QUAKER DR","SUFFOLK","VA",23437,36.658001229,-76.7064836719999,45,"4434 QUAKER DR, SUFFOLK, VA, 23437","Match","Exact","4434 QUAKER DR, SUFFOLK, VA, 23437",122236987,"R"
215046,"4434 ROSEBAY COURT","BETHLEHEM","PA",18020,40.6536924930001,-75.30781108,46,"4434 ROSEBAY COURT, BETHLEHEM, PA, 18020","Match","Exact","4434 ROSEBAY CT, BETHLEHEM, PA, 18020",136921709,"R"
215047,"4434 SE CLAY ST","PORTLAND","OR",97215,45.5112821160001,-122.61678291,47,"4434 SE CLAY ST, PORTLAND, OR, 97215","Match","Exact","4434 SE CLAY ST, PORTLAND, OR, 97215",157514344,"R"
215048,"4434 SECOND STREET","WINDSOR","WI",53598,NA,NA,48,"4434 SECOND STREET, WINDSOR, WI, 53598","Tie",NA,NA,NA,NA
215049,"4434 US HWY 1","VERO BEACH","FL",32967,27.6733846120001,-80.407206124,49,"4434 US HWY 1, VERO BEACH, FL, 32967","Match","Exact","4434 US HWY 1, VERO BEACH, FL, 32967",610949757,"R"
215050,"4434 VIRGINIA","ST LOUIS","MO",63111,38.576003594,-90.242394298,50,"4434 VIRGINIA, ST LOUIS, MO, 63111","Match","Non_Exact","4434 VIRGINIA AVE, SAINT LOUIS, MO, 63111",107601858,"L"
215051,"4435 329TH PLACE SE","FALL CITY","WA",98024,47.562648046,-121.901439014,51,"4435 329TH PLACE SE, FALL CITY, WA, 98024","Match","Exact","4435 329TH PL SE, FALL CITY, WA, 98024",186931508,"R"
215052,"4435 AVENIDA CARMEL","CYPRESS","CA",90630,33.819518961,-118.055752214,52,"4435 AVENIDA CARMEL, CYPRESS, CA, 90630","Match","Exact","4435 AVE CARMEL, CYPRESS, CA, 90630",143999076,"L"
215053,"4435 CREEKSIDE DRIVE","VIENNA","OH",44473,41.22738823,-80.6589406579999,53,"4435 CREEKSIDE DRIVE, VIENNA, OH, 44473","Match","Non_Exact","4435 CREEKSIDE BLVD, VIENNA, OH, 44473",117418613,"L"
215054,"4435 E CHANDLER BLVD SUITE 200","PHOENIX","AZ",85048,33.305235532,-111.98853321,54,"4435 E CHANDLER BLVD SUITE 200, PHOENIX, AZ, 85048","Match","Non_Exact","4435 E CHANDLER BLVD, PHOENIX, AZ, 85048",128875284,"R"
215055,"4435 ECHO CANYON ROAD","LAS CRUCES","NM",88011,32.2622307820001,-106.715423677,55,"4435 ECHO CANYON ROAD, LAS CRUCES, NM, 88011","Match","Exact","4435 ECHO CANYON RD, LAS CRUCES, NM, 88011",653351014,"R"
215056,"4435 ESTRELLA AVENUE APT 5","SAN DIEGO","CA",92115,32.75722534,-117.09003738,56,"4435 ESTRELLA AVENUE APT 5, SAN DIEGO, CA, 92115","Match","Exact","4435 ESTRELLA AVE, SAN DIEGO, CA, 92115",612874922,"R"
215057,"4435 FLORIDA NATIONAL DRIVE","LAKELAND","FL",33813,27.985069181,-81.957710455,57,"4435 FLORIDA NATIONAL DRIVE, LAKELAND, FL, 33813","Match","Exact","4435 FLORIDA NATIONAL DR, LAKELAND, FL, 33813",104868503,"R"
215058,"4435 KING CHAPEL RD","ALPINE","AL",35014,33.393317672,-86.317194559,58,"4435 KING CHAPEL RD, ALPINE, AL, 35014","Match","Non_Exact","4435 KINGS CHAPEL RD, ALPINE, AL, 35014",66972299,"R"
215059,"4435 KINGFISHER COURT","AUGUSTA","MO",63332,38.5936591710001,-90.827503911,59,"4435 KINGFISHER COURT, AUGUSTA, MO, 63332","Match","Exact","4435 KINGFISHER CT, AUGUSTA, MO, 63332",100072633,"R"
215060,"4435 N PERSHING DR STE 726","ARLINGTON","VA",22203,38.870289895,-77.110174586,60,"4435 N PERSHING DR STE 726, ARLINGTON, VA, 22203","Match","Non_Exact","4435 N PERSHING DR, ARLINGTON, VA, 22203",624465789,"R"
215061,"4435 POND LOOP ROAD","SUMTER","SC",29154,33.8260075750001,-80.450573955,61,"4435 POND LOOP ROAD, SUMTER, SC, 29154","Match","Exact","4435 POND LOOP RD, SUMTER, SC, 29154",202692590,"L"
215062,"4435 SW 110TH ST","OCALA","FL",34476,29.062710313,-82.195441285,62,"4435 SW 110TH ST, OCALA, FL, 34476","Match","Exact","4435 SW 110TH ST, OCALA, FL, 34476",116717991,"R"
215063,"4435 WOLVERTON PLACE","ORONO","MN",55359,44.983865033,-93.636848038,63,"4435 WOLVERTON PLACE, ORONO, MN, 55359","Match","Exact","4435 WOLVERTON PL, ORONO, MN, 55359",43846988,"R"
215064,"44353 LIVELY AVE","LANCASTER","CA",93536,34.6883875340001,-118.174093507,64,"44353 LIVELY AVE, LANCASTER, CA, 93536","Match","Exact","44353 LIVELY AVE, LANCASTER, CA, 93536",141828755,"L"
215065,"44356 FENNER AVE","LANCASTER","CA",93536,34.688417558,-118.175317148,65,"44356 FENNER AVE, LANCASTER, CA, 93536","Match","Exact","44356 FENNER AVE, LANCASTER, CA, 93536",141777650,"R"
215066,"44358 HEMPLAND DR","ASHBURN","VA",20147,39.026452971,-77.466751602,66,"44358 HEMPLAND DR, ASHBURN, VA, 20147","Match","Exact","44358 HEMPLAND DR, ASHBURN, VA, 20147",641106605,"R"
215067,"4436 ARBORWOOD TRAIL","FORT WORTH","TX",76123,32.606735793,-97.38976564,67,"4436 ARBORWOOD TRAIL, FORT WORTH, TX, 76123","Match","Exact","4436 ARBORWOOD TRL, FORT WORTH, TX, 76123",102190216,"R"
215068,"4436 BRAKEBILL ROAD","WARM SPRINGS","AR",72478,36.489001897,-90.963326507,68,"4436 BRAKEBILL ROAD, WARM SPRINGS, AR, 72478","Match","Exact","4436 BRAKEBILL RD, WARM SPRINGS, AR, 72478",606843229,"R"
215069,"4436 CENTER VALLEY DRIVE","ANN ARBOR","MI",48108,42.238368198,-83.676087749,69,"4436 CENTER VALLEY DRIVE, ANN ARBOR, MI, 48108","Match","Exact","4436 CENTER VALLEY DR, ANN ARBOR, MI, 48108",648724158,"R"
215070,"4436 CYNTHIA ST","BELLAIRE","TX",77401,29.693533491,-95.4499640179999,70,"4436 CYNTHIA ST, BELLAIRE, TX, 77401","Match","Exact","4436 CYNTHIA ST, BELLAIRE, TX, 77401",96039770,"R"
215071,"4436 DEERE TRAIL CT","ROCHESTER","IN",46975,41.0460224830001,-86.161181077,71,"4436 DEERE TRAIL CT, ROCHESTER, IN, 46975","Match","Exact","4436 DEERE TRAIL CT, ROCHESTER, IN, 46975",7846985,"L"
215072,"4436 E THORN TREE DRIVE","CAVE CREEK","AZ",85331,33.7924084700001,-111.985466432,72,"4436 E THORN TREE DRIVE, CAVE CREEK, AZ, 85331","Match","Exact","4436 E THORN TREE DR, CAVE CREEK, AZ, 85331",243926251,"L"
215073,"4436 FARM MARKET 2251","LUFKIN","TX",75906,NA,NA,73,"4436 FARM MARKET 2251, LUFKIN, TX, 75906","No_Match",NA,NA,NA,NA
215074,"4436 HAMPTON HEIGHTS DRIVE","BIRMINGHAM","AL",35209,33.4698579380001,-86.831085356,74,"4436 HAMPTON HEIGHTS DRIVE, BIRMINGHAM, AL, 35209","Match","Exact","4436 HAMPTON HEIGHTS DR, BIRMINGHAM, AL, 35209",81689346,"L"
215075,"4436 MINNEHAHA AVE","MINNEAPOLIS","MN",55406,44.9226476420001,-93.216427295,75,"4436 MINNEHAHA AVE, MINNEAPOLIS, MN, 55406","Match","Exact","4436 MINNEHAHA AVE, MINNEAPOLIS, MN, 55406",43640595,"R"
215076,"4436 N SPAULDING","CHICAGO","IL",60625,41.9621581270001,-87.710728913,76,"4436 N SPAULDING, CHICAGO, IL, 60625","Match","Non_Exact","4436 N SPAULDING AVE, CHICAGO, IL, 60625",605170116,"L"
215077,"4436 NW 59TH STREET","OKLAHOMA CITY","OK",73112,35.53008821,-97.599500307,77,"4436 NW 59TH STREET, OKLAHOMA CITY, OK, 73112","Match","Exact","4436 NW 59TH ST, OKLAHOMA CITY, OK, 73112",100391016,"L"
215078,"4436 NW 60TH PLACE","OKLAHOMA CITY","OK",73112,35.531095953,-97.600212485,78,"4436 NW 60TH PLACE, OKLAHOMA CITY, OK, 73112","Match","Exact","4436 NW 60TH PL, OKLAHOMA CITY, OK, 73112",100391012,"L"
215079,"4436 SADDLEWORTH CIR","ORLANDO","FL",32826,28.6063174010001,-81.177005371,79,"4436 SADDLEWORTH CIR, ORLANDO, FL, 32826","Match","Exact","4436 SADDLEWORTH CIR, ORLANDO, FL, 32826",94342686,"R"
215080,"4436 TOULOUSE STREET -NO-21","NEW ORLEANS","LA",70119,29.981022743,-90.10103105,80,"4436 TOULOUSE STREET -NO-21, NEW ORLEANS, LA, 70119","Match","Exact","4436 TOULOUSE ST, NEW ORLEANS, LA, 70119",191706142,"L"
215081,"4436 WORTH ST","LOS ANGELES","CA",90063,NA,NA,81,"4436 WORTH ST, LOS ANGELES, CA, 90063","No_Match",NA,NA,NA,NA
215082,"44366 WOODRIDGE DRIVE","CALLAHAN","FL",32011,30.5022322680001,-81.816967532,82,"44366 WOODRIDGE DRIVE, CALLAHAN, FL, 32011","Match","Exact","44366 WOODRIDGE DR, CALLAHAN, FL, 32011",647834354,"R"
215083,"44367 163RD STREET","FLORENCE","SD",57235,45.0209506840001,-97.33770851,83,"44367 163RD STREET, FLORENCE, SD, 57235","Match","Exact","44367 163RD ST, FLORENCE, SD, 57235",200733899,"L"
215084,"4437 4TH STREET NE","COLUMBIA HEIGHTS","MN",55421,45.0489071320001,-93.261515765,84,"4437 4TH STREET NE, COLUMBIA HEIGHTS, MN, 55421","Match","Exact","4437 4TH ST NE, COLUMBIA HEIGHTS, MN, 55421",97487999,"R"
215085,"4437 AVERLY PARK CIRCLE","INDIANAPOLIS","IN",46237,39.64625892,-86.093419852,85,"4437 AVERLY PARK CIRCLE, INDIANAPOLIS, IN, 46237","Match","Exact","4437 AVERLY PARK CIR, INDIANAPOLIS, IN, 46237",650207150,"R"
215086,"4437 BELAIR ROAD","BALTIMORE","MD",21216,39.3300492400001,-76.563038198,86,"4437 BELAIR ROAD, BALTIMORE, MD, 21216","Match","Non_Exact","4437 BELAIR RD, BALTIMORE, MD, 21206",647415662,"R"
215087,"4437 E MAIN STREET APT 1","BLYTHEVILLE","AR",72315,35.927156677,-89.840178324,87,"4437 E MAIN STREET APT 1, BLYTHEVILLE, AR, 72315","Match","Non_Exact","4437 E MAIN ST, BLYTHEVILLE, AR, 72315",618720938,"L"
215088,"4437 EAST 46TH STREET APT 16","NORTH LITTLE ROCK","AR",72117,34.796391848,-92.2159194229999,88,"4437 EAST 46TH STREET APT 16, NORTH LITTLE ROCK, AR, 72117","Match","Exact","4437 E 46TH ST, N LITTLE ROCK, AR, 72117",642520865,"L"
215089,"4437 EAST MAIN SUITE 7","BLYTHEVILLE","AR",72315,35.9271630200001,-89.840208549,89,"4437 EAST MAIN SUITE 7, BLYTHEVILLE, AR, 72315","Match","Non_Exact","4437 E MAIN ST, BLYTHEVILLE, AR, 72315",618720938,"L"
215090,"4437 EAST ROCK WREN ROAD","PHOENIX","AZ",85044,33.3114108880001,-111.987139524,90,"4437 EAST ROCK WREN ROAD, PHOENIX, AZ, 85044","Match","Exact","4437 E ROCK WREN RD, PHOENIX, AZ, 85044",647731748,"R"
215091,"4437 IRVIN SIMMONS DR","DALLAS","TX",75229,32.8963157150001,-96.832572004,91,"4437 IRVIN SIMMONS DR, DALLAS, TX, 75229","Match","Exact","4437 IRVIN SIMMONS DR, DALLAS, TX, 75229",102899259,"L"
215092,"4437 MATTHEW ROAD","GRAND PRAIRIE","TX",75052,32.6651428800001,-97.030473606,92,"4437 MATTHEW ROAD, GRAND PRAIRIE, TX, 75052","Match","Exact","4437 MATTHEW RD, GRAND PRAIRIE, TX, 75052",648834064,"L"
215093,"4437 MCKINLEY","WARREN","MI",48091,42.488435602,-83.0626377039999,93,"4437 MCKINLEY, WARREN, MI, 48091","Match","Non_Exact","4437 MCKINLEY AVE, WARREN, MI, 48091",110670007,"L"
215094,"4437 NEWARK CIRCLE","GRAND BLANC","MI",48439,42.8947812210001,-83.619443221,94,"4437 NEWARK CIRCLE, GRAND BLANC, MI, 48439","Match","Exact","4437 NEWARK CIR, GRAND BLANC, MI, 48439",627084368,"R"
215095,"4437 NORTH REDWOOD DRIVE","NORRIDGE","IL",60706,41.9609257870001,-87.82891771,95,"4437 NORTH REDWOOD DRIVE, NORRIDGE, IL, 60706","Match","Exact","4437 N REDWOOD DR, NORRIDGE, IL, 60706",111746693,"R"
215096,"4437 POWDERHORN PLACE DRIVE","CLERMONT","FL",34711,28.497460215,-81.6842727659999,96,"4437 POWDERHORN PLACE DRIVE, CLERMONT, FL, 34711","Match","Exact","4437 POWDERHORN PLACE DR, CLERMONT, FL, 34711",617510299,"L"
215097,"4437 SOUTH 90TH ST","GREENFIELD","WI",53228,42.9638507070001,-88.024666482,97,"4437 SOUTH 90TH ST, GREENFIELD, WI, 53228","Match","Exact","4437 S 90TH ST, GREENFIELD, WI, 53228",77746389,"R"
215098,"4438 156TH PL SE","BELLEVUE","WA",98006,47.566172468,-122.131544782,98,"4438 156TH PL SE, BELLEVUE, WA, 98006","Match","Exact","4438 156TH PL SE, BELLEVUE, WA, 98006",186614753,"L"
215099,"4438 E HIDALGO AVENUE","PHOENIX","AZ",85044,33.39439758,-111.985784545,99,"4438 E HIDALGO AVENUE, PHOENIX, AZ, 85044","Match","Non_Exact","4438 E HIDALGO AVE, PHOENIX, AZ, 85040",128225004,"L"
215100,"4438 HIDEAWAY PLACE","LA MESA","CA",91941,32.760480316,-116.983070698,100,"4438 HIDEAWAY PLACE, LA MESA, CA, 91941","Match","Exact","4438 HIDEAWAY PL, LA MESA, CA, 91941",195362283,"L"
215101,"4438 MOBILE DR 314","COLUMBUS","OH",43220,40.0496104380001,-83.0466888139999,101,"4438 MOBILE DR 314, COLUMBUS, OH, 43220","Match","Exact","4438 MOBILE DR, COLUMBUS, OH, 43220",648028097,"R"
215102,"4438 OAKBRIDGE DR STE C","FLINT","MI",48532,42.993391832,-83.770839673,102,"4438 OAKBRIDGE DR STE C, FLINT, MI, 48532","Match","Exact","4438 OAKBRIDGE DR, FLINT, MI, 48532",617948360,"L"
215103,"4438 PRIMROSE AVENUE","INDIANAPOLIS","IN",46205,39.8380780310001,-86.132477663,103,"4438 PRIMROSE AVENUE, INDIANAPOLIS, IN, 46205","Match","Exact","4438 PRIMROSE AVE, INDIANAPOLIS, IN, 46205",107985219,"L"
215104,"4438 S 120 W APT 301","MURRAY","UT",84107,NA,NA,104,"4438 S 120 W APT 301, MURRAY, UT, 84107","Tie",NA,NA,NA,NA
215105,"4438 S 120 W APT104","MURRAY","UT",84107,NA,NA,105,"4438 S 120 W APT104, MURRAY, UT, 84107","Tie",NA,NA,NA,NA
215106,"4438 SE HAWTHORNE BLVD","PORTLAND","OR",97215,45.5120257950001,-122.616726677,106,"4438 SE HAWTHORNE BLVD, PORTLAND, OR, 97215","Match","Exact","4438 SE HAWTHORNE BLVD, PORTLAND, OR, 97215",157514340,"R"
215107,"4438 TWIN PINES DRIVE","MANLIUS","NY",13104,42.986101332,-75.975535263,107,"4438 TWIN PINES DRIVE, MANLIUS, NY, 13104","Match","Exact","4438 TWIN PINES DR, MANLIUS, NY, 13104",46595323,"L"
215108,"4438 WEST ST KATERI","LAVEEN","AZ",85339,33.3852988690001,-112.15508491,108,"4438 WEST ST KATERI, LAVEEN, AZ, 85339","Match","Non_Exact","4438 W ST KATERI DR, LAVEEN, AZ, 85339",128865245,"R"
215109,"4439 3RD ST","SF","CA",94124,37.7376475840001,-122.389708884,109,"4439 3RD ST, SF, CA, 94124","Match","Exact","4439 3RD ST, SAN FRANCISCO, CA, 94124",192300875,"L"
215110,"4439 CEPEDA STREET","ORLANDO","FL",32811,28.522898803,-81.4360974969999,110,"4439 CEPEDA STREET, ORLANDO, FL, 32811","Match","Exact","4439 CEPEDA ST, ORLANDO, FL, 32811",94273190,"R"
215111,"4439 DON TOMASO DR APT 6","LOS ANGELES","CA",90008,34.0043677,-118.352027858,111,"4439 DON TOMASO DR APT 6, LOS ANGELES, CA, 90008","Match","Exact","4439 DON TOMASO DR, LOS ANGELES, CA, 90008",141601526,"R"
215112,"4439 DON TOMASO DRIVE APT 6","BALDWIN HILLS","CA",90008,34.0043677,-118.352027858,112,"4439 DON TOMASO DRIVE APT 6, BALDWIN HILLS, CA, 90008","Match","Exact","4439 DON TOMASO DR, BALDWIN HILLS, CA, 90008",141601526,"R"
215113,"4439 FAIRMOUNT AVENUE","KANSAS CITY","MO",64111,39.0474161670001,-94.6036679969999,113,"4439 FAIRMOUNT AVENUE, KANSAS CITY, MO, 64111","Match","Exact","4439 FAIRMOUNT AVE, KANSAS CITY, MO, 64111",91446765,"L"
215114,"4439 LAKE FOREST DRIVE SUITE A","OAKWOOD","GA",30566,34.253154507,-83.896384113,114,"4439 LAKE FOREST DRIVE SUITE A, OAKWOOD, GA, 30566","Match","Exact","4439 LAKE FOREST DR, OAKWOOD, GA, 30566",98247473,"R"
215115,"4439 PRAIRIE AVE","MIAMI BEACH","FL",33140,25.818071214,-80.130121296,115,"4439 PRAIRIE AVE, MIAMI BEACH, FL, 33140","Match","Exact","4439 PRAIRIE AVE, MIAMI BEACH, FL, 33140",116008859,"R"
215116,"4439 READING RD SUITE 201B","CINCINNATI","OH",45229,39.165221451,-84.47109105,116,"4439 READING RD SUITE 201B, CINCINNATI, OH, 45229","Match","Exact","4439 READING RD, CINCINNATI, OH, 45229",103929550,"L"
215117,"4439 RIVER ROAD","SODUS","MI",49126,42.037351158,-86.397448729,117,"4439 RIVER ROAD, SODUS, MI, 49126","Match","Exact","4439 RIVER RD, SODUS, MI, 49126",119976152,"R"
215118,"4439 SEXTON RD","CLEVELAND","OH",44105,41.438346649,-81.620707995,118,"4439 SEXTON RD, CLEVELAND, OH, 44105","Match","Exact","4439 SEXTON RD, CLEVELAND, OH, 44105",638892605,"L"
215119,"444 12 STREET APT 3C","BROOKLYN","NY",11215,40.664388993,-73.9816424589999,119,"444 12 STREET APT 3C, BROOKLYN, NY, 11215","Match","Exact","444 12TH ST, BROOKLYN, NY, 11215",59078258,"R"
215120,"444 2ND AVE APT 12F","NEW YORK","NY",10010,40.7392819300001,-73.9798743709999,120,"444 2ND AVE APT 12F, NEW YORK, NY, 10010","Match","Exact","444 2ND AVE, NEW YORK, NY, 10010",59654563,"R"
215121,"444 ALASKA AVE","TORRANCE","CA",90503,33.8426867370001,-118.333308129,121,"444 ALASKA AVE, TORRANCE, CA, 90503","Match","Exact","444 ALASKA AVE, TORRANCE, CA, 90503",241243221,"L"
215122,"444 ANDREW AVENUE","NAUGATUCK","CT",6770,41.4819240630001,-73.0696979149999,122,"444 ANDREW AVENUE, NAUGATUCK, CT, 6770","Match","Exact","444 ANDREW AVE, NAUGATUCK, CT, 06770",3717200,"R"
215123,"444 AVON AVE","TROUTMAN","NC",28166,35.696267671,-80.897897857,123,"444 AVON AVE, TROUTMAN, NC, 28166","Match","Exact","444 AVON AVE, TROUTMAN, NC, 28166",45989016,"L"
215124,"444 BARNEY ST","HELENA","MT",59602,46.6197517620001,-112.038746131,124,"444 BARNEY ST, HELENA, MT, 59602","Match","Exact","444 BARNEY ST, HELENA, MT, 59602",202367775,"R"
215125,"444 BATY ROAD","MARTIN","GA",30557,34.4049625170001,-83.208205014,125,"444 BATY ROAD, MARTIN, GA, 30557","Match","Exact","444 BATY RD, MARTIN, GA, 30557",642913236,"R"
215126,"444 BEDFORD ROAD SUITE 305","PLEASANTVILLE","NY",10536,41.1338833610001,-73.791298636,126,"444 BEDFORD ROAD SUITE 305, PLEASANTVILLE, NY, 10536","Match","Non_Exact","444 BEDFORD RD, PLEASANTVILLE, NY, 10570",139735062,"R"
215127,"444 BEDFORD ST SUITE 1-N","STAMFORD","CT",6901,41.058089523,-73.537755612,127,"444 BEDFORD ST SUITE 1-N, STAMFORD, CT, 6901","Match","Exact","444 BEDFORD ST, STAMFORD, CT, 06901",610856724,"L"
215128,"444 BLOHM STREET  2ND FLOOR","WEST HAVEN","CT",6516,41.2624280850001,-72.9488523529999,128,"444 BLOHM STREET  2ND FLOOR, WEST HAVEN, CT, 6516","Match","Exact","444 BLOHM ST, W HAVEN, CT, 06516",3702195,"L"
215129,"444 BLUEFIELD ROAD","LEXINGTON","SC",29073,33.8845304880001,-81.2257865189999,129,"444 BLUEFIELD ROAD, LEXINGTON, SC, 29073","Match","Exact","444 BLUEFIELD RD, LEXINGTON, SC, 29073",70051947,"L"
215130,"444 BOYLAND STREET","BROOKLYN","NY",11212,NA,NA,130,"444 BOYLAND STREET, BROOKLYN, NY, 11212","No_Match",NA,NA,NA,NA
215131,"444 BRICKELL AVE SUITE 400","MIAMI","FL",33131,NA,NA,131,"444 BRICKELL AVE SUITE 400, MIAMI, FL, 33131","No_Match",NA,NA,NA,NA
215132,"444 BROMLEY ROAD","CHURCHVILLE","NY",14428,43.109220932,-77.843721258,132,"444 BROMLEY ROAD, CHURCHVILLE, NY, 14428","Match","Exact","444 BROMLEY RD, CHURCHVILLE, NY, 14428",14573682,"L"
215133,"444 CARLTON AVE 3","BROOKLYN","NY",11238,40.6839565540001,-73.970990671,133,"444 CARLTON AVE 3, BROOKLYN, NY, 11238","Match","Exact","444 CARLTON AVE, BROOKLYN, NY, 11238",612458682,"R"
215134,"444 CENTRAL AVE","JERSEY CITY","NJ",7307,40.750008499,-74.046601477,134,"444 CENTRAL AVE, JERSEY CITY, NJ, 7307","Match","Exact","444 CENTRAL AVE, JERSEY CITY, NJ, 07307",59608275,"R"
215135,"444 CHAPEL RIDGE DRIVE  APT D","HAZELWOOD","MO",63042,38.772447947,-90.372908689,135,"444 CHAPEL RIDGE DRIVE  APT D, HAZELWOOD, MO, 63042","Match","Exact","444 CHAPEL RIDGE DR, HAZELWOOD, MO, 63042",604463749,"L"
215136,"444 CHESTNUT DALE RD","NEWLAND","NC",28657,36.0693012090001,-81.976250877,136,"444 CHESTNUT DALE RD, NEWLAND, NC, 28657","Match","Exact","444 CHESTNUT DALE RD, NEWLAND, NC, 28657",36783282,"R"
215137,"444 CHESTNUT STREET","ABERDEEN","MD",21001,39.5088136740001,-76.181517282,137,"444 CHESTNUT STREET, ABERDEEN, MD, 21001","Match","Exact","444 CHESTNUT ST, ABERDEEN, MD, 21001",191653196,"R"
215138,"444 CLINTON AVENUE","BROOKLYN","NY",11238,40.6851464260001,-73.967225995,138,"444 CLINTON AVENUE, BROOKLYN, NY, 11238","Match","Exact","444 CLINTON AVE, BROOKLYN, NY, 11238",59077942,"R"
215139,"444 COLORFUL RAIN AVENUE","NORTH LAS VEGAS","NV",89031,36.258333785,-115.147035701,139,"444 COLORFUL RAIN AVENUE, NORTH LAS VEGAS, NV, 89031","Match","Exact","444 COLORFUL RAIN AVE, N LAS VEGAS, NV, 89031",612685940,"R"
215140,"444 COLUMBIA BOULEVARD","TITUSVILLE","FL",32780,NA,NA,140,"444 COLUMBIA BOULEVARD, TITUSVILLE, FL, 32780","No_Match",NA,NA,NA,NA
215141,"444 COLUMBIA STREET","BROOKLYN","NY",11231,40.6764222260001,-74.006856665,141,"444 COLUMBIA STREET, BROOKLYN, NY, 11231","Match","Exact","444 COLUMBIA ST, BROOKLYN, NY, 11231",59093813,"R"
215142,"444 COMMUNITY DRIVE","MANHASSET","NY",11030,40.774232849,-73.703173087,142,"444 COMMUNITY DRIVE, MANHASSET, NY, 11030","Match","Exact","444 COMMUNITY DR, MANHASSET, NY, 11030",639423243,"L"
215143,"444 COOPERS EDGE LN","BLYTHEWOOD","SC",29016,34.2018759960001,-80.960567472,143,"444 COOPERS EDGE LN, BLYTHEWOOD, SC, 29016","Match","Exact","444 COOPERS EDGE LN, BLYTHEWOOD, SC, 29016",641026549,"R"
215144,"444 E CORCORCAN AVE SUITE 318","MILWAUKEE","WI",53202,NA,NA,144,"444 E CORCORCAN AVE SUITE 318, MILWAUKEE, WI, 53202","No_Match",NA,NA,NA,NA
215145,"444 E HARRISON AVE","POMONA","CA",91767,34.099045286,-117.743184745,145,"444 E HARRISON AVE, POMONA, CA, 91767","Match","Exact","444 HARRISON AVE, POMONA, CA, 91767",141733327,"R"
215146,"444 E HUNTINGTON DR STE 218","ARCADIA","CA",91006,34.140129378,-118.024757724,146,"444 E HUNTINGTON DR STE 218, ARCADIA, CA, 91006","Match","Non_Exact","444 E HUNTINGTON DR, ARCADIA, CA, 91006",141645136,"R"
215147,"444 E LYNX WAY","CHANDLER","AZ",85249,33.235923159,-111.835460645,147,"444 E LYNX WAY, CHANDLER, AZ, 85249","Match","Exact","444 E LYNX WAY, CHANDLER, AZ, 85249",128872536,"R"
215148,"444 E MAIN STREET SUITE 203","LEXINGTON","KY",40507,38.0418993650001,-84.491984229,148,"444 E MAIN STREET SUITE 203, LEXINGTON, KY, 40507","Match","Non_Exact","444 E MAIN ST, LEXINGTON, KY, 40507",31921872,"R"
215149,"444 E MEDICAL CENTER BLVD UNIT 1409","HOUSTON","TX",77598,NA,NA,149,"444 E MEDICAL CENTER BLVD UNIT 1409, HOUSTON, TX, 77598","No_Match",NA,NA,NA,NA
215150,"444 E RIDDLE RD","CHICKASHA","OK",73018,34.980468095,-97.929893309,150,"444 E RIDDLE RD, CHICKASHA, OK, 73018","Match","Non_Exact","444 RIDDLE, CHICKASHA, OK, 73018",648825951,"R"
215151,"444 E ROOSEVELT RD UNIT 108","LOMBARD","IL",60148,41.859870787,-88.0257710179999,151,"444 E ROOSEVELT RD UNIT 108, LOMBARD, IL, 60148","Match","Non_Exact","444 W ROOSEVELT RD, LOMBARD, IL, 60148",647511906,"R"
215152,"444 E TABERNACLE STREET BLD B 201","ST. GEORGE","UT",84770,37.1081702880001,-113.573830547,152,"444 E TABERNACLE STREET BLD B 201, ST. GEORGE, UT, 84770","Match","Non_Exact","444 E TABERNACLE ST, SAINT GEORGE, UT, 84770",166166906,"L"
215153,"444 EAST 17TH STREET","BROOKLYN","NY",11226,40.639843425,-73.962238207,153,"444 EAST 17TH STREET, BROOKLYN, NY, 11226","Match","Exact","444 E 17TH ST, BROOKLYN, NY, 11226",59081164,"R"
215154,"444 EAST 57TH STREET APT 14F","NEW YORK","NY",10022,40.757905287,-73.961970343,154,"444 EAST 57TH STREET APT 14F, NEW YORK, NY, 10022","Match","Exact","444 E 57TH ST, NEW YORK, NY, 10022",650073267,"R"
215155,"444 EAST HOUGHTON AVE","WEST BRANCH","MI",48661,44.276251695,-84.2294945849999,155,"444 EAST HOUGHTON AVE, WEST BRANCH, MI, 48661","Match","Exact","444 E HOUGHTON AVE, WEST BRANCH, MI, 48661",161345735,"R"
215156,"444 EATHERTON VALLEY ROAD","WILDWOOD","MO",63005,38.641301845,-90.657915471,156,"444 EATHERTON VALLEY ROAD, WILDWOOD, MO, 63005","Match","Exact","444 EATHERTON VALLEY RD, WILDWOOD, MO, 63005",100108861,"L"
215157,"444 EZELL PIKE","NASHVILLE","TN",37217,36.0956864010001,-86.674276702,157,"444 EZELL PIKE, NASHVILLE, TN, 37217","Match","Exact","444 EZELL PIKE, NASHVILLE, TN, 37217",636664226,"R"
215158,"444 FITCHVILLE ROAD","BOZRAH","CT",6334,41.5745275290001,-72.186155465,158,"444 FITCHVILLE ROAD, BOZRAH, CT, 6334","Match","Exact","444 FITCHVILLE RD, BOZRAH, CT, 06334",56837327,"L"
215159,"444 GARDEN STREET","EAST PALO ALTO","CA",94303,37.467028606,-122.144402925,159,"444 GARDEN STREET, EAST PALO ALTO, CA, 94303","Match","Exact","444 GARDEN ST, E PALO ALTO, CA, 94303",192366459,"R"
215160,"444 HARDEE ROAD","CORAL GABLES","FL",33146,25.7126196610001,-80.2621689539999,160,"444 HARDEE ROAD, CORAL GABLES, FL, 33146","Match","Exact","444 HARDEE RD, CORAL GABLES, FL, 33146",116014083,"L"
215161,"444 HIGHLAND AV SUIET 319","TUCKER","GA",30312,NA,NA,161,"444 HIGHLAND AV SUIET 319, TUCKER, GA, 30312","No_Match",NA,NA,NA,NA
215162,"444 HIGHLAND AVE NE SUITE 201 203","ATLANTA","GA",30312,33.7613808080001,-84.373245214,162,"444 HIGHLAND AVE NE SUITE 201 203, ATLANTA, GA, 30312","Match","Exact","444 HIGHLAND AVE NE, ATLANTA, GA, 30312",17357169,"L"
215163,"444 HIGHLAND AVE SUITE 206","ATLANTA","GA",30312,33.7613808080001,-84.373245214,163,"444 HIGHLAND AVE SUITE 206, ATLANTA, GA, 30312","Match","Non_Exact","444 HIGHLAND AVE NE, ATLANTA, GA, 30312",17357169,"L"
215164,"444 HUNTINGTON HILLS DRIVE","FORT COLLINS","CO",80525,40.5068560240001,-105.069497123,164,"444 HUNTINGTON HILLS DRIVE, FORT COLLINS, CO, 80525","Match","Exact","444 HUNTINGTON HILLS DR, FORT COLLINS, CO, 80525",188539899,"R"
215165,"444 HURLINGAME AVE","REDWOODCITY","CA",94062,NA,NA,165,"444 HURLINGAME AVE, REDWOODCITY, CA, 94062","No_Match",NA,NA,NA,NA
215166,"444 INVERNESS ROAD","WILLIAMSTOWN","NJ",8094,39.695651395,-75.0197176569999,166,"444 INVERNESS ROAD, WILLIAMSTOWN, NJ, 8094","Match","Exact","444 INVERNESS RD, WILLIAMSTOWN, NJ, 08094",134600956,"R"
215167,"444 JEWELL ROAD","PARKERSBURG","WV",26101,39.261629231,-81.616625738,167,"444 JEWELL ROAD, PARKERSBURG, WV, 26101","Match","Exact","444 JEWELL RD, PARKERSBURG, WV, 26101",90902768,"R"
215168,"444 LACEBARK DRIVE","IRVING","TX",75063,32.917745342,-96.950163811,168,"444 LACEBARK DRIVE, IRVING, TX, 75063","Match","Exact","444 LACEBARK DR, IRVING, TX, 75063",636118361,"L"
215169,"444 LINCOLN AVE","PITTSBURGH","PA",15206,40.46082999,-79.9106189669999,169,"444 LINCOLN AVE, PITTSBURGH, PA, 15206","Match","Exact","444 LINCOLN AVE, PITTSBURGH, PA, 15206",51646893,"R"
215170,"444 MADISON AVENUE 3RD FLOOR","NEW YORK","NY",10022,40.757588195,-73.975795846,170,"444 MADISON AVENUE 3RD FLOOR, NEW YORK, NY, 10022","Match","Exact","444 MADISON AVE, NEW YORK, NY, 10022",59657229,"L"
215171,"444 MAPLE ROAD","LA SALLE","IL",61301,41.3427192230001,-89.101063412,171,"444 MAPLE ROAD, LA SALLE, IL, 61301","Match","Exact","444 MAPLE RD, LA SALLE, IL, 61301",8596719,"R"
215172,"444 MEADOWBROOK RD","JACKSON","MS",39206,32.3501971210001,-90.172579533,172,"444 MEADOWBROOK RD, JACKSON, MS, 39206","Match","Exact","444 MEADOWBROOK RD, JACKSON, MS, 39206",65370616,"L"
215173,"444 MONUMENT ROAD","JACKSONVILLE","FL",32225,30.329334309,-81.546971104,173,"444 MONUMENT ROAD, JACKSONVILLE, FL, 32225","Match","Exact","444 MONUMENT RD, JACKSONVILLE, FL, 32225",83969816,"L"
215174,"444 N EUCLID AVE","PASADENA","CA",91101,34.153630606,-118.142985863,174,"444 N EUCLID AVE, PASADENA, CA, 91101","Match","Exact","444 N EUCLID AVE, PASADENA, CA, 91101",141628698,"R"
215175,"444 N IL ROUTE 31 SUITE 104","CRYSTAL LAKE","IL",60012,NA,NA,175,"444 N IL ROUTE 31 SUITE 104, CRYSTAL LAKE, IL, 60012","No_Match",NA,NA,NA,NA
215176,"444 N IRVING BOULEVARD","LOS ANGELES","CA",90004,34.0781312140001,-118.318727576,176,"444 N IRVING BOULEVARD, LOS ANGELES, CA, 90004","Match","Exact","444 N IRVING BLVD, LOS ANGELES, CA, 90004",141603022,"R"
215177,"444 N MICHIGAN AVE STE 1200","CHICAGO","IL",60611,41.8905739470001,-87.6242211209999,177,"444 N MICHIGAN AVE STE 1200, CHICAGO, IL, 60611","Match","Non_Exact","444 N MICHIGAN AVE, CHICAGO, IL, 60611",605101794,"L"
215178,"444 N MICHIGAN AVE SUITE 1200","CHICAGO","IL",60611,41.8905739470001,-87.6242211209999,178,"444 N MICHIGAN AVE SUITE 1200, CHICAGO, IL, 60611","Match","Non_Exact","444 N MICHIGAN AVE, CHICAGO, IL, 60611",605101794,"L"
215179,"444 N PROSPECT AVE","REDONDO BEACH","CA",90277,33.850013851,-118.377841902,179,"444 N PROSPECT AVE, REDONDO BEACH, CA, 90277","Match","Exact","444 N PROSPECT AVE, REDONDO BEACH, CA, 90277",141583889,"R"
215180,"444 N VISTA ST","LOS ANGELES","CA",90036,34.0791665740001,-118.352210719,180,"444 N VISTA ST, LOS ANGELES, CA, 90036","Match","Exact","444 N VISTA ST, LOS ANGELES, CA, 90036",141598622,"R"
215181,"444 N WOODDALE RD","STRAWBERRY PLAINS","TN",37871,36.0296552840001,-83.7783662429999,181,"444 N WOODDALE RD, STRAWBERRY PLAINS, TN, 37871","Match","Exact","444 N WOODDALE RD, STRAWBERRY PLAINS, TN, 37871",42626736,"R"
215182,"444 NE 65TH AVE","PORTLAND","OR",97213,45.5258811250001,-122.597086595,182,"444 NE 65TH AVE, PORTLAND, OR, 97213","Match","Exact","444 NE 65TH AVE, PORTLAND, OR, 97213",157513470,"R"
215183,"444 NE DEKALB AVE","BEND","OR",97701,44.054098158,-121.299906955,183,"444 NE DEKALB AVE, BEND, OR, 97701","Match","Exact","444 NE DEKALB AVE, BEND, OR, 97701",152554164,"L"
215184,"444 NE RAVENNA BLVD SUITE 400","SEATTLE","WA",98115,47.6783992140001,-122.324215667,184,"444 NE RAVENNA BLVD SUITE 400, SEATTLE, WA, 98115","Match","Non_Exact","444 NE RAVENNA BLVD, SEATTLE, WA, 98115",653502589,"R"
215185,"444 NE WINCHESTER ST PMB 22C","ROSEBURG","OR",97470,43.2153966920001,-123.341569143,185,"444 NE WINCHESTER ST PMB 22C, ROSEBURG, OR, 97470","Match","Non_Exact","444 NE WINCHESTER ST, ROSEBURG, OR, 97470",137187500,"L"
215186,"444 NORTHWOOD ACRES","HARTSHORNE","OK",74547,NA,NA,186,"444 NORTHWOOD ACRES, HARTSHORNE, OK, 74547","No_Match",NA,NA,NA,NA
215187,"444 ORCHARD AVE","PITTSBURGH","PA",15202,40.5008338060001,-80.072254716,187,"444 ORCHARD AVE, PITTSBURGH, PA, 15202","Match","Exact","444 ORCHARD AVE, PITTSBURGH, PA, 15202",51619420,"R"
215188,"444 PARK STREET","MONTCLAIR","NJ",7043,40.8428625000001,-74.200331567,188,"444 PARK STREET, MONTCLAIR, NJ, 7043","Match","Exact","444 PARK ST, MONTCLAIR, NJ, 07043",63448621,"L"
215189,"444 PENINSULA AVENUE SUITE 1","SAN MATEO","CA",94401,37.578669329,-122.336975661,189,"444 PENINSULA AVENUE SUITE 1, SAN MATEO, CA, 94401","Match","Exact","444 PENINSULA AVE, SAN MATEO, CA, 94401",192377439,"L"
215190,"444 RIVER PARK RD","CELINA","TX",75009,33.385398541,-96.6618423629999,190,"444 RIVER PARK RD, CELINA, TX, 75009","Match","Exact","444 RIVER PARK RD, CELINA, TX, 75009",646666189,"R"
215191,"444 S  ADELLE AVE","DELAND","FL",32720,29.0218553760001,-81.311531138,191,"444 S  ADELLE AVE, DELAND, FL, 32720","Match","Exact","444 S ADELLE AVE, DELAND, FL, 32720",94511152,"L"
215192,"444 S 8TH STREET SUITE 3 B3","EL CENTRO","CA",92243,NA,NA,192,"444 S 8TH STREET SUITE 3 B3, EL CENTRO, CA, 92243","Tie",NA,NA,NA,NA
215193,"444 S LINCOLN ST","CASPER","WY",82601,42.846203647,-106.315285319,193,"444 S LINCOLN ST, CASPER, WY, 82601","Match","Exact","444 S LINCOLN ST, CASPER, WY, 82601",149023931,"R"
215194,"444 SAN ANTONIO RD UNIT 10C","PALO ALTO","CA",94306,NA,NA,194,"444 SAN ANTONIO RD UNIT 10C, PALO ALTO, CA, 94306","No_Match",NA,NA,NA,NA
215195,"444 SAPPHIRE STREET  FLOOR 3","BROOKLYN","NY",11208,40.667886229,-73.856659155,195,"444 SAPPHIRE STREET  FLOOR 3, BROOKLYN, NY, 11208","Match","Exact","444 SAPPHIRE ST, BROOKLYN, NY, 11208",642583702,"R"
215196,"444 SARATOGA AVE APT 24E","SANTA CLARA","CA",95050,NA,NA,196,"444 SARATOGA AVE APT 24E, SANTA CLARA, CA, 95050","No_Match",NA,NA,NA,NA
215197,"444 SEABREEZE BLVD SUITE 360","DAYTONA BEACH","FL",32118,29.2345563220001,-81.0152255089999,197,"444 SEABREEZE BLVD SUITE 360, DAYTONA BEACH, FL, 32118","Match","Exact","444 SEABREEZE BLVD, DAYTONA BEACH, FL, 32118",94525038,"R"
215198,"444 SEAFORTH ROAD","PITTSBORO","NC",27312,35.732627189,-79.058149913,198,"444 SEAFORTH ROAD, PITTSBORO, NC, 27312","Match","Exact","444 SEAFORTH RD, PITTSBORO, NC, 27312",638534949,"L"
215199,"444 SKYVIEW COURT","NEW FAIRVIEW","TX",76078,33.1031927650001,-97.460558314,199,"444 SKYVIEW COURT, NEW FAIRVIEW, TX, 76078","Match","Non_Exact","444 SKYVIEW CT, AURORA, TX, 76078",625664259,"R"
215200,"444 SNIPE IRELAND RD","RICHMOND","VT",5477,44.4045820440001,-72.9464556419999,200,"444 SNIPE IRELAND RD, RICHMOND, VT, 5477","Match","Exact","444 SNIPE IRELAND RD, RICHMOND, VT, 05477",135849473,"R"
215201,"444 SOUTH MAIN STREET","HIGHTSTOWN","NJ",8520,40.2626041510001,-74.525858469,201,"444 SOUTH MAIN STREET, HIGHTSTOWN, NJ, 8520","Match","Exact","444 S MAIN ST, HIGHTSTOWN, NJ, 08520",60173931,"R"
215202,"444 SW 60 AVENUE","MIAMI","FL",33144,25.766510779,-80.293350016,202,"444 SW 60 AVENUE, MIAMI, FL, 33144","Match","Exact","444 SW 60TH AVE, MIAMI, FL, 33144",115975785,"R"
215203,"444 SWATARA ST","STEELTON","PA",17113,40.2359682360001,-76.83394536,203,"444 SWATARA ST, STEELTON, PA, 17113","Match","Exact","444 SWATARA ST, STEELTON, PA, 17113",70828969,"R"
215204,"444 THROOP AVENUE","BROOKLYN","NY",11221,40.68863774,-73.942071394,204,"444 THROOP AVENUE, BROOKLYN, NY, 11221","Match","Exact","444 THROOP AVE, BROOKLYN, NY, 11221",59079169,"R"
215205,"444 W 17TH STREET","NEW YORK","NY",10011,40.74341731,-74.005291083,205,"444 W 17TH STREET, NEW YORK, NY, 10011","Match","Exact","444 W 17TH ST, NEW YORK, NY, 10011",59659716,"L"
215206,"444 W 38TH ST","INDIANAPOLIS","IN",46208,39.8248797250001,-86.166586802,206,"444 W 38TH ST, INDIANAPOLIS, IN, 46208","Match","Exact","444 W 38TH ST, INDIANAPOLIS, IN, 46208",107988774,"R"
215207,"444 W 47TH STREET","KANSAS CITY","MO",64112,39.0424049710001,-94.592063674,207,"444 W 47TH STREET, KANSAS CITY, MO, 64112","Match","Exact","444 W 47 ST, KANSAS CITY, MO, 64112",91533603,"R"
215208,"444 W BROAD ST","WESTFIELD","NJ",7090,40.6468115550001,-74.353205574,208,"444 W BROAD ST, WESTFIELD, NJ, 7090","Match","Exact","444 W BROAD ST, WESTFIELD, NJ, 07090",60568249,"R"
215209,"444 W COMMERCE ST APT 3307","DALLAS","TX",75208,32.7783625590001,-96.808560703,209,"444 W COMMERCE ST APT 3307, DALLAS, TX, 75208","Match","Non_Exact","444 COMMERCE ST, DALLAS, TX, 75202",103197953,"R"
215210,"444 W FULLERTON PARKWAY ROOM 1804","CHICAGO","IL",60614,41.9255924760001,-87.640558949,210,"444 W FULLERTON PARKWAY ROOM 1804, CHICAGO, IL, 60614","Match","Non_Exact","444 W FULLERTON PKWY, CHICAGO, IL, 60614",111767315,"R"
215211,"444 W OCEAN BLVD  SUITE 1508","LONG BEACH","CA",90802,NA,NA,211,"444 W OCEAN BLVD  SUITE 1508, LONG BEACH, CA, 90802","Tie",NA,NA,NA,NA
215212,"444 W OCEAN BLVD","LONG BEACH","CA",90802,33.767313879,-118.197300176,212,"444 W OCEAN BLVD, LONG BEACH, CA, 90802","Match","Exact","444 W OCEAN BLVD, LONG BEACH, CA, 90802",142771104,"L"
215213,"444 WAILUPE CIRCLE","HONOLULU","HI",96821,21.2766889120001,-157.756787695,213,"444 WAILUPE CIRCLE, HONOLULU, HI, 96821","Match","Exact","444 WAILUPE CIR, HONOLULU, HI, 96821",203243811,"R"
215214,"444 WALLEYE DR","RUSSELLVILLE","AR",72802,35.2913011730001,-93.06390106,214,"444 WALLEYE DR, RUSSELLVILLE, AR, 72802","Match","Exact","444 WALLEYE DR, RUSSELLVILLE, AR, 72802",635384553,"R"
215215,"444 WASHINGTON AVENUE","MONTCLAIR","NJ",7042,40.797068026,-74.217523129,215,"444 WASHINGTON AVENUE, MONTCLAIR, NJ, 7042","Match","Exact","444 WASHINGTON AVE, MONTCLAIR, NJ, 07042",63449727,"L"
215216,"444 WAYNE ST","BETHANY","PA",18431,41.615925598,-75.28762944,216,"444 WAYNE ST, BETHANY, PA, 18431","Match","Exact","444 WAYNE ST, BETHANY, PA, 18431",140163815,"R"
215217,"444 WELLSPRING BLVD","VICTORIA","TX",77904,28.9060940420001,-97.001940479,217,"444 WELLSPRING BLVD, VICTORIA, TX, 77904","Match","Exact","444 WELLSPRING BLVD, VICTORIA, TX, 77904",651402228,"L"
215218,"444 WEST 23RD STREET","MERCED","CA",95340,37.307106941,-120.47907669,218,"444 WEST 23RD STREET, MERCED, CA, 95340","Match","Exact","444 W 23RD ST, MERCED, CA, 95340",125282084,"L"
215219,"444 WEST E ST APT 37","TEHACHAPI","CA",93561,35.1307791580001,-118.454129204,219,"444 WEST E ST APT 37, TEHACHAPI, CA, 93561","Match","Exact","444 W E ST, TEHACHAPI, CA, 93561",641278565,"R"
215220,"444 WEST OCEAN BLVD STE 800","LONG BEACH","CA",90802,33.767313879,-118.197299261,220,"444 WEST OCEAN BLVD STE 800, LONG BEACH, CA, 90802","Match","Exact","444 W OCEAN BLVD, LONG BEACH, CA, 90802",142771104,"L"
215221,"444 WEST OCEAN BOULEVARD","LONG BEACH","CA",90802,33.767313879,-118.197299261,221,"444 WEST OCEAN BOULEVARD, LONG BEACH, CA, 90802","Match","Exact","444 W OCEAN BLVD, LONG BEACH, CA, 90802",142771104,"L"
215222,"444 WEST PALMETTO PARK RD UNIT B-10","BOCA RATON","FL",33432,26.3504096990001,-80.094872368,222,"444 WEST PALMETTO PARK RD UNIT B-10, BOCA RATON, FL, 33432","Match","Exact","444 W PALMETTO PARK RD, BOCA RATON, FL, 33432",115303107,"L"
215223,"444 WEST SWISSVALE AVENUE","PITTSBURGH","PA",15218,40.428926834,-79.889920618,223,"444 WEST SWISSVALE AVENUE, PITTSBURGH, PA, 15218","Match","Exact","444 W SWISSVALE AVE, PITTSBURGH, PA, 15218",51653619,"R"
215224,"444 WEST THIRD STREET","DAYTON","OH",45402,39.758290188,-84.199302033,224,"444 WEST THIRD STREET, DAYTON, OH, 45402","Match","Exact","444 W 3RD ST, DAYTON, OH, 45402",143570275,"L"
215225,"444 WEST VALENCIA AVE","BURBANK","CA",91506,34.1653100950001,-118.311198291,225,"444 WEST VALENCIA AVE, BURBANK, CA, 91506","Match","Exact","444 W VALENCIA AVE, BURBANK, CA, 91506",142727280,"L"
215226,"4440 CHRISTENBURY HILLS LANE","CHARLOTTE","NC",28269,35.3138143740001,-80.81304195,226,"4440 CHRISTENBURY HILLS LANE, CHARLOTTE, NC, 28269","Match","Exact","4440 CHRISTENBURY HILLS LN, CHARLOTTE, NC, 28269",70627879,"R"
215227,"4440 CRITTENDEN DRIVE UNIT 21454","LOUISVILLE","KY",40221,38.1895391680001,-85.750776377,227,"4440 CRITTENDEN DRIVE UNIT 21454, LOUISVILLE, KY, 40221","Match","Exact","4440 CRITTENDEN DR, LOUISVILLE, KY, 40221",647907860,"R"
215228,"4440 E ISLAND PINES DR","PORT CLINTON","OH",43452,41.5514173180001,-82.8490904289999,228,"4440 E ISLAND PINES DR, PORT CLINTON, OH, 43452","Match","Non_Exact","4440 ISLAND PINE DR, PORT CLINTON, OH, 43452",44077352,"L"
215229,"4440 FRANKLIN ST","GRAND PRAIRIE","TX",75052,32.664518237,-96.999383107,229,"4440 FRANKLIN ST, GRAND PRAIRIE, TX, 75052","Match","Exact","4440 FRANKLIN ST, GRAND PRAIRIE, TX, 75052",102975176,"L"
215230,"4440 HONEYMOON BAY RD","GREENBANK","WA",98253,48.050511783,-122.54423469,230,"4440 HONEYMOON BAY RD, GREENBANK, WA, 98253","Match","Exact","4440 HONEYMOON BAY RD, GREENBANK, WA, 98253",632620940,"L"
215231,"4440 LEXINGTON BLVD","MISSOURI CITY","TX",77459,29.600622785,-95.57629486,231,"4440 LEXINGTON BLVD, MISSOURI CITY, TX, 77459","Match","Exact","4440 LEXINGTON BLVD, MISSOURI CITY, TX, 77459",78331334,"R"
215232,"4440 N BEACON ST APT 2","CHICAGO","IL",60640,41.962449759,-87.663748196,232,"4440 N BEACON ST APT 2, CHICAGO, IL, 60640","Match","Non_Exact","4440 N BEACON ST, CHICAGO, IL, 60640",111761589,"L"
215233,"4440 N CUMMINGS ST","FLAGSTAFF","AZ",86004,35.2259914810001,-111.585838156,233,"4440 N CUMMINGS ST, FLAGSTAFF, AZ, 86004","Match","Exact","4440 N CUMMINGS ST, FLAGSTAFF, AZ, 86004",188863100,"R"
215234,"4440 N ROUTE J","ROCHEPORT","MO",65279,39.0079616800001,-92.49434042,234,"4440 N ROUTE J, ROCHEPORT, MO, 65279","Match","Exact","4440 N RTE J, ROCHEPORT, MO, 65279",617531492,"R"
215235,"4440 NW 203RD TERRACE","MIAMI GARDENS","FL",33055,25.9585618690001,-80.275140842,235,"4440 NW 203RD TERRACE, MIAMI GARDENS, FL, 33055","Match","Exact","4440 NW 203RD TER, MIAMI GARDENS, FL, 33055",116026324,"L"
215236,"4440 NW 36 STREET","LAUDERDALE LAKES","FL",33319,26.170828237,-80.2085287629999,236,"4440 NW 36 STREET, LAUDERDALE LAKES, FL, 33319","Match","Exact","4440 NW 36TH ST, LAUDERDALE LAKES, FL, 33319",647871509,"R"
215237,"4440 PGA BLVD SUITE 600","PALM BEACH GARDENS","FL",33410,26.838281067,-80.104553837,237,"4440 PGA BLVD SUITE 600, PALM BEACH GARDENS, FL, 33410","Match","Exact","4440 PGA BLVD, PALM BEACH GARDENS, FL, 33410",646905912,"L"
215238,"4440 POINT PLEASANT PIKE","DOYLESTOWN","PA",18902,40.357251224,-75.1299812519999,238,"4440 POINT PLEASANT PIKE, DOYLESTOWN, PA, 18902","Match","Exact","4440 POINT PLEASANT PIKE, DOYLESTOWN, PA, 18902",134702213,"R"
215239,"4440 PRESTON LANE","IOWA CITY","IA",52246,41.6658920730001,-91.602202349,239,"4440 PRESTON LANE, IOWA CITY, IA, 52246","Match","Exact","4440 PRESTON LN, IOWA CITY, IA, 52246",617541825,"R"
215240,"4440 RICHE ROAD","MEMPHIS","TN",38128,35.2194403180001,-89.9155395399999,240,"4440 RICHE ROAD, MEMPHIS, TN, 38128","Match","Exact","4440 RICHE RD, MEMPHIS, TN, 38128",72914650,"L"
215241,"4440 S PIEDRAS DR  SUITE 136","SAN ANTONIO","TX",78228,NA,NA,241,"4440 S PIEDRAS DR  SUITE 136, SAN ANTONIO, TX, 78228","Tie",NA,NA,NA,NA
215242,"4440 S PONY AVE","BOISE","ID",83709,43.5622493170001,-116.271584915,242,"4440 S PONY AVE, BOISE, ID, 83709","Match","Exact","4440 S PONY AVE, BOISE, ID, 83709",117886034,"R"
215243,"4440 SE 3RD AVE","OCALA","FL",34480,29.140028123,-82.1352485039999,243,"4440 SE 3RD AVE, OCALA, FL, 34480","Match","Non_Exact","4440 SE 3RD AVE, OCALA, FL, 34474",636407365,"L"
215244,"4440 SELENE DR","SULPHUR","LA",70665,30.141121383,-93.467003711,244,"4440 SELENE DR, SULPHUR, LA, 70665","Match","Exact","4440 SELENE DR, SULPHUR, LA, 70665",88462968,"R"
215245,"4440 SHARPS CUTOFF","BATAVIA","OH",45103,39.0810144500001,-84.077057602,245,"4440 SHARPS CUTOFF, BATAVIA, OH, 45103","Match","Non_Exact","4440 SHARPS CUTOFF RD, BATAVIA, OH, 45103",118450221,"L"
215246,"4440 SW ARCHER RD APT 804","GAINESVILLE","FL",32608,29.6152844000001,-82.3901437649999,246,"4440 SW ARCHER RD APT 804, GAINESVILLE, FL, 32608","Match","Non_Exact","4440 SW ARCHER RD, GAINESVILLE, FL, 32608",636372416,"R"
215247,"4440 SW ARCHER ROAD UNIT 1201","GAINESVILLE","FL",32614,NA,NA,247,"4440 SW ARCHER ROAD UNIT 1201, GAINESVILLE, FL, 32614","No_Match",NA,NA,NA,NA
215248,"4440 SW ARCHER ROAD","GAINESVILLE","FL",32608,29.6152844000001,-82.3901437649999,248,"4440 SW ARCHER ROAD, GAINESVILLE, FL, 32608","Match","Exact","4440 SW ARCHER RD, GAINESVILLE, FL, 32608",636372416,"R"
215249,"4440 WESTBOURNE DRIVE","INDIANAPOLIS","IN",46205,39.837888805,-86.10666417,249,"4440 WESTBOURNE DRIVE, INDIANAPOLIS, IN, 46205","Match","Exact","4440 WESTBOURNE DR, INDIANAPOLIS, IN, 46205",107995595,"L"
215250,"4440 WILLARD AVENUE","CHEVY CHASE","MD",20815,NA,NA,250,"4440 WILLARD AVENUE, CHEVY CHASE, MD, 20815","No_Match",NA,NA,NA,NA
215251,"4440 WINDING RIVER DRIVE","VALRICO","FL",33596,27.869582716,-82.253269534,251,"4440 WINDING RIVER DRIVE, VALRICO, FL, 33596","Match","Exact","4440 WINDING RIVER DR, VALRICO, FL, 33596",104600279,"L"
215252,"4441 BALDWIN AVE UNIT D","EL MONTE","CA",91731,34.0878778000001,-118.049917845,252,"4441 BALDWIN AVE UNIT D, EL MONTE, CA, 91731","Match","Exact","4441 BALDWIN AVE, EL MONTE, CA, 91731",241248438,"L"
215253,"4441 BEACHWOOD ST","JACKSON","MS",39212,32.258807958,-90.2901043689999,253,"4441 BEACHWOOD ST, JACKSON, MS, 39212","Match","Non_Exact","4441 BEECHWOOD ST, JACKSON, MS, 39212",65364920,"L"
215254,"4441 BENNER STREET FLOOR 2","PHILADELPHIA","PA",19135,40.020950596,-75.059773943,254,"4441 BENNER STREET FLOOR 2, PHILADELPHIA, PA, 19135","Match","Exact","4441 BENNER ST, PHILADELPHIA, PA, 19135",131429009,"L"
215255,"4441 BLACKWELL NURSERY RD W","SEMMES","AL",36575,30.7836510770001,-88.301807218,255,"4441 BLACKWELL NURSERY RD W, SEMMES, AL, 36575","Match","Exact","4441 BLACKWELL NURSERY RD W, SEMMES, AL, 36575",61952029,"L"
215256,"4441 BURBANK DRIVE APT 1108","BATON ROUGE","LA",70820,30.3997652370001,-91.1738814999999,256,"4441 BURBANK DRIVE APT 1108, BATON ROUGE, LA, 70820","Match","Exact","4441 BURBANK DR, BATON ROUGE, LA, 70820",606197429,"L"
215257,"4441 COGNINA CT","FREMONT","CA",94536,37.5473058360001,-121.999520423,257,"4441 COGNINA CT, FREMONT, CA, 94536","Match","Exact","4441 COGNINA CT, FREMONT, CA, 94536",125029488,"R"
215258,"4441 COUNTY ROUTE 4","OSWEGO","NY",13126,43.4435748230001,-76.452054916,258,"4441 COUNTY ROUTE 4, OSWEGO, NY, 13126","Match","Exact","4441 CO RTE 4, OSWEGO, NY, 13126",57826420,"L"
215259,"4441 FAIRVIEW RIDGE LANE","APEX","NC",27539,35.6586125360001,-78.753889887,259,"4441 FAIRVIEW RIDGE LANE, APEX, NC, 27539","Match","Exact","4441 FAIRVIEW RIDGE LN, APEX, NC, 27539",612819314,"L"
215260,"4441 MONROE STREET","TOLEDO","OH",43613,41.686916196,-83.6172427349999,260,"4441 MONROE STREET, TOLEDO, OH, 43613","Match","Exact","4441 MONROE ST, TOLEDO, OH, 43613",33932533,"L"
215261,"4441 PURVES ST APT 1509","LONG ISLAND CITY","NY",11101,40.7468331580001,-73.941066028,261,"4441 PURVES ST APT 1509, LONG ISLAND CITY, NY, 11101","Match","Exact","4441 PURVES ST, LONG ISLAND CITY, NY, 11101",59692120,"L"
215262,"4441 S LOWES CREEK ROAD","EAU CLAIRE","WI",54701,44.7691108770001,-91.483514891,262,"4441 S LOWES CREEK ROAD, EAU CLAIRE, WI, 54701","Match","Exact","4441 S LOWES CREEK RD, EAU CLAIRE, WI, 54701",46073976,"L"
215263,"4441 SIX FORKS RD STE 106 233","RALEIGH","NC",27609,35.8403638250001,-78.642676482,263,"4441 SIX FORKS RD STE 106 233, RALEIGH, NC, 27609","Match","Exact","4441 SIX FORKS RD, RALEIGH, NC, 27609",72505637,"L"
215264,"4441 SIX FORKS ROAD  SUITE 106/340","RALEIGH","NC",27612,35.8403638250001,-78.642676482,264,"4441 SIX FORKS ROAD  SUITE 106/340, RALEIGH, NC, 27612","Match","Non_Exact","4441 SIX FORKS RD, RALEIGH, NC, 27609",72505637,"L"
215265,"4441 W HERNDON AVENUE SUITE 17","FRESNO","CA",93722,36.8370873530001,-119.872766881,265,"4441 W HERNDON AVENUE SUITE 17, FRESNO, CA, 93722","Match","Non_Exact","4441 W HERNDON AVE, FRESNO, CA, 93722",197565407,"L"
215266,"4441 WEST SUNRISE BOULEVARD","PLANTATION","FL",33313,26.135941029,-80.209076985,266,"4441 WEST SUNRISE BOULEVARD, PLANTATION, FL, 33313","Match","Exact","4441 W SUNRISE BLVD, PLANTATION, FL, 33313",637267455,"L"
215267,"4442 76TH AVE N","PINELLAS PARK","FL",33781,27.841051232,-82.694254288,267,"4442 76TH AVE N, PINELLAS PARK, FL, 33781","Match","Exact","4442 76TH AVE N, PINELLAS PARK, FL, 33781",124696864,"L"
215268,"4442 N 59TH DR","PHOENIX","AZ",85033,33.501982851,-112.188072309,268,"4442 N 59TH DR, PHOENIX, AZ, 85033","Match","Exact","4442 N 59TH DR, PHOENIX, AZ, 85033",128354862,"R"
215269,"4442 NW 36TH STREET","GAINESVILLE","FL",32605,29.695221335,-82.376229407,269,"4442 NW 36TH STREET, GAINESVILLE, FL, 32605","Match","Exact","4442 NW 36 ST, GAINESVILLE, FL, 32605",6824282,"L"
215270,"44423 BROOKSIDE RD","PLYMOUTH","MI",48170,42.3625893770001,-83.480096123,270,"44423 BROOKSIDE RD, PLYMOUTH, MI, 48170","Match","Exact","44423 BROOKSIDE RD, PLYMOUTH, MI, 48170",95408310,"L"
215271,"44426 OREGON TRL","PLYMOUTH","MI",48170,42.352729874,-83.479432184,271,"44426 OREGON TRL, PLYMOUTH, MI, 48170","Match","Exact","44426 OREGON TRL, PLYMOUTH, MI, 48170",95408445,"R"
215272,"44428 AVENIDA DEL SO","LANCASTER","CA",93535,NA,NA,272,"44428 AVENIDA DEL SO, LANCASTER, CA, 93535","No_Match",NA,NA,NA,NA
215273,"4443 BROADWAY","LIVE OAK","CA",95953,39.1938907090001,-121.678668237,273,"4443 BROADWAY, LIVE OAK, CA, 95953","Match","Exact","4443 BROADWAY, LIVE OAK, CA, 95953",652196823,"L"
215274,"4443 EAGLE CREEK PARKWAY 310","INDIANAPOLIS","IN",46254,39.835302083,-86.2869198019999,274,"4443 EAGLE CREEK PARKWAY 310, INDIANAPOLIS, IN, 46254","Match","Exact","4443 EAGLE CREEK PKWY, INDIANAPOLIS, IN, 46254",108020409,"L"
215275,"4443 HIDDEN TRACE COURT","HOUSTON","TX",77066,29.9637199370001,-95.487340085,275,"4443 HIDDEN TRACE COURT, HOUSTON, TX, 77066","Match","Exact","4443 HIDDEN TRACE CT, HOUSTON, TX, 77066",96010352,"R"
215276,"4443 HILLBROOK DR","ORANGE","TX",77632,30.1257830800001,-93.7900381709999,276,"4443 HILLBROOK DR, ORANGE, TX, 77632","Match","Exact","4443 HILLBROOK DR, ORANGE, TX, 77632",74024674,"R"
215277,"4443 KNOB RD","RICHMOND","VA",23235,37.5565482700001,-77.554241588,277,"4443 KNOB RD, RICHMOND, VA, 23235","Match","Exact","4443 KNOB RD, RICHMOND, VA, 23235",201532006,"R"
215278,"4443 LYONS RD D 104","COCONUT CREEK","FL",33073,26.284683584,-80.186434541,278,"4443 LYONS RD D 104, COCONUT CREEK, FL, 33073","Match","Exact","4443 LYONS RD, COCONUT CREEK, FL, 33073",648627770,"L"
215279,"4443 N 350 W","PLEASANT VIEW","UT",84414,41.3386414870001,-111.982287258,279,"4443 N 350 W, PLEASANT VIEW, UT, 84414","Match","Exact","4443 N 350 W, PLEASANT VIEW, UT, 84414",155693292,"L"
215280,"4443 N MAJOR AVE","CHICAGO","IL",60630,41.9615403710001,-87.769714624,280,"4443 N MAJOR AVE, CHICAGO, IL, 60630","Match","Exact","4443 N MAJOR AVE, CHICAGO, IL, 60630",605186040,"R"
215281,"4443 ROLLING HILLS LANE","VACAVILLE","CA",95688,38.44901989,-121.973184533,281,"4443 ROLLING HILLS LANE, VACAVILLE, CA, 95688","Match","Exact","4443 ROLLING HILLS LN, VACAVILLE, CA, 95688",192609558,"R"
215282,"4443 TURNBOW LANE","BISMARCK","ND",58503,NA,NA,282,"4443 TURNBOW LANE, BISMARCK, ND, 58503","No_Match",NA,NA,NA,NA
215283,"4443 TURNBOW LN","BISMARCK","ND",58503,NA,NA,283,"4443 TURNBOW LN, BISMARCK, ND, 58503","No_Match",NA,NA,NA,NA
215284,"4444 2ND AVE","DETROIT","MI",48202,42.351512476,-83.066746135,284,"4444 2ND AVE, DETROIT, MI, 48202","Match","Non_Exact","4444 2ND AVE, DETROIT, MI, 48201",95477533,"R"
215285,"4444 BELLEFONTAINE AVE","KANSAS CITY","MO",64117,39.0453780440001,-94.548435344,285,"4444 BELLEFONTAINE AVE, KANSAS CITY, MO, 64117","Match","Non_Exact","4444 BELLEFONTAINE AVE, KANSAS CITY, MO, 64130",91452229,"R"
215286,"4444 BROOKTON RD","CLEVELAND","OH",44128,41.4394395950001,-81.509975318,286,"4444 BROOKTON RD, CLEVELAND, OH, 44128","Match","Exact","4444 BROOKTON RD, CLEVELAND, OH, 44128",61135375,"R"
215287,"4444 COLLINGHAM DR","CHARLOTTE","NC",28273,35.1494125080001,-80.9746099669999,287,"4444 COLLINGHAM DR, CHARLOTTE, NC, 28273","Match","Exact","4444 COLLINGHAM DR, CHARLOTTE, NC, 28273",648376555,"R"
215288,"4444 CORONA DRIVE SUITE 139","CORPUS CHRISTI","TX",78411,NA,NA,288,"4444 CORONA DRIVE SUITE 139, CORPUS CHRISTI, TX, 78411","No_Match",NA,NA,NA,NA
215289,"4444 CRESTMONT PLACE","CLINTON","WA",98236,47.963633696,-122.373353044,289,"4444 CRESTMONT PLACE, CLINTON, WA, 98236","Match","Exact","4444 CRESTMONT PL, CLINTON, WA, 98236",187592385,"R"
215290,"4444 CYPRESS COVE","ROCK HILL","SC",29732,34.986574519,-81.073865158,290,"4444 CYPRESS COVE, ROCK HILL, SC, 29732","Match","Exact","4444 CYPRESS COVE, ROCK HILL, SC, 29732",19790018,"R"
215291,"4444 E 116TH N","IDAHO FALLS","ID",83401,43.6015663690001,-111.944867356,291,"4444 E 116TH N, IDAHO FALLS, ID, 83401","Match","Exact","4444 E 116 N, IDAHO FALLS, ID, 83401",119146696,"L"
215292,"4444 E ALQUINA ROAD","CONNERSVILLE","IN",47331,39.613263454,-85.055888535,292,"4444 E ALQUINA ROAD, CONNERSVILLE, IN, 47331","Match","Exact","4444 E ALQUINA RD, CONNERSVILLE, IN, 47331",31022789,"R"
215293,"4444 EDINBURGH PT","INDIANAPOLIS","IN",46228,39.8352887410001,-86.194574862,293,"4444 EDINBURGH PT, INDIANAPOLIS, IN, 46228","Match","Exact","4444 EDINBURGH PT, INDIANAPOLIS, IN, 46228",108028450,"R"
215294,"4444 GERMANNA HIGHWAY SUITE 190A","LOCUST GROVE","VA",22508,38.3401947560001,-77.741276188,294,"4444 GERMANNA HIGHWAY SUITE 190A, LOCUST GROVE, VA, 22508","Match","Exact","4444 GERMANNA HWY, LOCUST GROVE, VA, 22508",613320626,"L"
215295,"4444 JAYHAWK CT","SCOTT AFB","IL",62225,38.527785421,-89.844787713,295,"4444 JAYHAWK CT, SCOTT AFB, IL, 62225","Match","Exact","4444 JAYHAWK CT, SCOTT AFB, IL, 62225",648045767,"L"
215296,"4444 LATOURETTE LN","HARTLAND","MI",48353,42.6681529790001,-83.6881681629999,296,"4444 LATOURETTE LN, HARTLAND, MI, 48353","Match","Exact","4444 LATOURETTE LN, HARTLAND, MI, 48353",23549883,"R"
215297,"4444 LOMA DIAMANTE DR","EL PASO","TX",79934,31.9399214050001,-106.444587625,297,"4444 LOMA DIAMANTE DR, EL PASO, TX, 79934","Match","Exact","4444 LOMA DIAMANTE DR, EL PASO, TX, 79934",189431673,"R"
215298,"4444 MIDDLE URBANA RD","SPRINGFIELD","OH",45503,39.985774029,-83.763919729,298,"4444 MIDDLE URBANA RD, SPRINGFIELD, OH, 45503","Match","Exact","4444 MIDDLE URBANA RD, SPRINGFIELD, OH, 45503",135007007,"R"
215299,"4444 NORTH GREEN BAY ROAD","RACINE","WI",53404,42.776532569,-87.819398926,299,"4444 NORTH GREEN BAY ROAD, RACINE, WI, 53404","Match","Exact","4444 N GREEN BAY RD, RACINE, WI, 53404",77934073,"L"
215300,"4444 PEPPERWOOD AVE","LONG BEACH","CA",90808,33.83854195,-118.141346628,300,"4444 PEPPERWOOD AVE, LONG BEACH, CA, 90808","Match","Exact","4444 PEPPERWOOD AVE, LONG BEACH, CA, 90808",141700430,"R"
215301,"4444 SOUTH BROADWAY","ENGLEWOOD","CO",80113,39.6359217570001,-104.987852416,301,"4444 SOUTH BROADWAY, ENGLEWOOD, CO, 80113","Match","Exact","4444 S BROADWAY, ENGLEWOOD, CO, 80113",635725169,"L"
215302,"4444 STOW ROAD","FOWLERVILLE","MI",48836,42.6644111800001,-84.132434319,302,"4444 STOW ROAD, FOWLERVILLE, MI, 48836","Match","Exact","4444 STOW RD, FOWLERVILLE, MI, 48836",619589188,"R"
215303,"4444 TODVILLE RD","SEABROOK","TX",77586,29.5823610960001,-95.0058620999999,303,"4444 TODVILLE RD, SEABROOK, TX, 77586","Match","Exact","4444 TODVILLE RD, SEABROOK, TX, 77586",96117179,"R"
215304,"4444 WILBRAHAM DRIVE","VIRGINIA BEACH","VA",23456,36.793137019,-76.131430591,304,"4444 WILBRAHAM DRIVE, VIRGINIA BEACH, VA, 23456","Match","Exact","4444 WILBRAHAM DR, VA BCH, VA, 23456",122267717,"L"
215305,"44440 MONTANA WAY","LEONARDTOWN","MD",20650,38.2290407730001,-76.54241333,305,"44440 MONTANA WAY, LEONARDTOWN, MD, 20650","Match","Exact","44440 MONTANA WAY, LEONARDTOWN, MD, 20650",637382537,"R"
215306,"44444 MOUND ROAD SUITE 100","STERLING HEIGHTS","MI",48314,42.6206077090001,-83.051709295,306,"44444 MOUND ROAD SUITE 100, STERLING HEIGHTS, MI, 48314","Match","Exact","44444 MOUND RD, STERLING HEIGHTS, MI, 48314",110657537,"R"
215307,"44449 BENALD ST","LANCASTER","CA",93535,34.690710795,-118.105309232,307,"44449 BENALD ST, LANCASTER, CA, 93535","Match","Exact","44449 BENALD ST, LANCASTER, CA, 93535",142696905,"R"
215308,"4445 382ND  AVENUE SE","SNOQUALMIE","WA",98065,47.5623534900001,-121.827206559,308,"4445 382ND  AVENUE SE, SNOQUALMIE, WA, 98065","Match","Exact","4445 382ND AVE SE, SNOQUALMIE, WA, 98065",186678881,"L"
215309,"4445 44TH AVE S","MINNEAPOLIS","MN",55406,44.9225707900001,-93.2101855019999,309,"4445 44TH AVE S, MINNEAPOLIS, MN, 55406","Match","Exact","4445 44TH AVE S, MINNEAPOLIS, MN, 55406",43640674,"L"
215310,"4445 ALPHA RD STE 113A","DALLAS","TX",75244,32.9330826230001,-96.833592311,310,"4445 ALPHA RD STE 113A, DALLAS, TX, 75244","Match","Exact","4445 ALPHA RD, DALLAS, TX, 75244",102897926,"L"
215311,"4445 COMMERCE DR SW STE A2","ATLANTA","GA",30336,33.761984484,-84.533033382,311,"4445 COMMERCE DR SW STE A2, ATLANTA, GA, 30336","Match","Exact","4445 COMMERCE DR SW, ATLANTA, GA, 30336",17335988,"R"
215312,"4445 CORPORATION LANE  STE 264","VIRGINIA BEACH","VA",23462,36.8479633540001,-76.127498579,312,"4445 CORPORATION LANE  STE 264, VIRGINIA BEACH, VA, 23462","Match","Exact","4445 CORPORATION LN, VA BCH, VA, 23462",122296493,"L"
215313,"4445 CORPORATION LANE  SUITE 264","VIRGINIA BEACH","VA",23462,36.8479633540001,-76.127498579,313,"4445 CORPORATION LANE  SUITE 264, VIRGINIA BEACH, VA, 23462","Match","Exact","4445 CORPORATION LN, VA BCH, VA, 23462",122296493,"L"
215314,"4445 CORPORATION LANE STE 264","VIRGINIA BEACH","VA",23462,36.8479633540001,-76.127498579,314,"4445 CORPORATION LANE STE 264, VIRGINIA BEACH, VA, 23462","Match","Exact","4445 CORPORATION LN, VA BCH, VA, 23462",122296493,"L"
215315,"4445 CORPORATION LANE STE259","VIRGINIA BEACH","VA",23462,36.8479633540001,-76.127498579,315,"4445 CORPORATION LANE STE259, VIRGINIA BEACH, VA, 23462","Match","Exact","4445 CORPORATION LN, VA BCH, VA, 23462",122296493,"L"
215316,"4445 CORPORATION LANE SUITE 245","VIRGINIA BEACH","VA",23462,36.8479633540001,-76.127498579,316,"4445 CORPORATION LANE SUITE 245, VIRGINIA BEACH, VA, 23462","Match","Exact","4445 CORPORATION LN, VA BCH, VA, 23462",122296493,"L"
215317,"4445 CORPORATION LANE SUITE 259","VIRGINIA BEACH","VA",23462,36.8479633540001,-76.127498579,317,"4445 CORPORATION LANE SUITE 259, VIRGINIA BEACH, VA, 23462","Match","Exact","4445 CORPORATION LN, VA BCH, VA, 23462",122296493,"L"
215318,"4445 CORPORATION LANE SUITE 264","VIRGINIA BEACH","VA",22030,36.8479633540001,-76.127498579,318,"4445 CORPORATION LANE SUITE 264, VIRGINIA BEACH, VA, 22030","Match","Non_Exact","4445 CORPORATION LN, VA BCH, VA, 23462",122296493,"L"
215319,"4445 CORPORATION LANE SUITE 264","VIRGINIA BEACH","VA",23462,36.8479633540001,-76.127498579,319,"4445 CORPORATION LANE SUITE 264, VIRGINIA BEACH, VA, 23462","Match","Exact","4445 CORPORATION LN, VA BCH, VA, 23462",122296493,"L"
215320,"4445 CORPORATION LANE","VIRGINIA BEACH","VA",23462,36.8479633540001,-76.127498579,320,"4445 CORPORATION LANE, VIRGINIA BEACH, VA, 23462","Match","Exact","4445 CORPORATION LN, VA BCH, VA, 23462",122296493,"L"
215321,"4445 CORPORATION LN  STE 264","VIRGINIA BEACH","VA",23462,36.8479633540001,-76.127498579,321,"4445 CORPORATION LN  STE 264, VIRGINIA BEACH, VA, 23462","Match","Exact","4445 CORPORATION LN, VA BCH, VA, 23462",122296493,"L"
215322,"4445 CORPORATION LN STE 264","VIRGINIA BEACH","VA",23462,36.8479633540001,-76.127498579,322,"4445 CORPORATION LN STE 264, VIRGINIA BEACH, VA, 23462","Match","Exact","4445 CORPORATION LN, VA BCH, VA, 23462",122296493,"L"
215323,"4445 CORPORATION LN SUITE 264","VIRGINIA BEACH","VA",23462,36.8479633540001,-76.127498579,323,"4445 CORPORATION LN SUITE 264, VIRGINIA BEACH, VA, 23462","Match","Exact","4445 CORPORATION LN, VA BCH, VA, 23462",122296493,"L"
215324,"4445 E HOLMES AVE STE 107","MESA","AZ",85206,33.389099001,-111.735502075,324,"4445 E HOLMES AVE STE 107, MESA, AZ, 85206","Match","Non_Exact","4445 E HOLMES AVE, MESA, AZ, 85206",128380763,"R"
215325,"4445 ELM COURT","DENVER","CO",80211,39.7774543410001,-105.022823414,325,"4445 ELM COURT, DENVER, CO, 80211","Match","Exact","4445 ELM CT, DENVER, CO, 80211",177300974,"L"
215326,"4445 ERIE AVENUE","CINCINNATI","OH",45227,39.1549064070001,-84.397916352,326,"4445 ERIE AVENUE, CINCINNATI, OH, 45227","Match","Exact","4445 ERIE AVE, CINCINNATI, OH, 45227",103933631,"L"
215327,"4445 GILBERT DR","SHREVEPORT","LA",71106,32.4632162280001,-93.737338243,327,"4445 GILBERT DR, SHREVEPORT, LA, 71106","Match","Exact","4445 GILBERT DR, SHREVEPORT, LA, 71106",57438324,"L"
215328,"4445 LANDMARK LN","HILLIARD","OH",43026,40.0513875240001,-83.106587738,328,"4445 LANDMARK LN, HILLIARD, OH, 43026","Match","Exact","4445 LANDMARK LN, HILLIARD, OH, 43026",135665654,"L"
215329,"4445 MANIGAULT STREET","DALZELL","SC",29040,34.0198081500001,-80.450115292,329,"4445 MANIGAULT STREET, DALZELL, SC, 29040","Match","Exact","4445 MANIGAULT ST, DALZELL, SC, 29040",624439198,"R"
215330,"4445 N  36TH ST 433","PHOENIX","AZ",85018,33.5015462380001,-112.004163868,330,"4445 N  36TH ST 433, PHOENIX, AZ, 85018","Match","Non_Exact","4445 N 36TH ST, PHOENIX, AZ, 85018",128219640,"R"
215331,"4445 N CRANBERRY BLVD","NORTH PORT","FL",34286,27.092909262,-82.174896715,331,"4445 N CRANBERRY BLVD, NORTH PORT, FL, 34286","Match","Exact","4445 N CRANBERRY BLVD, NORTH PORT, FL, 34286",16390678,"R"
215332,"4445 OLD PARK ROAD","N CHARLESTON","SC",29402,32.875691857,-79.983925993,332,"4445 OLD PARK ROAD, N CHARLESTON, SC, 29402","Match","Non_Exact","4445 OLD PARK RD, N CHARLESTON, SC, 29405",108825633,"R"
215333,"4445 PERRY STREET","BOZEMAN","MT",59718,45.681731669,-111.100819445,333,"4445 PERRY STREET, BOZEMAN, MT, 59718","Match","Exact","4445 PERRY ST, BOZEMAN, MT, 59718",615078953,"L"
215334,"4445 RIPTIDE LANE","PLANO","TX",75024,33.102095336,-96.779013289,334,"4445 RIPTIDE LANE, PLANO, TX, 75024","Match","Exact","4445 RIPTIDE LN, PLANO, TX, 75024",123553773,"L"
215335,"4445 S BERKELEY","CHICAGO","IL",60653,41.814218849,-87.6005651199999,335,"4445 S BERKELEY, CHICAGO, IL, 60653","Match","Non_Exact","4445 S BERKELEY AVE, CHICAGO, IL, 60653",111771483,"L"
215336,"4445 W 77TH ST STE 240E","EDINA","MN",55435,44.8631827410001,-93.337105713,336,"4445 W 77TH ST STE 240E, EDINA, MN, 55435","Match","Non_Exact","4445 W 77TH ST, EDINA, MN, 55435",641219920,"L"
215337,"4445-47 WEST MADISON STREET","CHICAGO","IL",60624,41.8805933690001,-87.736595907,337,"4445-47 WEST MADISON STREET, CHICAGO, IL, 60624","Match","Exact","4445 W MADISON ST, CHICAGO, IL, 60624",111765738,"L"
215338,"44450 13TH ST EAST","LANCASTER","CA",93535,34.6904231340001,-118.106296212,338,"44450 13TH ST EAST, LANCASTER, CA, 93535","Match","Exact","44450 13TH ST E, LANCASTER, CA, 93535",647576166,"L"
215339,"4446  E DES MOINES STREEET","MESA","AZ",85205,NA,NA,339,"4446  E DES MOINES STREEET, MESA, AZ, 85205","No_Match",NA,NA,NA,NA
215340,"4446 25TH AVENUE","SACRAMENTO","CA",95820,38.5297613700001,-121.454700608,340,"4446 25TH AVENUE, SACRAMENTO, CA, 95820","Match","Exact","4446 25TH AVE, SACRAMENTO, CA, 95820",133327375,"R"
215341,"4446 GUARDIA AVE","LOS ANGELES","CA",90032,34.0972959810001,-118.167395864,341,"4446 GUARDIA AVE, LOS ANGELES, CA, 90032","Match","Exact","4446 GUARDIA AVE, LOS ANGELES, CA, 90032",141635114,"R"
215342,"4446 HENDRICKS AVE SUITE 121","JACKSONVILLE","FL",32207,30.2751912300001,-81.650211882,342,"4446 HENDRICKS AVE SUITE 121, JACKSONVILLE, FL, 32207","Match","Exact","4446 HENDRICKS AVE, JACKSONVILLE, FL, 32207",83915537,"R"
215343,"4446 HENDRICKS AVE SUITE 227","JACKSONVILLE","FL",32207,30.2751912300001,-81.650211882,343,"4446 HENDRICKS AVE SUITE 227, JACKSONVILLE, FL, 32207","Match","Exact","4446 HENDRICKS AVE, JACKSONVILLE, FL, 32207",83915537,"R"
215344,"4446 HENDRICKS AVENUE 141","JACKSONVILLE","FL",32207,30.2751912300001,-81.650211882,344,"4446 HENDRICKS AVENUE 141, JACKSONVILLE, FL, 32207","Match","Exact","4446 HENDRICKS AVE, JACKSONVILLE, FL, 32207",83915537,"R"
215345,"4446 POPLAR ST","MARSHALL","TX",75672,32.570948635,-94.319728684,345,"4446 POPLAR ST, MARSHALL, TX, 75672","Match","Exact","4446 POPLAR ST, MARSHALL, TX, 75672",141184309,"R"
215346,"4446 W DEER RUN DRIVE 103","BROWN DEER","WI",53223,43.1885644290001,-87.966005469,346,"4446 W DEER RUN DRIVE 103, BROWN DEER, WI, 53223","Match","Non_Exact","4446 W DEER RUN DR, BROWN DEER, WI, 53223",638397615,"R"
215347,"4446 WOODFIELD BLVD","BOCA RATON","FL",33434,26.3933887170001,-80.152571864,347,"4446 WOODFIELD BLVD, BOCA RATON, FL, 33434","Match","Exact","4446 WOODFIELD BLVD, BOCA RATON, FL, 33434",115575655,"R"
215348,"4446-1A HENDRICKS AVE  SUITE 245","JACKSONVILLE","FL",32207,30.2751912300001,-81.650211882,348,"4446-1A HENDRICKS AVE  SUITE 245, JACKSONVILLE, FL, 32207","Match","Exact","4446 HENDRICKS AVE, JACKSONVILLE, FL, 32207",83915537,"R"
215349,"44464 LAKEWOOD DRIVE","PRAIRIEVILLE","LA",70769,30.3036905430001,-90.856235883,349,"44464 LAKEWOOD DRIVE, PRAIRIEVILLE, LA, 70769","Match","Exact","44464 LAKEWOOD DR, PRAIRIEVILLE, LA, 70769",115024773,"R"
215350,"4447 2ND RD","UDALL","KS",67146,37.4755524,-97.086658707,350,"4447 2ND RD, UDALL, KS, 67146","Match","Exact","4447 2ND RD, UDALL, KS, 67146",639195460,"R"
215351,"4447 86TH AVE SE","MERCER ISLAND","WA",98040,47.566012653,-122.224248845,351,"4447 86TH AVE SE, MERCER ISLAND, WA, 98040","Match","Exact","4447 86TH AVE SE, MERCER ISLAND, WA, 98040",186606352,"R"
215352,"4447 ELLICOTT ST NW","WASHINGTON","DC",20016,38.9533252360001,-77.0875669499999,352,"4447 ELLICOTT ST NW, WASHINGTON, DC, 20016","Match","Exact","4447 ELLICOTT ST NW, WASHINGTON, DC, 20016",76219608,"R"
215353,"4447 FORESTHILL ROAD","STOW","OH",44224,41.181714185,-81.415605625,353,"4447 FORESTHILL ROAD, STOW, OH, 44224","Match","Exact","4447 FORESTHILL RD, STOW, OH, 44224",61347190,"R"
215354,"4447 LAUREL TWIG COURT","CHARLOTTE","NC",28215,35.2427788000001,-80.6438542349999,354,"4447 LAUREL TWIG COURT, CHARLOTTE, NC, 28215","Match","Exact","4447 LAUREL TWIG CT, CHARLOTTE, NC, 28215",70518156,"R"
215355,"4447 MISSION INN AVE","RIVERSIDE","CA",92501,33.9871160920001,-117.382710008,355,"4447 MISSION INN AVE, RIVERSIDE, CA, 92501","Match","Exact","4447 MISSION INN AVE, RIVERSIDE, CA, 92501",608993305,"R"
215356,"4447 N CENTRAL EXPY STE 110 PMB 542","DALLAS","TX",75205,32.8196759530001,-96.787543735,356,"4447 N CENTRAL EXPY STE 110 PMB 542, DALLAS, TX, 75205","Match","Non_Exact","4447 N CENTRAL EXPY, DALLAS, TX, 75205",102907991,"L"
215357,"4447 N CENTRAL EXPY STE 110-525","DALLAS","TX",75205,32.8196759530001,-96.787543735,357,"4447 N CENTRAL EXPY STE 110-525, DALLAS, TX, 75205","Match","Non_Exact","4447 N CENTRAL EXPY, DALLAS, TX, 75205",102907991,"L"
215358,"4447 N KENTON","CHICAGO","IL",60630,41.9620509700001,-87.7426406449999,358,"4447 N KENTON, CHICAGO, IL, 60630","Match","Non_Exact","4447 N KENTON AVE, CHICAGO, IL, 60630",111755361,"R"
215359,"4447 N OAKLAND AVENUE","MILWAUKEE","WI",53211,43.0968781330001,-87.887432663,359,"4447 N OAKLAND AVENUE, MILWAUKEE, WI, 53211","Match","Exact","4447 N OAKLAND AVE, MILWAUKEE, WI, 53211",77743226,"L"
215360,"4447 S CANYON RD STE 5","RAPID CITY","SD",57702,44.0861503690001,-103.293278622,360,"4447 S CANYON RD STE 5, RAPID CITY, SD, 57702","Match","Non_Exact","4447 S CANYON RD, RAPID CITY, SD, 57702",607274513,"L"
215361,"4447 US HIGHWAY 35 NORTH","RICHMOND","IN",47374,39.8926183730001,-84.944061748,361,"4447 US HIGHWAY 35 NORTH, RICHMOND, IN, 47374","Match","Non_Exact","4447 US HWY 35, RICHMOND, IN, 47374",31336183,"R"
215362,"4447 YELLOWDOG RD","SENATOBIA","MS",38668,NA,NA,362,"4447 YELLOWDOG RD, SENATOBIA, MS, 38668","No_Match",NA,NA,NA,NA
215363,"4448 DUNNWOOD DRIVE","EL DORADO HILLS","CA",95762,38.6469200490001,-121.081577104,363,"4448 DUNNWOOD DRIVE, EL DORADO HILLS, CA, 95762","Match","Exact","4448 DUNNWOOD DR, EL DORADO HILLS, CA, 95762",639938616,"L"
215364,"4448 E 23RD ST","CASPER","WY",82609,42.8279230690001,-106.263621703,364,"4448 E 23RD ST, CASPER, WY, 82609","Match","Exact","4448 E 23RD ST, CASPER, WY, 82609",149042219,"L"
215365,"4448 ENRIGHT AVE","ST LOUIS","MO",63108,38.650512351,-90.251288679,365,"4448 ENRIGHT AVE, ST LOUIS, MO, 63108","Match","Exact","4448 ENRIGHT AVE, SAINT LOUIS, MO, 63108",107596785,"L"
215366,"4448 SAWGRASS CT","CHINO HILLS","CA",91709,33.9596222770001,-117.707350181,366,"4448 SAWGRASS CT, CHINO HILLS, CA, 91709","Match","Exact","4448 SAWGRASS CT, CHINO HILLS, CA, 91709",144982680,"L"
215367,"4448 WALNUT STREET","KIEFER","OK",74041,35.9440145410001,-96.03985432,367,"4448 WALNUT STREET, KIEFER, OK, 74041","Match","Exact","4448 WALNUT ST, KIEFER, OK, 74041",627468593,"L"
215368,"44483 COUNTY ROAD 23","BERTHA","MN",56437,46.273744966,-95.0629778099999,368,"44483 COUNTY ROAD 23, BERTHA, MN, 56437","Match","Exact","44483 CO RD 23, BERTHA, MN, 56437",201421063,"L"
215369,"44489 TOWN CENTER WAY  D485","PALM DESERT","CA",92260,33.723667628,-116.398357157,369,"44489 TOWN CENTER WAY  D485, PALM DESERT, CA, 92260","Match","Exact","44489 TOWN CENTER WAY, PALM DESERT, CA, 92260",638952040,"R"
215370,"4449 ALDERNY CIRCLE","HIGH POINT","NC",27265,36.053063917,-79.982791165,370,"4449 ALDERNY CIRCLE, HIGH POINT, NC, 27265","Match","Exact","4449 ALDERNY CI, HIGH POINT, NC, 27265",651376067,"R"
215371,"4449 CARBON CANYON RD","BREA","CA",92823,33.921654464,-117.830152573,371,"4449 CARBON CANYON RD, BREA, CA, 92823","Match","Exact","4449 CARBON CANYON RD, BREA, CA, 92823",609049377,"L"
215372,"4449 CASCADE ROAD  SW","ATLANTA","GA",30331,33.734501369,-84.534600622,372,"4449 CASCADE ROAD  SW, ATLANTA, GA, 30331","Match","Non_Exact","4449 CASCADE RD, ATLANTA, GA, 30331",647345158,"R"
215373,"4449 CEDAR PARK DR","STONE MOUNTAIN","GA",30083,33.8159141250001,-84.2067870019999,373,"4449 CEDAR PARK DR, STONE MOUNTAIN, GA, 30083","Match","Exact","4449 CEDAR PARK DR, STONE MOUNTAIN, GA, 30083",23364226,"R"
215374,"4449 CHASE DRIVE","WESLEY CHAPEL","FL",33543,28.221797021,-82.297345507,374,"4449 CHASE DRIVE, WESLEY CHAPEL, FL, 33543","Match","Exact","4449 CHASE DR, WESLEY CHAPEL, FL, 33543",86354129,"L"
215375,"4449 E 13TH AVE","GARY","IN",46403,41.590350233,-87.282581479,375,"4449 E 13TH AVE, GARY, IN, 46403","Match","Exact","4449 E 13TH AVE, GARY, IN, 46403",98427730,"R"
215376,"4449 E 13TH STREET","TUCSON","AZ",85711,32.2184691090001,-110.896461139,376,"4449 E 13TH STREET, TUCSON, AZ, 85711","Match","Exact","4449 E 13TH ST, TUCSON, AZ, 85711",121180002,"L"
215377,"4449 GENE AVE","SACRAMENTO","CA",95838,38.6485019680001,-121.440738118,377,"4449 GENE AVE, SACRAMENTO, CA, 95838","Match","Exact","4449 GENE AVE, SACRAMENTO, CA, 95838",642587381,"L"
215378,"4449 GRACEMONT AVE","LAS VEGAS","NV",89139,36.0484641800001,-115.200442237,378,"4449 GRACEMONT AVE, LAS VEGAS, NV, 89139","Match","Exact","4449 GRACEMONT AVE, LAS VEGAS, NV, 89139",202002720,"L"
215379,"4449 SAGO CIRCLE","WESTON","FL",33331,26.0641566210001,-80.3913687799999,379,"4449 SAGO CIRCLE, WESTON, FL, 33331","Match","Exact","4449 SAGO CIR, WESTON, FL, 33331",114788625,"R"
215380,"4449 W PINE BLVD","SAINT LOUIS","MO",63108,38.6406304230001,-90.256374699,380,"4449 W PINE BLVD, SAINT LOUIS, MO, 63108","Match","Exact","4449 W PINE BLVD, SAINT LOUIS, MO, 63108",645136927,"R"
215381,"44495 TOWN CENTER WAY SUITE B","PALM DESERT","CA",92260,33.723597639,-116.398364933,381,"44495 TOWN CENTER WAY SUITE B, PALM DESERT, CA, 92260","Match","Exact","44495 TOWN CENTER WAY, PALM DESERT, CA, 92260",638952040,"R"
215382,"44496 BIRCH PARK TRAIL","GREY EAGLE","MN",56336,45.7663234560001,-94.7340859509999,382,"44496 BIRCH PARK TRAIL, GREY EAGLE, MN, 56336","Match","Exact","44496 BIRCH PARK TRL, GREY EAGLE, MN, 56336",649171223,"R"
215383,"445 100TH AVENUE NE","FOLEY","MN",56329,45.571627699,-93.9552809909999,383,"445 100TH AVENUE NE, FOLEY, MN, 56329","Match","Exact","445 100TH AVE NE, FOLEY, MN, 56329",638528674,"L"
215384,"445 110TH AVE SE","BELLEVUE","WA",98004,47.605654331,-122.193678389,384,"445 110TH AVE SE, BELLEVUE, WA, 98004","Match","Exact","445 110TH AVE SE, BELLEVUE, WA, 98004",186607490,"R"
215385,"445 6TH AVE","MENLO PARK","CA",94025,37.4727556610001,-122.202978978,385,"445 6TH AVE, MENLO PARK, CA, 94025","Match","Exact","445 6TH AVE, MENLO PARK, CA, 94025",192364229,"L"
215386,"445 82ND AVENUE","ST. PETE BEACH","FL",33706,27.7473456660001,-82.754795696,386,"445 82ND AVENUE, ST. PETE BEACH, FL, 33706","Match","Exact","445 82ND AVE, SAINT PETE BEACH, FL, 33706",124694447,"R"
215387,"445 APPLEYARD DRIVE APT C2 8","TALLAHASSEE","FL",32304,30.443668368,-84.33789132,387,"445 APPLEYARD DRIVE APT C2 8, TALLAHASSEE, FL, 32304","Match","Exact","445 APPLEYARD DR, TALLAHASSEE, FL, 32304",637486734,"R"
215388,"445 ARNOLD WAY","ALPINE","CA",91901,32.841088465,-116.805351132,388,"445 ARNOLD WAY, ALPINE, CA, 91901","Match","Exact","445 ARNOLD WAY, ALPINE, CA, 91901",195335185,"R"
215389,"445 BARNARD BLVD","SUNNYSIDE","WA",98944,46.3246503940001,-119.987011575,389,"445 BARNARD BLVD, SUNNYSIDE, WA, 98944","Match","Exact","445 BARNARD BLVD, SUNNYSIDE, WA, 98944",624094323,"L"
215390,"445 BEAVER STREET","ANSONIA","CT",6401,41.3529107360001,-73.0662915469999,390,"445 BEAVER STREET, ANSONIA, CT, 6401","Match","Exact","445 BEAVER ST, ANSONIA, CT, 06401",604737505,"L"
215391,"445 BELLEVUE AVENUE","OAKLAND","CA",94610,37.8090247590001,-122.25274681,391,"445 BELLEVUE AVENUE, OAKLAND, CA, 94610","Match","Exact","445 BELLEVUE AVE, OAKLAND, CA, 94610",125001172,"R"
215392,"445 BERKSHIRE AVENUE","ROMEOVILLE","IL",60446,41.6434181070001,-88.096943508,392,"445 BERKSHIRE AVENUE, ROMEOVILLE, IL, 60446","Match","Exact","445 BERKSHIRE AVE, ROMEOVILLE, IL, 60446",111535842,"R"
215393,"445 BETHLEHEM PIKE","COLMAR","PA",18915,40.276855036,-75.26019947,393,"445 BETHLEHEM PIKE, COLMAR, PA, 18915","Match","Exact","445 BETHLEHEM PIKE, COLMAR, PA, 18915",635809610,"L"
215394,"445 BOWMAN","MANSFIELD","OH",44903,40.7704323820001,-82.522956305,394,"445 BOWMAN, MANSFIELD, OH, 44903","Match","Non_Exact","445 BOWMAN ST, MANSFIELD, OH, 44903",12832980,"L"
215395,"445 BUSH ROAD","MONTROSE","PA",18801,41.861865455,-75.9262624469999,395,"445 BUSH ROAD, MONTROSE, PA, 18801","Match","Exact","445 BUSH RD, MONTROSE, PA, 18801",612247419,"L"
215396,"445 CAMPGROUND ROAD PO BOX 173","PALMETTO","LA",71358,30.6700832440001,-91.91266096,396,"445 CAMPGROUND ROAD PO BOX 173, PALMETTO, LA, 71358","Match","Exact","445 CAMPGROUND RD, PALMETTO, LA, 71358",106427270,"L"
215397,"445 CASCADE RISE CT SW","ATLANTA","GA",30331,33.7258786530001,-84.5643651519999,397,"445 CASCADE RISE CT SW, ATLANTA, GA, 30331","Match","Exact","445 CASCADE RISE CT SW, ATLANTA, GA, 30331",643353002,"L"
215398,"445 CENTRAL AVE SUITE 108","CEDARHURST","NY",11516,40.6204989010001,-73.725402608,398,"445 CENTRAL AVE SUITE 108, CEDARHURST, NY, 11516","Match","Exact","445 CENTRAL AVE, CEDARHURST, NY, 11516",147677938,"R"
215399,"445 COUNTY RD 5","ADENA","OH",43901,40.170999755,-80.832440602,399,"445 COUNTY RD 5, ADENA, OH, 43901","Match","Non_Exact","445 CO HWY 5, ADENA, OH, 43901",639281347,"R"
215400,"445 COUNTY ROAD 407","TOWN CREEK","AL",35672,34.7595773190001,-87.387322427,400,"445 COUNTY ROAD 407, TOWN CREEK, AL, 35672","Match","Exact","445 CO RD 407, TOWN CREEK, AL, 35672",41396755,"L"
215401,"445 COURTLAND ST","YPSILANTI","MI",48197,42.24637886,-83.640836715,401,"445 COURTLAND ST, YPSILANTI, MI, 48197","Match","Exact","445 COURTLAND ST, YPSILANTI, MI, 48197",26017951,"L"
215402,"445 CREEKVIEW DR","MERIDIAN","ID",83646,43.624295128,-116.397444351,402,"445 CREEKVIEW DR, MERIDIAN, ID, 83646","Match","Exact","445 CREEKVIEW DR, MERIDIAN, ID, 83646",117889892,"R"
215403,"445 DAIRY ROAD","MANGILAO","GU",96913,13.4523647120001,144.793988914,403,"445 DAIRY ROAD, MANGILAO, GU, 96913","Match","Exact","445 DAIRY RD, MANGILAO, GU, 96913",635696540,"R"
215404,"445 DECATUR AVE","STATEN ISLAND","NY",10314,40.609803524,-74.145092468,404,"445 DECATUR AVE, STATEN ISLAND, NY, 10314","Match","Exact","445 DECATUR AVE, STATEN ISLAND, NY, 10314",59871585,"L"
215405,"445 DION DR","PALM SPRINGS","CA",92262,33.8291475730001,-116.536403255,405,"445 DION DR, PALM SPRINGS, CA, 92262","Match","Exact","445 DION DR, PALM SPRINGS, CA, 92262",646237088,"R"
215406,"445 DORR STREET","TOLEDO","OH",43604,41.652970118,-83.554661654,406,"445 DORR STREET, TOLEDO, OH, 43604","Match","Exact","445 DORR ST, TOLEDO, OH, 43604",640300802,"L"
215407,"445 DRAKES CREEK RD","WHITE PLAINS","KY",42464,37.1972717580001,-87.4084346289999,407,"445 DRAKES CREEK RD, WHITE PLAINS, KY, 42464","Match","Exact","445 DRAKES CREEK RD, WHITE PLAINS, KY, 42464",642511232,"L"
215408,"445 E FM 1382 3-228","CEDAR HILL","TX",75104,32.5926889630001,-96.9375894,408,"445 E FM 1382 3-228, CEDAR HILL, TX, 75104","Match","Non_Exact","445 E FM 1382, CEDAR HILL, TX, 75104",646818742,"L"
215409,"445 E FM 1382 PMB 504","CEDAR HILL","TX",75104,32.5926889630001,-96.9375894,409,"445 E FM 1382 PMB 504, CEDAR HILL, TX, 75104","Match","Non_Exact","445 E FM 1382, CEDAR HILL, TX, 75104",646818742,"L"
215410,"445 E FM 1382 STE 3 PMB 226","CEDAR HILL","TX",75104,32.5926889630001,-96.9375894,410,"445 E FM 1382 STE 3 PMB 226, CEDAR HILL, TX, 75104","Match","Non_Exact","445 E FM 1382, CEDAR HILL, TX, 75104",646818742,"L"
215411,"445 E FM 1382 STE 3-251","CEDAR HILL","TX",75104,32.5926889630001,-96.9375894,411,"445 E FM 1382 STE 3-251, CEDAR HILL, TX, 75104","Match","Non_Exact","445 E FM 1382, CEDAR HILL, TX, 75104",646818742,"L"
215412,"445 E FM 1382 SUITE 3-716","CEDAR HILL","TX",75104,32.5926889630001,-96.9375894,412,"445 E FM 1382 SUITE 3-716, CEDAR HILL, TX, 75104","Match","Non_Exact","445 E FM 1382, CEDAR HILL, TX, 75104",646818742,"L"
215413,"445 E FM 1382 SUITE 3-BOX 795","CEDAR HILL","TX",75104,32.5926889630001,-96.9375894,413,"445 E FM 1382 SUITE 3-BOX 795, CEDAR HILL, TX, 75104","Match","Non_Exact","445 E FM 1382, CEDAR HILL, TX, 75104",646818742,"L"
215414,"445 E FM 1382 SUITE 3607","CEDAR HILL","TX",75104,32.5926889630001,-96.9375894,414,"445 E FM 1382 SUITE 3607, CEDAR HILL, TX, 75104","Match","Non_Exact","445 E FM 1382, CEDAR HILL, TX, 75104",646818742,"L"
215415,"445 E FM 1382 SUITE 3772","CEDAR HILL","TX",75376,NA,NA,415,"445 E FM 1382 SUITE 3772, CEDAR HILL, TX, 75376","No_Match",NA,NA,NA,NA
215416,"445 E FM1382 SUITE 3-608","CEDAR HILL","TX",75104,NA,NA,416,"445 E FM1382 SUITE 3-608, CEDAR HILL, TX, 75104","No_Match",NA,NA,NA,NA
215417,"445 E INNIS AVE UNIT 7956","COLUMBUS","OH",43207,39.925633519,-82.983767799,417,"445 E INNIS AVE UNIT 7956, COLUMBUS, OH, 43207","Match","Non_Exact","445 E INNIS AVE, COLUMBUS, OH, 43207",218644939,"R"
215418,"445 E MAIN ST","BIRDSBORO","PA",19508,NA,NA,418,"445 E MAIN ST, BIRDSBORO, PA, 19508","Tie",NA,NA,NA,NA
215419,"445 E OHIO ST","CHICAGO","IL",60611,41.892652619,-87.616824384,419,"445 E OHIO ST, CHICAGO, IL, 60611","Match","Exact","445 E OHIO ST, CHICAGO, IL, 60611",647634890,"R"
215420,"445 EAST CHURCH STREET","MARION","OH",43302,40.5876639300001,-83.118465586,420,"445 EAST CHURCH STREET, MARION, OH, 43302","Match","Exact","445 E CHURCH ST, MARION, OH, 43302",12711277,"R"
215421,"445 EAST FM 1382 SUITE 3-781","CEDAR HILL","TX",75104,32.5927054380001,-96.937602364,421,"445 EAST FM 1382 SUITE 3-781, CEDAR HILL, TX, 75104","Match","Exact","445 E FM 1382, CEDAR HILL, TX, 75104",646818742,"L"
215422,"445 EAST NORTH WATER STREET 1902","CHICAGO","IL",60611,41.889533741,-87.616202713,422,"445 EAST NORTH WATER STREET 1902, CHICAGO, IL, 60611","Match","Exact","445 E NORTH WATER ST, CHICAGO, IL, 60611",111889137,"R"
215423,"445 EAST OHIO STREET APARTMENT 2605","CHICAGO","IL",60611,41.892652341,-87.6168393849999,423,"445 EAST OHIO STREET APARTMENT 2605, CHICAGO, IL, 60611","Match","Exact","445 E OHIO ST, CHICAGO, IL, 60611",647634890,"R"
215424,"445 ETNA STREET SUITE 44B","SAINT PAUL","MN",55106,44.955171534,-93.041495797,424,"445 ETNA STREET SUITE 44B, SAINT PAUL, MN, 55106","Match","Non_Exact","445 N ETNA ST, SAINT PAUL, MN, 55106",97670464,"L"
215425,"445 FALMOUTH ROAD","HYANNIS","MA",2601,41.662573933,-70.304250655,425,"445 FALMOUTH ROAD, HYANNIS, MA, 2601","Match","Exact","445 FALMOUTH RD, HYANNIS, MA, 02601",642662207,"R"
215426,"445 FISH AND FIDDLE ROAD","MOUNTAIN HOME","AR",72653,36.312087208,-92.280238057,426,"445 FISH AND FIDDLE ROAD, MOUNTAIN HOME, AR, 72653","Match","Exact","445 FISH AND FIDDLE RD, MOUNTAIN HOME, AR, 72653",610882918,"L"
215427,"445 FLAT CREEK DRIVE - NO 3999","JACKSON","WY",83001,43.4754140750001,-110.769995937,427,"445 FLAT CREEK DRIVE - NO 3999, JACKSON, WY, 83001","Match","Exact","445 FLAT CREEK DR, JACKSON, WY, 83001",130413722,"R"
215428,"445 FOREST ST","KALAMAZOO","MI",49001,42.27880628,-85.589049965,428,"445 FOREST ST, KALAMAZOO, MI, 49001","Match","Exact","445 FOREST ST, KALAMAZOO, MI, 49001",652794279,"L"
215429,"445 FORT PITT BLVD STE 250","PITTSBURGH","PA",15219,40.4362902190001,-79.9997006689999,429,"445 FORT PITT BLVD STE 250, PITTSBURGH, PA, 15219","Match","Exact","445 FORT PITT BLVD, PITTSBURGH, PA, 15219",51635060,"L"
215430,"445 FRANCES ST","MENASHA","WI",54952,44.2242493700001,-88.4474374019999,430,"445 FRANCES ST, MENASHA, WI, 54952","Match","Exact","445 FRANCES ST, MENASHA, WI, 54952",74492310,"R"
215431,"445 GRAND NATIONAL LANE","ELGIN","SC",29045,34.137357938,-80.855070081,431,"445 GRAND NATIONAL LANE, ELGIN, SC, 29045","Match","Exact","445 GRAND NATIONAL LN, ELGIN, SC, 29045",625618653,"L"
215432,"445 GRANTHAM RD","IRMO","SC",29063,34.0915216930001,-81.1884680909999,432,"445 GRANTHAM RD, IRMO, SC, 29063","Match","Exact","445 GRANTHAM RD, IRMO, SC, 29063",70064666,"R"
215433,"445 HAMILTON AVENUE  SUITE 1102","WHITE PLAINS","NY",10601,41.0350086650001,-73.7652944279999,433,"445 HAMILTON AVENUE  SUITE 1102, WHITE PLAINS, NY, 10601","Match","Exact","445 HAMILTON AVE, WHITE PLAINS, NY, 10601",139803792,"R"
215434,"445 HARDIN BRIDGE ROAD","KINGSTON","GA",30145,34.1981848030001,-84.9299908579999,434,"445 HARDIN BRIDGE ROAD, KINGSTON, GA, 30145","Match","Non_Exact","445 HARDIN BRIDGE RD SW, KINGSTON, GA, 30145",627546995,"R"
215435,"445 HIGH ST SE STE 200","SALEM","OR",97301,44.9362275770001,-123.038896731,435,"445 HIGH ST SE STE 200, SALEM, OR, 97301","Match","Exact","445 HIGH ST SE, SALEM, OR, 97301",156268059,"R"
215436,"445 HOLSENBECK SCHOOL RD","WINDER","GA",30680,NA,NA,436,"445 HOLSENBECK SCHOOL RD, WINDER, GA, 30680","No_Match",NA,NA,NA,NA
215437,"445 HWY 6 EAST","GENESEO","IL",61254,41.4388511860001,-90.1491157149999,437,"445 HWY 6 EAST, GENESEO, IL, 61254","Match","Non_Exact","445 US HWY 6 E, GENESEO, IL, 61254",8906154,"L"
215438,"445 INDUSTRIAL RD","EL DORADO","AR",71730,33.20178042,-92.61377269,438,"445 INDUSTRIAL RD, EL DORADO, AR, 71730","Match","Exact","445 INDUSTRIAL RD, EL DORADO, AR, 71730",610669409,"R"
215439,"445 ISLAND AVE UNIT 327","SAN DIEGO","CA",92101,32.710412535,-117.160615278,439,"445 ISLAND AVE UNIT 327, SAN DIEGO, CA, 92101","Match","Exact","445 ISLAND AVE, SAN DIEGO, CA, 92101",195344474,"R"
215440,"445 KNECHT DRIVE","DAYTON","OH",45405,39.7948583720001,-84.2074418779999,440,"445 KNECHT DRIVE, DAYTON, OH, 45405","Match","Exact","445 KNECHT DR, DAYTON, OH, 45405",143568638,"L"
215441,"445 LAFAYETTE STREET APT 16B","NEW YORK","NY",10003,40.729239615,-73.9919471919999,441,"445 LAFAYETTE STREET APT 16B, NEW YORK, NY, 10003","Match","Exact","445 LAFAYETTE ST, NEW YORK, NY, 10003",639430771,"R"
215442,"445 LITHIA PINECREST RD","BRANDON","FL",33511,27.931730757,-82.277139607,442,"445 LITHIA PINECREST RD, BRANDON, FL, 33511","Match","Exact","445 LITHIA PINECREST RD, BRANDON, FL, 33511",104634689,"L"
215443,"445 MANOR AVE","DOWNINGTOWN","PA",19335,40.0099655550001,-75.718117306,443,"445 MANOR AVE, DOWNINGTOWN, PA, 19335","Match","Exact","445 MANOR AVE, DOWNINGTOWN, PA, 19335",179553348,"R"
215444,"445 MANOR AVENUE","DOWNINGTOWN","PA",19335,40.0099655550001,-75.718117306,444,"445 MANOR AVENUE, DOWNINGTOWN, PA, 19335","Match","Exact","445 MANOR AVE, DOWNINGTOWN, PA, 19335",179553348,"R"
215445,"445 MARSHALL LANE","SMITHFIELD","NC",27577,35.518611327,-78.477067714,445,"445 MARSHALL LANE, SMITHFIELD, NC, 27577","Match","Exact","445 MARSHALL LN, SMITHFIELD, NC, 27577",26542918,"L"
215446,"445 MARSHALL STREET SUITE 151","PHILLIPSBURG","NJ",8865,40.695174733,-75.182375667,446,"445 MARSHALL STREET SUITE 151, PHILLIPSBURG, NJ, 8865","Match","Exact","445 MARSHALL ST, PHILLIPSBURG, NJ, 08865",98109194,"R"
215447,"445 MEAD MCNEER ROAD","WHEELERSBURG","OH",45694,38.7847283740001,-82.828269518,447,"445 MEAD MCNEER ROAD, WHEELERSBURG, OH, 45694","Match","Exact","445 MEAD MCNEER RD, WHEELERSBURG, OH, 45694",55124745,"L"
215448,"445 MINNESOTA ST 1500","ST PAUL","MN",55101,44.9486210860001,-93.0937919419999,448,"445 MINNESOTA ST 1500, ST PAUL, MN, 55101","Match","Non_Exact","445 N MINNESOTA ST, SAINT PAUL, MN, 55101",97648612,"L"
215449,"445 N 10TH ST","ALLENTOWN","PA",18102,40.607033508,-75.481000022,449,"445 N 10TH ST, ALLENTOWN, PA, 18102","Match","Exact","445 N 10TH ST, ALLENTOWN, PA, 18102",80767910,"R"
215450,"445 N 1300 W","SALT LAKE CITY","UT",84116,40.7791859530001,-111.928430664,450,"445 N 1300 W, SALT LAKE CITY, UT, 84116","Match","Exact","445 N 1300 W, SALT LAKE CITY, UT, 84116",176066091,"L"
215451,"445 N 5TH STREET","AUBURN","IL",62615,39.594225952,-89.746445522,451,"445 N 5TH STREET, AUBURN, IL, 62615","Match","Exact","445 N 5TH ST, AUBURN, IL, 62615",97318292,"R"
215452,"445 N AMELIA AVE APT 31F","SAN DIMAS","CA",91773,34.1102689470001,-117.820193606,452,"445 N AMELIA AVE APT 31F, SAN DIMAS, CA, 91773","Match","Non_Exact","445 N AMELIA AVE, SAN DIMAS, CA, 91773",142839223,"L"
215453,"445 N BROAD","FREMONT","NE",68025,41.433733972,-96.498739305,453,"445 N BROAD, FREMONT, NE, 68025","Match","Non_Exact","445 N BROAD ST, FREMONT, NE, 68025",638908596,"L"
215454,"445 N EMPORIA","WICHITA","KS",67202,37.6924921460001,-97.3329769919999,454,"445 N EMPORIA, WICHITA, KS, 67202","Match","Non_Exact","445 N EMPORIA ST, WICHITA, KS, 67202",115635261,"L"
215455,"445 N GARFIELD AVE 217","PASADENA","CA",91101,34.1535315670001,-118.144499824,455,"445 N GARFIELD AVE 217, PASADENA, CA, 91101","Match","Non_Exact","445 N GARFIELD AVE, PASADENA, CA, 91101",141628695,"L"
215456,"445 N PENNSYLVANIA SUITE 941","INDIANAPOLIS","IN",46204,NA,NA,456,"445 N PENNSYLVANIA SUITE 941, INDIANAPOLIS, IN, 46204","No_Match",NA,NA,NA,NA
215457,"445 NOQUET CT","FT COLLINS","CO",80524,NA,NA,457,"445 NOQUET CT, FT COLLINS, CO, 80524","No_Match",NA,NA,NA,NA
215458,"445 NORTH DRAKE AVENUE 1S","CHICAGO","IL",60624,41.889171414,-87.714902733,458,"445 NORTH DRAKE AVENUE 1S, CHICAGO, IL, 60624","Match","Exact","445 N DRAKE AVE, CHICAGO, IL, 60624",605043477,"R"
215459,"445 OFARRELL STREET  SUITE 330","SAN FRANCISCO","CA",94102,37.7858988500001,-122.412078249,459,"445 OFARRELL STREET  SUITE 330, SAN FRANCISCO, CA, 94102","Match","Exact","445 OFARRELL ST, SAN FRANCISCO, CA, 94102",192280928,"L"
215460,"445 PARK AVENUE 9TH FL","NEW YORK","NY",10022,40.761177499,-73.9710572179999,460,"445 PARK AVENUE 9TH FL, NEW YORK, NY, 10022","Match","Exact","445 PARK AVE, NEW YORK, NY, 10022",59657481,"R"
215461,"445 PARK AVENUE 9TH FLOOR","NEW YORK","NY",10022,40.761177499,-73.9710572179999,461,"445 PARK AVENUE 9TH FLOOR, NEW YORK, NY, 10022","Match","Exact","445 PARK AVE, NEW YORK, NY, 10022",59657481,"R"
215462,"445 PARK AVENUE","EAST ORANGE","NJ",7017,40.769014569,-74.209887965,462,"445 PARK AVENUE, EAST ORANGE, NJ, 7017","Match","Exact","445 PARK AVE, EAST ORANGE, NJ, 07017",63451444,"L"
215463,"445 PARK AVENUE","ZANESVILLE","OH",43701,39.9863163000001,-82.0052671449999,463,"445 PARK AVENUE, ZANESVILLE, OH, 43701","Match","Exact","445 PARK AVE, ZANESVILLE, OH, 43701",45593865,"L"
215464,"445 PARKER STREET","STANHOPE","IA",50246,42.2884364780001,-93.7960047879999,464,"445 PARKER STREET, STANHOPE, IA, 50246","Match","Exact","445 PARKER ST, STANHOPE, IA, 50246",65744344,"L"
215465,"445 PARKINSON AVENUE","HAMILTON","NJ",8610,40.2011465190001,-74.725014207,465,"445 PARKINSON AVENUE, HAMILTON, NJ, 8610","Match","Exact","445 PARKINSON AVE, HAMILTON, NJ, 08610",60183245,"R"
215466,"445 PENNSYLVANIA AVE","WILLISTON PARK","NY",11596,40.754809531,-73.639817573,466,"445 PENNSYLVANIA AVE, WILLISTON PARK, NY, 11596","Match","Exact","445 PENNSYLVANIA AVE, WILLISTON PARK, NY, 11596",147664375,"L"
215467,"445 PORTAL ST STE 2","COTATI","CA",94931,38.3420954310001,-122.7161838,467,"445 PORTAL ST STE 2, COTATI, CA, 94931","Match","Exact","445 PORTAL ST, COTATI, CA, 94931",67472432,"L"
215468,"445 PROSPECT AVE","HOT SPRINGS","AR",71901,34.5082778550001,-93.059124427,468,"445 PROSPECT AVE, HOT SPRINGS, AR, 71901","Match","Exact","445 PROSPECT AVE, HOT SPRINGS, AR, 71901",22744507,"R"
215469,"445 RIVER MIST DRIVE","SUWANEE","GA",30024,34.1236185600001,-84.1028135239999,469,"445 RIVER MIST DRIVE, SUWANEE, GA, 30024","Match","Exact","445 RIVER MIST DR, SUWANEE, GA, 30024",647937704,"R"
215470,"445 ROSEWOOD AVENUE STE C","CAMARILLO","CA",93010,34.2206925340001,-119.061596763,470,"445 ROSEWOOD AVENUE STE C, CAMARILLO, CA, 93010","Match","Exact","445 ROSEWOOD AVE, CAMARILLO, CA, 93010",109960137,"L"
215471,"445 ROYAL CREST CIRCLE","RANCHO CORDOVA","CA",95670,38.6117405750001,-121.269382549,471,"445 ROYAL CREST CIRCLE, RANCHO CORDOVA, CA, 95670","Match","Exact","445 ROYAL CREST CIR, RANCHO CORDOVA, CA, 95670",133347121,"L"
215472,"445 S FIGUEROA ST STE 3100","LOS ANGELES","CA",90071,34.0523758370001,-118.257061433,472,"445 S FIGUEROA ST STE 3100, LOS ANGELES, CA, 90071","Match","Non_Exact","445 S FIGUEROA ST, LOS ANGELES, CA, 90071",142732522,"R"
215473,"445 S FIGUEROA STREET SUITE 3100","LOS ANGELES","CA",90071,34.0523758370001,-118.257061433,473,"445 S FIGUEROA STREET SUITE 3100, LOS ANGELES, CA, 90071","Match","Non_Exact","445 S FIGUEROA ST, LOS ANGELES, CA, 90071",142732522,"R"
215474,"445 S HWY 27 SUITE 101","SOMERSET","KY",42501,NA,NA,474,"445 S HWY 27 SUITE 101, SOMERSET, KY, 42501","No_Match",NA,NA,NA,NA
215475,"445 S ST NW","WASHINGTON","DC",20001,38.914092155,-77.0183648129999,475,"445 S ST NW, WASHINGTON, DC, 20001","Match","Exact","445 S ST NW, WASHINGTON, DC, 20001",76224468,"R"
215476,"445 S WESTERN ST","AMARILLO","TX",79106,35.21276234,-101.884014499,476,"445 S WESTERN ST, AMARILLO, TX, 79106","Match","Exact","445 S WESTERN ST, AMARILLO, TX, 79106",182469172,"L"
215477,"445 SHERMAN AVENUE UNIT 203","EVANSTON","IL",60202,42.0260553530001,-87.6823082019999,477,"445 SHERMAN AVENUE UNIT 203, EVANSTON, IL, 60202","Match","Exact","445 SHERMAN AVE, EVANSTON, IL, 60202",605252685,"R"
215478,"445 SOUTH FIGUEROA STREET STE 3100","LOS ANGELES","CA",90071,34.052751776,-118.256708005,478,"445 SOUTH FIGUEROA STREET STE 3100, LOS ANGELES, CA, 90071","Match","Exact","445 S FIGUEROA ST, LOS ANGELES, CA, 90071",142732522,"R"
215479,"445 SOUTH FOURTH STREET","SAGINAW","MI",48601,43.4261720420001,-83.927838374,479,"445 SOUTH FOURTH STREET, SAGINAW, MI, 48601","Match","Non_Exact","445 S 4TH AVE, SAGINAW, MI, 48601",80212364,"R"
215480,"445 SUNSET OAKS DR","FORT WORTH","TX",76112,32.774013268,-97.217056435,480,"445 SUNSET OAKS DR, FORT WORTH, TX, 76112","Match","Exact","445 SUNSET OAKS DR, FORT WORTH, TX, 76112",102106625,"L"
215481,"445 SW SAGINAW AVE","PORT SAINT LUCIE","FL",34953,27.2194371910001,-80.341219216,481,"445 SW SAGINAW AVE, PORT SAINT LUCIE, FL, 34953","Match","Exact","445 SW SAGINAW AVE, PORT ST LUCIE, FL, 34953",120170822,"L"
215482,"445 TIMBERIDGE TRAIL","GATES MILLS","OH",44040,41.5586396830001,-81.403149863,482,"445 TIMBERIDGE TRAIL, GATES MILLS, OH, 44040","Match","Exact","445 TIMBERIDGE TRL, GATES MILLS, OH, 44040",638754865,"L"
215483,"445 TURNER TER","SAN MATEO","CA",94401,37.5720247470001,-122.334366181,483,"445 TURNER TER, SAN MATEO, CA, 94401","Match","Exact","445 TURNER TER, SAN MATEO, CA, 94401",192377471,"L"
215484,"445 UNION BLVD STE 207","LAKEWOOD","CO",80228,39.723384853,-105.132081205,484,"445 UNION BLVD STE 207, LAKEWOOD, CO, 80228","Match","Exact","445 UNION BLVD, LAKEWOOD, CO, 80228",637065070,"L"
215485,"445 UNION BLVD SUITE 105","LAKEWOOD","CO",80228,39.723384853,-105.132081205,485,"445 UNION BLVD SUITE 105, LAKEWOOD, CO, 80228","Match","Exact","445 UNION BLVD, LAKEWOOD, CO, 80228",637065070,"L"
215486,"445 VISTA DR","POCATELLO","ID",83201,42.882773758,-112.418205816,486,"445 VISTA DR, POCATELLO, ID, 83201","Match","Exact","445 VISTA DR, POCATELLO, ID, 83201",647655002,"L"
215487,"445 W BLOUNT AVE APT 216","KNOXVILLE","TN",37920,35.9520857900001,-83.9194021229999,487,"445 W BLOUNT AVE APT 216, KNOXVILLE, TN, 37920","Match","Non_Exact","445 W BLOUNT AVE, KNOXVILLE, TN, 37920",645245468,"R"
215488,"445 W LINCOLN ST BOX 256","UTICA","IL",61373,41.3434122720001,-89.0129944239999,488,"445 W LINCOLN ST BOX 256, UTICA, IL, 61373","Match","Non_Exact","445 W LINCOLN ST, UTICA, IL, 61373",8604553,"R"
215489,"445 W STATE ROAD 436 SUITE 1013","ALTAMONTE SPRINGS","FL",32714,NA,NA,489,"445 W STATE ROAD 436 SUITE 1013, ALTAMONTE SPRINGS, FL, 32714","No_Match",NA,NA,NA,NA
215490,"445 W WEBER AVENUE SUITE 221","STOCKTON","CA",95203,37.9545100350001,-121.285548324,490,"445 W WEBER AVENUE SUITE 221, STOCKTON, CA, 95203","Match","Non_Exact","445 WEBER AVE, STOCKTON, CA, 95202",133850498,"L"
215491,"445 W WEBER STE 220","STOCKTON","CA",95203,NA,NA,491,"445 W WEBER STE 220, STOCKTON, CA, 95203","No_Match",NA,NA,NA,NA
215492,"445 WASHINGTON STREET","ROYERSFORD","PA",19468,40.1843589650001,-75.536271793,492,"445 WASHINGTON STREET, ROYERSFORD, PA, 19468","Match","Exact","445 WASHINGTON ST, ROYERSFORD, PA, 19468",135065696,"L"
215493,"445 WEST 119TH STREET","CHICAGO","IL",60628,41.677900746,-87.633779422,493,"445 WEST 119TH STREET, CHICAGO, IL, 60628","Match","Exact","445 W 119TH ST, CHICAGO, IL, 60628",111833798,"L"
215494,"445 WEST FOOTHILL BLVD","CLAREMONT","CA",91711,NA,NA,494,"445 WEST FOOTHILL BLVD, CLAREMONT, CA, 91711","No_Match",NA,NA,NA,NA
215495,"445 WEST GLOVER RD     P O BOX 156","IRASBURG","VT",5845,44.781977001,-72.2735868079999,495,"445 WEST GLOVER RD     P O BOX 156, IRASBURG, VT, 5845","Match","Exact","445 W GLOVER RD, IRASBURG, VT, 05845",196775465,"R"
215496,"445 WEST MAIN STREET","CLARKSBURG","WV",26301,39.2798354940001,-80.341659893,496,"445 WEST MAIN STREET, CLARKSBURG, WV, 26301","Match","Exact","445 W MAIN ST, CLARKSBURG, WV, 26301",616265540,"L"
215497,"445 WEYLAND RD","HAMPTON","VA",23665,NA,NA,497,"445 WEYLAND RD, HAMPTON, VA, 23665","No_Match",NA,NA,NA,NA
215498,"445 WINDY HILL ROAD SE SUITE 125","MARIETTA","GA",30060,33.8945503740001,-84.540921055,498,"445 WINDY HILL ROAD SE SUITE 125, MARIETTA, GA, 30060","Match","Exact","445 WINDY HILL RD SE, MARIETTA, GA, 30060",17252617,"L"
215499,"4450 40TH ST","SAN DIEGO","CA",92116,32.757968674,-117.109298321,499,"4450 40TH ST, SAN DIEGO, CA, 92116","Match","Exact","4450 40TH ST, SAN DIEGO, CA, 92116",195346639,"L"
215500,"4450 APPLEWOOD DRIVE SE","KENTWOOD","MI",49508,42.882187651,-85.611808348,500,"4450 APPLEWOOD DRIVE SE, KENTWOOD, MI, 49508","Match","Exact","4450 APPLEWOOD DR SE, KENTWOOD, MI, 49508",12465479,"L"
