"ID","Address","City","State","Zip","lat","long","id","input_address","match_indicator","match_type","matched_address","tiger_line_id","tiger_side"
336501,"PO BOX 172","UNIONVILLE","NY",10988,NA,NA,1,"PO BOX 172, UNIONVILLE, NY, 10988","No_Match",NA,NA,NA,NA
336502,"PO BOX 172","WALWORTH","NY",14568,NA,NA,2,"PO BOX 172, WALWORTH, NY, 14568","No_Match",NA,NA,NA,NA
336503,"PO BOX 172","WEATOGUE","CT",6089,NA,NA,3,"PO BOX 172, WEATOGUE, CT, 6089","No_Match",NA,NA,NA,NA
336504,"PO BOX 1720","GAINESVILLE","GA",30503,NA,NA,4,"PO BOX 1720, GAINESVILLE, GA, 30503","No_Match",NA,NA,NA,NA
336505,"PO BOX 1720","LYNN HAVEN","FL",32444,NA,NA,5,"PO BOX 1720, LYNN HAVEN, FL, 32444","No_Match",NA,NA,NA,NA
336506,"PO BOX 1720","MALVERN","AR",72104,NA,NA,6,"PO BOX 1720, MALVERN, AR, 72104","No_Match",NA,NA,NA,NA
336507,"PO BOX 1720","SEFFNER","FL",33583,NA,NA,7,"PO BOX 1720, SEFFNER, FL, 33583","No_Match",NA,NA,NA,NA
336508,"PO BOX 172065","MEMPHIS","TN",38187,NA,NA,8,"PO BOX 172065, MEMPHIS, TN, 38187","No_Match",NA,NA,NA,NA
336509,"PO BOX 1721","BISBEE","AZ",85603,NA,NA,9,"PO BOX 1721, BISBEE, AZ, 85603","No_Match",NA,NA,NA,NA
336510,"PO BOX 1721","LULING","LA",70070,NA,NA,10,"PO BOX 1721, LULING, LA, 70070","No_Match",NA,NA,NA,NA
336511,"PO BOX 1721","MENA","AR",71953,NA,NA,11,"PO BOX 1721, MENA, AR, 71953","No_Match",NA,NA,NA,NA
336512,"PO BOX 1721","WAILUKU","HI",96793,NA,NA,12,"PO BOX 1721, WAILUKU, HI, 96793","No_Match",NA,NA,NA,NA
336513,"PO BOX 17218","CINCINNATI","OH",45217,NA,NA,13,"PO BOX 17218, CINCINNATI, OH, 45217","No_Match",NA,NA,NA,NA
336514,"PO BOX 172196","KANSAS CITY","KS",66112,NA,NA,14,"PO BOX 172196, KANSAS CITY, KS, 66112","No_Match",NA,NA,NA,NA
336515,"PO BOX 1722","ALBANY","OR",97321,NA,NA,15,"PO BOX 1722, ALBANY, OR, 97321","No_Match",NA,NA,NA,NA
336516,"PO BOX 1722","EASTLAKE","CO",80023,NA,NA,16,"PO BOX 1722, EASTLAKE, CO, 80023","No_Match",NA,NA,NA,NA
336517,"PO BOX 172221","DENVER","CO",80239,NA,NA,17,"PO BOX 172221, DENVER, CO, 80239","No_Match",NA,NA,NA,NA
336518,"PO BOX 172234","MEMPHIS","TN",38187,NA,NA,18,"PO BOX 172234, MEMPHIS, TN, 38187","No_Match",NA,NA,NA,NA
336519,"PO BOX 172236","KANSAS CITY","KS",66117,NA,NA,19,"PO BOX 172236, KANSAS CITY, KS, 66117","No_Match",NA,NA,NA,NA
336520,"PO BOX 172240","BOZEMAN","MT",59717,NA,NA,20,"PO BOX 172240, BOZEMAN, MT, 59717","No_Match",NA,NA,NA,NA
336521,"PO BOX 17225","CLEARWATER","FL",33762,NA,NA,21,"PO BOX 17225, CLEARWATER, FL, 33762","No_Match",NA,NA,NA,NA
336522,"PO BOX 1723","JAMESTOWN","NC",27282,NA,NA,22,"PO BOX 1723, JAMESTOWN, NC, 27282","No_Match",NA,NA,NA,NA
336523,"PO BOX 1723","YAZOO CITY","MS",39194,NA,NA,23,"PO BOX 1723, YAZOO CITY, MS, 39194","No_Match",NA,NA,NA,NA
336524,"PO BOX 172340","BOZEMAN","MT",59717,NA,NA,24,"PO BOX 172340, BOZEMAN, MT, 59717","No_Match",NA,NA,NA,NA
336525,"PO BOX 1724","BELLMAWR","NJ",8099,NA,NA,25,"PO BOX 1724, BELLMAWR, NJ, 8099","No_Match",NA,NA,NA,NA
336526,"PO BOX 1724","BRAZORIA","TX",77422,NA,NA,26,"PO BOX 1724, BRAZORIA, TX, 77422","No_Match",NA,NA,NA,NA
336527,"PO BOX 1724","FOLLY BEACH","SC",29439,NA,NA,27,"PO BOX 1724, FOLLY BEACH, SC, 29439","No_Match",NA,NA,NA,NA
336528,"PO BOX 1724","INDIAN TRAIL","NC",28079,NA,NA,28,"PO BOX 1724, INDIAN TRAIL, NC, 28079","No_Match",NA,NA,NA,NA
336529,"PO BOX 1724","JACKSONVILLE","NC",28541,NA,NA,29,"PO BOX 1724, JACKSONVILLE, NC, 28541","No_Match",NA,NA,NA,NA
336530,"PO BOX 1724","LOMITA","CA",90717,NA,NA,30,"PO BOX 1724, LOMITA, CA, 90717","No_Match",NA,NA,NA,NA
336531,"PO BOX 1724","MARINA","CA",93933,NA,NA,31,"PO BOX 1724, MARINA, CA, 93933","No_Match",NA,NA,NA,NA
336532,"PO BOX 1724","WINNEMUCCA","NV",89446,NA,NA,32,"PO BOX 1724, WINNEMUCCA, NV, 89446","No_Match",NA,NA,NA,NA
336533,"PO BOX 17241","MINNEAPOLIS","MN",55417,NA,NA,33,"PO BOX 17241, MINNEAPOLIS, MN, 55417","No_Match",NA,NA,NA,NA
336534,"PO BOX 17242","CLEARWATER","FL",33762,NA,NA,34,"PO BOX 17242, CLEARWATER, FL, 33762","No_Match",NA,NA,NA,NA
336535,"PO BOX 17242","DAYTON","OH",45417,NA,NA,35,"PO BOX 17242, DAYTON, OH, 45417","No_Match",NA,NA,NA,NA
336536,"PO BOX 17242","PITTSBURGH","PA",15235,NA,NA,36,"PO BOX 17242, PITTSBURGH, PA, 15235","No_Match",NA,NA,NA,NA
336537,"PO BOX 17243","WINSTON-SALEM","NC",27116,NA,NA,37,"PO BOX 17243, WINSTON-SALEM, NC, 27116","No_Match",NA,NA,NA,NA
336538,"PO BOX 1725","BETHANY","OK",73008,NA,NA,38,"PO BOX 1725, BETHANY, OK, 73008","No_Match",NA,NA,NA,NA
336539,"PO BOX 1725","DUBLIN","GA",31075,NA,NA,39,"PO BOX 1725, DUBLIN, GA, 31075","No_Match",NA,NA,NA,NA
336540,"PO BOX 1725","FLORENCE","SC",29501,NA,NA,40,"PO BOX 1725, FLORENCE, SC, 29501","No_Match",NA,NA,NA,NA
336541,"PO BOX 1725","KAMUELA","HI",96743,NA,NA,41,"PO BOX 1725, KAMUELA, HI, 96743","No_Match",NA,NA,NA,NA
336542,"PO BOX 17250","PORTLAND","OR",97217,NA,NA,42,"PO BOX 17250, PORTLAND, OR, 97217","No_Match",NA,NA,NA,NA
336543,"PO BOX 172504","TAMPA","FL",33672,NA,NA,43,"PO BOX 172504, TAMPA, FL, 33672","No_Match",NA,NA,NA,NA
336544,"PO BOX 17254","HOLLADAY","UT",84117,NA,NA,44,"PO BOX 17254, HOLLADAY, UT, 84117","No_Match",NA,NA,NA,NA
336545,"PO BOX 172552","ARLINGTON","TX",76003,NA,NA,45,"PO BOX 172552, ARLINGTON, TX, 76003","No_Match",NA,NA,NA,NA
336546,"PO BOX 1726","BETTENDORF","IA",52722,NA,NA,46,"PO BOX 1726, BETTENDORF, IA, 52722","No_Match",NA,NA,NA,NA
336547,"PO BOX 1726","GAYLORD","MI",40734,NA,NA,47,"PO BOX 1726, GAYLORD, MI, 40734","No_Match",NA,NA,NA,NA
336548,"PO BOX 1726","NEW CITY","NY",10956,NA,NA,48,"PO BOX 1726, NEW CITY, NY, 10956","No_Match",NA,NA,NA,NA
336549,"PO BOX 1726","WHITE PLAINS","MD",20695,NA,NA,49,"PO BOX 1726, WHITE PLAINS, MD, 20695","No_Match",NA,NA,NA,NA
336550,"PO BOX 17267","LITTLE ROCK","AR",72222,NA,NA,50,"PO BOX 17267, LITTLE ROCK, AR, 72222","No_Match",NA,NA,NA,NA
336551,"PO BOX 1727","JACKSON","WY",83001,NA,NA,51,"PO BOX 1727, JACKSON, WY, 83001","No_Match",NA,NA,NA,NA
336552,"PO BOX 172734","SPARTANBURG","SC",29301,NA,NA,52,"PO BOX 172734, SPARTANBURG, SC, 29301","No_Match",NA,NA,NA,NA
336553,"PO BOX 172798","ARLINGTON","TX",76003,NA,NA,53,"PO BOX 172798, ARLINGTON, TX, 76003","No_Match",NA,NA,NA,NA
336554,"PO BOX 1728","ELK CITY","OK",73648,NA,NA,54,"PO BOX 1728, ELK CITY, OK, 73648","No_Match",NA,NA,NA,NA
336555,"PO BOX 1728","HEMPHILL","TX",75948,NA,NA,55,"PO BOX 1728, HEMPHILL, TX, 75948","No_Match",NA,NA,NA,NA
336556,"PO BOX 1728","MATTAWA","WA",99349,NA,NA,56,"PO BOX 1728, MATTAWA, WA, 99349","No_Match",NA,NA,NA,NA
336557,"PO BOX 172811","ARLINGTON","TX",76003,NA,NA,57,"PO BOX 172811, ARLINGTON, TX, 76003","No_Match",NA,NA,NA,NA
336558,"PO BOX 172886","HIALEAH","FL",33017,NA,NA,58,"PO BOX 172886, HIALEAH, FL, 33017","No_Match",NA,NA,NA,NA
336559,"PO BOX 1729","MOSES LAKE","WA",98837,NA,NA,59,"PO BOX 1729, MOSES LAKE, WA, 98837","No_Match",NA,NA,NA,NA
336560,"PO BOX 17292","NASHVILLE","TN",37217,NA,NA,60,"PO BOX 17292, NASHVILLE, TN, 37217","No_Match",NA,NA,NA,NA
336561,"PO BOX 17292","ST PAUL","MN",55117,NA,NA,61,"PO BOX 17292, ST PAUL, MN, 55117","No_Match",NA,NA,NA,NA
336562,"PO BOX 173  /  2567 CR 420","STOCKDALE","TX",78160,29.2651189790001,-97.9583603459999,62,"PO BOX 173  /  2567 CR 420, STOCKDALE, TX, 78160","Match","Exact","2567 CO RD 420, STOCKDALE, TX, 78160",634898438,"L"
336563,"PO BOX 173","ARNOT","PA",16911,NA,NA,63,"PO BOX 173, ARNOT, PA, 16911","No_Match",NA,NA,NA,NA
336564,"PO BOX 173","ATLASBURG","PA",15004,NA,NA,64,"PO BOX 173, ATLASBURG, PA, 15004","No_Match",NA,NA,NA,NA
336565,"PO BOX 173","AYNOR","SC",29511,NA,NA,65,"PO BOX 173, AYNOR, SC, 29511","No_Match",NA,NA,NA,NA
336566,"PO BOX 173","CENTER VALLEY","PA",18034,NA,NA,66,"PO BOX 173, CENTER VALLEY, PA, 18034","No_Match",NA,NA,NA,NA
336567,"PO BOX 173","CHATHAM","NJ",7928,NA,NA,67,"PO BOX 173, CHATHAM, NJ, 7928","No_Match",NA,NA,NA,NA
336568,"PO BOX 173","COGAN STATION","PA",17728,NA,NA,68,"PO BOX 173, COGAN STATION, PA, 17728","No_Match",NA,NA,NA,NA
336569,"PO BOX 173","DANVILLE","VT",5828,NA,NA,69,"PO BOX 173, DANVILLE, VT, 5828","No_Match",NA,NA,NA,NA
336570,"PO BOX 173","HOQUIAM","WA",98550,NA,NA,70,"PO BOX 173, HOQUIAM, WA, 98550","No_Match",NA,NA,NA,NA
336571,"PO BOX 173","HULBERT","MI",49748,NA,NA,71,"PO BOX 173, HULBERT, MI, 49748","No_Match",NA,NA,NA,NA
336572,"PO BOX 173","HURON","OH",44839,NA,NA,72,"PO BOX 173, HURON, OH, 44839","No_Match",NA,NA,NA,NA
336573,"PO BOX 173","IRWIN","PA",15642,NA,NA,73,"PO BOX 173, IRWIN, PA, 15642","No_Match",NA,NA,NA,NA
336574,"PO BOX 173","JAMESTOWN","NC",27282,NA,NA,74,"PO BOX 173, JAMESTOWN, NC, 27282","No_Match",NA,NA,NA,NA
336575,"PO BOX 173","LAKEMONT","GA",30552,NA,NA,75,"PO BOX 173, LAKEMONT, GA, 30552","No_Match",NA,NA,NA,NA
336576,"PO BOX 173","LANCASTER","OH",43130,NA,NA,76,"PO BOX 173, LANCASTER, OH, 43130","No_Match",NA,NA,NA,NA
336577,"PO BOX 173","MINERAL WELLS","WV",26150,NA,NA,77,"PO BOX 173, MINERAL WELLS, WV, 26150","No_Match",NA,NA,NA,NA
336578,"PO BOX 173","MORTON","WA",98356,NA,NA,78,"PO BOX 173, MORTON, WA, 98356","No_Match",NA,NA,NA,NA
336579,"PO BOX 173","OGDENSBURG","NJ",7439,NA,NA,79,"PO BOX 173, OGDENSBURG, NJ, 7439","No_Match",NA,NA,NA,NA
336580,"PO BOX 173","PLYMOUTH","IN",46563,NA,NA,80,"PO BOX 173, PLYMOUTH, IN, 46563","No_Match",NA,NA,NA,NA
336581,"PO BOX 173","SPLENDORA","TX",77372,NA,NA,81,"PO BOX 173, SPLENDORA, TX, 77372","No_Match",NA,NA,NA,NA
336582,"PO BOX 173","STOUGHTON","WI",53589,NA,NA,82,"PO BOX 173, STOUGHTON, WI, 53589","No_Match",NA,NA,NA,NA
336583,"PO BOX 173","VALLEY CENTER","CA",92082,NA,NA,83,"PO BOX 173, VALLEY CENTER, CA, 92082","No_Match",NA,NA,NA,NA
336584,"PO BOX 173","WIMAUMA","FL",33598,NA,NA,84,"PO BOX 173, WIMAUMA, FL, 33598","No_Match",NA,NA,NA,NA
336585,"PO BOX 173","WINFALL","NC",27985,NA,NA,85,"PO BOX 173, WINFALL, NC, 27985","No_Match",NA,NA,NA,NA
336586,"PO BOX 173","WINNABOW","NC",28479,NA,NA,86,"PO BOX 173, WINNABOW, NC, 28479","No_Match",NA,NA,NA,NA
336587,"PO BOX 173","WREN","OH",45899,NA,NA,87,"PO BOX 173, WREN, OH, 45899","No_Match",NA,NA,NA,NA
336588,"PO BOX 1730","MONUMENT","CO",80132,NA,NA,88,"PO BOX 1730, MONUMENT, CO, 80132","No_Match",NA,NA,NA,NA
336589,"PO BOX 17301","WICHITA","KS",67217,NA,NA,89,"PO BOX 17301, WICHITA, KS, 67217","No_Match",NA,NA,NA,NA
336590,"PO BOX 17304","MEMPHIS","TN",38187,NA,NA,90,"PO BOX 17304, MEMPHIS, TN, 38187","No_Match",NA,NA,NA,NA
336591,"PO BOX 17307","STAMFORD","CT",6907,NA,NA,91,"PO BOX 17307, STAMFORD, CT, 6907","No_Match",NA,NA,NA,NA
336592,"PO BOX 173075","BOZEMAN","MT",59717,NA,NA,92,"PO BOX 173075, BOZEMAN, MT, 59717","No_Match",NA,NA,NA,NA
336593,"PO BOX 1731","UNION","NJ",7083,NA,NA,93,"PO BOX 1731, UNION, NJ, 7083","No_Match",NA,NA,NA,NA
336594,"PO BOX 1732","BIRMINGHAM","AL",35201,NA,NA,94,"PO BOX 1732, BIRMINGHAM, AL, 35201","No_Match",NA,NA,NA,NA
336595,"PO BOX 1732","BLAIRSVILLE","GA",30514,NA,NA,95,"PO BOX 1732, BLAIRSVILLE, GA, 30514","No_Match",NA,NA,NA,NA
336596,"PO BOX 1732","BUFFALO","NY",14215,NA,NA,96,"PO BOX 1732, BUFFALO, NY, 14215","No_Match",NA,NA,NA,NA
336597,"PO BOX 1732","CROSS CITY","FL",32628,NA,NA,97,"PO BOX 1732, CROSS CITY, FL, 32628","No_Match",NA,NA,NA,NA
336598,"PO BOX 1732","FREEDOM","CA",95019,NA,NA,98,"PO BOX 1732, FREEDOM, CA, 95019","No_Match",NA,NA,NA,NA
336599,"PO BOX 1733","CLAYTON","NC",27528,NA,NA,99,"PO BOX 1733, CLAYTON, NC, 27528","No_Match",NA,NA,NA,NA
336600,"PO BOX 1733","ELYRIA","OH",44035,NA,NA,100,"PO BOX 1733, ELYRIA, OH, 44035","No_Match",NA,NA,NA,NA
336601,"PO BOX 1733","ELYRIA","OH",44036,NA,NA,101,"PO BOX 1733, ELYRIA, OH, 44036","No_Match",NA,NA,NA,NA
336602,"PO BOX 1733","LINCOLNTON","NC",28033,NA,NA,102,"PO BOX 1733, LINCOLNTON, NC, 28033","No_Match",NA,NA,NA,NA
336603,"PO BOX 1733","OAK BLUFFS","MA",2557,NA,NA,103,"PO BOX 1733, OAK BLUFFS, MA, 2557","No_Match",NA,NA,NA,NA
336604,"PO BOX 1733","STOW","OH",44224,NA,NA,104,"PO BOX 1733, STOW, OH, 44224","No_Match",NA,NA,NA,NA
336605,"PO BOX 17332","SUGAR LAND","TX",77496,NA,NA,105,"PO BOX 17332, SUGAR LAND, TX, 77496","No_Match",NA,NA,NA,NA
336606,"PO BOX 17335","STAMFORD","CT",6907,NA,NA,106,"PO BOX 17335, STAMFORD, CT, 6907","No_Match",NA,NA,NA,NA
336607,"PO BOX 173362","DENVER","CO",80217,NA,NA,107,"PO BOX 173362, DENVER, CO, 80217","No_Match",NA,NA,NA,NA
336608,"PO BOX 173372","TAMPA","FL",33672,NA,NA,108,"PO BOX 173372, TAMPA, FL, 33672","No_Match",NA,NA,NA,NA
336609,"PO BOX 1734","ARANSAS PASS","TX",78335,NA,NA,109,"PO BOX 1734, ARANSAS PASS, TX, 78335","No_Match",NA,NA,NA,NA
336610,"PO BOX 1734","BUFORD","GA",30518,NA,NA,110,"PO BOX 1734, BUFORD, GA, 30518","No_Match",NA,NA,NA,NA
336611,"PO BOX 1734","CLINTON","NC",28329,NA,NA,111,"PO BOX 1734, CLINTON, NC, 28329","No_Match",NA,NA,NA,NA
336612,"PO BOX 1734","CROSSVILLE","TN",38558,NA,NA,112,"PO BOX 1734, CROSSVILLE, TN, 38558","No_Match",NA,NA,NA,NA
336613,"PO BOX 1734","MOUNT VERNON","WA",98273,NA,NA,113,"PO BOX 1734, MOUNT VERNON, WA, 98273","No_Match",NA,NA,NA,NA
336614,"PO BOX 1734","NATCHEZ","MS",39121,NA,NA,114,"PO BOX 1734, NATCHEZ, MS, 39121","No_Match",NA,NA,NA,NA
336615,"PO BOX 1734","PORTER","TX",77365,NA,NA,115,"PO BOX 1734, PORTER, TX, 77365","No_Match",NA,NA,NA,NA
336616,"PO BOX 1734","WASHINGTON","DC",20013,NA,NA,116,"PO BOX 1734, WASHINGTON, DC, 20013","No_Match",NA,NA,NA,NA
336617,"PO BOX 1735","BETHEL","AK",99559,NA,NA,117,"PO BOX 1735, BETHEL, AK, 99559","No_Match",NA,NA,NA,NA
336618,"PO BOX 1735","CRYSTAL RIVER","FL",34429,NA,NA,118,"PO BOX 1735, CRYSTAL RIVER, FL, 34429","No_Match",NA,NA,NA,NA
336619,"PO BOX 1735","EAGLE BUTTE","SD",57625,NA,NA,119,"PO BOX 1735, EAGLE BUTTE, SD, 57625","No_Match",NA,NA,NA,NA
336620,"PO BOX 1735","ESTES PARK","CO",80517,NA,NA,120,"PO BOX 1735, ESTES PARK, CO, 80517","No_Match",NA,NA,NA,NA
336621,"PO BOX 1735","STOCKBRIDGE","GA",30281,NA,NA,121,"PO BOX 1735, STOCKBRIDGE, GA, 30281","No_Match",NA,NA,NA,NA
336622,"PO BOX 1735","TAVERNIER","FL",33070,NA,NA,122,"PO BOX 1735, TAVERNIER, FL, 33070","No_Match",NA,NA,NA,NA
336623,"PO BOX 173562","MIAMI","FL",33017,NA,NA,123,"PO BOX 173562, MIAMI, FL, 33017","No_Match",NA,NA,NA,NA
336624,"PO BOX 173591","TAMPA","FL",33672,NA,NA,124,"PO BOX 173591, TAMPA, FL, 33672","No_Match",NA,NA,NA,NA
336625,"PO BOX 1736","MARTINSBURG","WV",25402,NA,NA,125,"PO BOX 1736, MARTINSBURG, WV, 25402","No_Match",NA,NA,NA,NA
336626,"PO BOX 1736","PENN VALLEY","CA",95946,NA,NA,126,"PO BOX 1736, PENN VALLEY, CA, 95946","No_Match",NA,NA,NA,NA
336627,"PO BOX 1736","ST. PETERSBURG","FL",33631,NA,NA,127,"PO BOX 1736, ST. PETERSBURG, FL, 33631","No_Match",NA,NA,NA,NA
336628,"PO BOX 1737","BRICK","NE",8724,NA,NA,128,"PO BOX 1737, BRICK, NE, 8724","No_Match",NA,NA,NA,NA
336629,"PO BOX 1737","DOVER","DE",19903,NA,NA,129,"PO BOX 1737, DOVER, DE, 19903","No_Match",NA,NA,NA,NA
336630,"PO BOX 17370  LOT 2743","SAINT PAUL","MN",55117,NA,NA,130,"PO BOX 17370  LOT 2743, SAINT PAUL, MN, 55117","No_Match",NA,NA,NA,NA
336631,"PO BOX 17370 LOT 1410","SAINT PAUL","MN",55117,NA,NA,131,"PO BOX 17370 LOT 1410, SAINT PAUL, MN, 55117","No_Match",NA,NA,NA,NA
336632,"PO BOX 17370 LOT 211","SAINT PAUL","MN",55117,NA,NA,132,"PO BOX 17370 LOT 211, SAINT PAUL, MN, 55117","No_Match",NA,NA,NA,NA
336633,"PO BOX 17370 LOT NUMBER 723","SAINT PAUL","MN",55117,NA,NA,133,"PO BOX 17370 LOT NUMBER 723, SAINT PAUL, MN, 55117","No_Match",NA,NA,NA,NA
336634,"PO BOX 1738","BOERNE","TX",78006,NA,NA,134,"PO BOX 1738, BOERNE, TX, 78006","No_Match",NA,NA,NA,NA
336635,"PO BOX 1738","ORMOND BEACH","FL",32175,NA,NA,135,"PO BOX 1738, ORMOND BEACH, FL, 32175","No_Match",NA,NA,NA,NA
336636,"PO BOX 1738","PAONIA","CO",81428,NA,NA,136,"PO BOX 1738, PAONIA, CO, 81428","No_Match",NA,NA,NA,NA
336637,"PO BOX 1738","ROCKLIN","CA",95677,NA,NA,137,"PO BOX 1738, ROCKLIN, CA, 95677","No_Match",NA,NA,NA,NA
336638,"PO BOX 173831","ARLINGTON","TX",76003,NA,NA,138,"PO BOX 173831, ARLINGTON, TX, 76003","No_Match",NA,NA,NA,NA
336639,"PO BOX 173836","DENVER","CO",80217,NA,NA,139,"PO BOX 173836, DENVER, CO, 80217","No_Match",NA,NA,NA,NA
336640,"PO BOX 1739","BREVARD","NC",28712,NA,NA,140,"PO BOX 1739, BREVARD, NC, 28712","No_Match",NA,NA,NA,NA
336641,"PO BOX 1739","CICERO","NY",13039,NA,NA,141,"PO BOX 1739, CICERO, NY, 13039","No_Match",NA,NA,NA,NA
336642,"PO BOX 173963","HIALEAH","FL",33017,NA,NA,142,"PO BOX 173963, HIALEAH, FL, 33017","No_Match",NA,NA,NA,NA
336643,"PO BOX 174 2029B AIRPORT BLVD","MOBILE","AL",36606,NA,NA,143,"PO BOX 174 2029B AIRPORT BLVD, MOBILE, AL, 36606","No_Match",NA,NA,NA,NA
336644,"PO BOX 174","AMERICUS","KS",66835,NA,NA,144,"PO BOX 174, AMERICUS, KS, 66835","No_Match",NA,NA,NA,NA
336645,"PO BOX 174","CANEY","KS",67333,NA,NA,145,"PO BOX 174, CANEY, KS, 67333","No_Match",NA,NA,NA,NA
336646,"PO BOX 174","CENTREVILLE","AL",35042,NA,NA,146,"PO BOX 174, CENTREVILLE, AL, 35042","No_Match",NA,NA,NA,NA
336647,"PO BOX 174","CRANDON","WI",54520,NA,NA,147,"PO BOX 174, CRANDON, WI, 54520","No_Match",NA,NA,NA,NA
336648,"PO BOX 174","DEXTER","MI",48130,NA,NA,148,"PO BOX 174, DEXTER, MI, 48130","No_Match",NA,NA,NA,NA
336649,"PO BOX 174","FALMOUTH","KY",41040,NA,NA,149,"PO BOX 174, FALMOUTH, KY, 41040","No_Match",NA,NA,NA,NA
336650,"PO BOX 174","FISHERS","IN",46038,NA,NA,150,"PO BOX 174, FISHERS, IN, 46038","No_Match",NA,NA,NA,NA
336651,"PO BOX 174","GATESVILLE","TX",76528,NA,NA,151,"PO BOX 174, GATESVILLE, TX, 76528","No_Match",NA,NA,NA,NA
336652,"PO BOX 174","GLENFORD","OH",43739,NA,NA,152,"PO BOX 174, GLENFORD, OH, 43739","No_Match",NA,NA,NA,NA
336653,"PO BOX 174","GRETNA","LA",70054,NA,NA,153,"PO BOX 174, GRETNA, LA, 70054","No_Match",NA,NA,NA,NA
336654,"PO BOX 174","HAMILTON","MT",59840,NA,NA,154,"PO BOX 174, HAMILTON, MT, 59840","No_Match",NA,NA,NA,NA
336655,"PO BOX 174","HILLSBORO","TX",76645,NA,NA,155,"PO BOX 174, HILLSBORO, TX, 76645","No_Match",NA,NA,NA,NA
336656,"PO BOX 174","LAINGSBURG","MI",48848,NA,NA,156,"PO BOX 174, LAINGSBURG, MI, 48848","No_Match",NA,NA,NA,NA
336657,"PO BOX 174","LAKE VILLAGE","IN",46349,NA,NA,157,"PO BOX 174, LAKE VILLAGE, IN, 46349","No_Match",NA,NA,NA,NA
336658,"PO BOX 174","LAWRENCEBURG","TN",38464,NA,NA,158,"PO BOX 174, LAWRENCEBURG, TN, 38464","No_Match",NA,NA,NA,NA
336659,"PO BOX 174","LEWISBERRY","PA",17339,NA,NA,159,"PO BOX 174, LEWISBERRY, PA, 17339","No_Match",NA,NA,NA,NA
336660,"PO BOX 174","MARQUETTE","MI",49855,NA,NA,160,"PO BOX 174, MARQUETTE, MI, 49855","No_Match",NA,NA,NA,NA
336661,"PO BOX 174","MILAN","IN",47041,NA,NA,161,"PO BOX 174, MILAN, IN, 47041","No_Match",NA,NA,NA,NA
336662,"PO BOX 174","MITCHELL","NE",69357,NA,NA,162,"PO BOX 174, MITCHELL, NE, 69357","No_Match",NA,NA,NA,NA
336663,"PO BOX 174","MOUNTAIN VIEW","WY",82939,NA,NA,163,"PO BOX 174, MOUNTAIN VIEW, WY, 82939","No_Match",NA,NA,NA,NA
336664,"PO BOX 174","NAPLES","NY",14512,NA,NA,164,"PO BOX 174, NAPLES, NY, 14512","No_Match",NA,NA,NA,NA
336665,"PO BOX 174","NEOTSU","OR",97364,NA,NA,165,"PO BOX 174, NEOTSU, OR, 97364","No_Match",NA,NA,NA,NA
336666,"PO BOX 174","NEW ALBANY","OH",43054,NA,NA,166,"PO BOX 174, NEW ALBANY, OH, 43054","No_Match",NA,NA,NA,NA
336667,"PO BOX 174","NISLAND","SD",57762,NA,NA,167,"PO BOX 174, NISLAND, SD, 57762","No_Match",NA,NA,NA,NA
336668,"PO BOX 174","PENN YAN","NY",14527,NA,NA,168,"PO BOX 174, PENN YAN, NY, 14527","No_Match",NA,NA,NA,NA
336669,"PO BOX 174","ROSEDALE","IN",47874,NA,NA,169,"PO BOX 174, ROSEDALE, IN, 47874","No_Match",NA,NA,NA,NA
336670,"PO BOX 174","SPRING HILL","TN",37174,NA,NA,170,"PO BOX 174, SPRING HILL, TN, 37174","No_Match",NA,NA,NA,NA
336671,"PO BOX 174","STUTTGART","AR",72160,NA,NA,171,"PO BOX 174, STUTTGART, AR, 72160","No_Match",NA,NA,NA,NA
336672,"PO BOX 174","TAZEWELL","VA",24651,NA,NA,172,"PO BOX 174, TAZEWELL, VA, 24651","No_Match",NA,NA,NA,NA
336673,"PO BOX 174","TROY","TX",76579,NA,NA,173,"PO BOX 174, TROY, TX, 76579","No_Match",NA,NA,NA,NA
336674,"PO BOX 174","UNIONVILLE CENTER","OH",43077,NA,NA,174,"PO BOX 174, UNIONVILLE CENTER, OH, 43077","No_Match",NA,NA,NA,NA
336675,"PO BOX 174","W BURLINGTON","IA",52566,NA,NA,175,"PO BOX 174, W BURLINGTON, IA, 52566","No_Match",NA,NA,NA,NA
336676,"PO BOX 174","WATERBURY","VT",5676,NA,NA,176,"PO BOX 174, WATERBURY, VT, 5676","No_Match",NA,NA,NA,NA
336677,"PO BOX 1740","PLEASANTVILLE","NJ",8232,NA,NA,177,"PO BOX 1740, PLEASANTVILLE, NJ, 8232","No_Match",NA,NA,NA,NA
336678,"PO BOX 1740","WOOSTER","OH",44691,NA,NA,178,"PO BOX 1740, WOOSTER, OH, 44691","No_Match",NA,NA,NA,NA
336679,"PO BOX 17405","WINSTON-SALEM","NC",27116,NA,NA,179,"PO BOX 17405, WINSTON-SALEM, NC, 27116","No_Match",NA,NA,NA,NA
336680,"PO BOX 1741","AMES","IA",50010,NA,NA,180,"PO BOX 1741, AMES, IA, 50010","No_Match",NA,NA,NA,NA
336681,"PO BOX 1741","BOZEMAN","MT",59771,NA,NA,181,"PO BOX 1741, BOZEMAN, MT, 59771","No_Match",NA,NA,NA,NA
336682,"PO BOX 1741","CALHOUN","GA",30703,NA,NA,182,"PO BOX 1741, CALHOUN, GA, 30703","No_Match",NA,NA,NA,NA
336683,"PO BOX 1741","MANOMET","MA",2345,NA,NA,183,"PO BOX 1741, MANOMET, MA, 2345","No_Match",NA,NA,NA,NA
336684,"PO BOX 1741","WENATCHEE","WA",98807,NA,NA,184,"PO BOX 1741, WENATCHEE, WA, 98807","No_Match",NA,NA,NA,NA
336685,"PO BOX 17413","ENCINO","CA",91416,NA,NA,185,"PO BOX 17413, ENCINO, CA, 91416","No_Match",NA,NA,NA,NA
336686,"PO BOX 174195","ARLINGTON","TX",76003,NA,NA,186,"PO BOX 174195, ARLINGTON, TX, 76003","No_Match",NA,NA,NA,NA
336687,"PO BOX 1742","MARINA","CA",93933,NA,NA,187,"PO BOX 1742, MARINA, CA, 93933","No_Match",NA,NA,NA,NA
336688,"PO BOX 1742","PAHOA","HI",96778,NA,NA,188,"PO BOX 1742, PAHOA, HI, 96778","No_Match",NA,NA,NA,NA
336689,"PO BOX 1742","PATERSON","NJ",7509,NA,NA,189,"PO BOX 1742, PATERSON, NJ, 7509","No_Match",NA,NA,NA,NA
336690,"PO BOX 1742","SOUTHERN PINES","NY",28388,NA,NA,190,"PO BOX 1742, SOUTHERN PINES, NY, 28388","No_Match",NA,NA,NA,NA
336691,"PO BOX 1742","STOCKBRIDGE","GA",30281,NA,NA,191,"PO BOX 1742, STOCKBRIDGE, GA, 30281","No_Match",NA,NA,NA,NA
336692,"PO BOX 174200","BOZEMAN","MT",59717,NA,NA,192,"PO BOX 174200, BOZEMAN, MT, 59717","No_Match",NA,NA,NA,NA
336693,"PO BOX 1743","COLUMBIA","SC",29202,NA,NA,193,"PO BOX 1743, COLUMBIA, SC, 29202","No_Match",NA,NA,NA,NA
336694,"PO BOX 1743","ELIZABETHTOWN","NC",28337,NA,NA,194,"PO BOX 1743, ELIZABETHTOWN, NC, 28337","No_Match",NA,NA,NA,NA
336695,"PO BOX 1743","GIRDWOOD","AK",99587,NA,NA,195,"PO BOX 1743, GIRDWOOD, AK, 99587","No_Match",NA,NA,NA,NA
336696,"PO BOX 1743","PORTLAND","ME",4104,NA,NA,196,"PO BOX 1743, PORTLAND, ME, 4104","No_Match",NA,NA,NA,NA
336697,"PO BOX 1743","TALLEVAST","FL",34270,NA,NA,197,"PO BOX 1743, TALLEVAST, FL, 34270","No_Match",NA,NA,NA,NA
336698,"PO BOX 1743","TULSA","OK",74101,NA,NA,198,"PO BOX 1743, TULSA, OK, 74101","No_Match",NA,NA,NA,NA
336699,"PO BOX 17442","OKLAHOMA CITY","OK",73136,NA,NA,199,"PO BOX 17442, OKLAHOMA CITY, OK, 73136","No_Match",NA,NA,NA,NA
336700,"PO BOX 1745","BATAVIA","NY",14020,NA,NA,200,"PO BOX 1745, BATAVIA, NY, 14020","No_Match",NA,NA,NA,NA
336701,"PO BOX 1745","GREENSBORO","NC",27402,NA,NA,201,"PO BOX 1745, GREENSBORO, NC, 27402","No_Match",NA,NA,NA,NA
336702,"PO BOX 1745","RAHWAY","NJ",7065,NA,NA,202,"PO BOX 1745, RAHWAY, NJ, 7065","No_Match",NA,NA,NA,NA
336703,"PO BOX 17459","LONG BEACH","CA",90807,NA,NA,203,"PO BOX 17459, LONG BEACH, CA, 90807","No_Match",NA,NA,NA,NA
336704,"PO BOX 1746","ABERDEEN","WA",98520,NA,NA,204,"PO BOX 1746, ABERDEEN, WA, 98520","No_Match",NA,NA,NA,NA
336705,"PO BOX 1746","MISSION","TX",78573,NA,NA,205,"PO BOX 1746, MISSION, TX, 78573","No_Match",NA,NA,NA,NA
336706,"PO BOX 1746","SHAVERTOWN","PA",18708,NA,NA,206,"PO BOX 1746, SHAVERTOWN, PA, 18708","No_Match",NA,NA,NA,NA
336707,"PO BOX 1746","WHITE SALMON","WA",98672,NA,NA,207,"PO BOX 1746, WHITE SALMON, WA, 98672","No_Match",NA,NA,NA,NA
336708,"PO BOX 17464","HATTIESBURG","MS",39404,NA,NA,208,"PO BOX 17464, HATTIESBURG, MS, 39404","No_Match",NA,NA,NA,NA
336709,"PO BOX 1747","BATON ROUGE","LA",70821,NA,NA,209,"PO BOX 1747, BATON ROUGE, LA, 70821","No_Match",NA,NA,NA,NA
336710,"PO BOX 1747","JACKSON","MI",49201,NA,NA,210,"PO BOX 1747, JACKSON, MI, 49201","No_Match",NA,NA,NA,NA
336711,"PO BOX 1747","KOLOA","HI",96756,NA,NA,211,"PO BOX 1747, KOLOA, HI, 96756","No_Match",NA,NA,NA,NA
336712,"PO BOX 1748","EMPIRE","CA",95319,NA,NA,212,"PO BOX 1748, EMPIRE, CA, 95319","No_Match",NA,NA,NA,NA
336713,"PO BOX 1748","NOME","AK",99762,NA,NA,213,"PO BOX 1748, NOME, AK, 99762","No_Match",NA,NA,NA,NA
336714,"PO BOX 1749","MONTEREY","CA",93942,NA,NA,214,"PO BOX 1749, MONTEREY, CA, 93942","No_Match",NA,NA,NA,NA
336715,"PO BOX 1749","OFALLON","MO",63366,NA,NA,215,"PO BOX 1749, OFALLON, MO, 63366","No_Match",NA,NA,NA,NA
336716,"PO BOX 175  520 W MAIN ST SUITE B","ESCALANTE","UT",84726,NA,NA,216,"PO BOX 175  520 W MAIN ST SUITE B, ESCALANTE, UT, 84726","No_Match",NA,NA,NA,NA
336717,"PO BOX 175","ARLINGTON HEIGHTS","IL",60006,NA,NA,217,"PO BOX 175, ARLINGTON HEIGHTS, IL, 60006","No_Match",NA,NA,NA,NA
336718,"PO BOX 175","ASHLAND","AL",36251,NA,NA,218,"PO BOX 175, ASHLAND, AL, 36251","No_Match",NA,NA,NA,NA
336719,"PO BOX 175","BAHAMA","NC",27503,NA,NA,219,"PO BOX 175, BAHAMA, NC, 27503","No_Match",NA,NA,NA,NA
336720,"PO BOX 175","BLUE RIVER","OR",97413,NA,NA,220,"PO BOX 175, BLUE RIVER, OR, 97413","No_Match",NA,NA,NA,NA
336721,"PO BOX 175","BURNSVILLE","MS",38833,NA,NA,221,"PO BOX 175, BURNSVILLE, MS, 38833","No_Match",NA,NA,NA,NA
336722,"PO BOX 175","CENTRAL CITY","CO",80226,NA,NA,222,"PO BOX 175, CENTRAL CITY, CO, 80226","No_Match",NA,NA,NA,NA
336723,"PO BOX 175","CHRISTOVAL","TX",76935,NA,NA,223,"PO BOX 175, CHRISTOVAL, TX, 76935","No_Match",NA,NA,NA,NA
336724,"PO BOX 175","DELAVAN","WI",53115,NA,NA,224,"PO BOX 175, DELAVAN, WI, 53115","No_Match",NA,NA,NA,NA
336725,"PO BOX 175","EAST RANDOLPH","VT",5041,NA,NA,225,"PO BOX 175, EAST RANDOLPH, VT, 5041","No_Match",NA,NA,NA,NA
336726,"PO BOX 175","FILLMORE","CA",93015,NA,NA,226,"PO BOX 175, FILLMORE, CA, 93015","No_Match",NA,NA,NA,NA
336727,"PO BOX 175","FOUNTAIN CITY","IN",47341,NA,NA,227,"PO BOX 175, FOUNTAIN CITY, IN, 47341","No_Match",NA,NA,NA,NA
336728,"PO BOX 175","GERALDINE","MT",59446,NA,NA,228,"PO BOX 175, GERALDINE, MT, 59446","No_Match",NA,NA,NA,NA
336729,"PO BOX 175","GILLETT","WI",54124,NA,NA,229,"PO BOX 175, GILLETT, WI, 54124","No_Match",NA,NA,NA,NA
336730,"PO BOX 175","INGLESIDE","IL",60041,NA,NA,230,"PO BOX 175, INGLESIDE, IL, 60041","No_Match",NA,NA,NA,NA
336731,"PO BOX 175","JERSEY SHORE","PA",17740,NA,NA,231,"PO BOX 175, JERSEY SHORE, PA, 17740","No_Match",NA,NA,NA,NA
336732,"PO BOX 175","LANSE","MI",49946,NA,NA,232,"PO BOX 175, LANSE, MI, 49946","No_Match",NA,NA,NA,NA
336733,"PO BOX 175","LEAGUE CITY","TX",77573,NA,NA,233,"PO BOX 175, LEAGUE CITY, TX, 77573","No_Match",NA,NA,NA,NA
336734,"PO BOX 175","LITTLETON","CO",80120,NA,NA,234,"PO BOX 175, LITTLETON, CO, 80120","No_Match",NA,NA,NA,NA
336735,"PO BOX 175","LOS ALAMOS","NM",87544,NA,NA,235,"PO BOX 175, LOS ALAMOS, NM, 87544","No_Match",NA,NA,NA,NA
336736,"PO BOX 175","MEADVILLE","MS",39653,NA,NA,236,"PO BOX 175, MEADVILLE, MS, 39653","No_Match",NA,NA,NA,NA
336737,"PO BOX 175","MORAVIA","IA",52571,NA,NA,237,"PO BOX 175, MORAVIA, IA, 52571","No_Match",NA,NA,NA,NA
336738,"PO BOX 175","NEW RICHMOND","WI",54017,NA,NA,238,"PO BOX 175, NEW RICHMOND, WI, 54017","No_Match",NA,NA,NA,NA
336739,"PO BOX 175","NEWNAN","GA",30264,NA,NA,239,"PO BOX 175, NEWNAN, GA, 30264","No_Match",NA,NA,NA,NA
336740,"PO BOX 175","OAK CREEK","CO",80467,NA,NA,240,"PO BOX 175, OAK CREEK, CO, 80467","No_Match",NA,NA,NA,NA
336741,"PO BOX 175","ONTARIO CENTER","NY",14520,NA,NA,241,"PO BOX 175, ONTARIO CENTER, NY, 14520","No_Match",NA,NA,NA,NA
336742,"PO BOX 175","PALISADE","CO",81526,NA,NA,242,"PO BOX 175, PALISADE, CO, 81526","No_Match",NA,NA,NA,NA
336743,"PO BOX 175","PALM DESERT","CA",92261,NA,NA,243,"PO BOX 175, PALM DESERT, CA, 92261","No_Match",NA,NA,NA,NA
336744,"PO BOX 175","PREMONT","TX",78375,NA,NA,244,"PO BOX 175, PREMONT, TX, 78375","No_Match",NA,NA,NA,NA
336745,"PO BOX 175","SISTERS","OR",97759,NA,NA,245,"PO BOX 175, SISTERS, OR, 97759","No_Match",NA,NA,NA,NA
336746,"PO BOX 175","SODUS","MI",49126,NA,NA,246,"PO BOX 175, SODUS, MI, 49126","No_Match",NA,NA,NA,NA
336747,"PO BOX 175","SOMERSWORTH","NH",3878,NA,NA,247,"PO BOX 175, SOMERSWORTH, NH, 3878","No_Match",NA,NA,NA,NA
336748,"PO BOX 175","TORRINGTON","CT",6790,NA,NA,248,"PO BOX 175, TORRINGTON, CT, 6790","No_Match",NA,NA,NA,NA
336749,"PO BOX 175","VILONIA","AR",72173,NA,NA,249,"PO BOX 175, VILONIA, AR, 72173","No_Match",NA,NA,NA,NA
336750,"PO BOX 175","WHITELAND","IN",46184,NA,NA,250,"PO BOX 175, WHITELAND, IN, 46184","No_Match",NA,NA,NA,NA
336751,"PO BOX 175","WINDSOR","CT",6095,NA,NA,251,"PO BOX 175, WINDSOR, CT, 6095","No_Match",NA,NA,NA,NA
336752,"PO BOX 1750","CAMBRIA","CA",93428,NA,NA,252,"PO BOX 1750, CAMBRIA, CA, 93428","No_Match",NA,NA,NA,NA
336753,"PO BOX 1750","CASTLE ROCK","CO",80104,NA,NA,253,"PO BOX 1750, CASTLE ROCK, CO, 80104","No_Match",NA,NA,NA,NA
336754,"PO BOX 1750","SEGUIN","TX",78156,NA,NA,254,"PO BOX 1750, SEGUIN, TX, 78156","No_Match",NA,NA,NA,NA
336755,"PO BOX 1750","WASHINGTON","DC",20013,NA,NA,255,"PO BOX 1750, WASHINGTON, DC, 20013","No_Match",NA,NA,NA,NA
336756,"PO BOX 1750","ZILLAH","WA",98953,NA,NA,256,"PO BOX 1750, ZILLAH, WA, 98953","No_Match",NA,NA,NA,NA
336757,"PO BOX 17506","TAMPA","FL",33682,NA,NA,257,"PO BOX 17506, TAMPA, FL, 33682","No_Match",NA,NA,NA,NA
336758,"PO BOX 1751","RIVERHEAD","NY",11901,NA,NA,258,"PO BOX 1751, RIVERHEAD, NY, 11901","No_Match",NA,NA,NA,NA
336759,"PO BOX 1751","STANWOOD","WA",98292,NA,NA,259,"PO BOX 1751, STANWOOD, WA, 98292","No_Match",NA,NA,NA,NA
336760,"PO BOX 1751","WALDORF","MD",20604,NA,NA,260,"PO BOX 1751, WALDORF, MD, 20604","No_Match",NA,NA,NA,NA
336761,"PO BOX 17512","HONOLULU","HI",96817,NA,NA,261,"PO BOX 17512, HONOLULU, HI, 96817","No_Match",NA,NA,NA,NA
336762,"PO BOX 1752","BLACK CANYON CITY","AZ",85324,NA,NA,262,"PO BOX 1752, BLACK CANYON CITY, AZ, 85324","No_Match",NA,NA,NA,NA
336763,"PO BOX 1752","BROWNING","MT",59417,NA,NA,263,"PO BOX 1752, BROWNING, MT, 59417","No_Match",NA,NA,NA,NA
336764,"PO BOX 1752","COCKEYSVILLE","MD",21030,NA,NA,264,"PO BOX 1752, COCKEYSVILLE, MD, 21030","No_Match",NA,NA,NA,NA
336765,"PO BOX 1752","ELLICOTT CITY","MD",21041,NA,NA,265,"PO BOX 1752, ELLICOTT CITY, MD, 21041","No_Match",NA,NA,NA,NA
336766,"PO BOX 1752","WINTER HAVEN","FL",33882,NA,NA,266,"PO BOX 1752, WINTER HAVEN, FL, 33882","No_Match",NA,NA,NA,NA
336767,"PO BOX 1753","BATAVIA","IL",60510,NA,NA,267,"PO BOX 1753, BATAVIA, IL, 60510","No_Match",NA,NA,NA,NA
336768,"PO BOX 1753","EAGLE LAKE","FL",33839,NA,NA,268,"PO BOX 1753, EAGLE LAKE, FL, 33839","No_Match",NA,NA,NA,NA
336769,"PO BOX 1753","MURPHY","NC",28906,NA,NA,269,"PO BOX 1753, MURPHY, NC, 28906","No_Match",NA,NA,NA,NA
336770,"PO BOX 17532","JACKSONVILLE","FL",32245,NA,NA,270,"PO BOX 17532, JACKSONVILLE, FL, 32245","No_Match",NA,NA,NA,NA
336771,"PO BOX 1754","CHICAGO","IL",60690,NA,NA,271,"PO BOX 1754, CHICAGO, IL, 60690","No_Match",NA,NA,NA,NA
336772,"PO BOX 1754","MONTGOMERY","TX",77356,NA,NA,272,"PO BOX 1754, MONTGOMERY, TX, 77356","No_Match",NA,NA,NA,NA
336773,"PO BOX 1754","SARATOGA","WY",82331,NA,NA,273,"PO BOX 1754, SARATOGA, WY, 82331","No_Match",NA,NA,NA,NA
336774,"PO BOX 1754","YUCAIPA","CA",92399,NA,NA,274,"PO BOX 1754, YUCAIPA, CA, 92399","No_Match",NA,NA,NA,NA
336775,"PO BOX 1755","RATON","NM",87740,NA,NA,275,"PO BOX 1755, RATON, NM, 87740","No_Match",NA,NA,NA,NA
336776,"PO BOX 1756","JAMESTOWN","ND",58401,NA,NA,276,"PO BOX 1756, JAMESTOWN, ND, 58401","No_Match",NA,NA,NA,NA
336777,"PO BOX 1756","LA PORTE","TX",77571,NA,NA,277,"PO BOX 1756, LA PORTE, TX, 77571","No_Match",NA,NA,NA,NA
336778,"PO BOX 1756","LIVINGSTON","TX",77351,NA,NA,278,"PO BOX 1756, LIVINGSTON, TX, 77351","No_Match",NA,NA,NA,NA
336779,"PO BOX 1757","EVANSTON","WY",82931,NA,NA,279,"PO BOX 1757, EVANSTON, WY, 82931","No_Match",NA,NA,NA,NA
336780,"PO BOX 17576","ARLINGTON","VA",22216,NA,NA,280,"PO BOX 17576, ARLINGTON, VA, 22216","No_Match",NA,NA,NA,NA
336781,"PO BOX 1758","DAYTON","NV",89403,NA,NA,281,"PO BOX 1758, DAYTON, NV, 89403","No_Match",NA,NA,NA,NA
336782,"PO BOX 1758","DELTA JUNCTION","AK",99373,NA,NA,282,"PO BOX 1758, DELTA JUNCTION, AK, 99373","No_Match",NA,NA,NA,NA
336783,"PO BOX 1758","DISCOVERY BAY","CA",94505,NA,NA,283,"PO BOX 1758, DISCOVERY BAY, CA, 94505","No_Match",NA,NA,NA,NA
336784,"PO BOX 1759","SHINGLE SPRINGS","CA",95682,NA,NA,284,"PO BOX 1759, SHINGLE SPRINGS, CA, 95682","No_Match",NA,NA,NA,NA
336785,"PO BOX 17593","BOULDER","CO",80308,NA,NA,285,"PO BOX 17593, BOULDER, CO, 80308","No_Match",NA,NA,NA,NA
336786,"PO BOX 176","AUBREY","TX",76227,NA,NA,286,"PO BOX 176, AUBREY, TX, 76227","No_Match",NA,NA,NA,NA
336787,"PO BOX 176","BAY CITY","TX",77404,NA,NA,287,"PO BOX 176, BAY CITY, TX, 77404","No_Match",NA,NA,NA,NA
336788,"PO BOX 176","BLUFFTON","OH",45817,NA,NA,288,"PO BOX 176, BLUFFTON, OH, 45817","No_Match",NA,NA,NA,NA
336789,"PO BOX 176","BUFFALO","NY",14220,NA,NA,289,"PO BOX 176, BUFFALO, NY, 14220","No_Match",NA,NA,NA,NA
336790,"PO BOX 176","BUFFALO","TX",75831,NA,NA,290,"PO BOX 176, BUFFALO, TX, 75831","No_Match",NA,NA,NA,NA
336791,"PO BOX 176","CARSON","NM",87517,NA,NA,291,"PO BOX 176, CARSON, NM, 87517","No_Match",NA,NA,NA,NA
336792,"PO BOX 176","CLEVELAND","OK",74020,NA,NA,292,"PO BOX 176, CLEVELAND, OK, 74020","No_Match",NA,NA,NA,NA
336793,"PO BOX 176","COLO","IA",50056,NA,NA,293,"PO BOX 176, COLO, IA, 50056","No_Match",NA,NA,NA,NA
336794,"PO BOX 176","COURTLAND","CA",95615,NA,NA,294,"PO BOX 176, COURTLAND, CA, 95615","No_Match",NA,NA,NA,NA
336795,"PO BOX 176","EASTON","WA",98925,NA,NA,295,"PO BOX 176, EASTON, WA, 98925","No_Match",NA,NA,NA,NA
336796,"PO BOX 176","ENGLEWOOD","FL",34295,NA,NA,296,"PO BOX 176, ENGLEWOOD, FL, 34295","No_Match",NA,NA,NA,NA
336797,"PO BOX 176","FALL RIVER","WI",53932,NA,NA,297,"PO BOX 176, FALL RIVER, WI, 53932","No_Match",NA,NA,NA,NA
336798,"PO BOX 176","GARDEN CITY","MI",48136,NA,NA,298,"PO BOX 176, GARDEN CITY, MI, 48136","No_Match",NA,NA,NA,NA
336799,"PO BOX 176","GRANDVIEW","MO",64030,NA,NA,299,"PO BOX 176, GRANDVIEW, MO, 64030","No_Match",NA,NA,NA,NA
336800,"PO BOX 176","GRANTS PASS","OR",97528,NA,NA,300,"PO BOX 176, GRANTS PASS, OR, 97528","No_Match",NA,NA,NA,NA
336801,"PO BOX 176","GRASS LAKE","MI",49240,NA,NA,301,"PO BOX 176, GRASS LAKE, MI, 49240","No_Match",NA,NA,NA,NA
336802,"PO BOX 176","GRASS VALLEY","CA",95945,NA,NA,302,"PO BOX 176, GRASS VALLEY, CA, 95945","No_Match",NA,NA,NA,NA
336803,"PO BOX 176","HAMPSTEAD","NC",28443,NA,NA,303,"PO BOX 176, HAMPSTEAD, NC, 28443","No_Match",NA,NA,NA,NA
336804,"PO BOX 176","HIGHLAND","MI",48357,NA,NA,304,"PO BOX 176, HIGHLAND, MI, 48357","No_Match",NA,NA,NA,NA
336805,"PO BOX 176","IRWIN","PA",15642,NA,NA,305,"PO BOX 176, IRWIN, PA, 15642","No_Match",NA,NA,NA,NA
336806,"PO BOX 176","KNIFE RIVER","MN",55609,NA,NA,306,"PO BOX 176, KNIFE RIVER, MN, 55609","No_Match",NA,NA,NA,NA
336807,"PO BOX 176","MALVERN","PA",19355,NA,NA,307,"PO BOX 176, MALVERN, PA, 19355","No_Match",NA,NA,NA,NA
336808,"PO BOX 176","MONTICELLO","FL",32345,NA,NA,308,"PO BOX 176, MONTICELLO, FL, 32345","No_Match",NA,NA,NA,NA
336809,"PO BOX 176","NOBLESVILLE","IN",46061,NA,NA,309,"PO BOX 176, NOBLESVILLE, IN, 46061","No_Match",NA,NA,NA,NA
336810,"PO BOX 176","PHILIPSBURG","MT",59858,NA,NA,310,"PO BOX 176, PHILIPSBURG, MT, 59858","No_Match",NA,NA,NA,NA
336811,"PO BOX 176","PINEDALE","WY",82941,NA,NA,311,"PO BOX 176, PINEDALE, WY, 82941","No_Match",NA,NA,NA,NA
336812,"PO BOX 176","PLATTEVILLE","CO",80651,NA,NA,312,"PO BOX 176, PLATTEVILLE, CO, 80651","No_Match",NA,NA,NA,NA
336813,"PO BOX 176","POLK CITY","FL",33868,NA,NA,313,"PO BOX 176, POLK CITY, FL, 33868","No_Match",NA,NA,NA,NA
336814,"PO BOX 176","RICHFIELD","NC",28137,NA,NA,314,"PO BOX 176, RICHFIELD, NC, 28137","No_Match",NA,NA,NA,NA
336815,"PO BOX 176","RIDGEWOOD","NJ",7451,NA,NA,315,"PO BOX 176, RIDGEWOOD, NJ, 7451","No_Match",NA,NA,NA,NA
336816,"PO BOX 176","SOMERS POINT","NJ",8244,NA,NA,316,"PO BOX 176, SOMERS POINT, NJ, 8244","No_Match",NA,NA,NA,NA
336817,"PO BOX 176","SOUTH VIENNA","OH",45369,NA,NA,317,"PO BOX 176, SOUTH VIENNA, OH, 45369","No_Match",NA,NA,NA,NA
336818,"PO BOX 176","VERNONIA","OR",97064,NA,NA,318,"PO BOX 176, VERNONIA, OR, 97064","No_Match",NA,NA,NA,NA
336819,"PO BOX 176","WATERFORD","ME",4088,NA,NA,319,"PO BOX 176, WATERFORD, ME, 4088","No_Match",NA,NA,NA,NA
336820,"PO BOX 176","WINNECONNE","WI",45968,NA,NA,320,"PO BOX 176, WINNECONNE, WI, 45968","No_Match",NA,NA,NA,NA
336821,"PO BOX 1760","COTTONWOOD","AZ",86326,NA,NA,321,"PO BOX 1760, COTTONWOOD, AZ, 86326","No_Match",NA,NA,NA,NA
336822,"PO BOX 17606","ASHEVILLE","NC",28816,NA,NA,322,"PO BOX 17606, ASHEVILLE, NC, 28816","No_Match",NA,NA,NA,NA
336823,"PO BOX 1761","ALABASTER","AL",35007,NA,NA,323,"PO BOX 1761, ALABASTER, AL, 35007","No_Match",NA,NA,NA,NA
336824,"PO BOX 1761","LA MIRADA","CA",90637,NA,NA,324,"PO BOX 1761, LA MIRADA, CA, 90637","No_Match",NA,NA,NA,NA
336825,"PO BOX 1761","SAGINAW","MI",48605,NA,NA,325,"PO BOX 1761, SAGINAW, MI, 48605","No_Match",NA,NA,NA,NA
336826,"PO BOX 1762","AUBURN","NY",13021,NA,NA,326,"PO BOX 1762, AUBURN, NY, 13021","No_Match",NA,NA,NA,NA
336827,"PO BOX 1762","BLOOMFIELD","NJ",7003,NA,NA,327,"PO BOX 1762, BLOOMFIELD, NJ, 7003","No_Match",NA,NA,NA,NA
336828,"PO BOX 1762","CODY","WY",82414,NA,NA,328,"PO BOX 1762, CODY, WY, 82414","No_Match",NA,NA,NA,NA
336829,"PO BOX 1762","DALLAS","GA",30132,NA,NA,329,"PO BOX 1762, DALLAS, GA, 30132","No_Match",NA,NA,NA,NA
336830,"PO BOX 1762","GRIFFIN","GA",30223,NA,NA,330,"PO BOX 1762, GRIFFIN, GA, 30223","No_Match",NA,NA,NA,NA
336831,"PO BOX 1762","MUSTANG","OK",73064,NA,NA,331,"PO BOX 1762, MUSTANG, OK, 73064","No_Match",NA,NA,NA,NA
336832,"PO BOX 1762","WEST SACRAMENTO","CA",95691,NA,NA,332,"PO BOX 1762, WEST SACRAMENTO, CA, 95691","No_Match",NA,NA,NA,NA
336833,"PO BOX 1763","CHESTER","CA",96020,NA,NA,333,"PO BOX 1763, CHESTER, CA, 96020","No_Match",NA,NA,NA,NA
336834,"PO BOX 1764","LONGMONT","CO",80502,NA,NA,334,"PO BOX 1764, LONGMONT, CO, 80502","No_Match",NA,NA,NA,NA
336835,"PO BOX 1764","RATON","NM",87740,NA,NA,335,"PO BOX 1764, RATON, NM, 87740","No_Match",NA,NA,NA,NA
336836,"PO BOX 1764","WOODLAND","WA",98674,NA,NA,336,"PO BOX 1764, WOODLAND, WA, 98674","No_Match",NA,NA,NA,NA
336837,"PO BOX 1765","ATHENS","AL",35612,NA,NA,337,"PO BOX 1765, ATHENS, AL, 35612","No_Match",NA,NA,NA,NA
336838,"PO BOX 1765","HAYDEN","ID",83835,NA,NA,338,"PO BOX 1765, HAYDEN, ID, 83835","No_Match",NA,NA,NA,NA
336839,"PO BOX 1766","BINGHAMTON","NY",13902,NA,NA,339,"PO BOX 1766, BINGHAMTON, NY, 13902","No_Match",NA,NA,NA,NA
336840,"PO BOX 1766","COEUR D ALNEE","ID",83816,NA,NA,340,"PO BOX 1766, COEUR D ALNEE, ID, 83816","No_Match",NA,NA,NA,NA
336841,"PO BOX 1766","HARTSVILLE","SC",29551,NA,NA,341,"PO BOX 1766, HARTSVILLE, SC, 29551","No_Match",NA,NA,NA,NA
336842,"PO BOX 1766","LOWELL","AR",72745,NA,NA,342,"PO BOX 1766, LOWELL, AR, 72745","No_Match",NA,NA,NA,NA
336843,"PO BOX 1766","OKLAHOMA CITY","OK",73101,NA,NA,343,"PO BOX 1766, OKLAHOMA CITY, OK, 73101","No_Match",NA,NA,NA,NA
336844,"PO BOX 17663","JACKSONVILLE","FL",32245,NA,NA,344,"PO BOX 17663, JACKSONVILLE, FL, 32245","No_Match",NA,NA,NA,NA
336845,"PO BOX 17664","SAN ANTONIO","TX",78217,NA,NA,345,"PO BOX 17664, SAN ANTONIO, TX, 78217","No_Match",NA,NA,NA,NA
336846,"PO BOX 1767","AFTON","WY",83110,NA,NA,346,"PO BOX 1767, AFTON, WY, 83110","No_Match",NA,NA,NA,NA
336847,"PO BOX 1767","LEBANON","VA",24266,NA,NA,347,"PO BOX 1767, LEBANON, VA, 24266","No_Match",NA,NA,NA,NA
336848,"PO BOX 1767","MONTGOMERY","AL",36102,NA,NA,348,"PO BOX 1767, MONTGOMERY, AL, 36102","No_Match",NA,NA,NA,NA
336849,"PO BOX 1767","SILVER CITY","NM",88062,NA,NA,349,"PO BOX 1767, SILVER CITY, NM, 88062","No_Match",NA,NA,NA,NA
336850,"PO BOX 1768","BOTHELL","WA",98041,NA,NA,350,"PO BOX 1768, BOTHELL, WA, 98041","No_Match",NA,NA,NA,NA
336851,"PO BOX 1768","ELIZABETH CITY","NC",27906,NA,NA,351,"PO BOX 1768, ELIZABETH CITY, NC, 27906","No_Match",NA,NA,NA,NA
336852,"PO BOX 17682","PORTLAND","ME",4112,NA,NA,352,"PO BOX 17682, PORTLAND, ME, 4112","No_Match",NA,NA,NA,NA
336853,"PO BOX 1769","KAMUELA","HI",96706,NA,NA,353,"PO BOX 1769, KAMUELA, HI, 96706","No_Match",NA,NA,NA,NA
336854,"PO BOX 1769","TRENTON","GA",30752,NA,NA,354,"PO BOX 1769, TRENTON, GA, 30752","No_Match",NA,NA,NA,NA
336855,"PO BOX 177","ABSECON","NJ",8201,NA,NA,355,"PO BOX 177, ABSECON, NJ, 8201","No_Match",NA,NA,NA,NA
336856,"PO BOX 177","AVOCA","IA",51521,NA,NA,356,"PO BOX 177, AVOCA, IA, 51521","No_Match",NA,NA,NA,NA
336857,"PO BOX 177","BATAVIA","NY",14021,NA,NA,357,"PO BOX 177, BATAVIA, NY, 14021","No_Match",NA,NA,NA,NA
336858,"PO BOX 177","BIG TIMBER","MT",59011,NA,NA,358,"PO BOX 177, BIG TIMBER, MT, 59011","No_Match",NA,NA,NA,NA
336859,"PO BOX 177","BLUE RIDGE","TX",75424,NA,NA,359,"PO BOX 177, BLUE RIDGE, TX, 75424","No_Match",NA,NA,NA,NA
336860,"PO BOX 177","DEMAREST","NJ",7627,NA,NA,360,"PO BOX 177, DEMAREST, NJ, 7627","No_Match",NA,NA,NA,NA
336861,"PO BOX 177","DULUTH","GA",30096,NA,NA,361,"PO BOX 177, DULUTH, GA, 30096","No_Match",NA,NA,NA,NA
336862,"PO BOX 177","EXPERIMENT","GA",30223,NA,NA,362,"PO BOX 177, EXPERIMENT, GA, 30223","No_Match",NA,NA,NA,NA
336863,"PO BOX 177","GOLD BEACH","OR",97444,NA,NA,363,"PO BOX 177, GOLD BEACH, OR, 97444","No_Match",NA,NA,NA,NA
336864,"PO BOX 177","GREEN MOUNTAIN FALLS","CO",80819,NA,NA,364,"PO BOX 177, GREEN MOUNTAIN FALLS, CO, 80819","No_Match",NA,NA,NA,NA
336865,"PO BOX 177","GREENSBORO","FL",32330,NA,NA,365,"PO BOX 177, GREENSBORO, FL, 32330","No_Match",NA,NA,NA,NA
336866,"PO BOX 177","GROVELAND","MA",1834,NA,NA,366,"PO BOX 177, GROVELAND, MA, 1834","No_Match",NA,NA,NA,NA
336867,"PO BOX 177","MARIETTA","GA",30061,NA,NA,367,"PO BOX 177, MARIETTA, GA, 30061","No_Match",NA,NA,NA,NA
336868,"PO BOX 177","MUSTANG","OK",73064,NA,NA,368,"PO BOX 177, MUSTANG, OK, 73064","No_Match",NA,NA,NA,NA
336869,"PO BOX 177","NEW CASTLE","TX",76372,NA,NA,369,"PO BOX 177, NEW CASTLE, TX, 76372","No_Match",NA,NA,NA,NA
336870,"PO BOX 177","NEWELL","NC",28126,NA,NA,370,"PO BOX 177, NEWELL, NC, 28126","No_Match",NA,NA,NA,NA
336871,"PO BOX 177","NEWPORT","OR",97365,NA,NA,371,"PO BOX 177, NEWPORT, OR, 97365","No_Match",NA,NA,NA,NA
336872,"PO BOX 177","NEWTON","VA",23126,NA,NA,372,"PO BOX 177, NEWTON, VA, 23126","No_Match",NA,NA,NA,NA
336873,"PO BOX 177","ORRVILLE","AL",36767,NA,NA,373,"PO BOX 177, ORRVILLE, AL, 36767","No_Match",NA,NA,NA,NA
336874,"PO BOX 177","PENDLETON","OR",97801,NA,NA,374,"PO BOX 177, PENDLETON, OR, 97801","No_Match",NA,NA,NA,NA
336875,"PO BOX 177","POCONO SUMMIT","PA",18346,NA,NA,375,"PO BOX 177, POCONO SUMMIT, PA, 18346","No_Match",NA,NA,NA,NA
336876,"PO BOX 177","RENSSELAER","NY",12144,NA,NA,376,"PO BOX 177, RENSSELAER, NY, 12144","No_Match",NA,NA,NA,NA
336877,"PO BOX 177","SHELBY","OH",44875,NA,NA,377,"PO BOX 177, SHELBY, OH, 44875","No_Match",NA,NA,NA,NA
336878,"PO BOX 177","SOMERVILLE","NJ",8876,NA,NA,378,"PO BOX 177, SOMERVILLE, NJ, 8876","No_Match",NA,NA,NA,NA
336879,"PO BOX 177","SUN CITY","CA",92586,NA,NA,379,"PO BOX 177, SUN CITY, CA, 92586","No_Match",NA,NA,NA,NA
336880,"PO BOX 177","WILLIAMSON","NY",14589,NA,NA,380,"PO BOX 177, WILLIAMSON, NY, 14589","No_Match",NA,NA,NA,NA
336881,"PO BOX 177","WINDSOR","CT",6095,NA,NA,381,"PO BOX 177, WINDSOR, CT, 6095","No_Match",NA,NA,NA,NA
336882,"PO BOX 177","YORBA LINDA","CA",92885,NA,NA,382,"PO BOX 177, YORBA LINDA, CA, 92885","No_Match",NA,NA,NA,NA
336883,"PO BOX 1770","MABANK","TX",75147,NA,NA,383,"PO BOX 1770, MABANK, TX, 75147","No_Match",NA,NA,NA,NA
336884,"PO BOX 1770","PEARL CITY","HI",96782,NA,NA,384,"PO BOX 1770, PEARL CITY, HI, 96782","No_Match",NA,NA,NA,NA
336885,"PO BOX 177013","IRVING","TX",75017,NA,NA,385,"PO BOX 177013, IRVING, TX, 75017","No_Match",NA,NA,NA,NA
336886,"PO BOX 177055","IRVING","TX",75017,NA,NA,386,"PO BOX 177055, IRVING, TX, 75017","No_Match",NA,NA,NA,NA
336887,"PO BOX 1771","ATHENS","TX",75751,NA,NA,387,"PO BOX 1771, ATHENS, TX, 75751","No_Match",NA,NA,NA,NA
336888,"PO BOX 1771","BATTLE GROUND","WA",98604,NA,NA,388,"PO BOX 1771, BATTLE GROUND, WA, 98604","No_Match",NA,NA,NA,NA
336889,"PO BOX 1771","BEND","OR",97709,NA,NA,389,"PO BOX 1771, BEND, OR, 97709","No_Match",NA,NA,NA,NA
336890,"PO BOX 1771","GOODLETTSVILLE","TN",37072,NA,NA,390,"PO BOX 1771, GOODLETTSVILLE, TN, 37072","No_Match",NA,NA,NA,NA
336891,"PO BOX 1771","NEW LONDON","NH",3257,NA,NA,391,"PO BOX 1771, NEW LONDON, NH, 3257","No_Match",NA,NA,NA,NA
336892,"PO BOX 1771","NEW MILFORD","CT",6776,NA,NA,392,"PO BOX 1771, NEW MILFORD, CT, 6776","No_Match",NA,NA,NA,NA
336893,"PO BOX 1771","PORTERVILLE","CA",93258,NA,NA,393,"PO BOX 1771, PORTERVILLE, CA, 93258","No_Match",NA,NA,NA,NA
336894,"PO BOX 17712","HUNTSVILLE","AL",35810,NA,NA,394,"PO BOX 17712, HUNTSVILLE, AL, 35810","No_Match",NA,NA,NA,NA
336895,"PO BOX 17713","JACKSONVILLE","FL",32245,NA,NA,395,"PO BOX 17713, JACKSONVILLE, FL, 32245","No_Match",NA,NA,NA,NA
336896,"PO BOX 1772","DRIPPING SPRINGS","TX",78620,NA,NA,396,"PO BOX 1772, DRIPPING SPRINGS, TX, 78620","No_Match",NA,NA,NA,NA
336897,"PO BOX 1772","FRASER","CO",80442,NA,NA,397,"PO BOX 1772, FRASER, CO, 80442","No_Match",NA,NA,NA,NA
336898,"PO BOX 1772","SMYRNA","TN",37167,NA,NA,398,"PO BOX 1772, SMYRNA, TN, 37167","No_Match",NA,NA,NA,NA
336899,"PO BOX 1772","UMATILLA","FL",32784,NA,NA,399,"PO BOX 1772, UMATILLA, FL, 32784","No_Match",NA,NA,NA,NA
336900,"PO BOX 1773","ASHBURN","VA",20146,NA,NA,400,"PO BOX 1773, ASHBURN, VA, 20146","No_Match",NA,NA,NA,NA
336901,"PO BOX 1773","CARROLLTON","GA",30112,NA,NA,401,"PO BOX 1773, CARROLLTON, GA, 30112","No_Match",NA,NA,NA,NA
336902,"PO BOX 1773","LANDER","WY",82520,NA,NA,402,"PO BOX 1773, LANDER, WY, 82520","No_Match",NA,NA,NA,NA
336903,"PO BOX 1773","TOMBALL","TX",77377,NA,NA,403,"PO BOX 1773, TOMBALL, TX, 77377","No_Match",NA,NA,NA,NA
336904,"PO BOX 177373","IRVING","TX",75061,NA,NA,404,"PO BOX 177373, IRVING, TX, 75061","No_Match",NA,NA,NA,NA
336905,"PO BOX 1774","CRANFORD","NJ",7016,NA,NA,405,"PO BOX 1774, CRANFORD, NJ, 7016","No_Match",NA,NA,NA,NA
336906,"PO BOX 1774","HAMILTON","MT",59840,NA,NA,406,"PO BOX 1774, HAMILTON, MT, 59840","No_Match",NA,NA,NA,NA
336907,"PO BOX 1774","MARION","OH",43302,NA,NA,407,"PO BOX 1774, MARION, OH, 43302","No_Match",NA,NA,NA,NA
336908,"PO BOX 17741","HATTIESBURG","MS",39402,NA,NA,408,"PO BOX 17741, HATTIESBURG, MS, 39402","No_Match",NA,NA,NA,NA
336909,"PO BOX 1775","SISTERS","OR",97759,NA,NA,409,"PO BOX 1775, SISTERS, OR, 97759","No_Match",NA,NA,NA,NA
336910,"PO BOX 17752","SUGARLAND","TX",77496,NA,NA,410,"PO BOX 17752, SUGARLAND, TX, 77496","No_Match",NA,NA,NA,NA
336911,"PO BOX 1776","GRANBY","CT",6035,NA,NA,411,"PO BOX 1776, GRANBY, CT, 6035","No_Match",NA,NA,NA,NA
336912,"PO BOX 1776","IONIA","MI",48846,NA,NA,412,"PO BOX 1776, IONIA, MI, 48846","No_Match",NA,NA,NA,NA
336913,"PO BOX 1776","PETERSBURG","AK",99833,NA,NA,413,"PO BOX 1776, PETERSBURG, AK, 99833","No_Match",NA,NA,NA,NA
336914,"PO BOX 1776","STANFORD","KY",40484,NA,NA,414,"PO BOX 1776, STANFORD, KY, 40484","No_Match",NA,NA,NA,NA
336915,"PO BOX 1776","TEMPLE","GA",30179,NA,NA,415,"PO BOX 1776, TEMPLE, GA, 30179","No_Match",NA,NA,NA,NA
336916,"PO BOX 1777","ASHLAND","VA",23005,NA,NA,416,"PO BOX 1777, ASHLAND, VA, 23005","No_Match",NA,NA,NA,NA
336917,"PO BOX 1777","LAGUNA BEACH","CA",92652,NA,NA,417,"PO BOX 1777, LAGUNA BEACH, CA, 92652","No_Match",NA,NA,NA,NA
336918,"PO BOX 1778","BATAVIA","NY",14021,NA,NA,418,"PO BOX 1778, BATAVIA, NY, 14021","No_Match",NA,NA,NA,NA
336919,"PO BOX 1778","LARAMIE","WY",82073,NA,NA,419,"PO BOX 1778, LARAMIE, WY, 82073","No_Match",NA,NA,NA,NA
336920,"PO BOX 17782","FOUNTAIN HILLS","AZ",85269,NA,NA,420,"PO BOX 17782, FOUNTAIN HILLS, AZ, 85269","No_Match",NA,NA,NA,NA
336921,"PO BOX 17793","SAN DIEGO","CA",92177,NA,NA,421,"PO BOX 17793, SAN DIEGO, CA, 92177","No_Match",NA,NA,NA,NA
336922,"PO BOX 178","BALLENTINE","SC",29002,NA,NA,422,"PO BOX 178, BALLENTINE, SC, 29002","No_Match",NA,NA,NA,NA
336923,"PO BOX 178","CANTWELL","AK",99729,NA,NA,423,"PO BOX 178, CANTWELL, AK, 99729","No_Match",NA,NA,NA,NA
336924,"PO BOX 178","CULLMAN","AL",35056,NA,NA,424,"PO BOX 178, CULLMAN, AL, 35056","No_Match",NA,NA,NA,NA
336925,"PO BOX 178","ENFIELD","NH",3748,NA,NA,425,"PO BOX 178, ENFIELD, NH, 3748","No_Match",NA,NA,NA,NA
336926,"PO BOX 178","GUSTAVUS","AK",99826,NA,NA,426,"PO BOX 178, GUSTAVUS, AK, 99826","No_Match",NA,NA,NA,NA
336927,"PO BOX 178","HAZEN","AR",72064,NA,NA,427,"PO BOX 178, HAZEN, AR, 72064","No_Match",NA,NA,NA,NA
336928,"PO BOX 178","JOHNSON","KS",67855,NA,NA,428,"PO BOX 178, JOHNSON, KS, 67855","No_Match",NA,NA,NA,NA
336929,"PO BOX 178","KINGS BEACH","CA",96143,NA,NA,429,"PO BOX 178, KINGS BEACH, CA, 96143","No_Match",NA,NA,NA,NA
336930,"PO BOX 178","NEW HOLLAND","IL",62671,NA,NA,430,"PO BOX 178, NEW HOLLAND, IL, 62671","No_Match",NA,NA,NA,NA
336931,"PO BOX 178","NEW PORT RICHEY","FL",34652,NA,NA,431,"PO BOX 178, NEW PORT RICHEY, FL, 34652","No_Match",NA,NA,NA,NA
336932,"PO BOX 178","OKANOGAN","WA",98840,NA,NA,432,"PO BOX 178, OKANOGAN, WA, 98840","No_Match",NA,NA,NA,NA
336933,"PO BOX 178","ORTONVILLE","MI",48462,NA,NA,433,"PO BOX 178, ORTONVILLE, MI, 48462","No_Match",NA,NA,NA,NA
336934,"PO BOX 178","PROCTORSVILLE","VT",5153,NA,NA,434,"PO BOX 178, PROCTORSVILLE, VT, 5153","No_Match",NA,NA,NA,NA
336935,"PO BOX 178","REDVALE","CO",81431,NA,NA,435,"PO BOX 178, REDVALE, CO, 81431","No_Match",NA,NA,NA,NA
336936,"PO BOX 178","RIO","WI",53960,NA,NA,436,"PO BOX 178, RIO, WI, 53960","No_Match",NA,NA,NA,NA
336937,"PO BOX 178","SENTINEL","OK",73664,NA,NA,437,"PO BOX 178, SENTINEL, OK, 73664","No_Match",NA,NA,NA,NA
336938,"PO BOX 178","SEYMOUR","CT",6483,NA,NA,438,"PO BOX 178, SEYMOUR, CT, 6483","No_Match",NA,NA,NA,NA
336939,"PO BOX 178","SMITHSBURG","MD",21783,NA,NA,439,"PO BOX 178, SMITHSBURG, MD, 21783","No_Match",NA,NA,NA,NA
336940,"PO BOX 178","STURGIS","MI",49091,NA,NA,440,"PO BOX 178, STURGIS, MI, 49091","No_Match",NA,NA,NA,NA
336941,"PO BOX 178","WINTHROP HARBOR","IL",60096,NA,NA,441,"PO BOX 178, WINTHROP HARBOR, IL, 60096","No_Match",NA,NA,NA,NA
336942,"PO BOX 178","WISE","VA",24293,NA,NA,442,"PO BOX 178, WISE, VA, 24293","No_Match",NA,NA,NA,NA
336943,"PO BOX 1780","CHINO HILLS","CA",91709,NA,NA,443,"PO BOX 1780, CHINO HILLS, CA, 91709","No_Match",NA,NA,NA,NA
336944,"PO BOX 1780","MIDDLETOWN","CA",95461,NA,NA,444,"PO BOX 1780, MIDDLETOWN, CA, 95461","No_Match",NA,NA,NA,NA
336945,"PO BOX 1780","QUINCY","CA",95971,NA,NA,445,"PO BOX 1780, QUINCY, CA, 95971","No_Match",NA,NA,NA,NA
336946,"PO BOX 1780","SHEPHERDSTOWN","WV",25443,NA,NA,446,"PO BOX 1780, SHEPHERDSTOWN, WV, 25443","No_Match",NA,NA,NA,NA
336947,"PO BOX 17805","ASHEVILLE","NC",28816,NA,NA,447,"PO BOX 17805, ASHEVILLE, NC, 28816","No_Match",NA,NA,NA,NA
336948,"PO BOX 1781","OMAK","WA",98841,NA,NA,448,"PO BOX 1781, OMAK, WA, 98841","No_Match",NA,NA,NA,NA
336949,"PO BOX 1781","OPELOUSAS","LA",70570,NA,NA,449,"PO BOX 1781, OPELOUSAS, LA, 70570","No_Match",NA,NA,NA,NA
336950,"PO BOX 1781","PRINEVILLE","OR",97754,NA,NA,450,"PO BOX 1781, PRINEVILLE, OR, 97754","No_Match",NA,NA,NA,NA
336951,"PO BOX 1781","RAHWAY","NJ",7065,NA,NA,451,"PO BOX 1781, RAHWAY, NJ, 7065","No_Match",NA,NA,NA,NA
336952,"PO BOX 1781","SEFFNER","FL",33583,NA,NA,452,"PO BOX 1781, SEFFNER, FL, 33583","No_Match",NA,NA,NA,NA
336953,"PO BOX 1781","WEST COVINA","CA",91793,NA,NA,453,"PO BOX 1781, WEST COVINA, CA, 91793","No_Match",NA,NA,NA,NA
336954,"PO BOX 17811","PORTLAND","ME",4112,NA,NA,454,"PO BOX 17811, PORTLAND, ME, 4112","No_Match",NA,NA,NA,NA
336955,"PO BOX 17812","RICHMOND","VA",23226,NA,NA,455,"PO BOX 17812, RICHMOND, VA, 23226","No_Match",NA,NA,NA,NA
336956,"PO BOX 17815","INDIANAPOLIS","IN",46237,NA,NA,456,"PO BOX 17815, INDIANAPOLIS, IN, 46237","No_Match",NA,NA,NA,NA
336957,"PO BOX 1782","BOZEMAN","MT",59771,NA,NA,457,"PO BOX 1782, BOZEMAN, MT, 59771","No_Match",NA,NA,NA,NA
336958,"PO BOX 1782","CLAREMORE","OK",74018,NA,NA,458,"PO BOX 1782, CLAREMORE, OK, 74018","No_Match",NA,NA,NA,NA
336959,"PO BOX 1782","FRASER","CO",80442,NA,NA,459,"PO BOX 1782, FRASER, CO, 80442","No_Match",NA,NA,NA,NA
336960,"PO BOX 1782","LITCHFIELD","CT",6759,NA,NA,460,"PO BOX 1782, LITCHFIELD, CT, 6759","No_Match",NA,NA,NA,NA
336961,"PO BOX 17823","SOUTH LAKE TAHOE","CA",96151,NA,NA,461,"PO BOX 17823, SOUTH LAKE TAHOE, CA, 96151","No_Match",NA,NA,NA,NA
336962,"PO BOX 1783","AMES","IA",50010,NA,NA,462,"PO BOX 1783, AMES, IA, 50010","No_Match",NA,NA,NA,NA
336963,"PO BOX 1783","BRYSON CITY","NC",28713,NA,NA,463,"PO BOX 1783, BRYSON CITY, NC, 28713","No_Match",NA,NA,NA,NA
336964,"PO BOX 1783","CAMPBELL","CA",95009,NA,NA,464,"PO BOX 1783, CAMPBELL, CA, 95009","No_Match",NA,NA,NA,NA
336965,"PO BOX 1783","MORRISTOWN","NJ",7962,NA,NA,465,"PO BOX 1783, MORRISTOWN, NJ, 7962","No_Match",NA,NA,NA,NA
336966,"PO BOX 1783","PORTLAND","OR",97207,NA,NA,466,"PO BOX 1783, PORTLAND, OR, 97207","No_Match",NA,NA,NA,NA
336967,"PO BOX 1783","SILVERTHORNE","CO",80498,NA,NA,467,"PO BOX 1783, SILVERTHORNE, CO, 80498","No_Match",NA,NA,NA,NA
336968,"PO BOX 1785","BELLMAWR",NA,8031,NA,NA,468,"PO BOX 1785, BELLMAWR, , 8031","No_Match",NA,NA,NA,NA
336969,"PO BOX 1785","BELLMAWR","NJ",8099,NA,NA,469,"PO BOX 1785, BELLMAWR, NJ, 8099","No_Match",NA,NA,NA,NA
336970,"PO BOX 1785","SPOKANE","WA",99210,NA,NA,470,"PO BOX 1785, SPOKANE, WA, 99210","No_Match",NA,NA,NA,NA
336971,"PO BOX 1785","VIDOR","TX",77670,NA,NA,471,"PO BOX 1785, VIDOR, TX, 77670","No_Match",NA,NA,NA,NA
336972,"PO BOX 1786","GEORGETOWN","TX",78626,NA,NA,472,"PO BOX 1786, GEORGETOWN, TX, 78626","No_Match",NA,NA,NA,NA
336973,"PO BOX 1786","PLAISTOW","NH",3865,NA,NA,473,"PO BOX 1786, PLAISTOW, NH, 3865","No_Match",NA,NA,NA,NA
336974,"PO BOX 1786","STANLEY","ND",58784,NA,NA,474,"PO BOX 1786, STANLEY, ND, 58784","No_Match",NA,NA,NA,NA
336975,"PO BOX 17862","MISSOULA","MT",59808,NA,NA,475,"PO BOX 17862, MISSOULA, MT, 59808","No_Match",NA,NA,NA,NA
336976,"PO BOX 1787","SHALLOTTE","NC",28459,NA,NA,476,"PO BOX 1787, SHALLOTTE, NC, 28459","No_Match",NA,NA,NA,NA
336977,"PO BOX 178751","SAN DIEGO","CA",92177,NA,NA,477,"PO BOX 178751, SAN DIEGO, CA, 92177","No_Match",NA,NA,NA,NA
336978,"PO BOX 17876","EL PASO","TX",79917,NA,NA,478,"PO BOX 17876, EL PASO, TX, 79917","No_Match",NA,NA,NA,NA
336979,"PO BOX 1788","NEW YORK","NY",10021,NA,NA,479,"PO BOX 1788, NEW YORK, NY, 10021","No_Match",NA,NA,NA,NA
336980,"PO BOX 17881","FORT LAUDERDALE","FL",33318,NA,NA,480,"PO BOX 17881, FORT LAUDERDALE, FL, 33318","No_Match",NA,NA,NA,NA
336981,"PO BOX 1789","ANNA MARIA","FL",34216,NA,NA,481,"PO BOX 1789, ANNA MARIA, FL, 34216","No_Match",NA,NA,NA,NA
336982,"PO BOX 1789","FRESNO","TX",77545,NA,NA,482,"PO BOX 1789, FRESNO, TX, 77545","No_Match",NA,NA,NA,NA
336983,"PO BOX 178916","SAN DIEGO","CA",92177,NA,NA,483,"PO BOX 178916, SAN DIEGO, CA, 92177","No_Match",NA,NA,NA,NA
336984,"PO BOX 17896","NEW YORK","NY",10003,NA,NA,484,"PO BOX 17896, NEW YORK, NY, 10003","No_Match",NA,NA,NA,NA
336985,"PO BOX 179 5868 HARING ROAD","PLUMSTEADVILLE","PA",18949,NA,NA,485,"PO BOX 179 5868 HARING ROAD, PLUMSTEADVILLE, PA, 18949","No_Match",NA,NA,NA,NA
336986,"PO BOX 179","BELOIT","KS",67420,NA,NA,486,"PO BOX 179, BELOIT, KS, 67420","No_Match",NA,NA,NA,NA
336987,"PO BOX 179","BYRON","GA",31008,NA,NA,487,"PO BOX 179, BYRON, GA, 31008","No_Match",NA,NA,NA,NA
336988,"PO BOX 179","COMMERCE","TX",75429,NA,NA,488,"PO BOX 179, COMMERCE, TX, 75429","No_Match",NA,NA,NA,NA
336989,"PO BOX 179","FRANKLIN","VA",23851,NA,NA,489,"PO BOX 179, FRANKLIN, VA, 23851","No_Match",NA,NA,NA,NA
336990,"PO BOX 179","KEY WEST","FL",33041,NA,NA,490,"PO BOX 179, KEY WEST, FL, 33041","No_Match",NA,NA,NA,NA
336991,"PO BOX 179","MORRISVILLE","VT",5661,NA,NA,491,"PO BOX 179, MORRISVILLE, VT, 5661","No_Match",NA,NA,NA,NA
336992,"PO BOX 179","PALACIOS","TX",77465,NA,NA,492,"PO BOX 179, PALACIOS, TX, 77465","No_Match",NA,NA,NA,NA
336993,"PO BOX 179","Saunderstown","RI",2882,NA,NA,493,"PO BOX 179, Saunderstown, RI, 2882","No_Match",NA,NA,NA,NA
336994,"PO BOX 179","WHITEHALL","MT",59759,NA,NA,494,"PO BOX 179, WHITEHALL, MT, 59759","No_Match",NA,NA,NA,NA
336995,"PO BOX 1791","PAGOSA SPRINGS","CO",81147,NA,NA,495,"PO BOX 1791, PAGOSA SPRINGS, CO, 81147","No_Match",NA,NA,NA,NA
336996,"PO BOX 1791","PINEDALE","WY",82941,NA,NA,496,"PO BOX 1791, PINEDALE, WY, 82941","No_Match",NA,NA,NA,NA
336997,"PO BOX 1791","SCOTTSDALE","AZ",85252,NA,NA,497,"PO BOX 1791, SCOTTSDALE, AZ, 85252","No_Match",NA,NA,NA,NA
336998,"PO BOX 17912","TUCSON","AZ",85731,NA,NA,498,"PO BOX 17912, TUCSON, AZ, 85731","No_Match",NA,NA,NA,NA
336999,"PO BOX 17913","SAN ANTONIO","TX",78217,NA,NA,499,"PO BOX 17913, SAN ANTONIO, TX, 78217","No_Match",NA,NA,NA,NA
337000,"PO BOX 1792","CONWAY","SC",29528,NA,NA,500,"PO BOX 1792, CONWAY, SC, 29528","No_Match",NA,NA,NA,NA
