"ID","Address","City","State","Zip","lat","long","id","input_address","match_indicator","match_type","matched_address","tiger_line_id","tiger_side"
274001,"7 ANGELWOOD RD","STANDISH","ME",4084,43.7278750140001,-70.638133591,1,"7 ANGELWOOD RD, STANDISH, ME, 4084","Match","Exact","7 ANGELWOOD RD, STANDISH, ME, 04084",650837052,"R"
274002,"7 ANNA RD","BURLINGTON","MA",1803,42.498677979,-71.194339225,2,"7 ANNA RD, BURLINGTON, MA, 1803","Match","Exact","7 ANNA RD, BURLINGTON, MA, 01803",86881425,"L"
274003,"7 APPLE GROVE DRIVE","HOMDEL","NJ",7733,40.4050779230001,-74.154669745,3,"7 APPLE GROVE DRIVE, HOMDEL, NJ, 7733","Match","Non_Exact","7 APPLE GROVE DR, HOLMDEL, NJ, 07733",90490490,"L"
274004,"7 ARBOR MEADOW DR","SICKLERVILLE","NJ",8081,39.7235669940001,-74.96407124,4,"7 ARBOR MEADOW DR, SICKLERVILLE, NJ, 8081","Match","Exact","7 ARBOR MEADOW DR, SICKLERVILLE, NJ, 08081",134363070,"R"
274005,"7 ARCHER LANE","SCOTCH PLAINS","NJ",7076,40.665782124,-74.3799246729999,5,"7 ARCHER LANE, SCOTCH PLAINS, NJ, 7076","Match","Exact","7 ARCHER LN, SCOTCH PLAINS, NJ, 07076",60566073,"L"
274006,"7 ARGYLE ROAD","MONTCLAIR","NJ",7043,40.8356984380001,-74.194743385,6,"7 ARGYLE ROAD, MONTCLAIR, NJ, 7043","Match","Exact","7 ARGYLE RD, MONTCLAIR, NJ, 07043",624157942,"L"
274007,"7 ASPEN DRIVE","SOUTH BURLINGTON","VT",5403,44.457832409,-73.1809638829999,7,"7 ASPEN DRIVE, SOUTH BURLINGTON, VT, 5403","Match","Exact","7 ASPEN DR, S BURLINGTON, VT, 05403",135842115,"L"
274008,"7 ASTER LANE","SHERIDAN","MT",59749,45.382822575,-112.003946946,8,"7 ASTER LANE, SHERIDAN, MT, 59749","Match","Non_Exact","7 ASTER, SHERIDAN, MT, 59749",633163825,"R"
274009,"7 ATHENS STREET","CAMBRIDGE","MA",2138,42.3705603560001,-71.1153082,9,"7 ATHENS STREET, CAMBRIDGE, MA, 2138","Match","Exact","7 ATHENS ST, CAMBRIDGE, MA, 02138",86868712,"R"
274010,"7 ATWOOD ST","ATTLEBORO","MA",2703,41.9408271030001,-71.2786690089999,10,"7 ATWOOD ST, ATTLEBORO, MA, 2703","Match","Exact","7 ATWOOD ST, ATTLEBORO, MA, 02703",46748004,"R"
274011,"7 AULDWOOD LANE","RUMSON","NJ",7760,40.365278828,-74.016042407,11,"7 AULDWOOD LANE, RUMSON, NJ, 7760","Match","Exact","7 AULDWOOD LN, RUMSON, NJ, 07760",90452834,"L"
274012,"7 AUSTIN AVENUE","GREENVILLE","RI",2828,41.8735875770001,-71.553859871,12,"7 AUSTIN AVENUE, GREENVILLE, RI, 2828","Match","Exact","7 AUSTIN AVE, GREENVILLE, RI, 02828",47505491,"R"
274013,"7 AVENIDA VISTA GRANDE B7-217","SANTA FE","NM",87508,NA,NA,13,"7 AVENIDA VISTA GRANDE B7-217, SANTA FE, NM, 87508","No_Match",NA,NA,NA,NA
274014,"7 AVENU DE LAFAYETTE 121026","BOSTON","MA",2112,NA,NA,14,"7 AVENU DE LAFAYETTE 121026, BOSTON, MA, 2112","No_Match",NA,NA,NA,NA
274015,"7 AVERY BROOK ROAD","SHELBURNE FALLS","MA",1370,42.626266403,-72.810822017,15,"7 AVERY BROOK ROAD, SHELBURNE FALLS, MA, 1370","Match","Exact","7 AVERY BROOK RD, SHELBURNE FALLS, MA, 01370",39914670,"L"
274016,"7 BAIRD ST","MONTPELIER","VT",5602,44.2612906840001,-72.571696032,16,"7 BAIRD ST, MONTPELIER, VT, 5602","Match","Exact","7 BAIRD ST, MONTPELIER, VT, 05602",136697710,"L"
274017,"7 BAIRD STREET","BURLINGTON","VT",5401,44.4490405510001,-73.214078633,17,"7 BAIRD STREET, BURLINGTON, VT, 5401","Match","Exact","7 BAIRD ST, BURLINGTON, VT, 05401",135834407,"L"
274018,"7 BALFOUR STREET","DORCHESTER","MA",2125,42.31429868,-71.07633536,18,"7 BALFOUR STREET, DORCHESTER, MA, 2125","Match","Exact","7 BALFOUR ST, DORCHESTER, MA, 02125",85701806,"L"
274019,"7 BARBARA ROAD","WALPOLE","MA",2081,42.1142372410001,-71.255659618,19,"7 BARBARA ROAD, WALPOLE, MA, 2081","Match","Exact","7 BARBARA RD, WALPOLE, MA, 02081",87261523,"R"
274020,"7 BARON PARK LANE APT 19","BURLINGTON","MA",1803,42.499220531,-71.226983504,20,"7 BARON PARK LANE APT 19, BURLINGTON, MA, 1803","Match","Exact","7 BARON PARK LN, BURLINGTON, MA, 01803",87171831,"L"
274021,"7 BARON PARK LN APT 19","BURLINGTON","MA",1803,42.499220531,-71.226983504,21,"7 BARON PARK LN APT 19, BURLINGTON, MA, 1803","Match","Exact","7 BARON PARK LN, BURLINGTON, MA, 01803",87171831,"L"
274022,"7 BARON PARK LN APT 6","WALTHAM","MA",1803,42.499220531,-71.226983504,22,"7 BARON PARK LN APT 6, WALTHAM, MA, 1803","Match","Non_Exact","7 BARON PARK LN, BURLINGTON, MA, 01803",87171831,"L"
274023,"7 BAYBERRY DRIVE","SUFFERN","NY",10901,41.11546717,-74.0993371869999,23,"7 BAYBERRY DRIVE, SUFFERN, NY, 10901","Match","Exact","7 BAYBERRY DR, SUFFERN, NY, 10901",124592180,"R"
274024,"7 BAYFIELD ROAD","WAYLAND","MA",1778,42.3312529780001,-71.3637862909999,24,"7 BAYFIELD ROAD, WAYLAND, MA, 1778","Match","Exact","7 BAYFIELD RD, WAYLAND, MA, 01778",653285085,"L"
274025,"7 BEAUREGARD DRIVE","WILMINGTON","NC",28412,34.1964417680001,-77.899626208,25,"7 BEAUREGARD DRIVE, WILMINGTON, NC, 28412","Match","Exact","7 BEAUREGARD DR, WILMINGTON, NC, 28412",152760888,"L"
274026,"7 BEECHNUT LANE","HUDSON","MA",1749,42.37810834,-71.506460251,26,"7 BEECHNUT LANE, HUDSON, MA, 1749","Match","Exact","7 BEECHNUT LN, HUDSON, MA, 01749",86924871,"R"
274027,"7 BENNER COURT","BRIDGEWATER","NJ",8807,40.6020751770001,-74.6543197559999,27,"7 BENNER COURT, BRIDGEWATER, NJ, 8807","Match","Exact","7 BENNER CT, BRIDGEWATER, NJ, 08807",627645108,"L"
274028,"7 BENT OAK LANE","ASHEVILLE","NC",28803,35.4949247860001,-82.536335274,28,"7 BENT OAK LANE, ASHEVILLE, NC, 28803","Match","Exact","7 BENT OAK LN, ASHEVILLE, NC, 28803",36874798,"R"
274029,"7 BENTON CT","WILMINGTON","DE",19810,39.8108277870001,-75.518837752,29,"7 BENTON CT, WILMINGTON, DE, 19810","Match","Exact","7 BENTON CT, WILMINGTON, DE, 19810",187259727,"R"
274030,"7 BERCKMAN LANE","ROME","GA",30165,34.261958345,-85.2007582099999,30,"7 BERCKMAN LANE, ROME, GA, 30165","Match","Non_Exact","7 BERCKMAN LN SW, ROME, GA, 30165",645161118,"L"
274031,"7 BIRCHWOOD CIRCLE","FALMOUTH","ME",4105,43.740461596,-70.2623071369999,31,"7 BIRCHWOOD CIRCLE, FALMOUTH, ME, 4105","Match","Exact","7 BIRCHWOOD CIR, FALMOUTH, ME, 04105",627016880,"R"
274032,"7 BIRCHWOOD RD","ENFIELD","CT",6082,42.01404288,-72.556832732,32,"7 BIRCHWOOD RD, ENFIELD, CT, 6082","Match","Exact","7 BIRCHWOOD RD, ENFIELD, CT, 06082",3480478,"L"
274033,"7 BLACK ALDER TRAIL","SAUNDERSTOWN","RI",2874,41.4991220810001,-71.436823621,33,"7 BLACK ALDER TRAIL, SAUNDERSTOWN, RI, 2874","Match","Exact","7 BLACK ALDER TRL, SAUNDERSTOWN, RI, 02874",58905803,"L"
274034,"7 BLACKENRIDGE DR","TAYLORS","SC",29687,34.8873974050001,-82.297176049,34,"7 BLACKENRIDGE DR, TAYLORS, SC, 29687","Match","Exact","7 BLACKENRIDGE DR, TAYLORS, SC, 29687",38309689,"L"
274035,"7 BLUE JAY WAY","FESTUS","MO",63028,NA,NA,35,"7 BLUE JAY WAY, FESTUS, MO, 63028","No_Match",NA,NA,NA,NA
274036,"7 BOLDT CT","ORCHARD PARK","NY",14127,42.797032453,-78.7553273629999,36,"7 BOLDT CT, ORCHARD PARK, NY, 14127","Match","Exact","7 BOLDT CT, ORCHARD PARK, NY, 14127",48310522,"L"
274037,"7 BOULDER CREEK LANE","NEWTOWN SQUARE","PA",19073,40.006445324,-75.403505621,37,"7 BOULDER CREEK LANE, NEWTOWN SQUARE, PA, 19073","Match","Exact","7 BOULDER CREEK LN, NEWTOWN SQUARE, PA, 19073",134897886,"R"
274038,"7 BRANDY LN","WAPPINGERS FALLS","NY",12590,41.6083250630001,-73.8134494349999,38,"7 BRANDY LN, WAPPINGERS FALLS, NY, 12590","Match","Exact","7 BRANDY LN, WAPPINGERS FALLS, NY, 12590",4229599,"L"
274039,"7 BRIARWOOD LN","NEWNAN","GA",30263,33.384859851,-84.802233583,39,"7 BRIARWOOD LN, NEWNAN, GA, 30263","Match","Exact","7 BRIARWOOD LN, NEWNAN, GA, 30263",9320126,"R"
274040,"7 BRICK KILN ROAD","NORTH","MA",2760,41.9900314390001,-71.319579865,40,"7 BRICK KILN ROAD, NORTH, MA, 2760","Match","Non_Exact","7 BRICK KILN RD, NORTH ATTLEBORO, MA, 02760",46745128,"L"
274041,"7 BROOK HILL RD","LITCHFIELD","CT",6759,41.763218754,-73.191018131,41,"7 BROOK HILL RD, LITCHFIELD, CT, 6759","Match","Exact","7 BROOK HILL RD, LITCHFIELD, CT, 06759",3101473,"R"
274042,"7 BROOKSHIRE  DR","CEDAR GROVE","NJ",7009,40.8717499210001,-74.234733311,42,"7 BROOKSHIRE  DR, CEDAR GROVE, NJ, 7009","Match","Exact","7 BROOKSHIRE DR, CEDAR GROVE, NJ, 07009",63478706,"L"
274043,"7 BROOKVIEW DRIVE","ATCO","NJ",8004,39.7595538400001,-74.902501607,43,"7 BROOKVIEW DRIVE, ATCO, NJ, 8004","Match","Exact","7 BROOKVIEW DR, ATCO, NJ, 08004",134419663,"L"
274044,"7 BROOKWOOD DRIVE","BRANFORD","CT",6405,41.313531094,-72.8186429039999,44,"7 BROOKWOOD DRIVE, BRANFORD, CT, 6405","Match","Exact","7 BROOKWOOD DR, BRANFORD, CT, 06405",3749938,"R"
274045,"7 BROOKWOOD DRIVE","ORMOND BEACH","FL",32174,29.2766715330001,-81.089401848,45,"7 BROOKWOOD DRIVE, ORMOND BEACH, FL, 32174","Match","Exact","7 BROOKWOOD DR, ORMOND BEACH, FL, 32174",94520992,"L"
274046,"7 BRUCE STREET","DORCHESTER","MA",2124,42.287564124,-71.0593595719999,46,"7 BRUCE STREET, DORCHESTER, MA, 2124","Match","Exact","7 BRUCE ST, DORCHESTER, MA, 02124",85715290,"R"
274047,"7 BRUNSWICK TERRACE","GARDINER","ME",4345,44.2187164430001,-69.778453874,47,"7 BRUNSWICK TERRACE, GARDINER, ME, 4345","Match","Exact","7 BRUNSWICK TER, GARDINER, ME, 04345",75485897,"R"
274048,"7 BRUSH HOLLOW RD","HOLBROOK","NY",11741,40.7911716890001,-73.084675794,48,"7 BRUSH HOLLOW RD, HOLBROOK, NY, 11741","Match","Exact","7 BRUSH HOLLOW RD, HOLBROOK, NY, 11741",114006639,"L"
274049,"7 BRUTON COURT","GREENVILLE","SC",29687,34.899431378,-82.2934576599999,49,"7 BRUTON COURT, GREENVILLE, SC, 29687","Match","Non_Exact","7 BRUTON CT, TAYLORS, SC, 29687",38345712,"L"
274050,"7 BUDD STREET   APT 2","MORRISTOWN","NJ",7960,40.799393679,-74.489986068,50,"7 BUDD STREET   APT 2, MORRISTOWN, NJ, 7960","Match","Exact","7 BUDD ST, MORRISTOWN, NJ, 07960",60443149,"R"
274051,"7 BUENA VISTA DR","CUMBERLAND","RI",2864,41.9905872570001,-71.432025697,51,"7 BUENA VISTA DR, CUMBERLAND, RI, 2864","Match","Exact","7 BUENA VISTA DR, CUMBERLAND, RI, 02864",623836610,"R"
274052,"7 BUOY LANE","WEST ISLIP","NY",11795,40.6867050010001,-73.288169179,52,"7 BUOY LANE, WEST ISLIP, NY, 11795","Match","Exact","7 BUOY LN, WEST ISLIP, NY, 11795",648685885,"L"
274053,"7 BURGESS LANE","DEDHAM","MA",2026,NA,NA,53,"7 BURGESS LANE, DEDHAM, MA, 2026","No_Match",NA,NA,NA,NA
274054,"7 BYRNES STREET","LIBERTY","SC",29657,34.783137438,-82.686755429,54,"7 BYRNES STREET, LIBERTY, SC, 29657","Match","Exact","7 BYRNES ST, LIBERTY, SC, 29657",26161685,"L"
274055,"7 CALIENTE ROAD - NO 6D","SANTA FE","NM",87508,35.534583577,-105.893920159,55,"7 CALIENTE ROAD - NO 6D, SANTA FE, NM, 87508","Match","Exact","7 CALIENTE RD, SANTA FE, NM, 87508",169398116,"L"
274056,"7 CALM BRANCH WAY","BLUFFTON","SC",29910,NA,NA,56,"7 CALM BRANCH WAY, BLUFFTON, SC, 29910","No_Match",NA,NA,NA,NA
274057,"7 CAMBRIDGE DRIVE","MERRIMACK","NH",3054,42.820866939,-71.5172554769999,57,"7 CAMBRIDGE DRIVE, MERRIMACK, NH, 3054","Match","Exact","7 CAMBRIDGE DR, MERRIMACK, NH, 03054",113569138,"L"
274058,"7 CARDIGAN COURT","WALDORF","MD",20602,38.5927829330001,-76.920726934,58,"7 CARDIGAN COURT, WALDORF, MD, 20602","Match","Exact","7 CARDIGAN CT, WALDORF, MD, 20602",25371590,"L"
274059,"7 CARLTON ROAD","MARBLEHEAD","MA",1945,42.4804728460001,-70.8790180029999,59,"7 CARLTON ROAD, MARBLEHEAD, MA, 1945","Match","Exact","7 CARLTON RD, MARBLEHEAD, MA, 01945",86648099,"R"
274060,"7 CAROLINA AVENUE","PORT MONMOUTH","NJ",7758,40.428267496,-74.1089996809999,60,"7 CAROLINA AVENUE, PORT MONMOUTH, NJ, 7758","Match","Exact","7 CAROLINA AVE, PORT MONMOUTH, NJ, 07758",90469553,"L"
274061,"7 CARRIAGE COURT","FORT THOMAS","KY",41075,39.09761367,-84.461730441,61,"7 CARRIAGE COURT, FORT THOMAS, KY, 41075","Match","Exact","7 CARRIAGE CT, FORT THOMAS, KY, 41075",104448405,"R"
274062,"7 CASSIA COURT","PITTSBURG","CA",94565,38.0248824560001,-121.898350484,62,"7 CASSIA COURT, PITTSBURG, CA, 94565","Match","Non_Exact","7 CASSIA ST, PITTSBURG, CA, 94565",629736250,"L"
274063,"7 CASSIA CT","FREMONT","CA",94565,NA,NA,63,"7 CASSIA CT, FREMONT, CA, 94565","No_Match",NA,NA,NA,NA
274064,"7 CASTLE DR","WOODBURY","NY",11797,40.826506081,-73.471129833,64,"7 CASTLE DR, WOODBURY, NY, 11797","Match","Exact","7 CASTLE DR, WOODBURY, NY, 11797",147640499,"L"
274065,"7 CASTLE RIDGE CT","COLUMBIA","SC",29229,34.1483225430001,-80.8902861129999,65,"7 CASTLE RIDGE CT, COLUMBIA, SC, 29229","Match","Exact","7 CASTLE RIDGE CT, COLUMBIA, SC, 29229",71868467,"R"
274066,"7 CASTLEFORD CT","BALTIMORE","MD",21244,NA,NA,66,"7 CASTLEFORD CT, BALTIMORE, MD, 21244","No_Match",NA,NA,NA,NA
274067,"7 CEDAR BLUFF COURT","CATONSVILLE","MD",21228,39.290707248,-76.753560082,67,"7 CEDAR BLUFF COURT, CATONSVILLE, MD, 21228","Match","Exact","7 CEDAR BLUFF CT, CATONSVILLE, MD, 21228",191483239,"L"
274068,"7 CEDAR LN","MARKLEEVILLE","CA",96120,38.7744104130001,-119.816413961,68,"7 CEDAR LN, MARKLEEVILLE, CA, 96120","Match","Exact","7 CEDAR LN, MARKLEEVILLE, CA, 96120",102224312,"R"
274069,"7 CEDAR ROAD E","MASTIC BEACH","NY",11951,40.765912805,-72.831942308,69,"7 CEDAR ROAD E, MASTIC BEACH, NY, 11951","Match","Non_Exact","7 CEDAR RD, MASTIC BEACH, NY, 11951",114021473,"L"
274070,"7 CHAMPLAIN COURT","RANDOLPH","NJ",7869,40.866983599,-74.5979350119999,70,"7 CHAMPLAIN COURT, RANDOLPH, NJ, 7869","Match","Exact","7 CHAMPLAIN CT, RANDOLPH, NJ, 07869",60435760,"L"
274071,"7 CHANTELLE WAY","SACO","ME",4072,43.5273116330001,-70.471184759,71,"7 CHANTELLE WAY, SACO, ME, 4072","Match","Exact","7 CHANTELLE WAY, SACO, ME, 04072",92793096,"R"
274072,"7 CHAPARRAL LN","LITTLE ROCK","AR",72212,34.7763117160001,-92.392523927,72,"7 CHAPARRAL LN, LITTLE ROCK, AR, 72212","Match","Exact","7 CHAPARRAL LN, LITTLE ROCK, AR, 72212",643885993,"R"
274073,"7 CHENEY STREET","DORCHESTER","MA",2121,42.3086963580001,-71.083815117,73,"7 CHENEY STREET, DORCHESTER, MA, 2121","Match","Exact","7 CHENEY ST, DORCHESTER, MA, 02121",85701534,"R"
274074,"7 CHEROKEE DRIVE","HAVELOCK","NC",28532,34.889830181,-76.9312158879999,74,"7 CHEROKEE DRIVE, HAVELOCK, NC, 28532","Match","Exact","7 CHEROKEE DR, HAVELOCK, NC, 28532",34149666,"R"
274075,"7 CHERRYWOOD CIRCLE","ANDOVER","MA",1810,42.660643022,-71.217259122,75,"7 CHERRYWOOD CIRCLE, ANDOVER, MA, 1810","Match","Exact","7 CHERRYWOOD CIR, ANDOVER, MA, 01810",86625838,"L"
274076,"7 CHESHIRE LANE","SCARSDALE","NY",10583,41.0012457330001,-73.8356778529999,76,"7 CHESHIRE LANE, SCARSDALE, NY, 10583","Match","Exact","7 CHESHIRE LN, SCARSDALE, NY, 10583",648381005,"R"
274077,"7 CHESHIRE RD","WORCESTER","MA",1606,42.305965262,-71.795219663,77,"7 CHESHIRE RD, WORCESTER, MA, 1606","Match","Exact","7 CHESHIRE RD, WORCESTER, MA, 01606",40006510,"L"
274078,"7 CHINA ROSE CT","ROCKVILLE","MD",20850,39.0791601350001,-77.166076467,78,"7 CHINA ROSE CT, ROCKVILLE, MD, 20850","Match","Exact","7 CHINA ROSE CT, ROCKVILLE, MD, 20850",62093259,"R"
274079,"7 CHURCH LN STE 22","PIKESVILLE","MD",21208,39.374943521,-76.724503902,79,"7 CHURCH LN STE 22, PIKESVILLE, MD, 21208","Match","Exact","7 CHURCH LN, PIKESVILLE, MD, 21208",191511006,"L"
274080,"7 CLARK DRIVE","PANACEA","FL",32346,30.0307519880001,-84.389815164,80,"7 CLARK DRIVE, PANACEA, FL, 32346","Match","Exact","7 CLARK DR, PANACEA, FL, 32346",610430229,"R"
274081,"7 CLEMATIS ROAD","LEXINGTON","MA",2421,42.425978925,-71.224314861,81,"7 CLEMATIS ROAD, LEXINGTON, MA, 2421","Match","Exact","7 CLEMATIS RD, LEXINGTON, MA, 02421",87110977,"R"
274082,"7 CLERMONT AVE/ APT 12G","BROOKLYN","NY",11205,40.6975838870001,-73.971718735,82,"7 CLERMONT AVE/ APT 12G, BROOKLYN, NY, 11205","Match","Non_Exact","7 CLERMONT AVE, BROOKLYN, NY, 11205",59077496,"L"
274083,"7 CLEVELAND LANE","PRINCETON","NJ",8540,40.3522977050001,-74.668126269,83,"7 CLEVELAND LANE, PRINCETON, NJ, 8540","Match","Exact","7 CLEVELAND LN, PRINCETON, NJ, 08540",647356721,"R"
274084,"7 CLIFF TRAIL","FRISCO","TX",75034,33.0964460640001,-96.8324802289999,84,"7 CLIFF TRAIL, FRISCO, TX, 75034","Match","Exact","7 CLIFF TRL, FRISCO, TX, 75034",123482720,"R"
274085,"7 CLIPPER CT","ATLANTIC CITY","NJ",8401,NA,NA,85,"7 CLIPPER CT, ATLANTIC CITY, NJ, 8401","Tie",NA,NA,NA,NA
274086,"7 CLUB PLACE","GALLOWAY","NJ",8205,39.4907153720001,-74.506644336,86,"7 CLUB PLACE, GALLOWAY, NJ, 8205","Match","Exact","7 CLUB PL, GALLOWAY, NJ, 08205",202537666,"L"
274087,"7 CLYDE ROAD","SOMERSET","NJ",8873,40.4881170370001,-74.508910343,87,"7 CLYDE ROAD, SOMERSET, NJ, 8873","Match","Exact","7 CLYDE RD, SOMERSET, NJ, 08873",59974770,"L"
274088,"7 CLYMER ST","AUBURN","NY",13021,42.916264219,-76.566351294,88,"7 CLYMER ST, AUBURN, NY, 13021","Match","Exact","7 CLYMER ST, AUBURN, NY, 13021",33497270,"L"
274089,"7 COLONEL WILKINS RD","AMHERST","NH",3031,42.851326005,-71.629563343,89,"7 COLONEL WILKINS RD, AMHERST, NH, 3031","Match","Exact","7 COLONEL WILKINS RD, AMHERST, NH, 03031",113569728,"R"
274090,"7 CONASAUGA TERRACE","ROME","GA",30165,34.286536663,-85.23895673,90,"7 CONASAUGA TERRACE, ROME, GA, 30165","Match","Exact","7 CONASAUGA TER, ROME, GA, 30165",625295978,"L"
274091,"7 CONCORD DRIVE","MONSEY","NY",10952,41.13447289,-74.072546201,91,"7 CONCORD DRIVE, MONSEY, NY, 10952","Match","Exact","7 CONCORD DR, MONSEY, NY, 10952",124592828,"R"
274092,"7 CONIFER CT","COLUMBIA","SC",29229,34.1514040870001,-80.881568171,92,"7 CONIFER CT, COLUMBIA, SC, 29229","Match","Exact","7 CONIFER CT, COLUMBIA, SC, 29229",604789990,"R"
274093,"7 COOLIDGE COURT","CALIFON","NJ",7830,40.7233235740001,-74.837815947,93,"7 COOLIDGE COURT, CALIFON, NJ, 7830","Match","Exact","7 COOLIDGE CT, CALIFON, NJ, 07830",60023478,"L"
274094,"7 CORA DR","COHOES","NY",12047,42.766630923,-73.740270417,94,"7 CORA DR, COHOES, NY, 12047","Match","Exact","7 CORA DR, COHOES, NY, 12047",18306295,"R"
274095,"7 CORONADO LANE","EGG HARBOR TWP","NJ",8234,39.3915569440001,-74.606912294,95,"7 CORONADO LANE, EGG HARBOR TWP, NJ, 8234","Match","Exact","7 CORONADO LN, EGG HARBOR TOWNSHIP, NJ, 08234",202509344,"L"
274096,"7 CORPORAL BURNS ROAD","CAMBRIDGE","MA",2138,42.3857443650001,-71.1379808619999,96,"7 CORPORAL BURNS ROAD, CAMBRIDGE, MA, 2138","Match","Exact","7 CORPORAL BURNS RD, CAMBRIDGE, MA, 02138",86892139,"L"
274097,"7 COUNTRY CLUB LN","EDWARDSVILLE","IL",62025,NA,NA,97,"7 COUNTRY CLUB LN, EDWARDSVILLE, IL, 62025","Tie",NA,NA,NA,NA
274098,"7 COUNTRY CLUB RD S","PARIS","IL",61944,39.6110843530001,-87.670342201,98,"7 COUNTRY CLUB RD S, PARIS, IL, 61944","Match","Non_Exact","7 COUNTRY CLUB RD, PARIS, IL, 61944",5798858,"L"
274099,"7 COUNTRY ROAD","SALT ROCK","WV",25559,38.339125435,-82.233735308,99,"7 COUNTRY ROAD, SALT ROCK, WV, 25559","Match","Exact","7 COUNTRY RD, SALT ROCK, WV, 25559",636145519,"L"
274100,"7 COUNTY ROAD 1024","OXFORD","MS",38655,34.4085841360001,-89.5799320679999,100,"7 COUNTY ROAD 1024, OXFORD, MS, 38655","Match","Exact","7 CR 1024, OXFORD, MS, 38655",76969126,"R"
274101,"7 COWPATH COURT","SICKLERVILLE","NJ",8081,39.746268941,-74.9785304019999,101,"7 COWPATH COURT, SICKLERVILLE, NJ, 8081","Match","Exact","7 COWPATH CT, SICKLERVILLE, NJ, 08081",134374990,"L"
274102,"7 CREEK BOTTOM COURT","WENTZVILLE","MO",63385,38.7322749670001,-90.837053036,102,"7 CREEK BOTTOM COURT, WENTZVILLE, MO, 63385","Match","Exact","7 CREEK BOTTOM CT, WENTZVILLE, MO, 63385",605596627,"R"
274103,"7 CREST ROAD","TEWKSBURY","MA",1876,42.6449345390001,-71.259568964,103,"7 CREST ROAD, TEWKSBURY, MA, 1876","Match","Exact","7 CREST RD, TEWKSBURY, MA, 01876",86879926,"R"
274104,"7 CRESTLAND ROAD","INDIAN CREEK","IL",60061,42.2235153030001,-87.9773264139999,104,"7 CRESTLAND ROAD, INDIAN CREEK, IL, 60061","Match","Exact","7 CRESTLAND RD, INDIAN CREEK, IL, 60061",119639463,"R"
274105,"7 CRESTVIEW AVENUE","CORTLANDT MANOR","NY",10567,41.2911058080001,-73.879575813,105,"7 CRESTVIEW AVENUE, CORTLANDT MANOR, NY, 10567","Match","Exact","7 CRESTVIEW AVE, CORTLANDT MANOR, NY, 10567",139725120,"R"
274106,"7 CROMWELL PLACE","WHITE PLAINS","NY",10601,41.0276236920001,-73.767426122,106,"7 CROMWELL PLACE, WHITE PLAINS, NY, 10601","Match","Exact","7 CROMWELL PL, WHITE PLAINS, NY, 10601",139741580,"L"
274107,"7 CROSBY ROAD","LEXINGTON","MA",2421,42.4464813170001,-71.2527406739999,107,"7 CROSBY ROAD, LEXINGTON, MA, 2421","Match","Exact","7 CROSBY RD, LEXINGTON, MA, 02421",87174694,"R"
274108,"7 CROSS CREEK LANE","DOTHAN","AL",36303,31.2441547240001,-85.481926984,108,"7 CROSS CREEK LANE, DOTHAN, AL, 36303","Match","Exact","7 CROSS CREEK LN, DOTHAN, AL, 36303",101227537,"L"
274109,"7 CUTLER CT","SUFFREN","NY",10901,41.1510653300001,-74.104650369,109,"7 CUTLER CT, SUFFREN, NY, 10901","Match","Non_Exact","7 CUTLER CT, SUFFERN, NY, 10901",124604155,"L"
274110,"7 DALLAS 260","SPARKMAN","AR",71763,33.8132333020001,-92.712752713,110,"7 DALLAS 260, SPARKMAN, AR, 71763","Match","Exact","7 DALLAS 260, SPARKMAN, AR, 71763",625357387,"R"
274111,"7 DAN COURT","MIDLAND","MI",48642,43.6294031,-84.2170914989999,111,"7 DAN COURT, MIDLAND, MI, 48642","Match","Exact","7 DAN CT, MIDLAND, MI, 48642",81193628,"R"
274112,"7 DARLING STREET","SAVANNAH","GA",31408,32.086526215,-81.135666602,112,"7 DARLING STREET, SAVANNAH, GA, 31408","Match","Exact","7 DARLING ST, SAVANNAH, GA, 31408",6169532,"R"
274113,"7 DARTMOUTH TRACE","ORMOND BEACH","FL",32174,29.262091303,-81.153489591,113,"7 DARTMOUTH TRACE, ORMOND BEACH, FL, 32174","Match","Exact","7 DARTMOUTH TRCE, ORMOND BEACH, FL, 32174",94563036,"R"
274114,"7 DASSANCE DRIVE","FOXBOROUGH","MA",2035,42.0537425050001,-71.195753216,114,"7 DASSANCE DRIVE, FOXBOROUGH, MA, 2035","Match","Exact","7 DASSANCE DR, FOXBOROUGH, MA, 02035",87263008,"L"
274115,"7 DAVENPORT STREET","HARRISON","NY",10528,40.965590741,-73.7129398289999,115,"7 DAVENPORT STREET, HARRISON, NY, 10528","Match","Exact","7 DAVENPORT ST, HARRISON, NY, 10528",139788847,"R"
274116,"7 DAVIS CT","JACKSONVILLE","AR",72076,34.857611956,-92.1185313999999,116,"7 DAVIS CT, JACKSONVILLE, AR, 72076","Match","Exact","7 DAVIS CT, JACKSONVILLE, AR, 72076",624950248,"R"
274117,"7 DEBBY WAY","GUNNISON","CO",81230,38.632018019,-106.873075691,117,"7 DEBBY WAY, GUNNISON, CO, 81230","Match","Exact","7 DEBBY WAY, GUNNISON, CO, 81230",108373821,"L"
274118,"7 DEBRA LA","BRANFORD","CT",6405,41.308796769,-72.788891023,118,"7 DEBRA LA, BRANFORD, CT, 6405","Match","Exact","7 DEBRA LN, BRANFORD, CT, 06405",3749898,"R"
274119,"7 DEEP BRANCH ROAD","SHALLOTTE","NC",28470,33.952329611,-78.3951281399999,119,"7 DEEP BRANCH ROAD, SHALLOTTE, NC, 28470","Match","Non_Exact","7 DEEP BRANCH RD SW, SHALLOTTE, NC, 28470",153156846,"L"
274120,"7 DEERFIELD LANE","S WINDSOR","CT",6074,41.8273972210001,-72.5409541719999,120,"7 DEERFIELD LANE, S WINDSOR, CT, 6074","Match","Exact","7 DEERFIELD LN, SOUTH WINDSOR, CT, 06074",3491607,"L"
274121,"7 DEKALB AVE/ 70 FLEET ST SUITE 11D","BROOKLYN","NY",11201,40.689980926,-73.982461805,121,"7 DEKALB AVE/ 70 FLEET ST SUITE 11D, BROOKLYN, NY, 11201","Match","Non_Exact","7 DEKALB AVE, BROOKLYN, NY, 11201",641438787,"L"
274122,"7 DEKALB AVENUE","BROOKLYN","NY",11201,40.689980926,-73.982461805,122,"7 DEKALB AVENUE, BROOKLYN, NY, 11201","Match","Exact","7 DEKALB AVE, BROOKLYN, NY, 11201",641438787,"L"
274123,"7 DELLWOOD CIRCLE","LITTLE ROCK","AR",72209,34.7029656940001,-92.33490259,123,"7 DELLWOOD CIRCLE, LITTLE ROCK, AR, 72209","Match","Exact","7 DELLWOOD CIR, LITTLE ROCK, AR, 72209",83512522,"L"
274124,"7 DELMAR DR","CLINTON","IL",61727,40.141908851,-88.973325043,124,"7 DELMAR DR, CLINTON, IL, 61727","Match","Exact","7 DELMAR DR, CLINTON, IL, 61727",616027989,"R"
274125,"7 DIANE AVE","MARMORA","NJ",8223,39.2709162740001,-74.644028321,125,"7 DIANE AVE, MARMORA, NJ, 8223","Match","Exact","7 DIANE AVE, MARMORA, NJ, 08223",174341999,"L"
274126,"7 DIVISION ST BSMT C","DANBURY","DE",6810,NA,NA,126,"7 DIVISION ST BSMT C, DANBURY, DE, 6810","No_Match",NA,NA,NA,NA
274127,"7 DOUGLASS LANE","ANDOVER","MA",1810,42.6147072950001,-71.093388693,127,"7 DOUGLASS LANE, ANDOVER, MA, 1810","Match","Exact","7 DOUGLASS LN, ANDOVER, MA, 01810",86674317,"R"
274128,"7 DOVER HILL RD","TOPSFIELD","MA",1983,42.636943086,-70.941309754,128,"7 DOVER HILL RD, TOPSFIELD, MA, 1983","Match","Exact","7 DOVER HILL RD, TOPSFIELD, MA, 01983",86670825,"R"
274129,"7 DRAKE DRIVE","BAYVILLE","NJ",8721,39.911144499,-74.12757239,129,"7 DRAKE DRIVE, BAYVILLE, NJ, 8721","Match","Exact","7 DRAKE DR, BAYVILLE, NJ, 08721",203739623,"L"
274130,"7 DURHAM ROAD","LARCHMONT","NY",10538,40.9542914130001,-73.756762356,130,"7 DURHAM ROAD, LARCHMONT, NY, 10538","Match","Exact","7 DURHAM RD, LARCHMONT, NY, 10538",652093939,"R"
274131,"7 DUTCHESS DRIVE","OLD LYME","CT",6371,NA,NA,131,"7 DUTCHESS DRIVE, OLD LYME, CT, 6371","No_Match",NA,NA,NA,NA
274132,"7 E FRANKLIN STREET 3RD FLOOR","BALTIMORE","MD",21202,39.295111235,-76.615226272,132,"7 E FRANKLIN STREET 3RD FLOOR, BALTIMORE, MD, 21202","Match","Non_Exact","7 E FRANKLIN ST, BALTIMORE, MD, 21202",206420528,"R"
274133,"7 E GALVEZ CT","PENSACOLA BEACH","FL",32561,30.3272759860001,-87.174807973,133,"7 E GALVEZ CT, PENSACOLA BEACH, FL, 32561","Match","Exact","7 E GALVEZ CT, PENSACOLA BEACH, FL, 32561",93273697,"R"
274134,"7 E MAIN ST","VERMILLION","SD",57069,NA,NA,134,"7 E MAIN ST, VERMILLION, SD, 57069","Tie",NA,NA,NA,NA
274135,"7 E","YORK","PA",17401,NA,NA,135,"7 E, YORK, PA, 17401","No_Match",NA,NA,NA,NA
274136,"7 EAGLE CENTER","OFALLON","IL",62269,NA,NA,136,"7 EAGLE CENTER, OFALLON, IL, 62269","No_Match",NA,NA,NA,NA
274137,"7 EAST 14TH STREET APT 17 S","NEW YORK","NY",10003,40.7359078600001,-73.9933614129999,137,"7 EAST 14TH STREET APT 17 S, NEW YORK, NY, 10003","Match","Exact","7 E 14TH ST, NEW YORK, NY, 10003",59653545,"L"
274138,"7 EAST CARRIAGEWAY AVE 504","HAZELCREST","IL",60429,41.569326388,-87.69037903,138,"7 EAST CARRIAGEWAY AVE 504, HAZELCREST, IL, 60429","Match","Non_Exact","7 E CARRIAGEWAY DR, HAZEL CREST, IL, 60429",641667310,"L"
274139,"7 EAST MARKET STREET  SUITE 102","LEEBURG","VA",20176,39.115318325,-77.564080754,139,"7 EAST MARKET STREET  SUITE 102, LEEBURG, VA, 20176","Match","Non_Exact","7 E MARKET ST, LEESBURG, VA, 20176",652319760,"L"
274140,"7 EAST MONTGOMERY STREET","JOHNSTOWN","NY",12095,43.0026790730001,-74.370698131,140,"7 EAST MONTGOMERY STREET, JOHNSTOWN, NY, 12095","Match","Exact","7 E MONTGOMERY ST, JOHNSTOWN, NY, 12095",153637939,"R"
274141,"7 EAST NEW AVERY PLACE","THE WOODLANDS","TX",77382,NA,NA,141,"7 EAST NEW AVERY PLACE, THE WOODLANDS, TX, 77382","No_Match",NA,NA,NA,NA
274142,"7 EAST PLATT STREET","LAWRENCE","MA",1841,42.7165706920001,-71.14174723,142,"7 EAST PLATT STREET, LAWRENCE, MA, 1841","Match","Exact","7 E PLATT ST, LAWRENCE, MA, 01841",86628262,"R"
274143,"7 EAST TEMPLE AVENUE","SELLERSVILLE","PA",18960,40.3599317640001,-75.310587439,143,"7 EAST TEMPLE AVENUE, SELLERSVILLE, PA, 18960","Match","Exact","7 E TEMPLE AVE, SELLERSVILLE, PA, 18960",134770609,"L"
274144,"7 EASY STREET","STORY","WY",82842,44.5736543560001,-106.893936555,144,"7 EASY STREET, STORY, WY, 82842","Match","Exact","7 EASY ST, STORY, WY, 82842",634714951,"L"
274145,"7 EDWARD ST","BROCKTON","MA",2302,42.088266333,-70.979224599,145,"7 EDWARD ST, BROCKTON, MA, 2302","Match","Exact","7 EDWARD ST, BROCKTON, MA, 02302",87443102,"R"
274146,"7 ELEMENTARY SCHOOL DRIVE SUITE 2","MAYSVILLE","WV",26833,NA,NA,146,"7 ELEMENTARY SCHOOL DRIVE SUITE 2, MAYSVILLE, WV, 26833","No_Match",NA,NA,NA,NA
274147,"7 ELMWOOD ROAD","SWAMPSCOTT","MA",1907,42.4714565630001,-70.919860453,147,"7 ELMWOOD ROAD, SWAMPSCOTT, MA, 1907","Match","Exact","7 ELMWOOD RD, SWAMPSCOTT, MA, 01907",86646501,"R"
274148,"7 ESSEX GREEN DRIVE STE 51","PEABODY","MA",1960,42.538743477,-70.949375287,148,"7 ESSEX GREEN DRIVE STE 51, PEABODY, MA, 1960","Match","Exact","7 ESSEX GREEN DR, PEABODY, MA, 01960",86679268,"R"
274149,"7 EWAN TERRACE","VINELAND","NJ",8360,39.486025655,-75.013394766,149,"7 EWAN TERRACE, VINELAND, NJ, 8360","Match","Exact","7 EWAN TER, VINELAND, NJ, 08360",174111038,"R"
274150,"7 FAIRMONT CIRCLE","CLARKS SUMMIT","PA",18411,41.479749381,-75.702870923,150,"7 FAIRMONT CIRCLE, CLARKS SUMMIT, PA, 18411","Match","Exact","7 FAIRMONT CIR, CLARKS SUMMIT, PA, 18411",616610226,"L"
274151,"7 FALLS TER","BOERNE","TX",78015,29.734995285,-98.6436641,151,"7 FALLS TER, BOERNE, TX, 78015","Match","Exact","7 FALLS TER, BOERNE, TX, 78015",101574914,"L"
274152,"7 FALLS TERRACE","BOERNE","TX",78015,29.734995285,-98.6436641,152,"7 FALLS TERRACE, BOERNE, TX, 78015","Match","Exact","7 FALLS TER, BOERNE, TX, 78015",101574914,"L"
274153,"7 FARA WAY","GUSTAVUS","AK",99826,NA,NA,153,"7 FARA WAY, GUSTAVUS, AK, 99826","No_Match",NA,NA,NA,NA
274154,"7 FELLOWSHIP LANE","PISCATA","NJ",8854,40.539450618,-74.4122717879999,154,"7 FELLOWSHIP LANE, PISCATA, NJ, 8854","Match","Non_Exact","7 FELLOWSHIP LN, PISCATAWAY, NJ, 08854",60265669,"L"
274155,"7 FENWICK PLACE","NORWALK","CT",6855,41.1013884550001,-73.4014580149999,155,"7 FENWICK PLACE, NORWALK, CT, 6855","Match","Exact","7 FENWICK PL, NORWALK, CT, 06855",3251418,"R"
274156,"7 FILLMORE AVENUE","LAKEWOOD","NJ",8701,40.060031832,-74.216163549,156,"7 FILLMORE AVENUE, LAKEWOOD, NJ, 8701","Match","Exact","7 FILLMORE AVE, LAKEWOOD, NJ, 08701",617764042,"R"
274157,"7 FIREPLACE LANE","HICKSVILLE","NY",11801,40.7465534070001,-73.512434271,157,"7 FIREPLACE LANE, HICKSVILLE, NY, 11801","Match","Exact","7 FIREPLACE LN, HICKSVILLE, NY, 11801",147644092,"L"
274158,"7 FITZGERALD LN","KUTZTOWN","PA",19530,40.5410302990001,-75.8697235229999,158,"7 FITZGERALD LN, KUTZTOWN, PA, 19530","Match","Exact","7 FITZGERALD LN, KUTZTOWN, PA, 19530",651792305,"L"
274159,"7 FLAMINGO LANDING DR","MISSOURI CITY","TX",77459,29.5564023480001,-95.53466966,159,"7 FLAMINGO LANDING DR, MISSOURI CITY, TX, 77459","Match","Exact","7 FLAMINGO LANDING DR, MISSOURI CITY, TX, 77459",78293299,"R"
274160,"7 FORDHAM HILL OVAL","BRONX","NY",10468,40.8635492400001,-73.908088215,160,"7 FORDHAM HILL OVAL, BRONX, NY, 10468","Match","Exact","7 FORDHAM HILL OVAL, BRONX, NY, 10468",640814398,"L"
274161,"7 FORDYCE LANE","ST LOUIS","MO",63124,38.6576573770001,-90.388738788,161,"7 FORDYCE LANE, ST LOUIS, MO, 63124","Match","Exact","7 FORDYCE LN, SAINT LOUIS, MO, 63124",100193823,"L"
274162,"7 FOREST COVE CT","STREAMWOOD","IL",60107,42.011709556,-88.190208218,162,"7 FOREST COVE CT, STREAMWOOD, IL, 60107","Match","Exact","7 FOREST COVE CT, STREAMWOOD, IL, 60107",646577212,"R"
274163,"7 FOREST DRIVE","PISCATAWAY","NJ",8854,40.5640274200001,-74.4941844909999,163,"7 FOREST DRIVE, PISCATAWAY, NJ, 8854","Match","Exact","7 FOREST DR, PISCATAWAY, NJ, 08854",617905963,"R"
274164,"7 FOREST HILLS DRIVE","WEST HARTFORD","CT",6107,NA,NA,164,"7 FOREST HILLS DRIVE, WEST HARTFORD, CT, 6107","No_Match",NA,NA,NA,NA
274165,"7 FORREST ST","ALEXANDRIA","VA",22305,38.829508069,-77.0604577029999,165,"7 FORREST ST, ALEXANDRIA, VA, 22305","Match","Exact","7 FORREST ST, ALEXANDRIA, VA, 22305",75987792,"R"
274166,"7 FOX LANE","LITTLETON","MA",1460,42.5466960590001,-71.5286874829999,166,"7 FOX LANE, LITTLETON, MA, 1460","Match","Exact","7 FOX LN, LITTLETON, MA, 01460",86927193,"L"
274167,"7 FOX POINT DRIVE","SAINT JAMES","NY",11780,40.914377653,-73.192856515,167,"7 FOX POINT DRIVE, SAINT JAMES, NY, 11780","Match","Exact","7 FOX POINT DR, SAINT JAMES, NY, 11780",114233224,"L"
274168,"7 FRALLO DRIVE","HADLEY","MA",1035,42.371539038,-72.5663749079999,168,"7 FRALLO DRIVE, HADLEY, MA, 1035","Match","Exact","7 FRALLO DR, HADLEY, MA, 01035",39856161,"R"
274169,"7 FRANCE PLACE","LARCHMONT","NY",10538,40.936191095,-73.7659073839999,169,"7 FRANCE PLACE, LARCHMONT, NY, 10538","Match","Exact","7 FRANCE PL, LARCHMONT, NY, 10538",139751761,"L"
274170,"7 FRANKLIN GETZ DRIVE","BROOMALL","PA",19008,39.979460105,-75.352057379,170,"7 FRANKLIN GETZ DRIVE, BROOMALL, PA, 19008","Match","Exact","7 FRANKLIN GETZ DR, BROOMALL, PA, 19008",134873397,"L"
274171,"7 FRANKLINWOOD CT","GREENSBORO","NC",27401,36.073215104,-79.742181531,171,"7 FRANKLINWOOD CT, GREENSBORO, NC, 27401","Match","Exact","7 FRANKLINWOOD CT, GREENSBORO, NC, 27401",131115334,"R"
274172,"7 FREESTONE AVENUE","PORTLAND","CT",6480,41.574343732,-72.638770198,172,"7 FREESTONE AVENUE, PORTLAND, CT, 6480","Match","Exact","7 FREESTONE AVE, PORTLAND, CT, 06480",113887537,"R"
274173,"7 FURNARI FARM LANE","ANDOVER","MA",1810,42.674969037,-71.225987867,173,"7 FURNARI FARM LANE, ANDOVER, MA, 1810","Match","Exact","7 FURNARI FARM LN, ANDOVER, MA, 01810",86625593,"R"
274174,"7 GAGE RD","BEDFORD","NH",3110,42.9168711250001,-71.502196023,174,"7 GAGE RD, BEDFORD, NH, 3110","Match","Exact","7 GAGE RD, BEDFORD, NH, 03110",113530609,"R"
274175,"7 GAMECOCK AVE","CHARLESTON","SC",29407,32.8201058400001,-79.993692601,175,"7 GAMECOCK AVE, CHARLESTON, SC, 29407","Match","Exact","7 GAMECOCK AVE, CHARLESTON, SC, 29407",648771864,"R"
274176,"7 GARDEN LANE","ARLINGTON","TX",76016,32.69490441,-97.167718226,176,"7 GARDEN LANE, ARLINGTON, TX, 76016","Match","Exact","7 GARDEN LN, ARLINGTON, TX, 76016",630166306,"L"
274177,"7 GERALDINE DR","MONROE","VA",8831,NA,NA,177,"7 GERALDINE DR, MONROE, VA, 8831","No_Match",NA,NA,NA,NA
274178,"7 GILMORE ST","UNIONTOWN","PA",15401,39.903858331,-79.730001241,178,"7 GILMORE ST, UNIONTOWN, PA, 15401","Match","Exact","7 GILMORE ST, UNIONTOWN, PA, 15401",613521977,"L"
274179,"7 GILROY AVENUE","STATEN ISLAND","NY",10309,40.54375284,-74.204131632,179,"7 GILROY AVENUE, STATEN ISLAND, NY, 10309","Match","Non_Exact","7 GILROY ST, STATEN ISLAND, NY, 10309",59873949,"R"
274180,"7 GOLDEN GATE AVE","BELVEDERE","CA",94920,37.875215414,-122.470786782,180,"7 GOLDEN GATE AVE, BELVEDERE, CA, 94920","Match","Exact","7 GOLDEN GATE AVE, BELVEDERE, CA, 94920",636412895,"R"
274181,"7 GORHAM AVE","LONG ISLAND","ME",4050,43.6848808760001,-70.1619980139999,181,"7 GORHAM AVE, LONG ISLAND, ME, 4050","Match","Exact","7 GORHAM AVE, LONG ISLAND, ME, 04050",78068673,"R"
274182,"7 GRACE CT NORTH","GREAT NECK","NY",11021,40.7910881870001,-73.719980343,182,"7 GRACE CT NORTH, GREAT NECK, NY, 11021","Match","Exact","7 GRACE CT N, GREAT NECK, NY, 11021",147659852,"L"
274183,"7 GRAND OAK FARM ROAD","HADLEY","MA",1035,42.330536061,-72.567324393,183,"7 GRAND OAK FARM ROAD, HADLEY, MA, 1035","Match","Exact","7 GRAND OAK FARM RD, HADLEY, MA, 01035",647313028,"L"
274184,"7 GRANDVIEW ROAD","SOUTH SALEM","NY",10590,41.2440834220001,-73.5441508769999,184,"7 GRANDVIEW ROAD, SOUTH SALEM, NY, 10590","Match","Exact","7 GRANDVIEW RD, SOUTH SALEM, NY, 10590",640546253,"R"
274185,"7 GREENLEAF CT","SAVANNAH","GA",31406,31.9939288300001,-81.114205162,185,"7 GREENLEAF CT, SAVANNAH, GA, 31406","Match","Exact","7 GREENLEAF CT, SAVANNAH, GA, 31406",6174215,"L"
274186,"7 GREENWAY PL","GREENBELT","MD",20770,39.007827433,-76.8817820959999,186,"7 GREENWAY PL, GREENBELT, MD, 20770","Match","Exact","7 GREENWAY PL, GREENBELT, MD, 20770",639487942,"L"
274187,"7 GWYNNS MILL COURT SUITE J","OWINGS MILLS","MD",21117,39.4139290680001,-76.7816259109999,187,"7 GWYNNS MILL COURT SUITE J, OWINGS MILLS, MD, 21117","Match","Exact","7 GWYNNS MILL CT, OWINGS MILLS, MD, 21117",191552263,"L"
274188,"7 HADLEY WAY","MORRISTOWN","NJ",7960,40.776393097,-74.459058564,188,"7 HADLEY WAY, MORRISTOWN, NJ, 7960","Match","Exact","7 HADLEY WAY, MORRISTOWN, NJ, 07960",60444004,"R"
274189,"7 HAINES DRIVE","MOORESTOWN","NJ",8057,39.955141978,-74.9476677,189,"7 HAINES DRIVE, MOORESTOWN, NJ, 8057","Match","Exact","7 HAINES DR, MOORESTOWN, NJ, 08057",134066805,"R"
274190,"7 HANCOCK PLACE","CAMBRIDGE","MA",2139,42.369752691,-71.1071573359999,190,"7 HANCOCK PLACE, CAMBRIDGE, MA, 2139","Match","Exact","7 HANCOCK PL, CAMBRIDGE, MA, 02139",86868889,"R"
274191,"7 HARDSCRABBLE CLOSE","EAST HAMPTON","NY",11937,40.9712583210001,-72.2268575969999,191,"7 HARDSCRABBLE CLOSE, EAST HAMPTON, NY, 11937","Match","Exact","7 HARDSCRABBLE CLOSE, EAST HAMPTON, NY, 11937",113960640,"L"
274192,"7 HARTWELL CT APT D","SAVOY","IL",61874,40.043635517,-88.259444662,192,"7 HARTWELL CT APT D, SAVOY, IL, 61874","Match","Exact","7 HARTWELL CT, SAVOY, IL, 61874",8822466,"L"
274193,"7 HARVEY RD","LONDONDERRY","NH",3053,42.8998636200001,-71.415095096,193,"7 HARVEY RD, LONDONDERRY, NH, 3053","Match","Exact","7 HARVEY RD, LONDONDERRY, NH, 03053",113668171,"R"
274194,"7 HATTERAS LANDING","HAMPTON","VA",23669,37.0642563440001,-76.328999564,194,"7 HATTERAS LANDING, HAMPTON, VA, 23669","Match","Exact","7 HATTERAS LNDG, HAMPTON, VA, 23669",103759424,"L"
274195,"7 HAY ROAD","NEWTON","MA",2459,42.2940109100001,-71.1857887419999,195,"7 HAY ROAD, NEWTON, MA, 2459","Match","Exact","7 HAY RD, NEWTON, MA, 02459",86867198,"R"
274196,"7 HEATHERIDGE ST","ANN ARBOR","MI",48104,42.2715079060001,-83.714206857,196,"7 HEATHERIDGE ST, ANN ARBOR, MI, 48104","Match","Exact","7 HEATHERIDGE ST, ANN ARBOR, MI, 48104",26015435,"R"
274197,"7 HEGEMAN AVENUE APT 4A","BROOKLYN","NY",11212,40.6556041430001,-73.911759229,197,"7 HEGEMAN AVENUE APT 4A, BROOKLYN, NY, 11212","Match","Exact","7 HEGEMAN AVE, BROOKLYN, NY, 11212",59084131,"L"
274198,"7 HEGEMAN AVENUE APT 4C","BROOKLYN","NY",11212,40.6556041430001,-73.911759229,198,"7 HEGEMAN AVENUE APT 4C, BROOKLYN, NY, 11212","Match","Exact","7 HEGEMAN AVE, BROOKLYN, NY, 11212",59084131,"L"
274199,"7 HELEN COURT","MONROE TOWNSHIP","NJ",8831,40.320541227,-74.40906365,199,"7 HELEN COURT, MONROE TOWNSHIP, NJ, 8831","Match","Exact","7 HELEN CT, MONROE TOWNSHIP, NJ, 08831",633353878,"L"
274200,"7 HELEN STREET","WARREN","NJ",7059,40.6257387260001,-74.4818178209999,200,"7 HELEN STREET, WARREN, NJ, 7059","Match","Exact","7 HELEN ST, WARREN, NJ, 07059",59948415,"L"
274201,"7 HEMLOCK ROAD","LIVINGSTON","NJ",7039,40.8079652110001,-74.300298486,201,"7 HEMLOCK ROAD, LIVINGSTON, NJ, 7039","Match","Exact","7 HEMLOCK RD, LIVINGSTON, NJ, 07039",63457761,"R"
274202,"7 HENRY CLAY DRIVE","MERRIMACK","NH",3054,42.8052149590001,-71.484452187,202,"7 HENRY CLAY DRIVE, MERRIMACK, NH, 3054","Match","Exact","7 HENRY CLAY DR, MERRIMACK, NH, 03054",641500256,"R"
274203,"7 HICKORY ROAD","NORTH PROVIDENCE","RI",2904,41.867847829,-71.4643544319999,203,"7 HICKORY ROAD, NORTH PROVIDENCE, RI, 2904","Match","Exact","7 HICKORY RD, N PROVIDENCE, RI, 02904",47456163,"R"
274204,"7 HIGH RIDGE COURT","PAWCATUCK","CT",6379,41.388513103,-71.859925077,204,"7 HIGH RIDGE COURT, PAWCATUCK, CT, 6379","Match","Exact","7 HIGH RIDGE CT, PAWCATUCK, CT, 06379",56856727,"R"
274205,"7 HIGHGATE COURT","WESTAMPTON","NJ",8060,40.009496755,-74.8117021149999,205,"7 HIGHGATE COURT, WESTAMPTON, NJ, 8060","Match","Exact","7 HIGHGATE CT, WESTAMPTON, NJ, 08060",134034655,"L"
274206,"7 HIGHNESS DRIVE","UXBRIDGE","MA",1569,42.0635949850001,-71.6326069039999,206,"7 HIGHNESS DRIVE, UXBRIDGE, MA, 1569","Match","Exact","7 HIGHNESS DR, UXBRIDGE, MA, 01569",40148923,"R"
274207,"7 HILLVIEW ROAD","GORHAM","ME",4038,43.685939348,-70.435934252,207,"7 HILLVIEW ROAD, GORHAM, ME, 4038","Match","Exact","7 HILLVIEW RD, GORHAM, ME, 04038",78044417,"L"
274208,"7 HOFFMAN CT","EAST BRUNSWICK","NJ",8816,40.4235237950001,-74.413329393,208,"7 HOFFMAN CT, EAST BRUNSWICK, NJ, 8816","Match","Exact","7 HOFFMAN CT, E BRUNSWICK, NJ, 08816",60269380,"R"
274209,"7 HOMEWOOD LN","DARIEN","CT",6820,41.065680721,-73.457364521,209,"7 HOMEWOOD LN, DARIEN, CT, 6820","Match","Exact","7 HOMEWOOD LN, DARIEN, CT, 06820",3248968,"L"
274210,"7 HORICON AVE","GLENS FALLS","NY",12801,43.3179483220001,-73.6584087799999,210,"7 HORICON AVE, GLENS FALLS, NY, 12801","Match","Exact","7 HORICON AVE, GLENS FALLS, NY, 12801",173917974,"R"
274211,"7 HUNTINGTON CT","KENDALL PARK","NJ",8824,40.4033091250001,-74.584173262,211,"7 HUNTINGTON CT, KENDALL PARK, NJ, 8824","Match","Exact","7 HUNTINGTON CT, KENDALL PARK, NJ, 08824",628758836,"L"
274212,"7 HUNTLEY RD","SUMMIT","NJ",7901,40.717806093,-74.339153183,212,"7 HUNTLEY RD, SUMMIT, NJ, 7901","Match","Exact","7 HUNTLEY RD, SUMMIT, NJ, 07901",60568504,"R"
274213,"7 INDIAN HILL RD","ARLINGTON","MA",2476,42.4142334530001,-71.1973789159999,213,"7 INDIAN HILL RD, ARLINGTON, MA, 2476","Match","Exact","7 INDIAN HILL RD, ARLINGTON, MA, 02476",86884410,"R"
274214,"7 JACK REYNOLDS WAY","AVONDALE","PA",19311,39.7983170960001,-75.7960231869999,214,"7 JACK REYNOLDS WAY, AVONDALE, PA, 19311","Match","Exact","7 JACK REYNOLDS WAY, AVONDALE, PA, 19311",179521699,"L"
274215,"7 JAKES LANE","HAMPTON","VA",23664,37.0834809670001,-76.29770158,215,"7 JAKES LANE, HAMPTON, VA, 23664","Match","Exact","7 JAKES LN, HAMPTON, VA, 23664",624692526,"L"
274216,"7 JANET WAY APT 18","TIBURON","CA",94920,37.896917339,-122.496296473,216,"7 JANET WAY APT 18, TIBURON, CA, 94920","Match","Exact","7 JANET WAY, TIBURON, CA, 94920",192768950,"L"
274217,"7 JASMINE COURT","MALVERN","PA",19355,40.008315286,-75.530138456,217,"7 JASMINE COURT, MALVERN, PA, 19355","Match","Exact","7 JASMINE CT, MALVERN, PA, 19355",645867369,"L"
274218,"7 JASPER ROAD","CROTON ON HUDSON","NY",10520,41.2147621930001,-73.8902352169999,218,"7 JASPER ROAD, CROTON ON HUDSON, NY, 10520","Match","Exact","7 JASPER RD, CROTON ON HUDSON, NY, 10520",139773683,"L"
274219,"7 JEFFREY CT","BASKING RIDGE","NJ",7920,40.688055294,-74.556605588,219,"7 JEFFREY CT, BASKING RIDGE, NJ, 7920","Match","Exact","7 JEFFREY CT, BASKING RIDGE, NJ, 07920",59968999,"R"
274220,"7 JOANNE LANE","WESTON","CT",6883,41.197469648,-73.3793633929999,220,"7 JOANNE LANE, WESTON, CT, 6883","Match","Exact","7 JOANNE LN, WESTON, CT, 06883",3260420,"R"
274221,"7 JOLLY ROAD","ELLINGTON","CT",6029,41.8959954740001,-72.456068235,221,"7 JOLLY ROAD, ELLINGTON, CT, 6029","Match","Exact","7 JOLLY RD, ELLINGTON, CT, 06029",56995265,"R"
274222,"7 JUNO DR","WENTZVILLE","MO",63385,38.811740768,-90.838774858,222,"7 JUNO DR, WENTZVILLE, MO, 63385","Match","Exact","7 JUNO DR, WENTZVILLE, MO, 63385",100011878,"R"
274223,"7 KALMIA DRIVE","GLENVILLE","NY",12302,42.876322901,-73.93814751,223,"7 KALMIA DRIVE, GLENVILLE, NY, 12302","Match","Exact","7 KALMIA DR, GLENVILLE, NY, 12302",18024530,"L"
274224,"7 KENNEDY DRIVE","COVENTRY","RI",2816,41.6782249440001,-71.536124366,224,"7 KENNEDY DRIVE, COVENTRY, RI, 2816","Match","Exact","7 KENNEDY DR, COVENTRY, RI, 02816",159142885,"R"
274225,"7 KENWOOD LANE","WALTHAM","MA",2452,42.399537756,-71.214348623,225,"7 KENWOOD LANE, WALTHAM, MA, 2452","Match","Exact","7 KENWOOD LN, WALTHAM, MA, 02452",86884323,"R"
274226,"7 KERRY CT","PEARL RIVER","NY",10965,41.051749268,-74.015379866,226,"7 KERRY CT, PEARL RIVER, NY, 10965","Match","Exact","7 KERRY CT, PEARL RIVER, NY, 10965",124607776,"L"
274227,"7 KINWALL PLACE APT 2A","NOTTINGHAM","MD",21236,39.383626378,-76.505064099,227,"7 KINWALL PLACE APT 2A, NOTTINGHAM, MD, 21236","Match","Exact","7 KINWALL PL, NOTTINGHAM, MD, 21236",191477623,"L"
274228,"7 KISER LANE","BRIDGEWATER","NJ",8807,40.5912917380001,-74.661192504,228,"7 KISER LANE, BRIDGEWATER, NJ, 8807","Match","Exact","7 KISER LN, BRIDGEWATER, NJ, 08807",59967531,"R"
274229,"7 KLEGGSTONE CIRCLE","BLOOMINGTON","IL",61704,40.513174678,-88.9399574889999,229,"7 KLEGGSTONE CIRCLE, BLOOMINGTON, IL, 61704","Match","Exact","7 KLEGGSTONE CIR, BLOOMINGTON, IL, 61704",20562181,"L"
274230,"7 KONGENS GADE","ST THOMAS","VI",802,NA,NA,230,"7 KONGENS GADE, ST THOMAS, VI, 802","No_Match",NA,NA,NA,NA
274231,"7 KROEGER LANE","PISCATAWAY","NJ",8854,40.514162378,-74.4737965479999,231,"7 KROEGER LANE, PISCATAWAY, NJ, 8854","Match","Exact","7 KROEGER LN, PISCATAWAY, NJ, 08854",60262707,"R"
274232,"7 LAFAYETTE AVE","COATESVILLE","PA",19320,39.9738392420001,-75.817165304,232,"7 LAFAYETTE AVE, COATESVILLE, PA, 19320","Match","Exact","7 LAFAYETTE AVE, COATESVILLE, PA, 19320",179540906,"R"
274233,"7 LAKE TRAIL DRIVE","AUSTIN","TX",78746,NA,NA,233,"7 LAKE TRAIL DRIVE, AUSTIN, TX, 78746","No_Match",NA,NA,NA,NA
274234,"7 LAKESHORE DR APT 1B","WATERVLIET","NY",12189,42.7282850980001,-73.730220472,234,"7 LAKESHORE DR APT 1B, WATERVLIET, NY, 12189","Match","Non_Exact","7 LAKE SHORE DR, WATERVLIET, NY, 12189",18363669,"L"
274235,"7 LANDING LANE","SOMERS POINT","NJ",8244,39.3078798430001,-74.6020541729999,235,"7 LANDING LANE, SOMERS POINT, NJ, 8244","Match","Exact","7 LANDING LN, SOMERS POINT, NJ, 08244",202511474,"R"
274236,"7 LAURA PL","SPRING VALLEY","NY",10977,41.119692957,-74.052168571,236,"7 LAURA PL, SPRING VALLEY, NY, 10977","Match","Exact","7 LAURA PL, SPRING VALLEY, NY, 10977",124593429,"R"
274237,"7 LAUREL PL","NEWARK","NJ",7016,NA,NA,237,"7 LAUREL PL, NEWARK, NJ, 7016","No_Match",NA,NA,NA,NA
274238,"7 LAWRENCE AVENUE","ANTIOCH","CA",94509,38.002586851,-121.813630846,238,"7 LAWRENCE AVENUE, ANTIOCH, CA, 94509","Match","Exact","7 LAWRENCE AVE, ANTIOCH, CA, 94509",192032536,"R"
274239,"7 LAWRENCE DR APT F","BROWNS MILLS","NJ",8015,39.9795370740001,-74.584219124,239,"7 LAWRENCE DR APT F, BROWNS MILLS, NJ, 8015","Match","Exact","7 LAWRENCE DR, BROWNS MILLS, NJ, 08015",134044349,"R"
274240,"7 LEABROOK DRIVE","CENTRALIA","MO",65240,39.2043947440001,-92.130554403,240,"7 LEABROOK DRIVE, CENTRALIA, MO, 65240","Match","Non_Exact","7 LEABROOK ST, CENTRALIA, MO, 65240",23493549,"L"
274241,"7 LEE ST","HANOVER","PA",17331,39.8122809720001,-76.981485697,241,"7 LEE ST, HANOVER, PA, 17331","Match","Exact","7 LEE ST, HANOVER, PA, 17331",88709757,"R"
274242,"7 LEFFERTS COURT","EAST BRUNSWICK","NJ",8816,40.409689352,-74.4325966179999,242,"7 LEFFERTS COURT, EAST BRUNSWICK, NJ, 8816","Match","Exact","7 LEFFERTS CT, E BRUNSWICK, NJ, 08816",60269144,"R"
274243,"7 LENOX TERRACE","SOUTH ORANGE","NJ",7079,40.7451414660001,-74.274431315,243,"7 LENOX TERRACE, SOUTH ORANGE, NJ, 7079","Match","Exact","7 LENOX TER, SOUTH ORANGE, NJ, 07079",63462242,"R"
274244,"7 LEONARD STREET","WARREN","RI",2885,41.701153622,-71.2383971579999,244,"7 LEONARD STREET, WARREN, RI, 2885","Match","Exact","7 LEONARD ST, WARREN, RI, 02885",46481715,"L"
274245,"7 LEXINGTON AVE APT 7E","NEW YORK","NY",10010,40.7386590200001,-73.985351183,245,"7 LEXINGTON AVE APT 7E, NEW YORK, NY, 10010","Match","Exact","7 LEXINGTON AVE, NEW YORK, NY, 10010",59653657,"R"
274246,"7 LIBERTY SQUARE APT 501","LYNN","MA",1901,NA,NA,246,"7 LIBERTY SQUARE APT 501, LYNN, MA, 1901","No_Match",NA,NA,NA,NA
274247,"7 LIMA BAPTIST CHURCH ROAD","TRAVELERS REST","SC",29690,35.0873257640001,-82.450417863,247,"7 LIMA BAPTIST CHURCH ROAD, TRAVELERS REST, SC, 29690","Match","Exact","7 LIMA BAPTIST CHURCH RD, TRAVELERS REST, SC, 29690",38315751,"L"
274248,"7 LINCOLN HIGHWAY SUITE 214","EDISON","NJ",8820,NA,NA,248,"7 LINCOLN HIGHWAY SUITE 214, EDISON, NJ, 8820","No_Match",NA,NA,NA,NA
274249,"7 LINDEN PARK DRIVE","RANDOLPH","MA",2368,42.1584410570001,-71.047561016,249,"7 LINDEN PARK DRIVE, RANDOLPH, MA, 2368","Match","Exact","7 LINDEN PARK DR, RANDOLPH, MA, 02368",87268311,"L"
274250,"7 LINKS LANE","LAKE SUCCESS","NY",11020,40.7690549340001,-73.7155734689999,250,"7 LINKS LANE, LAKE SUCCESS, NY, 11020","Match","Non_Exact","7 LINKS DR, LAKE SUCCESS, NY, 11020",147660483,"L"
274251,"7 LOCUST AVENUE","LEXINGTON","MA",2421,42.433434913,-71.2103837179999,251,"7 LOCUST AVENUE, LEXINGTON, MA, 2421","Match","Exact","7 LOCUST AVE, LEXINGTON, MA, 02421",633014832,"R"
274252,"7 LOCUST DRIVE","NESCONSET","NY",11767,40.8292929140001,-73.156665565,252,"7 LOCUST DRIVE, NESCONSET, NY, 11767","Match","Exact","7 LOCUST DR, NESCONSET, NY, 11767",114236255,"L"
274253,"7 LOCUST ST","ASSONET","MA",2702,41.80107573,-71.0594178219999,253,"7 LOCUST ST, ASSONET, MA, 2702","Match","Exact","7 LOCUST ST, ASSONET, MA, 02702",46787645,"R"
274254,"7 LOGAN DR","CALIFON","NJ",7830,40.7402158250001,-74.801992675,254,"7 LOGAN DR, CALIFON, NJ, 7830","Match","Exact","7 LOGAN DR, CALIFON, NJ, 07830",60029428,"L"
274255,"7 LONGFELLOW RD","WELLESLEY HILLS","MA",2481,42.3187050000001,-71.2643146729999,255,"7 LONGFELLOW RD, WELLESLEY HILLS, MA, 2481","Match","Exact","7 LONGFELLOW RD, WELLESLEY HILLS, MA, 02481",87292863,"R"
274256,"7 LONGFELLOW STREET","DORCHESTER","MA",2122,42.3023290150001,-71.067378016,256,"7 LONGFELLOW STREET, DORCHESTER, MA, 2122","Match","Exact","7 LONGFELLOW ST, DORCHESTER, MA, 02122",85713351,"R"
274257,"7 LORDSHIP ROAD","EAST GRANBY","CT",6026,41.9178931000001,-72.7784467339999,257,"7 LORDSHIP ROAD, EAST GRANBY, CT, 6026","Match","Exact","7 LORDSHIP RD, EAST GRANBY, CT, 06026",3478990,"L"
274258,"7 LOREN LANE","WESTPORT","CT",6880,41.1599798340001,-73.361335954,258,"7 LOREN LANE, WESTPORT, CT, 6880","Match","Exact","7 LOREN LN, WESTPORT, CT, 06880",3238100,"L"
274259,"7 LOUISE STREET","GORHAM","ME",4038,43.6652189860001,-70.408310795,259,"7 LOUISE STREET, GORHAM, ME, 4038","Match","Exact","7 LOUISE ST, GORHAM, ME, 04038",78023170,"L"
274260,"7 LOWERGATE COURT","OWINGS MILLS","MD",21117,39.41739628,-76.785577491,260,"7 LOWERGATE COURT, OWINGS MILLS, MD, 21117","Match","Non_Exact","7 LOWER GATE CT, OWINGS MILLS, MD, 21117",191552328,"R"
274261,"7 MACDONALD TER","SCITUATE","MA",2066,42.1770258340001,-70.747840961,261,"7 MACDONALD TER, SCITUATE, MA, 2066","Match","Exact","7 MACDONALD TER, SCITUATE, MA, 02066",87433834,"L"
274262,"7 MAHAN DR","NORWICH","CT",6360,41.5502895650001,-72.076846663,262,"7 MAHAN DR, NORWICH, CT, 6360","Match","Exact","7 MAHAN DR, NORWICH, CT, 06360",56845681,"L"
274263,"7 MAIN STREET","SHELBURNE FALLS","MA",1370,42.604305616,-72.7379257549999,263,"7 MAIN STREET, SHELBURNE FALLS, MA, 1370","Match","Exact","7 MAIN ST, SHELBURNE FALLS, MA, 01370",39916025,"R"
274264,"7 MAIN STREET","WARWICK","NY",10990,41.2566059210001,-74.3600662699999,264,"7 MAIN STREET, WARWICK, NY, 10990","Match","Exact","7 MAIN ST, WARWICK, NY, 10990",124492826,"L"
274265,"7 MANOR DRIVE","MORRISTOWN","NJ",7960,40.8287455770001,-74.510994798,265,"7 MANOR DRIVE, MORRISTOWN, NJ, 7960","Match","Exact","7 MANOR DR, MORRISTOWN, NJ, 07960",60463271,"L"
274266,"7 MARGULIS COURT","WEST ORANGE","NJ",7052,40.7796354280001,-74.267429348,266,"7 MARGULIS COURT, WEST ORANGE, NJ, 7052","Match","Exact","7 MARGULIS CT, WEST ORANGE, NJ, 07052",624740812,"L"
274267,"7 MARTINDALE ROAD","SHORT HILLS","NJ",7078,40.74638457,-74.311687835,267,"7 MARTINDALE ROAD, SHORT HILLS, NJ, 7078","Match","Exact","7 MARTINDALE RD, SHORT HILLS, NJ, 07078",63484056,"L"
274268,"7 MARTINGALE ROAD","LEXINGTON","ME",2421,NA,NA,268,"7 MARTINGALE ROAD, LEXINGTON, ME, 2421","No_Match",NA,NA,NA,NA
274269,"7 MARUS GARVEY BLVD","BROOKLYN","NY",11225,NA,NA,269,"7 MARUS GARVEY BLVD, BROOKLYN, NY, 11225","No_Match",NA,NA,NA,NA
274270,"7 MARYLAND AVE","ALBANY","NY",12205,42.7409151470001,-73.8607516879999,270,"7 MARYLAND AVE, ALBANY, NY, 12205","Match","Exact","7 MARYLAND AVE, ALBANY, NY, 12205",18302626,"L"
274271,"7 MATTHEW LANE","COXSACKIE","NY",12051,42.357554742,-73.827312618,271,"7 MATTHEW LANE, COXSACKIE, NY, 12051","Match","Exact","7 MATTHEW LN, COXSACKIE, NY, 12051",35674787,"R"
274272,"7 MAXWELLS GREEN 202","SOMERVILLE","MA",2144,42.393017693,-71.1061244959999,272,"7 MAXWELLS GREEN 202, SOMERVILLE, MA, 2144","Match","Exact","7 MAXWELLS GRN, SOMERVILLE, MA, 02144",646917089,"L"
274273,"7 MAYFLOWER DRIVE","LITTLE EGG HARBOR","NJ",8087,39.6002205790001,-74.3580444679999,273,"7 MAYFLOWER DRIVE, LITTLE EGG HARBOR, NJ, 8087","Match","Exact","7 MAYFLOWER DR, LITTLE EGG HARBOR, NJ, 08087",203712745,"L"
274274,"7 MCNINCH LANE","BELMONT","NY",14813,42.231868358,-78.030366613,274,"7 MCNINCH LANE, BELMONT, NY, 14813","Match","Exact","7 MCNINCH LN, BELMONT, NY, 14813",634594078,"L"
274275,"7 MEADOW COVE DRIVE","THE WOODLANDS","TX",77381,30.158708124,-95.487357303,275,"7 MEADOW COVE DRIVE, THE WOODLANDS, TX, 77381","Match","Exact","7 MEADOW COVE DR, THE WOODLANDS, TX, 77381",79305780,"R"
274276,"7 MEADOW LAND CT","TIJERAS","NM",87059,35.1016238510001,-106.279875236,276,"7 MEADOW LAND CT, TIJERAS, NM, 87059","Match","Non_Exact","7 MEADOWLAND CT, TIJERAS, NM, 87059",206753998,"L"
274277,"7 MEADOW LANE","DELTA","OH",43515,41.5792654310001,-83.99622597,277,"7 MEADOW LANE, DELTA, OH, 43515","Match","Non_Exact","7 MEADOW LANE DR, DELTA, OH, 43515",642177186,"L"
274278,"7 MEADOW VIEW DRIVE","MIDDLETOWN","NY",10940,41.4312895320001,-74.40531802,278,"7 MEADOW VIEW DRIVE, MIDDLETOWN, NY, 10940","Match","Exact","7 MEADOW VIEW DR, MIDDLETOWN, NY, 10940",650051360,"L"
274279,"7 MECHANIC STREET","BEVERLY","MA",1915,42.5525316490001,-70.880710952,279,"7 MECHANIC STREET, BEVERLY, MA, 1915","Match","Exact","7 MECHANIC ST, BEVERLY, MA, 01915",86642496,"R"
274280,"7 MEGHAN LANE","BEAR","DE",19701,39.561696516,-75.7601802189999,280,"7 MEGHAN LANE, BEAR, DE, 19701","Match","Exact","7 MEGHAN LN, BEAR, DE, 19701",187286946,"L"
274281,"7 MEIER FARM","WHITMAN","MA",2382,42.0856296580001,-70.960863171,281,"7 MEIER FARM, WHITMAN, MA, 2382","Match","Exact","7 MEIER FARM, WHITMAN, MA, 02382",87445800,"R"
274282,"7 MELBLOUM LANE","EDISON","NJ",8837,40.5420267750001,-74.333435572,282,"7 MELBLOUM LANE, EDISON, NJ, 8837","Match","Exact","7 MELBLOUM LN, EDISON, NJ, 08837",615072693,"R"
274283,"7 MEMORY LANE","HICKSVILLE","NY",11801,40.7452008700001,-73.526825318,283,"7 MEMORY LANE, HICKSVILLE, NY, 11801","Match","Exact","7 MEMORY LN, HICKSVILLE, NY, 11801",147633405,"L"
274284,"7 MERRIMAC","IRVINE","CA",92620,33.716796532,-117.766497808,284,"7 MERRIMAC, IRVINE, CA, 92620","Match","Exact","7 MERRIMAC, IRVINE, CA, 92620",144057641,"L"
274285,"7 MILFORD LANE","SUFFERN","NY",10901,41.107385494,-74.129070967,285,"7 MILFORD LANE, SUFFERN, NY, 10901","Match","Exact","7 MILFORD LN, SUFFERN, NY, 10901",124602125,"L"
274286,"7 MILKWOOD CT","OWINGS MILLS","MD",21117,39.411047121,-76.8211642809999,286,"7 MILKWOOD CT, OWINGS MILLS, MD, 21117","Match","Exact","7 MILKWOOD CT, OWINGS MILLS, MD, 21117",191501706,"R"
274287,"7 MILL ST","FAIRFIELD","NJ",7004,40.86228464,-74.2709856279999,287,"7 MILL ST, FAIRFIELD, NJ, 7004","Match","Exact","7 MILL ST, FAIRFIELD, NJ, 07004",63456960,"L"
274288,"7 MILTON CT","PRINCETON JCT","NJ",8550,40.2759825160001,-74.607292311,288,"7 MILTON CT, PRINCETON JCT, NJ, 8550","Match","Exact","7 MILTON CT, PRINCETON JCT, NJ, 08550",60193549,"L"
274289,"7 MISTYWOOD LANE","TRUMBULL","CT",6611,41.285317041,-73.241332692,289,"7 MISTYWOOD LANE, TRUMBULL, CT, 6611","Match","Exact","7 MISTYWOOD LN, TRUMBULL, CT, 06611",3216945,"L"
274290,"7 MOCH TERRACE","RENSSELAER","NY",12144,NA,NA,290,"7 MOCH TERRACE, RENSSELAER, NY, 12144","No_Match",NA,NA,NA,NA
274291,"7 MOJO COURT","NEWPORT BEACH","CA",92663,33.6272824810001,-117.936826634,291,"7 MOJO COURT, NEWPORT BEACH, CA, 92663","Match","Exact","7 MOJO CT, NEWPORT BEACH, CA, 92663",144096163,"L"
274292,"7 MORNINGSTAR CT","IRMO","SC",29063,34.117963391,-81.243388593,292,"7 MORNINGSTAR CT, IRMO, SC, 29063","Match","Exact","7 MORNINGSTAR CT, IRMO, SC, 29063",71868718,"L"
274293,"7 MORTON AVE","ALBANY","NY",12210,42.6426612340001,-73.7607477189999,293,"7 MORTON AVE, ALBANY, NY, 12210","Match","Non_Exact","7 MORTON AVE, ALBANY, NY, 12202",18311489,"R"
274294,"7 MOUNTAIN LAUREL","DOVE CANYON","CA",92679,33.6203648420001,-117.568646943,294,"7 MOUNTAIN LAUREL, DOVE CANYON, CA, 92679","Match","Exact","7 MOUNTAIN LAUREL, DOVE CANYON, CA, 92679",144389899,"R"
274295,"7 MOUNTAIN VALLEY COURT","TIJERAS","NM",87059,35.0952589660001,-106.261149153,295,"7 MOUNTAIN VALLEY COURT, TIJERAS, NM, 87059","Match","Exact","7 MOUNTAIN VALLEY CT, TIJERAS, NM, 87059",206753956,"R"
274296,"7 MULBERRY LANE","LAKEWOOD","NJ",8701,40.1124727800001,-74.242542058,296,"7 MULBERRY LANE, LAKEWOOD, NJ, 8701","Match","Exact","7 MULBERRY LN, LAKEWOOD, NJ, 08701",203719867,"R"
274297,"7 MUNROE DRIVE","PLAINVILLE","MA",2762,42.025076348,-71.3483181559999,297,"7 MUNROE DRIVE, PLAINVILLE, MA, 2762","Match","Exact","7 MUNROE DR, PLAINVILLE, MA, 02762",87258214,"R"
274298,"7 N 330 MEDINAH ROAD","MEDINAH","IL",60157,NA,NA,298,"7 N 330 MEDINAH ROAD, MEDINAH, IL, 60157","Tie",NA,NA,NA,NA
274299,"7 N FOURTH STREET","DENTON","MD",21629,38.885893363,-75.830508519,299,"7 N FOURTH STREET, DENTON, MD, 21629","Match","Exact","7 N 4TH ST, DENTON, MD, 21629",68295973,"L"
274300,"7 N VERNON AVE","KISSIMMEE","FL",34741,28.291927474,-81.4110297239999,300,"7 N VERNON AVE, KISSIMMEE, FL, 34741","Match","Exact","7 N VERNON AVE, KISSIMMEE, FL, 34741",176656513,"R"
274301,"7 N WENATCHEE AVE STE 300","WENATCHEE","WA",98801,NA,NA,301,"7 N WENATCHEE AVE STE 300, WENATCHEE, WA, 98801","Tie",NA,NA,NA,NA
274302,"7 NADINE LANE","PORT JEFF STATION","NY",11776,40.9063517590001,-73.05326717,302,"7 NADINE LANE, PORT JEFF STATION, NY, 11776","Match","Exact","7 NADINE LN, PORT JEFF STA, NY, 11776",114003406,"R"
274303,"7 NANCY COURT","ROCKAWAY","NJ",7866,40.913583606,-74.526189667,303,"7 NANCY COURT, ROCKAWAY, NJ, 7866","Match","Exact","7 NANCY CT, ROCKAWAY, NJ, 07866",617308603,"R"
274304,"7 NARANJA RD","DEBARY","FL",32713,28.889532063,-81.3059574659999,304,"7 NARANJA RD, DEBARY, FL, 32713","Match","Exact","7 NARANJA RD, DEBARY, FL, 32713",94517327,"R"
274305,"7 NARBONNE","NEWPORT BEACH","CA",92660,33.6146505340001,-117.84665031,305,"7 NARBONNE, NEWPORT BEACH, CA, 92660","Match","Exact","7 NARBONNE, NEWPORT BEACH, CA, 92660",144385673,"R"
274306,"7 NATURES PATH","CARRIERE","MS",39426,30.643821529,-89.6464780589999,306,"7 NATURES PATH, CARRIERE, MS, 39426","Match","Non_Exact","7 NATURE'S PATH, CARRIERE, MS, 39426",614109767,"L"
274307,"7 NE MUNGER ROAD","KANSAS CITY","MO",64119,NA,NA,307,"7 NE MUNGER ROAD, KANSAS CITY, MO, 64119","No_Match",NA,NA,NA,NA
274308,"7 NEIDERWERFER ROAD","SOUTH WINDSOR","CT",6074,41.8501112650001,-72.520201458,308,"7 NEIDERWERFER ROAD, SOUTH WINDSOR, CT, 6074","Match","Non_Exact","7 NIEDERWERFER RD, SOUTH WINDSOR, CT, 06074",3491526,"L"
274309,"7 NEILL LANE","FLANDERS","NJ",7836,40.8385752120001,-74.72585721,309,"7 NEILL LANE, FLANDERS, NJ, 7836","Match","Exact","7 NEILL LN, FLANDERS, NJ, 07836",60432989,"L"
274310,"7 NEWBURGH STREET","ELMONT","NY",11003,40.686339849,-73.711490995,310,"7 NEWBURGH STREET, ELMONT, NY, 11003","Match","Exact","7 NEWBURGH ST, ELMONT, NY, 11003",147668019,"L"
274311,"7 NEWPORT KEY","BELLEVUE","WA",98006,47.571457405,-122.182782636,311,"7 NEWPORT KEY, BELLEVUE, WA, 98006","Match","Exact","7 NEWPORT KEY, BELLEVUE, WA, 98006",186608404,"R"
274312,"7 NOME STREET","WORCESTER","MA",1605,42.3005545730001,-71.77059904,312,"7 NOME STREET, WORCESTER, MA, 1605","Match","Exact","7 NOME ST, WORCESTER, MA, 01605",635545296,"L"
274313,"7 NORTH 88TH AVENUE","YAKIMA","WA",98908,46.597452402,-120.625268872,313,"7 NORTH 88TH AVENUE, YAKIMA, WA, 98908","Match","Exact","7 N 88TH AVE, YAKIMA, WA, 98908",184932434,"R"
274314,"7 NORTH ANDOVER DRIVE","ROSELLE","IL",60172,41.982815675,-88.112555231,314,"7 NORTH ANDOVER DRIVE, ROSELLE, IL, 60172","Match","Exact","7 N ANDOVER DR, ROSELLE, IL, 60172",613702971,"L"
274315,"7 NORTH COYLE STREET","PENSACOLA","FL",32502,30.411852255,-87.2233514449999,315,"7 NORTH COYLE STREET, PENSACOLA, FL, 32502","Match","Exact","7 N COYLE ST, PENSACOLA, FL, 32502",93220330,"L"
274316,"7 NORTH GEORGIA AVE","ATLANTIC CITY","NJ",8401,39.3572970800001,-74.440799694,316,"7 NORTH GEORGIA AVE, ATLANTIC CITY, NJ, 8401","Match","Exact","7 N GEORGIA AVE, ATLANTIC CITY, NJ, 08401",647601184,"R"
274317,"7 NORTH MAIN ST","CONCORD","NH",3301,43.2049656830001,-71.535932637,317,"7 NORTH MAIN ST, CONCORD, NH, 3301","Match","Exact","7 N MAIN ST, CONCORD, NH, 03301",117716490,"L"
274318,"7 OAK BLUFF CIRCLE","PLYMOUTH","MA",2360,41.82593654,-70.547592203,318,"7 OAK BLUFF CIRCLE, PLYMOUTH, MA, 2360","Match","Exact","7 OAK BLUFF CIR, PLYMOUTH, MA, 02360",87490047,"R"
274319,"7 OAK PARK DR","BETTENDORF","IA",52722,41.5469075550001,-90.511785451,319,"7 OAK PARK DR, BETTENDORF, IA, 52722","Match","Exact","7 OAK PARK DR, BETTENDORF, IA, 52722",122727838,"L"
274320,"7 OAK RIDGE DR W","BROCKTON","MA",2301,42.097997202,-71.0372149,320,"7 OAK RIDGE DR W, BROCKTON, MA, 2301","Match","Exact","7 OAK RIDGE DR W, BROCKTON, MA, 02301",87441852,"R"
274321,"7 OAK TREE ROAD","FREDON","NJ",7860,41.0263791360001,-74.7989413559999,321,"7 OAK TREE ROAD, FREDON, NJ, 7860","Match","Exact","7 OAK TREE RD, FREDON, NJ, 07860",98043397,"R"
274322,"7 OAKBROOK LANE","ELIZABETHTOWN","PA",17022,40.1594805840001,-76.630835396,322,"7 OAKBROOK LANE, ELIZABETHTOWN, PA, 17022","Match","Exact","7 OAKBROOK LN, ELIZABETHTOWN, PA, 17022",179738294,"R"
274323,"7 OAKFIELD DR","MILAN","OH",44846,41.2954958760001,-82.5813615329999,323,"7 OAKFIELD DR, MILAN, OH, 44846","Match","Exact","7 OAKFIELD DR, MILAN, OH, 44846",55344118,"L"
274324,"7 OAKLEDGE STREET","ARLINGTON","MA",2474,42.4265350810001,-71.1801606769999,324,"7 OAKLEDGE STREET, ARLINGTON, MA, 2474","Match","Exact","7 OAKLEDGE ST, ARLINGTON, MA, 02474",86884849,"R"
274325,"7 OAKWOOD AVENUE","RANDOLPH","MA",2368,42.143089509,-71.036163726,325,"7 OAKWOOD AVENUE, RANDOLPH, MA, 2368","Match","Exact","7 OAKWOOD AVE, RANDOLPH, MA, 02368",87268851,"L"
274326,"7 OLD SOLOMONS ISLAND RD STE 202","ANNAPOLIS","MD",21401,38.981797901,-76.533684361,326,"7 OLD SOLOMONS ISLAND RD STE 202, ANNAPOLIS, MD, 21401","Match","Non_Exact","7 OLD SOLOMONS ISLAND RD, ANNAPOLIS, MD, 21401",635371271,"L"
274327,"7 OLIVER CT","MILFORD","MA",1757,42.135003327,-71.525008026,327,"7 OLIVER CT, MILFORD, MA, 1757","Match","Exact","7 OLIVER CT, MILFORD, MA, 01757",40039915,"L"
274328,"7 ORANGEBURG CT","NEWARK","DE",19702,39.631910459,-75.687477379,328,"7 ORANGEBURG CT, NEWARK, DE, 19702","Match","Exact","7 ORANGEBURG CT, NEWARK, DE, 19702",187277142,"R"
274329,"7 OUTLOOK ROAD","SWAMPSCOTT","MA",1907,42.4724389300001,-70.914787699,329,"7 OUTLOOK ROAD, SWAMPSCOTT, MA, 1907","Match","Exact","7 OUTLOOK RD, SWAMPSCOTT, MA, 01907",86646585,"R"
274330,"7 OUTPOST CT","NORTH POTOMAC","MD",20878,39.0891311830001,-77.224114473,330,"7 OUTPOST CT, NORTH POTOMAC, MD, 20878","Match","Exact","7 OUTPOST CT, N POTOMAC, MD, 20878",62093183,"R"
274331,"7 PADDOCK HILLS PLAZA","FLORISSANT","MO",63033,NA,NA,331,"7 PADDOCK HILLS PLAZA, FLORISSANT, MO, 63033","No_Match",NA,NA,NA,NA
274332,"7 PAIGE CIRCLE","CARVER","MA",2330,41.868696255,-70.769758966,332,"7 PAIGE CIRCLE, CARVER, MA, 2330","Match","Exact","7 PAIGE CIR, CARVER, MA, 02330",626931923,"L"
274333,"7 PARK AVE -156","NEW YORK","NY",10016,40.7472647160001,-73.981250743,333,"7 PARK AVE -156, NEW YORK, NY, 10016","Match","Exact","7 PARK AVE, NEW YORK, NY, 10016",59654401,"R"
274334,"7 PARK AVE","MILFORD","DE",19963,NA,NA,334,"7 PARK AVE, MILFORD, DE, 19963","No_Match",NA,NA,NA,NA
274335,"7 PARK AVENUE","NEW YORK","NY",10016,40.7472647160001,-73.981250743,335,"7 PARK AVENUE, NEW YORK, NY, 10016","Match","Exact","7 PARK AVE, NEW YORK, NY, 10016",59654401,"R"
274336,"7 PARK CT","ELDRIDGE","IA",52748,41.692722378,-90.540112731,336,"7 PARK CT, ELDRIDGE, IA, 52748","Match","Non_Exact","7 PARK AVENUE CT, ELDRIDGE, IA, 52748",122700286,"L"
274337,"7 PARK GROVE LN","SHREWSBURY","MA",1545,42.303367393,-71.7013436,337,"7 PARK GROVE LN, SHREWSBURY, MA, 1545","Match","Exact","7 PARK GROVE LN, SHREWSBURY, MA, 01545",624577512,"L"
274338,"7 PARK STREET","LYNN","MA",1901,NA,NA,338,"7 PARK STREET, LYNN, MA, 1901","No_Match",NA,NA,NA,NA
274339,"7 PARK STREET","LYNN","MA",1902,NA,NA,339,"7 PARK STREET, LYNN, MA, 1902","No_Match",NA,NA,NA,NA
274340,"7 PARK VALLEI LANE","BROOKHAVEN","PA",19105,39.8709551160001,-75.379629114,340,"7 PARK VALLEI LANE, BROOKHAVEN, PA, 19105","Match","Non_Exact","7 PARK VALLEY LN, BROOKHAVEN, PA, 19015",134889471,"L"
274341,"7 PARKER ROAD UNIT 2","OSTERVILLE","MA",2655,41.628459682,-70.387176751,341,"7 PARKER ROAD UNIT 2, OSTERVILLE, MA, 2655","Match","Exact","7 PARKER RD, OSTERVILLE, MA, 02655",121618701,"L"
274342,"7 PATCHBOX COURT","BOONTON","NJ",7005,40.888605656,-74.394121683,342,"7 PATCHBOX COURT, BOONTON, NJ, 7005","Match","Exact","7 PATCHBOX CT, BOONTON, NJ, 07005",60459583,"L"
274343,"7 PATRIOT HILL DR","BASKING RIDGE","NJ",7920,40.6501212650001,-74.615714254,343,"7 PATRIOT HILL DR, BASKING RIDGE, NJ, 7920","Match","Exact","7 PATRIOT HILL DR, BASKING RIDGE, NJ, 07920",59969714,"R"
274344,"7 PATTERSON AVE","WINSLOW","ME",4901,44.5247398820001,-69.60965214,344,"7 PATTERSON AVE, WINSLOW, ME, 4901","Match","Exact","7 PATTERSON AVE, WINSLOW, ME, 04901",75466625,"L"
274345,"7 PATTERSON AVENUE","WINSLOW","ME",4901,44.5247398820001,-69.60965214,345,"7 PATTERSON AVENUE, WINSLOW, ME, 4901","Match","Exact","7 PATTERSON AVE, WINSLOW, ME, 04901",75466625,"L"
274346,"7 PATTI LANE","MAYNARD","MA",1754,42.437696095,-71.474152851,346,"7 PATTI LANE, MAYNARD, MA, 1754","Match","Exact","7 PATTI LN, MAYNARD, MA, 01754",86842886,"L"
274347,"7 PAWAN CIRCLE","LAKE KATRINE","NY",12449,41.983534406,-74.0025532939999,347,"7 PAWAN CIRCLE, LAKE KATRINE, NY, 12449","Match","Exact","7 PAWAN CIR, LAKE KATRINE, NY, 12449",41921407,"L"
274348,"7 PAXTON ROAD","WEST HARTFORD","CT",6107,41.7513654250001,-72.749932099,348,"7 PAXTON ROAD, WEST HARTFORD, CT, 6107","Match","Exact","7 PAXTON RD, WEST HARTFORD, CT, 06107",3524933,"R"
274349,"7 PEARLEAF","IRVINE","CA",92618,33.669321563,-117.782041657,349,"7 PEARLEAF, IRVINE, CA, 92618","Match","Exact","7 PEARLEAF, IRVINE, CA, 92618",144408451,"R"
274350,"7 PENNWORD RD","LEBANON","PA",17042,NA,NA,350,"7 PENNWORD RD, LEBANON, PA, 17042","No_Match",NA,NA,NA,NA
274351,"7 PEPPERGRASS LANE","DRUMMOND","MT",59832,46.627225034,-113.139777811,351,"7 PEPPERGRASS LANE, DRUMMOND, MT, 59832","Match","Exact","7 PEPPERGRASS LN, DRUMMOND, MT, 59832",636194279,"R"
274352,"7 PERCY STREET","MONTICELLO","GA",31064,33.2977853520001,-83.676564325,352,"7 PERCY STREET, MONTICELLO, GA, 31064","Match","Exact","7 PERCY ST, MONTICELLO, GA, 31064",66630246,"L"
274353,"7 PICASSO CT","BALTIMORE","MD",21208,39.40068117,-76.707168273,353,"7 PICASSO CT, BALTIMORE, MD, 21208","Match","Exact","7 PICASSO CT, BALTIMORE, MD, 21208",191467923,"R"
274354,"7 PIERSON PLACE","GLEN RIDGE","NJ",7028,40.802272096,-74.210775296,354,"7 PIERSON PLACE, GLEN RIDGE, NJ, 7028","Match","Exact","7 PIERSON PL, GLEN RIDGE, NJ, 07028",63450674,"L"
274355,"7 PINE HOUSE RD","MILLIS","MA",2054,42.1522391340001,-71.354991508,355,"7 PINE HOUSE RD, MILLIS, MA, 2054","Match","Exact","7 PINE HOUSE RD, MILLIS, MA, 02054",624369938,"L"
274356,"7 PINE LANE","WAYSIDE","NJ",7712,40.269668391,-74.069226025,356,"7 PINE LANE, WAYSIDE, NJ, 7712","Match","Non_Exact","7 PINE LN, OCEAN, NJ, 07712",90455392,"L"
274357,"7 PINE RIDGE DRIVE","EDISON","NJ",8820,40.577524167,-74.342889306,357,"7 PINE RIDGE DRIVE, EDISON, NJ, 8820","Match","Exact","7 PINE RIDGE DR, EDISON, NJ, 08820",60271815,"R"
274358,"7 PINE RIDGE ROAD","POUGHKEEPSIE","NY",12603,41.64590579,-73.8224506449999,358,"7 PINE RIDGE ROAD, POUGHKEEPSIE, NY, 12603","Match","Exact","7 PINE RIDGE RD, POUGHKEEPSIE, NY, 12603",4170745,"L"
274359,"7 PINNACLE DRIVE","MURRELLS INLET","SC",29576,33.5314438980001,-79.059649866,359,"7 PINNACLE DRIVE, MURRELLS INLET, SC, 29576","Match","Exact","7 PINNACLE DR, MURRELLS INLET, SC, 29576",645246429,"L"
274360,"7 PINTAIL CT","RIVERHEAD","NY",11901,40.9773555830001,-72.6932226059999,360,"7 PINTAIL CT, RIVERHEAD, NY, 11901","Match","Exact","7 PINTAIL CT, RIVERHEAD, NY, 11901",624776182,"L"
274361,"7 PINTAIL TRACE","MANDEVILLE","LA",70471,30.381431951,-90.112112822,361,"7 PINTAIL TRACE, MANDEVILLE, LA, 70471","Match","Exact","7 PINTAIL TRCE, MANDEVILLE, LA, 70471",611485079,"L"
274362,"7 PLATT  ST","SWANTON","VT",5488,44.9157700850001,-73.117961459,362,"7 PLATT  ST, SWANTON, VT, 5488","Match","Exact","7 PLATT ST, SWANTON, VT, 05488",136515161,"L"
274363,"7 PLEASANT HILL ROAD","CRANBURY","NJ",8512,NA,NA,363,"7 PLEASANT HILL ROAD, CRANBURY, NJ, 8512","No_Match",NA,NA,NA,NA
274364,"7 PLENNERT ROAD","FLEMINGTON","NJ",8822,40.493237063,-74.7956267339999,364,"7 PLENNERT ROAD, FLEMINGTON, NJ, 8822","Match","Exact","7 PLENNERT RD, FLEMINGTON, NJ, 08822",624485275,"R"
274365,"7 POSEIDON RD","ROCKY POINT","NY",11778,40.958663578,-72.917341527,365,"7 POSEIDON RD, ROCKY POINT, NY, 11778","Match","Exact","7 POSEIDON RD, ROCKY POINT, NY, 11778",114011702,"L"
274366,"7 POWHATATAN WAY","HACKETTSTOWN","NJ",7840,40.854453898,-74.803748205,366,"7 POWHATATAN WAY, HACKETTSTOWN, NJ, 7840","Match","Exact","7 POWHATATAN WAY, HACKETTSTOWN, NJ, 07840",60474584,"R"
274367,"7 PRINCESS CIRCLE","ORMOND BEACH","FL",32174,29.330945297,-81.1079780969999,367,"7 PRINCESS CIRCLE, ORMOND BEACH, FL, 32174","Match","Exact","7 PRINCESS CIR, ORMOND BEACH, FL, 32174",94577900,"R"
274368,"7 PRINCETON PLACE","KENNER","LA",70065,30.016928014,-90.26707978,368,"7 PRINCETON PLACE, KENNER, LA, 70065","Match","Exact","7 PRINCETON PL, KENNER, LA, 70065",627778495,"R"
274369,"7 PRINDLE AVE","JOHNSTOWN","NY",12095,43.0080911750001,-74.363719529,369,"7 PRINDLE AVE, JOHNSTOWN, NY, 12095","Match","Exact","7 PRINDLE AVE, JOHNSTOWN, NY, 12095",153637871,"L"
274370,"7 PUBLIC SQUARE","LANCASTER","KY",40444,37.619281212,-84.578997339,370,"7 PUBLIC SQUARE, LANCASTER, KY, 40444","Match","Exact","7 PUBLIC SQ, LANCASTER, KY, 40444",32540053,"R"
274371,"7 PUBLIC SQUARE","MEDINA","OH",44256,41.138038152,-81.863805554,371,"7 PUBLIC SQUARE, MEDINA, OH, 44256","Match","Exact","7 PUBLIC SQ, MEDINA, OH, 44256",58676327,"L"
274372,"7 PUBLIC SQUARE","SHELBYVILLE","IN",46176,39.524731875,-85.7772308309999,372,"7 PUBLIC SQUARE, SHELBYVILLE, IN, 46176","Match","Exact","7 PUBLIC SQ, SHELBYVILLE, IN, 46176",33217375,"L"
274373,"7 PURINGTON AVENUE","NATICK","MA",1760,42.2949167260001,-71.3759185489999,373,"7 PURINGTON AVENUE, NATICK, MA, 1760","Match","Exact","7 PURINGTON AVE, NATICK, MA, 01760",86848913,"R"
274374,"7 PURPLE MARTIN DRIVE","HACKETTSTOWN","NJ",7840,40.906168242,-74.855074357,374,"7 PURPLE MARTIN DRIVE, HACKETTSTOWN, NJ, 7840","Match","Exact","7 PURPLE MARTIN DR, HACKETTSTOWN, NJ, 07840",637309055,"R"
274375,"7 PVT HALLS HILL","WEST TOPSHAM","VT",5086,44.1163441100001,-72.309352809,375,"7 PVT HALLS HILL, WEST TOPSHAM, VT, 5086","Match","Exact","7 HALLS HILL, WEST TOPSHAM, VT, 05086",181143590,"L"
274376,"7 RAILROAD AVE APT 203","DERRY","NH",3038,42.8801600790001,-71.325019144,376,"7 RAILROAD AVE APT 203, DERRY, NH, 3038","Match","Exact","7 RAILROAD AVE, DERRY, NH, 03038",113712742,"R"
274377,"7 RASPBERRY WAY","WALPOLE","MA",2081,42.1655071010001,-71.25214024,377,"7 RASPBERRY WAY, WALPOLE, MA, 2081","Match","Exact","7 RASPBERRY WAY, WALPOLE, MA, 02081",87276208,"R"
274378,"7 REAMERS ROAD","CLIFF ISLAND","ME",4019,43.6936025840001,-70.108369254,378,"7 REAMERS ROAD, CLIFF ISLAND, ME, 4019","Match","Non_Exact","7 REAMER'S RD, CLIFF ISLAND, ME, 04019",653277744,"R"
274379,"7 REAR FREESTONE AVE","PORTLAND","CT",6480,NA,NA,379,"7 REAR FREESTONE AVE, PORTLAND, CT, 6480","No_Match",NA,NA,NA,NA
274380,"7 RED FEATHER COURT","DURHAM","NC",27704,36.0167930810001,-78.810484604,380,"7 RED FEATHER COURT, DURHAM, NC, 27704","Match","Exact","7 RED FEATHER CT, DURHAM, NC, 27704",614173897,"L"
274381,"7 RED LEAF LANE","COMMACK","NY",11725,40.815191084,-73.285083981,381,"7 RED LEAF LANE, COMMACK, NY, 11725","Match","Non_Exact","7 REDLEAF LN, COMMACK, NY, 11725",638082168,"L"
274382,"7 REDWOOD COURT","PRINCETON JCT","NJ",8550,40.28662789,-74.631000474,382,"7 REDWOOD COURT, PRINCETON JCT, NJ, 8550","Match","Exact","7 REDWOOD CT, PRINCETON JCT, NJ, 08550",60190716,"L"
274383,"7 REGENT ARMS","SAN ANTONIO","TX",78257,29.663168027,-98.620813705,383,"7 REGENT ARMS, SAN ANTONIO, TX, 78257","Match","Exact","7 REGENT ARMS, SAN ANTONIO, TX, 78257",101556317,"L"
274384,"7 REGULATOR LANE","AVOCA","PA",18641,41.340455139,-75.734263444,384,"7 REGULATOR LANE, AVOCA, PA, 18641","Match","Non_Exact","7 REGULATORS LN, AVOCA, PA, 18641",648279820,"R"
274385,"7 REMINGTON STREET","WARWICK","RI",2888,41.761875929,-71.388873195,385,"7 REMINGTON STREET, WARWICK, RI, 2888","Match","Exact","7 REMINGTON ST, WARWICK, RI, 02888",159160317,"R"
274386,"7 RENNEE COURT","EDISON","NJ",8820,40.5601398640001,-74.3719765609999,386,"7 RENNEE COURT, EDISON, NJ, 8820","Match","Non_Exact","7 RENEE CT, EDISON, NJ, 08820",60271423,"R"
274387,"7 REYNOLDS MOUNTAIN BOULEVARD","ASHEVILLE","NC",28804,35.64578091,-82.579734034,387,"7 REYNOLDS MOUNTAIN BOULEVARD, ASHEVILLE, NC, 28804","Match","Exact","7 REYNOLDS MOUNTAIN BLVD, ASHEVILLE, NC, 28804",639449131,"R"
274388,"7 RIDGE ROAD","STREATOR","IL",61364,41.1318102110001,-88.847965715,388,"7 RIDGE ROAD, STREATOR, IL, 61364","Match","Exact","7 RIDGE RD, STREATOR, IL, 61364",8592225,"R"
274389,"7 RIDGE ST","KATONAH","NY",10536,41.259561827,-73.6878386819999,389,"7 RIDGE ST, KATONAH, NY, 10536","Match","Exact","7 RIDGE ST, KATONAH, NY, 10536",139778164,"R"
274390,"7 RILEY CT","COLUMBIA","SC",29201,33.9605396790001,-81.004746379,390,"7 RILEY CT, COLUMBIA, SC, 29201","Match","Exact","7 RILEY CT, COLUMBIA, SC, 29201",71860160,"L"
274391,"7 RISING HILL RD","POMONA","CA",91766,34.0355048810001,-117.764274774,391,"7 RISING HILL RD, POMONA, CA, 91766","Match","Exact","7 RISING HILL RD, POMONA, CA, 91766",141731085,"R"
274392,"7 RIVER CIRCLE","MAYFLOWER","AR",72106,34.912396458,-92.449065649,392,"7 RIVER CIRCLE, MAYFLOWER, AR, 72106","Match","Non_Exact","7 W RIVER CR, MAYFLOWER, AR, 72106",604753418,"L"
274393,"7 RIVER OAKS","HUMBOLDT","IA",50548,42.736997183,-94.197513443,393,"7 RIVER OAKS, HUMBOLDT, IA, 50548","Match","Exact","7 RIVER OAKS, HUMBOLDT, IA, 50548",97022137,"L"
274394,"7 RIVER PARK DRIVE","CROMWELL","CT",6416,41.612919929,-72.6229009259999,394,"7 RIVER PARK DRIVE, CROMWELL, CT, 6416","Match","Exact","7 RIVER PARK DR, CROMWELL, CT, 06416",113893093,"L"
274395,"7 RIVERWAY SUITE 602","HOUSTON","TX",77056,29.761389754,-95.463181972,395,"7 RIVERWAY SUITE 602, HOUSTON, TX, 77056","Match","Exact","7 RIVERWAY, HOUSTON, TX, 77056",96161107,"R"
274396,"7 ROBERT DRIVE","NORTH PROVIDENCE","RI",2911,41.8693420990001,-71.481053357,396,"7 ROBERT DRIVE, NORTH PROVIDENCE, RI, 2911","Match","Exact","7 ROBERT DR, N PROVIDENCE, RI, 02911",47450676,"R"
274397,"7 ROBERTS ROAD","EDGEWOOD","KY",41017,39.0177352040001,-84.584103337,397,"7 ROBERTS ROAD, EDGEWOOD, KY, 41017","Match","Exact","7 ROBERTS RD, EDGEWOOD, KY, 41017",103883652,"R"
274398,"7 ROBINSON SPUR","HUNTSVILLE","TX",77320,30.7637953460001,-95.502061403,398,"7 ROBINSON SPUR, HUNTSVILLE, TX, 77320","Match","Non_Exact","7 ROBINSON SPR, HUNTSVILLE, TX, 77320",22193647,"R"
274399,"7 ROCK STREET","CASTLE ROCK","CO",80104,39.3774262310001,-104.851365916,399,"7 ROCK STREET, CASTLE ROCK, CO, 80104","Match","Exact","7 ROCK ST, CASTLE ROCK, CO, 80104",130807829,"R"
274400,"7 ROCKSIDE DR","CAMBRIDGE","NY",12816,43.0225297900001,-73.374329597,400,"7 ROCKSIDE DR, CAMBRIDGE, NY, 12816","Match","Exact","7 ROCKSIDE DR, CAMBRIDGE, NY, 12816",139150875,"R"
274401,"7 ROCKSIDE DRIVE","CAMBRIDGE","NY",12816,43.0225297900001,-73.374329597,401,"7 ROCKSIDE DRIVE, CAMBRIDGE, NY, 12816","Match","Exact","7 ROCKSIDE DR, CAMBRIDGE, NY, 12816",139150875,"R"
274402,"7 ROCKY BROOK CT","WINDSOR MILL","MD",21244,39.311681365,-76.768518184,402,"7 ROCKY BROOK CT, WINDSOR MILL, MD, 21244","Match","Exact","7 ROCKY BROOK CT, WINDSOR MILL, MD, 21244",191507616,"L"
274403,"7 RONWOOD ROAD","CHESTNUT RIDGE","NY",10977,41.0686937240001,-74.04473073,403,"7 RONWOOD ROAD, CHESTNUT RIDGE, NY, 10977","Match","Exact","7 RONWOOD RD, CHESTNUT RIDGE, NY, 10977",124607487,"L"
274404,"7 ROSCREA PLACE","WESTON","CT",6883,41.225449043,-73.4039336819999,404,"7 ROSCREA PLACE, WESTON, CT, 6883","Match","Exact","7 ROSCREA PL, WESTON, CT, 06883",3259914,"R"
274405,"7 ROSE STREET","WOODVILLE","AL",35776,34.6301142070001,-86.2732853379999,405,"7 ROSE STREET, WOODVILLE, AL, 35776","Match","Exact","7 ROSE ST, WOODVILLE, AL, 35776",636433427,"R"
274406,"7 ROSEMEADOW WAY","AQUINNAH","MA",2535,41.3477601290001,-70.823948157,406,"7 ROSEMEADOW WAY, AQUINNAH, MA, 2535","Match","Non_Exact","7 ROSE MEADOW WAY, AQUINNAH, MA, 02535",118874853,"R"
274407,"7 ROXANA STREET APT 1","BOSTON","MA",2136,42.2516709280001,-71.13128073,407,"7 ROXANA STREET APT 1, BOSTON, MA, 2136","Match","Exact","7 ROXANA ST, BOSTON, MA, 02136",85704272,"R"
274408,"7 ROYCROFT ROAD","SALEM","MA",1960,42.535384035,-70.917105706,408,"7 ROYCROFT ROAD, SALEM, MA, 1960","Match","Non_Exact","7 ROYCROFT RD, PEABODY, MA, 01960",86640822,"L"
274409,"7 RUTH DRIVE","FRAMINGHAM","MA",1701,42.3071663590001,-71.4075260229999,409,"7 RUTH DRIVE, FRAMINGHAM, MA, 1701","Match","Exact","7 RUTH DR, FRAMINGHAM, MA, 01701",86848257,"R"
274410,"7 S MAIN STREET SUITE B","COUPEVILLE","WA",98239,NA,NA,410,"7 S MAIN STREET SUITE B, COUPEVILLE, WA, 98239","Tie",NA,NA,NA,NA
274411,"7 S MAIN STREET","CAMDEN","DE",19934,39.1130959720001,-75.542595241,411,"7 S MAIN STREET, CAMDEN, DE, 19934","Match","Exact","7 S MAIN ST, CAMDEN, DE, 19934",614393785,"R"
274412,"7 S MONROE STREET","ROCKFORD","MI",49341,43.118857576,-85.558167214,412,"7 S MONROE STREET, ROCKFORD, MI, 49341","Match","Non_Exact","7 S MONROE ST NE, ROCKFORD, MI, 49341",12466341,"R"
274413,"7 S SCHLUETER AVE","ST LOUIS","MO",63135,38.7487613000001,-90.284853867,413,"7 S SCHLUETER AVE, ST LOUIS, MO, 63135","Match","Exact","7 S SCHLUETER AVE, SAINT LOUIS, MO, 63135",100146861,"R"
274414,"7 S STOLP AVE APT 805","AURORA","IL",60506,NA,NA,414,"7 S STOLP AVE APT 805, AURORA, IL, 60506","Tie",NA,NA,NA,NA
274415,"7 SAINT LOUPE DRIVE","LA PLACE","LA",70068,30.0818852130001,-90.469786697,415,"7 SAINT LOUPE DRIVE, LA PLACE, LA, 70068","Match","Exact","7 ST LOUPE DR, LA PLACE, LA, 70068",614108725,"L"
274416,"7 SALEM PARK APT 2D","ELIZABETHA","NJ",7208,40.675897094,-74.213405302,416,"7 SALEM PARK APT 2D, ELIZABETHA, NJ, 7208","Match","Non_Exact","7 SALEM PARK, ELIZABETH, NJ, 07208",60578740,"R"
274417,"7 SALISBURY STREET","NEW BEDFORD","MA",2744,41.615758623,-70.916232241,417,"7 SALISBURY STREET, NEW BEDFORD, MA, 2744","Match","Exact","7 SALISBURY ST, NEW BEDFORD, MA, 02744",46754941,"R"
274418,"7 SAM FRAZIER RETREAT","HILTON HEAD ISLAND","SC",29926,32.1956673400001,-80.767220782,418,"7 SAM FRAZIER RETREAT, HILTON HEAD ISLAND, SC, 29926","Match","Exact","7 SAM FRAZIER RETREAT, HILTON HEAD ISLAND, SC, 29926",87629094,"L"
274419,"7 SAMMIS ROAD           PO BOX 516","VERNON","NJ",7462,NA,NA,419,"7 SAMMIS ROAD           PO BOX 516, VERNON, NJ, 7462","No_Match",NA,NA,NA,NA
274420,"7 SAN MARCOS","ODESSA","TX",79765,31.9018633580001,-102.278825865,420,"7 SAN MARCOS, ODESSA, TX, 79765","Match","Exact","7 SAN MARCOS, ODESSA, TX, 79765",139598631,"R"
274421,"7 SANDY HILL LA","PROVINCETOWN","MA",2657,42.0584460790001,-70.1916634099999,421,"7 SANDY HILL LA, PROVINCETOWN, MA, 2657","Match","Exact","7 SANDY HILL LN, PROVINCETOWN, MA, 02657",638525907,"R"
274422,"7 SANTA LUZIA AISLE","IRVINE","CA",92606,33.689087527,-117.809224882,422,"7 SANTA LUZIA AISLE, IRVINE, CA, 92606","Match","Exact","7 SANTA LUZIA AISLE, IRVINE, CA, 92606",144382209,"L"
274423,"7 SARAH CT","SAVANNAH","GA",31406,31.9897163210001,-81.123874945,423,"7 SARAH CT, SAVANNAH, GA, 31406","Match","Exact","7 SARAH CT, SAVANNAH, GA, 31406",650194595,"R"
274424,"7 SAVILLE STREET","CAMBRIDGE","MA",2138,42.3829328160001,-71.133864839,424,"7 SAVILLE STREET, CAMBRIDGE, MA, 2138","Match","Exact","7 SAVILLE ST, CAMBRIDGE, MA, 02138",86892238,"R"
274425,"7 SCHOOL HOUSE VILLAGE","VINEYARD HAVEN","MA",2568,41.4202871890001,-70.598699003,425,"7 SCHOOL HOUSE VILLAGE, VINEYARD HAVEN, MA, 2568","Match","Exact","7 SCHOOL HOUSE VLG, VINEYARD HAVEN, MA, 02568",118863276,"R"
274426,"7 SCOTTISH CT","COLUMBIA","SC",29229,34.167096959,-80.910552022,426,"7 SCOTTISH CT, COLUMBIA, SC, 29229","Match","Exact","7 SCOTTISH CT, COLUMBIA, SC, 29229",71870713,"L"
274427,"7 SEA SHELL LANE","NORTHPORT","NY",11768,40.922521864,-73.293320286,427,"7 SEA SHELL LANE, NORTHPORT, NY, 11768","Match","Non_Exact","7 SEASHELL LN, NORTHPORT, NY, 11768",641680830,"L"
274428,"7 SEAMAN AVE","HEMPSTEAD","NY",11550,40.713829515,-73.613168806,428,"7 SEAMAN AVE, HEMPSTEAD, NY, 11550","Match","Exact","7 SEAMAN AVE, HEMPSTEAD, NY, 11550",147627361,"L"
274429,"7 SECOND AVENUE","PELHAM","NY",10803,40.91152407,-73.812497229,429,"7 SECOND AVENUE, PELHAM, NY, 10803","Match","Exact","7 2ND AVE, PELHAM, NY, 10803",139749126,"L"
274430,"7 SECORA RD APT H7","MONSEY","NY",10952,41.106334266,-74.059709558,430,"7 SECORA RD APT H7, MONSEY, NY, 10952","Match","Exact","7 SECORA RD, MONSEY, NY, 10952",124594085,"R"
274431,"7 SEMINOLE TRAIL","CONWAY","AR",72032,35.038657588,-92.273078632,431,"7 SEMINOLE TRAIL, CONWAY, AR, 72032","Match","Exact","7 SEMINOLE TRL, CONWAY, AR, 72032",637586181,"R"
274432,"7 SENATE ROAD SUITE 7","MILFORD","MA",1757,NA,NA,432,"7 SENATE ROAD SUITE 7, MILFORD, MA, 1757","No_Match",NA,NA,NA,NA
274433,"7 SEVILLE WAY APT 1","SAN MATEO","CA",94402,37.5571736570001,-122.319999821,433,"7 SEVILLE WAY APT 1, SAN MATEO, CA, 94402","Match","Exact","7 SEVILLE WAY, SAN MATEO, CA, 94402",192378051,"L"
274434,"7 SHERMAN AVE FLOOR 2","JERSEY CITY","NJ",7307,40.7410734220001,-74.0492084959999,434,"7 SHERMAN AVE FLOOR 2, JERSEY CITY, NJ, 7307","Match","Exact","7 SHERMAN AVE, JERSEY CITY, NJ, 07307",59616573,"L"
274435,"7 SHERRI LANE","SPRING VALLEY","NY",10977,41.1510174220001,-74.0636337569999,435,"7 SHERRI LANE, SPRING VALLEY, NY, 10977","Match","Exact","7 SHERRI LN, SPRING VALLEY, NY, 10977",124629215,"L"
274436,"7 SNEECH POND RD","CUMBERLAND","RI",2864,41.977829274,-71.435870423,436,"7 SNEECH POND RD, CUMBERLAND, RI, 2864","Match","Exact","7 SNEECH POND RD, CUMBERLAND, RI, 02864",47482220,"R"
274437,"7 SOHIER ROAD","BEVERLY","MA",1915,42.5606804560001,-70.879615298,437,"7 SOHIER ROAD, BEVERLY, MA, 1915","Match","Exact","7 SOHIER RD, BEVERLY, MA, 01915",86642360,"R"
274438,"7 SOUTH MAIN STREET","BELMONT","NC",28012,35.2419970030001,-81.038063907,438,"7 SOUTH MAIN STREET, BELMONT, NC, 28012","Match","Exact","7 S MAIN ST, BELMONT, NC, 28012",70385816,"R"
274439,"7 SOUTH OAK DRIVE","KEOKUK","IA",52632,40.4223685700001,-91.4044257209999,439,"7 SOUTH OAK DRIVE, KEOKUK, IA, 52632","Match","Exact","7 S OAK DR, KEOKUK, IA, 52632",5603249,"R"
274440,"7 SOUTH PROSPECT AVENUE","PATCHOGUE","NY",11772,40.760420896,-73.0295291479999,440,"7 SOUTH PROSPECT AVENUE, PATCHOGUE, NY, 11772","Match","Exact","7 S PROSPECT AVE, PATCHOGUE, NY, 11772",114009297,"R"
274441,"7 SOUTH VASSAR SQUARE","VENTNOR","NJ",8406,39.345374615,-74.46684614,441,"7 SOUTH VASSAR SQUARE, VENTNOR, NJ, 8406","Match","Non_Exact","7 S VASSAR SQ, VENTNOR CITY, NJ, 08406",202489436,"L"
274442,"7 SPRING LANE","WARREN","NJ",7059,40.659383113,-74.471612353,442,"7 SPRING LANE, WARREN, NJ, 7059","Match","Exact","7 SPRING LN, WARREN, NJ, 07059",59948140,"L"
274443,"7 SPRING STREET","SOUTH RIVER","NJ",8882,40.4454232320001,-74.374130011,443,"7 SPRING STREET, SOUTH RIVER, NJ, 8882","Match","Exact","7 SPRING ST, SOUTH RIVER, NJ, 08882",60362487,"R"
274444,"7 SPRINGDALE CIRCLE","DALEVILLE","AL",36322,NA,NA,444,"7 SPRINGDALE CIRCLE, DALEVILLE, AL, 36322","No_Match",NA,NA,NA,NA
274445,"7 SPRINGER CT","THURMONT","MD",21788,39.6252563580001,-77.394535114,445,"7 SPRINGER CT, THURMONT, MD, 21788","Match","Exact","7 SPRINGER CT, THURMONT, MD, 21788",60701105,"L"
274446,"7 SPYGLASS HILL","NEWTON","NJ",7860,41.0156138020001,-74.8228199769999,446,"7 SPYGLASS HILL, NEWTON, NJ, 7860","Match","Exact","7 SPYGLASS HILL, NEWTON, NJ, 07860",624655625,"L"
274447,"7 STAFFORD PLACE","SEWELL","NJ",8080,39.777525462,-75.0974447359999,447,"7 STAFFORD PLACE, SEWELL, NJ, 8080","Match","Exact","7 STAFFORD PL, SEWELL, NJ, 08080",633896802,"L"
274448,"7 STARR FARM BEACH","BURLINGTON","VT",5408,44.511272798,-73.271919356,448,"7 STARR FARM BEACH, BURLINGTON, VT, 5408","Match","Exact","7 STARR FARM BEACH, BURLINGTON, VT, 05408",135861489,"R"
274449,"7 STEPHEN DRIVE","ENFIELD","CT",6082,42.0196204010001,-72.596124488,449,"7 STEPHEN DRIVE, ENFIELD, CT, 6082","Match","Exact","7 STEPHEN DR, ENFIELD, CT, 06082",3479745,"L"
274450,"7 STERN PLACE","CONGERS","NY",10920,41.13418096,-73.9440202499999,450,"7 STERN PLACE, CONGERS, NY, 10920","Match","Exact","7 STERN PL, CONGERS, NY, 10920",124598113,"L"
274451,"7 STEUBEN ST","ADDISON","NY",14801,42.104971821,-77.2351045,451,"7 STEUBEN ST, ADDISON, NY, 14801","Match","Exact","7 STEUBEN ST, ADDISON, NY, 14801",14731741,"L"
274452,"7 STONE STREET","DANVERS","MA",1923,42.5614710680001,-70.956166904,452,"7 STONE STREET, DANVERS, MA, 1923","Match","Exact","7 STONE ST, DANVERS, MA, 01923",86638910,"R"
274453,"7 STONEHILL DR","STONEHAM","MA",2180,42.500851389,-71.1030578309999,453,"7 STONEHILL DR, STONEHAM, MA, 2180","Match","Exact","7 STONEHILL DR, STONEHAM, MA, 02180",87130931,"R"
274454,"7 STUART TERRACE","WEST ORANGE","NJ",7052,40.790022279,-74.234669756,454,"7 STUART TERRACE, WEST ORANGE, NJ, 7052","Match","Exact","7 STUART TER, WEST ORANGE, NJ, 07052",63449494,"R"
274455,"7 SUGAR CREEK COURT","DURHAM","NC",27713,35.9340569190001,-78.9197072439999,455,"7 SUGAR CREEK COURT, DURHAM, NC, 27713","Match","Exact","7 SUGAR CREEK CT, DURHAM, NC, 27713",71760071,"L"
274456,"7 SUNSET RD","MOUNTAIN LAKES","NJ",7046,40.888934158,-74.4512806399999,456,"7 SUNSET RD, MOUNTAIN LAKES, NJ, 7046","Match","Exact","7 SUNSET RD, MOUNTAIN LAKES, NJ, 07046",60440827,"R"
274457,"7 SUSSEX PL","BELLE MEAD","NJ",8502,40.44165136,-74.656737033,457,"7 SUSSEX PL, BELLE MEAD, NJ, 8502","Match","Exact","7 SUSSEX PL, BELLE MEAD, NJ, 08502",642916461,"L"
274458,"7 SWEET SWAN LANE","SANTA FE","NM",87508,35.6280607410001,-105.968199473,458,"7 SWEET SWAN LANE, SANTA FE, NM, 87508","Match","Exact","7 SWEET SWAN LN, SANTA FE, NM, 87508",632665679,"L"
274459,"7 SWEET SWAN LN","SANTA FE","NM",87508,35.6280607410001,-105.968199473,459,"7 SWEET SWAN LN, SANTA FE, NM, 87508","Match","Exact","7 SWEET SWAN LN, SANTA FE, NM, 87508",632665679,"L"
274460,"7 SWITCHBUD PLACE STE 192 PMB 246","THE WOODLANDS","TX",77380,30.1400471110001,-95.4701654099999,460,"7 SWITCHBUD PLACE STE 192 PMB 246, THE WOODLANDS, TX, 77380","Match","Exact","7 SWITCHBUD PL, THE WOODLANDS, TX, 77380",79283407,"L"
274461,"7 SWITCHBUD PLACE STE192 BOX 174","THE. WOODLANDS","TX",77380,30.1400471110001,-95.4701654099999,461,"7 SWITCHBUD PLACE STE192 BOX 174, THE. WOODLANDS, TX, 77380","Match","Exact","7 SWITCHBUD PL, THE WOODLANDS, TX, 77380",79283407,"L"
274462,"7 SYCAMORE DRIVE","WESTPORT","CT",6880,41.157921974,-73.312375043,462,"7 SYCAMORE DRIVE, WESTPORT, CT, 6880","Match","Exact","7 SYCAMORE DR, WESTPORT, CT, 06880",3238962,"L"
274463,"7 TALLWOOD DRIVE  UNITS 1/2","BOW","NH",3304,NA,NA,463,"7 TALLWOOD DRIVE  UNITS 1/2, BOW, NH, 3304","No_Match",NA,NA,NA,NA
274464,"7 TARN CT","HERCULES","CA",94547,NA,NA,464,"7 TARN CT, HERCULES, CA, 94547","No_Match",NA,NA,NA,NA
274465,"7 TASKERS POND ROAD","FARMINGTON","CT",6032,NA,NA,465,"7 TASKERS POND ROAD, FARMINGTON, CT, 6032","No_Match",NA,NA,NA,NA
274466,"7 THOMPSON MILL ROAD","WRIGHTSTOWN","PA",18940,40.2799596180001,-74.9795645849999,466,"7 THOMPSON MILL ROAD, WRIGHTSTOWN, PA, 18940","Match","Non_Exact","7 THOMPSON MILL RD, GEORGE SCHOOL, PA, 18940",134784471,"R"
274467,"7 TIGER LILY LANE","ITHACA","NY",14850,42.5174559980001,-76.4791846219999,467,"7 TIGER LILY LANE, ITHACA, NY, 14850","Match","Exact","7 TIGER LILY LN, ITHACA, NY, 14850",625054754,"R"
274468,"7 TILLAMOOK CT","SPRING","TX",77389,30.1374389690001,-95.5237632719999,468,"7 TILLAMOOK CT, SPRING, TX, 77389","Match","Exact","7 TILLAMOOK CT, SPRING, TX, 77389",624606198,"L"
274469,"7 TIMBER RIDGE COURT","FLEMINGTON","NJ",8822,40.4825199970001,-74.904826016,469,"7 TIMBER RIDGE COURT, FLEMINGTON, NJ, 8822","Match","Exact","7 TIMBER RIDGE CT, FLEMINGTON, NJ, 08822",60019572,"R"
274470,"7 TIMBERCREEK LANE","BILLERICA","MA",1821,42.5298908940001,-71.2958232949999,470,"7 TIMBERCREEK LANE, BILLERICA, MA, 1821","Match","Non_Exact","7 TIMBERCREEK RD, BILLERICA, MA, 01821",86928849,"R"
274471,"7 TINKHAM AVENUE","BURLINGTON","MA",1803,42.523408278,-71.190704399,471,"7 TINKHAM AVENUE, BURLINGTON, MA, 1803","Match","Exact","7 TINKHAM AVE, BURLINGTON, MA, 01803",87086499,"L"
274472,"7 TOPAZ LANE","TRUMBULL","CT",6611,41.293409022,-73.218754028,472,"7 TOPAZ LANE, TRUMBULL, CT, 6611","Match","Exact","7 TOPAZ LN, TRUMBULL, CT, 06611",3286334,"L"
274473,"7 TOWNSEND ROAD","GLEN COVE","NY",11542,40.8704627700001,-73.6168139169999,473,"7 TOWNSEND ROAD, GLEN COVE, NY, 11542","Match","Exact","7 TOWNSEND RD, GLEN COVE, NY, 11542",642871467,"L"
274474,"7 TRAIL RD","LA JUNTA","CO",81050,38.0000074640001,-103.53107371,474,"7 TRAIL RD, LA JUNTA, CO, 81050","Match","Exact","7 TRAIL RD, LA JUNTA, CO, 81050",112930969,"L"
274475,"7 TRALEE CT","BLOOMINGTON","IL",61704,40.4602140040001,-88.923815686,475,"7 TRALEE CT, BLOOMINGTON, IL, 61704","Match","Exact","7 TRALEE CT, BLOOMINGTON, IL, 61704",20578270,"R"
274476,"7 TRAVIS CT","MEDFORD","NJ",8055,39.893194282,-74.818651496,476,"7 TRAVIS CT, MEDFORD, NJ, 8055","Match","Exact","7 TRAVIS CT, MEDFORD, NJ, 08055",134071292,"L"
274477,"7 TROY TERRACE","GRANVILLE","NY",12832,43.4107464860001,-73.270117222,477,"7 TROY TERRACE, GRANVILLE, NY, 12832","Match","Exact","7 TROY TER, GRANVILLE, NY, 12832",139145377,"R"
274478,"7 TRUELSON DRIVE","RANDOLPH","MA",2368,42.1561726460001,-71.032053821,478,"7 TRUELSON DRIVE, RANDOLPH, MA, 2368","Match","Exact","7 TRUELSON DR, RANDOLPH, MA, 02368",87288067,"L"
274479,"7 TUILERIES PLACE","ELGIN","IL",60123,42.0523429720001,-88.3088544949999,479,"7 TUILERIES PLACE, ELGIN, IL, 60123","Match","Exact","7 TUILERIES PL, ELGIN, IL, 60123",119501743,"R"
274480,"7 TYLER RD","FRANKLIN","MA",2038,42.1062759050001,-71.408996324,480,"7 TYLER RD, FRANKLIN, MA, 2038","Match","Exact","7 TYLER RD, FRANKLIN, MA, 02038",87284542,"R"
274481,"7 TYSON ROAD","SOUTH EASTON","MA",2375,42.0437140980001,-71.085400167,481,"7 TYSON ROAD, SOUTH EASTON, MA, 2375","Match","Exact","7 TYSON RD, SOUTH EASTON, MA, 02375",46774030,"R"
274482,"7 UNDERWOOD STREET","WORCESTER","MA",1602,42.265096111,-71.837343446,482,"7 UNDERWOOD STREET, WORCESTER, MA, 1602","Match","Exact","7 UNDERWOOD ST, WORCESTER, MA, 01602",40007785,"R"
274483,"7 UNION AVENUE","EASTPORT","NY",11941,40.8262132140001,-72.731375946,483,"7 UNION AVENUE, EASTPORT, NY, 11941","Match","Exact","7 UNION AVE, EASTPORT, NY, 11941",114023020,"L"
274484,"7 UPPER CECILIA WAY","TIBURON","CA",94920,37.89918082,-122.494825727,484,"7 UPPER CECILIA WAY, TIBURON, CA, 94920","Match","Exact","7 UPPER CECILIA WAY, TIBURON, CA, 94920",629148047,"L"
274485,"7 VALLEY VIEW DR","MORRISVILLE","PA",19067,40.202823407,-74.803913026,485,"7 VALLEY VIEW DR, MORRISVILLE, PA, 19067","Match","Exact","7 VALLEY VIEW DR, MORRISVILLE, PA, 19067",637753325,"R"
274486,"7 VAN WINKLE STREET APT C","BLOOMFIELD","NJ",7003,40.7996232190001,-74.182489737,486,"7 VAN WINKLE STREET APT C, BLOOMFIELD, NJ, 7003","Match","Exact","7 VAN WINKLE ST, BLOOMFIELD, NJ, 07003",63454022,"R"
274487,"7 VANDEVENTER AVENUE","PRINCETON","NJ",8542,40.3508858260001,-74.6573919909999,487,"7 VANDEVENTER AVENUE, PRINCETON, NJ, 8542","Match","Exact","7 VANDEVENTER AVE, PRINCETON, NJ, 08542",60170816,"R"
274488,"7 VICTORIA RISE","FAIRPORT","NY",14450,43.089142155,-77.4284936939999,488,"7 VICTORIA RISE, FAIRPORT, NY, 14450","Match","Exact","7 VICTORIA RISE, FAIRPORT, NY, 14450",14548276,"L"
274489,"7 VIEWMONT TERRACE","MONTVILLE","NJ",7045,40.9101334260001,-74.3766429299999,489,"7 VIEWMONT TERRACE, MONTVILLE, NJ, 7045","Match","Exact","7 VIEWMONT TER, MONTVILLE, NJ, 07045",60458412,"R"
274490,"7 VIGUE CIR","FRAMINGHAM","MA",1701,42.3128850520001,-71.468915925,490,"7 VIGUE CIR, FRAMINGHAM, MA, 1701","Match","Exact","7 VIGUE CIR, FRAMINGHAM, MA, 01701",86846706,"R"
274491,"7 VIKING DRIVE","WAREHAM","MA",2571,NA,NA,491,"7 VIKING DRIVE, WAREHAM, MA, 2571","No_Match",NA,NA,NA,NA
274492,"7 VINSON PLACE","DURHAM","NC",27705,36.020366332,-78.966003875,492,"7 VINSON PLACE, DURHAM, NC, 27705","Match","Exact","7 VINSON PL, DURHAM, NC, 27705",71769970,"L"
274493,"7 VON TRAPP COURT","WASHINGTONVILLE","NY",10992,41.427782517,-74.178695692,493,"7 VON TRAPP COURT, WASHINGTONVILLE, NY, 10992","Match","Exact","7 VON TRAPP CT, WASHINGTONVILLE, NY, 10992",619801224,"L"
274494,"7 W 81ST STREET","NEW YORK","NY",10024,40.7821894640001,-73.972091733,494,"7 W 81ST STREET, NEW YORK, NY, 10024","Match","Exact","7 W 81ST ST, NEW YORK, NY, 10024",59656758,"R"
274495,"7 W ACACIA STREET SUITE 3A","STOCKTON","CA",95202,37.962196217,-121.294889948,495,"7 W ACACIA STREET SUITE 3A, STOCKTON, CA, 95202","Match","Exact","7 ACACIA ST, STOCKTON, CA, 95202",133850314,"R"
274496,"7 W COLLINGS DR","WILLIAMSTOWN","NJ",8094,39.600124819,-74.882091805,496,"7 W COLLINGS DR, WILLIAMSTOWN, NJ, 8094","Match","Exact","7 W COLLINGS DR, WILLIAMSTOWN, NJ, 08094",202493616,"L"
274497,"7 W VINE STREET","PORT ALLEGANY","PA",16743,41.8203725020001,-78.289342427,497,"7 W VINE STREET, PORT ALLEGANY, PA, 16743","Match","Exact","7 VINE ST, PORT ALLEGANY, PA, 16743",122634249,"L"
274498,"7 W WOODLAWN AVE APT B","MAPLE SHADE","NJ",8052,NA,NA,498,"7 W WOODLAWN AVE APT B, MAPLE SHADE, NJ, 8052","Tie",NA,NA,NA,NA
274499,"7 WADSWORTH STREET","CORTLAND","NY",13045,42.6082986170001,-76.193736078,499,"7 WADSWORTH STREET, CORTLAND, NY, 13045","Match","Exact","7 WADSWORTH ST, CORTLAND, NY, 13045",45803802,"L"
274500,"7 WALLACE AVE","MOUNT VERNON","NY",10552,40.920267596,-73.8372611409999,500,"7 WALLACE AVE, MOUNT VERNON, NY, 10552","Match","Exact","7 WALLACE AVE, MOUNT VERNON, NY, 10552",139747097,"L"
