"ID","Address","City","State","Zip","lat","long","id","input_address","match_indicator","match_type","matched_address","tiger_line_id","tiger_side"
234501,"5132 CONROY ROAD","ORLANDO","FL",32811,28.496290614,-81.448119198,1,"5132 CONROY ROAD, ORLANDO, FL, 32811","Match","Exact","5132 CONROY RD, ORLANDO, FL, 32811",651800873,"L"
234502,"5132 DARTMOOR CIR","FAIRFIELD","AR",94534,NA,NA,2,"5132 DARTMOOR CIR, FAIRFIELD, AR, 94534","No_Match",NA,NA,NA,NA
234503,"5132 LEERAY RD","FORT WORTH","TX",76244,32.9202963450001,-97.273661098,3,"5132 LEERAY RD, FORT WORTH, TX, 76244","Match","Exact","5132 LEERAY RD, FORT WORTH, TX, 76244",617676246,"R"
234504,"5132 MELROSE AVENUE","LOS ANGELES","CA",90038,34.0835021390001,-118.312242403,4,"5132 MELROSE AVENUE, LOS ANGELES, CA, 90038","Match","Exact","5132 MELROSE AVE, LOS ANGELES, CA, 90038",652035915,"L"
234505,"5132 N  PALM AVENUE STE 359","FRESNO","CA",93704,36.8106974410001,-119.808405045,5,"5132 N  PALM AVENUE STE 359, FRESNO, CA, 93704","Match","Non_Exact","5132 N PALM AVE, FRESNO, CA, 93704",197573785,"R"
234506,"5132 N PALM AVE NUM 275","FRESNO","CA",93704,36.8106974410001,-119.808405045,6,"5132 N PALM AVE NUM 275, FRESNO, CA, 93704","Match","Non_Exact","5132 N PALM AVE, FRESNO, CA, 93704",197573785,"R"
234507,"5132 N PALM PMB 83","FRESNO","CA",93704,NA,NA,7,"5132 N PALM PMB 83, FRESNO, CA, 93704","No_Match",NA,NA,NA,NA
234508,"5132 PARADISE DRIVE","CORTE MADERA","CA",94925,37.9204848420001,-122.487232464,8,"5132 PARADISE DRIVE, CORTE MADERA, CA, 94925","Match","Exact","5132 PARADISE DR, CORTE MADERA, CA, 94925",651434389,"R"
234509,"5132 ROBIN ROAD","KNOXVILLE","TN",37918,36.0347069950001,-83.919469901,9,"5132 ROBIN ROAD, KNOXVILLE, TN, 37918","Match","Non_Exact","5132 ROBIN RD NE, KNOXVILLE, TN, 37918",42617288,"R"
234510,"5132 ROYAL BIRKDALE AVENUE","WALDORF","MD",20602,38.570830389,-76.911441763,10,"5132 ROYAL BIRKDALE AVENUE, WALDORF, MD, 20602","Match","Exact","5132 ROYAL BIRKDALE AVE, WALDORF, MD, 20602",642954266,"R"
234511,"5133 135TH ST SE","EVERETT","WA",98208,47.875273097,-122.162778117,11,"5133 135TH ST SE, EVERETT, WA, 98208","Match","Exact","5133 135TH ST SE, EVERETT, WA, 98208",187763217,"L"
234512,"5133 MALAYA STREET","DENVER","CO",80249,39.7901562870001,-104.742435426,12,"5133 MALAYA STREET, DENVER, CO, 80249","Match","Non_Exact","5133 N MALAYA ST, DENVER, CO, 80249",617528333,"L"
234513,"5133 MILLWOOD RD","SAN DIEGO","CA",92117,32.8388623380001,-117.194902668,13,"5133 MILLWOOD RD, SAN DIEGO, CA, 92117","Match","Exact","5133 MILLWOOD RD, SAN DIEGO, CA, 92117",195304612,"R"
234514,"5133 MYRTUS AVENUE","TEMPLE CITY","CA",91780,34.098765508,-118.026893103,14,"5133 MYRTUS AVENUE, TEMPLE CITY, CA, 91780","Match","Exact","5133 MYRTUS AVE, TEMPLE CITY, CA, 91780",141645756,"L"
234515,"5133 NEWHALL STREET","PHILADELPHIA","PR",19144,NA,NA,15,"5133 NEWHALL STREET, PHILADELPHIA, PR, 19144","No_Match",NA,NA,NA,NA
234516,"5133 PINSON ST","FORT WORTH","TX",76105,32.7141404060001,-97.244470257,16,"5133 PINSON ST, FORT WORTH, TX, 76105","Match","Exact","5133 PINSON ST, FORT WORTH, TX, 76105",101899367,"L"
234517,"5133 POND VIEW LANE","FAIRVIEW","TX",75069,33.150846593,-96.634428833,17,"5133 POND VIEW LANE, FAIRVIEW, TX, 75069","Match","Exact","5133 POND VIEW LN, FAIRVIEW, TX, 75069",601176209,"R"
234518,"5133 S CORNING AVENUE","LOS ANGELES","CA",90056,33.9954185460001,-118.372176801,18,"5133 S CORNING AVENUE, LOS ANGELES, CA, 90056","Match","Exact","5133 S CORNING AVE, LOS ANGELES, CA, 90056",142444763,"R"
234519,"5133 WEST  FULLERTON AVENUE","CHICAGO","IL",60639,41.924126421,-87.7545540959999,19,"5133 WEST  FULLERTON AVENUE, CHICAGO, IL, 60639","Match","Exact","5133 W FULLERTON AVE, CHICAGO, IL, 60639",111757434,"L"
234520,"5133 WEST FULLERTON AVENUE","CHICAGO","IL",60639,41.924126421,-87.7545540959999,20,"5133 WEST FULLERTON AVENUE, CHICAGO, IL, 60639","Match","Exact","5133 W FULLERTON AVE, CHICAGO, IL, 60639",111757434,"L"
234521,"5134 1ST RD","FAIRFAX","VA",22030,38.829815943,-77.3540774269999,21,"5134 1ST RD, FAIRFAX, VA, 22030","Match","Exact","5134 1ST RD, FAIRFAX, VA, 22030",75966171,"R"
234522,"5134 COTTER DRIVE","UNION CITY","GA",30291,33.5747000270001,-84.556594291,22,"5134 COTTER DRIVE, UNION CITY, GA, 30291","Match","Exact","5134 COTTER DR, UNION CITY, GA, 30291",17350922,"L"
234523,"5134 E FT LOWELL DR","TUCSON","AZ",85712,NA,NA,23,"5134 E FT LOWELL DR, TUCSON, AZ, 85712","No_Match",NA,NA,NA,NA
234524,"5134 KNOX STREET","PHILADELPHIA","PA",19144,40.028026233,-75.1690339149999,24,"5134 KNOX STREET, PHILADELPHIA, PA, 19144","Match","Exact","5134 KNOX ST, PHILADELPHIA, PA, 19144",131401361,"L"
234525,"5134 MACEDONIA RD","SPRING HOPE","NC",27882,35.9181877240001,-78.078895232,25,"5134 MACEDONIA RD, SPRING HOPE, NC, 27882","Match","Exact","5134 MACEDONIA RD, SPRING HOPE, NC, 27882",90377676,"R"
234526,"5134 N ASHLAND","CHICAGO","IL",60640,NA,NA,26,"5134 N ASHLAND, CHICAGO, IL, 60640","No_Match",NA,NA,NA,NA
234527,"5134 S WOLCOTT STREET","CHICAGO","IL",60609,NA,NA,27,"5134 S WOLCOTT STREET, CHICAGO, IL, 60609","No_Match",NA,NA,NA,NA
234528,"5134 SOUTH LEO STREET","SEATTLE","WA",98178,47.502621484,-122.269307723,28,"5134 SOUTH LEO STREET, SEATTLE, WA, 98178","Match","Exact","5134 S LEO ST, SEATTLE, WA, 98178",186626816,"L"
234529,"5134 SOUTH TRYSON STREET","CHARLOTTE","NC",28217,NA,NA,29,"5134 SOUTH TRYSON STREET, CHARLOTTE, NC, 28217","No_Match",NA,NA,NA,NA
234530,"5134 W 8180 S","WEST JORDAN","UT",84081,40.602706653,-112.012680939,30,"5134 W 8180 S, WEST JORDAN, UT, 84081","Match","Exact","5134 8180 S, WEST JORDAN, UT, 84081",609020266,"R"
234531,"5135 AMBERCREST DR A5","WINSTON SALEM","NC",27106,36.1636135150001,-80.2794295269999,31,"5135 AMBERCREST DR A5, WINSTON SALEM, NC, 27106","Match","Exact","5135 AMBERCREST DR, WINSTON SALEM, NC, 27106",84661167,"R"
234532,"5135 CARTER CT","MASON","OH",45040,39.3635395370001,-84.295541785,32,"5135 CARTER CT, MASON, OH, 45040","Match","Exact","5135 CARTER CT, MASON, OH, 45040",159022442,"R"
234533,"5135 EDISON AVE STE 13","CHINO","CA",91710,33.997312218,-117.692293718,33,"5135 EDISON AVE STE 13, CHINO, CA, 91710","Match","Exact","5135 EDISON AVE, CHINO, CA, 91710",144677410,"R"
234534,"5135 GARFIELD AVE","KANSAS CITY","MO",64130,39.0333252120001,-94.560599665,34,"5135 GARFIELD AVE, KANSAS CITY, MO, 64130","Match","Exact","5135 GARFIELD AVE, KANSAS CITY, MO, 64130",91452358,"L"
234535,"5135 HAMBY HOLLOW LN","CUMMING","GA",30028,34.29901893,-84.118573876,35,"5135 HAMBY HOLLOW LN, CUMMING, GA, 30028","Match","Exact","5135 HAMBY HOLLOW LN, CUMMING, GA, 30028",628082380,"L"
234536,"5135 HOMESTEAD WAY","ANTIOCH","CA",95431,37.956236459,-121.762887381,36,"5135 HOMESTEAD WAY, ANTIOCH, CA, 95431","Match","Non_Exact","5135 HOMESTEAD WAY, ANTIOCH, CA, 94531",192099730,"L"
234537,"5135 HUMBOLDT AVE N","MINNEAPOLIS","MN",55430,45.048187555,-93.299196546,37,"5135 HUMBOLDT AVE N, MINNEAPOLIS, MN, 55430","Match","Exact","5135 HUMBOLDT AVE N, MINNEAPOLIS, MN, 55430",43832570,"L"
234538,"5135 INDIAN HEAD HIGHWAY","OXON HILL","MD",20745,38.8147385280001,-76.998636453,38,"5135 INDIAN HEAD HIGHWAY, OXON HILL, MD, 20745","Match","Exact","5135 INDIAN HEAD HWY, OXON HILL, MD, 20745",76311995,"R"
234539,"5135 MIDLAND TRACE","MIDLAND","GA",31820,32.566432725,-84.892719023,39,"5135 MIDLAND TRACE, MIDLAND, GA, 31820","Match","Exact","5135 MIDLAND TRCE, MIDLAND, GA, 31820",98951122,"L"
234540,"5135 N 86TH ST","SCOTTSDALE","AZ",85250,33.5122373840001,-111.895896281,40,"5135 N 86TH ST, SCOTTSDALE, AZ, 85250","Match","Exact","5135 N 86TH ST, SCOTTSDALE, AZ, 85250",128230005,"R"
234541,"5135 PREMIERE AVENUE","LAKEWOOD","CA",90712,33.8514363730001,-118.130728398,41,"5135 PREMIERE AVENUE, LAKEWOOD, CA, 90712","Match","Exact","5135 PREMIERE AVE, LAKEWOOD, CA, 90712",642866863,"L"
234542,"5135 S BLACKSTONE APT 305","CHICAGO","IL",60615,NA,NA,42,"5135 S BLACKSTONE APT 305, CHICAGO, IL, 60615","No_Match",NA,NA,NA,NA
234543,"5135 S DURANGO DRIVE SUITE 104","LAS VEGAS","NV",89113,36.0968766230001,-115.279244255,43,"5135 S DURANGO DRIVE SUITE 104, LAS VEGAS, NV, 89113","Match","Non_Exact","5135 S DURANGO DR, LAS VEGAS, NV, 89113",632505877,"R"
234544,"5135 WALNUT AVE","CHINO","CA",91710,34.0263232610001,-117.69293659,44,"5135 WALNUT AVE, CHINO, CA, 91710","Match","Exact","5135 WALNUT AVE, CHINO, CA, 91710",144672981,"R"
234545,"5135 WEST MOUNTAIN STREET UNIT C6","STONE MOUNTAIN","GA",30083,33.806643927,-84.179239836,45,"5135 WEST MOUNTAIN STREET UNIT C6, STONE MOUNTAIN, GA, 30083","Match","Exact","5135 W MOUNTAIN ST, STONE MOUNTAIN, GA, 30083",23379388,"R"
234546,"5136 CLARION HAMMOCK DRIVE","ORLANDO","FL",32808,28.6042550560001,-81.449099775,46,"5136 CLARION HAMMOCK DRIVE, ORLANDO, FL, 32808","Match","Exact","5136 CLARION HAMMOCK DR, ORLANDO, FL, 32808",94390840,"L"
234547,"5136 FM 2867 E","HENDERSON","TX",75654,32.1166795090001,-94.710875996,47,"5136 FM 2867 E, HENDERSON, TX, 75654","Match","Exact","5136 FM 2867 E, HENDERSON, TX, 75654",651915996,"L"
234548,"5136 FOXHILL LANE","MONROE","MI",48161,41.9027510610001,-83.434162887,48,"5136 FOXHILL LANE, MONROE, MI, 48161","Match","Exact","5136 FOXHILL LN, MONROE, MI, 48161",647564092,"L"
234549,"5136 GREENVILE LOOP ROAD APT A","WILMINGTON","NC",28409,34.1989014280001,-77.868266401,49,"5136 GREENVILE LOOP ROAD APT A, WILMINGTON, NC, 28409","Match","Non_Exact","5136 GREENVILLE LOOP RD, WILMINGTON, NC, 28409",152761111,"R"
234550,"5136 HARFORD ROAD","BALTIMORE","MD",21214,39.3484016560001,-76.564830273,50,"5136 HARFORD ROAD, BALTIMORE, MD, 21214","Match","Exact","5136 HARFORD RD, BALTIMORE, MD, 21214",206410748,"L"
234551,"5136 KIRKWALL CIRCLE","MELBOURNE","FL",32940,28.1966433100001,-80.69303092,51,"5136 KIRKWALL CIRCLE, MELBOURNE, FL, 32940","Match","Exact","5136 KIRKWALL CIR, MELBOURNE, FL, 32940",648444792,"L"
234552,"5136 LAUREL BRIDGE COURT SE","SMYRNA","GA",30082,33.841830047,-84.511509347,52,"5136 LAUREL BRIDGE COURT SE, SMYRNA, GA, 30082","Match","Exact","5136 LAUREL BRIDGE CT SE, SMYRNA, GA, 30082",17197422,"R"
234553,"5136 LEERAY RD","FORT WORTH","TX",76244,NA,NA,53,"5136 LEERAY RD, FORT WORTH, TX, 76244","No_Match",NA,NA,NA,NA
234554,"5136 LIBERTY SCHOOL ROAD","HILLSBORO","MO",63050,38.180318062,-90.596923327,54,"5136 LIBERTY SCHOOL ROAD, HILLSBORO, MO, 63050","Match","Exact","5136 LIBERTY SCHOOL RD, HILLSBORO, MO, 63050",649763650,"L"
234555,"5136 LOWING CT","ROCKLEDGE","FL",32955,28.270675828,-80.750354605,55,"5136 LOWING CT, ROCKLEDGE, FL, 32955","Match","Exact","5136 LOWING CT, ROCKLEDGE, FL, 32955",601722707,"R"
234556,"5137 29TH AVE S","GULFPORT","FL",33707,27.741023715,-82.702757479,56,"5137 29TH AVE S, GULFPORT, FL, 33707","Match","Exact","5137 29TH AVE S, GULFPORT, FL, 33707",124709147,"R"
234557,"5137 GOLD BASIN RD","FORT WORTH","TX",76179,32.8360650880001,-97.378045365,57,"5137 GOLD BASIN RD, FORT WORTH, TX, 76179","Match","Exact","5137 GOLD BASIN RD, FORT WORTH, TX, 76179",619874773,"L"
234558,"5137 JONES RD SE","SALEM","OR",97306,44.8810125480001,-123.048010451,58,"5137 JONES RD SE, SALEM, OR, 97306","Match","Exact","5137 JONES RD SE, SALEM, OR, 97306",156249385,"R"
234559,"5137 NTH 91ST STREET","MILWAUKEE","WI",53225,43.111543903,-88.025944426,59,"5137 NTH 91ST STREET, MILWAUKEE, WI, 53225","Match","Non_Exact","5137 N 91ST ST, MILWAUKEE, WI, 53225",640327738,"L"
234560,"5137 RENO STREET","PHILADELPHIA","PA",19139,39.9663865520001,-75.223356297,60,"5137 RENO STREET, PHILADELPHIA, PA, 19139","Match","Exact","5137 RENO ST, PHILADELPHIA, PA, 19139",131398725,"R"
234561,"5137 SAVONA-CAMPBELL ROAD","CAMPBELL","NY",14821,NA,NA,61,"5137 SAVONA-CAMPBELL ROAD, CAMPBELL, NY, 14821","No_Match",NA,NA,NA,NA
234562,"5137 W BYRON ST","CHICAGO","IL",60641,41.9514656690001,-87.7556072039999,62,"5137 W BYRON ST, CHICAGO, IL, 60641","Match","Non_Exact","5137 W BYRON ST, CHICAGO, IL, 60641",111755536,"L"
234563,"5137 WAUKESHA RD","BETHESDA","MD",20816,38.957554278,-77.1259355459999,63,"5137 WAUKESHA RD, BETHESDA, MD, 20816","Match","Exact","5137 WAUKESHA RD, BETHESDA, MD, 20816",62059035,"R"
234564,"5137 WELLISFORD CT","SUWANEE","GA",30024,34.0889235550001,-84.0784881069999,64,"5137 WELLISFORD CT, SUWANEE, GA, 30024","Match","Non_Exact","5137 WELLISFORD CT NW, SUWANEE, GA, 30024",625094012,"R"
234565,"51379 W 111TH ST S","DRUMRIGHT","OK",74030,NA,NA,65,"51379 W 111TH ST S, DRUMRIGHT, OK, 74030","No_Match",NA,NA,NA,NA
234566,"5138 APENNINE LOOP WEST","SAINT CLOUD","FL",34771,28.3041720520001,-81.235258742,66,"5138 APENNINE LOOP WEST, SAINT CLOUD, FL, 34771","Match","Non_Exact","5138 APPENINE LOOP W, SAINT CLOUD, FL, 34771",646591715,"L"
234567,"5138 ARGYLE RD","EL SOBRANTE","CA",94803,37.981416655,-122.295247034,67,"5138 ARGYLE RD, EL SOBRANTE, CA, 94803","Match","Exact","5138 ARGYLE RD, EL SOBRANTE, CA, 94803",192042129,"R"
234568,"5138 BENNINGTON","HOUSTON","TX",77028,29.821188799,-95.315964053,68,"5138 BENNINGTON, HOUSTON, TX, 77028","Match","Non_Exact","5138 BENNINGTON ST, HOUSTON, TX, 77028",96076514,"R"
234569,"5138 E 75TH STREET","TULSA","OK",74136,36.0551296370001,-95.919473035,69,"5138 E 75TH STREET, TULSA, OK, 74136","Match","Exact","5138 E 75TH ST, TULSA, OK, 74136",166452501,"R"
234570,"5138 FIDDLERS RUN DRIVE","KERNERSVILLE","NC",27284,36.0808251980001,-80.127282739,70,"5138 FIDDLERS RUN DRIVE, KERNERSVILLE, NC, 27284","Match","Exact","5138 FIDDLERS RUN DR, KERNERSVILLE, NC, 27284",624757331,"R"
234571,"5138 HORN ROAD","MISSOULA","MT",59808,46.8954399190001,-114.069745318,71,"5138 HORN ROAD, MISSOULA, MT, 59808","Match","Exact","5138 HORN RD, MISSOULA, MT, 59808",632889262,"L"
234572,"5138 MONTGOMERY AVENUE","FRANKLIN","OH",45005,39.5888764900001,-84.292235838,72,"5138 MONTGOMERY AVENUE, FRANKLIN, OH, 45005","Match","Exact","5138 MONTGOMERY AVE, FRANKLIN, OH, 45005",159017568,"R"
234573,"5138 THURMAN COURT","LILBURN","GA",30047,33.8528500400001,-84.125208914,73,"5138 THURMAN COURT, LILBURN, GA, 30047","Match","Non_Exact","5138 THURMAN CT SW, LILBURN, GA, 30047",645863492,"R"
234574,"51383 BUCKS MILL ROAD","DETROIT LAKES","MN",56501,46.7078004360001,-95.912493602,74,"51383 BUCKS MILL ROAD, DETROIT LAKES, MN, 56501","Match","Exact","51383 BUCKS MILL RD, DETROIT LAKES, MN, 56501",168329912,"L"
234575,"51387 US HWY 50 1 EARL AVE SUITE B","PARLIN","CO",81239,NA,NA,75,"51387 US HWY 50 1 EARL AVE SUITE B, PARLIN, CO, 81239","No_Match",NA,NA,NA,NA
234576,"5139 BOGIE LANE","REDDING","CA",96002,40.5332939360001,-122.305947741,76,"5139 BOGIE LANE, REDDING, CA, 96002","Match","Exact","5139 BOGIE LN, REDDING, CA, 96002",126661380,"L"
234577,"5139 EUROPA DR APT A","BOYNTON BEACH","FL",33437,26.5336012390001,-80.1256699799999,77,"5139 EUROPA DR APT A, BOYNTON BEACH, FL, 33437","Match","Exact","5139 EUROPA DR, BOYNTON BEACH, FL, 33437",115482996,"R"
234578,"5139 GREENHEART DRIVE","INDIANAPOLIS","IN",46237,39.692154395,-86.099679812,78,"5139 GREENHEART DRIVE, INDIANAPOLIS, IN, 46237","Match","Exact","5139 GREENHEART DR, INDIANAPOLIS, IN, 46237",624093467,"R"
234579,"5139 MAPLERIDGE DR","PORTAGE","MI",49024,42.242996012,-85.6022162959999,79,"5139 MAPLERIDGE DR, PORTAGE, MI, 49024","Match","Exact","5139 MAPLERIDGE DR, PORTAGE, MI, 49024",12229426,"L"
234580,"5139 MONZA COURT","AVE MARIA","FL",34142,26.3287153960001,-81.427403436,80,"5139 MONZA COURT, AVE MARIA, FL, 34142","Match","Exact","5139 MONZA CT, AVE MARIA, FL, 34142",648663391,"R"
234581,"5139 QUENTIN BLVD SUITE 304","GAHANNA","OH",43230,NA,NA,81,"5139 QUENTIN BLVD SUITE 304, GAHANNA, OH, 43230","No_Match",NA,NA,NA,NA
234582,"5139 S ELLIS AVE APT 3","CHICAGO","IL",60615,41.801721566,-87.601345113,82,"5139 S ELLIS AVE APT 3, CHICAGO, IL, 60615","Match","Non_Exact","5139 S ELLIS AVE, CHICAGO, IL, 60615",111771623,"L"
234583,"5139 SEVEN LAKES WEST","WEST END","NC",27376,NA,NA,83,"5139 SEVEN LAKES WEST, WEST END, NC, 27376","No_Match",NA,NA,NA,NA
234584,"5139 SHARP STREET SUITE 200","DALLAS","TX",75247,32.810743771,-96.871645808,84,"5139 SHARP STREET SUITE 200, DALLAS, TX, 75247","Match","Exact","5139 SHARP ST, DALLAS, TX, 75247",102895254,"L"
234585,"5139 STATE ROUTE 540","BELLEFONTAINE","OH",43311,40.376811849,-83.6746606089999,85,"5139 STATE ROUTE 540, BELLEFONTAINE, OH, 43311","Match","Exact","5139 STATE RTE 540, BELLEFONTAINE, OH, 43311",52162385,"R"
234586,"5139 THOMAS ST","MAPLE HEIGHTS","OH",44137,41.420666897,-81.556460267,86,"5139 THOMAS ST, MAPLE HEIGHTS, OH, 44137","Match","Exact","5139 THOMAS ST, MAPLE HEIGHTS, OH, 44137",61129269,"L"
234587,"5139 TORREY PINE LANE","DURHAM","NC",27713,35.9168660780001,-78.930085285,87,"5139 TORREY PINE LANE, DURHAM, NC, 27713","Match","Exact","5139 TORREY PINE LN, DURHAM, NC, 27713",71765911,"L"
234588,"5139 W WASHINGTON BLVD","CHICAGO","IL",60644,41.881712371,-87.7531714849999,88,"5139 W WASHINGTON BLVD, CHICAGO, IL, 60644","Match","Exact","5139 W WASHINGTON BLVD, CHICAGO, IL, 60644",111758210,"L"
234589,"514  WEST END AVENUE NUMBER 11A","NEW YORK","NY",10024,40.7880819550001,-73.978433739,89,"514  WEST END AVENUE NUMBER 11A, NEW YORK, NY, 10024","Match","Exact","514 W END AVE, NEW YORK, NY, 10024",59656619,"R"
234590,"514 1/4 NORTH SPAULDING AVENUE","LOS ANGELES","CA",90036,34.0805344820001,-118.357354305,90,"514 1/4 NORTH SPAULDING AVENUE, LOS ANGELES, CA, 90036","Match","Exact","514 N SPAULDING AVE, LOS ANGELES, CA, 90036",141598551,"R"
234591,"514 13TH AVE","FULTON","IA",61252,NA,NA,91,"514 13TH AVE, FULTON, IA, 61252","No_Match",NA,NA,NA,NA
234592,"514 13TH AVE","FULTON","IL",61252,41.8645528690001,-90.1643472389999,92,"514 13TH AVE, FULTON, IL, 61252","Match","Exact","514 13TH AVE, FULTON, IL, 61252",48973633,"L"
234593,"514 34TH AVE","VERO BEACH","FL",32968,27.6108061050001,-80.420656456,93,"514 34TH AVE, VERO BEACH, FL, 32968","Match","Exact","514 34TH AVE, VERO BEACH, FL, 32968",610929337,"R"
234594,"514 4TH AVE","PONTIAC","MI",48340,42.66946833,-83.2815042999999,94,"514 4TH AVE, PONTIAC, MI, 48340","Match","Exact","514 4TH AVE, PONTIAC, MI, 48340",69704723,"R"
234595,"514 5TH AVENUE WEST","HENDERSONVILLE","NC",28793,35.3170655330001,-82.4653320639999,95,"514 5TH AVENUE WEST, HENDERSONVILLE, NC, 28793","Match","Non_Exact","514 5TH AVE W, HENDERSONVILLE, NC, 28739",152323385,"R"
234596,"514 5TH STREET","LAKEWOOD","NJ",8701,40.094569187,-74.219576487,96,"514 5TH STREET, LAKEWOOD, NJ, 8701","Match","Exact","514 5TH ST, LAKEWOOD, NJ, 08701",203723526,"R"
234597,"514 62ND STREET","OAKLAND","CA",94609,37.8478938280001,-122.26151144,97,"514 62ND STREET, OAKLAND, CA, 94609","Match","Exact","514 62ND ST, OAKLAND, CA, 94609",124998866,"R"
234598,"514 97TH DR NE  UNIT B","LAKE STEVENS","WA",98258,48.001288731,-122.101345504,98,"514 97TH DR NE  UNIT B, LAKE STEVENS, WA, 98258","Match","Exact","514 97TH DR NE, LAKE STEVENS, WA, 98258",187749391,"L"
234599,"514 AMERICAS WAY 10735","BOX ELDER","SD",57719,44.103874536,-103.145393489,99,"514 AMERICAS WAY 10735, BOX ELDER, SD, 57719","Match","Exact","514 AMERICAS WAY, BOX ELDER, SD, 57719",640730604,"L"
234600,"514 AMERICAS WAY 8426","BOX ELDER","SD",57719,44.103874536,-103.145393489,100,"514 AMERICAS WAY 8426, BOX ELDER, SD, 57719","Match","Exact","514 AMERICAS WAY, BOX ELDER, SD, 57719",640730604,"L"
234601,"514 AMERICAS WAY NUM 2887","BOX ELDER","SD",57719,44.103874536,-103.145393489,101,"514 AMERICAS WAY NUM 2887, BOX ELDER, SD, 57719","Match","Exact","514 AMERICAS WAY, BOX ELDER, SD, 57719",640730604,"L"
234602,"514 AMERICAS WAY PMB 10134","BOX ELDER","SD",57719,44.103874536,-103.145393489,102,"514 AMERICAS WAY PMB 10134, BOX ELDER, SD, 57719","Match","Exact","514 AMERICAS WAY, BOX ELDER, SD, 57719",640730604,"L"
234603,"514 ANDERSON AVE","CLIFFSIDE PARK","NJ",7010,40.8221151810001,-73.99027645,103,"514 ANDERSON AVE, CLIFFSIDE PARK, NJ, 7010","Match","Exact","514 ANDERSON AVE, CLIFFSIDE PARK, NJ, 07010",64391478,"R"
234604,"514 APPLE HILL ROAD","BENNINGTON","VT",5201,42.910924057,-73.2016118399999,104,"514 APPLE HILL ROAD, BENNINGTON, VT, 5201","Match","Exact","514 APPLE HILL RD, BENNINGTON, VT, 05201",139209078,"L"
234605,"514 ASHBURY STREET","SAN FRANCISCO","CA",94117,37.770753379,-122.447077322,105,"514 ASHBURY STREET, SAN FRANCISCO, CA, 94117","Match","Exact","514 ASHBURY ST, SAN FRANCISCO, CA, 94117",192282360,"L"
234606,"514 BARKER ST","WELLINGTON","OH",44090,41.1771249700001,-82.212963594,106,"514 BARKER ST, WELLINGTON, OH, 44090","Match","Exact","514 BARKER ST, WELLINGTON, OH, 44090",55425324,"L"
234607,"514 BEACH DR","MEDINA","NY",14103,43.220294213,-78.402392768,107,"514 BEACH DR, MEDINA, NY, 14103","Match","Exact","514 BEACH DR, MEDINA, NY, 14103",48803607,"L"
234608,"514 BELLEVUE AVE 1347","DUBLIN","GA",31040,32.538452342,-82.910227101,108,"514 BELLEVUE AVE 1347, DUBLIN, GA, 31040","Match","Non_Exact","514 BELLEVUE AVE, DUBLIN, GA, 31021",100671829,"R"
234609,"514 BETH ANN STREET","VALRICO","FL",33594,27.9319111560001,-82.256076822,109,"514 BETH ANN STREET, VALRICO, FL, 33594","Match","Exact","514 BETH ANN ST, VALRICO, FL, 33594",104581389,"R"
234610,"514 BIG VALLEY LANE","BELTON","TX",76513,31.047631933,-97.605764177,110,"514 BIG VALLEY LANE, BELTON, TX, 76513","Match","Exact","514 BIG VALLEY LN, BELTON, TX, 76513",146184198,"L"
234611,"514 BROCKRIDGE HUNT DRIVE","HAMPTON","VA",23666,37.0509426850001,-76.413409702,111,"514 BROCKRIDGE HUNT DRIVE, HAMPTON, VA, 23666","Match","Exact","514 BROCKRIDGE HUNT DR, HAMPTON, VA, 23666",103755739,"L"
234612,"514 BRUIN CT","STOCKBRIDGE","GA",30281,33.5291001370001,-84.261416395,112,"514 BRUIN CT, STOCKBRIDGE, GA, 30281","Match","Exact","514 BRUIN CT, STOCKBRIDGE, GA, 30281",23208050,"R"
234613,"514 BUNKLEY ROAD SW","MEADVILLE","MS",39653,31.4618617680001,-90.92092726,113,"514 BUNKLEY ROAD SW, MEADVILLE, MS, 39653","Match","Non_Exact","514 BUNKLEY RD, MEADVILLE, MS, 39653",612366266,"L"
234614,"514 C STREET","WYNNE","AR",72396,35.228290481,-90.792870105,114,"514 C STREET, WYNNE, AR, 72396","Match","Exact","514 C ST, WYNNE, AR, 72396",69176907,"R"
234615,"514 CAINS MILL RD","WILLIAMSTOWN","NJ",8094,39.5930113850001,-74.881681231,115,"514 CAINS MILL RD, WILLIAMSTOWN, NJ, 8094","Match","Exact","514 CAINS MILL RD, WILLIAMSTOWN, NJ, 08094",202526263,"R"
234616,"514 CENTURY OAK DRIVE","WAUKESHA","WI",53188,43.0210890500001,-88.29652182,116,"514 CENTURY OAK DRIVE, WAUKESHA, WI, 53188","Match","Exact","514 CENTURY OAK DR, WAUKESHA, WI, 53188",617671482,"L"
234617,"514 CHATHAM DR","O FALLON","MO",63366,38.8404961470001,-90.6975751209999,117,"514 CHATHAM DR, O FALLON, MO, 63366","Match","Exact","514 CHATHAM DR, O FALLON, MO, 63366",605519080,"L"
234618,"514 CHESTNUT STREET","LEBANON","PA",17042,40.33825089,-76.419519489,118,"514 CHESTNUT STREET, LEBANON, PA, 17042","Match","Exact","514 CHESTNUT ST, LEBANON, PA, 17042",80673775,"L"
234619,"514 COPELAND DRIVE","CEDAR HILL","TX",75104,32.6144428310001,-96.9527537179999,119,"514 COPELAND DRIVE, CEDAR HILL, TX, 75104","Match","Exact","514 COPELAND DR, CEDAR HILL, TX, 75104",102975769,"R"
234620,"514 CORLEY MANOR COURT","LEXINGTON","SC",29072,34.0152005460001,-81.2039950879999,120,"514 CORLEY MANOR COURT, LEXINGTON, SC, 29072","Match","Exact","514 CORLEY MANOR CT, LEXINGTON, SC, 29072",70072745,"L"
234621,"514 COUNTY ROAD 537","ENTERPRISE","AL",36330,31.342189746,-85.932913276,121,"514 COUNTY ROAD 537, ENTERPRISE, AL, 36330","Match","Exact","514 CO RD 537, ENTERPRISE, AL, 36330",636439641,"L"
234622,"514 CREEL AVENUE","LOUISVILLE","KY",40208,38.2127323490001,-85.76638687,122,"514 CREEL AVENUE, LOUISVILLE, KY, 40208","Match","Exact","514 CREEL AVE, LOUISVILLE, KY, 40208",96844436,"L"
234623,"514 DANBURY ROAD","NEW MILFORD","CT",6776,41.5166991,-73.422332819,123,"514 DANBURY ROAD, NEW MILFORD, CT, 6776","Match","Exact","514 DANBURY RD, NEW MILFORD, CT, 06776",640065381,"R"
234624,"514 DIANE LANE","RICHMOND","VA",23227,37.635794144,-77.4357029889999,124,"514 DIANE LANE, RICHMOND, VA, 23227","Match","Exact","514 DIANE LN, RICHMOND, VA, 23227",106648496,"R"
234625,"514 DITTMAN STREET","MISHAWAKA","IN",46544,41.669331049,-86.115199546,125,"514 DITTMAN STREET, MISHAWAKA, IN, 46544","Match","Non_Exact","514 DITTMAN AVE, MISHAWAKA, IN, 46544",8064764,"R"
234626,"514 DRAKE DRIVE","SANTA ROSA","CA",95409,38.4759902590001,-122.658185044,126,"514 DRAKE DRIVE, SANTA ROSA, CA, 95409","Match","Exact","514 DRAKE DR, SANTA ROSA, CA, 95409",67474138,"R"
234627,"514 DUMMORELAND DRIVE","SHREVEPORT","LA",71106,32.425832073,-93.737058603,127,"514 DUMMORELAND DRIVE, SHREVEPORT, LA, 71106","Match","Non_Exact","514 DUNMORELAND DR, SHREVEPORT, LA, 71106",57441469,"R"
234628,"514 DUTCHMAN AVE","HENDERSON","NV",89011,36.0649126530001,-114.997311821,128,"514 DUTCHMAN AVE, HENDERSON, NV, 89011","Match","Exact","514 DUTCHMAN AVE, HENDERSON, NV, 89011",201880387,"R"
234629,"514 E 6TH ST 2F","NEW YORK","NY",10009,40.725271622,-73.983488839,129,"514 E 6TH ST 2F, NEW YORK, NY, 10009","Match","Non_Exact","514 E 6TH ST, NEW YORK, NY, 10009",59654077,"R"
234630,"514 E 8TH STREET","BROOKLYN","NY",11218,40.6659842350001,-73.9779406489999,130,"514 E 8TH STREET, BROOKLYN, NY, 11218","Match","Non_Exact","514 8TH ST, BROOKLYN, NY, 11215",59078175,"R"
234631,"514 E 95TH STREET","CHICAGO","IL",60619,41.721952946,-87.611078933,131,"514 E 95TH STREET, CHICAGO, IL, 60619","Match","Exact","514 E 95TH ST, CHICAGO, IL, 60619",111773464,"L"
234632,"514 E BARHAM DR 235","SAN MARCOS","CA",92173,33.1349894410001,-117.152103558,132,"514 E BARHAM DR 235, SAN MARCOS, CA, 92173","Match","Non_Exact","514 BARHAM DR, SAN MARCOS, CA, 92078",652141600,"L"
234633,"514 E CENTURY AVE","GILBERT","AZ",85296,33.3495127360001,-111.779813595,133,"514 E CENTURY AVE, GILBERT, AZ, 85296","Match","Exact","514 E CENTURY AVE, GILBERT, AZ, 85296",128268899,"L"
234634,"514 E CLEN MOORE BLVD","NEW CASTLE","PA",16105,41.019689763,-80.334615287,134,"514 E CLEN MOORE BLVD, NEW CASTLE, PA, 16105","Match","Exact","514 E CLEN MOORE BLVD, NEW CASTLE, PA, 16105",65180017,"L"
234635,"514 E COMMERCIAL STREET","SPRINGFIELD","MO",65803,37.229936853,-93.286875997,135,"514 E COMMERCIAL STREET, SPRINGFIELD, MO, 65803","Match","Exact","514 E COMMERCIAL ST, SPRINGFIELD, MO, 65803",76677463,"R"
234636,"514 E GRAND AVE SUITE 216","LARAMIE","WY",82070,41.3108366280001,-105.590678098,136,"514 E GRAND AVE SUITE 216, LARAMIE, WY, 82070","Match","Non_Exact","514 E GRAND AVE, LARAMIE, WY, 82070",168740217,"L"
234637,"514 E MCARTHUR DR","SPRINGFIELD","MO",65810,37.1038941730001,-93.2914041659999,137,"514 E MCARTHUR DR, SPRINGFIELD, MO, 65810","Match","Exact","514 E MCARTHUR DR, SPRINGFIELD, MO, 65810",619816136,"L"
234638,"514 E OAK HAVEN ST","GONZALES","LA",70737,30.218019569,-90.916438955,138,"514 E OAK HAVEN ST, GONZALES, LA, 70737","Match","Exact","514 E OAK HAVEN ST, GONZALES, LA, 70737",648985371,"L"
234639,"514 EAST 5TH STREET","HUXLEY","IA",50124,41.8964573100001,-93.598619019,139,"514 EAST 5TH STREET, HUXLEY, IA, 50124","Match","Exact","514 E 5TH ST, HUXLEY, IA, 50124",65956760,"R"
234640,"514 EAST BRAIDHILL DRIVE","DRAPER","UT",84020,40.4857583620001,-111.876864191,140,"514 EAST BRAIDHILL DRIVE, DRAPER, UT, 84020","Match","Exact","514 E BRAIDHILL DR, DRAPER, UT, 84020",176153442,"R"
234641,"514 EAST HIGH STREET","BOUND BROOK","NJ",8805,40.563289712,-74.528031164,141,"514 EAST HIGH STREET, BOUND BROOK, NJ, 8805","Match","Exact","514 E HIGH ST, BOUND BROOK, NJ, 08805",59979815,"R"
234642,"514 EAST LANE","KERRVILLE","TX",78028,30.0767812980001,-99.163731452,142,"514 EAST LANE, KERRVILLE, TX, 78028","Match","Non_Exact","514 EAST LN, KERRVILLE, TX, 78028",176886921,"L"
234643,"514 ELDER STREET","IRONDALE","AL",35210,33.5179090440001,-86.7155286989999,143,"514 ELDER STREET, IRONDALE, AL, 35210","Match","Exact","514 ELDER ST, IRONDALE, AL, 35210",81587591,"R"
234644,"514 ELMSIDE BLVD","MADISON","WI",53704,43.091332364,-89.342165641,144,"514 ELMSIDE BLVD, MADISON, WI, 53704","Match","Exact","514 ELMSIDE BLVD, MADISON, WI, 53704",49474282,"R"
234645,"514 FOOTHILLS ROAD","KINGSPORT","TN",37663,36.4773706450001,-82.5119310549999,145,"514 FOOTHILLS ROAD, KINGSPORT, TN, 37663","Match","Exact","514 FOOTHILLS RD, KINGSPORT, TN, 37663",127831196,"R"
234646,"514 FORTUNA CT","SUISUN CITY","CA",94585,38.2462859660001,-121.982499158,146,"514 FORTUNA CT, SUISUN CITY, CA, 94585","Match","Exact","514 FORTUNA CT, SUISUN CITY, CA, 94585",192546004,"R"
234647,"514 FOUNTAINBROOK LANE","FOUNTAIN INN","SC",29644,34.695697404,-82.1812963209999,147,"514 FOUNTAINBROOK LANE, FOUNTAIN INN, SC, 29644","Match","Exact","514 FOUNTAINBROOK LN, FOUNTAIN INN, SC, 29644",647298537,"R"
234648,"514 GRACE AVENUE","FAYETTEVILLE","NC",28301,35.037322692,-78.8732876459999,148,"514 GRACE AVENUE, FAYETTEVILLE, NC, 28301","Match","Exact","514 GRACE AVE, FAYETTEVILLE, NC, 28301",64202618,"R"
234649,"514 GREEN STREET","NEW ELLENTON","SC",29809,33.412688245,-81.680726513,149,"514 GREEN STREET, NEW ELLENTON, SC, 29809","Match","Non_Exact","514 GREEN ST S, NEW ELLENTON, SC, 29809",64969137,"L"
234650,"514 GWYNNVALE ROAD","BALTIMORE","MD",21208,39.3711015430001,-76.73719152,150,"514 GWYNNVALE ROAD, BALTIMORE, MD, 21208","Match","Exact","514 GWYNNVALE RD, BALTIMORE, MD, 21208",191468223,"R"
234651,"514 GWYNNVALE ROAD","BATLIMORE","MD",21208,39.3711015430001,-76.73719152,151,"514 GWYNNVALE ROAD, BATLIMORE, MD, 21208","Match","Non_Exact","514 GWYNNVALE RD, BALTIMORE, MD, 21208",191468223,"R"
234652,"514 HILLSBORO DRIVE","SILVER SPRING","MD",20902,39.0422869990001,-77.019475304,152,"514 HILLSBORO DRIVE, SILVER SPRING, MD, 20902","Match","Exact","514 HILLSBORO DR, SILVER SPRING, MD, 20902",630444663,"L"
234653,"514 HOLLINS ROAD","BLYTHEWOOD","SC",29016,NA,NA,153,"514 HOLLINS ROAD, BLYTHEWOOD, SC, 29016","No_Match",NA,NA,NA,NA
234654,"514 HOLLY STREET","BENHAM","KY",40807,36.968471568,-82.963842502,154,"514 HOLLY STREET, BENHAM, KY, 40807","Match","Exact","514 HOLLY ST, BENHAM, KY, 40807",87894793,"L"
234655,"514 HUBER DRIVE","MENDOTA HEIGHTS","MN",55120,44.876381108,-93.106786979,155,"514 HUBER DRIVE, MENDOTA HEIGHTS, MN, 55120","Match","Exact","514 HUBER DR, MENDOTA HEIGHTS, MN, 55120",37939505,"L"
234656,"514 HUDSON ST APT 2","HOBOKEN","NJ",7030,40.7422403370001,-74.0282880789999,156,"514 HUDSON ST APT 2, HOBOKEN, NJ, 7030","Match","Exact","514 HUDSON ST, HOBOKEN, NJ, 07030",59606946,"L"
234657,"514 HUSET PKWY NE","COLUMBIA HEIGHTS","MN",55421,45.0377569010001,-93.259238039,157,"514 HUSET PKWY NE, COLUMBIA HEIGHTS, MN, 55421","Match","Exact","514 HUSET PKWY NE, COLUMBIA HEIGHTS, MN, 55421",617527094,"R"
234658,"514 HYDE STREET","KANNAPOLIS","NC",28083,35.477713355,-80.6039983319999,158,"514 HYDE STREET, KANNAPOLIS, NC, 28083","Match","Exact","514 HYDE ST, KANNAPOLIS, NC, 28083",24917707,"R"
234659,"514 JULIAN PIKE","JULIAN","PA",16844,40.847367326,-77.948240481,159,"514 JULIAN PIKE, JULIAN, PA, 16844","Match","Exact","514 JULIAN PIKE, JULIAN, PA, 16844",635654480,"R"
234660,"514 KANE DRIVE","AMBLER","PA",19002,40.170312842,-75.1937656059999,160,"514 KANE DRIVE, AMBLER, PA, 19002","Match","Exact","514 KANE DR, AMBLER, PA, 19002",135078177,"L"
234661,"514 KING STREET","SOMERVILLE","TX",77879,30.390071295,-96.3414822509999,161,"514 KING STREET, SOMERVILLE, TX, 77879","Match","Exact","514 KING ST, SOMERVILLE, TX, 77879",627638806,"L"
234662,"514 LAUINUS STREET","MONROE","GA",30656,NA,NA,162,"514 LAUINUS STREET, MONROE, GA, 30656","No_Match",NA,NA,NA,NA
234663,"514 LINDEN AVE","NICEVILLE","FL",32578,30.506607708,-86.466126796,163,"514 LINDEN AVE, NICEVILLE, FL, 32578","Match","Exact","514 LINDEN AVE, NICEVILLE, FL, 32578",74431064,"L"
234664,"514 LINDSAY TAYLOR WAY","LAGRANGE","GA",30241,33.018163653,-84.930646904,164,"514 LINDSAY TAYLOR WAY, LAGRANGE, GA, 30241","Match","Exact","514 LINDSAY TAYLOR WAY, LAGRANGE, GA, 30241",624220495,"L"
234665,"514 LOBO TRAIL","HARKER HEIGHTS","TX",76548,31.0707559730001,-97.6586642189999,165,"514 LOBO TRAIL, HARKER HEIGHTS, TX, 76548","Match","Exact","514 LOBO TRL, HARKER HEIGHTS, TX, 76548",146180591,"R"
234666,"514 LOFTY LN","NORTH SALT LAKE","UT",84054,40.832740271,-111.900387176,166,"514 LOFTY LN, NORTH SALT LAKE, UT, 84054","Match","Exact","514 LOFTY LN, N SALT LAKE, UT, 84054",653257608,"R"
234667,"514 MICHIGAN AVENUE","ATLANTIC CITY","NJ",8401,39.365407243,-74.4398732449999,167,"514 MICHIGAN AVENUE, ATLANTIC CITY, NJ, 8401","Match","Non_Exact","514 N MICHIGAN AVE, ATLANTIC CITY, NJ, 08401",202490393,"L"
234668,"514 MIDLAND AVE","NEW CASTLE","CO",81647,39.5782206690001,-107.54172957,168,"514 MIDLAND AVE, NEW CASTLE, CO, 81647","Match","Exact","514 MIDLAND AVE, NEW CASTLE, CO, 81647",105812044,"R"
234669,"514 MONROE AVENUE","RONCEVERTE","WV",24970,37.7442044800001,-80.471740916,169,"514 MONROE AVENUE, RONCEVERTE, WV, 24970","Match","Exact","514 MONROE AVE, RONCEVERTE, WV, 24970",74753218,"L"
234670,"514 MONTEREY ST","HOLLISTER","CA",95023,36.8512891940001,-121.403924497,170,"514 MONTEREY ST, HOLLISTER, CA, 95023","Match","Exact","514 MONTEREY ST, HOLLISTER, CA, 95023",125436905,"L"
234671,"514 MORGAN STREET","ST CHARLES","MO",63301,38.789960609,-90.482902333,171,"514 MORGAN STREET, ST CHARLES, MO, 63301","Match","Exact","514 MORGAN ST, SAINT CHARLES, MO, 63301",633266154,"R"
234672,"514 N 1ST STREET","MEDFORD","OK",73759,NA,NA,172,"514 N 1ST STREET, MEDFORD, OK, 73759","No_Match",NA,NA,NA,NA
234673,"514 N 48 E","WINAMAC","IN",46996,41.0635651860001,-86.593930542,173,"514 N 48 E, WINAMAC, IN, 46996","Match","Exact","514 48 E, WINAMAC, IN, 46996",15486439,"R"
234674,"514 N ARMOUR ST UNIT 1R","CHICAGO","IL",60642,41.8917406800001,-87.665540429,174,"514 N ARMOUR ST UNIT 1R, CHICAGO, IL, 60642","Match","Non_Exact","514 N ARMOUR ST, CHICAGO, IL, 60642",605041353,"L"
234675,"514 N ELM ST","STANBERRY","MO",64489,40.2177852950001,-94.537205741,175,"514 N ELM ST, STANBERRY, MO, 64489","Match","Exact","514 N ELM ST, STANBERRY, MO, 64489",17827905,"R"
234676,"514 N ELM STREET","STANBERRY","MO",64489,40.2177852950001,-94.537205741,176,"514 N ELM STREET, STANBERRY, MO, 64489","Match","Exact","514 N ELM ST, STANBERRY, MO, 64489",17827905,"R"
234677,"514 N JEFFERSON","WELLINGTON","KS",67152,NA,NA,177,"514 N JEFFERSON, WELLINGTON, KS, 67152","No_Match",NA,NA,NA,NA
234678,"514 N MADISON ST","TROY","OH",45373,40.047773127,-84.215280558,178,"514 N MADISON ST, TROY, OH, 45373","Match","Exact","514 N MADISON ST, TROY, OH, 45373",135303413,"R"
234679,"514 N THIRD","MARQUETTE","MI",49855,NA,NA,179,"514 N THIRD, MARQUETTE, MI, 49855","No_Match",NA,NA,NA,NA
234680,"514 N WILLIAMS ST","SOUTH BEND","IN",46616,NA,NA,180,"514 N WILLIAMS ST, SOUTH BEND, IN, 46616","No_Match",NA,NA,NA,NA
234681,"514 NE GEORGETOWN BLVD","ANKENY","IA",50021,41.7497652800001,-93.5921664159999,181,"514 NE GEORGETOWN BLVD, ANKENY, IA, 50021","Match","Exact","514 NE GEORGETOWN BLVD, ANKENY, IA, 50021",65863992,"R"
234682,"514 NESSMITH ROAD","GLENMORA","LA",71433,31.1034770520001,-92.69333581,182,"514 NESSMITH ROAD, GLENMORA, LA, 71433","Match","Non_Exact","514 NESMITH RD, GLENMORA, LA, 71433",11787838,"L"
234683,"514 NOPAL ST","ALICE","TX",78332,27.745968787,-98.062330136,183,"514 NOPAL ST, ALICE, TX, 78332","Match","Exact","514 NOPAL ST, ALICE, TX, 78332",21515306,"R"
234684,"514 NORMANDY DRIVE","FOLSOM","LA",70437,30.605837928,-90.130817775,184,"514 NORMANDY DRIVE, FOLSOM, LA, 70437","Match","Exact","514 NORMANDY DR, FOLSOM, LA, 70437",111320898,"R"
234685,"514 NORTH 3RD STREET","MARQUETTE","MI",49855,46.547355721,-87.394719757,185,"514 NORTH 3RD STREET, MARQUETTE, MI, 49855","Match","Exact","514 N 3RD ST, MARQUETTE, MI, 49855",182034788,"R"
234686,"514 NORTH CHESTNUT AVENUE","NEW HAMPTON","IA",50659,43.063999493,-92.3153355109999,186,"514 NORTH CHESTNUT AVENUE, NEW HAMPTON, IA, 50659","Match","Exact","514 N CHESTNUT AVE, NEW HAMPTON, IA, 50659",9737780,"L"
234687,"514 NORTH HOLCOMBE AVE","LITCHFIELD","MN",55355,45.1313214940001,-94.525258849,187,"514 NORTH HOLCOMBE AVE, LITCHFIELD, MN, 55355","Match","Exact","514 N HOLCOMBE AVE, LITCHFIELD, MN, 55355",36966413,"R"
234688,"514 NORTH KING CHARLES RD","RALEIGH","NC",27610,35.7870213,-78.610193951,188,"514 NORTH KING CHARLES RD, RALEIGH, NC, 27610","Match","Exact","514 N KING CHARLES RD, RALEIGH, NC, 27610",72509584,"R"
234689,"514 NORTH MAIN STREET","CHASE CITY","VA",23924,36.8017915390001,-78.4597214089999,189,"514 NORTH MAIN STREET, CHASE CITY, VA, 23924","Match","Exact","514 N MAIN ST, CHASE CITY, VA, 23924",54296464,"L"
234690,"514 NORTH TROY","CHICAGO","IL",60612,41.890781094,-87.705185189,190,"514 NORTH TROY, CHICAGO, IL, 60612","Match","Non_Exact","514 N TROY ST, CHICAGO, IL, 60612",605051654,"R"
234691,"514 NW 14TH STREET","OKLAHOMA CITY","OK",73102,35.483572624,-97.5214285919999,191,"514 NW 14TH STREET, OKLAHOMA CITY, OK, 73102","Match","Non_Exact","514 NW 14TH ST, OKLAHOMA CITY, OK, 73103",100400783,"L"
234692,"514 OLD BEAVER DAM ROAD","NEWPORT","NJ",8345,NA,NA,192,"514 OLD BEAVER DAM ROAD, NEWPORT, NJ, 8345","Tie",NA,NA,NA,NA
234693,"514 PERRY STREET STE C101","CASTLE ROCK","CO",80104,39.374550653,-104.858640677,193,"514 PERRY STREET STE C101, CASTLE ROCK, CO, 80104","Match","Exact","514 PERRY ST, CASTLE ROCK, CO, 80104",130796513,"R"
234694,"514 PUGSLEY AVENUE","BRONX","NY",10473,40.816506991,-73.8537050049999,194,"514 PUGSLEY AVENUE, BRONX, NY, 10473","Match","Exact","514 PUGSLEY AVE, BRONX, NY, 10473",80311246,"R"
234695,"514 REMINGTON POINT COURT","HOUSTON","TX",77073,29.976373032,-95.413435135,195,"514 REMINGTON POINT COURT, HOUSTON, TX, 77073","Match","Exact","514 REMINGTON POINT CT, HOUSTON, TX, 77073",624515915,"L"
234696,"514 RIDGEMONT DRIVE","ELLIJAY","GA",30536,34.6561027060001,-84.417013271,196,"514 RIDGEMONT DRIVE, ELLIJAY, GA, 30536","Match","Exact","514 RIDGEMONT DR, ELLIJAY, GA, 30536",633165698,"R"
234697,"514 RIDGEWOOD STREET","ENID","OK",73701,36.4387439130001,-97.870199004,197,"514 RIDGEWOOD STREET, ENID, OK, 73701","Match","Non_Exact","514 RIDGEWOOD, ENID, OK, 73701",154092242,"L"
234698,"514 ROYAL BIRKDALE DR","RAEFORD","NC",28376,35.007552681,-79.160652173,198,"514 ROYAL BIRKDALE DR, RAEFORD, NC, 28376","Match","Exact","514 ROYAL BIRKDALE DR, RAEFORD, NC, 28376",651394577,"L"
234699,"514 RUSTLING PINES BLVD","MIDWAY","FL",32343,30.5083710800001,-84.468975632,199,"514 RUSTLING PINES BLVD, MIDWAY, FL, 32343","Match","Exact","514 RUSTLING PINES BLVD, MIDWAY, FL, 32343",601468175,"R"
234700,"514 S 52ND STREET","PHILADELPHIA","PA",19143,39.9515132020001,-75.22665267,200,"514 S 52ND STREET, PHILADELPHIA, PA, 19143","Match","Exact","514 S 52ND ST, PHILADELPHIA, PA, 19143",131399294,"R"
234701,"514 S GASKINS ROAD","HENRICO","VA",23238,37.5760768420001,-77.6101808239999,201,"514 S GASKINS ROAD, HENRICO, VA, 23238","Match","Exact","514 S GASKINS RD, HENRICO, VA, 23238",106661578,"R"
234702,"514 S GRANT ST","HINSDALE","IL",60521,41.7969737720001,-87.932099514,202,"514 S GRANT ST, HINSDALE, IL, 60521","Match","Exact","514 S GRANT ST, HINSDALE, IL, 60521",112550231,"R"
234703,"514 S SPOEDE ROAD","SAINT LOUIS","MO",63131,38.647588109,-90.415312332,203,"514 S SPOEDE ROAD, SAINT LOUIS, MO, 63131","Match","Exact","514 S SPOEDE RD, SAINT LOUIS, MO, 63131",100131334,"L"
234704,"514 SE 9TH AVE","CAPE CORAL","FL",33990,26.64304287,-81.9564286039999,204,"514 SE 9TH AVE, CAPE CORAL, FL, 33990","Match","Exact","514 SE 9TH AVE, CAPE CORAL, FL, 33990",118008916,"R"
234705,"514 SHADY LANE","STOCKTON","MO",65785,37.696365051,-93.8045168199999,205,"514 SHADY LANE, STOCKTON, MO, 65785","Match","Exact","514 SHADY LN, STOCKTON, MO, 65785",44903304,"L"
234706,"514 SHADY LN","STOCKTON","MO",65785,37.696365051,-93.8045168199999,206,"514 SHADY LN, STOCKTON, MO, 65785","Match","Exact","514 SHADY LN, STOCKTON, MO, 65785",44903304,"L"
234707,"514 SHORT ST","NEW ORLEANS","LA",70118,29.9417447170001,-90.1339777059999,207,"514 SHORT ST, NEW ORLEANS, LA, 70118","Match","Exact","514 SHORT ST, NEW ORLEANS, LA, 70118",191734640,"L"
234708,"514 SOUTH BRYAN AVE","HALLOCK","MN",56728,NA,NA,208,"514 SOUTH BRYAN AVE, HALLOCK, MN, 56728","No_Match",NA,NA,NA,NA
234709,"514 SOUTH MADISON AVE","GREENWOOD","IN",46143,39.608876341,-86.108058816,209,"514 SOUTH MADISON AVE, GREENWOOD, IN, 46143","Match","Non_Exact","514 S MADISON AVE, GREENWOOD, IN, 46142",606992051,"R"
234710,"514 STAPLES STREET","REIDSVILLE","NC",27320,36.368855931,-79.661925643,210,"514 STAPLES STREET, REIDSVILLE, NC, 27320","Match","Exact","514 STAPLES ST, REIDSVILLE, NC, 27320",640638047,"L"
234711,"514 SUMMER CROSSING","SANDY SPRINGS","GA",30350,34.00004828,-84.334435969,211,"514 SUMMER CROSSING, SANDY SPRINGS, GA, 30350","Match","Exact","514 SUMMER CROSSING, SANDY SPRINGS, GA, 30350",17402887,"L"
234712,"514 SW 132 TER","DAVIE","FL",33325,26.1138276630001,-80.3254503219999,212,"514 SW 132 TER, DAVIE, FL, 33325","Match","Exact","514 SW 132ND TER, DAVIE, FL, 33325",114697764,"L"
234713,"514 TABLEROCK DR","MURPHY","TX",75094,33.026660185,-96.600392696,213,"514 TABLEROCK DR, MURPHY, TX, 75094","Match","Exact","514 TABLEROCK DR, MURPHY, TX, 75094",641661799,"L"
234714,"514 TINTON AVE APT 10S","BRONX","NY",10455,40.8115428,-73.9067232849999,214,"514 TINTON AVE APT 10S, BRONX, NY, 10455","Match","Exact","514 TINTON AVE, BRONX, NY, 10455",80302202,"R"
234715,"514 TRENTON ROAD","FAIRLESS HILLS","PA",19030,40.179414196,-74.850024961,215,"514 TRENTON ROAD, FAIRLESS HILLS, PA, 19030","Match","Exact","514 TRENTON RD, FAIRLESS HILLS, PA, 19030",134721700,"R"
234716,"514 TURTLE LANE","BRANDON","MS",39047,32.3662925940001,-90.03298972,216,"514 TURTLE LANE, BRANDON, MS, 39047","Match","Exact","514 TURTLE LN, BRANDON, MS, 39047",624521290,"R"
234717,"514 VISTA DR","ODEM","TX",78370,27.9455819040001,-97.592723432,217,"514 VISTA DR, ODEM, TX, 78370","Match","Exact","514 VISTA DR, ODEM, TX, 78370",36323410,"R"
234718,"514 W  6TH STREET","WILMINGTON","DE",19801,39.7437971690001,-75.5549352319999,218,"514 W  6TH STREET, WILMINGTON, DE, 19801","Match","Exact","514 W 6TH ST, WILMINGTON, DE, 19801",187257915,"L"
234719,"514 W 12TH STREET","NEWTON","KS",67114,38.05723292,-97.352751498,219,"514 W 12TH STREET, NEWTON, KS, 67114","Match","Exact","514 W 12TH ST, NEWTON, KS, 67114",120641082,"R"
234720,"514 W 1ST AVENUE","HUTCHINSON","KS",67501,38.053421095,-97.9417355689999,220,"514 W 1ST AVENUE, HUTCHINSON, KS, 67501","Match","Exact","514 W 1ST AVE, HUTCHINSON, KS, 67501",142934878,"L"
234721,"514 W 9TH ST","DALLAS","TX",75208,32.746398797,-96.8305938239999,221,"514 W 9TH ST, DALLAS, TX, 75208","Match","Exact","514 W 9TH ST, DALLAS, TX, 75208",102946227,"L"
234722,"514 W ANAHEIM ST","WILLMIINGTON","CA",90744,33.779628383,-118.268752311,222,"514 W ANAHEIM ST, WILLMIINGTON, CA, 90744","Match","Non_Exact","514 W ANAHEIM ST, WILMINGTON, CA, 90744",141691224,"L"
234723,"514 W BUCKINGHAM DR","MARION","IN",46952,40.5719147080001,-85.664044925,223,"514 W BUCKINGHAM DR, MARION, IN, 46952","Match","Exact","514 W BUCKINGHAM DR, MARION, IN, 46952",95007966,"R"
234724,"514 W ELM ST","DENISON","TX",75020,33.763973536,-96.5414474789999,224,"514 W ELM ST, DENISON, TX, 75020","Match","Exact","514 W ELM ST, DENISON, TX, 75020",63357385,"L"
234725,"514 W ELM","DENISON","TX",75020,33.763973536,-96.5414474789999,225,"514 W ELM, DENISON, TX, 75020","Match","Non_Exact","514 W ELM ST, DENISON, TX, 75020",63357385,"L"
234726,"514 W ELMWOOD AVE","MECHANICSBURG","PA",17055,40.2023370310001,-77.0143204299999,226,"514 W ELMWOOD AVE, MECHANICSBURG, PA, 17055","Match","Exact","514 W ELMWOOD AVE, MECHANICSBURG, PA, 17055",60940361,"R"
234727,"514 W LIBERTY STE 240","LOUISVILLE","KY",40202,NA,NA,227,"514 W LIBERTY STE 240, LOUISVILLE, KY, 40202","No_Match",NA,NA,NA,NA
234728,"514 W RICH ST","COLUMBUS","OH",43215,39.9559378210001,-83.013258964,228,"514 W RICH ST, COLUMBUS, OH, 43215","Match","Exact","514 W RICH ST, COLUMBUS, OH, 43215",135776362,"R"
234729,"514 W STREET","BEDFORD","IN",47421,38.8740027420001,-86.500743599,229,"514 W STREET, BEDFORD, IN, 47421","Match","Exact","514 W ST, BEDFORD, IN, 47421",42072332,"R"
234730,"514 WACHTEL AVE","SAINT LOUIS","MO",63125,38.5401743570001,-90.2768307709999,230,"514 WACHTEL AVE, SAINT LOUIS, MO, 63125","Match","Exact","514 WACHTEL AVE, SAINT LOUIS, MO, 63125",100155425,"L"
234731,"514 WALNUT STREET","DAVIDSON","NC",28036,35.493373037,-80.85053858,231,"514 WALNUT STREET, DAVIDSON, NC, 28036","Match","Exact","514 WALNUT ST, DAVIDSON, NC, 28036",70468440,"L"
234732,"514 WASHINGTON STREET","CHILLICOTHE","MO",64601,NA,NA,232,"514 WASHINGTON STREET, CHILLICOTHE, MO, 64601","Tie",NA,NA,NA,NA
234733,"514 WAVERLY PARK DRIVE","MACON","GA",31210,32.9265933070001,-83.742900332,233,"514 WAVERLY PARK DRIVE, MACON, GA, 31210","Match","Exact","514 WAVERLY PARK DR, MACON, GA, 31210",81086644,"R"
234734,"514 WEATHERBY TRL","PRATTVILLE","AL",36067,32.448422576,-86.472436611,234,"514 WEATHERBY TRL, PRATTVILLE, AL, 36067","Match","Exact","514 WEATHERBY TRL, PRATTVILLE, AL, 36067",617581430,"R"
234735,"514 WEST 110TH STREET APARTMENT 3C","NEW YORK","NY",10025,40.803371461,-73.9648173419999,235,"514 WEST 110TH STREET APARTMENT 3C, NEW YORK, NY, 10025","Match","Exact","514 W 110TH ST, NEW YORK, NY, 10025",611176170,"L"
234736,"514 WEST MONROE","PETERSBURG","IL",62675,40.009226121,-89.8560318139999,236,"514 WEST MONROE, PETERSBURG, IL, 62675","Match","Non_Exact","514 W MONROE ST, PETERSBURG, IL, 62675",53276752,"L"
234737,"514 WEST PARK STREET","WAUSEON","OH",43567,41.5425964620001,-84.140485095,237,"514 WEST PARK STREET, WAUSEON, OH, 43567","Match","Exact","514 W PARK ST, WAUSEON, OH, 43567",32869436,"L"
234738,"514 WEXFORD ROAD","VALPARAISO","IN",46385,41.4674596040001,-87.162869813,238,"514 WEXFORD ROAD, VALPARAISO, IN, 46385","Match","Exact","514 WEXFORD RD, VALPARAISO, IN, 46385",119919733,"L"
234739,"514 WINTER TERRACE","WINTER HAVEN","FL",33881,28.05888443,-81.7181038849999,239,"514 WINTER TERRACE, WINTER HAVEN, FL, 33881","Match","Exact","514 WINTER TER, WINTER HAVEN, FL, 33881",104866156,"L"
234740,"514 WYATT STREET","WAXAHACHIE","TX",75165,32.38545192,-96.8364566129999,240,"514 WYATT STREET, WAXAHACHIE, TX, 75165","Match","Exact","514 WYATT ST, WAXAHACHIE, TX, 75165",103465866,"R"
234741,"514","HENDERSON","NV",89052,NA,NA,241,"514, HENDERSON, NV, 89052","No_Match",NA,NA,NA,NA
234742,"5140 BOX CANYON COURT 18G","YORBA LINDA","CA",92887,NA,NA,242,"5140 BOX CANYON COURT 18G, YORBA LINDA, CA, 92887","No_Match",NA,NA,NA,NA
234743,"5140 CANADA HILLS DR","ANTIOCH","CA",94531,37.9723304460001,-121.756791848,243,"5140 CANADA HILLS DR, ANTIOCH, CA, 94531","Match","Exact","5140 CANADA HILLS DR, ANTIOCH, CA, 94531",192085361,"R"
234744,"5140 GALAXIE DRIVE STE 204","JACKSON","MS",39206,32.3676416750001,-90.1516994529999,244,"5140 GALAXIE DRIVE STE 204, JACKSON, MS, 39206","Match","Exact","5140 GALAXIE DR, JACKSON, MS, 39206",65360793,"R"
234745,"5140 KIRKWOOD DR","LAS VEGAS","NV",89108,36.1941744810001,-115.211330837,245,"5140 KIRKWOOD DR, LAS VEGAS, NV, 89108","Match","Exact","5140 KIRKWOOD DR, LAS VEGAS, NV, 89108",201974215,"R"
234746,"5140 MADISON AVE STE 6","INDIANAPOLIS","IN",46227,39.69123627,-86.136183043,246,"5140 MADISON AVE STE 6, INDIANAPOLIS, IN, 46227","Match","Exact","5140 MADISON AVE, INDIANAPOLIS, IN, 46227",108065416,"R"
234747,"5140 PARK RIM DR","SAN DIEGO","CA",92117,32.838624071,-117.213604048,247,"5140 PARK RIM DR, SAN DIEGO, CA, 92117","Match","Exact","5140 PARK RIM DR, SAN DIEGO, CA, 92117",195302375,"L"
234748,"5140 POETS WAY","HAMILTON","OH",45011,39.4171138520001,-84.445285488,248,"5140 POETS WAY, HAMILTON, OH, 45011","Match","Non_Exact","5140 POET'S WAY, HAMILTON, OH, 45011",604778085,"L"
234749,"5140 S HYDE PARK BLVD -7C","CHICAGO","IL",60615,41.801540217,-87.5847866239999,249,"5140 S HYDE PARK BLVD -7C, CHICAGO, IL, 60615","Match","Non_Exact","5140 S HYDE PARK BLVD, CHICAGO, IL, 60615",647602069,"R"
234750,"5140 TOPEKA AVENUE","SAINT CLOUD","FL",34773,28.133446436,-81.060904041,250,"5140 TOPEKA AVENUE, SAINT CLOUD, FL, 34773","Match","Exact","5140 TOPEKA AVE, SAINT CLOUD, FL, 34773",176662197,"R"
234751,"5140 WHITE HILLS DR","FORT WORTH","TX",76137,32.8716474300001,-97.273185085,251,"5140 WHITE HILLS DR, FORT WORTH, TX, 76137","Match","Exact","5140 WHITE HILLS DR, FORT WORTH, TX, 76137",102086889,"R"
234752,"51405 AVENIDA MENDOZA","LA QUINTA","CA",92253,33.6749378910001,-116.306259907,252,"51405 AVENIDA MENDOZA, LA QUINTA, CA, 92253","Match","Exact","51405 AVE MENDOZA, LA QUINTA, CA, 92253",195086520,"R"
234753,"5141 BURNABY COURT","CHARLOTTE","NC",28269,35.324598344,-80.810683834,253,"5141 BURNABY COURT, CHARLOTTE, NC, 28269","Match","Exact","5141 BURNABY CT, CHARLOTTE, NC, 28269",70560512,"R"
234754,"5141 CO RD 9380","WEST PLAINS","MO",65775,36.5854826090001,-91.882183104,254,"5141 CO RD 9380, WEST PLAINS, MO, 65775","Match","Exact","5141 CO RD 9380, WEST PLAINS, MO, 65775",33332225,"L"
234755,"5141 E PEACH ST","TUCSON","AZ",85712,32.246609499,-110.883193942,255,"5141 E PEACH ST, TUCSON, AZ, 85712","Match","Exact","5141 E PEACH ST, TUCSON, AZ, 85712",121179715,"L"
234756,"5141 FENWOOD LANE","ORLANDO","FL",32814,28.565921115,-81.32299296,256,"5141 FENWOOD LANE, ORLANDO, FL, 32814","Match","Exact","5141 FENWOOD LN, ORLANDO, FL, 32814",606146402,"R"
234757,"5141 GATEWAY CTR STE 400","FLINT","MI",48507,42.947889724,-83.721006124,257,"5141 GATEWAY CTR STE 400, FLINT, MI, 48507","Match","Non_Exact","5141 GATEWAY CENTRE BLVD, FLINT, MI, 48507",648186984,"L"
234758,"5141 GLENCARRON DR","NASHVILLE","TN",37220,36.0545451940001,-86.751630211,258,"5141 GLENCARRON DR, NASHVILLE, TN, 37220","Match","Exact","5141 GLENCARRON DR, NASHVILLE, TN, 37220",97227205,"R"
234759,"5141 HUMMINGBIRD PLACE","FAYETTEVILLE","NC",28312,35.0420497160001,-78.7536871469999,259,"5141 HUMMINGBIRD PLACE, FAYETTEVILLE, NC, 28312","Match","Exact","5141 HUMMINGBIRD PL, FAYETTEVILLE, NC, 28312",64271816,"L"
234760,"5141 KENNEDY AVENUE","CINCINNATI","OH",45213,NA,NA,260,"5141 KENNEDY AVENUE, CINCINNATI, OH, 45213","No_Match",NA,NA,NA,NA
234761,"5141 LAKEHURST CT","PALMETTO","FL",34221,27.5847733750001,-82.511730733,261,"5141 LAKEHURST CT, PALMETTO, FL, 34221","Match","Exact","5141 LAKEHURST CT, PALMETTO, FL, 34221",647449592,"R"
234762,"5141 MENDIP ST","OCEANSIDE","CA",92057,33.2734829130001,-117.298792626,262,"5141 MENDIP ST, OCEANSIDE, CA, 92057","Match","Exact","5141 MENDIP ST, OCEANSIDE, CA, 92057",612888570,"L"
234763,"5141 MOORPARK AVE STE 201","SAN JOSE","CA",95129,37.309518666,-121.99308419,263,"5141 MOORPARK AVE STE 201, SAN JOSE, CA, 95129","Match","Exact","5141 MOORPARK AVE, SAN JOSE, CA, 95129",122900015,"R"
234764,"5141 NORTH 40TH STREET STE 500","PHOENIX","AZ",85018,33.512790748,-111.995270221,264,"5141 NORTH 40TH STREET STE 500, PHOENIX, AZ, 85018","Match","Exact","5141 N 40TH ST, PHOENIX, AZ, 85018",612962469,"R"
234765,"5141 NW 101 PL","DORAL","FL",33178,25.819968542,-80.358950104,265,"5141 NW 101 PL, DORAL, FL, 33178","Match","Exact","5141 NW 101ST PL, DORAL, FL, 33178",116075163,"R"
234766,"5141 PORTSMOUTH RD","FAIRFAX","VA",22032,38.8191859570001,-77.314452331,266,"5141 PORTSMOUTH RD, FAIRFAX, VA, 22032","Match","Exact","5141 PORTSMOUTH RD, FAIRFAX, VA, 22032",75966848,"L"
234767,"5141 PRAY COURT","ANTIOCH","CA",94531,37.9592707640001,-121.810684038,267,"5141 PRAY COURT, ANTIOCH, CA, 94531","Match","Exact","5141 PRAY CT, ANTIOCH, CA, 94531",627610469,"L"
234768,"5141 S STATE STREET","CHICAGO","IL",60609,41.8009664240001,-87.625857723,268,"5141 S STATE STREET, CHICAGO, IL, 60609","Match","Exact","5141 S STATE ST, CHICAGO, IL, 60609",639824502,"R"
234769,"5141 SHADY OAKS LN","FRIENDSWOOD","TX",77546,29.5366427490001,-95.186633652,269,"5141 SHADY OAKS LN, FRIENDSWOOD, TX, 77546","Match","Exact","5141 SHADY OAKS LN, FRIENDSWOOD, TX, 77546",96589055,"L"
234770,"5141 SPIRE OAKS DR","MASON","OH",45040,39.3802217510001,-84.3100759869999,270,"5141 SPIRE OAKS DR, MASON, OH, 45040","Match","Exact","5141 SPIRE OAKS DR, MASON, OH, 45040",159044723,"R"
234771,"5141","STOCKTON","CA",95204,NA,NA,271,"5141, STOCKTON, CA, 95204","No_Match",NA,NA,NA,NA
234772,"5142 CEDAR VILLAGE DRIVE","MASON","OH",45040,39.328766634,-84.32423421,272,"5142 CEDAR VILLAGE DRIVE, MASON, OH, 45040","Match","Exact","5142 CEDAR VILLAGE DR, MASON, OH, 45040",647931458,"R"
234773,"5142 GLENN DALE WOODS CT","GLENN DALE","MD",20769,38.9601988750001,-76.801505607,273,"5142 GLENN DALE WOODS CT, GLENN DALE, MD, 20769","Match","Exact","5142 GLENN DALE WOODS CT, GLENN DALE, MD, 20769",76398652,"L"
234774,"5142 N ACADEMY BLVD SUITE 4","COLORADO SPRINGS","CO",80918,38.9052777480001,-104.777752603,274,"5142 N ACADEMY BLVD SUITE 4, COLORADO SPRINGS, CO, 80918","Match","Non_Exact","5142 N ACADEMY BLVD, COLORADO SPRINGS, CO, 80918",637234240,"L"
234775,"5142 PLEASANT PLAIN RD","KERSHAW","SC",29067,NA,NA,275,"5142 PLEASANT PLAIN RD, KERSHAW, SC, 29067","No_Match",NA,NA,NA,NA
234776,"5143 BLACKSNAKE HILL ROAD NE","DOVER","OH",44622,40.5588756170001,-81.4536223819999,276,"5143 BLACKSNAKE HILL ROAD NE, DOVER, OH, 44622","Match","Exact","5143 BLACKSNAKE HILL RD NE, DOVER, OH, 44622",612294998,"R"
234777,"5143 CAUSEYVILLE RD","MERIDIAN","MS",39301,32.2934854050001,-88.601294663,277,"5143 CAUSEYVILLE RD, MERIDIAN, MS, 39301","Match","Exact","5143 CAUSEYVILLE RD, MERIDIAN, MS, 39301",607967476,"R"
234778,"5143 GROOM RD","BAKER","LA",70714,30.586776023,-91.144665613,278,"5143 GROOM RD, BAKER, LA, 70714","Match","Exact","5143 GROOM RD, BAKER, LA, 70714",92178328,"L"
234779,"5143 HANNA RD","WILLIAMSBURG","MI",49690,44.7592076620001,-85.356667847,279,"5143 HANNA RD, WILLIAMSBURG, MI, 49690","Match","Exact","5143 HANNA RD, WILLIAMSBURG, MI, 49690",145533701,"L"
234780,"5143 LASLEY POINT ROAD","WINNECONNE","WI",54986,44.126605323,-88.6573964899999,280,"5143 LASLEY POINT ROAD, WINNECONNE, WI, 54986","Match","Exact","5143 LASLEY POINT RD, WINNECONNE, WI, 54986",74510453,"L"
234781,"5143 OAK LEAF TERRACE","STONE MOUNTAIN","GA",30087,33.8318472380001,-84.111955312,281,"5143 OAK LEAF TERRACE, STONE MOUNTAIN, GA, 30087","Match","Exact","5143 OAK LEAF TER, STONE MOUNTAIN, GA, 30087",88887868,"R"
234782,"5143 S JOHN YOUNG PKWY SUITE 168","ORLANDO","FL",32839,28.4883431740001,-81.417389331,282,"5143 S JOHN YOUNG PKWY SUITE 168, ORLANDO, FL, 32839","Match","Non_Exact","5143 S JOHN YOUNG PKWY, ORLANDO, FL, 32839",611841134,"L"
234783,"5143 W MENLO AVE","FRESNO","CA",93722,36.8306127560001,-119.882911846,283,"5143 W MENLO AVE, FRESNO, CA, 93722","Match","Exact","5143 W MENLO AVE, FRESNO, CA, 93722",197616048,"L"
234784,"51433 COVESIDE DRIVE","GRANGER","IN",46530,41.7467714650001,-86.157233544,284,"51433 COVESIDE DRIVE, GRANGER, IN, 46530","Match","Exact","51433 COVESIDE DR, GRANGER, IN, 46530",8098621,"R"
234785,"5144 128TH AVENUE SOUTHEAST","BELLEVUE","WA",98006,47.555472809,-122.170303776,285,"5144 128TH AVENUE SOUTHEAST, BELLEVUE, WA, 98006","Match","Exact","5144 128TH AVE SE, BELLEVUE, WA, 98006",186609271,"L"
234786,"5144 BRITTANY DRIVE","OLD HICKORY","TN",37138,36.2380198180001,-86.5794534469999,286,"5144 BRITTANY DRIVE, OLD HICKORY, TN, 37138","Match","Exact","5144 BRITTANY DR, OLD HICKORY, TN, 37138",89697746,"R"
234787,"5144 CARTERS POND CT","HENRICO","VA",23231,37.5172131910001,-77.381701028,287,"5144 CARTERS POND CT, HENRICO, VA, 23231","Match","Exact","5144 CARTERS POND CT, HENRICO, VA, 23231",106670768,"R"
234788,"5144 CHARDONNAY DRIVE","CORAL SPRINGS","FL",33067,26.293268891,-80.2212210659999,288,"5144 CHARDONNAY DRIVE, CORAL SPRINGS, FL, 33067","Match","Exact","5144 CHARDONNAY DR, CORAL SPRINGS, FL, 33067",114773226,"L"
234789,"5144 E SAM HOUSTON PKWY N","HOUSTON","TX",77015,29.8024984240001,-95.1629744269999,289,"5144 E SAM HOUSTON PKWY N, HOUSTON, TX, 77015","Match","Non_Exact","5144 SAM HOUSTON PKWY, HOUSTON, TX, 77015",233408077,"R"
234790,"5144 EARLSTON LANE","VIRGINIA BEACH","VA",23464,36.7982212920001,-76.159192488,290,"5144 EARLSTON LANE, VIRGINIA BEACH, VA, 23464","Match","Exact","5144 EARLSTON LN, VA BCH, VA, 23464",122265066,"R"
234791,"5144 MABE DRIVE","HOLLY SPRINGS","NC",27540,35.633010848,-78.8468396439999,291,"5144 MABE DRIVE, HOLLY SPRINGS, NC, 27540","Match","Exact","5144 MABE DR, HOLLY SPRINGS, NC, 27540",639843938,"L"
234792,"5144 N MONTICELLO","CHICAGO","IL",60625,NA,NA,292,"5144 N MONTICELLO, CHICAGO, IL, 60625","No_Match",NA,NA,NA,NA
234793,"5144 POEM CT","NORTH LAS VEGAS","NV",89081,36.253771575,-115.124220867,293,"5144 POEM CT, NORTH LAS VEGAS, NV, 89081","Match","Exact","5144 POEM CT, N LAS VEGAS, NV, 89081",641479209,"R"
234794,"5144 ROUTE 9W","NEWBURGH","NY",12550,41.5345611590001,-74.014864857,294,"5144 ROUTE 9W, NEWBURGH, NY, 12550","Match","Non_Exact","5144 US HWY 9W, NEWBURGH, NY, 12550",124466431,"R"
234795,"5144 W ROSS DRIVE","CHANDLER","AZ",85226,33.318889605,-111.931187418,295,"5144 W ROSS DRIVE, CHANDLER, AZ, 85226","Match","Exact","5144 W ROSS DR, CHANDLER, AZ, 85226",128777550,"L"
234796,"5144 WHITAKER DRIVE","NASHVILLE","TN",37211,36.051378653,-86.739006429,296,"5144 WHITAKER DRIVE, NASHVILLE, TN, 37211","Match","Exact","5144 WHITAKER DR, NASHVILLE, TN, 37211",97193812,"L"
234797,"5144 WILLIAMS RD","HARTFORD","WI",53027,43.378337829,-88.330821951,297,"5144 WILLIAMS RD, HARTFORD, WI, 53027","Match","Exact","5144 WILLIAMS RD, HARTFORD, WI, 53027",79556583,"R"
234798,"5144","TACOMA","WA",98430,NA,NA,298,"5144, TACOMA, WA, 98430","No_Match",NA,NA,NA,NA
234799,"5145 BLOOMFIELD ROAD","MACON","GA",31206,32.799589328,-83.707448775,299,"5145 BLOOMFIELD ROAD, MACON, GA, 31206","Match","Exact","5145 BLOOMFIELD RD, MACON, GA, 31206",81059937,"R"
234800,"5145 COBBLE CREEK COURT UNIT 103","NAPLES","FL",34110,26.276131617,-81.751837724,300,"5145 COBBLE CREEK COURT UNIT 103, NAPLES, FL, 34110","Match","Exact","5145 COBBLE CREEK CT, NAPLES, FL, 34110",115159716,"R"
234801,"5145 CONGEMI CT","RANCHO CUCAMONGA","CA",91739,34.1607807400001,-117.498353569,301,"5145 CONGEMI CT, RANCHO CUCAMONGA, CA, 91739","Match","Exact","5145 CONGEMI CT, ETIWANDA, CA, 91739",144987860,"L"
234802,"5145 HATCHERY RD","WATERFORD","MI",48327,42.6748928280001,-83.38993749,302,"5145 HATCHERY RD, WATERFORD, MI, 48327","Match","Non_Exact","5145 HATCHERY RD, WATERFORD, MI, 48329",627804519,"L"
234803,"5145 HICKORY HOLLOW","OWOSSO","MI",48867,42.919740237,-84.208593642,303,"5145 HICKORY HOLLOW, OWOSSO, MI, 48867","Match","Non_Exact","5145 HICKORY HOLLOW LN, OWOSSO, MI, 48867",23658363,"R"
234804,"5145 HONEYNUT LN","WINDERMERE","FL",34786,28.48489863,-81.509516922,304,"5145 HONEYNUT LN, WINDERMERE, FL, 34786","Match","Exact","5145 HONEYNUT LN, WINDERMERE, FL, 34786",94330911,"L"
234805,"5145 MICHIGAN ROAD","INDIANAPOLIS","IN",46228,39.84517585,-86.190623171,305,"5145 MICHIGAN ROAD, INDIANAPOLIS, IN, 46228","Match","Exact","5145 MICHIGAN RD, INDIANAPOLIS, IN, 46228",107982570,"R"
234806,"5145 PINE AVE","FLEMING ISLAND","FL",32003,30.104781572,-81.69890773,306,"5145 PINE AVE, FLEMING ISLAND, FL, 32003","Match","Exact","5145 PINE AVE, FLEMING ISLAND, FL, 32003",83834358,"R"
234807,"5145 RIDGEVIEW DR","HUDSONVILLE","MI",49426,42.862342056,-85.860439779,307,"5145 RIDGEVIEW DR, HUDSONVILLE, MI, 49426","Match","Exact","5145 RIDGEVIEW DR, HUDSONVILLE, MI, 49426",71100612,"L"
234808,"5145 SAN RAFAEL AVE","LOS ANGELES","CA",90042,34.1132922910001,-118.20520365,308,"5145 SAN RAFAEL AVE, LOS ANGELES, CA, 90042","Match","Exact","5145 SAN RAFAEL AVE, LOS ANGELES, CA, 90042",141613988,"L"
234809,"51454 BONNIE WAY","LA PINE","OR",97739,43.6694035950001,-121.501853526,309,"51454 BONNIE WAY, LA PINE, OR, 97739","Match","Exact","51454 BONNIE WAY, LA PINE, OR, 97739",647582867,"R"
234810,"5146 ARIANA COURT","INDIANAPOLIS","IN",46227,39.6915096120001,-86.154287127,310,"5146 ARIANA COURT, INDIANAPOLIS, IN, 46227","Match","Exact","5146 ARIANA CT, INDIANAPOLIS, IN, 46227",108049433,"R"
234811,"5146 BERRYESSA STREET","OCEANSIDE","CA",92056,33.1666249960001,-117.258961518,311,"5146 BERRYESSA STREET, OCEANSIDE, CA, 92056","Match","Exact","5146 BERRYESSA ST, OCEANSIDE, CA, 92056",195419620,"L"
234812,"5146 FM 2088","GILMER","TX",75644,32.8315773590001,-95.023839698,312,"5146 FM 2088, GILMER, TX, 75644","Match","Exact","5146 FM 2088, GILMER, TX, 75644",147601877,"R"
234813,"5146 GLENDORA DR","POWDER SPRINGS","GA",30127,33.882596962,-84.7012266629999,313,"5146 GLENDORA DR, POWDER SPRINGS, GA, 30127","Match","Exact","5146 GLENDORA DR, POWDER SPGS, GA, 30127",17216976,"R"
234814,"5146 GOODLAND AVE","VALLEY VILLAGE","CA",91607,34.16393184,-118.411588401,314,"5146 GOODLAND AVE, VALLEY VILLAGE, CA, 91607","Match","Exact","5146 GOODLAND AVE, VALLEY VLG, CA, 91607",141563738,"R"
234815,"5146 JOHNSON RD","BOZEMAN","MT",59719,45.6129991060001,-111.090398877,315,"5146 JOHNSON RD, BOZEMAN, MT, 59719","Match","Non_Exact","5146 JOHNSON RD, BOZEMAN, MT, 59718",646456737,"R"
234816,"5146 KANAN RD SUITE 5154","AGOURA HILLS","CA",91301,34.1490439940001,-118.760160611,316,"5146 KANAN RD SUITE 5154, AGOURA HILLS, CA, 91301","Match","Exact","5146 KANAN RD, AGOURA HILLS, CA, 91301",638400721,"R"
234817,"5146 KINGS CIRCLE","RACINE","WI",53406,42.6916614680001,-87.840716689,317,"5146 KINGS CIRCLE, RACINE, WI, 53406","Match","Exact","5146 KINGS CIR, RACINE, WI, 53406",77911367,"R"
234818,"5146 LONGBRANCH LANE APTE","WHITEHALL","OH",43213,39.9609460070001,-82.8597968449999,318,"5146 LONGBRANCH LANE APTE, WHITEHALL, OH, 43213","Match","Exact","5146 LONGBRANCH LN, WHITEHALL, OH, 43213",135593684,"L"
234819,"5146 STAGE ROAD SUITE 102","MEMPHIS","TN",38134,35.206845075,-89.892278865,319,"5146 STAGE ROAD SUITE 102, MEMPHIS, TN, 38134","Match","Exact","5146 STAGE RD, MEMPHIS, TN, 38134",607402234,"L"
234820,"5146 W FALLEN LEAF LANE","GLENDALE","AZ",85310,33.711491209,-112.170558474,320,"5146 W FALLEN LEAF LANE, GLENDALE, AZ, 85310","Match","Exact","5146 W FALLEN LEAF LN, GLENDALE, AZ, 85310",653230948,"L"
234821,"5146 W WELLINGTON AVE","CHICAGO","IL",60641,41.9350773790001,-87.755284483,321,"5146 W WELLINGTON AVE, CHICAGO, IL, 60641","Match","Exact","5146 W WELLINGTON AVE, CHICAGO, IL, 60641",111755702,"R"
234822,"5146 WATERMAN BLVD","SAINT LOUIS","MO",63108,38.6486524420001,-90.268724761,322,"5146 WATERMAN BLVD, SAINT LOUIS, MO, 63108","Match","Exact","5146 WATERMAN BLVD, SAINT LOUIS, MO, 63108",618275780,"L"
234823,"5147 BONNIE BRANCH RD","ELLICOTT CITY","MD",21043,39.2295871920001,-76.788347131,323,"5147 BONNIE BRANCH RD, ELLICOTT CITY, MD, 21043","Match","Exact","5147 BONNIE BRANCH RD, ELLICOTT CITY, MD, 21043",158927454,"L"
234824,"5147 CALLE MAYOR","TORRANCE","CA",90505,33.8136870120001,-118.369017899,324,"5147 CALLE MAYOR, TORRANCE, CA, 90505","Match","Non_Exact","5147 CLL MAYOR, TORRANCE, CA, 90505",142756449,"R"
234825,"5147 CATTLE DR","MISSOULA","MT",59808,NA,NA,325,"5147 CATTLE DR, MISSOULA, MT, 59808","No_Match",NA,NA,NA,NA
234826,"5147 CR 95","WATER VALLEY","MS",38965,34.0614271740001,-89.6209722149999,326,"5147 CR 95, WATER VALLEY, MS, 38965","Match","Exact","5147 CO RD 95, WATER VALLEY, MS, 38965",610251607,"L"
234827,"5147 DENNY AVE APT 6","NORTH HOLLYWOOD","CA",91601,34.16461623,-118.364811416,327,"5147 DENNY AVE APT 6, NORTH HOLLYWOOD, CA, 91601","Match","Exact","5147 DENNY AVE, N HOLLYWOOD, CA, 91601",141591754,"L"
234828,"5147 DOE EYED COURT","NEW PORT RICHEY","FL",34653,28.2339214850001,-82.68843213,328,"5147 DOE EYED COURT, NEW PORT RICHEY, FL, 34653","Match","Exact","5147 DOE EYED CT, NEW PORT RICHEY, FL, 34653",86350602,"L"
234829,"5147 E MONARCH CIRCLE","BELOIT","WI",53511,42.5417187800001,-88.942570565,329,"5147 E MONARCH CIRCLE, BELOIT, WI, 53511","Match","Exact","5147 E MONARCH CIR, BELOIT, WI, 53511",49865839,"L"
234830,"5147 N TUTHILL RD","LITCHFIELD PARK","AZ",85340,33.512817403,-112.494917367,330,"5147 N TUTHILL RD, LITCHFIELD PARK, AZ, 85340","Match","Exact","5147 TUTHILL RD, LITCHFIELD PARK, AZ, 85340",647631326,"R"
234831,"5147 POLO FIELDS DRIVE","GIBSONIA","PA",15044,40.6113658740001,-79.944908334,331,"5147 POLO FIELDS DRIVE, GIBSONIA, PA, 15044","Match","Exact","5147 POLO FIELDS DR, GIBSONIA, PA, 15044",51709015,"R"
234832,"5148 BALTIC ST NW","GIG HARBOR","WA",98332,47.362246514,-122.607614446,332,"5148 BALTIC ST NW, GIG HARBOR, WA, 98332","Match","Non_Exact","5148 BALTIC ST, GIG HARBOR, WA, 98332",627655464,"R"
234833,"5148 BERG RD","WEST SENECA","NY",14218,42.8042945710001,-78.792628029,333,"5148 BERG RD, WEST SENECA, NY, 14218","Match","Exact","5148 BERG RD, WEST SENECA, NY, 14218",48304632,"L"
234834,"5148 E 700 N","GREENFIELD","IN",46140,NA,NA,334,"5148 E 700 N, GREENFIELD, IN, 46140","No_Match",NA,NA,NA,NA
234835,"5148 PRITCHETT DR","NASHVILLE","TN",37220,36.0573786030001,-86.7582602799999,335,"5148 PRITCHETT DR, NASHVILLE, TN, 37220","Match","Exact","5148 PRITCHETT DR, NASHVILLE, TN, 37220",97193685,"R"
234836,"5148 WORTH COURT","NEW PORT RICHEY","FL",34653,28.234413477,-82.681573138,336,"5148 WORTH COURT, NEW PORT RICHEY, FL, 34653","Match","Exact","5148 WORTH CT, NEW PORT RICHEY, FL, 34653",86386245,"R"
234837,"5149 AVENIDA PLAYA CANCUN","SAN DIEGO","CA",92124,32.8381293740001,-117.083787372,337,"5149 AVENIDA PLAYA CANCUN, SAN DIEGO, CA, 92124","Match","Exact","5149 AVE PLAYA CANCUN, SAN DIEGO, CA, 92124",195662861,"R"
234838,"5149 BAPTIST VALLEY ROAD","NORTH TAZEWELL","VA",24630,37.13315592,-81.609515351,338,"5149 BAPTIST VALLEY ROAD, NORTH TAZEWELL, VA, 24630","Match","Exact","5149 BAPTIST VALLEY RD, N TAZEWELL, VA, 24630",47313502,"L"
234839,"5149 CENTRAL AVE","ST PETERSBURG","FL",33710,27.7709486100001,-82.7031824009999,339,"5149 CENTRAL AVE, ST PETERSBURG, FL, 33710","Match","Exact","5149 CENTRAL AVE, SAINT PETERSBURG, FL, 33710",124700306,"R"
234840,"5149 LOST DUTCHMAN DRIVE","LITHONIA","GA",30038,33.6537141100001,-84.179481362,340,"5149 LOST DUTCHMAN DRIVE, LITHONIA, GA, 30038","Match","Exact","5149 LOST DUTCHMAN DR, LITHONIA, GA, 30038",23386792,"R"
234841,"5149 NEPONSET AVENUE","ORLANDO","FL",32808,28.604245592,-81.441786634,341,"5149 NEPONSET AVENUE, ORLANDO, FL, 32808","Match","Exact","5149 NEPONSET AVE, ORLANDO, FL, 32808",94326498,"R"
234842,"5149 NW WISK FERN CIRCLE","PORT ST LUCIE","FL",34986,27.361314624,-80.383906888,342,"5149 NW WISK FERN CIRCLE, PORT ST LUCIE, FL, 34986","Match","Exact","5149 WISK FERN CIR, PORT ST LUCIE, FL, 34986",619743773,"R"
234843,"5149 S GRAHAM STREET","SEATTLE","WA",98118,47.5460586450001,-122.267853103,343,"5149 S GRAHAM STREET, SEATTLE, WA, 98118","Match","Exact","5149 S GRAHAM ST, SEATTLE, WA, 98118",239775155,"R"
234844,"5149 STRAND RD","DEMING","WA",98244,48.7603574870001,-122.208987446,344,"5149 STRAND RD, DEMING, WA, 98244","Match","Exact","5149 STRAND RD, DEMING, WA, 98244",183793474,"L"
234845,"5149 W RIVER ROAD","WAKEMAN","OH",44889,41.2786041890001,-82.405525132,345,"5149 W RIVER ROAD, WAKEMAN, OH, 44889","Match","Exact","5149 W RIVER RD, WAKEMAN, OH, 44889",12626220,"L"
234846,"51497 169TH STREET","LAKE CRYSTAL","MN",56055,44.036370092,-94.2181998,346,"51497 169TH STREET, LAKE CRYSTAL, MN, 56055","Match","Exact","51497 169TH ST, LAKE CRYSTAL, MN, 56055",28115142,"R"
234847,"514C NE 6TH ST","BLUE SPRINGS","MO",64014,39.020957718,-94.2545318909999,347,"514C NE 6TH ST, BLUE SPRINGS, MO, 64014","Match","Exact","514 NE 6TH ST, BLUE SPRINGS, MO, 64014",91515882,"L"
234848,"515  SOUTH FRY RD","KATYTX","TX",77450,29.7785208010001,-95.718863283,348,"515  SOUTH FRY RD, KATYTX, TX, 77450","Match","Non_Exact","515 S FRY RD, KATY, TX, 77450",96016395,"L"
234849,"515 1/2  E BROADWAY ROOM 106","BISMARCK","ND",58501,46.8064278940001,-100.78430706,349,"515 1/2  E BROADWAY ROOM 106, BISMARCK, ND, 58501","Match","Non_Exact","515 E BROADWAY AVE, BISMARCK, ND, 58501",198848573,"R"
234850,"515 13TH ST STE 208","MODESTO","CA",95356,37.6380217500001,-120.991937461,350,"515 13TH ST STE 208, MODESTO, CA, 95356","Match","Non_Exact","515 13TH ST, MODESTO, CA, 95354",102604936,"L"
234851,"515 15TH AVE S APT 144","MINNEAPOLIS","MN",55454,44.9699871820001,-93.250342197,351,"515 15TH AVE S APT 144, MINNEAPOLIS, MN, 55454","Match","Exact","515 15TH AVE S, MINNEAPOLIS, MN, 55454",43837312,"R"
234852,"515 15TH AVE S","MINNEAPOLIS","MN",55454,44.9699871820001,-93.250342197,352,"515 15TH AVE S, MINNEAPOLIS, MN, 55454","Match","Exact","515 15TH AVE S, MINNEAPOLIS, MN, 55454",43837312,"R"
234853,"515 15TH AVENUE SOUTH 510","MINNEAPOLIS","MN",55454,44.9699871820001,-93.250342197,353,"515 15TH AVENUE SOUTH 510, MINNEAPOLIS, MN, 55454","Match","Exact","515 15TH AVE S, MINNEAPOLIS, MN, 55454",43837312,"R"
234854,"515 17TH STREET SW","MINOT","ND",58701,48.2312943320001,-101.318300403,354,"515 17TH STREET SW, MINOT, ND, 58701","Match","Exact","515 17TH ST SW, MINOT, ND, 58701",200510172,"R"
234855,"515 19TH STREET SOUTH","PALM HARBOR","FL",34683,NA,NA,355,"515 19TH STREET SOUTH, PALM HARBOR, FL, 34683","No_Match",NA,NA,NA,NA
234856,"515 1ST AVE N","BESSEMER","AL",35020,33.3864622340001,-86.963469246,356,"515 1ST AVE N, BESSEMER, AL, 35020","Match","Exact","515 1ST AVE N, BESSEMER, AL, 35020",81762478,"R"
234857,"515 2ND AVENUE NW","FARIBAULT","MN",55021,44.29607008,-93.271522826,357,"515 2ND AVENUE NW, FARIBAULT, MN, 55021","Match","Exact","515 2ND AVE NW, FARIBAULT, MN, 55021",37317109,"R"
234858,"515 3RD ST SE","ELBOW LAKE","MN",56531,45.9886115800001,-95.969423648,358,"515 3RD ST SE, ELBOW LAKE, MN, 56531","Match","Exact","515 3RD ST SE, ELBOW LAKE, MN, 56531",203189384,"L"
234859,"515 40TH AVE S","GREAT FALLS","MT",59405,47.4649543130001,-111.298937908,359,"515 40TH AVE S, GREAT FALLS, MT, 59405","Match","Exact","515 40TH AVE S, GREAT FALLS, MT, 59405",641199670,"L"
234860,"515 46TH AVE SOUTH","ST PETERSBURG","FL",33705,27.726714369,-82.6395528039999,360,"515 46TH AVE SOUTH, ST PETERSBURG, FL, 33705","Match","Exact","515 46TH AVE S, SAINT PETERSBURG, FL, 33705",124711160,"R"
234861,"515 46TH AVENUE SOUTH","ST PETERSBURG","FL",33705,27.726714369,-82.6395528039999,361,"515 46TH AVENUE SOUTH, ST PETERSBURG, FL, 33705","Match","Exact","515 46TH AVE S, SAINT PETERSBURG, FL, 33705",124711160,"R"
234862,"515 4TH AVE","BROOKLYN","NY",11215,40.667553583,-73.9910414129999,362,"515 4TH AVE, BROOKLYN, NY, 11215","Match","Exact","515 4TH AVE, BROOKLYN, NY, 11215",59075643,"L"
234863,"515 4TH STREET","MARIETTA","OH",45750,39.421302806,-81.456406977,363,"515 4TH STREET, MARIETTA, OH, 45750","Match","Exact","515 4TH ST, MARIETTA, OH, 45750",45681505,"L"
234864,"515 5TH AVE","MCCORMICK","SC",29835,33.90743833,-82.301961983,364,"515 5TH AVE, MCCORMICK, SC, 29835","Match","Non_Exact","515 FIFTH AVE, MC CORMICK, SC, 29835",636579205,"R"
234865,"515 A SOUTH FRY RD","KATY","TX",77450,29.778515988,-95.718863164,365,"515 A SOUTH FRY RD, KATY, TX, 77450","Match","Exact","515 S FRY RD, KATY, TX, 77450",96016395,"L"
234866,"515 ABERNATHY OAKS WAY","ALPHARETTA","GA",30004,34.102155151,-84.286197203,366,"515 ABERNATHY OAKS WAY, ALPHARETTA, GA, 30004","Match","Exact","515 ABERNATHY OAKS WAY, ALPHARETTA, GA, 30004",17403485,"R"
234867,"515 ASA ST","SEVIERVILLE","TN",37876,35.86173118,-83.489253967,367,"515 ASA ST, SEVIERVILLE, TN, 37876","Match","Exact","515 ASA ST, SEVIERVILLE, TN, 37876",107549071,"L"
234868,"515 BAY STREET","WAYCROSS","GA",31501,31.2309173950001,-82.3480668989999,368,"515 BAY STREET, WAYCROSS, GA, 31501","Match","Exact","515 BAY ST, WAYCROSS, GA, 31501",5239863,"L"
234869,"515 BORGHESE DR","ROBINS AFB","GA",31098,NA,NA,369,"515 BORGHESE DR, ROBINS AFB, GA, 31098","No_Match",NA,NA,NA,NA
234870,"515 BORONIA RD","ARLINGTON","TX",76002,32.6002953550001,-97.09454046,370,"515 BORONIA RD, ARLINGTON, TX, 76002","Match","Exact","515 BORONIA RD, ARLINGTON, TX, 76002",102188090,"R"
234871,"515 BRINLEY AVENUE","BRADLEY BEACH","NJ",7720,40.2025651320001,-74.014771331,371,"515 BRINLEY AVENUE, BRADLEY BEACH, NJ, 7720","Match","Exact","515 BRINLEY AVE, BRADLEY BEACH, NJ, 07720",90464375,"L"
234872,"515 BROADWAY STREET","VALLEJO","CA",94590,38.1113544200001,-122.248604375,372,"515 BROADWAY STREET, VALLEJO, CA, 94590","Match","Exact","515 BROADWAY ST, VALLEJO, CA, 94590",192527441,"L"
234873,"515 BROADWAY","CHESTERTON","IN",46304,41.611163241,-87.057360108,373,"515 BROADWAY, CHESTERTON, IN, 46304","Match","Exact","515 BROADWAY, CHESTERTON, IN, 46304",119910267,"L"
234874,"515 BROOKDALE DRIVE","STATESVILLE","NC",28677,35.799115461,-80.876796425,374,"515 BROOKDALE DRIVE, STATESVILLE, NC, 28677","Match","Exact","515 BROOKDALE DR, STATESVILLE, NC, 28677",46038167,"L"
234875,"515 BUCKHALTER ROAD","SAVANNAH","GA",31405,32.0267593730001,-81.166117522,375,"515 BUCKHALTER ROAD, SAVANNAH, GA, 31405","Match","Exact","515 BUCKHALTER RD, SAVANNAH, GA, 31405",641744920,"R"
234876,"515 BULLDOG BLVD","CAYCE","SC",29033,33.953446936,-81.051670069,376,"515 BULLDOG BLVD, CAYCE, SC, 29033","Match","Exact","515 BULLDOG BLVD, CAYCE, SC, 29033",640828335,"L"
234877,"515 BURLINGTON ROAD","ST. PAUL","MN",55119,44.925117513,-93.0153206419999,377,"515 BURLINGTON ROAD, ST. PAUL, MN, 55119","Match","Exact","515 BURLINGTON RD, SAINT PAUL, MN, 55119",639713241,"R"
234878,"515 BURTON LN","SANFORD","FL",32771,28.8160933,-81.296123847,378,"515 BURTON LN, SANFORD, FL, 32771","Match","Exact","515 BURTON LN, SANFORD, FL, 32771",93748883,"R"
234879,"515 CASS STREET SUITE 277","CRETE","IL",60417,41.443270205,-87.632148887,379,"515 CASS STREET SUITE 277, CRETE, IL, 60417","Match","Exact","515 CASS ST, CRETE, IL, 60417",111553130,"L"
234880,"515 CATIVO DR SW","ATLANTA","GA",30311,33.7422745860001,-84.4717804329999,380,"515 CATIVO DR SW, ATLANTA, GA, 30311","Match","Exact","515 CATIVO DR SW, ATLANTA, GA, 30311",17339803,"R"
234881,"515 CENTRE STREET NO 5244","DALLAS","TX",75208,32.74228814,-96.830572353,381,"515 CENTRE STREET NO 5244, DALLAS, TX, 75208","Match","Non_Exact","515 CENTRE ST, DALLAS, TX, 75208",102946728,"R"
234882,"515 CHAMPLAIN AVE","PASADENA","CA",91103,34.1544628240001,-118.152211569,382,"515 CHAMPLAIN AVE, PASADENA, CA, 91103","Match","Exact","515 CHAMPLAIN AVE, PASADENA, CA, 91103",141627916,"L"
234883,"515 CHAUDET","CAHOKIA","IL",62206,38.5739125870001,-90.175705498,383,"515 CHAUDET, CAHOKIA, IL, 62206","Match","Non_Exact","515 CHAUDET AVE, CAHOKIA, IL, 62206",107929729,"L"
234884,"515 CHEVELLE LANE","DECATUR","GA",30030,33.7515646190001,-84.287289444,384,"515 CHEVELLE LANE, DECATUR, GA, 30030","Match","Exact","515 CHEVELLE LN, DECATUR, GA, 30030",23367683,"R"
234885,"515 CHINA CREEK RD","WILLIAMS","OR",97544,42.220364573,-123.313147666,385,"515 CHINA CREEK RD, WILLIAMS, OR, 97544","Match","Exact","515 CHINA CREEK RD, WILLIAMS, OR, 97544",156606375,"R"
234886,"515 CLARK AVENUE","AMES","IA",50010,42.0260669290001,-93.616909542,386,"515 CLARK AVENUE, AMES, IA, 50010","Match","Exact","515 CLARK AVE, AMES, IA, 50010",65947104,"L"
234887,"515 CLIFTON ROAD","BETHEL PARK","PA",15102,40.311371761,-80.062216366,387,"515 CLIFTON ROAD, BETHEL PARK, PA, 15102","Match","Exact","515 CLIFTON RD, BETHEL PARK, PA, 15102",51924763,"L"
234888,"515 COLUMBIA DRIVE APT 11","TAMPA","FL",33606,27.9234161380001,-82.450589527,388,"515 COLUMBIA DRIVE APT 11, TAMPA, FL, 33606","Match","Exact","515 COLUMBIA DR, TAMPA, FL, 33606",104531190,"L"
234889,"515 COUNTRY CLUB ROAD","SHERWOOD","AR",72120,34.8184661830001,-92.227344597,389,"515 COUNTRY CLUB ROAD, SHERWOOD, AR, 72120","Match","Exact","515 COUNTRY CLUB RD, SHERWOOD, AR, 72120",83497732,"R"
234890,"515 COUNTY ROAD 1118","GREENVILLE","TX",75401,33.1584595670001,-96.2498194249999,390,"515 COUNTY ROAD 1118, GREENVILLE, TX, 75401","Match","Exact","515 CO RD 1118, GREENVILLE, TX, 75401",635877499,"R"
234891,"515 COURT ST SUITE 2A","RENO","NV",89501,39.5222019820001,-119.81846096,391,"515 COURT ST SUITE 2A, RENO, NV, 89501","Match","Exact","515 COURT ST, RENO, NV, 89501",107045029,"R"
234892,"515 COWAN ROAD","COVINGTON","GA",30016,33.5551798750001,-83.951892148,392,"515 COWAN ROAD, COVINGTON, GA, 30016","Match","Exact","515 COWAN RD, COVINGTON, GA, 30016",23636850,"R"
234893,"515 CRIMSON DRIVE","IDAHO FALLS","ID",83401,43.4997454800001,-111.953198336,393,"515 CRIMSON DRIVE, IDAHO FALLS, ID, 83401","Match","Exact","515 CRIMSON DR, IDAHO FALLS, ID, 83401",119127634,"L"
234894,"515 D WYOMING BLVD SE","ALBUQUERQUE","NM",87123,35.067235285,-106.550463949,394,"515 D WYOMING BLVD SE, ALBUQUERQUE, NM, 87123","Match","Exact","515 WYOMING BLVD SE, ALBUQUERQUE, NM, 87123",206718815,"R"
234895,"515 DECATUR ROAD","STAFFORD","VA",22554,38.45726581,-77.360101901,395,"515 DECATUR ROAD, STAFFORD, VA, 22554","Match","Exact","515 DECATUR RD, STAFFORD, VA, 22554",636655148,"R"
234896,"515 DEEP HILL ROAD","DIAMOND BAR","CA",91765,34.0282415840001,-117.819642421,396,"515 DEEP HILL ROAD, DIAMOND BAR, CA, 91765","Match","Exact","515 DEEP HILL RD, DIAMOND BAR, CA, 91765",141728930,"L"
234897,"515 DEER RUN DR","YOUNGSTOWN","OH",44512,41.0214681190001,-80.679331744,397,"515 DEER RUN DR, YOUNGSTOWN, OH, 44512","Match","Exact","515 DEER RUN DR, YOUNGSTOWN, OH, 44512",64609394,"L"
234898,"515 DENMARK STREET SUITE 600","STATESBORO","GA",30458,32.449656228,-81.798291992,398,"515 DENMARK STREET SUITE 600, STATESBORO, GA, 30458","Match","Exact","515 DENMARK ST, STATESBORO, GA, 30458",641829664,"R"
234899,"515 DOWD STREET","DURHAM","NC",27701,36.000381582,-78.889398828,399,"515 DOWD STREET, DURHAM, NC, 27701","Match","Exact","515 DOWD ST, DURHAM, NC, 27701",71741751,"L"
234900,"515 DREXEL DR","SANTA BARBARA","CA",93103,34.4328390110001,-119.679871458,400,"515 DREXEL DR, SANTA BARBARA, CA, 93103","Match","Exact","515 DREXEL DR, SANTA BARBARA, CA, 93103",108605193,"L"
234901,"515 E 18TH ST","DUBUQUE","IA",52001,NA,NA,401,"515 E 18TH ST, DUBUQUE, IA, 52001","No_Match",NA,NA,NA,NA
234902,"515 E 34TH AVE","EUGENE","OR",97405,44.019999291,-123.083812532,402,"515 E 34TH AVE, EUGENE, OR, 97405","Match","Exact","515 E 34TH AVE, EUGENE, OR, 97405",178232144,"L"
234903,"515 E 44TH ST UNIT 1","CHICAGO","IL",60653,41.814876552,-87.6133413159999,403,"515 E 44TH ST UNIT 1, CHICAGO, IL, 60653","Match","Non_Exact","515 E 44TH ST, CHICAGO, IL, 60653",605590873,"R"
234904,"515 E 6TH ST","ONTARIO","CA",91764,34.08521754,-117.645937165,404,"515 E 6TH ST, ONTARIO, CA, 91764","Match","Exact","515 E SIXTH ST, ONTARIO, CA, 91764",144675496,"L"
234905,"515 E 78TH ST APT 1C","NEW YORK","NY",10075,40.7702747160001,-73.9498821449999,405,"515 E 78TH ST APT 1C, NEW YORK, NY, 10075","Match","Non_Exact","515 E 78TH ST, NEW YORK, NY, 10075",650075556,"L"
234906,"515 E BORDER ST","ARLINGTON","TX",76010,32.733662614,-97.102519268,406,"515 E BORDER ST, ARLINGTON, TX, 76010","Match","Exact","515 E BORDER ST, ARLINGTON, TX, 76010",101908123,"L"
234907,"515 E CAREFREE HWY BOX 95","PHOENIX","AZ",85085,33.7990267700001,-112.068139271,407,"515 E CAREFREE HWY BOX 95, PHOENIX, AZ, 85085","Match","Non_Exact","515 E CAREFREE HWY, PHOENIX, AZ, 85085",128900367,"R"
234908,"515 E CRYSTAL LAKE AVE","CRYSTAL LAKE","IL",60014,42.2413248510001,-88.299459519,408,"515 E CRYSTAL LAKE AVE, CRYSTAL LAKE, IL, 60014","Match","Exact","515 E CRYSTAL LAKE AVE, CRYSTAL LAKE, IL, 60014",648865380,"R"
234909,"515 E DRUHAM RD","DEWEY","OK",74029,NA,NA,409,"515 E DRUHAM RD, DEWEY, OK, 74029","No_Match",NA,NA,NA,NA
234910,"515 E GREGORY DRIVE","CHAMPAIGN","IL",61820,NA,NA,410,"515 E GREGORY DRIVE, CHAMPAIGN, IL, 61820","No_Match",NA,NA,NA,NA
234911,"515 E JEANETTE ST","CROWLEY","LA",70526,30.2047611,-92.364864712,411,"515 E JEANETTE ST, CROWLEY, LA, 70526","Match","Exact","515 E JEANETTE ST, CROWLEY, LA, 70526",88304422,"L"
234912,"515 E JEFFERSON ST","ANN AROBR","MI",48109,42.2761939330001,-83.742911552,412,"515 E JEFFERSON ST, ANN AROBR, MI, 48109","Match","Non_Exact","515 E JEFFERSON ST, ANN ARBOR, MI, 48104",26014751,"L"
234913,"515 E KING ST","LANCASTER","PA",17602,40.0392131730001,-76.29472691,413,"515 E KING ST, LANCASTER, PA, 17602","Match","Exact","515 E KING ST, LANCASTER, PA, 17602",179663109,"L"
234914,"515 E LAS OLAS BLVD FL 5","FORT LAUDERDALE","FL",33301,26.119215808,-80.137987042,414,"515 E LAS OLAS BLVD FL 5, FORT LAUDERDALE, FL, 33301","Match","Non_Exact","515 E LAS OLAS BLVD, FORT LAUDERDALE, FL, 33301",608969963,"L"
234915,"515 E LAS OLAS BLVD SUITE 120","FORT LAUDERDALE","FL",33301,26.119215808,-80.137987042,415,"515 E LAS OLAS BLVD SUITE 120, FORT LAUDERDALE, FL, 33301","Match","Non_Exact","515 E LAS OLAS BLVD, FORT LAUDERDALE, FL, 33301",608969963,"L"
234916,"515 E MAIN ST","STOCKTON","CA",95202,37.9536333610001,-121.2842997,416,"515 E MAIN ST, STOCKTON, CA, 95202","Match","Exact","515 E MAIN ST, STOCKTON, CA, 95202",133850524,"L"
234917,"515 E PALM VALLEY BLVD 1513","ROUND ROCK","TX",78664,30.5189728080001,-97.676135177,417,"515 E PALM VALLEY BLVD 1513, ROUND ROCK, TX, 78664","Match","Exact","515 PALM VALLEY BLVD, ROUND ROCK, TX, 78664",126453742,"L"
234918,"515 E RITTENHOUSE","HOUSTON","TX",77076,NA,NA,418,"515 E RITTENHOUSE, HOUSTON, TX, 77076","Tie",NA,NA,NA,NA
234919,"515 E SLAUGHTER LANE 2313","AUSTIN","TX",78744,30.1641278330001,-97.778824266,419,"515 E SLAUGHTER LANE 2313, AUSTIN, TX, 78744","Match","Non_Exact","515 E SLAUGHTER LN, AUSTIN, TX, 78744",650109316,"R"
234920,"515 E SUMMIT ST","BRECKENRIDGE","MI",48615,43.4112733920001,-84.474015344,420,"515 E SUMMIT ST, BRECKENRIDGE, MI, 48615","Match","Exact","515 E SUMMIT ST, BRECKENRIDGE, MI, 48615",80170695,"L"
234921,"515 E WASHINGTON","MARSHFIELD","MO",65706,37.338520417,-92.900257354,421,"515 E WASHINGTON, MARSHFIELD, MO, 65706","Match","Non_Exact","515 E WASHINGTON ST, MARSHFIELD, MO, 65706",647386364,"R"
234922,"515 E WILLIAMS STREET","LEBANON","IN",46052,40.0502169120001,-86.464681889,422,"515 E WILLIAMS STREET, LEBANON, IN, 46052","Match","Exact","515 E WILLIAMS ST, LEBANON, IN, 46052",611912011,"L"
234923,"515 EAST 11TH STREET","UHRICHSVILLE","OH",44683,40.4001615760001,-81.3431907139999,423,"515 EAST 11TH STREET, UHRICHSVILLE, OH, 44683","Match","Exact","515 E 11TH ST, UHRICHSVILLE, OH, 44683",648339513,"R"
234924,"515 EAST 14TH STREET 8 H","NEW YORK","NY",10009,40.7302521930001,-73.979865584,424,"515 EAST 14TH STREET 8 H, NEW YORK, NY, 10009","Match","Exact","515 E 14TH ST, NEW YORK, NY, 10009",59654620,"L"
234925,"515 EAST 14TH STREET APT 8H","NEW YORK","NY",10009,40.7302521930001,-73.979865584,425,"515 EAST 14TH STREET APT 8H, NEW YORK, NY, 10009","Match","Exact","515 E 14TH ST, NEW YORK, NY, 10009",59654620,"L"
234926,"515 EAST 53RD COURT","MERRILLVILLE","IN",46410,41.5209927560001,-87.3294327,426,"515 EAST 53RD COURT, MERRILLVILLE, IN, 46410","Match","Exact","515 E 53RD CT, MERRILLVILLE, IN, 46410",98434921,"R"
234927,"515 EAST 72ND STREET 28E","NEW YORK","NY",10021,40.7664239330001,-73.9527140119999,427,"515 EAST 72ND STREET 28E, NEW YORK, NY, 10021","Match","Exact","515 E 72ND ST, NEW YORK, NY, 10021",650078849,"L"
234928,"515 EAST CAREFREE HIGHWAY NUM 724","PHOENIX","AZ",85085,33.7990267700001,-112.068139271,428,"515 EAST CAREFREE HIGHWAY NUM 724, PHOENIX, AZ, 85085","Match","Exact","515 E CAREFREE HWY, PHOENIX, AZ, 85085",128900367,"R"
234929,"515 EAST GILLETTE DRIVE","EAST MARION","NY",11939,41.1196683150001,-72.342130611,429,"515 EAST GILLETTE DRIVE, EAST MARION, NY, 11939","Match","Exact","515 E GILLETTE DR, EAST MARION, NY, 11939",113958183,"L"
234930,"515 EAST GREGORY DRIVE","CHAMPAIGN","IL",61820,NA,NA,430,"515 EAST GREGORY DRIVE, CHAMPAIGN, IL, 61820","No_Match",NA,NA,NA,NA
234931,"515 EAST JOPPA ROAD SUITE 300","TOWSON","MD",21286,39.4011915520001,-76.593362128,431,"515 EAST JOPPA ROAD SUITE 300, TOWSON, MD, 21286","Match","Exact","515 E JOPPA RD, TOWSON, MD, 21286",636224619,"R"
234932,"515 EAST LAS OLAS BOULEVARD 120","FORT LAUDERDALE","FL",33301,26.119215808,-80.137989293,432,"515 EAST LAS OLAS BOULEVARD 120, FORT LAUDERDALE, FL, 33301","Match","Exact","515 E LAS OLAS BLVD, FORT LAUDERDALE, FL, 33301",608969963,"L"
234933,"515 EAST LINE STREET","MINERVA","OH",44657,40.727913641,-81.0967919189999,433,"515 EAST LINE STREET, MINERVA, OH, 44657","Match","Exact","515 E LINE ST, MINERVA, OH, 44657",630013072,"R"
234934,"515 EAST MAIN ST","ASHLAND","OR",97520,42.1943754910001,-122.708323443,434,"515 EAST MAIN ST, ASHLAND, OR, 97520","Match","Exact","515 E MAIN ST, ASHLAND, OR, 97520",155521755,"L"
234935,"515 EAST PALM VALLEY BLVD  1513","ROUND ROCK","TX",78664,30.5189734210001,-97.6761572299999,435,"515 EAST PALM VALLEY BLVD  1513, ROUND ROCK, TX, 78664","Match","Non_Exact","515 PALM VALLEY BLVD, ROUND ROCK, TX, 78664",126453742,"L"
234936,"515 EAST STOCKBRIDGE AVE","KALAMAZOO","MI",49001,42.2775016210001,-85.57436848,436,"515 EAST STOCKBRIDGE AVE, KALAMAZOO, MI, 49001","Match","Exact","515 E STOCKBRIDGE AVE, KALAMAZOO, MI, 49001",12229948,"L"
234937,"515 EAST WINDEMERE","ROYAL OAK","MI",48073,42.5201095670001,-83.1387507869999,437,"515 EAST WINDEMERE, ROYAL OAK, MI, 48073","Match","Non_Exact","515 E WINDEMERE AVE, ROYAL OAK, MI, 48073",69744237,"L"
234938,"515 ECHANDIA STREET","LOS ANGELES","CA",90033,34.051929968,-118.218708787,438,"515 ECHANDIA STREET, LOS ANGELES, CA, 90033","Match","Exact","515 ECHANDIA ST, LOS ANGELES, CA, 90033",141622451,"L"
234939,"515 EDGECOMBE AVE APT 53","NEW YORK","NY",10032,40.8324507670001,-73.939835855,439,"515 EDGECOMBE AVE APT 53, NEW YORK, NY, 10032","Match","Exact","515 EDGECOMBE AVE, NEW YORK, NY, 10032",59655785,"L"
234940,"515 ELIZABETH AVENUE","MONROE","NC",28112,34.977898942,-80.53448761,440,"515 ELIZABETH AVENUE, MONROE, NC, 28112","Match","Exact","515 ELIZABETH AVE, MONROE, NC, 28112",14201720,"R"
234941,"515 ELM CREEK DRIVE","WENTZVILLE","MO",63385,38.810357423,-90.8943221979999,441,"515 ELM CREEK DRIVE, WENTZVILLE, MO, 63385","Match","Exact","515 ELM CREEK DR, WENTZVILLE, MO, 63385",100099311,"L"
234942,"515 ELM ST","KEENE","NH",3431,42.949623192,-72.28756234,442,"515 ELM ST, KEENE, NH, 3431","Match","Exact","515 ELM ST, KEENE, NH, 03431",124050793,"L"
234943,"515 F CANYON OAKS DRIVE","OAKLAND","CA",94605,37.772310282,-122.148089651,443,"515 F CANYON OAKS DRIVE, OAKLAND, CA, 94605","Match","Exact","515 CANYON OAKS DR, OAKLAND, CA, 94605",606342768,"L"
234944,"515 FAIRFIELD AVENUE","JOHNSTOWN","PA",15906,40.3454425350001,-78.9558559829999,444,"515 FAIRFIELD AVENUE, JOHNSTOWN, PA, 15906","Match","Exact","515 FAIRFIELD AVE, JOHNSTOWN, PA, 15906",625352579,"L"
234945,"515 FEATHERCREST LN","MESQUITE","TX",75150,32.802621188,-96.603385655,445,"515 FEATHERCREST LN, MESQUITE, TX, 75150","Match","Non_Exact","515 FEATHER CREST LN, MESQUITE, TX, 75150",102933607,"L"
234946,"515 FISHER ROAD","PADUCAH","KY",42001,37.016101323,-88.7807683619999,446,"515 FISHER ROAD, PADUCAH, KY, 42001","Match","Exact","515 FISHER RD, PADUCAH, KY, 42001",8393096,"L"
234947,"515 FORT COUCH ROAD","UPPER ST CLAIR","PA",15241,40.35467744,-80.0641761219999,447,"515 FORT COUCH ROAD, UPPER ST CLAIR, PA, 15241","Match","Exact","515 FORT COUCH RD, UPPER SAINT CLAIR, PA, 15241",51631888,"L"
234948,"515 GARDEN VALLEY LOOP","LITTLE ROCK","AR",72223,34.796131078,-92.454596277,448,"515 GARDEN VALLEY LOOP, LITTLE ROCK, AR, 72223","Match","Exact","515 GARDEN VALLEY LOOP, LITTLE ROCK, AR, 72223",641819178,"R"
234949,"515 GENEVA ST","GLENDALE","CA",91206,34.1534577210001,-118.246371329,449,"515 GENEVA ST, GLENDALE, CA, 91206","Match","Exact","515 GENEVA ST, GLENDALE, CA, 91206",141609494,"L"
234950,"515 GEORGE WALLACE DR C56","GADSDEN","AL",35903,34.0015645890001,-85.995343352,450,"515 GEORGE WALLACE DR C56, GADSDEN, AL, 35903","Match","Exact","515 GEORGE WALLACE DR, GADSDEN, AL, 35903",651791353,"R"
234951,"515 GLEN MAR DR","MOUNT SHASTA","CA",96067,41.3036715600001,-122.305824872,451,"515 GLEN MAR DR, MOUNT SHASTA, CA, 96067","Match","Exact","515 GLEN MAR DR, MOUNT SHASTA, CA, 96067",113241017,"R"
234952,"515 GLENEAGLE CIRCLE","IRMO","SC",29063,NA,NA,452,"515 GLENEAGLE CIRCLE, IRMO, SC, 29063","No_Match",NA,NA,NA,NA
234953,"515 GOLDEN SPUR CIRCLE","WALNUT","CA",91789,34.0207590850001,-117.878581429,453,"515 GOLDEN SPUR CIRCLE, WALNUT, CA, 91789","Match","Exact","515 GOLDEN SPUR CIR, WALNUT, CA, 91789",142782964,"L"
234954,"515 GRAN DRIVE","STORM LAKE","IA",50588,42.643274901,-95.21940447,454,"515 GRAN DRIVE, STORM LAKE, IA, 50588","Match","Exact","515 GRAN DR, STORM LAKE, IA, 50588",77378624,"R"
234955,"515 GRANITE STREET","CLOQUET","MN",55720,46.7335237500001,-92.462310278,455,"515 GRANITE STREET, CLOQUET, MN, 55720","Match","Exact","515 GRANITE ST, CLOQUET, MN, 55720",612106290,"R"
234956,"515 HANNA ROAD","BEL AIR","MD",21014,39.5115589910001,-76.34630953,456,"515 HANNA ROAD, BEL AIR, MD, 21014","Match","Exact","515 HANNA RD, BEL AIR, MD, 21014",191655045,"R"
234957,"515 HANNAH ST","BOYNE CITY","MI",49712,45.2187700650001,-85.00543987,457,"515 HANNAH ST, BOYNE CITY, MI, 49712","Match","Exact","515 HANNAH ST, BOYNE CITY, MI, 49712",134493518,"L"
234958,"515 HARRISBURG AVENUE","LANCASTER","PA",17603,40.049523487,-76.316984831,458,"515 HARRISBURG AVENUE, LANCASTER, PA, 17603","Match","Exact","515 HARRISBURG AVE, LANCASTER, PA, 17603",179662040,"R"
234959,"515 HATCH STREET","BURLINGTON","NC",27217,36.104585263,-79.435699794,459,"515 HATCH STREET, BURLINGTON, NC, 27217","Match","Exact","515 HATCH ST, BURLINGTON, NC, 27217",71662955,"R"
234960,"515 HAWTHORN COURT","COTTAGE GROVE","WI",53527,43.076863615,-89.191142331,460,"515 HAWTHORN COURT, COTTAGE GROVE, WI, 53527","Match","Exact","515 HAWTHORN CT, COTTAGE GROVE, WI, 53527",49513336,"R"
234961,"515 HEARTHSTONE TRL","CANTON","GA",30114,34.236294935,-84.6132068699999,461,"515 HEARTHSTONE TRL, CANTON, GA, 30114","Match","Exact","515 HEARTHSTONE TRL, CANTON, GA, 30114",68862723,"L"
234962,"515 HURON ST","NILES","MI",49120,41.8224376800001,-86.250091652,462,"515 HURON ST, NILES, MI, 49120","Match","Exact","515 HURON ST, NILES, MI, 49120",119979615,"L"
234963,"515 INSPIRATION DRIVE","LANCASTER","TX",75146,32.592983415,-96.781894188,463,"515 INSPIRATION DRIVE, LANCASTER, TX, 75146","Match","Exact","515 INSPIRATION DR, LANCASTER, TX, 75146",619596818,"R"
234964,"515 IRA STREET","CARENCRO","LA",70520,30.32120515,-92.060832797,464,"515 IRA STREET, CARENCRO, LA, 70520","Match","Exact","515 IRA ST, CARENCRO, LA, 70520",651275759,"R"
234965,"515 IRISH DRIVE","FORT COLLINS","CO",80521,40.5932460870001,-105.121215914,465,"515 IRISH DRIVE, FORT COLLINS, CO, 80521","Match","Exact","515 IRISH DR, FORT COLLINS, CO, 80521",188549888,"L"
234966,"515 JACKIE ANN STREET","AULT","CO",80610,40.589365747,-104.738737866,466,"515 JACKIE ANN STREET, AULT, CO, 80610","Match","Exact","515 JACKIE ANN ST, AULT, CO, 80610",188721453,"R"
234967,"515 JENNIFER DR","LYNWOOD","IL",60411,41.5073999640001,-87.532975216,467,"515 JENNIFER DR, LYNWOOD, IL, 60411","Match","Exact","515 JENNIFER DR, LYNWOOD, IL, 60411",605645951,"R"
234968,"515 JERSHEY AVE","LANCASTER","PA",17603,NA,NA,468,"515 JERSHEY AVE, LANCASTER, PA, 17603","No_Match",NA,NA,NA,NA
234969,"515 JEWELL STREET","ALMA","NE",68920,40.102580646,-99.36087316,469,"515 JEWELL STREET, ALMA, NE, 68920","Match","Exact","515 JEWELL ST, ALMA, NE, 68920",138069459,"L"
234970,"515 KEISLER DR STE 102","CARY","NC",27518,35.7422546230001,-78.7773869489999,470,"515 KEISLER DR STE 102, CARY, NC, 27518","Match","Exact","515 KEISLER DR, CARY, NC, 27518",208360150,"L"
234971,"515 KIRKLAND CIRLCE","DUNEDIN","FL",34698,28.007703512,-82.767133066,471,"515 KIRKLAND CIRLCE, DUNEDIN, FL, 34698","Match","Non_Exact","515 KIRKLAND CIR, DUNEDIN, FL, 34698",124781941,"L"
234972,"515 LACKAWANNA AVENUE","MAYFIELD","PA",18433,41.5369144420001,-75.53925344,472,"515 LACKAWANNA AVENUE, MAYFIELD, PA, 18433","Match","Exact","515 LACKAWANNA AVE, MAYFIELD, PA, 18433",139331898,"L"
234973,"515 LAHONTAN PASS","JOHNS CREEK","GA",30024,34.0462035570001,-84.114006901,473,"515 LAHONTAN PASS, JOHNS CREEK, GA, 30024","Match","Exact","515 LAHONTAN PASS, JOHNS CREEK, GA, 30024",627272725,"R"
234974,"515 LANAHAN LANE","FERRUM","VA",24088,36.9388606420001,-79.964316028,474,"515 LANAHAN LANE, FERRUM, VA, 24088","Match","Exact","515 LANAHAN LN, FERRUM, VA, 24088",56369065,"R"
234975,"515 LAUREL DRIVE","HUNTSVILLE","AL",35811,34.7614481000001,-86.579804106,475,"515 LAUREL DRIVE, HUNTSVILLE, AL, 35811","Match","Non_Exact","515 LAUREL DR NW, HUNTSVILLE, AL, 35811",58117261,"L"
234976,"515 LEINWEBER RANCH ROAD","MOUNTAIN HOME","TX",78058,30.0708305270001,-99.5900089949999,476,"515 LEINWEBER RANCH ROAD, MOUNTAIN HOME, TX, 78058","Match","Non_Exact","515 LEINWEBER RANCH RD SW, MOUNTAIN HOME, TX, 78058",176913323,"L"
234977,"515 LINCOLN ROAD","GROSSE POINTE","MI",48230,42.393049132,-82.90710692,477,"515 LINCOLN ROAD, GROSSE POINTE, MI, 48230","Match","Exact","515 LINCOLN RD, GROSSE POINTE, MI, 48230",95489507,"L"
234978,"515 LOTZGESELL RD","SEQUIM","WA",98382,48.130551181,-123.188428575,478,"515 LOTZGESELL RD, SEQUIM, WA, 98382","Match","Exact","515 LOTZGESELL RD, SEQUIM, WA, 98382",150846432,"L"
234979,"515 MADISON AVENUE 8TH AND 9TH FL","NEW YORK","NY",10022,40.7598465940001,-73.9741370949999,479,"515 MADISON AVENUE 8TH AND 9TH FL, NEW YORK, NY, 10022","Match","Exact","515 MADISON AVE, NEW YORK, NY, 10022",59657235,"R"
234980,"515 MAGNOLIA LN","GLENN HEIGHTS","TX",75154,32.5348506980001,-96.847139877,480,"515 MAGNOLIA LN, GLENN HEIGHTS, TX, 75154","Match","Exact","515 MAGNOLIA LN, GLENN HEIGHTS, TX, 75154",214500313,"L"
234981,"515 MANOR DR","ANN ARBOR","MI",48105,42.3046983200001,-83.737945145,481,"515 MANOR DR, ANN ARBOR, MI, 48105","Match","Exact","515 MANOR DR, ANN ARBOR, MI, 48105",26013453,"L"
234982,"515 MAPLE AVENUE","NEHAWKA","NE",68413,40.831781452,-95.988166553,482,"515 MAPLE AVENUE, NEHAWKA, NE, 68413","Match","Exact","515 MAPLE AVE, NEHAWKA, NE, 68413",10349280,"R"
234983,"515 MAPLE AVENUE","SARATOGA SPRINGS","NY",12866,43.1058519750001,-73.7722925849999,483,"515 MAPLE AVENUE, SARATOGA SPRINGS, NY, 12866","Match","Exact","515 MAPLE AVE, SARATOGA SPGS, NY, 12866",18767079,"L"
234984,"515 MASTIN AVENUE","IRONTON","OH",45638,38.5207856550001,-82.670380966,484,"515 MASTIN AVENUE, IRONTON, OH, 45638","Match","Exact","515 MASTIN AVE, IRONTON, OH, 45638",55010133,"L"
234985,"515 MEADOW OAKS DRIVE","DRIPPING SPRINGS","TX",78620,30.2062521560001,-98.108745782,485,"515 MEADOW OAKS DRIVE, DRIPPING SPRINGS, TX, 78620","Match","Exact","515 MEADOW OAKS DR, DRIPPING SPRINGS, TX, 78620",63823688,"L"
234986,"515 MINEOLA","AKRON","OH",44320,41.090936475,-81.563613716,486,"515 MINEOLA, AKRON, OH, 44320","Match","Non_Exact","515 MINEOLA AVE, AKRON, OH, 44320",61338348,"L"
234987,"515 MOREHOUSE RD","EASTON","CT",6612,41.2443785790001,-73.290255907,487,"515 MOREHOUSE RD, EASTON, CT, 6612","Match","Exact","515 MOREHOUSE RD, EASTON, CT, 06612",649722425,"L"
234988,"515 MUIRFIELD WAY","SALISBURY","NC",28144,35.7036003100001,-80.490651906,488,"515 MUIRFIELD WAY, SALISBURY, NC, 28144","Match","Exact","515 MUIRFIELD WAY, SALISBURY, NC, 28144",25289794,"R"
234989,"515 N 15TH ST","PHOENIX","AZ",85085,NA,NA,489,"515 N 15TH ST, PHOENIX, AZ, 85085","No_Match",NA,NA,NA,NA
234990,"515 N 80TH","EAST ST LOUIS","IL",62203,NA,NA,490,"515 N 80TH, EAST ST LOUIS, IL, 62203","No_Match",NA,NA,NA,NA
234991,"515 N FAITH ST","PLATTSBURG","MO",64477,39.5595241140001,-94.450906378,491,"515 N FAITH ST, PLATTSBURG, MO, 64477","Match","Exact","515 N FAITH ST, PLATTSBURG, MO, 64477",29439846,"L"
234992,"515 N FOUNTAIN AVE","SPRINGFIELD","OH",45504,39.930804837,-83.8097977309999,492,"515 N FOUNTAIN AVE, SPRINGFIELD, OH, 45504","Match","Exact","515 N FOUNTAIN AVE, SPRINGFIELD, OH, 45504",638759382,"L"
234993,"515 N HALSTED ST","CHICAGO","IL",60642,41.891630219,-87.6476222479999,493,"515 N HALSTED ST, CHICAGO, IL, 60642","Match","Non_Exact","515 N HALSTED ST, CHICAGO, IL, 60642",652590164,"R"
234994,"515 N JACKSON AVENUE","WINSTON-SALEM","NC",27101,36.100663507,-80.2256975,494,"515 N JACKSON AVENUE, WINSTON-SALEM, NC, 27101","Match","Exact","515 N JACKSON AVE, WINSTON SALEM, NC, 27101",84612495,"R"
234995,"515 N LARK ST","OSHKOSH","WI",54902,44.0249764870001,-88.5696469219999,495,"515 N LARK ST, OSHKOSH, WI, 54902","Match","Exact","515 N LARK ST, OSHKOSH, WI, 54902",74489455,"L"
234996,"515 N MAIN AVE","HUXLEY","IA",50124,41.8965637320001,-93.6061949099999,496,"515 N MAIN AVE, HUXLEY, IA, 50124","Match","Exact","515 N MAIN AVE, HUXLEY, IA, 50124",647651103,"L"
234997,"515 N MAIN ST","HOLMEN","WI",54636,43.9683566420001,-91.2617645509999,497,"515 N MAIN ST, HOLMEN, WI, 54636","Match","Exact","515 N MAIN ST, HOLMEN, WI, 54636",636182175,"L"
234998,"515 N MANGUM STREET UNIT 44","DURHAM","NC",27701,NA,NA,498,"515 N MANGUM STREET UNIT 44, DURHAM, NC, 27701","Tie",NA,NA,NA,NA
234999,"515 N RIDGEWOOD AVE NUM B","EDGEWATER","FL",32132,29.0020463820001,-80.912770847,499,"515 N RIDGEWOOD AVE NUM B, EDGEWATER, FL, 32132","Match","Non_Exact","515 N RIDGEWOOD AVE, EDGEWATER, FL, 32132",639403606,"R"
235000,"515 N ROSEDALE AVE","TULSA","OK",74127,36.1594153200001,-96.008274231,500,"515 N ROSEDALE AVE, TULSA, OK, 74127","Match","Exact","515 N ROSEDALE AVE, TULSA, OK, 74127",166435083,"R"
