"ID","Address","City","State","Zip","lat","long","id","input_address","match_indicator","match_type","matched_address","tiger_line_id","tiger_side"
85001,"1715 DOTSY AVE","ODESSA","TX",79763,31.8556348750001,-102.38459096,1,"1715 DOTSY AVE, ODESSA, TX, 79763","Match","Exact","1715 DOTSY AVE, ODESSA, TX, 79763",139428306,"L"
85002,"1715 E BOXTOWN ROAD","MEMPHIS","TN",38109,35.046293817,-90.1215944369999,2,"1715 E BOXTOWN ROAD, MEMPHIS, TN, 38109","Match","Exact","1715 E BOXTOWN RD, MEMPHIS, TN, 38109",72896725,"L"
85003,"1715 E KALAMAZOO AVE","LANSING","MI",48912,42.7299933210001,-84.525838914,3,"1715 E KALAMAZOO AVE, LANSING, MI, 48912","Match","Non_Exact","1715 E KALAMAZOO ST, LANSING, MI, 48912",17500881,"L"
85004,"1715 E SALTSAGE DR","PHOENIX","AZ",85048,33.2950763370001,-112.045093847,4,"1715 E SALTSAGE DR, PHOENIX, AZ, 85048","Match","Exact","1715 E SALTSAGE DR, PHOENIX, AZ, 85048",128969606,"R"
85005,"1715 EAGLE STREET","NEW ORLEANS","LA",70118,29.955742075,-90.1316690039999,5,"1715 EAGLE STREET, NEW ORLEANS, LA, 70118","Match","Exact","1715 EAGLE ST, NEW ORLEANS, LA, 70118",191700398,"R"
85006,"1715 EAST 3 STREET APT 4","BROOKLYN","NY",10301,40.608509891,-73.970783535,6,"1715 EAST 3 STREET APT 4, BROOKLYN, NY, 10301","Match","Non_Exact","1715 E 3RD ST, BROOKLYN, NY, 11223",59089540,"L"
85007,"1715 ELDERBERRY DR","LIBERTYVILLE","IL",60048,42.3052041380001,-87.976321994,7,"1715 ELDERBERRY DR, LIBERTYVILLE, IL, 60048","Match","Exact","1715 ELDERBERRY DR, LIBERTYVILLE, IL, 60048",119693535,"R"
85008,"1715 ERICKSON AVE","MARQUETTE","MI",49855,46.5626013940001,-87.439853307,8,"1715 ERICKSON AVE, MARQUETTE, MI, 49855","Match","Exact","1715 ERICKSON AVE, MARQUETTE, MI, 49855",182034292,"L"
85009,"1715 FOX RUN DRIVE","PLAINSBORO","NJ",8536,40.329254876,-74.5911019979999,9,"1715 FOX RUN DRIVE, PLAINSBORO, NJ, 8536","Match","Exact","1715 FOX RUN DR, PLAINSBORO, NJ, 08536",60343467,"R"
85010,"1715 HANNAFORD DRIVE","SUGAR GROVE","IL",60554,41.7965323920001,-88.44059533,10,"1715 HANNAFORD DRIVE, SUGAR GROVE, IL, 60554","Match","Exact","1715 HANNAFORD DR, SUGAR GROVE, IL, 60554",119591589,"R"
85011,"1715 HARRISON AVE NW","CANTON","OH",44708,40.8174156090001,-81.396943952,11,"1715 HARRISON AVE NW, CANTON, OH, 44708","Match","Exact","1715 HARRISON AVE NW, CANTON, OH, 44708",64720020,"L"
85012,"1715 HIGHWAY 72 221 E","GREENWOOD","SC",29649,34.217915336,-82.161509286,12,"1715 HIGHWAY 72 221 E, GREENWOOD, SC, 29649","Match","Non_Exact","1715 STATE HWY 72, GREENWOOD, SC, 29649",612651338,"R"
85013,"1715 HIXSON PIKE","CHATTANOOGA","TN",37405,35.0791881700001,-85.289716766,13,"1715 HIXSON PIKE, CHATTANOOGA, TN, 37405","Match","Exact","1715 HIXSON PIKE, CHATTANOOGA, TN, 37405",59306857,"L"
85014,"1715 I STREET","SACRAMENTO","CA",95811,38.578777566,-121.483142666,14,"1715 I STREET, SACRAMENTO, CA, 95811","Match","Exact","1715 I ST, SACRAMENTO, CA, 95811",133324188,"L"
85015,"1715 INDIAN WOOD CIR  STE 100","MAUMEE","OH",43537,41.5894727350001,-83.682128588,15,"1715 INDIAN WOOD CIR  STE 100, MAUMEE, OH, 43537","Match","Exact","1715 INDIAN WOOD CIR, MAUMEE, OH, 43537",33953440,"L"
85016,"1715 INDIAN WOOD CIR  SUITE 200","MAUMEE","OH",43537,41.5894727350001,-83.682128588,16,"1715 INDIAN WOOD CIR  SUITE 200, MAUMEE, OH, 43537","Match","Exact","1715 INDIAN WOOD CIR, MAUMEE, OH, 43537",33953440,"L"
85017,"1715 INDIAN WOOD CIRCLE SUITE 200","MAUMEE","OH",44537,41.5894727350001,-83.682128588,17,"1715 INDIAN WOOD CIRCLE SUITE 200, MAUMEE, OH, 44537","Match","Non_Exact","1715 INDIAN WOOD CIR, MAUMEE, OH, 43537",33953440,"L"
85018,"1715 KAYSER STREET","SELMA","AL",36701,32.422361455,-87.02757536,18,"1715 KAYSER STREET, SELMA, AL, 36701","Match","Exact","1715 KAYSER ST, SELMA, AL, 36701",1283356,"L"
85019,"1715 KILBOURN PLACE NW","WASHINGTON","DC",20010,NA,NA,19,"1715 KILBOURN PLACE NW, WASHINGTON, DC, 20010","No_Match",NA,NA,NA,NA
85020,"1715 LAKE MIRIAM DR","LAKELAND","FL",33814,27.9747245460001,-81.933232634,20,"1715 LAKE MIRIAM DR, LAKELAND, FL, 33814","Match","Non_Exact","1715 LAKE MIRIAM DR, LAKELAND, FL, 33813",104813263,"R"
85021,"1715 LANSING AVE STE 257","JACKSON","MI",49202,42.268917522,-84.416091033,21,"1715 LANSING AVE STE 257, JACKSON, MI, 49202","Match","Exact","1715 LANSING AVE, JACKSON, MI, 49202",17616328,"R"
85022,"1715 LINNERUD DR-81","SUN PRAIRIE","WI",53590,NA,NA,22,"1715 LINNERUD DR-81, SUN PRAIRIE, WI, 53590","No_Match",NA,NA,NA,NA
85023,"1715 LINNERUD DRIVE - BOX 31","SUN PRAIRIE","WI",53590,43.17420666,-89.242163574,23,"1715 LINNERUD DRIVE - BOX 31, SUN PRAIRIE, WI, 53590","Match","Non_Exact","1715 E LINNERUD DR, SUN PRAIRIE, WI, 53590",49496744,"L"
85024,"1715 LOCH LOMOND TRAIL SW","ATLANTA","GA",30331,33.709881497,-84.544683897,24,"1715 LOCH LOMOND TRAIL SW, ATLANTA, GA, 30331","Match","Exact","1715 LOCH LOMOND TRL SW, ATLANTA, GA, 30331",17336219,"R"
85025,"1715 LOOP 11","WICHITA FALLS","TX",76306,33.9391334160001,-98.5319553049999,25,"1715 LOOP 11, WICHITA FALLS, TX, 76306","Match","Exact","1715 LOOP 11, WICHITA FALLS, TX, 76306",169858053,"R"
85026,"1715 MAIN STREET   PO BOX 484","OURAY","CO",81427,38.0334320650001,-107.674449141,26,"1715 MAIN STREET   PO BOX 484, OURAY, CO, 81427","Match","Exact","1715 MAIN ST, OURAY, CO, 81427",610905483,"R"
85027,"1715 MORMON TREK BLVD","IOWA CITY","IA",52246,41.6411858710001,-91.5735052319999,27,"1715 MORMON TREK BLVD, IOWA CITY, IA, 52246","Match","Exact","1715 MORMON TREK BLVD, IOWA CITY, IA, 52246",84509726,"L"
85028,"1715 NELSON AVENUE APARTMENT 2H","BRONX","NY",10453,40.8481285,-73.9171344649999,28,"1715 NELSON AVENUE APARTMENT 2H, BRONX, NY, 10453","Match","Exact","1715 NELSON AVE, BRONX, NY, 10453",80299602,"L"
85029,"1715 OAK MEADOWS","CANYON LAKE","TX",78133,29.947196999,-98.27610672,29,"1715 OAK MEADOWS, CANYON LAKE, TX, 78133","Match","Exact","1715 OAK MEADOWS, CANYON LAKE, TX, 78133",72255782,"L"
85030,"1715 OCTAVIA ST","SAN FRANCISCO","CA",94109,37.787957502,-122.42688866,30,"1715 OCTAVIA ST, SAN FRANCISCO, CA, 94109","Match","Exact","1715 OCTAVIA ST, SAN FRANCISCO, CA, 94109",192280041,"L"
85031,"1715 PINE ST","MUSKEGON","MI",49442,43.2211878000001,-86.236725064,31,"1715 PINE ST, MUSKEGON, MI, 49442","Match","Exact","1715 PINE ST, MUSKEGON, MI, 49442",77651663,"R"
85032,"1715 PROSPECT AVE","HOOD RIVER","OR",97031,45.704763314,-121.52933309,32,"1715 PROSPECT AVE, HOOD RIVER, OR, 97031","Match","Exact","1715 PROSPECT AVE, HOOD RIVER, OR, 97031",158132764,"L"
85033,"1715 REX AVENUE APARTMENT 224","JOPLIN","MO",64801,37.0720649450001,-94.471581051,33,"1715 REX AVENUE APARTMENT 224, JOPLIN, MO, 64801","Match","Exact","1715 REX AVE, JOPLIN, MO, 64801",644995115,"L"
85034,"1715 RUSCH RD","CHAPEL HILL","NC",27516,35.957831674,-79.081104087,34,"1715 RUSCH RD, CHAPEL HILL, NC, 27516","Match","Exact","1715 RUSCH RD, CHAPEL HILL, NC, 27516",636771823,"R"
85035,"1715 RUTLAND PASS DR","LAWRENCEVILLE","GA",30045,33.959383663,-83.9107311819999,35,"1715 RUTLAND PASS DR, LAWRENCEVILLE, GA, 30045","Match","Non_Exact","1715 RUTLAND PASS DR SE, LAWRENCEVILLE, GA, 30045",628075166,"L"
85036,"1715 S CORONA ST","DENVER","CO",80210,39.685393096,-104.974608316,36,"1715 S CORONA ST, DENVER, CO, 80210","Match","Exact","1715 S CORONA ST, DENVER, CO, 80210",177332406,"R"
85037,"1715 S MISSOURI AVE","CLEARWATER","FL",33756,27.932887275,-82.7875189329999,37,"1715 S MISSOURI AVE, CLEARWATER, FL, 33756","Match","Non_Exact","1715 MISSOURI AVE S, CLEARWATER, FL, 33756",124777310,"L"
85038,"1715 S VERMONT AVE","BOISE","ID",83706,NA,NA,38,"1715 S VERMONT AVE, BOISE, ID, 83706","Tie",NA,NA,NA,NA
85039,"1715 SCHEFFER AVENUE","SAINT PAUL","MN",55116,44.9215698400001,-93.172827495,39,"1715 SCHEFFER AVENUE, SAINT PAUL, MN, 55116","Match","Non_Exact","1715 W SCHEFFER AVE, SAINT PAUL, MN, 55116",97646011,"R"
85040,"1715 SE 25TH ST","SALEM","OR",97302,44.9215465710001,-123.010550405,40,"1715 SE 25TH ST, SALEM, OR, 97302","Match","Non_Exact","1715 25TH ST SE, SALEM, OR, 97302",613683897,"R"
85041,"1715 SE 4TH AVENUE","FT LAUDERDALE","FL",33316,26.1001609320001,-80.138798575,41,"1715 SE 4TH AVENUE, FT LAUDERDALE, FL, 33316","Match","Non_Exact","1715 SE 4TH AVE, FORT LAUDERDALE, FL, 33316",639383869,"R"
85042,"1715 SIXTH STREET","BERKELEY","MN",94710,NA,NA,42,"1715 SIXTH STREET, BERKELEY, MN, 94710","No_Match",NA,NA,NA,NA
85043,"1715 STARGRASS DRIVE","GRAYSON","GA",30017,33.9131288990001,-83.9433194819999,43,"1715 STARGRASS DRIVE, GRAYSON, GA, 30017","Match","Exact","1715 STARGRASS DR, GRAYSON, GA, 30017",635555995,"L"
85044,"1715 TALON AVENUE","HENDERSON","NV",89074,36.0346669800001,-115.06130562,44,"1715 TALON AVENUE, HENDERSON, NV, 89074","Match","Exact","1715 TALON AVE, HENDERSON, NV, 89074",201911446,"L"
85045,"1715 TIMBERWOOD DRIVE","AUSTIN","TX",78741,30.227032749,-97.742764962,45,"1715 TIMBERWOOD DRIVE, AUSTIN, TX, 78741","Match","Exact","1715 TIMBERWOOD DR, AUSTIN, TX, 78741",64094965,"L"
85046,"1715 UNION VALLEY ROAD","WHITEVILLE","NC",28472,34.3557294190001,-78.747016945,46,"1715 UNION VALLEY ROAD, WHITEVILLE, NC, 28472","Match","Exact","1715 UNION VALLEY RD, WHITEVILLE, NC, 28472",64150235,"L"
85047,"1715 VALLEY STREAM DRIVE","NEWARK","DE",19702,39.646902895,-75.686322133,47,"1715 VALLEY STREAM DRIVE, NEWARK, DE, 19702","Match","Exact","1715 VALLEY STREAM DR, NEWARK, DE, 19702",635725278,"L"
85048,"1715 VASSAR DR NE","ALBUQUERQUE","NM",87106,35.103229507,-106.615063667,48,"1715 VASSAR DR NE, ALBUQUERQUE, NM, 87106","Match","Exact","1715 VASSAR DR NE, ALBUQUERQUE, NM, 87106",206709564,"L"
85049,"1715 VIBRANT GLEN","SAN JACINTO","CA",92582,33.813958073,-116.99287939,49,"1715 VIBRANT GLEN, SAN JACINTO, CA, 92582","Match","Exact","1715 VIBRANT GLEN, SAN JACINTO, CA, 92582",640898750,"L"
85050,"1715 VICKY LANE","GRAND PRAIRIE","TX",75053,32.6723568630001,-97.028737587,50,"1715 VICKY LANE, GRAND PRAIRIE, TX, 75053","Match","Non_Exact","1715 VICKY LN, GRAND PRAIRIE, TX, 75052",641679946,"L"
85051,"1715 VINE AVE","RIVERSIDE","IA",52327,NA,NA,51,"1715 VINE AVE, RIVERSIDE, IA, 52327","No_Match",NA,NA,NA,NA
85052,"1715 W 30TH ST","PUEBLO","CO",81008,38.2995122340001,-104.629689316,52,"1715 W 30TH ST, PUEBLO, CO, 81008","Match","Exact","1715 W 30TH ST, PUEBLO, CO, 81008",105065164,"R"
85053,"1715 W 33RD ST","CHICAGO","IL",60608,41.834127413,-87.668681095,53,"1715 W 33RD ST, CHICAGO, IL, 60608","Match","Exact","1715 W 33RD ST, CHICAGO, IL, 60608",604988291,"L"
85054,"1715 W 37TH","PINE BLUFF","AR",71603,34.1920058430001,-92.019119519,54,"1715 W 37TH, PINE BLUFF, AR, 71603","Match","Non_Exact","1715 W 37TH AVE, PINE BLUFF, AR, 71603",2553745,"R"
85055,"1715 WEBER ST","ORLANDO","FL",32803,28.558592,-81.359075939,55,"1715 WEBER ST, ORLANDO, FL, 32803","Match","Exact","1715 WEBER ST, ORLANDO, FL, 32803",94282159,"L"
85056,"1715 WILDWOOD ST","CORINTH","TX",76210,33.1519170660001,-97.0642563009999,56,"1715 WILDWOOD ST, CORINTH, TX, 76210","Match","Non_Exact","1715 WILDWOOD DR, CORINTH, TX, 76210",650506668,"R"
85057,"1715 WOODLAND DR","CHARLOTTE","NC",28205,35.207328599,-80.7817372599999,57,"1715 WOODLAND DR, CHARLOTTE, NC, 28205","Match","Exact","1715 WOODLAND DR, CHARLOTTE, NC, 28205",70491535,"L"
85058,"1715 WOODLAND DR","LAREDO","TX",78045,27.5983123820001,-99.465140876,58,"1715 WOODLAND DR, LAREDO, TX, 78045","Match","Exact","1715 WOODLAND DR, LAREDO, TX, 78045",21684118,"R"
85059,"17150 - 88TH AVE","COOPERSVILLE","MI",49404,NA,NA,59,"17150 - 88TH AVE, COOPERSVILLE, MI, 49404","No_Match",NA,NA,NA,NA
85060,"17150 ENCINA PATH","FARMINGTON","MN",55024,44.7016446060001,-93.175336852,60,"17150 ENCINA PATH, FARMINGTON, MN, 55024","Match","Exact","17150 ENCINA PATH, FARMINGTON, MN, 55024",625037037,"R"
85061,"17150 NE 19TH AVENUE","NORTH MIAMI BEACH","FL",33162,25.933843321,-80.1623372559999,61,"17150 NE 19TH AVENUE, NORTH MIAMI BEACH, FL, 33162","Match","Non_Exact","17150 NE 19TH AVE, N MIAMI BEACH, FL, 33162",116035777,"L"
85062,"17150 NEWHOPE STREET SUITE 215","FOUNTAIN VALLEY","CA",92708,33.714528897,-117.928400194,62,"17150 NEWHOPE STREET SUITE 215, FOUNTAIN VALLEY, CA, 92708","Match","Exact","17150 NEWHOPE ST, FOUNTAIN VALLEY, CA, 92708",650171368,"L"
85063,"17150 NORTHCREST CIRCLE","NEW CANEY","TX",77357,30.1997541580001,-95.2160559179999,63,"17150 NORTHCREST CIRCLE, NEW CANEY, TX, 77357","Match","Exact","17150 NORTHCREST CIR, NEW CANEY, TX, 77357",79336166,"L"
85064,"17150 NORWALK BLVD STE 111","CERRITOS","CA",90703,33.875307687,-118.072595551,64,"17150 NORWALK BLVD STE 111, CERRITOS, CA, 90703","Match","Exact","17150 NORWALK BLVD, CERRITOS, CA, 90703",141802773,"L"
85065,"17150 NORWALK BLVD SUITE 101","CERRITOS","CA",90703,33.875307687,-118.072595551,65,"17150 NORWALK BLVD SUITE 101, CERRITOS, CA, 90703","Match","Exact","17150 NORWALK BLVD, CERRITOS, CA, 90703",141802773,"L"
85066,"17150 UNIVERSITY AVE STE 300","SANDY","OR",97055,45.3994031170001,-122.274399688,66,"17150 UNIVERSITY AVE STE 300, SANDY, OR, 97055","Match","Exact","17150 UNIVERSITY AVE, SANDY, OR, 97055",157896153,"R"
85067,"17151 SUNFLOWER LANE","TOWNSEND","WI",54175,NA,NA,67,"17151 SUNFLOWER LANE, TOWNSEND, WI, 54175","No_Match",NA,NA,NA,NA
85068,"17152 SHADOAN WAY","WESTFIELD","IN",46074,40.038216973,-86.1097194129999,68,"17152 SHADOAN WAY, WESTFIELD, IN, 46074","Match","Exact","17152 SHADOAN WAY, WESTFIELD, IN, 46074",29321852,"R"
85069,"17153 ANTIOCH RD","WHITE CITY","OR",97503,42.5582514380001,-122.91650687,69,"17153 ANTIOCH RD, WHITE CITY, OR, 97503","Match","Exact","17153 ANTIOCH RD, WHITE CITY, OR, 97503",642907845,"L"
85070,"17154 BEAVER SPRINGS DRIVE","HOUSTON","TX",77090,30.0143586310001,-95.4560489739999,70,"17154 BEAVER SPRINGS DRIVE, HOUSTON, TX, 77090","Match","Exact","17154 BEAVER SPRINGS DR, HOUSTON, TX, 77090",96576694,"R"
85071,"17154 SUMMER HOLLOW","SUGAR LAND","TX",77498,29.634990542,-95.677925731,71,"17154 SUMMER HOLLOW, SUGAR LAND, TX, 77498","Match","Non_Exact","17154 SUMMER HOLLOW DR, SUGAR LAND, TX, 77498",78329873,"L"
85072,"17155 CARROLL LAKE DR","SPRING","TX",77379,30.013538371,-95.550030425,72,"17155 CARROLL LAKE DR, SPRING, TX, 77379","Match","Exact","17155 CARROLL LAKE DR, SPRING, TX, 77379",96165903,"L"
85073,"17155 NW US HWY 441","HIGH SPRINGS","FL",32643,29.8119614,-82.562299259,73,"17155 NW US HWY 441, HIGH SPRINGS, FL, 32643","Match","Exact","17155 US HWY 441, HIGH SPRINGS, FL, 32643",648283532,"R"
85074,"17155 TURIN RDG","SAN ANTONIO","TX",78255,29.6047620680001,-98.651039279,74,"17155 TURIN RDG, SAN ANTONIO, TX, 78255","Match","Exact","17155 TURIN RIDGE, SAN ANTONIO, TX, 78255",619995165,"R"
85075,"17156 EAST BERRY PLACE","CENTENNIAL","CO",80015,39.615399574,-104.788720855,75,"17156 EAST BERRY PLACE, CENTENNIAL, CO, 80015","Match","Exact","17156 E BERRY PL, CENTENNIAL, CO, 80015",177359706,"R"
85076,"17156 WEST ECHO LANE","WADDELL","AZ",85355,33.5581577900001,-112.429115709,76,"17156 WEST ECHO LANE, WADDELL, AZ, 85355","Match","Exact","17156 W ECHO LN, WADDELL, AZ, 85355",646902784,"L"
85077,"17159 BUFFALO VALLEY PATH","MONUMENT","CO",80132,39.0774658810001,-104.866743661,77,"17159 BUFFALO VALLEY PATH, MONUMENT, CO, 80132","Match","Exact","17159 BUFFALO VALLEY PATH, MONUMENT, CO, 80132",105572258,"L"
85078,"1715K S RUTHERFORD BLVD 222","MURFREESBORO","TN",37130,35.8125604150001,-86.36607528,78,"1715K S RUTHERFORD BLVD 222, MURFREESBORO, TN, 37130","Match","Exact","1715 S RUTHERFORD BLVD, MURFREESBORO, TN, 37130",59033080,"R"
85079,"1716 66TH AVENUE DRIVE EAST","SARASOTA","FL",34243,27.4234245550001,-82.543556165,79,"1716 66TH AVENUE DRIVE EAST, SARASOTA, FL, 34243","Match","Exact","1716 66TH AVENUE DR E, SARASOTA, FL, 34243",16273139,"R"
85080,"1716 ALPINE MEADOWS LN UNIT 307","PRESCOTT","AZ",86303,34.535694305,-112.498452725,80,"1716 ALPINE MEADOWS LN UNIT 307, PRESCOTT, AZ, 86303","Match","Exact","1716 ALPINE MEADOWS LN, PRESCOTT, AZ, 86303",159536079,"R"
85081,"1716 BIGLEY AVE","CHARLESTON","WV",25302,38.362602915,-81.618189683,81,"1716 BIGLEY AVE, CHARLESTON, WV, 25302","Match","Exact","1716 BIGLEY AVE, CHARLESTON, WV, 25302",78647349,"R"
85082,"1716 BIGLEY AVENUE","CHARLESTON","WV",25302,38.362602915,-81.618189683,82,"1716 BIGLEY AVENUE, CHARLESTON, WV, 25302","Match","Exact","1716 BIGLEY AVE, CHARLESTON, WV, 25302",78647349,"R"
85083,"1716 BIRCH LANE","CORINTH","TX",76210,33.1400020560001,-97.083086027,83,"1716 BIRCH LANE, CORINTH, TX, 76210","Match","Exact","1716 BIRCH LN, CORINTH, TX, 76210",103386565,"L"
85084,"1716 BORDER STREET","PENSACOLA","FL",32505,30.432873139,-87.263597241,84,"1716 BORDER STREET, PENSACOLA, FL, 32505","Match","Exact","1716 BORDER ST, PENSACOLA, FL, 32505",93214708,"R"
85085,"1716 BRIARCREST DRIVE FLR3","BRYAN","TX",77802,30.652673733,-96.3394059459999,85,"1716 BRIARCREST DRIVE FLR3, BRYAN, TX, 77802","Match","Exact","1716 BRIARCREST DR, BRYAN, TX, 77802",21815631,"R"
85086,"1716 CANDLEWOOD RIDGE LANE","MATTHEWS","NC",28105,35.0801641790001,-80.719853915,86,"1716 CANDLEWOOD RIDGE LANE, MATTHEWS, NC, 28105","Match","Exact","1716 CANDLEWOOD RIDGE LN, MATTHEWS, NC, 28105",616611333,"R"
85087,"1716 CARTOWN ROAD","ADDISON","NY",14801,42.0824588580001,-77.267608173,87,"1716 CARTOWN ROAD, ADDISON, NY, 14801","Match","Exact","1716 CARTOWN RD, ADDISON, NY, 14801",14761258,"R"
85088,"1716 CATTAIL WOODS LN","WOODBINE","MD",21797,39.3253821500001,-77.0756732679999,88,"1716 CATTAIL WOODS LN, WOODBINE, MD, 21797","Match","Exact","1716 CATTAIL WOODS LN, WOODBINE, MD, 21797",158937537,"R"
85089,"1716 CHILHOWIE CIRCLE","VIRIGNIA BEACH","VA",23464,36.7855190920001,-76.165978464,89,"1716 CHILHOWIE CIRCLE, VIRIGNIA BEACH, VA, 23464","Match","Non_Exact","1716 CHILHOWIE CIR, VIRGINIA BCH, VA, 23464",122279335,"L"
85090,"1716 CLEARVIEW COURT","FORT COLLINS","CO",80521,40.5725201720001,-105.108643651,90,"1716 CLEARVIEW COURT, FORT COLLINS, CO, 80521","Match","Exact","1716 CLEARVIEW CT, FORT COLLINS, CO, 80521",188490525,"R"
85091,"1716 COUNTY ROAD 236","CLYDE","OH",43410,41.2975976550001,-83.008798341,91,"1716 COUNTY ROAD 236, CLYDE, OH, 43410","Match","Exact","1716 CO RD 236, CLYDE, OH, 43410",38670751,"L"
85092,"1716 DAIRY FARM COURT","HENRICO","VA",23231,37.486005952,-77.386129384,92,"1716 DAIRY FARM COURT, HENRICO, VA, 23231","Match","Exact","1716 DAIRY FARM CT, HENRICO, VA, 23231",636812366,"L"
85093,"1716 DAVDON RD","DECORAH","IA",52101,43.2783051370001,-91.736393101,93,"1716 DAVDON RD, DECORAH, IA, 52101","Match","Exact","1716 DAVDON RD, DECORAH, IA, 52101",27517226,"L"
85094,"1716 DAVINCI LANE","CLARKS SUMMIT","PA",18411,41.465017914,-75.722613494,94,"1716 DAVINCI LANE, CLARKS SUMMIT, PA, 18411","Match","Exact","1716 DAVINCI LN, CLARKS SUMMIT, PA, 18411",139347203,"R"
85095,"1716 DONEGAL DRIVE","CANTONMENT","FL",32533,30.5699046440001,-87.2726608309999,95,"1716 DONEGAL DRIVE, CANTONMENT, FL, 32533","Match","Exact","1716 DONEGAL DR, CANTONMENT, FL, 32533",93264465,"L"
85096,"1716 EAGLES PINE CIRCLE","EAGLE LAKE","FL",33939,NA,NA,96,"1716 EAGLES PINE CIRCLE, EAGLE LAKE, FL, 33939","No_Match",NA,NA,NA,NA
85097,"1716 EAST PITTS LANE","MURFREESBORO","TN",37130,35.8862958730001,-86.335048654,97,"1716 EAST PITTS LANE, MURFREESBORO, TN, 37130","Match","Exact","1716 E PITTS LN, MURFREESBORO, TN, 37130",636570805,"L"
85098,"1716 EMILY HOPE DR","CHARLOTTE","NC",28214,35.3108625850001,-80.955255877,98,"1716 EMILY HOPE DR, CHARLOTTE, NC, 28214","Match","Exact","1716 EMILY HOPE DR, CHARLOTTE, NC, 28214",70598438,"R"
85099,"1716 FRANKLIN ST SE","OLYMPIA","WA",98501,47.0328298430001,-122.898281077,99,"1716 FRANKLIN ST SE, OLYMPIA, WA, 98501","Match","Exact","1716 FRANKLIN ST SE, OLYMPIA, WA, 98501",180944405,"L"
85100,"1716 HANNAFORD","GREENSBORO","NC",27401,36.0508093450001,-79.767284269,100,"1716 HANNAFORD, GREENSBORO, NC, 27401","Match","Non_Exact","1716 HANNAFORD RD, GREENSBORO, NC, 27401",131075176,"R"
85101,"1716 HUDSON ST NW","OLYMPIA","WA",98502,NA,NA,101,"1716 HUDSON ST NW, OLYMPIA, WA, 98502","No_Match",NA,NA,NA,NA
85102,"1716 Irwin Street","BEAVER COUNTY","PA",15001,40.606596906,-80.270662481,102,"1716 Irwin Street, BEAVER COUNTY, PA, 15001","Match","Non_Exact","1716 IRWIN ST, MACARTHUR, PA, 15001",52566937,"R"
85103,"1716 L STREET","SACRAMENTO","CA",95811,38.575472856,-121.484547493,103,"1716 L STREET, SACRAMENTO, CA, 95811","Match","Exact","1716 L ST, SACRAMENTO, CA, 95811",133324198,"R"
85104,"1716 LAKE RD","MEDWAY","OH",45341,39.894851481,-84.020772795,104,"1716 LAKE RD, MEDWAY, OH, 45341","Match","Non_Exact","1716 N LAKE RD, MEDWAY, OH, 45341",135013484,"R"
85105,"1716 LAS LOMAS NE","ALBUQUERQUE","NM",87106,NA,NA,105,"1716 LAS LOMAS NE, ALBUQUERQUE, NM, 87106","Tie",NA,NA,NA,NA
85106,"1716 MARGARET COURT","MCHENRY","IL",60051,42.3526677580001,-88.234822917,106,"1716 MARGARET COURT, MCHENRY, IL, 60051","Match","Exact","1716 MARGARET CT, MCHENRY, IL, 60051",119865013,"L"
85107,"1716 N 10TH STREET","BOISE","ID",83702,43.6303861480001,-116.199862845,107,"1716 N 10TH STREET, BOISE, ID, 83702","Match","Exact","1716 N 10TH ST, BOISE, ID, 83702",117860023,"R"
85108,"1716 N ELLAMONT STREET","BALTIMORE","MD",21216,39.307261759,-76.670849721,108,"1716 N ELLAMONT STREET, BALTIMORE, MD, 21216","Match","Exact","1716 N ELLAMONT ST, BALTIMORE, MD, 21216",206414035,"L"
85109,"1716 N MAIN ST A-256","LONGMONT","CO",80501,40.1891089220001,-105.10229838,109,"1716 N MAIN ST A-256, LONGMONT, CO, 80501","Match","Exact","1716 MAIN ST, LONGMONT, CO, 80501",220760078,"R"
85110,"1716 NISSON ROAD APT C","TUSTIN","CA",92780,33.7316369110001,-117.81345083,110,"1716 NISSON ROAD APT C, TUSTIN, CA, 92780","Match","Exact","1716 NISSON RD, TUSTIN, CA, 92780",616893456,"R"
85111,"1716 NORTH 42ND STREET","WACO","TX",76710,31.541048233,-97.1826436119999,111,"1716 NORTH 42ND STREET, WACO, TX, 76710","Match","Exact","1716 N 42ND ST, WACO, TX, 76710",146773847,"L"
85112,"1716 NORTH GLEN ELLYN STREET","INDEPENDENCE","MO",64056,39.1324790290001,-94.345521525,112,"1716 NORTH GLEN ELLYN STREET, INDEPENDENCE, MO, 64056","Match","Exact","1716 N GLEN ELLYN ST, INDEPENDENCE, MO, 64056",91481561,"R"
85113,"1716 NW 3 TERRACE APT 105","FLORIDA CITY","FL",33034,25.4513625650001,-80.50009923,113,"1716 NW 3 TERRACE APT 105, FLORIDA CITY, FL, 33034","Match","Non_Exact","1716 NW 3RD TER, FLORIDA CITY, FL, 33034",116269647,"R"
85114,"1716 PALOS VERDES DR W","PALOS VERDES ESTATES","CA",90274,33.782402405,-118.413840672,114,"1716 PALOS VERDES DR W, PALOS VERDES ESTATES, CA, 90274","Match","Exact","1716 PALOS VERDES DR W, PALOS VERDES ESTATES, CA, 90274",241195065,"L"
85115,"1716 RC WATSON RD","WENDELL","NC",27591,35.851146913,-78.469892809,115,"1716 RC WATSON RD, WENDELL, NC, 27591","Match","Non_Exact","1716 R C WATSON RD, WENDELL, NC, 27591",208377292,"R"
85116,"1716 RIALTO WAY","JUSTIN","TX",76247,33.044825421,-97.322653115,116,"1716 RIALTO WAY, JUSTIN, TX, 76247","Match","Exact","1716 RIALTO WAY, JUSTIN, TX, 76247",637612777,"L"
85117,"1716 SAINT HELENS AVENUE","BAKERSFIELD","CA",93304,35.312055634,-119.022889592,117,"1716 SAINT HELENS AVENUE, BAKERSFIELD, CA, 93304","Match","Exact","1716 SAINT HELENS AVE, BAKERSFIELD, CA, 93304",109422490,"L"
85118,"1716 SECRETARIAT LANE","RACINE","WI",53402,42.788592995,-87.799324718,118,"1716 SECRETARIAT LANE, RACINE, WI, 53402","Match","Exact","1716 SECRETARIAT LN, RACINE, WI, 53402",77905820,"L"
85119,"1716 SHOEBILL DR","LITTLE ELM","TX",75068,33.2098869070001,-96.935267765,119,"1716 SHOEBILL DR, LITTLE ELM, TX, 75068","Match","Exact","1716 SHOEBILL DR, LITTLE ELM, TX, 75068",627285250,"R"
85120,"1716 ST IVES CROSSING","STOCKBRIDGE","GA",30281,33.511332377,-84.2403049489999,120,"1716 ST IVES CROSSING, STOCKBRIDGE, GA, 30281","Match","Non_Exact","1716 ST IVES CT, STOCKBRIDGE, GA, 30281",619945006,"L"
85121,"1716 STRATFORD ST","LANCASTER","CA",93534,34.712681285,-118.16228132,121,"1716 STRATFORD ST, LANCASTER, CA, 93534","Match","Exact","1716 STRATFORD ST, LANCASTER, CA, 93534",141830851,"R"
85122,"1716 STRINE DRIVE","MCLEAN","VA",22101,38.9226785390001,-77.1597176659999,122,"1716 STRINE DRIVE, MCLEAN, VA, 22101","Match","Exact","1716 STRINE DR, MCLEAN, VA, 22101",215969035,"R"
85123,"1716 SW 14TH STREET","FORT LAUDERDALE","FL",33312,26.1041864150001,-80.164034794,123,"1716 SW 14TH STREET, FORT LAUDERDALE, FL, 33312","Match","Exact","1716 SW 14TH ST, FORT LAUDERDALE, FL, 33312",114726990,"L"
85124,"1716 TANGLEWOOD DR","AKRON","OH",44313,41.1182267840001,-81.573017224,124,"1716 TANGLEWOOD DR, AKRON, OH, 44313","Match","Exact","1716 TANGLEWOOD DR, AKRON, OH, 44313",61337583,"L"
85125,"1716 TERRELL MILL ROAD APT G10","MARIETTA","GA",30067,33.908894757,-84.486604035,125,"1716 TERRELL MILL ROAD APT G10, MARIETTA, GA, 30067","Match","Non_Exact","1716 TERRELL MILL RD SE, MARIETTA, GA, 30067",17252911,"R"
85126,"1716 TERRELL MILL ROAD SE APT B4","MARIETTA","GA",30067,33.908894757,-84.486604035,126,"1716 TERRELL MILL ROAD SE APT B4, MARIETTA, GA, 30067","Match","Exact","1716 TERRELL MILL RD SE, MARIETTA, GA, 30067",17252911,"R"
85127,"1716 UNIVERSITY BLVD","BIRMINGHAM","AL",35294,33.5030532110001,-86.802645403,127,"1716 UNIVERSITY BLVD, BIRMINGHAM, AL, 35294","Match","Non_Exact","1716 UNIVERSITY BLVD, BIRMINGHAM, AL, 35233",640314630,"L"
85128,"1716 W GLENOAKS AVE","ANAHEIM","CA",92801,33.8430590400001,-117.943142976,128,"1716 W GLENOAKS AVE, ANAHEIM, CA, 92801","Match","Exact","1716 W GLENOAKS AVE, ANAHEIM, CA, 92801",609067748,"L"
85129,"1716 W MAIN ST  STE 8G","BOZEMAN","MT",59715,45.679299186,-111.059907486,129,"1716 W MAIN ST  STE 8G, BOZEMAN, MT, 59715","Match","Non_Exact","1716 W MAIN ST, BOZEMAN, MT, 59715",163549998,"R"
85130,"1716 W MAIN STREET","GUN BARREL CITY","TX",75156,32.3309282810001,-96.144799085,130,"1716 W MAIN STREET, GUN BARREL CITY, TX, 75156","Match","Exact","1716 W MAIN ST, GUN BARREL CITY, TX, 75156",125793563,"R"
85131,"1716 W MAYFIELD RD","ARLINGTON","TX",76015,32.6921708880001,-97.136294958,131,"1716 W MAYFIELD RD, ARLINGTON, TX, 76015","Match","Exact","1716 W MAYFIELD RD, ARLINGTON, TX, 76015",101906898,"L"
85132,"1716 W ROBINSON ST APT A","NORMAN","OK",73069,35.232965129,-97.467814651,132,"1716 W ROBINSON ST APT A, NORMAN, OK, 73069","Match","Non_Exact","1716 W ROBINSON ST, NORMAN, OK, 73069",99948731,"L"
85133,"1716 WALKER DR","AMARILLO","TX",79107,35.2320986140001,-101.811925754,133,"1716 WALKER DR, AMARILLO, TX, 79107","Match","Exact","1716 WALKER DR, AMARILLO, TX, 79107",182466797,"R"
85134,"1716 WALTHALL CREEK DR","S CHESTERFIELD","VA",23834,37.3235838520001,-77.385430616,134,"1716 WALTHALL CREEK DR, S CHESTERFIELD, VA, 23834","Match","Exact","1716 WALTHALL CREEK DR, SOUTH CHESTERFIELD, VA, 23834",636672549,"R"
85135,"1716 WATLING DRIVE","MARRERO","LA",70072,29.8797380250001,-90.134701722,135,"1716 WATLING DRIVE, MARRERO, LA, 70072","Match","Exact","1716 WATLING DR, MARRERO, LA, 70072",93505622,"R"
85136,"1716 WEST AVE O4","PALMDALE","CA",93551,34.6127395190001,-118.161504669,136,"1716 WEST AVE O4, PALMDALE, CA, 93551","Match","Exact","1716 W AVE O4, PALMDALE, CA, 93551",141527196,"R"
85137,"1716 WICKLAND CT APT A","OWENSBORO","KY",42301,37.7257002690001,-87.136231507,137,"1716 WICKLAND CT APT A, OWENSBORO, KY, 42301","Match","Exact","1716 WICKLAND CT, OWENSBORO, KY, 42301",37560291,"L"
85138,"1716 WILDWOOD LANE","DARIEN","IN",60561,NA,NA,138,"1716 WILDWOOD LANE, DARIEN, IN, 60561","No_Match",NA,NA,NA,NA
85139,"1716 WINTERHAVEN CT","CLARKSVILLE","TN",37042,36.6173408540001,-87.3475638369999,139,"1716 WINTERHAVEN CT, CLARKSVILLE, TN, 37042","Match","Exact","1716 WINTERHAVEN CT, CLARKSVILLE, TN, 37042",645097182,"L"
85140,"17160 ANNOTT","DETROIT","MI",48205,42.4215957270001,-83.001635919,140,"17160 ANNOTT, DETROIT, MI, 48205","Match","Non_Exact","17160 ANNOTT ST, DETROIT, MI, 48205",95466803,"R"
85141,"17161 MARYLAND ST","SOUTHFIELD","MI",48075,42.4681243570001,-83.214078566,141,"17161 MARYLAND ST, SOUTHFIELD, MI, 48075","Match","Exact","17161 MARYLAND ST, SOUTHFIELD, MI, 48075",69740244,"L"
85142,"17161 PLAINVIEW AVE","DETROIT","MI",48219,42.41591972,-83.237152291,142,"17161 PLAINVIEW AVE, DETROIT, MI, 48219","Match","Exact","17161 PLAINVIEW AVE, DETROIT, MI, 48219",95422239,"L"
85143,"17162 RACCOON FORD ROAD","CULPEPER","VA",22701,38.364193975,-77.941990055,143,"17162 RACCOON FORD ROAD, CULPEPER, VA, 22701","Match","Exact","17162 RACCOON FORD RD, CULPEPER, VA, 22701",29852525,"L"
85144,"17163 E LIBERTY RD","MT VERNON","IL",62864,38.3066250470001,-88.828295521,144,"17163 E LIBERTY RD, MT VERNON, IL, 62864","Match","Exact","17163 E LIBERTY RD, MOUNT VERNON, IL, 62864",92872452,"L"
85145,"17164 GREENVIEW AVE","DETROIT","MI",48219,42.41643628,-83.2248050009999,145,"17164 GREENVIEW AVE, DETROIT, MI, 48219","Match","Exact","17164 GREENVIEW AVE, DETROIT, MI, 48219",95719953,"R"
85146,"17164 GREENVIEW","DETROIT","MI",48219,42.41643628,-83.2248050009999,146,"17164 GREENVIEW, DETROIT, MI, 48219","Match","Non_Exact","17164 GREENVIEW AVE, DETROIT, MI, 48219",95719953,"R"
85147,"17164","COVINGTON","KY",41017,NA,NA,147,"17164, COVINGTON, KY, 41017","No_Match",NA,NA,NA,NA
85148,"17165 COUNTY ROAD 136","TYLER","TX",75703,32.230112493,-95.35559195,148,"17165 COUNTY ROAD 136, TYLER, TX, 75703","Match","Exact","17165 CO RD 136, TYLER, TX, 75703",141306089,"R"
85149,"17168 CASSAVA WAY","BOCA RATON","FL",33487,26.4211752530001,-80.110919208,149,"17168 CASSAVA WAY, BOCA RATON, FL, 33487","Match","Exact","17168 CASSAVA WAY, BOCA RATON, FL, 33487",115317112,"R"
85150,"17169 ANNCHESTER ROAD","DETROIT","MI",48219,42.4160729050001,-83.234996898,150,"17169 ANNCHESTER ROAD, DETROIT, MI, 48219","Match","Exact","17169 ANNCHESTER RD, DETROIT, MI, 48219",95422242,"L"
85151,"17169 EASTWOOD AVENUE","FARMINGTON","MN",55024,44.7002170440001,-93.168723517,151,"17169 EASTWOOD AVENUE, FARMINGTON, MN, 55024","Match","Exact","17169 EASTWOOD AVE, FARMINGTON, MN, 55024",630140393,"R"
85152,"17169 HAWTHORNE AVE","FONTANA","CA",92335,34.081639352,-117.429763995,152,"17169 HAWTHORNE AVE, FONTANA, CA, 92335","Match","Exact","17169 HAWTHORNE AVE, FONTANA, CA, 92335",144645416,"R"
85153,"1716B SIMPKINS STREET","NASHVILLE","TN",37208,NA,NA,153,"1716B SIMPKINS STREET, NASHVILLE, TN, 37208","Tie",NA,NA,NA,NA
85154,"1717  BENEDICT CT","ROWLETT","TX",75088,32.8786015480001,-96.5553024869999,154,"1717  BENEDICT CT, ROWLETT, TX, 75088","Match","Exact","1717 BENEDICT CT, ROWLETT, TX, 75088",103270746,"R"
85155,"1717  I STREET","SACRAMENTO","CA",95811,38.5787715020001,-121.483119925,155,"1717  I STREET, SACRAMENTO, CA, 95811","Match","Exact","1717 I ST, SACRAMENTO, CA, 95811",133324188,"L"
85156,"1717 17TH STREET","PLANO","TX",75074,33.02169675,-96.6894423799999,156,"1717 17TH STREET, PLANO, TX, 75074","Match","Exact","1717 17TH ST, PLANO, TX, 75074",123490220,"L"
85157,"1717 24TH STREET","ORLANDO","FL",32805,28.5170056740001,-81.4036806939999,157,"1717 24TH STREET, ORLANDO, FL, 32805","Match","Exact","1717 24TH ST, ORLANDO, FL, 32805",94283188,"R"
85158,"1717 60TH ST","BROOKLYN","NY",11204,40.6230849080001,-73.988997415,158,"1717 60TH ST, BROOKLYN, NY, 11204","Match","Exact","1717 60TH ST, BROOKLYN, NY, 11204",59088361,"L"
85159,"1717 ALA AMOAMO PLACE","HONOLULU","HI",96819,21.3540373180001,-157.884080747,159,"1717 ALA AMOAMO PLACE, HONOLULU, HI, 96819","Match","Exact","1717 ALA AMOAMO PL, HONOLULU, HI, 96819",203234183,"R"
85160,"1717 ALLIED LN STE B","CHARLOTTESVILLE","VA",22903,38.0412602430001,-78.4794428019999,160,"1717 ALLIED LN STE B, CHARLOTTESVILLE, VA, 22903","Match","Exact","1717 ALLIED LN, CHARLOTTESVILLE, VA, 22903",83405770,"L"
85161,"1717 ALVORD STREET","INDIANAPOLIS","IN",46202,39.790619298,-86.1392242749999,161,"1717 ALVORD STREET, INDIANAPOLIS, IN, 46202","Match","Exact","1717 ALVORD ST, INDIANAPOLIS, IN, 46202",107990622,"R"
85162,"1717 ARDMORE ST","LAS VEGAS","NV",89104,36.1508799590001,-115.117927914,162,"1717 ARDMORE ST, LAS VEGAS, NV, 89104","Match","Exact","1717 ARDMORE ST, LAS VEGAS, NV, 89104",201868998,"L"
85163,"1717 BENEDICT COURT","ROWLETT","TX",75088,32.8786015480001,-96.5553024869999,163,"1717 BENEDICT COURT, ROWLETT, TX, 75088","Match","Exact","1717 BENEDICT CT, ROWLETT, TX, 75088",103270746,"R"
85164,"1717 BOOMER TRL","EDMOND","OK",73034,35.6713667020001,-97.4652469489999,164,"1717 BOOMER TRL, EDMOND, OK, 73034","Match","Exact","1717 BOOMER TRL, EDMOND, OK, 73034",100436438,"R"
85165,"1717 BRITTAIN RD SUITE 306","AKRON","OH",44310,41.1093324890001,-81.46610686,165,"1717 BRITTAIN RD SUITE 306, AKRON, OH, 44310","Match","Exact","1717 BRITTAIN RD, AKRON, OH, 44310",61350671,"R"
85166,"1717 BROADWAY ST NE","MINNEAPOLIS","MN",55413,44.998708332,-93.235618985,166,"1717 BROADWAY ST NE, MINNEAPOLIS, MN, 55413","Match","Exact","1717 BROADWAY ST NE, MINNEAPOLIS, MN, 55413",43637818,"L"
85167,"1717 BROADWAY STREET NE","MINNEAPOLIS","MN",55413,44.998708332,-93.235618985,167,"1717 BROADWAY STREET NE, MINNEAPOLIS, MN, 55413","Match","Exact","1717 BROADWAY ST NE, MINNEAPOLIS, MN, 55413",43637818,"L"
85168,"1717 BRYANT AVE APT 2E","BRONX","NY",10460,40.835764645,-73.885542578,168,"1717 BRYANT AVE APT 2E, BRONX, NY, 10460","Match","Exact","1717 BRYANT AVE, BRONX, NY, 10460",80301896,"L"
85169,"1717 CANDLER WAY","AUBURN","AL",36830,32.571064295,-85.448034563,169,"1717 CANDLER WAY, AUBURN, AL, 36830","Match","Exact","1717 CANDLER WAY, AUBURN, AL, 36830",601667561,"L"
85170,"1717 CANTON AVE","MILTON","MA",2186,42.224387785,-71.11604959,170,"1717 CANTON AVE, MILTON, MA, 2186","Match","Exact","1717 CANTON AVE, MILTON, MA, 02186",87309036,"R"
85171,"1717 CENTENNIAL BLVD SUITE 12","SPRINGFIELD","OR",97477,44.056135559,-122.999707197,171,"1717 CENTENNIAL BLVD SUITE 12, SPRINGFIELD, OR, 97477","Match","Exact","1717 CENTENNIAL BLVD, SPRINGFIELD, OR, 97477",178173433,"R"
85172,"1717 CLOISTER DRIVE","HENRICO","VA",23238,37.6131991870001,-77.617478074,172,"1717 CLOISTER DRIVE, HENRICO, VA, 23238","Match","Exact","1717 CLOISTER DR, HENRICO, VA, 23238",106642363,"R"
85173,"1717 COUNTY RD 220 UNIT 3704","FLEMING ISLAND","FL",32003,30.1020851110001,-81.7265809899999,173,"1717 COUNTY RD 220 UNIT 3704, FLEMING ISLAND, FL, 32003","Match","Exact","1717 CO RD 220, FLEMING ISLAND, FL, 32003",83815533,"R"
85174,"1717 COUNTY ROAD 220 UNIT 1608","FLEMING ISLAND","FL",32003,30.1020851110001,-81.7265809899999,174,"1717 COUNTY ROAD 220 UNIT 1608, FLEMING ISLAND, FL, 32003","Match","Exact","1717 CO RD 220, FLEMING ISLAND, FL, 32003",83815533,"R"
85175,"1717 DIXIE HIGHWAY - SUITE 910","COVINGTON","KY",41011,39.061365837,-84.54008606,175,"1717 DIXIE HIGHWAY - SUITE 910, COVINGTON, KY, 41011","Match","Exact","1717 DIXIE HWY, COVINGTON, KY, 41011",103875434,"L"
85176,"1717 E 9TH STREET SUITE 1005","CLEVELAND","OH",44114,41.5019516720001,-81.68826988,176,"1717 E 9TH STREET SUITE 1005, CLEVELAND, OH, 44114","Match","Non_Exact","1717 E 9TH ST, CLEVELAND, OH, 44114",61110527,"L"
85177,"1717 E BELTLINE RD APT 721","COPPELLE","TX",75019,NA,NA,177,"1717 E BELTLINE RD APT 721, COPPELLE, TX, 75019","Tie",NA,NA,NA,NA
85178,"1717 E BIRCH STREET CC108","BREA","CA",92821,NA,NA,178,"1717 E BIRCH STREET CC108, BREA, CA, 92821","No_Match",NA,NA,NA,NA
85179,"1717 E BUSCH BLVD UNIT 720","TAMPA","FL",33612,28.0325864010001,-82.439906268,179,"1717 E BUSCH BLVD UNIT 720, TAMPA, FL, 33612","Match","Non_Exact","1717 E BUSCH BLVD, TAMPA, FL, 33612",104612027,"R"
85180,"1717 E PEBBLE BEACH DR","TEMPE","AZ",85282,33.389860211,-111.911061597,180,"1717 E PEBBLE BEACH DR, TEMPE, AZ, 85282","Match","Exact","1717 E PEBBLE BEACH DR, TEMPE, AZ, 85282",128232449,"R"
85181,"1717 E REPUBLIC ROAD  SUITE A","SPRINGFIELD","MO",65804,37.137377304,-93.264557106,181,"1717 E REPUBLIC ROAD  SUITE A, SPRINGFIELD, MO, 65804","Match","Non_Exact","1717 E REPUBLIC RD, SPRINGFIELD, MO, 65804",605904230,"L"
85182,"1717 E REPUBLIC ROAD SUITE A","SPRINGFIELD","MO",65804,37.137377304,-93.264557106,182,"1717 E REPUBLIC ROAD SUITE A, SPRINGFIELD, MO, 65804","Match","Non_Exact","1717 E REPUBLIC RD, SPRINGFIELD, MO, 65804",605904230,"L"
85183,"1717 E THOMAS ST UPPR","SEATTLE","WA",98112,47.6204839650001,-122.309768954,183,"1717 E THOMAS ST UPPR, SEATTLE, WA, 98112","Match","Non_Exact","1717 E THOMAS ST, SEATTLE, WA, 98112",186587657,"R"
85184,"1717 E VISTA WAY SUITE 205","VISTA","CA",92084,33.2253633380001,-117.22617415,184,"1717 E VISTA WAY SUITE 205, VISTA, CA, 92084","Match","Non_Exact","1717 E VISTA WAY, VISTA, CA, 92084",195288692,"R"
85185,"1717 EAST 5TH AVENUE","TAMPA","FL",33605,27.9588250190001,-82.440195436,185,"1717 EAST 5TH AVENUE, TAMPA, FL, 33605","Match","Exact","1717 E 5TH AVE, TAMPA, FL, 33605",104636898,"R"
85186,"1717 EAST 9TH STREET SUITE 1405","CLEVELAND","OH",44114,41.501954246,-81.6882723749999,186,"1717 EAST 9TH STREET SUITE 1405, CLEVELAND, OH, 44114","Match","Exact","1717 E 9TH ST, CLEVELAND, OH, 44114",61110527,"L"
85187,"1717 EAST CAPITOL ST SE 151","WASHINGTON","DC",20003,38.8897960310001,-76.980375984,187,"1717 EAST CAPITOL ST SE 151, WASHINGTON, DC, 20003","Match","Exact","1717 E CAPITOL ST SE, WASHINGTON, DC, 20003",76230521,"R"
85188,"1717 EASTERN AVE","BALTIMORE","MD",21231,39.2856308130001,-76.592419246,188,"1717 EASTERN AVE, BALTIMORE, MD, 21231","Match","Exact","1717 EASTERN AVE, BALTIMORE, MD, 21231",206424627,"R"
85189,"1717 ELSIE PARK COURT","KISSIMMEE","FL",34744,28.3063741020001,-81.3323419829999,189,"1717 ELSIE PARK COURT, KISSIMMEE, FL, 34744","Match","Exact","1717 ELSIE PARK CT, KISSIMMEE, FL, 34744",640246423,"L"
85190,"1717 EMMA LANE","MOHEGAN LAKE","NY",10547,41.329499303,-73.8574291739999,190,"1717 EMMA LANE, MOHEGAN LAKE, NY, 10547","Match","Exact","1717 EMMA LN, MOHEGAN LAKE, NY, 10547",633944538,"R"
85191,"1717 EMPIRE BOULEVARD","WEBSTER","NY",14580,43.1853374550001,-77.5063172009999,191,"1717 EMPIRE BOULEVARD, WEBSTER, NY, 14580","Match","Exact","1717 EMPIRE BLVD, WEBSTER, NY, 14580",14559417,"L"
85192,"1717 FISH HATCHERY ROAD","MADISON","WI",53713,43.0484152240001,-89.4013425369999,192,"1717 FISH HATCHERY ROAD, MADISON, WI, 53713","Match","Exact","1717 FISH HATCHERY RD, MADISON, WI, 53713",49557006,"L"
85193,"1717 FOURTH ST THIRD FL","SANTA MONICA","CA",90401,34.011670424,-118.489570718,193,"1717 FOURTH ST THIRD FL, SANTA MONICA, CA, 90401","Match","Exact","1717 4TH ST, SANTA MONICA, CA, 90401",241239332,"L"
85194,"1717 GANGES AVENUE","EL CERRITO","CA",94530,37.9255234280001,-122.308892023,194,"1717 GANGES AVENUE, EL CERRITO, CA, 94530","Match","Exact","1717 GANGES AVE, EL CERRITO, CA, 94530",192043291,"L"
85195,"1717 GERVAIS ST SUITE 201","COLUMBIA","SC",29201,34.0038905600001,-81.025183151,195,"1717 GERVAIS ST SUITE 201, COLUMBIA, SC, 29201","Match","Exact","1717 GERVAIS ST, COLUMBIA, SC, 29201",71820874,"L"
85196,"1717 GERVAIS STREET SUITE 201","COLUMBIA","SC",29201,34.0038905600001,-81.025183151,196,"1717 GERVAIS STREET SUITE 201, COLUMBIA, SC, 29201","Match","Exact","1717 GERVAIS ST, COLUMBIA, SC, 29201",71820874,"L"
85197,"1717 HANCOCK AVENUE","NORFOLK","VA",23509,36.8716295500001,-76.2695313789999,197,"1717 HANCOCK AVENUE, NORFOLK, VA, 23509","Match","Exact","1717 HANCOCK AVE, NORFOLK, VA, 23509",122123672,"R"
85198,"1717 HEATHROW AVE","CASPER","WY",82609,42.8293090860001,-106.271058991,198,"1717 HEATHROW AVE, CASPER, WY, 82609","Match","Exact","1717 HEATHROW AVE, CASPER, WY, 82609",617963142,"L"
85199,"1717 HOMEWOOD BLVD APT 187","DELRAY BEACH","FL",33445,26.4391641660001,-80.101517972,199,"1717 HOMEWOOD BLVD APT 187, DELRAY BEACH, FL, 33445","Match","Exact","1717 HOMEWOOD BLVD, DELRAY BEACH, FL, 33445",115291241,"L"
85200,"1717 HOMEWOOD BLVD","DELRAY BEACH","FL",33445,26.4391641660001,-80.101517972,200,"1717 HOMEWOOD BLVD, DELRAY BEACH, FL, 33445","Match","Exact","1717 HOMEWOOD BLVD, DELRAY BEACH, FL, 33445",115291241,"L"
85201,"1717 HOWARD ST","EVANSTON","IL",60202,42.0193873790001,-87.697167435,201,"1717 HOWARD ST, EVANSTON, IL, 60202","Match","Exact","1717 HOWARD ST, EVANSTON, IL, 60202",112375961,"R"
85202,"1717 IKE STONE ROAD","MONROE","GA",30656,33.8484093070001,-83.693138453,202,"1717 IKE STONE ROAD, MONROE, GA, 30656","Match","Exact","1717 IKE STONE RD, MONROE, GA, 30656",649919319,"R"
85203,"1717 INDEPENDENCE AVENUE SE UNIT B","WASHINGTON","DC",20003,38.887585093,-76.980376856,203,"1717 INDEPENDENCE AVENUE SE UNIT B, WASHINGTON, DC, 20003","Match","Exact","1717 INDEPENDENCE AVE SE, WASHINGTON, DC, 20003",76230530,"R"
85204,"1717 INDIAN ROCKS RD","BELLEAIR","FL",33756,27.9267220670001,-82.811315308,204,"1717 INDIAN ROCKS RD, BELLEAIR, FL, 33756","Match","Exact","1717 INDIAN ROCKS RD, BELLEAIR, FL, 33756",124671248,"L"
85205,"1717 JEFFERSON AVE","COLUMBUS","OH",43211,39.9996384310001,-82.982772546,205,"1717 JEFFERSON AVE, COLUMBUS, OH, 43211","Match","Exact","1717 JEFFERSON AVE, COLUMBUS, OH, 43211",218690484,"L"
85206,"1717 K STREET NW STE 900","WASHINGTON","DC",20006,38.902530261,-77.039622675,206,"1717 K STREET NW STE 900, WASHINGTON, DC, 20006","Match","Exact","1717 K ST NW, WASHINGTON, DC, 20006",76225662,"R"
85207,"1717 LESTER PLACE","PISCCATAWAY","NJ",8854,40.5916300530001,-74.447808258,207,"1717 LESTER PLACE, PISCCATAWAY, NJ, 8854","Match","Non_Exact","1717 LESTER PL, PISCATAWAY, NJ, 08854",60259724,"L"
85208,"1717 LITTLE CREEK LN","KNOXVILLE","TN",37922,35.8759633830001,-84.050215065,208,"1717 LITTLE CREEK LN, KNOXVILLE, TN, 37922","Match","Exact","1717 LITTLE CREEK LN, KNOXVILLE, TN, 37922",643334230,"R"
85209,"1717 LONGVIEW DRIVE","BATON ROUGE","LA",70806,30.4337942380001,-91.094473399,209,"1717 LONGVIEW DRIVE, BATON ROUGE, LA, 70806","Match","Exact","1717 LONGVIEW DR, BATON ROUGE, LA, 70806",92189969,"L"
85210,"1717 LYNWOOD DRIVE","CHAMPAIGN","IL",61821,40.0946011930001,-88.259952936,210,"1717 LYNWOOD DRIVE, CHAMPAIGN, IL, 61821","Match","Exact","1717 LYNWOOD DR, CHAMPAIGN, IL, 61821",652585763,"R"
85211,"1717 MADISON AVE NUMBER 4","LOVELAND","CO",80538,40.4105141140001,-105.058708983,211,"1717 MADISON AVE NUMBER 4, LOVELAND, CO, 80538","Match","Non_Exact","1717 N MADISON AVE, LOVELAND, CO, 80538",188485468,"L"
85212,"1717 MADISON ST SE","GRAND RAPIDS","MI",49507,42.9322129500001,-85.658313347,212,"1717 MADISON ST SE, GRAND RAPIDS, MI, 49507","Match","Non_Exact","1717 MADISON AVE SE, GRAND RAPIDS, MI, 49507",12459189,"R"
85213,"1717 MCKINNEY AVE SUITE 700","DALLAS","TX",75202,32.7879385270001,-96.804444346,213,"1717 MCKINNEY AVE SUITE 700, DALLAS, TX, 75202","Match","Exact","1717 MCKINNEY AVE, DALLAS, TX, 75202",102909710,"L"
85214,"1717 MOTT-SMITH DRIVE APT 2704","HONOLULU","HI",96822,21.3086037470001,-157.837567986,214,"1717 MOTT-SMITH DRIVE APT 2704, HONOLULU, HI, 96822","Match","Non_Exact","1717 MOTT SMITH DR, HONOLULU, HI, 96822",647557208,"R"
85215,"1717 N AKARD ST 2510","DALLAS","TX",75210,NA,NA,215,"1717 N AKARD ST 2510, DALLAS, TX, 75210","No_Match",NA,NA,NA,NA
85216,"1717 N BAYSHORE DR PD 40","MIAMI","FL",33132,25.79136299,-80.1870932699999,216,"1717 N BAYSHORE DR PD 40, MIAMI, FL, 33132","Match","Non_Exact","1717 N BAYSHORE DR, MIAMI, FL, 33132",610854697,"R"
85217,"1717 N BAYSHORE DR SUITE 203","MIAMI","FL",33132,25.79136299,-80.1870932699999,217,"1717 N BAYSHORE DR SUITE 203, MIAMI, FL, 33132","Match","Non_Exact","1717 N BAYSHORE DR, MIAMI, FL, 33132",610854697,"R"
85218,"1717 N DAMEN AVE UNIT 3","CHICAGO","IL",60647,41.912841149,-87.677507572,218,"1717 N DAMEN AVE UNIT 3, CHICAGO, IL, 60647","Match","Non_Exact","1717 N DAMEN AVE, CHICAGO, IL, 60647",111764179,"R"
85219,"1717 N HWY 20","CANNON FALLS","MN",55009,44.521636298,-92.9090338839999,219,"1717 N HWY 20, CANNON FALLS, MN, 55009","Match","Non_Exact","1717 STATE HWY 20, CANNON FALLS, MN, 55009",31565361,"L"
85220,"1717 N LAKE AVE","PASADENA","CA",91104,34.1753919080001,-118.131961297,220,"1717 N LAKE AVE, PASADENA, CA, 91104","Match","Exact","1717 N LAKE AVE, PASADENA, CA, 91104",141628817,"L"
85221,"1717 N NATCHEZ AVE","CHICAGO","IL",60707,41.9113195560001,-87.788326336,221,"1717 N NATCHEZ AVE, CHICAGO, IL, 60707","Match","Exact","1717 N NATCHEZ AVE, CHICAGO, IL, 60707",111752527,"R"
85222,"1717 N ST NW STE 1","WASHINGTON","DC",20036,38.9072492870001,-77.0392111259999,222,"1717 N ST NW STE 1, WASHINGTON, DC, 20036","Match","Exact","1717 N ST NW, WASHINGTON, DC, 20036",76225601,"R"
85223,"1717 N STREET NW STE 1","WASHINGTON","DC",20036,38.9072492870001,-77.0392111259999,223,"1717 N STREET NW STE 1, WASHINGTON, DC, 20036","Match","Exact","1717 N ST NW, WASHINGTON, DC, 20036",76225601,"R"
85224,"1717 N STREET NW SUITE 1","WASHINGTON","DC",20036,38.9072492870001,-77.0392111259999,224,"1717 N STREET NW SUITE 1, WASHINGTON, DC, 20036","Match","Exact","1717 N ST NW, WASHINGTON, DC, 20036",76225601,"R"
85225,"1717 N STREET NW SUITE","WASHINGTON","DC",20036,38.9072492870001,-77.0392111259999,225,"1717 N STREET NW SUITE, WASHINGTON, DC, 20036","Match","Exact","1717 N ST NW, WASHINGTON, DC, 20036",76225601,"R"
85226,"1717 N STREET NW","WASHINGTON","DC",20036,38.9072492870001,-77.0392111259999,226,"1717 N STREET NW, WASHINGTON, DC, 20036","Match","Exact","1717 N ST NW, WASHINGTON, DC, 20036",76225601,"R"
85227,"1717 N STREET STE 1","WASHINGTON","DC",20036,38.9072492870001,-77.0392111259999,227,"1717 N STREET STE 1, WASHINGTON, DC, 20036","Match","Non_Exact","1717 N ST NW, WASHINGTON, DC, 20036",76225601,"R"
85228,"1717 NORTH BAYSHORE DRIVE","MIAMI","FL",33132,25.79135653,-80.187093364,228,"1717 NORTH BAYSHORE DRIVE, MIAMI, FL, 33132","Match","Exact","1717 N BAYSHORE DR, MIAMI, FL, 33132",610854697,"R"
85229,"1717 NORTH MCAULIFF","VISALIA","CA",93292,36.3437247250001,-119.25201003,229,"1717 NORTH MCAULIFF, VISALIA, CA, 93292","Match","Non_Exact","1717 N MCAULIFF ST, VISALIA, CA, 93292",202808080,"L"
85230,"1717 NORTH OCEAN AVENUE SUITE C","MEDFORD","NY",11763,40.815381803,-73.020121773,230,"1717 NORTH OCEAN AVENUE SUITE C, MEDFORD, NY, 11763","Match","Exact","1717 N OCEAN AVE, MEDFORD, NY, 11763",114008203,"L"
85231,"1717 NW 27TH AVE","PORTLAND","OR",97210,45.534782288,-122.706804533,231,"1717 NW 27TH AVE, PORTLAND, OR, 97210","Match","Exact","1717 NW 27TH AVE, PORTLAND, OR, 97210",157497005,"L"
85232,"1717 ORANGE AVENUE 4225","FORT PIERCE","FL",34948,27.447250339,-80.3416733289999,232,"1717 ORANGE AVENUE 4225, FORT PIERCE, FL, 34948","Match","Non_Exact","1717 ORANGE AVE, FORT PIERCE, FL, 34950",120147652,"L"
85233,"1717 PARK AVENUE","SAINT LUIS","MO",63104,38.6165690880001,-90.210292045,233,"1717 PARK AVENUE, SAINT LUIS, MO, 63104","Match","Non_Exact","1717 PARK AVE, SAINT LOUIS, MO, 63104",107605349,"R"
85234,"1717 PARK TERRACE LANE","NOLENSVILLE","TN",37135,35.9823925060001,-86.6148958159999,234,"1717 PARK TERRACE LANE, NOLENSVILLE, TN, 37135","Match","Exact","1717 PARK TERRACE LN, NOLENSVILLE, TN, 37135",636815373,"L"
85235,"1717 PARKRIDGE PKWY","LOUISVILLE","KY",40214,38.143298886,-85.794711519,235,"1717 PARKRIDGE PKWY, LOUISVILLE, KY, 40214","Match","Exact","1717 PARKRIDGE PKWY, LOUISVILLE, KY, 40214",647927496,"R"
85236,"1717 PENNSYLVANIA AVE NW STE 1025","WASHINGTON","DC",20006,38.898990998,-77.0399424999999,236,"1717 PENNSYLVANIA AVE NW STE 1025, WASHINGTON, DC, 20006","Match","Exact","1717 PENNSYLVANIA AVE NW, WASHINGTON, DC, 20006",76225654,"R"
85237,"1717 PENNSYLVANIA AVENUE SUITE 1025","WASHINGTON","DC",20006,38.898990998,-77.0399424999999,237,"1717 PENNSYLVANIA AVENUE SUITE 1025, WASHINGTON, DC, 20006","Match","Non_Exact","1717 PENNSYLVANIA AVE NW, WASHINGTON, DC, 20006",76225654,"R"
85238,"1717 POKI STREET A","HONOLULU","HI",96822,21.304051123,-157.832497448,238,"1717 POKI STREET A, HONOLULU, HI, 96822","Match","Exact","1717 POKI ST, HONOLULU, HI, 96822",203237577,"R"
85239,"1717 R ST NW APT 314","WASHINGTON","DC",20009,38.912615836,-77.039241046,239,"1717 R ST NW APT 314, WASHINGTON, DC, 20009","Match","Exact","1717 R ST NW, WASHINGTON, DC, 20009",76223112,"R"
85240,"1717 REYNOLDS STREET","IRONTON","OH",45638,38.55021721,-82.7036274709999,240,"1717 REYNOLDS STREET, IRONTON, OH, 45638","Match","Exact","1717 REYNOLDS ST, IRONTON, OH, 45638",55009202,"R"
85241,"1717 RIVERSIDE DR APT 517","TULSA","OK",74119,36.1374668560001,-95.993904465,241,"1717 RIVERSIDE DR APT 517, TULSA, OK, 74119","Match","Exact","1717 RIVERSIDE DR, TULSA, OK, 74119",166441700,"L"
85242,"1717 S 1480 E CIR","ST GEORGE","UT",84790,37.078747816,-113.552112953,242,"1717 S 1480 E CIR, ST GEORGE, UT, 84790","Match","Exact","1717 S 1480 EAST CIR, SAINT GEORGE, UT, 84790",166181873,"L"
85243,"1717 S 32ND STREET","PHILADELPHIA","PA",19145,39.932754539,-75.1978600849999,243,"1717 S 32ND STREET, PHILADELPHIA, PA, 19145","Match","Exact","1717 S 32ND ST, PHILADELPHIA, PA, 19145",647564963,"L"
85244,"1717 S CHEYENNE AVE","TULSA","OK",74119,36.137707381,-95.989618687,244,"1717 S CHEYENNE AVE, TULSA, OK, 74119","Match","Exact","1717 S CHEYENNE AVE, TULSA, OK, 74119",166441823,"L"
85245,"1717 S GONZALES TRACE AVE","GONZALES","LA",70737,30.2192172630001,-90.938207016,245,"1717 S GONZALES TRACE AVE, GONZALES, LA, 70737","Match","Exact","1717 S GONZALES TRACE AVE, GONZALES, LA, 70737",648968513,"R"
85246,"1717 SAN PEDRO AVENUE","SAN ANTONIO","TX",78212,29.450294597,-98.499330653,246,"1717 SAN PEDRO AVENUE, SAN ANTONIO, TX, 78212","Match","Exact","1717 SAN PEDRO AVE, SAN ANTONIO, TX, 78212",101523770,"L"
85247,"1717 SHARON ST","ARLINGTON","TX",76010,32.7302553120001,-97.0854457789999,247,"1717 SHARON ST, ARLINGTON, TX, 76010","Match","Exact","1717 SHARON ST, ARLINGTON, TX, 76010",101908876,"L"
85248,"1717 SHUMATE MOUNTAIN ROAD","HAYS","NC",28635,36.30238654,-81.118103103,248,"1717 SHUMATE MOUNTAIN ROAD, HAYS, NC, 28635","Match","Exact","1717 SHUMATE MOUNTAIN RD, HAYS, NC, 28635",611373485,"L"
85249,"1717 SIERRA MEADOW LN","JUSTIN","TX",76247,33.043359192,-97.322283811,249,"1717 SIERRA MEADOW LN, JUSTIN, TX, 76247","Match","Exact","1717 SIERRA MEADOW LN, JUSTIN, TX, 76247",614161941,"R"
85250,"1717 SOUTH GAINES STREET","LITTLE ROCK","AR",72206,34.733187537,-92.2806402529999,250,"1717 SOUTH GAINES STREET, LITTLE ROCK, AR, 72206","Match","Exact","1717 S GAINES ST, LITTLE ROCK, AR, 72206",83511132,"L"
85251,"1717 SPRINGFLED AVE","NORFOLK","VA",23523,NA,NA,251,"1717 SPRINGFLED AVE, NORFOLK, VA, 23523","No_Match",NA,NA,NA,NA
85252,"1717 ST JAMES PLACE STE 205","HOUSTON","TX",77056,NA,NA,252,"1717 ST JAMES PLACE STE 205, HOUSTON, TX, 77056","No_Match",NA,NA,NA,NA
85253,"1717 STATION ROAD","VALLEY CITY","OH",44280,41.228005889,-81.954442881,253,"1717 STATION ROAD, VALLEY CITY, OH, 44280","Match","Exact","1717 STATION RD, VALLEY CITY, OH, 44280",624848367,"L"
85254,"1717 STEVENS STREET","RICHMOND","VA",23231,37.4874778130001,-77.389575397,254,"1717 STEVENS STREET, RICHMOND, VA, 23231","Match","Exact","1717 STEVENS ST, RICHMOND, VA, 23231",106667671,"R"
85255,"1717 SYLVAN AVE","MODESTO","CA",95355,37.6889611400001,-120.968409817,255,"1717 SYLVAN AVE, MODESTO, CA, 95355","Match","Exact","1717 SYLVAN AVE, MODESTO, CA, 95355",635507201,"L"
85256,"1717 TAFT DR","NORMAL","IL",61761,40.5214048610001,-88.950355347,256,"1717 TAFT DR, NORMAL, IL, 61761","Match","Exact","1717 TAFT DR, NORMAL, IL, 61761",20547377,"R"
85257,"1717 TUDOR","EAST SAINT LOUIS","IL",62207,38.6067895690001,-90.155003229,257,"1717 TUDOR, EAST SAINT LOUIS, IL, 62207","Match","Non_Exact","1717 TUDOR AVE, E SAINT LOUIS, IL, 62207",107830064,"L"
85258,"1717 TURNING BASIN DR SUITE 485","HOUSTON","TX",77029,29.7498952990001,-95.265411666,258,"1717 TURNING BASIN DR SUITE 485, HOUSTON, TX, 77029","Match","Exact","1717 TURNING BASIN DR, HOUSTON, TX, 77029",96416234,"R"
85259,"1717 W 34TH ST SUITE 600 130","HOUSTON","TX",77018,29.8172699530001,-95.428969691,259,"1717 W 34TH ST SUITE 600 130, HOUSTON, TX, 77018","Match","Non_Exact","1717 W 34TH ST, HOUSTON, TX, 77018",96054361,"L"
85260,"1717 W KITTY HAWK WAY","TUCSON","AZ",85755,32.45639787,-111.00227619,260,"1717 W KITTY HAWK WAY, TUCSON, AZ, 85755","Match","Exact","1717 W KITTY HAWK WAY, TUCSON, AZ, 85755",617656787,"L"
85261,"1717 WALNUT STREET","TAMPA","FL",33607,27.9599964650001,-82.477087581,261,"1717 WALNUT STREET, TAMPA, FL, 33607","Match","Non_Exact","1717 W WALNUT ST, TAMPA, FL, 33607",104521268,"R"
85262,"1717 WARREN LAKE DR","JACKSON","MO",63755,37.365566045,-89.6510829269999,262,"1717 WARREN LAKE DR, JACKSON, MO, 63755","Match","Exact","1717 WARREN LAKE DR, JACKSON, MO, 63755",35198383,"R"
85263,"1717 WASHINGTON BLVD - 2","EASTON","PA",18042,40.686116928,-75.235445576,263,"1717 WASHINGTON BLVD - 2, EASTON, PA, 18042","Match","Exact","1717 WASHINGTON BLVD, EASTON, PA, 18042",136882473,"R"
85264,"1717 WASHINGTON ST NE SUITE 310","MINNEAPOLIS","MN",55413,45.0055128380001,-93.257548709,264,"1717 WASHINGTON ST NE SUITE 310, MINNEAPOLIS, MN, 55413","Match","Exact","1717 WASHINGTON ST NE, MINNEAPOLIS, MN, 55413",640001711,"R"
85265,"1717 WEST 270 SOUTH","PROVO","UT",84601,40.2298272250001,-111.689807725,265,"1717 WEST 270 SOUTH, PROVO, UT, 84601","Match","Exact","1717 W 270 S, PROVO, UT, 84601",134227768,"R"
85266,"1717 WEST 5TH STREET","GREENVILLE","NC",27834,35.6130671720001,-77.399076781,266,"1717 WEST 5TH STREET, GREENVILLE, NC, 27834","Match","Exact","1717 W 5TH ST, GREENVILLE, NC, 27834",639229946,"L"
85267,"1717 WEST KIRBY 228","CHAMPAIGN","IL",61821,40.098246526,-88.2748749739999,267,"1717 WEST KIRBY 228, CHAMPAIGN, IL, 61821","Match","Non_Exact","1717 W KIRBY AVE, CHAMPAIGN, IL, 61821",8809436,"L"
85268,"1717 WEST THARPE STREET","TALLAHASSEE","FL",32303,30.4635212220001,-84.31615655,268,"1717 WEST THARPE STREET, TALLAHASSEE, FL, 32303","Match","Exact","1717 W THARPE ST, TALLAHASSEE, FL, 32303",82849353,"L"
85269,"1717 WYANDOTTE SUITE 203","KANSAS CITY","MO",64108,39.0925747810001,-94.585916399,269,"1717 WYANDOTTE SUITE 203, KANSAS CITY, MO, 64108","Match","Non_Exact","1717 WYANDOTTE ST, KANSAS CITY, MO, 64108",91445144,"L"
85270,"17170 HARBESON ROAD","MILTON","DE",19968,38.745609394,-75.290189327,270,"17170 HARBESON ROAD, MILTON, DE, 19968","Match","Exact","17170 HARBESON RD, MILTON, DE, 19968",623776078,"L"
85271,"17171 SANDRA LEE LANE","HUNTINGTON BEACH","CA",92649,33.7129093620001,-118.048953075,271,"17171 SANDRA LEE LANE, HUNTINGTON BEACH, CA, 92649","Match","Exact","17171 SANDRA LEE LN, HUNTINGTON BEACH, CA, 92649",144013902,"R"
85272,"17172 WALNUT LN","SPIRIT LAKE","IA",51360,43.3976450550001,-95.0687370649999,272,"17172 WALNUT LN, SPIRIT LAKE, IA, 51360","Match","Exact","17172 WALNUT LN, SPIRIT LAKE, IA, 51360",9805391,"R"
85273,"171724 KONKOL RD","HATLEY","WI",54440,44.8718164910001,-89.3936093139999,273,"171724 KONKOL RD, HATLEY, WI, 54440","Match","Exact","171724 KONKOL RD, HATLEY, WI, 54440",117156507,"R"
85274,"17174 HOLLY DRIVE","FONTANA","CA",92335,34.080814214,-117.429489109,274,"17174 HOLLY DRIVE, FONTANA, CA, 92335","Match","Exact","17174 HOLLY DR, FONTANA, CA, 92335",144645418,"L"
85275,"17175 S GHOST RIDER PASS","SAHUARITA","AZ",85629,31.9438506500001,-110.846769022,275,"17175 S GHOST RIDER PASS, SAHUARITA, AZ, 85629","Match","Exact","17175 GHOST RIDER PASS, SAHUARITA, AZ, 85629",121411048,"L"
85276,"17175 STOEPEL STREET","DETROIT","CO",48221,NA,NA,276,"17175 STOEPEL STREET, DETROIT, CO, 48221","No_Match",NA,NA,NA,NA
85277,"17175 WYOMING","DETROIT","MI",48221,42.417643464,-83.160367707,277,"17175 WYOMING, DETROIT, MI, 48221","Match","Non_Exact","17175 WYOMING ST, DETROIT, MI, 48221",95425963,"L"
85278,"17176 MERRYWEATHER STREET","CLINTON TOWNSHIP","MI",48038,42.5897764260001,-82.947483373,278,"17176 MERRYWEATHER STREET, CLINTON TOWNSHIP, MI, 48038","Match","Exact","17176 MERRYWEATHER ST, CLINTON TOWNSHIP, MI, 48038",110701035,"R"
85279,"17178 BLUE SPRUCE LANE","YORBA LINDA","CA",92886,33.9170189010001,-117.833925669,279,"17178 BLUE SPRUCE LANE, YORBA LINDA, CA, 92886","Match","Exact","17178 BLUE SPRUCE LN, YORBA LINDA, CA, 92886",608143160,"R"
85280,"17178 LIVERNOIS","DETROIT","MI",48221,42.4178892800001,-83.140859549,280,"17178 LIVERNOIS, DETROIT, MI, 48221","Match","Non_Exact","17178 LIVERNOIS AVE, DETROIT, MI, 48221",95461271,"R"
85281,"1718 30TH AVE","HAMMOND","WI",54015,44.905547659,-92.45242573,281,"1718 30TH AVE, HAMMOND, WI, 54015","Match","Exact","1718 30TH AVE, HAMMOND, WI, 54015",650516933,"L"
85282,"1718 33RD STREET","LUBBOCK","TX",79411,33.564276314,-101.85575406,282,"1718 33RD STREET, LUBBOCK, TX, 79411","Match","Exact","1718 33RD ST, LUBBOCK, TX, 79411",185254570,"R"
85283,"1718 5TH ST NW","WASHINGTON","DC",20001,38.913530225,-77.018929079,283,"1718 5TH ST NW, WASHINGTON, DC, 20001","Match","Exact","1718 5TH ST NW, WASHINGTON, DC, 20001",638296212,"L"
85284,"1718 ASPEN RIDGE","SAN ANTONIO","TX",78248,29.5835115630001,-98.517963693,284,"1718 ASPEN RIDGE, SAN ANTONIO, TX, 78248","Match","Exact","1718 ASPEN RIDGE, SAN ANTONIO, TX, 78248",101579664,"R"
85285,"1718 BALLINGER ST","ABILENE","TX",79605,32.428651277,-99.762398823,285,"1718 BALLINGER ST, ABILENE, TX, 79605","Match","Exact","1718 BALLINGER ST, ABILENE, TX, 79605",129960148,"R"
85286,"1718 BELMONT AVENUE SUITE H","WINDSOR MILL","MD",21244,39.3148592860001,-76.746208133,286,"1718 BELMONT AVENUE SUITE H, WINDSOR MILL, MD, 21244","Match","Exact","1718 BELMONT AVE, WINDSOR MILL, MD, 21244",191555718,"L"
85287,"1718 BELMONT DR","TYLER","TX",75701,32.330409649,-95.293685088,287,"1718 BELMONT DR, TYLER, TX, 75701","Match","Exact","1718 BELMONT DR, TYLER, TX, 75701",141301329,"L"
85288,"1718 BROWN AVE","DUPONT","WA",98327,47.0958470740001,-122.676115823,288,"1718 BROWN AVE, DUPONT, WA, 98327","Match","Exact","1718 BROWN AVE, DUPONT, WA, 98327",627614111,"L"
85289,"1718 CAPITOL AVE","CHEYENNE","WY",82001,41.133826658,-104.815991041,289,"1718 CAPITOL AVE, CHEYENNE, WY, 82001","Match","Exact","1718 CAPITOL AVE, CHEYENNE, WY, 82001",160149838,"L"
85290,"1718 CHURCH ST UNIT 330434","NASHVILLE","TN",37203,36.1556912520001,-86.796311192,290,"1718 CHURCH ST UNIT 330434, NASHVILLE, TN, 37203","Match","Exact","1718 CHURCH ST, NASHVILLE, TN, 37203",97186269,"R"
85291,"1718 CHURCH STREET BOX 330744","NASHVILLE","TN",37203,36.1556912520001,-86.796311192,291,"1718 CHURCH STREET BOX 330744, NASHVILLE, TN, 37203","Match","Exact","1718 CHURCH ST, NASHVILLE, TN, 37203",97186269,"R"
85292,"1718 CHURCH STREET UNIT 330744","NASHVILLE","TN",37203,36.1556912520001,-86.796311192,292,"1718 CHURCH STREET UNIT 330744, NASHVILLE, TN, 37203","Match","Exact","1718 CHURCH ST, NASHVILLE, TN, 37203",97186269,"R"
85293,"1718 CHURCH STREET UNIT 330812","NASHVILLE","TN",37203,36.1556912520001,-86.796311192,293,"1718 CHURCH STREET UNIT 330812, NASHVILLE, TN, 37203","Match","Exact","1718 CHURCH ST, NASHVILLE, TN, 37203",97186269,"R"
85294,"1718 CHURCH STREET","NASHVILLE","TN",37203,36.1556912520001,-86.796311192,294,"1718 CHURCH STREET, NASHVILLE, TN, 37203","Match","Exact","1718 CHURCH ST, NASHVILLE, TN, 37203",97186269,"R"
85295,"1718 CLOVERDALE DRIVE","EDWARDSVILLE","IL",62025,NA,NA,295,"1718 CLOVERDALE DRIVE, EDWARDSVILLE, IL, 62025","No_Match",NA,NA,NA,NA
85296,"1718 E GLENDALE AVE","APPLETON","WI",54911,44.2803103480001,-88.3780133399999,296,"1718 E GLENDALE AVE, APPLETON, WI, 54911","Match","Exact","1718 E GLENDALE AVE, APPLETON, WI, 54911",74920871,"L"
85297,"1718 E LINCOLN RD R2125","SPOKANE","WA",99217,47.729395035,-117.385157133,297,"1718 E LINCOLN RD R2125, SPOKANE, WA, 99217","Match","Non_Exact","1718 E LINCOLN RD, SPOKANE, WA, 99217",624407934,"R"
85298,"1718 E SPEEDWAY BLVD STE 4081","TUCSON","AZ",85719,32.2360222660001,-110.946404402,298,"1718 E SPEEDWAY BLVD STE 4081, TUCSON, AZ, 85719","Match","Non_Exact","1718 E SPEEDWAY BLVD, TUCSON, AZ, 85719",638350423,"R"
85299,"1718 EAST OVERTON ROAD","DALLAS","TX",75216,32.7040257670001,-96.800695301,299,"1718 EAST OVERTON ROAD, DALLAS, TX, 75216","Match","Exact","1718 E OVERTON RD, DALLAS, TX, 75216",102951367,"R"
85300,"1718 GREEN STREET","HARRSBURG","PA",17102,40.274156142,-76.89385602,300,"1718 GREEN STREET, HARRSBURG, PA, 17102","Match","Non_Exact","1718 GREEN ST, HARRISBURG, PA, 17102",70816922,"L"
85301,"1718 HUGHEY ST","KISSIMMEE","FL",34741,28.28908218,-81.421656495,301,"1718 HUGHEY ST, KISSIMMEE, FL, 34741","Match","Exact","1718 HUGHEY ST, KISSIMMEE, FL, 34741",176702127,"L"
85302,"1718 KENILWORTH ST","SARASOTA","FL",34231,27.292735613,-82.534339525,302,"1718 KENILWORTH ST, SARASOTA, FL, 34231","Match","Exact","1718 KENILWORTH ST, SARASOTA, FL, 34231",16348554,"R"
85303,"1718 KENNEDY DRIVE","CAMDEN","SC",29020,34.2572888030001,-80.609968449,303,"1718 KENNEDY DRIVE, CAMDEN, SC, 29020","Match","Exact","1718 KENNEDY DR, CAMDEN, SC, 29020",78471912,"L"
85304,"1718 LES CT","KISSIMMEE","FL",34744,28.318387608,-81.377022591,304,"1718 LES CT, KISSIMMEE, FL, 34744","Match","Exact","1718 LES CT, KISSIMMEE, FL, 34744",176678985,"R"
85305,"1718 M ST NW NUM 313","WASHINGTON","DC",20036,38.905650467,-77.0393709099999,305,"1718 M ST NW NUM 313, WASHINGTON, DC, 20036","Match","Exact","1718 M ST NW, WASHINGTON, DC, 20036",635190461,"L"
85306,"1718 MARIPOSA DR","DURANGO","CO",81301,37.2333131510001,-107.810925984,306,"1718 MARIPOSA DR, DURANGO, CO, 81301","Match","Exact","1718 MARIPOSA DR, DURANGO, CO, 81301",91727526,"L"
85307,"1718 MAYME CT","BOWLING GREEN","KY",42103,37.00189669,-86.403741209,307,"1718 MAYME CT, BOWLING GREEN, KY, 42103","Match","Exact","1718 MAYME CT, BOWLING GREEN, KY, 42103",614170610,"L"
85308,"1718 MCCLURE STREET","HOMESTEAD","PA",15120,40.402205386,-79.901781769,308,"1718 MCCLURE STREET, HOMESTEAD, PA, 15120","Match","Exact","1718 MCCLURE ST, HOMESTEAD, PA, 15120",51681722,"R"
85309,"1718 N OLIVE ST APT 3","SAN ANTONIO","TX",78208,29.44080626,-98.471763826,309,"1718 N OLIVE ST APT 3, SAN ANTONIO, TX, 78208","Match","Non_Exact","1718 N OLIVE ST, SAN ANTONIO, TX, 78208",101686079,"R"
85310,"1718 N SCENIC HWY","BABSON PARK","FL",33827,27.8429101130001,-81.5580810659999,310,"1718 N SCENIC HWY, BABSON PARK, FL, 33827","Match","Exact","1718 N SCENIC HWY, BABSON PARK, FL, 33827",104835456,"R"
85311,"1718 N TROY ST APT 789","ARLINGTON","VA",22201,38.892994533,-77.082161265,311,"1718 N TROY ST APT 789, ARLINGTON, VA, 22201","Match","Non_Exact","1718 N TROY ST, ARLINGTON, VA, 22201",76469810,"L"
85312,"1718 N WASHINGTON ST  APT 1","WILMINGTON","DE",19802,39.7535285100001,-75.546412156,312,"1718 N WASHINGTON ST  APT 1, WILMINGTON, DE, 19802","Match","Non_Exact","1718 N WASHINGTON ST, WILMINGTON, DE, 19802",187257797,"R"
85313,"1718 NE 21ST PLACE","GAINESVILLE","FL",32609,29.672194099,-82.302389155,313,"1718 NE 21ST PLACE, GAINESVILLE, FL, 32609","Match","Exact","1718 NE 21ST PL, GAINESVILLE, FL, 32609",6855799,"L"
85314,"1718 NELSON AVE","LOUISVILLE","KY",40216,38.210609445,-85.794334673,314,"1718 NELSON AVE, LOUISVILLE, KY, 40216","Match","Exact","1718 NELSON AVE, LOUISVILLE, KY, 40216",96843411,"L"
85315,"1718 NORMANDALE ST","HOUSTON","TX",77029,29.7601359450001,-95.273673875,315,"1718 NORMANDALE ST, HOUSTON, TX, 77029","Match","Exact","1718 NORMANDALE ST, HOUSTON, TX, 77029",96084497,"R"
85316,"1718 OSCEOLA BLVD","PENSACOLA","FL",32503,30.4339417300001,-87.187229526,316,"1718 OSCEOLA BLVD, PENSACOLA, FL, 32503","Match","Exact","1718 OSCEOLA BLVD, PENSACOLA, FL, 32503",93307581,"R"
85317,"1718 PEACHTREE ST STE 240","ATLANTA","GA",30309,33.7994927570001,-84.3922295689999,317,"1718 PEACHTREE ST STE 240, ATLANTA, GA, 30309","Match","Non_Exact","1718 PEACHTREE ST NW, ATLANTA, GA, 30309",641363853,"L"
85318,"1718 PEACHTREE STREET NW SUITE 660","ATLANTA","GA",30309,33.7994927570001,-84.3922295689999,318,"1718 PEACHTREE STREET NW SUITE 660, ATLANTA, GA, 30309","Match","Exact","1718 PEACHTREE ST NW, ATLANTA, GA, 30309",641363853,"L"
85319,"1718 PERSHING AVE","WEST PORTSMOUTH","OH",45663,38.764780198,-83.038589373,319,"1718 PERSHING AVE, WEST PORTSMOUTH, OH, 45663","Match","Exact","1718 PERSHING AVE, W PORTSMOUTH, OH, 45663",55105154,"R"
85320,"1718 RADCLIFF AVE","BRONX","NY",10462,40.846731194,-73.856295266,320,"1718 RADCLIFF AVE, BRONX, NY, 10462","Match","Exact","1718 RADCLIFF AVE, BRONX, NY, 10462",80304590,"R"
85321,"1718 RUSSELL CAVE RD","LEXINGTON","KY",40505,38.0795245100001,-84.4705317299999,321,"1718 RUSSELL CAVE RD, LEXINGTON, KY, 40505","Match","Exact","1718 RUSSELL CAVE RD, LEXINGTON, KY, 40505",31925368,"R"
85322,"1718 S SIERRA VISTA DR","TEMPE","AZ",85281,33.4087688220001,-111.931111638,322,"1718 S SIERRA VISTA DR, TEMPE, AZ, 85281","Match","Exact","1718 S SIERRA VISTA DR, TEMPE, AZ, 85281",128227255,"R"
85323,"1718 SE 8 1/2 AVENUE","ROCHESTER","MN",55904,43.9965876840001,-92.450720189,323,"1718 SE 8 1/2 AVENUE, ROCHESTER, MN, 55904","Match","Non_Exact","1718 8 1/2 AVE SE, ROCHESTER, MN, 55904",30554181,"L"
85324,"1718 SE LIESER POINT ROAD","VANCOUVER","WA",98664,45.608277285,-122.585254918,324,"1718 SE LIESER POINT ROAD, VANCOUVER, WA, 98664","Match","Exact","1718 SE LIESER POINT RD, VANCOUVER, WA, 98664",648979192,"R"
85325,"1718 STONE BRIDGE CT","MARIETTA","GA",30064,NA,NA,325,"1718 STONE BRIDGE CT, MARIETTA, GA, 30064","Tie",NA,NA,NA,NA
85326,"1718 SUMMERTIME DR","EL CAJON","CA",92072,32.8241458050001,-116.959537376,326,"1718 SUMMERTIME DR, EL CAJON, CA, 92072","Match","Non_Exact","1718 SUMMERTIME DR, EL CAJON, CA, 92021",195371633,"L"
85327,"1718 SUMMERWOOD LN","CEDAR HILL","TX",75104,32.557795663,-96.902932011,327,"1718 SUMMERWOOD LN, CEDAR HILL, TX, 75104","Match","Non_Exact","1718 SUMMERWOOD DR, CEDAR HILL, TX, 75104",616809677,"R"
85328,"1718 SW MOSS STREET","PORTLAND","OR",97219,45.4676307550001,-122.695541287,328,"1718 SW MOSS STREET, PORTLAND, OR, 97219","Match","Exact","1718 SW MOSS ST, PORTLAND, OR, 97219",157501404,"L"
85329,"1718 SYLVAN WAY UNIT 907","LODI","CA",95242,38.109509132,-121.299516468,329,"1718 SYLVAN WAY UNIT 907, LODI, CA, 95242","Match","Exact","1718 SYLVAN WAY, LODI, CA, 95242",133909574,"R"
85330,"1718 TROLIST DRIVE","NORTH HUNTINGDON","PA",15642,40.3070494140001,-79.7293592299999,330,"1718 TROLIST DRIVE, NORTH HUNTINGDON, PA, 15642","Match","Exact","1718 TROLIST DR, N HUNTINGDON, PA, 15642",52992284,"R"
85331,"1718 UNION ST","SAN FRANCISCO","CA",94123,37.7980932240001,-122.427654032,331,"1718 UNION ST, SAN FRANCISCO, CA, 94123","Match","Exact","1718 UNION ST, SAN FRANCISCO, CA, 94123",192279969,"R"
85332,"1718 W 1ST STREET","SAN PEDRO","CA",90732,33.7437561900001,-118.314008175,332,"1718 W 1ST STREET, SAN PEDRO, CA, 90732","Match","Exact","1718 W 1ST ST, SAN PEDRO, CA, 90732",141688878,"R"
85333,"1718 WHISPERING TRAIL","IRVINE","CA",92602,NA,NA,333,"1718 WHISPERING TRAIL, IRVINE, CA, 92602","No_Match",NA,NA,NA,NA
85334,"1718-22 W SUSQUEHANNA AVE","PHILADELPHIA","PA",19121,39.9869919450001,-75.1617301969999,334,"1718-22 W SUSQUEHANNA AVE, PHILADELPHIA, PA, 19121","Match","Exact","1718 W SUSQUEHANNA AVE, PHILADELPHIA, PA, 19121",131405873,"L"
85335,"17180 OAK DRIVE","DETROIT","MI",48221,42.4179549830001,-83.137915375,335,"17180 OAK DRIVE, DETROIT, MI, 48221","Match","Exact","17180 OAK DR, DETROIT, MI, 48221",95461286,"R"
85336,"17180 PARK TRAIL DR","MONUMENT","CO",80132,39.081312917,-104.869565549,336,"17180 PARK TRAIL DR, MONUMENT, CO, 80132","Match","Exact","17180 PARK TRAIL DR, MONUMENT, CO, 80132",105564666,"L"
85337,"17181 GALE AVE","CITY OF INDUSTRY","CA",91745,34.0002566650001,-117.931439306,337,"17181 GALE AVE, CITY OF INDUSTRY, CA, 91745","Match","Non_Exact","17181 E GALE AVE, CITY OF INDUSTRY, CA, 91745",647674019,"L"
85338,"17181 MINOS CONAWAY RD","LEWES","DE",19958,38.752131643,-75.202256566,338,"17181 MINOS CONAWAY RD, LEWES, DE, 19958","Match","Exact","17181 MINOS CONAWAY RD, LEWES, DE, 19958",106122728,"R"
85339,"17181 PARTHENIA ST","LOS ANGELES","CA",91325,34.2285449600001,-118.508439781,339,"17181 PARTHENIA ST, LOS ANGELES, CA, 91325","Match","Non_Exact","17181 PARTHENIA ST, SHERWOOD FOREST, CA, 91325",141543766,"R"
85340,"17182 TRINIDAD DRIVE","PRAIRIEVILLE","LA",70769,30.319511053,-90.901896682,340,"17182 TRINIDAD DRIVE, PRAIRIEVILLE, LA, 70769","Match","Exact","17182 TRINIDAD DR, PRAIRIEVILLE, LA, 70769",115037457,"L"
85341,"17185 SAN MATEO ST    APT J","FOUNTAIN VALLEY","CA",92708,33.7133691080001,-117.951663396,341,"17185 SAN MATEO ST    APT J, FOUNTAIN VALLEY, CA, 92708","Match","Exact","17185 SAN MATEO ST, FOUNTAIN VALLEY, CA, 92708",609060700,"R"
85342,"17186 GROUSE CREEK RD","ARKANSAS CITY","KS",67005,37.0808260680001,-96.852795273,342,"17186 GROUSE CREEK RD, ARKANSAS CITY, KS, 67005","Match","Exact","17186 GROUSE CREEK RD, ARKANSAS CITY, KS, 67005",649996466,"L"
85343,"17186 LINDA WAY","NOBLESVILLE","IN",46060,40.0375623250001,-86.0715998379999,343,"17186 LINDA WAY, NOBLESVILLE, IN, 46060","Match","Non_Exact","17186 LINDA WAY, NOBLESVILLE, IN, 46062",29343476,"R"
85344,"17187 WYOMING","DETROIT","MI",48221,42.417735556,-83.160372823,344,"17187 WYOMING, DETROIT, MI, 48221","Match","Non_Exact","17187 WYOMING ST, DETROIT, MI, 48221",95425963,"L"
85345,"17188 GREENFIELD","DETROIT","MI",48235,42.416797122,-83.199337161,345,"17188 GREENFIELD, DETROIT, MI, 48235","Match","Non_Exact","17188 GREENFIELD RD, DETROIT, MI, 48235",95424553,"R"
85346,"17189 ROCKY LN","ANDALUSIA","AL",36421,31.402658074,-86.414436698,346,"17189 ROCKY LN, ANDALUSIA, AL, 36421","Match","Exact","17189 ROCKY LN, ANDALUSIA, AL, 36421",1867008,"R"
85347,"17189 W BERNARDO DR 106","SAN DIEGO","CA",92127,33.0273508510001,-117.082459546,347,"17189 W BERNARDO DR 106, SAN DIEGO, CA, 92127","Match","Non_Exact","17189 W BERNARDO DR, SAN DIEGO, CA, 92127",195315294,"R"
85348,"1719 170TH PLACE","HAMMOND","IN",46324,41.5857382570001,-87.488111057,348,"1719 170TH PLACE, HAMMOND, IN, 46324","Match","Exact","1719 170TH PL, HAMMOND, IN, 46324",606330979,"L"
85349,"1719 5TH ST NW A","WASHINGTON","DC",20001,38.9135817580001,-77.018914673,349,"1719 5TH ST NW A, WASHINGTON, DC, 20001","Match","Exact","1719 5TH ST NW, WASHINGTON, DC, 20001",638296212,"R"
85350,"1719 ABERCORN ST","SAVANNAH","GA",31401,32.0596437290001,-81.09671558,350,"1719 ABERCORN ST, SAVANNAH, GA, 31401","Match","Exact","1719 ABERCORN ST, SAVANNAH, GA, 31401",6176075,"R"
85351,"1719 ANALOG DR SUITE A","RICHARDSON","TX",75081,32.9721039830001,-96.700412442,351,"1719 ANALOG DR SUITE A, RICHARDSON, TX, 75081","Match","Exact","1719 ANALOG DR, RICHARDSON, TX, 75081",102896818,"R"
85352,"1719 ANGEL PKWY STE 400-126","ALLEN","TX",75002,33.128536125,-96.628704872,352,"1719 ANGEL PKWY STE 400-126, ALLEN, TX, 75002","Match","Exact","1719 ANGEL PKWY, ALLEN, TX, 75002",210507456,"R"
85353,"1719 BEN CRENSHAW WAY","AUSTIN","TX",78746,30.283786978,-97.8449242789999,353,"1719 BEN CRENSHAW WAY, AUSTIN, TX, 78746","Match","Exact","1719 BEN CRENSHAW WAY, AUSTIN, TX, 78746",63937025,"L"
85354,"1719 BURLESON STREET","SAN ANTONIO","TX",78202,29.432977786,-98.45463827,354,"1719 BURLESON STREET, SAN ANTONIO, TX, 78202","Match","Exact","1719 BURLESON ST, SAN ANTONIO, TX, 78202",640620572,"L"
85355,"1719 BUSINESS CENTER LN","KISSIMMEE","FL",34758,28.2542552630001,-81.4821690539999,355,"1719 BUSINESS CENTER LN, KISSIMMEE, FL, 34758","Match","Non_Exact","1719 BUS CENTER LN, KISSIMMEE, FL, 34758",640825583,"R"
85356,"1719 CARRINGTON DR","GLENN HEIGHTS","TX",75154,32.559712518,-96.8317429849999,356,"1719 CARRINGTON DR, GLENN HEIGHTS, TX, 75154","Match","Exact","1719 CARRINGTON DR, GLENN HEIGHTS, TX, 75154",102991310,"R"
85357,"1719 E MADISON AVE","EL CAJON","CA",92019,32.800205863,-116.916694079,357,"1719 E MADISON AVE, EL CAJON, CA, 92019","Match","Exact","1719 E MADISON AVE, EL CAJON, CA, 92019",195334114,"R"
85358,"1719 EAST BELMONT","FRESNO","CA",93701,36.75040943,-119.790248258,358,"1719 EAST BELMONT, FRESNO, CA, 93701","Match","Non_Exact","1719 E BELMONT AVE, FRESNO, CA, 93701",197579042,"L"
85359,"1719 EMERSON ST","DENVER","CO",80218,39.7436308650001,-104.976155752,359,"1719 EMERSON ST, DENVER, CO, 80218","Match","Exact","1719 EMERSON ST, DENVER, CO, 80218",177305709,"L"
85360,"1719 FERRY AVENUE","CAMDEN","NJ",8104,39.9232265360001,-75.121005725,360,"1719 FERRY AVENUE, CAMDEN, NJ, 8104","Match","Exact","1719 FERRY AVE, CAMDEN, NJ, 08104",134346018,"R"
85361,"1719 FRANKLIN RD APARTMENT  80","YUBA CITY","CA",95993,39.1272768810001,-121.646986917,361,"1719 FRANKLIN RD APARTMENT  80, YUBA CITY, CA, 95993","Match","Exact","1719 FRANKLIN RD, YUBA CITY, CA, 95993",645003584,"R"
85362,"1719 GLEN AVE","PASADENA","CA",91103,34.1755237420001,-118.155179093,362,"1719 GLEN AVE, PASADENA, CA, 91103","Match","Exact","1719 GLEN AVE, PASADENA, CA, 91103",141627380,"L"
85363,"1719 GLENNWOOD RD","MORRIS","AL",35116,33.724529336,-86.7679244459999,363,"1719 GLENNWOOD RD, MORRIS, AL, 35116","Match","Exact","1719 GLENNWOOD RD, MORRIS, AL, 35116",627986896,"L"
85364,"1719 KAJEC DR","SAINT HEDWIG","TX",78152,29.4427896660001,-98.204220343,364,"1719 KAJEC DR, SAINT HEDWIG, TX, 78152","Match","Exact","1719 KAJEC DR, SAINT HEDWIG, TX, 78152",101539906,"L"
85365,"1719 LONG MEADOW ROAD","WYLIE","TX",75098,32.9947560050001,-96.504858925,365,"1719 LONG MEADOW ROAD, WYLIE, TX, 75098","Match","Exact","1719 LONG MEADOW RD, WYLIE, TX, 75098",649844641,"L"
85366,"1719 MERRILL ROAD","KENT","OH",44240,41.1649509120001,-81.331675402,366,"1719 MERRILL ROAD, KENT, OH, 44240","Match","Exact","1719 MERRILL RD, KENT, OH, 44240",638678916,"L"
85367,"1719 NAVCO ROAD","MOBILE","AL",36605,30.6303027430001,-88.106628364,367,"1719 NAVCO ROAD, MOBILE, AL, 36605","Match","Exact","1719 NAVCO RD, MOBILE, AL, 36605",61944089,"L"
85368,"1719 NORTH HOUSTON AVE","HUMBLE","TX",77338,30.011045745,-95.257541399,368,"1719 NORTH HOUSTON AVE, HUMBLE, TX, 77338","Match","Exact","1719 N HOUSTON AVE, HUMBLE, TX, 77338",96557313,"L"
85369,"1719 NUUANU AVENUE APARTMENT 1C","HONOLULU","HI",96817,21.318199255,-157.854291726,369,"1719 NUUANU AVENUE APARTMENT 1C, HONOLULU, HI, 96817","Match","Exact","1719 NUUANU AVE, HONOLULU, HI, 96817",634727474,"R"
85370,"1719 NW 11TH RD","GAINESVILLE","FL",32605,29.6627946030001,-82.34463973,370,"1719 NW 11TH RD, GAINESVILLE, FL, 32605","Match","Exact","1719 NW 11TH RD, GAINESVILLE, FL, 32605",6806107,"L"
85371,"1719 OLD CALVERT COURT","SEVERN","MD",21144,39.131138208,-76.7105542639999,371,"1719 OLD CALVERT COURT, SEVERN, MD, 21144","Match","Exact","1719 OLD CALVERT CT, SEVERN, MD, 21144",68205921,"L"
85372,"1719 PATRICIA DRIVE","KEARNEY","MO",64060,39.356283795,-94.369149971,372,"1719 PATRICIA DRIVE, KEARNEY, MO, 64060","Match","Exact","1719 PATRICIA DR, KEARNEY, MO, 64060",89770502,"R"
85373,"1719 PEACHTREE STREET SUITE 360","ATLANTA","GA",30309,33.8005920300001,-84.3925628979999,373,"1719 PEACHTREE STREET SUITE 360, ATLANTA, GA, 30309","Match","Exact","1719 PEACHTREE ST, ATLANTA, GA, 30309",649758495,"R"
85374,"1719 PEBBLE BROOK DR","AUSTIN","TX",78752,30.328130453,-97.683041483,374,"1719 PEBBLE BROOK DR, AUSTIN, TX, 78752","Match","Exact","1719 PEBBLE BROOK DR, AUSTIN, TX, 78752",63934865,"R"
85375,"1719 PHILLIPS DRIVE","SANFORD","NC",27330,35.4517258490001,-79.218923135,375,"1719 PHILLIPS DRIVE, SANFORD, NC, 27330","Match","Exact","1719 PHILLIPS DR, SANFORD, NC, 27330",72061286,"R"
85376,"1719 PIONEER AVENUE","PITTSBURGH","PA",15226,40.4067347160001,-80.0149804329999,376,"1719 PIONEER AVENUE, PITTSBURGH, PA, 15226","Match","Exact","1719 PIONEER AVE, PITTSBURGH, PA, 15226",51634426,"L"
85377,"1719 QUARRY LANE","APOLLO","PA",15613,40.5014380420001,-79.651951506,377,"1719 QUARRY LANE, APOLLO, PA, 15613","Match","Exact","1719 QUARRY LN, APOLLO, PA, 15613",52969407,"L"
85378,"1719 RIVERWAY BEND CIR","DALLAS","TX",75217,32.7410159900001,-96.664918744,378,"1719 RIVERWAY BEND CIR, DALLAS, TX, 75217","Match","Exact","1719 RIVERWAY BEND CIR, DALLAS, TX, 75217",102961602,"L"
85379,"1719 S 32ND","LOUISVLLE","KY",40211,38.227067155,-85.8088837349999,379,"1719 S 32ND, LOUISVLLE, KY, 40211","Match","Non_Exact","1719 S 32ND ST, LOUISVILLE, KY, 40211",96910694,"L"
85380,"1719 S MORGAN STREET","GRANBURY","TX",76048,NA,NA,380,"1719 S MORGAN STREET, GRANBURY, TX, 76048","No_Match",NA,NA,NA,NA
85381,"1719 S NORFOLK LN","ANAHEIM","CA",92802,33.8060130800001,-117.930337027,381,"1719 S NORFOLK LN, ANAHEIM, CA, 92802","Match","Exact","1719 NORFOLK LN, ANAHEIM, CA, 92802",144025193,"R"
85382,"1719 S PROSPECT AVE","CHAMPAIGN","IL",61820,40.0956746780001,-88.2576185789999,382,"1719 S PROSPECT AVE, CHAMPAIGN, IL, 61820","Match","Exact","1719 S PROSPECT AVE, CHAMPAIGN, IL, 61820",8810690,"R"
85383,"1719 SAN ANTONIO AVE","ALAMEDA","CA",94501,37.767566349,-122.258354259,383,"1719 SAN ANTONIO AVE, ALAMEDA, CA, 94501","Match","Exact","1719 SAN ANTONIO AVE, ALAMEDA, CA, 94501",125005183,"L"
85384,"1719 SEEFIN COURT","INDIAN TRAIL","NC",28079,35.0799208720001,-80.5763967239999,384,"1719 SEEFIN COURT, INDIAN TRAIL, NC, 28079","Match","Exact","1719 SEEFIN CT, INDIAN TRAIL, NC, 28079",625183078,"R"
85385,"1719 SOUTH JACKSON AVENUE","TULSA","OK",74107,36.137441918,-96.003013332,385,"1719 SOUTH JACKSON AVENUE, TULSA, OK, 74107","Match","Exact","1719 S JACKSON AVE, TULSA, OK, 74107",166480240,"L"
85386,"1719 W AVENUE L8","LANCASTER","CA",93534,34.6530655010001,-118.161493457,386,"1719 W AVENUE L8, LANCASTER, CA, 93534","Match","Exact","1719 W AVE L8, LANCASTER, CA, 93534",141527082,"L"
85387,"1719 W BRYN MAWR AVENUE","CHICAGO","IL",60660,41.9834189060001,-87.673094199,387,"1719 W BRYN MAWR AVENUE, CHICAGO, IL, 60660","Match","Exact","1719 W BRYN MAWR AVE, CHICAGO, IL, 60660",605178258,"L"
85388,"1719 W COMMUNITY DRIVE","JUPITER","FL",33458,NA,NA,388,"1719 W COMMUNITY DRIVE, JUPITER, FL, 33458","No_Match",NA,NA,NA,NA
85389,"1719 W LATIMER PL","TULSA","OK",74127,36.169575487,-96.011618522,389,"1719 W LATIMER PL, TULSA, OK, 74127","Match","Exact","1719 W LATIMER PL, TULSA, OK, 74127",635522484,"R"
85390,"1719 WENSWORTH AVE","SPRINGDALE","AR",72762,36.2039035380001,-94.148290462,390,"1719 WENSWORTH AVE, SPRINGDALE, AR, 72762","Match","Exact","1719 WENSWORTH AVE, SPRINGDALE, AR, 72762",49042853,"L"
85391,"17191 COUNTY HIGHWAY X","CHIPPEWA FALLS","WI",54729,NA,NA,391,"17191 COUNTY HIGHWAY X, CHIPPEWA FALLS, WI, 54729","No_Match",NA,NA,NA,NA
85392,"17192 MURPHY AVE  NUMBER 14011","IRVINE","CA",92623,33.683522914,-117.83369611,392,"17192 MURPHY AVE  NUMBER 14011, IRVINE, CA, 92623","Match","Non_Exact","17192 MURPHY AVE, IRVINE, CA, 92614",650102581,"L"
85393,"17192 MURPHY AVE UNIT 17113","IRVINE","CA",92623,33.683522914,-117.83369611,393,"17192 MURPHY AVE UNIT 17113, IRVINE, CA, 92623","Match","Non_Exact","17192 MURPHY AVE, IRVINE, CA, 92614",650102581,"L"
85394,"17195 BEAVERTOWN RD","TODD","PA",16685,40.3010071190001,-78.0630834149999,394,"17195 BEAVERTOWN RD, TODD, PA, 16685","Match","Exact","17195 BEAVERTOWN RD, TODD, PA, 16685",50611722,"R"
85395,"17195 SHERIDAN STREET","PEMBROKE PINES","FL",33331,26.0293853920001,-80.377182058,395,"17195 SHERIDAN STREET, PEMBROKE PINES, FL, 33331","Match","Non_Exact","17195 SHERIDAN ST, FT LAUDERDALE, FL, 33331",648544301,"L"
85396,"17195 SILVER PARKWAY  221","FENTON","MI",48430,42.791649852,-83.7423004569999,396,"17195 SILVER PARKWAY  221, FENTON, MI, 48430","Match","Exact","17195 SILVER PKWY, FENTON, MI, 48430",69592381,"R"
85397,"17195 SUNBIRD LANE","RENO","NV",89508,39.681320885,-119.96155969,397,"17195 SUNBIRD LANE, RENO, NV, 89508","Match","Exact","17195 SUNBIRD LN, RENO, NV, 89508",107079169,"L"
85398,"17199 18TH RD","CULVER","IN",46511,41.2155243190001,-86.390407474,398,"17199 18TH RD, CULVER, IN, 46511","Match","Exact","17199 18TH RD, CULVER, IN, 46511",7648185,"L"
85399,"17199 FM 2493","FLINT","TX",75762,NA,NA,399,"17199 FM 2493, FLINT, TX, 75762","No_Match",NA,NA,NA,NA
85400,"1719B GALLOWAY DRIVE","CHARLOTTESVILLE","VA",22901,38.057080398,-78.472234352,400,"1719B GALLOWAY DRIVE, CHARLOTTESVILLE, VA, 22901","Match","Exact","1719 GALLOWAY DR, CHARLOTTESVILLE, VA, 22901",83370165,"L"
85401,"171NE EXCHANGE AVE","ROSEBURG","OR",97470,43.2367398110001,-123.352764643,401,"171NE EXCHANGE AVE, ROSEBURG, OR, 97470","Match","Non_Exact","171 NE EXCHANGE AVE, ROSEBURG, OR, 97470",636586011,"R"
85402,"172 4TH ST SE","HURON","SD",57350,44.362033947,-98.211286237,402,"172 4TH ST SE, HURON, SD, 57350","Match","Exact","172 4TH ST SE, HURON, SD, 57350",201039769,"L"
85403,"172 ABIGAIL LANE","MAGNOLIA","DE",19962,39.105607229,-75.492122448,403,"172 ABIGAIL LANE, MAGNOLIA, DE, 19962","Match","Exact","172 ABIGAIL LN, MAGNOLIA, DE, 19962",617131242,"R"
85404,"172 ALICE LANE","GAINESVILLE","TX",76240,33.60534849,-97.1171711009999,404,"172 ALICE LANE, GAINESVILLE, TX, 76240","Match","Exact","172 ALICE LN, GAINESVILLE, TX, 76240",151327569,"L"
85405,"172 ALLEN STREET","NEW YORK","NY",10002,40.721125204,-73.989271699,405,"172 ALLEN STREET, NEW YORK, NY, 10002","Match","Exact","172 ALLEN ST, NEW YORK, NY, 10002",59654095,"R"
85406,"172 ALMOND RIDGE DRIVE","FORTSON","GA",31808,NA,NA,406,"172 ALMOND RIDGE DRIVE, FORTSON, GA, 31808","Tie",NA,NA,NA,NA
85407,"172 ARROWHEAD RD","LOUISVILLE","KY",40207,38.2741051890001,-85.6612772829999,407,"172 ARROWHEAD RD, LOUISVILLE, KY, 40207","Match","Exact","172 ARROWHEAD RD, LOUISVILLE, KY, 40207",96852039,"L"
85408,"172 ASH AVE","MILTONA","MN",56354,46.051540281,-95.3002790689999,408,"172 ASH AVE, MILTONA, MN, 56354","Match","Exact","172 ASH AVE, MILTONA, MN, 56354",204668571,"R"
85409,"172 ASPEN STREET","FLORAL PARK","NY",11001,40.719897127,-73.695129751,409,"172 ASPEN STREET, FLORAL PARK, NY, 11001","Match","Exact","172 ASPEN ST, FLORAL PARK, NY, 11001",147666565,"R"
85410,"172 AUDUBON AVENUE","MCDONOUGH","GA",30253,33.436450284,-84.1829671529999,410,"172 AUDUBON AVENUE, MCDONOUGH, GA, 30253","Match","Exact","172 AUDUBON AVE, MCDONOUGH, GA, 30253",23213901,"L"
85411,"172 BARTON COVE","MARION","AR",72364,35.2163889120001,-90.2044986019999,411,"172 BARTON COVE, MARION, AR, 72364","Match","Exact","172 BARTON COVE, MARION, AR, 72364",69371467,"L"
85412,"172 BELLEVUE ST 2R","ELIZABETH","NJ",7202,40.6618711240001,-74.236568904,412,"172 BELLEVUE ST 2R, ELIZABETH, NJ, 7202","Match","Exact","172 BELLEVUE ST, ELIZABETH, NJ, 07202",60578038,"L"
85413,"172 BOISE AVE APT 1","BISMARCK","ND",58504,46.793944944,-100.790473342,413,"172 BOISE AVE APT 1, BISMARCK, ND, 58504","Match","Exact","172 BOISE AVE, BISMARCK, ND, 58504",198849149,"L"
85414,"172 BRISTOL WAY SOUTH","RICHMOND HILL","GA",31324,31.933588716,-81.3130446279999,414,"172 BRISTOL WAY SOUTH, RICHMOND HILL, GA, 31324","Match","Non_Exact","172 BRISTOL WAY, RICHMOND HILL, GA, 31324",647300729,"R"
85415,"172 CABIN HILL LANE","WOODBURY","TN",37190,35.793860667,-86.107288962,415,"172 CABIN HILL LANE, WOODBURY, TN, 37190","Match","Exact","172 CABIN HILL LN, WOODBURY, TN, 37190",87947552,"R"
85416,"172 CAPE MAY AVE","ESTELL MANOR","NJ",8319,39.364778147,-74.818941175,416,"172 CAPE MAY AVE, ESTELL MANOR, NJ, 8319","Match","Exact","172 CAPE MAY AVE, ESTELL MANOR, NJ, 08319",202496649,"L"
85417,"172 CATHERINE ST","RED BANK","NJ",7701,40.3437582970001,-74.079764632,417,"172 CATHERINE ST, RED BANK, NJ, 7701","Match","Exact","172 CATHERINE ST, RED BANK, NJ, 07701",90454166,"R"
85418,"172 CECILIA STREET","JONESBORO","LA",71251,32.24612776,-92.6926651319999,418,"172 CECILIA STREET, JONESBORO, LA, 71251","Match","Exact","172 CECILIA ST, JONESBORO, LA, 71251",161007222,"R"
85419,"172 CHERRIE MURRELL STREET","HINESVILLE","GA",31313,NA,NA,419,"172 CHERRIE MURRELL STREET, HINESVILLE, GA, 31313","No_Match",NA,NA,NA,NA
85420,"172 CHRISTOPHER MICHAEL LANE","HAMPTON","GA",30228,33.421968249,-84.290065909,420,"172 CHRISTOPHER MICHAEL LANE, HAMPTON, GA, 30228","Match","Exact","172 CHRISTOPHER MICHAEL LN, HAMPTON, GA, 30228",653450429,"R"
85421,"172 CLEARWATER DRIVE","SMITHFIELD","NC",27577,35.5747910440001,-78.333864406,421,"172 CLEARWATER DRIVE, SMITHFIELD, NC, 27577","Match","Non_Exact","172 CLEAR WATER DR, SMITHFIELD, NC, 27577",647088272,"L"
85422,"172 COLBY STREET","SPENCERPORT","NY",14559,43.1777246890001,-77.8221441009999,422,"172 COLBY STREET, SPENCERPORT, NY, 14559","Match","Exact","172 COLBY ST, SPENCERPORT, NY, 14559",14524547,"R"
85423,"172 CONLEY AVE","BLOOMFIELD","KY",40008,37.9084604780001,-85.325455515,423,"172 CONLEY AVE, BLOOMFIELD, KY, 40008","Match","Exact","172 CONLEY AVE, BLOOMFIELD, KY, 40008",35150291,"L"
85424,"172 COUNTY ROAD 759","RICEVILLE","TN",37370,35.3061223010001,-84.671928609,424,"172 COUNTY ROAD 759, RICEVILLE, TN, 37370","Match","Exact","172 CO RD 759, RICEVILLE, TN, 37370",88538345,"L"
85425,"172 CREEKSIDE PARK RD STE 103","BULVERDE","TX",78070,29.7991104220001,-98.427605473,425,"172 CREEKSIDE PARK RD STE 103, BULVERDE, TX, 78070","Match","Exact","172 CREEKSIDE PARK RD, BULVERDE, TX, 78070",72261156,"R"
85426,"172 CUSHING STREET","CAMBRIDGE","MA",2138,42.379367173,-71.152458768,426,"172 CUSHING STREET, CAMBRIDGE, MA, 2138","Match","Exact","172 CUSHING ST, CAMBRIDGE, MA, 02138",647977396,"L"
85427,"172 CYPRESS LANE","FAIRHOPE","AL",36532,30.5082077550001,-87.8820915379999,427,"172 CYPRESS LANE, FAIRHOPE, AL, 36532","Match","Exact","172 CYPRESS LN, FAIRHOPE, AL, 36532",131727233,"L"
85428,"172 DEAN RD","RUSSELL","NY",13684,44.377837904,-75.045820885,428,"172 DEAN RD, RUSSELL, NY, 13684","Match","Exact","172 DEAN RD, RUSSELL, NY, 13684",155230170,"R"
85429,"172 DEMPSEY DRIVE","LEXINGTON","SC",29073,33.8959021650001,-81.2519816019999,429,"172 DEMPSEY DRIVE, LEXINGTON, SC, 29073","Match","Exact","172 DEMPSEY DR, LEXINGTON, SC, 29073",625107515,"R"
85430,"172 DOWNES AVE","STATEN ISLAND","NY",10312,40.53698497,-74.1850320139999,430,"172 DOWNES AVE, STATEN ISLAND, NY, 10312","Match","Exact","172 DOWNES AVE, STATEN ISLAND, NY, 10312",59883625,"L"
85431,"172 E 15TH ST","CHICO","CA",95928,39.7225990750001,-121.827667605,431,"172 E 15TH ST, CHICO, CA, 95928","Match","Exact","172 E 15TH ST, CHICO, CA, 95928",647258988,"L"
85432,"172 E WALNUT PARK DRIVE","PHILADELPHIA","PA",19120,40.0479008720001,-75.1160655469999,432,"172 E WALNUT PARK DRIVE, PHILADELPHIA, PA, 19120","Match","Exact","172 E WALNUT PARK DR, PHILADELPHIA, PA, 19120",131440996,"R"
85433,"172 EAST AVENUE","LOCKPORT","NY",14094,43.1726011320001,-78.682489553,433,"172 EAST AVENUE, LOCKPORT, NY, 14094","Match","Exact","172 EAST AVE, LOCKPORT, NY, 14094",48691672,"R"
85434,"172 EMERALD LAKE DRIVE","JACKSON","TN",38305,35.7001237040001,-88.8194749469999,434,"172 EMERALD LAKE DRIVE, JACKSON, TN, 38305","Match","Exact","172 EMERALD LAKE DR, JACKSON, TN, 38305",21333460,"R"
85435,"172 EXCHANGE ST UNIT 201","PAWTUCKET","RI",2860,41.8797818240001,-71.38068886,435,"172 EXCHANGE ST UNIT 201, PAWTUCKET, RI, 2860","Match","Exact","172 EXCHANGE ST, PAWTUCKET, RI, 02860",47492284,"L"
85436,"172 FALCONER ST APT 2","JAMESTOWN","NY",14701,42.104292867,-79.228755609,436,"172 FALCONER ST APT 2, JAMESTOWN, NY, 14701","Match","Exact","172 FALCONER ST, JAMESTOWN, NY, 14701",120753321,"R"
85437,"172 GLACIER AVE","WEST GLACIER","MT",59936,48.4956526930001,-113.983919054,437,"172 GLACIER AVE, WEST GLACIER, MT, 59936","Match","Exact","172 GLACIER AVE, WEST GLACIER, MT, 59936",204072006,"L"
85438,"172 GLEN OAK DR","EAST AMHERST","NY",14051,43.0437807590001,-78.7126638839999,438,"172 GLEN OAK DR, EAST AMHERST, NY, 14051","Match","Exact","172 GLEN OAK DR, EAST AMHERST, NY, 14051",48285585,"L"
85439,"172 HERKIMER ST APT 1","BROOKLYN","NY",11216,40.6795270980001,-73.947654604,439,"172 HERKIMER ST APT 1, BROOKLYN, NY, 11216","Match","Exact","172 HERKIMER ST, BROOKLYN, NY, 11216",59078916,"R"
85440,"172 HUNNINGTON DRIVE","COLUMBUS","MS",39705,33.5636670920001,-88.409231792,440,"172 HUNNINGTON DRIVE, COLUMBUS, MS, 39705","Match","Exact","172 HUNNINGTON DR, COLUMBUS, MS, 39705",755462,"R"
85441,"172 KEY HEIGHTS DR","TAVERNIER","FL",33070,24.9785452200001,-80.5559941239999,441,"172 KEY HEIGHTS DR, TAVERNIER, FL, 33070","Match","Exact","172 KEY HEIGHTS DR, TAVERNIER, FL, 33070",116485631,"L"
85442,"172 KING ST","CHULA VISTA","CA",91910,32.6297813830001,-117.069526107,442,"172 KING ST, CHULA VISTA, CA, 91910","Match","Exact","172 KING ST, CHULA VISTA, CA, 91910",195699276,"L"
85443,"172 LAKE SHORE DRIVE","LAKE HIAWATHA","NJ",7034,40.8787964160001,-74.381647833,443,"172 LAKE SHORE DRIVE, LAKE HIAWATHA, NJ, 7034","Match","Exact","172 LAKE SHORE DR, LAKE HIAWATHA, NJ, 07034",60446181,"R"
85444,"172 LANGFORD ROAD","CANDIA","NH",3034,43.0465094940001,-71.246980733,444,"172 LANGFORD ROAD, CANDIA, NH, 3034","Match","Exact","172 LANGFORD RD, CANDIA, NH, 03034",643154522,"R"
85445,"172 LEEDOM WAY","NEWTOWN","PA",18940,NA,NA,445,"172 LEEDOM WAY, NEWTOWN, PA, 18940","No_Match",NA,NA,NA,NA
85446,"172 LINDLEY DR","SACRAMENTO","CA",95814,38.6194088030001,-121.463245097,446,"172 LINDLEY DR, SACRAMENTO, CA, 95814","Match","Non_Exact","172 LINDLEY DR, SACRAMENTO, CA, 95815",133321001,"R"
85447,"172 LONDON DRIVE SE","CLEVELAND","TN",37323,35.1311830280001,-84.752119079,447,"172 LONDON DRIVE SE, CLEVELAND, TN, 37323","Match","Exact","172 LONDON DR SE, CLEVELAND, TN, 37323",633786044,"R"
85448,"172 MAIN ST","SAYREVILLE","NJ",8872,40.4643135970001,-74.361470969,448,"172 MAIN ST, SAYREVILLE, NJ, 8872","Match","Exact","172 MAIN ST, SAYREVILLE, NJ, 08872",60333802,"R"
85449,"172 MARSH ROAD","LITCHFIELD","CT",6778,NA,NA,449,"172 MARSH ROAD, LITCHFIELD, CT, 6778","No_Match",NA,NA,NA,NA
85450,"172 N 2ND ST","DECATUR","IN",46733,40.8309813450001,-84.924287665,450,"172 N 2ND ST, DECATUR, IN, 46733","Match","Exact","172 N 2ND ST, DECATUR, IN, 46733",6483633,"R"
85451,"172 N PASADENA ST","YPSILANTI","MI",48198,42.2530573280001,-83.5648501759999,451,"172 N PASADENA ST, YPSILANTI, MI, 48198","Match","Non_Exact","172 PASADENA ST N, YPSILANTI, MI, 48198",26021719,"R"
85452,"172 N ROYS AVE","COLUMBUS","OH",43204,39.9581689390001,-83.078540499,452,"172 N ROYS AVE, COLUMBUS, OH, 43204","Match","Exact","172 N ROYS AVE, COLUMBUS, OH, 43204",135566470,"R"
85453,"172 N WASHINGTON ST","DELAWARE","OH",43015,40.3044046570001,-83.070800763,453,"172 N WASHINGTON ST, DELAWARE, OH, 43015","Match","Exact","172 N WASHINGTON ST, DELAWARE, OH, 43015",24585178,"R"
85454,"172 NORTH 2ND STREET","DECATUR","IN",46733,40.8309645690001,-84.924284071,454,"172 NORTH 2ND STREET, DECATUR, IN, 46733","Match","Exact","172 N 2ND ST, DECATUR, IN, 46733",6483633,"R"
85455,"172 NORTH ALLEN STREET","ALBANY","NY",12206,42.672203208,-73.7859910779999,455,"172 NORTH ALLEN STREET, ALBANY, NY, 12206","Match","Exact","172 N ALLEN ST, ALBANY, NY, 12206",18308735,"L"
85456,"172 NORTH AVENUE","BURLINGTON","VT",5401,44.486334679,-73.2238387209999,456,"172 NORTH AVENUE, BURLINGTON, VT, 5401","Match","Exact","172 NORTH AVE, BURLINGTON, VT, 05401",135827158,"R"
85457,"172 NORTH ELM AVENUE","NEWTOWN","PA",18940,40.2316634950001,-74.928355321,457,"172 NORTH ELM AVENUE, NEWTOWN, PA, 18940","Match","Exact","172 N ELM AVE, NEWTOWN, PA, 18940",134710972,"L"
85458,"172 NORTH TWELFTH STREET","CONNELLSVILLE","PA",15425,40.0162104440001,-79.606510794,458,"172 NORTH TWELFTH STREET, CONNELLSVILLE, PA, 15425","Match","Exact","172 N 12TH ST, CONNELLSVILLE, PA, 15425",51151842,"R"
85459,"172 NORTHFIELD AVENUE","DOBBS FERRY","NY",10522,41.019830143,-73.848149806,459,"172 NORTHFIELD AVENUE, DOBBS FERRY, NY, 10522","Match","Exact","172 NORTHFIELD AVE, DOBBS FERRY, NY, 10522",139766861,"R"
85460,"172 OLD COUNTRY RD","DEER PARK","NY",11729,40.768458487,-73.343002185,460,"172 OLD COUNTRY RD, DEER PARK, NY, 11729","Match","Exact","172 OLD COUNTRY RD, DEER PARK, NY, 11729",113969770,"R"
85461,"172 PAINTER RD","TEMPLETON","PA",16259,40.8694681310001,-79.476997596,461,"172 PAINTER RD, TEMPLETON, PA, 16259","Match","Exact","172 PAINTER RD, TEMPLETON, PA, 16259",52479488,"L"
85462,"172 PANOLA RD","ELLENWOOD","GA",30294,33.643719898,-84.19104179,462,"172 PANOLA RD, ELLENWOOD, GA, 30294","Match","Exact","172 PANOLA RD, ELLENWOOD, GA, 30294",23214349,"R"
85463,"172 PARK CIRCLE","BRANCHVILLE","SC",29432,33.186190664,-80.703270092,463,"172 PARK CIRCLE, BRANCHVILLE, SC, 29432","Match","Exact","172 PARK CIR, BRANCHVILLE, SC, 29432",178451503,"L"
85464,"172 PARK STREET","PELLSTON","MI",49769,45.5525517460001,-84.7822638389999,464,"172 PARK STREET, PELLSTON, MI, 49769","Match","Exact","172 PARK ST, PELLSTON, MI, 49769",133980978,"R"
85465,"172 PARROW ST","ORANGE","NJ",7050,40.767526015,-74.227995762,465,"172 PARROW ST, ORANGE, NJ, 7050","Match","Exact","172 PARROW ST, ORANGE, NJ, 07050",63450102,"L"
85466,"172 PENNY LANE","EVERETT","PA",15537,39.9946111740001,-78.358312897,466,"172 PENNY LANE, EVERETT, PA, 15537","Match","Exact","172 PENNY LN, EVERETT, PA, 15537",50158941,"R"
85467,"172 POINT ROAD","HARTWELL","GA",30643,34.413052212,-82.9002083399999,467,"172 POINT ROAD, HARTWELL, GA, 30643","Match","Exact","172 POINT RD, HARTWELL, GA, 30643",610575262,"R"
85468,"172 POWDER HOUSE BLVD SUITE 1","SOMERVILLE","MA",2144,42.40564098,-71.1261789129999,468,"172 POWDER HOUSE BLVD SUITE 1, SOMERVILLE, MA, 2144","Match","Exact","172 POWDER HOUSE BLVD, SOMERVILLE, MA, 02144",86889978,"L"
85469,"172 R D SMITH ROAD","ROSE BUD","AR",72137,35.3132485310001,-92.0500726449999,469,"172 R D SMITH ROAD, ROSE BUD, AR, 72137","Match","Exact","172 R D SMITH RD, ROSE BUD, AR, 72137",82961585,"R"
85470,"172 REGATTA DRIVE","BRANDON","MS",39047,32.377630638,-90.0388145859999,470,"172 REGATTA DRIVE, BRANDON, MS, 39047","Match","Exact","172 REGATTA DR, BRANDON, MS, 39047",624758388,"L"
85471,"172 RHYTHM CT","NEWARK","DE",19713,39.6876380780001,-75.6931238189999,471,"172 RHYTHM CT, NEWARK, DE, 19713","Match","Exact","172 RHYTHM CT, NEWARK, DE, 19713",187282469,"R"
85472,"172 RICHARDS WAY","HIRAM","GA",30141,33.823737018,-84.7901759539999,472,"172 RICHARDS WAY, HIRAM, GA, 30141","Match","Exact","172 RICHARDS WAY, HIRAM, GA, 30141",618942800,"R"
85473,"172 RICHMOND DR","FLORENCE","MS",39073,32.120323931,-90.0655134579999,473,"172 RICHMOND DR, FLORENCE, MS, 39073","Match","Exact","172 RICHMOND DR, FLORENCE, MS, 39073",116903234,"R"
85474,"172 RICHMOND DRIVE","FLORENCE","MS",39073,32.120323931,-90.0655134579999,474,"172 RICHMOND DRIVE, FLORENCE, MS, 39073","Match","Exact","172 RICHMOND DR, FLORENCE, MS, 39073",116903234,"R"
85475,"172 RIDGE BROOK LANE","DOUGLASVILLE","GA",30313,NA,NA,475,"172 RIDGE BROOK LANE, DOUGLASVILLE, GA, 30313","No_Match",NA,NA,NA,NA
85476,"172 RIVER ROAD","WETUMPKA","AL",36092,32.552122544,-86.193676903,476,"172 RIVER ROAD, WETUMPKA, AL, 36092","Match","Exact","172 RIVER RD, WETUMPKA, AL, 36092",1362632,"R"
85477,"172 ROCK ROAD","HAWTHORNE","NJ",7506,40.967937981,-74.143801675,477,"172 ROCK ROAD, HAWTHORNE, NJ, 7506","Match","Exact","172 ROCK RD, HAWTHORNE, NJ, 07506",642879421,"L"
85478,"172 ROYAL PINE CIRCLE SOUTH","ROYAL PALM BEACH","FL",33411,26.7175683300001,-80.229987975,478,"172 ROYAL PINE CIRCLE SOUTH, ROYAL PALM BEACH, FL, 33411","Match","Exact","172 ROYAL PINE CIR S, ROYAL PALM BEACH, FL, 33411",115325283,"L"
85479,"172 RUNWAY ROAD","TUNKHANNOCK","PA",18657,NA,NA,479,"172 RUNWAY ROAD, TUNKHANNOCK, PA, 18657","No_Match",NA,NA,NA,NA
85480,"172 S MAIN ST","OTTAWA","OH",45875,41.017075704,-83.924089639,480,"172 S MAIN ST, OTTAWA, OH, 45875","Match","Exact","172 MAIN ST, OTTAWA, OH, 45875",36566435,"L"
85481,"172 S SHADOW PINES RD","ORANGE","CA",92869,33.7868281840001,-117.76421296,481,"172 S SHADOW PINES RD, ORANGE, CA, 92869","Match","Exact","172 S SHADOW PINES RD, ORANGE, CA, 92869",144124965,"L"
85482,"172 S SUNLAND DRIVE","CAMP VERDE","AZ",86322,34.5601524300001,-111.857437442,482,"172 S SUNLAND DRIVE, CAMP VERDE, AZ, 86322","Match","Exact","172 SUNLAND DR, CAMP VERDE, AZ, 86322",625337332,"L"
85483,"172 SAPPHIRE LANE","SHANNON","NC",28386,34.8118679580001,-79.077827489,483,"172 SAPPHIRE LANE, SHANNON, NC, 28386","Match","Non_Exact","172 SAPPHIRE RD, SHANNON, NC, 28386",608081130,"L"
85484,"172 SAPPINGTON ACRES","SAINT LOUIS","MO",63126,38.534482618,-90.370170505,484,"172 SAPPINGTON ACRES, SAINT LOUIS, MO, 63126","Match","Non_Exact","172 SAPPINGTON ACRES DR, SAINT LOUIS, MO, 63126",100182563,"R"
85485,"172 SCOTTSVILLE RD","ROCHESTER","NY",14611,43.1240057200001,-77.643609829,485,"172 SCOTTSVILLE RD, ROCHESTER, NY, 14611","Match","Exact","172 SCOTTSVILLE RD, ROCHESTER, NY, 14611",652650110,"R"
85486,"172 SE VILLAGE DRIVE","PORT ST LUCIE","FL",34952,27.280815611,-80.2937728639999,486,"172 SE VILLAGE DRIVE, PORT ST LUCIE, FL, 34952","Match","Exact","172 SE VILLAGE DR, PORT ST LUCIE, FL, 34952",637117168,"R"
85487,"172 SEA GRASS LN","ARVERNE","NY",11692,40.5907568050001,-73.7922075559999,487,"172 SEA GRASS LN, ARVERNE, NY, 11692","Match","Exact","172 SEA GRASS LN, ARVERNE, NY, 11692",641615554,"R"
85488,"172 SHOAL RD","LINCOLNTON","NC",28092,35.4851594200001,-81.387665958,488,"172 SHOAL RD, LINCOLNTON, NC, 28092","Match","Exact","172 SHOAL RD, LINCOLNTON, NC, 28092",69525925,"L"
85489,"172 SHOAL ROAD","LINCOLNTON","NC",28092,35.4851594200001,-81.387665958,489,"172 SHOAL ROAD, LINCOLNTON, NC, 28092","Match","Exact","172 SHOAL RD, LINCOLNTON, NC, 28092",69525925,"L"
85490,"172 SLEEPY HOLLOW RD","JOHNSON CITY","TN",37604,36.274354143,-82.401136429,490,"172 SLEEPY HOLLOW RD, JOHNSON CITY, TN, 37604","Match","Exact","172 SLEEPY HOLLOW RD, JOHNSON CITY, TN, 37604",127948861,"R"
85491,"172 SOPER ST","OCEANSIDE","NY",11572,40.63770593,-73.646840401,491,"172 SOPER ST, OCEANSIDE, NY, 11572","Match","Exact","172 SOPER ST, OCEANSIDE, NY, 11572",147681106,"R"
85492,"172 SOUTHWORTH ST","BROCKTON","MA",2301,42.056770511,-71.027521865,492,"172 SOUTHWORTH ST, BROCKTON, MA, 2301","Match","Exact","172 SOUTHWORTH ST, BROCKTON, MA, 02301",87444401,"L"
85493,"172 STARBRIGHT CT","WELLINGTON","CO",80549,40.760511362,-105.076850489,493,"172 STARBRIGHT CT, WELLINGTON, CO, 80549","Match","Exact","172 STARBRIGHT CT, WELLINGTON, CO, 80549",188586951,"R"
85494,"172 STILLWATER ROAD","HARDWICK","NJ",7825,NA,NA,494,"172 STILLWATER ROAD, HARDWICK, NJ, 7825","No_Match",NA,NA,NA,NA
85495,"172 TWO HITCH ROAD","GOOSE CREEK","SC",29445,33.0278358,-80.078646915,495,"172 TWO HITCH ROAD, GOOSE CREEK, SC, 29445","Match","Exact","172 TWO HITCH RD, GOOSE CREEK, SC, 29445",626961599,"R"
85496,"172 TYRAKAY TRL","NORFORK","AR",72658,NA,NA,496,"172 TYRAKAY TRL, NORFORK, AR, 72658","No_Match",NA,NA,NA,NA
85497,"172 VISCOUNT DRIVE","WILLIAMSVILLE","NY",14221,43.009106166,-78.729334034,497,"172 VISCOUNT DRIVE, WILLIAMSVILLE, NY, 14221","Match","Exact","172 VISCOUNT DR, WILLIAMSVILLE, NY, 14221",48318388,"L"
85498,"172 W 130TH STREET OFC1","NEW YORK","NY",10027,40.811774461,-73.945201965,498,"172 W 130TH STREET OFC1, NEW YORK, NY, 10027","Match","Non_Exact","172 W 130TH ST, NEW YORK, NY, 10027",59656191,"L"
85499,"172 W WARREN AVE","LONGWOOD","FL",32750,28.7000989210001,-81.34789997,499,"172 W WARREN AVE, LONGWOOD, FL, 32750","Match","Exact","172 W WARREN AVE, LONGWOOD, FL, 32750",93737967,"L"
85500,"172 WASHINGTON","PEMBROKE","MA",2359,42.0993662060001,-70.79919419,500,"172 WASHINGTON, PEMBROKE, MA, 2359","Match","Non_Exact","172 WASHINGTON ST, PEMBROKE, MA, 02359",631974087,"L"
