"ID","Address","City","State","Zip","lat","long","id","input_address","match_indicator","match_type","matched_address","tiger_line_id","tiger_side"
132001,"24 CARRIAGE WAY","BARNEGAT","NJ",8005,39.765283368,-74.277206635,1,"24 CARRIAGE WAY, BARNEGAT, NJ, 8005","Match","Exact","24 CARRIAGE WAY, BARNEGAT, NJ, 08005",636160450,"L"
132002,"24 CATHEDRAL PLACE SUITE 200","ST. AUGUSTINE","FL",32084,29.8927351940001,-81.312007137,2,"24 CATHEDRAL PLACE SUITE 200, ST. AUGUSTINE, FL, 32084","Match","Exact","24 CATHEDRAL PL, SAINT AUGUSTINE, FL, 32084",92582203,"R"
132003,"24 CENTER STREET","LUDLOW","MA",1056,42.158513713,-72.484531411,3,"24 CENTER STREET, LUDLOW, MA, 1056","Match","Exact","24 CENTER ST, LUDLOW, MA, 01056",4026210,"R"
132004,"24 CHARTER AVE","DIX HILLS","NY",11746,40.781277458,-73.3122372569999,4,"24 CHARTER AVE, DIX HILLS, NY, 11746","Match","Exact","24 CHARTER AVE, DIX HILLS, NY, 11746",113982372,"R"
132005,"24 CHELSEA CIRCLE","SOUTH BURLINGTON","VT",5403,44.4522358450001,-73.164623912,5,"24 CHELSEA CIRCLE, SOUTH BURLINGTON, VT, 5403","Match","Exact","24 CHELSEA CIR, S BURLINGTON, VT, 05403",135842298,"R"
132006,"24 CHESTER AVE APT 2","BROCKTON","MA",2301,42.07858127,-71.024224735,6,"24 CHESTER AVE APT 2, BROCKTON, MA, 2301","Match","Exact","24 CHESTER AVE, BROCKTON, MA, 02301",87443947,"L"
132007,"24 CHESTNUT STREET","BOSTON","MA",2108,42.357562898,-71.067411056,7,"24 CHESTNUT STREET, BOSTON, MA, 2108","Match","Exact","24 CHESTNUT ST, BOSTON, MA, 02108",639002191,"L"
132008,"24 CHURCH LANE","SCHAGHTICOKE","NY",12154,43.0088524060001,-73.550108123,8,"24 CHURCH LANE, SCHAGHTICOKE, NY, 12154","Match","Exact","24 CHURCH LN, SCHAGHTICOKE, NY, 12154",139149260,"R"
132009,"24 CHURCH STREET","AUBURN","MA",1501,42.1956774540001,-71.8386537599999,9,"24 CHURCH STREET, AUBURN, MA, 1501","Match","Exact","24 CHURCH ST, AUBURN, MA, 01501",40008738,"R"
132010,"24 CHURCH STREET","GREAT NECK","NY",11023,40.8027323310001,-73.737553025,10,"24 CHURCH STREET, GREAT NECK, NY, 11023","Match","Exact","24 CHURCH ST, GREAT NECK, NY, 11023",147656003,"R"
132011,"24 CHURCH STREET","HILLSBORO","NH",3244,43.1132050860001,-71.898313241,11,"24 CHURCH STREET, HILLSBORO, NH, 3244","Match","Exact","24 CHURCH ST, HILLSBORO, NH, 03244",113561208,"L"
132012,"24 CLEVELAND ST","SACO","ME",4072,43.502956102,-70.4391210159999,12,"24 CLEVELAND ST, SACO, ME, 4072","Match","Exact","24 CLEVELAND ST, SACO, ME, 04072",92757128,"R"
132013,"24 CLIFF STREET","MONTPELIER","VT",5602,44.2630181050001,-72.5758339939999,13,"24 CLIFF STREET, MONTPELIER, VT, 5602","Match","Exact","24 CLIFF ST, MONTPELIER, VT, 05602",136666597,"L"
132014,"24 CLIFF WALK DRIVE","VALLEJO","CA",94591,38.0691105770001,-122.214334992,14,"24 CLIFF WALK DRIVE, VALLEJO, CA, 94591","Match","Exact","24 CLIFF WALK DR, VALLEJO, CA, 94591",650940886,"R"
132015,"24 CLOVER DR","BLUFFTON","SC",29909,32.276465972,-80.952555455,15,"24 CLOVER DR, BLUFFTON, SC, 29909","Match","Exact","24 CLOVER DR, BLUFFTON, SC, 29909",632873699,"L"
132016,"24 CLOVER DRIVE","BAYFIELD","CO",81122,NA,NA,16,"24 CLOVER DRIVE, BAYFIELD, CO, 81122","No_Match",NA,NA,NA,NA
132017,"24 COLES GROVE ROAD","DERRY","NH",3038,42.90377284,-71.298020338,17,"24 COLES GROVE ROAD, DERRY, NH, 3038","Match","Exact","24 COLES GROVE RD, DERRY, NH, 03038",113686442,"L"
132018,"24 COMMERCE STREET 11TH FLOOR","NEWARK","NJ",7102,40.736538368,-74.1695177989999,18,"24 COMMERCE STREET 11TH FLOOR, NEWARK, NJ, 7102","Match","Exact","24 COMMERCE ST, NEWARK, NJ, 07102",63467464,"R"
132019,"24 COOPER ROAD","TRURO","MA",2666,41.9788926000001,-70.069951464,19,"24 COOPER ROAD, TRURO, MA, 2666","Match","Exact","24 COOPER RD, TRURO, MA, 02666",647378746,"R"
132020,"24 COREY STREET APT 304","EVERETT","MA",2149,42.4058385640001,-71.057652779,20,"24 COREY STREET APT 304, EVERETT, MA, 2149","Match","Exact","24 COREY ST, EVERETT, MA, 02149",86873480,"L"
132021,"24 CORLISS STREET UNIT 9372","PROVIDENCE","RI",2940,NA,NA,21,"24 CORLISS STREET UNIT 9372, PROVIDENCE, RI, 2940","No_Match",NA,NA,NA,NA
132022,"24 CORRAL DRIVE","AMITYVILLE","NY",11701,40.7009379300001,-73.409514912,22,"24 CORRAL DRIVE, AMITYVILLE, NY, 11701","Match","Exact","24 CORRAL DR, AMITYVILLE, NY, 11701",113972279,"R"
132023,"24 CORTLAND WAT","NEWINGTON","CT",6111,41.658702335,-72.71562632,23,"24 CORTLAND WAT, NEWINGTON, CT, 6111","Match","Non_Exact","24 CORTLAND WAY, NEWINGTON, CT, 06111",3520362,"L"
132024,"24 CORTLANDT STREET","BELLEVILLE","NJ",7109,40.7818341130001,-74.152257659,24,"24 CORTLANDT STREET, BELLEVILLE, NJ, 7109","Match","Exact","24 CORTLANDT ST, BELLEVILLE, NJ, 07109",63481256,"R"
132025,"24 COTTAGE ST","MONROE","CT",6468,41.3754135280001,-73.174991773,25,"24 COTTAGE ST, MONROE, CT, 6468","Match","Exact","24 COTTAGE ST, MONROE, CT, 06468",3283531,"R"
132026,"24 COUNTRY SQUIRE LANE","MARLTON","NJ",8053,39.8743312290001,-74.891325348,26,"24 COUNTRY SQUIRE LANE, MARLTON, NJ, 8053","Match","Exact","24 COUNTRY SQUIRE LN, MARLTON, NJ, 08053",134070681,"R"
132027,"24 COVINGTON RD","BUFFALO","NY",14216,42.9508569010001,-78.842641123,27,"24 COVINGTON RD, BUFFALO, NY, 14216","Match","Exact","24 COVINGTON RD, BUFFALO, NY, 14216",48295832,"L"
132028,"24 COWBARN LANE STE 8","NOVATO","CA",94947,38.077951139,-122.554337491,28,"24 COWBARN LANE STE 8, NOVATO, CA, 94947","Match","Exact","24 COWBARN LN, NOVATO, CA, 94947",192761173,"R"
132029,"24 CR 338","JONESBORO","AR",72401,35.869509925,-90.766520493,29,"24 CR 338, JONESBORO, AR, 72401","Match","Exact","24 CO RD 338, JONESBORO, AR, 72401",46926276,"R"
132030,"24 CRESCENT ST-STE 407","WALTHAM","MA",2453,42.3717810540001,-71.2375944409999,30,"24 CRESCENT ST-STE 407, WALTHAM, MA, 2453","Match","Non_Exact","24 CRESCENT ST, WALTHAM, MA, 02453",639007358,"L"
132031,"24 CRESCENT ST-SUITE 302 ROOM 5","WALTHAM","MA",2453,42.3717810540001,-71.2375944409999,31,"24 CRESCENT ST-SUITE 302 ROOM 5, WALTHAM, MA, 2453","Match","Non_Exact","24 CRESCENT ST, WALTHAM, MA, 02453",639007358,"L"
132032,"24 CRESCENT STREET STE 302","WALTHAM","MA",2453,42.3717810540001,-71.2375944409999,32,"24 CRESCENT STREET STE 302, WALTHAM, MA, 2453","Match","Exact","24 CRESCENT ST, WALTHAM, MA, 02453",639007358,"L"
132033,"24 CRESCENT STREET SUITE 201","WALTHAM","MA",2453,42.3717810540001,-71.2375944409999,33,"24 CRESCENT STREET SUITE 201, WALTHAM, MA, 2453","Match","Exact","24 CRESCENT ST, WALTHAM, MA, 02453",639007358,"L"
132034,"24 CRICKET AVE APT 223","ARDMORE","PA",19003,40.0074030330001,-75.2916405519999,34,"24 CRICKET AVE APT 223, ARDMORE, PA, 19003","Match","Exact","24 CRICKET AVE, ARDMORE, PA, 19003",135087099,"R"
132035,"24 CROMWELL HILL RD","MONORE","NY",10950,41.3134885970001,-74.2212388689999,35,"24 CROMWELL HILL RD, MONORE, NY, 10950","Match","Non_Exact","24 CROMWELL HILL RD, MONROE, NY, 10950",124499463,"R"
132036,"24 CUMMINGS RD","BOSTON","MA",2135,42.340407692,-71.143837084,36,"24 CUMMINGS RD, BOSTON, MA, 2135","Match","Exact","24 CUMMINGS RD, BOSTON, MA, 02135",85727361,"L"
132037,"24 DAVIS AVENUE","JJOHNSON CITY","NY",13790,42.102393229,-75.9500363659999,37,"24 DAVIS AVENUE, JJOHNSON CITY, NY, 13790","Match","Non_Exact","24 DAVIS AVE, JOHNSON CITY, NY, 13790",46341006,"L"
132038,"24 DEGAS CIRCLE","WILMINGTON","DE",19808,39.7468244500001,-75.707469561,38,"24 DEGAS CIRCLE, WILMINGTON, DE, 19808","Match","Exact","24 DEGAS CIR, WILMINGTON, DE, 19808",187284361,"L"
132039,"24 DENISE STREET","MASSAPEQUA","NY",11758,40.6884892890001,-73.431801159,39,"24 DENISE STREET, MASSAPEQUA, NY, 11758","Match","Exact","24 DENISE ST, MASSAPEQUA, NY, 11758",147652834,"R"
132040,"24 DOCKSIDE LANE 505","KEY LARGO","FL",33037,25.3119792140001,-80.2834494479999,40,"24 DOCKSIDE LANE 505, KEY LARGO, FL, 33037","Match","Exact","24 DOCKSIDE LN, KEY LARGO, FL, 33037",116497708,"L"
132041,"24 DOE TAIL CT","SAVANNAH","GA",31406,31.9890477390001,-81.071483116,41,"24 DOE TAIL CT, SAVANNAH, GA, 31406","Match","Exact","24 DOE TAIL CT, SAVANNAH, GA, 31406",614110630,"R"
132042,"24 DONALD POTTER RD","W GREENWICH","RI",2817,41.646597532,-71.64301763,42,"24 DONALD POTTER RD, W GREENWICH, RI, 2817","Match","Non_Exact","24 DONALD POTTER DR, W GREENWICH, RI, 02817",159156503,"R"
132043,"24 DRAYTON STREET STE 604","SAVANNAH","GA",31401,32.0796868840001,-81.090422039,43,"24 DRAYTON STREET STE 604, SAVANNAH, GA, 31401","Match","Exact","24 DRAYTON ST, SAVANNAH, GA, 31401",6175101,"L"
132044,"24 DRISCOLL LANE","MATTAPOISETT","MA",2739,41.6656881440001,-70.818885791,44,"24 DRISCOLL LANE, MATTAPOISETT, MA, 2739","Match","Exact","24 DRISCOLL LN, MATTAPOISETT, MA, 02739",87423938,"R"
132045,"24 DUXBURY CIRCLE","VICTOR","NY",14564,42.9867410140001,-77.405308395,45,"24 DUXBURY CIRCLE, VICTOR, NY, 14564","Match","Exact","24 DUXBURY CIR, VICTOR, NY, 14564",13486684,"R"
132046,"24 E 1430 N","OREM","UT",84057,40.3232905570001,-111.695631734,46,"24 E 1430 N, OREM, UT, 84057","Match","Exact","24 E 1430 N, OREM, UT, 84057",134248070,"L"
132047,"24 E ASH STREET","COLUMBIA","MO",65203,38.953728664,-92.3367581909999,47,"24 E ASH STREET, COLUMBIA, MO, 65203","Match","Exact","24 E ASH ST, COLUMBIA, MO, 65203",23480916,"R"
132048,"24 E DIAMOND LAKE RD APT 309","MINNEAPOLIS","MN",55419,NA,NA,48,"24 E DIAMOND LAKE RD APT 309, MINNEAPOLIS, MN, 55419","Tie",NA,NA,NA,NA
132049,"24 E LARCHMONT ROAD APT 117","ASHEVILLE","NC",28804,NA,NA,49,"24 E LARCHMONT ROAD APT 117, ASHEVILLE, NC, 28804","No_Match",NA,NA,NA,NA
132050,"24 E MARKET STREET","WEST CHESTER","PA",19382,39.9600085320001,-75.603775217,50,"24 E MARKET STREET, WEST CHESTER, PA, 19382","Match","Exact","24 E MARKET ST, WEST CHESTER, PA, 19382",179490698,"R"
132051,"24 E POINT RD","PALMYRA","VA",22963,37.9045884380001,-78.2956591719999,51,"24 E POINT RD, PALMYRA, VA, 22963","Match","Exact","24 E POINT RD, PALMYRA, VA, 22963",73778407,"L"
132052,"24 E SKILLET AVE","DAYTON","IA",50530,42.2615058750001,-94.068107067,52,"24 E SKILLET AVE, DAYTON, IA, 50530","Match","Exact","24 E SKILLET AVE, DAYTON, IA, 50530",66069405,"R"
132053,"24 E WATER STREET","SINKING SPRING","OH",45172,39.072737084,-83.389260841,53,"24 E WATER STREET, SINKING SPRING, OH, 45172","Match","Exact","24 WATER ST, SINKING SPG, OH, 45172",642832896,"R"
132054,"24 EAST  MAIN STREET","CUBA","NY",14727,42.217459315,-78.2749036869999,54,"24 EAST  MAIN STREET, CUBA, NY, 14727","Match","Exact","24 E MAIN ST, CUBA, NY, 14727",82626106,"R"
132055,"24 EAST 107TH ST","CHICAGO","IL",60628,41.6998896850001,-87.622670082,55,"24 EAST 107TH ST, CHICAGO, IL, 60628","Match","Exact","24 E 107TH ST, CHICAGO, IL, 60628",605581572,"L"
132056,"24 EAST ATLANTIC AVENUE","LINDENWOLD","NJ",8021,39.814075372,-74.997053975,56,"24 EAST ATLANTIC AVENUE, LINDENWOLD, NJ, 8021","Match","Exact","24 E ATLANTIC AVE, LINDENWOLD, NJ, 08021",134361175,"R"
132057,"24 EAST KING STREET","LANCASTER","PA",17602,40.038075674,-76.304543526,57,"24 EAST KING STREET, LANCASTER, PA, 17602","Match","Exact","24 E KING ST, LANCASTER, PA, 17602",179664618,"R"
132058,"24 EDEN LANE","ROCHESTER","NY",14626,43.2097365770001,-77.716757844,58,"24 EDEN LANE, ROCHESTER, NY, 14626","Match","Exact","24 EDEN LN, ROCHESTER, NY, 14626",14529480,"L"
132059,"24 EDGEFIELD LANE","BRUNSWICK","ME",4011,43.906494179,-69.992434026,59,"24 EDGEFIELD LANE, BRUNSWICK, ME, 4011","Match","Exact","24 EDGEFIELD LN, BRUNSWICK, ME, 04011",624947146,"R"
132060,"24 EDGEWATER LANE","MARION","MA",2738,41.7268611100001,-70.742830364,60,"24 EDGEWATER LANE, MARION, MA, 2738","Match","Exact","24 EDGEWATER LN, MARION, MA, 02738",87425637,"L"
132061,"24 EL GAVILAN ROAD","ORINDA","CA",94563,37.8998333810001,-122.178837647,61,"24 EL GAVILAN ROAD, ORINDA, CA, 94563","Match","Exact","24 EL GAVILAN RD, ORINDA, CA, 94563",192045114,"R"
132062,"24 ELDREDGE ST","BATTLE CREEK","MI",49037,42.3432648770001,-85.2233818019999,62,"24 ELDREDGE ST, BATTLE CREEK, MI, 49037","Match","Exact","24 ELDREDGE ST, BATTLE CREEK, MI, 49037",11711135,"R"
132063,"24 ELMSFORD CIR","SALINAS","CA",93906,36.7073881170001,-121.609075946,63,"24 ELMSFORD CIR, SALINAS, CA, 93906","Match","Exact","24 ELMSFORD CIR, SALINAS, CA, 93906",196840798,"R"
132064,"24 ELTON DRIVE","EVA","AL",35621,34.328093462,-86.6899934099999,64,"24 ELTON DRIVE, EVA, AL, 35621","Match","Exact","24 ELTON DR, EVA, AL, 35621",97139307,"L"
132065,"24 ESTI CIRCLE","LAKEWOOD","NJ",8701,40.0682699380001,-74.251876446,65,"24 ESTI CIRCLE, LAKEWOOD, NJ, 8701","Match","Exact","24 ESTI CIR, LAKEWOOD, NJ, 08701",647020201,"L"
132066,"24 FACTORY HOLLOW","GREENFIELD","MA",1301,42.617753625,-72.5496273909999,66,"24 FACTORY HOLLOW, GREENFIELD, MA, 1301","Match","Non_Exact","24 FACTORY HOLLOW RD, GREENFIELD, MA, 01301",39937193,"L"
132067,"24 FAIRFAX ST","LOWELL","MA",1851,42.626291199,-71.332061107,67,"24 FAIRFAX ST, LOWELL, MA, 1851","Match","Exact","24 FAIRFAX ST, LOWELL, MA, 01851",86876756,"L"
132068,"24 FARWELL PLACE","CAMBRIDGE","MA",2138,42.374941522,-71.120955685,68,"24 FARWELL PLACE, CAMBRIDGE, MA, 2138","Match","Exact","24 FARWELL PL, CAMBRIDGE, MA, 02138",636944671,"R"
132069,"24 FATHER PETERS LANE","NEW CANAAN","CT",6840,NA,NA,69,"24 FATHER PETERS LANE, NEW CANAAN, CT, 6840","No_Match",NA,NA,NA,NA
132070,"24 FAWN BROOK COURT","OFALLON","MO",63366,38.8106970110001,-90.7724733599999,70,"24 FAWN BROOK COURT, OFALLON, MO, 63366","Match","Non_Exact","24 FAWN BROOK CT, O FALLON, MO, 63366",617665520,"L"
132071,"24 FEDERAL CT","COLLEGEVILLE","PA",19426,40.1746077450001,-75.4792712619999,71,"24 FEDERAL CT, COLLEGEVILLE, PA, 19426","Match","Exact","24 FEDERAL CT, COLLEGEVILLE, PA, 19426",605655042,"L"
132072,"24 FIFTH AVE SUITE 515","NEW YORK","NY",10011,40.732996664,-73.995811838,72,"24 FIFTH AVE SUITE 515, NEW YORK, NY, 10011","Match","Exact","24 5TH AVE, NEW YORK, NY, 10011",59653538,"L"
132073,"24 FIRETOWER ROAD","BUDD LAKE","NJ",7828,40.8896630420001,-74.750836093,73,"24 FIRETOWER ROAD, BUDD LAKE, NJ, 7828","Match","Exact","24 FIRETOWER RD, BUDD LAKE, NJ, 07828",60460551,"L"
132074,"24 FOXBORO LANE APT E","WEST MILFORD","NJ",7480,41.1135764000001,-74.3926615999999,74,"24 FOXBORO LANE APT E, WEST MILFORD, NJ, 7480","Match","Exact","24 FOXBORO LN, WEST MILFORD, NJ, 07480",65269039,"L"
132075,"24 FREEMAN AVENUE","MIDDLEPORT","NY",14105,43.2115682030001,-78.472878032,75,"24 FREEMAN AVENUE, MIDDLEPORT, NY, 14105","Match","Exact","24 FREEMAN AVE, MIDDLEPORT, NY, 14105",48683008,"R"
132076,"24 FRENCH HILL ROAD","SAINT ALBANS","VT",5478,44.8129276330001,-73.0617662929999,76,"24 FRENCH HILL ROAD, SAINT ALBANS, VT, 5478","Match","Exact","24 FRENCH HILL RD, SAINT ALBANS, VT, 05478",136533207,"L"
132077,"24 GAFNEY LANE","WILLINGBOBO","NJ",8046,40.0234908640001,-74.875737836,77,"24 GAFNEY LANE, WILLINGBOBO, NJ, 8046","Match","Non_Exact","24 GAFFNEY LN, WILLINGBORO, NJ, 08046",134058369,"R"
132078,"24 GALLANTRY CT","IRMO","SC",29063,34.125711418,-81.162227803,78,"24 GALLANTRY CT, IRMO, SC, 29063","Match","Exact","24 GALLANTRY CT, IRMO, SC, 29063",604751807,"R"
132079,"24 GALLUP HILL ROAD","LEDYARD","CT",6339,41.4363016630001,-71.989589412,79,"24 GALLUP HILL ROAD, LEDYARD, CT, 6339","Match","Exact","24 GALLUP HILL RD, LEDYARD, CT, 06339",635786982,"L"
132080,"24 GAMECOCK LN","BABYLON","NY",11702,40.687876454,-73.335993032,80,"24 GAMECOCK LN, BABYLON, NY, 11702","Match","Exact","24 GAMECOCK LN, BABYLON, NY, 11702",113978360,"L"
132081,"24 GEORGIA ST","CRANFORD","NJ",7016,40.638821928,-74.310061445,81,"24 GEORGIA ST, CRANFORD, NJ, 7016","Match","Exact","24 GEORGIA ST, CRANFORD, NJ, 07016",60574527,"R"
132082,"24 GLEN BLOOM DRIVE","MANCHESTER","NH",3109,42.9494454220001,-71.415255637,82,"24 GLEN BLOOM DRIVE, MANCHESTER, NH, 3109","Match","Exact","24 GLEN BLOOM DR, MANCHESTER, NH, 03109",113582839,"R"
132083,"24 GOLDEN GATE CIRCLE","NAPA","CA",94558,38.280031605,-122.302192451,83,"24 GOLDEN GATE CIRCLE, NAPA, CA, 94558","Match","Exact","24 GOLDEN GATE CIR, NAPA, CA, 94558",624345867,"L"
132084,"24 GRACE DRIVE","POWELL","OH",43065,40.1633159450001,-83.0744838049999,84,"24 GRACE DRIVE, POWELL, OH, 43065","Match","Exact","24 GRACE DR, POWELL, OH, 43065",634035283,"R"
132085,"24 GRAND BAY ESTATES CIRCLE","KEY BISCAYNE","FL",33149,25.6922036660001,-80.162150331,85,"24 GRAND BAY ESTATES CIRCLE, KEY BISCAYNE, FL, 33149","Match","Exact","24 GRAND BAY ESTATES CIR, KEY BISCAYNE, FL, 33149",640560360,"R"
132086,"24 GREAT BEND DRIVE","BEAUFORT","SC",29906,32.384492122,-80.747947355,86,"24 GREAT BEND DRIVE, BEAUFORT, SC, 29906","Match","Exact","24 GREAT BEND DR, BEAUFORT, SC, 29906",649318403,"L"
132087,"24 GREENWOOD SUBDIVISION ROAD","NATCHEZ","MS",39120,31.6042249720001,-91.3475813649999,87,"24 GREENWOOD SUBDIVISION ROAD, NATCHEZ, MS, 39120","Match","Exact","24 GREENWOOD SUBDIVISION RD, NATCHEZ, MS, 39120",79850923,"L"
132088,"24 GROVER LANE","EAST NORTHPORT","NY",11731,40.8667732420001,-73.320638553,88,"24 GROVER LANE, EAST NORTHPORT, NY, 11731","Match","Exact","24 GROVER LN, E NORTHPORT, NY, 11731",113965567,"R"
132089,"24 GULICK ROAD","PRINCETON","NJ",8540,40.3669821710001,-74.628442174,89,"24 GULICK ROAD, PRINCETON, NJ, 8540","Match","Exact","24 GULICK RD, PRINCETON, NJ, 08540",60171158,"L"
132090,"24 GUNCKEL AVE","DAYTON","OH",45410,39.7466806750001,-84.168540731,90,"24 GUNCKEL AVE, DAYTON, OH, 45410","Match","Exact","24 GUNCKEL AVE, DAYTON, OH, 45410",143574825,"L"
132091,"24 HAKUMELE PLACE","HONOLULU","HI",96817,21.3428451520001,-157.831028903,91,"24 HAKUMELE PLACE, HONOLULU, HI, 96817","Match","Exact","24 HAKUMELE PL, HONOLULU, HI, 96817",607835155,"R"
132092,"24 HALE DR","WINDSOR","CT",6095,41.8391303380001,-72.671161091,92,"24 HALE DR, WINDSOR, CT, 6095","Match","Exact","24 HALE DR, WINDSOR, CT, 06095",3488258,"L"
132093,"24 HAMBY RD","BLUE RIDGE","GA",30513,34.9313052910001,-84.3840456249999,93,"24 HAMBY RD, BLUE RIDGE, GA, 30513","Match","Exact","24 HAMBY RD, BLUE RIDGE, GA, 30513",57160377,"R"
132094,"24 HARRIET RD","ABINGTON","MA",2351,42.129845592,-70.938366496,94,"24 HARRIET RD, ABINGTON, MA, 2351","Match","Exact","24 HARRIET RD, ABINGTON, MA, 02351",87431219,"L"
132095,"24 HARVEST WAY","LITTLE EGG HARBOR","NJ",8087,39.589004564,-74.37669245,95,"24 HARVEST WAY, LITTLE EGG HARBOR, NJ, 8087","Match","Exact","24 HARVEST WAY, LITTLE EGG HARBOR, NJ, 08087",641801394,"L"
132096,"24 HAVILAND STREET","NORWALK","CT",6854,41.098175199,-73.4181437679999,96,"24 HAVILAND STREET, NORWALK, CT, 6854","Match","Exact","24 HAVILAND ST, NORWALK, CT, 06854",3251251,"R"
132097,"24 HELENS WAY","ITHACA","NY",14850,42.4416136660001,-76.53585535,97,"24 HELENS WAY, ITHACA, NY, 14850","Match","Exact","24 HELENS WAY, ITHACA, NY, 14850",638550969,"R"
132098,"24 HERITAGE LN","EXTON","PA",19341,40.0507765420001,-75.640028165,98,"24 HERITAGE LN, EXTON, PA, 19341","Match","Exact","24 HERITAGE LN, EXTON, PA, 19341",179487381,"L"
132099,"24 HIGH HILL CIRCLE","MADISON","CT",6443,41.3344858250001,-72.6230894079999,99,"24 HIGH HILL CIRCLE, MADISON, CT, 6443","Match","Exact","24 HIGH HILL CIR, MADISON, CT, 06443",627555997,"R"
132100,"24 HIGH SCHOOL DRIVE","EGG HARBOR","NJ",8234,39.3938598880001,-74.626502085,100,"24 HIGH SCHOOL DRIVE, EGG HARBOR, NJ, 8234","Match","Non_Exact","24 HIGH SCHOOL DR, EGG HARBOR TOWNSHIP, NJ, 08234",645187820,"L"
132101,"24 HILIARITY STREET","PROVIDENCE","RI",2909,41.8200382030001,-71.462788409,101,"24 HILIARITY STREET, PROVIDENCE, RI, 2909","Match","Non_Exact","24 HILARITY ST, PROVIDENCE, RI, 02909",47458900,"L"
132102,"24 HILLCREST CIRCLE","STARKVILLE","MS",39759,33.4555481130001,-88.783096986,102,"24 HILLCREST CIRCLE, STARKVILLE, MS, 39759","Match","Exact","24 HILLCREST CIR, STARKVILLE, MS, 39759",797182,"L"
132103,"24 HILLEL PLACE","BROOKLYN","NY",11210,40.6320987290001,-73.948659235,103,"24 HILLEL PLACE, BROOKLYN, NY, 11210","Match","Exact","24 HILLEL PL, BROOKLYN, NY, 11210",59081775,"R"
132104,"24 HILTON RD","MOUNT HOLLY","NJ",8060,40.0075492990001,-74.7853156099999,104,"24 HILTON RD, MOUNT HOLLY, NJ, 8060","Match","Exact","24 HILTON RD, MOUNT HOLLY, NJ, 08060",134035364,"L"
132105,"24 HOLLY ST","RUMSON","NJ",7760,40.3724063450001,-73.994701983,105,"24 HOLLY ST, RUMSON, NJ, 7760","Match","Exact","24 HOLLY ST, RUMSON, NJ, 07760",90452949,"R"
132106,"24 HOLLYWOOD AVENUE         SUITE B","EASTCHESTER","NY",10707,40.960085533,-73.826769914,106,"24 HOLLYWOOD AVENUE         SUITE B, EASTCHESTER, NY, 10707","Match","Exact","24 HOLLYWOOD AVE, EASTCHESTER, NY, 10707",139841398,"L"
132107,"24 HOLMES RD","HARWICH","MA",2645,41.700468793,-70.028273842,107,"24 HOLMES RD, HARWICH, MA, 2645","Match","Exact","24 HOLMES RD, HARWICH, MA, 02645",121598503,"R"
132108,"24 HOMEWOOD RD","EAST HARTLAND","CT",6027,41.9896834350001,-72.890628463,108,"24 HOMEWOOD RD, EAST HARTLAND, CT, 6027","Match","Exact","24 HOMEWOOD RD, EAST HARTLAND, CT, 06027",3527186,"L"
132109,"24 HORNBLENDE LANE","WILLINGBORO","NJ",8046,40.0399443410001,-74.876595761,109,"24 HORNBLENDE LANE, WILLINGBORO, NJ, 8046","Match","Exact","24 HORNBLENDE LN, WILLINGBORO, NJ, 08046",134029842,"R"
132110,"24 HORNBY DR","FREDERICKSBURG","VA",22406,38.3313772500001,-77.5130631659999,110,"24 HORNBY DR, FREDERICKSBURG, VA, 22406","Match","Exact","24 HORNBY DR, FREDERICKSBURG, VA, 22406",632544572,"R"
132111,"24 HOUGH AVENUE","GLOUCESTER","MA",1930,42.603639727,-70.679597744,111,"24 HOUGH AVENUE, GLOUCESTER, MA, 1930","Match","Exact","24 HOUGH AVE, GLOUCESTER, MA, 01930",636244569,"L"
132112,"24 HOWANSKY DRIVE","WATERVLIET","NY",12189,42.760045387,-73.720166188,112,"24 HOWANSKY DRIVE, WATERVLIET, NY, 12189","Match","Exact","24 HOWANSKY DR, WATERVLIET, NY, 12189",624201812,"L"
132113,"24 HUA NUI WAY","LAHAINA","HI",96761,20.976669783,-156.676346742,113,"24 HUA NUI WAY, LAHAINA, HI, 96761","Match","Exact","24 HUA NUI WAY, LAHAINA, HI, 96761",624892542,"R"
132114,"24 HYDER STREET","WESTBOROUGH","MA",1581,42.2569114460001,-71.6580204209999,114,"24 HYDER STREET, WESTBOROUGH, MA, 1581","Match","Exact","24 HYDER ST, WESTBOROUGH, MA, 01581",40023474,"L"
132115,"24 INDUSTRIAL PARK DRIVE","WALDORF","MD",20602,38.611870518,-76.916124367,115,"24 INDUSTRIAL PARK DRIVE, WALDORF, MD, 20602","Match","Exact","24 INDUSTRIAL PARK DR, WALDORF, MD, 20602",25406213,"L"
132116,"24 INGALLS AVE APT 2","NORWALK","CT",6854,41.081259426,-73.426235209,116,"24 INGALLS AVE APT 2, NORWALK, CT, 6854","Match","Exact","24 INGALLS AVE, NORWALK, CT, 06854",618526948,"R"
132117,"24 JACKSON ROAD","MAHOPAC","NY",10541,41.3877671020001,-73.746673018,117,"24 JACKSON ROAD, MAHOPAC, NY, 10541","Match","Exact","24 JACKSON RD, MAHOPAC, NY, 10541",139693750,"L"
132118,"24 JEANNES PATH","YARMOUTH PORT","MA",2675,41.6986730780001,-70.2236351619999,118,"24 JEANNES PATH, YARMOUTH PORT, MA, 2675","Match","Exact","24 JEANNES PATH, YARMOUTH PORT, MA, 02675",121564781,"L"
132119,"24 JEFFERSON STREET","RUTLAND","VT",5701,43.6182338770001,-72.967707019,119,"24 JEFFERSON STREET, RUTLAND, VT, 5701","Match","Exact","24 JEFFERSON ST, RUTLAND, VT, 05701",138949780,"R"
132120,"24 JOE KENNEDY BLVD SUITE 14","STATESBORO","GA",30458,NA,NA,120,"24 JOE KENNEDY BLVD SUITE 14, STATESBORO, GA, 30458","No_Match",NA,NA,NA,NA
132121,"24 JUDITH ST","WESTWEGO","LA",70094,29.952770806,-90.239364858,121,"24 JUDITH ST, WESTWEGO, LA, 70094","Match","Exact","24 JUDITH ST, WESTWEGO, LA, 70094",93496180,"R"
132122,"24 KAREN ROAD","WAKEFIELD","MA",1880,42.5101532140001,-71.0957886099999,122,"24 KAREN ROAD, WAKEFIELD, MA, 1880","Match","Exact","24 KAREN RD, WAKEFIELD, MA, 01880",86903141,"L"
132123,"24 KEITH LN","BROWNSVILLE","TX",78521,25.9120359130001,-97.487570278,123,"24 KEITH LN, BROWNSVILLE, TX, 78521","Match","Exact","24 KEITH LN, BROWNSVILLE, TX, 78521",89965406,"R"
132124,"24 KILLORAN DR","ESSEX JUNCTION","VT",5452,44.492799206,-73.125984769,124,"24 KILLORAN DR, ESSEX JUNCTION, VT, 5452","Match","Exact","24 KILLORAN DR, ESSEX JCT, VT, 05452",135829106,"R"
132125,"24 KIMBERLY LANE","WATERTOWN","CT",6795,41.58733002,-73.105477032,125,"24 KIMBERLY LANE, WATERTOWN, CT, 6795","Match","Exact","24 KIMBERLY LN, WATERTOWN, CT, 06795",631844618,"L"
132126,"24 KNOLL RD","SAN ANSELMO","CA",94960,37.9800577140001,-122.557019467,126,"24 KNOLL RD, SAN ANSELMO, CA, 94960","Match","Exact","24 KNOLL RD, SAN ANSELMO, CA, 94960",192763595,"R"
132127,"24 LA SALLE DRIVE","YONKERS","NY",10710,40.9593589070001,-73.832302936,127,"24 LA SALLE DRIVE, YONKERS, NY, 10710","Match","Non_Exact","24 LASALLE DR, YONKERS, NY, 10710",139745944,"R"
132128,"24 LAKEVIEW CIR APT 33","GREENVILLE","SC",29617,34.880874158,-82.444269304,128,"24 LAKEVIEW CIR APT 33, GREENVILLE, SC, 29617","Match","Exact","24 LAKEVIEW CIR, GREENVILLE, SC, 29617",38356911,"R"
132129,"24 LAMBERT AVE","STOUGHTON","MA",2072,42.132210716,-71.093277593,129,"24 LAMBERT AVE, STOUGHTON, MA, 2072","Match","Exact","24 LAMBERT AVE, STOUGHTON, MA, 02072",87267422,"L"
132130,"24 LAMPLIGHTER LANE","SOUTH EASTON","MA",2375,42.0231143620001,-71.121482847,130,"24 LAMPLIGHTER LANE, SOUTH EASTON, MA, 2375","Match","Exact","24 LAMPLIGHTER LN, SOUTH EASTON, MA, 02375",46779679,"R"
132131,"24 LEONA DR","DENVER","CO",80221,39.8432206580001,-104.987664714,131,"24 LEONA DR, DENVER, CO, 80221","Match","Exact","24 LEONA DR, DENVER, CO, 80221",177296807,"L"
132132,"24 LESLIE ST NE","ATLANTA","GA",30307,33.753983541,-84.343377585,132,"24 LESLIE ST NE, ATLANTA, GA, 30307","Match","Exact","24 LESLIE ST NE, ATLANTA, GA, 30307",23365194,"L"
132133,"24 LIBRARY LANE","OLD LYME","CT",6371,NA,NA,133,"24 LIBRARY LANE, OLD LYME, CT, 6371","No_Match",NA,NA,NA,NA
132134,"24 LILLE COURT","LAKE SAINT LOUIS","MO",63367,38.7948176040001,-90.791898545,134,"24 LILLE COURT, LAKE SAINT LOUIS, MO, 63367","Match","Exact","24 LILLE CT, LAKE SAINT LOUIS, MO, 63367",100012907,"R"
132135,"24 LINCOLN ST  STE 103","ROCKLAND","ME",4841,44.1055122550001,-69.115162877,135,"24 LINCOLN ST  STE 103, ROCKLAND, ME, 4841","Match","Exact","24 LINCOLN ST, ROCKLAND, ME, 04841",75551306,"R"
132136,"24 LINCOLN STREET","LEXINGTON","MA",2421,42.4462817620001,-71.2400993959999,136,"24 LINCOLN STREET, LEXINGTON, MA, 2421","Match","Exact","24 LINCOLN ST, LEXINGTON, MA, 02421",86881906,"L"
132137,"24 LODGE POLE ROAD","PITTSFORD","NY",14534,43.0559466810001,-77.4560008999999,137,"24 LODGE POLE ROAD, PITTSFORD, NY, 14534","Match","Exact","24 LODGE POLE RD, PITTSFORD, NY, 14534",640617707,"R"
132138,"24 LONGVIEW DR","DALY CITY","CA",94015,37.667096343,-122.488343787,138,"24 LONGVIEW DR, DALY CITY, CA, 94015","Match","Exact","24 LONGVIEW DR, DALY CITY, CA, 94015",192368720,"R"
132139,"24 LONGVIEW DRIVE","EAST QUOGUE","NY",11942,40.8474541310001,-72.6065078079999,139,"24 LONGVIEW DRIVE, EAST QUOGUE, NY, 11942","Match","Exact","24 LONGVIEW DR, EAST QUOGUE, NY, 11942",114026061,"R"
132140,"24 LONGWORTH RD","WORCESTER","MA",1602,42.2763440620001,-71.825485881,140,"24 LONGWORTH RD, WORCESTER, MA, 1602","Match","Exact","24 LONGWORTH RD, WORCESTER, MA, 01602",40054628,"R"
132141,"24 LOST VALLEY COURT","SAINT PETERS","MO",63376,38.759139965,-90.589696961,141,"24 LOST VALLEY COURT, SAINT PETERS, MO, 63376","Match","Exact","24 LOST VALLEY CT, SAINT PETERS, MO, 63376",100017461,"L"
132142,"24 LURTON STREET","QUINCY","MA",2169,42.2328483630001,-71.003584991,142,"24 LURTON STREET, QUINCY, MA, 2169","Match","Exact","24 LURTON ST, QUINCY, MA, 02169",87265942,"L"
132143,"24 LYON ROAD","BURLINGTON","CT",6013,41.7834687050001,-72.988380489,143,"24 LYON ROAD, BURLINGTON, CT, 6013","Match","Exact","24 LYON RD, BURLINGTON, CT, 06013",3526534,"R"
132144,"24 MADISON RD","SCARSDALE","NY",10583,40.97278248,-73.798053803,144,"24 MADISON RD, SCARSDALE, NY, 10583","Match","Exact","24 MADISON RD, SCARSDALE, NY, 10583",139740545,"R"
132145,"24 MAGNOLIA CT","FREEPORT","FL",32439,30.4386784430001,-86.1175341329999,145,"24 MAGNOLIA CT, FREEPORT, FL, 32439","Match","Exact","24 MAGNOLIA CT, FREEPORT, FL, 32439",32986252,"R"
132146,"24 MAIN STREET","CATTARAUGUS","NY",14719,42.3297512350001,-78.868580118,146,"24 MAIN STREET, CATTARAUGUS, NY, 14719","Match","Exact","24 MAIN ST, CATTARAUGUS, NY, 14719",122020318,"R"
132147,"24 MAIN STREET","PEABODY","MA",1960,42.525295703,-70.925991445,147,"24 MAIN STREET, PEABODY, MA, 1960","Match","Exact","24 MAIN ST, PEABODY, MA, 01960",86694159,"L"
132148,"24 MAKOWSKI DRIVE","DOUGLAS","MA",1516,NA,NA,148,"24 MAKOWSKI DRIVE, DOUGLAS, MA, 1516","No_Match",NA,NA,NA,NA
132149,"24 MALCOLM ROAD SOUTH","BRIDGTON","ME",4009,44.0689459710001,-70.6856155149999,149,"24 MALCOLM ROAD SOUTH, BRIDGTON, ME, 4009","Match","Exact","24 MALCOLM RD S, BRIDGTON, ME, 04009",78065433,"R"
132150,"24 MANOR COURT","GLEN ROCK","NJ",7452,40.9582597740001,-74.1105367119999,150,"24 MANOR COURT, GLEN ROCK, NJ, 7452","Match","Exact","24 MANOR CT, GLEN ROCK, NJ, 07452",64380538,"R"
132151,"24 MAPLE LANE","LYNDEBOROUGH","NH",3082,42.9039403940001,-71.786454438,151,"24 MAPLE LANE, LYNDEBOROUGH, NH, 3082","Match","Exact","24 MAPLE LN, LYNDEBOROUGH, NH, 03082",633261378,"R"
132152,"24 MAPLE STREET","SANGERVILLE","ME",4479,45.1658028840001,-69.360737733,152,"24 MAPLE STREET, SANGERVILLE, ME, 4479","Match","Exact","24 MAPLE ST, SANGERVILLE, ME, 04479",123970034,"L"
132153,"24 MARINE ROAD","SOUTH BOSTON","MA",2127,42.330588635,-71.038835563,153,"24 MARINE ROAD, SOUTH BOSTON, MA, 2127","Match","Exact","24 MARINE RD, SOUTH BOSTON, MA, 02127",85713944,"L"
132154,"24 MARWOOD LN","WAYNESBORO","VA",22980,38.1349203500001,-78.840468422,154,"24 MARWOOD LN, WAYNESBORO, VA, 22980","Match","Exact","24 MARWOOD LN, WAYNESBORO, VA, 22980",626950441,"L"
132155,"24 MAYFIELD","SMITHFIELD","RI",2828,NA,NA,155,"24 MAYFIELD, SMITHFIELD, RI, 2828","No_Match",NA,NA,NA,NA
132156,"24 MCFADDEN CIRCLE","YONKER","NY",10701,40.9387044370001,-73.887065246,156,"24 MCFADDEN CIRCLE, YONKER, NY, 10701","Match","Non_Exact","24 MCFADDEN CIR, YONKERS, NY, 10701",645577756,"L"
132157,"24 MCGUIRK LANE","WEST ORANGE","NJ",7052,40.8147373250001,-74.259406572,157,"24 MCGUIRK LANE, WEST ORANGE, NJ, 7052","Match","Exact","24 MCGUIRK LN, WEST ORANGE, NJ, 07052",63473642,"L"
132158,"24 MEADOWBROOK LANE","TROPHY CLUB","TX",76262,32.996933787,-97.1730956869999,158,"24 MEADOWBROOK LANE, TROPHY CLUB, TX, 76262","Match","Exact","24 MEADOWBROOK LN, TROPHY CLUB, TX, 76262",103415077,"L"
132159,"24 MEADOWBROOK RD","RANDOLPH","NJ",7869,40.8414767030001,-74.54151325,159,"24 MEADOWBROOK RD, RANDOLPH, NJ, 7869","Match","Exact","24 MEADOWBROOK RD, RANDOLPH, NJ, 07869",60441145,"L"
132160,"24 MEETING STREET","PROVIDENCE","RI",2903,41.828532232,-71.4091589129999,160,"24 MEETING STREET, PROVIDENCE, RI, 2903","Match","Exact","24 MEETING ST, PROVIDENCE, RI, 02903",637706653,"L"
132161,"24 MELOY DR","COLUMBUS","GA",31903,32.4097521580001,-84.9298245429999,161,"24 MELOY DR, COLUMBUS, GA, 31903","Match","Exact","24 MELOY DR, COLUMBUS, GA, 31903",98943328,"R"
132162,"24 MERSELIS AVE FL 1","CLIFTON","NJ",7011,40.886158444,-74.13374336,162,"24 MERSELIS AVE FL 1, CLIFTON, NJ, 7011","Match","Exact","24 MERSELIS AVE, CLIFTON, NJ, 07011",65267036,"R"
132163,"24 MERTON ROAD","NEWPORT","RI",2840,41.48269092,-71.3032994229999,163,"24 MERTON ROAD, NEWPORT, RI, 2840","Match","Exact","24 MERTON RD, NEWPORT, RI, 02840",47349680,"L"
132164,"24 METROPOLITAN OVAL SUITE 2D","BRONX","NY",10462,40.8381519710001,-73.85909235,164,"24 METROPOLITAN OVAL SUITE 2D, BRONX, NY, 10462","Match","Exact","24 METROPOLITAN OVAL, BRONX, NY, 10462",609027245,"R"
132165,"24 MILLS AVENUE","SOUTH BURLINGTON","VT",5403,44.467080738,-73.160556272,165,"24 MILLS AVENUE, SOUTH BURLINGTON, VT, 5403","Match","Exact","24 MILLS AVE, S BURLINGTON, VT, 05403",135829172,"R"
132166,"24 MORIARTY STREET","DOVER","DE",19901,39.159309928,-75.501088796,166,"24 MORIARTY STREET, DOVER, DE, 19901","Match","Non_Exact","24 MORIARITY ST, DOVER, DE, 19901",617266322,"R"
132167,"24 MOUNTAINVIEW DRIVE","BROOKFIELD","CT",6804,41.47910211,-73.439833817,167,"24 MOUNTAINVIEW DRIVE, BROOKFIELD, CT, 6804","Match","Non_Exact","24 MOUNTAIN VIEW DR, BROOKFIELD, CT, 06804",3229855,"L"
132168,"24 MOUNTVIEW DRIVE","GORHAM","ME",4038,43.6318946800001,-70.433919988,168,"24 MOUNTVIEW DRIVE, GORHAM, ME, 4038","Match","Exact","24 MOUNTVIEW DR, GORHAM, ME, 04038",632724043,"R"
132169,"24 N 5TH ST","PATERSON","NJ",7522,40.92607465,-74.178018303,169,"24 N 5TH ST, PATERSON, NJ, 7522","Match","Exact","24 N 5TH ST, PATERSON, NJ, 07522",65262744,"R"
132170,"24 N 5TH STREET","PATERSON","NJ",7522,40.92607465,-74.178018303,170,"24 N 5TH STREET, PATERSON, NJ, 7522","Match","Exact","24 N 5TH ST, PATERSON, NJ, 07522",65262744,"R"
132171,"24 N 9TH STREET SUITE B","FORT DODGE","IA",50501,NA,NA,171,"24 N 9TH STREET SUITE B, FORT DODGE, IA, 50501","Tie",NA,NA,NA,NA
132172,"24 N ARCADIAN OAKS","EDMOND","OK",73034,35.6566890390001,-97.382675118,172,"24 N ARCADIAN OAKS, EDMOND, OK, 73034","Match","Non_Exact","24 N ARCADIAN OAKS DR, EDMOND, OK, 73034",606230977,"R"
132173,"24 N BALTIMORE STREET","DILLSBURG","PA",17019,40.1115369610001,-77.035796788,173,"24 N BALTIMORE STREET, DILLSBURG, PA, 17019","Match","Exact","24 N BALTIMORE ST, DILLSBURG, PA, 17019",611412761,"R"
132174,"24 N BENNETT ST","GENEVA","IL",60543,41.887274726,-88.300370514,174,"24 N BENNETT ST, GENEVA, IL, 60543","Match","Non_Exact","24 N BENNETT ST, GENEVA, IL, 60134",119508050,"L"
132175,"24 N FARR","SPOKANE VALLEY","WA",99206,47.657469662,-117.274774466,175,"24 N FARR, SPOKANE VALLEY, WA, 99206","Match","Non_Exact","24 N FARR RD, SPOKANE VALLEY, WA, 99206",189886915,"R"
132176,"24 N HILL CT","OAKLAND","CA",94618,37.8540051620001,-122.233099404,176,"24 N HILL CT, OAKLAND, CA, 94618","Match","Exact","24 N HILL CT, OAKLAND, CA, 94618",124999678,"L"
132177,"24 N LIME ST","LANCASTER","PA",17602,40.039156147,-76.301483592,177,"24 N LIME ST, LANCASTER, PA, 17602","Match","Exact","24 N LIME ST, LANCASTER, PA, 17602",179662802,"L"
132178,"24 N MARKET ST SUITE 500A","JACKSONVILLE","FL",32202,30.3256558210001,-81.65430309,178,"24 N MARKET ST SUITE 500A, JACKSONVILLE, FL, 32202","Match","Exact","24 MARKET ST, JACKSONVILLE, FL, 32202",83899862,"L"
132179,"24 N PERRY ST","VANDALIA","OH",45377,39.8914636170001,-84.1973640739999,179,"24 N PERRY ST, VANDALIA, OH, 45377","Match","Exact","24 N PERRY ST, VANDALIA, OH, 45377",143563750,"R"
132180,"24 N PFEIFFERHORN DR","ALPINE","UT",84004,40.453681267,-111.796083959,180,"24 N PFEIFFERHORN DR, ALPINE, UT, 84004","Match","Exact","24 N PFEIFFERHORN DR, ALPINE, UT, 84004",134261373,"R"
132181,"24 NATELLE AVE","BROOKSVILLE","FL",34601,28.5544562060001,-82.3932940609999,181,"24 NATELLE AVE, BROOKSVILLE, FL, 34601","Match","Exact","24 NATELLE AVE, BROOKSVILLE, FL, 34601",85475560,"L"
132182,"24 NATHAN DRIVE","OLD BRIDGE","NJ",8857,40.384376301,-74.300844658,182,"24 NATHAN DRIVE, OLD BRIDGE, NJ, 8857","Match","Exact","24 NATHAN DR, OLD BRIDGE, NJ, 08857",642133608,"L"
132183,"24 NELSON DRIVE 1A","RANDOLPH","MA",2368,42.1706347620001,-71.049062389,183,"24 NELSON DRIVE 1A, RANDOLPH, MA, 2368","Match","Exact","24 NELSON DR, RANDOLPH, MA, 02368",87303233,"R"
132184,"24 NELSON ST","ST PAUL","MN",55119,44.941448968,-93.011248598,184,"24 NELSON ST, ST PAUL, MN, 55119","Match","Non_Exact","24 N NELSON ST, SAINT PAUL, MN, 55119",97655112,"R"
132185,"24 NEWEL ST APT 3R","NY","NY",11222,40.723579564,-73.94667036,185,"24 NEWEL ST APT 3R, NY, NY, 11222","Match","Non_Exact","24 NEWELL ST, BROOKLYN, NY, 11222",59076524,"R"
132186,"24 NEWTON STREET APT B","NORWALK","OH",44857,41.241793263,-82.62179902,186,"24 NEWTON STREET APT B, NORWALK, OH, 44857","Match","Exact","24 NEWTON ST, NORWALK, OH, 44857",639080227,"R"
132187,"24 NORTH 4TH STREET","NILES","MI",49120,41.8281879830001,-86.25488667,187,"24 NORTH 4TH STREET, NILES, MI, 49120","Match","Exact","24 N 4TH ST, NILES, MI, 49120",119979454,"R"
132188,"24 NORTH CHURCH ST SUITE 409","WAILUKU","HI",96793,20.8885398370001,-156.503420574,188,"24 NORTH CHURCH ST SUITE 409, WAILUKU, HI, 96793","Match","Exact","24 N CHURCH ST, WAILUKU, HI, 96793",619775543,"R"
132189,"24 NORTH ELM STREET","WESTFIELD","MA",1085,42.1301572720001,-72.7454347409999,189,"24 NORTH ELM STREET, WESTFIELD, MA, 1085","Match","Exact","24 N ELM ST, WESTFIELD, MA, 01085",4057846,"L"
132190,"24 NORTH RIDGE DR","ADAIRSVILLE","GA",30103,34.376657692,-84.9892902349999,190,"24 NORTH RIDGE DR, ADAIRSVILLE, GA, 30103","Match","Non_Exact","24 NORTHRIDGE DR, ADAIRSVILLE, GA, 30103",30462818,"R"
132191,"24 NORWICH","IRVINE","CA",92620,33.703673123,-117.739688685,191,"24 NORWICH, IRVINE, CA, 92620","Match","Exact","24 NORWICH, IRVINE, CA, 92620",641618394,"L"
132192,"24 NW 68 STREET","MIAMI","FL",33150,25.83712825,-80.197170735,192,"24 NW 68 STREET, MIAMI, FL, 33150","Match","Exact","24 NW 68TH ST, MIAMI, FL, 33150",116006487,"L"
132193,"24 OAK LANE","STERLING","VA",20165,39.0392676770001,-77.386588767,193,"24 OAK LANE, STERLING, VA, 20165","Match","Exact","24 OAK LN, STERLING, VA, 20165",62365853,"R"
132194,"24 OAK TAVERN CIRCLE","BRANCHBURG","NJ",8876,40.5655913570001,-74.714807391,194,"24 OAK TAVERN CIRCLE, BRANCHBURG, NJ, 8876","Match","Exact","24 OAK TAVERN CIR, BRANCHBURG, NJ, 08876",60000881,"L"
132195,"24 OAKMONT TERR","EAST WINDSOR","NJ",8520,40.270705686,-74.5426293319999,195,"24 OAKMONT TERR, EAST WINDSOR, NJ, 8520","Match","Exact","24 OAKMONT TER, EAST WINDSOR, NJ, 08520",60193345,"R"
132196,"24 OAKVIEW CIRCLE","WESTPORT","CT",6880,41.1386562000001,-73.307365465,196,"24 OAKVIEW CIRCLE, WESTPORT, CT, 6880","Match","Exact","24 OAKVIEW CIR, WESTPORT, CT, 06880",625125926,"R"
132197,"24 OAKWOOD DR","GREENVILLLE","SC",29609,34.8927898090001,-82.3636264849999,197,"24 OAKWOOD DR, GREENVILLLE, SC, 29609","Match","Non_Exact","24 OAKWOOD DR, GREENVILLE, SC, 29609",38317696,"R"
132198,"24 OLD BULL RIVER ROAD","NOXON","MT",59853,NA,NA,198,"24 OLD BULL RIVER ROAD, NOXON, MT, 59853","Tie",NA,NA,NA,NA
132199,"24 OLD CASTLE DRIVE","LITTLE ROCK","AR",72206,34.656333289,-92.304852562,199,"24 OLD CASTLE DRIVE, LITTLE ROCK, AR, 72206","Match","Exact","24 OLD CASTLE DR, LITTLE ROCK, AR, 72206",83513790,"L"
132200,"24 ORCHARD ST","GREENWICH","OH",44837,41.028568211,-82.5130633379999,200,"24 ORCHARD ST, GREENWICH, OH, 44837","Match","Exact","24 ORCHARD ST, GREENWICH, OH, 44837",647812473,"L"
132201,"24 ORIENTAL ROAD","SHAMONG","NJ",8088,39.8035122470001,-74.7014749639999,201,"24 ORIENTAL ROAD, SHAMONG, NJ, 8088","Match","Exact","24 ORIENTAL RD, SHAMONG, NJ, 08088",134083546,"L"
132202,"24 OVERBROOK ROAD","RICHMOND","VA",23222,37.5650128,-77.433692919,202,"24 OVERBROOK ROAD, RICHMOND, VA, 23222","Match","Exact","24 OVERBROOK RD, RICHMOND, VA, 23222",201539709,"R"
132203,"24 OWENCROFT RD","DORCHESTER","MA",2124,42.279594215,-71.068973878,203,"24 OWENCROFT RD, DORCHESTER, MA, 2124","Match","Exact","24 OWENCROFT RD, DORCHESTER, MA, 02124",85706083,"L"
132204,"24 OXFORD RD","MASSAPEQUA","NY",11758,40.6688797370001,-73.462915416,204,"24 OXFORD RD, MASSAPEQUA, NY, 11758","Match","Exact","24 OXFORD RD, MASSAPEQUA, NY, 11758",147651825,"R"
132205,"24 PADDOCK ROAD","MARLTON","NJ",8053,39.904332299,-74.8989746079999,205,"24 PADDOCK ROAD, MARLTON, NJ, 8053","Match","Exact","24 PADDOCK RD, MARLTON, NJ, 08053",134071129,"L"
132206,"24 PALMER COURT","MIDDLETOWN","NJ",7748,40.4208203530001,-74.133350059,206,"24 PALMER COURT, MIDDLETOWN, NJ, 7748","Match","Exact","24 PALMER CT, MIDDLETOWN, NJ, 07748",90477062,"L"
132207,"24 PARK AVENUE","WORCESTER","MA",1605,NA,NA,207,"24 PARK AVENUE, WORCESTER, MA, 1605","No_Match",NA,NA,NA,NA
132208,"24 PARKLANE DRIVE","ORINDA","CA",94563,37.8738788910001,-122.157622671,208,"24 PARKLANE DRIVE, ORINDA, CA, 94563","Match","Exact","24 PARKLANE DR, ORINDA, CA, 94563",192050945,"L"
132209,"24 PARKWOOD ROAD","TRUMBULL","CT",6611,41.2762338210001,-73.1957424989999,209,"24 PARKWOOD ROAD, TRUMBULL, CT, 6611","Match","Exact","24 PARKWOOD RD, TRUMBULL, CT, 06611",3218349,"R"
132210,"24 PAWTUCKET DR","CHERRY HILL","NJ",8003,39.873990561,-74.944824196,210,"24 PAWTUCKET DR, CHERRY HILL, NJ, 8003","Match","Exact","24 PAWTUCKET DR, CHERRY HILL, NJ, 08003",134419476,"R"
132211,"24 PEABODY TERRACE APT 514","CAMBRIDGE","MA",2138,42.3662150740001,-71.1146004189999,211,"24 PEABODY TERRACE APT 514, CAMBRIDGE, MA, 2138","Match","Exact","24 PEABODY TER, CAMBRIDGE, MA, 02138",87129376,"L"
132212,"24 PEPPER ROAD","TOWACO","NJ",7082,40.9166150980001,-74.3366236049999,212,"24 PEPPER ROAD, TOWACO, NJ, 7082","Match","Exact","24 PEPPER RD, TOWACO, NJ, 07082",60428616,"L"
132213,"24 PERCY ST","CHARLESTON","SC",29403,32.792859273,-79.945232344,213,"24 PERCY ST, CHARLESTON, SC, 29403","Match","Exact","24 PERCY ST, CHARLESTON, SC, 29403",108807210,"R"
132214,"24 PERRI PLACE","DIX HILLS","NY",11746,40.797664232,-73.307984017,214,"24 PERRI PLACE, DIX HILLS, NY, 11746","Match","Exact","24 PERRI PL, DIX HILLS, NY, 11746",114040688,"R"
132215,"24 PETER COUTTS CIRCLE","STANFORD","CA",94305,37.4134617060001,-122.152524189,215,"24 PETER COUTTS CIRCLE, STANFORD, CA, 94305","Match","Exact","24 PETER COUTTS CIR, STANFORD, CA, 94305",123004094,"L"
132216,"24 PHILLIP E FRANK WAY   APT 24","CLIFFWOOD","NJ",7721,40.4411517410001,-74.234868773,216,"24 PHILLIP E FRANK WAY   APT 24, CLIFFWOOD, NJ, 7721","Match","Exact","24 PHILLIP E FRANK WAY, CLIFFWOOD, NJ, 07721",651055925,"L"
132217,"24 PIER POINT DRIVE","MILLVILLE","DE",19967,NA,NA,217,"24 PIER POINT DRIVE, MILLVILLE, DE, 19967","No_Match",NA,NA,NA,NA
132218,"24 PINE HILL BEND","BALLSTON LAKE","NY",12019,42.916083244,-73.8264144939999,218,"24 PINE HILL BEND, BALLSTON LAKE, NY, 12019","Match","Exact","24 PINE HILL BEND, BALLSTON LAKE, NY, 12019",18773654,"R"
132219,"24 PITTSFIELD ROAD","HOWELL","NJ",7731,40.144954555,-74.2113855169999,219,"24 PITTSFIELD ROAD, HOWELL, NJ, 7731","Match","Exact","24 PITTSFIELD RD, HOWELL, NJ, 07731",90450700,"R"
132220,"24 PORTLAND WAY","WHEATLEY HEIGHTS","NY",11798,40.761115213,-73.3579095489999,220,"24 PORTLAND WAY, WHEATLEY HEIGHTS, NY, 11798","Match","Exact","24 PORTLAND WAY, WHEATLEY HEIGHTS, NY, 11798",113969220,"L"
132221,"24 PREBLE STREET 3RD FLOOR","PORTLAND","ME",4101,43.6577817260001,-70.260274537,221,"24 PREBLE STREET 3RD FLOOR, PORTLAND, ME, 4101","Match","Exact","24 PREBLE ST, PORTLAND, ME, 04101",78073786,"L"
132222,"24 PROSA","IRVINE","CA",92620,33.716084563,-117.755262501,222,"24 PROSA, IRVINE, CA, 92620","Match","Exact","24 PROSA, IRVINE, CA, 92620",144061045,"R"
132223,"24 PROSPECT AVE","BURLINGTON","NJ",8016,40.059703089,-74.8466252919999,223,"24 PROSPECT AVE, BURLINGTON, NJ, 8016","Match","Exact","24 PROSPECT AVE, BURLINGTON, NJ, 08016",134033621,"R"
132224,"24 PROVIDENCE ROAD","GRAFTON","MA",1519,NA,NA,224,"24 PROVIDENCE ROAD, GRAFTON, MA, 1519","No_Match",NA,NA,NA,NA
132225,"24 PUBLIC SCHOOL ROAD","TIJERAS","NM",87059,NA,NA,225,"24 PUBLIC SCHOOL ROAD, TIJERAS, NM, 87059","No_Match",NA,NA,NA,NA
132226,"24 QUEEN STREET","WELLSBORO","PA",16901,41.7515448840001,-77.302240728,226,"24 QUEEN STREET, WELLSBORO, PA, 16901","Match","Exact","24 QUEEN ST, WELLSBORO, PA, 16901",189659196,"L"
132227,"24 QUINSEY DR","BRIDGEPORT","CT",6606,41.2230707640001,-73.22463161,227,"24 QUINSEY DR, BRIDGEPORT, CT, 6606","Match","Non_Exact","24 QUINCY DR, BRIDGEPORT, CT, 06606",3220359,"R"
132228,"24 RED RIVER ROAD","BAY CITY","TX",77414,29.0054057090001,-95.9970947049999,228,"24 RED RIVER ROAD, BAY CITY, TX, 77414","Match","Exact","24 RED RIVER RD, BAY CITY, TX, 77414",83275794,"R"
132229,"24 RED WARRIOR RD","BOISE","ID",83716,43.7485121220001,-116.005520327,229,"24 RED WARRIOR RD, BOISE, ID, 83716","Match","Exact","24 RED WARRIOR RD, BOISE, ID, 83716",651759115,"L"
132230,"24 REDINGTON STREET","SWAMPSCOTT","MA",1907,42.468359499,-70.916423455,230,"24 REDINGTON STREET, SWAMPSCOTT, MA, 1907","Match","Exact","24 REDINGTON ST, SWAMPSCOTT, MA, 01907",86646951,"L"
132231,"24 REVERE ROAD","ARDSLEY","NY",10502,41.022239363,-73.8378886849999,231,"24 REVERE ROAD, ARDSLEY, NY, 10502","Match","Exact","24 REVERE RD, ARDSLEY, NY, 10502",139732750,"L"
132232,"24 RICHLAWN AVENUE","BUFFALO","NY",14215,42.9335958440001,-78.8305235999999,232,"24 RICHLAWN AVENUE, BUFFALO, NY, 14215","Match","Exact","24 RICHLAWN AVE, BUFFALO, NY, 14215",652643966,"L"
132233,"24 RIDGE ROAD","BRONXVILLE","NY",10708,40.9460430070001,-73.827631028,233,"24 RIDGE ROAD, BRONXVILLE, NY, 10708","Match","Exact","24 RIDGE RD, BRONXVILLE, NY, 10708",139747923,"R"
132234,"24 RIDGE ROAD","WHEATLEY HEIGHTS","NY",11798,40.7606452650001,-73.390806981,234,"24 RIDGE ROAD, WHEATLEY HEIGHTS, NY, 11798","Match","Exact","24 RIDGE RD, WHEATLEY HEIGHTS, NY, 11798",113967910,"R"
132235,"24 RIDGEVALE PLACE","BRIDGEPORT","CT",6610,41.225514552,-73.161686511,235,"24 RIDGEVALE PLACE, BRIDGEPORT, CT, 6610","Match","Exact","24 RIDGEVALE PL, BRIDGEPORT, CT, 06610",3226010,"R"
132236,"24 RIVARD RD","NAPLES","FL",34112,26.130122112,-81.7791813699999,236,"24 RIVARD RD, NAPLES, FL, 34112","Match","Exact","24 RIVARD RD, NAPLES, FL, 34112",115172890,"L"
132237,"24 RIVER RD APT 35","CLIFTON","NJ",7014,40.8240892490001,-74.134452672,237,"24 RIVER RD APT 35, CLIFTON, NJ, 7014","Match","Exact","24 RIVER RD, CLIFTON, NJ, 07014",640088119,"R"
132238,"24 RIVERFRONT DR SOUTH","KERRVILLE","TX",78028,30.070942775,-99.213077007,238,"24 RIVERFRONT DR SOUTH, KERRVILLE, TX, 78028","Match","Exact","24 RIVERFRONT DR S, KERRVILLE, TX, 78028",176887078,"L"
132239,"24 ROCK MAPLE AVE","S HAMILTON","MA",1982,42.627542195,-70.853140007,239,"24 ROCK MAPLE AVE, S HAMILTON, MA, 1982","Match","Non_Exact","24 ROCKMAPLE AVE, SOUTH HAMILTON, MA, 01982",86654645,"L"
132240,"24 ROCKINGHAM DRIVE","KEEDYSVILLE","MD",21756,39.482635669,-77.6971431589999,240,"24 ROCKINGHAM DRIVE, KEEDYSVILLE, MD, 21756","Match","Exact","24 ROCKINGHAM DR, KEEDYSVILLE, MD, 21756",60807117,"R"
132241,"24 ROCKVILLE AVENUE","LEXINGTON","MA",2421,42.4239256710001,-71.215109658,241,"24 ROCKVILLE AVENUE, LEXINGTON, MA, 2421","Match","Exact","24 ROCKVILLE AVE, LEXINGTON, MA, 02421",86883950,"L"
132242,"24 ROCKY RIDGE POINT","GREENSBORO","NC",27405,36.101354171,-79.731765206,242,"24 ROCKY RIDGE POINT, GREENSBORO, NC, 27405","Match","Exact","24 ROCKY RIDGE PT, GREENSBORO, NC, 27405",131075261,"R"
132243,"24 ROGERS AVE APT 4B","BROOKLYN","NY",11216,40.6757183660001,-73.952739219,243,"24 ROGERS AVE APT 4B, BROOKLYN, NY, 11216","Match","Exact","24 ROGERS AVE, BROOKLYN, NY, 11216",59079357,"R"
132244,"24 ROMAINE AVE","BOARDMAN","OH",44512,41.0341071930001,-80.6614017429999,244,"24 ROMAINE AVE, BOARDMAN, OH, 44512","Match","Exact","24 ROMAINE AVE, BOARDMAN, OH, 44512",64598996,"L"
132245,"24 S 61 ST","PHILADELPHIA","PA",19131,39.9614974350001,-75.242889487,245,"24 S 61 ST, PHILADELPHIA, PA, 19131","Match","Non_Exact","24 S 61ST ST, PHILADELPHIA, PA, 19139",131397522,"R"
132246,"24 S FRANKLIN STREET","DALLASTOWN","PA",17313,39.9020842890001,-76.650591769,246,"24 S FRANKLIN STREET, DALLASTOWN, PA, 17313","Match","Exact","24 S FRANKLIN ST, DALLASTOWN, PA, 17313",88749512,"R"
132247,"24 S NEWLAND STREET","LAKEWOOD","CO",80226,NA,NA,247,"24 S NEWLAND STREET, LAKEWOOD, CO, 80226","Tie",NA,NA,NA,NA
132248,"24 S POST LANE","AIRMONT","NY",10952,41.102064576,-74.092636923,248,"24 S POST LANE, AIRMONT, NY, 10952","Match","Non_Exact","24 POST LN S, AIRMONT, NY, 10952",124611032,"L"
132249,"24 S WEBER ST STE 100","COLORADO SPRINGS","CO",80903,NA,NA,249,"24 S WEBER ST STE 100, COLORADO SPRINGS, CO, 80903","Tie",NA,NA,NA,NA
132250,"24 SAILFISH RD","VERO BEACH","FL",32960,27.6416448270001,-80.377304406,250,"24 SAILFISH RD, VERO BEACH, FL, 32960","Match","Exact","24 SAILFISH RD, VERO BEACH, FL, 32960",120335344,"L"
132251,"24 SAINT PETER STREET - APT 2L","JAMAICA PLAIN","MA",2130,42.318960454,-71.107539414,251,"24 SAINT PETER STREET - APT 2L, JAMAICA PLAIN, MA, 2130","Match","Exact","24 ST PETER ST, JAMAICA PLAIN, MA, 02130",85698703,"L"
132252,"24 SALEM STREET","THOMASVILLE","NC",27360,35.883409251,-80.081968516,252,"24 SALEM STREET, THOMASVILLE, NC, 27360","Match","Exact","24 SALEM ST, THOMASVILLE, NC, 27360",20216899,"L"
132253,"24 SANDY COVE","NEWPORT COAST","CA",92657,33.576486462,-117.837894954,253,"24 SANDY COVE, NEWPORT COAST, CA, 92657","Match","Exact","24 SANDY COVE, NEWPORT COAST, CA, 92657",144388246,"R"
132254,"24 SARAH CT","ALBANY","NY",12205,42.7372620990001,-73.8513641879999,254,"24 SARAH CT, ALBANY, NY, 12205","Match","Exact","24 SARAH CT, ALBANY, NY, 12205",18357624,"L"
132255,"24 SARAHS GROVE LANE","SCHAUMBURG","IL",60193,42.02575368,-88.085694346,255,"24 SARAHS GROVE LANE, SCHAUMBURG, IL, 60193","Match","Exact","24 SARAHS GROVE LN, SCHAUMBURG, IL, 60193",111863233,"L"
132256,"24 SAWYER ROAD","LEE","NH",3861,43.0913574310001,-71.001816385,256,"24 SAWYER ROAD, LEE, NH, 3861","Match","Exact","24 SAWYER RD, LEE, NH, 03861",117809144,"L"
132257,"24 SCHOOL RD","BAKERHILL","AL",36027,NA,NA,257,"24 SCHOOL RD, BAKERHILL, AL, 36027","No_Match",NA,NA,NA,NA
132258,"24 SCHOOL ROAD","WESTON","CT",6883,41.2050160480001,-73.380471996,258,"24 SCHOOL ROAD, WESTON, CT, 6883","Match","Exact","24 SCHOOL RD, WESTON, CT, 06883",602036546,"L"
132259,"24 SEA IS","GLASTONBURY","CT",6033,41.7337977390001,-72.518474135,259,"24 SEA IS, GLASTONBURY, CT, 6033","Match","Exact","24 SEA IS, GLASTONBURY, CT, 06033",3534538,"R"
132260,"24 SECOND AVENUE","BEREA","OH",44017,41.380380835,-81.852518926,260,"24 SECOND AVENUE, BEREA, OH, 44017","Match","Exact","24 2ND AVE, BEREA, OH, 44017",61099585,"R"
132261,"24 SETH DUNSCOMB DR","SULLIVAN","IL",61951,39.597247183,-88.6167713949999,261,"24 SETH DUNSCOMB DR, SULLIVAN, IL, 61951","Match","Exact","24 SETH DUNSCOMB DR, SULLIVAN, IL, 61951",5822334,"L"
132262,"24 SHADOWS END LANE","MILFORD","CT",6460,41.2299861500001,-73.0122633569999,262,"24 SHADOWS END LANE, MILFORD, CT, 6460","Match","Exact","24 SHADOWS END LN, MILFORD, CT, 06460",3753459,"R"
132263,"24 SHAWDOWFIELD DRIVE","WEST COLUMBIA","SC",29169,NA,NA,263,"24 SHAWDOWFIELD DRIVE, WEST COLUMBIA, SC, 29169","No_Match",NA,NA,NA,NA
132264,"24 SHELLEY ROAD","HOLLAND","PA",18966,40.2028731840001,-74.97770646,264,"24 SHELLEY ROAD, HOLLAND, PA, 18966","Match","Exact","24 SHELLEY RD, HOLLAND, PA, 18966",639895144,"L"
132265,"24 SHENANDOAH LN","SOUTHAMPTON","NJ",8088,39.9241184970001,-74.7087967739999,265,"24 SHENANDOAH LN, SOUTHAMPTON, NJ, 8088","Match","Exact","24 SHENANDOAH LN, SOUTHAMPTON, NJ, 08088",134082766,"L"
132266,"24 SHOAL DR","WEST ISLIP","NY",11795,40.688447866,-73.275219648,266,"24 SHOAL DR, WEST ISLIP, NY, 11795","Match","Exact","24 SHOAL DR, WEST ISLIP, NY, 11795",113995518,"L"
132267,"24 SLEEPY HOLLOW RD","SANDY HOOK","CT",6482,41.43215172,-73.2918152509999,267,"24 SLEEPY HOLLOW RD, SANDY HOOK, CT, 6482","Match","Exact","24 SLEEPY HOLLOW RD, SANDY HOOK, CT, 06482",3282514,"R"
132268,"24 SMITH RD","WEBSTER","NY",14580,43.1862956460001,-77.506387101,268,"24 SMITH RD, WEBSTER, NY, 14580","Match","Exact","24 SMITH RD, WEBSTER, NY, 14580",14551391,"R"
132269,"24 SNOOKERS LANE","FRANKLIN","NC",28734,35.149319443,-83.316193335,269,"24 SNOOKERS LANE, FRANKLIN, NC, 28734","Match","Exact","24 SNOOKERS LN, FRANKLIN, NC, 28734",35522748,"L"
132270,"24 SNOWBIRD LN","GRANITE CITY","IL",62040,38.7238808710001,-90.094058893,270,"24 SNOWBIRD LN, GRANITE CITY, IL, 62040","Match","Exact","24 SNOWBIRD LN, GRANITE CITY, IL, 62040",107723194,"R"
132271,"24 SNYDER AVENUE","BERKELEY HEIGHTS","NJ",7922,40.689092938,-74.438897577,271,"24 SNYDER AVENUE, BERKELEY HEIGHTS, NJ, 7922","Match","Exact","24 SNYDER AVE, BERKELEY HEIGHTS, NJ, 07922",60602741,"L"
132272,"24 SOUTH 10TH STREET","PAYETTE","ID",83661,44.0746785870001,-116.931998727,272,"24 SOUTH 10TH STREET, PAYETTE, ID, 83661","Match","Exact","24 S 10TH ST, PAYETTE, ID, 83661",141418740,"L"
132273,"24 SOUTH 29TH STREET PO BOX 20","BILLINGS","MT",59101,45.779563814,-108.505105498,273,"24 SOUTH 29TH STREET PO BOX 20, BILLINGS, MT, 59101","Match","Exact","24 S 29TH ST, BILLINGS, MT, 59101",181477761,"R"
132274,"24 SOUTH 6TH STREET","ZANESVILLE","OH",43701,39.9395808570001,-82.0052242639999,274,"24 SOUTH 6TH STREET, ZANESVILLE, OH, 43701","Match","Exact","24 S 6TH ST, ZANESVILLE, OH, 43701",45594784,"R"
132275,"24 SOUTH LAKE AVENUE","AVON PARK","FL",33825,27.5953573480001,-81.5021733899999,275,"24 SOUTH LAKE AVENUE, AVON PARK, FL, 33825","Match","Exact","24 S LAKE AVE, AVON PARK, FL, 33825",636333028,"L"
132276,"24 SOUTHFORK RD","KAW CITY","OK",74641,36.7610890340001,-96.896633938,276,"24 SOUTHFORK RD, KAW CITY, OK, 74641","Match","Exact","24 SOUTHFORK RD, KAW CITY, OK, 74641",612805089,"L"
132277,"24 SPANISH BAY","DAKOTA DUNES","SD",57049,NA,NA,277,"24 SPANISH BAY, DAKOTA DUNES, SD, 57049","No_Match",NA,NA,NA,NA
132278,"24 SPLIT ROCK RD","WEST MILFORD","NJ",7480,41.106075241,-74.3647102099999,278,"24 SPLIT ROCK RD, WEST MILFORD, NJ, 7480","Match","Exact","24 SPLIT ROCK RD, WEST MILFORD, NJ, 07480",65285060,"R"
132279,"24 STANDISH ST","HARTFORD","CT",6114,41.7367507590001,-72.672171138,279,"24 STANDISH ST, HARTFORD, CT, 6114","Match","Exact","24 STANDISH ST, HARTFORD, CT, 06114",3516169,"R"
132280,"24 STATE ROUTE 37","NEW FAIRFIELD","CT",6812,NA,NA,280,"24 STATE ROUTE 37, NEW FAIRFIELD, CT, 6812","No_Match",NA,NA,NA,NA
132281,"24 STEELE AVENUE","ANNAPOLIS","MD",21401,38.97545418,-76.500499941,281,"24 STEELE AVENUE, ANNAPOLIS, MD, 21401","Match","Exact","24 STEELE AVE, ANNAPOLIS, MD, 21401",68172889,"R"
132282,"24 STICKNEY TERRACE   UNIT 2","HAMPTON","NH",3842,42.935697863,-70.838707179,282,"24 STICKNEY TERRACE   UNIT 2, HAMPTON, NH, 3842","Match","Exact","24 STICKNEY TER, HAMPTON, NH, 03842",113675902,"L"
132283,"24 SUMMIT STREET","TARRYTOWN","NY",10591,41.062428708,-73.856069116,283,"24 SUMMIT STREET, TARRYTOWN, NY, 10591","Match","Exact","24 SUMMIT ST, TARRYTOWN, NY, 10591",139788966,"R"
132284,"24 SUNNY ACRES LANE","ABBEVILLE","SC",29620,34.22041884,-82.328895654,284,"24 SUNNY ACRES LANE, ABBEVILLE, SC, 29620","Match","Exact","24 SUNNY ACRES LN, ABBEVILLE, SC, 29620",38263864,"R"
132285,"24 SUNNY MEADOWS DRIVE","HATTIESBURG","MS",39402,31.2852405950001,-89.368173016,285,"24 SUNNY MEADOWS DRIVE, HATTIESBURG, MS, 39402","Match","Exact","24 SUNNY MEADOWS DR, HATTIESBURG, MS, 39402",497686,"R"
132286,"24 SUNNYSIDE LN","LINCOLN","MA",1773,42.448236708,-71.300721433,286,"24 SUNNYSIDE LN, LINCOLN, MA, 1773","Match","Exact","24 SUNNYSIDE LN, LINCOLN, MA, 01773",86845520,"R"
132287,"24 SUNSET BLVD","COXSACKIE","NY",12051,42.350949794,-73.805857799,287,"24 SUNSET BLVD, COXSACKIE, NY, 12051","Match","Exact","24 SUNSET BLVD, COXSACKIE, NY, 12051",624475046,"L"
132288,"24 TALON WAY SUITE 1101","SCHRIEVER AFB","CO",80912,NA,NA,288,"24 TALON WAY SUITE 1101, SCHRIEVER AFB, CO, 80912","No_Match",NA,NA,NA,NA
132289,"24 TAYLOR ROAD","CONSHOHOCKEN","PA",19428,40.0918683790001,-75.284840049,289,"24 TAYLOR ROAD, CONSHOHOCKEN, PA, 19428","Match","Exact","24 TAYLOR RD, CONSHOHOCKEN, PA, 19428",135085226,"R"
132290,"24 TAYLOR STREET NO C014","SPRINGFIELD","MA",1103,42.104719731,-72.592906327,290,"24 TAYLOR STREET NO C014, SPRINGFIELD, MA, 1103","Match","Non_Exact","24 TAYLOR ST, SPRINGFIELD, MA, 01103",4068127,"L"
132291,"24 TEMPLETON TRAIL","ORCHARD PARK","NY",14127,42.785922219,-78.7142798099999,291,"24 TEMPLETON TRAIL, ORCHARD PARK, NY, 14127","Match","Exact","24 TEMPLETON TRL, ORCHARD PARK, NY, 14127",624724071,"L"
132292,"24 TEN ROD ROAD","RUTLAND","MA",1543,42.3819754530001,-71.950779036,292,"24 TEN ROD ROAD, RUTLAND, MA, 1543","Match","Exact","24 TEN ROD RD, RUTLAND, MA, 01543",40061084,"R"
132293,"24 TENNYSON LANE","BELLA VISTA","AR",72714,36.445693938,-94.227456521,293,"24 TENNYSON LANE, BELLA VISTA, AR, 72714","Match","Exact","24 TENNYSON LN, BELLA VISTA, AR, 72714",47823190,"L"
132294,"24 THIRD STREET","FITCHBURG","MA",1420,42.577094695,-71.790404326,294,"24 THIRD STREET, FITCHBURG, MA, 1420","Match","Exact","24 3RD ST, FITCHBURG, MA, 01420",40028571,"L"
132295,"24 TRAM DRIVE","OXFORD","CT",6478,41.3943057540001,-73.135483079,295,"24 TRAM DRIVE, OXFORD, CT, 6478","Match","Exact","24 TRAM DR, OXFORD, CT, 06478",639739134,"L"
132296,"24 TREELINE DRIVE","HOLLAND","PA",18966,40.2117124960001,-74.957944631,296,"24 TREELINE DRIVE, HOLLAND, PA, 18966","Match","Exact","24 TREELINE DR, HOLLAND, PA, 18966",134727081,"R"
132297,"24 TRICKETT ROAD","LYNNFIELD","MA",1940,42.5230034370001,-71.025610265,297,"24 TRICKETT ROAD, LYNNFIELD, MA, 1940","Match","Exact","24 TRICKETT RD, LYNNFIELD, MA, 01940",86700204,"L"
132298,"24 TROON DRIVE","NEWTON","NJ",7860,41.0169683130001,-74.8303903089999,298,"24 TROON DRIVE, NEWTON, NJ, 7860","Match","Non_Exact","24 TROON CT, NEWTON, NJ, 07860",98021484,"L"
132299,"24 TULP CT","CLIFTON","NJ",7013,40.866588253,-74.171110654,299,"24 TULP CT, CLIFTON, NJ, 7013","Match","Exact","24 TULP CT, CLIFTON, NJ, 07013",65250415,"R"
132300,"24 UNDERWOOD PLACE NW","WASHINGTON","DC",20012,38.9690959610001,-77.0097857599999,300,"24 UNDERWOOD PLACE NW, WASHINGTON, DC, 20012","Match","Exact","24 UNDERWOOD PL NW, WASHINGTON, DC, 20012",76222085,"L"
132301,"24 VENTURA DRIVE","NORTH BABYLON","NY",11703,40.7411474150001,-73.3145836319999,301,"24 VENTURA DRIVE, NORTH BABYLON, NY, 11703","Match","Exact","24 VENTURA DR, NORTH BABYLON, NY, 11703",113993036,"L"
132302,"24 VETERANS SQUARE","MEDIA","PA",19063,39.9186650350001,-75.3919758929999,302,"24 VETERANS SQUARE, MEDIA, PA, 19063","Match","Exact","24 VETERANS SQ, MEDIA, PA, 19063",134870035,"R"
132303,"24 W  PRESTON STREET","BALTIMORE","MD",21201,39.3044735130001,-76.617616697,303,"24 W  PRESTON STREET, BALTIMORE, MD, 21201","Match","Exact","24 W PRESTON ST, BALTIMORE, MD, 21201",206419222,"R"
132304,"24 W 10TH STREET","TRACY","CA",95376,37.7385085560001,-121.427209201,304,"24 W 10TH STREET, TRACY, CA, 95376","Match","Exact","24 10TH ST, TRACY, CA, 95376",133854083,"L"
132305,"24 W CAMELBACK A403","PHOENIX","AZ",85013,NA,NA,305,"24 W CAMELBACK A403, PHOENIX, AZ, 85013","No_Match",NA,NA,NA,NA
132306,"24 W CAMELBACK RD SUITE A","PHOENIX","AZ",85013,33.509298405,-112.074093482,306,"24 W CAMELBACK RD SUITE A, PHOENIX, AZ, 85013","Match","Non_Exact","24 W CAMELBACK RD, PHOENIX, AZ, 85013",649105487,"R"
132307,"24 W CAMELBACK RD UNIT A195","PHOENIX","AZ",85013,33.509298405,-112.074093482,307,"24 W CAMELBACK RD UNIT A195, PHOENIX, AZ, 85013","Match","Non_Exact","24 W CAMELBACK RD, PHOENIX, AZ, 85013",649105487,"R"
132308,"24 W ORANGE AVE","LAKE WALES","FL",33853,27.9035372380001,-81.590171662,308,"24 W ORANGE AVE, LAKE WALES, FL, 33853","Match","Exact","24 W ORANGE AVE, LAKE WALES, FL, 33853",104969313,"L"
132309,"24 W RAILROAD AVENUE","TENAFLY","NJ",7670,40.9262878440001,-73.964502684,309,"24 W RAILROAD AVENUE, TENAFLY, NJ, 7670","Match","Exact","24 W RAILROAD AVE, TENAFLY, NJ, 07670",64374320,"L"
132310,"24 W WALTON","CHICAGO","IL",60610,41.8999274540001,-87.629271524,310,"24 W WALTON, CHICAGO, IL, 60610","Match","Non_Exact","24 W WALTON ST, CHICAGO, IL, 60610",111768451,"R"
132311,"24 WADLEY ST","ATLANTA","GA",30314,33.752715262,-84.458002844,311,"24 WADLEY ST, ATLANTA, GA, 30314","Match","Non_Exact","24 WADLEY ST NW, ATLANTA, GA, 30314",17408081,"L"
132312,"24 WALTER MARTIN RD NE STE1","FORT WALTON BEACH","FL",32548,30.416500544,-86.610340138,312,"24 WALTER MARTIN RD NE STE1, FORT WALTON BEACH, FL, 32548","Match","Exact","24 WALTER MARTIN RD NE, FORT WALTON BEACH, FL, 32548",74449071,"R"
132313,"24 WALTER MARTIN ROAD NE SUITE 1","FORT WALTON BEACH","FL",32548,30.416500544,-86.610340138,313,"24 WALTER MARTIN ROAD NE SUITE 1, FORT WALTON BEACH, FL, 32548","Match","Exact","24 WALTER MARTIN RD NE, FORT WALTON BEACH, FL, 32548",74449071,"R"
132314,"24 WARDLAW COURT","PROVIDENCE","RI",2908,41.8459797130001,-71.441416562,314,"24 WARDLAW COURT, PROVIDENCE, RI, 2908","Match","Exact","24 WARDLAW CT, PROVIDENCE, RI, 02908",47457965,"L"
132315,"24 WATER ST","OLD FORT","NC",28762,35.627692279,-82.181057327,315,"24 WATER ST, OLD FORT, NC, 28762","Match","Exact","24 WATER ST, OLD FORT, NC, 28762",35884630,"R"
132316,"24 WATERBURY PARKWAY","CORTLANDT MANOR","NY",10567,41.3084371470001,-73.90012526,316,"24 WATERBURY PARKWAY, CORTLANDT MANOR, NY, 10567","Match","Exact","24 WATERBURY PKWY, CORTLANDT MANOR, NY, 10567",139724380,"R"
132317,"24 WATERFORD COURT","ATLANTA","GA",30328,33.92545411,-84.355491171,317,"24 WATERFORD COURT, ATLANTA, GA, 30328","Match","Non_Exact","24 WATERFORD CT NE, ATLANTA, GA, 30328",17385863,"L"
132318,"24 WEEMS LANE","WINCHESTER","VA",22601,39.1614003930001,-78.177284213,318,"24 WEEMS LANE, WINCHESTER, VA, 22601","Match","Exact","24 WEEMS LN, WINCHESTER, VA, 22601",55578952,"R"
132319,"24 WELLFLEET DR","SPRINGFIELD","MA",1119,42.1263791980001,-72.502436662,319,"24 WELLFLEET DR, SPRINGFIELD, MA, 1119","Match","Exact","24 WELLFLEET DR, SPRINGFIELD, MA, 01119",4025340,"L"
132320,"24 WEST 117TH STREET APT 3D","NEW YORK","NY",10026,40.80197688,-73.947481544,320,"24 WEST 117TH STREET APT 3D, NEW YORK, NY, 10026","Match","Exact","24 W 117TH ST, NEW YORK, NY, 10026",652207870,"L"
132321,"24 WEST CAMELBACK RD","PHOENIX","AZ",85013,33.509298324,-112.074079975,321,"24 WEST CAMELBACK RD, PHOENIX, AZ, 85013","Match","Exact","24 W CAMELBACK RD, PHOENIX, AZ, 85013",649105487,"R"
132322,"24 WEST CAMELBACK ROAD  SUITE 504","PHOENIX","AZ",85013,33.509298324,-112.074079975,322,"24 WEST CAMELBACK ROAD  SUITE 504, PHOENIX, AZ, 85013","Match","Exact","24 W CAMELBACK RD, PHOENIX, AZ, 85013",649105487,"R"
132323,"24 WEST CHERRY","TRYON","OK",74875,NA,NA,323,"24 WEST CHERRY, TRYON, OK, 74875","No_Match",NA,NA,NA,NA
132324,"24 WEST MAIN STREET","GRAFTON","WV",26354,39.3411724440001,-80.0205728189999,324,"24 WEST MAIN STREET, GRAFTON, WV, 26354","Match","Exact","24 W MAIN ST, GRAFTON, WV, 26354",647697306,"L"
132325,"24 WHEELER PL","NORTHPORT","NY",11768,40.895208252,-73.3344420019999,325,"24 WHEELER PL, NORTHPORT, NY, 11768","Match","Exact","24 WHEELER PL, NORTHPORT, NY, 11768",113964919,"R"
132326,"24 WHITAKER AVE","BERKELEY","CA",94708,37.890297891,-122.256126452,326,"24 WHITAKER AVE, BERKELEY, CA, 94708","Match","Exact","24 WHITAKER AVE, BERKELEY, CA, 94708",636431745,"R"
132327,"24 WHITE PINE ROAD","ST PAUL","MN",55127,45.0882722420001,-93.0579032429999,327,"24 WHITE PINE ROAD, ST PAUL, MN, 55127","Match","Exact","24 WHITE PINE RD, SAINT PAUL, MN, 55127",619834313,"R"
132328,"24 WHITEHORSE ROAD","MIDDLETOWN","NY",10940,41.3971489190001,-74.567648702,328,"24 WHITEHORSE ROAD, MIDDLETOWN, NY, 10940","Match","Non_Exact","24 WHITE HORSE RD, MIDDLETOWN, NY, 10940",619689843,"R"
132329,"24 WILCOX DRIVE","WILKES BARRE","PA",18705,41.2591702220001,-75.8363003819999,329,"24 WILCOX DRIVE, WILKES BARRE, PA, 18705","Match","Exact","24 WILCOX DR, WILKES BARRE, PA, 18705",80956445,"L"
132330,"24 WILD ROSE PLACE","ALISO VIEJO","CA",92656,33.5712594550001,-117.738182319,330,"24 WILD ROSE PLACE, ALISO VIEJO, CA, 92656","Match","Exact","24 WILD ROSE PL, ALISO VIEJO, CA, 92656",612211997,"R"
132331,"24 WILD RYE PLACE","THREE FORKS","MT",59752,45.9498510220001,-111.609556294,331,"24 WILD RYE PLACE, THREE FORKS, MT, 59752","Match","Exact","24 WILD RYE PL, THREE FORKS, MT, 59752",640825332,"L"
132332,"24 WILLOWBROOK CLOSE","WHITEFISH","MT",59937,48.408422118,-114.321986123,332,"24 WILLOWBROOK CLOSE, WHITEFISH, MT, 59937","Match","Exact","24 WILLOWBROOK CLOSE, WHITEFISH, MT, 59937",204108673,"L"
132333,"24 WILSON DRIVE","SICKLERVILLE","NJ",8081,39.738920369,-74.9908171179999,333,"24 WILSON DRIVE, SICKLERVILLE, NJ, 8081","Match","Exact","24 WILSON DR, SICKLERVILLE, NJ, 08081",134374918,"R"
132334,"24 WINMAN CT","WARWICK","RI",2886,41.7013936810001,-71.466489713,334,"24 WINMAN CT, WARWICK, RI, 2886","Match","Exact","24 WINMAN CT, WARWICK, RI, 02886",159158023,"R"
132335,"24 WINONA AVE","LINCOLN PARK","NJ",7035,40.922005594,-74.309296875,335,"24 WINONA AVE, LINCOLN PARK, NJ, 7035","Match","Exact","24 WINONA AVE, LINCOLN PARK, NJ, 07035",60429053,"R"
132336,"24 WINTER STREET","PETERBOROUGH","NH",3458,42.8752133460001,-71.954304399,336,"24 WINTER STREET, PETERBOROUGH, NH, 3458","Match","Exact","24 WINTER ST, PETERBOROUGH, NH, 03458",113558924,"R"
132337,"24 WITZEL CT UNIT 206","MONSEY","NY",10952,41.110885153,-74.084449695,337,"24 WITZEL CT UNIT 206, MONSEY, NY, 10952","Match","Exact","24 WITZEL CT, MONSEY, NY, 10952",124608998,"R"
132338,"24 WOOD ACRES RD","GLEN HEAD","NY",11545,40.818203877,-73.569513113,338,"24 WOOD ACRES RD, GLEN HEAD, NY, 11545","Match","Exact","24 WOOD ACRES RD, GLEN HEAD, NY, 11545",147692082,"L"
132339,"24 WOODS AVE","UNIONDALE","NY",11575,40.6789410900001,-73.590840366,339,"24 WOODS AVE, UNIONDALE, NY, 11575","Match","Non_Exact","24 WOODS AVE, ROOSEVELT, NY, 11575",147630668,"R"
132340,"24 YONKERS AVE","TUCKAHOE","NY",10707,40.949889635,-73.832354083,340,"24 YONKERS AVE, TUCKAHOE, NY, 10707","Match","Exact","24 YONKERS AVE, TUCKAHOE, NY, 10707",139842243,"R"
132341,"24-02 23RD AVENUE","ASTORIA","NY",11105,40.7774232570001,-73.9172348609999,341,"24-02 23RD AVENUE, ASTORIA, NY, 11105","Match","Exact","24-2 23RD AVE, ASTORIA, NY, 11105",59696911,"R"
132342,"24-11 24TH ST","ASTORIA","NY",11102,40.7751685600001,-73.9201235529999,342,"24-11 24TH ST, ASTORIA, NY, 11102","Match","Exact","24-11 24TH ST, ASTORIA, NY, 11102",59696646,"L"
132343,"24-30 BAYVIEW AVENUE","JERSEY CITY","NJ",7305,40.702901839,-74.077166339,343,"24-30 BAYVIEW AVENUE, JERSEY CITY, NJ, 7305","Match","Exact","24 BAYVIEW AVE, JERSEY CITY, NJ, 07305",59616610,"R"
132344,"24","CULLOWHEE","NC",28723,NA,NA,344,"24, CULLOWHEE, NC, 28723","No_Match",NA,NA,NA,NA
132345,"24","MOUNTAIN REST","SC",29664,NA,NA,345,"24, MOUNTAIN REST, SC, 29664","No_Match",NA,NA,NA,NA
132346,"24","SUTTER CREEK","CA",95685,NA,NA,346,"24, SUTTER CREEK, CA, 95685","No_Match",NA,NA,NA,NA
132347,"240 16TH PLACE APARTMENT 3","COSTA MESA","CA",92627,33.632363475,-117.919420361,347,"240 16TH PLACE APARTMENT 3, COSTA MESA, CA, 92627","Match","Exact","240 16TH PL, COSTA MESA, CA, 92627",649782108,"L"
132348,"240 24TH PLACE","COSTA MESA","CA",92627,33.6544057290001,-117.897102094,348,"240 24TH PLACE, COSTA MESA, CA, 92627","Match","Exact","240 24TH PL, COSTA MESA, CA, 92627",144048500,"L"
132349,"240 2ND STREET","SAN FRANCISCO","CA",94105,37.7860198070001,-122.397309622,349,"240 2ND STREET, SAN FRANCISCO, CA, 94105","Match","Exact","240 2ND ST, SAN FRANCISCO, CA, 94105",192281608,"R"
132350,"240 3RD STREET SUITE 2A","OAKLAND","CA",94607,37.7947250600001,-122.270670714,350,"240 3RD STREET SUITE 2A, OAKLAND, CA, 94607","Match","Exact","240 3RD ST, OAKLAND, CA, 94607",125083099,"R"
132351,"240 6TH STEET CT W","ANDALUSIA","IL",61232,NA,NA,351,"240 6TH STEET CT W, ANDALUSIA, IL, 61232","Tie",NA,NA,NA,NA
132352,"240 8TH STREET SE","WASHINGTON","DC",20003,38.886933379,-76.994956147,352,"240 8TH STREET SE, WASHINGTON, DC, 20003","Match","Exact","240 8TH ST SE, WASHINGTON, DC, 20003",76230036,"L"
132353,"240 ALBERT GALLAITN AVE","GALLATIN","TN",37066,36.4041423240001,-86.4390649809999,353,"240 ALBERT GALLAITN AVE, GALLATIN, TN, 37066","Match","Non_Exact","240 ALBERT GALLATIN AVE, GALLATIN, TN, 37066",638214438,"L"
132354,"240 ALDER AVENUE","JOHNSTOWN","CO",80534,40.332024029,-104.942576523,354,"240 ALDER AVENUE, JOHNSTOWN, CO, 80534","Match","Exact","240 ALDER AVE, JOHNSTOWN, CO, 80534",188753223,"R"
132355,"240 ALVARADO RD","BERKELEY","CA",94705,37.857124433,-122.23662506,355,"240 ALVARADO RD, BERKELEY, CA, 94705","Match","Exact","240 ALVARADO RD, BERKELEY, CA, 94705",640547982,"R"
132356,"240 AMBERTON COURT","JOHNS CREEK","GA",30097,34.047540312,-84.148031408,356,"240 AMBERTON COURT, JOHNS CREEK, GA, 30097","Match","Exact","240 AMBERTON CT, JOHNS CREEK, GA, 30097",17380737,"L"
132357,"240 ANTEEO WAY","SANTA ROSA","CA",95407,38.3963487620001,-122.719125113,357,"240 ANTEEO WAY, SANTA ROSA, CA, 95407","Match","Exact","240 ANTEEO WAY, SANTA ROSA, CA, 95407",67517287,"L"
132358,"240 APOLLO BEACH BLVD","APOLLO BEACH","FL",33572,27.771308848,-82.394367933,358,"240 APOLLO BEACH BLVD, APOLLO BEACH, FL, 33572","Match","Exact","240 APOLLO BEACH BLVD, APOLLO BEACH, FL, 33572",104619377,"L"
132359,"240 ARNOLD STREET","NORTH ATTLEBORO","MA",2760,41.9811651800001,-71.349394541,359,"240 ARNOLD STREET, NORTH ATTLEBORO, MA, 2760","Match","Non_Exact","240 ARNOLD RD, NORTH ATTLEBORO, MA, 02760",46745578,"R"
132360,"240 ASTAIRE MANOR","FAYETTEVILLE","GA",30214,NA,NA,360,"240 ASTAIRE MANOR, FAYETTEVILLE, GA, 30214","No_Match",NA,NA,NA,NA
132361,"240 AUBURN WAY S STE2B","AUBURN","WA",98002,47.3053146250001,-122.225702507,361,"240 AUBURN WAY S STE2B, AUBURN, WA, 98002","Match","Exact","240 AUBURN WAY S, AUBURN, WA, 98002",186655773,"L"
132362,"240 BASSETT RD","NORTH HAVEN","CT",6473,41.4057068880001,-72.838349034,362,"240 BASSETT RD, NORTH HAVEN, CT, 6473","Match","Exact","240 BASSETT RD, NORTH HAVEN, CT, 06473",3721240,"R"
132363,"240 BATES DRIVE","MONSEY","NY",10952,41.1128238050001,-74.084299646,363,"240 BATES DRIVE, MONSEY, NY, 10952","Match","Exact","240 BATES DR, MONSEY, NY, 10952",124608992,"L"
132364,"240 BATTERY STREET","BURLINGTON","VT",5401,44.4733068300001,-73.218459831,364,"240 BATTERY STREET, BURLINGTON, VT, 5401","Match","Exact","240 BATTERY ST, BURLINGTON, VT, 05401",135861660,"L"
132365,"240 BENNETT AVE","STATEN ISLAND","NY",10312,40.535906309,-74.1859099019999,365,"240 BENNETT AVE, STATEN ISLAND, NY, 10312","Match","Exact","240 BENNETT AVE, STATEN ISLAND, NY, 10312",59895589,"R"
132366,"240 BERG ROAD","SALINA","KS",67401,38.772652362,-97.609540085,366,"240 BERG ROAD, SALINA, KS, 67401","Match","Non_Exact","240 E BERG RD, SALINA, KS, 67401",645207606,"R"
132367,"240 BETTIE A JAMISON ROAD","CLINTON","MS",39056,32.427188809,-90.417917238,367,"240 BETTIE A JAMISON ROAD, CLINTON, MS, 39056","Match","Exact","240 BETTIE A JAMISON RD, CLINTON, MS, 39056",645866827,"L"
132368,"240 BRAMANS LANE","PORTSMOUTH","RI",2871,41.538513192,-71.2570207269999,368,"240 BRAMANS LANE, PORTSMOUTH, RI, 2871","Match","Exact","240 BRAMANS LN, PORTSMOUTH, RI, 02871",47361086,"L"
132369,"240 BROADWAY 1H","STATEN ISLAND","NY",10310,40.635737234,-74.117423598,369,"240 BROADWAY 1H, STATEN ISLAND, NY, 10310","Match","Exact","240 BROADWAY, STATEN ISLAND, NY, 10310",624956733,"R"
132370,"240 BROOKWOOD DR UNIT 3","SOUTH LYON","MI",48178,42.45734923,-83.640079273,370,"240 BROOKWOOD DR UNIT 3, SOUTH LYON, MI, 48178","Match","Exact","240 BROOKWOOD DR, SOUTH LYON, MI, 48178",69784033,"L"
132371,"240 BURLINGTON AVENUE UNIT 25","BRISTOL","CT",6010,41.6889749950001,-72.943064067,371,"240 BURLINGTON AVENUE UNIT 25, BRISTOL, CT, 6010","Match","Exact","240 BURLINGTON AVE, BRISTOL, CT, 06010",3504871,"R"
132372,"240 BURROUGHS STREET","PLYMOUTH","MI",48170,42.365027549,-83.462091634,372,"240 BURROUGHS STREET, PLYMOUTH, MI, 48170","Match","Exact","240 BURROUGHS ST, PLYMOUTH, MI, 48170",95408597,"R"
132373,"240 CAMPUS DRIVE","AMHERST","NY",14226,42.9703129440001,-78.786755071,373,"240 CAMPUS DRIVE, AMHERST, NY, 14226","Match","Exact","240 CAMPUS DR, AMHERST, NY, 14226",48298059,"L"
132374,"240 CHISHOLM TRAIL","HOT SPRINGS","MT",59845,47.617192527,-114.665357179,374,"240 CHISHOLM TRAIL, HOT SPRINGS, MT, 59845","Match","Non_Exact","240 CHISHOLM RD, HOT SPRINGS, MT, 59845",636283673,"L"
132375,"240 CLERK ST","JERSEY CITY","NJ",7304,40.7116716680001,-74.073636633,375,"240 CLERK ST, JERSEY CITY, NJ, 7304","Match","Exact","240 CLERK ST, JERSEY CITY, NJ, 07304",59604710,"R"
132376,"240 COLLINS INDUSTRIAL BLVD","ATHENS","GA",30601,33.981393822,-83.349639566,376,"240 COLLINS INDUSTRIAL BLVD, ATHENS, GA, 30601","Match","Exact","240 COLLINS IND BLVD, ATHENS, GA, 30601",4811760,"R"
132377,"240 COLLINS VIEW CT","LAWRENCEVILLE","GA",30043,34.032061964,-84.022644123,377,"240 COLLINS VIEW CT, LAWRENCEVILLE, GA, 30043","Match","Exact","240 COLLINS VIEW CT, LAWRENCEVILLE, GA, 30043",633792539,"R"
132378,"240 COLONY PLACE","SWEDESBORO","NJ",8085,39.6987646470001,-75.3205051269999,378,"240 COLONY PLACE, SWEDESBORO, NJ, 8085","Match","Exact","240 COLONY PL, SWEDESBORO, NJ, 08085",134595159,"L"
132379,"240 COMMERCE STREET","BEAVER","PA",15009,40.6924400130001,-80.307668153,379,"240 COMMERCE STREET, BEAVER, PA, 15009","Match","Exact","240 COMMERCE ST, BEAVER, PA, 15009",52561528,"R"
132380,"240 CONSTITUTION BLVD","DALLAS","GA",30132,33.9164128640001,-84.844257937,380,"240 CONSTITUTION BLVD, DALLAS, GA, 30132","Match","Exact","240 CONSTITUTION BLVD, DALLAS, GA, 30132",635202498,"R"
132381,"240 CORTEZ AVE","DELEON SPRINGS","FL",32130,29.123012611,-81.354922061,381,"240 CORTEZ AVE, DELEON SPRINGS, FL, 32130","Match","Non_Exact","240 CORTEZ AVE, DE LEON SPRINGS, FL, 32130",94509115,"L"
132382,"240 CORTEZ AVENUE","DE LEON SPRINGS","FL",32130,29.123012611,-81.354922061,382,"240 CORTEZ AVENUE, DE LEON SPRINGS, FL, 32130","Match","Exact","240 CORTEZ AVE, DE LEON SPRINGS, FL, 32130",94509115,"L"
132383,"240 CORTLAND AVENUE","LOMBARD","IL",60148,41.910996889,-88.0235016089999,383,"240 CORTLAND AVENUE, LOMBARD, IL, 60148","Match","Exact","240 CORTLAND AVE, LOMBARD, IL, 60148",112568583,"L"
132384,"240 COUNTY ROAD","IPSWICH","MA",1938,42.657978825,-70.843454701,384,"240 COUNTY ROAD, IPSWICH, MA, 1938","Match","Exact","240 COUNTY RD, IPSWICH, MA, 01938",86654447,"L"
132385,"240 COVE AVE","WARWICK","RI",2889,41.6992752,-71.419833884,385,"240 COVE AVE, WARWICK, RI, 2889","Match","Exact","240 COVE AVE, WARWICK, RI, 02889",159149514,"L"
132386,"240 CRANDON BLVD STE 246","KEY BISCAYNE","FL",33149,25.6965190880001,-80.163016919,386,"240 CRANDON BLVD STE 246, KEY BISCAYNE, FL, 33149","Match","Exact","240 CRANDON BLVD, KEY BISCAYNE, FL, 33149",624570504,"R"
132387,"240 CRANDON BLVD STE 275","KEY BISCAYNE","FL",33149,25.6965190880001,-80.163016919,387,"240 CRANDON BLVD STE 275, KEY BISCAYNE, FL, 33149","Match","Exact","240 CRANDON BLVD, KEY BISCAYNE, FL, 33149",624570504,"R"
132388,"240 CRANDON BLVD SUITE 115","KEY BISCAYNE","FL",33149,25.6965190880001,-80.163016919,388,"240 CRANDON BLVD SUITE 115, KEY BISCAYNE, FL, 33149","Match","Exact","240 CRANDON BLVD, KEY BISCAYNE, FL, 33149",624570504,"R"
132389,"240 CRANDON BOULEVARD SUITE 275","KEY BISCAYNE","FL",33149,25.6965190880001,-80.163016919,389,"240 CRANDON BOULEVARD SUITE 275, KEY BISCAYNE, FL, 33149","Match","Exact","240 CRANDON BLVD, KEY BISCAYNE, FL, 33149",624570504,"R"
132390,"240 CYPRESS AVENUE","MONROVIA","CA",91016,NA,NA,390,"240 CYPRESS AVENUE, MONROVIA, CA, 91016","Tie",NA,NA,NA,NA
132391,"240 DEAN LANE OFC","ULLIN","IL",62992,NA,NA,391,"240 DEAN LANE OFC, ULLIN, IL, 62992","No_Match",NA,NA,NA,NA
132392,"240 DEL CASA DRIVE","MILL VALLEY","CA",94941,37.9083951920001,-122.535377193,392,"240 DEL CASA DRIVE, MILL VALLEY, CA, 94941","Match","Exact","240 DEL CASA DR, MILL VALLEY, CA, 94941",192766650,"R"
132393,"240 DIANNE DRIVE","SAINT ROSE","LA",70087,29.9555805050001,-90.320124343,393,"240 DIANNE DRIVE, SAINT ROSE, LA, 70087","Match","Exact","240 DIANNE DR, SAINT ROSE, LA, 70087",93618060,"L"
132394,"240 DU BOIS AVENUE","SACRAMENTO","CA",95838,38.642516222,-121.463007982,394,"240 DU BOIS AVENUE, SACRAMENTO, CA, 95838","Match","Non_Exact","240 DU BOIS ST, SACRAMENTO, CA, 95838",133389459,"R"
132395,"240 E 175TH ST APT 205","BRONX","NY",10456,NA,NA,395,"240 E 175TH ST APT 205, BRONX, NY, 10456","No_Match",NA,NA,NA,NA
132396,"240 E 8TH STREET","TRAVERSE CITY","MI",49684,44.7593627910001,-85.620001997,396,"240 E 8TH STREET, TRAVERSE CITY, MI, 49684","Match","Exact","240 E 8TH ST, TRAVERSE CITY, MI, 49684",145515021,"R"
132397,"240 E COLLOM STREET","PHILADELPHIA","PA",19144,40.0328663130001,-75.163545652,397,"240 E COLLOM STREET, PHILADELPHIA, PA, 19144","Match","Exact","240 E COLLOM ST, PHILADELPHIA, PA, 19144",131401421,"R"
132398,"240 E GAMMON ROAD","VINEYARD","UT",84058,40.2971247150001,-111.746549506,398,"240 E GAMMON ROAD, VINEYARD, UT, 84058","Match","Non_Exact","240 E GAMMON RD, VINEYARD, UT, 84059",134204005,"R"
132399,"240 E HARVESTLANE","PETERSBURG","IN",47567,NA,NA,399,"240 E HARVESTLANE, PETERSBURG, IN, 47567","No_Match",NA,NA,NA,NA
132400,"240 E HOUSE STREET","ALVIN","TX",77511,29.4186815690001,-95.24055863,400,"240 E HOUSE STREET, ALVIN, TX, 77511","Match","Exact","240 E HOUSE ST, ALVIN, TX, 77511",116585246,"R"
132401,"240 E HURON RM 1-443","CHICAGO","IL",60611,NA,NA,401,"240 E HURON RM 1-443, CHICAGO, IL, 60611","No_Match",NA,NA,NA,NA
132402,"240 E MARKET ST","INGLEWOOD","CA",90301,NA,NA,402,"240 E MARKET ST, INGLEWOOD, CA, 90301","Tie",NA,NA,NA,NA
132403,"240 EAGLES LANDING WAY","MCDONOUGH","GA",30253,33.503073371,-84.207591302,403,"240 EAGLES LANDING WAY, MCDONOUGH, GA, 30253","Match","Exact","240 EAGLES LANDING WAY, MCDONOUGH, GA, 30253",638773349,"R"
132404,"240 EAST 172 STREET 377","BRONX","NY",10457,40.840427794,-73.9109151389999,404,"240 EAST 172 STREET 377, BRONX, NY, 10457","Match","Exact","240 E 172ND ST, BRONX, NY, 10457",80299920,"R"
132405,"240 EAST MAIN ST","ELBRIDGE","NY",13060,43.0364982620001,-76.436124978,405,"240 EAST MAIN ST, ELBRIDGE, NY, 13060","Match","Exact","240 E MAIN ST, ELBRIDGE, NY, 13060",46559180,"R"
132406,"240 EAST MAIN ST","PRINCEVILLE","IL",61559,40.930057231,-89.754708382,406,"240 EAST MAIN ST, PRINCEVILLE, IL, 61559","Match","Exact","240 E MAIN ST, PRINCEVILLE, IL, 61559",8703362,"R"
132407,"240 EDGEWORTH ROAD","NEWNAN","GA",30263,33.438696506,-84.757608841,407,"240 EDGEWORTH ROAD, NEWNAN, GA, 30263","Match","Exact","240 EDGEWORTH RD, NEWNAN, GA, 30263",642535048,"L"
132408,"240 ENGLENOOK DR","DEBARY","FL",32713,28.8752095180001,-81.31761549,408,"240 ENGLENOOK DR, DEBARY, FL, 32713","Match","Exact","240 ENGLENOOK DR, DEBARY, FL, 32713",94576161,"R"
132409,"240 ERMINES WAY","MCDONOUGH","GA",30253,33.3903135960001,-84.206550518,409,"240 ERMINES WAY, MCDONOUGH, GA, 30253","Match","Exact","240 ERMINES WAY, MCDONOUGH, GA, 30253",619924599,"R"
132410,"240 ESSEX STREET","BEVERLY","MA",1915,42.5655697340001,-70.86377479,410,"240 ESSEX STREET, BEVERLY, MA, 1915","Match","Exact","240 ESSEX ST, BEVERLY, MA, 01915",86704463,"L"
132411,"240 EXETER AVE","SAN CARLOS","CA",94070,37.501629698,-122.280884184,411,"240 EXETER AVE, SAN CARLOS, CA, 94070","Match","Exact","240 EXETER AVE, SAN CARLOS, CA, 94070",635879449,"R"
132412,"240 FAIR STREET","SYCAMORE","IL",60178,41.987395011,-88.6982028529999,412,"240 FAIR STREET, SYCAMORE, IL, 60178","Match","Exact","240 FAIR ST, SYCAMORE, IL, 60178",52273014,"R"
132413,"240 FAIRVIEW ST","ATHENS","GA",30601,33.9580309770001,-83.3566959349999,413,"240 FAIRVIEW ST, ATHENS, GA, 30601","Match","Exact","240 FAIRVIEW ST, ATHENS, GA, 30601",4802882,"R"
132414,"240 FARRIER ROAD","ITHACA","NY",14853,NA,NA,414,"240 FARRIER ROAD, ITHACA, NY, 14853","No_Match",NA,NA,NA,NA
132415,"240 FIFTH AVENUE","MANSFIELD","OH",44905,40.7647347500001,-82.496974558,415,"240 FIFTH AVENUE, MANSFIELD, OH, 44905","Match","Exact","240 5TH AVE, MANSFIELD, OH, 44905",207219556,"R"
132416,"240 FLINT RIVER ROAD APT A-4","JONESBORO","GA",30238,33.518150699,-84.3839444769999,416,"240 FLINT RIVER ROAD APT A-4, JONESBORO, GA, 30238","Match","Exact","240 FLINT RIVER RD, JONESBORO, GA, 30238",629796573,"R"
132417,"240 FRANKLIN AVE","MAPLEWOOD","NJ",7040,40.7192110550001,-74.2702739659999,417,"240 FRANKLIN AVE, MAPLEWOOD, NJ, 7040","Match","Exact","240 FRANKLIN AVE, MAPLEWOOD, NJ, 07040",63462687,"R"
132418,"240 FRIO LN","LEANDER","TX",78641,30.5681637820001,-97.8754950909999,418,"240 FRIO LN, LEANDER, TX, 78641","Match","Exact","240 FRIO LN, LEANDER, TX, 78641",648537230,"L"
132419,"240 GARDEN AVENUE","SALT LAKE CITY","UT",84115,40.707425764,-111.88426993,419,"240 GARDEN AVENUE, SALT LAKE CITY, UT, 84115","Match","Non_Exact","240 E GARDEN AVE, SALT LAKE CITY, UT, 84115",176078913,"R"
132420,"240 GLEN LAKE DR","ATLANTA","GA",30327,33.9123235690001,-84.395530617,420,"240 GLEN LAKE DR, ATLANTA, GA, 30327","Match","Non_Exact","240 GLEN LAKE DR NW, ATLANTA, GA, 30327",17333258,"L"
132421,"240 GRAND PRIX AVE","MANTECA","CA",95337,37.796015878,-121.238091518,421,"240 GRAND PRIX AVE, MANTECA, CA, 95337","Match","Exact","240 GRAND PRIX AVE, MANTECA, CA, 95337",133858313,"R"
132422,"240 HACIENDA DR","ARCADIA","CA",91006,34.1549949290001,-118.040260378,422,"240 HACIENDA DR, ARCADIA, CA, 91006","Match","Exact","240 HACIENDA DR, ARCADIA, CA, 91006",141643904,"L"
132423,"240 HALL AVE","GRAND JUNCTION","CO",81501,39.083712619,-108.568557472,423,"240 HALL AVE, GRAND JUNCTION, CO, 81501","Match","Exact","240 HALL AVE, GRAND JCT, CO, 81501",122432201,"L"
132424,"240 HARDIN BRIDGE RD","KINGSTON","GA",30145,34.214180356,-84.934288668,424,"240 HARDIN BRIDGE RD, KINGSTON, GA, 30145","Match","Exact","240 HARDIN BRIDGE RD, KINGSTON, GA, 30145",627546506,"L"
132425,"240 HARMON AVENUE APARTMENT 214","PANAMA CITY","FL",32401,30.149776549,-85.657219146,425,"240 HARMON AVENUE APARTMENT 214, PANAMA CITY, FL, 32401","Match","Exact","240 HARMON AVE, PANAMA CITY, FL, 32401",7030774,"R"
132426,"240 HARRISON STREET","CHARLESTOWN","IN",47111,38.443578657,-85.659402044,426,"240 HARRISON STREET, CHARLESTOWN, IN, 47111","Match","Exact","240 HARRISON ST, CHARLESTOWN, IN, 47111",64886223,"L"
132427,"240 HARTMAN COURT","WEST LAFAYETTE","IN",47906,40.4594175400001,-86.9005535219999,427,"240 HARTMAN COURT, WEST LAFAYETTE, IN, 47906","Match","Exact","240 HARTMAN CT, W LAFAYETTE, IN, 47906",27316977,"L"
132428,"240 HIGH STREET","BRISTOL","RI",2809,41.670138439,-71.273584392,428,"240 HIGH STREET, BRISTOL, RI, 2809","Match","Exact","240 HIGH ST, BRISTOL, RI, 02809",46480965,"R"
132429,"240 HIGHWAY 105 EXT SUITE 201","BOONE","NC",28607,NA,NA,429,"240 HIGHWAY 105 EXT SUITE 201, BOONE, NC, 28607","No_Match",NA,NA,NA,NA
132430,"240 HIGHWAY 16 NO 19","PLYMOUTH","CA",95669,NA,NA,430,"240 HIGHWAY 16 NO 19, PLYMOUTH, CA, 95669","No_Match",NA,NA,NA,NA
132431,"240 HOLLY PINES DRIVE","PINEHURST","NC",28374,35.1692783830001,-79.474137969,431,"240 HOLLY PINES DRIVE, PINEHURST, NC, 28374","Match","Exact","240 HOLLY PINES DR, PINEHURST, NC, 28374",640600950,"R"
132432,"240 HWY 101","BANDON","OR",97411,43.1183398330001,-124.412660955,432,"240 HWY 101, BANDON, OR, 97411","Match","Non_Exact","240 US HWY 101, BANDON, OR, 97411",137008459,"R"
132433,"240 HWY 9 N","GRANGEVILLE","ID",83530,NA,NA,433,"240 HWY 9 N, GRANGEVILLE, ID, 83530","No_Match",NA,NA,NA,NA
132434,"240 JACKSON AVENUE","LAWRENCEBURG","TN",38464,35.2366068310001,-87.329468349,434,"240 JACKSON AVENUE, LAWRENCEBURG, TN, 38464","Match","Exact","240 JACKSON AVE, LAWRENCEBURG, TN, 38464",26825049,"R"
132435,"240 JAY STREET","CHAPEL HILL","NC",27516,35.918901836,-79.066669366,435,"240 JAY STREET, CHAPEL HILL, NC, 27516","Match","Exact","240 JAY ST, CHAPEL HILL, NC, 27516",72414174,"R"
132436,"240 JC PENNEY N  1 UNIVERSITY BLVD","ST LOUIS","MO",63121,38.70861832,-90.3112679989999,436,"240 JC PENNEY N  1 UNIVERSITY BLVD, ST LOUIS, MO, 63121","Match","Non_Exact","1 UNIVERSITY DR, SAINT LOUIS, MO, 63121",649761134,"R"
132437,"240 JOSHUA LN","MALVERN","AR",72104,34.4583402270001,-92.872678605,437,"240 JOSHUA LN, MALVERN, AR, 72104","Match","Non_Exact","240 JOSHUA DR, MALVERN, AR, 72104",610645331,"L"
132438,"240 KENSINGTON DR","MORGANVILLE","NJ",7751,40.3797492200001,-74.218870478,438,"240 KENSINGTON DR, MORGANVILLE, NJ, 7751","Match","Exact","240 KENSINGTON DR, MORGANVILLE, NJ, 07751",628681181,"L"
132439,"240 KENT AVE 2ND FLOOR","BROOKLYN","NY",11249,40.7166967360001,-73.965608273,439,"240 KENT AVE 2ND FLOOR, BROOKLYN, NY, 11249","Match","Exact","240 KENT AVE, BROOKLYN, NY, 11249",59075987,"R"
132440,"240 KENT AVE SUITE B11","BROOKLYN","NY",11249,40.7166967360001,-73.965608273,440,"240 KENT AVE SUITE B11, BROOKLYN, NY, 11249","Match","Exact","240 KENT AVE, BROOKLYN, NY, 11249",59075987,"R"
132441,"240 KENT AVE","BROOKLYN","NY",11211,40.7166967360001,-73.965608273,441,"240 KENT AVE, BROOKLYN, NY, 11211","Match","Non_Exact","240 KENT AVE, BROOKLYN, NY, 11249",59075987,"R"
132442,"240 KENT RD","WARREN","CT",6754,41.7426074150001,-73.3942353039999,442,"240 KENT RD, WARREN, CT, 6754","Match","Exact","240 KENT RD, WARREN, CT, 06754",651693906,"R"
132443,"240 KENTWOOD BLVD","BRICK","NJ",8724,40.0781177200001,-74.11349594,443,"240 KENTWOOD BLVD, BRICK, NJ, 8724","Match","Exact","240 KENTWOOD BLVD, BRICK, NJ, 08724",203797799,"L"
132444,"240 LAKE LINK ROAD","WINTER HAVEN","FL",33884,28.015624534,-81.705050612,444,"240 LAKE LINK ROAD, WINTER HAVEN, FL, 33884","Match","Exact","240 LAKE LINK RD, WINTER HAVEN, FL, 33884",104913257,"R"
132445,"240 LAU OLIWA LOOP","WAILUKU","HI",96793,20.883377222,-156.507752265,445,"240 LAU OLIWA LOOP, WAILUKU, HI, 96793","Match","Exact","240 LAU OLIWA LOOP, WAILUKU, HI, 96793",648407482,"L"
132446,"240 LEFEBVRE LANE","WILLISTON","VT",5495,44.4387974530001,-73.065604934,446,"240 LEFEBVRE LANE, WILLISTON, VT, 5495","Match","Exact","240 LEFEBVRE LN, WILLISTON, VT, 05495",135844691,"L"
132447,"240 LEGACY DR STE 206","PLANO","TX",75023,33.0682502120001,-96.695218041,447,"240 LEGACY DR STE 206, PLANO, TX, 75023","Match","Exact","240 LEGACY DR, PLANO, TX, 75023",210477226,"R"
132448,"240 LENOX AVENUE SUITE G","NEW YORK","NY",10027,40.805888451,-73.946856369,448,"240 LENOX AVENUE SUITE G, NEW YORK, NY, 10027","Match","Exact","240 LENOX AVE, NEW YORK, NY, 10027",59656196,"R"
132449,"240 LEXINGTON STREET","WOBURN","MA",1801,42.462441579,-71.178675042,449,"240 LEXINGTON STREET, WOBURN, MA, 1801","Match","Exact","240 LEXINGTON ST, WOBURN, MA, 01801",86883723,"L"
132450,"240 LOCH STONE STREET","FORT MILL","SC",29715,35.076421264,-80.911847575,450,"240 LOCH STONE STREET, FORT MILL, SC, 29715","Match","Exact","240 LOCH STONE ST, FORT MILL, SC, 29715",614789198,"R"
132451,"240 LONGMONT LANE","AUSTIN","TX",78737,30.201568637,-97.976085648,451,"240 LONGMONT LANE, AUSTIN, TX, 78737","Match","Exact","240 LONGMONT LN, AUSTIN, TX, 78737",614158313,"R"
132452,"240 LOTT AVE SUITE 6E","BROOKLYN","NY",11212,40.658434109,-73.9043913529999,452,"240 LOTT AVE SUITE 6E, BROOKLYN, NY, 11212","Match","Exact","240 LOTT AVE, BROOKLYN, NY, 11212",59084807,"R"
132453,"240 MACDOUGAL STREET","BROOKLYN","NY",11233,40.6803016590001,-73.910682084,453,"240 MACDOUGAL STREET, BROOKLYN, NY, 11233","Match","Exact","240 MACDOUGAL ST, BROOKLYN, NY, 11233",59098135,"R"
132454,"240 MADISON ST NW","WASHINGTON","DC",20011,38.9587290590001,-77.015318328,454,"240 MADISON ST NW, WASHINGTON, DC, 20011","Match","Exact","240 MADISON ST NW, WASHINGTON, DC, 20011",76223718,"L"
132455,"240 MAGEE DR 300","TROY","MO",63379,38.9873730580001,-90.981211743,455,"240 MAGEE DR 300, TROY, MO, 63379","Match","Non_Exact","240 MAGEE ST, TROY, MO, 63379",44876503,"L"
132456,"240 MAIN ST APT 407","HACKENSACK","NJ",7601,40.8858642230001,-74.041839087,456,"240 MAIN ST APT 407, HACKENSACK, NJ, 7601","Match","Exact","240 MAIN ST, HACKENSACK, NJ, 07601",64386196,"R"
132457,"240 MAIN STREET - PO BOX 238","MCGREGOR","IA",52157,43.0239803090001,-91.176134097,457,"240 MAIN STREET - PO BOX 238, MCGREGOR, IA, 52157","Match","Non_Exact","240 MAIN ST, MC GREGOR, IA, 52157",641425970,"L"
132458,"240 MAKEE RD 1B","HONOLULU","HI",96815,21.272469303,-157.819804141,458,"240 MAKEE RD 1B, HONOLULU, HI, 96815","Match","Exact","240 MAKEE RD, HONOLULU, HI, 96815",203242222,"L"
132459,"240 MARION DR","BEDFORD","OH",44146,41.397419529,-81.529571983,459,"240 MARION DR, BEDFORD, OH, 44146","Match","Exact","240 MARION DR, BEDFORD, OH, 44146",61130262,"R"
132460,"240 MARY FREEMAN ROAD","NEWNAN","GA",30265,33.3618127440001,-84.712291143,460,"240 MARY FREEMAN ROAD, NEWNAN, GA, 30265","Match","Exact","240 MARY FREEMAN RD, NEWNAN, GA, 30265",642534836,"L"
132461,"240 MASTIC BEACH RD","MASTIC BEACH","NY",11951,40.7779634180001,-72.847534357,461,"240 MASTIC BEACH RD, MASTIC BEACH, NY, 11951","Match","Exact","240 MASTIC BEACH RD, MASTIC BEACH, NY, 11951",114020640,"R"
132462,"240 MASTIC BEACH ROAD","MASTIC BEACH","NY",11951,40.7779634180001,-72.847534357,462,"240 MASTIC BEACH ROAD, MASTIC BEACH, NY, 11951","Match","Exact","240 MASTIC BEACH RD, MASTIC BEACH, NY, 11951",114020640,"R"
132463,"240 MAYFIELD DRIVE STE 203","SMYRNA","TN",37167,35.9774423910001,-86.507887333,463,"240 MAYFIELD DRIVE STE 203, SMYRNA, TN, 37167","Match","Exact","240 MAYFIELD DR, SMYRNA, TN, 37167",650654888,"R"
132464,"240 MEDFORD STREET","CHARLESTOWN","MA",2129,42.380547425,-71.061035142,464,"240 MEDFORD STREET, CHARLESTOWN, MA, 2129","Match","Exact","240 MEDFORD ST, CHARLESTOWN, MA, 02129",85709101,"L"
132465,"240 MEETING HOUSE LN","SOUTHAMPTON","NY",11968,40.8858029960001,-72.3806731729999,465,"240 MEETING HOUSE LN, SOUTHAMPTON, NY, 11968","Match","Exact","240 MEETING HOUSE LN, SOUTHAMPTON, NY, 11968",114030184,"R"
132466,"240 MELOY DRIVE","COLUMBUS","GA",31903,32.4149390480001,-84.930030382,466,"240 MELOY DRIVE, COLUMBUS, GA, 31903","Match","Exact","240 MELOY DR, COLUMBUS, GA, 31903",98943316,"R"
132467,"240 MERCER STREET APT 213","NEW YORK","NY",10012,40.728044928,-73.995711983,467,"240 MERCER STREET APT 213, NEW YORK, NY, 10012","Match","Exact","240 MERCER ST, NEW YORK, NY, 10012",639431049,"R"
132468,"240 MILLRIDGE DRIVE","MOSCOW MILLS","MO",63362,38.9613872730001,-90.890977984,468,"240 MILLRIDGE DRIVE, MOSCOW MILLS, MO, 63362","Match","Exact","240 MILLRIDGE DR, MOSCOW MILLS, MO, 63362",649132384,"R"
132469,"240 MOHNS HILL RD","REINHOLDS","PA",17569,40.2536851200001,-76.0755902769999,469,"240 MOHNS HILL RD, REINHOLDS, PA, 17569","Match","Exact","240 MOHNS HILL RD, REINHOLDS, PA, 17569",179777627,"L"
132470,"240 MONROE DRIVE APT 678","MOUNTAIN VIEW","CA",94040,37.410281749,-122.114213464,470,"240 MONROE DRIVE APT 678, MOUNTAIN VIEW, CA, 94040","Match","Exact","240 MONROE DR, MOUNTAIN VIEW, CA, 94040",618162088,"R"
132471,"240 MOUNT ZION ROAD","GRANITEVILLE","SC",29829,33.629790331,-81.864387501,471,"240 MOUNT ZION ROAD, GRANITEVILLE, SC, 29829","Match","Exact","240 MOUNT ZION RD, GRANITEVILLE, SC, 29829",64975817,"R"
132472,"240 MURRAY HILL","HAYESVILLE","NC",28904,35.0035224600001,-83.8293012779999,472,"240 MURRAY HILL, HAYESVILLE, NC, 28904","Match","Exact","240 MURRAY HILL, HAYESVILLE, NC, 28904",608044260,"R"
132473,"240 N 1ST STREET","CHOWCHILLA","CA",93610,37.1245951000001,-120.260468286,473,"240 N 1ST STREET, CHOWCHILLA, CA, 93610","Match","Exact","240 N 1ST ST, CHOWCHILLA, CA, 93610",102344029,"R"
132474,"240 N BROADWAY AVE","BARTOW","FL",33830,27.873932272,-81.8431907089999,474,"240 N BROADWAY AVE, BARTOW, FL, 33830","Match","Non_Exact","240 S BROADWAY AVE, BARTOW, FL, 33830",104820715,"R"
132475,"240 N CERRITOS AVENUE","AZUSA","CA",91702,34.124673779,-117.89934096,475,"240 N CERRITOS AVENUE, AZUSA, CA, 91702","Match","Exact","240 N CERRITOS AVE, AZUSA, CA, 91702",142779731,"R"
132476,"240 N CREEK BLVD UNIT 49931","GREENWOOD","SC",29649,34.2143493900001,-82.182423958,476,"240 N CREEK BLVD UNIT 49931, GREENWOOD, SC, 29649","Match","Non_Exact","240 N CREEK BLVD, GREENWOOD, SC, 29649",624147855,"R"
132477,"240 N EDGEMOOR","WICHITA","KS",67208,37.6891211880001,-97.2713582219999,477,"240 N EDGEMOOR, WICHITA, KS, 67208","Match","Non_Exact","240 N EDGEMOOR ST, WICHITA, KS, 67208",115639686,"R"
132478,"240 N HEREFORD LANE","MADISON","IN",47250,38.741853652,-85.487453355,478,"240 N HEREFORD LANE, MADISON, IN, 47250","Match","Exact","240 N HEREFORD LN, MADISON, IN, 47250",31396839,"R"
132479,"240 N MOSSY BRAKE RD","KARNAACK","TX",75661,32.719400782,-94.1222861749999,479,"240 N MOSSY BRAKE RD, KARNAACK, TX, 75661","Match","Non_Exact","240 N MOSSY BRAKE RD, KARNACK, TX, 75661",141179716,"R"
132480,"240 N VIRGIL AVE UNIT 12B","LOS ANGELES","CA",90004,NA,NA,480,"240 N VIRGIL AVE UNIT 12B, LOS ANGELES, CA, 90004","Tie",NA,NA,NA,NA
132481,"240 N WALNUT ST","BOYERTOWN","PA",19512,40.3376438490001,-75.635201893,481,"240 N WALNUT ST, BOYERTOWN, PA, 19512","Match","Exact","240 N WALNUT ST, BOYERTOWN, PA, 19512",80445983,"R"
132482,"240 N WASHINGTON BLVD SUITE 600","SARASOTA","FL",34236,27.3382699470001,-82.530973022,482,"240 N WASHINGTON BLVD SUITE 600, SARASOTA, FL, 34236","Match","Non_Exact","240 N WASHINGTON BLVD, SARASOTA, FL, 34236",16418258,"R"
132483,"240 NAGLE AVE  SUITE 4D","NEW YORK","NY",10034,40.8629125030001,-73.921172874,483,"240 NAGLE AVE  SUITE 4D, NEW YORK, NY, 10034","Match","Exact","240 NAGLE AVE, NEW YORK, NY, 10034",611393059,"L"
132484,"240 NAHMA","CLAWSON","MI",48017,42.530893221,-83.153776519,484,"240 NAHMA, CLAWSON, MI, 48017","Match","Non_Exact","240 NAHMA AVE, CLAWSON, MI, 48017",69738286,"R"
132485,"240 NE 118 ST","MIAMI","FL",33161,25.883264819,-80.1922634269999,485,"240 NE 118 ST, MIAMI, FL, 33161","Match","Exact","240 NE 118TH ST, MIAMI, FL, 33161",116290048,"R"
132486,"240 NE 169TH STREET","NORTH MIAMI BEACH","FL",33162,25.9305042120001,-80.195566422,486,"240 NE 169TH STREET, NORTH MIAMI BEACH, FL, 33162","Match","Exact","240 NE 169TH ST, N MIAMI BEACH, FL, 33162",116031087,"R"
132487,"240 NORTH 12TH AVENUE STE 109 182","HANFORD","CA",93230,NA,NA,487,"240 NORTH 12TH AVENUE STE 109 182, HANFORD, CA, 93230","No_Match",NA,NA,NA,NA
132488,"240 NORTH 6TH STREET PO BOX 63","BROWNVILLE","NE",68321,40.3990344630001,-95.6631746309999,488,"240 NORTH 6TH STREET PO BOX 63, BROWNVILLE, NE, 68321","Match","Exact","240 N 6TH ST, BROWNVILLE, NE, 68321",32463392,"R"
132489,"240 NORTH BROADWAY STE 308","PORTLAND","OR",97227,45.5349448100001,-122.668673967,489,"240 NORTH BROADWAY STE 308, PORTLAND, OR, 97227","Match","Non_Exact","240 N BROADWAY ST, PORTLAND, OR, 97227",157504462,"L"
132490,"240 NORTH DALE STREET","ST. PAUL","MN",55102,44.9478831910001,-93.126291813,490,"240 NORTH DALE STREET, ST. PAUL, MN, 55102","Match","Exact","240 N DALE ST, SAINT PAUL, MN, 55102",97647509,"R"
132491,"240 NORTH FIG TREE LANE","PLANTATION","FL",33317,26.123998774,-80.2275302629999,491,"240 NORTH FIG TREE LANE, PLANTATION, FL, 33317","Match","Exact","240 N FIG TREE LN, PLANTATION, FL, 33317",114708406,"R"
132492,"240 NORTH HIGHLAND AVE UNIT 3232","ATLANTA","GA",30307,33.7622474730001,-84.359334631,492,"240 NORTH HIGHLAND AVE UNIT 3232, ATLANTA, GA, 30307","Match","Non_Exact","240 N HIGHLAND AVE NE, ATLANTA, GA, 30307",618353986,"L"
132493,"240 NORTH THIRD STREET SUITE 403","HARRISBURG","PA",17101,40.262612984,-76.883534536,493,"240 NORTH THIRD STREET SUITE 403, HARRISBURG, PA, 17101","Match","Exact","240 N 3RD ST, HARRISBURG, PA, 17101",70817605,"L"
132494,"240 NORTH WALNUT STREET","BOYERTOWN","PA",19512,40.337641064,-75.635204707,494,"240 NORTH WALNUT STREET, BOYERTOWN, PA, 19512","Match","Exact","240 N WALNUT ST, BOYERTOWN, PA, 19512",80445983,"R"
132495,"240 NW 76TH DR STE D","GAINESVILLE","FL",32607,29.655117611,-82.4243572999999,495,"240 NW 76TH DR STE D, GAINESVILLE, FL, 32607","Match","Non_Exact","240 NW 76 DR, GAINESVILLE, FL, 32607",6879060,"R"
132496,"240 OAK HILL DRIVE","GREEN BAY","WI",54301,44.472683584,-88.026138024,496,"240 OAK HILL DRIVE, GREEN BAY, WI, 54301","Match","Exact","240 OAK HILL DR, GREEN BAY, WI, 54301",148101720,"R"
132497,"240 OARLOCK CIRCLE","EAST SYRACUSE","NY",13057,43.0485581670001,-76.012516895,497,"240 OARLOCK CIRCLE, EAST SYRACUSE, NY, 13057","Match","Exact","240 OARLOCK CIR, EAST SYRACUSE, NY, 13057",46620920,"R"
132498,"240 OLD LOWESVILLE RD","STANLEY","NC",28164,35.394632535,-81.038121186,498,"240 OLD LOWESVILLE RD, STANLEY, NC, 28164","Match","Exact","240 OLD LOWESVILLE RD, STANLEY, NC, 28164",70391963,"R"
132499,"240 OXMOOR CIRCLE SUITE 111","BIRMINGHAM","AL",35209,33.4538103030001,-86.839663214,499,"240 OXMOOR CIRCLE SUITE 111, BIRMINGHAM, AL, 35209","Match","Exact","240 OXMOOR CIR, BIRMINGHAM, AL, 35209",81741360,"L"
132500,"240 PANIO ST","HONOLULU","HI",96821,21.284761256,-157.732881045,500,"240 PANIO ST, HONOLULU, HI, 96821","Match","Exact","240 PANIO ST, HONOLULU, HI, 96821",203243909,"L"
