"ID","Address","City","State","Zip","lat","long","id","input_address","match_indicator","match_type","matched_address","tiger_line_id","tiger_side"
285001,"7458 CAMBERWOOD DRIVE","INDIANAPOLIS","IN",46268,39.889273847,-86.2262144319999,1,"7458 CAMBERWOOD DRIVE, INDIANAPOLIS, IN, 46268","Match","Exact","7458 CAMBERWOOD DR, INDIANAPOLIS, IN, 46268",108025320,"L"
285002,"7458 HWY 126","DODSON","LA",71422,32.0883788020001,-92.5913818399999,2,"7458 HWY 126, DODSON, LA, 71422","Match","Non_Exact","7458 STATE RTE 126, DODSON, LA, 71422",119016200,"R"
285003,"7458 MORIAH AVENUE","BROOKSVILLE","FL",34613,28.53947795,-82.492220144,3,"7458 MORIAH AVENUE, BROOKSVILLE, FL, 34613","Match","Exact","7458 MORIAH AVE, BROOKSVILLE, FL, 34613",85426244,"L"
285004,"7458 RADIANT CIR","ORLANDO","FL",32810,28.6245801160001,-81.464823187,4,"7458 RADIANT CIR, ORLANDO, FL, 32810","Match","Exact","7458 RADIANT CIR, ORLANDO, FL, 32810",94311343,"L"
285005,"7458 S COLES","CHICAGO","IL",60649,NA,NA,5,"7458 S COLES, CHICAGO, IL, 60649","No_Match",NA,NA,NA,NA
285006,"7458 SUGAR BEND DR","ORLANDO","FL",32819,28.4570703790001,-81.493278588,6,"7458 SUGAR BEND DR, ORLANDO, FL, 32819","Match","Exact","7458 SUGAR BEND DR, ORLANDO, FL, 32819",627298605,"R"
285007,"74584","BATON","LA",70874,NA,NA,7,"74584, BATON, LA, 70874","No_Match",NA,NA,NA,NA
285008,"7459 BELLEFOUNTAINE","HUBER HEIGHTS","OH",45424,39.8590941410001,-84.0875051799999,8,"7459 BELLEFOUNTAINE, HUBER HEIGHTS, OH, 45424","Match","Non_Exact","7459 BELLEFONTAINE RD, HUBER HEIGHTS, OH, 45424",143587076,"L"
285009,"7459 WINTHROP ST","DETROIT","MI",48228,42.346605593,-83.197620851,9,"7459 WINTHROP ST, DETROIT, MI, 48228","Match","Exact","7459 WINTHROP ST, DETROIT, MI, 48228",95442048,"L"
285010,"74591 NEER CITY RD","RAINIER","OR",97048,46.075921549,-122.928925492,10,"74591 NEER CITY RD, RAINIER, OR, 97048","Match","Exact","74591 NEER CITY RD, RAINIER, OR, 97048",158087876,"L"
285011,"746  8TH AVENUE","LONGMONT","CO",80501,40.1728955630001,-105.105255743,11,"746  8TH AVENUE, LONGMONT, CO, 80501","Match","Exact","746 8TH AVE, LONGMONT, CO, 80501",220753633,"R"
285012,"746 4TH AVENUE","SAN FRANCISCO","CA",94118,37.774723479,-122.461669918,12,"746 4TH AVENUE, SAN FRANCISCO, CA, 94118","Match","Exact","746 4TH AVE, SAN FRANCISCO, CA, 94118",192281931,"L"
285013,"746 CENTRE AVENUE","READING","PA",19601,40.347008648,-75.930582584,13,"746 CENTRE AVENUE, READING, PA, 19601","Match","Exact","746 CENTRE AVE, READING, PA, 19601",635681373,"L"
285014,"746 CLIFFSIDE CIRCLE","AKRON","OH",44313,41.12788521,-81.564967854,14,"746 CLIFFSIDE CIRCLE, AKRON, OH, 44313","Match","Exact","746 CLIFFSIDE CIR, AKRON, OH, 44313",61337551,"L"
285015,"746 CR 3364","KEMPNER","TX",76539,31.1356273970001,-98.001607684,15,"746 CR 3364, KEMPNER, TX, 76539","Match","Exact","746 CO RD 3364, KEMPNER, TX, 76539",607440877,"L"
285016,"746 E PASSYUNK AVE D","PHILADELPHIA","PA",19147,39.9393258280001,-75.15199962,16,"746 E PASSYUNK AVE D, PHILADELPHIA, PA, 19147","Match","Non_Exact","746 E PASSYUNK AVE, PHILADELPHIA, PA, 19147",131448152,"R"
285017,"746 E SUNSET VIEW","GRANTSVILLE","UT",84029,40.579853783,-112.42858772,17,"746 E SUNSET VIEW, GRANTSVILLE, UT, 84029","Match","Non_Exact","746 E SUNSET VIEW RD, GRANTSVILLE, UT, 84029",651109815,"R"
285018,"746 HAMMOND ST","COPPELL","TX",75019,32.9527254600001,-97.0082108349999,18,"746 HAMMOND ST, COPPELL, TX, 75019","Match","Exact","746 HAMMOND ST, COPPELL, TX, 75019",642781367,"R"
285019,"746 HIGHWAY 232","HARNED","KY",40144,37.7183053640001,-86.407266211,19,"746 HIGHWAY 232, HARNED, KY, 40144","Match","Non_Exact","746 STATE HWY 232, HARNED, KY, 40144",8018849,"L"
285020,"746 HOT SPRING VALLEY","BUDA","TX",78610,30.0524026620001,-97.843101645,20,"746 HOT SPRING VALLEY, BUDA, TX, 78610","Match","Exact","746 HOT SPRING VALLEY, BUDA, TX, 78610",641082326,"R"
285021,"746 LAKE JOY RD","WARNER ROBINS","GA",31088,32.5621781420001,-83.6909769489999,21,"746 LAKE JOY RD, WARNER ROBINS, GA, 31088","Match","Exact","746 LAKE JOY RD, WARNER ROBINS, GA, 31088",217649536,"R"
285022,"746 LAVERNA DR","DAYTONA BEACH","FL",32117,29.235873542,-81.043672925,22,"746 LAVERNA DR, DAYTONA BEACH, FL, 32117","Match","Exact","746 LAVERNA DR, DAYTONA BEACH, FL, 32117",94585298,"L"
285023,"746 MSC / 146 LIBRARY DRIVE","ROCHESTER","MI",48309,NA,NA,23,"746 MSC / 146 LIBRARY DRIVE, ROCHESTER, MI, 48309","No_Match",NA,NA,NA,NA
285024,"746 N CUYLER","OAK PARK","IL",60302,41.89904605,-87.783391882,24,"746 N CUYLER, OAK PARK, IL, 60302","Match","Non_Exact","746 N CUYLER AVE, OAK PARK, IL, 60302",111752955,"R"
285025,"746 N SANTA PAULA CT","BOISE","ID",83712,43.615704878,-116.178426558,25,"746 N SANTA PAULA CT, BOISE, ID, 83712","Match","Non_Exact","746 N SANTA PAULA RD, BOISE, ID, 83712",117933836,"R"
285026,"746 NE 90TH STREET UNIT 604","MIAMI","FL",33138,25.8760223830001,-80.126271308,26,"746 NE 90TH STREET UNIT 604, MIAMI, FL, 33138","Match","Non_Exact","746 90TH ST, MIAMI, FL, 33154",116038388,"L"
285027,"746 NEW HOLLAND  AVE","LANCASTER","PA",17602,40.050304641,-76.291573525,27,"746 NEW HOLLAND  AVE, LANCASTER, PA, 17602","Match","Exact","746 NEW HOLLAND AVE, LANCASTER, PA, 17602",179663073,"R"
285028,"746 NORTH VICTORIA DRIVE","PALATINE","IL",60074,42.1227819860001,-88.006207928,28,"746 NORTH VICTORIA DRIVE, PALATINE, IL, 60074","Match","Exact","746 N VICTORIA DR, PALATINE, IL, 60074",112360263,"L"
285029,"746 OAKLAND AVE","IOWA CITY","IA",52240,41.653027883,-91.5164826449999,29,"746 OAKLAND AVE, IOWA CITY, IA, 52240","Match","Exact","746 OAKLAND AVE, IOWA CITY, IA, 52240",84496022,"L"
285030,"746 PUTMAN  AVE  APT 1","BROOKLYN","NY",11221,40.6861350400001,-73.931749743,30,"746 PUTMAN  AVE  APT 1, BROOKLYN, NY, 11221","Match","Non_Exact","746 PUTNAM AVE, BROOKLYN, NY, 11221",59082744,"R"
285031,"746 S ARROWHEAD AVE","RIALTO","CA",92376,34.0877343920001,-117.386916601,31,"746 S ARROWHEAD AVE, RIALTO, CA, 92376","Match","Exact","746 S ARROWHEAD AVE, RIALTO, CA, 92376",144646404,"L"
285032,"746 ST NICHOLAS AVE APT 56","NEW YORK","NY",10031,40.8255116060001,-73.943672942,32,"746 ST NICHOLAS AVE APT 56, NEW YORK, NY, 10031","Match","Exact","746 ST NICHOLAS AVE, NEW YORK, NY, 10031",650075308,"R"
285033,"746 SUNSET DR","DESOTO","TX",75115,32.578193464,-96.8441707549999,33,"746 SUNSET DR, DESOTO, TX, 75115","Match","Exact","746 SUNSET DR, DESOTO, TX, 75115",648243790,"L"
285034,"746 TOWN N COUNTRY DRIVE","WILKESBORO","NC",28697,36.0991647930001,-81.152773624,34,"746 TOWN N COUNTRY DRIVE, WILKESBORO, NC, 28697","Match","Exact","746 TOWN N COUNTRY DR, WILKESBORO, NC, 28697",46136453,"L"
285035,"746 VININGS ESTATES DRIVE","MABLETON","GA",30126,33.8336410210001,-84.532768676,35,"746 VININGS ESTATES DRIVE, MABLETON, GA, 30126","Match","Non_Exact","746 VININGS ESTATES DR SE, MABLETON, GA, 30126",17219623,"R"
285036,"746 W 7TH AVE","EMPORIA","KS",66801,38.406861749,-96.190615961,36,"746 W 7TH AVE, EMPORIA, KS, 66801","Match","Exact","746 W 7TH AVE, EMPORIA, KS, 66801",10958110,"R"
285037,"746 W ALAMEDA STREET","MANTECA","CA",95336,37.8047118580001,-121.227240911,37,"746 W ALAMEDA STREET, MANTECA, CA, 95336","Match","Exact","746 ALAMEDA ST, MANTECA, CA, 95336",133884539,"L"
285038,"746 WEST ATHENS BLVD","LOS ANGELES","CA",90044,33.922391389,-118.287958786,38,"746 WEST ATHENS BLVD, LOS ANGELES, CA, 90044","Match","Non_Exact","746 ATHENS BLVD, LOS ANGELES, CA, 90044",141661726,"L"
285039,"746 WEST COBBS CREEK PKWY","YEADON","PA",19050,39.9347027740001,-75.2455063359999,39,"746 WEST COBBS CREEK PKWY, YEADON, PA, 19050","Match","Exact","746 W COBBS CREEK PKWY, YEADON, PA, 19050",605239886,"R"
285040,"746 WHITE ROAD","WHITE","PA",15490,40.071715586,-79.4387523039999,40,"746 WHITE ROAD, WHITE, PA, 15490","Match","Exact","746 WHITE RD, WHITE, PA, 15490",51154242,"R"
285041,"746 WILLOW LANE","CHINO VALLEY","AZ",86323,34.7336382440001,-112.433077062,41,"746 WILLOW LANE, CHINO VALLEY, AZ, 86323","Match","Exact","746 WILLOW LN, CHINO VALLEY, AZ, 86323",159524631,"R"
285042,"746","BELPRE","OH",45714,NA,NA,42,"746, BELPRE, OH, 45714","No_Match",NA,NA,NA,NA
285043,"746","SOMERSET","OH",43783,NA,NA,43,"746, SOMERSET, OH, 43783","No_Match",NA,NA,NA,NA
285044,"7460 ACADEMY DRIVE","MECHANICSVILLE","VA",23116,NA,NA,44,"7460 ACADEMY DRIVE, MECHANICSVILLE, VA, 23116","No_Match",NA,NA,NA,NA
285045,"7460 CHAFFINCH STREET","NORTH LAS VEGAS","NV",89084,36.297140561,-115.171486481,45,"7460 CHAFFINCH STREET, NORTH LAS VEGAS, NV, 89084","Match","Exact","7460 CHAFFINCH ST, N LAS VEGAS, NV, 89084",632222661,"R"
285046,"7460 NW 52 ST","MIAMI","FL",33166,25.8207382090001,-80.318498468,46,"7460 NW 52 ST, MIAMI, FL, 33166","Match","Exact","7460 NW 52ND ST, MIAMI, FL, 33166",115957551,"L"
285047,"7460 PORTER ROAD","GRAND BLANC","MI",48439,42.9188237760001,-83.66640746,47,"7460 PORTER ROAD, GRAND BLANC, MI, 48439","Match","Exact","7460 PORTER RD, GRAND BLANC, MI, 48439",617761204,"R"
285048,"7460 RATTLESNAKE GULCH","MISSOULA","MT",59802,46.933949785,-113.954468474,48,"7460 RATTLESNAKE GULCH, MISSOULA, MT, 59802","Match","Exact","7460 RATTLESNAKE GULCH, MISSOULA, MT, 59802",205263486,"L"
285049,"7460 S WESTMORELAND RD STE 105","DALLAS","TX",75237,32.6561911520001,-96.884729036,49,"7460 S WESTMORELAND RD STE 105, DALLAS, TX, 75237","Match","Non_Exact","7460 S WESTMORELAND RD, DALLAS, TX, 75237",102943704,"L"
285050,"7461 BIG BEAVER BLVD","WAMPUMP","PA",16157,40.8379706100001,-80.3285709039999,50,"7461 BIG BEAVER BLVD, WAMPUMP, PA, 16157","Match","Non_Exact","7461 BIG BEAVER BLVD, WAMPUM, PA, 16157",52580853,"R"
285051,"7461 E ARCHER PLACE","DENVER","CO",80230,39.7155521560001,-104.901101548,51,"7461 E ARCHER PLACE, DENVER, CO, 80230","Match","Exact","7461 E ARCHER PL, DENVER, CO, 80230",177629066,"L"
285052,"7461 S 2300 E","COTTONWOOD HEIGHTS","UT",84121,40.6155828190001,-111.824793345,52,"7461 S 2300 E, COTTONWOOD HEIGHTS, UT, 84121","Match","Exact","7461 S 2300 E, COTTONWOOD HEIGHTS, UT, 84121",176088689,"R"
285053,"7461 S DELAWARE ST","LITTLETON","CO",80120,39.584553467,-104.992852784,53,"7461 S DELAWARE ST, LITTLETON, CO, 80120","Match","Exact","7461 S DELAWARE ST, LITTLETON, CO, 80120",177336962,"R"
285054,"7461 STATE ROAD 237","CANNELTON","IN",47520,NA,NA,54,"7461 STATE ROAD 237, CANNELTON, IN, 47520","No_Match",NA,NA,NA,NA
285055,"7461 W COUNTRY CLUB DR N 101","SARASOTA","FL",34243,27.4074377000001,-82.496746565,55,"7461 W COUNTRY CLUB DR N 101, SARASOTA, FL, 34243","Match","Non_Exact","7461 W COUNTRY CLUB DR N, SARASOTA, FL, 34243",16275476,"L"
285056,"74617 MORNING DRIVE","TWENTYNINE PALMS","CA",92277,34.1124457760001,-116.034151028,56,"74617 MORNING DRIVE, TWENTYNINE PALMS, CA, 92277","Match","Exact","74617 MORNING DR, TWENTYNINE PALMS, CA, 92277",144633350,"L"
285057,"7462 EAST 1415TH AVENUE","ROBINSON","IL",62454,39.0583224420001,-87.807190965,57,"7462 EAST 1415TH AVENUE, ROBINSON, IL, 62454","Match","Exact","7462 E 1415TH AVE, ROBINSON, IL, 62454",26967365,"L"
285058,"7462 ENERGY ROAD","EWING","KY",41039,38.359133194,-83.836455819,58,"7462 ENERGY ROAD, EWING, KY, 41039","Match","Exact","7462 ENERGY RD, EWING, KY, 41039",54407630,"L"
285059,"7462 PERMAR STREET","SACRAMENTO","CA",95822,38.486730745,-121.488584041,59,"7462 PERMAR STREET, SACRAMENTO, CA, 95822","Match","Exact","7462 PERMAR ST, SACRAMENTO, CA, 95822",133350792,"R"
285060,"7462 RIVERSIDE RD E","SUMNER","WA",98390,47.1897248700001,-122.219089124,60,"7462 RIVERSIDE RD E, SUMNER, WA, 98390","Match","Non_Exact","7462 RIVERSIDE DR E, SUMNER, WA, 98390",184717136,"R"
285061,"7463 LOCH NESS DRIVE","MIAMI LAKES","FL",33014,25.9234215650001,-80.3214093399999,61,"7463 LOCH NESS DRIVE, MIAMI LAKES, FL, 33014","Match","Exact","7463 LOCH NESS DR, MIAMI LAKES, FL, 33014",116022765,"R"
285062,"74630 MORNING DRIVE","TWENTYNINE PALMS","CA",92277,34.11245996,-116.033946753,62,"74630 MORNING DRIVE, TWENTYNINE PALMS, CA, 92277","Match","Exact","74630 MORNING DR, TWENTYNINE PALMS, CA, 92277",144633350,"R"
285063,"7464 NORTH DAMEN AVE APT 1","CHICAGO","IL",60645,42.017577536,-87.6804703079999,63,"7464 NORTH DAMEN AVE APT 1, CHICAGO, IL, 60645","Match","Exact","7464 N DAMEN AVE, CHICAGO, IL, 60645",605247191,"L"
285064,"7464 PALOMINO DR","IOWA","LA",70647,30.2037992250001,-93.0816682189999,64,"7464 PALOMINO DR, IOWA, LA, 70647","Match","Exact","7464 PALOMINO DR, IOWA, LA, 70647",600639143,"R"
285065,"7464 VICTORIA FALLS AVE","MAINEVILLE","OH",45039,39.32961225,-84.280177647,65,"7464 VICTORIA FALLS AVE, MAINEVILLE, OH, 45039","Match","Exact","7464 VICTORIA FALLS AVE, MAINEVILLE, OH, 45039",619045200,"R"
285066,"7464 WATERWOOD DRIVE","GREENWOOD","LA",71033,32.4313763850001,-93.935306335,66,"7464 WATERWOOD DRIVE, GREENWOOD, LA, 71033","Match","Exact","7464 WATERWOOD DR, GREENWOOD, LA, 71033",57460087,"R"
285067,"7465 BORDEAUX CIRCLE SOUTH","MEMPHIS","TN",38125,34.995093405,-89.813977474,67,"7465 BORDEAUX CIRCLE SOUTH, MEMPHIS, TN, 38125","Match","Exact","7465 BORDEAUX CIR S, MEMPHIS, TN, 38125",72952991,"R"
285068,"7465 COUNTY ROAD HH","ARPIN","WI",54410,NA,NA,68,"7465 COUNTY ROAD HH, ARPIN, WI, 54410","No_Match",NA,NA,NA,NA
285069,"7465 DAVIDSON PWKY SOUTH","STOCKBRIDGE","GA",30281,NA,NA,69,"7465 DAVIDSON PWKY SOUTH, STOCKBRIDGE, GA, 30281","No_Match",NA,NA,NA,NA
285070,"7465 KAHEKILI HIGHWAY","WAILUKU","HI",96793,20.92539293,-156.504957241,70,"7465 KAHEKILI HIGHWAY, WAILUKU, HI, 96793","Match","Exact","7465 KAHEKILI HWY, WAILUKU, HI, 96793",619682746,"R"
285071,"7465 LAKE MICALA","CORPUS CHRISTI","TX",78413,27.679679622,-97.420138438,71,"7465 LAKE MICALA, CORPUS CHRISTI, TX, 78413","Match","Non_Exact","7465 LAKE MICALA DR, CORPUS CHRISTI, TX, 78413",651901115,"R"
285072,"7465 MISSION GORGE ROAD SUITE 158","SAN DIEGO","CA",92120,32.8063194910001,-117.0799669,72,"7465 MISSION GORGE ROAD SUITE 158, SAN DIEGO, CA, 92120","Match","Exact","7465 MISSION GORGE RD, SAN DIEGO, CA, 92120",195741021,"R"
285073,"7465 OLD HICKORY DR SUITE C","MECHANICSVILLE","VA",23111,37.6128298100001,-77.34286717,73,"7465 OLD HICKORY DR SUITE C, MECHANICSVILLE, VA, 23111","Match","Non_Exact","7465 OLD HICKORY DR, MECHANICSVILLE, VA, 23111",84979983,"L"
285074,"7465 PITT STREET","GRIMESLAND","NC",27837,35.565167129,-77.1956958229999,74,"7465 PITT STREET, GRIMESLAND, NC, 27837","Match","Exact","7465 PITT ST, GRIMESLAND, NC, 27837",80018267,"R"
285075,"7465 S SR 3","SOUTH MILFORD","IN",46786,NA,NA,75,"7465 S SR 3, SOUTH MILFORD, IN, 46786","No_Match",NA,NA,NA,NA
285076,"7465 STONEY CLERK CLOSE","SANDY SPRINGS","GA",30350,NA,NA,76,"7465 STONEY CLERK CLOSE, SANDY SPRINGS, GA, 30350","No_Match",NA,NA,NA,NA
285077,"7465 SW CANYON DRIVE","PORTLAND","OR",97225,45.4983545700001,-122.753807078,77,"7465 SW CANYON DRIVE, PORTLAND, OR, 97225","Match","Exact","7465 SW CANYON DR, PORTLAND, OR, 97225",158203808,"R"
285078,"7465 W LAKE MEAD BLVD STE 115","LAS VEGAS","NV",89128,36.1961054720001,-115.256205138,78,"7465 W LAKE MEAD BLVD STE 115, LAS VEGAS, NV, 89128","Match","Non_Exact","7465 W LAKE MEAD BLVD, LAS VEGAS, NV, 89128",201905330,"L"
285079,"7465 WHISPERING FARM TRAIL","CINCINNATI","OH",45002,NA,NA,79,"7465 WHISPERING FARM TRAIL, CINCINNATI, OH, 45002","No_Match",NA,NA,NA,NA
285080,"7466 GRIGGS WAY","SACRAMENTO","CA",95831,38.486565409,-121.546038502,80,"7466 GRIGGS WAY, SACRAMENTO, CA, 95831","Match","Exact","7466 GRIGGS WAY, SACRAMENTO, CA, 95831",133377232,"R"
285081,"7466 SW 1014TH AVE","WILBURTON","OK",74578,34.804554669,-95.3451350239999,81,"7466 SW 1014TH AVE, WILBURTON, OK, 74578","Match","Exact","7466 SW 1014TH AVE, WILBURTON, OK, 74578",80589202,"R"
285082,"7466 SW 150TH","AUGUSTA","KS",67010,37.606758056,-96.979639516,82,"7466 SW 150TH, AUGUSTA, KS, 67010","Match","Non_Exact","7466 SW 150TH ST, AUGUSTA, KS, 67010",32268664,"R"
285083,"7466 VALLE VISTA DR","RANCHO CUCAMONGA","CA",91730,34.11789414,-117.61880493,83,"7466 VALLE VISTA DR, RANCHO CUCAMONGA, CA, 91730","Match","Non_Exact","7466 VALLE VISTA CT, RANCHO CUCAMONGA, CA, 91730",649789214,"R"
285084,"7466 WEST MAIN STREET","WEBSTER","WI",54893,NA,NA,84,"7466 WEST MAIN STREET, WEBSTER, WI, 54893","No_Match",NA,NA,NA,NA
285085,"7467 B TOOMA STREET","SAN DIEGO","CA",92139,32.680163544,-117.034240296,85,"7467 B TOOMA STREET, SAN DIEGO, CA, 92139","Match","Exact","7467 TOOMA ST, SAN DIEGO, CA, 92139",195679266,"R"
285086,"7467 SEDGEBROOK DR W","STANLEY","NC",28164,35.438285824,-80.997069325,86,"7467 SEDGEBROOK DR W, STANLEY, NC, 28164","Match","Exact","7467 SEDGEBROOK DR W, STANLEY, NC, 28164",640432218,"L"
285087,"7467 WATERS PLACE","WARRENTON","VA",20187,38.72519314,-77.767359488,87,"7467 WATERS PLACE, WARRENTON, VA, 20187","Match","Exact","7467 WATERS PL, WARRENTON, VA, 20187",146259647,"L"
285088,"7469 CHAGRIN PL","MAINEVILLE","OH",45039,NA,NA,88,"7469 CHAGRIN PL, MAINEVILLE, OH, 45039","No_Match",NA,NA,NA,NA
285089,"7469 DANVILLE ROAD","HARTSELLE","AL",35640,34.461101829,-87.071593488,89,"7469 DANVILLE ROAD, HARTSELLE, AL, 35640","Match","Exact","7469 DANVILLE RD, HARTSELLE, AL, 35640",97143962,"L"
285090,"747 BABBS MILL RD","HAMPTON","GA",30228,33.4465935000001,-84.275288173,90,"747 BABBS MILL RD, HAMPTON, GA, 30228","Match","Exact","747 BABBS MILL RD, HAMPTON, GA, 30228",210411558,"L"
285091,"747 BENNINGTON STREET","EAST BOSTON","MA",2128,42.3848463140001,-71.0120163879999,91,"747 BENNINGTON STREET, EAST BOSTON, MA, 2128","Match","Exact","747 BENNINGTON ST, EAST BOSTON, MA, 02128",640245129,"R"
285092,"747 BIRCH ST","DENVER","CO",80220,39.7282815080001,-104.936019584,92,"747 BIRCH ST, DENVER, CO, 80220","Match","Exact","747 BIRCH ST, DENVER, CO, 80220",177338554,"L"
285093,"747 BRADDOCK ROAD","FARMINGTON","PA",15437,39.7960912560001,-79.5677959779999,93,"747 BRADDOCK ROAD, FARMINGTON, PA, 15437","Match","Exact","747 BRADDOCK RD, FARMINGTON, PA, 15437",635078829,"L"
285094,"747 CANAAN DRIVE E","MONROE","LA",71202,32.4075237160001,-92.0772586959999,94,"747 CANAAN DRIVE E, MONROE, LA, 71202","Match","Non_Exact","747 CANAAN DR, MONROE, LA, 71202",612383002,"L"
285095,"747 DEL RIEGO AVE","ENCINITAS","CA",92024,33.0625425160001,-117.287406576,95,"747 DEL RIEGO AVE, ENCINITAS, CA, 92024","Match","Exact","747 DEL RIEGO AVE, ENCINITAS, CA, 92024",195292616,"R"
285096,"747 E SAN ANTONIO AVE SUITE 103","EL PASO","TX",79901,31.759490768,-106.481759574,96,"747 E SAN ANTONIO AVE SUITE 103, EL PASO, TX, 79901","Match","Non_Exact","747 E SAN ANTONIO AVE, EL PASO, TX, 79901",189342075,"L"
285097,"747 HANAMI LANE NE APT 103","BAINBRIDGE ISLAND","WA",98110,NA,NA,97,"747 HANAMI LANE NE APT 103, BAINBRIDGE ISLAND, WA, 98110","No_Match",NA,NA,NA,NA
285098,"747 HERITAGE SPRINGS TRL","ROUND ROCK","TX",78664,30.508365209,-97.661050465,98,"747 HERITAGE SPRINGS TRL, ROUND ROCK, TX, 78664","Match","Exact","747 HERITAGE SPRINGS TRL, ROUND ROCK, TX, 78664",649563344,"R"
285099,"747 IRIS COURT","YORKTOWN HTS","NY",10598,41.3109988530001,-73.8080839849999,99,"747 IRIS COURT, YORKTOWN HTS, NY, 10598","Match","Exact","747 IRIS CT, YORKTOWN HEIGHTS, NY, 10598",139768156,"R"
285100,"747 JEFFERSON AVENUE","BROOKLYN","NY",11221,40.685798832,-73.928233169,100,"747 JEFFERSON AVENUE, BROOKLYN, NY, 11221","Match","Exact","747 JEFFERSON AVE, BROOKLYN, NY, 11221",59082762,"L"
285101,"747 MCCLUER ROAD","JACKSON","MS",39212,32.239475294,-90.2573179729999,101,"747 MCCLUER ROAD, JACKSON, MS, 39212","Match","Exact","747 MCCLUER RD, JACKSON, MS, 39212",649469316,"R"
285102,"747 MEADOWPASS ROAD","WALNUT","CA",91789,34.026240251,-117.866933837,102,"747 MEADOWPASS ROAD, WALNUT, CA, 91789","Match","Non_Exact","747 MEADOW PASS RD, WALNUT, CA, 91789",241249948,"R"
285103,"747 MILLER RUN","ATLANTA","GA",30349,33.657197147,-84.630757219,103,"747 MILLER RUN, ATLANTA, GA, 30349","Match","Exact","747 MILLER RUN, ATLANTA, GA, 30349",628067977,"L"
285104,"747 MORTON ST NW UNIT 1","WASHINGTON","DC",20010,38.9319877460001,-77.024293969,104,"747 MORTON ST NW UNIT 1, WASHINGTON, DC, 20010","Match","Exact","747 MORTON ST NW, WASHINGTON, DC, 20010",76224086,"R"
285105,"747 N 90TH ST","SEATTLE","WA",98103,47.694191276,-122.349187854,105,"747 N 90TH ST, SEATTLE, WA, 98103","Match","Exact","747 N 90TH ST, SEATTLE, WA, 98103",186578844,"R"
285106,"747 N ED WELLS RD","WAUCHULA","FL",33873,27.5689258080001,-81.703079692,106,"747 N ED WELLS RD, WAUCHULA, FL, 33873","Match","Exact","747 N ED WELLS RD, WAUCHULA, FL, 33873",16201892,"L"
285107,"747 N NURSERY RD STE 34","IRVING","TX",75061,32.820631995,-96.934271586,107,"747 N NURSERY RD STE 34, IRVING, TX, 75061","Match","Non_Exact","747 N NURSERY RD, IRVING, TX, 75061",102892223,"L"
285108,"747 NC HIGHWAY 461","AHOSKIE","NC",27910,36.3368590960001,-77.016212264,108,"747 NC HIGHWAY 461, AHOSKIE, NC, 27910","Match","Non_Exact","747 STATE HWY 461, AHOSKIE, NC, 27910",56779983,"R"
285109,"747 NORTH COUNTY CLUB ROAD","BREVARD","NC",28712,35.2189208030001,-82.7355799599999,109,"747 NORTH COUNTY CLUB ROAD, BREVARD, NC, 28712","Match","Non_Exact","747 N COUNTRY CLUB RD, BREVARD, NC, 28712",640374897,"R"
285110,"747 NORTH DEAN ROAD","AUBURN","AL",36830,32.6222202390001,-85.4615069819999,110,"747 NORTH DEAN ROAD, AUBURN, AL, 36830","Match","Exact","747 N DEAN RD, AUBURN, AL, 36830",646819913,"L"
285111,"747 OAK ST NW","NEW PHILADELPHIA","OH",44663,40.500080225,-81.447010566,111,"747 OAK ST NW, NEW PHILADELPHIA, OH, 44663","Match","Exact","747 OAK ST NW, NEW PHILADELPHIA, OH, 44663",612289991,"R"
285112,"747 OREGON ST","BERWICK","LA",70342,29.689598833,-91.221540297,112,"747 OREGON ST, BERWICK, LA, 70342","Match","Exact","747 OREGON ST, BERWICK, LA, 70342",85895374,"L"
285113,"747 PRINCETON AVE","LANSING","MI",48915,42.7421202840001,-84.565753612,113,"747 PRINCETON AVE, LANSING, MI, 48915","Match","Exact","747 PRINCETON AVE, LANSING, MI, 48915",17498223,"L"
285114,"747 RAILROAD","DESOTO","MO",63020,38.1791196830001,-90.5252043409999,114,"747 RAILROAD, DESOTO, MO, 63020","Match","Non_Exact","747 RAILROAD, DE SOTO, MO, 63020",607882668,"L"
285115,"747 RAY PALMER ROAD","CLEVELAND","GA",30528,34.520224049,-83.706483147,115,"747 RAY PALMER ROAD, CLEVELAND, GA, 30528","Match","Exact","747 RAY PALMER RD, CLEVELAND, GA, 30528",89033809,"R"
285116,"747 RICHMOND STREET","EL CERRITO","CA",94530,37.9085069490001,-122.301067934,116,"747 RICHMOND STREET, EL CERRITO, CA, 94530","Match","Exact","747 RICHMOND ST, EL CERRITO, CA, 94530",192043880,"L"
285117,"747 RIO VISTA CT","SUWANEE","GA",30024,34.073384472,-84.0906402049999,117,"747 RIO VISTA CT, SUWANEE, GA, 30024","Match","Exact","747 RIO VISTA CT, SUWANEE, GA, 30024",646780989,"R"
285118,"747 RIVERSIDE AVE APT A3","LYNDHURST","NJ",7071,40.8067862610001,-74.135688885,118,"747 RIVERSIDE AVE APT A3, LYNDHURST, NJ, 7071","Match","Exact","747 RIVERSIDE AVE, LYNDHURST, NJ, 07071",64399127,"R"
285119,"747 ROOSEVELT TRAIL","WINDHAM","ME",4062,43.832653641,-70.436908005,119,"747 ROOSEVELT TRAIL, WINDHAM, ME, 4062","Match","Exact","747 ROOSEVELT TRL, WINDHAM, ME, 04062",78020813,"R"
285120,"747 SHERIDAIN BLVD","LAKEWOOD","CO",80214,39.728129794,-105.053257416,120,"747 SHERIDAIN BLVD, LAKEWOOD, CO, 80214","Match","Non_Exact","747 SHERIDAN BLVD, LAKEWOOD, CO, 80214",635427207,"L"
285121,"747 SW FRONT STREET","MILLSAP","TX",76066,32.75298801,-97.999731122,121,"747 SW FRONT STREET, MILLSAP, TX, 76066","Match","Non_Exact","747 NE FRONT ST, MILLSAP, TX, 76066",103601710,"L"
285122,"747 TUSCARORA AVE","ST PAUL","MN",55102,44.9232472080001,-93.131280401,122,"747 TUSCARORA AVE, ST PAUL, MN, 55102","Match","Exact","747 TUSCARORA AVE, SAINT PAUL, MN, 55102",97647255,"R"
285123,"747 VALLEY STREET 2S","MAPLEWOOD","NJ",7040,40.7224713910001,-74.280454081,123,"747 VALLEY STREET 2S, MAPLEWOOD, NJ, 7040","Match","Exact","747 VALLEY ST, MAPLEWOOD, NJ, 07040",63484509,"R"
285124,"747 W RIVER RD N","ELYRIA","OH",44035,41.3761423620001,-82.113035145,124,"747 W RIVER RD N, ELYRIA, OH, 44035","Match","Exact","747 W RIVER RD N, ELYRIA, OH, 44035",55408949,"R"
285125,"747 WILIWILI STREET UNIT 802","HONOLULU","HI",96826,21.290516521,-157.830560122,125,"747 WILIWILI STREET UNIT 802, HONOLULU, HI, 96826","Match","Exact","747 WILIWILI ST, HONOLULU, HI, 96826",203241670,"R"
285126,"747 WOOD STREET","SWANSEA","MA",2777,41.7633306120001,-71.213492948,126,"747 WOOD STREET, SWANSEA, MA, 2777","Match","Exact","747 WOOD ST, SWANSEA, MA, 02777",46766470,"L"
285127,"747 WORK DRIVE","NASHVILLE","TN",37207,36.218947101,-86.8129739399999,127,"747 WORK DRIVE, NASHVILLE, TN, 37207","Match","Exact","747 WORK DR, NASHVILLE, TN, 37207",649577578,"L"
285128,"7470 MARGARITA PLACE","COLORADO SPRINGS","CO",80919,38.9426514690001,-104.830333252,128,"7470 MARGARITA PLACE, COLORADO SPRINGS, CO, 80919","Match","Exact","7470 MARGARITA PL, COLORADO SPRINGS, CO, 80919",647971631,"L"
285129,"7470 NE 128TH LANE","BRONSON","FL",32621,29.5195437950001,-82.646811702,129,"7470 NE 128TH LANE, BRONSON, FL, 32621","Match","Exact","7470 NE 128TH LN, BRONSON, FL, 32621",627474613,"R"
285130,"7470 S EATON PARK WAY","AURORA","CO",80016,39.580218476,-104.705335874,130,"7470 S EATON PARK WAY, AURORA, CO, 80016","Match","Exact","7470 S EATON PARK WAY, AURORA, CO, 80016",629927655,"R"
285131,"7470 SW 30TH TERRACE","MIAMI","FL",33155,25.7417403740001,-80.316260582,131,"7470 SW 30TH TERRACE, MIAMI, FL, 33155","Match","Exact","7470 SW 30TH TER, MIAMI, FL, 33155",116283715,"L"
285132,"7471 MCGEE ROAD","RURAL HALL","NC",27045,36.229330901,-80.263909751,132,"7471 MCGEE ROAD, RURAL HALL, NC, 27045","Match","Exact","7471 MCGEE RD, RURAL HALL, NC, 27045",84605917,"L"
285133,"74710 HIGHWAY 111 SUITE 102","PALM DESERT","CA",92260,33.7213941840001,-116.362484685,133,"74710 HIGHWAY 111 SUITE 102, PALM DESERT, CA, 92260","Match","Non_Exact","74710 STATE RTE 111, PALM DESERT, CA, 92260",647388398,"L"
285134,"7472 HEDGINGTON DRIVE","MEMPHIS","TN",38125,35.026849143,-89.814042988,134,"7472 HEDGINGTON DRIVE, MEMPHIS, TN, 38125","Match","Exact","7472 HEDGINGTON DR, MEMPHIS, TN, 38125",72942591,"L"
285135,"7472 HUNTERS CREEK LN","CINCINNATI","OH",45247,39.220191232,-84.689713664,135,"7472 HUNTERS CREEK LN, CINCINNATI, OH, 45247","Match","Exact","7472 HUNTERS CREEK LN, CINCINNATI, OH, 45247",645433881,"L"
285136,"7472 TOTTENHAM PLACE","NEW ALBANY","OH",43054,40.0857461260001,-82.823405274,136,"7472 TOTTENHAM PLACE, NEW ALBANY, OH, 43054","Match","Exact","7472 TOTTENHAM PL, NEW ALBANY, OH, 43054",218661404,"R"
285137,"7472","READING","PA",19603,NA,NA,137,"7472, READING, PA, 19603","No_Match",NA,NA,NA,NA
285138,"7473 JAGUAR DR","BOARDMAN","OH",44512,41.019797963,-80.685434156,138,"7473 JAGUAR DR, BOARDMAN, OH, 44512","Match","Exact","7473 JAGUAR DR, BOARDMAN, OH, 44512",64598508,"L"
285139,"7473 KINGSTON AVE","HESPERIA","CA",92345,34.3874174470001,-117.274972866,139,"7473 KINGSTON AVE, HESPERIA, CA, 92345","Match","Exact","7473 KINGSTON AVE, HESPERIA, CA, 92345",144590827,"R"
285140,"7473 W LAKE MEAD BLVD  SUITE 100","LAS VEGAS","NV",89128,36.196106403,-115.256410354,140,"7473 W LAKE MEAD BLVD  SUITE 100, LAS VEGAS, NV, 89128","Match","Non_Exact","7473 W LAKE MEAD BLVD, LAS VEGAS, NV, 89128",201905330,"L"
285141,"7473 W LAKE MEAD BLVD NO 100","LAS VEGAS","NV",89128,NA,NA,141,"7473 W LAKE MEAD BLVD NO 100, LAS VEGAS, NV, 89128","No_Match",NA,NA,NA,NA
285142,"7473 W LAKE MEAD BLVD STE 213","LAS VEGAS","NV",89128,36.196106403,-115.256410354,142,"7473 W LAKE MEAD BLVD STE 213, LAS VEGAS, NV, 89128","Match","Non_Exact","7473 W LAKE MEAD BLVD, LAS VEGAS, NV, 89128",201905330,"L"
285143,"7473 W LAKE MEAD BLVD SUITE 100","LAS VEGAS","NV",89128,36.196106403,-115.256410354,143,"7473 W LAKE MEAD BLVD SUITE 100, LAS VEGAS, NV, 89128","Match","Non_Exact","7473 W LAKE MEAD BLVD, LAS VEGAS, NV, 89128",201905330,"L"
285144,"7473 W LAKE MEAD BLVD SUITE 108","LAS VEGAS","NV",89128,36.196106403,-115.256410354,144,"7473 W LAKE MEAD BLVD SUITE 108, LAS VEGAS, NV, 89128","Match","Non_Exact","7473 W LAKE MEAD BLVD, LAS VEGAS, NV, 89128",201905330,"L"
285145,"7473 W LAKE MEAD BLVD","LAS VEGAS","NV",89128,36.196106403,-115.256410354,145,"7473 W LAKE MEAD BLVD, LAS VEGAS, NV, 89128","Match","Exact","7473 W LAKE MEAD BLVD, LAS VEGAS, NV, 89128",201905330,"L"
285146,"7473 WEST LAKE MEAD BLVD","LAS VEGAS","NV",89128,36.1961062870001,-115.256380736,146,"7473 WEST LAKE MEAD BLVD, LAS VEGAS, NV, 89128","Match","Exact","7473 W LAKE MEAD BLVD, LAS VEGAS, NV, 89128",201905330,"L"
285147,"7474 CREEDMOOR ROAD PMB 147","RALEIGH","NC",27613,35.8881864530001,-78.679628559,147,"7474 CREEDMOOR ROAD PMB 147, RALEIGH, NC, 27613","Match","Exact","7474 CREEDMOOR RD, RALEIGH, NC, 27613",208360152,"L"
285148,"7474 CREEDMOOR ROAD SUITE 162","RALEIGH","NC",27613,35.8881864530001,-78.679628559,148,"7474 CREEDMOOR ROAD SUITE 162, RALEIGH, NC, 27613","Match","Exact","7474 CREEDMOOR RD, RALEIGH, NC, 27613",208360152,"L"
285149,"7474 E ARKANSAS AVE STE 1910","DENVER","CO",80231,39.691455209,-104.900570336,149,"7474 E ARKANSAS AVE STE 1910, DENVER, CO, 80231","Match","Non_Exact","7474 E ARKANSAS AVE, DENVER, CO, 80231",640503495,"L"
285150,"7474 FM 2071","GAINESVILLE","TX",76240,33.524876804,-97.1206820359999,150,"7474 FM 2071, GAINESVILLE, TX, 76240","Match","Exact","7474 FM 2071, GAINESVILLE, TX, 76240",151324227,"R"
285151,"7474 N DOGWOOD RD","EAGLE MOUNTAIN","UT",84005,40.354226909,-112.002840928,151,"7474 N DOGWOOD RD, EAGLE MOUNTAIN, UT, 84005","Match","Exact","7474 DOGWOOD RD, EAGLE MOUNTAIN, UT, 84005",629578993,"L"
285152,"7474 RHOADS STREET","PHILADELPHIA","PA",19151,39.973730066,-75.262912662,152,"7474 RHOADS STREET, PHILADELPHIA, PA, 19151","Match","Exact","7474 RHOADS ST, PHILADELPHIA, PA, 19151",131396904,"R"
285153,"7474 RIVERSIDE LOOP","SANTA FE","NM",87507,35.636213426,-106.062757005,153,"7474 RIVERSIDE LOOP, SANTA FE, NM, 87507","Match","Exact","7474 RIVERSIDE LOOP, SANTA FE, NM, 87507",169396517,"L"
285154,"7474 S ALKIRE ST APT 203","LITTLETON","CO",80127,39.5818291030001,-105.133740456,154,"7474 S ALKIRE ST APT 203, LITTLETON, CO, 80127","Match","Non_Exact","7474 S ALKIRE ST, LITTLETON, CO, 80127",641650700,"L"
285155,"7474 SADDLE CREEK PLACE","SARASOTA","FL",34241,27.2811948950001,-82.3779998109999,155,"7474 SADDLE CREEK PLACE, SARASOTA, FL, 34241","Match","Exact","7474 SADDLE CREEK PL, SARASOTA, FL, 34241",16357618,"L"
285156,"7474 WESTLAKE TERRACE","BETHESDA","MD",20817,39.0263778510001,-77.152236323,156,"7474 WESTLAKE TERRACE, BETHESDA, MD, 20817","Match","Exact","7474 WESTLAKE TER, BETHESDA, MD, 20817",62056003,"L"
285157,"7475 ADMIRALTY DR","CANTON","MI",48187,42.3389014680001,-83.494495586,157,"7475 ADMIRALTY DR, CANTON, MI, 48187","Match","Exact","7475 ADMIRALTY DR, CANTON, MI, 48187",95408756,"L"
285158,"7475 E BROADWAY BLVD","TUCSON","AZ",85710,32.220995261,-110.832967768,158,"7475 E BROADWAY BLVD, TUCSON, AZ, 85710","Match","Exact","7475 E BROADWAY BLVD, TUCSON, AZ, 85710",121182713,"L"
285159,"7475 EDWARDS LANDING","CHAGRIN FALLS","OH",44023,41.3904986950001,-81.377686399,159,"7475 EDWARDS LANDING, CHAGRIN FALLS, OH, 44023","Match","Exact","7475 EDWARDS LNDG, CHAGRIN FALLS, OH, 44023",651450888,"R"
285160,"7475 LITTLE RIVER TURNPIKE  T4","ANNADALE","VA",22003,38.8314991570001,-77.2027157969999,160,"7475 LITTLE RIVER TURNPIKE  T4, ANNADALE, VA, 22003","Match","Non_Exact","7475 LITTLE RIVER TPKE, ANNANDALE, VA, 22003",75980328,"L"
285161,"7475 MEADOWOAK LANE","LAS VEGAS","NV",89147,36.116790597,-115.255520806,161,"7475 MEADOWOAK LANE, LAS VEGAS, NV, 89147","Match","Exact","7475 MEADOWOAK LN, LAS VEGAS, NV, 89147",201918679,"R"
285162,"7475 MULLETT LAKE RD","MULLETT LAKE","MI",49761,NA,NA,162,"7475 MULLETT LAKE RD, MULLETT LAKE, MI, 49761","No_Match",NA,NA,NA,NA
285163,"7475 WING LAKE RD","BLOOMFIELD HILLS","MI",48301,42.530835445,-83.2933247829999,163,"7475 WING LAKE RD, BLOOMFIELD HILLS, MI, 48301","Match","Exact","7475 WING LAKE RD, BLOOMFIELD HILLS, MI, 48301",69810151,"L"
285164,"7475 WREN DRIVE","TALLAHASSEE","FL",32310,30.4401486690001,-84.4036405799999,164,"7475 WREN DRIVE, TALLAHASSEE, FL, 32310","Match","Exact","7475 WREN DR, TALLAHASSEE, FL, 32310",82867760,"L"
285165,"7475","DUNDEE","OH",44624,NA,NA,165,"7475, DUNDEE, OH, 44624","No_Match",NA,NA,NA,NA
285166,"7476 HUNTERS GLEN LANE","SEVILLE","OH",44273,41.0713552920001,-81.85265995,166,"7476 HUNTERS GLEN LANE, SEVILLE, OH, 44273","Match","Exact","7476 HUNTERS GLEN LN, SEVILLE, OH, 44273",623919353,"R"
285167,"7476 SHERWOOD CREEK COURT","WEST BLOOMFIELD","MI",48322,42.5277243470001,-83.398371966,167,"7476 SHERWOOD CREEK COURT, WEST BLOOMFIELD, MI, 48322","Match","Exact","7476 SHERWOOD CREEK CT, W BLOOMFIELD, MI, 48322",69818924,"L"
285168,"7476 STATE ROUTE 12","LOWVILLE","NY",13367,43.7824426710001,-75.488988209,168,"7476 STATE ROUTE 12, LOWVILLE, NY, 13367","Match","Exact","7476 STATE RTE 12, LOWVILLE, NY, 13367",155031536,"R"
285169,"7477 E VALLEY DR","SIERRA VISTA","AZ",85650,NA,NA,169,"7477 E VALLEY DR, SIERRA VISTA, AZ, 85650","Tie",NA,NA,NA,NA
285170,"7477 UPHAM ST","ARVADA","CO",80003,39.8320082920001,-105.077842833,170,"7477 UPHAM ST, ARVADA, CO, 80003","Match","Exact","7477 UPHAM ST, ARVADA, CO, 80003",177288147,"R"
285171,"7477 W CRIMSON RIDGE DR","TUCSON","AL",85743,NA,NA,171,"7477 W CRIMSON RIDGE DR, TUCSON, AL, 85743","No_Match",NA,NA,NA,NA
285172,"7477 W LAKE MEAD  SUITE 110","LAS VEGAS","NV",89128,NA,NA,172,"7477 W LAKE MEAD  SUITE 110, LAS VEGAS, NV, 89128","No_Match",NA,NA,NA,NA
285173,"7477 W LAKE MEAD AVE 110","LAS VEGAS","NV",89128,NA,NA,173,"7477 W LAKE MEAD AVE 110, LAS VEGAS, NV, 89128","No_Match",NA,NA,NA,NA
285174,"74770 HIGHWAY 111 SUITE 205","INDIAN WELLS","CA",92210,NA,NA,174,"74770 HIGHWAY 111 SUITE 205, INDIAN WELLS, CA, 92210","No_Match",NA,NA,NA,NA
285175,"7478 RHOADS ST STE A","PHILADELPHIA","PA",19151,NA,NA,175,"7478 RHOADS ST STE A, PHILADELPHIA, PA, 19151","No_Match",NA,NA,NA,NA
285176,"74785 HIGHWAY 111 SUITE 101","INDIAN WELLS","CA",92201,NA,NA,176,"74785 HIGHWAY 111 SUITE 101, INDIAN WELLS, CA, 92201","No_Match",NA,NA,NA,NA
285177,"7479 MEXICO ROAD","SAINT PETERS","MO",63376,38.7891377390001,-90.639090503,177,"7479 MEXICO ROAD, SAINT PETERS, MO, 63376","Match","Exact","7479 MEXICO RD, SAINT PETERS, MO, 63376",100096718,"L"
285178,"748 AMETHYST ST","NEW ORLEANS","LA",70124,30.0250871550001,-90.103822475,178,"748 AMETHYST ST, NEW ORLEANS, LA, 70124","Match","Exact","748 AMETHYST ST, NEW ORLEANS, LA, 70124",191702816,"R"
285179,"748 APPALOOSA TR","ARLINGTON","TX",76015,32.6978552160001,-97.115991284,179,"748 APPALOOSA TR, ARLINGTON, TX, 76015","Match","Non_Exact","748 APALOOSA TRL, ARLINGTON, TX, 76015",101909198,"L"
285180,"748 BERNARD WAY","SAN BERNARDINO","CA",92404,34.1555557350001,-117.271658659,180,"748 BERNARD WAY, SAN BERNARDINO, CA, 92404","Match","Exact","748 BERNARD WAY, SAN BERNARDINO, CA, 92404",144654280,"L"
285181,"748 BROOKS AVE","VENICE","CA",90291,33.997331445,-118.465152563,181,"748 BROOKS AVE, VENICE, CA, 90291","Match","Exact","748 BROOKS AVE, VENICE, CA, 90291",141569319,"R"
285182,"748 CHANNEL LANE","LAWRENCEVILLE","GA",30046,33.9223336580001,-83.9930323579999,182,"748 CHANNEL LANE, LAWRENCEVILLE, GA, 30046","Match","Exact","748 CHANNEL LN, LAWRENCEVILLE, GA, 30046",650159452,"R"
285183,"748 CORNAGA COURT","FAR ROCKAWAY","NY",11691,NA,NA,183,"748 CORNAGA COURT, FAR ROCKAWAY, NY, 11691","No_Match",NA,NA,NA,NA
285184,"748 COUNTY ROAD 3909","HAWKINS","TX",75765,32.683142177,-95.217228317,184,"748 COUNTY ROAD 3909, HAWKINS, TX, 75765","Match","Exact","748 CO RD 3909, HAWKINS, TX, 75765",42997790,"R"
285185,"748 CROTON ROAD","MELBOURNE","FL",32935,28.1189313030001,-80.6548785319999,185,"748 CROTON ROAD, MELBOURNE, FL, 32935","Match","Exact","748 CROTON RD, MELBOURNE, FL, 32935",93902421,"L"
285186,"748 E 520TH AVE","PITTSBURG","KS",66762,37.3675997180001,-94.7165859259999,186,"748 E 520TH AVE, PITTSBURG, KS, 66762","Match","Exact","748 E 520TH AVE, PITTSBURG, KS, 66762",33459347,"R"
285187,"748 E EPWORTH AVE","CINCINNATI","OH",45232,39.17341113,-84.518410789,187,"748 E EPWORTH AVE, CINCINNATI, OH, 45232","Match","Exact","748 E EPWORTH AVE, CINCINNATI, OH, 45232",103923442,"R"
285188,"748 EAST BROOKE DRIVE","MONROE","OH",45050,39.436288281,-84.423562246,188,"748 EAST BROOKE DRIVE, MONROE, OH, 45050","Match","Exact","748 E BROOKE DR, MONROE, OH, 45050",651528372,"L"
285189,"748 EASTWOOD CIRCLE","WEBSTER","NY",14580,43.2009376770001,-77.480325396,189,"748 EASTWOOD CIRCLE, WEBSTER, NY, 14580","Match","Exact","748 EASTWOOD CIR, WEBSTER, NY, 14580",14545310,"L"
285190,"748 LAKESIDE DRIVE","NORTH PALM BEACH","FL",33408,26.8196072590001,-80.0549284529999,190,"748 LAKESIDE DRIVE, NORTH PALM BEACH, FL, 33408","Match","Exact","748 LAKESIDE DR, NORTH PALM BEACH, FL, 33408",115275562,"R"
285191,"748 LAWRENCE STREET","MARIETTA","GA",30060,33.9530651800001,-84.530837601,191,"748 LAWRENCE STREET, MARIETTA, GA, 30060","Match","Non_Exact","748 LAWRENCE ST NE, MARIETTA, GA, 30060",17177800,"R"
285192,"748 MACLEAN AVE","KENILWORTH","IL",60043,42.0913364800001,-87.7243474429999,192,"748 MACLEAN AVE, KENILWORTH, IL, 60043","Match","Exact","748 MACLEAN AVE, KENILWORTH, IL, 60043",111738184,"L"
285193,"748 MAIN STREET","YANCEYVILLE","NC",27379,36.409831841,-79.345469985,193,"748 MAIN STREET, YANCEYVILLE, NC, 27379","Match","Exact","748 MAIN ST, YANCEYVILLE, NC, 27379",96778311,"R"
285194,"748 MAJESTY DRIVE","DAVENPORT","FL",33837,28.214307461,-81.636770488,194,"748 MAJESTY DRIVE, DAVENPORT, FL, 33837","Match","Exact","748 MAJESTY DR, DAVENPORT, FL, 33837",104968539,"R"
285195,"748 MASSACHUSETTS AVE","INDIANAPOLIS","IN",46204,39.7770063030001,-86.1461787379999,195,"748 MASSACHUSETTS AVE, INDIANAPOLIS, IN, 46204","Match","Exact","748 MASSACHUSETTS AVE, INDIANAPOLIS, IN, 46204",107991954,"L"
285196,"748 MASSACHUSSETTS AVENUE","INDIANAPOLIS","IN",46229,39.7770063030001,-86.1461787379999,196,"748 MASSACHUSSETTS AVENUE, INDIANAPOLIS, IN, 46229","Match","Non_Exact","748 MASSACHUSETTS AVE, INDIANAPOLIS, IN, 46204",107991954,"L"
285197,"748 MELLOWOOD AVE","ORLANDO","FL",32825,28.530433342,-81.254069495,197,"748 MELLOWOOD AVE, ORLANDO, FL, 32825","Match","Exact","748 MELLOWOOD AVE, ORLANDO, FL, 32825",94296016,"R"
285198,"748 MONUMENT AVENUE","WOODBRIDGE","VA",22191,38.654222023,-77.2345599399999,198,"748 MONUMENT AVENUE, WOODBRIDGE, VA, 22191","Match","Exact","748 MONUMENT AVE, WOODBRIDGE, VA, 22191",619951333,"L"
285199,"748 MYRTLE AVE","WEST ALLENHURST","NJ",7711,40.239778958,-74.014914255,199,"748 MYRTLE AVE, WEST ALLENHURST, NJ, 7711","Match","Exact","748 MYRTLE AVE, WEST ALLENHURST, NJ, 07711",90463120,"L"
285200,"748 N MARKET ST STE 102","REDDING","CA",96003,40.596174123,-122.387621162,200,"748 N MARKET ST STE 102, REDDING, CA, 96003","Match","Non_Exact","748 N MARKET ST, REDDING, CA, 96003",126686521,"R"
285201,"748 NIGHTHAWK CT","MERCED","CA",95340,37.3364272800001,-120.460753865,201,"748 NIGHTHAWK CT, MERCED, CA, 95340","Match","Exact","748 NIGHTHAWK CT, MERCED, CA, 95340",125318757,"L"
285202,"748 NORTH HIGH STREET","HILLSBORO","OH",45133,39.2116928940001,-83.609088775,202,"748 NORTH HIGH STREET, HILLSBORO, OH, 45133","Match","Exact","748 N HIGH ST, HILLSBORO, OH, 45133",613698559,"R"
285203,"748 NORTH LEAMINGTON","CHICAGO","IL",60651,NA,NA,203,"748 NORTH LEAMINGTON, CHICAGO, IL, 60651","No_Match",NA,NA,NA,NA
285204,"748 OLD GRIFFIN RD","DALLAS","GA",30157,33.925600688,-84.767183878,204,"748 OLD GRIFFIN RD, DALLAS, GA, 30157","Match","Exact","748 OLD GRIFFIN RD, DALLAS, GA, 30157",618944484,"L"
285205,"748 PARADISO CT","SOQUEL","CA",95073,36.998244115,-121.956618283,205,"748 PARADISO CT, SOQUEL, CA, 95073","Match","Exact","748 PARADISO CT, SOQUEL, CA, 95073",125531002,"R"
285206,"748 PENINSULA OVERLOOK","HAMPTON","GA",30228,33.452853297,-84.2558195239999,206,"748 PENINSULA OVERLOOK, HAMPTON, GA, 30228","Match","Exact","748 PENINSULA OVERLOOK, HAMPTON, GA, 30228",632348940,"R"
285207,"748 RED ROCK RD","SCOTLAND","AR",72141,35.528512049,-92.639440145,207,"748 RED ROCK RD, SCOTLAND, AR, 72141","Match","Exact","748 RED ROCK RD, SCOTLAND, AR, 72141",627809515,"R"
285208,"748 RHOADS AVE","BOYERTOWN","TX",19512,NA,NA,208,"748 RHOADS AVE, BOYERTOWN, TX, 19512","No_Match",NA,NA,NA,NA
285209,"748 S HAMILTON ST","OLATHE","KS",66061,38.8714778830001,-94.812229438,209,"748 S HAMILTON ST, OLATHE, KS, 66061","Match","Exact","748 S HAMILTON ST, OLATHE, KS, 66061",91283302,"L"
285210,"748 S PARK DRIVE","SALISBURY","MD",21804,38.3601463630001,-75.5835359019999,210,"748 S PARK DRIVE, SALISBURY, MD, 21804","Match","Exact","748 S PARK DR, SALISBURY, MD, 21804",114452582,"L"
285211,"748 SCOTTSDALE DR","VACAVILLE","CA",95678,38.343949412,-121.947449182,211,"748 SCOTTSDALE DR, VACAVILLE, CA, 95678","Match","Non_Exact","748 SCOTTSDALE DR, VACAVILLE, CA, 95687",192552494,"L"
285212,"748 SEMPLE AVENUE","PITTSBURGH","PA",15202,40.506073976,-80.065600863,212,"748 SEMPLE AVENUE, PITTSBURGH, PA, 15202","Match","Exact","748 SEMPLE AVE, PITTSBURGH, PA, 15202",51619481,"R"
285213,"748 STANTON ROAD","MOBILE","AL",36617,30.7143055710001,-88.098453121,213,"748 STANTON ROAD, MOBILE, AL, 36617","Match","Exact","748 STANTON RD, MOBILE, AL, 36617",639045284,"R"
285214,"748 VERMILLION PEAK PASS","LEXINGTON","KY",40515,37.9548625640001,-84.510623402,214,"748 VERMILLION PEAK PASS, LEXINGTON, KY, 40515","Match","Non_Exact","748 VERMILLION PEAK WAY, LEXINGTON, KY, 40515",613082757,"L"
285215,"748 VERNON AVE","VENICE","CA",90291,33.998571424,-118.466687778,215,"748 VERNON AVE, VENICE, CA, 90291","Match","Exact","748 VERNON AVE, VENICE, CA, 90291",642865139,"R"
285216,"748 WALLACE AVENUE","PITTSBURGHY","PA",15221,40.4443957780001,-79.884031912,216,"748 WALLACE AVENUE, PITTSBURGHY, PA, 15221","Match","Non_Exact","748 WALLACE AVE, PITTSBURGH, PA, 15221",51653723,"R"
285217,"748 WEST 3560 NORTH","ERDA","UT",84074,40.5934547050001,-112.319980245,217,"748 WEST 3560 NORTH, ERDA, UT, 84074","Match","Exact","748 W 3560 N, ERDA, UT, 84074",155397302,"R"
285218,"748 WEST 4TH STREET","HATTIESBURG","MS",39401,31.331815208,-89.3121214459999,218,"748 WEST 4TH STREET, HATTIESBURG, MS, 39401","Match","Exact","748 W 4TH ST, HATTIESBURG, MS, 39401",328131,"L"
285219,"748 WOODBRIAR WAY","NORTH SALT LAKE","UT",84054,40.8281908710001,-111.883988154,219,"748 WOODBRIAR WAY, NORTH SALT LAKE, UT, 84054","Match","Exact","748 WOODBRIAR WAY, N SALT LAKE, UT, 84054",229362525,"R"
285220,"7480 122ND NE","EL RENO","OK",73036,35.5949032340001,-97.8735637299999,220,"7480 122ND NE, EL RENO, OK, 73036","Match","Non_Exact","7480 122ND ST NE, EL RENO, OK, 73036",92540722,"L"
285221,"7480 BALTIMORE ANNAPOLIS BLVD 102","GLEN BURNIE","MD",21061,39.164570654,-76.6247254629999,221,"7480 BALTIMORE ANNAPOLIS BLVD 102, GLEN BURNIE, MD, 21061","Match","Exact","7480 BALTIMORE ANNAPOLIS BLVD, GLEN BURNIE, MD, 21061",68215059,"R"
285222,"7480 BRYAN DAIRY ROAD STE 550","LARGO","FL",33777,27.8721883790001,-82.742628004,222,"7480 BRYAN DAIRY ROAD STE 550, LARGO, FL, 33777","Match","Exact","7480 BRYAN DAIRY RD, LARGO, FL, 33777",124679010,"L"
285223,"7480 ROLLINGDELL DRIVE","CUPERTINO","CA",95014,37.306171829,-122.036505888,223,"7480 ROLLINGDELL DRIVE, CUPERTINO, CA, 95014","Match","Exact","7480 ROLLINGDELL DR, CUPERTINO, CA, 95014",122940395,"L"
285224,"7480 VALLEY VILLAS DR","PARMA","OH",44130,41.36230864,-81.744861347,224,"7480 VALLEY VILLAS DR, PARMA, OH, 44130","Match","Exact","7480 VALLEY VILLAS DR, PARMA, OH, 44130",61140802,"R"
285225,"7481 MOHAWK STREET APT 21","LA MESA","CA",91942,32.769694783,-117.035016043,225,"7481 MOHAWK STREET APT 21, LA MESA, CA, 91942","Match","Exact","7481 MOHAWK ST, LA MESA, CA, 91942",612878492,"R"
285226,"7481 PRESTON CIRCLE","CHATTANOOGA","TN",37421,35.041245969,-85.145758015,226,"7481 PRESTON CIRCLE, CHATTANOOGA, TN, 37421","Match","Exact","7481 PRESTON CIR, CHATTANOOGA, TN, 37421",59317499,"L"
285227,"7481 STONEY CREEK DR","HIGHLAND","CA",92346,34.118137158,-117.196232837,227,"7481 STONEY CREEK DR, HIGHLAND, CA, 92346","Match","Exact","7481 STONEY CREEK DR, HIGHLAND, CA, 92346",614820721,"L"
285228,"7481 SW ENVIRONMENTAL LAB ST","ARCADIA","FL",34266,27.1753132170001,-81.967848631,228,"7481 SW ENVIRONMENTAL LAB ST, ARCADIA, FL, 34266","Match","Exact","7481 SW ENVIRONMENTAL LAB ST, ARCADIA, FL, 34266",606248595,"R"
285229,"7482 CENTER STREET SUITE 100","MENTOR","OH",44060,41.66706113,-81.33993601,229,"7482 CENTER STREET SUITE 100, MENTOR, OH, 44060","Match","Exact","7482 CENTER ST, MENTOR, OH, 44060",137463764,"R"
285230,"7482 OLCOTT DRIVE","WESLEY CHAPEL","FL",33544,28.265743829,-82.346333283,230,"7482 OLCOTT DRIVE, WESLEY CHAPEL, FL, 33544","Match","Exact","7482 OLCOTT DR, WESLEY CHAPEL, FL, 33544",86384809,"R"
285231,"7482 ROMAN HUFF STREET","LAS VEGAS","NV",89123,36.053940546,-115.125159846,231,"7482 ROMAN HUFF STREET, LAS VEGAS, NV, 89123","Match","Exact","7482 ROMAN HUFF ST, LAS VEGAS, NV, 89123",650748784,"R"
285232,"7483 ARAPAHOE RD","BOULDER","CO",80303,40.014629644,-105.179231621,232,"7483 ARAPAHOE RD, BOULDER, CO, 80303","Match","Exact","7483 ARAPAHOE RD, BOULDER, CO, 80303",188217190,"L"
285233,"7483 BIRKDALE CT","SOLON","OH",44139,41.3543049740001,-81.4023521679999,233,"7483 BIRKDALE CT, SOLON, OH, 44139","Match","Exact","7483 BIRKDALE CT, SOLON, OH, 44139",61161308,"R"
285234,"7483 COUNTY ROAD 126","SAN SABA","TX",76877,31.2436109650001,-98.5782124259999,234,"7483 COUNTY ROAD 126, SAN SABA, TX, 76877","Match","Exact","7483 CO RD 126, SAN SABA, TX, 76877",652125416,"L"
285235,"7483 CR126","SAN SABA","TX",76877,31.2436109650001,-98.5782124259999,235,"7483 CR126, SAN SABA, TX, 76877","Match","Exact","7483 CO RD 126, SAN SABA, TX, 76877",652125416,"L"
285236,"7483 LYONS ROAD","PORTLAND","MI",48875,42.8873545490001,-84.926827304,236,"7483 LYONS ROAD, PORTLAND, MI, 48875","Match","Exact","7483 LYONS RD, PORTLAND, MI, 48875",615620348,"R"
285237,"7483 PINEBROOK ROAD","PARK CITY","UT",84098,40.740670671,-111.581138269,237,"7483 PINEBROOK ROAD, PARK CITY, UT, 84098","Match","Exact","7483 PINEBROOK RD, PARK CITY, UT, 84098",160632409,"L"
285238,"7484 UNIVERSITY AVE STE 330","LA MESA","CA",91942,32.7583135190001,-117.03634856,238,"7484 UNIVERSITY AVE STE 330, LA MESA, CA, 91942","Match","Exact","7484 UNIVERSITY AVE, LA MESA, CA, 91942",195359137,"L"
285239,"7485 CEDAR CREEK RD","LINCOLN","DE",19960,38.880541485,-75.386395735,239,"7485 CEDAR CREEK RD, LINCOLN, DE, 19960","Match","Exact","7485 CEDAR CREEK RD, LINCOLN, DE, 19960",621165829,"R"
285240,"7485 MCKINLEY CIR","BUENA PARK","CA",90620,33.836418644,-118.002844741,240,"7485 MCKINLEY CIR, BUENA PARK, CA, 90620","Match","Exact","7485 MCKINLEY CIR, BUENA PARK, CA, 90620",144001904,"L"
285241,"7485 OKEY L PATTESON RD","SCARBRO","WV",25917,37.959180087,-81.166960672,241,"7485 OKEY L PATTESON RD, SCARBRO, WV, 25917","Match","Exact","7485 OKEY L PATTESON RD, SCARBRO, WV, 25917",75077916,"L"
285242,"7485 RUSH RIVER DRIVE 710 333","SACRAMENTO","CA",95831,38.4849849730001,-121.534804425,242,"7485 RUSH RIVER DRIVE 710 333, SACRAMENTO, CA, 95831","Match","Exact","7485 RUSH RIVER DR, SACRAMENTO, CA, 95831",133364238,"L"
285243,"7485 RUSH RIVER DRIVE STE 710-385","SACRAMENTO","CA",95831,38.4849849730001,-121.534804425,243,"7485 RUSH RIVER DRIVE STE 710-385, SACRAMENTO, CA, 95831","Match","Exact","7485 RUSH RIVER DR, SACRAMENTO, CA, 95831",133364238,"L"
285244,"7486 CHASE ST","ARVADA","CO",80003,39.8324861020001,-105.056290959,244,"7486 CHASE ST, ARVADA, CO, 80003","Match","Exact","7486 CHASE ST, ARVADA, CO, 80003",177297569,"L"
285245,"7486 EDENMORE ST","LAKEWOOD RANCH","FL",34202,27.4069021180001,-82.4250134769999,245,"7486 EDENMORE ST, LAKEWOOD RANCH, FL, 34202","Match","Exact","7486 EDENMORE ST, LAKEWOOD RCH, FL, 34202",628035274,"L"
285246,"7487 E BROADWAY BLVD","TUCSON","AZ",85710,32.220994117,-110.832733884,246,"7487 E BROADWAY BLVD, TUCSON, AZ, 85710","Match","Exact","7487 E BROADWAY BLVD, TUCSON, AZ, 85710",121182713,"L"
285247,"7487 FOXVIEW DRIVE","WARRENTON","VA",20186,38.729412359,-77.817091171,247,"7487 FOXVIEW DRIVE, WARRENTON, VA, 20186","Match","Exact","7487 FOXVIEW DR, WARRENTON, VA, 20186",146286178,"R"
285248,"7487 HWY 264 EAST","WASHINGTON","NC",27889,35.615568276,-77.161556826,248,"7487 HWY 264 EAST, WASHINGTON, NC, 27889","Match","Non_Exact","7487 US HWY 264 E, WASHINGTON, NC, 27889",637648649,"R"
285249,"7487 NW 167 ST","HIALEAH","FL",33015,25.924822094,-80.322778855,249,"7487 NW 167 ST, HIALEAH, FL, 33015","Match","Exact","7487 NW 167TH ST, HIALEAH, FL, 33015",116059442,"R"
285250,"7487 POCAHONTAS DR","DOUGLASVILLE","GA",30134,33.7514151190001,-84.820566938,250,"7487 POCAHONTAS DR, DOUGLASVILLE, GA, 30134","Match","Exact","7487 POCAHONTAS DR, DOUGLASVILLE, GA, 30134",16646384,"L"
285251,"7487 SOUTH STATE ROAD 121","MACCLENNY","FL",32063,NA,NA,251,"7487 SOUTH STATE ROAD 121, MACCLENNY, FL, 32063","No_Match",NA,NA,NA,NA
285252,"7487 SW 82ND ST C109","MIAMI","FL",33143,25.6940450230001,-80.3145197219999,252,"7487 SW 82ND ST C109, MIAMI, FL, 33143","Match","Non_Exact","7487 SW 82ND ST, MIAMI, FL, 33143",647896922,"L"
285253,"7488 93RD ST SW","HOWARD LAKE","MN",55349,45.0176444740001,-94.041951807,253,"7488 93RD ST SW, HOWARD LAKE, MN, 55349","Match","Exact","7488 93RD ST SW, HOWARD LAKE, MN, 55349",44012848,"R"
285254,"7488 COMPROMISE HILL ROAD","GLOUCESTER","VA",23061,37.435189984,-76.491912698,254,"7488 COMPROMISE HILL ROAD, GLOUCESTER, VA, 23061","Match","Exact","7488 COMPROMISE HILL RD, GLOUCESTER, VA, 23061",642840945,"L"
285255,"7488 N CO RD 200 W","SPRINGPORT","IN",47386,40.0397669380001,-85.422862561,255,"7488 N CO RD 200 W, SPRINGPORT, IN, 47386","Match","Exact","7488 N CO RD 200 W, SPRINGPORT, IN, 47386",29989589,"R"
285256,"7488 SHORELINE DR UNIT B1","STOCKTON","CA",95219,38.018386026,-121.359114676,256,"7488 SHORELINE DR UNIT B1, STOCKTON, CA, 95219","Match","Exact","7488 SHORELINE DR, STOCKTON, CA, 95219",640552423,"R"
285257,"7489 S ROUDHOUSE ROAD","SWARTZ CREEK","MI",48473,42.961422665,-83.8267238129999,257,"7489 S ROUDHOUSE ROAD, SWARTZ CREEK, MI, 48473","Match","Non_Exact","7489 S ROUNDHOUSE RD, SWARTZ CREEK, MI, 48473",69572254,"L"
285258,"7489 WINDRIDGE WAY","BROWNSBURG","IN",46112,39.871785833,-86.4029348559999,258,"7489 WINDRIDGE WAY, BROWNSBURG, IN, 46112","Match","Exact","7489 WINDRIDGE WAY, BROWNSBURG, IN, 46112",89209190,"L"
285259,"7489 WOODRIDGE LN NW","BREMERTON","WA",98311,47.6316364470001,-122.652296912,259,"7489 WOODRIDGE LN NW, BREMERTON, WA, 98311","Match","Exact","7489 WOODRIDGE LN NW, BREMERTON, WA, 98311",187659848,"L"
285260,"74899 12TH AVENUE","SOUTH HAVEN","MI",49090,42.374298738,-86.272548208,260,"74899 12TH AVENUE, SOUTH HAVEN, MI, 49090","Match","Exact","74899 12TH AVE, SOUTH HAVEN, MI, 49090",34768574,"L"
285261,"749 4TH STREET","DOUGLAS","AK",99824,58.2751192710001,-134.393870665,261,"749 4TH STREET, DOUGLAS, AK, 99824","Match","Exact","749 4TH ST, DOUGLAS, AK, 99824",190970800,"R"
285262,"749 APPLE CIRCLE","WASHINGTON","UT",84780,37.1377469830001,-113.496493944,262,"749 APPLE CIRCLE, WASHINGTON, UT, 84780","Match","Exact","749 APPLE CIR, WASHINGTON, UT, 84780",166186820,"R"
285263,"749 ASPEN VALLEY DRIVE","ONALASKA","WI",54650,43.892293448,-91.206718864,263,"749 ASPEN VALLEY DRIVE, ONALASKA, WI, 54650","Match","Exact","749 ASPEN VALLEY DR, ONALASKA, WI, 54650",51033232,"L"
285264,"749 BAY RIDGE DR","IOWA CITY","IA",52246,41.627957537,-91.552777761,264,"749 BAY RIDGE DR, IOWA CITY, IA, 52246","Match","Exact","749 BAY RIDGE DR, IOWA CITY, IA, 52246",84510386,"L"
285265,"749 BELLEFONTE ROAD","FLATWOODS","KY",41139,38.512504823,-82.716643753,265,"749 BELLEFONTE ROAD, FLATWOODS, KY, 41139","Match","Exact","749 BELLEFONTE RD, FLATWOODS, KY, 41139",613160163,"R"
285266,"749 BROOKE NICOLE PLACE","CHARLOTTE","NC",28213,35.2888569400001,-80.7491565449999,266,"749 BROOKE NICOLE PLACE, CHARLOTTE, NC, 28213","Match","Exact","749 BROOKE NICOLE PL, CHARLOTTE, NC, 28213",611500081,"R"
285267,"749 CARRIAGE HILL DRIVE","JACKSONVILLE","FL",32218,30.443848367,-81.656803732,267,"749 CARRIAGE HILL DRIVE, JACKSONVILLE, FL, 32218","Match","Exact","749 CARRIAGE HILL DR, JACKSONVILLE, FL, 32218",83948601,"L"
285268,"749 CENTER AVE","BUTLER","PA",16001,40.8516961760001,-79.8827978579999,268,"749 CENTER AVE, BUTLER, PA, 16001","Match","Exact","749 CENTER AVE, BUTLER, PA, 16001",52654166,"R"
285269,"749 CLEO STREET","LANSING","MI",48915,42.7421990350001,-84.576539695,269,"749 CLEO STREET, LANSING, MI, 48915","Match","Exact","749 CLEO ST, LANSING, MI, 48915",17497881,"L"
285270,"749 COUNTY ROAD 54","BREMEN","AL",25033,33.9600700680001,-87.038862819,270,"749 COUNTY ROAD 54, BREMEN, AL, 25033","Match","Non_Exact","749 CO RD 54, BREMEN, AL, 35033",651761777,"L"
285271,"749 DIVISION ST","OREGON CITY","OR",97045,45.352216782,-122.589137041,271,"749 DIVISION ST, OREGON CITY, OR, 97045","Match","Exact","749 DIVISION ST, OREGON CITY, OR, 97045",647412583,"L"
285272,"749 E 16TH STREET","MT. PLEASANT","TX",75455,33.1730242360001,-94.953491981,272,"749 E 16TH STREET, MT. PLEASANT, TX, 75455","Match","Exact","749 E 16TH ST, MOUNT PLEASANT, TX, 75455",83226002,"L"
285273,"749 E MARYLAND AVE APT 34","PHOENIX","AZ",85014,33.5309872600001,-112.063712535,273,"749 E MARYLAND AVE APT 34, PHOENIX, AZ, 85014","Match","Non_Exact","749 E MARYLAND AVE, PHOENIX, AZ, 85014",128958880,"R"
285274,"749 EARL ST","MARIETTA","GA",30067,33.9339543500001,-84.487845049,274,"749 EARL ST, MARIETTA, GA, 30067","Match","Exact","749 EARL ST, MARIETTA, GA, 30067",17178987,"L"
285275,"749 EAST BLVD","BATON ROUGE","LA",70802,30.441486544,-91.180198866,275,"749 EAST BLVD, BATON ROUGE, LA, 70802","Match","Exact","749 EAST BLVD, BATON ROUGE, LA, 70802",92182254,"L"
285276,"749 FLAT SHOALS AVE SE APT 3","ATLANTA","GA",30316,33.733788286,-84.340071091,276,"749 FLAT SHOALS AVE SE APT 3, ATLANTA, GA, 30316","Match","Exact","749 FLAT SHOALS AVE SE, ATLANTA, GA, 30316",23365746,"R"
285277,"749 FRANKLIN STREET","WESTBURY","NY",11590,40.7668049170001,-73.570738492,277,"749 FRANKLIN STREET, WESTBURY, NY, 11590","Match","Exact","749 FRANKLIN ST, WESTBURY, NY, 11590",147625052,"L"
285278,"749 GEORGETOWN DRIVE","NASHVILLE","TN",37205,36.1211185980001,-86.892756401,278,"749 GEORGETOWN DRIVE, NASHVILLE, TN, 37205","Match","Exact","749 GEORGETOWN DR, NASHVILLE, TN, 37205",97179646,"L"
285279,"749 GLEN ROAD","DANVILLE","CA",94526,37.830770928,-122.014569904,279,"749 GLEN ROAD, DANVILLE, CA, 94526","Match","Exact","749 GLEN RD, DANVILLE, CA, 94526",192063959,"L"
285280,"749 GREENWING DRIVE","CHESAPEAKE","VA",23323,36.7581447310001,-76.328407851,280,"749 GREENWING DRIVE, CHESAPEAKE, VA, 23323","Match","Exact","749 GREENWING DR, CHESAPEAKE, VA, 23323",121783305,"L"
285281,"749 JIM HAAFF BLVD","ROCKPORT","IN",47635,37.8913291710001,-87.058338863,281,"749 JIM HAAFF BLVD, ROCKPORT, IN, 47635","Match","Exact","749 JIM HAAFF BLVD, ROCKPORT, IN, 47635",7990344,"L"
285282,"749 MAHOGANY LANE","SUNNYVALE","CA",94086,37.3657831720001,-122.012759379,282,"749 MAHOGANY LANE, SUNNYVALE, CA, 94086","Match","Exact","749 MAHOGANY LN, SUNNYVALE, CA, 94086",122938552,"R"
285283,"749 MILLWOOD DR","ST. PETERS","MO",63376,38.7615237810001,-90.576957157,283,"749 MILLWOOD DR, ST. PETERS, MO, 63376","Match","Exact","749 MILLWOOD DR, SAINT PETERS, MO, 63376",100044274,"L"
285284,"749 MORELAND AVE SE","ATLANTA","GA",30316,33.7338430020001,-84.349308363,284,"749 MORELAND AVE SE, ATLANTA, GA, 30316","Match","Exact","749 MORELAND AVE SE, ATLANTA, GA, 30316",17414070,"R"
285285,"749 N JEFFERSON","PORT ALLEN","LA",70767,30.4588171090001,-91.205818028,285,"749 N JEFFERSON, PORT ALLEN, LA, 70767","Match","Non_Exact","749 N JEFFERSON AVE, PORT ALLEN, LA, 70767",92291924,"L"
285286,"749 NEW MEXICO AVE","HOLLOMAN AFB","NM",88330,32.8310602170001,-106.090266287,286,"749 NEW MEXICO AVE, HOLLOMAN AFB, NM, 88330","Match","Non_Exact","749 W NEW MEXICO AVE, HOLLOMAN AIR FORCE BASE, NM, 88330",652130760,"R"
285287,"749 O STREET","RIO LINDA","CA",95673,38.6947097620001,-121.448370305,287,"749 O STREET, RIO LINDA, CA, 95673","Match","Exact","749 O ST, RIO LINDA, CA, 95673",133329189,"L"
285288,"749 OAK ROAD","BARRINGTON","IL",60010,42.1642091940001,-88.1306271299999,288,"749 OAK ROAD, BARRINGTON, IL, 60010","Match","Exact","749 OAK RD, BARRINGTON, IL, 60010",119635121,"R"
285289,"749 PICKENS HWY","ROSMAN","NC",28772,35.1442051920001,-82.821544777,289,"749 PICKENS HWY, ROSMAN, NC, 28772","Match","Exact","749 PICKENS HWY, ROSMAN, NC, 28772",133734385,"R"
285290,"749 QUINCY STREET 1","BROOKLYN","NY",11221,40.6895135280001,-73.928503017,290,"749 QUINCY STREET 1, BROOKLYN, NY, 11221","Match","Exact","749 QUINCY ST, BROOKLYN, NY, 11221",59082752,"L"
285291,"749 RIDGE CIRCLE","CHESAPEAKE","VA",23320,36.748828603,-76.2419779269999,291,"749 RIDGE CIRCLE, CHESAPEAKE, VA, 23320","Match","Exact","749 RIDGE CIR, CHESAPEAKE, VA, 23320",121785110,"R"
285292,"749 ROOD AVENUE SUITE B","GRAND JUNCTION","CO",81501,39.068295924,-108.560218548,292,"749 ROOD AVENUE SUITE B, GRAND JUNCTION, CO, 81501","Match","Exact","749 ROOD AVE, GRAND JCT, CO, 81501",122432454,"R"
285293,"749 S 2ND ST UNIT 1","PHOENIX","AZ",85004,NA,NA,293,"749 S 2ND ST UNIT 1, PHOENIX, AZ, 85004","Tie",NA,NA,NA,NA
285294,"749 S ODON ST","ELNORA","IN",47529,NA,NA,294,"749 S ODON ST, ELNORA, IN, 47529","Tie",NA,NA,NA,NA
285295,"749 SAINT ALBANS DRIVE","BOCA RATON","FL",33486,26.3637866120001,-80.103963386,295,"749 SAINT ALBANS DRIVE, BOCA RATON, FL, 33486","Match","Exact","749 SAINT ALBANS DR, BOCA RATON, FL, 33486",115575194,"L"
285296,"749 SAYBROOK RD SUITE B116","MIDDLETOWN","CT",6457,41.536560179,-72.615597022,296,"749 SAYBROOK RD SUITE B116, MIDDLETOWN, CT, 6457","Match","Exact","749 SAYBROOK RD, MIDDLETOWN, CT, 06457",618594470,"R"
285297,"749 SE 12TH CT","FORT LAUDERDALE","FL",33316,26.106775596,-80.135421912,297,"749 SE 12TH CT, FORT LAUDERDALE, FL, 33316","Match","Exact","749 SE 12TH CT, FORT LAUDERDALE, FL, 33316",114728280,"L"
285298,"749 SEMINARY AVENUE","RAHWAY","NJ",7065,40.614921274,-74.284729291,298,"749 SEMINARY AVENUE, RAHWAY, NJ, 7065","Match","Exact","749 SEMINARY AVE, RAHWAY, NJ, 07065",60562246,"R"
285299,"749 SILVER MAPLE DRIVE","TALLAHASSEE","FL",32308,30.4508609580001,-84.237553979,299,"749 SILVER MAPLE DRIVE, TALLAHASSEE, FL, 32308","Match","Exact","749 SILVER MAPLE DR, TALLAHASSEE, FL, 32308",82854549,"R"
285300,"749 SOUTH PROVIDENCE LANE","ROUND LAKE","IL",60073,42.3348562730001,-88.0836015469999,300,"749 SOUTH PROVIDENCE LANE, ROUND LAKE, IL, 60073","Match","Exact","749 S PROVIDENCE LN, ROUND LAKE, IL, 60073",119755603,"L"
285301,"749 STORY ROAD  SUITE 10","SAN JOSE","CA",95122,37.3284872560001,-121.859948074,301,"749 STORY ROAD  SUITE 10, SAN JOSE, CA, 95122","Match","Exact","749 STORY RD, SAN JOSE, CA, 95122",122909190,"L"
285302,"749 STORY ROAD SUITE 10","SAN JOSE","CA",95122,37.3284872560001,-121.859948074,302,"749 STORY ROAD SUITE 10, SAN JOSE, CA, 95122","Match","Exact","749 STORY RD, SAN JOSE, CA, 95122",122909190,"L"
285303,"749 VICTORIA PL SW","ATLANTA","GA",30310,33.735000868,-84.416707327,303,"749 VICTORIA PL SW, ATLANTA, GA, 30310","Match","Exact","749 VICTORIA PL SW, ATLANTA, GA, 30310",17379513,"R"
285304,"749 W EVERGREEN CT","PALATINE","IL",60067,42.0977203570001,-88.062411039,304,"749 W EVERGREEN CT, PALATINE, IL, 60067","Match","Exact","749 EVERGREEN CT, PALATINE, IL, 60067",111695998,"R"
285305,"749 WAKELON ROAD","WINDSOR","NC",27983,36.0591583890001,-76.8651663209999,305,"749 WAKELON ROAD, WINDSOR, NC, 27983","Match","Exact","749 WAKELON RD, WINDSOR, NC, 27983",635642119,"L"
285306,"749 WEST JUNEAU AVENUE","MILWAUKEE","WI",53233,43.045726361,-87.920860142,306,"749 WEST JUNEAU AVENUE, MILWAUKEE, WI, 53233","Match","Exact","749 W JUNEAU AVE, MILWAUKEE, WI, 53233",77741690,"L"
285307,"749-1 N 200 W","VALPARAISO","IN",46385,41.542521138,-87.104876073,307,"749-1 N 200 W, VALPARAISO, IN, 46385","Match","Exact","749 N 200 W, VALPARAISO, IN, 46385",606975656,"L"
285308,"749-753 BROOK AVENUE","BRONX","NY",10451,40.820521081,-73.911745146,308,"749-753 BROOK AVENUE, BRONX, NY, 10451","Match","Exact","749 BROOK AVE, BRONX, NY, 10451",80303191,"L"
285309,"7490 ANDREW JACKSON HIGHWAY","CERRO GORDO","NC",28430,NA,NA,309,"7490 ANDREW JACKSON HIGHWAY, CERRO GORDO, NC, 28430","No_Match",NA,NA,NA,NA
285310,"7490 BROMPTON APT 157","HOUSTON","TX",77025,29.699650956,-95.422965628,310,"7490 BROMPTON APT 157, HOUSTON, TX, 77025","Match","Non_Exact","7490 BROMPTON ST, HOUSTON, TX, 77025",96609778,"R"
285311,"7490 CLUBHOUSE RD 2ND FLR","BOULDER","CO",80301,40.0654325080001,-105.179635355,311,"7490 CLUBHOUSE RD 2ND FLR, BOULDER, CO, 80301","Match","Exact","7490 CLUBHOUSE RD, BOULDER, CO, 80301",188161718,"R"
285312,"7490 W UNION HILLS DR","GLENDALE","AZ",85308,33.652675753,-112.219901513,312,"7490 W UNION HILLS DR, GLENDALE, AZ, 85308","Match","Exact","7490 W UNION HILLS DR, GLENDALE, AZ, 85308",128395707,"R"
285313,"7491 DALLAS LN N","MAPLE GROVE","MN",55311,45.0909761130001,-93.458846287,313,"7491 DALLAS LN N, MAPLE GROVE, MN, 55311","Match","Non_Exact","7491 DALLAS LN, MAPLE GROVE, MN, 55311",43599278,"R"
285314,"7491 HAGERS HOLLOW DR STE-B","DENVER","NC",28037,35.503287991,-81.007067822,314,"7491 HAGERS HOLLOW DR STE-B, DENVER, NC, 28037","Match","Exact","7491 HAGERS HOLLOW DR, DENVER, NC, 28037",69536548,"R"
285315,"7491 LIMONIA DRIVE","INDIAN LAKE ESTATES","FL",33855,NA,NA,315,"7491 LIMONIA DRIVE, INDIAN LAKE ESTATES, FL, 33855","No_Match",NA,NA,NA,NA
285316,"7491 N FEDERAL HIGHWAY SUITE C5143","BOCA RATON","FL",33487,26.4160649990001,-80.0751103649999,316,"7491 N FEDERAL HIGHWAY SUITE C5143, BOCA RATON, FL, 33487","Match","Non_Exact","7491 N FEDERAL HWY, BOCA RATON, FL, 33487",115299027,"L"
285317,"7492 S US 421","SAN PIERRE","IN",46374,41.1674460680001,-86.8912727649999,317,"7492 S US 421, SAN PIERRE, IN, 46374","Match","Non_Exact","7492 US HWY 421, SAN PIERRE, IN, 46374",651765212,"R"
285318,"7493 CLAYBURN","BURTON","MI",48519,NA,NA,318,"7493 CLAYBURN, BURTON, MI, 48519","No_Match",NA,NA,NA,NA
285319,"7493 HOOPER COVE","YOUNG HARRIS","GA",30582,34.95250466,-83.8898837949999,319,"7493 HOOPER COVE, YOUNG HARRIS, GA, 30582","Match","Exact","7493 HOOPER COVE, YOUNG HARRIS, GA, 30582",634042230,"R"
285320,"7493 INDIGO CIRCLE","MIDDLETON","WI",53562,43.112400092,-89.568773235,320,"7493 INDIGO CIRCLE, MIDDLETON, WI, 53562","Match","Non_Exact","7493 INDIGO, MIDDLETON, WI, 53562",49510524,"L"
285321,"7493 NORTH 9150 WEST","LEHI","UT",84043,40.3692284260001,-111.876814025,321,"7493 NORTH 9150 WEST, LEHI, UT, 84043","Match","Exact","7493 N 9150 W, LEHI, UT, 84043",650433612,"L"
285322,"7493 PIPESTONE RD","PERKINS","OK",74059,35.927614378,-97.026762508,322,"7493 PIPESTONE RD, PERKINS, OK, 74059","Match","Exact","7493 PIPESTONE RD, PERKINS, OK, 74059",143062495,"L"
285323,"7493 SHELBY CROSS CIRCLE","MEMPHIS","TN",38125,35.035915478,-89.81292754,323,"7493 SHELBY CROSS CIRCLE, MEMPHIS, TN, 38125","Match","Exact","7493 SHELBY CROSS CIR, MEMPHIS, TN, 38125",72942659,"L"
285324,"7494 NC HWY 11","WILLARD","NC",28478,34.686919077,-77.9972825789999,324,"7494 NC HWY 11, WILLARD, NC, 28478","Match","Non_Exact","7494 STATE HWY 11, WILLARD, NC, 28478",14134183,"R"
285325,"7494 STATE ROUTE 54","BATH","NY",14810,42.3664835500001,-77.287771402,325,"7494 STATE ROUTE 54, BATH, NY, 14810","Match","Exact","7494 STATE RTE 54, BATH, NY, 14810",14713225,"R"
285326,"7494 WEST HWY 80","NANCY","KY",42544,NA,NA,326,"7494 WEST HWY 80, NANCY, KY, 42544","No_Match",NA,NA,NA,NA
285327,"7495 EVERSON ROAD","DENTON","MT",59430,47.483032128,-109.804236666,327,"7495 EVERSON ROAD, DENTON, MT, 59430","Match","Exact","7495 EVERSON RD, DENTON, MT, 59430",640960591,"R"
285328,"7495 NW 44TH STREET SUITE 601","LAUDERHILL","FL",33319,26.1796790000001,-80.2496574309999,328,"7495 NW 44TH STREET SUITE 601, LAUDERHILL, FL, 33319","Match","Non_Exact","7495 NW 44TH ST, LAUDERHILL, FL, 33319",640938244,"R"
285329,"7495 SHADOW LANE","SPARKS","NV",89434,39.5662370540001,-119.724155587,329,"7495 SHADOW LANE, SPARKS, NV, 89434","Match","Exact","7495 SHADOW LN, SPARKS, NV, 89434",648853650,"L"
285330,"7495 SHAFTESBURY","UNIVERSITY CITY","MO",63130,38.66707189,-90.332135845,330,"7495 SHAFTESBURY, UNIVERSITY CITY, MO, 63130","Match","Non_Exact","7495 SHAFTESBURY AVE, UNIVERSITY CITY, MO, 63130",100134032,"R"
285331,"7495 W ATLANTIC AVE 200-383","DELRAY BEACH","FL",33446,26.453716306,-80.1631816729999,331,"7495 W ATLANTIC AVE 200-383, DELRAY BEACH, FL, 33446","Match","Non_Exact","7495 W ATLANTIC AVE, DELRAY BEACH, FL, 33446",115481788,"L"
285332,"7495 W AZURE DR STE 258","LAS VEGAS","NV",89130,36.273981372,-115.256937282,332,"7495 W AZURE DR STE 258, LAS VEGAS, NV, 89130","Match","Non_Exact","7495 W AZURE DR, LAS VEGAS, NV, 89130",618035875,"L"
285333,"7495 W AZURE DR SUITE 236","LAS VEGAS","NV",89131,NA,NA,333,"7495 W AZURE DR SUITE 236, LAS VEGAS, NV, 89131","No_Match",NA,NA,NA,NA
285334,"7496 E TIERRA BUENA LN","SCOTTSDALE","AZ",85260,33.629367845,-111.918729585,334,"7496 E TIERRA BUENA LN, SCOTTSDALE, AZ, 85260","Match","Exact","7496 E TIERRA BUENA LN, SCOTTSDALE, AZ, 85260",653305570,"L"
285335,"7496 NORWALK RD","MEDINA","OH",44256,41.1674555600001,-81.958342546,335,"7496 NORWALK RD, MEDINA, OH, 44256","Match","Exact","7496 NORWALK RD, MEDINA, OH, 44256",58677886,"R"
285336,"7496 VALENCIA DR","BOCA RATON","FL",33433,26.364574632,-80.1614540529999,336,"7496 VALENCIA DR, BOCA RATON, FL, 33433","Match","Exact","7496 VALENCIA DR, BOCA RATON, FL, 33433",115301023,"R"
285337,"7496 W 570","CHOUTEAU","OK",74337,NA,NA,337,"7496 W 570, CHOUTEAU, OK, 74337","No_Match",NA,NA,NA,NA
285338,"7498 FOREST OAK DRIVE","DENVER","NC",28037,35.454756225,-81.000837948,338,"7498 FOREST OAK DRIVE, DENVER, NC, 28037","Match","Exact","7498 FOREST OAK DR, DENVER, NC, 28037",640432203,"L"
285339,"7498 N COUNTY RD 700 W","MIDDLETOWN","IN",47356,40.0407771120001,-85.51829524,339,"7498 N COUNTY RD 700 W, MIDDLETOWN, IN, 47356","Match","Exact","7498 N CO RD 700 W, MIDDLETOWN, IN, 47356",640412117,"L"
285340,"7498 RIDGEFIELD LN","LAKE WORTH","FL",33467,26.577338438,-80.16582713,340,"7498 RIDGEFIELD LN, LAKE WORTH, FL, 33467","Match","Exact","7498 RIDGEFIELD LN, LAKE WORTH, FL, 33467",115496581,"L"
285341,"7499 21ST AVENUE","BLAIRSTOWN","IA",52209,41.9290184330001,-92.084706261,341,"7499 21ST AVENUE, BLAIRSTOWN, IA, 52209","Match","Exact","7499 21ST AVE, BLAIRSTOWN, IA, 52209",94709084,"L"
285342,"7499 DORCHESTER ROAD","NORTH CHARLESTON","SC",29418,NA,NA,342,"7499 DORCHESTER ROAD, NORTH CHARLESTON, SC, 29418","No_Match",NA,NA,NA,NA
285343,"7499 WILLIAM BAILEY RD","SUMMERFIELD","NC",27358,36.2029840160001,-79.887072873,343,"7499 WILLIAM BAILEY RD, SUMMERFIELD, NC, 27358","Match","Exact","7499 WILLIAM BAILEY RD, SUMMERFIELD, NC, 27358",131080146,"R"
285344,"74998 COUNTRY CLUB DR STE 220-517","PALM DESERT","CA",92260,33.757991469,-116.374192157,344,"74998 COUNTRY CLUB DR STE 220-517, PALM DESERT, CA, 92260","Match","Exact","74998 COUNTRY CLUB DR, PALM DESERT, CA, 92260",194770252,"L"
285345,"74998 COUNTRY CLUB DRIVE 334","PALM  DESERT","CA",92260,33.757991469,-116.374192157,345,"74998 COUNTRY CLUB DRIVE 334, PALM  DESERT, CA, 92260","Match","Exact","74998 COUNTRY CLUB DR, PALM DESERT, CA, 92260",194770252,"L"
285346,"749A CLAY STREET","SAN FRANCISCO","CA",94108,37.794349299,-122.405590291,346,"749A CLAY STREET, SAN FRANCISCO, CA, 94108","Match","Exact","749 CLAY ST, SAN FRANCISCO, CA, 94108",192281229,"L"
285347,"74B STONERIDGE ROAD","BRIDGEPORT","CT",6606,41.217386011,-73.1970465539999,347,"74B STONERIDGE ROAD, BRIDGEPORT, CT, 6606","Match","Non_Exact","74 STONE RIDGE RD, BRIDGEPORT, CT, 06606",3222381,"R"
285348,"75  EXECUTIVE DRIVE SUITE 107","AURORA","IL",60504,41.75575946,-88.217045032,348,"75  EXECUTIVE DRIVE SUITE 107, AURORA, IL, 60504","Match","Exact","75 EXECUTIVE DR, AURORA, IL, 60504",112565733,"L"
285349,"75 14TH STREET NE SUITE 2750","ATLANTA","GA",30309,33.786653298,-84.385209683,349,"75 14TH STREET NE SUITE 2750, ATLANTA, GA, 30309","Match","Exact","75 14TH ST NE, ATLANTA, GA, 30309",17415007,"R"
285350,"75 14TH STREET SUITE 3000","ATLANTA","GA",30309,NA,NA,350,"75 14TH STREET SUITE 3000, ATLANTA, GA, 30309","Tie",NA,NA,NA,NA
285351,"75 5851 KUAKINI HIGHWAY 474","KAILUA KONA","HI",96740,NA,NA,351,"75 5851 KUAKINI HIGHWAY 474, KAILUA KONA, HI, 96740","No_Match",NA,NA,NA,NA
285352,"75 5TH ST","APALACHICOLA","FL",32320,29.7263045290001,-84.985817035,352,"75 5TH ST, APALACHICOLA, FL, 32320","Match","Exact","75 5TH ST, APALACHICOLA, FL, 32320",74337863,"R"
285353,"75 6082 ALII DRIVE 105","KAILUA KONA","HI",96740,NA,NA,353,"75 6082 ALII DRIVE 105, KAILUA KONA, HI, 96740","No_Match",NA,NA,NA,NA
285354,"75 A STREET","HICKAM AFB","HI",96853,NA,NA,354,"75 A STREET, HICKAM AFB, HI, 96853","No_Match",NA,NA,NA,NA
285355,"75 ABBEY LANE","COLLIERS","WV",26035,40.3372560120001,-80.5331467029999,355,"75 ABBEY LANE, COLLIERS, WV, 26035","Match","Exact","75 ABBEY LN, COLLIERS, WV, 26035",641475495,"L"
285356,"75 ADAMS STREET","NEWTON","MA",2458,42.360780742,-71.2035007969999,356,"75 ADAMS STREET, NEWTON, MA, 2458","Match","Exact","75 ADAMS ST, NEWTON, MA, 02458",86864248,"R"
285357,"75 ALLEN AVE","LYNN","MA",1902,42.472982695,-70.947752419,357,"75 ALLEN AVE, LYNN, MA, 1902","Match","Exact","75 ALLEN AVE, LYNN, MA, 01902",86645190,"R"
285358,"75 ALLEN STREET","TERRYVILLE","CT",6786,41.67370716,-73.0003464499999,358,"75 ALLEN STREET, TERRYVILLE, CT, 6786","Match","Exact","75 ALLEN ST, TERRYVILLE, CT, 06786",3118157,"L"
285359,"75 ALPHA AVENUE","OLD BRIDGE","NJ",8857,40.3982558440001,-74.322686015,359,"75 ALPHA AVENUE, OLD BRIDGE, NJ, 8857","Match","Exact","75 ALPHA AVE, OLD BRIDGE, NJ, 08857",60285114,"L"
285360,"75 ANNETTE DRIVE","PORTSMOUTH","RI",2871,41.573753261,-71.236904399,360,"75 ANNETTE DRIVE, PORTSMOUTH, RI, 2871","Match","Exact","75 ANNETTE DR, PORTSMOUTH, RI, 02871",47345207,"R"
285361,"75 ANNIN RD","WEST CALDWELL","NJ",7006,40.851407028,-74.281948019,361,"75 ANNIN RD, WEST CALDWELL, NJ, 7006","Match","Exact","75 ANNIN RD, W CALDWELL, NJ, 07006",63459017,"L"
285362,"75 APPALACHIAN WAY","BAKERSVILLE","NC",28705,NA,NA,362,"75 APPALACHIAN WAY, BAKERSVILLE, NC, 28705","No_Match",NA,NA,NA,NA
285363,"75 ARLINGTON STREET SUITE 500","BOSTON","MA",2116,42.350926993,-71.0702384969999,363,"75 ARLINGTON STREET SUITE 500, BOSTON, MA, 2116","Match","Exact","75 ARLINGTON ST, BOSTON, MA, 02116",85698149,"R"
285364,"75 ASHFORD AVE","DOBBS FERRY","NY",10522,41.0153360680001,-73.865148679,364,"75 ASHFORD AVE, DOBBS FERRY, NY, 10522","Match","Exact","75 ASHFORD AVE, DOBBS FERRY, NY, 10522",139732170,"L"
285365,"75 BEAR CREEK ROAD","BARDSTOWN","KY",40004,NA,NA,365,"75 BEAR CREEK ROAD, BARDSTOWN, KY, 40004","No_Match",NA,NA,NA,NA
285366,"75 BECKY DRIVE","JACKSON","MN",56143,43.621288871,-94.975126054,366,"75 BECKY DRIVE, JACKSON, MN, 56143","Match","Exact","75 BECKY DR, JACKSON, MN, 56143",9935479,"L"
285367,"75 BIRCHLAND AVE","SPRINGFIELD","MA",1119,42.1153999650001,-72.509852487,367,"75 BIRCHLAND AVE, SPRINGFIELD, MA, 1119","Match","Exact","75 BIRCHLAND AVE, SPRINGFIELD, MA, 01119",4037273,"L"
285368,"75 BISHOP ST STE 12","PORTLAND","ME",4102,NA,NA,368,"75 BISHOP ST STE 12, PORTLAND, ME, 4102","No_Match",NA,NA,NA,NA
285369,"75 BLACK JACK CT","FLORISSANT","MO",63033,38.792531791,-90.26633687,369,"75 BLACK JACK CT, FLORISSANT, MO, 63033","Match","Exact","75 BLACK JACK CT, FLORISSANT, MO, 63033",100145447,"L"
285370,"75 BLUEBERRY LANE","STRATFORD","CT",6614,41.2270010770001,-73.153854429,370,"75 BLUEBERRY LANE, STRATFORD, CT, 6614","Match","Exact","75 BLUEBERRY LN, STRATFORD, CT, 06614",3226078,"L"
285371,"75 BONIFACE DRIVE","ROCHESTER","NY",14620,43.120522572,-77.586390407,371,"75 BONIFACE DRIVE, ROCHESTER, NY, 14620","Match","Exact","75 BONIFACE DR, ROCHESTER, NY, 14620",14575107,"R"
285372,"75 BRANCH CREEK TRAIL","SUMMERVILLE","SC",29483,33.020506874,-80.159192918,372,"75 BRANCH CREEK TRAIL, SUMMERVILLE, SC, 29483","Match","Exact","75 BRANCH CREEK TRL, SUMMERVILLE, SC, 29483",647838708,"L"
285373,"75 BRIDGE STREET","SHELBURNE FALLS","MA",1370,42.6036028450001,-72.737770928,373,"75 BRIDGE STREET, SHELBURNE FALLS, MA, 1370","Match","Exact","75 BRIDGE ST, SHELBURNE FALLS, MA, 01370",39914985,"L"
285374,"75 BROAD ST FL 13","NEW YORK","NY",10004,40.70443276,-74.0115557349999,374,"75 BROAD ST FL 13, NEW YORK, NY, 10004","Match","Exact","75 BROAD ST, NEW YORK, NY, 10004",59659661,"L"
285375,"75 BROAD STREET SUITE 2110","NEW YORK","NY",10004,40.70443276,-74.0115557349999,375,"75 BROAD STREET SUITE 2110, NEW YORK, NY, 10004","Match","Exact","75 BROAD ST, NEW YORK, NY, 10004",59659661,"L"
285376,"75 BROADWAY SUITE 202","SAN FRANCISCO","CA",94111,37.7988026960001,-122.399282163,376,"75 BROADWAY SUITE 202, SAN FRANCISCO, CA, 94111","Match","Exact","75 BROADWAY, SAN FRANCISCO, CA, 94111",192281162,"L"
285377,"75 BROWN HILL EAST RD","HUNTINGTON","VT",5462,44.248243217,-72.975720612,377,"75 BROWN HILL EAST RD, HUNTINGTON, VT, 5462","Match","Exact","75 BROWN HILL E, HUNTINGTON, VT, 05462",136451337,"L"
285378,"75 CALM WINDS COURT","CHAPEL HILL","NC",27517,35.7491066370001,-79.061226346,378,"75 CALM WINDS COURT, CHAPEL HILL, NC, 27517","Match","Exact","75 CALM WINDS CT, CHAPEL HILL, NC, 27517",632045624,"L"
285379,"75 CAMERON COURT","ROYERSFORD","PA",19468,40.181340613,-75.5425348649999,379,"75 CAMERON COURT, ROYERSFORD, PA, 19468","Match","Exact","75 CAMERON CT, ROYERSFORD, PA, 19468",645861030,"R"
285380,"75 CAPEHART CIR","BEAUFORT","SC",29906,32.4616001730001,-80.788636875,380,"75 CAPEHART CIR, BEAUFORT, SC, 29906","Match","Exact","75 CAPEHART CIR, BEAUFORT, SC, 29906",87604241,"R"
285381,"75 CAPRI LANE","LAKE HAVASU CITY","AZ",86403,34.478651589,-114.341792808,381,"75 CAPRI LANE, LAKE HAVASU CITY, AZ, 86403","Match","Exact","75 CAPRI LN, LAKE HAVASU CITY, AZ, 86403",190281954,"L"
285382,"75 CASEMENT AVENUE","CENTRAL ISLIP","NY",11722,40.7983470360001,-73.17993182,382,"75 CASEMENT AVENUE, CENTRAL ISLIP, NY, 11722","Match","Exact","75 CASEMENT AVE, CENTRAL ISLIP, NY, 11722",638315145,"R"
285383,"75 CEDAR HILLS CIRCLE","CHAPEL HILL","NC",27514,35.9576119930001,-79.044236623,383,"75 CEDAR HILLS CIRCLE, CHAPEL HILL, NC, 27514","Match","Exact","75 CEDAR HILLS CIR, CHAPEL HILL, NC, 27514",72379627,"R"
285384,"75 CEMETERY ROAD","ALTOONA","AL",35952,34.061947769,-86.42848151,384,"75 CEMETERY ROAD, ALTOONA, AL, 35952","Match","Exact","75 CEMETERY RD, ALTOONA, AL, 35952",632823888,"L"
285385,"75 CENTRE STREET UNIT 2","ROXBURY","MA",2119,42.3258735900001,-71.096657492,385,"75 CENTRE STREET UNIT 2, ROXBURY, MA, 2119","Match","Non_Exact","75 CENTRE STREET TER, ROXBURY, MA, 02119",85728491,"L"
285386,"75 CHADWICK MANOR","FAIRPORT","NY",14450,43.1062904400001,-77.39576522,386,"75 CHADWICK MANOR, FAIRPORT, NY, 14450","Match","Exact","75 CHADWICK MANOR, FAIRPORT, NY, 14450",14574712,"R"
285387,"75 CHARLOTTE WHITE RD EXT","FALL RIVER","MA",2790,41.5987093970001,-71.0762512159999,387,"75 CHARLOTTE WHITE RD EXT, FALL RIVER, MA, 2790","Match","Non_Exact","75 CHARLOTTE WHITE RD EXD, WESTPORT, MA, 02790",612616516,"L"
285388,"75 CHAUCER CIRCLE","BALDWINSVILLE","NY",13027,43.1717376570001,-76.345380974,388,"75 CHAUCER CIRCLE, BALDWINSVILLE, NY, 13027","Match","Exact","75 CHAUCER CIR, BALDWINSVILLE, NY, 13027",46625419,"R"
285389,"75 CHERRY CT","MATTOON","IL",61938,39.544270754,-88.348621554,389,"75 CHERRY CT, MATTOON, IL, 61938","Match","Exact","75 CHERRY CT, MATTOON, IL, 61938",5412038,"R"
285390,"75 CHESTER STREET  PO244","CHESTER","NH",3036,42.9605278440001,-71.263091926,390,"75 CHESTER STREET  PO244, CHESTER, NH, 3036","Match","Exact","75 CHESTER ST, CHESTER, NH, 03036",637404444,"R"
285391,"75 CHURCHILL DRIVE","CRAWFORDVILLE","FL",32327,NA,NA,391,"75 CHURCHILL DRIVE, CRAWFORDVILLE, FL, 32327","No_Match",NA,NA,NA,NA
285392,"75 CLAIRVIEW ROAD","GROSSE POINTE SHORES","MI",48236,42.4246134570001,-82.8855946639999,392,"75 CLAIRVIEW ROAD, GROSSE POINTE SHORES, MI, 48236","Match","Exact","75 CLAIRVIEW RD, GROSSE POINTE SHORES, MI, 48236",95507706,"L"
285393,"75 CLUB COURT","NEWNAN","GA",30263,33.416939373,-84.774094793,393,"75 CLUB COURT, NEWNAN, GA, 30263","Match","Exact","75 CLUB CT, NEWNAN, GA, 30263",9334258,"L"
285394,"75 COLEBROOK ROAD","EAST ARLINGTON","VT",5252,43.0717104220001,-73.1117949539999,394,"75 COLEBROOK ROAD, EAST ARLINGTON, VT, 5252","Match","Non_Exact","75 COLE BROOK RD, E ARLINGTON, VT, 05252",139214468,"L"
285395,"75 COMMERCE DRIVE BOX 503","GRAYSLAKE","IL",60030,42.343499965,-88.021948337,395,"75 COMMERCE DRIVE BOX 503, GRAYSLAKE, IL, 60030","Match","Exact","75 COMMERCE DR, GRAYSLAKE, IL, 60030",119698159,"R"
285396,"75 COOLIDGE STREET","IRVINGTON","NJ",7111,40.7162881300001,-74.250094878,396,"75 COOLIDGE STREET, IRVINGTON, NJ, 7111","Match","Exact","75 COOLIDGE ST, IRVINGTON, NJ, 07111",63463317,"R"
285397,"75 COOPER LAKE RD SE","MABLETON","GA",30126,33.82560485,-84.551655426,397,"75 COOPER LAKE RD SE, MABLETON, GA, 30126","Match","Exact","75 COOPER LAKE RD SE, MABLETON, GA, 30126",17180726,"L"
285398,"75 CORNWALL DRIVE","MADISONVILLE","KY",42431,37.355664394,-87.487260002,398,"75 CORNWALL DRIVE, MADISONVILLE, KY, 42431","Match","Exact","75 CORNWALL DR, MADISONVILLE, KY, 42431",647398822,"R"
285399,"75 COUNTRY HILL ROAD","ST PETERS","MO",63376,38.790344868,-90.6228206709999,399,"75 COUNTRY HILL ROAD, ST PETERS, MO, 63376","Match","Exact","75 COUNTRY HILL RD, SAINT PETERS, MO, 63376",100016048,"R"
285400,"75 COUNTY HILL ROAD","ST.PETERS","MO",63376,38.790344868,-90.6228206709999,400,"75 COUNTY HILL ROAD, ST.PETERS, MO, 63376","Match","Non_Exact","75 COUNTRY HILL RD, SAINT PETERS, MO, 63376",100016048,"R"
285401,"75 COUNTY RD 218","DURANGO","CO",81303,37.12200389,-107.862501143,401,"75 COUNTY RD 218, DURANGO, CO, 81303","Match","Exact","75 CO RD 218, DURANGO, CO, 81303",91723320,"R"
285402,"75 COURTLAND DRIVE","HATTIESBURG","MS",39402,31.330171658,-89.41480869,402,"75 COURTLAND DRIVE, HATTIESBURG, MS, 39402","Match","Exact","75 COURTLAND DR, HATTIESBURG, MS, 39402",500698,"L"
285403,"75 COX LANE","METHUEN","MA",1844,42.7597844050001,-71.1780409409999,403,"75 COX LANE, METHUEN, MA, 1844","Match","Exact","75 COX LN, METHUEN, MA, 01844",86630493,"L"
285404,"75 CR 447","TAYLOR","TX",76574,30.5387856630001,-97.3679000669999,404,"75 CR 447, TAYLOR, TX, 76574","Match","Exact","75 CO RD 447, TAYLOR, TX, 76574",126484931,"L"
285405,"75 CROSS ST 103","SOMERVILLE","MA",2145,42.3854433270001,-71.0880229529999,405,"75 CROSS ST 103, SOMERVILLE, MA, 2145","Match","Exact","75 CROSS ST, SOMERVILLE, MA, 02145",86870377,"R"
285406,"75 CROSSWIND DRIVE","HOLLAND","MI",49424,42.794459515,-86.1679667499999,406,"75 CROSSWIND DRIVE, HOLLAND, MI, 49424","Match","Exact","75 CROSSWIND DR, HOLLAND, MI, 49424",71107900,"R"
285407,"75 CURRIER STREET","METHUEN","MA",1844,42.759073943,-71.160570798,407,"75 CURRIER STREET, METHUEN, MA, 1844","Match","Exact","75 CURRIER ST, METHUEN, MA, 01844",86666507,"R"
285408,"75 DALRYMPLE DRIVE","PINEHURST","NC",28374,35.2016945930001,-79.455923376,408,"75 DALRYMPLE DRIVE, PINEHURST, NC, 28374","Match","Non_Exact","75 DALRYMPLE RD, PINEHURST, NC, 28374",20299118,"R"
285409,"75 DEERFIELD RD","SEDONA","AZ",86351,34.8102548890001,-111.802502101,409,"75 DEERFIELD RD, SEDONA, AZ, 86351","Match","Exact","75 DEERFIELD RD, SEDONA, AZ, 86351",635286755,"R"
285410,"75 DIVISION STREET","WARWICK","RI",2818,41.6639013390001,-71.4518603779999,410,"75 DIVISION STREET, WARWICK, RI, 2818","Match","Non_Exact","75 DIVISION ST, EAST GREENWICH, RI, 02818",159151196,"R"
285411,"75 DR MLK JR BLVD - 1","NEWARK","NJ",7104,NA,NA,411,"75 DR MLK JR BLVD - 1, NEWARK, NJ, 7104","Tie",NA,NA,NA,NA
285412,"75 E 80 N","AMERICAN FORK","UT",84003,NA,NA,412,"75 E 80 N, AMERICAN FORK, UT, 84003","No_Match",NA,NA,NA,NA
285413,"75 E CIVIC CENTER DR","GILBERT","AZ",85296,33.3306362160001,-111.788331702,413,"75 E CIVIC CENTER DR, GILBERT, AZ, 85296","Match","Exact","75 E CIVIC CENTER DR, GILBERT, AZ, 85296",128800868,"R"
285414,"75 EAST 7200 SOUTH SUITE C 111","MIDVALE","UT",84047,40.620808153,-111.888482395,414,"75 EAST 7200 SOUTH SUITE C 111, MIDVALE, UT, 84047","Match","Exact","75 E 7200 S, MIDVALE, UT, 84047",176155777,"L"
285415,"75 EAST 93RD STREET","NEW YORK","NY",10128,40.7849641020001,-73.954759058,415,"75 EAST 93RD STREET, NEW YORK, NY, 10128","Match","Exact","75 E 93RD ST, NEW YORK, NY, 10128",59657837,"L"
285416,"75 EAST BROADWAY STREET","FORT MEADE","FL",33841,27.75205521,-81.8004985279999,416,"75 EAST BROADWAY STREET, FORT MEADE, FL, 33841","Match","Exact","75 E BROADWAY ST, FORT MEADE, FL, 33841",104834045,"L"
285417,"75 EAST END AVE 4E","NEW YORK","NY",10028,40.7728666630001,-73.9462713789999,417,"75 EAST END AVE 4E, NEW YORK, NY, 10028","Match","Exact","75 E END AVE, NEW YORK, NY, 10028",59658413,"R"
285418,"75 EAST MAIDEN STREET SUITE 208","WASHINGTON","PA",15301,40.1681123110001,-80.2426961479999,418,"75 EAST MAIDEN STREET SUITE 208, WASHINGTON, PA, 15301","Match","Exact","75 E MAIDEN ST, WASHINGTON, PA, 15301",52803404,"L"
285419,"75 EAST MARKET STREET","AKRON","OH",44308,41.084819026,-81.5155545219999,419,"75 EAST MARKET STREET, AKRON, OH, 44308","Match","Exact","75 E MARKET ST, AKRON, OH, 44308",61341638,"L"
285420,"75 EAST MARKET STREET","BETHLEHEM","PA",18018,40.6206860710001,-75.376152625,420,"75 EAST MARKET STREET, BETHLEHEM, PA, 18018","Match","Exact","75 E MARKET ST, BETHLEHEM, PA, 18018",136885039,"L"
285421,"75 EAST SANTA CLARA STREET STE 1175","SAN JOSE","CA",95113,37.336926986,-121.888986143,421,"75 EAST SANTA CLARA STREET STE 1175, SAN JOSE, CA, 95113","Match","Exact","75 E SANTA CLARA ST, SAN JOSE, CA, 95113",122907929,"L"
285422,"75 EISENHOWER PARKWAY STE 201","ROSELAND","NJ",7068,NA,NA,422,"75 EISENHOWER PARKWAY STE 201, ROSELAND, NJ, 7068","No_Match",NA,NA,NA,NA
285423,"75 ELLENWOOD AVENUE","BEDFORD","OH",44146,41.399446787,-81.5413499919999,423,"75 ELLENWOOD AVENUE, BEDFORD, OH, 44146","Match","Exact","75 ELLENWOOD AVE, BEDFORD, OH, 44146",638511676,"L"
285424,"75 FAIR STREET APT 4-A","HACKENSACK","NJ",7601,40.8756878390001,-74.046829155,424,"75 FAIR STREET APT 4-A, HACKENSACK, NJ, 7601","Match","Exact","75 FAIR ST, HACKENSACK, NJ, 07601",64386446,"R"
285425,"75 FARM DR","MANCHESTER","CT",6040,41.7613006080001,-72.5359749,425,"75 FARM DR, MANCHESTER, CT, 6040","Match","Exact","75 FARM DR, MANCHESTER, CT, 06040",3537236,"R"
285426,"75 FARMINGTON VALLEY DR","PLAINVILLE","CT",6062,41.693304525,-72.8610102649999,426,"75 FARMINGTON VALLEY DR, PLAINVILLE, CT, 6062","Match","Exact","75 FARMINGTON VALLEY DR, PLAINVILLE, CT, 06062",3540790,"L"
285427,"75 FERRY HILL DRIVE","SOMERSET","KY",42503,37.0205643200001,-84.6628419199999,427,"75 FERRY HILL DRIVE, SOMERSET, KY, 42503","Match","Exact","75 FERRY HILL DR, SOMERSET, KY, 42503",635111961,"R"
285428,"75 FLAMEHILL ROAD","LEVITTOWN","PA",19056,40.160865093,-74.881806389,428,"75 FLAMEHILL ROAD, LEVITTOWN, PA, 19056","Match","Exact","75 FLAMEHILL RD, LEVITTOWN, PA, 19056",134713343,"L"
285429,"75 FOURTEENTH STREET SUITE 2200","ATLANTA","GA",30309,NA,NA,429,"75 FOURTEENTH STREET SUITE 2200, ATLANTA, GA, 30309","Tie",NA,NA,NA,NA
285430,"75 FRANKLIN STREET ROOM 204","SACO","ME",4072,43.5089251210001,-70.4535989519999,430,"75 FRANKLIN STREET ROOM 204, SACO, ME, 4072","Match","Exact","75 FRANKLIN ST, SACO, ME, 04072",636214704,"R"
285431,"75 FRMONT DR","SONOMA","CA",95476,38.237112451,-122.458685858,431,"75 FRMONT DR, SONOMA, CA, 95476","Match","Non_Exact","75 FREMONT DR, SONOMA, CA, 95476",67531442,"L"
285432,"75 GABLES BLVD","WESTON","FL",33326,26.12747904,-80.3781229699999,432,"75 GABLES BLVD, WESTON, FL, 33326","Match","Exact","75 GABLES BLVD, WESTON, FL, 33326",638058843,"R"
285433,"75 GARRISON LOOP","LADERA RANCH","CA",92694,33.5609196820001,-117.648618395,433,"75 GARRISON LOOP, LADERA RANCH, CA, 92694","Match","Exact","75 GARRISON LOOP, LADERA RANCH, CA, 92694",608141127,"R"
285434,"75 GEORGETOWN DRIVE APT 10","FRAMINGHAM","MA",1702,42.2961318440001,-71.4224203209999,434,"75 GEORGETOWN DRIVE APT 10, FRAMINGHAM, MA, 1702","Match","Exact","75 GEORGETOWN DR, FRAMINGHAM, MA, 01702",86913698,"R"
285435,"75 GOOSE HILL RD","COLD SPRING HARBOR","NY",11724,40.880089911,-73.4503819999999,435,"75 GOOSE HILL RD, COLD SPRING HARBOR, NY, 11724","Match","Exact","75 GOOSE HILL RD, COLD SPRING HARBOR, NY, 11724",114048116,"L"
285436,"75 GOOSEHILL RD","COLD SPRING HARBOR","NY",11724,40.880089911,-73.4503819999999,436,"75 GOOSEHILL RD, COLD SPRING HARBOR, NY, 11724","Match","Non_Exact","75 GOOSE HILL RD, COLD SPRING HARBOR, NY, 11724",114048116,"L"
285437,"75 GREEN LANE DRIVE","KENTS STORE","VA",23084,37.9089994190001,-78.0716316039999,437,"75 GREEN LANE DRIVE, KENTS STORE, VA, 23084","Match","Exact","75 GREEN LANE DR, KENTS STORE, VA, 23084",641285266,"L"
285438,"75 GREENWOOD HEIGHTS DRIVE","EUREKA","CA",95503,40.7853604270001,-124.083135138,438,"75 GREENWOOD HEIGHTS DRIVE, EUREKA, CA, 95503","Match","Exact","75 GREENWOOD HEIGHTS DR, EUREKA, CA, 95503",645258805,"L"
285439,"75 GROVE STREET UNIT 226","WELLESLEY","MA",2482,42.2940037590001,-71.291233411,439,"75 GROVE STREET UNIT 226, WELLESLEY, MA, 2482","Match","Exact","75 GROVE ST, WELLESLEY, MA, 02482",87308083,"R"
285440,"75 HAGAN STREET","PROVIDENCE","RI",2904,41.856820235,-71.423773435,440,"75 HAGAN STREET, PROVIDENCE, RI, 2904","Match","Exact","75 HAGAN ST, PROVIDENCE, RI, 02904",47457739,"R"
285441,"75 HARDWOOD DRIVE","FRANKLINTON","NC",27525,36.1395907,-78.5114669439999,441,"75 HARDWOOD DRIVE, FRANKLINTON, NC, 27525","Match","Exact","75 HARDWOOD DR, FRANKLINTON, NC, 27525",90248475,"L"
285442,"75 HAWTHORNE ROAD","ROCKY POINT","NY",11778,40.9550146490001,-72.931931886,442,"75 HAWTHORNE ROAD, ROCKY POINT, NY, 11778","Match","Exact","75 HAWTHORNE RD, ROCKY POINT, NY, 11778",114011516,"R"
285443,"75 HAYWOOD STREET    G4","ASHEVILLE","NC",28801,35.5968629060001,-82.555598372,443,"75 HAYWOOD STREET    G4, ASHEVILLE, NC, 28801","Match","Exact","75 HAYWOOD ST, ASHEVILLE, NC, 28801",36896757,"R"
285444,"75 HILL N DALE RD","MOREHEAD","KY",40351,38.1603598030001,-83.454182195,444,"75 HILL N DALE RD, MOREHEAD, KY, 40351","Match","Exact","75 HILL N DALE RD, MOREHEAD, KY, 40351",617659521,"L"
285445,"75 HILLSIDE AVE","ROWLEY","MA",1969,42.7294733700001,-70.913087278,445,"75 HILLSIDE AVE, ROWLEY, MA, 1969","Match","Non_Exact","75 HILLSIDE ST, ROWLEY, MA, 01969",86709393,"L"
285446,"75 HOCKANUM BLVD UNIT 2937","VERNON","CT",6066,41.8423008880001,-72.4953943089999,446,"75 HOCKANUM BLVD UNIT 2937, VERNON, CT, 6066","Match","Exact","75 HOCKANUM BLVD, VERNON, CT, 06066",627256190,"L"
285447,"75 HOLWAY RD","SIDNEY","ME",4330,44.4158194330001,-69.763421581,447,"75 HOLWAY RD, SIDNEY, ME, 4330","Match","Exact","75 HOLWAY RD, SIDNEY, ME, 04330",75479338,"R"
285448,"75 HORTON AVENUE","VALLEY STREAM","NY",11581,40.65333551,-73.6918306269999,448,"75 HORTON AVENUE, VALLEY STREAM, NY, 11581","Match","Exact","75 HORTON AVE, VALLEY STREAM, NY, 11581",147670419,"R"
285449,"75 HUDSON CRT","SAN FRANCISCO","CA",94124,37.7325133210001,-122.379306737,449,"75 HUDSON CRT, SAN FRANCISCO, CA, 94124","Match","Exact","75 HUDSON CT, SAN FRANCISCO, CA, 94124",192291222,"L"
285450,"75 HUNT STREET","FAIRFAX","VT",5478,44.81053623,-73.0915456,450,"75 HUNT STREET, FAIRFAX, VT, 5478","Match","Non_Exact","75 HUNT ST, SAINT ALBANS, VT, 05478",136522201,"L"
285451,"75 JORDAN AVE","BRUNSWICK","ME",4011,43.915394812,-69.953330998,451,"75 JORDAN AVE, BRUNSWICK, ME, 4011","Match","Exact","75 JORDAN AVE, BRUNSWICK, ME, 04011",78007630,"R"
285452,"75 LAKESHORE DR","BELLINGHAM","MA",2019,42.0516702240001,-71.4963278279999,452,"75 LAKESHORE DR, BELLINGHAM, MA, 2019","Match","Exact","75 LAKESHORE DR, BELLINGHAM, MA, 02019",87333004,"R"
285453,"75 LAUREL STREET","CONCORD","MA",1742,42.455633123,-71.346943165,453,"75 LAUREL STREET, CONCORD, MA, 1742","Match","Exact","75 LAUREL ST, CONCORD, MA, 01742",86845009,"R"
285454,"75 LEARNING DRIVE","GRANTHAM","NH",3753,43.4905467990001,-72.13382804,454,"75 LEARNING DRIVE, GRANTHAM, NH, 3753","Match","Exact","75 LEARNING DR, GRANTHAM, NH, 03753",124340982,"L"
285455,"75 LEBANON AVE","PITTSFIELD","MA",1201,42.4374693410001,-73.300142974,455,"75 LEBANON AVE, PITTSFIELD, MA, 1201","Match","Exact","75 LEBANON AVE, PITTSFIELD, MA, 01201",3920161,"L"
285456,"75 LERAS WAY","SOMERSET","KY",42501,37.1047500620001,-84.546743323,456,"75 LERAS WAY, SOMERSET, KY, 42501","Match","Exact","75 LERAS WAY, SOMERSET, KY, 42501",39089668,"R"
285457,"75 LONGVIEW DR","LITTLETON","NC",27850,36.4856288980001,-77.874341403,457,"75 LONGVIEW DR, LITTLETON, NC, 27850","Match","Exact","75 LONGVIEW DR, LITTLETON, NC, 27850",56730004,"R"
285458,"75 LOWREY PLACE","NEWINGTON","CT",6131,NA,NA,458,"75 LOWREY PLACE, NEWINGTON, CT, 6131","No_Match",NA,NA,NA,NA
285459,"75 LYNN STREET","OXFORD","OH",45056,39.5096204280001,-84.7508672,459,"75 LYNN STREET, OXFORD, OH, 45056","Match","Exact","75 LYNN ST, OXFORD, OH, 45056",113786124,"R"
285460,"75 MAIN ST STE 199","NORWALK","CT",6851,41.1215428130001,-73.413553829,460,"75 MAIN ST STE 199, NORWALK, CT, 6851","Match","Exact","75 MAIN ST, NORWALK, CT, 06851",618526694,"L"
285461,"75 MAIN STREET SUITE 186","NORWALK","CT",6851,41.1215428130001,-73.413553829,461,"75 MAIN STREET SUITE 186, NORWALK, CT, 6851","Match","Exact","75 MAIN ST, NORWALK, CT, 06851",618526694,"L"
285462,"75 MAIN STREET","ATTICA","NY",14011,42.8640138120001,-78.2807522529999,462,"75 MAIN STREET, ATTICA, NY, 14011","Match","Exact","75 MAIN ST, ATTICA, NY, 14011",48873162,"R"
285463,"75 MANOR RD","CHERAW","SC",29520,34.670884212,-79.903679241,463,"75 MANOR RD, CHERAW, SC, 29520","Match","Exact","75 MANOR RD, CHERAW, SC, 29520",14331669,"L"
285464,"75 MANOR RD","HUNTINGTON","NY",11743,40.848217445,-73.3568338969999,464,"75 MANOR RD, HUNTINGTON, NY, 11743","Match","Exact","75 MANOR RD, HUNTINGTON, NY, 11743",636800241,"R"
285465,"75 MARIETTA ST","ATLANTA","GA",30303,33.7561408930001,-84.391803271,465,"75 MARIETTA ST, ATLANTA, GA, 30303","Match","Exact","75 MARIETTA ST, ATLANTA, GA, 30303",17344115,"R"
285466,"75 MARIETTA STREET","ATLANTA","GA",30303,33.7561408930001,-84.391803271,466,"75 MARIETTA STREET, ATLANTA, GA, 30303","Match","Exact","75 MARIETTA ST, ATLANTA, GA, 30303",17344115,"R"
285467,"75 MARKET STREET","MIFFLINBURG","PA",17844,40.919863891,-77.038703868,467,"75 MARKET STREET, MIFFLINBURG, PA, 17844","Match","Exact","75 MARKET ST, MIFFLINBURG, PA, 17844",48186548,"R"
285468,"75 MARSH RD","EGG HARBOR TWP","NJ",8234,39.3700298680001,-74.5914446909999,468,"75 MARSH RD, EGG HARBOR TWP, NJ, 8234","Match","Exact","75 MARSH RD, EGG HARBOR TOWNSHIP, NJ, 08234",202522586,"L"
285469,"75 MARSH ST","BELMONT","MA",2478,42.4070514050001,-71.1845348319999,469,"75 MARSH ST, BELMONT, MA, 2478","Match","Exact","75 MARSH ST, BELMONT, MA, 02478",645276502,"R"
285470,"75 MARSH STREET","BELMONT","MA",2478,42.4070514050001,-71.1845348319999,470,"75 MARSH STREET, BELMONT, MA, 2478","Match","Exact","75 MARSH ST, BELMONT, MA, 02478",645276502,"R"
285471,"75 MARTENSE ST 6G","NEW YORK","NY",11226,40.651346888,-73.9565065579999,471,"75 MARTENSE ST 6G, NEW YORK, NY, 11226","Match","Non_Exact","75 MARTENSE ST, BROOKLYN, NY, 11226",59096145,"L"
285472,"75 MARTENSE STREET STE 3D","BROOKLYN","NY",11226,40.651346888,-73.9565065579999,472,"75 MARTENSE STREET STE 3D, BROOKLYN, NY, 11226","Match","Exact","75 MARTENSE ST, BROOKLYN, NY, 11226",59096145,"L"
285473,"75 MARTENSE STREET SUITE 5D","BROOKLYN","NY",11226,40.651346888,-73.9565065579999,473,"75 MARTENSE STREET SUITE 5D, BROOKLYN, NY, 11226","Match","Exact","75 MARTENSE ST, BROOKLYN, NY, 11226",59096145,"L"
285474,"75 MCCABE DRIVE UNIT 19232","RENO","NV",89511,39.426429694,-119.762988801,474,"75 MCCABE DRIVE UNIT 19232, RENO, NV, 89511","Match","Exact","75 MCCABE DR, RENO, NV, 89511",638296678,"R"
285475,"75 MELROSE STREET","STARKVILLE","MS",39759,33.4704283450001,-88.7184678369999,475,"75 MELROSE STREET, STARKVILLE, MS, 39759","Match","Exact","75 MELROSE ST, STARKVILLE, MS, 39759",799236,"L"
285476,"75 MESSENGER ST","SAINT ALBANS","VT",5478,44.818773885,-73.079468478,476,"75 MESSENGER ST, SAINT ALBANS, VT, 5478","Match","Exact","75 MESSENGER ST, SAINT ALBANS, VT, 05478",136516087,"R"
285477,"75 MESSIER ROAD","NORTH GROSVENORDALE","CT",6255,41.9464912020001,-71.9177964629999,477,"75 MESSIER ROAD, NORTH GROSVENORDALE, CT, 6255","Match","Exact","75 MESSIER RD, NORTH GROSVENORDALE, CT, 06255",633049254,"L"
285478,"75 MONTGOMERY ST TOP FL","JERSEY CITY","NJ",7302,40.7168777470001,-74.037771764,478,"75 MONTGOMERY ST TOP FL, JERSEY CITY, NJ, 7302","Match","Exact","75 MONTGOMERY ST, JERSEY CITY, NJ, 07302",59606329,"L"
285479,"75 MOUNTAIN STREET","SHARON","MA",2067,42.107530775,-71.1642774169999,479,"75 MOUNTAIN STREET, SHARON, MA, 2067","Match","Exact","75 MOUNTAIN ST, SHARON, MA, 02067",87309918,"L"
285480,"75 N BRIDGE ST NUM 77","SOMERVILLE","NJ",8876,NA,NA,480,"75 N BRIDGE ST NUM 77, SOMERVILLE, NJ, 8876","Tie",NA,NA,NA,NA
285481,"75 N BROADWAY","AURORA","IL",60505,41.758561968,-88.311587978,481,"75 N BROADWAY, AURORA, IL, 60505","Match","Exact","75 N BROADWAY, AURORA, IL, 60505",119515727,"R"
285482,"75 N MAIN ST","SPRING VALLEY","NY",10977,41.1139205490001,-74.044556417,482,"75 N MAIN ST, SPRING VALLEY, NY, 10977","Match","Exact","75 N MAIN ST, SPRING VALLEY, NY, 10977",124593630,"L"
285483,"75 N MAIN STREET - STORE 4","SPRING VALLEY","NY",10977,NA,NA,483,"75 N MAIN STREET - STORE 4, SPRING VALLEY, NY, 10977","Tie",NA,NA,NA,NA
285484,"75 N MAIN STREET STORE  4","SPRING VALLEY","NY",10977,NA,NA,484,"75 N MAIN STREET STORE  4, SPRING VALLEY, NY, 10977","Tie",NA,NA,NA,NA
285485,"75 N ORLANDO AVE","COCOA BEACH","FL",32931,28.3197257530001,-80.6100306179999,485,"75 N ORLANDO AVE, COCOA BEACH, FL, 32931","Match","Exact","75 N ORLANDO AVE, COCOA BEACH, FL, 32931",93899506,"R"
285486,"75 N SHERMAN ST","DENVER","CO",80203,39.717833453,-104.98500949,486,"75 N SHERMAN ST, DENVER, CO, 80203","Match","Exact","75 SHERMAN ST, DENVER, CO, 80203",177331592,"L"
285487,"75 N VALLE VERDE DR APT 311","HENDERSON","NV",89074,36.031859878,-115.063874013,487,"75 N VALLE VERDE DR APT 311, HENDERSON, NV, 89074","Match","Non_Exact","75 N VALLE VERDE DR, HENDERSON, NV, 89074",201977812,"L"
285488,"75 N WHITTIER PL","INDIANAPOLIS","IN",46219,39.771334806,-86.075008436,488,"75 N WHITTIER PL, INDIANAPOLIS, IN, 46219","Match","Exact","75 N WHITTIER PL, INDIANAPOLIS, IN, 46219",108001480,"R"
285489,"75 N WOODWARD AVE 64321","TALLAHASSEE","FL",32313,NA,NA,489,"75 N WOODWARD AVE 64321, TALLAHASSEE, FL, 32313","No_Match",NA,NA,NA,NA
285490,"75 NAVY STREET  APT 107","HANCOCK","MI",49930,47.124975964,-88.5787315489999,490,"75 NAVY STREET  APT 107, HANCOCK, MI, 49930","Match","Exact","75 NAVY ST, HANCOCK, MI, 49930",184129039,"R"
285491,"75 NEARWATER LANE","DARIEN","CT",6820,41.054179806,-73.488420681,491,"75 NEARWATER LANE, DARIEN, CT, 6820","Match","Exact","75 NEARWATER LN, DARIEN, CT, 06820",653168445,"R"
285492,"75 NIAGARA SHORE DR","TONAWANDA","NY",14150,43.021297207,-78.8846366879999,492,"75 NIAGARA SHORE DR, TONAWANDA, NY, 14150","Match","Exact","75 NIAGARA SHORE DR, TONAWANDA, NY, 14150",645418422,"R"
285493,"75 NORTH MIDDLETOWN ROAD","NANUET","NY",10954,41.1020958240001,-74.010415568,493,"75 NORTH MIDDLETOWN ROAD, NANUET, NY, 10954","Match","Exact","75 N MIDDLETOWN RD, NANUET, NY, 10954",124627682,"L"
285494,"75 NORTHEAST 15TH STREET","HOMESTEAD","FL",33030,25.4844762380001,-80.475818112,494,"75 NORTHEAST 15TH STREET, HOMESTEAD, FL, 33030","Match","Exact","75 NE 15TH ST, HOMESTEAD, FL, 33030",115991589,"L"
285495,"75 NORTHGATE AVE","BERKELEY","CA",94708,37.8859375430001,-122.256364697,495,"75 NORTHGATE AVE, BERKELEY, CA, 94708","Match","Exact","75 NORTHGATE AVE, BERKELEY, CA, 94708",124998259,"L"
285496,"75 NW 167TH ST","NORTH MIAMI BEACH","FL",33169,25.9280471870001,-80.201784977,496,"75 NW 167TH ST, NORTH MIAMI BEACH, FL, 33169","Match","Non_Exact","75 NE 167TH ST, N MIAMI BEACH, FL, 33169",116031018,"R"
285497,"75 NW 167TH STREET","MIAMI","FL",33169,25.9280471870001,-80.201784977,497,"75 NW 167TH STREET, MIAMI, FL, 33169","Match","Non_Exact","75 NE 167TH ST, MIAMI, FL, 33169",116031018,"R"
285498,"75 NW 167TH STREET","N MIAMI BEACH","FL",33169,25.9280471870001,-80.201784977,498,"75 NW 167TH STREET, N MIAMI BEACH, FL, 33169","Match","Non_Exact","75 NE 167TH ST, N MIAMI BEACH, FL, 33169",116031018,"R"
285499,"75 OAK STREET","HARWICH","MA",2645,41.6899415460001,-70.070600725,499,"75 OAK STREET, HARWICH, MA, 2645","Match","Exact","75 OAK ST, HARWICH, MA, 02645",121598242,"R"
285500,"75 OAKCREST LANE","AIKEN","SC",29803,33.4386196020001,-81.8045510749999,500,"75 OAKCREST LANE, AIKEN, SC, 29803","Match","Exact","75 OAKCREST LN, AIKEN, SC, 29803",65011851,"L"
