"ID","Address","City","State","Zip","lat","long","id","input_address","match_indicator","match_type","matched_address","tiger_line_id","tiger_side"
284501,"7422 LEAHY ROAD","NEW CARROLLTON","MD",20784,38.972254579,-76.8857337589999,1,"7422 LEAHY ROAD, NEW CARROLLTON, MD, 20784","Match","Exact","7422 LEAHY RD, NEW CARROLLTON, MD, 20784",76308152,"L"
284502,"7422 NORMA JEAN DR","INDIANAPOLIS","IN",46259,39.64694381,-86.0358573619999,2,"7422 NORMA JEAN DR, INDIANAPOLIS, IN, 46259","Match","Exact","7422 NORMA JEAN DR, INDIANAPOLIS, IN, 46259",108067709,"R"
284503,"7422 SIRIUS MESA","SAN ANTONIO","TX",78252,29.353683082,-98.641873579,3,"7422 SIRIUS MESA, SAN ANTONIO, TX, 78252","Match","Exact","7422 SIRIUS MESA, SAN ANTONIO, TX, 78252",637816444,"R"
284504,"7422 SMOOTHBORE LANE","MECHANICSVILLE","VA",23116,37.644796344,-77.3520186649999,4,"7422 SMOOTHBORE LANE, MECHANICSVILLE, VA, 23116","Match","Exact","7422 SMOOTHBORE LN, MECHANICSVILLE, VA, 23116",84994705,"L"
284505,"7422 VARNA AVE","NORTH HOLLYWOOD","CA",91605,34.2053450510001,-118.424702148,5,"7422 VARNA AVE, NORTH HOLLYWOOD, CA, 91605","Match","Exact","7422 VARNA AVE, N HOLLYWOOD, CA, 91605",141552399,"R"
284506,"7423 HICKORY  LOG CIRCLE","COLUMBIA","MD",21045,39.187256975,-76.8489625989999,6,"7423 HICKORY  LOG CIRCLE, COLUMBIA, MD, 21045","Match","Exact","7423 HICKORY LOG CIR, COLUMBIA, MD, 21045",158925958,"R"
284507,"7423 MARIGOLD DRIVE","IRVING","TX",75063,32.9074105760001,-96.970336991,7,"7423 MARIGOLD DRIVE, IRVING, TX, 75063","Match","Exact","7423 MARIGOLD DR, IRVING, TX, 75063",102993852,"R"
284508,"7423 NICHOLFOREST LANE","SPRING","TX",77389,30.1356422210001,-95.535889712,8,"7423 NICHOLFOREST LANE, SPRING, TX, 77389","Match","Exact","7423 NICHOLFOREST LN, SPRING, TX, 77389",96169588,"L"
284509,"7423 OLD MAPLE SQUARE","MCLEAN","VA",22102,38.9332602260001,-77.199643322,9,"7423 OLD MAPLE SQUARE, MCLEAN, VA, 22102","Match","Exact","7423 OLD MAPLE SQ, MCLEAN, VA, 22102",76042439,"L"
284510,"7423 OXFORD AVENUE","PHILADELPHIA","PA",19111,40.064234593,-75.083511632,10,"7423 OXFORD AVENUE, PHILADELPHIA, PA, 19111","Match","Exact","7423 OXFORD AVE, PHILADELPHIA, PA, 19111",131415480,"R"
284511,"7423 RAVINE RD","KALAMAZOO","MI",49009,42.367401676,-85.676777387,11,"7423 RAVINE RD, KALAMAZOO, MI, 49009","Match","Exact","7423 RAVINE RD, KALAMAZOO, MI, 49009",12237634,"R"
284512,"7423 RIVERSHORE DRIVE","SEAFORD","DE",19973,38.621924576,-75.622783152,12,"7423 RIVERSHORE DRIVE, SEAFORD, DE, 19973","Match","Exact","7423 RIVERSHORE DR, SEAFORD, DE, 19973",625712002,"L"
284513,"7423 S QUAIL CIR UNIT 1512","LITTLETON","CO",80127,39.58275544,-105.123297719,13,"7423 S QUAIL CIR UNIT 1512, LITTLETON, CO, 80127","Match","Non_Exact","7423 S QUAIL CIR, LITTLETON, CO, 80127",177764523,"L"
284514,"7423 TANGLEWOOD CT","WICHITA","KS",67206,37.69190028,-97.250992046,14,"7423 TANGLEWOOD CT, WICHITA, KS, 67206","Match","Non_Exact","7423 E TANGLEWOOD CT, WICHITA, KS, 67206",115640456,"R"
284515,"7423 TARTAR COURT","JACKSONVILLE","FL",32244,30.2070836990001,-81.7668107,15,"7423 TARTAR COURT, JACKSONVILLE, FL, 32244","Match","Exact","7423 TARTAR CT, JACKSONVILLE, FL, 32244",83939829,"L"
284516,"7423 W ARCHER AVE","SUMMIT","IL",60501,41.7917157320001,-87.807510324,16,"7423 W ARCHER AVE, SUMMIT, IL, 60501","Match","Non_Exact","7423 ARCHER AVE, SUMMIT, IL, 60501",111796329,"L"
284517,"7423 W MANCHESTER AVE APT 4","LOS ANGELES","CA",90045,33.9598321340001,-118.426937039,17,"7423 W MANCHESTER AVE APT 4, LOS ANGELES, CA, 90045","Match","Non_Exact","7423 W MANCHESTER AVE, LOS ANGELES, CA, 90045",241170027,"R"
284518,"74230 CANDLEWOOD ST UNIT A","PALM DESERT","CA",92260,33.717578738,-116.369481024,18,"74230 CANDLEWOOD ST UNIT A, PALM DESERT, CA, 92260","Match","Exact","74230 CANDLEWOOD ST, PALM DESERT, CA, 92260",194770823,"L"
284519,"7424 CHARRINGTON CT","INDIANAPOLIS","IN",46254,39.83930193,-86.2921137289999,19,"7424 CHARRINGTON CT, INDIANAPOLIS, IN, 46254","Match","Exact","7424 CHARRINGTON CT, INDIANAPOLIS, IN, 46254",108034631,"L"
284520,"7424 E MOTT AVENUE","FOWLER","CA",93625,36.6235356290001,-119.656449091,20,"7424 E MOTT AVENUE, FOWLER, CA, 93625","Match","Exact","7424 E MOTT AVE, FOWLER, CA, 93625",197588096,"L"
284521,"7424 GREENVILLE RD SUITE 104","DALLAS","TX",75231,32.8808455340001,-96.7597748329999,21,"7424 GREENVILLE RD SUITE 104, DALLAS, TX, 75231","Match","Non_Exact","7424 GREENVILLE AVE, DALLAS, TX, 75231",637929368,"L"
284522,"7424 JACKSON DRIVE SUITE 1B","SAN DIEGO","CA",92119,32.8028997000001,-117.045232172,22,"7424 JACKSON DRIVE SUITE 1B, SAN DIEGO, CA, 92119","Match","Exact","7424 JACKSON DR, SAN DIEGO, CA, 92119",195323337,"L"
284523,"7424 LOCAL HILLSBORO RD","CEDAR HILL","MO",63016,38.3441202280001,-90.605947307,23,"7424 LOCAL HILLSBORO RD, CEDAR HILL, MO, 63016","Match","Exact","7424 LOCAL HILLSBORO RD, CEDAR HILL, MO, 63016",62800070,"R"
284524,"7424 N WABASH AVE","KANSAS CITY","KS",64118,NA,NA,24,"7424 N WABASH AVE, KANSAS CITY, KS, 64118","No_Match",NA,NA,NA,NA
284525,"7424 SOUTH UNIVERSITY BLVD STE E230","CENTENNIAL","CO",80122,39.582823508,-104.960246434,25,"7424 SOUTH UNIVERSITY BLVD STE E230, CENTENNIAL, CO, 80122","Match","Exact","7424 S UNIVERSITY BLVD, CENTENNIAL, CO, 80122",639026004,"L"
284526,"7424 W WILSHIRE DR","BOISE","ID",83704,43.620820458,-116.274663135,26,"7424 W WILSHIRE DR, BOISE, ID, 83704","Match","Exact","7424 WILSHIRE DR, BOISE, ID, 83704",117862015,"R"
284527,"7424 WILLOW CREEK DR","YPSILANTI","MI",48197,42.1819135640001,-83.613556337,27,"7424 WILLOW CREEK DR, YPSILANTI, MI, 48197","Match","Exact","7424 WILLOW CREEK DR, YPSILANTI, MI, 48197",26040058,"R"
284528,"7425 BODEGA AVE","SEBASTOPOL","CA",95472,38.401013307,-122.827313743,28,"7425 BODEGA AVE, SEBASTOPOL, CA, 95472","Match","Exact","7425 BODEGA AVE, SEBASTOPOL, CA, 95472",67465140,"L"
284529,"7425 DOMINICO ST","BOCA RATON","FL",33433,26.345011001,-80.161091448,29,"7425 DOMINICO ST, BOCA RATON, FL, 33433","Match","Exact","7425 DOMINICO ST, BOCA RATON, FL, 33433",115574531,"R"
284530,"7425 EWING AVE","FORT WORTH","TX",76116,32.707218314,-97.4433773809999,30,"7425 EWING AVE, FORT WORTH, TX, 76116","Match","Exact","7425 EWING AVE, FORT WORTH, TX, 76116",101878961,"L"
284531,"7425 HARWOOD AVE","WAUWATOSA","WI",53213,43.0511520740001,-88.005462471,31,"7425 HARWOOD AVE, WAUWATOSA, WI, 53213","Match","Exact","7425 HARWOOD AVE, WAUWATOSA, WI, 53213",639919648,"L"
284532,"7425 HEYWOOD DRIVE","SAINT LOUIS","MO",63133,NA,NA,32,"7425 HEYWOOD DRIVE, SAINT LOUIS, MO, 63133","No_Match",NA,NA,NA,NA
284533,"7425 LOBLOLLY ROAD","LYNCHBURG","SC",29080,33.966345937,-80.0851977299999,33,"7425 LOBLOLLY ROAD, LYNCHBURG, SC, 29080","Match","Exact","7425 LOBLOLLY RD, LYNCHBURG, SC, 29080",202674129,"R"
284534,"7425 MARTIN LUTHER KING BLVD","HOUSTON","TX",77033,29.674105325,-95.336399045,34,"7425 MARTIN LUTHER KING BLVD, HOUSTON, TX, 77033","Match","Exact","7425 MARTIN LUTHER KING JR BLVD, HOUSTON, TX, 77033",96089679,"L"
284535,"7425 MISTY VIEW PLACE","RIVERSIDE","CA",92506,33.917854871,-117.359353847,35,"7425 MISTY VIEW PLACE, RIVERSIDE, CA, 92506","Match","Non_Exact","7425 MISTYVIEW PL, RIVERSIDE, CA, 92506",624976632,"L"
284536,"7425 N 75TH DRIVE","GLENDALE","AZ",85303,33.544106083,-112.221187118,36,"7425 N 75TH DRIVE, GLENDALE, AZ, 85303","Match","Exact","7425 75TH DR, GLENDALE, AZ, 85303",128844860,"L"
284537,"7425 OLD YORK ROAD SUITE 240","ELKINS PARK","PA",19027,40.063935585,-75.135502607,37,"7425 OLD YORK ROAD SUITE 240, ELKINS PARK, PA, 19027","Match","Exact","7425 YORK RD, ELKINS PARK, PA, 19027",605694807,"R"
284538,"7425 S WOLF ROAD","BURR RIDGE","IL",60527,41.7547557710001,-87.896393958,38,"7425 S WOLF ROAD, BURR RIDGE, IL, 60527","Match","Exact","7425 WOLF RD, BURR RIDGE, IL, 60527",111807010,"L"
284539,"7425 TUFTS COURT","RLANDO","FL",32807,28.5806858500001,-81.289585221,39,"7425 TUFTS COURT, RLANDO, FL, 32807","Match","Non_Exact","7425 TUFTS CT, ORLANDO, FL, 32807",94292800,"L"
284540,"7425 WEST BRIDGEWAY","WEST BLOOMFIELD","MI",48322,42.5289802410001,-83.374624942,40,"7425 WEST BRIDGEWAY, WEST BLOOMFIELD, MI, 48322","Match","Non_Exact","7425 W BRIDGE WAY RD, W BLOOMFIELD, MI, 48322",69722890,"L"
284541,"7425 WESTGREEN BLVD","CYPRESS","TX",77433,NA,NA,41,"7425 WESTGREEN BLVD, CYPRESS, TX, 77433","No_Match",NA,NA,NA,NA
284542,"7425 WOODBURY RD","LAINGSBURG","MI",48848,42.88327739,-84.3402549909999,42,"7425 WOODBURY RD, LAINGSBURG, MI, 48848","Match","Exact","7425 WOODBURY RD, LAINGSBURG, MI, 48848",23647161,"R"
284543,"7426 ASHTABULA STREET","ENGLEWOOD","FL",34224,26.918787992,-82.300079605,43,"7426 ASHTABULA STREET, ENGLEWOOD, FL, 34224","Match","Exact","7426 ASHTABULA ST, ENGLEWOOD, FL, 34224",4296389,"R"
284544,"7426 BRETTON OAKS STREET","LAS VEGAS","NV",89166,36.2969209780001,-115.318020859,44,"7426 BRETTON OAKS STREET, LAS VEGAS, NV, 89166","Match","Exact","7426 BRETTON OAKS ST, LAS VEGAS, NV, 89166",627162448,"R"
284545,"7426 BRIARPATCH LN","CINCINNATI","OH",45236,39.217549025,-84.367049763,45,"7426 BRIARPATCH LN, CINCINNATI, OH, 45236","Match","Exact","7426 BRIARPATCH LN, CINCINNATI, OH, 45236",103938854,"L"
284546,"7426 CHERRY AVE  SUITE 210 319","FONTANA","CA",92336,34.1190656810001,-117.488557333,46,"7426 CHERRY AVE  SUITE 210 319, FONTANA, CA, 92336","Match","Exact","7426 CHERRY AVE, FONTANA, CA, 92336",636686572,"R"
284547,"7426 CHERRY AVE 210 610","FONTANA","CA",92336,34.1190656810001,-117.488557333,47,"7426 CHERRY AVE 210 610, FONTANA, CA, 92336","Match","Exact","7426 CHERRY AVE, FONTANA, CA, 92336",636686572,"R"
284548,"7426 CHERRY AVE STE 210 410","FONTANA","CA",92336,34.1190656810001,-117.488557333,48,"7426 CHERRY AVE STE 210 410, FONTANA, CA, 92336","Match","Exact","7426 CHERRY AVE, FONTANA, CA, 92336",636686572,"R"
284549,"7426 CHERRY AVE SUITE 212","FONTANA","CA",92336,34.1190656810001,-117.488557333,49,"7426 CHERRY AVE SUITE 212, FONTANA, CA, 92336","Match","Exact","7426 CHERRY AVE, FONTANA, CA, 92336",636686572,"R"
284550,"7426 CHERRY AVENUE STE 210","FONTANA","CA",92336,34.1190656810001,-117.488557333,50,"7426 CHERRY AVENUE STE 210, FONTANA, CA, 92336","Match","Exact","7426 CHERRY AVE, FONTANA, CA, 92336",636686572,"R"
284551,"7426 CURRY","HOUSTON","TX",77093,29.8267434630001,-95.3376750309999,51,"7426 CURRY, HOUSTON, TX, 77093","Match","Non_Exact","7426 CURRY RD, HOUSTON, TX, 77093",96640327,"R"
284552,"7426 CYPRESS DRIVE","NEW PORT RICHEY","FL",34653,28.256680553,-82.691764559,52,"7426 CYPRESS DRIVE, NEW PORT RICHEY, FL, 34653","Match","Exact","7426 CYPRESS DR, NEW PORT RICHEY, FL, 34653",86337505,"R"
284553,"7426 DIBROVA DR","Brighton","MI",48116,42.494649828,-83.786977792,53,"7426 DIBROVA DR, Brighton, MI, 48116","Match","Exact","7426 DIBROVA DR, BRIGHTON, MI, 48116",23548408,"R"
284554,"7426 E STETSON DR UNIT 3038","SCOTTSDALE","AZ",85251,33.4995654030001,-111.920971753,54,"7426 E STETSON DR UNIT 3038, SCOTTSDALE, AZ, 85251","Match","Non_Exact","7426 E STETSON DR, SCOTTSDALE, AZ, 85251",128229507,"L"
284555,"7426 HILL STONE DR","LANDOVER","MD",20785,38.9027484170001,-76.878772517,55,"7426 HILL STONE DR, LANDOVER, MD, 20785","Match","Exact","7426 HILL STONE DR, LANDOVER, MD, 20785",76348064,"R"
284556,"7426 KALTON COURT","PIKESVILLE","MD",21208,39.3590963250001,-76.7327422339999,56,"7426 KALTON COURT, PIKESVILLE, MD, 21208","Match","Exact","7426 KALTON CT, PIKESVILLE, MD, 21208",191468535,"R"
284557,"7426 TIOGA LN","HIGHLAND","CA",92346,34.1188988270001,-117.149884918,57,"7426 TIOGA LN, HIGHLAND, CA, 92346","Match","Exact","7426 TIOGA LN, HIGHLAND, CA, 92346",624881742,"R"
284558,"7426 TORRESDALE AVENUE","PHILADELPHIA","PA",19136,40.0319041540001,-75.0317342129999,58,"7426 TORRESDALE AVENUE, PHILADELPHIA, PA, 19136","Match","Exact","7426 TORRESDALE AVE, PHILADELPHIA, PA, 19136",131435798,"L"
284559,"7427 CARIBOU TRAIL","RIVERDALE","GA",30296,33.552573227,-84.4274155749999,59,"7427 CARIBOU TRAIL, RIVERDALE, GA, 30296","Match","Exact","7427 CARIBOU TRL, RIVERDALE, GA, 30296",23319256,"L"
284560,"7427 COON ROAD","N FT MYERS","FL",33917,26.6934154470001,-81.850455494,60,"7427 COON ROAD, N FT MYERS, FL, 33917","Match","Exact","7427 COON RD, N FORT MYERS, FL, 33917",618029626,"L"
284561,"7427 E FERNDALE RD","ROCKVILLE","IN",47872,39.7194549600001,-87.1020064099999,61,"7427 E FERNDALE RD, ROCKVILLE, IN, 47872","Match","Exact","7427 FERNDALE RD, ROCKVILLE, IN, 47872",66404727,"L"
284562,"7427 HARBOR COVE LANE","STONE MOUNTAIN","GA",30087,33.7803510370001,-84.08459182,62,"7427 HARBOR COVE LANE, STONE MOUNTAIN, GA, 30087","Match","Exact","7427 HARBOR COVE LN, STONE MOUNTAIN, GA, 30087",23389117,"L"
284563,"7427 IDLEWILD STREET","PITTSBURGH","PA",15208,40.456882588,-79.890295086,63,"7427 IDLEWILD STREET, PITTSBURGH, PA, 15208","Match","Exact","7427 IDLEWILD ST, PITTSBURGH, PA, 15208",645567825,"L"
284564,"7427 IRICK CT","INDIANPOLIS","IN",46278,39.8878333550001,-86.276935956,64,"7427 IRICK CT, INDIANPOLIS, IN, 46278","Match","Non_Exact","7427 IRICK CT, INDIANAPOLIS, IN, 46278",647083017,"L"
284565,"7427 MATTHEWS MINT HILL RD 105-288","CHARLOTTE","NC",28227,35.175954173,-80.6534636379999,65,"7427 MATTHEWS MINT HILL RD 105-288, CHARLOTTE, NC, 28227","Match","Non_Exact","7427 MATTHEWS-MINT HILL RD, CHARLOTTE, NC, 28227",70496501,"L"
284566,"7427 MATTHEWS-MINT HILL RD 105-117","CHARLOTTE","NC",28227,35.175954173,-80.6534636379999,66,"7427 MATTHEWS-MINT HILL RD 105-117, CHARLOTTE, NC, 28227","Match","Exact","7427 MATTHEWS-MINT HILL RD, CHARLOTTE, NC, 28227",70496501,"L"
284567,"7427 SAINT DAVID ST","FAIRBURN","GA",30213,33.5820042080001,-84.625953888,67,"7427 SAINT DAVID ST, FAIRBURN, GA, 30213","Match","Exact","7427 ST DAVID ST, FAIRBURN, GA, 30213",629785897,"R"
284568,"7427 SW COHO CT  SUITE 200","TUALATIN","OR",97062,45.3771633920001,-122.752674437,68,"7427 SW COHO CT  SUITE 200, TUALATIN, OR, 97062","Match","Non_Exact","7427 SW COHO CT, TUALATIN, OR, 97062",158193130,"R"
284569,"7427 W US HWY 223","ADRIAN","MI",49221,41.9128026600001,-84.1367672439999,69,"7427 W US HWY 223, ADRIAN, MI, 49221","Match","Exact","7427 US HWY 223, ADRIAN, MI, 49221",25942014,"L"
284570,"7427 WESTMORELAND DRIVE","SARASOTA","FL",34243,27.4086744470001,-82.575331682,70,"7427 WESTMORELAND DRIVE, SARASOTA, FL, 34243","Match","Exact","7427 WESTMORELAND DR, SARASOTA, FL, 34243",16271780,"L"
284571,"7428 FALLEN TIMBER LANE","TEGA CAY","SC",29708,35.0484129180001,-81.0120308579999,71,"7428 FALLEN TIMBER LANE, TEGA CAY, SC, 29708","Match","Exact","7428 FALLEN TIMBER LN, TEGA CAY, SC, 29708",19837825,"R"
284572,"7428 JESSUP DR","MARRERO","LA",70072,29.889585966,-90.131186697,72,"7428 JESSUP DR, MARRERO, LA, 70072","Match","Exact","7428 JESSUP DR, MARRERO, LA, 70072",624849560,"L"
284573,"7428 UNBRIDLE WAY UNIT 304","CORDOVA","TN",38016,35.163311326,-89.8150888609999,73,"7428 UNBRIDLE WAY UNIT 304, CORDOVA, TN, 38016","Match","Exact","7428 UNBRIDLE WAY, CORDOVA, TN, 38016",72966043,"R"
284574,"7428 WILES RD","CORAL SPRINGS","FL",33067,26.2865755980001,-80.226620166,74,"7428 WILES RD, CORAL SPRINGS, FL, 33067","Match","Exact","7428 WILES RD, CORAL SPRINGS, FL, 33067",639370770,"L"
284575,"7429 ARTESIAN ROAD","SAN DIEGO","CA",92127,33.018978442,-117.170464025,75,"7429 ARTESIAN ROAD, SAN DIEGO, CA, 92127","Match","Exact","7429 ARTESIAN RD, SAN DIEGO, CA, 92127",195724246,"R"
284576,"7429 COCHISE BEND AVE","LAS VEGAS","NV",89113,36.0455697840001,-115.254245061,76,"7429 COCHISE BEND AVE, LAS VEGAS, NV, 89113","Match","Exact","7429 COCHISE BEND AVE, LAS VEGAS, NV, 89113",202003983,"L"
284577,"7429 CYPRESS GROVE CT","LAS VEGAS","NV",89129,36.2430821,-115.256915716,77,"7429 CYPRESS GROVE CT, LAS VEGAS, NV, 89129","Match","Exact","7429 CYPRESS GROVE CT, LAS VEGAS, NV, 89129",201906848,"L"
284578,"7429 HIGH LAKE DRIVE","ORLANDO","FL",32818,28.6008340600001,-81.487607629,78,"7429 HIGH LAKE DRIVE, ORLANDO, FL, 32818","Match","Exact","7429 HIGH LAKE DR, ORLANDO, FL, 32818",94342004,"R"
284579,"7429 LOST GROVE LANE","CORDOVA","TN",38016,35.16676082,-89.815506765,79,"7429 LOST GROVE LANE, CORDOVA, TN, 38016","Match","Exact","7429 LOST GROVE LN, CORDOVA, TN, 38016",611317787,"L"
284580,"7429 N LOMBARDY RD","MILWAUKEE","WI",53217,43.1521754,-87.90511851,80,"7429 N LOMBARDY RD, MILWAUKEE, WI, 53217","Match","Exact","7429 N LOMBARDY RD, MILWAUKEE, WI, 53217",77736867,"L"
284581,"7429 TUCKASEEGEE RD","CHARLOTTE","NC",28214,35.2465760900001,-80.951460374,81,"7429 TUCKASEEGEE RD, CHARLOTTE, NC, 28214","Match","Exact","7429 TUCKASEEGEE RD, CHARLOTTE, NC, 28214",70474340,"L"
284582,"7429 WHITE OAK","HAMMOND","IN",46324,NA,NA,82,"7429 WHITE OAK, HAMMOND, IN, 46324","Tie",NA,NA,NA,NA
284583,"7429 WINSTON COVE","WALLS","MS",38680,34.9689006400001,-90.135407573,83,"7429 WINSTON COVE, WALLS, MS, 38680","Match","Exact","7429 WINSTON COVE, WALLS, MS, 38680",91836513,"R"
284584,"743 ALEXANDER ROAD   SUITE 1","PRINCETON JUNCTION","NJ",8550,NA,NA,84,"743 ALEXANDER ROAD   SUITE 1, PRINCETON JUNCTION, NJ, 8550","No_Match",NA,NA,NA,NA
284585,"743 ARNCLIFFE ROAD","ESSEX","MD",21221,39.3267639490001,-76.4590704729999,85,"743 ARNCLIFFE ROAD, ESSEX, MD, 21221","Match","Exact","743 ARNCLIFFE RD, ESSEX, MD, 21221",191530973,"R"
284586,"743 BARAT CT","LAKE FOREST","IL",60045,42.230958124,-87.8288083689999,86,"743 BARAT CT, LAKE FOREST, IL, 60045","Match","Exact","743 BARAT CT, LAKE FOREST, IL, 60045",119647784,"R"
284587,"743 CAPITAL PLACE","MUSKOGEE","OK",74401,35.759989326,-95.37620442,87,"743 CAPITAL PLACE, MUSKOGEE, OK, 74401","Match","Non_Exact","743 CAPITOL PL, MUSKOGEE, OK, 74401",91927734,"L"
284588,"743 EAST 102 STREET","BROOKLYN","NY",11236,40.6471952460001,-73.898120428,88,"743 EAST 102 STREET, BROOKLYN, NY, 11236","Match","Exact","743 E 102ND ST, BROOKLYN, NY, 11236",59086703,"L"
284589,"743 EAST BROADWAY 101","LOUISVILLE","KY",40202,38.2447729520001,-85.7406424659999,89,"743 EAST BROADWAY 101, LOUISVILLE, KY, 40202","Match","Exact","743 E BROADWAY, LOUISVILLE, KY, 40202",96846108,"L"
284590,"743 EAST BROADWAY SUITE 291","LOUISVILLE","KY",40202,38.2447729520001,-85.7406424659999,90,"743 EAST BROADWAY SUITE 291, LOUISVILLE, KY, 40202","Match","Exact","743 E BROADWAY, LOUISVILLE, KY, 40202",96846108,"L"
284591,"743 ELM STREET","WEST FARGO","ND",58078,46.8682294270001,-96.908761994,91,"743 ELM STREET, WEST FARGO, ND, 58078","Match","Non_Exact","743 ELM ST W, WEST FARGO, ND, 58078",151468382,"L"
284592,"743 FARROWOOD DRIVE","COLUMBIA","SC",29223,34.11148274,-80.9402178829999,92,"743 FARROWOOD DRIVE, COLUMBIA, SC, 29223","Match","Exact","743 FARROWOOD DR, COLUMBIA, SC, 29223",71840915,"L"
284593,"743 FORBES TRAIL RD","GREENSBURG","PA",15601,40.344596627,-79.514862485,93,"743 FORBES TRAIL RD, GREENSBURG, PA, 15601","Match","Exact","743 FORBES TRAIL RD, GREENSBURG, PA, 15601",52983324,"L"
284594,"743 GOLDHILL PL SOUTH BOX NO 233","WOODLAND PARK","CO",80863,NA,NA,94,"743 GOLDHILL PL SOUTH BOX NO 233, WOODLAND PARK, CO, 80863","No_Match",NA,NA,NA,NA
284595,"743 HAMPSHIRE HILL RD","MATTHEWS","NC",28105,35.0503542860001,-80.753939228,95,"743 HAMPSHIRE HILL RD, MATTHEWS, NC, 28105","Match","Exact","743 HAMPSHIRE HILL RD, MATTHEWS, NC, 28105",70547909,"R"
284596,"743 JEFFERSON AVE","LAKELAND","FL",33801,28.0355249300001,-81.942739209,96,"743 JEFFERSON AVE, LAKELAND, FL, 33801","Match","Exact","743 JEFFERSON AVE, LAKELAND, FL, 33801",104811565,"R"
284597,"743 KAUMANA DRIVE BUILDING B","HILO","HI",96720,19.7003457270001,-155.114349295,97,"743 KAUMANA DRIVE BUILDING B, HILO, HI, 96720","Match","Exact","743 KAUMANA DR, HILO, HI, 96720",614313475,"R"
284598,"743 KEVIN CT","RIDGECREST","CA",93555,35.6320391360001,-117.683998833,98,"743 KEVIN CT, RIDGECREST, CA, 93555","Match","Non_Exact","743 W KEVIN CT, RIDGECREST, CA, 93555",109033571,"R"
284599,"743 LANE AVE","MEMPHIS","TN",38105,35.1516453850001,-90.034512846,99,"743 LANE AVE, MEMPHIS, TN, 38105","Match","Exact","743 LANE AVE, MEMPHIS, TN, 38105",72903135,"R"
284600,"743 LONGFORD DRIVE","GASTONIA","NC",28054,NA,NA,100,"743 LONGFORD DRIVE, GASTONIA, NC, 28054","No_Match",NA,NA,NA,NA
284601,"743 N 750 W","PROVO","UT",84601,40.2438066810001,-111.671926568,101,"743 N 750 W, PROVO, UT, 84601","Match","Exact","743 N 750 W, PROVO, UT, 84601",134207258,"L"
284602,"743 N FREMONT STREET","SISTERS","OR",97759,44.2973592440001,-121.569600007,102,"743 N FREMONT STREET, SISTERS, OR, 97759","Match","Non_Exact","743 N FREEMONT ST, SISTERS, OR, 97759",631913199,"L"
284603,"743 N HORNE  ST","DUNCANVILLE","TX",75116,32.6591887160001,-96.915552774,103,"743 N HORNE  ST, DUNCANVILLE, TX, 75116","Match","Exact","743 N HORNE ST, DUNCANVILLE, TX, 75116",102978985,"R"
284604,"743 N TAYLOR","OAK PARK","IL",60302,41.8991339310001,-87.7777142259999,104,"743 N TAYLOR, OAK PARK, IL, 60302","Match","Non_Exact","743 N TAYLOR AVE, OAK PARK, IL, 60302",111753733,"L"
284605,"743 NORTH HOLMES AVE","INDIANAPOLIS","IN",46222,39.777189569,-86.205212106,105,"743 NORTH HOLMES AVE, INDIANAPOLIS, IN, 46222","Match","Exact","743 N HOLMES AVE, INDIANAPOLIS, IN, 46222",107987222,"R"
284606,"743 NORTH YUKON AVE","TULSA","OK",74127,36.1647834990001,-96.0159138669999,106,"743 NORTH YUKON AVE, TULSA, OK, 74127","Match","Exact","743 N YUKON AVE, TULSA, OK, 74127",82333697,"R"
284607,"743 OLD APPLE GROVE ROAD","MINERAL","VA",23117,NA,NA,107,"743 OLD APPLE GROVE ROAD, MINERAL, VA, 23117","Tie",NA,NA,NA,NA
284608,"743 SMYRNA CHURCH ROAD","LUMBERTON","NC",27325,35.4812290900001,-79.613400744,108,"743 SMYRNA CHURCH ROAD, LUMBERTON, NC, 27325","Match","Non_Exact","743 SMYRNA CHURCH RD, GLENDON, NC, 27325",20345621,"R"
284609,"743 THAYER AVE","SILVER SPRING","MD",20910,38.9931604180001,-77.0206096379999,109,"743 THAYER AVE, SILVER SPRING, MD, 20910","Match","Exact","743 THAYER AVE, SILVER SPRING, MD, 20910",62068240,"R"
284610,"743 TIMBERLINE DRIVE","SHEPHERDSVILLE","KY",40165,37.949562873,-85.653665803,110,"743 TIMBERLINE DRIVE, SHEPHERDSVILLE, KY, 40165","Match","Non_Exact","743 TIMBERLINE RD, SHEPHERDSVILLE, KY, 40165",648789606,"R"
284611,"743 VIRGINIA PARK","D","MI",48202,NA,NA,111,"743 VIRGINIA PARK, D, MI, 48202","No_Match",NA,NA,NA,NA
284612,"743 VIRGINIA PARK","DETROIT","MI",48202,42.3743517840001,-83.082341076,112,"743 VIRGINIA PARK, DETROIT, MI, 48202","Match","Non_Exact","743 VIRGINIA PARK ST, DETROIT, MI, 48202",95475494,"L"
284613,"743 W 99TH STREET","LOS ANGELES","CA",90044,33.946358989,-118.288016306,113,"743 W 99TH STREET, LOS ANGELES, CA, 90044","Match","Exact","743 W 99TH ST, LOS ANGELES, CA, 90044",141660122,"R"
284614,"743 W VIRGINIA ANN DRIVE","AZUSA","CA",91702,34.1460987290001,-117.917081654,114,"743 W VIRGINIA ANN DRIVE, AZUSA, CA, 91702","Match","Exact","743 WEST VIRGINIA ANN DR, AZUSA, CA, 91702",640111392,"R"
284615,"743 WASHINGTON AVE","MARIETTA","GA",30060,33.951919194,-84.530977643,115,"743 WASHINGTON AVE, MARIETTA, GA, 30060","Match","Non_Exact","743 WASHINGTON AVE NE, MARIETTA, GA, 30060",17176380,"L"
284616,"7430 BROADWAY","MERRILLVILLE","IN",46410,41.4830341950001,-87.33597109,116,"7430 BROADWAY, MERRILLVILLE, IN, 46410","Match","Exact","7430 BROADWAY, MERRILLVILLE, IN, 46410",98435134,"R"
284617,"7430 GEORGE E HORN RD","NASHVILLE","TN",37221,36.0898820370001,-86.941324679,117,"7430 GEORGE E HORN RD, NASHVILLE, TN, 37221","Match","Exact","7430 GEORGE E HORN RD, NASHVILLE, TN, 37221",97222520,"L"
284618,"7430 KENTFIELD DR","KNOXVILLE","TN",37919,35.9171451290001,-84.022935505,118,"7430 KENTFIELD DR, KNOXVILLE, TN, 37919","Match","Exact","7430 KENTFIELD DR, KNOXVILLE, TN, 37919",42663948,"L"
284619,"7430 MALVERN DRIVE","NEW ORLEANS","LA",70126,30.0357881670001,-90.000080909,119,"7430 MALVERN DRIVE, NEW ORLEANS, LA, 70126","Match","Non_Exact","7430 MALVERN ST, NEW ORLEANS, LA, 70126",191720448,"L"
284620,"7430 STATE ROUTE 82","GARRETTSVILLE","OH",44231,41.293597392,-81.1220872659999,120,"7430 STATE ROUTE 82, GARRETTSVILLE, OH, 44231","Match","Exact","7430 STATE RTE 82, GARRETTSVILLE, OH, 44231",641180133,"R"
284621,"7430 WINTHROP ROAD","ALPHARETTA","GA",30005,34.1036846210001,-84.231310939,121,"7430 WINTHROP ROAD, ALPHARETTA, GA, 30005","Match","Exact","7430 WINTHROP RD, ALPHARETTA, GA, 30005",627231612,"L"
284622,"7431 CR 629","BUSHNELL","FL",33513,28.6464664380001,-82.184631512,122,"7431 CR 629, BUSHNELL, FL, 33513","Match","Exact","7431 CO RD 629, BUSHNELL, FL, 33513",86509195,"R"
284623,"7431 E COSTILLA AVE","Denver","CO",80112,39.5915851600001,-104.902353132,123,"7431 E COSTILLA AVE, Denver, CO, 80112","Match","Non_Exact","7431 E COSTILLA AVE, CENTENNIAL, CO, 80112",177346619,"L"
284624,"7431 E MEMORIAL ROAD","EDMOND","OK",73013,35.6092452670001,-97.400016739,124,"7431 E MEMORIAL ROAD, EDMOND, OK, 73013","Match","Exact","7431 E MEMORIAL RD, EDMOND, OK, 73013",100450531,"L"
284625,"7431 EGAN CREST DRIVE","LAS VEGAS","NV",89166,NA,NA,125,"7431 EGAN CREST DRIVE, LAS VEGAS, NV, 89166","No_Match",NA,NA,NA,NA
284626,"7431 FRANKLIN ST","BUENA PARK","CA",90621,33.876846675,-118.003456014,126,"7431 FRANKLIN ST, BUENA PARK, CA, 90621","Match","Exact","7431 FRANKLIN ST, BUENA PARK, CA, 90621",144000749,"L"
284627,"7431 HEMLOCK RD","OCALA","FL",34472,29.124632005,-82.0249517889999,127,"7431 HEMLOCK RD, OCALA, FL, 34472","Match","Exact","7431 HEMLOCK RD, OCALA, FL, 34472",116732550,"R"
284628,"7431 N BOYD WAY","FOX POINT","WI",53217,43.152751009,-87.899837218,128,"7431 N BOYD WAY, FOX POINT, WI, 53217","Match","Exact","7431 N BOYD WAY, FOX POINT, WI, 53217",77736906,"L"
284629,"7431 N PALAFOX ST APT H","PENSACOLA","FL",32503,30.5020155510001,-87.257558218,129,"7431 N PALAFOX ST APT H, PENSACOLA, FL, 32503","Match","Non_Exact","7431 N PALAFOX ST, PENSACOLA, FL, 32503",640542167,"L"
284630,"7431 NW 37TH CT","LAUDERHILL","FL",33319,26.172390706,-80.249534695,130,"7431 NW 37TH CT, LAUDERHILL, FL, 33319","Match","Exact","7431 NW 37TH CT, LAUDERHILL, FL, 33319",114703042,"R"
284631,"7431 S MAPLEWOOD AVE","CHICAGO","IL",60629,41.7588001230001,-87.686741834,131,"7431 S MAPLEWOOD AVE, CHICAGO, IL, 60629","Match","Exact","7431 S MAPLEWOOD AVE, CHICAGO, IL, 60629",605477805,"L"
284632,"7432 BITTERSWEET LANE","CHIPPEWA LAKE","OH",44215,41.0703935820001,-81.889170956,132,"7432 BITTERSWEET LANE, CHIPPEWA LAKE, OH, 44215","Match","Exact","7432 BITTERSWEET LN, CHIPPEWA LAKE, OH, 44215",58695253,"R"
284633,"7432 EL MORRO RD NE","ALBUQUERQUE","NM",87109,35.1486289650001,-106.564859249,133,"7432 EL MORRO RD NE, ALBUQUERQUE, NM, 87109","Match","Exact","7432 EL MORRO RD NE, ALBUQUERQUE, NM, 87109",206713291,"R"
284634,"7432 IRVIN AVENUE SOUTH","COTTAGE GROVE","MN",55016,44.84276435,-92.9298349379999,134,"7432 IRVIN AVENUE SOUTH, COTTAGE GROVE, MN, 55016","Match","Exact","7432 IRVIN AVE S, COTTAGE GROVE, MN, 55016",97786844,"L"
284635,"7432 MOON VALLEY RD SE","NORTH BEND","WA",98045,47.5332273650001,-121.744445215,135,"7432 MOON VALLEY RD SE, NORTH BEND, WA, 98045","Match","Exact","7432 MOON VALLEY RD SE, NORTH BEND, WA, 98045",186985259,"R"
284636,"7432 SOUTH 94TH EAST AVENUE","TULSA","OK",74134,36.057029222,-95.871027515,136,"7432 SOUTH 94TH EAST AVENUE, TULSA, OK, 74134","Match","Non_Exact","7432 S 94TH EAST AVE, TULSA, OK, 74133",166488411,"L"
284637,"7432 W CARMEN AVE","HARWOOD HEIGHTS","IL",60706,41.9725836170001,-87.812892915,137,"7432 W CARMEN AVE, HARWOOD HEIGHTS, IL, 60706","Match","Exact","7432 W CARMEN AVE, HARWOOD HEIGHTS, IL, 60706",111746851,"R"
284638,"7432 W HONEYSUCKLE DRIVE","PEORIA","AZ",85383,33.7162867640001,-112.21684685,138,"7432 W HONEYSUCKLE DRIVE, PEORIA, AZ, 85383","Match","Exact","7432 W HONEYSUCKLE DR, PEORIA, AZ, 85383",639781704,"R"
284639,"7433 3RD AVE","NORTH BERGEN","NJ",7047,40.799940088,-74.0110546829999,139,"7433 3RD AVE, NORTH BERGEN, NJ, 7047","Match","Exact","7433 3RD AVE, NORTH BERGEN, NJ, 07047",59598598,"L"
284640,"7433 BOUNTY DRIVE","SARASOTA","FL",34231,27.2487876160001,-82.50302257,140,"7433 BOUNTY DRIVE, SARASOTA, FL, 34231","Match","Exact","7433 BOUNTY DR, SARASOTA, FL, 34231",16355440,"L"
284641,"7433 KINGSLEY COURT","LAKE WORTH","FL",33467,26.575211328,-80.1651629579999,141,"7433 KINGSLEY COURT, LAKE WORTH, FL, 33467","Match","Exact","7433 KINGSLEY CT, LAKE WORTH, FL, 33467",115496586,"L"
284642,"7433 LIMEKILN PIKE STE 204","PHILADELPHIA","PA",19138,40.0673398000001,-75.158758958,142,"7433 LIMEKILN PIKE STE 204, PHILADELPHIA, PA, 19138","Match","Exact","7433 LIMEKILN PIKE, PHILADELPHIA, PA, 19138",131412915,"R"
284643,"7433 MARILYN LN","HOUSTON","TX",77016,29.8654314500001,-95.2953270039999,143,"7433 MARILYN LN, HOUSTON, TX, 77016","Match","Exact","7433 MARILYN LN, HOUSTON, TX, 77016",96075641,"L"
284644,"7433 MOESER LANE","EL CERRITO","CA",94530,37.915929174,-122.298158599,144,"7433 MOESER LANE, EL CERRITO, CA, 94530","Match","Exact","7433 MOESER LN, EL CERRITO, CA, 94530",192043543,"L"
284645,"7433 MONTEZUMA STREET","AUSTIN","TX",78744,30.197703377,-97.696818085,145,"7433 MONTEZUMA STREET, AUSTIN, TX, 78744","Match","Exact","7433 MONTEZUMA ST, AUSTIN, TX, 78744",625225633,"R"
284646,"7433 NW 23RD ST","BETHANY","OK",73008,35.4933582260001,-97.644332639,146,"7433 NW 23RD ST, BETHANY, OK, 73008","Match","Exact","7433 NW 23RD ST, BETHANY, OK, 73008",606161245,"R"
284647,"7433 NW DOCKING RD","SILVER LAKE","KS",66539,39.180870805,-95.8871293779999,147,"7433 NW DOCKING RD, SILVER LAKE, KS, 66539","Match","Exact","7433 NW DOCKING RD, SILVER LAKE, KS, 66539",17906115,"L"
284648,"7433 RESIDENCIA","NEWPORT BEACH","CA",92660,33.6365160720001,-117.860385082,148,"7433 RESIDENCIA, NEWPORT BEACH, CA, 92660","Match","Exact","7433 RESIDENCIA, NEWPORT BEACH, CA, 92660",651727068,"R"
284649,"7433 W ACOMA DR","PEORIA","AZ",85381,33.6176520500001,-112.218501512,149,"7433 W ACOMA DR, PEORIA, AZ, 85381","Match","Exact","7433 W ACOMA DR, PEORIA, AZ, 85381",651416081,"L"
284650,"7433 WHISPERING PINES","SHREVEPORT","LA",71129,32.3973965650001,-93.9144387169999,150,"7433 WHISPERING PINES, SHREVEPORT, LA, 71129","Match","Non_Exact","7433 WHISPERING PINES DR, SHREVEPORT, LA, 71129",57429625,"L"
284651,"7433 WHITE HAWK DRIVE","ANCHORAGE","AK",99507,61.1536861430001,-149.808968161,151,"7433 WHITE HAWK DRIVE, ANCHORAGE, AK, 99507","Match","Exact","7433 WHITE HAWK DR, ANCHORAGE, AK, 99507",190819593,"R"
284652,"7434 CHESHAM LANE","WOODBURY","MN",55125,44.8923129980001,-92.9548074959999,152,"7434 CHESHAM LANE, WOODBURY, MN, 55125","Match","Exact","7434 CHESHAM LN, WOODBURY, MN, 55125",97801190,"L"
284653,"7434 N 57TH ST","OMAHA","NE",68152,41.3258776010001,-96.0010466909999,153,"7434 N 57TH ST, OMAHA, NE, 68152","Match","Exact","7434 N 57TH ST, OMAHA, NE, 68152",116974793,"L"
284654,"7434 N FLINT ST  APT 214","SHAWNEE","KS",66203,NA,NA,154,"7434 N FLINT ST  APT 214, SHAWNEE, KS, 66203","No_Match",NA,NA,NA,NA
284655,"7434 NASH RD","GRAND RIDGE","FL",32442,30.607572771,-84.979034344,155,"7434 NASH RD, GRAND RIDGE, FL, 32442","Match","Exact","7434 NASH RD, GRAND RIDGE, FL, 32442",7175175,"L"
284656,"7434 PUERTA VALLARTA","HOUSTON","TX",77083,29.696891721,-95.623314208,156,"7434 PUERTA VALLARTA, HOUSTON, TX, 77083","Match","Non_Exact","7434 PUERTA VALLARTA DR, HOUSTON, TX, 77083",96021392,"R"
284657,"7434 TETELA DR","HOUSTON","TX",77083,29.694707115,-95.683629582,157,"7434 TETELA DR, HOUSTON, TX, 77083","Match","Exact","7434 TETELA DR, HOUSTON, TX, 77083",640064528,"R"
284658,"7435 CHAUCER PLACE NUMBER C","DALLAS","TX",75237,32.6578734230001,-96.866973141,158,"7435 CHAUCER PLACE NUMBER C, DALLAS, TX, 75237","Match","Exact","7435 CHAUCER PL, DALLAS, TX, 75237",650071815,"R"
284659,"7435 CONGRESS ST","NEW PORT RICHEY","FL",34653,28.265420399,-82.707313756,159,"7435 CONGRESS ST, NEW PORT RICHEY, FL, 34653","Match","Exact","7435 CONGRESS ST, NEW PORT RICHEY, FL, 34653",647352823,"L"
284660,"7435 E STETSON DR STE A","SCOTTSDALE","AZ",85251,33.49955472,-111.920881377,160,"7435 E STETSON DR STE A, SCOTTSDALE, AZ, 85251","Match","Non_Exact","7435 E STETSON DR, SCOTTSDALE, AZ, 85251",128229507,"R"
284661,"7435 FAWCETT AVE","TACOMA","WA",98408,47.189659643,-122.437936974,161,"7435 FAWCETT AVE, TACOMA, WA, 98408","Match","Non_Exact","7435 S FAWCETT AVE, TACOMA, WA, 98408",184628590,"L"
284662,"7435 GREEN GATE DRIVE","BATON ROUGE","LA",70811,30.552049206,-91.114403134,162,"7435 GREEN GATE DRIVE, BATON ROUGE, LA, 70811","Match","Exact","7435 GREEN GATE DR, BATON ROUGE, LA, 70811",635287096,"L"
284663,"7435 LAFAYETTE","DEARBORN HEIGHTS","MI",48127,NA,NA,163,"7435 LAFAYETTE, DEARBORN HEIGHTS, MI, 48127","No_Match",NA,NA,NA,NA
284664,"7435 LOCHNESS CIRCLE","TULSA","OK",74132,36.0559052560001,-96.037635381,164,"7435 LOCHNESS CIRCLE, TULSA, OK, 74132","Match","Non_Exact","7435 LOCH NESS CIR, TULSA, OK, 74132",648118567,"L"
284665,"7435 MACGEORGE PLACE","BLACKLICK","OH",43004,39.9880907520001,-82.807912019,165,"7435 MACGEORGE PLACE, BLACKLICK, OH, 43004","Match","Exact","7435 MACGEORGE PL, BLACKLICK, OH, 43004",218651837,"R"
284666,"7435 N TEUTONIA AVE","MILWAUKEE","WI",53209,43.152785421,-87.958042058,166,"7435 N TEUTONIA AVE, MILWAUKEE, WI, 53209","Match","Exact","7435 N TEUTONIA AVE, MILWAUKEE, WI, 53209",77735160,"L"
284667,"7435 NORTH ORACLE ROAD 107","TUCSON","AZ",85704,32.342689846,-110.976881123,167,"7435 NORTH ORACLE ROAD 107, TUCSON, AZ, 85704","Match","Exact","7435 N ORACLE RD, TUCSON, AZ, 85704",639450283,"R"
284668,"7435 OLD MISSOURI ROAD","EAST ST. LOUIS","IL",62207,NA,NA,168,"7435 OLD MISSOURI ROAD, EAST ST. LOUIS, IL, 62207","Tie",NA,NA,NA,NA
284669,"7435 S EASTERN AVE SET 105-117","LAS VEGAS","NV",89123,NA,NA,169,"7435 S EASTERN AVE SET 105-117, LAS VEGAS, NV, 89123","No_Match",NA,NA,NA,NA
284670,"7435 S EASTERN AVE STE 105117","LAS VEGAS","NV",89123,NA,NA,170,"7435 S EASTERN AVE STE 105117, LAS VEGAS, NV, 89123","No_Match",NA,NA,NA,NA
284671,"7435 S EASTERN AVENUE NUM 105-177","LAS VEGAS","NV",89123,NA,NA,171,"7435 S EASTERN AVENUE NUM 105-177, LAS VEGAS, NV, 89123","No_Match",NA,NA,NA,NA
284672,"7435 SE 112TH LN","BELLEVIEW","FL",34420,29.0582603240001,-82.030097632,172,"7435 SE 112TH LN, BELLEVIEW, FL, 34420","Match","Exact","7435 SE 112TH LN, BELLEVIEW, FL, 34420",116778515,"R"
284673,"74350 BASELINE RD","TWENTYNINE PALMS","CA",92277,34.1213206040001,-116.042434016,173,"74350 BASELINE RD, TWENTYNINE PALMS, CA, 92277","Match","Exact","74350 BASELINE RD, TWENTYNINE PALMS, CA, 92277",144633122,"L"
284674,"7436 BALTIMORE ANNAPOLIS BOULEVARD","GLEN BURNIE","MD",21061,39.1668106600001,-76.6268233489999,174,"7436 BALTIMORE ANNAPOLIS BOULEVARD, GLEN BURNIE, MD, 21061","Match","Exact","7436 BALTIMORE ANNAPOLIS BLVD, GLEN BURNIE, MD, 21061",68157893,"R"
284675,"7436 BROAD RIVER RD STE 110","IRMO","SC",29063,34.0979591890001,-81.166337196,175,"7436 BROAD RIVER RD STE 110, IRMO, SC, 29063","Match","Exact","7436 BROAD RIVER RD, IRMO, SC, 29063",636579133,"L"
284676,"7436 BROAD RIVER RD STE 211","IRMO","SC",29063,34.0979591890001,-81.166337196,176,"7436 BROAD RIVER RD STE 211, IRMO, SC, 29063","Match","Exact","7436 BROAD RIVER RD, IRMO, SC, 29063",636579133,"L"
284677,"7436 BROAD RIVER RD SUITE 110","IRMO","SC",29063,34.0979591890001,-81.166337196,177,"7436 BROAD RIVER RD SUITE 110, IRMO, SC, 29063","Match","Exact","7436 BROAD RIVER RD, IRMO, SC, 29063",636579133,"L"
284678,"7436 CROMWELL DR","ST LOUIS","MO",63105,38.6376097310001,-90.327527063,178,"7436 CROMWELL DR, ST LOUIS, MO, 63105","Match","Exact","7436 CROMWELL DR, SAINT LOUIS, MO, 63105",100135947,"L"
284679,"7436 E  CHAPARRAL RD  UNIT 160B","SCOTTSDALE","AZ",85250,NA,NA,179,"7436 E  CHAPARRAL RD  UNIT 160B, SCOTTSDALE, AZ, 85250","Tie",NA,NA,NA,NA
284680,"7436 EVERGREEN AVE","DETROIT","MI",48228,42.3452500970001,-83.2354556499999,180,"7436 EVERGREEN AVE, DETROIT, MI, 48228","Match","Exact","7436 EVERGREEN AVE, DETROIT, MI, 48228",95439249,"R"
284681,"7436 NORTH NEWMAN AVE","PORTLAND","OR",97203,45.5779829000001,-122.715472199,181,"7436 NORTH NEWMAN AVE, PORTLAND, OR, 97203","Match","Exact","7436 N NEWMAN AVE, PORTLAND, OR, 97203",157494611,"R"
284682,"7436 RIDGEFIELD LANE","TINLEY PARK","IL",60487,41.5395068880001,-87.7976148019999,182,"7436 RIDGEFIELD LANE, TINLEY PARK, IL, 60487","Match","Exact","7436 RIDGEFIELD LN, TINLEY PARK, IL, 60487",111630172,"L"
284683,"7436 S EXCHANGE UNIT816","CHICAGO","IL",60649,NA,NA,183,"7436 S EXCHANGE UNIT816, CHICAGO, IL, 60649","No_Match",NA,NA,NA,NA
284684,"7436 S PRAIRIE AVE 2ND FL","CHICAGO","IL",60619,41.7595983000001,-87.6183422569999,184,"7436 S PRAIRIE AVE 2ND FL, CHICAGO, IL, 60619","Match","Non_Exact","7436 S PRAIRIE AVE, CHICAGO, IL, 60619",605543818,"R"
284685,"7436 WISAM COURT","FAIR OAKS","CA",95628,38.640592472,-121.290314851,185,"7436 WISAM COURT, FAIR OAKS, CA, 95628","Match","Exact","7436 WISAM CT, FAIR OAKS, CA, 95628",133345938,"R"
284686,"7437 FILLMORE DRIVE","BUENA PARK","CA",90620,33.8371220930001,-118.003329039,186,"7437 FILLMORE DRIVE, BUENA PARK, CA, 90620","Match","Exact","7437 FILLMORE DR, BUENA PARK, CA, 90620",144001899,"L"
284687,"7437 FORBES ROAD","ZEPHYRHILLS","FL",33540,28.2652203440001,-82.154993513,187,"7437 FORBES ROAD, ZEPHYRHILLS, FL, 33540","Match","Exact","7437 FORBES RD, ZEPHYRHILLS, FL, 33540",86402348,"L"
284688,"7437 LAPALCO BLVD","MARRERO","LA",70072,29.884473481,-90.129332273,188,"7437 LAPALCO BLVD, MARRERO, LA, 70072","Match","Exact","7437 LAPALCO BLVD, MARRERO, LA, 70072",93551083,"R"
284689,"7437 LOS BRAZOS","SAN DIEGO","CA",92127,32.9912606500001,-117.166875596,189,"7437 LOS BRAZOS, SAN DIEGO, CA, 92127","Match","Exact","7437 LOS BRAZOS, SAN DIEGO, CA, 92127",612865164,"R"
284690,"7437 S CRANDON AVE","CHICAGO","IL",60649,41.760242743,-87.568819831,190,"7437 S CRANDON AVE, CHICAGO, IL, 60649","Match","Exact","7437 S CRANDON AVE, CHICAGO, IL, 60649",605557570,"L"
284691,"7437 SOUTHWEST HIGHWAY APT 2","WORTH","IL",60482,NA,NA,191,"7437 SOUTHWEST HIGHWAY APT 2, WORTH, IL, 60482","No_Match",NA,NA,NA,NA
284692,"7437 SW ALBRITTON S","ARCADIA","FL",34266,NA,NA,192,"7437 SW ALBRITTON S, ARCADIA, FL, 34266","No_Match",NA,NA,NA,NA
284693,"7437 W IRVING PARK RD","CHICAGO","IL",60634,41.952615189,-87.813591071,193,"7437 W IRVING PARK RD, CHICAGO, IL, 60634","Match","Exact","7437 W IRVING PARK RD, CHICAGO, IL, 60634",111747317,"L"
284694,"7437 WALNUT LANE","PHILADELPHIA","PA",19138,40.068135027,-75.152484177,194,"7437 WALNUT LANE, PHILADELPHIA, PA, 19138","Match","Exact","7437 WALNUT LN, PHILADELPHIA, PA, 19138",131412995,"R"
284695,"7437 YARMOUTH AVE","RESEDA","CA",91335,34.205619407,-118.519688456,195,"7437 YARMOUTH AVE, RESEDA, CA, 91335","Match","Exact","7437 YARMOUTH AVE, RESEDA, CA, 91335",141544038,"L"
284696,"7438 43RD AVENUE 3F","ELMHURST","NY",11373,NA,NA,196,"7438 43RD AVENUE 3F, ELMHURST, NY, 11373","No_Match",NA,NA,NA,NA
284697,"7438 HARBOR COVE LANE","STONE MOUNTAIN","GA",30087,33.780569083,-84.084443399,197,"7438 HARBOR COVE LANE, STONE MOUNTAIN, GA, 30087","Match","Exact","7438 HARBOR COVE LN, STONE MOUNTAIN, GA, 30087",23389117,"R"
284698,"7438 HOLLISTER SPRING","HOUSTON","TX",77040,29.855206654,-95.504356171,198,"7438 HOLLISTER SPRING, HOUSTON, TX, 77040","Match","Exact","7438 HOLLISTER SPG, HOUSTON, TX, 77040",624092075,"L"
284699,"7438 OAKVISTA CIR","TAMPA","FL",33634,28.015748221,-82.5554372839999,199,"7438 OAKVISTA CIR, TAMPA, FL, 33634","Match","Exact","7438 OAKVISTA CIR, TAMPA, FL, 33634",104508177,"R"
284700,"7438 SW STATE RD 47","LAKE CITY","FL",32024,NA,NA,200,"7438 SW STATE RD 47, LAKE CITY, FL, 32024","No_Match",NA,NA,NA,NA
284701,"7438 WELSH STONE LANE","HOUSTON","TX",77049,29.832218921,-95.184178458,201,"7438 WELSH STONE LANE, HOUSTON, TX, 77049","Match","Exact","7438 WELSH STONE LN, HOUSTON, TX, 77049",638192713,"L"
284702,"7439 CASE AVENUE","MENTOR","OH",44060,41.668419885,-81.342534096,202,"7439 CASE AVENUE, MENTOR, OH, 44060","Match","Exact","7439 CASE AVE, MENTOR, OH, 44060",137463758,"L"
284703,"7439 DOGWOOD LANE","PLANTERSVILLE","TX",77363,30.26669329,-95.88850883,203,"7439 DOGWOOD LANE, PLANTERSVILLE, TX, 77363","Match","Exact","7439 DOGWOOD LN, PLANTERSVILLE, TX, 77363",21901929,"L"
284704,"7439 HIGHLAND AVE","KANSAS CITY","MO",64131,38.992308544,-94.567536381,204,"7439 HIGHLAND AVE, KANSAS CITY, MO, 64131","Match","Exact","7439 HIGHLAND AVE, KANSAS CITY, MO, 64131",91455000,"L"
284705,"7439 OGLE ROAD","FREETOWN","IN",47235,39.0788699570001,-86.129718888,205,"7439 OGLE ROAD, FREETOWN, IN, 47235","Match","Exact","7439 OGLE RD, FREETOWN, IN, 47235",43529354,"L"
284706,"7439 PINEBERRY RD","DALLAS","TX",75249,32.6335801910001,-96.946503611,206,"7439 PINEBERRY RD, DALLAS, TX, 75249","Match","Exact","7439 PINEBERRY RD, DALLAS, TX, 75249",619123740,"R"
284707,"7439 ROUND MOUNTAIN","SAN ANTONIO","TX",78255,29.5999365960001,-98.6317903839999,207,"7439 ROUND MOUNTAIN, SAN ANTONIO, TX, 78255","Match","Exact","7439 ROUND MOUNTAIN, SAN ANTONIO, TX, 78255",101488150,"L"
284708,"7439 THOLE COURT","DETROIT","MI",48238,42.40827555,-83.145727177,208,"7439 THOLE COURT, DETROIT, MI, 48238","Match","Exact","7439 THOLE CT, DETROIT, MI, 48238",95461247,"L"
284709,"74390 HIGHWAY 111 SUITE C","PALM DESERT","CA",92260,33.7213677410001,-116.369117689,209,"74390 HIGHWAY 111 SUITE C, PALM DESERT, CA, 92260","Match","Non_Exact","74390 STATE RTE 111, PALM DESERT, CA, 92260",638954590,"L"
284710,"743B PORTOLA STREET","SAN FRANCISCO","CA",94129,37.795662243,-122.454687057,210,"743B PORTOLA STREET, SAN FRANCISCO, CA, 94129","Match","Exact","743 PORTOLA ST, SAN FRANCISCO, CA, 94129",192279196,"R"
284711,"744 20TH AVENUE","PATERSON","NJ",7504,40.9060493900001,-74.1365848459999,211,"744 20TH AVENUE, PATERSON, NJ, 7504","Match","Exact","744 20TH AVE, PATERSON, NJ, 07504",65266872,"R"
284712,"744 47TH PLACE SOUTH","BIRMINGHAM","AL",35222,33.52327561,-86.760400926,212,"744 47TH PLACE SOUTH, BIRMINGHAM, AL, 35222","Match","Exact","744 47TH PL S, BIRMINGHAM, AL, 35222",81579652,"R"
284713,"744 9TH COURT WEST","BIRMINGHAM","AL",35204,33.5172601900001,-86.8491235979999,213,"744 9TH COURT WEST, BIRMINGHAM, AL, 35204","Match","Exact","744 9TH CT W, BIRMINGHAM, AL, 35204",81722719,"R"
284714,"744 BOHNERT AVE","RIALTP","CA",92377,34.1431802910001,-117.384571501,214,"744 BOHNERT AVE, RIALTP, CA, 92377","Match","Non_Exact","744 W BOHNERT AVE, RIALTO, CA, 92377",144643450,"R"
284715,"744 BRICK ROW DRIVE APT2437","RICHARDSON","TX",75081,32.9411100730001,-96.73612322,215,"744 BRICK ROW DRIVE APT2437, RICHARDSON, TX, 75081","Match","Exact","744 BRICK ROW DR, RICHARDSON, TX, 75081",647944772,"L"
284716,"744 BROOKS ST  APT 2406","SUGAR LAND","TX",77478,29.610816695,-95.634882658,216,"744 BROOKS ST  APT 2406, SUGAR LAND, TX, 77478","Match","Exact","744 BROOKS ST, SUGAR LAND, TX, 77478",78266939,"L"
284717,"744 BRYANT ROAD","MANCHESTER","NH",3109,42.9411435690001,-71.391991731,217,"744 BRYANT ROAD, MANCHESTER, NH, 3109","Match","Exact","744 BRYANT RD, MANCHESTER, NH, 03109",113579013,"L"
284718,"744 CASTLEWOOD RD","GLENSIDE","PA",19038,40.1142293290001,-75.142391232,218,"744 CASTLEWOOD RD, GLENSIDE, PA, 19038","Match","Exact","744 CASTLEWOOD RD, GLENSIDE, PA, 19038",135106301,"L"
284719,"744 CR 2355","MARIETTA","TX",75566,33.153245645,-94.512160158,219,"744 CR 2355, MARIETTA, TX, 75566","Match","Exact","744 CO RD 2355, MARIETTA, TX, 75566",57050709,"R"
284720,"744 CROSS CREEK VALLEY LANE","ST. CLAIR","MO",63077,38.309544949,-90.971080923,220,"744 CROSS CREEK VALLEY LANE, ST. CLAIR, MO, 63077","Match","Exact","744 CROSS CREEK VALLEY LN, SAINT CLAIR, MO, 63077",99720755,"L"
284721,"744 DIVISION ST","TOLEDO","OH",43604,41.6473501350001,-83.552377959,221,"744 DIVISION ST, TOLEDO, OH, 43604","Match","Exact","744 DIVISION ST, TOLEDO, OH, 43604",33960688,"R"
284722,"744 DUBOIS DRIVE","BATON ROUGE","LA",70808,30.3974986060001,-91.15072596,222,"744 DUBOIS DRIVE, BATON ROUGE, LA, 70808","Match","Exact","744 DUBOIS DR, BATON ROUGE, LA, 70808",92185464,"R"
284723,"744 E WARRINGTON AVE","PITTSBURGH","PA",15210,40.421788715,-79.994449606,223,"744 E WARRINGTON AVE, PITTSBURGH, PA, 15210","Match","Exact","744 E WARRINGTON AVE, PITTSBURGH, PA, 15210",51636443,"R"
284724,"744 EAST 93RD STREET","CLEVELAND","OH",44108,41.5368099090001,-81.623509803,224,"744 EAST 93RD STREET, CLEVELAND, OH, 44108","Match","Exact","744 E 93RD ST, CLEVELAND, OH, 44108",61112264,"R"
284725,"744 ELMWOOD AVE","BUFFALO","NY",14222,42.9173388140001,-78.877034903,225,"744 ELMWOOD AVE, BUFFALO, NY, 14222","Match","Exact","744 ELMWOOD AVE, BUFFALO, NY, 14222",48289264,"L"
284726,"744 GOLDEN OAK CT NO 6","SUNNYVALE","CA",94086,37.3617448160001,-122.022216402,226,"744 GOLDEN OAK CT NO 6, SUNNYVALE, CA, 94086","Match","Non_Exact","744 GOLDEN OAK CT, SUNNYVALE, CA, 94086",122938571,"L"
284727,"744 GOODE STREET","BALLSTON SPA","NY",12020,42.9841621200001,-73.9043498839999,227,"744 GOODE STREET, BALLSTON SPA, NY, 12020","Match","Exact","744 GOODE ST, BALLSTON SPA, NY, 12020",18815647,"R"
284728,"744 HALL STREET","OPELOUSAS","LA",70570,30.523588182,-92.0937996219999,228,"744 HALL STREET, OPELOUSAS, LA, 70570","Match","Exact","744 HALL ST, OPELOUSAS, LA, 70570",106436917,"L"
284729,"744 HOLLOW WOOD DRIVE","MACEDONIA","OH",44056,41.309443543,-81.512237554,229,"744 HOLLOW WOOD DRIVE, MACEDONIA, OH, 44056","Match","Exact","744 HOLLOW WOOD DR, MACEDONIA, OH, 44056",648232969,"L"
284730,"744 INNES STREET","SAN FRANCISCO","CA",94124,37.7303646880001,-122.372860166,230,"744 INNES STREET, SAN FRANCISCO, CA, 94124","Match","Non_Exact","744 INNES AVE, SAN FRANCISCO, CA, 94124",192295860,"R"
284731,"744 KIMBERLY APT 102","LAKE ORION","MI",48362,42.771304951,-83.240809015,231,"744 KIMBERLY APT 102, LAKE ORION, MI, 48362","Match","Exact","744 KIMBERLY, LAKE ORION, MI, 48362",650538543,"R"
284732,"744 LAFAYETTE DRIVE","LAPLACE","LA",70068,30.087057294,-90.47999307,232,"744 LAFAYETTE DRIVE, LAPLACE, LA, 70068","Match","Non_Exact","744 LAFAYETTE DR, LA PLACE, LA, 70068",93694130,"R"
284733,"744 MAGNOLIA STREET","WINSTON SALEM","NC",27103,36.082217772,-80.281688769,233,"744 MAGNOLIA STREET, WINSTON SALEM, NC, 27103","Match","Exact","744 MAGNOLIA ST, WINSTON SALEM, NC, 27103",647204877,"R"
284734,"744 MILL ST","CONNEAUT","OH",44030,41.9563557650001,-80.557814795,234,"744 MILL ST, CONNEAUT, OH, 44030","Match","Exact","744 MILL ST, CONNEAUT, OH, 44030",117309831,"R"
284735,"744 MURDOCK AVENUE","MERIDEN","CT",6450,41.5025583890001,-72.776042938,235,"744 MURDOCK AVENUE, MERIDEN, CT, 6450","Match","Exact","744 MURDOCK AVE, MERIDEN, CT, 06450",648733717,"L"
284736,"744 N BROADWAY","LOS ANGELES","CA",90012,34.061267925,-118.238837338,236,"744 N BROADWAY, LOS ANGELES, CA, 90012","Match","Exact","744 N BROADWAY, LOS ANGELES, CA, 90012",141618015,"R"
284737,"744 NOAH DR STE 113-319","JASPER","GA",30143,34.469282891,-84.4588455859999,237,"744 NOAH DR STE 113-319, JASPER, GA, 30143","Match","Exact","744 NOAH DR, JASPER, GA, 30143",649880547,"R"
284738,"744 ORANGE STREET","NEW HAVEN","CT",6511,41.320769367,-72.912734848,238,"744 ORANGE STREET, NEW HAVEN, CT, 6511","Match","Exact","744 ORANGE ST, NEW HAVEN, CT, 06511",3700050,"L"
284739,"744 PARK AVENUE SUITE 12B","BROO","NY",11206,40.698021178,-73.9456889319999,239,"744 PARK AVENUE SUITE 12B, BROO, NY, 11206","Match","Non_Exact","744 PARK AVE, BROOKLYN, NY, 11206",650067153,"R"
284740,"744 PIERCE ST","EVERGREEN","AL",36401,31.4496081090001,-86.9425524329999,240,"744 PIERCE ST, EVERGREEN, AL, 36401","Match","Exact","744 PIERCE ST, EVERGREEN, AL, 36401",2864852,"R"
284741,"744 PUGH ROAD","WAYNE","PA",19087,40.07008395,-75.4055424859999,241,"744 PUGH ROAD, WAYNE, PA, 19087","Match","Exact","744 PUGH RD, WAYNE, PA, 19087",179499479,"R"
284742,"744 RIVERSIDE DRIVE","CORAL SPRINGS","FL",33071,NA,NA,242,"744 RIVERSIDE DRIVE, CORAL SPRINGS, FL, 33071","No_Match",NA,NA,NA,NA
284743,"744 ROCKY CREEK WEST","BEDFORD","IN",47421,38.8879946100001,-86.4348105449999,243,"744 ROCKY CREEK WEST, BEDFORD, IN, 47421","Match","Exact","744 ROCKY CREEK W, BEDFORD, IN, 47421",606737969,"R"
284744,"744 S MATLACK STREET","WEST  CHESTER","PA",19382,39.953610708,-75.594090732,244,"744 S MATLACK STREET, WEST  CHESTER, PA, 19382","Match","Exact","744 S MATLACK ST, WEST CHESTER, PA, 19382",179491625,"R"
284745,"744 SEDGEFIELD ROAD APT A","CHARLOTTE","NC",28209,35.1950901280001,-80.855672407,245,"744 SEDGEFIELD ROAD APT A, CHARLOTTE, NC, 28209","Match","Exact","744 SEDGEFIELD RD, CHARLOTTE, NC, 28209",70486007,"R"
284746,"744 SEIGLE POINT DR","CHARLOTTE","NC",28204,35.2251765080001,-80.8268578289999,246,"744 SEIGLE POINT DR, CHARLOTTE, NC, 28204","Match","Exact","744 SEIGLE POINT DR, CHARLOTTE, NC, 28204",635861065,"R"
284747,"744 SHADY HEIGHTS ROAD","HOT SPRINGS","AR",71901,34.4610695430001,-92.990793326,247,"744 SHADY HEIGHTS ROAD, HOT SPRINGS, AR, 71901","Match","Exact","744 SHADY HEIGHTS RD, HOT SPRINGS, AR, 71901",635385347,"L"
284748,"744 SOUTH STREET PMB 99","PHILADELPHIA","PA",19147,39.942294497,-75.154634785,248,"744 SOUTH STREET PMB 99, PHILADELPHIA, PA, 19147","Match","Exact","744 SOUTH ST, PHILADELPHIA, PA, 19147",131424024,"L"
284749,"744 STONE ST","RAHWAY","NJ",7065,40.6117441420001,-74.2884116819999,249,"744 STONE ST, RAHWAY, NJ, 7065","Match","Exact","744 STONE ST, RAHWAY, NJ, 07065",60562342,"L"
284750,"744 SUMMIT LOOP","EDEN","NC",27288,NA,NA,250,"744 SUMMIT LOOP, EDEN, NC, 27288","Tie",NA,NA,NA,NA
284751,"744 SUNKEN MEADOW LANE","JACKSONVILLE","FL",32218,30.44654812,-81.6552463309999,251,"744 SUNKEN MEADOW LANE, JACKSONVILLE, FL, 32218","Match","Exact","744 SUNKEN MEADOW LN, JACKSONVILLE, FL, 32218",83939332,"R"
284752,"744 TIMBER LANE","GENEVA","OH",44041,41.800711968,-80.933527677,252,"744 TIMBER LANE, GENEVA, OH, 44041","Match","Exact","744 TIMBER LN, GENEVA, OH, 44041",117330191,"R"
284753,"744 TINDAL RD","PELION","SC",29123,33.7010621360001,-81.233920158,253,"744 TINDAL RD, PELION, SC, 29123","Match","Exact","744 TINDAL RD, PELION, SC, 29123",70044599,"L"
284754,"744 W HAPPFIELD","ARLINGTON HEIGHTS","IL",60004,42.1432185100001,-87.991123927,254,"744 W HAPPFIELD, ARLINGTON HEIGHTS, IL, 60004","Match","Non_Exact","744 W HAPPFIELD DR, ARLINGTON HEIGHTS, IL, 60004",111862307,"R"
284755,"744 W LANCASTER AVE SUITE 103","WAYNE","PA",19087,40.046480575,-75.406196623,255,"744 W LANCASTER AVE SUITE 103, WAYNE, PA, 19087","Match","Exact","744 LANCASTER AVE, WAYNE, PA, 19087",179548808,"L"
284756,"744 WASHINGTON ST","DELANO","CA",93215,35.7667729780001,-119.227018435,256,"744 WASHINGTON ST, DELANO, CA, 93215","Match","Exact","744 WASHINGTON ST, DELANO, CA, 93215",108998118,"R"
284757,"744","PLEASANT HILL","OR",97455,NA,NA,257,"744, PLEASANT HILL, OR, 97455","No_Match",NA,NA,NA,NA
284758,"7440 BEN HUR ST","PITTSBURGH","PA",15208,40.444526056,-79.899316429,258,"7440 BEN HUR ST, PITTSBURGH, PA, 15208","Match","Exact","7440 BEN HUR ST, PITTSBURGH, PA, 15208",51652386,"R"
284759,"7440 E PHANTOM WAY","SCOTTSDALE","AZ",85255,33.672870796,-111.921174941,259,"7440 E PHANTOM WAY, SCOTTSDALE, AZ, 85255","Match","Exact","7440 E PHANTOM WAY, SCOTTSDALE, AZ, 85255",128599553,"L"
284760,"7440 EAST PHANTOM WAY","SCOTTSDALE","AZ",85255,33.6728771040001,-111.921192068,260,"7440 EAST PHANTOM WAY, SCOTTSDALE, AZ, 85255","Match","Exact","7440 E PHANTOM WAY, SCOTTSDALE, AZ, 85255",128599553,"L"
284761,"7440 EDENBRIDGE LN","CHARLOTTE","NC",28226,35.1053481500001,-80.796815473,261,"7440 EDENBRIDGE LN, CHARLOTTE, NC, 28226","Match","Non_Exact","7440 EDENBRIDGE, CHARLOTTE, NC, 28226",624012791,"R"
284762,"7440 GUTHRIE RD","GUTHRIE","KY",42234,36.7101642640001,-87.1938209479999,262,"7440 GUTHRIE RD, GUTHRIE, KY, 42234","Match","Exact","7440 GUTHRIE RD, GUTHRIE, KY, 42234",40369148,"R"
284763,"7440 HUNTERS GREENE CIRCLE","LAKELAND","FL",33810,28.136877672,-81.990657088,263,"7440 HUNTERS GREENE CIRCLE, LAKELAND, FL, 33810","Match","Non_Exact","7440 HUNTERS GREENE BLVD, LAKELAND, FL, 33810",104935048,"L"
284764,"7440 LEDGE STONE LANE","RIVERDALE","GA",30274,33.551572503,-84.391918341,264,"7440 LEDGE STONE LANE, RIVERDALE, GA, 30274","Match","Non_Exact","7440 LEDGESTONE LN, RIVERDALE, GA, 30274",645824077,"R"
284765,"7440 MICHIGAN ROAD","INDIANAPOLIS","IN",46268,39.8881181890001,-86.211411996,265,"7440 MICHIGAN ROAD, INDIANAPOLIS, IN, 46268","Match","Exact","7440 MICHIGAN RD, INDIANAPOLIS, IN, 46268",107981044,"L"
284766,"7440 N SHADELAND AVE STE 205","INDIANAPOLIS","IN",46250,39.889097222,-86.0461022219999,266,"7440 N SHADELAND AVE STE 205, INDIANAPOLIS, IN, 46250","Match","Non_Exact","7440 N SHADELAND AVE, INDIANAPOLIS, IN, 46250",107996732,"L"
284767,"7440 N SHADELAND AVENUE SUITE 210","INDIANAPOLIS","IN",46250,39.889097222,-86.0461022219999,267,"7440 N SHADELAND AVENUE SUITE 210, INDIANAPOLIS, IN, 46250","Match","Non_Exact","7440 N SHADELAND AVE, INDIANAPOLIS, IN, 46250",107996732,"L"
284768,"7440 PRAIRIE GREEN DR","MT. PLEASANT WI","WI",53406,42.7496691960001,-87.874966391,268,"7440 PRAIRIE GREEN DR, MT. PLEASANT WI, WI, 53406","Match","Non_Exact","7440 PRAIRIE GREEN DR, MOUNT PLEASANT, WI, 53406",624653671,"L"
284769,"7440 S WESTMORELAND ROAD","DALLAS","TX",75237,32.656368136,-96.884620666,269,"7440 S WESTMORELAND ROAD, DALLAS, TX, 75237","Match","Exact","7440 S WESTMORELAND RD, DALLAS, TX, 75237",102943704,"L"
284770,"7440 SW MORRILL RD","WAKARUSA","KS",66546,38.933260079,-95.70614663,270,"7440 SW MORRILL RD, WAKARUSA, KS, 66546","Match","Exact","7440 SW MORRILL RD, WAKARUSA, KS, 66546",629457672,"L"
284771,"7440 TWIN BRANCH ROAD","SANDY SPRINGS","GA",30328,33.957767506,-84.349315148,271,"7440 TWIN BRANCH ROAD, SANDY SPRINGS, GA, 30328","Match","Non_Exact","7440 TWIN BRANCH RD NE, SANDY SPRINGS, GA, 30328",17354580,"L"
284772,"74400 HILL ROAD","COVELO","CA",95428,39.764642205,-123.189496322,272,"74400 HILL ROAD, COVELO, CA, 95428","Match","Exact","74400 HILL RD, COVELO, CA, 95428",67249986,"L"
284773,"74403 PEG KELLER","ABITA SPRINGS","LA",70420,30.5154397250001,-89.9373998459999,273,"74403 PEG KELLER, ABITA SPRINGS, LA, 70420","Match","Non_Exact","74403 PEG KELLER RD, ABITA SPRINGS, LA, 70420",639184449,"L"
284774,"7441 BIG CYPRESS DRIVE","MIAMI LAKES","FL",33014,25.9087835020001,-80.3223811089999,274,"7441 BIG CYPRESS DRIVE, MIAMI LAKES, FL, 33014","Match","Exact","7441 BIG CYPRESS DR, MIAMI LAKES, FL, 33014",116260317,"L"
284775,"7441 CHERRY BLOSSUM WAY","WINSTON","GA",30187,NA,NA,275,"7441 CHERRY BLOSSUM WAY, WINSTON, GA, 30187","No_Match",NA,NA,NA,NA
284776,"7441 CREEKFALL DRIVE","FORT WORTH","TX",76137,32.87256438,-97.287115989,276,"7441 CREEKFALL DRIVE, FORT WORTH, TX, 76137","Match","Exact","7441 CREEKFALL DR, FORT WORTH, TX, 76137",102128180,"L"
284777,"7441 LOWER WYANDOTTE","OROVILLE","CA",95966,39.462826304,-121.483289148,277,"7441 LOWER WYANDOTTE, OROVILLE, CA, 95966","Match","Non_Exact","7441 LOWER WYANDOTTE RD, OROVILLE, CA, 95966",636410165,"L"
284778,"7441 OAKLAND DR","BILOXI","MS",39532,30.449773529,-88.8786665119999,278,"7441 OAKLAND DR, BILOXI, MS, 39532","Match","Exact","7441 OAKLAND DR, BILOXI, MS, 39532",89256769,"L"
284779,"7441 S HOUSTOUN WARING CIR","LITTLETON","CO",80120,39.5821292050001,-105.02261999,279,"7441 S HOUSTOUN WARING CIR, LITTLETON, CO, 80120","Match","Exact","7441 S HOUSTOUN WARING CIR, LITTLETON, CO, 80120",177519856,"L"
284780,"7441 VALAHO DRIVE","TUJUNGA","CA",91042,34.251228047,-118.294322074,280,"7441 VALAHO DRIVE, TUJUNGA, CA, 91042","Match","Exact","7441 VALAHO DR, TUJUNGA, CA, 91042",142039901,"R"
284781,"7442 CALOOSA DRIVE","BOKEELIA","FL",33922,26.664201501,-82.148012239,281,"7442 CALOOSA DRIVE, BOKEELIA, FL, 33922","Match","Exact","7442 CALOOSA DR, BOKEELIA, FL, 33922",118029504,"R"
284782,"7442 COUNTY RD 42","ROSHARON","TX",77583,29.351777606,-95.56715647,282,"7442 COUNTY RD 42, ROSHARON, TX, 77583","Match","Exact","7442 CO RD 42, ROSHARON, TX, 77583",116611436,"L"
284783,"7442 MARINER ROAD","EGG HARBOR","WI",54209,45.036567125,-87.3206349129999,283,"7442 MARINER ROAD, EGG HARBOR, WI, 54209","Match","Exact","7442 MARINER RD, EGG HARBOR, WI, 54209",167254908,"R"
284784,"7442 N BRIGHTON AVE","KANSAS CITY","MO",64119,39.2288167020001,-94.520794004,284,"7442 N BRIGHTON AVE, KANSAS CITY, MO, 64119","Match","Exact","7442 N BRIGHTON AVE, KANSAS CITY, MO, 64119",627192242,"L"
284785,"7442 TANYARD KNOLL LANE","GLEN BURNIE","MD",21060,39.17615038,-76.556736255,285,"7442 TANYARD KNOLL LANE, GLEN BURNIE, MD, 21060","Match","Exact","7442 TANYARD KNOLL LN, GLEN BURNIE, MD, 21060",649059330,"L"
284786,"74421 COUNTY ROAD 3","HECTOR","MN",55342,44.6655512660001,-94.8130891119999,286,"74421 COUNTY ROAD 3, HECTOR, MN, 55342","Match","Exact","74421 CO RD 3, HECTOR, MN, 55342",605042536,"L"
284787,"7443 8TH STREET NW","WASHINGTON","DC",20012,38.980296557,-77.024442445,287,"7443 8TH STREET NW, WASHINGTON, DC, 20012","Match","Exact","7443 8TH ST NW, WASHINGTON, DC, 20012",76221721,"R"
284788,"7443 ARTHUR STREET","HOLLYWOOD","FL",33024,26.0204202910001,-80.237442436,288,"7443 ARTHUR STREET, HOLLYWOOD, FL, 33024","Match","Exact","7443 ARTHUR ST, HOLLYWOOD, FL, 33024",114713074,"R"
284789,"7443 CASTANO WAY","SACRAMENTO","CA",95831,38.4870466630001,-121.520381765,289,"7443 CASTANO WAY, SACRAMENTO, CA, 95831","Match","Exact","7443 CASTANO WAY, SACRAMENTO, CA, 95831",133364314,"R"
284790,"7443 LEAWOOD ST","PAPILLION","NE",68046,41.1221539140001,-96.0269065909999,290,"7443 LEAWOOD ST, PAPILLION, NE, 68046","Match","Exact","7443 LEAWOOD ST, PAPILLION, NE, 68046",624441402,"R"
284791,"7444 LUMBERTON RD","ZEPHYRHILLS","FL",33540,28.265597831,-82.130161458,291,"7444 LUMBERTON RD, ZEPHYRHILLS, FL, 33540","Match","Exact","7444 LUMBERTON RD, ZEPHYRHILLS, FL, 33540",640194853,"R"
284792,"7444 LUMBERTON ROAD","ZEPHYRHILLS","FL",33540,28.265597831,-82.130161458,292,"7444 LUMBERTON ROAD, ZEPHYRHILLS, FL, 33540","Match","Exact","7444 LUMBERTON RD, ZEPHYRHILLS, FL, 33540",640194853,"R"
284793,"7444 MOONCREST WAY","SACRAMENTO","CA",95831,38.4874684960001,-121.509227829,293,"7444 MOONCREST WAY, SACRAMENTO, CA, 95831","Match","Exact","7444 MOONCREST WAY, SACRAMENTO, CA, 95831",133350409,"R"
284794,"7444 ROCK BROOK DRIVE","JACKSONVILLE","FL",32222,NA,NA,294,"7444 ROCK BROOK DRIVE, JACKSONVILLE, FL, 32222","No_Match",NA,NA,NA,NA
284795,"7444 S JEFFERY BLVD","CHICAGO","IL",60649,41.760051838,-87.576172796,295,"7444 S JEFFERY BLVD, CHICAGO, IL, 60649","Match","Exact","7444 S JEFFERY BLVD, CHICAGO, IL, 60649",605555520,"R"
284796,"7445 4TH AVE NE A","SEATTLE","WA",89115,47.682380331,-122.324978494,296,"7445 4TH AVE NE A, SEATTLE, WA, 89115","Match","Non_Exact","7445 4TH AVE NE, SEATTLE, WA, 98115",186580498,"L"
284797,"7445 ARUCAUNA COURT","SAN DIEGO","CA",92129,32.939722805,-117.161866069,297,"7445 ARUCAUNA COURT, SAN DIEGO, CA, 92129","Match","Exact","7445 ARUCAUNA CT, SAN DIEGO, CA, 92129",195391160,"L"
284798,"7445 CARMELA WAY","DELARAY BEACH","FL",33448,26.47546056,-80.150644797,298,"7445 CARMELA WAY, DELARAY BEACH, FL, 33448","Match","Non_Exact","7445 CARMELA WAY, DELRAY BEACH, FL, 33446",636184047,"L"
284799,"7445 CHESTWICK CT","ATLANTA","GA",30350,33.9622676970001,-84.2995574179999,299,"7445 CHESTWICK CT, ATLANTA, GA, 30350","Match","Exact","7445 CHESTWICK CT, ATLANTA, GA, 30350",17361390,"R"
284800,"7445 EAST EAGLE CREST DR UNIT 2143","MESA","AZ",85207,33.4916675150001,-111.673025271,300,"7445 EAST EAGLE CREST DR UNIT 2143, MESA, AZ, 85207","Match","Exact","7445 E EAGLE CREST DR, MESA, AZ, 85207",243925999,"R"
284801,"7445 FAIRPARK AVE","CINCINNATI","OH",45216,39.1990094380001,-84.476934364,301,"7445 FAIRPARK AVE, CINCINNATI, OH, 45216","Match","Exact","7445 FAIRPARK AVE, CINCINNATI, OH, 45216",103928140,"L"
284802,"7445 RED RIVER DRIVE","MEMPHIS","TN",38125,35.0111755570001,-89.8152168189999,302,"7445 RED RIVER DRIVE, MEMPHIS, TN, 38125","Match","Exact","7445 RED RIVER DR, MEMPHIS, TN, 38125",72953145,"R"
284803,"7445 RESERVE ROAD BLDG 1047","TINKER AFB","OK",73145,NA,NA,303,"7445 RESERVE ROAD BLDG 1047, TINKER AFB, OK, 73145","No_Match",NA,NA,NA,NA
284804,"7445 ROUTE 367","LACEYVILLE","PA",18623,41.683516404,-76.129943118,304,"7445 ROUTE 367, LACEYVILLE, PA, 18623","Match","Non_Exact","7445 STATE RTE 367, LACEYVILLE, PA, 18623",176980878,"L"
284805,"7445 SPITFIRE DR","CORPUS CHRISTI","TX",78412,27.6846929610001,-97.342671136,305,"7445 SPITFIRE DR, CORPUS CHRISTI, TX, 78412","Match","Exact","7445 SPITFIRE DR, CORPUS CHRISTI, TX, 78412",178522629,"L"
284806,"7445 WAGON WAY","HILLSBORO","OR",97124,45.5612737380001,-122.903182958,306,"7445 WAGON WAY, HILLSBORO, OR, 97124","Match","Non_Exact","7445 NW WAGON WAY, HILLSBORO, OR, 97124",158210448,"L"
284807,"74450 HWY 437","COVINGTON","LA",70435,30.5139669710001,-90.0759609689999,307,"74450 HWY 437, COVINGTON, LA, 70435","Match","Exact","74450 HWY 437, COVINGTON, LA, 70435",111264798,"R"
284808,"7446 FM 775","LA VERNIA","TX",78121,29.298039074,-98.174891089,308,"7446 FM 775, LA VERNIA, TX, 78121","Match","Non_Exact","7446 FM 775, LA VERNIA, TX, 78121",637279317,"L"
284809,"7446 N HOYNE AVE UNIT 1","CHICAGO","IL",60645,NA,NA,309,"7446 N HOYNE AVE UNIT 1, CHICAGO, IL, 60645","No_Match",NA,NA,NA,NA
284810,"7446 OXFORD GARDEN CIRCLE","APOLLO BEACH","FL",33572,NA,NA,310,"7446 OXFORD GARDEN CIRCLE, APOLLO BEACH, FL, 33572","No_Match",NA,NA,NA,NA
284811,"7446 PALGRAVE LANE","MEMPHIS","TN",38125,35.0467415800001,-89.8163108099999,311,"7446 PALGRAVE LANE, MEMPHIS, TN, 38125","Match","Exact","7446 PALGRAVE LN, MEMPHIS, TN, 38125",72930848,"L"
284812,"7446 SPRING VILLAGE DR 416","SPRINGFIELD","VA",22150,38.7676010710001,-77.202477646,312,"7446 SPRING VILLAGE DR 416, SPRINGFIELD, VA, 22150","Match","Exact","7446 SPRING VILLAGE DR, SPRINGFIELD, VA, 22150",619511153,"R"
284813,"7447 EAST CAPRI AVENUE","MESA","AZ",85208,33.4060211080001,-111.670516639,313,"7447 EAST CAPRI AVENUE, MESA, AZ, 85208","Match","Exact","7447 E CAPRI AVE, MESA, AZ, 85208",128252836,"R"
284814,"7447 FOXFIELD DR","HAZELWOOD","MO",63042,38.789064668,-90.359056433,314,"7447 FOXFIELD DR, HAZELWOOD, MO, 63042","Match","Exact","7447 FOXFIELD DR, HAZELWOOD, MO, 63042",100118872,"L"
284815,"7447 HARWIN DRIVE   SUITE 233","HOUSTON","TX",77036,29.7176642380001,-95.515431819,315,"7447 HARWIN DRIVE   SUITE 233, HOUSTON, TX, 77036","Match","Exact","7447 HARWIN DR, HOUSTON, TX, 77036",96614107,"L"
284816,"7447 HARWIN DRIVE SUITE 212","HOUSTON","TX",77036,29.7176642380001,-95.515431819,316,"7447 HARWIN DRIVE SUITE 212, HOUSTON, TX, 77036","Match","Exact","7447 HARWIN DR, HOUSTON, TX, 77036",96614107,"L"
284817,"7447 LYNNBROOK FALLS LN","HUMBLE","TX",77396,29.9250472910001,-95.2778051289999,317,"7447 LYNNBROOK FALLS LN, HUMBLE, TX, 77396","Match","Exact","7447 LYNNBROOK FALLS LN, HUMBLE, TX, 77396",645207610,"L"
284818,"7447 MOULTRIE DR","INDIANAPOLIS","IN",46217,39.657440615,-86.174692519,318,"7447 MOULTRIE DR, INDIANAPOLIS, IN, 46217","Match","Exact","7447 MOULTRIE DR, INDIANAPOLIS, IN, 46217",651085376,"R"
284819,"7447 N HIGHWAY 94","PORTAGE DES SIOUX","MO",63373,NA,NA,319,"7447 N HIGHWAY 94, PORTAGE DES SIOUX, MO, 63373","No_Match",NA,NA,NA,NA
284820,"7447 N WAYSIDE - 3","HOUSTON","TX",77028,NA,NA,320,"7447 N WAYSIDE - 3, HOUSTON, TX, 77028","No_Match",NA,NA,NA,NA
284821,"7447 NE 19TH LANE","ANKENY","IA",50021,41.6972014580001,-93.5903166959999,321,"7447 NE 19TH LANE, ANKENY, IA, 50021","Match","Exact","7447 NE 19TH LN, ANKENY, IA, 50021",65787772,"R"
284822,"7447 S SOUTH SHORE DR APT 16D","CHICAGO","IL",60649,NA,NA,322,"7447 S SOUTH SHORE DR APT 16D, CHICAGO, IL, 60649","No_Match",NA,NA,NA,NA
284823,"7447 SILVER WOODS CT","BOCA RATON","FL",33433,26.3549018030001,-80.1615663329999,323,"7447 SILVER WOODS CT, BOCA RATON, FL, 33433","Match","Exact","7447 SILVER WOODS CT, BOCA RATON, FL, 33433",115575033,"L"
284824,"7447 SO SOUTH SHORE DR","CHICAGO","IL",60649,41.7611282400001,-87.557700916,324,"7447 SO SOUTH SHORE DR, CHICAGO, IL, 60649","Match","Exact","7447 S SOUTH SHORE DR, CHICAGO, IL, 60649",611122954,"L"
284825,"7447 WEST TALCOTT AVENUE SUITE 200","CHICAGO","IL",60631,41.988878996,-87.81332485,325,"7447 WEST TALCOTT AVENUE SUITE 200, CHICAGO, IL, 60631","Match","Exact","7447 W TALCOTT AVE, CHICAGO, IL, 60631",641725006,"L"
284826,"7448 115TH DRIVE","LIVE OAK","FL",32060,NA,NA,326,"7448 115TH DRIVE, LIVE OAK, FL, 32060","No_Match",NA,NA,NA,NA
284827,"7448 DALWHINNIE TRAIL","CORDOVA","TN",38018,35.1485219190001,-89.814750311,327,"7448 DALWHINNIE TRAIL, CORDOVA, TN, 38018","Match","Non_Exact","7448 DAL WHINNIE TRL, CORDOVA, TN, 38018",645531242,"R"
284828,"7448 MAPLEHURST AVE SE","EAST SPARTA","OH",44626,40.696944242,-81.355543924,328,"7448 MAPLEHURST AVE SE, EAST SPARTA, OH, 44626","Match","Exact","7448 MAPLEHURST AVE SE, EAST SPARTA, OH, 44626",64710468,"L"
284829,"7448 MEMORIAL DR","PORT CHARLOTTE","FL",33981,26.919936641,-82.261092795,329,"7448 MEMORIAL DR, PORT CHARLOTTE, FL, 33981","Match","Exact","7448 MEMORIAL DR, PORT CHARLOTTE, FL, 33981",4297567,"R"
284830,"7448 PLAZA TAURINA DR","EL PASO","TX",79912,31.8766487730001,-106.568221349,330,"7448 PLAZA TAURINA DR, EL PASO, TX, 79912","Match","Exact","7448 PLAZA TAURINA DR, EL PASO, TX, 79912",189413562,"L"
284831,"7448 RAFFORD LANE","WEST BLOOMFIELD","MI",48322,42.5281258750001,-83.4105763159999,331,"7448 RAFFORD LANE, WEST BLOOMFIELD, MI, 48322","Match","Non_Exact","7448 RAFFORD, W BLOOMFIELD, MI, 48322",630393560,"L"
284832,"7448 RUSKIN ROAD","PHILADELPHIA","PA",19151,39.9746528700001,-75.2628781939999,332,"7448 RUSKIN ROAD, PHILADELPHIA, PA, 19151","Match","Exact","7448 RUSKIN RD, PHILADELPHIA, PA, 19151",627134843,"L"
284833,"7448 TYLER LANE","FONTANA","CA",92336,34.1193936120001,-117.510027522,333,"7448 TYLER LANE, FONTANA, CA, 92336","Match","Exact","7448 TYLER LN, FONTANA, CA, 92336",145000837,"L"
284834,"7449 BRITT BYPASS","BRITT","MN",55710,NA,NA,334,"7449 BRITT BYPASS, BRITT, MN, 55710","No_Match",NA,NA,NA,NA
284835,"7449 CALLEGAN ROAD EAST","MORGANZA","LA",70759,30.713544809,-91.5841059529999,335,"7449 CALLEGAN ROAD EAST, MORGANZA, LA, 70759","Match","Exact","7449 CALLEGAN RD E, MORGANZA, LA, 70759",190090848,"R"
284836,"7449 DIVISON ROAD","WHITE CITY","OR",97503,42.4247807090001,-122.846679478,336,"7449 DIVISON ROAD, WHITE CITY, OR, 97503","Match","Non_Exact","7449 DIVISION RD, WHITE CITY, OR, 97503",636767333,"L"
284837,"7449 E FAIR MEADOWS LOOP","TUCSON","AZ",85756,32.087482838,-110.833776669,337,"7449 E FAIR MEADOWS LOOP, TUCSON, AZ, 85756","Match","Non_Exact","7449 E FAIR MEADOW LOOP, TUCSON, AZ, 85756",637802314,"R"
284838,"7449 EAST KNOWLES AVENUE","MESA","AZ",85209,33.3787241750001,-111.672109435,338,"7449 EAST KNOWLES AVENUE, MESA, AZ, 85209","Match","Exact","7449 E KNOWLES AVE, MESA, AZ, 85209",128381755,"R"
284839,"7449 MARTIN ROAD","MILLINGTON","TN",38053,35.3287956390001,-89.8552192989999,339,"7449 MARTIN ROAD, MILLINGTON, TN, 38053","Match","Exact","7449 MARTIN RD, MILLINGTON, TN, 38053",72899799,"L"
284840,"7449 MAXWELTON RD","CLINTON","WA",98236,47.9424757150001,-122.440360488,340,"7449 MAXWELTON RD, CLINTON, WA, 98236","Match","Exact","7449 MAXWELTON RD, CLINTON, WA, 98236",187616745,"R"
284841,"7449 MERRILL ROAD","JACKSONVILLE","FL",32277,30.352107937,-81.5729099339999,341,"7449 MERRILL ROAD, JACKSONVILLE, FL, 32277","Match","Exact","7449 MERRILL RD, JACKSONVILLE, FL, 32277",652508869,"L"
284842,"7449 RESEDA BLVD 482","RESEDA","CA",91335,34.2056504280001,-118.536059586,342,"7449 RESEDA BLVD 482, RESEDA, CA, 91335","Match","Exact","7449 RESEDA BLVD, RESEDA, CA, 91335",141541709,"L"
284843,"7449 TREASURE CHEST STREET","LAS VEGAS","NV",89139,36.0537843340001,-115.220819933,343,"7449 TREASURE CHEST STREET, LAS VEGAS, NV, 89139","Match","Exact","7449 TREASURE CHEST ST, LAS VEGAS, NV, 89139",202002620,"R"
284844,"74498 S 4690 ROAD","STILWELL","OK",74960,NA,NA,344,"74498 S 4690 ROAD, STILWELL, OK, 74960","No_Match",NA,NA,NA,NA
284845,"745 5TH AVE STE 500","NEW YORK","NY",10151,40.7631954290001,-73.973792422,345,"745 5TH AVE STE 500, NEW YORK, NY, 10151","Match","Non_Exact","745 5TH AVE, NEW YORK, NY, 10022",59657189,"R"
284846,"745 5TH AVENUE 5TH FLOOR","NEW YORK","NY",10151,40.7631954290001,-73.973792422,346,"745 5TH AVENUE 5TH FLOOR, NEW YORK, NY, 10151","Match","Non_Exact","745 5TH AVE, NEW YORK, NY, 10022",59657189,"R"
284847,"745 ARMSTRONG STREET","KEYSER","WV",26726,39.436977703,-78.9638992339999,347,"745 ARMSTRONG STREET, KEYSER, WV, 26726","Match","Exact","745 ARMSTRONG ST, KEYSER, WV, 26726",647863787,"R"
284848,"745 ATLANTA RD STE 108","CUMMING","GA",30040,34.187459781,-84.142695367,348,"745 ATLANTA RD STE 108, CUMMING, GA, 30040","Match","Exact","745 ATLANTA RD, CUMMING, GA, 30040",637859443,"L"
284849,"745 ATLANTIC AVE","BOSTON","MA",2111,42.350251072,-71.056655972,349,"745 ATLANTIC AVE, BOSTON, MA, 2111","Match","Exact","745 ATLANTIC AVE, BOSTON, MA, 02111",85710702,"R"
284850,"745 AUBURN RIDGE WAY","RIVERDALE","GA",30296,33.5321288800001,-84.424843666,350,"745 AUBURN RIDGE WAY, RIVERDALE, GA, 30296","Match","Exact","745 AUBURN RIDGE WAY, RIVERDALE, GA, 30296",636086304,"R"
284851,"745 AUBURN RIDGEWAY","RIVERDALE","GA",30296,NA,NA,351,"745 AUBURN RIDGEWAY, RIVERDALE, GA, 30296","No_Match",NA,NA,NA,NA
284852,"745 BELL AVENUE","WESTBROOK","MN",56183,44.043555387,-95.4388413349999,352,"745 BELL AVENUE, WESTBROOK, MN, 56183","Match","Exact","745 BELL AVE, WESTBROOK, MN, 56183",30328863,"R"
284853,"745 BERKSHIRE LANE","EAST LANSING","MI",48823,42.741648232,-84.4701352279999,353,"745 BERKSHIRE LANE, EAST LANSING, MI, 48823","Match","Exact","745 BERKSHIRE LN, EAST LANSING, MI, 48823",17504906,"L"
284854,"745 BLACKBEAD RD","FLORA","IL",62839,38.6162326630001,-88.540634078,354,"745 BLACKBEAD RD, FLORA, IL, 62839","Match","Exact","745 BLACKBEAD RD, FLORA, IL, 62839",635515956,"L"
284855,"745 BREWERTON ROAD APT 1787","WEST POINT","NY",10996,41.3934098450001,-73.960102833,355,"745 BREWERTON ROAD APT 1787, WEST POINT, NY, 10996","Match","Exact","745 BREWERTON RD, WEST POINT, NY, 10996",642839850,"L"
284856,"745 BRITTANY MANOR LANE","GRAYSON","GA",30017,33.8939580310001,-83.971195462,356,"745 BRITTANY MANOR LANE, GRAYSON, GA, 30017","Match","Exact","745 BRITTANY MANOR LN, GRAYSON, GA, 30017",624622491,"L"
284857,"745 CANFIELD DRIVE","MANHATTAN","KS",66502,39.18786142,-96.594644553,357,"745 CANFIELD DRIVE, MANHATTAN, KS, 66502","Match","Exact","745 CANFIELD DR, MANHATTAN, KS, 66502",27796108,"L"
284858,"745 CENTER STREET","MILFORD","OH",45150,39.177248648,-84.286650462,358,"745 CENTER STREET, MILFORD, OH, 45150","Match","Exact","745 CENTER ST, MILFORD, OH, 45150",118466718,"R"
284859,"745 CLYDE CIRCLE","BRYN MAWR","PA",19010,40.0092614060001,-75.367115235,359,"745 CLYDE CIRCLE, BRYN MAWR, PA, 19010","Match","Exact","745 CLYDE CIR, BRYN MAWR, PA, 19010",134897962,"L"
284860,"745 COLLEGE DR STE B","DALTON","GA",30720,34.7822748360001,-85.001351109,360,"745 COLLEGE DR STE B, DALTON, GA, 30720","Match","Exact","745 COLLEGE DR, DALTON, GA, 30720",57371771,"L"
284861,"745 COLLEGE DRIVE STE B","DALTON","GA",30720,34.7822748360001,-85.001351109,361,"745 COLLEGE DRIVE STE B, DALTON, GA, 30720","Match","Exact","745 COLLEGE DR, DALTON, GA, 30720",57371771,"L"
284862,"745 CRAIG RD SUITE 208D","SAINT LOUIS","MO",63141,38.669203254,-90.436585903,362,"745 CRAIG RD SUITE 208D, SAINT LOUIS, MO, 63141","Match","Exact","745 CRAIG RD, SAINT LOUIS, MO, 63141",100125077,"L"
284863,"745 DEJARNETTE LANE","MURFREESBORO","TN",37130,35.885014342,-86.354557427,363,"745 DEJARNETTE LANE, MURFREESBORO, TN, 37130","Match","Exact","745 DEJARNETTE LN, MURFREESBORO, TN, 37130",59012390,"L"
284864,"745 E 29TH STREET","NORFOLK","VA",23504,36.872754071,-76.279154551,364,"745 E 29TH STREET, NORFOLK, VA, 23504","Match","Exact","745 E 29TH ST, NORFOLK, VA, 23504",122123531,"R"
284865,"745 E SPRINGFIELD","SAINT JAMES","MO",65559,38.0023499660001,-91.6046358789999,365,"745 E SPRINGFIELD, SAINT JAMES, MO, 65559","Match","Non_Exact","745 E SPRINGFIELD RD, SAINT JAMES, MO, 65559",636273282,"L"
284866,"745 E10 TH STREET","BROOKLYN","NY",11230,NA,NA,366,"745 E10 TH STREET, BROOKLYN, NY, 11230","No_Match",NA,NA,NA,NA
284867,"745 EAST 7TH STREET","BOSTON","MA",2127,42.332362839,-71.0305939049999,367,"745 EAST 7TH STREET, BOSTON, MA, 2127","Match","Exact","745 E 7TH ST, BOSTON, MA, 02127",85714108,"R"
284868,"745 EAST LOLA DRIVE","PHOENIX","AZ",85022,33.650182821,-112.064145163,368,"745 EAST LOLA DRIVE, PHOENIX, AZ, 85022","Match","Exact","745 E LOLA DR, PHOENIX, AZ, 85022",642854533,"R"
284869,"745 EDEN WAY SUITE 113","CHESAPEAKE","VA",23320,36.7728034360001,-76.238165673,369,"745 EDEN WAY SUITE 113, CHESAPEAKE, VA, 23320","Match","Non_Exact","745 EDEN WAY N, CHESAPEAKE, VA, 23320",121784650,"R"
284870,"745 ESTES PARK DR","SAINT PETERS","MO",63376,38.786049033,-90.632819447,370,"745 ESTES PARK DR, SAINT PETERS, MO, 63376","Match","Exact","745 ESTES PARK DR, SAINT PETERS, MO, 63376",100045749,"L"
284871,"745 FIFTH AVENUE 5TH FLOOR","NY","NY",10151,40.7631954290001,-73.973792422,371,"745 FIFTH AVENUE 5TH FLOOR, NY, NY, 10151","Match","Non_Exact","745 5TH AVE, NEW YORK, NY, 10022",59657189,"R"
284872,"745 FRANKLIN STREET","BELVIDERE","NJ",7823,40.820623518,-75.069070045,372,"745 FRANKLIN STREET, BELVIDERE, NJ, 7823","Match","Exact","745 FRANKLIN ST, BELVIDERE, NJ, 07823",98099332,"L"
284873,"745 GREEN MEADOW CT","NORTHFIELD","MN",55057,44.4675957800001,-93.1701598019999,373,"745 GREEN MEADOW CT, NORTHFIELD, MN, 55057","Match","Exact","745 GREEN MEADOW CT, NORTHFIELD, MN, 55057",37315435,"R"
284874,"745 HANSEL ST SE    APT 761","ATLANTA","GA",30312,33.740125543,-84.36462683,374,"745 HANSEL ST SE    APT 761, ATLANTA, GA, 30312","Match","Non_Exact","745 HANSELL ST SE, ATLANTA, GA, 30312",17358324,"R"
284875,"745 HARDING ROAD","CHOCOWINITY","NC",27817,35.4908633320001,-77.100611054,375,"745 HARDING ROAD, CHOCOWINITY, NC, 27817","Match","Exact","745 HARDING RD, CHOCOWINITY, NC, 27817",635928434,"L"
284876,"745 HEWITT LANE","NEW WINDSOR","NY",12553,41.469102519,-74.014635512,376,"745 HEWITT LANE, NEW WINDSOR, NY, 12553","Match","Exact","745 HEWITT LN, NEW WINDSOR, NY, 12553",124497046,"R"
284877,"745 HILLCREST CIRCLE 202","AUBURN HILLS","MI",48326,42.705003511,-83.321070982,377,"745 HILLCREST CIRCLE 202, AUBURN HILLS, MI, 48326","Match","Exact","745 HILLCREST CIR, AUBURN HILLS, MI, 48326",69831264,"R"
284878,"745 JEFFERSON HEIGHTS AVE","JEFFERSON","LA",70121,NA,NA,378,"745 JEFFERSON HEIGHTS AVE, JEFFERSON, LA, 70121","Tie",NA,NA,NA,NA
284879,"745 KEEAUMOKU ST STE 205","HONOLULU","HI",96814,21.2956920930001,-157.841389522,379,"745 KEEAUMOKU ST STE 205, HONOLULU, HI, 96814","Match","Exact","745 KEEAUMOKU ST, HONOLULU, HI, 96814",203237404,"R"
284880,"745 LA FARGE AVE","LOUISVILLE","CO",80027,39.977259142,-105.133389876,380,"745 LA FARGE AVE, LOUISVILLE, CO, 80027","Match","Non_Exact","745 LAFARGE AVE, LOUISVILLE, CO, 80027",188166325,"L"
284881,"745 LELAND COURT","LAKE FOREST","IL",60045,42.227893372,-87.879591368,381,"745 LELAND COURT, LAKE FOREST, IL, 60045","Match","Exact","745 LELAND CT, LAKE FOREST, IL, 60045",119694721,"R"
284882,"745 MAIN STREET","SHREWSBURY","MA",1545,42.2955297660001,-71.700696745,382,"745 MAIN STREET, SHREWSBURY, MA, 1545","Match","Exact","745 MAIN ST, SHREWSBURY, MA, 01545",40013907,"L"
284883,"745 MARY ROAD","BOZEMAN","MT",59718,45.733778031,-111.11987125,383,"745 MARY ROAD, BOZEMAN, MT, 59718","Match","Exact","745 MARY RD, BOZEMAN, MT, 59718",163499457,"R"
284884,"745 MERROW ROAD UNIT 167","COVENTRY","CT",6238,41.8196145060001,-72.332990896,384,"745 MERROW ROAD UNIT 167, COVENTRY, CT, 6238","Match","Exact","745 MERROW RD, COVENTRY, CT, 06238",641868634,"R"
284885,"745 MINERVA LANE","LAKE MARY","FL",32746,28.7398432900001,-81.351927839,385,"745 MINERVA LANE, LAKE MARY, FL, 32746","Match","Exact","745 MINERVA LN, LAKE MARY, FL, 32746",93769147,"R"
284886,"745 MONTANA ROAD NW","ATLANTA","GA",30327,33.8461289270001,-84.411917284,386,"745 MONTANA ROAD NW, ATLANTA, GA, 30327","Match","Exact","745 MONTANA RD NW, ATLANTA, GA, 30327",17416210,"R"
284887,"745 N ACACIA AVE","CLOVIS","CA",93611,36.843377328,-119.693512129,387,"745 N ACACIA AVE, CLOVIS, CA, 93611","Match","Exact","745 N ACACIA AVE, CLOVIS, CA, 93611",197619051,"L"
284888,"745 N GILBERT RD STE 124 166","GILBERT","AZ",85234,33.3628502870001,-111.789786925,388,"745 N GILBERT RD STE 124 166, GILBERT, AZ, 85234","Match","Non_Exact","745 N GILBERT RD, GILBERT, AZ, 85234",128254743,"R"
284889,"745 N OUTAGAMIE CT","APPLETON","WI",54914,44.268294858,-88.430971073,389,"745 N OUTAGAMIE CT, APPLETON, WI, 54914","Match","Exact","745 OUTAGAMIE CT, APPLETON, WI, 54914",74884639,"L"
284890,"745 N PRESIDENT ST","JACKSON","MS",39236,32.3075963530001,-90.180133024,390,"745 N PRESIDENT ST, JACKSON, MS, 39236","Match","Non_Exact","745 N PRESIDENT ST, JACKSON, MS, 39202",65371156,"L"
284891,"745 N RESERVOIR STREET","LANCASTER","PA",17602,40.0508626980001,-76.2937916609999,391,"745 N RESERVOIR STREET, LANCASTER, PA, 17602","Match","Exact","745 N RESERVOIR ST, LANCASTER, PA, 17602",179663059,"R"
284892,"745 N ROSE","PHOENIX","OR",97535,42.277308039,-122.824229103,392,"745 N ROSE, PHOENIX, OR, 97535","Match","Non_Exact","745 N ROSE ST, PHOENIX, OR, 97535",648363403,"L"
284893,"745 NE 138TH STREET","N MIAMI","FL",33161,25.9022973990001,-80.184048847,393,"745 NE 138TH STREET, N MIAMI, FL, 33161","Match","Exact","745 NE 138TH ST, NORTH MIAMI, FL, 33161",116034296,"L"
284894,"745 NORTH 5TH STREET","SAN JOSE","CA",95112,37.3520854220001,-121.896689908,394,"745 NORTH 5TH STREET, SAN JOSE, CA, 95112","Match","Exact","745 N 5TH ST, SAN JOSE, CA, 95112",122907014,"L"
284895,"745 NORTH 7 EAST","SUGAR CITY","ID",83448,NA,NA,395,"745 NORTH 7 EAST, SUGAR CITY, ID, 83448","No_Match",NA,NA,NA,NA
284896,"745 NORTH OXFORD ROAD","OXFORD","MI",48371,NA,NA,396,"745 NORTH OXFORD ROAD, OXFORD, MI, 48371","No_Match",NA,NA,NA,NA
284897,"745 NORTH PRESIDENT STREET","JACKSON","MS",39202,32.307580473,-90.18013626,397,"745 NORTH PRESIDENT STREET, JACKSON, MS, 39202","Match","Exact","745 N PRESIDENT ST, JACKSON, MS, 39202",65371156,"L"
284898,"745 OBRIEN ROAD","MAYVILLE","MI",48744,43.379784548,-83.393728274,398,"745 OBRIEN ROAD, MAYVILLE, MI, 48744","Match","Exact","745 OBRIEN RD, MAYVILLE, MI, 48744",647848062,"R"
284899,"745 OHIO STREET","LAWRENCE","KS",66044,38.970405988,-95.240585864,399,"745 OHIO STREET, LAWRENCE, KS, 66044","Match","Exact","745 OHIO ST, LAWRENCE, KS, 66044",17683934,"R"
284900,"745 PARK STREET","LIVERMORE FALLS","ME",4254,44.4324181280001,-70.1468041109999,400,"745 PARK STREET, LIVERMORE FALLS, ME, 4254","Match","Exact","745 PARK ST, LIVERMORE FALLS, ME, 04254",626650932,"L"
284901,"745 PATRIOTS POINT STREET","LOCUST GROVE","GA",30248,33.3474630760001,-84.118020012,401,"745 PATRIOTS POINT STREET, LOCUST GROVE, GA, 30248","Match","Exact","745 PATRIOTS POINT ST, LOCUST GROVE, GA, 30248",629260376,"R"
284902,"745 PEACOCK CIR","YOUNGSTOWN","FL",32466,30.4608246990001,-85.49593878,402,"745 PEACOCK CIR, YOUNGSTOWN, FL, 32466","Match","Exact","745 PEACOCK CIR, YOUNGSTOWN, FL, 32466",33066037,"R"
284903,"745 PLYMOUTH RD","HOFFMAN ESTATES","IL",60192,42.0955655390001,-88.0985670059999,403,"745 PLYMOUTH RD, HOFFMAN ESTATES, IL, 60192","Match","Exact","745 PLYMOUTH RD, HOFFMAN EST, IL, 60192",111690308,"L"
284904,"745 RIVER STREET","HYDE PARK","MA",2136,42.263599694,-71.104080161,404,"745 RIVER STREET, HYDE PARK, MA, 2136","Match","Exact","745 RIVER ST, HYDE PARK, MA, 02136",85705447,"R"
284905,"745 S 97TH PL","MESA","AZ",85208,33.4015238380001,-111.621435509,405,"745 S 97TH PL, MESA, AZ, 85208","Match","Exact","745 S 97TH PL, MESA, AZ, 85208",128926392,"R"
284906,"745 S DIVISION ST","SALISBURY","MD",21804,38.356985222,-75.595339602,406,"745 S DIVISION ST, SALISBURY, MD, 21804","Match","Exact","745 S DIVISION ST, SALISBURY, MD, 21804",114467564,"R"
284907,"745 S SIERRA MADRE BLVD","SAN MARINO","CA",91108,34.133241663,-118.101617353,407,"745 S SIERRA MADRE BLVD, SAN MARINO, CA, 91108","Match","Exact","745 SIERRA MADRE BLVD, SAN MARINO, CA, 91108",142736151,"R"
284908,"745 S SIERRA MADRE BLVD","SIERRA MADRE","CA",91108,34.133241663,-118.101617353,408,"745 S SIERRA MADRE BLVD, SIERRA MADRE, CA, 91108","Match","Non_Exact","745 SIERRA MADRE BLVD, SAN MARINO, CA, 91108",142736151,"R"
284909,"745 S WHITE WILLOW BAY","PALATINE","IL",60067,NA,NA,409,"745 S WHITE WILLOW BAY, PALATINE, IL, 60067","Tie",NA,NA,NA,NA
284910,"745 SE 18 LANE","HOMESTEAD","FL",33033,25.463464808,-80.45044811,410,"745 SE 18 LANE, HOMESTEAD, FL, 33033","Match","Exact","745 SE 18TH LN, HOMESTEAD, FL, 33033",631836833,"L"
284911,"745 SOUTH 1900 W","VERNAL","UT",84078,40.445037121,-109.565328935,411,"745 SOUTH 1900 W, VERNAL, UT, 84078","Match","Exact","745 S 1900 W, VERNAL, UT, 84078",645564098,"R"
284912,"745 SOUTH CHURCH STREET A130","MURFREESBORO","TN",37130,35.8391917880001,-86.3924494239999,412,"745 SOUTH CHURCH STREET A130, MURFREESBORO, TN, 37130","Match","Exact","745 S CHURCH ST, MURFREESBORO, TN, 37130",59015328,"R"
284913,"745 SOUTH SIERRA MADRE BLVD","SAN MARINO","CA",91108,34.133241663,-118.101617353,413,"745 SOUTH SIERRA MADRE BLVD, SAN MARINO, CA, 91108","Match","Non_Exact","745 SIERRA MADRE BLVD, SAN MARINO, CA, 91108",142736151,"R"
284914,"745 SPRINGS FIREPLACE RD","EAST HAMPTON","NY",11937,41.0173058610001,-72.1588635689999,414,"745 SPRINGS FIREPLACE RD, EAST HAMPTON, NY, 11937","Match","Exact","745 SPRINGS FIREPLACE RD, EAST HAMPTON, NY, 11937",647290666,"R"
284915,"745 STONE MILL CIRCLE","MURFREESBORO","TN",37130,35.9058159370001,-86.365651187,415,"745 STONE MILL CIRCLE, MURFREESBORO, TN, 37130","Match","Exact","745 STONE MILL CIR, MURFREESBORO, TN, 37130",638714802,"L"
284916,"745 STONE SHANNON RD","WHEELING","WV",26003,40.173217434,-80.677138096,416,"745 STONE SHANNON RD, WHEELING, WV, 26003","Match","Exact","745 STONE SHANNON RD, WHEELING, WV, 26003",38104101,"L"
284917,"745 STRETFORD WAY 207","LANDOVER","MD",20785,38.89977664,-76.8638657339999,417,"745 STRETFORD WAY 207, LANDOVER, MD, 20785","Match","Exact","745 STRETFORD WAY, LANDOVER, MD, 20785",76347779,"L"
284918,"745 SUNVIEW DR  - PO BOX 266","CARLISLE","IA",50047,41.487206402,-93.4945900559999,418,"745 SUNVIEW DR  - PO BOX 266, CARLISLE, IA, 50047","Match","Exact","745 SUNVIEW DR, CARLISLE, IA, 50047",618418208,"L"
284919,"745 TEJON AVE","COLTON","CA",92324,34.074987321,-117.336862314,419,"745 TEJON AVE, COLTON, CA, 92324","Match","Non_Exact","745 N TEJON AVE, COLTON, CA, 92324",145227006,"L"
284920,"745 THE PARKWAY","RICHLAND","WA",99352,46.2756522660001,-119.27434882,420,"745 THE PARKWAY, RICHLAND, WA, 99352","Match","Exact","745 THE PARKWAY, RICHLAND, WA, 99352",174988466,"L"
284921,"745 TOWN HILL ROAD","NEW HARTFORD","CT",6057,41.8447544840001,-73.008522313,421,"745 TOWN HILL ROAD, NEW HARTFORD, CT, 6057","Match","Exact","745 TOWN HILL RD, NEW HARTFORD, CT, 06057",611468215,"L"
284922,"745 VERN BUTLER DR","EL PASO","TX",79932,31.8840485970001,-106.616924007,422,"745 VERN BUTLER DR, EL PASO, TX, 79932","Match","Exact","745 VERN BUTLER DR, EL PASO, TX, 79932",625277888,"R"
284923,"745 VIRGINIA ST","EL SEGUNDO","CA",90245,33.9263065210001,-118.419490871,423,"745 VIRGINIA ST, EL SEGUNDO, CA, 90245","Match","Exact","745 VIRGINIA ST, EL SEGUNDO, CA, 90245",141579840,"L"
284924,"745 W 4TH AVE STE 200B","ANCHORAGE","AK",99501,NA,NA,424,"745 W 4TH AVE STE 200B, ANCHORAGE, AK, 99501","Tie",NA,NA,NA,NA
284925,"745 W FILLMORE ST","PHOENIX","AZ",85007,33.4551354540001,-112.08316726,425,"745 W FILLMORE ST, PHOENIX, AZ, 85007","Match","Exact","745 W FILLMORE ST, PHOENIX, AZ, 85007",128211828,"L"
284926,"745 WEST HONEYSUCKLE AVE","HAYDEN","ID",83835,47.751770498,-116.796862314,426,"745 WEST HONEYSUCKLE AVE, HAYDEN, ID, 83835","Match","Exact","745 W HONEYSUCKLE AVE, HAYDEN, ID, 83835",192926382,"R"
284927,"745 WILLIE RUTH WILLIAMS LANE","QUINCY","FL",32351,30.5773954680001,-84.604376969,427,"745 WILLIE RUTH WILLIAMS LANE, QUINCY, FL, 32351","Match","Exact","745 WILLIE RUTH WILLIAMS LN, QUINCY, FL, 32351",87818145,"R"
284928,"745 WITMER RD","YORK","PA",17402,39.973627127,-76.6209409959999,428,"745 WITMER RD, YORK, PA, 17402","Match","Exact","745 WITMER RD, YORK, PA, 17402",624745151,"L"
284929,"745 YORKWAY PLACE","JENKINTOWN","PA",19046,40.0965380740001,-75.126273184,429,"745 YORKWAY PLACE, JENKINTOWN, PA, 19046","Match","Exact","745 YORKWAY PL, JENKINTOWN, PA, 19046",135093588,"L"
284930,"7450 103RD STREET","JACKSONVILLE","FL",32210,30.2482884130001,-81.770226169,430,"7450 103RD STREET, JACKSONVILLE, FL, 32210","Match","Exact","7450 103RD ST, JACKSONVILLE, FL, 32210",83909880,"L"
284931,"7450 BEAR CREEK CT","HIGHLAND","CA",92346,34.1182615880001,-117.159228176,431,"7450 BEAR CREEK CT, HIGHLAND, CA, 92346","Match","Exact","7450 BEAR CREEK CT, HIGHLAND, CA, 92346",144966609,"L"
284932,"7450 CHAPMAN HIGHWAY","KNOXVILLE","TN",37920,35.9083472720001,-83.8438835749999,432,"7450 CHAPMAN HIGHWAY, KNOXVILLE, TN, 37920","Match","Exact","7450 CHAPMAN HWY, KNOXVILLE, TN, 37920",42644590,"L"
284933,"7450 CHAPMAN HWY 191","KNOXVILLE","TN",37920,35.9083472720001,-83.8438835749999,433,"7450 CHAPMAN HWY 191, KNOXVILLE, TN, 37920","Match","Exact","7450 CHAPMAN HWY, KNOXVILLE, TN, 37920",42644590,"L"
284934,"7450 DEERHILL DR","CLARKSTON","MI",48346,42.7439995410001,-83.436024953,434,"7450 DEERHILL DR, CLARKSTON, MI, 48346","Match","Exact","7450 DEERHILL DR, CLARKSTON, MI, 48346",69768532,"R"
284935,"7450 EMORY PLACE","HUGHESVILLE","MD",20637,38.50306994,-76.816551263,435,"7450 EMORY PLACE, HUGHESVILLE, MD, 20637","Match","Exact","7450 EMORY PL, HUGHESVILLE, MD, 20637",25416157,"R"
284936,"7450 FAIRGROUND RD  PO BOX 45","HILLSBORO","OH",45133,39.2140268380001,-83.622298933,436,"7450 FAIRGROUND RD  PO BOX 45, HILLSBORO, OH, 45133","Match","Exact","7450 FAIRGROUND RD, HILLSBORO, OH, 45133",101063180,"R"
284937,"7450 FRANKLIN STREET","FOREST PARK","IL",60130,41.885307056,-87.810468196,437,"7450 FRANKLIN STREET, FOREST PARK, IL, 60130","Match","Exact","7450 FRANKLIN ST, FOREST PARK, IL, 60130",111749645,"L"
284938,"7450 IDA WELLS FOREST DRIVE","HOUSTON","TX",77016,29.870941234,-95.293485615,438,"7450 IDA WELLS FOREST DRIVE, HOUSTON, TX, 77016","Match","Exact","7450 IDA WELLS FOREST DR, HOUSTON, TX, 77016",624279422,"R"
284939,"7450 LAKE TRAVIS DR","CORPUS CHRISTI","TX",78413,27.6789618880001,-97.416704062,439,"7450 LAKE TRAVIS DR, CORPUS CHRISTI, TX, 78413","Match","Exact","7450 LAKE TRAVIS DR, CORPUS CHRISTI, TX, 78413",178541309,"R"
284940,"7450 NATURAL BRIDGE ROAD UNIT 21051","ST. LOUIS","MO",63121,38.7046493080001,-90.2981825049999,440,"7450 NATURAL BRIDGE ROAD UNIT 21051, ST. LOUIS, MO, 63121","Match","Exact","7450 NATURAL BRIDGE RD, SAINT LOUIS, MO, 63121",100151650,"L"
284941,"7450 NATURAL BRIDGE ROAD UNIT211446","ST. LOUIS","MO",63121,38.7046493080001,-90.2981825049999,441,"7450 NATURAL BRIDGE ROAD UNIT211446, ST. LOUIS, MO, 63121","Match","Exact","7450 NATURAL BRIDGE RD, SAINT LOUIS, MO, 63121",100151650,"L"
284942,"7450 NEW LIBERTY RD","WALCOTT","IA",52773,41.6575218770001,-90.754946957,442,"7450 NEW LIBERTY RD, WALCOTT, IA, 52773","Match","Exact","7450 NEW LIBERTY RD, WALCOTT, IA, 52773",122733166,"R"
284943,"7450 POPPY","CORONA","CA",92881,33.84400444,-117.528880402,443,"7450 POPPY, CORONA, CA, 92881","Match","Non_Exact","7450 POPPY ST, CORONA, CA, 92881",194851076,"L"
284944,"7450 S 114TH STREET","SEATTLE","WA",98178,47.501450925,-122.239877052,444,"7450 S 114TH STREET, SEATTLE, WA, 98178","Match","Exact","7450 S 114TH ST, SEATTLE, WA, 98178",623963122,"L"
284945,"7450 S MAIN","BLACKWELL","OK",74631,36.7201599200001,-97.2828511929999,445,"7450 S MAIN, BLACKWELL, OK, 74631","Match","Non_Exact","7450 S MAIN ST, BLACKWELL, OK, 74631",618675858,"R"
284946,"7450 SANDLAKE COMMONS BLVD STE 414","ORLANDO","FL",32819,28.4311465760001,-81.4802781619999,446,"7450 SANDLAKE COMMONS BLVD STE 414, ORLANDO, FL, 32819","Match","Non_Exact","7450 SAND LAKE COMMONS BLVD, ORLANDO, FL, 32819",640899977,"L"
284947,"7450 W W130 STREET SUITE 110","OVERLAND PARK","KS",66213,NA,NA,447,"7450 W W130 STREET SUITE 110, OVERLAND PARK, KS, 66213","No_Match",NA,NA,NA,NA
284948,"7451 BRIAR CLIFF CIRCLE","LAKE WORTH","FL",33467,NA,NA,448,"7451 BRIAR CLIFF CIRCLE, LAKE WORTH, FL, 33467","No_Match",NA,NA,NA,NA
284949,"7451 GALILEE RD STE 100","ROSEVILLE","CA",95678,38.7771658280001,-121.306821787,449,"7451 GALILEE RD STE 100, ROSEVILLE, CA, 95678","Match","Exact","7451 GALILEE RD, ROSEVILLE, CA, 95678",106813655,"R"
284950,"7451 HOLYOKE CIR","MAINEVILLE","OH",45039,39.3254584110001,-84.217532838,450,"7451 HOLYOKE CIR, MAINEVILLE, OH, 45039","Match","Exact","7451 HOLYOKE CIR, MAINEVILLE, OH, 45039",159044668,"R"
284951,"7451 HUNTERS COURT","MIDDLETON","WI",53562,43.0917670960001,-89.511265441,451,"7451 HUNTERS COURT, MIDDLETON, WI, 53562","Match","Exact","7451 HUNTERS CT, MIDDLETON, WI, 53562",49487631,"R"
284952,"7451 HUNTERS CT","MIDDLETON","WI",53562,43.0917670960001,-89.511265441,452,"7451 HUNTERS CT, MIDDLETON, WI, 53562","Match","Exact","7451 HUNTERS CT, MIDDLETON, WI, 53562",49487631,"R"
284953,"7451 LINCOLN TRAIL RD","GENTRYVILLE","IN",47537,38.1175582330001,-87.102539376,453,"7451 LINCOLN TRAIL RD, GENTRYVILLE, IN, 47537","Match","Exact","7451 LINCOLN TRAIL RD, GENTRYVILLE, IN, 47537",32208871,"R"
284954,"7451 WARNER AVE UNIT E  326","HUNTINGTON BEACH","CA",92647,33.7157255700001,-117.998408391,454,"7451 WARNER AVE UNIT E  326, HUNTINGTON BEACH, CA, 92647","Match","Exact","7451 WARNER AVE, HUNTINGTON BEACH, CA, 92647",609060327,"R"
284955,"7451-C NC HWY 22","WHISPERING PINES","NC",28327,35.2468476820001,-79.406760627,455,"7451-C NC HWY 22, WHISPERING PINES, NC, 28327","Match","Exact","7451 STATE HWY 22, WHISPERING PINES, NC, 28327",20321908,"R"
284956,"7452 ANDOVER DRIVE","CANTON","MI",48187,42.3378181300001,-83.5248776349999,456,"7452 ANDOVER DRIVE, CANTON, MI, 48187","Match","Exact","7452 ANDOVER DR, CANTON, MI, 48187",95697392,"L"
284957,"7452 BROADVIEW RD SUITE 148","PARMA","OH",44134,41.3630400800001,-81.684602593,457,"7452 BROADVIEW RD SUITE 148, PARMA, OH, 44134","Match","Exact","7452 BROADVIEW RD, PARMA, OH, 44134",61141371,"R"
284958,"7452 FLEMING STREET","PITTSBURGH","PA",15218,40.425517745,-79.890290038,458,"7452 FLEMING STREET, PITTSBURGH, PA, 15218","Match","Exact","7452 FLEMING ST, PITTSBURGH, PA, 15218",51653662,"R"
284959,"7452 MADEIRA PINES DR","CINCINNATI","OH",45243,39.1817316880001,-84.368807555,459,"7452 MADEIRA PINES DR, CINCINNATI, OH, 45243","Match","Exact","7452 MADEIRA PINES DR, CINCINNATI, OH, 45243",624312245,"L"
284960,"7452 OGONTZ AVENUE","PHILADELPHIA","PA",19138,40.067885265,-75.156547609,460,"7452 OGONTZ AVENUE, PHILADELPHIA, PA, 19138","Match","Exact","7452 OGONTZ AVE, PHILADELPHIA, PA, 19138",131412938,"L"
284961,"7452 RUSSELL RD","CALIENTE","NV",89008,NA,NA,461,"7452 RUSSELL RD, CALIENTE, NV, 89008","No_Match",NA,NA,NA,NA
284962,"7452 S LANCASTER RD SUITE A","DALLAS","TX",75241,32.6572510720001,-96.7831573079999,462,"7452 S LANCASTER RD SUITE A, DALLAS, TX, 75241","Match","Non_Exact","7452 S LANCASTER RD, DALLAS, TX, 75241",103219500,"L"
284963,"7452 WILKINSON MEADOWS CT NE","ROCKFORD","MI",49341,43.0982190220001,-85.489305713,463,"7452 WILKINSON MEADOWS CT NE, ROCKFORD, MI, 49341","Match","Exact","7452 WILKINSON MEADOWS CT NE, ROCKFORD, MI, 49341",636867587,"L"
284964,"7453 COBBLESTONE EAST DRIVE","INDIANAPOLIS","IN",46236,39.8905968940001,-85.9441417899999,464,"7453 COBBLESTONE EAST DRIVE, INDIANAPOLIS, IN, 46236","Match","Exact","7453 COBBLESTONE E DR, INDIANAPOLIS, IN, 46236",108033363,"R"
284965,"7453 E REDLANDS AVE","FRESNO","CA",93737,36.7833228010001,-119.656387608,465,"7453 E REDLANDS AVE, FRESNO, CA, 93737","Match","Exact","7453 E REDLANDS AVE, FRESNO, CA, 93737",625704323,"R"
284966,"7453 EMERSON DR","CANTON","MI",48187,42.339623386,-83.4647399139999,466,"7453 EMERSON DR, CANTON, MI, 48187","Match","Exact","7453 EMERSON DR, CANTON, MI, 48187",95409179,"L"
284967,"7453 FOUR WINDS CT","EASTVALE","CA",92880,33.9530026790001,-117.577103379,467,"7453 FOUR WINDS CT, EASTVALE, CA, 92880","Match","Exact","7453 FOUR WINDS CT, EASTVALE, CA, 92880",608987944,"L"
284968,"7453 GREENHAVEN DR APT 16","SACRAMENTO","CA",95831,38.48730103,-121.517323933,468,"7453 GREENHAVEN DR APT 16, SACRAMENTO, CA, 95831","Match","Exact","7453 GREENHAVEN DR, SACRAMENTO, CA, 95831",133364315,"L"
284969,"7453 HIGHLAND ROAD","KANE","PA",16735,41.6537778640001,-78.797034329,469,"7453 HIGHLAND ROAD, KANE, PA, 16735","Match","Exact","7453 HIGHLAND RD, KANE, PA, 16735",122635769,"L"
284970,"7453 NW 70TH AVE","PARKLAND","FL",33067,26.3233757350001,-80.220022937,470,"7453 NW 70TH AVE, PARKLAND, FL, 33067","Match","Exact","7453 NW 70TH AVE, PARKLAND, FL, 33067",114816744,"R"
284971,"7453 SOUTH MAIN STREET","MIDVALE","UT",84047,40.615698502,-111.91026239,471,"7453 SOUTH MAIN STREET, MIDVALE, UT, 84047","Match","Non_Exact","7453 N MAIN ST, MIDVALE, UT, 84047",176084614,"R"
284972,"7454 AIRPORT RD  SUITE G","WEST JORDAN","UT",84084,40.6164890320001,-111.998527583,472,"7454 AIRPORT RD  SUITE G, WEST JORDAN, UT, 84084","Match","Exact","7454 AIRPORT RD, WEST JORDAN, UT, 84084",653294965,"R"
284973,"7454 CHESTERFIELD DR APT B","DALLAS","TX",75237,32.6570399870001,-96.869780884,473,"7454 CHESTERFIELD DR APT B, DALLAS, TX, 75237","Match","Exact","7454 CHESTERFIELD DR, DALLAS, TX, 75237",650071813,"L"
284974,"7454 FOXTROT LANE","ROGERSVILLE","MO",65742,37.1556895250001,-93.137202928,474,"7454 FOXTROT LANE, ROGERSVILLE, MO, 65742","Match","Exact","7454 FOXTROT LN, ROGERSVILLE, MO, 65742",605896731,"R"
284975,"7454 KATINKA LAKE RD","PRESQUE ISLE","WI",54557,46.206742252,-89.799534046,475,"7454 KATINKA LAKE RD, PRESQUE ISLE, WI, 54557","Match","Exact","7454 KATINKA LAKE RD, PRESQUE ISLE, WI, 54557",165556146,"R"
284976,"7454 SW 48TH STREET","MIAMI","FL",33155,25.7255666460001,-80.312532146,476,"7454 SW 48TH STREET, MIAMI, FL, 33155","Match","Exact","7454 SW 48TH ST, MIAMI, FL, 33155",116067376,"L"
284977,"7454 WOODHAVEN DR","LA PLATA","MD",20646,38.5104430330001,-76.954729462,477,"7454 WOODHAVEN DR, LA PLATA, MD, 20646","Match","Exact","7454 WOODHAVEN DR, LA PLATA, MD, 20646",650878644,"R"
284978,"7455 ARROYO CROSSING PKWY SUITE 220","LAS VEGAS","NV",89113,NA,NA,478,"7455 ARROYO CROSSING PKWY SUITE 220, LAS VEGAS, NV, 89113","No_Match",NA,NA,NA,NA
284979,"7455 ARROYO CROSSING SUITE 102","LAS VEGAS","NV",89113,NA,NA,479,"7455 ARROYO CROSSING SUITE 102, LAS VEGAS, NV, 89113","No_Match",NA,NA,NA,NA
284980,"7455 CALDER AVE  26","BEAUMONT","TX",77706,30.0739033350001,-94.178669605,480,"7455 CALDER AVE  26, BEAUMONT, TX, 77706","Match","Exact","7455 CALDER AVE, BEAUMONT, TX, 77706",73852029,"L"
284981,"7455 CHARMANT DR UNIT 1802","SAN DIEGO","CA",92122,32.865571469,-117.227200326,481,"7455 CHARMANT DR UNIT 1802, SAN DIEGO, CA, 92122","Match","Exact","7455 CHARMANT DR, SAN DIEGO, CA, 92122",624610147,"L"
284982,"7455 FRANCE AVE S    UNIT 164","EDINA","MN",55435,44.8674966580001,-93.3287803159999,482,"7455 FRANCE AVE S    UNIT 164, EDINA, MN, 55435","Match","Exact","7455 FRANCE AVE S, EDINA, MN, 55435",640672642,"L"
284983,"7455 FRANCE AVE S APT 173","EDINA","MN",55435,44.8674966580001,-93.3287803159999,483,"7455 FRANCE AVE S APT 173, EDINA, MN, 55435","Match","Exact","7455 FRANCE AVE S, EDINA, MN, 55435",640672642,"L"
284984,"7455 FRANCE AVE S UNIT 175","EDINA","MN",55435,44.8674966580001,-93.3287803159999,484,"7455 FRANCE AVE S UNIT 175, EDINA, MN, 55435","Match","Exact","7455 FRANCE AVE S, EDINA, MN, 55435",640672642,"L"
284985,"7455 FRANCE AVENUE SOUTH/131","EDINA","MN",55435,44.8674966580001,-93.3287803159999,485,"7455 FRANCE AVENUE SOUTH/131, EDINA, MN, 55435","Match","Exact","7455 FRANCE AVE S, EDINA, MN, 55435",640672642,"L"
284986,"7455 GRASSY CREEK WAY","EL DORADO HILLS","CA",95762,38.6292609330001,-121.074817096,486,"7455 GRASSY CREEK WAY, EL DORADO HILLS, CA, 95762","Match","Exact","7455 GRASSY CREEK WAY, EL DORADO HILLS, CA, 95762",607158611,"R"
284987,"7455 GUNTER RD","PENSACOLA","FL",32526,30.503306884,-87.2932364169999,487,"7455 GUNTER RD, PENSACOLA, FL, 32526","Match","Exact","7455 GUNTER RD, PENSACOLA, FL, 32526",93212596,"L"
284988,"7455 MAHAFFEY DRIVE","PICKERINGTON","OH",43147,39.917956319,-82.800858621,488,"7455 MAHAFFEY DRIVE, PICKERINGTON, OH, 43147","Match","Exact","7455 MAHAFFEY DR, PICKERINGTON, OH, 43147",37234770,"R"
284989,"7455 N FRESNO STREET  SUITE 202","FRESNO","CA",93720,NA,NA,489,"7455 N FRESNO STREET  SUITE 202, FRESNO, CA, 93720","Tie",NA,NA,NA,NA
284990,"7455 SW BRIDGEPORT RD STE 220","PORTLAND","OR",97224,45.393426376,-122.754743033,490,"7455 SW BRIDGEPORT RD STE 220, PORTLAND, OR, 97224","Match","Non_Exact","7455 SW BRIDGEPORT RD, PORTLAND, OR, 97224",158192870,"R"
284991,"7455 W CORNELIA AVE","CHICAGO","IL",60634,41.9433140790001,-87.813386421,491,"7455 W CORNELIA AVE, CHICAGO, IL, 60634","Match","Non_Exact","7455 W CORNELIA AVE, CHICAGO, IL, 60634",605166275,"L"
284992,"7456 PADDLE WHEEL COURT","BLOOMFIELD HILLS","MI",48301,42.5317006710001,-83.296176821,492,"7456 PADDLE WHEEL COURT, BLOOMFIELD HILLS, MI, 48301","Match","Exact","7456 PADDLE WHEEL CT, BLOOMFIELD HILLS, MI, 48301",69729510,"R"
284993,"7456 W 5TH AVE STE 300","LAKEWOOD","CO",80226,39.7239216930001,-105.080562822,493,"7456 W 5TH AVE STE 300, LAKEWOOD, CO, 80226","Match","Non_Exact","7456 W 5TH AVE, LAKEWOOD, CO, 80226",177320009,"L"
284994,"7457 BROADNECK ROAD","CHESTERTOWN","MD",21620,39.1831323660001,-76.1439788279999,494,"7457 BROADNECK ROAD, CHESTERTOWN, MD, 21620","Match","Non_Exact","7457 BROAD NECK RD, CHESTERTOWN, MD, 21620",68354059,"R"
284995,"7457 HUNTERS RUN CT","DALLAS","TX",75232,32.6570659270001,-96.856464336,495,"7457 HUNTERS RUN CT, DALLAS, TX, 75232","Match","Exact","7457 HUNTERS RUN CT, DALLAS, TX, 75232",102971717,"L"
284996,"7457 KINGSLAND DRIVE","MEMPHIS","TN",38125,35.0392187310001,-89.815144576,496,"7457 KINGSLAND DRIVE, MEMPHIS, TN, 38125","Match","Exact","7457 KINGSLAND DR, MEMPHIS, TN, 38125",72942934,"R"
284997,"7457 MINK HOLLOW ROAD","HIGHLAND","MD",20777,39.174268054,-76.9928022289999,497,"7457 MINK HOLLOW ROAD, HIGHLAND, MD, 20777","Match","Exact","7457 MINK HOLLOW RD, HIGHLAND, MD, 20777",158966095,"L"
284998,"7457 RIVERSIDE DR","RICHMOND","VA",23225,37.5530536630001,-77.523888497,498,"7457 RIVERSIDE DR, RICHMOND, VA, 23225","Match","Exact","7457 RIVERSIDE DR, RICHMOND, VA, 23225",201532596,"L"
284999,"7457 S 200 E","MARKLEVILLE","IN",46056,39.998891031,-85.6337956409999,499,"7457 S 200 E, MARKLEVILLE, IN, 46056","Match","Exact","7457 S 200 E, MARKLEVILLE, IN, 46056",31128735,"R"
285000,"74575 HIGHWAY 59","COVINGTON","LA",70435,30.5186950720001,-90.040806448,500,"74575 HIGHWAY 59, COVINGTON, LA, 70435","Match","Non_Exact","74575 STATE RTE 59, COVINGTON, LA, 70435",111231257,"L"
