"ID","Address","City","State","Zip","lat","long","id","input_address","match_indicator","match_type","matched_address","tiger_line_id","tiger_side"
67001,"150 JOHN M","CLAWSON","MI",48017,42.5362503420001,-83.151190007,1,"150 JOHN M, CLAWSON, MI, 48017","Match","Non_Exact","150 JOHN M AVE, CLAWSON, MI, 48017",69738211,"R"
67002,"150 JOSEPHINE AVENUE","MADISON","WV",25130,38.0631869100001,-81.817319482,2,"150 JOSEPHINE AVENUE, MADISON, WV, 25130","Match","Exact","150 JOSEPHINE AVE, MADISON, WV, 25130",78548013,"R"
67003,"150 KELLY STREET","JASPER","TX",75951,30.9087621730001,-93.998928453,3,"150 KELLY STREET, JASPER, TX, 75951","Match","Exact","150 KELLY ST, JASPER, TX, 75951",608702635,"L"
67004,"150 KITTO LANE","DUNDEE","FL",33838,NA,NA,4,"150 KITTO LANE, DUNDEE, FL, 33838","No_Match",NA,NA,NA,NA
67005,"150 LINCOLN STREET","STRATFORD","CT",6614,41.210951423,-73.1404951499999,5,"150 LINCOLN STREET, STRATFORD, CT, 6614","Match","Exact","150 LINCOLN ST, STRATFORD, CT, 06614",3226971,"L"
67006,"150 LONGHORN TRL","KERRVILLE","TX",78028,30.110143228,-99.197053151,6,"150 LONGHORN TRL, KERRVILLE, TX, 78028","Match","Exact","150 LONGHORN TRL, KERRVILLE, TX, 78028",176886582,"L"
67007,"150 LONGMEADOW ROAD","AMHERST","NY",14226,42.972430929,-78.817468984,7,"150 LONGMEADOW ROAD, AMHERST, NY, 14226","Match","Exact","150 LONGMEADOW RD, AMHERST, NY, 14226",48295470,"L"
67008,"150 LOOKOUT CT","HENRYVILLE","PA",18332,41.056601243,-75.310752856,8,"150 LOOKOUT CT, HENRYVILLE, PA, 18332","Match","Exact","150 LOOKOUT CT, HENRYVILLE, PA, 18332",634845565,"L"
67009,"150 LOUISE TERR","GLEN BURNIE","MD",21060,39.1528608180001,-76.6080088749999,9,"150 LOUISE TERR, GLEN BURNIE, MD, 21060","Match","Exact","150 LOUISE TER, GLEN BURNIE, MD, 21060",68159054,"R"
67010,"150 LOVELADY LN","VIDOR","TX",77662,30.142530263,-93.975919018,10,"150 LOVELADY LN, VIDOR, TX, 77662","Match","Exact","150 LOVELADY LN, VIDOR, TX, 77662",74021873,"R"
67011,"150 LYDIAS LANE","RIDGELAND","SC",29936,32.471876444,-80.976851461,11,"150 LYDIAS LANE, RIDGELAND, SC, 29936","Match","Non_Exact","150 LYDIA'S LN, RIDGELAND, SC, 29936",637746064,"R"
67012,"150 LYNN STREET","PEABODY","MA",1960,42.5074184960001,-70.9511310789999,12,"150 LYNN STREET, PEABODY, MA, 1960","Match","Exact","150 LYNN ST, PEABODY, MA, 01960",86640302,"L"
67013,"150 MAIN ST","GROVELAND","MA",1834,NA,NA,13,"150 MAIN ST, GROVELAND, MA, 1834","No_Match",NA,NA,NA,NA
67014,"150 MAPLE AVE NUMBER 233","SOUTH PLAINFIELD","NJ",7080,40.5823696210001,-74.41302738,14,"150 MAPLE AVE NUMBER 233, SOUTH PLAINFIELD, NJ, 7080","Match","Exact","150 MAPLE AVE, S PLAINFIELD, NJ, 07080",60261283,"R"
67015,"150 MAPLE STREET","ESSEX JUNCTION","VT",5452,44.4842266650001,-73.095514113,15,"150 MAPLE STREET, ESSEX JUNCTION, VT, 5452","Match","Exact","150 MAPLE ST, ESSEX JCT, VT, 05452",135859323,"L"
67016,"150 MAPLE STREET","ISLIP","NY",11751,40.7217249730001,-73.2162775369999,16,"150 MAPLE STREET, ISLIP, NY, 11751","Match","Exact","150 MAPLE ST, ISLIP, NY, 11751",113997387,"R"
67017,"150 MATTHEW WAY","FAYETTEVILLE","GA",30214,33.495544598,-84.4610830839999,17,"150 MATTHEW WAY, FAYETTEVILLE, GA, 30214","Match","Exact","150 MATTHEW WAY, FAYETTEVILLE, GA, 30214",75950038,"L"
67018,"150 MERCER ST","PRINCETON","NJ",8540,40.3422847050001,-74.667979606,18,"150 MERCER ST, PRINCETON, NJ, 8540","Match","Exact","150 MERCER ST, PRINCETON, NJ, 08540",60172333,"L"
67019,"150 MINERAL SPRINGS DRIVE","ROCKAWAY","NJ",7866,NA,NA,19,"150 MINERAL SPRINGS DRIVE, ROCKAWAY, NJ, 7866","No_Match",NA,NA,NA,NA
67020,"150 MONROE AVENUE","EDISON","NJ",8820,40.5629977940001,-74.354638236,20,"150 MONROE AVENUE, EDISON, NJ, 8820","Match","Exact","150 MONROE AVE, EDISON, NJ, 08820",639713137,"L"
67021,"150 MONTADALE DR","PRINCETON","NJ",8540,40.376588849,-74.6690927079999,21,"150 MONTADALE DR, PRINCETON, NJ, 8540","Match","Exact","150 MONTADALE DR, PRINCETON, NJ, 08540",60227219,"L"
67022,"150 MONTEREY ROAD APT 8","SOUTH PASADENA","CA",91030,34.1101689390001,-118.174514996,22,"150 MONTEREY ROAD APT 8, SOUTH PASADENA, CA, 91030","Match","Exact","150 MONTEREY RD, SOUTH PASADENA, CA, 91030",142735649,"L"
67023,"150 MONUMENT ROAD SUITE 207","BALA CYNWYD","VA",19004,NA,NA,23,"150 MONUMENT ROAD SUITE 207, BALA CYNWYD, VA, 19004","No_Match",NA,NA,NA,NA
67024,"150 MOTOR PARKWAY SUITE 401","HAUPPAUGE","NY",11788,40.8074778860001,-73.245024491,24,"150 MOTOR PARKWAY SUITE 401, HAUPPAUGE, NY, 11788","Match","Exact","150 MOTOR PKWY, HAUPPAUGE, NY, 11788",114245050,"R"
67025,"150 N 3050 E NUMBER 85","ST GEORGE","UT",84790,37.1107137480001,-113.52152292,25,"150 N 3050 E NUMBER 85, ST GEORGE, UT, 84790","Match","Non_Exact","150 N 3050 E, SAINT GEORGE, UT, 84790",166197733,"L"
67026,"150 N BEACHWOOD DR APT C","BURBANK","CA",91506,NA,NA,26,"150 N BEACHWOOD DR APT C, BURBANK, CA, 91506","Tie",NA,NA,NA,NA
67027,"150 N EUCLID STREET","LA HABRA","CA",90631,33.932541069,-117.946111144,27,"150 N EUCLID STREET, LA HABRA, CA, 90631","Match","Non_Exact","150 N EUCLID ST, LA HABRA, CA, 90631",609074011,"R"
67028,"150 N HOLMES BLVD","ST AUGUSTINE","FL",32084,29.891919527,-81.356510035,28,"150 N HOLMES BLVD, ST AUGUSTINE, FL, 32084","Match","Exact","150 N HOLMES BLVD, SAINT AUGUSTINE, FL, 32084",92615193,"R"
67029,"150 N HOLMES BOULEVARD","ST AUGUSTINE","FL",32084,29.891919527,-81.356510035,29,"150 N HOLMES BOULEVARD, ST AUGUSTINE, FL, 32084","Match","Exact","150 N HOLMES BLVD, SAINT AUGUSTINE, FL, 32084",92615193,"R"
67030,"150 N LAKEVIEW BLDV  NO 25","CHANDLER","AZ",85225,NA,NA,30,"150 N LAKEVIEW BLDV  NO 25, CHANDLER, AZ, 85225","No_Match",NA,NA,NA,NA
67031,"150 N MAIN ST","SYCAMORE","IL",60178,41.9893461570001,-88.6843139389999,31,"150 N MAIN ST, SYCAMORE, IL, 60178","Match","Exact","150 N MAIN ST, SYCAMORE, IL, 60178",637873515,"R"
67032,"150 N MAIN STREET","FAIRPORT","NY",14450,43.106269174,-77.441829728,32,"150 N MAIN STREET, FAIRPORT, NY, 14450","Match","Exact","150 N MAIN ST, FAIRPORT, NY, 14450",14547837,"R"
67033,"150 N MICHIGAN AVE STE 2130","CHICAGO","IL",60601,41.884950632,-87.6244821669999,33,"150 N MICHIGAN AVE STE 2130, CHICAGO, IL, 60601","Match","Non_Exact","150 N MICHIGAN AVE, CHICAGO, IL, 60601",111769118,"L"
67034,"150 N MICHIGAN AVE STE 2800","CHICAGO","IL",60601,41.884950632,-87.6244821669999,34,"150 N MICHIGAN AVE STE 2800, CHICAGO, IL, 60601","Match","Non_Exact","150 N MICHIGAN AVE, CHICAGO, IL, 60601",111769118,"L"
67035,"150 N MICHIGAN AVE SUITE 2800","CHICAGO","IL",60601,41.884950632,-87.6244821669999,35,"150 N MICHIGAN AVE SUITE 2800, CHICAGO, IL, 60601","Match","Non_Exact","150 N MICHIGAN AVE, CHICAGO, IL, 60601",111769118,"L"
67036,"150 N OAKRIDGE DR","HUDSON OAKS","TX",76087,32.770351528,-97.712523674,36,"150 N OAKRIDGE DR, HUDSON OAKS, TX, 76087","Match","Exact","150 N OAKRIDGE DR, HUDSON OAKS, TX, 76087",611019096,"R"
67037,"150 N RACE ST","MIDDLETOWN","PA",17057,40.1966526630001,-76.725606387,37,"150 N RACE ST, MIDDLETOWN, PA, 17057","Match","Exact","150 RACE ST, MIDDLETOWN, PA, 17057",70825972,"R"
67038,"150 N RADNOR-CHESTER ROAD SU F-200","RADNOR","PA",19087,40.0387053060001,-75.36600906,38,"150 N RADNOR-CHESTER ROAD SU F-200, RADNOR, PA, 19087","Match","Non_Exact","150 N RADNOR CHESTER RD, RADNOR, PA, 19087",134872272,"R"
67039,"150 N RESEARCH CAMPUS DRIVE","KANNAPOLIS","NC",28021,35.5000690270001,-80.6240299689999,39,"150 N RESEARCH CAMPUS DRIVE, KANNAPOLIS, NC, 28021","Match","Non_Exact","150 N RESEARCH CAMPUS DR, KANNAPOLIS, NC, 28081",24929549,"L"
67040,"150 N RIVER CIR UNIT 106","OCEANSIDE","CA",92057,33.2555335100001,-117.296071505,40,"150 N RIVER CIR UNIT 106, OCEANSIDE, CA, 92057","Match","Non_Exact","150 N RIVER CIR, OCEANSIDE, CA, 92057",635321652,"L"
67041,"150 N RIVER ST","NEWCOMERSTOWN","OH",43832,40.2749052680001,-81.6088860739999,41,"150 N RIVER ST, NEWCOMERSTOWN, OH, 43832","Match","Exact","150 N RIVER ST, NEWCOMERSTOWN, OH, 43832",44248909,"L"
67042,"150 N SPRING BLVD","TARPON SPRINGS","FL",34689,28.147696454,-82.760451442,42,"150 N SPRING BLVD, TARPON SPRINGS, FL, 34689","Match","Exact","150 N SPRING BLVD, TARPON SPNGS, FL, 34689",124660620,"R"
67043,"150 N UNIVERSITY ST","WEST LAFAYETTE","IN",47907,40.4257271750001,-86.916665816,43,"150 N UNIVERSITY ST, WEST LAFAYETTE, IN, 47907","Match","Exact","150 UNIVERSITY ST, W LAFAYETTE, IN, 47907",638389452,"R"
67044,"150 NASSAU ST SUITE 4G","NEW YORK","NY",10038,40.711334107,-74.006309168,44,"150 NASSAU ST SUITE 4G, NEW YORK, NY, 10038","Match","Exact","150 NASSAU ST, NEW YORK, NY, 10038",59660413,"R"
67045,"150 NATIVE TRACE","NICHOLASVILLE","KY",40356,37.958986431,-84.567113181,45,"150 NATIVE TRACE, NICHOLASVILLE, KY, 40356","Match","Exact","150 NATIVE TRCE, NICHOLASVILLE, KY, 40356",651163907,"R"
67046,"150 NE 70TH ST","MIAMI","FL",33138,25.839391974,-80.193649937,46,"150 NE 70TH ST, MIAMI, FL, 33138","Match","Exact","150 NE 70TH ST, MIAMI, FL, 33138",116006466,"R"
67047,"150 NEW STREET","HELLERTOWN","PA",18055,40.5733115840001,-75.3398055649999,47,"150 NEW STREET, HELLERTOWN, PA, 18055","Match","Exact","150 NEW ST, HELLERTOWN, PA, 18055",136887071,"L"
67048,"150 NORTH BROADWAY APT 28","LINDENHURST","NY",11757,40.6874403250001,-73.3765229369999,48,"150 NORTH BROADWAY APT 28, LINDENHURST, NY, 11757","Match","Exact","150 N BROADWAY, LINDENHURST, NY, 11757",113974033,"R"
67049,"150 NORTH DURANGO DRIVE SUITE 190","LAS VEGAS","NV",89145,36.1772207590001,-115.278222413,49,"150 NORTH DURANGO DRIVE SUITE 190, LAS VEGAS, NV, 89145","Match","Exact","150 N DURANGO DR, LAS VEGAS, NV, 89145",641546737,"R"
67050,"150 NORTH GREENFIELD ROAD","PORTER CORNERS","NY",12859,43.1572341720001,-73.872459044,50,"150 NORTH GREENFIELD ROAD, PORTER CORNERS, NY, 12859","Match","Exact","150 N GREENFIELD RD, PORTER CORNERS, NY, 12859",18788682,"R"
67051,"150 NORTH MAIN STREET STE 110","HEBER CITY","UT",84032,40.5096466100001,-111.413460466,51,"150 NORTH MAIN STREET STE 110, HEBER CITY, UT, 84032","Match","Exact","150 N MAIN ST, HEBER CITY, UT, 84032",177184067,"R"
67052,"150 NORTH MICHIGAN AVE-28TH FLOOR","CHICAGO","IL",60601,41.884938144,-87.6244814729999,52,"150 NORTH MICHIGAN AVE-28TH FLOOR, CHICAGO, IL, 60601","Match","Non_Exact","150 N MICHIGAN AVE, CHICAGO, IL, 60601",111769118,"L"
67053,"150 NORTHLAND RIDGE TRAIL","SANDY SPRINGS","GA",30342,33.890961804,-84.360354022,53,"150 NORTHLAND RIDGE TRAIL, SANDY SPRINGS, GA, 30342","Match","Non_Exact","150 NORTHLAND RIDGE TRL NE, SANDY SPRINGS, GA, 30342",17381239,"L"
67054,"150 NORTHPARK PLAZA DR APT 719","KINGWOOD","TX",77339,30.0596366940001,-95.246182828,54,"150 NORTHPARK PLAZA DR APT 719, KINGWOOD, TX, 77339","Match","Non_Exact","150 NORTHPARK PLZ DR, KINGWOOD, TX, 77339",79316129,"R"
67055,"150 NUNES ROAD","APTOS HILLS","CA",95076,36.974096457,-121.84039089,55,"150 NUNES ROAD, APTOS HILLS, CA, 95076","Match","Non_Exact","150 NUNES RD, WATSONVILLE, CA, 95076",605970332,"R"
67056,"150 OAK ROAD","DURANGO","CO",81303,37.2411944190001,-107.956826855,56,"150 OAK ROAD, DURANGO, CO, 81303","Match","Exact","150 OAK RD, DURANGO, CO, 81303",625689561,"L"
67057,"150 OAKLAND AVE STE 233","ROCK HILL","SC",29730,34.9301590330001,-81.024033536,57,"150 OAKLAND AVE STE 233, ROCK HILL, SC, 29730","Match","Exact","150 OAKLAND AVE, ROCK HILL, SC, 29730",642585756,"R"
67058,"150 OCEAN AVE 2A","BROOKLYN","NY",11225,NA,NA,58,"150 OCEAN AVE 2A, BROOKLYN, NY, 11225","No_Match",NA,NA,NA,NA
67059,"150 OHIO ST","APOLLO","PA",15613,40.5896846520001,-79.534615837,59,"150 OHIO ST, APOLLO, PA, 15613","Match","Exact","150 OHIO ST, APOLLO, PA, 15613",52475573,"L"
67060,"150 OLD CANAAN ROAD","SPARTANBURG","SC",29306,NA,NA,60,"150 OLD CANAAN ROAD, SPARTANBURG, SC, 29306","Tie",NA,NA,NA,NA
67061,"150 OLD MEADOW DRIVE","DRACUT","MA",1826,42.659814833,-71.33510352,61,"150 OLD MEADOW DRIVE, DRACUT, MA, 1826","Match","Non_Exact","150 OLD MEADOW RD, DRACUT, MA, 01826",86875351,"L"
67062,"150 ONIX DRIVE","KENNETT SQUARE","PA",19348,NA,NA,62,"150 ONIX DRIVE, KENNETT SQUARE, PA, 19348","No_Match",NA,NA,NA,NA
67063,"150 ORRS MILLS RD","SALISBURY MILLS","NY",12577,41.4296613450001,-74.104328703,63,"150 ORRS MILLS RD, SALISBURY MILLS, NY, 12577","Match","Exact","150 ORRS MILLS RD, SALISBURY MILLS, NY, 12577",124451821,"R"
67064,"150 OTTAWA AVE NW SUITE 1500","GRAND RAPIDS","MI",49503,42.966818425,-85.670064558,64,"150 OTTAWA AVE NW SUITE 1500, GRAND RAPIDS, MI, 49503","Match","Exact","150 OTTAWA AVE NW, GRAND RAPIDS, MI, 49503",12457642,"R"
67065,"150 PALM AVE","AUBURN","CA",95603,38.908949105,-121.07989419,65,"150 PALM AVE, AUBURN, CA, 95603","Match","Exact","150 PALM AVE, AUBURN, CA, 95603",106790171,"R"
67066,"150 PALM VALLEY BLVD SUITE 2193","SAN JOSE","CA",95123,37.241109131,-121.807994069,66,"150 PALM VALLEY BLVD SUITE 2193, SAN JOSE, CA, 95123","Match","Exact","150 PALM VALLEY BLVD, SAN JOSE, CA, 95123",618191831,"R"
67067,"150 PARDEE AVENUE","JAMESTOWN","NY",14701,42.0955569860001,-79.215812678,67,"150 PARDEE AVENUE, JAMESTOWN, NY, 14701","Match","Exact","150 PARDEE AVE, JAMESTOWN, NY, 14701",120753696,"R"
67068,"150 PARK AVENUE","NORFOLK","VA",23510,36.844080798,-76.2742819819999,68,"150 PARK AVENUE, NORFOLK, VA, 23510","Match","Non_Exact","150 PARK AVE, NORFOLK, VA, 23504",122128318,"R"
67069,"150 PEARL ROAD","BRUNSWICK","OH",44212,41.271415474,-81.8384581289999,69,"150 PEARL ROAD, BRUNSWICK, OH, 44212","Match","Exact","150 PEARL RD, BRUNSWICK, OH, 44212",58674211,"L"
67070,"150 PEMBERTON WAY","AUSTIN","TX",78737,30.198587118,-97.9966765789999,70,"150 PEMBERTON WAY, AUSTIN, TX, 78737","Match","Exact","150 PEMBERTON WAY, AUSTIN, TX, 78737",63846335,"R"
67071,"150 PENCOYD AVENUE","BALA CYNWYD","PA",19004,40.0241972370001,-75.2318720119999,71,"150 PENCOYD AVENUE, BALA CYNWYD, PA, 19004","Match","Exact","150 PENCOYD AVE, BALA CYNWYD, PA, 19004",135106235,"L"
67072,"150 PIERCE STREET","SOMERSET","NJ",8873,40.5358995010001,-74.5404877839999,72,"150 PIERCE STREET, SOMERSET, NJ, 8873","Match","Exact","150 PIERCE ST, SOMERSET, NJ, 08873",647408853,"L"
67073,"150 PIONEER LN","KINGSLAND","TX",78639,NA,NA,73,"150 PIONEER LN, KINGSLAND, TX, 78639","No_Match",NA,NA,NA,NA
67074,"150 POMPTON PLAINS ROAD","WAYNE","NJ",7474,NA,NA,74,"150 POMPTON PLAINS ROAD, WAYNE, NJ, 7474","No_Match",NA,NA,NA,NA
67075,"150 PONDEROSA WAY","EAGLE POINT","OR",97524,42.456199998,-122.811181431,75,"150 PONDEROSA WAY, EAGLE POINT, OR, 97524","Match","Exact","150 PONDEROSA WAY, EAGLE POINT, OR, 97524",155613339,"R"
67076,"150 PORTO MARINO DRIVE","TIBURON","CA",94920,37.898946912,-122.479796276,76,"150 PORTO MARINO DRIVE, TIBURON, CA, 94920","Match","Exact","150 PORTO MARINO DR, TIBURON, CA, 94920",192769092,"R"
67077,"150 POST OFFICE ROAD 767","WALDORF","MD",20604,38.613372133,-76.9031689139999,77,"150 POST OFFICE ROAD 767, WALDORF, MD, 20604","Match","Non_Exact","150 POST OFFICE RD, WALDORF, MD, 20602",653289127,"R"
67078,"150 PRESTIGE DR","ROYAL PALM BEACH","FL",33411,26.7133999480001,-80.2256613289999,78,"150 PRESTIGE DR, ROYAL PALM BEACH, FL, 33411","Match","Exact","150 PRESTIGE DR, ROYAL PALM BEACH, FL, 33411",115569460,"L"
67079,"150 PRIVATE ROAD 864","ROCHELLE","TX",76872,NA,NA,79,"150 PRIVATE ROAD 864, ROCHELLE, TX, 76872","No_Match",NA,NA,NA,NA
67080,"150 PURCHASE STREET SUITE 9","RYE","NY",10580,40.9872565580001,-73.684004024,80,"150 PURCHASE STREET SUITE 9, RYE, NY, 10580","Match","Non_Exact","150 E PURCHASE ST, RYE, NY, 10580",139756418,"R"
67081,"150 RASPBERRY WAY","MADISON","AL",35757,34.804204267,-86.7588503429999,81,"150 RASPBERRY WAY, MADISON, AL, 35757","Match","Exact","150 RASPBERRY WAY, MADISON, AL, 35757",652581502,"L"
67082,"150 RAVINE AVENUE  APT 3D","YONKERS","NY",10701,40.9490937790001,-73.897891452,82,"150 RAVINE AVENUE  APT 3D, YONKERS, NY, 10701","Match","Exact","150 RAVINE AVE, YONKERS, NY, 10701",139742847,"R"
67083,"150 REVOLUTIONARY WAR WAY","MYRTLE BEACH","SC",29579,NA,NA,83,"150 REVOLUTIONARY WAR WAY, MYRTLE BEACH, SC, 29579","No_Match",NA,NA,NA,NA
67084,"150 RICE ST","SAN FRANCISCO","CA",94112,37.7093263780001,-122.458716594,84,"150 RICE ST, SAN FRANCISCO, CA, 94112","Match","Exact","150 RICE ST, SAN FRANCISCO, CA, 94112",192285717,"R"
67085,"150 RIVER ROAD SUITE A3","MONTVILLE","NJ",7045,40.890544253,-74.3700646089999,85,"150 RIVER ROAD SUITE A3, MONTVILLE, NJ, 7045","Match","Exact","150 RIVER RD, MONTVILLE, NJ, 07045",60480312,"R"
67086,"150 RIVEROAK DR","FAYETTEVILLE","GA",30215,33.371945327,-84.409714853,86,"150 RIVEROAK DR, FAYETTEVILLE, GA, 30215","Match","Exact","150 RIVEROAK DR, FAYETTEVILLE, GA, 30215",617239918,"L"
67087,"150 ROSEBOWER CHURCH ROAD","PADUCAH","KY",42003,36.985908486,-88.492847888,87,"150 ROSEBOWER CHURCH ROAD, PADUCAH, KY, 42003","Match","Exact","150 ROSEBOWER CHURCH RD, PADUCAH, KY, 42003",8400993,"R"
67088,"150 RUSTIC RIDGE ROAD","FREDERICKSBURG","VA",22405,NA,NA,88,"150 RUSTIC RIDGE ROAD, FREDERICKSBURG, VA, 22405","No_Match",NA,NA,NA,NA
67089,"150 S 34TH STREET","BOULDER","CO",80305,39.990543722,-105.25304636,89,"150 S 34TH STREET, BOULDER, CO, 80305","Match","Exact","150 S 34TH ST, BOULDER, CO, 80305",188162883,"R"
67090,"150 S 700 E","PRICE","UT",84501,39.597361618,-110.797913375,90,"150 S 700 E, PRICE, UT, 84501","Match","Exact","150 S 700 E, PRICE, UT, 84501",132821940,"L"
67091,"150 S BROAD ST","GALESBURG","IL",61401,40.9457315010001,-90.37112573,91,"150 S BROAD ST, GALESBURG, IL, 61401","Match","Exact","150 S BROAD ST, GALESBURG, IL, 61401",9039916,"L"
67092,"150 S CIELO AVENUE","WILLCOX","AZ",85643,32.2526393260001,-109.879849253,92,"150 S CIELO AVENUE, WILLCOX, AZ, 85643","Match","Exact","150 S CIELO AVE, WILLCOX, AZ, 85643",120952341,"L"
67093,"150 S EAST STREET","FREDERICK","MD",21701,39.415636824,-77.4051400339999,93,"150 S EAST STREET, FREDERICK, MD, 21701","Match","Exact","150 EAST ST, FREDERICK, MD, 21701",60671396,"R"
67094,"150 S GLENDORA AVE","GLENDORA","CA",91741,34.1351110300001,-117.865471128,94,"150 S GLENDORA AVE, GLENDORA, CA, 91741","Match","Exact","150 S GLENDORA AVE, GLENDORA, CA, 91741",241245432,"L"
67095,"150 S LINCOLN ST SUITE 150","SPOKANE","WA",99201,47.6585143390001,-117.425024975,95,"150 S LINCOLN ST SUITE 150, SPOKANE, WA, 99201","Match","Non_Exact","150 N LINCOLN ST, SPOKANE, WA, 99201",619324584,"R"
67096,"150 S MCKINLEY ST","CASPER","WY",82601,42.849677603,-106.31242947,96,"150 S MCKINLEY ST, CASPER, WY, 82601","Match","Exact","150 S MCKINLEY ST, CASPER, WY, 82601",607728982,"R"
67097,"150 S PINE ISLAND RD SUITE 312","FORT LAUDERDALE","FL",33324,NA,NA,97,"150 S PINE ISLAND RD SUITE 312, FORT LAUDERDALE, FL, 33324","Tie",NA,NA,NA,NA
67098,"150 S PINE ISLAND ROAD SUITE 300","PLANTATION","FL",33324,NA,NA,98,"150 S PINE ISLAND ROAD SUITE 300, PLANTATION, FL, 33324","Tie",NA,NA,NA,NA
67099,"150 S SAN JOSE DR","YUMA","AZ",85364,32.7244093800001,-114.649509862,99,"150 S SAN JOSE DR, YUMA, AZ, 85364","Match","Exact","150 SAN JOSE DR, YUMA, AZ, 85364",129623677,"R"
67100,"150 S WACKER DRIVE SUITE 2400","CHICAGO","IL",60606,41.885082465,-87.637035993,100,"150 S WACKER DRIVE SUITE 2400, CHICAGO, IL, 60606","Match","Non_Exact","150 N WACKER DR, CHICAGO, IL, 60606",605015432,"R"
67101,"150 S WESTMORELAND AVE","TUCSON","AZ",85745,32.2188129260001,-110.992202275,101,"150 S WESTMORELAND AVE, TUCSON, AZ, 85745","Match","Exact","150 S WESTMORELAND AVE, TUCSON, AZ, 85745",121169528,"R"
67102,"150 SANTA MONICA","ROYAL PALM BEACH","FL",33411,26.729833963,-80.221361614,102,"150 SANTA MONICA, ROYAL PALM BEACH, FL, 33411","Match","Non_Exact","150 SANTA MONICA AVE, ROYAL PALM BEACH, FL, 33411",115581651,"R"
67103,"150 SARAH ELIZABETH DR","CLARKSVILLE","TN",37042,36.5969238690001,-87.40463463,103,"150 SARAH ELIZABETH DR, CLARKSVILLE, TN, 37042","Match","Exact","150 SARAH ELIZABETH DR, CLARKSVILLE, TN, 37042",31832856,"L"
67104,"150 SAWNEY DR","GLASGOW","MT",59230,48.2242066800001,-106.656801762,104,"150 SAWNEY DR, GLASGOW, MT, 59230","Match","Exact","150 SAWNEY DR, GLASGOW, MT, 59230",166992797,"R"
67105,"150 SCHOOL STREET","MOUNT HOLLY","VT",5758,43.4462787360001,-72.824242254,105,"150 SCHOOL STREET, MOUNT HOLLY, VT, 5758","Match","Exact","150 SCHOOL ST, MOUNT HOLLY, VT, 05758",138959811,"R"
67106,"150 SE 25TH RD  SUITE 5M","MIAMI","FL",33129,NA,NA,106,"150 SE 25TH RD  SUITE 5M, MIAMI, FL, 33129","Tie",NA,NA,NA,NA
67107,"150 SE 25TH RD","MIAMI","FL",33129,25.7504224100001,-80.202560916,107,"150 SE 25TH RD, MIAMI, FL, 33129","Match","Exact","150 SE 25TH RD, MIAMI, FL, 33129",653187587,"R"
67108,"150 SE 2ND AVE PH6","MIAMI","NC",33130,NA,NA,108,"150 SE 2ND AVE PH6, MIAMI, NC, 33130","No_Match",NA,NA,NA,NA
67109,"150 SE 2ND STREET SUITE 334","MIAMI","FL",33131,25.772576508,-80.1910063129999,109,"150 SE 2ND STREET SUITE 334, MIAMI, FL, 33131","Match","Non_Exact","150 SE 2ND ST, MIAMI, FL, 33131",116018790,"R"
67110,"150 SE 3RD AVE APT 516","MIAMI","FL",33131,25.77302646,-80.1889483479999,110,"150 SE 3RD AVE APT 516, MIAMI, FL, 33131","Match","Non_Exact","150 SE 3RD AVE, MIAMI, FL, 33131",116018771,"R"
67111,"150 SE 3RD AVENUE APT 202","MIAMI","FL",33131,25.77302646,-80.1889483479999,111,"150 SE 3RD AVENUE APT 202, MIAMI, FL, 33131","Match","Non_Exact","150 SE 3RD AVE, MIAMI, FL, 33131",116018771,"R"
67112,"150 SEA POINT WAY","PITTSBURG","CA",94565,NA,NA,112,"150 SEA POINT WAY, PITTSBURG, CA, 94565","No_Match",NA,NA,NA,NA
67113,"150 SHELL BEACH RD","PIERRE PART","LA",70339,29.9204250270001,-91.212951504,113,"150 SHELL BEACH RD, PIERRE PART, LA, 70339","Match","Exact","150 SHELL BEACH RD, PIERRE PART, LA, 70339",627207092,"L"
67114,"150 SHINGLE HILL RD","WEST HAVEN","CT",6516,41.2586463540001,-72.973831073,114,"150 SHINGLE HILL RD, WEST HAVEN, CT, 6516","Match","Exact","150 SHINGLE HILL RD, W HAVEN, CT, 06516",3701948,"L"
67115,"150 SILVERCREEK ROAD","WADSWORTH","OH",44281,41.02475509,-81.703870587,115,"150 SILVERCREEK ROAD, WADSWORTH, OH, 44281","Match","Exact","150 SILVERCREEK RD, WADSWORTH, OH, 44281",641106350,"R"
67116,"150 SIX MILE ROAD","COMSTOCK PARK","MI",49321,NA,NA,116,"150 SIX MILE ROAD, COMSTOCK PARK, MI, 49321","Tie",NA,NA,NA,NA
67117,"150 SKYLINE DR","FAYETTEVILLE","AR",72701,36.065595375,-94.1480140469999,117,"150 SKYLINE DR, FAYETTEVILLE, AR, 72701","Match","Non_Exact","150 W SKYLINE DR, FAYETTEVILLE, AR, 72701",49088986,"L"
67118,"150 SOUTH 5TH STREET STE 1200","MINNEAPOLIS","MN",55402,44.977936648,-93.268552843,118,"150 SOUTH 5TH STREET STE 1200, MINNEAPOLIS, MN, 55402","Match","Exact","150 S 5TH ST, MINNEAPOLIS, MN, 55402",43632346,"L"
67119,"150 SOUTH 5TH STREET","MINNEAPOLIS","MN",55402,44.977936648,-93.268552843,119,"150 SOUTH 5TH STREET, MINNEAPOLIS, MN, 55402","Match","Exact","150 S 5TH ST, MINNEAPOLIS, MN, 55402",43632346,"L"
67120,"150 SOUTH FRONT ST","COLUMBUS","OH",43215,39.9588730510001,-83.001785056,120,"150 SOUTH FRONT ST, COLUMBUS, OH, 43215","Match","Exact","150 S FRONT ST, COLUMBUS, OH, 43215",135576584,"L"
67121,"150 SOUTH MAIN STREET","RANDLEMAN","NC",27317,35.8171469870001,-79.803280914,121,"150 SOUTH MAIN STREET, RANDLEMAN, NC, 27317","Match","Exact","150 S MAIN ST, RANDLEMAN, NC, 27317",20417974,"R"
67122,"150 SOUTH MONROE STREET SUITE 306","TALLAHASSEE","FL",32301,30.441281068,-84.2806634579999,122,"150 SOUTH MONROE STREET SUITE 306, TALLAHASSEE, FL, 32301","Match","Exact","150 S MONROE ST, TALLAHASSEE, FL, 32301",82850767,"R"
67123,"150 SOUTH PINE STREET","DOYLESTOWN","PA",18901,40.3083055770001,-75.1268600769999,123,"150 SOUTH PINE STREET, DOYLESTOWN, PA, 18901","Match","Exact","150 S PINE ST, DOYLESTOWN, PA, 18901",134750831,"R"
67124,"150 SOUTH ROAD SUITE 101 CB3302","CHAPEL HILL","NC",27599,NA,NA,124,"150 SOUTH ROAD SUITE 101 CB3302, CHAPEL HILL, NC, 27599","No_Match",NA,NA,NA,NA
67125,"150 SOUTH ROYAL POINCIANA BLVD","MIAMI SPRINGS","FL",33166,25.816523412,-80.274012093,125,"150 SOUTH ROYAL POINCIANA BLVD, MIAMI SPRINGS, FL, 33166","Match","Exact","150 S ROYAL POINCIANA BLVD, MIAMI SPRINGS, FL, 33166",116255481,"R"
67126,"150 SOUTH STAEBLER ROAD TRLR 887","ANN ARBOR","MI",48103,42.2892816930001,-83.858129578,126,"150 SOUTH STAEBLER ROAD TRLR 887, ANN ARBOR, MI, 48103","Match","Exact","150 S STAEBLER RD, ANN ARBOR, MI, 48103",26036443,"R"
67127,"150 SOUTH UNION STREET","PENNVILLE","IN",47369,40.4932544600001,-85.148244334,127,"150 SOUTH UNION STREET, PENNVILLE, IN, 47369","Match","Non_Exact","150 N UNION ST, PENNVILLE, IN, 47369",45045279,"L"
67128,"150 SPINNAKER RIDGE DRIVE    A201","HUNTSVILLE","AL",35824,34.6676441860001,-86.732467401,128,"150 SPINNAKER RIDGE DRIVE    A201, HUNTSVILLE, AL, 35824","Match","Exact","150 SPINNAKER RIDGE DR, HUNTSVILLE, AL, 35824",58206487,"L"
67129,"150 SPRING STREET","NEWTON","NJ",7860,41.0573537430001,-74.751494185,129,"150 SPRING STREET, NEWTON, NJ, 7860","Match","Exact","150 SPRING ST, NEWTON, NJ, 07860",97998279,"L"
67130,"150 SPRINGDALE DR","SPINDALE","NC",28160,35.368957922,-81.900235268,130,"150 SPRINGDALE DR, SPINDALE, NC, 28160","Match","Exact","150 SPRINGDALE DR, SPINDALE, NC, 28160",19402083,"R"
67131,"150 STATE STREET SUITE 504","ALBANY","NY",12207,42.650718311,-73.754688871,131,"150 STATE STREET SUITE 504, ALBANY, NY, 12207","Match","Exact","150 STATE ST, ALBANY, NY, 12207",18352339,"R"
67132,"150 STOBE AVENUE","STATEN ISLAND","NY",10306,40.5835647370001,-74.100292133,132,"150 STOBE AVENUE, STATEN ISLAND, NY, 10306","Match","Exact","150 STOBE AVE, STATEN ISLAND, NY, 10306",59880576,"R"
67133,"150 SUNNYDALE ROAD","TRUMBULL","CT",6611,41.2275121860001,-73.224055501,133,"150 SUNNYDALE ROAD, TRUMBULL, CT, 6611","Match","Exact","150 SUNNYDALE RD, TRUMBULL, CT, 06611",3220349,"R"
67134,"150 SUNOL ST","SAN JOSE","CA",95126,37.327505972,-121.906286547,134,"150 SUNOL ST, SAN JOSE, CA, 95126","Match","Exact","150 SUNOL ST, SAN JOSE, CA, 95126",615532447,"L"
67135,"150 SW 12TH AVENUE","POMPANO BEACH","FL",33069,NA,NA,135,"150 SW 12TH AVENUE, POMPANO BEACH, FL, 33069","Tie",NA,NA,NA,NA
67136,"150 SW 25TH RD STE 7A","MIAMI","FL",33129,NA,NA,136,"150 SW 25TH RD STE 7A, MIAMI, FL, 33129","Tie",NA,NA,NA,NA
67137,"150 SWEET BAY TRAIL","PETAL","MS",39465,31.3374661880001,-89.189871118,137,"150 SWEET BAY TRAIL, PETAL, MS, 39465","Match","Exact","150 SWEET BAY TRL, PETAL, MS, 39465",607639386,"L"
67138,"150 TAYLOR CIRCLE DRIVE","LONDON","KY",40744,37.098472031,-84.075251467,138,"150 TAYLOR CIRCLE DRIVE, LONDON, KY, 40744","Match","Exact","150 TAYLOR CIRCLE DR, LONDON, KY, 40744",98745981,"L"
67139,"150 TELEPHONE ROAD","WEST HENRIETTA","NY",14586,43.0356272920001,-77.672052879,139,"150 TELEPHONE ROAD, WEST HENRIETTA, NY, 14586","Match","Exact","150 TELEPHONE RD, W HENRIETTA, NY, 14586",14571928,"L"
67140,"150 TETUAN STREET","SAN JUAN","PR",901,NA,NA,140,"150 TETUAN STREET, SAN JUAN, PR, 901","No_Match",NA,NA,NA,NA
67141,"150 THRUSHWOOD DRIVE","FAYETTEVILLE","GA",30215,33.433609313,-84.4385128059999,141,"150 THRUSHWOOD DRIVE, FAYETTEVILLE, GA, 30215","Match","Exact","150 THRUSHWOOD DR, FAYETTEVILLE, GA, 30215",645828367,"L"
67142,"150 TIFFANY ESTATE DRIVE","ELM GROVE","LA",71051,NA,NA,142,"150 TIFFANY ESTATE DRIVE, ELM GROVE, LA, 71051","No_Match",NA,NA,NA,NA
67143,"150 TOWNE HOUSE RD","HAMDEN","CT",6514,41.375601735,-72.923037425,143,"150 TOWNE HOUSE RD, HAMDEN, CT, 6514","Match","Exact","150 TOWNE HOUSE RD, HAMDEN, CT, 06514",3711599,"L"
67144,"150 TURNER STREET","SOMERSET","KY",42501,37.0935724440001,-84.628115814,144,"150 TURNER STREET, SOMERSET, KY, 42501","Match","Non_Exact","150 TURNER ST, SOMERSET, KY, 42503",39078338,"R"
67145,"150 UNION ROAD 171","EL DORADO","AK",71730,NA,NA,145,"150 UNION ROAD 171, EL DORADO, AK, 71730","No_Match",NA,NA,NA,NA
67146,"150 UNION ROAD 171","EL DORADO","AR",71730,33.1622493260001,-92.4447641249999,146,"150 UNION ROAD 171, EL DORADO, AR, 71730","Match","Exact","150 UNION RD 171, EL DORADO, AR, 71730",28165265,"R"
67147,"150 VAN NESS AVE 1124","SAN FRANCISCO","CA",94102,37.7769412120001,-122.41952198,147,"150 VAN NESS AVE 1124, SAN FRANCISCO, CA, 94102","Match","Exact","150 VAN NESS AVE, SAN FRANCISCO, CA, 94102",650145122,"R"
67148,"150 VAN NESS AVE APT 922","SAN FRANCISCO","CA",94102,37.7769412120001,-122.41952198,148,"150 VAN NESS AVE APT 922, SAN FRANCISCO, CA, 94102","Match","Exact","150 VAN NESS AVE, SAN FRANCISCO, CA, 94102",650145122,"R"
67149,"150 VERONA DRIVE","LAFAYETTE","LA",70507,30.2594523660001,-92.019334704,149,"150 VERONA DRIVE, LAFAYETTE, LA, 70507","Match","Exact","150 VERONA DR, LAFAYETTE, LA, 70507",85613840,"R"
67150,"150 VETERANS MEMORIAL HWY SUITE 356","COMMACK","NY",11725,NA,NA,150,"150 VETERANS MEMORIAL HWY SUITE 356, COMMACK, NY, 11725","No_Match",NA,NA,NA,NA
67151,"150 VICTORIA PLACE","MADISON","MS",39110,32.4676043040001,-90.101625966,151,"150 VICTORIA PLACE, MADISON, MS, 39110","Match","Exact","150 VICTORIA PL, MADISON, MS, 39110",617775689,"R"
67152,"150 VICTORY BLVD","STATEN ISLAND","NY",10301,40.637086314,-74.0809529369999,152,"150 VICTORY BLVD, STATEN ISLAND, NY, 10301","Match","Exact","150 VICTORY BLVD, STATEN ISLAND, NY, 10301",59878962,"L"
67153,"150 VIGILANTE","GWINN","MI",49841,46.321801984,-87.367763985,153,"150 VIGILANTE, GWINN, MI, 49841","Match","Exact","150 VIGILANTE, GWINN, MI, 49841",182044279,"R"
67154,"150 VISTA DEL MAR","SHELL BEACH","CA",93449,35.1586793610001,-120.676621452,154,"150 VISTA DEL MAR, SHELL BEACH, CA, 93449","Match","Non_Exact","150 VISTA DEL MAR AVE, SHELL BEACH, CA, 93449",109839713,"L"
67155,"150 W 130TH STREET - SUITE 4","NEW YORK","NY",10027,40.811548503,-73.944651773,155,"150 W 130TH STREET - SUITE 4, NEW YORK, NY, 10027","Match","Non_Exact","150 W 130TH ST, NEW YORK, NY, 10027",59656191,"L"
67156,"150 W 140TH ST APT 5C","NEW YORK","NY",10030,40.8178941210001,-73.9400167379999,156,"150 W 140TH ST APT 5C, NEW YORK, NY, 10030","Match","Non_Exact","150 W 140TH ST, NEW YORK, NY, 10030",59656407,"L"
67157,"150 W 168TH ST","SOUTH HOLLAND","IL",60473,41.58991709,-87.620675362,157,"150 W 168TH ST, SOUTH HOLLAND, IL, 60473","Match","Exact","150 W 168TH ST, SOUTH HOLLAND, IL, 60473",641693782,"R"
67158,"150 W 225TH STREET APT 19H","BRONX","NY",10463,40.873434091,-73.906915853,158,"150 W 225TH STREET APT 19H, BRONX, NY, 10463","Match","Non_Exact","150 W 225TH ST, BRONX, NY, 10463",80298447,"L"
67159,"150 W 3RD AVE","DENVER","CO",80223,39.720938007,-104.990034421,159,"150 W 3RD AVE, DENVER, CO, 80223","Match","Exact","150 W 3RD AVE, DENVER, CO, 80223",177330714,"L"
67160,"150 W 62ND ST STE 7-123","NEW YORK","NY",10023,40.77177942,-73.9850095579999,160,"150 W 62ND ST STE 7-123, NEW YORK, NY, 10023","Match","Non_Exact","150 W 62ND ST, NEW YORK, NY, 10023",639456906,"L"
67161,"150 W 92 HWY","KEARNEY","MO",64060,NA,NA,161,"150 W 92 HWY, KEARNEY, MO, 64060","No_Match",NA,NA,NA,NA
67162,"150 W 9TH AVE UNIT 1511","DENVER","CO",80204,39.7304530810001,-104.989581778,162,"150 W 9TH AVE UNIT 1511, DENVER, CO, 80204","Match","Non_Exact","150 W 9TH AVE, DENVER, CO, 80204",177330649,"L"
67163,"150 W COURT ST","HASTINGS","MI",49058,42.6477633200001,-85.288386966,163,"150 W COURT ST, HASTINGS, MI, 49058","Match","Exact","150 W COURT ST, HASTINGS, MI, 49058",10505219,"L"
67164,"150 W GARFIELD ST","TRURO","IA",50257,41.2086628500001,-93.8476384699999,164,"150 W GARFIELD ST, TRURO, IA, 50257","Match","Exact","150 W GARFIELD ST, TRURO, IA, 50257",75201311,"R"
67165,"150 W JEFFERSON SUITE 100","DETROIT","MI",48226,NA,NA,165,"150 W JEFFERSON SUITE 100, DETROIT, MI, 48226","No_Match",NA,NA,NA,NA
67166,"150 W JEFFERSON","JOLIET","IL",60432,NA,NA,166,"150 W JEFFERSON, JOLIET, IL, 60432","No_Match",NA,NA,NA,NA
67167,"150 W RIDGEWOOD AVENUE","RIDGEWOOD","NJ",7450,40.9816899790001,-74.1253717609999,167,"150 W RIDGEWOOD AVENUE, RIDGEWOOD, NJ, 7450","Match","Exact","150 W RIDGEWOOD AVE, RIDGEWOOD, NJ, 07450",64405225,"L"
67168,"150 W WINDSOR AVENUE","LOMBARD","IL",60148,NA,NA,168,"150 W WINDSOR AVENUE, LOMBARD, IL, 60148","Tie",NA,NA,NA,NA
67169,"150 WAGON FORD RD","BEULAVILLE","NC",28518,34.919436982,-77.714111987,169,"150 WAGON FORD RD, BEULAVILLE, NC, 28518","Match","Exact","150 WAGON FORD RD, BEULAVILLE, NC, 28518",13427792,"R"
67170,"150 WASHINGTON LANE","ALABASTER","AL",35007,33.2000150860001,-86.8465231979999,170,"150 WASHINGTON LANE, ALABASTER, AL, 35007","Match","Exact","150 WASHINGTON LN, ALABASTER, AL, 35007",82129946,"R"
67171,"150 WASHINGTON ST","ARLINGTON","MA",2474,42.425776199,-71.169042767,171,"150 WASHINGTON ST, ARLINGTON, MA, 2474","Match","Exact","150 WASHINGTON ST, ARLINGTON, MA, 02474",86885219,"L"
67172,"150 WASHINGTON STREET APT  3M","HEMPSTEAD","NY",11550,40.7100916310001,-73.6215480229999,172,"150 WASHINGTON STREET APT  3M, HEMPSTEAD, NY, 11550","Match","Non_Exact","150 WASHINGTON AVE, HEMPSTEAD, NY, 11550",147627290,"R"
67173,"150 WASHINGTON STREET","MA","MA",2458,42.3559323800001,-71.1801910299999,173,"150 WASHINGTON STREET, MA, MA, 2458","Match","Non_Exact","150 WASHINGTON ST, NEWTON, MA, 02458",640151332,"L"
67174,"150 WEST 100 SOUTH","MANTI","UT",84642,39.266922342,-111.63982666,174,"150 WEST 100 SOUTH, MANTI, UT, 84642","Match","Non_Exact","150 W 100 N, MANTI, UT, 84642",133777505,"R"
67175,"150 WEST 105TH STREET","NEW YORK","NY",10025,40.7991690630001,-73.9648080599999,175,"150 WEST 105TH STREET, NEW YORK, NY, 10025","Match","Exact","150 W 105TH ST, NEW YORK, NY, 10025",59656852,"L"
67176,"150 WEST 1450 NORTH","PROVO","UT",84604,40.253433182,-111.660958835,176,"150 WEST 1450 NORTH, PROVO, UT, 84604","Match","Exact","150 W 1450 N, PROVO, UT, 84604",651132814,"R"
67177,"150 WEST 55TH STREET APT PHSE","NEW YORK","NY",10019,40.763631289,-73.97958715,177,"150 WEST 55TH STREET APT PHSE, NEW YORK, NY, 10019","Match","Exact","150 W 55TH ST, NEW YORK, NY, 10019",59657116,"L"
67178,"150 WEST 88TH PL","CUT OFF","LA",70345,29.504898729,-90.330388258,178,"150 WEST 88TH PL, CUT OFF, LA, 70345","Match","Exact","150 W 88TH PL, CUT OFF, LA, 70345",605050365,"R"
67179,"150 WEST ABBOTTSFORD AVENUE","PHILADELPHIA","PA",19144,40.024551065,-75.1635382269999,179,"150 WEST ABBOTTSFORD AVENUE, PHILADELPHIA, PA, 19144","Match","Exact","150 W ABBOTTSFORD AVE, PHILADELPHIA, PA, 19144",131401601,"L"
67180,"150 WEST COUNTY ROAD 1075 NORTH","LIZTON","IN",46149,39.918853572,-86.530463249,180,"150 WEST COUNTY ROAD 1075 NORTH, LIZTON, IN, 46149","Match","Exact","150 W CO RD 1075 N, LIZTON, IN, 46149",89195561,"R"
67181,"150 WEST CYPRESS AVE SUITE D","BURBANK","CA",91502,34.1797878630001,-118.318568498,181,"150 WEST CYPRESS AVE SUITE D, BURBANK, CA, 91502","Match","Exact","150 W CYPRESS AVE, BURBANK, CA, 91502",141595172,"R"
67182,"150 WEST EDITH AVENUE - APT 22","LOS ALTOS","CA",94022,37.381309184,-122.11863446,182,"150 WEST EDITH AVENUE - APT 22, LOS ALTOS, CA, 94022","Match","Exact","150 W EDITH AVE, LOS ALTOS, CA, 94022",122953205,"L"
67183,"150 WEST END AVENUE 20K","NEW YORK","NY",10023,40.7766555170001,-73.9867643599999,183,"150 WEST END AVENUE 20K, NEW YORK, NY, 10023","Match","Exact","150 W END AVE, NEW YORK, NY, 10023",650066893,"R"
67184,"150 WEST FLAGLER STREET SUITE 1675","MIAMI","FL",33130,25.77405091,-80.1969986719999,184,"150 WEST FLAGLER STREET SUITE 1675, MIAMI, FL, 33130","Match","Exact","150 W FLAGLER ST, MIAMI, FL, 33130",116018388,"L"
67185,"150 WEST JUANITA AVENUE","GILBERT","AZ",85233,33.3712205200001,-111.793479664,185,"150 WEST JUANITA AVENUE, GILBERT, AZ, 85233","Match","Exact","150 W JUANITA AVE, GILBERT, AZ, 85233",128254634,"R"
67186,"150 WEST MAIN STREET SUITE 2100","NORFOLK","VA",23510,36.8467515230001,-76.29353172,186,"150 WEST MAIN STREET SUITE 2100, NORFOLK, VA, 23510","Match","Exact","150 W MAIN ST, NORFOLK, VA, 23510",639822122,"R"
67187,"150 WEST MAIN STREET","DONALDS","SC",29638,34.3756597980001,-82.348224597,187,"150 WEST MAIN STREET, DONALDS, SC, 29638","Match","Exact","150 W MAIN ST, DONALDS, SC, 29638",38254696,"L"
67188,"150 WEST MARKET STREET SUITE 400","INDIANAPOLIS","IN",46204,39.7685983750001,-86.161103732,188,"150 WEST MARKET STREET SUITE 400, INDIANAPOLIS, IN, 46204","Match","Exact","150 W MARKET ST, INDIANAPOLIS, IN, 46204",107991577,"R"
67189,"150 WEST SICKLE STREET","KENNETT SQUARE","PA",19348,39.848681234,-75.7148178909999,189,"150 WEST SICKLE STREET, KENNETT SQUARE, PA, 19348","Match","Exact","150 W SICKLE ST, KENNETT SQUARE, PA, 19348",179514615,"R"
67190,"150 WEST THOMPSON LANE APT O303","MURFREESBORO","TN",37129,35.910694017,-86.3857516259999,190,"150 WEST THOMPSON LANE APT O303, MURFREESBORO, TN, 37129","Match","Exact","150 W THOMPSON LN, MURFREESBORO, TN, 37129",636446911,"R"
67191,"150 WEST WASHINGTON","JOLIET","IL",60432,41.523945634,-88.085057889,191,"150 WEST WASHINGTON, JOLIET, IL, 60432","Match","Non_Exact","150 W WASHINGTON ST, JOLIET, IL, 60432",111541530,"L"
67192,"150 WILSON AVE","LYONS","GA",30436,32.193799218,-82.322131618,192,"150 WILSON AVE, LYONS, GA, 30436","Match","Exact","150 WILSON AVE, LYONS, GA, 30436",4771558,"L"
67193,"150 WINDSOR RD","NORTH LIBERTY","IA",52317,41.728832337,-91.595874006,193,"150 WINDSOR RD, NORTH LIBERTY, IA, 52317","Match","Exact","150 WINDSOR RD, NORTH LIBERTY, IA, 52317",84519673,"L"
67194,"150 WOODMONT DRIVE","EADS","TN",38028,35.224640745,-89.615541712,194,"150 WOODMONT DRIVE, EADS, TN, 38028","Match","Exact","150 WOODMONT DR, EADS, TN, 38028",72708741,"L"
67195,"150 WOODSIDE DRIVE","FREELAND","PA",18224,41.0134489180001,-75.915593415,195,"150 WOODSIDE DRIVE, FREELAND, PA, 18224","Match","Exact","150 WOODSIDE DR, FREELAND, PA, 18224",604533132,"L"
67196,"150 YOST AVE","PARK RIDGE","IL",60068,41.992742418,-87.824520566,196,"150 YOST AVE, PARK RIDGE, IL, 60068","Match","Exact","150 YOST AVE, PARK RIDGE, IL, 60068",111733618,"R"
67197,"150-09 SHORE AVE","JAMAICA","NY",11433,40.6940118570001,-73.800135542,197,"150-09 SHORE AVE, JAMAICA, NY, 11433","Match","Exact","150-9 SHORE AVE, JAMAICA, NY, 11433",652213162,"L"
67198,"150-10 JEWEL AVE APT 51A","FLUSHING","NY",11367,40.731390205,-73.8188498439999,198,"150-10 JEWEL AVE APT 51A, FLUSHING, NY, 11367","Match","Exact","150-10 JEWEL AVE, FLUSHING, NY, 11367",59709895,"R"
67199,"150-15 HILLSIDE AVE SUITE STE 1001","JAMAICA","NY",11432,40.70676116,-73.8061707849999,199,"150-15 HILLSIDE AVE SUITE STE 1001, JAMAICA, NY, 11432","Match","Exact","150-15 HILLSIDE AVE, JAMAICA, NY, 11432",59710944,"L"
67200,"150-15 RALEIGH STREET","OZONE PARK","WY",11417,NA,NA,200,"150-15 RALEIGH STREET, OZONE PARK, WY, 11417","No_Match",NA,NA,NA,NA
67201,"150-24 118TH AVENUE","JAMAICA","NY",11434,40.679927783,-73.791423595,201,"150-24 118TH AVENUE, JAMAICA, NY, 11434","Match","Exact","150-24 118TH AVE, JAMAICA, NY, 11434",59714950,"R"
67202,"150-24 60TH AVENUE 2FL","FLUSHING","NY",11355,40.7410665990001,-73.8185717059999,202,"150-24 60TH AVENUE 2FL, FLUSHING, NY, 11355","Match","Exact","150-24 60TH AVE, FLUSHING, NY, 11355",59709851,"R"
67203,"150-25 61ST ROAD","FLUSHING","NY",11367,40.7394623550001,-73.81928369,203,"150-25 61ST ROAD, FLUSHING, NY, 11367","Match","Exact","150-25 61ST RD, FLUSHING, NY, 11367",59709853,"L"
67204,"150-26 MELBOURNE AVE","FLUSHING","NY",11367,40.7341209240001,-73.819037813,204,"150-26 MELBOURNE AVE, FLUSHING, NY, 11367","Match","Exact","150-26 MELBOURNE AVE, FLUSHING, NY, 11367",59709886,"R"
67205,"150-27 ARLINGTON TERRACE","JAMAICA","NY",11433,40.692949501,-73.79804591,205,"150-27 ARLINGTON TERRACE, JAMAICA, NY, 11433","Match","Exact","150-27 ARLINGTON TER, JAMAICA, NY, 11433",59726455,"L"
67206,"150-28 99TH PLACE","OZONE PARK","NY",11417,40.66872298,-73.835143258,206,"150-28 99TH PLACE, OZONE PARK, NY, 11417","Match","Exact","150-28 99TH PL, OZONE PARK, NY, 11417",59708794,"R"
67207,"150-29 HORACE HARDING","FLUSHING","NY",11367,40.740379203,-73.818832981,207,"150-29 HORACE HARDING, FLUSHING, NY, 11367","Match","Non_Exact","150 HORACE HARDING EXPY, FLUSHING, NY, 11367",59709854,"L"
67208,"150-32 115TH DRIVE","JAMAICA","NY",11434,40.683739216,-73.7917222579999,208,"150-32 115TH DRIVE, JAMAICA, NY, 11434","Match","Exact","150-32 115TH DR, JAMAICA, NY, 11434",59714942,"R"
67209,"150-62 87 AVENUE","JAMAICA","NY",11432,40.7085857530001,-73.805436571,209,"150-62 87 AVENUE, JAMAICA, NY, 11432","Match","Exact","150-62 87TH AVE, JAMAICA, NY, 11432",641014784,"R"
67210,"150-74 116TH AVENUE","JAMAICA","NY",11434,40.683433112,-73.7905627979999,210,"150-74 116TH AVENUE, JAMAICA, NY, 11434","Match","Exact","150-74 116TH AVE, JAMAICA, NY, 11434",59714944,"R"
67211,"150","COLONIA","NJ",7067,NA,NA,211,"150, COLONIA, NJ, 7067","No_Match",NA,NA,NA,NA
67212,"1500 12TH ST","LOS OSOS","CA",93402,35.3242267800001,-120.829887653,212,"1500 12TH ST, LOS OSOS, CA, 93402","Match","Exact","1500 12TH ST, LOS OSOS, CA, 93402",109729688,"R"
67213,"1500 14TH STREET","LUBBOCK","TX",79401,33.5826190600001,-101.851412908,213,"1500 14TH STREET, LUBBOCK, TX, 79401","Match","Exact","1500 14TH ST, LUBBOCK, TX, 79401",185254370,"R"
67214,"1500 16TH STREET NW","WASHINGTON","DC",20036,NA,NA,214,"1500 16TH STREET NW, WASHINGTON, DC, 20036","No_Match",NA,NA,NA,NA
67215,"1500 1ST AVE NE NUMBER 210","ROCHESTER","MN",55906,44.037951123,-92.460601662,215,"1500 1ST AVE NE NUMBER 210, ROCHESTER, MN, 55906","Match","Exact","1500 1ST AVE NE, ROCHESTER, MN, 55906",30551639,"R"
67216,"1500 1ST AVE NORTH UNIT 69","BIRMINGHAM","AL",35203,33.511130198,-86.812643276,216,"1500 1ST AVE NORTH UNIT 69, BIRMINGHAM, AL, 35203","Match","Exact","1500 1ST AVE N, BIRMINGHAM, AL, 35203",81574682,"L"
67217,"1500 1ST AVENUE NORTH - UNIT 42","BIRMINGHAM","AL",35203,33.511130198,-86.812643276,217,"1500 1ST AVENUE NORTH - UNIT 42, BIRMINGHAM, AL, 35203","Match","Exact","1500 1ST AVE N, BIRMINGHAM, AL, 35203",81574682,"L"
67218,"1500 1ST AVENUE NORTH 91","BIRMINGHAM","AL",35203,33.511130198,-86.812643276,218,"1500 1ST AVENUE NORTH 91, BIRMINGHAM, AL, 35203","Match","Exact","1500 1ST AVE N, BIRMINGHAM, AL, 35203",81574682,"L"
67219,"1500 1ST STREET","NEPTUNE BEACH","FL",32266,30.3128777970001,-81.394410921,219,"1500 1ST STREET, NEPTUNE BEACH, FL, 32266","Match","Exact","1500 1ST ST, NEPTUNE BEACH, FL, 32266",83907935,"R"
67220,"1500 23RD ST","MENOMINEE","MI",49858,45.1126589840001,-87.6311882429999,220,"1500 23RD ST, MENOMINEE, MI, 49858","Match","Exact","1500 23RD ST, MENOMINEE, MI, 49858",170210601,"R"
67221,"1500 2ND AVENUE SOUTH","NASHVILLE","TN",37210,36.14069039,-86.761504224,221,"1500 2ND AVENUE SOUTH, NASHVILLE, TN, 37210","Match","Exact","1500 2ND AVE S, NASHVILLE, TN, 37210",652412017,"L"
67222,"1500 39TH STREET","WEST PALM BEACH","FL",33407,26.7475653020001,-80.073684709,222,"1500 39TH STREET, WEST PALM BEACH, FL, 33407","Match","Exact","1500 39TH ST, WEST PALM BEACH, FL, 33407",115530909,"L"
67223,"1500 49TH AVE NE","COLUMBIA HEIGHTS","MN",55421,45.0567015170001,-93.239273209,223,"1500 49TH AVE NE, COLUMBIA HEIGHTS, MN, 55421","Match","Exact","1500 49TH AVE NE, COLUMBIA HEIGHTS, MN, 55421",97525410,"R"
67224,"1500 4TH ST","ARGYLE","TX",76226,33.1078887830001,-97.232637885,224,"1500 4TH ST, ARGYLE, TX, 76226","Match","Exact","1500 4TH ST, ARGYLE, TX, 76226",646862550,"L"
67225,"1500 7TH STREET PH5","SACRAMENTO","CA",95814,38.576378,-121.499619049,225,"1500 7TH STREET PH5, SACRAMENTO, CA, 95814","Match","Exact","1500 7TH ST, SACRAMENTO, CA, 95814",133321859,"R"
67226,"1500 A WATERLOO TRAIL","AUSTIN","TX",78704,30.240618415,-97.7733342339999,226,"1500 A WATERLOO TRAIL, AUSTIN, TX, 78704","Match","Exact","1500 WATERLOO TRL, AUSTIN, TX, 78704",63943888,"R"
67227,"1500 ALEXANDER TRCE 303","CANTON","GA",30114,34.1987518510001,-84.510318834,227,"1500 ALEXANDER TRCE 303, CANTON, GA, 30114","Match","Exact","1500 ALEXANDER TRCE, CANTON, GA, 30114",629762857,"L"
67228,"1500 AVE LOS ROMEROS APT 1212","SAN JUAN","PR",926,NA,NA,228,"1500 AVE LOS ROMEROS APT 1212, SAN JUAN, PR, 926","No_Match",NA,NA,NA,NA
67229,"1500 BAY RD SUITE 940","MIAMI BEACH","FL",33139,NA,NA,229,"1500 BAY RD SUITE 940, MIAMI BEACH, FL, 33139","No_Match",NA,NA,NA,NA
67230,"1500 BELL DRIVE","ATWATER","CA",95301,37.34287662,-120.61436732,230,"1500 BELL DRIVE, ATWATER, CA, 95301","Match","Exact","1500 BELL DR, ATWATER, CA, 95301",125314637,"L"
67231,"1500 BEVILLE ROAD SUITE 606-385","DAYTONA BEACH","FL",32119,29.170494359,-81.0401848929999,231,"1500 BEVILLE ROAD SUITE 606-385, DAYTONA BEACH, FL, 32119","Match","Non_Exact","1500 BEVILLE RD, DAYTONA BEACH, FL, 32114",94526292,"R"
67232,"1500 BEVILLE ROAD SUITE 606-391","DAYTONA BEACH","FL",32114,29.170494359,-81.0401848929999,232,"1500 BEVILLE ROAD SUITE 606-391, DAYTONA BEACH, FL, 32114","Match","Exact","1500 BEVILLE RD, DAYTONA BEACH, FL, 32114",94526292,"R"
67233,"1500 BIRCHMONT DR NE NUM16","BEMIDJI","MN",56601,47.482927155,-94.875627131,233,"1500 BIRCHMONT DR NE NUM16, BEMIDJI, MN, 56601","Match","Exact","1500 BIRCHMONT DR NE, BEMIDJI, MN, 56601",176405310,"R"
67234,"1500 BLENNERHASSETT AVENUE","BELPRE","OH",45714,39.2710656990001,-81.588864507,234,"1500 BLENNERHASSETT AVENUE, BELPRE, OH, 45714","Match","Exact","1500 BLENNERHASSETT AVE, BELPRE, OH, 45714",45683775,"R"
67235,"1500 BLUE HILL AVENUE","BOSTON","MA",2126,NA,NA,235,"1500 BLUE HILL AVENUE, BOSTON, MA, 2126","No_Match",NA,NA,NA,NA
67236,"1500 BLUEBIRD DRIVE","LITTLE ELM","TX",75068,33.218235432,-96.936635441,236,"1500 BLUEBIRD DRIVE, LITTLE ELM, TX, 75068","Match","Exact","1500 BLUEBIRD DR, LITTLE ELM, TX, 75068",634085297,"R"
67237,"1500 BLUEBIRD RD APT 10","GRAND HAVEN","MI",49417,43.0416693670001,-86.2050618389999,237,"1500 BLUEBIRD RD APT 10, GRAND HAVEN, MI, 49417","Match","Exact","1500 BLUEBIRD RD, GRAND HAVEN, MI, 49417",71095100,"R"
67238,"1500 BOND AVE","EAST SAINT LOUIS","IL",62207,NA,NA,238,"1500 BOND AVE, EAST SAINT LOUIS, IL, 62207","No_Match",NA,NA,NA,NA
67239,"1500 BOSTON RD 32","NY","NY",10460,40.835092753,-73.894025798,239,"1500 BOSTON RD 32, NY, NY, 10460","Match","Non_Exact","1500 BOSTON RD, BRONX, NY, 10460",80301747,"R"
67240,"1500 BRIARWOOD DR","WILLIAMSTOWN","NJ",8094,39.654707484,-74.981667412,240,"1500 BRIARWOOD DR, WILLIAMSTOWN, NJ, 8094","Match","Exact","1500 BRIARWOOD DR, WILLIAMSTOWN, NJ, 08094",134603302,"R"
67241,"1500 BYPASS NORTH US 127 RM 116","LAWRENCEBURG","KY",40342,NA,NA,241,"1500 BYPASS NORTH US 127 RM 116, LAWRENCEBURG, KY, 40342","No_Match",NA,NA,NA,NA
67242,"1500 CALLE MARIBEL","SAN JUAN","PR",911,18.4537528110001,-66.063367919,242,"1500 CALLE MARIBEL, SAN JUAN, PR, 911","Match","Non_Exact","1500 CLL MARIBEL, SAN JUAN, PR, 00911",206604034,"R"
67243,"1500 CAMPBELL STREET","RAHWAY","NJ",7065,40.6090153750001,-74.277571327,243,"1500 CAMPBELL STREET, RAHWAY, NJ, 7065","Match","Exact","1500 CAMPBELL ST, RAHWAY, NJ, 07065",60562449,"L"
67244,"1500 CANYON LEDGE CT","LAS VEGAS","NV",89117,36.154202119,-115.261183972,244,"1500 CANYON LEDGE CT, LAS VEGAS, NV, 89117","Match","Exact","1500 CANYON LEDGE CT, LAS VEGAS, NV, 89117",636996540,"L"
67245,"1500 CAPITAL AVE STE 102","PLANO","TX",75074,33.011098986,-96.692039786,245,"1500 CAPITAL AVE STE 102, PLANO, TX, 75074","Match","Exact","1500 CAPITAL AVE, PLANO, TX, 75074",123490269,"R"
67246,"1500 CAPITAL CIRCLE SE SUITE 6","TALLAHASSEE","FL",32301,30.4253924940001,-84.226838991,246,"1500 CAPITAL CIRCLE SE SUITE 6, TALLAHASSEE, FL, 32301","Match","Exact","1500 CAPITAL CIR SE, TALLAHASSEE, FL, 32301",648201530,"R"
67247,"1500 CHESTNUT ST 1239","PHILADELPHIA","PA",19102,39.9510818950001,-75.165736764,247,"1500 CHESTNUT ST 1239, PHILADELPHIA, PA, 19102","Match","Exact","1500 CHESTNUT ST, PHILADELPHIA, PA, 19102",131407647,"L"
67248,"1500 CHESTNUT STREET APT 19A","PHILADELPHIA","PA",19102,39.9510818950001,-75.165736764,248,"1500 CHESTNUT STREET APT 19A, PHILADELPHIA, PA, 19102","Match","Exact","1500 CHESTNUT ST, PHILADELPHIA, PA, 19102",131407647,"L"
67249,"1500 CHESTNUT STREET","PHILADELPHIA","PA",19102,39.9510818950001,-75.165736764,249,"1500 CHESTNUT STREET, PHILADELPHIA, PA, 19102","Match","Exact","1500 CHESTNUT ST, PHILADELPHIA, PA, 19102",131407647,"L"
67250,"1500 CHESTNUT STREET","PHILIDELPHIA","PA",19102,39.9510818950001,-75.165736764,250,"1500 CHESTNUT STREET, PHILIDELPHIA, PA, 19102","Match","Non_Exact","1500 CHESTNUT ST, PHILADELPHIA, PA, 19102",131407647,"L"
67251,"1500 CHICAGO AVE  APT 32","MINNEAPOLIS","MN",55404,44.968005933,-93.26254655,251,"1500 CHICAGO AVE  APT 32, MINNEAPOLIS, MN, 55404","Match","Non_Exact","1500 CHICAGO AVE S, MINNEAPOLIS, MN, 55404",639295749,"R"
67252,"1500 COLLEGE PARKWAY","ELKO","NV",89801,40.841970519,-115.75597332,252,"1500 COLLEGE PARKWAY, ELKO, NV, 89801","Match","Non_Exact","1500 COLLEGE AVE, ELKO, NV, 89801",154788700,"R"
67253,"1500 COLVIN BOULEVARD","TONAWANDA","NY",14223,42.9819901610001,-78.858592388,253,"1500 COLVIN BOULEVARD, TONAWANDA, NY, 14223","Match","Exact","1500 COLVIN BLVD, TONAWANDA, NY, 14223",48287781,"L"
67254,"1500 COMMERCE DRIVE","PLANO","TX",75093,33.0199781170001,-96.770811217,254,"1500 COMMERCE DRIVE, PLANO, TX, 75093","Match","Exact","1500 COMMERCE DR, PLANO, TX, 75093",210475601,"R"
67255,"1500 COUNTRY CLUB DRIVE","PETALUMA","CA",94952,38.22170786,-122.618261817,255,"1500 COUNTRY CLUB DRIVE, PETALUMA, CA, 94952","Match","Exact","1500 COUNTRY CLUB DR, PETALUMA, CA, 94952",67522918,"R"
67256,"1500 COUNTY ROAD 284","LIBERTY HILL","TX",78642,30.6355603480001,-97.963993739,256,"1500 COUNTY ROAD 284, LIBERTY HILL, TX, 78642","Match","Exact","1500 CO RD 284, LIBERTY HILL, TX, 78642",126488371,"L"
67257,"1500 DAKOTA AVE S","HURON","SD",57350,44.3488011380001,-98.214151994,257,"1500 DAKOTA AVE S, HURON, SD, 57350","Match","Exact","1500 DAKOTA AVE S, HURON, SD, 57350",201040265,"R"
67258,"1500 DAYSPRING RDG","WALWORTH","NY",14568,NA,NA,258,"1500 DAYSPRING RDG, WALWORTH, NY, 14568","No_Match",NA,NA,NA,NA
67259,"1500 DAYSPRING RIDGE","WALWORTH","NY",14568,NA,NA,259,"1500 DAYSPRING RIDGE, WALWORTH, NY, 14568","No_Match",NA,NA,NA,NA
67260,"1500 DAYTON AVE","SAN LEANDRO","CA",94579,37.688602201,-122.156801391,260,"1500 DAYTON AVE, SAN LEANDRO, CA, 94579","Match","Exact","1500 DAYTON AVE, SAN LEANDRO, CA, 94579",125012808,"L"
67261,"1500 DEER CREEK RD","DESOTO","TX",75115,32.5923223790001,-96.8967957249999,261,"1500 DEER CREEK RD, DESOTO, TX, 75115","Match","Non_Exact","1500 DEER CREEK DR, DESOTO, TX, 75115",103187007,"R"
67262,"1500 DIXIE STREET","WALLACE","WV",26448,NA,NA,262,"1500 DIXIE STREET, WALLACE, WV, 26448","No_Match",NA,NA,NA,NA
67263,"1500 DOBBINS ROAD","CORSICANA","TX",75110,32.105298034,-96.492755379,263,"1500 DOBBINS ROAD, CORSICANA, TX, 75110","Match","Exact","1500 DOBBINS RD, CORSICANA, TX, 75110",183886103,"L"
67264,"1500 E 11TH STREET","WINSTON SALE","NC",27101,36.1079995760001,-80.2264588039999,264,"1500 E 11TH STREET, WINSTON SALE, NC, 27101","Match","Non_Exact","1500 E 11TH ST, WINSTON SALEM, NC, 27101",84687211,"R"
67265,"1500 E BROADWAY RD APT 2142","TEMPE","AZ",85282,NA,NA,265,"1500 E BROADWAY RD APT 2142, TEMPE, AZ, 85282","Tie",NA,NA,NA,NA
67266,"1500 E COLLEGE WAY PMB 427","MOUNT VERNON","WA",98273,48.435701146,-122.322729053,266,"1500 E COLLEGE WAY PMB 427, MOUNT VERNON, WA, 98273","Match","Non_Exact","1500 E COLLEGE WAY, MOUNT VERNON, WA, 98273",183652406,"L"
67267,"1500 E MED CTR DR SPC 5853 CVC 2367","ANN ARBOR","MI",48109,42.281417424,-83.726709817,267,"1500 E MED CTR DR SPC 5853 CVC 2367, ANN ARBOR, MI, 48109","Match","Non_Exact","1500 E MEDICAL CENTER DR, ANN ARBOR, MI, 48109",26027786,"R"
67268,"1500 E PERSHING ST","APPLETON","WI",54911,44.28423115,-88.381767568,268,"1500 E PERSHING ST, APPLETON, WI, 54911","Match","Exact","1500 E PERSHING ST, APPLETON, WI, 54911",74887039,"L"
67269,"1500 E RIVERSIDE DR APT 808","AUSTIN","TX",78741,30.246317753,-97.731996551,269,"1500 E RIVERSIDE DR APT 808, AUSTIN, TX, 78741","Match","Non_Exact","1500 E RIVERSIDE DR, AUSTIN, TX, 78741",649358844,"L"
67270,"1500 EAST AVE","BELVIDERE","IL",61008,42.246368008,-88.8318661279999,270,"1500 EAST AVE, BELVIDERE, IL, 61008","Match","Exact","1500 EAST AVE, BELVIDERE, IL, 61008",92156854,"L"
67271,"1500 EAST GREENWAY PARKWAY","PHOENIX","AZ",85022,33.6363750250001,-112.050151067,271,"1500 EAST GREENWAY PARKWAY, PHOENIX, AZ, 85022","Match","Exact","1500 E GREENWAY PKWY, PHOENIX, AZ, 85022",128943912,"R"
67272,"1500 EAST KANSAS AVENUE","GARDEN CITY","KS",67846,37.974944448,-100.856109972,272,"1500 EAST KANSAS AVENUE, GARDEN CITY, KS, 67846","Match","Exact","1500 E KANSAS AVE, GARDEN CITY, KS, 67846",145421611,"L"
67273,"1500 ENCHANTED WAY","LUCAS","TX",75002,33.0607295840001,-96.579307457,273,"1500 ENCHANTED WAY, LUCAS, TX, 75002","Match","Exact","1500 ENCHANTED WAY, LUCAS, TX, 75002",646654404,"L"
67274,"1500 ESCUELA PKWY","MILPITAS","CA",95035,37.4536027350001,-121.9017457,274,"1500 ESCUELA PKWY, MILPITAS, CA, 95035","Match","Exact","1500 ESCUELA PKWY, MILPITAS, CA, 95035",122960072,"R"
67275,"1500 EXALL","LLANO","TX",78643,30.7432545630001,-98.6805142439999,275,"1500 EXALL, LLANO, TX, 78643","Match","Non_Exact","1500 EXALL ST, LLANO, TX, 78643",182251447,"L"
67276,"1500 FAIR OAKS AVE","SOUTH PASADENA","CA",91030,NA,NA,276,"1500 FAIR OAKS AVE, SOUTH PASADENA, CA, 91030","No_Match",NA,NA,NA,NA
67277,"1500 FAIRVIEW BEACH ROAD","PASADENA","MD",21122,39.1541123220001,-76.4981373909999,277,"1500 FAIRVIEW BEACH ROAD, PASADENA, MD, 21122","Match","Exact","1500 FAIRVIEW BEACH RD, PASADENA, MD, 21122",651772897,"L"
67278,"1500 FIFTH STREET SUITE 9","SANTA FE","NM",87505,35.6642185040001,-105.971793472,278,"1500 FIFTH STREET SUITE 9, SANTA FE, NM, 87505","Match","Exact","1500 5TH ST, SANTA FE, NM, 87505",169377791,"R"
67279,"1500 FIRST AVENUE NE SUITE 210","ROCHESTER","MN",55906,44.037951123,-92.460601662,279,"1500 FIRST AVENUE NE SUITE 210, ROCHESTER, MN, 55906","Match","Exact","1500 1ST AVE NE, ROCHESTER, MN, 55906",30551639,"R"
67280,"1500 FISHER RD","TRAVERSE CITY","MI",49685,44.710871114,-85.777089723,280,"1500 FISHER RD, TRAVERSE CITY, MI, 49685","Match","Exact","1500 FISHER RD, TRAVERSE CITY, MI, 49685",647595770,"R"
67281,"1500 FORREST ST","HUTCHINSON","KS",67501,38.0698626080001,-97.9472153089999,281,"1500 FORREST ST, HUTCHINSON, KS, 67501","Match","Non_Exact","1500 FORREST AVE, HUTCHINSON, KS, 67501",142953181,"R"
67282,"1500 FOUNTAIN AVENUE","PANAMA CITY","FL",32405,30.175506376,-85.6900235159999,282,"1500 FOUNTAIN AVENUE, PANAMA CITY, FL, 32405","Match","Exact","1500 FOUNTAIN AVE, PANAMA CITY, FL, 32405",7028431,"R"
67283,"1500 GABRIEL DRIVE UNIT 7","WAUKESHA","WI",53188,43.025843213,-88.2363028519999,283,"1500 GABRIEL DRIVE UNIT 7, WAUKESHA, WI, 53188","Match","Exact","1500 GABRIEL DR, WAUKESHA, WI, 53188",617669823,"L"
67284,"1500 GAY RD UNIT 5D","WINTER PARK","FL",32789,28.6018404430001,-81.366507546,284,"1500 GAY RD UNIT 5D, WINTER PARK, FL, 32789","Match","Exact","1500 GAY RD, WINTER PARK, FL, 32789",612456237,"L"
67285,"1500 GILLIONVILLE ROAD  STE B","ALBANY","GA",31707,31.581128834,-84.1873858279999,285,"1500 GILLIONVILLE ROAD  STE B, ALBANY, GA, 31707","Match","Exact","1500 GILLIONVILLE RD, ALBANY, GA, 31707",84333534,"L"
67286,"1500 GOLD RUSH DRIVE","CONCORD","NC",28025,35.422140434,-80.548406395,286,"1500 GOLD RUSH DRIVE, CONCORD, NC, 28025","Match","Non_Exact","1500 GOLDRUSH DR, CONCORD, NC, 28025",648742992,"R"
67287,"1500 GOLD STAR HWY","GROTON","CT",6340,41.383843101,-72.018948716,287,"1500 GOLD STAR HWY, GROTON, CT, 6340","Match","Exact","1500 GOLD STAR HWY, GROTON, CT, 06340",56848642,"L"
67288,"1500 GOVERNOR NICHOLLS","NEW ORLEANS","LA",70116,29.9670415580001,-90.0680402629999,288,"1500 GOVERNOR NICHOLLS, NEW ORLEANS, LA, 70116","Match","Non_Exact","1500 GOV NICHOLLS ST, NEW ORLEANS, LA, 70116",191710415,"L"
67289,"1500 GRAND CONCOURSE APT 41C","BRONX","NY",10457,40.841052688,-73.912459913,289,"1500 GRAND CONCOURSE APT 41C, BRONX, NY, 10457","Match","Exact","1500 GRAND CONCOURSE, BRONX, NY, 10457",640810275,"R"
67290,"1500 GRAYSON ST","NOCONA","TX",76255,33.802684544,-97.727520611,290,"1500 GRAYSON ST, NOCONA, TX, 76255","Match","Exact","1500 GRAYSON ST, NOCONA, TX, 76255",152121112,"R"
67291,"1500 GREENBRIER STREET","CHARLESTON","WV",25311,38.3666355410001,-81.581697198,291,"1500 GREENBRIER STREET, CHARLESTON, WV, 25311","Match","Exact","1500 GREENBRIER ST, CHARLESTON, WV, 25311",647473827,"L"
67292,"1500 GREENWAVE DRIVE","LEEDS","AL",35094,NA,NA,292,"1500 GREENWAVE DRIVE, LEEDS, AL, 35094","No_Match",NA,NA,NA,NA
67293,"1500 GROESBECK RD","CINCINNATI","OH",45224,39.1951980580001,-84.5441503439999,293,"1500 GROESBECK RD, CINCINNATI, OH, 45224","Match","Exact","1500 GROESBECK RD, CINCINNATI, OH, 45224",103921130,"R"
67294,"1500 HADLEY ST NUM 871","HOUSTON","TX",77002,29.744607343,-95.368230994,294,"1500 HADLEY ST NUM 871, HOUSTON, TX, 77002","Match","Exact","1500 HADLEY ST, HOUSTON, TX, 77002",96071484,"R"
67295,"1500 HADLEY ST UNIT 11","HOUSTON","TX",77001,29.744607343,-95.368230994,295,"1500 HADLEY ST UNIT 11, HOUSTON, TX, 77001","Match","Non_Exact","1500 HADLEY ST, HOUSTON, TX, 77002",96071484,"R"
67296,"1500 HANSOM LANE NW","CONCORD","NC",28027,35.3942817670001,-80.674233513,296,"1500 HANSOM LANE NW, CONCORD, NC, 28027","Match","Exact","1500 HANSOM LN NW, CONCORD, NC, 28027",24911035,"R"
67297,"1500 HERITAGE BLVD","GLENN HEIGHTS","TX",75154,32.5635952110001,-96.863207141,297,"1500 HERITAGE BLVD, GLENN HEIGHTS, TX, 75154","Match","Exact","1500 HERITAGE BLVD, GLENN HEIGHTS, TX, 75154",103004301,"R"
67298,"1500 HIGH FOREST DR N","TUSCALOOSA","AL",35406,33.2323120090001,-87.552492783,298,"1500 HIGH FOREST DR N, TUSCALOOSA, AL, 35406","Match","Exact","1500 HIGH FOREST DR N, TUSCALOOSA, AL, 35406",82218394,"L"
67299,"1500 HIGHLANDS DRIVE","LITITZ","PA",17543,40.1326194210001,-76.309621557,299,"1500 HIGHLANDS DRIVE, LITITZ, PA, 17543","Match","Exact","1500 HIGHLANDS DR, LITITZ, PA, 17543",641514110,"R"
67300,"1500 HIGHWAY 17 NORTH SUITE 212","SURFSIDE BEACH","SC",29575,NA,NA,300,"1500 HIGHWAY 17 NORTH SUITE 212, SURFSIDE BEACH, SC, 29575","No_Match",NA,NA,NA,NA
67301,"1500 HILL ST","SUFFIELD","CT",6078,42.020940658,-72.675610396,301,"1500 HILL ST, SUFFIELD, CT, 6078","Match","Exact","1500 HILL ST, SUFFIELD, CT, 06078",3526044,"L"
67302,"1500 HORNELL LOOP 1C","BROOKLYN","NY",11239,40.644538654,-73.879908814,302,"1500 HORNELL LOOP 1C, BROOKLYN, NY, 11239","Match","Exact","1500 HORNELL LOOP, BROOKLYN, NY, 11239",650066335,"R"
67303,"1500 HWY 80 W","JACKSON","MS",39203,32.28667175,-90.210278369,303,"1500 HWY 80 W, JACKSON, MS, 39203","Match","Non_Exact","1500 HWY 80 W, JACKSON, MS, 39204",65371687,"L"
67304,"1500 INDIAN ROCK DAM ROAD","YORK","PA",17403,39.93336622,-76.755301606,304,"1500 INDIAN ROCK DAM ROAD, YORK, PA, 17403","Match","Exact","1500 INDIAN ROCK DAM RD, YORK, PA, 17403",88734454,"R"
67305,"1500 INDUSTRY STREET SUITE 300","EVERETT","WA",98203,NA,NA,305,"1500 INDUSTRY STREET SUITE 300, EVERETT, WA, 98203","No_Match",NA,NA,NA,NA
67306,"1500 JEFFERSON AVE","TEXARKANA","AR",71854,33.4364145270001,-94.02965376,306,"1500 JEFFERSON AVE, TEXARKANA, AR, 71854","Match","Exact","1500 JEFFERSON AVE, TEXARKANA, AR, 71854",57275154,"R"
67307,"1500 JFK BLVD SUITE 1040","PHILADELPHIA","PA",19102,NA,NA,307,"1500 JFK BLVD SUITE 1040, PHILADELPHIA, PA, 19102","No_Match",NA,NA,NA,NA
67308,"1500 JFK BLVD SUITE 1410","PHILADELPHIA","PA",19102,NA,NA,308,"1500 JFK BLVD SUITE 1410, PHILADELPHIA, PA, 19102","No_Match",NA,NA,NA,NA
67309,"1500 JOHN F KENNEDY BLVD SUITE 840","PHILADELPHIA","PA",19102,39.9536184470001,-75.165187509,309,"1500 JOHN F KENNEDY BLVD SUITE 840, PHILADELPHIA, PA, 19102","Match","Exact","1500 JOHN F KENNEDY BLVD, PHILADELPHIA, PA, 19102",131407636,"L"
67310,"1500 KAPIOLANI BLVD SUITE 102E","HONOLULU","HI",96814,21.2927319620001,-157.841633658,310,"1500 KAPIOLANI BLVD SUITE 102E, HONOLULU, HI, 96814","Match","Exact","1500 KAPIOLANI BLVD, HONOLULU, HI, 96814",203241479,"L"
67311,"1500 KEPNER DR","LAFAYETTE","IN",47905,40.4023279790001,-86.844513204,311,"1500 KEPNER DR, LAFAYETTE, IN, 47905","Match","Exact","1500 KEPNER DR, LAFAYETTE, IN, 47905",27321755,"R"
67312,"1500 KINGS ROAD","CARPENTERSVILLE","IL",60110,NA,NA,312,"1500 KINGS ROAD, CARPENTERSVILLE, IL, 60110","No_Match",NA,NA,NA,NA
67313,"1500 LAKELAND HILLS BLVD SUITE 4","LAKELAND","FL",33805,NA,NA,313,"1500 LAKELAND HILLS BLVD SUITE 4, LAKELAND, FL, 33805","No_Match",NA,NA,NA,NA
67314,"1500 LANCASTER AVENUE UNIT 2647","WILMINGTON","DE",19805,39.7446342910001,-75.569188992,314,"1500 LANCASTER AVENUE UNIT 2647, WILMINGTON, DE, 19805","Match","Exact","1500 LANCASTER AVE, WILMINGTON, DE, 19805",187257005,"L"
67315,"1500 LOCUST ST STE 1408","PHILADELPHIA","PA",19102,39.9484207240001,-75.166252228,315,"1500 LOCUST ST STE 1408, PHILADELPHIA, PA, 19102","Match","Exact","1500 LOCUST ST, PHILADELPHIA, PA, 19102",131408030,"L"
67316,"1500 LOS PADRES BLVD STE 105","SANTA CLARA","CA",95050,37.351231758,-121.964903166,316,"1500 LOS PADRES BLVD STE 105, SANTA CLARA, CA, 95050","Match","Exact","1500 LOS PADRES BLVD, SANTA CLARA, CA, 95050",122899055,"L"
67317,"1500 LOUISIANA ST","HOUSTON","TX",77002,29.7547363630001,-95.370519383,317,"1500 LOUISIANA ST, HOUSTON, TX, 77002","Match","Exact","1500 LOUISIANA ST, HOUSTON, TX, 77002",96067538,"R"
67318,"1500 MAIN STREET STE 15111","SPRINGFIELD","MA",1115,NA,NA,318,"1500 MAIN STREET STE 15111, SPRINGFIELD, MA, 1115","No_Match",NA,NA,NA,NA
67319,"1500 MALLINCKRODT","ST LOUIS","MO",63107,38.660051401,-90.199772576,319,"1500 MALLINCKRODT, ST LOUIS, MO, 63107","Match","Non_Exact","1500 MALLINCKRODT ST, SAINT LOUIS, MO, 63107",605103524,"L"
67320,"1500 MANNING FOREST DR APT A4","GREENVILLE","NC",27834,35.5785210010001,-77.420404326,320,"1500 MANNING FOREST DR APT A4, GREENVILLE, NC, 27834","Match","Exact","1500 MANNING FOREST DR, GREENVILLE, NC, 27834",623949588,"L"
67321,"1500 MARILLA STREET SUITE 6BS","DALLAS","TX",75201,32.776635679,-96.795902174,321,"1500 MARILLA STREET SUITE 6BS, DALLAS, TX, 75201","Match","Exact","1500 MARILLA ST, DALLAS, TX, 75201",103228703,"R"
67322,"1500 MARKET ST STE 3310E","PHILADELPHIA","PA",19102,39.9525899980001,-75.165354725,322,"1500 MARKET ST STE 3310E, PHILADELPHIA, PA, 19102","Match","Exact","1500 MARKET ST, PHILADELPHIA, PA, 19102",131407637,"L"
67323,"1500 MARKET STREET SUITE 3500E","PHILADELPHIA","PA",19102,39.9525899980001,-75.165354725,323,"1500 MARKET STREET SUITE 3500E, PHILADELPHIA, PA, 19102","Match","Exact","1500 MARKET ST, PHILADELPHIA, PA, 19102",131407637,"L"
67324,"1500 MASSACHUSETTS AVE NW SUITE 835","WASHINGTON","DC",20005,38.9065806070001,-77.034638367,324,"1500 MASSACHUSETTS AVE NW SUITE 835, WASHINGTON, DC, 20005","Match","Exact","1500 MASSACHUSETTS AVE NW, WASHINGTON, DC, 20005",76225701,"L"
67325,"1500 MATHISON STREET","DURHAM","NC",27701,35.979409327,-78.8873565329999,325,"1500 MATHISON STREET, DURHAM, NC, 27701","Match","Exact","1500 MATHISON ST, DURHAM, NC, 27701",71747017,"R"
67326,"1500 MAYWOOD DRIVE","SOUTH SAINT PAUL","MN",55075,44.885547155,-93.052559249,326,"1500 MAYWOOD DRIVE, SOUTH SAINT PAUL, MN, 55075","Match","Exact","1500 MAYWOOD DR, SOUTH SAINT PAUL, MN, 55075",37917103,"R"
67327,"1500 MCLEAN ST MB NUMBER 200","RIDGECREST","CA",93555,NA,NA,327,"1500 MCLEAN ST MB NUMBER 200, RIDGECREST, CA, 93555","No_Match",NA,NA,NA,NA
67328,"1500 MCMINNVILLE HWY","SPARTA","TN",38583,35.901244671,-85.485293138,328,"1500 MCMINNVILLE HWY, SPARTA, TN, 38583","Match","Exact","1500 MCMINNVILLE HWY, SPARTA, TN, 38583",638937785,"L"
67329,"1500 MEADOWLARK DRIVE","DELTONA","FL",32725,28.9036008730001,-81.240854486,329,"1500 MEADOWLARK DRIVE, DELTONA, FL, 32725","Match","Exact","1500 MEADOWLARK DR, DELTONA, FL, 32725",94502769,"L"
67330,"1500 MILL AVE","BRAINERD","MN",56401,46.3743790280001,-94.178643875,330,"1500 MILL AVE, BRAINERD, MN, 56401","Match","Exact","1500 MILL AVE, BRAINERD, MN, 56401",162827055,"R"
67331,"1500 MORGAN AVENUE NORTH","MINNEAPOLIS","MN",55411,44.994238721,-93.304442394,331,"1500 MORGAN AVENUE NORTH, MINNEAPOLIS, MN, 55411","Match","Exact","1500 MORGAN AVE N, MINNEAPOLIS, MN, 55411",43623521,"R"
67332,"1500 N 5TH AVE STE B","LAUREL","MS",39440,31.7078552580001,-89.131248778,332,"1500 N 5TH AVE STE B, LAUREL, MS, 39440","Match","Non_Exact","1500 N 5TH AVE, LAUREL, MS, 39440",426674,"L"
67333,"1500 N 5TH AVENUE STE B","LAUREL","MS",39440,31.7078552580001,-89.131248778,333,"1500 N 5TH AVENUE STE B, LAUREL, MS, 39440","Match","Non_Exact","1500 N 5TH AVE, LAUREL, MS, 39440",426674,"L"
67334,"1500 N 5TH ST","TEMPLE","TX",76501,31.1122315800001,-97.338534282,334,"1500 N 5TH ST, TEMPLE, TX, 76501","Match","Exact","1500 N 5TH ST, TEMPLE, TX, 76501",146148378,"L"
67335,"1500 N COLORADO STREET","CASA GRANDE","AZ",85122,NA,NA,335,"1500 N COLORADO STREET, CASA GRANDE, AZ, 85122","Tie",NA,NA,NA,NA
67336,"1500 N DIXIE HIGHWAY STE 305","WEST PALM BEACH","FL",33401,26.7265033780001,-80.053134471,336,"1500 N DIXIE HIGHWAY STE 305, WEST PALM BEACH, FL, 33401","Match","Non_Exact","1500 N DIXIE HWY, WEST PALM BEACH, FL, 33401",115277753,"R"
67337,"1500 N DIXIE HWY 304","WEST PALM BCH","FL",33401,26.7265033780001,-80.053134471,337,"1500 N DIXIE HWY 304, WEST PALM BCH, FL, 33401","Match","Non_Exact","1500 N DIXIE HWY, WEST PALM BEACH, FL, 33401",115277753,"R"
67338,"1500 N HALSTED STREET FLOOR 2","CHICAGO","IL",60642,41.9086838850001,-87.648217933,338,"1500 N HALSTED STREET FLOOR 2, CHICAGO, IL, 60642","Match","Non_Exact","1500 N HALSTED ST, CHICAGO, IL, 60642",111767202,"L"
67339,"1500 N HARBOR BLVD APT G2","SANTA ANA","CA",92703,33.7572755080001,-117.920343032,339,"1500 N HARBOR BLVD APT G2, SANTA ANA, CA, 92703","Match","Non_Exact","1500 N HARBOR BLVD, SANTA ANA, CA, 92703",609056108,"L"
67340,"1500 N LOMBARDY STREET","RICHMOND","VA",23220,37.5603355860001,-77.450393386,340,"1500 N LOMBARDY STREET, RICHMOND, VA, 23220","Match","Exact","1500 N LOMBARDY ST, RICHMOND, VA, 23220",635263071,"L"
67341,"1500 N OAKLAND AVE","BOLIVAR","MO",65613,37.6265429040001,-93.420935194,341,"1500 N OAKLAND AVE, BOLIVAR, MO, 65613","Match","Exact","1500 N OAKLAND AVE, BOLIVAR, MO, 65613",23037244,"L"
67342,"1500 N PATTERSON AVE 1132","WINSTON SALEM","NC",27105,NA,NA,342,"1500 N PATTERSON AVE 1132, WINSTON SALEM, NC, 27105","No_Match",NA,NA,NA,NA
67343,"1500 N RAILROAD AVE","PFLUGERVILLE","TX",78660,30.4561435620001,-97.616742636,343,"1500 N RAILROAD AVE, PFLUGERVILLE, TX, 78660","Match","Exact","1500 N RAILROAD AVE, PFLUGERVILLE, TX, 78660",63983438,"R"
67344,"1500 NE 42ND TER","KANSAS CITY","MO",64116,39.171997307,-94.5620500749999,344,"1500 NE 42ND TER, KANSAS CITY, MO, 64116","Match","Exact","1500 NE 42ND TER, KANSAS CITY, MO, 64116",89782106,"L"
67345,"1500 NE REDBUD DRIVE","OKLAHOMA CITY","OK",73117,35.4851238420001,-97.450574533,345,"1500 NE REDBUD DRIVE, OKLAHOMA CITY, OK, 73117","Match","Exact","1500 REDBUD DR, OKLAHOMA CITY, OK, 73117",100412367,"R"
67346,"1500 NEW YORK AVE","UNION CITY","NJ",8074,NA,NA,346,"1500 NEW YORK AVE, UNION CITY, NJ, 8074","No_Match",NA,NA,NA,NA
67347,"1500 NICOLLET AVE APT 433","MINNEAPOLIS","MN",55403,44.967668745,-93.277822122,347,"1500 NICOLLET AVE APT 433, MINNEAPOLIS, MN, 55403","Match","Exact","1500 NICOLLET AVE, MINNEAPOLIS, MN, 55403",43632147,"R"
67348,"1500 NORTH CONGRESS AVENUE A-15","WEST PALM BEACH","FL",33401,NA,NA,348,"1500 NORTH CONGRESS AVENUE A-15, WEST PALM BEACH, FL, 33401","Tie",NA,NA,NA,NA
67349,"1500 NORTH CONGRESS AVENUE A-15","WEST PALM BEACH","FM",33401,NA,NA,349,"1500 NORTH CONGRESS AVENUE A-15, WEST PALM BEACH, FM, 33401","No_Match",NA,NA,NA,NA
67350,"1500 NORTH GARFIELD ST","LEBANON","IN",46052,40.0593463390001,-86.477138826,350,"1500 NORTH GARFIELD ST, LEBANON, IN, 46052","Match","Non_Exact","1500 GARFIELD ST, LEBANON, IN, 46052",29251749,"L"
67351,"1500 NORTH SCOVEL ST","TEMPE","AZ",85281,33.4452376520001,-111.920056247,351,"1500 NORTH SCOVEL ST, TEMPE, AZ, 85281","Match","Exact","1500 N SCOVEL ST, TEMPE, AZ, 85281",128231339,"L"
67352,"1500 NORTH STREET","MARYSVILLE","KS",66508,39.8491632390001,-96.639416807,352,"1500 NORTH STREET, MARYSVILLE, KS, 66508","Match","Exact","1500 NORTH ST, MARYSVILLE, KS, 66508",28423042,"R"
67353,"1500 NORTH TUTTLE AVENUE","SARASOTA","FL",34237,NA,NA,353,"1500 NORTH TUTTLE AVENUE, SARASOTA, FL, 34237","No_Match",NA,NA,NA,NA
67354,"1500 NW 118TH ST","DES MOINES","IA",50325,41.603605057,-93.7788625379999,354,"1500 NW 118TH ST, DES MOINES, IA, 50325","Match","Exact","1500 NW 118TH ST, DES MOINES, IA, 50325",65864119,"R"
67355,"1500 OAKDALE AVENUE","TOLEDO","OH",43605,41.621990134,-83.5084794369999,355,"1500 OAKDALE AVENUE, TOLEDO, OH, 43605","Match","Exact","1500 OAKDALE AVE, TOLEDO, OH, 43605",33945926,"R"
67356,"1500 OCEAN DRIVE SUITE 1005","MIAMI BEACH","FL",33139,25.7870490990001,-80.129555424,356,"1500 OCEAN DRIVE SUITE 1005, MIAMI BEACH, FL, 33139","Match","Exact","1500 OCEAN DR, MIAMI BEACH, FL, 33139",116020562,"L"
67357,"1500 OCEAN PARKWAY APT 5J","BROOKLYN","NY",11230,40.612157832,-73.9684647029999,357,"1500 OCEAN PARKWAY APT 5J, BROOKLYN, NY, 11230","Match","Exact","1500 OCEAN PKWY, BROOKLYN, NY, 11230",640848351,"R"
67358,"1500 OLD EUSTIS RD","MOUNT DORA","FL",32757,28.8222425970001,-81.660313187,358,"1500 OLD EUSTIS RD, MOUNT DORA, FL, 32757","Match","Exact","1500 OLD EUSTIS RD, MOUNT DORA, FL, 32757",94205662,"L"
67359,"1500 OLE AMBROSE HIGHWAY","BELLS","TX",75414,NA,NA,359,"1500 OLE AMBROSE HIGHWAY, BELLS, TX, 75414","No_Match",NA,NA,NA,NA
67360,"1500 OLE AMBROSE ROAD","BELLS","TX",75414,NA,NA,360,"1500 OLE AMBROSE ROAD, BELLS, TX, 75414","No_Match",NA,NA,NA,NA
67361,"1500 OWEN AVE","PETERSBURG","IL",62673,40.01465525,-89.859170561,361,"1500 OWEN AVE, PETERSBURG, IL, 62673","Match","Non_Exact","1500 OWEN AVE, PETERSBURG, IL, 62675",53276981,"L"
67362,"1500 PAGE STREET   APT 38","PHILADELPHIA","PA",19121,39.9838808060001,-75.158604574,362,"1500 PAGE STREET   APT 38, PHILADELPHIA, PA, 19121","Match","Exact","1500 PAGE ST, PHILADELPHIA, PA, 19121",131421577,"L"
67363,"1500 PAGEDALE DRIVE","CEDAR PARK","TX",78613,30.484918754,-97.841417913,363,"1500 PAGEDALE DRIVE, CEDAR PARK, TX, 78613","Match","Exact","1500 PAGEDALE DR, CEDAR PARK, TX, 78613",126476421,"L"
67364,"1500 PARK AVENUE 322","EMERYVILLE","CA",94608,37.8305524960001,-122.289161032,364,"1500 PARK AVENUE 322, EMERYVILLE, CA, 94608","Match","Exact","1500 PARK AVE, EMERYVILLE, CA, 94608",124995578,"R"
67365,"1500 PARKWOOD CIRCLE","ATLANTA","GA",30339,33.9002622180001,-84.457957786,365,"1500 PARKWOOD CIRCLE, ATLANTA, GA, 30339","Match","Non_Exact","1500 PARKWOOD CIR SE, ATLANTA, GA, 30339",643396398,"L"
67366,"1500 PEACHTREE INDUSTRIAL BLVD 220","SUWANEE","GA",30024,NA,NA,366,"1500 PEACHTREE INDUSTRIAL BLVD 220, SUWANEE, GA, 30024","No_Match",NA,NA,NA,NA
67367,"1500 PEACHTREE INDUSTRIAL BLVD","SUWANEE","GA",30024,NA,NA,367,"1500 PEACHTREE INDUSTRIAL BLVD, SUWANEE, GA, 30024","No_Match",NA,NA,NA,NA
67368,"1500 PERIMETER PARK DR STE 150","MORRISVILLE","NC",27560,NA,NA,368,"1500 PERIMETER PARK DR STE 150, MORRISVILLE, NC, 27560","No_Match",NA,NA,NA,NA
67369,"1500 PORTER ROAD","NASHVILLE","TN",37206,36.1932953240001,-86.7264189699999,369,"1500 PORTER ROAD, NASHVILLE, TN, 37206","Match","Exact","1500 PORTER RD, NASHVILLE, TN, 37206",97194753,"L"
67370,"1500 PROVIDENCE HIGHWAY UNIT 17","NORWOOD","MA",2062,42.1635255640001,-71.199203613,370,"1500 PROVIDENCE HIGHWAY UNIT 17, NORWOOD, MA, 2062","Match","Exact","1500 PROVIDENCE HWY, NORWOOD, MA, 02062",87306786,"R"
67371,"1500 QUAIL RUN","COLLEGE STATION","TX",77845,30.5824899300001,-96.332760333,371,"1500 QUAIL RUN, COLLEGE STATION, TX, 77845","Match","Exact","1500 QUAIL RUN, COLLEGE STATION, TX, 77845",21820935,"L"
67372,"1500 QUAIL ST SUITE 220","NEWPORT BEACH","CA",92660,33.662046424,-117.869674466,372,"1500 QUAIL ST SUITE 220, NEWPORT BEACH, CA, 92660","Match","Exact","1500 QUAIL ST, NEWPORT BEACH, CA, 92660",144049233,"R"
67373,"1500 RAILROAD CUT RD","ROGERS","AR",72756,NA,NA,373,"1500 RAILROAD CUT RD, ROGERS, AR, 72756","No_Match",NA,NA,NA,NA
67374,"1500 RIVER DRIVE SUITE 209","BELMONT","NC",28012,NA,NA,374,"1500 RIVER DRIVE SUITE 209, BELMONT, NC, 28012","No_Match",NA,NA,NA,NA
67375,"1500 RIVERMONT DRIVE","GASTONIA","NC",28056,35.220519729,-81.172313808,375,"1500 RIVERMONT DRIVE, GASTONIA, NC, 28056","Match","Non_Exact","1500 RIVERMONT DR, GASTONIA, NC, 28054",70389707,"R"
67376,"1500 ROSE STREET","KEY WEST","FL",33040,24.550994148,-81.7826797659999,376,"1500 ROSE STREET, KEY WEST, FL, 33040","Match","Exact","1500 ROSE ST, KEY WEST, FL, 33040",116475351,"R"
67377,"1500 RYAN ROAD","FALL BRANCH","TN",37656,36.407060249,-82.655217653,377,"1500 RYAN ROAD, FALL BRANCH, TN, 37656","Match","Exact","1500 RYAN RD, FALL BRANCH, TN, 37656",611351321,"R"
67378,"1500 S 70TH ST STE 102","LINCOLN","NE",68506,40.793591701,-96.624970353,378,"1500 S 70TH ST STE 102, LINCOLN, NE, 68506","Match","Non_Exact","1500 S 70TH ST, LINCOLN, NE, 68506",639225700,"L"
67379,"1500 S HAMILTON RD STE G","COLUMBUS","OH",43227,39.944717375,-82.877811973,379,"1500 S HAMILTON RD STE G, COLUMBUS, OH, 43227","Match","Non_Exact","1500 S HAMILTON RD, COLUMBUS, OH, 43227",135593414,"L"
67380,"1500 S HUDSON ALLEN RD","BUNNELL","FL",32110,29.379956829,-81.2534838399999,380,"1500 S HUDSON ALLEN RD, BUNNELL, FL, 32110","Match","Exact","1500 S HUDSON ALLEN RD, BUNNELL, FL, 32110",647829538,"L"
67381,"1500 S MAIN ST","CROWN POINT","IN",46307,41.435374945,-87.3645436469999,381,"1500 S MAIN ST, CROWN POINT, IN, 46307","Match","Exact","1500 MAIN ST, CROWN POINT, IN, 46307",98432313,"L"
67382,"1500 S MAIN STREET","CROWN POINT","IN",46307,41.435374945,-87.3645436469999,382,"1500 S MAIN STREET, CROWN POINT, IN, 46307","Match","Exact","1500 MAIN ST, CROWN POINT, IN, 46307",98432313,"L"
67383,"1500 SANDBURG DRIVE","SCHAUMBURG","IL",60173,42.0300950560001,-88.042708321,383,"1500 SANDBURG DRIVE, SCHAUMBURG, IL, 60173","Match","Exact","1500 SANDBURG DR, SCHAUMBURG, IL, 60173",112386022,"L"
67384,"1500 SANGAMON STREET","CRETE","IL",60417,41.4397500950001,-87.642111684,384,"1500 SANGAMON STREET, CRETE, IL, 60417","Match","Non_Exact","1500 S SANGAMON ST, CRETE, IL, 60417",111584907,"L"
67385,"1500 SCORPIUS","IDAHO FALLS","ID",83402,43.5012874880001,-112.056673968,385,"1500 SCORPIUS, IDAHO FALLS, ID, 83402","Match","Non_Exact","1500 SCORPIUS DR, IDAHO FALLS, ID, 83402",119123132,"R"
67386,"1500 SE 25TH AVE","GAINESVILLE","FL",32641,29.6285594550001,-82.305710545,386,"1500 SE 25TH AVE, GAINESVILLE, FL, 32641","Match","Exact","1500 SE 25TH AVE, GAINESVILLE, FL, 32641",6810288,"L"
67387,"1500 SIEBARTH DR","LAKE CHARLES","LA",70615,30.21651946,-93.1707775799999,387,"1500 SIEBARTH DR, LAKE CHARLES, LA, 70615","Match","Exact","1500 SIEBARTH DR, LAKE CHARLES, LA, 70615",88467242,"R"
67388,"1500 SILVER SHADOW DR","THOUSAND OAKS","CA",91320,34.1813289300001,-118.911501235,388,"1500 SILVER SHADOW DR, THOUSAND OAKS, CA, 91320","Match","Non_Exact","1500 SILVER SHADOW LN, THOUSAND OAKS, CA, 91320",645679112,"L"
67389,"1500 SKYLYN DRIVE","SPARTANBURG","SC",29303,34.9719869190001,-81.899523266,389,"1500 SKYLYN DRIVE, SPARTANBURG, SC, 29303","Match","Non_Exact","1500 SKYLYN DR, SPARTANBURG, SC, 29307",647230379,"L"
67390,"1500 SOMERSET VALE COURT","LAWRENCEVILLE","GA",30044,33.9155364700001,-84.0166701369999,390,"1500 SOMERSET VALE COURT, LAWRENCEVILLE, GA, 30044","Match","Exact","1500 SOMERSET VALE CT, LAWRENCEVILLE, GA, 30044",88946846,"R"
67391,"1500 SOUTH JACKSON AVENUE","BARTOW","FL",33830,NA,NA,391,"1500 SOUTH JACKSON AVENUE, BARTOW, FL, 33830","No_Match",NA,NA,NA,NA
67392,"1500 SOUTH ROGERS AVE","BARTLESVILLE","OK",74003,NA,NA,392,"1500 SOUTH ROGERS AVE, BARTLESVILLE, OK, 74003","No_Match",NA,NA,NA,NA
67393,"1500 ST OLAF AVE","NORTHFIELD","MN",55057,44.460466388,-93.1792426069999,393,"1500 ST OLAF AVE, NORTHFIELD, MN, 55057","Match","Exact","1500 SAINT OLAF AVE, NORTHFIELD, MN, 55057",37315450,"L"
67394,"1500 STATE HWY RA","GRAVOIS MILLS","MO",65037,38.1913740360001,-92.854514947,394,"1500 STATE HWY RA, GRAVOIS MILLS, MO, 65037","Match","Exact","1500 STATE HWY RA, GRAVOIS MILLS, MO, 65037",22869063,"R"
67395,"1500 STATE STREET SUITE 100","SAN DIEGO","CA",92101,32.7209975160001,-117.166491893,395,"1500 STATE STREET SUITE 100, SAN DIEGO, CA, 92101","Match","Exact","1500 STATE ST, SAN DIEGO, CA, 92101",195343385,"L"
67396,"1500 STATE STREET","LEXINGTON","MO",64067,NA,NA,396,"1500 STATE STREET, LEXINGTON, MO, 64067","No_Match",NA,NA,NA,NA
67397,"1500 SULLIVAN ROAD","AURORA","IL",60506,41.7882898180001,-88.35538171,397,"1500 SULLIVAN ROAD, AURORA, IL, 60506","Match","Exact","1500 SULLIVAN RD, AURORA, IL, 60506",119560921,"L"
67398,"1500 SW 5TH PL APT A","FORT LAUDERDALE","FL",33312,NA,NA,398,"1500 SW 5TH PL APT A, FORT LAUDERDALE, FL, 33312","Tie",NA,NA,NA,NA
67399,"1500 SWEET LEAF LANE","PFLUGERVILLE","TX",78660,30.4179998050001,-97.634109229,399,"1500 SWEET LEAF LANE, PFLUGERVILLE, TX, 78660","Match","Exact","1500 SWEET LEAF LN, PFLUGERVILLE, TX, 78660",64109583,"L"
67400,"1500 SYCAMORE LANE","KINGWOOD","TX",77339,30.033349275,-95.233632674,400,"1500 SYCAMORE LANE, KINGWOOD, TX, 77339","Match","Exact","1500 SYCAMORE LN, KINGWOOD, TX, 77339",96048630,"R"
67401,"1500 THISTLEWOOD DRIVE","DESOTO","TX",75115,32.6172884270001,-96.8974348839999,401,"1500 THISTLEWOOD DRIVE, DESOTO, TX, 75115","Match","Exact","1500 THISTLEWOOD DR, DESOTO, TX, 75115",102994544,"L"
67402,"1500 TYNER ROAD","HAINES CITY","FL",33844,28.0550333690001,-81.5625198559999,402,"1500 TYNER ROAD, HAINES CITY, FL, 33844","Match","Exact","1500 TYNER RD, HAINES CITY, FL, 33844",635621364,"R"
67403,"1500 UNION AVE STE 2300","BALTIMORE","MD",21211,39.3322357970001,-76.63982592,403,"1500 UNION AVE STE 2300, BALTIMORE, MD, 21211","Match","Exact","1500 UNION AVE, BALTIMORE, MD, 21211",206407431,"R"
67404,"1500 UNIVERSITY DRIVE","BILLINGS","MT",59101,NA,NA,404,"1500 UNIVERSITY DRIVE, BILLINGS, MT, 59101","No_Match",NA,NA,NA,NA
67405,"1500 V STREET","PORT TOWNSEND","WA",98368,NA,NA,405,"1500 V STREET, PORT TOWNSEND, WA, 98368","No_Match",NA,NA,NA,NA
67406,"1500 VAN CLEAVE RD NW","ALBUQUERQUE","NM",87107,35.128362236,-106.660690217,406,"1500 VAN CLEAVE RD NW, ALBUQUERQUE, NM, 87107","Match","Exact","1500 VAN CLEAVE RD NW, ALBUQUERQUE, NM, 87107",206756621,"L"
67407,"1500 VANDERBUILT ST","NORTH TONAWANDA","NY",14120,43.0624262200001,-78.861132653,407,"1500 VANDERBUILT ST, NORTH TONAWANDA, NY, 14120","Match","Non_Exact","1500 VANDERBILT AVE, N TONAWANDA, NY, 14120",48688682,"L"
67408,"1500 VIA MONTEMAR","PALOS VERDE ESTATES","CA",90274,33.7943528430001,-118.403789781,408,"1500 VIA MONTEMAR, PALOS VERDE ESTATES, CA, 90274","Match","Exact","1500 VIA MONTEMAR, PALOS VERDES ESTATES, CA, 90274",141583955,"R"
67409,"1500 VILLANOVA DR","AUSTIN","TX",78757,30.35884221,-97.718727963,409,"1500 VILLANOVA DR, AUSTIN, TX, 78757","Match","Exact","1500 VILLANOVA DR, AUSTIN, TX, 78757",63931172,"R"
67410,"1500 W  RIVERVIEW AVENUE","DAYTON","OH",45402,39.762419648,-84.2180045109999,410,"1500 W  RIVERVIEW AVENUE, DAYTON, OH, 45402","Match","Exact","1500 W RIVERVIEW AVE, DAYTON, OH, 45402",143569766,"L"
67411,"1500 W 4TH ST","CEDAR FALLS","IA",50613,42.535014452,-92.463325936,411,"1500 W 4TH ST, CEDAR FALLS, IA, 50613","Match","Exact","1500 W 4TH ST, CEDAR FALLS, IA, 50613",77248045,"L"
67412,"1500 W 7TH STREET","STILLWATER","OK",74074,36.114528706,-97.0759741099999,412,"1500 W 7TH STREET, STILLWATER, OK, 74074","Match","Non_Exact","1500 W 7TH AVE, STILLWATER, OK, 74074",166386782,"R"
67413,"1500 W ALGONQUIN ROAD","HOFFMAN ESTATES","IL",60192,42.089982997,-88.116285761,413,"1500 W ALGONQUIN ROAD, HOFFMAN ESTATES, IL, 60192","Match","Exact","1500 W ALGONQUIN RD, HOFFMAN EST, IL, 60192",111689888,"L"
67414,"1500 W BIRCHWOOD AVE UNIT 2","CHICAGO","IL",60626,42.0181725830001,-87.668381896,414,"1500 W BIRCHWOOD AVE UNIT 2, CHICAGO, IL, 60626","Match","Non_Exact","1500 W BIRCHWOOD AVE, CHICAGO, IL, 60626",111745220,"R"
67415,"1500 W CALLE TIBURON","TUCSON","AZ",85704,32.318201414,-110.997630455,415,"1500 W CALLE TIBURON, TUCSON, AZ, 85704","Match","Non_Exact","1500 W CLL TIBURON, TUCSON, AZ, 85704",121165205,"R"
67416,"1500 W CYPRESS CREEK ROAD SUITE 408","FORT LAUDERDALE","FL",33309,26.203654806,-80.126397813,416,"1500 W CYPRESS CREEK ROAD SUITE 408, FORT LAUDERDALE, FL, 33309","Match","Non_Exact","1500 CYPRESS CREEK RD, FORT LAUDERDALE, FL, 33334",640116407,"L"
67417,"1500 W EL CAMINO AVE 137","SACRAMENTO","CA",95833,38.611051995,-121.432677724,417,"1500 W EL CAMINO AVE 137, SACRAMENTO, CA, 95833","Match","Non_Exact","1500 EL CAMINO AVE, SACRAMENTO, CA, 95815",640620656,"R"
67418,"1500 W EL CAMINO AVE 332","SACRAMENTO","CA",95833,38.611051995,-121.432677724,418,"1500 W EL CAMINO AVE 332, SACRAMENTO, CA, 95833","Match","Non_Exact","1500 EL CAMINO AVE, SACRAMENTO, CA, 95815",640620656,"R"
67419,"1500 W ELM TERRACE","OLATHE","KS",66061,38.8768670470001,-94.842555647,419,"1500 W ELM TERRACE, OLATHE, KS, 66061","Match","Exact","1500 W ELM TER, OLATHE, KS, 66061",91282087,"R"
67420,"1500 W JACKSON ST","COOKEVILLE","TN",38501,36.1655760680001,-85.5294335259999,420,"1500 W JACKSON ST, COOKEVILLE, TN, 38501","Match","Exact","1500 W JACKSON ST, COOKEVILLE, TN, 38501",605313026,"L"
67421,"1500 W LA QUINTA RD","NOGALES","AZ",85621,31.352913475,-110.968512949,421,"1500 W LA QUINTA RD, NOGALES, AZ, 85621","Match","Exact","1500 W LA QUINTA RD, NOGALES, AZ, 85621",120893002,"R"
67422,"1500 W LAQUINTA ROAD","NOGALES","AZ",85621,31.352913475,-110.968512949,422,"1500 W LAQUINTA ROAD, NOGALES, AZ, 85621","Match","Non_Exact","1500 W LA QUINTA RD, NOGALES, AZ, 85621",120893002,"R"
67423,"1500 W MAIN","SUN PRAIRIE","WI",53590,43.178599886,-89.238413822,423,"1500 W MAIN, SUN PRAIRIE, WI, 53590","Match","Non_Exact","1500 W MAIN ST, SUN PRAIRIE, WI, 53590",647226865,"R"
67424,"1500 W PINECREST DRIVE","MARSHALL","TX",75670,32.5266502850001,-94.381324179,424,"1500 W PINECREST DRIVE, MARSHALL, TX, 75670","Match","Exact","1500 W PINECREST DR, MARSHALL, TX, 75670",141191888,"L"
67425,"1500 W SHAW AVE  STE 400","FRESNO","CA",93711,36.8083278170001,-119.820053301,425,"1500 W SHAW AVE  STE 400, FRESNO, CA, 93711","Match","Non_Exact","1500 W SHAW AVE, FRESNO, CA, 93711",197568940,"R"
67426,"1500 WALNUT ST SUITE 700-21A","PHILADELPHIA","PA",19102,39.9495590070001,-75.166002771,426,"1500 WALNUT ST SUITE 700-21A, PHILADELPHIA, PA, 19102","Match","Exact","1500 WALNUT ST, PHILADELPHIA, PA, 19102",131407660,"L"
67427,"1500 WALNUT ST","PHILADELPHIA","PA",19102,39.9495590070001,-75.166002771,427,"1500 WALNUT ST, PHILADELPHIA, PA, 19102","Match","Exact","1500 WALNUT ST, PHILADELPHIA, PA, 19102",131407660,"L"
67428,"1500 WALNUT STREET - SUITE 700","PHILADELPHIA","PA",19102,39.9495590070001,-75.166002771,428,"1500 WALNUT STREET - SUITE 700, PHILADELPHIA, PA, 19102","Match","Exact","1500 WALNUT ST, PHILADELPHIA, PA, 19102",131407660,"L"
67429,"1500 WALTON RESERVE BLVD APT 5306","AUSTELL","GA",30168,33.781433975,-84.600543209,429,"1500 WALTON RESERVE BLVD APT 5306, AUSTELL, GA, 30168","Match","Exact","1500 WALTON RESERVE BLVD, AUSTELL, GA, 30168",614181801,"R"
67430,"1500 WEST COLLEGE AVENUE","STATE COLLEGE","PA",16801,40.7818465710001,-77.877514607,430,"1500 WEST COLLEGE AVENUE, STATE COLLEGE, PA, 16801","Match","Exact","1500 W COLLEGE AVE, STATE COLLEGE, PA, 16801",50370010,"L"
67431,"1500 WEST EL CAMINO AVE 34341","SACRAMENTO","CA",95833,38.612900403,-121.49508869,431,"1500 WEST EL CAMINO AVE 34341, SACRAMENTO, CA, 95833","Match","Exact","1500 W EL CAMINO AVE, SACRAMENTO, CA, 95833",645243642,"L"
67432,"1500 WEST EL CAMINO AVE BOX 730","SACRAMENTO","CA",95833,38.612900403,-121.49508869,432,"1500 WEST EL CAMINO AVE BOX 730, SACRAMENTO, CA, 95833","Match","Exact","1500 W EL CAMINO AVE, SACRAMENTO, CA, 95833",645243642,"L"
67433,"1500 WEST EL CAMINO AVENUE 394","ROSEVILLE","CA",95833,38.612900403,-121.49508869,433,"1500 WEST EL CAMINO AVENUE 394, ROSEVILLE, CA, 95833","Match","Non_Exact","1500 W EL CAMINO AVE, SACRAMENTO, CA, 95833",645243642,"L"
67434,"1500 WEST EL CAMINO AVENUE SUITE 49","SACRAMENTO","CA",95833,38.612900403,-121.49508869,434,"1500 WEST EL CAMINO AVENUE SUITE 49, SACRAMENTO, CA, 95833","Match","Exact","1500 W EL CAMINO AVE, SACRAMENTO, CA, 95833",645243642,"L"
67435,"1500 WEST FAIRMONT APT 101","LONGVIEW","TX",75604,NA,NA,435,"1500 WEST FAIRMONT APT 101, LONGVIEW, TX, 75604","No_Match",NA,NA,NA,NA
67436,"1500 WEST HWY 36 SUITE 825","ROSEVILLE","MN",55113,NA,NA,436,"1500 WEST HWY 36 SUITE 825, ROSEVILLE, MN, 55113","No_Match",NA,NA,NA,NA
67437,"1500 WEST MAIN STREET NUMBER 715","CARRBORO","NC",27510,35.917602389,-79.092887531,437,"1500 WEST MAIN STREET NUMBER 715, CARRBORO, NC, 27510","Match","Exact","1500 W MAIN ST, CARRBORO, NC, 27510",72383991,"L"
67438,"1500 WEST POLK STREET","CHICAGO","IL",60607,41.8716678860001,-87.664329666,438,"1500 WEST POLK STREET, CHICAGO, IL, 60607","Match","Exact","1500 W POLK ST, CHICAGO, IL, 60607",605275283,"R"
67439,"1500 WEST WASHINGTON BLVD","LOS ANGELES","CA",90007,34.040010656,-118.289691555,439,"1500 WEST WASHINGTON BLVD, LOS ANGELES, CA, 90007","Match","Exact","1500 W WASHINGTON BLVD, LOS ANGELES, CA, 90007",141606911,"L"
67440,"1500 WESTEC DR","EUGENE","OR",97402,44.0446013480001,-123.183886923,440,"1500 WESTEC DR, EUGENE, OR, 97402","Match","Exact","1500 WESTEC DR, EUGENE, OR, 97402",178229161,"L"
67441,"1500 WEXFORD PL","NAPERVILLE","IL",60564,41.72865066,-88.213642724,441,"1500 WEXFORD PL, NAPERVILLE, IL, 60564","Match","Exact","1500 WEXFORD PL, NAPERVILLE, IL, 60564",112565658,"L"
67442,"1500 WOLF LAKE RD","GRASS LAKE","MI",49240,42.2440089420001,-84.219050296,442,"1500 WOLF LAKE RD, GRASS LAKE, MI, 49240","Match","Exact","1500 WOLF LAKE RD, GRASS LAKE, MI, 49240",17626836,"R"
67443,"1500 WOODHAVEN DR","PROSPER","TX",75078,33.254832494,-96.774373645,443,"1500 WOODHAVEN DR, PROSPER, TX, 75078","Match","Exact","1500 WOODHAVEN DR, PROSPER, TX, 75078",210519729,"R"
67444,"1500 WOODWARD CT","BRENTWOOD","TN",37027,35.9790667,-86.7470723279999,444,"1500 WOODWARD CT, BRENTWOOD, TN, 37027","Match","Exact","1500 WOODWARD CT, BRENTWOOD, TN, 37027",73118730,"R"
67445,"15000 GOSSOM MANOR PL","HAYMARKET","VA",20169,38.8144853520001,-77.636268451,445,"15000 GOSSOM MANOR PL, HAYMARKET, VA, 20169","Match","Exact","15000 GOSSOM MANOR PL, HAYMARKET, VA, 20169",616805588,"L"
67446,"15000 GOSSOM MNORPL","HAYMARKET","VA",20169,NA,NA,446,"15000 GOSSOM MNORPL, HAYMARKET, VA, 20169","No_Match",NA,NA,NA,NA
67447,"15000 GRADUATION DRIVE","HAYMARKET","VA",20169,38.843626914,-77.6298996089999,447,"15000 GRADUATION DRIVE, HAYMARKET, VA, 20169","Match","Exact","15000 GRADUATION DR, HAYMARKET, VA, 20169",640865995,"L"
67448,"15000 LIVINGSTON RD C/O PARKS  REC","NAPLES","FL",34109,NA,NA,448,"15000 LIVINGSTON RD C/O PARKS  REC, NAPLES, FL, 34109","No_Match",NA,NA,NA,NA
67449,"15000 LOS GATOS BLVD SUITE 2","LOS GATOS","CA",95032,37.250073684,-121.954999336,449,"15000 LOS GATOS BLVD SUITE 2, LOS GATOS, CA, 95032","Match","Exact","15000 LOS GATOS BLVD, LOS GATOS, CA, 95032",123180348,"L"
67450,"15000 PARK ROW APT 1101","HOUSTON","TX",77084,NA,NA,450,"15000 PARK ROW APT 1101, HOUSTON, TX, 77084","No_Match",NA,NA,NA,NA
67451,"15000 POTOMAC TOWN PL STE 100232","WOODBRIDGE","VA",22191,38.629475601,-77.288021709,451,"15000 POTOMAC TOWN PL STE 100232, WOODBRIDGE, VA, 22191","Match","Exact","15000 POTOMAC TOWN PL, WOODBRIDGE, VA, 22191",634498012,"R"
67452,"15000 SE CROSSCREEK COURT","DAMASCUS","OR",97089,45.413982952,-122.437353916,452,"15000 SE CROSSCREEK COURT, DAMASCUS, OR, 97089","Match","Exact","15000 SE CROSSCREEK CT, DAMASCUS, OR, 97089",157981092,"R"
67453,"15000 SUN HILLS DRIVE","COLORADO SPRINGS","CO",80921,NA,NA,453,"15000 SUN HILLS DRIVE, COLORADO SPRINGS, CO, 80921","No_Match",NA,NA,NA,NA
67454,"15000 W AIRPORT BLVD APT 633","SUGAR LAND","TX",77498,29.648111069,-95.645250474,454,"15000 W AIRPORT BLVD APT 633, SUGAR LAND, TX, 77498","Match","Non_Exact","15000 W AIRPORT BLVD, SUGAR LAND, TX, 77498",647984782,"L"
67455,"15000 W IH 10","SAN ANTONIO","TX",78249,NA,NA,455,"15000 W IH 10, SAN ANTONIO, TX, 78249","No_Match",NA,NA,NA,NA
67456,"15000 WEST CLEVELAND AVENUE","NEW BERLIN","WI",53151,42.9954985190001,-88.100776577,456,"15000 WEST CLEVELAND AVENUE, NEW BERLIN, WI, 53151","Match","Exact","15000 W CLEVELAND AVE, NEW BERLIN, WI, 53151",53866437,"R"
67457,"15000 WEST DELMAR COURT","RATHDRUM","ID",83858,47.769744303,-116.987535107,457,"15000 WEST DELMAR COURT, RATHDRUM, ID, 83858","Match","Exact","15000 W DELMAR CT, RATHDRUM, ID, 83858",192944251,"L"
67458,"15000 WOODINVILLEREDMOND RD STE 200","WOODINVILLE","WA",98072,47.745352202,-122.16134681,458,"15000 WOODINVILLEREDMOND RD STE 200, WOODINVILLE, WA, 98072","Match","Non_Exact","15000 WOODINVILLE REDMOND RD NE, WOODINVILLE, WA, 98072",634322671,"R"
67459,"15001 CROSSWINDS DR APT 901","HOUSTON","TX",77032,NA,NA,459,"15001 CROSSWINDS DR APT 901, HOUSTON, TX, 77032","No_Match",NA,NA,NA,NA
67460,"15001 DARNESTOWN RD","GERMANTOWN","MD",20874,39.115293191,-77.311507244,460,"15001 DARNESTOWN RD, GERMANTOWN, MD, 20874","Match","Exact","15001 DARNESTOWN RD, GERMANTOWN, MD, 20874",62120755,"L"
67461,"15001 KANIS ROAD","LITTLE ROCK","AR",72223,34.750895889,-92.4378688959999,461,"15001 KANIS ROAD, LITTLE ROCK, AR, 72223","Match","Exact","15001 KANIS RD, LITTLE ROCK, AR, 72223",600641619,"L"
67462,"15001 KERCHEVAL AVE","GROSS POINTE PARK","MI",48320,NA,NA,462,"15001 KERCHEVAL AVE, GROSS POINTE PARK, MI, 48320","No_Match",NA,NA,NA,NA
67463,"15001 KERCHEVAL AVE","GROSSE POINTE PARK","MI",48230,42.3808038070001,-82.942198906,463,"15001 KERCHEVAL AVE, GROSSE POINTE PARK, MI, 48230","Match","Non_Exact","15001 KERCHEVAL, GROSSE POINTE PARK, MI, 48230",95488933,"L"
67464,"15001 PLUM TREE WAY","BOWIE","MD",20721,38.909963627,-76.7463683939999,464,"15001 PLUM TREE WAY, BOWIE, MD, 20721","Match","Non_Exact","15001 PLUMTREE WAY, BOWIE, MD, 20721",76342468,"R"
67465,"15002 DUNTON DRIVE","WHITTIER","CA",90604,33.9371493200001,-118.01033637,465,"15002 DUNTON DRIVE, WHITTIER, CA, 90604","Match","Exact","15002 DUNTON DR, WHITTIER, CA, 90604",141751533,"R"
67466,"15002 N 43RD ST","PHOENIX","AZ",85032,33.6228357030001,-111.990047728,466,"15002 N 43RD ST, PHOENIX, AZ, 85032","Match","Exact","15002 N 43RD ST, PHOENIX, AZ, 85032",640590170,"L"
67467,"15002 OAK ORCHARD RD","NEW WINDSOR","MD",21776,39.4932471060001,-77.140734508,467,"15002 OAK ORCHARD RD, NEW WINDSOR, MD, 21776","Match","Exact","15002 OAK ORCHARD RD, NEW WINDSOR, MD, 21776",60719728,"L"
67468,"15002 PONTIAC PL","KILN","MS",39556,30.393570907,-89.4419491789999,468,"15002 PONTIAC PL, KILN, MS, 39556","Match","Exact","15002 PONTIAC PL, KILN, MS, 39556",111127363,"L"
67469,"15002 RAINY MORNING DRIVE","HUMBLE","TX",77346,29.9384558830001,-95.203707156,469,"15002 RAINY MORNING DRIVE, HUMBLE, TX, 77346","Match","Exact","15002 RAINY MORNING DR, HUMBLE, TX, 77346",651998872,"L"
67470,"15002 WINDWARD 203","CORPUS CHRISTI","TX",78418,27.606420831,-97.209170247,470,"15002 WINDWARD 203, CORPUS CHRISTI, TX, 78418","Match","Non_Exact","15002 WINDWARD DR, CORPUS CHRISTI, TX, 78418",178525374,"R"
67471,"15003 MISTY SUMMER LANE","HUMBLE","TX",77346,NA,NA,471,"15003 MISTY SUMMER LANE, HUMBLE, TX, 77346","No_Match",NA,NA,NA,NA
67472,"15003 ULDERIC DRIVE","CENTREVILLE","VA",20120,38.855065639,-77.466667189,472,"15003 ULDERIC DRIVE, CENTREVILLE, VA, 20120","Match","Exact","15003 ULDERIC DR, CENTREVILLE, VA, 20120",75954951,"L"
67473,"15004 DUNLEIGH DRIVE","BOWIE","MD",20721,38.9060546310001,-76.7447186809999,473,"15004 DUNLEIGH DRIVE, BOWIE, MD, 20721","Match","Exact","15004 DUNLEIGH DR, BOWIE, MD, 20721",76347495,"R"
67474,"15005 S 22ND ST","BELLEVUE","NE",68123,41.0923069580001,-95.9443153669999,474,"15005 S 22ND ST, BELLEVUE, NE, 68123","Match","Exact","15005 S 22ND ST, BELLEVUE, NE, 68123",632079917,"L"
67475,"15005 S JUPITER APT 812","ALLEN","TX",75002,NA,NA,475,"15005 S JUPITER APT 812, ALLEN, TX, 75002","No_Match",NA,NA,NA,NA
67476,"15005 SUSSEX ST","DETROIT","MI",48227,42.399625003,-83.1949474199999,476,"15005 SUSSEX ST, DETROIT, MI, 48227","Match","Exact","15005 SUSSEX ST, DETROIT, MI, 48227",95424696,"L"
67477,"15005 TRANQUIL PLACE","BIGFORK","MT",59911,47.9981193570001,-113.93212239,477,"15005 TRANQUIL PLACE, BIGFORK, MT, 59911","Match","Exact","15005 TRANQUIL PL, BIGFORK, MT, 59911",625210825,"R"
67478,"15006 BREEZY FOREST LANE","CYPRESS","TX",77433,NA,NA,478,"15006 BREEZY FOREST LANE, CYPRESS, TX, 77433","No_Match",NA,NA,NA,NA
67479,"15006 PINE VISTA LANE","CHESTER","VA",23831,37.318894148,-77.431118903,479,"15006 PINE VISTA LANE, CHESTER, VA, 23831","Match","Exact","15006 PINE VISTA LN, CHESTER, VA, 23831",201563597,"R"
67480,"15007 LIVE OAK BEND WAY","CYPRESS","TX",77429,29.9900241060001,-95.702062008,480,"15007 LIVE OAK BEND WAY, CYPRESS, TX, 77429","Match","Exact","15007 LIVE OAK BEND WAY, CYPRESS, TX, 77429",627828813,"L"
67481,"15007 S WOODCREST AVE","HOMER GLEN","IL",60491,41.616240518,-87.9190396659999,481,"15007 S WOODCREST AVE, HOMER GLEN, IL, 60491","Match","Exact","15007 WOODCREST AVE, HOMER GLEN, IL, 60491",111547811,"L"
67482,"15007 SAVANNAH DRIVE","NAPLES","FL",34119,26.2654005410001,-81.697923746,482,"15007 SAVANNAH DRIVE, NAPLES, FL, 34119","Match","Exact","15007 SAVANNAH DR, NAPLES, FL, 34119",115173312,"L"
67483,"15007 SW 10TH ST","SUNRISE","FL",33326,26.1073338100001,-80.3487211679999,483,"15007 SW 10TH ST, SUNRISE, FL, 33326","Match","Exact","15007 SW 10TH ST, SUNRISE, FL, 33326",114775922,"R"
67484,"15007 SW 80 TER","MIAMI","FL",33193,25.6916305350001,-80.437680799,484,"15007 SW 80 TER, MIAMI, FL, 33193","Match","Exact","15007 SW 80TH TER, MIAMI, FL, 33193",115965638,"L"
67485,"15008 NE 16TH STREET","BELLEVUE","WA",98007,47.6238720540001,-122.140435657,485,"15008 NE 16TH STREET, BELLEVUE, WA, 98007","Match","Exact","15008 NE 16TH ST, BELLEVUE, WA, 98007",186611532,"L"
67486,"15008 W SOUTHPORT RD","BRIMFIELD","IL",61517,40.768851538,-89.8310964249999,486,"15008 W SOUTHPORT RD, BRIMFIELD, IL, 61517","Match","Exact","15008 W SOUTHPORT RD, BRIMFIELD, IL, 61517",635486329,"L"
67487,"15009 BUTTERNCHURN LANE","SILVER SPRING","MD",20905,NA,NA,487,"15009 BUTTERNCHURN LANE, SILVER SPRING, MD, 20905","No_Match",NA,NA,NA,NA
67488,"15009 CATLIN-TILTON ROAD","DANVILLE","IL",61834,40.1006695780001,-87.660008144,488,"15009 CATLIN-TILTON ROAD, DANVILLE, IL, 61834","Match","Non_Exact","15009 CATLIN TILTON RD, DANVILLE, IL, 61834",612001433,"L"
67489,"15009 DANUBE WAY","HAYMARKET","VA",20169,38.825899125,-77.634194169,489,"15009 DANUBE WAY, HAYMARKET, VA, 20169","Match","Exact","15009 DANUBE WAY, HAYMARKET, VA, 20169",207144559,"R"
67490,"15009 E 46TH STREET S","INDEPENDENCE","MO",64055,39.0363685900001,-94.403931208,490,"15009 E 46TH STREET S, INDEPENDENCE, MO, 64055","Match","Exact","15009 E 46TH ST S, INDEPENDENCE, MO, 64055",91470548,"R"
67491,"15009 MANCHESTER RD SUITE 138","BALLWIN","MO",63011,38.592974494,-90.546571645,491,"15009 MANCHESTER RD SUITE 138, BALLWIN, MO, 63011","Match","Exact","15009 MANCHESTER RD, BALLWIN, MO, 63011",100113298,"R"
67492,"15009 MANCHESTER STE 156","BALLWIN","MO",63011,38.592974494,-90.546571645,492,"15009 MANCHESTER STE 156, BALLWIN, MO, 63011","Match","Non_Exact","15009 MANCHESTER RD, BALLWIN, MO, 63011",100113298,"R"
67493,"1501 104TH AVE CT E","EDGEWOOD","WA",98372,47.24332014,-122.290367993,493,"1501 104TH AVE CT E, EDGEWOOD, WA, 98372","Match","Exact","1501 104TH AVENUE CT E, EDGEWOOD, WA, 98372",184677895,"R"
67494,"1501 10TH AVE","ALBANY","GA",31707,31.5997249120001,-84.1874213139999,494,"1501 10TH AVE, ALBANY, GA, 31707","Match","Exact","1501 10TH AVE, ALBANY, GA, 31707",84312848,"R"
67495,"1501 16TH ST APT 312","SACRAMENTO","CA",95814,38.5725228960001,-121.487623363,495,"1501 16TH ST APT 312, SACRAMENTO, CA, 95814","Match","Exact","1501 16TH ST, SACRAMENTO, CA, 95814",133421900,"L"
67496,"1501 1ST AVENUE SOUTH SUITE 310","SEATTLE","WA",98134,NA,NA,496,"1501 1ST AVENUE SOUTH SUITE 310, SEATTLE, WA, 98134","No_Match",NA,NA,NA,NA
67497,"1501 1ST AVENUE","MIDDLETOWN","OH",45044,39.5133212800001,-84.398623194,497,"1501 1ST AVENUE, MIDDLETOWN, OH, 45044","Match","Exact","1501 1ST AVE, MIDDLETOWN, OH, 45044",113795767,"L"
67498,"1501 1ST COURT WEST","BIRMINGHAM","AL",35208,33.502178353,-86.86135791,498,"1501 1ST COURT WEST, BIRMINGHAM, AL, 35208","Match","Exact","1501 1ST CT W, BIRMINGHAM, AL, 35208",81671833,"L"
67499,"1501 42ND STREET SUITE 446","WEST DES MOINES","IA",50266,41.592681365,-93.761496118,499,"1501 42ND STREET SUITE 446, WEST DES MOINES, IA, 50266","Match","Exact","1501 42ND ST, WEST DES MOINES, IA, 50266",641144292,"R"
67500,"1501 76TH AVE N","ST PETERSBURG","FL",33702,27.841946572,-82.651960758,500,"1501 76TH AVE N, ST PETERSBURG, FL, 33702","Match","Exact","1501 76TH AVE N, SAINT PETERSBURG, FL, 33702",124702946,"R"
