"ID","Address","City","State","Zip","lat","long","id","input_address","match_indicator","match_type","matched_address","tiger_line_id","tiger_side"
312001,"9122 BAGLEY DRIVE","INDIANAPOLIS","IN",46231,39.7592460540001,-86.323383682,1,"9122 BAGLEY DRIVE, INDIANAPOLIS, IN, 46231","Match","Exact","9122 BAGLEY DR, INDIANAPOLIS, IN, 46231",108062631,"R"
312002,"9122 CANTER HORSE","SAN ANTONIO","TX",78254,29.527214375,-98.708188229,2,"9122 CANTER HORSE, SAN ANTONIO, TX, 78254","Match","Exact","9122 CANTER HORSE, SAN ANTONIO, TX, 78254",619980155,"L"
312003,"9122 GLENVILLE RD","SILVER SPRING","MD",20901,39.0040765420001,-76.9977061659999,3,"9122 GLENVILLE RD, SILVER SPRING, MD, 20901","Match","Exact","9122 GLENVILLE RD, SILVER SPRING, MD, 20901",62114589,"R"
312004,"9122 HUNDLEY ROAD","CHATTANOOGA","TN",37416,35.1175657910001,-85.1550749049999,4,"9122 HUNDLEY ROAD, CHATTANOOGA, TN, 37416","Match","Exact","9122 HUNDLEY RD, CHATTANOOGA, TN, 37416",59316639,"L"
312005,"9122 MASON DRIVE","DENHAM SPRINGS","LA",70726,30.499679128,-90.935110454,5,"9122 MASON DRIVE, DENHAM SPRINGS, LA, 70726","Match","Exact","9122 MASON DR, DENHAM SPRINGS, LA, 70726",115087679,"R"
312006,"9122 MONTGOMERY RD","CINCINNATI","OH",45242,39.220601306,-84.357067904,6,"9122 MONTGOMERY RD, CINCINNATI, OH, 45242","Match","Exact","9122 MONTGOMERY RD, CINCINNATI, OH, 45242",103952110,"R"
312007,"9122 PRAIRIE AVE","HIGHLAND","IN",46322,41.547226321,-87.475758695,7,"9122 PRAIRIE AVE, HIGHLAND, IN, 46322","Match","Exact","9122 PRAIRIE AVE, HIGHLAND, IN, 46322",98421710,"R"
312008,"9122 S TETON ESTATES DR","WEST JORDAN","UT",84088,40.5854227410001,-111.992390423,8,"9122 S TETON ESTATES DR, WEST JORDAN, UT, 84088","Match","Exact","9122 TETON ESTATES DR, WEST JORDAN, UT, 84088",176127652,"L"
312009,"9122 SUNSET RD","VICTORVILLE","CA",92392,34.4592316230001,-117.463627428,9,"9122 SUNSET RD, VICTORVILLE, CA, 92392","Match","Exact","9122 SUNSET RD, VICTORVILLE, CA, 92392",638617905,"R"
312010,"9122 WEST WATERFORD SQUARE S","GREENFIELD","WI",53228,42.972722461,-88.026598694,10,"9122 WEST WATERFORD SQUARE S, GREENFIELD, WI, 53228","Match","Non_Exact","9122 W WATERFORD SQ N, GREENFIELD, WI, 53228",77746286,"R"
312011,"9123 5TH AVENUE","JACKSONVILLE","FL",32208,30.405253912,-81.690295638,11,"9123 5TH AVENUE, JACKSONVILLE, FL, 32208","Match","Exact","9123 5TH AVE, JACKSONVILLE, FL, 32208",83891679,"R"
312012,"9123 EASY STREET","SAN ANTONIO","TX",78266,29.704699647,-98.306672484,12,"9123 EASY STREET, SAN ANTONIO, TX, 78266","Match","Exact","9123 EASY ST, SAN ANTONIO, TX, 78266",72244275,"L"
312013,"9123 MOHAVE DRIVE","LINCOLN","NE",68516,40.720158133,-96.620533805,13,"9123 MOHAVE DRIVE, LINCOLN, NE, 68516","Match","Exact","9123 MOHAVE DR, LINCOLN, NE, 68516",645236471,"L"
312014,"9123 SUNSET RIDGE RD","RANDALLSTOWN","MD",21133,39.3810364670001,-76.793115159,14,"9123 SUNSET RIDGE RD, RANDALLSTOWN, MD, 21133","Match","Exact","9123 SUNSET RIDGE RD, RANDALLSTOWN, MD, 21133",191504270,"R"
312015,"9124 JORDAN ST","ST LOUIS","MO",63137,38.7261299250001,-90.230008093,15,"9124 JORDAN ST, ST LOUIS, MO, 63137","Match","Exact","9124 JORDAN ST, SAINT LOUIS, MO, 63137",107592115,"R"
312016,"9124 LAMBSKIN LANE","COLUMBIA","MD",21045,39.2092733220001,-76.820581739,16,"9124 LAMBSKIN LANE, COLUMBIA, MD, 21045","Match","Exact","9124 LAMBSKIN LN, COLUMBIA, MD, 21045",158965577,"L"
312017,"9124 LASALLE BLVD","DETROIT","MI",48206,NA,NA,17,"9124 LASALLE BLVD, DETROIT, MI, 48206","No_Match",NA,NA,NA,NA
312018,"9124 LUCYS OVERLOOK WAY","ELLICOTT CITY","MD",21042,39.2983060540001,-76.83472066,18,"9124 LUCYS OVERLOOK WAY, ELLICOTT CITY, MD, 21042","Match","Exact","9124 LUCYS OVERLOOK WAY, ELLICOTT CITY, MD, 21042",652565259,"R"
312019,"9124 S WEST ST","KNIGHTSTOWN","IN",46148,39.7978348780001,-85.508493804,19,"9124 S WEST ST, KNIGHTSTOWN, IN, 46148","Match","Exact","9124 WEST ST, KNIGHTSTOWN, IN, 46148",29986553,"R"
312020,"9124 SUMMER PARK DRIVE","PARKVILLE","MD",21234,39.385446196,-76.5167980699999,20,"9124 SUMMER PARK DRIVE, PARKVILLE, MD, 21234","Match","Exact","9124 SUMMER PARK DR, PARKVILLE, MD, 21234",191477430,"L"
312021,"9125 BARTON ST","OVERLAND PARK","KS",66214,38.963164476,-94.7158684629999,21,"9125 BARTON ST, OVERLAND PARK, KS, 66214","Match","Exact","9125 BARTON ST, OVERLAND PARK, KS, 66214",91274893,"L"
312022,"9125 HAMPSHIRE AVE N","BROOKLYN PARK","MN",55445,45.120070796,-93.3672096449999,22,"9125 HAMPSHIRE AVE N, BROOKLYN PARK, MN, 55445","Match","Exact","9125 HAMPSHIRE AVE N, BROOKLYN PARK, MN, 55445",43656631,"R"
312023,"9125 JUNEAU ALCOVE","WOODBURY","MN",55125,44.913906807,-92.920703804,23,"9125 JUNEAU ALCOVE, WOODBURY, MN, 55125","Match","Exact","9125 JUNEAU ALCOVE, WOODBURY, MN, 55125",97801144,"R"
312024,"9125 LINCOLN AVE","CLIVE","IA",50325,41.6069015350001,-93.74457483,24,"9125 LINCOLN AVE, CLIVE, IA, 50325","Match","Exact","9125 LINCOLN AVE, CLIVE, IA, 50325",65854033,"R"
312025,"9125 N OLD STATE ROAD","LINCOLN","DE",19960,38.853708494,-75.42926169,25,"9125 N OLD STATE ROAD, LINCOLN, DE, 19960","Match","Exact","9125 N OLD STATE RD, LINCOLN, DE, 19960",106133861,"R"
312026,"9125 S BENNETT AVE","CHICAGO","IL",60617,41.729203318,-87.577948299,26,"9125 S BENNETT AVE, CHICAGO, IL, 60617","Match","Exact","9125 S BENNETT AVE, CHICAGO, IL, 60617",111775476,"L"
312027,"9126 LAPEER ROAD  SUITE 4","DAVISON","MI",48423,43.012323171,-83.5325397509999,27,"9126 LAPEER ROAD  SUITE 4, DAVISON, MI, 48423","Match","Exact","9126 LAPEER RD, DAVISON, MI, 48423",627742669,"R"
312028,"9126 OLD SMYRNA RD","BRENTWOOD","TN",37027,36.0180816700001,-86.770901833,28,"9126 OLD SMYRNA RD, BRENTWOOD, TN, 37027","Match","Exact","9126 OLD SMYRNA RD, BRENTWOOD, TN, 37027",651149637,"L"
312029,"9126 S CARPENTER ST","CHICAGO","IL",60620,41.7281316780001,-87.6494799399999,29,"9126 S CARPENTER ST, CHICAGO, IL, 60620","Match","Exact","9126 S CARPENTER ST, CHICAGO, IL, 60620",111831678,"R"
312030,"9127 ANGEL TEAR WAY","INDIANAPOLIS","IN",46231,39.7361321720001,-86.323970947,30,"9127 ANGEL TEAR WAY, INDIANAPOLIS, IN, 46231","Match","Exact","9127 ANGEL TEAR WAY, INDIANAPOLIS, IN, 46231",108064065,"L"
312031,"9127 CALDERA WAY","SACRAMENTO","CA",95826,38.5576427890001,-121.362712985,31,"9127 CALDERA WAY, SACRAMENTO, CA, 95826","Match","Exact","9127 CALDERA WAY, SACRAMENTO, CA, 95826",133339649,"L"
312032,"9127 CANDLEWOOD DRIVE","KNOXVILLE","TN",37923,35.9373665260001,-84.0882309259999,32,"9127 CANDLEWOOD DRIVE, KNOXVILLE, TN, 37923","Match","Exact","9127 CANDLEWOOD DR, KNOXVILLE, TN, 37923",42611187,"L"
312033,"9127 EAST LA POSADA COURT","SCOTTSDALE","AZ",85255,33.696672612,-111.884617936,33,"9127 EAST LA POSADA COURT, SCOTTSDALE, AZ, 85255","Match","Exact","9127 E LA POSADA CT, SCOTTSDALE, AZ, 85255",128945214,"R"
312034,"9127 FUREY ROAD","LORTON","VA",22079,38.7085241010001,-77.225036308,34,"9127 FUREY ROAD, LORTON, VA, 22079","Match","Exact","9127 FUREY RD, LORTON, VA, 22079",619675503,"L"
312035,"9127 HWY 18 EAST","BANKSTON","AL",35542,NA,NA,35,"9127 HWY 18 EAST, BANKSTON, AL, 35542","No_Match",NA,NA,NA,NA
312036,"9127 KENSINGTON FOREST DRIVE","HARRISBURG","NC",28075,35.2885777110001,-80.642429562,36,"9127 KENSINGTON FOREST DRIVE, HARRISBURG, NC, 28075","Match","Exact","9127 KENSINGTON FOREST DR, HARRISBURG, NC, 28075",624741516,"R"
312037,"9127 PEACHBLOSSOM CT","CINCINNATI","OH",45231,39.231754972,-84.520190812,37,"9127 PEACHBLOSSOM CT, CINCINNATI, OH, 45231","Match","Exact","9127 PEACHBLOSSOM CT, CINCINNATI, OH, 45231",103920130,"L"
312038,"9127 VIA BELLA NOTTE","ORLANDO","FL",32836,28.4459798840001,-81.494089536,38,"9127 VIA BELLA NOTTE, ORLANDO, FL, 32836","Match","Exact","9127 VIA BELLA NOTTE, ORLANDO, FL, 32836",94422521,"R"
312039,"9128 143 ST WEST","TAYLOR RIDGE","IL",61284,41.427694611,-90.762596661,39,"9128 143 ST WEST, TAYLOR RIDGE, IL, 61284","Match","Exact","9128 143RD ST W, TAYLOR RIDGE, IL, 61284",9222677,"L"
312040,"9128 COLLIERS CHAPEL CHURCH ROAD","LINDEN","NC",28356,NA,NA,40,"9128 COLLIERS CHAPEL CHURCH ROAD, LINDEN, NC, 28356","No_Match",NA,NA,NA,NA
312041,"9128 GOSHEN PARK PLACE","GAITHERSBURG","MD",20882,39.2098257820001,-77.1940063069999,41,"9128 GOSHEN PARK PLACE, GAITHERSBURG, MD, 20882","Match","Exact","9128 GOSHEN PARK PL, GAITHERSBURG, MD, 20882",62133320,"L"
312042,"9128 NW 44TH COURT","SUNRISE","FL",33351,26.17967064,-80.271288258,42,"9128 NW 44TH COURT, SUNRISE, FL, 33351","Match","Non_Exact","9128 NW 44TH CT, SUNRISE, FL, 33351",114752244,"R"
312043,"9128 SUNDANCE TRAIL","DEXTER","MI",48130,42.349174717,-83.9126235959999,43,"9128 SUNDANCE TRAIL, DEXTER, MI, 48130","Match","Exact","9128 SUNDANCE TRL, DEXTER, MI, 48130",634289077,"L"
312044,"9128 SUNDANCE TRL","DEXTER","MI",48130,42.349174717,-83.9126235959999,44,"9128 SUNDANCE TRL, DEXTER, MI, 48130","Match","Exact","9128 SUNDANCE TRL, DEXTER, MI, 48130",634289077,"L"
312045,"9128 SURREY NE","ALBUQUERQUE","NM",87109,35.164768544,-106.541263254,45,"9128 SURREY NE, ALBUQUERQUE, NM, 87109","Match","Non_Exact","9128 SURREY RD NE, ALBUQUERQUE, NM, 87109",206741247,"L"
312046,"9128 WOODGREEN WAY","JONESBORO","GA",30238,33.506433224,-84.410224644,46,"9128 WOODGREEN WAY, JONESBORO, GA, 30238","Match","Exact","9128 WOODGREEN WAY, JONESBORO, GA, 30238",23313588,"L"
312047,"91289 YOUNGS RIVER RD","ASTORIA","OR",97103,46.1295123990001,-123.825294321,47,"91289 YOUNGS RIVER RD, ASTORIA, OR, 97103","Match","Exact","91289 YOUNGS RIVER RD, ASTORIA, OR, 97103",159247260,"R"
312048,"9129 BOYCE PLACE","ST LOUIS","MO",63136,38.735449659,-90.252632712,48,"9129 BOYCE PLACE, ST LOUIS, MO, 63136","Match","Exact","9129 BOYCE PL, SAINT LOUIS, MO, 63136",100149521,"L"
312049,"9129 BRYANT AVENUE","LAUREL","MD",20723,39.119913502,-76.859083738,49,"9129 BRYANT AVENUE, LAUREL, MD, 20723","Match","Exact","9129 BRYANT AVE, LAUREL, MD, 20723",158930603,"L"
312050,"9129 LOIRET BLVD","LENEXA","KS",66219,38.962745016,-94.7689722819999,50,"9129 LOIRET BLVD, LENEXA, KS, 66219","Match","Exact","9129 LOIRET BLVD, LENEXA, KS, 66219",640299364,"L"
312051,"9129 S ALBANY AVE","EVERGREEN PARK","IL",60805,41.7274808230001,-87.69955139,51,"9129 S ALBANY AVE, EVERGREEN PARK, IL, 60805","Match","Exact","9129 ALBANY AVE, EVERGREEN PARK, IL, 60805",111820077,"L"
312052,"9129 SETTLERS RD","MADISON","WI",53717,43.079885071,-89.5461978719999,52,"9129 SETTLERS RD, MADISON, WI, 53717","Match","Exact","9129 SETTLERS RD, MADISON, WI, 53717",49498565,"L"
312053,"9129 WEST 126TH TERRACE","OVERLAND PARK","KS",66213,38.8989116880001,-94.692256801,53,"9129 WEST 126TH TERRACE, OVERLAND PARK, KS, 66213","Match","Exact","9129 W 126TH TER, OVERLAND PARK, KS, 66213",91306762,"L"
312054,"9129 WOODBRIDGE OAK TERRACE","ORLANDO","FL",32825,28.5223185580001,-81.259226166,54,"9129 WOODBRIDGE OAK TERRACE, ORLANDO, FL, 32825","Match","Exact","9129 WOODBRIDGE OAK TER, ORLANDO, FL, 32825",94397016,"L"
312055,"913 35TH AVE N","NASHVILLE","TN",37209,36.1606888370001,-86.8279752349999,55,"913 35TH AVE N, NASHVILLE, TN, 37209","Match","Exact","913 35TH AVE N, NASHVILLE, TN, 37209",97184760,"L"
312056,"913 57TH STREET","KENOSHA","WI",53140,42.5836891220001,-87.822238203,56,"913 57TH STREET, KENOSHA, WI, 53140","Match","Exact","913 57TH ST, KENOSHA, WI, 53140",79800704,"L"
312057,"913 ALLEN DRIVE","WINCHESTER","VA",22601,39.180049786,-78.148397323,57,"913 ALLEN DRIVE, WINCHESTER, VA, 22601","Match","Exact","913 ALLEN DR, WINCHESTER, VA, 22601",55578586,"L"
312058,"913 AMBER WAY","PANAMA CITY","FL",32404,30.2473449240001,-85.4904118699999,58,"913 AMBER WAY, PANAMA CITY, FL, 32404","Match","Exact","913 AMBER WAY, PANAMA CITY, FL, 32404",614888270,"R"
312059,"913 APPLEGATE PARKWAY","WAXHAW","NC",28173,34.982335859,-80.718931191,59,"913 APPLEGATE PARKWAY, WAXHAW, NC, 28173","Match","Exact","913 APPLEGATE PKWY, WAXHAW, NC, 28173",14203811,"R"
312060,"913 BOUIL RD","CARRIERE","MS",39426,NA,NA,60,"913 BOUIL RD, CARRIERE, MS, 39426","No_Match",NA,NA,NA,NA
312061,"913 BOYD CREEK ROAD","MCKINNEY","TX",75071,33.2055031960001,-96.671763109,61,"913 BOYD CREEK ROAD, MCKINNEY, TX, 75071","Match","Exact","913 BOYD CREEK RD, MCKINNEY, TX, 75071",642938021,"L"
312062,"913 BROKEN ARROW LANE","CANTONMENT","FL",32533,30.5540590570001,-87.288715139,62,"913 BROKEN ARROW LANE, CANTONMENT, FL, 32533","Match","Exact","913 BROKEN ARROW LN, CANTONMENT, FL, 32533",93245046,"R"
312063,"913 BULLOCK AVENUE","YEADON","PA",19050,39.929856924,-75.248648486,63,"913 BULLOCK AVENUE, YEADON, PA, 19050","Match","Exact","913 BULLOCK AVE, YEADON, PA, 19050",134886729,"L"
312064,"913 CHESTER STREET","DURHAM","NC",27701,35.9947241850001,-78.882790536,64,"913 CHESTER STREET, DURHAM, NC, 27701","Match","Exact","913 CHESTER ST, DURHAM, NC, 27701",71741957,"L"
312065,"913 CHURCH STREET","PLEASANTVILLE","NJ",8232,39.390645797,-74.5443635729999,65,"913 CHURCH STREET, PLEASANTVILLE, NJ, 8232","Match","Exact","913 CHURCH ST, PLEASANTVILLE, NJ, 08232",202522438,"L"
312066,"913 CLARK ST","MUSKEGON","MI",49442,43.2356236790001,-86.190488662,66,"913 CLARK ST, MUSKEGON, MI, 49442","Match","Exact","913 CLARK ST, MUSKEGON, MI, 49442",77655597,"R"
312067,"913 CRATERS OF THE MOON BLVD","PFLUGERVILLE","TX",78660,30.4686217,-97.612159664,67,"913 CRATERS OF THE MOON BLVD, PFLUGERVILLE, TX, 78660","Match","Exact","913 CRATERS OF THE MOON BLVD, PFLUGERVILLE, TX, 78660",629633986,"L"
312068,"913 CRESTVIEW DR","VERMILLION","SD",57069,42.7726731130001,-96.9185982659999,68,"913 CRESTVIEW DR, VERMILLION, SD, 57069","Match","Exact","913 CRESTVIEW DR, VERMILLION, SD, 57069",172949870,"L"
312069,"913 DESOTO AVE","YPSILANTI","MI",48197,42.233251324,-83.567462021,69,"913 DESOTO AVE, YPSILANTI, MI, 48197","Match","Non_Exact","913 DESOTO AVE, YPSILANTI, MI, 48198",26022360,"L"
312070,"913 DIESTEL RD","SALT LAKE CITY","UT",84105,40.749435894,-111.842884402,70,"913 DIESTEL RD, SALT LAKE CITY, UT, 84105","Match","Exact","913 DIESTEL RD, SALT LAKE CITY, UT, 84105",176081438,"L"
312071,"913 DUMBARTON RD","COLUMBIA","SC",29212,34.066066676,-81.153111597,71,"913 DUMBARTON RD, COLUMBIA, SC, 29212","Match","Exact","913 DUMBARTON RD, COLUMBIA, SC, 29212",70049576,"L"
312072,"913 E PHIL ELLENA STREET","PHILADELPHIA","PA",19150,40.0640912010001,-75.172649728,72,"913 E PHIL ELLENA STREET, PHILADELPHIA, PA, 19150","Match","Exact","913 E PHIL ELLENA ST, PHILADELPHIA, PA, 19150",131395006,"L"
312073,"913 EAST 219TH STREET UNIT 7","BRONX","NY",10469,40.881606925,-73.856594437,73,"913 EAST 219TH STREET UNIT 7, BRONX, NY, 10469","Match","Exact","913 E 219TH ST, BRONX, NY, 10469",80297335,"L"
312074,"913 EAST 26 AVE","TAMPA","FL",33605,27.974213498,-82.44981556,74,"913 EAST 26 AVE, TAMPA, FL, 33605","Match","Non_Exact","913 26TH AVE, TAMPA, FL, 33605",104634083,"R"
312075,"913 EAST 85TH STREET   FLOOR 1","BROOKLYN","NY",11236,40.63695998,-73.9085956599999,75,"913 EAST 85TH STREET   FLOOR 1, BROOKLYN, NY, 11236","Match","Exact","913 E 85TH ST, BROOKLYN, NY, 11236",59086451,"L"
312076,"913 EAST CUMBERLAND DR","LOUISVILLE","TN",37777,35.851996136,-83.9606974389999,76,"913 EAST CUMBERLAND DR, LOUISVILLE, TN, 37777","Match","Exact","913 E CUMBERLAND DR, LOUISVILLE, TN, 37777",89860651,"R"
312077,"913 EDGEBROOK","HOUSTON","TX",77034,NA,NA,77,"913 EDGEBROOK, HOUSTON, TX, 77034","No_Match",NA,NA,NA,NA
312078,"913 ELY ST","ALLEGAN","MI",49010,42.5172773470001,-85.866406529,78,"913 ELY ST, ALLEGAN, MI, 49010","Match","Exact","913 ELY ST, ALLEGAN, MI, 49010",11419718,"R"
312079,"913 FENIMORE DRIVE","LEWISVILLE","TX",75077,33.05542088,-97.020942017,79,"913 FENIMORE DRIVE, LEWISVILLE, TX, 75077","Match","Exact","913 FENIMORE DR, LEWISVILLE, TX, 75077",103421732,"R"
312080,"913 FIR STREET","BRAINERD","MN",56401,46.364351905,-94.195767511,80,"913 FIR STREET, BRAINERD, MN, 56401","Match","Exact","913 FIR ST, BRAINERD, MN, 56401",162827325,"R"
312081,"913 FULTON AVENUE - UNIT 421","SACRAMENTO","CA",95825,38.581895565,-121.401490364,81,"913 FULTON AVENUE - UNIT 421, SACRAMENTO, CA, 95825","Match","Exact","913 FULTON AVE, SACRAMENTO, CA, 95825",133335667,"L"
312082,"913 GALLATIN COURT","CINCINNATI","OH",45240,39.2878335890001,-84.514350425,82,"913 GALLATIN COURT, CINCINNATI, OH, 45240","Match","Exact","913 GALLATIN CT, CINCINNATI, OH, 45240",103943403,"L"
312083,"913 GEORGE AVENUE","BALTIMORE","MD",21221,39.318831421,-76.473019923,83,"913 GEORGE AVENUE, BALTIMORE, MD, 21221","Match","Exact","913 GEORGE AVE, BALTIMORE, MD, 21221",645715832,"R"
312084,"913 GLENVIEW DR","HURON","OH",44839,41.392683542,-82.571100626,84,"913 GLENVIEW DR, HURON, OH, 44839","Match","Exact","913 GLENVIEW DR, HURON, OH, 44839",55334995,"L"
312085,"913 GRANT ROAD","FOLCROFT","PA",19032,39.888060135,-75.2820310669999,85,"913 GRANT ROAD, FOLCROFT, PA, 19032","Match","Exact","913 GRANT RD, FOLCROFT, PA, 19032",134885249,"L"
312086,"913 HIGHBURY LN NE","MARIETTA","GA",30068,33.9714366750001,-84.450515767,86,"913 HIGHBURY LN NE, MARIETTA, GA, 30068","Match","Exact","913 HIGHBURY LN NE, MARIETTA, GA, 30068",618319268,"L"
312087,"913 KING DR","LOVELAND","CO",80537,40.3832011150001,-105.008558772,87,"913 KING DR, LOVELAND, CO, 80537","Match","Exact","913 KING DR, LOVELAND, CO, 80537",188621078,"L"
312088,"913 LACY RD","CANTON","GA",30115,34.2062310700001,-84.423832879,88,"913 LACY RD, CANTON, GA, 30115","Match","Exact","913 LACY RD, CANTON, GA, 30115",68826566,"L"
312089,"913 LANTERN LANE","WEATHERFORD","OK",73096,35.534450081,-98.684782167,89,"913 LANTERN LANE, WEATHERFORD, OK, 73096","Match","Exact","913 LANTERN LN, WEATHERFORD, OK, 73096",150576686,"R"
312090,"913 LOUISA ST","NEW ORLEANS","LA",70117,29.9652067760001,-90.043062343,90,"913 LOUISA ST, NEW ORLEANS, LA, 70117","Match","Exact","913 LOUISA ST, NEW ORLEANS, LA, 70117",191717075,"R"
312091,"913 MADISON AVENUE","TOLEDO","OH",43606,41.6537603260001,-83.5398850019999,91,"913 MADISON AVENUE, TOLEDO, OH, 43606","Match","Non_Exact","913 MADISON AVE, TOLEDO, OH, 43604",33943758,"L"
312092,"913 MAIN AVENUE","PASSAIC","NJ",7055,40.8685641180001,-74.133258917,92,"913 MAIN AVENUE, PASSAIC, NJ, 7055","Match","Exact","913 MAIN AVE, PASSAIC, NJ, 07055",65252086,"L"
312093,"913 MCGOVERN AVENUE","CHEYENNE","WY",82001,41.134202906,-104.75331557,93,"913 MCGOVERN AVENUE, CHEYENNE, WY, 82001","Match","Exact","913 MCGOVERN AVE, CHEYENNE, WY, 82001",160152825,"R"
312094,"913 MEADOW WAY","CHURUBUSCO","IN",46723,41.2377033810001,-85.33089232,94,"913 MEADOW WAY, CHURUBUSCO, IN, 46723","Match","Non_Exact","913 W MEADOW WAY, CHURUBUSCO, IN, 46723",6649375,"L"
312095,"913 N FARRA DRIVE","OKLAHOMA CITY","OK",73107,35.4755441,-97.590545189,95,"913 N FARRA DRIVE, OKLAHOMA CITY, OK, 73107","Match","Exact","913 N FARRA DR, OKLAHOMA CITY, OK, 73107",100392104,"L"
312096,"913 N GADSDEN ST","TALLAHASSEE","FL",32303,30.451532269,-84.2779544529999,96,"913 N GADSDEN ST, TALLAHASSEE, FL, 32303","Match","Exact","913 N GADSDEN ST, TALLAHASSEE, FL, 32303",82850615,"R"
312097,"913 N MARKET ST SUITE 200","WILMINGTON","DE",19801,39.7448397090001,-75.5482986339999,97,"913 N MARKET ST SUITE 200, WILMINGTON, DE, 19801","Match","Non_Exact","913 N MARKET ST, WILMINGTON, DE, 19801",187257882,"L"
312098,"913 N MARKET STREET SUITE 200","WILMINGTON","DE",19801,39.7448397090001,-75.5482986339999,98,"913 N MARKET STREET SUITE 200, WILMINGTON, DE, 19801","Match","Non_Exact","913 N MARKET ST, WILMINGTON, DE, 19801",187257882,"L"
312099,"913 NE 17TH WAY","FORT LAUDERDALE","FL",33304,26.1359062650001,-80.1238837349999,99,"913 NE 17TH WAY, FORT LAUDERDALE, FL, 33304","Match","Exact","913 NE 17TH WAY, FORT LAUDERDALE, FL, 33304",114725893,"L"
312100,"913 NEIL AVENUE","COLUMBUS","OH",43215,39.9801413530001,-83.011682198,100,"913 NEIL AVENUE, COLUMBUS, OH, 43215","Match","Exact","913 NEIL AVE, COLUMBUS, OH, 43215",135575321,"L"
312101,"913 NORTH JONES BLVD SUITE 103","LAS VEGAS","NV",89108,36.1811619120001,-115.223839872,101,"913 NORTH JONES BLVD SUITE 103, LAS VEGAS, NV, 89108","Match","Exact","913 N JONES BLVD, LAS VEGAS, NV, 89108",637396674,"L"
312102,"913 PENTICON LANE","WARRENDALE","PA",15086,40.6567528670001,-80.078551105,102,"913 PENTICON LANE, WARRENDALE, PA, 15086","Match","Exact","913 PENTICON LN, WARRENDALE, PA, 15086",646564599,"L"
312103,"913 PIKE SPRINGS ROAD","PHOENIXVILLE","PA",19460,40.1233503760001,-75.5814828749999,103,"913 PIKE SPRINGS ROAD, PHOENIXVILLE, PA, 19460","Match","Exact","913 PIKE SPRINGS RD, PHOENIXVILLE, PA, 19460",179487823,"R"
312104,"913 PRICE AVE","DURHAM","NC",27701,35.978222035,-78.893737614,104,"913 PRICE AVE, DURHAM, NC, 27701","Match","Exact","913 PRICE AVE, DURHAM, NC, 27701",71742696,"L"
312105,"913 PRINCESS STREET","YORK","PA",17401,39.953323384,-76.746863299,105,"913 PRINCESS STREET, YORK, PA, 17401","Match","Non_Exact","913 W PRINCESS ST, YORK, PA, 17401",88768997,"R"
312106,"913 RABBIT RUN","WILMINGTON","NC",28409,34.1899070150001,-77.84254579,106,"913 RABBIT RUN, WILMINGTON, NC, 28409","Match","Exact","913 RABBIT RUN, WILMINGTON, NC, 28409",152750655,"L"
312107,"913 RAYWOOD CIRCLE","PLANO","TX",75075,33.0322175540001,-96.712590354,107,"913 RAYWOOD CIRCLE, PLANO, TX, 75075","Match","Exact","913 RAYWOOD CIR, PLANO, TX, 75075",123488978,"R"
312108,"913 RIDGE BROOK RD  SUITE 220","SPARKS","MD",21152,39.5260441510001,-76.64595007,108,"913 RIDGE BROOK RD  SUITE 220, SPARKS, MD, 21152","Match","Non_Exact","913 RIDGEBROOK RD, SPARKS, MD, 21152",648389259,"R"
312109,"913 ROAD X","SHICKLEY","NE",68436,40.3650301710001,-97.665374599,109,"913 ROAD X, SHICKLEY, NE, 68436","Match","Exact","913 RD X, SHICKLEY, NE, 68436",39389503,"R"
312110,"913 S 33RD ST","TEMPLE","TX",76504,31.092392257,-97.362085937,110,"913 S 33RD ST, TEMPLE, TX, 76504","Match","Exact","913 S 33RD ST, TEMPLE, TX, 76504",146227612,"L"
312111,"913 S ASTER AVE","BROKEN ARROW","OK",74012,36.0447682560001,-95.842520399,111,"913 S ASTER AVE, BROKEN ARROW, OK, 74012","Match","Exact","913 S ASTER AVE, BROKEN ARROW, OK, 74012",166505997,"L"
312112,"913 S CHURCH ST","SMITHFIELD","VA",23430,36.977739188,-76.612116612,112,"913 S CHURCH ST, SMITHFIELD, VA, 23430","Match","Exact","913 S CHURCH ST, SMITHFIELD, VA, 23430",616035451,"R"
312113,"913 S COLLEGE ROAD SUITE 2 1 1","LAFAYETTE","LA",70526,NA,NA,113,"913 S COLLEGE ROAD SUITE 2 1 1, LAFAYETTE, LA, 70526","No_Match",NA,NA,NA,NA
312114,"913 S FLETCHER DRIVE","WHEELING","IL",60090,NA,NA,114,"913 S FLETCHER DRIVE, WHEELING, IL, 60090","Tie",NA,NA,NA,NA
312115,"913 SAW MILL RIVER ROAD PO BOX 270","ARDSLEY","NY",10502,NA,NA,115,"913 SAW MILL RIVER ROAD PO BOX 270, ARDSLEY, NY, 10502","No_Match",NA,NA,NA,NA
312116,"913 SE BIRCH AVENUE","COLLEGE PLACE","WA",99324,46.040979539,-118.386063062,116,"913 SE BIRCH AVENUE, COLLEGE PLACE, WA, 99324","Match","Exact","913 SE BIRCH AVE, COLLEGE PLACE, WA, 99324",174671718,"R"
312117,"913 SHELLY LN","EDMOND","OK",73034,35.7319471550001,-97.467341398,117,"913 SHELLY LN, EDMOND, OK, 73034","Match","Exact","913 SHELLY LN, EDMOND, OK, 73034",121965214,"R"
312118,"913 SOMERSET LANE","JONESBORO","AR",72401,35.813532563,-90.692214187,118,"913 SOMERSET LANE, JONESBORO, AR, 72401","Match","Exact","913 SOMERSET LN, JONESBORO, AR, 72401",46924609,"L"
312119,"913 SOUTH KIRKMAN RD 259","ORLANDO","FL",32811,NA,NA,119,"913 SOUTH KIRKMAN RD 259, ORLANDO, FL, 32811","No_Match",NA,NA,NA,NA
312120,"913 STEWART AVENUE","SPRINGFIELD","PA",19064,39.910877772,-75.3363222089999,120,"913 STEWART AVENUE, SPRINGFIELD, PA, 19064","Match","Exact","913 STEWART AVE, SPRINGFIELD, PA, 19064",134879660,"L"
312121,"913 SW 40TH STREET","BLUE SPRINGS","MO",64015,39.0108638190001,-94.311947414,121,"913 SW 40TH STREET, BLUE SPRINGS, MO, 64015","Match","Exact","913 SW 40 ST, BLUE SPRINGS, MO, 64015",91533412,"L"
312122,"913 TINSLEY STREET SUITE D304","EAST PALO ALTO","CA",94303,37.4586296570001,-122.134254742,122,"913 TINSLEY STREET SUITE D304, EAST PALO ALTO, CA, 94303","Match","Exact","913 TINSLEY ST, E PALO ALTO, CA, 94303",192366783,"R"
312123,"913 TRINITY CT","BIRMINGHAM","AL",35242,33.461290691,-86.619494704,123,"913 TRINITY CT, BIRMINGHAM, AL, 35242","Match","Exact","913 TRINITY CT, BIRMINGHAM, AL, 35242",633475628,"L"
312124,"913 TROY ST","LAFAYETTE","CO",80026,40.009201175,-105.094034622,124,"913 TROY ST, LAFAYETTE, CO, 80026","Match","Exact","913 TROY ST, LAFAYETTE, CO, 80026",220750270,"L"
312125,"913 VALLEY RIDGE DRIVE","DESOTO","TX",75115,32.604828008,-96.863621844,125,"913 VALLEY RIDGE DRIVE, DESOTO, TX, 75115","Match","Exact","913 VALLEY RIDGE DR, DESOTO, TX, 75115",102953559,"L"
312126,"913 VALLEYVIEW ROAD","PITTSBURGH","PA",15243,40.387169251,-80.06864082,126,"913 VALLEYVIEW ROAD, PITTSBURGH, PA, 15243","Match","Exact","913 VALLEYVIEW RD, PITTSBURGH, PA, 15243",51631351,"L"
312127,"913 VANCE STREET","RALEIGH","NC",27608,35.803519254,-78.6476084179999,127,"913 VANCE STREET, RALEIGH, NC, 27608","Match","Exact","913 VANCE ST, RALEIGH, NC, 27608",72502660,"L"
312128,"913 VIA DE LA PAZ DR","EL PASO","TX",79912,31.861035551,-106.51887684,128,"913 VIA DE LA PAZ DR, EL PASO, TX, 79912","Match","Exact","913 VIA DE LA PAZ DR, EL PASO, TX, 79912",189433392,"L"
312129,"913 VICAR ROAD","DANVILLE","VA",24540,36.6379765780001,-79.403519479,129,"913 VICAR ROAD, DANVILLE, VA, 24540","Match","Exact","913 VICAR RD, DANVILLE, VA, 24540",56663231,"L"
312130,"913 W COLLEGE AVE","WOODVILLE","OH",43469,41.4537615730001,-83.373987847,130,"913 W COLLEGE AVE, WOODVILLE, OH, 43469","Match","Exact","913 COLLEGE AVE, WOODVILLE, OH, 43469",38678432,"L"
312131,"913 W FIRST STREET","LOWELL","NC",28098,35.2722873220001,-81.11055691,131,"913 W FIRST STREET, LOWELL, NC, 28098","Match","Exact","913 W 1ST ST, LOWELL, NC, 28098",70381943,"R"
312132,"913 W FRANCIS STREET","CORONA","CA",92882,33.8673323720001,-117.579471986,132,"913 W FRANCIS STREET, CORONA, CA, 92882","Match","Exact","913 W FRANCIS ST, CORONA, CA, 92882",194777511,"R"
312133,"913 W LIBERTY DRIVE","WHEATON","IL",60187,41.8640764620001,-88.1195690929999,133,"913 W LIBERTY DRIVE, WHEATON, IL, 60187","Match","Exact","913 W LIBERTY DR, WHEATON, IL, 60187",112527725,"R"
312134,"913 WASHINGTON AVE","BAY CITY","MI",48708,43.599270613,-83.887592245,134,"913 WASHINGTON AVE, BAY CITY, MI, 48708","Match","Exact","913 WASHINGTON AVE, BAY CITY, MI, 48708",81140867,"L"
312135,"913 WEST CLEVELAND","SPOKANE","WA",99205,47.6839829900001,-117.425391462,135,"913 WEST CLEVELAND, SPOKANE, WA, 99205","Match","Non_Exact","913 W CLEVELAND AVE, SPOKANE, WA, 99205",189874715,"L"
312136,"913 WILSON ROAD","WILMINGTON","DE",19803,39.793011886,-75.5172047739999,136,"913 WILSON ROAD, WILMINGTON, DE, 19803","Match","Exact","913 WILSON RD, WILMINGTON, DE, 19803",187272324,"L"
312137,"9130 BAYFIELD LANE","BRIGHTON","MI",48116,NA,NA,137,"9130 BAYFIELD LANE, BRIGHTON, MI, 48116","No_Match",NA,NA,NA,NA
312138,"9130 BROKENSOUND LN","CINCINNATI","OH",45242,39.2390825520001,-84.313717733,138,"9130 BROKENSOUND LN, CINCINNATI, OH, 45242","Match","Exact","9130 BROKENSOUND LN, CINCINNATI, OH, 45242",103958405,"R"
312139,"9130 CAVALIER LANE","ROSENBERG","TX",77469,29.526241316,-95.72374197,139,"9130 CAVALIER LANE, ROSENBERG, TX, 77469","Match","Exact","9130 CAVALIER LN, ROSENBERG, TX, 77469",627736895,"R"
312140,"9130 GALLERIA COURT STE 204","NAPLES","FL",34109,26.2475837320001,-81.7709342909999,140,"9130 GALLERIA COURT STE 204, NAPLES, FL, 34109","Match","Exact","9130 GALLERIA CT, NAPLES, FL, 34109",115196828,"R"
312141,"9130 GALLERIA COURT SUITE 100","NAPLES","FL",34109,26.2475837320001,-81.7709342909999,141,"9130 GALLERIA COURT SUITE 100, NAPLES, FL, 34109","Match","Exact","9130 GALLERIA CT, NAPLES, FL, 34109",115196828,"R"
312142,"9130 MARKVILLE DR STE 740756","DALLAS","TX",75243,32.913701266,-96.74394439,142,"9130 MARKVILLE DR STE 740756, DALLAS, TX, 75243","Match","Exact","9130 MARKVILLE DR, DALLAS, TX, 75243",103208599,"R"
312143,"9130 MINE RUN DRIVE","GREAT FALLS","VA",22066,38.9978824040001,-77.2613701509999,143,"9130 MINE RUN DRIVE, GREAT FALLS, VA, 22066","Match","Exact","9130 MINE RUN DR, GREAT FALLS, VA, 22066",76020520,"R"
312144,"9130 SOUTH 47TH STREET","FRANKLIN","WI",53132,42.8794110090001,-87.976424921,144,"9130 SOUTH 47TH STREET, FRANKLIN, WI, 53132","Match","Exact","9130 S 47TH ST, FRANKLIN, WI, 53132",77766157,"R"
312145,"9130 SPOTTSWOOD ROAD","JACKSONVILLE","FL",32208,30.4053700900001,-81.715578073,145,"9130 SPOTTSWOOD ROAD, JACKSONVILLE, FL, 32208","Match","Exact","9130 SPOTTSWOOD RD, JACKSONVILLE, FL, 32208",83887779,"L"
312146,"9130 W 88TH CIRCLE","WESTMINSTER","CO",80021,39.857376409,-105.099756888,146,"9130 W 88TH CIRCLE, WESTMINSTER, CO, 80021","Match","Exact","9130 W 88TH CIR, WESTMINSTER, CO, 80021",624974904,"R"
312147,"9131 BRADY DR","DALLAS","TX",75243,32.9036186720001,-96.743728215,147,"9131 BRADY DR, DALLAS, TX, 75243","Match","Exact","9131 BRADY DR, DALLAS, TX, 75243",102914395,"L"
312148,"9131 CATHERINE FOSTER CT","JACKSONVILLE","FL",32225,30.358612829,-81.55164949,148,"9131 CATHERINE FOSTER CT, JACKSONVILLE, FL, 32225","Match","Exact","9131 CATHERINE FOSTER CT, JACKSONVILLE, FL, 32225",83951505,"R"
312149,"9131 COLLEGE PKWY STE 130","FORT MYERS","FL",33919,26.5564970570001,-81.9046524619999,149,"9131 COLLEGE PKWY STE 130, FORT MYERS, FL, 33919","Match","Exact","9131 COLLEGE PKWY, FORT MYERS, FL, 33919",118169683,"R"
312150,"9131 HYLAND CREEK DR","BLOOMINGTON","MN",55437,44.8368975490001,-93.360003998,150,"9131 HYLAND CREEK DR, BLOOMINGTON, MN, 55437","Match","Non_Exact","9131 HYLAND CREEK RD, BLOOMINGTON, MN, 55437",43854234,"L"
312151,"9131 JEAN VERTE","SAN ANTONIO","TX",78250,29.5249211920001,-98.680006602,151,"9131 JEAN VERTE, SAN ANTONIO, TX, 78250","Match","Exact","9131 JEAN VERTE, SAN ANTONIO, TX, 78250",101575776,"L"
312152,"9131 N 57 AVENUE","GLENDALE","AZ",85302,33.5690336490001,-112.181925886,152,"9131 N 57 AVENUE, GLENDALE, AZ, 85302","Match","Exact","9131 N 57TH AVE, GLENDALE, AZ, 85302",128192613,"R"
312153,"9131 S DALTON AVE","LOS ANGELES","CA",90047,33.9533971010001,-118.303569381,153,"9131 S DALTON AVE, LOS ANGELES, CA, 90047","Match","Exact","9131 DALTON AVE, LOS ANGELES, CA, 90047",141659080,"R"
312154,"9131 S LASALLE STREET","CHICAGO","IL",60620,41.7280288160001,-87.627604199,154,"9131 S LASALLE STREET, CHICAGO, IL, 60620","Match","Non_Exact","9131 S LA SALLE ST, CHICAGO, IL, 60620",111832416,"L"
312155,"9131 TABORFIELD AVENUE","ORLANDO","FL",32836,NA,NA,155,"9131 TABORFIELD AVENUE, ORLANDO, FL, 32836","No_Match",NA,NA,NA,NA
312156,"9131 W CORY LN 1","BOISE","ID",83704,43.6274664260001,-116.295832003,156,"9131 W CORY LN 1, BOISE, ID, 83704","Match","Exact","9131 CORY LN, BOISE, ID, 83704",623785683,"L"
312157,"9132 5TH ST","LANHAM","MD",20706,38.9709124330001,-76.857540996,157,"9132 5TH ST, LANHAM, MD, 20706","Match","Exact","9132 5TH ST, LANHAM, MD, 20706",76308627,"L"
312158,"9132 DEVONSHIRE BLVD","JACKSONVILLE","FL",32208,30.4035046830001,-81.72795035,158,"9132 DEVONSHIRE BLVD, JACKSONVILLE, FL, 32208","Match","Exact","9132 DEVONSHIRE BLVD, JACKSONVILLE, FL, 32208",83887567,"L"
312159,"9133 BLOM BLVD","SHREVEPORT","LA",71118,32.4036857790001,-93.789540298,159,"9133 BLOM BLVD, SHREVEPORT, LA, 71118","Match","Exact","9133 BLOM BLVD, SHREVEPORT, LA, 71118",57464373,"L"
312160,"9133 GRANITE COURT","WALDORF","MD",20603,38.6495009400001,-76.983025583,160,"9133 GRANITE COURT, WALDORF, MD, 20603","Match","Exact","9133 GRANITE CT, WALDORF, MD, 20603",25411234,"L"
312161,"9133 PERRY RD","ATLAS","MI",48411,42.939797694,-83.5309653099999,161,"9133 PERRY RD, ATLAS, MI, 48411","Match","Exact","9133 PERRY RD, ATLAS, MI, 48411",69581373,"R"
312162,"9134 BENSON AVENUE","SAN DIEGO","CA",92114,NA,NA,162,"9134 BENSON AVENUE, SAN DIEGO, CA, 92114","No_Match",NA,NA,NA,NA
312163,"9134 E NEWTON PL","TULSA","OK",74115,36.1746953040001,-95.874239409,163,"9134 E NEWTON PL, TULSA, OK, 74115","Match","Exact","9134 E NEWTON PL, TULSA, OK, 74115",166448399,"R"
312164,"9134 LAKES AT 610 DR","HOUSTON","TX",77054,29.6696418770001,-95.419964522,164,"9134 LAKES AT 610 DR, HOUSTON, TX, 77054","Match","Exact","9134 LAKES AT 610 DR, HOUSTON, TX, 77054",624743640,"R"
312165,"9134 N WOOLSEY AVE","PORTLAND","OR",97203,45.589027301,-122.713458776,165,"9134 N WOOLSEY AVE, PORTLAND, OR, 97203","Match","Exact","9134 N WOOLSEY AVE, PORTLAND, OR, 97203",627138844,"R"
312166,"9134 PISCATAWAY RD NUM 161","CLINTON","MD",20735,38.7640282830001,-76.9054486649999,166,"9134 PISCATAWAY RD NUM 161, CLINTON, MD, 20735","Match","Exact","9134 PISCATAWAY RD, CLINTON, MD, 20735",76320622,"R"
312167,"9134 PISCATAWAY RD UNIT 1819","CLINTON","MD",20735,38.7640282830001,-76.9054486649999,167,"9134 PISCATAWAY RD UNIT 1819, CLINTON, MD, 20735","Match","Exact","9134 PISCATAWAY RD, CLINTON, MD, 20735",76320622,"R"
312168,"9134 S COTTAGE GROVE AVE","CHICAGO","IL",60619,41.728351941,-87.604628971,168,"9134 S COTTAGE GROVE AVE, CHICAGO, IL, 60619","Match","Exact","9134 S COTTAGE GROVE AVE, CHICAGO, IL, 60619",111773171,"R"
312169,"9134 SEPULVEDA BLVD 2014","NORTH HILLS","CA",91343,34.236341646,-118.467475014,169,"9134 SEPULVEDA BLVD 2014, NORTH HILLS, CA, 91343","Match","Exact","9134 SEPULVEDA BLVD, NORTH HILLS, CA, 91343",141548956,"R"
312170,"9134 SW 21 TERRACE","MIAMI","FL",33165,25.7496914920001,-80.3430462709999,170,"9134 SW 21 TERRACE, MIAMI, FL, 33165","Match","Exact","9134 SW 21ST TER, MIAMI, FL, 33165",115973121,"L"
312171,"9134 W 26TH PLACE","BROOKFIELD","IL",60513,41.841286681,-87.850548272,171,"9134 W 26TH PLACE, BROOKFIELD, IL, 60513","Match","Exact","9134 26TH PL, BROOKFIELD, IL, 60513",111791557,"R"
312172,"9134 WOODLAND DRIVE","HIGHLANDS RANCH","CO",80126,39.550036995,-104.988491198,172,"9134 WOODLAND DRIVE, HIGHLANDS RANCH, CO, 80126","Match","Exact","9134 WOODLAND DR, HIGHLANDS RANCH, CO, 80126",130817521,"R"
312173,"9135 63RD DR","REGO PARK","NY",11374,NA,NA,173,"9135 63RD DR, REGO PARK, NY, 11374","No_Match",NA,NA,NA,NA
312174,"9135 ADMIRALS POINTE CT","INDIANAPOLIS","IN",46236,39.92032793,-85.9510139349999,174,"9135 ADMIRALS POINTE CT, INDIANAPOLIS, IN, 46236","Match","Exact","9135 ADMIRALS POINTE CT, INDIANAPOLIS, IN, 46236",108033565,"R"
312175,"9135 CULLEN WAY","INGLEWOOD","CA",90305,NA,NA,175,"9135 CULLEN WAY, INGLEWOOD, CA, 90305","No_Match",NA,NA,NA,NA
312176,"9135 E 49TH PL","TULSA","OK",74145,36.092060216,-95.8740668189999,176,"9135 E 49TH PL, TULSA, OK, 74145","Match","Exact","9135 E 49TH PL, TULSA, OK, 74145",166454810,"L"
312177,"9135 ERIE ST","HIGHLAND","IN",46322,41.546162683,-87.460394423,177,"9135 ERIE ST, HIGHLAND, IN, 46322","Match","Exact","9135 ERIE ST, HIGHLAND, IN, 46322",98422223,"L"
312178,"9135 FRIARBRIDGE DR","SUWANEE","GA",30024,34.0561394050001,-84.1183862829999,178,"9135 FRIARBRIDGE DR, SUWANEE, GA, 30024","Match","Exact","9135 FRIARBRIDGE DR, SUWANEE, GA, 30024",627324968,"R"
312179,"9135 NORTH FLORA","KANSAS CITY","MO",64155,39.2606297560001,-94.5599486689999,179,"9135 NORTH FLORA, KANSAS CITY, MO, 64155","Match","Non_Exact","9135 N FLORA AVE, KANSAS CITY, MO, 64155",89791244,"R"
312180,"9135 NW 13TH AVENUE","MIAMI","FL",33147,25.8581063410001,-80.219389395,180,"9135 NW 13TH AVENUE, MIAMI, FL, 33147","Match","Exact","9135 NW 13TH AVE, MIAMI, FL, 33147",116002812,"R"
312181,"9135 PISCATAWAY ROAD STE 410","CLINTON","MD",20735,38.764272685,-76.904204088,181,"9135 PISCATAWAY ROAD STE 410, CLINTON, MD, 20735","Match","Exact","9135 PISCATAWAY RD, CLINTON, MD, 20735",76332058,"L"
312182,"9135 SCHOOL ROAD","PORT WING","WI",54865,46.7813632290001,-91.380553544,182,"9135 SCHOOL ROAD, PORT WING, WI, 54865","Match","Exact","9135 SCHOOL RD, PORT WING, WI, 54865",194288894,"L"
312183,"9135 SOUTH MAY STREET","CHICAGO","IL",60620,41.7279842720001,-87.6518902729999,183,"9135 SOUTH MAY STREET, CHICAGO, IL, 60620","Match","Exact","9135 S MAY ST, CHICAGO, IL, 60620",111831643,"L"
312184,"9136 PASCAGOULA DR","BATON ROUGE","LA",70810,30.346747378,-91.129187702,184,"9136 PASCAGOULA DR, BATON ROUGE, LA, 70810","Match","Exact","9136 PASCAGOULA DR, BATON ROUGE, LA, 70810",92199904,"R"
312185,"9136 PLEASANT VALLEY DRIVE","ALEXANDER","AR",72002,34.608071491,-92.4357073799999,185,"9136 PLEASANT VALLEY DRIVE, ALEXANDER, AR, 72002","Match","Exact","9136 PLEASANT VALLEY DR, ALEXANDER, AR, 72002",649895387,"L"
312186,"9136 PRESHO SCHOOL ROAD","PAINTED POST","NY",14870,42.0816752850001,-77.1584305069999,186,"9136 PRESHO SCHOOL ROAD, PAINTED POST, NY, 14870","Match","Exact","9136 PRESHO SCHOOL RD, PAINTED POST, NY, 14870",14761159,"R"
312187,"9136 S SACRAMENTO AVE","EVERGREEN PARK","IL",60805,41.7272377640001,-87.697082675,187,"9136 S SACRAMENTO AVE, EVERGREEN PARK, IL, 60805","Match","Exact","9136 SACRAMENTO AVE, EVERGREEN PARK, IL, 60805",605315059,"R"
312188,"9136 TYNE LANE","INVER GROVE HEIGHTS","MN",55077,44.8173465670001,-93.104432875,188,"9136 TYNE LANE, INVER GROVE HEIGHTS, MN, 55077","Match","Exact","9136 TYNE LN, INVER GROVE HEIGHTS, MN, 55077",37930751,"R"
312189,"9136 W KIRBY AVE","TOLLESON","AZ",85353,33.41599152,-112.25671526,189,"9136 W KIRBY AVE, TOLLESON, AZ, 85353","Match","Exact","9136 W KIRBY AVE, TOLLESON, AZ, 85353",243953593,"L"
312190,"9137 GARNISH DRIVE","DOWNEY","CA",90240,33.952529197,-118.105749792,190,"9137 GARNISH DRIVE, DOWNEY, CA, 90240","Match","Exact","9137 GARNISH DR, DOWNEY, CA, 90240",141738353,"R"
312191,"9137 GRANDVIEW DR","OVERLAND PARK","KS",66212,38.963093207,-94.6897414749999,191,"9137 GRANDVIEW DR, OVERLAND PARK, KS, 66212","Match","Exact","9137 GRANDVIEW DR, OVERLAND PARK, KS, 66212",91276925,"L"
312192,"9137 NW ESSON CT","PORTLAND","OR",97229,45.541408495,-122.771648795,192,"9137 NW ESSON CT, PORTLAND, OR, 97229","Match","Exact","9137 NW ESSON CT, PORTLAND, OR, 97229",157591629,"L"
312193,"9137 ROUNDLEAF WAY","GAITHERSBURG","MD",20879,39.1834541470001,-77.1871730189999,193,"9137 ROUNDLEAF WAY, GAITHERSBURG, MD, 20879","Match","Exact","9137 ROUNDLEAF WAY, GAITHERSBURG, MD, 20879",62050263,"R"
312194,"9137 S URBAN AVENUE","CHICAGO","IL",60619,41.7284009300001,-87.623280596,194,"9137 S URBAN AVENUE, CHICAGO, IL, 60619","Match","Exact","9137 S URBAN AVE, CHICAGO, IL, 60619",111772846,"L"
312195,"9138 ARLON STREET SUITE A3","ANCHORAGE","AK",99507,61.138264215,-149.835992757,195,"9138 ARLON STREET SUITE A3, ANCHORAGE, AK, 99507","Match","Exact","9138 ARLON ST, ANCHORAGE, AK, 99507",190800424,"R"
312196,"9138 DEVAUN PARK BLVD","Calabash","NC",28469,NA,NA,196,"9138 DEVAUN PARK BLVD, Calabash, NC, 28469","No_Match",NA,NA,NA,NA
312197,"9138 EDMONSTON COURT APT 301","GREENBELT","MD",20770,39.000596263,-76.8995871719999,197,"9138 EDMONSTON COURT APT 301, GREENBELT, MD, 20770","Match","Exact","9138 EDMONSTON CT, GREENBELT, MD, 20770",76338015,"L"
312198,"9139 HANOVER STREET","OMAHA","NE",68122,41.3278923570001,-96.055504143,198,"9139 HANOVER STREET, OMAHA, NE, 68122","Match","Exact","9139 HANOVER ST, OMAHA, NE, 68122",646765898,"R"
312199,"9139 MARASOL LANE","CONCORD","NC",28027,35.447400594,-80.732761259,199,"9139 MARASOL LANE, CONCORD, NC, 28027","Match","Exact","9139 MARASOL LN, CONCORD, NC, 28027",624739644,"L"
312200,"914 164TH ST SE NUMB 395","MILL CREEK","WA",98012,47.849403502,-122.22123441,200,"914 164TH ST SE NUMB 395, MILL CREEK, WA, 98012","Match","Exact","914 164TH ST SE, MILL CREEK, WA, 98012",649529385,"R"
312201,"914 164TH ST SE STE B12 203","MILL CREEK","WA",98012,47.849403502,-122.22123441,201,"914 164TH ST SE STE B12 203, MILL CREEK, WA, 98012","Match","Exact","914 164TH ST SE, MILL CREEK, WA, 98012",649529385,"R"
312202,"914 23RD AVE E","SEATTLE","WA",98112,47.6269374030001,-122.302372954,202,"914 23RD AVE E, SEATTLE, WA, 98112","Match","Exact","914 23RD AVE E, SEATTLE, WA, 98112",186587864,"R"
312203,"914 36TH ST NW","AUSTIN","MN",55912,43.6718711010001,-93.0272691979999,203,"914 36TH ST NW, AUSTIN, MN, 55912","Match","Exact","914 36TH ST NW, AUSTIN, MN, 55912",610515703,"L"
312204,"914 3RD AVENUE SUITE 185","BROOKLYN","NY",11232,40.6555163140001,-74.006726101,204,"914 3RD AVENUE SUITE 185, BROOKLYN, NY, 11232","Match","Exact","914 3RD AVE, BROOKLYN, NY, 11232",59101001,"R"
312205,"914 7TH AVE N","JACKSONVILLE BEACH","FL",32250,30.294538908,-81.4000865039999,205,"914 7TH AVE N, JACKSONVILLE BEACH, FL, 32250","Match","Exact","914 7TH AVE N, JACKSONVILLE BEACH, FL, 32250",83923243,"L"
312206,"914 7TH AVENUE SE","ROCHESTER","MN",55904,44.0121807530001,-92.453689644,206,"914 7TH AVENUE SE, ROCHESTER, MN, 55904","Match","Exact","914 7TH AVE SE, ROCHESTER, MN, 55904",30553851,"L"
312207,"914 ACORN LN","MUSCATINE","IA",52761,41.4427018100001,-91.054684347,207,"914 ACORN LN, MUSCATINE, IA, 52761","Match","Exact","914 ACORN LN, MUSCATINE, IA, 52761",98995292,"L"
312208,"914 ALLEN DRIVE","YEADON","PA",19050,39.923741492,-75.252306255,208,"914 ALLEN DRIVE, YEADON, PA, 19050","Match","Exact","914 ALLEN DR, YEADON, PA, 19050",134900223,"L"
312209,"914 ALLIEGOOD CT","TALLAHASSEE","FL",32303,30.4675830320001,-84.2994249079999,209,"914 ALLIEGOOD CT, TALLAHASSEE, FL, 32303","Match","Exact","914 ALLIEGOOD CT, TALLAHASSEE, FL, 32303",82887356,"R"
312210,"914 ANN DRIVE","WYLIE","TX",75098,33.0235114280001,-96.549093372,210,"914 ANN DRIVE, WYLIE, TX, 75098","Match","Exact","914 ANN DR, WYLIE, TX, 75098",651398112,"L"
312211,"914 AVENUE E","BIRMINGHAM","AL",35214,33.523000261,-86.889222702,211,"914 AVENUE E, BIRMINGHAM, AL, 35214","Match","Exact","914 AVENUE E, BIRMINGHAM, AL, 35214",81551857,"R"
312212,"914 AVENUE E","COUNCIL BLUFFS","IA",51503,41.2661232030001,-95.857716032,212,"914 AVENUE E, COUNCIL BLUFFS, IA, 51503","Match","Exact","914 AVENUE E, COUNCIL BLUFFS, IA, 51503",43901069,"R"
312213,"914 BAILEY COURT","MATTHEWS","NC",28104,35.123129804,-80.643024283,213,"914 BAILEY COURT, MATTHEWS, NC, 28104","Match","Exact","914 BAILEY CT, MATTHEWS, NC, 28104",14199085,"R"
312214,"914 BASS BLVD","PROCTOR","MN",55810,NA,NA,214,"914 BASS BLVD, PROCTOR, MN, 55810","No_Match",NA,NA,NA,NA
312215,"914 BENSTON RD","WHITEHALL","MI",49461,43.392422287,-86.331900659,215,"914 BENSTON RD, WHITEHALL, MI, 49461","Match","Exact","914 BENSTON RD, WHITEHALL, MI, 49461",77668353,"R"
312216,"914 BOSTON AVE","NEDERLAND","TX",77627,29.979002671,-93.988189673,216,"914 BOSTON AVE, NEDERLAND, TX, 77627","Match","Exact","914 BOSTON AVE, NEDERLAND, TX, 77627",73860072,"R"
312217,"914 BRANDON WAY","FAIRFIELD","CA",94533,38.2615904830001,-122.019669782,217,"914 BRANDON WAY, FAIRFIELD, CA, 94533","Match","Exact","914 BRANDON WAY, FAIRFIELD, CA, 94533",192578590,"L"
312218,"914 CENTRAL AVE","EVANSDALE","IA",50707,42.469161614,-92.282668708,218,"914 CENTRAL AVE, EVANSDALE, IA, 50707","Match","Exact","914 CENTRAL AVE, EVANSDALE, IA, 50707",77255929,"R"
312219,"914 CHURCH ST","HONESDALE","PA",18431,41.5739835320001,-75.2553154779999,219,"914 CHURCH ST, HONESDALE, PA, 18431","Match","Exact","914 CHURCH ST, HONESDALE, PA, 18431",140132838,"L"
312220,"914 CLEVELAND ST","BROOKLYN","NY",11208,40.662390515,-73.879471902,220,"914 CLEVELAND ST, BROOKLYN, NY, 11208","Match","Exact","914 CLEVELAND ST, BROOKLYN, NY, 11208",652212144,"R"
312221,"914 CLEVELAND STREET","BROOKLYN","NY",11208,40.662390515,-73.879471902,221,"914 CLEVELAND STREET, BROOKLYN, NY, 11208","Match","Exact","914 CLEVELAND ST, BROOKLYN, NY, 11208",652212144,"R"
312222,"914 COLLIER RD NW APT 1102","ATLANTA","GA",30318,NA,NA,222,"914 COLLIER RD NW APT 1102, ATLANTA, GA, 30318","No_Match",NA,NA,NA,NA
312223,"914 COPPER LAKE ROAD","CEDAR PARK","TX",78613,30.510713948,-97.7789546549999,223,"914 COPPER LAKE ROAD, CEDAR PARK, TX, 78613","Match","Exact","914 COPPER LAKE RD, CEDAR PARK, TX, 78613",648866617,"R"
312224,"914 COUNTY ROAD 501","BERRYVILLE","AR",72616,36.339321924,-93.577533289,224,"914 COUNTY ROAD 501, BERRYVILLE, AR, 72616","Match","Exact","914 CO RD 501, BERRYVILLE, AR, 72616",20087569,"L"
312225,"914 DEJARNETTE ST","ELIZABETHTON","TN",37643,36.3388902560001,-82.201204947,225,"914 DEJARNETTE ST, ELIZABETHTON, TN, 37643","Match","Exact","914 DEJARNETTE ST, ELIZABETHTON, TN, 37643",43042692,"R"
312226,"914 DELESANDRI LANE","KEMAH","TX",77565,29.526679528,-95.0260724,226,"914 DELESANDRI LANE, KEMAH, TX, 77565","Match","Exact","914 DELESANDRI LN, KEMAH, TX, 77565",616370851,"L"
312227,"914 E 53RD ST  UNIT 2","CHICAGO","IL",60615,41.7993900640001,-87.6033258259999,227,"914 E 53RD ST  UNIT 2, CHICAGO, IL, 60615","Match","Non_Exact","914 E 53RD ST, CHICAGO, IL, 60615",605538060,"L"
312228,"914 E BADILLO ST NUM 214","COVINA","CA",91724,34.086099851,-117.872010438,228,"914 E BADILLO ST NUM 214, COVINA, CA, 91724","Match","Non_Exact","914 E BADILLO ST, COVINA, CA, 91724",142787479,"R"
312229,"914 E RAILROAD AVE   PO BOX 517","FORT MORGAN","CO",80701,40.2484898160001,-103.790673035,229,"914 E RAILROAD AVE   PO BOX 517, FORT MORGAN, CO, 80701","Match","Non_Exact","914 E RAILROAD AVE, FORT MORGAN, CO, 80701",636172978,"R"
312230,"914 EDGEBROOK DRIVE","BOYLSTON","MA",1505,42.341719423,-71.7369198659999,230,"914 EDGEBROOK DRIVE, BOYLSTON, MA, 1505","Match","Exact","914 EDGEBROOK DR, BOYLSTON, MA, 01505",40086586,"R"
312231,"914 F STREET","FRESNO","CA",93706,36.7296856150001,-119.794038425,231,"914 F STREET, FRESNO, CA, 93706","Match","Exact","914 F ST, FRESNO, CA, 93706",197579652,"R"
312232,"914 FOREST DRIVE-202","ANNAPOLIS","MD",21403,NA,NA,232,"914 FOREST DRIVE-202, ANNAPOLIS, MD, 21403","No_Match",NA,NA,NA,NA
312233,"914 GARDEN STREET","KISSIMMEE","FL",34744,28.335618019,-81.395590377,233,"914 GARDEN STREET, KISSIMMEE, FL, 34744","Match","Exact","914 GARDEN ST, KISSIMMEE, FL, 34744",176691243,"R"
312234,"914 GARDNER ROAD","FLOSSMOOR","IL",60422,41.5455805930001,-87.673845479,234,"914 GARDNER ROAD, FLOSSMOOR, IL, 60422","Match","Exact","914 GARDNER RD, FLOSSMOOR, IL, 60422",111709830,"R"
312235,"914 GERVAS DRIVE","MANCHESTER","MO",63021,38.5715197320001,-90.494269889,235,"914 GERVAS DRIVE, MANCHESTER, MO, 63021","Match","Exact","914 GERVAS DR, MANCHESTER, MO, 63021",100193236,"L"
312236,"914 HAVEN COURT","TULARE","CA",93274,36.218692205,-119.379748158,236,"914 HAVEN COURT, TULARE, CA, 93274","Match","Non_Exact","914 N HAVEN CT, TULARE, CA, 93274",624527273,"L"
312237,"914 HEMSATH ROAD SUITE 100A","SAINT CHARLES","MO",63303,38.753934429,-90.535799185,237,"914 HEMSATH ROAD SUITE 100A, SAINT CHARLES, MO, 63303","Match","Exact","914 HEMSATH RD, SAINT CHARLES, MO, 63303",605584394,"R"
312238,"914 HIGHLAND AVE","MCKEESPORT","PA",15133,40.342355582,-79.878244875,238,"914 HIGHLAND AVE, MCKEESPORT, PA, 15133","Match","Exact","914 HIGHLAND AVE, MCKEESPORT, PA, 15133",617240172,"R"
312239,"914 HIGHLAND CIRCLE","BLACKSBURG","VA",24060,37.2243692500001,-80.38794333,239,"914 HIGHLAND CIRCLE, BLACKSBURG, VA, 24060","Match","Exact","914 HIGHLAND CIR, BLACKSBURG, VA, 24060",73628431,"L"
312240,"914 HIKINA LANE","HONOLULU","HI",96817,21.3226492680001,-157.869152842,240,"914 HIKINA LANE, HONOLULU, HI, 96817","Match","Exact","914 HIKINA LN, HONOLULU, HI, 96817",203235375,"L"
312241,"914 HOKULANI STREET","HONOLULU","HI",96825,21.3077965150001,-157.710403855,241,"914 HOKULANI STREET, HONOLULU, HI, 96825","Match","Exact","914 HOKULANI ST, HONOLULU, HI, 96825",203241040,"L"
312242,"914 JENNINGS MILL DRIVE","BOWIE","MD",20721,38.893175162,-76.752205611,242,"914 JENNINGS MILL DRIVE, BOWIE, MD, 20721","Match","Exact","914 JENNINGS MILL DR, BOWIE, MD, 20721",648000818,"L"
312243,"914 KENSINGTON PLACE","MEMPHIS","TN",38107,35.161901114,-89.994870809,243,"914 KENSINGTON PLACE, MEMPHIS, TN, 38107","Match","Exact","914 KENSINGTON PL, MEMPHIS, TN, 38107",607416415,"R"
312244,"914 KNOLL FOREST DRIVE","SUGARLAND","TX",77479,29.547738565,-95.6915738759999,244,"914 KNOLL FOREST DRIVE, SUGARLAND, TX, 77479","Match","Non_Exact","914 KNOLL FOREST DR, SUGAR LAND, TX, 77479",78347450,"L"
312245,"914 KNOLLWOOD DR","DAVENPORT","FL",33837,NA,NA,245,"914 KNOLLWOOD DR, DAVENPORT, FL, 33837","No_Match",NA,NA,NA,NA
312246,"914 LAFAYETTE BOULEVARD","BOWLING GREEN","OH",43402,41.386637482,-83.678790421,246,"914 LAFAYETTE BOULEVARD, BOWLING GREEN, OH, 43402","Match","Exact","914 LAFAYETTE BLVD, BOWLING GREEN, OH, 43402",38740381,"R"
312247,"914 LINCOLNWAY WEST SUITE 113","SOUTH BEND","IN",46616,NA,NA,247,"914 LINCOLNWAY WEST SUITE 113, SOUTH BEND, IN, 46616","No_Match",NA,NA,NA,NA
312248,"914 MAIN STREET","FRYEBURG","ME",4037,44.024801537,-70.9727340859999,248,"914 MAIN STREET, FRYEBURG, ME, 4037","Match","Exact","914 MAIN ST, FRYEBURG, ME, 04037",92671514,"L"
312249,"914 MOSSBRIDGE CT","PLEASANT HILL","CA",94523,37.956515128,-122.05528172,249,"914 MOSSBRIDGE CT, PLEASANT HILL, CA, 94523","Match","Exact","914 MOSSBRIDGE CT, PLEASANT HILL, CA, 94523",192092384,"L"
312250,"914 MUIRFIELD DRIVE","MARYVILLE","TN",37801,35.729670781,-84.018047128,250,"914 MUIRFIELD DRIVE, MARYVILLE, TN, 37801","Match","Exact","914 MUIRFIELD DR, MARYVILLE, TN, 37801",89847215,"L"
312251,"914 N BARTON ST","ARLINGTON","VA",22201,38.8832881370001,-77.087591473,251,"914 N BARTON ST, ARLINGTON, VA, 22201","Match","Exact","914 N BARTON ST, ARLINGTON, VA, 22201",638189117,"L"
312252,"914 N IROQUOIS AVE","ANAHEIM","CA",92801,33.8442168220001,-117.945653612,252,"914 N IROQUOIS AVE, ANAHEIM, CA, 92801","Match","Exact","914 N IROQUOIS AVE, ANAHEIM, CA, 92801",144022306,"R"
312253,"914 N MAPLE","WATERTOWN","SD",57201,44.91110078,-97.111195328,253,"914 N MAPLE, WATERTOWN, SD, 57201","Match","Exact","914 N MAPLE, WATERTOWN, SD, 57201",200729647,"R"
312254,"914 N MOUNTAIN AVENUE   SUITE G","UPLAND","CA",91786,34.105400493,-117.670199409,254,"914 N MOUNTAIN AVENUE   SUITE G, UPLAND, CA, 91786","Match","Non_Exact","914 N MOUNTAIN AVE, UPLAND, CA, 91786",638618450,"R"
312255,"914 NE VAN LOON LANE","CAPE CORAL","FL",33909,26.6527886110001,-81.955424265,255,"914 NE VAN LOON LANE, CAPE CORAL, FL, 33909","Match","Exact","914 NE VAN LOON LN, CAPE CORAL, FL, 33909",118008513,"R"
312256,"914 NORTH MONROE","LITTLE ROCK","AR",72205,34.7594663260001,-92.327673642,256,"914 NORTH MONROE, LITTLE ROCK, AR, 72205","Match","Non_Exact","914 N MONROE ST, LITTLE ROCK, AR, 72205",83505344,"L"
312257,"914 NORTH ORIANNA STREET","PHILADELPHIA","PA",19123,39.9658754800001,-75.1432485559999,257,"914 NORTH ORIANNA STREET, PHILADELPHIA, PA, 19123","Match","Exact","914 N ORIANNA ST, PHILADELPHIA, PA, 19123",639162387,"L"
312258,"914 NORTH ORLEANS AVENUE","CHICAGO","IL",60610,41.8993343020001,-87.637280555,258,"914 NORTH ORLEANS AVENUE, CHICAGO, IL, 60610","Match","Non_Exact","914 N ORLEANS ST, CHICAGO, IL, 60610",111768326,"L"
312259,"914 NW MAIN STREET","LEES SUMMIT","MO",64015,39.018308619,-94.2757485019999,259,"914 NW MAIN STREET, LEES SUMMIT, MO, 64015","Match","Non_Exact","914 MAIN ST, LAKE TAPAWINGO, MO, 64015",91474387,"L"
312260,"914 OAK HILL DRIVE","ROGERS","AR",72758,36.326553259,-94.160485985,260,"914 OAK HILL DRIVE, ROGERS, AR, 72758","Match","Non_Exact","914 OAKHILL DR, ROGERS, AR, 72758",47833851,"R"
312261,"914 ORCHARD HEIGHTS COURT","FARIBAULT","MN",55021,44.3008731460001,-93.243243148,261,"914 ORCHARD HEIGHTS COURT, FARIBAULT, MN, 55021","Match","Exact","914 ORCHARD HEIGHTS CT, FARIBAULT, MN, 55021",37333810,"L"
312262,"914 PARK AVE","CHATTANOOGA","TN",37403,35.040591829,-85.294993845,262,"914 PARK AVE, CHATTANOOGA, TN, 37403","Match","Exact","914 PARK AVE, CHATTANOOGA, TN, 37403",59307732,"L"
312263,"914 PIRATES WAY","MANTEO","NC",27954,35.897287406,-75.640218064,263,"914 PIRATES WAY, MANTEO, NC, 27954","Match","Exact","914 PIRATES WAY, MANTEO, NC, 27954",81315790,"L"
312264,"914 RAILROAD AVE STE 6","TALLAHASSEE","FL",32310,30.43392979,-84.28968628,264,"914 RAILROAD AVE STE 6, TALLAHASSEE, FL, 32310","Match","Exact","914 RAILROAD AVE, TALLAHASSEE, FL, 32310",82850988,"R"
312265,"914 RAILROAD AVENUE SUITE 19","TALLAHASEE","FL",32310,30.43392979,-84.28968628,265,"914 RAILROAD AVENUE SUITE 19, TALLAHASEE, FL, 32310","Match","Non_Exact","914 RAILROAD AVE, TALLAHASSEE, FL, 32310",82850988,"R"
312266,"914 RAILROAD AVENUE","TALLAHASSEE","FL",32310,30.43392979,-84.28968628,266,"914 RAILROAD AVENUE, TALLAHASSEE, FL, 32310","Match","Exact","914 RAILROAD AVE, TALLAHASSEE, FL, 32310",82850988,"R"
312267,"914 RAMBLING DRIVE","ROCHESTER","MI",48307,42.667938791,-83.1211001349999,267,"914 RAMBLING DRIVE, ROCHESTER, MI, 48307","Match","Exact","914 RAMBLING DR, ROCHESTER, MI, 48307",69790674,"R"
312268,"914 RANLETT AVE","LA PUENTE","CA",91744,34.0353146510001,-117.934058114,268,"914 RANLETT AVE, LA PUENTE, CA, 91744","Match","Exact","914 RANLETT AVE, LA PUENTE, CA, 91744",141714091,"R"
312269,"914 RIDGE TOP RD","HENRICO","VA",23229,37.587837333,-77.536614054,269,"914 RIDGE TOP RD, HENRICO, VA, 23229","Match","Exact","914 RIDGE TOP RD, HENRICO, VA, 23229",106645351,"L"
312270,"914 RIDGE TOP RD","RICHMOND","VA",23229,37.587837333,-77.536614054,270,"914 RIDGE TOP RD, RICHMOND, VA, 23229","Match","Exact","914 RIDGE TOP RD, RICHMOND, VA, 23229",106645351,"L"
312271,"914 ROSEWOOD TER","ENDWELL","NY",13760,42.1331127540001,-76.014506082,271,"914 ROSEWOOD TER, ENDWELL, NY, 13760","Match","Exact","914 ROSEWOOD TER, ENDWELL, NY, 13760",46338467,"L"
312272,"914 S GUNTHER ST","SANTA ANA","CA",92704,33.7359083900001,-117.916711464,272,"914 S GUNTHER ST, SANTA ANA, CA, 92704","Match","Exact","914 S GUNTHER ST, SANTA ANA, CA, 92704",144257912,"R"
312273,"914 S STREET","SACRAMENTO","CA",95811,38.5706791740001,-121.498823944,273,"914 S STREET, SACRAMENTO, CA, 95811","Match","Exact","914 S ST, SACRAMENTO, CA, 95811",133321916,"R"
312274,"914 SACRAMENTO ST APT B","VALLEJO","CA",94590,38.1055656410001,-122.258184947,274,"914 SACRAMENTO ST APT B, VALLEJO, CA, 94590","Match","Exact","914 SACRAMENTO ST, VALLEJO, CA, 94590",192569321,"R"
312275,"914 SECOND STREET EAST","WHITEFISH","MT",59937,48.410625404,-114.330790477,275,"914 SECOND STREET EAST, WHITEFISH, MT, 59937","Match","Exact","914 2ND ST E, WHITEFISH, MT, 59937",639841126,"R"
312276,"914 SHORTER AVE","ROME","GA",30165,34.2667875340001,-85.2049346379999,276,"914 SHORTER AVE, ROME, GA, 30165","Match","Exact","914 SHORTER AVE, ROME, GA, 30165",30674874,"R"
312277,"914 SILVER SPRING AVE STE 100","SILVER SPRING","MD",20910,38.9916133460001,-77.024402473,277,"914 SILVER SPRING AVE STE 100, SILVER SPRING, MD, 20910","Match","Exact","914 SILVER SPRING AVE, SILVER SPRING, MD, 20910",62068169,"L"
312278,"914 SILVER SPRING AVE STE 106","SILVER SPRING","MD",20910,38.9916133460001,-77.024402473,278,"914 SILVER SPRING AVE STE 106, SILVER SPRING, MD, 20910","Match","Exact","914 SILVER SPRING AVE, SILVER SPRING, MD, 20910",62068169,"L"
312279,"914 SILVER SPRING AVENUE NO 103","SILVER SPRING","MD",20910,38.9916133460001,-77.024402473,279,"914 SILVER SPRING AVENUE NO 103, SILVER SPRING, MD, 20910","Match","Non_Exact","914 SILVER SPRING AVE, SILVER SPRING, MD, 20910",62068169,"L"
312280,"914 SOMBRA STREET","TAMPA","FL",33619,27.9408492260001,-82.334769103,280,"914 SOMBRA STREET, TAMPA, FL, 33619","Match","Exact","914 SOMBRA ST, TAMPA, FL, 33619",646566880,"R"
312281,"914 SPRUCE STREET","ST. LOUIS","MO",63102,38.6234031860001,-90.1958870839999,281,"914 SPRUCE STREET, ST. LOUIS, MO, 63102","Match","Exact","914 SPRUCE ST, SAINT LOUIS, MO, 63102",107605708,"L"
312282,"914 SUGAR GAP RD APT 102","WAKE FOREST","NC",27587,NA,NA,282,"914 SUGAR GAP RD APT 102, WAKE FOREST, NC, 27587","No_Match",NA,NA,NA,NA
312283,"914 TANYA LYNN DR","JEFFERSON CITY","MO",65109,38.5740041400001,-92.209678006,283,"914 TANYA LYNN DR, JEFFERSON CITY, MO, 65109","Match","Exact","914 TANYA LYNN DR, JEFFERSON CITY, MO, 65109",645513923,"L"
312284,"914 TERANCE AVE","JONESBORO","GA",30236,33.471371301,-84.362248149,284,"914 TERANCE AVE, JONESBORO, GA, 30236","Match","Non_Exact","914 TERANCE AVE, JONESBORO, GA, 30238",23333572,"R"
312285,"914 THISTLE GREEN LANE","DUNCANVILLE","TX",75137,32.6333224300001,-96.92712147,285,"914 THISTLE GREEN LANE, DUNCANVILLE, TX, 75137","Match","Exact","914 THISTLE GREEN LN, DUNCANVILLE, TX, 75137",102942120,"L"
312286,"914 TOWERVIEW STREET SW","DECATUR","AL",35601,34.5657038690001,-87.000559175,286,"914 TOWERVIEW STREET SW, DECATUR, AL, 35601","Match","Exact","914 TOWERVIEW ST SW, DECATUR, AL, 35601",97123315,"R"
312287,"914 TOWNSEND STREET","CHESTER","PA",19013,39.839464186,-75.389992487,287,"914 TOWNSEND STREET, CHESTER, PA, 19013","Match","Exact","914 TOWNSEND ST, CHESTER, PA, 19013",134889893,"L"
312288,"914 VARNEY ST SE","WASHINGTON","DC",20032,38.8358329490001,-76.990979287,288,"914 VARNEY ST SE, WASHINGTON, DC, 20032","Match","Exact","914 VARNEY ST SE, WASHINGTON, DC, 20032",623974666,"L"
312289,"914 VETCH CIRCLE","LAFAYETTE","CO",80026,40.009140055,-105.097532561,289,"914 VETCH CIRCLE, LAFAYETTE, CO, 80026","Match","Exact","914 VETCH CIR, LAFAYETTE, CO, 80026",220750348,"R"
312290,"914 W INTERSTATE 30  812","GARLAND","TX",75043,NA,NA,290,"914 W INTERSTATE 30  812, GARLAND, TX, 75043","No_Match",NA,NA,NA,NA
312291,"914 WESTBURY ROAD","WESTBURY","NY",11590,40.748788416,-73.57195862,291,"914 WESTBURY ROAD, WESTBURY, NY, 11590","Match","Exact","914 WESTBURY RD, WESTBURY, NY, 11590",147631832,"R"
312292,"914 WILD WOLF DRIVE","GREENSBORO","NC",27406,35.99131018,-79.812082636,292,"914 WILD WOLF DRIVE, GREENSBORO, NC, 27406","Match","Exact","914 WILD WOLF DR, GREENSBORO, NC, 27406",640277608,"L"
312293,"914 WINSAP COURT","HALETHORPE","MD",21227,39.2397843540001,-76.650772455,293,"914 WINSAP COURT, HALETHORPE, MD, 21227","Match","Exact","914 WINSAP CT, HALETHORPE, MD, 21227",191486805,"L"
312294,"914-1/2 SHIRLAND AVE","SOUTH BELOIT","IL",61080,42.496217868,-89.049285222,294,"914-1/2 SHIRLAND AVE, SOUTH BELOIT, IL, 61080","Match","Exact","914 SHIRLAND AVE, SOUTH BELOIT, IL, 61080",49246970,"L"
312295,"914","TARPON SPRINGS","FL",34688,NA,NA,295,"914, TARPON SPRINGS, FL, 34688","No_Match",NA,NA,NA,NA
312296,"9140 BLACK HEATH CIRCLE UNIT C","CHARLOTTE","NC",28214,35.2603897660001,-80.959467592,296,"9140 BLACK HEATH CIRCLE UNIT C, CHARLOTTE, NC, 28214","Match","Exact","9140 BLACK HEATH CIR, CHARLOTTE, NC, 28214",70474189,"R"
312297,"9140 CREEKWOOD LAKE TR","GRAND BLANC","MI",48439,42.8976465420001,-83.711756207,297,"9140 CREEKWOOD LAKE TR, GRAND BLANC, MI, 48439","Match","Exact","9140 CREEKWOOD LAKE TRL, GRAND BLANC, MI, 48439",69576657,"R"
312298,"9140 FM 804","LARUE","TX",75770,32.1664513910001,-95.7070968959999,298,"9140 FM 804, LARUE, TX, 75770","Match","Exact","9140 FM 804, LARUE, TX, 75770",125821818,"R"
312299,"9140 GOLFSIDE DR","JACKSONVILLE","FL",32256,30.2220873860001,-81.568194353,299,"9140 GOLFSIDE DR, JACKSONVILLE, FL, 32256","Match","Exact","9140 GOLFSIDE DR, JACKSONVILLE, FL, 32256",83920190,"L"
312300,"9140 HWY 6 N 1105","HOUSTON","TX",77095,29.9101911810001,-95.628254936,300,"9140 HWY 6 N 1105, HOUSTON, TX, 77095","Match","Non_Exact","9140 HWY 6 N, HOUSTON, TX, 77095",642107212,"R"
312301,"9140 MCMAHON CT","REYNOLDSBURG","OH",43068,39.972719544,-82.7573277929999,301,"9140 MCMAHON CT, REYNOLDSBURG, OH, 43068","Match","Exact","9140 MCMAHON CT, REYNOLDSBURG, OH, 43068",61517911,"R"
312302,"9140 RANGPUR CIRCLE","RIVERSIDE","CA",92508,33.8852187210001,-117.320286958,302,"9140 RANGPUR CIRCLE, RIVERSIDE, CA, 92508","Match","Exact","9140 RANGPUR CIR, RIVERSIDE, CA, 92508",194837046,"R"
312303,"9140 S NOBEL WAY","INGLEWOOD","CA",90305,33.953638363,-118.332557253,303,"9140 S NOBEL WAY, INGLEWOOD, CA, 90305","Match","Exact","9140 S NOBEL WAY, INGLEWOOD, CA, 90305",632052867,"R"
312304,"9140 YUCCA ST","APPLE VALLEY","CA",92308,34.416980387,-117.192051499,304,"9140 YUCCA ST, APPLE VALLEY, CA, 92308","Match","Exact","9140 YUCCA ST, APPLE VALLEY, CA, 92308",144740173,"L"
312305,"9141 87TH STREET 2F","WOODHAVEN","NY",11421,NA,NA,305,"9141 87TH STREET 2F, WOODHAVEN, NY, 11421","No_Match",NA,NA,NA,NA
312306,"9141 EQUUS CIRCLE","BOYNTON BEACH","FL",33472,26.543475583,-80.203097892,306,"9141 EQUUS CIRCLE, BOYNTON BEACH, FL, 33472","Match","Exact","9141 EQUUS CIR, BOYNTON BEACH, FL, 33472",627913250,"R"
312307,"9141 OVERSEAS HIGHWAY","MARATHON","FL",33050,24.7246901950001,-81.0501464119999,307,"9141 OVERSEAS HIGHWAY, MARATHON, FL, 33050","Match","Exact","9141 OVERSEAS HWY, MARATHON, FL, 33050",612431409,"R"
312308,"9141 PEACE ST","FORT WORTH","TX",76244,32.906499523,-97.299580845,308,"9141 PEACE ST, FORT WORTH, TX, 76244","Match","Exact","9141 PEACE ST, FORT WORTH, TX, 76244",102116969,"R"
312309,"9141 WICKHAM WAY","ORLANDO","FL",32836,28.4315343430001,-81.504591201,309,"9141 WICKHAM WAY, ORLANDO, FL, 32836","Match","Exact","9141 WICKHAM WAY, ORLANDO, FL, 32836",606134737,"L"
312310,"9142 BROWNE ROAD","CHARLOTTE","NC",28269,35.3646703260001,-80.802869489,310,"9142 BROWNE ROAD, CHARLOTTE, NC, 28269","Match","Exact","9142 BROWNE RD, CHARLOTTE, NC, 28269",70531655,"R"
312311,"9142 CALVERTON TER","PICKERINGTON","OH",43147,39.928077069,-82.7572025869999,311,"9142 CALVERTON TER, PICKERINGTON, OH, 43147","Match","Exact","9142 CALVERTON TER, PICKERINGTON, OH, 43147",37247115,"L"
312312,"9142 STEPHENS MANOR DRIVE","MECHANICSVILLE","VA",23116,37.6833633250001,-77.4137924889999,312,"9142 STEPHENS MANOR DRIVE, MECHANICSVILLE, VA, 23116","Match","Exact","9142 STEPHENS MANOR DR, MECHANICSVILLE, VA, 23116",84969891,"L"
312313,"9142 WOODBRIDGE OAK TER","ORLANDO","FL",32825,28.522439149,-81.2588252,313,"9142 WOODBRIDGE OAK TER, ORLANDO, FL, 32825","Match","Exact","9142 WOODBRIDGE OAK TER, ORLANDO, FL, 32825",94397017,"R"
312314,"9143 DEL MONTE AVE","YUCCA VALLEY","CA",92284,34.0863538350001,-116.384606783,314,"9143 DEL MONTE AVE, YUCCA VALLEY, CA, 92284","Match","Exact","9143 DEL MONTE AVE, YUCCA VALLEY, CA, 92284",144629729,"R"
312315,"9143 KESTER AVENUE","PANORAMA CITY","CA",91402,34.236790467,-118.456748812,315,"9143 KESTER AVENUE, PANORAMA CITY, CA, 91402","Match","Exact","9143 KESTER AVE, PANORAMA CITY, CA, 91402",141549120,"L"
312316,"9143 LONE PINE ROAD","BRAINERD","MN",56401,46.2882006360001,-94.053748045,316,"9143 LONE PINE ROAD, BRAINERD, MN, 56401","Match","Exact","9143 LONE PINE RD, BRAINERD, MN, 56401",162829245,"L"
312317,"9143 MULDOON RD","FORT WAYNE","IN",46819,41.0010498710001,-85.1330885199999,317,"9143 MULDOON RD, FORT WAYNE, IN, 46819","Match","Exact","9143 MULDOON RD, FORT WAYNE, IN, 46819",6384000,"L"
312318,"9143 NW 161ST ST","MIAMI LAKES","FL",33018,25.9197306660001,-80.349109972,318,"9143 NW 161ST ST, MIAMI LAKES, FL, 33018","Match","Exact","9143 NW 161ST ST, MIAMI LAKES, FL, 33018",648416589,"R"
312319,"9143 ROYAL GATE DRIVE","WINDERMERE","FL",34786,28.5168940630001,-81.511052096,319,"9143 ROYAL GATE DRIVE, WINDERMERE, FL, 34786","Match","Exact","9143 ROYAL GATE DR, WINDERMERE, FL, 34786",94372719,"R"
312320,"9143 SOUTH 3140 WEST","WEST JORDAN","UT",84088,40.584737788,-111.966128906,320,"9143 SOUTH 3140 WEST, WEST JORDAN, UT, 84088","Match","Exact","9143 S 3140 W, WEST JORDAN, UT, 84088",176121598,"L"
312321,"9143 SW 6TH ST","MIAMI","FL",33174,25.763480412,-80.3434991669999,321,"9143 SW 6TH ST, MIAMI, FL, 33174","Match","Non_Exact","9143 SW 6TH ST, MIAMI, FL, 33174",115971121,"L"
312322,"9144 COMSTOCK LANE N","MAPLE GROVE","MN",55311,45.1209651890001,-93.491326526,322,"9144 COMSTOCK LANE N, MAPLE GROVE, MN, 55311","Match","Exact","9144 COMSTOCK LN N, MAPLE GROVE, MN, 55311",624859920,"R"
312323,"9144 JACKSON ROAD SUITE B","SACRAMENTO","CA",95862,38.5360178870001,-121.361062278,323,"9144 JACKSON ROAD SUITE B, SACRAMENTO, CA, 95862","Match","Non_Exact","9144 JACKSON RD, SACRAMENTO, CA, 95826",133396504,"R"
312324,"9144 S RICHMOND AVE","EVERGREEN PARK","IL",60805,41.7271335780001,-87.695839217,324,"9144 S RICHMOND AVE, EVERGREEN PARK, IL, 60805","Match","Non_Exact","9144 S RICHMOND ST, EVERGREEN PARK, IL, 60805",605315046,"R"
312325,"9145 BOIS AVENUE","VIENNA","VA",22182,38.931113313,-77.261711781,325,"9145 BOIS AVENUE, VIENNA, VA, 22182","Match","Exact","9145 BOIS AVE, VIENNA, VA, 22182",76014106,"L"
312326,"9145 E HACKAMORE DR","SCOTTSDALE","AZ",85255,33.7154940080001,-111.884515114,326,"9145 E HACKAMORE DR, SCOTTSDALE, AZ, 85255","Match","Exact","9145 E HACKAMORE DR, SCOTTSDALE, AZ, 85255",128269694,"L"
312327,"9145 GARRET LAKE DRIVE","MIDLAND","GA",31820,32.5592823690001,-84.8240576439999,327,"9145 GARRET LAKE DRIVE, MIDLAND, GA, 31820","Match","Non_Exact","9145 GARRETT LAKE DR, MIDLAND, GA, 31820",636346511,"L"
312328,"9145 KENNEDY AV","HIGHLAND","IN",46322,41.547160998,-87.461637055,328,"9145 KENNEDY AV, HIGHLAND, IN, 46322","Match","Exact","9145 KENNEDY AVE, HIGHLAND, IN, 46322",98422216,"L"
312329,"9145 KENNEDY AVE","HIGHLAND","IN",46322,41.547160998,-87.461637055,329,"9145 KENNEDY AVE, HIGHLAND, IN, 46322","Match","Exact","9145 KENNEDY AVE, HIGHLAND, IN, 46322",98422216,"L"
312330,"9145 MAIN STREET","CLARENCE","NY",14031,42.969202753,-78.6501005489999,330,"9145 MAIN STREET, CLARENCE, NY, 14031","Match","Exact","9145 MAIN ST, CLARENCE, NY, 14031",638085187,"R"
312331,"9145 NARCOOSSEE ROA SUITE 106-212","ORLANDO","FL",32827,NA,NA,331,"9145 NARCOOSSEE ROA SUITE 106-212, ORLANDO, FL, 32827","No_Match",NA,NA,NA,NA
312332,"9145 ST THOMAS DRIVE","PASCO","WA",99301,NA,NA,332,"9145 ST THOMAS DRIVE, PASCO, WA, 99301","No_Match",NA,NA,NA,NA
312333,"9146 FOX STREAM WAY","UPPER MARLBORO","MD",20772,38.8352195470001,-76.8496940589999,333,"9146 FOX STREAM WAY, UPPER MARLBORO, MD, 20772","Match","Exact","9146 FOX STREAM WAY, UPPER MARLBORO, MD, 20772",651699546,"L"
312334,"9146 W HIGHLAND PINESS BLVD","PALM BEACH GARDENS","FL",33418,26.811266043,-80.111421921,334,"9146 W HIGHLAND PINESS BLVD, PALM BEACH GARDENS, FL, 33418","Match","Non_Exact","9146 W HIGHLAND PINES BLVD, PALM BEACH GARDENS, FL, 33418",115266752,"L"
312335,"9147 FLEETWOOD AVE","LONGMONT","CO",80503,40.206603725,-105.139253711,335,"9147 FLEETWOOD AVE, LONGMONT, CO, 80503","Match","Exact","9147 FLEETWOOD AVE, LONGMONT, CO, 80503",188154347,"R"
312336,"9147 PORT HUDSON PRIDE ROAD","ZACHARY","LA",70791,NA,NA,336,"9147 PORT HUDSON PRIDE ROAD, ZACHARY, LA, 70791","No_Match",NA,NA,NA,NA
312337,"9147 REDWOOD DR","BASTROP","LA",71220,32.7580607900001,-91.9457794419999,337,"9147 REDWOOD DR, BASTROP, LA, 71220","Match","Exact","9147 REDWOOD DR, BASTROP, LA, 71220",75387471,"L"
312338,"9147 S MARSHFIELD AVE","CHICAGO","IL",60620,41.7275723920001,-87.664033207,338,"9147 S MARSHFIELD AVE, CHICAGO, IL, 60620","Match","Exact","9147 S MARSHFIELD AVE, CHICAGO, IL, 60620",111821518,"L"
312339,"9148 BLACK HEATH CIRCLE SUITE-B","CHARLOTTE","NC",28214,35.2603080160001,-80.959451573,339,"9148 BLACK HEATH CIRCLE SUITE-B, CHARLOTTE, NC, 28214","Match","Exact","9148 BLACK HEATH CIR, CHARLOTTE, NC, 28214",70474189,"R"
312340,"9148 CHIANTI CIRCLE","STOCKTON","CA",95212,38.033352316,-121.263546434,340,"9148 CHIANTI CIRCLE, STOCKTON, CA, 95212","Match","Exact","9148 CHIANTI CIR, STOCKTON, CA, 95212",133930423,"L"
312341,"9148 GEORGE TRL","TERRELL","TX",75160,NA,NA,341,"9148 GEORGE TRL, TERRELL, TX, 75160","No_Match",NA,NA,NA,NA
312342,"9148 GILA DR","CINCINNATI","OH",45251,39.2373754870001,-84.5787944699999,342,"9148 GILA DR, CINCINNATI, OH, 45251","Match","Exact","9148 GILA DR, CINCINNATI, OH, 45251",103919344,"R"
312343,"9148 PORTLAND AVENUE","BLOOMINGTON","MN",55420,44.8380282680001,-93.268282842,343,"9148 PORTLAND AVENUE, BLOOMINGTON, MN, 55420","Match","Non_Exact","9148 PORTLAND AVE S, BLOOMINGTON, MN, 55420",43596299,"R"
312344,"9148 S URBAN AVE","CHICAGO","IL",60619,41.7282001140001,-87.623320753,344,"9148 S URBAN AVE, CHICAGO, IL, 60619","Match","Exact","9148 S URBAN AVE, CHICAGO, IL, 60619",111772846,"R"
312345,"9148 W CHURCH STREET 1A","DES PLAINES","IL",60016,NA,NA,345,"9148 W CHURCH STREET 1A, DES PLAINES, IL, 60016","No_Match",NA,NA,NA,NA
312346,"9149 ELYS FORD RD","FREDERICKSBURG","VA",22407,38.320129299,-77.640945766,346,"9149 ELYS FORD RD, FREDERICKSBURG, VA, 22407","Match","Exact","9149 ELYS FORD RD, FREDERICKSBURG, VA, 22407",85033318,"R"
312347,"9149 LAUREL CANYON BLVD","ARLETA","CA",91331,34.2363076730001,-118.40834585,347,"9149 LAUREL CANYON BLVD, ARLETA, CA, 91331","Match","Exact","9149 LAUREL CANYON BLVD, ARLETA, CA, 91331",141552117,"L"
312348,"9149 SILVERSHADOW COURT","LORTON","VA",22079,38.7100969050001,-77.230543132,348,"9149 SILVERSHADOW COURT, LORTON, VA, 22079","Match","Exact","9149 SILVERSHADOW CT, LORTON, VA, 22079",76047929,"L"
312349,"9149 SOUT YALE AVE STE 115","TULSA","OK",74137,NA,NA,349,"9149 SOUT YALE AVE STE 115, TULSA, OK, 74137","No_Match",NA,NA,NA,NA
312350,"914B MAIN STREET","WALTHAM","MA",2451,42.376280509,-71.2477525959999,350,"914B MAIN STREET, WALTHAM, MA, 2451","Match","Exact","914 MAIN ST, WALTHAM, MA, 02451",646705287,"L"
312351,"915  ELK HOLLOW LANE","CENTERVILLE","OH",45459,39.63879122,-84.140022696,351,"915  ELK HOLLOW LANE, CENTERVILLE, OH, 45459","Match","Exact","915 ELK HOLLOW LN, CENTERVILLE, OH, 45459",143600227,"R"
312352,"915 11TH STREET","CAIRO","GA",39828,30.884109118,-84.1943966589999,352,"915 11TH STREET, CAIRO, GA, 39828","Match","Non_Exact","915 11TH ST NE, CAIRO, GA, 39828",84355205,"L"
312353,"915 12TH ST","GREELEY","CO",80631,40.419807958,-104.693250342,353,"915 12TH ST, GREELEY, CO, 80631","Match","Exact","915 12TH ST, GREELEY, CO, 80631",638655172,"R"
312354,"915 12TH STREET","HEMPSTEAD","TX",77445,30.0963720930001,-96.081024762,354,"915 12TH STREET, HEMPSTEAD, TX, 77445","Match","Exact","915 12TH ST, HEMPSTEAD, TX, 77445",78351887,"L"
312355,"915 12TH STREET","PHENIX CITY","AL",36867,32.4690637210001,-85.0059449839999,355,"915 12TH STREET, PHENIX CITY, AL, 36867","Match","Exact","915 12TH ST, PHENIX CITY, AL, 36867",69268472,"R"
312356,"915 16TH AVENUE","EAST MOLINE","IL",61244,41.515271543,-90.440432951,356,"915 16TH AVENUE, EAST MOLINE, IL, 61244","Match","Exact","915 16TH AVE, EAST MOLINE, IL, 61244",9215090,"L"
312357,"915 43RD STREET","BROOKLYN","NY",11219,40.643444673,-73.99698137,357,"915 43RD STREET, BROOKLYN, NY, 11219","Match","Exact","915 43RD ST, BROOKLYN, NY, 11219",59079991,"L"
312358,"915 4TH ST NE","AUBURN","WA",98002,47.3110738190001,-122.217453095,358,"915 4TH ST NE, AUBURN, WA, 98002","Match","Exact","915 4TH ST NE, AUBURN, WA, 98002",186653958,"L"
312359,"915 9 AVE N","MOORHEAD","MN",56560,46.884720852,-96.765532084,359,"915 9 AVE N, MOORHEAD, MN, 56560","Match","Exact","915 9TH AVE N, MOORHEAD, MN, 56560",168029595,"R"
312360,"915 ACACIA LANE","RHINELANDER","WI",54501,45.6466773020001,-89.394654867,360,"915 ACACIA LANE, RHINELANDER, WI, 54501","Match","Exact","915 ACACIA LN, RHINELANDER, WI, 54501",196589614,"R"
312361,"915 ALABAMA AVENUE","DURHAM","NC",27705,36.0125797150001,-78.9295378579999,361,"915 ALABAMA AVENUE, DURHAM, NC, 27705","Match","Exact","915 ALABAMA AVE, DURHAM, NC, 27705",71738397,"L"
312362,"915 ALLEGHENY AVENUE","NEW KENSINGTON","PA",15068,40.5457789390001,-79.7517884069999,362,"915 ALLEGHENY AVENUE, NEW KENSINGTON, PA, 15068","Match","Exact","915 ALLEGHENY AVE, NEW KENSINGTON, PA, 15068",51676060,"L"
312363,"915 AMBER TRAIL","MONROE","GA",30655,33.778137214,-83.7386162399999,363,"915 AMBER TRAIL, MONROE, GA, 30655","Match","Exact","915 AMBER TRL, MONROE, GA, 30655",77637317,"L"
312364,"915 AVENUE L","GALVESTON","TX",77550,29.3023808090001,-94.7755671369999,364,"915 AVENUE L, GALVESTON, TX, 77550","Match","Exact","915 AVE L, GALVESTON, TX, 77550",96680635,"L"
312365,"915 BELLHURST AVE","SAN JOSE","CA",95122,37.3285378840001,-121.855428053,365,"915 BELLHURST AVE, SAN JOSE, CA, 95122","Match","Exact","915 BELLHURST AVE, SAN JOSE, CA, 95122",123018362,"L"
312366,"915 BERGSTROM PLACE","MARSHALL","TX",75672,32.520064373,-94.356717047,366,"915 BERGSTROM PLACE, MARSHALL, TX, 75672","Match","Exact","915 BERGSTROM PL, MARSHALL, TX, 75672",141191499,"R"
312367,"915 BIRCHWOOD CT","HANFORD","CA",93230,36.352749089,-119.633073041,367,"915 BIRCHWOOD CT, HANFORD, CA, 93230","Match","Exact","915 BIRCHWOOD CT, HANFORD, CA, 93230",197981704,"L"
312368,"915 BOWEN AVE","MODESTO","CA",95350,37.6747357520001,-121.004808019,368,"915 BOWEN AVE, MODESTO, CA, 95350","Match","Exact","915 BOWEN AVE, MODESTO, CA, 95350",102603609,"R"
312369,"915 BRANDERMILL DR","CANTONMENT","FL",32533,30.585907838,-87.3081948079999,369,"915 BRANDERMILL DR, CANTONMENT, FL, 32533","Match","Exact","915 BRANDERMILL DR, CANTONMENT, FL, 32533",93306433,"L"
312370,"915 BROADWAY STREET  SUITE 200","VANCOUVER","WA",98660,45.6281351710001,-122.670527355,370,"915 BROADWAY STREET  SUITE 200, VANCOUVER, WA, 98660","Match","Exact","915 BROADWAY ST, VANCOUVER, WA, 98660",158325709,"R"
312371,"915 BURNT CREST LANE","SILVER SPRING","MD",20903,39.025582451,-76.992888287,371,"915 BURNT CREST LANE, SILVER SPRING, MD, 20903","Match","Exact","915 BURNT CREST LN, SILVER SPRING, MD, 20903",62073660,"R"
312372,"915 BUSH STREET","OLYPHANT","PA",18447,41.458690061,-75.609312062,372,"915 BUSH STREET, OLYPHANT, PA, 18447","Match","Exact","915 BUSH ST, OLYPHANT, PA, 18447",139330043,"R"
312373,"915 C MAIN STREET","PERRY","GA",31069,32.45760218,-83.732976545,373,"915 C MAIN STREET, PERRY, GA, 31069","Match","Exact","915 MAIN ST, PERRY, GA, 31069",91215978,"L"
312374,"915 CALIFORNIA AVE","LAS CRUCE","NM",88001,32.2997033180001,-106.766698483,374,"915 CALIFORNIA AVE, LAS CRUCE, NM, 88001","Match","Non_Exact","915 CALIFORNIA AVE, LAS CRUCES, NM, 88001",612724998,"L"
312375,"915 CATLIN COURT","KENT","OH",44240,41.161155352,-81.3830949329999,375,"915 CATLIN COURT, KENT, OH, 44240","Match","Exact","915 CATLIN CT, KENT, OH, 44240",137526348,"R"
312376,"915 CENTRAL ST SE","OLYMPIA","WA",98501,47.0416393990001,-122.881863934,376,"915 CENTRAL ST SE, OLYMPIA, WA, 98501","Match","Exact","915 CENTRAL ST SE, OLYMPIA, WA, 98501",180944638,"R"
312377,"915 CIRCLE DRIVE","MT PLEASANT","NC",28124,35.404136298,-80.453947113,377,"915 CIRCLE DRIVE, MT PLEASANT, NC, 28124","Match","Exact","915 CIRCLE DR, MOUNT PLEASANT, NC, 28124",640213690,"R"
312378,"915 CLIFFTVIEW RD","BOLIVAR","TN",38008,35.219182147,-89.0180359299999,378,"915 CLIFFTVIEW RD, BOLIVAR, TN, 38008","Match","Non_Exact","915 CLIFFVIEW RD, BOLIVAR, TN, 38008",632962530,"L"
312379,"915 CLINTON STREET 305","PHILADELPHIA","PA",19107,39.9450426290001,-75.156846844,379,"915 CLINTON STREET 305, PHILADELPHIA, PA, 19107","Match","Exact","915 CLINTON ST, PHILADELPHIA, PA, 19107",131423858,"R"
312380,"915 COLUMBIA AVENUE","FRANKLIN","TN",37064,35.920103779,-86.872518493,380,"915 COLUMBIA AVENUE, FRANKLIN, TN, 37064","Match","Exact","915 COLUMBIA AVE, FRANKLIN, TN, 37064",73104291,"R"
312381,"915 CORA ST","JOLIET","IL",60435,41.540242547,-88.0905389929999,381,"915 CORA ST, JOLIET, IL, 60435","Match","Exact","915 CORA ST, JOLIET, IL, 60435",111540934,"L"
312382,"915 CORNELL ST","VERMILLION","SD",57069,42.78503893,-96.9456102889999,382,"915 CORNELL ST, VERMILLION, SD, 57069","Match","Exact","915 CORNELL ST, VERMILLION, SD, 57069",601177854,"R"
312383,"915 CORNELL STREET","YOUNGSTOWN","OH",44502,41.0721494590001,-80.636527673,383,"915 CORNELL STREET, YOUNGSTOWN, OH, 44502","Match","Non_Exact","915 CORNELL AVE, YOUNGSTOWN, OH, 44502",64597418,"R"
312384,"915 DANBROOK CIRCLE","LINCOLNTON","NC",28092,35.4840699710001,-81.2490601219999,384,"915 DANBROOK CIRCLE, LINCOLNTON, NC, 28092","Match","Exact","915 DANBROOK CIR, LINCOLNTON, NC, 28092",640432191,"L"
312385,"915 DESCO LN APT 3316","GRAND PRAIRIE","TX",75051,32.733185554,-97.015252125,385,"915 DESCO LN APT 3316, GRAND PRAIRIE, TX, 75051","Match","Exact","915 DESCO LN, GRAND PRAIRIE, TX, 75051",618726584,"R"
312386,"915 DOUGLAS STREET","ALEXANDRIA","MN",56308,45.8822291220001,-95.382249684,386,"915 DOUGLAS STREET, ALEXANDRIA, MN, 56308","Match","Exact","915 DOUGLAS ST, ALEXANDRIA, MN, 56308",204650704,"R"
312387,"915 E CAMERON AVE","ROCKDALE","TX",76567,30.6594918640001,-96.9923693869999,387,"915 E CAMERON AVE, ROCKDALE, TX, 76567","Match","Exact","915 E CAMERON AVE, ROCKDALE, TX, 76567",25204193,"L"
312388,"915 E GENERAL STEWART WAY APT B103","HINESVILLE","GA",31313,31.8525508430001,-81.579295492,388,"915 E GENERAL STEWART WAY APT B103, HINESVILLE, GA, 31313","Match","Non_Exact","915 E GENERAL STEWART WAY, HINESVILLE, GA, 31313",653479564,"R"
312389,"915 E GRANDE BLVD APT 1303","TYLER","TX",75703,NA,NA,389,"915 E GRANDE BLVD APT 1303, TYLER, TX, 75703","Tie",NA,NA,NA,NA
312390,"915 E KING AVE","DES MOINES","IA",50315,NA,NA,390,"915 E KING AVE, DES MOINES, IA, 50315","Tie",NA,NA,NA,NA
312391,"915 E MARKET STREET","AKRON","OH",44305,41.0721527590001,-81.490326979,391,"915 E MARKET STREET, AKRON, OH, 44305","Match","Exact","915 E MARKET ST, AKRON, OH, 44305",61350431,"L"
312392,"915 E ROOSEVELT","RIVERTON","WY",82501,43.029391608,-108.378867089,392,"915 E ROOSEVELT, RIVERTON, WY, 82501","Match","Non_Exact","915 E ROOSEVELT AVE, RIVERTON, WY, 82501",148475476,"L"
312393,"915 E SUNHILL DRIVE","LAWRENCEVILLE","GA",30043,33.9983664850001,-83.970799071,393,"915 E SUNHILL DRIVE, LAWRENCEVILLE, GA, 30043","Match","Exact","915 SUNHILL DR, LAWRENCEVILLE, GA, 30043",88928343,"R"
312394,"915 EAST 62ND STREET","CHICAGO","IL",60637,41.7822793330001,-87.6040041479999,394,"915 EAST 62ND STREET, CHICAGO, IL, 60637","Match","Exact","915 E 62ND ST, CHICAGO, IL, 60637",112383774,"R"
312395,"915 EAST GORDON STREET","ALLENTOWN","PA",18109,40.616068483,-75.440454755,395,"915 EAST GORDON STREET, ALLENTOWN, PA, 18109","Match","Exact","915 E GORDON ST, ALLENTOWN, PA, 18109",80772410,"L"
312396,"915 EAST MCLEMORE AVE SUITE 201","MEMPHIS","TN",38106,35.1155157520001,-90.031702846,396,"915 EAST MCLEMORE AVE SUITE 201, MEMPHIS, TN, 38106","Match","Exact","915 E MCLEMORE AVE, MEMPHIS, TN, 38106",636696194,"R"
312397,"915 EAST MCLEMORE","MEMPHIS","TN",38106,35.1155157520001,-90.031702846,397,"915 EAST MCLEMORE, MEMPHIS, TN, 38106","Match","Non_Exact","915 E MCLEMORE AVE, MEMPHIS, TN, 38106",636696194,"R"
312398,"915 EAST PATTERSON","KIRKSVILLE","MO",63501,40.186180425,-92.5740702259999,398,"915 EAST PATTERSON, KIRKSVILLE, MO, 63501","Match","Non_Exact","915 E PATTERSON ST, KIRKSVILLE, MO, 63501",24762344,"R"
312399,"915 EAST STREET","TEXARKANA","AR",71854,33.412545912,-94.0302473739999,399,"915 EAST STREET, TEXARKANA, AR, 71854","Match","Exact","915 EAST ST, TEXARKANA, AR, 71854",57276243,"R"
312400,"915 FEDERAL AVE E","SEATTLE","WA",98102,47.6270759710001,-122.319151836,400,"915 FEDERAL AVE E, SEATTLE, WA, 98102","Match","Exact","915 FEDERAL AVE E, SEATTLE, WA, 98102",186584110,"L"
312401,"915 FOREST AVE","PORTLAND","ME",4103,43.6791490520001,-70.288642451,401,"915 FOREST AVE, PORTLAND, ME, 4103","Match","Exact","915 FOREST AVE, PORTLAND, ME, 04103",78026379,"R"
312402,"915 FRANKLIN ST UNIT 9D","HOUSTON","TX",77002,29.763425984,-95.360832726,402,"915 FRANKLIN ST UNIT 9D, HOUSTON, TX, 77002","Match","Exact","915 FRANKLIN ST, HOUSTON, TX, 77002",96067489,"L"
312403,"915 FRANKLIN SUITE 408","SAN FRANCISCO","CA",94109,37.78278442,-122.422490035,403,"915 FRANKLIN SUITE 408, SAN FRANCISCO, CA, 94109","Match","Non_Exact","915 FRANKLIN ST, SAN FRANCISCO, CA, 94109",192283814,"L"
312404,"915 GARDEN STREET","E PALO ALTO","CA",94303,37.466900638,-122.134249978,404,"915 GARDEN STREET, E PALO ALTO, CA, 94303","Match","Exact","915 GARDEN ST, E PALO ALTO, CA, 94303",192406479,"L"
312405,"915 GAY ST","HOWELL","MI",48843,42.608404884,-83.940668247,405,"915 GAY ST, HOWELL, MI, 48843","Match","Exact","915 GAY ST, HOWELL, MI, 48843",23570695,"R"
312406,"915 GRACIE WAY","CHARLOTTE","NC",28204,35.2180008030001,-80.820577704,406,"915 GRACIE WAY, CHARLOTTE, NC, 28204","Match","Exact","915 GRACIE WAY, CHARLOTTE, NC, 28204",70595134,"R"
312407,"915 HARDIN HOLLOW ROAD","WATERTOWN","TN",37184,36.010832083,-86.105655799,407,"915 HARDIN HOLLOW ROAD, WATERTOWN, TN, 37184","Match","Exact","915 HARDIN HOLLOW RD, WATERTOWN, TN, 37184",607065894,"R"
312408,"915 HARRINGTON RD","ULSTER","PA",18850,NA,NA,408,"915 HARRINGTON RD, ULSTER, PA, 18850","No_Match",NA,NA,NA,NA
312409,"915 HILLCREST ST","TALLAHASSEE","FL",32308,30.451923456,-84.268671921,409,"915 HILLCREST ST, TALLAHASSEE, FL, 32308","Match","Exact","915 HILLCREST ST, TALLAHASSEE, FL, 32308",82853737,"R"
312410,"915 HOOVER VILLAGE DRIVE APT C  401","IINDIANAPOLIS","IN",46260,39.874708631,-86.1781842669999,410,"915 HOOVER VILLAGE DRIVE APT C  401, IINDIANAPOLIS, IN, 46260","Match","Non_Exact","915 HOOVER VILLAGE DR, INDIANAPOLIS, IN, 46260",108023135,"L"
312411,"915 HUFFSTETLER RD","MARYVILLE","TN",37803,35.676294066,-84.0291263669999,411,"915 HUFFSTETLER RD, MARYVILLE, TN, 37803","Match","Exact","915 HUFFSTETLER RD, MARYVILLE, TN, 37803",89827944,"R"
312412,"915 HUMPHREY STREET","JENNINGS","LA",70546,30.228682442,-92.6605166049999,412,"915 HUMPHREY STREET, JENNINGS, LA, 70546","Match","Exact","915 HUMPHREY ST, JENNINGS, LA, 70546",88214834,"L"
312413,"915 HURSTVIEW STREET","DUARTE","CA",91010,34.130384371,-117.98714577,413,"915 HURSTVIEW STREET, DUARTE, CA, 91010","Match","Exact","915 HURSTVIEW ST, DUARTE, CA, 91010",141647419,"L"
312414,"915 JADE FOREST AVE","ORLANDO","FL",32828,28.557153645,-81.188090383,414,"915 JADE FOREST AVE, ORLANDO, FL, 32828","Match","Exact","915 JADE FOREST AVE, ORLANDO, FL, 32828",94371014,"L"
312415,"915 JEFFERSON ST","VANCOUVER",NA,98660,45.628353104,-122.681459246,415,"915 JEFFERSON ST, VANCOUVER, , 98660","Match","Exact","915 JEFFERSON ST, VANCOUVER, WA, 98660",649100012,"R"
312416,"915 JONES STREET APT 405","OMAHA","NE",68102,41.253341305,-95.928227635,416,"915 JONES STREET APT 405, OMAHA, NE, 68102","Match","Exact","915 JONES ST, OMAHA, NE, 68102",117016030,"L"
312417,"915 KINGSBROOK LN","FLORISSANT","MO",63031,38.81367284,-90.33183609,417,"915 KINGSBROOK LN, FLORISSANT, MO, 63031","Match","Exact","915 KINGSBROOK LN, FLORISSANT, MO, 63031",100116272,"R"
312418,"915 L STREET STE C 305","SACRAMENTO","CA",95814,38.5783988950001,-121.495491767,418,"915 L STREET STE C 305, SACRAMENTO, CA, 95814","Match","Exact","915 L ST, SACRAMENTO, CA, 95814",133323735,"L"
312419,"915 L STREET SUITE C-412","SACRAMENTO","CA",95814,38.5783988950001,-121.495491767,419,"915 L STREET SUITE C-412, SACRAMENTO, CA, 95814","Match","Exact","915 L ST, SACRAMENTO, CA, 95814",133323735,"L"
312420,"915 L STREET SUITE C-419","SACRAMENTO","CA",95814,38.5783988950001,-121.495491767,420,"915 L STREET SUITE C-419, SACRAMENTO, CA, 95814","Match","Exact","915 L ST, SACRAMENTO, CA, 95814",133323735,"L"
312421,"915 LIBERTY LANE","GENEVA","FL",32732,28.7569914790001,-81.113428071,421,"915 LIBERTY LANE, GENEVA, FL, 32732","Match","Exact","915 LIBERTY LN, GENEVA, FL, 32732",605423048,"R"
312422,"915 LIBERTY LN","AUBURNDALE","FL",33823,28.1132000330001,-81.781885518,422,"915 LIBERTY LN, AUBURNDALE, FL, 33823","Match","Exact","915 LIBERTY LN, AUBURNDALE, FL, 33823",104863362,"L"
312423,"915 LOWBER ROAD","HERMINE","PA",15637,40.2613057130001,-79.7223270819999,423,"915 LOWBER ROAD, HERMINE, PA, 15637","Match","Non_Exact","915 LOWBER RD, HERMINIE, PA, 15637",52966804,"L"
312424,"915 LYTTON RD","MELBOURNE","FL",32934,28.1306716820001,-80.67419103,424,"915 LYTTON RD, MELBOURNE, FL, 32934","Match","Exact","915 LYTTON RD, MELBOURNE, FL, 32934",647551257,"R"
312425,"915 M STREET NW","WASHINGTON","DC",20001,38.905653391,-77.02461002,425,"915 M STREET NW, WASHINGTON, DC, 20001","Match","Exact","915 M ST NW, WASHINGTON, DC, 20001",76237866,"R"
312426,"915 MADISON STREET","BEAVER DAM","WI",53916,43.4463431450001,-88.850728024,426,"915 MADISON STREET, BEAVER DAM, WI, 53916","Match","Exact","915 MADISON ST, BEAVER DAM, WI, 53916",53528864,"R"
312427,"915 MAIN ST STE 005","EVANSVILLE","IN",47708,37.9753915860001,-87.565095538,427,"915 MAIN ST STE 005, EVANSVILLE, IN, 47708","Match","Exact","915 MAIN ST, EVANSVILLE, IN, 47708",636638094,"R"
312428,"915 MAIN ST","AUMSVILLE","OR",97235,44.8408964810001,-122.874143106,428,"915 MAIN ST, AUMSVILLE, OR, 97235","Match","Non_Exact","915 MAIN ST, AUMSVILLE, OR, 97325",156231345,"R"
312429,"915 MAIN STREET","VINCENNES","IN",47591,38.674358194,-87.5269062409999,429,"915 MAIN STREET, VINCENNES, IN, 47591","Match","Exact","915 MAIN ST, VINCENNES, IN, 47591",30059942,"L"
312430,"915 MAYWOOD CT","LOS ALTOS","CA",94024,37.366710015,-122.09709484,430,"915 MAYWOOD CT, LOS ALTOS, CA, 94024","Match","Exact","915 MAYWOOD CT, LOS ALTOS, CA, 94024",122934328,"R"
312431,"915 MIDWEST CLUB PKWY","OAK BROOK","IL",60523,41.827064498,-87.983656718,431,"915 MIDWEST CLUB PKWY, OAK BROOK, IL, 60523","Match","Exact","915 MIDWEST CLUB PKWY, OAK BROOK, IL, 60523",112547433,"L"
312432,"915 MUD LANE","IGNACIO","CO",81137,37.1146612270001,-107.776901451,432,"915 MUD LANE, IGNACIO, CO, 81137","Match","Exact","915 MUD LN, IGNACIO, CO, 81137",91720788,"L"
312433,"915 N 400 W SUITE 110","LAYTON","UT",84041,41.072963799,-111.97352282,433,"915 N 400 W SUITE 110, LAYTON, UT, 84041","Match","Non_Exact","915 N 400 W, LAYTON, UT, 84041",155306743,"L"
312434,"915 N 4TH ST","BOONVILLE","IN",47601,38.056944129,-87.271008846,434,"915 N 4TH ST, BOONVILLE, IN, 47601","Match","Exact","915 N 4TH ST, BOONVILLE, IN, 47601",627833903,"R"
312435,"915 N BROADWAY ST","LEWISTOWN","IL",61542,40.403104968,-90.1519335309999,435,"915 N BROADWAY ST, LEWISTOWN, IL, 61542","Match","Exact","915 N BROADWAY ST, LEWISTOWN, IL, 61542",15565580,"R"
312436,"915 N JEFFERSON AVE","MT PLEASANT","TX",75455,33.1637780610001,-94.9689842619999,436,"915 N JEFFERSON AVE, MT PLEASANT, TX, 75455","Match","Exact","915 N JEFFERSON AVE, MOUNT PLEASANT, TX, 75455",83219925,"L"
312437,"915 N LANSING ST","ST JOHNS","MI",48879,43.011959118,-84.562658949,437,"915 N LANSING ST, ST JOHNS, MI, 48879","Match","Exact","915 N LANSING ST, SAINT JOHNS, MI, 48879",647607429,"L"
312438,"915 N MICHIGAN AVE","BALDWIN","MI",49304,43.896762595,-85.851589019,438,"915 N MICHIGAN AVE, BALDWIN, MI, 49304","Match","Exact","915 MICHIGAN AVE, BALDWIN, MI, 49304",648647178,"L"
312439,"915 N OLEANDER ST","GRAND SALINE","TX",75140,32.682940796,-95.7132541559999,439,"915 N OLEANDER ST, GRAND SALINE, TX, 75140","Match","Exact","915 N OLEANDER ST, GRAND SALINE, TX, 75140",42935460,"L"
312440,"915 N PRAIRIE VIEW DR","KANKAKEE","IL",60901,41.1319300930001,-87.898709556,440,"915 N PRAIRIE VIEW DR, KANKAKEE, IL, 60901","Match","Exact","915 N PRAIRIE VIEW DR, KANKAKEE, IL, 60901",98355133,"R"
312441,"915 N WILLETT STREET","MEMPHIS","TX",38107,NA,NA,441,"915 N WILLETT STREET, MEMPHIS, TX, 38107","No_Match",NA,NA,NA,NA
312442,"915 NE 175TH AVE","PORTLAND","OR",97230,45.5295194620001,-122.482943938,442,"915 NE 175TH AVE, PORTLAND, OR, 97230","Match","Exact","915 NE 175TH AVE, PORTLAND, OR, 97230",638567848,"L"
312443,"915 NE 20TH AVENUE","FT LAUDERDALE","FL",33304,26.136583887,-80.119519424,443,"915 NE 20TH AVENUE, FT LAUDERDALE, FL, 33304","Match","Exact","915 NE 20TH AVE, FORT LAUDERDALE, FL, 33304",114726020,"L"
312444,"915 NEW HALL LN SE","ATLANTA","GA",39316,NA,NA,444,"915 NEW HALL LN SE, ATLANTA, GA, 39316","No_Match",NA,NA,NA,NA
312445,"915 NW 1ST AVE H 1002","MIAMI","FL",33136,25.7829453690001,-80.195873611,445,"915 NW 1ST AVE H 1002, MIAMI, FL, 33136","Match","Non_Exact","915 NW 1ST AVE, MIAMI, FL, 33136",116017787,"R"
312446,"915 NW 1ST AVENUE H1206","MIAMI","FL",33136,25.7829453690001,-80.195873611,446,"915 NW 1ST AVENUE H1206, MIAMI, FL, 33136","Match","Non_Exact","915 NW 1ST AVE, MIAMI, FL, 33136",116017787,"R"
312447,"915 NW 4TH STREET","GRESHAM","OR",97030,45.5004361310001,-122.441503703,447,"915 NW 4TH STREET, GRESHAM, OR, 97030","Match","Exact","915 NW 4TH ST, GRESHAM, OR, 97030",157528777,"R"
312448,"915 OASIS PALM CIRCLE SUITE 1303","OCOEE","FL",34761,28.553828519,-81.538721315,448,"915 OASIS PALM CIRCLE SUITE 1303, OCOEE, FL, 34761","Match","Exact","915 OASIS PALM CIR, OCOEE, FL, 34761",650589322,"R"
312449,"915 OLIVE STREET","SAINT LOUIS","MO",63101,38.628874184,-90.19368886,449,"915 OLIVE STREET, SAINT LOUIS, MO, 63101","Match","Exact","915 OLIVE ST, SAINT LOUIS, MO, 63101",107605734,"R"
312450,"915 OMAHA ST","GREENSBORO","NC",27406,36.061846019,-79.78090657,450,"915 OMAHA ST, GREENSBORO, NC, 27406","Match","Exact","915 OMAHA ST, GREENSBORO, NC, 27406",131033789,"L"
312451,"915 PARK AVENUE","SYRACUSE","NY",13204,43.0522204430001,-76.1769570829999,451,"915 PARK AVENUE, SYRACUSE, NY, 13204","Match","Exact","915 PARK AVE, SYRACUSE, NY, 13204",46569771,"L"
312452,"915 PENN AVE 1013","PITTSBURGH","PA",15222,40.4439141240001,-79.997708818,452,"915 PENN AVE 1013, PITTSBURGH, PA, 15222","Match","Exact","915 PENN AVE, PITTSBURGH, PA, 15222",51634957,"L"
312453,"915 PERRELLI STREET","GILROY","CA",95020,37.0045809910001,-121.58447577,453,"915 PERRELLI STREET, GILROY, CA, 95020","Match","Exact","915 PERRELLI ST, GILROY, CA, 95020",122931993,"L"
312454,"915 PINE RIDGE RD","RICHMOND","VA",23226,37.585754708,-77.522149552,454,"915 PINE RIDGE RD, RICHMOND, VA, 23226","Match","Exact","915 PINE RIDGE RD, RICHMOND, VA, 23226",106645583,"R"
312455,"915 POINSETTIA PL UNIT C","VENTURA","CA",93001,34.2801836800001,-119.286671288,455,"915 POINSETTIA PL UNIT C, VENTURA, CA, 93001","Match","Exact","915 POINSETTIA PL, VENTURA, CA, 93001",109951111,"L"
312456,"915 REGAL BLVD","LIVINGSTON","NJ",7039,40.7695010480001,-74.356193736,456,"915 REGAL BLVD, LIVINGSTON, NJ, 7039","Match","Exact","915 REGAL BLVD, LIVINGSTON, NJ, 07039",63476984,"L"
312457,"915 RIVERSAGE DRIVE","RIDGWAY","CO",81432,38.168103941,-107.748749558,457,"915 RIVERSAGE DRIVE, RIDGWAY, CO, 81432","Match","Non_Exact","915 RIVER SAGE DR, RIDGWAY, CO, 81432",648551996,"L"
312458,"915 ROBERT ROSE DRIVE APT 1215","MURFEEBORO","TN",37129,35.853738288,-86.434497199,458,"915 ROBERT ROSE DRIVE APT 1215, MURFEEBORO, TN, 37129","Match","Non_Exact","915 ROBERT ROSE DR, MURFREESBORO, TN, 37129",643086933,"L"
312459,"915 S BERENDO ST UNIT 8","LOS ANGELES","CA",90006,34.0553533620001,-118.294133079,459,"915 S BERENDO ST UNIT 8, LOS ANGELES, CA, 90006","Match","Non_Exact","915 S BERENDO ST, LOS ANGELES, CA, 90006",141605062,"R"
312460,"915 S BRYANT AVE  STE B","EDMOND","OK",73034,NA,NA,460,"915 S BRYANT AVE  STE B, EDMOND, OK, 73034","Tie",NA,NA,NA,NA
312461,"915 S BRYANT AVE STE B","EDMOND","OK",73034,NA,NA,461,"915 S BRYANT AVE STE B, EDMOND, OK, 73034","Tie",NA,NA,NA,NA
312462,"915 S DEER RUN","MOUNT PLEASANT","MI",48858,43.628118531,-84.777296468,462,"915 S DEER RUN, MOUNT PLEASANT, MI, 48858","Match","Exact","915 DEER RUN, MOUNT PLEASANT, MI, 48858",110224075,"R"
312463,"915 S DORT HWY STE B","FLINT","MI",48503,43.0178165340001,-83.6545872619999,463,"915 S DORT HWY STE B, FLINT, MI, 48503","Match","Non_Exact","915 S DORT HWY, FLINT, MI, 48503",69606819,"L"
312464,"915 S JACKSON ST","MONTGOMERY","AL",36104,32.3663339870001,-86.296211715,464,"915 S JACKSON ST, MONTGOMERY, AL, 36104","Match","Exact","915 S JACKSON ST, MONTGOMERY, AL, 36104",1470252,"L"
312465,"915 S RIDGEWAY","CANEY","KS",67333,37.004080259,-95.930073256,465,"915 S RIDGEWAY, CANEY, KS, 67333","Match","Non_Exact","915 S RIDGEWAY ST, CANEY, KS, 67333",13796626,"L"
312466,"915 SE 14TH PLACE","CAPE CORAL","FL",33990,26.6357103290001,-81.9433698729999,466,"915 SE 14TH PLACE, CAPE CORAL, FL, 33990","Match","Exact","915 SE 14TH PL, CAPE CORAL, FL, 33990",118009760,"L"
312467,"915 SE 33RD AVENUE  SUITE B","PORTLAND","OR",97214,45.5163068510001,-122.630947973,467,"915 SE 33RD AVENUE  SUITE B, PORTLAND, OR, 97214","Match","Non_Exact","915 SE 33RD AVE, PORTLAND, OR, 97214",157509798,"R"
312468,"915 SOMERSET AVENUE","POMONA","CA",91767,34.0749293330001,-117.733835106,468,"915 SOMERSET AVENUE, POMONA, CA, 91767","Match","Exact","915 SOMERSET AVE, POMONA, CA, 91767",640417549,"L"
312469,"915 SOUTH PEARL STREET - SUITE 106","DENVER","CO",80113,39.699914898,-104.980417071,469,"915 SOUTH PEARL STREET - SUITE 106, DENVER, CO, 80113","Match","Non_Exact","915 S PEARL ST, DENVER, CO, 80209",177332085,"R"
312470,"915 STABLE GLEN DRIVE","SAN ANTONIO","TX",78245,29.423186054,-98.7061575769999,470,"915 STABLE GLEN DRIVE, SAN ANTONIO, TX, 78245","Match","Exact","915 STABLE GLEN DR, SAN ANTONIO, TX, 78245",619939177,"R"
312471,"915 STATE STREET","ERIE","PA",16501,42.1263121320001,-80.083142858,471,"915 STATE STREET, ERIE, PA, 16501","Match","Exact","915 STATE ST, ERIE, PA, 16501",117494265,"L"
312472,"915 STONEBROOK DRIVE","TEMPLE","TX",76502,31.112833843,-97.4387277769999,472,"915 STONEBROOK DRIVE, TEMPLE, TX, 76502","Match","Exact","915 STONEBROOK DR, TEMPLE, TX, 76502",633780595,"L"
312473,"915 SUNSET LANDING","RIO VISTA","CA",94571,38.1888277690001,-121.711061203,473,"915 SUNSET LANDING, RIO VISTA, CA, 94571","Match","Exact","915 SUNSET LNDG, RIO VISTA, CA, 94571",624800866,"L"
312474,"915 TERNURA LOOP","MILPITAS","CA",95035,37.421588404,-121.909158183,474,"915 TERNURA LOOP, MILPITAS, CA, 95035","Match","Exact","915 TERNURA LP, MILPITAS, CA, 95035",606011423,"L"
312475,"915 TOWNE AVE","LOS ANGELES","CA",90021,34.0353851450001,-118.248766131,475,"915 TOWNE AVE, LOS ANGELES, CA, 90021","Match","Exact","915 TOWNE AVE, LOS ANGELES, CA, 90021",141619422,"R"
312476,"915 TREMONT STREET","DUXBURY","MA",2332,42.0374491100001,-70.6894431809999,476,"915 TREMONT STREET, DUXBURY, MA, 2332","Match","Exact","915 TREMONT ST, DUXBURY, MA, 02332",87436300,"L"
312477,"915 US HWY 224 WEST","GREENWICH","OH",44837,NA,NA,477,"915 US HWY 224 WEST, GREENWICH, OH, 44837","No_Match",NA,NA,NA,NA
312478,"915 US ROUTE ONE","YORK","ME",3909,43.1727912850001,-70.6376747319999,478,"915 US ROUTE ONE, YORK, ME, 3909","Match","Non_Exact","915 US HWY 1, YORK, ME, 03909",636213556,"R"
312479,"915 VOLUNTEER BLVD 2633 DUNFORD HAL","KNOXVILLE","TN",37996,35.956439822,-83.9297979,479,"915 VOLUNTEER BLVD 2633 DUNFORD HAL, KNOXVILLE, TN, 37996","Match","Non_Exact","915 VOLUNTEER BLVD, KNOXVILLE, TN, 37916",42620253,"R"
312480,"915 W CUCHARRAS STREET","COLORADO SPRINGS","CO",80905,38.8334516360001,-104.84133096,480,"915 W CUCHARRAS STREET, COLORADO SPRINGS, CO, 80905","Match","Exact","915 W CUCHARRAS ST, COLORADO SPRINGS, CO, 80905",627781962,"L"
312481,"915 W FOOTHILL BLVD NUM C150","CLAREMONT","CA",91711,NA,NA,481,"915 W FOOTHILL BLVD NUM C150, CLAREMONT, CA, 91711","No_Match",NA,NA,NA,NA
312482,"915 W GRAPE STREET SUITE 704","SAN DIEGO","CA",92101,32.7248199370001,-117.170863359,482,"915 W GRAPE STREET SUITE 704, SAN DIEGO, CA, 92101","Match","Non_Exact","915 W GRAPE ST, SAN DIEGO, CA, 92101",195689942,"L"
312483,"915 W PEACHTREE ST NW UNIT 19106","ATLANTA","GA",30309,NA,NA,483,"915 W PEACHTREE ST NW UNIT 19106, ATLANTA, GA, 30309","Tie",NA,NA,NA,NA
312484,"915 W SAGINAW RD","MAYVILLE","MI",48744,43.336441038,-83.378878551,484,"915 W SAGINAW RD, MAYVILLE, MI, 48744","Match","Exact","915 W SAGINAW RD, MAYVILLE, MI, 48744",647845315,"R"
312485,"915 WESLEY AVE","MUSKEGON","MI",49442,43.2414511160001,-86.2199856619999,485,"915 WESLEY AVE, MUSKEGON, MI, 49442","Match","Exact","915 WESLEY AVE, MUSKEGON, MI, 49442",77654837,"R"
312486,"915 WEST 12TH ST","MOUNT PLEASANT","TX",75455,33.1662929930001,-94.9761299789999,486,"915 WEST 12TH ST, MOUNT PLEASANT, TX, 75455","Match","Exact","915 W 12TH ST, MOUNT PLEASANT, TX, 75455",83219077,"L"
312487,"915 WEST CLINTON DRIVE","FAYETTEVILLE","AR",72701,NA,NA,487,"915 WEST CLINTON DRIVE, FAYETTEVILLE, AR, 72701","No_Match",NA,NA,NA,NA
312488,"915 WEST DICKERSON","BOZEMAN","MT",59715,45.6733146400001,-111.050106498,488,"915 WEST DICKERSON, BOZEMAN, MT, 59715","Match","Non_Exact","915 W DICKERSON ST, BOZEMAN, MT, 59715",163549944,"R"
312489,"915 WEST END AVENUE SUITE 1401","NEW YORK","NY",10025,40.8007959030001,-73.969173788,489,"915 WEST END AVENUE SUITE 1401, NEW YORK, NY, 10025","Match","Exact","915 W END AVE, NEW YORK, NY, 10025",59656786,"L"
312490,"915 WEST HWY 199","SPRINGTOWN","TX",76082,NA,NA,490,"915 WEST HWY 199, SPRINGTOWN, TX, 76082","No_Match",NA,NA,NA,NA
312491,"915 WEST LONG LAKE ROAD","TRAVERSE CITY","MI",49685,44.7029103830001,-85.760705759,491,"915 WEST LONG LAKE ROAD, TRAVERSE CITY, MI, 49685","Match","Exact","915 W LONG LAKE RD, TRAVERSE CITY, MI, 49685",145517013,"L"
312492,"915 WEST MAIN STREET","MURFREESBORO","NC",27855,36.441905562,-77.115305822,492,"915 WEST MAIN STREET, MURFREESBORO, NC, 27855","Match","Exact","915 W MAIN ST, MURFREESBORO, NC, 27855",639709935,"R"
312493,"915 WINONA AVE SW","ROANOKE","VA",24015,37.264981972,-79.958905941,493,"915 WINONA AVE SW, ROANOKE, VA, 24015","Match","Exact","915 WINONA AVE SW, ROANOKE, VA, 24015",62939365,"R"
312494,"915 WINTER ST","SALEM","OR",97301,44.947343297,-123.027802063,494,"915 WINTER ST, SALEM, OR, 97301","Match","Non_Exact","915 WINTER ST NE, SALEM, OR, 97301",156249786,"L"
312495,"915 WOODLAND AVE","NORRISTOWN","PA",19403,40.1614780830001,-75.35233171,495,"915 WOODLAND AVE, NORRISTOWN, PA, 19403","Match","Exact","915 WOODLAND AVE, NORRISTOWN, PA, 19403",135104977,"L"
312496,"915 WOODLAND TRAIL APARTMENT E1","SMYRNA","GA",30080,33.897745334,-84.526280301,496,"915 WOODLAND TRAIL APARTMENT E1, SMYRNA, GA, 30080","Match","Exact","915 WOODLAND TRL, SMYRNA, GA, 30080",624829349,"R"
312497,"915 WYCKOFF AVE","RIDGEWOOD","NY",11385,NA,NA,497,"915 WYCKOFF AVE, RIDGEWOOD, NY, 11385","No_Match",NA,NA,NA,NA
312498,"915 YALE SE","ALBUQUERQUE","NM",87106,35.070323338,-106.622093597,498,"915 YALE SE, ALBUQUERQUE, NM, 87106","Match","Non_Exact","915 YALE BLVD SE, ALBUQUERQUE, NM, 87106",206711015,"R"
312499,"915","NEW YORK","NY",10021,NA,NA,499,"915, NEW YORK, NY, 10021","No_Match",NA,NA,NA,NA
312500,"9150 116TH STREET","RICHMOND HILL","NY",11418,NA,NA,500,"9150 116TH STREET, RICHMOND HILL, NY, 11418","No_Match",NA,NA,NA,NA
