"ID","Address","City","State","Zip","lat","long","id","input_address","match_indicator","match_type","matched_address","tiger_line_id","tiger_side"
236501,"5200 ANTLER COURT","SUWANEE","GA",30024,34.088410212,-84.0882717979999,1,"5200 ANTLER COURT, SUWANEE, GA, 30024","Match","Exact","5200 ANTLER CT, SUWANEE, GA, 30024",88930760,"R"
236502,"5200 BALCONES DRIVE STE 100","AUSTIN","TX",78731,30.3340090340001,-97.7596975549999,2,"5200 BALCONES DRIVE STE 100, AUSTIN, TX, 78731","Match","Exact","5200 BALCONES DR, AUSTIN, TX, 78731",63929276,"L"
236503,"5200 BELSERA CT","RENO","NV",89519,39.4740217070001,-119.829420158,3,"5200 BELSERA CT, RENO, NV, 89519","Match","Exact","5200 BELSERA CT, RENO, NV, 89519",107114771,"L"
236504,"5200 BUCK LAKE ROAD","TALLAHASSEE","FL",32317,30.463512087,-84.188325364,4,"5200 BUCK LAKE ROAD, TALLAHASSEE, FL, 32317","Match","Exact","5200 BUCK LAKE RD, TALLAHASSEE, FL, 32317",82865792,"L"
236505,"5200 CAMP WELFARE RD","WINNSBORO","SC",29055,34.4914718090001,-80.951273541,5,"5200 CAMP WELFARE RD, WINNSBORO, SC, 29055","Match","Non_Exact","5200 CAMP WELFARE RD, WINNSBORO, SC, 29180",40605570,"R"
236506,"5200 CITY PARK DRIVE UNIT 203","LENOIR CITY","TN",37774,35.799208048,-84.2353608289999,6,"5200 CITY PARK DRIVE UNIT 203, LENOIR CITY, TN, 37774","Match","Non_Exact","5200 CITY PARK DR, LENOIR CITY, TN, 37772",610289155,"L"
236507,"5200 CLEVELAND AVE SUITE B","COLUMBUS","OH",43229,40.075945706,-82.9516060609999,7,"5200 CLEVELAND AVE SUITE B, COLUMBUS, OH, 43229","Match","Non_Exact","5200 CLEVELAND AVE, COLUMBUS, OH, 43231",135705882,"L"
236508,"5200 CO RD 13","KANSAS","OH",44841,41.2695415150001,-83.328978777,8,"5200 CO RD 13, KANSAS, OH, 44841","Match","Exact","5200 CO RD 13, KANSAS, OH, 44841",647869850,"R"
236509,"5200 COQUINA KEY DRIVE SE 22C","ST PETERSBURG","FL",33705,27.7214581690001,-82.6279478709999,9,"5200 COQUINA KEY DRIVE SE 22C, ST PETERSBURG, FL, 33705","Match","Exact","5200 COQUINA KEY DR SE, SAINT PETERSBURG, FL, 33705",124714137,"L"
236510,"5200 COUNTY ROAD 13","KANSAS","OH",44841,41.2695415150001,-83.328978777,10,"5200 COUNTY ROAD 13, KANSAS, OH, 44841","Match","Exact","5200 CO RD 13, KANSAS, OH, 44841",647869850,"R"
236511,"5200 CURRY FORD RD APT 104","ORLANDO","FL",32812,28.524246717,-81.319903185,11,"5200 CURRY FORD RD APT 104, ORLANDO, FL, 32812","Match","Exact","5200 CURRY FORD RD, ORLANDO, FL, 32812",638650408,"R"
236512,"5200 CUSTER LANE","FLORENCE","MT",59833,46.6632160660001,-114.066689994,12,"5200 CUSTER LANE, FLORENCE, MT, 59833","Match","Exact","5200 CUSTER LN, FLORENCE, MT, 59833",205277366,"L"
236513,"5200 DALLAS HWY STE 200-295","POWDER SPGS","GA",30127,33.9403677110001,-84.7036749329999,13,"5200 DALLAS HWY STE 200-295, POWDER SPGS, GA, 30127","Match","Exact","5200 DALLAS HWY, POWDER SPGS, GA, 30127",17261711,"L"
236514,"5200 DALLAS HWY SUITE 200 PMB 299","POWDER SPRINGS","GA",30127,33.9403677110001,-84.7036749329999,14,"5200 DALLAS HWY SUITE 200 PMB 299, POWDER SPRINGS, GA, 30127","Match","Exact","5200 DALLAS HWY, POWDER SPGS, GA, 30127",17261711,"L"
236515,"5200 DALLAS HWY SUITE 200-182","POWDER SPRINGS","GA",30127,33.9403677110001,-84.7036749329999,15,"5200 DALLAS HWY SUITE 200-182, POWDER SPRINGS, GA, 30127","Match","Exact","5200 DALLAS HWY, POWDER SPGS, GA, 30127",17261711,"L"
236516,"5200 FAN PALM AVE","COCOA","FL",32927,28.436724611,-80.822937558,16,"5200 FAN PALM AVE, COCOA, FL, 32927","Match","Exact","5200 FAN PALM AVE, COCOA, FL, 32927",93954373,"R"
236517,"5200 GREYSTONE SUMMIT DR STE 905","COLUMBUS","GA",31909,32.5481115160001,-84.892438838,17,"5200 GREYSTONE SUMMIT DR STE 905, COLUMBUS, GA, 31909","Match","Exact","5200 GREYSTONE SUMMIT DR, COLUMBUS, GA, 31909",624955489,"R"
236518,"5200 GREYSTONE WAY","BIRMINGHAM","AL",35242,33.436721413,-86.646933895,18,"5200 GREYSTONE WAY, BIRMINGHAM, AL, 35242","Match","Exact","5200 GREYSTONE WAY, BIRMINGHAM, AL, 35242",640543651,"R"
236519,"5200 HAMILTON RICHMOND ROAD","OXFORD","OH",45056,39.5137574730001,-84.667703065,19,"5200 HAMILTON RICHMOND ROAD, OXFORD, OH, 45056","Match","Exact","5200 HAMILTON RICHMOND RD, OXFORD, OH, 45056",113794419,"L"
236520,"5200 HOOPER DR","WICHITA FALLS","TX",76306,33.980033914,-98.52818775,20,"5200 HOOPER DR, WICHITA FALLS, TX, 76306","Match","Exact","5200 HOOPER DR, WICHITA FALLS, TX, 76306",169850387,"L"
236521,"5200 HWY 285 REAR","ANTONITO","CO",81120,NA,NA,21,"5200 HWY 285 REAR, ANTONITO, CO, 81120","No_Match",NA,NA,NA,NA
236522,"5200 KIMBERLY LN N","PLYMOUTH","MN",55446,45.0469604400001,-93.501572354,22,"5200 KIMBERLY LN N, PLYMOUTH, MN, 55446","Match","Exact","5200 KIMBERLY LN N, PLYMOUTH, MN, 55446",641215324,"R"
236523,"5200 LEWIS RD APT 61","SANDSTON","VA",23150,37.5161991750001,-77.34066673,23,"5200 LEWIS RD APT 61, SANDSTON, VA, 23150","Match","Exact","5200 LEWIS RD, SANDSTON, VA, 23150",106664741,"R"
236524,"5200 LIVERPOOL","HOBART","IN",46342,NA,NA,24,"5200 LIVERPOOL, HOBART, IN, 46342","No_Match",NA,NA,NA,NA
236525,"5200 LUCAS VALLEY ROAD","NICASIO","CA",94946,38.0496435490001,-122.643785713,25,"5200 LUCAS VALLEY ROAD, NICASIO, CA, 94946","Match","Exact","5200 LUCAS VALLEY RD, NICASIO, CA, 94946",651435843,"L"
236526,"5200 MEADOWCREEK DR / APT 2099","DALLAS","TX",75248,32.9654967340001,-96.791364169,26,"5200 MEADOWCREEK DR / APT 2099, DALLAS, TX, 75248","Match","Exact","5200 MEADOWCREEK DR, DALLAS, TX, 75248",102900304,"L"
236527,"5200 MIDLOTHIAN TURNPIKE","RICHMOND","VA",23225,37.507830321,-77.4930567069999,27,"5200 MIDLOTHIAN TURNPIKE, RICHMOND, VA, 23225","Match","Exact","5200 MIDLOTHIAN TPKE, RICHMOND, VA, 23225",201536820,"R"
236528,"5200 MONTROSE CIRCLE","NORMAN","OK",73072,35.222360344,-97.51881377,28,"5200 MONTROSE CIRCLE, NORMAN, OK, 73072","Match","Exact","5200 MONTROSE CIR, NORMAN, OK, 73072",99919323,"R"
236529,"5200 N FLAGLER DR APT 1701","WEST PALM BEACH","FL",33407,26.756974987,-80.052485142,29,"5200 N FLAGLER DR APT 1701, WEST PALM BEACH, FL, 33407","Match","Non_Exact","5200 N FLAGLER DR, WEST PALM BEACH, FL, 33407",115277129,"R"
236530,"5200 N LAKE RD SCH NAT SCI UCMERCED","MERCED","CA",95343,37.3520524040001,-120.432464479,30,"5200 N LAKE RD SCH NAT SCI UCMERCED, MERCED, CA, 95343","Match","Exact","5200 LAKE RD, MERCED, CA, 95343",125335376,"R"
236531,"5200 N LISA LN","LAS VEGAS","NV",89149,36.255766672,-115.276648286,31,"5200 N LISA LN, LAS VEGAS, NV, 89149","Match","Exact","5200 N LISA LN, LAS VEGAS, NV, 89149",201857167,"L"
236532,"5200 N RICHMOND RD RT 31","RINGWOOD","IL",60072,42.3972671010001,-88.2981917279999,32,"5200 N RICHMOND RD RT 31, RINGWOOD, IL, 60072","Match","Exact","5200 RICHMOND RD, RINGWOOD, IL, 60072",119816016,"L"
236533,"5200 NEOSHO AVENUE","ROELAND PARK","KS",66205,39.034820843,-94.6304971229999,33,"5200 NEOSHO AVENUE, ROELAND PARK, KS, 66205","Match","Exact","5200 NEOSHO AVE, ROELAND PARK, KS, 66205",91274217,"R"
236534,"5200 NW 31ST AVE APT K185","FORT LAUDERDALE","FL",33309,26.1886805840001,-80.187411082,34,"5200 NW 31ST AVE APT K185, FORT LAUDERDALE, FL, 33309","Match","Non_Exact","5200 NW 31ST AVE, FORT LAUDERDALE, FL, 33309",640917307,"L"
236535,"5200 NW 99TH AVE","SUNRISE","FL",33351,26.188730019,-80.280523569,35,"5200 NW 99TH AVE, SUNRISE, FL, 33351","Match","Exact","5200 NW 99TH AVE, SUNRISE, FL, 33351",114776178,"R"
236536,"5200 NW WISK FERN CIRCLE","PORT ST LUCIE","FL",34986,27.3604484850001,-80.382596567,36,"5200 NW WISK FERN CIRCLE, PORT ST LUCIE, FL, 34986","Match","Exact","5200 NW WISK FERN CIR, PORT ST LUCIE, FL, 34986",619743774,"L"
236537,"5200 PETERS ROAD","TIPP CITY","OH",45371,39.961292685,-84.2279948629999,37,"5200 PETERS ROAD, TIPP CITY, OH, 45371","Match","Exact","5200 PETERS RD, TIPP CITY, OH, 45371",207644727,"R"
236538,"5200 PLEASANT VALLEY RD","NASHPORT","OH",43830,40.0239693720001,-82.1416671439999,38,"5200 PLEASANT VALLEY RD, NASHPORT, OH, 43830","Match","Exact","5200 PLEASANT VALLEY RD, NASHPORT, OH, 43830",45599190,"R"
236539,"5200 QUAKER DRIVE","SUFFOLK","VA",23437,36.6580943270001,-76.721298587,39,"5200 QUAKER DRIVE, SUFFOLK, VA, 23437","Match","Exact","5200 QUAKER DR, SUFFOLK, VA, 23437",122224876,"L"
236540,"5200 QUINCY STREET APT 102","BLADENSBURG","MD",20710,38.937115406,-76.930058859,40,"5200 QUINCY STREET APT 102, BLADENSBURG, MD, 20710","Match","Exact","5200 QUINCY ST, BLADENSBURG, MD, 20710",76306656,"L"
236541,"5200 RAYMOND AVE","TUPELO","MS",38801,34.192677539,-88.7199247839999,41,"5200 RAYMOND AVE, TUPELO, MS, 38801","Match","Exact","5200 RAYMOND AVE, TUPELO, MS, 38801",90659716,"R"
236542,"5200 S BLACKSTONE AVE  APT 1204","CHICAGO","IL",60615,41.8008784040001,-87.5904779099999,42,"5200 S BLACKSTONE AVE  APT 1204, CHICAGO, IL, 60615","Match","Non_Exact","5200 S BLACKSTONE AVE, CHICAGO, IL, 60615",111771724,"R"
236543,"5200 S BLACKSTONE AVE APT 301","CHICAGO","IL",60615,41.8008784040001,-87.5904779099999,43,"5200 S BLACKSTONE AVE APT 301, CHICAGO, IL, 60615","Match","Non_Exact","5200 S BLACKSTONE AVE, CHICAGO, IL, 60615",111771724,"R"
236544,"5200 S GREENWOOD AVE","CHICAGO","IL",60615,41.8007738910001,-87.599775866,44,"5200 S GREENWOOD AVE, CHICAGO, IL, 60615","Match","Exact","5200 S GREENWOOD AVE, CHICAGO, IL, 60615",111771645,"R"
236545,"5200 S INGLESIDE   APT 3","CHICAGO","IL",60615,NA,NA,45,"5200 S INGLESIDE   APT 3, CHICAGO, IL, 60615","No_Match",NA,NA,NA,NA
236546,"5200 S ULSTER STREET APT 1609","GREENWOOD VILLAGE","CO",80111,39.6224746510001,-104.894600656,46,"5200 S ULSTER STREET APT 1609, GREENWOOD VILLAGE, CO, 80111","Match","Non_Exact","5200 S ULSTER ST, GREENWOOD VILLAGE, CO, 80111",634909363,"L"
236547,"5200 SAUFLEY FIELD ROAD","PENSACOLA","FL",32526,30.4614781830001,-87.3174789779999,47,"5200 SAUFLEY FIELD ROAD, PENSACOLA, FL, 32526","Match","Exact","5200 SAUFLEY FIELD RD, PENSACOLA, FL, 32526",93212023,"R"
236548,"5200 SAVANNAH HWY","RAVENEL","SC",29470,NA,NA,48,"5200 SAVANNAH HWY, RAVENEL, SC, 29470","No_Match",NA,NA,NA,NA
236549,"5200 SHREWSBURY AVENUE","SHREWSBURY","MO",63119,38.586574162,-90.3277576419999,49,"5200 SHREWSBURY AVENUE, SHREWSBURY, MO, 63119","Match","Non_Exact","5200 SHREWSBURY AVE, WEBSTER GROVES, MO, 63119",628732571,"L"
236550,"5200 SILCHESTER LN","CHARLOTTE","NC",28215,35.273131203,-80.679053457,50,"5200 SILCHESTER LN, CHARLOTTE, NC, 28215","Match","Exact","5200 SILCHESTER LN, CHARLOTTE, NC, 28215",70513147,"L"
236551,"5200 SOUTH SWEETBRIAR CIRCLE","SIOUX FALLS","SD",57108,43.4958732330001,-96.730441769,51,"5200 SOUTH SWEETBRIAR CIRCLE, SIOUX FALLS, SD, 57108","Match","Exact","5200 S SWEETBRIAR CIR, SIOUX FALLS, SD, 57108",176319066,"R"
236552,"5200 STARKVILLE DRIVE","MARRERO","LA",70072,NA,NA,52,"5200 STARKVILLE DRIVE, MARRERO, LA, 70072","No_Match",NA,NA,NA,NA
236553,"5200 STONEHAVEN DR","YORBA LINDA","CA",92887,33.887211972,-117.75423742,53,"5200 STONEHAVEN DR, YORBA LINDA, CA, 92887","Match","Exact","5200 STONEHAVEN DR, YORBA LINDA, CA, 92887",651725937,"R"
236554,"5200 SW MEADOW RD STE 150","LAKE OSWEGO","OR",97035,NA,NA,54,"5200 SW MEADOW RD STE 150, LAKE OSWEGO, OR, 97035","No_Match",NA,NA,NA,NA
236555,"5200 SW MEADOWS ROAD SUITE 150","LAKE OSWEGO","OR",97035,45.417209058,-122.729239993,55,"5200 SW MEADOWS ROAD SUITE 150, LAKE OSWEGO, OR, 97035","Match","Exact","5200 MEADOWS RD, LAKE OSWEGO, OR, 97035",640615393,"R"
236556,"5200 TAFT ROAD","ALGONAC","MI",48001,42.625453173,-82.582345689,56,"5200 TAFT ROAD, ALGONAC, MI, 48001","Match","Exact","5200 TAFT RD, ALGONAC, MI, 48001",110961696,"R"
236557,"5200 TAFT ROAD","CLAY","MI",48001,42.625453173,-82.582345689,57,"5200 TAFT ROAD, CLAY, MI, 48001","Match","Exact","5200 TAFT RD, CLAY, MI, 48001",110961696,"R"
236558,"5200 TOMCAT TRAIL","ORANGE","TX",77632,30.197456162,-93.885064272,58,"5200 TOMCAT TRAIL, ORANGE, TX, 77632","Match","Exact","5200 TOMCAT TRL, ORANGE, TX, 77632",624994701,"L"
236559,"5200 TURTLE CREEK LN","SARASOTA","FL",34232,27.317694058,-82.4670644029999,59,"5200 TURTLE CREEK LN, SARASOTA, FL, 34232","Match","Exact","5200 TURTLE CREEK LN, SARASOTA, FL, 34232",16372498,"L"
236560,"5200 VINELAND ROAD","ORLANDO","FL",32811,NA,NA,60,"5200 VINELAND ROAD, ORLANDO, FL, 32811","No_Match",NA,NA,NA,NA
236561,"5200 VISTA VERDE DRIVE","ARLINGTON","TX",76017,32.6626127380001,-97.129070217,61,"5200 VISTA VERDE DRIVE, ARLINGTON, TX, 76017","Match","Exact","5200 VISTA VERDE DR, ARLINGTON, TX, 76017",101954652,"R"
236562,"5200 W JARVIS AVENUE","SKOKIE","IL",60077,42.0154864840001,-87.757845295,62,"5200 W JARVIS AVENUE, SKOKIE, IL, 60077","Match","Exact","5200 JARVIS AVE, SKOKIE, IL, 60077",642124369,"R"
236563,"5200 W MAPLE GROVE RD","ELLETTSVILLE","IN",47429,39.244872274,-86.603556902,63,"5200 W MAPLE GROVE RD, ELLETTSVILLE, IN, 47429","Match","Exact","5200 W MAPLE GROVE RD, ELLETTSVILLE, IN, 47429",42328483,"R"
236564,"5200 W MILL RD","EVANSVILLE","IN",47720,38.0362465850001,-87.639019783,64,"5200 W MILL RD, EVANSVILLE, IN, 47720","Match","Exact","5200 W MILL RD, EVANSVILLE, IN, 47720",635873091,"R"
236565,"5200 W MSAPLE GROVE RD","ELLETTSVILLE","IN",47429,NA,NA,65,"5200 W MSAPLE GROVE RD, ELLETTSVILLE, IN, 47429","No_Match",NA,NA,NA,NA
236566,"5200 WHIPPORWILL DRIVE","KALAMAZII","MI",49009,42.1975081370001,-85.6518346139999,66,"5200 WHIPPORWILL DRIVE, KALAMAZII, MI, 49009","Match","Non_Exact","5200 WHIPPOORWILL DR, KALAMAZOO, MI, 49009",12225289,"R"
236567,"5200 WILLSON ROAD SUITE 150","EDINA","MN",55424,44.91002244,-93.348527883,67,"5200 WILLSON ROAD SUITE 150, EDINA, MN, 55424","Match","Exact","5200 WILLSON RD, EDINA, MN, 55424",43833975,"R"
236568,"5200 WILSHIRE BLVD 382","LOS ANGELES","CA",90036,34.0621544810001,-118.342986374,68,"5200 WILSHIRE BLVD 382, LOS ANGELES, CA, 90036","Match","Exact","5200 WILSHIRE BLVD, LOS ANGELES, CA, 90036",141600072,"L"
236569,"5200 WINDHAVEN PKWY APT 8101","THE COLONY","TX",75056,33.0620011230001,-96.8789846239999,69,"5200 WINDHAVEN PKWY APT 8101, THE COLONY, TX, 75056","Match","Exact","5200 WINDHAVEN PKWY, THE COLONY, TX, 75056",641486258,"R"
236570,"5200 WINDHAVEN PRKWY APT 4303","THE COLONY","TX",75056,33.0620011230001,-96.8789846239999,70,"5200 WINDHAVEN PRKWY APT 4303, THE COLONY, TX, 75056","Match","Exact","5200 WINDHAVEN PKWY, THE COLONY, TX, 75056",641486258,"R"
236571,"52005 BATES ROAD","WAKEMAN","OH",44889,41.2760602650001,-82.325567151,71,"52005 BATES ROAD, WAKEMAN, OH, 44889","Match","Exact","52005 BATES RD, WAKEMAN, OH, 44889",55448678,"L"
236572,"5201 3RD STREET","WHITEHALL","PA",18052,40.690221057,-75.50964823,72,"5201 3RD STREET, WHITEHALL, PA, 18052","Match","Exact","5201 3RD ST, WHITEHALL, PA, 18052",80757213,"R"
236573,"5201 A MUSSETTER RD","IJAMSVILLE","MD",21754,39.377589668,-77.3083845479999,73,"5201 A MUSSETTER RD, IJAMSVILLE, MD, 21754","Match","Exact","5201 MUSSETTER RD, IJAMSVILLE, MD, 21754",60731119,"R"
236574,"5201 AMES STREET NE","WASHINGTON","DC",20019,38.8907763450001,-76.927810683,74,"5201 AMES STREET NE, WASHINGTON, DC, 20019","Match","Exact","5201 AMES ST NE, WASHINGTON, DC, 20019",76234066,"R"
236575,"5201 BELLA VISTA DRIVE","LONGMONT","CO",80503,40.1383223490001,-105.16175027,75,"5201 BELLA VISTA DRIVE, LONGMONT, CO, 80503","Match","Exact","5201 BELLA VISTA DR, LONGMONT, CO, 80503",188203138,"R"
236576,"5201 BLACKHAWK DRIVE","PLANO","TX",75093,33.022249517,-96.8039684569999,76,"5201 BLACKHAWK DRIVE, PLANO, TX, 75093","Match","Exact","5201 BLACKHAWK DR, PLANO, TX, 75093",210473597,"L"
236577,"5201 BLVD EAST","WEST NEW YORK","NJ",7093,NA,NA,77,"5201 BLVD EAST, WEST NEW YORK, NJ, 7093","No_Match",NA,NA,NA,NA
236578,"5201 BROAD STREET","PITTSBURGH","PA",15224,40.4660691,-79.9396012619999,78,"5201 BROAD STREET, PITTSBURGH, PA, 15224","Match","Exact","5201 BROAD ST, PITTSBURGH, PA, 15224",51644326,"L"
236579,"5201 CABRETTA DR","MOSELEY","VA",23120,37.430506844,-77.725083422,79,"5201 CABRETTA DR, MOSELEY, VA, 23120","Match","Exact","5201 CABRETTA DR, MOSELEY, VA, 23120",627139917,"L"
236580,"5201 CANNES COURT","ALEXANDRIA","VA",22315,38.7682815530001,-77.126489793,80,"5201 CANNES COURT, ALEXANDRIA, VA, 22315","Match","Exact","5201 CANNES CT, ALEXANDRIA, VA, 22315",76017404,"R"
236581,"5201 CIDER MILL LANE 2B","INDIANAPOLIS","IN",46226,39.8480958810001,-86.0425367509999,81,"5201 CIDER MILL LANE 2B, INDIANAPOLIS, IN, 46226","Match","Exact","5201 CIDER MILL LN, INDIANAPOLIS, IN, 46226",108052526,"R"
236582,"5201 CORVET WAY","SACRAMENTO","CA",95823,38.506138691,-121.444398166,82,"5201 CORVET WAY, SACRAMENTO, CA, 95823","Match","Exact","5201 CORVET WAY, SACRAMENTO, CA, 95823",133376858,"L"
236583,"5201 E LUDLOW DRIVE","SCOTTSDALE","AZ",85254,33.612275507,-111.969031492,83,"5201 E LUDLOW DRIVE, SCOTTSDALE, AZ, 85254","Match","Exact","5201 E LUDLOW DR, SCOTTSDALE, AZ, 85254",128187705,"R"
236584,"5201 E US HWY 36","AVON","IN",46123,39.762251142,-86.43445516,84,"5201 E US HWY 36, AVON, IN, 46123","Match","Exact","5201 US HWY 36, AVON, IN, 46123",89212450,"R"
236585,"5201 EAST 53RD STREET NORTH","KECHI","KS",67067,37.781353648,-97.273640267,85,"5201 EAST 53RD STREET NORTH, KECHI, KS, 67067","Match","Exact","5201 E 53RD ST N, KECHI, KS, 67067",647577409,"R"
236586,"5201 EDEN AVE STE 250","EDINA","MN",55436,44.9091025810001,-93.353934453,86,"5201 EDEN AVE STE 250, EDINA, MN, 55436","Match","Exact","5201 EDEN AVE, EDINA, MN, 55436",637162690,"L"
236587,"5201 FAIRINGTON VILLAGE DR","STONECREST","GA",30058,33.6991823770001,-84.1538205379999,87,"5201 FAIRINGTON VILLAGE DR, STONECREST, GA, 30058","Match","Non_Exact","5201 FAIRINGTON VILLAGE DR, STONECREST, GA, 30038",23414326,"L"
236588,"5201 FIELDVIEW COURT","ORLANDO","FL",32819,28.481693781,-81.507492649,88,"5201 FIELDVIEW COURT, ORLANDO, FL, 32819","Match","Exact","5201 FIELDVIEW CT, ORLANDO, FL, 32819",94271982,"R"
236589,"5201 FRESNO ST","FORT SMITH","AR",72903,35.3503502360001,-94.37489622,89,"5201 FRESNO ST, FORT SMITH, AR, 72903","Match","Exact","5201 FRESNO ST, FORT SMITH, AR, 72903",56104755,"L"
236590,"5201 GEYER SPRINGS RD / APT 1045","LITTLE ROCK","AR",72209,34.702442605,-92.342746833,90,"5201 GEYER SPRINGS RD / APT 1045, LITTLE ROCK, AR, 72209","Match","Exact","5201 GEYER SPRINGS RD, LITTLE ROCK, AR, 72209",83512047,"L"
236591,"5201 GREAT AMERICA PARKWAY STE 320","SANTA CLARA","CA",95054,NA,NA,91,"5201 GREAT AMERICA PARKWAY STE 320, SANTA CLARA, CA, 95054","No_Match",NA,NA,NA,NA
236592,"5201 GREAT AMERICA PARKWAY-STE 426","SANTA CLARA","CA",95054,NA,NA,92,"5201 GREAT AMERICA PARKWAY-STE 426, SANTA CLARA, CA, 95054","No_Match",NA,NA,NA,NA
236593,"5201 GREENLEAF LN","SOUTH BEND","IN",46619,41.674305175,-86.320070777,93,"5201 GREENLEAF LN, SOUTH BEND, IN, 46619","Match","Exact","5201 GREENLEAF LN, SOUTH BEND, IN, 46619",8055011,"R"
236594,"5201 GREYFIELD CIR","VALDOSTA","GA",31605,30.892799134,-83.276075894,94,"5201 GREYFIELD CIR, VALDOSTA, GA, 31605","Match","Exact","5201 GREYFIELD CIR, VALDOSTA, GA, 31605",623926086,"L"
236595,"5201 HAYES STREET NE","WASHINGTON","DC",20019,38.899740362,-76.9265139359999,95,"5201 HAYES STREET NE, WASHINGTON, DC, 20019","Match","Exact","5201 HAYES ST NE, WASHINGTON, DC, 20019",76233980,"R"
236596,"5201 HOLIDAY LANE","NORTH RICHLAND HILLS","TX",76180,32.8427358650001,-97.2278850339999,96,"5201 HOLIDAY LANE, NORTH RICHLAND HILLS, TX, 76180","Match","Exact","5201 HOLIDAY LN, NORTH RICHLAND HILLS, TX, 76180",101864844,"L"
236597,"5201 HOLIDAY LANE","NORTH RICHLAND HILLS","TX",76182,32.8427358650001,-97.2278850339999,97,"5201 HOLIDAY LANE, NORTH RICHLAND HILLS, TX, 76182","Match","Non_Exact","5201 HOLIDAY LN, NORTH RICHLAND HILLS, TX, 76180",101864844,"L"
236598,"5201 LAKELAND BLVD  APT 92","FLOWOOD","MS",39232,32.344096602,-90.044197517,98,"5201 LAKELAND BLVD  APT 92, FLOWOOD, MS, 39232","Match","Exact","5201 LAKELAND BLVD, FLOWOOD, MS, 39232",612534705,"L"
236599,"5201 LAKELAND BLVD APT 140","FLOWOOD","MS",39232,32.344096602,-90.044197517,99,"5201 LAKELAND BLVD APT 140, FLOWOOD, MS, 39232","Match","Exact","5201 LAKELAND BLVD, FLOWOOD, MS, 39232",612534705,"L"
236600,"5201 LLOYD STREET","BRISTOL","PA",19007,40.116018222,-74.856004548,100,"5201 LLOYD STREET, BRISTOL, PA, 19007","Match","Exact","5201 LLOYD ST, BRISTOL, PA, 19007",134716985,"R"
236601,"5201 MEMORIAL DRIVE 601","HOUSTON","TX",77007,29.762350789,-95.4114773639999,101,"5201 MEMORIAL DRIVE 601, HOUSTON, TX, 77007","Match","Exact","5201 MEMORIAL DR, HOUSTON, TX, 77007",653859170,"L"
236602,"5201 MITCHELLDALE STREET SUITE B1","HOUSTON","TX",77092,29.813761427,-95.466270751,102,"5201 MITCHELLDALE STREET SUITE B1, HOUSTON, TX, 77092","Match","Exact","5201 MITCHELLDALE ST, HOUSTON, TX, 77092",96639658,"R"
236603,"5201 OVERLOOK DR","BLOOMINGTON","MN",55437,44.7995291340001,-93.346451668,103,"5201 OVERLOOK DR, BLOOMINGTON, MN, 55437","Match","Exact","5201 OVERLOOK DR, BLOOMINGTON, MN, 55437",43837098,"R"
236604,"5201 PARTRIDGE ROAD","FORT WORTH","TX",76132,32.6727801850001,-97.393325401,104,"5201 PARTRIDGE ROAD, FORT WORTH, TX, 76132","Match","Exact","5201 PARTRIDGE RD, FORT WORTH, TX, 76132",101882239,"L"
236605,"5201 PERIDOT PARKWAY","STOCKBRIDGE","GA",30281,33.5459054470001,-84.272446367,105,"5201 PERIDOT PARKWAY, STOCKBRIDGE, GA, 30281","Match","Exact","5201 PERIDOT PKWY, STOCKBRIDGE, GA, 30281",210420724,"R"
236606,"5201 RAVENSWOOD ROAD / SUITE 118","FT. LAUDERDALE","FL",33312,26.058652097,-80.168424718,106,"5201 RAVENSWOOD ROAD / SUITE 118, FT. LAUDERDALE, FL, 33312","Match","Exact","5201 RAVENSWOOD RD, FORT LAUDERDALE, FL, 33312",629668990,"R"
236607,"5201 ROSS ROAD","DEL VALLE","TX",78617,30.1799415420001,-97.613972259,107,"5201 ROSS ROAD, DEL VALLE, TX, 78617","Match","Exact","5201 ROSS RD, DEL VALLE, TX, 78617",605207311,"L"
236608,"5201 S CLEAR CREEK RD STE C","KILLEEN","TX",76549,31.0882520490001,-97.809371638,108,"5201 S CLEAR CREEK RD STE C, KILLEEN, TX, 76549","Match","Non_Exact","5201 S CLEAR CREEK RD, KILLEEN, TX, 76549",637930460,"R"
236609,"5201 S CORNELL  11E","CHICAGO","IL",60615,NA,NA,109,"5201 S CORNELL  11E, CHICAGO, IL, 60615","No_Match",NA,NA,NA,NA
236610,"5201 S CORNELL 11E","CHICAGO","IL",60615,NA,NA,110,"5201 S CORNELL 11E, CHICAGO, IL, 60615","No_Match",NA,NA,NA,NA
236611,"5201 S HIGHWAY 81","CHICKASHA","OK",73018,NA,NA,111,"5201 S HIGHWAY 81, CHICKASHA, OK, 73018","No_Match",NA,NA,NA,NA
236612,"5201 S OAK PARK AVENUE","CHICAGO","IL",60638,41.7975710950001,-87.7917172149999,112,"5201 S OAK PARK AVENUE, CHICAGO, IL, 60638","Match","Exact","5201 S OAK PARK AVE, CHICAGO, IL, 60638",111796485,"L"
236613,"5201 SAINT IMIER DR","FRIDLEY","MN",55421,45.0625893930001,-93.229006273,113,"5201 SAINT IMIER DR, FRIDLEY, MN, 55421","Match","Non_Exact","5201 ST IMIER DR NE, FRIDLEY, MN, 55421",97491012,"R"
236614,"5201 SAINT JOHNS ROAD","GREENVILLE","IN",47124,38.348949974,-86.023507501,114,"5201 SAINT JOHNS ROAD, GREENVILLE, IN, 47124","Match","Exact","5201 SAINT JOHNS RD, GREENVILLE, IN, 47124",89543033,"L"
236615,"5201 SOLEDAD MOUNTAIN ROAD","SAN DIEGO","CA",92109,32.814486383,-117.233291898,115,"5201 SOLEDAD MOUNTAIN ROAD, SAN DIEGO, CA, 92109","Match","Exact","5201 SOLEDAD MOUNTAIN RD, SAN DIEGO, CA, 92109",195303062,"R"
236616,"5201 SOUTH MURRAY PARK LANE","MURRAY","UT",84107,40.6571001780001,-111.886221683,116,"5201 SOUTH MURRAY PARK LANE, MURRAY, UT, 84107","Match","Non_Exact","5201 MURRAY PARK LN, MURRAY, UT, 84107",639874280,"L"
236617,"5201 SOUTHWIND RD","GREENSBORO","NC",27455,36.1461047980001,-79.8287228309999,117,"5201 SOUTHWIND RD, GREENSBORO, NC, 27455","Match","Exact","5201 SOUTHWIND RD, GREENSBORO, NC, 27455",131053845,"R"
236618,"5201 STATE HWY 6","CISCO","TX",76437,32.411865877,-98.987101126,118,"5201 STATE HWY 6, CISCO, TX, 76437","Match","Exact","5201 STATE HWY 6, CISCO, TX, 76437",158683682,"R"
236619,"5201 SW 199 AVE","SOUTHWEST RANCHES","FL",33332,26.054570321,-80.414829921,119,"5201 SW 199 AVE, SOUTHWEST RANCHES, FL, 33332","Match","Exact","5201 SW 199TH AVE, SOUTHWEST RANCHES, FL, 33332",644705123,"R"
236620,"5201 SW BLAIREMONT ROAD","BENTONVILLE","AR",72713,36.322311106,-94.223409471,120,"5201 SW BLAIREMONT ROAD, BENTONVILLE, AR, 72713","Match","Non_Exact","5201 SW BLAIRE MONT RD, BENTONVILLE, AR, 72713",47882508,"L"
236621,"5201 SW WESTGATE DRIVE","PORTLAND","OR",97221,45.510355863,-122.731958147,121,"5201 SW WESTGATE DRIVE, PORTLAND, OR, 97221","Match","Exact","5201 SW WESTGATE DR, PORTLAND, OR, 97221",157604435,"R"
236622,"5201 TERNER WAY NO 305","SAN JOSE","CA",95136,37.2563354500001,-121.865071391,122,"5201 TERNER WAY NO 305, SAN JOSE, CA, 95136","Match","Non_Exact","5201 TERNER WAY, SAN JOSE, CA, 95136",123017816,"R"
236623,"5201 TRANSIT ROAD","DEPEW","NY",14043,42.8961284910001,-78.69691941,123,"5201 TRANSIT ROAD, DEPEW, NY, 14043","Match","Exact","5201 TRANSIT RD, DEPEW, NY, 14043",48307631,"R"
236624,"5201 UNIVERSITY BLVD  KL261","LAREDO","TX",78041,27.573765291,-99.4326024059999,124,"5201 UNIVERSITY BLVD  KL261, LAREDO, TX, 78041","Match","Exact","5201 UNIVERSITY BLVD, LAREDO, TX, 78041",653215671,"L"
236625,"5201 W 16TH STREET","INDIANAPOLIS","IN",46224,39.7872989150001,-86.248646123,125,"5201 W 16TH STREET, INDIANAPOLIS, IN, 46224","Match","Exact","5201 W 16TH ST, INDIANAPOLIS, IN, 46224",107978638,"L"
236626,"5201 W LAUREL ST","TAMPA","FL",33607,27.9560955050001,-82.5357937429999,126,"5201 W LAUREL ST, TAMPA, FL, 33607","Match","Exact","5201 W LAUREL ST, TAMPA, FL, 33607",641415636,"R"
236627,"5201 WALNUT AVE","LONG BEACH","CA",90805,33.8511243360001,-118.173560212,127,"5201 WALNUT AVE, LONG BEACH, CA, 90805","Match","Exact","5201 WALNUT AVE, LONG BEACH, CA, 90805",142768263,"L"
236628,"5201 WHITE SETTLEMENT ROAD","FORT WORTH","TX",76114,32.7600386460001,-97.39895036,128,"5201 WHITE SETTLEMENT ROAD, FORT WORTH, TX, 76114","Match","Exact","5201 WHITE SETTLEMENT RD, FORT WORTH, TX, 76114",101880420,"L"
236629,"5201 WILLIAM STREET","LANCASTER","NY",14086,NA,NA,129,"5201 WILLIAM STREET, LANCASTER, NY, 14086","No_Match",NA,NA,NA,NA
236630,"52019 N FOREPAUGH PK RD","WICKENBURG","AZ",85390,NA,NA,130,"52019 N FOREPAUGH PK RD, WICKENBURG, AZ, 85390","No_Match",NA,NA,NA,NA
236631,"5202 25TH AVE SOUTH","GULFPORT","FL",33707,27.745823848,-82.703916814,131,"5202 25TH AVE SOUTH, GULFPORT, FL, 33707","Match","Exact","5202 25TH AVE S, GULFPORT, FL, 33707",124709069,"L"
236632,"5202 BROADWAY ST 642","PEARLAND","TX",77581,NA,NA,132,"5202 BROADWAY ST 642, PEARLAND, TX, 77581","No_Match",NA,NA,NA,NA
236633,"5202 BROOKWOOD LANE","CRESTVIEW","FL",32539,30.7506946020001,-86.4733694939999,133,"5202 BROOKWOOD LANE, CRESTVIEW, FL, 32539","Match","Exact","5202 BROOKWOOD LN, CRESTVIEW, FL, 32539",74420059,"L"
236634,"5202 CEDAR LANE","COLUMBIA","MD",21044,39.2308415360001,-76.8899317309999,134,"5202 CEDAR LANE, COLUMBIA, MD, 21044","Match","Exact","5202 CEDAR LN, COLUMBIA, MD, 21044",158940090,"R"
236635,"5202 COMPASS LINK       APT 2507","IRVING","TX",75039,32.864419465,-96.9355971589999,135,"5202 COMPASS LINK       APT 2507, IRVING, TX, 75039","Match","Non_Exact","5202 COMPASS LINK, IRVING, TX, 75038",103279184,"L"
236636,"5202 DARTMOOR CT","LANHAM","MD",20706,38.9619910960001,-76.849758972,136,"5202 DARTMOOR CT, LANHAM, MD, 20706","Match","Exact","5202 DARTMOOR CT, LANHAM, MD, 20706",76334038,"R"
236637,"5202 HARVESTDALE DRIVE","MASON","OH",45040,39.3642589350001,-84.330788523,137,"5202 HARVESTDALE DRIVE, MASON, OH, 45040","Match","Exact","5202 HARVESTDALE DR, MASON, OH, 45040",159031077,"L"
236638,"5202 INDIANA AVE","LUBBOCK","TX",79493,33.5468682380001,-101.887760002,138,"5202 INDIANA AVE, LUBBOCK, TX, 79493","Match","Non_Exact","5202 INDIANA AVE, LUBBOCK, TX, 79413",185253869,"R"
236639,"5202 JONES AVENUE","ZELLWOOD","FL",32798,28.730996287,-81.597442013,139,"5202 JONES AVENUE, ZELLWOOD, FL, 32798","Match","Non_Exact","5202 W JONES AVE, ZELLWOOD, FL, 32798",94260407,"L"
236640,"5202 N 22ND AVE","PHOENIX","AZ",85015,33.5133753700001,-112.106263836,140,"5202 N 22ND AVE, PHOENIX, AZ, 85015","Match","Exact","5202 N 22ND AVE, PHOENIX, AZ, 85015",128204758,"L"
236641,"5202 NE 46TH AVE","GAINESVILLE","FL",32609,29.6977857110001,-82.2563741009999,141,"5202 NE 46TH AVE, GAINESVILLE, FL, 32609","Match","Exact","5202 NE 46TH AVE, GAINESVILLE, FL, 32609",6807890,"L"
236642,"5202 NOB LANE","INDIANAPOLIS","IN",46226,39.84802052,-86.0849836529999,142,"5202 NOB LANE, INDIANAPOLIS, IN, 46226","Match","Exact","5202 NOB LN, INDIANAPOLIS, IN, 46226",107996054,"L"
236643,"5202 RIVERSIDE DRIVE","RICHMOND","VA",23225,37.5295867470001,-77.489659683,143,"5202 RIVERSIDE DRIVE, RICHMOND, VA, 23225","Match","Exact","5202 RIVERSIDE DR, RICHMOND, VA, 23225",201557151,"L"
236644,"5202 TENNESSEE AVENUE","CHATTANOOGA","TN",37409,34.991279353,-85.3270769229999,144,"5202 TENNESSEE AVENUE, CHATTANOOGA, TN, 37409","Match","Exact","5202 TENNESSEE AVE, CHATTANOOGA, TN, 37409",59312400,"L"
236645,"5202 US HWY 23 NORTH","DELAWARE","OH",43015,40.38487229,-83.073504584,145,"5202 US HWY 23 NORTH, DELAWARE, OH, 43015","Match","Exact","5202 US HWY 23 N, DELAWARE, OH, 43015",627896594,"R"
236646,"5202 ZEPHYR AVENUE","CLINTON","MD",20735,38.7813999430001,-76.918978497,146,"5202 ZEPHYR AVENUE, CLINTON, MD, 20735","Match","Exact","5202 ZEPHYR AVE, CLINTON, MD, 20735",76383333,"L"
236647,"5203 340TH ST","CYLINDER","IA",50528,43.1551446440001,-94.5597908779999,147,"5203 340TH ST, CYLINDER, IA, 50528","Match","Exact","5203 340TH ST, CYLINDER, IA, 50528",9886192,"L"
236648,"5203 37TH AVE S","SEATTLE","WA",98118,47.5553039370001,-122.286118776,148,"5203 37TH AVE S, SEATTLE, WA, 98118","Match","Exact","5203 37TH AVE S, SEATTLE, WA, 98118",239772317,"R"
236649,"5203 8TH RD SOUTH APT202","ARLINGTON","VA",22204,38.8568960760001,-77.116826696,149,"5203 8TH RD SOUTH APT202, ARLINGTON, VA, 22204","Match","Exact","5203 8TH RD S, ARLINGTON, VA, 22204",76469144,"R"
236650,"5203 BACK STRETCH BLVD","UPPER MARLBORO","MD",20772,38.8183444110001,-76.769057253,150,"5203 BACK STRETCH BLVD, UPPER MARLBORO, MD, 20772","Match","Exact","5203 BACK STRETCH BLVD, UPPER MARLBORO, MD, 20772",76416503,"R"
236651,"5203 BRIDLE DR","KILLEEN","TX",76549,31.0835345470001,-97.795966602,151,"5203 BRIDLE DR, KILLEEN, TX, 76549","Match","Exact","5203 BRIDLE DR, KILLEEN, TX, 76549",146233412,"L"
236652,"5203 CAMAROSA DR","PASADENA","TX",77504,29.6324723810001,-95.186938302,152,"5203 CAMAROSA DR, PASADENA, TX, 77504","Match","Exact","5203 CAMAROSA DR, PASADENA, TX, 77504",624973000,"R"
236653,"5203 CAMAROSA","PASADENA","TX",77504,29.6324723810001,-95.186938302,153,"5203 CAMAROSA, PASADENA, TX, 77504","Match","Non_Exact","5203 CAMAROSA DR, PASADENA, TX, 77504",624973000,"R"
236654,"5203 CENTRAL AVE","ST. PETERSBURG","FL",33710,27.7709501690001,-82.704074041,154,"5203 CENTRAL AVE, ST. PETERSBURG, FL, 33710","Match","Exact","5203 CENTRAL AVE, SAINT PETERSBURG, FL, 33710",124700301,"R"
236655,"5203 E 139TH STREET","GRANDVIEW","MO",64030,38.872899149,-94.5351168559999,155,"5203 E 139TH STREET, GRANDVIEW, MO, 64030","Match","Exact","5203 E 139TH ST, GRANDVIEW, MO, 64030",91477072,"R"
236656,"5203 HALVERSON COURT","KANNAPOLIS","NC",28083,35.4893277510001,-80.564053326,156,"5203 HALVERSON COURT, KANNAPOLIS, NC, 28083","Match","Exact","5203 HALVERSON CT, KANNAPOLIS, NC, 28083",24922224,"R"
236657,"5203 INDIAN HILL ROAD","ORLANDO","FL",32808,28.589074683,-81.4517602239999,157,"5203 INDIAN HILL ROAD, ORLANDO, FL, 32808","Match","Exact","5203 INDIAN HILL RD, ORLANDO, FL, 32808",94269956,"R"
236658,"5203 LEGENDARY LANE","ACWORTH","GA",30102,34.078806855,-84.56728488,158,"5203 LEGENDARY LANE, ACWORTH, GA, 30102","Match","Exact","5203 LEGENDARY LN, ACWORTH, GA, 30102",68828782,"L"
236659,"5203 LORAINE STREET","DETROIT","MI",48208,42.349713046,-83.093976541,159,"5203 LORAINE STREET, DETROIT, MI, 48208","Match","Exact","5203 LORAINE ST, DETROIT, MI, 48208",95703675,"L"
236660,"5203 MAIN STREET LOT 137","LEXINGTON","MI",48450,43.2751972820001,-82.5314033879999,160,"5203 MAIN STREET LOT 137, LEXINGTON, MI, 48450","Match","Exact","5203 MAIN ST, LEXINGTON, MI, 48450",635491282,"R"
236661,"5203 MIDDLETON DR","PARKER","TX",75002,33.073421024,-96.60419667,161,"5203 MIDDLETON DR, PARKER, TX, 75002","Match","Exact","5203 MIDDLETON DR, PARKER, TX, 75002",649039186,"L"
236662,"5203 MILLSPRINGS DRIVE","ARLINGTON","TX",70617,32.667221844,-97.1869169829999,162,"5203 MILLSPRINGS DRIVE, ARLINGTON, TX, 70617","Match","Non_Exact","5203 MILLSPRINGS DR, ARLINGTON, TX, 76017",101902663,"R"
236663,"5203 OLDE CREEK WAY","PROSPECT","KY",40059,38.326242182,-85.6166683169999,163,"5203 OLDE CREEK WAY, PROSPECT, KY, 40059","Match","Exact","5203 OLDE CREEK WAY, PROSPECT, KY, 40059",96876772,"R"
236664,"5203 S DORCHESTER AVE","CHICAGO","IL",60615,41.8008368710001,-87.591809121,164,"5203 S DORCHESTER AVE, CHICAGO, IL, 60615","Match","Exact","5203 S DORCHESTER AVE, CHICAGO, IL, 60615",111771722,"L"
236665,"5203 SCOTT ST","TORRANCE","CA",90503,33.836756338,-118.368008128,165,"5203 SCOTT ST, TORRANCE, CA, 90503","Match","Exact","5203 SCOTT ST, TORRANCE, CA, 90503",141664664,"R"
236666,"5203 SW 91ST TERRACE SUITE F","GAINESVILLE","FL",32608,29.606696872,-82.4388936889999,166,"5203 SW 91ST TERRACE SUITE F, GAINESVILLE, FL, 32608","Match","Non_Exact","5203 SW 91ST TER, GAINESVILLE, FL, 32608",625722880,"R"
236667,"5203 VALERIE STREET","BELLAIRE","TX",77401,29.6935816290001,-95.472317021,167,"5203 VALERIE STREET, BELLAIRE, TX, 77401","Match","Exact","5203 VALERIE ST, BELLAIRE, TX, 77401",96038883,"L"
236668,"5203 WEST GENESEE STREET","CAMILLUS","NY",13031,43.041310572,-76.2673724369999,168,"5203 WEST GENESEE STREET, CAMILLUS, NY, 13031","Match","Exact","5203 W GENESEE ST, CAMILLUS, NY, 13031",46563607,"L"
236669,"5203 YELLOW PINE LANE","TAMARAC","FL",33319,26.1895114770001,-80.230367604,169,"5203 YELLOW PINE LANE, TAMARAC, FL, 33319","Match","Exact","5203 YELLOW PINE LN, TAMARAC, FL, 33319",114762397,"L"
236670,"5204 54TH AVE SE","LACEY","WA",98503,47.000419139,-122.818939782,170,"5204 54TH AVE SE, LACEY, WA, 98503","Match","Exact","5204 54TH AVE SE, LACEY, WA, 98503",648286648,"R"
236671,"5204 ANDOVER PLACE","AUSTIN","TX",78723,30.3070251450001,-97.700297088,171,"5204 ANDOVER PLACE, AUSTIN, TX, 78723","Match","Exact","5204 ANDOVER PL, AUSTIN, TX, 78723",63947517,"L"
236672,"5204 ARBOLES DR UNIT F","HOUSTON","TX",77035,29.6540076380001,-95.477376887,172,"5204 ARBOLES DR UNIT F, HOUSTON, TX, 77035","Match","Exact","5204 ARBOLES DR, HOUSTON, TX, 77035",96598986,"R"
236673,"5204 ASSISI AVE","AVE MARIA","FL",34142,NA,NA,173,"5204 ASSISI AVE, AVE MARIA, FL, 34142","No_Match",NA,NA,NA,NA
236674,"5204 BITTINGER ROAD","SWANTON","MD",21561,39.5232518340001,-79.237502083,174,"5204 BITTINGER ROAD, SWANTON, MD, 21561","Match","Exact","5204 BITTINGER RD, SWANTON, MD, 21561",74207018,"R"
236675,"5204 CHATEAUX RIDGE CT","RAPID CITY","SD",57702,44.0337460920001,-103.272512009,175,"5204 CHATEAUX RIDGE CT, RAPID CITY, SD, 57702","Match","Exact","5204 CHATEAUX RIDGE, RAPID CITY, SD, 57702",637417563,"L"
236676,"5204 HUNTINGWOOD DRIVE","PLEASANT GARDEN","NC",27313,35.9823144600001,-79.746517199,176,"5204 HUNTINGWOOD DRIVE, PLEASANT GARDEN, NC, 27313","Match","Exact","5204 HUNTINGWOOD DR, PLEASANT GARDEN, NC, 27313",131056306,"R"
236677,"5204 JACQUELYN LN SUITE 3","BARTLESVILLE","OK",74006,NA,NA,177,"5204 JACQUELYN LN SUITE 3, BARTLESVILLE, OK, 74006","No_Match",NA,NA,NA,NA
236678,"5204 KELLER RIDGE DR","CLAYTON","CA",94517,37.9488809480001,-121.918111374,178,"5204 KELLER RIDGE DR, CLAYTON, CA, 94517","Match","Exact","5204 KELLER RIDGE DR, CLAYTON, CA, 94517",192094575,"L"
236679,"5204 LAKESHORE DR","WATERVLIET","MI",49098,42.20711364,-86.254029174,179,"5204 LAKESHORE DR, WATERVLIET, MI, 49098","Match","Non_Exact","5204 LAKE SHORE DR, WATERVLIET, MI, 49098",119982277,"L"
236680,"5204 LIBERTY HEIGHTS AVENUE","GWYNN OAK","MD",21207,39.3333327010001,-76.701765763,180,"5204 LIBERTY HEIGHTS AVENUE, GWYNN OAK, MD, 21207","Match","Exact","5204 LIBERTY HEIGHTS AVE, GWYNN OAK, MD, 21207",206442856,"R"
236681,"5204 NW 184 LANE","CAROL CITY","FL",33055,25.9416107010001,-80.2867563839999,181,"5204 NW 184 LANE, CAROL CITY, FL, 33055","Match","Exact","5204 NW 184TH LN, CAROL CITY, FL, 33055",624449559,"L"
236682,"5204 PLAIN TREE WAY","HAYMARKET","VA",20169,38.838065886,-77.646473757,182,"5204 PLAIN TREE WAY, HAYMARKET, VA, 20169","Match","Exact","5204 PLAIN TREE WAY, HAYMARKET, VA, 20169",207144809,"R"
236683,"5204 RUSTIC WAY","MC FARLAND","WI",53558,43.0223793230001,-89.2958229879999,183,"5204 RUSTIC WAY, MC FARLAND, WI, 53558","Match","Non_Exact","5204 RUSTIC WAY, MCFARLAND, WI, 53558",49494120,"R"
236684,"5204 S 83RD ST","TAMPA","FL",33619,27.9007850680001,-82.364669441,184,"5204 S 83RD ST, TAMPA, FL, 33619","Match","Exact","5204 S 83RD ST, TAMPA, FL, 33619",104539285,"L"
236685,"5204 SANDERING RIDGE DR","LITHIA","FL",33547,27.8622644600001,-82.2220617039999,185,"5204 SANDERING RIDGE DR, LITHIA, FL, 33547","Match","Non_Exact","5204 SANDERLING RIDGE DR, LITHIA, FL, 33547",641528316,"R"
236686,"5204 SEABREEZE WAY","OXNARD","CA",93035,34.1926526450001,-119.241751654,186,"5204 SEABREEZE WAY, OXNARD, CA, 93035","Match","Exact","5204 SEABREEZE WAY, OXNARD, CA, 93035",110115496,"L"
236687,"5204 VILLAGE PARKWAY SUITE 11","ROGERS","AR",72758,36.317525145,-94.187332985,187,"5204 VILLAGE PARKWAY SUITE 11, ROGERS, AR, 72758","Match","Non_Exact","5204 W VILLAGE PKWY, ROGERS, AR, 72758",642899587,"R"
236688,"5205 26TH AVENUE WEST","BRADENTON","FL",34209,27.477559618,-82.613583021,188,"5205 26TH AVENUE WEST, BRADENTON, FL, 34209","Match","Exact","5205 26TH AVE W, BRADENTON, FL, 34209",16257736,"L"
236689,"5205 ALPHONSE CT","METAIRIE","LA",70006,30.025853716,-90.203578337,189,"5205 ALPHONSE CT, METAIRIE, LA, 70006","Match","Exact","5205 ALPHONSE CT, METAIRIE, LA, 70006",93496830,"L"
236690,"5205 AVENIDA ENCINAS SUITE A","CARLSBAD","CA",92008,33.128371772,-117.326343906,190,"5205 AVENIDA ENCINAS SUITE A, CARLSBAD, CA, 92008","Match","Exact","5205 AVE ENCINAS, CARLSBAD, CA, 92008",637383847,"R"
236691,"5205 BISCHOFF AVE","SAINT LOUIS","MO",63110,38.6146345610001,-90.273257294,191,"5205 BISCHOFF AVE, SAINT LOUIS, MO, 63110","Match","Exact","5205 BISCHOFF AVE, SAINT LOUIS, MO, 63110",605121517,"R"
236692,"5205 BROADWAY  579","PEARLAND","TX",77581,29.559709737,-95.3000637919999,192,"5205 BROADWAY  579, PEARLAND, TX, 77581","Match","Non_Exact","5205 BROADWAY ST, PEARLAND, TX, 77581",116568702,"L"
236693,"5205 BROADWAY ST NUM 524","PEARLAND","TX",77581,29.559709737,-95.3000637919999,193,"5205 BROADWAY ST NUM 524, PEARLAND, TX, 77581","Match","Exact","5205 BROADWAY ST, PEARLAND, TX, 77581",116568702,"L"
236694,"5205 BROADWAY STE 539","PEARLAND","TX",77581,29.559709737,-95.3000637919999,194,"5205 BROADWAY STE 539, PEARLAND, TX, 77581","Match","Non_Exact","5205 BROADWAY ST, PEARLAND, TX, 77581",116568702,"L"
236695,"5205 BYWOOD STREET","LEHIGH ACRES","FL",33971,26.626623968,-81.735493726,195,"5205 BYWOOD STREET, LEHIGH ACRES, FL, 33971","Match","Exact","5205 BYWOOD ST, LEHIGH ACRES, FL, 33971",117983982,"R"
236696,"5205 CAMERON CREEK CIR   STE 18","FORT WORTH","TX",76132,32.672187508,-97.417538206,196,"5205 CAMERON CREEK CIR   STE 18, FORT WORTH, TX, 76132","Match","Exact","5205 CAMERON CREEK CIR, FORT WORTH, TX, 76132",648453232,"L"
236697,"5205 CAMERON CREEK CIRCLE STE 18","FORT WORTH","TX",76132,32.672187508,-97.417538206,197,"5205 CAMERON CREEK CIRCLE STE 18, FORT WORTH, TX, 76132","Match","Exact","5205 CAMERON CREEK CIR, FORT WORTH, TX, 76132",648453232,"L"
236698,"5205 FIVE FORKS TRICKUM RD/SW","LILBURN","GA",30047,33.846178949,-84.124305495,198,"5205 FIVE FORKS TRICKUM RD/SW, LILBURN, GA, 30047","Match","Non_Exact","5205 FIVE FORKS TRICKUM RD, LILBURN, GA, 30047",88915400,"R"
236699,"5205 GRAND AVENUE","WESTERN SPRINGS","IL",60558,41.7950384710001,-87.901231438,199,"5205 GRAND AVENUE, WESTERN SPRINGS, IL, 60558","Match","Exact","5205 GRAND AVE, WESTERN SPRINGS, IL, 60558",111789420,"L"
236700,"5205 HARDSCRABBLE WAY","FORT SMITH","AR",72903,35.351329019,-94.3748039659999,200,"5205 HARDSCRABBLE WAY, FORT SMITH, AR, 72903","Match","Exact","5205 HARDSCRABBLE WAY, FORT SMITH, AR, 72903",56104752,"R"
236701,"5205 HOLT AVENUE","LOS ANGELES","CA",90056,33.9947562720001,-118.373055479,201,"5205 HOLT AVENUE, LOS ANGELES, CA, 90056","Match","Non_Exact","5205 S HOLT AVE, LOS ANGELES, CA, 90056",142444760,"R"
236702,"5205 JEWELFLOWER ROAD","CHARLOTTE","NC",28227,35.2064744630001,-80.69525771,202,"5205 JEWELFLOWER ROAD, CHARLOTTE, NC, 28227","Match","Exact","5205 JEWELFLOWER RD, CHARLOTTE, NC, 28227",616441046,"R"
236703,"5205 LAFAYETTE DR","FRISCO","TX",75035,33.1212252810001,-96.7770147639999,203,"5205 LAFAYETTE DR, FRISCO, TX, 75035","Match","Non_Exact","5205 LAFAYETTE LN, FRISCO, TX, 75035",210514777,"R"
236704,"5205 LUDLOW STREET","PISCATAWAY","NJ",8854,40.5335296710001,-74.4812448659999,204,"5205 LUDLOW STREET, PISCATAWAY, NJ, 8854","Match","Exact","5205 LUDLOW ST, PISCATAWAY, NJ, 08854",629265583,"L"
236705,"5205 MACKENZIE WAY","PLANO","TX",75093,33.025084812,-96.80434776,205,"5205 MACKENZIE WAY, PLANO, TX, 75093","Match","Exact","5205 MACKENZIE WAY, PLANO, TX, 75093",210468079,"L"
236706,"5205 MAIN ST","ASHTABULA","OH",44004,41.861316921,-80.783762279,206,"5205 MAIN ST, ASHTABULA, OH, 44004","Match","Non_Exact","5205 MAIN AVE, ASHTABULA, OH, 44004",117313492,"L"
236707,"5205 MATAGORDA BAY COURT","ROWLETT","TX",75089,32.915860444,-96.552921552,207,"5205 MATAGORDA BAY COURT, ROWLETT, TX, 75089","Match","Exact","5205 MATAGORDA BAY CT, ROWLETT, TX, 75089",640537658,"L"
236708,"5205 N GAY AVE","PORTLAND","OR",97217,45.560605025,-122.690018958,208,"5205 N GAY AVE, PORTLAND, OR, 97217","Match","Exact","5205 N GAY AVE, PORTLAND, OR, 97217",157497381,"L"
236709,"5205 N OLD ORCHARD DR","JANESVILLE","WI",53545,42.7473625380001,-89.017131176,209,"5205 N OLD ORCHARD DR, JANESVILLE, WI, 53545","Match","Exact","5205 N OLD ORCHARD DR, JANESVILLE, WI, 53545",617449912,"L"
236710,"5205 NORTHWOOD RD","GRAND BLANC","MI",48439,42.9494057590001,-83.629080589,210,"5205 NORTHWOOD RD, GRAND BLANC, MI, 48439","Match","Exact","5205 NORTHWOOD RD, GRAND BLANC, MI, 48439",617492859,"L"
236711,"5205 NW 119TH TERRACE","OKLAHOMA CITY","OK",73162,35.59094272,-97.6126516959999,211,"5205 NW 119TH TERRACE, OKLAHOMA CITY, OK, 73162","Match","Exact","5205 NW 119TH TER, OKLAHOMA CITY, OK, 73162",606077355,"R"
236712,"5205 OAK PARK RD STE C","RALEIGH","NC",27612,NA,NA,212,"5205 OAK PARK RD STE C, RALEIGH, NC, 27612","No_Match",NA,NA,NA,NA
236713,"5205 OLD AUGUSTA ROAD","GREENVILLE","SC",29605,34.731551279,-82.384868468,213,"5205 OLD AUGUSTA ROAD, GREENVILLE, SC, 29605","Match","Exact","5205 OLD AUGUSTA RD, GREENVILLE, SC, 29605",38347744,"R"
236714,"5205 PERIMETER LOFTS CIRCLE","DUNWOODY","GA",30346,33.925811733,-84.32958271,214,"5205 PERIMETER LOFTS CIRCLE, DUNWOODY, GA, 30346","Match","Exact","5205 PERIMETER LOFTS CIR, DUNWOODY, GA, 30346",642346288,"R"
236715,"5205 PINE STREET","BELLAIRE","TX",77401,29.6947725520001,-95.4724006819999,215,"5205 PINE STREET, BELLAIRE, TX, 77401","Match","Exact","5205 PINE ST, BELLAIRE, TX, 77401",96039070,"L"
236716,"5205 PRIDE LN","HOPE MILLS","NC",28348,34.9259365090001,-78.8985748979999,216,"5205 PRIDE LN, HOPE MILLS, NC, 28348","Match","Exact","5205 PRIDE LN, HOPE MILLS, NC, 28348",637547211,"R"
236717,"5205 PROSPECT RD 135-345","SAN JOSE","CA",95129,37.2919394510001,-121.993298761,217,"5205 PROSPECT RD 135-345, SAN JOSE, CA, 95129","Match","Exact","5205 PROSPECT RD, SAN JOSE, CA, 95129",122900245,"R"
236718,"5205 PROSPECT ROAD 135-244","SAN JOSE","CA",95129,37.2919394510001,-121.993298761,218,"5205 PROSPECT ROAD 135-244, SAN JOSE, CA, 95129","Match","Exact","5205 PROSPECT RD, SAN JOSE, CA, 95129",122900245,"R"
236719,"5205 PUMA CT","NORTH LAS VEGAS","NV",89031,36.254788578,-115.169082509,219,"5205 PUMA CT, NORTH LAS VEGAS, NV, 89031","Match","Exact","5205 PUMA CT, N LAS VEGAS, NV, 89031",201952353,"R"
236720,"5205 RAYMOND ROAD","MADISON","WI",53711,43.0318338880001,-89.468598761,220,"5205 RAYMOND ROAD, MADISON, WI, 53711","Match","Exact","5205 RAYMOND RD, MADISON, WI, 53711",49468356,"L"
236721,"5205 RUCKER DRIVE","SAN JOSE","CA",95124,37.2434117240001,-121.916798153,221,"5205 RUCKER DRIVE, SAN JOSE, CA, 95124","Match","Exact","5205 RUCKER DR, SAN JOSE, CA, 95124",123002016,"R"
236722,"5205 S 232ND STREET","KENT","WA",98032,47.393463388,-122.269286012,222,"5205 S 232ND STREET, KENT, WA, 98032","Match","Exact","5205 S 232ND ST, KENT, WA, 98032",186713713,"L"
236723,"5205 S ORANGE AVE SUITE 204","ORLANDO","FL",32806,NA,NA,223,"5205 S ORANGE AVE SUITE 204, ORLANDO, FL, 32806","No_Match",NA,NA,NA,NA
236724,"5205 S SOBOBA ST","GILBERT","AZ",85298,NA,NA,224,"5205 S SOBOBA ST, GILBERT, AZ, 85298","No_Match",NA,NA,NA,NA
236725,"5205 SAN BERNARDINO ROAD 210 B","MONTCLAIR","CA",91763,34.077665262,-117.691392045,225,"5205 SAN BERNARDINO ROAD 210 B, MONTCLAIR, CA, 91763","Match","Non_Exact","5205 SAN BERNARDINO ST, MONTCLAIR, CA, 91763",144671275,"R"
236726,"5205 SHALIMAR DR","OKLAHOMA CITY","OK",73135,35.4133380820001,-97.450671254,226,"5205 SHALIMAR DR, OKLAHOMA CITY, OK, 73135","Match","Exact","5205 SHALIMAR DR, OKLAHOMA CITY, OK, 73135",100418224,"R"
236727,"5205 STILESBORO RD NW STE 120","KENNESAW","GA",30152,33.9960408320001,-84.701830028,227,"5205 STILESBORO RD NW STE 120, KENNESAW, GA, 30152","Match","Exact","5205 STILESBORO RD NW, KENNESAW, GA, 30152",614180282,"L"
236728,"5205 W RIALTO COURT","VISALIA","CA",93277,36.29417921,-119.348185038,228,"5205 W RIALTO COURT, VISALIA, CA, 93277","Match","Exact","5205 W RIALTO CT, VISALIA, CA, 93277",617655717,"L"
236729,"5205 W THUNDERBIRD RD  APT 1086","GLENDALE","AZ",85306,33.610739267,-112.174028019,229,"5205 W THUNDERBIRD RD  APT 1086, GLENDALE, AZ, 85306","Match","Non_Exact","5205 W THUNDERBIRD RD, GLENDALE, AZ, 85306",128927676,"L"
236730,"5205 WILLOW BEND ROAD","GREENSBORO","NC",27406,35.984542177,-79.667476688,230,"5205 WILLOW BEND ROAD, GREENSBORO, NC, 27406","Match","Exact","5205 WILLOW BEND RD, GREENSBORO, NC, 27406",131110306,"R"
236731,"5205 WILLOW RUN DR","MONROE","NC",28110,35.0117678870001,-80.651376968,231,"5205 WILLOW RUN DR, MONROE, NC, 28110","Match","Exact","5205 WILLOW RUN DR, MONROE, NC, 28110",216861133,"L"
236732,"5205 WITHERSPOON STREET","PISCATAWAY","NJ",8854,40.5346884790001,-74.4785609259999,232,"5205 WITHERSPOON STREET, PISCATAWAY, NJ, 8854","Match","Exact","5205 WITHERSPOON ST, PISCATAWAY, NJ, 08854",629265588,"L"
236733,"52050 FIR ROAD","GRANGER","IN",46530,41.7377022970001,-86.158887422,233,"52050 FIR ROAD, GRANGER, IN, 46530","Match","Exact","52050 FIR RD, GRANGER, IN, 46530",8060769,"L"
236734,"52050 SE 3RD STREET","SCAPPOOSE","OR",97056,NA,NA,234,"52050 SE 3RD STREET, SCAPPOOSE, OR, 97056","Tie",NA,NA,NA,NA
236735,"5206  41ST AVE SW","SEATTLE","WA",98136,47.55547074,-122.384171929,235,"5206  41ST AVE SW, SEATTLE, WA, 98136","Match","Exact","5206 41ST AVE SW, SEATTLE, WA, 98136",186661465,"L"
236736,"5206 152ND AVE CT E","SUMNER","WA",98390,47.209381013,-122.22544428,236,"5206 152ND AVE CT E, SUMNER, WA, 98390","Match","Exact","5206 152ND AVE CT E, SUMNER, WA, 98390",627482529,"L"
236737,"5206 17TH ST","LUBBOCK","TX",79416,33.5806160990001,-101.923101731,237,"5206 17TH ST, LUBBOCK, TX, 79416","Match","Exact","5206 17TH ST, LUBBOCK, TX, 79416",185250274,"R"
236738,"5206 24TH AVENUE DRIVE WEST","BRADENTON","FL",34209,27.4784467750001,-82.6130900919999,238,"5206 24TH AVENUE DRIVE WEST, BRADENTON, FL, 34209","Match","Exact","5206 24TH AVENUE DR W, BRADENTON, FL, 34209",16233072,"R"
236739,"5206 3RD AVENUE","VIENNA","WV",26105,39.3420499590001,-81.541971097,239,"5206 3RD AVENUE, VIENNA, WV, 26105","Match","Exact","5206 3RD AVE, VIENNA, WV, 26105",90887944,"R"
236740,"5206 CALDERA CT","HOUSTON","TX",77066,29.941614132,-95.496417244,240,"5206 CALDERA CT, HOUSTON, TX, 77066","Match","Exact","5206 CALDERA CT, HOUSTON, TX, 77066",624186827,"R"
236741,"5206 CRYSTAL VIEW CT","LOVELAND","OH",45140,39.238171676,-84.202702635,241,"5206 CRYSTAL VIEW CT, LOVELAND, OH, 45140","Match","Exact","5206 CRYSTAL VIEW CT, LOVELAND, OH, 45140",618760014,"L"
236742,"5206 E MORNING VISTA LANE","CAVE CREEK","AZ",85331,33.7519994350001,-111.968929951,242,"5206 E MORNING VISTA LANE, CAVE CREEK, AZ, 85331","Match","Exact","5206 E MORNING VISTA LN, CAVE CREEK, AZ, 85331",627255173,"L"
236743,"5206 EAST STREET","TEXARKANA","AR",71854,33.373774681,-93.983295588,243,"5206 EAST STREET, TEXARKANA, AR, 71854","Match","Exact","5206 EAST ST, TEXARKANA, AR, 71854",639014576,"L"
236744,"5206 FLAGLER STREET","HOLLYWOOD","FL",33021,25.9967494380001,-80.1955217459999,244,"5206 FLAGLER STREET, HOLLYWOOD, FL, 33021","Match","Exact","5206 FLAGLER ST, HOLLYWOOD, FL, 33021",114735133,"L"
236745,"5206 GATEWAY CENTRE STE 200","FLINT","MI",48507,NA,NA,245,"5206 GATEWAY CENTRE STE 200, FLINT, MI, 48507","No_Match",NA,NA,NA,NA
236746,"5206 GATEWAY CENTRE SUITE 200","FLINT","MI",48507,NA,NA,246,"5206 GATEWAY CENTRE SUITE 200, FLINT, MI, 48507","No_Match",NA,NA,NA,NA
236747,"5206 GATEWAY CTR     STE 100","FLINT","MI",48507,NA,NA,247,"5206 GATEWAY CTR     STE 100, FLINT, MI, 48507","No_Match",NA,NA,NA,NA
236748,"5206 HANOVER CLOSE","NEW ALBANY","OH",43054,40.088931797,-82.8344690229999,248,"5206 HANOVER CLOSE, NEW ALBANY, OH, 43054","Match","Exact","5206 HANOVER CLOSE, NEW ALBANY, OH, 43054",218695911,"R"
236749,"5206 HOLLYWOOD BLVD","LOS ANGELES","CA",90027,34.101748086,-118.303564182,249,"5206 HOLLYWOOD BLVD, LOS ANGELES, CA, 90027","Match","Exact","5206 HOLLYWOOD BLVD, LOS ANGELES, CA, 90027",141597343,"L"
236750,"5206 LAKE FOREST DR","ROWLETT","TX",75088,32.8936750940001,-96.553810866,250,"5206 LAKE FOREST DR, ROWLETT, TX, 75088","Match","Exact","5206 LAKE FOREST DR, ROWLETT, TX, 75088",103207511,"R"
236751,"5206 LYNCH DRIVE","NORTH LITTLE ROCK","AR",72117,34.7569301730001,-92.204896108,251,"5206 LYNCH DRIVE, NORTH LITTLE ROCK, AR, 72117","Match","Exact","5206 LYNCH DR, N LITTLE ROCK, AR, 72117",83517209,"R"
236752,"5206 MIDDLETON STREET","COLUMBIA","SC",29203,34.0476791840001,-81.021033138,252,"5206 MIDDLETON STREET, COLUMBIA, SC, 29203","Match","Exact","5206 MIDDLETON ST, COLUMBIA, SC, 29203",71819402,"R"
236753,"5206 MILANO STREET","AVE MARIA","FL",34142,26.330753669,-81.435598226,253,"5206 MILANO STREET, AVE MARIA, FL, 34142","Match","Exact","5206 MILANO ST, AVE MARIA, FL, 34142",648662093,"R"
236754,"5206 PINEVIEW ROAD","LUMBERTON","NC",28360,34.686935326,-79.003403647,254,"5206 PINEVIEW ROAD, LUMBERTON, NC, 28360","Match","Exact","5206 PINEVIEW RD, LUMBERTON, NC, 28360",49148973,"R"
236755,"5206 PRESTON SQUARE LOOP","GLEN ALLEN","VA",23059,NA,NA,255,"5206 PRESTON SQUARE LOOP, GLEN ALLEN, VA, 23059","No_Match",NA,NA,NA,NA
236756,"5206 REEDER CT","FREMONT","CA",94536,37.5381601070001,-122.009272599,256,"5206 REEDER CT, FREMONT, CA, 94536","Match","Exact","5206 REEDER CT, FREMONT, CA, 94536",125029508,"L"
236757,"5206 RIVER ROAD","BROOKVILLE","IN",47012,39.3756731080001,-84.973764487,257,"5206 RIVER ROAD, BROOKVILLE, IN, 47012","Match","Exact","5206 RIVER RD, BROOKVILLE, IN, 47012",33199498,"L"
236758,"5206 ROCKLANE RD","GREENWOOD","IN",46143,39.6071255250001,-86.00604527,258,"5206 ROCKLANE RD, GREENWOOD, IN, 46143","Match","Exact","5206 ROCKLANE RD, GREENWOOD, IN, 46143",635737890,"R"
236759,"5206 STERLING MANOR LANE","SUGAR LAND","TX",77479,29.561592702,-95.5843722069999,259,"5206 STERLING MANOR LANE, SUGAR LAND, TX, 77479","Match","Non_Exact","5206 STERLING MANOR DR, SUGAR LAND, TX, 77479",648707080,"R"
236760,"5207 3RD PARKWAY","SACRAMENTO","CA",92557,38.5010248080001,-121.444706328,260,"5207 3RD PARKWAY, SACRAMENTO, CA, 92557","Match","Non_Exact","5207 3RD PKWY, SACRAMENTO, CA, 95823",133352483,"L"
236761,"5207 88TH ST CT SW E106","LAKEWOOD","WA",98499,NA,NA,261,"5207 88TH ST CT SW E106, LAKEWOOD, WA, 98499","No_Match",NA,NA,NA,NA
236762,"5207 BRIDGE AVE","CLEVELAND","OH",44102,41.4806415670001,-81.722568226,262,"5207 BRIDGE AVE, CLEVELAND, OH, 44102","Match","Exact","5207 BRIDGE AVE, CLEVELAND, OH, 44102",61101580,"L"
236763,"5207 BROOKLEIGH DRIVE","JACKSON","MS",39272,32.207061007,-90.252413959,263,"5207 BROOKLEIGH DRIVE, JACKSON, MS, 39272","Match","Exact","5207 BROOKLEIGH DR, JACKSON, MS, 39272",65368518,"R"
236764,"5207 CHESTNUT MANOR CORT","UPPER MARLBORO","MD",20772,38.8177374000001,-76.7941458509999,264,"5207 CHESTNUT MANOR CORT, UPPER MARLBORO, MD, 20772","Match","Non_Exact","5207 CHESTNUT MANOR CT, UPPER MARLBORO, MD, 20772",624432228,"R"
236765,"5207 CYPRESS BRANCH RD","PINELAND","SC",29934,32.62584042,-81.167097487,265,"5207 CYPRESS BRANCH RD, PINELAND, SC, 29934","Match","Exact","5207 CYPRESS BRANCH RD, PINELAND, SC, 29934",33153158,"L"
236766,"5207 DENMAR RD","HILLSBORO","WV",24946,38.0794832610001,-80.2342663809999,266,"5207 DENMAR RD, HILLSBORO, WV, 24946","Match","Exact","5207 DENMAR RD, HILLSBORO, WV, 24946",647899149,"R"
236767,"5207 DUKE FIELD","SAN ANTONIO","TX",78227,29.380906662,-98.649835772,267,"5207 DUKE FIELD, SAN ANTONIO, TX, 78227","Match","Exact","5207 DUKE FIELD, SAN ANTONIO, TX, 78227",629569021,"L"
236768,"5207 GREAT MEADOWS RD","LITHONIA","GA",30038,33.6807124060001,-84.178686119,268,"5207 GREAT MEADOWS RD, LITHONIA, GA, 30038","Match","Exact","5207 GREAT MEADOWS RD, LITHONIA, GA, 30038",23387343,"R"
236769,"5207 HIGHRIDGE DR","SACHSE","TX",75048,32.9686346550001,-96.597113893,269,"5207 HIGHRIDGE DR, SACHSE, TX, 75048","Match","Exact","5207 HIGHRIDGE DR, SACHSE, TX, 75048",102928592,"L"
236770,"5207 KYLIE SPRINGS LN","HOUSTON","TX",77066,29.950107915,-95.496346079,270,"5207 KYLIE SPRINGS LN, HOUSTON, TX, 77066","Match","Exact","5207 KYLIE SPRINGS LN, HOUSTON, TX, 77066",641684947,"L"
236771,"5207 PARVIEW DR S","CHARLOTTE","NC",28226,35.0982646190001,-80.814825618,271,"5207 PARVIEW DR S, CHARLOTTE, NC, 28226","Match","Exact","5207 PARVIEW DR S, CHARLOTTE, NC, 28226",70570549,"L"
236772,"5207 POCOHONTAS ST","BELLAIRE","TX",77401,29.6969592790001,-95.470586145,272,"5207 POCOHONTAS ST, BELLAIRE, TX, 77401","Match","Non_Exact","5207 POCAHONTAS ST, BELLAIRE, TX, 77401",96033636,"L"
236773,"5207 ROSEMEAD BLVD","PICO RIVERA","CA",90660,NA,NA,273,"5207 ROSEMEAD BLVD, PICO RIVERA, CA, 90660","No_Match",NA,NA,NA,NA
236774,"5207 ROSHNI TERRACE","MCLEANSVILLE","NC",27301,36.0577728970001,-79.6712295309999,274,"5207 ROSHNI TERRACE, MCLEANSVILLE, NC, 27301","Match","Non_Exact","5207 ROSHNI TER, MC LEANSVILLE, NC, 27301",624431933,"L"
236775,"5207 S MONTANA","CALDWELL","ID",83607,43.6237795750001,-116.682946477,275,"5207 S MONTANA, CALDWELL, ID, 83607","Match","Non_Exact","5207 S MONTANA AVE, CALDWELL, ID, 83607",122840577,"R"
236776,"5207 SANTA ROSA WAY","JACKSONVILLE","FL",32211,30.332379342,-81.610345729,276,"5207 SANTA ROSA WAY, JACKSONVILLE, FL, 32211","Match","Exact","5207 SANTA ROSA WAY, JACKSONVILLE, FL, 32211",83903106,"L"
236777,"5207 WATER VALLEY DRIVE","TALLAHASSEE","FL",32303,30.532843938,-84.3645066889999,277,"5207 WATER VALLEY DRIVE, TALLAHASSEE, FL, 32303","Match","Exact","5207 WATER VALLEY DR, TALLAHASSEE, FL, 32303",635797408,"R"
236778,"5207 WILLAMSBURG RD NW","CINCINNATI","OH",45215,39.2182999460001,-84.4838853269999,278,"5207 WILLAMSBURG RD NW, CINCINNATI, OH, 45215","Match","Non_Exact","5207 WILLIAMSBURG RD NW, CINCINNATI, OH, 45215",103923651,"L"
236779,"52076 BROOKSTREAM CIRCLE APT O","ELKHART","IN",46514,41.736718124,-85.963277534,279,"52076 BROOKSTREAM CIRCLE APT O, ELKHART, IN, 46514","Match","Exact","52076 BROOKSTREAM CIR, ELKHART, IN, 46514",604691275,"L"
236780,"5208 16TH AVENUE NE","SEATTLE","WA",98105,47.6666347460001,-122.310764391,280,"5208 16TH AVENUE NE, SEATTLE, WA, 98105","Match","Exact","5208 16TH AVE NE, SEATTLE, WA, 98105",186585396,"R"
236781,"5208 41ST STREET NW","WASHINGTON","DC",20015,38.957720404,-77.080304409,281,"5208 41ST STREET NW, WASHINGTON, DC, 20015","Match","Exact","5208 41ST ST NW, WASHINGTON, DC, 20015",76220240,"L"
236782,"5208 ARLINGTON CIRCLE","HANOVER PARK","IL",60133,41.9679184920001,-88.1359212099999,282,"5208 ARLINGTON CIRCLE, HANOVER PARK, IL, 60133","Match","Exact","5208 ARLINGTON CIR, HANOVER PARK, IL, 60133",639894023,"R"
236783,"5208 BRINDLEWOOD DR","PLAINFIELD","IL",60586,41.5607823930001,-88.212236546,283,"5208 BRINDLEWOOD DR, PLAINFIELD, IL, 60586","Match","Exact","5208 BRINDLEWOOD DR, PLAINFIELD, IL, 60586",111586639,"L"
236784,"5208 BROOKDALE DRIVE NORTH","BROOKLYN PARK","MN",55443,45.09793125,-93.347778254,284,"5208 BROOKDALE DRIVE NORTH, BROOKLYN PARK, MN, 55443","Match","Exact","5208 BROOKDALE DR N, BROOKLYN PARK, MN, 55443",43829082,"R"
236785,"5208 CLAYCUT ROAD","BATON ROUGE","LA",70806,30.4414028140001,-91.136645772,285,"5208 CLAYCUT ROAD, BATON ROUGE, LA, 70806","Match","Exact","5208 CLAYCUT RD, BATON ROUGE, LA, 70806",92184409,"R"
236786,"5208 CLOVIS CT NE","RIO RANCHO","NM",87144,35.3486424660001,-106.606424449,286,"5208 CLOVIS CT NE, RIO RANCHO, NM, 87144","Match","Exact","5208 CLOVIS CT NE, RIO RANCHO, NM, 87144",611357664,"L"
236787,"5208 COXWOLD ABBEY COURT","BAKERSFIELD","CA",93306,35.35711451,-118.946868489,287,"5208 COXWOLD ABBEY COURT, BAKERSFIELD, CA, 93306","Match","Non_Exact","5208 COXWOLD ABBEY CT, BAKERSFIELD, CA, 93307",109434040,"R"
236788,"5208 GLEN DR","BERTHOUD","CO",80513,40.287056899,-105.170925779,288,"5208 GLEN DR, BERTHOUD, CO, 80513","Match","Exact","5208 GLEN DR, BERTHOUD, CO, 80513",188501336,"R"
236789,"5208 HALIFAX AVENUE SOUTH","EDINA","MN",55424,44.9084905400001,-93.3315446079999,289,"5208 HALIFAX AVENUE SOUTH, EDINA, MN, 55424","Match","Exact","5208 HALIFAX AVE S, EDINA, MN, 55424",43835039,"R"
236790,"5208 HIXSON PIKE","HIXSON","TN",37343,35.137628879,-85.2363639069999,290,"5208 HIXSON PIKE, HIXSON, TN, 37343","Match","Exact","5208 HIXSON PIKE, HIXSON, TN, 37343",59306064,"R"
236791,"5208 LEXMARK CIRCLE SW","ATLANTA","GA",30331,33.664413919,-84.559987687,291,"5208 LEXMARK CIRCLE SW, ATLANTA, GA, 30331","Match","Non_Exact","5208 LEXMARK CIR, ATLANTA, GA, 30331",634083609,"L"
236792,"5208 MEAD PARK DR","THOMPSONS STATION","TN",37179,35.784169902,-86.8205764849999,292,"5208 MEAD PARK DR, THOMPSONS STATION, TN, 37179","Match","Exact","5208 MEAD PARK DR, THOMPSONS STATION, TN, 37179",624529461,"R"
236793,"5208 N JACKSON RD","PHARR","TX",78577,NA,NA,293,"5208 N JACKSON RD, PHARR, TX, 78577","No_Match",NA,NA,NA,NA
236794,"5208 NE 24TH TERRACE F120","FORT LAUDERDALE","FL",33308,26.19173528,-80.112560268,294,"5208 NE 24TH TERRACE F120, FORT LAUDERDALE, FL, 33308","Match","Non_Exact","5208 NE 24TH TER, FORT LAUDERDALE, FL, 33308",114724053,"R"
236795,"5208 RHONDA AVE","SANTA ANA","CA",92703,33.7510815740001,-117.938734727,295,"5208 RHONDA AVE, SANTA ANA, CA, 92703","Match","Exact","5208 RHONDA AVE, SANTA ANA, CA, 92703",144036965,"L"
236796,"5208 S 12TH WAY","PHOENIX","AZ",85040,33.39924104,-112.054245082,296,"5208 S 12TH WAY, PHOENIX, AZ, 85040","Match","Exact","5208 S 12TH WAY, PHOENIX, AZ, 85040",128919642,"R"
236797,"5208 S GOLD LEAF PLACE","CHANDLER","AZ",85249,33.2311424750001,-111.766912397,297,"5208 S GOLD LEAF PLACE, CHANDLER, AZ, 85249","Match","Exact","5208 S GOLD LEAF PL, CHANDLER, AZ, 85249",640933680,"R"
236798,"5208 SCOTT TR","ROBBINSDALE","MN",55422,45.029328687,-93.345860269,298,"5208 SCOTT TR, ROBBINSDALE, MN, 55422","Match","Exact","5208 SCOTT TRL, ROBBINSDALE, MN, 55422",617113592,"R"
236799,"5208 VILLAGE PKWY SUITE 9","ROGERS","AR",72758,36.317509816,-94.187471778,299,"5208 VILLAGE PKWY SUITE 9, ROGERS, AR, 72758","Match","Non_Exact","5208 W VILLAGE PKWY, ROGERS, AR, 72758",642899587,"R"
236800,"5208 WOLFPEN WOODS DR","PROSPECT","KY",40059,38.319936394,-85.605646588,300,"5208 WOLFPEN WOODS DR, PROSPECT, KY, 40059","Match","Exact","5208 WOLFPEN WOODS DR, PROSPECT, KY, 40059",96892863,"R"
236801,"520800 TINIAN ST","TINIAN","MP",96952,NA,NA,301,"520800 TINIAN ST, TINIAN, MP, 96952","No_Match",NA,NA,NA,NA
236802,"52086-1 YANA CT","FORT HOOD","TX",76544,31.1428068640001,-97.817931243,302,"52086-1 YANA CT, FORT HOOD, TX, 76544","Match","Exact","52086 YANA CT, FORT HOOD, TX, 76544",146564069,"R"
236803,"5209 13TH AVENUE SOUTH","MINNEAPOLIS","MN",55417,44.9086031040001,-93.256262425,303,"5209 13TH AVENUE SOUTH, MINNEAPOLIS, MN, 55417","Match","Exact","5209 13TH AVE S, MINNEAPOLIS, MN, 55417",43635032,"L"
236804,"5209 ADAMS ST","HOLLYWOOD","FL",33021,26.0035911960001,-80.195833251,304,"5209 ADAMS ST, HOLLYWOOD, FL, 33021","Match","Exact","5209 ADAMS ST, HOLLYWOOD, FL, 33021",114732227,"R"
236805,"5209 AMSTERDAM PL","RALEIGH","NC",27606,35.7119366060001,-78.778449549,305,"5209 AMSTERDAM PL, RALEIGH, NC, 27606","Match","Exact","5209 AMSTERDAM PL, RALEIGH, NC, 27606",72520108,"R"
236806,"5209 ANNONDALE CT","OZARK","MO",65721,37.0674421430001,-93.2133567389999,306,"5209 ANNONDALE CT, OZARK, MO, 65721","Match","Exact","5209 ANNONDALE CT, OZARK, MO, 65721",99839082,"R"
236807,"5209 BOTANY COURT","ORLANDO","FL",32811,28.527278826,-81.449915334,307,"5209 BOTANY COURT, ORLANDO, FL, 32811","Match","Exact","5209 BOTANY CT, ORLANDO, FL, 32811",94424592,"R"
236808,"5209 BURKE DRIVE","ALEXANDRIA","VA",22309,38.7060914040001,-77.124537716,308,"5209 BURKE DRIVE, ALEXANDRIA, VA, 22309","Match","Exact","5209 BURKE DR, ALEXANDRIA, VA, 22309",75992742,"L"
236809,"5209 CAROLINE CIRCLE","WALDORF","MD",20601,38.6459281200001,-76.857414451,309,"5209 CAROLINE CIRCLE, WALDORF, MD, 20601","Match","Exact","5209 CAROLINE CIR, WALDORF, MD, 20601",25373766,"L"
236810,"5209 CLEVELAND STREET","HOLLYWOOD","FL",33021,26.022481488,-80.196463889,310,"5209 CLEVELAND STREET, HOLLYWOOD, FL, 33021","Match","Exact","5209 CLEVELAND ST, HOLLYWOOD, FL, 33021",114717174,"R"
236811,"5209 CLUBVIEW","DALLAS","TX",75232,32.6818073470001,-96.851105278,311,"5209 CLUBVIEW, DALLAS, TX, 75232","Match","Non_Exact","5209 CLUBVIEW DR, DALLAS, TX, 75232",102947582,"R"
236812,"5209 COTTINGHAM PL","ALEXANDRIA","VA",22304,38.811628704,-77.14549678,312,"5209 COTTINGHAM PL, ALEXANDRIA, VA, 22304","Match","Exact","5209 COTTINGHAM PL, ALEXANDRIA, VA, 22304",76005004,"L"
236813,"5209 DEARBORN STREET","PITTSBURGH","PA",15224,40.4653469260001,-79.939662633,313,"5209 DEARBORN STREET, PITTSBURGH, PA, 15224","Match","Exact","5209 DEARBORN ST, PITTSBURGH, PA, 15224",51644368,"L"
236814,"5209 DIXON DRIVE","RALEIGH","NC",27609,35.853172999,-78.6506436989999,314,"5209 DIXON DRIVE, RALEIGH, NC, 27609","Match","Exact","5209 DIXON DR, RALEIGH, NC, 27609",72496544,"L"
236815,"5209 EMERSON AVE N","MPLS","MN",55430,45.0495977300001,-93.295362096,315,"5209 EMERSON AVE N, MPLS, MN, 55430","Match","Exact","5209 EMERSON AVE N, MINNEAPOLIS, MN, 55430",43621706,"L"
236816,"5209 FM 775","SEGUIN","TX",78155,29.497945347,-98.063835318,316,"5209 FM 775, SEGUIN, TX, 78155","Match","Exact","5209 FM 775, SEGUIN, TX, 78155",54849880,"R"
236817,"5209 HAMM AVE","CLEVELAND","OH",44127,41.466221294,-81.6538942179999,317,"5209 HAMM AVE, CLEVELAND, OH, 44127","Match","Exact","5209 HAMM AVE, CLEVELAND, OH, 44127",61117848,"L"
236818,"5209 MCKENNA RD","MONONA","WI",53716,43.063484019,-89.3359847259999,318,"5209 MCKENNA RD, MONONA, WI, 53716","Match","Non_Exact","5209 MC KENNA RD, MONONA, WI, 53716",49474620,"R"
236819,"5209 NW 18TH STREET UNIT 4","LAUDERHILL","FL",33313,26.1478735850001,-80.222318652,319,"5209 NW 18TH STREET UNIT 4, LAUDERHILL, FL, 33313","Match","Non_Exact","5209 NW 18TH ST, LAUDERHILL, FL, 33313",114707788,"R"
236820,"5209 RAYLAND DRIVE","BETHESDA","MD",20814,38.9926667030001,-77.105960964,320,"5209 RAYLAND DRIVE, BETHESDA, MD, 20814","Match","Exact","5209 RAYLAND DR, BETHESDA, MD, 20814",62065428,"R"
236821,"5209 SPARROWGLEN PLACE","LITHIA","FL",33547,27.8628726040001,-82.224142784,321,"5209 SPARROWGLEN PLACE, LITHIA, FL, 33547","Match","Exact","5209 SPARROWGLEN PL, LITHIA, FL, 33547",641528360,"R"
236822,"5209 W LAKE ST","CHICAGO","IL",60644,41.8872185550001,-87.756733292,322,"5209 W LAKE ST, CHICAGO, IL, 60644","Match","Exact","5209 W LAKE ST, CHICAGO, IL, 60644",605016899,"R"
236823,"5209 W MONTROSE AVENUE","CHICAGO","IL",60614,41.9605930120001,-87.757753045,323,"5209 W MONTROSE AVENUE, CHICAGO, IL, 60614","Match","Non_Exact","5209 W MONTROSE AVE, CHICAGO, IL, 60641",111751435,"L"
236824,"5209 W MOUNTAIN VIEW RD","GLENDALE","AZ",85302,33.5747113480001,-112.171919371,324,"5209 W MOUNTAIN VIEW RD, GLENDALE, AZ, 85302","Match","Exact","5209 W MOUNTAIN VIEW RD, GLENDALE, AZ, 85302",128195345,"L"
236825,"5209 W POINSETTIA DR","GLENDALE","AZ",85304,33.593429632,-112.171076638,325,"5209 W POINSETTIA DR, GLENDALE, AZ, 85304","Match","Exact","5209 W POINSETTIA DR, GLENDALE, AZ, 85304",128283258,"R"
236826,"5209 WAYFARER CIR APT 1","MEMPHIS","TN",38115,35.053435715,-89.8881260109999,326,"5209 WAYFARER CIR APT 1, MEMPHIS, TN, 38115","Match","Exact","5209 WAYFARER CIR, MEMPHIS, TN, 38115",607464733,"L"
236827,"5209 WEST 129TH STREET","LEAWOOD","KS",66209,38.895051906,-94.646204159,327,"5209 WEST 129TH STREET, LEAWOOD, KS, 66209","Match","Exact","5209 W 129TH ST, LEAWOOD, KS, 66209",91296156,"R"
236828,"5209 WISSIOMING ROAD","BETHESDA","MD",20816,38.9596189150001,-77.1282847099999,328,"5209 WISSIOMING ROAD, BETHESDA, MD, 20816","Match","Exact","5209 WISSIOMING RD, BETHESDA, MD, 20816",62059009,"R"
236829,"5209 YORK ROAD NUMBER 8B","BALTIMORE","MD",21212,39.352726278,-76.6097438049999,329,"5209 YORK ROAD NUMBER 8B, BALTIMORE, MD, 21212","Match","Exact","5209 YORK RD, BALTIMORE, MD, 21212",640508226,"L"
236830,"5209 YORK ROAD STE M20B MAILBOX A13","BALTIMORE","MD",21212,39.352726278,-76.6097438049999,330,"5209 YORK ROAD STE M20B MAILBOX A13, BALTIMORE, MD, 21212","Match","Exact","5209 YORK RD, BALTIMORE, MD, 21212",640508226,"L"
236831,"520A SPENCER LANE","MONROE TOWNSHIP","NJ",8831,40.329698937,-74.4772187299999,331,"520A SPENCER LANE, MONROE TOWNSHIP, NJ, 8831","Match","Exact","520 SPENCER LN, MONROE TOWNSHIP, NJ, 08831",60256345,"L"
236832,"521  W 124TH ST  UNIT 186","NEW YORK","NY",10031,NA,NA,332,"521  W 124TH ST  UNIT 186, NEW YORK, NY, 10031","No_Match",NA,NA,NA,NA
236833,"521 1ST AVE","VAN METER","IA",50261,NA,NA,333,"521 1ST AVE, VAN METER, IA, 50261","No_Match",NA,NA,NA,NA
236834,"521 22ND AVE","BELLWOOD","IL",60104,41.8834624360001,-87.8600844219999,334,"521 22ND AVE, BELLWOOD, IL, 60104","Match","Exact","521 22ND AVE, BELLWOOD, IL, 60104",111727788,"L"
236835,"521 2ND AVE","MADISON","MN",56256,45.01358485,-96.187423951,335,"521 2ND AVE, MADISON, MN, 56256","Match","Exact","521 2ND AVE, MADISON, MN, 56256",165070750,"L"
236836,"521 49TH STREET APT 3L","BROOKLYN","NY",11220,40.645337951,-74.0091761739999,336,"521 49TH STREET APT 3L, BROOKLYN, NY, 11220","Match","Exact","521 49TH ST, BROOKLYN, NY, 11220",59094449,"L"
236837,"521 5TH AVE 17TH FLOOR","NEW YORK","NY",10175,40.7544301980001,-73.980185418,337,"521 5TH AVE 17TH FLOOR, NEW YORK, NY, 10175","Match","Non_Exact","521 5TH AVE, NEW YORK, NY, 10017",59658640,"R"
236838,"521 6TH STREET","ALEXANDRIA","SD",57311,43.655456929,-97.7810136099999,338,"521 6TH STREET, ALEXANDRIA, SD, 57311","Match","Exact","521 6TH ST, ALEXANDRIA, SD, 57311",200692751,"L"
236839,"521 ALA MOANA BLVD SUITE 211","HONOLULU","HI",96813,NA,NA,339,"521 ALA MOANA BLVD SUITE 211, HONOLULU, HI, 96813","No_Match",NA,NA,NA,NA
236840,"521 AMBROSE","MURPHY","TX",75094,33.021478336,-96.614259763,340,"521 AMBROSE, MURPHY, TX, 75094","Match","Non_Exact","521 AMBROSE DR, MURPHY, TX, 75094",123544973,"R"
236841,"521 ASHDALE DRIVE","FORT WORTH","TX",76140,32.6029481080001,-97.327136777,341,"521 ASHDALE DRIVE, FORT WORTH, TX, 76140","Match","Exact","521 ASHDALE DR, FORT WORTH, TX, 76140",619866221,"L"
236842,"521 AUDUBON VILLAGE SPUR","WILDWOOD","MO",63040,38.56564229,-90.6255893919999,342,"521 AUDUBON VILLAGE SPUR, WILDWOOD, MO, 63040","Match","Non_Exact","521 AUDUBON VILLAGE SPR, WILDWOOD, MO, 63040",100176514,"R"
236843,"521 BEECH STREET","POTTSTOWN","PA",19464,40.248451216,-75.64056019,343,"521 BEECH STREET, POTTSTOWN, PA, 19464","Match","Exact","521 BEECH ST, POTTSTOWN, PA, 19464",135062096,"L"
236844,"521 BELFREY CT","AVON LAKE","OH",44012,41.491881746,-81.998912618,344,"521 BELFREY CT, AVON LAKE, OH, 44012","Match","Exact","521 BELFREY CT, AVON LAKE, OH, 44012",631987332,"L"
236845,"521 BIRDSEY STREET","COLUMBUS","WI",53925,NA,NA,345,"521 BIRDSEY STREET, COLUMBUS, WI, 53925","Tie",NA,NA,NA,NA
236846,"521 BOYLES RD","WAYNESBORO","MS",39367,31.7027340860001,-88.80574761,346,"521 BOYLES RD, WAYNESBORO, MS, 39367","Match","Exact","521 BOYLES RD, WAYNESBORO, MS, 39367",278058,"L"
236847,"521 BRAMHALL AVE","JERSEY CITY","NJ",7304,40.714462976,-74.073357016,347,"521 BRAMHALL AVE, JERSEY CITY, NJ, 7304","Match","Exact","521 BRAMHALL AVE, JERSEY CITY, NJ, 07304",59604405,"L"
236848,"521 CAROLINA AVE","VIRGINIA BEACH","VA",23451,36.834347547,-75.977001214,348,"521 CAROLINA AVE, VIRGINIA BEACH, VA, 23451","Match","Exact","521 CAROLINA AVE, VA BCH, VA, 23451",122272755,"R"
236849,"521 CHURCH STREET","LEWISBURG","WV",24901,37.8007084810001,-80.4494983399999,349,"521 CHURCH STREET, LEWISBURG, WV, 24901","Match","Exact","521 CHURCH ST, LEWISBURG, WV, 24901",74750311,"L"
236850,"521 CODY AVENUE","HURLBURT FIELD","FL",32544,NA,NA,350,"521 CODY AVENUE, HURLBURT FIELD, FL, 32544","No_Match",NA,NA,NA,NA
236851,"521 CREIGHTON LANE","SCHAUMBURG","IL",60193,42.018205492,-88.072753201,351,"521 CREIGHTON LANE, SCHAUMBURG, IL, 60193","Match","Exact","521 CREIGHTON LN, SCHAUMBURG, IL, 60193",111695143,"L"
236852,"521 CROWN CRESCENT","CHESAPEAKE","VA",23325,36.805690601,-76.242345164,352,"521 CROWN CRESCENT, CHESAPEAKE, VA, 23325","Match","Exact","521 CROWN CRES, CHESAPEAKE, VA, 23325",121772217,"R"
236853,"521 CYPRESS ST","PHILADELPHIA","PA",19106,39.9447465320001,-75.150761194,353,"521 CYPRESS ST, PHILADELPHIA, PA, 19106","Match","Exact","521 CYPRESS ST, PHILADELPHIA, PA, 19106",131424182,"R"
236854,"521 DOUGFIELD ROAD","NEWARK","DE",19713,39.658975685,-75.7223500599999,354,"521 DOUGFIELD ROAD, NEWARK, DE, 19713","Match","Exact","521 DOUGFIELD RD, NEWARK, DE, 19713",187264791,"R"
236855,"521 E 19TH ST","DELTA","CO",81416,38.7212471300001,-108.062874285,355,"521 E 19TH ST, DELTA, CO, 81416","Match","Exact","521 E 19TH ST, DELTA, CO, 81416",639624823,"L"
236856,"521 E 91ST STREET","CHICAGO","IL",60619,41.7292453360001,-87.611293554,356,"521 E 91ST STREET, CHICAGO, IL, 60619","Match","Exact","521 E 91ST ST, CHICAGO, IL, 60619",111773146,"R"
236857,"521 E FAIR ST","ALGONA","IA",50511,43.0605529650001,-94.23137845,357,"521 E FAIR ST, ALGONA, IA, 50511","Match","Exact","521 E FAIR ST, ALGONA, IA, 50511",9838836,"R"
236858,"521 E FORDYCE ST","ENGLAND","AR",72046,34.5456739730001,-91.964467975,358,"521 E FORDYCE ST, ENGLAND, AR, 72046","Match","Exact","521 E FORDYCE ST, ENGLAND, AR, 72046",79703336,"L"
236859,"521 E HOUSTON ST","LOVELADY","TX",75851,31.1272689800001,-95.440657677,359,"521 E HOUSTON ST, LOVELADY, TX, 75851","Match","Exact","521 E HOUSTON ST, LOVELADY, TX, 75851",21992955,"L"
236860,"521 E JOPPA ROAD STE 105","TOWSON","MD",21286,39.4011569260001,-76.593244448,360,"521 E JOPPA ROAD STE 105, TOWSON, MD, 21286","Match","Non_Exact","521 E JOPPA RD, TOWSON, MD, 21286",636224619,"R"
236861,"521 E LOCUST ST STE 302","DES MOINES","IA",50309,41.5870363330001,-93.624047412,361,"521 E LOCUST ST STE 302, DES MOINES, IA, 50309","Match","Exact","521 LOCUST ST, DES MOINES, IA, 50309",65783019,"R"
236862,"521 E MAIN ST","LEBANON","IN",46052,40.047555747,-86.463343557,362,"521 E MAIN ST, LEBANON, IN, 46052","Match","Exact","521 E MAIN ST, LEBANON, IN, 46052",610984070,"R"
236863,"521 E NORTH AVE","TRINIDAD","CO",81082,37.1851508500001,-104.501923986,363,"521 E NORTH AVE, TRINIDAD, CO, 81082","Match","Exact","521 E NORTH AVE, TRINIDAD, CO, 81082",619357794,"R"
236864,"521 E PRAIRIE ST","HARRISVILLE","PA",16038,41.135999113,-80.003335234,364,"521 E PRAIRIE ST, HARRISVILLE, PA, 16038","Match","Exact","521 E PRAIRIE ST, HARRISVILLE, PA, 16038",52668358,"L"
236865,"521 EAST 40TH STREET","BROOKLYN","NY",11203,40.64280353,-73.9391080299999,365,"521 EAST 40TH STREET, BROOKLYN, NY, 11203","Match","Exact","521 E 40TH ST, BROOKLYN, NY, 11203",59081883,"L"
236866,"521 EAST 43RD STREET","BROOKLYN","NY",11203,40.642396327,-73.9361702099999,366,"521 EAST 43RD STREET, BROOKLYN, NY, 11203","Match","Exact","521 E 43RD ST, BROOKLYN, NY, 11203",59081935,"L"
236867,"521 EAST LOCUST STREET SUITE 302","DES MOINES","IA",50309,41.589741921,-93.610877181,367,"521 EAST LOCUST STREET SUITE 302, DES MOINES, IA, 50309","Match","Exact","521 E LOCUST ST, DES MOINES, IA, 50309",65783848,"R"
236868,"521 EAST UTOPIA ROAD","PHOENIX","AZ",85024,33.662052299,-112.067428744,368,"521 EAST UTOPIA ROAD, PHOENIX, AZ, 85024","Match","Exact","521 E UTOPIA RD, PHOENIX, AZ, 85024",642851364,"L"
236869,"521 EASY ST UNIT 6","CLEVELAND","TX",77327,30.3438787150001,-95.074425871,369,"521 EASY ST UNIT 6, CLEVELAND, TX, 77327","Match","Exact","521 EASY ST, CLEVELAND, TX, 77327",627936910,"L"
236870,"521 EDGEWOOD ROAD","HURRICANE","WV",25526,38.448061771,-81.981520028,370,"521 EDGEWOOD ROAD, HURRICANE, WV, 25526","Match","Exact","521 EDGEWOOD RD, HURRICANE, WV, 25526",130518799,"L"
236871,"521 FAIRMONT ST NE","FRIDLEY","MN",55432,45.115304166,-93.284976305,371,"521 FAIRMONT ST NE, FRIDLEY, MN, 55432","Match","Non_Exact","521 FAIRMONT ST, FRIDLEY, MN, 55432",97486627,"R"
236872,"521 FERRY ST","DAYTON","OR",97114,45.2192940900001,-123.078380956,372,"521 FERRY ST, DAYTON, OR, 97114","Match","Exact","521 FERRY ST, DAYTON, OR, 97114",649852059,"L"
236873,"521 FORD ROAD","HAMPTON","VA",23663,37.037818035,-76.31041829,373,"521 FORD ROAD, HAMPTON, VA, 23663","Match","Exact","521 FORD RD, HAMPTON, VA, 23663",103760612,"L"
236874,"521 GOLF VIEW DRIVE","PEACHTREE CITY","GA",30269,33.4170340380001,-84.5838978259999,374,"521 GOLF VIEW DRIVE, PEACHTREE CITY, GA, 30269","Match","Non_Exact","521 GOLFVIEW DR, PEACHTREE CITY, GA, 30269",75941813,"L"
236875,"521 GREYBULL AVE","GREYBULL","WY",82426,44.488851196,-108.054261883,375,"521 GREYBULL AVE, GREYBULL, WY, 82426","Match","Exact","521 GREYBULL AVE, GREYBULL, WY, 82426",180484758,"R"
236876,"521 HAMPTON DRIVE","HOMEWOOD","AL",35209,33.4731105060001,-86.7784659929999,376,"521 HAMPTON DRIVE, HOMEWOOD, AL, 35209","Match","Exact","521 HAMPTON DR, HOMEWOOD, AL, 35209",81584170,"L"
236877,"521 HARTMAN STREET APT 4","MISSOULA","MT",59802,46.868165855,-113.988806497,377,"521 HARTMAN STREET APT 4, MISSOULA, MT, 59802","Match","Exact","521 HARTMAN ST, MISSOULA, MT, 59802",205273055,"R"
236878,"521 HIGH STREET","MARQUETTE","MI",49855,46.5474370220001,-87.3905013999999,378,"521 HIGH STREET, MARQUETTE, MI, 49855","Match","Exact","521 HIGH ST, MARQUETTE, MI, 49855",182034780,"L"
236879,"521 INVERNESS AVENEU","AMBLER","PA",19002,40.149363232,-75.210335454,379,"521 INVERNESS AVENEU, AMBLER, PA, 19002","Match","Non_Exact","521 INVERNESS AVE, AMBLER, PA, 19002",615378928,"L"
236880,"521 JACKSON STREET","LOUISIANA","MO",63353,39.452476297,-91.052335645,380,"521 JACKSON STREET, LOUISIANA, MO, 63353","Match","Exact","521 JACKSON ST, LOUISIANA, MO, 63353",44640298,"L"
236881,"521 JAYNES DR","HALLS","TN",38040,35.880961761,-89.3905733829999,381,"521 JAYNES DR, HALLS, TN, 38040","Match","Non_Exact","521 JAYNES ST, HALLS, TN, 38040",63777617,"L"
236882,"521 KENTUCKY AVE","MONROEVILLE","PA",15146,40.415026959,-79.804580272,382,"521 KENTUCKY AVE, MONROEVILLE, PA, 15146","Match","Exact","521 KENTUCKY AVE, MONROEVILLE, PA, 15146",51674122,"L"
236883,"521 KEY COURT","ORLANDO","FL",32828,28.5444675300001,-81.192946548,383,"521 KEY COURT, ORLANDO, FL, 32828","Match","Exact","521 KEY CT, ORLANDO, FL, 32828",94340428,"L"
236884,"521 KIM PLACE","HAYWARD","CA",94544,37.6494183040001,-122.093106101,384,"521 KIM PLACE, HAYWARD, CA, 94544","Match","Exact","521 KIM PL, HAYWARD, CA, 94544",125020889,"R"
236885,"521 KINGS CROFT","CHERRY HILL","NJ",8034,39.934435969,-74.983878024,385,"521 KINGS CROFT, CHERRY HILL, NJ, 8034","Match","Exact","521 KINGS CROFT, CHERRY HILL, NJ, 08034",134403468,"L"
236886,"521 LANCASTER AVE FUNDERBURK BLDG","RICHMOND","KY",40475,37.7428238630001,-84.301751151,386,"521 LANCASTER AVE FUNDERBURK BLDG, RICHMOND, KY, 40475","Match","Exact","521 LANCASTER AVE, RICHMOND, KY, 40475",32026938,"R"
236887,"521 LINDEN STREET","BRISTOL","PA",19007,40.097702278,-74.863652469,387,"521 LINDEN STREET, BRISTOL, PA, 19007","Match","Exact","521 LINDEN ST, BRISTOL, PA, 19007",134717327,"R"
236888,"521 LONGLEAF COURT","LAWRENCEVILLE","GA",30046,33.9336725960001,-83.996947184,388,"521 LONGLEAF COURT, LAWRENCEVILLE, GA, 30046","Match","Exact","521 LONGLEAF CT, LAWRENCEVILLE, GA, 30046",88926197,"R"
236889,"521 LOWELL DRIVE","SOUTH ELGIN","IL",60177,41.997704411,-88.319827891,389,"521 LOWELL DRIVE, SOUTH ELGIN, IL, 60177","Match","Exact","521 LOWELL DR, SOUTH ELGIN, IL, 60177",119585121,"R"
236890,"521 MAIN ST S","GRAND MEADOW","MN",55936,43.70030051,-92.572800811,390,"521 MAIN ST S, GRAND MEADOW, MN, 55936","Match","Exact","521 MAIN ST S, GRAND MEADOW, MN, 55936",27633529,"L"
236891,"521 MAIN STREET","TOWANDA","PA",18848,41.764860835,-76.4430931639999,391,"521 MAIN STREET, TOWANDA, PA, 18848","Match","Exact","521 MAIN ST, TOWANDA, PA, 18848",176978623,"R"
236892,"521 MAPLE BLVD APARTMENT 22","KANSAS CITY","MO",64124,39.107339387,-94.558541061,392,"521 MAPLE BLVD APARTMENT 22, KANSAS CITY, MO, 64124","Match","Exact","521 MAPLE BLVD, KANSAS CITY, MO, 64124",91448888,"L"
236893,"521 MEADOW GLEN COURT","HOUSE SPRINGS","MO",63051,38.4296535730001,-90.557452826,393,"521 MEADOW GLEN COURT, HOUSE SPRINGS, MO, 63051","Match","Exact","521 MEADOW GLEN CT, HOUSE SPRINGS, MO, 63051",627668775,"L"
236894,"521 MEADOWSHIRE","DALLAS","TX",75232,32.6560871120001,-96.8293372369999,394,"521 MEADOWSHIRE, DALLAS, TX, 75232","Match","Non_Exact","521 MEADOWSHIRE DR, DALLAS, TX, 75232",102953087,"R"
236895,"521 MIDDLE ST","PORTSMOUTH","VA",23704,36.8359476360001,-76.29938715,395,"521 MIDDLE ST, PORTSMOUTH, VA, 23704","Match","Exact","521 MIDDLE ST, PORTSMOUTH, VA, 23704",122203321,"L"
236896,"521 MIMOSA COURT","BRADENTON","FL",34212,27.4940188890001,-82.427780619,396,"521 MIMOSA COURT, BRADENTON, FL, 34212","Match","Non_Exact","521 MEMOSA CT, BRADENTON, FL, 34212",652348627,"L"
236897,"521 N 12TH ST","FORT DODGE","IA",50501,42.511069782,-94.183407786,397,"521 N 12TH ST, FORT DODGE, IA, 50501","Match","Exact","521 N 12TH ST, FORT DODGE, IA, 50501",635833464,"R"
236898,"521 N 13TH ST APT 4","BOISE","ID",83702,NA,NA,398,"521 N 13TH ST APT 4, BOISE, ID, 83702","Tie",NA,NA,NA,NA
236899,"521 N 9TH ST APT 4","BROKEN ARROW","OK",74012,NA,NA,399,"521 N 9TH ST APT 4, BROKEN ARROW, OK, 74012","Tie",NA,NA,NA,NA
236900,"521 N CENTER STREET","PICKERINGTON","OH",43147,39.8925630100001,-82.7468525039999,400,"521 N CENTER STREET, PICKERINGTON, OH, 43147","Match","Exact","521 N CENTER ST, PICKERINGTON, OH, 43147",37215582,"L"
236901,"521 N COUNTRY CLUB","TUCSON","AZ",85716,NA,NA,401,"521 N COUNTRY CLUB, TUCSON, AZ, 85716","No_Match",NA,NA,NA,NA
236902,"521 N CRIMSON RD","MESA","AZ",85207,NA,NA,402,"521 N CRIMSON RD, MESA, AZ, 85207","No_Match",NA,NA,NA,NA
236903,"521 N DELLROSE","WICHITA","KS",67208,37.694267998,-97.281700475,403,"521 N DELLROSE, WICHITA, KS, 67208","Match","Exact","521 N DELLROSE, WICHITA, KS, 67208",115638330,"L"
236904,"521 N HOLLY ST","PHILA","PA",19104,39.9614621480001,-75.206074535,404,"521 N HOLLY ST, PHILA, PA, 19104","Match","Exact","521 N HOLLY ST, PHILA, PA, 19104",131403792,"R"
236905,"521 N MADISON STREET","THOMASVILLE","GA",31792,30.84133896,-83.98509275,405,"521 N MADISON STREET, THOMASVILLE, GA, 31792","Match","Exact","521 N MADISON ST, THOMASVILLE, GA, 31792",83103050,"L"
236906,"521 N MAIN ST","BOWLING GREEN","OH",43402,41.380153638,-83.6504366889999,406,"521 N MAIN ST, BOWLING GREEN, OH, 43402","Match","Exact","521 N MAIN ST, BOWLING GREEN, OH, 43402",38729206,"R"
236907,"521 N MAIN ST","TONOPAH","NV",89049,38.0722872950001,-117.23677515,407,"521 N MAIN ST, TONOPAH, NV, 89049","Match","Exact","521 MAIN ST, TONOPAH, NV, 89049",140592802,"L"
236908,"521 N MARLYN AVENUE","BALTIMORE","MD",21221,39.3239019810001,-76.460346651,408,"521 N MARLYN AVENUE, BALTIMORE, MD, 21221","Match","Exact","521 N MARLYN AVE, BALTIMORE, MD, 21221",191493087,"R"
236909,"521 N SAM HOUSTON PARKWAY E STE 420","HOUSTON","TX",77060,29.9389753410001,-95.391912035,409,"521 N SAM HOUSTON PARKWAY E STE 420, HOUSTON, TX, 77060","Match","Non_Exact","521 SAM HOUSTON PKWY, HOUSTON, TX, 77060",96656615,"L"
236910,"521 N WEST ST","WILMINGTON","DE",19801,39.7425909660001,-75.553707873,410,"521 N WEST ST, WILMINGTON, DE, 19801","Match","Exact","521 N WEST ST, WILMINGTON, DE, 19801",187257959,"L"
236911,"521 NE 74 STREET","MIAMI","FL",33138,25.859456075,-80.124114119,411,"521 NE 74 STREET, MIAMI, FL, 33138","Match","Non_Exact","521 74TH ST, MIAMI, FL, 33141",116009236,"R"
236912,"521 NORTH AVENUE","NEWPORT NEWS","VA",23601,37.026643773,-76.452165538,412,"521 NORTH AVENUE, NEWPORT NEWS, VA, 23601","Match","Exact","521 NORTH AVE, NEWPORT NEWS, VA, 23601",103754987,"L"
236913,"521 NORTH BROAD ST","LANCASTER","OH",43130,39.7193268450001,-82.601657705,413,"521 NORTH BROAD ST, LANCASTER, OH, 43130","Match","Exact","521 N BROAD ST, LANCASTER, OH, 43130",37242570,"L"
236914,"521 NORTH GLASSEL STREET","ORANGE","CA",92867,33.795568679,-117.853071171,414,"521 NORTH GLASSEL STREET, ORANGE, CA, 92867","Match","Non_Exact","521 N GLASSELL ST, ORANGE, CA, 92867",144030844,"R"
236915,"521 NORTH GRAHAM STREET 3E","CHARLOTTE","NC",28202,35.233908134,-80.8424153189999,415,"521 NORTH GRAHAM STREET 3E, CHARLOTTE, NC, 28202","Match","Exact","521 N GRAHAM ST, CHARLOTTE, NC, 28202",70479116,"L"
236916,"521 NORTH PINE STREET","MOUNT PROSPECT","IL",60056,42.0757999580001,-87.9392632409999,416,"521 NORTH PINE STREET, MOUNT PROSPECT, IL, 60056","Match","Exact","521 N PINE ST, MOUNT PROSPECT, IL, 60056",111719676,"R"
236917,"521 NORTH VILLA LOUIS ROAD","PRAIRIE DU CHIEN","WI",53821,43.057299261,-91.157843988,417,"521 NORTH VILLA LOUIS ROAD, PRAIRIE DU CHIEN, WI, 53821","Match","Exact","521 N VILLA LOUIS RD, PRAIRIE DU CHIEN, WI, 53821",47968635,"L"
236918,"521 NOTTINGHAM LN","FOSTER CITY","CA",94404,37.5396730520001,-122.26476307,418,"521 NOTTINGHAM LN, FOSTER CITY, CA, 94404","Match","Exact","521 NOTTINGHAM LN, FOSTER CITY, CA, 94404",192384747,"L"
236919,"521 NW 7TH TER","POMPANO BEACH","FL",33060,26.2354867660001,-80.1323138449999,419,"521 NW 7TH TER, POMPANO BEACH, FL, 33060","Match","Non_Exact","521 NW 7TH TER, POMPANO BEACH, FL, 33060",633568321,"R"
236920,"521 NW 7TH TERRACE","POMPANO BEACH","FL",33060,26.2354867660001,-80.1323138449999,420,"521 NW 7TH TERRACE, POMPANO BEACH, FL, 33060","Match","Non_Exact","521 NW 7TH TER, POMPANO BEACH, FL, 33060",633568321,"R"
236921,"521 PATSY STREET","OPELOUSAS","LA",70570,30.54759195,-92.0865306859999,421,"521 PATSY STREET, OPELOUSAS, LA, 70570","Match","Exact","521 PATSY ST, OPELOUSAS, LA, 70570",106434270,"L"
236922,"521 PEBBLE CREEK DRIVE","NORCROSS","GA",30093,33.8849566310001,-84.1804940439999,422,"521 PEBBLE CREEK DRIVE, NORCROSS, GA, 30093","Match","Exact","521 PEBBLE CREEK DR, NORCROSS, GA, 30093",88914941,"R"
236923,"521 PENMAN WAY","ALPHARETTA","GA",30022,34.0627989120001,-84.2156673489999,423,"521 PENMAN WAY, ALPHARETTA, GA, 30022","Match","Exact","521 PENMAN WAY, ALPHARETTA, GA, 30022",642705171,"R"
236924,"521 PERKINS AVE","MOUNT VERNON","IL",62864,38.307178369,-88.897802613,424,"521 PERKINS AVE, MOUNT VERNON, IL, 62864","Match","Exact","521 PERKINS AVE, MOUNT VERNON, IL, 62864",92869880,"L"
236925,"521 PIN OAK TRAIL","KELLER","TX",76248,32.9018077100001,-97.243201588,425,"521 PIN OAK TRAIL, KELLER, TX, 76248","Match","Exact","521 PIN OAK TRL, KELLER, TX, 76248",102093473,"L"
236926,"521 RAINBOW DRIVE","KOKOMO","IN",46902,40.4497112550001,-86.124868475,426,"521 RAINBOW DRIVE, KOKOMO, IN, 46902","Match","Exact","521 RAINBOW DR, KOKOMO, IN, 46902",27264488,"R"
236927,"521 RANDOLPH ST","OWOSSO","MI",48867,43.002172181,-84.1602731959999,427,"521 RANDOLPH ST, OWOSSO, MI, 48867","Match","Exact","521 RANDOLPH ST, OWOSSO, MI, 48867",23645743,"L"
236928,"521 RIVER TER","KIEL","WI",53042,43.9100640780001,-88.036451302,428,"521 RIVER TER, KIEL, WI, 53042","Match","Exact","521 RIVER TER, KIEL, WI, 53042",147952282,"R"
236929,"521 RIVERSIDE AVENUE","WESTPORT","CT",6880,41.1232955740001,-73.371049463,429,"521 RIVERSIDE AVENUE, WESTPORT, CT, 6880","Match","Exact","521 RIVERSIDE AVE, WESTPORT, CT, 06880",3251898,"L"
236930,"521 ROGER CHAFFEE SQUARE","BEAR","DE",19701,NA,NA,430,"521 ROGER CHAFFEE SQUARE, BEAR, DE, 19701","No_Match",NA,NA,NA,NA
236931,"521 ROGER CHURCH ROAD","FORSYTH","GA",31029,32.908570884,-83.924399181,431,"521 ROGER CHURCH ROAD, FORSYTH, GA, 31029","Match","Non_Exact","521 ROGERS CHURCH RD, FORSYTH, GA, 31029",66672296,"L"
236932,"521 S 30TH ST","SAGINAW","MI",48601,43.425039364,-83.89847809,432,"521 S 30TH ST, SAGINAW, MI, 48601","Match","Exact","521 S 30TH ST, SAGINAW, MI, 48601",80213167,"R"
236933,"521 S EAST AVENUE","BALTIMORE","MD",21224,39.2862019130001,-76.5715089,433,"521 S EAST AVENUE, BALTIMORE, MD, 21224","Match","Exact","521 S EAST AVE, BALTIMORE, MD, 21224",206425310,"L"
236934,"521 S HERSCHEL AVE","WICHITA","KS",67209,37.675941649,-97.452119963,434,"521 S HERSCHEL AVE, WICHITA, KS, 67209","Match","Non_Exact","521 HERSCHEL ST, WICHITA, KS, 67209",115641791,"R"
236935,"521 S MASHTA DRIVE","MIAMI","FL",33149,25.6834894730001,-80.172459416,435,"521 S MASHTA DRIVE, MIAMI, FL, 33149","Match","Exact","521 S MASHTA DR, MIAMI, FL, 33149",116021188,"R"
236936,"521 S OLIVE AVE","SANDPOINT","ID",83864,48.266832944,-116.563859848,436,"521 S OLIVE AVE, SANDPOINT, ID, 83864","Match","Exact","521 S OLIVE AVE, SANDPOINT, ID, 83864",169476506,"R"
236937,"521 S SOTO ST","LOS ANGELES","CA",90033,34.0387386030001,-118.212942598,437,"521 S SOTO ST, LOS ANGELES, CA, 90033","Match","Exact","521 S SOTO ST, LOS ANGELES, CA, 90033",141624249,"R"
236938,"521 S WESTLAKE AVE","LOS ANGELES","CA",90057,34.059703099,-118.273190427,438,"521 S WESTLAKE AVE, LOS ANGELES, CA, 90057","Match","Exact","521 S WESTLAKE AVE, LOS ANGELES, CA, 90057",141616460,"R"
236939,"521 SAINT JEAN","WEST HELENA","AR",72390,34.5506020460001,-90.6390270809999,439,"521 SAINT JEAN, WEST HELENA, AR, 72390","Match","Exact","521 SAINT JEAN, WEST HELENA, AR, 72390",12305866,"R"
236940,"521 SAINT MARY ST APT 210","NEW ORLEANS","LA",70130,29.9273176660001,-90.0693939619999,440,"521 SAINT MARY ST APT 210, NEW ORLEANS, LA, 70130","Match","Exact","521 SAINT MARY ST, NEW ORLEANS, LA, 70130",191714769,"R"
236941,"521 SAUSALITO BLVD","SAUSALITO","CA",94965,37.849930923,-122.486824816,441,"521 SAUSALITO BLVD, SAUSALITO, CA, 94965","Match","Exact","521 SAUSALITO BLVD, SAUSALITO, CA, 94965",636413041,"L"
236942,"521 SAWYER BLVD SUITE 214","COLUMBUS","OH",43203,39.975497798,-82.9766088809999,442,"521 SAWYER BLVD SUITE 214, COLUMBUS, OH, 43203","Match","Exact","521 SAWYER BLVD, COLUMBUS, OH, 43203",218564490,"L"
236943,"521 SE LINDEN DR","BLUE SPRINGS","MO",64014,38.96816111,-94.264503245,443,"521 SE LINDEN DR, BLUE SPRINGS, MO, 64014","Match","Exact","521 SE LINDEN DR, BLUE SPRINGS, MO, 64014",649993758,"R"
236944,"521 SHADY AVE APT 12","PITTSBURGH","PA",15206,40.4543183930001,-79.921581757,444,"521 SHADY AVE APT 12, PITTSBURGH, PA, 15206","Match","Exact","521 SHADY AVE, PITTSBURGH, PA, 15206",51646671,"L"
236945,"521 SHARON DR","HUMBLE","TX",77338,29.992305586,-95.25163092,445,"521 SHARON DR, HUMBLE, TX, 77338","Match","Exact","521 SHARON DR, HUMBLE, TX, 77338",96047445,"L"
236946,"521 SORRENTO DR","CENTERTON","AR",72719,36.3687509710001,-94.276924638,446,"521 SORRENTO DR, CENTERTON, AR, 72719","Match","Exact","521 SORRENTO DR, CENTERTON, AR, 72719",47885665,"R"
236947,"521 SOUTH 6TH STREET","LAS VEGAS","NV",89101,36.163803237,-115.142737476,447,"521 SOUTH 6TH STREET, LAS VEGAS, NV, 89101","Match","Exact","521 S 6TH ST, LAS VEGAS, NV, 89101",201867560,"L"
236948,"521 SOUTH FIG TREE LN","PLANTATION","FL",33317,26.1147993120001,-80.2294254999999,448,"521 SOUTH FIG TREE LN, PLANTATION, FL, 33317","Match","Exact","521 S FIG TREE LN, PLANTATION, FL, 33317",114708454,"R"
236949,"521 SOUTH ROAD STREET","ELIZABETH CITY","NC",27909,36.2952172930001,-76.22336394,449,"521 SOUTH ROAD STREET, ELIZABETH CITY, NC, 27909","Match","Exact","521 S ROAD ST, ELIZABETH CITY, NC, 27909",18592727,"L"
236950,"521 SOUTH VANDEVENTER AVENUE","ST. LOUIS","MO",63110,38.6316065870001,-90.243761069,450,"521 SOUTH VANDEVENTER AVENUE, ST. LOUIS, MO, 63110","Match","Exact","521 S VANDEVENTER AVE, SAINT LOUIS, MO, 63110",107596961,"R"
236951,"521 SPENCER WAY","INCLINE VILLAGE","NV",89451,39.256572383,-119.984810843,451,"521 SPENCER WAY, INCLINE VILLAGE, NV, 89451","Match","Exact","521 SPENCER WAY, INCLINE VILLAGE, NV, 89451",107056035,"R"
236952,"521 ST MARKS AVE  7C","BROOKLYN","NY",11238,40.6760427880001,-73.956579887,452,"521 ST MARKS AVE  7C, BROOKLYN, NY, 11238","Match","Exact","521 ST MARKS AVE, BROOKLYN, NY, 11238",59079323,"L"
236953,"521 ST MARKS AVENUE 3B","BROOKLYN","NY",11213,40.6760427880001,-73.956579887,453,"521 ST MARKS AVENUE 3B, BROOKLYN, NY, 11213","Match","Non_Exact","521 ST MARKS AVE, BROOKLYN, NY, 11238",59079323,"L"
236954,"521 SUT LARSEN WAY","KODIAK","AK",99615,57.8168280670001,-152.334717115,454,"521 SUT LARSEN WAY, KODIAK, AK, 99615","Match","Exact","521 SUT LARSEN WAY, KODIAK, AK, 99615",624867743,"L"
236955,"521 SUTRO FOREST DR NW","CONCORD","NC",28027,35.4061504000001,-80.753080542,455,"521 SUTRO FOREST DR NW, CONCORD, NC, 28027","Match","Exact","521 SUTRO FOREST DR NW, CONCORD, NC, 28027",619080143,"R"
236956,"521 SW 11TH CT","FORT LAUDERDALE","FL",33315,26.1083333,-80.14869619,456,"521 SW 11TH CT, FORT LAUDERDALE, FL, 33315","Match","Non_Exact","521 SW 11TH CT, FORT LAUDERDALE, FL, 33315",114727839,"R"
236957,"521 SW 29TH","OKLAHOMA CITY","OK",73109,NA,NA,457,"521 SW 29TH, OKLAHOMA CITY, OK, 73109","No_Match",NA,NA,NA,NA
236958,"521 SW 59 ST","OCALA","FL",34471,29.126860207,-82.1424376049999,458,"521 SW 59 ST, OCALA, FL, 34471","Match","Exact","521 SW 59TH ST, OCALA, FL, 34471",116734661,"R"
236959,"521 SW CLAY","PORTAND","OR",97201,45.5135402270001,-122.680722307,459,"521 SW CLAY, PORTAND, OR, 97201","Match","Non_Exact","521 SW CLAY ST, PORTLAND, OR, 97201",157500849,"R"
236960,"521 TANAGER DRIVE","MANDEVILLE","LA",70448,30.369378032,-90.0435332489999,460,"521 TANAGER DRIVE, MANDEVILLE, LA, 70448","Match","Exact","521 TANAGER DR, MANDEVILLE, LA, 70448",618341546,"R"
236961,"521 THAMES CIRCLE","NICHOLASVILLE","KY",40356,37.8972533210001,-84.590834123,461,"521 THAMES CIRCLE, NICHOLASVILLE, KY, 40356","Match","Exact","521 THAMES CIR, NICHOLASVILLE, KY, 40356",614137767,"R"
236962,"521 VETERANS AVE","SISSETON","SD",57262,45.6648657580001,-97.049683978,462,"521 VETERANS AVE, SISSETON, SD, 57262","Match","Exact","521 VETERANS AVE, SISSETON, SD, 57262",196099985,"R"
236963,"521 VILLAGE CHURCH DR","CHAPIN","SC",29036,34.1341300920001,-81.302892651,463,"521 VILLAGE CHURCH DR, CHAPIN, SC, 29036","Match","Exact","521 VILLAGE CHURCH DR, CHAPIN, SC, 29036",628046619,"L"
236964,"521 W 146TH STREET","NEW YORK","NY",10031,40.8262181580001,-73.94783796,464,"521 W 146TH STREET, NEW YORK, NY, 10031","Match","Exact","521 W 146TH ST, NEW YORK, NY, 10031",59655920,"R"
236965,"521 W GARNETT ST","HILL CITY","KS",67642,39.370833722,-99.8476103529999,465,"521 W GARNETT ST, HILL CITY, KS, 67642","Match","Exact","521 W GARNETT ST, HILL CITY, KS, 67642",203629629,"L"
236966,"521 W HERROLD AVE","ELKHART","IN",46517,41.664370519,-85.974131916,466,"521 W HERROLD AVE, ELKHART, IN, 46517","Match","Exact","521 W HERROLD AVE, ELKHART, IN, 46517",7752260,"L"
236967,"521 W ST PETER ST","NEW IBERIA","LA",70560,30.010419418,-91.824269248,467,"521 W ST PETER ST, NEW IBERIA, LA, 70560","Match","Exact","521 W SAINT PETER ST, NEW IBERIA, LA, 70560",85361430,"L"
236968,"521 WASHINGTON RD","RYE","NH",3870,43.0134903140001,-70.770819316,468,"521 WASHINGTON RD, RYE, NH, 3870","Match","Exact","521 WASHINGTON RD, RYE, NH, 03870",113714293,"R"
236969,"521 WEST 57TH STREET 4TH FLOOR","NEW YORK","NY",10019,40.769656298,-73.9898226239999,469,"521 WEST 57TH STREET 4TH FLOOR, NEW YORK, NY, 10019","Match","Exact","521 W 57TH ST, NEW YORK, NY, 10019",59662222,"R"
236970,"521 WHITTIER","SAINT LOUIS","MO",63108,38.6449544760001,-90.24577052,470,"521 WHITTIER, SAINT LOUIS, MO, 63108","Match","Non_Exact","521 WHITTIER ST, SAINT LOUIS, MO, 63108",605108994,"L"
236971,"521 WILLIAMS STREET","MARLIN","TX",76661,31.301275,-96.899352693,471,"521 WILLIAMS STREET, MARLIN, TX, 76661","Match","Exact","521 WILLIAMS ST, MARLIN, TX, 76661",621904061,"L"
236972,"521 WINDINGWAY DRIVE","BATON ROUGE","LA",70810,30.373690287,-91.105553247,472,"521 WINDINGWAY DRIVE, BATON ROUGE, LA, 70810","Match","Exact","521 WINDINGWAY DR, BATON ROUGE, LA, 70810",92192846,"L"
236973,"521 WOODLAND STREET","NASHVILLE","TN",37206,36.172031082,-86.7642573219999,473,"521 WOODLAND STREET, NASHVILLE, TN, 37206","Match","Exact","521 WOODLAND ST, NASHVILLE, TN, 37206",97188395,"L"
236974,"521 WYCKFIELD WAY","HINESVILLE","GA",31313,31.83061415,-81.6361999229999,474,"521 WYCKFIELD WAY, HINESVILLE, GA, 31313","Match","Exact","521 WYCKFIELD WAY, HINESVILLE, GA, 31313",646384925,"L"
236975,"521-A NORTH LIMESTONE STREET","GAFFNEY","SC",29340,35.075815391,-81.646737128,475,"521-A NORTH LIMESTONE STREET, GAFFNEY, SC, 29340","Match","Exact","521 N LIMESTONE ST, GAFFNEY, SC, 29340",18988454,"L"
236976,"521","DENVER","CO",80203,NA,NA,476,"521, DENVER, CO, 80203","No_Match",NA,NA,NA,NA
236977,"5210 ALAZAN BAY","ROWLETT","TX",75089,32.918364642,-96.551935024,477,"5210 ALAZAN BAY, ROWLETT, TX, 75089","Match","Non_Exact","5210 ALAZAN BAY DR, ROWLETT, TX, 75089",103208958,"R"
236978,"5210 AUTH RD 4TH FL","CAMP SPRINGS","MD",20746,38.8228641590001,-76.917196734,478,"5210 AUTH RD 4TH FL, CAMP SPRINGS, MD, 20746","Match","Exact","5210 AUTH RD, CAMP SPRINGS, MD, 20746",647284775,"L"
236979,"5210 AUTH RD ST 205","SUITLAND","MD",20746,38.8228641590001,-76.917196734,479,"5210 AUTH RD ST 205, SUITLAND, MD, 20746","Match","Exact","5210 AUTH RD, SUITLAND, MD, 20746",647284775,"L"
236980,"5210 AUTH ROAD SUITE 205","SUITLAND","MD",20746,38.8228641590001,-76.917196734,480,"5210 AUTH ROAD SUITE 205, SUITLAND, MD, 20746","Match","Exact","5210 AUTH RD, SUITLAND, MD, 20746",647284775,"L"
236981,"5210 BELFORT ROAD SUITE 400","JACKSONVILLE","FL",32256,30.2424831650001,-81.5839123759999,481,"5210 BELFORT ROAD SUITE 400, JACKSONVILLE, FL, 32256","Match","Exact","5210 BELFORT RD, JACKSONVILLE, FL, 32256",83929243,"L"
236982,"5210 BIDDISON LANE","BALTIMORE","MD",21206,39.3408773040001,-76.556613735,482,"5210 BIDDISON LANE, BALTIMORE, MD, 21206","Match","Exact","5210 BIDDISON LN, BALTIMORE, MD, 21206",206411513,"L"
236983,"5210 BREEZEWOOD CIR","ALPHARETTA","GA",30004,34.160216088,-84.22388167,483,"5210 BREEZEWOOD CIR, ALPHARETTA, GA, 30004","Match","Exact","5210 BREEZEWOOD CIR, ALPHARETTA, GA, 30004",646173771,"R"
236984,"5210 BROWNCROFT","HOUSTON","TX",77021,29.695524683,-95.337089399,484,"5210 BROWNCROFT, HOUSTON, TX, 77021","Match","Non_Exact","5210 BROWNCROFT ST, HOUSTON, TX, 77021",96089476,"R"
236985,"5210 CENTRAL AVE","INDIANAPOLIS","IN",46220,39.847226778,-86.1500352799999,485,"5210 CENTRAL AVE, INDIANAPOLIS, IN, 46220","Match","Exact","5210 CENTRAL AVE, INDIANAPOLIS, IN, 46220",107984339,"L"
236986,"5210 CHANCELLOR STREET","PHILADELPHIA","PA",19139,39.956409186,-75.2259618699999,486,"5210 CHANCELLOR STREET, PHILADELPHIA, PA, 19139","Match","Exact","5210 CHANCELLOR ST, PHILADELPHIA, PA, 19139",131399214,"L"
236987,"5210 COLLINDALE ROAD","NORTH CHESTERFIELD","VA",23234,37.4527970820001,-77.444785794,487,"5210 COLLINDALE ROAD, NORTH CHESTERFIELD, VA, 23234","Match","Exact","5210 COLLINDALE RD, NORTH CHESTERFIELD, VA, 23234",201547045,"R"
236988,"5210 COUNTY ROAD 305","BUNNELL","FL",32110,29.4089895760001,-81.3666669739999,488,"5210 COUNTY ROAD 305, BUNNELL, FL, 32110","Match","Exact","5210 CO RD 305, BUNNELL, FL, 32110",611130137,"L"
236989,"5210 COURT OF YORK","HOUSTON","TX",77069,NA,NA,489,"5210 COURT OF YORK, HOUSTON, TX, 77069","No_Match",NA,NA,NA,NA
236990,"5210 E NORTH ST","BELLINGHAM","WA",98226,48.7641632580001,-122.399332055,490,"5210 E NORTH ST, BELLINGHAM, WA, 98226","Match","Exact","5210 E NORTH ST, BELLINGHAM, WA, 98226",183773470,"R"
236991,"5210 FAIRBANKS DRIVE","EL PASO","TX",79924,31.902899855,-106.420544662,491,"5210 FAIRBANKS DRIVE, EL PASO, TX, 79924","Match","Exact","5210 FAIRBANKS DR, EL PASO, TX, 79924",189414042,"R"
236992,"5210 FORZLEY ST","ORLANDO","FL",32812,28.5221014800001,-81.31979044,492,"5210 FORZLEY ST, ORLANDO, FL, 32812","Match","Exact","5210 FORZLEY ST, ORLANDO, FL, 32812",94426826,"R"
236993,"5210 FOUNTAIN HILL","SAN ANTONIO","TX",78244,29.4740561630001,-98.3724331719999,493,"5210 FOUNTAIN HILL, SAN ANTONIO, TX, 78244","Match","Exact","5210 FOUNTAIN HILL, SAN ANTONIO, TX, 78244",619945586,"R"
236994,"5210 GRAND AVENUE","FORT SMITH","AR",72904,35.3853368630001,-94.374162035,494,"5210 GRAND AVENUE, FORT SMITH, AR, 72904","Match","Exact","5210 GRAND AVE, FORT SMITH, AR, 72904",637812313,"R"
236995,"5210 GREEN SPRINGS DR","HOUSTON","TX",77066,29.973931936,-95.49971225,495,"5210 GREEN SPRINGS DR, HOUSTON, TX, 77066","Match","Exact","5210 GREEN SPRINGS DR, HOUSTON, TX, 77066",96010253,"L"
236996,"5210 HARBURY LN","SUWANEE","GA",30024,34.0846134450001,-84.099145326,496,"5210 HARBURY LN, SUWANEE, GA, 30024","Match","Exact","5210 HARBURY LN, SUWANEE, GA, 30024",625648591,"R"
236997,"5210 HIGHLAND SPRINGS RD","LAKEPORT","CA",95453,38.9804791780001,-122.8943342,497,"5210 HIGHLAND SPRINGS RD, LAKEPORT, CA, 95453","Match","Exact","5210 HIGHLAND SPRINGS RD, LAKEPORT, CA, 95453",67034507,"R"
236998,"5210 HWY 63 SOUTH","LUCEDALE","MS",39452,NA,NA,498,"5210 HWY 63 SOUTH, LUCEDALE, MS, 39452","No_Match",NA,NA,NA,NA
236999,"5210 JUDSON STREET","LINCOLN","NE",68504,40.8455424900001,-96.648225844,499,"5210 JUDSON STREET, LINCOLN, NE, 68504","Match","Exact","5210 JUDSON ST, LINCOLN, NE, 68504",28257971,"L"
237000,"5210 KAYLIN DR","AKRON","OH",44319,40.949659345,-81.547315278,500,"5210 KAYLIN DR, AKRON, OH, 44319","Match","Exact","5210 KAYLIN DR, AKRON, OH, 44319",61359347,"R"
