"ID","Address","City","State","Zip","lat","long","id","input_address","match_indicator","match_type","matched_address","tiger_line_id","tiger_side"
87501,"175 MAU DR","MUENSTER","TX",76252,NA,NA,1,"175 MAU DR, MUENSTER, TX, 76252","No_Match",NA,NA,NA,NA
87502,"175 MEADOWVIEW LN","MEDINA","MN",55340,45.054337725,-93.527046043,2,"175 MEADOWVIEW LN, MEDINA, MN, 55340","Match","Exact","175 MEADOWVIEW LN, MEDINA, MN, 55340",616142457,"R"
87503,"175 MELROSE AVE","YOUNGSTOWN","OH",44512,41.0446543480001,-80.65445103,3,"175 MELROSE AVE, YOUNGSTOWN, OH, 44512","Match","Exact","175 MELROSE AVE, YOUNGSTOWN, OH, 44512",64598835,"R"
87504,"175 MILL RUN","FAYETTEVILLE","GA",30214,33.4986820940001,-84.5361362519999,4,"175 MILL RUN, FAYETTEVILLE, GA, 30214","Match","Exact","175 MILL RUN, FAYETTEVILLE, GA, 30214",75937007,"R"
87505,"175 MILLER AVENUE","BROOKLYN","NY",11207,40.676977419,-73.892332546,5,"175 MILLER AVENUE, BROOKLYN, NY, 11207","Match","Exact","175 MILLER AVE, BROOKLYN, NY, 11207",59084979,"L"
87506,"175 MONITOR AVE","CINCINNATI","OH",45233,39.113856162,-84.690053231,6,"175 MONITOR AVE, CINCINNATI, OH, 45233","Match","Exact","175 MONITOR AVE, CINCINNATI, OH, 45233",103918089,"L"
87507,"175 MORAIN STREET","BROCKTON","MA",2301,NA,NA,7,"175 MORAIN STREET, BROCKTON, MA, 2301","No_Match",NA,NA,NA,NA
87508,"175 MOUNTAIN LAUREL WAY","FAYETTEVILLE","GA",30215,33.4214434250001,-84.420162668,8,"175 MOUNTAIN LAUREL WAY, FAYETTEVILLE, GA, 30215","Match","Exact","175 MOUNTAIN LAUREL WAY, FAYETTEVILLE, GA, 30215",635997267,"R"
87509,"175 MOUNTAIN VIEW CIRCLE","COVINGTON","GA",30016,33.5584711130001,-83.866384324,9,"175 MOUNTAIN VIEW CIRCLE, COVINGTON, GA, 30016","Match","Exact","175 MOUNTAIN VIEW CIR, COVINGTON, GA, 30016",23630965,"L"
87510,"175 N ARCHER AVENUE","MUNDELEIN","IL",60060,42.2665966820001,-88.0012939,10,"175 N ARCHER AVENUE, MUNDELEIN, IL, 60060","Match","Exact","175 N ARCHER AVE, MUNDELEIN, IL, 60060",649751573,"R"
87511,"175 N HARBOR DRIVE  UNIT 2906","CHICAGO","IL",60601,41.8849487890001,-87.615744593,11,"175 N HARBOR DRIVE  UNIT 2906, CHICAGO, IL, 60601","Match","Exact","175 HARBOR DR, CHICAGO, IL, 60601",604999843,"R"
87512,"175 N INDIAN HILL BLVD STE 203","CLAREMONT","CA",91711,NA,NA,12,"175 N INDIAN HILL BLVD STE 203, CLAREMONT, CA, 91711","Tie",NA,NA,NA,NA
87513,"175 N LAVERGNE","CHICAGO","IL",60644,41.8839007770001,-87.750287283,13,"175 N LAVERGNE, CHICAGO, IL, 60644","Match","Non_Exact","175 N LAVERGNE AVE, CHICAGO, IL, 60644",605076750,"R"
87514,"175 N LOCUST HILL DR 2308","LEXINGTON","KY",40509,38.0057097000001,-84.442700284,14,"175 N LOCUST HILL DR 2308, LEXINGTON, KY, 40509","Match","Non_Exact","175 N LOCUST HILL DR, LEXINGTON, KY, 40509",638586940,"L"
87515,"175 N MAIN STREET","WHARTON","NJ",7885,40.9044611670001,-74.5781379279999,15,"175 N MAIN STREET, WHARTON, NJ, 7885","Match","Exact","175 N MAIN ST, WHARTON, NJ, 07885",60435504,"L"
87516,"175 N MAIN","KAYLOR","SD",57354,NA,NA,16,"175 N MAIN, KAYLOR, SD, 57354","No_Match",NA,NA,NA,NA
87517,"175 NANTUCKET PLACE","MORGANVILLE","NJ",7751,40.365550721,-74.291878895,17,"175 NANTUCKET PLACE, MORGANVILLE, NJ, 7751","Match","Exact","175 NANTUCKET PL, MORGANVILLE, NJ, 07751",90512204,"R"
87518,"175 NARRAGANSETT TRL","MEDFORD LAKES","NJ",8055,39.851936116,-74.8123038369999,18,"175 NARRAGANSETT TRL, MEDFORD LAKES, NJ, 8055","Match","Exact","175 NARRAGANSETT TRL, MEDFORD LAKES, NJ, 08055",134039419,"L"
87519,"175 NORTH HARBOR DRIVE 5202","CHICAGO","IL",60601,41.885780923,-87.6157365289999,19,"175 NORTH HARBOR DRIVE 5202, CHICAGO, IL, 60601","Match","Exact","175 N HARBOR DR, CHICAGO, IL, 60601",618345502,"R"
87520,"175 NORTH HARBOR DRIVE SUITE 4006","CHICAGO","IL",60601,41.885780923,-87.6157365289999,20,"175 NORTH HARBOR DRIVE SUITE 4006, CHICAGO, IL, 60601","Match","Exact","175 N HARBOR DR, CHICAGO, IL, 60601",618345502,"R"
87521,"175 NORTHEAST RD","STANDISH","ME",4084,43.746861934,-70.539508929,21,"175 NORTHEAST RD, STANDISH, ME, 4084","Match","Exact","175 NORTHEAST RD, STANDISH, ME, 04084",636215374,"R"
87522,"175 OAKLAND ROAD APT 608","SOUTH WINDSOR","CT",6074,41.823865825,-72.546163744,22,"175 OAKLAND ROAD APT 608, SOUTH WINDSOR, CT, 6074","Match","Exact","175 OAKLAND RD, SOUTH WINDSOR, CT, 06074",604949507,"R"
87523,"175 OAKSDALE DRIVE","BLUFFTON","SC",29909,32.2618478150001,-80.970752284,23,"175 OAKSDALE DRIVE, BLUFFTON, SC, 29909","Match","Non_Exact","175 OAKESDALE DR, BLUFFTON, SC, 29909",632969953,"L"
87524,"175 OLD STAGECOACH ROAD","CHINA GROVE","NC",28023,35.5589850800001,-80.597080956,24,"175 OLD STAGECOACH ROAD, CHINA GROVE, NC, 28023","Match","Exact","175 OLD STAGECOACH RD, CHINA GROVE, NC, 28023",25280294,"R"
87525,"175 OLDE HALF DAY RD STE 290","LINCOLNSHIRE","IL",60069,42.1996198360001,-87.934010166,25,"175 OLDE HALF DAY RD STE 290, LINCOLNSHIRE, IL, 60069","Match","Exact","175 OLDE HALF DAY RD, LINCOLNSHIRE, IL, 60069",648596769,"R"
87526,"175 OLDE HALF DAY ROAD STE 290","LINCOLNWOOD","IL",60069,42.1996198360001,-87.934010166,26,"175 OLDE HALF DAY ROAD STE 290, LINCOLNWOOD, IL, 60069","Match","Non_Exact","175 OLDE HALF DAY RD, LINCOLNSHIRE, IL, 60069",648596769,"R"
87527,"175 ORANGE STREET","NORTHUMBERLAND","PA",17857,40.8915328670001,-76.794135061,27,"175 ORANGE STREET, NORTHUMBERLAND, PA, 17857","Match","Exact","175 ORANGE ST, NORTHUMBERLAND, PA, 17857",48054818,"L"
87528,"175 OTTAWA ST","LAKE GEORGE","NY",12845,43.426090914,-73.714185135,28,"175 OTTAWA ST, LAKE GEORGE, NY, 12845","Match","Exact","175 OTTAWA ST, LAKE GEORGE, NY, 12845",173889891,"L"
87529,"175 OWENS FARM RD","MOORESVILLE","NC",28115,35.535371293,-80.8061523229999,29,"175 OWENS FARM RD, MOORESVILLE, NC, 28115","Match","Exact","175 OWENS FARM RD, MOORESVILLE, NC, 28115",45992929,"L"
87530,"175 PAUL SIKES DRIVE","HINESVILLE","GA",31313,NA,NA,30,"175 PAUL SIKES DRIVE, HINESVILLE, GA, 31313","No_Match",NA,NA,NA,NA
87531,"175 PEARL STREET 1ST FLOOR","BROOKLYN","NY",11201,40.69976252,-73.9877873469999,31,"175 PEARL STREET 1ST FLOOR, BROOKLYN, NY, 11201","Match","Exact","175 PEARL ST, BROOKLYN, NY, 11201",647009762,"L"
87532,"175 PERSHING DR","LYNCHBURG","VA",24502,37.32570465,-79.266000741,32,"175 PERSHING DR, LYNCHBURG, VA, 24502","Match","Exact","175 PERSHING DR, LYNCHBURG, VA, 24502",644911621,"L"
87533,"175 PICKET POST LANE","PHOENIXVILLE","PA",19460,40.122406031,-75.482889934,33,"175 PICKET POST LANE, PHOENIXVILLE, PA, 19460","Match","Exact","175 PICKET POST LN, PHOENIXVILLE, PA, 19460",179529197,"R"
87534,"175 PORT MONMOUTH RD","KEANSBURG","NJ",7734,40.4421764740001,-74.121961155,34,"175 PORT MONMOUTH RD, KEANSBURG, NJ, 7734","Match","Exact","175 PORT MONMOUTH RD, KEANSBURG, NJ, 07734",90468908,"L"
87535,"175 POTOMAC AVENUE","BUFFALO","NY",14213,42.9239647540001,-78.892880909,35,"175 POTOMAC AVENUE, BUFFALO, NY, 14213","Match","Exact","175 POTOMAC AVE, BUFFALO, NY, 14213",48288810,"R"
87536,"175 QUAIL HOLLOW ROAD","PINEHURST","NC",28374,NA,NA,36,"175 QUAIL HOLLOW ROAD, PINEHURST, NC, 28374","No_Match",NA,NA,NA,NA
87537,"175 QUEENSLAND DR","SPENCERPORT","NY",14559,43.169450205,-77.751776489,37,"175 QUEENSLAND DR, SPENCERPORT, NY, 14559","Match","Exact","175 QUEENSLAND DR, SPENCERPORT, NY, 14559",14584921,"R"
87538,"175 RAMSHORN DRIVE","CASTLE ROCK","CO",80108,39.4422008560001,-104.910597133,38,"175 RAMSHORN DRIVE, CASTLE ROCK, CO, 80108","Match","Exact","175 RAMSHORN DR, CASTLE ROCK, CO, 80108",130821071,"L"
87539,"175 REED ROAD","VILLA RICA","GA",30180,33.709769985,-84.9352585239999,39,"175 REED ROAD, VILLA RICA, GA, 30180","Match","Exact","175 REED RD, VILLA RICA, GA, 30180",17126156,"L"
87540,"175 RIVERTON PLACE","EDGEWATER","MD",21037,38.9278741580001,-76.559691774,40,"175 RIVERTON PLACE, EDGEWATER, MD, 21037","Match","Exact","175 RIVERTON PL, EDGEWATER, MD, 21037",645579550,"L"
87541,"175 ROCKY CREEK PL","PLEASANTON","CA",94566,37.6483502150001,-121.887219134,41,"175 ROCKY CREEK PL, PLEASANTON, CA, 94566","Match","Exact","175 ROCKY CREEK PL, PLEASANTON, CA, 94566",125084926,"L"
87542,"175 ROGERS AVENUE 3L","BROOKLYN","NY",11216,40.671721652,-73.95309822,42,"175 ROGERS AVENUE 3L, BROOKLYN, NY, 11216","Match","Exact","175 ROGERS AVE, BROOKLYN, NY, 11216",59079399,"L"
87543,"175 ROGERS COMMERCE BLVD","BOILING SPRING","SC",29316,35.018109311,-81.965293081,43,"175 ROGERS COMMERCE BLVD, BOILING SPRING, SC, 29316","Match","Non_Exact","175 ROGERS COMMERCE BLVD, BOILING SPRINGS, SC, 29316",19523240,"L"
87544,"175 ROYAL PALM DRIVE","FORT LAUDERDALE","FL",33301,26.124779792,-80.116834099,44,"175 ROYAL PALM DRIVE, FORT LAUDERDALE, FL, 33301","Match","Exact","175 ROYAL PALM DR, FORT LAUDERDALE, FL, 33301",114726079,"L"
87545,"175 ROYAL PALM DRIVE","FT LAUDERDALE","FL",33301,26.124779792,-80.116834099,45,"175 ROYAL PALM DRIVE, FT LAUDERDALE, FL, 33301","Match","Exact","175 ROYAL PALM DR, FORT LAUDERDALE, FL, 33301",114726079,"L"
87546,"175 RT 340","SPARKILL","NY",10976,41.0246752580001,-73.927183557,46,"175 RT 340, SPARKILL, NY, 10976","Match","Non_Exact","175 STATE RTE 340, SPARKILL, NY, 10976",653730773,"L"
87547,"175 RUMFORD ST","WATERBURY","CT",6704,41.565462241,-73.0225471589999,47,"175 RUMFORD ST, WATERBURY, CT, 6704","Match","Exact","175 RUMFORD ST, WATERBURY, CT, 06704",3730191,"L"
87548,"175 S 3RD STREET SUITE 200","COLUMBUS","OH",43215,NA,NA,48,"175 S 3RD STREET SUITE 200, COLUMBUS, OH, 43215","Tie",NA,NA,NA,NA
87549,"175 S AUSTIN AVENUE","DECATUR","IL",62522,39.8415052450001,-88.997360992,49,"175 S AUSTIN AVENUE, DECATUR, IL, 62522","Match","Exact","175 S AUSTIN AVE, DECATUR, IL, 62522",20743530,"R"
87550,"175 S EDITH ST","PONTIAC","MI",48342,42.633260385,-83.2713045039999,50,"175 S EDITH ST, PONTIAC, MI, 48342","Match","Exact","175 S EDITH ST, PONTIAC, MI, 48342",641040232,"L"
87551,"175 S HOLLIDAY ST","STRASBURG","VA",22657,38.9884592450001,-78.362165045,51,"175 S HOLLIDAY ST, STRASBURG, VA, 22657","Match","Exact","175 S HOLLIDAY ST, STRASBURG, VA, 22657",55927795,"R"
87552,"175 S LAKE AVENUE STE 200","PASADENA","AR",91101,NA,NA,52,"175 S LAKE AVENUE STE 200, PASADENA, AR, 91101","No_Match",NA,NA,NA,NA
87553,"175 S SANDUSKY ST STE 445","DELAWARE","OH",43015,NA,NA,53,"175 S SANDUSKY ST STE 445, DELAWARE, OH, 43015","Tie",NA,NA,NA,NA
87554,"175 SAINT LUKE CHURCH ROAD","SALISBURY","NC",28146,35.594623056,-80.4239912689999,54,"175 SAINT LUKE CHURCH ROAD, SALISBURY, NC, 28146","Match","Exact","175 SAINT LUKE CHURCH RD, SALISBURY, NC, 28146",636541932,"R"
87555,"175 SANDY RIDGE ROAD","STATE COLLEGE","PA",16803,40.7950735970001,-77.9192051589999,55,"175 SANDY RIDGE ROAD, STATE COLLEGE, PA, 16803","Match","Exact","175 SANDY RIDGE RD, STATE COLLEGE, PA, 16803",50378422,"R"
87556,"175 SCENIC COURT","CHESHIRE","CT",6410,41.518806967,-72.874712265,56,"175 SCENIC COURT, CHESHIRE, CT, 6410","Match","Exact","175 SCENIC CT, CHESHIRE, CT, 06410",648831633,"R"
87557,"175 SCHOOLHOUSE ROAD","WARREN","RI",2885,41.7379427700001,-71.252587923,57,"175 SCHOOLHOUSE ROAD, WARREN, RI, 2885","Match","Exact","175 SCHOOLHOUSE RD, WARREN, RI, 02885",46481130,"R"
87558,"175 SHADEVILLE RD","WIGGINS","MS",39577,30.8867593740001,-89.196505937,58,"175 SHADEVILLE RD, WIGGINS, MS, 39577","Match","Exact","175 SHADEVILLE RD, WIGGINS, MS, 39577",630310186,"L"
87559,"175 SHERBROOKE AVE","WILLIAMSVILLE","NY",14221,42.9833008800001,-78.741492232,59,"175 SHERBROOKE AVE, WILLIAMSVILLE, NY, 14221","Match","Exact","175 SHERBROOKE AVE, WILLIAMSVILLE, NY, 14221",48305129,"R"
87560,"175 SHRELL LANE","QUINCY","FL",32351,30.545585854,-84.6869302969999,60,"175 SHRELL LANE, QUINCY, FL, 32351","Match","Exact","175 SHRELL LN, QUINCY, FL, 32351",600569223,"L"
87561,"175 SILVER ST","DAYTON","NV",89403,39.235411818,-119.591440194,61,"175 SILVER ST, DAYTON, NV, 89403","Match","Exact","175 SILVER ST, DAYTON, NV, 89403",140340633,"R"
87562,"175 SKYVIEW CIRCLE","ASHEVILLE","NC",28804,NA,NA,62,"175 SKYVIEW CIRCLE, ASHEVILLE, NC, 28804","Tie",NA,NA,NA,NA
87563,"175 SMITH DRIVE","WINCHESTER","VA",22603,39.193602384,-78.13142973,63,"175 SMITH DRIVE, WINCHESTER, VA, 22603","Match","Exact","175 SMITH DR, WINCHESTER, VA, 22603",55595422,"L"
87564,"175 SOUTH 3RD STREET","TECUMSEH","NE",68450,40.3671336190001,-96.1957462569999,64,"175 SOUTH 3RD STREET, TECUMSEH, NE, 68450","Match","Exact","175 S 3RD ST, TECUMSEH, NE, 68450",32441656,"R"
87565,"175 SOUTH MAIN STREET SUITE 1410","SALT LAKE CTY","UT",84111,40.765623944,-111.891083491,65,"175 SOUTH MAIN STREET SUITE 1410, SALT LAKE CTY, UT, 84111","Match","Exact","175 S MAIN ST, SALT LAKE CITY, UT, 84111",176067382,"L"
87566,"175 SOUTH MAIN STREET SUITE 500","SALT LAKE CITY","UT",84111,40.765623944,-111.891083491,66,"175 SOUTH MAIN STREET SUITE 500, SALT LAKE CITY, UT, 84111","Match","Exact","175 S MAIN ST, SALT LAKE CITY, UT, 84111",176067382,"L"
87567,"175 SOUTH THIRD STREET SUITE 200","COLUMBUS","OH",43215,39.9582010410001,-82.997138444,67,"175 SOUTH THIRD STREET SUITE 200, COLUMBUS, OH, 43215","Match","Exact","175 S 3RD ST, COLUMBUS, OH, 43215",650006031,"R"
87568,"175 SOUTH WASHINGTON STREET","PLAINVILLE","CT",6062,41.6600564060001,-72.874999999,68,"175 SOUTH WASHINGTON STREET, PLAINVILLE, CT, 6062","Match","Exact","175 S WASHINGTON ST, PLAINVILLE, CT, 06062",3504045,"R"
87569,"175 ST DAVIDS WAY","WELLINGTON","FL",33414,26.6745140990001,-80.2496617639999,69,"175 ST DAVIDS WAY, WELLINGTON, FL, 33414","Match","Exact","175 SAINT DAVIDS WAY, WELLINGTON, FL, 33414",115579554,"L"
87570,"175 STRAFFORD AVE    SUITE 360","WAYNE","PA",19087,40.045681792,-75.398562662,70,"175 STRAFFORD AVE    SUITE 360, WAYNE, PA, 19087","Match","Exact","175 STRAFFORD AVE, WAYNE, PA, 19087",606688865,"R"
87571,"175 STRAFFORD AVENUE SUITE ONE","WAYNE","PA",19087,40.045681792,-75.398562662,71,"175 STRAFFORD AVENUE SUITE ONE, WAYNE, PA, 19087","Match","Exact","175 STRAFFORD AVE, WAYNE, PA, 19087",606688865,"R"
87572,"175 SULLIVAN STREET APT 5B","NEW YORK","NY",10012,40.7280296530001,-74.001070257,72,"175 SULLIVAN STREET APT 5B, NEW YORK, NY, 10012","Match","Exact","175 SULLIVAN ST, NEW YORK, NY, 10012",59660266,"R"
87573,"175 SW 7 ST STE 2308","MIAMI","FL",33130,25.7672830290001,-80.1967116769999,73,"175 SW 7 ST STE 2308, MIAMI, FL, 33130","Match","Non_Exact","175 SW 7TH ST, MIAMI, FL, 33130",650068670,"R"
87574,"175 SW 7 STREET SUITE 1914","MIAMI","FL",33130,NA,NA,74,"175 SW 7 STREET SUITE 1914, MIAMI, FL, 33130","No_Match",NA,NA,NA,NA
87575,"175 SW 7TH ST STE 2410","MIAMI","FL",33131,NA,NA,75,"175 SW 7TH ST STE 2410, MIAMI, FL, 33131","No_Match",NA,NA,NA,NA
87576,"175 SW 7TH STREET SUITE 2410","MIAMI","FL",33130,NA,NA,76,"175 SW 7TH STREET SUITE 2410, MIAMI, FL, 33130","No_Match",NA,NA,NA,NA
87577,"175 SW 7TH STREET","MIAMI","FL",33130,25.7672830290001,-80.1967116769999,77,"175 SW 7TH STREET, MIAMI, FL, 33130","Match","Non_Exact","175 SW 7TH ST, MIAMI, FL, 33130",650068670,"R"
87578,"175 TOKEN HOUSE ROAD","DURHAM","NC",27703,35.958273031,-78.823294957,78,"175 TOKEN HOUSE ROAD, DURHAM, NC, 27703","Match","Exact","175 TOKEN HOUSE RD, DURHAM, NC, 27703",648304791,"L"
87579,"175 TOMPKINS AVENUE","PLEASANTVILLE","NY",10570,41.132471389,-73.789866793,79,"175 TOMPKINS AVENUE, PLEASANTVILLE, NY, 10570","Match","Exact","175 TOMPKINS AVE, PLEASANTVILLE, NY, 10570",139735145,"R"
87580,"175 TOPAZ DRIVE","FREEHOLD","NJ",7728,40.2655186980001,-74.225148696,80,"175 TOPAZ DRIVE, FREEHOLD, NJ, 7728","Match","Exact","175 TOPAZ DR, FREEHOLD, NJ, 07728",90495183,"L"
87581,"175 TURTLE CREEK DRIVE","HATTIESBURG","MS",39402,31.330014885,-89.3773044929999,81,"175 TURTLE CREEK DRIVE, HATTIESBURG, MS, 39402","Match","Exact","175 TURTLE CREEK DR, HATTIESBURG, MS, 39402",641469828,"R"
87582,"175 TWIN OAKS LN","WETUMPKA","AL",36093,32.4680079190001,-86.10212138,82,"175 TWIN OAKS LN, WETUMPKA, AL, 36093","Match","Exact","175 TWIN OAKS LN, WETUMPKA, AL, 36093",1378857,"R"
87583,"175 VARICK STREET 3RD FLOOR","NEW YORK","NY",10014,40.727304745,-74.005525669,83,"175 VARICK STREET 3RD FLOOR, NEW YORK, NY, 10014","Match","Exact","175 VARICK ST, NEW YORK, NY, 10014",59660097,"L"
87584,"175 VARICK STREET","NEW YORK","NY",10014,40.727304745,-74.005525669,84,"175 VARICK STREET, NEW YORK, NY, 10014","Match","Exact","175 VARICK ST, NEW YORK, NY, 10014",59660097,"L"
87585,"175 VERBENA DR","TEMPLE","TX",76502,NA,NA,85,"175 VERBENA DR, TEMPLE, TX, 76502","No_Match",NA,NA,NA,NA
87586,"175 VESTAL STREET","BEAUMONT","TX",77703,30.11806811,-94.1068025169999,86,"175 VESTAL STREET, BEAUMONT, TX, 77703","Match","Exact","175 VESTAL ST, BEAUMONT, TX, 77703",73884165,"L"
87587,"175 VETERANS DR","WINSLOW","ME",4901,NA,NA,87,"175 VETERANS DR, WINSLOW, ME, 4901","No_Match",NA,NA,NA,NA
87588,"175 VONDA KAY CIRCLE","LEXINGTON","SC",29072,33.997037821,-81.196195621,88,"175 VONDA KAY CIRCLE, LEXINGTON, SC, 29072","Match","Exact","175 VONDA KAY CIR, LEXINGTON, SC, 29072",70072958,"L"
87589,"175 W 5TH ST FL 4TH","SN BERNRDNO","CA",92415,NA,NA,89,"175 W 5TH ST FL 4TH, SN BERNRDNO, CA, 92415","No_Match",NA,NA,NA,NA
87590,"175 W 76TH ST  APARTMENT 15 E","NEW YORK","NY",10023,40.7808770670001,-73.978967112,90,"175 W 76TH ST  APARTMENT 15 E, NEW YORK, NY, 10023","Match","Non_Exact","175 W 76TH ST, NEW YORK, NY, 10023",59656674,"R"
87591,"175 W CANYON CREST RD STE 306","ALPINE","UT",84004,NA,NA,91,"175 W CANYON CREST RD STE 306, ALPINE, UT, 84004","Tie",NA,NA,NA,NA
87592,"175 W JACKSON AVE  SUITE 203","NAPERVILLE","IL",60540,41.7719244400001,-88.150830782,92,"175 W JACKSON AVE  SUITE 203, NAPERVILLE, IL, 60540","Match","Non_Exact","175 W JACKSON AVE, NAPERVILLE, IL, 60540",112536107,"R"
87593,"175 W MAIN ST","BENTON HARBOR","MI",49022,42.115469911,-86.4577367699999,93,"175 W MAIN ST, BENTON HARBOR, MI, 49022","Match","Exact","175 W MAIN ST, BENTON HARBOR, MI, 49022",119972337,"R"
87594,"175 W MAIN ST","NORWALK","OH",44857,41.2372833050001,-82.6289183599999,94,"175 W MAIN ST, NORWALK, OH, 44857","Match","Exact","175 W MAIN ST, NORWALK, OH, 44857",12606517,"R"
87595,"175 W OSTEND STREET SUITE A3","BALTIMORE","MD",21230,NA,NA,95,"175 W OSTEND STREET SUITE A3, BALTIMORE, MD, 21230","Tie",NA,NA,NA,NA
87596,"175 W PALMA DR","GREEN VALLEY","AZ",85614,31.8942022630001,-110.990387012,96,"175 W PALMA DR, GREEN VALLEY, AZ, 85614","Match","Exact","175 W PALMA DR, GREEN VALLEY, AZ, 85614",121121864,"R"
87597,"175 W ROOSEVELT AVENUE","ZEELAND","MI",49464,42.8196393270001,-86.0278890439999,97,"175 W ROOSEVELT AVENUE, ZEELAND, MI, 49464","Match","Exact","175 W ROOSEVELT AVE, ZEELAND, MI, 49464",71076698,"L"
87598,"175 W ROOSEVELT","ZEELAND","MI",49464,42.8196393270001,-86.0278890439999,98,"175 W ROOSEVELT, ZEELAND, MI, 49464","Match","Non_Exact","175 W ROOSEVELT AVE, ZEELAND, MI, 49464",71076698,"L"
87599,"175 WALNUT AVENUE SUITE 208","BRONX","NY",10454,NA,NA,99,"175 WALNUT AVENUE SUITE 208, BRONX, NY, 10454","No_Match",NA,NA,NA,NA
87600,"175 WARD PLACE","PISCATAWAY","NJ",8854,40.567832176,-74.461165663,100,"175 WARD PLACE, PISCATAWAY, NJ, 8854","Match","Exact","175 WARD PL, PISCATAWAY, NJ, 08854",60260053,"L"
87601,"175 WATCHUNG BPULEVARD","BERKELEY HEIGHTS","NJ",7922,NA,NA,101,"175 WATCHUNG BPULEVARD, BERKELEY HEIGHTS, NJ, 7922","No_Match",NA,NA,NA,NA
87602,"175 WATERDAM ROAD","MCMURRAY","PA",15317,40.2597289780001,-80.132104783,102,"175 WATERDAM ROAD, MCMURRAY, PA, 15317","Match","Exact","175 WATERDAM RD, MCMURRAY, PA, 15317",52829406,"L"
87603,"175 WEDGEWOOD AVE","CINCINNATI","OH",45217,39.158705835,-84.496031574,103,"175 WEDGEWOOD AVE, CINCINNATI, OH, 45217","Match","Exact","175 WEDGEWOOD AVE, CINCINNATI, OH, 45217",103925382,"R"
87604,"175 WEST 73RD STREET APT 5G","NEW YORK","NY",10023,40.778955809,-73.980317509,104,"175 WEST 73RD STREET APT 5G, NEW YORK, NY, 10023","Match","Exact","175 W 73RD ST, NEW YORK, NY, 10023",59656995,"R"
87605,"175 WEST 900 SOUTH SUITE 11","SAINT GEORGE","UT",84770,37.0926719060001,-113.588015048,105,"175 WEST 900 SOUTH SUITE 11, SAINT GEORGE, UT, 84770","Match","Exact","175 W 900 S, SAINT GEORGE, UT, 84770",166198209,"L"
87606,"175 WEST 90TH","NEW YORK","NY",10024,40.789985997,-73.9725059199999,106,"175 WEST 90TH, NEW YORK, NY, 10024","Match","Non_Exact","175 W 90TH ST, NEW YORK, NY, 10024",611181732,"R"
87607,"175 WEST 93RD STREET APT 14B","NEW YORK","NY",10025,40.7918315060001,-73.971051663,107,"175 WEST 93RD STREET APT 14B, NEW YORK, NY, 10025","Match","Exact","175 W 93RD ST, NEW YORK, NY, 10025",611175371,"R"
87608,"175 WEST CANYON CREST RD STE 103","ALPINE","UT",84004,40.4494668020001,-111.786507664,108,"175 WEST CANYON CREST RD STE 103, ALPINE, UT, 84004","Match","Exact","175 W CANYON CREST RD, ALPINE, UT, 84004",614673088,"L"
87609,"175 WEST CANYON CREST RD STE 306","ALPINE","UT",84004,40.4494668020001,-111.786507664,109,"175 WEST CANYON CREST RD STE 306, ALPINE, UT, 84004","Match","Exact","175 W CANYON CREST RD, ALPINE, UT, 84004",614673088,"L"
87610,"175 WHITE OAK DR","HUNLOCK CREEK","PA",18621,41.245951043,-76.0485056489999,110,"175 WHITE OAK DR, HUNLOCK CREEK, PA, 18621","Match","Exact","175 WHITE OAK DR, HUNLOCK CREEK, PA, 18621",80935754,"R"
87611,"175 WILLIAM F MCCLELLAN HWY","EAST BOSTON","MA",2128,42.3874250010001,-71.018001313,111,"175 WILLIAM F MCCLELLAN HWY, EAST BOSTON, MA, 2128","Match","Exact","175 WILLIAM F MCCLELLAN HWY, EAST BOSTON, MA, 02128",85737847,"R"
87612,"175 WILLOW RIDGE WAY","AVONDALE ESTATES","GA",30002,33.783335509,-84.247209456,112,"175 WILLOW RIDGE WAY, AVONDALE ESTATES, GA, 30002","Match","Exact","175 WILLOW RIDGE WAY, AVONDALE EST, GA, 30002",23378095,"R"
87613,"175 WINDSOR DR","CHRISTIANSBURG","VA",24073,37.1560964280001,-80.432084565,113,"175 WINDSOR DR, CHRISTIANSBURG, VA, 24073","Match","Non_Exact","175 WINDSOR DR NW, CHRISTIANSBURG, VA, 24073",634769220,"R"
87614,"175 XOUT RANCH ROAD","MOUNTAIN HOME","TX",78058,NA,NA,114,"175 XOUT RANCH ROAD, MOUNTAIN HOME, TX, 78058","No_Match",NA,NA,NA,NA
87615,"175 ZOE STREET NUMBER 3B","STATEN ISLAND","NY",10305,40.5847280140001,-74.100717645,115,"175 ZOE STREET NUMBER 3B, STATEN ISLAND, NY, 10305","Match","Exact","175 ZOE ST, STATEN ISLAND, NY, 10305",59880577,"R"
87616,"175-06 DEVONSHIRE RD STE 4K","QUEENS","NY",11432,40.7147464110001,-73.7890040899999,116,"175-06 DEVONSHIRE RD STE 4K, QUEENS, NY, 11432","Match","Non_Exact","175-6 DEVONSHIRE RD, JAMAICA, NY, 11432",59712371,"R"
87617,"175-09 111TH AVE","JAMAICA","NY",11433,40.696034367,-73.7777993889999,117,"175-09 111TH AVE, JAMAICA, NY, 11433","Match","Exact","175-9 111TH AVE, JAMAICA, NY, 11433",59718623,"L"
87618,"175-15 137TH AVE","JAMAICA","NY",11434,40.6733130120001,-73.765737364,118,"175-15 137TH AVE, JAMAICA, NY, 11434","Match","Exact","175-15 137TH AVE, JAMAICA, NY, 11434",59719857,"L"
87619,"175-20 WEXFORD TERRACE","JAMAICA","NY",11432,40.712486734,-73.788229147,119,"175-20 WEXFORD TERRACE, JAMAICA, NY, 11432","Match","Exact","175-20 WEXFORD TER, JAMAICA, NY, 11432",59712378,"R"
87620,"175-25 UNION TURNPIKE STE 221","FRESH MEADOW","NY",11366,40.72507575,-73.7939694739999,120,"175-25 UNION TURNPIKE STE 221, FRESH MEADOW, NY, 11366","Match","Non_Exact","175-25 UNION TPKE, FRESH MEADOWS, NY, 11366",59711918,"L"
87621,"175-41 HILLSIDE AVENUE","JAMAICA","NY",11432,40.7119459960001,-73.786769318,121,"175-41 HILLSIDE AVENUE, JAMAICA, NY, 11432","Match","Exact","175-41 HILLSIDE AVE, JAMAICA, NY, 11432",59712386,"L"
87622,"175","PORT ORANGE","FL",32128,NA,NA,122,"175, PORT ORANGE, FL, 32128","No_Match",NA,NA,NA,NA
87623,"1750 16TH ST NW APT 53","WASHINGTON","DC",20009,38.9136498140001,-77.036519046,123,"1750 16TH ST NW APT 53, WASHINGTON, DC, 20009","Match","Exact","1750 16TH ST NW, WASHINGTON, DC, 20009",76223188,"L"
87624,"1750 30TH STREET - PMB 126","BOULDER","CO",80301,40.0176905590001,-105.2536022,124,"1750 30TH STREET - PMB 126, BOULDER, CO, 80301","Match","Exact","1750 30TH ST, BOULDER, CO, 80301",632347786,"R"
87625,"1750 30TH STREET -156","BOULDER","CO",80301,40.0176905590001,-105.2536022,125,"1750 30TH STREET -156, BOULDER, CO, 80301","Match","Exact","1750 30TH ST, BOULDER, CO, 80301",632347786,"R"
87626,"1750 30TH STREET S","ST PETERSBURG","FL",33712,27.7528986950001,-82.673160227,126,"1750 30TH STREET S, ST PETERSBURG, FL, 33712","Match","Exact","1750 30TH ST S, SAINT PETERSBURG, FL, 33712",124706153,"L"
87627,"1750 30TH STREET STE 204","BOULDER","CO",80301,40.0176905590001,-105.2536022,127,"1750 30TH STREET STE 204, BOULDER, CO, 80301","Match","Exact","1750 30TH ST, BOULDER, CO, 80301",632347786,"R"
87628,"1750 30TH STREET SUITE 301","BOULDER","CO",80301,40.0176905590001,-105.2536022,128,"1750 30TH STREET SUITE 301, BOULDER, CO, 80301","Match","Exact","1750 30TH ST, BOULDER, CO, 80301",632347786,"R"
87629,"1750 34TH STREET SE","CEDAR RAPIDS","IA",52403,41.9669378660001,-91.6183470999999,129,"1750 34TH STREET SE, CEDAR RAPIDS, IA, 52403","Match","Exact","1750 34TH ST SE, CEDAR RAPIDS, IA, 52403",17046571,"L"
87630,"1750 67TH AVE NE","NEW ROCKFORD","ND",58356,47.6672663410001,-99.117016005,130,"1750 67TH AVE NE, NEW ROCKFORD, ND, 58356","Match","Exact","1750 67TH AVE NE, NEW ROCKFORD, ND, 58356",198785785,"L"
87631,"1750 ANDERSON CREEK ROAD","TALENT","OR",97540,42.2149938700001,-122.840612346,131,"1750 ANDERSON CREEK ROAD, TALENT, OR, 97540","Match","Exact","1750 ANDERSON CREEK RD, TALENT, OR, 97540",635449076,"L"
87632,"1750 ARCADIA ROAD","HOLIDAY","FL",34690,28.1851032060001,-82.7317001329999,132,"1750 ARCADIA ROAD, HOLIDAY, FL, 34690","Match","Exact","1750 ARCADIA RD, HOLIDAY, FL, 34690",86358169,"R"
87633,"1750 AUSTIN DRIVE","TROY","MI",48083,42.5537054380001,-83.115049395,133,"1750 AUSTIN DRIVE, TROY, MI, 48083","Match","Exact","1750 AUSTIN DR, TROY, MI, 48083",69743476,"R"
87634,"1750 AVENIDA DEL MUNDO APT 903","CORONADO","CA",92118,32.6765143820001,-117.173373713,134,"1750 AVENIDA DEL MUNDO APT 903, CORONADO, CA, 92118","Match","Exact","1750 AVE DEL MUNDO, CORONADO, CA, 92118",650067538,"L"
87635,"1750 AVENIDA DEL MUNDO STE 901","CORONADO","CA",92118,32.6765143820001,-117.173373713,135,"1750 AVENIDA DEL MUNDO STE 901, CORONADO, CA, 92118","Match","Exact","1750 AVE DEL MUNDO, CORONADO, CA, 92118",650067538,"L"
87636,"1750 BEAVER RUIN RD STE 100","NORCROSS","GA",30093,33.934775949,-84.1576080039999,136,"1750 BEAVER RUIN RD STE 100, NORCROSS, GA, 30093","Match","Exact","1750 BEAVER RUIN RD, NORCROSS, GA, 30093",637928590,"R"
87637,"1750 BELLEVUE LOOP","ANCHORAGE","AK",99515,61.11276123,-149.911941736,137,"1750 BELLEVUE LOOP, ANCHORAGE, AK, 99515","Match","Exact","1750 BELLEVUE LOOP, ANCHORAGE, AK, 99515",190825797,"R"
87638,"1750 BEN FRANKLIN DR 10 E","SARASOTA","FL",34236,27.3027093800001,-82.569828238,138,"1750 BEN FRANKLIN DR 10 E, SARASOTA, FL, 34236","Match","Exact","1750 BEN FRANKLIN DR, SARASOTA, FL, 34236",629965172,"L"
87639,"1750 BIG HAYNES CT","GRAYSON","GA",30017,33.8934159520001,-83.983765849,139,"1750 BIG HAYNES CT, GRAYSON, GA, 30017","Match","Non_Exact","1750 BIG HAYNES CT SW, GRAYSON, GA, 30017",88940827,"L"
87640,"1750 BILLY BIBLE ROAD","GREENEVILLE","TN",37745,36.29301709,-82.8657091809999,140,"1750 BILLY BIBLE ROAD, GREENEVILLE, TN, 37745","Match","Exact","1750 BILLY BIBLE RD, GREENEVILLE, TN, 37745",127749913,"R"
87641,"1750 BUCHANAN STREET","SAN FRANCISCO","CA",94115,37.7860458820001,-122.429873494,141,"1750 BUCHANAN STREET, SAN FRANCISCO, CA, 94115","Match","Exact","1750 BUCHANAN ST, SAN FRANCISCO, CA, 94115",192280021,"R"
87642,"1750 CLARKSTONE AVE","CLEVELAND","OH",44112,41.550045266,-81.563002583,142,"1750 CLARKSTONE AVE, CLEVELAND, OH, 44112","Match","Non_Exact","1750 CLARKSTONE RD, CLEVELAND, OH, 44112",61121412,"R"
87643,"1750 COMMERCE DRIVE","ATLANTA","GA",30318,33.8014448710001,-84.4109355589999,143,"1750 COMMERCE DRIVE, ATLANTA, GA, 30318","Match","Exact","1750 COMMERCE DR, ATLANTA, GA, 30318",17335206,"L"
87644,"1750 DREW ROAD","EL CENTRO","CA",92243,32.7711075440001,-115.690322215,144,"1750 DREW ROAD, EL CENTRO, CA, 92243","Match","Exact","1750 DREW RD, EL CENTRO, CA, 92243",640286733,"R"
87645,"1750 EAST DOUGLAS RD","FORT COLLINS","CO",80524,40.639343652,-105.046268873,145,"1750 EAST DOUGLAS RD, FORT COLLINS, CO, 80524","Match","Exact","1750 E DOUGLAS RD, FORT COLLINS, CO, 80524",637359458,"R"
87646,"1750 EL PASEO RD","LAS CRUCES","NM",88001,32.2924522330001,-106.765985852,146,"1750 EL PASEO RD, LAS CRUCES, NM, 88001","Match","Exact","1750 EL PASEO RD, LAS CRUCES, NM, 88001",653354065,"R"
87647,"1750 FM 423  821","FRISCO","TX",75033,NA,NA,147,"1750 FM 423  821, FRISCO, TX, 75033","No_Match",NA,NA,NA,NA
87648,"1750 FOREST AVE","PARKVILLE","MD",21234,39.377177976,-76.563202721,148,"1750 FOREST AVE, PARKVILLE, MD, 21234","Match","Non_Exact","1750 FORREST AVE, PARKVILLE, MD, 21234",191498813,"R"
87649,"1750 FRAYSER BLVD","MEMPHIS","TN",38128,35.217630114,-90.005317441,149,"1750 FRAYSER BLVD, MEMPHIS, TN, 38128","Match","Non_Exact","1750 FRAYSER BLVD, MEMPHIS, TN, 38127",72910616,"L"
87650,"1750 HARBOR STREET","PITTSBURG","CA",94565,38.0194193740001,-121.881354257,150,"1750 HARBOR STREET, PITTSBURG, CA, 94565","Match","Exact","1750 HARBOR ST, PITTSBURG, CA, 94565",192089578,"R"
87651,"1750 HIGHWAY 160 W SUITE 101 263","FORT MILL","SC",29708,NA,NA,151,"1750 HIGHWAY 160 W SUITE 101 263, FORT MILL, SC, 29708","No_Match",NA,NA,NA,NA
87652,"1750 HIGHWAY 160 WEST STE 101-243","FORT MILL","SC",29708,NA,NA,152,"1750 HIGHWAY 160 WEST STE 101-243, FORT MILL, SC, 29708","No_Match",NA,NA,NA,NA
87653,"1750 JUNCTION AVENUE","SAN JOSE","CA",95112,37.376814983,-121.906034878,153,"1750 JUNCTION AVENUE, SAN JOSE, CA, 95112","Match","Exact","1750 JUNCTION AVE, SAN JOSE, CA, 95112",639033207,"R"
87654,"1750 KYLLO LANE","EAGAN","MN",55122,44.8235738920001,-93.190740223,154,"1750 KYLLO LANE, EAGAN, MN, 55122","Match","Exact","1750 KYLLO LN, EAGAN, MN, 55122",37905154,"L"
87655,"1750 LAKEWOOD DR","WOODBRIDGE","VA",22192,38.671323843,-77.2641702079999,155,"1750 LAKEWOOD DR, WOODBRIDGE, VA, 22192","Match","Exact","1750 LAKEWOOD DR, WOODBRIDGE, VA, 22192",207183206,"R"
87656,"1750 LITTLE RAVEN STREET SUITE 241","DENVER","CO",80202,NA,NA,156,"1750 LITTLE RAVEN STREET SUITE 241, DENVER, CO, 80202","No_Match",NA,NA,NA,NA
87657,"1750 LUNDY AVE UNIT 612066","SAN JOSE","CA",95161,37.3902536800001,-121.88849889,157,"1750 LUNDY AVE UNIT 612066, SAN JOSE, CA, 95161","Match","Non_Exact","1750 LUNDY AVE, SAN JOSE, CA, 95131",615534555,"R"
87658,"1750 MADISON AVE   STE 600","MEMPHIS","TN",38104,35.138063517,-90.002913623,158,"1750 MADISON AVE   STE 600, MEMPHIS, TN, 38104","Match","Exact","1750 MADISON AVE, MEMPHIS, TN, 38104",72912313,"L"
87659,"1750 MARGARET STREET","PHILADELPHIA","PA",19124,40.0146715240001,-75.0798647129999,159,"1750 MARGARET STREET, PHILADELPHIA, PA, 19124","Match","Exact","1750 MARGARET ST, PHILADELPHIA, PA, 19124",131428418,"R"
87660,"1750 MARTIN LUTHER KING BLVD 109","HOUMA","LA",70360,29.6141289130001,-90.7561181739999,160,"1750 MARTIN LUTHER KING BLVD 109, HOUMA, LA, 70360","Match","Exact","1750 MARTIN LUTHER KING BLVD, HOUMA, LA, 70360",92065063,"R"
87661,"1750 MERIDIAN AVE SUITE 6925","SAN JOSE","CA",95125,37.291156218,-121.913501556,161,"1750 MERIDIAN AVE SUITE 6925, SAN JOSE, CA, 95125","Match","Exact","1750 MERIDIAN AVE, SAN JOSE, CA, 95125",122906585,"L"
87662,"1750 MOUNTAIN VIEW ROAD -18","HARRISBURG","PA",17110,40.339175964,-76.879578361,162,"1750 MOUNTAIN VIEW ROAD -18, HARRISBURG, PA, 17110","Match","Exact","1750 MOUNTAIN VIEW RD, HARRISBURG, PA, 17110",70839515,"R"
87663,"1750 N BAYSHORE DR APT 3114","MIAMI","FL",33132,25.7926813170001,-80.186521617,163,"1750 N BAYSHORE DR APT 3114, MIAMI, FL, 33132","Match","Non_Exact","1750 N BAYSHORE DR, MIAMI, FL, 33132",611810635,"L"
87664,"1750 N BAYSHORE DR SUITE 1208","MIAMI","FL",33132,25.7926813170001,-80.186521617,164,"1750 N BAYSHORE DR SUITE 1208, MIAMI, FL, 33132","Match","Non_Exact","1750 N BAYSHORE DR, MIAMI, FL, 33132",611810635,"L"
87665,"1750 N BAYSHORE DR SUITE 4705","MIAMI","FL",33132,25.7926813170001,-80.186521617,165,"1750 N BAYSHORE DR SUITE 4705, MIAMI, FL, 33132","Match","Non_Exact","1750 N BAYSHORE DR, MIAMI, FL, 33132",611810635,"L"
87666,"1750 N CAMPBELL AVE UNIT C","CHICAGO","IL",60647,NA,NA,166,"1750 N CAMPBELL AVE UNIT C, CHICAGO, IL, 60647","No_Match",NA,NA,NA,NA
87667,"1750 N COLLINS BLVD SUITE 101V","RICHARDSON","TX",75080,32.9742137970001,-96.723700244,167,"1750 N COLLINS BLVD SUITE 101V, RICHARDSON, TX, 75080","Match","Non_Exact","1750 N COLLINS BLVD, RICHARDSON, TX, 75080",102896736,"R"
87668,"1750 N EL CERRITO PL 14","LOS ANGELES","CA",90028,NA,NA,168,"1750 N EL CERRITO PL 14, LOS ANGELES, CA, 90028","No_Match",NA,NA,NA,NA
87669,"1750 OBERLIN CT NW","CANTON","OH",44703,40.8174676200001,-81.371718126,169,"1750 OBERLIN CT NW, CANTON, OH, 44703","Match","Exact","1750 OBERLIN CT NW, CANTON, OH, 44703",64679195,"R"
87670,"1750 OLES DR","INDIANAPOLIS","IN",46228,39.8511909870001,-86.192519719,170,"1750 OLES DR, INDIANAPOLIS, IN, 46228","Match","Exact","1750 OLES DR, INDIANAPOLIS, IN, 46228",107982530,"R"
87671,"1750 OLES DRIVE","INDIANAPOLIS","IN",46228,39.8511909870001,-86.192519719,171,"1750 OLES DRIVE, INDIANAPOLIS, IN, 46228","Match","Exact","1750 OLES DR, INDIANAPOLIS, IN, 46228",107982530,"R"
87672,"1750 ORCHARD ROAD","HOLLISTER","CA",95023,36.9522057250001,-121.369409618,172,"1750 ORCHARD ROAD, HOLLISTER, CA, 95023","Match","Exact","1750 ORCHARD RD, HOLLISTER, CA, 95023",125444730,"L"
87673,"1750 OSBORN ROAD","WILMINGTON","OH",45177,39.388456218,-83.883037157,173,"1750 OSBORN ROAD, WILMINGTON, OH, 45177","Match","Exact","1750 OSBORN RD, WILMINGTON, OH, 45177",146839003,"L"
87674,"1750 PENNSYLVANIA AVENUE NW 28001","WASHINGTON","DC",20038,38.899210521,-77.040601388,174,"1750 PENNSYLVANIA AVENUE NW 28001, WASHINGTON, DC, 20038","Match","Non_Exact","1750 PENNSYLVANIA AVE NW, WASHINGTON, DC, 20006",76225654,"L"
87675,"1750 PETERS RANCH RD","DANVILLE","CA",94526,37.7908224930001,-121.991615159,175,"1750 PETERS RANCH RD, DANVILLE, CA, 94526","Match","Exact","1750 PETERS RANCH RD, DANVILLE, CA, 94526",607868426,"R"
87676,"1750 POWDER SPINGS RD SUITE 190 149","MARIETTA","GA",30064,NA,NA,176,"1750 POWDER SPINGS RD SUITE 190 149, MARIETTA, GA, 30064","No_Match",NA,NA,NA,NA
87677,"1750 POWDER SPR RD-STE 190 BOX 112","MARIETTA","GA",30064,NA,NA,177,"1750 POWDER SPR RD-STE 190 BOX 112, MARIETTA, GA, 30064","No_Match",NA,NA,NA,NA
87678,"1750 POWDER SPRINGS RD STE 190-255","MARIETTA","GA",30064,33.89757653,-84.6078956219999,178,"1750 POWDER SPRINGS RD STE 190-255, MARIETTA, GA, 30064","Match","Non_Exact","1750 POWDER SPRINGS RD SW, MARIETTA, GA, 30064",644766312,"R"
87679,"1750 PRAIRE CITY RD SUITE 130-689","FOLSOM","CA",95630,38.6519947850001,-121.165752728,179,"1750 PRAIRE CITY RD SUITE 130-689, FOLSOM, CA, 95630","Match","Non_Exact","1750 PRAIRIE CITY RD, FOLSOM, CA, 95630",133404480,"R"
87680,"1750 S WOODLANDS VILLAGE BLVD SUITE","FLAGSTAFF","AZ",86001,35.185518868,-111.668437061,180,"1750 S WOODLANDS VILLAGE BLVD SUITE, FLAGSTAFF, AZ, 86001","Match","Non_Exact","1750 S WOODLANDS VILLAGE BLVD, FLAGSTAFF, AZ, 86001",189049837,"L"
87681,"1750 SEDGWICK AVE APT 7B","BRONX","NY",10453,40.8513946530001,-73.921330472,181,"1750 SEDGWICK AVE APT 7B, BRONX, NY, 10453","Match","Exact","1750 SEDGWICK AVE, BRONX, NY, 10453",80308220,"R"
87682,"1750 SHADY OAKS CT","AZUSA","CA",91702,34.154245352,-117.90952231,182,"1750 SHADY OAKS CT, AZUSA, CA, 91702","Match","Exact","1750 SHADY OAKS CT, AZUSA, CA, 91702",241165169,"L"
87683,"1750 SMITHFIELD ROAD","ST STEPHENS CHURCH","VA",23148,37.8342288490001,-77.031222393,183,"1750 SMITHFIELD ROAD, ST STEPHENS CHURCH, VA, 23148","Match","Exact","1750 SMITHFIELD RD, SAINT STEPHENS CHURCH, VA, 23148",632997079,"R"
87684,"1750 ST CHARLES AVENUE  UNIT 425","NEW OLEANS","LA",70130,NA,NA,184,"1750 ST CHARLES AVENUE  UNIT 425, NEW OLEANS, LA, 70130","No_Match",NA,NA,NA,NA
87685,"1750 SUNSET DR STE A","ROCK SPRINGS","WY",82901,41.5765486020001,-109.259089312,185,"1750 SUNSET DR STE A, ROCK SPRINGS, WY, 82901","Match","Exact","1750 SUNSET DR, ROCK SPRINGS, WY, 82901",149501642,"R"
87686,"1750 SW SKYLINE BLVD STE 202","PORTLAND","OR",97221,45.5103165090001,-122.735505061,186,"1750 SW SKYLINE BLVD STE 202, PORTLAND, OR, 97221","Match","Non_Exact","1750 SW SKYLINE BLVD, PORTLAND, OR, 97221",157569952,"L"
87687,"1750 TUGALO DRIVE","JEFFERSON","GA",30549,34.1105292460001,-83.6125694,187,"1750 TUGALO DRIVE, JEFFERSON, GA, 30549","Match","Exact","1750 TUGALO DR, JEFFERSON, GA, 30549",619595675,"R"
87688,"1750 TYSONS BLVD/ SUITE 1500","MCLEAN","VA",22102,38.9245102400001,-77.222294564,188,"1750 TYSONS BLVD/ SUITE 1500, MCLEAN, VA, 22102","Match","Non_Exact","1750 TYSONS BLVD, MCLEAN, VA, 22102",76022107,"R"
87689,"1750 UNION AVENUE   SUITE A-2","BALTIMORE","MD",21211,39.33183612,-76.643677006,189,"1750 UNION AVENUE   SUITE A-2, BALTIMORE, MD, 21211","Match","Exact","1750 UNION AVE, BALTIMORE, MD, 21211",206407403,"R"
87690,"1750 UNIVERSITY BLVD D STE 5","JACKSONVILLE","FL",32211,30.3387510640001,-81.6025567189999,190,"1750 UNIVERSITY BLVD D STE 5, JACKSONVILLE, FL, 32211","Match","Non_Exact","1750 UNIVERSITY BLVD N, JACKSONVILLE, FL, 32211",83902732,"L"
87691,"1750 W 28TH ST APT 102","CLEVELAND","OH",44113,41.486370106,-81.7076923659999,191,"1750 W 28TH ST APT 102, CLEVELAND, OH, 44113","Match","Non_Exact","1750 W 28TH ST, CLEVELAND, OH, 44113",61109411,"R"
87692,"1750 W HOLT AVE","POMONA","CA",91768,34.061643636,-117.779730841,192,"1750 W HOLT AVE, POMONA, CA, 91768","Match","Exact","1750 W HOLT AVE, POMONA, CA, 91768",142238798,"L"
87693,"1750 W OGDEN AVE UNIT 6142","NAPERVILLE","IL",60567,NA,NA,193,"1750 W OGDEN AVE UNIT 6142, NAPERVILLE, IL, 60567","No_Match",NA,NA,NA,NA
87694,"1750 WEST 46 STREET 505","HIALEAH","FL",33012,25.863897847,-80.3180874299999,194,"1750 WEST 46 STREET 505, HIALEAH, FL, 33012","Match","Exact","1750 W 46TH ST, HIALEAH, FL, 33012",115956127,"L"
87695,"1750 WEST DIVISION STREET APT 402","CHICAGO","IL",60622,41.9032885190001,-87.6715827099999,195,"1750 WEST DIVISION STREET APT 402, CHICAGO, IL, 60622","Match","Exact","1750 W DIVISION ST, CHICAGO, IL, 60622",111764833,"R"
87696,"1750 WEST LAMBERT ROAD","LA HABRA","CA",90631,33.924415503,-117.965760283,196,"1750 WEST LAMBERT ROAD, LA HABRA, CA, 90631","Match","Exact","1750 W LAMBERT RD, LA HABRA, CA, 90631",643538473,"L"
87697,"1750 WEST ST","CONCORD","CA",94521,37.9758780440001,-121.992847665,197,"1750 WEST ST, CONCORD, CA, 94521","Match","Exact","1750 WEST ST, CONCORD, CA, 94521",192058004,"R"
87698,"1750 YOUNGS RD","HANOVER","PA",17331,39.834944492,-76.957981177,198,"1750 YOUNGS RD, HANOVER, PA, 17331","Match","Exact","1750 YOUNGS RD, HANOVER, PA, 17331",88709537,"L"
87699,"1750 ZION ROAD","NORTHFIELD","NJ",8225,39.3698661170001,-74.557463475,199,"1750 ZION ROAD, NORTHFIELD, NJ, 8225","Match","Exact","1750 ZION RD, NORTHFIELD, NJ, 08225",202484028,"L"
87700,"17500 ADDISON RD","ADDISON","MI",49220,41.986322294,-84.332924523,200,"17500 ADDISON RD, ADDISON, MI, 49220","Match","Exact","17500 ADDISON RD, ADDISON, MI, 49220",25960961,"R"
87701,"17500 CHANDLER PARK DR","DETROIT","MI",48224,42.41273376,-82.928068512,201,"17500 CHANDLER PARK DR, DETROIT, MI, 48224","Match","Exact","17500 CHANDLER PARK DR, DETROIT, MI, 48224",95487347,"R"
87702,"17500 CHENAL PARKWAY SUITE 500","LITTLE ROCK","AR",72223,34.7654059820001,-92.455264926,202,"17500 CHENAL PARKWAY SUITE 500, LITTLE ROCK, AR, 72223","Match","Exact","17500 CHENAL PKWY, LITTLE ROCK, AR, 72223",618985198,"R"
87703,"17500 ELAINE CT","MONTE SERENO","CA",95030,37.242625047,-121.975994452,203,"17500 ELAINE CT, MONTE SERENO, CA, 95030","Match","Exact","17500 ELAINE CT, MONTE SERENO, CA, 95030",122992132,"L"
87704,"17500 EVERGREEN HILL DRIVE","PRAIRIEVILLE","LA",70769,30.3266061790001,-90.9104490559999,204,"17500 EVERGREEN HILL DRIVE, PRAIRIEVILLE, LA, 70769","Match","Exact","17500 EVERGREEN HILL DR, PRAIRIEVILLE, LA, 70769",627291459,"R"
87705,"17500 MANA RD","APPLE VALLEY","CA",92307,34.5328360120001,-117.278201421,205,"17500 MANA RD, APPLE VALLEY, CA, 92307","Match","Exact","17500 MANA RD, APPLE VALLEY, CA, 92307",144765831,"R"
87706,"17500 N 67TH AVE 2042","GLENDALE","AZ",85308,33.6429095930001,-112.202950719,206,"17500 N 67TH AVE 2042, GLENDALE, AZ, 85308","Match","Non_Exact","17500 N 67TH AVE, GLENDALE, AZ, 85308",639433677,"L"
87707,"17500 NORTHLAND PARK COURT","SOUTHFIELD","MI",48075,42.4454073540001,-83.2159233799999,207,"17500 NORTHLAND PARK COURT, SOUTHFIELD, MI, 48075","Match","Exact","17500 NORTHLAND PARK CT, SOUTHFIELD, MI, 48075",69740388,"R"
87708,"17500 PINEHURST","DETROIT","MI",48221,42.4205430550001,-83.1670536619999,208,"17500 PINEHURST, DETROIT, MI, 48221","Match","Non_Exact","17500 PINEHURST AVE, DETROIT, MI, 48221",95425328,"R"
87709,"17500 REYNOLDS ST UNIT 423","MARINA","CA",93933,NA,NA,209,"17500 REYNOLDS ST UNIT 423, MARINA, CA, 93933","No_Match",NA,NA,NA,NA
87710,"17500 S FM 1258","CLAUDE","TX",79019,NA,NA,210,"17500 S FM 1258, CLAUDE, TX, 79019","No_Match",NA,NA,NA,NA
87711,"17500 SW FARMINGTON ROAD","BEAVERTON","OR",97007,45.4799121400001,-122.8572455,211,"17500 SW FARMINGTON ROAD, BEAVERTON, OR, 97007","Match","Exact","17500 SW FARMINGTON RD, BEAVERTON, OR, 97007",627420131,"L"
87712,"17501 DUVAL RD","MOSELEY","VA",23120,37.417577411,-77.7350211309999,212,"17501 DUVAL RD, MOSELEY, VA, 23120","Match","Exact","17501 DUVAL RD, MOSELEY, VA, 23120",201581223,"L"
87713,"17501 GINGER RD","LITTLE FALLS","MN",56345,46.0128003410001,-94.3789055729999,213,"17501 GINGER RD, LITTLE FALLS, MN, 56345","Match","Exact","17501 GINGER RD, LITTLE FALLS, MN, 56345",167404937,"L"
87714,"17501 HOLT CT","FARIBAULT","MN",55021,44.331395812,-93.44048129,214,"17501 HOLT CT, FARIBAULT, MN, 55021","Match","Exact","17501 HOLT CT, FARIBAULT, MN, 55021",37323677,"R"
87715,"17501 SW 92 COURT","PALMETTO BAY","FL",33157,25.6075493430001,-80.341524986,215,"17501 SW 92 COURT, PALMETTO BAY, FL, 33157","Match","Exact","17501 SW 92ND CT, PALMETTO BAY, FL, 33157",115984009,"L"
87716,"17502 DEFOREST","CLEVELAND","OH",44128,41.4439082270001,-81.556763538,216,"17502 DEFOREST, CLEVELAND, OH, 44128","Match","Non_Exact","17502 DEFOREST AVE, CLEVELAND, OH, 44128",61129147,"R"
87717,"17502 PALOMINO DRIVE","BOTHELL","WA",98012,47.8395606350001,-122.206505312,217,"17502 PALOMINO DRIVE, BOTHELL, WA, 98012","Match","Exact","17502 PALOMINO DR, BOTHELL, WA, 98012",187819714,"R"
87718,"17503 E HUNTSMAN AVE","REEDLEY","CA",93654,36.582549554,-119.47468335,218,"17503 E HUNTSMAN AVE, REEDLEY, CA, 93654","Match","Exact","17503 E HUNTSMAN AVE, REEDLEY, CA, 93654",197593588,"R"
87719,"17503 HWY 12","SONOMA","CA",95476,38.318505438,-122.484947868,219,"17503 HWY 12, SONOMA, CA, 95476","Match","Non_Exact","17503 STATE RTE 12, SONOMA, CA, 95476",67509640,"L"
87720,"17503 LA CANTERA PARKWAY STE104-265","SAN ANTONIO","TX",78257,29.6062881030001,-98.600500725,220,"17503 LA CANTERA PARKWAY STE104-265, SAN ANTONIO, TX, 78257","Match","Non_Exact","17503 LA CANTERA PKWY, SAN ANTONIO, TX, 78257",638592092,"L"
87721,"17503 LA CANTERA PKWY 104-174","SAN ANTONIO","TX",78257,29.6062881030001,-98.600500725,221,"17503 LA CANTERA PKWY 104-174, SAN ANTONIO, TX, 78257","Match","Non_Exact","17503 LA CANTERA PKWY, SAN ANTONIO, TX, 78257",638592092,"L"
87722,"17503 LA CANTERA PKWY STE 104 - 430","SAN ANTONIO","TX",78257,29.6062881030001,-98.600500725,222,"17503 LA CANTERA PKWY STE 104 - 430, SAN ANTONIO, TX, 78257","Match","Non_Exact","17503 LA CANTERA PKWY, SAN ANTONIO, TX, 78257",638592092,"L"
87723,"17503 LA CANTERA PKWY STE 104-497","SAN ANTONIO","TX",78257,29.6062881030001,-98.600500725,223,"17503 LA CANTERA PKWY STE 104-497, SAN ANTONIO, TX, 78257","Match","Non_Exact","17503 LA CANTERA PKWY, SAN ANTONIO, TX, 78257",638592092,"L"
87724,"17504 14TH AVE W","LYNNWOOD","WA",98037,47.839594285,-122.252067636,224,"17504 14TH AVE W, LYNNWOOD, WA, 98037","Match","Exact","17504 14TH AVE W, LYNNWOOD, WA, 98037",608928640,"L"
87725,"17504 DEER HOLLOW DR","SIOUX CITY","IA",51109,42.5626526730001,-96.4786758559999,225,"17504 DEER HOLLOW DR, SIOUX CITY, IA, 51109","Match","Exact","17504 DEER HOLLOW DR, SIOUX CITY, IA, 51109",93334661,"L"
87726,"17504 DEER ISLE CIRCLE","WINTER GARDEN","FL",34787,28.53875665,-81.6506620229999,226,"17504 DEER ISLE CIRCLE, WINTER GARDEN, FL, 34787","Match","Exact","17504 DEER ISLE CIR, WINTER GARDEN, FL, 34787",94330450,"L"
87727,"17505 CARLSON FARM COURT","GERMANTOWN","MD",20874,39.1425098560001,-77.288021869,227,"17505 CARLSON FARM COURT, GERMANTOWN, MD, 20874","Match","Non_Exact","17505 CARLSON FARM, GERMANTOWN, MD, 20874",618598658,"R"
87728,"17505 E BOONE AVE","SPOKANE VALLEY","WA",99016,47.6679248570001,-117.168730035,228,"17505 E BOONE AVE, SPOKANE VALLEY, WA, 99016","Match","Exact","17505 E BOONE AVE, SPOKANE VALLEY, WA, 99016",189912197,"L"
87729,"17505 SOARING FLIGHT DRIVE","PRAIRIEVILLE","LA",70769,30.328341606,-90.9015294019999,229,"17505 SOARING FLIGHT DRIVE, PRAIRIEVILLE, LA, 70769","Match","Exact","17505 SOARING FLIGHT DR, PRAIRIEVILLE, LA, 70769",651045708,"L"
87730,"17506 ALVA RD","SAN DIEGO","CA",92127,33.0324406940001,-117.109284936,230,"17506 ALVA RD, SAN DIEGO, CA, 92127","Match","Exact","17506 ALVA RD, SAN DIEGO, CA, 92127",612873535,"L"
87731,"17506 CANTON FOREST DR","RICHMOND","TX",77407,29.7033166200001,-95.6915531939999,231,"17506 CANTON FOREST DR, RICHMOND, TX, 77407","Match","Exact","17506 CANTON FRST, RICHMOND, TX, 77407",78295809,"R"
87732,"17506 JUNGQUIST RD","MOUNT VERNON","WA",98273,48.4064205120001,-122.370497047,232,"17506 JUNGQUIST RD, MOUNT VERNON, WA, 98273","Match","Exact","17506 JUNGQUIST RD, MOUNT VERNON, WA, 98273",183651132,"L"
87733,"17506 RUXTON CT","PARKER","CO",80134,39.5216941830001,-104.785867025,233,"17506 RUXTON CT, PARKER, CO, 80134","Match","Exact","17506 RUXTON CT, PARKER, CO, 80134",130822261,"L"
87734,"17506 SW BRITETREE CIR","BEAVERTON","OR",97007,45.4778558960001,-122.856920803,234,"17506 SW BRITETREE CIR, BEAVERTON, OR, 97007","Match","Exact","17506 SW BRITETREE CIR, BEAVERTON, OR, 97007",158183647,"R"
87735,"17507 WAGNER RD","LOS GATOS","CA",95032,37.2114788260001,-121.913799861,235,"17507 WAGNER RD, LOS GATOS, CA, 95032","Match","Exact","17507 WAGNER RD, LOS GATOS, CA, 95032",647007573,"L"
87736,"17508 AIRLIFTER DR DEBRIEF SECTION","JBER","AK",99504,NA,NA,236,"17508 AIRLIFTER DR DEBRIEF SECTION, JBER, AK, 99504","No_Match",NA,NA,NA,NA
87737,"17508 AIRLIFTER DRIVE RM 117","JBER","AK",99506,NA,NA,237,"17508 AIRLIFTER DRIVE RM 117, JBER, AK, 99506","No_Match",NA,NA,NA,NA
87738,"17508 AIRLIFTER DRIVE","ELMENDORF AFB","AK",99506,NA,NA,238,"17508 AIRLIFTER DRIVE, ELMENDORF AFB, AK, 99506","No_Match",NA,NA,NA,NA
87739,"17508 E 46TH ST","TULSA","OK",74134,36.0967863400001,-95.781732289,239,"17508 E 46TH ST, TULSA, OK, 74134","Match","Exact","17508 E 46TH ST, TULSA, OK, 74134",641499025,"R"
87740,"17509 BOTTLE SPRINGS LANE","LEANDER","TX",78641,30.5458319270001,-97.823626728,240,"17509 BOTTLE SPRINGS LANE, LEANDER, TX, 78641","Match","Exact","17509 BOTTLE SPRINGS LN, LEANDER, TX, 78641",126456289,"L"
87741,"1750ECRAWLINGSTONE-LANE","LACDUFLAMBEAU","WI",54538,NA,NA,241,"1750ECRAWLINGSTONE-LANE, LACDUFLAMBEAU, WI, 54538","No_Match",NA,NA,NA,NA
87742,"1751 AMSTERDAM AVENUE SUITE 3A","NEW YORK","NY",10031,40.8263040040001,-73.946817139,242,"1751 AMSTERDAM AVENUE SUITE 3A, NEW YORK, NY, 10031","Match","Exact","1751 AMSTERDAM AVE, NEW YORK, NY, 10031",59655939,"R"
87743,"1751 APPLETON WAY","POMONA","CA",91767,34.0765319400001,-117.721556369,243,"1751 APPLETON WAY, POMONA, CA, 91767","Match","Exact","1751 APPLETON WAY, POMONA, CA, 91767",141734807,"L"
87744,"1751 ASHLAND CITY APT N109","CLARKSVILLE","TN",37043,36.503126072,-87.3238120079999,244,"1751 ASHLAND CITY APT N109, CLARKSVILLE, TN, 37043","Match","Non_Exact","1751 ASHLAND CITY RD, CLARKSVILLE, TN, 37043",645244992,"L"
87745,"1751 BENT CREEK DRIVE","LANCASTER","OH",43130,39.7429584490001,-82.55273749,245,"1751 BENT CREEK DRIVE, LANCASTER, OH, 43130","Match","Exact","1751 BENT CREEK DR, LANCASTER, OH, 43130",651476675,"R"
87746,"1751 BROADWAY STREET","HAMMOND","WI",54015,NA,NA,246,"1751 BROADWAY STREET, HAMMOND, WI, 54015","No_Match",NA,NA,NA,NA
87747,"1751 CHERYL WAY","APTOS","CA",95003,36.995441822,-121.912420744,247,"1751 CHERYL WAY, APTOS, CA, 95003","Match","Exact","1751 CHERYL WAY, APTOS, CA, 95003",125509887,"R"
87748,"1751 E 114TH ST","LOS ANGELES","CA",90059,33.9311191740001,-118.242316733,248,"1751 E 114TH ST, LOS ANGELES, CA, 90059","Match","Exact","1751 E 114TH ST, LOS ANGELES, CA, 90059",141674307,"L"
87749,"1751 E MAIN ST","DUNCAN","SC",29334,34.898336467,-82.092672697,249,"1751 E MAIN ST, DUNCAN, SC, 29334","Match","Exact","1751 E MAIN ST, DUNCAN, SC, 29334",640602730,"R"
87750,"1751 E RIVERSIDE DRIVE","INDIANAPOLIS","IN",46202,39.7905271660001,-86.1909889729999,250,"1751 E RIVERSIDE DRIVE, INDIANAPOLIS, IN, 46202","Match","Exact","1751 E RIVERSIDE DR, INDIANAPOLIS, IN, 46202",107986674,"R"
87751,"1751 ESCALANTE WAY","BURLINGAME","CA",94010,37.58029435,-122.401141347,251,"1751 ESCALANTE WAY, BURLINGAME, CA, 94010","Match","Exact","1751 ESCALANTE WAY, BURLINGAME, CA, 94010",192374823,"L"
87752,"1751 FORTUNE DR UNIT G4","SAN JOSE","CA",95131,37.400853795,-121.896900067,252,"1751 FORTUNE DR UNIT G4, SAN JOSE, CA, 95131","Match","Exact","1751 FORTUNE DR, SAN JOSE, CA, 95131",122961860,"R"
87753,"1751 GLEBE CREEK WAY","ODENTON","MD",21113,39.1046187420001,-76.704663658,253,"1751 GLEBE CREEK WAY, ODENTON, MD, 21113","Match","Exact","1751 GLEBE CREEK WAY, ODENTON, MD, 21113",68199078,"R"
87754,"1751 GLEN SHADY BLVD","KNOXVILLE","TN",37922,35.823801207,-84.1704746679999,254,"1751 GLEN SHADY BLVD, KNOXVILLE, TN, 37922","Match","Exact","1751 GLEN SHADY BLVD, KNOXVILLE, TN, 37922",650438653,"R"
87755,"1751 HOUGH STREET","FORT MYERS","FL",33901,26.644008199,-81.863446747,255,"1751 HOUGH STREET, FORT MYERS, FL, 33901","Match","Exact","1751 HOUGH ST, FORT MYERS, FL, 33901",118021331,"L"
87756,"1751 JUDY WAY","EDGEWOOD","MD",21040,39.433281912,-76.3173974969999,256,"1751 JUDY WAY, EDGEWOOD, MD, 21040","Match","Exact","1751 JUDY WAY, EDGEWOOD, MD, 21040",191681707,"L"
87757,"1751 LANE 10","POWELL","WY",82435,44.740077623,-108.915732713,257,"1751 LANE 10, POWELL, WY, 82435","Match","Non_Exact","1751 LN 10, POWELL, WY, 82435",611874933,"R"
87758,"1751 LINN-JOHNSON RD","FAIRFAX","IA",52228,41.8619299270001,-91.75928637,258,"1751 LINN-JOHNSON RD, FAIRFAX, IA, 52228","Match","Non_Exact","1751 LINN JOHNSON RD SW, FAIRFAX, IA, 52228",17016592,"R"
87759,"1751 N CEDAR DR","ST GEORGE","UT",84770,37.1378910110001,-113.613730518,259,"1751 N CEDAR DR, ST GEORGE, UT, 84770","Match","Exact","1751 CEDAR DR, SAINT GEORGE, UT, 84770",166198114,"L"
87760,"1751 N PARKWAY","MEMPHIS","TN",38112,35.152777015,-90.0007191939999,260,"1751 N PARKWAY, MEMPHIS, TN, 38112","Match","Exact","1751 N PKWY, MEMPHIS, TN, 38112",607420660,"L"
87761,"1751 N W 85 STREET","MIAMI","FL",33147,25.852525551,-80.226653718,261,"1751 N W 85 STREET, MIAMI, FL, 33147","Match","Non_Exact","1751 NW 85TH ST, MIAMI, FL, 33147",116003865,"L"
87762,"1751 NOTTINGHAM RD","LANSING","MI",48911,42.713662884,-84.587757446,262,"1751 NOTTINGHAM RD, LANSING, MI, 48911","Match","Exact","1751 NOTTINGHAM RD, LANSING, MI, 48911",17496703,"L"
87763,"1751 NW 85TH STREET","MIAMI","FL",33147,25.852525981,-80.226636782,263,"1751 NW 85TH STREET, MIAMI, FL, 33147","Match","Non_Exact","1751 NW 85TH ST, MIAMI, FL, 33147",116003865,"L"
87764,"1751 OLD SWEDE RD","DOUGLASSVILLE","PA",19518,40.3140024350001,-75.749923264,264,"1751 OLD SWEDE RD, DOUGLASSVILLE, PA, 19518","Match","Exact","1751 OLD SWEDE RD, DOUGLASSVILLE, PA, 19518",642115567,"L"
87765,"1751 OLIVER ST","WHITING","IN",46394,41.6815803100001,-87.494358564,265,"1751 OLIVER ST, WHITING, IN, 46394","Match","Exact","1751 OLIVER ST, WHITING, IN, 46394",606284665,"L"
87766,"1751 OPLAINE RD","LIBERTYVILLE","IL",60048,42.3282166000001,-87.9146070099999,266,"1751 OPLAINE RD, LIBERTYVILLE, IL, 60048","Match","Non_Exact","1751 O'PLAINE RD, LIBERTYVILLE, IL, 60048",635517936,"R"
87767,"1751 RADCLIFF","GARDEN CITY","MI",48135,NA,NA,267,"1751 RADCLIFF, GARDEN CITY, MI, 48135","No_Match",NA,NA,NA,NA
87768,"1751 RIGHT FORK WILSON CREEK ROAD","WAYNE","WV",25570,38.2151418120001,-82.414774403,268,"1751 RIGHT FORK WILSON CREEK ROAD, WAYNE, WV, 25570","Match","Exact","1751 RIGHT FORK WILSON CREEK RD, WAYNE, WV, 25570",57210884,"R"
87769,"1751 RIVER RUN SUITE 200","FORT WORTH","TX",76107,32.727758894,-97.3605198609999,269,"1751 RIVER RUN SUITE 200, FORT WORTH, TX, 76107","Match","Exact","1751 RIVER RUN, FORT WORTH, TX, 76107",619873387,"L"
87770,"1751 S VALLEY FORGE ROAD","LANSDALE","PA",19446,40.223356806,-75.3205831349999,270,"1751 S VALLEY FORGE ROAD, LANSDALE, PA, 19446","Match","Exact","1751 S VALLEY FORGE RD, LANSDALE, PA, 19446",635655587,"L"
87771,"1751 STATE HWY 434 BOX 702","GUADALUPITA","NM",87722,36.184990085,-105.2325332,271,"1751 STATE HWY 434 BOX 702, GUADALUPITA, NM, 87722","Match","Exact","1751 STATE HWY 434, GUADALUPITA, NM, 87722",143772885,"L"
87772,"1751 SW ORCHARD PL","GRESHAM","OR",97080,45.4841860920001,-122.448701552,272,"1751 SW ORCHARD PL, GRESHAM, OR, 97080","Match","Exact","1751 SW ORCHARD PL, GRESHAM, OR, 97080",157528555,"R"
87773,"1751 SW WHIPPLE AVE","PORT SAINT LUCIE","FL",34953,27.237925535,-80.401097319,273,"1751 SW WHIPPLE AVE, PORT SAINT LUCIE, FL, 34953","Match","Exact","1751 SW WHIPPLE AVE, PORT ST LUCIE, FL, 34953",120143247,"L"
87774,"1751 VERNA LEE BLVD TRLR 23","HARKER HEIGHTS","TX",76548,31.07152088,-97.647199684,274,"1751 VERNA LEE BLVD TRLR 23, HARKER HEIGHTS, TX, 76548","Match","Exact","1751 VERNA LEE BLVD, HARKER HEIGHTS, TX, 76548",146142736,"L"
87775,"1751 WINDING CREEK TRAIL","SPRING BRANCH","TX",78070,29.9294005250001,-98.340782866,275,"1751 WINDING CREEK TRAIL, SPRING BRANCH, TX, 78070","Match","Exact","1751 WINDING CREEK TRL, SPRING BRANCH, TX, 78070",649292986,"R"
87776,"17510 BARRINGTON COURT","MINNETONKA","MN",55345,44.892678027,-93.502051648,276,"17510 BARRINGTON COURT, MINNETONKA, MN, 55345","Match","Exact","17510 BARRINGTON CT, MINNETONKA, MN, 55345",640005910,"L"
87777,"17510 HUNTERSGLEN CIRCLE","HUMBLE","TX",77396,29.9742530340001,-95.217147027,277,"17510 HUNTERSGLEN CIRCLE, HUMBLE, TX, 77396","Match","Exact","17510 HUNTERSGLEN CIR, HUMBLE, TX, 77396",96049908,"R"
87778,"17510 LONG VIEW LANE","OLNEY","MD",20832,39.143400091,-77.087391149,278,"17510 LONG VIEW LANE, OLNEY, MD, 20832","Match","Non_Exact","17510 LONGVIEW LN, OLNEY, MD, 20832",62084766,"R"
87779,"17510 PIONEER BLVD  224","ARTESIA","CA",90701,33.871927698,-118.082245957,279,"17510 PIONEER BLVD  224, ARTESIA, CA, 90701","Match","Exact","17510 PIONEER BLVD, ARTESIA, CA, 90701",141743865,"L"
87780,"17510 SHELBURNE LANE","SPRING","TX",77379,30.0266476,-95.5370565979999,280,"17510 SHELBURNE LANE, SPRING, TX, 77379","Match","Exact","17510 SHELBURNE LN, SPRING, TX, 77379",96165873,"R"
87781,"17510 W GRAND PARKWAY S    STE 420","SUGAR LAND","TX",77479,29.5652694980001,-95.688469496,281,"17510 W GRAND PARKWAY S    STE 420, SUGAR LAND, TX, 77479","Match","Non_Exact","17510 GRAND PKWY, SUGAR LAND, TX, 77479",637963912,"L"
87782,"17511 ADOBE ST","HESPERIA","CA",92345,34.403753384,-117.281635302,282,"17511 ADOBE ST, HESPERIA, CA, 92345","Match","Exact","17511 ADOBE ST, HESPERIA, CA, 92345",144590237,"R"
87783,"17511 E RD MIZE RD","INDEPENDENCE","MT",64057,NA,NA,283,"17511 E RD MIZE RD, INDEPENDENCE, MT, 64057","No_Match",NA,NA,NA,NA
87784,"17511 GREEN ROAD","HARVARD","IL",60033,42.4218368910001,-88.53774258,284,"17511 GREEN ROAD, HARVARD, IL, 60033","Match","Exact","17511 GREEN RD, HARVARD, IL, 60033",119849801,"L"
87785,"17511 HEIDELBERG WAY","LAKEVILLE","MN",55044,44.6947132170001,-93.2328040419999,285,"17511 HEIDELBERG WAY, LAKEVILLE, MN, 55044","Match","Exact","17511 HEIDELBERG WAY, LAKEVILLE, MN, 55044",630140882,"L"
87786,"17511 N MAIN ST","GALESVILLE","WI",54630,44.0916852120001,-91.342626409,286,"17511 N MAIN ST, GALESVILLE, WI, 54630","Match","Exact","17511 N MAIN ST, GALESVILLE, WI, 54630",46233975,"L"
87787,"17512 BRENT LN","TUSTIN","CA",92780,33.7665625270001,-117.826580965,287,"17512 BRENT LN, TUSTIN, CA, 92780","Match","Exact","17512 BRENT LN, TUSTIN, CA, 92780",144418610,"R"
87788,"17512 GRIFFIN LN STE 7","HUNTINGTON BEACH","CA",92647,33.708227105,-117.99629485,288,"17512 GRIFFIN LN STE 7, HUNTINGTON BEACH, CA, 92647","Match","Exact","17512 GRIFFIN LN, HUNTINGTON BEACH, CA, 92647",144017703,"L"
87789,"17512 POND VIEW PL","COLORADO SPRINGS","CO",80908,39.0831647790001,-104.749752019,289,"17512 POND VIEW PL, COLORADO SPRINGS, CO, 80908","Match","Exact","17512 POND VIEW PL, COLORADO SPRINGS, CO, 80908",647970962,"L"
87790,"17512 SKYLINE DRIVE","ASHTON","MD",20861,39.1429239350001,-76.9812738109999,290,"17512 SKYLINE DRIVE, ASHTON, MD, 20861","Match","Exact","17512 SKYLINE DR, ASHTON, MD, 20861",62072163,"R"
87791,"17514 CAMBRIDGE GROVE DRIVE","HUNTERSVILLE","NC",28078,35.44899013,-80.859430614,291,"17514 CAMBRIDGE GROVE DRIVE, HUNTERSVILLE, NC, 28078","Match","Exact","17514 CAMBRIDGE GROVE DR, HUNTERSVILLE, NC, 28078",621884085,"R"
87792,"17514 E STARFLOWER CT","QUEEN CREEK","AZ",85142,33.2056493220001,-111.704394527,292,"17514 E STARFLOWER CT, QUEEN CREEK, AZ, 85142","Match","Exact","17514 E STARFLOWER CT, QUEEN CREEK, AZ, 85142",128892669,"L"
87793,"17514 HEARTWIND CT","HOUSTON","TX",77095,29.930759224,-95.681808561,293,"17514 HEARTWIND CT, HOUSTON, TX, 77095","Match","Exact","17514 HEARTWIND CT, HOUSTON, TX, 77095",96292089,"L"
87794,"17514 RIVERWAY DRIVE","LAKEWOOD","OH",44107,41.4751809260001,-81.818045546,294,"17514 RIVERWAY DRIVE, LAKEWOOD, OH, 44107","Match","Exact","17514 RIVERWAY DR, LAKEWOOD, OH, 44107",61100064,"R"
87795,"17515 49TH AVE N","PLYMOUTH","MN",55446,45.0429113100001,-93.5030368879999,295,"17515 49TH AVE N, PLYMOUTH, MN, 55446","Match","Exact","17515 49TH AVE N, PLYMOUTH, MN, 55446",43675911,"R"
87796,"17515 SPRING CYPRESS ROAD","CYPRESS","TX",77429,NA,NA,296,"17515 SPRING CYPRESS ROAD, CYPRESS, TX, 77429","No_Match",NA,NA,NA,NA
87797,"17515 W 9 MILE RD  SUITE 370","SOUTHFIELD","MI",48075,42.4589213180001,-83.216246691,297,"17515 W 9 MILE RD  SUITE 370, SOUTHFIELD, MI, 48075","Match","Non_Exact","17515 W 9 MILE RD, SOUTHFIELD, MI, 48075",69824244,"L"
87798,"17515 W NINE MILE ROAD SUITE 245","SOUTHFIELD","MI",48075,42.4589213180001,-83.216246691,298,"17515 W NINE MILE ROAD SUITE 245, SOUTHFIELD, MI, 48075","Match","Non_Exact","17515 W 9 MILE RD, SOUTHFIELD, MI, 48075",69824244,"L"
87799,"17516 MURRAY ROAD","MOUNT VERNON","OH",43050,40.34039554,-82.441030801,299,"17516 MURRAY ROAD, MOUNT VERNON, OH, 43050","Match","Exact","17516 MURRAY RD, MOUNT VERNON, OH, 43050",24664365,"L"
87800,"17516 NW SPRINGVILLE RD NUM 5","PORTLAND","OR",97229,45.5629733600001,-122.857525091,300,"17516 NW SPRINGVILLE RD NUM 5, PORTLAND, OR, 97229","Match","Non_Exact","17516 NW SPRINGVILLE RD, PORTLAND, OR, 97229",158223423,"L"
87801,"17517 BEAVER SPRINGS DR","SPRING","TX",77090,NA,NA,301,"17517 BEAVER SPRINGS DR, SPRING, TX, 77090","No_Match",NA,NA,NA,NA
87802,"17517 QUEEN ELIZABETH DRIVE","OLNEY","MD",20832,39.1433257370001,-77.077274022,302,"17517 QUEEN ELIZABETH DRIVE, OLNEY, MD, 20832","Match","Exact","17517 QUEEN ELIZABETH DR, OLNEY, MD, 20832",62071475,"R"
87803,"17518 MIMICH WAY","LOUISVILLE","KY",40245,38.2545434950001,-85.427884505,303,"17518 MIMICH WAY, LOUISVILLE, KY, 40245","Match","Exact","17518 MIMICH WAY, LOUISVILLE, KY, 40245",96938509,"R"
87804,"17519 HEATHER ST NW","ANDOVER","MN",55304,45.2882499520001,-93.3417072939999,304,"17519 HEATHER ST NW, ANDOVER, MN, 55304","Match","Exact","17519 HEATHER ST NW, ANDOVER, MN, 55304",97525440,"R"
87805,"17519 N 97TH PLACE","SCOTTSDALE","AZ",85255,33.644891134,-111.870549598,305,"17519 N 97TH PLACE, SCOTTSDALE, AZ, 85255","Match","Exact","17519 N 97TH PL, SCOTTSDALE, AZ, 85255",640953519,"L"
87806,"17519 W DALEA DR","GOODYEAR","AZ",85338,33.329059994,-112.426308884,306,"17519 W DALEA DR, GOODYEAR, AZ, 85338","Match","Exact","17519 W DALEA DR, GOODYEAR, AZ, 85338",128850433,"L"
87807,"17519 WILD CHERRY LN","KING GEORGE","VA",22485,38.2720114910001,-77.0456712129999,307,"17519 WILD CHERRY LN, KING GEORGE, VA, 22485","Match","Exact","17519 WILD CHERRY LN, KING GEORGE, VA, 22485",22059920,"L"
87808,"1751D W HOWARD ST","CHICAGO","IL",60626,NA,NA,308,"1751D W HOWARD ST, CHICAGO, IL, 60626","No_Match",NA,NA,NA,NA
87809,"1752 8TH AVENUE BLVD","LEWISTON","ID",83501,46.4118171860001,-117.006750606,309,"1752 8TH AVENUE BLVD, LEWISTON, ID, 83501","Match","Exact","1752 8TH AVE BLVD, LEWISTON, ID, 83501",173144282,"L"
87810,"1752 CAPITAL ST STE 400","ELGIN","IL",60124,42.0796461530001,-88.338781382,310,"1752 CAPITAL ST STE 400, ELGIN, IL, 60124","Match","Exact","1752 CAPITAL ST, ELGIN, IL, 60124",647409975,"L"
87811,"1752 CHARLES AVENUE","ARCATA","CA",95521,40.8592101930001,-124.060684769,311,"1752 CHARLES AVENUE, ARCATA, CA, 95521","Match","Exact","1752 CHARLES AVE, ARCATA, CA, 95521",113035983,"R"
87812,"1752 DEL DIOS ROAD","ESCONDIDO","CA",92029,NA,NA,312,"1752 DEL DIOS ROAD, ESCONDIDO, CA, 92029","Tie",NA,NA,NA,NA
87813,"1752 E 106TH STREET","LOS ANGELES","CA",90002,33.9398424610001,-118.241187472,313,"1752 E 106TH STREET, LOS ANGELES, CA, 90002","Match","Exact","1752 E 106TH ST, LOS ANGELES, CA, 90002",141674183,"R"
87814,"1752 E AVE J STE 151","LANCASTER","CA",93535,NA,NA,314,"1752 E AVE J STE 151, LANCASTER, CA, 93535","No_Match",NA,NA,NA,NA
87815,"1752 E LUGONIA AVE STE 117 RM 13","REDLANDS","CA",92374,34.0701226470001,-117.140763361,315,"1752 E LUGONIA AVE STE 117 RM 13, REDLANDS, CA, 92374","Match","Non_Exact","1752 E LUGONIA AVE, REDLANDS, CA, 92374",144966488,"R"
87816,"1752 E LUGONIA AVE SUITE 117-1045","REDLANDS","CA",92374,34.0701226470001,-117.140763361,316,"1752 E LUGONIA AVE SUITE 117-1045, REDLANDS, CA, 92374","Match","Non_Exact","1752 E LUGONIA AVE, REDLANDS, CA, 92374",144966488,"R"
87817,"1752 EAST AVENUE J 104","LANCASTER","CA",93535,34.7335473360001,-118.099059455,317,"1752 EAST AVENUE J 104, LANCASTER, CA, 93535","Match","Non_Exact","1752 E AVE G, LANCASTER, CA, 93535",141847582,"L"
87818,"1752 GREENVIEW CIRCLE","MEMPHIS","TN",38108,35.169439147,-89.999247504,318,"1752 GREENVIEW CIRCLE, MEMPHIS, TN, 38108","Match","Exact","1752 GREENVIEW CIR, MEMPHIS, TN, 38108",72978037,"L"
87819,"1752 HUTCHINSON LANE","SILVER SPRING","MD",20906,39.0698503890001,-77.038929271,319,"1752 HUTCHINSON LANE, SILVER SPRING, MD, 20906","Match","Exact","1752 HUTCHINSON LN, SILVER SPRING, MD, 20906",62078447,"L"
87820,"1752 LAS GALLINAS AVE","SAN RAFAEL","CA",94903,38.0176378250001,-122.54943676,320,"1752 LAS GALLINAS AVE, SAN RAFAEL, CA, 94903","Match","Exact","1752 LAS GALLINAS AVE, SAN RAFAEL, CA, 94903",192762014,"R"
87821,"1752 MONO COURT","TULARE","CA",93274,36.178967318,-119.315636873,321,"1752 MONO COURT, TULARE, CA, 93274","Match","Exact","1752 MONO CT, TULARE, CA, 93274",607542944,"L"
87822,"1752 MUSSO VIEW AVE","CHESHIRE","CT",6410,41.553208506,-72.955902549,322,"1752 MUSSO VIEW AVE, CHESHIRE, CT, 6410","Match","Exact","1752 MUSSO VIEW AVE, CHESHIRE, CT, 06410",625848399,"L"
87823,"1752 NASHVILLE LANE","CRYSTAL LAKE","IL",60014,42.1930475410001,-88.351194322,323,"1752 NASHVILLE LANE, CRYSTAL LAKE, IL, 60014","Match","Exact","1752 NASHVILLE LN, CRYSTAL LAKE, IL, 60014",119844492,"L"
87824,"1752 NEW HYDE PARK RD","NEW HYDE PARK","NY",11040,40.7467262580001,-73.684835622,324,"1752 NEW HYDE PARK RD, NEW HYDE PARK, NY, 11040","Match","Exact","1752 NEW HYDE PARK RD, NEW HYDE PARK, NY, 11040",147665930,"R"
87825,"1752 NW MARKET ST / 617","SEATTLE","WA",98107,47.668675093,-122.380670376,325,"1752 NW MARKET ST / 617, SEATTLE, WA, 98107","Match","Non_Exact","1752 NW MARKET ST, SEATTLE, WA, 98107",186658990,"R"
87826,"1752 NW MARKET ST 4123","SEATTLE","WA",98107,47.668675093,-122.380670376,326,"1752 NW MARKET ST 4123, SEATTLE, WA, 98107","Match","Non_Exact","1752 NW MARKET ST, SEATTLE, WA, 98107",186658990,"R"
87827,"1752 NW MARKET ST UNIT 4114","SEATTLE","WA",98107,47.668675093,-122.380670376,327,"1752 NW MARKET ST UNIT 4114, SEATTLE, WA, 98107","Match","Non_Exact","1752 NW MARKET ST, SEATTLE, WA, 98107",186658990,"R"
87828,"1752 PARHAM STREET","HENDERSON","NC",27536,36.326883095,-78.4237913599999,328,"1752 PARHAM STREET, HENDERSON, NC, 27536","Match","Exact","1752 PARHAM ST, HENDERSON, NC, 27536",636552696,"L"
87829,"1752 ROUTE 206","SOUTHAMPTON","NJ",8088,39.8848866600001,-74.7402695659999,329,"1752 ROUTE 206, SOUTHAMPTON, NJ, 8088","Match","Non_Exact","1752 US HWY 206, SOUTHAMPTON, NJ, 08088",134045805,"L"
87830,"1752 SIMMS ST","AURORA","IL",60504,41.740630706,-88.27467656,330,"1752 SIMMS ST, AURORA, IL, 60504","Match","Exact","1752 SIMMS ST, AURORA, IL, 60504",119571148,"L"
87831,"1752 W 49TH STREET","LOS ANGELES","CA",90062,33.9990118650001,-118.310207619,331,"1752 W 49TH STREET, LOS ANGELES, CA, 90062","Match","Exact","1752 W 49TH ST, LOS ANGELES, CA, 90062",141606674,"L"
87832,"1752 W EL CAMINITO DR","PHOENIX","AZ",85021,33.5579642330001,-112.097883664,332,"1752 W EL CAMINITO DR, PHOENIX, AZ, 85021","Match","Exact","1752 W EL CAMINITO DR, PHOENIX, AZ, 85021",128203740,"R"
87833,"17520 CHARTER PINES DRIVE","MONUMENT","CO",80132,39.0866068770001,-104.801059085,333,"17520 CHARTER PINES DRIVE, MONUMENT, CO, 80132","Match","Exact","17520 CHARTER PINES DR, MONUMENT, CO, 80132",649850823,"R"
87834,"17520 DARTOWN RD PO BOX 241","WESTFIELD","IN",46074,40.0417269450001,-86.15134112,334,"17520 DARTOWN RD PO BOX 241, WESTFIELD, IN, 46074","Match","Exact","17520 DARTOWN RD, WESTFIELD, IN, 46074",29325931,"R"
87835,"17520 DARTOWN RD UNIT 761","WESTFIELD","IN",46074,40.0417269450001,-86.15134112,335,"17520 DARTOWN RD UNIT 761, WESTFIELD, IN, 46074","Match","Exact","17520 DARTOWN RD, WESTFIELD, IN, 46074",29325931,"R"
87836,"17520 W 12 MILE RD  STE 115","SOUTHFIELD","MI",48076,42.5025448230001,-83.219544975,336,"17520 W 12 MILE RD  STE 115, SOUTHFIELD, MI, 48076","Match","Non_Exact","17520 W 12 MILE RD, SOUTHFIELD, MI, 48076",69735967,"R"
87837,"17520 ZINC","EDMOND","OK",73012,35.648547706,-97.5460162909999,337,"17520 ZINC, EDMOND, OK, 73012","Match","Non_Exact","17520 ZINC DR, EDMOND, OK, 73012",642069329,"R"
87838,"17521 HWY 59","LITTLE RIVER","AL",36550,NA,NA,338,"17521 HWY 59, LITTLE RIVER, AL, 36550","No_Match",NA,NA,NA,NA
87839,"17521 VALLEY VIEW DRIVE","JORDAN","MN",55352,44.6958561710001,-93.611541454,339,"17521 VALLEY VIEW DRIVE, JORDAN, MN, 55352","Match","Exact","17521 VALLEY VIEW DR, JORDAN, MN, 55352",639302891,"L"
87840,"17522 NW 22ND AVE","MIAMI GARDENS","FL",33056,25.934311112,-80.2369589259999,340,"17522 NW 22ND AVE, MIAMI GARDENS, FL, 33056","Match","Exact","17522 NW 22ND AVE, MIAMI GARDENS, FL, 33056",116028007,"L"
87841,"17525 433RD AVE SE","GOLD BAR","WA",98251,47.8391730490001,-121.653485835,341,"17525 433RD AVE SE, GOLD BAR, WA, 98251","Match","Exact","17525 433RD AVE SE, GOLD BAR, WA, 98251",187797543,"R"
87842,"17525 AURORA AVE N","SHORELINE","WA",98133,47.7563813020001,-122.345887132,342,"17525 AURORA AVE N, SHORELINE, WA, 98133","Match","Exact","17525 AURORA AVE N, SHORELINE, WA, 98133",615059685,"L"
87843,"17525 E JEFFERSON AVE","GROSSE POINTE","MI",48230,42.3849823510001,-82.905178092,343,"17525 E JEFFERSON AVE, GROSSE POINTE, MI, 48230","Match","Exact","17525 E JEFFERSON AVE, GROSSE POINTE, MI, 48230",95489594,"L"
87844,"17525 PINOPOLIS ROAD","CAPRON","VA",23829,36.6989253290001,-77.212104197,344,"17525 PINOPOLIS ROAD, CAPRON, VA, 23829","Match","Exact","17525 PINOPOLIS RD, CAPRON, VA, 23829",82710547,"L"
87845,"17525 SHEPHERDSTOWN PIKE","SHARPSBURG","MD",21782,39.4553086430001,-77.759377656,345,"17525 SHEPHERDSTOWN PIKE, SHARPSBURG, MD, 21782","Match","Exact","17525 SHEPHERDSTOWN PIKE, SHARPSBURG, MD, 21782",639379845,"R"
87846,"17525 SILENT HARBOR LOOP","PFLUGERVILLE","TX",78660,30.4436496770001,-97.57506922,346,"17525 SILENT HARBOR LOOP, PFLUGERVILLE, TX, 78660","Match","Exact","17525 SILENT HARBOR LOOP, PFLUGERVILLE, TX, 78660",642148109,"L"
87847,"17525 SW 107TH CT","MIAMI","FL",33157,25.6065594230001,-80.365539097,347,"17525 SW 107TH CT, MIAMI, FL, 33157","Match","Exact","17525 SW 107TH CT, MIAMI, FL, 33157",115982761,"L"
87848,"17525 VIA LINDO","TUSTIN","CA",92780,33.757541254,-117.827426396,348,"17525 VIA LINDO, TUSTIN, CA, 92780","Match","Exact","17525 VIA LINDO, TUSTIN, CA, 92780",144096951,"L"
87849,"17526 WEST SEVEN MILE","DETROIT","MI",48235,42.4301281200001,-83.215351963,349,"17526 WEST SEVEN MILE, DETROIT, MI, 48235","Match","Non_Exact","17526 W 7 MILE RD, DETROIT, MI, 48235",95422770,"R"
87850,"17527 HARRIS WAY SUITE 104","CANYON COUNTRY","CA",91387,34.4112306590001,-118.441963419,350,"17527 HARRIS WAY SUITE 104, CANYON COUNTRY, CA, 91387","Match","Non_Exact","17527 W HARRIS WAY, CANYON COUNTRY, CA, 91387",635192487,"R"
87851,"17527 KITTRIDGE ST","LAKE BALBOA","CA",91406,34.190249152,-118.514983636,351,"17527 KITTRIDGE ST, LAKE BALBOA, CA, 91406","Match","Exact","17527 KITTRIDGE ST, LAKE BALBOA, CA, 91406",142687525,"R"
87852,"17528 SAGEBRUSH WAY","CARSON","CA",90746,33.8713315300001,-118.252723441,352,"17528 SAGEBRUSH WAY, CARSON, CA, 90746","Match","Exact","17528 SAGEBRUSH WAY, CARSON, CA, 90746",631785089,"R"
87853,"1753 40TH ST","SACRAMENTO","CA",95819,38.5613960800001,-121.456417353,353,"1753 40TH ST, SACRAMENTO, CA, 95819","Match","Exact","1753 40TH ST, SACRAMENTO, CA, 95819",133389641,"L"
87854,"1753 BARDSTOWN ROAD","LOUISVILLE","KY",40205,38.228796232,-85.7015848779999,354,"1753 BARDSTOWN ROAD, LOUISVILLE, KY, 40205","Match","Exact","1753 BARDSTOWN RD, LOUISVILLE, KY, 40205",96852703,"L"
87855,"1753 BREMAN LANE","INDIANAPOLIS","IN",46229,39.7926883800001,-85.955139792,355,"1753 BREMAN LANE, INDIANAPOLIS, IN, 46229","Match","Exact","1753 BREMAN LN, INDIANAPOLIS, IN, 46229",108060971,"R"
87856,"1753 DUNES CLUB PLACE","FERNANDINA BEACH","FL",32034,30.5419931750001,-81.4422820079999,356,"1753 DUNES CLUB PLACE, FERNANDINA BEACH, FL, 32034","Match","Exact","1753 DUNES CLUB PL, FERNANDINA BCH, FL, 32034",650017960,"R"
87857,"1753 E BROADWAY RD STE 101-212","TEMPE","AZ",85282,33.4075058220001,-111.910413363,357,"1753 E BROADWAY RD STE 101-212, TEMPE, AZ, 85282","Match","Non_Exact","1753 E BROADWAY RD, TEMPE, AZ, 85282",650137361,"R"
87858,"1753 E BROADWAY RD SUITE 101-133","TEMPE","AZ",85282,33.4075058220001,-111.910413363,358,"1753 E BROADWAY RD SUITE 101-133, TEMPE, AZ, 85282","Match","Non_Exact","1753 E BROADWAY RD, TEMPE, AZ, 85282",650137361,"R"
87859,"1753 E BROADWAY ROAD STE 101-293","TEMPE","AZ",85282,33.4075058220001,-111.910413363,359,"1753 E BROADWAY ROAD STE 101-293, TEMPE, AZ, 85282","Match","Non_Exact","1753 E BROADWAY RD, TEMPE, AZ, 85282",650137361,"R"
87860,"1753 E BROADWAY ROAD SUITE 101 459","CHANDLER","AZ",85249,NA,NA,360,"1753 E BROADWAY ROAD SUITE 101 459, CHANDLER, AZ, 85249","No_Match",NA,NA,NA,NA
87861,"1753 GOPHER RIDGE ROAD","SAMSON","AL",36477,31.0487481420001,-86.187535596,361,"1753 GOPHER RIDGE ROAD, SAMSON, AL, 36477","Match","Exact","1753 GOPHER RIDGE RD, SAMSON, AL, 36477",32932719,"R"
87862,"1753 HANNAFORD DR","SUGAR GROVE","IL",60554,41.796968619,-88.4406005019999,362,"1753 HANNAFORD DR, SUGAR GROVE, IL, 60554","Match","Exact","1753 HANNAFORD DR, SUGAR GROVE, IL, 60554",119591589,"R"
87863,"1753 LOCH HAVEN COURT","TRINITY","FL",34655,28.1853606940001,-82.637993125,363,"1753 LOCH HAVEN COURT, TRINITY, FL, 34655","Match","Exact","1753 LOCH HAVEN CT, TRINITY, FL, 34655",86401087,"R"
87864,"1753 MAYAPPLE WAY","GAMBRILLS","MD",21054,39.0009772350001,-76.653539036,364,"1753 MAYAPPLE WAY, GAMBRILLS, MD, 21054","Match","Exact","1753 MAYAPPLE WAY, GAMBRILLS, MD, 21054",68162720,"L"
87865,"1753 OAKPARK DRIVE","ROCKFORD","IL",61107,42.288692101,-88.974919046,365,"1753 OAKPARK DRIVE, ROCKFORD, IL, 61107","Match","Exact","1753 OAKPARK DR, ROCKFORD, IL, 61107",49293257,"L"
87866,"1753 S 41ST ST","TACOMA","WA",98418,47.2200887330001,-122.460157253,366,"1753 S 41ST ST, TACOMA, WA, 98418","Match","Exact","1753 S 41ST ST, TACOMA, WA, 98418",184624837,"R"
87867,"1753 W SEYBERT ST","PHILADELPHIA","PA",19121,39.9743088010001,-75.16464997,367,"1753 W SEYBERT ST, PHILADELPHIA, PA, 19121","Match","Exact","1753 W SEYBERT ST, PHILADELPHIA, PA, 19121",131406187,"R"
87868,"1753 WELLSTEAD ST","MT PLEASANT","SC",29466,32.9125229360001,-79.78076184,368,"1753 WELLSTEAD ST, MT PLEASANT, SC, 29466","Match","Exact","1753 WELLSTEAD ST, MOUNT PLEASANT, SC, 29466",627475091,"L"
87869,"1753 WICK WAY","MONTGOMERY","IL",60538,41.7271002750001,-88.404810836,369,"1753 WICK WAY, MONTGOMERY, IL, 60538","Match","Exact","1753 WICK WAY, MONTGOMERY, IL, 60538",119564009,"L"
87870,"1753 WOODS TRAIL","EIGHT MILE","AL",36613,30.798433043,-88.120252417,370,"1753 WOODS TRAIL, EIGHT MILE, AL, 36613","Match","Exact","1753 WOODS TRL, EIGHT MILE, AL, 36613",61847947,"R"
87871,"17530 80TH AVENUE CT E","PUYALLUP","WA",98375,47.0972462930001,-122.322221405,371,"17530 80TH AVENUE CT E, PUYALLUP, WA, 98375","Match","Exact","17530 80TH AVENUE CT E, PUYALLUP, WA, 98375",645878511,"R"
87872,"17530 NE 8TH PL","MIAMI","FL",33162,25.936574911,-80.183316355,372,"17530 NE 8TH PL, MIAMI, FL, 33162","Match","Non_Exact","17530 NE 8TH PL, MIAMI, FL, 33162",116030913,"L"
87873,"17530 NE TERRYS LANE","NEWBERG","OR",97132,45.323570391,-123.057741234,373,"17530 NE TERRYS LANE, NEWBERG, OR, 97132","Match","Exact","17530 NE TERRYS LN, NEWBERG, OR, 97132",635614867,"L"
87874,"17530 STATELINE AVE","LANSING","IL",60438,41.5760863470001,-87.5252877679999,374,"17530 STATELINE AVE, LANSING, IL, 60438","Match","Non_Exact","17530 STATE LINE AVE, LANSING, IL, 60438",98441612,"R"
87875,"17531 ELEANOR LANE","UPPER MARLBORO","MD",20774,38.869975047,-76.7013573519999,375,"17531 ELEANOR LANE, UPPER MARLBORO, MD, 20774","Match","Exact","17531 ELEANOR LN, UPPER MARLBORO, MD, 20774",632045427,"R"
87876,"17531 GLENMORRIS DR","HOUSTON","TX",77084,29.87051146,-95.676414709,376,"17531 GLENMORRIS DR, HOUSTON, TX, 77084","Match","Exact","17531 GLENMORRIS DR, HOUSTON, TX, 77084",96295238,"R"
87877,"17531 SARGENT RD SW","ROCHESTER","WA",98579,46.8341071470001,-123.05226758,377,"17531 SARGENT RD SW, ROCHESTER, WA, 98579","Match","Exact","17531 SARGENT RD SW, ROCHESTER, WA, 98579",649807728,"L"
87878,"17532 CERRO VERDE DR","YORBA LINDA","CA",92886,33.8863703120001,-117.827506177,378,"17532 CERRO VERDE DR, YORBA LINDA, CA, 92886","Match","Exact","17532 CERRO VERDE DR, YORBA LINDA, CA, 92886",143995966,"R"
87879,"17534 E 43RD ST","TULSA","OK",74134,NA,NA,379,"17534 E 43RD ST, TULSA, OK, 74134","No_Match",NA,NA,NA,NA
87880,"17534 FIR ISLAND ROAD","MOUNT VERNON","WA",98273,48.3412847100001,-122.367390854,380,"17534 FIR ISLAND ROAD, MOUNT VERNON, WA, 98273","Match","Exact","17534 FIR ISLAND RD, MOUNT VERNON, WA, 98273",635491168,"R"
87881,"17534 SUMNER RD","PECATONICA","IL",61063,42.308233645,-89.379958613,381,"17534 SUMNER RD, PECATONICA, IL, 61063","Match","Exact","17534 SUMNER RD, PECATONICA, IL, 61063",49248749,"R"
87882,"17535 CORAL GABLES AVE","LATHRUP VLG","MI",48076,42.4865647390001,-83.219058113,382,"17535 CORAL GABLES AVE, LATHRUP VLG, MI, 48076","Match","Exact","17535 CORAL GABLES AVE, LATHRUP VILLAGE, MI, 48076",638918723,"L"
87883,"17535 CYPRESS LAUREL STREET","HOUSTON","TX",77095,29.900995611,-95.679947571,383,"17535 CYPRESS LAUREL STREET, HOUSTON, TX, 77095","Match","Exact","17535 CYPRESS LAUREL ST, HOUSTON, TX, 77095",631976763,"R"
87884,"17535 SANDALWOOD DRIVE","TINLEY PARK","IL",60477,41.5726218620001,-87.795572029,384,"17535 SANDALWOOD DRIVE, TINLEY PARK, IL, 60477","Match","Exact","17535 SANDALWOOD DR, TINLEY PARK, IL, 60477",111706339,"R"
87885,"17536 BRIDGEFARMER BLVD","PFLUGERVILLE","TX",78660,30.4517587020001,-97.5571186129999,385,"17536 BRIDGEFARMER BLVD, PFLUGERVILLE, TX, 78660","Match","Exact","17536 BRIDGEFARMER BLVD, PFLUGERVILLE, TX, 78660",619965133,"R"
87886,"17536 YELLOWWOOD WAY","CARSON","CA",90746,33.871332753,-118.254118562,386,"17536 YELLOWWOOD WAY, CARSON, CA, 90746","Match","Exact","17536 YELLOWWOOD WAY, CARSON, CA, 90746",631785100,"R"
87887,"17537 40TH AVENUE","CONKLIN","MI",49403,43.087507278,-85.8873153979999,387,"17537 40TH AVENUE, CONKLIN, MI, 49403","Match","Exact","17537 40TH AVE, CONKLIN, MI, 49403",633513229,"R"
87888,"17538 BAKER AVENUE","COUNTRY CLUB HILLS","IL",60478,41.570432757,-87.724101558,388,"17538 BAKER AVENUE, COUNTRY CLUB HILLS, IL, 60478","Match","Exact","17538 BAKER AVE, COUNTRY CLUB HILLS, IL, 60478",111707262,"R"
87889,"17538 HIGHWAY 171","NORTHPORT","AL",35475,33.419880855,-87.7431425199999,389,"17538 HIGHWAY 171, NORTHPORT, AL, 35475","Match","Non_Exact","17538 STATE RTE 171, NORTHPORT, AL, 35475",82209859,"L"
87890,"17539 LAHSER","DETROIT","MI",48219,42.419337424,-83.2579244089999,390,"17539 LAHSER, DETROIT, MI, 48219","Match","Non_Exact","17539 LAHSER RD, DETROIT, MI, 48219",95420842,"L"
87891,"1754 BYFIELD PKWY","VALPARAISO","IN",46385,41.452467158,-87.079598129,391,"1754 BYFIELD PKWY, VALPARAISO, IN, 46385","Match","Exact","1754 BYFIELD PKWY, VALPARAISO, IN, 46385",119932276,"L"
87892,"1754 E FOREST","DES PLAINES","IL",60018,NA,NA,392,"1754 E FOREST, DES PLAINES, IL, 60018","Tie",NA,NA,NA,NA
87893,"1754 EAST 70TH STREET","SHREVEPORT","LA",71105,32.443468873,-93.7158214419999,393,"1754 EAST 70TH STREET, SHREVEPORT, LA, 71105","Match","Exact","1754 E 70TH ST, SHREVEPORT, LA, 71105",57484933,"L"
87894,"1754 FAWN CIRCLE","PACIFIC","MO",63069,38.4569035480001,-90.722051477,394,"1754 FAWN CIRCLE, PACIFIC, MO, 63069","Match","Exact","1754 FAWN CIR, PACIFIC, MO, 63069",636522592,"L"
87895,"1754 HEATHER CIRCLE","INDIANAPOLIS","IN",46229,39.791405249,-85.992396887,395,"1754 HEATHER CIRCLE, INDIANAPOLIS, IN, 46229","Match","Exact","1754 HEATHER CIR, INDIANAPOLIS, IN, 46229",108035111,"R"
87896,"1754 HIGHWAY 162","KAMIAH","ID",83536,46.1314140310001,-116.120529036,396,"1754 HIGHWAY 162, KAMIAH, ID, 83536","Match","Non_Exact","1754 STATE HWY 162, KAMIAH, ID, 83536",638209712,"R"
87897,"1754 KINSAUL WILLOUGHBY ROAD","GREENVILLE","NC",27834,35.6031684210001,-77.484630447,397,"1754 KINSAUL WILLOUGHBY ROAD, GREENVILLE, NC, 27834","Match","Non_Exact","1754 KINSAUL-WILLOUGHBY RD, GREENVILLE, NC, 27834",80009382,"L"
87898,"1754 LORENZEN DR","SAN JOSE","CA",95124,37.276224002,-121.912883935,398,"1754 LORENZEN DR, SAN JOSE, CA, 95124","Match","Exact","1754 LORENZEN DR, SAN JOSE, CA, 95124",122906793,"L"
87899,"1754 SOUTHARD STREET","ERIE","CO",80516,40.018254794,-105.08622351,399,"1754 SOUTHARD STREET, ERIE, CO, 80516","Match","Exact","1754 SOUTHARD ST, ERIE, CO, 80516",188190561,"R"
87900,"1754 TECHNOLOGY DR","SAN JOSE","CA",95110,37.36835861,-121.9193149,400,"1754 TECHNOLOGY DR, SAN JOSE, CA, 95110","Match","Exact","1754 TECHNOLOGY DR, SAN JOSE, CA, 95110",122903044,"R"
87901,"1754 TECHNOLOGY DRIVE SUITE 122","SAN JOSE","CA",95110,37.36835861,-121.9193149,401,"1754 TECHNOLOGY DRIVE SUITE 122, SAN JOSE, CA, 95110","Match","Exact","1754 TECHNOLOGY DR, SAN JOSE, CA, 95110",122903044,"R"
87902,"1754 WEST WOODBINE AVE","KIRKWOOD","MO",63122,38.574450826,-90.436589928,402,"1754 WEST WOODBINE AVE, KIRKWOOD, MO, 63122","Match","Exact","1754 W WOODBINE AVE, KIRKWOOD, MO, 63122",100129080,"L"
87903,"17540 FREELAND","DETROIT","MI",48235,42.4204429850001,-83.1861308969999,403,"17540 FREELAND, DETROIT, MI, 48235","Match","Non_Exact","17540 FREELAND ST, DETROIT, MI, 48235",95719992,"R"
87904,"17540 MADISON AVE APT35","LAKEWOOD","OH",44107,41.477606994,-81.819400461,404,"17540 MADISON AVE APT35, LAKEWOOD, OH, 44107","Match","Exact","17540 MADISON AVE, LAKEWOOD, OH, 44107",61097901,"R"
87905,"17541 KEDZIE AVE UNIT 577","HAZEL CREST","IL",60429,41.569714903,-87.694344311,405,"17541 KEDZIE AVE UNIT 577, HAZEL CREST, IL, 60429","Match","Exact","17541 KEDZIE AVE, HAZEL CREST, IL, 60429",649695241,"L"
87906,"17541 KEDZIE AVENUE","HAZEL CREST","IL",60429,41.569714903,-87.694344311,406,"17541 KEDZIE AVENUE, HAZEL CREST, IL, 60429","Match","Exact","17541 KEDZIE AVE, HAZEL CREST, IL, 60429",649695241,"L"
87907,"17541 PRESCOTT LANE","HUNTINGTON BEACH","CA",92647,33.707336264,-118.020350728,407,"17541 PRESCOTT LANE, HUNTINGTON BEACH, CA, 92647","Match","Exact","17541 PRESCOTT LN, HUNTINGTON BEACH, CA, 92647",144014766,"R"
87908,"17541 SW 153 COURT","MIAMI","FL",33187,25.6035334060001,-80.440974672,408,"17541 SW 153 COURT, MIAMI, FL, 33187","Match","Exact","17541 SW 153RD CT, MIAMI, FL, 33187",648130306,"L"
87909,"17542 SEQUOIA DR","DALLAS","TX",75252,NA,NA,409,"17542 SEQUOIA DR, DALLAS, TX, 75252","No_Match",NA,NA,NA,NA
87910,"17543 BOCA RATON LN","POWAY","CA",92064,33.0302984030001,-117.030725995,410,"17543 BOCA RATON LN, POWAY, CA, 92064","Match","Exact","17543 BOCA RATON LN, POWAY, CA, 92064",195317381,"R"
87911,"17544 NORTHROP","DETROIT","MI",48219,42.4189148350001,-83.2622614479999,411,"17544 NORTHROP, DETROIT, MI, 48219","Match","Non_Exact","17544 NORTHROP ST, DETROIT, MI, 48219",95420816,"R"
87912,"17545 LINCOLNSHIRE ROAD","HAGERSTOWN","MD",21740,39.6180113890001,-77.760628904,412,"17545 LINCOLNSHIRE ROAD, HAGERSTOWN, MD, 21740","Match","Exact","17545 LINCOLNSHIRE RD, HAGERSTOWN, MD, 21740",60795699,"L"
87913,"17545 QUEEN ELIZABETH DIVE","OLNEY","MD",20832,39.143761516,-77.079651617,413,"17545 QUEEN ELIZABETH DIVE, OLNEY, MD, 20832","Match","Non_Exact","17545 QUEEN ELIZABETH DR, OLNEY, MD, 20832",62071475,"R"
87914,"17546 BIRCHCREST DR","DETROIT","MI",48221,42.421256365,-83.1368049499999,414,"17546 BIRCHCREST DR, DETROIT, MI, 48221","Match","Exact","17546 BIRCHCREST DR, DETROIT, MI, 48221",95461034,"R"
87915,"17547 CHATSWORTH ST UNIT ONE HALF","GRANADA HILLS","CA",91344,34.264869907,-118.516405848,415,"17547 CHATSWORTH ST UNIT ONE HALF, GRANADA HILLS, CA, 91344","Match","Exact","17547 CHATSWORTH ST, GRANADA HILLS, CA, 91344",141542316,"R"
87916,"17548 MAGGIE COURT","SPRING HILL","FL",34610,28.4130707080001,-82.5665462869999,416,"17548 MAGGIE COURT, SPRING HILL, FL, 34610","Match","Exact","17548 MAGGIE CT, SPRING HILL, FL, 34610",86372812,"R"
87917,"1755 166TH STREET","WHITESTONE","NY",11357,NA,NA,417,"1755 166TH STREET, WHITESTONE, NY, 11357","No_Match",NA,NA,NA,NA
87918,"1755 19TH STREET","WEST LINN","OR",97068,45.3454587890001,-122.663163691,418,"1755 19TH STREET, WEST LINN, OR, 97068","Match","Exact","1755 19TH ST, WEST LINN, OR, 97068",157948848,"R"
87919,"1755 AMWELL ROAD","SOMERSET","NJ",8873,40.497686564,-74.529158593,419,"1755 AMWELL ROAD, SOMERSET, NJ, 8873","Match","Exact","1755 AMWELL RD, SOMERSET, NJ, 08873",59943435,"R"
87920,"1755 BALLPARK RD","STURGIS","SD",57785,NA,NA,420,"1755 BALLPARK RD, STURGIS, SD, 57785","No_Match",NA,NA,NA,NA
87921,"1755 CANAAN RD","HARTLAND","ME",4943,44.8459354190001,-69.514142579,421,"1755 CANAAN RD, HARTLAND, ME, 4943","Match","Exact","1755 CANAAN RD, HARTLAND, ME, 04943",124154125,"L"
87922,"1755 CRAFT ROAD","OLIVE BRANCH","MS",38654,34.8858260920001,-89.865597861,422,"1755 CRAFT ROAD, OLIVE BRANCH, MS, 38654","Match","Exact","1755 CRAFT RD, OLIVE BRANCH, MS, 38654",91844486,"L"
87923,"1755 CRESCENT PLAZA DR APT 2095","HOUSTON","TX",77077,NA,NA,423,"1755 CRESCENT PLAZA DR APT 2095, HOUSTON, TX, 77077","No_Match",NA,NA,NA,NA
87924,"1755 DELHI ST","DUBUQUE","IA",52001,42.497291471,-90.6888637879999,424,"1755 DELHI ST, DUBUQUE, IA, 52001","Match","Exact","1755 DELHI ST, DUBUQUE, IA, 52001",16907854,"R"
87925,"1755 EAST GARY RD","LAKELAND","FL",33801,28.0491174100001,-81.9286056889999,425,"1755 EAST GARY RD, LAKELAND, FL, 33801","Match","Exact","1755 E GARY RD, LAKELAND, FL, 33801",648135671,"R"
87926,"1755 EDGEWOOD AVE WEST","JACKSONVILLE","FL",32208,30.386799119,-81.686379953,426,"1755 EDGEWOOD AVE WEST, JACKSONVILLE, FL, 32208","Match","Exact","1755 EDGEWOOD AVE W, JACKSONVILLE, FL, 32208",83892482,"R"
87927,"1755 EL PASEO","LAS CRUCES","NM",88001,32.2906530560001,-106.764378635,427,"1755 EL PASEO, LAS CRUCES, NM, 88001","Match","Non_Exact","1755 EL PASEO RD, LAS CRUCES, NM, 88001",612729033,"R"
87928,"1755 GLENMOUNT AVE","AKRON","OH",44301,41.033787213,-81.515143285,428,"1755 GLENMOUNT AVE, AKRON, OH, 44301","Match","Exact","1755 GLENMOUNT AVE, AKRON, OH, 44301",61345529,"L"
87929,"1755 GROVEWAY DR","GERMANTOWN","TN",38139,35.10120821,-89.75189869,429,"1755 GROVEWAY DR, GERMANTOWN, TN, 38139","Match","Exact","1755 GROVEWAY DR, GERMANTOWN, TN, 38139",607441763,"L"
87930,"1755 HAMSTEAD CIR","REDLANDS","CA",92374,34.0580766350001,-117.142091178,430,"1755 HAMSTEAD CIR, REDLANDS, CA, 92374","Match","Exact","1755 HAMSTEAD CIR, REDLANDS, CA, 92374",144691435,"L"
87931,"1755 HANSON STREET","FORT MYERS","FL",32901,26.622429416,-81.876879989,431,"1755 HANSON STREET, FORT MYERS, FL, 32901","Match","Non_Exact","1755 HANSON ST, FORT MYERS, FL, 33901",118038419,"L"
87932,"1755 HUNTINGTON DRIVE","DUARTE","CA",91010,NA,NA,432,"1755 HUNTINGTON DRIVE, DUARTE, CA, 91010","No_Match",NA,NA,NA,NA
87933,"1755 IVY STREET - NUMBER 214","JUNCTION CITY","OR",97448,44.2290937710001,-123.20508101,433,"1755 IVY STREET - NUMBER 214, JUNCTION CITY, OR, 97448","Match","Exact","1755 IVY ST, JUNCTION CITY, OR, 97448",178161762,"L"
87934,"1755 JUNIPER ST","JUNCTION CITY","OR",97448,44.2290632730001,-123.206311795,434,"1755 JUNIPER ST, JUNCTION CITY, OR, 97448","Match","Exact","1755 JUNIPER ST, JUNCTION CITY, OR, 97448",178161741,"L"
87935,"1755 LAKE COOK ROAD APT 319","HIGHLAND PARK","IL",60035,42.1525224690001,-87.807367404,435,"1755 LAKE COOK ROAD APT 319, HIGHLAND PARK, IL, 60035","Match","Exact","1755 LAKE COOK RD, HIGHLAND PARK, IL, 60035",605287423,"R"
87936,"1755 LOOKOUT DRIVE","AGOURA","CA",91301,34.102092977,-118.756095524,436,"1755 LOOKOUT DRIVE, AGOURA, CA, 91301","Match","Exact","1755 LOOKOUT DR, AGOURA, CA, 91301",142786378,"L"
87937,"1755 MICHIGAN AVENUE","SALT LAKE CITY","UT",84108,40.7477572830001,-111.840578617,437,"1755 MICHIGAN AVENUE, SALT LAKE CITY, UT, 84108","Match","Exact","1755 MICHIGAN AVE, SALT LAKE CITY, UT, 84108",176081486,"L"
87938,"1755 N  750 W","HARRISVILLE","UT",84404,41.2904469490001,-111.996381693,438,"1755 N  750 W, HARRISVILLE, UT, 84404","Match","Exact","1755 N 750 W, HARRISVILLE, UT, 84404",605800475,"L"
87939,"1755 N BROWN RD STE 110","LAWRENCEVILLE","GA",30043,33.9865835420001,-84.0795713489999,439,"1755 N BROWN RD STE 110, LAWRENCEVILLE, GA, 30043","Match","Non_Exact","1755 N BROWN RD, LAWRENCEVILLE, GA, 30043",88933596,"L"
87940,"1755 N GATEWAY BOULEVARD SUITE 101","FRESNO","CA",93727,36.7663762620001,-119.726842649,440,"1755 N GATEWAY BOULEVARD SUITE 101, FRESNO, CA, 93727","Match","Non_Exact","1755 N GATEWAY BLVD, FRESNO, CA, 93727",197578419,"L"
87941,"1755 N13TH ST UPS STORE PMB155","PHILADELPHIA","PA",19122,NA,NA,441,"1755 N13TH ST UPS STORE PMB155, PHILADELPHIA, PA, 19122","No_Match",NA,NA,NA,NA
87942,"1755 NORTH 13TH STREET ROOM 349M","PHILADELPHIA","PA",19121,39.9792215960001,-75.155532496,442,"1755 NORTH 13TH STREET ROOM 349M, PHILADELPHIA, PA, 19121","Match","Non_Exact","1755 N 13TH ST, PHILADELPHIA, PA, 19122",131421662,"R"
87943,"1755 NORTH 400 EAST SUITE 201","NORTH LOGAN","UT",84341,41.764038171,-111.82362293,443,"1755 NORTH 400 EAST SUITE 201, NORTH LOGAN, UT, 84341","Match","Exact","1755 N 400 E, NORTH LOGAN, UT, 84341",640993973,"L"
87944,"1755 NORTH BROWN RD STE 200","LAWRENCEVILLE","GA",30043,33.9865872500001,-84.079569778,444,"1755 NORTH BROWN RD STE 200, LAWRENCEVILLE, GA, 30043","Match","Exact","1755 N BROWN RD, LAWRENCEVILLE, GA, 30043",88933596,"L"
87945,"1755 OCEAN PKWY UNIT B12","BROOKLYN","NY",11223,40.6058783710001,-73.9667176579999,445,"1755 OCEAN PKWY UNIT B12, BROOKLYN, NY, 11223","Match","Exact","1755 OCEAN PKWY, BROOKLYN, NY, 11223",640848431,"L"
87946,"1755 OCEAN STREET","OCEANO","CA",93445,35.1001567440001,-120.611962671,446,"1755 OCEAN STREET, OCEANO, CA, 93445","Match","Exact","1755 OCEAN ST, OCEANO, CA, 93445",109786996,"R"
87947,"1755 PALO DURO TRAIL","GRAPEVINE","TX",76051,32.9568004490001,-97.10063687,447,"1755 PALO DURO TRAIL, GRAPEVINE, TX, 76051","Match","Exact","1755 PALO DURO TRL, GRAPEVINE, TX, 76051",101867972,"R"
87948,"1755 PARK STREET SUITE 200 NO 1018","NAPERVILLE","IL",60563,41.8024586000001,-88.148864685,448,"1755 PARK STREET SUITE 200 NO 1018, NAPERVILLE, IL, 60563","Match","Exact","1755 PARK ST, NAPERVILLE, IL, 60563",112528413,"L"
87949,"1755 PELICAN WAY","VERO BEACH","FL",32963,27.6037830330001,-80.338549324,449,"1755 PELICAN WAY, VERO BEACH, FL, 32963","Match","Exact","1755 PELICAN WAY, VERO BEACH, FL, 32963",617787125,"R"
87950,"1755 QUIVER POINT AVENUE","HENDERSON","NV",89012,36.021286595,-115.057973879,450,"1755 QUIVER POINT AVENUE, HENDERSON, NV, 89012","Match","Exact","1755 QUIVER POINT AVE, HENDERSON, NV, 89012",201955505,"R"
87951,"1755 S COLLEGE AVE","COLLEGE PLACE","WA",99324,46.0308528100001,-118.388715243,451,"1755 S COLLEGE AVE, COLLEGE PLACE, WA, 99324","Match","Exact","1755 S COLLEGE AVE, COLLEGE PLACE, WA, 99324",648454464,"R"
87952,"1755 S COLLEGE AVENUE","COLLEGE PLACE","WA",99324,46.0308528100001,-118.388715243,452,"1755 S COLLEGE AVENUE, COLLEGE PLACE, WA, 99324","Match","Exact","1755 S COLLEGE AVE, COLLEGE PLACE, WA, 99324",648454464,"R"
87953,"1755 S JAMES MADISON HWY","ORANGE","VA",22960,38.3047574980001,-78.133217348,453,"1755 S JAMES MADISON HWY, ORANGE, VA, 22960","Match","Exact","1755 S JAMES MADISON HWY, ORANGE, VA, 22960",29588073,"L"
87954,"1755 S KINGS AVE","BRANDON","FL",33511,27.9169633560001,-82.293952813,454,"1755 S KINGS AVE, BRANDON, FL, 33511","Match","Exact","1755 S KINGS AVE, BRANDON, FL, 33511",104596743,"L"
87955,"1755 TELSAR DR SUITE 300","COLORADO SPRINGS","CO",80920,NA,NA,455,"1755 TELSAR DR SUITE 300, COLORADO SPRINGS, CO, 80920","No_Match",NA,NA,NA,NA
87956,"1755 THE EXCHANGE SUITE 190","ATLANTA","GA",30339,NA,NA,456,"1755 THE EXCHANGE SUITE 190, ATLANTA, GA, 30339","No_Match",NA,NA,NA,NA
87957,"1755 TRINITY AVENUE   SUITE 63","WALNUT CREEK","CA",94596,37.9013409070001,-122.06555595,457,"1755 TRINITY AVENUE   SUITE 63, WALNUT CREEK, CA, 94596","Match","Exact","1755 TRINITY AVE, WALNUT CREEK, CA, 94596",637122023,"L"
87958,"1755 US HWY 68","MAYSVILLE","KY",41056,NA,NA,458,"1755 US HWY 68, MAYSVILLE, KY, 41056","No_Match",NA,NA,NA,NA
87959,"1755 VENICE LN  APT 2W","NORTH MIAMI","FL",33181,25.898982113,-80.163719484,459,"1755 VENICE LN  APT 2W, NORTH MIAMI, FL, 33181","Match","Exact","1755 VENICE LN, NORTH MIAMI, FL, 33181",116037576,"L"
87960,"1755 WATSON AVENUE","BRONX","NY",10472,40.827599331,-73.8669871449999,460,"1755 WATSON AVENUE, BRONX, NY, 10472","Match","Exact","1755 WATSON AVE, BRONX, NY, 10472",80308994,"L"
87961,"1755 WAYAH DRIVE","CHARLESTON","SC",29414,32.8172082130001,-80.054908046,461,"1755 WAYAH DRIVE, CHARLESTON, SC, 29414","Match","Exact","1755 WAYAH DR, CHARLESTON, SC, 29414",635661211,"L"
87962,"1755 WEST BOSQUE LOOP","BOSQUE FARMS","NM",87068,34.8492687140001,-106.706019269,462,"1755 WEST BOSQUE LOOP, BOSQUE FARMS, NM, 87068","Match","Exact","1755 W BOSQUE LOOP, BOSQUE FARMS, NM, 87068",627578247,"L"
87963,"1755 WOODLAND AVE","KANSAS CITY","MO",64108,39.0916739400001,-94.560993947,463,"1755 WOODLAND AVE, KANSAS CITY, MO, 64108","Match","Exact","1755 WOODLAND AVE, KANSAS CITY, MO, 64108",91449053,"L"
87964,"1755 WTLO ROAD","SOMERSET","KY",42503,37.0635850530001,-84.6553536389999,464,"1755 WTLO ROAD, SOMERSET, KY, 42503","Match","Exact","1755 WTLO RD, SOMERSET, KY, 42503",652442541,"R"
87965,"17550 N PERIMETER DR STE 130","SCOTTSDALE","AZ",85255,33.645625308,-111.898158755,465,"17550 N PERIMETER DR STE 130, SCOTTSDALE, AZ, 85255","Match","Non_Exact","17550 N PERIMETER DR, SCOTTSDALE, AZ, 85255",128584510,"L"
87966,"17551 SUNNYBROOK AVENUE","LATHRUP VILLAGE","MI",48076,42.4890021260001,-83.219240601,466,"17551 SUNNYBROOK AVENUE, LATHRUP VILLAGE, MI, 48076","Match","Exact","17551 SUNNYBROOK AVE, LATHRUP VILLAGE, MI, 48076",69739732,"L"
87967,"17552 MULBERRY AVE","TINLEY PARK","IL",60487,41.5710905,-87.83535532,467,"17552 MULBERRY AVE, TINLEY PARK, IL, 60487","Match","Exact","17552 MULBERRY AVE, TINLEY PARK, IL, 60487",112215993,"R"
87968,"17552 ROSA DREW LN APT 16C","IRVINE","CA",92612,33.659870751,-117.805453132,468,"17552 ROSA DREW LN APT 16C, IRVINE, CA, 92612","Match","Exact","17552 ROSA DREW LN, IRVINE, CA, 92612",144395726,"L"
87969,"17553 DEER ISLE CIRCLE","WINTER GARDEN","FL",34787,28.537915711,-81.645340667,469,"17553 DEER ISLE CIRCLE, WINTER GARDEN, FL, 34787","Match","Exact","17553 DEER ISLE CIR, WINTER GARDEN, FL, 34787",94330450,"R"
87970,"17553 VENTURA BLVD","ENCINO","CA",91316,34.161689949,-118.515463596,470,"17553 VENTURA BLVD, ENCINO, CA, 91316","Match","Exact","17553 VENTURA BLVD, ENCINO, CA, 91316",141555993,"R"
87971,"17555 ATLANTIC BLVD APT 503","SUNNY ISLES BEACH","FL",33160,25.9388410230001,-80.1226528509999,471,"17555 ATLANTIC BLVD APT 503, SUNNY ISLES BEACH, FL, 33160","Match","Exact","17555 ATLANTIC BLVD, SUNNY ISLES BEACH, FL, 33160",610512598,"R"
87972,"17555 GILBERT DRIVE","LOCKPORT","IL",60441,41.5674001400001,-88.0132242129999,472,"17555 GILBERT DRIVE, LOCKPORT, IL, 60441","Match","Exact","17555 GILBERT DR, LOCKPORT, IL, 60441",111625608,"R"
87973,"17555 TUOLUMNE ROAD","TUOLUMNE","CA",95379,37.9625710220001,-120.26341074,473,"17555 TUOLUMNE ROAD, TUOLUMNE, CA, 95379","Match","Exact","17555 TUOLUMNE RD, TUOLUMNE, CA, 95379",101421903,"R"
87974,"17555 VENTURA BLVD STE 204","ENCINO","CA",91316,34.1616958130001,-118.515504218,474,"17555 VENTURA BLVD STE 204, ENCINO, CA, 91316","Match","Exact","17555 VENTURA BLVD, ENCINO, CA, 91316",141555993,"R"
87975,"17556 AIKEN RD","LOUISVILLE","KY",40245,38.2720533560001,-85.447135552,475,"17556 AIKEN RD, LOUISVILLE, KY, 40245","Match","Exact","17556 AIKEN RD, LOUISVILLE, KY, 40245",96867745,"R"
87976,"17559 CHATSWORTH ST","GRANADA HILLS","CA",91344,34.2648715610001,-118.516630364,476,"17559 CHATSWORTH ST, GRANADA HILLS, CA, 91344","Match","Exact","17559 CHATSWORTH ST, GRANADA HILLS, CA, 91344",141542316,"R"
87977,"17559 PARK STREET","MELVINDALE","MI",48122,42.2839062740001,-83.175613943,477,"17559 PARK STREET, MELVINDALE, MI, 48122","Match","Exact","17559 PARK ST, MELVINDALE, MI, 48122",95448992,"R"
87978,"1756 BRIDGEWATER DRIVE","ORLAND","FL",32746,28.7649560570001,-81.394691057,478,"1756 BRIDGEWATER DRIVE, ORLAND, FL, 32746","Match","Non_Exact","1756 BRIDGEWATER DR, LAKE MARY, FL, 32746",93775626,"L"
87979,"1756 IBIS LANE","WESTON","FL",33327,26.126818229,-80.416376546,479,"1756 IBIS LANE, WESTON, FL, 33327","Match","Exact","1756 IBIS LN, WESTON, FL, 33327",114803071,"R"
87980,"1756 MEADOWLAWN DRIVE","COLUMBUS","OH",43219,40.007187248,-82.936445303,480,"1756 MEADOWLAWN DRIVE, COLUMBUS, OH, 43219","Match","Exact","1756 MEADOWLAWN DR, COLUMBUS, OH, 43219",218574887,"R"
87981,"1756 MORNING VIEW ROAD","BRUSSELS","WI",54204,44.753006794,-87.572548091,481,"1756 MORNING VIEW ROAD, BRUSSELS, WI, 54204","Match","Exact","1756 MORNING VIEW RD, BRUSSELS, WI, 54204",625194497,"R"
87982,"1756 N 8150 W","MENDON","UT",84325,41.763527278,-112.031563217,482,"1756 N 8150 W, MENDON, UT, 84325","Match","Exact","1756 N 8150 W, MENDON, UT, 84325",645996523,"R"
87983,"1756 N BAYSHORE DR 11D","MIAMI","FL",33132,25.792771854,-80.186502388,483,"1756 N BAYSHORE DR 11D, MIAMI, FL, 33132","Match","Non_Exact","1756 N BAYSHORE DR, MIAMI, FL, 33132",611810635,"L"
87984,"1756 N BAYSHORE DRIVE APT24O","MIAMI","FL",33132,25.792771854,-80.186502388,484,"1756 N BAYSHORE DRIVE APT24O, MIAMI, FL, 33132","Match","Non_Exact","1756 N BAYSHORE DR, MIAMI, FL, 33132",611810635,"L"
87985,"1756 NORTH BAYSHORE DR APT 33 O","MIAMI","FL",33132,25.7927470010001,-80.1865076669999,485,"1756 NORTH BAYSHORE DR APT 33 O, MIAMI, FL, 33132","Match","Exact","1756 N BAYSHORE DR, MIAMI, FL, 33132",611810635,"L"
87986,"1756 NORTH BAYSHORE DRIVE UNIT 38L","MIAMI","FL",33132,25.7927470010001,-80.1865076669999,486,"1756 NORTH BAYSHORE DRIVE UNIT 38L, MIAMI, FL, 33132","Match","Exact","1756 N BAYSHORE DR, MIAMI, FL, 33132",611810635,"L"
87987,"1756 PICASSO AVE SUITE B","DAVIS","CA",95616,NA,NA,487,"1756 PICASSO AVE SUITE B, DAVIS, CA, 95616","No_Match",NA,NA,NA,NA
87988,"1756 PUTNAM DRIVE","OAK HARBOR","WA",98277,48.29649213,-122.679453815,488,"1756 PUTNAM DRIVE, OAK HARBOR, WA, 98277","Match","Non_Exact","1756 SW PUTNAM DR, OAK HARBOR, WA, 98277",187616940,"R"
87989,"1756 S 65TH STREET","PHILADELPHIA","PA",19142,39.9291455540001,-75.241573076,489,"1756 S 65TH STREET, PHILADELPHIA, PA, 19142","Match","Exact","1756 S 65TH ST, PHILADELPHIA, PA, 19142",131408378,"R"
87990,"1756 SIGNATURE CT","HAMPTON","GA",30228,33.448756437,-84.255445079,490,"1756 SIGNATURE CT, HAMPTON, GA, 30228","Match","Exact","1756 SIGNATURE CT, HAMPTON, GA, 30228",619916763,"L"
87991,"1756 SOUTH COURT STREET","MONTGOMERY","AL",36104,32.3561092630001,-86.3085019649999,491,"1756 SOUTH COURT STREET, MONTGOMERY, AL, 36104","Match","Exact","1756 S COURT ST, MONTGOMERY, AL, 36104",1474999,"R"
87992,"1756 STEAM ENGINE SE","KENTWOOD","MI",49508,42.8768785330001,-85.621720196,492,"1756 STEAM ENGINE SE, KENTWOOD, MI, 49508","Match","Exact","1756 STEAM ENGINE SE, KENTWOOD, MI, 49508",12497416,"L"
87993,"1756 STITH VALLEY RD","GUSTON","KY",40142,37.8633154250001,-86.135642078,493,"1756 STITH VALLEY RD, GUSTON, KY, 40142","Match","Exact","1756 STITH VALLEY RD, GUSTON, KY, 40142",8169792,"L"
87994,"1756 TAMARIND AVENUE SUITE 309","HOLLYWOOD","CA",90028,34.1033620600001,-118.319451574,494,"1756 TAMARIND AVENUE SUITE 309, HOLLYWOOD, CA, 90028","Match","Exact","1756 TAMARIND AVE, HOLLYWOOD, CA, 90028",141597085,"R"
87995,"1756 W 89TH STREET","CHICAGO","IL",60620,41.7320666730001,-87.667359999,495,"1756 W 89TH STREET, CHICAGO, IL, 60620","Match","Exact","1756 W 89TH ST, CHICAGO, IL, 60620",604995113,"R"
87996,"1756 W LOS ARBOLES CT","CHANDLER","AZ",85224,33.3357135590001,-111.87295943,496,"1756 W LOS ARBOLES CT, CHANDLER, AZ, 85224","Match","Exact","1756 W LOS ARBOLES CT, CHANDLER, AZ, 85224",128791680,"R"
87997,"1756 YELLOWSTONE CIRCLE","DICKINSON","ND",58601,46.9031471170001,-102.752121064,497,"1756 YELLOWSTONE CIRCLE, DICKINSON, ND, 58601","Match","Non_Exact","1756 YELLOW STONE CIR, DICKINSON, ND, 58601",640732892,"L"
87998,"17560 NW 27TH AVE SUITE 107","MIAMI GARDENS","FL",33056,25.9342773930001,-80.244985345,498,"17560 NW 27TH AVE SUITE 107, MIAMI GARDENS, FL, 33056","Match","Non_Exact","17560 NW 27TH AVE, MIAMI GARDENS, FL, 33056",116027821,"L"
87999,"17560 NW 27TH AVENUE SUITE 118","MIAMI GARDENS","FL",33056,25.9342773930001,-80.244985345,499,"17560 NW 27TH AVENUE SUITE 118, MIAMI GARDENS, FL, 33056","Match","Non_Exact","17560 NW 27TH AVE, MIAMI GARDENS, FL, 33056",116027821,"L"
88000,"17560 US HWY 59 N","MOSCOW","TX",75960,30.932796743,-94.825143208,500,"17560 US HWY 59 N, MOSCOW, TX, 75960","Match","Exact","17560 US HWY 59 N, MOSCOW, TX, 75960",607470833,"R"
