"ID","Address","City","State","Zip","lat","long","id","input_address","match_indicator","match_type","matched_address","tiger_line_id","tiger_side"
171001,"3201 LINEAGE LOOP UNIT A","KILLEEN","TX",76549,31.079420128,-97.7864599229999,1,"3201 LINEAGE LOOP UNIT A, KILLEEN, TX, 76549","Match","Exact","3201 LINEAGE LOOP, KILLEEN, TX, 76549",648775589,"L"
171002,"3201 LONDON CT","MIDDLETOWN","NJ",7748,NA,NA,2,"3201 LONDON CT, MIDDLETOWN, NJ, 7748","No_Match",NA,NA,NA,NA
171003,"3201 LONG BEACH BLVD","LONG BEACH","CA",90807,33.8153459490001,-118.189290242,3,"3201 LONG BEACH BLVD, LONG BEACH, CA, 90807","Match","Non_Exact","3201 N LONG BEACH BLVD, LONG BEACH, CA, 90807",141686668,"L"
171004,"3201 MACKINAC ISLAND LANE","RALEIGH","NC",27610,35.737618937,-78.533464124,4,"3201 MACKINAC ISLAND LANE, RALEIGH, NC, 27610","Match","Exact","3201 MACKINAC ISLAND LN, RALEIGH, NC, 27610",619836058,"R"
171005,"3201 MACON RD STE 139 PMB 144","COLUMBUS","GA",31906,32.4803092230001,-84.943420864,5,"3201 MACON RD STE 139 PMB 144, COLUMBUS, GA, 31906","Match","Exact","3201 MACON RD, COLUMBUS, GA, 31906",98953447,"L"
171006,"3201 MACON RD STE 139","COLUMBUS","GA",31906,32.4803092230001,-84.943420864,6,"3201 MACON RD STE 139, COLUMBUS, GA, 31906","Match","Exact","3201 MACON RD, COLUMBUS, GA, 31906",98953447,"L"
171007,"3201 MARATHON DRIVE","SAN DIEGO","CA",92123,32.8015482010001,-117.127038381,7,"3201 MARATHON DRIVE, SAN DIEGO, CA, 92123","Match","Exact","3201 MARATHON DR, SAN DIEGO, CA, 92123",642901128,"R"
171008,"3201 MARIAN DR","TRENTON","MI",48183,42.133831839,-83.205879613,8,"3201 MARIAN DR, TRENTON, MI, 48183","Match","Non_Exact","3201 MARION DR, TRENTON, MI, 48183",95457664,"L"
171009,"3201 NE 183RD ST","AVENTURA","FL",33160,25.945024027,-80.138778875,9,"3201 NE 183RD ST, AVENTURA, FL, 33160","Match","Exact","3201 NE 183RD ST, AVENTURA, FL, 33160",116292093,"L"
171010,"3201 NE 183RD STREET APT 1502","AVENTURA","FL",33160,25.945024027,-80.138778875,10,"3201 NE 183RD STREET APT 1502, AVENTURA, FL, 33160","Match","Non_Exact","3201 NE 183RD ST, AVENTURA, FL, 33160",116292093,"L"
171011,"3201 NOBLE STREET","BALTIMORE","MD",21224,39.292940253,-76.572316456,11,"3201 NOBLE STREET, BALTIMORE, MD, 21224","Match","Exact","3201 NOBLE ST, BALTIMORE, MD, 21224",206425234,"R"
171012,"3201 NORTH ORANGE AVENUE","SARASOTA","FL",34234,27.3658045650001,-82.538109644,12,"3201 NORTH ORANGE AVENUE, SARASOTA, FL, 34234","Match","Exact","3201 N ORANGE AVE, SARASOTA, FL, 34234",16346794,"L"
171013,"3201 NW 36TH ST UNIT 128","FT LAUDERDALE","FL",33308,26.172615992,-80.102650716,13,"3201 NW 36TH ST UNIT 128, FT LAUDERDALE, FL, 33308","Match","Non_Exact","3201 NE 36TH ST, FORT LAUDERDALE, FL, 33308",639262961,"L"
171014,"3201 NW 4 STREET","FORT LAUDERDALE","FL",33312,NA,NA,14,"3201 NW 4 STREET, FORT LAUDERDALE, FL, 33312","No_Match",NA,NA,NA,NA
171015,"3201 OAK AVE","BROOKFIELD","IL",60513,41.8329846670001,-87.848055932,15,"3201 OAK AVE, BROOKFIELD, IL, 60513","Match","Exact","3201 OAK AVE, BROOKFIELD, IL, 60513",111791617,"L"
171016,"3201 ORANGE AVENUE","SARASOTA","FL",34234,27.3658045650001,-82.538109644,16,"3201 ORANGE AVENUE, SARASOTA, FL, 34234","Match","Non_Exact","3201 N ORANGE AVE, SARASOTA, FL, 34234",16346794,"L"
171017,"3201 ORIENT FISHTAIL ROAD","LAUREL","MD",20724,39.1081701150001,-76.797856791,17,"3201 ORIENT FISHTAIL ROAD, LAUREL, MD, 20724","Match","Exact","3201 ORIENT FISHTAIL RD, LAUREL, MD, 20724",68198938,"R"
171018,"3201 RED MARBLE RD","VALLEY","WA",99109,48.2150484060001,-117.838932239,18,"3201 RED MARBLE RD, VALLEY, WA, 99109","Match","Non_Exact","3201 RED MARBLE RD, CHEWELAH, WA, 99109",639695618,"R"
171019,"3201 S AUSTIN AVE STE 320","GEORGETOWN","TX",78626,30.613589274,-97.68282583,19,"3201 S AUSTIN AVE STE 320, GEORGETOWN, TX, 78626","Match","Non_Exact","3201 S AUSTIN AVE, GEORGETOWN, TX, 78626",126487901,"R"
171020,"3201 S NEW ROAD RD POBOX20732","WACO","TX",76702,NA,NA,20,"3201 S NEW ROAD RD POBOX20732, WACO, TX, 76702","No_Match",NA,NA,NA,NA
171021,"3201 SANDERSON LANE","TEXARKANA","AR",71854,33.4529663120001,-94.011980514,21,"3201 SANDERSON LANE, TEXARKANA, AR, 71854","Match","Exact","3201 SANDERSON LN, TEXARKANA, AR, 71854",57275622,"L"
171022,"3201 SOUTH 192TH ST UNIT E105","SEATTAC","WA",98188,NA,NA,22,"3201 SOUTH 192TH ST UNIT E105, SEATTAC, WA, 98188","No_Match",NA,NA,NA,NA
171023,"3201 SOUTH POPLAR","PINE BLUFF","AR",71603,34.1969478950001,-92.012403164,23,"3201 SOUTH POPLAR, PINE BLUFF, AR, 71603","Match","Non_Exact","3201 S POPLAR ST, PINE BLUFF, AR, 71603",2553936,"L"
171024,"3201 STELLHORN RD","FORT WAYNE","IN",46815,NA,NA,24,"3201 STELLHORN RD, FORT WAYNE, IN, 46815","No_Match",NA,NA,NA,NA
171025,"3201 SUSAN AVENUE","MARINA","CA",93933,36.690125982,-121.795927505,25,"3201 SUSAN AVENUE, MARINA, CA, 93933","Match","Exact","3201 SUSAN AVE, MARINA, CA, 93933",196844978,"L"
171026,"3201 SYLVAN AVENUE","MODESTO","CA",95355,37.6889952510001,-120.935072419,26,"3201 SYLVAN AVENUE, MODESTO, CA, 95355","Match","Exact","3201 SYLVAN AVE, MODESTO, CA, 95355",614136647,"L"
171027,"3201 TOBAGO ROAD","FORT WORTH","TX",76123,32.6085047500001,-97.3691371049999,27,"3201 TOBAGO ROAD, FORT WORTH, TX, 76123","Match","Exact","3201 TOBAGO RD, FORT WORTH, TX, 76123",619864741,"L"
171028,"3201 TWIN CREEKS CLUB DRIVE","CEDAR PARK","TX",78613,30.462270038,-97.856155169,28,"3201 TWIN CREEKS CLUB DRIVE, CEDAR PARK, TX, 78613","Match","Exact","3201 TWIN CREEKS CLUB DR, CEDAR PARK, TX, 78613",618355808,"L"
171029,"3201 W AUBURN HILLS CIR","SIOUX FALLS","SD",57108,43.4783100540001,-96.764244064,29,"3201 W AUBURN HILLS CIR, SIOUX FALLS, SD, 57108","Match","Exact","3201 W AUBURN HILLS CIR, SIOUX FALLS, SD, 57108",176331546,"L"
171030,"3201 WEST LOOP APT 216","LUBBOCK","TX",79407,NA,NA,30,"3201 WEST LOOP APT 216, LUBBOCK, TX, 79407","No_Match",NA,NA,NA,NA
171031,"3201 WOODLAND TRACE EAST","SOUTHAVEN","MS",38672,34.9074712010001,-89.985197988,31,"3201 WOODLAND TRACE EAST, SOUTHAVEN, MS, 38672","Match","Exact","3201 WOODLAND TRCE E, SOUTHAVEN, MS, 38672",91842559,"L"
171032,"3201","PHENIX CITY","AL",36867,NA,NA,32,"3201, PHENIX CITY, AL, 36867","No_Match",NA,NA,NA,NA
171033,"3201","ST BERNARD","LA",70085,NA,NA,33,"3201, ST BERNARD, LA, 70085","No_Match",NA,NA,NA,NA
171034,"32010 E 161ST STREET","PLEASANT HILL","MO",64080,38.8246092090001,-94.216888486,34,"32010 E 161ST STREET, PLEASANT HILL, MO, 64080","Match","Exact","32010 E 161ST ST, PLEASANT HILL, MO, 64080",100939830,"R"
171035,"32014 WEST 111TH STREET","OLATHE","KS",66061,38.9274510650001,-94.956813362,35,"32014 WEST 111TH STREET, OLATHE, KS, 66061","Match","Exact","32014 W 111TH ST, OLATHE, KS, 66061",91355089,"R"
171036,"32018 52ND AVE S","AUBURN","WA",98001,47.3148902,-122.27025471,36,"32018 52ND AVE S, AUBURN, WA, 98001","Match","Exact","32018 52ND AVE S, AUBURN, WA, 98001",186959148,"L"
171037,"3202 BLANCHARD RD","SHREVEPORT","LA",71103,32.5073582840001,-93.79099404,37,"3202 BLANCHARD RD, SHREVEPORT, LA, 71103","Match","Exact","3202 BLANCHARD RD, SHREVEPORT, LA, 71103",57473145,"R"
171038,"3202 COMAL SPRINGS","SAN ANTONIO","TX",78253,29.465947858,-98.742834177,38,"3202 COMAL SPRINGS, SAN ANTONIO, TX, 78253","Match","Exact","3202 COMAL SPRINGS, SAN ANTONIO, TX, 78253",645129456,"R"
171039,"3202 CREEKSTONE DR","SUGAR LAND","TX",77479,29.5685820030001,-95.6319654609999,39,"3202 CREEKSTONE DR, SUGAR LAND, TX, 77479","Match","Exact","3202 CREEKSTONE DR, SUGAR LAND, TX, 77479",78288425,"R"
171040,"3202 DELAFORD DRIVE","CARROLLTON","TX",75007,33.0071254590001,-96.894371848,40,"3202 DELAFORD DRIVE, CARROLLTON, TX, 75007","Match","Exact","3202 DELAFORD DR, CARROLLTON, TX, 75007",103352017,"L"
171041,"3202 E POINT ST","ATLANTA","GA",30344,33.668410656,-84.445779311,41,"3202 E POINT ST, ATLANTA, GA, 30344","Match","Exact","3202 E POINT ST, ATLANTA, GA, 30344",17348001,"L"
171042,"3202 EAST PELICAN DRIVE","OAK ISLAND","NC",28465,33.914886473,-78.137532203,42,"3202 EAST PELICAN DRIVE, OAK ISLAND, NC, 28465","Match","Exact","3202 E PELICAN DR, OAK ISLAND, NC, 28465",153141014,"R"
171043,"3202 EAST WAVERLY STREET","TUCSON","AZ",85716,32.2459693650001,-110.924470617,43,"3202 EAST WAVERLY STREET, TUCSON, AZ, 85716","Match","Exact","3202 E WAVERLY ST, TUCSON, AZ, 85716",121174837,"R"
171044,"3202 FARROW AVE","KANSAS CITY","KS",66104,39.1445717670001,-94.6650513009999,44,"3202 FARROW AVE, KANSAS CITY, KS, 66104","Match","Exact","3202 FARROW AVE, KANSAS CITY, KS, 66104",91134772,"R"
171045,"3202 KELLYS FERRY RD","CHATTANOOGA","TN",37419,35.0217491660001,-85.368634105,45,"3202 KELLYS FERRY RD, CHATTANOOGA, TN, 37419","Match","Exact","3202 KELLYS FERRY RD, CHATTANOOGA, TN, 37419",59302245,"L"
171046,"3202 KERR HALL CB 7569","CHAPEL HILL","NC",27599,NA,NA,46,"3202 KERR HALL CB 7569, CHAPEL HILL, NC, 27599","No_Match",NA,NA,NA,NA
171047,"3202 MEBANE OAKS ROAD","MEBANE","NC",27302,36.023533292,-79.2574545479999,47,"3202 MEBANE OAKS ROAD, MEBANE, NC, 27302","Match","Exact","3202 MEBANE OAKS RD, MEBANE, NC, 27302",72424797,"R"
171048,"3202 N NEBRASKA AVE","TAMPA","FL",33603,27.9728356460001,-82.451202697,48,"3202 N NEBRASKA AVE, TAMPA, FL, 33603","Match","Exact","3202 N NEBRASKA AVE, TAMPA, FL, 33603",104523079,"L"
171049,"3202 NICOL AVE","OAKLAND","CA",94602,37.7918469430001,-122.212720441,49,"3202 NICOL AVE, OAKLAND, CA, 94602","Match","Exact","3202 NICOL AVE, OAKLAND, CA, 94602",125004070,"L"
171050,"3202 NORTH HOWARD AVENUE","TAMPA","FL",33607,27.9682205710001,-82.48280264,50,"3202 NORTH HOWARD AVENUE, TAMPA, FL, 33607","Match","Exact","3202 N HOWARD AVE, TAMPA, FL, 33607",104521038,"L"
171051,"3202 NORTH SHILOH ROAD","GARLAND","TX",75044,32.947475791,-96.665181101,51,"3202 NORTH SHILOH ROAD, GARLAND, TX, 75044","Match","Exact","3202 N SHILOH RD, GARLAND, TX, 75044",103255993,"L"
171052,"3202 S  MASON AVE APT B 203","TACOMA","WA",98409,NA,NA,52,"3202 S  MASON AVE APT B 203, TACOMA, WA, 98409","No_Match",NA,NA,NA,NA
171053,"3202 STOCKTON PLACE","HOLLAND","PA",18966,40.207567442,-74.947253852,53,"3202 STOCKTON PLACE, HOLLAND, PA, 18966","Match","Exact","3202 STOCKTON PL, HOLLAND, PA, 18966",134710869,"R"
171054,"3202 SUFFOLK COURT SE","CLEVELAND","TN",37323,35.1182527780001,-84.883630698,54,"3202 SUFFOLK COURT SE, CLEVELAND, TN, 37323","Match","Non_Exact","3202 SUFFOLK CT, CLEVELAND, TN, 37323",57582314,"R"
171055,"3202 SW 153RD DR","BEAVERTON","OR",97003,45.4969706790001,-122.833750312,55,"3202 SW 153RD DR, BEAVERTON, OR, 97003","Match","Exact","3202 SW 153RD DR, BEAVERTON, OR, 97003",641902781,"R"
171056,"3202 TRULLEY AVE","HOUSTON","TX",77004,29.7367797200001,-95.3530514349999,56,"3202 TRULLEY AVE, HOUSTON, TX, 77004","Match","Non_Exact","3202 TRULLEY ST, HOUSTON, TX, 77004",96418766,"R"
171057,"3202 UNICORN LAKE BLVD APT 343","DENTON","TX",76210,33.1744282400001,-97.096927754,57,"3202 UNICORN LAKE BLVD APT 343, DENTON, TX, 76210","Match","Exact","3202 UNICORN LAKE BLVD, DENTON, TX, 76210",627997042,"R"
171058,"3202 W ALLENS PEAK DRIVE","QUEEN CREEK","AZ",85142,33.182291573,-111.600376277,58,"3202 W ALLENS PEAK DRIVE, QUEEN CREEK, AZ, 85142","Match","Exact","3202 W ALLENS PEAK DR, QUEEN CREEK, AZ, 85142",627632190,"L"
171059,"3202 W NORTH AVENUE SUITE 200","BALTIMORE","MD",21216,NA,NA,59,"3202 W NORTH AVENUE SUITE 200, BALTIMORE, MD, 21216","No_Match",NA,NA,NA,NA
171060,"3202 YALE ST","FLINT","MI",48503,42.9952853020001,-83.728130724,60,"3202 YALE ST, FLINT, MI, 48503","Match","Exact","3202 YALE ST, FLINT, MI, 48503",69573710,"R"
171061,"32020 NORTH MERIDIAN STREET","INDIANAPOLIS","IN",46208,NA,NA,61,"32020 NORTH MERIDIAN STREET, INDIANAPOLIS, IN, 46208","No_Match",NA,NA,NA,NA
171062,"32023 SE PIPELINE RD","GRESHAM","OR",97080,45.4833070550001,-122.333519117,62,"32023 SE PIPELINE RD, GRESHAM, OR, 97080","Match","Exact","32023 SE PIPELINE RD, GRESHAM, OR, 97080",157547667,"L"
171063,"3203 106TH AVE SE","BELLEVUE","WA",98004,47.581695149,-122.198804734,63,"3203 106TH AVE SE, BELLEVUE, WA, 98004","Match","Exact","3203 106TH AVE SE, BELLEVUE, WA, 98004",186678468,"R"
171064,"3203 26 STREET SW","LEHIGH ACRES","FL",33976,26.58931554,-81.679852752,64,"3203 26 STREET SW, LEHIGH ACRES, FL, 33976","Match","Exact","3203 26TH ST SW, LEHIGH ACRES, FL, 33976",118070088,"R"
171065,"3203 68TH STREET EAST","INVER GROVE HEIGHTS","MN",55076,44.8512272560001,-93.039686181,65,"3203 68TH STREET EAST, INVER GROVE HEIGHTS, MN, 55076","Match","Exact","3203 68TH ST E, INVER GROVE HEIGHTS, MN, 55076",37908505,"L"
171066,"3203 ASHE CREEK DRIVE","LEAGUE CITY","TX",77573,29.502513723,-95.1300136569999,66,"3203 ASHE CREEK DRIVE, LEAGUE CITY, TX, 77573","Match","Exact","3203 ASHE CREEK DR, LEAGUE CITY, TX, 77573",96743962,"L"
171067,"3203 BALDWIN AVE","SARASOTA","FL",34232,27.3051874280001,-82.474617203,67,"3203 BALDWIN AVE, SARASOTA, FL, 34232","Match","Exact","3203 BALDWIN AVE, SARASOTA, FL, 34232",16404394,"L"
171068,"3203 BLUE GRASS CIR","CASTLE ROCK","CO",80109,39.4125156380001,-104.897391348,68,"3203 BLUE GRASS CIR, CASTLE ROCK, CO, 80109","Match","Exact","3203 BLUE GRASS CIR, CASTLE ROCK, CO, 80109",130821426,"L"
171069,"3203 BUFFALO RUN ROAD","BELLEFONTE","PA",16823,40.850595899,-77.898972537,69,"3203 BUFFALO RUN ROAD, BELLEFONTE, PA, 16823","Match","Exact","3203 BUFFALO RUN RD, BELLEFONTE, PA, 16823",640756229,"L"
171070,"3203 BUSINESS HIGHWAY 98","SPRINGFIELD","FL",32408,NA,NA,70,"3203 BUSINESS HIGHWAY 98, SPRINGFIELD, FL, 32408","No_Match",NA,NA,NA,NA
171071,"3203 CHESTERFIELD LANE","STAFFORD","TX",77477,29.6264231260001,-95.588090393,71,"3203 CHESTERFIELD LANE, STAFFORD, TX, 77477","Match","Exact","3203 CHESTERFIELD LN, STAFFORD, TX, 77477",78267822,"L"
171072,"3203 DAVIS ST","OAKLAND","CA",94601,37.7892162840001,-122.218425257,72,"3203 DAVIS ST, OAKLAND, CA, 94601","Match","Exact","3203 DAVIS ST, OAKLAND, CA, 94601",125038072,"R"
171073,"3203 DRY RUN STREET","TIPP CITY","OH",45371,39.8893209440001,-84.108870735,73,"3203 DRY RUN STREET, TIPP CITY, OH, 45371","Match","Exact","3203 DRY RUN ST, TIPP CITY, OH, 45371",648998090,"R"
171074,"3203 EL TORO COVE","AUSTIN","TX",78746,30.321784356,-97.789361222,74,"3203 EL TORO COVE, AUSTIN, TX, 78746","Match","Exact","3203 EL TORO CV, AUSTIN, TX, 78746",63928623,"R"
171075,"3203 GOLD STAR DRIVE","HOUSTON","TX",77082,29.724125057,-95.656863581,75,"3203 GOLD STAR DRIVE, HOUSTON, TX, 77082","Match","Exact","3203 GOLD STAR DR, HOUSTON, TX, 77082",634981088,"L"
171076,"3203 HERING AVENUE","BRONX","NY",10469,40.871398357,-73.8536392999999,76,"3203 HERING AVENUE, BRONX, NY, 10469","Match","Exact","3203 HERING AVE, BRONX, NY, 10469",80303631,"L"
171077,"3203 HOLMES ST","DALLAS","TX",75215,32.758778771,-96.7766433789999,77,"3203 HOLMES ST, DALLAS, TX, 75215","Match","Exact","3203 HOLMES ST, DALLAS, TX, 75215",102950469,"R"
171078,"3203 MEDICINE MAN WAY","LAS VEGAS","NV",89169,36.131376791,-115.125120636,78,"3203 MEDICINE MAN WAY, LAS VEGAS, NV, 89169","Match","Exact","3203 MEDICINE MAN WAY, LAS VEGAS, NV, 89169",201871031,"R"
171079,"3203 MID DALE LANE","LOUISVILLE","KY",40220,38.211876553,-85.634069403,79,"3203 MID DALE LANE, LOUISVILLE, KY, 40220","Match","Exact","3203 MID DALE LN, LOUISVILLE, KY, 40220",96856742,"L"
171080,"3203 N 15TH STREET","SHEBOYGAN","WI",53083,43.7789554730001,-87.724908703,80,"3203 N 15TH STREET, SHEBOYGAN, WI, 53083","Match","Exact","3203 N 15TH ST, SHEBOYGAN, WI, 53083",79495736,"R"
171081,"3203 N 44TH STREET","TAMPA","FL",33605,27.97292435,-82.409235109,81,"3203 N 44TH STREET, TAMPA, FL, 33605","Match","Exact","3203 N 44TH ST, TAMPA, FL, 33605",104534774,"R"
171082,"3203 N CHAMBERS STREET","WICHITA","KS",67205,37.7410050180001,-97.476310564,82,"3203 N CHAMBERS STREET, WICHITA, KS, 67205","Match","Exact","3203 N CHAMBERS ST, WICHITA, KS, 67205",641681253,"L"
171083,"3203 NORTH ELSTON AVENUE","CHICAGO","IL",60618,41.9394961880001,-87.6984589049999,83,"3203 NORTH ELSTON AVENUE, CHICAGO, IL, 60618","Match","Exact","3203 N ELSTON AVE, CHICAGO, IL, 60618",111760680,"R"
171084,"3203 NORTHRIDGE DRIVE","SAN ANTONIO","TX",78209,29.5014338060001,-98.4368562829999,84,"3203 NORTHRIDGE DRIVE, SAN ANTONIO, TX, 78209","Match","Exact","3203 NORTHRIDGE DR, SAN ANTONIO, TX, 78209",101499600,"L"
171085,"3203 OVERHILL DRIVE","FRISCO","TX",75034,33.1722733660001,-96.862112262,85,"3203 OVERHILL DRIVE, FRISCO, TX, 75034","Match","Non_Exact","3203 OVERHILL DR, FRISCO, TX, 75033",624565543,"R"
171086,"3203 PINE VALLEY WAY","E STROUDSBURG","PA",18302,41.0810266280001,-75.0962063809999,86,"3203 PINE VALLEY WAY, E STROUDSBURG, PA, 18302","Match","Exact","3203 PINE VALLEY WAY, E STROUDSBURG, PA, 18302",634166652,"R"
171087,"3203 POMONA BLVD","POMONA","CA",91768,34.0505285080001,-117.805975503,87,"3203 POMONA BLVD, POMONA, CA, 91768","Match","Exact","3203 POMONA BLVD, POMONA, CA, 91768",142244300,"R"
171088,"3203 PRAIRIE AVE","ROYAL OAK","MI",48073,42.512827691,-83.201357722,88,"3203 PRAIRIE AVE, ROYAL OAK, MI, 48073","Match","Exact","3203 PRAIRIE AVE, ROYAL OAK, MI, 48073",69736154,"L"
171089,"3203 S 90TH LN","TOLLESON","AZ",85353,33.417828587,-112.254520809,89,"3203 S 90TH LN, TOLLESON, AZ, 85353","Match","Exact","3203 S 90TH LN, TOLLESON, AZ, 85353",640977373,"R"
171090,"3203 SHORTRIDGE LANE","MITHCELLVILLE","MD",20721,38.934007159,-76.78933091,90,"3203 SHORTRIDGE LANE, MITHCELLVILLE, MD, 20721","Match","Non_Exact","3203 SHORTRIDGE LN, MITCHELLVILLE, MD, 20721",645473271,"R"
171091,"3203 SINGLETARY DR    APT 112","BAKER","LA",70714,30.5995035720001,-91.164284456,91,"3203 SINGLETARY DR    APT 112, BAKER, LA, 70714","Match","Exact","3203 SINGLETARY DR, BAKER, LA, 70714",92197436,"L"
171092,"3203 SNYDER AVENUE","BROOKLYN","NY",11226,40.649052216,-73.947371006,92,"3203 SNYDER AVENUE, BROOKLYN, NY, 11226","Match","Exact","3203 SNYDER AVE, BROOKLYN, NY, 11226",59081517,"L"
171093,"3203 SPRING MESA CT","SNELLVILLE","GA",30039,33.825992587,-84.026879558,93,"3203 SPRING MESA CT, SNELLVILLE, GA, 30039","Match","Non_Exact","3203 SPRING MESA CT SW, SNELLVILLE, GA, 30039",623805715,"L"
171094,"3203 SUNDALE ROAD","COLUMBUS","OH",43232,39.9118082640001,-82.855482923,94,"3203 SUNDALE ROAD, COLUMBUS, OH, 43232","Match","Exact","3203 SUNDALE RD, COLUMBUS, OH, 43232",218643896,"R"
171095,"3203 TIMPSON AVE SE","LOWELL","MI",49331,42.906590464,-85.390830874,95,"3203 TIMPSON AVE SE, LOWELL, MI, 49331","Match","Exact","3203 TIMPSON AVE SE, LOWELL, MI, 49331",12523672,"L"
171096,"3203 TUGGLE DRIVE","CHERRY VALLEY","IL",61016,42.236397036,-88.966080206,96,"3203 TUGGLE DRIVE, CHERRY VALLEY, IL, 61016","Match","Exact","3203 TUGGLE DR, CHERRY VALLEY, IL, 61016",49279435,"R"
171097,"3203 TYSON AVE","PHILADELPHIA","PA",19149,40.0362096540001,-75.0512222309999,97,"3203 TYSON AVE, PHILADELPHIA, PA, 19149","Match","Exact","3203 TYSON AVE, PHILADELPHIA, PA, 19149",131434955,"L"
171098,"3203 WALNUT","CHICAGO","IL",60624,NA,NA,98,"3203 WALNUT, CHICAGO, IL, 60624","No_Match",NA,NA,NA,NA
171099,"3203 WASHINGTON RD SUITE E","KENOSHA","WI",53144,NA,NA,99,"3203 WASHINGTON RD SUITE E, KENOSHA, WI, 53144","No_Match",NA,NA,NA,NA
171100,"3203 WILSON ROAD","LAKE CORMORANT","MS",38641,NA,NA,100,"3203 WILSON ROAD, LAKE CORMORANT, MS, 38641","No_Match",NA,NA,NA,NA
171101,"32030 15TH PL SW","FEDERAL WAY","WA",98023,47.314103393,-122.354851407,101,"32030 15TH PL SW, FEDERAL WAY, WA, 98023","Match","Exact","32030 15TH PL SW, FEDERAL WAY, WA, 98023",186648344,"R"
171102,"32031 LAZY GLEN LANE","TRABUCO CANYON","CA",92679,33.652307824,-117.573292436,102,"32031 LAZY GLEN LANE, TRABUCO CANYON, CA, 92679","Match","Exact","32031 LAZY GLEN LN, TRABUCO CANYON, CA, 92679",144419953,"L"
171103,"32031 SPERLING DR","ST HELENS","OR",97051,45.86986138,-122.909835327,103,"32031 SPERLING DR, ST HELENS, OR, 97051","Match","Exact","32031 SPERLING DR, SAINT HELENS, OR, 97051",158081927,"L"
171104,"32032 28 MILE RD","LENOX","MI",48048,42.749240281,-82.790456552,104,"32032 28 MILE RD, LENOX, MI, 48048","Match","Exact","32032 28 MILE RD, LENOX, MI, 48048",110697612,"R"
171105,"32035 JOSEPH RD","HOCKLEY","TX",77447,30.1530956280001,-95.8971649649999,105,"32035 JOSEPH RD, HOCKLEY, TX, 77447","Match","Exact","32035 JOSEPH RD, HOCKLEY, TX, 77447",652307587,"L"
171106,"32039 MCLAGAN ROAD","TANGENT","OR",97839,44.509562257,-123.137653377,106,"32039 MCLAGAN ROAD, TANGENT, OR, 97839","Match","Non_Exact","32039 MCLAGAN RD, TANGENT, OR, 97389",156094354,"R"
171107,"3204  SHERRY COURT","VIRGINIA BEACH","VA",23464,36.820511228,-76.21947649,107,"3204  SHERRY COURT, VIRGINIA BEACH, VA, 23464","Match","Exact","3204 SHERRY CT, VA BCH, VA, 23464",122257431,"R"
171108,"3204 21ST W","LEHIGH ACRES","FL",33973,NA,NA,108,"3204 21ST W, LEHIGH ACRES, FL, 33973","No_Match",NA,NA,NA,NA
171109,"3204 ATLANTA","DALLAS","TX",75215,32.765599251,-96.7689348119999,109,"3204 ATLANTA, DALLAS, TX, 75215","Match","Non_Exact","3204 ATLANTA ST, DALLAS, TX, 75215",102950563,"L"
171110,"3204 BEANNA STREET APT B","AUSTIN","MA",78705,NA,NA,110,"3204 BEANNA STREET APT B, AUSTIN, MA, 78705","No_Match",NA,NA,NA,NA
171111,"3204 BRUCE DRIVE","AUSTIN","TX",78735,30.2363009590001,-97.8071109799999,111,"3204 BRUCE DRIVE, AUSTIN, TX, 78735","Match","Exact","3204 BRUCE DR, AUSTIN, TX, 78735",63938749,"R"
171112,"3204 BURNETT ROAD","BYRON","GA",31008,32.6441395860001,-83.8397803349999,112,"3204 BURNETT ROAD, BYRON, GA, 31008","Match","Exact","3204 BURNETT RD, BYRON, GA, 31008",651811758,"L"
171113,"3204 CANOE BROOK PARKWAY","RALEIGH","NC",27614,35.926199963,-78.555970438,113,"3204 CANOE BROOK PARKWAY, RALEIGH, NC, 27614","Match","Exact","3204 CANOE BROOK PKWY, RALEIGH, NC, 27614",612818926,"R"
171114,"3204 CHAMOUNE AVE","SAN DIEGO","CA",92105,32.739360902,-117.096577677,114,"3204 CHAMOUNE AVE, SAN DIEGO, CA, 92105","Match","Exact","3204 CHAMOUNE AVE, SAN DIEGO, CA, 92105",195699011,"L"
171115,"3204 COUNTY ROAD 11","WAVERLY","AL",36879,32.7639700390001,-85.568976231,115,"3204 COUNTY ROAD 11, WAVERLY, AL, 36879","Match","Exact","3204 CO RD 11, WAVERLY, AL, 36879",653330918,"R"
171116,"3204 CURTIS ST","NASHVILLE","TN",37218,36.199552284,-86.8291619079999,116,"3204 CURTIS ST, NASHVILLE, TN, 37218","Match","Exact","3204 CURTIS ST, NASHVILLE, TN, 37218",631970958,"R"
171117,"3204 D WHITEHORSE ROAD","GREENVILLE","SC",29611,NA,NA,117,"3204 D WHITEHORSE ROAD, GREENVILLE, SC, 29611","No_Match",NA,NA,NA,NA
171118,"3204 DEER RIDGE PL","SANDY","UT",84092,40.5565860510001,-111.80252396,118,"3204 DEER RIDGE PL, SANDY, UT, 84092","Match","Exact","3204 DEER RIDGE PL, SANDY, UT, 84092",624585623,"L"
171119,"3204 E 12TH STREET","KANSAS CITY","MO",64127,39.0986147020001,-94.5442128,119,"3204 E 12TH STREET, KANSAS CITY, MO, 64127","Match","Exact","3204 E 12TH ST, KANSAS CITY, MO, 64127",91449470,"L"
171120,"3204 E STATE RD 61","VINCENNES","IN",47591,38.6592800450001,-87.4789340789999,120,"3204 E STATE RD 61, VINCENNES, IN, 47591","Match","Exact","3204 STATE RD 61, VINCENNES, IN, 47591",30061181,"R"
171121,"3204 EL CAMINO STREET","PONCA CITY","OK",74604,36.7408369400001,-97.054282106,121,"3204 EL CAMINO STREET, PONCA CITY, OK, 74604","Match","Exact","3204 EL CAMINO ST, PONCA CITY, OK, 74604",115903868,"L"
171122,"3204 GOLDCREST AVE","MCALLEN","TX",78504,26.258497549,-98.247513236,122,"3204 GOLDCREST AVE, MCALLEN, TX, 78504","Match","Exact","3204 GOLDCREST AVE, MCALLEN, TX, 78504",71523593,"L"
171123,"3204 HIGHLAND AVE","KANSAS CITY","MO",64109,39.0682097000001,-94.563294115,123,"3204 HIGHLAND AVE, KANSAS CITY, MO, 64109","Match","Exact","3204 HIGHLAND AVE, KANSAS CITY, MO, 64109",91449824,"R"
171124,"3204 INDIGO WATERS DRIVE","AUSTIN","TX",78732,30.3778692170001,-97.903037689,124,"3204 INDIGO WATERS DRIVE, AUSTIN, TX, 78732","Match","Exact","3204 INDIGO WATERS DR, AUSTIN, TX, 78732",64006448,"R"
171125,"3204 LA SALA CUADRA NE","ALBUQUERUQUE","NM",87111,35.1204651680001,-106.545500584,125,"3204 LA SALA CUADRA NE, ALBUQUERUQUE, NM, 87111","Match","Non_Exact","3204 LA SALA CUADRA NE, ALBUQUERQUE, NM, 87111",206719014,"R"
171126,"3204 LAKELAND DR","NASHVILLE","TN",37214,36.155395797,-86.643459757,126,"3204 LAKELAND DR, NASHVILLE, TN, 37214","Match","Exact","3204 LAKELAND DR, NASHVILLE, TN, 37214",97196265,"L"
171127,"3204 MALONE DR","LEXINGTON","KY",40513,38.0210009420001,-84.571147433,127,"3204 MALONE DR, LEXINGTON, KY, 40513","Match","Exact","3204 MALONE DR, LEXINGTON, KY, 40513",31954010,"R"
171128,"3204 MONTANA AVE NUMBER 7","EL PASO","TX",79903,31.7837196470001,-106.456714173,128,"3204 MONTANA AVE NUMBER 7, EL PASO, TX, 79903","Match","Exact","3204 MONTANA AVE, EL PASO, TX, 79903",189343045,"R"
171129,"3204 NE 198TH PLACE","LAKE FOREST PARK","WA",98155,47.772247958,-122.294623856,129,"3204 NE 198TH PLACE, LAKE FOREST PARK, WA, 98155","Match","Exact","3204 NE 198TH PL, LAKE FOREST PARK, WA, 98155",239761052,"L"
171130,"3204 NORTH 121ST PLAZA APT 359","OMAHA","NE",68164,41.2882918550001,-96.1022842679999,130,"3204 NORTH 121ST PLAZA APT 359, OMAHA, NE, 68164","Match","Exact","3204 N 121ST PLZ, OMAHA, NE, 68164",117013572,"R"
171131,"3204 NORTH I ST","MIDLAND","TX",79705,32.0242158780001,-102.100125462,131,"3204 NORTH I ST, MIDLAND, TX, 79705","Match","Exact","3204 N I ST, MIDLAND, TX, 79705",139579230,"R"
171132,"3204 NORTHRIDGE CT","WEST RICHLAND","WA",99353,46.2710132030001,-119.343815673,132,"3204 NORTHRIDGE CT, WEST RICHLAND, WA, 99353","Match","Exact","3204 NORTHRIDGE CT, WEST RICHLAND, WA, 99353",617979505,"R"
171133,"3204 NW 61ST TER","OKLAHOMA CITY","OK",73112,35.534155109,-97.572527121,133,"3204 NW 61ST TER, OKLAHOMA CITY, OK, 73112","Match","Exact","3204 NW 61ST TER, OKLAHOMA CITY, OK, 73112",100393400,"L"
171134,"3204 PURPLE SAGE DR","BELTON","TX",76513,31.094254431,-97.4888256839999,134,"3204 PURPLE SAGE DR, BELTON, TX, 76513","Match","Exact","3204 PURPLE SAGE DR, BELTON, TX, 76513",642827794,"R"
171135,"3204 S 130TH AVENUE CIR","OMAHA","NE",68144,41.229940979,-96.117638884,135,"3204 S 130TH AVENUE CIR, OMAHA, NE, 68144","Match","Exact","3204 S 130TH AVENUE CIR, OMAHA, NE, 68144",116970756,"R"
171136,"3204 S 130TH AVENUE CIRCLE","OMAHA","NE",68144,41.229940979,-96.117638884,136,"3204 S 130TH AVENUE CIRCLE, OMAHA, NE, 68144","Match","Exact","3204 S 130TH AVENUE CIR, OMAHA, NE, 68144",116970756,"R"
171137,"3204 S ELIZABETH AVE","INDEPENDENCE","MO",64057,39.0604897520001,-94.360928096,137,"3204 S ELIZABETH AVE, INDEPENDENCE, MO, 64057","Match","Exact","3204 S ELIZABETH AVE, INDEPENDENCE, MO, 64057",91506607,"R"
171138,"3204 SAGESTONE DR","FORT WORTH","TX",76177,32.910876107,-97.310672928,138,"3204 SAGESTONE DR, FORT WORTH, TX, 76177","Match","Exact","3204 SAGESTONE DR, FORT WORTH, TX, 76177",648639042,"L"
171139,"3204 SHONDA CIR","TUPELO","MS",38801,34.2135241030001,-88.72967993,139,"3204 SHONDA CIR, TUPELO, MS, 38801","Match","Exact","3204 SHONDA CIR, TUPELO, MS, 38801",90658095,"R"
171140,"3204 SLOAN SQUARE NE","ATLANTA","GA",30329,33.8137664110001,-84.3365673019999,140,"3204 SLOAN SQUARE NE, ATLANTA, GA, 30329","Match","Exact","3204 SLOAN SQ NE, ATLANTA, GA, 30329",23399216,"L"
171141,"3204 SOUTH 1575 EAST","SALT LAKE CITY","UT",84106,40.7006930320001,-111.84645867,141,"3204 SOUTH 1575 EAST, SALT LAKE CITY, UT, 84106","Match","Exact","3204 S 1575 E, SALT LAKE CITY, UT, 84106",176083352,"R"
171142,"3204 STONESBORO ROAD","FORT WASHINGTON","MD",20744,38.768397237,-76.9516921809999,142,"3204 STONESBORO ROAD, FORT WASHINGTON, MD, 20744","Match","Exact","3204 STONESBORO RD, FT WASHINGTON, MD, 20744",76316722,"L"
171143,"3204 SUNSET AVE","ROCKY MOUNT","NC",27804,35.963253852,-77.8413645529999,143,"3204 SUNSET AVE, ROCKY MOUNT, NC, 27804","Match","Exact","3204 SUNSET AVE, ROCKY MOUNT, NC, 27804",90382338,"R"
171144,"3204 TRAVIS COURT","LEXINGTON","KY",40515,37.9875783740001,-84.457584735,144,"3204 TRAVIS COURT, LEXINGTON, KY, 40515","Match","Exact","3204 TRAVIS CT, LEXINGTON, KY, 40515",31928656,"L"
171145,"3204 VAQUERO LNB","CEDAR PARK","TX",78641,30.55275242,-97.786611664,145,"3204 VAQUERO LNB, CEDAR PARK, TX, 78641","Match","Non_Exact","3204 VAQUERO LN, CEDAR PARK, TX, 78641",648537412,"R"
171146,"3204 W KENT DR","CARBONDALE","IL",62901,37.724587759,-89.2657788079999,146,"3204 W KENT DR, CARBONDALE, IL, 62901","Match","Exact","3204 W KENT DR, CARBONDALE, IL, 62901",95122344,"R"
171147,"3204 WANSTEAD PARK DRIVE APT 607","SUWANEE","GA",30024,34.032646803,-84.0552964839999,147,"3204 WANSTEAD PARK DRIVE APT 607, SUWANEE, GA, 30024","Match","Exact","3204 WANSTEAD PARK DR, SUWANEE, GA, 30024",646777308,"L"
171148,"3204 WEST 27TH STREET","LOS ANGELES","CA",90018,34.03062656,-118.319083547,148,"3204 WEST 27TH STREET, LOS ANGELES, CA, 90018","Match","Exact","3204 W 27TH ST, LOS ANGELES, CA, 90018",141605721,"L"
171149,"3204 WHELAHAN FARM ROAD","KNOXVILLE","TN",37924,36.0473451130001,-83.860100221,149,"3204 WHELAHAN FARM ROAD, KNOXVILLE, TN, 37924","Match","Exact","3204 WHELAHAN FARM RD, KNOXVILLE, TN, 37924",641743956,"L"
171150,"3204-H LAWNDALE DRIVE","GREENSBORO","NC",27408,36.1111856480001,-79.820439462,150,"3204-H LAWNDALE DRIVE, GREENSBORO, NC, 27408","Match","Exact","3204 LAWNDALE DR, GREENSBORO, NC, 27408",131030353,"R"
171151,"32045 STERLING HWY","ANCHOR POINT","AL",99556,NA,NA,151,"32045 STERLING HWY, ANCHOR POINT, AL, 99556","No_Match",NA,NA,NA,NA
171152,"3205 17TH AVE S","MINNEAPOLIS","MN",55407,44.944540713,-93.249934911,152,"3205 17TH AVE S, MINNEAPOLIS, MN, 55407","Match","Exact","3205 17TH AVE S, MINNEAPOLIS, MN, 55407",43638961,"L"
171153,"3205 34TH ST DR NE","HICKORY","NC",28601,NA,NA,153,"3205 34TH ST DR NE, HICKORY, NC, 28601","No_Match",NA,NA,NA,NA
171154,"3205 ABELL AVE","BALTIMORE","MD",21218,39.3272075620001,-76.6121103089999,154,"3205 ABELL AVE, BALTIMORE, MD, 21218","Match","Exact","3205 ABELL AVE, BALTIMORE, MD, 21218",206408905,"R"
171155,"3205 CALLE MARIE STE B","SANTA FE","NM",87507,35.658102581,-105.999338331,155,"3205 CALLE MARIE STE B, SANTA FE, NM, 87507","Match","Non_Exact","3205 CLL MARIE, SANTA FE, NM, 87507",612404382,"R"
171156,"3205 CARLISLE AVENUE","BALTIMORE","MD",21216,39.3186633830001,-76.67101859,156,"3205 CARLISLE AVENUE, BALTIMORE, MD, 21216","Match","Exact","3205 CARLISLE AVE, BALTIMORE, MD, 21216",206413191,"L"
171157,"3205 CUMBERLAND BLVD APT 351","ATLANTA","GA",30339,33.8774623790001,-84.4625564,157,"3205 CUMBERLAND BLVD APT 351, ATLANTA, GA, 30339","Match","Exact","3205 CUMBERLAND BLVD, ATLANTA, GA, 30339",643428022,"L"
171158,"3205 DAUTERIVE DRIVE","CHALMETTE","LA",70043,29.944700599,-89.952719797,158,"3205 DAUTERIVE DRIVE, CHALMETTE, LA, 70043","Match","Exact","3205 DAUTERIVE DR, CHALMETTE, LA, 70043",111187563,"R"
171159,"3205 DENTON DRIVE","AUGUSTA","GA",30906,33.4283890310001,-82.076158312,159,"3205 DENTON DRIVE, AUGUSTA, GA, 30906","Match","Exact","3205 DENTON DR, AUGUSTA, GA, 30906",55651206,"L"
171160,"3205 DYNASTY DRIVE","FORESTVILLE","MD",20747,38.845227412,-76.903942102,160,"3205 DYNASTY DRIVE, FORESTVILLE, MD, 20747","Match","Exact","3205 DYNASTY DR, FORESTVILLE, MD, 20747",76348541,"L"
171161,"3205 E LONG ST","SWEET HOME","OR",97386,44.398821264,-122.70664092,161,"3205 E LONG ST, SWEET HOME, OR, 97386","Match","Exact","3205 LONG ST, SWEET HOME, OR, 97386",156093781,"L"
171162,"3205 E OLIVE RD APT 62","PENSACOLA","FL",32514,NA,NA,162,"3205 E OLIVE RD APT 62, PENSACOLA, FL, 32514","No_Match",NA,NA,NA,NA
171163,"3205 GOODWIN AVENUE","AUSTIN","TX",78702,30.269473846,-97.700241072,163,"3205 GOODWIN AVENUE, AUSTIN, TX, 78702","Match","Exact","3205 GOODWIN AVE, AUSTIN, TX, 78702",63948073,"R"
171164,"3205 INDUSTRIAL WAY STE 200","SNELLVILLE","GA",30039,33.8302695520001,-84.007793351,164,"3205 INDUSTRIAL WAY STE 200, SNELLVILLE, GA, 30039","Match","Non_Exact","3205 INDUSTRIAL WAY SW, SNELLVILLE, GA, 30039",88917206,"R"
171165,"3205 KYLEMOOR DRIVE","CONYERS","GA",30012,33.7202918460001,-84.0322760079999,165,"3205 KYLEMOOR DRIVE, CONYERS, GA, 30012","Match","Exact","3205 KYLEMOOR DR, CONYERS, GA, 30012",23745197,"R"
171166,"3205 LITTLE ISLAND ROAD","VIRGINIA BEACH","VA",23456,36.717123386,-75.9353127219999,166,"3205 LITTLE ISLAND ROAD, VIRGINIA BEACH, VA, 23456","Match","Exact","3205 LITTLE ISLAND RD, VA BCH, VA, 23456",122294707,"R"
171167,"3205 MICHIGAN AVE","COSTA MESA","CA",92626,33.687589034,-117.92703827,167,"3205 MICHIGAN AVE, COSTA MESA, CA, 92626","Match","Exact","3205 MICHIGAN AVE, COSTA MESA, CA, 92626",144045807,"L"
171168,"3205 N DAVIDSON STREET SUITE 203","CHARLOTTE","NC",28205,35.247073249,-80.805640221,168,"3205 N DAVIDSON STREET SUITE 203, CHARLOTTE, NC, 28205","Match","Non_Exact","3205 N DAVIDSON ST, CHARLOTTE, NC, 28205",70480147,"L"
171169,"3205 N LAKEWOOD BLVD","LONG BEACH","CA",90808,33.815011441,-118.139201628,169,"3205 N LAKEWOOD BLVD, LONG BEACH, CA, 90808","Match","Exact","3205 N LAKEWOOD BLVD, LONG BEACH, CA, 90808",639053546,"L"
171170,"3205 N PEARL ST","JACKSONVILLE","FL",32206,30.3578423930001,-81.658196372,170,"3205 N PEARL ST, JACKSONVILLE, FL, 32206","Match","Exact","3205 N PEARL ST, JACKSONVILLE, FL, 32206",83898580,"R"
171171,"3205 N ST NW","WASHINGTON","DC",20007,38.9068704950001,-77.063356169,171,"3205 N ST NW, WASHINGTON, DC, 20007","Match","Exact","3205 N ST NW, WASHINGTON, DC, 20007",76224899,"R"
171172,"3205 N WASHBURN RD","DAVISON","MI",48423,43.055179756,-83.459124453,172,"3205 N WASHBURN RD, DAVISON, MI, 48423","Match","Exact","3205 N WASHBURN RD, DAVISON, MI, 48423",652792060,"L"
171173,"3205 OMEGA RD","GREENWICH","OH",44837,41.061750429,-82.471004544,173,"3205 OMEGA RD, GREENWICH, OH, 44837","Match","Exact","3205 OMEGA RD, GREENWICH, OH, 44837",12624373,"L"
171174,"3205 PAINTED BLOSSOM CT","LUTZ","FL",33558,NA,NA,174,"3205 PAINTED BLOSSOM CT, LUTZ, FL, 33558","No_Match",NA,NA,NA,NA
171175,"3205 PILLSBURY AVE NO 2","MINNEAPOLIS","MN",55408,44.9445349270001,-93.281364719,175,"3205 PILLSBURY AVE NO 2, MINNEAPOLIS, MN, 55408","Match","Non_Exact","3205 PILLSBURY AVE S, MINNEAPOLIS, MN, 55408",640003689,"L"
171176,"3205 PLACID SPRINGS LN","PLANO","TX",75025,33.0878281240001,-96.753848684,176,"3205 PLACID SPRINGS LN, PLANO, TX, 75025","Match","Exact","3205 PLACID SPRINGS LN, PLANO, TX, 75025",123538124,"R"
171177,"3205 RAPID FALLS RD","MORRISVILLE","NC",27560,35.8334001200001,-78.852226166,177,"3205 RAPID FALLS RD, MORRISVILLE, NC, 27560","Match","Exact","3205 RAPID FALLS RD, MORRISVILLE, NC, 27560",630407231,"L"
171178,"3205 RESACA VISTA DR","BROWNSVILLE","TX",78526,25.971026162,-97.470059657,178,"3205 RESACA VISTA DR, BROWNSVILLE, TX, 78526","Match","Exact","3205 RESACA VISTA DR, BROWNSVILLE, TX, 78526",635390178,"R"
171179,"3205 S 1ST ST","AUSTIN","TX",78704,30.2330404310001,-97.7653528559999,179,"3205 S 1ST ST, AUSTIN, TX, 78704","Match","Exact","3205 S 1ST ST, AUSTIN, TX, 78704",63945147,"L"
171180,"3205 S DAKOTA AVE","BROWNSVILLE","TX",78521,NA,NA,180,"3205 S DAKOTA AVE, BROWNSVILLE, TX, 78521","No_Match",NA,NA,NA,NA
171181,"3205 S LIONS AVE","BROKEN ARROW","OK",74012,36.0181048580001,-95.804726757,181,"3205 S LIONS AVE, BROKEN ARROW, OK, 74012","Match","Exact","3205 S LIONS AVE, BROKEN ARROW, OK, 74012",166464495,"R"
171182,"3205 S PINTO WAY","YUMA","AZ",85365,32.669058841,-114.670042633,182,"3205 S PINTO WAY, YUMA, AZ, 85365","Match","Non_Exact","3205 S PINTO WAY, YUMA, AZ, 85364",129624116,"R"
171183,"3205 SHERRY DR","HEMET","CA",92545,33.762626691,-117.005129494,183,"3205 SHERRY DR, HEMET, CA, 92545","Match","Exact","3205 SHERRY DR, HEMET, CA, 92545",194828901,"L"
171184,"3205 SHREVE ROAD","WOOSTER","OH",44691,40.759810089,-81.9755444049999,184,"3205 SHREVE ROAD, WOOSTER, OH, 44691","Match","Exact","3205 SHREVE RD, WOOSTER, OH, 44691",647822475,"L"
171185,"3205 SOUTH DOGWOOD ROAD SUITE B","EL CENTRO","CA",92243,NA,NA,185,"3205 SOUTH DOGWOOD ROAD SUITE B, EL CENTRO, CA, 92243","No_Match",NA,NA,NA,NA
171186,"3205 STONESTHROW LN","DURHAM","NC",27713,35.89194324,-78.882255963,186,"3205 STONESTHROW LN, DURHAM, NC, 27713","Match","Non_Exact","3205 STONES THROW LN, DURHAM, NC, 27713",640628041,"R"
171187,"3205 SUNRISE DR","ROWLETT","TX",75088,32.8911896980001,-96.5504090319999,187,"3205 SUNRISE DR, ROWLETT, TX, 75088","Match","Exact","3205 SUNRISE DR, ROWLETT, TX, 75088",103168973,"L"
171188,"3205 SW JULIE LN","LEES SUMMIT","MO",64082,38.862774958,-94.4184575359999,188,"3205 SW JULIE LN, LEES SUMMIT, MO, 64082","Match","Exact","3205 SW JULIE LN, LEES SUMMIT, MO, 64082",91518672,"R"
171189,"3205 VARELLA AVE","ST AUGUSTINE","FL",32084,29.925142841,-81.34051598,189,"3205 VARELLA AVE, ST AUGUSTINE, FL, 32084","Match","Exact","3205 VARELLA AVE, SAINT AUGUSTINE, FL, 32084",92615448,"L"
171190,"3205 VARELLA AVENUE","ST AUGUSTINE","FL",32084,29.925142841,-81.34051598,190,"3205 VARELLA AVENUE, ST AUGUSTINE, FL, 32084","Match","Exact","3205 VARELLA AVE, SAINT AUGUSTINE, FL, 32084",92615448,"L"
171191,"3205 VENEZIA VIEW","LEANDER","TX",78641,30.530262845,-97.903471187,191,"3205 VENEZIA VIEW, LEANDER, TX, 78641","Match","Exact","3205 VENEZIA VW, LEANDER, TX, 78641",648999953,"R"
171192,"3205 WHISPER LANE","FURLONG","PA",18925,40.2900785250001,-75.088840892,192,"3205 WHISPER LANE, FURLONG, PA, 18925","Match","Exact","3205 WHISPER LN, FURLONG, PA, 18925",623804784,"L"
171193,"3205 WICKHAM AVENUE","BRONX","NY",10469,40.8745574660001,-73.840119403,193,"3205 WICKHAM AVENUE, BRONX, NY, 10469","Match","Exact","3205 WICKHAM AVE, BRONX, NY, 10469",80310418,"L"
171194,"3205 WILD MEADOW DR","DURHAM","NC",27705,36.03905174,-78.939846871,194,"3205 WILD MEADOW DR, DURHAM, NC, 27705","Match","Exact","3205 WILD MEADOW DR, DURHAM, NC, 27705",71756287,"L"
171195,"3205 WILLS MILL ROAD","CUMMING","GA",30041,34.1239263750001,-84.190709209,195,"3205 WILLS MILL ROAD, CUMMING, GA, 30041","Match","Exact","3205 WILLS MILL RD, CUMMING, GA, 30041",629781092,"R"
171196,"3205 YANCEYVILLE STREET","GREENSBORO","NC",27405,36.114459792,-79.7752934759999,196,"3205 YANCEYVILLE STREET, GREENSBORO, NC, 27405","Match","Exact","3205 YANCEYVILLE ST, GREENSBORO, NC, 27405",131064150,"L"
171197,"32051 WASHINGTON ST","LIVONIA","MI",48150,42.3564965640001,-83.358651371,197,"32051 WASHINGTON ST, LIVONIA, MI, 48150","Match","Exact","32051 WASHINGTON ST, LIVONIA, MI, 48150",95413408,"L"
171198,"32054 WEST BRAMPTON STREET","NEW HAVEN","MI",48048,42.739048198,-82.790952518,198,"32054 WEST BRAMPTON STREET, NEW HAVEN, MI, 48048","Match","Exact","32054 W BRAMPTON ST, NEW HAVEN, MI, 48048",624838137,"L"
171199,"3206 47TH STREET SUITE IB","ASTORIA","NY",11103,NA,NA,199,"3206 47TH STREET SUITE IB, ASTORIA, NY, 11103","No_Match",NA,NA,NA,NA
171200,"3206 BALLARD MILL DRIVE","COLUMBIA","MO",65203,38.894690445,-92.385863993,200,"3206 BALLARD MILL DRIVE, COLUMBIA, MO, 65203","Match","Exact","3206 BALLARD MILL DR, COLUMBIA, MO, 65203",639707971,"R"
171201,"3206 CHERRY ST","VICTORIA","TX",77901,28.8179914620001,-96.971269369,201,"3206 CHERRY ST, VICTORIA, TX, 77901","Match","Exact","3206 CHERRY ST, VICTORIA, TX, 77901",44561348,"R"
171202,"3206 CIRCLE DRIVE","HOPKINSVILLE","KY",42240,36.838813132,-87.488925304,202,"3206 CIRCLE DRIVE, HOPKINSVILLE, KY, 42240","Match","Exact","3206 CIRCLE DR, HOPKINSVILLE, KY, 42240",11273748,"L"
171203,"3206 CLAYTON TERRACE","MISSOURI CITY","TX",77459,29.5477294900001,-95.505931946,203,"3206 CLAYTON TERRACE, MISSOURI CITY, TX, 77459","Match","Non_Exact","3206 CLAYTON TERRACE DR, MISSOURI CITY, TX, 77459",624576987,"L"
171204,"3206 DORIS COURT","PHOENIXVILLE","PA",19460,40.1378824330001,-75.5509323749999,204,"3206 DORIS COURT, PHOENIXVILLE, PA, 19460","Match","Exact","3206 DORIS CT, PHOENIXVILLE, PA, 19460",179516466,"L"
171205,"3206 EAST WOOD VALLEY RD","ATLANTA","GA",30327,33.8428464770001,-84.414484992,205,"3206 EAST WOOD VALLEY RD, ATLANTA, GA, 30327","Match","Non_Exact","3206 E WOOD VALLEY RD NW, ATLANTA, GA, 30327",17334894,"L"
171206,"3206 GATEWAY LEDGE DRIVE","COMMERCE TWP","MI",48390,42.568830351,-83.4624566849999,206,"3206 GATEWAY LEDGE DRIVE, COMMERCE TWP, MI, 48390","Match","Exact","3206 GATEWAY LEDGE DR, COMMERCE TOWNSHIP, MI, 48390",69785334,"L"
171207,"3206 INNSBRUCK CIRCLE","COLLEGE STATION","TX",77845,30.5773581460001,-96.307314864,207,"3206 INNSBRUCK CIRCLE, COLLEGE STATION, TX, 77845","Match","Exact","3206 INNSBRUCK CIR, COLLEGE STATION, TX, 77845",21834105,"L"
171208,"3206 LA COSTA ROAD","MISSOURI CITY","TX",77459,29.5804232180001,-95.553465804,208,"3206 LA COSTA ROAD, MISSOURI CITY, TX, 77459","Match","Exact","3206 LA COSTA RD, MISSOURI CITY, TX, 77459",78269362,"L"
171209,"3206 LAKE SHORE DR","ESCANABA","MI",49829,NA,NA,209,"3206 LAKE SHORE DR, ESCANABA, MI, 49829","No_Match",NA,NA,NA,NA
171210,"3206 LOS FELIZ BLVD","LOS ANGELES","CA",90039,34.123460666,-118.268554156,210,"3206 LOS FELIZ BLVD, LOS ANGELES, CA, 90039","Match","Exact","3206 LOS FELIZ BLVD, LOS ANGELES, CA, 90039",640415759,"L"
171211,"3206 LOUIS ROAD","PALO ALTO","CA",94303,37.4333488390001,-122.116799258,211,"3206 LOUIS ROAD, PALO ALTO, CA, 94303","Match","Exact","3206 LOUIS RD, PALO ALTO, CA, 94303",122951585,"R"
171212,"3206 MCBREEN AVE","ROBBINS","IL",60472,41.6379735460001,-87.706075611,212,"3206 MCBREEN AVE, ROBBINS, IL, 60472","Match","Exact","3206 MCBREEN AVE, ROBBINS, IL, 60472",111825196,"L"
171213,"3206 MONTICELLO CT","WILMINGTON","NC",28405,34.308815085,-77.880457413,213,"3206 MONTICELLO CT, WILMINGTON, NC, 28405","Match","Exact","3206 MONTICELLO CT, WILMINGTON, NC, 28405",152770030,"R"
171214,"3206 N 45TH ST APT 2","MILWAUKEE","WI",53216,43.0773133770001,-87.969813678,214,"3206 N 45TH ST APT 2, MILWAUKEE, WI, 53216","Match","Non_Exact","3206 N 45TH ST, MILWAUKEE, WI, 53216",77732145,"R"
171215,"3206 NW VAN BUREN AVE","CORVALLIS","OR",97330,44.5707666010001,-123.286907779,215,"3206 NW VAN BUREN AVE, CORVALLIS, OR, 97330","Match","Exact","3206 NW VAN BUREN AVE, CORVALLIS, OR, 97330",155846983,"L"
171216,"3206 OAK STREET","AUSTELL","GA",30106,33.8307016320001,-84.648169954,216,"3206 OAK STREET, AUSTELL, GA, 30106","Match","Exact","3206 OAK ST, AUSTELL, GA, 30106",17244515,"R"
171217,"3206 OAKLAND DRIVE","SUGAR LAND","TX",77479,29.5715772770001,-95.627863572,217,"3206 OAKLAND DRIVE, SUGAR LAND, TX, 77479","Match","Exact","3206 OAKLAND DR, SUGAR LAND, TX, 77479",78288365,"L"
171218,"3206 POPLAR AVE","MEMPHIS","TN",38111,35.1305716100001,-89.955175662,218,"3206 POPLAR AVE, MEMPHIS, TN, 38111","Match","Exact","3206 POPLAR AVE, MEMPHIS, TN, 38111",72915703,"L"
171219,"3206 PRESTON POINTE WAY","CUMMING","FM",30041,NA,NA,219,"3206 PRESTON POINTE WAY, CUMMING, FM, 30041","No_Match",NA,NA,NA,NA
171220,"3206 RED OAK DR","EAGAN","MN",55121,44.839994592,-93.1093562359999,220,"3206 RED OAK DR, EAGAN, MN, 55121","Match","Exact","3206 RED OAK DR, EAGAN, MN, 55121",37941497,"R"
171221,"3206 RUBY DR","WILMINGTON","DE",19810,39.8288423990001,-75.533056772,221,"3206 RUBY DR, WILMINGTON, DE, 19810","Match","Exact","3206 RUBY DR, WILMINGTON, DE, 19810",187278856,"L"
171222,"3206 SAINT MATTHEW UNIT A","SALADO","TX",76571,30.9802823800001,-97.531160669,222,"3206 SAINT MATTHEW UNIT A, SALADO, TX, 76571","Match","Non_Exact","3206 SAINT MATTHEW ST, SALADO, TX, 76571",650700038,"R"
171223,"3206 ST CHARLES ROAD","BELLWOOD","IL",60104,41.8869040590001,-87.872538549,223,"3206 ST CHARLES ROAD, BELLWOOD, IL, 60104","Match","Exact","3206 SAINT CHARLES RD, BELLWOOD, IL, 60104",111727557,"L"
171224,"3206 STONEBURG COURT APT P","GREENSBORO","NC",27409,36.1258081060001,-79.9590441299999,224,"3206 STONEBURG COURT APT P, GREENSBORO, NC, 27409","Match","Exact","3206 STONEBURG CT, GREENSBORO, NC, 27409",131078801,"L"
171225,"3206 TAFT RD","NEW WASHINGTON","IN",47162,38.5526739680001,-85.462093056,225,"3206 TAFT RD, NEW WASHINGTON, IN, 47162","Match","Exact","3206 TAFT RD, NEW WASHINGTON, IN, 47162",64887162,"R"
171226,"3206 TRAMMELS TRACE","MARSHALL","TX",75672,32.5179191990001,-94.388210096,226,"3206 TRAMMELS TRACE, MARSHALL, TX, 75672","Match","Exact","3206 TRAMMELS TRCE, MARSHALL, TX, 75672",645542247,"R"
171227,"3206 UNIVERSITY AVENUE B-15","DES MOINES","IA",50311,41.6003457730001,-93.661076398,227,"3206 UNIVERSITY AVENUE B-15, DES MOINES, IA, 50311","Match","Exact","3206 UNIVERSITY AVE, DES MOINES, IA, 50311",638630396,"L"
171228,"3206 VISTA ST NE","WASHINGTON","DC",20018,38.931341726,-76.961880182,228,"3206 VISTA ST NE, WASHINGTON, DC, 20018","Match","Exact","3206 VISTA ST NE, WASHINGTON, DC, 20018",76229486,"L"
171229,"3206 W 111TH PL","INGLEWOOD","CA",90303,33.9338698720001,-118.328617965,229,"3206 W 111TH PL, INGLEWOOD, CA, 90303","Match","Exact","3206 W 111TH PL, INGLEWOOD, CA, 90303",142752070,"L"
171230,"3206 W 65TH PLACE 1ST FLOOR","CHICAGO","IL",60629,41.7744205540001,-87.703351386,230,"3206 W 65TH PLACE 1ST FLOOR, CHICAGO, IL, 60629","Match","Non_Exact","3206 W 65TH PL, CHICAGO, IL, 60629",111819422,"R"
171231,"3206 W AZEELE STREET UNIT 117","TAMPA","FL",33609,27.941152135,-82.496037267,231,"3206 W AZEELE STREET UNIT 117, TAMPA, FL, 33609","Match","Non_Exact","3206 W AZEELE ST, TAMPA, FL, 33609",104526301,"L"
171232,"3206 W JUSNIC CIR","TUCSON","AZ",85705,32.3072535200001,-111.035487237,232,"3206 W JUSNIC CIR, TUCSON, AZ, 85705","Match","Exact","3206 W JUSNIC CIR, TUCSON, AZ, 85705",121411999,"R"
171233,"3206 WORTHINGTON DR","PEARLAND","TX",77584,29.5713320830001,-95.3717574569999,233,"3206 WORTHINGTON DR, PEARLAND, TX, 77584","Match","Exact","3206 WORTHINGTON DR, PEARLAND, TX, 77584",116648880,"L"
171234,"32061 VIA FLORES","SAN JUAN CAPISTRANO","CA",92675,33.4971564360001,-117.645194689,234,"32061 VIA FLORES, SAN JUAN CAPISTRANO, CA, 92675","Match","Exact","32061 VIA FLORES, SAN JUAN CAPISTRANO, CA, 92675",612216707,"R"
171235,"32064 POWERS STREET","HARRISON TOWNSHIP","MI",48045,42.5828376100001,-82.790780088,235,"32064 POWERS STREET, HARRISON TOWNSHIP, MI, 48045","Match","Exact","32064 POWERS ST, HARRISON TOWNSHIP, MI, 48045",110687592,"R"
171236,"32065 W PRICE DRIVE","LAWSON","MO",64062,39.5265080190001,-94.179517285,236,"32065 W PRICE DRIVE, LAWSON, MO, 64062","Match","Exact","32065 W PRICE DR, LAWSON, MO, 64062",17780611,"L"
171237,"3207 BLUEFORD ROAD","KENSINGTON","MD",20895,39.024520275,-77.063272589,237,"3207 BLUEFORD ROAD, KENSINGTON, MD, 20895","Match","Exact","3207 BLUEFORD RD, KENSINGTON, MD, 20895",62062731,"R"
171238,"3207 BOWLIN DR","FAIRBURN","GA",30213,33.5953845020001,-84.5903218029999,238,"3207 BOWLIN DR, FAIRBURN, GA, 30213","Match","Exact","3207 BOWLIN DR, FAIRBURN, GA, 30213",643408201,"R"
171239,"3207 CLINT MOORE ROAD","BOCA RATON","FL",33496,26.4080983280001,-80.151815245,239,"3207 CLINT MOORE ROAD, BOCA RATON, FL, 33496","Match","Exact","3207 CLINT MOORE RD, BOCA RATON, FL, 33496",630032619,"R"
171240,"3207 COBBLESTONE CREEK WAY","HOUSTON","TX",77084,29.8151262910001,-95.692030271,240,"3207 COBBLESTONE CREEK WAY, HOUSTON, TX, 77084","Match","Exact","3207 COBBLESTONE CREEK WAY, HOUSTON, TX, 77084",96289345,"R"
171241,"3207 CREEK MANOR DR","KINGWOOD","TX",77339,30.081899761,-95.198362447,241,"3207 CREEK MANOR DR, KINGWOOD, TX, 77339","Match","Exact","3207 CREEK MANOR DR, KINGWOOD, TX, 77339",649232949,"L"
171242,"3207 E DOUGLAS AVE","WICHITA","KS",67218,37.686303315,-97.2986456689999,242,"3207 E DOUGLAS AVE, WICHITA, KS, 67218","Match","Exact","3207 E DOUGLAS AVE, WICHITA, KS, 67218",115638066,"R"
171243,"3207 EDGAR AVENUE","ST LOUIS","MO",63143,38.606572806,-90.322012151,243,"3207 EDGAR AVENUE, ST LOUIS, MO, 63143","Match","Exact","3207 EDGAR AVE, SAINT LOUIS, MO, 63143",100136685,"R"
171244,"3207 EVELYN AVENUE","ROSEMEAD","CA",91770,34.066499735,-118.10094706,244,"3207 EVELYN AVENUE, ROSEMEAD, CA, 91770","Match","Exact","3207 EVELYN AVE, ROSEMEAD, CA, 91770",142739375,"L"
171245,"3207 FRANKLIN  BLVD  APARTMENT 306","CLEVELAND","OH",44113,41.486644541,-81.712064814,245,"3207 FRANKLIN  BLVD  APARTMENT 306, CLEVELAND, OH, 44113","Match","Exact","3207 FRANKLIN BLVD, CLEVELAND, OH, 44113",61109191,"L"
171246,"3207 HARBOR VIEW AVENUE","TAMPA","FL",33611,27.9023389120001,-82.4964676229999,246,"3207 HARBOR VIEW AVENUE, TAMPA, FL, 33611","Match","Non_Exact","3207 W HARBOR VIEW AVE, TAMPA, FL, 33611",104528672,"R"
171247,"3207 HEREFORD CIRCLE","DETROIT","MI",48228,NA,NA,247,"3207 HEREFORD CIRCLE, DETROIT, MI, 48228","No_Match",NA,NA,NA,NA
171248,"3207 JEFFERSON CIRCLE SOUTH","CHAMBLEE","GA",30341,33.887798796,-84.3157454779999,248,"3207 JEFFERSON CIRCLE SOUTH, CHAMBLEE, GA, 30341","Match","Exact","3207 JEFFERSON CIR S, CHAMBLEE, GA, 30341",642359497,"R"
171249,"3207 KENNETH DR","LOS ANGELES","CA",90032,34.083028805,-118.186333338,249,"3207 KENNETH DR, LOS ANGELES, CA, 90032","Match","Exact","3207 KENNETH DR, LOS ANGELES, CA, 90032",640425129,"L"
171250,"3207 LAWDOR RD","LANSING","MI",48911,42.6997038100001,-84.5953058979999,250,"3207 LAWDOR RD, LANSING, MI, 48911","Match","Exact","3207 LAWDOR RD, LANSING, MI, 48911",17496645,"L"
171251,"3207 LOVELL DRIVE","ATLANTA","GA",30311,33.719167112,-84.49434453,251,"3207 LOVELL DRIVE, ATLANTA, GA, 30311","Match","Non_Exact","3207 LOVELL DR SW, ATLANTA, GA, 30311",17400584,"R"
171252,"3207 MACE ST","MONTGOMERY","AL",36108,32.3514334980001,-86.3707662309999,252,"3207 MACE ST, MONTGOMERY, AL, 36108","Match","Non_Exact","3207 MACE AVE, MONTGOMERY, AL, 36108",1547403,"L"
171253,"3207 MAGNOLIA DR","ROCK SPRINGS","WY",82901,41.5895617690001,-109.268124114,253,"3207 MAGNOLIA DR, ROCK SPRINGS, WY, 82901","Match","Exact","3207 MAGNOLIA DR, ROCK SPRINGS, WY, 82901",612169113,"L"
171254,"3207 MARTHA ST 301","HONOLULU","HI",96815,21.2779371390001,-157.813215413,254,"3207 MARTHA ST 301, HONOLULU, HI, 96815","Match","Exact","3207 MARTHA ST, HONOLULU, HI, 96815",203242290,"R"
171255,"3207 MEADOW WALK LANE","MONTGOMERY","AL",36116,32.320240455,-86.242475225,255,"3207 MEADOW WALK LANE, MONTGOMERY, AL, 36116","Match","Exact","3207 MEADOW WALK LN, MONTGOMERY, AL, 36116",1487105,"R"
171256,"3207 MERMAID AVE","BROOKLYN","NY",11224,40.57509321,-73.9986952259999,256,"3207 MERMAID AVE, BROOKLYN, NY, 11224","Match","Exact","3207 MERMAID AVE, BROOKLYN, NY, 11224",59098414,"R"
171257,"3207 MOCKINGBIRD LN","DALLAS","TX",75205,32.8365432360001,-96.784958956,257,"3207 MOCKINGBIRD LN, DALLAS, TX, 75205","Match","Exact","3207 MOCKINGBIRD LN, DALLAS, TX, 75205",102907762,"L"
171258,"3207 N 21ST ST","TACOMA","WA",98406,47.2675411340001,-122.477980897,258,"3207 N 21ST ST, TACOMA, WA, 98406","Match","Exact","3207 N 21ST ST, TACOMA, WA, 98406",184645176,"R"
171259,"3207 N HIGH ST","COLUMBUS","OH",43202,40.027670942,-83.0148277919999,259,"3207 N HIGH ST, COLUMBUS, OH, 43202","Match","Exact","3207 N HIGH ST, COLUMBUS, OH, 43202",135572965,"L"
171260,"3207 NAVAJO CIR","GAINESVILLE","GA",30501,34.342293324,-83.791254862,260,"3207 NAVAJO CIR, GAINESVILLE, GA, 30501","Match","Exact","3207 NAVAJO CIR, GAINESVILLE, GA, 30501",98248539,"R"
171261,"3207 NEW COACH LANE","BOWIE","MD",20716,38.9333595320001,-76.744725745,261,"3207 NEW COACH LANE, BOWIE, MD, 20716","Match","Exact","3207 NEW COACH LN, BOWIE, MD, 20716",76328197,"R"
171262,"3207 NEW COACH LANE","DAYTON","OH",45415,NA,NA,262,"3207 NEW COACH LANE, DAYTON, OH, 45415","No_Match",NA,NA,NA,NA
171263,"3207 OAK FARM LN","SANTA ROSA","CA",95401,38.457105552,-122.794176882,263,"3207 OAK FARM LN, SANTA ROSA, CA, 95401","Match","Exact","3207 OAK FARM LN, SANTA ROSA, CA, 95401",604986549,"R"
171264,"3207 PACIFIC AVENUE","WILDWOOD","NJ",8260,38.990830875,-74.8122062529999,264,"3207 PACIFIC AVENUE, WILDWOOD, NJ, 8260","Match","Exact","3207 PACIFIC AVE, WILDWOOD, NJ, 08260",174332650,"R"
171265,"3207 PALM DESERT LANE","MISSOURI CITY","TX",77459,29.581238253,-95.553315937,265,"3207 PALM DESERT LANE, MISSOURI CITY, TX, 77459","Match","Exact","3207 PALM DESERT LN, MISSOURI CITY, TX, 77459",78269309,"R"
171266,"3207 POMONA BLVD","POMONA","CA",91768,34.0504773750001,-117.806050066,266,"3207 POMONA BLVD, POMONA, CA, 91768","Match","Exact","3207 POMONA BLVD, POMONA, CA, 91768",142244300,"R"
171267,"3207 RIDGEFIELD COURT","MANSFIELD","TX",76063,32.6109222220001,-97.1305076209999,267,"3207 RIDGEFIELD COURT, MANSFIELD, TX, 76063","Match","Exact","3207 RIDGEFIELD CT, MANSFIELD, TX, 76063",634105753,"R"
171268,"3207 SAVILLE ST SW","ATLANTA","GA",30331,33.665535689,-84.516331265,268,"3207 SAVILLE ST SW, ATLANTA, GA, 30331","Match","Non_Exact","3207 SAVILLE ST, ATLANTA, GA, 30331",647335543,"R"
171269,"3207 SE PRIMROSE DR","ANKENY","IA",50021,41.6962982840001,-93.592997086,269,"3207 SE PRIMROSE DR, ANKENY, IA, 50021","Match","Exact","3207 SE PRIMROSE DR, ANKENY, IA, 50021",641361157,"L"
171270,"3207 SPARKS RD","CHEYENNE","WY",82001,41.138054648,-104.774731256,270,"3207 SPARKS RD, CHEYENNE, WY, 82001","Match","Exact","3207 SPARKS RD, CHEYENNE, WY, 82001",160178930,"R"
171271,"3207 SW JANSTON RD","ST JOSEPH","MO",64504,39.704876703,-94.910010265,271,"3207 SW JANSTON RD, ST JOSEPH, MO, 64504","Match","Exact","3207 SW JANSTON RD, SAINT JOSEPH, MO, 64504",15972117,"L"
171272,"3207 SYCAMORE LANE","SUITLAND","MD",20746,38.845682939,-76.925291852,272,"3207 SYCAMORE LANE, SUITLAND, MD, 20746","Match","Exact","3207 SYCAMORE LN, SUITLAND, MD, 20746",76314523,"R"
171273,"3207 VISTA DEL CAMINO","MARINA","CA",93933,36.689174248,-121.792509271,273,"3207 VISTA DEL CAMINO, MARINA, CA, 93933","Match","Exact","3207 VIS DEL CAMINO, MARINA, CA, 93933",196876125,"L"
171274,"3207 WILLIAMS SWITCH ROAD","HENNING","TN",38041,35.715011524,-89.604250931,274,"3207 WILLIAMS SWITCH ROAD, HENNING, TN, 38041","Match","Exact","3207 WILLIAMS SWITCH RD, HENNING, TN, 38041",63786921,"L"
171275,"32071 GLEN ST","WESTLAND","MI",48186,42.301643217,-83.355310738,275,"32071 GLEN ST, WESTLAND, MI, 48186","Match","Exact","32071 GLEN ST, WESTLAND, MI, 48186",95415189,"L"
171276,"32072 PASEO PARALLON","TEMECULA","CA",92592,33.473750292,-117.098855592,276,"32072 PASEO PARALLON, TEMECULA, CA, 92592","Match","Non_Exact","32072 PSO PARALLON, TEMECULA, CA, 92592",195081583,"R"
171277,"32075 LINDENBERGER ROAD","MENIFEE","CA",92584,33.6534283840001,-117.145378442,277,"32075 LINDENBERGER ROAD, MENIFEE, CA, 92584","Match","Exact","32075 LINDENBERGER RD, MENIFEE, CA, 92584",637399860,"R"
171278,"32075 VIA CARLOS","SAN JUAN CAPISTRANO","CA",92675,33.497077446,-117.677116143,278,"32075 VIA CARLOS, SAN JUAN CAPISTRANO, CA, 92675","Match","Exact","32075 VIA CARLOS, SAN JUAN CAPISTRANO, CA, 92675",144072143,"R"
171279,"3208 1ST ST N","FARGO","ND",58102,46.919656816,-96.778082605,279,"3208 1ST ST N, FARGO, ND, 58102","Match","Exact","3208 1ST ST N, FARGO, ND, 58102",151446006,"L"
171280,"3208 92ND ST","URBANDALE","IA",50322,41.6243147500001,-93.7443373519999,280,"3208 92ND ST, URBANDALE, IA, 50322","Match","Exact","3208 92ND ST, URBANDALE, IA, 50322",65776133,"L"
171281,"3208 AUGUSTA DRIVE","BOZEMAN","MT",59715,45.711067691,-111.030022169,281,"3208 AUGUSTA DRIVE, BOZEMAN, MT, 59715","Match","Exact","3208 AUGUSTA DR, BOZEMAN, MT, 59715",163535109,"L"
171282,"3208 CHIQUITA BLVD S","CAPE CORAL","FL",33914,NA,NA,282,"3208 CHIQUITA BLVD S, CAPE CORAL, FL, 33914","No_Match",NA,NA,NA,NA
171283,"3208 COOKS LANDING LANE","HERMITAGE","TN",37076,36.1415092010001,-86.590983685,283,"3208 COOKS LANDING LANE, HERMITAGE, TN, 37076","Match","Exact","3208 COOKS LANDING LN, HERMITAGE, TN, 37076",642350656,"R"
171284,"3208 DUCK POND COURT","KINSTON","NC",28504,35.298622697,-77.69867966,284,"3208 DUCK POND COURT, KINSTON, NC, 28504","Match","Exact","3208 DUCK POND CT, KINSTON, NC, 28504",13884768,"L"
171285,"3208 E 85TH PL","TULSA","OK",74137,36.03958255,-95.941083863,285,"3208 E 85TH PL, TULSA, OK, 74137","Match","Exact","3208 E 85TH PL, TULSA, OK, 74137",166461034,"R"
171286,"3208 EL MORRO RD","EL PASO","TX",79904,31.852568558,-106.460511258,286,"3208 EL MORRO RD, EL PASO, TX, 79904","Match","Exact","3208 EL MORRO RD, EL PASO, TX, 79904",189413138,"R"
171287,"3208 EL MORRO ROAD","EL PASO","TX",79904,31.852568558,-106.460511258,287,"3208 EL MORRO ROAD, EL PASO, TX, 79904","Match","Exact","3208 EL MORRO RD, EL PASO, TX, 79904",189413138,"R"
171288,"3208 FAIRWAY DRIVE","CAMERON PARK","CA",95682,38.679774181,-120.990185068,288,"3208 FAIRWAY DRIVE, CAMERON PARK, CA, 95682","Match","Exact","3208 FAIRWAY DR, CAMERON PARK, CA, 95682",133025264,"L"
171289,"3208 FESTIVAL DRIVE","MARGATE","FL",33063,26.268606424,-80.198204311,289,"3208 FESTIVAL DRIVE, MARGATE, FL, 33063","Match","Exact","3208 FESTIVAL DR, MARGATE, FL, 33063",114787578,"R"
171290,"3208 FISHER RD","LANSDALE","PA",19446,40.2146191250001,-75.3444439049999,290,"3208 FISHER RD, LANSDALE, PA, 19446","Match","Exact","3208 FISHER RD, LANSDALE, PA, 19446",135112741,"R"
171291,"3208 FOREST BROOK ROAD","LYNCHBURG","VA",24501,37.4100187070001,-79.211659702,291,"3208 FOREST BROOK ROAD, LYNCHBURG, VA, 24501","Match","Exact","3208 FOREST BROOK RD, LYNCHBURG, VA, 24501",62623055,"R"
171292,"3208 GRANDEUR RD","CHARLOTTE","NC",28269,35.3830509270001,-80.749680949,292,"3208 GRANDEUR RD, CHARLOTTE, NC, 28269","Match","Exact","3208 GRANDEUR RD, CHARLOTTE, NC, 28269",70605178,"R"
171293,"3208 GRANT WAY","EAST POINT","GA",30344,33.6665687780001,-84.4902970589999,293,"3208 GRANT WAY, EAST POINT, GA, 30344","Match","Exact","3208 GRANT WAY, EAST POINT, GA, 30344",636750830,"R"
171294,"3208 HAMPSHIRE AVE N","CRYSTAL","MN",55427,45.014949427,-93.365110531,294,"3208 HAMPSHIRE AVE N, CRYSTAL, MN, 55427","Match","Exact","3208 HAMPSHIRE AVE N, CRYSTAL, MN, 55427",43617778,"R"
171295,"3208 HARMONY LANE","MISSION","TX",78574,NA,NA,295,"3208 HARMONY LANE, MISSION, TX, 78574","No_Match",NA,NA,NA,NA
171296,"3208 HARMONY LN","MISSION","TX",78574,NA,NA,296,"3208 HARMONY LN, MISSION, TX, 78574","No_Match",NA,NA,NA,NA
171297,"3208 HARRISON ROAD","MISHAWAKA","IN",46544,NA,NA,297,"3208 HARRISON ROAD, MISHAWAKA, IN, 46544","No_Match",NA,NA,NA,NA
171298,"3208 INDIANA COURT","FORT PIERCE","FL",34947,27.438775865,-80.356654149,298,"3208 INDIANA COURT, FORT PIERCE, FL, 34947","Match","Exact","3208 INDIANA CT, FORT PIERCE, FL, 34947",120148714,"R"
171299,"3208 IRONWOOD AVE","PORT ST LUCIE","FL",34952,27.311798712,-80.2923317569999,299,"3208 IRONWOOD AVE, PORT ST LUCIE, FL, 34952","Match","Exact","3208 IRONWOOD AVE, PORT ST LUCIE, FL, 34952",120173476,"R"
171300,"3208 JANET ROAD","SILVER SPRING","MD",20906,39.0679800780001,-77.064875661,300,"3208 JANET ROAD, SILVER SPRING, MD, 20906","Match","Exact","3208 JANET RD, SILVER SPRING, MD, 20906",62060726,"L"
171301,"3208 KAYLOR ROAD","LUCAS","OH",44843,40.6944844610001,-82.3935738329999,301,"3208 KAYLOR ROAD, LUCAS, OH, 44843","Match","Exact","3208 KAYLOR RD, LUCAS, OH, 44843",207207991,"L"
171302,"3208 LAYTON PLOACE DR","PEARLAND","TX",77581,29.5510592150001,-95.272141899,302,"3208 LAYTON PLOACE DR, PEARLAND, TX, 77581","Match","Non_Exact","3208 LAYTON PLACE DR, PEARLAND, TX, 77581",632046554,"L"
171303,"3208 MALT","LOVELA","CO",80538,NA,NA,303,"3208 MALT, LOVELA, CO, 80538","No_Match",NA,NA,NA,NA
171304,"3208 MARCELLUS CIRCLE","TAMPA","FL",33609,27.9402442890001,-82.496550171,304,"3208 MARCELLUS CIRCLE, TAMPA, FL, 33609","Match","Exact","3208 MARCELLUS CIR, TAMPA, FL, 33609",624387843,"L"
171305,"3208 MORTON LANE","GREENVILLE","NC",27834,35.593406364,-77.416611228,305,"3208 MORTON LANE, GREENVILLE, NC, 27834","Match","Exact","3208 MORTON LN, GREENVILLE, NC, 27834",80009496,"R"
171306,"3208 N 1250 W","PLEASANT VIEW","UT",84414,41.322480055,-112.011898586,306,"3208 N 1250 W, PLEASANT VIEW, UT, 84414","Match","Exact","3208 N 1250 W, PLEASANT VIEW, UT, 84414",615189035,"R"
171307,"3208 N HOLLOWAY AVE","BETHANY","OK",73107,35.5031186210001,-97.634410402,307,"3208 N HOLLOWAY AVE, BETHANY, OK, 73107","Match","Non_Exact","3208 N HOLLOWAY AVE, BETHANY, OK, 73008",606155882,"R"
171308,"3208 NORTH OLD STAGE RD","MOUNT SHASTA","CA",96067,41.3437149600001,-122.355917386,308,"3208 NORTH OLD STAGE RD, MOUNT SHASTA, CA, 96067","Match","Exact","3208 N OLD STAGE RD, MOUNT SHASTA, CA, 96067",113249970,"R"
171309,"3208 OREGONIA ROAD","LEBANON","OH",45036,39.4444488010001,-84.1392179549999,309,"3208 OREGONIA ROAD, LEBANON, OH, 45036","Match","Exact","3208 OREGONIA RD, LEBANON, OH, 45036",159026199,"R"
171310,"3208 OTIS STREET","MOUNT RAINIER","MD",20712,38.9350705370001,-76.963045107,310,"3208 OTIS STREET, MOUNT RAINIER, MD, 20712","Match","Exact","3208 OTIS ST, MOUNT RAINIER, MD, 20712",76304698,"L"
171311,"3208 PINKNEY RD","BALTIMORE","MD",21215,39.362046515,-76.689358108,311,"3208 PINKNEY RD, BALTIMORE, MD, 21215","Match","Exact","3208 PINKNEY RD, BALTIMORE, MD, 21215",206404471,"R"
171312,"3208 RAPID FALLS ROAD","MORRISVILLE","NC",27560,35.8334112160001,-78.852261762,312,"3208 RAPID FALLS ROAD, MORRISVILLE, NC, 27560","Match","Exact","3208 RAPID FALLS RD, MORRISVILLE, NC, 27560",630407231,"R"
171313,"3208 RICHARDS LANE SUITE A","SANTA FE","NM",87506,35.657094414,-105.999515663,313,"3208 RICHARDS LANE SUITE A, SANTA FE, NM, 87506","Match","Non_Exact","3208 RICHARDS LN, SANTA FE, NM, 87507",169416718,"R"
171314,"3208 S GREELEY HIGHWAY","CHEYENNE","WY",82007,41.0888200960001,-104.800337881,314,"3208 S GREELEY HIGHWAY, CHEYENNE, WY, 82007","Match","Exact","3208 S GREELEY HWY, CHEYENNE, WY, 82007",640053656,"R"
171315,"3208 SPRUCE STREET","LA GRANDE","OR",97850,45.3414449470001,-118.086492635,315,"3208 SPRUCE STREET, LA GRANDE, OR, 97850","Match","Non_Exact","3208 N SPRUCE ST, LA GRANDE, OR, 97850",138865637,"L"
171316,"3208 STAPLEFORD CHASE","VIRGINIA BEACH","VA",23452,36.872524932,-76.076021767,316,"3208 STAPLEFORD CHASE, VIRGINIA BEACH, VA, 23452","Match","Exact","3208 STAPLEFORD CHASE, VA BCH, VA, 23452",122276199,"L"
171317,"3208 STEELE CREEK DR","BRISTOL","TN",37620,36.57790644,-82.2314507679999,317,"3208 STEELE CREEK DR, BRISTOL, TN, 37620","Match","Exact","3208 STEELE CREEK DR, BRISTOL, TN, 37620",127871548,"L"
171318,"3208 SYKESVILLE ROAD","WESTMINSTER","MD",21157,39.487705797,-76.9634952819999,318,"3208 SYKESVILLE ROAD, WESTMINSTER, MD, 21157","Match","Exact","3208 SYKESVILLE RD, WESTMINSTER, MD, 21157",61782718,"L"
171319,"3208 TERRA DRIVE","COLUMBUS","OH",43228,40.002308908,-83.095462361,319,"3208 TERRA DRIVE, COLUMBUS, OH, 43228","Match","Exact","3208 TERRA DR, COLUMBUS, OH, 43228",218652210,"R"
171320,"3208 THATCHER AVENUE","MARINA DEL REY","CA",90292,33.986572972,-118.448320806,320,"3208 THATCHER AVENUE, MARINA DEL REY, CA, 90292","Match","Exact","3208 THATCHER AVE, MARINA DEL REY, CA, 90292",141577135,"L"
171321,"3208 UNDERWOOD DRIVE","WHITELAND","IN",46184,39.5739788970001,-86.1246892189999,321,"3208 UNDERWOOD DRIVE, WHITELAND, IN, 46184","Match","Exact","3208 UNDERWOOD DR, WHITELAND, IN, 46184",641441010,"R"
171322,"3208 W GADSDEN STREET","PENSACOLA","FL",32505,30.4202458300001,-87.2538060099999,322,"3208 W GADSDEN STREET, PENSACOLA, FL, 32505","Match","Exact","3208 W GADSDEN ST, PENSACOLA, FL, 32505",93215138,"R"
171323,"3208 W LAKE MARY BLVD SUITE 1720","LAKE MARY","FL",32746,28.7561335190001,-81.334672228,323,"3208 W LAKE MARY BLVD SUITE 1720, LAKE MARY, FL, 32746","Match","Non_Exact","3208 W LAKE MARY BLVD, LAKE MARY, FL, 32746",629621206,"L"
171324,"3208 WASHINGTON AVENUE","HOUSTON","TX",77007,29.769059525,-95.392732984,324,"3208 WASHINGTON AVENUE, HOUSTON, TX, 77007","Match","Exact","3208 WASHINGTON AVE, HOUSTON, TX, 77007",641661481,"R"
171325,"3208 WILD OAK TRAIL","GRAPEVINE","TX",76051,32.89525337,-97.11391746,325,"3208 WILD OAK TRAIL, GRAPEVINE, TX, 76051","Match","Exact","3208 WILD OAK TRL, GRAPEVINE, TX, 76051",618010152,"R"
171326,"3208-C E COLONIAL DRIVE 288","ORLANDO","FL",32803,28.553246716,-81.3435494839999,326,"3208-C E COLONIAL DRIVE 288, ORLANDO, FL, 32803","Match","Exact","3208 E COLONIAL DR, ORLANDO, FL, 32803",638651831,"R"
171327,"32081","EUCLID","OH",44132,NA,NA,327,"32081, EUCLID, OH, 44132","No_Match",NA,NA,NA,NA
171328,"32084 E STATE HWY 76","ROCKY COMFORT","MO",64861,36.7480609460001,-94.0754386519999,328,"32084 E STATE HWY 76, ROCKY COMFORT, MO, 64861","Match","Exact","32084 STATE HWY 76, ROCKY COMFORT, MO, 64861",49432413,"R"
171329,"32088 HIGHWAY 11","BURAS","LA",70041,29.4103592060001,-89.610961451,329,"32088 HIGHWAY 11, BURAS, LA, 70041","Match","Exact","32088 HWY 11, BURAS, LA, 70041",614425176,"L"
171330,"3209 217TH PLACE SE","BOTHELL","WA",98021,47.8006516820001,-122.18955133,330,"3209 217TH PLACE SE, BOTHELL, WA, 98021","Match","Exact","3209 217TH PL SE, BOTHELL, WA, 98021",636783724,"L"
171331,"3209 3RD AVENUE","RICHMOND","VA",23222,37.5721294080001,-77.414975887,331,"3209 3RD AVENUE, RICHMOND, VA, 23222","Match","Exact","3209 3RD AVE, RICHMOND, VA, 23222",201548175,"R"
171332,"3209 80TH AVE NORTH","BROOKLYN PARK MINNEA","MN",55443,45.100483196,-93.322493761,332,"3209 80TH AVE NORTH, BROOKLYN PARK MINNEA, MN, 55443","Match","Non_Exact","3209 80TH AVE N, BROOKLYN PARK, MN, 55443",43852187,"L"
171333,"3209 CHESWICK DRIVE","GREENSBORO","NC",27410,36.1258361530001,-79.920613728,333,"3209 CHESWICK DRIVE, GREENSBORO, NC, 27410","Match","Exact","3209 CHESWICK DR, GREENSBORO, NC, 27410",634049740,"R"
171334,"3209 CR 919","BURLESON","TX",76028,32.526885355,-97.407756992,334,"3209 CR 919, BURLESON, TX, 76028","Match","Exact","3209 CO RD 919, BURLESON, TX, 76028",634282024,"L"
171335,"3209 DEKALB BLVD","EAST NORRITON","PA",19401,40.1468363700001,-75.309097524,335,"3209 DEKALB BLVD, EAST NORRITON, PA, 19401","Match","Exact","3209 DEKALB BLVD, EAST NORRITON, PA, 19401",135075914,"R"
171336,"3209 EDGEWOOD AVE S","ST. LOUIS PARK","MN",55426,44.9457008730001,-93.361735744,336,"3209 EDGEWOOD AVE S, ST. LOUIS PARK, MN, 55426","Match","Exact","3209 EDGEWOOD AVE S, SAINT LOUIS PARK, MN, 55426",43625574,"L"
171337,"3209 FIR AVE","ALAMEDA","CA",94502,37.733634189,-122.242996099,337,"3209 FIR AVE, ALAMEDA, CA, 94502","Match","Exact","3209 FIR AVE, ALAMEDA, CA, 94502",125007147,"L"
171338,"3209 FOX HILL RD","SAINT CHARLES","MO",63301,38.8183927370001,-90.488737062,338,"3209 FOX HILL RD, SAINT CHARLES, MO, 63301","Match","Exact","3209 FOX HILL RD, SAINT CHARLES, MO, 63301",100020638,"L"
171339,"3209 HAUGHTON DRIVE","TOLEDO","OH",43606,41.680086815,-83.606475055,339,"3209 HAUGHTON DRIVE, TOLEDO, OH, 43606","Match","Exact","3209 HAUGHTON DR, TOLEDO, OH, 43606",33933308,"L"
171340,"3209 LOCK ERNE AVENUE","KANNAPOLIS","NC",28081,35.463060839,-80.657037804,340,"3209 LOCK ERNE AVENUE, KANNAPOLIS, NC, 28081","Match","Exact","3209 LOCK ERNE AVE, KANNAPOLIS, NC, 28081",618563518,"L"
171341,"3209 MANASSAS RUN SW","DECATUR","AL",35603,34.548853948,-87.016437981,341,"3209 MANASSAS RUN SW, DECATUR, AL, 35603","Match","Exact","3209 MANASSAS RUN SW, DECATUR, AL, 35603",97127945,"R"
171342,"3209 MARTIN ROAD","PLEASANT PLAIN","OH",45162,39.238595461,-84.0452797679999,342,"3209 MARTIN ROAD, PLEASANT PLAIN, OH, 45162","Match","Exact","3209 MARTIN RD, PLEASANT PLAIN, OH, 45162",118467192,"R"
171343,"3209 MARY FRANCES","SHREVEPORT","LA",71119,32.4921789520001,-93.868677138,343,"3209 MARY FRANCES, SHREVEPORT, LA, 71119","Match","Non_Exact","3209 MARY FRANCES DR, SHREVEPORT, LA, 71119",57429930,"L"
171344,"3209 N 36TH TER","ST JOSEPH","MO",64506,39.7984023540001,-94.804861944,344,"3209 N 36TH TER, ST JOSEPH, MO, 64506","Match","Exact","3209 N 36TH TER, SAINT JOSEPH, MO, 64506",15962509,"R"
171345,"3209 N ALAMEDA ST","COMPTON","CA",90220,33.9222475280001,-118.224437146,345,"3209 N ALAMEDA ST, COMPTON, CA, 90220","Match","Non_Exact","3209 N ALAMEDA ST, COMPTON, CA, 90222",625009579,"L"
171346,"3209 N AUSTRALIAN AVE","WEST PALM BEACH","FL",33407,26.742816455,-80.069843738,346,"3209 N AUSTRALIAN AVE, WEST PALM BEACH, FL, 33407","Match","Exact","3209 N AUSTRALIAN AVE, WEST PALM BEACH, FL, 33407",115277183,"L"
171347,"3209 N PANAMA AVE","CHICAGO","IL",60634,41.9380326040001,-87.828768833,347,"3209 N PANAMA AVE, CHICAGO, IL, 60634","Match","Exact","3209 N PANAMA AVE, CHICAGO, IL, 60634",605254171,"R"
171348,"3209 NANDINA STREET","MCKINNEY","TX",75071,33.2218095970001,-96.654588372,348,"3209 NANDINA STREET, MCKINNEY, TX, 75071","Match","Exact","3209 NANDINA ST, MCKINNEY, TX, 75071",619905190,"R"
171349,"3209 NORTH CHARLES STREET","BALTIMORE","MD",21218,39.3274376250001,-76.6174168159999,349,"3209 NORTH CHARLES STREET, BALTIMORE, MD, 21218","Match","Exact","3209 N CHARLES ST, BALTIMORE, MD, 21218",637446215,"R"
171350,"3209 PREBLE ST","BREMERTON","WA",98312,47.556430242,-122.65887834,350,"3209 PREBLE ST, BREMERTON, WA, 98312","Match","Exact","3209 PREBLE ST, BREMERTON, WA, 98312",616898588,"L"
171351,"3209 RIVERHEAD DRIVE","DELTONA","FL",32738,28.941891766,-81.174803309,351,"3209 RIVERHEAD DRIVE, DELTONA, FL, 32738","Match","Exact","3209 RIVERHEAD DR, DELTONA, FL, 32738",94504554,"L"
171352,"3209 S OKLAHOMA AVE","OKLAHOMA CITY","OK",73129,35.433104803,-97.5102800939999,352,"3209 S OKLAHOMA AVE, OKLAHOMA CITY, OK, 73129","Match","Exact","3209 S OKLAHOMA AVE, OKLAHOMA CITY, OK, 73129",100403781,"R"
171353,"3209 S RHODES AVE","CHICAGO","IL",60616,41.835509232,-87.61342458,353,"3209 S RHODES AVE, CHICAGO, IL, 60616","Match","Exact","3209 S RHODES AVE, CHICAGO, IL, 60616",111770346,"L"
171354,"3209 SAN SEBASTIAN DRIVE","CARROLLTON","TX",75006,32.9575171320001,-96.8505870829999,354,"3209 SAN SEBASTIAN DRIVE, CARROLLTON, TX, 75006","Match","Exact","3209 SAN SEBASTIAN DR, CARROLLTON, TX, 75006",102897345,"L"
171355,"3209 SENNADALE LANE","NASHVILLE","TN",37207,36.2367744740001,-86.775125488,355,"3209 SENNADALE LANE, NASHVILLE, TN, 37207","Match","Exact","3209 SENNADALE LN, NASHVILLE, TN, 37207",97186568,"L"
171356,"3209 SMITH VALLEY RD STE 146","GREENWOOD","IN",46142,39.605798866,-86.1631834139999,356,"3209 SMITH VALLEY RD STE 146, GREENWOOD, IN, 46142","Match","Non_Exact","3209 W SMITH VALLEY RD, GREENWOOD, IN, 46142",617333825,"R"
171357,"3209 STEINER AVE SW","BIRMINGHAM","AL",35221,33.4726628760001,-86.88479618,357,"3209 STEINER AVE SW, BIRMINGHAM, AL, 35221","Match","Exact","3209 STEINER AVE SW, BIRMINGHAM, AL, 35221",81558633,"L"
171358,"3209 THICKET DR","PINE BLUFF","AR",71603,34.1436417080001,-92.035231462,358,"3209 THICKET DR, PINE BLUFF, AR, 71603","Match","Exact","3209 THICKET DR, PINE BLUFF, AR, 71603",2554210,"L"
171359,"3209 TIMBERVIEW DR","CORINTH","TX",76210,33.1386424090001,-97.054446086,359,"3209 TIMBERVIEW DR, CORINTH, TX, 76210","Match","Exact","3209 TIMBERVIEW DR, CORINTH, TX, 76210",103345971,"L"
171360,"3209 VALLEY FOREST DRIVE","UPPER MARLBORO","MD",20772,38.8450705870001,-76.834843372,360,"3209 VALLEY FOREST DRIVE, UPPER MARLBORO, MD, 20772","Match","Exact","3209 VALLEY FOREST DR, UPPER MARLBORO, MD, 20772",635287887,"R"
171361,"3209 VIRGINIA  AVENUE","FORT PIERCE","FL",34981,NA,NA,361,"3209 VIRGINIA  AVENUE, FORT PIERCE, FL, 34981","No_Match",NA,NA,NA,NA
171362,"3209 W SMITH VALLEY RD STE106","GREENWOOD","IN",46181,NA,NA,362,"3209 W SMITH VALLEY RD STE106, GREENWOOD, IN, 46181","No_Match",NA,NA,NA,NA
171363,"3209 WEST 76TH STREET SUITE 300","EDINA","MN",55435,44.865511332,-93.3201115689999,363,"3209 WEST 76TH STREET SUITE 300, EDINA, MN, 55435","Match","Exact","3209 W 76TH ST, EDINA, MN, 55435",640676148,"L"
171364,"32095 HIDDEN HIGHLAND ROAD","AGOURA HILLS","CA",91301,34.111463159,-118.817385248,364,"32095 HIDDEN HIGHLAND ROAD, AGOURA HILLS, CA, 91301","Match","Exact","32095 HIDDEN HIGHLAND RD, AGOURA HILLS, CA, 91301",142784191,"L"
171365,"320A CHARLES H DIMMOCK PKWY SUITE 4","COLONIAL HEIGHTS","VA",23834,37.2488329930001,-77.383629075,365,"320A CHARLES H DIMMOCK PKWY SUITE 4, COLONIAL HEIGHTS, VA, 23834","Match","Exact","320 CHARLES H DIMMOCK PKWY, COLONIAL HEIGHTS, VA, 23834",201634550,"L"
171366,"321 - 19TH AVENUE SOUTH-SUITE 3-300","MINNEAPOLIS","MN",55455,NA,NA,366,"321 - 19TH AVENUE SOUTH-SUITE 3-300, MINNEAPOLIS, MN, 55455","No_Match",NA,NA,NA,NA
171367,"321 10TH AVENUE NE","LONSDALE","MN",55046,NA,NA,367,"321 10TH AVENUE NE, LONSDALE, MN, 55046","No_Match",NA,NA,NA,NA
171368,"321 10TH STREET","HUNTINGTON BEACH","CA",92648,33.6626178020001,-118.004838273,368,"321 10TH STREET, HUNTINGTON BEACH, CA, 92648","Match","Exact","321 10TH ST, HUNTINGTON BEACH, CA, 92648",144019946,"L"
171369,"321 11TH STREET","RAYMOND","WA",98577,46.686183161,-123.724020327,369,"321 11TH STREET, RAYMOND, WA, 98577","Match","Exact","321 11TH ST, RAYMOND, WA, 98577",175997623,"R"
171370,"321 14TH STREET","BURLINGTON","CO",80807,39.3037350540001,-102.268043231,370,"321 14TH STREET, BURLINGTON, CO, 80807","Match","Exact","321 14TH ST, BURLINGTON, CO, 80807",132236580,"L"
171371,"321 19TH AVE","MINNEAPOLIS","MN",55414,NA,NA,371,"321 19TH AVE, MINNEAPOLIS, MN, 55414","No_Match",NA,NA,NA,NA
171372,"321 280TH AVE","LITTLE YORK","IL",61453,41.0385783340001,-90.720652837,372,"321 280TH AVE, LITTLE YORK, IL, 61453","Match","Exact","321 280TH AVE, LITTLE YORK, IL, 61453",5500696,"L"
171373,"321 5TH AVENUE NW APT 3","ROCHESTER","MN",55901,44.0265083470001,-92.469535208,373,"321 5TH AVENUE NW APT 3, ROCHESTER, MN, 55901","Match","Exact","321 5TH AVE NW, ROCHESTER, MN, 55901",30552775,"L"
171374,"321 5TH ST 2","JERSEY CITY","NJ",7302,40.7249952390001,-74.0480629959999,374,"321 5TH ST 2, JERSEY CITY, NJ, 7302","Match","Exact","321 5TH ST, JERSEY CITY, NJ, 07302",59605909,"L"
171375,"321 6TH AVE SE","EPHRATA","WA",98823,47.30902695,-119.547402613,375,"321 6TH AVE SE, EPHRATA, WA, 98823","Match","Exact","321 6TH AVE SE, EPHRATA, WA, 98823",157086953,"L"
171376,"321 7TH STREET","SUGAR LAND","TX",77498,29.628641015,-95.630408264,376,"321 7TH STREET, SUGAR LAND, TX, 77498","Match","Exact","321 SEVENTH ST, SUGAR LAND, TX, 77498",78266819,"L"
171377,"321 A WEST CHEROKEE","ENID","OK",73701,36.3942791280001,-97.881843762,377,"321 A WEST CHEROKEE, ENID, OK, 73701","Match","Non_Exact","321 W CHEROKEE AVE, ENID, OK, 73701",154083368,"L"
171378,"321 ADELPHI ST","BROOKLYN","NY",11205,40.6879586480001,-73.97081794,378,"321 ADELPHI ST, BROOKLYN, NY, 11205","Match","Exact","321 ADELPHI ST, BROOKLYN, NY, 11205",642654358,"L"
171379,"321 ANDERSON ROAD","KOP","PA",19406,40.1080645380001,-75.36288158,379,"321 ANDERSON ROAD, KOP, PA, 19406","Match","Non_Exact","321 ANDERSON RD, KING OF PRUSSIA, PA, 19406",135120357,"R"
171380,"321 ANDERSON ST","YREKA","CA",96097,41.7192749550001,-122.644064434,380,"321 ANDERSON ST, YREKA, CA, 96097","Match","Exact","321 ANDERSON ST, YREKA, CA, 96097",613247663,"R"
171381,"321 ARCH STREET STE 104","MEADVILLE","PA",16335,41.6362818740001,-80.150497797,381,"321 ARCH STREET STE 104, MEADVILLE, PA, 16335","Match","Exact","321 ARCH ST, MEADVILLE, PA, 16335",98572345,"R"
171382,"321 ASCOT WAY","DAWSON","GA",39842,31.623192338,-84.352506634,382,"321 ASCOT WAY, DAWSON, GA, 39842","Match","Exact","321 ASCOT WAY, DAWSON, GA, 39842",89117127,"L"
171383,"321 B MAXEY RD","HOUSTON","TX",77013,29.7939472360001,-95.218721774,383,"321 B MAXEY RD, HOUSTON, TX, 77013","Match","Exact","321 MAXEY RD, HOUSTON, TX, 77013",96096268,"L"
171384,"321 BACKLASH DR","MABANK","TX",75156,32.3484104020001,-96.1495580279999,384,"321 BACKLASH DR, MABANK, TX, 75156","Match","Non_Exact","321 BACKLASH, MABANK, TX, 75156",125793371,"L"
171385,"321 BALDWIN AVENUE","CHARLOTTE","NC",28204,35.210944764,-80.830430754,385,"321 BALDWIN AVENUE, CHARLOTTE, NC, 28204","Match","Exact","321 BALDWIN AVE, CHARLOTTE, NC, 28204",70487903,"L"
171386,"321 BARE MOUNTAIN LN","ELK","WA",99009,48.0672822940001,-117.261031509,386,"321 BARE MOUNTAIN LN, ELK, WA, 99009","Match","Exact","321 BARE MTN LN, ELK, WA, 99009",635735869,"L"
171387,"321 BELMONT ROAD","GRAND FORK","ND",58201,47.9191812460001,-97.028688851,387,"321 BELMONT ROAD, GRAND FORK, ND, 58201","Match","Non_Exact","321 BELMONT RD, GRAND FORKS, ND, 58201",171276933,"L"
171388,"321 BERGEN ST","NEWARK","NJ",7103,40.7347509410001,-74.194833521,388,"321 BERGEN ST, NEWARK, NJ, 7103","Match","Exact","321 BERGEN ST, NEWARK, NJ, 07103",63465874,"R"
171389,"321 BIENVILLE ST","NATCHITOCHES","LA",71457,31.752014736,-93.081626568,389,"321 BIENVILLE ST, NATCHITOCHES, LA, 71457","Match","Exact","321 BIENVILLE ST, NATCHITOCHES, LA, 71457",13349924,"L"
171390,"321 BLUE HOLE RD","BEEBE","AR",72012,35.171083713,-91.9019433729999,390,"321 BLUE HOLE RD, BEEBE, AR, 72012","Match","Exact","321 BLUE HOLE RD, BEEBE, AR, 72012",605776297,"R"
171391,"321 BOLKA AVENUE","MICHIGAN CITY","IN",46360,41.6962618920001,-86.905984202,391,"321 BOLKA AVENUE, MICHIGAN CITY, IN, 46360","Match","Exact","321 BOLKA AVE, MICHIGAN CITY, IN, 46360",15411299,"R"
171392,"321 BROADWAY 3RD FLOOR","NEW YORK","NY",10007,40.715869673,-74.004892636,392,"321 BROADWAY 3RD FLOOR, NEW YORK, NY, 10007","Match","Exact","321 BROADWAY, NEW YORK, NY, 10007",59660384,"L"
171393,"321 CAJON ST","REDLANDS","CA",92373,34.0515471850001,-117.179748252,393,"321 CAJON ST, REDLANDS, CA, 92373","Match","Exact","321 CAJON ST, REDLANDS, CA, 92373",144664444,"L"
171394,"321 CAMDEN ROAD","WADESBORO","NC",28170,34.9632281460001,-80.078813247,394,"321 CAMDEN ROAD, WADESBORO, NC, 28170","Match","Exact","321 CAMDEN RD, WADESBORO, NC, 28170",12781598,"R"
171395,"321 CEDAR BEND DRIVE","MIDWEST CITY","OK",73130,35.4685551920001,-97.36968681,395,"321 CEDAR BEND DRIVE, MIDWEST CITY, OK, 73130","Match","Exact","321 CEDAR BEND DR, MIDWEST CITY, OK, 73130",100451643,"R"
171396,"321 CEDAR SPRINGS LANE","WEATHERFORD","TX",76087,32.7005919590001,-97.7972028189999,396,"321 CEDAR SPRINGS LANE, WEATHERFORD, TX, 76087","Match","Exact","321 CEDAR SPRINGS LN, WEATHERFORD, TX, 76087",624583419,"L"
171397,"321 CENTER AVENUE","CURTIS","NE",69025,40.63125647,-100.515483379,397,"321 CENTER AVENUE, CURTIS, NE, 69025","Match","Non_Exact","321 CENTER AVE N, CURTIS, NE, 69025",162075784,"L"
171398,"321 CENTRE ST","PAWNEEE ROCK","KS",67567,NA,NA,398,"321 CENTRE ST, PAWNEEE ROCK, KS, 67567","No_Match",NA,NA,NA,NA
171399,"321 CHURCHILL DOWNS BLVD","DELAND","FL",32724,29.003190939,-81.277383803,399,"321 CHURCHILL DOWNS BLVD, DELAND, FL, 32724","Match","Exact","321 CHURCHILL DOWNS BLVD, DELAND, FL, 32724",627298139,"R"
171400,"321 CIRCLE DR","SALEM","IL",62881,38.636479788,-88.929416787,400,"321 CIRCLE DR, SALEM, IL, 62881","Match","Exact","321 CIRCLE DR, SALEM, IL, 62881",93039345,"L"
171401,"321 COLONIST PL","CAMERON","NC",28326,35.261172211,-79.0154808359999,401,"321 COLONIST PL, CAMERON, NC, 28326","Match","Exact","321 COLONIST PL, CAMERON, NC, 28326",638812148,"L"
171402,"321 COMMERCE CENTER DR","ST CLOUD","FL",34769,28.2587069590001,-81.31532147,402,"321 COMMERCE CENTER DR, ST CLOUD, FL, 34769","Match","Exact","321 COMMERCE CENTER DR, SAINT CLOUD, FL, 34769",627968895,"L"
171403,"321 COMMONWEALTH AVE","NEWTON","MA",2467,42.336308726,-71.1789741429999,403,"321 COMMONWEALTH AVE, NEWTON, MA, 2467","Match","Non_Exact","321 COMMONWEALTH AVE, BOSTON COLLEGE, MA, 02467",613846115,"L"
171404,"321 CR 842","BLUE MOUNTAIN","MS",38610,34.6800327070001,-89.0473066979999,404,"321 CR 842, BLUE MOUNTAIN, MS, 38610","Match","Exact","321 CO RD 842, BLUE MOUNTAIN, MS, 38610",76572654,"R"
171405,"321 CREEKSIDE RIDGE","WOODSTOCK","GA",30188,NA,NA,405,"321 CREEKSIDE RIDGE, WOODSTOCK, GA, 30188","No_Match",NA,NA,NA,NA
171406,"321 DECATUR ST","BROOKLYN","NY",11233,40.6817453640001,-73.930877074,406,"321 DECATUR ST, BROOKLYN, NY, 11233","Match","Exact","321 DECATUR ST, BROOKLYN, NY, 11233",59082793,"L"
171407,"321 DESOTO STREET","ALEXANDRIA","LA",71301,31.3117338910001,-92.445484924,407,"321 DESOTO STREET, ALEXANDRIA, LA, 71301","Match","Exact","321 DESOTO ST, ALEXANDRIA, LA, 71301",11781681,"L"
171408,"321 DEVILLE PLACE","WHITELAND","IN",46184,39.5627919890001,-86.09576122,408,"321 DEVILLE PLACE, WHITELAND, IN, 46184","Match","Exact","321 DEVILLE PL, WHITELAND, IN, 46184",114643918,"R"
171409,"321 DODGE DRIVE","VIRGINIA BEACH","VA",23452,36.8312266130001,-76.082018606,409,"321 DODGE DRIVE, VIRGINIA BEACH, VA, 23452","Match","Exact","321 DODGE DR, VA BCH, VA, 23452",122267445,"R"
171410,"321 DUNWOODY","JONESBORO","AR",72401,NA,NA,410,"321 DUNWOODY, JONESBORO, AR, 72401","No_Match",NA,NA,NA,NA
171411,"321 E 12 STREET","DES MOINES","IA",50319,NA,NA,411,"321 E 12 STREET, DES MOINES, IA, 50319","Tie",NA,NA,NA,NA
171412,"321 E 13TH STREET UNIT 14C","NEW YORK","NY",10003,40.731411183,-73.984835075,412,"321 E 13TH STREET UNIT 14C, NEW YORK, NY, 10003","Match","Non_Exact","321 E 13TH ST, NEW YORK, NY, 10003",59653725,"L"
171413,"321 E 41 STREET","PATTERSON","NJ",7054,NA,NA,413,"321 E 41 STREET, PATTERSON, NJ, 7054","No_Match",NA,NA,NA,NA
171414,"321 E CENTRAL AVE","ANDOVER","KS",67002,37.693993821,-97.132254702,414,"321 E CENTRAL AVE, ANDOVER, KS, 67002","Match","Exact","321 E CENTRAL AVE, ANDOVER, KS, 67002",32263694,"R"
171415,"321 E MAIN ST SUITE 316","BOZEMAN","MT",59715,NA,NA,415,"321 E MAIN ST SUITE 316, BOZEMAN, MT, 59715","Tie",NA,NA,NA,NA
171416,"321 E MAPLE DR","GLENWOOD","IL",60425,41.549452865,-87.6034378579999,416,"321 E MAPLE DR, GLENWOOD, IL, 60425","Match","Exact","321 MAPLE DR, GLENWOOD, IL, 60425",111784804,"L"
171417,"321 E MONTANA ST","PHILADELPHIA","PA",19119,40.054929331,-75.179203394,417,"321 E MONTANA ST, PHILADELPHIA, PA, 19119","Match","Exact","321 E MONTANA ST, PHILADELPHIA, PA, 19119",131395323,"L"
171418,"321 E PRICE STREET","PHILADELPHIA,","PA",19144,40.0398365630001,-75.172205774,418,"321 E PRICE STREET, PHILADELPHIA,, PA, 19144","Match","Exact","321 E PRICE ST, PHILADELPHIA, PA, 19144",131395787,"L"
171419,"321 EARLHAM DRIVE","TURLOCK","CA",95382,37.508764926,-120.852204871,419,"321 EARLHAM DRIVE, TURLOCK, CA, 95382","Match","Exact","321 EARLHAM DR, TURLOCK, CA, 95382",102594792,"R"
171420,"321 EAST 12TH STREET","GRINNELL","IA",50112,NA,NA,420,"321 EAST 12TH STREET, GRINNELL, IA, 50112","No_Match",NA,NA,NA,NA
171421,"321 EAST 5TH STREET","NEW YORK","NY",10003,40.726547688,-73.9883860689999,421,"321 EAST 5TH STREET, NEW YORK, NY, 10003","Match","Exact","321 E 5TH ST, NEW YORK, NY, 10003",59654040,"L"
171422,"321 EAST MAIN ST SUITE 300","BOZEMAN","MT",59715,45.6793101970001,-111.032555224,422,"321 EAST MAIN ST SUITE 300, BOZEMAN, MT, 59715","Match","Exact","321 E MAIN ST, BOZEMAN, MT, 59715",163498941,"L"
171423,"321 EAST MAIN ST","CAMPBELLSVILLE","KY",42718,37.34168928,-85.342727966,423,"321 EAST MAIN ST, CAMPBELLSVILLE, KY, 42718","Match","Exact","321 E MAIN ST, CAMPBELLSVILLE, KY, 42718",35241017,"L"
171424,"321 EAST MAIN STREET SUITE 324","BOZEMAN","MT",59715,45.6793101970001,-111.032555224,424,"321 EAST MAIN STREET SUITE 324, BOZEMAN, MT, 59715","Match","Exact","321 E MAIN ST, BOZEMAN, MT, 59715",163498941,"L"
171425,"321 EASTERN PARKWAY 4-D","BROOKLYN","NY",11238,40.6709592280001,-73.958279997,425,"321 EASTERN PARKWAY 4-D, BROOKLYN, NY, 11238","Match","Exact","321 EASTERN PKWY, BROOKLYN, NY, 11238",640853009,"R"
171426,"321 EASTERN ST A919","NEW HAVEN","CT",6513,41.316068955,-72.872807183,426,"321 EASTERN ST A919, NEW HAVEN, CT, 6513","Match","Exact","321 EASTERN ST, NEW HAVEN, CT, 06513",648708602,"R"
171427,"321 EASTERN STREET A-307","NEW HAVEN","CT",6513,41.316068955,-72.872807183,427,"321 EASTERN STREET A-307, NEW HAVEN, CT, 6513","Match","Exact","321 EASTERN ST, NEW HAVEN, CT, 06513",648708602,"R"
171428,"321 ELWOOD AVENUE","HAWTHORNE","NY",10532,41.1064213220001,-73.795267801,428,"321 ELWOOD AVENUE, HAWTHORNE, NY, 10532","Match","Exact","321 ELWOOD AVE, HAWTHORNE, NY, 10532",139722962,"L"
171429,"321 EMILY LN","BELL BUCKLE","TN",37020,35.6299887690001,-86.341358198,429,"321 EMILY LN, BELL BUCKLE, TN, 37020","Match","Exact","321 EMILY LN, BELL BUCKLE, TN, 37020",645583418,"L"
171430,"321 EVANS STREET  SUITE 102","GREENVILLE","NC",27858,35.612952637,-77.3725691559999,430,"321 EVANS STREET  SUITE 102, GREENVILLE, NC, 27858","Match","Non_Exact","321 S EVANS ST, GREENVILLE, NC, 27858",80012882,"L"
171431,"321 EVERSOLE DR","BOWLING GREEN","KY",42101,37.0385592210001,-86.442301786,431,"321 EVERSOLE DR, BOWLING GREEN, KY, 42101","Match","Exact","321 EVERSOLE DR, BOWLING GREEN, KY, 42101",28022934,"L"
171432,"321 FALLON CT","DEATSVILLE","AL",36022,32.511295788,-86.3923855629999,432,"321 FALLON CT, DEATSVILLE, AL, 36022","Match","Exact","321 FALLON CT, DEATSVILLE, AL, 36022",1378194,"L"
171433,"321 FARTHER LANE","VASS","NC",28394,35.186359026,-79.2992956539999,433,"321 FARTHER LANE, VASS, NC, 28394","Match","Exact","321 FARTHER LN, VASS, NC, 28394",653755731,"L"
171434,"321 FIRST ST APT B","BATAVIA","IL",60510,41.84836076,-88.3124604499999,434,"321 FIRST ST APT B, BATAVIA, IL, 60510","Match","Exact","321 1ST ST, BATAVIA, IL, 60510",119511820,"R"
171435,"321 FORREST AVE","SELMA","AL",36701,32.416066846,-87.042544102,435,"321 FORREST AVE, SELMA, AL, 36701","Match","Exact","321 FORREST AVE, SELMA, AL, 36701",1283718,"L"
171436,"321 GOLF CLUB ROAD","PLEASANT HILL","CA",94523,37.9714429100001,-122.06964739,436,"321 GOLF CLUB ROAD, PLEASANT HILL, CA, 94523","Match","Exact","321 GOLF CLUB RD, PLEASANT HILL, CA, 94523",192047874,"L"
171437,"321 GREENSPRING","SILVER SPRING","MD",20904,39.0833546650001,-77.004536631,437,"321 GREENSPRING, SILVER SPRING, MD, 20904","Match","Non_Exact","321 GREENSPRING LN, SILVER SPRING, MD, 20904",62094207,"R"
171438,"321 GREENWICH STREET","STEWARTSVILLE","NJ",8886,40.69345022,-75.112195088,438,"321 GREENWICH STREET, STEWARTSVILLE, NJ, 8886","Match","Exact","321 GREENWICH ST, STEWARTSVILLE, NJ, 08886",630941440,"L"
171439,"321 HAMILTON SUITE A","GENEVA","IL",60134,41.889036074,-88.30795604,439,"321 HAMILTON SUITE A, GENEVA, IL, 60134","Match","Non_Exact","321 HAMILTON ST, GENEVA, IL, 60134",119507829,"R"
171440,"321 HAY STREET","FAYETTEVILLE","NC",28301,35.0535691650001,-78.881199389,440,"321 HAY STREET, FAYETTEVILLE, NC, 28301","Match","Exact","321 HAY ST, FAYETTEVILLE, NC, 28301",640608346,"L"
171441,"321 HEDRICK DR","HENDERSON","NC",27537,36.40134885,-78.374273404,441,"321 HEDRICK DR, HENDERSON, NC, 27537","Match","Exact","321 HEDRICK DR, HENDERSON, NC, 27537",636030741,"R"
171442,"321 HIGH SCHOOL ROAD NE STE D3 292","BAINBRIDGE ISLAND","WA",98110,47.635755196,-122.518189397,442,"321 HIGH SCHOOL ROAD NE STE D3 292, BAINBRIDGE ISLAND, WA, 98110","Match","Exact","321 HIGH SCHOOL RD NE, BAINBRIDGE ISLAND, WA, 98110",187667158,"R"
171443,"321 HIGH SCHOOL ROAD NE STE D3 361","BAINBRIDGE ISLAND","WA",98110,47.635755196,-122.518189397,443,"321 HIGH SCHOOL ROAD NE STE D3 361, BAINBRIDGE ISLAND, WA, 98110","Match","Exact","321 HIGH SCHOOL RD NE, BAINBRIDGE ISLAND, WA, 98110",187667158,"R"
171444,"321 HIGHWAY 8","MORRISON","CO",80465,39.6467345410001,-105.193031857,444,"321 HIGHWAY 8, MORRISON, CO, 80465","Match","Non_Exact","321 STATE HWY 8, MORRISON, CO, 80465",177777204,"R"
171445,"321 HOLIDAY RD","COMFORT","TX",78013,29.9059614230001,-98.887292062,445,"321 HOLIDAY RD, COMFORT, TX, 78013","Match","Exact","321 HOLIDAY RD, COMFORT, TX, 78013",102753314,"R"
171446,"321 HOLLY DR","SPARTANBURG","SC",29301,34.9280959230001,-81.9745478579999,446,"321 HOLLY DR, SPARTANBURG, SC, 29301","Match","Exact","321 HOLLY DR, SPARTANBURG, SC, 29301",19530056,"L"
171447,"321 HUNTING LODGE ROAD","STORRS","CT",6268,41.8203375790001,-72.2845819349999,447,"321 HUNTING LODGE ROAD, STORRS, CT, 6268","Match","Exact","321 HUNTING LODGE RD, STORRS, CT, 06268",57000541,"L"
171448,"321 JAMESTOWN BLVD  APT 160188","ALTAMONTE SPRINGS","FL",32716,NA,NA,448,"321 JAMESTOWN BLVD  APT 160188, ALTAMONTE SPRINGS, FL, 32716","No_Match",NA,NA,NA,NA
171449,"321 JONES BLVD","POTTSTOWN","PA",19464,40.233018842,-75.551095167,449,"321 JONES BLVD, POTTSTOWN, PA, 19464","Match","Exact","321 JONES BLVD, POTTSTOWN, PA, 19464",135125117,"R"
171450,"321 KINGSTON AVE","BROOKLYN","NY",11213,40.6681857,-73.9423016659999,450,"321 KINGSTON AVE, BROOKLYN, NY, 11213","Match","Exact","321 KINGSTON AVE, BROOKLYN, NY, 11213",59079697,"L"
171451,"321 LAREDO STREET","SAN MARCOS","TX",78666,29.865393958,-97.9363434639999,451,"321 LAREDO STREET, SAN MARCOS, TX, 78666","Match","Exact","321 LAREDO ST, SAN MARCOS, TX, 78666",63826614,"L"
171452,"321 LAUREL AVE","NEWARK","DE",19711,39.705095987,-75.715625081,452,"321 LAUREL AVE, NEWARK, DE, 19711","Match","Exact","321 LAUREL AVE, NEWARK, DE, 19711",187277917,"L"
171453,"321 LAZY RIVER DRIVE","SHEPHERDSVILLE","KY",40165,38.011545643,-85.641940936,453,"321 LAZY RIVER DRIVE, SHEPHERDSVILLE, KY, 40165","Match","Exact","321 LAZY RIVER DR, SHEPHERDSVILLE, KY, 40165",47734977,"R"
171454,"321 LEWIS AVENUE","BROOKLYN","NY",11221,40.684676858,-73.935378694,454,"321 LEWIS AVENUE, BROOKLYN, NY, 11221","Match","Exact","321 LEWIS AVE, BROOKLYN, NY, 11221",59079268,"L"
171455,"321 LEWISVILLE LN","LEANDER","TX",78641,30.6312620890001,-97.853347723,455,"321 LEWISVILLE LN, LEANDER, TX, 78641","Match","Exact","321 LEWISVILLE LN, LEANDER, TX, 78641",648536428,"L"
171456,"321 LINDEN ST","WINNETKA","IL",60093,42.099826524,-87.733649013,456,"321 LINDEN ST, WINNETKA, IL, 60093","Match","Exact","321 LINDEN ST, WINNETKA, IL, 60093",111737923,"R"
171457,"321 LINDEN STREET","WINNETKA","IL",60093,42.099826524,-87.733649013,457,"321 LINDEN STREET, WINNETKA, IL, 60093","Match","Exact","321 LINDEN ST, WINNETKA, IL, 60093",111737923,"R"
171458,"321 LIVORNA HEIGHTS RD","ALAMO","CA",94507,37.871101665,-122.02441783,458,"321 LIVORNA HEIGHTS RD, ALAMO, CA, 94507","Match","Exact","321 LIVORNA HEIGHTS RD, ALAMO, CA, 94507",192100730,"L"
171459,"321 LONG MOUNTAIN ROAD","NEW MILFORD","CT",6776,41.6325090190001,-73.4504707259999,459,"321 LONG MOUNTAIN ROAD, NEW MILFORD, CT, 6776","Match","Exact","321 LONG MOUNTAIN RD, NEW MILFORD, CT, 06776",611472109,"L"
171460,"321 MACBRIDE RD","IOWA CITY","IA",52246,41.655687443,-91.569136701,460,"321 MACBRIDE RD, IOWA CITY, IA, 52246","Match","Exact","321 MACBRIDE RD, IOWA CITY, IA, 52246",84513784,"R"
171461,"321 MAGNOLIA LANE","DALEVILLE","VA",24083,37.440679806,-79.893114833,461,"321 MAGNOLIA LANE, DALEVILLE, VA, 24083","Match","Exact","321 MAGNOLIA LN, DALEVILLE, VA, 24083",62459933,"L"
171462,"321 MAIN ST SUITE 1403","WAKEFIELD","MA",1880,42.504888141,-71.0713725539999,462,"321 MAIN ST SUITE 1403, WAKEFIELD, MA, 1880","Match","Exact","321 MAIN ST, WAKEFIELD, MA, 01880",87115290,"R"
171463,"321 MAIN STREET","HULMEVILLE","PA",19047,40.1413137580001,-74.9079012879999,463,"321 MAIN STREET, HULMEVILLE, PA, 19047","Match","Exact","321 MAIN ST, HULMEVILLE, PA, 19047",647696655,"L"
171464,"321 MAIN STREET","UTICA","NY",13501,43.1038944250001,-75.2238145219999,464,"321 MAIN STREET, UTICA, NY, 13501","Match","Exact","321 MAIN ST, UTICA, NY, 13501",171531431,"L"
171465,"321 MAPLE STREET PMB 560","PERTH AMBOY","NJ",8861,40.5108804010001,-74.271350589,465,"321 MAPLE STREET PMB 560, PERTH AMBOY, NJ, 8861","Match","Exact","321 MAPLE ST, PERTH AMBOY, NJ, 08861",60281215,"L"
171466,"321 MARSHALL STREET","PHILLIPSBURG","NJ",8865,40.6935708550001,-75.18520344,466,"321 MARSHALL STREET, PHILLIPSBURG, NJ, 8865","Match","Exact","321 MARSHALL ST, PHILLIPSBURG, NJ, 08865",98087268,"R"
171467,"321 MAYHILL STREET","SADDLE BROOK","NJ",7993,NA,NA,467,"321 MAYHILL STREET, SADDLE BROOK, NJ, 7993","No_Match",NA,NA,NA,NA
171468,"321 MEAGHER AVENUE","BOZEMAN","MT",59718,45.6827423510001,-111.086396313,468,"321 MEAGHER AVENUE, BOZEMAN, MT, 59718","Match","Exact","321 MEAGHER AVE, BOZEMAN, MT, 59718",163515443,"R"
171469,"321 MERRIMAC STREET","PITTSBURGH","PA",15211,40.43150948,-80.013699832,469,"321 MERRIMAC STREET, PITTSBURGH, PA, 15211","Match","Exact","321 MERRIMAC ST, PITTSBURGH, PA, 15211",51633530,"L"
171470,"321 MILL STREET SUITE 6","EUGENE","OR",97401,44.0562736540001,-123.086602027,470,"321 MILL STREET SUITE 6, EUGENE, OR, 97401","Match","Exact","321 MILL ST, EUGENE, OR, 97401",605384414,"L"
171471,"321 MOCKINGBIRD HILL ROAD","LOUISVILLE","KY",40207,38.264404907,-85.6796405109999,471,"321 MOCKINGBIRD HILL ROAD, LOUISVILLE, KY, 40207","Match","Exact","321 MOCKINGBIRD HILL RD, LOUISVILLE, KY, 40207",96852061,"R"
171472,"321 MONTGOMERY RD UNIT 163185","ALTAMONTE SPRINGS","FL",32716,28.6660913640001,-81.402577282,472,"321 MONTGOMERY RD UNIT 163185, ALTAMONTE SPRINGS, FL, 32716","Match","Non_Exact","321 MONTGOMERY RD, ALTAMONTE SPG, FL, 32714",635499471,"R"
171473,"321 MONTGOMERY RD","ALTAMONTE SPRINGS","FL",32716,28.6660913640001,-81.402577282,473,"321 MONTGOMERY RD, ALTAMONTE SPRINGS, FL, 32716","Match","Non_Exact","321 MONTGOMERY RD, ALTAMONTE SPG, FL, 32714",635499471,"R"
171474,"321 MONTGOMERY ROAD 162886","ALTAMONTE SPRINGS","FL",32714,28.6660913640001,-81.402577282,474,"321 MONTGOMERY ROAD 162886, ALTAMONTE SPRINGS, FL, 32714","Match","Exact","321 MONTGOMERY RD, ALTAMONTE SPRINGS, FL, 32714",635499471,"R"
171475,"321 MONTGOMERY ST APT 5","BROOKLYN","NY",11225,40.665577822,-73.954074793,475,"321 MONTGOMERY ST APT 5, BROOKLYN, NY, 11225","Match","Exact","321 MONTGOMERY ST, BROOKLYN, NY, 11225",59079494,"L"
171476,"321 MOORLAND COURT","LAWRENCEVILLE","GA",30043,34.0122222210001,-83.938383404,476,"321 MOORLAND COURT, LAWRENCEVILLE, GA, 30043","Match","Exact","321 MOORLAND CT, LAWRENCEVILLE, GA, 30043",636106622,"R"
171477,"321 N 10TH AVE","JACKSONVILLE BEACH","FL",32250,NA,NA,477,"321 N 10TH AVE, JACKSONVILLE BEACH, FL, 32250","Tie",NA,NA,NA,NA
171478,"321 N CLARK 22ND FLOOR","CHICAGO","IL",60654,NA,NA,478,"321 N CLARK 22ND FLOOR, CHICAGO, IL, 60654","No_Match",NA,NA,NA,NA
171479,"321 N CLARK STREET 5TH FLOOR","CHICAGO","IL",60654,41.888148576,-87.631028946,479,"321 N CLARK STREET 5TH FLOOR, CHICAGO, IL, 60654","Match","Non_Exact","321 N CLARK ST, CHICAGO, IL, 60654",643187408,"R"
171480,"321 N DERBYSHIRE AVE","ARLINGTON HEIGHTS","IL",60004,42.0856641560001,-87.968334473,480,"321 N DERBYSHIRE AVE, ARLINGTON HEIGHTS, IL, 60004","Match","Exact","321 N DERBYSHIRE AVE, ARLINGTON HEIGHTS, IL, 60004",111716285,"R"
171481,"321 N DEVILLERS STREET SUITE 224","PENSACOLA","FL",32501,NA,NA,481,"321 N DEVILLERS STREET SUITE 224, PENSACOLA, FL, 32501","No_Match",NA,NA,NA,NA
171482,"321 N ELDER AVE","INDIANAPOLIS","IN",46222,39.7718902710001,-86.193793942,482,"321 N ELDER AVE, INDIANAPOLIS, IN, 46222","Match","Exact","321 N ELDER AVE, INDIANAPOLIS, IN, 46222",107987830,"R"
171483,"321 N ELMWOOD AVE","MEDINA","OH",44256,41.1424206830001,-81.866014277,483,"321 N ELMWOOD AVE, MEDINA, OH, 44256","Match","Exact","321 N ELMWOOD AVE, MEDINA, OH, 44256",58676123,"R"
171484,"321 N GOLD STREET","YREKA","CA",96097,41.73493925,-122.639576908,484,"321 N GOLD STREET, YREKA, CA, 96097","Match","Exact","321 N GOLD ST, YREKA, CA, 96097",113224937,"L"
171485,"321 N MAIN ST","EUFAULA","OK",74432,35.289175379,-95.582475355,485,"321 N MAIN ST, EUFAULA, OK, 74432","Match","Exact","321 MAIN ST, EUFAULA, OK, 74432",106223985,"L"
171486,"321 N MAIN ST","GEORGETOWN","TX",78628,30.6761572550001,-97.5872500089999,486,"321 N MAIN ST, GEORGETOWN, TX, 78628","Match","Non_Exact","321 N MAIN ST, GEORGETOWN, TX, 78626",126418773,"L"
171487,"321 N MAIN STREET SUITE C","SUFFOLK","VA",23434,NA,NA,487,"321 N MAIN STREET SUITE C, SUFFOLK, VA, 23434","Tie",NA,NA,NA,NA
171488,"321 N MAIN STREET","BURLINGTON","IA",52601,40.809957684,-91.101474823,488,"321 N MAIN STREET, BURLINGTON, IA, 52601","Match","Exact","321 N MAIN ST, BURLINGTON, IA, 52601",5542069,"L"
171489,"321 N MALL DR BLDG VW APT 101","SAINT GEORGE","UT",84770,37.106086894,-113.54228226,489,"321 N MALL DR BLDG VW APT 101, SAINT GEORGE, UT, 84770","Match","Non_Exact","321 MALL DR, SAINT GEORGE, UT, 84790",166181757,"R"
171490,"321 N MASON","CHICAGO","IL",60644,41.886234035,-87.7734158969999,490,"321 N MASON, CHICAGO, IL, 60644","Match","Non_Exact","321 N MASON AVE, CHICAGO, IL, 60644",605040401,"R"
171491,"321 N OAKHURST DR 204","BEVERLY HILLS","CA",90210,34.073116828,-118.39095831,491,"321 N OAKHURST DR 204, BEVERLY HILLS, CA, 90210","Match","Non_Exact","321 N OAKHURST DR, BEVERLY HILLS, CA, 90210",141572023,"L"
171492,"321 N PASS AVENUE SUITE 105","BURBANK","CA",91505,34.1555364160001,-118.345722001,492,"321 N PASS AVENUE SUITE 105, BURBANK, CA, 91505","Match","Non_Exact","321 N PASS AVE, BURBANK, CA, 91505",142726130,"L"
171493,"321 N PASS AVENUE UNIT 89","BURBANK","CA",91505,34.1555364160001,-118.345722001,493,"321 N PASS AVENUE UNIT 89, BURBANK, CA, 91505","Match","Non_Exact","321 N PASS AVE, BURBANK, CA, 91505",142726130,"L"
171494,"321 NAVIGATOR DR","AUSTIN","TX",78717,30.488275625,-97.72676728,494,"321 NAVIGATOR DR, AUSTIN, TX, 78717","Match","Exact","321 NAVIGATOR DR, AUSTIN, TX, 78717",641108664,"R"
171495,"321 NEWARK STREET","AURORA","CO",80010,39.7207576070001,-104.856067513,495,"321 NEWARK STREET, AURORA, CO, 80010","Match","Exact","321 NEWARK ST, AURORA, CO, 80010",177353434,"L"
171496,"321 NICKLAUS DRIVE","SLIDELL","LA",70458,30.2366962070001,-89.776519787,496,"321 NICKLAUS DRIVE, SLIDELL, LA, 70458","Match","Exact","321 NICKLAUS DR, SLIDELL, LA, 70458",627661812,"R"
171497,"321 NORTH CLARK STREET SUITE 500","CHICAGO","IL",60641,41.8881329720001,-87.631028628,497,"321 NORTH CLARK STREET SUITE 500, CHICAGO, IL, 60641","Match","Non_Exact","321 N CLARK ST, CHICAGO, IL, 60654",643187408,"R"
171498,"321 NORTH CONGRESS AVE","EVANSVILLE","IN",47715,37.9799178160001,-87.499055487,498,"321 NORTH CONGRESS AVE, EVANSVILLE, IN, 47715","Match","Exact","321 N CONGRESS AVE, EVANSVILLE, IN, 47715",39807132,"R"
171499,"321 NORTH FRONT STREET - 102","WILMINGTON","NC",28401,34.2390873680001,-77.9491897079999,499,"321 NORTH FRONT STREET - 102, WILMINGTON, NC, 28401","Match","Exact","321 N FRONT ST, WILMINGTON, NC, 28401",152730786,"L"
171500,"321 NORTH MALL DRIVE SUITE VW-104","SAINT GEORGE","UT",84790,NA,NA,500,"321 NORTH MALL DRIVE SUITE VW-104, SAINT GEORGE, UT, 84790","Tie",NA,NA,NA,NA
