"ID","Address","City","State","Zip","lat","long","id","input_address","match_indicator","match_type","matched_address","tiger_line_id","tiger_side"
39501,"123 E MAIN STREET","LAKELAND","FL",33801,28.0441198610001,-81.95693786,1,"123 E MAIN STREET, LAKELAND, FL, 33801","Match","Exact","123 E MAIN ST, LAKELAND, FL, 33801",104810604,"R"
39502,"123 E MAIN STREET","NASHVILLE","IN",47448,39.206989392,-86.245208648,2,"123 E MAIN STREET, NASHVILLE, IN, 47448","Match","Exact","123 E MAIN ST, NASHVILLE, IN, 47448",43530224,"L"
39503,"123 E MARKET ST","NEW ALBANY","IN",47150,38.284850711,-85.8226255599999,3,"123 E MARKET ST, NEW ALBANY, IN, 47150","Match","Exact","123 E MARKET ST, NEW ALBANY, IN, 47150",89546987,"L"
39504,"123 E NEWTON ST","VERSAILLES","MO",65084,38.431624985,-92.841592436,4,"123 E NEWTON ST, VERSAILLES, MO, 65084","Match","Exact","123 E NEWTON ST, VERSAILLES, MO, 65084",78204679,"R"
39505,"123 E SAN CARLOS STE 413","SAN JOSE","CA",95112,NA,NA,5,"123 E SAN CARLOS STE 413, SAN JOSE, CA, 95112","No_Match",NA,NA,NA,NA
39506,"123 EAST 10TH STREET SUITE 2","ANDERSON","IN",46016,40.106101386,-85.6778299809999,6,"123 EAST 10TH STREET SUITE 2, ANDERSON, IN, 46016","Match","Exact","123 E 10TH ST, ANDERSON, IN, 46016",31114266,"R"
39507,"123 EAST 110TH STREET APARTMENT 7E","NEW YORK","NY",10029,40.795167593,-73.945275244,7,"123 EAST 110TH STREET APARTMENT 7E, NEW YORK, NY, 10029","Match","Exact","123 E 110TH ST, NEW YORK, NY, 10029",59657794,"L"
39508,"123 EAST 13TH STREET","CINCINNATI","OH",45202,39.1098190280001,-84.512572539,8,"123 EAST 13TH STREET, CINCINNATI, OH, 45202","Match","Exact","123 E 13TH ST, CINCINNATI, OH, 45202",103936071,"R"
39509,"123 EAST 4TH STREET","STROMSBURG","NE",68666,41.1140905440001,-97.60034904,9,"123 EAST 4TH STREET, STROMSBURG, NE, 68666","Match","Non_Exact","123 4TH ST, STROMSBURG, NE, 68666",159743528,"R"
39510,"123 EAST 83RD STREET APT 5C","NEW YORK","NY",10028,40.7777861270001,-73.9575596669999,10,"123 EAST 83RD STREET APT 5C, NEW YORK, NY, 10028","Match","Exact","123 E 83RD ST, NEW YORK, NY, 10028",59657346,"L"
39511,"123 EAST ADAMS STREET","MUNCIE","IN",47305,40.1919567640001,-85.386245926,11,"123 EAST ADAMS STREET, MUNCIE, IN, 47305","Match","Exact","123 E ADAMS ST, MUNCIE, IN, 47305",30837570,"R"
39512,"123 EAST GATE DRIVE","MONMOUTH JCT","NJ",8852,40.3854311480001,-74.53983433,12,"123 EAST GATE DRIVE, MONMOUTH JCT, NJ, 8852","Match","Exact","123 E GATE DR, MONMOUTH JCT, NJ, 08852",645313140,"L"
39513,"123 EAST GERMAN STREET","SHEPHERDSTOWN","WV",25443,39.430597253,-77.805044967,13,"123 EAST GERMAN STREET, SHEPHERDSTOWN, WV, 25443","Match","Exact","123 E GERMAN ST, SHEPHERDSTOWN, WV, 25443",639584627,"R"
39514,"123 EAST HOBSON AVENUE","SAPULPA","OK",74066,35.9997566110001,-96.112155504,14,"123 EAST HOBSON AVENUE, SAPULPA, OK, 74066","Match","Exact","123 E HOBSON AVE, SAPULPA, OK, 74066",165898843,"L"
39515,"123 EAST LIBERTY STREET","CINCINNATI","OH",45202,39.112736538,-84.514107133,15,"123 EAST LIBERTY STREET, CINCINNATI, OH, 45202","Match","Exact","123 E LIBERTY ST, CINCINNATI, OH, 45202",103970314,"R"
39516,"123 EAST MAIN CROSS STREET","FINDLAY","OH",45840,41.0391410140001,-83.64977197,16,"123 EAST MAIN CROSS STREET, FINDLAY, OH, 45840","Match","Exact","123 E MAIN CROSS ST, FINDLAY, OH, 45840",36470024,"L"
39517,"123 EAST MAIN STREET 5TH FLOOR","CHARLOTTESVILLE","VA",22902,38.0307181960001,-78.4812988959999,17,"123 EAST MAIN STREET 5TH FLOOR, CHARLOTTESVILLE, VA, 22902","Match","Exact","123 E MAIN ST, CHARLOTTESVILLE, VA, 22902",83370719,"L"
39518,"123 EAST MAIN STREET","STOUGHTON","WI",53589,42.9167524040001,-89.22005562,18,"123 EAST MAIN STREET, STOUGHTON, WI, 53589","Match","Exact","123 E MAIN ST, STOUGHTON, WI, 53589",49481803,"R"
39519,"123 EAST MARCY STREET SUITE 200","SANTA FE","NM",87501,35.6890354120001,-105.936718429,19,"123 EAST MARCY STREET SUITE 200, SANTA FE, NM, 87501","Match","Non_Exact","123 E MARCY AVE, SANTA FE, NM, 87501",169377565,"L"
39520,"123 EAST MARKET STREET","NEW ALBANY","IN",47150,38.284830474,-85.822687115,20,"123 EAST MARKET STREET, NEW ALBANY, IN, 47150","Match","Exact","123 E MARKET ST, NEW ALBANY, IN, 47150",89546987,"L"
39521,"123 EAST MEYRAN AVE","SOMERS POINT","NJ",8244,39.3236836660001,-74.5852245739999,21,"123 EAST MEYRAN AVE, SOMERS POINT, NJ, 8244","Match","Exact","123 E MEYRAN AVE, SOMERS POINT, NJ, 08244",202483523,"L"
39522,"123 EAST ROAD","TORONTO","OH",43964,40.459902825,-80.656301444,22,"123 EAST ROAD, TORONTO, OH, 43964","Match","Exact","123 EAST RD, TORONTO, OH, 43964",37813743,"R"
39523,"123 EAST SAN CARLOS STREET","SAN JOSE","CA",95112,37.33264733,-121.884702008,23,"123 EAST SAN CARLOS STREET, SAN JOSE, CA, 95112","Match","Exact","123 E SAN CARLOS ST, SAN JOSE, CA, 95112",122907955,"L"
39524,"123 EAST STREET","ATTLEBORO","MA",2703,41.938069269,-71.276696334,24,"123 EAST STREET, ATTLEBORO, MA, 2703","Match","Exact","123 EAST ST, ATTLEBORO, MA, 02703",46748065,"L"
39525,"123 EAST VANCE STREET","FUQUAY-VARINA","NC",27526,35.581981657,-78.799290657,25,"123 EAST VANCE STREET, FUQUAY-VARINA, NC, 27526","Match","Exact","123 E VANCE ST, FUQUAY VARINA, NC, 27526",638250187,"L"
39526,"123 EDDY ST","RICHMOND","CA",94801,37.928727554,-122.388450842,26,"123 EDDY ST, RICHMOND, CA, 94801","Match","Exact","123 EDDY ST, RICHMOND, CA, 94801",192037223,"L"
39527,"123 EDGEWOOD AVENUE","FRANKLIN","NC",28734,35.1712423210001,-83.385737435,27,"123 EDGEWOOD AVENUE, FRANKLIN, NC, 28734","Match","Exact","123 EDGEWOOD AVE, FRANKLIN, NC, 28734",623992261,"L"
39528,"123 EMILY CREST LN","ROCK HILL","SC",29730,34.883136028,-80.9580072489999,28,"123 EMILY CREST LN, ROCK HILL, SC, 29730","Match","Exact","123 EMILY CREST LN, ROCK HILL, SC, 29730",618822516,"L"
39529,"123 EVANSVILLE ROAD","BROWNINGTON","VT",5860,NA,NA,29,"123 EVANSVILLE ROAD, BROWNINGTON, VT, 5860","No_Match",NA,NA,NA,NA
39530,"123 FELDER CREEK ROAD","SUMMERVILLE","SC",29486,33.093178756,-80.196171518,30,"123 FELDER CREEK ROAD, SUMMERVILLE, SC, 29486","Match","Exact","123 FELDER CREEK RD, SUMMERVILLE, SC, 29486",605133450,"R"
39531,"123 FIG AVENUE","FAIRHOPE","AL",36532,30.5129802070001,-87.914730149,31,"123 FIG AVENUE, FAIRHOPE, AL, 36532","Match","Exact","123 FIG AVE, FAIRHOPE, AL, 36532",131649983,"L"
39532,"123 FONTENOT DRIVE","SAVANNAH","GA",31405,32.0200417470001,-81.214736686,32,"123 FONTENOT DRIVE, SAVANNAH, GA, 31405","Match","Exact","123 FONTENOT DR, SAVANNAH, GA, 31405",644923876,"L"
39533,"123 FOREHAND ROAD","WEWAHITCHKA","FL",32465,30.051850926,-85.184100256,33,"123 FOREHAND ROAD, WEWAHITCHKA, FL, 32465","Match","Exact","123 FOREHAND RD, WEWAHITCHKA, FL, 32465",636991762,"L"
39534,"123 FORGE ST","AKRON","OH",44308,41.0792587400001,-81.51134917,34,"123 FORGE ST, AKRON, OH, 44308","Match","Non_Exact","123 S FORGE ST, AKRON, OH, 44308",61341723,"R"
39535,"123 FRANCOIS DR","LAFAYETTE","LA",70507,30.307117588,-92.0376865649999,35,"123 FRANCOIS DR, LAFAYETTE, LA, 70507","Match","Exact","123 FRANCOIS DR, LAFAYETTE, LA, 70507",85613458,"R"
39536,"123 FRANKLIN AVE APT 1","BROOKLYN","NY",11205,40.695240106,-73.9581605019999,36,"123 FRANKLIN AVE APT 1, BROOKLYN, NY, 11205","Match","Exact","123 FRANKLIN AVE, BROOKLYN, NY, 11205",59077912,"L"
39537,"123 GILLMING STREET","LITCHFIELD","NE",68852,41.1564606900001,-99.149705565,37,"123 GILLMING STREET, LITCHFIELD, NE, 68852","Match","Exact","123 GILLMING ST, LITCHFIELD, NE, 68852",198277513,"L"
39538,"123 GLASGOW ST","STEM","NC",27581,36.1864765290001,-78.710881934,38,"123 GLASGOW ST, STEM, NC, 27581","Match","Exact","123 GLASGOW ST, STEM, NC, 27581",637900460,"L"
39539,"123 GLEN HAVEN DR","CHAPEL HILL","NC",27516,35.884131842,-79.0738410829999,39,"123 GLEN HAVEN DR, CHAPEL HILL, NC, 27516","Match","Non_Exact","123 GLENHAVEN DR, CHAPEL HILL, NC, 27516",72416073,"L"
39540,"123 GLENWOOD WAY","STOCKBRIDGE","GA",30281,NA,NA,40,"123 GLENWOOD WAY, STOCKBRIDGE, GA, 30281","No_Match",NA,NA,NA,NA
39541,"123 GOLDEN MEADOW LN","SICKLERVILLE","NJ",8081,39.705536721,-74.907519242,41,"123 GOLDEN MEADOW LN, SICKLERVILLE, NJ, 8081","Match","Exact","123 GOLDEN MEADOW LN, SICKLERVILLE, NJ, 08081",639716559,"L"
39542,"123 GOODWIN AVENUE","WETHERSFIELD","CT",6109,41.717139425,-72.687107924,42,"123 GOODWIN AVENUE, WETHERSFIELD, CT, 6109","Match","Exact","123 GOODWIN AVE, WETHERSFIELD, CT, 06109",3516461,"R"
39543,"123 GRAHAM STREET","BIDDEFORD","ME",4005,43.486974434,-70.4637939469999,43,"123 GRAHAM STREET, BIDDEFORD, ME, 4005","Match","Exact","123 GRAHAM ST, BIDDEFORD, ME, 04005",636215114,"R"
39544,"123 GRAND AVENUE","PALISADES PARK","NJ",7650,40.847112902,-74.003227008,44,"123 GRAND AVENUE, PALISADES PARK, NJ, 7650","Match","Exact","123 GRAND AVE, PALISADES PARK, NJ, 07650",64398499,"L"
39545,"123 GRANVILLE STREET","COLUMBUS","OH",43230,40.018748359,-82.876881944,45,"123 GRANVILLE STREET, COLUMBUS, OH, 43230","Match","Exact","123 GRANVILLE ST, COLUMBUS, OH, 43230",218655658,"R"
39546,"123 GREEN ST APT B","SOUDERTON","PA",18964,40.309646404,-75.327549988,46,"123 GREEN ST APT B, SOUDERTON, PA, 18964","Match","Exact","123 GREEN ST, SOUDERTON, PA, 18964",135132003,"L"
39547,"123 GROVE STREET","NEVADA CITY","CA",95959,39.263636734,-121.013903841,47,"123 GROVE STREET, NEVADA CITY, CA, 95959","Match","Exact","123 GROVE ST, NEVADA CITY, CA, 95959",640108357,"L"
39548,"123 GWENDALE LN","OXFORD","AL",36203,33.589228237,-85.894678406,48,"123 GWENDALE LN, OXFORD, AL, 36203","Match","Exact","123 GWENDALE LN, OXFORD, AL, 36203",66541355,"R"
39549,"123 HAGAMAN STREET","CARTERET","NJ",7008,40.580842041,-74.235451153,49,"123 HAGAMAN STREET, CARTERET, NJ, 7008","Match","Exact","123 HAGAMAN ST, CARTERET, NJ, 07008",60276657,"L"
39550,"123 HARDEN PARKWAY  APT L","SALINAS","CA",93906,36.713749288,-121.650500287,50,"123 HARDEN PARKWAY  APT L, SALINAS, CA, 93906","Match","Exact","123 HARDEN PKWY, SALINAS, CA, 93906",651285335,"L"
39551,"123 HARTMAN ROCKS DRIVE","GUNNISON","CO",81230,38.507922362,-106.94278407,51,"123 HARTMAN ROCKS DRIVE, GUNNISON, CO, 81230","Match","Exact","123 HARTMAN ROCKS DR, GUNNISON, CO, 81230",639996331,"R"
39552,"123 HARVEST DRIVE","VERONA","PA",15147,40.47385805,-79.860556206,52,"123 HARVEST DRIVE, VERONA, PA, 15147","Match","Exact","123 HARVEST DR, VERONA, PA, 15147",51666541,"R"
39553,"123 HASSELLWOOD DR","CARY","NC",27518,35.7181085,-78.812889361,53,"123 HASSELLWOOD DR, CARY, NC, 27518","Match","Exact","123 HASSELLWOOD DR, CARY, NC, 27518",208359761,"L"
39554,"123 HAVEN ST-STE 2-NO 92","READING","MA",1867,42.523029509,-71.104939181,54,"123 HAVEN ST-STE 2-NO 92, READING, MA, 1867","Match","Non_Exact","123 HAVEN ST, READING, MA, 01867",86902676,"L"
39555,"123 HAYWARD ROAD","ACTON","CA",1720,NA,NA,55,"123 HAYWARD ROAD, ACTON, CA, 1720","No_Match",NA,NA,NA,NA
39556,"123 HERMAN STREET","ALPENA","MI",49707,45.0711557180001,-83.4172421439999,56,"123 HERMAN STREET, ALPENA, MI, 49707","Match","Non_Exact","123 E HERMAN ST, ALPENA, MI, 49707",135790847,"L"
39557,"123 HIBBARD COURT SOUTH","PONTIAC","MI",48341,42.6310135050001,-83.2970127249999,57,"123 HIBBARD COURT SOUTH, PONTIAC, MI, 48341","Match","Exact","123 HIBBARD CT S, PONTIAC, MI, 48341",69794770,"R"
39558,"123 HIGH BLVD","SHILLINGTON","PA",19607,40.3052053120001,-75.956142029,58,"123 HIGH BLVD, SHILLINGTON, PA, 19607","Match","Exact","123 HIGH BLVD, SHILLINGTON, PA, 19607",80381027,"L"
39559,"123 HILLCREST TERRACE","WHITE RIVER JCT","VT",5001,43.6499540570001,-72.3253961889999,59,"123 HILLCREST TERRACE, WHITE RIVER JCT, VT, 5001","Match","Exact","123 HILLCREST TER, WHITE RIVER JUNCTION, VT, 05001",139251324,"R"
39560,"123 HORACE ST","DAYTON","OH",45402,39.7546283190001,-84.2076975429999,60,"123 HORACE ST, DAYTON, OH, 45402","Match","Non_Exact","123 HORACE AVE, DAYTON, OH, 45402",143604091,"R"
39561,"123 HORACE STREET","DAYTON","OH",45402,39.7546283190001,-84.2076975429999,61,"123 HORACE STREET, DAYTON, OH, 45402","Match","Non_Exact","123 HORACE AVE, DAYTON, OH, 45402",143604091,"R"
39562,"123 HORN ROAD","RAYVILLE","LA",71269,32.451969827,-91.779482613,62,"123 HORN ROAD, RAYVILLE, LA, 71269","Match","Exact","123 HORN RD, RAYVILLE, LA, 71269",71203094,"R"
39563,"123 HUNTINGTON CIRCLE","IDABEL","OK",74745,33.8827663110001,-94.8061969829999,63,"123 HUNTINGTON CIRCLE, IDABEL, OK, 74745","Match","Exact","123 HUNTINGTON CIR, IDABEL, OK, 74745",68729943,"L"
39564,"123 INTREPID DRIVE","SLIDELL","LA",70458,30.228819726,-89.79699608,64,"123 INTREPID DRIVE, SLIDELL, LA, 70458","Match","Exact","123 INTREPID DR, SLIDELL, LA, 70458",111259883,"L"
39565,"123 JASPER PLACE","ALEXANDRIA","VA",22304,38.8100283110001,-77.1098437589999,65,"123 JASPER PLACE, ALEXANDRIA, VA, 22304","Match","Exact","123 JASPER PL, ALEXANDRIA, VA, 22304",75983045,"R"
39566,"123 JENNIFER LANE","WEST SALEM","WI",54669,43.897124621,-91.100498634,66,"123 JENNIFER LANE, WEST SALEM, WI, 54669","Match","Exact","123 JENNIFER LN, WEST SALEM, WI, 54669",51024426,"L"
39567,"123 JETER ST","CHESTER","SC",29706,34.7164598640001,-81.211068986,67,"123 JETER ST, CHESTER, SC, 29706","Match","Non_Exact","123 JETER HTS, CHESTER, SC, 29706",40564744,"R"
39568,"123 JUPITER STREET APT 3","BAYOU VISTA","LA",70380,29.6908109600001,-91.269755147,68,"123 JUPITER STREET APT 3, BAYOU VISTA, LA, 70380","Match","Non_Exact","123 JUPITER ST, MORGAN CITY, LA, 70380",85895503,"R"
39569,"123 KELLY LANE","EASLEY","SC",29642,34.798243143,-82.564382202,69,"123 KELLY LANE, EASLEY, SC, 29642","Match","Exact","123 KELLY LN, EASLEY, SC, 29642",26196527,"L"
39570,"123 KENWAY ST","ROCKWALL","TX",75087,32.9265665,-96.460921145,70,"123 KENWAY ST, ROCKWALL, TX, 75087","Match","Non_Exact","123 KENWAY DR, ROCKWALL, TX, 75087",123780208,"R"
39571,"123 KENYON AVE","WAKEFIELD","RI",2879,41.4324405500001,-71.497020564,71,"123 KENYON AVE, WAKEFIELD, RI, 2879","Match","Exact","123 KENYON AVE, WAKEFIELD, RI, 02879",58903145,"L"
39572,"123 KESWICK MANOR DRIVE","TYRONE","GA",30290,33.4881478950001,-84.592040246,72,"123 KESWICK MANOR DRIVE, TYRONE, GA, 30290","Match","Exact","123 KESWICK MANOR DR, TYRONE, GA, 30290",634060822,"R"
39573,"123 KETTLE CREEK ROAD","WESTON","CT",6883,41.204170656,-73.368514553,73,"123 KETTLE CREEK ROAD, WESTON, CT, 6883","Match","Exact","123 KETTLE CREEK RD, WESTON, CT, 06883",3273168,"R"
39574,"123 KEYSTONE ROAD","PATRIOT","OH",45686,38.9764149640001,-82.348263754,74,"123 KEYSTONE ROAD, PATRIOT, OH, 45686","Match","Non_Exact","123 KEYSTONE RD, VINTON, OH, 45686",636600460,"L"
39575,"123 KIMBERLY LANE","MINOTOLA","NJ",8341,39.531343728,-74.9485934909999,75,"123 KIMBERLY LANE, MINOTOLA, NJ, 8341","Match","Exact","123 KIMBERLY LN, MINOTOLA, NJ, 08341",202506207,"L"
39576,"123 KING ARTHURS COURT","ROCHESTER","NY",14626,43.219169779,-77.712494778,76,"123 KING ARTHURS COURT, ROCHESTER, NY, 14626","Match","Exact","123 KING ARTHURS CT, ROCHESTER, NY, 14626",14563729,"R"
39577,"123 KIRKLAND RD","LONGVIEW","WA",98632,46.176475451,-122.942468906,77,"123 KIRKLAND RD, LONGVIEW, WA, 98632","Match","Exact","123 KIRKLAND RD, LONGVIEW, WA, 98632",628037107,"L"
39578,"123 KRIDER ROAD","SANFORD","FL",32773,28.768391921,-81.263268247,78,"123 KRIDER ROAD, SANFORD, FL, 32773","Match","Exact","123 KRIDER RD, SANFORD, FL, 32773",93751683,"R"
39579,"123 LANCHA CIRCLE","INDIAN HARBOUR BEACH","FL",32937,28.149076177,-80.5855126009999,79,"123 LANCHA CIRCLE, INDIAN HARBOUR BEACH, FL, 32937","Match","Exact","123 LANCHA CIR, INDIAN HARBOUR BEACH, FL, 32937",640538126,"R"
39580,"123 LAUREL COURT","LUGOFF","SC",29078,34.2108780190001,-80.726988896,80,"123 LAUREL COURT, LUGOFF, SC, 29078","Match","Exact","123 LAUREL CT, LUGOFF, SC, 29078",78484360,"R"
39581,"123 LEE STREET","WEST BOYLSTON","MA",1583,42.357045742,-71.8058689,81,"123 LEE STREET, WEST BOYLSTON, MA, 1583","Match","Exact","123 LEE ST, WEST BOYLSTON, MA, 01583",40054158,"L"
39582,"123 LEWIS ST","LYNN","MA",1902,42.465939716,-70.930336382,82,"123 LEWIS ST, LYNN, MA, 1902","Match","Exact","123 LEWIS ST, LYNN, MA, 01902",86646799,"R"
39583,"123 LEWIS ST","PERTH AMBOY","NJ",8861,40.501734872,-74.271402907,83,"123 LEWIS ST, PERTH AMBOY, NJ, 8861","Match","Exact","123 LEWIS ST, PERTH AMBOY, NJ, 08861",60281214,"L"
39584,"123 LOSOYA STREET  SUITE 18","SAN ANTONIO","TX",78205,29.4258393210001,-98.487928977,84,"123 LOSOYA STREET  SUITE 18, SAN ANTONIO, TX, 78205","Match","Exact","123 LOSOYA ST, SAN ANTONIO, TX, 78205",101526518,"R"
39585,"123 LUCKIE STREET NW","ATLANTA","GA",30303,33.7581273690001,-84.390395935,85,"123 LUCKIE STREET NW, ATLANTA, GA, 30303","Match","Exact","123 LUCKIE ST NW, ATLANTA, GA, 30303",17344098,"R"
39586,"123 LUKE RD","CLEVELAND","TN",37323,35.1474041700001,-84.800876699,86,"123 LUKE RD, CLEVELAND, TN, 37323","Match","Non_Exact","123 LUKE RD NE, CLEVELAND, TN, 37323",624104770,"L"
39587,"123 MAIN STREET","PHOENIXVILLE","PA",19460,40.131995499,-75.515547479,87,"123 MAIN STREET, PHOENIXVILLE, PA, 19460","Match","Non_Exact","123 S MAIN ST, PHOENIXVILLE, PA, 19460",179494799,"L"
39588,"123 MAMARONECK AVE APT 209","MAMARONECK","NY",10543,40.9494266310001,-73.733240313,88,"123 MAMARONECK AVE APT 209, MAMARONECK, NY, 10543","Match","Exact","123 MAMARONECK AVE, MAMARONECK, NY, 10543",139755314,"R"
39589,"123 MARION ST SE","MILLEDGEVILLE","GA",31061,33.0574907120001,-83.21370658,89,"123 MARION ST SE, MILLEDGEVILLE, GA, 31061","Match","Exact","123 MARION ST SE, MILLEDGEVILLE, GA, 31061",16583284,"R"
39590,"123 MARTIN STREET","GENEVA","AL",36340,31.043453159,-85.8438392589999,90,"123 MARTIN STREET, GENEVA, AL, 36340","Match","Non_Exact","123 N MARTIN ST, GENEVA, AL, 36340",32931480,"L"
39591,"123 MERION LANE","WALNUT","CA",91789,34.0194974520001,-117.844836945,91,"123 MERION LANE, WALNUT, CA, 91789","Match","Exact","123 MERION LN, WALNUT, CA, 91789",142240378,"L"
39592,"123 MIDDLE CREEK PARK AVE","APEX","NC",27539,35.6695819970001,-78.761013036,92,"123 MIDDLE CREEK PARK AVE, APEX, NC, 27539","Match","Exact","123 MIDDLE CREEK PARK AVE, APEX, NC, 27539",637584047,"L"
39593,"123 MIDDLE CREEK PARK AVENUE","APEX","NC",27539,35.6695819970001,-78.761013036,93,"123 MIDDLE CREEK PARK AVENUE, APEX, NC, 27539","Match","Exact","123 MIDDLE CREEK PARK AVE, APEX, NC, 27539",637584047,"L"
39594,"123 MILL NECK ROAD","COMO","NC",27818,36.5127098890001,-76.984772286,94,"123 MILL NECK ROAD, COMO, NC, 27818","Match","Exact","123 MILL NECK RD, COMO, NC, 27818",56783465,"L"
39595,"123 MISTY MOUNTAIN LANE","MOUNT HOPE","WV",25880,NA,NA,95,"123 MISTY MOUNTAIN LANE, MOUNT HOPE, WV, 25880","No_Match",NA,NA,NA,NA
39596,"123 MONTAGUE DRIVE","EASLEY","SC",29640,34.8619740830001,-82.598612752,96,"123 MONTAGUE DRIVE, EASLEY, SC, 29640","Match","Exact","123 MONTAGUE DR, EASLEY, SC, 29640",26221567,"L"
39597,"123 MOORE ROAD","SUDBURY","MA",1776,42.3851128850001,-71.460498176,97,"123 MOORE ROAD, SUDBURY, MA, 1776","Match","Exact","123 MOORE RD, SUDBURY, MA, 01776",86846259,"L"
39598,"123 MOUNT TABOR WAY","OCEAN GROVE","NJ",7756,40.2139811920001,-74.011169385,98,"123 MOUNT TABOR WAY, OCEAN GROVE, NJ, 7756","Match","Exact","123 MOUNT TABOR WAY, OCEAN GROVE, NJ, 07756",90525766,"R"
39599,"123 MT HOPE DRIVE","ORANGEBURG","SC",29118,33.524814824,-80.927374674,99,"123 MT HOPE DRIVE, ORANGEBURG, SC, 29118","Match","Exact","123 MT HOPE DR, ORANGEBURG, SC, 29118",19235728,"L"
39600,"123 MUNICH DRIVE","MADISON","MS",39110,32.5406355540001,-90.110762845,100,"123 MUNICH DRIVE, MADISON, MS, 39110","Match","Exact","123 MUNICH DR, MADISON, MS, 39110",648657651,"L"
39601,"123 N 5TH ST","CYRIL","OK",73029,34.89607283,-98.20465095,101,"123 N 5TH ST, CYRIL, OK, 73029","Match","Exact","123 5TH ST, CYRIL, OK, 73029",92446183,"L"
39602,"123 N BLAKELEY STREET","MONROE","WA",98272,47.8560925410001,-121.972222533,102,"123 N BLAKELEY STREET, MONROE, WA, 98272","Match","Exact","123 N BLAKELEY ST, MONROE, WA, 98272",608930279,"R"
39603,"123 N CARRIZO STREET","CORPUS CHRISTI","TX",78401,27.7910180980001,-97.399820738,103,"123 N CARRIZO STREET, CORPUS CHRISTI, TX, 78401","Match","Exact","123 CARRIZO ST, CORPUS CHRISTI, TX, 78401",178516613,"L"
39604,"123 N COLLEGE AVE SUITE 200-27","FORT COLLINS","CO",80524,NA,NA,104,"123 N COLLEGE AVE SUITE 200-27, FORT COLLINS, CO, 80524","Tie",NA,NA,NA,NA
39605,"123 N COLLEGE STREET","LEBANON","TN",37087,36.2081471400001,-86.28967971,105,"123 N COLLEGE STREET, LEBANON, TN, 37087","Match","Exact","123 N COLLEGE ST, LEBANON, TN, 37087",89687150,"R"
39606,"123 N CYPRESS","STOCKTON","KS",67669,NA,NA,106,"123 N CYPRESS, STOCKTON, KS, 67669","Tie",NA,NA,NA,NA
39607,"123 N INDUSTRIAL DR SUITE B","ORANGE CITY","FL",32763,NA,NA,107,"123 N INDUSTRIAL DR SUITE B, ORANGE CITY, FL, 32763","Tie",NA,NA,NA,NA
39608,"123 N JEFFERSON ST","MT PLEASANT","IA",52641,40.9669882470001,-91.5545360249999,108,"123 N JEFFERSON ST, MT PLEASANT, IA, 52641","Match","Exact","123 N JEFFERSON ST, MOUNT PLEASANT, IA, 52641",16084444,"L"
39609,"123 N MAIN ST STE 200","ST CHARLES","MO",63301,NA,NA,109,"123 N MAIN ST STE 200, ST CHARLES, MO, 63301","Tie",NA,NA,NA,NA
39610,"123 N MARKET ST","GALION","OH",44833,40.7340868160001,-82.789477399,110,"123 N MARKET ST, GALION, OH, 44833","Match","Exact","123 N MARKET ST, GALION, OH, 44833",12092526,"R"
39611,"123 N MEDINA STREET","SAN ANTONIO","TX",78207,29.4272705660001,-98.504967525,111,"123 N MEDINA STREET, SAN ANTONIO, TX, 78207","Match","Exact","123 N MEDINA ST, SAN ANTONIO, TX, 78207",101525499,"L"
39612,"123 N PARLER AVE","SAINT GEORGE","SC",29477,33.1836747500001,-80.574217849,112,"123 N PARLER AVE, SAINT GEORGE, SC, 29477","Match","Exact","123 N PARLER AVE, SAINT GEORGE, SC, 29477",178452425,"L"
39613,"123 NE 2ND ST APT 459","OKLAHOMA CITY","OK",73104,35.469688132,-97.5101223189999,113,"123 NE 2ND ST APT 459, OKLAHOMA CITY, OK, 73104","Match","Non_Exact","123 NE 2ND ST, OKLAHOMA CITY, OK, 73104",100403185,"L"
39614,"123 NE 2ND ST APT NO 207","OKC","OK",73104,35.469688132,-97.5101223189999,114,"123 NE 2ND ST APT NO 207, OKC, OK, 73104","Match","Non_Exact","123 NE 2ND ST, OKLAHOMA CITY, OK, 73104",100403185,"L"
39615,"123 NINA COURT","WILLIAMSTOWN","NJ",8094,39.722935905,-75.016003348,115,"123 NINA COURT, WILLIAMSTOWN, NJ, 8094","Match","Exact","123 NINA CT, WILLIAMSTOWN, NJ, 08094",650034933,"L"
39616,"123 NORTH CONGRESS AVENUE 276","BOYNTON BEACH","FL",33426,26.5252778180001,-80.09044841,116,"123 NORTH CONGRESS AVENUE 276, BOYNTON BEACH, FL, 33426","Match","Exact","123 N CONGRESS AVE, BOYNTON BEACH, FL, 33426",648177482,"R"
39617,"123 NORTH FLORISSANT RD","FERGUSON","MO",63135,38.7479280270001,-90.3067696159999,117,"123 NORTH FLORISSANT RD, FERGUSON, MO, 63135","Match","Exact","123 N FLORISSANT RD, FERGUSON, MO, 63135",100145904,"L"
39618,"123 NORTH KROME AV","HOMESTEAD","FL",33030,NA,NA,118,"123 NORTH KROME AV, HOMESTEAD, FL, 33030","No_Match",NA,NA,NA,NA
39619,"123 NORTH STREET","BURLINGTON","VT",5401,44.4846132480001,-73.217188467,119,"123 NORTH STREET, BURLINGTON, VT, 5401","Match","Exact","123 NORTH ST, BURLINGTON, VT, 05401",135827225,"R"
39620,"123 OAK LAWN AVE","DALLAS","TX",75207,32.790373366,-96.824518525,120,"123 OAK LAWN AVE, DALLAS, TX, 75207","Match","Exact","123 OAK LAWN AVE, DALLAS, TX, 75207",102905584,"L"
39621,"123 OAKWOOD DRIVE","MOREHEAD","KY",40351,38.1532460180001,-83.5045467579999,121,"123 OAKWOOD DRIVE, MOREHEAD, KY, 40351","Match","Exact","123 OAKWOOD DR, MOREHEAD, KY, 40351",39623349,"L"
39622,"123 OHIO STREET","DUNGANNON","VA",24245,36.82537882,-82.4729758939999,122,"123 OHIO STREET, DUNGANNON, VA, 24245","Match","Exact","123 OHIO ST, DUNGANNON, VA, 24245",625273771,"L"
39623,"123 OLD SAMPLE STREET","GREENWOOD","SC",29646,34.209288069,-82.142755826,123,"123 OLD SAMPLE STREET, GREENWOOD, SC, 29646","Match","Non_Exact","123 OLD SAMPLE ST, GREENWOOD, SC, 29649",50803751,"R"
39624,"123 OLYMPIC PLACE","DECATUR","GA",30030,33.765882699,-84.305077051,124,"123 OLYMPIC PLACE, DECATUR, GA, 30030","Match","Exact","123 OLYMPIC PL, DECATUR, GA, 30030",23366455,"R"
39625,"123 PANORAMA WAY","BRENTWOOD","CA",94513,37.922890776,-121.678775678,125,"123 PANORAMA WAY, BRENTWOOD, CA, 94513","Match","Exact","123 PANORAMA WAY, BRENTWOOD, CA, 94513",192108535,"L"
39626,"123 PARK AVE","PINE","CO",80470,39.4539789300001,-105.401987509,126,"123 PARK AVE, PINE, CO, 80470","Match","Exact","123 PARK AVE, PINE, CO, 80470",108453579,"R"
39627,"123 PARK AVENUE","BEAVER DAM","WI",53916,43.4562468830001,-88.836172437,127,"123 PARK AVENUE, BEAVER DAM, WI, 53916","Match","Exact","123 PARK AVE, BEAVER DAM, WI, 53916",53552827,"R"
39628,"123 PASA ROBLES AVE","JACKSON","MS",39206,32.3566398500001,-90.177042262,128,"123 PASA ROBLES AVE, JACKSON, MS, 39206","Match","Exact","123 PASA ROBLES AVE, JACKSON, MS, 39206",65370407,"L"
39629,"123 PELHAM DRIVE","LEESBURGH","GA",31763,31.6394014900001,-84.179366683,129,"123 PELHAM DRIVE, LEESBURGH, GA, 31763","Match","Non_Exact","123 PELHAM DR, LEESBURG, GA, 31763",124573647,"L"
39630,"123 PINERIDGE DR","HUNTERSVILLE","NC",28078,35.4190617510001,-80.847347753,130,"123 PINERIDGE DR, HUNTERSVILLE, NC, 28078","Match","Exact","123 PINERIDGE DR, HUNTERSVILLE, NC, 28078",70469532,"R"
39631,"123 POLK HALL CAMPUS BOX 7621","RALEIGH","NC",27695,NA,NA,131,"123 POLK HALL CAMPUS BOX 7621, RALEIGH, NC, 27695","No_Match",NA,NA,NA,NA
39632,"123 PONDVIEW DR","SOUTHINGTON","CT",6489,41.5834859230001,-72.873676603,132,"123 PONDVIEW DR, SOUTHINGTON, CT, 6489","Match","Exact","123 PONDVIEW DR, SOUTHINGTON, CT, 06489",3500834,"R"
39633,"123 PRESSBURG LANE","LAKEWOOD","NJ",8701,40.0876202470001,-74.2523040729999,133,"123 PRESSBURG LANE, LAKEWOOD, NJ, 8701","Match","Exact","123 PRESSBURG LN, LAKEWOOD, NJ, 08701",649716927,"L"
39634,"123 PROVIDENCE WAY","DALLAS","GA",30157,33.910671499,-84.8874129719999,134,"123 PROVIDENCE WAY, DALLAS, GA, 30157","Match","Exact","123 PROVIDENCE WAY, DALLAS, GA, 30157",618926164,"L"
39635,"123 QUARRY STREET","WILLIMANTIC","CT",6226,41.7233705090001,-72.2303853339999,135,"123 QUARRY STREET, WILLIMANTIC, CT, 6226","Match","Exact","123 QUARRY ST, WILLIMANTIC, CT, 06226",56441288,"R"
39636,"123 RABBIT CHASE LN","SMYRNA","DE",19977,39.2726323520001,-75.61283423,136,"123 RABBIT CHASE LN, SMYRNA, DE, 19977","Match","Exact","123 RABBIT CHASE LN, SMYRNA, DE, 19977",637310551,"R"
39637,"123 RACETRACK DRIVE","AUBURN","CA",95603,38.8910803810001,-121.076517215,137,"123 RACETRACK DRIVE, AUBURN, CA, 95603","Match","Non_Exact","123 RACETRACK ST, AUBURN, CA, 95603",106772076,"L"
39638,"123 RACQUET PARK DRIVE","AMELIA ISLAND","FL",32034,NA,NA,138,"123 RACQUET PARK DRIVE, AMELIA ISLAND, FL, 32034","No_Match",NA,NA,NA,NA
39639,"123 RAINBOW DR 3755","LIVINGSTON","TX",77399,30.6444811470001,-94.873504837,139,"123 RAINBOW DR 3755, LIVINGSTON, TX, 77399","Match","Non_Exact","123 RAINBOW DR, LIVINGSTON, TX, 77351",23238362,"R"
39640,"123 RAINBOW DR","KALISPELL","MT",59901,48.158455432,-114.35606273,140,"123 RAINBOW DR, KALISPELL, MT, 59901","Match","Exact","123 RAINBOW DR, KALISPELL, MT, 59901",634982256,"R"
39641,"123 REGENCY CIR","POOLER","GA",31322,32.1454357530001,-81.265927769,141,"123 REGENCY CIR, POOLER, GA, 31322","Match","Exact","123 REGENCY CIR, POOLER, GA, 31322",634501003,"R"
39642,"123 RICO STREET","SALINAS","CA",93907,36.683061176,-121.662062274,142,"123 RICO STREET, SALINAS, CA, 93907","Match","Exact","123 RICO ST, SALINAS, CA, 93907",196819700,"L"
39643,"123 ROCKEFELLER CT","GOLDSBORO","NC",27530,35.3898094740001,-78.003554111,143,"123 ROCKEFELLER CT, GOLDSBORO, NC, 27530","Match","Exact","123 ROCKEFELLER CT, GOLDSBORO, NC, 27530",14402886,"L"
39644,"123 RONA LANE","DAVENPORT","FL",33897,28.2651608740001,-81.65896466,144,"123 RONA LANE, DAVENPORT, FL, 33897","Match","Exact","123 RONA LN, DAVENPORT, FL, 33897",104969729,"R"
39645,"123 ROSEDALE AVE","BLOOMINGDALE","IL",60108,41.9637141090001,-88.089802086,145,"123 ROSEDALE AVE, BLOOMINGDALE, IL, 60108","Match","Exact","123 ROSEDALE AVE, BLOOMINGDALE, IL, 60108",651660725,"R"
39646,"123 RUSSELL DRIVE","HIRAM","GA",30141,33.899270792,-84.755662334,146,"123 RUSSELL DRIVE, HIRAM, GA, 30141","Match","Exact","123 RUSSELL DR, HIRAM, GA, 30141",17736313,"R"
39647,"123 S ARLINGTON AVENUE","DELAND","FL",32724,29.0275869230001,-81.2960742079999,147,"123 S ARLINGTON AVENUE, DELAND, FL, 32724","Match","Exact","123 S ARLINGTON AVE, DELAND, FL, 32724",94510811,"R"
39648,"123 S BLUFF CREEK CIR","SPRING","TX",77382,30.211863323,-95.563296201,148,"123 S BLUFF CREEK CIR, SPRING, TX, 77382","Match","Exact","123 S BLUFF CREEK CIR, SPRING, TX, 77382",79319353,"L"
39649,"123 S CENTER ST","BREMEN","IN",46506,41.4462897350001,-86.146507104,149,"123 S CENTER ST, BREMEN, IN, 46506","Match","Exact","123 S CENTER ST, BREMEN, IN, 46506",7640017,"L"
39650,"123 S FIGUEROA ST","LOS ANGELES","CA",90012,34.0574426650001,-118.252290047,150,"123 S FIGUEROA ST, LOS ANGELES, CA, 90012","Match","Exact","123 S FIGUEROA ST, LOS ANGELES, CA, 90012",141617226,"R"
39651,"123 S FIGUEROA STREET - UNIT 240","LOS ANGELES","CA",90012,NA,NA,151,"123 S FIGUEROA STREET - UNIT 240, LOS ANGELES, CA, 90012","Tie",NA,NA,NA,NA
39652,"123 S NATIONAL AVE STE 100","FORT SCOTT","KS",66701,NA,NA,152,"123 S NATIONAL AVE STE 100, FORT SCOTT, KS, 66701","Tie",NA,NA,NA,NA
39653,"123 S PASCO AVE","ARCADIA","FL",34266,27.2115362170001,-81.854497565,153,"123 S PASCO AVE, ARCADIA, FL, 34266","Match","Exact","123 S PASCO AVE, ARCADIA, FL, 34266",16162061,"R"
39654,"123 SANDPIPER AVE","SURFSIDE","TX",77541,28.966356316,-95.268250297,154,"123 SANDPIPER AVE, SURFSIDE, TX, 77541","Match","Non_Exact","123 SANDPIPER AVE, SURFSIDE BEACH, TX, 77541",116584369,"L"
39655,"123 SARATOGA ROAD","GLENVILLE","NY",12302,42.858927656,-73.935959248,155,"123 SARATOGA ROAD, GLENVILLE, NY, 12302","Match","Exact","123 SARATOGA RD, GLENVILLE, NY, 12302",642601159,"L"
39656,"123 SCHENECTADY AVE","BROOKLYN","NY",11213,40.674896253,-73.933317205,156,"123 SCHENECTADY AVE, BROOKLYN, NY, 11213","Match","Exact","123 SCHENECTADY AVE, BROOKLYN, NY, 11213",59079748,"L"
39657,"123 SE 3RD AVE UNIT 237","MIAMI","FL",33131,25.773223709,-80.188944864,157,"123 SE 3RD AVE UNIT 237, MIAMI, FL, 33131","Match","Non_Exact","123 SE 3RD AVE, MIAMI, FL, 33131",116018771,"L"
39658,"123 SE 44TH TER","TOPEKA","KS",66609,38.987801184,-95.685552075,158,"123 SE 44TH TER, TOPEKA, KS, 66609","Match","Exact","123 SE 44TH TER, TOPEKA, KS, 66609",17922161,"R"
39659,"123 SECOND AVENUE UNIT 604","SALT LAKE CITY","UT",84103,40.7717126850001,-111.886125847,159,"123 SECOND AVENUE UNIT 604, SALT LAKE CITY, UT, 84103","Match","Exact","123 2ND AVE, SALT LAKE CITY, UT, 84103",176101646,"R"
39660,"123 SENECA STREET","UTICA","NY",13502,43.104598767,-75.2288186229999,160,"123 SENECA STREET, UTICA, NY, 13502","Match","Exact","123 SENECA ST, UTICA, NY, 13502",171531120,"L"
39661,"123 SERRAN DR","GAHANNA","OH",43230,40.0161088580001,-82.872816872,161,"123 SERRAN DR, GAHANNA, OH, 43230","Match","Exact","123 SERRAN DR, GAHANNA, OH, 43230",218692281,"R"
39662,"123 SHATO LN","MONONA","WI",53716,43.051102782,-89.313610951,162,"123 SHATO LN, MONONA, WI, 53716","Match","Exact","123 SHATO LN, MONONA, WI, 53716",634901818,"R"
39663,"123 SIR TURNER DRIVE","COLD CREEK","NV",89124,36.4146840600001,-115.743421135,163,"123 SIR TURNER DRIVE, COLD CREEK, NV, 89124","Match","Exact","123 SIR TURNER DR, COLD CREEK, NV, 89124",650805308,"R"
39664,"123 SIXTH ST","MINOT","ND",58703,NA,NA,164,"123 SIXTH ST, MINOT, ND, 58703","Tie",NA,NA,NA,NA
39665,"123 SO MUNN AVE   5K","EAST ORANGE","NJ",7018,40.752209728,-74.2138554159999,165,"123 SO MUNN AVE   5K, EAST ORANGE, NJ, 7018","Match","Non_Exact","123 S MUNN AVE, EAST ORANGE, NJ, 07018",63481408,"R"
39666,"123 SOUTH 8 STREET SUITE 101","BROOKLYN","NY",11211,40.70952713,-73.963894389,166,"123 SOUTH 8 STREET SUITE 101, BROOKLYN, NY, 11211","Match","Exact","123 S 8TH ST, BROOKLYN, NY, 11211",59076136,"L"
39667,"123 SOUTH BROAD STREET SUITE 1930","PHILADELPHIA","PA",19109,39.9500148230001,-75.1640275409999,167,"123 SOUTH BROAD STREET SUITE 1930, PHILADELPHIA, PA, 19109","Match","Non_Exact","123 S BROAD ST, PHILADELPHIA, PA, 19107",131456498,"L"
39668,"123 SOUTH CENTRAL AVENUE","VALLEY STREAM","NY",11580,40.6648296330001,-73.708438149,168,"123 SOUTH CENTRAL AVENUE, VALLEY STREAM, NY, 11580","Match","Exact","123 S CENTRAL AVE, VALLEY STREAM, NY, 11580",147668891,"L"
39669,"123 SOUTH GEYERS CHURCH RD","MIDDLETOWN","PA",17057,40.1907688850001,-76.692958298,169,"123 SOUTH GEYERS CHURCH RD, MIDDLETOWN, PA, 17057","Match","Exact","123 S GEYERS CHURCH RD, MIDDLETOWN, PA, 17057",70838350,"L"
39670,"123 SOUTH GEYERS CHURCH ROAD","MIDDLETOWN","PA",17057,40.1907688850001,-76.692958298,170,"123 SOUTH GEYERS CHURCH ROAD, MIDDLETOWN, PA, 17057","Match","Exact","123 S GEYERS CHURCH RD, MIDDLETOWN, PA, 17057",70838350,"L"
39671,"123 SOUTH LAKE STREET","LAKE MARY","FL",32746,28.7554597710001,-81.315931157,171,"123 SOUTH LAKE STREET, LAKE MARY, FL, 32746","Match","Exact","123 S LAKE ST, LAKE MARY, FL, 32746",93766726,"R"
39672,"123 SOUTH NEAL STREET","PRAIRIE GROVE","AR",72753,35.975159149,-94.31540997,172,"123 SOUTH NEAL STREET, PRAIRIE GROVE, AR, 72753","Match","Exact","123 S NEAL ST, PRAIRIE GROVE, AR, 72753",49036799,"R"
39673,"123 SOUTH THIRD STREET","EASTON","PA",18042,40.6891534480001,-75.208948086,173,"123 SOUTH THIRD STREET, EASTON, PA, 18042","Match","Exact","123 S 3RD ST, EASTON, PA, 18042",647954118,"R"
39674,"123 SOUTH TRYBOM DRIVE","IRON RIVER","MI",49935,46.135291346,-88.587769824,174,"123 SOUTH TRYBOM DRIVE, IRON RIVER, MI, 49935","Match","Exact","123 S TRYBOM DR, IRON RIVER, MI, 49935",165178188,"R"
39675,"123 SPENCER STREET","VALLEJO","CA",94589,38.15150214,-122.255819234,175,"123 SPENCER STREET, VALLEJO, CA, 94589","Match","Exact","123 SPENCER ST, VALLEJO, CA, 94589",192531628,"L"
39676,"123 SPRING ST","WINDSOR LOCKS","CT",6088,NA,NA,176,"123 SPRING ST, WINDSOR LOCKS, CT, 6088","No_Match",NA,NA,NA,NA
39677,"123 STATE PARK ROAD 64","FAIRFIELD","TX",75840,31.7685766760001,-96.072647122,177,"123 STATE PARK ROAD 64, FAIRFIELD, TX, 75840","Match","Exact","123 STATE PARK RD 64, FAIRFIELD, TX, 75840",88973428,"R"
39678,"123 SW COLUMBIA STREET","BEND","OR",97702,44.049103024,-121.327147154,178,"123 SW COLUMBIA STREET, BEND, OR, 97702","Match","Exact","123 SW COLUMBIA ST, BEND, OR, 97702",152579397,"L"
39679,"123 SW NORTH RIVER DRVE","MIAMI","FL",33130,25.772991615,-80.19989724,179,"123 SW NORTH RIVER DRVE, MIAMI, FL, 33130","Match","Exact","123 SW NORTH RIVER DR, MIAMI, FL, 33130",116018288,"L"
39680,"123 SWISS AVENUE/8","BURNSVILLE","NC",28714,35.920127301,-82.303936815,180,"123 SWISS AVENUE/8, BURNSVILLE, NC, 28714","Match","Non_Exact","123 SWISS AVE, BURNSVILLE, NC, 28714",37416167,"R"
39681,"123 THOMAS STREET","SUFFOLK","VA",23434,NA,NA,181,"123 THOMAS STREET, SUFFOLK, VA, 23434","No_Match",NA,NA,NA,NA
39682,"123 TOWN SQUARE PLACE NUMBER 402","JERSEY CITY","NJ",7310,NA,NA,182,"123 TOWN SQUARE PLACE NUMBER 402, JERSEY CITY, NJ, 7310","No_Match",NA,NA,NA,NA
39683,"123 TOWN SQUARE PLACE SUITE 635","JERSEY CITY","NJ",7310,NA,NA,183,"123 TOWN SQUARE PLACE SUITE 635, JERSEY CITY, NJ, 7310","No_Match",NA,NA,NA,NA
39684,"123 TOWN SQUARE PLACE UNIT 378","JERSEY CITY","NJ",7310,NA,NA,184,"123 TOWN SQUARE PLACE UNIT 378, JERSEY CITY, NJ, 7310","No_Match",NA,NA,NA,NA
39685,"123 VILLAGE DRIVE","SEAFORD","DE",19973,38.6522158510001,-75.5642414289999,185,"123 VILLAGE DRIVE, SEAFORD, DE, 19973","Match","Exact","123 VILLAGE DR, SEAFORD, DE, 19973",640647064,"L"
39686,"123 VINEYARD RD NW","ALBUQUERQUE","NM",87107,35.1475216700001,-106.62997397,186,"123 VINEYARD RD NW, ALBUQUERQUE, NM, 87107","Match","Exact","123 VINEYARD RD NW, ALBUQUERQUE, NM, 87107",206773717,"R"
39687,"123 VISTA PT","HOHENWALD","TN",38462,35.4865565000001,-87.5598197259999,187,"123 VISTA PT, HOHENWALD, TN, 38462","Match","Exact","123 VISTA PT, HOHENWALD, TN, 38462",607142936,"R"
39688,"123 W 43RD ST","NEW YORK","NY",10036,40.7558147490001,-73.984307958,188,"123 W 43RD ST, NEW YORK, NY, 10036","Match","Exact","123 W 43RD ST, NEW YORK, NY, 10036",59655314,"R"
39689,"123 W 9TH ST SUITE 204","LAWRENCE","KS",66046,NA,NA,189,"123 W 9TH ST SUITE 204, LAWRENCE, KS, 66046","No_Match",NA,NA,NA,NA
39690,"123 W ARMOUR BLVD","KANSAS CITY","MO",64111,39.0638399740001,-94.587184576,190,"123 W ARMOUR BLVD, KANSAS CITY, MO, 64111","Match","Exact","123 W ARMOUR BLVD, KANSAS CITY, MO, 64111",91447341,"L"
39691,"123 W BLOOMINGDALE AVENUE","BRANDON","FL",33511,27.8936223000001,-82.289828142,191,"123 W BLOOMINGDALE AVENUE, BRANDON, FL, 33511","Match","Exact","123 W BLOOMINGDALE AVE, BRANDON, FL, 33511",104544016,"L"
39692,"123 W CAMERON AVE","ROCKDALE","TX",76567,30.6555134760001,-97.0016437899999,192,"123 W CAMERON AVE, ROCKDALE, TX, 76567","Match","Exact","123 W CAMERON AVE, ROCKDALE, TX, 76567",25200383,"R"
39693,"123 W CHANDLER HEIGHTS RD","CHANDLER","AZ",85248,33.233007183,-111.844108411,193,"123 W CHANDLER HEIGHTS RD, CHANDLER, AZ, 85248","Match","Exact","123 W CHANDLER HEIGHTS RD, CHANDLER, AZ, 85248",625685639,"R"
39694,"123 W CHANDLER HEIGHTS ROAD 13125","CHANDLER","AZ",85248,33.233007183,-111.844108411,194,"123 W CHANDLER HEIGHTS ROAD 13125, CHANDLER, AZ, 85248","Match","Non_Exact","123 W CHANDLER HEIGHTS RD, CHANDLER, AZ, 85248",625685639,"R"
39695,"123 W CREST ROAD","HUEYTOWN","AL",35023,33.4583834470001,-86.9995081329999,195,"123 W CREST ROAD, HUEYTOWN, AL, 35023","Match","Exact","123 W CREST RD, HUEYTOWN, AL, 35023",81546241,"L"
39696,"123 W FLORIDA AVE","YOUNGSTOWN","OH",44507,41.0701226310001,-80.662328352,196,"123 W FLORIDA AVE, YOUNGSTOWN, OH, 44507","Match","Exact","123 W FLORIDA AVE, YOUNGSTOWN, OH, 44507",64596028,"L"
39697,"123 W LEXINGTON AVENUE","INDEPENDENCE","MO",64050,39.092143999,-94.416087083,197,"123 W LEXINGTON AVENUE, INDEPENDENCE, MO, 64050","Match","Exact","123 W LEXINGTON AVE, INDEPENDENCE, MO, 64050",91462541,"L"
39698,"123 W LIBERTY RD","SYKESVILLE","MD",21784,39.4253291050001,-77.000745239,198,"123 W LIBERTY RD, SYKESVILLE, MD, 21784","Match","Non_Exact","123 OLD LIBERTY RD, SYKESVILLE, MD, 21784",61785750,"L"
39699,"123 W MADISON ST STE 1700","CHICAGO","IL",60602,41.881965312,-87.631666861,199,"123 W MADISON ST STE 1700, CHICAGO, IL, 60602","Match","Non_Exact","123 W MADISON ST, CHICAGO, IL, 60602",618051536,"L"
39700,"123 W MADISON STREET - SUITE 2100","CHICAGO","IL",60602,41.881965312,-87.631666861,200,"123 W MADISON STREET - SUITE 2100, CHICAGO, IL, 60602","Match","Non_Exact","123 W MADISON ST, CHICAGO, IL, 60602",618051536,"L"
39701,"123 W PLYMOUTH STREET","BREMEN","IN",46506,41.446539768,-86.146810963,201,"123 W PLYMOUTH STREET, BREMEN, IN, 46506","Match","Exact","123 W PLYMOUTH ST, BREMEN, IN, 46506",7639991,"R"
39702,"123 W RIDGE RD","SCHELLSBURG","PA",15559,40.0477490650001,-78.662686744,202,"123 W RIDGE RD, SCHELLSBURG, PA, 15559","Match","Exact","123 W RIDGE RD, SCHELLSBURG, PA, 15559",50183485,"L"
39703,"123 W ST CHARLES RD STE 101","LOMBARD","IL",60148,NA,NA,203,"123 W ST CHARLES RD STE 101, LOMBARD, IL, 60148","Tie",NA,NA,NA,NA
39704,"123 W THIRD STREET","DOVER","OH",44622,40.5222844990001,-81.47670792,204,"123 W THIRD STREET, DOVER, OH, 44622","Match","Exact","123 W 3RD ST, DOVER, OH, 44622",44246724,"L"
39705,"123 WALNUT AVE","LAKEWOOD","NJ",8701,40.052776307,-74.224208558,205,"123 WALNUT AVE, LAKEWOOD, NJ, 8701","Match","Exact","123 WALNUT AVE, LAKEWOOD, NJ, 08701",641932155,"L"
39706,"123 WALNUT RD","RANSON","WV",25438,39.3036683170001,-77.869034015,206,"123 WALNUT RD, RANSON, WV, 25438","Match","Exact","123 WALNUT RD, RANSON, WV, 25438",123421810,"L"
39707,"123 WASHBURN AVE","COVENTRY","CT",6238,41.767247938,-72.327764658,207,"123 WASHBURN AVE, COVENTRY, CT, 6238","Match","Exact","123 WASHBURN AVE, COVENTRY, CT, 06238",57001826,"L"
39708,"123 WASHINGTON AVE","RUTHERFORD","NJ",7070,40.8341566710001,-74.1071892749999,208,"123 WASHINGTON AVE, RUTHERFORD, NJ, 7070","Match","Exact","123 WASHINGTON AVE, RUTHERFORD, NJ, 07070",64394870,"L"
39709,"123 WASHINGTON STREET","NEWARK","NJ",7102,40.740550189,-74.172575561,209,"123 WASHINGTON STREET, NEWARK, NJ, 7102","Match","Exact","123 WASHINGTON ST, NEWARK, NJ, 07102",63467410,"R"
39710,"123 WEAVER LN","WEAVER","AL",36277,33.7445315430001,-85.8228824619999,210,"123 WEAVER LN, WEAVER, AL, 36277","Match","Exact","123 WEAVER LN, WEAVER, AL, 36277",652577373,"R"
39711,"123 WEST 123 STREET GARDEN LEVEL","NEW YORK","NY",10027,40.8067982590001,-73.9471960879999,211,"123 WEST 123 STREET GARDEN LEVEL, NEW YORK, NY, 10027","Match","Exact","123 W 123RD ST, NEW YORK, NY, 10027",59656180,"R"
39712,"123 WEST 133 ST APT 5C","NEW YORK","NY",10030,40.813220759,-73.9427484939999,212,"123 WEST 133 ST APT 5C, NEW YORK, NY, 10030","Match","Exact","123 W 133RD ST, NEW YORK, NY, 10030",652209694,"R"
39713,"123 WEST 3RD STREET","WEST ISLIP","NY",11795,40.7229187660001,-73.299924645,213,"123 WEST 3RD STREET, WEST ISLIP, NY, 11795","Match","Exact","123 W 3RD ST, WEST ISLIP, NY, 11795",113993825,"L"
39714,"123 WEST 77TH STREET 4A","NEW YORK","NY",10024,40.7809793230001,-73.977189895,214,"123 WEST 77TH STREET 4A, NEW YORK, NY, 10024","Match","Exact","123 W 77TH ST, NEW YORK, NY, 10024",59656676,"R"
39715,"123 WEST CAMPBELLTON STREET SUITE 2","FAIRBURN","GA",30213,33.5697588470001,-84.584131613,215,"123 WEST CAMPBELLTON STREET SUITE 2, FAIRBURN, GA, 30213","Match","Exact","123 W CAMPBELLTON ST, FAIRBURN, GA, 30213",17350374,"R"
39716,"123 WEST LIBERTY ROAD","SYKESVILLE","MD",21784,39.4252936250001,-77.0006797089999,216,"123 WEST LIBERTY ROAD, SYKESVILLE, MD, 21784","Match","Non_Exact","123 OLD LIBERTY RD, SYKESVILLE, MD, 21784",61785750,"L"
39717,"123 WEST MAIN-SUITE 120B","GRAND PRAIRIE","TX",75050,NA,NA,217,"123 WEST MAIN-SUITE 120B, GRAND PRAIRIE, TX, 75050","No_Match",NA,NA,NA,NA
39718,"123 WEST MILLS - SUITE 111","EL PASO","TX",79901,31.7589472490001,-106.488759009,218,"123 WEST MILLS - SUITE 111, EL PASO, TX, 79901","Match","Non_Exact","123 W MILLS AVE, EL PASO, TX, 79901",189406901,"R"
39719,"123 WEST NYE LANE SUITE 129","CARSON CITY","NV",89706,39.186500913,-119.76847101,219,"123 WEST NYE LANE SUITE 129, CARSON CITY, NV, 89706","Match","Exact","123 W NYE LN, CARSON CITY, NV, 89706",199517058,"R"
39720,"123 WEST RUTH STREET","MANKATO","MN",56001,44.1834065240001,-93.9878404089999,220,"123 WEST RUTH STREET, MANKATO, MN, 56001","Match","Exact","123 W RUTH ST, MANKATO, MN, 56001",28101752,"L"
39721,"123 WEST SHERIDAN AVENUE","NEW CASTLE","PA",16105,41.014940397,-80.3495197559999,221,"123 WEST SHERIDAN AVENUE, NEW CASTLE, PA, 16105","Match","Exact","123 W SHERIDAN AVE, NEW CASTLE, PA, 16105",642878637,"R"
39722,"123 WEST SYCAMORE STREET","WAYLAND","MI",49348,42.671517115,-85.643531958,222,"123 WEST SYCAMORE STREET, WAYLAND, MI, 49348","Match","Exact","123 W SYCAMORE ST, WAYLAND, MI, 49348",11416648,"L"
39723,"123 WEST WARREN ST","BUNKER HILL","IL",62014,39.0427424820001,-89.941247023,223,"123 WEST WARREN ST, BUNKER HILL, IL, 62014","Match","Non_Exact","123 WARREN ST, BUNKER HILL, IL, 62014",97929611,"R"
39724,"123 WEST WATER STREET","DECORAH","IA",52101,43.3041618870001,-91.786269112,224,"123 WEST WATER STREET, DECORAH, IA, 52101","Match","Exact","123 W WATER ST, DECORAH, IA, 52101",27510769,"L"
39725,"123 WEST WATER STREET","SLIPPERY ROCK","PA",16057,41.0643589900001,-80.0584638989999,225,"123 WEST WATER STREET, SLIPPERY ROCK, PA, 16057","Match","Exact","123 W WATER ST, SLIPPERY ROCK, PA, 16057",52690870,"R"
39726,"123 WESTBOURNE CT","RADCLIFF","KY",40160,37.789100573,-85.919079126,226,"123 WESTBOURNE CT, RADCLIFF, KY, 40160","Match","Exact","123 WESTBOURNE CT, RADCLIFF, KY, 40160",619895768,"R"
39727,"123 WHITCOMB AVE","LITTLETON","MA",1460,42.530036276,-71.518685233,227,"123 WHITCOMB AVE, LITTLETON, MA, 1460","Match","Exact","123 WHITCOMB AVE, LITTLETON, MA, 01460",87116933,"L"
39728,"123 WILSON CREEK STE 39","MCKINNEY","TX",75069,NA,NA,228,"123 WILSON CREEK STE 39, MCKINNEY, TX, 75069","Tie",NA,NA,NA,NA
39729,"123 WINDJAMMER LANE","GROVER","MO",63040,38.5777014220001,-90.617130711,229,"123 WINDJAMMER LANE, GROVER, MO, 63040","Match","Exact","123 WINDJAMMER LN, GROVER, MO, 63040",100169457,"L"
39730,"123 WOODLAWN AVE","JERSEY CITY","NJ",7305,40.7025370370001,-74.085298639,230,"123 WOODLAWN AVE, JERSEY CITY, NJ, 7305","Match","Exact","123 WOODLAWN AVE, JERSEY CITY, NJ, 07305",59606438,"L"
39731,"123 WOODSBROOK PLACE","MADISON","AL",35756,34.612048987,-86.73954037,231,"123 WOODSBROOK PLACE, MADISON, AL, 35756","Match","Exact","123 WOODSBROOK PL, MADISON, AL, 35756",627476628,"L"
39732,"123 WORLEY DRIVE","MADISON HEIGHTS","VA",24572,37.4366786580001,-79.127969347,232,"123 WORLEY DRIVE, MADISON HEIGHTS, VA, 24572","Match","Exact","123 WORLEY DR, MADISON HEIGHTS, VA, 24572",159116959,"L"
39733,"123 YOUNG STREET","HENDERSON","NC",27536,36.328320997,-78.4024512459999,233,"123 YOUNG STREET, HENDERSON, NC, 27536","Match","Exact","123 YOUNG ST, HENDERSON, NC, 27536",90271080,"L"
39734,"123-19 GRAYSON STREET","SPRINGFIELD GARDENS","NY",11413,40.6823340110001,-73.756395509,234,"123-19 GRAYSON STREET, SPRINGFIELD GARDENS, NY, 11413","Match","Exact","123-19 GRAYSON ST, SPRINGFIELD GARDENS, NY, 11413",59719468,"L"
39735,"123-A HIGHWAY 80 EAST","CLINTON","MS",39056,NA,NA,235,"123-A HIGHWAY 80 EAST, CLINTON, MS, 39056","No_Match",NA,NA,NA,NA
39736,"123","CINCINNATI","OH",45246,NA,NA,236,"123, CINCINNATI, OH, 45246","No_Match",NA,NA,NA,NA
39737,"123","MARS","PA",16046,NA,NA,237,"123, MARS, PA, 16046","No_Match",NA,NA,NA,NA
39738,"123","NEWTON FALLS","OH",44444,NA,NA,238,"123, NEWTON FALLS, OH, 44444","No_Match",NA,NA,NA,NA
39739,"123","RAHWAY","NJ",7065,NA,NA,239,"123, RAHWAY, NJ, 7065","No_Match",NA,NA,NA,NA
39740,"1230  LOMA VISTA STREET","POMONA","CA",91768,34.0766451100001,-117.772408285,240,"1230  LOMA VISTA STREET, POMONA, CA, 91768","Match","Non_Exact","1230 W LOMA VISTA ST, POMONA, CA, 91768",641509665,"L"
39741,"1230 12TH ST","DES MOINES","IA",50314,41.60104138,-93.633004226,241,"1230 12TH ST, DES MOINES, IA, 50314","Match","Exact","1230 12TH ST, DES MOINES, IA, 50314",65782049,"L"
39742,"1230 29TH STREET","WEST DES MOINES","IA",50266,41.590112506,-93.7441193449999,242,"1230 29TH STREET, WEST DES MOINES, IA, 50266","Match","Exact","1230 29TH ST, WEST DES MOINES, IA, 50266",65776518,"L"
39743,"1230 46TH ST","BROOKLYN","NY",11219,40.63758291,-73.991832786,243,"1230 46TH ST, BROOKLYN, NY, 11219","Match","Exact","1230 46TH ST, BROOKLYN, NY, 11219",59080206,"R"
39744,"1230 ADAMS ROAD","WALDORF","MD",20602,38.5991749020001,-76.925673042,244,"1230 ADAMS ROAD, WALDORF, MD, 20602","Match","Exact","1230 ADAMS RD, WALDORF, MD, 20602",647433156,"L"
39745,"1230 AMELIA ST","ORANGEBURG","SC",29115,33.491209939,-80.864606857,245,"1230 AMELIA ST, ORANGEBURG, SC, 29115","Match","Exact","1230 AMELIA ST, ORANGEBURG, SC, 29115",19217475,"R"
39746,"1230 ANGIE ST","NEW IBERIA","LA",70560,29.989680014,-91.821904005,246,"1230 ANGIE ST, NEW IBERIA, LA, 70560","Match","Exact","1230 ANGIE ST, NEW IBERIA, LA, 70560",85354133,"R"
39747,"1230 BEACH ST","FAR ROCKAWAY","NY",11619,NA,NA,247,"1230 BEACH ST, FAR ROCKAWAY, NY, 11619","No_Match",NA,NA,NA,NA
39748,"1230 BEVERLY DRIVE","ATHENS","GA",20606,33.9061969950001,-83.4377933499999,248,"1230 BEVERLY DRIVE, ATHENS, GA, 20606","Match","Non_Exact","1230 BEVERLY DR, ATHENS, GA, 30606",647798027,"L"
39749,"1230 BRACE ROAD","CHERRY HILL","NJ",8034,39.9030721890001,-75.013179378,249,"1230 BRACE ROAD, CHERRY HILL, NJ, 8034","Match","Exact","1230 BRACE RD, CHERRY HILL, NJ, 08034",134355142,"R"
39750,"1230 COLTS PRIDE DRIVE","FAYETTEVILLE","NC",28312,35.0076790430001,-78.758726907,250,"1230 COLTS PRIDE DRIVE, FAYETTEVILLE, NC, 28312","Match","Exact","1230 COLTS PRIDE DR, FAYETTEVILLE, NC, 28312",64262073,"R"
39751,"1230 COLUMBIA AVENUE","IRMO","SC",29063,NA,NA,251,"1230 COLUMBIA AVENUE, IRMO, SC, 29063","No_Match",NA,NA,NA,NA
39752,"1230 DAVIS ST","SULPHUR SPRINGS","TX",75482,33.1185994080001,-95.602508728,252,"1230 DAVIS ST, SULPHUR SPRINGS, TX, 75482","Match","Non_Exact","1230 S DAVIS ST, SULPHUR SPRINGS, TX, 75482",42788530,"R"
39753,"1230 DOTSON RD","HENRICO","VA",23231,37.4628811540001,-77.4004546749999,253,"1230 DOTSON RD, HENRICO, VA, 23231","Match","Exact","1230 DOTSON RD, HENRICO, VA, 23231",106679907,"L"
39754,"1230 DR MARTIN LUTHER KING JR BLVD","ST PETERSBURG","FL",33705,NA,NA,254,"1230 DR MARTIN LUTHER KING JR BLVD, ST PETERSBURG, FL, 33705","No_Match",NA,NA,NA,NA
39755,"1230 E 75TH STREET","LOS ANGELES","CA",90001,33.9723024640001,-118.253343006,255,"1230 E 75TH STREET, LOS ANGELES, CA, 90001","Match","Exact","1230 E 75TH ST, LOS ANGELES, CA, 90001",142760288,"R"
39756,"1230 E BROADWAY","GLENDALE","CA",91205,34.1462066280001,-118.238975079,256,"1230 E BROADWAY, GLENDALE, CA, 91205","Match","Exact","1230 E BROADWAY, GLENDALE, CA, 91205",241240510,"R"
39757,"1230 E MAIN STREET","OMRO","WI",54963,44.0404374940001,-88.728145908,257,"1230 E MAIN STREET, OMRO, WI, 54963","Match","Exact","1230 E MAIN ST, OMRO, WI, 54963",74483472,"L"
39758,"1230 EAST TREMONT AVENUE APT 4E","BRONX","NY",10460,40.8396873450001,-73.8715338,258,"1230 EAST TREMONT AVENUE APT 4E, BRONX, NY, 10460","Match","Exact","1230 E TREMONT AVE, BRONX, NY, 10460",80304250,"R"
39759,"1230 ELIZABETH AVENUE","TARRANT","AL",35217,33.5835404150001,-86.768339515,259,"1230 ELIZABETH AVENUE, TARRANT, AL, 35217","Match","Exact","1230 ELIZABETH AVE, TARRANT, AL, 35217",81577350,"L"
39760,"1230 ELMWOOD AVE - SUITE 4","PROVIDENCE","RI",2907,41.778017253,-71.4208625969999,260,"1230 ELMWOOD AVE - SUITE 4, PROVIDENCE, RI, 2907","Match","Exact","1230 ELMWOOD AVE, PROVIDENCE, RI, 02907",47512834,"R"
39761,"1230 FALL CREEK RD","LINCOLN","NE",68510,40.801106238,-96.648066399,261,"1230 FALL CREEK RD, LINCOLN, NE, 68510","Match","Exact","1230 FALL CREEK RD, LINCOLN, NE, 68510",28260282,"L"
39762,"1230 FM 1960 BYPASS RD E APT 513","HUMBLE","TX",77388,NA,NA,262,"1230 FM 1960 BYPASS RD E APT 513, HUMBLE, TX, 77388","No_Match",NA,NA,NA,NA
39763,"1230 GARBER STREET","RICHMOND","VA",23231,37.5138148550001,-77.4024545789999,263,"1230 GARBER STREET, RICHMOND, VA, 23231","Match","Exact","1230 GARBER ST, RICHMOND, VA, 23231",201548997,"L"
39764,"1230 GLENBURNIE LANE","DRESHER","PA",19025,40.1362121560001,-75.151449226,264,"1230 GLENBURNIE LANE, DRESHER, PA, 19025","Match","Exact","1230 GLENBURNIE LN, DRESHER, PA, 19025",135091815,"L"
39765,"1230 GREENFIELD DRIVE","ERIE","PA",16509,42.0759791950001,-80.0827733839999,265,"1230 GREENFIELD DRIVE, ERIE, PA, 16509","Match","Exact","1230 GREENFIELD DR, ERIE, PA, 16509",117496335,"R"
39766,"1230 HAMILTON","PAMPA","TX",79065,NA,NA,266,"1230 HAMILTON, PAMPA, TX, 79065","No_Match",NA,NA,NA,NA
39767,"1230 HAMPTON BLVD SUITE 13","NORTH LAUDERDALE","FL",33068,26.2123383100001,-80.228676838,267,"1230 HAMPTON BLVD SUITE 13, NORTH LAUDERDALE, FL, 33068","Match","Exact","1230 HAMPTON BLVD, N LAUDERDALE, FL, 33068",638638079,"L"
39768,"1230 HARLEY RUN DR","BLACKLICK","OH",43004,40.0085672270001,-82.78561466,268,"1230 HARLEY RUN DR, BLACKLICK, OH, 43004","Match","Exact","1230 HARLEY RUN DR, BLACKLICK, OH, 43004",647771093,"R"
39769,"1230 HARPER AVENUE","WOODLYN","PA",19094,39.880957299,-75.343998443,269,"1230 HARPER AVENUE, WOODLYN, PA, 19094","Match","Exact","1230 HARPER AVE, WOODLYN, PA, 19094",134898916,"L"
39770,"1230 HIGHWAY 20","TONASKET","WA",98855,48.668982998,-119.247977302,270,"1230 HIGHWAY 20, TONASKET, WA, 98855","Match","Exact","1230 HWY 20, TONASKET, WA, 98855",653016722,"R"
39771,"1230 HILLCREST DR","SOUTH BEND","IN",46617,41.692067513,-86.2522752369999,271,"1230 HILLCREST DR, SOUTH BEND, IN, 46617","Match","Non_Exact","1230 HILLCREST RD, SOUTH BEND, IN, 46617",8089721,"R"
39772,"1230 HOLLYRIDGE TRAIL","MAITLAND","FL",32751,28.640580286,-81.329643001,272,"1230 HOLLYRIDGE TRAIL, MAITLAND, FL, 32751","Match","Exact","1230 HOLLYRIDGE TRL, MAITLAND, FL, 32751",93744471,"R"
39773,"1230 KNOX AVENUE NORTH","MINNEAPOLIS","MN",55411,44.9907797050001,-93.301919517,273,"1230 KNOX AVENUE NORTH, MINNEAPOLIS, MN, 55411","Match","Exact","1230 KNOX AVE N, MINNEAPOLIS, MN, 55411",43623682,"R"
39774,"1230 LAKE JACKSON ROAD","GLEN ALLAN","MS",38744,NA,NA,274,"1230 LAKE JACKSON ROAD, GLEN ALLAN, MS, 38744","No_Match",NA,NA,NA,NA
39775,"1230 LONG POND ROAD","ROCHESTER","NY",14626,43.2127188700001,-77.69589619,275,"1230 LONG POND ROAD, ROCHESTER, NY, 14626","Match","Exact","1230 LONG POND RD, ROCHESTER, NY, 14626",14551116,"L"
39776,"1230 LUROSE DR","CROWLEY","LA",70526,30.2155906580001,-92.390750386,276,"1230 LUROSE DR, CROWLEY, LA, 70526","Match","Exact","1230 LUROSE DR, CROWLEY, LA, 70526",88301712,"R"
39777,"1230 LYNBROOK DR","CHARLOTTE","NC",28211,35.171241735,-80.7721464539999,277,"1230 LYNBROOK DR, CHARLOTTE, NC, 28211","Match","Exact","1230 LYNBROOK DR, CHARLOTTE, NC, 28211",70492795,"R"
39778,"1230 MADERA ROAD SUITE 5-288","SIMI VALLEY","CA",93065,34.2623868700001,-118.796200186,278,"1230 MADERA ROAD SUITE 5-288, SIMI VALLEY, CA, 93065","Match","Exact","1230 MADERA RD, SIMI VALLEY, CA, 93065",110081795,"R"
39779,"1230 MIGHTY OAK LN UNIT B","REDDING","CA",96002,40.540593835,-122.346710556,279,"1230 MIGHTY OAK LN UNIT B, REDDING, CA, 96002","Match","Exact","1230 MIGHTY OAK LN, REDDING, CA, 96002",627652856,"R"
39780,"1230 MONTEVALLO RD","LEEDS","AL",35094,33.539405507,-86.5630354739999,280,"1230 MONTEVALLO RD, LEEDS, AL, 35094","Match","Non_Exact","1230 MONTEVALLO RD SW, LEEDS, AL, 35094",81590298,"R"
39781,"1230 N SCENIC HWY","LAKE WALES","FL",33853,27.917711916,-81.5924395879999,281,"1230 N SCENIC HWY, LAKE WALES, FL, 33853","Match","Exact","1230 N SCENIC HWY, LAKE WALES, FL, 33853",628024881,"R"
39782,"1230 NE STAIR WAY","ESTACADA","OR",97023,NA,NA,282,"1230 NE STAIR WAY, ESTACADA, OR, 97023","No_Match",NA,NA,NA,NA
39783,"1230 NELSON AVE","BRONX","NY",10452,40.8381649620001,-73.925043962,283,"1230 NELSON AVE, BRONX, NY, 10452","Match","Exact","1230 NELSON AVE, BRONX, NY, 10452",80299451,"R"
39784,"1230 NORTH INDIANA AVENUE  STE  210","ATLANTIC CITY","NJ",8401,39.372338965,-74.441272756,284,"1230 NORTH INDIANA AVENUE  STE  210, ATLANTIC CITY, NJ, 8401","Match","Exact","1230 N INDIANA AVE, ATLANTIC CITY, NJ, 08401",202489782,"L"
39785,"1230 NORTHOVER DRIVE","BLOOMFIELD HILLS","MI",48304,42.5945441630001,-83.2096517379999,285,"1230 NORTHOVER DRIVE, BLOOMFIELD HILLS, MI, 48304","Match","Exact","1230 NORTHOVER DR, BLOOMFIELD HILLS, MI, 48304",69777970,"R"
39786,"1230 NW 133 AVE","SUNRISE","FL",33323,26.138279165,-80.325816563,286,"1230 NW 133 AVE, SUNRISE, FL, 33323","Match","Exact","1230 NW 133RD AVE, SUNRISE, FL, 33323",114767263,"L"
39787,"1230 OKLAHOMA PLAZA","ADA","OK",74820,NA,NA,287,"1230 OKLAHOMA PLAZA, ADA, OK, 74820","No_Match",NA,NA,NA,NA
39788,"1230 PARK AVE","COLUMBIA","MS",39429,31.2648208700001,-89.823426302,288,"1230 PARK AVE, COLUMBIA, MS, 39429","Match","Exact","1230 PARK AVE, COLUMBIA, MS, 39429",203473998,"R"
39789,"1230 PEACHTREE ST NE 19TH FLOOR","ATLANTA","GA",30309,33.788213135,-84.383795821,289,"1230 PEACHTREE ST NE 19TH FLOOR, ATLANTA, GA, 30309","Match","Non_Exact","1230 PEACHTREE ST, ATLANTA, GA, 30309",17425072,"L"
39790,"1230 PEACHTREE ST NE FL 19","ATLANTA","GA",30309,33.788213135,-84.383795821,290,"1230 PEACHTREE ST NE FL 19, ATLANTA, GA, 30309","Match","Non_Exact","1230 PEACHTREE ST, ATLANTA, GA, 30309",17425072,"L"
39791,"1230 PEACHTREE STREET NE SUITE 3100","ATLANTA","GA",30309,33.788213135,-84.383795821,291,"1230 PEACHTREE STREET NE SUITE 3100, ATLANTA, GA, 30309","Match","Non_Exact","1230 PEACHTREE ST, ATLANTA, GA, 30309",17425072,"L"
39792,"1230 PEACHTREE STREET NE SUITE 900","ATLANTA","GA",30309,33.788213135,-84.383795821,292,"1230 PEACHTREE STREET NE SUITE 900, ATLANTA, GA, 30309","Match","Non_Exact","1230 PEACHTREE ST, ATLANTA, GA, 30309",17425072,"L"
39793,"1230 PONTIAC","DENVER","CO",80220,39.736180307,-104.905804833,293,"1230 PONTIAC, DENVER, CO, 80220","Match","Non_Exact","1230 PONTIAC ST, DENVER, CO, 80220",177313445,"R"
39794,"1230 QUEEN AVENUE NORTH","MINNEAPOLIS","MN",55411,44.990175757,-93.30951269,294,"1230 QUEEN AVENUE NORTH, MINNEAPOLIS, MN, 55411","Match","Exact","1230 QUEEN AVE N, MINNEAPOLIS, MN, 55411",43623558,"R"
39795,"1230 RAMBLEWOOD DRIVE","ANNAPOLIS","MD",21409,39.040278372,-76.455703397,295,"1230 RAMBLEWOOD DRIVE, ANNAPOLIS, MD, 21409","Match","Exact","1230 RAMBLEWOOD DR, ANNAPOLIS, MD, 21409",68174743,"R"
39796,"1230 RAYMOND RD 600","JACKSON","MS",39204,32.2842920520001,-90.2453603709999,296,"1230 RAYMOND RD 600, JACKSON, MS, 39204","Match","Exact","1230 RAYMOND RD, JACKSON, MS, 39204",65366646,"R"
39797,"1230 RIVER BEND DR 160","DALLAS","TX",75247,32.81600654,-96.8655657,297,"1230 RIVER BEND DR 160, DALLAS, TX, 75247","Match","Exact","1230 RIVER BEND DR, DALLAS, TX, 75247",103200596,"R"
39798,"1230 ROSECRANS AVE STE 300","MANHATTAN BEACH","CA",90266,33.901864867,-118.390138707,298,"1230 ROSECRANS AVE STE 300, MANHATTAN BEACH, CA, 90266","Match","Exact","1230 ROSECRANS AVE, MANHATTAN BEACH, CA, 90266",642867646,"R"
39799,"1230 ROSECRANS AVE SUITE 300","MANHATTAN BEACH","CA",90266,33.901864867,-118.390138707,299,"1230 ROSECRANS AVE SUITE 300, MANHATTAN BEACH, CA, 90266","Match","Exact","1230 ROSECRANS AVE, MANHATTAN BEACH, CA, 90266",642867646,"R"
39800,"1230 ROSECRANS AVENUE SUITE 650","MANHATTAN BEACH","CA",90266,33.901864867,-118.390138707,300,"1230 ROSECRANS AVENUE SUITE 650, MANHATTAN BEACH, CA, 90266","Match","Exact","1230 ROSECRANS AVE, MANHATTAN BEACH, CA, 90266",642867646,"R"
39801,"1230 S DELAWARE AVE","OKMULGEE","OK",74447,35.6115127040001,-95.966213239,301,"1230 S DELAWARE AVE, OKMULGEE, OK, 74447","Match","Exact","1230 S DELAWARE AVE, OKMULGEE, OK, 74447",166249140,"L"
39802,"1230 S HURSTBOURNE PKWY     STE 100","LOUISVILLE","KY",40222,38.22754568,-85.577605358,302,"1230 S HURSTBOURNE PKWY     STE 100, LOUISVILLE, KY, 40222","Match","Non_Exact","1230 S HURSTBOURNE PKWY, LOUISVILLE, KY, 40222",96911285,"R"
39803,"1230 S MAIN ST","CORONA","CA",92882,33.8686991010001,-117.567370892,303,"1230 S MAIN ST, CORONA, CA, 92882","Match","Exact","1230 S MAIN ST, CORONA, CA, 92882",194777667,"R"
39804,"1230 S MAIN STREET","ST CHARLES","MO",63301,38.7697110120001,-90.488101568,304,"1230 S MAIN STREET, ST CHARLES, MO, 63301","Match","Exact","1230 S MAIN ST, SAINT CHARLES, MO, 63301",100022593,"L"
39805,"1230 S NOB HILL ROAD","DAVIE","FL",33324,26.104696818,-80.2819035489999,305,"1230 S NOB HILL ROAD, DAVIE, FL, 33324","Match","Exact","1230 S NOB HILL RD, DAVIE, FL, 33324",614654376,"L"
39806,"1230 S PARKER REOAD SUITE 207","DENVER","CO",80231,NA,NA,306,"1230 S PARKER REOAD SUITE 207, DENVER, CO, 80231","No_Match",NA,NA,NA,NA
39807,"1230 SCOTLAND BEND","WATKINSVILLE","GA",30677,33.8778976560001,-83.3704745269999,307,"1230 SCOTLAND BEND, WATKINSVILLE, GA, 30677","Match","Exact","1230 SCOTLAND BND, WATKINSVILLE, GA, 30677",618762848,"R"
39808,"1230 SE BISHOP BLVD","PULLMAN","WA",99163,NA,NA,308,"1230 SE BISHOP BLVD, PULLMAN, WA, 99163","No_Match",NA,NA,NA,NA
39809,"1230 SELBY AVE","ST. PAUL","MN",55104,44.9466174830001,-93.152292465,309,"1230 SELBY AVE, ST. PAUL, MN, 55104","Match","Exact","1230 SELBY AVE, SAINT PAUL, MN, 55104",97646420,"L"
39810,"1230 SEVEN HILLS CURVE","MOBILE","AL",36695,30.664624485,-88.25973941,310,"1230 SEVEN HILLS CURVE, MOBILE, AL, 36695","Match","Exact","1230 SEVEN HILLS CURV, MOBILE, AL, 36695",61835708,"R"
39811,"1230 SHERIDAN AVENUE 2I","BRONX","NY",10456,40.8347769980001,-73.916008386,311,"1230 SHERIDAN AVENUE 2I, BRONX, NY, 10456","Match","Exact","1230 SHERIDAN AVE, BRONX, NY, 10456",640810039,"R"
39812,"1230 SHERIDAN AVENUE APT 2I","BRONX","NY",10456,40.8347769980001,-73.916008386,312,"1230 SHERIDAN AVENUE APT 2I, BRONX, NY, 10456","Match","Exact","1230 SHERIDAN AVE, BRONX, NY, 10456",640810039,"R"
39813,"1230 SOUTH 61ST STREET","WEST ALLIS","WI",53214,43.019004524,-87.9886934909999,313,"1230 SOUTH 61ST STREET, WEST ALLIS, WI, 53214","Match","Exact","1230 S 61ST ST, WEST ALLIS, WI, 53214",77733675,"L"
39814,"1230 SOUTH HURSTBOURNE LANE","LOUISVILLE","KY",40222,38.2275566530001,-85.5776039679999,314,"1230 SOUTH HURSTBOURNE LANE, LOUISVILLE, KY, 40222","Match","Non_Exact","1230 S HURSTBOURNE PKWY, LOUISVILLE, KY, 40222",96911285,"R"
39815,"1230 SOUTH PARKER ROAD STE 207","DENVER","CO",80231,39.693702494,-104.894764289,315,"1230 SOUTH PARKER ROAD STE 207, DENVER, CO, 80231","Match","Exact","1230 S PARKER RD, DENVER, CO, 80231",640790992,"L"
39816,"1230 SOUTHERN AVENUE APT 101","WASHINGTON","DC",20032,38.833710324,-76.985284264,316,"1230 SOUTHERN AVENUE APT 101, WASHINGTON, DC, 20032","Match","Exact","1230 SOUTHERN AVE, WASHINGTON, DC, 20032",635190521,"L"
39817,"1230 STEWART ROAD","SACRAMENTO","CA",95864,38.5871231720001,-121.359074119,317,"1230 STEWART ROAD, SACRAMENTO, CA, 95864","Match","Exact","1230 STEWART RD, SACRAMENTO, CA, 95864",133339135,"R"
39818,"1230 SUNNYVIEW AVENUE","DAYTON","OH",45406,39.7926979920001,-84.232948477,318,"1230 SUNNYVIEW AVENUE, DAYTON, OH, 45406","Match","Exact","1230 SUNNYVIEW AVE, DAYTON, OH, 45406",635557224,"L"
39819,"1230 SW 127 CT","MIAMI","FL",33184,25.756383665,-80.401202226,319,"1230 SW 127 CT, MIAMI, FL, 33184","Match","Exact","1230 SW 127TH CT, MIAMI, FL, 33184",115963082,"R"
39820,"1230 TAYLORSVILLE-MACEDONIA ROAD","TAYLORSVILLE","GA",30178,34.1336257140001,-84.978491768,320,"1230 TAYLORSVILLE-MACEDONIA ROAD, TAYLORSVILLE, GA, 30178","Match","Non_Exact","1230 TAYLORSVILLE MACEDONIA RD, TAYLORSVILLE, GA, 30178",635855184,"L"
39821,"1230 THEODORA STREET","ELMONT","NY",11003,40.704246826,-73.685965015,321,"1230 THEODORA STREET, ELMONT, NY, 11003","Match","Exact","1230 THEODORA ST, ELMONT, NY, 11003",147667268,"R"
39822,"1230 UPTON COURT SOUTH","ST PETERSBURG","FL",33712,27.7584465090001,-82.661592169,322,"1230 UPTON COURT SOUTH, ST PETERSBURG, FL, 33712","Match","Exact","1230 UPTON CT S, SAINT PETERSBURG, FL, 33712",124707711,"L"
39823,"1230 W 41ST ST","LOS ANGELES","CA",90037,34.0090457850001,-118.296634597,323,"1230 W 41ST ST, LOS ANGELES, CA, 90037","Match","Exact","1230 W 41ST ST, LOS ANGELES, CA, 90037",141607737,"L"
39824,"1230 W BRYN MAWR AVENUE","CHICAGO","IL",60660,41.9836119920001,-87.661388734,324,"1230 W BRYN MAWR AVENUE, CHICAGO, IL, 60660","Match","Exact","1230 W BRYN MAWR AVE, CHICAGO, IL, 60660",605185916,"R"
39825,"1230 W FRANCISCAN DR","EAGLE","ID",83616,43.703277389,-116.370431781,325,"1230 W FRANCISCAN DR, EAGLE, ID, 83616","Match","Exact","1230 W FRANCISCAN DR, EAGLE, ID, 83616",617932495,"R"
39826,"1230 W MOREHEAD ST  STE 207","CHARLOTTE","NC",28208,35.229081267,-80.861756036,326,"1230 W MOREHEAD ST  STE 207, CHARLOTTE, NC, 28208","Match","Non_Exact","1230 W MOREHEAD ST, CHARLOTTE, NC, 28208",635863507,"R"
39827,"1230 W POPLAR AVE","COLLIERVILLE","TN",38017,35.0464533420001,-89.7031259669999,327,"1230 W POPLAR AVE, COLLIERVILLE, TN, 38017","Match","Exact","1230 W POPLAR AVE, COLLIERVILLE, TN, 38017",607493962,"R"
39828,"1230 WARRIOR LANE","WAUKE","IA",50263,41.600954781,-93.872263603,328,"1230 WARRIOR LANE, WAUKE, IA, 50263","Match","Non_Exact","1230 WARRIOR LN, WAUKEE, IA, 50263",65633892,"L"
39829,"1230 WEBSTER AVENUE","BRONX","NY",10456,40.8326224740001,-73.90942129,329,"1230 WEBSTER AVENUE, BRONX, NY, 10456","Match","Exact","1230 WEBSTER AVE, BRONX, NY, 10456",80299984,"R"
39830,"1230 WEST 68 ST","LOS ANGELES","CA",90044,33.9778246290001,-118.29660333,330,"1230 WEST 68 ST, LOS ANGELES, CA, 90044","Match","Exact","1230 W 68TH ST, LOS ANGELES, CA, 90044",141659328,"L"
39831,"1230 WEST 68 STREET","LOS ANGELES","CA",90044,33.9778246290001,-118.29660333,331,"1230 WEST 68 STREET, LOS ANGELES, CA, 90044","Match","Exact","1230 W 68TH ST, LOS ANGELES, CA, 90044",141659328,"L"
39832,"1230 WEST 84TH PLACE","LOS ANGELES","CA",90044,33.9618297760001,-118.296932231,332,"1230 WEST 84TH PLACE, LOS ANGELES, CA, 90044","Match","Exact","1230 W 84TH PL, LOS ANGELES, CA, 90044",141659906,"L"
39833,"1230 WEST MOREHEAD SUITE 202A","CHARLOTTE","NC",28208,35.229081632,-80.861749647,333,"1230 WEST MOREHEAD SUITE 202A, CHARLOTTE, NC, 28208","Match","Non_Exact","1230 W MOREHEAD ST, CHARLOTTE, NC, 28208",635863507,"R"
39834,"1230 WINDSOR AVE","RICHMOND","VA",23227,37.592993429,-77.454194404,334,"1230 WINDSOR AVE, RICHMOND, VA, 23227","Match","Exact","1230 WINDSOR AVE, RICHMOND, VA, 23227",201533888,"R"
39835,"1230 YUKON DR","GLENN HEIGHTS","TX",75154,32.5502587990001,-96.828511792,335,"1230 YUKON DR, GLENN HEIGHTS, TX, 75154","Match","Exact","1230 YUKON DR, GLENN HEIGHTS, TX, 75154",103278665,"R"
39836,"12300 DENHOLM DR","EL MONTE","CA",91732,34.0581314780001,-118.01425255,336,"12300 DENHOLM DR, EL MONTE, CA, 91732","Match","Exact","12300 DENHOLM DR, EL MONTE, CA, 91732",649536153,"R"
39837,"12300 FORD ROAD SUITE B430","DALLAS","TX",75234,32.912445371,-96.891415239,337,"12300 FORD ROAD SUITE B430, DALLAS, TX, 75234","Match","Exact","12300 FORD RD, DALLAS, TX, 75234",639634909,"R"
39838,"12300 FRISCO ST","FRISCO","TX",75033,33.1786663840001,-96.831990221,338,"12300 FRISCO ST, FRISCO, TX, 75033","Match","Exact","12300 FRISCO ST, FRISCO, TX, 75033",650855766,"R"
39839,"12300 FRISCO STREET","FRISCO","TX",75033,33.1786663840001,-96.831990221,339,"12300 FRISCO STREET, FRISCO, TX, 75033","Match","Exact","12300 FRISCO ST, FRISCO, TX, 75033",650855766,"R"
39840,"12300 INWOOD ROAD SUITE 110","DALLAS","TX",75244,32.9168450980001,-96.818327052,340,"12300 INWOOD ROAD SUITE 110, DALLAS, TX, 75244","Match","Exact","12300 INWOOD RD, DALLAS, TX, 75244",103247427,"R"
39841,"12300 JUSTICE PLACE","GLENN DALE","MD",20769,38.96786874,-76.793587449,341,"12300 JUSTICE PLACE, GLENN DALE, MD, 20769","Match","Exact","12300 JUSTICE PL, GLENN DALE, MD, 20769",638666420,"R"
39842,"12300 N BRENTFIELD APT 1","DUNLAP","IL",61525,NA,NA,342,"12300 N BRENTFIELD APT 1, DUNLAP, IL, 61525","No_Match",NA,NA,NA,NA
39843,"12300 PERRY HIGHWAY SUITE 100","WEXFORD","PA",15090,40.6376371850001,-80.0630491639999,343,"12300 PERRY HIGHWAY SUITE 100, WEXFORD, PA, 15090","Match","Exact","12300 PERRY HWY, WEXFORD, PA, 15090",647547129,"R"
39844,"12300 REXFORD AVENUE","CLEVELAND","OH",44105,41.460669022,-81.5972761529999,344,"12300 REXFORD AVENUE, CLEVELAND, OH, 44105","Match","Exact","12300 REXFORD AVE, CLEVELAND, OH, 44105",61126466,"R"
39845,"12300 SHERMAN WAY","NORTH HOLLYWOOD","CA",91605,34.2011314550001,-118.399844755,345,"12300 SHERMAN WAY, NORTH HOLLYWOOD, CA, 91605","Match","Exact","12300 SHERMAN WAY, N HOLLYWOOD, CA, 91605",141792148,"L"
39846,"12300 SKIPPER DRIVE","FRISCO","TX",75035,33.1793185660001,-96.790696899,346,"12300 SKIPPER DRIVE, FRISCO, TX, 75035","Match","Exact","12300 SKIPPER DR, FRISCO, TX, 75035",210526797,"R"
39847,"12300 SW 283 STREET UNIT A","HOMESTEAD","FL",33033,25.5048684880001,-80.3913091269999,347,"12300 SW 283 STREET UNIT A, HOMESTEAD, FL, 33033","Match","Non_Exact","12300 SW 283RD ST, HOMESTEAD, FL, 33033",647838963,"R"
39848,"12300 TWINBROOK PARKWAY SUITE 350","ROCKVILLE","MD",20852,39.0588430120001,-77.12113262,348,"12300 TWINBROOK PARKWAY SUITE 350, ROCKVILLE, MD, 20852","Match","Exact","12300 TWINBROOK PKWY, ROCKVILLE, MD, 20852",637746542,"L"
39849,"12300 VILLAGE SQUARE TER SUITE 302","ROCKVILLE","MD",20852,39.0576830030001,-77.1089295209999,349,"12300 VILLAGE SQUARE TER SUITE 302, ROCKVILLE, MD, 20852","Match","Exact","12300 VILLAGE SQUARE TER, ROCKVILLE, MD, 20852",62089090,"L"
39850,"12300 W DAKOTA AVE STE 340","LAKEWOOD","CO",80228,NA,NA,350,"12300 W DAKOTA AVE STE 340, LAKEWOOD, CO, 80228","No_Match",NA,NA,NA,NA
39851,"12301 AMARANTH DRIVE","NORTH LITTLE ROCK","AR",72117,34.735388234,-92.130542124,351,"12301 AMARANTH DRIVE, NORTH LITTLE ROCK, AR, 72117","Match","Exact","12301 AMARANTH DR, N LITTLE ROCK, AR, 72117",638161107,"R"
39852,"12301 BRUNSON RD","HOAGLAND","IN",46745,40.9731212840001,-85.0175513,352,"12301 BRUNSON RD, HOAGLAND, IN, 46745","Match","Exact","12301 BRUNSON RD, HOAGLAND, IN, 46745",6387587,"L"
39853,"12301 ELENA DR NE","ALBUQUERQUE","NM",87122,35.1904974510001,-106.502893511,353,"12301 ELENA DR NE, ALBUQUERQUE, NM, 87122","Match","Exact","12301 ELENA DR NE, ALBUQUERQUE, NM, 87122",206713886,"R"
39854,"12301 ELLABERRY LN","GLEN ALLEN","VA",23059,37.6890169930001,-77.6314030199999,354,"12301 ELLABERRY LN, GLEN ALLEN, VA, 23059","Match","Exact","12301 ELLABERRY LN, GLEN ALLEN, VA, 23059",624805430,"R"
39855,"12301 FALLS RD","POTOMAC","MD",20854,39.057230605,-77.178442022,355,"12301 FALLS RD, POTOMAC, MD, 20854","Match","Exact","12301 FALLS RD, POTOMAC, MD, 20854",62053929,"R"
39856,"12301 HWY 57","VANCLEAVE","MS",39565,30.520419443,-88.69088483,356,"12301 HWY 57, VANCLEAVE, MS, 39565","Match","Non_Exact","12301 STATE HWY 57, VANCLEAVE, MS, 39565",89276075,"L"
39857,"12301 LAKE UNDERHILL ROAD SUITE 245","ORLANDO","FL",32828,28.5468137190001,-81.2035860519999,357,"12301 LAKE UNDERHILL ROAD SUITE 245, ORLANDO, FL, 32828","Match","Exact","12301 LAKE UNDERHILL RD, ORLANDO, FL, 32828",641064762,"L"
39858,"12301 NW 21ST AVE","VANCOUVER","WA",98685,45.7100880840001,-122.692693043,358,"12301 NW 21ST AVE, VANCOUVER, WA, 98685","Match","Exact","12301 NW 21ST AVE, VANCOUVER, WA, 98685",158372320,"R"
39859,"12301 ORLOFF DRIVE","RHOME","TX",76078,33.0428025840001,-97.397163456,359,"12301 ORLOFF DRIVE, RHOME, TX, 76078","Match","Exact","12301 ORLOFF DR, RHOME, TX, 76078",627714205,"L"
39860,"12301 PINEWOOD HWY","PINEWOOD","SC",29125,NA,NA,360,"12301 PINEWOOD HWY, PINEWOOD, SC, 29125","No_Match",NA,NA,NA,NA
39861,"12301 SE 119TH ST","OKC","OK",73165,35.3485407790001,-97.313533072,361,"12301 SE 119TH ST, OKC, OK, 73165","Match","Non_Exact","12301 SE 119TH ST, OKLAHOMA CITY, OK, 73165",99951384,"L"
39862,"12301 SPOTSWOOD FURNACE ROAD","FREDERICKSBURG","VA",22407,38.295697117,-77.578073994,362,"12301 SPOTSWOOD FURNACE ROAD, FREDERICKSBURG, VA, 22407","Match","Exact","12301 SPOTSWOOD FURNACE RD, FREDERICKSBURG, VA, 22407",618667315,"R"
39863,"12301 VISTA LN","PINECREST","FL",33156,25.657536683,-80.286509208,363,"12301 VISTA LN, PINECREST, FL, 33156","Match","Exact","12301 VISTA LN, PINECREST, FL, 33156",115986158,"L"
39864,"12301 WHITEWATER DRIVE   SUITE 10","MINNETONKA","MN",55343,44.8979842580001,-93.43620966,364,"12301 WHITEWATER DRIVE   SUITE 10, MINNETONKA, MN, 55343","Match","Exact","12301 WHITEWATER DR, MINNETONKA, MN, 55343",43839394,"L"
39865,"12302 COULSON","HOUSTON","TX",77015,29.762404524,-95.2190771049999,365,"12302 COULSON, HOUSTON, TX, 77015","Match","Non_Exact","12302 COULSON ST, HOUSTON, TX, 77015",652271821,"R"
39866,"12302 CROWN HILL LANE","BURNSVILLE","MN",55337,44.7808193480001,-93.2643286749999,366,"12302 CROWN HILL LANE, BURNSVILLE, MN, 55337","Match","Non_Exact","12302 CROWN HILL CT, BURNSVILLE, MN, 55337",37938658,"R"
39867,"12302 KINSMAN RD","CLEVELAND","OH",44120,41.466774168,-81.596776588,367,"12302 KINSMAN RD, CLEVELAND, OH, 44120","Match","Exact","12302 KINSMAN RD, CLEVELAND, OH, 44120",61126428,"R"
39868,"12302 LEETOWN ROAD","KEARNEYSVILLE","WV",25430,39.3581545370001,-77.923281403,368,"12302 LEETOWN ROAD, KEARNEYSVILLE, WV, 25430","Match","Exact","12302 LEETOWN RD, KEARNEYSVILLE, WV, 25430",635728388,"R"
39869,"12302 LOREZ DR","MORENO VALLEY","CA",92557,33.9420987550001,-117.223573228,369,"12302 LOREZ DR, MORENO VALLEY, CA, 92557","Match","Exact","12302 LOREZ DR, MORENO VALLEY, CA, 92557",194749543,"R"
39870,"12302 NW 25TH ST","CORAL SPRINGS","FL",33065,26.262450432,-80.290500086,370,"12302 NW 25TH ST, CORAL SPRINGS, FL, 33065","Match","Exact","12302 NW 25TH ST, CORAL SPRINGS, FL, 33065",114784788,"L"
39871,"12302 SUMMER BREEZE COURT","CHARLOTTE","NC",28277,35.042012614,-80.769719473,371,"12302 SUMMER BREEZE COURT, CHARLOTTE, NC, 28277","Match","Exact","12302 SUMMER BREEZE CT, CHARLOTTE, NC, 28277",70546466,"R"
39872,"12303 CAROLA FOREST","HOUSTON","TX",77044,29.898865905,-95.2225807999999,372,"12303 CAROLA FOREST, HOUSTON, TX, 77044","Match","Non_Exact","12303 CAROLA FOREST DR, HOUSTON, TX, 77044",96094826,"L"
39873,"12303 GRAND PORTAGE LN","HUMBLE","TX",77346,29.96738637,-95.195277795,373,"12303 GRAND PORTAGE LN, HUMBLE, TX, 77346","Match","Exact","12303 GRAND PORTAGE LN, HUMBLE, TX, 77346",624861989,"R"
39874,"12303 LONGWORTH","HOUSTON","TX",77024,29.7634197460001,-95.544962356,374,"12303 LONGWORTH, HOUSTON, TX, 77024","Match","Non_Exact","12303 LONGWORTH LN, HOUSTON, TX, 77024",96023346,"L"
39875,"12303 SERENITY FARM","SAN ANTONIO","TX",78249,NA,NA,375,"12303 SERENITY FARM, SAN ANTONIO, TX, 78249","No_Match",NA,NA,NA,NA
39876,"12303 WEST LINCOLN LANE","SPOKANE","WA",99224,47.733391587,-117.573657483,376,"12303 WEST LINCOLN LANE, SPOKANE, WA, 99224","Match","Exact","12303 W LINCOLN LN, SPOKANE, WA, 99224",189911739,"R"
39877,"12304 BAYMEADOW CT","PEARLAND","TX",77584,29.5636222530001,-95.409993958,377,"12304 BAYMEADOW CT, PEARLAND, TX, 77584","Match","Exact","12304 BAYMEADOW CT, PEARLAND, TX, 77584",614115703,"R"
39878,"12304 FIRTH OF TAE DR","FORT WASHINGTON","MD",20744,38.7242324150001,-77.023742703,378,"12304 FIRTH OF TAE DR, FORT WASHINGTON, MD, 20744","Match","Exact","12304 FIRTH OF TAE DR, FT WASHINGTON, MD, 20744",647292576,"L"
39879,"12304 LANHAM SEVERN ROAD","BOWIE","MD",20720,39.0019691360001,-76.792481408,379,"12304 LANHAM SEVERN ROAD, BOWIE, MD, 20720","Match","Exact","12304 LANHAM SEVERN RD, BOWIE, MD, 20720",76400990,"L"
39880,"12304 MICHAELSFORD ROAD","HUNT VALLEY","MD",21030,39.4657859430001,-76.6739914619999,380,"12304 MICHAELSFORD ROAD, HUNT VALLEY, MD, 21030","Match","Exact","12304 MICHAELSFORD RD, HUNT VALLEY, MD, 21030",647278475,"L"
39881,"12304 N 1900TH STREET","MARSHALL","IL",62441,39.3282175630001,-87.665790428,381,"12304 N 1900TH STREET, MARSHALL, IL, 62441","Match","Exact","12304 N 1900TH ST, MARSHALL, IL, 62441",5646363,"R"
39882,"12304 PALMER DRIVE","MOORPARK","CA",93021,34.3076752540001,-118.885859712,382,"12304 PALMER DRIVE, MOORPARK, CA, 93021","Match","Exact","12304 PALMER DR, MOORPARK, CA, 93021",647310138,"L"
39883,"12304 SANDY ROCK STREET","CERRITOS","CA",90703,33.8814397680001,-118.070188656,383,"12304 SANDY ROCK STREET, CERRITOS, CA, 90703","Match","Exact","12304 SANDY ROCK ST, CERRITOS, CA, 90703",141744208,"R"
39884,"12304 SEA PEARL COURT","LAUREL","MD",20708,39.057602472,-76.8405073929999,384,"12304 SEA PEARL COURT, LAUREL, MD, 20708","Match","Exact","12304 SEA PEARL CT, LAUREL, MD, 20708",76339797,"R"
39885,"12304 W SOUTHERN AVE","AVONDALE","AZ",85323,33.391831014,-112.324011139,385,"12304 W SOUTHERN AVE, AVONDALE, AZ, 85323","Match","Exact","12304 W SOUTHERN AVE, AVONDALE, AZ, 85323",128912800,"R"
39886,"12305 INDIANA","DETROIT","MI",48204,42.3791698430001,-83.156784793,386,"12305 INDIANA, DETROIT, MI, 48204","Match","Non_Exact","12305 INDIANA AVE, DETROIT, MI, 48204",95442784,"L"
39887,"12305 JARROW LANE","BRISTOW","VA",20136,38.7689504000001,-77.5621841729999,387,"12305 JARROW LANE, BRISTOW, VA, 20136","Match","Exact","12305 JARROW LN, BRISTOW, VA, 20136",207143148,"L"
39888,"12305 MAJESTIC VIEW LANE","CLAYTON","NY",13624,44.223602521,-76.125660264,388,"12305 MAJESTIC VIEW LANE, CLAYTON, NY, 13624","Match","Exact","12305 MAJESTIC VIEW LN, CLAYTON, NY, 13624",154281896,"R"
39889,"12305 MALVERN WAY","BRISTOW","VA",20136,38.7679812260001,-77.560931953,389,"12305 MALVERN WAY, BRISTOW, VA, 20136","Match","Exact","12305 MALVERN WAY, BRISTOW, VA, 20136",207143138,"R"
39890,"12305 MUELLER LANE","SPOTSYLVANIA","VA",22551,38.2948321860001,-77.727650763,390,"12305 MUELLER LANE, SPOTSYLVANIA, VA, 22551","Match","Exact","12305 MUELLER LN, SPOTSYLVANIA, VA, 22551",85003047,"R"
39891,"12305 MUELLER LANE","WOODBRIDGE","VA",22193,NA,NA,391,"12305 MUELLER LANE, WOODBRIDGE, VA, 22193","No_Match",NA,NA,NA,NA
39892,"12305 N WAYNE AVE","KANSAS CITY","MO",64165,39.3168575810001,-94.5606225829999,392,"12305 N WAYNE AVE, KANSAS CITY, MO, 64165","Match","Exact","12305 N WAYNE AVE, KANSAS CITY, MO, 64165",627514537,"R"
39893,"12305 SALIDA DEL SOL PASS","AUSTIN","TX",78732,30.360868441,-97.898983174,393,"12305 SALIDA DEL SOL PASS, AUSTIN, TX, 78732","Match","Exact","12305 SALIDA DEL SOL PASS, AUSTIN, TX, 78732",64057732,"L"
39894,"12305 TANTALLON COURT","PINEVILLE","NC",28134,35.040466721,-80.869299433,394,"12305 TANTALLON COURT, PINEVILLE, NC, 28134","Match","Exact","12305 TANTALLON CT, PINEVILLE, NC, 28134",70528678,"R"
39895,"12305 YORK AVE UNIT A","HAWTHORNE","CA",90250,33.921228742,-118.344966052,395,"12305 YORK AVE UNIT A, HAWTHORNE, CA, 90250","Match","Exact","12305 YORK AVE, HAWTHORNE, CA, 90250",142751933,"R"
39896,"12306 COUNTY ROAD 30","REEDS","MO",64859,NA,NA,396,"12306 COUNTY ROAD 30, REEDS, MO, 64859","No_Match",NA,NA,NA,NA
39897,"12306 JOHNS PURCHASE COURT","CYPRESS","TX",77433,29.957012649,-95.7256702079999,397,"12306 JOHNS PURCHASE COURT, CYPRESS, TX, 77433","Match","Exact","12306 JOHNS PURCHASE CT, CYPRESS, TX, 77433",627711035,"R"
39898,"12306 N 27TH ST","TAMPA","FL",33612,28.0596228960001,-82.4300416839999,398,"12306 N 27TH ST, TAMPA, FL, 33612","Match","Exact","12306 N 27TH ST, TAMPA, FL, 33612",104621610,"L"
39899,"12306 QUAIL OAK COURT","ASHLAND","VA",23005,37.7435339850001,-77.395281069,399,"12306 QUAIL OAK COURT, ASHLAND, VA, 23005","Match","Exact","12306 QUAIL OAK CT, ASHLAND, VA, 23005",84986836,"R"
39900,"12306 W 128TH ST","OVERLAND PARK","KS",66213,38.89650104,-94.729762856,400,"12306 W 128TH ST, OVERLAND PARK, KS, 66213","Match","Exact","12306 W 128TH ST, OVERLAND PARK, KS, 66213",91305288,"L"
39901,"12307 DUCKS LANDING","FRISCO","TX",75033,NA,NA,401,"12307 DUCKS LANDING, FRISCO, TX, 75033","No_Match",NA,NA,NA,NA
39902,"12307 HONEYWOOD TRAIL","HOUSTON","TX",77077,29.75968841,-95.6005582769999,402,"12307 HONEYWOOD TRAIL, HOUSTON, TX, 77077","Match","Exact","12307 HONEYWOOD TRL, HOUSTON, TX, 77077",96020942,"L"
39903,"12307 KELLY LANE","THONOTOSASSA","FL",33592,28.0737136400001,-82.302066066,403,"12307 KELLY LANE, THONOTOSASSA, FL, 33592","Match","Exact","12307 KELLY LN, THONOTOSASSA, FL, 33592",104699682,"R"
39904,"12307 NE 59TH CT","VANCOUVER","WA",98686,45.710475527,-122.611743026,404,"12307 NE 59TH CT, VANCOUVER, WA, 98686","Match","Exact","12307 NE 59TH CT, VANCOUVER, WA, 98686",646681958,"R"
39905,"12307 PINE BROOK DR","STAFFORD","TX",77477,29.643828268,-95.5961407679999,405,"12307 PINE BROOK DR, STAFFORD, TX, 77477","Match","Exact","12307 PINE BROOK DR, STAFFORD, TX, 77477",78292730,"R"
39906,"12307 SYCAMORE ST","VICTORVILLE","CA",92392,34.4631054660001,-117.395033694,406,"12307 SYCAMORE ST, VICTORVILLE, CA, 92392","Match","Exact","12307 SYCAMORE ST, VICTORVILLE, CA, 92392",614830680,"L"
39907,"12307 W VILLAGE DR UNIT D","HOUSTON","TX",77039,29.9029666960001,-95.3068710589999,407,"12307 W VILLAGE DR UNIT D, HOUSTON, TX, 77039","Match","Non_Exact","12307 W VILLAGE DR, HOUSTON, TX, 77039",642088205,"L"
39908,"12308 BELLA VINO DR","FORT WORTH","TX",76126,32.632309902,-97.5250155269999,408,"12308 BELLA VINO DR, FORT WORTH, TX, 76126","Match","Exact","12308 BELLA VINO DR, FORT WORTH, TX, 76126",648845664,"L"
39909,"12308 CARMEL HILL LN","PEARLAND","UM",77584,NA,NA,409,"12308 CARMEL HILL LN, PEARLAND, UM, 77584","No_Match",NA,NA,NA,NA
39910,"12308 SE 314TH PL","AUBURN","WA",98092,47.3201755960001,-122.177252051,410,"12308 SE 314TH PL, AUBURN, WA, 98092","Match","Exact","12308 SE 314TH PL, AUBURN, WA, 98092",239791313,"L"
39911,"12308","HAMTRAMCK","MI",48212,NA,NA,411,"12308, HAMTRAMCK, MI, 48212","No_Match",NA,NA,NA,NA
39912,"12309 ELGERS STREET","CERRITOS","CA",90703,33.866284799,-118.069792307,412,"12309 ELGERS STREET, CERRITOS, CA, 90703","Match","Exact","12309 ELGERS ST, CERRITOS, CA, 90703",141744716,"L"
39913,"12309 GATLING GUN LN","AUSTIN","TX",78739,30.151973237,-97.858930168,413,"12309 GATLING GUN LN, AUSTIN, TX, 78739","Match","Exact","12309 GATLING GUN LN, AUSTIN, TX, 78739",640587166,"L"
39914,"12309 HIGH DRIVE","LEAWOOD","KS",66209,38.9046978820001,-94.613633697,414,"12309 HIGH DRIVE, LEAWOOD, KS, 66209","Match","Exact","12309 HIGH DR, LEAWOOD, KS, 66209",91323203,"L"
39915,"12309 MUSTANG TRAIL WAY","HERRIMAN","UT",84096,NA,NA,415,"12309 MUSTANG TRAIL WAY, HERRIMAN, UT, 84096","No_Match",NA,NA,NA,NA
39916,"12309 OLD BIG BEND ROAD","KIRKWOOD","MO",63122,NA,NA,416,"12309 OLD BIG BEND ROAD, KIRKWOOD, MO, 63122","Tie",NA,NA,NA,NA
39917,"12309 TREETOP DR APT 31","SILVER SPRING","MD",20904,39.057738285,-76.970730057,417,"12309 TREETOP DR APT 31, SILVER SPRING, MD, 20904","Match","Exact","12309 TREETOP DR, SILVER SPRING, MD, 20904",647259168,"R"
39918,"1231 24TH ST","HERMOSA BEACH","CA",90254,33.8721570700001,-118.392130516,418,"1231 24TH ST, HERMOSA BEACH, CA, 90254","Match","Exact","1231 24TH ST, HERMOSA BEACH, CA, 90254",141582674,"L"
39919,"1231 B GOOD HOPE ROAD SE","WASHINGTON","DC",20020,38.867305249,-76.988089606,419,"1231 B GOOD HOPE ROAD SE, WASHINGTON, DC, 20020","Match","Exact","1231 GOOD HOPE RD SE, WASHINGTON, DC, 20020",76231045,"R"
39920,"1231 BAY ST","STATEN ISLAND","NY",10305,40.6132871610001,-74.0655303939999,420,"1231 BAY ST, STATEN ISLAND, NY, 10305","Match","Exact","1231 BAY ST, STATEN ISLAND, NY, 10305",59869866,"L"
39921,"1231 BEDFORD AVE","BROOKLYN","NY",11216,40.681192351,-73.9534676229999,421,"1231 BEDFORD AVE, BROOKLYN, NY, 11216","Match","Exact","1231 BEDFORD AVE, BROOKLYN, NY, 11216",59078851,"L"
39922,"1231 BOYDEN PLACE NW","CONCORD","NC",28027,35.3981155910001,-80.65278969,422,"1231 BOYDEN PLACE NW, CONCORD, NC, 28027","Match","Exact","1231 BOYDEN PL NW, CONCORD, NC, 28027",24912071,"L"
39923,"1231 BUTTONWOOD ST","PHILADELPHIA","PA",19023,39.961059402,-75.1584315919999,423,"1231 BUTTONWOOD ST, PHILADELPHIA, PA, 19023","Match","Non_Exact","1231 BUTTONWOOD ST, PHILADELPHIA, PA, 19123",131423213,"R"
39924,"1231 COLLIER RD NW - SUIT O","ATLANTA","GA",30318,33.811295865,-84.425034189,424,"1231 COLLIER RD NW - SUIT O, ATLANTA, GA, 30318","Match","Exact","1231 COLLIER RD NW, ATLANTA, GA, 30318",17415295,"R"
39925,"1231 COLLIER ROAD NW STE J","ATLANTA","GA",30318,33.811295865,-84.425034189,425,"1231 COLLIER ROAD NW STE J, ATLANTA, GA, 30318","Match","Exact","1231 COLLIER RD NW, ATLANTA, GA, 30318",17415295,"R"
39926,"1231 COLLIER ROAD STE J","ATLANTA","GA",30318,33.811295865,-84.425034189,426,"1231 COLLIER ROAD STE J, ATLANTA, GA, 30318","Match","Non_Exact","1231 COLLIER RD NW, ATLANTA, GA, 30318",17415295,"R"
39927,"1231 DRUID PLACE NE","ATLANTA","GA",30307,33.768995235,-84.3468772589999,427,"1231 DRUID PLACE NE, ATLANTA, GA, 30307","Match","Exact","1231 DRUID PL NE, ATLANTA, GA, 30307",23364915,"R"
39928,"1231 E FRY BLVD","SIERRA VISTA","AZ",85635,31.55464619,-110.285598945,428,"1231 E FRY BLVD, SIERRA VISTA, AZ, 85635","Match","Exact","1231 E FRY BLVD, SIERRA VISTA, AZ, 85635",651645067,"R"
39929,"1231 E HIGHWAY 22","CRESTWOOD","KY",40014,NA,NA,429,"1231 E HIGHWAY 22, CRESTWOOD, KY, 40014","Tie",NA,NA,NA,NA
39930,"1231 E ROSEMONTE DR","PHOENIX","AZ",85024,33.657043495,-112.055758953,430,"1231 E ROSEMONTE DR, PHOENIX, AZ, 85024","Match","Exact","1231 E ROSEMONTE DR, PHOENIX, AZ, 85024",244029469,"L"
39931,"1231 E WALNUT ST","GALION","OH",44833,40.732257718,-82.766361774,431,"1231 E WALNUT ST, GALION, OH, 44833","Match","Exact","1231 E WALNUT ST, GALION, OH, 44833",12085710,"R"
39932,"1231 EMRICK ROAD","ARCANUM","OH",45304,39.9538599530001,-84.652704811,432,"1231 EMRICK ROAD, ARCANUM, OH, 45304","Match","Exact","1231 EMRICK RD, ARCANUM, OH, 45304",54556713,"R"
39933,"1231 FALLS GROVE LN","YORK","PA",17404,40.0105043290001,-76.794399929,433,"1231 FALLS GROVE LN, YORK, PA, 17404","Match","Exact","1231 FALLS GROVE LN, YORK, PA, 17404",616532719,"R"
39934,"1231 FERRY ROAD","NISKAYUNA","NY",12309,42.789597896,-73.834093819,434,"1231 FERRY ROAD, NISKAYUNA, NY, 12309","Match","Exact","1231 FERRY RD, NISKAYUNA, NY, 12309",18034245,"L"
39935,"1231 FRANZ STREET SE","LACEY","WA",98503,47.0370119180001,-122.815316856,435,"1231 FRANZ STREET SE, LACEY, WA, 98503","Match","Exact","1231 FRANZ ST SE, LACEY, WA, 98503",180947628,"R"
39936,"1231 GOOD HOPE ROAD SE","WASHINGTON","DC",20020,38.8673068860001,-76.988098008,436,"1231 GOOD HOPE ROAD SE, WASHINGTON, DC, 20020","Match","Exact","1231 GOOD HOPE RD SE, WASHINGTON, DC, 20020",76231045,"R"
39937,"1231 HIGHPOINT LN","WAUKESHA","WI",53189,42.9724920020001,-88.260304601,437,"1231 HIGHPOINT LN, WAUKESHA, WI, 53189","Match","Exact","1231 HIGHPOINT LN, WAUKESHA, WI, 53189",53841391,"R"
39938,"1231 JACKSON STREET","PORT TOWNSEND","WA",98368,48.1229482690001,-122.757997298,438,"1231 JACKSON STREET, PORT TOWNSEND, WA, 98368","Match","Exact","1231 JACKSON ST, PORT TOWNSEND, WA, 98368",151991500,"L"
39939,"1231 JANES LN","COLORADO SPRINGS","CO",80909,38.8532611110001,-104.801144172,439,"1231 JANES LN, COLORADO SPRINGS, CO, 80909","Match","Exact","1231 JANES LN, COLORADO SPRINGS, CO, 80909",610719567,"R"
39940,"1231 LAFAYETTE AVE - 2ND FLOOR","BRONX","NY",10474,40.816399856,-73.891348189,440,"1231 LAFAYETTE AVE - 2ND FLOOR, BRONX, NY, 10474","Match","Exact","1231 LAFAYETTE AVE, BRONX, NY, 10474",80302562,"L"
39941,"1231 LANTANA ESTATES CT","FRESNO","TX",77545,29.5292468380001,-95.4716834,441,"1231 LANTANA ESTATES CT, FRESNO, TX, 77545","Match","Exact","1231 LANTANA ESTATES CT, FRESNO, TX, 77545",635219839,"L"
39942,"1231 MAIN ST","FERNDALE","CA",95537,40.5846095790001,-124.259623636,442,"1231 MAIN ST, FERNDALE, CA, 95537","Match","Non_Exact","1231 MAIN ST, FERNDALE, CA, 95536",112995428,"L"
39943,"1231 MERRITT STREET","ALTAMONTE SPRS","FL",32701,28.668631256,-81.347621487,443,"1231 MERRITT STREET, ALTAMONTE SPRS, FL, 32701","Match","Non_Exact","1231 MERRITT ST, ALTAMONTE SPG, FL, 32701",93743331,"R"
39944,"1231 N CHESTNUT","ARLINGTON","IL",60004,42.098012521,-87.986525134,444,"1231 N CHESTNUT, ARLINGTON, IL, 60004","Match","Non_Exact","1231 N CHESTNUT AVE, ARLINGTON HEIGHTS, IL, 60004",111715253,"R"
39945,"1231 N LAKE WAY","PALM BEACH","FL",33480,26.757725024,-80.040519967,445,"1231 N LAKE WAY, PALM BEACH, FL, 33480","Match","Exact","1231 N LAKE WAY, PALM BEACH, FL, 33480",115580054,"R"
39946,"1231 N MANASSAS ST","MEMPHIS","TN",38107,35.1738879700001,-90.031602979,446,"1231 N MANASSAS ST, MEMPHIS, TN, 38107","Match","Exact","1231 N MANASSAS ST, MEMPHIS, TN, 38107",72902365,"L"
39947,"1231 N YAKIMA AVE","TACOMA","WA",98403,47.2681785790001,-122.466361558,447,"1231 N YAKIMA AVE, TACOMA, WA, 98403","Match","Exact","1231 N YAKIMA AVE, TACOMA, WA, 98403",184645996,"R"
39948,"1231 NORTH AVENUE","SHEBOYGAN","WI",53083,43.773848006,-87.720408412,448,"1231 NORTH AVENUE, SHEBOYGAN, WI, 53083","Match","Exact","1231 NORTH AVE, SHEBOYGAN, WI, 53083",79496558,"L"
39949,"1231 NORTH BROAD STREET","PHILADELPHIA","PA",19122,39.972488276,-75.159203426,449,"1231 NORTH BROAD STREET, PHILADELPHIA, PA, 19122","Match","Exact","1231 N BROAD ST, PHILADELPHIA, PA, 19122",131421876,"R"
39950,"1231 NORTH MAIN STREET","HENDERSONVILLE","NC",28792,35.32793023,-82.461516963,450,"1231 NORTH MAIN STREET, HENDERSONVILLE, NC, 28792","Match","Exact","1231 N MAIN ST, HENDERSONVILLE, NC, 28792",152269286,"L"
39951,"1231 OAKVIEW RD","DECATUR","GA",30030,33.7566576450001,-84.304241968,451,"1231 OAKVIEW RD, DECATUR, GA, 30030","Match","Exact","1231 OAKVIEW RD, DECATUR, GA, 30030",642647006,"R"
39952,"1231 OCEAN AVE","VALLEY STREAM","NY",11580,40.679394087,-73.725670443,452,"1231 OCEAN AVE, VALLEY STREAM, NY, 11580","Match","Exact","1231 OCEAN AVE, VALLEY STREAM, NY, 11580",59740638,"L"
39953,"1231 PROVIDENCE PASS","PLAINFIELD","IN",46168,39.687441049,-86.375983334,453,"1231 PROVIDENCE PASS, PLAINFIELD, IN, 46168","Match","Exact","1231 PROVIDENCE PASS, PLAINFIELD, IN, 46168",633747061,"L"
39954,"1231 S 50TH AVE  APT 10","WAUSAU","WI",54401,44.9484352860001,-89.699429171,454,"1231 S 50TH AVE  APT 10, WAUSAU, WI, 54401","Match","Non_Exact","1231 S 50TH AVE, WAUSAU, WI, 54401",649743439,"L"
39955,"1231 SAINT ANDREW STREET","NEW ORLEANS","LA",70130,29.932046357,-90.075619635,455,"1231 SAINT ANDREW STREET, NEW ORLEANS, LA, 70130","Match","Exact","1231 SAINT ANDREW ST, NEW ORLEANS, LA, 70130",191714210,"R"
39956,"1231 SO 76TH ST","TACOMA","WA",98408,47.188277526,-122.451035879,456,"1231 SO 76TH ST, TACOMA, WA, 98408","Match","Exact","1231 S 76TH ST, TACOMA, WA, 98408",184627947,"R"
39957,"1231 SOUTH 18TH STREET","PHILADELPHIA","PA",19146,39.9357044930001,-75.173793748,457,"1231 SOUTH 18TH STREET, PHILADELPHIA, PA, 19146","Match","Exact","1231 S 18TH ST, PHILADELPHIA, PA, 19146",131411605,"L"
39958,"1231 STOCKTON DRIVE","CLEARWATER","FL",33705,27.98204672,-82.784412113,458,"1231 STOCKTON DRIVE, CLEARWATER, FL, 33705","Match","Non_Exact","1231 STOCKTON DR, CLEARWATER, FL, 33755",124783415,"R"
39959,"1231 SUSAN AVENUE","WOODSTOCK","VA",22664,38.864980712,-78.525439704,459,"1231 SUSAN AVENUE, WOODSTOCK, VA, 22664","Match","Exact","1231 SUSAN AVE, WOODSTOCK, VA, 22664",55941115,"L"
39960,"1231 SW CROST AVE","PORT ST LUCIE","FL",34953,27.2385373610001,-80.384962824,460,"1231 SW CROST AVE, PORT ST LUCIE, FL, 34953","Match","Exact","1231 SW CROST AVE, PORT ST LUCIE, FL, 34953",120143589,"L"
39961,"1231 THANKFUL RD","MADISON","GA",30650,33.55867979,-83.545305793,461,"1231 THANKFUL RD, MADISON, GA, 30650","Match","Exact","1231 THANKFUL RD, MADISON, GA, 30650",611073574,"R"
39962,"1231 THIRD STREET","MONTEREY","CA",93940,36.597866423,-121.879532988,462,"1231 THIRD STREET, MONTEREY, CA, 93940","Match","Exact","1231 3RD ST, MONTEREY, CA, 93940",196815425,"L"
39963,"1231 THOMPSON AVE","GLENDALE","CA",91201,34.1756841050001,-118.288282906,463,"1231 THOMPSON AVE, GLENDALE, CA, 91201","Match","Exact","1231 THOMPSON AVE, GLENDALE, CA, 91201",142727620,"L"
39964,"1231 W 13TH ST","RIVIERA BEACH","FL",33404,26.7738336840001,-80.0718758849999,464,"1231 W 13TH ST, RIVIERA BEACH, FL, 33404","Match","Exact","1231 W 13TH ST, RIVIERA BEACH, FL, 33404",115319983,"L"
39965,"1231 W 82ND ST","LOS ANGELES","CA",90044,33.964395801,-118.296585224,465,"1231 W 82ND ST, LOS ANGELES, CA, 90044","Match","Exact","1231 W 82ND ST, LOS ANGELES, CA, 90044",141659908,"R"
39966,"1231 W E CALLAWAY RD","CLAXTON","GA",30417,32.2205268710001,-82.010532375,466,"1231 W E CALLAWAY RD, CLAXTON, GA, 30417","Match","Exact","1231 W E CALLAWAY RD, CLAXTON, GA, 30417",6302010,"R"
39967,"1231 W OAK GROVE ROAD","MONTROSE","CO",81403,38.460105157,-107.896316883,467,"1231 W OAK GROVE ROAD, MONTROSE, CO, 81403","Match","Exact","1231 W OAK GROVE RD, MONTROSE, CO, 81403",122540727,"L"
39968,"1231 WEST 56TH STREET","KANSAS CITY","MO",64113,39.0263534690001,-94.60566176,468,"1231 WEST 56TH STREET, KANSAS CITY, MO, 64113","Match","Exact","1231 W 56 ST, KANSAS CITY, MO, 64113",91505449,"L"
39969,"1231 WEST BLVD","CHESTERFIELD","SC",29709,34.737109597,-80.109895872,469,"1231 WEST BLVD, CHESTERFIELD, SC, 29709","Match","Exact","1231 WEST BLVD, CHESTERFIELD, SC, 29709",640026561,"L"
39970,"1231 WEST N ORTHERN LIGHTS BLVD 610","ANCHORAGE","AK",99503,61.195301645,-149.906673955,470,"1231 WEST N ORTHERN LIGHTS BLVD 610, ANCHORAGE, AK, 99503","Match","Non_Exact","1231 W NORTHERN LIGHTS BLVD, ANCHORAGE, AK, 99503",641304438,"R"
39971,"1231 WEST RIVIERA DRIVE","GILBERT","AZ",85233,33.345579458,-111.816537648,471,"1231 WEST RIVIERA DRIVE, GILBERT, AZ, 85233","Match","Exact","1231 W RIVIERA DR, GILBERT, AZ, 85233",128787516,"L"
39972,"1231-B GOOD HOPE RD SE","WASHINGTON","DC",20020,38.8673068860001,-76.988098008,472,"1231-B GOOD HOPE RD SE, WASHINGTON, DC, 20020","Match","Exact","1231 GOOD HOPE RD SE, WASHINGTON, DC, 20020",76231045,"R"
39973,"1231-B GOOD HOPE ROAD SOUTH EAST","WASHINGTON","DC",20020,38.8673068860001,-76.988098008,473,"1231-B GOOD HOPE ROAD SOUTH EAST, WASHINGTON, DC, 20020","Match","Non_Exact","1231 GOOD HOPE RD SE, WASHINGTON, DC, 20020",76231045,"R"
39974,"12310 AMANDA WAY","GULFPORT","MS",39503,30.4646295470001,-89.1049020839999,474,"12310 AMANDA WAY, GULFPORT, MS, 39503","Match","Exact","12310 AMANDA WAY, GULFPORT, MS, 39503",111419642,"R"
39975,"12310 BANDON DRIVE","COLORADO SPRINGS","CO",80921,39.0103490650001,-104.813033573,475,"12310 BANDON DRIVE, COLORADO SPRINGS, CO, 80921","Match","Exact","12310 BANDON DR, COLORADO SPRINGS, CO, 80921",643480498,"R"
39976,"12310 BRECKENWOOD MILLS DRIVE","HUMBLE","TX",77346,29.9463908540001,-95.203721174,476,"12310 BRECKENWOOD MILLS DRIVE, HUMBLE, TX, 77346","Match","Exact","12310 BRECKENWOOD MILLS DR, HUMBLE, TX, 77346",651956105,"R"
39977,"12310 MOUNTAIN PNE","SAN ANTONIO","TX",78254,29.5286979260001,-98.734880145,477,"12310 MOUNTAIN PNE, SAN ANTONIO, TX, 78254","Match","Non_Exact","12310 MOUNTAIN PINE, SAN ANTONIO, TX, 78254",635306573,"L"
39978,"12310 SINGLETREE LN SUITE 2129","EDEN PRAIRIE","MN",55344,44.8571323400001,-93.433983337,478,"12310 SINGLETREE LN SUITE 2129, EDEN PRAIRIE, MN, 55344","Match","Exact","12310 SINGLETREE LN, EDEN PRAIRIE, MN, 55344",640673409,"L"
39979,"12311 ASHLEY DRIVE","GULFPORT","MS",39503,30.463639066,-89.09961414,479,"12311 ASHLEY DRIVE, GULFPORT, MS, 39503","Match","Exact","12311 ASHLEY DR, GULFPORT, MS, 39503",111416292,"L"
39980,"12311 CRAWFORD RD","OMAHA","NE",68144,41.2454330510001,-96.106069346,480,"12311 CRAWFORD RD, OMAHA, NE, 68144","Match","Exact","12311 CRAWFORD RD, OMAHA, NE, 68144",116970630,"L"
39981,"12311 CROSSWINDS DRIVE","LOUISVILLE","KY",40243,38.234382958,-85.5259535659999,481,"12311 CROSSWINDS DRIVE, LOUISVILLE, KY, 40243","Match","Exact","12311 CROSSWINDS DR, LOUISVILLE, KY, 40243",96880729,"L"
39982,"12311 GRATIOT","DETROIT","MI",48205,42.416159728,-82.9901388229999,482,"12311 GRATIOT, DETROIT, MI, 48205","Match","Non_Exact","12311 GRATIOT AVE, DETROIT, MI, 48205",95468270,"L"
39983,"12311 GREENBRIER WAY","LAKEWOOD RANCH","FL",34202,27.4157790420001,-82.4185180379999,483,"12311 GREENBRIER WAY, LAKEWOOD RANCH, FL, 34202","Match","Exact","12311 GREENBRIER WAY, LAKEWOOD RCH, FL, 34202",16268220,"L"
39984,"12311 KENSINGTON LAKES DR UNIT 1905","JACKSONVILLE","FL",32246,NA,NA,484,"12311 KENSINGTON LAKES DR UNIT 1905, JACKSONVILLE, FL, 32246","Tie",NA,NA,NA,NA
39985,"12311 PLUMPOINT DR","HOUSTON","TX",77099,29.6713705660001,-95.5975934149999,485,"12311 PLUMPOINT DR, HOUSTON, TX, 77099","Match","Exact","12311 PLUMPOINT DR, HOUSTON, TX, 77099",96035522,"L"
39986,"12311 W BRADDOCK","BOISE","ID",83709,43.599690669,-116.334888981,486,"12311 W BRADDOCK, BOISE, ID, 83709","Match","Non_Exact","12311 W BRADDOCK DR, BOISE, ID, 83709",117883339,"L"
39987,"12312 BELLEFONTAINE RD","ST LOUIS","MO",63137,38.796414257,-90.212790524,487,"12312 BELLEFONTAINE RD, ST LOUIS, MO, 63137","Match","Non_Exact","12312 BELLEFONTAINE RD, SAINT LOUIS, MO, 63138",100150691,"R"
39988,"12312 SE 112TH AVENUE RD","BELLEVIEW","FL",34420,29.0429975280001,-81.967482488,488,"12312 SE 112TH AVENUE RD, BELLEVIEW, FL, 34420","Match","Exact","12312 SE 112TH AVENUE RD, BELLEVIEW, FL, 34420",116708688,"L"
39989,"12312 WHITE EAGLE DR","MANASSAS","VA",20112,38.6875494930001,-77.42928585,489,"12312 WHITE EAGLE DR, MANASSAS, VA, 20112","Match","Exact","12312 WHITE EAGLE DR, MANASSAS, VA, 20112",76507296,"R"
39990,"12313 EVENING BAY DRIVE","PEARLAND","TX",77584,29.5593348940001,-95.411349593,490,"12313 EVENING BAY DRIVE, PEARLAND, TX, 77584","Match","Exact","12313 EVENING BAY DR, PEARLAND, TX, 77584",614115944,"L"
39991,"12313 HIDDEN FOREST BOULEVARD","OKLAHOMA CITY","OK",73142,35.5949292490001,-97.6361440809999,491,"12313 HIDDEN FOREST BOULEVARD, OKLAHOMA CITY, OK, 73142","Match","Exact","12313 HIDDEN FOREST BLVD, OKLAHOMA CITY, OK, 73142",646827101,"L"
39992,"12313 N HELENA CT","SPOKANE","WA",99218,47.7696285160001,-117.387764213,492,"12313 N HELENA CT, SPOKANE, WA, 99218","Match","Exact","12313 N HELENA CT, SPOKANE, WA, 99218",189908734,"R"
39993,"12313 N NINE MILE ROAD","NINE MILE FALLS","WA",99026,47.7692460480001,-117.546270558,493,"12313 N NINE MILE ROAD, NINE MILE FALLS, WA, 99026","Match","Exact","12313 N NINE MILE RD, NINE MILE FALLS, WA, 99026",639174144,"L"
39994,"12313 RIVER VISTA DR","RIVERTON","UT",84065,40.5275637350001,-111.922334742,494,"12313 RIVER VISTA DR, RIVERTON, UT, 84065","Match","Exact","12313 RIVER VISTA DR, RIVERTON, UT, 84065",176125852,"R"
39995,"12313 RIVERGLEN DRIVE","RIVERVIEW","FM",33569,NA,NA,495,"12313 RIVERGLEN DRIVE, RIVERVIEW, FM, 33569","No_Match",NA,NA,NA,NA
39996,"12313 W VALENTINE AVE","EL MIRAGE","AZ",85335,33.603783374,-112.325441025,496,"12313 W VALENTINE AVE, EL MIRAGE, AZ, 85335","Match","Exact","12313 W VALENTINE AVE, EL MIRAGE, AZ, 85335",128853618,"L"
39997,"12314 BIG OAK RD","UNION","KY",41091,38.8843549280001,-84.718804959,497,"12314 BIG OAK RD, UNION, KY, 41091","Match","Exact","12314 BIG OAK RD, UNION, KY, 41091",81960404,"L"
39998,"12314 MADISON HILLS LANE","RIVERTON","UT",84065,40.5278655230001,-111.961645416,498,"12314 MADISON HILLS LANE, RIVERTON, UT, 84065","Match","Exact","12314 MADISON HILLS LN, RIVERTON, UT, 84065",611644661,"R"
39999,"12314 S MADISON HILLS LANE","RIVERTON","UT",84065,40.5278655230001,-111.961645416,499,"12314 S MADISON HILLS LANE, RIVERTON, UT, 84065","Match","Exact","12314 MADISON HILLS LN, RIVERTON, UT, 84065",611644661,"R"
40000,"12314 WRIGHT OAKS DR","HOUSTON","TX",77014,29.9678982500001,-95.446286449,500,"12314 WRIGHT OAKS DR, HOUSTON, TX, 77014","Match","Exact","12314 WRIGHT OAKS DR, HOUSTON, TX, 77014",96658899,"L"
