"ID","Address","City","State","Zip","lat","long","id","input_address","match_indicator","match_type","matched_address","tiger_line_id","tiger_side"
60001,"1418 THAMES LANE","CLEARWATER","FL",33755,27.988351811,-82.778446961,1,"1418 THAMES LANE, CLEARWATER, FL, 33755","Match","Exact","1418 THAMES LN, CLEARWATER, FL, 33755",124667666,"L"
60002,"1418 THOMPSON AVE","GLOUCESTER CITY","NJ",8030,39.879510673,-75.106534228,2,"1418 THOMPSON AVE, GLOUCESTER CITY, NJ, 8030","Match","Exact","1418 THOMPSON AVE, GLOUCESTER CITY, NJ, 08030",134350695,"R"
60003,"1418 TORGESON ROAD","DULUTH","MN",55804,46.996373942,-91.8318041969999,3,"1418 TORGESON ROAD, DULUTH, MN, 55804","Match","Exact","1418 TORGESON RD, DULUTH, MN, 55804",163201219,"R"
60004,"1418 VALLEY VIEW CT","VAN METER","IA",50261,41.4432964120001,-93.847797473,4,"1418 VALLEY VIEW CT, VAN METER, IA, 50261","Match","Non_Exact","1418 VALLEYVIEW CT, VAN METER, IA, 50261",652698570,"R"
60005,"1418 W 63RD ST","DAVENPORT","IA",52806,41.5859226970001,-90.589877047,5,"1418 W 63RD ST, DAVENPORT, IA, 52806","Match","Exact","1418 W 63RD ST, DAVENPORT, IA, 52806",650855387,"R"
60006,"1418 W CLEAR SPRING DR","GILBERT","AZ",85233,33.338295827,-111.819659091,6,"1418 W CLEAR SPRING DR, GILBERT, AZ, 85233","Match","Exact","1418 W CLEAR SPRING DR, GILBERT, AZ, 85233",128787636,"L"
60007,"1418 W DEVON AVE","CHICAGO","IL",60660,41.998133943,-87.6663823919999,7,"1418 W DEVON AVE, CHICAGO, IL, 60660","Match","Exact","1418 W DEVON AVE, CHICAGO, IL, 60660",616788724,"R"
60008,"1418 W ST NW APT 506","WASHINGTON","DC",20009,38.9191838300001,-77.032526463,8,"1418 W ST NW APT 506, WASHINGTON, DC, 20009","Match","Exact","1418 W ST NW, WASHINGTON, DC, 20009",640262542,"L"
60009,"1418 W VIRGIL DR","SAN TAN VALLEY","AZ",85142,33.1580904950001,-111.581799083,9,"1418 W VIRGIL DR, SAN TAN VALLEY, AZ, 85142","Match","Exact","1418 W VIRGIL DR, SAN TAN VALLEY, AZ, 85142",129314053,"R"
60010,"1418 WEST 9TH STREET","CHESTER","NJ",19013,NA,NA,10,"1418 WEST 9TH STREET, CHESTER, NJ, 19013","No_Match",NA,NA,NA,NA
60011,"1418 WEST ROCKLAND STREET","PHILADELPHIA","PA",19141,40.027750822,-75.1481459399999,11,"1418 WEST ROCKLAND STREET, PHILADELPHIA, PA, 19141","Match","Exact","1418 W ROCKLAND ST, PHILADELPHIA, PA, 19141",131416804,"L"
60012,"1418 WHEDBEE STREET","FORT COLLINS","CO",80524,40.5692209910001,-105.07021198,12,"1418 WHEDBEE STREET, FORT COLLINS, CO, 80524","Match","Exact","1418 WHEDBEE ST, FORT COLLINS, CO, 80524",188571410,"L"
60013,"1418 WILBUR AVE","SWANSEA","MA",2777,41.7338548970001,-71.244186613,13,"1418 WILBUR AVE, SWANSEA, MA, 2777","Match","Exact","1418 WILBUR AVE, SWANSEA, MA, 02777",46766274,"L"
60014,"1418 XAVIER STREET","DENVER","CO",80204,39.7389313130001,-105.049802135,14,"1418 XAVIER STREET, DENVER, CO, 80204","Match","Exact","1418 XAVIER ST, DENVER, CO, 80204",177300375,"R"
60015,"1418 YUKON STREET","DAVIS","CA",95616,38.5549905670001,-121.769490575,15,"1418 YUKON STREET, DAVIS, CA, 95616","Match","Exact","1418 YUKON ST, DAVIS, CA, 95616",67704437,"R"
60016,"14180 GARRETT AVENUE","APPLE VALLEY","MN",55124,44.7437571090001,-93.211500243,16,"14180 GARRETT AVENUE, APPLE VALLEY, MN, 55124","Match","Exact","14180 GARRETT AVE, APPLE VALLEY, MN, 55124",37907256,"L"
60017,"14180 SW 84 ST","MIAMI","FL",33183,25.6884888550001,-80.424091909,17,"14180 SW 84 ST, MIAMI, FL, 33183","Match","Exact","14180 SW 84TH ST, MIAMI, FL, 33183",116281679,"L"
60018,"14180 SW 84TH STREET APT 103","MIAMI","FL",33183,25.6884888550001,-80.424091909,18,"14180 SW 84TH STREET APT 103, MIAMI, FL, 33183","Match","Non_Exact","14180 SW 84TH ST, MIAMI, FL, 33183",116281679,"L"
60019,"14181 HEREFORD ST","WESTMINSTER","CA",92683,33.7564339150001,-118.02605793,19,"14181 HEREFORD ST, WESTMINSTER, CA, 92683","Match","Exact","14181 HEREFORD ST, WESTMINSTER, CA, 92683",144080885,"R"
60020,"14181 NOEL RD APT 4305","DALLAS","TX",75254,32.9414394730001,-96.818124403,20,"14181 NOEL RD APT 4305, DALLAS, TX, 75254","Match","Exact","14181 NOEL RD, DALLAS, TX, 75254",652924153,"R"
60021,"14181 SOUTHERN RED MAPLE DRIVE","ORLANDO","FL",32828,28.5244266230001,-81.146265098,21,"14181 SOUTHERN RED MAPLE DRIVE, ORLANDO, FL, 32828","Match","Exact","14181 SOUTHERN RED MAPLE DR, ORLANDO, FL, 32828",94415611,"L"
60022,"14183 MENDOCINO CT","FONTANA","CA",92336,34.1194012770001,-117.495086206,22,"14183 MENDOCINO CT, FONTANA, CA, 92336","Match","Exact","14183 MENDOCINO CT, FONTANA, CA, 92336",144707833,"L"
60023,"14183 REMINGTON CT","FONTANA","CA",92336,34.1168638730001,-117.495872127,23,"14183 REMINGTON CT, FONTANA, CA, 92336","Match","Exact","14183 REMINGTON CT, FONTANA, CA, 92336",144707941,"L"
60024,"14185 HIGH NOON CT","MORENO VALLEY","CA",92553,33.9145754400001,-117.219264279,24,"14185 HIGH NOON CT, MORENO VALLEY, CA, 92553","Match","Exact","14185 HIGH NOON CT, MORENO VALLEY, CA, 92553",194790975,"L"
60025,"14185 SHADYWOOD DRIVE","PLYMOUTH","MI",48170,42.3848239690001,-83.452546255,25,"14185 SHADYWOOD DRIVE, PLYMOUTH, MI, 48170","Match","Exact","14185 SHADYWOOD DR, PLYMOUTH, MI, 48170",95410564,"L"
60026,"14185 W 71ST PL","AURORA","CO",80004,39.8264528080001,-105.158971487,26,"14185 W 71ST PL, AURORA, CO, 80004","Match","Non_Exact","14185 W 71ST PL, ARVADA, CO, 80004",640549242,"R"
60027,"14185 W FALCON ST","LUKE AFB","AZ",85309,33.539529836,-112.365050217,27,"14185 W FALCON ST, LUKE AFB, AZ, 85309","Match","Exact","14185 FALCON ST, LUKE AIR FORCE BASE, AZ, 85309",128262654,"L"
60028,"14187 LAURA VISTA DR","CARMEL","IN",46033,39.9922342840001,-86.1185136839999,28,"14187 LAURA VISTA DR, CARMEL, IN, 46033","Match","Exact","14187 LAURA VISTA DR, CARMEL, IN, 46033",231603023,"R"
60029,"1418A WOODFIELD","JONESBORO","AR",72401,35.827796462,-90.661122974,29,"1418A WOODFIELD, JONESBORO, AR, 72401","Match","Non_Exact","1418 WOODFIELD ST, JONESBORO, AR, 72401",46920735,"L"
60030,"1418GRAVEL HILL ROAD","MONCKS CORNER","SC",29461,NA,NA,30,"1418GRAVEL HILL ROAD, MONCKS CORNER, SC, 29461","No_Match",NA,NA,NA,NA
60031,"1419  ATLANTIC DRIVE","COMPTON","CA",90221,33.883890455,-118.192567758,31,"1419  ATLANTIC DRIVE, COMPTON, CA, 90221","Match","Non_Exact","1419 S ATLANTIC DR, COMPTON, CA, 90221",642864748,"R"
60032,"1419 57TH CT","MERIDIAN","MS",39305,32.4204943930001,-88.693461911,32,"1419 57TH CT, MERIDIAN, MS, 39305","Match","Exact","1419 57TH CT, MERIDIAN, MS, 39305",191064,"L"
60033,"1419 5TH STREET UNIT A","SARASOTA","FL",34236,27.340457585,-82.542193911,33,"1419 5TH STREET UNIT A, SARASOTA, FL, 34236","Match","Exact","1419 5TH ST, SARASOTA, FL, 34236",16347897,"L"
60034,"1419 BENJAMIN ST","BALTIMORE","MD",21230,39.2685164310001,-76.588683069,34,"1419 BENJAMIN ST, BALTIMORE, MD, 21230","Match","Exact","1419 BENJAMIN ST, BALTIMORE, MD, 21230",637679985,"R"
60035,"1419 BINFORD COURT","CHARLOTTE","NC",28212,35.1774738610001,-80.7622795939999,35,"1419 BINFORD COURT, CHARLOTTE, NC, 28212","Match","Exact","1419 BINFORD CT, CHARLOTTE, NC, 28212",70492443,"R"
60036,"1419 BROADMOOR","DERBY","KS",67037,37.560575785,-97.2467923729999,36,"1419 BROADMOOR, DERBY, KS, 67037","Match","Non_Exact","1419 BROADMOOR ST, DERBY, KS, 67037",115666781,"R"
60037,"1419 COASTAL OAKS DRIVE","FERNANDINA BEACH","FL",32034,30.6516758290001,-81.4503945009999,37,"1419 COASTAL OAKS DRIVE, FERNANDINA BEACH, FL, 32034","Match","Exact","1419 COASTAL OAKS DR, FERNANDINA BCH, FL, 32034",646731515,"L"
60038,"1419 DEXTER ST","LIBERTY","MO",64068,39.2637185200001,-94.427839127,38,"1419 DEXTER ST, LIBERTY, MO, 64068","Match","Exact","1419 DEXTER ST, LIBERTY, MO, 64068",89771714,"R"
60039,"1419 DIEHR RD","WENTZVILLE","MO",63385,38.747151371,-90.821872949,39,"1419 DIEHR RD, WENTZVILLE, MO, 63385","Match","Exact","1419 DIEHR RD, WENTZVILLE, MO, 63385",653596224,"R"
60040,"1419 GILHAM STREET","PHILADELPHIA","PA",19111,40.042193658,-75.0767023619999,40,"1419 GILHAM STREET, PHILADELPHIA, PA, 19111","Match","Exact","1419 GILHAM ST, PHILADELPHIA, PA, 19111",652295015,"L"
60041,"1419 GREEN PASTURE RD","SANDSTON","VA",23150,37.5378165980001,-77.309273924,41,"1419 GREEN PASTURE RD, SANDSTON, VA, 23150","Match","Exact","1419 GREEN PASTURE RD, SANDSTON, VA, 23150",106652022,"R"
60042,"1419 H STREET NE","WASHINGTON","DC",20002,38.9001933930001,-76.984796624,42,"1419 H STREET NE, WASHINGTON, DC, 20002","Match","Exact","1419 H ST NE, WASHINGTON, DC, 20002",638245201,"R"
60043,"1419 HIGH KNOLL DR","BRANDON","FL",33511,27.901399471,-82.3081510759999,43,"1419 HIGH KNOLL DR, BRANDON, FL, 33511","Match","Exact","1419 HIGH KNOLL DR, BRANDON, FL, 33511",104580398,"L"
60044,"1419 HIGHWAY 554","BASTROP","LA",71220,32.6890408670001,-91.9715732619999,44,"1419 HIGHWAY 554, BASTROP, LA, 71220","Match","Exact","1419 HWY 554, BASTROP, LA, 71220",647796133,"L"
60045,"1419 HOBSON DRIVE","RICHMOND","TX",77406,29.6143829150001,-95.741532331,45,"1419 HOBSON DRIVE, RICHMOND, TX, 77406","Match","Exact","1419 HOBSON DR, RICHMOND, TX, 77406",78320924,"L"
60046,"1419 HOWARD STREET","SAGINAW","MI",48601,43.416613774,-83.9396743789999,46,"1419 HOWARD STREET, SAGINAW, MI, 48601","Match","Exact","1419 HOWARD ST, SAGINAW, MI, 48601",80215859,"R"
60047,"1419 JEFFERSON RD","JEFFERSON","PA",15344,39.930736795,-80.0589952669999,47,"1419 JEFFERSON RD, JEFFERSON, PA, 15344","Match","Exact","1419 JEFFERSON RD, JEFFERSON, PA, 15344",51371253,"R"
60048,"1419 JEFFERSON ROAD","MT PLEASANT","SC",29466,32.848295643,-79.790331094,48,"1419 JEFFERSON ROAD, MT PLEASANT, SC, 29466","Match","Exact","1419 JEFFERSON RD, MOUNT PLEASANT, SC, 29466",108908445,"R"
60049,"1419 LELA LANE","MILFORD","OH",45150,39.1903951670001,-84.207436622,49,"1419 LELA LANE, MILFORD, OH, 45150","Match","Exact","1419 LELA LN, MILFORD, OH, 45150",637577861,"R"
60050,"1419 LIMIT AVE","BALTIMORE","MD",21239,39.3713240810001,-76.585041135,50,"1419 LIMIT AVE, BALTIMORE, MD, 21239","Match","Exact","1419 LIMIT AVE, BALTIMORE, MD, 21239",647419209,"R"
60051,"1419 LOMITA BLVD STE 4","HARBOR CITY","CA",90710,33.7978141620001,-118.302190358,51,"1419 LOMITA BLVD STE 4, HARBOR CITY, CA, 90710","Match","Exact","1419 LOMITA BLVD, HARBOR CITY, CA, 90710",142456424,"R"
60052,"1419 LOSEY AVE","JACKSON","MI",49203,42.2360908160001,-84.380680242,52,"1419 LOSEY AVE, JACKSON, MI, 49203","Match","Exact","1419 LOSEY AVE, JACKSON, MI, 49203",653389303,"L"
60053,"1419 MOSSLAKE DRIVE","DESOTO","TX",75115,32.609016507,-96.895519456,53,"1419 MOSSLAKE DRIVE, DESOTO, TX, 75115","Match","Exact","1419 MOSSLAKE DR, DESOTO, TX, 75115",102995190,"R"
60054,"1419 NE 13TH PLACE","CAPE CORAL","FL",33909,26.679365325,-81.946265205,54,"1419 NE 13TH PLACE, CAPE CORAL, FL, 33909","Match","Exact","1419 NE 13TH PL, CAPE CORAL, FL, 33909",118007469,"L"
60055,"1419 NE 57TH STREET","FORT LAUDERDALE","FL",33334,26.197975835,-80.1298362649999,55,"1419 NE 57TH STREET, FORT LAUDERDALE, FL, 33334","Match","Exact","1419 NE 57TH ST, FORT LAUDERDALE, FL, 33334",114816071,"L"
60056,"1419 NORTH BOWMAN RD AVE","DANVILLE","IL",61832,40.1468290190001,-87.611541283,56,"1419 NORTH BOWMAN RD AVE, DANVILLE, IL, 61832","Match","Non_Exact","1419 N BOWMAN AVE, DANVILLE, IL, 61832",611997806,"R"
60057,"1419 NORTHWOODS CV","MURFREESBORO","TN",37129,35.8798267130001,-86.364422678,57,"1419 NORTHWOODS CV, MURFREESBORO, TN, 37129","Match","Non_Exact","1419 NORTHWOODS COVE, MURFREESBORO, TN, 37130",59029996,"R"
60058,"1419 NW 34TH WAY","LAUDERHILL","FL",33311,26.1428760590001,-80.193199824,58,"1419 NW 34TH WAY, LAUDERHILL, FL, 33311","Match","Exact","1419 NW 34TH WAY, LAUDERHILL, FL, 33311",617017997,"L"
60059,"1419 NW 49TH ST","OKLAHOMA CITY","OK",73118,35.521406487,-97.535093436,59,"1419 NW 49TH ST, OKLAHOMA CITY, OK, 73118","Match","Exact","1419 NW 49TH ST, OKLAHOMA CITY, OK, 73118",100397191,"R"
60060,"1419 OLD JOPPA ROAD","JOPPA","MD",21085,39.4343745080001,-76.3621259929999,60,"1419 OLD JOPPA ROAD, JOPPA, MD, 21085","Match","Exact","1419 OLD JOPPA RD, JOPPA, MD, 21085",625190222,"R"
60061,"1419 PASEO DE VACA","SAN ANGELO","TX",76901,31.447041821,-100.450998489,61,"1419 PASEO DE VACA, SAN ANGELO, TX, 76901","Match","Non_Exact","1419 PASEO DE VACA ST, SAN ANGELO, TX, 76901",607999338,"L"
60062,"1419 S 4TH STREET","LOUISVILLE","KY",40208,38.2284225450001,-85.761475753,62,"1419 S 4TH STREET, LOUISVILLE, KY, 40208","Match","Exact","1419 S 4TH ST, LOUISVILLE, KY, 40208",96844059,"L"
60063,"1419 S 57 AVE","CICERO","IL",60804,41.8614799490001,-87.7666361939999,63,"1419 S 57 AVE, CICERO, IL, 60804","Match","Exact","1419 S 57TH AVE, CICERO, IL, 60804",111795163,"L"
60064,"1419 S OAK KNOLL DR","PRESCOTT","AZ",86303,34.515913063,-112.445097597,64,"1419 S OAK KNOLL DR, PRESCOTT, AZ, 86303","Match","Exact","1419 OAK KNOLL DR, PRESCOTT, AZ, 86303",159457651,"R"
60065,"1419 SUMMIT VIEW DRIVE","HOLTS SUMMIT","MO",65043,38.6178951800001,-92.141893516,65,"1419 SUMMIT VIEW DRIVE, HOLTS SUMMIT, MO, 65043","Match","Exact","1419 SUMMIT VIEW DR, HOLTS SUMMIT, MO, 65043",34367411,"R"
60066,"1419 W 7TH PLACE","TEMPE","AZ",85281,33.423078866,-111.961683681,66,"1419 W 7TH PLACE, TEMPE, AZ, 85281","Match","Exact","1419 W 7TH PL, TEMPE, AZ, 85281",128889219,"L"
60067,"1419 W JEFFERSON BLVD","LOS ANGELES","CA",90007,34.025518188,-118.297697571,67,"1419 W JEFFERSON BLVD, LOS ANGELES, CA, 90007","Match","Exact","1419 W JEFFERSON BLVD, LOS ANGELES, CA, 90007",141607025,"R"
60068,"1419 W WHITMAN CT","ANTHEM","AZ",85086,33.857411321,-112.091449583,68,"1419 W WHITMAN CT, ANTHEM, AZ, 85086","Match","Exact","1419 W WHITMAN CT, ANTHEM, AZ, 85086",243980517,"R"
60069,"1419 WALNUT DRIVE","WEST DUNDEE","IL",60118,42.1133406910001,-88.324728777,69,"1419 WALNUT DRIVE, WEST DUNDEE, IL, 60118","Match","Exact","1419 WALNUT DR, WEST DUNDEE, IL, 60118",119587905,"L"
60070,"1419 WALNUT HALL CT 8","MEMPHIS","TN",38119,35.093624607,-89.867044908,70,"1419 WALNUT HALL CT 8, MEMPHIS, TN, 38119","Match","Exact","1419 WALNUT HALL CT, MEMPHIS, TN, 38119",72927611,"R"
60071,"1419 WAUGHTOWN STREET","WINSTON-SALEM","NC",27107,36.068642622,-80.207950634,71,"1419 WAUGHTOWN STREET, WINSTON-SALEM, NC, 27107","Match","Exact","1419 WAUGHTOWN ST, WINSTON SALEM, NC, 27107",84614064,"L"
60072,"1419 WEST LAKESHORE DRIVE","CLERMONT","FL",34711,28.543226836,-81.778599546,72,"1419 WEST LAKESHORE DRIVE, CLERMONT, FL, 34711","Match","Exact","1419 W LAKESHORE DR, CLERMONT, FL, 34711",94184523,"R"
60073,"1419 WEST LOCUST","KINGSTON","OK",73439,NA,NA,73,"1419 WEST LOCUST, KINGSTON, OK, 73439","No_Match",NA,NA,NA,NA
60074,"1419 WILDWOOD CROSSINGS","BIRMINGHAM","AL",35211,33.4312954600001,-86.844491671,74,"1419 WILDWOOD CROSSINGS, BIRMINGHAM, AL, 35211","Match","Exact","1419 WILDWOOD CROSSINGS, BIRMINGHAM, AL, 35211",81662026,"R"
60075,"1419 WILSON AVE","COLUMBIA","VT",65201,NA,NA,75,"1419 WILSON AVE, COLUMBIA, VT, 65201","No_Match",NA,NA,NA,NA
60076,"14190 E JEWELL AVE STE 7","AURORA","CO",80012,39.6821043050001,-104.823625352,76,"14190 E JEWELL AVE STE 7, AURORA, CO, 80012","Match","Non_Exact","14190 E JEWELL AVE, AURORA, CO, 80012",177372023,"R"
60077,"14190 OAK MEADOW LANE   NO 69","GONZALES","LA",70737,NA,NA,77,"14190 OAK MEADOW LANE   NO 69, GONZALES, LA, 70737","No_Match",NA,NA,NA,NA
60078,"14191 CAVANAUGH STREET","BECKER","MN",55308,45.395671222,-93.86846753,78,"14191 CAVANAUGH STREET, BECKER, MN, 55308","Match","Exact","14191 CAVANAUGH ST, BECKER, MN, 55308",631942038,"L"
60079,"14191 FROST DRIVE","RANCHO CUCAMONGA","CA",91739,34.1498507810001,-117.493528093,79,"14191 FROST DRIVE, RANCHO CUCAMONGA, CA, 91739","Match","Exact","14191 FROST DR, ETIWANDA, CA, 91739",144973821,"R"
60080,"14193 PLEASANT VALLEY RD","CHILLICOTHE","OH",45601,39.362882821,-83.010237178,80,"14193 PLEASANT VALLEY RD, CHILLICOTHE, OH, 45601","Match","Exact","14193 PLEASANT VALLEY RD, CHILLICOTHE, OH, 45601",37490854,"R"
60081,"14194 LEEWARD WAY","PALM BEACH GARDENS","FL",33410,26.885152686,-80.074352381,81,"14194 LEEWARD WAY, PALM BEACH GARDENS, FL, 33410","Match","Exact","14194 LEEWARD WAY, PALM BEACH GARDENS, FL, 33410",648309249,"R"
60082,"14194 STACEY ST","CARMEL","IN",46033,39.9943274250001,-86.111803062,82,"14194 STACEY ST, CARMEL, IN, 46033","Match","Exact","14194 STACEY ST, CARMEL, IN, 46033",29327228,"L"
60083,"14195 DELWOOD DRIVE","ELBERT","CO",80106,39.0362083680001,-104.59484424,83,"14195 DELWOOD DRIVE, ELBERT, CO, 80106","Match","Exact","14195 DELWOOD DR, ELBERT, CO, 80106",647972316,"R"
60084,"14197 AVERY POINT","GRANGE","IN",46530,41.748528451,-86.144324105,84,"14197 AVERY POINT, GRANGE, IN, 46530","Match","Non_Exact","14197 AVERY PT, GRANGER, IN, 46530",8078134,"R"
60085,"14197 CLAY SPRINGS RD","EL PASO","TX",79938,31.8649256090001,-106.192550027,85,"14197 CLAY SPRINGS RD, EL PASO, TX, 79938","Match","Exact","14197 CLAY SPRING RD, EL PASO, TX, 79938",189352925,"L"
60086,"14198 CANTERBURY RD","MONTPELIER","VA",23192,37.7935805550001,-77.679542902,86,"14198 CANTERBURY RD, MONTPELIER, VA, 23192","Match","Exact","14198 CANTERBURY RD, MONTPELIER, VA, 23192",84989779,"R"
60087,"142 27 221 STREET","SPRINGFIELD GARDENS",NA,11413,NA,NA,87,"142 27 221 STREET, SPRINGFIELD GARDENS, , 11413","No_Match",NA,NA,NA,NA
60088,"142 A HARTFORD ST","SAN FRANCISCO","CA",94114,37.7602404620001,-122.433837303,88,"142 A HARTFORD ST, SAN FRANCISCO, CA, 94114","Match","Exact","142 HARTFORD ST, SAN FRANCISCO, CA, 94114",192283653,"R"
60089,"142 ADAMS STREET","DECATUR","GA",30030,33.7682531230001,-84.298339923,89,"142 ADAMS STREET, DECATUR, GA, 30030","Match","Exact","142 ADAMS ST, DECATUR, GA, 30030",23367135,"L"
60090,"142 ADDISON ROAD","GLASTONBURY","CT",6033,41.720829478,-72.579277981,90,"142 ADDISON ROAD, GLASTONBURY, CT, 6033","Match","Exact","142 ADDISON RD, GLASTONBURY, CT, 06033",3526454,"R"
60091,"142 AIRPORT RD","BINGHAMTON","NY",13901,42.1876571120001,-75.848999501,91,"142 AIRPORT RD, BINGHAMTON, NY, 13901","Match","Exact","142 AIRPORT RD, BINGHAMTON, NY, 13901",46344595,"R"
60092,"142 ALLENDALE ST","BALTIMORE","MD",21229,39.2903085740001,-76.6782017519999,92,"142 ALLENDALE ST, BALTIMORE, MD, 21229","Match","Exact","142 ALLENDALE ST, BALTIMORE, MD, 21229",206413656,"L"
60093,"142 ALTON RD","MACON","GA",31211,32.874505748,-83.581736883,93,"142 ALTON RD, MACON, GA, 31211","Match","Exact","142 ALTON RD, MACON, GA, 31211",65480173,"L"
60094,"142 ANDES DRIVE","DANVILLE","VA",25440,36.6286898760001,-79.388596234,94,"142 ANDES DRIVE, DANVILLE, VA, 25440","Match","Non_Exact","142 ANDES DR, DANVILLE, VA, 24540",56664274,"R"
60095,"142 ANDREWS AVENUE","MARION","TX",78124,29.5912072300001,-98.177115137,95,"142 ANDREWS AVENUE, MARION, TX, 78124","Match","Exact","142 ANDREWS AVE, MARION, TX, 78124",635821786,"R"
60096,"142 ANITA DR","OPELOUSAS","LA",70570,30.596622348,-92.10396243,96,"142 ANITA DR, OPELOUSAS, LA, 70570","Match","Exact","142 ANITA DR, OPELOUSAS, LA, 70570",106433931,"L"
60097,"142 ARTHUR AVENUE","CLARENDON HILLS","IL",60514,41.8008675880001,-87.965013825,97,"142 ARTHUR AVENUE, CLARENDON HILLS, IL, 60514","Match","Exact","142 ARTHUR AVE, CLARENDON HILLS, IL, 60514",646571079,"L"
60098,"142 AVE COBALLES GANDIA CARR2 KM88","HATILLO","PR",659,NA,NA,98,"142 AVE COBALLES GANDIA CARR2 KM88, HATILLO, PR, 659","No_Match",NA,NA,NA,NA
60099,"142 BARRETT HILL RD","BROOKLYN","CT",6234,41.812590394,-71.943263163,99,"142 BARRETT HILL RD, BROOKLYN, CT, 6234","Match","Exact","142 BARRETT HILL RD, BROOKLYN, CT, 06234",56446776,"L"
60100,"142 BEAVER CREEK LANE","MAUMELLE","AR",72113,34.8702851790001,-92.4262535249999,100,"142 BEAVER CREEK LANE, MAUMELLE, AR, 72113","Match","Exact","142 BEAVER CREEK LN, MAUMELLE, AR, 72113",633266651,"R"
60101,"142 BENGE DRIVE","ELKIN","NC",28621,36.279585808,-80.8601851339999,101,"142 BENGE DRIVE, ELKIN, NC, 28621","Match","Exact","142 BENGE DR, ELKIN, NC, 28621",154168189,"L"
60102,"142 BERMUDA BLVD","POUGHKEEPSIE","NY",12603,41.718988304,-73.893970397,102,"142 BERMUDA BLVD, POUGHKEEPSIE, NY, 12603","Match","Exact","142 BERMUDA BLVD, POUGHKEEPSIE, NY, 12603",619910038,"R"
60103,"142 BRABANT STREET 3D","STATEN ISLAND","NY",10303,40.6318831030001,-74.163413108,103,"142 BRABANT STREET 3D, STATEN ISLAND, NY, 10303","Match","Exact","142 BRABANT ST, STATEN ISLAND, NY, 10303",59877264,"L"
60104,"142 BRENNAN RD","COLUMBUS","GA",31907,32.452121171,-84.943005149,104,"142 BRENNAN RD, COLUMBUS, GA, 31907","Match","Non_Exact","142 BRENNAN RD, COLUMBUS, GA, 31906",98947666,"L"
60105,"142 BRIAR COURT","MARLTON","NJ",8053,39.8934816120001,-74.942958034,105,"142 BRIAR COURT, MARLTON, NJ, 8053","Match","Exact","142 BRIAR CT, MARLTON, NJ, 08053",637317864,"L"
60106,"142 BRICKTON VILLAGE CIR 205","FLETCHER","NC",28732,35.4100533000001,-82.502497954,106,"142 BRICKTON VILLAGE CIR 205, FLETCHER, NC, 28732","Match","Exact","142 BRICKTON VILLAGE CIR, FLETCHER, NC, 28732",634084838,"L"
60107,"142 BRISTOL DR","WOODBURY","NY",11797,40.8048168230001,-73.470314107,107,"142 BRISTOL DR, WOODBURY, NY, 11797","Match","Exact","142 BRISTOL DR, WOODBURY, NY, 11797",147643139,"R"
60108,"142 BROADREACH RD","LEXINGTON","SC",29072,34.028181556,-81.285641873,108,"142 BROADREACH RD, LEXINGTON, SC, 29072","Match","Exact","142 BROADREACH RD, LEXINGTON, SC, 29072",70086232,"R"
60109,"142 BURNS WAY","POINT ROBERTS","WA",98281,48.9971364570001,-123.055492601,109,"142 BURNS WAY, POINT ROBERTS, WA, 98281","Match","Exact","142 BURNS WAY, POINT ROBERTS, WA, 98281",183770296,"R"
60110,"142 CALLAN PARK LANE","CARY","NC",27511,35.7861464850001,-78.777125133,110,"142 CALLAN PARK LANE, CARY, NC, 27511","Match","Exact","142 CALLAN PARK LN, CARY, NC, 27511",208365520,"L"
60111,"142 CAPRONA STREET","SEBASTIAN","FL",32958,27.772544091,-80.469422008,111,"142 CAPRONA STREET, SEBASTIAN, FL, 32958","Match","Exact","142 CAPRONA ST, SEBASTIAN, FL, 32958",120298513,"L"
60112,"142 CASEY CT","CANON","GA",30520,34.335266995,-83.157767178,112,"142 CASEY CT, CANON, GA, 30520","Match","Exact","142 CASEY CT, CANON, GA, 30520",23083102,"R"
60113,"142 CEDAR DR","CHINA SPRING","TX",76633,31.6239564260001,-97.3133440669999,113,"142 CEDAR DR, CHINA SPRING, TX, 76633","Match","Exact","142 CEDAR DR, CHINA SPRING, TX, 76633",146730771,"L"
60114,"142 CERRO DRIVE","DALY","CA",94015,37.6767082960001,-122.475581646,114,"142 CERRO DRIVE, DALY, CA, 94015","Match","Non_Exact","142 CERRO DR, DALY CITY, CA, 94015",192368900,"R"
60115,"142 CLAIREMONT","EL PASO","TX",79912,31.8267328260001,-106.528743109,115,"142 CLAIREMONT, EL PASO, TX, 79912","Match","Non_Exact","142 CLAIREMONT DR, EL PASO, TX, 79912",616028274,"L"
60116,"142 CLEVELAND ST","COLUMBUS","IN",47201,39.1989825310001,-85.8956900429999,116,"142 CLEVELAND ST, COLUMBUS, IN, 47201","Match","Exact","142 CLEVELAND ST, COLUMBUS, IN, 47201",30983476,"L"
60117,"142 CLINTON AVE","JERSEY CITY","NJ",7304,40.7179497160001,-74.077018622,117,"142 CLINTON AVE, JERSEY CITY, NJ, 7304","Match","Exact","142 CLINTON AVE, JERSEY CITY, NJ, 07304",59604228,"R"
60118,"142 COMING ST","CHARLESTON","SC",29403,32.7876541570001,-79.941002289,118,"142 COMING ST, CHARLESTON, SC, 29403","Match","Exact","142 COMING ST, CHARLESTON, SC, 29403",108807367,"R"
60119,"142 COMMODORE DRIVE","STATEN ISLAND","NY",10309,40.5152102210001,-74.202335948,119,"142 COMMODORE DRIVE, STATEN ISLAND, NY, 10309","Match","Exact","142 COMMODORE DR, STATEN ISLAND, NY, 10309",59881999,"R"
60120,"142 CRESTMONT LANE","CINCINNATI","OH",45220,39.1467089880001,-84.515095473,120,"142 CRESTMONT LANE, CINCINNATI, OH, 45220","Match","Exact","142 CRESTMONT LN, CINCINNATI, OH, 45220",103924437,"L"
60121,"142 CRIMSON ISLES DRIVE","JUPITER","FL",33478,26.944894687,-80.16109428,121,"142 CRIMSON ISLES DRIVE, JUPITER, FL, 33478","Match","Exact","142 CRIMSON ISLES DR, JUPITER, FL, 33478",650452118,"L"
60122,"142 CUYLER LANE","SAINT SIMON IS","GA",31522,31.1567563400001,-81.407738442,122,"142 CUYLER LANE, SAINT SIMON IS, GA, 31522","Match","Non_Exact","142 CUYLER LN, SAINT SIMONS IS, GA, 31522",624475329,"R"
60123,"142 DAVIE ST  586","COOLEEMEE","NC",27014,35.8131551710001,-80.558946184,123,"142 DAVIE ST  586, COOLEEMEE, NC, 27014","Match","Exact","142 DAVIE ST, COOLEEMEE, NC, 27014",640645690,"L"
60124,"142 DEER RUN","WATCHUNG","NJ",7069,40.627234898,-74.4486002799999,124,"142 DEER RUN, WATCHUNG, NJ, 7069","Match","Exact","142 DEER RUN, WATCHUNG, NJ, 07069",59952209,"R"
60125,"142 DEVEN DR","DALLAS","GA",30132,33.986143629,-84.811155233,125,"142 DEVEN DR, DALLAS, GA, 30132","Match","Exact","142 DEVEN DR, DALLAS, GA, 30132",618944192,"R"
60126,"142 DOVE TRAIL","RICHWOOD","TX",77531,29.068147772,-95.410415379,126,"142 DOVE TRAIL, RICHWOOD, TX, 77531","Match","Exact","142 DOVE TRL, RICHWOOD, TX, 77531",653228295,"R"
60127,"142 DUFFIE RD","SIMPSONVILLE","SC",29681,34.765700457,-82.249914288,127,"142 DUFFIE RD, SIMPSONVILLE, SC, 29681","Match","Exact","142 DUFFIE RD, SIMPSONVILLE, SC, 29681",638735110,"R"
60128,"142 E BONITA AVE STE 10","SAN DIMAS","CA",91773,NA,NA,128,"142 E BONITA AVE STE 10, SAN DIMAS, CA, 91773","Tie",NA,NA,NA,NA
60129,"142 E BONITA AVE UNIT 223","SAN DIMAS","CA",91773,NA,NA,129,"142 E BONITA AVE UNIT 223, SAN DIMAS, CA, 91773","Tie",NA,NA,NA,NA
60130,"142 E ONTARIO ST SUITE 525","CHICAGO","IL",60611,41.8933513480001,-87.623625725,130,"142 E ONTARIO ST SUITE 525, CHICAGO, IL, 60611","Match","Non_Exact","142 E ONTARIO ST, CHICAGO, IL, 60611",111769053,"L"
60131,"142 E SCHLIEMAN","APPLETON","MN",56208,45.199938565,-96.015044242,131,"142 E SCHLIEMAN, APPLETON, MN, 56208","Match","Non_Exact","142 E SCHLIEMAN AVE, APPLETON, MN, 56208",164926628,"L"
60132,"142 E WILDE YAUPON CIR","THE WOODLANDS","TX",77381,30.1593865520001,-95.5124617,132,"142 E WILDE YAUPON CIR, THE WOODLANDS, TX, 77381","Match","Exact","142 E WILDE YAUPON CIR, THE WOODLANDS, TX, 77381",79305912,"R"
60133,"142 EAST LOUIS WAY","TEMPE","AZ",85284,33.346665794,-111.93516535,133,"142 EAST LOUIS WAY, TEMPE, AZ, 85284","Match","Exact","142 E LOUIS WAY, TEMPE, AZ, 85284",128870213,"L"
60134,"142 EAST PITT STREET","BEDFORD","PA",15522,40.0190724920001,-78.50255397,134,"142 EAST PITT STREET, BEDFORD, PA, 15522","Match","Exact","142 E PITT ST, BEDFORD, PA, 15522",50167462,"R"
60135,"142 EASTERN BLVD","ESSEX","MD",21221,39.3052117060001,-76.48263251,135,"142 EASTERN BLVD, ESSEX, MD, 21221","Match","Exact","142 EASTERN BLVD, ESSEX, MD, 21221",191489267,"L"
60136,"142 EAU CLAIRE BLVD","WAUSAU","WI",54403,44.9334320190001,-89.6175416679999,136,"142 EAU CLAIRE BLVD, WAUSAU, WI, 54403","Match","Exact","142 EAU CLAIRE BLVD, WAUSAU, WI, 54403",117138862,"R"
60137,"142 ELDRIDGE ROAD SUITE C","SUGAR LAND","TX",77478,NA,NA,137,"142 ELDRIDGE ROAD SUITE C, SUGAR LAND, TX, 77478","No_Match",NA,NA,NA,NA
60138,"142 ELGIN AVENUE UNIT 2D","FOREST PARK","IL",60130,41.8840016410001,-87.806182882,138,"142 ELGIN AVENUE UNIT 2D, FOREST PARK, IL, 60130","Match","Exact","142 ELGIN AVE, FOREST PARK, IL, 60130",111752745,"L"
60139,"142 ELM AVE","NEWTON","NJ",7860,41.0091934490001,-74.7247087659999,139,"142 ELM AVE, NEWTON, NJ, 7860","Match","Exact","142 ELM AVE, NEWTON, NJ, 07860",653299742,"L"
60140,"142 FITZGERALD ROAD","RINDGE","NH",3461,42.7665256290001,-72.007409135,140,"142 FITZGERALD ROAD, RINDGE, NH, 3461","Match","Exact","142 FITZGERALD RD, RINDGE, NH, 03461",124085832,"R"
60141,"142 FLAGSTONE WAY","ACWORTH","GA",30101,NA,NA,141,"142 FLAGSTONE WAY, ACWORTH, GA, 30101","No_Match",NA,NA,NA,NA
60142,"142 FOREST DRIVE","PISCATAWAY","NJ",8854,40.564876988,-74.49600651,142,"142 FOREST DRIVE, PISCATAWAY, NJ, 8854","Match","Exact","142 FOREST DR, PISCATAWAY, NJ, 08854",617905907,"R"
60143,"142 GILMORE DR","PITTSBURGH","PA",15235,40.4332319170001,-79.811187414,143,"142 GILMORE DR, PITTSBURGH, PA, 15235","Match","Exact","142 GILMORE DR, PITTSBURGH, PA, 15235",51673745,"R"
60144,"142 GLORIA RICH ROAD","COBLESKILL","NY",12043,42.666619143,-74.4337607419999,144,"142 GLORIA RICH ROAD, COBLESKILL, NY, 12043","Match","Exact","142 GLORIA RICH RD, COBLESKILL, NY, 12043",18932318,"R"
60145,"142 GLORIA TRAIL","COLUMBIA","SC",29203,34.14146501,-81.063257091,145,"142 GLORIA TRAIL, COLUMBIA, SC, 29203","Match","Exact","142 GLORIA TRL, COLUMBIA, SC, 29203",635780804,"R"
60146,"142 GOULDING AVENUE","BUFFALO","NY",14208,42.9154460140001,-78.846922972,146,"142 GOULDING AVENUE, BUFFALO, NY, 14208","Match","Exact","142 GOULDING AVE, BUFFALO, NY, 14208",48296479,"L"
60147,"142 GRAND AVE","GLASGOW","KY",42141,37.0032044860001,-85.900820191,147,"142 GRAND AVE, GLASGOW, KY, 42141","Match","Exact","142 GRAND AVE, GLASGOW, KY, 42141",29522694,"L"
60148,"142 GRANDVIEW DR","DITTMER","MO",63023,38.297787826,-90.679012351,148,"142 GRANDVIEW DR, DITTMER, MO, 63023","Match","Exact","142 GRANDVIEW DR, DITTMER, MO, 63023",62763403,"R"
60149,"142 GRAYSON AVE","SAVANNAH","GA",31419,31.9814701130001,-81.266287683,149,"142 GRAYSON AVE, SAVANNAH, GA, 31419","Match","Exact","142 GRAYSON AVE, SAVANNAH, GA, 31419",638886272,"L"
60150,"142 HAOKEA DRIVE","KAILUA","HI",96734,21.389817733,-157.715411122,150,"142 HAOKEA DRIVE, KAILUA, HI, 96734","Match","Exact","142 HAOKEA DR, KAILUA, HI, 96734",203240659,"R"
60151,"142 HARLAN DAVIS ROAD","LUMBERTON","MS",39455,30.8429152460001,-89.2757766939999,151,"142 HARLAN DAVIS ROAD, LUMBERTON, MS, 39455","Match","Exact","142 HARLAN DAVIS RD, LUMBERTON, MS, 39455",606464385,"R"
60152,"142 HAVERHILL ROAD","AMESBURY","MA",1913,42.840351077,-70.9692673919999,152,"142 HAVERHILL ROAD, AMESBURY, MA, 1913","Match","Exact","142 HAVERHILL RD, AMESBURY, MA, 01913",650973151,"L"
60153,"142 HEATHFIELD DRIVE","SARVER","PA",16055,NA,NA,153,"142 HEATHFIELD DRIVE, SARVER, PA, 16055","No_Match",NA,NA,NA,NA
60154,"142 HENDRIX DRIVE","OAK RIDGE","TN",37830,36.013429128,-84.231967603,154,"142 HENDRIX DRIVE, OAK RIDGE, TN, 37830","Match","Exact","142 HENDRIX DR, OAK RIDGE, TN, 37830",90132390,"L"
60155,"142 HIDDEN KNOLL","SELMA","TX",78154,29.574920863,-98.300777704,155,"142 HIDDEN KNOLL, SELMA, TX, 78154","Match","Exact","142 HIDDEN KNOLL, SELMA, TX, 78154",648076009,"L"
60156,"142 HIDDEN TRAIL","PENDERGRASS","GA",30567,34.1542732140001,-83.724938874,156,"142 HIDDEN TRAIL, PENDERGRASS, GA, 30567","Match","Exact","142 HIDDEN TRL, PENDERGRASS, GA, 30567",619847359,"R"
60157,"142 HIGH ROAD","KUTZTOWN","PA",19530,40.521449202,-75.719073755,157,"142 HIGH ROAD, KUTZTOWN, PA, 19530","Match","Exact","142 HIGH RD, KUTZTOWN, PA, 19530",80404702,"L"
60158,"142 JORALEMON STREET SUITE 11C","BROOKLYN","NY",11201,40.692918504,-73.9936028819999,158,"142 JORALEMON STREET SUITE 11C, BROOKLYN, NY, 11201","Match","Exact","142 JORALEMON ST, BROOKLYN, NY, 11201",59103198,"R"
60159,"142 KELVINGTON DRIVE","MONROEVILLE","PA",15146,40.3989923070001,-79.754903567,159,"142 KELVINGTON DRIVE, MONROEVILLE, PA, 15146","Match","Exact","142 KELVINGTON DR, MONROEVILLE, PA, 15146",51677137,"R"
60160,"142 KENSINGTON LANE NE","WARREN","OH",44484,41.2575170910001,-80.729938278,160,"142 KENSINGTON LANE NE, WARREN, OH, 44484","Match","Exact","142 KENSINGTON LN NE, WARREN, OH, 44484",117420748,"R"
60161,"142 KING CREEK LANE","ELKIN","NC",28621,36.3460187110001,-80.7437943259999,161,"142 KING CREEK LANE, ELKIN, NC, 28621","Match","Exact","142 KING CREEK LN, ELKIN, NC, 28621",154165309,"R"
60162,"142 LAKE AVE","METAIRIE","LA",70005,29.9822316450001,-90.126121045,162,"142 LAKE AVE, METAIRIE, LA, 70005","Match","Exact","142 LAKE AVE, METAIRIE, LA, 70005",93504223,"L"
60163,"142 LINCOLN BLVD","ORLANDO","FL",32810,28.620919347,-81.3922529289999,163,"142 LINCOLN BLVD, ORLANDO, FL, 32810","Match","Exact","142 LINCOLN BLVD, ORLANDO, FL, 32810",633671078,"L"
60164,"142 LITTLE PRINCESS BOX 142","ST CROIX","VI",824,NA,NA,164,"142 LITTLE PRINCESS BOX 142, ST CROIX, VI, 824","No_Match",NA,NA,NA,NA
60165,"142 LIVINGSTON AVE","NEW BRUNSWICK","NJ",8901,40.488679511,-74.4489087159999,165,"142 LIVINGSTON AVE, NEW BRUNSWICK, NJ, 8901","Match","Exact","142 LIVINGSTON AVE, NEW BRUNSWICK, NJ, 08901",60264010,"L"
60166,"142 LOVERING STREET","MEDWAY","MA",2053,42.1663287370001,-71.43527828,166,"142 LOVERING STREET, MEDWAY, MA, 2053","Match","Exact","142 LOVERING ST, MEDWAY, MA, 02053",624727819,"R"
60167,"142 LOWELL RD UNIT 17 NO 205","HUDSON","NH",3051,42.74675182,-71.4260168439999,167,"142 LOWELL RD UNIT 17 NO 205, HUDSON, NH, 3051","Match","Exact","142 LOWELL RD, HUDSON, NH, 03051",113572754,"L"
60168,"142 MACCLAINE DRIVE","CARNEGIE","PA",15106,40.4155964340001,-80.122602318,168,"142 MACCLAINE DRIVE, CARNEGIE, PA, 15106","Match","Non_Exact","142 MACLAINE DR, CARNEGIE, PA, 15106",617245096,"L"
60169,"142 MAIN STREET APT 2","LENOX","MA",1240,42.3619102280001,-73.28272444,169,"142 MAIN STREET APT 2, LENOX, MA, 1240","Match","Exact","142 MAIN ST, LENOX, MA, 01240",3925776,"R"
60170,"142 MAIN STREET","RIVESVILLE","WV",26588,NA,NA,170,"142 MAIN STREET, RIVESVILLE, WV, 26588","Tie",NA,NA,NA,NA
60171,"142 MAPLE ST S","EDEN VALLEY","MN",55329,45.323169007,-94.544093442,171,"142 MAPLE ST S, EDEN VALLEY, MN, 55329","Match","Exact","142 MAPLE ST S, EDEN VALLEY, MN, 55329",36979653,"R"
60172,"142 MARCELLA ROAD","HAMPTON","VA",23666,37.0501353550001,-76.3817581229999,172,"142 MARCELLA ROAD, HAMPTON, VA, 23666","Match","Exact","142 MARCELLA RD, HAMPTON, VA, 23666",103757386,"R"
60173,"142 MARGATE ROAD","UPPER DARBY","PA",19082,39.9524525640001,-75.2679771259999,173,"142 MARGATE ROAD, UPPER DARBY, PA, 19082","Match","Exact","142 MARGATE RD, UPPER DARBY, PA, 19082",134877772,"L"
60174,"142 MARSHALL BRIDGE DRIVE","GREENVILLE","SC",29605,34.809239059,-82.37343816,174,"142 MARSHALL BRIDGE DRIVE, GREENVILLE, SC, 29605","Match","Exact","142 MARSHALL BRIDGE DR, GREENVILLE, SC, 29605",38343990,"R"
60175,"142 MAXWELL MILL CAMPGROUND LANE","PINK HILL","NC",28572,35.072915879,-77.7858062569999,175,"142 MAXWELL MILL CAMPGROUND LANE, PINK HILL, NC, 28572","Match","Exact","142 MAXWELL MILL CAMPGROUND LN, PINK HILL, NC, 28572",13449193,"R"
60176,"142 MICHIGAN AVE NE U31","WASHINGTON","DC",20017,38.9282589640001,-77.0049556549999,176,"142 MICHIGAN AVE NE U31, WASHINGTON, DC, 20017","Match","Exact","142 MICHIGAN AVE NE, WASHINGTON, DC, 20017",635190432,"L"
60177,"142 MIRACLE STRIP PWKY SE","FORT WALTON BEACH","FL",32548,30.403751302,-86.60747026,177,"142 MIRACLE STRIP PWKY SE, FORT WALTON BEACH, FL, 32548","Match","Non_Exact","142 MIRACLE STRIP PKWY, FORT WALTON BEACH, FL, 32548",639597830,"R"
60178,"142 MONTAUK DRIVE","LEXINGTON","SC",29072,33.9445870280001,-81.2826415179999,178,"142 MONTAUK DRIVE, LEXINGTON, SC, 29072","Match","Exact","142 MONTAUK DR, LEXINGTON, SC, 29072",624112535,"R"
60179,"142 N CARLETON DRIVE","BATTLE CREEK","MI",49017,42.3464529710001,-85.151990707,179,"142 N CARLETON DRIVE, BATTLE CREEK, MI, 49017","Match","Exact","142 N CARLETON DR, BATTLE CREEK, MI, 49017",11713623,"R"
60180,"142 N KELLYS LN","WHITE SPRINGS","FL",32096,NA,NA,180,"142 N KELLYS LN, WHITE SPRINGS, FL, 32096","No_Match",NA,NA,NA,NA
60181,"142 N MAIN STREET","ADRIAN","MI",49221,41.899531569,-84.0361228469999,181,"142 N MAIN STREET, ADRIAN, MI, 49221","Match","Exact","142 N MAIN ST, ADRIAN, MI, 49221",25943004,"R"
60182,"142 N MILPITAS BLVD STE 276","MILPITAS","CA",95035,NA,NA,182,"142 N MILPITAS BLVD STE 276, MILPITAS, CA, 95035","Tie",NA,NA,NA,NA
60183,"142 NEW JERSEY AVE","ABSECON","NJ",8201,39.425121066,-74.5010031039999,183,"142 NEW JERSEY AVE, ABSECON, NJ, 8201","Match","Exact","142 NEW JERSEY AVE, ABSECON, NJ, 08201",639916260,"R"
60184,"142 NICHOLS AVE","BROOKLYN","NY",11208,40.6873488150001,-73.8693323539999,184,"142 NICHOLS AVE, BROOKLYN, NY, 11208","Match","Exact","142 NICHOLS AVE, BROOKLYN, NY, 11208",59095087,"R"
60185,"142 NORTH CHERRY STREET","OLATHE","KS",66061,38.8826778580001,-94.819444742,185,"142 NORTH CHERRY STREET, OLATHE, KS, 66061","Match","Exact","142 N CHERRY ST, OLATHE, KS, 66061",91283159,"R"
60186,"142 NORTH MILPITAS BLVD SUITE 422","MILPITAS","CA",95035,37.4386003590001,-121.901533307,186,"142 NORTH MILPITAS BLVD SUITE 422, MILPITAS, CA, 95035","Match","Exact","142 N MILPITAS BLVD, MILPITAS, CA, 95035",123179517,"R"
60187,"142 NORTH QUEEN STREET","MARTINSBURG","WV",25403,39.458049735,-77.96340422,187,"142 NORTH QUEEN STREET, MARTINSBURG, WV, 25403","Match","Non_Exact","142 N QUEEN ST, MARTINSBURG, WV, 25401",123379134,"L"
60188,"142 NORTH STREET","RIDGEFIELD","CT",6877,41.298279807,-73.500767352,188,"142 NORTH STREET, RIDGEFIELD, CT, 6877","Match","Exact","142 NORTH ST, RIDGEFIELD, CT, 06877",3225067,"L"
60189,"142 NORTH STREET","UPTON","MA",1568,42.211490414,-71.622680719,189,"142 NORTH STREET, UPTON, MA, 1568","Match","Exact","142 NORTH ST, UPTON, MA, 01568",616742411,"R"
60190,"142 NORTH WEST STREET PO BOX 162","AARONSBURG","PA",16820,40.901050985,-77.455949886,190,"142 NORTH WEST STREET PO BOX 162, AARONSBURG, PA, 16820","Match","Non_Exact","142 WEST ST, AARONSBURG, PA, 16820",50397847,"L"
60191,"142 OAKLAND STREET","MOUNT HOLLY","NC",28120,35.29676376,-81.0181791539999,191,"142 OAKLAND STREET, MOUNT HOLLY, NC, 28120","Match","Exact","142 OAKLAND ST, MOUNT HOLLY, NC, 28120",70391291,"R"
60192,"142 OLD HIGHWAY 171","LAKE CHARLES","LA",70611,30.3012352860001,-93.189561558,192,"142 OLD HIGHWAY 171, LAKE CHARLES, LA, 70611","Match","Exact","142 OLD HWY 171, LAKE CHARLES, LA, 70611",88445494,"L"
60193,"142 PALMETTO LANE","WEST PALM BEACH","FL",33405,26.6607740690001,-80.049040699,193,"142 PALMETTO LANE, WEST PALM BEACH, FL, 33405","Match","Non_Exact","142 PALMETTO ST, WEST PALM BEACH, FL, 33405",115280677,"L"
60194,"142 PINE HILL TRAIL WEST","TEQUESTA","FL",33469,NA,NA,194,"142 PINE HILL TRAIL WEST, TEQUESTA, FL, 33469","No_Match",NA,NA,NA,NA
60195,"142 PINECONE DRIVE","LAWRENCE","KS",66046,38.947506016,-95.2222605869999,195,"142 PINECONE DRIVE, LAWRENCE, KS, 66046","Match","Exact","142 PINECONE DR, LAWRENCE, KS, 66046",17685776,"L"
60196,"142 PINECREST BEACH DRIVE","EAST FALMOUTH","MA",2536,41.600523846,-70.582603179,196,"142 PINECREST BEACH DRIVE, EAST FALMOUTH, MA, 2536","Match","Exact","142 PINECREST BEACH DR, EAST FALMOUTH, MA, 02536",121584626,"L"
60197,"142 PR 4325","HONDO","TX",78861,NA,NA,197,"142 PR 4325, HONDO, TX, 78861","No_Match",NA,NA,NA,NA
60198,"142 PROSPECT","PONTIAC","MI",48341,42.6248788980001,-83.282656166,198,"142 PROSPECT, PONTIAC, MI, 48341","Match","Non_Exact","142 PROSPECT ST, PONTIAC, MI, 48341",69705980,"R"
60199,"142 PURPLE MARTIN ROAD","MONTGOMERY","NY",12549,41.5174540420001,-74.242193142,199,"142 PURPLE MARTIN ROAD, MONTGOMERY, NY, 12549","Match","Non_Exact","142 PURPLE MARTIN DR, MONTGOMERY, NY, 12549",124408743,"L"
60200,"142 RANDOLPH PL NW","WASHINGTON","DC",20001,38.9133405110001,-77.01300348,200,"142 RANDOLPH PL NW, WASHINGTON, DC, 20001","Match","Exact","142 RANDOLPH PL NW, WASHINGTON, DC, 20001",76224631,"L"
60201,"142 REGENCY ROAD","MOORESVILLE","NC",28117,35.5739407660001,-80.885261757,201,"142 REGENCY ROAD, MOORESVILLE, NC, 28117","Match","Exact","142 REGENCY RD, MOORESVILLE, NC, 28117",45991146,"L"
60202,"142 RIVERBEND DRIVE","NORTH BRUNSWICK","NJ",8902,40.454879395,-74.505756828,202,"142 RIVERBEND DRIVE, NORTH BRUNSWICK, NJ, 8902","Match","Exact","142 RIVERBEND DR, N BRUNSWICK, NJ, 08902",60325616,"R"
60203,"142 RUBY ROAD","DRACUT","MA",1826,42.7197198490001,-71.2713630339999,203,"142 RUBY ROAD, DRACUT, MA, 1826","Match","Exact","142 RUBY RD, DRACUT, MA, 01826",87131256,"L"
60204,"142 S 16TH STREET","HOT SPRINGS","SD",57747,43.4291698690001,-103.480609567,204,"142 S 16TH STREET, HOT SPRINGS, SD, 57747","Match","Exact","142 S 16TH ST, HOT SPRINGS, SD, 57747",639823111,"L"
60205,"142 S 180 E","PRINCETON","IN",47670,NA,NA,205,"142 S 180 E, PRINCETON, IN, 47670","No_Match",NA,NA,NA,NA
60206,"142 S 2ND STREET SUITE 201","PHILADELPHIA","PA",19106,NA,NA,206,"142 S 2ND STREET SUITE 201, PHILADELPHIA, PA, 19106","Tie",NA,NA,NA,NA
60207,"142 SANDBURG ST   APT A","ATHENS","GA",30605,33.922972943,-83.349154504,207,"142 SANDBURG ST   APT A, ATHENS, GA, 30605","Match","Exact","142 SANDBURG ST, ATHENS, GA, 30605",4804035,"R"
60208,"142 SOUTH 32ND ST","NEWARK","OH",43055,40.0444571730001,-82.444562216,208,"142 SOUTH 32ND ST, NEWARK, OH, 43055","Match","Exact","142 S 32ND ST, NEWARK, OH, 43055",61505843,"L"
60209,"142 SOUTH MARIETTA STREET","SAINT CLAIRSVILLE","OH",43950,40.077118414,-80.9017982029999,209,"142 SOUTH MARIETTA STREET, SAINT CLAIRSVILLE, OH, 43950","Match","Exact","142 S MARIETTA ST, SAINT CLAIRSVILLE, OH, 43950",36204575,"L"
60210,"142 SPELLMAN AVE","OAK RIDGE","TN",37830,35.9928624070001,-84.263299387,210,"142 SPELLMAN AVE, OAK RIDGE, TN, 37830","Match","Exact","142 SPELLMAN AVE, OAK RIDGE, TN, 37830",90134533,"L"
60211,"142 SPOKANE AVE","LYLE","WA",98635,45.6962014440001,-121.287254449,211,"142 SPOKANE AVE, LYLE, WA, 98635","Match","Exact","142 SPOKANE AVE, LYLE, WA, 98635",175635046,"L"
60212,"142 STERLING WAY","HOLLISTER","MO",65672,36.5934012210001,-93.273439891,212,"142 STERLING WAY, HOLLISTER, MO, 65672","Match","Exact","142 STERLING WAY, HOLLISTER, MO, 65672",624516862,"L"
60213,"142 STILLWATER RUN","POCA","WV",25159,38.4590980830001,-81.7686583999999,213,"142 STILLWATER RUN, POCA, WV, 25159","Match","Non_Exact","142 STILL WATER RUN, POCA, WV, 25159",130536561,"L"
60214,"142 STONE HARBOR LN","DOBSON","NC",27017,36.3505575620001,-80.6900576529999,214,"142 STONE HARBOR LN, DOBSON, NC, 27017","Match","Exact","142 STONE HARBOR LN, DOBSON, NC, 27017",154189029,"R"
60215,"142 STRAWBERRY HILL ROAD","CENTERVILLE","MA",2632,41.6427290890001,-70.324168915,215,"142 STRAWBERRY HILL ROAD, CENTERVILLE, MA, 2632","Match","Exact","142 STRAWBERRY HILL RD, CENTERVILLE, MA, 02632",121559921,"R"
60216,"142 SUE DRIVE","ALTAMONTE SPRINGS","FL",32714,28.6759807390001,-81.4341592069999,216,"142 SUE DRIVE, ALTAMONTE SPRINGS, FL, 32714","Match","Exact","142 SUE DR, ALTAMONTE SPRINGS, FL, 32714",93735118,"L"
60217,"142 SUGAR MILL CIRCLE","SAVANNAH","GA",31419,31.9928193960001,-81.207552907,217,"142 SUGAR MILL CIRCLE, SAVANNAH, GA, 31419","Match","Exact","142 SUGAR MILL CIR, SAVANNAH, GA, 31419",6201606,"L"
60218,"142 SW 17TH STREET","BEND","OR",97702,44.0490541870001,-121.336729229,218,"142 SW 17TH STREET, BEND, OR, 97702","Match","Exact","142 SW 17TH ST, BEND, OR, 97702",152556804,"L"
60219,"142 TURNBERRY LANE","COPPELL","TX",75019,32.9906801990001,-96.995182684,219,"142 TURNBERRY LANE, COPPELL, TX, 75019","Match","Exact","142 TURNBERRY LN, COPPELL, TX, 75019",103396758,"R"
60220,"142 TURNBERRY LN","COPPELL","TX",75019,32.9906801990001,-96.995182684,220,"142 TURNBERRY LN, COPPELL, TX, 75019","Match","Exact","142 TURNBERRY LN, COPPELL, TX, 75019",103396758,"R"
60221,"142 W 23RD ST","HOLLAND","MI",49423,42.7766567370001,-86.113178514,221,"142 W 23RD ST, HOLLAND, MI, 49423","Match","Exact","142 W 23RD ST, HOLLAND, MI, 49423",71077849,"L"
60222,"142 W 300 S","SPRINGVILLE","UT",84663,40.1624769900001,-111.613268496,222,"142 W 300 S, SPRINGVILLE, UT, 84663","Match","Exact","142 W 300 S, SPRINGVILLE, UT, 84663",134210916,"R"
60223,"142 W 57TH STREET 06-124","NEW YORK","NY",10019,40.764856722,-73.97846889,223,"142 W 57TH STREET 06-124, NEW YORK, NY, 10019","Match","Non_Exact","142 W 57TH ST, NEW YORK, NY, 10019",59657122,"L"
60224,"142 W 62ND ST SUITE 311","CHICAGO","IL",60621,41.7817009410001,-87.62948474,224,"142 W 62ND ST SUITE 311, CHICAGO, IL, 60621","Match","Non_Exact","142 W 62ND ST, CHICAGO, IL, 60621",111830475,"R"
60225,"142 W 75TH STREET","NEW YORK CITY","NY",10023,40.780098911,-73.979120372,225,"142 W 75TH STREET, NEW YORK CITY, NY, 10023","Match","Exact","142 W 75TH ST, NEW YORK, NY, 10023",650080791,"L"
60226,"142 W BONNER DRIVE","MOUNTAIN HOUSE","CA",95391,37.763739678,-121.549478421,226,"142 W BONNER DRIVE, MOUNTAIN HOUSE, CA, 95391","Match","Exact","142 BONNER DR, MOUNTAIN HOUSE, CA, 95391",645186894,"L"
60227,"142 W BRAYTON","CHICAGO","IL",60478,NA,NA,227,"142 W BRAYTON, CHICAGO, IL, 60478","No_Match",NA,NA,NA,NA
60228,"142 W DUTTON RD","EAGLE POINT","OR",97524,42.4472545450001,-122.831371491,228,"142 W DUTTON RD, EAGLE POINT, OR, 97524","Match","Exact","142 W DUTTON RD, EAGLE POINT, OR, 97524",642182063,"R"
60229,"142 W LAKEVIEW AVE STE 1030 PMB 61","LAKE MARY","FL",32746,NA,NA,229,"142 W LAKEVIEW AVE STE 1030 PMB 61, LAKE MARY, FL, 32746","Tie",NA,NA,NA,NA
60230,"142 W MAIN ST","LEWISVILLE","TX",75057,33.0463017530001,-96.9949283,230,"142 W MAIN ST, LEWISVILLE, TX, 75057","Match","Exact","142 W MAIN ST, LEWISVILLE, TX, 75057",103349327,"R"
60231,"142 W ST LOUIS ST","PACIFIC","MO",63069,38.4820548370001,-90.7429986829999,231,"142 W ST LOUIS ST, PACIFIC, MO, 63069","Match","Exact","142 W ST LOUIS ST, PACIFIC, MO, 63069",99725627,"L"
60232,"142 W YORK STREET STE 605","NORFOLK","VA",23510,36.853645015,-76.292348432,232,"142 W YORK STREET STE 605, NORFOLK, VA, 23510","Match","Non_Exact","142 W YORK ST, NORFOLK, VA, 23510",122151133,"L"
60233,"142 WACHUSETT ST","HOLDEN","MA",1520,42.3416947260001,-71.83331535,233,"142 WACHUSETT ST, HOLDEN, MA, 1520","Match","Exact","142 WACHUSETT ST, HOLDEN, MA, 01520",645364358,"R"
60234,"142 WALNUT RIDGE LANE","WESTERVILLE","OH",43081,40.121206724,-82.91240121,234,"142 WALNUT RIDGE LANE, WESTERVILLE, OH, 43081","Match","Exact","142 WALNUT RIDGE LN, WESTERVILLE, OH, 43081",218698342,"L"
60235,"142 WASHINGTON AVENUE","VALLEY STREAM","NY",11580,40.6759642100001,-73.7202125269999,235,"142 WASHINGTON AVENUE, VALLEY STREAM, NY, 11580","Match","Exact","142 WASHINGTON AVE, VALLEY STREAM, NY, 11580",147668247,"R"
60236,"142 WATER STREET","BERLIN","WI",54923,43.969653179,-88.950746311,236,"142 WATER STREET, BERLIN, WI, 54923","Match","Exact","142 WATER ST, BERLIN, WI, 54923",73448108,"R"
60237,"142 WEST 139TH ST APT 1C","NEW YORK","NY",10030,40.8171695610001,-73.9402192969999,237,"142 WEST 139TH ST APT 1C, NEW YORK, NY, 10030","Match","Exact","142 W 139TH ST, NEW YORK, NY, 10030",59656409,"L"
60238,"142 WEST 57TH STREET FLOOR 11","NEW YORK","NY",10019,40.764847768,-73.978447575,238,"142 WEST 57TH STREET FLOOR 11, NEW YORK, NY, 10019","Match","Exact","142 W 57TH ST, NEW YORK, NY, 10019",59657122,"L"
60239,"142 WEST END AVENUE SUITE 5P","NEW YORK","NY",10023,40.7761379780001,-73.987142002,239,"142 WEST END AVENUE SUITE 5P, NEW YORK, NY, 10023","Match","Exact","142 W END AVE, NEW YORK, NY, 10023",650066494,"R"
60240,"142 WEST END AVENUE","EUTAW","AL",35462,32.8427031640001,-87.910589764,240,"142 WEST END AVENUE, EUTAW, AL, 35462","Match","Exact","142 W END AVE, EUTAW, AL, 35462",9657706,"R"
60241,"142 WEST JEFF DAVIS AVENUE","MONTGOMERY","AL",36104,32.3662169040001,-86.310943402,241,"142 WEST JEFF DAVIS AVENUE, MONTGOMERY, AL, 36104","Match","Exact","142 W JEFF DAVIS AVE, MONTGOMERY, AL, 36104",1469266,"R"
60242,"142 WEST STATE STREET 3RD FLOOR","TRENTON","NJ",8608,40.221021663,-74.769992998,242,"142 WEST STATE STREET 3RD FLOOR, TRENTON, NJ, 8608","Match","Exact","142 W STATE ST, TRENTON, NJ, 08608",648478364,"R"
60243,"142 WEST VIRGIL STREET","APOPKA","FL",32703,NA,NA,243,"142 WEST VIRGIL STREET, APOPKA, FL, 32703","No_Match",NA,NA,NA,NA
60244,"142 WINDTREE LANE","WINTER GARDEN","FL",34787,28.548799219,-81.5804774549999,244,"142 WINDTREE LANE, WINTER GARDEN, FL, 34787","Match","Exact","142 WINDTREE LN, WINTER GARDEN, FL, 34787",94330583,"L"
60245,"142 WINTERGREEN TRAIL","MARQUETTE","MI",49855,46.4858748230001,-87.3262358809999,245,"142 WINTERGREEN TRAIL, MARQUETTE, MI, 49855","Match","Exact","142 WINTERGREEN TRL, MARQUETTE, MI, 49855",625353347,"R"
60246,"142 WOOSTER STREET - APT 4A","NEW YORK","NY",10012,40.7256447720001,-73.999868917,246,"142 WOOSTER STREET - APT 4A, NEW YORK, NY, 10012","Match","Exact","142 WOOSTER ST, NEW YORK, NY, 10012",59662022,"R"
60247,"142-05 232ND STREET","LAURELTON","NY",11413,40.6652725440001,-73.743963217,247,"142-05 232ND STREET, LAURELTON, NY, 11413","Match","Exact","142-5 232ND ST, LAURELTON, NY, 11413",59721427,"L"
60248,"142-09 37TH AVENUE 1ST FLOOR","FLUSHING","NY",11354,40.762514181,-73.827190571,248,"142-09 37TH AVENUE 1ST FLOOR, FLUSHING, NY, 11354","Match","Exact","142-9 37TH AVE, FLUSHING, NY, 11354",59701060,"L"
60249,"1420 11TH AVE SE","ROCHESTER","MN",55904,44.003472581,-92.448601603,249,"1420 11TH AVE SE, ROCHESTER, MN, 55904","Match","Exact","1420 11TH AVE SE, ROCHESTER, MN, 55904",640026872,"L"
60250,"1420 1ST ST","MONTICELLO","FL",32344,NA,NA,250,"1420 1ST ST, MONTICELLO, FL, 32344","No_Match",NA,NA,NA,NA
60251,"1420 22ND STREET ENSLEY","BIRMINGHAM","AL",35218,NA,NA,251,"1420 22ND STREET ENSLEY, BIRMINGHAM, AL, 35218","No_Match",NA,NA,NA,NA
60252,"1420 50TH STREET","BROOKLYN","NY",11219,40.6327993830001,-73.9899459919999,252,"1420 50TH STREET, BROOKLYN, NY, 11219","Match","Exact","1420 50TH ST, BROOKLYN, NY, 11219",59080266,"R"
60253,"1420 5TH AVENUE  STE 4200","SEATTLE","WA",98101,47.6099333500001,-122.334887182,253,"1420 5TH AVENUE  STE 4200, SEATTLE, WA, 98101","Match","Exact","1420 5TH AVE, SEATTLE, WA, 98101",239762483,"R"
60254,"1420 ASPEN DRIVE","MARYSVILLE","MI",48040,42.8824897220001,-82.4773338589999,254,"1420 ASPEN DRIVE, MARYSVILLE, MI, 48040","Match","Exact","1420 ASPEN DR, MARYSVILLE, MI, 48040",110981065,"L"
60255,"1420 ATHENS DRIVE","RALEIGH","NC",27606,35.7699677300001,-78.710954766,255,"1420 ATHENS DRIVE, RALEIGH, NC, 27606","Match","Exact","1420 ATHENS DR, RALEIGH, NC, 27606",612817810,"L"
60256,"1420 BERKSHIRE DR SE","GRAND RAPIDS","MI",49508,42.9076260460001,-85.630605918,256,"1420 BERKSHIRE DR SE, GRAND RAPIDS, MI, 49508","Match","Exact","1420 BERKSHIRE DR SE, GRAND RAPIDS, MI, 49508",12462979,"R"
60257,"1420 BOULEVARD OF THE ARTS","SARASOTA","FL",34236,NA,NA,257,"1420 BOULEVARD OF THE ARTS, SARASOTA, FL, 34236","No_Match",NA,NA,NA,NA
60258,"1420 BRONX RIVER AVE SUITE 7B","BRONX","NY",10472,40.8344922640001,-73.879175943,258,"1420 BRONX RIVER AVE SUITE 7B, BRONX, NY, 10472","Match","Exact","1420 BRONX RIVER AVE, BRONX, NY, 10472",609086656,"R"
60259,"1420 BURGAW HWY","JACKSONVILLE","NC",28540,34.7479931660001,-77.481576993,259,"1420 BURGAW HWY, JACKSONVILLE, NC, 28540","Match","Exact","1420 BURGAW HWY, JACKSONVILLE, NC, 28540",636607876,"L"
60260,"1420 CAMELBACK VIEW DRIVE","POCATELLO","ID",83201,42.90098105,-112.396876748,260,"1420 CAMELBACK VIEW DRIVE, POCATELLO, ID, 83201","Match","Exact","1420 CAMELBACK VIEW DR, POCATELLO, ID, 83201",628103012,"L"
60261,"1420 CARLISLE BLVD NE STE 208","ALBUQUERQUE","NM",87110,35.0952170580001,-106.604218314,261,"1420 CARLISLE BLVD NE STE 208, ALBUQUERQUE, NM, 87110","Match","Exact","1420 CARLISLE BLVD NE, ALBUQUERQUE, NM, 87110",206710223,"R"
60262,"1420 CARLISLE BLVD NE SUITE 208","ALBUQUERQUE","NM",87110,35.0952170580001,-106.604218314,262,"1420 CARLISLE BLVD NE SUITE 208, ALBUQUERQUE, NM, 87110","Match","Exact","1420 CARLISLE BLVD NE, ALBUQUERQUE, NM, 87110",206710223,"R"
60263,"1420 CATALINA AVENUE","THERMAL","CA",92274,33.2997798690001,-115.982007114,263,"1420 CATALINA AVENUE, THERMAL, CA, 92274","Match","Exact","1420 CATALINA AVE, THERMAL, CA, 92274",194507835,"L"
60264,"1420 CELEBRATION BLVD  SUITE 200","CELEBRATION","FL",34747,28.3004606310001,-81.557358263,264,"1420 CELEBRATION BLVD  SUITE 200, CELEBRATION, FL, 34747","Match","Non_Exact","1420 CELEBRATION AVE, CELEBRATION, FL, 34747",176696606,"L"
60265,"1420 CELEBRATION BLVD STE 200","CELEBRATION","FL",34747,28.3004606310001,-81.557358263,265,"1420 CELEBRATION BLVD STE 200, CELEBRATION, FL, 34747","Match","Non_Exact","1420 CELEBRATION AVE, CELEBRATION, FL, 34747",176696606,"L"
60266,"1420 CHISHOLM RIDGE CT","SAINT CLOUD","FL",34771,28.2667119170001,-81.253297258,266,"1420 CHISHOLM RIDGE CT, SAINT CLOUD, FL, 34771","Match","Exact","1420 CHISHOLM RIDGE CT, SAINT CLOUD, FL, 34771",176680413,"R"
60267,"1420 CLARKSON PARMA TL ROAD","BROCKPORT","NY",14420,43.2498643540001,-77.850216156,267,"1420 CLARKSON PARMA TL ROAD, BROCKPORT, NY, 14420","Match","Exact","1420 CLARKSON PARMA TL RD, BROCKPORT, NY, 14420",14558229,"L"
60268,"1420 CLAUDIA DRIVE","VIRGINIA BEACH","VA",23455,36.8894261130001,-76.1457882889999,268,"1420 CLAUDIA DRIVE, VIRGINIA BEACH, VA, 23455","Match","Exact","1420 CLAUDIA DR, VIRGINIA BCH, VA, 23455",122278791,"L"
60269,"1420 CONCORD AVENUE","FULLERTON","CA",92831,33.884271659,-117.890384475,269,"1420 CONCORD AVENUE, FULLERTON, CA, 92831","Match","Exact","1420 CONCORD AVE, FULLERTON, CA, 92831",144009123,"R"
60270,"1420 CRESTMONT AVE","CAMDEN","NJ",8103,39.9279879960001,-75.098916512,270,"1420 CRESTMONT AVE, CAMDEN, NJ, 8103","Match","Exact","1420 CRESTMONT AVE, CAMDEN, NJ, 08103",134347922,"R"
60271,"1420 CYPRESS CREEK ROAD STE 200-193","CEDAR PARK","TX",78613,30.4834103960001,-97.831740713,271,"1420 CYPRESS CREEK ROAD STE 200-193, CEDAR PARK, TX, 78613","Match","Exact","1420 CYPRESS CREEK RD, CEDAR PARK, TX, 78613",126470951,"L"
60272,"1420 DOROTHEA DR","ZUMBROTA","MN",55992,44.284230823,-92.657954697,272,"1420 DOROTHEA DR, ZUMBROTA, MN, 55992","Match","Exact","1420 DOROTHEA DR, ZUMBROTA, MN, 55992",31572596,"R"
60273,"1420 DOWNING ST NE APT 6","WASHINGTON DC","DC",20018,38.922096029,-76.9837283269999,273,"1420 DOWNING ST NE APT 6, WASHINGTON DC, DC, 20018","Match","Exact","1420 DOWNING ST NE, WASHINGTON, DC, 20018",76228970,"L"
60274,"1420 DOWNS","WOODWARD","OK",73801,36.4190395140001,-99.397379827,274,"1420 DOWNS, WOODWARD, OK, 73801","Match","Non_Exact","1420 DOWNS AVE, WOODWARD, OK, 73801",606506226,"L"
60275,"1420 DR MARTIN LUTHER KING JR AVE","MOBILE","AL",36603,NA,NA,275,"1420 DR MARTIN LUTHER KING JR AVE, MOBILE, AL, 36603","No_Match",NA,NA,NA,NA
60276,"1420 E  WALNUT AVENUE","FULLERTON","CA",92831,33.868343135,-117.904897254,276,"1420 E  WALNUT AVENUE, FULLERTON, CA, 92831","Match","Exact","1420 E WALNUT AVE, FULLERTON, CA, 92831",637375576,"R"
60277,"1420 E 17TH ST","LONG BEACH","CA",90813,33.7880323790001,-118.173797523,277,"1420 E 17TH ST, LONG BEACH, CA, 90813","Match","Exact","1420 E 17TH ST, LONG BEACH, CA, 90813",141694661,"R"
60278,"1420 E 51ST ST","BROOKLYN","NY",11234,40.6259719170001,-73.926622534,278,"1420 E 51ST ST, BROOKLYN, NY, 11234","Match","Exact","1420 E 51ST ST, BROOKLYN, NY, 11234",59086534,"R"
60279,"1420 E HIGHWAY 70","DURANT","OK",74701,33.9976383000001,-96.341074657,279,"1420 E HIGHWAY 70, DURANT, OK, 74701","Match","Non_Exact","1420 US HWY 70, DURANT, OK, 74701",62510744,"R"
60280,"1420 E PINE ST SUITE E510","SEATTLE","WA",98122,47.61528407,-122.313864425,280,"1420 E PINE ST SUITE E510, SEATTLE, WA, 98122","Match","Non_Exact","1420 E PINE ST, SEATTLE, WA, 98122",186592572,"L"
60281,"1420 E ROMNEYA DR","ANAHEIM","CA",92805,33.8508913570001,-117.900546071,281,"1420 E ROMNEYA DR, ANAHEIM, CA, 92805","Match","Exact","1420 E ROMNEYA DR, ANAHEIM, CA, 92805",144083222,"R"
60282,"1420 E ROSEVILLE PKWY STE 140-442","ROSEVILLE","CA",95661,38.762094372,-121.249914042,282,"1420 E ROSEVILLE PKWY STE 140-442, ROSEVILLE, CA, 95661","Match","Non_Exact","1420 E ROSEVILLE PKWY, ROSEVILLE, CA, 95661",106816155,"R"
60283,"1420 E ROSEVILLE PKWY STE 140167","ROSEVILLE","CA",95661,38.762094372,-121.249914042,283,"1420 E ROSEVILLE PKWY STE 140167, ROSEVILLE, CA, 95661","Match","Non_Exact","1420 E ROSEVILLE PKWY, ROSEVILLE, CA, 95661",106816155,"R"
60284,"1420 E ROSEVILLE PKWY SUITE 140","ROSEVILLE","CA",95661,38.762094372,-121.249914042,284,"1420 E ROSEVILLE PKWY SUITE 140, ROSEVILLE, CA, 95661","Match","Non_Exact","1420 E ROSEVILLE PKWY, ROSEVILLE, CA, 95661",106816155,"R"
60285,"1420 EAST 1000 NORTH ROAD","MILFORD","IL",60953,40.6305377910001,-87.863915398,285,"1420 EAST 1000 NORTH ROAD, MILFORD, IL, 60953","Match","Exact","1420 E 1000 NORTH RD, MILFORD, IL, 60953",90756713,"L"
60286,"1420 EASTON AVENUE SUITE 300","BETHLEHEM","PA",18018,40.6321183100001,-75.368293437,286,"1420 EASTON AVENUE SUITE 300, BETHLEHEM, PA, 18018","Match","Exact","1420 EASTON AVE, BETHLEHEM, PA, 18018",136876568,"R"
60287,"1420 EDITH BOULEVARD NE","ALBUQUERQUE","NM",87102,35.0975934730001,-106.63881874,287,"1420 EDITH BOULEVARD NE, ALBUQUERQUE, NM, 87102","Match","Exact","1420 EDITH BLVD NE, ALBUQUERQUE, NM, 87102",206708463,"R"
60288,"1420 EIDSON RD","EAGLE PASS","TX",78852,28.6902126630001,-100.487985474,288,"1420 EIDSON RD, EAGLE PASS, TX, 78852","Match","Exact","1420 EIDSON RD, EAGLE PASS, TX, 78852",183367398,"L"
60289,"1420 ELLIS ROAD","GRIFFIN","GA",30233,33.2609970550001,-84.28698253,289,"1420 ELLIS ROAD, GRIFFIN, GA, 30233","Match","Non_Exact","1420 ELLIS RD, GRIFFIN, GA, 30223",23758396,"L"
60290,"1420 FAYE DRIVE","GARNER","NC",27529,35.710646147,-78.625588552,290,"1420 FAYE DRIVE, GARNER, NC, 27529","Match","Exact","1420 FAYE DR, GARNER, NC, 27529",72511408,"R"
60291,"1420 FIFTH AVE STE 4200","SEATTLE","WA",98101,47.6099333500001,-122.334887182,291,"1420 FIFTH AVE STE 4200, SEATTLE, WA, 98101","Match","Exact","1420 5TH AVE, SEATTLE, WA, 98101",239762483,"R"
60292,"1420 FIFTH AVENUE  SUITE 3000","SEATTLE","WA",98101,47.6099333500001,-122.334887182,292,"1420 FIFTH AVENUE  SUITE 3000, SEATTLE, WA, 98101","Match","Exact","1420 5TH AVE, SEATTLE, WA, 98101",239762483,"R"
60293,"1420 FIFTH AVENUE SUITE 4200","SEATTLE","WA",98111,47.6099333500001,-122.334887182,293,"1420 FIFTH AVENUE SUITE 4200, SEATTLE, WA, 98111","Match","Non_Exact","1420 5TH AVE, SEATTLE, WA, 98101",239762483,"R"
60294,"1420 FM 71 E","SULPHUR SPRINGS","TX",75482,33.2724677320001,-95.5618732899999,294,"1420 FM 71 E, SULPHUR SPRINGS, TX, 75482","Match","Non_Exact","1420 FARM RD 71 E, SULPHUR SPRINGS, TX, 75482",42782893,"R"
60295,"1420 FOXHALL LN SE APT 12","ATLANTA","GA",30326,33.712208036,-84.3327383979999,295,"1420 FOXHALL LN SE APT 12, ATLANTA, GA, 30326","Match","Non_Exact","1420 FOXHALL LN SE, ATLANTA, GA, 30316",23366102,"L"
60296,"1420 GLENEAGLE LN","FRISCO","TX",75034,33.149474464,-96.879580375,296,"1420 GLENEAGLE LN, FRISCO, TX, 75034","Match","Non_Exact","1420 GLENEAGLE LN, FRISCO, TX, 75036",103418958,"R"
60297,"1420 GRAND OAK LANE","WEST CHESTER","PA",19380,39.992587874,-75.565967724,297,"1420 GRAND OAK LANE, WEST CHESTER, PA, 19380","Match","Exact","1420 GRAND OAK LN, WEST CHESTER, PA, 19380",179496325,"R"
60298,"1420 HALSEY WAY  STE 140","CARROLLTON","TX",75007,32.987772208,-96.921217358,298,"1420 HALSEY WAY  STE 140, CARROLLTON, TX, 75007","Match","Exact","1420 HALSEY WAY, CARROLLTON, TX, 75007",102884040,"L"
60299,"1420 HARMONY STREET","NEW ORLEANS","LA",70115,29.926866117,-90.088081621,299,"1420 HARMONY STREET, NEW ORLEANS, LA, 70115","Match","Exact","1420 HARMONY ST, NEW ORLEANS, LA, 70115",191712763,"L"
60300,"1420 HARRISON STREET","QUINCY","IL",62301,39.9136351980001,-91.3931203559999,300,"1420 HARRISON STREET, QUINCY, IL, 62301","Match","Exact","1420 HARRISON ST, QUINCY, IL, 62301",35094213,"L"
60301,"1420 HEROIC ROAD","HAILEY","ID",83333,43.5351230360001,-114.318146365,301,"1420 HEROIC ROAD, HAILEY, ID, 83333","Match","Exact","1420 HEROIC RD, HAILEY, ID, 83333",105238457,"L"
60302,"1420 HOWARDSVILLE TURNPIKE","STUARTS DRAFT","VA",24477,37.9888403080001,-78.978824435,302,"1420 HOWARDSVILLE TURNPIKE, STUARTS DRAFT, VA, 24477","Match","Exact","1420 HOWARDSVILLE TPKE, STUARTS DRAFT, VA, 24477",98838054,"R"
60303,"1420 HUT RD","BOX SPRINGS","GA",31801,32.5768296420001,-84.639300732,303,"1420 HUT RD, BOX SPRINGS, GA, 31801","Match","Exact","1420 HUT RD, BOX SPRINGS, GA, 31801",647785633,"R"
60304,"1420 INGALLS AVENUE","PASCAGOULA","MS",39567,30.3548207440001,-88.549235792,304,"1420 INGALLS AVENUE, PASCAGOULA, MS, 39567","Match","Exact","1420 INGALLS AVE, PASCAGOULA, MS, 39567",89272131,"R"
60305,"1420 K STREET NW SUITE 350","WASHINGTON","DC",20005,38.902518974,-77.03237567,305,"1420 K STREET NW SUITE 350, WASHINGTON, DC, 20005","Match","Exact","1420 K ST NW, WASHINGTON, DC, 20005",76225768,"L"
60306,"1420 KETTLESON DR","MINOOKA","IL",60447,41.4791887820001,-88.2752160059999,306,"1420 KETTLESON DR, MINOOKA, IL, 60447","Match","Exact","1420 KETTLESON DR, MINOOKA, IL, 60447",613642397,"R"
60307,"1420 LA SALLE DRIVE","TURLOCK","CA",95382,37.5134877620001,-120.83260519,307,"1420 LA SALLE DRIVE, TURLOCK, CA, 95382","Match","Exact","1420 LA SALLE DR, TURLOCK, CA, 95382",102595092,"L"
60308,"1420 LAKEWOOD DRIVE","BOLIVAR","MO",65613,37.602230132,-93.426423111,308,"1420 LAKEWOOD DRIVE, BOLIVAR, MO, 65613","Match","Exact","1420 LAKEWOOD DR, BOLIVAR, MO, 65613",647889620,"L"
60309,"1420 LENORE","BENTON","AR",72019,34.5703961660001,-92.602620813,309,"1420 LENORE, BENTON, AR, 72019","Match","Non_Exact","1420 LENORE ST, BENTON, AR, 72019",24193066,"L"
60310,"1420 LINCOLN AVENUE","MARRERO","LA",70072,29.8886591020001,-90.114811614,310,"1420 LINCOLN AVENUE, MARRERO, LA, 70072","Match","Exact","1420 LINCOLN AVE, MARRERO, LA, 70072",93505820,"R"
60311,"1420 LOCKHART DRIVE STE 200","KENNESAW","GA",30144,34.024075956,-84.5926249139999,311,"1420 LOCKHART DRIVE STE 200, KENNESAW, GA, 30144","Match","Non_Exact","1420 LOCKHART DR NW, KENNESAW, GA, 30144",638361113,"R"
60312,"1420 LOCUST ST SUITE 200","PHILADELPHIA","PA",19102,39.948251757,-75.1649003749999,312,"1420 LOCUST ST SUITE 200, PHILADELPHIA, PA, 19102","Match","Exact","1420 LOCUST ST, PHILADELPHIA, PA, 19102",628807004,"L"
60313,"1420 MACDONALD ST","TITUSVILLE","FL",32780,28.5624229420001,-80.817575694,313,"1420 MACDONALD ST, TITUSVILLE, FL, 32780","Match","Non_Exact","1420 MAC DONALD ST, TITUSVILLE, FL, 32780",93892059,"R"
60314,"1420 MCDONALD ST NE","SALEM","OR",97301,44.9652450130001,-123.015156159,314,"1420 MCDONALD ST NE, SALEM, OR, 97301","Match","Exact","1420 MCDONALD ST NE, SALEM, OR, 97301",613689303,"R"
60315,"1420 MEADOW DRIVE","UNION CITY","TN",38261,36.4142509650001,-89.118532617,315,"1420 MEADOW DRIVE, UNION CITY, TN, 38261","Match","Exact","1420 MEADOW DR, UNION CITY, TN, 38261",30894624,"R"
60316,"1420 MEDFORD DR","CHARLOTTE","NC",28205,35.2129840150001,-80.780221398,316,"1420 MEDFORD DR, CHARLOTTE, NC, 28205","Match","Exact","1420 MEDFORD DR, CHARLOTTE, NC, 28205",70491476,"R"
60317,"1420 MERKLEY AVENUE SUITE 1","WEST SACRAMENTO","CA",95691,38.579232345,-121.526674474,317,"1420 MERKLEY AVENUE SUITE 1, WEST SACRAMENTO, CA, 95691","Match","Exact","1420 MERKLEY AVE, WEST SACRAMENTO, CA, 95691",67692949,"R"
60318,"1420 MERKLEY AVENUE SUITE 3","WEST SACRAMENTO","CA",95691,38.579232345,-121.526674474,318,"1420 MERKLEY AVENUE SUITE 3, WEST SACRAMENTO, CA, 95691","Match","Exact","1420 MERKLEY AVE, WEST SACRAMENTO, CA, 95691",67692949,"R"
60319,"1420 MILLDALE RD","FRONT ROYAL","VA",22630,38.9926165160001,-78.108441226,319,"1420 MILLDALE RD, FRONT ROYAL, VA, 22630","Match","Exact","1420 MILLDALE RD, FRONT ROYAL, VA, 22630",159081028,"R"
60320,"1420 MYRTLE STREET","OAKLAND","CA",94607,37.809709019,-122.281556614,320,"1420 MYRTLE STREET, OAKLAND, CA, 94607","Match","Exact","1420 MYRTLE ST, OAKLAND, CA, 94607",606838009,"R"
60321,"1420 N HUDSON AVE","CHICAGO","IL",60610,41.9081715130001,-87.639719664,321,"1420 N HUDSON AVE, CHICAGO, IL, 60610","Match","Exact","1420 N HUDSON AVE, CHICAGO, IL, 60610",112386944,"L"
60322,"1420 N ST NW SUITE 712","WASHINGTON","DC",20005,38.9072383220001,-77.032798386,322,"1420 N ST NW SUITE 712, WASHINGTON, DC, 20005","Match","Exact","1420 N ST NW, WASHINGTON, DC, 20005",650099253,"L"
60323,"1420 N STREET NW STE 102","WASHINGTON","DC",20005,38.9072383220001,-77.032798386,323,"1420 N STREET NW STE 102, WASHINGTON, DC, 20005","Match","Exact","1420 N ST NW, WASHINGTON, DC, 20005",650099253,"L"
60324,"1420 N STREET NW SUITE 100","WASHINGTON","DC",20005,38.9072383220001,-77.032798386,324,"1420 N STREET NW SUITE 100, WASHINGTON, DC, 20005","Match","Exact","1420 N ST NW, WASHINGTON, DC, 20005",650099253,"L"
60325,"1420 NE 17TH TERRACE UNIT B","FORT LAUDERDALE","FL",33304,26.1448769690001,-80.1251238469999,325,"1420 NE 17TH TERRACE UNIT B, FORT LAUDERDALE, FL, 33304","Match","Non_Exact","1420 NE 17TH TER, FORT LAUDERDALE, FL, 33304",114821636,"R"
60326,"1420 NE MIAMI PL 523","MIAMI","FL",33132,25.7888376230001,-80.193071942,326,"1420 NE MIAMI PL 523, MIAMI, FL, 33132","Match","Non_Exact","1420 NE MIAMI PL, MIAMI, FL, 33132",116285526,"L"
60327,"1420 NORTH BALTIMORE STREET","TACOMA","WA",98406,47.26377868,-122.507933507,327,"1420 NORTH BALTIMORE STREET, TACOMA, WA, 98406","Match","Non_Exact","1420 BALTIMORE ST, TACOMA, WA, 98406",184644277,"L"
60328,"1420 NORTH COUNTY ROAD 27E","BERTHOUD","CO",80513,40.313054369,-105.197657551,328,"1420 NORTH COUNTY ROAD 27E, BERTHOUD, CO, 80513","Match","Exact","1420 N CO RD 27E, BERTHOUD, CO, 80513",188539390,"L"
60329,"1420 NOTTINGHAM DRIVE","OWATONNA","MN",55060,44.071583167,-93.197377699,329,"1420 NOTTINGHAM DRIVE, OWATONNA, MN, 55060","Match","Non_Exact","1420 NOTTINGHAM DR SE, OWATONNA, MN, 55060",38182007,"L"
60330,"1420 NW 187TH ST","EDMOND","OK",73012,35.6618388740001,-97.536120883,330,"1420 NW 187TH ST, EDMOND, OK, 73012","Match","Exact","1420 NW 187TH ST, EDMOND, OK, 73012",626686974,"L"
60331,"1420 NW 18TH AVE","DELRAY BEACH","FL",33445,NA,NA,331,"1420 NW 18TH AVE, DELRAY BEACH, FL, 33445","Tie",NA,NA,NA,NA
60332,"1420 NW 194TH ST","MIAMI GARDENS","FL",33169,25.9518564860001,-80.226136716,332,"1420 NW 194TH ST, MIAMI GARDENS, FL, 33169","Match","Exact","1420 NW 194TH ST, MIAMI GARDENS, FL, 33169",116029211,"L"
60333,"1420 NW 6TH AVE","FORT LAUDERDALE","FL",33311,26.144211759,-80.1502340659999,333,"1420 NW 6TH AVE, FORT LAUDERDALE, FL, 33311","Match","Exact","1420 NW 6TH AVE, FORT LAUDERDALE, FL, 33311",114721756,"R"
60334,"1420 NW VIVION RD","KANSAS CITY","MO",64118,39.1826447060001,-94.5988087059999,334,"1420 NW VIVION RD, KANSAS CITY, MO, 64118","Match","Exact","1420 NW VIVION RD, KANSAS CITY, MO, 64118",89773783,"R"
60335,"1420 OAK HILL","YOUNGSTOWN","OH",44507,NA,NA,335,"1420 OAK HILL, YOUNGSTOWN, OH, 44507","No_Match",NA,NA,NA,NA
60336,"1420 OCEAN WAY 16C","JUPITER","FL",33477,26.919136286,-80.070546086,336,"1420 OCEAN WAY 16C, JUPITER, FL, 33477","Match","Exact","1420 OCEAN WAY, JUPITER, FL, 33477",115274376,"R"
60337,"1420 OGLETHORPE AVE SW","ATLANTA","GA",30310,33.736839113,-84.434084583,337,"1420 OGLETHORPE AVE SW, ATLANTA, GA, 30310","Match","Exact","1420 OGLETHORPE AVE SW, ATLANTA, GA, 30310",17341294,"L"
60338,"1420 ORMSBY DRIVE","SUNNYVALE","CA",94087,37.3474756320001,-122.040532798,338,"1420 ORMSBY DRIVE, SUNNYVALE, CA, 94087","Match","Exact","1420 ORMSBY DR, SUNNYVALE, CA, 94087",122937946,"L"
60339,"1420 PACELLI ST","SAGINAW","MI",48638,43.402030858,-84.000956618,339,"1420 PACELLI ST, SAGINAW, MI, 48638","Match","Exact","1420 PACELLI ST, SAGINAW, MI, 48638",642497488,"R"
60340,"1420 PATRIOT CIRCLE","GLEN ALLEN","VA",23059,37.6720143630001,-77.464758828,340,"1420 PATRIOT CIRCLE, GLEN ALLEN, VA, 23059","Match","Exact","1420 PATRIOT CIR, GLEN ALLEN, VA, 23059",106685164,"R"
60341,"1420 PEARL ST","BOULDER","CO",80302,40.018508582,-105.277033768,341,"1420 PEARL ST, BOULDER, CO, 80302","Match","Exact","1420 PEARL ST, BOULDER, CO, 80302",188159744,"R"
60342,"1420 PEERLESS PLACE  125","LOS ANGELES","CA",90035,34.053244905,-118.402963437,342,"1420 PEERLESS PLACE  125, LOS ANGELES, CA, 90035","Match","Exact","1420 PEERLESS PL, LOS ANGELES, CA, 90035",141571723,"L"
60343,"1420 PENNSYLVANIA AVE","MCDONOUGH","GA",30253,NA,NA,343,"1420 PENNSYLVANIA AVE, MCDONOUGH, GA, 30253","No_Match",NA,NA,NA,NA
60344,"1420 PLEASANT ST UNIT 1","CINCINNATI","OH",45202,39.110526157,-84.5178411799999,344,"1420 PLEASANT ST UNIT 1, CINCINNATI, OH, 45202","Match","Exact","1420 PLEASANT ST, CINCINNATI, OH, 45202",103935831,"R"
60345,"1420 RENAISSANCE DRIVE     STE 306","PARK RIDGE","IL",60068,42.033559908,-87.865631455,345,"1420 RENAISSANCE DRIVE     STE 306, PARK RIDGE, IL, 60068","Match","Exact","1420 RENAISSANCE DR, PARK RIDGE, IL, 60068",112386449,"L"
60346,"1420 RICHMOND RD M5","LYNDHURST","OH",44124,41.521609147,-81.4971414349999,346,"1420 RICHMOND RD M5, LYNDHURST, OH, 44124","Match","Exact","1420 RICHMOND RD, LYNDHURST, OH, 44124",61134051,"R"
60347,"1420 RIVER OAKS DRIVE","NORFOLK","VA",23502,36.8705960400001,-76.220795062,347,"1420 RIVER OAKS DRIVE, NORFOLK, VA, 23502","Match","Exact","1420 RIVER OAKS DR, NORFOLK, VA, 23502",122126723,"R"
60348,"1420 ROSEWOOD ST","FERNDALE","MI",48220,42.462374717,-83.119019642,348,"1420 ROSEWOOD ST, FERNDALE, MI, 48220","Match","Exact","1420 ROSEWOOD ST, FERNDALE, MI, 48220",69747623,"R"
60349,"1420 ROSS AVE","KISSIMMEE","FL",34744,28.3047256460001,-81.39855563,349,"1420 ROSS AVE, KISSIMMEE, FL, 34744","Match","Exact","1420 ROSS AVE, KISSIMMEE, FL, 34744",637906583,"L"
60350,"1420 S  GLENDORA AVE","WEST COVINA","CA",91790,34.0528095340001,-117.9414086,350,"1420 S  GLENDORA AVE, WEST COVINA, CA, 91790","Match","Exact","1420 S GLENDORA AVE, WEST COVINA, CA, 91790",627039100,"L"
60351,"1420 S FIGUEROA STREET APT 502","LOS ANGELES","CA",90015,34.0390941470001,-118.269012906,351,"1420 S FIGUEROA STREET APT 502, LOS ANGELES, CA, 90015","Match","Non_Exact","1420 S FIGUEROA ST, LOS ANGELES, CA, 90015",142457487,"L"
60352,"1420 S LAKESHORE DRIVE","SARASOTA","FL",34231,27.2886218470001,-82.5380943439999,352,"1420 S LAKESHORE DRIVE, SARASOTA, FL, 34231","Match","Non_Exact","1420 S LAKE SHORE DR, SARASOTA, FL, 34231",16348923,"R"
60353,"1420 S MASON RD STE 190","KATY","TX",77450,29.758961852,-95.7515990649999,353,"1420 S MASON RD STE 190, KATY, TX, 77450","Match","Non_Exact","1420 S MASON RD, KATY, TX, 77450",96623306,"L"
60354,"1420 S MICHIGAN AVE","CHICAGO","IL",60605,41.863446068,-87.624070602,354,"1420 S MICHIGAN AVE, CHICAGO, IL, 60605","Match","Exact","1420 S MICHIGAN AVE, CHICAGO, IL, 60605",111769892,"R"
60355,"1420 S OHIO AVE","SEDALIA","MO",65301,38.6990818900001,-93.228624361,355,"1420 S OHIO AVE, SEDALIA, MO, 65301","Match","Exact","1420 S OHIO AVE, SEDALIA, MO, 65301",54716231,"L"
60356,"1420 SARATOGA AVE NE APT 1","WASHINGTON","DC",20018,38.922665319,-76.985569519,356,"1420 SARATOGA AVE NE APT 1, WASHINGTON, DC, 20018","Match","Exact","1420 SARATOGA AVE NE, WASHINGTON, DC, 20018",76228964,"L"
60357,"1420 SE 41ST AVENUE","GAINESVILLE","FL",32641,29.6154657430001,-82.307054974,357,"1420 SE 41ST AVENUE, GAINESVILLE, FL, 32641","Match","Exact","1420 SE 41ST AVE, GAINESVILLE, FL, 32641",6878460,"L"
60358,"1420 SHAMROCK HILL CIR","LOGANVILLE","GA",30052,33.8430482790001,-83.955141609,358,"1420 SHAMROCK HILL CIR, LOGANVILLE, GA, 30052","Match","Exact","1420 SHAMROCK HILL CIR, LOGANVILLE, GA, 30052",88940327,"L"
60359,"1420 SHELTON RANCH RD","DRIPPING SPRINGS","TX",78620,30.231505725,-98.092079674,359,"1420 SHELTON RANCH RD, DRIPPING SPRINGS, TX, 78620","Match","Exact","1420 SHELTON RANCH RD, DRIPPING SPRINGS, TX, 78620",651660837,"R"
60360,"1420 SHERIDAN STREET SUITE 5","HOLLYWOOD","FL",33020,26.033678357,-80.135800877,360,"1420 SHERIDAN STREET SUITE 5, HOLLYWOOD, FL, 33020","Match","Exact","1420 SHERIDAN ST, HOLLYWOOD, FL, 33020",647898609,"L"
60361,"1420 SOUTH 177TH STREET","OMAHA","NE",68130,41.2404609810001,-96.191384555,361,"1420 SOUTH 177TH STREET, OMAHA, NE, 68130","Match","Exact","1420 S 177TH ST, OMAHA, NE, 68130",117006765,"R"
60362,"1420 SOUTH BUNDY DRIVE APT 403","LOS ANGELES","CA",90025,34.041651272,-118.464583225,362,"1420 SOUTH BUNDY DRIVE APT 403, LOS ANGELES, CA, 90025","Match","Exact","1420 S BUNDY DR, LOS ANGELES, CA, 90025",141568139,"L"
60363,"1420 SOUTH GARZA STREET","ANAHEIM","CA",92804,33.8118844520001,-117.970283393,363,"1420 SOUTH GARZA STREET, ANAHEIM, CA, 92804","Match","Exact","1420 S GARZA ST, ANAHEIM, CA, 92804",144012402,"L"
60364,"1420 SOUTH LINCOLN ST","SALT LAKE CITY","UT",84105,40.738621788,-111.863891368,364,"1420 SOUTH LINCOLN ST, SALT LAKE CITY, UT, 84105","Match","Exact","1420 S LINCOLN ST, SALT LAKE CITY, UT, 84105",176080506,"R"
60365,"1420 SPAULDING RD","RIVERSIDE","OH",45432,39.737761725,-84.110466597,365,"1420 SPAULDING RD, RIVERSIDE, OH, 45432","Match","Non_Exact","1420 SPAULDING RD, BEAVERCREEK, OH, 45432",143576572,"L"
60366,"1420 STATE HWY 25 NORTH","BARRON","WI",54812,NA,NA,366,"1420 STATE HWY 25 NORTH, BARRON, WI, 54812","No_Match",NA,NA,NA,NA
60367,"1420 SUNSET DRIVE","POTTSTOWN","PA",19464,40.2404778320001,-75.618823173,367,"1420 SUNSET DRIVE, POTTSTOWN, PA, 19464","Match","Exact","1420 SUNSET DR, POTTSTOWN, PA, 19464",135063491,"R"
60368,"1420 SW WESTOVER ROAD","TOPEKA","KS",66604,39.041630925,-95.720049563,368,"1420 SW WESTOVER ROAD, TOPEKA, KS, 66604","Match","Exact","1420 SW WESTOVER RD, TOPEKA, KS, 66604",17915688,"L"
60369,"1420 TAUBER LN","SEALY","TX",77474,29.767391462,-96.1584944159999,369,"1420 TAUBER LN, SEALY, TX, 77474","Match","Exact","1420 TAUBER LN, SEALY, TX, 77474",41813610,"R"
60370,"1420 TERRACE DRIVE APT 111","ROSEVILLE","MN",55113,45.0251795040001,-93.160782898,370,"1420 TERRACE DRIVE APT 111, ROSEVILLE, MN, 55113","Match","Exact","1420 TERRACE DR, ROSEVILLE, MN, 55113",617573469,"L"
60371,"1420 TERRY AVENUE","SEATTLE","WA",98101,47.612237656,-122.329318763,371,"1420 TERRY AVENUE, SEATTLE, WA, 98101","Match","Exact","1420 TERRY AVE, SEATTLE, WA, 98101",186645978,"R"
60372,"1420 TUNNEL RIDGE ROAD","STEARNS","KY",42647,36.6905062800001,-84.5067399329999,372,"1420 TUNNEL RIDGE ROAD, STEARNS, KY, 42647","Match","Exact","1420 TUNNEL RIDGE RD, STEARNS, KY, 42647",98780349,"L"
60373,"1420 TWIN LAKES DRIVE","ROGERS","AR",72756,36.3462817670001,-94.093464604,373,"1420 TWIN LAKES DRIVE, ROGERS, AR, 72756","Match","Exact","1420 TWIN LAKES DR, ROGERS, AR, 72756",47877185,"R"
60374,"1420 VISTA SIERRA DR","EL CAJON","CA",92019,32.772779702,-116.896944958,374,"1420 VISTA SIERRA DR, EL CAJON, CA, 92019","Match","Exact","1420 VISTA SIERRA DR, EL CAJON, CA, 92019",195656447,"R"
60375,"1420 VISTA SIERRA DRIVE","EL CAJON","CA",92019,32.772779702,-116.896944958,375,"1420 VISTA SIERRA DRIVE, EL CAJON, CA, 92019","Match","Exact","1420 VISTA SIERRA DR, EL CAJON, CA, 92019",195656447,"R"
60376,"1420 VULCAN CIRCLE","EDMOND","OK",73003,35.642756096,-97.502875272,376,"1420 VULCAN CIRCLE, EDMOND, OK, 73003","Match","Exact","1420 VULCAN CIR, EDMOND, OK, 73003",100386267,"L"
60377,"1420 W CENTER ST","FAYETTEVILLE","AR",72701,36.0631939790001,-94.180508328,377,"1420 W CENTER ST, FAYETTEVILLE, AR, 72701","Match","Exact","1420 W CENTER ST, FAYETTEVILLE, AR, 72701",637574022,"R"
60378,"1420 W DONALD ST","WATERLOO","IA",50703,42.527462251,-92.36745426,378,"1420 W DONALD ST, WATERLOO, IA, 50703","Match","Exact","1420 W DONALD ST, WATERLOO, IA, 50703",77250058,"R"
60379,"1420 W HERITAGE WAY","SANTA MARIA","CA",93458,34.9323165120001,-120.459636161,379,"1420 W HERITAGE WAY, SANTA MARIA, CA, 93458","Match","Exact","1420 W HERITAGE WAY, SANTA MARIA, CA, 93458",648270697,"R"
60380,"1420 W MCDERMOTT DRIVE APT 834","ALLEN","TX",75013,33.1008838000001,-96.702751905,380,"1420 W MCDERMOTT DRIVE APT 834, ALLEN, TX, 75013","Match","Non_Exact","1420 W MCDERMOTT DR, ALLEN, TX, 75013",642474530,"L"
60381,"1420 W ROOSEVELT","BROADVIEW","IL",60155,NA,NA,381,"1420 W ROOSEVELT, BROADVIEW, IL, 60155","Tie",NA,NA,NA,NA
60382,"1420 WALNUT STREET SUITE 1500","PHILADELPHIA","PA",19102,39.949394494,-75.164739104,382,"1420 WALNUT STREET SUITE 1500, PHILADELPHIA, PA, 19102","Match","Exact","1420 WALNUT ST, PHILADELPHIA, PA, 19102",131407674,"L"
60383,"1420 WASHINGTON AVENUE 12D","BRONX","NY",10456,40.8357771570001,-73.9043762439999,383,"1420 WASHINGTON AVENUE 12D, BRONX, NY, 10456","Match","Exact","1420 WASHINGTON AVE, BRONX, NY, 10456",80301286,"R"
60384,"1420 WASHINGTON BLVD  SUITE 301","DETROIT","MI",48226,42.33391777,-83.0507733489999,384,"1420 WASHINGTON BLVD  SUITE 301, DETROIT, MI, 48226","Match","Exact","1420 WASHINGTON BLVD, DETROIT, MI, 48226",645087222,"R"
60385,"1420 WASHINGTON BLVD - SUITE 301","DETROIT","MI",48226,42.33391777,-83.0507733489999,385,"1420 WASHINGTON BLVD - SUITE 301, DETROIT, MI, 48226","Match","Exact","1420 WASHINGTON BLVD, DETROIT, MI, 48226",645087222,"R"
60386,"1420 WASHINGTON BLVD STE 301","DETROIT","MI",48226,42.33391777,-83.0507733489999,386,"1420 WASHINGTON BLVD STE 301, DETROIT, MI, 48226","Match","Exact","1420 WASHINGTON BLVD, DETROIT, MI, 48226",645087222,"R"
60387,"1420 WASHINGTON BLVD SUITE 301","DETROIT","MI",48226,42.33391777,-83.0507733489999,387,"1420 WASHINGTON BLVD SUITE 301, DETROIT, MI, 48226","Match","Exact","1420 WASHINGTON BLVD, DETROIT, MI, 48226",645087222,"R"
60388,"1420 WASHINGTON BLVD","DETROIT","MI",48226,42.33391777,-83.0507733489999,388,"1420 WASHINGTON BLVD, DETROIT, MI, 48226","Match","Exact","1420 WASHINGTON BLVD, DETROIT, MI, 48226",645087222,"R"
60389,"1420 WASHINGTON BLVD","DETROIT","MI",48336,42.33391777,-83.0507733489999,389,"1420 WASHINGTON BLVD, DETROIT, MI, 48336","Match","Non_Exact","1420 WASHINGTON BLVD, DETROIT, MI, 48226",645087222,"R"
60390,"1420 WASHINGTON STE 301","DETROIT","MI",48226,42.33391777,-83.0507733489999,390,"1420 WASHINGTON STE 301, DETROIT, MI, 48226","Match","Non_Exact","1420 WASHINGTON BLVD, DETROIT, MI, 48226",645087222,"R"
60391,"1420 WASHINGTON STREET 78","LITTLE CHUTE","WI",54140,44.2879482980001,-88.328189295,391,"1420 WASHINGTON STREET 78, LITTLE CHUTE, WI, 54140","Match","Exact","1420 WASHINGTON ST, LITTLE CHUTE, WI, 54140",639272159,"R"
60392,"1420 WEST 104TH STREET","LOS ANGELES","CA",90047,33.942313734,-118.300986074,392,"1420 WEST 104TH STREET, LOS ANGELES, CA, 90047","Match","Exact","1420 W 104TH ST, LOS ANGELES, CA, 90047",642190712,"L"
60393,"1420 WEST OSBORN ROAD","PHOENIX","AZ",85013,33.487768589,-112.09037717,393,"1420 WEST OSBORN ROAD, PHOENIX, AZ, 85013","Match","Exact","1420 W OSBORN RD, PHOENIX, AZ, 85013",637417703,"R"
60394,"1420 WHITTIER ST NW","WASHINGTON","DC",20012,38.970719339,-77.033900377,394,"1420 WHITTIER ST NW, WASHINGTON, DC, 20012","Match","Exact","1420 WHITTIER ST NW, WASHINGTON, DC, 20012",76221596,"L"
60395,"14200 EAST ALAMEDA BLVD 1059","AURORA","CO",80012,NA,NA,395,"14200 EAST ALAMEDA BLVD 1059, AURORA, CO, 80012","Tie",NA,NA,NA,NA
60396,"14200 FLORAL PARK DRIVE","NORTH POTOMAC","MD",20878,39.0885260220001,-77.217407903,396,"14200 FLORAL PARK DRIVE, NORTH POTOMAC, MD, 20878","Match","Exact","14200 FLORAL PARK DR, N POTOMAC, MD, 20878",62093163,"L"
60397,"14200 NE 51ST COURT","VANCOUVER","WA",98686,45.7243814610001,-122.619755832,397,"14200 NE 51ST COURT, VANCOUVER, WA, 98686","Match","Exact","14200 NE 51ST CT, VANCOUVER, WA, 98686",648928159,"L"
60398,"14200 NE GRANTHAM RD","AMBOY","WA",98601,45.904672686,-122.529646908,398,"14200 NE GRANTHAM RD, AMBOY, WA, 98601","Match","Exact","14200 NE GRANTHAM RD, AMBOY, WA, 98601",158358522,"L"
60399,"14200 OAK PARK BOULVEVARD","OAK PARK","MI",48237,NA,NA,399,"14200 OAK PARK BOULVEVARD, OAK PARK, MI, 48237","No_Match",NA,NA,NA,NA
60400,"14200 OLD TURNER ROAD","MOUNTAINBURG","AR",72946,35.59700352,-94.125546234,400,"14200 OLD TURNER ROAD, MOUNTAINBURG, AR, 72946","Match","Exact","14200 OLD TURNER RD, MOUNTAINBURG, AR, 72946",633725432,"R"
60401,"14200 SENECA RD","DARNESTOWN","MD",20874,39.0997362260001,-77.294599562,401,"14200 SENECA RD, DARNESTOWN, MD, 20874","Match","Exact","14200 SENECA RD, DARNESTOWN, MD, 20874",651574409,"L"
60402,"14200 ST GERMAIN DRIVE","CENTREVILLE","VA",20121,38.831972256,-77.4508621969999,402,"14200 ST GERMAIN DRIVE, CENTREVILLE, VA, 20121","Match","Exact","14200 SAINT GERMAIN DR, CENTREVILLE, VA, 20121",76041766,"R"
60403,"14200 SW 14 ST","DAVIE","FL",33325,26.102156501,-80.338228392,403,"14200 SW 14 ST, DAVIE, FL, 33325","Match","Exact","14200 SW 14TH ST, DAVIE, FL, 33325",114762241,"L"
60404,"14200 THE LAKES BLVD APT 736","PFLUGERVILLE","TX",78660,NA,NA,404,"14200 THE LAKES BLVD APT 736, PFLUGERVILLE, TX, 78660","No_Match",NA,NA,NA,NA
60405,"14200 TRILLIUM TERRACE","SILVER SPRING","MD",20906,39.0906136410001,-77.0605380119999,405,"14200 TRILLIUM TERRACE, SILVER SPRING, MD, 20906","Match","Exact","14200 TRILLIUM TER, SILVER SPRING, MD, 20906",62100005,"R"
60406,"14200 VANCE JACKSON RD 15202","SAN ANTONIO","TX",78249,29.576826398,-98.586183728,406,"14200 VANCE JACKSON RD 15202, SAN ANTONIO, TX, 78249","Match","Exact","14200 VANCE JACKSON RD, SAN ANTONIO, TX, 78249",650069911,"R"
60407,"14200 WEST 8 MILE","OAK PARK","MI",48237,42.4453897130001,-83.186572348,407,"14200 WEST 8 MILE, OAK PARK, MI, 48237","Match","Non_Exact","14200 W 8 MILE RD, OAK PARK, MI, 48237",641241358,"L"
60408,"14200 WEST SIDE BOULEVARD APT 104","LAUREL","MD",20707,39.085150077,-76.890096125,408,"14200 WEST SIDE BOULEVARD APT 104, LAUREL, MD, 20707","Match","Exact","14200 W SIDE BLVD, LAUREL, MD, 20707",648243156,"R"
60409,"14201 BRIAR FOREST","HOUSTON","TX",77077,29.755884372,-95.637605628,409,"14201 BRIAR FOREST, HOUSTON, TX, 77077","Match","Non_Exact","14201 BRIAR FOREST DR, HOUSTON, TX, 77077",650102767,"R"
60410,"14201 MAUGANSVILLE RD","MAUGANSVILLE","MD",21767,39.702732116,-77.744447881,410,"14201 MAUGANSVILLE RD, MAUGANSVILLE, MD, 21767","Match","Exact","14201 MAUGANSVILLE RD, MAUGANSVILLE, MD, 21767",651574126,"R"
60411,"14201 N HAYDEN RD C2","SCOTTSDALE","AZ",85260,33.614050451,-111.908423047,411,"14201 N HAYDEN RD C2, SCOTTSDALE, AZ, 85260","Match","Non_Exact","14201 N HAYDEN RD, SCOTTSDALE, AZ, 85260",128580901,"R"
60412,"14201 N HAYDEN RD STE A3","SCOTTSDALE","AZ",85260,33.614050451,-111.908423047,412,"14201 N HAYDEN RD STE A3, SCOTTSDALE, AZ, 85260","Match","Non_Exact","14201 N HAYDEN RD, SCOTTSDALE, AZ, 85260",128580901,"R"
60413,"14201 N HAYDEN ROAD SUITE A1","SCOTTSDALE","AZ",85260,33.614050451,-111.908423047,413,"14201 N HAYDEN ROAD SUITE A1, SCOTTSDALE, AZ, 85260","Match","Non_Exact","14201 N HAYDEN RD, SCOTTSDALE, AZ, 85260",128580901,"R"
60414,"14201 OLD STAGE ROAD","BOWIE","MD",20720,38.9587008720001,-76.7590450019999,414,"14201 OLD STAGE ROAD, BOWIE, MD, 20720","Match","Exact","14201 OLD STAGE RD, BOWIE, MD, 20720",76411277,"R"
60415,"14201 PARK CENTER DRIVE SUITE 407","LAUREL","MD",20707,39.084463253,-76.878539124,415,"14201 PARK CENTER DRIVE SUITE 407, LAUREL, MD, 20707","Match","Exact","14201 PARK CENTER DR, LAUREL, MD, 20707",76364439,"R"
60416,"14201 SE PETROVISKY RD SUITE A3-319","KENTON","WA",98058,NA,NA,416,"14201 SE PETROVISKY RD SUITE A3-319, KENTON, WA, 98058","No_Match",NA,NA,NA,NA
60417,"14201 SE PETROVITSKY RD A3-255","RENTON","WA",98058,47.4449653950001,-122.151777213,417,"14201 SE PETROVITSKY RD A3-255, RENTON, WA, 98058","Match","Non_Exact","14201 SE PETROVITSKY RD, RENTON, WA, 98058",186636690,"R"
60418,"14201 TURKEY FOOT RD","GAITHERSBURG","MD",20878,39.0887233220001,-77.2676196149999,418,"14201 TURKEY FOOT RD, GAITHERSBURG, MD, 20878","Match","Exact","14201 TURKEY FOOT RD, GAITHERSBURG, MD, 20878",645271027,"L"
60419,"14202 62ND ST N","CLEARWATER","FL",33760,27.90104968,-82.720945569,419,"14202 62ND ST N, CLEARWATER, FL, 33760","Match","Exact","14202 62ND ST N, CLEARWATER, FL, 33760",124778007,"L"
60420,"14202 BRENTSHIRE LN","HOUSTON","TX",77069,29.995939892,-95.524582229,420,"14202 BRENTSHIRE LN, HOUSTON, TX, 77069","Match","Exact","14202 BRENTSHIRE LN, HOUSTON, TX, 77069",96166072,"R"
60421,"14202 SE CENTER ST","PORTLAND","OR",97236,45.4932408610001,-122.516670751,421,"14202 SE CENTER ST, PORTLAND, OR, 97236","Match","Exact","14202 SE CENTER ST, PORTLAND, OR, 97236",157556685,"R"
60422,"14203 177TH ST S E BLGD A303","RENTON","WA",98058,NA,NA,422,"14203 177TH ST S E BLGD A303, RENTON, WA, 98058","No_Match",NA,NA,NA,NA
60423,"14203 DOWNDALE COURT","LAUREL","MD",20707,39.0843015780001,-76.8728431439999,423,"14203 DOWNDALE COURT, LAUREL, MD, 20707","Match","Exact","14203 DOWNDALE CT, LAUREL, MD, 20707",76417939,"R"
60424,"14203 TOWERGLEN CT","HOUSTON","TX",77084,29.8593075430001,-95.623898765,424,"14203 TOWERGLEN CT, HOUSTON, TX, 77084","Match","Exact","14203 TOWERGLEN CT, HOUSTON, TX, 77084",96289760,"L"
60425,"14203 TULIP REACH CT","BOWIE","MD",20720,38.949643714,-76.757946166,425,"14203 TULIP REACH CT, BOWIE, MD, 20720","Match","Exact","14203 TULIP REACH CT, BOWIE, MD, 20720",648073235,"L"
60426,"14203 VICTORY RIDGE DR","LOUISVILLE","KY",40245,38.236311814,-85.5021263949999,426,"14203 VICTORY RIDGE DR, LOUISVILLE, KY, 40245","Match","Exact","14203 VICTORY RIDGE DR, LOUISVILLE, KY, 40245",96932351,"R"
60427,"14203 WOODLAND RIDGE DR","LOUISVILLE","KY",40245,38.25303949,-85.4907022959999,427,"14203 WOODLAND RIDGE DR, LOUISVILLE, KY, 40245","Match","Exact","14203 WOODLAND RIDGE DR, LOUISVILLE, KY, 40245",96983262,"R"
60428,"14203 WOOLEN OAK CT APT 10","SILVER SPRING","MD",20906,39.1083373430001,-77.057513178,428,"14203 WOOLEN OAK CT APT 10, SILVER SPRING, MD, 20906","Match","Exact","14203 WOOLEN OAK CT, SILVER SPRING, MD, 20906",62093478,"L"
60429,"14204 NE 94TH ST","VANCOVUER","WA",98682,45.6905820050001,-122.52655694,429,"14204 NE 94TH ST, VANCOVUER, WA, 98682","Match","Non_Exact","14204 NE 94TH ST, VANCOUVER, WA, 98682",158368987,"L"
60430,"14205 GRANADA RD","LEAWOOD","KS",66224,38.8707248040001,-94.638369096,430,"14205 GRANADA RD, LEAWOOD, KS, 66224","Match","Exact","14205 GRANADA RD, LEAWOOD, KS, 66224",91333564,"L"
60431,"14205 NW 74TH STREET","KANSAS CITY","MO",64152,39.229917454,-94.747650168,431,"14205 NW 74TH STREET, KANSAS CITY, MO, 64152","Match","Exact","14205 NW 74 ST, KANSAS CITY, MO, 64152",39709851,"L"
60432,"14205 ROOSEVELT AVENUE SUITE 409","FLUSHING","NY",11354,NA,NA,432,"14205 ROOSEVELT AVENUE SUITE 409, FLUSHING, NY, 11354","No_Match",NA,NA,NA,NA
60433,"14205 SE 36TH STREET SUITE 100","BELLEVUE","WA",98006,47.5785452150001,-122.150635494,433,"14205 SE 36TH STREET SUITE 100, BELLEVUE, WA, 98006","Match","Non_Exact","14205 SE 36TH ST, BELLEVUE, WA, 98006",640610625,"R"
60434,"14206 ANGELTON TERRACE","BURTONSVILLE","MD",20866,39.0893054540001,-76.9317851979999,434,"14206 ANGELTON TERRACE, BURTONSVILLE, MD, 20866","Match","Exact","14206 ANGELTON TER, BURTONSVILLE, MD, 20866",62083760,"L"
60435,"14206 NE 31ST CT","VANCOUVER","WA",98686,45.7239483000001,-122.639205803,435,"14206 NE 31ST CT, VANCOUVER, WA, 98686","Match","Exact","14206 NE 31ST CT, VANCOUVER, WA, 98686",158356834,"L"
60436,"14206 NE 52ND ST","VANCOUVER","WA",98682,45.660370603,-122.526651362,436,"14206 NE 52ND ST, VANCOUVER, WA, 98682","Match","Exact","14206 NE 52ND ST, VANCOUVER, WA, 98682",158352940,"L"
60437,"14206 W MANDALAY LN","SURPRISE","AZ",85379,33.615861223,-112.365648692,437,"14206 W MANDALAY LN, SURPRISE, AZ, 85379","Match","Exact","14206 W MANDALAY LN, SURPRISE, AZ, 85379",244000494,"L"
60438,"14207 ROCKY BRIAR LN","ROSHARON","TX",77583,29.499893652,-95.443042646,438,"14207 ROCKY BRIAR LN, ROSHARON, TX, 77583","Match","Exact","14207 ROCKY BRIAR LN, ROSHARON, TX, 77583",116649854,"R"
60439,"14207 S 32ND PLACE","TEMPE","AZ",85044,33.317453637,-112.015018572,439,"14207 S 32ND PLACE, TEMPE, AZ, 85044","Match","Non_Exact","14207 S 32ND PL, PHOENIX, AZ, 85044",647479062,"R"
60440,"14207 WILD WOOD CT","UPPER MARLBORO","MD",20774,38.895896314,-76.75994716,440,"14207 WILD WOOD CT, UPPER MARLBORO, MD, 20774","Match","Exact","14207 WILD WOOD CT, UPPER MARLBORO, MD, 20774",633421750,"L"
60441,"14208 MOUNT AVENUE","PHOENIX","MD",21131,39.5153861310001,-76.618187746,441,"14208 MOUNT AVENUE, PHOENIX, MD, 21131","Match","Exact","14208 MOUNT AVE, PHOENIX, MD, 21131",191470115,"L"
60442,"14208 NW 3RD CT SUITE 110","VANCOUVER","WA",98685,45.7236721570001,-122.673298579,442,"14208 NW 3RD CT SUITE 110, VANCOUVER, WA, 98685","Match","Non_Exact","14208 NW 3RD CT, VANCOUVER, WA, 98685",158347495,"L"
60443,"14209 230TH PLACE","LAURELTON","NY",11413,NA,NA,443,"14209 230TH PLACE, LAURELTON, NY, 11413","No_Match",NA,NA,NA,NA
60444,"14209 DAV ROAD","ROCKVILLE","MD",20850,39.0893586890001,-77.184192893,444,"14209 DAV ROAD, ROCKVILLE, MD, 20850","Match","Exact","14209 DAV RD, ROCKVILLE, MD, 20850",638369953,"R"
60445,"14209 OTTAWA CREEK LANE","HOLLAND","MI",49424,42.8295382110001,-86.1328385479999,445,"14209 OTTAWA CREEK LANE, HOLLAND, MI, 49424","Match","Exact","14209 OTTAWA CREEK LN, HOLLAND, MI, 49424",71094674,"R"
60446,"1420A 4TH AV","FORT KNOX","KY",40121,37.8985386700001,-85.952006274,446,"1420A 4TH AV, FORT KNOX, KY, 40121","Match","Exact","1420 4TH AVE, FORT KNOX, KY, 40121",34614446,"L"
60447,"1421 52ND STREET","BROOKLYN","NY",11219,40.6316864140001,-73.991102762,447,"1421 52ND STREET, BROOKLYN, NY, 11219","Match","Exact","1421 52ND ST, BROOKLYN, NY, 11219",59080262,"L"
60448,"1421 66TH ST","BERKELEY","CA",94702,37.850054055,-122.279915994,448,"1421 66TH ST, BERKELEY, CA, 94702","Match","Exact","1421 66TH ST, BERKELEY, CA, 94702",124994625,"L"
60449,"1421 ALPINE GROVE LN","ALPINE","CA",91901,32.835417675,-116.773608211,449,"1421 ALPINE GROVE LN, ALPINE, CA, 91901","Match","Exact","1421 ALPINE GROVE LN, ALPINE, CA, 91901",195335485,"R"
60450,"1421 BEECH CT","FT. COLLINS","CO",80521,40.593580198,-105.102497735,450,"1421 BEECH CT, FT. COLLINS, CO, 80521","Match","Exact","1421 BEECH CT, FORT COLLINS, CO, 80521",188490086,"L"
60451,"1421 BRYAN ST","RICHMOND","VA",23223,37.5453234390001,-77.418788104,451,"1421 BRYAN ST, RICHMOND, VA, 23223","Match","Exact","1421 BRYAN ST, RICHMOND, VA, 23223",201540989,"R"
60452,"1421 C ST","HAYWARD","CA",94541,37.6769604350001,-122.074439346,452,"1421 C ST, HAYWARD, CA, 94541","Match","Exact","1421 C ST, HAYWARD, CA, 94541",651662077,"R"
60453,"1421 CHICKADEE LN","VIRGINIA BEACH","VA",23454,36.7918321390001,-76.0010619449999,453,"1421 CHICKADEE LN, VIRGINIA BEACH, VA, 23454","Match","Exact","1421 CHICKADEE LN, VIRGINIA BCH, VA, 23454",122271656,"L"
60454,"1421 CHOATE RD STE 2","CHATTANOOGA","TN",37412,34.9975422580001,-85.2352590899999,454,"1421 CHOATE RD STE 2, CHATTANOOGA, TN, 37412","Match","Exact","1421 CHOATE RD, CHATTANOOGA, TN, 37412",59315126,"R"
60455,"1421 COLONIAL AVENUE","BRISTOL","PA",19007,40.1166076320001,-74.8557954249999,455,"1421 COLONIAL AVENUE, BRISTOL, PA, 19007","Match","Exact","1421 COLONIAL AVE, BRISTOL, PA, 19007",134716976,"L"
60456,"1421 COUNTY ROAD 140","BUNNELL","FL",32110,29.350667668,-81.333707924,456,"1421 COUNTY ROAD 140, BUNNELL, FL, 32110","Match","Exact","1421 CO RD 140, BUNNELL, FL, 32110",649911113,"R"
60457,"1421 CRETE STREET","NEW ORLEANS","LA",70119,29.977355909,-90.0793329099999,457,"1421 CRETE STREET, NEW ORLEANS, LA, 70119","Match","Exact","1421 CRETE ST, NEW ORLEANS, LA, 70119",191708685,"L"
60458,"1421 DELMORE DR","MERRILL","WI",54452,45.161640774,-89.694254402,458,"1421 DELMORE DR, MERRILL, WI, 54452","Match","Exact","1421 DELMORE DR, MERRILL, WI, 54452",649750817,"L"
60459,"1421 DRAKE AVENUE","BURLINGAME","CA",94010,37.585103616,-122.375138239,459,"1421 DRAKE AVENUE, BURLINGAME, CA, 94010","Match","Exact","1421 DRAKE AVE, BURLINGAME, CA, 94010",192375305,"L"
60460,"1421 DUNCAN DRIVE","MESQUITE","TX",75149,32.749251384,-96.572846069,460,"1421 DUNCAN DRIVE, MESQUITE, TX, 75149","Match","Exact","1421 DUNCAN DR, MESQUITE, TX, 75149",103170400,"L"
60461,"1421 DYER AVE","CINCINNATI","OH",45230,39.078905945,-84.383786121,461,"1421 DYER AVE, CINCINNATI, OH, 45230","Match","Exact","1421 DYER AVE, CINCINNATI, OH, 45230",103937955,"L"
60462,"1421 E 53RD ST","CLEVELAND","OH",44103,41.5186884720001,-81.653982705,462,"1421 E 53RD ST, CLEVELAND, OH, 44103","Match","Exact","1421 E 53RD ST, CLEVELAND, OH, 44103",61112607,"L"
60463,"1421 E OAKLAND PARK BLVD STE 201","OAKLAND PARK","FL",33334,26.1669920620001,-80.12848001,463,"1421 E OAKLAND PARK BLVD STE 201, OAKLAND PARK, FL, 33334","Match","Non_Exact","1421 E OAKLAND PARK BLVD, OAKLAND PARK, FL, 33334",114719987,"L"
60464,"1421 EAST 174TH STREET","CLEVELAND","OH",44110,41.5658578420001,-81.557811043,464,"1421 EAST 174TH STREET, CLEVELAND, OH, 44110","Match","Exact","1421 E 174TH ST, CLEVELAND, OH, 44110",61123693,"L"
60465,"1421 EAST HAWTHORNE CIRCLE","HOLLYWOOD","FL",33021,26.022878786,-80.187946172,465,"1421 EAST HAWTHORNE CIRCLE, HOLLYWOOD, FL, 33021","Match","Exact","1421 E HAWTHORNE CIR, HOLLYWOOD, FL, 33021",114717411,"R"
60466,"1421 EASTBROOKE WAY","MARIETTA","GA",30066,33.9994022000001,-84.505307666,466,"1421 EASTBROOKE WAY, MARIETTA, GA, 30066","Match","Exact","1421 EASTBROOKE WAY, MARIETTA, GA, 30066",17242095,"L"
60467,"1421 GARFIELD AVE","DES MOINES","IA",50316,41.602323557,-93.600132892,467,"1421 GARFIELD AVE, DES MOINES, IA, 50316","Match","Exact","1421 GARFIELD AVE, DES MOINES, IA, 50316",65783672,"R"
60468,"1421 GROVECREST DR","ARLINGTON","TX",76018,32.6694534690001,-97.087057912,468,"1421 GROVECREST DR, ARLINGTON, TX, 76018","Match","Exact","1421 GROVECREST DR, ARLINGTON, TX, 76018",101910418,"L"
60469,"1421 HAWLEY LANE","DALLAS","TX",75217,32.7367914800001,-96.673254919,469,"1421 HAWLEY LANE, DALLAS, TX, 75217","Match","Exact","1421 HAWLEY LN, DALLAS, TX, 75217",102958515,"L"
60470,"1421 HWY 34","CRESTON","IA",50801,41.0391127190001,-94.3898141829999,470,"1421 HWY 34, CRESTON, IA, 50801","Match","Non_Exact","1421 US HWY 34, CRESTON, IA, 50801",75240817,"L"
60471,"1421 INDIAN SPRINGS","CARROLLTON","TX",75007,32.997910344,-96.9242339049999,471,"1421 INDIAN SPRINGS, CARROLLTON, TX, 75007","Match","Exact","1421 INDIAN SPRINGS, CARROLLTON, TX, 75007",103383422,"R"
60472,"1421 JOHN FITCH BLVD","SOUTH WINDSOR","CT",6074,41.845571954,-72.599798719,472,"1421 JOHN FITCH BLVD, SOUTH WINDSOR, CT, 6074","Match","Exact","1421 JOHN FITCH BLVD, SOUTH WINDSOR, CT, 06074",604936998,"R"
60473,"1421 LAKE SUSAN HILLS DR","CHANHASSEN","MN",55317,44.84952257,-93.554593226,473,"1421 LAKE SUSAN HILLS DR, CHANHASSEN, MN, 55317","Match","Exact","1421 LAKE SUSAN HILLS DR, CHANHASSEN, MN, 55317",43499766,"L"
60474,"1421 LAKEVIEW DRIVE","FAYETTEVILLE","NC",28305,35.0487427210001,-78.9026495539999,474,"1421 LAKEVIEW DRIVE, FAYETTEVILLE, NC, 28305","Match","Exact","1421 LAKEVIEW DR, FAYETTEVILLE, NC, 28305",64200212,"L"
60475,"1421 LAKEVIEW DRIVE","VIRGINIA BEACH","VA",23455,36.8874543160001,-76.138706101,475,"1421 LAKEVIEW DRIVE, VIRGINIA BEACH, VA, 23455","Match","Exact","1421 LAKEVIEW DR, VIRGINIA BCH, VA, 23455",122259518,"L"
60476,"1421 LOLA DRIVE","TALLAHASSEE","FL",32301,30.4138269150001,-84.258473911,476,"1421 LOLA DRIVE, TALLAHASSEE, FL, 32301","Match","Exact","1421 LOLA DR, TALLAHASSEE, FL, 32301",82854436,"R"
60477,"1421 MARBEL CANYON DR","DESOTO","TX",75115,32.615132825,-96.866637467,477,"1421 MARBEL CANYON DR, DESOTO, TX, 75115","Match","Non_Exact","1421 MARBLE CANYON DR, DESOTO, TX, 75115",102972535,"L"
60478,"1421 MIAMI LN","MARTINSVILLE","IN",46151,39.4087720470001,-86.4109763559999,478,"1421 MIAMI LN, MARTINSVILLE, IN, 46151","Match","Exact","1421 MIAMI LN, MARTINSVILLE, IN, 46151",43579494,"L"
60479,"1421 MIDWAY PKWY","SAINT PAUL","MN",55108,44.981013949,-93.158023212,479,"1421 MIDWAY PKWY, SAINT PAUL, MN, 55108","Match","Exact","1421 MIDWAY PKWY, SAINT PAUL, MN, 55108",647914382,"R"
60480,"1421 MORSE RD","COLUMBUS","OH",43229,40.0607816780001,-82.981109809,480,"1421 MORSE RD, COLUMBUS, OH, 43229","Match","Exact","1421 MORSE RD, COLUMBUS, OH, 43229",218695456,"R"
60481,"1421 N 47TH ROAD","EARLVILLE","IL",60518,41.615000996,-88.89216686,481,"1421 N 47TH ROAD, EARLVILLE, IL, 60518","Match","Exact","1421 N 47TH RD, EARLVILLE, IL, 60518",8607090,"L"
60482,"1421 N JONES BLVD STE 244","LAS VEGAS","NV",89108,36.186719098,-115.224000678,482,"1421 N JONES BLVD STE 244, LAS VEGAS, NV, 89108","Match","Non_Exact","1421 N JONES BLVD, LAS VEGAS, NV, 89108",201860499,"L"
60483,"1421 N MOORE AVE","TYLER","TX",75702,32.364448349,-95.312306977,483,"1421 N MOORE AVE, TYLER, TX, 75702","Match","Exact","1421 MOORE AVE, TYLER, TX, 75702",141266090,"R"
60484,"1421 OLIVE ST","INDIANAPOLIS","IN",46203,39.748429936,-86.138447957,484,"1421 OLIVE ST, INDIANAPOLIS, IN, 46203","Match","Exact","1421 OLIVE ST, INDIANAPOLIS, IN, 46203",107993847,"L"
60485,"1421 PALMVIEW WAY","SAN JOSE","CA",95122,37.3382581320001,-121.835749,485,"1421 PALMVIEW WAY, SAN JOSE, CA, 95122","Match","Exact","1421 PALMVIEW WAY, SAN JOSE, CA, 95122",122912714,"R"
60486,"1421 PRESTON STREET","HOUSTON","TX",77002,29.7593004610001,-95.3576600499999,486,"1421 PRESTON STREET, HOUSTON, TX, 77002","Match","Exact","1421 PRESTON ST, HOUSTON, TX, 77002",96069548,"L"
60487,"1421 RICHVIEW CT","VIENNA","VA",22182,38.959932801,-77.3076159239999,487,"1421 RICHVIEW CT, VIENNA, VA, 22182","Match","Exact","1421 RICHVIEW CT, VIENNA, VA, 22182",75960577,"L"
60488,"1421 ROTHLEY AVENUE","WILLOW GROVE","PA",19090,40.127704163,-75.124463363,488,"1421 ROTHLEY AVENUE, WILLOW GROVE, PA, 19090","Match","Exact","1421 ROTHLEY AVE, WILLOW GROVE, PA, 19090",652467075,"R"
60489,"1421 ROZA VISTA PL","PROSSER","WA",99350,46.191993091,-119.774536849,489,"1421 ROZA VISTA PL, PROSSER, WA, 99350","Match","Exact","1421 ROZA VISTA PL, PROSSER, WA, 99350",174980888,"R"
60490,"1421 S 13TH ST","MANITOWOC","WI",54220,44.081780892,-87.664823925,490,"1421 S 13TH ST, MANITOWOC, WI, 54220","Match","Exact","1421 S 13TH ST, MANITOWOC, WI, 54220",147950511,"L"
60491,"1421 S W 8TH COURT","FORT LAUDERDALE","FL",33312,26.1114706480001,-80.160680108,491,"1421 S W 8TH COURT, FORT LAUDERDALE, FL, 33312","Match","Exact","1421 SW 8TH CT, FORT LAUDERDALE, FL, 33312",114726962,"R"
60492,"1421 SE 17TH AVE","PORTLAND","OR",97214,45.512727727,-122.648607544,492,"1421 SE 17TH AVE, PORTLAND, OR, 97214","Match","Exact","1421 SE 17TH AVE, PORTLAND, OR, 97214",157509109,"R"
60493,"1421 SE 35TH STREET","TROUTDALE","OR",97060,45.5165238550001,-122.375486743,493,"1421 SE 35TH STREET, TROUTDALE, OR, 97060","Match","Exact","1421 SE 35TH ST, TROUTDALE, OR, 97060",616926875,"L"
60494,"1421 SOUTH MADISON AVE","CLEARWATER","FL",33756,27.94540908,-82.789573557,494,"1421 SOUTH MADISON AVE, CLEARWATER, FL, 33756","Match","Exact","1421 S MADISON AVE, CLEARWATER, FL, 33756",124798709,"L"
60495,"1421 SPRUCE PL","MINNEAPOLIS","MN",55403,44.9685379360001,-93.28082154,495,"1421 SPRUCE PL, MINNEAPOLIS, MN, 55403","Match","Exact","1421 SPRUCE PL, MINNEAPOLIS, MN, 55403",43632068,"L"
60496,"1421 SW 107TH AVENUE NUM -229","MIAMI","FL",33174,25.755185946,-80.368104912,496,"1421 SW 107TH AVENUE NUM -229, MIAMI, FL, 33174","Match","Non_Exact","1421 SW 107TH AVE, MIAMI, FL, 33174",647881633,"L"
60497,"1421 SW 145TH AVENUE","MIAMI","FL",33184,25.75374536,-80.430647214,497,"1421 SW 145TH AVENUE, MIAMI, FL, 33184","Match","Exact","1421 SW 145TH AVE, MIAMI, FL, 33184",631953457,"L"
60498,"1421 SW 27TH AVE APT 2110","OCALA","FL",34471,NA,NA,498,"1421 SW 27TH AVE APT 2110, OCALA, FL, 34471","No_Match",NA,NA,NA,NA
60499,"1421 V ST NW","WASHINGTON","DC",20009,38.918119904,-77.032894061,499,"1421 V ST NW, WASHINGTON, DC, 20009","Match","Exact","1421 V ST NW, WASHINGTON, DC, 20009",650147260,"R"
60500,"1421 WABASH AVE APT 8","CINCINNATI","OH",45215,39.248785035,-84.450332402,500,"1421 WABASH AVE APT 8, CINCINNATI, OH, 45215","Match","Exact","1421 WABASH AVE, CINCINNATI, OH, 45215",103924925,"L"
