"ID","Address","City","State","Zip","lat","long","id","input_address","match_indicator","match_type","matched_address","tiger_line_id","tiger_side"
202501,"409 MINNISINK RD STE 208","TOTOWA","NJ",7512,40.896643039,-74.2347405039999,1,"409 MINNISINK RD STE 208, TOTOWA, NJ, 7512","Match","Exact","409 MINNISINK RD, TOTOWA, NJ, 07512",641147875,"R"
202502,"409 MONTAGUE STREET","ANDERSON","SC",29624,34.4978328830001,-82.6607048559999,2,"409 MONTAGUE STREET, ANDERSON, SC, 29624","Match","Exact","409 MONTAGUE ST, ANDERSON, SC, 29624",25452380,"L"
202503,"409 MONTEMAR AVENUE","CATONSVILLE","MD",21228,39.2631596030001,-76.731522505,3,"409 MONTEMAR AVENUE, CATONSVILLE, MD, 21228","Match","Exact","409 MONTEMAR AVE, CATONSVILLE, MD, 21228",191485158,"L"
202504,"409 MORRIS PARK AVE","BRONX","NY",10460,40.8392527710001,-73.874057947,4,"409 MORRIS PARK AVE, BRONX, NY, 10460","Match","Exact","409 MORRIS PARK AVE, BRONX, NY, 10460",80304223,"L"
202505,"409 N 20TH ST","WEIRTON","WV",26062,40.4307684710001,-80.563014365,5,"409 N 20TH ST, WEIRTON, WV, 26062","Match","Exact","409 N 20TH ST, WEIRTON, WV, 26062",65501049,"L"
202506,"409 N ANNA DR","ALLEN","TX",75013,33.106839773,-96.672698689,6,"409 N ANNA DR, ALLEN, TX, 75013","Match","Exact","409 N ANNA DR, ALLEN, TX, 75013",123485535,"R"
202507,"409 N FIRST STREET","HEBER SPRINGS","AR",72543,35.4948555620001,-92.028660208,7,"409 N FIRST STREET, HEBER SPRINGS, AR, 72543","Match","Exact","409 N 1ST ST, HEBER SPRINGS, AR, 72543",43167466,"R"
202508,"409 N GASTON","CRANE","TX",79731,31.3991895090001,-102.350806601,8,"409 N GASTON, CRANE, TX, 79731","Match","Non_Exact","409 S GASTON, CRANE, TX, 79731",186043759,"R"
202509,"409 N HIGHLAND AVE","CLEARWATER","FL",33755,27.969975307,-82.7753057589999,9,"409 N HIGHLAND AVE, CLEARWATER, FL, 33755","Match","Exact","409 N HIGHLAND AVE, CLEARWATER, FL, 33755",124668346,"R"
202510,"409 N MAIN","TULSA","OK",74103,36.160253987,-95.9947122309999,10,"409 N MAIN, TULSA, OK, 74103","Match","Non_Exact","409 N MAIN ST, TULSA, OK, 74103",637605564,"R"
202511,"409 N NELSON","BENNINGTON","KS",67422,39.0340597950001,-97.593604649,11,"409 N NELSON, BENNINGTON, KS, 67422","Match","Non_Exact","409 N NELSON ST, BENNINGTON, KS, 67422",148347558,"L"
202512,"409 N PACIFIC COAST HIGHWAY 511","REDONDO BEACH","CA",90277,33.8362322140001,-118.385251635,12,"409 N PACIFIC COAST HIGHWAY 511, REDONDO BEACH, CA, 90277","Match","Non_Exact","409 S PACIFIC COAST HWY, REDONDO BEACH, CA, 90277",141584095,"R"
202513,"409 N PACIFIC COAST HIGHWAY 565","REDONDO BEACH","CA",90277,33.8362322140001,-118.385251635,13,"409 N PACIFIC COAST HIGHWAY 565, REDONDO BEACH, CA, 90277","Match","Non_Exact","409 S PACIFIC COAST HWY, REDONDO BEACH, CA, 90277",141584095,"R"
202514,"409 N PACIFIC COAST HWY 855","REDONDO BEACH","CA",90277,33.8362322140001,-118.385251635,14,"409 N PACIFIC COAST HWY 855, REDONDO BEACH, CA, 90277","Match","Non_Exact","409 S PACIFIC COAST HWY, REDONDO BEACH, CA, 90277",141584095,"R"
202515,"409 N PACIFIC COAST HWY BOX 391","REDONDO BEACH","CA",90277,33.8362322140001,-118.385251635,15,"409 N PACIFIC COAST HWY BOX 391, REDONDO BEACH, CA, 90277","Match","Non_Exact","409 S PACIFIC COAST HWY, REDONDO BEACH, CA, 90277",141584095,"R"
202516,"409 N PACIFIC COAST HWY STE 154","REDONDO BEACH","CA",90277,33.8362322140001,-118.385251635,16,"409 N PACIFIC COAST HWY STE 154, REDONDO BEACH, CA, 90277","Match","Non_Exact","409 S PACIFIC COAST HWY, REDONDO BEACH, CA, 90277",141584095,"R"
202517,"409 N PACIFIC COAST HWY STE 376","REDONDO BEACH","CA",90277,33.8362322140001,-118.385251635,17,"409 N PACIFIC COAST HWY STE 376, REDONDO BEACH, CA, 90277","Match","Non_Exact","409 S PACIFIC COAST HWY, REDONDO BEACH, CA, 90277",141584095,"R"
202518,"409 N PACIFIC COAST HWY STE 508","REDONDO BEACH","CA",90277,33.8362322140001,-118.385251635,18,"409 N PACIFIC COAST HWY STE 508, REDONDO BEACH, CA, 90277","Match","Non_Exact","409 S PACIFIC COAST HWY, REDONDO BEACH, CA, 90277",141584095,"R"
202519,"409 N POPLAR STREET APT B","FLORENCE","AL",35630,34.8053695610001,-87.672607496,19,"409 N POPLAR STREET APT B, FLORENCE, AL, 35630","Match","Non_Exact","409 N POPLAR ST, FLORENCE, AL, 35630",41333066,"L"
202520,"409 N WILMETTE AVE","WESTMONT","IL",60559,41.8063513440001,-87.970883418,20,"409 N WILMETTE AVE, WESTMONT, IL, 60559","Match","Exact","409 N WILMETTE AVE, WESTMONT, IL, 60559",112547736,"R"
202521,"409 NATURE LANE","ROCKVILLE","MD",20850,39.0926651780001,-77.185615151,21,"409 NATURE LANE, ROCKVILLE, MD, 20850","Match","Exact","409 NATURE LN, ROCKVILLE, MD, 20850",641035273,"R"
202522,"409 NE 151ST AVE","PORTLAND","OR",97230,45.5255134400001,-122.508030461,22,"409 NE 151ST AVE, PORTLAND, OR, 97230","Match","Exact","409 NE 151ST AVE, PORTLAND, OR, 97230",157561150,"L"
202523,"409 NORTH LIBERTY","INDEPENDENCE","MO",64050,39.0947030340001,-94.4169753259999,23,"409 NORTH LIBERTY, INDEPENDENCE, MO, 64050","Match","Non_Exact","409 N LIBERTY ST, INDEPENDENCE, MO, 64050",91462525,"R"
202524,"409 NORTH PACIFIC COAST HIGHWAY","REDONDO BEACH","CA",90277,33.8362347770001,-118.385251844,24,"409 NORTH PACIFIC COAST HIGHWAY, REDONDO BEACH, CA, 90277","Match","Non_Exact","409 S PACIFIC COAST HWY, REDONDO BEACH, CA, 90277",141584095,"R"
202525,"409 NORTH PCH SUITE 595","REDONDO BEACH","CA",90277,NA,NA,25,"409 NORTH PCH SUITE 595, REDONDO BEACH, CA, 90277","No_Match",NA,NA,NA,NA
202526,"409 NORTH ROSEMARY AVENUE","WEST PALM BEACH","FL",33401,26.7163377090001,-80.056958156,26,"409 NORTH ROSEMARY AVENUE, WEST PALM BEACH, FL, 33401","Match","Exact","409 N ROSEMARY AVE, WEST PALM BEACH, FL, 33401",115278477,"L"
202527,"409 NORTH UNION STREET","NATCHEZ","MS",39121,31.5614858330001,-91.39910829,27,"409 NORTH UNION STREET, NATCHEZ, MS, 39121","Match","Non_Exact","409 N UNION ST, NATCHEZ, MS, 39120",79845104,"R"
202528,"409 OAK GROVE CIRCLE","WAUCON","IL",60084,42.2516866720001,-88.151753589,28,"409 OAK GROVE CIRCLE, WAUCON, IL, 60084","Match","Non_Exact","409 OAK GROVE CIR, WAUCONDA, IL, 60084",119755511,"R"
202529,"409 OATGRASS DRIVE","GRAYSON","GA",30017,33.916083966,-83.949110458,29,"409 OATGRASS DRIVE, GRAYSON, GA, 30017","Match","Exact","409 OATGRASS DR, GRAYSON, GA, 30017",647931629,"R"
202530,"409 OLD COVE ROAD","LIVERPOOL","NY",13090,43.1244504950001,-76.222075248,30,"409 OLD COVE ROAD, LIVERPOOL, NY, 13090","Match","Exact","409 OLD COVE RD, LIVERPOOL, NY, 13090",46562928,"R"
202531,"409 OLD HIGHWAY 200","TROUT CREEK","MT",59874,47.8594064000001,-115.622711552,31,"409 OLD HIGHWAY 200, TROUT CREEK, MT, 59874","Match","Exact","409 OLD HWY 200, TROUT CREEK, MT, 59874",204471698,"L"
202532,"409 OLIVER STREET","BASTROP","LA",71220,32.769725782,-91.91876321,32,"409 OLIVER STREET, BASTROP, LA, 71220","Match","Non_Exact","409 OLIVER AVE, BASTROP, LA, 71220",75388115,"L"
202533,"409 ORCHARD VIEW AVE","MARTINEZ","CA",94553,37.9997576920001,-122.11107655,33,"409 ORCHARD VIEW AVE, MARTINEZ, CA, 94553","Match","Exact","409 ORCHARD VIEW AVE, MARTINEZ, CA, 94553",192092974,"R"
202534,"409 OUACHITA DRIVE","LAFAYETTE","LA",70506,30.1550915070001,-92.1050171959999,34,"409 OUACHITA DRIVE, LAFAYETTE, LA, 70506","Match","Exact","409 OUACHITA DR, LAFAYETTE, LA, 70506",648011586,"L"
202535,"409 PALMETTO ST","WELAKA","FL",32193,NA,NA,35,"409 PALMETTO ST, WELAKA, FL, 32193","No_Match",NA,NA,NA,NA
202536,"409 PARKSHIRE DR","MURPHY","TX",75094,33.0221052580001,-96.620536304,36,"409 PARKSHIRE DR, MURPHY, TX, 75094","Match","Exact","409 PARKSHIRE DR, MURPHY, TX, 75094",210519594,"L"
202537,"409 PATTERSON STREET","LAFAYETTE","LA",70501,30.249244344,-92.020480354,37,"409 PATTERSON STREET, LAFAYETTE, LA, 70501","Match","Exact","409 PATTERSON ST, LAFAYETTE, LA, 70501",85614860,"L"
202538,"409 PATTON AVENUE","PISCATAWAY","NJ",8854,40.5527549230001,-74.498037752,38,"409 PATTON AVENUE, PISCATAWAY, NJ, 8854","Match","Exact","409 PATTON AVE, PISCATAWAY, NJ, 08854",60259221,"R"
202539,"409 PENDIK RD","JACKSONVILLE","IL",62650,39.7130902540001,-90.234598341,39,"409 PENDIK RD, JACKSONVILLE, IL, 62650","Match","Non_Exact","409 PENDIK ST, JACKSONVILLE, IL, 62650",81432666,"L"
202540,"409 POLARIS CIRCLE","ERIE","CO",80516,40.0509620350001,-105.035160888,40,"409 POLARIS CIRCLE, ERIE, CO, 80516","Match","Exact","409 POLARIS CIR, ERIE, CO, 80516",650711273,"R"
202541,"409 PONY DRIVE","SMYRNA","TN",37167,35.955883623,-86.506620848,41,"409 PONY DRIVE, SMYRNA, TN, 37167","Match","Exact","409 PONY DR, SMYRNA, TN, 37167",59021553,"L"
202542,"409 POWELL STREET","CREWE","VA",23930,37.1788758880001,-78.122472409,42,"409 POWELL STREET, CREWE, VA, 23930","Match","Exact","409 POWELL ST, CREWE, VA, 23930",54371108,"L"
202543,"409 ROSSI WAY","PENSACOLA","FL",32506,30.4058046170001,-87.311022293,43,"409 ROSSI WAY, PENSACOLA, FL, 32506","Match","Exact","409 ROSSI WAY, PENSACOLA, FL, 32506",93238753,"L"
202544,"409 RUSTIC CT","MYRTLE BEACH","SC",29588,33.6686644260001,-79.058197427,44,"409 RUSTIC CT, MYRTLE BEACH, SC, 29588","Match","Exact","409 RUSTIC CT, MYRTLE BEACH, SC, 29588",629091108,"L"
202545,"409 S 19TH STREET","COEUR D ALENE","ID",83814,47.6707615270001,-116.759150422,45,"409 S 19TH STREET, COEUR D ALENE, ID, 83814","Match","Exact","409 S 19TH ST, COEUR D ALENE, ID, 83814",192940105,"L"
202546,"409 S 2ND STREET","DARBY","PA",19023,39.9116437340001,-75.2523668109999,46,"409 S 2ND STREET, DARBY, PA, 19023","Match","Exact","409 S 2ND ST, DARBY, PA, 19023",134886705,"L"
202547,"409 S 7TH ST","LEAVENWORTH","KS",66048,NA,NA,47,"409 S 7TH ST, LEAVENWORTH, KS, 66048","Tie",NA,NA,NA,NA
202548,"409 S CLAY ST","DELPHOS","OH",45833,40.839548483,-84.3435771059999,48,"409 S CLAY ST, DELPHOS, OH, 45833","Match","Exact","409 S CLAY ST, DELPHOS, OH, 45833",6773965,"L"
202549,"409 S COMMERCE STREET","BREMOND","TX",76229,31.1645180400001,-96.678786698,49,"409 S COMMERCE STREET, BREMOND, TX, 76229","Match","Non_Exact","409 S COMMERCE ST, BREMOND, TX, 76629",24675908,"L"
202550,"409 S LINDELL STREET","MARTIN","TN",38237,36.342714217,-88.850533797,50,"409 S LINDELL STREET, MARTIN, TN, 38237","Match","Exact","409 S LINDELL ST, MARTIN, TN, 38237",40889274,"L"
202551,"409 S NORBECK STREET","VERMILLION","SD",57069,42.7749512570001,-96.911698528,51,"409 S NORBECK STREET, VERMILLION, SD, 57069","Match","Exact","409 S NORBECK ST, VERMILLION, SD, 57069",172949867,"L"
202552,"409 S OLD COACHMAN RD","CLEARWATER","FL",33765,27.962184414,-82.733980112,52,"409 S OLD COACHMAN RD, CLEARWATER, FL, 33765","Match","Non_Exact","409 OLD COACHMAN RD S, CLEARWATER, FL, 33765",124683318,"L"
202553,"409 S WESTLAND AVE APT 4","TAMPA","FL",33606,NA,NA,53,"409 S WESTLAND AVE APT 4, TAMPA, FL, 33606","Tie",NA,NA,NA,NA
202554,"409 SATERLEE COURT","GROVETOWN","GA",30813,33.495307768,-82.2188462559999,54,"409 SATERLEE COURT, GROVETOWN, GA, 30813","Match","Exact","409 SATERLEE CT, GROVETOWN, GA, 30813",641032030,"R"
202555,"409 SD 28530","JUNCTION","TX",76849,NA,NA,55,"409 SD 28530, JUNCTION, TX, 76849","No_Match",NA,NA,NA,NA
202556,"409 SE 21ST AVE","PORTLAND","WA",97214,NA,NA,56,"409 SE 21ST AVE, PORTLAND, WA, 97214","No_Match",NA,NA,NA,NA
202557,"409 SIMPSON ST","WESTMINSTER","SC",29693,34.676835253,-83.0990995079999,57,"409 SIMPSON ST, WESTMINSTER, SC, 29693","Match","Exact","409 SIMPSON ST, WESTMINSTER, SC, 29693",647225207,"R"
202558,"409 SOUTH 17TH STREET","OMAHA","NE",68102,41.256396798,-95.93849012,58,"409 SOUTH 17TH STREET, OMAHA, NE, 68102","Match","Exact","409 S 17TH ST, OMAHA, NE, 68102",116988285,"L"
202559,"409 SOUTH 9TH STREET","ADEL","IA",50003,41.6142339530001,-94.018690587,59,"409 SOUTH 9TH STREET, ADEL, IA, 50003","Match","Exact","409 S 9TH ST, ADEL, IA, 50003",65630173,"R"
202560,"409 SOUTH BUNDY DRIVE","LOS ANGELES","CA",90049,34.0554374760001,-118.475792527,60,"409 SOUTH BUNDY DRIVE, LOS ANGELES, CA, 90049","Match","Exact","409 S BUNDY DR, LOS ANGELES, CA, 90049",141566868,"R"
202561,"409 SOUTH KANAWHA STREET","BECKLEY","WV",25801,37.7766510280001,-81.185420166,61,"409 SOUTH KANAWHA STREET, BECKLEY, WV, 25801","Match","Exact","409 S KANAWHA ST, BECKLEY, WV, 25801",637295193,"L"
202562,"409 SOUTH LINCOLN ST","BUSHNELL","FL",33513,28.6540872030001,-82.105762923,62,"409 SOUTH LINCOLN ST, BUSHNELL, FL, 33513","Match","Exact","409 S LINCOLN ST, BUSHNELL, FL, 33513",86506627,"L"
202563,"409 SOUTH POPLAR STREET","CARBONDALE","IL",62901,37.7238221260001,-89.221709526,63,"409 SOUTH POPLAR STREET, CARBONDALE, IL, 62901","Match","Exact","409 S POPLAR ST, CARBONDALE, IL, 62901",95068299,"R"
202564,"409 SOUTH STREET","MARSHALLVILLE","GA",31057,32.4466908650001,-83.942774904,64,"409 SOUTH STREET, MARSHALLVILLE, GA, 31057","Match","Exact","409 SOUTH ST, MARSHALLVILLE, GA, 31057",30533438,"L"
202565,"409 SPRINGHILL","HURST","TX",76054,32.869432262,-97.174201387,65,"409 SPRINGHILL, HURST, TX, 76054","Match","Non_Exact","409 SPRINGHILL DR, HURST, TX, 76054",641186634,"R"
202566,"409 STALLWORTH CT","COLUMBIA","MO",65203,38.9626565770001,-92.403248847,66,"409 STALLWORTH CT, COLUMBIA, MO, 65203","Match","Exact","409 STALLWORTH CT, COLUMBIA, MO, 65203",624573729,"L"
202567,"409 STARLING DRIVE","SLIDELL","LA",70461,30.269312991,-89.7026736079999,67,"409 STARLING DRIVE, SLIDELL, LA, 70461","Match","Exact","409 STARLING DR, SLIDELL, LA, 70461",111287118,"L"
202568,"409 STONEWALL CIRCLE","SALEM","VA",24153,37.3033477440001,-80.05346442,68,"409 STONEWALL CIRCLE, SALEM, VA, 24153","Match","Exact","409 STONEWALL CIR, SALEM, VA, 24153",62955961,"L"
202569,"409 SUNRISE CANYON DRIVE","UNIVERSAL CITY","TX",78148,29.5599949940001,-98.3076023529999,69,"409 SUNRISE CANYON DRIVE, UNIVERSAL CITY, TX, 78148","Match","Exact","409 SUNRISE CANYON DR, UNIVERSAL CITY, TX, 78148",101572236,"R"
202570,"409 SUPERIOR RD","EHT","NJ",8234,39.3798954280001,-74.601492041,70,"409 SUPERIOR RD, EHT, NJ, 8234","Match","Non_Exact","409 SUPERIOR RD, EGG HARBOR TOWNSHIP, NJ, 08234",645560845,"R"
202571,"409 SW A STREET","BENTONVILLE","AR",72712,36.368010171,-94.2102981579999,71,"409 SW A STREET, BENTONVILLE, AR, 72712","Match","Exact","409 SW A ST, BENTONVILLE, AR, 72712",47832196,"L"
202572,"409 TANGERINE DRIVE","OLDSMAR","FL",34677,28.0466640990001,-82.6930042939999,72,"409 TANGERINE DRIVE, OLDSMAR, FL, 34677","Match","Exact","409 TANGERINE DR, OLDSMAR, FL, 34677",636393285,"R"
202573,"409 TENNANT STATION NUM 504","MORGAN HILL","CA",95037,37.1153318280001,-121.63688274,73,"409 TENNANT STATION NUM 504, MORGAN HILL, CA, 95037","Match","Non_Exact","409 TENNANT AVE, MORGAN HILL, CA, 95037",639653191,"L"
202574,"409 TOM SHOOK ROAD","BANNER ELK","NC",28604,36.1895579390001,-81.798997715,74,"409 TOM SHOOK ROAD, BANNER ELK, NC, 28604","Match","Exact","409 TOM SHOOK RD, BANNER ELK, NC, 28604",649257453,"R"
202575,"409 TOWNE VALLEY DRIVE","WOODSTOCK","GA",30188,34.111245114,-84.522679249,75,"409 TOWNE VALLEY DRIVE, WOODSTOCK, GA, 30188","Match","Exact","409 TOWNE VALLEY DR, WOODSTOCK, GA, 30188",68845349,"R"
202576,"409 VENTURA AVE","CAPITOL HEIGHTS","MD",20743,38.884344771,-76.9069318109999,76,"409 VENTURA AVE, CAPITOL HEIGHTS, MD, 20743","Match","Exact","409 VENTURA AVE, CAPITOL HEIGHTS, MD, 20743",76313788,"R"
202577,"409 W 223RD STREET","CARSON","CA",90745,33.8244206030001,-118.283295683,77,"409 W 223RD STREET, CARSON, CA, 90745","Match","Exact","409 W 223RD ST, CARSON, CA, 90745",241243685,"R"
202578,"409 W 5TH STREET","WILMINGTON","DE",19801,39.7426280500001,-75.554378072,78,"409 W 5TH STREET, WILMINGTON, DE, 19801","Match","Exact","409 W 5TH ST, WILMINGTON, DE, 19801",187257918,"R"
202579,"409 W FRONT STREET STE 100-282","HUTTO","TX",78634,30.5421304870001,-97.548433943,79,"409 W FRONT STREET STE 100-282, HUTTO, TX, 78634","Match","Non_Exact","409 W FRONT ST, HUTTO, TX, 78634",636385369,"R"
202580,"409 W LASLEY STREET","SAINT MARYS","KS",66536,39.1912103510001,-96.069490923,80,"409 W LASLEY STREET, SAINT MARYS, KS, 66536","Match","Exact","409 W LASLEY ST, SAINT MARYS, KS, 66536",22297795,"R"
202581,"409 W LOMITA AVE APT 114","GLENDALE","CA",91204,34.1399483070001,-118.26104066,81,"409 W LOMITA AVE APT 114, GLENDALE, CA, 91204","Match","Non_Exact","409 W LOMITA AVE, GLENDALE, CA, 91204",141609917,"R"
202582,"409 W LOULA ST","OLATHE","KS",66061,38.88056235,-94.823245995,82,"409 W LOULA ST, OLATHE, KS, 66061","Match","Exact","409 W LOULA ST, OLATHE, KS, 66061",91282337,"L"
202583,"409 W MELBOURNE AVE","PEORIA","IL",61604,40.7240333550001,-89.599153325,83,"409 W MELBOURNE AVE, PEORIA, IL, 61604","Match","Exact","409 W MELBOURNE AVE, PEORIA, IL, 61604",8715586,"R"
202584,"409 W NOLANA AVE","Mcallen","TX",78504,26.238438838,-98.217541077,84,"409 W NOLANA AVE, Mcallen, TX, 78504","Match","Exact","409 W NOLANA AVE, MCALLEN, TX, 78504",71494911,"L"
202585,"409 W NOLANA AVE","MCALLEN","TX",78504,26.238438838,-98.217541077,85,"409 W NOLANA AVE, MCALLEN, TX, 78504","Match","Exact","409 W NOLANA AVE, MCALLEN, TX, 78504",71494911,"L"
202586,"409 W WIGHTMAN","MOBERLY","MO",65270,39.416628873,-92.440572424,86,"409 W WIGHTMAN, MOBERLY, MO, 65270","Match","Exact","409 WIGHTMAN, MOBERLY, MO, 65270",23795342,"R"
202587,"409 WALDEN COURT","ROMEOVILLE","IL",60446,41.6646309990001,-88.079558329,87,"409 WALDEN COURT, ROMEOVILLE, IL, 60446","Match","Exact","409 WALDEN CT, ROMEOVILLE, IL, 60446",648118304,"R"
202588,"409 WALKER AVE","KANSAS CITY","KS",66101,39.12330265,-94.619566865,88,"409 WALKER AVE, KANSAS CITY, KS, 66101","Match","Exact","409 WALKER AVE, KANSAS CITY, KS, 66101",91151876,"L"
202589,"409 WEST 65TH STREET","INDIANAPOLIS","IN",46260,39.874937764,-86.1673404379999,89,"409 WEST 65TH STREET, INDIANAPOLIS, IN, 46260","Match","Exact","409 W 65TH ST, INDIANAPOLIS, IN, 46260",107982449,"L"
202590,"409 WEST GAULBERT AVENUE APT 10","LOUISVILLE","KY",40208,38.2247524800001,-85.762599328,90,"409 WEST GAULBERT AVENUE APT 10, LOUISVILLE, KY, 40208","Match","Exact","409 W GAULBERT AVE, LOUISVILLE, KY, 40208",96844088,"R"
202591,"409 WEST MAIN STREET SUITE 101","WASHINGTON","NC",27889,35.544271796,-77.059790407,91,"409 WEST MAIN STREET SUITE 101, WASHINGTON, NC, 27889","Match","Exact","409 W MAIN ST, WASHINGTON, NC, 27889",67953462,"L"
202592,"409 WEST NEW CIRCLE ROAD","LEXINGTON","KY",40511,38.0709951260001,-84.476918187,92,"409 WEST NEW CIRCLE ROAD, LEXINGTON, KY, 40511","Match","Exact","409 W NEW CIRCLE RD, LEXINGTON, KY, 40511",31925410,"R"
202593,"409 WEST ST MARY BLVD","LAFAYETTE","LA",70506,30.2162900540001,-92.024186459,93,"409 WEST ST MARY BLVD, LAFAYETTE, LA, 70506","Match","Exact","409 W ST MARY BLVD, LAFAYETTE, LA, 70506",85615816,"L"
202594,"409 WESTMERE CT","FORT WORTH","TX",76108,32.764212603,-97.489389731,94,"409 WESTMERE CT, FORT WORTH, TX, 76108","Match","Exact","409 WESTMERE CT, FORT WORTH, TX, 76108",102190936,"R"
202595,"409 WILSON CT","JASPER","TN",37347,35.0753304840001,-85.63277483,95,"409 WILSON CT, JASPER, TN, 37347","Match","Exact","409 WILSON CT, JASPER, TN, 37347",643358296,"L"
202596,"409 WNDEMERE ROAD","CLARKSVILLE","IN",47129,38.3048153070001,-85.765459987,96,"409 WNDEMERE ROAD, CLARKSVILLE, IN, 47129","Match","Non_Exact","409 WINDEMERE RD, CLARKSVILLE, IN, 47129",64877554,"L"
202597,"409 WOODBINE CIRCLE","NORMAN","OK",73072,35.223074388,-97.497151071,97,"409 WOODBINE CIRCLE, NORMAN, OK, 73072","Match","Exact","409 WOODBINE CIR, NORMAN, OK, 73072",99907261,"R"
202598,"4090 APRICOT ROAD","SIMI VALLEY","CA",93063,34.2807586690001,-118.714940456,98,"4090 APRICOT ROAD, SIMI VALLEY, CA, 93063","Match","Exact","4090 APRICOT RD, SIMI VALLEY, CA, 93063",109979331,"R"
202599,"4090 HODGES BLVD - 2814","JACKSONVILLE","FL",32224,30.268514645,-81.46431947,99,"4090 HODGES BLVD - 2814, JACKSONVILLE, FL, 32224","Match","Exact","4090 HODGES BLVD, JACKSONVILLE, FL, 32224",614096513,"L"
202600,"4090 LIVSEY ROAD","TUCKER","GA",30084,33.8692029870001,-84.221440029,100,"4090 LIVSEY ROAD, TUCKER, GA, 30084","Match","Exact","4090 LIVSEY RD, TUCKER, GA, 30084",23389022,"L"
202601,"4090 LONGRIDGE DRIVE","MARIETTA","GA",30066,NA,NA,101,"4090 LONGRIDGE DRIVE, MARIETTA, GA, 30066","No_Match",NA,NA,NA,NA
202602,"4090 NW 91ST STREET","SUNRISE","FL",33334,NA,NA,102,"4090 NW 91ST STREET, SUNRISE, FL, 33334","No_Match",NA,NA,NA,NA
202603,"4090 OAKBROOKE ALCOVE","EAGAN","MN",55122,44.808495813,-93.178103205,103,"4090 OAKBROOKE ALCOVE, EAGAN, MN, 55122","Match","Exact","4090 OAKBROOKE ALCOVE, EAGAN, MN, 55122",631765554,"R"
202604,"4090 SPENCER RD","ROCKY RIVER","OH",44116,41.4505873370001,-81.8640636969999,104,"4090 SPENCER RD, ROCKY RIVER, OH, 44116","Match","Exact","4090 SPENCER RD, ROCKY RIVER, OH, 44116",61098252,"R"
202605,"40901 ARRON CT","MURRIETA","CA",92562,33.5878574880001,-117.226909914,105,"40901 ARRON CT, MURRIETA, CA, 92562","Match","Exact","40901 ARRON CT, MURRIETA, CA, 92562",195079860,"L"
202606,"40902 N 94TH STREET","SCOTTSDALE","AZ",85262,33.8579214420001,-111.877573519,106,"40902 N 94TH STREET, SCOTTSDALE, AZ, 85262","Match","Exact","40902 N 94TH ST, SCOTTSDALE, AZ, 85262",243983222,"L"
202607,"40903 NE CEDAR RIDGE RD","AMBOY","WA",98601,45.917651978,-122.476271371,107,"40903 NE CEDAR RIDGE RD, AMBOY, WA, 98601","Match","Exact","40903 NE CEDAR RIDGE RD, AMBOY, WA, 98601",158365315,"L"
202608,"40906 ROAD 768","GOTHENBURG","NE",69138,40.9590014520001,-100.200072861,108,"40906 ROAD 768, GOTHENBURG, NE, 69138","Match","Exact","40906 RD 768, GOTHENBURG, NE, 69138",651347804,"R"
202609,"4091 BARBERS POINTE","NEW HAVEN","IN",46774,41.04891759,-85.024539541,109,"4091 BARBERS POINTE, NEW HAVEN, IN, 46774","Match","Exact","4091 BARBERS POINTE, NEW HAVEN, IN, 46774",606527647,"L"
202610,"4091 BONITA VIEW DRIVE","BONITA","CA",91902,32.6664377340001,-117.018827405,110,"4091 BONITA VIEW DRIVE, BONITA, CA, 91902","Match","Exact","4091 BONITA VIEW DR, BONITA, CA, 91902",195361735,"L"
202611,"4091 C-L SCHOOL ROAD","STRATTANVILLE","PA",16258,41.184830011,-79.2756675109999,111,"4091 C-L SCHOOL ROAD, STRATTANVILLE, PA, 16258","Match","Non_Exact","4091 C L SCHOOL RD, STRATTANVILLE, PA, 16258",66232493,"L"
202612,"4091 CLOUD SPRINGS RD","RINGGOLD","GA",30736,NA,NA,112,"4091 CLOUD SPRINGS RD, RINGGOLD, GA, 30736","No_Match",NA,NA,NA,NA
202613,"4091 CLYDE COURT","SACRAMENTO","CA",95819,38.5825703890001,-121.444853754,113,"4091 CLYDE COURT, SACRAMENTO, CA, 95819","Match","Exact","4091 CLYDE CT, SACRAMENTO, CA, 95819",133334620,"L"
202614,"4091 E 106TH STREET","CLEVELAND","OH",44105,41.447144822,-81.610971594,114,"4091 E 106TH STREET, CLEVELAND, OH, 44105","Match","Exact","4091 E 106TH ST, CLEVELAND, OH, 44105",61126341,"L"
202615,"4091 FAIRWAY DRIVE","LEWISTON","ID",83501,46.3695545890001,-117.041699429,115,"4091 FAIRWAY DRIVE, LEWISTON, ID, 83501","Match","Exact","4091 FAIRWAY DR, LEWISTON, ID, 83501",173150696,"R"
202616,"4091 FINNEY  APT 208","ST LOUIS","MO",63113,38.6486462930001,-90.2394228909999,116,"4091 FINNEY  APT 208, ST LOUIS, MO, 63113","Match","Non_Exact","4091 FINNEY AVE, SAINT LOUIS, MO, 63113",107597511,"R"
202617,"4091 LYNDON SALEM RD","SOUTH SALEM","OH",45681,39.3521119600001,-83.311363951,117,"4091 LYNDON SALEM RD, SOUTH SALEM, OH, 45681","Match","Exact","4091 LYNDON SALEM RD, SOUTH SALEM, OH, 45681",37488728,"L"
202618,"4091 W LAKE ECHO RD","TUCSON","AZ",85742,32.381365524,-111.05300423,118,"4091 W LAKE ECHO RD, TUCSON, AZ, 85742","Match","Exact","4091 W LAKE ECHO RD, TUCSON, AZ, 85742",121384465,"R"
202619,"40910 NORTH PERRY ROAD","DEER PARK","WA",99006,48.0265592750001,-117.392969255,119,"40910 NORTH PERRY ROAD, DEER PARK, WA, 99006","Match","Exact","40910 N PERRY RD, DEER PARK, WA, 99006",189847356,"R"
202620,"4092 INDIAN CAMP TRAIL","HOWELL","MI",48855,42.661490498,-83.9746592499999,120,"4092 INDIAN CAMP TRAIL, HOWELL, MI, 48855","Match","Exact","4092 INDIAN CAMP TRL, HOWELL, MI, 48855",23540185,"R"
202621,"4092 KENESAW DR","LEXINGTON","KY",40515,37.9546517850001,-84.486966126,121,"4092 KENESAW DR, LEXINGTON, KY, 40515","Match","Exact","4092 KENESAW DR, LEXINGTON, KY, 40515",31943395,"L"
202622,"4092 LOCERBIE CIRCLE","SPRING HILL","TN",37174,35.75492953,-86.8727255919999,122,"4092 LOCERBIE CIRCLE, SPRING HILL, TN, 37174","Match","Exact","4092 LOCERBIE CIR, SPRING HILL, TN, 37174",625628867,"R"
202623,"4092 LONG POINT BLVD","PORTSMOUTH","VA",23703,36.888666243,-76.403471203,123,"4092 LONG POINT BLVD, PORTSMOUTH, VA, 23703","Match","Exact","4092 LONG POINT BLVD, PORTSMOUTH, VA, 23703",122197706,"L"
202624,"4092 TREAT BLVD","CONCORD","CA",94518,37.952527751,-122.004792602,124,"4092 TREAT BLVD, CONCORD, CA, 94518","Match","Exact","4092 TREAT BLVD, CONCORD, CA, 94518",635935952,"R"
202625,"4092 WEST CARPENTER ROAD","FLINT","MI",48504,43.07533256,-83.757378084,125,"4092 WEST CARPENTER ROAD, FLINT, MI, 48504","Match","Exact","4092 W CARPENTER RD, FLINT, MI, 48504",628727931,"R"
202626,"40924 FIELDSPRING ST","LAKE LOS ANGELES","CA",93535,34.6264379030001,-117.834668409,126,"40924 FIELDSPRING ST, LAKE LOS ANGELES, CA, 93535","Match","Exact","40924 FIELDSPRING ST, LAKE LOS ANGELES, CA, 93535",141843969,"L"
202627,"4093 ARCHER DR","MEMPHIS","TN",38109,35.0369122450001,-90.0962289669999,127,"4093 ARCHER DR, MEMPHIS, TN, 38109","Match","Exact","4093 ARCHER DR, MEMPHIS, TN, 38109",72906575,"R"
202628,"4093 ELAINE PARK DR","COLUMBUS","OH",43227,39.9379849700001,-82.885135519,128,"4093 ELAINE PARK DR, COLUMBUS, OH, 43227","Match","Exact","4093 ELAINE PARK DR, COLUMBUS, OH, 43227",218636909,"R"
202629,"4093 GREEN VALLEY ROAD","CIBOLO","TX",78108,29.604221121,-98.22204055,129,"4093 GREEN VALLEY ROAD, CIBOLO, TX, 78108","Match","Exact","4093 GREEN VALLEY RD, CIBOLO, TX, 78108",647088457,"L"
202630,"4093 NATIONAL PIKE","GRANTSVILLE","MD",21536,39.6946611720001,-79.2460485519999,130,"4093 NATIONAL PIKE, GRANTSVILLE, MD, 21536","Match","Exact","4093 NATIONAL PIKE, GRANTSVILLE, MD, 21536",74195117,"L"
202631,"4093 OPOSSUM RD","GERMATOWN","KY",41044,NA,NA,131,"4093 OPOSSUM RD, GERMATOWN, KY, 41044","No_Match",NA,NA,NA,NA
202632,"40930 RIOJA CT","FREMONT","CA",94539,37.5411187930001,-121.952047899,132,"40930 RIOJA CT, FREMONT, CA, 94539","Match","Exact","40930 RIOJA CT, FREMONT, CA, 94539",125042429,"L"
202633,"40937 MOUNT ZION RD","BROOKSHIRE","TX",77423,NA,NA,133,"40937 MOUNT ZION RD, BROOKSHIRE, TX, 77423","No_Match",NA,NA,NA,NA
202634,"40939 16TH STREET WEST","PALMDALE","CA",93551,34.626240318,-118.158745525,134,"40939 16TH STREET WEST, PALMDALE, CA, 93551","Match","Exact","40939 16TH ST W, PALMDALE, CA, 93551",141527158,"R"
202635,"4094 290TH AVENUE","LANCASTER","MN",56735,48.9915600210001,-96.824255314,135,"4094 290TH AVENUE, LANCASTER, MN, 56735","Match","Exact","4094 290TH AVE, LANCASTER, MN, 56735",196042855,"L"
202636,"4094 N 1000 W","THORNTOWN","IN",46071,40.0986901140001,-86.657476459,136,"4094 N 1000 W, THORNTOWN, IN, 46071","Match","Exact","4094 N 1000 W, THORNTOWN, IN, 46071",610991298,"L"
202637,"4094 SHELLMAN ST","ORLANDO","FL",32811,28.5245067450001,-81.427996733,137,"4094 SHELLMAN ST, ORLANDO, FL, 32811","Match","Exact","4094 SHELLMAN ST, ORLANDO, FL, 32811",94273663,"L"
202638,"4094 SULLIVANT AVENUE","COLUMBUS","OH",43228,39.9419675870001,-83.108277135,138,"4094 SULLIVANT AVENUE, COLUMBUS, OH, 43228","Match","Exact","4094 SULLIVANT AVE, COLUMBUS, OH, 43228",135775836,"R"
202639,"40940 CANTO PL","FREMONT","CA",94539,37.5457290850001,-121.947631652,139,"40940 CANTO PL, FREMONT, CA, 94539","Match","Exact","40940 CANTO PL, FREMONT, CA, 94539",125033258,"L"
202640,"40941 S CR 4500","MCCURTAIN","OK",74944,35.1250727600001,-95.016026756,140,"40941 S CR 4500, MCCURTAIN, OK, 74944","Match","Exact","40941 S CR 4500, MCCURTAIN, OK, 74944",80572594,"L"
202641,"40943 ABUELO WAY","FREMONT","CA",94539,37.55230593,-121.940869948,141,"40943 ABUELO WAY, FREMONT, CA, 94539","Match","Exact","40943 ABUELO WAY, FREMONT, CA, 94539",125033453,"R"
202642,"4095 AMERICAN WAY","MEMPHIS","TN",38118,35.076205488,-89.92692332,142,"4095 AMERICAN WAY, MEMPHIS, TN, 38118","Match","Exact","4095 AMERICAN WAY, MEMPHIS, TN, 38118",607451690,"R"
202643,"4095 BLUEBIRD ROAD","MARIETTA","OK",73448,34.0111915470001,-97.116532843,143,"4095 BLUEBIRD ROAD, MARIETTA, OK, 73448","Match","Non_Exact","4095 BLUEBIRD LN, MARIETTA, OK, 73448",633129089,"R"
202644,"4095 CAROLWOOD DRIVE","MELBOURNE","FL",32934,28.139135099,-80.691566048,144,"4095 CAROLWOOD DRIVE, MELBOURNE, FL, 32934","Match","Exact","4095 CAROLWOOD DR, MELBOURNE, FL, 32934",93933490,"L"
202645,"4095 CONTINENTAL DRIVE","HARRISBURG","PA",17112,40.349338452,-76.8422079599999,145,"4095 CONTINENTAL DRIVE, HARRISBURG, PA, 17112","Match","Exact","4095 CONTINENTAL DR, HARRISBURG, PA, 17112",648395749,"R"
202646,"4095 FERRY ROAD","DOYLESTOWN","PA",18902,NA,NA,146,"4095 FERRY ROAD, DOYLESTOWN, PA, 18902","No_Match",NA,NA,NA,NA
202647,"4095 HOWARD DRIVE","NICEVILLE","FL",32578,30.531214391,-86.451783231,147,"4095 HOWARD DRIVE, NICEVILLE, FL, 32578","Match","Exact","4095 HOWARD DR, NICEVILLE, FL, 32578",74409138,"R"
202648,"4095 LAUREL FALLS DRIVE","SNELLVILLE","GA",30039,33.7991646400001,-84.035754877,148,"4095 LAUREL FALLS DRIVE, SNELLVILLE, GA, 30039","Match","Exact","4095 LAUREL FALLS DR, SNELLVILLE, GA, 30039",645866489,"L"
202649,"4095 LEMON STREET 2ND FLOOR","RIVERSIDE","CA",92501,33.9780703800001,-117.373989825,149,"4095 LEMON STREET 2ND FLOOR, RIVERSIDE, CA, 92501","Match","Exact","4095 LEMON ST, RIVERSIDE, CA, 92501",637765124,"R"
202650,"4095 NORTH HIGHWAY DRIVE","TUCSON","AZ",85705,32.2808676760001,-111.015900124,150,"4095 NORTH HIGHWAY DRIVE, TUCSON, AZ, 85705","Match","Exact","4095 N HIGHWAY DR, TUCSON, AZ, 85705",121229140,"L"
202651,"4095 OCEANSIDE BLVD SUITE G","OCEANSIDE","CA",92056,33.206373145,-117.287914247,151,"4095 OCEANSIDE BLVD SUITE G, OCEANSIDE, CA, 92056","Match","Exact","4095 OCEANSIDE BLVD, OCEANSIDE, CA, 92056",195750707,"R"
202652,"4095 SHERIDAN DR","VIENNA","OH",44473,41.2249532430001,-80.6684358699999,152,"4095 SHERIDAN DR, VIENNA, OH, 44473","Match","Exact","4095 SHERIDAN DR, VIENNA, OH, 44473",117416648,"R"
202653,"4095 SOUTH AVE W","MISSOULA","MT",59804,46.8487448230001,-114.080928158,153,"4095 SOUTH AVE W, MISSOULA, MT, 59804","Match","Exact","4095 SOUTH AVE W, MISSOULA, MT, 59804",636326009,"L"
202654,"4095 SOUTH AVENUE WEST","MISSOULA","MT",59804,46.8487448230001,-114.080928158,154,"4095 SOUTH AVENUE WEST, MISSOULA, MT, 59804","Match","Exact","4095 SOUTH AVE W, MISSOULA, MT, 59804",636326009,"L"
202655,"4095 STATE ROAD 7 SUITE L-125","WELLINGTON","FL",33449,NA,NA,155,"4095 STATE ROAD 7 SUITE L-125, WELLINGTON, FL, 33449","No_Match",NA,NA,NA,NA
202656,"4095 STONEWALL TELL ROAD","COLLEGE PARK","GA",30349,33.64452119,-84.589547913,156,"4095 STONEWALL TELL ROAD, COLLEGE PARK, GA, 30349","Match","Exact","4095 STONEWALL TELL RD, COLLEGE PARK, GA, 30349",17332350,"R"
202657,"4095 W 500 N","VERNAL","UT",84078,40.4626332350001,-109.606254745,157,"4095 W 500 N, VERNAL, UT, 84078","Match","Exact","4095 W 500 N, VERNAL, UT, 84078",625702390,"R"
202658,"4095 WHITE STREET","GRANDVILLE","MI",49418,42.911753972,-85.764570734,158,"4095 WHITE STREET, GRANDVILLE, MI, 49418","Match","Non_Exact","4095 WHITE ST SW, GRANDVILLE, MI, 49418",12452844,"R"
202659,"4095 WOODCROFT","WHITE LAKE","MI",48383,42.6638503710001,-83.557921231,159,"4095 WOODCROFT, WHITE LAKE, MI, 48383","Match","Exact","4095 WOODCROFT, WHITE LAKE, MI, 48383",636250698,"L"
202660,"40950 WOODWARD AVENUE SUITE 303","BLOOMFIELD HILLS","MI",48304,42.5880725470001,-83.248372494,160,"40950 WOODWARD AVENUE SUITE 303, BLOOMFIELD HILLS, MI, 48304","Match","Exact","40950 WOODWARD AVE, BLOOMFIELD HILLS, MI, 48304",647549234,"R"
202661,"40952 GRIFFIN DR","OAKHURST","CA",93644,37.3433106470001,-119.71218842,161,"40952 GRIFFIN DR, OAKHURST, CA, 93644","Match","Exact","40952 GRIFFIN DR, OAKHURST, CA, 93644",102328183,"L"
202662,"40953 SYCAMORE CREEK LANE","LOVETTSVILLE","VA",20180,39.2724922950001,-77.5825578659999,162,"40953 SYCAMORE CREEK LANE, LOVETTSVILLE, VA, 20180","Match","Exact","40953 SYCAMORE CREEK LN, LOVETTSVILLE, VA, 20180",218927937,"R"
202663,"40955 N SPUR CROSS ROAD","CAVE CREEK","AZ",85331,33.8556009970001,-111.958085348,163,"40955 N SPUR CROSS ROAD, CAVE CREEK, AZ, 85331","Match","Exact","40955 N SPUR CROSS RD, CAVE CREEK, AZ, 85331",128144060,"R"
202664,"4096 GREENVALE DR","SOUTH EUCLID","OH",44121,41.5389259020001,-81.532354826,164,"4096 GREENVALE DR, SOUTH EUCLID, OH, 44121","Match","Non_Exact","4096 GREENVALE RD, SOUTH EUCLID, OH, 44121",61124612,"R"
202665,"4096 PIEDMONT AVE SUITE 332","OAKLAND","CA",94611,37.8266217140001,-122.252107185,165,"4096 PIEDMONT AVE SUITE 332, OAKLAND, CA, 94611","Match","Non_Exact","4096 PIEDMONT, OAKLAND, CA, 94611",606210595,"R"
202666,"40960 CALIFORNIA OAKS RD 222","MURRIETA","CA",92562,33.567659528,-117.205889607,166,"40960 CALIFORNIA OAKS RD 222, MURRIETA, CA, 92562","Match","Exact","40960 CALIFORNIA OAKS RD, MURRIETA, CA, 92562",652186576,"R"
202667,"40969 FERREIRA PL","FREMONT","CA",94539,37.5503059930001,-121.941761907,167,"40969 FERREIRA PL, FREMONT, CA, 94539","Match","Exact","40969 FERREIRA PL, FREMONT, CA, 94539",125033457,"R"
202668,"4097 11TH ST NW","ALBUQUERQUE","NM",87107,35.126513227,-106.651676059,168,"4097 11TH ST NW, ALBUQUERQUE, NM, 87107","Match","Exact","4097 11TH ST NW, ALBUQUERQUE, NM, 87107",206702563,"L"
202669,"4097 CREEK WAY APT A","INDIANAPOLIS","IN",46227,39.7062981930001,-86.111152116,169,"4097 CREEK WAY APT A, INDIANAPOLIS, IN, 46227","Match","Exact","4097 CREEK WAY, INDIANAPOLIS, IN, 46227",108065007,"L"
202670,"4097 DARTFORD ROAD","SOUTH EUCLID","OH",44121,41.542170163,-81.533243802,170,"4097 DARTFORD ROAD, SOUTH EUCLID, OH, 44121","Match","Exact","4097 DARTFORD RD, SOUTH EUCLID, OH, 44121",61124608,"L"
202671,"4097 ISOLA DRIVE","FREMONT","CA",94555,37.5809651650001,-122.056734913,171,"4097 ISOLA DRIVE, FREMONT, CA, 94555","Match","Exact","4097 ISOLA DR, FREMONT, CA, 94555",125025074,"R"
202672,"4097 TRAIL CREEK RD","RIVERSIDE","CA",92505,NA,NA,172,"4097 TRAIL CREEK RD, RIVERSIDE, CA, 92505","No_Match",NA,NA,NA,NA
202673,"40979 FREMONT BLVD","FREMONT","CA",94538,37.53316411,-121.959629724,173,"40979 FREMONT BLVD, FREMONT, CA, 94538","Match","Exact","40979 FREMONT BLVD, FREMONT, CA, 94538",125067653,"R"
202674,"4098 DERRY STREET","HARRISBURG","PA",17111,40.2577537180001,-76.81308188,174,"4098 DERRY STREET, HARRISBURG, PA, 17111","Match","Exact","4098 DERRY ST, HARRISBURG, PA, 17111",70822554,"L"
202675,"4098 LAKESHORE DRIVE","LITTLE RIVER","SC",29566,33.8664722290001,-78.64707666,175,"4098 LAKESHORE DRIVE, LITTLE RIVER, SC, 29566","Match","Non_Exact","4098 LAKE SHORE DR, LITTLE RIVER, SC, 29566",29105552,"L"
202676,"4098 SCHNEIDERS CROSSING ROAD","DOVER","OH",44622,40.547753281,-81.535413735,176,"4098 SCHNEIDERS CROSSING ROAD, DOVER, OH, 44622","Match","Non_Exact","4098 SCHNEIDERS CROSSING RD NW, DOVER, OH, 44622",612295602,"L"
202677,"4098 WILLEY DRIVE","TOWNSEND","DE",19734,39.391105435,-75.662997167,177,"4098 WILLEY DRIVE, TOWNSEND, DE, 19734","Match","Exact","4098 WILLEY DR, TOWNSEND, DE, 19734",187300802,"L"
202678,"40984 LAKE AND BRETON VIEW DR","LEONARDTOWN","MD",20650,NA,NA,178,"40984 LAKE AND BRETON VIEW DR, LEONARDTOWN, MD, 20650","No_Match",NA,NA,NA,NA
202679,"4099 BURNAGE HALL ROAD","HARRISBURG","NC",28075,35.298299619,-80.640915464,179,"4099 BURNAGE HALL ROAD, HARRISBURG, NC, 28075","Match","Exact","4099 BURNAGE HALL RD, HARRISBURG, NC, 28075",640213207,"L"
202680,"4099 MAIN STREET","AMHERST","NY",14226,42.9643427760001,-78.7981436709999,180,"4099 MAIN STREET, AMHERST, NY, 14226","Match","Exact","4099 MAIN ST, AMHERST, NY, 14226",48295787,"R"
202681,"4099 RANDOLPH SUMMER SHADE ROAD","SUMMER SHADE","KY",42166,36.94020067,-85.728857736,181,"4099 RANDOLPH SUMMER SHADE ROAD, SUMMER SHADE, KY, 42166","Match","Exact","4099 RANDOLPH SUMMER SHADE RD, SUMMER SHADE, KY, 42166",69355611,"L"
202682,"4099 W CAMP WISDOM RD","DALLAS","TX",75237,NA,NA,182,"4099 W CAMP WISDOM RD, DALLAS, TX, 75237","No_Match",NA,NA,NA,NA
202683,"4099 WILLIAM PENN HIGHWAY","MIFFLINTOWN","PA",17059,40.5595706490001,-77.3877920859999,183,"4099 WILLIAM PENN HIGHWAY, MIFFLINTOWN, PA, 17059","Match","Exact","4099 WILLIAM PENN HWY, MIFFLINTOWN, PA, 17059",637682231,"R"
202684,"40A CRYSTAL BROOK WAY","MARLBORO","MA",1752,NA,NA,184,"40A CRYSTAL BROOK WAY, MARLBORO, MA, 1752","No_Match",NA,NA,NA,NA
202685,"40A MARBLE LOOP","STATEN ISLAND","NY",10309,40.537273069,-74.238770083,185,"40A MARBLE LOOP, STATEN ISLAND, NY, 10309","Match","Exact","40 MARBLE LOOP, STATEN ISLAND, NY, 10309",649232928,"L"
202686,"40A MEYERHOFF PL","ORADELL","NJ",7649,40.9433136820001,-74.0298185839999,186,"40A MEYERHOFF PL, ORADELL, NJ, 7649","Match","Exact","40 MEYERHOFF PL, ORADELL, NJ, 07649",64427192,"L"
202687,"40E MAIN ST 595","NEWARK","DE",17911,NA,NA,187,"40E MAIN ST 595, NEWARK, DE, 17911","No_Match",NA,NA,NA,NA
202688,"40N MAIN STREET AT 2B","MILLTOWN","NJ",8850,NA,NA,188,"40N MAIN STREET AT 2B, MILLTOWN, NJ, 8850","Tie",NA,NA,NA,NA
202689,"40W644 STONECREST DR","ELGIN","IL",60124,42.0327650450001,-88.408226959,189,"40W644 STONECREST DR, ELGIN, IL, 60124","Match","Exact","40W644 STONECREST DR, ELGIN, IL, 60124",119582352,"L"
202690,"40W694 BLUE LAKE CIRCLE","SAINT CHARLES","IL",60175,41.93618946,-88.405964083,190,"40W694 BLUE LAKE CIRCLE, SAINT CHARLES, IL, 60175","Match","Exact","40W694 BLUE LAKE CIR, SAINT CHARLES, IL, 60175",635448256,"R"
202691,"41 1/2 KERNWOOD AVE","HAVERHILL","MA",1830,42.805705033,-71.0916392359999,191,"41 1/2 KERNWOOD AVE, HAVERHILL, MA, 1830","Match","Exact","41 KERNWOOD AVE, HAVERHILL, MA, 01830",86666041,"R"
202692,"41 25 77 STREET","ELMHURST","NY",11373,NA,NA,192,"41 25 77 STREET, ELMHURST, NY, 11373","No_Match",NA,NA,NA,NA
202693,"41 25TH AVENUE","ISLE OF PALMS","SC",29451,32.7957169150001,-79.781204045,193,"41 25TH AVENUE, ISLE OF PALMS, SC, 29451","Match","Exact","41 25TH AVE, ISLE OF PALMS, SC, 29451",108810207,"L"
202694,"41 4TH LN NW","FAIRFIELD","MT",59436,NA,NA,194,"41 4TH LN NW, FAIRFIELD, MT, 59436","Tie",NA,NA,NA,NA
202695,"41 7TH AVE SOUTH G/F","NEW YORK","NY",10014,40.731052957,-74.0042565109999,195,"41 7TH AVE SOUTH G/F, NEW YORK, NY, 10014","Match","Exact","41 7TH AVE S, NEW YORK, NY, 10014",59663803,"R"
202696,"41 ABERDEEN STREET","STAMFORD","CT",6902,41.0471073730001,-73.5593429959999,196,"41 ABERDEEN STREET, STAMFORD, CT, 6902","Match","Exact","41 ABERDEEN ST, STAMFORD, CT, 06902",3244860,"R"
202697,"41 ANDOVER DR","KENDALL PARK","NJ",8824,40.402522634,-74.580594511,197,"41 ANDOVER DR, KENDALL PARK, NJ, 8824","Match","Exact","41 ANDOVER DR, KENDALL PARK, NJ, 08824",628753722,"L"
202698,"41 ANGELL AVENUE","NORTH PROVIDENCE","RI",2911,41.8569801370001,-71.478146494,198,"41 ANGELL AVENUE, NORTH PROVIDENCE, RI, 2911","Match","Exact","41 ANGELL AVE, N PROVIDENCE, RI, 02911",47485056,"R"
202699,"41 ANIL","RANCHO STA MARGARITA","CA",92688,33.6460702260001,-117.593020238,199,"41 ANIL, RANCHO STA MARGARITA, CA, 92688","Match","Exact","41 ANIL, RANCHO SANTA MARGARITA, CA, 92688",144379319,"L"
202700,"41 ARGYLE STREET","HARRISBURG","PA",17104,40.258561634,-76.8645822079999,200,"41 ARGYLE STREET, HARRISBURG, PA, 17104","Match","Exact","41 ARGYLE ST, HARRISBURG, PA, 17104",70818947,"L"
202701,"41 BACON STREET","NATICK","MA",1760,42.294576276,-71.327422892,201,"41 BACON STREET, NATICK, MA, 1760","Match","Exact","41 BACON ST, NATICK, MA, 01760",86852712,"R"
202702,"41 BARBARA DRIVE","COVENTRY","CT",6238,41.820062949,-72.360918982,202,"41 BARBARA DRIVE, COVENTRY, CT, 6238","Match","Exact","41 BARBARA DR, COVENTRY, CT, 06238",624024765,"L"
202703,"41 BEACH PLUM CIRCLE","EAST HARWICH","MA",2645,41.704087353,-70.044511041,203,"41 BEACH PLUM CIRCLE, EAST HARWICH, MA, 2645","Match","Exact","41 BEACH PLUM CIR, EAST HARWICH, MA, 02645",121567485,"L"
202704,"41 BEACON STREET APT 5","BOSTON","MA",2108,42.3569082990001,-71.066251987,204,"41 BEACON STREET APT 5, BOSTON, MA, 2108","Match","Exact","41 BEACON ST, BOSTON, MA, 02108",639000385,"R"
202705,"41 BEECH STREET","EAST ORANGE","NJ",7018,40.7582564320001,-74.215071527,205,"41 BEECH STREET, EAST ORANGE, NJ, 7018","Match","Exact","41 BEECH ST, EAST ORANGE, NJ, 07018",63450631,"L"
202706,"41 BERKSHIRE DR","SEWELL","NJ",8080,39.772577792,-75.083066678,206,"41 BERKSHIRE DR, SEWELL, NJ, 8080","Match","Exact","41 BERKSHIRE DR, SEWELL, NJ, 08080",134598490,"L"
202707,"41 BETHANY RD","SELBYVILLE","DE",19975,38.4599561630001,-75.216685967,207,"41 BETHANY RD, SELBYVILLE, DE, 19975","Match","Exact","41 BETHANY RD, SELBYVILLE, DE, 19975",106075541,"L"
202708,"41 BEVERLY RD","NEW HAVEN","CT",6515,41.3310146690001,-72.9796032369999,208,"41 BEVERLY RD, NEW HAVEN, CT, 6515","Match","Exact","41 BEVERLY RD, NEW HAVEN, CT, 06515",3697180,"R"
202709,"41 BIRCH AVENUE","PLAINFIELD","NJ",7062,40.642150171,-74.408267327,209,"41 BIRCH AVENUE, PLAINFIELD, NJ, 7062","Match","Exact","41 BIRCH AVE, PLAINFIELD, NJ, 07062",60567040,"L"
202710,"41 BOEHM WAY","HILLSBOROUGH","NJ",8844,40.471390193,-74.672026279,210,"41 BOEHM WAY, HILLSBOROUGH, NJ, 8844","Match","Exact","41 BOEHM WAY, HILLSBOROUGH, NJ, 08844",627510561,"L"
202711,"41 BOEHMWAY","HILLSBOROUGH","NJ",8844,NA,NA,211,"41 BOEHMWAY, HILLSBOROUGH, NJ, 8844","No_Match",NA,NA,NA,NA
202712,"41 BOMBAUGH RD","HALIFAX","PA",17032,40.489585004,-76.867787058,212,"41 BOMBAUGH RD, HALIFAX, PA, 17032","Match","Exact","41 BOMBAUGH RD, HALIFAX, PA, 17032",70813495,"R"
202713,"41 BRENA","IRVINE","CA",92620,33.723202572,-117.767565293,213,"41 BRENA, IRVINE, CA, 92620","Match","Exact","41 BRENA, IRVINE, CA, 92620",144057531,"L"
202714,"41 BREWSTER DRIVE","MIDDLETOWN","NY",10940,41.457832131,-74.4445983259999,214,"41 BREWSTER DRIVE, MIDDLETOWN, NY, 10940","Match","Exact","41 BREWSTER DR, MIDDLETOWN, NY, 10940",124388220,"L"
202715,"41 BRIARWOOD DRIVE","LANCASTER","NY",14086,42.889038924,-78.6783797149999,215,"41 BRIARWOOD DRIVE, LANCASTER, NY, 14086","Match","Exact","41 BRIARWOOD DR, LANCASTER, NY, 14086",48308461,"R"
202716,"41 BRIDLE PATH RD","LYNN","MA",1904,42.5023844890001,-70.9901478789999,216,"41 BRIDLE PATH RD, LYNN, MA, 1904","Match","Exact","41 BRIDLE PATH RD, LYNN, MA, 01904",624039080,"R"
202717,"41 BROADVIEW AVENUE","MAPLEWOOD","NJ",7040,40.7216352120001,-74.276290632,217,"41 BROADVIEW AVENUE, MAPLEWOOD, NJ, 7040","Match","Exact","41 BROADVIEW AVE, MAPLEWOOD, NJ, 07040",63495803,"L"
202718,"41 BROADWAY ST","LOWELL","MA",1854,42.643972257,-71.31571739,218,"41 BROADWAY ST, LOWELL, MA, 1854","Match","Exact","41 BROADWAY ST, LOWELL, MA, 01854",86878203,"R"
202719,"41 BROWNSVILLE-HARTLAND ROAD","BROWNSVILLE","VT",5037,43.4684887340001,-72.471244328,219,"41 BROWNSVILLE-HARTLAND ROAD, BROWNSVILLE, VT, 5037","Match","Non_Exact","41 BROWNSVILLE HARTLAND RD, BROWNSVILLE, VT, 05037",139243929,"L"
202720,"41 BRUNSWICK ST","ROCHESTER","NY",14607,43.1489712640001,-77.5734506379999,220,"41 BRUNSWICK ST, ROCHESTER, NY, 14607","Match","Exact","41 BRUNSWICK ST, ROCHESTER, NY, 14607",14541138,"R"
202721,"41 CADMAN AVENUE","BABYLON","NY",11702,40.70045373,-73.334692456,221,"41 CADMAN AVENUE, BABYLON, NY, 11702","Match","Exact","41 CADMAN AVE, BABYLON, NY, 11702",113978214,"R"
202722,"41 CASTLETON LN","MOORESTOWN","NJ",8057,39.980145314,-74.920643217,222,"41 CASTLETON LN, MOORESTOWN, NJ, 8057","Match","Exact","41 CASTLETON LN, MOORESTOWN, NJ, 08057",647267541,"R"
202723,"41 CHARLES STREET","HICKSVILLE","NY",11801,40.7667868440001,-73.517377977,223,"41 CHARLES STREET, HICKSVILLE, NY, 11801","Match","Exact","41 CHARLES ST, HICKSVILLE, NY, 11801",147641327,"R"
202724,"41 CHARRON ST","BRIDGEPORT","CT",6606,41.2175177840001,-73.2120803619999,224,"41 CHARRON ST, BRIDGEPORT, CT, 6606","Match","Exact","41 CHARRON ST, BRIDGEPORT, CT, 06606",3222174,"L"
202725,"41 CHURCH ST RM 101","SHELTON","CT",6484,41.2935659670001,-73.145669229,225,"41 CHURCH ST RM 101, SHELTON, CT, 6484","Match","Exact","41 CHURCH ST, SHELTON, CT, 06484",3219086,"R"
202726,"41 CHURCH ST","TARIFFVILLE","CT",6081,41.907155951,-72.765323016,226,"41 CHURCH ST, TARIFFVILLE, CT, 6081","Match","Exact","41 CHURCH ST, TARIFFVILLE, CT, 06081",3479066,"R"
202727,"41 CHURCH STREET STE 21","HAYESVILLE","NC",28904,35.045877746,-83.817394236,227,"41 CHURCH STREET STE 21, HAYESVILLE, NC, 28904","Match","Exact","41 CHURCH ST, HAYESVILLE, NC, 28904",35930952,"L"
202728,"41 CLARENDON AVENUE","BROCKTON","MA",2301,42.0685211320001,-71.0526503729999,228,"41 CLARENDON AVENUE, BROCKTON, MA, 2301","Match","Exact","41 CLARENDON AVE, BROCKTON, MA, 02301",640122956,"R"
202729,"41 CLOVE ROAD","SALISBURY MILLS","NY",12577,41.4293064460001,-74.1192022239999,229,"41 CLOVE ROAD, SALISBURY MILLS, NY, 12577","Match","Exact","41 CLOVE RD, SALISBURY MILLS, NY, 12577",124440682,"R"
202730,"41 COMMERCE CT","NEWINGTON","CT",6111,41.706459517,-72.7488788539999,230,"41 COMMERCE CT, NEWINGTON, CT, 6111","Match","Exact","41 COMMERCE CT, NEWINGTON, CT, 06111",3535423,"R"
202731,"41 COOK STATION RD","COOK STATION","MO",65449,37.8133025390001,-91.437889191,231,"41 COOK STATION RD, COOK STATION, MO, 65449","Match","Exact","41 COOK STATION RD, COOK STA, MO, 65449",45141463,"R"
202732,"41 COTTAGE STREET","WELLESLEY","MA",2482,42.2902169700001,-71.2925302,232,"41 COTTAGE STREET, WELLESLEY, MA, 2482","Match","Exact","41 COTTAGE ST, WELLESLEY, MA, 02482",87237012,"R"
202733,"41 COVINGTON CIRCLE","CRAWFORDVILLE","FL",32327,30.177843237,-84.3771871389999,233,"41 COVINGTON CIRCLE, CRAWFORDVILLE, FL, 32327","Match","Exact","41 COVINGTON CIR, CRAWFORDVILLE, FL, 32327",624110976,"L"
202734,"41 CRAWFORD STREET","WATERTOWN","MA",2472,42.368380232,-71.15520681,234,"41 CRAWFORD STREET, WATERTOWN, MA, 2472","Match","Exact","41 CRAWFORD ST, WATERTOWN, MA, 02472",86867548,"R"
202735,"41 CROSWELL ROAD         SUITE B","COLUMBUS","OH",43214,40.045847118,-83.0207693519999,235,"41 CROSWELL ROAD         SUITE B, COLUMBUS, OH, 43214","Match","Exact","41 CROSWELL RD, COLUMBUS, OH, 43214",218693493,"L"
202736,"41 CUSTIS AVENUE","NORTH WHITE PLAINS","NY",10603,41.061881359,-73.770179964,236,"41 CUSTIS AVENUE, NORTH WHITE PLAINS, NY, 10603","Match","Exact","41 CUSTIS AVE, N WHITE PLAINS, NY, 10603",139841061,"L"
202737,"41 DAMON COURT","WINCHESTER","KY",40391,37.9683891660001,-84.21575158,237,"41 DAMON COURT, WINCHESTER, KY, 40391","Match","Exact","41 DAMON CT, WINCHESTER, KY, 40391",31790472,"R"
202738,"41 DAMON ROAD","SCITUATE","MA",2066,42.206331284,-70.727501983,238,"41 DAMON ROAD, SCITUATE, MA, 2066","Match","Exact","41 DAMON RD, SCITUATE, MA, 02066",87433114,"R"
202739,"41 DECATUR AVE SUITE 102","SPRING VALLEY","NY",10977,41.1130679070001,-74.0539206449999,239,"41 DECATUR AVE SUITE 102, SPRING VALLEY, NY, 10977","Match","Exact","41 DECATUR AVE, SPRING VALLEY, NY, 10977",650188131,"L"
202740,"41 DENMARK STREET","WORCESTER","MA",1605,42.2836869670001,-71.787450704,240,"41 DENMARK STREET, WORCESTER, MA, 1605","Match","Exact","41 DENMARK ST, WORCESTER, MA, 01605",40010665,"L"
202741,"41 DIMSDALE DR","SCARSDALE","NY",10583,40.9809737750001,-73.822232215,241,"41 DIMSDALE DR, SCARSDALE, NY, 10583","Match","Exact","41 DIMSDALE DR, SCARSDALE, NY, 10583",139739516,"L"
202742,"41 DONCURT RD","LAUREL","MS",39440,31.661176562,-89.1550594569999,242,"41 DONCURT RD, LAUREL, MS, 39440","Match","Non_Exact","41 DON CURT RD, LAUREL, MS, 39440",413420,"R"
202743,"41 DYNASTY LANE","HIRAM","GA",30141,33.875326541,-84.783374183,243,"41 DYNASTY LANE, HIRAM, GA, 30141","Match","Exact","41 DYNASTY LN, HIRAM, GA, 30141",618964696,"L"
202744,"41 E  STATE RD  356  SUITE B","SCOTTSBURG","IN",47170,38.6489282680001,-85.770983201,244,"41 E  STATE RD  356  SUITE B, SCOTTSBURG, IN, 47170","Match","Non_Exact","41 E STATE RD 356, SCOTTSBURG, IN, 47170",31603117,"L"
202745,"41 E BALBOA DR","TEMPE","AZ",85282,33.399324762,-111.939039086,245,"41 E BALBOA DR, TEMPE, AZ, 85282","Match","Exact","41 E BALBOA DR, TEMPE, AZ, 85282",128227380,"R"
202746,"41 E BALTIMORE AVENUE","LANSDOWNE","PA",19050,39.9386458130001,-75.270125024,246,"41 E BALTIMORE AVENUE, LANSDOWNE, PA, 19050","Match","Exact","41 E BALTIMORE AVE, LANSDOWNE, PA, 19050",134878031,"L"
202747,"41 E ERIE ST","PAINESVILLE","OH",44077,41.7256719490001,-81.245996904,247,"41 E ERIE ST, PAINESVILLE, OH, 44077","Match","Exact","41 E ERIE ST, PAINESVILLE, OH, 44077",638640420,"L"
202748,"41 E FOOTHILL BLVD SUITE 102","ARCADIA","CA",91006,NA,NA,248,"41 E FOOTHILL BLVD SUITE 102, ARCADIA, CA, 91006","Tie",NA,NA,NA,NA
202749,"41 E YPSILANTI AVE","PONTIAC","MI",48340,42.6718152880001,-83.2989205279999,249,"41 E YPSILANTI AVE, PONTIAC, MI, 48340","Match","Exact","41 E YPSILANTI AVE, PONTIAC, MI, 48340",69704489,"L"
202750,"41 EAST 8TH ST SUITE 1405","CHICAGO","IL",60605,41.871820825,-87.626714159,250,"41 EAST 8TH ST SUITE 1405, CHICAGO, IL, 60605","Match","Exact","41 E 8TH ST, CHICAGO, IL, 60605",111828873,"R"
202751,"41 EASTERN PARKWAY - 1B","BROOKLYN","NY",11238,40.6729518450001,-73.9669870829999,251,"41 EASTERN PARKWAY - 1B, BROOKLYN, NY, 11238","Match","Exact","41 EASTERN PKWY, BROOKLYN, NY, 11238",640853035,"R"
202752,"41 EASTERN PARKWAY 12B","BROOKLYN","NY",11238,40.6729518450001,-73.9669870829999,252,"41 EASTERN PARKWAY 12B, BROOKLYN, NY, 11238","Match","Exact","41 EASTERN PKWY, BROOKLYN, NY, 11238",640853035,"R"
202753,"41 EMERY WAY","DELANCO","NJ",8075,40.0471159590001,-74.944946095,253,"41 EMERY WAY, DELANCO, NJ, 8075","Match","Exact","41 EMERY WAY, DELANCO, NJ, 08075",617125109,"R"
202754,"41 ESTRELL DR","RIVERSIDE","RI",2915,41.773146167,-71.329765854,254,"41 ESTRELL DR, RIVERSIDE, RI, 2915","Match","Exact","41 ESTRELL DR, RIVERSIDE, RI, 02915",47476834,"R"
202755,"41 ETNA PLACE","NANUET","NY",10954,41.1201341,-74.0099991549999,255,"41 ETNA PLACE, NANUET, NY, 10954","Match","Exact","41 ETNA PL, NANUET, NY, 10954",124627579,"R"
202756,"41 EVERGREEN DRIVE","TAUNTON","MA",2780,41.923514805,-71.139591319,256,"41 EVERGREEN DRIVE, TAUNTON, MA, 2780","Match","Exact","41 EVERGREEN DR, TAUNTON, MA, 02780",46759402,"R"
202757,"41 FAIRWAY RD APT 1A","NEWARK","DE",19711,39.6929631680001,-75.7151432109999,257,"41 FAIRWAY RD APT 1A, NEWARK, DE, 19711","Match","Exact","41 FAIRWAY RD, NEWARK, DE, 19711",187264057,"R"
202758,"41 FECHTMAN RD","HAWKINSVILLE","GA",31036,NA,NA,258,"41 FECHTMAN RD, HAWKINSVILLE, GA, 31036","No_Match",NA,NA,NA,NA
202759,"41 FOWLER STREET","PORT JERVIS","NY",12771,41.373408269,-74.6889723319999,259,"41 FOWLER STREET, PORT JERVIS, NY, 12771","Match","Exact","41 FOWLER ST, PORT JERVIS, NY, 12771",124395712,"R"
202760,"41 FRANKEL RD","MASSAPEQUA","NY",11758,40.6625588810001,-73.4651689579999,260,"41 FRANKEL RD, MASSAPEQUA, NY, 11758","Match","Exact","41 FRANKEL RD, MASSAPEQUA, NY, 11758",147651853,"R"
202761,"41 GLEN OAK COURT","WESTMINSTER","MD",21158,39.5771072540001,-77.027313373,261,"41 GLEN OAK COURT, WESTMINSTER, MD, 21158","Match","Exact","41 GLEN OAK CT, WESTMINSTER, MD, 21158",61765446,"R"
202762,"41 GLENBROOK RD","MONSEY","NY",10952,41.1537126790001,-74.079745797,262,"41 GLENBROOK RD, MONSEY, NY, 10952","Match","Exact","41 GLENBROOK RD, MONSEY, NY, 10952",124592543,"R"
202763,"41 GRAHAM ROAD","BROADUS","MT",59317,45.2862234400001,-105.420367586,263,"41 GRAHAM ROAD, BROADUS, MT, 59317","Match","Exact","41 GRAHAM RD, BROADUS, MT, 59317",146886143,"L"
202764,"41 GRAND AVENUE SUITE 101","RIVER EDGE","NJ",7661,40.9108944550001,-74.037870337,264,"41 GRAND AVENUE SUITE 101, RIVER EDGE, NJ, 7661","Match","Exact","41 GRAND AVE, RIVER EDGE, NJ, 07661",639663215,"R"
202765,"41 GRAND PINE WAY","WESTPORT","MA",2790,41.632978591,-71.090130958,265,"41 GRAND PINE WAY, WESTPORT, MA, 2790","Match","Exact","41 GRAND PINE WAY, WESTPORT, MA, 02790",46762576,"R"
202766,"41 GREATE BAY DRIVE","SOMERS POINT","NJ",8244,39.3102055360001,-74.605104836,266,"41 GREATE BAY DRIVE, SOMERS POINT, NJ, 8244","Match","Exact","41 GREATE BAY DR, SOMERS POINT, NJ, 08244",202507062,"R"
202767,"41 GROVE AVE","EAST PROVIDENCE","RI",2914,41.8188776420001,-71.3754262479999,267,"41 GROVE AVE, EAST PROVIDENCE, RI, 2914","Match","Exact","41 GROVE AVE, E PROVIDENCE, RI, 02914",47484354,"R"
202768,"41 HALLMARK DRIVE","CHAPMANVILLE","WV",25508,37.969324059,-82.038657545,268,"41 HALLMARK DRIVE, CHAPMANVILLE, WV, 25508","Match","Exact","41 HALLMARK DR, CHAPMANVILLE, WV, 25508",78800989,"L"
202769,"41 HAMLIN RD","EDISON","NJ",8817,40.507979848,-74.424111704,269,"41 HAMLIN RD, EDISON, NJ, 8817","Match","Exact","41 HAMLIN RD, EDISON, NJ, 08817",60265531,"L"
202770,"41 HARBOUR POINT DR","CRAWFORDVILLE","FL",32327,30.065173083,-84.292441912,270,"41 HARBOUR POINT DR, CRAWFORDVILLE, FL, 32327","Match","Exact","41 HARBOUR POINT DR, CRAWFORDVILLE, FL, 32327",630971069,"R"
202771,"41 HARDITH HILL CT","ROCK HILL","MO",63119,38.6035327220001,-90.365504543,271,"41 HARDITH HILL CT, ROCK HILL, MO, 63119","Match","Non_Exact","41 HARDITH HILL CT, SAINT LOUIS, MO, 63119",100139939,"L"
202772,"41 HARRIS STREET","CARTERET","NJ",7008,40.5813235360001,-74.2208325779999,272,"41 HARRIS STREET, CARTERET, NJ, 7008","Match","Exact","41 HARRIS ST, CARTERET, NJ, 07008",60276939,"R"
202773,"41 HARVEST DRIVE","DUXBURY","MA",2332,42.020896458,-70.736556617,273,"41 HARVEST DRIVE, DUXBURY, MA, 2332","Match","Exact","41 HARVEST DR, DUXBURY, MA, 02332",87435625,"L"
202774,"41 HARVEY AVE","ROCHELLE PARK","NJ",7662,40.9154327800001,-74.0823589829999,274,"41 HARVEY AVE, ROCHELLE PARK, NJ, 7662","Match","Exact","41 HARVEY AVE, ROCHELLE PARK, NJ, 07662",64433916,"L"
202775,"41 HEALD STREET","PEPPERELL","MA",1463,42.669059324,-71.6089252209999,275,"41 HEALD STREET, PEPPERELL, MA, 1463","Match","Exact","41 HEALD ST, PEPPERELL, MA, 01463",87097948,"L"
202776,"41 HEART BUTTE RD","BROWNING","MT",59417,48.5409448130001,-113.011927991,276,"41 HEART BUTTE RD, BROWNING, MT, 59417","Match","Exact","41 HEART BUTTE RD, BROWNING, MT, 59417",607265265,"R"
202777,"41 HEMPSTEAD AVE","PITTSBURGH","PA",15229,40.5201082140001,-80.033735687,277,"41 HEMPSTEAD AVE, PITTSBURGH, PA, 15229","Match","Exact","41 HEMPSTEAD AVE, PITTSBURGH, PA, 15229",51620308,"L"
202778,"41 HENNESSEY AVE","BRUNSWICK","ME",4011,43.9094966490001,-69.977140651,278,"41 HENNESSEY AVE, BRUNSWICK, ME, 4011","Match","Exact","41 HENNESSEY AVE, BRUNSWICK, ME, 04011",78007545,"L"
202779,"41 HIGHLAND AVE","ELLINGTON","CT",6029,41.883950654,-72.457301103,279,"41 HIGHLAND AVE, ELLINGTON, CT, 6029","Match","Exact","41 HIGHLAND AVE, ELLINGTON, CT, 06029",646318865,"R"
202780,"41 HIGHLAND STREET","SOUTH HAMILTON","MA",1982,42.614995703,-70.8880334259999,280,"41 HIGHLAND STREET, SOUTH HAMILTON, MA, 1982","Match","Exact","41 HIGHLAND ST, SOUTH HAMILTON, MA, 01982",86691006,"R"
202781,"41 HILL STREET","BIDDEFORD","ME",4005,43.4913372300001,-70.451843982,281,"41 HILL STREET, BIDDEFORD, ME, 4005","Match","Exact","41 HILL ST, BIDDEFORD, ME, 04005",92741729,"R"
202782,"41 JENKS ST","AMHERST","MA",1002,42.3780606350001,-72.4788371829999,282,"41 JENKS ST, AMHERST, MA, 1002","Match","Exact","41 JENKS ST, AMHERST, MA, 01002",39858443,"L"
202783,"41 JOAN DR UNIT B","DENVER","CO",80221,39.838549808,-104.98541126,283,"41 JOAN DR UNIT B, DENVER, CO, 80221","Match","Exact","41 JOAN DR, DENVER, CO, 80221",177296841,"R"
202784,"41 JOHN STREET SUITE 3B","NEW YORK","NY",10038,40.709321511,-74.008111779,284,"41 JOHN STREET SUITE 3B, NEW YORK, NY, 10038","Match","Exact","41 JOHN ST, NEW YORK, NY, 10038",650147628,"L"
202785,"41 JOHNSON ST","ANSONIA","CT",6401,41.348453959,-73.077813495,285,"41 JOHNSON ST, ANSONIA, CT, 6401","Match","Exact","41 JOHNSON ST, ANSONIA, CT, 06401",3734398,"R"
202786,"41 JORDAN BLVD","DELMAR","NY",12054,42.6128640570001,-73.829197063,286,"41 JORDAN BLVD, DELMAR, NY, 12054","Match","Exact","41 JORDAN BLVD, DELMAR, NY, 12054",18309118,"R"
202787,"41 JUMPING BRANCH LANE","BREVARD","NC",28712,35.221361217,-82.734997645,287,"41 JUMPING BRANCH LANE, BREVARD, NC, 28712","Match","Exact","41 JUMPING BRANCH LN, BREVARD, NC, 28712",133742766,"L"
202788,"41 KAREN PLACE","BUDD LAKE","NJ",7828,40.877939172,-74.776945054,288,"41 KAREN PLACE, BUDD LAKE, NJ, 7828","Match","Exact","41 KAREN PL, BUDD LAKE, NJ, 07828",60430852,"R"
202789,"41 KIMBERLING CITY CENTER STE A","KIMBERLING CITY","MO",65686,36.6347829090001,-93.419872201,289,"41 KIMBERLING CITY CENTER STE A, KIMBERLING CITY, MO, 65686","Match","Non_Exact","41 KIMBERLING BLVD, KIMBERLING CITY, MO, 65686",64830125,"L"
202790,"41 KNOLL ROAD","PLYMOUTH","MA",2360,41.9300822180001,-70.718811079,290,"41 KNOLL ROAD, PLYMOUTH, MA, 2360","Match","Exact","41 KNOLL RD, PLYMOUTH, MA, 02360",87437463,"R"
202791,"41 LA VERNE AVE","LONG BEACH","CA",90803,33.755813694,-118.135664476,291,"41 LA VERNE AVE, LONG BEACH, CA, 90803","Match","Exact","41 LA VERNE AVE, LONG BEACH, CA, 90803",141702716,"L"
202792,"41 LABOR IN VAIN RD","IPSWICH","MA",1938,42.680589581,-70.8219884439999,292,"41 LABOR IN VAIN RD, IPSWICH, MA, 1938","Match","Exact","41 LABOR IN VAIN RD, IPSWICH, MA, 01938",86654582,"L"
202793,"41 LAKE DRIVE","MONROE","LA",71203,32.54651569,-91.998210351,293,"41 LAKE DRIVE, MONROE, LA, 71203","Match","Exact","41 LAKE DR, MONROE, LA, 71203",161089943,"L"
202794,"41 LAKESHORE DRIVE","GARNETT","KS",66032,38.2937724760001,-95.2506719469999,294,"41 LAKESHORE DRIVE, GARNETT, KS, 66032","Match","Exact","41 LAKESHORE DR, GARNETT, KS, 66032",10471542,"R"
202795,"41 LAURIE CT","LAKE VILLA","IL",60046,42.4131790550001,-88.083653564,295,"41 LAURIE CT, LAKE VILLA, IL, 60046","Match","Exact","41 LAURIE CT, LAKE VILLA, IL, 60046",119622916,"R"
202796,"41 LEESE STREET APT 2","SAN FRANCISCO","CA",94110,37.7368050970001,-122.423702511,296,"41 LEESE STREET APT 2, SAN FRANCISCO, CA, 94110","Match","Exact","41 LEESE ST, SAN FRANCISCO, CA, 94110",192285219,"L"
202797,"41 LINCOLN AVE","GOSHEN","NY",10924,41.406176572,-74.3272335939999,297,"41 LINCOLN AVE, GOSHEN, NY, 10924","Match","Exact","41 LINCOLN AVE, GOSHEN, NY, 10924",124492086,"L"
202798,"41 LIPTON WAY","COTATI","CA",94931,38.3290969770001,-122.69616562,298,"41 LIPTON WAY, COTATI, CA, 94931","Match","Exact","41 LIPTON WAY, COTATI, CA, 94931",650692717,"R"
202799,"41 LITTLETON ROAD","AYER","MA",1432,42.5511923170001,-71.56536311,299,"41 LITTLETON ROAD, AYER, MA, 1432","Match","Exact","41 LITTLETON RD, AYER, MA, 01432",86834830,"L"
202800,"41 LOCUST DRIVE","MORRIS PLAINS","NJ",7950,40.8298295720001,-74.464664806,300,"41 LOCUST DRIVE, MORRIS PLAINS, NJ, 7950","Match","Exact","41 LOCUST DR, MORRIS PLAINS, NJ, 07950",636222395,"R"
202801,"41 LOLLEY LN","DEFUNIAK SPRINGS","FL",32433,30.731428943,-86.096284215,301,"41 LOLLEY LN, DEFUNIAK SPRINGS, FL, 32433","Match","Exact","41 LOLLEY LN, DEFUNIAK SPRINGS, FL, 32433",32981455,"L"
202802,"41 MADISON AVENUE SUITE 2540","NEW YORK","NY",10016,40.742653938,-73.986674523,302,"41 MADISON AVENUE SUITE 2540, NEW YORK, NY, 10016","Match","Non_Exact","41 MADISON AVE, NEW YORK, NY, 10010",59653483,"R"
202803,"41 MAIN ST BOX 122","MANSFIELD","WA",98830,NA,NA,303,"41 MAIN ST BOX 122, MANSFIELD, WA, 98830","No_Match",NA,NA,NA,NA
202804,"41 MAPLE STREET","NEW BEDFORD","MA",2740,41.6304619730001,-70.934450233,304,"41 MAPLE STREET, NEW BEDFORD, MA, 2740","Match","Exact","41 MAPLE ST, NEW BEDFORD, MA, 02740",46753366,"R"
202805,"41 MARIETTA ST UNIT 397","ATLANTA","GA",30303,33.7553060860001,-84.3909976589999,305,"41 MARIETTA ST UNIT 397, ATLANTA, GA, 30303","Match","Exact","41 MARIETTA ST, ATLANTA, GA, 30303",638966768,"R"
202806,"41 MARIETTA STREET NW UNIT 1975","ATLANTA","GA",30301,NA,NA,306,"41 MARIETTA STREET NW UNIT 1975, ATLANTA, GA, 30301","No_Match",NA,NA,NA,NA
202807,"41 MARIETTA STREET UNIT 1132","ATLANTA","GA",30303,33.7553060860001,-84.3909976589999,307,"41 MARIETTA STREET UNIT 1132, ATLANTA, GA, 30303","Match","Exact","41 MARIETTA ST, ATLANTA, GA, 30303",638966768,"R"
202808,"41 MARION STREET","NESCONSET","NY",11767,40.8359726670001,-73.146636918,308,"41 MARION STREET, NESCONSET, NY, 11767","Match","Exact","41 MARION ST, NESCONSET, NY, 11767",114056811,"R"
202809,"41 MONTGOMERY AVE","CAMPBELLSVILLE","KY",42718,37.295687399,-85.350101323,309,"41 MONTGOMERY AVE, CAMPBELLSVILLE, KY, 42718","Match","Exact","41 MONTGOMERY AVE, CAMPBELLSVILLE, KY, 42718",649255761,"L"
202810,"41 MOORES ROAD","COVINGTON","GA",30016,33.5047357890001,-83.857404744,310,"41 MOORES ROAD, COVINGTON, GA, 30016","Match","Exact","41 MOORES RD, COVINGTON, GA, 30016",23616650,"L"
202811,"41 MOUNT ZION ROAD","PRENTISS","MS",39474,31.627458344,-89.836269255,311,"41 MOUNT ZION ROAD, PRENTISS, MS, 39474","Match","Exact","41 MT ZION RD, PRENTISS, MS, 39474",378452,"L"
202812,"41 MURRAY STREET","RAHWAY","NJ",7065,40.595966268,-74.2899323999999,312,"41 MURRAY STREET, RAHWAY, NJ, 7065","Match","Exact","41 MURRAY ST, RAHWAY, NJ, 07065",60562206,"R"
202813,"41 N 21ST ST","COLUMBUS","OH",43203,39.9666054200001,-82.9725588059999,313,"41 N 21ST ST, COLUMBUS, OH, 43203","Match","Exact","41 N 21ST ST, COLUMBUS, OH, 43203",135620418,"L"
202814,"41 N FRENCH AVE APT 2","ELMSFORD","NY",10523,NA,NA,314,"41 N FRENCH AVE APT 2, ELMSFORD, NY, 10523","Tie",NA,NA,NA,NA
202815,"41 N HONEYSUCKLE AVE","PAGOSA SPRINGS","CO",81147,37.336722235,-107.148682666,315,"41 N HONEYSUCKLE AVE, PAGOSA SPRINGS, CO, 81147","Match","Non_Exact","41 S HONEYSUCKLE AVE, PAGOSA SPRINGS, CO, 81147",645514017,"R"
202816,"41 N JEFFERSON ST SUITE 107","PENSACOLA","FL",32502,30.4123860010001,-87.214183578,316,"41 N JEFFERSON ST SUITE 107, PENSACOLA, FL, 32502","Match","Non_Exact","41 S JEFFERSON ST, PENSACOLA, FL, 32502",93221517,"R"
202817,"41 N MAIN ST","LEXINGTON","TN",38351,35.6509047430001,-88.395129159,317,"41 N MAIN ST, LEXINGTON, TN, 38351","Match","Exact","41 N MAIN ST, LEXINGTON, TN, 38351",607972429,"L"
202818,"41 N SAGE HILL RD","GILLETTE","WY",82718,44.2339629840001,-105.738971034,318,"41 N SAGE HILL RD, GILLETTE, WY, 82718","Match","Non_Exact","41 N SAGE HILL RD, GILLETTE, WY, 82716",638992641,"R"
202819,"41 NORFOLK AVE","WESTWOOD","MA",2090,42.215816675,-71.2254316889999,319,"41 NORFOLK AVE, WESTWOOD, MA, 2090","Match","Exact","41 NORFOLK AVE, WESTWOOD, MA, 02090",87242114,"R"
202820,"41 NORTH JEFFERSON STREET SUITE 40","PENSACOLA","FL",32502,30.412396395,-87.2141859609999,320,"41 NORTH JEFFERSON STREET SUITE 40, PENSACOLA, FL, 32502","Match","Non_Exact","41 S JEFFERSON ST, PENSACOLA, FL, 32502",93221517,"R"
202821,"41 NORTH MAIN","MALAD CITY","ID",83252,42.1873359320001,-112.245216965,321,"41 NORTH MAIN, MALAD CITY, ID, 83252","Match","Non_Exact","41 N MAIN ST, MALAD CITY, ID, 83252",154507868,"L"
202822,"41 NORTH REPAUNO AVE","GIBBSTOWN","NJ",8027,39.8258793000001,-75.2924668479999,322,"41 NORTH REPAUNO AVE, GIBBSTOWN, NJ, 8027","Match","Exact","41 N REPAUNO AVE, GIBBSTOWN, NJ, 08027",134579486,"L"
202823,"41 NORTH ST","HAMDEN","CT",6514,41.341820898,-72.936393911,323,"41 NORTH ST, HAMDEN, CT, 6514","Match","Exact","41 NORTH ST, HAMDEN, CT, 06514",3698970,"R"
202824,"41 NORTH WILLIAMS STREET","JOHNSTON","RI",2919,41.822783175,-71.4760760839999,324,"41 NORTH WILLIAMS STREET, JOHNSTON, RI, 2919","Match","Exact","41 N WILLIAMS ST, JOHNSTON, RI, 02919",638995596,"R"
202825,"41 NORTHERN DRIVE","MILLERSBURG","OH",44654,40.5587493830001,-81.9047573559999,325,"41 NORTHERN DRIVE, MILLERSBURG, OH, 44654","Match","Exact","41 NORTHERN DR, MILLERSBURG, OH, 44654",58634506,"L"
202826,"41 NORTHRUP ROAD","MIDDLETOWN SPRINGS","VT",5757,43.4815240280001,-73.063364603,326,"41 NORTHRUP ROAD, MIDDLETOWN SPRINGS, VT, 5757","Match","Exact","41 NORTHRUP RD, MIDDLETOWN SPRINGS, VT, 05757",138941220,"L"
202827,"41 NOTRE DAME LANE","UTICA","NY",13502,43.092407533,-75.281555391,327,"41 NOTRE DAME LANE, UTICA, NY, 13502","Match","Exact","41 NOTRE DAME LN, UTICA, NY, 13502",171575181,"L"
202828,"41 NW 12 STREET","FLORIDA CITY","FL",33034,25.459181562,-80.478281736,328,"41 NW 12 STREET, FLORIDA CITY, FL, 33034","Match","Exact","41 NW 12TH ST, FLORIDA CITY, FL, 33034",115992320,"L"
202829,"41 NW 12TH ST","FLORIDA CITY","FL",33034,25.459181562,-80.478281736,329,"41 NW 12TH ST, FLORIDA CITY, FL, 33034","Match","Exact","41 NW 12TH ST, FLORIDA CITY, FL, 33034",115992320,"L"
202830,"41 OAK DRIVE","MOUNTAIN TOP","PA",18707,41.150135506,-75.90979694,330,"41 OAK DRIVE, MOUNTAIN TOP, PA, 18707","Match","Exact","41 OAK DR, MOUNTAIN TOP, PA, 18707",80921433,"R"
202831,"41 OAK LANE","HUNTINGTON","WV",25704,38.381894727,-82.5166516049999,331,"41 OAK LANE, HUNTINGTON, WV, 25704","Match","Exact","41 OAK LN, HUNTINGTON, WV, 25704",648399686,"L"
202832,"41 OBERY STREET","PLYMOUTH","MA",2360,41.942274255,-70.650488955,332,"41 OBERY STREET, PLYMOUTH, MA, 2360","Match","Exact","41 OBERY ST, PLYMOUTH, MA, 02360",87481439,"L"
202833,"41 OLD VIENNA ROAD","HACKETTSTOWN","NJ",7840,40.85896638,-74.84438561,333,"41 OLD VIENNA ROAD, HACKETTSTOWN, NJ, 7840","Match","Exact","41 OLD VIENNA RD, HACKETTSTOWN, NJ, 07840",98091628,"L"
202834,"41 OSWEGO ST APT 100","BALDWINSVILLE","NY",13027,43.159488287,-76.332874316,334,"41 OSWEGO ST APT 100, BALDWINSVILLE, NY, 13027","Match","Exact","41 OSWEGO ST, BALDWINSVILLE, NY, 13027",46560887,"L"
202835,"41 PALMDALE AVE","DALY CITY","CA",94015,37.6886079720001,-122.486938173,335,"41 PALMDALE AVE, DALY CITY, CA, 94015","Match","Exact","41 PALMDALE AVE, DALY CITY, CA, 94015",192367130,"L"
202836,"41 PARK GROVE DRIVE","NASHUA","MT",59248,48.0301986200001,-106.446653631,336,"41 PARK GROVE DRIVE, NASHUA, MT, 59248","Match","Exact","41 PARK GROVE DR, NASHUA, MT, 59248",166996721,"R"
202837,"41 PARK STREET","MANCHESTER","CT",6040,41.770480972,-72.5228386699999,337,"41 PARK STREET, MANCHESTER, CT, 6040","Match","Exact","41 PARK ST, MANCHESTER, CT, 06040",604940992,"L"
202838,"41 PARK TERRACE WEST APT E6","NEW YORK","NY",10034,40.870781035,-73.918133831,338,"41 PARK TERRACE WEST APT E6, NEW YORK, NY, 10034","Match","Exact","41 PARK TER W, NEW YORK, NY, 10034",59658921,"L"
202839,"41 PARSONAGE ROAD","STARKSBORO","VT",5487,44.224225856,-73.0578162099999,339,"41 PARSONAGE ROAD, STARKSBORO, VT, 5487","Match","Exact","41 PARSONAGE RD, STARKSBORO, VT, 05487",136444233,"R"
202840,"41 PATTON AVE","SEYMOUR","CT",6483,41.3734166610001,-73.075943157,340,"41 PATTON AVE, SEYMOUR, CT, 6483","Match","Exact","41 PATTON AVE, SEYMOUR, CT, 06483",3733576,"L"
202841,"41 PAWPRINT","IRVINE","CA",92618,33.703749874,-117.724419659,341,"41 PAWPRINT, IRVINE, CA, 92618","Match","Exact","41 PAWPRINT, IRVINE, CA, 92618",641614140,"L"
202842,"41 PEABODY ST","NASHVILLE","TN",37210,36.1577711030001,-86.7697935909999,342,"41 PEABODY ST, NASHVILLE, TN, 37210","Match","Exact","41 PEABODY ST, NASHVILLE, TN, 37210",97225524,"L"
202843,"41 PEABODY STREET","NASHVILLE","TN",37210,36.1577711030001,-86.7697935909999,343,"41 PEABODY STREET, NASHVILLE, TN, 37210","Match","Exact","41 PEABODY ST, NASHVILLE, TN, 37210",97225524,"L"
202844,"41 PIERPONT PLACE","STATEN ISLAND","NY",10314,NA,NA,344,"41 PIERPONT PLACE, STATEN ISLAND, NY, 10314","No_Match",NA,NA,NA,NA
202845,"41 PINE LN","ALBERTVILLE","AL",35951,NA,NA,345,"41 PINE LN, ALBERTVILLE, AL, 35951","No_Match",NA,NA,NA,NA
202846,"41 POND LANE","WILLINGBORO","NJ",8046,40.029646615,-74.906637839,346,"41 POND LANE, WILLINGBORO, NJ, 8046","Match","Exact","41 POND LN, WILLINGBORO, NJ, 08046",134030580,"L"
202847,"41 PONDEROSA DRIVE","YORKVILLE","IL",60560,41.6446194280001,-88.408459142,347,"41 PONDEROSA DRIVE, YORKVILLE, IL, 60560","Match","Exact","41 PONDEROSA DR, YORKVILLE, IL, 60560",611678705,"L"
202848,"41 PRISCILLA DRIVE","BARRINGTON","RI",2806,41.744621997,-71.3208345899999,348,"41 PRISCILLA DRIVE, BARRINGTON, RI, 2806","Match","Exact","41 PRISCILLA DR, BARRINGTON, RI, 02806",640383643,"R"
202849,"41 PROSPECT ST","WATERVILLE","ME",4901,44.5602642330001,-69.6371399079999,349,"41 PROSPECT ST, WATERVILLE, ME, 4901","Match","Exact","41 PROSPECT ST, WATERVILLE, ME, 04901",75464305,"R"
202850,"41 PURDY AVENUE UNIT 567","RYE","NY",10580,40.9845017060001,-73.683311895,350,"41 PURDY AVENUE UNIT 567, RYE, NY, 10580","Match","Exact","41 PURDY AVE, RYE, NY, 10580",139756755,"L"
202851,"41 QUARRY RD","WANTAGE","NJ",7461,41.2764109,-74.5883517629999,351,"41 QUARRY RD, WANTAGE, NJ, 7461","Match","Exact","41 QUARRY RD, WANTAGE, NJ, 07461",97992394,"L"
202852,"41 RAYMOND AVENUE UNIT NUMBER 3568","POUGHKEEPSIE","NY",12603,41.6927112910001,-73.90081348,352,"41 RAYMOND AVENUE UNIT NUMBER 3568, POUGHKEEPSIE, NY, 12603","Match","Exact","41 RAYMOND AVE, POUGHKEEPSIE, NY, 12603",638553256,"R"
202853,"41 REON AVENUE","STATEN ISLAND","NY",10314,40.610856276,-74.120150865,353,"41 REON AVENUE, STATEN ISLAND, NY, 10314","Match","Exact","41 REON AVE, STATEN ISLAND, NY, 10314",59866724,"L"
202854,"41 RILEY STREET","EAST AURORA","NY",14052,42.7699583040001,-78.611420584,354,"41 RILEY STREET, EAST AURORA, NY, 14052","Match","Exact","41 RILEY ST, EAST AURORA, NY, 14052",48344036,"L"
202855,"41 ROBERTS DRIVE","NORTH ADAMS","MA",1247,42.699775748,-73.139717359,355,"41 ROBERTS DRIVE, NORTH ADAMS, MA, 1247","Match","Exact","41 ROBERTS DR, NORTH ADAMS, MA, 01247",3915258,"L"
202856,"41 ROCCO ST APT B3","BELLEVILLE","NJ",7109,40.786505424,-74.178493181,356,"41 ROCCO ST APT B3, BELLEVILLE, NJ, 7109","Match","Exact","41 ROCCO ST, BELLEVILLE, NJ, 07109",638995651,"L"
202857,"41 ROEBUCK DRIVE","BIRMINGHAM","AL",35215,NA,NA,357,"41 ROEBUCK DRIVE, BIRMINGHAM, AL, 35215","No_Match",NA,NA,NA,NA
202858,"41 ROTILI LANE","COPLEY","OH",44321,41.133987097,-81.662300403,358,"41 ROTILI LANE, COPLEY, OH, 44321","Match","Exact","41 ROTILI LN, COPLEY, OH, 44321",648250747,"L"
202859,"41 ROUND HILL ST","JAMAICA PLAIN","MA",2130,42.3246604810001,-71.106091039,359,"41 ROUND HILL ST, JAMAICA PLAIN, MA, 2130","Match","Exact","41 ROUND HILL ST, JAMAICA PLAIN, MA, 02130",85698642,"R"
202860,"41 S 54TH STREET","PHILADELPHIA","PA",19139,39.9595042120001,-75.228837402,360,"41 S 54TH STREET, PHILADELPHIA, PA, 19139","Match","Exact","41 S 54TH ST, PHILADELPHIA, PA, 19139",131399158,"L"
202861,"41 S GREGG AVE APT B","FAYETTEVILLE","AR",72701,NA,NA,361,"41 S GREGG AVE APT B, FAYETTEVILLE, AR, 72701","Tie",NA,NA,NA,NA
202862,"41 S HIGH STREET","COLUMBUS","OH",43215,39.9611727750001,-83.000441291,362,"41 S HIGH STREET, COLUMBUS, OH, 43215","Match","Exact","41 S HIGH ST, COLUMBUS, OH, 43215",135576646,"R"
202863,"41 S WAKE FOREST STREET UNIT 7535","VENTURA","CA",93003,NA,NA,363,"41 S WAKE FOREST STREET UNIT 7535, VENTURA, CA, 93003","No_Match",NA,NA,NA,NA
202864,"41 SAGAMORE ROAD","BRONXVILLE","NY",10708,40.9439884430001,-73.833019909,364,"41 SAGAMORE ROAD, BRONXVILLE, NY, 10708","Match","Exact","41 SAGAMORE RD, BRONXVILLE, NY, 10708",139746210,"L"
202865,"41 SAGE STREET","HOLMDEL","NJ",7733,40.4089435170001,-74.178911447,365,"41 SAGE STREET, HOLMDEL, NJ, 7733","Match","Exact","41 SAGE ST, HOLMDEL, NJ, 07733",601548634,"L"
202866,"41 SALT POND RD","HAMPTON","VA",23664,37.0591449680001,-76.2966911999999,366,"41 SALT POND RD, HAMPTON, VA, 23664","Match","Exact","41 SALT POND RD, HAMPTON, VA, 23664",103800671,"L"
202867,"41 SALVIA CT","IRMO","SC",29063,34.089889038,-81.145153888,367,"41 SALVIA CT, IRMO, SC, 29063","Match","Exact","41 SALVIA CT, IRMO, SC, 29063",71846330,"L"
202868,"41 SANTA ANA RD","HOLLISTER","CA",95023,36.856624004,-121.400954587,368,"41 SANTA ANA RD, HOLLISTER, CA, 95023","Match","Exact","41 SANTA ANA RD, HOLLISTER, CA, 95023",125435684,"L"
202869,"41 SCHAPERKOETTER","FAIRVIEW HEIGHTS","IL",62208,38.5937388770001,-89.967657208,369,"41 SCHAPERKOETTER, FAIRVIEW HEIGHTS, IL, 62208","Match","Non_Exact","41 SCHAPERKOETTER DR, FAIRVIEW HTS, IL, 62208",107840711,"L"
202870,"41 SCHEMERHORN STREET PO BOX 311","BROOKLYN","NY",11201,40.6911037340001,-73.9921170699999,370,"41 SCHEMERHORN STREET PO BOX 311, BROOKLYN, NY, 11201","Match","Non_Exact","41 SCHERMERHORN ST, BROOKLYN, NY, 11201",59075018,"L"
202871,"41 SCHERMERHORN STREET SUITE 106","BROOKLYN","NY",11201,40.6911037340001,-73.9921170699999,371,"41 SCHERMERHORN STREET SUITE 106, BROOKLYN, NY, 11201","Match","Exact","41 SCHERMERHORN ST, BROOKLYN, NY, 11201",59075018,"L"
202872,"41 SE CAYUGA TERRACE","STUART","FL",34997,27.154571176,-80.244624527,372,"41 SE CAYUGA TERRACE, STUART, FL, 34997","Match","Exact","41 SE CAYUGA TER, STUART, FL, 34997",120403200,"L"
202873,"41 SERINDIPITY COURT","HOPKINS","SC",29061,33.954963209,-80.8786534559999,373,"41 SERINDIPITY COURT, HOPKINS, SC, 29061","Match","Non_Exact","41 SERENDIPITY CT, HOPKINS, SC, 29061",625036271,"L"
202874,"41 SHIRLEY JEAN COURT","CHEBANSE","IL",60922,41.0053897780001,-87.91477864,374,"41 SHIRLEY JEAN COURT, CHEBANSE, IL, 60922","Match","Exact","41 SHIRLEY JEAN CT, CHEBANSE, IL, 60922",98368012,"L"
202875,"41 SKEETS ROAD","BREAD SPRINGS","NM",87326,NA,NA,375,"41 SKEETS ROAD, BREAD SPRINGS, NM, 87326","No_Match",NA,NA,NA,NA
202876,"41 SOLDIER RD","RAYNE","LA",70578,30.26287825,-92.2090115569999,376,"41 SOLDIER RD, RAYNE, LA, 70578","Match","Exact","41 SOLDIER RD, RAYNE, LA, 70578",88310979,"R"
202877,"41 SOUTH 5TH STREET","SUNBURY","PA",17801,40.859630542,-76.7898149869999,377,"41 SOUTH 5TH STREET, SUNBURY, PA, 17801","Match","Exact","41 S 5TH ST, SUNBURY, PA, 17801",48056776,"L"
202878,"41 SOUTH DUKE STREET","YORK","PA",17401,39.962261384,-76.725366182,378,"41 SOUTH DUKE STREET, YORK, PA, 17401","Match","Exact","41 S DUKE ST, YORK, PA, 17401",88730783,"L"
202879,"41 SOUTH HIGH STREET SUITE 3300","COLUMBUS","OH",43215,39.9611791350001,-83.000442492,379,"41 SOUTH HIGH STREET SUITE 3300, COLUMBUS, OH, 43215","Match","Exact","41 S HIGH ST, COLUMBUS, OH, 43215",135576646,"R"
202880,"41 SOUTH STREET","AUBURN","MA",1501,42.1905566350001,-71.834753064,380,"41 SOUTH STREET, AUBURN, MA, 1501","Match","Exact","41 SOUTH ST, AUBURN, MA, 01501",40008783,"L"
202881,"41 SOUTH STREET","MEDFIELD","MA",2052,42.1857552170001,-71.302008063,381,"41 SOUTH STREET, MEDFIELD, MA, 2052","Match","Exact","41 SOUTH ST, MEDFIELD, MA, 02052",87277192,"R"
202882,"41 SPRUCE LANE","FLORENCE","MA",1062,42.3026184130001,-72.677732227,382,"41 SPRUCE LANE, FLORENCE, MA, 1062","Match","Exact","41 SPRUCE LN, FLORENCE, MA, 01062",39859000,"L"
202883,"41 STEERE AVE","NORTH PROVIDENCE","RI",2911,41.8565029640001,-71.4850823469999,383,"41 STEERE AVE, NORTH PROVIDENCE, RI, 2911","Match","Exact","41 STEERE AVE, N PROVIDENCE, RI, 02911",47450756,"R"
202884,"41 STEWART AVENUE","COLUMBUS","OH",43206,39.942096366,-82.9954618679999,384,"41 STEWART AVENUE, COLUMBUS, OH, 43206","Match","Exact","41 STEWART AVE, COLUMBUS, OH, 43206",135580200,"R"
202885,"41 STONECREST CIRCLE","NEW BRAUNFELS","TX",78132,29.7829257130001,-98.133642777,385,"41 STONECREST CIRCLE, NEW BRAUNFELS, TX, 78132","Match","Exact","41 STONECREST CIR, NEW BRAUNFELS, TX, 78132",640406967,"L"
202886,"41 STONEGATE DR","SILVER SPRING","MD",20905,39.099012429,-77.007881214,386,"41 STONEGATE DR, SILVER SPRING, MD, 20905","Match","Exact","41 STONEGATE DR, SILVER SPRING, MD, 20905",62063344,"R"
202887,"41 STONEGATE","UNIONVILLE","CT",6085,41.7413309520001,-72.873636238,387,"41 STONEGATE, UNIONVILLE, CT, 6085","Match","Exact","41 STONEGATE, UNIONVILLE, CT, 06085",624331915,"L"
202888,"41 SUMMER STREET","MANCHESTER BY THE SE","MA",1944,42.576035942,-70.7664571139999,388,"41 SUMMER STREET, MANCHESTER BY THE SE, MA, 1944","Match","Non_Exact","41 SUMMER ST, MANCHESTER, MA, 01944",86649639,"L"
202889,"41 SUNNYWOOD DRIVE","WESTFIELD","NJ",7090,40.657238412,-74.3674127419999,389,"41 SUNNYWOOD DRIVE, WESTFIELD, NJ, 7090","Match","Exact","41 SUNNYWOOD DR, WESTFIELD, NJ, 07090",60566262,"L"
202890,"41 SUNSET AVE","GLEN CARBON","IL",62034,38.747902552,-89.982286903,390,"41 SUNSET AVE, GLEN CARBON, IL, 62034","Match","Exact","41 SUNSET AVE, GLEN CARBON, IL, 62034",107691066,"L"
202891,"41 SVEA ROAD","HACKETTSTOWN","NJ",7840,40.85324573,-74.7604003979999,391,"41 SVEA ROAD, HACKETTSTOWN, NJ, 7840","Match","Exact","41 SVEA RD, HACKETTSTOWN, NJ, 07840",60454461,"L"
202892,"41 TAYLOR STREET","SPRINGFIELD","MA",1103,42.1049785700001,-72.592602432,392,"41 TAYLOR STREET, SPRINGFIELD, MA, 1103","Match","Exact","41 TAYLOR ST, SPRINGFIELD, MA, 01103",4068127,"R"
202893,"41 TERRACE HILL DRIVE","PASO ROBLES","CA",93446,35.6281860130001,-120.699864785,393,"41 TERRACE HILL DRIVE, PASO ROBLES, CA, 93446","Match","Exact","41 TERRACE HILL DR, PASO ROBLES, CA, 93446",109852535,"L"
202894,"41 TERRANCE AVE","CLINTON","MA",1510,42.408256328,-71.696002622,394,"41 TERRANCE AVE, CLINTON, MA, 1510","Match","Non_Exact","41 TERRENCE AVE, CLINTON, MA, 01510",40035469,"R"
202895,"41 THOMAS FREE DR","KINTNERSVILLE","PA",18930,NA,NA,395,"41 THOMAS FREE DR, KINTNERSVILLE, PA, 18930","No_Match",NA,NA,NA,NA
202896,"41 THOMAS FREE DRIVE","KINTNERSVILLE","PA",18930,NA,NA,396,"41 THOMAS FREE DRIVE, KINTNERSVILLE, PA, 18930","No_Match",NA,NA,NA,NA
202897,"41 TIEL WAY","HOUSTON","TX",77019,29.760940729,-95.411383567,397,"41 TIEL WAY, HOUSTON, TX, 77019","Match","Exact","41 TIEL WAY, HOUSTON, TX, 77019",96061829,"L"
202898,"41 TIERRA GRANDE","SANTA FE","NM",87506,35.6859870860001,-106.031786916,398,"41 TIERRA GRANDE, SANTA FE, NM, 87506","Match","Exact","41 TIERRA GRANDE, SANTA FE, NM, 87506",612405148,"R"
202899,"41 TRIBUTE AVENUE","HUDSON","WI",54016,NA,NA,399,"41 TRIBUTE AVENUE, HUDSON, WI, 54016","No_Match",NA,NA,NA,NA
202900,"41 TUERS AVENUE","JERSEY CITY","NJ",7306,40.7268159450001,-74.06596926,400,"41 TUERS AVENUE, JERSEY CITY, NJ, 7306","Match","Exact","41 TUERS AVE, JERSEY CITY, NJ, 07306",59610488,"L"
202901,"41 TYLER AVE APT 2105","ISELIN","NJ",8830,40.565508456,-74.301710513,401,"41 TYLER AVE APT 2105, ISELIN, NJ, 8830","Match","Exact","41 TYLER AVE, ISELIN, NJ, 08830",60362135,"L"
202902,"41 UNION SQUARE STE 811","NEW YORK","NY",10003,NA,NA,402,"41 UNION SQUARE STE 811, NEW YORK, NY, 10003","Tie",NA,NA,NA,NA
202903,"41 VARICK AVENUE - SUITE 214","BROOKLYN","NY",11237,40.70720285,-73.9270361329999,403,"41 VARICK AVENUE - SUITE 214, BROOKLYN, NY, 11237","Match","Exact","41 VARICK AVE, BROOKLYN, NY, 11237",59082339,"L"
202904,"41 VERNON AVENUE","BROOKLYN","NY",11206,40.694469704,-73.95058785,404,"41 VERNON AVENUE, BROOKLYN, NY, 11206","Match","Exact","41 VERNON AVE, BROOKLYN, NY, 11206",59078742,"L"
202905,"41 W HIGH ST","UNION CITY","PA",16438,41.8992891930001,-79.8496972039999,405,"41 W HIGH ST, UNION CITY, PA, 16438","Match","Exact","41 W HIGH ST, UNION CITY, PA, 16438",117483630,"L"
202906,"41 W LEE HIGHWAY SUITE 59 BOX 214","WARRENTON","VA",20186,38.7280671400001,-77.792235267,406,"41 W LEE HIGHWAY SUITE 59 BOX 214, WARRENTON, VA, 20186","Match","Exact","41 LEE HWY, WARRENTON, VA, 20186",146292531,"R"
202907,"41 W MAIN ST","CARLISLE","PA",17015,40.2029737140001,-77.287751513,407,"41 W MAIN ST, CARLISLE, PA, 17015","Match","Exact","41 W MAIN ST, CARLISLE, PA, 17015",221285782,"R"
202908,"41 WALKER STREET APT C","WESTBROOK","ME",4092,43.6814692040001,-70.365695806,408,"41 WALKER STREET APT C, WESTBROOK, ME, 4092","Match","Exact","41 WALKER ST, WESTBROOK, ME, 04092",78074092,"R"
202909,"41 WASHINGTON AVENUE - SUITE 140","GRAND HAVEN","MI",49417,43.064719525,-86.233478038,409,"41 WASHINGTON AVENUE - SUITE 140, GRAND HAVEN, MI, 49417","Match","Exact","41 WASHINGTON AVE, GRAND HAVEN, MI, 49417",71084307,"R"
202910,"41 WASHINGTON AVENUE","WINTHROP","MA",2152,42.372242822,-70.979313503,410,"41 WASHINGTON AVENUE, WINTHROP, MA, 2152","Match","Exact","41 WASHINGTON AVE, WINTHROP, MA, 02152",85714889,"R"
202911,"41 WATCHUNG PLAZA 308","MONTCLAIR","NJ",7042,40.829850558,-74.2063453609999,411,"41 WATCHUNG PLAZA 308, MONTCLAIR, NJ, 7042","Match","Exact","41 WATCHUNG PLZ, MONTCLAIR, NJ, 07042",63448810,"R"
202912,"41 WATCHUNG PLAZA SPC 514","MONTCLAIR","NJ",7042,40.829850558,-74.2063453609999,412,"41 WATCHUNG PLAZA SPC 514, MONTCLAIR, NJ, 7042","Match","Exact","41 WATCHUNG PLZ, MONTCLAIR, NJ, 07042",63448810,"R"
202913,"41 WATERFORD PARK","WILLIAMSVILLE","NY",14221,42.979362935,-78.732914068,413,"41 WATERFORD PARK, WILLIAMSVILLE, NY, 14221","Match","Exact","41 WATERFORD PARK, WILLIAMSVILLE, NY, 14221",48358734,"R"
202914,"41 WATERS EDGE DRIVE","LITTLE ROCK","AR",72204,34.6963031930001,-92.399106266,414,"41 WATERS EDGE DRIVE, LITTLE ROCK, AR, 72204","Match","Exact","41 WATERS EDGE DR, LITTLE ROCK, AR, 72204",618994297,"L"
202915,"41 WEGMAN PARKWAY","JERSEY CITY","NJ",7305,40.702435866,-74.079286151,415,"41 WEGMAN PARKWAY, JERSEY CITY, NJ, 7305","Match","Exact","41 WEGMAN PKWY, JERSEY CITY, NJ, 07305",59606470,"L"
202916,"41 WELLINGTON DOWNS DRIVE","OFALLON","MO",63368,38.760978274,-90.736653635,416,"41 WELLINGTON DOWNS DRIVE, OFALLON, MO, 63368","Match","Non_Exact","41 WELLINGTON DOWNS DR, O FALLON, MO, 63368",100101280,"R"
202917,"41 WEST 83RD STREET 9A","NEW YORK","NY",10024,40.7835639040001,-73.9712701999999,417,"41 WEST 83RD STREET 9A, NEW YORK, NY, 10024","Match","Exact","41 W 83RD ST, NEW YORK, NY, 10024",59656764,"R"
202918,"41 WEST ALLENS LANE","PHILADELPHIA","PA",19119,40.060577752,-75.192618141,418,"41 WEST ALLENS LANE, PHILADELPHIA, PA, 19119","Match","Exact","41 W ALLENS LN, PHILADELPHIA, PA, 19119",131394420,"R"
202919,"41 WEST CASTLE PLACE","NEW ROCHELLE","NY",10805,40.9001198450001,-73.782760358,419,"41 WEST CASTLE PLACE, NEW ROCHELLE, NY, 10805","Match","Exact","41 W CASTLE PL, NEW ROCHELLE, NY, 10805",139751407,"R"
202920,"41 WEST CENTER ST","MOUNT GILEAD","OH",43338,40.5488382460001,-82.8292510699999,420,"41 WEST CENTER ST, MOUNT GILEAD, OH, 43338","Match","Exact","41 W CENTER ST, MOUNT GILEAD, OH, 43338",12747744,"L"
202921,"41 WEST FERRY STREET","NEW HOPE","PA",18938,40.36332788,-74.9526176919999,421,"41 WEST FERRY STREET, NEW HOPE, PA, 18938","Match","Exact","41 W FERRY ST, NEW HOPE, PA, 18938",134718787,"R"
202922,"41 WEST LEE HIGHWAY SUITE 59-817","WARRENTON","VA",20186,NA,NA,422,"41 WEST LEE HIGHWAY SUITE 59-817, WARRENTON, VA, 20186","Tie",NA,NA,NA,NA
202923,"41 WEST STREET ATT MAYORS OFFICE","CROMWELL","CT",6416,NA,NA,423,"41 WEST STREET ATT MAYORS OFFICE, CROMWELL, CT, 6416","Tie",NA,NA,NA,NA
202924,"41 WEST STREET","OXFORD","CT",6478,41.412267173,-73.0940393129999,424,"41 WEST STREET, OXFORD, CT, 6478","Match","Exact","41 WEST ST, OXFORD, CT, 06478",3751448,"R"
202925,"41 WESTWOOD DR","SHIRLEY","NY",11967,40.78262647,-72.86952561,425,"41 WESTWOOD DR, SHIRLEY, NY, 11967","Match","Exact","41 WESTWOOD DR, SHIRLEY, NY, 11967",114019231,"R"
202926,"41 WINSTON LANE","GARRISON","NY",10524,41.3330180770001,-73.917390864,426,"41 WINSTON LANE, GARRISON, NY, 10524","Match","Exact","41 WINSTON LN, GARRISON, NY, 10524",139677358,"R"
202927,"41 WINTER ST","TOPSHAM","ME",4086,43.9257984970001,-69.9709937219999,427,"41 WINTER ST, TOPSHAM, ME, 4086","Match","Exact","41 WINTER ST, TOPSHAM, ME, 04086",641409019,"R"
202928,"41 WINTHROP PARKWAY","REVERE","MA",2151,42.4013936470001,-70.988127925,428,"41 WINTHROP PARKWAY, REVERE, MA, 2151","Match","Exact","41 WINTHROP PKWY, REVERE, MA, 02151",85708805,"R"
202929,"41 WOLFPIT AVE UNIT 5T","NORWALK","CT",6851,41.127084418,-73.393372061,429,"41 WOLFPIT AVE UNIT 5T, NORWALK, CT, 6851","Match","Exact","41 WOLFPIT AVE, NORWALK, CT, 06851",618522666,"L"
202930,"41 WOOD COVE DRIVE","COVENTRY","RI",2816,41.674359349,-71.6024498899999,430,"41 WOOD COVE DRIVE, COVENTRY, RI, 2816","Match","Exact","41 WOOD COVE DR, COVENTRY, RI, 02816",159141167,"L"
202931,"41 WOODLAND TERRACE","CHEEKTOWAGA","NY",14225,42.937555715,-78.778789649,431,"41 WOODLAND TERRACE, CHEEKTOWAGA, NY, 14225","Match","Exact","41 WOODLAND TER, CHEEKTOWAGA, NY, 14225",48299030,"R"
202932,"41 WOODSVIEW DRIVE","GARNET VALLEY","PA",19060,39.8606439320001,-75.50863814,432,"41 WOODSVIEW DRIVE, GARNET VALLEY, PA, 19060","Match","Exact","41 WOODSVIEW DR, GARNET VALLEY, PA, 19060",134902815,"R"
202933,"41 WYNGATE DRIVE","AVON","CT",6001,41.7967926600001,-72.8669674079999,433,"41 WYNGATE DRIVE, AVON, CT, 6001","Match","Exact","41 WYNGATE DR, AVON, CT, 06001",628101536,"R"
202934,"41-02 ERLI RD","FAIR LAWN","NJ",7410,40.9378319510001,-74.098158782,434,"41-02 ERLI RD, FAIR LAWN, NJ, 7410","Match","Exact","41 ERLI RD, FAIR LAWN, NJ, 07410",64380865,"R"
202935,"41-041 MANANA STREET","WAIMANALO","HI",96795,21.3360379160001,-157.698380069,435,"41-041 MANANA STREET, WAIMANALO, HI, 96795","Match","Exact","41-41 MANANA ST, WAIMANALO, HI, 96795",203240960,"R"
202936,"41-05 VERNON BLVD   APT 3B","LONG ISLAND CITY","NY",11101,40.756259121,-73.947462216,436,"41-05 VERNON BLVD   APT 3B, LONG ISLAND CITY, NY, 11101","Match","Exact","41-5 VERNON BLVD, LONG ISLAND CITY, NY, 11101",59696071,"L"
202937,"41-05 VERNON BLVD UNIT 1A","LONG ISLAND CITY","NY",11101,40.756259121,-73.947462216,437,"41-05 VERNON BLVD UNIT 1A, LONG ISLAND CITY, NY, 11101","Match","Exact","41-5 VERNON BLVD, LONG ISLAND CITY, NY, 11101",59696071,"L"
202938,"41-052 HIHIMANU ST","WAIMANALO","HI",96795,NA,NA,438,"41-052 HIHIMANU ST, WAIMANALO, HI, 96795","Tie",NA,NA,NA,NA
202939,"41-12 52D STREET APT 1R","WOODSIDE","NY",11377,NA,NA,439,"41-12 52D STREET APT 1R, WOODSIDE, NY, 11377","No_Match",NA,NA,NA,NA
202940,"41-121 HENO PLACE","KANEOHE","HI",96744,NA,NA,440,"41-121 HENO PLACE, KANEOHE, HI, 96744","No_Match",NA,NA,NA,NA
202941,"41-138 NALU STREET","WAIMANALO","HI",96795,21.3263806090001,-157.689960348,441,"41-138 NALU STREET, WAIMANALO, HI, 96795","Match","Exact","41-138 NALU ST, WAIMANALO, HI, 96795",203241160,"L"
202942,"41-1448 KUHIMANA STREET","WAIMANALO","HI",96795,21.34690299,-157.719615989,442,"41-1448 KUHIMANA STREET, WAIMANALO, HI, 96795","Match","Exact","41-1448 KUHIMANA ST, WAIMANALO, HI, 96795",203259306,"L"
202943,"41-16 MAIN ST","FLUSHING","NY",11354,40.7577942560001,-73.829274327,443,"41-16 MAIN ST, FLUSHING, NY, 11354","Match","Non_Exact","41 MAIN ST, FLUSHING, NY, 11355",59701075,"R"
202944,"41-1650 KUMUNIU ST","WAIMANALO","HI",96795,NA,NA,444,"41-1650 KUMUNIU ST, WAIMANALO, HI, 96795","No_Match",NA,NA,NA,NA
202945,"41-20 29TH STREET APT 2A","LONG ISLAND CITY","NY",11101,40.750730516,-73.937058354,445,"41-20 29TH STREET APT 2A, LONG ISLAND CITY, NY, 11101","Match","Exact","41-20 29TH ST, LONG ISLAND CITY, NY, 11101",59729889,"R"
202946,"41-215 WASHINGTON ST SUITE A-7","PALM DESERT","CA",92211,NA,NA,446,"41-215 WASHINGTON ST SUITE A-7, PALM DESERT, CA, 92211","No_Match",NA,NA,NA,NA
202947,"41-25 KISSENA BLVD STE 128A","FLUSHING","NY",11354,40.75810747,-73.828848194,447,"41-25 KISSENA BLVD STE 128A, FLUSHING, NY, 11354","Match","Non_Exact","41-25 KISSENA BLVD, FLUSHING, NY, 11355",59701073,"L"
202948,"41-25 KISSENA BLVD SUITE 120","FLUSHING","NY",11355,40.75810747,-73.828848194,448,"41-25 KISSENA BLVD SUITE 120, FLUSHING, NY, 11355","Match","Exact","41-25 KISSENA BLVD, FLUSHING, NY, 11355",59701073,"L"
202949,"41-404 EWA BEACH ROAD","EWA BEACH","HI",96706,NA,NA,449,"41-404 EWA BEACH ROAD, EWA BEACH, HI, 96706","No_Match",NA,NA,NA,NA
202950,"41-415 HIHIMANU STREET","WAIMANALO","HI",96795,21.3414551560001,-157.715968417,450,"41-415 HIHIMANU STREET, WAIMANALO, HI, 96795","Match","Exact","41-415 HIHIMANU ST, WAIMANALO, HI, 96795",203261820,"R"
202951,"41-42 50TH STREET NUM 6G","WOODSIDE","NY",11377,40.7454080630001,-73.914456381,451,"41-42 50TH STREET NUM 6G, WOODSIDE, NY, 11377","Match","Exact","41-42 50TH ST, WOODSIDE, NY, 11377",59692705,"R"
202952,"41-489 KALANIANAOLE HWY","WAIMANALO","HI",96795,21.324172689,-157.679610778,452,"41-489 KALANIANAOLE HWY, WAIMANALO, HI, 96795","Match","Exact","41-489 KALANIANAOLE HWY, WAIMANALO, HI, 96795",647558434,"R"
202953,"41-51 54TH STREET","WOODSIDE","NY",11377,40.7440003080001,-73.910690498,453,"41-51 54TH STREET, WOODSIDE, NY, 11377","Match","Exact","41-51 54TH ST, WOODSIDE, NY, 11377",640910234,"L"
202954,"41-555 KAMANA AINA PLACE","WAIMANALO","HI",96795,21.3466527520001,-157.716941138,454,"41-555 KAMANA AINA PLACE, WAIMANALO, HI, 96795","Match","Non_Exact","41 KAMANAAINA PL, WAIMANALO, HI, 96795",203260547,"R"
202955,"41-559 INOA ST","WAIMANALO","HI",96795,21.344311529,-157.712696952,455,"41-559 INOA ST, WAIMANALO, HI, 96795","Match","Exact","41 INOA ST, WAIMANALO, HI, 96795",203240881,"R"
202956,"41-58 73RD STREET APT 1B","WOODSIDE","NY",11377,40.7438847080001,-73.891776941,456,"41-58 73RD STREET APT 1B, WOODSIDE, NY, 11377","Match","Exact","41-58 73RD ST, WOODSIDE, NY, 11377",59693808,"R"
202957,"41-684 KAAUIKI PLACE","WAIMANALO","HI",96795,21.3447970340001,-157.721430665,457,"41-684 KAAUIKI PLACE, WAIMANALO, HI, 96795","Match","Exact","41-684 KAAUIKI PL, WAIMANALO, HI, 96795",203240805,"L"
202958,"41-724 KALANIANAOLE HWY","WAIMANALO","HI",96795,21.3297176880001,-157.691886131,458,"41-724 KALANIANAOLE HWY, WAIMANALO, HI, 96795","Match","Exact","41-724 KALANIANAOLE HWY, WAIMANALO, HI, 96795",203241151,"L"
202959,"41-745 MOOIKI STREET","WAIMANALO","HI",96795,21.338203718,-157.728926915,459,"41-745 MOOIKI STREET, WAIMANALO, HI, 96795","Match","Exact","41 MOOIKI ST, WAIMANALO, HI, 96795",203240789,"R"
202960,"41-829 KAKAINA ST S6","WAIMANALO","HI",96795,21.341238769,-157.73173624,460,"41-829 KAKAINA ST S6, WAIMANALO, HI, 96795","Match","Exact","41-829 KAKAINA ST, WAIMANALO, HI, 96795",203240781,"R"
202961,"41-859 KALANIANAOLE HWY UNIT 212","WAIMANALO","HI",96795,21.3335505050001,-157.698104604,461,"41-859 KALANIANAOLE HWY UNIT 212, WAIMANALO, HI, 96795","Match","Exact","41-859 KALANIANAOLE HWY, WAIMANALO, HI, 96795",203240972,"R"
202962,"41-902 OLUOLU STREET","WAIMANALO","HI",96795,21.3354757770001,-157.701444783,462,"41-902 OLUOLU STREET, WAIMANALO, HI, 96795","Match","Exact","41-902 OLUOLU ST, WAIMANALO, HI, 96795",203240943,"L"
202963,"41","BELLEVILLE","IL",62221,NA,NA,463,"41, BELLEVILLE, IL, 62221","No_Match",NA,NA,NA,NA
202964,"41","BOISE","ID",83705,NA,NA,464,"41, BOISE, ID, 83705","No_Match",NA,NA,NA,NA
202965,"41","KALAMAZOO","MI",49048,NA,NA,465,"41, KALAMAZOO, MI, 49048","No_Match",NA,NA,NA,NA
202966,"41","WAIMANALO","HI",96795,NA,NA,466,"41, WAIMANALO, HI, 96795","No_Match",NA,NA,NA,NA
202967,"41","WASHINGTON","WV",26181,NA,NA,467,"41, WASHINGTON, WV, 26181","No_Match",NA,NA,NA,NA
202968,"410  43RD STREET W STE A","BRADENOTN","FL",34209,NA,NA,468,"410  43RD STREET W STE A, BRADENOTN, FL, 34209","No_Match",NA,NA,NA,NA
202969,"410 10TH AVE","GREELEY","CO",60631,40.4298738750001,-104.694352896,469,"410 10TH AVE, GREELEY, CO, 60631","Match","Non_Exact","410 10TH AVE, GREELEY, CO, 80631",188741408,"L"
202970,"410 13TH AVENUE SE","ROCHESTER","MN",55904,44.0190663270001,-92.446476547,470,"410 13TH AVENUE SE, ROCHESTER, MN, 55904","Match","Exact","410 13TH AVE SE, ROCHESTER, MN, 55904",30553783,"L"
202971,"410 17TH ST STE 1375","DENVER","CO",80202,39.7442177,-104.988506645,471,"410 17TH ST STE 1375, DENVER, CO, 80202","Match","Exact","410 17TH ST, DENVER, CO, 80202",647263995,"L"
202972,"410 17TH ST STE 275","DENVER","CO",80202,39.7442177,-104.988506645,472,"410 17TH ST STE 275, DENVER, CO, 80202","Match","Exact","410 17TH ST, DENVER, CO, 80202",647263995,"L"
202973,"410 17TH STREET APT 9","EAST GRAND FORKS","MN",56721,NA,NA,473,"410 17TH STREET APT 9, EAST GRAND FORKS, MN, 56721","Tie",NA,NA,NA,NA
202974,"410 1ST AVE","ACKLEY","IA",50601,42.5532258540001,-93.057620792,474,"410 1ST AVE, ACKLEY, IA, 50601","Match","Exact","410 1ST AVE, ACKLEY, IA, 50601",77436198,"R"
202975,"410 20TH AVE","INDIAN ROCKS BEACH","FL",33785,27.9018738440001,-82.844488336,475,"410 20TH AVE, INDIAN ROCKS BEACH, FL, 33785","Match","Non_Exact","410 20TH AVE N, INDIAN ROCKS BEACH, FL, 33785",124663217,"L"
202976,"410 25TH STREET","SACRAMENTO","CA",95816,38.5811431380001,-121.470519859,476,"410 25TH STREET, SACRAMENTO, CA, 95816","Match","Exact","410 25TH ST, SACRAMENTO, CA, 95816",133422048,"R"
202977,"410 4TH AVENUE    PO BOX 248","EDGEMONT","SD",57735,43.3007578830001,-103.828040375,477,"410 4TH AVENUE    PO BOX 248, EDGEMONT, SD, 57735","Match","Exact","410 4TH AVE, EDGEMONT, SD, 57735",174183304,"L"
202978,"410 5TH STREET","FULTON","IL",61252,41.871492394,-90.164535166,478,"410 5TH STREET, FULTON, IL, 61252","Match","Exact","410 5TH ST, FULTON, IL, 61252",48978511,"L"
202979,"410 69TH PLACE","SEAT PLEASANT","MD",20743,38.8940191880001,-76.902481834,479,"410 69TH PLACE, SEAT PLEASANT, MD, 20743","Match","Exact","410 69TH PL, SEAT PLEASANT, MD, 20743",76313393,"L"
202980,"410 6TH STREET","ODONNELL","TX",79351,32.9668252870001,-101.827289022,480,"410 6TH STREET, ODONNELL, TX, 79351","Match","Exact","410 6TH ST, ODONNELL, TX, 79351",183047820,"R"
202981,"410 9TH STREET","MCKEESPORT","PA",15232,40.347280234,-79.862454551,481,"410 9TH STREET, MCKEESPORT, PA, 15232","Match","Non_Exact","410 9TH ST, MCKEESPORT, PA, 15132",51672153,"R"
202982,"410 ADAMS STREET","TOLEDO","OH",43604,41.652705181,-83.533902858,482,"410 ADAMS STREET, TOLEDO, OH, 43604","Match","Exact","410 ADAMS ST, TOLEDO, OH, 43604",33943847,"R"
202983,"410 ADELAIDE AVE","STATEN ISLAND","NY",10306,40.5571203760001,-74.117041458,483,"410 ADELAIDE AVE, STATEN ISLAND, NY, 10306","Match","Exact","410 ADELAIDE AVE, STATEN ISLAND, NY, 10306",59868008,"R"
202984,"410 ANDREA DR","OXNARD","CA",93033,34.1557647870001,-119.174446999,484,"410 ANDREA DR, OXNARD, CA, 93033","Match","Exact","410 ANDREA DR, OXNARD, CA, 93033",110116647,"R"
202985,"410 ARNOLD DRIVE","FLORENCE","NJ",8518,40.101707456,-74.774860764,485,"410 ARNOLD DRIVE, FLORENCE, NJ, 8518","Match","Exact","410 ARNOLD DR, FLORENCE, NJ, 08518",632485582,"R"
202986,"410 AYDLOTTE RD","RUTHERFORDTON","NC",28139,35.4365020700001,-81.969718787,486,"410 AYDLOTTE RD, RUTHERFORDTON, NC, 28139","Match","Exact","410 AYDLOTTE RD, RUTHERFORDTON, NC, 28139",636815457,"L"
202987,"410 BELMONT ST","BROCKTON","MA",2301,42.076631756,-71.036755903,487,"410 BELMONT ST, BROCKTON, MA, 2301","Match","Exact","410 BELMONT ST, BROCKTON, MA, 02301",87443570,"L"
202988,"410 BERNICE STREET","COLLINSVILLE","IL",62234,38.652441573,-90.046108711,488,"410 BERNICE STREET, COLLINSVILLE, IL, 62234","Match","Exact","410 BERNICE ST, COLLINSVILLE, IL, 62234",107835653,"L"
202989,"410 BIRCHMERE CLOSE SW","ATLANTA","GA",30331,33.7087002970001,-84.551680322,489,"410 BIRCHMERE CLOSE SW, ATLANTA, GA, 30331","Match","Exact","410 BIRCHMERE CLOSE SW, ATLANTA, GA, 30331",642059072,"L"
202990,"410 BLUEBERRY LANE","NORTH CONWAY","NH",3860,44.0330363680001,-71.152064114,490,"410 BLUEBERRY LANE, NORTH CONWAY, NH, 3860","Match","Exact","410 BLUEBERRY LN, NORTH CONWAY, NH, 03860",145617872,"R"
202991,"410 BOWER ST","LINDEN","NJ",7036,40.638243355,-74.248398838,491,"410 BOWER ST, LINDEN, NJ, 7036","Match","Exact","410 BOWER ST, LINDEN, NJ, 07036",60594945,"R"
202992,"410 BRYAN ST","SUMMERVILLE","SC",29483,33.029567775,-80.181981864,492,"410 BRYAN ST, SUMMERVILLE, SC, 29483","Match","Exact","410 BRYAN ST, SUMMERVILLE, SC, 29483",178466962,"L"
202993,"410 CACTUS STREET","SAN ANTONIO","TX",78203,29.4117840660001,-98.472502821,493,"410 CACTUS STREET, SAN ANTONIO, TX, 78203","Match","Exact","410 CACTUS ST, SAN ANTONIO, TX, 78203",101528881,"L"
202994,"410 CAMP LINCOLN RD","CAMP VERDE","AZ",86322,NA,NA,494,"410 CAMP LINCOLN RD, CAMP VERDE, AZ, 86322","No_Match",NA,NA,NA,NA
202995,"410 CANALE LANE","CANTON","PA",17724,41.6609673080001,-76.846320174,495,"410 CANALE LANE, CANTON, PA, 17724","Match","Exact","410 CANALE LN, CANTON, PA, 17724",648169396,"R"
202996,"410 CARDINAL AVE","BOCA RATON","FL",33486,26.353715837,-80.104381469,496,"410 CARDINAL AVE, BOCA RATON, FL, 33486","Match","Exact","410 CARDINAL AVE, BOCA RATON, FL, 33486",115537135,"R"
202997,"410 CATHEDRAL PKWY APT 3G","NEW YORK","NY",10025,40.8019903590001,-73.961538976,497,"410 CATHEDRAL PKWY APT 3G, NEW YORK, NY, 10025","Match","Exact","410 CATHEDRAL PKWY, NEW YORK, NY, 10025",59656866,"L"
202998,"410 CAZADOR LANE 4","SAN CLEMENTE","CA",92672,33.419044023,-117.617000833,498,"410 CAZADOR LANE 4, SAN CLEMENTE, CA, 92672","Match","Exact","410 CAZADOR LN, SAN CLEMENTE, CA, 92672",609046372,"R"
202999,"410 CECILE DRIVE","OXFORD","AL",36203,33.598101548,-85.918900636,499,"410 CECILE DRIVE, OXFORD, AL, 36203","Match","Exact","410 CECILE DR, OXFORD, AL, 36203",647291163,"R"
203000,"410 CEDAR STREET","TUSKEGEE","AL",36083,32.4307227200001,-85.6845450179999,500,"410 CEDAR STREET, TUSKEGEE, AL, 36083","Match","Exact","410 CEDAR ST, TUSKEGEE, AL, 36083",69127336,"R"
