"ID","Address","City","State","Zip","lat","long","id","input_address","match_indicator","match_type","matched_address","tiger_line_id","tiger_side"
147501,"2710 HAINES AVE","RAPID CITY","SD",57702,NA,NA,1,"2710 HAINES AVE, RAPID CITY, SD, 57702","No_Match",NA,NA,NA,NA
147502,"2710 HAMBURG PIKE","JEFFERSONVILLE","IN",47130,38.3057573740001,-85.744834429,2,"2710 HAMBURG PIKE, JEFFERSONVILLE, IN, 47130","Match","Exact","2710 HAMBURG PIKE, JEFFERSONVILLE, IN, 47130",64878606,"L"
147503,"2710 HAMILTON SPRINGS DRIVE","LOUISVILLE","KY",40245,38.2774876570001,-85.4905751599999,3,"2710 HAMILTON SPRINGS DRIVE, LOUISVILLE, KY, 40245","Match","Exact","2710 HAMILTON SPRINGS DR, LOUISVILLE, KY, 40245",650850284,"L"
147504,"2710 HIDDEN KNOLL COURT","SUGAR LAND","TX",77478,29.585480003,-95.584026594,4,"2710 HIDDEN KNOLL COURT, SUGAR LAND, TX, 77478","Match","Exact","2710 HIDDEN KNOLL CT, SUGAR LAND, TX, 77478",78290097,"R"
147505,"2710 HOLMES AVENUE","HUNTSVILLE","AL",35816,34.729590122,-86.605977589,5,"2710 HOLMES AVENUE, HUNTSVILLE, AL, 35816","Match","Non_Exact","2710 HOLMES AVE NW, HUNTSVILLE, AL, 35816",58116867,"R"
147506,"2710 HYDER AVENUE SE","ALBUQUERQUE","NM",87106,35.06842813,-106.616187997,6,"2710 HYDER AVENUE SE, ALBUQUERQUE, NM, 87106","Match","Exact","2710 HYDER AVE SE, ALBUQUERQUE, NM, 87106",206711084,"R"
147507,"2710 JUDSON STREET","SHREVEPORT","LA",71109,32.4884613350001,-93.780585672,7,"2710 JUDSON STREET, SHREVEPORT, LA, 71109","Match","Exact","2710 JUDSON ST, SHREVEPORT, LA, 71109",57435107,"R"
147508,"2710 KATHLEEN AVENUE","EVANSVILLE","IN",47714,37.9461834030001,-87.515908242,8,"2710 KATHLEEN AVENUE, EVANSVILLE, IN, 47714","Match","Exact","2710 KATHLEEN AVE, EVANSVILLE, IN, 47714",39792951,"L"
147509,"2710 KELVIN AVE APT 2141","IRVINE","CA",92614,33.6842716,-117.838089807,9,"2710 KELVIN AVE APT 2141, IRVINE, CA, 92614","Match","Exact","2710 KELVIN AVE, IRVINE, CA, 92614",641556594,"R"
147510,"2710 LANTANA DR","UPPER MARLBORO","MD",20774,38.853187443,-76.803864972,10,"2710 LANTANA DR, UPPER MARLBORO, MD, 20774","Match","Exact","2710 LANTANA DR, UPPER MARLBORO, MD, 20774",76346407,"R"
147511,"2710 LOCHMOOR LANE","BURLINGTON","IA",52601,40.837887208,-91.1305876169999,11,"2710 LOCHMOOR LANE, BURLINGTON, IA, 52601","Match","Exact","2710 LOCHMOOR LN, BURLINGTON, IA, 52601",5547856,"L"
147512,"2710 LOCUST ST","SUTTER","CA",95982,39.1671345950001,-121.74395293,12,"2710 LOCUST ST, SUTTER, CA, 95982","Match","Exact","2710 LOCUST ST, SUTTER, CA, 95982",68585077,"L"
147513,"2710 MANHATTAN AVE","BALTIMORE","MD",21215,39.3583298500001,-76.6740184609999,13,"2710 MANHATTAN AVE, BALTIMORE, MD, 21215","Match","Exact","2710 MANHATTAN AVE, BALTIMORE, MD, 21215",206465074,"R"
147514,"2710 MUSKOGEE ST","ADELPHI","MD",20783,39.0176547390001,-76.960314528,14,"2710 MUSKOGEE ST, ADELPHI, MD, 20783","Match","Exact","2710 MUSKOGEE ST, ADELPHI, MD, 20783",76323418,"L"
147515,"2710 NE 14TH AVENUE","PORTLAND","OR",97212,45.5422788920001,-122.651443526,15,"2710 NE 14TH AVENUE, PORTLAND, OR, 97212","Match","Non_Exact","2710 NE 14TH AVE, PORTLAND, OR, 97212",157504291,"R"
147516,"2710 NE 240TH ST","RIDGEFIELD","WA",98642,45.7947409060001,-122.643285515,16,"2710 NE 240TH ST, RIDGEFIELD, WA, 98642","Match","Exact","2710 NE 240TH ST, RIDGEFIELD, WA, 98642",158314502,"R"
147517,"2710 NORTHAVEN COURT","FORT WAYNE","IN",46825,41.1615603760001,-85.103791707,17,"2710 NORTHAVEN COURT, FORT WAYNE, IN, 46825","Match","Non_Exact","2710 NORTHHAVEN CT, FORT WAYNE, IN, 46825",6397473,"L"
147518,"2710 NW 24TH STREET","MIAMI","FL",33142,25.7989005650001,-80.2402190289999,18,"2710 NW 24TH STREET, MIAMI, FL, 33142","Match","Non_Exact","2710 NW 24TH ST, MIAMI, FL, 33142",116011178,"L"
147519,"2710 NW WALDEN DRIVE","CAMAS","WA",98607,45.617992875,-122.4375667,19,"2710 NW WALDEN DRIVE, CAMAS, WA, 98607","Match","Exact","2710 NW WALDEN DR, CAMAS, WA, 98607",158344655,"L"
147520,"2710 OLD MILTON PARKWAY STE 250","ALPHARETTA","GA",30009,NA,NA,20,"2710 OLD MILTON PARKWAY STE 250, ALPHARETTA, GA, 30009","No_Match",NA,NA,NA,NA
147521,"2710 OWENS AVE SW","MARIETTA","GA",30064,33.8871752210001,-84.630559477,21,"2710 OWENS AVE SW, MARIETTA, GA, 30064","Match","Exact","2710 OWENS AVE SW, MARIETTA, GA, 30064",17173522,"R"
147522,"2710 RIVER PLATE DR","PAHRUMP","NV",89048,36.179930256,-116.034625879,22,"2710 RIVER PLATE DR, PAHRUMP, NV, 89048","Match","Exact","2710 RIVER PLATE DR, PAHRUMP, NV, 89048",140525729,"L"
147523,"2710 ROBIN STREET","FORT PIERCE","FL",34982,27.420678421,-80.3447173819999,23,"2710 ROBIN STREET, FORT PIERCE, FL, 34982","Match","Exact","2710 ROBIN ST, FORT PIERCE, FL, 34982",120184790,"L"
147524,"2710 S ACADEMY BLVD - 110","COLORADO SPRINGS","CO",80916,38.7939342710001,-104.757568574,24,"2710 S ACADEMY BLVD - 110, COLORADO SPRINGS, CO, 80916","Match","Non_Exact","2710 S ACADEMY BLVD, COLORADO SPRINGS, CO, 80916",617229370,"R"
147525,"2710 S FINLEY LAKE AVE","HARRISON","MI",48625,43.9483479960001,-84.8890587179999,25,"2710 S FINLEY LAKE AVE, HARRISON, MI, 48625","Match","Exact","2710 FINLEY LAKE AVE, HARRISON, MI, 48625",110386236,"L"
147526,"2710 S RIVER PLATE DR","PAHRUMP","NV",89048,36.179930256,-116.034625879,26,"2710 S RIVER PLATE DR, PAHRUMP, NV, 89048","Match","Exact","2710 RIVER PLATE DR, PAHRUMP, NV, 89048",140525729,"L"
147527,"2710 S","MARTINEZ","CA",94553,NA,NA,27,"2710 S, MARTINEZ, CA, 94553","No_Match",NA,NA,NA,NA
147528,"2710 SAINT CLOUD OAKS DR","VALRICO","FL",33594,27.9309961320001,-82.238956362,28,"2710 SAINT CLOUD OAKS DR, VALRICO, FL, 33594","Match","Exact","2710 SAINT CLOUD OAKS DR, VALRICO, FL, 33594",104598857,"R"
147529,"2710 SE 141ST AVE UNIT 12","PORTLAND","OR",97236,45.502340615,-122.518455075,29,"2710 SE 141ST AVE UNIT 12, PORTLAND, OR, 97236","Match","Non_Exact","2710 SE 141ST AVE, PORTLAND, OR, 97236",157571608,"L"
147530,"2710 SE COLUMBUS ST","ALBANY","OR",97322,44.6157650430001,-123.078699797,30,"2710 SE COLUMBUS ST, ALBANY, OR, 97322","Match","Non_Exact","2710 COLUMBUS ST SE, ALBANY, OR, 97322",156073576,"L"
147531,"2710 SHERIDAN ROAD 104","WASHINGTON","DC",20020,38.8569318300001,-76.9933933849999,31,"2710 SHERIDAN ROAD 104, WASHINGTON, DC, 20020","Match","Non_Exact","2710 SHERIDAN RD SE, WASHINGTON, DC, 20020",76240167,"L"
147532,"2710 SHILOH WAY","SNELLVILLE","GA",30039,33.8162114560001,-84.074111825,32,"2710 SHILOH WAY, SNELLVILLE, GA, 30039","Match","Exact","2710 SHILOH WAY, SNELLVILLE, GA, 30039",88906161,"L"
147533,"2710 SOMERSET DRIVE  X209","FORT LAUDERDALE","FL",33311,26.157076944,-80.192159343,33,"2710 SOMERSET DRIVE  X209, FORT LAUDERDALE, FL, 33311","Match","Exact","2710 SOMERSET DR, FORT LAUDERDALE, FL, 33311",114808827,"R"
147534,"2710 SOUTH RURAL RD","TEMPE","AZ",85282,33.3999508260001,-111.926316196,34,"2710 SOUTH RURAL RD, TEMPE, AZ, 85282","Match","Exact","2710 S RURAL RD, TEMPE, AZ, 85282",128227623,"R"
147535,"2710 SUNRISE RIM RD SUITE 230","BOISE","ID",83705,43.5739655450001,-116.215514034,35,"2710 SUNRISE RIM RD SUITE 230, BOISE, ID, 83705","Match","Non_Exact","2710 W SUNRISE RIM RD, BOISE, ID, 83705",117928766,"R"
147536,"2710 SURREY LANE","ESCONDIDO","CA",92029,33.119347142,-117.127817906,36,"2710 SURREY LANE, ESCONDIDO, CA, 92029","Match","Exact","2710 SURREY LN, ESCONDIDO, CA, 92029",195427608,"R"
147537,"2710 SW 85TH ST","OCALA","FL",34476,29.099039227,-82.170116948,37,"2710 SW 85TH ST, OCALA, FL, 34476","Match","Exact","2710 SW 85TH ST, OCALA, FL, 34476",116717738,"L"
147538,"2710 SWAMP CABBAGE COURT","FORT MYERS","FL",33901,26.601430479,-81.857994619,38,"2710 SWAMP CABBAGE COURT, FORT MYERS, FL, 33901","Match","Exact","2710 SWAMP CABBAGE CT, FORT MYERS, FL, 33901",118055410,"R"
147539,"2710 TITANIA PL","SIMI VALLEY","CA",93063,34.2847095990001,-118.69039112,39,"2710 TITANIA PL, SIMI VALLEY, CA, 93063","Match","Exact","2710 TITANIA PL, SIMI VALLEY, CA, 93063",110024362,"R"
147540,"2710 TRINITY VW","SAN ANTONIO","TX",78261,29.703682186,-98.445205087,40,"2710 TRINITY VW, SAN ANTONIO, TX, 78261","Match","Exact","2710 TRINITY VW, SAN ANTONIO, TX, 78261",619980392,"R"
147541,"2710 W COURT STREET STE 3","FLINT","MI",48503,NA,NA,41,"2710 W COURT STREET STE 3, FLINT, MI, 48503","Tie",NA,NA,NA,NA
147542,"2710 W DAVIE BOULEVARD","FT LAUDERDALE","FL",33312,26.106255447,-80.179528348,42,"2710 W DAVIE BOULEVARD, FT LAUDERDALE, FL, 33312","Match","Exact","2710 DAVIE BLVD, FORT LAUDERDALE, FL, 33312",114714791,"L"
147543,"2710 W LEHIGH AVE","PHILADELPHIA","PA",19132,39.996668239,-75.1757749829999,43,"2710 W LEHIGH AVE, PHILADELPHIA, PA, 19132","Match","Exact","2710 W LEHIGH AVE, PHILADELPHIA, PA, 19132",131402097,"L"
147544,"2710 W SOUTHERN AVE  STE 105","PHOENIX","AZ",85041,33.392208613,-112.120851073,44,"2710 W SOUTHERN AVE  STE 105, PHOENIX, AZ, 85041","Match","Non_Exact","2710 W SOUTHERN AVE, PHOENIX, AZ, 85041",128968414,"R"
147545,"2710 W TEMPLE ST","LOS ANGELES","CA",90026,34.073127023,-118.276257686,45,"2710 W TEMPLE ST, LOS ANGELES, CA, 90026","Match","Exact","2710 W TEMPLE ST, LOS ANGELES, CA, 90026",141605244,"L"
147546,"2710 WEST OAKRIDGE DRIVE LOT87","ALBANY","GA",31721,31.5489710420001,-84.252130391,46,"2710 WEST OAKRIDGE DRIVE LOT87, ALBANY, GA, 31721","Match","Exact","2710 W OAKRIDGE DR, ALBANY, GA, 31721",84322613,"L"
147547,"27100 CYPRESSWOOD DRIVE","SPRING","TX",77373,30.0597706660001,-95.396982029,47,"27100 CYPRESSWOOD DRIVE, SPRING, TX, 77373","Match","Exact","27100 CYPRESSWOOD DR, SPRING, TX, 77373",642113765,"L"
147548,"27100 HWY 184","DOLORES","CO",81323,37.4843423340001,-108.55587613,48,"27100 HWY 184, DOLORES, CO, 81323","Match","Exact","27100 HWY 184, DOLORES, CO, 81323",648168065,"L"
147549,"27100 OAKMEAD DR STE 175","PERRYSBURG","OH",43551,41.5457055740001,-83.5956969329999,49,"27100 OAKMEAD DR STE 175, PERRYSBURG, OH, 43551","Match","Exact","27100 OAKMEAD DR, PERRYSBURG, OH, 43551",38743565,"R"
147550,"27100 OAKMEAD DRIVE SUITE 126","PERRYSBURG","OH",43551,41.5457055740001,-83.5956969329999,50,"27100 OAKMEAD DRIVE SUITE 126, PERRYSBURG, OH, 43551","Match","Exact","27100 OAKMEAD DR, PERRYSBURG, OH, 43551",38743565,"R"
147551,"27100 S YODER RD","PRETTY PRAIRIE","KS",67570,37.742942015,-97.862809114,51,"27100 S YODER RD, PRETTY PRAIRIE, KS, 67570","Match","Exact","27100 S YODER RD, PRETTY PRAIRIE, KS, 67570",142948902,"R"
147552,"27102 FOXBOROUGH","ALISO VIEJO","CA",92656,33.569450961,-117.718290687,52,"27102 FOXBOROUGH, ALISO VIEJO, CA, 92656","Match","Exact","27102 FOXBOROUGH, ALISO VIEJO, CA, 92656",144381656,"R"
147553,"27102 NOGAL","MISSION VIEJO","CA",92692,33.5717790420001,-117.657303215,53,"27102 NOGAL, MISSION VIEJO, CA, 92692","Match","Exact","27102 NOGAL, MISSION VIEJO, CA, 92692",144388638,"R"
147554,"27105 S HARLAN LN","CONROE","TX",77385,NA,NA,54,"27105 S HARLAN LN, CONROE, TX, 77385","Tie",NA,NA,NA,NA
147555,"2711 20TH STREET","BAKERSFIELD","CA",93301,35.37723923,-119.033018496,55,"2711 20TH STREET, BAKERSFIELD, CA, 93301","Match","Exact","2711 20TH ST, BAKERSFIELD, CA, 93301",109088480,"L"
147556,"2711 26TH STREET NE","WASSHINGTON","DC",20018,38.924777518,-76.970132954,56,"2711 26TH STREET NE, WASSHINGTON, DC, 20018","Match","Non_Exact","2711 26TH ST NE, WASHINGTON, DC, 20018",76229289,"R"
147557,"2711 ALIA CIRCLE","LOUISVILLE","KY",40222,38.2853670580001,-85.620728572,57,"2711 ALIA CIRCLE, LOUISVILLE, KY, 40222","Match","Exact","2711 ALIA CIR, LOUISVILLE, KY, 40222",640123580,"L"
147558,"2711 ATHENS AVE","CARLSBAD","CA",92010,33.1654634930001,-117.312423926,58,"2711 ATHENS AVE, CARLSBAD, CA, 92010","Match","Exact","2711 ATHENS AVE, CARLSBAD, CA, 92010",195291164,"R"
147559,"2711 BATSON AVE","ROWLAND HEIGHTS","CA",91748,33.970315016,-117.90575035,59,"2711 BATSON AVE, ROWLAND HEIGHTS, CA, 91748","Match","Exact","2711 BATSON AVE, ROWLAND HEIGHTS, CA, 91748",142801438,"R"
147560,"2711 BUFORD ROAD NUMBER 204","RICHMOND","VA",23235,37.5350096220001,-77.561479417,60,"2711 BUFORD ROAD NUMBER 204, RICHMOND, VA, 23235","Match","Exact","2711 BUFORD RD, RICHMOND, VA, 23235",201586793,"R"
147561,"2711 BUFORD ROAD SUITE 212","RICHMOND","VA",23235,37.5350096220001,-77.561479417,61,"2711 BUFORD ROAD SUITE 212, RICHMOND, VA, 23235","Match","Exact","2711 BUFORD RD, RICHMOND, VA, 23235",201586793,"R"
147562,"2711 BUFORD ROAD SUITE 335","RICHMOND","VA",23235,37.5350096220001,-77.561479417,62,"2711 BUFORD ROAD SUITE 335, RICHMOND, VA, 23235","Match","Exact","2711 BUFORD RD, RICHMOND, VA, 23235",201586793,"R"
147563,"2711 BURNING TREE LN","SUFFOLK","VA",23435,36.8416071660001,-76.509011377,63,"2711 BURNING TREE LN, SUFFOLK, VA, 23435","Match","Exact","2711 BURNING TREE LN, SUFFOLK, VA, 23435",122230978,"R"
147564,"2711 BURRMONT RD","ROCKFORD","IL",61107,42.2820877830001,-89.052172158,64,"2711 BURRMONT RD, ROCKFORD, IL, 61107","Match","Exact","2711 BURRMONT RD, ROCKFORD, IL, 61107",49259842,"R"
147565,"2711 CALARIVA DRIVE","STOCKTON","CA",95204,37.9773661190001,-121.342371111,65,"2711 CALARIVA DRIVE, STOCKTON, CA, 95204","Match","Exact","2711 CALARIVA DR, STOCKTON, CA, 95204",133846954,"R"
147566,"2711 CAMPOSTELLA ROAD","CHESAPEAKE","VA",23324,36.813446689,-76.259282422,66,"2711 CAMPOSTELLA ROAD, CHESAPEAKE, VA, 23324","Match","Exact","2711 CAMPOSTELLA RD, CHESAPEAKE, VA, 23324",636651442,"R"
147567,"2711 CENTERVILLE RD STE 300 PMB 394","WILMINGTON","DE",19808,39.7534044670001,-75.624618008,67,"2711 CENTERVILLE RD STE 300 PMB 394, WILMINGTON, DE, 19808","Match","Exact","2711 CENTERVILLE RD, WILMINGTON, DE, 19808",606250513,"L"
147568,"2711 CENTERVILLE RD STE 400","WILMINGTON","DE",19808,39.7534044670001,-75.624618008,68,"2711 CENTERVILLE RD STE 400, WILMINGTON, DE, 19808","Match","Exact","2711 CENTERVILLE RD, WILMINGTON, DE, 19808",606250513,"L"
147569,"2711 CENTERVILLE RD SUITE 400","CITY OF WILMINGTON","DE",19808,39.7534044670001,-75.624618008,69,"2711 CENTERVILLE RD SUITE 400, CITY OF WILMINGTON, DE, 19808","Match","Non_Exact","2711 CENTERVILLE RD, WILMINGTON, DE, 19808",606250513,"L"
147570,"2711 CENTERVILLE RD SUITE 400","WILMINGTON","DE",19808,39.7534044670001,-75.624618008,70,"2711 CENTERVILLE RD SUITE 400, WILMINGTON, DE, 19808","Match","Exact","2711 CENTERVILLE RD, WILMINGTON, DE, 19808",606250513,"L"
147571,"2711 CENTERVILLE ROAD STE 400","NEW CASTLE","DE",19808,39.7534044670001,-75.624618008,71,"2711 CENTERVILLE ROAD STE 400, NEW CASTLE, DE, 19808","Match","Non_Exact","2711 CENTERVILLE RD, MARSHALLTON, DE, 19808",606250513,"L"
147572,"2711 CENTERVILLE ROAD SUITE 400","WILMINGTON","DE",19808,39.7534044670001,-75.624618008,72,"2711 CENTERVILLE ROAD SUITE 400, WILMINGTON, DE, 19808","Match","Exact","2711 CENTERVILLE RD, WILMINGTON, DE, 19808",606250513,"L"
147573,"2711 CENTERVILLE ROAD","WILMINGTON","DE",19808,39.7534044670001,-75.624618008,73,"2711 CENTERVILLE ROAD, WILMINGTON, DE, 19808","Match","Exact","2711 CENTERVILLE RD, WILMINGTON, DE, 19808",606250513,"L"
147574,"2711 CLEARLAKE RD STE C-10","COCOA","FL",32922,NA,NA,74,"2711 CLEARLAKE RD STE C-10, COCOA, FL, 32922","No_Match",NA,NA,NA,NA
147575,"2711 COUNTRY GLEN CT","KELLER","TX",76248,32.925575334,-97.192676381,75,"2711 COUNTRY GLEN CT, KELLER, TX, 76248","Match","Exact","2711 COUNTRY GLEN CT, KELLER, TX, 76248",102100324,"L"
147576,"2711 DWIGHT","STOCKTON","CA",95204,37.9734574980001,-121.306989137,76,"2711 DWIGHT, STOCKTON, CA, 95204","Match","Non_Exact","2711 DWIGHT WAY, STOCKTON, CA, 95204",133848128,"L"
147577,"2711 EAST BAINBRIDGE ROAD","SAN DIEGO","CA",92106,32.730597264,-117.218544385,77,"2711 EAST BAINBRIDGE ROAD, SAN DIEGO, CA, 92106","Match","Exact","2711 E BAINBRIDGE RD, SAN DIEGO, CA, 92106",618554428,"L"
147578,"2711 FAIRLAND ST","CUYAHOGA FALLS","OH",44221,41.1474082650001,-81.483298888,78,"2711 FAIRLAND ST, CUYAHOGA FALLS, OH, 44221","Match","Exact","2711 FAIRLAND ST, CUYAHOGA FALLS, OH, 44221",61348531,"R"
147579,"2711 FOREST DRIVE","WINSTON SALEM","NC",27104,36.103205411,-80.289795904,79,"2711 FOREST DRIVE, WINSTON SALEM, NC, 27104","Match","Exact","2711 FOREST DR, WINSTON SALEM, NC, 27104",84604183,"R"
147580,"2711 GRAND AVENUE","DES MOINES","IA",50312,NA,NA,80,"2711 GRAND AVENUE, DES MOINES, IA, 50312","No_Match",NA,NA,NA,NA
147581,"2711 HARPSTER RD","RITTMAN","OH",44270,41.0027393870001,-81.786753394,81,"2711 HARPSTER RD, RITTMAN, OH, 44270","Match","Exact","2711 HARPSTER RD, RITTMAN, OH, 44270",635556968,"L"
147582,"2711 HOLT DRIVE","COLUMBIA","SC",29205,33.979927113,-81.005102145,82,"2711 HOLT DRIVE, COLUMBIA, SC, 29205","Match","Exact","2711 HOLT DR, COLUMBIA, SC, 29205",71828404,"L"
147583,"2711 I STREET APT D","SACRAMENTO","CA",95816,38.575231429,-121.469855539,83,"2711 I STREET APT D, SACRAMENTO, CA, 95816","Match","Exact","2711 I ST, SACRAMENTO, CA, 95816",133324913,"L"
147584,"2711 JANET LANE","PEARLAND","TX",77581,29.5469205630001,-95.222231967,84,"2711 JANET LANE, PEARLAND, TX, 77581","Match","Exact","2711 JANET LN, PEARLAND, TX, 77581",116608201,"L"
147585,"2711 LARKIN PLACE","SAN DIEGO","CA",92123,32.7927816390001,-117.133803611,85,"2711 LARKIN PLACE, SAN DIEGO, CA, 92123","Match","Exact","2711 LARKIN PL, SAN DIEGO, CA, 92123",195321388,"R"
147586,"2711 LOST LAKES DR","POWDER SPRINGS","GA",30127,33.8868746700001,-84.690852875,86,"2711 LOST LAKES DR, POWDER SPRINGS, GA, 30127","Match","Non_Exact","2711 LOST LAKES DR SW, POWDER SPGS, GA, 30127",614168965,"R"
147587,"2711 MAIN STREET STUDIO 204","HOUSTON","TX",75002,29.744583414,-95.374709249,87,"2711 MAIN STREET STUDIO 204, HOUSTON, TX, 75002","Match","Non_Exact","2711 MAIN ST, HOUSTON, TX, 77002",96353046,"L"
147588,"2711 MOSS OAK DRIVE","SARASOTA","FL",34231,27.2947260010001,-82.516053066,88,"2711 MOSS OAK DRIVE, SARASOTA, FL, 34231","Match","Exact","2711 MOSS OAK DR, SARASOTA, FL, 34231",16380641,"R"
147589,"2711 MULBERRY STREET SE","ROCHESTER","MN",55904,43.996077031,-92.424023114,89,"2711 MULBERRY STREET SE, ROCHESTER, MN, 55904","Match","Exact","2711 MULBERRY ST SE, ROCHESTER, MN, 55904",30554570,"L"
147590,"2711 N HASKELL AVE STE 550","DALLAS","TX",75201,NA,NA,90,"2711 N HASKELL AVE STE 550, DALLAS, TX, 75201","No_Match",NA,NA,NA,NA
147591,"2711 N SEPULVEDA  BLVD","MANHATTAN BEACH","CA",90266,33.895986158,-118.396005167,91,"2711 N SEPULVEDA  BLVD, MANHATTAN BEACH, CA, 90266","Match","Exact","2711 N SEPULVEDA BLVD, MANHATTAN BEACH, CA, 90266",642864477,"L"
147592,"2711 N SEPULVEDA BLVD 250","MANHATTAN BEAC","CA",90266,NA,NA,92,"2711 N SEPULVEDA BLVD 250, MANHATTAN BEAC, CA, 90266","No_Match",NA,NA,NA,NA
147593,"2711 N SEPULVEDA BLVD 413","MANHATTAN BEACH","CA",90266,33.895986158,-118.396005167,93,"2711 N SEPULVEDA BLVD 413, MANHATTAN BEACH, CA, 90266","Match","Non_Exact","2711 N SEPULVEDA BLVD, MANHATTAN BEACH, CA, 90266",642864477,"L"
147594,"2711 N SEPULVEDA BLVD NO 351","MANHATTAN BEACH","CA",90266,NA,NA,94,"2711 N SEPULVEDA BLVD NO 351, MANHATTAN BEACH, CA, 90266","No_Match",NA,NA,NA,NA
147595,"2711 N SEPULVEDA BLVD NUM 705","MANHATTAN BEACH","CA",90266,33.895986158,-118.396005167,95,"2711 N SEPULVEDA BLVD NUM 705, MANHATTAN BEACH, CA, 90266","Match","Non_Exact","2711 N SEPULVEDA BLVD, MANHATTAN BEACH, CA, 90266",642864477,"L"
147596,"2711 N SEPULVEDA BLVD NUM 741","MANHATTAN BEACH","CA",90266,33.895986158,-118.396005167,96,"2711 N SEPULVEDA BLVD NUM 741, MANHATTAN BEACH, CA, 90266","Match","Non_Exact","2711 N SEPULVEDA BLVD, MANHATTAN BEACH, CA, 90266",642864477,"L"
147597,"2711 NORTH SEPULVEDA UNIT 1024","MANHATTAN BEACH","CA",90266,33.8959858860001,-118.396005163,97,"2711 NORTH SEPULVEDA UNIT 1024, MANHATTAN BEACH, CA, 90266","Match","Non_Exact","2711 N SEPULVEDA BLVD, MANHATTAN BEACH, CA, 90266",642864477,"L"
147598,"2711 NOTTINGHAM WAY","HAMILTON","NJ",8619,40.2363896640001,-74.687409197,98,"2711 NOTTINGHAM WAY, HAMILTON, NJ, 8619","Match","Exact","2711 NOTTINGHAM WAY, HAMILTON, NJ, 08619",60184000,"R"
147599,"2711 NW WALDEN DRIVE","CAMAS","WA",98607,45.6182229620001,-122.437983995,99,"2711 NW WALDEN DRIVE, CAMAS, WA, 98607","Match","Exact","2711 NW WALDEN DR, CAMAS, WA, 98607",158344655,"R"
147600,"2711 PEKIN RD","SPRINGBORO","OH",45066,39.508651345,-84.251907565,100,"2711 PEKIN RD, SPRINGBORO, OH, 45066","Match","Non_Exact","2711 W PEKIN RD, SPRINGBORO, OH, 45066",159047358,"L"
147601,"2711 PINE HILLS RD  PO BOX 585271","ORLANDO","FL",32858,NA,NA,101,"2711 PINE HILLS RD  PO BOX 585271, ORLANDO, FL, 32858","No_Match",NA,NA,NA,NA
147602,"2711 POMONA COURT","INDIANAPOLIS","IN",46268,39.91862353,-86.208418848,102,"2711 POMONA COURT, INDIANAPOLIS, IN, 46268","Match","Exact","2711 POMONA CT, INDIANAPOLIS, IN, 46268",108023631,"L"
147603,"2711 RESNIK CIRCLE E","PALM HARBOR","FL",34683,28.051246023,-82.766254308,103,"2711 RESNIK CIRCLE E, PALM HARBOR, FL, 34683","Match","Exact","2711 RESNIK CIR E, PALM HARBOR, FL, 34683",124734546,"L"
147604,"2711 SHERIDAN RD SUITE 207","ZION","IL",60096,42.4457948040001,-87.825532545,104,"2711 SHERIDAN RD SUITE 207, ZION, IL, 60096","Match","Non_Exact","2711 SHERIDAN RD, ZION, IL, 60099",119628296,"L"
147605,"2711 SPARROW CIRCLE","COSTA MESA","CA",92626,33.669079475,-117.932199362,105,"2711 SPARROW CIRCLE, COSTA MESA, CA, 92626","Match","Exact","2711 SPARROW CIR, COSTA MESA, CA, 92626",144045800,"L"
147606,"2711 TERRACE RD","WASHINGTON","DC",20020,38.856408017,-76.962923303,106,"2711 TERRACE RD, WASHINGTON, DC, 20020","Match","Non_Exact","2711 TERRACE RD SE, WASHINGTON, DC, 20020",76232909,"R"
147607,"2711 TRAIL RIDGE RD","HUNTSVILLE","AL",35810,34.7623949700001,-86.636949809,107,"2711 TRAIL RIDGE RD, HUNTSVILLE, AL, 35810","Match","Non_Exact","2711 TRAIL RIDGE RD NW, HUNTSVILLE, AL, 35810",58113293,"L"
147608,"2711 UNION STREET","SAN FRANCISCO","CA",94123,37.795998351,-122.444030002,108,"2711 UNION STREET, SAN FRANCISCO, CA, 94123","Match","Exact","2711 UNION ST, SAN FRANCISCO, CA, 94123",192279551,"L"
147609,"2711 US HWY 62","FLOYDADA","TX",79235,33.928434661,-101.358995296,109,"2711 US HWY 62, FLOYDADA, TX, 79235","Match","Exact","2711 US HWY 62, FLOYDADA, TX, 79235",635923044,"R"
147610,"2711 VERMILLION DRIVE","MISSOURI CITY","TX",77459,29.5466189910001,-95.515605837,110,"2711 VERMILLION DRIVE, MISSOURI CITY, TX, 77459","Match","Exact","2711 VERMILLION DR, MISSOURI CITY, TX, 77459",78287272,"R"
147611,"2711 WILKINSON BLVD","CHARLOTTE","NC",28208,35.22411228,-80.886427113,111,"2711 WILKINSON BLVD, CHARLOTTE, NC, 28208","Match","Exact","2711 WILKINSON BLVD, CHARLOTTE, NC, 28208",70484519,"L"
147612,"2711 WINSTON AVENUE","LAS CRUCES","NM",88005,32.3372054700001,-106.781341694,112,"2711 WINSTON AVENUE, LAS CRUCES, NM, 88005","Match","Exact","2711 WINSTON AVE, LAS CRUCES, NM, 88005",189543237,"L"
147613,"27110 PERRY STREET","ROSEVILLE","MI",48066,42.4955513260001,-82.962146574,113,"27110 PERRY STREET, ROSEVILLE, MI, 48066","Match","Exact","27110 PERRY ST, ROSEVILLE, MI, 48066",110676102,"R"
147614,"27111 HOLLY LORD","MAGNOLIA","TX",77355,30.1194710510001,-95.663910018,114,"27111 HOLLY LORD, MAGNOLIA, TX, 77355","Match","Exact","27111 HOLLY LORD, MAGNOLIA, TX, 77355",79328188,"R"
147615,"27111 WHITE TAIL RD","SHELL KNOB","MO",65747,36.532595938,-93.6044489619999,115,"27111 WHITE TAIL RD, SHELL KNOB, MO, 65747","Match","Non_Exact","27111 WHITETAIL RD, SHELL KNOB, MO, 65747",49366202,"L"
147616,"27115 N 45TH STREET","CAVE CREEK","AZ",85331,33.733337041,-111.984560674,116,"27115 N 45TH STREET, CAVE CREEK, AZ, 85331","Match","Exact","27115 N 45TH ST, CAVE CREEK, AZ, 85331",128184349,"R"
147617,"27115 NE STEWART ST","DUVALL","WA",98019,47.742541137,-121.976400969,117,"27115 NE STEWART ST, DUVALL, WA, 98019","Match","Exact","27115 NE STEWART ST, DUVALL, WA, 98019",625102976,"R"
147618,"2712 3RD ST NW","CENTER POINT","AL",35215,33.6564359860001,-86.692890314,118,"2712 3RD ST NW, CENTER POINT, AL, 35215","Match","Exact","2712 3RD ST NW, CENTER POINT, AL, 35215",81566869,"L"
147619,"2712 41ST AVENUE SOUTH","MINNEAPOLIS","MN",55406,44.9532652130001,-93.2140495,119,"2712 41ST AVENUE SOUTH, MINNEAPOLIS, MN, 55406","Match","Exact","2712 41ST AVE S, MINNEAPOLIS, MN, 55406",43640048,"R"
147620,"2712 5TH STREET","BOULDER","CO",80304,40.025733126,-105.290243283,120,"2712 5TH STREET, BOULDER, CO, 80304","Match","Exact","2712 5TH ST, BOULDER, CO, 80304",188159234,"R"
147621,"2712 AIRPARK DR","SANTA MARIA","CA",93455,NA,NA,121,"2712 AIRPARK DR, SANTA MARIA, CA, 93455","No_Match",NA,NA,NA,NA
147622,"2712 ALMANZOR AVE","IRVING","TX",75062,32.843516279,-97.014598651,122,"2712 ALMANZOR AVE, IRVING, TX, 75062","Match","Exact","2712 ALMANZOR AVE, IRVING, TX, 75062",643187181,"L"
147623,"2712 ASHBROOKE DRIVE","LEXINGTON","KY",40513,37.99038871,-84.603451279,123,"2712 ASHBROOKE DRIVE, LEXINGTON, KY, 40513","Match","Exact","2712 ASHBROOKE DR, LEXINGTON, KY, 40513",31955544,"L"
147624,"2712 ASHLAND ST","RALEIGH","NC",27608,35.8111512570001,-78.6602768079999,124,"2712 ASHLAND ST, RALEIGH, NC, 27608","Match","Exact","2712 ASHLAND ST, RALEIGH, NC, 27608",72502369,"R"
147625,"2712 BERKSHIRE DRIVE","WINDER","GA",30680,33.9529351420001,-83.7930818999999,125,"2712 BERKSHIRE DRIVE, WINDER, GA, 30680","Match","Exact","2712 BERKSHIRE DR, WINDER, GA, 30680",653483578,"L"
147626,"2712 BULLOCK MILL RD","COLBERT","GA",30628,34.077054914,-83.194985279,126,"2712 BULLOCK MILL RD, COLBERT, GA, 30628","Match","Exact","2712 BULLOCK MILL RD, COLBERT, GA, 30628",5020024,"L"
147627,"2712 BUSHY LAKE COVE","APEX","NC",27502,35.7128950000001,-78.912975729,127,"2712 BUSHY LAKE COVE, APEX, NC, 27502","Match","Exact","2712 BUSHY LAKE COVE, APEX, NC, 27502",648036308,"R"
147628,"2712 CLUBLAKE TRL","MCKINNEY","TX",75070,33.1815404280001,-96.649776302,128,"2712 CLUBLAKE TRL, MCKINNEY, TX, 75070","Match","Non_Exact","2712 CLUBLAKE TRL, MCKINNEY, TX, 75072",123491318,"R"
147629,"2712 CONCORD AVE","DAVIS","CA",95618,38.542179526,-121.71937905,129,"2712 CONCORD AVE, DAVIS, CA, 95618","Match","Exact","2712 CONCORD AVE, DAVIS, CA, 95618",604974806,"L"
147630,"2712 DRY RIDGE RD","LIBERTY","KY",42539,37.2965940380001,-84.892542539,130,"2712 DRY RIDGE RD, LIBERTY, KY, 42539","Match","Exact","2712 DRY RIDGE RD, LIBERTY, KY, 42539",32512357,"L"
147631,"2712 E MURRAY ST","RAWLINS","WY",82301,NA,NA,131,"2712 E MURRAY ST, RAWLINS, WY, 82301","No_Match",NA,NA,NA,NA
147632,"2712 FALCON TRAIL","GRAND PRAIRIE","TX",75052,32.657391761,-97.049148644,132,"2712 FALCON TRAIL, GRAND PRAIRIE, TX, 75052","Match","Exact","2712 FALCON TRL, GRAND PRAIRIE, TX, 75052",101962321,"R"
147633,"2712 FOREST CREEK LANE","NAPERVILLE","IL",60565,41.7048251480001,-88.157700796,133,"2712 FOREST CREEK LANE, NAPERVILLE, IL, 60565","Match","Exact","2712 FOREST CREEK LN, NAPERVILLE, IL, 60565",111627823,"R"
147634,"2712 FOXWOOD DRIVE S","CLIFTON PARK","NY",12065,42.806569639,-73.7951376029999,134,"2712 FOXWOOD DRIVE S, CLIFTON PARK, NY, 12065","Match","Exact","2712 FOXWOOD DR S, CLIFTON PARK, NY, 12065",18815316,"R"
147635,"2712 FRUEHAUF ROAD","RICHMOND","VA",23228,37.6482292520001,-77.502998299,135,"2712 FRUEHAUF ROAD, RICHMOND, VA, 23228","Match","Exact","2712 FRUEHAUF RD, RICHMOND, VA, 23228",106646201,"R"
147636,"2712 GREYSTONE CT","AUSTELL","GA",30106,33.833868244,-84.634566663,136,"2712 GREYSTONE CT, AUSTELL, GA, 30106","Match","Exact","2712 GREYSTONE CT, AUSTELL, GA, 30106",17229144,"R"
147637,"2712 HANGING ROCK DRIVE","LAS VEGAS","NV",89134,36.2100531460001,-115.326566677,137,"2712 HANGING ROCK DRIVE, LAS VEGAS, NV, 89134","Match","Exact","2712 HANGING ROCK DR, LAS VEGAS, NV, 89134",201904186,"R"
147638,"2712 HENDERSON AVE NW","CLEVELAND","TN",37312,35.182508397,-84.86538046,138,"2712 HENDERSON AVE NW, CLEVELAND, TN, 37312","Match","Non_Exact","2712 HENDERSON AVE, CLEVELAND, TN, 37312",57574028,"R"
147639,"2712 HIDDEN BAY CT","PEARLAND","TX",77584,29.559899461,-95.396687626,139,"2712 HIDDEN BAY CT, PEARLAND, TX, 77584","Match","Exact","2712 HIDDEN BAY CT, PEARLAND, TX, 77584",627210752,"L"
147640,"2712 HORSESHOE TRAIL","CHESTER SPRINGS","PA",19425,40.1243827590001,-75.669601056,140,"2712 HORSESHOE TRAIL, CHESTER SPRINGS, PA, 19425","Match","Exact","2712 HORSESHOE TRL, CHESTER SPRINGS, PA, 19425",179515437,"R"
147641,"2712 KIMBERLY DR","LIMA","OH",45807,40.7766259150001,-84.134639237,141,"2712 KIMBERLY DR, LIMA, OH, 45807","Match","Exact","2712 KIMBERLY DR, LIMA, OH, 45807",35574798,"L"
147642,"2712 KING SURREY CT","VALRICO","FL",33596,27.9078385930001,-82.237723666,142,"2712 KING SURREY CT, VALRICO, FL, 33596","Match","Exact","2712 KING SURREY CT, VALRICO, FL, 33596",624387939,"R"
147643,"2712 MEADOFAIRE DR","SAN JOSE","CA",95111,37.2996295610001,-121.844702548,143,"2712 MEADOFAIRE DR, SAN JOSE, CA, 95111","Match","Non_Exact","2712 MEADOWFAIRE DR, SAN JOSE, CA, 95111",618191334,"L"
147644,"2712 MOUNTAIN LAUREL LANE","AUSTIN","TX",78703,30.3077213870001,-97.7640484,144,"2712 MOUNTAIN LAUREL LANE, AUSTIN, TX, 78703","Match","Exact","2712 MOUNTAIN LAUREL LN, AUSTIN, TX, 78703",63941948,"R"
147645,"2712 N ARTESIAN AVE","CHICAGO","IL",60647,41.9306798060001,-87.689080733,145,"2712 N ARTESIAN AVE, CHICAGO, IL, 60647","Match","Exact","2712 N ARTESIAN AVE, CHICAGO, IL, 60647",111762945,"L"
147646,"2712 N SAGINAW STREET","FLINT","MI",48505,43.0407720950001,-83.693858554,146,"2712 N SAGINAW STREET, FLINT, MI, 48505","Match","Exact","2712 N SAGINAW ST, FLINT, MI, 48505",69567198,"R"
147647,"2712 PINEWOOD DRIVE","WALDORF","MD",20601,38.6519075300001,-76.8592985449999,147,"2712 PINEWOOD DRIVE, WALDORF, MD, 20601","Match","Exact","2712 PINEWOOD DR, WALDORF, MD, 20601",25373847,"R"
147648,"2712 QUAIL LANE","MORAINE","OH",45439,39.7127689750001,-84.221987328,148,"2712 QUAIL LANE, MORAINE, OH, 45439","Match","Exact","2712 QUAIL LN, MORAINE, OH, 45439",640632053,"R"
147649,"2712 ROCKY BROOK LANE","OPELIKA","AL",36801,32.683782115,-85.3840107679999,149,"2712 ROCKY BROOK LANE, OPELIKA, AL, 36801","Match","Exact","2712 ROCKY BROOK LN, OPELIKA, AL, 36801",1582163,"L"
147650,"2712 RUSTIC CT","MAPLEWOOD","MN",55109,44.993269964,-92.985778431,150,"2712 RUSTIC CT, MAPLEWOOD, MN, 55109","Match","Exact","2712 RUSTIC CT, MAPLEWOOD, MN, 55109",627111274,"L"
147651,"2712 S FERNCREEK AVE","ORLANDO","FL",32806,28.5123279040001,-81.359849668,151,"2712 S FERNCREEK AVE, ORLANDO, FL, 32806","Match","Exact","2712 S FERNCREEK AVE, ORLANDO, FL, 32806",94398151,"R"
147652,"2712 SUPREME AVENUE","MEMPHIS","TN",38114,35.105453934,-89.971809793,152,"2712 SUPREME AVENUE, MEMPHIS, TN, 38114","Match","Exact","2712 SUPREME AVE, MEMPHIS, TN, 38114",72918030,"L"
147653,"2712 W SHAUARO DR APT 4-104","PHOENIX","AZ",85029,NA,NA,153,"2712 W SHAUARO DR APT 4-104, PHOENIX, AZ, 85029","No_Match",NA,NA,NA,NA
147654,"2712 WILLOWGLEN DRIVE","BALTIMORE","MD",21209,39.37201896,-76.6888883399999,154,"2712 WILLOWGLEN DRIVE, BALTIMORE, MD, 21209","Match","Non_Exact","2712 WILLOW GLEN DR, BALTIMORE, MD, 21209",191472462,"R"
147655,"27120 EUCALYPTUS AVE G158","MORENO VALLEY","CA",92555,33.935280397,-117.187915484,155,"27120 EUCALYPTUS AVE G158, MORENO VALLEY, CA, 92555","Match","Exact","27120 EUCALYPTUS AVE, MORENO VALLEY, CA, 92555",639046285,"L"
147656,"27123 FREELAND RD","ELTON","LA",70532,30.425281365,-92.7922906969999,156,"27123 FREELAND RD, ELTON, LA, 70532","Match","Exact","27123 FREELAND RD, ELTON, LA, 70532",88221612,"L"
147657,"27124 PASEO ESPADA STE 801","SAN JUAN CAPISTRANO","CA",92675,33.501407052,-117.654699486,157,"27124 PASEO ESPADA STE 801, SAN JUAN CAPISTRANO, CA, 92675","Match","Non_Exact","27124 PSO ESPADA, SAN JUAN CAPISTRANO, CA, 92675",144074442,"L"
147658,"27124 ROAD 56","VISALIA","CA",93277,36.2833752340001,-119.447647443,158,"27124 ROAD 56, VISALIA, CA, 93277","Match","Exact","27124 RD 56, VISALIA, CA, 93277",202762998,"R"
147659,"27125 151ST AVE","LONG GROVE","IA",52756,41.700589515,-90.605296589,159,"27125 151ST AVE, LONG GROVE, IA, 52756","Match","Exact","27125 151ST AVE, LONG GROVE, IA, 52756",122700526,"R"
147660,"2713 225TH LN NW","BETHEL","MN",55005,45.378339232,-93.334446674,160,"2713 225TH LN NW, BETHEL, MN, 55005","Match","Non_Exact","2713 225TH LN, BETHEL, MN, 55005",617107288,"R"
147661,"2713 26TH AVE S","FARGO","ND",58103,46.840875307,-96.824083634,161,"2713 26TH AVE S, FARGO, ND, 58103","Match","Exact","2713 26TH AVE S, FARGO, ND, 58103",151454845,"R"
147662,"2713 2ND ST","HURRICANE","WV",25526,38.4310840900001,-82.023873827,162,"2713 2ND ST, HURRICANE, WV, 25526","Match","Exact","2713 2ND ST, HURRICANE, WV, 25526",649342757,"R"
147663,"2713 ARNOLD RD","HAMPTONVILLE","NC",27020,36.092381145,-80.731761838,163,"2713 ARNOLD RD, HAMPTONVILLE, NC, 27020","Match","Exact","2713 ARNOLD RD, HAMPTONVILLE, NC, 27020",625722352,"R"
147664,"2713 B LACLEDE STATION ROAD","MARYLAND HEIGHTS","MO",63143,38.6130401890001,-90.328581656,164,"2713 B LACLEDE STATION ROAD, MARYLAND HEIGHTS, MO, 63143","Match","Non_Exact","2713 LACLEDE STATION RD, MAPLEWOOD, MO, 63143",100136579,"R"
147665,"2713 BEVERLY P WASHINGTON ST","EIGHTMILE","AL",36613,30.7555407420001,-88.1337671859999,165,"2713 BEVERLY P WASHINGTON ST, EIGHTMILE, AL, 36613","Match","Non_Exact","2713 BEVERLY P WASHINGTON ST, EIGHT MILE, AL, 36613",640378892,"R"
147666,"2713 BILOXI LN","MESQUITE","TX",75150,32.838564938,-96.640207752,166,"2713 BILOXI LN, MESQUITE, TX, 75150","Match","Exact","2713 BILOXI LN, MESQUITE, TX, 75150",102930994,"R"
147667,"2713 BLOOMINGTON AVE","MINNEAPOLIS","MN",55407,44.9534199330001,-93.2524327949999,167,"2713 BLOOMINGTON AVE, MINNEAPOLIS, MN, 55407","Match","Non_Exact","2713 BLOOMINGTON AVE S, MINNEAPOLIS, MN, 55407",43633424,"L"
147668,"2713 CENTRAL  AVE","MIDDLETOWN","OH",45044,39.512017202,-84.378647499,168,"2713 CENTRAL  AVE, MIDDLETOWN, OH, 45044","Match","Exact","2713 CENTRAL AVE, MIDDLETOWN, OH, 45044",113819682,"L"
147669,"2713 CHAPEL COURT","MODESTO","CA",95355,37.6655804150001,-120.945536363,169,"2713 CHAPEL COURT, MODESTO, CA, 95355","Match","Exact","2713 CHAPEL CT, MODESTO, CA, 95355",102606743,"L"
147670,"2713 COLEBERRY TRAIL","ROCKY MOUNT","NC",27804,35.9720919100001,-77.8592398499999,170,"2713 COLEBERRY TRAIL, ROCKY MOUNT, NC, 27804","Match","Exact","2713 COLEBERRY TRL, ROCKY MOUNT, NC, 27804",90384863,"R"
147671,"2713 DEER TRAIL CT","BAKERSFIELD","CA",93306,35.398045654,-118.934053464,171,"2713 DEER TRAIL CT, BAKERSFIELD, CA, 93306","Match","Exact","2713 DEER TRAIL CT, BAKERSFIELD, CA, 93306",109097188,"R"
147672,"2713 ELNORA STREET","SILVER SPRING","MD",20902,39.045142748,-77.0557509559999,172,"2713 ELNORA STREET, SILVER SPRING, MD, 20902","Match","Exact","2713 ELNORA ST, SILVER SPRING, MD, 20902",62062268,"R"
147673,"2713 FREDERICKSBURG ROAD","HANOVER","MD",21076,39.1297481190001,-76.7455159049999,173,"2713 FREDERICKSBURG ROAD, HANOVER, MD, 21076","Match","Exact","2713 FREDERICKSBURG RD, HANOVER, MD, 21076",648265965,"R"
147674,"2713 HARVARD BLVD","LOS ANGELES","CA",90018,34.0306391130001,-118.306663122,174,"2713 HARVARD BLVD, LOS ANGELES, CA, 90018","Match","Non_Exact","2713 S HARVARD BLVD, LOS ANGELES, CA, 90018",141606054,"R"
147675,"2713 HAVENS DRIVE","WEST CHICAGO","IL",60185,41.935755161,-88.2591426,175,"2713 HAVENS DRIVE, WEST CHICAGO, IL, 60185","Match","Exact","2713 HAVENS DR, WEST CHICAGO, IL, 60185",112600867,"R"
147676,"2713 INDIAN CREEK COURT","VIRGINIA BEACH","VA",23457,36.5810380500001,-76.0854167799999,176,"2713 INDIAN CREEK COURT, VIRGINIA BEACH, VA, 23457","Match","Exact","2713 INDIAN CREEK CT, VA BCH, VA, 23457",122301869,"R"
147677,"2713 MILL ST","RINGGOLD","LA",71068,32.3286439830001,-93.281752318,177,"2713 MILL ST, RINGGOLD, LA, 71068","Match","Exact","2713 MILL ST, RINGGOLD, LA, 71068",114403676,"R"
147678,"2713 MOUNT MORIAH ROAD SUITE 201","MEMPHIS","TN",38115,35.074504593,-89.8777128359999,178,"2713 MOUNT MORIAH ROAD SUITE 201, MEMPHIS, TN, 38115","Match","Exact","2713 MOUNT MORIAH RD, MEMPHIS, TN, 38115",72927528,"R"
147679,"2713 N PINE GROVE AVE APT 3","CHICAGO","IL",60614,41.931438477,-87.6405867129999,179,"2713 N PINE GROVE AVE APT 3, CHICAGO, IL, 60614","Match","Non_Exact","2713 N PINE GROVE AVE, CHICAGO, IL, 60614",610953768,"R"
147680,"2713 NEWLANDS AVENUE","BELMONT","CA",94002,37.519217724,-122.303837147,180,"2713 NEWLANDS AVENUE, BELMONT, CA, 94002","Match","Exact","2713 NEWLANDS AVE, BELMONT, CA, 94002",192387178,"L"
147681,"2713 NORTH CAPITAL STREET NE","WASHINGTON","DC",20002,38.9246297350001,-77.008961431,181,"2713 NORTH CAPITAL STREET NE, WASHINGTON, DC, 20002","Match","Non_Exact","2713 N CAPITOL ST NE, WASHINGTON, DC, 20002",76224542,"R"
147682,"2713 OAK RUN BLVD","KISSIMMEE","FL",34744,28.329147203,-81.3795391639999,182,"2713 OAK RUN BLVD, KISSIMMEE, FL, 34744","Match","Exact","2713 OAK RUN BLVD, KISSIMMEE, FL, 34744",176680179,"R"
147683,"2713 PELICAN AVE","MCALLEN","TX",78504,NA,NA,183,"2713 PELICAN AVE, MCALLEN, TX, 78504","No_Match",NA,NA,NA,NA
147684,"2713 PINEDALE STREET","JACKSON","MS",39204,32.2705346070001,-90.2484318429999,184,"2713 PINEDALE STREET, JACKSON, MS, 39204","Match","Exact","2713 PINEDALE ST, JACKSON, MS, 39204",65366853,"R"
147685,"2713 PLYMOUTH LANE","OKLAHOMA CITY","OK",73120,35.5766496160001,-97.563047345,185,"2713 PLYMOUTH LANE, OKLAHOMA CITY, OK, 73120","Match","Exact","2713 PLYMOUTH LN, OKLAHOMA CITY, OK, 73120",100392984,"R"
147686,"2713 ROULO ST","DEARBORN","MI",48120,42.3090977260001,-83.143567263,186,"2713 ROULO ST, DEARBORN, MI, 48120","Match","Exact","2713 ROULO ST, DEARBORN, MI, 48120",95473215,"L"
147687,"2713 S FREMONT AVENUE","ALHAMBRA","CA",91803,34.061757126,-118.146238382,187,"2713 S FREMONT AVENUE, ALHAMBRA, CA, 91803","Match","Exact","2713 S FREMONT AVE, ALHAMBRA, CA, 91803",141636108,"R"
147688,"2713 SADDLE CRK","AVON","OH",44011,NA,NA,188,"2713 SADDLE CRK, AVON, OH, 44011","No_Match",NA,NA,NA,NA
147689,"2713 SPRING GLEN CT","EUSTIS","FL",32726,28.8560746320001,-81.654906205,189,"2713 SPRING GLEN CT, EUSTIS, FL, 32726","Match","Exact","2713 SPRING GLEN CT, EUSTIS, FL, 32726",617494075,"L"
147690,"2713 SUNNYSIDE LN","ELLICOTT CITY","MD",21043,NA,NA,190,"2713 SUNNYSIDE LN, ELLICOTT CITY, MD, 21043","No_Match",NA,NA,NA,NA
147691,"2713 SWEET CLOVER COURT","SILVER SPRING","MD",20904,39.0540982580001,-76.952048454,191,"2713 SWEET CLOVER COURT, SILVER SPRING, MD, 20904","Match","Exact","2713 SWEET CLOVER CT, SILVER SPRING, MD, 20904",62109440,"R"
147692,"2713 THUNDER DRIVE","OCEANSIDE","CA",92056,33.2001387650001,-117.291350228,192,"2713 THUNDER DRIVE, OCEANSIDE, CA, 92056","Match","Exact","2713 THUNDER DR, OCEANSIDE, CA, 92056",195285650,"R"
147693,"2713 VOGT ST","FORT WORTH","TX",76105,32.719583546,-97.2681585449999,193,"2713 VOGT ST, FORT WORTH, TX, 76105","Match","Exact","2713 VOGT ST, FORT WORTH, TX, 76105",101897012,"L"
147694,"2713 W 36TH STREET","LOS ANGELES","CA",90018,34.022934144,-118.32498778,194,"2713 W 36TH STREET, LOS ANGELES, CA, 90018","Match","Exact","2713 W 36TH ST, LOS ANGELES, CA, 90018",141602249,"R"
147695,"2713 W CRENSHAW ST","KUNA","ID",83634,43.5052486020001,-116.448124014,195,"2713 W CRENSHAW ST, KUNA, ID, 83634","Match","Exact","2713 W CRENSHAW ST, KUNA, ID, 83634",648979592,"L"
147696,"2713 WATER WHEEL COURT","ELLICOTT CITY","MD",21043,39.3010470340001,-76.81169998,196,"2713 WATER WHEEL COURT, ELLICOTT CITY, MD, 21043","Match","Exact","2713 WATER WHEEL CT, ELLICOTT CITY, MD, 21043",158942897,"R"
147697,"2713 WILD POPLAR WAY","GREENSBORO","NC",27405,36.1410252910001,-79.7433640099999,197,"2713 WILD POPLAR WAY, GREENSBORO, NC, 27405","Match","Exact","2713 WILD POPLAR WAY, GREENSBORO, NC, 27405",623892572,"L"
147698,"2713 YOUNG AVENUE","BRONX","NY",10469,40.8655248790001,-73.8481251169999,198,"2713 YOUNG AVENUE, BRONX, NY, 10469","Match","Exact","2713 YOUNG AVE, BRONX, NY, 10469",80303841,"L"
147699,"27130 WEST 215TH STREET","SPRING HILLL","KS",66083,38.7383260840001,-94.899985999,199,"27130 WEST 215TH STREET, SPRING HILLL, KS, 66083","Match","Non_Exact","27130 W 215TH ST, SPRING HILL, KS, 66083",642835005,"R"
147700,"27133 DOGWOOD BEND RD","FRANKLIN","VA",23851,36.651042843,-76.957347962,200,"27133 DOGWOOD BEND RD, FRANKLIN, VA, 23851","Match","Exact","27133 DOGWOOD BEND RD, FRANKLIN, VA, 23851",82719214,"R"
147701,"27133 S 80TH AVE","MONEE","IL",60449,41.3965136040001,-87.805666795,201,"27133 S 80TH AVE, MONEE, IL, 60449","Match","Exact","27133 S 80TH AVE, MONEE, IL, 60449",111551673,"L"
147702,"27137 BUTTERNUT RIDGE ROAD","NORTH OLMSTED","OH",44070,41.411383873,-81.922735238,202,"27137 BUTTERNUT RIDGE ROAD, NORTH OLMSTED, OH, 44070","Match","Exact","27137 BUTTERNUT RIDGE RD, NORTH OLMSTED, OH, 44070",61138465,"L"
147703,"2714 BENJAMIN DR","WONDER LAKE","IL",60097,42.365894488,-88.349609978,203,"2714 BENJAMIN DR, WONDER LAKE, IL, 60097","Match","Exact","2714 BENJAMIN DR, WONDER LAKE, IL, 60097",119818344,"R"
147704,"2714 BOULDER STREET","LOS ANGELES","CA",90033,34.0473052840001,-118.202146488,204,"2714 BOULDER STREET, LOS ANGELES, CA, 90033","Match","Exact","2714 BOULDER ST, LOS ANGELES, CA, 90033",141624668,"R"
147705,"2714 CAMP MO VAL ROAD","UNION","MO",63084,38.4218744200001,-91.080447464,205,"2714 CAMP MO VAL ROAD, UNION, MO, 63084","Match","Exact","2714 CAMP MO VAL RD, UNION, MO, 63084",648217494,"L"
147706,"2714 CANAL STREET SUITE 312","NEW ORLEANS","LA",70119,29.9657123640001,-90.087753944,206,"2714 CANAL STREET SUITE 312, NEW ORLEANS, LA, 70119","Match","Exact","2714 CANAL ST, NEW ORLEANS, LA, 70119",191752142,"L"
147707,"2714 COLONEL DR","RICHMOND","TX",77406,NA,NA,207,"2714 COLONEL DR, RICHMOND, TX, 77406","No_Match",NA,NA,NA,NA
147708,"2714 CONOWOODS DR","SPRINGFIELD","OH",45503,39.9587668660001,-83.76252084,208,"2714 CONOWOODS DR, SPRINGFIELD, OH, 45503","Match","Exact","2714 CONOWOODS DR, SPRINGFIELD, OH, 45503",135019639,"R"
147709,"2714 DATURA STREET","SARASOTA","FL",34239,27.3148045630001,-82.515610325,209,"2714 DATURA STREET, SARASOTA, FL, 34239","Match","Exact","2714 DATURA ST, SARASOTA, FL, 34239",16352210,"R"
147710,"2714 FYNAMORE LANE","DOWNINGTOWN","PA",19335,39.9907445470001,-75.7686793409999,210,"2714 FYNAMORE LANE, DOWNINGTOWN, PA, 19335","Match","Exact","2714 FYNAMORE LN, DOWNINGTOWN, PA, 19335",623808684,"L"
147711,"2714 LAKEBREEZE LANE SOUTH","CLEARWATER","FL",33759,28.0037300720001,-82.725406242,211,"2714 LAKEBREEZE LANE SOUTH, CLEARWATER, FL, 33759","Match","Exact","2714 LAKEBREEZE LN S, CLEARWATER, FL, 33759",631831121,"R"
147712,"2714 LINCOLN AVENUE","RICHMOND","CA",94804,37.9463630750001,-122.341932089,212,"2714 LINCOLN AVENUE, RICHMOND, CA, 94804","Match","Exact","2714 LINCOLN AVE, RICHMOND, CA, 94804",192039649,"R"
147713,"2714 LOVELACE BLVD","SAN ANTONIO","TX",78217,29.5280814130001,-98.447622242,213,"2714 LOVELACE BLVD, SAN ANTONIO, TX, 78217","Match","Exact","2714 LOVELACE BLVD, SAN ANTONIO, TX, 78217",101498934,"R"
147714,"2714 MANHATTAN AVE","BALTIMORE","MD",21215,39.358310203,-76.674070855,214,"2714 MANHATTAN AVE, BALTIMORE, MD, 21215","Match","Exact","2714 MANHATTAN AVE, BALTIMORE, MD, 21215",206465074,"R"
147715,"2714 OAK CREST COURT NW","CEDAR RAPIDS","IA",52405,41.9945837280001,-91.70757764,215,"2714 OAK CREST COURT NW, CEDAR RAPIDS, IA, 52405","Match","Exact","2714 OAK CREST CT NW, CEDAR RAPIDS, IA, 52405",17039604,"L"
147716,"2714 OAK PARK STREET","DICKINSON","TX",77539,29.463051337,-95.053621121,216,"2714 OAK PARK STREET, DICKINSON, TX, 77539","Match","Exact","2714 OAK PARK ST, DICKINSON, TX, 77539",96674244,"R"
147717,"2714 OVERVIEW DRIVE","COLUMBIA","IL",62236,38.471666822,-90.221459887,217,"2714 OVERVIEW DRIVE, COLUMBIA, IL, 62236","Match","Exact","2714 OVERVIEW DR, COLUMBIA, IL, 62236",116445542,"L"
147718,"2714 PENN AVENUE","PITTSBIRGH","PA",15222,40.45607397,-79.976738271,218,"2714 PENN AVENUE, PITTSBIRGH, PA, 15222","Match","Non_Exact","2714 PENN AVE, PITTSBURGH, PA, 15222",51701490,"R"
147719,"2714 PLACID AVE","FORT PIERCE","FL",34982,27.4211029740001,-80.3474618989999,219,"2714 PLACID AVE, FORT PIERCE, FL, 34982","Match","Exact","2714 PLACID AVE, FORT PIERCE, FL, 34982",120148956,"L"
147720,"2714 RALPH JOHNS ST","GREENSBORO","NC",27405,36.116923887,-79.746425395,220,"2714 RALPH JOHNS ST, GREENSBORO, NC, 27405","Match","Exact","2714 RALPH JOHNS ST, GREENSBORO, NC, 27405",131088152,"R"
147721,"2714 RED POLL DRIVE","LAREDO","TX",78046,NA,NA,221,"2714 RED POLL DRIVE, LAREDO, TX, 78046","No_Match",NA,NA,NA,NA
147722,"2714 RENFREW WAY","LANSING","MI",48911,42.659447926,-84.585680488,222,"2714 RENFREW WAY, LANSING, MI, 48911","Match","Exact","2714 RENFREW WAY, LANSING, MI, 48911",636720047,"L"
147723,"2714 SOUTH 90TH EAST AVENUE","TULSA","OK",74129,36.123691491,-95.875844652,223,"2714 SOUTH 90TH EAST AVENUE, TULSA, OK, 74129","Match","Exact","2714 S 90TH EAST AVE, TULSA, OK, 74129",166453210,"R"
147724,"2714 TALOVA DR","ORLANDO","FL",32837,28.3710823100001,-81.41800728,224,"2714 TALOVA DR, ORLANDO, FL, 32837","Match","Exact","2714 TALOVA DR, ORLANDO, FL, 32837",94339343,"L"
147725,"2714 TANAGER RD","HENRICO","VA",23228,37.6502063560001,-77.501896878,225,"2714 TANAGER RD, HENRICO, VA, 23228","Match","Exact","2714 TANAGER RD, HENRICO, VA, 23228",106646202,"R"
147726,"2714 WASHINGTON ST 1007","GREENVILLE","TX",75401,33.1390936330001,-96.1082982189999,226,"2714 WASHINGTON ST 1007, GREENVILLE, TX, 75401","Match","Exact","2714 WASHINGTON ST, GREENVILLE, TX, 75401",42834423,"L"
147727,"2714 WASHINGTON STREET  SUITE C","GREENVILLE","TX",75401,33.1390936330001,-96.1082982189999,227,"2714 WASHINGTON STREET  SUITE C, GREENVILLE, TX, 75401","Match","Exact","2714 WASHINGTON ST, GREENVILLE, TX, 75401",42834423,"L"
147728,"2714 WENTWORTH DR","MADISON","WI",53719,43.0237070570001,-89.512933486,228,"2714 WENTWORTH DR, MADISON, WI, 53719","Match","Exact","2714 WENTWORTH DR, MADISON, WI, 53719",49557879,"R"
147729,"27145 SCOTLAND PKWY","SALISBURY","MD",21801,38.3468000120001,-75.672274591,229,"27145 SCOTLAND PKWY, SALISBURY, MD, 21801","Match","Exact","27145 SCOTLAND PKWY, SALISBURY, MD, 21801",114461989,"L"
147730,"27146 CORCUBION","MISSION VIEJO","CA",92692,33.5815439570001,-117.656586239,230,"27146 CORCUBION, MISSION VIEJO, CA, 92692","Match","Exact","27146 CORCUBION, MISSION VIEJO, CA, 92692",144091613,"L"
147731,"2715  6TH STREET","NEW CUMBERLAND","WV",26047,NA,NA,231,"2715  6TH STREET, NEW CUMBERLAND, WV, 26047","Tie",NA,NA,NA,NA
147732,"2715 ALRESFORD STREET","PHILADELPHIA","PA",19137,39.9961530780001,-75.078396136,232,"2715 ALRESFORD STREET, PHILADELPHIA, PA, 19137","Match","Exact","2715 ALRESFORD ST, PHILADELPHIA, PA, 19137",131429373,"L"
147733,"2715 ATLANTIC AVENUE","ATLANTIC CITY","NJ",8401,39.3554507490001,-74.444575188,233,"2715 ATLANTIC AVENUE, ATLANTIC CITY, NJ, 8401","Match","Exact","2715 ATLANTIC AVE, ATLANTIC CITY, NJ, 08401",202490672,"R"
147734,"2715 BAYONNE AVE","BALTIMORE","MD",21214,39.3571513090001,-76.563181153,234,"2715 BAYONNE AVE, BALTIMORE, MD, 21214","Match","Exact","2715 BAYONNE AVE, BALTIMORE, MD, 21214",206465406,"R"
147735,"2715 BELLS HWY","WALERBORO","SC",29488,32.931567574,-80.705538243,235,"2715 BELLS HWY, WALERBORO, SC, 29488","Match","Non_Exact","2715 BELL'S HWY, WALTERBORO, SC, 29488",19155398,"L"
147736,"2715 BOCA CHICA BLVD STE 3 BOX 144","BROWNSVILLE","TX",78521,25.9216723930001,-97.479394095,236,"2715 BOCA CHICA BLVD STE 3 BOX 144, BROWNSVILLE, TX, 78521","Match","Exact","2715 BOCA CHICA BLVD, BROWNSVILLE, TX, 78521",640578933,"L"
147737,"2715 BOCA CHICA BLVD STE 3 NO 113","BROWNSVILLE","TX",78521,25.9216723930001,-97.479394095,237,"2715 BOCA CHICA BLVD STE 3 NO 113, BROWNSVILLE, TX, 78521","Match","Exact","2715 BOCA CHICA BLVD, BROWNSVILLE, TX, 78521",640578933,"L"
147738,"2715 BRANSFORD AVENUE","NASHVILLE","TN",37204,36.1180838430001,-86.7661285839999,238,"2715 BRANSFORD AVENUE, NASHVILLE, TN, 37204","Match","Exact","2715 BRANSFORD AVE, NASHVILLE, TN, 37204",97192243,"R"
147739,"2715 BURL LN","LORENA","TX",76655,31.396846628,-97.237319317,239,"2715 BURL LN, LORENA, TX, 76655","Match","Exact","2715 BURL LN, LORENA, TX, 76655",146762916,"L"
147740,"2715 CHERLIN PL","RICHARDSON","TX",75082,32.994192211,-96.6718620669999,240,"2715 CHERLIN PL, RICHARDSON, TX, 75082","Match","Exact","2715 CHERLIN PL, RICHARDSON, TX, 75082",123508663,"L"
147741,"2715 CLARKSVILLE PIKE","NASHVILLE","TN",37208,36.187271679,-86.820363743,241,"2715 CLARKSVILLE PIKE, NASHVILLE, TN, 37208","Match","Exact","2715 CLARKSVILLE PIKE, NASHVILLE, TN, 37208",97184539,"L"
147742,"2715 CORTLAND PLACE NW APT 35","WASHINGTON","DC",20008,38.931181786,-77.057156974,242,"2715 CORTLAND PLACE NW APT 35, WASHINGTON, DC, 20008","Match","Exact","2715 CORTLAND PL NW, WASHINGTON, DC, 20008",76221190,"R"
147743,"2715 COUNTY RD 139","MANDAN","ND",58554,46.847249392,-101.031217327,243,"2715 COUNTY RD 139, MANDAN, ND, 58554","Match","Exact","2715 CO RD 139, MANDAN, ND, 58554",199024692,"L"
147744,"2715 DONBAR DRIVE","FAIRFEILD","OH",45014,39.31441699,-84.654437639,244,"2715 DONBAR DRIVE, FAIRFEILD, OH, 45014","Match","Non_Exact","2715 DONBAR DR, FAIRFIELD, OH, 45014",113800984,"R"
147745,"2715 DOUGHTON ST S","SALEM","OR",97302,44.9149379670001,-123.053079461,245,"2715 DOUGHTON ST S, SALEM, OR, 97302","Match","Exact","2715 DOUGHTON ST S, SALEM, OR, 97302",156248179,"R"
147746,"2715 E FREMONT ROAD","PHOENIX","AZ",85042,33.381447193,-112.023924099,246,"2715 E FREMONT ROAD, PHOENIX, AZ, 85042","Match","Exact","2715 E FREMONT RD, PHOENIX, AZ, 85042",128822659,"R"
147747,"2715 EAST OAKLAND AVENUE","JOHNSON CITY","TN",37602,36.358232694,-82.368117048,247,"2715 EAST OAKLAND AVENUE, JOHNSON CITY, TN, 37602","Match","Non_Exact","2715 E OAKLAND AVE, JOHNSON CITY, TN, 37601",648104565,"L"
147748,"2715 FM 1844","LONGVIEW","TX",75605,32.589460269,-94.781605521,248,"2715 FM 1844, LONGVIEW, TX, 75605","Match","Exact","2715 FM 1844, LONGVIEW, TX, 75605",649935897,"R"
147749,"2715 FM 352","CORRIGAN","TX",75939,31.0133290160001,-94.786418713,249,"2715 FM 352, CORRIGAN, TX, 75939","Match","Exact","2715 FM 352, CORRIGAN, TX, 75939",23215707,"L"
147750,"2715 GLEN EAGLES ROAD","LAKE OSWEGO","OR",97034,45.4163322250001,-122.705165061,250,"2715 GLEN EAGLES ROAD, LAKE OSWEGO, OR, 97034","Match","Exact","2715 GLEN EAGLES RD, LAKE OSWEGO, OR, 97034",157978070,"L"
147751,"2715 GLENVIEW WAY","ESCONDIDO","CA",92025,33.092722554,-117.041332728,251,"2715 GLENVIEW WAY, ESCONDIDO, CA, 92025","Match","Exact","2715 GLENVIEW WAY, ESCONDIDO, CA, 92025",195709835,"R"
147752,"2715 HARRIOT ST","BEAUMONT","TX",77705,30.0538505800001,-94.113511709,252,"2715 HARRIOT ST, BEAUMONT, TX, 77705","Match","Exact","2715 HARRIOT ST, BEAUMONT, TX, 77705",73855465,"L"
147753,"2715 HUBBARD LANE","EUREKA","CA",95501,40.7839927460001,-124.130308601,253,"2715 HUBBARD LANE, EUREKA, CA, 95501","Match","Exact","2715 HUBBARD LN, EUREKA, CA, 95501",634214487,"R"
147754,"2715 HWY 56 WEST","UVALDA","GA",30473,NA,NA,254,"2715 HWY 56 WEST, UVALDA, GA, 30473","No_Match",NA,NA,NA,NA
147755,"2715 KAAIPU AVE","HONOLULU","HI",96822,21.313484042,-157.810423442,255,"2715 KAAIPU AVE, HONOLULU, HI, 96822","Match","Exact","2715 KAAIPU AVE, HONOLULU, HI, 96822",203237975,"R"
147756,"2715 N AVERILL AVE","FLINT","MI",48505,43.0399536950001,-83.645472323,256,"2715 N AVERILL AVE, FLINT, MI, 48505","Match","Non_Exact","2715 N AVERILL AVE, FLINT, MI, 48506",69570413,"L"
147757,"2715 N HOWARD ST","PHILADELPHIA","PA",19133,39.991350937,-75.1318805829999,257,"2715 N HOWARD ST, PHILADELPHIA, PA, 19133","Match","Exact","2715 N HOWARD ST, PHILADELPHIA, PA, 19133",131420692,"R"
147758,"2715 N MAIN ST","ROCKFORD","IL",61103,42.3004974510001,-89.077075215,258,"2715 N MAIN ST, ROCKFORD, IL, 61103","Match","Exact","2715 N MAIN ST, ROCKFORD, IL, 61103",49255984,"R"
147759,"2715 NW 15TH COURT","FORT LAUDERALE","FL",33311,26.1451423010001,-80.179117035,259,"2715 NW 15TH COURT, FORT LAUDERALE, FL, 33311","Match","Non_Exact","2715 NW 15TH CT, FORT LAUDERDALE, FL, 33311",114709463,"R"
147760,"2715 RACQUET CLUB DR","MIDLAND","TX",79705,32.020360517,-102.103449537,260,"2715 RACQUET CLUB DR, MIDLAND, TX, 79705","Match","Exact","2715 RACQUET CLUB DR, MIDLAND, TX, 79705",635379102,"R"
147761,"2715 ROYAL DRIVE","WINTERVILLE","NC",28590,35.5534869950001,-77.3538720939999,261,"2715 ROYAL DRIVE, WINTERVILLE, NC, 28590","Match","Exact","2715 ROYAL DR, WINTERVILLE, NC, 28590",80027178,"L"
147762,"2715 RUNYON CIRCLE","ORLANDO","FL",32837,28.3649483510001,-81.413978594,262,"2715 RUNYON CIRCLE, ORLANDO, FL, 32837","Match","Exact","2715 RUNYON CIR, ORLANDO, FL, 32837",94346642,"R"
147763,"2715 S CEDAR HOLLOW DR","PEARLAND","TX",77584,29.5829587210001,-95.381474439,263,"2715 S CEDAR HOLLOW DR, PEARLAND, TX, 77584","Match","Exact","2715 S CEDAR HOLLOW DR, PEARLAND, TX, 77584",116647897,"R"
147764,"2715 S RADIO RD","EL RENO","OK",73036,35.5064314950001,-97.901538079,264,"2715 S RADIO RD, EL RENO, OK, 73036","Match","Exact","2715 S RADIO RD, EL RENO, OK, 73036",92534423,"R"
147765,"2715 SALENA ST","SAINT LOUIS","MO",63118,38.6026786480001,-90.217963232,265,"2715 SALENA ST, SAINT LOUIS, MO, 63118","Match","Exact","2715 SALENA ST, SAINT LOUIS, MO, 63118",107602633,"R"
147766,"2715 SAM BASS RD","ROUND ROCK","TX",78681,30.530320551,-97.720389873,266,"2715 SAM BASS RD, ROUND ROCK, TX, 78681","Match","Exact","2715 SAM BASS RD, ROUND ROCK, TX, 78681",126484439,"L"
147767,"2715 SCRIPPS PLACE","ALTADENA","CA",91001,34.1920787920001,-118.143973419,267,"2715 SCRIPPS PLACE, ALTADENA, CA, 91001","Match","Exact","2715 SCRIPPS PL, ALTADENA, CA, 91001",141628067,"L"
147768,"2715 SE KERN RD","PORT ST LUCIE","FL",34984,27.260160188,-80.340499161,268,"2715 SE KERN RD, PORT ST LUCIE, FL, 34984","Match","Exact","2715 SE KERN RD, PORT ST LUCIE, FL, 34984",120166297,"L"
147769,"2715 SOUTH 18TH STREET","PHILADELPHIA","PA",19145,39.9173256130001,-75.177777321,269,"2715 SOUTH 18TH STREET, PHILADELPHIA, PA, 19145","Match","Exact","2715 S 18TH ST, PHILADELPHIA, PA, 19145",131411439,"L"
147770,"2715 SOUTHFORK RD","GREEN SEA","SC",29545,34.1648056510001,-79.0086630919999,270,"2715 SOUTHFORK RD, GREEN SEA, SC, 29545","Match","Exact","2715 SOUTHFORK RD, GREEN SEA, SC, 29545",645467242,"L"
147771,"2715 SUMMER CREEK DRIVE","GAINESVILLE","GA",30507,34.218896672,-83.815358891,271,"2715 SUMMER CREEK DRIVE, GAINESVILLE, GA, 30507","Match","Exact","2715 SUMMER CREEK DR, GAINESVILLE, GA, 30507",645846272,"L"
147772,"2715 SW 322ND ST","FEDERAL WAY","WA",98023,47.3132208740001,-122.368330428,272,"2715 SW 322ND ST, FEDERAL WAY, WA, 98023","Match","Exact","2715 SW 322ND ST, FEDERAL WAY, WA, 98023",186648111,"L"
147773,"2715 SW 6TH AVE","AMARILLO","TX",79106,35.2112646510001,-101.866574607,273,"2715 SW 6TH AVE, AMARILLO, TX, 79106","Match","Exact","2715 6TH AVE, AMARILLO, TX, 79106",182469977,"L"
147774,"2715 TERRA CEIA BAY BLVD UNIT 505","PALMETTO","FL",34221,27.5383408820001,-82.5834954759999,274,"2715 TERRA CEIA BAY BLVD UNIT 505, PALMETTO, FL, 34221","Match","Exact","2715 TERRA CEIA BAY BLVD, PALMETTO, FL, 34221",16288926,"L"
147775,"2715 TRADD COURT","SNELLVILLE","GA",30039,33.8206771850001,-84.007043954,275,"2715 TRADD COURT, SNELLVILLE, GA, 30039","Match","Exact","2715 TRADD CT, SNELLVILLE, GA, 30039",88942768,"R"
147776,"2715 TUCKASEEGEE ROAD","CHARLOTTE","NC",28208,35.239876156,-80.876110421,276,"2715 TUCKASEEGEE ROAD, CHARLOTTE, NC, 28208","Match","Exact","2715 TUCKASEEGEE RD, CHARLOTTE, NC, 28208",70476865,"L"
147777,"2715 TWIN OAKS RD","ELKIN","NC",28621,36.3278850390001,-80.74743763,277,"2715 TWIN OAKS RD, ELKIN, NC, 28621","Match","Exact","2715 TWIN OAKS RD, ELKIN, NC, 28621",154190513,"R"
147778,"2715 UNIVERSITY BLVD  SUITE 306","SILVER SPRING","MD",20902,39.0397005520001,-77.056180581,278,"2715 UNIVERSITY BLVD  SUITE 306, SILVER SPRING, MD, 20902","Match","Non_Exact","2715 UNIVERSITY BLVD W, SILVER SPRING, MD, 20902",637278060,"R"
147779,"2715 VILLAGE LN","TITUSVILLE","FL",32780,28.5802376990001,-80.80842854,279,"2715 VILLAGE LN, TITUSVILLE, FL, 32780","Match","Exact","2715 VILLAGE LN, TITUSVILLE, FL, 32780",635526023,"L"
147780,"2715 W  POLK","CHICAGO","IL",60612,41.8710781240001,-87.69394692,280,"2715 W  POLK, CHICAGO, IL, 60612","Match","Non_Exact","2715 W POLK ST, CHICAGO, IL, 60612",605026300,"L"
147781,"2715 W CARMEN AVE","MILWAUKEE","WI",53209,43.1227482740001,-87.946487411,281,"2715 W CARMEN AVE, MILWAUKEE, WI, 53209","Match","Exact","2715 W CARMEN AVE, MILWAUKEE, WI, 53209",77735656,"L"
147782,"2715 W CONGRESS PKWY UNIT 1","CHICAGO","IL",60612,41.874904079,-87.694395587,282,"2715 W CONGRESS PKWY UNIT 1, CHICAGO, IL, 60612","Match","Non_Exact","2715 W CONGRESS PKWY, CHICAGO, IL, 60612",111801465,"L"
147783,"2715 WEBB AVE BB","BRONX","NY",10468,40.8696914670001,-73.902003292,283,"2715 WEBB AVE BB, BRONX, NY, 10468","Match","Exact","2715 WEBB AVE, BRONX, NY, 10468",80298564,"L"
147784,"2715 WEST GARRISON AVENUE","BALTIMORE","MD",21215,39.349823101,-76.664155901,284,"2715 WEST GARRISON AVENUE, BALTIMORE, MD, 21215","Match","Exact","2715 W GARRISON AVE, BALTIMORE, MD, 21215",206436395,"L"
147785,"2715 WORDEN ST","SAN DIEGO","CA",92110,32.748669856,-117.225680566,285,"2715 WORDEN ST, SAN DIEGO, CA, 92110","Match","Exact","2715 WORDEN ST, SAN DIEGO, CA, 92110",195339688,"R"
147786,"2715 XAVIER ST","DENVER","CO",80212,39.756308356,-105.049864634,286,"2715 XAVIER ST, DENVER, CO, 80212","Match","Exact","2715 XAVIER ST, DENVER, CO, 80212",177299803,"L"
147787,"2715","CENTENNIAL","CO",80122,NA,NA,287,"2715, CENTENNIAL, CO, 80122","No_Match",NA,NA,NA,NA
147788,"27150 GILL ROAD","MYAKKA CITY","FL",34251,27.4630623480001,-82.264322175,288,"27150 GILL ROAD, MYAKKA CITY, FL, 34251","Match","Exact","27150 GILL RD, MYAKKA CITY, FL, 34251",16226089,"L"
147789,"27150 LYNDE DRIVE","OLMSTED FALLS","OH",44138,41.3565525450001,-81.943625454,289,"27150 LYNDE DRIVE, OLMSTED FALLS, OH, 44138","Match","Exact","27150 LYNDE DR, OLMSTED FALLS, OH, 44138",617273665,"R"
147790,"27151 COOLIDGE HWY","OAK PARK","MI",48239,NA,NA,290,"27151 COOLIDGE HWY, OAK PARK, MI, 48239","No_Match",NA,NA,NA,NA
147791,"27155 PRESTANCIA WAY","SALINAS","CA",93908,36.6064426820001,-121.667884587,291,"27155 PRESTANCIA WAY, SALINAS, CA, 93908","Match","Exact","27155 PRESTANCIA WAY, SALINAS, CA, 93908",196862374,"L"
147792,"27155 SYLVAN AVE","WARREN","MI",48093,42.493439692,-83.020030709,292,"27155 SYLVAN AVE, WARREN, MI, 48093","Match","Exact","27155 SYLVAN AVE, WARREN, MI, 48093",110689316,"L"
147793,"27155 TAG A LONG RD","LACOMBE","LA",70445,30.327007252,-89.954656531,293,"27155 TAG A LONG RD, LACOMBE, LA, 70445","Match","Exact","27155 TAG A LONG RD, LACOMBE, LA, 70445",111259622,"R"
147794,"2716 AL LIPSCOMB","DALLAS","TX",75215,NA,NA,294,"2716 AL LIPSCOMB, DALLAS, TX, 75215","No_Match",NA,NA,NA,NA
147795,"2716 AVE A","COUNCIL BLUFFS","IA",51501,41.2628751350001,-95.8872610989999,295,"2716 AVE A, COUNCIL BLUFFS, IA, 51501","Match","Exact","2716 AVE A, COUNCIL BLUFFS, IA, 51501",43900078,"R"
147796,"2716 EDGEFIELD DRIVE","VINTON","VA",24179,NA,NA,296,"2716 EDGEFIELD DRIVE, VINTON, VA, 24179","No_Match",NA,NA,NA,NA
147797,"2716 ELLIOTT AVENUE UNIT 1202","SEATTLE","WA",98121,47.61459225,-122.352534184,297,"2716 ELLIOTT AVENUE UNIT 1202, SEATTLE, WA, 98121","Match","Exact","2716 ELLIOTT AVE, SEATTLE, WA, 98121",186588859,"R"
147798,"2716 EMERALD AVE","HUEYTOWN","AL",35023,33.428930758,-86.975312918,298,"2716 EMERALD AVE, HUEYTOWN, AL, 35023","Match","Exact","2716 EMERALD AVE, HUEYTOWN, AL, 35023",81698149,"L"
147799,"2716 GRANBY ST UNIT B1","NORFOLK","VA",23510,36.8718876980001,-76.2832520159999,299,"2716 GRANBY ST UNIT B1, NORFOLK, VA, 23510","Match","Non_Exact","2716 GRANBY ST, NORFOLK, VA, 23517",122123429,"R"
147800,"2716 JUNIPERO AVE","CLOVIS","CA",93611,36.8018922250001,-119.631598282,300,"2716 JUNIPERO AVE, CLOVIS, CA, 93611","Match","Non_Exact","2716 JUNIPERO AVE, CLOVIS, CA, 93619",646959826,"R"
147801,"2716 KENDALL AVENUE","MADISON","WI",53705,43.071467506,-89.4342918579999,301,"2716 KENDALL AVENUE, MADISON, WI, 53705","Match","Exact","2716 KENDALL AVE, MADISON, WI, 53705",49468806,"R"
147802,"2716 KEYSTONE WAY","NEWPORT","PA",17074,40.467303198,-77.133015614,302,"2716 KEYSTONE WAY, NEWPORT, PA, 17074","Match","Exact","2716 KEYSTONE WAY, NEWPORT, PA, 17074",61070302,"L"
147803,"2716 LANDMARK SCHOOL ROAD","THE PLAINS","VA",20198,38.93357953,-77.69316029,303,"2716 LANDMARK SCHOOL ROAD, THE PLAINS, VA, 20198","Match","Exact","2716 LANDMARK SCHOOL RD, THE PLAINS, VA, 20198",146296817,"L"
147804,"2716 LEMMONTREE LANE","PLANO","TX",75074,33.0330047790001,-96.67711239,304,"2716 LEMMONTREE LANE, PLANO, TX, 75074","Match","Exact","2716 LEMMONTREE LN, PLANO, TX, 75074",123489485,"R"
147805,"2716 MERIDIAN DR","GREENVILLE","NC",27834,35.591005373,-77.398405826,305,"2716 MERIDIAN DR, GREENVILLE, NC, 27834","Match","Non_Exact","2716 MERIDIAN BLVD, GREENVILLE, NC, 27834",636028598,"R"
147806,"2716 MILL ST","MOBILE","AL",36607,30.7058498330001,-88.1041933939999,306,"2716 MILL ST, MOBILE, AL, 36607","Match","Exact","2716 MILL ST, MOBILE, AL, 36607",61859516,"R"
147807,"2716 MORGAN GLEN ROAD","BUFORD","GA",30519,34.064386793,-83.939909439,307,"2716 MORGAN GLEN ROAD, BUFORD, GA, 30519","Match","Exact","2716 MORGAN GLEN RD, BUFORD, GA, 30519",645880943,"L"
147808,"2716 N ATLANTIC BLVD","FORT LAUDERDALE","FL",33308,NA,NA,308,"2716 N ATLANTIC BLVD, FORT LAUDERDALE, FL, 33308","Tie",NA,NA,NA,NA
147809,"2716 N WALROND AVE","KANSAS CITY","MO",64117,39.152178099,-94.543231172,309,"2716 N WALROND AVE, KANSAS CITY, MO, 64117","Match","Exact","2716 N WALROND AVE, KANSAS CITY, MO, 64117",89759227,"L"
147810,"2716 NICASIO COURT","SAN JOSE","CA",95127,37.3677445440001,-121.840013371,310,"2716 NICASIO COURT, SAN JOSE, CA, 95127","Match","Exact","2716 NICASIO CT, SAN JOSE, CA, 95127",618191895,"R"
147811,"2716 NORTHEAST 50TH STREET","OKLAHOMA CITY","OK",73111,35.522235901,-97.463508783,311,"2716 NORTHEAST 50TH STREET, OKLAHOMA CITY, OK, 73111","Match","Exact","2716 NE 50TH ST, OKLAHOMA CITY, OK, 73111",100411652,"R"
147812,"2716 NW 3RD AVENUE","WILTON MANORS","FL",33311,26.1607210600001,-80.148727911,312,"2716 NW 3RD AVENUE, WILTON MANORS, FL, 33311","Match","Exact","2716 NW 3RD AVE, WILTON MANORS, FL, 33311",114721574,"R"
147813,"2716 OCEAN PARK BLVD STE 3080","SANTA MONICA","CA",90405,34.01822616,-118.456762824,313,"2716 OCEAN PARK BLVD STE 3080, SANTA MONICA, CA, 90405","Match","Exact","2716 OCEAN PARK BLVD, SANTA MONICA, CA, 90405",142454885,"R"
147814,"2716 RAIN SONG DRIVE","LEANDER","TX",78641,30.5319164630001,-97.876172375,314,"2716 RAIN SONG DRIVE, LEANDER, TX, 78641","Match","Exact","2716 RAIN SONG DR, LEANDER, TX, 78641",648999971,"L"
147815,"2716 ROBUST COURT","HENDERSON","NV",89052,36.0039036480001,-115.105227245,315,"2716 ROBUST COURT, HENDERSON, NV, 89052","Match","Exact","2716 ROBUST CT, HENDERSON, NV, 89052",635008370,"R"
147816,"2716 ROBUST CT","HENDERSON","NV",89052,36.0039036480001,-115.105227245,316,"2716 ROBUST CT, HENDERSON, NV, 89052","Match","Exact","2716 ROBUST CT, HENDERSON, NV, 89052",635008370,"R"
147817,"2716 ROCKY SPRINGS DRIVE","PEARLAND","TX",77584,29.5605878690001,-95.415231912,317,"2716 ROCKY SPRINGS DRIVE, PEARLAND, TX, 77584","Match","Exact","2716 ROCKY SPRINGS DR, PEARLAND, TX, 77584",629665083,"R"
147818,"2716 RYAN BLVD","PUNTA  GORDA","FL",33950,26.900502895,-82.084190935,318,"2716 RYAN BLVD, PUNTA  GORDA, FL, 33950","Match","Exact","2716 RYAN BLVD, PUNTA GORDA, FL, 33950",4310264,"L"
147819,"2716 S 269TH ST","KENT","WA",98032,47.360403401,-122.298482055,319,"2716 S 269TH ST, KENT, WA, 98032","Match","Exact","2716 S 269TH ST, KENT, WA, 98032",186715157,"L"
147820,"2716 S ESTATE DR","EL RENO","OK",73036,35.506221628,-97.976322023,320,"2716 S ESTATE DR, EL RENO, OK, 73036","Match","Exact","2716 S ESTATE DR, EL RENO, OK, 73036",92531546,"L"
147821,"2716 S VERMONT AVE STE 9","LOS ANGELES","CA",90007,34.029759315,-118.291528654,321,"2716 S VERMONT AVE STE 9, LOS ANGELES, CA, 90007","Match","Non_Exact","2716 S VERMONT AVE, LOS ANGELES, CA, 90007",142453068,"L"
147822,"2716 SABER DR","NORTH LAS VEGAS","NV",89032,36.2085611910001,-115.172937141,322,"2716 SABER DR, NORTH LAS VEGAS, NV, 89032","Match","Exact","2716 SABER DR, N LAS VEGAS, NV, 89032",201972483,"R"
147823,"2716 SMALLPAGE TRACE","WILLIAMSBURG","VA",23185,37.2396787710001,-76.778341798,323,"2716 SMALLPAGE TRACE, WILLIAMSBURG, VA, 23185","Match","Exact","2716 SMALLPAGE TRCE, WILLIAMSBURG, VA, 23185",220090263,"R"
147824,"2716 TERRACE ROAD SE APT B619","WASHINGTON","DC",20020,38.8563888200001,-76.9630478299999,324,"2716 TERRACE ROAD SE APT B619, WASHINGTON, DC, 20020","Match","Exact","2716 TERRACE RD SE, WASHINGTON, DC, 20020",76232909,"L"
147825,"2716 WAREING DR","LAKE ORION","MI",48360,42.7398253870001,-83.307406296,325,"2716 WAREING DR, LAKE ORION, MI, 48360","Match","Exact","2716 WAREING DR, LAKE ORION, MI, 48360",69700243,"R"
147826,"2716 WATER OAK DRIVE","DALLAS","TX",75247,NA,NA,326,"2716 WATER OAK DRIVE, DALLAS, TX, 75247","No_Match",NA,NA,NA,NA
147827,"2716 WATERFORD WAY 1B","MIDLOTHIAN","VA",23112,37.4543991620001,-77.6467338149999,327,"2716 WATERFORD WAY 1B, MIDLOTHIAN, VA, 23112","Match","Exact","2716 WATERFORD WAY, MIDLOTHIAN, VA, 23112",201569446,"L"
147828,"2716 WEST OAKLAND PARK BLVD","OAKLAND PARK","FL",33311,26.1653505260001,-80.179234292,328,"2716 WEST OAKLAND PARK BLVD, OAKLAND PARK, FL, 33311","Match","Exact","2716 W OAKLAND PARK BLVD, OAKLAND PARK, FL, 33311",637124685,"R"
147829,"2716 WIND POINT COURT","LYNWOOD","IL",60411,41.5400684030001,-87.550353173,329,"2716 WIND POINT COURT, LYNWOOD, IL, 60411","Match","Exact","2716 WIND POINT CT, LYNWOOD, IL, 60411",111786801,"L"
147830,"27164 E GEDDES DRIVE","AURORA","CO",80016,39.5838809520001,-104.671648488,330,"27164 E GEDDES DRIVE, AURORA, CO, 80016","Match","Exact","27164 E GEDDES DR, AURORA, CO, 80016",650191077,"R"
147831,"2717 24TH AVE","ASTORIA","NY",11102,NA,NA,331,"2717 24TH AVE, ASTORIA, NY, 11102","No_Match",NA,NA,NA,NA
147832,"2717 24TH AVE","LONG ISLAND CITY","NY",11102,NA,NA,332,"2717 24TH AVE, LONG ISLAND CITY, NY, 11102","No_Match",NA,NA,NA,NA
147833,"2717 25TH ST","SARASOTA","FL",34234,27.3588012860001,-82.5154770629999,333,"2717 25TH ST, SARASOTA, FL, 34234","Match","Exact","2717 25TH ST, SARASOTA, FL, 34234",16420918,"L"
147834,"2717 28TH AVE NE","HICKORY","NC",28601,35.7661350820001,-81.277869161,334,"2717 28TH AVE NE, HICKORY, NC, 28601","Match","Exact","2717 28TH AVE NE, HICKORY, NC, 28601",45954859,"R"
147835,"2717 84TH DR NE","LAKE STEVENS","WA",98258,48.0199151350001,-122.116729365,335,"2717 84TH DR NE, LAKE STEVENS, WA, 98258","Match","Exact","2717 84TH DR NE, LAKE STEVENS, WA, 98258",606940151,"L"
147836,"2717 AVON RIVER DR","VALRICO","FL",33596,27.9063229670001,-82.2375345309999,336,"2717 AVON RIVER DR, VALRICO, FL, 33596","Match","Exact","2717 AVON RIVER DR, VALRICO, FL, 33596",627993082,"L"
147837,"2717 BARMETTLER STREET","RALEIGH","NC",27607,35.798547597,-78.669685411,337,"2717 BARMETTLER STREET, RALEIGH, NC, 27607","Match","Exact","2717 BARMETTLER ST, RALEIGH, NC, 27607",72502025,"L"
147838,"2717 BEALE CIRCLE","BELLEVUE","NE",68123,41.1275526270001,-95.9502035799999,338,"2717 BEALE CIRCLE, BELLEVUE, NE, 68123","Match","Exact","2717 BEALE CIR, BELLEVUE, NE, 68123",28469909,"R"
147839,"2717 BEAR SPRINGS TRL","AUSTIN","TX",78748,30.145884256,-97.85585997,339,"2717 BEAR SPRINGS TRL, AUSTIN, TX, 78748","Match","Exact","2717 BEAR SPRINGS TRL, AUSTIN, TX, 78748",647957901,"R"
147840,"2717 CENTRAL AVE NE NO 303","MINNEAPOLIS","MN",55418,45.0171510870001,-93.2472864219999,340,"2717 CENTRAL AVE NE NO 303, MINNEAPOLIS, MN, 55418","Match","Exact","2717 CENTRAL AVE NE, MINNEAPOLIS, MN, 55418",43636111,"R"
147841,"2717 COMMERCE ST","DALLAS","TX",75226,32.783006577,-96.784348853,341,"2717 COMMERCE ST, DALLAS, TX, 75226","Match","Exact","2717 COMMERCE ST, DALLAS, TX, 75226",102911630,"L"
147842,"2717 COMMERCIAL CENTER BLVD E200","KATY","TX",77494,29.741610811,-95.776706652,342,"2717 COMMERCIAL CENTER BLVD E200, KATY, TX, 77494","Match","Exact","2717 COMMERCIAL CENTER BLVD, KATY, TX, 77494",642156460,"L"
147843,"2717 COMMERCIAL CENTER BLVD","KATY","TX",77494,29.741610811,-95.776706652,343,"2717 COMMERCIAL CENTER BLVD, KATY, TX, 77494","Match","Exact","2717 COMMERCIAL CENTER BLVD, KATY, TX, 77494",642156460,"L"
147844,"2717 CROWN RIDGE DRIVE","LAS VEGAS","NV",89134,36.2097799370001,-115.291689141,344,"2717 CROWN RIDGE DRIVE, LAS VEGAS, NV, 89134","Match","Exact","2717 CROWN RIDGE DR, LAS VEGAS, NV, 89134",201904580,"L"
147845,"2717 CRYSTAL FALLS DR","MESQUITE","TX",75181,32.738984347,-96.539382032,345,"2717 CRYSTAL FALLS DR, MESQUITE, TX, 75181","Match","Exact","2717 CRYSTAL FALLS DR, MESQUITE, TX, 75181",103166316,"R"
147846,"2717 CYPRESS HOLLOW COURT","ORLANDO","FL",32822,28.5118295990001,-81.2858883649999,346,"2717 CYPRESS HOLLOW COURT, ORLANDO, FL, 32822","Match","Exact","2717 CYPRESS HOLLOW CT, ORLANDO, FL, 32822",94295180,"R"
147847,"2717 DANDELION DR","HIGH POINT","NC",27265,36.0090328220001,-79.975736716,347,"2717 DANDELION DR, HIGH POINT, NC, 27265","Match","Exact","2717 DANDELION DR, HIGH POINT, NC, 27265",619933306,"L"
147848,"2717 EAST RUSSELL ROAD","LAS VEGAS","NV",89120,36.086326908,-115.113211837,348,"2717 EAST RUSSELL ROAD, LAS VEGAS, NV, 89120","Match","Exact","2717 E RUSSELL RD, LAS VEGAS, NV, 89120",201873044,"R"
147849,"2717 HARTLEY HILLS DRIVE","CHARLOTTE","NC",28213,35.298185978,-80.709106673,349,"2717 HARTLEY HILLS DRIVE, CHARLOTTE, NC, 28213","Match","Exact","2717 HARTLEY HILLS DR, CHARLOTTE, NC, 28213",70547953,"R"
147850,"2717 HIGH ST","PUEBLO","CO",81003,38.295492896,-104.626459883,350,"2717 HIGH ST, PUEBLO, CO, 81003","Match","Exact","2717 HIGH ST, PUEBLO, CO, 81003",105025029,"L"
147851,"2717 LEXINGTON DR","NORWALK","IA",50211,41.493623412,-93.682384008,351,"2717 LEXINGTON DR, NORWALK, IA, 50211","Match","Exact","2717 LEXINGTON DR, NORWALK, IA, 50211",618057627,"R"
147852,"2717 MEADOWWOOD DR","TOLEDO","OH",43606,41.673346012,-83.615941896,352,"2717 MEADOWWOOD DR, TOLEDO, OH, 43606","Match","Exact","2717 MEADOWWOOD DR, TOLEDO, OH, 43606",33935355,"L"
147853,"2717 MILLERS WAY DRIVE","ELLICOTT CITY","MD",21043,39.3029822990001,-76.8088978869999,353,"2717 MILLERS WAY DRIVE, ELLICOTT CITY, MD, 21043","Match","Exact","2717 MILLERS WAY DR, ELLICOTT CITY, MD, 21043",635795791,"L"
147854,"2717 N KELLEY AVENUE","OKLAHOMA CITY","OK",73111,35.4971121450001,-97.494472134,354,"2717 N KELLEY AVENUE, OKLAHOMA CITY, OK, 73111","Match","Exact","2717 N KELLEY AVE, OKLAHOMA CITY, OK, 73111",100401524,"L"
147855,"2717 NORTH 5TH STREET","HARRISBURG","PA",17110,40.289839482,-76.897381616,355,"2717 NORTH 5TH STREET, HARRISBURG, PA, 17110","Match","Exact","2717 N 5TH ST, HARRISBURG, PA, 17110",70816404,"R"
147856,"2717 OCTAVIA STREET","NEW ORLEANS","LA",70115,29.9391618290001,-90.111194403,356,"2717 OCTAVIA STREET, NEW ORLEANS, LA, 70115","Match","Exact","2717 OCTAVIA ST, NEW ORLEANS, LA, 70115",191711209,"R"
147857,"2717 PROVO WAY","SACRAMENTO","CA",95822,38.489400511,-121.476184245,357,"2717 PROVO WAY, SACRAMENTO, CA, 95822","Match","Exact","2717 PROVO WAY, SACRAMENTO, CA, 95822",133351036,"L"
147858,"2717 S SMEDLEY STREET","PHILADELPHIA","PA",19145,39.917007713,-75.175410574,358,"2717 S SMEDLEY STREET, PHILADELPHIA, PA, 19145","Match","Exact","2717 S SMEDLEY ST, PHILADELPHIA, PA, 19145",131411496,"L"
147859,"2717 SE 45TH AVE","OCALA","FL",34480,29.1606949110001,-82.0739131559999,359,"2717 SE 45TH AVE, OCALA, FL, 34480","Match","Exact","2717 SE 45TH AVE, OCALA, FL, 34480",607457271,"L"
147860,"2717 THORNCREEK LANE","FORT WORTH","TX",76177,33.024437602,-97.297885728,360,"2717 THORNCREEK LANE, FORT WORTH, TX, 76177","Match","Exact","2717 THORNCREEK LN, FORT WORTH, TX, 76177",614162777,"L"
147861,"2717 VASSAR ROAD","TALLAHASSEE","FL",32309,30.5047541050001,-84.224213178,361,"2717 VASSAR ROAD, TALLAHASSEE, FL, 32309","Match","Exact","2717 VASSAR RD, TALLAHASSEE, FL, 32309",82865196,"R"
147862,"2717 W 74TH ST","LOS ANGELES","CA",90043,33.9727716020001,-118.322990935,362,"2717 W 74TH ST, LOS ANGELES, CA, 90043","Match","Exact","2717 W 74TH ST, LOS ANGELES, CA, 90043",141655261,"R"
147863,"2717 W MAPLEWOOD AVE","BELLINGHAM","WA",98225,48.776574758,-122.501347926,363,"2717 W MAPLEWOOD AVE, BELLINGHAM, WA, 98225","Match","Exact","2717 W MAPLEWOOD AVE, BELLINGHAM, WA, 98225",651950591,"L"
147864,"2717 WAYMAR DR SW","MARIETTA","GA",30008,33.8873308010001,-84.5873578389999,364,"2717 WAYMAR DR SW, MARIETTA, GA, 30008","Match","Exact","2717 WAYMAR DR SW, MARIETTA, GA, 30008",17251764,"R"
147865,"2717 WAYMAR DRIVE","MARIETTA","GA",30008,33.8873308010001,-84.5873578389999,365,"2717 WAYMAR DRIVE, MARIETTA, GA, 30008","Match","Non_Exact","2717 WAYMAR DR SW, MARIETTA, GA, 30008",17251764,"R"
147866,"2717 WESTVIEW DRIVE","MESQUITE","TX",75150,32.8026377840001,-96.642738277,366,"2717 WESTVIEW DRIVE, MESQUITE, TX, 75150","Match","Exact","2717 WESTVIEW DR, MESQUITE, TX, 75150",102931707,"L"
147867,"2717 WILLIS FOREMAN RD","HEPHZIBAH","GA",30815,33.3539276000001,-82.1038864769999,367,"2717 WILLIS FOREMAN RD, HEPHZIBAH, GA, 30815","Match","Exact","2717 WILLIS FOREMAN RD, HEPHZIBAH, GA, 30815",648115108,"L"
147868,"27176 AL HWY 251","ELKMONT","AL",35620,34.9506908610001,-86.8195151639999,368,"27176 AL HWY 251, ELKMONT, AL, 35620","Match","Non_Exact","27176 STATE RTE 251, ELKMONT, AL, 35620",95244328,"L"
147869,"27177 185TH AVENUE SE SUITE D105","COVINGTON","WA",98042,47.365448789,-122.094356519,369,"27177 185TH AVENUE SE SUITE D105, COVINGTON, WA, 98042","Match","Exact","27177 185TH AVE SE, COVINGTON, WA, 98042",650027061,"L"
147870,"2717COMMERCIAL CTR BLVD STEE200-188","KATY","TX",77494,NA,NA,370,"2717COMMERCIAL CTR BLVD STEE200-188, KATY, TX, 77494","No_Match",NA,NA,NA,NA
147871,"2718 13TH STREET NW","WASHINGTON","DC",20009,38.9249910790001,-77.029714123,371,"2718 13TH STREET NW, WASHINGTON, DC, 20009","Match","Exact","2718 13TH ST NW, WASHINGTON, DC, 20009",76224104,"L"
147872,"2718 9TH AVE","CLARKSTON","WA",99403,46.3798217680001,-117.102366692,372,"2718 9TH AVE, CLARKSTON, WA, 99403","Match","Exact","2718 9TH AVE, CLARKSTON, WA, 99403",173108428,"R"
147873,"2718 ALLLPINE TAYLOR ROAD","GREENVILLE","NC",27834,NA,NA,373,"2718 ALLLPINE TAYLOR ROAD, GREENVILLE, NC, 27834","No_Match",NA,NA,NA,NA
147874,"2718 ANDREWS DR","BATAVIA","IL",60510,41.8621111140001,-88.355148447,374,"2718 ANDREWS DR, BATAVIA, IL, 60510","Match","Exact","2718 ANDREWS DR, BATAVIA, IL, 60510",119564331,"R"
147875,"2718 BONNY LANE","LAFAYETTE","IN",47904,40.4309417060001,-86.864439168,375,"2718 BONNY LANE, LAFAYETTE, IN, 47904","Match","Exact","2718 BONNY LN, LAFAYETTE, IN, 47904",27307427,"L"
147876,"2718 BRIGHT TR","SUGAR LAND","TX",77479,29.5737050720001,-95.636354495,376,"2718 BRIGHT TR, SUGAR LAND, TX, 77479","Match","Exact","2718 BRIGHT TRL, SUGAR LAND, TX, 77479",78288251,"R"
147877,"2718 BRIGHT TRAIL","SUGAR LAND","TX",77479,29.5737050720001,-95.636354495,377,"2718 BRIGHT TRAIL, SUGAR LAND, TX, 77479","Match","Exact","2718 BRIGHT TRL, SUGAR LAND, TX, 77479",78288251,"R"
147878,"2718 BRYANT AVE NO","MINNEAPOLIS","MN",55411,45.0080059640001,-93.29051072,378,"2718 BRYANT AVE NO, MINNEAPOLIS, MN, 55411","Match","Exact","2718 BRYANT AVE N, MINNEAPOLIS, MN, 55411",43622533,"R"
147879,"2718 BRYANT AVENUE NORTH","MINNEAPOLIS","MN",55411,45.0080059640001,-93.29051072,379,"2718 BRYANT AVENUE NORTH, MINNEAPOLIS, MN, 55411","Match","Exact","2718 BRYANT AVE N, MINNEAPOLIS, MN, 55411",43622533,"R"
147880,"2718 DEARDANE DRIVE","JEFFERSON CITY","MO",65109,38.5362970800001,-92.223451836,380,"2718 DEARDANE DRIVE, JEFFERSON CITY, MO, 65109","Match","Exact","2718 DEARDANE DR, JEFFERSON CITY, MO, 65109",34408793,"L"
147881,"2718 DRUID HILL DR","MARYVILLE","TN",37804,35.7973511870001,-83.9440403309999,381,"2718 DRUID HILL DR, MARYVILLE, TN, 37804","Match","Exact","2718 DRUID HILL DR, MARYVILLE, TN, 37804",89863736,"R"
147882,"2718 FOXBRIAR PLACE","INDIANAPOLIS","IN",46203,39.72917921,-86.060652994,382,"2718 FOXBRIAR PLACE, INDIANAPOLIS, IN, 46203","Match","Exact","2718 FOXBRIAR PL, INDIANAPOLIS, IN, 46203",624093438,"L"
147883,"2718 GLENWOOD DR","DES MOINES","IA",50321,41.558914955,-93.652698592,383,"2718 GLENWOOD DR, DES MOINES, IA, 50321","Match","Exact","2718 GLENWOOD DR, DES MOINES, IA, 50321",65785488,"L"
147884,"2718 GREER ROAD","GOODLETTSVILLE","TN",37072,36.3503366780001,-86.7884144669999,384,"2718 GREER ROAD, GOODLETTSVILLE, TN, 37072","Match","Exact","2718 GREER RD, GOODLETTSVILLE, TN, 37072",633392617,"R"
147885,"2718 HICKORYWOOD CT","INDIANAPOLIS","IN",46224,39.8055434020001,-86.257921056,385,"2718 HICKORYWOOD CT, INDIANAPOLIS, IN, 46224","Match","Exact","2718 HICKORYWOOD CT, INDIANAPOLIS, IN, 46224",107978454,"L"
147886,"2718 LEWIS RD","DOVER","FL",33527,27.9077887780001,-82.1990696889999,386,"2718 LEWIS RD, DOVER, FL, 33527","Match","Exact","2718 LEWIS RD, DOVER, FL, 33527",624597338,"L"
147887,"2718 MCCAUSLAND AVE","ST LOUIS","MO",63143,38.612613352,-90.3092152839999,387,"2718 MCCAUSLAND AVE, ST LOUIS, MO, 63143","Match","Exact","2718 MCCAUSLAND AVE, SAINT LOUIS, MO, 63143",107608307,"L"
147888,"2718 N 62ND STREET","OMAHA","NE",68104,41.28347827,-96.0083739309999,388,"2718 N 62ND STREET, OMAHA, NE, 68104","Match","Exact","2718 N 62ND ST, OMAHA, NE, 68104",116976403,"L"
147889,"2718 N DAYTON ST","PHOENIX","AZ",85006,33.478744502,-112.059619652,389,"2718 N DAYTON ST, PHOENIX, AZ, 85006","Match","Exact","2718 N DAYTON ST, PHOENIX, AZ, 85006",128213118,"L"
147890,"2718 NEWPORT LAKE BLVD","MANVEL","TX",77578,29.509938321,-95.41144387,390,"2718 NEWPORT LAKE BLVD, MANVEL, TX, 77578","Match","Exact","2718 NEWPORT LAKE BLVD, MANVEL, TX, 77578",651864863,"R"
147891,"2718 NORTH 13TH STREET","ST LOUIS","MO",63106,38.6510432250001,-90.196176979,391,"2718 NORTH 13TH STREET, ST LOUIS, MO, 63106","Match","Exact","2718 N 13TH ST, SAINT LOUIS, MO, 63106",107604621,"R"
147892,"2718 NORTHWEST 68TH WAY","SUNRISE","FL",33313,26.1606378920001,-80.2406627129999,392,"2718 NORTHWEST 68TH WAY, SUNRISE, FL, 33313","Match","Exact","2718 NW 68TH WAY, SUNRISE, FL, 33313",114762443,"R"
147893,"2718 OAK LEIGH STREET","SAN ANTONIO","TX",78232,29.575448991,-98.4482514759999,393,"2718 OAK LEIGH STREET, SAN ANTONIO, TX, 78232","Match","Exact","2718 OAK LEIGH ST, SAN ANTONIO, TX, 78232",101698796,"R"
147894,"2718 OLD SALEM RD","FRISCO CITY","AL",36445,31.5356523880001,-87.412079263,394,"2718 OLD SALEM RD, FRISCO CITY, AL, 36445","Match","Exact","2718 OLD SALEM RD, FRISCO CITY, AL, 36445",2010479,"R"
147895,"2718 OMAR ST","CHESAPEAKE","VA",23324,36.792661685,-76.257371244,395,"2718 OMAR ST, CHESAPEAKE, VA, 23324","Match","Exact","2718 OMAR ST, CHESAPEAKE, VA, 23324",121772082,"R"
147896,"2718 OVERBROOK DR","RALEIGH","NC",27608,35.818659203,-78.634661882,396,"2718 OVERBROOK DR, RALEIGH, NC, 27608","Match","Exact","2718 OVERBROOK DR, RALEIGH, NC, 27608",72507235,"R"
147897,"2718 PEPPERMILL RUN","SAN ANTONIO","TX",78231,29.5719000330001,-98.534262554,397,"2718 PEPPERMILL RUN, SAN ANTONIO, TX, 78231","Match","Non_Exact","2718 PEPPERMILL RUN ST, SAN ANTONIO, TX, 78231",101492471,"R"
147898,"2718 PINE TREE DR","EVANSVILLE","IN",47711,38.031613475,-87.5158051669999,398,"2718 PINE TREE DR, EVANSVILLE, IN, 47711","Match","Exact","2718 PINE TREE DR, EVANSVILLE, IN, 47711",39784246,"L"
147899,"2718 S 17TH STREET  UNIT B","WILIMINGTON","NC",28412,34.1919616660001,-77.919200245,399,"2718 S 17TH STREET  UNIT B, WILIMINGTON, NC, 28412","Match","Non_Exact","2718 S 17TH ST, WILMINGTON, NC, 28412",152760781,"R"
147900,"2718 S BROADWAY","YORKTOWN","IN",47396,40.168856217,-85.491155611,400,"2718 S BROADWAY, YORKTOWN, IN, 47396","Match","Non_Exact","2718 S BROADWAY ST, YORKTOWN, IN, 47396",30847829,"R"
147901,"2718 SAND OAK LOOP","APOPKA","FL",32712,28.743858937,-81.555596882,401,"2718 SAND OAK LOOP, APOPKA, FL, 32712","Match","Exact","2718 SAND OAK LOOP, APOPKA, FL, 32712",650023834,"L"
147902,"2718 SCOTT STREET","VALDOSTA","GA",31601,30.8092038510001,-83.347288858,402,"2718 SCOTT STREET, VALDOSTA, GA, 31601","Match","Exact","2718 SCOTT ST, VALDOSTA, GA, 31601",87726246,"R"
147903,"2718 SW 92ND DRIVE","GAINESVILLE","FL",32606,NA,NA,403,"2718 SW 92ND DRIVE, GAINESVILLE, FL, 32606","No_Match",NA,NA,NA,NA
147904,"2718 TARPLEY SHOP RD","PULASKI","TN",38478,35.126100885,-86.909462159,404,"2718 TARPLEY SHOP RD, PULASKI, TN, 38478","Match","Exact","2718 TARPLEY SHOP RD, PULASKI, TN, 38478",45307351,"L"
147905,"2718 TELEGRAPH AVE SUITE 210","BERKELEY","CA",94705,37.8613261900001,-122.259033501,405,"2718 TELEGRAPH AVE SUITE 210, BERKELEY, CA, 94705","Match","Exact","2718 TELEGRAPH AVE, BERKELEY, CA, 94705",124998715,"R"
147906,"2718 UNION STREET","HERMON","ME",4401,44.8580341250001,-68.898548999,406,"2718 UNION STREET, HERMON, ME, 4401","Match","Exact","2718 UNION ST, HERMON, ME, 04401",123643476,"L"
147907,"2718 W DESERT SPLENDOR COURT","ORO VALLEY","AZ",85742,32.3998837840001,-111.026630627,407,"2718 W DESERT SPLENDOR COURT, ORO VALLEY, AZ, 85742","Match","Exact","2718 W DESERT SPLENDOR CT, ORO VALLEY, AZ, 85742",121407228,"R"
147908,"2718 WEST OSAGE STREET","PACIFIC","MO",63069,38.4869964490001,-90.7799982779999,408,"2718 WEST OSAGE STREET, PACIFIC, MO, 63069","Match","Exact","2718 W OSAGE ST, PACIFIC, MO, 63069",99725025,"L"
147909,"2718 WOODFERN CT","WOODBRIDGE","VA",22192,38.6864550720001,-77.293381382,409,"2718 WOODFERN CT, WOODBRIDGE, VA, 22192","Match","Exact","2718 WOODFERN CT, WOODBRIDGE, VA, 22192",207152981,"R"
147910,"27180 POLLARD ROAD","DAPHNE","AL",36526,30.62178987,-87.885766652,410,"27180 POLLARD ROAD, DAPHNE, AL, 36526","Match","Exact","27180 POLLARD RD, DAPHNE, AL, 36526",653335488,"L"
147911,"27181 KASSELDER PT","CALHAN","CO",80808,NA,NA,411,"27181 KASSELDER PT, CALHAN, CO, 80808","No_Match",NA,NA,NA,NA
147912,"27185 PEMBRIDGE LANE","FARMINGTON HILLS","MI",48331,42.4928703040001,-83.3945089919999,412,"27185 PEMBRIDGE LANE, FARMINGTON HILLS, MI, 48331","Match","Exact","27185 PEMBRIDGE LN, FARMINGTON HILLS, MI, 48331",69794553,"R"
147913,"27186 237TH AVE SW","CROOKSTON","MN",56716,47.773849936,-96.561601337,413,"27186 237TH AVE SW, CROOKSTON, MN, 56716","Match","Exact","27186 237TH AVE SW, CROOKSTON, MN, 56716",171439532,"R"
147914,"2719 ACR181","ELKHART","TX",75839,NA,NA,414,"2719 ACR181, ELKHART, TX, 75839","No_Match",NA,NA,NA,NA
147915,"2719 ASHLAWN DR","MONTGOMERY","AL",36111,32.332631205,-86.265185237,415,"2719 ASHLAWN DR, MONTGOMERY, AL, 36111","Match","Exact","2719 ASHLAWN DR, MONTGOMERY, AL, 36111",1476324,"L"
147916,"2719 AUSTIN AVE","BROWNWOOD","TX",76801,31.6941590230001,-98.965658774,416,"2719 AUSTIN AVE, BROWNWOOD, TX, 76801","Match","Exact","2719 AUSTIN AVE, BROWNWOOD, TX, 76801",129460565,"L"
147917,"2719 BERKLEY ST","FLINT","MI",48504,43.0254878380001,-83.7259874819999,417,"2719 BERKLEY ST, FLINT, MI, 48504","Match","Exact","2719 BERKLEY ST, FLINT, MI, 48504",69565049,"L"
147918,"2719 BLACKSHEAR AVENUE","PENSACOLA","FL",32503,30.4447436470001,-87.191238158,418,"2719 BLACKSHEAR AVENUE, PENSACOLA, FL, 32503","Match","Exact","2719 BLACKSHEAR AVE, PENSACOLA, FL, 32503",93223223,"L"
147919,"2719 BRAMBLE DR","HILLIARD","OH",43026,40.0075744870001,-83.146370431,419,"2719 BRAMBLE DR, HILLIARD, OH, 43026","Match","Exact","2719 BRAMBLE DR, HILLIARD, OH, 43026",218652079,"R"
147920,"2719 BURRLAND LN","THE PLAINS","VA",20198,38.9300926880001,-77.772975819,420,"2719 BURRLAND LN, THE PLAINS, VA, 20198","Match","Exact","2719 BURRLAND LN, THE PLAINS, VA, 20198",641145676,"R"
147921,"2719 CASTANET STREET","SAN ANTONIO","TX",78230,29.5286734000001,-98.537709007,421,"2719 CASTANET STREET, SAN ANTONIO, TX, 78230","Match","Exact","2719 CASTANET ST, SAN ANTONIO, TX, 78230",101493253,"R"
147922,"2719 CHAPLE COVE","ST LOUIS","MO",63031,NA,NA,422,"2719 CHAPLE COVE, ST LOUIS, MO, 63031","No_Match",NA,NA,NA,NA
147923,"2719 CRUGER AVENUE","BRONX","NY",10467,40.865830691,-73.86633582,423,"2719 CRUGER AVENUE, BRONX, NY, 10467","Match","Exact","2719 CRUGER AVE, BRONX, NY, 10467",80303399,"L"
147924,"2719 DELOWE DRIVE","EAST POINT","GA",30344,33.68110089,-84.457698814,424,"2719 DELOWE DRIVE, EAST POINT, GA, 30344","Match","Non_Exact","2719 DELOWE DR SW, EAST POINT, GA, 30344",17347286,"R"
147925,"2719 EDEN COURT","GRAND JUNCTION","CO",81506,39.1274005390001,-108.551557528,425,"2719 EDEN COURT, GRAND JUNCTION, CO, 81506","Match","Exact","2719 EDEN CT, GRAND JCT, CO, 81506",122447273,"R"
147926,"2719 GRAND AVE S UNIT2","MINNEAPOLIS","MN",55408,44.9526986110001,-93.284239742,426,"2719 GRAND AVE S UNIT2, MINNEAPOLIS, MN, 55408","Match","Non_Exact","2719 GRAND AVE, MINNEAPOLIS, MN, 55408",43632234,"L"
147927,"2719 HEIGHTS VIEW CT","OAKLAND TWP","MI",48306,42.7315440450001,-83.190931721,427,"2719 HEIGHTS VIEW CT, OAKLAND TWP, MI, 48306","Match","Exact","2719 HEIGHTS VIEW CT, OAKLAND TOWNSHIP, MI, 48306",69824913,"L"
147928,"2719 HOLLYWOOD BLVD  A-928","HOLLYWOOD","FL",33020,26.011118142,-80.160988741,428,"2719 HOLLYWOOD BLVD  A-928, HOLLYWOOD, FL, 33020","Match","Exact","2719 HOLLYWOOD BLVD, HOLLYWOOD, FL, 33020",114729680,"R"
147929,"2719 HOLLYWOOD BLVD B126","HOLLYWOOD","FL",33020,26.011118142,-80.160988741,429,"2719 HOLLYWOOD BLVD B126, HOLLYWOOD, FL, 33020","Match","Exact","2719 HOLLYWOOD BLVD, HOLLYWOOD, FL, 33020",114729680,"R"
147930,"2719 HOLLYWOOD BLVD","HOLLYWOOD","FL",33020,26.011118142,-80.160988741,430,"2719 HOLLYWOOD BLVD, HOLLYWOOD, FL, 33020","Match","Exact","2719 HOLLYWOOD BLVD, HOLLYWOOD, FL, 33020",114729680,"R"
147931,"2719 KING STREET","ALEXANDRIA","VA",22302,38.8149683090001,-77.072581159,431,"2719 KING STREET, ALEXANDRIA, VA, 22302","Match","Exact","2719 KING ST, ALEXANDRIA, VA, 22302",75987650,"R"
147932,"2719 KIPLING - A","HOUSTON","TX",77098,29.7400915310001,-95.420112796,432,"2719 KIPLING - A, HOUSTON, TX, 77098","Match","Non_Exact","2719 KIPLING ST, HOUSTON, TX, 77098",96063055,"L"
147933,"2719 LINDEN LN","SILVER SPRING","MD",20910,39.0103598170001,-77.0555739059999,433,"2719 LINDEN LN, SILVER SPRING, MD, 20910","Match","Exact","2719 LINDEN LN, SILVER SPRING, MD, 20910",62117189,"R"
147934,"2719 MARQUETTE TRAIL","KATY","TX",77494,29.7499354510001,-95.791169188,434,"2719 MARQUETTE TRAIL, KATY, TX, 77494","Match","Exact","2719 MARQUETTE TRL, KATY, TX, 77494",633674117,"L"
147935,"2719 MCCOY AVENUE","ATLANTA","GA",30344,33.6813288700001,-84.472728054,435,"2719 MCCOY AVENUE, ATLANTA, GA, 30344","Match","Exact","2719 MCCOY AVE, ATLANTA, GA, 30344",17399575,"R"
147936,"2719 MICHIGAN AVENUE","KISSIMMEE","FL",34744,28.326524658,-81.391211454,436,"2719 MICHIGAN AVENUE, KISSIMMEE, FL, 34744","Match","Exact","2719 MICHIGAN AVE, KISSIMMEE, FL, 34744",176690504,"R"
147937,"2719 MISTY BAR DRIVE","MEMPHIS","TN",38002,NA,NA,437,"2719 MISTY BAR DRIVE, MEMPHIS, TN, 38002","No_Match",NA,NA,NA,NA
147938,"2719 N VALLE VERDE DR","NOGALES","AZ",85621,31.3812941570001,-110.948154979,438,"2719 N VALLE VERDE DR, NOGALES, AZ, 85621","Match","Exact","2719 N VALLE VERDE DR, NOGALES, AZ, 85621",120859488,"L"
147939,"2719 NORTH TAYLOR","LITTLE ROCK","AR",72207,34.7768627660001,-92.3359861,439,"2719 NORTH TAYLOR, LITTLE ROCK, AR, 72207","Match","Non_Exact","2719 N TAYLOR ST, LITTLE ROCK, AR, 72207",83504053,"R"
147940,"2719 NW 127TH STREET","VANCOUVER","WA",98685,45.7128582870001,-122.698932367,440,"2719 NW 127TH STREET, VANCOUVER, WA, 98685","Match","Exact","2719 NW 127TH ST, VANCOUVER, WA, 98685",158372324,"L"
147941,"2719 ONTARIO RD NW","WASHINGTON","DC",20009,38.924553105,-77.040348937,441,"2719 ONTARIO RD NW, WASHINGTON, DC, 20009","Match","Exact","2719 ONTARIO RD NW, WASHINGTON, DC, 20009",76222886,"R"
147942,"2719 ORDWAY STREET NW APT 2","WASHINGTON","DC",20008,38.9343449580001,-77.0562113839999,442,"2719 ORDWAY STREET NW APT 2, WASHINGTON, DC, 20008","Match","Exact","2719 ORDWAY ST NW, WASHINGTON, DC, 20008",76221166,"R"
147943,"2719 PARK 305","MINNEAPOLIS","MN",55407,NA,NA,443,"2719 PARK 305, MINNEAPOLIS, MN, 55407","No_Match",NA,NA,NA,NA
147944,"2719 PROSPECT AVE","LA CRESCENTA","CA",91214,34.220252982,-118.238037805,444,"2719 PROSPECT AVE, LA CRESCENTA, CA, 91214","Match","Exact","2719 PROSPECT AVE, LA CRESCENTA, CA, 91214",142724516,"R"
147945,"2719 RAMBLING WAY","LITHONIA","GA",30058,33.7247261370001,-84.126589643,445,"2719 RAMBLING WAY, LITHONIA, GA, 30058","Match","Exact","2719 RAMBLING WAY, LITHONIA, GA, 30058",627673348,"R"
147946,"2719 RIVERFRONT DRIVE","LOVELAND","CO",80538,40.420685517,-105.171924563,446,"2719 RIVERFRONT DRIVE, LOVELAND, CO, 80538","Match","Exact","2719 RIVERFRONT DR, LOVELAND, CO, 80538",188484479,"R"
147947,"2719 ROYALWOODS COURT","CINCINNATI","OH",45244,39.105496186,-84.3536058559999,447,"2719 ROYALWOODS COURT, CINCINNATI, OH, 45244","Match","Exact","2719 ROYALWOODS CT, CINCINNATI, OH, 45244",103948709,"L"
147948,"2719 S MOORE STREET","PHILADELPHIA","PA",19145,39.9308589190001,-75.190819,448,"2719 S MOORE STREET, PHILADELPHIA, PA, 19145","Match","Exact","2719 MOORE ST, PHILADELPHIA, PA, 19145",131410266,"R"
147949,"2719 SAINT PAUL STREET","BALTIMORE","MD",21218,39.3210159070001,-76.615597136,449,"2719 SAINT PAUL STREET, BALTIMORE, MD, 21218","Match","Exact","2719 SAINT PAUL ST, BALTIMORE, MD, 21218",206408871,"R"
147950,"2719 THORNBROOK COURT","ODENTON","MD",21113,39.064209808,-76.727901263,450,"2719 THORNBROOK COURT, ODENTON, MD, 21113","Match","Exact","2719 THORNBROOK CT, ODENTON, MD, 21113",606927640,"L"
147951,"2719 URSULINES AVE","NEW ORLEANS","LA",70119,29.9744856030001,-90.080909735,451,"2719 URSULINES AVE, NEW ORLEANS, LA, 70119","Match","Exact","2719 URSULINES AVE, NEW ORLEANS, LA, 70119",191709422,"R"
147952,"2719 VERMILLION DRIVE SUITE 111","MISSOURI CITY","TX",77459,29.5462358,-95.515484494,452,"2719 VERMILLION DRIVE SUITE 111, MISSOURI CITY, TX, 77459","Match","Exact","2719 VERMILLION DR, MISSOURI CITY, TX, 77459",78287272,"R"
147953,"2719 W CESAR E CHAVEZ BLVD APT 3","SAN ANTONIO","TX",78207,NA,NA,453,"2719 W CESAR E CHAVEZ BLVD APT 3, SAN ANTONIO, TX, 78207","No_Match",NA,NA,NA,NA
147954,"2719 W DIVISION ST STE 110","SAINT CLOUD","MN",56301,45.553265744,-94.190817866,454,"2719 W DIVISION ST STE 110, SAINT CLOUD, MN, 56301","Match","Exact","2719 DIVISION ST, SAINT CLOUD, MN, 56301",107414628,"R"
147955,"2719 WAGONWHEEL CIR","CARROLLTON","TX",75006,32.9631189770001,-96.8635475249999,455,"2719 WAGONWHEEL CIR, CARROLLTON, TX, 75006","Match","Exact","2719 WAGONWHEEL CIR, CARROLLTON, TX, 75006",648064714,"R"
147956,"2719 WEST THARPE STREET/ STE 8","TALLAHASSEE","FL",32303,30.4653583100001,-84.340045886,456,"2719 WEST THARPE STREET/ STE 8, TALLAHASSEE, FL, 32303","Match","Non_Exact","2719 W THARPE ST, TALLAHASSEE, FL, 32303",610361543,"L"
147957,"27193 WALTZ RD","NEW BOSTON","MI",48164,42.1056029530001,-83.399240262,457,"27193 WALTZ RD, NEW BOSTON, MI, 48164","Match","Exact","27193 WALTZ RD, NEW BOSTON, MI, 48164",95684324,"L"
147958,"27194 - 8TH STREET","JUNCTION CITY","OR",97448,NA,NA,458,"27194 - 8TH STREET, JUNCTION CITY, OR, 97448","No_Match",NA,NA,NA,NA
147959,"272 1/2 W 41ST ST","LOS ANGELES","CA",90037,34.0090958850001,-118.277553169,459,"272 1/2 W 41ST ST, LOS ANGELES, CA, 90037","Match","Exact","272 W 41ST ST, LOS ANGELES, CA, 90037",141608240,"L"
147960,"272 AVIS STREET","PORT ANGELES","WA",98362,48.1025263930001,-123.3825882,460,"272 AVIS STREET, PORT ANGELES, WA, 98362","Match","Exact","272 AVIS ST, PORT ANGELES, WA, 98362",150878071,"R"
147961,"272 BALKAMORE HILL","STANLEY","VA",22851,38.5817774280001,-78.431163544,461,"272 BALKAMORE HILL, STANLEY, VA, 22851","Match","Non_Exact","272 BALKAMORE HILL RD, STANLEY, VA, 22851",29922367,"L"
147962,"272 BALSAM DRIVE","FOLEY","MN",56329,45.6544936010001,-93.912075223,462,"272 BALSAM DRIVE, FOLEY, MN, 56329","Match","Exact","272 BALSAM DR, FOLEY, MN, 56329",167367660,"L"
147963,"272 BERDAN AVE","WAYNE","NJ",7470,40.9691479620001,-74.2412053259999,463,"272 BERDAN AVE, WAYNE, NJ, 7470","Match","Exact","272 BERDAN AVE, WAYNE, NJ, 07470",650048100,"L"
147964,"272 BROADWAY NO 646","METHUEN","MA",1844,NA,NA,464,"272 BROADWAY NO 646, METHUEN, MA, 1844","No_Match",NA,NA,NA,NA
147965,"272 BURTON ROAD","HOLLY SPRINGS","MS",38635,34.77753913,-89.578600638,465,"272 BURTON ROAD, HOLLY SPRINGS, MS, 38635","Match","Exact","272 BURTON RD, HOLLY SPRINGS, MS, 38635",608016246,"R"
147966,"272 CANDLETREE CIRCLE","MONUMENT","CO",80132,39.083520106,-104.873674808,466,"272 CANDLETREE CIRCLE, MONUMENT, CO, 80132","Match","Exact","272 CANDLETREE CIR, MONUMENT, CO, 80132",105546004,"R"
147967,"272 CAPE SABLE DRIVE","NAPLES","FL",34104,26.148184972,-81.739063872,467,"272 CAPE SABLE DRIVE, NAPLES, FL, 34104","Match","Exact","272 CAPE SABLE DR, NAPLES, FL, 34104",115140106,"L"
147968,"272 CEDAR AVENUE","RAVENNA","OH",44266,NA,NA,468,"272 CEDAR AVENUE, RAVENNA, OH, 44266","Tie",NA,NA,NA,NA
147969,"272 CEDAR GLEN DR 4D","CAMDENTON","MO",65020,37.9920366170001,-92.793142836,469,"272 CEDAR GLEN DR 4D, CAMDENTON, MO, 65020","Match","Non_Exact","272 CEDAR GLENN DR, CAMDENTON, MO, 65020",22872927,"L"
147970,"272 CHURCH STREET","MAYS LANDING","NJ",8330,39.5375834800001,-74.8589271,470,"272 CHURCH STREET, MAYS LANDING, NJ, 8330","Match","Exact","272 CHURCH ST, MAYS LANDING, NJ, 08330",202523551,"R"
147971,"272 EASTFORD RD","EASTFORD","CA",6242,NA,NA,471,"272 EASTFORD RD, EASTFORD, CA, 6242","No_Match",NA,NA,NA,NA
147972,"272 GARDINER RD","WISCASSET","ME",4578,44.0234945060001,-69.669956714,472,"272 GARDINER RD, WISCASSET, ME, 4578","Match","Exact","272 GARDINER RD, WISCASSET, ME, 04578",75297925,"L"
147973,"272 GOLDEN WOODS COURT","GREAT FALLS","VA",22066,39.016112046,-77.262155333,473,"272 GOLDEN WOODS COURT, GREAT FALLS, VA, 22066","Match","Exact","272 GOLDEN WOODS CT, GREAT FALLS, VA, 22066",76023007,"L"
147974,"272 GOLDEN WOODS CT","GREAT FALLS","VA",22066,39.016112046,-77.262155333,474,"272 GOLDEN WOODS CT, GREAT FALLS, VA, 22066","Match","Exact","272 GOLDEN WOODS CT, GREAT FALLS, VA, 22066",76023007,"L"
147975,"272 HIGH MOUNTAIN ROAD","NORTH HALEDON","NJ",7508,40.9472913110001,-74.182225734,475,"272 HIGH MOUNTAIN ROAD, NORTH HALEDON, NJ, 7508","Match","Exact","272 HIGH MOUNTAIN RD, NORTH HALEDON, NJ, 07508",65262064,"R"
147976,"272 HIGHWAY 34","MATAWAN","NJ",7747,40.4155901820001,-74.246550252,476,"272 HIGHWAY 34, MATAWAN, NJ, 7747","Match","Non_Exact","272 STATE RTE 34, MATAWAN, NJ, 07747",636498352,"R"
147977,"272 IVY BEND CIR","CLARKSVILLE","TN",37043,36.4879647180001,-87.202546512,477,"272 IVY BEND CIR, CLARKSVILLE, TN, 37043","Match","Exact","272 IVY BEND CIR, CLARKSVILLE, TN, 37043",645526895,"R"
147978,"272 LAKE AVENUE","METUCHEN","NJ",8840,40.538821037,-74.364245236,478,"272 LAKE AVENUE, METUCHEN, NJ, 8840","Match","Exact","272 LAKE AVE, METUCHEN, NJ, 08840",60277614,"R"
147979,"272 LANEY DRIVE","FORREST CITY","AR",72335,35.0230712920001,-90.795926955,479,"272 LANEY DRIVE, FORREST CITY, AR, 72335","Match","Exact","272 LANEY DR, FORREST CITY, AR, 72335",12644226,"R"
147980,"272 LEBANON STREET","MELROSE","MA",2176,NA,NA,480,"272 LEBANON STREET, MELROSE, MA, 2176","No_Match",NA,NA,NA,NA
147981,"272 MAIN ST","ASHLAND","MA",1721,42.2583205240001,-71.462799924,481,"272 MAIN ST, ASHLAND, MA, 1721","Match","Exact","272 MAIN ST, ASHLAND, MA, 01721",86849085,"L"
147982,"272 MONTEREY DRIVE","CARSON","CA",90745,33.7992185420001,-118.271349571,482,"272 MONTEREY DRIVE, CARSON, CA, 90745","Match","Exact","272 MONTEREY DR, CARSON, CA, 90745",142656551,"L"
147983,"272 N 600 W","VALPARAISO","IN",46385,41.4739879420001,-87.1814084969999,483,"272 N 600 W, VALPARAISO, IN, 46385","Match","Exact","272 N 600 W, VALPARAISO, IN, 46385",119916544,"R"
147984,"272 N FIFTH AVE","WINDER","GA",30680,34.0035321450001,-83.7258552709999,484,"272 N FIFTH AVE, WINDER, GA, 30680","Match","Exact","272 N 5TH AVE, WINDER, GA, 30680",77579616,"L"
147985,"272 N OLIVE ST","VENTURA","CA",93001,34.2847372860001,-119.302917916,485,"272 N OLIVE ST, VENTURA, CA, 93001","Match","Exact","272 N OLIVE ST, VENTURA, CA, 93001",109950397,"R"
147986,"272 OCEAN AVENUE","BRENTWOOD","NY",11717,40.7888890420001,-73.228097867,486,"272 OCEAN AVENUE, BRENTWOOD, NY, 11717","Match","Exact","272 OCEAN AVE, BRENTWOOD, NY, 11717",113985300,"R"
147987,"272 OLIVE BRANCH BLVD","GRIFTON","NC",28530,35.394953937,-77.433707521,487,"272 OLIVE BRANCH BLVD, GRIFTON, NC, 28530","Match","Exact","272 OLIVE BRANCH BLVD, GRIFTON, NC, 28530",80045481,"R"
147988,"272 PURDUE AVENUE","KENSINGTON","CA",94708,37.9073841310001,-122.272118638,488,"272 PURDUE AVENUE, KENSINGTON, CA, 94708","Match","Exact","272 PURDUE AVE, KENSINGTON, CA, 94708",192044424,"R"
147989,"272 RIDGEPOINTE DRIVE","COLD SPRING","KY",41076,39.0047739280001,-84.4542032589999,489,"272 RIDGEPOINTE DRIVE, COLD SPRING, KY, 41076","Match","Exact","272 RIDGEPOINTE DR, COLD SPRING, KY, 41076",210236263,"R"
147990,"272 RUNDALL ROAD","CLYMER","NY",14724,42.0101955040001,-79.607416669,490,"272 RUNDALL ROAD, CLYMER, NY, 14724","Match","Exact","272 RUNDALL RD, CLYMER, NY, 14724",120768114,"R"
147991,"272 RUTH ROAD","HARLEYSVILLE","PA",19438,40.270595821,-75.362506985,491,"272 RUTH ROAD, HARLEYSVILLE, PA, 19438","Match","Exact","272 RUTH RD, HARLEYSVILLE, PA, 19438",135118953,"L"
147992,"272 S HILL AVE","NEW BRAUNFELS","TX",78130,NA,NA,492,"272 S HILL AVE, NEW BRAUNFELS, TX, 78130","No_Match",NA,NA,NA,NA
147993,"272 S KESTREL PL","EAGLE","ID",83616,43.693854866,-116.356856244,493,"272 S KESTREL PL, EAGLE, ID, 83616","Match","Exact","272 S KESTREL PL, EAGLE, ID, 83616",117880736,"L"
147994,"272 SALEM RD","UNION","NJ",7083,40.6772177060001,-74.264371107,494,"272 SALEM RD, UNION, NJ, 7083","Match","Exact","272 SALEM RD, UNION, NJ, 07083",60573260,"L"
147995,"272 SAYBROOK RD","HIGGANUM","CT",6438,NA,NA,495,"272 SAYBROOK RD, HIGGANUM, CT, 6438","No_Match",NA,NA,NA,NA
147996,"272 SE BROWN STREET","LAKE CITY","FL",32025,30.183978256,-82.634300668,496,"272 SE BROWN STREET, LAKE CITY, FL, 32025","Match","Exact","272 SE BROWN ST, LAKE CITY, FL, 32025",5136373,"R"
147997,"272 ST JOSEPH CT","WEST LAFAYETTE","IN",47906,40.4682135530001,-86.902013572,497,"272 ST JOSEPH CT, WEST LAFAYETTE, IN, 47906","Match","Exact","272 SAINT JOSEPH CT, W LAFAYETTE, IN, 47906",604830831,"R"
147998,"272 STEIN ROAD","CHICORA","PA",16025,40.9383252480001,-79.806962869,498,"272 STEIN ROAD, CHICORA, PA, 16025","Match","Exact","272 STEIN RD, CHICORA, PA, 16025",635586964,"L"
147999,"272 TAMERISK LANE","NEW WINDSOR","NY",12553,41.4673883360001,-74.016404014,499,"272 TAMERISK LANE, NEW WINDSOR, NY, 12553","Match","Exact","272 TAMERISK LN, NEW WINDSOR, NY, 12553",124477475,"R"
148000,"272 TUCKAWAY RIDGE DRIVE","NASHVILLE","IN",47448,39.204033307,-86.2299674939999,500,"272 TUCKAWAY RIDGE DRIVE, NASHVILLE, IN, 47448","Match","Non_Exact","272 TUCK A WAY RIDGE DR, NASHVILLE, IN, 47448",43524703,"L"
