"ID","Address","City","State","Zip","lat","long","id","input_address","match_indicator","match_type","matched_address","tiger_line_id","tiger_side"
276001,"7019 SIGNAL HILL RD","MANASSAS","VA",20111,38.743791473,-77.41598013,1,"7019 SIGNAL HILL RD, MANASSAS, VA, 20111","Match","Exact","7019 SIGNAL HILL RD, MANASSAS, VA, 20111",207150349,"L"
276002,"7019 VISTA PARK LANE APT 202","TAMPA","FL",33637,NA,NA,2,"7019 VISTA PARK LANE APT 202, TAMPA, FL, 33637","No_Match",NA,NA,NA,NA
276003,"702  RUSSELL AVENUE SUITE 470","GAITHERSBURG","MD",20877,39.151656287,-77.2075959489999,3,"702  RUSSELL AVENUE SUITE 470, GAITHERSBURG, MD, 20877","Match","Exact","702 RUSSELL AVE, GAITHERSBURG, MD, 20877",637858853,"R"
276004,"702 15 ST NE","WASHINGTON","DC",20002,38.89896694,-76.983645752,4,"702 15 ST NE, WASHINGTON, DC, 20002","Match","Exact","702 15TH ST NE, WASHINGTON, DC, 20002",645508824,"L"
276005,"702 1ST ST","HELENA","MT",59601,46.5800681790001,-112.02956197,5,"702 1ST ST, HELENA, MT, 59601","Match","Exact","702 1ST ST, HELENA, MT, 59601",202394858,"L"
276006,"702 1ST STREET WEST","LYNDON","IL",61261,41.711032174,-89.926495958,6,"702 1ST STREET WEST, LYNDON, IL, 61261","Match","Exact","702 1ST ST W, LYNDON, IL, 61261",48971247,"R"
276007,"702 3RD STREET","LIVERMORE","IA",50558,42.8701963460001,-94.189370272,7,"702 3RD STREET, LIVERMORE, IA, 50558","Match","Non_Exact","702 3RD AVE, LIVERMORE, IA, 50558",97020707,"L"
276008,"702 9TH AVE","GRAFTON","WI",53024,43.3305610310001,-87.955184908,8,"702 9TH AVE, GRAFTON, WI, 53024","Match","Exact","702 9TH AVE, GRAFTON, WI, 53024",95901487,"L"
276009,"702 ADIRONDAC AVE","HAMILTON","MT",59840,46.2547455010001,-114.165670237,9,"702 ADIRONDAC AVE, HAMILTON, MT, 59840","Match","Exact","702 ADIRONDAC AVE, HAMILTON, MT, 59840",641891882,"R"
276010,"702 ALBERT STREET","ENGLEWOOD","OH",45322,39.8713287690001,-84.3007802079999,10,"702 ALBERT STREET, ENGLEWOOD, OH, 45322","Match","Exact","702 ALBERT ST, ENGLEWOOD, OH, 45322",143561294,"L"
276011,"702 ASH STREET SUITE 1100","SAN DIEGO","CA",92101,NA,NA,11,"702 ASH STREET SUITE 1100, SAN DIEGO, CA, 92101","No_Match",NA,NA,NA,NA
276012,"702 AVENUE DU FONTAINE BLEAU","MARY ESTHER","FL",32569,NA,NA,12,"702 AVENUE DU FONTAINE BLEAU, MARY ESTHER, FL, 32569","No_Match",NA,NA,NA,NA
276013,"702 BAHAMA LANE","FOSTER CITY","CA",94404,37.542385827,-122.259166978,13,"702 BAHAMA LANE, FOSTER CITY, CA, 94404","Match","Exact","702 BAHAMA LN, FOSTER CITY, CA, 94404",192390120,"R"
276014,"702 BAY COLONY DR","VIRGINIA BEACH","VA",23451,36.874847931,-75.993942073,14,"702 BAY COLONY DR, VIRGINIA BEACH, VA, 23451","Match","Exact","702 BAY COLONY DR, VA BCH, VA, 23451",122295831,"R"
276015,"702 BIG HOLLEY DRIVE","AUGUSTA","GA",30907,33.5488045330001,-82.0484104609999,15,"702 BIG HOLLEY DRIVE, AUGUSTA, GA, 30907","Match","Exact","702 BIG HOLLEY DR, AUGUSTA, GA, 30907",641150904,"R"
276016,"702 BRAXTON PLACE","MADISON","WI",53715,43.066366524,-89.398934588,16,"702 BRAXTON PLACE, MADISON, WI, 53715","Match","Exact","702 BRAXTON PL, MADISON, WI, 53715",49469575,"R"
276017,"702 BRAZOS STREET   SUITE 700","AUSTIN","TX",78701,30.2686982000001,-97.741081405,17,"702 BRAZOS STREET   SUITE 700, AUSTIN, TX, 78701","Match","Exact","702 BRAZOS ST, AUSTIN, TX, 78701",63946476,"L"
276018,"702 CAROL LANE","PULASKI","WI",54162,44.6661546010001,-88.234407329,18,"702 CAROL LANE, PULASKI, WI, 54162","Match","Exact","702 CAROL LN, PULASKI, WI, 54162",148091981,"L"
276019,"702 CARRIAGE VIEW LANE","HUFFMAN","TX",77336,30.0636250640001,-95.128178014,19,"702 CARRIAGE VIEW LANE, HUFFMAN, TX, 77336","Match","Exact","702 CARRIAGE VIEW LN, HUFFMAN, TX, 77336",645843909,"L"
276020,"702 CHERRYWOOD LANE","SWANSBORO","NC",28584,34.6841924230001,-77.133550264,20,"702 CHERRYWOOD LANE, SWANSBORO, NC, 28584","Match","Exact","702 CHERRYWOOD LN, SWANSBORO, NC, 28584",14023145,"R"
276021,"702 CHURCHILL CROSSING","MADISON","TN",37115,36.301576029,-86.688926883,21,"702 CHURCHILL CROSSING, MADISON, TN, 37115","Match","Exact","702 CHURCHILL CROSSING, MADISON, TN, 37115",650347892,"R"
276022,"702 CLAYTON AVE W","CLAYTON","WI",54004,NA,NA,22,"702 CLAYTON AVE W, CLAYTON, WI, 54004","No_Match",NA,NA,NA,NA
276023,"702 COOL SPRINGS ROAD","SANFORD","NC",27330,35.478256743,-79.2207703139999,23,"702 COOL SPRINGS ROAD, SANFORD, NC, 27330","Match","Exact","702 COOL SPRINGS RD, SANFORD, NC, 27330",72060425,"R"
276024,"702 COUNTY ROAD 107","BOLIGEE","AL",35443,32.87997893,-88.1236382179999,24,"702 COUNTY ROAD 107, BOLIGEE, AL, 35443","Match","Exact","702 CO RD 107, BOLIGEE, AL, 35443",9651382,"L"
276025,"702 CR 150","TALPA","TX",76882,31.9220424010001,-99.770010934,25,"702 CR 150, TALPA, TX, 76882","Match","Exact","702 CO RD 150, TALPA, TX, 76882",636524073,"L"
276026,"702 CREE STREET","JUPITER","FL",33458,26.92833474,-80.1120735219999,26,"702 CREE STREET, JUPITER, FL, 33458","Match","Exact","702 CREE ST, JUPITER, FL, 33458",115580635,"L"
276027,"702 CROSS HILL RD STE 300B","COLUMBIA","SC",29205,33.9916790030001,-80.976333532,27,"702 CROSS HILL RD STE 300B, COLUMBIA, SC, 29205","Match","Exact","702 CROSS HILL RD, COLUMBIA, SC, 29205",71851076,"R"
276028,"702 CRYSTAL CREEK DRIVE","AUSTIN","TX",78746,30.3109554330001,-97.865529543,28,"702 CRYSTAL CREEK DRIVE, AUSTIN, TX, 78746","Match","Exact","702 CRYSTAL CREEK DR, AUSTIN, TX, 78746",642469038,"R"
276029,"702 DERBY LANE","MISSOURI CITY","TX",77489,29.599275252,-95.5141993559999,29,"702 DERBY LANE, MISSOURI CITY, TX, 77489","Match","Exact","702 DERBY LN, MISSOURI CITY, TX, 77489",78279246,"L"
276030,"702 DONALDSON AVE","SAN ANTONIO","TX",78201,29.463672774,-98.536768868,30,"702 DONALDSON AVE, SAN ANTONIO, TX, 78201","Match","Exact","702 DONALDSON AVE, SAN ANTONIO, TX, 78201",101512622,"L"
276031,"702 E 8TH ST","ALTURAS","CA",96101,41.490907173,-120.534920877,31,"702 E 8TH ST, ALTURAS, CA, 96101","Match","Exact","702 E 8TH ST, ALTURAS, CA, 96101",127077991,"R"
276032,"702 E EL CAMINO STREET","SANTA MARIA","CA",93454,34.9585672960001,-120.426488943,32,"702 E EL CAMINO STREET, SANTA MARIA, CA, 93454","Match","Exact","702 E EL CAMINO ST, SANTA MARIA, CA, 93454",108595136,"R"
276033,"702 E MAIN ST","SILVER LAKE","IN",46982,41.072008872,-85.8847457219999,33,"702 E MAIN ST, SILVER LAKE, IN, 46982","Match","Exact","702 E MAIN ST, SILVER LAKE, IN, 46982",7923239,"L"
276034,"702 E MAYFAIR RD","ARLINGTON HEIGHTS","IL",60005,42.0766159710001,-87.974129082,34,"702 E MAYFAIR RD, ARLINGTON HEIGHTS, IL, 60005","Match","Exact","702 MAYFAIR RD, ARLINGTON HEIGHTS, IL, 60005",111716309,"L"
276035,"702 E MEMORIAL BVD","LAKELAND","FL",33801,28.055021863,-81.951040431,35,"702 E MEMORIAL BVD, LAKELAND, FL, 33801","Match","Exact","702 E MEMORIAL BLVD, LAKELAND, FL, 33801",104810509,"L"
276036,"702 E NORFOLKSTREET","TAMPA","FL",33604,NA,NA,36,"702 E NORFOLKSTREET, TAMPA, FL, 33604","No_Match",NA,NA,NA,NA
276037,"702 E NW HIGHWAY","GRAPEVINE","TX",76051,32.9410288610001,-97.070951302,37,"702 E NW HIGHWAY, GRAPEVINE, TX, 76051","Match","Exact","702 E NORTHWEST HWY, GRAPEVINE, TX, 76051",101874069,"L"
276038,"702 E VALENCIA ST","ANAHEIM","CA",92805,33.8294588950001,-117.904724234,38,"702 E VALENCIA ST, ANAHEIM, CA, 92805","Match","Exact","702 E VALENCIA ST, ANAHEIM, CA, 92805",625092669,"L"
276039,"702 EAST BRECKINRIDGE STREET","LOUISVILLE","KY",40203,38.2400845870001,-85.742227075,39,"702 EAST BRECKINRIDGE STREET, LOUISVILLE, KY, 40203","Match","Exact","702 E BRECKINRIDGE ST, LOUISVILLE, KY, 40203",618510102,"R"
276040,"702 EAST OCEAN AVENUE","GALLOWAY","NJ",8205,39.447132014,-74.473255476,40,"702 EAST OCEAN AVENUE, GALLOWAY, NJ, 8205","Match","Exact","702 E OCEAN AVE, GALLOWAY, NJ, 08205",202485419,"R"
276041,"702 EAST PARK ST","DU QUOIN","IL",62832,38.013047387,-89.224220023,41,"702 EAST PARK ST, DU QUOIN, IL, 62832","Match","Exact","702 E PARK ST, DU QUOIN, IL, 62832",93116138,"L"
276042,"702 EAST SCHUBERT STREET","FREDERICKSBURG","TX",78624,30.268600065,-98.860004439,42,"702 EAST SCHUBERT STREET, FREDERICKSBURG, TX, 78624","Match","Exact","702 E SCHUBERT ST, FREDERICKSBURG, TX, 78624",176848065,"R"
276043,"702 F AVE","LA GRANDE","OR",97850,45.3168281050001,-118.100353421,43,"702 F AVE, LA GRANDE, OR, 97850","Match","Exact","702 F AVE, LA GRANDE, OR, 97850",138854400,"L"
276044,"702 FITZHENRY COURT-STE 1","GLENWOOD","IL",60425,41.5582236000001,-87.628960982,44,"702 FITZHENRY COURT-STE 1, GLENWOOD, IL, 60425","Match","Non_Exact","702 FITZHENRY CT, GLENWOOD, IL, 60425",111712898,"L"
276045,"702 GLENDALE DRIVE","KELLER","TX",76248,32.9196478110001,-97.206598818,45,"702 GLENDALE DRIVE, KELLER, TX, 76248","Match","Exact","702 GLENDALE DR, KELLER, TX, 76248",102108502,"L"
276046,"702 GREENVIEW DR","GRAND PRAIRIE","TX",75050,32.7731819530001,-97.058874443,46,"702 GREENVIEW DR, GRAND PRAIRIE, TX, 75050","Match","Exact","702 GREENVIEW DR, GRAND PRAIRIE, TX, 75050",101875420,"R"
276047,"702 GRELLE AVENUE","LEWISTON","ID",83501,46.3732624150001,-116.994306749,47,"702 GRELLE AVENUE, LEWISTON, ID, 83501","Match","Exact","702 GRELLE AVE, LEWISTON, ID, 83501",173135950,"L"
276048,"702 HANGAR ROW","PINE BLUFF","AR",71601,34.18133385,-91.938630662,48,"702 HANGAR ROW, PINE BLUFF, AR, 71601","Match","Exact","702 HANGAR ROW, PINE BLUFF, AR, 71601",2581092,"L"
276049,"702 HAUGH STREET","INDIANAPOLIS","IN",46222,39.776782575,-86.207571988,49,"702 HAUGH STREET, INDIANAPOLIS, IN, 46222","Match","Exact","702 HAUGH ST, INDIANAPOLIS, IN, 46222",107987216,"L"
276050,"702 HIGH ST","PERTH AMBOY","NJ",8861,40.5174865210001,-74.261212335,50,"702 HIGH ST, PERTH AMBOY, NJ, 8861","Match","Exact","702 HIGH ST, PERTH AMBOY, NJ, 08861",626224156,"R"
276051,"702 HIGHLAND RD","COFFEYVILLE","KS",67337,37.037323413,-95.6551971069999,51,"702 HIGHLAND RD, COFFEYVILLE, KS, 67337","Match","Exact","702 HIGHLAND RD, COFFEYVILLE, KS, 67337",13804007,"L"
276052,"702 HUNTERS QUAY","CHESAPEAKE","VA",23320,36.7531125240001,-76.268909761,52,"702 HUNTERS QUAY, CHESAPEAKE, VA, 23320","Match","Exact","702 HUNTERS QUAY, CHESAPEAKE, VA, 23320",121785087,"L"
276053,"702 HWY 105 NUMBER 53","PALMER LAKE","CO",80133,NA,NA,53,"702 HWY 105 NUMBER 53, PALMER LAKE, CO, 80133","No_Match",NA,NA,NA,NA
276054,"702 HWY 311","GREEN FOREST","AR",72638,36.350560585,-93.423562187,54,"702 HWY 311, GREEN FOREST, AR, 72638","Match","Non_Exact","702 STATE HWY 311, GREEN FOREST, AR, 72638",20080117,"L"
276055,"702 KENTUCKY ST UNIT 589","BELLINGHAM","WA",98225,48.757755199,-122.466231835,55,"702 KENTUCKY ST UNIT 589, BELLINGHAM, WA, 98225","Match","Exact","702 KENTUCKY ST, BELLINGHAM, WA, 98225",183772591,"R"
276056,"702 KNOX RD","CHAPMANSBORO","TN",38035,36.4472529340001,-87.135830948,56,"702 KNOX RD, CHAPMANSBORO, TN, 38035","Match","Non_Exact","702 KNOX RD, CHAPMANSBORO, TN, 37035",72882146,"L"
276057,"702 LAKE AVENUE NORTH","BATTLE LAKE","MN",56515,46.2884910450001,-95.7147960999999,57,"702 LAKE AVENUE NORTH, BATTLE LAKE, MN, 56515","Match","Exact","702 LAKE AVE N, BATTLE LAKE, MN, 56515",168296721,"R"
276058,"702 LAKE STREET","ROSCOMMON","MI",48653,44.497901062,-84.5932212609999,58,"702 LAKE STREET, ROSCOMMON, MI, 48653","Match","Exact","702 LAKE ST, ROSCOMMON, MI, 48653",179423701,"R"
276059,"702 LEWIS DR","PAOLA","KS",66071,38.5863800120001,-94.864067166,59,"702 LEWIS DR, PAOLA, KS, 66071","Match","Exact","702 LEWIS DR, PAOLA, KS, 66071",85228778,"L"
276060,"702 LINCOLN ST","KISSIMMEE","FL",34741,28.2981810690001,-81.418582823,60,"702 LINCOLN ST, KISSIMMEE, FL, 34741","Match","Non_Exact","702 N LINCOLN ST, KISSIMMEE, FL, 34741",176656322,"L"
276061,"702 LODGE DR","JORDAN","MN",55352,44.677093557,-93.651724749,61,"702 LODGE DR, JORDAN, MN, 55352","Match","Exact","702 LODGE DR, JORDAN, MN, 55352",38155516,"R"
276062,"702 LONESOME BEND ROAD","GLENCOE","AL",35905,33.9660078650001,-85.934548965,62,"702 LONESOME BEND ROAD, GLENCOE, AL, 35905","Match","Exact","702 LONESOME BEND RD, GLENCOE, AL, 35905",66775535,"R"
276063,"702 MAIN ST 199","LUMBERTON","NJ",8048,39.9754134570001,-74.800710953,63,"702 MAIN ST 199, LUMBERTON, NJ, 8048","Match","Exact","702 MAIN ST, LUMBERTON, NJ, 08048",642328199,"L"
276064,"702 MAPLE PLACE","NORMAL","IL",61761,40.498037954,-88.97595537,64,"702 MAPLE PLACE, NORMAL, IL, 61761","Match","Exact","702 MAPLE PL, NORMAL, IL, 61761",20547619,"L"
276065,"702 MARSHALL STREET - SUITE 300","REDWOOD CITY","CA",94063,37.487578753,-122.2280934,65,"702 MARSHALL STREET - SUITE 300, REDWOOD CITY, CA, 94063","Match","Exact","702 MARSHALL ST, REDWOOD CITY, CA, 94063",192361272,"R"
276066,"702 MUSH CREEK ROAD","NEWCASTLE","WY",82701,43.800549356,-104.658005737,66,"702 MUSH CREEK ROAD, NEWCASTLE, WY, 82701","Match","Exact","702 MUSH CREEK RD, NEWCASTLE, WY, 82701",147490446,"L"
276067,"702 N 23RD ST","RICHMOND","VA",23223,37.536237251,-77.417293192,67,"702 N 23RD ST, RICHMOND, VA, 23223","Match","Exact","702 N 23RD ST, RICHMOND, VA, 23223",610871521,"L"
276068,"702 N 4TH AVE","SANDPOINT","ID",83864,48.2793080910001,-116.551862428,68,"702 N 4TH AVE, SANDPOINT, ID, 83864","Match","Exact","702 N 4TH AVE, SANDPOINT, ID, 83864",169476141,"R"
276069,"702 N 5TH ST","BURBANK","CA",91501,34.1887448850001,-118.310986447,69,"702 N 5TH ST, BURBANK, CA, 91501","Match","Exact","702 N 5TH ST, BURBANK, CA, 91501",141595106,"R"
276070,"702 N 9TH ST","NASHVILLE","TN",37206,36.182891753,-86.758565491,70,"702 N 9TH ST, NASHVILLE, TN, 37206","Match","Exact","702 N 9TH ST, NASHVILLE, TN, 37206",97188795,"L"
276071,"702 N E 27TH STREET","OCALA","FL",34470,29.214535848,-82.1301533989999,71,"702 N E 27TH STREET, OCALA, FL, 34470","Match","Exact","702 NE 27TH ST, OCALA, FL, 34470",116736573,"R"
276072,"702 N ELM","PEABODY","KS",66866,38.171537798,-97.1024991199999,72,"702 N ELM, PEABODY, KS, 66866","Match","Non_Exact","702 N ELM ST, PEABODY, KS, 66866",120690830,"R"
276073,"702 N FRANKLIN STREET","TAMPA","FL",33602,27.9499856900001,-82.4589581399999,73,"702 N FRANKLIN STREET, TAMPA, FL, 33602","Match","Exact","702 N FRANKLIN ST, TAMPA, FL, 33602",104558264,"L"
276074,"702 N HARVEY ST","PLYMOUTH","MI",48170,42.3789307870001,-83.4698511889999,74,"702 N HARVEY ST, PLYMOUTH, MI, 48170","Match","Exact","702 N HARVEY ST, PLYMOUTH, MI, 48170",95407922,"R"
276075,"702 N HWY 59","MARSHALL","MN",56258,NA,NA,75,"702 N HWY 59, MARSHALL, MN, 56258","No_Match",NA,NA,NA,NA
276076,"702 N MILLER DR","EATON RAPIDS","MI",48827,42.5191644390001,-84.641155504,76,"702 N MILLER DR, EATON RAPIDS, MI, 48827","Match","Exact","702 N MILLER DR, EATON RAPIDS, MI, 48827",12050342,"R"
276077,"702 N OAK ST","DURAND","MI",48429,42.9173171890001,-83.988015693,77,"702 N OAK ST, DURAND, MI, 48429","Match","Exact","702 N OAK ST, DURAND, MI, 48429",23652742,"L"
276078,"702 N PRINCE","PRINCETON","IN",47670,38.361149804,-87.566156765,78,"702 N PRINCE, PRINCETON, IN, 47670","Match","Non_Exact","702 N PRINCE ST, PRINCETON, IN, 47670",36372740,"R"
276079,"702 N SHORE DR SUITE 103","JEFFERSONVILLE","IN",47130,38.270661295,-85.748629014,79,"702 N SHORE DR SUITE 103, JEFFERSONVILLE, IN, 47130","Match","Non_Exact","702 N SHORE DR, JEFFERSONVILLE, IN, 47130",64883172,"L"
276080,"702 N TERRY AVE","HARDIN","MT",59034,45.7353427900001,-107.614861073,80,"702 N TERRY AVE, HARDIN, MT, 59034","Match","Exact","702 N TERRY AVE, HARDIN, MT, 59034",181633517,"L"
276081,"702 NE 7TH ST","SUMMERDALE","AL",36580,30.497336326,-87.691382,81,"702 NE 7TH ST, SUMMERDALE, AL, 36580","Match","Exact","702 NE 7TH ST, SUMMERDALE, AL, 36580",131693420,"R"
276082,"702 NE SADDLE RIDGE RD","BENTONVILLE","AR",72712,36.376686351,-94.1613079749999,82,"702 NE SADDLE RIDGE RD, BENTONVILLE, AR, 72712","Match","Exact","702 NE SADDLE RIDGE RD, BENTONVILLE, AR, 72712",650208620,"L"
276083,"702 NEW YORK AVE","MANITOWOC","WI",54220,44.1048168460001,-87.656541937,83,"702 NEW YORK AVE, MANITOWOC, WI, 54220","Match","Exact","702 NEW YORK AVE, MANITOWOC, WI, 54220",147949984,"R"
276084,"702 NORTH 1ST EAST","HASKELL","TX",79521,NA,NA,84,"702 NORTH 1ST EAST, HASKELL, TX, 79521","No_Match",NA,NA,NA,NA
276085,"702 NORTH HOUSTON STREET","SCOTTSBORO","AL",35768,34.6783809830001,-86.037081018,85,"702 NORTH HOUSTON STREET, SCOTTSBORO, AL, 35768","Match","Exact","702 N HOUSTON ST, SCOTTSBORO, AL, 35768",58025015,"R"
276086,"702 OAKHILL AVE","ATTLEBORO","MA",2703,41.9118140630001,-71.2773702599999,86,"702 OAKHILL AVE, ATTLEBORO, MA, 2703","Match","Exact","702 OAKHILL AVE, ATTLEBORO, MA, 02703",46785567,"L"
276087,"702 OLD HERITAGE TRL","GREENSBORO","NC",27401,NA,NA,87,"702 OLD HERITAGE TRL, GREENSBORO, NC, 27401","No_Match",NA,NA,NA,NA
276088,"702 OSSIE DAVIS PARKWAY","WAYCROSS","GA",31501,NA,NA,88,"702 OSSIE DAVIS PARKWAY, WAYCROSS, GA, 31501","No_Match",NA,NA,NA,NA
276089,"702 OVERLOOK ROAD","LOWELL","NC",28098,35.2821752350001,-81.0934454599999,89,"702 OVERLOOK ROAD, LOWELL, NC, 28098","Match","Exact","702 OVERLOOK RD, LOWELL, NC, 28098",649354055,"R"
276090,"702 PAISLEY COURT","WILMINGTON","NC",28409,34.167250461,-77.874228811,90,"702 PAISLEY COURT, WILMINGTON, NC, 28409","Match","Exact","702 PAISLEY CT, WILMINGTON, NC, 28409",152749447,"R"
276091,"702 PARK AVE 306","SOUTH PASADENA","CA",91030,34.1178945140001,-118.14774748,91,"702 PARK AVE 306, SOUTH PASADENA, CA, 91030","Match","Exact","702 PARK AVE, SOUTH PASADENA, CA, 91030",141630310,"L"
276092,"702 PARK DR","GOODLETTSVILLE","TN",37072,36.3425631220001,-86.70770441,92,"702 PARK DR, GOODLETTSVILLE, TN, 37072","Match","Exact","702 PARK DR, GOODLETTSVILLE, TN, 37072",29792554,"R"
276093,"702 PLENTYWOOD LN","BENESENVILLE","IL",60106,41.9565803080001,-87.949660439,93,"702 PLENTYWOOD LN, BENESENVILLE, IL, 60106","Match","Non_Exact","702 PLENTYWOOD LN, BENSENVILLE, IL, 60106",112543861,"R"
276094,"702 RIO GRANDE","AUSTIN","TX",78701,30.2709767790001,-97.7491236069999,94,"702 RIO GRANDE, AUSTIN, TX, 78701","Match","Non_Exact","702 RIO GRANDE ST, AUSTIN, TX, 78701",63943350,"L"
276095,"702 RUSSELL AVE SUITE 305","GAITHERSBURG","MD",20877,39.151656287,-77.2075959489999,95,"702 RUSSELL AVE SUITE 305, GAITHERSBURG, MD, 20877","Match","Exact","702 RUSSELL AVE, GAITHERSBURG, MD, 20877",637858853,"R"
276096,"702 S ACRES STREET","DALLAS","TX",75217,32.7011051800001,-96.639356197,96,"702 S ACRES STREET, DALLAS, TX, 75217","Match","Non_Exact","702 S ACRES DR, DALLAS, TX, 75217",102963015,"L"
276097,"702 S AVENUE S","LAMESA","TX",79331,32.722581604,-101.970836728,97,"702 S AVENUE S, LAMESA, TX, 79331","Match","Exact","702 S AVE S, LAMESA, TX, 79331",182747061,"L"
276098,"702 S BECKLEY AVE","DALLAS","TX",75203,32.7392178270001,-96.822806597,98,"702 S BECKLEY AVE, DALLAS, TX, 75203","Match","Exact","702 S BECKLEY AVE, DALLAS, TX, 75203",102946839,"L"
276099,"702 S CHANDLER AVENUE","LITCHFIELD","MN",55355,45.1188394370001,-94.5207472229999,99,"702 S CHANDLER AVENUE, LITCHFIELD, MN, 55355","Match","Exact","702 S CHANDLER AVE, LITCHFIELD, MN, 55355",36968945,"L"
276100,"702 S COIT STREET","FLORENCE","SC",29501,34.1859537500001,-79.7695955409999,100,"702 S COIT STREET, FLORENCE, SC, 29501","Match","Exact","702 S COIT ST, FLORENCE, SC, 29501",28878380,"L"
276101,"702 S COIT STREET/SUITE 8","FLORENCE","SC",29501,NA,NA,101,"702 S COIT STREET/SUITE 8, FLORENCE, SC, 29501","No_Match",NA,NA,NA,NA
276102,"702 S GRIDLEY ST","BLOOMINGTON","IL",61701,40.473551103,-88.9898154909999,102,"702 S GRIDLEY ST, BLOOMINGTON, IL, 61701","Match","Exact","702 S GRIDLEY ST, BLOOMINGTON, IL, 61701",20546269,"L"
276103,"702 S HIGH POINT RD","MADISON","WI",53719,43.0559869310001,-89.5177094319999,103,"702 S HIGH POINT RD, MADISON, WI, 53719","Match","Exact","702 S HIGH POINT RD, MADISON, WI, 53719",49529487,"R"
276104,"702 S HIGH POINT RD","MADISON","WI",53744,43.0559869310001,-89.5177094319999,104,"702 S HIGH POINT RD, MADISON, WI, 53744","Match","Non_Exact","702 S HIGH POINT RD, MADISON, WI, 53719",49529487,"R"
276105,"702 S HIGH POINT ROAD SUITE 225","MADISON","WI",53719,43.0559869310001,-89.5177094319999,105,"702 S HIGH POINT ROAD SUITE 225, MADISON, WI, 53719","Match","Non_Exact","702 S HIGH POINT RD, MADISON, WI, 53719",49529487,"R"
276106,"702 S HIGH POINT ROAD","MADISON","WI",53744,43.0559869310001,-89.5177094319999,106,"702 S HIGH POINT ROAD, MADISON, WI, 53744","Match","Non_Exact","702 S HIGH POINT RD, MADISON, WI, 53719",49529487,"R"
276107,"702 S POTOMAC STREET","BALTIMORE","MD",21224,39.284218615,-76.5742667759999,107,"702 S POTOMAC STREET, BALTIMORE, MD, 21224","Match","Exact","702 S POTOMAC ST, BALTIMORE, MD, 21224",206425286,"R"
276108,"702 S RIVER STREET","NEWCOMERSTOWN","OH",43832,40.2649645980001,-81.6094656619999,108,"702 S RIVER STREET, NEWCOMERSTOWN, OH, 43832","Match","Exact","702 S RIVER ST, NEWCOMERSTOWN, OH, 43832",612299460,"L"
276109,"702 S ST ANDREWS PLACE APT 1","LOS ANGELES","CA",90005,34.0595146040001,-118.311165017,109,"702 S ST ANDREWS PLACE APT 1, LOS ANGELES, CA, 90005","Match","Non_Exact","702 S ST ANDREWS PL, LOS ANGELES, CA, 90005",141603727,"L"
276110,"702 SAINT MARKS AVENUE APT 2","BROOKLYN","NY",11216,40.675216446,-73.950289114,110,"702 SAINT MARKS AVENUE APT 2, BROOKLYN, NY, 11216","Match","Exact","702 ST MARKS AVE, BROOKLYN, NY, 11216",59079360,"R"
276111,"702 SAWMILL ROAD SUITE 204","BLOOMSBURG","PA",17815,41.0284270980001,-76.422957642,111,"702 SAWMILL ROAD SUITE 204, BLOOMSBURG, PA, 17815","Match","Exact","702 SAWMILL RD, BLOOMSBURG, PA, 17815",59256531,"L"
276112,"702 SAWYER CT","ROSEVILLE","CA",95747,38.765602222,-121.318794537,112,"702 SAWYER CT, ROSEVILLE, CA, 95747","Match","Exact","702 SAWYER CT, ROSEVILLE, CA, 95747",106799253,"R"
276113,"702 SECOND AVE E","OSKALOOSA","IA",52577,41.29355601,-92.6378186969999,113,"702 SECOND AVE E, OSKALOOSA, IA, 52577","Match","Exact","702 2ND AVE E, OSKALOOSA, IA, 52577",89377659,"L"
276114,"702 SETTLERS CROSSING","CANTON","GA",30114,34.1852905120001,-84.556991486,114,"702 SETTLERS CROSSING, CANTON, GA, 30114","Match","Exact","702 SETTLERS CROSSING, CANTON, GA, 30114",627187356,"L"
276115,"702 SHENANDOAH DRIVE","SHENANDOAH","TX",77381,30.181052127,-95.4630401749999,115,"702 SHENANDOAH DRIVE, SHENANDOAH, TX, 77381","Match","Exact","702 SHENANDOAH DR, SHENANDOAH, TX, 77381",79302892,"R"
276116,"702 SOUTH 3RD STREET","ARKADELPHIA","AR",71923,34.1158476900001,-93.0501077119999,116,"702 SOUTH 3RD STREET, ARKADELPHIA, AR, 71923","Match","Exact","702 S 3RD ST, ARKADELPHIA, AR, 71923",10550859,"R"
276117,"702 SOUTH BROAD STREET","ROBERSONVILLE","NC",27871,35.8157947980001,-77.253391355,117,"702 SOUTH BROAD STREET, ROBERSONVILLE, NC, 27871","Match","Exact","702 S BROAD ST, ROBERSONVILLE, NC, 27871",56804406,"L"
276118,"702 SOUTH HIGH POINT ROAD","MADISON","WI",53744,43.0559922670001,-89.517709473,118,"702 SOUTH HIGH POINT ROAD, MADISON, WI, 53744","Match","Non_Exact","702 S HIGH POINT RD, MADISON, WI, 53719",49529487,"R"
276119,"702 SOUTH MAIN STREET PO BOX 114","PADEN","OK",74860,NA,NA,119,"702 SOUTH MAIN STREET PO BOX 114, PADEN, OK, 74860","No_Match",NA,NA,NA,NA
276120,"702 SOUTH WELLS ST","EDNA","TX",77957,28.9727712550001,-96.639985941,120,"702 SOUTH WELLS ST, EDNA, TX, 77957","Match","Exact","702 S WELLS ST, EDNA, TX, 77957",42116446,"R"
276121,"702 STATE AVE","DOTHAN","AL",36303,31.22829662,-85.3639991479999,121,"702 STATE AVE, DOTHAN, AL, 36303","Match","Exact","702 STATE AVE, DOTHAN, AL, 36303",101216335,"R"
276122,"702 SW BYRON ST","PORT ST LUCIE","FL",34983,27.311272036,-80.35728548,122,"702 SW BYRON ST, PORT ST LUCIE, FL, 34983","Match","Exact","702 SW BYRON ST, PORT ST LUCIE, FL, 34983",120151696,"R"
276123,"702 TEXAS AVE","FERRIDAY","LA",71334,31.631029165,-91.5585245409999,123,"702 TEXAS AVE, FERRIDAY, LA, 71334","Match","Exact","702 TEXAS AVE, FERRIDAY, LA, 71334",84863342,"L"
276124,"702 VALLEY FORGE BLVD","SUN CITY CENTER","FL",33573,27.7127225410001,-82.358319165,124,"702 VALLEY FORGE BLVD, SUN CITY CENTER, FL, 33573","Match","Exact","702 VALLEY FORGE BLVD, SUN CITY CENTER, FL, 33573",104559777,"L"
276125,"702 W 35TH ST","DAVENPORT","IA",52806,41.555670885,-90.58200469,125,"702 W 35TH ST, DAVENPORT, IA, 52806","Match","Exact","702 W 35TH ST, DAVENPORT, IA, 52806",122728856,"R"
276126,"702 W ALFRED ST","TAMPA","FL",33603,27.9712433230001,-82.4678318269999,126,"702 W ALFRED ST, TAMPA, FL, 33603","Match","Exact","702 W ALFRED ST, TAMPA, FL, 33603",104628721,"L"
276127,"702 W DIVISION AVE","ORANGE","TX",77630,30.0901551800001,-93.736102897,127,"702 W DIVISION AVE, ORANGE, TX, 77630","Match","Non_Exact","702 W DIVISION ST, ORANGE, TX, 77630",74010067,"L"
276128,"702 W EXPY 83","WESLACO","TX",78596,26.172410202,-97.9837057409999,128,"702 W EXPY 83, WESLACO, TX, 78596","Match","Non_Exact","702 E EXPY 83, WESLACO, TX, 78596",619971872,"L"
276129,"702 W KALAMAZOO STREET","LANSING","MI",48915,42.7300580310001,-84.561725867,129,"702 W KALAMAZOO STREET, LANSING, MI, 48915","Match","Exact","702 W KALAMAZOO ST, LANSING, MI, 48915",17529458,"R"
276130,"702 W TYLER ST","ATHENS","TX",75751,32.2054517650001,-95.868115097,130,"702 W TYLER ST, ATHENS, TX, 75751","Match","Exact","702 W TYLER ST, ATHENS, TX, 75751",125803461,"L"
276131,"702 WALNUT ST","BRIGHTON","MI",48116,42.5326852420001,-83.787888156,131,"702 WALNUT ST, BRIGHTON, MI, 48116","Match","Exact","702 WALNUT ST, BRIGHTON, MI, 48116",23545427,"L"
276132,"702 WALNUT STREET","NAPONEE","NE",68960,40.0768310400001,-99.1392636909999,132,"702 WALNUT STREET, NAPONEE, NE, 68960","Match","Exact","702 WALNUT ST, NAPONEE, NE, 68960",137978988,"R"
276133,"702 WASHINGTON AVENUE","CHARLEROI","PA",15022,40.1397481870001,-79.901429837,133,"702 WASHINGTON AVENUE, CHARLEROI, PA, 15022","Match","Exact","702 WASHINGTON AVE, CHARLEROI, PA, 15022",52813430,"L"
276134,"702 WATTS DR SE","HUNTSVILLE","AL",35801,34.734268264,-86.559628479,134,"702 WATTS DR SE, HUNTSVILLE, AL, 35801","Match","Exact","702 WATTS DR SE, HUNTSVILLE, AL, 35801",58119362,"R"
276135,"702 WEST 15TH STREET","LITTLE ROCK","AR",72202,34.7353616550001,-92.280280158,135,"702 WEST 15TH STREET, LITTLE ROCK, AR, 72202","Match","Exact","702 W 15TH ST, LITTLE ROCK, AR, 72202",83564287,"R"
276136,"702 WEST 35TH ST","DAVENPORT","IA",52806,41.5556708880001,-90.5820043259999,136,"702 WEST 35TH ST, DAVENPORT, IA, 52806","Match","Exact","702 W 35TH ST, DAVENPORT, IA, 52806",122728856,"R"
276137,"702 WEST MAIN STREET","ROWLAND","NC",28383,34.5412024290001,-79.301316016,137,"702 WEST MAIN STREET, ROWLAND, NC, 28383","Match","Exact","702 W MAIN ST, ROWLAND, NC, 28383",636567441,"R"
276138,"702 WILKES BLVD SUITE 301","COLUMBIA","MO",65201,38.9604393920001,-92.329156073,138,"702 WILKES BLVD SUITE 301, COLUMBIA, MO, 65201","Match","Exact","702 WILKES BLVD, COLUMBIA, MO, 65201",23480970,"R"
276139,"702 ZORN AVENUE 18","LOUISVILLE","KY",40206,38.267398873,-85.6913023399999,139,"702 ZORN AVENUE 18, LOUISVILLE, KY, 40206","Match","Exact","702 ZORN AVE, LOUISVILLE, KY, 40206",96884042,"L"
276140,"7020 18TH AVE SW UNIT E-11","SEATTLE","WA",98106,47.540035382,-122.357232537,140,"7020 18TH AVE SW UNIT E-11, SEATTLE, WA, 98106","Match","Exact","7020 18TH AVE SW, SEATTLE, WA, 98106",239775129,"R"
276141,"7020 AUTUMNWOOD TRL","PLANO","TX",75024,33.0716339320001,-96.851583902,141,"7020 AUTUMNWOOD TRL, PLANO, TX, 75024","Match","Exact","7020 AUTUMNWOOD TRL, PLANO, TX, 75024",630172457,"L"
276142,"7020 DUPONT AVE N","BROOKLYN CENTER","MN",55430,45.0821246350001,-93.295212824,142,"7020 DUPONT AVE N, BROOKLYN CENTER, MN, 55430","Match","Exact","7020 DUPONT AVE N, BROOKLYN CENTER, MN, 55430",43830312,"R"
276143,"7020 GLENN CIRCLE","NORMAN","OK",73160,35.3020201260001,-97.324453407,143,"7020 GLENN CIRCLE, NORMAN, OK, 73160","Match","Non_Exact","7020 GLENN CIR, NORMAN, OK, 73026",99909771,"L"
276144,"7020 LIVE OAK DRIVE","FREEPORT","TX",77541,28.9754197820001,-95.455987412,144,"7020 LIVE OAK DRIVE, FREEPORT, TX, 77541","Match","Exact","7020 LIVE OAK DR, FREEPORT, TX, 77541",646519518,"L"
276145,"7020 MARINER BLVD","SPRING HILL","FL",34609,28.5291677870001,-82.511405526,145,"7020 MARINER BLVD, SPRING HILL, FL, 34609","Match","Exact","7020 MARINER BLVD, SPRING HILL, FL, 34609",85423291,"R"
276146,"7020 N PERSHING RD","INDIANAPOLIS","IN",46268,39.883262879,-86.211408446,146,"7020 N PERSHING RD, INDIANAPOLIS, IN, 46268","Match","Exact","7020 PERSHING RD, INDIANAPOLIS, IN, 46268",108017429,"R"
276147,"7020 NEW HOPE ROAD","GRANTS PASS","OR",97527,42.345244947,-123.359105784,147,"7020 NEW HOPE ROAD, GRANTS PASS, OR, 97527","Match","Exact","7020 NEW HOPE RD, GRANTS PASS, OR, 97527",156603196,"R"
276148,"7020 OLDE FARM TRL","ALMONT","MI",48003,42.9365503220001,-83.064643369,148,"7020 OLDE FARM TRL, ALMONT, MI, 48003","Match","Non_Exact","7020 OLD FARM TRL, ALMONT, MI, 48003",110482598,"R"
276149,"7020 PAUL DO MAR WAY","ELK GROVE","CA",95757,38.3819761230001,-121.421434228,149,"7020 PAUL DO MAR WAY, ELK GROVE, CA, 95757","Match","Exact","7020 PAUL DO MAR WAY, ELK GROVE, CA, 95757",133430627,"L"
276150,"7020 S RED MAIDS DR","TUCSON","AZ",85756,32.1243000860001,-110.881772796,150,"7020 S RED MAIDS DR, TUCSON, AZ, 85756","Match","Exact","7020 S RED MAIDS DR, TUCSON, AZ, 85756",627414263,"L"
276151,"7020 SANDPIPER DRIVE","HOUGHTON","MI",49931,47.110517701,-88.525089114,151,"7020 SANDPIPER DRIVE, HOUGHTON, MI, 49931","Match","Exact","7020 SANDPIPER DR, HOUGHTON, MI, 49931",184117437,"L"
276152,"7020 SELKIRK DR","FORT WAYNE","IN",46816,41.0209964220001,-85.085199534,152,"7020 SELKIRK DR, FORT WAYNE, IN, 46816","Match","Exact","7020 SELKIRK DR, FORT WAYNE, IN, 46816",6386996,"R"
276153,"7020 STONE RUN DRIVE","NASHVILLE","TN",37211,36.0097669990001,-86.726171382,153,"7020 STONE RUN DRIVE, NASHVILLE, TN, 37211","Match","Exact","7020 STONE RUN DR, NASHVILLE, TN, 37211",652883062,"R"
276154,"7020 SW 78TH STREET","GAINESVILLE","FL",32608,29.5893568980001,-82.4266802019999,154,"7020 SW 78TH STREET, GAINESVILLE, FL, 32608","Match","Exact","7020 SW 78TH ST, GAINESVILLE, FL, 32608",6815848,"R"
276155,"7020 TANAQUA LANE","AUSTIN","TX",78739,30.1880536470001,-97.901258657,155,"7020 TANAQUA LANE, AUSTIN, TX, 78739","Match","Exact","7020 TANAQUA LN, AUSTIN, TX, 78739",64098388,"R"
276156,"7020 WHITE DRIVE","CHARLOTTE","AR",72522,NA,NA,156,"7020 WHITE DRIVE, CHARLOTTE, AR, 72522","No_Match",NA,NA,NA,NA
276157,"7021 CHINQUAPIN COURT","PICAYUNE","MS",39466,30.557133616,-89.649439249,157,"7021 CHINQUAPIN COURT, PICAYUNE, MS, 39466","Match","Exact","7021 CHINQUAPIN CT, PICAYUNE, MS, 39466",649988314,"L"
276158,"7021 EVERGREEN CT 8B-07","ANNANDALE","VA",22003,38.831993067,-77.1867346509999,158,"7021 EVERGREEN CT 8B-07, ANNANDALE, VA, 22003","Match","Exact","7021 EVERGREEN CT, ANNANDALE, VA, 22003",619093746,"L"
276159,"7021 GOLINDA DR","GOLINDA","TX",76655,31.372677728,-97.081584614,159,"7021 GOLINDA DR, GOLINDA, TX, 76655","Match","Non_Exact","7021 GOLINDA DR, LORENA, TX, 76655",630182119,"R"
276160,"7021 HOLLY SPRINGS LANE","ELKRIDGE","MD",21075,39.1774170370001,-76.7841919859999,160,"7021 HOLLY SPRINGS LANE, ELKRIDGE, MD, 21075","Match","Exact","7021 HOLLY SPRINGS LN, ELKRIDGE, MD, 21075",639577866,"L"
276161,"7021 KALANIANAOLE HIGHWAY","HONOLULU","HI",96825,21.279217139,-157.708693788,161,"7021 KALANIANAOLE HIGHWAY, HONOLULU, HI, 96825","Match","Exact","7021 KALANIANAOLE HWY, HONOLULU, HI, 96825",636749916,"R"
276162,"7021 KENTUCKY AVE","RAYTOWN","MO",64133,38.9958021530001,-94.480422974,162,"7021 KENTUCKY AVE, RAYTOWN, MO, 64133","Match","Exact","7021 KENTUCKY AVE, RAYTOWN, MO, 64133",91465007,"L"
276163,"7021 MIRANDA DR","ANCHORAGE","AK",99507,61.156960934,-149.816683438,163,"7021 MIRANDA DR, ANCHORAGE, AK, 99507","Match","Exact","7021 MIRANDA DR, ANCHORAGE, AK, 99507",651622099,"L"
276164,"7021 N 197TH EAST CT","OWASSO","OK",74055,36.2557542210001,-95.7525516699999,164,"7021 N 197TH EAST CT, OWASSO, OK, 74055","Match","Exact","7021 N 197TH E CT, OWASSO, OK, 74055",646599703,"R"
276165,"7021 OCONNOR","ARLINGTON","TX",76002,32.6340211830001,-97.067014801,165,"7021 OCONNOR, ARLINGTON, TX, 76002","Match","Non_Exact","7021 O'CONNOR ST, ARLINGTON, TX, 76002",101960589,"R"
276166,"7021 PELICAN ISLAND DR","TAMPA","FL",33634,27.97381592,-82.565022707,166,"7021 PELICAN ISLAND DR, TAMPA, FL, 33634","Match","Exact","7021 PELICAN ISLAND DR, TAMPA, FL, 33634",104508910,"R"
276167,"7021 S 430 E","MIDVALE","UT",84047,40.6243757290001,-111.878694214,167,"7021 S 430 E, MIDVALE, UT, 84047","Match","Exact","7021 S 430 E, MIDVALE, UT, 84047",176110527,"L"
276168,"7021 SW CANYON RD","PORTLAND","OR",97225,NA,NA,168,"7021 SW CANYON RD, PORTLAND, OR, 97225","Tie",NA,NA,NA,NA
276169,"7021 WEST MAIN STREET","KALAMAZOO","MI",49009,42.2957305620001,-85.68778979,169,"7021 WEST MAIN STREET, KALAMAZOO, MI, 49009","Match","Exact","7021 W MAIN ST, KALAMAZOO, MI, 49009",12223123,"R"
276170,"7022 BALBOA DRIVE UNIT F","ORLANDO","FL",32818,28.5578213490001,-81.479381325,170,"7022 BALBOA DRIVE UNIT F, ORLANDO, FL, 32818","Match","Exact","7022 BALBOA DR, ORLANDO, FL, 32818",638652402,"L"
276171,"7022 BALSA GLENN DR","MILLINGTON","TN",38053,35.3176812150001,-89.903370217,171,"7022 BALSA GLENN DR, MILLINGTON, TN, 38053","Match","Exact","7022 BALSA GLENN DR, MILLINGTON, TN, 38053",72962348,"R"
276172,"7022 COPELAND CT","MATTHEWS","NC",28104,35.0839515860001,-80.68618864,172,"7022 COPELAND CT, MATTHEWS, NC, 28104","Match","Exact","7022 COPELAND CT, MATTHEWS, NC, 28104",14202189,"L"
276173,"7022 S SOUTHSHORE DR UNIT 314","CHICAGO","IL",60649,41.7673057370001,-87.5665061779999,173,"7022 S SOUTHSHORE DR UNIT 314, CHICAGO, IL, 60649","Match","Non_Exact","7022 S SOUTH SHORE DR, CHICAGO, IL, 60649",611715904,"R"
276174,"7022 WEST HUNTER DAWN WAY","WEST VALLEY CITY","UT",84128,40.699325984,-112.058830333,174,"7022 WEST HUNTER DAWN WAY, WEST VALLEY CITY, UT, 84128","Match","Non_Exact","7022 HUNTER DAWN WAY, WEST VALLEY CITY, UT, 84128",617296784,"R"
276175,"7022 YATARUBA DR","BALTIMORE","MD",21207,39.3401885590001,-76.735843175,175,"7022 YATARUBA DR, BALTIMORE, MD, 21207","Match","Exact","7022 YATARUBA DR, BALTIMORE, MD, 21207",191468703,"R"
276176,"7023 DELOACHE AVENUE","DALLAS","TX",75225,32.870912515,-96.784642874,176,"7023 DELOACHE AVENUE, DALLAS, TX, 75225","Match","Exact","7023 DELOACHE AVE, DALLAS, TX, 75225",102902337,"L"
276177,"7023 FALLING CHERRY","HOUSTON","TX",77049,29.828836541,-95.164861106,177,"7023 FALLING CHERRY, HOUSTON, TX, 77049","Match","Non_Exact","7023 FALLING CHERRY PL, HOUSTON, TX, 77049",624991012,"R"
276178,"7023 GARAMOND WOOD DRIVE","CHARLOTTE","NC",28278,35.1672764830001,-80.9774816189999,178,"7023 GARAMOND WOOD DRIVE, CHARLOTTE, NC, 28278","Match","Exact","7023 GARAMOND WOOD DR, CHARLOTTE, NC, 28278",630329488,"R"
276179,"7023 KIVETTE HOUSE RD","GIBSONVILLE","NC",27249,36.0907156160001,-79.573718403,179,"7023 KIVETTE HOUSE RD, GIBSONVILLE, NC, 27249","Match","Exact","7023 KIVETTE HOUSE RD, GIBSONVILLE, NC, 27249",642868826,"R"
276180,"7023 S HALSTED STREET","CHICAGO","IL",60621,41.766522944,-87.644438008,180,"7023 S HALSTED STREET, CHICAGO, IL, 60621","Match","Exact","7023 S HALSTED ST, CHICAGO, IL, 60621",111830892,"L"
276181,"7023 WILLOWICK DRIVE","BRENTWOOD","TN",37027,35.9785619460001,-86.8177733649999,181,"7023 WILLOWICK DRIVE, BRENTWOOD, TN, 37027","Match","Exact","7023 WILLOWICK DR, BRENTWOOD, TN, 37027",73115558,"L"
276182,"7023-A MEARS GATE DR NW","NORTH CANTON","OH",44720,40.8835147460001,-81.47980512,182,"7023-A MEARS GATE DR NW, NORTH CANTON, OH, 44720","Match","Exact","7023 MEARS GATE DR NW, NORTH CANTON, OH, 44720",64725363,"R"
276183,"7024 DEIDRE COURT","NIAGARA FALLS","NY",14304,43.0839306620001,-78.9292275879999,183,"7024 DEIDRE COURT, NIAGARA FALLS, NY, 14304","Match","Exact","7024 DEIDRE CT, NIAGARA FALLS, NY, 14304",613973874,"L"
276184,"7024 E 6TH ST 103","SCOTTSDALE","AZ",85251,33.488502161,-111.929802634,184,"7024 E 6TH ST 103, SCOTTSDALE, AZ, 85251","Match","Non_Exact","7024 E 6TH ST, SCOTTSDALE, AZ, 85251",128281114,"L"
276185,"7024 MILLERS GLEN WAY","MEMPHIS","TN",38125,34.995395022,-89.827390957,185,"7024 MILLERS GLEN WAY, MEMPHIS, TN, 38125","Match","Exact","7024 MILLERS GLEN WAY, MEMPHIS, TN, 38125",618712431,"R"
276186,"7024 S PERRY AVE 1C","CHICAGO","IL",60621,41.7667546060001,-87.628203501,186,"7024 S PERRY AVE 1C, CHICAGO, IL, 60621","Match","Non_Exact","7024 S PERRY AVE, CHICAGO, IL, 60621",111832248,"R"
276187,"7024 S SANGAMON STREET","CHICAGO","IL",60621,41.7663111040001,-87.648091055,187,"7024 S SANGAMON STREET, CHICAGO, IL, 60621","Match","Exact","7024 S SANGAMON ST, CHICAGO, IL, 60621",605583696,"R"
276188,"7025 52ND ST NE","MARYSVILLE","WA",98270,48.042857338,-122.136178685,188,"7025 52ND ST NE, MARYSVILLE, WA, 98270","Match","Exact","7025 52ND ST NE, MARYSVILLE, WA, 98270",187805661,"R"
276189,"7025 BLUE BEECH DRIVE","RIVERVIEW","FL",33578,27.876018163,-82.361823864,189,"7025 BLUE BEECH DRIVE, RIVERVIEW, FL, 33578","Match","Exact","7025 BLUE BEECH DR, RIVERVIEW, FL, 33578",627997547,"L"
276190,"7025 BRYCE ROAD","RIVERDALE","GA",30296,33.562895919,-84.4467239699999,190,"7025 BRYCE ROAD, RIVERDALE, GA, 30296","Match","Exact","7025 BRYCE RD, RIVERDALE, GA, 30296",23331502,"R"
276191,"7025 CR 46A SUITE 1071 NO 343","LAKE MARY","FL",32746,28.786327742,-81.358775448,191,"7025 CR 46A SUITE 1071 NO 343, LAKE MARY, FL, 32746","Match","Non_Exact","7025 CO RD 46A, LAKE MARY, FL, 32746",647546853,"R"
276192,"7025 CR 46A SUITE 1071 NUM 347","LAKE MARY","FL",32746,28.786327742,-81.358775448,192,"7025 CR 46A SUITE 1071 NUM 347, LAKE MARY, FL, 32746","Match","Non_Exact","7025 CO RD 46A, LAKE MARY, FL, 32746",647546853,"R"
276193,"7025 CR 46A SUITE 1071-244","LAKE MARY","FL",32746,28.786327742,-81.358775448,193,"7025 CR 46A SUITE 1071-244, LAKE MARY, FL, 32746","Match","Non_Exact","7025 CO RD 46A, LAKE MARY, FL, 32746",647546853,"R"
276194,"7025 CR46A STE 1071 NO 355","LAKE MARY","FL",32746,28.786327742,-81.358775448,194,"7025 CR46A STE 1071 NO 355, LAKE MARY, FL, 32746","Match","Exact","7025 CO RD 46A, LAKE MARY, FL, 32746",647546853,"R"
276195,"7025 DANIEL RD","WAKE FOREST","NC",27587,35.949165335,-78.4383262169999,195,"7025 DANIEL RD, WAKE FOREST, NC, 27587","Match","Exact","7025 DANIEL RD, WAKE FOREST, NC, 27587",208377578,"L"
276196,"7025 DORAL DR","RADFORD","VA",24141,37.1525179240001,-80.537547022,196,"7025 DORAL DR, RADFORD, VA, 24141","Match","Exact","7025 DORAL DR, RADFORD, VA, 24141",47035570,"R"
276197,"7025 E PARKCREST ST","LONG BEACH","CA",90808,33.8294286600001,-118.096618728,197,"7025 E PARKCREST ST, LONG BEACH, CA, 90808","Match","Exact","7025 E PARKCREST ST, LONG BEACH, CA, 90808",141745434,"L"
276198,"7025 HWY 82  BLDG 1 UNIT B","GLENWOOD SPRINGS","CO",81601,39.464372967,-107.263817535,198,"7025 HWY 82  BLDG 1 UNIT B, GLENWOOD SPRINGS, CO, 81601","Match","Non_Exact","7025 STATE HWY 82, GLENWOOD SPGS, CO, 81601",605496461,"L"
276199,"7025 KIMBERLY MILL RD","ATLANTA","GA",30349,33.565464305,-84.4862231069999,199,"7025 KIMBERLY MILL RD, ATLANTA, GA, 30349","Match","Exact","7025 KIMBERLY MILL RD, ATLANTA, GA, 30349",17351440,"R"
276200,"7025 MARYMOUNT WAY","GOLETA","CA",93117,34.422355673,-119.877374389,200,"7025 MARYMOUNT WAY, GOLETA, CA, 93117","Match","Exact","7025 MARYMOUNT WAY, GOLETA, CA, 93117",108695773,"L"
276201,"7025 MEGAN LANE","GREENBELT","MD",20770,38.986969667,-76.8686366599999,201,"7025 MEGAN LANE, GREENBELT, MD, 20770","Match","Exact","7025 MEGAN LN, GREENBELT, MD, 20770",76332025,"L"
276202,"7025 N PLEASANT AVE 111","FRESNO","CA",93711,36.8376429260001,-119.839905989,202,"7025 N PLEASANT AVE 111, FRESNO, CA, 93711","Match","Non_Exact","7025 N PLEASANT AVE, FRESNO, CA, 93711",639779952,"L"
276203,"7025 N SCOTTSDALE ROAD  SUITE 320","SCOTTSDALE","AZ",85253,NA,NA,203,"7025 N SCOTTSDALE ROAD  SUITE 320, SCOTTSDALE, AZ, 85253","No_Match",NA,NA,NA,NA
276204,"7025 N WICKHAM RD STE 110","MELBOURNE","FL",32940,28.226521731,-80.678333825,204,"7025 N WICKHAM RD STE 110, MELBOURNE, FL, 32940","Match","Non_Exact","7025 N WICKHAM RD, MELBOURNE, FL, 32940",93929044,"R"
276205,"7025 SHERIDAN CIR","URBANDALE","IA",50322,41.6186774770001,-93.712856949,205,"7025 SHERIDAN CIR, URBANDALE, IA, 50322","Match","Exact","7025 SHERIDAN CIR, URBANDALE, IA, 50322",65776868,"R"
276206,"7025 SHRIMP ROAD SUITE 20","KEY WEST","FL",33040,24.5654998300001,-81.73967318,206,"7025 SHRIMP ROAD SUITE 20, KEY WEST, FL, 33040","Match","Exact","7025 SHRIMP RD, KEY WEST, FL, 33040",116476633,"L"
276207,"7025 TROLLEYWAY","PLAYA DEL REY","CA",90293,33.9556802220001,-118.448991344,207,"7025 TROLLEYWAY, PLAYA DEL REY, CA, 90293","Match","Non_Exact","7025 TROLLEYWAY ST, PLAYA DEL REY, CA, 90293",141577589,"R"
276208,"7025 W FM 476","POTEET","TX",78065,NA,NA,208,"7025 W FM 476, POTEET, TX, 78065","No_Match",NA,NA,NA,NA
276209,"7025 WEST MARCIA ROAD","MILWAUKEE","WI",53223,43.168070631,-87.997623356,209,"7025 WEST MARCIA ROAD, MILWAUKEE, WI, 53223","Match","Exact","7025 W MARCIA RD, MILWAUKEE, WI, 53223",77763600,"R"
276210,"7025 WILLS DR","GARLAND","TX",75043,32.835599717,-96.563164485,210,"7025 WILLS DR, GARLAND, TX, 75043","Match","Exact","7025 WILLS DR, GARLAND, TX, 75043",103177019,"L"
276211,"7025 YELLOWSTONE BVLD APT 18Y","FOREST HILLS","NY",11375,NA,NA,211,"7025 YELLOWSTONE BVLD APT 18Y, FOREST HILLS, NY, 11375","No_Match",NA,NA,NA,NA
276212,"7026 CORPORATE WAY SUITE 113","DAYTON","OH",45459,39.642332862,-84.160669984,212,"7026 CORPORATE WAY SUITE 113, DAYTON, OH, 45459","Match","Exact","7026 CORPORATE WAY, DAYTON, OH, 45459",143583796,"L"
276213,"7026 FONTANA DR","COLUMBIA","SC",29209,33.979689464,-80.913563634,213,"7026 FONTANA DR, COLUMBIA, SC, 29209","Match","Exact","7026 FONTANA DR, COLUMBIA, SC, 29209",652422960,"L"
276214,"7026 GRACE AVENUE","CINCINNATI","OH",45227,39.149488068,-84.3747658089999,214,"7026 GRACE AVENUE, CINCINNATI, OH, 45227","Match","Exact","7026 GRACE AVE, CINCINNATI, OH, 45227",103939415,"L"
276215,"7026 GROTON STREET","FOREST HILLS","NY",11375,NA,NA,215,"7026 GROTON STREET, FOREST HILLS, NY, 11375","No_Match",NA,NA,NA,NA
276216,"7026 MERKEL WAY NE","OLYMPIA","WA",98516,47.0553711000001,-122.787358234,216,"7026 MERKEL WAY NE, OLYMPIA, WA, 98516","Match","Exact","7026 MERKEL WAY NE, OLYMPIA, WA, 98516",180947426,"L"
276217,"7026 N LOMBARDY RD","FOX POINT","WI",53217,43.145375202,-87.903649093,217,"7026 N LOMBARDY RD, FOX POINT, WI, 53217","Match","Exact","7026 N LOMBARDY RD, FOX POINT, WI, 53217",77736936,"R"
276218,"7026 OLD KATY RD STE 267","HOUSTON","TX",77024,29.7824547390001,-95.442516616,218,"7026 OLD KATY RD STE 267, HOUSTON, TX, 77024","Match","Non_Exact","7026 KATY RD, HOUSTON, TX, 77007",96353539,"R"
276219,"7026 ORGAN CREEK ROAD","PENDLETON","KY",40055,38.4979318040001,-85.363117158,219,"7026 ORGAN CREEK ROAD, PENDLETON, KY, 40055","Match","Exact","7026 ORGAN CREEK RD, PENDLETON, KY, 40055",640057905,"L"
276220,"7026 RHODE ISLAND DRIVE","JACKSONVILLE","FL",32209,NA,NA,220,"7026 RHODE ISLAND DRIVE, JACKSONVILLE, FL, 32209","Tie",NA,NA,NA,NA
276221,"7026 S 125TH STREET","SEATTLE","WA",98178,47.4903866600001,-122.245643747,221,"7026 S 125TH STREET, SEATTLE, WA, 98178","Match","Exact","7026 S 125TH ST, SEATTLE, WA, 98178",239773615,"L"
276222,"7026 SHADOW GLEN DR","FRISCO","TX",75035,33.1365937480001,-96.758004145,222,"7026 SHADOW GLEN DR, FRISCO, TX, 75035","Match","Exact","7026 SHADOW GLEN DR, FRISCO, TX, 75035",641736758,"R"
276223,"7026 TEXEL COVE","MEMPHIS","TN",38133,35.1987849380001,-89.82892514,223,"7026 TEXEL COVE, MEMPHIS, TN, 38133","Match","Exact","7026 TEXEL COVE, MEMPHIS, TN, 38133",72954128,"R"
276224,"7026 W 24TH STREET","STLOUIS PARK","MN",55426,44.9579095140001,-93.3689617159999,224,"7026 W 24TH STREET, STLOUIS PARK, MN, 55426","Match","Non_Exact","7026 W 24TH ST, ST LOUIS PARK, MN, 55426",43619581,"R"
276225,"7026 WATER OAK RD","ELKRIDGE","MD",21075,39.179435062,-76.778256735,225,"7026 WATER OAK RD, ELKRIDGE, MD, 21075","Match","Exact","7026 WATER OAK RD, ELKRIDGE, MD, 21075",618957929,"L"
276226,"70265 AURORA RD","DESERT HOT SPRINGS","CA",92241,33.9214534810001,-116.43348883,226,"70265 AURORA RD, DESERT HOT SPRINGS, CA, 92241","Match","Exact","70265 AURORA RD, DESERT HOT SPRINGS, CA, 92241",638578830,"L"
276227,"70266 DRIVE 381","MCCOOK","NE",69001,40.010062256,-100.691467283,227,"70266 DRIVE 381, MCCOOK, NE, 69001","Match","Exact","70266 DRIVE 381, MCCOOK, NE, 69001",164146832,"R"
276228,"7027 BROMPTON ROAD","BALTIMORE","MD",21207,39.342174927,-76.735671041,228,"7027 BROMPTON ROAD, BALTIMORE, MD, 21207","Match","Exact","7027 BROMPTON RD, BALTIMORE, MD, 21207",191468700,"L"
276229,"7027 JOYCE WAY","DALLAS","TX",75225,32.879421172,-96.784213657,229,"7027 JOYCE WAY, DALLAS, TX, 75225","Match","Exact","7027 JOYCE WAY, DALLAS, TX, 75225",102902290,"L"
276230,"7027 LANEWOOD AVE NO 317","LOS ANGELES","CA",90028,34.099216368,-118.342320548,230,"7027 LANEWOOD AVE NO 317, LOS ANGELES, CA, 90028","Match","Non_Exact","7027 LANEWOOD AVE, LOS ANGELES, CA, 90028",141599395,"R"
276231,"7027 MACKATOUCES POINT RD","JAMESVILLE","VA",23398,NA,NA,231,"7027 MACKATOUCES POINT RD, JAMESVILLE, VA, 23398","No_Match",NA,NA,NA,NA
276232,"7027 MACKATOUCES POINT ROAD","JAMESVILLE","VA",23398,NA,NA,232,"7027 MACKATOUCES POINT ROAD, JAMESVILLE, VA, 23398","No_Match",NA,NA,NA,NA
276233,"7027 MIDDLEVALLEY WALK APT C","SAINT LOUIS","MO",63123,38.566261974,-90.335773966,233,"7027 MIDDLEVALLEY WALK APT C, SAINT LOUIS, MO, 63123","Match","Exact","7027 MIDDLEVALLEY WALK, SAINT LOUIS, MO, 63123",604560432,"L"
276234,"7027 MORNING DOVE LOOP E","LAKELAND","FL",33809,28.1331722900001,-81.9236542689999,234,"7027 MORNING DOVE LOOP E, LAKELAND, FL, 33809","Match","Exact","7027 MORNING DOVE LOOP E, LAKELAND, FL, 33809",104861958,"R"
276235,"7027 OLDE FARM DRIVE","JENISON","MI",49428,NA,NA,235,"7027 OLDE FARM DRIVE, JENISON, MI, 49428","No_Match",NA,NA,NA,NA
276236,"7027 STILLWELL ROAD","MATTHEWS","NC",28105,35.1805573230001,-80.697837278,236,"7027 STILLWELL ROAD, MATTHEWS, NC, 28105","Match","Exact","7027 STILLWELL RD, MATTHEWS, NC, 28105",647264738,"L"
276237,"7027 WEST BROWARD BLVD  STE 280","PLANTATION","FL",33317,26.120916025,-80.2427510159999,237,"7027 WEST BROWARD BLVD  STE 280, PLANTATION, FL, 33317","Match","Exact","7027 W BROWARD BLVD, PLANTATION, FL, 33317",637293298,"L"
276238,"7027 WEST BROWARD BLVD  SUITE 319","PLANTATION","FL",33317,26.120916025,-80.2427510159999,238,"7027 WEST BROWARD BLVD  SUITE 319, PLANTATION, FL, 33317","Match","Exact","7027 W BROWARD BLVD, PLANTATION, FL, 33317",637293298,"L"
276239,"7027 WEST BROWARD NO 297","PLANTATION","FL",33317,NA,NA,239,"7027 WEST BROWARD NO 297, PLANTATION, FL, 33317","No_Match",NA,NA,NA,NA
276240,"7028 AMBER LAKE DR","TALLAHASSEE","FL",32309,30.5664267540001,-84.1702771509999,240,"7028 AMBER LAKE DR, TALLAHASSEE, FL, 32309","Match","Exact","7028 AMBER LAKE DR, TALLAHASSEE, FL, 32309",639749362,"R"
276241,"7028 CASTER AVENUE","PHILADELPHIA","PA",19149,40.0475345990001,-75.069642919,241,"7028 CASTER AVENUE, PHILADELPHIA, PA, 19149","Match","Non_Exact","7028 CASTOR AVE, PHILADELPHIA, PA, 19149",131416401,"L"
276242,"7028 DALMATIA DRIVE","RIVERDALE","GA",30296,33.5636446,-84.439477186,242,"7028 DALMATIA DRIVE, RIVERDALE, GA, 30296","Match","Exact","7028 DALMATIA DR, RIVERDALE, GA, 30296",23312399,"L"
276243,"7028 HOLLY SPRNGS LN","ELKRIDGE","MD",21075,39.1775999050001,-76.784257762,243,"7028 HOLLY SPRNGS LN, ELKRIDGE, MD, 21075","Match","Exact","7028 HOLLY SPRINGS LN, ELKRIDGE, MD, 21075",639577866,"R"
276244,"7028 KEARNY DRIVE","HUNTINGTON BEACH","CA",92648,33.685007156,-118.005414044,244,"7028 KEARNY DRIVE, HUNTINGTON BEACH, CA, 92648","Match","Exact","7028 KEARNY DR, HUNTINGTON BEACH, CA, 92648",630414847,"R"
276245,"7028 LAKESIDE DRIVE","CHARLOTTE","NC",28215,35.237735957,-80.72558731,245,"7028 LAKESIDE DRIVE, CHARLOTTE, NC, 28215","Match","Exact","7028 LAKESIDE DR, CHARLOTTE, NC, 28215",70482685,"R"
276246,"7028 OAKLAND DR","PORTAGE","MI",49024,42.2149171400001,-85.613896081,246,"7028 OAKLAND DR, PORTAGE, MI, 49024","Match","Exact","7028 OAKLAND DR, PORTAGE, MI, 49024",12236961,"R"
276247,"7028 PALM AVENUE","SACRAMENTO","CA",95828,NA,NA,247,"7028 PALM AVENUE, SACRAMENTO, CA, 95828","No_Match",NA,NA,NA,NA
276248,"7028 RT 237 PO BOX 9","BYRON","NY",14422,43.0714406760001,-78.064123789,248,"7028 RT 237 PO BOX 9, BYRON, NY, 14422","Match","Non_Exact","7028 STATE RTE 237, BYRON, NY, 14422",48145139,"L"
276249,"7029 DAVIT CIRCLE","LAKE WORTH","FL",33467,26.5710105490001,-80.16932246,249,"7029 DAVIT CIRCLE, LAKE WORTH, FL, 33467","Match","Exact","7029 DAVIT CIR, LAKE WORTH, FL, 33467",115577618,"R"
276250,"7029 E BROWN RD","MESA","AZ",85207,33.4369233580001,-111.678529072,250,"7029 E BROWN RD, MESA, AZ, 85207","Match","Exact","7029 E BROWN RD, MESA, AZ, 85207",128937443,"L"
276251,"7029 ESTATE TUTU","ST THOMAS","VI",802,NA,NA,251,"7029 ESTATE TUTU, ST THOMAS, VI, 802","No_Match",NA,NA,NA,NA
276252,"7029 FLINT DRIVE","TAMPA","FL",33619,27.927856519,-82.375694298,252,"7029 FLINT DRIVE, TAMPA, FL, 33619","Match","Exact","7029 FLINT DR, TAMPA, FL, 33619",104538807,"R"
276253,"7029 MILES AVE","HUNTINGTON PARK","CA",90255,33.9755718050001,-118.218966742,253,"7029 MILES AVE, HUNTINGTON PARK, CA, 90255","Match","Exact","7029 MILES AVE, HUNTINGTON PARK, CA, 90255",142762985,"R"
276254,"7029 MONICA COVE","SALT LAKE CITY6","UT",84121,NA,NA,254,"7029 MONICA COVE, SALT LAKE CITY6, UT, 84121","No_Match",NA,NA,NA,NA
276255,"7029 OAKWOOD DR","NEW PORT RICHEY","FL",34652,28.259437829,-82.731012372,255,"7029 OAKWOOD DR, NEW PORT RICHEY, FL, 34652","Match","Exact","7029 OAKWOOD DR, NEW PORT RICHEY, FL, 34652",86364976,"R"
276256,"7029 S ADA ST","CHICAGO","IL",60636,41.7662310920001,-87.657778429,256,"7029 S ADA ST, CHICAGO, IL, 60636","Match","Exact","7029 S ADA ST, CHICAGO, IL, 60636",111820867,"L"
276257,"7029 S SHERIDAN AVE","DURAND","MI",48429,42.925754682,-83.9290314469999,257,"7029 S SHERIDAN AVE, DURAND, MI, 48429","Match","Non_Exact","7029 SHERIDAN RD, DURAND, MI, 48429",23653429,"L"
276258,"7029 SACRED CIRCLE","SPARKS","NV",89436,39.6154555780001,-119.671411866,258,"7029 SACRED CIRCLE, SPARKS, NV, 89436","Match","Exact","7029 SACRED CIR, SPARKS, NV, 89436",600718641,"L"
276259,"7029 TELECOM DRIVE","MILAN","TN",38358,35.9018838550001,-88.757142266,259,"7029 TELECOM DRIVE, MILAN, TN, 38358","Match","Exact","7029 TELECOM DR, MILAN, TN, 38358",40827993,"L"
276260,"7029 VIA ANACAPA","SAN JOSE","CA",95139,37.233216111,-121.768643348,260,"7029 VIA ANACAPA, SAN JOSE, CA, 95139","Match","Exact","7029 VIA ANACAPA, SAN JOSE, CA, 95139",639672241,"L"
276261,"703 136TH PL NE UNIT A1","BELLEVUE","WA",98005,47.616475279,-122.157891939,261,"703 136TH PL NE UNIT A1, BELLEVUE, WA, 98005","Match","Exact","703 136TH PL NE, BELLEVUE, WA, 98005",186671731,"R"
276262,"703 13TH STREET","ST CLOUD","FL",34769,28.24585104,-81.2768543289999,262,"703 13TH STREET, ST CLOUD, FL, 34769","Match","Exact","703 13TH ST, SAINT CLOUD, FL, 34769",637916847,"R"
276263,"703 2ND AVE","FREDERICK","SD",57441,45.8353101530001,-98.504829846,263,"703 2ND AVE, FREDERICK, SD, 57441","Match","Exact","703 2ND AVE, FREDERICK, SD, 57441",636586943,"R"
276264,"703 2ND STREET WEST","HAMPTON","SC",29924,32.8659321740001,-81.111551102,264,"703 2ND STREET WEST, HAMPTON, SC, 29924","Match","Exact","703 2ND ST W, HAMPTON, SC, 29924",33109560,"R"
276265,"703 39 STREET","WEST PALM BEACH","FL",33407,26.7484195960001,-80.058038869,265,"703 39 STREET, WEST PALM BEACH, FL, 33407","Match","Exact","703 39TH ST, WEST PALM BEACH, FL, 33407",115534844,"R"
276266,"703 ARROW AVE","LOUISIANA","MO",63353,39.458326572,-91.0601709869999,266,"703 ARROW AVE, LOUISIANA, MO, 63353","Match","Exact","703 ARROW AVE, LOUISIANA, MO, 63353",44649647,"L"
276267,"703 AVONDALE STREET","HOUSTON","TX",77006,29.745390199,-95.3889207349999,267,"703 AVONDALE STREET, HOUSTON, TX, 77006","Match","Exact","703 AVONDALE ST, HOUSTON, TX, 77006",96064588,"R"
276268,"703 BAILEY STREET","COLUMBIA","SC",29203,34.0352347260001,-81.019459781,268,"703 BAILEY STREET, COLUMBIA, SC, 29203","Match","Exact","703 BAILEY ST, COLUMBIA, SC, 29203",604767327,"R"
276269,"703 BAYLOR BLVD","BIG SPRING","TX",79720,32.258585538,-101.446186342,269,"703 BAYLOR BLVD, BIG SPRING, TX, 79720","Match","Exact","703 BAYLOR BLVD, BIG SPRING, TX, 79720",182872935,"R"
276270,"703 BAYSHORE DR","MANSFIELD","TX",76063,32.552779844,-97.059016834,270,"703 BAYSHORE DR, MANSFIELD, TX, 76063","Match","Exact","703 BAYSHORE DR, MANSFIELD, TX, 76063",619700013,"R"
276271,"703 BELLAIRE AVE","LEXINGTON","KY",40508,38.0606794020001,-84.489820147,271,"703 BELLAIRE AVE, LEXINGTON, KY, 40508","Match","Exact","703 BELLAIRE AVE, LEXINGTON, KY, 40508",31921885,"L"
276272,"703 BROOK MEADOW TRAIL","CEDAR PARK","TX",78613,30.4957971040001,-97.841079345,272,"703 BROOK MEADOW TRAIL, CEDAR PARK, TX, 78613","Match","Exact","703 BROOK MEADOW TRL, CEDAR PARK, TX, 78613",641014333,"L"
276273,"703 CARL AVE","SALINA","KS",67401,38.809757029,-97.601023325,273,"703 CARL AVE, SALINA, KS, 67401","Match","Exact","703 CARL AVE, SALINA, KS, 67401",196686055,"L"
276274,"703 CEDAR CREEK RD","FAYETTEVILLE","NC",28312,35.03446459,-78.8456729059999,274,"703 CEDAR CREEK RD, FAYETTEVILLE, NC, 28312","Match","Exact","703 CEDAR CREEK RD, FAYETTEVILLE, NC, 28312",64206582,"L"
276275,"703 CEDAR LANE","TEANECK","NJ",7666,40.8914681530001,-74.030396928,275,"703 CEDAR LANE, TEANECK, NJ, 7666","Match","Exact","703 CEDAR LN, TEANECK, NJ, 07666",64388575,"R"
276276,"703 CHICKASAW ROAD","MCGEHEE","AR",71654,33.6345200710001,-91.4266245909999,276,"703 CHICKASAW ROAD, MCGEHEE, AR, 71654","Match","Exact","703 CHICKASAW RD, MCGEHEE, AR, 71654",25905868,"L"
276277,"703 CLIFFSIDE AVE","HIGH POINT","NC",27260,35.9432290280001,-80.010536456,277,"703 CLIFFSIDE AVE, HIGH POINT, NC, 27260","Match","Exact","703 CLIFFSIDE AVE, HIGH POINT, NC, 27260",131039802,"L"
276278,"703 COLSON DR","ARLINGTON","TX",76002,32.643059151,-97.101715118,278,"703 COLSON DR, ARLINGTON, TX, 76002","Match","Exact","703 COLSON DR, ARLINGTON, TX, 76002",101947840,"L"
276279,"703 COUNTY ROAD 4311","DEKALB","TX",75559,33.447709047,-94.695492653,279,"703 COUNTY ROAD 4311, DEKALB, TX, 75559","Match","Non_Exact","703 CO RD 4311, DE KALB, TX, 75559",57659259,"R"
276280,"703 CRANSTON ST","PROVIDENCE","RI",2907,41.805218574,-71.437568685,280,"703 CRANSTON ST, PROVIDENCE, RI, 2907","Match","Exact","703 CRANSTON ST, PROVIDENCE, RI, 02907",47460811,"R"
276281,"703 CROWNPOINT LANE","ARLINGTON","TX",76002,32.6176944650001,-97.102192024,281,"703 CROWNPOINT LANE, ARLINGTON, TX, 76002","Match","Exact","703 CROWNPOINT LN, ARLINGTON, TX, 76002",102188285,"L"
276282,"703 DIAMOND DR","CHULA VISTA","CA",91911,32.6195306760001,-117.027929445,282,"703 DIAMOND DR, CHULA VISTA, CA, 91911","Match","Exact","703 DIAMOND DR, CHULA VISTA, CA, 91911",195750045,"L"
276283,"703 DORCHESTER ROAD","CATONSVILLE","MD",21228,39.2841348760001,-76.7337068429999,283,"703 DORCHESTER ROAD, CATONSVILLE, MD, 21228","Match","Exact","703 DORCHESTER RD, CATONSVILLE, MD, 21228",191513786,"R"
276284,"703 E 17TH ST","HOUSTON","TX",77008,29.800671976,-95.39086458,284,"703 E 17TH ST, HOUSTON, TX, 77008","Match","Exact","703 E 17TH ST, HOUSTON, TX, 77008",96055868,"L"
276285,"703 E LIMERICK LANE","BELOIT","WI",53511,42.552025745,-89.032672786,285,"703 E LIMERICK LANE, BELOIT, WI, 53511","Match","Exact","703 LIMERICK LN, BELOIT, WI, 53511",49912537,"L"
276286,"703 E MAIN STREET","DEWITT","MI",48820,42.8427001470001,-84.561281486,286,"703 E MAIN STREET, DEWITT, MI, 48820","Match","Exact","703 E MAIN ST, DEWITT, MI, 48820",17299244,"L"
276287,"703 E PROSPECT RD","FORT COLLINS","CO",80525,40.5670610650001,-105.066602775,287,"703 E PROSPECT RD, FORT COLLINS, CO, 80525","Match","Exact","703 E PROSPECT RD, FORT COLLINS, CO, 80525",188525454,"R"
276288,"703 E STATE RD 64","ENGLISH","IN",47118,38.3382167710001,-86.487594104,288,"703 E STATE RD 64, ENGLISH, IN, 47118","Match","Exact","703 STATE RD 64, ENGLISH, IN, 47118",606475994,"L"
276289,"703 E WINONA AVE","WARSAW","IN",46580,41.2352730580001,-85.848047002,289,"703 E WINONA AVE, WARSAW, IN, 46580","Match","Exact","703 E WINONA AVE, WARSAW, IN, 46580",7930768,"L"
276290,"703 EAST JACKSON","HUGO","OK",74743,34.010649517,-95.5050159899999,290,"703 EAST JACKSON, HUGO, OK, 74743","Match","Non_Exact","703 E JACKSON ST, HUGO, OK, 74743",63159066,"R"
276291,"703 EL PASEO ROAD","OJAI","CA",93023,34.4457783,-119.255689222,291,"703 EL PASEO ROAD, OJAI, CA, 93023","Match","Exact","703 EL PASEO RD, OJAI, CA, 93023",633613298,"R"
276292,"703 ELK ROAD","MONROEVILLE","NJ",8343,39.6578467250001,-75.1657887929999,292,"703 ELK ROAD, MONROEVILLE, NJ, 8343","Match","Exact","703 ELK RD, MONROEVILLE, NJ, 08343",623686078,"L"
276293,"703 EXCHANGE ST","ALDEN","NY",14004,42.8800819750001,-78.4965984949999,293,"703 EXCHANGE ST, ALDEN, NY, 14004","Match","Exact","703 EXCHANGE ST, ALDEN, NY, 14004",48314002,"R"
276294,"703 FALCON WAY","BRANDON","MS",39047,32.451215135,-89.969064458,294,"703 FALCON WAY, BRANDON, MS, 39047","Match","Exact","703 FALCON WAY, BRANDON, MS, 39047",641146616,"L"
276295,"703 FOOTHILL RD","BRIDGEWATER","NJ",8807,40.6112693970001,-74.622758695,295,"703 FOOTHILL RD, BRIDGEWATER, NJ, 8807","Match","Exact","703 FOOTHILL RD, BRIDGEWATER, NJ, 08807",60001731,"L"
276296,"703 FOSTER AVENUE 1ST FL","BROOKLYN","NY",11230,40.6308375,-73.969817991,296,"703 FOSTER AVENUE 1ST FL, BROOKLYN, NY, 11230","Match","Exact","703 FOSTER AVE, BROOKLYN, NY, 11230",59081098,"L"
276297,"703 FOX GLEN RD","LANCASTER","TX",75146,32.5922058940001,-96.799586684,297,"703 FOX GLEN RD, LANCASTER, TX, 75146","Match","Exact","703 FOX GLEN RD, LANCASTER, TX, 75146",102971735,"L"
276298,"703 GLEN IVY","MARIETTA","GA",30062,33.9636995920001,-84.524075807,298,"703 GLEN IVY, MARIETTA, GA, 30062","Match","Exact","703 GLEN IVY, MARIETTA, GA, 30062",17254907,"R"
276299,"703 GRANBERRY ST","HUMBLE","TX",77338,29.995857733,-95.260399234,299,"703 GRANBERRY ST, HUMBLE, TX, 77338","Match","Exact","703 GRANBERRY ST, HUMBLE, TX, 77338",96047237,"L"
276300,"703 GROVELAND ST","RUSTON","LA",71270,32.520213783,-92.6471420839999,300,"703 GROVELAND ST, RUSTON, LA, 71270","Match","Non_Exact","703 GROVELAND AVE, RUSTON, LA, 71270",164092581,"R"
276301,"703 GUNNISON CT","ARLINGTON","TX",76006,32.788402977,-97.108007191,301,"703 GUNNISON CT, ARLINGTON, TX, 76006","Match","Exact","703 GUNNISON CT, ARLINGTON, TX, 76006",101873426,"L"
276302,"703 HOLLANDALE ROAD","LA VERGNE","TN",37086,36.0525990190001,-86.54586627,302,"703 HOLLANDALE ROAD, LA VERGNE, TN, 37086","Match","Exact","703 HOLLANDALE RD, LA VERGNE, TN, 37086",651815999,"R"
276303,"703 HOMMANN AVE","PERTH AMBOY","NJ",8861,40.5254487220001,-74.2822681179999,303,"703 HOMMANN AVE, PERTH AMBOY, NJ, 8861","Match","Exact","703 HOMMANN AVE, PERTH AMBOY, NJ, 08861",60280327,"L"
276304,"703 HOOVER ST","HAMPTON","SC",29924,32.869666108,-81.1202001939999,304,"703 HOOVER ST, HAMPTON, SC, 29924","Match","Non_Exact","703 HOOVER ST S, HAMPTON, SC, 29924",33108745,"R"
276305,"703 HUXLEY PL","SUN CITY CENTER","FL",33573,27.7127207510001,-82.343667846,305,"703 HUXLEY PL, SUN CITY CENTER, FL, 33573","Match","Exact","703 HUXLEY PL, SUN CITY CENTER, FL, 33573",104646197,"R"
276306,"703 INDUSTIAL CIRCLE","PHENIX CITY","AL",36869,32.43115557,-84.988301894,306,"703 INDUSTIAL CIRCLE, PHENIX CITY, AL, 36869","Match","Non_Exact","703 INDUSTRIAL CIR, PHENIX CITY, AL, 36869",69269862,"L"
276307,"703 JALIN COVE","BENTON","AR",72019,34.5863928470001,-92.593033767,307,"703 JALIN COVE, BENTON, AR, 72019","Match","Exact","703 JALIN COVE, BENTON, AR, 72019",619933987,"L"
276308,"703 JEFFERY STREET","TAHLEQUAH","OK",74464,35.887573193,-94.968527224,308,"703 JEFFERY STREET, TAHLEQUAH, OK, 74464","Match","Exact","703 JEFFERY ST, TAHLEQUAH, OK, 74464",53614491,"L"
276309,"703 JOSEPHINE STREET","EAST MCKEESPORT","PA",15035,40.3856479790001,-79.8032547559999,309,"703 JOSEPHINE STREET, EAST MCKEESPORT, PA, 15035","Match","Exact","703 JOSEPHINE ST, E MCKEESPORT, PA, 15035",51935683,"L"
276310,"703 KALYN LN","MARIANNA","AR",72360,NA,NA,310,"703 KALYN LN, MARIANNA, AR, 72360","No_Match",NA,NA,NA,NA
276311,"703 MAIN AVE","NORTHPORT","AL",35476,33.220788785,-87.579130317,311,"703 MAIN AVE, NORTHPORT, AL, 35476","Match","Exact","703 MAIN AVE, NORTHPORT, AL, 35476",82146770,"R"
276312,"703 MAIN STREET","BLANCO","TX",78606,30.1006255090001,-98.421074759,312,"703 MAIN STREET, BLANCO, TX, 78606","Match","Exact","703 MAIN ST, BLANCO, TX, 78606",72142523,"L"
276313,"703 MAIN STREET","MONMOUTH","ME",4259,44.2350142010001,-70.036020654,313,"703 MAIN STREET, MONMOUTH, ME, 4259","Match","Exact","703 MAIN ST, MONMOUTH, ME, 04259",75475177,"L"
276314,"703 MCCORMICK RD","MECHANICSBURG","PA",17055,40.165979222,-76.949785842,314,"703 MCCORMICK RD, MECHANICSBURG, PA, 17055","Match","Exact","703 MCCORMICK RD, MECHANICSBURG, PA, 17055",647962016,"L"
276315,"703 MEADOWS DRIVE","BIRMINGHAM","AL",35235,33.5998585240001,-86.646438754,315,"703 MEADOWS DRIVE, BIRMINGHAM, AL, 35235","Match","Exact","703 MEADOWS DR, BIRMINGHAM, AL, 35235",81692255,"R"
276316,"703 MICHIGAN AVENUE","SOUTH MILWAUKEE","WI",53172,42.908738628,-87.855193702,316,"703 MICHIGAN AVENUE, SOUTH MILWAUKEE, WI, 53172","Match","Exact","703 MICHIGAN AVE, S MILWAUKEE, WI, 53172",77756679,"L"
276317,"703 MIRA MONTE PL","PASADENA","CA",91101,34.143618561,-118.136002826,317,"703 MIRA MONTE PL, PASADENA, CA, 91101","Match","Exact","703 MIRA MONTE PL, PASADENA, CA, 91101",141630690,"L"
276318,"703 N 13TH ST UNIT 208","ST LOUIS","MO",63104,NA,NA,318,"703 N 13TH ST UNIT 208, ST LOUIS, MO, 63104","No_Match",NA,NA,NA,NA
276319,"703 N 23RD ST","PADUCAH","KY",42001,37.0835048660001,-88.628355218,319,"703 N 23RD ST, PADUCAH, KY, 42001","Match","Exact","703 N 23RD ST, PADUCAH, KY, 42001",8393750,"L"
276320,"703 N 9TH ST","DE QUEEN","AR",71832,34.042861913,-94.3474221229999,320,"703 N 9TH ST, DE QUEEN, AR, 71832","Match","Exact","703 N 9TH ST, DE QUEEN, AR, 71832",84824030,"L"
276321,"703 N GONZALES ST","CUERO","TX",77954,29.095141551,-97.287795221,321,"703 N GONZALES ST, CUERO, TX, 77954","Match","Exact","703 N GONZALES ST, CUERO, TX, 77954",44115504,"R"
276322,"703 N JOE WILSON RD","CEDAR HILL","TX",75104,NA,NA,322,"703 N JOE WILSON RD, CEDAR HILL, TX, 75104","Tie",NA,NA,NA,NA
276323,"703 N MARSHALL STREET","CALEDONIA","MN",55921,43.639930646,-91.495842457,323,"703 N MARSHALL STREET, CALEDONIA, MN, 55921","Match","Exact","703 N MARSHALL ST, CALEDONIA, MN, 55921",55795082,"L"
276324,"703 N THOMPSON","SPRINGDALE","AR",72764,36.191645613,-94.138305461,324,"703 N THOMPSON, SPRINGDALE, AR, 72764","Match","Non_Exact","703 N THOMPSON ST, SPRINGDALE, AR, 72764",49043184,"R"
276325,"703 NE 1ST STREET","GAINESVILLE","FL",32601,29.6581599730001,-82.323961643,325,"703 NE 1ST STREET, GAINESVILLE, FL, 32601","Match","Exact","703 NE 1ST ST, GAINESVILLE, FL, 32601",6808508,"R"
276326,"703 NORTH 8TH STREET","PHILADELPHIA","PA",19123,39.9646365040001,-75.151234205,326,"703 NORTH 8TH STREET, PHILADELPHIA, PA, 19123","Match","Exact","703 N 8TH ST, PHILADELPHIA, PA, 19123",131422261,"R"
276327,"703 NORTH HOLCOMBE AVENUE","LITCHFIELD","MN",55355,45.133613784,-94.5252936859999,327,"703 NORTH HOLCOMBE AVENUE, LITCHFIELD, MN, 55355","Match","Exact","703 N HOLCOMBE AVE, LITCHFIELD, MN, 55355",36966362,"L"
276328,"703 NORTH MAIN STREET SUITE C","MARION","VA",24354,36.83925779,-81.510215137,328,"703 NORTH MAIN STREET SUITE C, MARION, VA, 24354","Match","Exact","703 N MAIN ST, MARION, VA, 24354",47191400,"L"
276329,"703 NORTH MAIN STREET","MARION","VA",24354,36.83925779,-81.510215137,329,"703 NORTH MAIN STREET, MARION, VA, 24354","Match","Exact","703 N MAIN ST, MARION, VA, 24354",47191400,"L"
276330,"703 OAK LANE","BRUNSWICK","GA",31523,31.226436139,-81.53184456,330,"703 OAK LANE, BRUNSWICK, GA, 31523","Match","Exact","703 OAK LN, BRUNSWICK, GA, 31523",9131151,"L"
276331,"703 OXFORD DR","BYRON","IL",61010,42.1351322990001,-89.278359794,331,"703 OXFORD DR, BYRON, IL, 61010","Match","Exact","703 OXFORD DR, BYRON, IL, 61010",52332219,"R"
276332,"703 PARK AVE APT 6","HOBOKEN","NJ",7030,40.745319533,-74.0313041639999,332,"703 PARK AVE APT 6, HOBOKEN, NJ, 7030","Match","Exact","703 PARK AVE, HOBOKEN, NJ, 07030",59606887,"R"
276333,"703 PARKSIDE TERRACE LANE","CHARLOTTE","NC",28202,35.2246931330001,-80.8331949889999,333,"703 PARKSIDE TERRACE LANE, CHARLOTTE, NC, 28202","Match","Exact","703 PARKSIDE TERRACE LN, CHARLOTTE, NC, 28202",70487497,"L"
276334,"703 PERCIFIELD TRAIL","ALVARADO","TX",76009,32.423719497,-97.240403817,334,"703 PERCIFIELD TRAIL, ALVARADO, TX, 76009","Match","Exact","703 PERCIFIELD TRL, ALVARADO, TX, 76009",225920783,"L"
276335,"703 PIER AVE STE B","HERMOSA BEACH","CA",90254,33.8648283480001,-118.394192283,335,"703 PIER AVE STE B, HERMOSA BEACH, CA, 90254","Match","Exact","703 PIER AVE, HERMOSA BEACH, CA, 90254",141583119,"L"
276336,"703 PIER AVE SUITE B422","HERMOSA BEACH","CA",90254,33.8648283480001,-118.394192283,336,"703 PIER AVE SUITE B422, HERMOSA BEACH, CA, 90254","Match","Exact","703 PIER AVE, HERMOSA BEACH, CA, 90254",141583119,"L"
276337,"703 PIER AVENUE SUITE B251","HERMOSA BEACH","CA",90254,33.8648283480001,-118.394192283,337,"703 PIER AVENUE SUITE B251, HERMOSA BEACH, CA, 90254","Match","Exact","703 PIER AVE, HERMOSA BEACH, CA, 90254",141583119,"L"
276338,"703 PINE STREET  PO BOX 439","ANDOVER","IL",61233,NA,NA,338,"703 PINE STREET  PO BOX 439, ANDOVER, IL, 61233","No_Match",NA,NA,NA,NA
276339,"703 RATCLIFFE AVE","RICHMOND","VA",23222,37.5844763320001,-77.42041912,339,"703 RATCLIFFE AVE, RICHMOND, VA, 23222","Match","Exact","703 RATCLIFFE AVE, RICHMOND, VA, 23222",106649259,"R"
276340,"703 ROOSEVELT ST","LAMARQUE","TX",77568,NA,NA,340,"703 ROOSEVELT ST, LAMARQUE, TX, 77568","No_Match",NA,NA,NA,NA
276341,"703 RUBY STREET","MARIETTA","GA",30066,33.993697497,-84.5303577889999,341,"703 RUBY STREET, MARIETTA, GA, 30066","Match","Exact","703 RUBY ST, MARIETTA, GA, 30066",601435871,"R"
276342,"703 S 11TH STREET","LA CRESCENT","MN",55947,43.8176226510001,-91.314016356,342,"703 S 11TH STREET, LA CRESCENT, MN, 55947","Match","Exact","703 S 11TH ST, LA CRESCENT, MN, 55947",55799628,"L"
276343,"703 S 25TH ST","HARRISBURG","PA",17111,40.2613132600001,-76.8439814389999,343,"703 S 25TH ST, HARRISBURG, PA, 17111","Match","Exact","703 S 25TH ST, HARRISBURG, PA, 17111",70821746,"L"
276344,"703 S 3RD STREET","PEKIN","IL",61554,40.563966212,-89.6516037659999,344,"703 S 3RD STREET, PEKIN, IL, 61554","Match","Exact","703 S 3RD ST, PEKIN, IL, 61554",22496705,"R"
276345,"703 S CALIFORNIA ST","TILDEN","NE",68781,42.0409541980001,-97.828833507,345,"703 S CALIFORNIA ST, TILDEN, NE, 68781","Match","Exact","703 CALIFORNIA ST, TILDEN, NE, 68781",161562684,"R"
276346,"703 S CHADBOURNE ST","SAN ANGELO","TX",76903,31.454307194,-100.434591064,346,"703 S CHADBOURNE ST, SAN ANGELO, TX, 76903","Match","Exact","703 S CHADBOURNE ST, SAN ANGELO, TX, 76903",190682980,"R"
276347,"703 S CLAREMONT AVE","CHICAGO","IL",60612,41.8728884540001,-87.6849765329999,347,"703 S CLAREMONT AVE, CHICAGO, IL, 60612","Match","Exact","703 S CLAREMONT AVE, CHICAGO, IL, 60612",605034631,"L"
276348,"703 S DECKER AVE","BALTIMORE","MD",21224,39.2842477200001,-76.573544663,348,"703 S DECKER AVE, BALTIMORE, MD, 21224","Match","Exact","703 S DECKER AVE, BALTIMORE, MD, 21224",206425292,"L"
276349,"703 S LEROY ST","FENTON","MI",48430,42.791283321,-83.705082381,349,"703 S LEROY ST, FENTON, MI, 48430","Match","Exact","703 S LEROY ST, FENTON, MI, 48430",69580229,"L"
276350,"703 S MAIN STREET","DUNKIRK","IN",47336,40.370263385,-85.213511307,350,"703 S MAIN STREET, DUNKIRK, IN, 47336","Match","Exact","703 S MAIN ST, DUNKIRK, IN, 47336",627094146,"R"
276351,"703 S MARSHALL ST","ROCK RAPIDS","IA",51246,43.424820879,-96.167033303,351,"703 S MARSHALL ST, ROCK RAPIDS, IA, 51246","Match","Exact","703 S MARSHALL ST, ROCK RAPIDS, IA, 51246",30199285,"L"
276352,"703 S WOODS STREET","ODIN","IL",62870,NA,NA,352,"703 S WOODS STREET, ODIN, IL, 62870","No_Match",NA,NA,NA,NA
276353,"703 SAINTS RETREAT","SAN ANTONIO","TX",78220,29.4186133320001,-98.377956265,353,"703 SAINTS RETREAT, SAN ANTONIO, TX, 78220","Match","Exact","703 SAINTS RETREAT, SAN ANTONIO, TX, 78220",101692694,"R"
276354,"703 SANDALWOOD DRIVE","EL CENTRO","CA",92243,32.7820551790001,-115.559244837,354,"703 SANDALWOOD DRIVE, EL CENTRO, CA, 92243","Match","Exact","703 SANDALWOOD DR, EL CENTRO, CA, 92243",194494363,"L"
276355,"703 SCIROCCO DRIVE","YUBA CITY","CA",95991,39.108834057,-121.620365974,355,"703 SCIROCCO DRIVE, YUBA CITY, CA, 95991","Match","Exact","703 SCIROCCO DR, YUBA CITY, CA, 95991",68582537,"R"
276356,"703 SECOND STREET SUITE 447","SANTA ROSA","CA",95404,38.439860906,-122.71116053,356,"703 SECOND STREET SUITE 447, SANTA ROSA, CA, 95404","Match","Exact","703 2ND ST, SANTA ROSA, CA, 95404",67469953,"L"
276357,"703 SEMINOLE ST","CLEARWATER","FL",33755,27.973609411,-82.796627756,357,"703 SEMINOLE ST, CLEARWATER, FL, 33755","Match","Exact","703 SEMINOLE ST, CLEARWATER, FL, 33755",124664337,"R"
276358,"703 SERENADE DR","SAN ANTONIO","TX",78216,29.5427192930001,-98.5035082749999,358,"703 SERENADE DR, SAN ANTONIO, TX, 78216","Match","Exact","703 SERENADE DR, SAN ANTONIO, TX, 78216",101496614,"R"
276359,"703 SETH CT","TOWSON","MD",21286,39.404513808,-76.5833698989999,359,"703 SETH CT, TOWSON, MD, 21286","Match","Exact","703 SETH CT, TOWSON, MD, 21286",191475170,"R"
276360,"703 SHERWOOD RD","LA GRANGE PARK","IL",60526,41.8272901390001,-87.868960091,360,"703 SHERWOOD RD, LA GRANGE PARK, IL, 60526","Match","Exact","703 SHERWOOD RD, LA GRANGE PARK, IL, 60526",111790111,"R"
276361,"703 SKY RIDGE DR","MADISON","WI",53719,43.0501649440001,-89.511090349,361,"703 SKY RIDGE DR, MADISON, WI, 53719","Match","Exact","703 SKY RIDGE DR, MADISON, WI, 53719",49537367,"L"
276362,"703 SLEEPYHOLLOW RD","WOODWAY","TX",76712,31.504207449,-97.229720184,362,"703 SLEEPYHOLLOW RD, WOODWAY, TX, 76712","Match","Non_Exact","703 SLEEPY HOLLOW RD, WOODWAY, TX, 76712",146741471,"R"
276363,"703 SOUTH 5TH STREET","COLLINS","MS",39428,31.639428163,-89.554656757,363,"703 SOUTH 5TH STREET, COLLINS, MS, 39428","Match","Exact","703 S 5TH ST, COLLINS, MS, 39428",2908192,"L"
276364,"703 SOUTH ADAMS STREET","QUINCY","FL",32351,30.577358035,-84.5760786009999,364,"703 SOUTH ADAMS STREET, QUINCY, FL, 32351","Match","Exact","703 S ADAMS ST, QUINCY, FL, 32351",87816836,"R"
276365,"703 SOUTH LANE","BROWNFIELD","TX",79316,33.188788668,-102.267302409,365,"703 SOUTH LANE, BROWNFIELD, TX, 79316","Match","Non_Exact","703 SOUTH LN, BROWNFIELD, TX, 79316",639601228,"R"
276366,"703 SOUTH PARK DRIVE","RAYMORE","MO",64083,38.79443853,-94.462789732,366,"703 SOUTH PARK DRIVE, RAYMORE, MO, 64083","Match","Exact","703 S PARK DR, RAYMORE, MO, 64083",100914829,"L"
276367,"703 SOUTH STATE STREET","BELVIDERE","IL",61008,42.2535481800001,-88.839083438,367,"703 SOUTH STATE STREET, BELVIDERE, IL, 61008","Match","Exact","703 S STATE ST, BELVIDERE, IL, 61008",92156348,"R"
276368,"703 SPINNAKER STREET","MIDDLETOWN","DE",19709,39.481270355,-75.680983007,368,"703 SPINNAKER STREET, MIDDLETOWN, DE, 19709","Match","Exact","703 SPINNAKER ST, MIDDLETOWN, DE, 19709",187282240,"R"
276369,"703 SUMMER CROSSING","SANDY SPRINGS","GA",30350,34.000130271,-84.3345263799999,369,"703 SUMMER CROSSING, SANDY SPRINGS, GA, 30350","Match","Exact","703 SUMMER CROSSING, SANDY SPRINGS, GA, 30350",17402887,"R"
276370,"703 TAVANT PLACE","DELRAY BEACH","FL",33445,NA,NA,370,"703 TAVANT PLACE, DELRAY BEACH, FL, 33445","No_Match",NA,NA,NA,NA
276371,"703 THELMA ST","TALLULAH","LA",71282,32.409763647,-91.198447437,371,"703 THELMA ST, TALLULAH, LA, 71282","Match","Non_Exact","703 W THELMA ST, TALLULAH, LA, 71282",71171807,"L"
276372,"703 THIMBLE SHOALS BLVD","NEWPORT NEWS","VA",23606,37.085109231,-76.474239908,372,"703 THIMBLE SHOALS BLVD, NEWPORT NEWS, VA, 23606","Match","Exact","703 THIMBLE SHOALS BLVD, NEWPORT NEWS, VA, 23606",225656540,"L"
276373,"703 THORNBURY RD","BARTLETT","IL",60103,42.011662599,-88.231798285,373,"703 THORNBURY RD, BARTLETT, IL, 60103","Match","Exact","703 THORNBURY RD, BARTLETT, IL, 60103",634223627,"R"
276374,"703 THRUSH DRIVE","LEANDER","TX",78641,30.567560224,-97.8386472829999,374,"703 THRUSH DRIVE, LEANDER, TX, 78641","Match","Exact","703 THRUSH DR, LEANDER, TX, 78641",636383702,"L"
276375,"703 VISTA CIRCLE","PORT ORANGE","FL",32127,NA,NA,375,"703 VISTA CIRCLE, PORT ORANGE, FL, 32127","No_Match",NA,NA,NA,NA
276376,"703 W 15TH STREET","ANDERSON","IN",46016,40.10106835,-85.6891624849999,376,"703 W 15TH STREET, ANDERSON, IN, 46016","Match","Exact","703 W 15TH ST, ANDERSON, IN, 46016",31113627,"L"
276377,"703 W 2ND AVE","CHICO","CA",95926,39.735485861,-121.85592293,377,"703 W 2ND AVE, CHICO, CA, 95926","Match","Exact","703 W 2ND AVE, CHICO, CA, 95926",68473358,"L"
276378,"703 W BOURBON ST","ELDON","MO",65026,38.356227039,-92.5904141029999,378,"703 W BOURBON ST, ELDON, MO, 65026","Match","Exact","703 W BOURBON ST, ELDON, MO, 65026",143096285,"R"
276379,"703 W CONSTITUTION DRIVE","GILBERT","AZ",85233,33.3223083300001,-111.805487743,379,"703 W CONSTITUTION DRIVE, GILBERT, AZ, 85233","Match","Exact","703 W CONSTITUTION DR, GILBERT, AZ, 85233",128796407,"R"
276380,"703 W GOURLEY PIKE APT 135","BLOOMINGTON","IN",47404,NA,NA,380,"703 W GOURLEY PIKE APT 135, BLOOMINGTON, IN, 47404","Tie",NA,NA,NA,NA
276381,"703 W HOOKS RIVER RD","GOLDSBORO","NC",27530,35.411265084,-77.997028821,381,"703 W HOOKS RIVER RD, GOLDSBORO, NC, 27530","Match","Exact","703 W HOOKS RIVER RD, GOLDSBORO, NC, 27530",14402973,"R"
276382,"703 W LANCASTER BLVD","LANCASTER","CA",93534,34.697810975,-118.142244443,382,"703 W LANCASTER BLVD, LANCASTER, CA, 93534","Match","Exact","703 W LANCASTER BLVD, LANCASTER, CA, 93534",141526423,"L"
276383,"703 W PARK ST","CAYUGA","IN",47928,39.9410637080001,-87.466627622,383,"703 W PARK ST, CAYUGA, IN, 47928","Match","Exact","703 W PARK ST, CAYUGA, IN, 47928",66509688,"R"
276384,"703 WALKER DRIVE","INTERLACHEN","FL",32148,29.689262102,-81.8742577419999,384,"703 WALKER DRIVE, INTERLACHEN, FL, 32148","Match","Exact","703 WALKER DR, INTERLACHEN, FL, 32148",613347295,"L"
276385,"703 WASHINGTON AVENUE 416","TOWSON","MD",21204,39.403006729,-76.604372167,385,"703 WASHINGTON AVENUE 416, TOWSON, MD, 21204","Match","Exact","703 WASHINGTON AVE, TOWSON, MD, 21204",191473533,"R"
276386,"703 WEISS AVE","FAYETTEVILLE","NC",28305,35.0446937560001,-78.8963380719999,386,"703 WEISS AVE, FAYETTEVILLE, NC, 28305","Match","Exact","703 WEISS AVE, FAYETTEVILLE, NC, 28305",64201932,"L"
276387,"703 WEST AGENCY ROAD","WEST BURLINGOTN","IA",52655,40.812336461,-91.164743051,387,"703 WEST AGENCY ROAD, WEST BURLINGOTN, IA, 52655","Match","Non_Exact","703 W AGENCY RD, W BURLINGTON, IA, 52655",5548478,"R"
276388,"703 WEST MAIN STREET - 2ND FLOOR","WEST DUNDEE","IL",60118,42.098106719,-88.285403203,388,"703 WEST MAIN STREET - 2ND FLOOR, WEST DUNDEE, IL, 60118","Match","Exact","703 W MAIN ST, WEST DUNDEE, IL, 60118",119500381,"L"
276389,"703 WILLIAMSBURG","ENNIS","TX",75119,32.3255488070001,-96.646744977,389,"703 WILLIAMSBURG, ENNIS, TX, 75119","Match","Non_Exact","703 WILLIAMSBURG DR, ENNIS, TX, 75119",103473295,"R"
276390,"703 WORLEY ROAD","GREENVILLE","SC",29609,34.882634185,-82.3915024,390,"703 WORLEY ROAD, GREENVILLE, SC, 29609","Match","Exact","703 WORLEY RD, GREENVILLE, SC, 29609",38324864,"L"
276391,"703","TROY","IL",62294,NA,NA,391,"703, TROY, IL, 62294","No_Match",NA,NA,NA,NA
276392,"7030 88TH AVE N","PINELLAS PARK","FL",33782,27.8523805840001,-82.7359313699999,392,"7030 88TH AVE N, PINELLAS PARK, FL, 33782","Match","Exact","7030 88TH AVE N, PINELLAS PARK, FL, 33782",645833016,"R"
276393,"7030 CARSON RD","EVERETT","WA",98203,47.9343959730001,-122.225655283,393,"7030 CARSON RD, EVERETT, WA, 98203","Match","Exact","7030 CARSON RD, EVERETT, WA, 98203",624946444,"R"
276394,"7030 CLIFTON KNOLL CT","ALEXANDRIA","VA",22315,38.766003912,-77.129605963,394,"7030 CLIFTON KNOLL CT, ALEXANDRIA, VA, 22315","Match","Exact","7030 CLIFTON KNOLL CT, ALEXANDRIA, VA, 22315",611897605,"L"
276395,"7030 COFFMAN ROAD","DUBLIN","OH",43017,40.1112032560001,-83.132312579,395,"7030 COFFMAN ROAD, DUBLIN, OH, 43017","Match","Exact","7030 COFFMAN RD, DUBLIN, OH, 43017",218687367,"R"
276396,"7030 ELLINGTON FARM LANE","CHARLOTTE","NC",28227,35.170046386,-80.675877379,396,"7030 ELLINGTON FARM LANE, CHARLOTTE, NC, 28227","Match","Exact","7030 ELLINGTON FARM LN, CHARLOTTE, NC, 28227",70547402,"R"
276397,"7030 GORHAM LANE","LA PLATA","MD",20646,38.519815828,-77.09789431,397,"7030 GORHAM LANE, LA PLATA, MD, 20646","Match","Exact","7030 GORHAM LN, LA PLATA, MD, 20646",25421922,"L"
276398,"7030 HUMBOLDT AVENUE NORTH","BROOKLYN CENTER","MN",55430,45.0824395590001,-93.300279319,398,"7030 HUMBOLDT AVENUE NORTH, BROOKLYN CENTER, MN, 55430","Match","Exact","7030 HUMBOLDT AVE N, BROOKLYN CENTER, MN, 55430",43616264,"R"
276399,"7030 LOCKWOOD BLVD","BOARDMAN","OH",44512,41.029816844,-80.707729882,399,"7030 LOCKWOOD BLVD, BOARDMAN, OH, 44512","Match","Exact","7030 LOCKWOOD BLVD, BOARDMAN, OH, 44512",64615819,"R"
276400,"7030 LYDIA LANE","WOODBURY","MN",55125,44.895179295,-92.9629993619999,400,"7030 LYDIA LANE, WOODBURY, MN, 55125","Match","Exact","7030 LYDIA LN, WOODBURY, MN, 55125",97838839,"R"
276401,"7030 MAPLE TERRACE","WAUWATOSA","WI",53213,43.042342633,-88.000418177,401,"7030 MAPLE TERRACE, WAUWATOSA, WI, 53213","Match","Exact","7030 MAPLE TER, WAUWATOSA, WI, 53213",77732694,"R"
276402,"7030 NORTH AUGUSTA DRIVE","HIALEAH","FL",33015,25.95611867,-80.316218213,402,"7030 NORTH AUGUSTA DRIVE, HIALEAH, FL, 33015","Match","Exact","7030 N AUGUSTA DR, HIALEAH, FL, 33015",116022514,"L"
276403,"7030 RUBY CTS","YOUNGSTOWN","OH",44515,41.0827999360001,-80.7979447009999,403,"7030 RUBY CTS, YOUNGSTOWN, OH, 44515","Match","Exact","7030 RUBY CTS, YOUNGSTOWN, OH, 44515",64607968,"L"
276404,"7030 S PAXTON","CHICAGO","IL",60649,41.767148837,-87.57143565,404,"7030 S PAXTON, CHICAGO, IL, 60649","Match","Non_Exact","7030 S PAXTON AVE, CHICAGO, IL, 60649",605536180,"R"
276405,"7030 SMOKE RANCH RD","LAS VEGAS","NV",89149,36.2034152100001,-115.246526601,405,"7030 SMOKE RANCH RD, LAS VEGAS, NV, 89149","Match","Non_Exact","7030 SMOKE RANCH RD, LAS VEGAS, NV, 89128",201982601,"R"
276406,"7030 SOUTH YALE SUITE 710","TULSA","OK",74136,36.0619843920001,-95.922069855,406,"7030 SOUTH YALE SUITE 710, TULSA, OK, 74136","Match","Non_Exact","7030 S YALE AVE, TULSA, OK, 74136",166504137,"R"
276407,"7030 STEFANI DRIVE","DALLAS","TX",75225,32.8783699310001,-96.7842841089999,407,"7030 STEFANI DRIVE, DALLAS, TX, 75225","Match","Exact","7030 STEFANI DR, DALLAS, TX, 75225",102902298,"R"
276408,"7030 STROUF AVE SE","SNOQUALMIE","WA",98065,47.5376664950001,-121.889639626,408,"7030 STROUF AVE SE, SNOQUALMIE, WA, 98065","Match","Exact","7030 STROUF AVE SE, SNOQUALMIE, WA, 98065",617980825,"L"
276409,"7030 TACOMA MALL BLVD SUITE 100","TACOMA","WA",98409,47.1934149620001,-122.463095624,409,"7030 TACOMA MALL BLVD SUITE 100, TACOMA, WA, 98409","Match","Exact","7030 TACOMA MALL BLVD, TACOMA, WA, 98409",184761431,"R"
276410,"7030 W 23","ODESSA","TX",79763,31.8448067840001,-102.456392413,410,"7030 W 23, ODESSA, TX, 79763","Match","Non_Exact","7030 W 23RD ST, ODESSA, TX, 79763",139425951,"R"
276411,"7030 W EMILE ZOLA AVE","PEORIA","AZ",85381,33.6073818420001,-112.209958903,411,"7030 W EMILE ZOLA AVE, PEORIA, AZ, 85381","Match","Exact","7030 W EMILE ZOLA AVE, PEORIA, AZ, 85381",128282593,"L"
276412,"7030 WILSON","MORTON GROVE","IL",60053,42.052698693,-87.801471589,412,"7030 WILSON, MORTON GROVE, IL, 60053","Match","Non_Exact","7030 WILSON TER, MORTON GROVE, IL, 60053",111734453,"R"
276413,"7030 WOODCREST FARM LN","HILLSBOROUGH","NC",27278,NA,NA,413,"7030 WOODCREST FARM LN, HILLSBOROUGH, NC, 27278","No_Match",NA,NA,NA,NA
276414,"7031 168TH STREET","TINLEY PARK","IL",60477,41.58584317,-87.790430078,414,"7031 168TH STREET, TINLEY PARK, IL, 60477","Match","Exact","7031 168TH ST, TINLEY PARK, IL, 60477",112222027,"L"
276415,"7031 BOYER ST","PHILADELPHIA","PA",19119,40.0606463240001,-75.185656109,415,"7031 BOYER ST, PHILADELPHIA, PA, 19119","Match","Exact","7031 BOYER ST, PHILADELPHIA, PA, 19119",131395160,"R"
276416,"7031 CALVIN DRIVE","CITRUS HEIGHTS","CA",95621,38.698741763,-121.304131821,416,"7031 CALVIN DRIVE, CITRUS HEIGHTS, CA, 95621","Match","Exact","7031 CALVIN DR, CITRUS HEIGHTS, CA, 95621",133341840,"L"
276417,"7031 CRADLEROCK FARM CT","COLUMBIA","MD",21045,39.189961349,-76.8403318589999,417,"7031 CRADLEROCK FARM CT, COLUMBIA, MD, 21045","Match","Exact","7031 CRADLEROCK FARM CT, COLUMBIA, MD, 21045",647296084,"L"
276418,"7031 HOLLY HILL DR UNIT 17","DALLAS","TX",75231,32.87399313,-96.760875326,418,"7031 HOLLY HILL DR UNIT 17, DALLAS, TX, 75231","Match","Exact","7031 HOLLY HILL DR, DALLAS, TX, 75231",611393072,"L"
276419,"7031 KENMARE DR","BLOOMINGTON","MN",55438,44.796437967,-93.376796805,419,"7031 KENMARE DR, BLOOMINGTON, MN, 55438","Match","Exact","7031 KENMARE DR, BLOOMINGTON, MN, 55438",43848407,"R"
276420,"7031 LOS VIENTOS SERENOS","ESCONDIDO","CA",92029,33.0754324480001,-117.181759405,420,"7031 LOS VIENTOS SERENOS, ESCONDIDO, CA, 92029","Match","Exact","7031 LOS VIENTOS SERENOS, ESCONDIDO, CA, 92029",195369395,"R"
276421,"7031 LOUISVILLE ROAD","BOWLING GREEN","KY",42101,37.037639229,-86.336226918,421,"7031 LOUISVILLE ROAD, BOWLING GREEN, KY, 42101","Match","Exact","7031 LOUISVILLE RD, BOWLING GREEN, KY, 42101",647491086,"L"
276422,"7031 N CITRUS ROAD","WADDELL","AZ",85355,33.5382196080001,-112.444125937,422,"7031 N CITRUS ROAD, WADDELL, AZ, 85355","Match","Exact","7031 N CITRUS RD, WADDELL, AZ, 85355",128165742,"R"
276423,"7031 NALL AVE","PRAIRIE VILLAGE","KS",66208,39.0011112820001,-94.649058555,423,"7031 NALL AVE, PRAIRIE VILLAGE, KS, 66208","Match","Exact","7031 NALL AVE, PRAIRIE VLG, KS, 66208",91278141,"L"
276424,"7031 RAVENNA AVE NE","SEATTLE","WA",98115,47.679706707,-122.303916828,424,"7031 RAVENNA AVE NE, SEATTLE, WA, 98115","Match","Exact","7031 RAVENNA AVE NE, SEATTLE, WA, 98115",186585490,"L"
276425,"7031 THORNCLIFF DR","CHARLOTTE","NC",28210,35.134916951,-80.8706155209999,425,"7031 THORNCLIFF DR, CHARLOTTE, NC, 28210","Match","Exact","7031 THORNCLIFF DR, CHARLOTTE, NC, 28210",70486721,"L"
276426,"7031 TIMBER EDGE LANE","HUMBLE","TX",77346,29.9849313510001,-95.173228728,426,"7031 TIMBER EDGE LANE, HUMBLE, TX, 77346","Match","Exact","7031 TIMBER EDGE LN, HUMBLE, TX, 77346",628004846,"L"
276427,"7031 WHITNEY--ASHTON LANE","WESLEY CHAPEL","FL",33545,NA,NA,427,"7031 WHITNEY--ASHTON LANE, WESLEY CHAPEL, FL, 33545","No_Match",NA,NA,NA,NA
276428,"70310 STATE HIGHWAY 74","MOUNTAIN CENTER","CA",92561,NA,NA,428,"70310 STATE HIGHWAY 74, MOUNTAIN CENTER, CA, 92561","No_Match",NA,NA,NA,NA
276429,"70318 NE CHINOOK CT","CASCADE LOCKS","OR",97014,45.632962191,-121.958628575,429,"70318 NE CHINOOK CT, CASCADE LOCKS, OR, 97014","Match","Exact","70318 NE CHINOOK CT, CASCADE LOCKS, OR, 97014",157490736,"R"
276430,"7032 EDGEWORTH DR","ORLANDO","FL",32819,28.4689341000001,-81.479649508,430,"7032 EDGEWORTH DR, ORLANDO, FL, 32819","Match","Exact","7032 EDGEWORTH DR, ORLANDO, FL, 32819",606124266,"R"
276431,"7032 HYDE PARK DRIVE","INDIAN TRAIL","NC",28079,35.1191666770001,-80.6377609579999,431,"7032 HYDE PARK DRIVE, INDIAN TRAIL, NC, 28079","Match","Exact","7032 HYDE PARK DR, INDIAN TRAIL, NC, 28079",634087110,"R"
276432,"7032 IGOU GAP ROAD","CHATTANOOGA","TN",37421,35.02970788,-85.166084244,432,"7032 IGOU GAP ROAD, CHATTANOOGA, TN, 37421","Match","Exact","7032 IGOU GAP RD, CHATTANOOGA, TN, 37421",59317404,"R"
276433,"7032 JAGGED ROCK","COLORADO SPRINGS","CO",80927,38.933370466,-104.666191101,433,"7032 JAGGED ROCK, COLORADO SPRINGS, CO, 80927","Match","Non_Exact","7032 JAGGED ROCK CIR, COLORADO SPRINGS, CO, 80927",649672644,"L"
276434,"7032 LUXBOROUGH DRIVE","PLANO","TX",75024,33.0741066370001,-96.85434451,434,"7032 LUXBOROUGH DRIVE, PLANO, TX, 75024","Match","Exact","7032 LUXBOROUGH DR, PLANO, TX, 75024",635755504,"L"
276435,"7032 N 56TH AVENUE","GLENDALE","AZ",85301,33.5393782250001,-112.179957201,435,"7032 N 56TH AVENUE, GLENDALE, AZ, 85301","Match","Exact","7032 N 56TH AVE, GLENDALE, AZ, 85301",128193074,"L"
276436,"7032 QUANDER RD","ALEXANDRIA","VA",22307,38.7652031750001,-77.063118603,436,"7032 QUANDER RD, ALEXANDRIA, VA, 22307","Match","Exact","7032 QUANDER RD, ALEXANDRIA, VA, 22307",75990029,"R"
276437,"7032 S WENTWORTH AVENUE","CHICAGO","IL",60621,41.766980076,-87.629816384,437,"7032 S WENTWORTH AVENUE, CHICAGO, IL, 60621","Match","Exact","7032 S WENTWORTH AVE, CHICAGO, IL, 60621",111831268,"R"
276438,"7032 SOUTHGATE DR SE","OWENS CROSS ROADS","AL",35763,34.643441099,-86.476687921,438,"7032 SOUTHGATE DR SE, OWENS CROSS ROADS, AL, 35763","Match","Non_Exact","7032 SOUTHGATE DR, OWENS CROSS ROADS, AL, 35763",627658975,"L"
276439,"7032 YORKTOWN DRIVE","NEW ORLEANS","LA",70127,30.0344306600001,-89.989057804,439,"7032 YORKTOWN DRIVE, NEW ORLEANS, LA, 70127","Match","Exact","7032 YORKTOWN DR, NEW ORLEANS, LA, 70127",191720738,"L"
276440,"70324 MENUET ROAD","MANDEVILLE","LA",70471,30.4547945200001,-90.032882848,440,"70324 MENUET ROAD, MANDEVILLE, LA, 70471","Match","Exact","70324 MENUET RD, MANDEVILLE, LA, 70471",111235482,"R"
276441,"7033 BEECHMONT TERRACE","BRADENTON","FL",34202,27.391218802,-82.4069951879999,441,"7033 BEECHMONT TERRACE, BRADENTON, FL, 34202","Match","Exact","7033 BEECHMONT TER, BRADENTON, FL, 34202",16275960,"R"
276442,"7033 KING ROAD UNIT A","LOOMIS","CA",95650,38.825341399,-121.17252449,442,"7033 KING ROAD UNIT A, LOOMIS, CA, 95650","Match","Exact","7033 KING RD, LOOMIS, CA, 95650",106769261,"L"
276443,"7033 PIN CHERRY LANE","PORT RICHEY","FL",34668,28.2769514230001,-82.6987102049999,443,"7033 PIN CHERRY LANE, PORT RICHEY, FL, 34668","Match","Exact","7033 PIN CHERRY LN, PORT RICHEY, FL, 34668",86375201,"R"
276444,"7033 POTTS HILL RD","BAINBRIDGE","OH",45612,39.1971389780001,-83.1709816159999,444,"7033 POTTS HILL RD, BAINBRIDGE, OH, 45612","Match","Exact","7033 POTTS HILL RD, BAINBRIDGE, OH, 45612",37493086,"R"
276445,"7033 QUARTZ AVENUE","WINNETKA","CA",91306,34.198000968,-118.564432817,445,"7033 QUARTZ AVENUE, WINNETKA, CA, 91306","Match","Exact","7033 QUARTZ AVE, WINNETKA, CA, 91306",141553587,"L"
276446,"7033 SAND HILL ROAD","AKRON","NY",14001,43.039468943,-78.5602420989999,446,"7033 SAND HILL ROAD, AKRON, NY, 14001","Match","Exact","7033 SAND HILL RD, AKRON, NY, 14001",48312520,"R"
276447,"7033 WEST SUNRISE BLVD","PLANTATION","FL",33313,26.1484876550001,-80.24208004,447,"7033 WEST SUNRISE BLVD, PLANTATION, FL, 33313","Match","Exact","7033 W SUNRISE BLVD, PLANTATION, FL, 33313",637266365,"L"
276448,"7034 2ND STREET NW","ALBUQUERQUE","NM",87107,35.1589440450001,-106.630553443,448,"7034 2ND STREET NW, ALBUQUERQUE, NM, 87107","Match","Exact","7034 2ND ST NW, ALBUQUERQUE, NM, 87107",206703492,"R"
276449,"7034 DINWIDDIE ST","DOWNEY","CA",90241,33.951940527,-118.155682003,449,"7034 DINWIDDIE ST, DOWNEY, CA, 90241","Match","Exact","7034 DINWIDDIE ST, DOWNEY, CA, 90241",142771931,"R"
276450,"7034 LANGDON LN","HOUSTON","TX",77074,29.6947104750001,-95.507062262,450,"7034 LANGDON LN, HOUSTON, TX, 77074","Match","Exact","7034 LANGDON LN, HOUSTON, TX, 77074",96037469,"R"
276451,"70341 GULTCH ST","ABITA SPRINGS","LA",70420,NA,NA,451,"70341 GULTCH ST, ABITA SPRINGS, LA, 70420","No_Match",NA,NA,NA,NA
276452,"7035 BLAIR RD NW APT 431","WASHINGTON","DC",20012,38.975160003,-77.018830086,452,"7035 BLAIR RD NW APT 431, WASHINGTON, DC, 20012","Match","Exact","7035 BLAIR RD NW, WASHINGTON, DC, 20012",647587242,"R"
276453,"7035 DUBONNET CT","INDIANAPOLIS","IN",46278,39.8895337540001,-86.285691287,453,"7035 DUBONNET CT, INDIANAPOLIS, IN, 46278","Match","Exact","7035 DUBONNET CT, INDIANAPOLIS, IN, 46278",107975014,"L"
276454,"7035 HIGHWAY HIGHWAY 6 S","HOUSTON","TX",77083,NA,NA,454,"7035 HIGHWAY HIGHWAY 6 S, HOUSTON, TX, 77083","No_Match",NA,NA,NA,NA
276455,"7035 MAPLE PARK LANE","CHARLOTTE","NC",28269,35.3145805120001,-80.828919732,455,"7035 MAPLE PARK LANE, CHARLOTTE, NC, 28269","Match","Exact","7035 MAPLE PARK LN, CHARLOTTE, NC, 28269",70605961,"L"
276456,"7035 N FRUIT AVE","FRESNO","CA",93711,36.8385037960001,-119.817362636,456,"7035 N FRUIT AVE, FRESNO, CA, 93711","Match","Exact","7035 N FRUIT AVE, FRESNO, CA, 93711",197567076,"L"
276457,"7035 NORTH WILLIAMS AVENUE","PORTLAND","OR",97217,45.5737270020001,-122.666798026,457,"7035 NORTH WILLIAMS AVENUE, PORTLAND, OR, 97217","Match","Exact","7035 N WILLIAMS AVE, PORTLAND, OR, 97217",157502183,"L"
276458,"7035 SPARTAN DRIVE","HUDSON","NC",28638,35.8236324000001,-81.4523726259999,458,"7035 SPARTAN DRIVE, HUDSON, NC, 28638","Match","Exact","7035 SPARTAN DR, HUDSON, NC, 28638",45859693,"L"
276459,"7035 SUMMIT RIDGE CHASE","CUMMING","GA",30041,34.2997938520001,-84.0533771789999,459,"7035 SUMMIT RIDGE CHASE, CUMMING, GA, 30041","Match","Exact","7035 SUMMIT RIDGE CHASE, CUMMING, GA, 30041",629548626,"L"
276460,"7035 SURREY DR","WOODSTOCK","GA",30189,34.1456558090001,-84.5887261729999,460,"7035 SURREY DR, WOODSTOCK, GA, 30189","Match","Exact","7035 SURREY DR, WOODSTOCK, GA, 30189",68836373,"L"
276461,"7035 SW 53RD","PORTLAND","OR",97219,45.473822027,-122.731522942,461,"7035 SW 53RD, PORTLAND, OR, 97219","Match","Non_Exact","7035 SW 53RD AVE, PORTLAND, OR, 97219",157496604,"R"
276462,"7036 BISANER STREET","CHARLOTTE","NC",28269,35.3114164080001,-80.7940714809999,462,"7036 BISANER STREET, CHARLOTTE, NC, 28269","Match","Exact","7036 BISANER ST, CHARLOTTE, NC, 28269",70613632,"L"
276463,"7036 DE LA VINA DRIVE","EL DORADO HILLS","CA",95630,38.625394934,-121.072513767,463,"7036 DE LA VINA DRIVE, EL DORADO HILLS, CA, 95630","Match","Non_Exact","7036 DE LA VINA DR, EL DORADO HLS, CA, 95762",650786702,"R"
276464,"7036 HOWARD SCHOOL ROAD","MARYVILLE","TN",37801,35.6103894760001,-84.146979917,464,"7036 HOWARD SCHOOL ROAD, MARYVILLE, TN, 37801","Match","Exact","7036 HOWARD SCHOOL RD, MARYVILLE, TN, 37801",89829272,"R"
276465,"7036 MACBETH WAY","SYKESVILLE","MD",21784,39.38544232,-76.931760089,465,"7036 MACBETH WAY, SYKESVILLE, MD, 21784","Match","Exact","7036 MACBETH WAY, SYKESVILLE, MD, 21784",61756187,"R"
276466,"7036 QUAIL AVE N","MINNEAPOLIS","MN",55429,45.0821580840001,-93.3448407609999,466,"7036 QUAIL AVE N, MINNEAPOLIS, MN, 55429","Match","Exact","7036 QUAIL AVE N, MINNEAPOLIS, MN, 55429",43843114,"R"
276467,"7036 SILVER KNOLL ST","RIO LINDA","CA",95673,38.6960847660001,-121.454994674,467,"7036 SILVER KNOLL ST, RIO LINDA, CA, 95673","Match","Exact","7036 SILVER KNOLL ST, RIO LINDA, CA, 95673",133319707,"R"
276468,"7036 W 96TH STREET","OAK LAWN","IL",60453,41.717488416,-87.794938244,468,"7036 W 96TH STREET, OAK LAWN, IL, 60453","Match","Exact","7036 W 96TH ST, OAK LAWN, IL, 60453",111812100,"R"
276469,"7037 BRIGGS DR","SACRAMENTO","CA",95831,38.499634384,-121.418624749,469,"7037 BRIGGS DR, SACRAMENTO, CA, 95831","Match","Non_Exact","7037 BRIGGS DR, SACRAMENTO, CA, 95828",133353361,"L"
276470,"7037 HARDNOSE LN","FORT WORTH","TX",76135,32.8297552240001,-97.5065026189999,470,"7037 HARDNOSE LN, FORT WORTH, TX, 76135","Match","Exact","7037 HARDNOSE LN, FORT WORTH, TX, 76135",617674152,"R"
276471,"7037 NORTHRIDGE DR","NASHVILLE","TN",37221,36.0611368840001,-86.953757986,471,"7037 NORTHRIDGE DR, NASHVILLE, TN, 37221","Match","Exact","7037 NORTHRIDGE DR, NASHVILLE, TN, 37221",97214354,"R"
276472,"7037 S BENNETT","CHICAGO","IL",60649,41.767035709,-87.578771793,472,"7037 S BENNETT, CHICAGO, IL, 60649","Match","Non_Exact","7037 S BENNETT AVE, CHICAGO, IL, 60649",111774638,"L"
276473,"7037 W BLUEWATER HIGHWAY","SARANAC","MI",48881,NA,NA,473,"7037 W BLUEWATER HIGHWAY, SARANAC, MI, 48881","Tie",NA,NA,NA,NA
276474,"7037 YUKON WAY","FERNDALE","WA",98248,48.89589906,-122.67974695,474,"7037 YUKON WAY, FERNDALE, WA, 98248","Match","Exact","7037 YUKON WAY, FERNDALE, WA, 98248",183792635,"L"
276475,"7038 183RD ST","TINLEY PARK","IL",60477,41.5586012480001,-87.790051869,475,"7038 183RD ST, TINLEY PARK, IL, 60477","Match","Exact","7038 183RD ST, TINLEY PARK, IL, 60477",638598086,"R"
276476,"7038 65TH PLACE 1ST FLOOR / L","RIDGEWOOD","NY",11385,NA,NA,476,"7038 65TH PLACE 1ST FLOOR / L, RIDGEWOOD, NY, 11385","No_Match",NA,NA,NA,NA
276477,"7038 ALANA RD","JACKSONVILLE","FL",32211,30.3460899450001,-81.5791495719999,477,"7038 ALANA RD, JACKSONVILLE, FL, 32211","Match","Exact","7038 ALANA RD, JACKSONVILLE, FL, 32211",83903845,"R"
276478,"7038 BROOKLYN BOULEVARD","BROOKLYN PARK","MN",55429,45.0823245620001,-93.33911353,478,"7038 BROOKLYN BOULEVARD, BROOKLYN PARK, MN, 55429","Match","Exact","7038 BROOKLYN BLVD, BROOKLYN PARK, MN, 55429",43829226,"R"
276479,"7038 DE CELIS PLACE UNIT 20","LAKE BALBOA","CA",91406,34.198260874,-118.494562722,479,"7038 DE CELIS PLACE UNIT 20, LAKE BALBOA, CA, 91406","Match","Non_Exact","7038 DE CELIS PL, LAKE BALBOA, CA, 91406",141556268,"R"
276480,"7038 HARRISWOOD LANE","MURFREESBORO","TN",37129,35.875465101,-86.559581072,480,"7038 HARRISWOOD LANE, MURFREESBORO, TN, 37129","Match","Exact","7038 HARRISWOOD LN, MURFREESBORO, TN, 37129",652020185,"R"
276481,"7038 PRESERVE PKWY","FAIRBURN","GA",30213,33.5357386920001,-84.586534452,481,"7038 PRESERVE PKWY, FAIRBURN, GA, 30213","Match","Exact","7038 PRESERVE PKWY, FAIRBURN, GA, 30213",629152796,"L"
276482,"7038 VILLAGE PARTKWAY","DUBLIN","CA",94568,37.708614464,-121.925904347,482,"7038 VILLAGE PARTKWAY, DUBLIN, CA, 94568","Match","Non_Exact","7038 VILLAGE PKWY, DUBLIN, CA, 94568",640548496,"L"
276483,"7038 W 3100 S","WEST VALLEY CITY","UT",84128,40.703741253,-112.059028487,483,"7038 W 3100 S, WEST VALLEY CITY, UT, 84128","Match","Exact","7038 W 3100 S, WEST VALLEY CITY, UT, 84128",611642978,"R"
276484,"7039 6TH AVE NW","SEATTLE","WA",98117,47.680626734,-122.363343909,484,"7039 6TH AVE NW, SEATTLE, WA, 98117","Match","Exact","7039 6TH AVE NW, SEATTLE, WA, 98117",239761432,"L"
276485,"7039 AGAVA LANE","CHARLOTTE","NC",28215,35.231871707,-80.6835412299999,485,"7039 AGAVA LANE, CHARLOTTE, NC, 28215","Match","Exact","7039 AGAVA LN, CHARLOTTE, NC, 28215",648286535,"L"
276486,"7039 COUNTY RD 57","MANSFIELD","OH",44904,40.652147701,-82.677219497,486,"7039 COUNTY RD 57, MANSFIELD, OH, 44904","Match","Exact","7039 CO RD 57, MANSFIELD, OH, 44904",12754194,"R"
276487,"7039 HIGHWAY 190 E SVC RD SUITE A","COVINGTON","LA",70433,NA,NA,487,"7039 HIGHWAY 190 E SVC RD SUITE A, COVINGTON, LA, 70433","No_Match",NA,NA,NA,NA
276488,"7039 HWY 190 E SVC RD  SUITE A","COVINGTON","LA",70433,NA,NA,488,"7039 HWY 190 E SVC RD  SUITE A, COVINGTON, LA, 70433","No_Match",NA,NA,NA,NA
276489,"7039 HWY 190 E SVC ROAD SUITE A","COVINGTON","LA",70433,NA,NA,489,"7039 HWY 190 E SVC ROAD SUITE A, COVINGTON, LA, 70433","No_Match",NA,NA,NA,NA
276490,"7039 OAK GROVE WAY","ELKRIDGE","MD",21075,39.1777324760001,-76.7852329469999,490,"7039 OAK GROVE WAY, ELKRIDGE, MD, 21075","Match","Exact","7039 OAK GROVE WAY, ELKRIDGE, MD, 21075",639577282,"L"
276491,"7039 OAKDALE AVE","RICHFIELD","MN",55423,NA,NA,491,"7039 OAKDALE AVE, RICHFIELD, MN, 55423","No_Match",NA,NA,NA,NA
276492,"7039 SIGNAL HILL RD","MANASSAS","VA",20111,38.743594908,-77.416128696,492,"7039 SIGNAL HILL RD, MANASSAS, VA, 20111","Match","Exact","7039 SIGNAL HILL RD, MANASSAS, VA, 20111",207150349,"L"
276493,"7039 SOUTH WAPATO STREET","TACOMA","WA",98409,47.193339941,-122.468406809,493,"7039 SOUTH WAPATO STREET, TACOMA, WA, 98409","Match","Exact","7039 S WAPATO ST, TACOMA, WA, 98409",184627692,"L"
276494,"703B MASSEY LANE","ALEXANDRIA","VA",22314,38.821816416,-77.0452105529999,494,"703B MASSEY LANE, ALEXANDRIA, VA, 22314","Match","Exact","703 MASSEY LN, ALEXANDRIA, VA, 22314",76065539,"L"
276495,"703B W OAKLAWN RD","PLEASANTON","TX",78064,28.9571112400001,-98.490703821,495,"703B W OAKLAWN RD, PLEASANTON, TX, 78064","Match","Exact","703 W OAKLAWN RD, PLEASANTON, TX, 78064",24458658,"R"
276496,"704 1/2 HERMOSA AVE","HERMOSA BEACH","CA",90254,33.8586050820001,-118.399055845,496,"704 1/2 HERMOSA AVE, HERMOSA BEACH, CA, 90254","Match","Exact","704 HERMOSA AVE, HERMOSA BEACH, CA, 90254",141583179,"R"
276497,"704 14TH STREET","PASO ROBLES","CA",93446,35.6287369280001,-120.691409475,497,"704 14TH STREET, PASO ROBLES, CA, 93446","Match","Exact","704 14TH ST, PASO ROBLES, CA, 93446",109805127,"R"
276498,"704 228TH AVE NE 204","SAMMAMISH","WA",98074,47.6160312960001,-122.035468125,498,"704 228TH AVE NE 204, SAMMAMISH, WA, 98074","Match","Exact","704 228TH AVE NE, SAMMAMISH, WA, 98074",187068942,"R"
276499,"704 228TH AVE NE 272","SAMMAMISH","WA",98074,47.6160312960001,-122.035468125,499,"704 228TH AVE NE 272, SAMMAMISH, WA, 98074","Match","Exact","704 228TH AVE NE, SAMMAMISH, WA, 98074",187068942,"R"
276500,"704 228TH AVE NE 892","SAMMAMISH","WA",98074,47.6160312960001,-122.035468125,500,"704 228TH AVE NE 892, SAMMAMISH, WA, 98074","Match","Exact","704 228TH AVE NE, SAMMAMISH, WA, 98074",187068942,"R"
