"ID","Address","City","State","Zip","lat","long","id","input_address","match_indicator","match_type","matched_address","tiger_line_id","tiger_side"
20501,"11004 DARROW RD","VERMILION","OH",44089,41.3645615610001,-82.4265530769999,1,"11004 DARROW RD, VERMILION, OH, 44089","Match","Exact","11004 DARROW RD, VERMILION, OH, 44089",55331352,"R"
20502,"11004 DESPA DR","CHARLOTTE","NC",28227,35.1799055750001,-80.65841485,2,"11004 DESPA DR, CHARLOTTE, NC, 28227","Match","Exact","11004 DESPA DR, CHARLOTTE, NC, 28227",70496472,"R"
20503,"11004 FERN HOLLOW DRIVE","DALLAS","TX",75238,32.8728958670001,-96.6935266739999,3,"11004 FERN HOLLOW DRIVE, DALLAS, TX, 75238","Match","Exact","11004 FERN HOLLOW DR, DALLAS, TX, 75238",650492165,"R"
20504,"11004 MARDEN LN","AUSTIN","TX",78739,30.1887514630001,-97.895757982,4,"11004 MARDEN LN, AUSTIN, TX, 78739","Match","Exact","11004 MARDEN LN, AUSTIN, TX, 78739",63990044,"R"
20505,"11004 MORAN RD","MONTEREY","CA",93940,36.584781202,-121.879988559,5,"11004 MORAN RD, MONTEREY, CA, 93940","Match","Exact","11004 MORAN RD, MONTEREY, CA, 93940",627800759,"R"
20506,"11004 STEEPLE CHASE CT","ELLICOTT CITY","MD",21042,NA,NA,6,"11004 STEEPLE CHASE CT, ELLICOTT CITY, MD, 21042","No_Match",NA,NA,NA,NA
20507,"11005 BERRY ROAD","WALDORF","MD",20603,38.640306685,-76.929958727,7,"11005 BERRY ROAD, WALDORF, MD, 20603","Match","Exact","11005 BERRY RD, WALDORF, MD, 20603",25384810,"L"
20508,"11005 COLONIAL GREEN CT","GAITHERSBURG","MD",20878,39.0917255630001,-77.224227443,8,"11005 COLONIAL GREEN CT, GAITHERSBURG, MD, 20878","Match","Exact","11005 COLONIAL GREEN CT, GAITHERSBURG, MD, 20878",62093157,"R"
20509,"11005 DEZERN AVE","LOUISVILLE","KY",40118,38.090940027,-85.742578193,9,"11005 DEZERN AVE, LOUISVILLE, KY, 40118","Match","Non_Exact","11005 DEZERN AVE, FAIRDALE, KY, 40118",96884914,"L"
20510,"11005 FAWN VALLEY DR","FORT WORTH","TX",76140,32.597357878,-97.322669844,10,"11005 FAWN VALLEY DR, FORT WORTH, TX, 76140","Match","Exact","11005 FAWN VALLEY DR, FORT WORTH, TX, 76140",638655778,"L"
20511,"11005 LAVENDER WAY","LOUISVILLE","KY",40291,38.0944428440001,-85.56618193,11,"11005 LAVENDER WAY, LOUISVILLE, KY, 40291","Match","Exact","11005 LAVENDER WAY, LOUISVILLE, KY, 40291",96920026,"L"
20512,"11005 MAIDA VALE LANE","HASLET","TX",76052,32.9303862040001,-97.3881971879999,12,"11005 MAIDA VALE LANE, HASLET, TX, 76052","Match","Exact","11005 MAIDA VALE LN, HASLET, TX, 76052",637604387,"L"
20513,"11005 MORRISON ST 209","LOS ANGELES","CA",91601,34.161063966,-118.370834813,13,"11005 MORRISON ST 209, LOS ANGELES, CA, 91601","Match","Non_Exact","11005 MORRISON ST, VALLEY VILLAGE, CA, 91601",651865028,"R"
20514,"11005 NORTHRIDGE DR","KANSAS CITY","KS",66109,39.167900758,-94.833335273,14,"11005 NORTHRIDGE DR, KANSAS CITY, KS, 66109","Match","Exact","11005 NORTHRIDGE DR, KANSAS CITY, KS, 66109",619586997,"L"
20515,"11005 OAK GROVE CIR UNIT A","WOODBURY","MN",55129,44.892299456,-92.8846519269999,15,"11005 OAK GROVE CIR UNIT A, WOODBURY, MN, 55129","Match","Exact","11005 OAK GROVE CIR, WOODBURY, MN, 55129",615273089,"R"
20516,"11005 PEACOCK MOSS STREET","RALEIGH","NC",27613,35.934203085,-78.744727616,16,"11005 PEACOCK MOSS STREET, RALEIGH, NC, 27613","Match","Exact","11005 PEACOCK MOSS ST, RALEIGH, NC, 27613",71769493,"R"
20517,"11005 PRESERVATION PARK DR","CHARLOTTE","NC",28214,35.3391045990001,-80.958094498,17,"11005 PRESERVATION PARK DR, CHARLOTTE, NC, 28214","Match","Exact","11005 PRESERVATION PARK DR, CHARLOTTE, NC, 28214",614169749,"R"
20518,"11005 ROCKRIDGE ROAD","LAKELAND","FL",33809,28.1992318040001,-81.992985494,18,"11005 ROCKRIDGE ROAD, LAKELAND, FL, 33809","Match","Exact","11005 ROCKRIDGE RD, LAKELAND, FL, 33809",104973717,"L"
20519,"11005 SOUTH 76TH AVE","WORTH","IL",60482,41.6919788010001,-87.807140553,19,"11005 SOUTH 76TH AVE, WORTH, IL, 60482","Match","Exact","11005 S 76TH AVE, WORTH, IL, 60482",111812257,"L"
20520,"11005 STONE RD","BURLESON","TX",76028,32.5957564060001,-97.3087073569999,20,"11005 STONE RD, BURLESON, TX, 76028","Match","Exact","11005 STONE RD, BURLESON, TX, 76028",101896018,"L"
20521,"11005 SW 77TH AVENUE","PINECREST","FL",33156,25.6682454400001,-80.318649624,21,"11005 SW 77TH AVENUE, PINECREST, FL, 33156","Match","Exact","11005 SW 77TH AVE, PINECREST, FL, 33156",115984985,"L"
20522,"11005 TULIP HILL LANE","UPPER MARLBORO","MD",20772,38.800073443,-76.815358481,22,"11005 TULIP HILL LANE, UPPER MARLBORO, MD, 20772","Match","Exact","11005 TULIP HILL LN, UPPER MARLBORO, MD, 20772",76385880,"R"
20523,"11005 W SECRETARIAT ST","BOISE","ID",83713,43.645479542,-116.319315,23,"11005 W SECRETARIAT ST, BOISE, ID, 83713","Match","Exact","11005 W SECRETARIAT ST, BOISE, ID, 83713",636218674,"R"
20524,"11006 24TH AVE NE","SEATTLE","WA",98125,47.7092284710001,-122.303496257,24,"11006 24TH AVE NE, SEATTLE, WA, 98125","Match","Exact","11006 24TH AVE NE, SEATTLE, WA, 98125",186584743,"R"
20525,"11006 CLEAR STREAM CT","LOUISVILLE","KY",40291,38.1432976830001,-85.5695827439999,25,"11006 CLEAR STREAM CT, LOUISVILLE, KY, 40291","Match","Exact","11006 CLEAR STREAM CT, LOUISVILLE, KY, 40291",96888307,"L"
20526,"11006 HIGHWAY 60","SELLERSBURG","IN",47172,38.4125536670001,-85.7951549759999,26,"11006 HIGHWAY 60, SELLERSBURG, IN, 47172","Match","Exact","11006 HWY 60, SELLERSBURG, IN, 47172",641255468,"L"
20527,"11006 JEWEL AVE","FOREST HILLS","NY",11375,NA,NA,27,"11006 JEWEL AVE, FOREST HILLS, NY, 11375","No_Match",NA,NA,NA,NA
20528,"11006 S KENNEDY ST","JENKS","OK",74037,36.0060553480001,-96.0167133469999,28,"11006 S KENNEDY ST, JENKS, OK, 74037","Match","Exact","11006 S KENNEDY ST, JENKS, OK, 74037",627272130,"R"
20529,"11006 S MICHIGAN AVE STE 2","CHICAGO","IL",60628,41.6941604,-87.620802367,29,"11006 S MICHIGAN AVE STE 2, CHICAGO, IL, 60628","Match","Non_Exact","11006 S MICHIGAN AVE, CHICAGO, IL, 60628",111773757,"R"
20530,"11007 CARDINAL DR","PARKER","CO",80138,39.5225843960001,-104.744673441,30,"11007 CARDINAL DR, PARKER, CO, 80138","Match","Exact","11007 CARDINAL DR, PARKER, CO, 80138",130804000,"R"
20531,"11007 CHANDLER RD","POTOMAC","MD",20854,38.997110288,-77.227593451,31,"11007 CHANDLER RD, POTOMAC, MD, 20854","Match","Exact","11007 CHANDLER RD, POTOMAC, MD, 20854",62049555,"R"
20532,"11007 DEZERN AVE","FAIRDALE","KY",40118,38.090930648,-85.7425914039999,32,"11007 DEZERN AVE, FAIRDALE, KY, 40118","Match","Exact","11007 DEZERN AVE, FAIRDALE, KY, 40118",96884914,"L"
20533,"11007 MAJOR OAK DRIVE","BATON ROUGE","LA",70815,30.442269432,-91.0623330769999,33,"11007 MAJOR OAK DRIVE, BATON ROUGE, LA, 70815","Match","Exact","11007 MAJOR OAK DR, BATON ROUGE, LA, 70815",92191191,"L"
20534,"11007 PALMS BOULEVARD SUITE 115","LOS ANGELES","CA",90034,34.020678903,-118.419340511,34,"11007 PALMS BOULEVARD SUITE 115, LOS ANGELES, CA, 90034","Match","Exact","11007 PALMS BLVD, LOS ANGELES, CA, 90034",141573863,"R"
20535,"11007 RIDGE FOREST COURT","SAINT LOUIS","MO",63126,38.536747238,-90.36178176,35,"11007 RIDGE FOREST COURT, SAINT LOUIS, MO, 63126","Match","Exact","11007 RIDGE FOREST CT, SAINT LOUIS, MO, 63126",100169015,"R"
20536,"11008 207TH AVE CT E","BONNEY LAKE","WA",98391,47.156128691,-122.152739269,36,"11008 207TH AVE CT E, BONNEY LAKE, WA, 98391","Match","Exact","11008 207TH AVENUE CT E, BONNEY LAKE, WA, 98391",184688870,"R"
20537,"11008 MARY DIGGES PL","UPPER MARLBORO","MD",20772,38.8166110670001,-76.8171526099999,37,"11008 MARY DIGGES PL, UPPER MARLBORO, MD, 20772","Match","Exact","11008 MARY DIGGES PL, UPPER MARLBORO, MD, 20772",635445702,"R"
20538,"11008 N DIVISION","SPOKANE","WA",99218,NA,NA,38,"11008 N DIVISION, SPOKANE, WA, 99218","No_Match",NA,NA,NA,NA
20539,"11008 SUMMER DR","TAMPA","FL",33624,28.052169066,-82.532862279,39,"11008 SUMMER DR, TAMPA, FL, 33624","Match","Exact","11008 SUMMER DR, TAMPA, FL, 33624",104569836,"R"
20540,"11008 W  COLLEGE DRIVE","PHOENIX","AZ",85037,33.507290739,-112.29689646,40,"11008 W  COLLEGE DRIVE, PHOENIX, AZ, 85037","Match","Exact","11008 W COLLEGE DR, PHOENIX, AZ, 85037",627252357,"R"
20541,"11008 XAVIER RD","OSWEGO","KS",67356,37.1511246600001,-95.1035559109999,41,"11008 XAVIER RD, OSWEGO, KS, 67356","Match","Exact","11008 XAVIER RD, OSWEGO, KS, 67356",13740612,"L"
20542,"11009 ATWELL AVENUE","BOWIE","MD",20720,38.9508194060001,-76.816666604,42,"11009 ATWELL AVENUE, BOWIE, MD, 20720","Match","Exact","11009 ATWELL AVE, BOWIE, MD, 20720",76310980,"R"
20543,"11009 KNIGHTSBRIDGE LN","FISHERS","IN",46037,39.948278386,-85.9880411239999,43,"11009 KNIGHTSBRIDGE LN, FISHERS, IN, 46037","Match","Exact","11009 KNIGHTSBRIDGE LN, FISHERS, IN, 46037",29334210,"L"
20544,"11009 NE 127TH TERRACE","LIBERTY","MO",64068,39.3239769850001,-94.44270426,44,"11009 NE 127TH TERRACE, LIBERTY, MO, 64068","Match","Exact","11009 NE 127TH TER, LIBERTY, MO, 64068",627112209,"R"
20545,"11009 OKEEFE CT","CHARLOTTE","NC",28215,35.246243205,-80.6437813699999,45,"11009 OKEEFE CT, CHARLOTTE, NC, 28215","Match","Exact","11009 OKEEFE CT, CHARLOTTE, NC, 28215",70535680,"R"
20546,"11009 SCOVILLE AVE","SUNLAND","CA",91040,34.2691539300001,-118.314006393,46,"11009 SCOVILLE AVE, SUNLAND, CA, 91040","Match","Exact","11009 SCOVILLE AVE, SUNLAND, CA, 91040",141587465,"L"
20547,"11009 SE KRIEGER LANE","PORTLAND","OR",97266,45.466065127,-122.549710769,47,"11009 SE KRIEGER LANE, PORTLAND, OR, 97266","Match","Exact","11009 SE KRIEGER LN, PORTLAND, OR, 97266",157521218,"R"
20548,"11009 WCR 102","NUNN","CO",80648,40.7256180970001,-104.847472111,48,"11009 WCR 102, NUNN, CO, 80648","Match","Non_Exact","11009 CO RD 102, NUNN, CO, 80648",188684003,"R"
20549,"11009 WEST SIENO PLACE","AVONDALE","AZ",85392,33.4865818210001,-112.296223241,49,"11009 WEST SIENO PLACE, AVONDALE, AZ, 85392","Match","Non_Exact","11009 SIENO PL, AVONDALE, AZ, 85392",128384741,"R"
20550,"1100B SOUTH BAY CLUB DRIVE","MANTEO","NC",27954,35.899574138,-75.666027301,50,"1100B SOUTH BAY CLUB DRIVE, MANTEO, NC, 27954","Match","Exact","1100 S BAY CLUB DR, MANTEO, NC, 27954",627148753,"R"
20551,"1101  30TH  ST  NW   STE  500","WASHINGTON","DC",20007,38.9042049400001,-77.05912963,51,"1101  30TH  ST  NW   STE  500, WASHINGTON, DC, 20007","Match","Exact","1101 30TH ST NW, WASHINGTON, DC, 20007",76243996,"R"
20552,"1101 - 81ST AVENUE NE","SPRING LAKE PARK","MN",55432,NA,NA,52,"1101 - 81ST AVENUE NE, SPRING LAKE PARK, MN, 55432","No_Match",NA,NA,NA,NA
20553,"1101 17TH STREET NW SUITE 400","WASHINGTON","DC",20036,38.9048312100001,-77.038495223,53,"1101 17TH STREET NW SUITE 400, WASHINGTON, DC, 20036","Match","Exact","1101 17TH ST NW, WASHINGTON, DC, 20036",76225655,"R"
20554,"1101 18TH AVE S APT 601","NASHVILLE","TN",37212,36.145318608,-86.7953794479999,54,"1101 18TH AVE S APT 601, NASHVILLE, TN, 37212","Match","Exact","1101 18TH AVE S, NASHVILLE, TN, 37212",653274547,"R"
20555,"1101 1ST STREET E","WEST FARGO","ND",58078,46.8643363080001,-96.899909758,55,"1101 1ST STREET E, WEST FARGO, ND, 58078","Match","Non_Exact","1101 1ST ST, WEST FARGO, ND, 58078",151468441,"L"
20556,"1101 21ST AVE","LONGMONT","CO",80501,40.1956845760001,-105.108176785,56,"1101 21ST AVE, LONGMONT, CO, 80501","Match","Exact","1101 21ST AVE, LONGMONT, CO, 80501",188225846,"L"
20557,"1101 28TH AVE","CHEYENNE","WY",82001,NA,NA,57,"1101 28TH AVE, CHEYENNE, WY, 82001","No_Match",NA,NA,NA,NA
20558,"1101 30TH STREET NW SUITE 500","WASHINGTON","DC",20007,38.9042049400001,-77.05912963,58,"1101 30TH STREET NW SUITE 500, WASHINGTON, DC, 20007","Match","Exact","1101 30TH ST NW, WASHINGTON, DC, 20007",76243996,"R"
20559,"1101 3RD ST SW","CLEAR LAKE","WI",54005,45.2448364740001,-92.2707316239999,59,"1101 3RD ST SW, CLEAR LAKE, WI, 54005","Match","Exact","1101 3RD ST SW, CLEAR LAKE, WI, 54005",110844766,"R"
20560,"1101 78TH STREET SUITE 300","BLOOMINGTON","MN",55420,44.8618664790001,-93.25943717,60,"1101 78TH STREET SUITE 300, BLOOMINGTON, MN, 55420","Match","Non_Exact","1101 E 78TH ST, BLOOMINGTON, MN, 55420",43593586,"R"
20561,"1101 9TH ST NE 2","WASHINGTON","DC",20002,38.903774168,-76.993746159,61,"1101 9TH ST NE 2, WASHINGTON, DC, 20002","Match","Exact","1101 9TH ST NE, WASHINGTON, DC, 20002",76229780,"R"
20562,"1101 ANCHOR TERRACE","IRVING","TX",75063,32.943485755,-96.960782203,62,"1101 ANCHOR TERRACE, IRVING, TX, 75063","Match","Exact","1101 ANCHOR TER, IRVING, TX, 75063",617055222,"L"
20563,"1101 ANGIE LANE","DESOTO","TX",75115,32.6092482450001,-96.873071451,63,"1101 ANGIE LANE, DESOTO, TX, 75115","Match","Exact","1101 ANGIE LN, DESOTO, TX, 75115",624097419,"R"
20564,"1101 AVENUE A","TUSCOMBIA","AL",35674,34.721597617,-87.693849362,64,"1101 AVENUE A, TUSCOMBIA, AL, 35674","Match","Non_Exact","1101 AVE A, TUSCUMBIA, AL, 35674",40760482,"L"
20565,"1101 BEACH STREET","FLINT","MI",48502,43.0099821690001,-83.6871392039999,65,"1101 BEACH STREET, FLINT, MI, 48502","Match","Exact","1101 BEACH ST, FLINT, MI, 48502",69568146,"L"
20566,"1101 BIGTREE DR","GRANTSVILLE","UT",84029,40.5678148590001,-112.453760954,66,"1101 BIGTREE DR, GRANTSVILLE, UT, 84029","Match","Non_Exact","1101 BIG TREE DR, GRANTSVILLE, UT, 84029",617535235,"L"
20567,"1101 BISON DRIVE","BOULDER","CO",80302,39.961452685,-105.318953724,67,"1101 BISON DRIVE, BOULDER, CO, 80302","Match","Exact","1101 BISON DR, BOULDER, CO, 80302",644255749,"L"
20568,"1101 BLOOMFIELD SUITE C","HOBOKEN","NJ",7030,40.750142941,-74.0278777509999,68,"1101 BLOOMFIELD SUITE C, HOBOKEN, NJ, 7030","Match","Non_Exact","1101 BLOOMFIELD ST, HOBOKEN, NJ, 07030",59608288,"R"
20569,"1101 BRICKELL AVENUE STE 310755","MIAMI","FL",33131,25.7630910230001,-80.1914970449999,69,"1101 BRICKELL AVENUE STE 310755, MIAMI, FL, 33131","Match","Exact","1101 BRICKELL AVE, MIAMI, FL, 33131",650153821,"L"
20570,"1101 BRICKELL AVENUE SUITE 310354","MIAMI","FL",33231,25.7630910230001,-80.1914970449999,70,"1101 BRICKELL AVENUE SUITE 310354, MIAMI, FL, 33231","Match","Non_Exact","1101 BRICKELL AVE, MIAMI, FL, 33131",650153821,"L"
20571,"1101 BRICKELL AVENUE SUITE 800S","MIAMI","FL",33131,25.7630910230001,-80.1914970449999,71,"1101 BRICKELL AVENUE SUITE 800S, MIAMI, FL, 33131","Match","Exact","1101 BRICKELL AVE, MIAMI, FL, 33131",650153821,"L"
20572,"1101 BROADWAY AVE STOREFRONT","BROOKLYN","NY",11221,40.6942041840001,-73.9302897749999,72,"1101 BROADWAY AVE STOREFRONT, BROOKLYN, NY, 11221","Match","Non_Exact","1101 BROADWAY, BROOKLYN, NY, 11221",59082588,"L"
20573,"1101 CAMBRIDGE DR","PRESTO","PA",15142,40.3876172440001,-80.136822896,73,"1101 CAMBRIDGE DR, PRESTO, PA, 15142","Match","Exact","1101 CAMBRIDGE DR, PRESTO, PA, 15142",633895411,"R"
20574,"1101 CAMPBELL AVENUE","WATERLOO","IA",50701,42.4839190050001,-92.371067376,74,"1101 CAMPBELL AVENUE, WATERLOO, IA, 50701","Match","Exact","1101 CAMPBELL AVE, WATERLOO, IA, 50701",77251294,"L"
20575,"1101 CAMPBELL","JOURDANTON","TX",78026,28.917593675,-98.5443623469999,75,"1101 CAMPBELL, JOURDANTON, TX, 78026","Match","Non_Exact","1101 CAMPBELL AVE, JOURDANTON, TX, 78026",637914319,"R"
20576,"1101 CERMACK STREET","COLUMBIA","SC",29223,34.0442304420001,-80.93955729,76,"1101 CERMACK STREET, COLUMBIA, SC, 29223","Match","Exact","1101 CERMACK ST, COLUMBIA, SC, 29223",71826170,"L"
20577,"1101 CHANEY ROAD","VIOLA","ID",83872,46.851825569,-116.999334296,77,"1101 CHANEY ROAD, VIOLA, ID, 83872","Match","Exact","1101 CHANEY RD, VIOLA, ID, 83872",193867472,"L"
20578,"1101 CHERAW DR","FLORENCE","SC",29501,34.178826368,-79.790765562,78,"1101 CHERAW DR, FLORENCE, SC, 29501","Match","Exact","1101 CHERAW DR, FLORENCE, SC, 29501",28878094,"R"
20579,"1101 CHEYENNE DRIVE","INDIAN HARBOUR BEACH","FL",32937,28.149979542,-80.594000235,79,"1101 CHEYENNE DRIVE, INDIAN HARBOUR BEACH, FL, 32937","Match","Exact","1101 CHEYENNE DR, INDIAN HARBOUR BEACH, FL, 32937",93904021,"L"
20580,"1101 CHURCH STREET","WAYCROSS","GA",31501,31.215812085,-82.353207456,80,"1101 CHURCH STREET, WAYCROSS, GA, 31501","Match","Exact","1101 CHURCH ST, WAYCROSS, GA, 31501",5237479,"L"
20581,"1101 CLOVER STREET","ROCHESTER","NY",14610,43.135880833,-77.541765834,81,"1101 CLOVER STREET, ROCHESTER, NY, 14610","Match","Exact","1101 CLOVER ST, ROCHESTER, NY, 14610",14543668,"R"
20582,"1101 COLBERT STREET TRAILER 11","MANDEVILLE","LA",70448,30.3595456530001,-90.04656268,82,"1101 COLBERT STREET TRAILER 11, MANDEVILLE, LA, 70448","Match","Exact","1101 COLBERT ST, MANDEVILLE, LA, 70448",111278199,"L"
20583,"1101 COLORADO STREET BOX 61651","BOULDER CITY","NV",89005,35.9795415340001,-114.834743119,83,"1101 COLORADO STREET BOX 61651, BOULDER CITY, NV, 89005","Match","Exact","1101 COLORADO ST, BOULDER CITY, NV, 89005",201830840,"R"
20584,"1101 CONNECTICUT AVE NW SUITE 450","WASHINGTON","DC",20036,38.903824168,-77.040049612,84,"1101 CONNECTICUT AVE NW SUITE 450, WASHINGTON, DC, 20036","Match","Exact","1101 CONNECTICUT AVE NW, WASHINGTON, DC, 20036",76225638,"R"
20585,"1101 CONNECTICUT AVE STE 450","WASHINGTON","DC",20036,38.903824168,-77.040049612,85,"1101 CONNECTICUT AVE STE 450, WASHINGTON, DC, 20036","Match","Non_Exact","1101 CONNECTICUT AVE NW, WASHINGTON, DC, 20036",76225638,"R"
20586,"1101 CONTINENTALS WAY STE 101","BELMONT","CA",94002,37.5106468980001,-122.302711344,86,"1101 CONTINENTALS WAY STE 101, BELMONT, CA, 94002","Match","Exact","1101 CONTINENTALS WAY, BELMONT, CA, 94002",192381335,"L"
20587,"1101 CROSS BEND","IRVING","TX",75061,32.824846279,-97.00819345,87,"1101 CROSS BEND, IRVING, TX, 75061","Match","Exact","1101 CROSS BEND, IRVING, TX, 75061",102886032,"R"
20588,"1101 CROWN VALLEY DR","WEATHERFORD","TX",76087,32.7599833260001,-97.66174841,88,"1101 CROWN VALLEY DR, WEATHERFORD, TX, 76087","Match","Exact","1101 CROWN VALLEY DR, WEATHERFORD, TX, 76087",624527115,"L"
20589,"1101 CUMBERLAND CROSSING - 126","VALPARAISO","IN",46383,NA,NA,89,"1101 CUMBERLAND CROSSING - 126, VALPARAISO, IN, 46383","No_Match",NA,NA,NA,NA
20590,"1101 DAVIS STREET SUITE 5325","EVANSTON","IL",60204,42.047095653,-87.6868962789999,90,"1101 DAVIS STREET SUITE 5325, EVANSTON, IL, 60204","Match","Non_Exact","1101 DAVIS ST, EVANSTON, IL, 60201",605240124,"R"
20591,"1101 DAVIS STREET UNIT 263","EVANSTON","IL",60204,42.047095653,-87.6868962789999,91,"1101 DAVIS STREET UNIT 263, EVANSTON, IL, 60204","Match","Non_Exact","1101 DAVIS ST, EVANSTON, IL, 60201",605240124,"R"
20592,"1101 DOUGLAS AVE","BURLINGAME","CA",94010,37.581201982,-122.349078491,92,"1101 DOUGLAS AVE, BURLINGAME, CA, 94010","Match","Exact","1101 DOUGLAS AVE, BURLINGAME, CA, 94010",192376446,"L"
20593,"1101 DOUGLAS CIRCLE","AMERICUS","GA",31709,32.083757808,-84.216292852,93,"1101 DOUGLAS CIRCLE, AMERICUS, GA, 31709","Match","Exact","1101 DOUGLAS CIR, AMERICUS, GA, 31709",30739390,"R"
20594,"1101 DOVE ST STE 138","NEWPORT BEACH","CA",92660,33.6609596500001,-117.865298116,94,"1101 DOVE ST STE 138, NEWPORT BEACH, CA, 92660","Match","Exact","1101 DOVE ST, NEWPORT BEACH, CA, 92660",144049264,"L"
20595,"1101 DOVE STREET STE 245","NEWPORT BEACH","CA",92660,33.6609596500001,-117.865298116,95,"1101 DOVE STREET STE 245, NEWPORT BEACH, CA, 92660","Match","Exact","1101 DOVE ST, NEWPORT BEACH, CA, 92660",144049264,"L"
20596,"1101 DUNAD AVENUE","OPA-LOCKA","FL",33054,25.907065603,-80.2498186939999,96,"1101 DUNAD AVENUE, OPA-LOCKA, FL, 33054","Match","Exact","1101 DUNAD AVE, OPA LOCKA, FL, 33054",116032139,"L"
20597,"1101 E 13TH STREET","STERLING","IL",61081,41.797899117,-89.684290881,97,"1101 E 13TH STREET, STERLING, IL, 61081","Match","Exact","1101 E 13TH ST, STERLING, IL, 61081",48967514,"L"
20598,"1101 E 156 ST","DOLTON","IL",60419,41.611726074,-87.59040024,98,"1101 E 156 ST, DOLTON, IL, 60419","Match","Exact","1101 E 156TH ST, DOLTON, IL, 60419",111780360,"R"
20599,"1101 E 17TH STREET","INDIANAPOLIS","IN",46202,39.78998854,-86.180214189,99,"1101 E 17TH STREET, INDIANAPOLIS, IN, 46202","Match","Non_Exact","1101 W 17TH ST, INDIANAPOLIS, IN, 46202",107986904,"L"
20600,"1101 E BLOOMINGDALE AVE","VALRICO","FL",33596,27.8936112590001,-82.2661546419999,100,"1101 E BLOOMINGDALE AVE, VALRICO, FL, 33596","Match","Exact","1101 BLOOMINGDALE AVE, VALRICO, FL, 33596",633392168,"R"
20601,"1101 E CUMBERLAND AVE SUITE 201H191","TAMPA","FL",33602,27.9450196710001,-82.447715113,101,"1101 E CUMBERLAND AVE SUITE 201H191, TAMPA, FL, 33602","Match","Non_Exact","1101 E CUMBERLAND AVE, TAMPA, FL, 33602",104530872,"R"
20602,"1101 E CUMBERLAND AVE SUITE 301-E","TAMPA","FL",33602,27.9450196710001,-82.447715113,102,"1101 E CUMBERLAND AVE SUITE 301-E, TAMPA, FL, 33602","Match","Non_Exact","1101 E CUMBERLAND AVE, TAMPA, FL, 33602",104530872,"R"
20603,"1101 E ELLIOT RD","GILBERT","AZ",85234,NA,NA,103,"1101 E ELLIOT RD, GILBERT, AZ, 85234","No_Match",NA,NA,NA,NA
20604,"1101 E HIGHWAY 252","HUNTINGTON","AR",72940,35.1097629340001,-94.2430954769999,104,"1101 E HIGHWAY 252, HUNTINGTON, AR, 72940","Match","Exact","1101 E HWY 252, HUNTINGTON, AR, 72940",56158880,"L"
20605,"1101 E MITCHELL ST","TUCSON","AZ",85719,32.255738663,-110.954474664,105,"1101 E MITCHELL ST, TUCSON, AZ, 85719","Match","Exact","1101 E MITCHELL ST, TUCSON, AZ, 85719",121170359,"L"
20606,"1101 E MONAHANS ST","ODESSA","TX",79761,31.8359146180001,-102.344314713,106,"1101 E MONAHANS ST, ODESSA, TX, 79761","Match","Exact","1101 E MONAHANS ST, ODESSA, TX, 79761",139432848,"L"
20607,"1101 E NOLANA LOOP","PHARR","TX",78577,26.2321379140001,-98.1689586429999,107,"1101 E NOLANA LOOP, PHARR, TX, 78577","Match","Exact","1101 E NOLANA LOOP, PHARR, TX, 78577",641378696,"L"
20608,"1101 E ROSEMONT PL","ANDOVER","KS",67002,37.6946601390001,-97.123847477,108,"1101 E ROSEMONT PL, ANDOVER, KS, 67002","Match","Exact","1101 ROSEMONT PL, ANDOVER, KS, 67002",608242362,"R"
20609,"1101 E STANFORD ST","SPRINGFIELD","MO",65807,37.1839137000001,-93.278831488,109,"1101 E STANFORD ST, SPRINGFIELD, MO, 65807","Match","Exact","1101 E STANFORD ST, SPRINGFIELD, MO, 65807",76678935,"L"
20610,"1101 E VIA WANDA","LONG BEACH","CA",90805,33.850013856,-118.178547524,110,"1101 E VIA WANDA, LONG BEACH, CA, 90805","Match","Exact","1101 E VIA WANDA, LONG BEACH, CA, 90805",141684727,"L"
20611,"1101 EAST 2ND ST / 2ND FLOOR","PLAINFIELD","NJ",7062,40.6330530760001,-74.409794076,111,"1101 EAST 2ND ST / 2ND FLOOR, PLAINFIELD, NJ, 7062","Match","Exact","1101 E 2ND ST, PLAINFIELD, NJ, 07062",60567122,"L"
20612,"1101 EAST 36TH STREET SUITE 3","CHARLOTTE","NC",28205,35.2429292910001,-80.79893373,112,"1101 EAST 36TH STREET SUITE 3, CHARLOTTE, NC, 28205","Match","Exact","1101 E 36TH ST, CHARLOTTE, NC, 28205",70480260,"L"
20613,"1101 EAST 8TH STREET","WILMINGTON","DE",19802,39.7384924730001,-75.5333644959999,113,"1101 EAST 8TH STREET, WILMINGTON, DE, 19802","Match","Non_Exact","1101 E 8TH ST, WILMINGTON, DE, 19801",606260860,"L"
20614,"1101 EAST CANAL STREET","WINONA LAKE","IN",46590,41.224529843,-85.82250499,114,"1101 EAST CANAL STREET, WINONA LAKE, IN, 46590","Match","Exact","1101 E CANAL ST, WINONA LAKE, IN, 46590",7936495,"R"
20615,"1101 EAST CREEK COURT","COVINGTON","LA",70435,30.5043512180001,-90.161022583,115,"1101 EAST CREEK COURT, COVINGTON, LA, 70435","Match","Exact","1101 E CREEK CT, COVINGTON, LA, 70435",651181750,"L"
20616,"1101 EAST ELLIOT ROAD","GILBERT","AZ",85234,NA,NA,116,"1101 EAST ELLIOT ROAD, GILBERT, AZ, 85234","No_Match",NA,NA,NA,NA
20617,"1101 EAST HACKAMORE DRIVE","DRAPER","UT",84020,40.5019855090001,-111.858973518,117,"1101 EAST HACKAMORE DRIVE, DRAPER, UT, 84020","Match","Exact","1101 E HACKAMORE DR, DRAPER, UT, 84020",176123528,"R"
20618,"1101 EASTERN BLVD","CLARKSVILLE","IN",47129,38.3046061800001,-85.766051827,118,"1101 EASTERN BLVD, CLARKSVILLE, IN, 47129","Match","Exact","1101 EASTERN BLVD, CLARKSVILLE, IN, 47129",64877514,"L"
20619,"1101 EL CAMPO DRIVE","SAN JUAN","TX",78589,26.2016057600001,-98.143771263,119,"1101 EL CAMPO DRIVE, SAN JUAN, TX, 78589","Match","Exact","1101 EL CAMPO DR, SAN JUAN, TX, 78589",71525582,"L"
20620,"1101 ELDER STREET  SUITE 401","HOUSTON","TX",77007,29.768430654,-95.367614615,120,"1101 ELDER STREET  SUITE 401, HOUSTON, TX, 77007","Match","Exact","1101 ELDER ST, HOUSTON, TX, 77007",96352554,"L"
20621,"1101 ELIZABETH STREET","NEW SMYRNA","FL",32168,29.000565141,-80.937405279,121,"1101 ELIZABETH STREET, NEW SMYRNA, FL, 32168","Match","Exact","1101 ELIZABETH ST, NEW SMYRNA, FL, 32168",94532446,"L"
20622,"1101 EMERYWOOD CT STE  B","LAS VEGAS","NV",89117,36.158881525,-115.276871526,122,"1101 EMERYWOOD CT STE  B, LAS VEGAS, NV, 89117","Match","Exact","1101 EMERYWOOD CT, LAS VEGAS, NV, 89117",639385374,"R"
20623,"1101 ERASTE LANDRY RD","LAFAYETTE","LA",70506,30.22399691,-92.055254826,123,"1101 ERASTE LANDRY RD, LAFAYETTE, LA, 70506","Match","Exact","1101 ERASTE LANDRY RD, LAFAYETTE, LA, 70506",85614285,"L"
20624,"1101 EXECUTIVE DRIVE","RICHARDSON","TX",75081,NA,NA,124,"1101 EXECUTIVE DRIVE, RICHARDSON, TX, 75081","Tie",NA,NA,NA,NA
20625,"1101 FAIRMONT ST NW NO 2","WASHINGTON","DC",20009,38.924763936,-77.027251049,125,"1101 FAIRMONT ST NW NO 2, WASHINGTON, DC, 20009","Match","Exact","1101 FAIRMONT ST NW, WASHINGTON, DC, 20009",76224236,"R"
20626,"1101 FENMORE DRIVE","CINCINNATI","OH",45237,39.1802136480001,-84.4794522,126,"1101 FENMORE DRIVE, CINCINNATI, OH, 45237","Match","Exact","1101 FENMORE DR, CINCINNATI, OH, 45237",103928560,"L"
20627,"1101 GLENLAKE AVE","PARK RIDGE","IL",60068,41.9901079160001,-87.839927723,127,"1101 GLENLAKE AVE, PARK RIDGE, IL, 60068","Match","Exact","1101 GLENLAKE AVE, PARK RIDGE, IL, 60068",111732800,"L"
20628,"1101 GOLDEN BEAR DRIVE","ANCHORAE","AK",99504,NA,NA,128,"1101 GOLDEN BEAR DRIVE, ANCHORAE, AK, 99504","No_Match",NA,NA,NA,NA
20629,"1101 GREAT OAKS LANE","FREDERICKSBURG","VA",22401,38.3015887500001,-77.4966715639999,129,"1101 GREAT OAKS LANE, FREDERICKSBURG, VA, 22401","Match","Exact","1101 GREAT OAKS LN, FREDERICKSBURG, VA, 22401",635879693,"L"
20630,"1101 GREENOCK BUENA VISTA ROAD","MCKEESPORT","PW",15135,NA,NA,130,"1101 GREENOCK BUENA VISTA ROAD, MCKEESPORT, PW, 15135","No_Match",NA,NA,NA,NA
20631,"1101 HARWOOD HILLS CT","HENDERSON","NV",89002,35.9943953550001,-114.970049824,131,"1101 HARWOOD HILLS CT, HENDERSON, NV, 89002","Match","Exact","1101 HARWOOD HILLS CT, HENDERSON, NV, 89002",650199147,"R"
20632,"1101 HAYNES STREET SUITE 100","RALEIGH","NC",27604,35.794358781,-78.637315735,132,"1101 HAYNES STREET SUITE 100, RALEIGH, NC, 27604","Match","Exact","1101 HAYNES ST, RALEIGH, NC, 27604",72507543,"L"
20633,"1101 HESTON STREET","TOLEDO","OH",43607,41.651241542,-83.575357927,133,"1101 HESTON STREET, TOLEDO, OH, 43607","Match","Exact","1101 HESTON ST, TOLEDO, OH, 43607",33938333,"L"
20634,"1101 HIGGINS PLACE APT 100","ROCKVILLE","MD",20852,39.0641306370001,-77.117558173,134,"1101 HIGGINS PLACE APT 100, ROCKVILLE, MD, 20852","Match","Exact","1101 HIGGINS PL, ROCKVILLE, MD, 20852",642722459,"L"
20635,"1101 HILLCREST DR","ANITA","IA",50020,41.434742461,-94.769915208,135,"1101 HILLCREST DR, ANITA, IA, 50020","Match","Exact","1101 HILLCREST DR, ANITA, IA, 50020",61594614,"R"
20636,"1101 HILLCREST PKWY STE L","DUBLIN","GA",31021,32.546617504,-82.9350500909999,136,"1101 HILLCREST PKWY STE L, DUBLIN, GA, 31021","Match","Exact","1101 HILLCREST PKWY, DUBLIN, GA, 31021",100671802,"L"
20637,"1101 HUGH WALLIS ROAD S SUITE 205","LAFAYETTE","LA",70508,30.190940691,-91.999525247,137,"1101 HUGH WALLIS ROAD S SUITE 205, LAFAYETTE, LA, 70508","Match","Exact","1101 HUGH WALLIS RD S, LAFAYETTE, LA, 70508",85625186,"R"
20638,"1101 IOWA DRIVE","LECLAIRE","IA",52753,41.5907707160001,-90.3553241339999,138,"1101 IOWA DRIVE, LECLAIRE, IA, 52753","Match","Exact","1101 IOWA DR, LECLAIRE, IA, 52753",634711700,"L"
20639,"1101 JESSUP ROAD","COOK","WA",98605,45.757910553,-121.649902781,139,"1101 JESSUP ROAD, COOK, WA, 98605","Match","Exact","1101 JESSUP RD, COOK, WA, 98605",158455262,"L"
20640,"1101 JEWELL AVE","PORTSMOUTH","VA",23701,36.8150258430001,-76.376501171,140,"1101 JEWELL AVE, PORTSMOUTH, VA, 23701","Match","Exact","1101 JEWELL AVE, PORTSMOUTH, VA, 23701",122191491,"L"
20641,"1101 JEWELL STREET","AUSTIN","TX",78704,30.2525418020001,-97.7606895,141,"1101 JEWELL STREET, AUSTIN, TX, 78704","Match","Exact","1101 JEWELL ST, AUSTIN, TX, 78704",63955845,"L"
20642,"1101 JOE COX DR","NICHOLASVILLE","KY",40356,37.823112258,-84.5450740639999,142,"1101 JOE COX DR, NICHOLASVILLE, KY, 40356","Match","Exact","1101 JOE COX DR, NICHOLASVILLE, KY, 40356",38463802,"L"
20643,"1101 JOHN WESLEY AVE","XENIA","OH",45385,NA,NA,143,"1101 JOHN WESLEY AVE, XENIA, OH, 45385","No_Match",NA,NA,NA,NA
20644,"1101 JOHNSON AVE SUITE 104 C","MYRTLE BEACH","SC",29577,33.6679861700001,-78.937211699,144,"1101 JOHNSON AVE SUITE 104 C, MYRTLE BEACH, SC, 29577","Match","Exact","1101 JOHNSON AVE, MYRTLE BEACH, SC, 29577",635329217,"L"
20645,"1101 JORDAN LAKE CT","LELAND","NC",28451,34.2583510320001,-78.0604891899999,145,"1101 JORDAN LAKE CT, LELAND, NC, 28451","Match","Exact","1101 JORDAN LAKE CT, LELAND, NC, 28451",624681454,"L"
20646,"1101 JUNIPER ST NE 63","ATLANTA","GA",30309,33.7843884050001,-84.382210921,146,"1101 JUNIPER ST NE 63, ATLANTA, GA, 30309","Match","Exact","1101 JUNIPER ST NE, ATLANTA, GA, 30309",17343533,"R"
20647,"1101 JUNIPER ST NE UNIT 429","ATLANTA","GA",30309,33.7843884050001,-84.382210921,147,"1101 JUNIPER ST NE UNIT 429, ATLANTA, GA, 30309","Match","Exact","1101 JUNIPER ST NE, ATLANTA, GA, 30309",17343533,"R"
20648,"1101 KAREN WAY","MOUNTAIN VIEW","CA",94040,37.39127968,-122.10333785,148,"1101 KAREN WAY, MOUNTAIN VIEW, CA, 94040","Match","Exact","1101 KAREN WAY, MOUNTAIN VIEW, CA, 94040",122954091,"L"
20649,"1101 KNIGHT AVE","WAYCROSS","GA",31501,31.2086071580001,-82.3386187529999,149,"1101 KNIGHT AVE, WAYCROSS, GA, 31501","Match","Exact","1101 KNIGHT AVE, WAYCROSS, GA, 31501",5239016,"R"
20650,"1101 KNOX WAY","MOUNT LAUREL","NJ",8054,NA,NA,150,"1101 KNOX WAY, MOUNT LAUREL, NJ, 8054","No_Match",NA,NA,NA,NA
20651,"1101 KUKULU ST  UNIT 34","KAPOLEI","HI",96707,21.3245461270001,-158.074633324,151,"1101 KUKULU ST  UNIT 34, KAPOLEI, HI, 96707","Match","Exact","1101 KUKULU ST, KAPOLEI, HI, 96707",646532740,"R"
20652,"1101 LANDFALL WAY","SEABROOK ISLAND","SC",29455,32.5972201800001,-80.162867056,152,"1101 LANDFALL WAY, SEABROOK ISLAND, SC, 29455","Match","Exact","1101 LANDFALL WAY, SEABROOK ISLAND, SC, 29455",625306389,"R"
20653,"1101 LITTLEOAK CIR","SAN JOSE","CA",95129,37.3050571650001,-122.001495177,153,"1101 LITTLEOAK CIR, SAN JOSE, CA, 95129","Match","Exact","1101 LITTLEOAK CIR, SAN JOSE, CA, 95129",122997215,"R"
20654,"1101 MACLAREN COURT","FRANKLIN","IN",46131,39.497431271,-86.038613975,154,"1101 MACLAREN COURT, FRANKLIN, IN, 46131","Match","Exact","1101 MACLAREN CT, FRANKLIN, IN, 46131",630027599,"R"
20655,"1101 MADILL STREET","KEYSTONE","SD",57751,43.901355188,-103.413369061,155,"1101 MADILL STREET, KEYSTONE, SD, 57751","Match","Exact","1101 MADILL ST, KEYSTONE, SD, 57751",637478177,"L"
20656,"1101 MAIN ST","BENTON","KY",42025,36.856869869,-88.350759725,156,"1101 MAIN ST, BENTON, KY, 42025","Match","Exact","1101 MAIN ST, BENTON, KY, 42025",99505176,"R"
20657,"1101 MAIN STREET","BELMAR","NJ",7719,40.178291336,-74.026005772,157,"1101 MAIN STREET, BELMAR, NJ, 7719","Match","Exact","1101 MAIN ST, BELMAR, NJ, 07719",90465453,"L"
20658,"1101 MAIN STREET","BENTON","KY",42025,36.856869869,-88.350759725,158,"1101 MAIN STREET, BENTON, KY, 42025","Match","Exact","1101 MAIN ST, BENTON, KY, 42025",99505176,"R"
20659,"1101 MARINA VILLAGE PKWY STE 201","ALAMEDA","CA",94501,37.788041655,-122.276621565,159,"1101 MARINA VILLAGE PKWY STE 201, ALAMEDA, CA, 94501","Match","Exact","1101 MARINA VILLAGE PKWY, ALAMEDA, CA, 94501",124997331,"R"
20660,"1101 MARTIN LUTHER KING BLVD","AMORY","MS",38821,33.979382151,-88.495220691,160,"1101 MARTIN LUTHER KING BLVD, AMORY, MS, 38821","Match","Exact","1101 DR MARTIN LUTHER KING JR BLVD, AMORY, MS, 38821",120067416,"R"
20661,"1101 MCKINNIE AVENUE","FORT WAYNE","IN",46806,41.0461911470001,-85.121539469,161,"1101 MCKINNIE AVENUE, FORT WAYNE, IN, 46806","Match","Exact","1101 MCKINNIE AVE, FORT WAYNE, IN, 46806",6391263,"L"
20662,"1101 MERCANTILE LANE SUITE 200","LARGO","MD",20774,38.905996498,-76.837819775,162,"1101 MERCANTILE LANE SUITE 200, LARGO, MD, 20774","Match","Exact","1101 MERCANTILE LN, LARGO, MD, 20774",76367383,"L"
20663,"1101 MERCANTILE LANE SUITE 200A","LARGO","MD",20774,38.905996498,-76.837819775,163,"1101 MERCANTILE LANE SUITE 200A, LARGO, MD, 20774","Match","Exact","1101 MERCANTILE LN, LARGO, MD, 20774",76367383,"L"
20664,"1101 MERCANTILE LN STE 260","UPPER MARLBORO","MD",20774,38.905996498,-76.837819775,164,"1101 MERCANTILE LN STE 260, UPPER MARLBORO, MD, 20774","Match","Exact","1101 MERCANTILE LN, UPPER MARLBORO, MD, 20774",76367383,"L"
20665,"1101 MIDDLE STREET","FORT LAURDEDALE","FM",33312,NA,NA,165,"1101 MIDDLE STREET, FORT LAURDEDALE, FM, 33312","No_Match",NA,NA,NA,NA
20666,"1101 MILITARY WEST","BENICIA","CA",94510,38.0641583140001,-122.175619502,166,"1101 MILITARY WEST, BENICIA, CA, 94510","Match","Exact","1101 MILITARY W, BENICIA, CA, 94510",636416552,"R"
20667,"1101 MIMOSA DRIVE","ROSWELL","NM",88201,33.425828306,-104.509975116,167,"1101 MIMOSA DRIVE, ROSWELL, NM, 88201","Match","Non_Exact","1101 MIMOSA LN, ROSWELL, NM, 88201",614026283,"R"
20668,"1101 MIRANDA LANE STE 131","KISSIMMEE","FL",34741,28.3470212980001,-81.41448539,168,"1101 MIRANDA LANE STE 131, KISSIMMEE, FL, 34741","Match","Exact","1101 MIRANDA LN, KISSIMMEE, FL, 34741",639422723,"L"
20669,"1101 N 13TH ST","PHOENIX","AZ",85006,33.459632313,-112.054253042,169,"1101 N 13TH ST, PHOENIX, AZ, 85006","Match","Exact","1101 N 13TH ST, PHOENIX, AZ, 85006",128293297,"R"
20670,"1101 N 8TH PLACE","COOLIDGE","AZ",85128,32.9867769690001,-111.528246038,170,"1101 N 8TH PLACE, COOLIDGE, AZ, 85128","Match","Exact","1101 N 8TH PL, COOLIDGE, AZ, 85128",129224367,"R"
20671,"1101 N CALVERT ST APT 1108","BALTIMORE","MD",21202,39.3025887260001,-76.613244815,171,"1101 N CALVERT ST APT 1108, BALTIMORE, MD, 21202","Match","Non_Exact","1101 N CALVERT ST, BALTIMORE, MD, 21202",206419481,"R"
20672,"1101 N COLLIER BLVD","MARCO ISLAND","FL",34145,25.955319425,-81.7213488899999,172,"1101 N COLLIER BLVD, MARCO ISLAND, FL, 34145","Match","Exact","1101 N COLLIER BLVD, MARCO ISLAND, FL, 34145",640833358,"L"
20673,"1101 N COMMONS RD","TURLOCK","CA",95380,37.502512655,-120.912810223,173,"1101 N COMMONS RD, TURLOCK, CA, 95380","Match","Exact","1101 N COMMONS RD, TURLOCK, CA, 95380",102594046,"R"
20674,"1101 N DECATUR BLVD","LAS VEGAS","NV",89108,36.1830403450001,-115.206104866,174,"1101 N DECATUR BLVD, LAS VEGAS, NV, 89108","Match","Exact","1101 N DECATUR BLVD, LAS VEGAS, NV, 89108",201860984,"L"
20675,"1101 N GIDDINGS","VISALIA","CA",93291,36.3402453140001,-119.30557233,175,"1101 N GIDDINGS, VISALIA, CA, 93291","Match","Non_Exact","1101 N GIDDINGS ST, VISALIA, CA, 93291",202779983,"L"
20676,"1101 N HIGHLAND ST","ARLINGTON","VA",22201,38.886227266,-77.094826226,176,"1101 N HIGHLAND ST, ARLINGTON, VA, 22201","Match","Exact","1101 N HIGHLAND ST, ARLINGTON, VA, 22201",76469612,"R"
20677,"1101 N KINGS HIGHWAY SUITE 201","CHERRY HILL","NJ",8034,39.9196601570001,-75.003948866,177,"1101 N KINGS HIGHWAY SUITE 201, CHERRY HILL, NJ, 8034","Match","Exact","1101 KINGS HWY, CHERRY HILL, NJ, 08034",134419657,"L"
20678,"1101 N LAKE DRIVE","LAKEWOOD","NJ",8701,40.096374224,-74.2318545159999,178,"1101 N LAKE DRIVE, LAKEWOOD, NJ, 8701","Match","Exact","1101 N LAKE DR, LAKEWOOD, NJ, 08701",203723359,"L"
20679,"1101 N RECKER RD","GILBERT","AZ",85234,33.369483947,-111.704834264,179,"1101 N RECKER RD, GILBERT, AZ, 85234","Match","Exact","1101 N RECKER RD, GILBERT, AZ, 85234",649463907,"R"
20680,"1101 N SHELBY STREET","SALEM","IN",47167,38.6150859530001,-86.107761261,180,"1101 N SHELBY STREET, SALEM, IN, 47167","Match","Exact","1101 N SHELBY ST, SALEM, IN, 47167",77551461,"R"
20681,"1101 N SIDNEY AVENUE L","RUSSELLVILLE","AR",72801,35.289741357,-93.111750635,181,"1101 N SIDNEY AVENUE L, RUSSELLVILLE, AR, 72801","Match","Non_Exact","1101 N SIDNEY AVE, RUSSELLVILLE, AR, 72801",81893303,"R"
20682,"1101 N VERMILION STREET","DANVILLE","IL",61832,40.142299601,-87.630182242,182,"1101 N VERMILION STREET, DANVILLE, IL, 61832","Match","Exact","1101 N VERMILION ST, DANVILLE, IL, 61832",65997935,"R"
20683,"1101 N WEST AVE","EL DORADO","AR",71730,33.221935645,-92.6655410399999,183,"1101 N WEST AVE, EL DORADO, AR, 71730","Match","Exact","1101 N WEST AVE, EL DORADO, AR, 71730",28159824,"R"
20684,"1101 NAVIGATION BLVD","CORPUS CHRISTI","TX",78407,27.8058151610001,-97.453635971,184,"1101 NAVIGATION BLVD, CORPUS CHRISTI, TX, 78407","Match","Non_Exact","1101 NAVIGATION BLVD, CORPUS CHRISTI, TX, 78408",178512899,"L"
20685,"1101 NE 3RD AVE","BOCA RATON","FL",33432,26.36068083,-80.080672624,185,"1101 NE 3RD AVE, BOCA RATON, FL, 33432","Match","Exact","1101 NE 3RD AVE, BOCA RATON, FL, 33432",115303256,"L"
20686,"1101 NE 40TH COURT  STE 1","OAKLAND PARK","FL",33334,NA,NA,186,"1101 NE 40TH COURT  STE 1, OAKLAND PARK, FL, 33334","No_Match",NA,NA,NA,NA
20687,"1101 NEW YORK AVE","ALAMOGORDO","NM",88310,32.9007763820001,-105.959009795,187,"1101 NEW YORK AVE, ALAMOGORDO, NM, 88310","Match","Exact","1101 NEW YORK AVE, ALAMOGORDO, NM, 88310",132290395,"L"
20688,"1101 NEWYORK AVE","WASHINGTON","MD",20005,NA,NA,188,"1101 NEWYORK AVE, WASHINGTON, MD, 20005","No_Match",NA,NA,NA,NA
20689,"1101 NORCOVA CT","CHESAPEAKE","VA",23320,36.7510303820001,-76.213329457,189,"1101 NORCOVA CT, CHESAPEAKE, VA, 23320","Match","Exact","1101 NORCOVA CT, CHESAPEAKE, VA, 23320",121777671,"R"
20690,"1101 NORTH 70 TERRACE","HOLLYWOOD","FL",33024,26.0190915160001,-80.229065818,190,"1101 NORTH 70 TERRACE, HOLLYWOOD, FL, 33024","Match","Non_Exact","1101 NW 70TH TER, HOLLYWOOD, FL, 33024",114716014,"R"
20691,"1101 NORTH MAGNUM STREET","DURHAM","NC",27701,NA,NA,191,"1101 NORTH MAGNUM STREET, DURHAM, NC, 27701","No_Match",NA,NA,NA,NA
20692,"1101 NORTH MARKET STREET","WILMINGTON","DE",19801,39.74652064,-75.5471444999999,192,"1101 NORTH MARKET STREET, WILMINGTON, DE, 19801","Match","Exact","1101 N MARKET ST, WILMINGTON, DE, 19801",187257888,"L"
20693,"1101 NORTH WEST AVE","EL DORADO","AR",71730,33.221935645,-92.6655410399999,193,"1101 NORTH WEST AVE, EL DORADO, AR, 71730","Match","Exact","1101 N WEST AVE, EL DORADO, AR, 71730",28159824,"R"
20694,"1101 NW 2ND STREET","DELRAY BEACH","FL",33444,26.46537834,-80.0838570619999,194,"1101 NW 2ND STREET, DELRAY BEACH, FL, 33444","Match","Exact","1101 NW 2ND ST, DELRAY BEACH, FL, 33444",115290915,"R"
20695,"1101 NW 5TH AVE","BOCA RATON","FL",33432,26.3607811540001,-80.096309664,195,"1101 NW 5TH AVE, BOCA RATON, FL, 33432","Match","Exact","1101 NW 5TH AVE, BOCA RATON, FL, 33432",115302925,"L"
20696,"1101 OGLETHORPE DRIVE NE","ATLANTA","GA",30319,33.87792009,-84.3286816199999,196,"1101 OGLETHORPE DRIVE NE, ATLANTA, GA, 30319","Match","Exact","1101 OGLETHORPE DR NE, ATLANTA, GA, 30319",23392323,"R"
20697,"1101 OLD FORGE RD","ROCKY MOUNT","NC",27804,35.983218465,-77.842481059,197,"1101 OLD FORGE RD, ROCKY MOUNT, NC, 27804","Match","Exact","1101 OLD FORGE RD, ROCKY MOUNT, NC, 27804",90392839,"L"
20698,"1101 OLD RANCH ROAD","CAMARILLO","CA",93012,34.2283394030001,-118.985974299,198,"1101 OLD RANCH ROAD, CAMARILLO, CA, 93012","Match","Exact","1101 OLD RANCH RD, CAMARILLO, CA, 93012",109965475,"L"
20699,"1101 PEACHERS MILL RD","CLARKSVILLE","TN",37042,36.5787132510001,-87.3909029759999,199,"1101 PEACHERS MILL RD, CLARKSVILLE, TN, 37042","Match","Exact","1101 PEACHERS MILL RD, CLARKSVILLE, TN, 37042",31824607,"R"
20700,"1101 PENNSYLVANIA AVE NW STE 600","WASHINGTON","DC",20004,38.894765625,-77.027134932,200,"1101 PENNSYLVANIA AVE NW STE 600, WASHINGTON, DC, 20004","Match","Exact","1101 PENNSYLVANIA AVE NW, WASHINGTON, DC, 20004",76226316,"R"
20701,"1101 PENNSYLVANIA AVE NW SUITE 300","WASHINGTON","DC",20004,38.894765625,-77.027134932,201,"1101 PENNSYLVANIA AVE NW SUITE 300, WASHINGTON, DC, 20004","Match","Exact","1101 PENNSYLVANIA AVE NW, WASHINGTON, DC, 20004",76226316,"R"
20702,"1101 PERIMETER DRIVE SUITE 760","SCHAUMBURG","IL",60173,42.048456822,-88.033074594,202,"1101 PERIMETER DRIVE SUITE 760, SCHAUMBURG, IL, 60173","Match","Exact","1101 PERIMETER DR, SCHAUMBURG, IL, 60173",111698476,"L"
20703,"1101 POINT SYLVAN COURT APT E","ORLANDO","FL",32825,28.5618667790001,-81.2203685539999,203,"1101 POINT SYLVAN COURT APT E, ORLANDO, FL, 32825","Match","Exact","1101 POINT SYLVAN CT, ORLANDO, FL, 32825",94399858,"L"
20704,"1101 QUIET COVE LANE","KANNAPOLIS","NC",28083,35.5244248500001,-80.591962369,204,"1101 QUIET COVE LANE, KANNAPOLIS, NC, 28083","Match","Exact","1101 QUIET COVE LN, KANNAPOLIS, NC, 28083",25272633,"L"
20705,"1101 QUINTARD AVENUE NUM 1962","ANNISTON","AL",36201,33.6341274160001,-85.825459097,205,"1101 QUINTARD AVENUE NUM 1962, ANNISTON, AL, 36201","Match","Non_Exact","1101 S QUINTARD AVE, ANNISTON, AL, 36201",66544057,"L"
20706,"1101 RAILROAD LANE","PITTSBURG","CA",94565,38.025133624,-121.885540943,206,"1101 RAILROAD LANE, PITTSBURG, CA, 94565","Match","Exact","1101 RAILROAD LN, PITTSBURG, CA, 94565",607702359,"R"
20707,"1101 RANCHWOOD DR","SHOREWOOD","IL",60404,41.513643696,-88.211779201,207,"1101 RANCHWOOD DR, SHOREWOOD, IL, 60404","Match","Exact","1101 RANCHWOOD DR, SHOREWOOD, IL, 60404",111589455,"R"
20708,"1101 RED DRIVE","TRAVERSE CITY","MI",49686,44.752100318,-85.6464257,208,"1101 RED DRIVE, TRAVERSE CITY, MI, 49686","Match","Non_Exact","1101 RED DR, TRAVERSE CITY, MI, 49684",650224918,"R"
20709,"1101 REMINGTON DRIVE","KNOXVILLE","TN",37923,35.940538201,-84.072964235,209,"1101 REMINGTON DRIVE, KNOXVILLE, TN, 37923","Match","Non_Exact","1101 REMINGTON RD, KNOXVILLE, TN, 37923",42610222,"R"
20710,"1101 RIVERHILL DRIVE","GREENVILLE","NC",27858,NA,NA,210,"1101 RIVERHILL DRIVE, GREENVILLE, NC, 27858","No_Match",NA,NA,NA,NA
20711,"1101 ROWAN COURT","BALTIMORE","MD",21234,39.381291058,-76.576615169,211,"1101 ROWAN COURT, BALTIMORE, MD, 21234","Match","Exact","1101 ROWAN CT, BALTIMORE, MD, 21234",191514730,"R"
20712,"1101 ROYAL PARKWAY SITE 109","EULESS","TX",76040,32.8215544780001,-97.118844237,212,"1101 ROYAL PARKWAY SITE 109, EULESS, TX, 76040","Match","Exact","1101 ROYAL PKWY, EULESS, TX, 76040",102101457,"L"
20713,"1101 S 3RD","KELSO","WA",98626,NA,NA,213,"1101 S 3RD, KELSO, WA, 98626","No_Match",NA,NA,NA,NA
20714,"1101 S BROADWAY STREET SUITE 120","CARROLLTON","TX",75006,NA,NA,214,"1101 S BROADWAY STREET SUITE 120, CARROLLTON, TX, 75006","Tie",NA,NA,NA,NA
20715,"1101 S COOLIDGE CIR","AURORA","CO",80018,39.6955488630001,-104.708453523,215,"1101 S COOLIDGE CIR, AURORA, CO, 80018","Match","Exact","1101 S COOLIDGE CIR, AURORA, CO, 80018",177550506,"L"
20716,"1101 S DIXIE HIGHWAY","NEW SMYRNA BEACH","FL",32168,NA,NA,216,"1101 S DIXIE HIGHWAY, NEW SMYRNA BEACH, FL, 32168","No_Match",NA,NA,NA,NA
20717,"1101 S DWIGHT ST","COMPTON","CA",90220,33.88576462,-118.240813509,217,"1101 S DWIGHT ST, COMPTON, CA, 90220","Match","Non_Exact","1101 S DWIGHT AVE, COMPTON, CA, 90220",141680782,"R"
20718,"1101 S JOYCE ST  APT 2401","ARLINGTON","VA",22202,38.864106813,-77.0634226669999,218,"1101 S JOYCE ST  APT 2401, ARLINGTON, VA, 22202","Match","Non_Exact","1101 S JOYCE ST, ARLINGTON, VA, 22202",650091584,"L"
20719,"1101 S LIONS AVE","BROKEN ARROW","OK",74012,36.0416641530001,-95.80542819,219,"1101 S LIONS AVE, BROKEN ARROW, OK, 74012","Match","Exact","1101 S LIONS AVE, BROKEN ARROW, OK, 74012",166464119,"L"
20720,"1101 S MICHIGAN ST","PLYMOUTH","IN",46563,NA,NA,220,"1101 S MICHIGAN ST, PLYMOUTH, IN, 46563","Tie",NA,NA,NA,NA
20721,"1101 S WINCHESTER BLVD SUITE H-187","SAN JOSE","CA",95128,37.3063802550001,-121.95000948,221,"1101 S WINCHESTER BLVD SUITE H-187, SAN JOSE, CA, 95128","Match","Exact","1101 WINCHESTER BLVD, SAN JOSE, CA, 95128",122904112,"R"
20722,"1101 SALT SPRINGS RD","SYRACUSE","NY",13224,43.047439044,-76.096114391,222,"1101 SALT SPRINGS RD, SYRACUSE, NY, 13224","Match","Exact","1101 SALT SPRINGS RD, SYRACUSE, NY, 13224",46574252,"L"
20723,"1101 SATELLITE VIEW 405","ROUND ROCK","TX",78665,NA,NA,223,"1101 SATELLITE VIEW 405, ROUND ROCK, TX, 78665","No_Match",NA,NA,NA,NA
20724,"1101 SATELLITE VIEW SUITE 504","ROUND ROCK","TX",78665,NA,NA,224,"1101 SATELLITE VIEW SUITE 504, ROUND ROCK, TX, 78665","No_Match",NA,NA,NA,NA
20725,"1101 SE RAY DRIVE  APT C","OAK GROVE","MO",64075,39.0058630990001,-94.117355505,225,"1101 SE RAY DRIVE  APT C, OAK GROVE, MO, 64075","Match","Non_Exact","1101 SE RAY DR, OAK GROVE, MO, 64075",649158459,"L"
20726,"1101 SEPULVEDA BLVD UNIT 101","TORRANCE","CA",90502,33.8115596870001,-118.294027436,226,"1101 SEPULVEDA BLVD UNIT 101, TORRANCE, CA, 90502","Match","Exact","1101 SEPULVEDA BLVD, TORRANCE, CA, 90502",142650641,"R"
20727,"1101 SHINNECOCK HILLS DR","GEORGETOWN","TX",78628,30.6945047950001,-97.687270914,227,"1101 SHINNECOCK HILLS DR, GEORGETOWN, TX, 78628","Match","Exact","1101 SHINNECOCK HILLS DR, GEORGETOWN, TX, 78628",126533171,"R"
20728,"1101 SO MAIN ST","ATTLEBORO","MA",2703,41.906263659,-71.317141049,228,"1101 SO MAIN ST, ATTLEBORO, MA, 2703","Match","Exact","1101 S MAIN ST, ATTLEBORO, MA, 02703",46748324,"R"
20729,"1101 SOLAR RD NW","ALBUQUERQUE","NM",87107,35.1517304910001,-106.654198076,229,"1101 SOLAR RD NW, ALBUQUERQUE, NM, 87107","Match","Exact","1101 SOLAR RD NW, ALBUQUERQUE, NM, 87107",648068509,"R"
20730,"1101 SOUTH 19TH STREET","SPRINGFIELD","IL",62703,39.790455432,-89.629748021,230,"1101 SOUTH 19TH STREET, SPRINGFIELD, IL, 62703","Match","Exact","1101 S 19TH ST, SPRINGFIELD, IL, 62703",97325837,"R"
20731,"1101 SOUTH CARBON AVE TRLR 42","PRICE","UT",84501,39.586306248,-110.812887033,231,"1101 SOUTH CARBON AVE TRLR 42, PRICE, UT, 84501","Match","Exact","1101 S CARBON AVE, PRICE, UT, 84501",132831086,"R"
20732,"1101 SOUTH DASH POINT ROAD","FEDERAL WAY","WA",98003,47.3349380980001,-122.318941507,232,"1101 SOUTH DASH POINT ROAD, FEDERAL WAY, WA, 98003","Match","Exact","1101 S DASH POINT RD, FEDERAL WAY, WA, 98003",239774315,"R"
20733,"1101 SOUTH DIXIE FREEWAY","NEW SMYRNA BEACH","FL",32168,29.014338991,-80.922006568,233,"1101 SOUTH DIXIE FREEWAY, NEW SMYRNA BEACH, FL, 32168","Match","Exact","1101 S DIXIE FWY, NEW SMYRNA BEACH, FL, 32168",639403936,"R"
20734,"1101 SOUTH KEYSTONE AVENUE","UPPER DARBY","PA",19082,39.9599036320001,-75.27293436,234,"1101 SOUTH KEYSTONE AVENUE, UPPER DARBY, PA, 19082","Match","Exact","1101 S KEYSTONE AVE, UPPER DARBY, PA, 19082",134877566,"R"
20735,"1101 SOUTH M RD","AURORA","NE",68818,40.8436271640001,-98.073540183,235,"1101 SOUTH M RD, AURORA, NE, 68818","Match","Exact","1101 S M RD, AURORA, NE, 68818",159719955,"L"
20736,"1101 SOUTH MAIN STREET  SUITE 162","CHELSEA","MI",48118,42.309373947,-84.021097845,236,"1101 SOUTH MAIN STREET  SUITE 162, CHELSEA, MI, 48118","Match","Exact","1101 S MAIN ST, CHELSEA, MI, 48118",26038259,"L"
20737,"1101 SOUTH MAIN STREET SUITE 1450","FORT WORTH","TX",76104,32.732960582,-97.325873485,237,"1101 SOUTH MAIN STREET SUITE 1450, FORT WORTH, TX, 76104","Match","Exact","1101 S MAIN ST, FORT WORTH, TX, 76104",101889822,"L"
20738,"1101 SOUTH MAIN STREET","FORT WORTH","TX",76104,32.732960582,-97.325873485,238,"1101 SOUTH MAIN STREET, FORT WORTH, TX, 76104","Match","Exact","1101 S MAIN ST, FORT WORTH, TX, 76104",101889822,"L"
20739,"1101 SOUTH MCCULLOM","EL CENTRO","CA",92243,NA,NA,239,"1101 SOUTH MCCULLOM, EL CENTRO, CA, 92243","No_Match",NA,NA,NA,NA
20740,"1101 SOUTH NEPTUNE ROAD","EDMOND","OK",73003,35.6428579220001,-97.497667687,240,"1101 SOUTH NEPTUNE ROAD, EDMOND, OK, 73003","Match","Exact","1101 S NEPTUNE RD, EDMOND, OK, 73003",100435424,"R"
20741,"1101 SOUTH POTOMAC ST","HAGERSTOWN","MD",21740,39.6222967040001,-77.728744405,241,"1101 SOUTH POTOMAC ST, HAGERSTOWN, MD, 21740","Match","Exact","1101 S POTOMAC ST, HAGERSTOWN, MD, 21740",612163260,"R"
20742,"1101 SOUTH STATE STREET 603","CHICAGO","IL",60605,41.8691380180001,-87.627384507,242,"1101 SOUTH STATE STREET 603, CHICAGO, IL, 60605","Match","Exact","1101 S STATE ST, CHICAGO, IL, 60605",641805256,"L"
20743,"1101 SOUTH WEST 2ND AVE","ALEDO","IL",61231,NA,NA,243,"1101 SOUTH WEST 2ND AVE, ALEDO, IL, 61231","No_Match",NA,NA,NA,NA
20744,"1101 SOUTHEAST BLVD BLDG A","BAYOU VISTA","LA",70380,NA,NA,244,"1101 SOUTHEAST BLVD BLDG A, BAYOU VISTA, LA, 70380","No_Match",NA,NA,NA,NA
20745,"1101 ST PAUL ST 603","BALTIMORE","MD",21202,39.302548254,-76.614403511,245,"1101 ST PAUL ST 603, BALTIMORE, MD, 21202","Match","Exact","1101 SAINT PAUL ST, BALTIMORE, MD, 21202",206419286,"R"
20746,"1101 STINNETT PLACE","DESOTO","TX",75115,32.6017470900001,-96.8842488939999,246,"1101 STINNETT PLACE, DESOTO, TX, 75115","Match","Exact","1101 STINNETT PL, DESOTO, TX, 75115",102944099,"R"
20747,"1101 SUMMERHILL","PARAGOULD","AR",72450,36.046750295,-90.505527983,247,"1101 SUMMERHILL, PARAGOULD, AR, 72450","Match","Exact","1101 SUMMERHILL, PARAGOULD, AR, 72450",47061738,"L"
20748,"1101 SUNSET RD  681805","CHARLOTTE","NC",28216,35.32266292,-80.901668294,248,"1101 SUNSET RD  681805, CHARLOTTE, NC, 28216","Match","Exact","1101 SUNSET RD, CHARLOTTE, NC, 28216",70555457,"R"
20749,"1101 SUNSET RD 681805","CHARLOTTE","NC",28216,35.32266292,-80.901668294,249,"1101 SUNSET RD 681805, CHARLOTTE, NC, 28216","Match","Exact","1101 SUNSET RD, CHARLOTTE, NC, 28216",70555457,"R"
20750,"1101 SUNSET ROAD PO BOX 680963","CHARLOTTE","NC",28216,35.32266292,-80.901668294,250,"1101 SUNSET ROAD PO BOX 680963, CHARLOTTE, NC, 28216","Match","Exact","1101 SUNSET RD, CHARLOTTE, NC, 28216",70555457,"R"
20751,"1101 SW 35 AVENUE","MIAMI","FL",33135,25.7617580570001,-80.251986732,251,"1101 SW 35 AVENUE, MIAMI, FL, 33135","Match","Exact","1101 SW 35TH AVE, MIAMI, FL, 33135",116011916,"L"
20752,"1101 SW PIONEER WAY","MYRTLE CREEK","OR",97457,43.018836557,-123.295007542,252,"1101 SW PIONEER WAY, MYRTLE CREEK, OR, 97457","Match","Exact","1101 PIONEER WAY, MYRTLE CREEK, OR, 97457",137233294,"L"
20753,"1101 TEPEE CT","DOUGLAS","WY",82633,42.7446469430001,-105.385453457,253,"1101 TEPEE CT, DOUGLAS, WY, 82633","Match","Exact","1101 TEPEE CT, DOUGLAS, WY, 82633",631793257,"R"
20754,"1101 TIMBER RUN","O FALLON","IL",62269,38.608164253,-89.896485883,254,"1101 TIMBER RUN, O FALLON, IL, 62269","Match","Exact","1101 TIMBER RUN, O FALLON, IL, 62269",107886779,"R"
20755,"1101 TITAN CIRCLE","GREENSBORO","GA",30642,NA,NA,255,"1101 TITAN CIRCLE, GREENSBORO, GA, 30642","No_Match",NA,NA,NA,NA
20756,"1101 TRAIL VIEW LN SE","PINE ISLAND","MN",55963,44.1939403540001,-92.634633847,256,"1101 TRAIL VIEW LN SE, PINE ISLAND, MN, 55963","Match","Exact","1101 TRAIL VIEW LN SE, PINE ISLAND, MN, 55963",30570801,"R"
20757,"1101 TRINIDAD DR","FORT WORTH","TX",76140,32.604644197,-97.3001989109999,257,"1101 TRINIDAD DR, FORT WORTH, TX, 76140","Match","Exact","1101 TRINIDAD DR, FORT WORTH, TX, 76140",619874383,"L"
20758,"1101 VATICAN ROAD","CHURCH POINT","LA",70525,30.3093046990001,-92.1249366869999,258,"1101 VATICAN ROAD, CHURCH POINT, LA, 70525","Match","Exact","1101 VATICAN RD, CHURCH POINT, LA, 70525",642937136,"R"
20759,"1101 VICTORIA ST","BRANDON","FL",33510,27.9451157450001,-82.300406272,259,"1101 VICTORIA ST, BRANDON, FL, 33510","Match","Exact","1101 VICTORIA ST, BRANDON, FL, 33510",104542961,"L"
20760,"1101 VINE AVENUE","MARTINEZ","CA",94553,38.0085555380001,-122.115657043,260,"1101 VINE AVENUE, MARTINEZ, CA, 94553","Match","Exact","1101 VINE AVE, MARTINEZ, CA, 94553",192036117,"L"
20761,"1101 VOLUNTEER PKWY","BRISTOL","TN",37620,NA,NA,261,"1101 VOLUNTEER PKWY, BRISTOL, TN, 37620","No_Match",NA,NA,NA,NA
20762,"1101 W 34TH ST 148","AUSTIN","TX",78705,30.303235828,-97.745838492,262,"1101 W 34TH ST 148, AUSTIN, TX, 78705","Match","Non_Exact","1101 W 34TH ST, AUSTIN, TX, 78705",63942455,"L"
20763,"1101 W 34TH ST UNIT 114","AUSTIN","TX",78705,30.303235828,-97.745838492,263,"1101 W 34TH ST UNIT 114, AUSTIN, TX, 78705","Match","Non_Exact","1101 W 34TH ST, AUSTIN, TX, 78705",63942455,"L"
20764,"1101 W BROADWAY","STANTON","TX",79782,NA,NA,264,"1101 W BROADWAY, STANTON, TX, 79782","No_Match",NA,NA,NA,NA
20765,"1101 W ERIE STREET SUITE F","CHANDLER","AZ",85224,33.309693602,-111.860992999,265,"1101 W ERIE STREET SUITE F, CHANDLER, AZ, 85224","Match","Non_Exact","1101 W ERIE ST, CHANDLER, AZ, 85224",128242736,"L"
20766,"1101 W HAMILTON ST STE 273","ALLENTOWN","PA",18101,40.5999854120001,-75.479903237,266,"1101 W HAMILTON ST STE 273, ALLENTOWN, PA, 18101","Match","Non_Exact","1101 W HAMILTON ST, ALLENTOWN, PA, 18101",80770038,"R"
20767,"1101 W LUCAS RD","LUCAS","TX",75002,33.085951412,-96.561053433,267,"1101 W LUCAS RD, LUCAS, TX, 75002","Match","Non_Exact","1101 E LUCAS RD, LUCAS, TX, 75002",642473869,"R"
20768,"1101 W MINERAL AVE STE 110","LITTLETON","CO",80120,39.5735499560001,-105.00105461,268,"1101 W MINERAL AVE STE 110, LITTLETON, CO, 80120","Match","Non_Exact","1101 W MINERAL AVE, LITTLETON, CO, 80120",177559842,"R"
20769,"1101 W REDBUD DR","HURST","TX",76053,32.8177692140001,-97.196492341,269,"1101 W REDBUD DR, HURST, TX, 76053","Match","Exact","1101 W REDBUD DR, HURST, TX, 76053",101866628,"L"
20770,"1101 W RIVER ST STE 350","BOISE","ID",83702,43.612410077,-116.211944368,270,"1101 W RIVER ST STE 350, BOISE, ID, 83702","Match","Exact","1101 RIVER ST, BOISE, ID, 83702",117864387,"L"
20771,"1101 W STREET SE UNIT A","WASHINGTON","DC",20020,38.8653263240001,-76.9905778729999,271,"1101 W STREET SE UNIT A, WASHINGTON, DC, 20020","Match","Exact","1101 W ST SE, WASHINGTON, DC, 20020",76231073,"R"
20772,"1101 W STREET SE","WASHINGTON","DC",20020,38.8653263240001,-76.9905778729999,272,"1101 W STREET SE, WASHINGTON, DC, 20020","Match","Exact","1101 W ST SE, WASHINGTON, DC, 20020",76231073,"R"
20773,"1101 W VICKSBURG PL","BROKEN ARROW","OK",74011,36.009732049,-95.8037042999999,273,"1101 W VICKSBURG PL, BROKEN ARROW, OK, 74011","Match","Exact","1101 W VICKSBURG PL, BROKEN ARROW, OK, 74011",166464523,"R"
20774,"1101 WASHINGTON STREET","MARION","AL",36756,32.623462341,-87.3182344849999,274,"1101 WASHINGTON STREET, MARION, AL, 36756","Match","Exact","1101 WASHINGTON ST, MARION, AL, 36756",28059750,"L"
20775,"1101 WELLINGTON DRIVE","LEAVENWORTH","KS",66048,39.278637987,-94.9310314849999,275,"1101 WELLINGTON DRIVE, LEAVENWORTH, KS, 66048","Match","Exact","1101 WELLINGTON DR, LEAVENWORTH, KS, 66048",91406908,"L"
20776,"1101 WEST 9TH STREET","DAVENPORT","IA",52804,41.528855132,-90.588903595,276,"1101 WEST 9TH STREET, DAVENPORT, IA, 52804","Match","Exact","1101 W 9TH ST, DAVENPORT, IA, 52804",122725138,"L"
20777,"1101 WEST RED OAK ROAD","RED OAK","TX",75154,32.517244256,-96.816903972,277,"1101 WEST RED OAK ROAD, RED OAK, TX, 75154","Match","Exact","1101 W RED OAK RD, RED OAK, TX, 75154",632537575,"L"
20778,"1101 WEST STEVENS AVE APT 14","SANTA ANA","CA",92707,33.694576942,-117.88224999,278,"1101 WEST STEVENS AVE APT 14, SANTA ANA, CA, 92707","Match","Exact","1101 W STEVENS AVE, SANTA ANA, CA, 92707",612216042,"R"
20779,"1101 WEST SWANN AVENUE","TAMPA","FL",33606,27.937310681,-82.470763183,279,"1101 WEST SWANN AVENUE, TAMPA, FL, 33606","Match","Exact","1101 W SWANN AVE, TAMPA, FL, 33606",104631248,"R"
20780,"1101 WHEATON AVE - SUITE 100","MILLVILLE","NJ",8332,39.4126066900001,-75.031282312,280,"1101 WHEATON AVE - SUITE 100, MILLVILLE, NJ, 8332","Match","Exact","1101 WHEATON AVE, MILLVILLE, NJ, 08332",174112395,"R"
20781,"1101 WHITE HORSE ROAD  SUITE C","VOORHEES","NJ",8043,39.850368534,-74.9861931899999,281,"1101 WHITE HORSE ROAD  SUITE C, VOORHEES, NJ, 8043","Match","Exact","1101 WHITE HORSE RD, VOORHEES, NJ, 08043",134402208,"R"
20782,"1101 WILLIAMS ST","FLATWOODS","KY",41139,38.5158553380001,-82.7210925259999,282,"1101 WILLIAMS ST, FLATWOODS, KY, 41139","Match","Exact","1101 WILLIAMS ST, FLATWOODS, KY, 41139",151402066,"L"
20783,"1101 WILMINGTON AVE","NEW CASTLE","PA",16101,41.0120692570001,-80.3503207749999,283,"1101 WILMINGTON AVE, NEW CASTLE, PA, 16101","Match","Non_Exact","1101 WILMINGTON RD, NEW CASTLE, PA, 16101",65178635,"L"
20784,"1101 WITT ROAD","CINCINNATI","OH",45255,39.069373526,-84.3366010569999,284,"1101 WITT ROAD, CINCINNATI, OH, 45255","Match","Exact","1101 WITT RD, CINCINNATI, OH, 45255",103940874,"L"
20785,"1101 WRIGHT AVENUE","RICHMOND","CA",94804,37.921198212,-122.358943415,285,"1101 WRIGHT AVENUE, RICHMOND, CA, 94804","Match","Exact","1101 WRIGHT AVE, RICHMOND, CA, 94804",647638653,"L"
20786,"1101 WYLAND CT","LELAND","NC",28451,34.2221627820001,-78.0395218899999,286,"1101 WYLAND CT, LELAND, NC, 28451","Match","Exact","1101 WYLAND CT, LELAND, NC, 28451",153186286,"R"
20787,"1101 WYOMING AVE","EXETER","PA",18643,41.3216462500001,-75.8164649289999,287,"1101 WYOMING AVE, EXETER, PA, 18643","Match","Exact","1101 WYOMING AVE, EXETER, PA, 18643",80917250,"L"
20788,"1101 WYOMING AVENUE","EXETER","PA",18643,41.3216462500001,-75.8164649289999,288,"1101 WYOMING AVENUE, EXETER, PA, 18643","Match","Exact","1101 WYOMING AVE, EXETER, PA, 18643",80917250,"L"
20789,"1101 YEADON AVENUE","YEADON","PA",19050,39.9260318940001,-75.2473468429999,289,"1101 YEADON AVENUE, YEADON, PA, 19050","Match","Exact","1101 YEADON AVE, YEADON, PA, 19050",134886800,"L"
20790,"1101-L HILLCREST PARKWAY  SUITE 29","DUBLIN","GA",31021,32.546617504,-82.9350500909999,290,"1101-L HILLCREST PARKWAY  SUITE 29, DUBLIN, GA, 31021","Match","Exact","1101 HILLCREST PKWY, DUBLIN, GA, 31021",100671802,"L"
20791,"11010 ANNAPOLIS RD","BOWIE","MD",20720,38.95690898,-76.814435508,291,"11010 ANNAPOLIS RD, BOWIE, MD, 20720","Match","Exact","11010 ANNAPOLIS RD, BOWIE, MD, 20720",639596703,"L"
20792,"11010 BUNK FOSS RD","SNOHOMISH","WA",98290,47.9491807540001,-122.083944832,292,"11010 BUNK FOSS RD, SNOHOMISH, WA, 98290","Match","Exact","11010 BUNK FOSS RD, SNOHOMISH, WA, 98290",187810920,"L"
20793,"11010 COMBIE RD","AUBURN","CA",95602,39.0390544210001,-121.07889554,293,"11010 COMBIE RD, AUBURN, CA, 95602","Match","Exact","11010 COMBIE RD, AUBURN, CA, 95602",636414900,"R"
20794,"11010 FORESTGATE PLACE","GLENN DALE","MD",20769,38.9976017230001,-76.817143304,294,"11010 FORESTGATE PLACE, GLENN DALE, MD, 20769","Match","Exact","11010 FORESTGATE PL, GLENN DALE, MD, 20769",76342707,"L"
20795,"11010 HARBOR HILL DR NW SUITE B 413","GIG HARBOR","WA",98332,47.3559692270001,-122.599925967,295,"11010 HARBOR HILL DR NW SUITE B 413, GIG HARBOR, WA, 98332","Match","Non_Exact","11010 HARBOR HILL DR, GIG HARBOR, WA, 98332",627794832,"L"
20796,"11010 HARBOR HILL DR STE B262","GIG HARBOR","WA",98332,47.3559692270001,-122.599925967,296,"11010 HARBOR HILL DR STE B262, GIG HARBOR, WA, 98332","Match","Exact","11010 HARBOR HILL DR, GIG HARBOR, WA, 98332",627794832,"L"
20797,"11010 NOB HILL ROAD","PARKLAND","FL",33076,NA,NA,297,"11010 NOB HILL ROAD, PARKLAND, FL, 33076","No_Match",NA,NA,NA,NA
20798,"11010 PELICAN DR","UPPER MARLBORO","MD",20772,38.7545322240001,-76.815612833,298,"11010 PELICAN DR, UPPER MARLBORO, MD, 20772","Match","Exact","11010 PELICAN DR, UPPER MARLBORO, MD, 20772",76345047,"L"
20799,"11010 POPLAR FORD TRL","MANASSAS","VA",20109,38.8349724930001,-77.524204519,299,"11010 POPLAR FORD TRL, MANASSAS, VA, 20109","Match","Exact","11010 POPLAR FORD TRL, MANASSAS, VA, 20109",207156806,"L"
20800,"11010 RIVERVIEW DRIVE","RIVERVIEW","FL",33578,27.871716281,-82.321007225,300,"11010 RIVERVIEW DRIVE, RIVERVIEW, FL, 33578","Match","Exact","11010 RIVERVIEW DR, RIVERVIEW, FL, 33578",642587347,"L"
20801,"11010 S HARDING AVE","CHICAGO","IL",60655,41.6928529360001,-87.719199814,301,"11010 S HARDING AVE, CHICAGO, IL, 60655","Match","Exact","11010 S HARDING AVE, CHICAGO, IL, 60655",605316739,"R"
20802,"11010 S TRYON STREET","CHARLOTTE","NC",28273,35.1165326440001,-80.959416543,302,"11010 S TRYON STREET, CHARLOTTE, NC, 28273","Match","Exact","11010 S TRYON ST, CHARLOTTE, NC, 28273",612447802,"R"
20803,"11010 THOUSAND OAKS DRIVE","ST LOUIS","MO",63136,38.772370159,-90.251664283,303,"11010 THOUSAND OAKS DRIVE, ST LOUIS, MO, 63136","Match","Exact","11010 THOUSAND OAKS DR, SAINT LOUIS, MO, 63136",100148277,"R"
20804,"11010 W ELM LANE","AVONDALE","AZ",85323,33.4230983160001,-112.296042521,304,"11010 W ELM LANE, AVONDALE, AZ, 85323","Match","Exact","11010 W ELM LN, AVONDALE, AZ, 85323",647582038,"R"
20805,"11010 W HWY 156","WEST FORK","AR",72774,NA,NA,305,"11010 W HWY 156, WEST FORK, AR, 72774","No_Match",NA,NA,NA,NA
20806,"11010 WARWICK BLVD","NEWPORT NEWS","VA",23601,37.0433064650001,-76.4729682289999,306,"11010 WARWICK BLVD, NEWPORT NEWS, VA, 23601","Match","Exact","11010 WARWICK BLVD, NEWPORT NEWS, VA, 23601",103824176,"R"
20807,"11011 CRENSHAW BLVD STE 102","INGLEWOOD","CA",90303,33.935663758,-118.326409298,307,"11011 CRENSHAW BLVD STE 102, INGLEWOOD, CA, 90303","Match","Exact","11011 CRENSHAW BLVD, INGLEWOOD, CA, 90303",141657181,"R"
20808,"11011 DOMAIN DRIVE","AUSTIN","TX",78758,30.396292859,-97.726512086,308,"11011 DOMAIN DRIVE, AUSTIN, TX, 78758","Match","Exact","11011 DOMAIN DR, AUSTIN, TX, 78758",640743411,"L"
20809,"11011 HARTS RD APT 1315","JACKSONVILLE","FL",32218,NA,NA,309,"11011 HARTS RD APT 1315, JACKSONVILLE, FL, 32218","Tie",NA,NA,NA,NA
20810,"11011 HERITAGE LOOP RD","PASO ROBLES","CA",93446,NA,NA,310,"11011 HERITAGE LOOP RD, PASO ROBLES, CA, 93446","No_Match",NA,NA,NA,NA
20811,"11011 HUSTON ST PH 13","NORTH HOLLYWOOD","CA",91601,34.160103351,-118.370805088,311,"11011 HUSTON ST PH 13, NORTH HOLLYWOOD, CA, 91601","Match","Exact","11011 HUSTON ST, N HOLLYWOOD, CA, 91601",141591786,"R"
20812,"11011 N 92 STREET SUITE 1146","SCOTTSDALE","AZ",85260,33.58575769,-111.882680761,312,"11011 N 92 STREET SUITE 1146, SCOTTSDALE, AZ, 85260","Match","Non_Exact","11011 N 92ND ST, SCOTTSDALE, AZ, 85260",651806142,"L"
20813,"11011 NE 9TH ST 408","BELLEVUE","WA",98004,NA,NA,313,"11011 NE 9TH ST 408, BELLEVUE, WA, 98004","Tie",NA,NA,NA,NA
20814,"11011 OLDE MINT HOUSE LN","TOMBALL","TX",77375,30.0655531090001,-95.58501075,314,"11011 OLDE MINT HOUSE LN, TOMBALL, TX, 77375","Match","Exact","11011 OLDE MINT HOUSE LN, TOMBALL, TX, 77375",96555216,"L"
20815,"11011 PINEWOOD","LA PORTE","TX",77571,29.6590642900001,-95.059104576,315,"11011 PINEWOOD, LA PORTE, TX, 77571","Match","Non_Exact","11011 PINEWOOD CT, LA PORTE, TX, 77571",96566018,"L"
20816,"11011 PLEASANT COLONY DR APT 2907","HOUSTON","TX",77065,29.897336168,-95.58470189,316,"11011 PLEASANT COLONY DR APT 2907, HOUSTON, TX, 77065","Match","Exact","11011 PLEASANT COLONY DR, HOUSTON, TX, 77065",96651389,"R"
20817,"11011 S 48TH ST STE 210B","PHOENIX","AZ",85044,33.3459809670001,-111.980474017,317,"11011 S 48TH ST STE 210B, PHOENIX, AZ, 85044","Match","Non_Exact","11011 S 48TH ST, PHOENIX, AZ, 85044",128236318,"L"
20818,"11011 SAFFOLD WAY","RESTON","VA",20190,38.970954829,-77.328004064,318,"11011 SAFFOLD WAY, RESTON, VA, 20190","Match","Exact","11011 SAFFOLD WAY, RESTON, VA, 20190",76035610,"R"
20819,"11011 SANTA FE AVE EAST","HESPERIA","CA",92345,34.452069813,-117.291490524,319,"11011 SANTA FE AVE EAST, HESPERIA, CA, 92345","Match","Exact","11011 SANTA FE AVE E, HESPERIA, CA, 92345",144588760,"R"
20820,"11011 SCAGGSVILLE RD","LAUREL","MD",20723,39.144083562,-76.894234307,320,"11011 SCAGGSVILLE RD, LAUREL, MD, 20723","Match","Exact","11011 SCAGGSVILLE RD, LAUREL, MD, 20723",158959465,"L"
20821,"11011 VICTORSON COURT","KETCHIKAN","AK",99901,55.4326292960001,-131.791982039,321,"11011 VICTORSON COURT, KETCHIKAN, AK, 99901","Match","Exact","11011 VICTORSON CT, KETCHIKAN, AK, 99901",190775929,"R"
20822,"11011 VINCENT AVE S","BLOOMINGTON","MN",55431,44.8042903460001,-93.316840622,322,"11011 VINCENT AVE S, BLOOMINGTON, MN, 55431","Match","Exact","11011 VINCENT AVE S, BLOOMINGTON, MN, 55431",43595441,"L"
20823,"11011","SYRACUSE","NY",13218,NA,NA,323,"11011, SYRACUSE, NY, 13218","No_Match",NA,NA,NA,NA
20824,"11012 5TH AVE","HESPERIA","CA",92345,34.4511233760001,-117.309209083,324,"11012 5TH AVE, HESPERIA, CA, 92345","Match","Exact","11012 5TH AVE, HESPERIA, CA, 92345",144588771,"L"
20825,"11012 CANYON RD E STE 8 PMB 130","PUYALLUP","WA",98373,47.156156481,-122.357188269,325,"11012 CANYON RD E STE 8 PMB 130, PUYALLUP, WA, 98373","Match","Exact","11012 CANYON RD E, PUYALLUP, WA, 98373",184759994,"R"
20826,"11012 CANYON RD E STE 8-110","PUYALLUP","WA",98373,47.156156481,-122.357188269,326,"11012 CANYON RD E STE 8-110, PUYALLUP, WA, 98373","Match","Exact","11012 CANYON RD E, PUYALLUP, WA, 98373",184759994,"R"
20827,"11012 CHANERA AVENUE","INGLEWOOD","CA",90303,33.9354999070001,-118.32440732,327,"11012 CHANERA AVENUE, INGLEWOOD, CA, 90303","Match","Non_Exact","11012 S CHANERA AVE, INGLEWOOD, CA, 90303",141657180,"L"
20828,"11012 EDMONDS LANE","DELAPLANE","VA",20144,38.98521766,-77.9578022219999,328,"11012 EDMONDS LANE, DELAPLANE, VA, 20144","Match","Exact","11012 EDMONDS LN, DELAPLANE, VA, 20144",146296220,"R"
20829,"11012 FALL CREST WAY","SAN DIEGO","CA",92126,32.9178183490001,-117.177628358,329,"11012 FALL CREST WAY, SAN DIEGO, CA, 92126","Match","Exact","11012 FALL CREST WAY, SAN DIEGO, CA, 92126",645308674,"R"
20830,"11012 SHETLAND AVENUE","MONTCLAIR","CA",91763,34.0537523830001,-117.705938766,330,"11012 SHETLAND AVENUE, MONTCLAIR, CA, 91763","Match","Exact","11012 SHETLAND AVE, MONTCLAIR, CA, 91763",144671482,"R"
20831,"11013 33RD ST SE","LAKE STEVENS","WA",98258,47.9664864580001,-122.083193268,331,"11013 33RD ST SE, LAKE STEVENS, WA, 98258","Match","Exact","11013 33RD ST SE, LAKE STEVENS, WA, 98258",187806278,"R"
20832,"11013 AURORA-HUDSON ROAD","STREETSBORO","OH",44241,NA,NA,332,"11013 AURORA-HUDSON ROAD, STREETSBORO, OH, 44241","No_Match",NA,NA,NA,NA
20833,"11013 HANNAWAY DR","RIVERVIEW","FL",33578,27.875352213,-82.320251339,333,"11013 HANNAWAY DR, RIVERVIEW, FL, 33578","Match","Exact","11013 HANNAWAY DR, RIVERVIEW, FL, 33578",104626236,"R"
20834,"11013 LAFAYETTE PLZ  2106","OMAHA","NE",68154,41.271122941,-96.083456884,334,"11013 LAFAYETTE PLZ  2106, OMAHA, NE, 68154","Match","Exact","11013 LAFAYETTE PLZ, OMAHA, NE, 68154",117015881,"L"
20835,"11013 LAFAYETTE PLZ 2106","OMAHA","NE",68154,41.271122941,-96.083456884,335,"11013 LAFAYETTE PLZ 2106, OMAHA, NE, 68154","Match","Exact","11013 LAFAYETTE PLZ, OMAHA, NE, 68154",117015881,"L"
20836,"11013 LEGACY LANE 103-27","PALM BEACH GARDENS","FL",33410,26.840512969,-80.0897262949999,336,"11013 LEGACY LANE 103-27, PALM BEACH GARDENS, FL, 33410","Match","Exact","11013 LEGACY LN, PALM BEACH GARDENS, FL, 33410",115544808,"L"
20837,"11013 LEXINGTON AVE NE","ALBUQUERQUE","NM",87112,35.1141438860001,-106.51837741,337,"11013 LEXINGTON AVE NE, ALBUQUERQUE, NM, 87112","Match","Exact","11013 LEXINGTON AVE NE, ALBUQUERQUE, NM, 87112",206720186,"L"
20838,"11014 19TH AVE SE SUITE 8 PMB 219","EVERETT","WA",98208,47.897928359,-122.206797218,338,"11014 19TH AVE SE SUITE 8 PMB 219, EVERETT, WA, 98208","Match","Exact","11014 19TH AVE SE, EVERETT, WA, 98208",187759936,"R"
20839,"11014 19TH AVE SE SUITE 8-276","EVERETT","WA",98208,47.897928359,-122.206797218,339,"11014 19TH AVE SE SUITE 8-276, EVERETT, WA, 98208","Match","Exact","11014 19TH AVE SE, EVERETT, WA, 98208",187759936,"R"
20840,"11014 19TH AVE SE SUITE 8-PMB 94","EVERETT","WA",98208,47.897928359,-122.206797218,340,"11014 19TH AVE SE SUITE 8-PMB 94, EVERETT, WA, 98208","Match","Exact","11014 19TH AVE SE, EVERETT, WA, 98208",187759936,"R"
20841,"11014 BIRDFOOT CT","RESTON","VA",20191,38.921725941,-77.3253391219999,341,"11014 BIRDFOOT CT, RESTON, VA, 20191","Match","Exact","11014 BIRDFOOT CT, RESTON, VA, 20191",642598239,"L"
20842,"11014 BOOTH AVENUE","KANSAS CITY","MO",64134,38.9235181930001,-94.491040933,342,"11014 BOOTH AVENUE, KANSAS CITY, MO, 64134","Match","Exact","11014 BOOTH AVE, KANSAS CITY, MO, 64134",91466316,"R"
20843,"11014 E FLOSSMOR CIR","MESA","AZ",85208,33.3938881730001,-111.59352787,343,"11014 E FLOSSMOR CIR, MESA, AZ, 85208","Match","Non_Exact","11014 E FLOSSMOOR CIR, MESA, AZ, 85208",128821778,"R"
20844,"11014 LANCASTER ROAD / BOX 205","RUDY","AR",72952,35.5963620260001,-94.2447579,344,"11014 LANCASTER ROAD / BOX 205, RUDY, AR, 72952","Match","Exact","11014 LANCASTER RD, RUDY, AR, 72952",53487189,"R"
20845,"11014 SPRANGLETOP CT","HOUSTON","TX",77086,29.935918255,-95.4900404479999,345,"11014 SPRANGLETOP CT, HOUSTON, TX, 77086","Match","Exact","11014 SPRANGLETOP CT, HOUSTON, TX, 77086",96154533,"R"
20846,"11014 SUNNY BLUFF DR","LAWRENCE","IN",46236,39.8843888490001,-85.972777327,346,"11014 SUNNY BLUFF DR, LAWRENCE, IN, 46236","Match","Non_Exact","11014 SUNNY BLUFF DR, INDIANAPOLIS, IN, 46236",627140685,"L"
20847,"11014 WHITTIER ST","DETROIT","MI",48224,42.4182302570001,-82.956171104,347,"11014 WHITTIER ST, DETROIT, MI, 48224","Match","Exact","11014 WHITTIER ST, DETROIT, MI, 48224",95469758,"R"
20848,"11015 178 STREET","JAMAICA","NY",11433,40.6983619320001,-73.7764316399999,348,"11015 178 STREET, JAMAICA, NY, 11433","Match","Exact","11015 178TH ST, JAMAICA, NY, 11433",59718597,"L"
20849,"11015 ABBOTTS STATION DR","JOHNS CREEK","GA",30097,34.050012973,-84.1859285209999,349,"11015 ABBOTTS STATION DR, JOHNS CREEK, GA, 30097","Match","Exact","11015 ABBOTTS STATION DR, JOHNS CREEK, GA, 30097",628067936,"L"
20850,"11015 BIG PINEY DR","OMAHA","AR",72662,36.4166998590001,-93.214390936,350,"11015 BIG PINEY DR, OMAHA, AR, 72662","Match","Exact","11015 BIG PINEY DR, OMAHA, AR, 72662",627481768,"R"
20851,"11015 BOLSTER COURT","SUWANEE","GA",30024,34.0477254030001,-84.121381398,351,"11015 BOLSTER COURT, SUWANEE, GA, 30024","Match","Exact","11015 BOLSTER CT, SUWANEE, GA, 30024",627272564,"L"
20852,"11015 CLAUDE LEWIS RD","MIDDLESEX","NC",27557,35.773034201,-78.1884162229999,352,"11015 CLAUDE LEWIS RD, MIDDLESEX, NC, 27557","Match","Exact","11015 CLAUDE LEWIS RD, MIDDLESEX, NC, 27557",90378694,"L"
20853,"11015 E TUMBLEWEED AVE","MESA","AZ",85212,33.3163256080001,-111.595761202,353,"11015 E TUMBLEWEED AVE, MESA, AZ, 85212","Match","Exact","11015 E TUMBLEWEED AVE, MESA, AZ, 85212",646887200,"R"
20854,"11015 ROCKCLIFF DRIVE NW","HUNTSVILLE","AL",35810,34.810919622,-86.576866824,354,"11015 ROCKCLIFF DRIVE NW, HUNTSVILLE, AL, 35810","Match","Exact","11015 ROCKCLIFF DR NW, HUNTSVILLE, AL, 35810",58118174,"L"
20855,"11015 W 75TH STREET","SHAWNEE","KS",66214,38.9929067740001,-94.713624765,355,"11015 W 75TH STREET, SHAWNEE, KS, 66214","Match","Exact","11015 W 75TH ST, SHAWNEE, KS, 66214",91326872,"L"
20856,"11016 COMPTON AVENUE","COMPTN","CA",90059,33.9353783970001,-118.246274515,356,"11016 COMPTON AVENUE, COMPTN, CA, 90059","Match","Non_Exact","11016 COMPTON AVE, LOS ANGELES, CA, 90059",141674125,"L"
20857,"11016 PEM RD","SAINT LOUIS","MO",63146,38.6819544210001,-90.425957913,357,"11016 PEM RD, SAINT LOUIS, MO, 63146","Match","Exact","11016 PEM RD, SAINT LOUIS, MO, 63146",100124935,"L"
20858,"11016 SAINT MARK AVENUE","CLEVELAND","OH",44111,41.4579719910001,-81.762796225,358,"11016 SAINT MARK AVENUE, CLEVELAND, OH, 44111","Match","Exact","11016 SAINT MARK AVE, CLEVELAND, OH, 44111",61104606,"R"
20859,"11016 SWELFLING TERRACE","AUSTIN","TX",78737,30.203118685,-97.924205468,359,"11016 SWELFLING TERRACE, AUSTIN, TX, 78737","Match","Exact","11016 SWELFLING TER, AUSTIN, TX, 78737",63996695,"L"
20860,"11016 WYNDHAM POINTE DRIVE","CHARLOTTE","NC",28213,35.2970902390001,-80.705542231,360,"11016 WYNDHAM POINTE DRIVE, CHARLOTTE, NC, 28213","Match","Exact","11016 WYNDHAM POINTE DR, CHARLOTTE, NC, 28213",70598216,"R"
20861,"11017 CHAPEL ST","WAKEMAN","OH",44889,41.3307977360001,-82.354149735,361,"11017 CHAPEL ST, WAKEMAN, OH, 44889","Match","Non_Exact","11017 CHAPEL, WAKEMAN, OH, 44889",55331512,"R"
20862,"11017 LOCUST DRIVE","DAMASCUS","MD",20872,39.2886849060001,-77.207340922,362,"11017 LOCUST DRIVE, DAMASCUS, MD, 20872","Match","Exact","11017 LOCUST DR, DAMASCUS, MD, 20872",62141094,"R"
20863,"11017 MOLLY DR","NEOSHO","MO",64850,36.856187279,-94.4446309739999,363,"11017 MOLLY DR, NEOSHO, MO, 64850","Match","Non_Exact","11017 MOLLY LN, NEOSHO, MO, 64850",623848748,"L"
20864,"11017 N STILLWATER DRIVE","DUNLAP","IL",61525,40.8224492780001,-89.6158472829999,364,"11017 N STILLWATER DRIVE, DUNLAP, IL, 61525","Match","Exact","11017 STILLWATER DR, DUNLAP, IL, 61525",8734127,"R"
20865,"11017 SOUTH  AVE O","CHICAGO","IL",60617,41.6951034470001,-87.540097306,365,"11017 SOUTH  AVE O, CHICAGO, IL, 60617","Match","Exact","11017 S AVE O, CHICAGO, IL, 60617",111782368,"L"
20866,"11017 SPRINGFIELD BLVD","QUEENS VILLAGE","NY",11429,NA,NA,366,"11017 SPRINGFIELD BLVD, QUEENS VILLAGE, NY, 11429","No_Match",NA,NA,NA,NA
20867,"11017 SUNSET RIDGE CIR","BOYNTON BEACH","FL",33437,26.5144820310001,-80.1787724009999,367,"11017 SUNSET RIDGE CIR, BOYNTON BEACH, FL, 33437","Match","Non_Exact","11017 SUNSET RIDGE CIR, BOYNTON BEACH, FL, 33473",647698466,"L"
20868,"11017 YOSEMITE VALLEY DR","LITTLE ROCK","AR",72212,34.7733783190001,-92.3961758949999,368,"11017 YOSEMITE VALLEY DR, LITTLE ROCK, AR, 72212","Match","Exact","11017 YOSEMITE VALLEY DR, LITTLE ROCK, AR, 72212",83500181,"R"
20869,"11018 AUGUSTA WAY","STANTON","CA",90680,33.8027114110001,-118.008053063,369,"11018 AUGUSTA WAY, STANTON, CA, 90680","Match","Exact","11018 AUGUSTA WAY, STANTON, CA, 90680",144002250,"L"
20870,"11018 BRIDGE HOUSE RD","WINDERMERE","FL",34786,28.473979866,-81.545327317,370,"11018 BRIDGE HOUSE RD, WINDERMERE, FL, 34786","Match","Exact","11018 BRIDGE HOUSE RD, WINDERMERE, FL, 34786",94408482,"L"
20871,"11018 COLINTON DR","RICHMOND","TX",77407,NA,NA,371,"11018 COLINTON DR, RICHMOND, TX, 77407","No_Match",NA,NA,NA,NA
20872,"11018 MOORPARK ST SUITE 210","N HOLLYWOOD","CA",91602,34.1503649250001,-118.371055756,372,"11018 MOORPARK ST SUITE 210, N HOLLYWOOD, CA, 91602","Match","Exact","11018 MOORPARK ST, N HOLLYWOOD, CA, 91602",141591852,"L"
20873,"11018 N WILLOW AVE","CLOVIS","CA",93619,36.904103526,-119.732110672,373,"11018 N WILLOW AVE, CLOVIS, CA, 93619","Match","Exact","11018 N WILLOW AVE, CLOVIS, CA, 93619",629637850,"R"
20874,"11018 SEMINOLE SPRING LANE","HOUSTON","TX",77089,29.5805071300001,-95.2448411079999,374,"11018 SEMINOLE SPRING LANE, HOUSTON, TX, 77089","Match","Exact","11018 SEMINOLE SPRING LN, HOUSTON, TX, 77089",641972225,"R"
20875,"11019 AMHERST GLEN DR","CHARLOTTE","NC",28213,35.296577373,-80.710072783,375,"11019 AMHERST GLEN DR, CHARLOTTE, NC, 28213","Match","Exact","11019 AMHERST GLEN DR, CHARLOTTE, NC, 28213",70547943,"L"
20876,"11019 ANCIENT FUTURES DR","TAMPA","FL",33647,28.154691062,-82.279772456,376,"11019 ANCIENT FUTURES DR, TAMPA, FL, 33647","Match","Exact","11019 ANCIENT FUTURES DR, TAMPA, FL, 33647",624515754,"L"
20877,"11019 CHAUCER STREET","NEW ORLEANS","LA",70127,30.038421369,-89.967344247,377,"11019 CHAUCER STREET, NEW ORLEANS, LA, 70127","Match","Exact","11019 CHAUCER ST, NEW ORLEANS, LA, 70127",191721566,"L"
20878,"11019 DOWN BROOK DR","FRISCO","TX",75033,33.1614099190001,-96.8826508829999,378,"11019 DOWN BROOK DR, FRISCO, TX, 75033","Match","Non_Exact","11019 DOWNBROOK DR, FRISCO, TX, 75033",619834233,"R"
20879,"11019 LAKELAND CIR","FORT MYERS","FL",33913,26.581512488,-81.739035622,379,"11019 LAKELAND CIR, FORT MYERS, FL, 33913","Match","Exact","11019 LAKELAND CIR, FORT MYERS, FL, 33913",118111267,"R"
20880,"11019 MAIDEN DRIVE","BOWIE","MD",20720,38.947659623,-76.81617929,380,"11019 MAIDEN DRIVE, BOWIE, MD, 20720","Match","Exact","11019 MAIDEN DR, BOWIE, MD, 20720",76338131,"R"
20881,"11019 NORTH HAZEL WAY","DUNLAP","IL",61525,40.8219715910001,-89.629921915,381,"11019 NORTH HAZEL WAY, DUNLAP, IL, 61525","Match","Exact","11019 N HAZEL WAY, DUNLAP, IL, 61525",8733835,"R"
20882,"11019 REICHLING LN","WHITTIER","CA",90606,33.9829386760001,-118.066816215,382,"11019 REICHLING LN, WHITTIER, CA, 90606","Match","Exact","11019 REICHLING LN, WHITTIER, CA, 90606",141738973,"L"
20883,"11019 SLATER AVE","FOUNTAIN VALLEY","CA",92708,33.709129127,-117.936767565,383,"11019 SLATER AVE, FOUNTAIN VALLEY, CA, 92708","Match","Exact","11019 SLATER AVE, FOUNTAIN VALLEY, CA, 92708",144039319,"L"
20884,"11019 TIMBER LN","CARMEL","IN",46032,39.947065061,-86.116555805,384,"11019 TIMBER LN, CARMEL, IN, 46032","Match","Exact","11019 TIMBER LN, CARMEL, IN, 46032",29295454,"L"
20885,"11019 US HWY 59 N","LIVINGSTON","TX",77351,NA,NA,385,"11019 US HWY 59 N, LIVINGSTON, TX, 77351","No_Match",NA,NA,NA,NA
20886,"1101B MALU PLACE","MAKAWAO","HI",96768,20.8512102280001,-156.3113379,386,"1101B MALU PLACE, MAKAWAO, HI, 96768","Match","Exact","1101 MALU PL, MAKAWAO, HI, 96768",85069010,"L"
20887,"1102 10TH AVE N","NASHVILLE","TN",37208,36.172479906,-86.794832932,387,"1102 10TH AVE N, NASHVILLE, TN, 37208","Match","Exact","1102 10TH AVE N, NASHVILLE, TN, 37208",97185580,"R"
20888,"1102 15TH ST SW","JAMESTOWN","ND",58401,46.894569104,-98.724179798,388,"1102 15TH ST SW, JAMESTOWN, ND, 58401","Match","Exact","1102 15TH ST SW, JAMESTOWN, ND, 58401",151864437,"R"
20889,"1102 4TH ST NW  P O BOX 23","RED BAY","AL",35582,NA,NA,389,"1102 4TH ST NW  P O BOX 23, RED BAY, AL, 35582","Tie",NA,NA,NA,NA
20890,"1102 4TH ST","LOCKHART","TX",78644,29.875480146,-97.6597328289999,390,"1102 4TH ST, LOCKHART, TX, 78644","Match","Exact","1102 4TH ST, LOCKHART, TX, 78644",45548549,"R"
20891,"1102 A ST UNIT 513","TACOMA","WA",98401,47.2534304660001,-122.437141595,391,"1102 A ST UNIT 513, TACOMA, WA, 98401","Match","Non_Exact","1102 A ST, TACOMA, WA, 98402",184646985,"R"
20892,"1102 A STREET  BOX 651","TACOMA","WA",98401,NA,NA,392,"1102 A STREET  BOX 651, TACOMA, WA, 98401","No_Match",NA,NA,NA,NA
20893,"1102 ABERCORN PLACE","SHERWOOD","AR",72120,34.805442898,-92.221766894,393,"1102 ABERCORN PLACE, SHERWOOD, AR, 72120","Match","Exact","1102 ABERCORN PL, SHERWOOD, AR, 72120",642519984,"L"
20894,"1102 AMERICA DR","LONGVIEW","TX",75604,32.5244270210001,-94.816815435,394,"1102 AMERICA DR, LONGVIEW, TX, 75604","Match","Exact","1102 AMERICA DR, LONGVIEW, TX, 75604",141107278,"R"
20895,"1102 AUKLET COURT","MARTINSBURG","WV",25404,39.4742789090001,-77.946140821,395,"1102 AUKLET COURT, MARTINSBURG, WV, 25404","Match","Exact","1102 AUKLET CT, MARTINSBURG, WV, 25404",617957723,"R"
20896,"1102 BIRCHSTONE DRIVE","MISSOURI CITY","TX",77459,29.603516884,-95.5728920669999,396,"1102 BIRCHSTONE DRIVE, MISSOURI CITY, TX, 77459","Match","Exact","1102 BIRCHSTONE DR, MISSOURI CITY, TX, 77459",652337687,"L"
20897,"1102 BROADWING CIRCLE NORTH","OLIVE BRANCH","MS",38654,NA,NA,397,"1102 BROADWING CIRCLE NORTH, OLIVE BRANCH, MS, 38654","No_Match",NA,NA,NA,NA
20898,"1102 BUCK MOUNTAIN RD","WEST JEFFERSON","NC",28694,36.395804244,-81.513181328,398,"1102 BUCK MOUNTAIN RD, WEST JEFFERSON, NC, 28694","Match","Exact","1102 BUCK MOUNTAIN RD, W JEFFERSON, NC, 28694",154045288,"L"
20899,"1102 CAMDEN CIRCLE","MOUNT JULIET","TN",37122,36.194563384,-86.5390489549999,399,"1102 CAMDEN CIRCLE, MOUNT JULIET, TN, 37122","Match","Exact","1102 CAMDEN CIR, MOUNT JULIET, TN, 37122",627385919,"R"
20900,"1102 CARVERWOOD LANE","CHARLESTON","SC",29407,NA,NA,400,"1102 CARVERWOOD LANE, CHARLESTON, SC, 29407","No_Match",NA,NA,NA,NA
20901,"1102 CLEARFORK STREET","LOCKHART","TX",78644,29.8763747150001,-97.682685431,401,"1102 CLEARFORK STREET, LOCKHART, TX, 78644","Match","Exact","1102 CLEARFORK ST, LOCKHART, TX, 78644",45551705,"R"
20902,"1102 COPELAND STREET","JACKSONVILLE","FL",32204,30.313860192,-81.68516248,402,"1102 COPELAND STREET, JACKSONVILLE, FL, 32204","Match","Exact","1102 COPELAND ST, JACKSONVILLE, FL, 32204",83896672,"R"
20903,"1102 CORNELL LANE","YORKVILLE","IL",60560,41.656870951,-88.4621588379999,403,"1102 CORNELL LANE, YORKVILLE, IL, 60560","Match","Exact","1102 CORNELL LN, YORKVILLE, IL, 60560",633760668,"R"
20904,"1102 COUNTRY CLUB DRIVE","DURHAM","NC",27712,36.07493299,-78.9777597629999,404,"1102 COUNTRY CLUB DRIVE, DURHAM, NC, 27712","Match","Exact","1102 COUNTRY CLUB DR, DURHAM, NC, 27712",71759442,"L"
20905,"1102 COUNTRY PIKE","SAN ANTONIO","TX",78216,29.56004138,-98.479791211,405,"1102 COUNTRY PIKE, SAN ANTONIO, TX, 78216","Match","Exact","1102 COUNTRY PIKE, SAN ANTONIO, TX, 78216",101496344,"R"
20906,"1102 DAWNWOOD","ORANGE","TX",77632,NA,NA,406,"1102 DAWNWOOD, ORANGE, TX, 77632","No_Match",NA,NA,NA,NA
20907,"1102 DEEPWOOD DR","ROUND ROCK","TX",78681,30.49867246,-97.697889543,407,"1102 DEEPWOOD DR, ROUND ROCK, TX, 78681","Match","Exact","1102 DEEPWOOD DR, ROUND ROCK, TX, 78681",126432351,"R"
20908,"1102 DIVISION ST","WEBSTER CITY","IA",50595,42.4676544980001,-93.831229435,408,"1102 DIVISION ST, WEBSTER CITY, IA, 50595","Match","Exact","1102 DIVISION ST, WEBSTER CITY, IA, 50595",65741641,"L"
20909,"1102 DRUID HILL AVENUE","BALTIMORE","MD",21201,39.3004692440001,-76.626653384,409,"1102 DRUID HILL AVENUE, BALTIMORE, MD, 21201","Match","Exact","1102 DRUID HILL AVE, BALTIMORE, MD, 21201",635527670,"L"
20910,"1102 DYER ROAD","SULTAN","WA",98294,47.860505108,-121.801161057,410,"1102 DYER ROAD, SULTAN, WA, 98294","Match","Exact","1102 DYER RD, SULTAN, WA, 98294",187768709,"R"
20911,"1102 E 7TH ST","MESA","AZ",85203,33.4280545290001,-111.807376464,411,"1102 E 7TH ST, MESA, AZ, 85203","Match","Exact","1102 E 7TH ST, MESA, AZ, 85203",128245363,"L"
20912,"1102 E SONTERRA BLVD SUITE 106","SAN ANTONIO","TX",78258,29.61444205,-98.476147821,412,"1102 E SONTERRA BLVD SUITE 106, SAN ANTONIO, TX, 78258","Match","Non_Exact","1102 E SONTERRA BLVD, SAN ANTONIO, TX, 78258",639527243,"L"
20913,"1102 EAST 180TH STREET","BRONX","NY",10460,40.8420000400001,-73.875912982,413,"1102 EAST 180TH STREET, BRONX, NY, 10460","Match","Exact","1102 E 180TH ST, BRONX, NY, 10460",80310519,"R"
20914,"1102 EAST YANONALI STREET","SANTA BARBARA","CA",93103,34.425623011,-119.67919978,414,"1102 EAST YANONALI STREET, SANTA BARBARA, CA, 93103","Match","Exact","1102 E YANONALI ST, SANTA BARBARA, CA, 93103",108671483,"R"
20915,"1102 ESSEX AVENUE","VOORHEES","NJ",8043,39.856651361,-74.988167859,415,"1102 ESSEX AVENUE, VOORHEES, NJ, 8043","Match","Exact","1102 ESSEX AVE, VOORHEES, NJ, 08043",134359033,"L"
20916,"1102 FINLEY LANE","ALEXANDRIA","VA",22304,38.822199278,-77.112849475,416,"1102 FINLEY LANE, ALEXANDRIA, VA, 22304","Match","Exact","1102 FINLEY LN, ALEXANDRIA, VA, 22304",641048126,"R"
20917,"1102 FOSTER CROSSING","RICHMOND","TX",77406,29.639157406,-95.8270665159999,417,"1102 FOSTER CROSSING, RICHMOND, TX, 77406","Match","Exact","1102 FOSTER CROSSING, RICHMOND, TX, 77406",625000156,"R"
20918,"1102 FREEMONT ST","MCKEESPORT","PA",15132,40.3461262530001,-79.8419793689999,418,"1102 FREEMONT ST, MCKEESPORT, PA, 15132","Match","Exact","1102 FREEMONT ST, MCKEESPORT, PA, 15132",51673223,"R"
20919,"1102 FRISCH RD","MADISON","WI",53711,43.042758602,-89.492783479,419,"1102 FRISCH RD, MADISON, WI, 53711","Match","Exact","1102 FRISCH RD, MADISON, WI, 53711",49467533,"R"
20920,"1102 GENEVA CT","GARLAND","TX",75040,32.941844485,-96.6159106859999,420,"1102 GENEVA CT, GARLAND, TX, 75040","Match","Exact","1102 GENEVA CT, GARLAND, TX, 75040",102926385,"L"
20921,"1102 HALEY COURT","ALLEN","TX",75002,33.079002239,-96.6529585649999,421,"1102 HALEY COURT, ALLEN, TX, 75002","Match","Exact","1102 HALEY CT, ALLEN, TX, 75002",123525110,"L"
20922,"1102 HARPERS WAY","ANDERSON","SC",29621,34.58731262,-82.655797068,422,"1102 HARPERS WAY, ANDERSON, SC, 29621","Match","Exact","1102 HARPERS WAY, ANDERSON, SC, 29621",25492050,"R"
20923,"1102 HEATHERSTONE WAY","MILFORD","OH",45150,39.1875472450001,-84.2389525519999,423,"1102 HEATHERSTONE WAY, MILFORD, OH, 45150","Match","Exact","1102 HEATHERSTONE WAY, MILFORD, OH, 45150",118444868,"L"
20924,"1102 HILLENDALE ROAD","JOHNSON CITY","TN",37615,36.374740452,-82.5039450849999,424,"1102 HILLENDALE ROAD, JOHNSON CITY, TN, 37615","Match","Exact","1102 HILLENDALE RD, JOHNSON CITY, TN, 37615",627722624,"L"
20925,"1102 HILTON AVENUE","UTICA","NY",13501,43.087909982,-75.211512467,425,"1102 HILTON AVENUE, UTICA, NY, 13501","Match","Exact","1102 HILTON AVE, UTICA, NY, 13501",171532070,"R"
20926,"1102 LAKESIDE VILLA DRIVE","HAMPTON","GA",30228,33.4434543560001,-84.327048559,426,"1102 LAKESIDE VILLA DRIVE, HAMPTON, GA, 30228","Match","Exact","1102 LAKESIDE VILLA DR, HAMPTON, GA, 30228",647697745,"L"
20927,"1102 LANCASTER CLOSE","LAWRENCEVILLE","GA",30043,33.9725546720001,-84.0236753679999,427,"1102 LANCASTER CLOSE, LAWRENCEVILLE, GA, 30043","Match","Non_Exact","1102 LANCASTER CLOSE NW, LAWRENCEVILLE, GA, 30043",88906241,"L"
20928,"1102 LAUREL CREEK ROAD","MOATSVILLE","WV",26405,NA,NA,428,"1102 LAUREL CREEK ROAD, MOATSVILLE, WV, 26405","No_Match",NA,NA,NA,NA
20929,"1102 LIVE OAK COVE NE","TOWNSEND","GA",31331,31.642365812,-81.331075152,429,"1102 LIVE OAK COVE NE, TOWNSEND, GA, 31331","Match","Exact","1102 LIVE OAK COVE NE, TOWNSEND, GA, 31331",634940322,"R"
20930,"1102 LIVE OAK DR","ALICE","TX",78332,27.7738279430001,-98.064709981,430,"1102 LIVE OAK DR, ALICE, TX, 78332","Match","Exact","1102 LIVE OAK DR, ALICE, TX, 78332",21524021,"R"
20931,"1102 LORIEN COURT","O FALLON","IL",62269,38.609517537,-89.894358632,431,"1102 LORIEN COURT, O FALLON, IL, 62269","Match","Exact","1102 LORIEN CT, O FALLON, IL, 62269",107886777,"R"
20932,"1102 MAIN ST","WELLSBURG","WV",26070,40.2737745760001,-80.612172199,432,"1102 MAIN ST, WELLSBURG, WV, 26070","Match","Exact","1102 MAIN ST, WELLSBURG, WV, 26070",54988931,"R"
20933,"1102 MARSHALL SUITE 5","LAREDO","TX",78045,27.59571428,-99.4804943779999,433,"1102 MARSHALL SUITE 5, LAREDO, TX, 78045","Match","Non_Exact","1102 MARSHALL ST, LAREDO, TX, 78045",617763118,"L"
20934,"1102 MAURY ROAD","ORLANDO","FL",32804,28.583090338,-81.395431139,434,"1102 MAURY ROAD, ORLANDO, FL, 32804","Match","Exact","1102 MAURY RD, ORLANDO, FL, 32804",94365911,"L"
20935,"1102 MEADOW SPUR","AKRON","OH",44333,41.1623980100001,-81.632478721,435,"1102 MEADOW SPUR, AKRON, OH, 44333","Match","Non_Exact","1102 MEADOW SPR, AKRON, OH, 44333",61393798,"L"
20936,"1102 MERLENE DR","AUSTIN","TX",78732,30.332166306,-97.9234515049999,436,"1102 MERLENE DR, AUSTIN, TX, 78732","Match","Exact","1102 MERLENE DR, AUSTIN, TX, 78732",63923991,"R"
20937,"1102 MONROE STREET NW","WASHINGTON","DC",20010,38.932751222,-77.028591034,437,"1102 MONROE STREET NW, WASHINGTON, DC, 20010","Match","Exact","1102 MONROE ST NW, WASHINGTON, DC, 20010",76224044,"L"
20938,"1102 N 49TH ST","SEATTLE","WA",98103,47.6642924870001,-122.344483007,438,"1102 N 49TH ST, SEATTLE, WA, 98103","Match","Exact","1102 N 49TH ST, SEATTLE, WA, 98103",186581495,"L"
20939,"1102 N BROADWAY STREET","GREENVILLE","OH",45331,40.115194192,-84.637197837,439,"1102 N BROADWAY STREET, GREENVILLE, OH, 45331","Match","Non_Exact","1102 N BROADWAY, GREENVILLE, OH, 45331",54559217,"L"
20940,"1102 N PRESTON ROAD","GUNTER","TX",75058,NA,NA,440,"1102 N PRESTON ROAD, GUNTER, TX, 75058","No_Match",NA,NA,NA,NA
20941,"1102 NE 9TH STREET","MADISON","SD",57042,44.0150731520001,-97.09620628,441,"1102 NE 9TH STREET, MADISON, SD, 57042","Match","Non_Exact","1102 9TH ST NE, MADISON, SD, 57042",646221076,"L"
20942,"1102 NORTH JEFFERSON STREET","DUBLIN","GA",31021,32.5503391760001,-82.9121995679999,442,"1102 NORTH JEFFERSON STREET, DUBLIN, GA, 31021","Match","Exact","1102 N JEFFERSON ST, DUBLIN, GA, 31021",100652089,"L"
20943,"1102 ORIOLE DR","JONESBORO","AR",72401,35.862828934,-90.629851162,443,"1102 ORIOLE DR, JONESBORO, AR, 72401","Match","Non_Exact","1102 ORIOLE DR, JONESBORO, AR, 72405",46945435,"R"
20944,"1102 PANOLA STREET","TARBORO","NC",27886,35.9057936080001,-77.534233275,444,"1102 PANOLA STREET, TARBORO, NC, 27886","Match","Exact","1102 PANOLA ST, TARBORO, NC, 27886",90178550,"L"
20945,"1102 PARKHILL DRIVE","BILLINGS","MT",59102,45.7899045280001,-108.543576602,445,"1102 PARKHILL DRIVE, BILLINGS, MT, 59102","Match","Exact","1102 PARKHILL DR, BILLINGS, MT, 59102",181476461,"L"
20946,"1102 PINEMONT SUITE F","HOUSTON","TX",77018,29.8409576170001,-95.42545238,446,"1102 PINEMONT SUITE F, HOUSTON, TX, 77018","Match","Non_Exact","1102 PINEMONT DR, HOUSTON, TX, 77018",96053980,"R"
20947,"1102 PRENTISS ST","DOWNS","KS",67437,39.5057922190001,-98.53762181,447,"1102 PRENTISS ST, DOWNS, KS, 67437","Match","Exact","1102 PRENTISS ST, DOWNS, KS, 67437",149886431,"L"
20948,"1102 PROVINCE LAKE ROAD","EFFINGHAM","NH",3882,43.735958714,-71.0072006789999,448,"1102 PROVINCE LAKE ROAD, EFFINGHAM, NH, 3882","Match","Exact","1102 PROVINCE LAKE RD, EFFINGHAM, NH, 03882",145623613,"L"
20949,"1102 RANSOM WAY","NASHVILLE","TN",37217,36.0887399270001,-86.6517626,449,"1102 RANSOM WAY, NASHVILLE, TN, 37217","Match","Exact","1102 RANSOM WAY, NASHVILLE, TN, 37217",646567111,"L"
20950,"1102 S A STREET  548","TACOMA","WA",98401,NA,NA,450,"1102 S A STREET  548, TACOMA, WA, 98401","No_Match",NA,NA,NA,NA
20951,"1102 S CONGRESS AVENUE","AUSTIN","TX",78704,30.253052622,-97.7483801669999,451,"1102 S CONGRESS AVENUE, AUSTIN, TX, 78704","Match","Exact","1102 S CONGRESS AVE, AUSTIN, TX, 78704",64016840,"R"
20952,"1102 SALLETE COURT","MARIETTA","GA",30066,34.0084186830001,-84.5226393419999,452,"1102 SALLETE COURT, MARIETTA, GA, 30066","Match","Exact","1102 SALLETE CT, MARIETTA, GA, 30066",644663648,"R"
20953,"1102 SOUTH FLORIDA AVENUE SUITE 111","LAKELAND","FL",33803,28.0293626930001,-81.957107648,453,"1102 SOUTH FLORIDA AVENUE SUITE 111, LAKELAND, FL, 33803","Match","Exact","1102 S FLORIDA AVE, LAKELAND, FL, 33803",104811122,"L"
20954,"1102 SOUTH MAIN STREET","FARMVILLE","VA",23901,37.2882740580001,-78.397156642,454,"1102 SOUTH MAIN STREET, FARMVILLE, VA, 23901","Match","Exact","1102 S MAIN ST, FARMVILLE, VA, 23901",647636341,"R"
20955,"1102 SWEET VIOLET CT","WEST PALM BEACH","FL",33415,26.661785235,-80.132593914,455,"1102 SWEET VIOLET CT, WEST PALM BEACH, FL, 33415","Match","Exact","1102 SWEET VIOLET CT, WEST PALM BEACH, FL, 33415",625444461,"L"
20956,"1102 US 41 HWY NORTH","JASPER","FL",32052,NA,NA,456,"1102 US 41 HWY NORTH, JASPER, FL, 32052","No_Match",NA,NA,NA,NA
20957,"1102 VILLARREAL DR","CORPUS CHIRSTI","TX",78416,27.7534487520001,-97.441469189,457,"1102 VILLARREAL DR, CORPUS CHIRSTI, TX, 78416","Match","Non_Exact","1102 VILLARREAL DR, CORPUS CHRISTI, TX, 78416",178513744,"L"
20958,"1102 W 137TH STREET","COMPTON","CA",90222,33.9075280120001,-118.245884077,458,"1102 W 137TH STREET, COMPTON, CA, 90222","Match","Exact","1102 W 137TH ST, COMPTON, CA, 90222",141674707,"L"
20959,"1102 W 21ST ST","KEARNEY","NE",68845,40.6968071060001,-99.0960805829999,459,"1102 W 21ST ST, KEARNEY, NE, 68845","Match","Exact","1102 W 21ST ST, KEARNEY, NE, 68845",137863088,"L"
20960,"1102 W 30TH","ANCHORAGE","AK",99503,61.1930495240001,-149.903184955,460,"1102 W 30TH, ANCHORAGE, AK, 99503","Match","Non_Exact","1102 W 30TH AVE, ANCHORAGE, AK, 99503",190796937,"L"
20961,"1102 W 700 S","PENDLETON","IN",46064,40.004043338,-85.693804864,461,"1102 W 700 S, PENDLETON, IN, 46064","Match","Non_Exact","1102 W 700 S, PENDLETON, IN, 46064",31130676,"L"
20962,"1102 W ADAMS STREET","PHOENIX","AZ",85007,33.44926616,-112.087131537,462,"1102 W ADAMS STREET, PHOENIX, AZ, 85007","Match","Exact","1102 W ADAMS ST, PHOENIX, AZ, 85007",128211859,"R"
20963,"1102 W DEPUE AVENUE","OLIVA","MN",56277,44.7754284440001,-94.992903074,463,"1102 W DEPUE AVENUE, OLIVA, MN, 56277","Match","Non_Exact","1102 W DEPUE AVE, OLIVIA, MN, 56277",34055113,"R"
20964,"1102 W WALLACE STREET","SAN SABA","TX",76877,31.1957123440001,-98.729407585,464,"1102 W WALLACE STREET, SAN SABA, TX, 76877","Match","Exact","1102 W WALLACE ST, SAN SABA, TX, 76877",183599744,"R"
20965,"1102 WASHINGTON STREET","MARION","AL",36756,32.6243350180001,-87.31839245,465,"1102 WASHINGTON STREET, MARION, AL, 36756","Match","Exact","1102 WASHINGTON ST, MARION, AL, 36756",28059750,"R"
20966,"1102 WEST EULESS BLVD","EULESS","TX",76040,32.828087935,-97.101836077,466,"1102 WEST EULESS BLVD, EULESS, TX, 76040","Match","Non_Exact","1102 E EULESS BLVD, EULESS, TX, 76040",102182438,"R"
20967,"1102 WESTLAKE CIRCLE","BELLEVILLE","MI",48111,42.2280510840001,-83.485025212,467,"1102 WESTLAKE CIRCLE, BELLEVILLE, MI, 48111","Match","Exact","1102 WESTLAKE CIR, BELLEVILLE, MI, 48111",645087604,"R"
20968,"1102 WINCONSIN STREET","GLENWOOD","IL",60425,NA,NA,468,"1102 WINCONSIN STREET, GLENWOOD, IL, 60425","No_Match",NA,NA,NA,NA
20969,"1102 WINDTREE CT","MT JULIET","TN",37122,36.2403608050001,-86.534569887,469,"1102 WINDTREE CT, MT JULIET, TN, 37122","Match","Exact","1102 WINDTREE CT, MOUNT JULIET, TN, 37122",89704522,"R"
20970,"11020 E BELLAIRE","WICHITA","KS",67207,37.6546430710001,-97.2097891879999,470,"11020 E BELLAIRE, WICHITA, KS, 67207","Match","Non_Exact","11020 E BELLAIRE ST, WICHITA, KS, 67207",115652824,"L"
20971,"11020 GREENHEAD VIEW ROAD","CHARLOTTE","NC",28262,35.342382388,-80.726822644,471,"11020 GREENHEAD VIEW ROAD, CHARLOTTE, NC, 28262","Match","Exact","11020 GREENHEAD VIEW RD, CHARLOTTE, NC, 28262",618152413,"L"
20972,"11020 KINGSTON PIKE SUITE 270","KNOXVILLE","TN",37934,35.8901386590001,-84.1472715199999,472,"11020 KINGSTON PIKE SUITE 270, KNOXVILLE, TN, 37934","Match","Exact","11020 KINGSTON PIKE, KNOXVILLE, TN, 37934",42666866,"L"
20973,"11020 KINROSS AVE RM 1080 UCLA LIBR","LOS ANGELES","CA",90095,NA,NA,473,"11020 KINROSS AVE RM 1080 UCLA LIBR, LOS ANGELES, CA, 90095","No_Match",NA,NA,NA,NA
20974,"11020 N SAGUARO BLVD     STE A","FOUNTAIN HILLS","AZ",85268,33.5861627140001,-111.709250368,474,"11020 N SAGUARO BLVD     STE A, FOUNTAIN HILLS, AZ, 85268","Match","Non_Exact","11020 N SAGUARO BLVD, FOUNTAIN HILLS, AZ, 85268",128250348,"L"
20975,"11020 N SAGUARO BLVD","FOUNTAIN HILLS","AZ",85268,33.5861627140001,-111.709250368,475,"11020 N SAGUARO BLVD, FOUNTAIN HILLS, AZ, 85268","Match","Exact","11020 N SAGUARO BLVD, FOUNTAIN HILLS, AZ, 85268",128250348,"L"
20976,"11020 S BARTH ROAD","OLATHE","KS",66061,38.9290336710001,-94.8658438309999,476,"11020 S BARTH ROAD, OLATHE, KS, 66061","Match","Exact","11020 S BARTH RD, OLATHE, KS, 66061",619899660,"R"
20977,"11020 S LEBANON RD","LOVELAND","OH",45140,39.2601325410001,-84.287321317,477,"11020 S LEBANON RD, LOVELAND, OH, 45140","Match","Exact","11020 S LEBANON RD, LOVELAND, OH, 45140",613483094,"R"
20978,"11021 CHERISSE DRIVE","AUSTIN","TX",78739,30.1854757470001,-97.92462619,478,"11021 CHERISSE DRIVE, AUSTIN, TX, 78739","Match","Exact","11021 CHERISSE DR, AUSTIN, TX, 78739",640882093,"R"
20979,"11021 E WHISTLING WIND WAY","SCOTTSDALE","AZ",85255,33.6794562800001,-111.842641816,479,"11021 E WHISTLING WIND WAY, SCOTTSDALE, AZ, 85255","Match","Exact","11021 E WHISTLING WIND WAY, SCOTTSDALE, AZ, 85255",243995227,"R"
20980,"11021 EAST BOULEVARD","CLEVELAND","OH",44106,NA,NA,480,"11021 EAST BOULEVARD, CLEVELAND, OH, 44106","No_Match",NA,NA,NA,NA
20981,"11021 GULF REFLECTIONS DR UNIT 302","FORT MYERS","FL",33908,26.501499994,-81.936151399,481,"11021 GULF REFLECTIONS DR UNIT 302, FORT MYERS, FL, 33908","Match","Exact","11021 GULF REFLECTIONS DR, FORT MYERS, FL, 33908",618022766,"L"
20982,"11021 KANE DRIVE","KANSAS CITY","KS",66109,39.1670002650001,-94.834365667,482,"11021 KANE DRIVE, KANSAS CITY, KS, 66109","Match","Exact","11021 KANE DR, KANSAS CITY, KS, 66109",619587211,"L"
20983,"11022 E US HIGHWAY 62","IDALOU","TX",79329,33.6670908,-101.64355062,483,"11022 E US HIGHWAY 62, IDALOU, TX, 79329","Match","Exact","11022 US HWY 62, IDALOU, TX, 79329",643048205,"R"
20984,"11022 N 28 DRIVE SUITE 250","PHOENIX","AZ",85029,33.5892562060001,-112.120570709,484,"11022 N 28 DRIVE SUITE 250, PHOENIX, AZ, 85029","Match","Non_Exact","11022 N 28TH DR, PHOENIX, AZ, 85029",128927695,"L"
20985,"11022 N 60TH DRIVE","GLENDALE","AZ",85304,33.5861361500001,-112.189910485,485,"11022 N 60TH DRIVE, GLENDALE, AZ, 85304","Match","Exact","11022 N 60TH DR, GLENDALE, AZ, 85304",128283312,"R"
20986,"11022 NW 81ST MANOR","PARKLAND","FL",33076,26.331875559,-80.273909906,486,"11022 NW 81ST MANOR, PARKLAND, FL, 33076","Match","Exact","11022 NW 81ST MANOR, PARKLAND, FL, 33076",640843713,"L"
20987,"11022 SCHUETZ RD","SAINT LOUIS","MO",63146,NA,NA,487,"11022 SCHUETZ RD, SAINT LOUIS, MO, 63146","No_Match",NA,NA,NA,NA
20988,"11022 SCHUETZ ROAD","SAINT LOUIS","MO",63146,NA,NA,488,"11022 SCHUETZ ROAD, SAINT LOUIS, MO, 63146","No_Match",NA,NA,NA,NA
20989,"11022 SOUTH PROSPECT RD","CHICAGO","IL",60643,41.6934766750001,-87.6703028319999,489,"11022 SOUTH PROSPECT RD, CHICAGO, IL, 60643","Match","Non_Exact","11022 S PROSPECT AVE, CHICAGO, IL, 60643",111823305,"R"
20990,"110224","LAKEWOOD RANCH","FL",34211,NA,NA,490,"110224, LAKEWOOD RANCH, FL, 34211","No_Match",NA,NA,NA,NA
20991,"11023 BENWELL DRIVE UNIT B","LYNWOOD","CA",90262,33.931404636,-118.199846977,491,"11023 BENWELL DRIVE UNIT B, LYNWOOD, CA, 90262","Match","Exact","11023 BENWELL DR, LYNWOOD, CA, 90262",141678066,"R"
20992,"11023 DOUD STREET","HOUSTON","TX",77035,29.66055627,-95.4657242009999,492,"11023 DOUD STREET, HOUSTON, TX, 77035","Match","Exact","11023 DOUD ST, HOUSTON, TX, 77035",96039639,"L"
20993,"11023 KOSUB LANE LOT 2","SAN ANTONIO","TX",78223,29.2833216610001,-98.2690295149999,493,"11023 KOSUB LANE LOT 2, SAN ANTONIO, TX, 78223","Match","Exact","11023 KOSUB LN, SAN ANTONIO, TX, 78223",101721926,"L"
20994,"11024 ALEDO LANE","AUBREY","TX",76227,NA,NA,494,"11024 ALEDO LANE, AUBREY, TX, 76227","No_Match",NA,NA,NA,NA
20995,"11024 AQUILA BLUFFS CIRCLE","BLOOMINGTON","MN",55438,NA,NA,495,"11024 AQUILA BLUFFS CIRCLE, BLOOMINGTON, MN, 55438","No_Match",NA,NA,NA,NA
20996,"11024 BALBOA BLVD SUITE 1406","GRANADA HILLS","CA",91344,34.270608603,-118.502205084,496,"11024 BALBOA BLVD SUITE 1406, GRANADA HILLS, CA, 91344","Match","Exact","11024 BALBOA BLVD, GRANADA HILLS, CA, 91344",141542897,"R"
20997,"11024 BALBOA BLVD UNIT 403","GRANADA HILLS","CA",91344,34.270608603,-118.502205084,497,"11024 BALBOA BLVD UNIT 403, GRANADA HILLS, CA, 91344","Match","Exact","11024 BALBOA BLVD, GRANADA HILLS, CA, 91344",141542897,"R"
20998,"11024 BALBOA BOULEVARD 1439","GRANADA HILLS","CA",91344,34.270608603,-118.502205084,498,"11024 BALBOA BOULEVARD 1439, GRANADA HILLS, CA, 91344","Match","Exact","11024 BALBOA BLVD, GRANADA HILLS, CA, 91344",141542897,"R"
20999,"11024 BEL AIR PLACE","OKLAHOMA CITY","OK",73120,35.581709769,-97.542144332,499,"11024 BEL AIR PLACE, OKLAHOMA CITY, OK, 73120","Match","Exact","11024 BEL AIR PL, OKLAHOMA CITY, OK, 73120",100393736,"R"
21000,"11024 DENNE ST","LIVONIA","MI",48150,42.3650747140001,-83.350308506,500,"11024 DENNE ST, LIVONIA, MI, 48150","Match","Exact","11024 DENNE ST, LIVONIA, MI, 48150",95426590,"R"
