"ID","Address","City","State","Zip","lat","long","id","input_address","match_indicator","match_type","matched_address","tiger_line_id","tiger_side"
110001,"2054 E DESSERT INN RD","LAS VEGAS","NV",89169,36.129856858,-115.12385487,1,"2054 E DESSERT INN RD, LAS VEGAS, NV, 89169","Match","Non_Exact","2054 E DESERT INN RD, LAS VEGAS, NV, 89169",201871544,"L"
110002,"2054 E SHAUER STREET","COMPTON","CA",90222,33.9101959560001,-118.234547651,2,"2054 E SHAUER STREET, COMPTON, CA, 90222","Match","Exact","2054 E SHAUER ST, COMPTON, CA, 90222",142762731,"R"
110003,"2054 EAST ATLANTIC STREET","PHILADELPHIA","PA",19134,39.9969532900001,-75.1019958959999,3,"2054 EAST ATLANTIC STREET, PHILADELPHIA, PA, 19134","Match","Exact","2054 E ATLANTIC ST, PHILADELPHIA, PA, 19134",131427521,"R"
110004,"2054 EDISON AVE","GRANITE CITY","IL",62040,38.7022054980001,-90.148095639,4,"2054 EDISON AVE, GRANITE CITY, IL, 62040","Match","Exact","2054 EDISON AVE, GRANITE CITY, IL, 62040",107683120,"R"
110005,"2054 EVERETT ROAD","RAINSVILLE","AL",35986,34.4726851090001,-85.834445105,5,"2054 EVERETT ROAD, RAINSVILLE, AL, 35986","Match","Non_Exact","2054 EVERETT ST, RAINSVILLE, AL, 35986",99145111,"R"
110006,"2054 KILDAIRE FARM ROAD 301","CARY","NC",27518,35.7370585530001,-78.77969917,6,"2054 KILDAIRE FARM ROAD 301, CARY, NC, 27518","Match","Non_Exact","2054 KILDAIRE FARM RD, CARY, NC, 27518",72568422,"L"
110007,"2054 RIVERSIDE AVE APT 1310","JACKSONVILLE","FL",32204,30.310998172,-81.6815242819999,7,"2054 RIVERSIDE AVE APT 1310, JACKSONVILLE, FL, 32204","Match","Exact","2054 RIVERSIDE AVE, JACKSONVILLE, FL, 32204",83896805,"L"
110008,"2054 ROBINSON DR","MOBILE","AL",36605,30.647003865,-88.090858092,8,"2054 ROBINSON DR, MOBILE, AL, 36605","Match","Exact","2054 ROBINSON DR, MOBILE, AL, 36605",61953526,"R"
110009,"2054 SILVER CREEK DR","COLORADO SPRINGS","CO",80921,39.0023332650001,-104.789162668,9,"2054 SILVER CREEK DR, COLORADO SPRINGS, CO, 80921","Match","Exact","2054 SILVER CREEK DR, COLORADO SPRINGS, CO, 80921",105574659,"L"
110010,"2054 SOUTH GREEN ROAD","SOUTH EUCLID","OH",44121,41.504418152,-81.519460973,10,"2054 SOUTH GREEN ROAD, SOUTH EUCLID, OH, 44121","Match","Exact","2054 S GREEN RD, SOUTH EUCLID, OH, 44121",61125796,"R"
110011,"2054 SPRINGHILL FURNACE ROAD","SMITHFIELD","PA",15478,NA,NA,11,"2054 SPRINGHILL FURNACE ROAD, SMITHFIELD, PA, 15478","No_Match",NA,NA,NA,NA
110012,"2054 W 30TH ST","LOS ANGELES","CA",90018,34.0273903300001,-118.310628678,12,"2054 W 30TH ST, LOS ANGELES, CA, 90018","Match","Exact","2054 W 30TH ST, LOS ANGELES, CA, 90018",141605837,"L"
110013,"2054 WEST 52ND PLACE","CHICAGO","IL",60609,41.7980172220001,-87.676385064,13,"2054 WEST 52ND PLACE, CHICAGO, IL, 60609","Match","Exact","2054 W 52ND PL, CHICAGO, IL, 60609",605450139,"R"
110014,"2054 ZIRCON STREET NW","N CANTON","OH",44721,40.898423033,-81.342431317,14,"2054 ZIRCON STREET NW, N CANTON, OH, 44721","Match","Non_Exact","2054 ZIRCON ST NE, N CANTON, OH, 44721",64694285,"R"
110015,"20540 HWY 46 W STE 115 PMB 249","CANYON LAKE","TX",78070,NA,NA,15,"20540 HWY 46 W STE 115 PMB 249, CANYON LAKE, TX, 78070","No_Match",NA,NA,NA,NA
110016,"20540 STATE HWY 46 WEST STE 115 150","SPRING BRANCH","TX",78070,29.7984472900001,-98.427947298,16,"20540 STATE HWY 46 WEST STE 115 150, SPRING BRANCH, TX, 78070","Match","Exact","20540 STATE HWY 46 W, SPRING BRANCH, TX, 78070",72261164,"L"
110017,"20540 STATE HWY 46 WEST STE 115","SPRING BRANCH","TX",78070,29.7984472900001,-98.427947298,17,"20540 STATE HWY 46 WEST STE 115, SPRING BRANCH, TX, 78070","Match","Exact","20540 STATE HWY 46 W, SPRING BRANCH, TX, 78070",72261164,"L"
110018,"20540 STATE HWY 46W STE 115 NO 244","SPRING BRANCH","TX",78070,NA,NA,18,"20540 STATE HWY 46W STE 115 NO 244, SPRING BRANCH, TX, 78070","No_Match",NA,NA,NA,NA
110019,"20540 VENTURA BLVD STE 111","WOODLAND HILLS","CA",91364,34.1679261090001,-118.579853912,19,"20540 VENTURA BLVD STE 111, WOODLAND HILLS, CA, 91364","Match","Exact","20540 VENTURA BLVD, WOODLAND HILLS, CA, 91364",648256409,"L"
110020,"20540 W CRESCENT DR","BUCKEYE","AZ",85396,33.4885962710001,-112.500775731,20,"20540 W CRESCENT DR, BUCKEYE, AZ, 85396","Match","Exact","20540 W CRESCENT DR, BUCKEYE, AZ, 85396",243944439,"L"
110021,"20541 CHARLTON SQ APT 211","SOUTHFIELD","MI",48076,42.486562953,-83.248962123,21,"20541 CHARLTON SQ APT 211, SOUTHFIELD, MI, 48076","Match","Exact","20541 CHARLTON SQ, SOUTHFIELD, MI, 48076",69778530,"L"
110022,"20541 SW DUCKRIDGE PLACE","SHERWOOD","OR",97140,45.371324803,-122.85795205,22,"20541 SW DUCKRIDGE PLACE, SHERWOOD, OR, 97140","Match","Exact","20541 SW DUCKRIDGE PL, SHERWOOD, OR, 97140",158217981,"R"
110023,"20542 HARPER AVE STE 103","HARPER WOODS","MI",48225,42.4435962970001,-82.917623819,23,"20542 HARPER AVE STE 103, HARPER WOODS, MI, 48225","Match","Exact","20542 HARPER AVE, HARPER WOODS, MI, 48225",95487576,"R"
110024,"20544 450TH ST NW","STRANDQUIST","MN",56758,48.5292683690001,-96.4866384439999,24,"20544 450TH ST NW, STRANDQUIST, MN, 56758","Match","Exact","20544 450TH ST NW, STRANDQUIST, MN, 56758",649928044,"L"
110025,"20544 BLUESTEM PARKWAY","LYNWOOD","IL",60411,41.5217647090001,-87.564632051,25,"20544 BLUESTEM PARKWAY, LYNWOOD, IL, 60411","Match","Exact","20544 BLUESTEM PKWY, LYNWOOD, IL, 60411",639811991,"L"
110026,"20544 STAHELIN AVENUE","DETROIT","MI",48219,42.4427772110001,-83.228057216,26,"20544 STAHELIN AVENUE, DETROIT, MI, 48219","Match","Exact","20544 STAHELIN AVE, DETROIT, MI, 48219",95741690,"R"
110027,"20548 ATTICA RD","OLYMPIA FIELDS","IL",60461,41.5156491070001,-87.699326898,27,"20548 ATTICA RD, OLYMPIA FIELDS, IL, 60461","Match","Exact","20548 ATTICA RD, OLYMPIA FIELDS, IL, 60461",111710163,"R"
110028,"20548 N DONITHAN WAY","MARICOPA","AZ",85138,33.0670469830001,-112.036780054,28,"20548 N DONITHAN WAY, MARICOPA, AZ, 85138","Match","Exact","20548 DONITHAN WAY, MARICOPA, AZ, 85138",631766722,"R"
110029,"2055 3RD AVENUE APT 4B","NEW YORK","NY",10029,40.7956858110001,-73.941663322,29,"2055 3RD AVENUE APT 4B, NEW YORK, NY, 10029","Match","Exact","2055 3RD AVE, NEW YORK, NY, 10029",611228325,"R"
110030,"2055 ALEXANDER BLVD","MURFREESBORO","TN",37130,35.8772414900001,-86.371281602,30,"2055 ALEXANDER BLVD, MURFREESBORO, TN, 37130","Match","Exact","2055 ALEXANDER BLVD, MURFREESBORO, TN, 37130",636447571,"R"
110031,"2055 BECK STREET","NEW ORLEANS","LA",70131,29.9331605350001,-90.008402347,31,"2055 BECK STREET, NEW ORLEANS, LA, 70131","Match","Exact","2055 BECK ST, NEW ORLEANS, LA, 70131",191723143,"R"
110032,"2055 BOHEMIA COVE","MEMPHIS","TN",38016,35.181524897,-89.7615941029999,32,"2055 BOHEMIA COVE, MEMPHIS, TN, 38016","Match","Non_Exact","2055 BOHEMIA COVE, CORDOVA, TN, 38016",635381834,"L"
110033,"2055 CAPPS CIRCLE","RENTZ","GA",31075,32.4066154110001,-82.944268069,33,"2055 CAPPS CIRCLE, RENTZ, GA, 31075","Match","Non_Exact","2055 CAPPS CIR N, RENTZ, GA, 31075",100664960,"R"
110034,"2055 CARNELIAN LN","EAGAN","MN",55122,44.809627634,-93.2107855629999,34,"2055 CARNELIAN LN, EAGAN, MN, 55122","Match","Exact","2055 CARNELIAN LN, EAGAN, MN, 55122",37905060,"R"
110035,"2055 CENTRAL AVE 3I","HIGHLAND","CA",92346,34.1340988370001,-117.217555442,35,"2055 CENTRAL AVE 3I, HIGHLAND, CA, 92346","Match","Exact","2055 CENTRAL AVE, HIGHLAND, CA, 92346",636723685,"R"
110036,"2055 CHAPEL ST","NEW HAVEN","CT",6515,41.3163609120001,-72.967297166,36,"2055 CHAPEL ST, NEW HAVEN, CT, 6515","Match","Exact","2055 CHAPEL ST, NEW HAVEN, CT, 06515",3697677,"R"
110037,"2055 CHEVELLA DR","DALLAS","TX",75232,32.658125683,-96.8522737659999,37,"2055 CHEVELLA DR, DALLAS, TX, 75232","Match","Exact","2055 CHEVELLA DR, DALLAS, TX, 75232",619134390,"R"
110038,"2055 CLIFFSIDE DR","ANCHORAGE","AK",99501,61.2015356520001,-149.843605073,38,"2055 CLIFFSIDE DR, ANCHORAGE, AK, 99501","Match","Exact","2055 CLIFFSIDE DR, ANCHORAGE, AK, 99501",190799133,"L"
110039,"2055 CROCKER ROAD SUITE 300","WESTLAKE","OH",44145,41.4566375100001,-81.9494575269999,39,"2055 CROCKER ROAD SUITE 300, WESTLAKE, OH, 44145","Match","Exact","2055 CROCKER RD, WESTLAKE, OH, 44145",638301884,"L"
110040,"2055 CUPOLA DRIVE A-100","LOVELAND","CO",80538,NA,NA,40,"2055 CUPOLA DRIVE A-100, LOVELAND, CO, 80538","No_Match",NA,NA,NA,NA
110041,"2055 DUNDEE WAY","GROVETOWN","GA",30813,33.512313884,-82.236139866,41,"2055 DUNDEE WAY, GROVETOWN, GA, 30813","Match","Exact","2055 DUNDEE WAY, GROVETOWN, GA, 30813",641150831,"L"
110042,"2055 E CENTENNIAL CIRCLE","TEMPE","AZ",85284,33.340291156,-111.899654676,42,"2055 E CENTENNIAL CIRCLE, TEMPE, AZ, 85284","Match","Exact","2055 E CENTENNIAL CIR, TEMPE, AZ, 85284",128270242,"L"
110043,"2055 FALLEN LEAF LN","LOS ALTOS","CA",94024,37.3401992620001,-122.064298783,43,"2055 FALLEN LEAF LN, LOS ALTOS, CA, 94024","Match","Exact","2055 FALLEN LEAF LN, LOS ALTOS, CA, 94024",122935846,"L"
110044,"2055 GEES MILL RD","CONYERS","GA",30013,33.6510951760001,-83.979951939,44,"2055 GEES MILL RD, CONYERS, GA, 30013","Match","Non_Exact","2055 GEES MILL RD NE, CONYERS, GA, 30013",632972667,"R"
110045,"2055 LIMESTONE ROAD  SUITE 109","WILMINGTON","DE",19808,39.722236493,-75.6564811,45,"2055 LIMESTONE ROAD  SUITE 109, WILMINGTON, DE, 19808","Match","Exact","2055 LIMESTONE RD, WILMINGTON, DE, 19808",187296630,"R"
110046,"2055 LIMESTONE ROAD SUITE 109","WILMINGTON","DE",19808,39.722236493,-75.6564811,46,"2055 LIMESTONE ROAD SUITE 109, WILMINGTON, DE, 19808","Match","Exact","2055 LIMESTONE RD, WILMINGTON, DE, 19808",187296630,"R"
110047,"2055 LOMBARD STREET 471573","SAN FRANCISCO","CA",94123,37.799892653,-122.435139676,47,"2055 LOMBARD STREET 471573, SAN FRANCISCO, CA, 94123","Match","Exact","2055 LOMBARD ST, SAN FRANCISCO, CA, 94123",192301970,"L"
110048,"2055 MCCLOUD AVENUE","RENO","NV",89512,39.5508652500001,-119.793426579,48,"2055 MCCLOUD AVENUE, RENO, NV, 89512","Match","Exact","2055 MCCLOUD AVE, RENO, NV, 89512",107047846,"L"
110049,"2055 MIDDLEBURY RD","MIDDLEBURY","CT",6762,NA,NA,49,"2055 MIDDLEBURY RD, MIDDLEBURY, CT, 6762","No_Match",NA,NA,NA,NA
110050,"2055 N BROWN RD STE 150","LAWRENCEVILLE","GA",30043,33.978877305,-84.0853381589999,50,"2055 N BROWN RD STE 150, LAWRENCEVILLE, GA, 30043","Match","Non_Exact","2055 N BROWN RD, LAWRENCEVILLE, GA, 30043",88933592,"L"
110051,"2055 N DOBSON RD SUITE 3","CHANDLER","AS",85224,NA,NA,51,"2055 N DOBSON RD SUITE 3, CHANDLER, AS, 85224","No_Match",NA,NA,NA,NA
110052,"2055 N DOBSON RD SUITE 3","CHANDLER","AZ",85224,33.336002863,-111.876422123,52,"2055 N DOBSON RD SUITE 3, CHANDLER, AZ, 85224","Match","Non_Exact","2055 N DOBSON RD, CHANDLER, AZ, 85224",128826557,"R"
110053,"2055 NEWELL AVE","NEW HAMPTON","IA",50659,43.059268903,-92.2789453089999,53,"2055 NEWELL AVE, NEW HAMPTON, IA, 50659","Match","Exact","2055 NEWELL AVE, NEW HAMPTON, IA, 50659",9744571,"L"
110054,"2055 ROUTE 88","BRICK","NJ",8723,NA,NA,54,"2055 ROUTE 88, BRICK, NJ, 8723","No_Match",NA,NA,NA,NA
110055,"2055 S 143RD ST EAST","WICHITA","KS",67226,37.6554939110001,-97.1712621519999,55,"2055 S 143RD ST EAST, WICHITA, KS, 67226","Match","Non_Exact","2055 S 143RD ST E, WICHITA, KS, 67230",645800050,"R"
110056,"2055 S FLORAL AVE LOT 62","BARTOW","FL",33830,27.874807665,-81.845231896,56,"2055 S FLORAL AVE LOT 62, BARTOW, FL, 33830","Match","Non_Exact","2055 S FLORAL AVE, BARTOW, FL, 33830",104820707,"R"
110057,"2055 S TOWNE AVENUE","POMONA","CA",91766,34.0344707950001,-117.74056681,57,"2055 S TOWNE AVENUE, POMONA, CA, 91766","Match","Exact","2055 S TOWNE AVE, POMONA, CA, 91766",653186685,"R"
110058,"2055 SHADY WIND DR","SOUTHAVEN","MS",38671,34.93970606,-89.953370416,58,"2055 SHADY WIND DR, SOUTHAVEN, MS, 38671","Match","Exact","2055 SHADY WIND DR, SOUTHAVEN, MS, 38671",91830179,"L"
110059,"2055 TABLEROCK FARM","WHEELING","WV",26003,40.1343913000001,-80.666356636,59,"2055 TABLEROCK FARM, WHEELING, WV, 26003","Match","Non_Exact","2055 TABLE ROCK LN, WHEELING, WV, 26003",38102314,"R"
110060,"2055 THOMASVILLE ROAD SUITE C304","TALLAHASSEE","NY",32308,NA,NA,60,"2055 THOMASVILLE ROAD SUITE C304, TALLAHASSEE, NY, 32308","No_Match",NA,NA,NA,NA
110061,"2055 THREE SPRINGS ROAD","BOWLING GREEN","KY",42104,36.91622439,-86.437823296,61,"2055 THREE SPRINGS ROAD, BOWLING GREEN, KY, 42104","Match","Exact","2055 THREE SPRINGS RD, BOWLING GREEN, KY, 42104",28034817,"L"
110062,"2055 WEST 86TH AVENUE","FEDERAL HEIGHTS","CO",80260,39.8521922370001,-105.011351363,62,"2055 WEST 86TH AVENUE, FEDERAL HEIGHTS, CO, 80260","Match","Exact","2055 W 86TH AVE, FEDERAL HEIGHTS, CO, 80260",636027418,"L"
110063,"20550 MURPHY ROAD","BEND","OR",97702,44.0189449370001,-121.294292702,63,"20550 MURPHY ROAD, BEND, OR, 97702","Match","Exact","20550 MURPHY RD, BEND, OR, 97702",152580332,"R"
110064,"20550 SW 125TH COURT","MIAMI","FL",33177,25.575774498,-80.3953342679999,64,"20550 SW 125TH COURT, MIAMI, FL, 33177","Match","Exact","20550 SW 125TH CT, MIAMI, FL, 33177",115989371,"R"
110065,"20550 W GRASS LAKE RD","LAKE VILLA","IL",60046,NA,NA,65,"20550 W GRASS LAKE RD, LAKE VILLA, IL, 60046","No_Match",NA,NA,NA,NA
110066,"20551  KING ARTHUR DRIVE","LYNWOOD","IL",60411,41.522948838,-87.5602544939999,66,"20551  KING ARTHUR DRIVE, LYNWOOD, IL, 60411","Match","Exact","20551 KING ARTHUR DR, LYNWOOD, IL, 60411",614753293,"L"
110067,"20551 KING ARTHUR DRIVE","LYNWOOD","IL",60411,41.522948838,-87.5602544939999,67,"20551 KING ARTHUR DRIVE, LYNWOOD, IL, 60411","Match","Exact","20551 KING ARTHUR DR, LYNWOOD, IL, 60411",614753293,"L"
110068,"20552 PIERSON","DETROIT","MI",48219,42.442371264,-83.247831042,68,"20552 PIERSON, DETROIT, MI, 48219","Match","Non_Exact","20552 PIERSON ST, DETROIT, MI, 48219",642902978,"R"
110069,"20553 DEERWATCH PL","ASHBURN","VA",20147,39.047550384,-77.504141368,69,"20553 DEERWATCH PL, ASHBURN, VA, 20147","Match","Exact","20553 DEERWATCH PL, ASHBURN, VA, 20147",62337691,"R"
110070,"20555 BOWERY LANE","BEND","OR",97703,44.11918222,-121.295183101,70,"20555 BOWERY LANE, BEND, OR, 97703","Match","Exact","20555 BOWERY LN, BEND, OR, 97703",152587089,"L"
110071,"20555 DEVONSHIRE STREET SUITE 330","CHATSWORTH","CA",91311,34.2572566540001,-118.58069438,71,"20555 DEVONSHIRE STREET SUITE 330, CHATSWORTH, CA, 91311","Match","Exact","20555 DEVONSHIRE ST, CHATSWORTH, CA, 91311",615102186,"R"
110072,"20555 DEVONSHIRE STREET","CHATSWORTH","CA",91311,34.2572566540001,-118.58069438,72,"20555 DEVONSHIRE STREET, CHATSWORTH, CA, 91311","Match","Exact","20555 DEVONSHIRE ST, CHATSWORTH, CA, 91311",615102186,"R"
110073,"205550 UNIVERSITY BLVD SUITE 211","SHAKER HTS","OH",44122,NA,NA,73,"205550 UNIVERSITY BLVD SUITE 211, SHAKER HTS, OH, 44122","No_Match",NA,NA,NA,NA
110074,"20558 SW 2ND STREET","PEMBROKE PINES","FL",33029,26.004908486,-80.422099883,74,"20558 SW 2ND STREET, PEMBROKE PINES, FL, 33029","Match","Exact","20558 SW 2ND ST, PEMBROKE PINES, FL, 33029",114781135,"R"
110075,"2056 33RD ST S","MOORHEAD","MN",56560,46.854536228,-96.726107717,75,"2056 33RD ST S, MOORHEAD, MN, 56560","Match","Exact","2056 33RD ST S, MOORHEAD, MN, 56560",608244253,"R"
110076,"2056 ALTA MEADOWS LANE UNIT 2308","DELRAY BEACH","FL",33444,26.435041316,-80.085780916,76,"2056 ALTA MEADOWS LANE UNIT 2308, DELRAY BEACH, FL, 33444","Match","Exact","2056 ALTA MEADOWS LN, DELRAY BEACH, FL, 33444",636159199,"L"
110077,"2056 ASTOR COURT","LANCASTER","CA",93536,34.7094789970001,-118.167396963,77,"2056 ASTOR COURT, LANCASTER, CA, 93536","Match","Exact","2056 ASTOR CT, LANCASTER, CA, 93536",623929364,"R"
110078,"2056 BLUFFTON WAY","DECATUR","GA",30035,33.72936643,-84.228468885,78,"2056 BLUFFTON WAY, DECATUR, GA, 30035","Match","Exact","2056 BLUFFTON WAY, DECATUR, GA, 30035",23389791,"L"
110079,"2056 CATTLEDRIVE WAY","ROSEVILLE","CA",95747,38.802165157,-121.350860058,79,"2056 CATTLEDRIVE WAY, ROSEVILLE, CA, 95747","Match","Exact","2056 CATTLEDRIVE WAY, ROSEVILLE, CA, 95747",645089636,"R"
110080,"2056 CORNWALL C","BOCA RATON","FL",33434,NA,NA,80,"2056 CORNWALL C, BOCA RATON, FL, 33434","No_Match",NA,NA,NA,NA
110081,"2056 DIVISION ROAD","EAST GREENWICH","RI",2818,41.6586836910001,-71.523345628,81,"2056 DIVISION ROAD, EAST GREENWICH, RI, 2818","Match","Non_Exact","2056 DIVISION ST, EAST GREENWICH, RI, 02818",623718227,"L"
110082,"2056 FLAMINGO DRIVE","MOUNT MORRIS","MI",48458,43.0970914600001,-83.715999349,82,"2056 FLAMINGO DRIVE, MOUNT MORRIS, MI, 48458","Match","Exact","2056 FLAMINGO DR, MOUNT MORRIS, MI, 48458",69563580,"R"
110083,"2056 HATTERAS WAY NW","ATLANTA","GA",30318,33.810807013,-84.478859171,83,"2056 HATTERAS WAY NW, ATLANTA, GA, 30318","Match","Non_Exact","2056 HATTERAS WAY, ATLANTA, GA, 30318",619588679,"R"
110084,"2056 HIWASSEE DRIVE","BONAIRE","GA",31005,32.5164316010001,-83.5461203249999,84,"2056 HIWASSEE DRIVE, BONAIRE, GA, 31005","Match","Exact","2056 HIWASSEE DR, BONAIRE, GA, 31005",642633342,"R"
110085,"2056 INDEPENDENCE PLACE","HANFORD","CA",93230,36.3302064010001,-119.679896789,85,"2056 INDEPENDENCE PLACE, HANFORD, CA, 93230","Match","Exact","2056 INDEPENDENCE PL, HANFORD, CA, 93230",197989799,"L"
110086,"2056 N JUSTIN WAY","MERIDIAN","ID",83646,43.623627651,-116.362692488,86,"2056 N JUSTIN WAY, MERIDIAN, ID, 83646","Match","Exact","2056 N JUSTIN WAY, MERIDIAN, ID, 83646",632699348,"R"
110087,"2056 NW 55TH BLVD APT D9","GAINESVILLE","FL",32653,29.70493092,-82.35169794,87,"2056 NW 55TH BLVD APT D9, GAINESVILLE, FL, 32653","Match","Non_Exact","2056 NW 55TH BLVD, GAINESVILLE, FL, 32653",6828304,"L"
110088,"2056 OLD GEORGIAN TERRACE NW","ATLANTA","GA",30318,33.811512077,-84.481081166,88,"2056 OLD GEORGIAN TERRACE NW, ATLANTA, GA, 30318","Match","Non_Exact","2056 OLD GEORGIAN TER, ATLANTA, GA, 30318",634083767,"L"
110089,"2056 SAND CREST DR","SHREVEPORT","LA",71118,32.3787047170001,-93.791609329,89,"2056 SAND CREST DR, SHREVEPORT, LA, 71118","Match","Exact","2056 SAND CREST DR, SHREVEPORT, LA, 71118",624049962,"L"
110090,"2056 SUSQUEHANNA ROAD","ABINGTON","PA",19001,40.1173901550001,-75.126661137,90,"2056 SUSQUEHANNA ROAD, ABINGTON, PA, 19001","Match","Exact","2056 SUSQUEHANNA RD, ABINGTON, PA, 19001",135093057,"L"
110091,"2056 VILLAGETREE DR","SAN JOSE","CA",95131,37.390964829,-121.877475492,91,"2056 VILLAGETREE DR, SAN JOSE, CA, 95131","Match","Exact","2056 VILLAGETREE DR, SAN JOSE, CA, 95131",123003103,"R"
110092,"2056 W 65TH STREET","LOS ANGELES","CA",90047,33.980609665,-118.314759229,92,"2056 W 65TH STREET, LOS ANGELES, CA, 90047","Match","Exact","2056 W 65TH ST, LOS ANGELES, CA, 90047",141658097,"L"
110093,"2056 WESTINGS AVENUE  SUITE 340","NAPERVILLE","IL",60563,41.807259576,-88.200498586,93,"2056 WESTINGS AVENUE  SUITE 340, NAPERVILLE, IL, 60563","Match","Exact","2056 WESTINGS AVE, NAPERVILLE, IL, 60563",638204105,"R"
110094,"20560 CAPTAINS WALK","SMITHFIELD","VA",23430,36.976176649,-76.572110607,94,"20560 CAPTAINS WALK, SMITHFIELD, VA, 23430","Match","Non_Exact","20560 CAPTAIN'S WALK, SMITHFIELD, VA, 23430",198633429,"R"
110095,"20560 CARSONVILLE ROAD","PLEASANTVILLE","PA",16341,41.6190826070001,-79.5238611409999,95,"20560 CARSONVILLE ROAD, PLEASANTVILLE, PA, 16341","Match","Exact","20560 CARSONVILLE RD, PLEASANTVILLE, PA, 16341",608475521,"R"
110096,"20560 CHARLTON SQ APT 211","SOUTHFIELD","MI",48076,42.486553368,-83.249689824,96,"20560 CHARLTON SQ APT 211, SOUTHFIELD, MI, 48076","Match","Exact","20560 CHARLTON SQ, SOUTHFIELD, MI, 48076",69778530,"R"
110097,"20560 QUESTHAVEN RD - 10","SAN MARCOS","CA",92078,NA,NA,97,"20560 QUESTHAVEN RD - 10, SAN MARCOS, CA, 92078","No_Match",NA,NA,NA,NA
110098,"20561 EASTVIEW AVE","FARMINGTON","MN",55024,44.6524952450001,-93.167272016,98,"20561 EASTVIEW AVE, FARMINGTON, MN, 55024","Match","Exact","20561 EASTVIEW AVE, FARMINGTON, MN, 55024",628095968,"R"
110099,"20563 EASTWOOD AVENUE","FAIRVIEW PARK","OH",44126,41.4502545220001,-81.8478320999999,99,"20563 EASTWOOD AVENUE, FAIRVIEW PARK, OH, 44126","Match","Exact","20563 EASTWOOD AVE, FAIRVIEW PARK, OH, 44126",61098398,"L"
110100,"20564 NW BRENTFORD TERRACE","BEAVERTON","OR",97006,NA,NA,100,"20564 NW BRENTFORD TERRACE, BEAVERTON, OR, 97006","No_Match",NA,NA,NA,NA
110101,"20564 W 124TH TERR","OLATHE","KS",66061,38.9022120430001,-94.823225779,101,"20564 W 124TH TERR, OLATHE, KS, 66061","Match","Exact","20564 W 124TH TER, OLATHE, KS, 66061",619899194,"R"
110102,"20565 TYLER RD","BREMEN","IN",46506,41.4787608620001,-86.261286303,102,"20565 TYLER RD, BREMEN, IN, 46506","Match","Exact","20565 TYLER RD, BREMEN, IN, 46506",7639009,"L"
110103,"20566 MIDWAY BOULEVARD","PORT CHARLOTTE","FL",33952,26.999087923,-82.10978375,103,"20566 MIDWAY BOULEVARD, PORT CHARLOTTE, FL, 33952","Match","Exact","20566 MIDWAY BLVD, PORT CHARLOTTE, FL, 33952",4304240,"L"
110104,"20566 N MILWAUKEE AVE","DEERFIELD","IL",60015,42.1629238940001,-87.920247121,104,"20566 N MILWAUKEE AVE, DEERFIELD, IL, 60015","Match","Exact","20566 MILWAUKEE AVE, DEERFIELD, IL, 60015",642764640,"L"
110105,"20567 ECHO HILL ROAD","SEDRO WOOLLEY","WA",98284,48.5928520240001,-122.302541166,105,"20567 ECHO HILL ROAD, SEDRO WOOLLEY, WA, 98284","Match","Exact","20567 ECHO HILL RD, SEDRO WOOLLEY, WA, 98284",183642805,"R"
110106,"20567 NW 14 AVENUE","MIAMI GARDENS","FL",33169,25.962866358,-80.225765564,106,"20567 NW 14 AVENUE, MIAMI GARDENS, FL, 33169","Match","Exact","20567 NW 14TH AVE, MIAMI GARDENS, FL, 33169",116313914,"R"
110107,"2057 210TH STREET","WINTERSET","IA",50273,41.344739071,-94.042035588,107,"2057 210TH STREET, WINTERSET, IA, 50273","Match","Exact","2057 210TH ST, WINTERSET, IA, 50273",75206985,"R"
110108,"2057 ALBERTA DRIVE","SOUTH PARK","PA",15129,40.3063735060001,-80.016427605,108,"2057 ALBERTA DRIVE, SOUTH PARK, PA, 15129","Match","Exact","2057 ALBERTA DR, SOUTH PARK, PA, 15129",636476301,"R"
110109,"2057 BREEZE DRIVE","HOLLAND","MI",49424,42.7946219450001,-86.19261083,109,"2057 BREEZE DRIVE, HOLLAND, MI, 49424","Match","Exact","2057 BREEZE DR, HOLLAND, MI, 49424",71094380,"L"
110110,"2057 BUELL DR","FREDERICK","MD",21702,39.4648345580001,-77.4083747889999,110,"2057 BUELL DR, FREDERICK, MD, 21702","Match","Exact","2057 BUELL DR, FREDERICK, MD, 21702",633864425,"R"
110111,"2057 E AURORA ROAD","TWINSBURG","OH",44087,41.3113531160001,-81.4643884609999,111,"2057 E AURORA ROAD, TWINSBURG, OH, 44087","Match","Exact","2057 E AURORA RD, TWINSBURG, OH, 44087",61363774,"L"
110112,"2057 E CAROB DR","CHANDLER","AZ",85286,33.252500422,-111.805652718,112,"2057 E CAROB DR, CHANDLER, AZ, 85286","Match","Exact","2057 E CAROB DR, CHANDLER, AZ, 85286",647728994,"L"
110113,"2057 E PUEBLO","MESA","AZ",85204,33.400854565,-111.786463929,113,"2057 E PUEBLO, MESA, AZ, 85204","Match","Non_Exact","2057 E PUEBLO AVE, MESA, AZ, 85204",128246864,"L"
110114,"2057 N 54TH ST","OMAHA","NE",68104,41.2783178720001,-95.997427606,114,"2057 N 54TH ST, OMAHA, NE, 68104","Match","Exact","2057 N 54TH ST, OMAHA, NE, 68104",116978435,"R"
110115,"2057 NAVARRA WAY","BRENTWOOD","CA",94513,37.8963661110001,-121.72273086,115,"2057 NAVARRA WAY, BRENTWOOD, CA, 94513","Match","Exact","2057 NAVARRA WAY, BRENTWOOD, CA, 94513",650644337,"L"
110116,"2057 NORTH DOUGLAS","SPRINGFIELD","MO",65803,37.234436241,-93.299338102,116,"2057 NORTH DOUGLAS, SPRINGFIELD, MO, 65803","Match","Non_Exact","2057 N DOUGLAS AVE, SPRINGFIELD, MO, 65803",76673583,"L"
110117,"2057 OAKFORD AVENUE","OAKFORD","PA",19053,40.154117113,-74.9591071739999,117,"2057 OAKFORD AVENUE, OAKFORD, PA, 19053","Match","Exact","2057 OAKFORD AVE, OAKFORD, PA, 19053",134741426,"R"
110118,"2057 ORCHARD LAKE ROAD","SYLVAN LAKE","MA",48320,NA,NA,118,"2057 ORCHARD LAKE ROAD, SYLVAN LAKE, MA, 48320","No_Match",NA,NA,NA,NA
110119,"2057 S COUNTY RD 149","STRASBURG","CO",80136,39.6768498590001,-104.359640888,119,"2057 S COUNTY RD 149, STRASBURG, CO, 80136","Match","Exact","2057 S CO RD 149, STRASBURG, CO, 80136",177526337,"L"
110120,"2057 SE 122ND AVE","PORTLAND","OR",97233,45.5080346730001,-122.53767549,120,"2057 SE 122ND AVE, PORTLAND, OR, 97233","Match","Exact","2057 SE 122ND AVE, PORTLAND, OR, 97233",157521356,"R"
110121,"2057 W FOOTHILL BLVD STE B","UPLAND","CA",91786,34.10682193,-117.696484254,121,"2057 W FOOTHILL BLVD STE B, UPLAND, CA, 91786","Match","Non_Exact","2057 W FOOTHILL BLVD, UPLAND, CA, 91786",144669057,"R"
110122,"2057 W FOOTHILL BLVD","UPLAND","CA",91786,34.10682193,-117.696484254,122,"2057 W FOOTHILL BLVD, UPLAND, CA, 91786","Match","Exact","2057 W FOOTHILL BLVD, UPLAND, CA, 91786",144669057,"R"
110123,"2057 WALDEN COURT","BRYANS ROAD","MD",20616,38.6345251830001,-77.0882212879999,123,"2057 WALDEN COURT, BRYANS ROAD, MD, 20616","Match","Exact","2057 WALDEN CT, BRYANS ROAD, MD, 20616",25394145,"L"
110124,"2057 WHEATON AVE PO BOX 788","MILLVILLE","NJ",8332,39.418127704,-75.0282163369999,124,"2057 WHEATON AVE PO BOX 788, MILLVILLE, NJ, 8332","Match","Exact","2057 WHEATON AVE, MILLVILLE, NJ, 08332",627016052,"R"
110125,"20570 DEXTER BLVD","WARREN","MI",48089,NA,NA,125,"20570 DEXTER BLVD, WARREN, MI, 48089","No_Match",NA,NA,NA,NA
110126,"20570 HATTERAS ST","WOODLAND HILLS","CA",91367,34.174570854,-118.580850775,126,"20570 HATTERAS ST, WOODLAND HILLS, CA, 91367","Match","Exact","20570 HATTERAS ST, WOODLAND HILLS, CA, 91367",141553836,"L"
110127,"20570 PUEBLO ROAD","SONOMA","CA",95476,38.2736006110001,-122.453059596,127,"20570 PUEBLO ROAD, SONOMA, CA, 95476","Match","Non_Exact","20570 PUEBLO AVE, SONOMA, CA, 95476",67481943,"L"
110128,"20571 BRADLEY RD","NORTH FORT MYERS","FL",33917,26.7648588180001,-81.815873326,128,"20571 BRADLEY RD, NORTH FORT MYERS, FL, 33917","Match","Exact","20571 BRADLEY RD, N FORT MYERS, FL, 33917",118102659,"R"
110129,"20573 QUINCY STREET NW","ELK RIVER","MN",55330,45.3454286560001,-93.535772375,129,"20573 QUINCY STREET NW, ELK RIVER, MN, 55330","Match","Exact","20573 QUINCY ST NW, ELK RIVER, MN, 55330",232765985,"R"
110130,"20575 TIMBER RD","WILLITS","CA",95490,39.4991527490001,-123.448524255,130,"20575 TIMBER RD, WILLITS, CA, 95490","Match","Exact","20575 TIMBER RD, WILLITS, CA, 95490",67294379,"R"
110131,"20578 N 83RD PLACE","SCOTTSDALE","AZ",85255,33.673193353,-111.900469582,131,"20578 N 83RD PLACE, SCOTTSDALE, AZ, 85255","Match","Exact","20578 N 83RD PL, SCOTTSDALE, AZ, 85255",128599671,"L"
110132,"2058  OLDE SCOTLAND","STONE MOUNTAIN","GA",30088,33.7291876940001,-84.171089573,132,"2058  OLDE SCOTLAND, STONE MOUNTAIN, GA, 30088","Match","Exact","2058 OLDE SCOTLAND, STONE MOUNTAIN, GA, 30088",23375004,"L"
110133,"2058 150TH ST","WAVERLY","IA",50677,42.832960605,-92.342791797,133,"2058 150TH ST, WAVERLY, IA, 50677","Match","Exact","2058 150TH ST, WAVERLY, IA, 50677",77364204,"R"
110134,"2058 BERGER RD","VICTORIA","TX",77905,28.8684813020001,-97.1893076119999,134,"2058 BERGER RD, VICTORIA, TX, 77905","Match","Exact","2058 BERGER RD, VICTORIA, TX, 77905",44572628,"L"
110135,"2058 BRENDLA RD","CLEARWATER","FL",33755,27.9958012980001,-82.766695517,135,"2058 BRENDLA RD, CLEARWATER, FL, 33755","Match","Exact","2058 BRENDLA RD, CLEARWATER, FL, 33755",124717245,"L"
110136,"2058 CASTLEBERRY RIDGE","NEW BRAUNFELS","TX",78130,29.672150941,-98.110783209,136,"2058 CASTLEBERRY RIDGE, NEW BRAUNFELS, TX, 78130","Match","Exact","2058 CASTLEBERRY RIDGE, NEW BRAUNFELS, TX, 78130",54844487,"R"
110137,"2058 HARPER AVENUE NW","LENOIR","NC",28645,35.900519794,-81.563835118,137,"2058 HARPER AVENUE NW, LENOIR, NC, 28645","Match","Exact","2058 HARPER AVE NW, LENOIR, NC, 28645",639847876,"R"
110138,"2058 KINGMAN AVENUE","SIMI VALLEY","CA",93063,34.273029863,-118.686311715,138,"2058 KINGMAN AVENUE, SIMI VALLEY, CA, 93063","Match","Exact","2058 KINGMAN AVE, SIMI VALLEY, CA, 93063",109979996,"L"
110139,"2058 MAPLE AVE   APT V2-5","HATFIELD","PA",19440,40.2802984590001,-75.291611911,139,"2058 MAPLE AVE   APT V2-5, HATFIELD, PA, 19440","Match","Exact","2058 MAPLE AVE, HATFIELD, PA, 19440",135109538,"L"
110140,"2058 MAPLE AVE","HATFIELD","PA",19440,40.2802984590001,-75.291611911,140,"2058 MAPLE AVE, HATFIELD, PA, 19440","Match","Exact","2058 MAPLE AVE, HATFIELD, PA, 19440",135109538,"L"
110141,"2058 N MILLS AVE UNIT 204","CLAREMONT","CA",91711,34.1211513970001,-117.70714527,141,"2058 N MILLS AVE UNIT 204, CLAREMONT, CA, 91711","Match","Non_Exact","2058 N MILLS AVE, CLAREMONT, CA, 91711",241250230,"R"
110142,"2058 N MILLS AVENUE 530","CLAREMONT","CA",91711,34.1211513970001,-117.70714527,142,"2058 N MILLS AVENUE 530, CLAREMONT, CA, 91711","Match","Non_Exact","2058 N MILLS AVE, CLAREMONT, CA, 91711",241250230,"R"
110143,"2058 N MILLS AVENUE STE 443","CLAREMONT","CA",91711,34.1211513970001,-117.70714527,143,"2058 N MILLS AVENUE STE 443, CLAREMONT, CA, 91711","Match","Non_Exact","2058 N MILLS AVE, CLAREMONT, CA, 91711",241250230,"R"
110144,"2058 S DOBSON RD SUITE 6","MESA","AZ",85202,33.3772898650001,-111.878049861,144,"2058 S DOBSON RD SUITE 6, MESA, AZ, 85202","Match","Non_Exact","2058 S DOBSON RD, MESA, AZ, 85202",128239782,"R"
110145,"2058 TANGLEWOOD DRIVE","WALDORF","MD",20601,38.6448545920001,-76.900105874,145,"2058 TANGLEWOOD DRIVE, WALDORF, MD, 20601","Match","Exact","2058 TANGLEWOOD DR, WALDORF, MD, 20601",25407044,"R"
110146,"2058 TY LANE","RICHMOND","KY",40475,37.754108075,-84.280573891,146,"2058 TY LANE, RICHMOND, KY, 40475","Match","Exact","2058 TY LN, RICHMOND, KY, 40475",648913491,"R"
110147,"2058 WAYMONT RD","COLUMBUS","OH",43229,40.063766263,-82.964189963,147,"2058 WAYMONT RD, COLUMBUS, OH, 43229","Match","Exact","2058 WAYMONT RD, COLUMBUS, OH, 43229",218688128,"L"
110148,"2058","PALO ALTO","CA",94303,NA,NA,148,"2058, PALO ALTO, CA, 94303","No_Match",NA,NA,NA,NA
110149,"20580 HARRISON RD","TECUMSEH","OK",74873,35.262828799,-96.913044907,149,"20580 HARRISON RD, TECUMSEH, OK, 74873","Match","Exact","20580 HARRISON RD, TECUMSEH, OK, 74873",650908971,"L"
110150,"20581 147TH ST","BASEHOR","KS",66007,39.152693292,-94.919613629,150,"20581 147TH ST, BASEHOR, KS, 66007","Match","Exact","20581 147TH ST, BASEHOR, KS, 66007",627810552,"R"
110151,"20584 US HWY 75","BUFFALO","KS",66717,NA,NA,151,"20584 US HWY 75, BUFFALO, KS, 66717","No_Match",NA,NA,NA,NA
110152,"20585 ASHBURN VILLAGE BLVD","ASHBURN","VA",20147,39.046976751,-77.471352343,152,"20585 ASHBURN VILLAGE BLVD, ASHBURN, VA, 20147","Match","Exact","20585 ASHBURN VILLAGE BLVD, ASHBURN, VA, 20147",218910109,"R"
110153,"20585 NORTH 59TH AVENUE","GLENDALE","AZ",85308,33.672114391,-112.186713622,153,"20585 NORTH 59TH AVENUE, GLENDALE, AZ, 85308","Match","Exact","20585 N 59TH AVE, GLENDALE, AZ, 85308",640588740,"R"
110154,"20585 W 125TH TER","OLATHE","KS",66061,38.901361089,-94.823400834,154,"20585 W 125TH TER, OLATHE, KS, 66061","Match","Exact","20585 W 125TH TER, OLATHE, KS, 66061",619899168,"L"
110155,"20586 NE 32 CT","SAMMAMISH","WA",98074,47.6386018810001,-122.063554604,155,"20586 NE 32 CT, SAMMAMISH, WA, 98074","Match","Exact","20586 NE 32ND CT, SAMMAMISH, WA, 98074",186940464,"L"
110156,"2059 190 ST","RED OAK","IA",51566,41.030562789,-95.184869442,156,"2059 190 ST, RED OAK, IA, 51566","Match","Exact","2059 190TH ST, RED OAK, IA, 51566",43879206,"L"
110157,"2059 190TH STREET","RED OAK","IA",51566,41.030562789,-95.184869442,157,"2059 190TH STREET, RED OAK, IA, 51566","Match","Exact","2059 190TH ST, RED OAK, IA, 51566",43879206,"L"
110158,"2059 BARBERRY DRIVE","BUFORD","GA",30519,34.0865339700001,-83.8665368109999,158,"2059 BARBERRY DRIVE, BUFORD, GA, 30519","Match","Exact","2059 BARBERRY DR, BUFORD, GA, 30519",627670972,"L"
110159,"2059 BOWKER ROAD","EL CENTRO","CA",92243,32.8013533060001,-115.473772739,159,"2059 BOWKER ROAD, EL CENTRO, CA, 92243","Match","Exact","2059 BOWKER RD, EL CENTRO, CA, 92243",194527243,"L"
110160,"2059 CAMDEN AVE STE 276","SAN JOSE","CA",95124,37.2620954060001,-121.934932065,160,"2059 CAMDEN AVE STE 276, SAN JOSE, CA, 95124","Match","Exact","2059 CAMDEN AVE, SAN JOSE, CA, 95124",122920650,"R"
110161,"2059 CYPRESS CAMPGROUND ROAD","RIDGEVILLE","SC",29472,NA,NA,161,"2059 CYPRESS CAMPGROUND ROAD, RIDGEVILLE, SC, 29472","No_Match",NA,NA,NA,NA
110162,"2059 FOX RD","WALES","MI",48027,42.9568454060001,-82.7243597139999,162,"2059 FOX RD, WALES, MI, 48027","Match","Exact","2059 FOX RD, WALES, MI, 48027",110970753,"R"
110163,"2059 LAMEGO WAY","EL DORADO HILLS","CA",95762,38.667401743,-121.066806824,163,"2059 LAMEGO WAY, EL DORADO HILLS, CA, 95762","Match","Exact","2059 LAMEGO WAY, EL DORADO HILLS, CA, 95762",607153866,"R"
110164,"2059 LANDMARK AVE","IDA GROVE","IA",51445,42.409053828,-95.4388169429999,164,"2059 LANDMARK AVE, IDA GROVE, IA, 51445","Match","Exact","2059 LANDMARK AVE, IDA GROVE, IA, 51445",82823914,"L"
110165,"2059 MOUNT ZION RD","SPRINGFIELD","KY",40069,37.8247447580001,-85.260619988,165,"2059 MOUNT ZION RD, SPRINGFIELD, KY, 40069","Match","Exact","2059 MOUNT ZION RD, SPRINGFIELD, KY, 40069",32629268,"L"
110166,"2059 N 63RD ST","PHILADELPHIA","PA",19151,39.9870679200001,-75.248713354,166,"2059 N 63RD ST, PHILADELPHIA, PA, 19151","Match","Exact","2059 N 63RD ST, PHILADELPHIA, PA, 19151",131397079,"R"
110167,"2059 N CABANA CIR","MEMPHIS","TN",38107,35.1651412680001,-89.989077962,167,"2059 N CABANA CIR, MEMPHIS, TN, 38107","Match","Exact","2059 N CABANA CIR, MEMPHIS, TN, 38107",635956224,"R"
110168,"2059 NINEVAH ROAD","KNOX","PA",16232,NA,NA,168,"2059 NINEVAH ROAD, KNOX, PA, 16232","No_Match",NA,NA,NA,NA
110169,"2059 NORTH 23RD STREET","LARAMIE","WY",82072,41.329362378,-105.566051976,169,"2059 NORTH 23RD STREET, LARAMIE, WY, 82072","Match","Non_Exact","2059 23RD ST, LARAMIE, WY, 82072",646504893,"R"
110170,"2059 ROAD H","EMPORIA","KS",66801,38.4608952400001,-96.226074064,170,"2059 ROAD H, EMPORIA, KS, 66801","Match","Exact","2059 RD H, EMPORIA, KS, 66801",10959529,"L"
110171,"2059 ROSEDALE ROAD","EDGERTON","OH",43517,41.4099060410001,-84.690630958,171,"2059 ROSEDALE ROAD, EDGERTON, OH, 43517","Match","Exact","2059 ROSEDALE RD, EDGERTON, OH, 43517",207557115,"R"
110172,"2059 S LINCOLN TERRACE","MONTGOMERY","AL",36108,32.3594530460001,-86.32636094,172,"2059 S LINCOLN TERRACE, MONTGOMERY, AL, 36108","Match","Exact","2059 S LINCOLN TER, MONTGOMERY, AL, 36108",1468105,"L"
110173,"2059 SOUTH BUCKER ROAD","MOBILE","AL",36605,30.6482836060001,-88.0913465209999,173,"2059 SOUTH BUCKER ROAD, MOBILE, AL, 36605","Match","Exact","2059 S BUCKER RD, MOBILE, AL, 36605",61862273,"L"
110174,"2059 W 85TH STREET","LOS ANGELES","CA",90047,33.960908901,-118.31466242,174,"2059 W 85TH STREET, LOS ANGELES, CA, 90047","Match","Exact","2059 W 85TH ST, LOS ANGELES, CA, 90047",141658646,"R"
110175,"2059 WOODWIND CIRCLE","GREENBRIER","TN",37073,36.4230610050001,-86.9149785389999,175,"2059 WOODWIND CIRCLE, GREENBRIER, TN, 37073","Match","Exact","2059 WOODWIND CIR, GREENBRIER, TN, 37073",647233030,"R"
110176,"20590 LOWE LANE","BEND","OR",97703,44.1346293620001,-121.295331102,176,"20590 LOWE LANE, BEND, OR, 97703","Match","Exact","20590 LOWE LN, BEND, OR, 97703",152586995,"R"
110177,"20591 E LAKE AVE","CENTENNIAL","CO",80016,39.6077920180001,-104.749806253,177,"20591 E LAKE AVE, CENTENNIAL, CO, 80016","Match","Exact","20591 E LAKE AVE, CENTENNIAL, CO, 80016",177541267,"L"
110178,"20592 PORTER RANCH ROAD","TRABUCO","CA",92679,33.6635102980001,-117.561698533,178,"20592 PORTER RANCH ROAD, TRABUCO, CA, 92679","Match","Exact","20592 PORTER RANCH, TRABUCO, CA, 92679",144384875,"R"
110179,"20593 BLUE AND GOLD DRIVE","ELKTON","VA",22827,NA,NA,179,"20593 BLUE AND GOLD DRIVE, ELKTON, VA, 22827","No_Match",NA,NA,NA,NA
110180,"20593 CTY HWY ZZ","CORNELL","WI",54732,NA,NA,180,"20593 CTY HWY ZZ, CORNELL, WI, 54732","No_Match",NA,NA,NA,NA
110181,"20595 EAST SHEFIELD CT","PARKER","CO",80138,39.5119862540001,-104.74812886,181,"20595 EAST SHEFIELD CT, PARKER, CO, 80138","Match","Exact","20595 E SHEFIELD CT, PARKER, CO, 80138",130804047,"R"
110182,"20595 HADCOCK ROAD","WATERTOWN","NY",13601,43.966360272,-75.855169347,182,"20595 HADCOCK ROAD, WATERTOWN, NY, 13601","Match","Exact","20595 HADCOCK RD, WATERTOWN, NY, 13601",154258618,"L"
110183,"20596 MIDDLEBELT RD","HURON TOWNSHIP","MI",48174,42.1541814340001,-83.3248519639999,183,"20596 MIDDLEBELT RD, HURON TOWNSHIP, MI, 48174","Match","Non_Exact","20596 MIDDLEBELT RD, ROMULUS, MI, 48174",95498883,"R"
110184,"20598 MARIES RD 444","VICHY","MO",65580,38.1041840680001,-91.746974764,184,"20598 MARIES RD 444, VICHY, MO, 65580","Match","Exact","20598 MARIES ROAD 444, VICHY, MO, 65580",45291276,"R"
110185,"205M GOOCH HALL - UT MARTIN","MARTIN","TN",38238,NA,NA,185,"205M GOOCH HALL - UT MARTIN, MARTIN, TN, 38238","No_Match",NA,NA,NA,NA
110186,"206 1/2 WEST MAIN STREET","BELLEVUE","OH",44811,41.27397842,-82.841918387,186,"206 1/2 WEST MAIN STREET, BELLEVUE, OH, 44811","Match","Exact","206 W MAIN ST, BELLEVUE, OH, 44811",38680326,"R"
110187,"206 17TH STREET NE","WASHINGTON","DC",20002,38.8921720060001,-76.980767972,187,"206 17TH STREET NE, WASHINGTON, DC, 20002","Match","Exact","206 17TH ST NE, WASHINGTON, DC, 20002",638283676,"L"
110188,"206 17TH STREET NORTHEAST","WASHINGTON","DC",20002,38.8921720060001,-76.980767972,188,"206 17TH STREET NORTHEAST, WASHINGTON, DC, 20002","Match","Exact","206 17TH ST NE, WASHINGTON, DC, 20002",638283676,"L"
110189,"206 1ST STREET","MARION","MI",49665,44.101480732,-85.14485197,189,"206 1ST STREET, MARION, MI, 49665","Match","Non_Exact","206 W 1ST ST, MARION, MI, 49665",110621587,"L"
110190,"206 34TH ST SE","WASHINGTON","DC",20019,38.8873263720001,-76.957498791,190,"206 34TH ST SE, WASHINGTON, DC, 20019","Match","Exact","206 34TH ST SE, WASHINGTON, DC, 20019",76231562,"L"
110191,"206 3RD AVE","BRUNSWICK","MD",21716,39.3148464830001,-77.622095117,191,"206 3RD AVE, BRUNSWICK, MD, 21716","Match","Exact","206 3RD AVE, BRUNSWICK, MD, 21716",60701474,"L"
110192,"206 3RD ST PO BOX 174","YORKTOWN","IA",51656,40.734251434,-95.154005141,192,"206 3RD ST PO BOX 174, YORKTOWN, IA, 51656","Match","Exact","206 3RD ST, YORKTOWN, IA, 51656",10224861,"R"
110193,"206 3RD STREET PO BOX 174","YORKTOWN","IA",51656,40.734251434,-95.154005141,193,"206 3RD STREET PO BOX 174, YORKTOWN, IA, 51656","Match","Exact","206 3RD ST, YORKTOWN, IA, 51656",10224861,"R"
110194,"206 3RD STREET","STEINAUER","NE",68441,40.207458826,-96.229774108,194,"206 3RD STREET, STEINAUER, NE, 68441","Match","Exact","206 3RD ST, STEINAUER, NE, 68441",34457396,"L"
110195,"206 5TH STREET","HAMPTON","IL",61256,41.555153483,-90.413324265,195,"206 5TH STREET, HAMPTON, IL, 61256","Match","Exact","206 5TH ST, HAMPTON, IL, 61256",9217068,"R"
110196,"206 6TH ST SE","WASHINGTON","DC",20003,38.8872494610001,-76.9984413889999,196,"206 6TH ST SE, WASHINGTON, DC, 20003","Match","Exact","206 6TH ST SE, WASHINGTON, DC, 20003",76229937,"L"
110197,"206 6TH STREET","PRESCOTT","IA",50859,41.0230514030001,-94.611392504,197,"206 6TH STREET, PRESCOTT, IA, 50859","Match","Non_Exact","206 6TH AVE, PRESCOTT, IA, 50859",61706332,"L"
110198,"206 7TH STREET PO BOX 143","STEAMBOAT ROCK","IA",50672,42.4085298190001,-93.069237883,198,"206 7TH STREET PO BOX 143, STEAMBOAT ROCK, IA, 50672","Match","Non_Exact","206 N 7TH ST, STEAMBOAT ROCK, IA, 50672",77437570,"L"
110199,"206 9TH STREET SE","WASHINGTON","DC",20003,38.887389603,-76.9937542009999,199,"206 9TH STREET SE, WASHINGTON, DC, 20003","Match","Exact","206 9TH ST SE, WASHINGTON, DC, 20003",76230055,"L"
110200,"206 A LAMASA ST","JONESBORO","AR",72401,35.8512604840001,-90.764783243,200,"206 A LAMASA ST, JONESBORO, AR, 72401","Match","Non_Exact","206 LAMESA ST, JONESBORO, AR, 72401",46908411,"L"
110201,"206 ABBEY LN","LONDON","KY",40744,37.0958065790001,-84.0454399879999,201,"206 ABBEY LN, LONDON, KY, 40744","Match","Exact","206 ABBEY LN, LONDON, KY, 40744",98759554,"L"
110202,"206 AIRFIELD RD","LIBBY","MT",59923,NA,NA,202,"206 AIRFIELD RD, LIBBY, MT, 59923","No_Match",NA,NA,NA,NA
110203,"206 AIRFIELD ROAD","LIBBY","MT",59923,NA,NA,203,"206 AIRFIELD ROAD, LIBBY, MT, 59923","No_Match",NA,NA,NA,NA
110204,"206 ALBERON DRIVE","PARK RIDGE","NJ",7656,41.045697858,-74.0495483459999,204,"206 ALBERON DRIVE, PARK RIDGE, NJ, 7656","Match","Exact","206 ALBERON DR, PARK RIDGE, NJ, 07656",64431693,"R"
110205,"206 ALDERMAN RD","CHARLOTTESVILLE","VA",22903,38.040823383,-78.5133878189999,205,"206 ALDERMAN RD, CHARLOTTESVILLE, VA, 22903","Match","Exact","206 ALDERMAN RD, CHARLOTTESVILLE, VA, 22903",83369074,"L"
110206,"206 ALLEN AVE","ELIZABETHTON","TN",37643,36.344562474,-82.2344353129999,206,"206 ALLEN AVE, ELIZABETHTON, TN, 37643","Match","Exact","206 ALLEN AVE, ELIZABETHTON, TN, 37643",43042450,"R"
110207,"206 AUSTIN HILL COURT","SUN CITY CENTER","FL",33573,27.7052712660001,-82.3388978689999,207,"206 AUSTIN HILL COURT, SUN CITY CENTER, FL, 33573","Match","Exact","206 AUSTIN HILL CT, SUN CITY CENTER, FL, 33573",104499810,"L"
110208,"206 BACK FORK STREET","WEBSTER SPRINGS","WV",26288,38.4795071520001,-80.411661225,208,"206 BACK FORK STREET, WEBSTER SPRINGS, WV, 26288","Match","Exact","206 BACK FORK ST, WEBSTER SPRINGS, WV, 26288",50071973,"L"
110209,"206 BARDEL DR","COATESVILLE","PA",19320,39.9856409000001,-75.876309668,209,"206 BARDEL DR, COATESVILLE, PA, 19320","Match","Exact","206 BARDEL DR, COATESVILLE, PA, 19320",632662734,"R"
110210,"206 BEDFORD PARK BLVD SUITE SD","BRONX","NY",10458,40.8712844410001,-73.886851087,210,"206 BEDFORD PARK BLVD SUITE SD, BRONX, NY, 10458","Match","Exact","206 BEDFORD PARK BLVD, BRONX, NY, 10458",639471625,"R"
110211,"206 BENNETT STREET","MORRILTON","AR",72110,35.1487245370001,-92.746982795,211,"206 BENNETT STREET, MORRILTON, AR, 72110","Match","Exact","206 BENNETT ST, MORRILTON, AR, 72110",118894233,"R"
110212,"206 BILTMORE DR","NORTH BARRINGTON","IL",60010,42.2035314730001,-88.1344324569999,212,"206 BILTMORE DR, NORTH BARRINGTON, IL, 60010","Match","Exact","206 BILTMORE DR, N BARRINGTON, IL, 60010",119633746,"R"
110213,"206 BIRD CT","NORMAL","IL",61761,40.5071625360001,-88.9611074919999,213,"206 BIRD CT, NORMAL, IL, 61761","Match","Exact","206 BIRD CT, NORMAL, IL, 61761",20547270,"R"
110214,"206 BLOSSOM CIR","DAYTON","NJ",8810,40.3792732100001,-74.5089862199999,214,"206 BLOSSOM CIR, DAYTON, NJ, 8810","Match","Exact","206 BLOSSOM CIR, DAYTON, NJ, 08810",626867525,"R"
110215,"206 BOGEY BLVD","CHELAN","WA",98816,47.8550946830001,-120.034031925,215,"206 BOGEY BLVD, CHELAN, WA, 98816","Match","Exact","206 BOGEY BLVD, CHELAN, WA, 98816",645131142,"L"
110216,"206 BOLTON CENTER ROAD","BOLTON","CT",6043,41.770560259,-72.434757008,216,"206 BOLTON CENTER ROAD, BOLTON, CT, 6043","Match","Exact","206 BOLTON CENTER RD, BOLTON, CT, 06043",57000974,"L"
110217,"206 BOLTON COURT","MAPLE GLEN","PA",19002,NA,NA,217,"206 BOLTON COURT, MAPLE GLEN, PA, 19002","No_Match",NA,NA,NA,NA
110218,"206 BONHILL DRIVE","FORT WASHINGTON","MD",20744,38.710657901,-77.0065034839999,218,"206 BONHILL DRIVE, FORT WASHINGTON, MD, 20744","Match","Exact","206 BONHILL DR, FT WASHINGTON, MD, 20744",76316053,"L"
110219,"206 BOX ELDER DRIVE","GRANTSVILLE","UT",84029,40.5649505920001,-112.45625774,219,"206 BOX ELDER DRIVE, GRANTSVILLE, UT, 84029","Match","Exact","206 BOX ELDER DR, GRANTSVILLE, UT, 84029",617535157,"R"
110220,"206 BRUSHCREEK DR","HUNTSVILLE","AL",35824,34.632842542,-86.730313923,220,"206 BRUSHCREEK DR, HUNTSVILLE, AL, 35824","Match","Non_Exact","206 BRUSH CREEK DR SW, HUNTSVILLE, AL, 35824",58172988,"R"
110221,"206 BUCKTAIL DRIVE","IRMO","SC",29063,34.105353183,-81.152979895,221,"206 BUCKTAIL DRIVE, IRMO, SC, 29063","Match","Exact","206 BUCKTAIL DR, IRMO, SC, 29063",71860883,"R"
110222,"206 BUMPER CROP LANE NW","MADISON","AL",35757,34.770301794,-86.763317485,222,"206 BUMPER CROP LANE NW, MADISON, AL, 35757","Match","Exact","206 BUMPER CROP LN NW, MADISON, AL, 35757",632551833,"R"
110223,"206 CALLE DE LA ROSA","CAMERILLO","CA",93012,34.2126674450001,-119.017006071,223,"206 CALLE DE LA ROSA, CAMERILLO, CA, 93012","Match","Non_Exact","206 CLL DE LA ROSA, CAMARILLO, CA, 93012",109961302,"L"
110224,"206 CALM WINDS CT","CARY","NC",27513,35.790500357,-78.8117404499999,224,"206 CALM WINDS CT, CARY, NC, 27513","Match","Exact","206 CALM WINDS CT, CARY, NC, 27513",72588943,"R"
110225,"206 CARL JUNCTION ROAD","WEBB CITY","MO",64870,37.1566690830001,-94.465151825,225,"206 CARL JUNCTION ROAD, WEBB CITY, MO, 64870","Match","Exact","206 CARL JUNCTION RD, WEBB CITY, MO, 64870",66171182,"L"
110226,"206 CAROLWOOD DR","CASTLE HILLS","TX",78213,29.525996762,-98.514427514,226,"206 CAROLWOOD DR, CASTLE HILLS, TX, 78213","Match","Exact","206 CAROLWOOD DR, CASTLE HILLS, TX, 78213",101494054,"R"
110227,"206 CASE CIR","ARDMORE","OK",73401,34.1756094730001,-97.222377297,227,"206 CASE CIR, ARDMORE, OK, 73401","Match","Exact","206 CASE CIR, ARDMORE, OK, 73401",635516885,"L"
110228,"206 CENTRAL AVENUE","LAKEWOOD","NJ",8701,40.0871263560001,-74.2198885299999,228,"206 CENTRAL AVENUE, LAKEWOOD, NJ, 8701","Match","Exact","206 CENTRAL AVE, LAKEWOOD, NJ, 08701",203840822,"R"
110229,"206 CHINCH ROW","RICHLANDS","VA",24641,37.0936767430001,-81.806020309,229,"206 CHINCH ROW, RICHLANDS, VA, 24641","Match","Exact","206 CHINCH ROW, RICHLANDS, VA, 24641",625182158,"L"
110230,"206 CHRISTOL ST","METUCHEN","NJ",8840,40.551144069,-74.357124762,230,"206 CHRISTOL ST, METUCHEN, NJ, 8840","Match","Exact","206 CHRISTOL ST, METUCHEN, NJ, 08840",60317976,"L"
110231,"206 COLLEGE STREET UNIT 752","PINEVILLE","NC",28134,35.0864509720001,-80.889244903,231,"206 COLLEGE STREET UNIT 752, PINEVILLE, NC, 28134","Match","Exact","206 COLLEGE ST, PINEVILLE, NC, 28134",70497531,"R"
110232,"206 COLLEGE STREET UNIT 883","PINEVILLE","NC",28134,35.0864509720001,-80.889244903,232,"206 COLLEGE STREET UNIT 883, PINEVILLE, NC, 28134","Match","Exact","206 COLLEGE ST, PINEVILLE, NC, 28134",70497531,"R"
110233,"206 COUNTRY CLUB DRIVE","CONWAY","SC",29526,33.8645272800001,-79.040934428,233,"206 COUNTRY CLUB DRIVE, CONWAY, SC, 29526","Match","Exact","206 COUNTRY CLUB DR, CONWAY, SC, 29526",29041698,"R"
110234,"206 COUNTRY LAKE ROAD","UNDERWOOD","IN",47177,38.5766803110001,-85.783879424,234,"206 COUNTRY LAKE ROAD, UNDERWOOD, IN, 47177","Match","Exact","206 COUNTRY LAKE RD, UNDERWOOD, IN, 47177",647354883,"R"
110235,"206 COURT STREET","MADISON","WV",25130,38.066588079,-81.8186710539999,235,"206 COURT STREET, MADISON, WV, 25130","Match","Exact","206 COURT ST, MADISON, WV, 25130",78547992,"R"
110236,"206 COYOTE RUN","MULLICA HILL","NJ",8062,39.7550751000001,-75.236117082,236,"206 COYOTE RUN, MULLICA HILL, NJ, 8062","Match","Exact","206 COYOTE RUN, MULLICA HILL, NJ, 08062",614738252,"R"
110237,"206 CULLUM AVENUE","RICHLAND","WA",99352,46.2649552140001,-119.27961163,237,"206 CULLUM AVENUE, RICHLAND, WA, 99352","Match","Exact","206 CULLUM AVE, RICHLAND, WA, 99352",174988514,"R"
110238,"206 CURRIER ROAD","HILL","NH",3243,43.511177753,-71.750673773,238,"206 CURRIER ROAD, HILL, NH, 3243","Match","Exact","206 CURRIER RD, HILL, NH, 03243",117736262,"L"
110239,"206 CUSCOWILLA LANE","FAIRHOPE","AL",36532,30.5630277130001,-87.884086677,239,"206 CUSCOWILLA LANE, FAIRHOPE, AL, 36532","Match","Exact","206 CUSCOWILLA LN, FAIRHOPE, AL, 36532",131718627,"L"
110240,"206 CYPRESS COURT","DURANGO","CO",81301,37.39309174,-107.839492963,240,"206 CYPRESS COURT, DURANGO, CO, 81301","Match","Exact","206 CYPRESS CT, DURANGO, CO, 81301",640669786,"L"
110241,"206 DAFFODIL","HENDERSON","NC",27537,36.2844595810001,-78.350506696,241,"206 DAFFODIL, HENDERSON, NC, 27537","Match","Non_Exact","206 DAFFODIL DR, HENDERSON, NC, 27537",606403541,"R"
110242,"206 DANA POINT AVE","VENTURA","CA",93004,34.2793349510001,-119.185285638,242,"206 DANA POINT AVE, VENTURA, CA, 93004","Match","Exact","206 DANA POINT AVE, VENTURA, CA, 93004",109956585,"L"
110243,"206 DATE ST","SCHLESWIG","IA",51461,42.163870699,-95.4362856929999,243,"206 DATE ST, SCHLESWIG, IA, 51461","Match","Exact","206 DATE ST, SCHLESWIG, IA, 51461",82270397,"R"
110244,"206 DAVIDSON DRIVE E","FAYETTEVILLE","TN",37334,35.142035906,-86.5718207469999,244,"206 DAVIDSON DRIVE E, FAYETTEVILLE, TN, 37334","Match","Non_Exact","206 DAVIDSON ST E, FAYETTEVILLE, TN, 37334",58312273,"L"
110245,"206 DOGWOOD TRL E","DERIDDER","LA",70634,30.74113441,-93.090967201,245,"206 DOGWOOD TRL E, DERIDDER, LA, 70634","Match","Exact","206 DOGWOOD TRL E, DERIDDER, LA, 70634",88408867,"R"
110246,"206 E 108TH TERRACE","KANSAS CITY","MO",64114,38.9311880440001,-94.5901240749999,246,"206 E 108TH TERRACE, KANSAS CITY, MO, 64114","Match","Exact","206 E 108TH TER, KANSAS CITY, MO, 64114",91456241,"L"
110247,"206 E 31 ST APT 13 A","NEW YORK","NY",10016,NA,NA,247,"206 E 31 ST APT 13 A, NEW YORK, NY, 10016","No_Match",NA,NA,NA,NA
110248,"206 E 4TH STREET","BROOKLYN","NY",11218,40.647287195,-73.977204305,248,"206 E 4TH STREET, BROOKLYN, NY, 11218","Match","Exact","206 E 4TH ST, BROOKLYN, NY, 11218",59080459,"R"
110249,"206 E 8TH STREET SUITE 205","FORT WORTH","TX",76102,NA,NA,249,"206 E 8TH STREET SUITE 205, FORT WORTH, TX, 76102","Tie",NA,NA,NA,NA
110250,"206 E 94TH ST","LOS ANGELES","CA",90003,33.9510803680001,-118.271404377,250,"206 E 94TH ST, LOS ANGELES, CA, 90003","Match","Exact","206 E 94TH ST, LOS ANGELES, CA, 90003",141671020,"R"
110251,"206 E 9TH ST STE 1300","AUSTIN","TX",78701,NA,NA,251,"206 E 9TH ST STE 1300, AUSTIN, TX, 78701","Tie",NA,NA,NA,NA
110252,"206 E 9TH STREET SUITE 1300","AUSTIN","TX",78701,NA,NA,252,"206 E 9TH STREET SUITE 1300, AUSTIN, TX, 78701","Tie",NA,NA,NA,NA
110253,"206 E BLUE MOUNTAIN WAY","CLAREMONT","CA",91711,34.1210673250001,-117.713363585,253,"206 E BLUE MOUNTAIN WAY, CLAREMONT, CA, 91711","Match","Exact","206 BLUE MOUNTAIN WAY, CLAREMONT, CA, 91711",141732598,"R"
110254,"206 E CLAY STREET  SUITE B","RICHMOND","VA",23219,37.5462158760001,-77.438398577,254,"206 E CLAY STREET  SUITE B, RICHMOND, VA, 23219","Match","Non_Exact","206 E CLAY ST, RICHMOND, VA, 23219",201540387,"L"
110255,"206 E FLYING CIRCLE DRIVE","GILLETTE","WY",82716,44.2807649330001,-105.502871305,255,"206 E FLYING CIRCLE DRIVE, GILLETTE, WY, 82716","Match","Exact","206 E FLYING CIRCLE DR, GILLETTE, WY, 82716",146351628,"L"
110256,"206 E GLENCANNON STREET","STOCKTON","CA",95210,38.026304741,-121.313299498,256,"206 E GLENCANNON STREET, STOCKTON, CA, 95210","Match","Exact","206 E GLENCANNON ST, STOCKTON, CA, 95210",133844989,"R"
110257,"206 E HOWARD ST","HIBBING","MN",55746,47.427451724,-92.940360544,257,"206 E HOWARD ST, HIBBING, MN, 55746","Match","Exact","206 E HOWARD ST, HIBBING, MN, 55746",163166552,"L"
110258,"206 E MAIN STREET","BATH","PA",18014,40.724893261,-75.390868666,258,"206 E MAIN STREET, BATH, PA, 18014","Match","Exact","206 E MAIN ST, BATH, PA, 18014",136894407,"R"
110259,"206 E MAIN","ELK POINT","SD",57025,42.6856512260001,-96.6834638569999,259,"206 E MAIN, ELK POINT, SD, 57025","Match","Non_Exact","206 E MAIN ST, ELK POINT, SD, 57025",176345992,"L"
110260,"206 E PIN OAK DRIVE","SAINT ROSE","LA",70087,29.9748579600001,-90.283486414,260,"206 E PIN OAK DRIVE, SAINT ROSE, LA, 70087","Match","Exact","206 E PIN OAK DR, SAINT ROSE, LA, 70087",625333703,"R"
110261,"206 E REELFOOT AVE SUITE 23","UNION CITY","TN",38261,NA,NA,261,"206 E REELFOOT AVE SUITE 23, UNION CITY, TN, 38261","Tie",NA,NA,NA,NA
110262,"206 E SECOND STREET","WEWOKA","OK",74884,35.157677461,-96.490683102,262,"206 E SECOND STREET, WEWOKA, OK, 74884","Match","Exact","206 E 2ND ST, WEWOKA, OK, 74884",107257226,"L"
110263,"206 E WALKER ST","FAYETTEVILLE","WV",25840,38.051118081,-81.102753115,263,"206 E WALKER ST, FAYETTEVILLE, WV, 25840","Match","Exact","206 E WALKER ST, FAYETTEVILLE, WV, 25840",75071342,"R"
110264,"206 E WALKER STREET","FAYETTEVILLE","WV",25840,38.051118081,-81.102753115,264,"206 E WALKER STREET, FAYETTEVILLE, WV, 25840","Match","Exact","206 E WALKER ST, FAYETTEVILLE, WV, 25840",75071342,"R"
110265,"206 E WISTER ST","PHILADELPHIA","PA",19144,40.032049381,-75.162765824,265,"206 E WISTER ST, PHILADELPHIA, PA, 19144","Match","Exact","206 E WISTER ST, PHILADELPHIA, PA, 19144",131401424,"R"
110266,"206 EAST 87TH STREET APT 4C","NEW YORK","NY",10128,40.7793160090001,-73.953077639,266,"206 EAST 87TH STREET APT 4C, NEW YORK, NY, 10128","Match","Exact","206 E 87TH ST, NEW YORK, NY, 10128",610381040,"R"
110267,"206 EAST CAROLINA STREET","FORTVILLE","IN",46040,39.9405178860001,-85.850060107,267,"206 EAST CAROLINA STREET, FORTVILLE, IN, 46040","Match","Exact","206 E CAROLINA ST, FORTVILLE, IN, 46040",31086435,"L"
110268,"206 EAST LOGAN AVENUE","DUBOIS","PA",15801,41.1321221150001,-78.7516386189999,268,"206 EAST LOGAN AVENUE, DUBOIS, PA, 15801","Match","Exact","206 E LOGAN AVE, DUBOIS, PA, 15801",50519812,"L"
110269,"206 EAST MAIN STREEET","MANNINGTON","WV",26582,NA,NA,269,"206 EAST MAIN STREEET, MANNINGTON, WV, 26582","No_Match",NA,NA,NA,NA
110270,"206 EAST MAIN STREET","BERNE","IN",46711,40.6578724,-84.9482295289999,270,"206 EAST MAIN STREET, BERNE, IN, 46711","Match","Exact","206 E MAIN ST, BERNE, IN, 46711",6485599,"L"
110271,"206 EAST STATE STREET","CAMP POINT","IL",62320,40.0420001100001,-91.0629703929999,271,"206 EAST STATE STREET, CAMP POINT, IL, 62320","Match","Exact","206 E STATE ST, CAMP POINT, IL, 62320",642903838,"L"
110272,"206 EAST WALNUT STREET","SALEM","IN",47167,38.6067758230001,-86.0993146339999,272,"206 EAST WALNUT STREET, SALEM, IN, 47167","Match","Exact","206 E WALNUT ST, SALEM, IN, 47167",77536567,"R"
110273,"206 EASY ST BOX 2106","WENATCHEE","WA",98801,47.471241338,-120.335635696,273,"206 EASY ST BOX 2106, WENATCHEE, WA, 98801","Match","Exact","206 EASY ST, WENATCHEE, WA, 98801",156996484,"L"
110274,"206 EDBROOKE DR","SHILOH","IL",62221,38.5524152780001,-89.9193042319999,274,"206 EDBROOKE DR, SHILOH, IL, 62221","Match","Exact","206 EDBROOKE DR, SHILOH, IL, 62221",635625698,"R"
110275,"206 ELIZABETH ST","EVERGREEN","AL",36401,31.4353260130001,-86.964054179,275,"206 ELIZABETH ST, EVERGREEN, AL, 36401","Match","Exact","206 ELIZABETH ST, EVERGREEN, AL, 36401",2873469,"L"
110276,"206 ELLIOTT ROAD","LYMAN","SC",29365,34.9534561580001,-82.1235360489999,276,"206 ELLIOTT ROAD, LYMAN, SC, 29365","Match","Exact","206 ELLIOTT RD, LYMAN, SC, 29365",19484184,"L"
110277,"206 ELM ST 204342","NEW HAVEN","CT",6520,NA,NA,277,"206 ELM ST 204342, NEW HAVEN, CT, 6520","No_Match",NA,NA,NA,NA
110278,"206 ELM ST PO BOX 201844","NEW HAVEN","CT",6520,NA,NA,278,"206 ELM ST PO BOX 201844, NEW HAVEN, CT, 6520","No_Match",NA,NA,NA,NA
110279,"206 ELM ST UNIT 205797","NEW HAVEN","CT",6520,NA,NA,279,"206 ELM ST UNIT 205797, NEW HAVEN, CT, 6520","No_Match",NA,NA,NA,NA
110280,"206 ELM STREET BOX NO 200973","NEW HAVEN","CT",6520,NA,NA,280,"206 ELM STREET BOX NO 200973, NEW HAVEN, CT, 6520","No_Match",NA,NA,NA,NA
110281,"206 ELM STREET SUITE 205797","NEW HAVEN","CT",6520,NA,NA,281,"206 ELM STREET SUITE 205797, NEW HAVEN, CT, 6520","No_Match",NA,NA,NA,NA
110282,"206 EMERALD DR","ARNOLDS PARK","IA",51331,43.3614399740001,-95.1370931659999,282,"206 EMERALD DR, ARNOLDS PARK, IA, 51331","Match","Exact","206 EMERALD DR, ARNOLDS PARK, IA, 51331",9809358,"L"
110283,"206 EMERLING DRIVE","ST. LOUIS","MO",63121,38.723575979,-90.3085589089999,283,"206 EMERLING DRIVE, ST. LOUIS, MO, 63121","Match","Exact","206 EMERLING DR, SAINT LOUIS, MO, 63121",100146422,"L"
110284,"206 EXCHANGE ST","LUZERNE","IA",52257,41.907632962,-92.178590938,284,"206 EXCHANGE ST, LUZERNE, IA, 52257","Match","Exact","206 EXCHANGE ST, LUZERNE, IA, 52257",94722680,"R"
110285,"206 FISHERMANS COVE","LIZELLA","GA",31052,32.822549119,-83.814765068,285,"206 FISHERMANS COVE, LIZELLA, GA, 31052","Match","Exact","206 FISHERMANS COVE, LIZELLA, GA, 31052",636327227,"R"
110286,"206 FM 78","SCHERTZ","TX",78154,29.5516330080001,-98.2712731189999,286,"206 FM 78, SCHERTZ, TX, 78154","Match","Exact","206 FM 78, SCHERTZ, TX, 78154",54848941,"R"
110287,"206 FORESIDE RD","FALMOUTH","ME",4105,43.728774038,-70.213191175,287,"206 FORESIDE RD, FALMOUTH, ME, 4105","Match","Exact","206 FORESIDE RD, FALMOUTH, ME, 04105",651270068,"L"
110288,"206 FOREST DALE DR","FOREST","VA",24551,37.372372564,-79.247734507,288,"206 FOREST DALE DR, FOREST, VA, 24551","Match","Exact","206 FOREST DALE DR, FOREST, VA, 24551",228448182,"L"
110289,"206 FOX LAKE DRIVE","CLINTON","NC",28328,34.994813709,-78.362987706,289,"206 FOX LAKE DRIVE, CLINTON, NC, 28328","Match","Exact","206 LAKE DR, CLINTON, NC, 28328",14256847,"L"
110290,"206 FOXGLOVE DR","STATESVILLE","NC",28625,35.858522442,-80.877506322,290,"206 FOXGLOVE DR, STATESVILLE, NC, 28625","Match","Exact","206 FOXGLOVE DR, STATESVILLE, NC, 28625",46008407,"R"
110291,"206 GIORDANO AVE","PARLIN","NJ",8859,40.4543826660001,-74.28052475,291,"206 GIORDANO AVE, PARLIN, NJ, 8859","Match","Exact","206 GIORDANO AVE, PARLIN, NJ, 08859",646609735,"L"
110292,"206 GRANDVIEW AVE","FRANKFORT","NY",13340,43.036889418,-75.0763464889999,292,"206 GRANDVIEW AVE, FRANKFORT, NY, 13340","Match","Exact","206 GRANDVIEW AVE, FRANKFORT, NY, 13340",153729959,"L"
110293,"206 GREENHAVEN RD","PAWCATUCK","CT",6379,41.354379168,-71.8591462639999,293,"206 GREENHAVEN RD, PAWCATUCK, CT, 6379","Match","Exact","206 GREENHAVEN RD, PAWCATUCK, CT, 06379",56856749,"L"
110294,"206 GUM BRANCH RD","CHARLOTTE","NC",28214,35.300913796,-80.941563817,294,"206 GUM BRANCH RD, CHARLOTTE, NC, 28214","Match","Exact","206 GUM BRANCH RD, CHARLOTTE, NC, 28214",70474496,"L"
110295,"206 HARRISON AVE","HARRISON","NY",10528,40.9674188880001,-73.7124913499999,295,"206 HARRISON AVE, HARRISON, NY, 10528","Match","Exact","206 HARRISON AVE, HARRISON, NY, 10528",139792629,"L"
110296,"206 HARTFORD ROAD","MOUNT LAUREL","NJ",8054,NA,NA,296,"206 HARTFORD ROAD, MOUNT LAUREL, NJ, 8054","No_Match",NA,NA,NA,NA
110297,"206 HAWKIN RD","NEW EGYPT","NJ",8533,40.0995672990001,-74.459466429,297,"206 HAWKIN RD, NEW EGYPT, NJ, 8533","Match","Exact","206 HAWKIN RD, NEW EGYPT, NJ, 08533",203782239,"L"
110298,"206 HEATHER RIDGE DR APT B","FAYETTEVILLE","NC",28311,35.1423094470001,-78.8707309919999,298,"206 HEATHER RIDGE DR APT B, FAYETTEVILLE, NC, 28311","Match","Exact","206 HEATHER RIDGE DR, FAYETTEVILLE, NC, 28311",64197545,"L"
110299,"206 HENRY LANE","HATFIELD","AR",71945,34.4646613640001,-94.3447733419999,299,"206 HENRY LANE, HATFIELD, AR, 71945","Match","Exact","206 HENRY LN, HATFIELD, AR, 71945",651581397,"R"
110300,"206 HERMEY AVE","PENSACOLA","FL",32507,30.399876111,-87.257548572,300,"206 HERMEY AVE, PENSACOLA, FL, 32507","Match","Exact","206 HERMEY AVE, PENSACOLA, FL, 32507",93257785,"R"
110301,"206 HICKORY LN","MULLICA HILL","NJ",8062,39.728150209,-75.236524855,301,"206 HICKORY LN, MULLICA HILL, NJ, 8062","Match","Exact","206 HICKORY LN, MULLICA HILL, NJ, 08062",134609089,"R"
110302,"206 HIDDENWOOD DRIVE","LAFAYETTE","LA",70508,30.1456417850001,-91.987145676,302,"206 HIDDENWOOD DRIVE, LAFAYETTE, LA, 70508","Match","Non_Exact","206 HIDDEN WOOD DR, LAFAYETTE, LA, 70508",85630375,"R"
110303,"206 HIGH AVENUE","STERLINGTON","LA",71280,32.6954139590001,-92.067670693,303,"206 HIGH AVENUE, STERLINGTON, LA, 71280","Match","Exact","206 HIGH AVE, STERLINGTON, LA, 71280",161101966,"R"
110304,"206 HIGHGROVE BLVD","AKRON","OH",44312,41.0522271940001,-81.429837881,304,"206 HIGHGROVE BLVD, AKRON, OH, 44312","Match","Non_Exact","206 HIGH GROVE BLVD, AKRON, OH, 44312",61355482,"R"
110305,"206 HUMMINGBIRD DR","DEATSVILLE","AL",36022,32.616704058,-86.480059544,305,"206 HUMMINGBIRD DR, DEATSVILLE, AL, 36022","Match","Exact","206 HUMMINGBIRD DR, DEATSVILLE, AL, 36022",2836523,"R"
110306,"206 J AVE BLDG 1662","SHEPPARD AFB","TX",76311,NA,NA,306,"206 J AVE BLDG 1662, SHEPPARD AFB, TX, 76311","No_Match",NA,NA,NA,NA
110307,"206 JESTAN BLVD","NEW CASTLE","DE",19720,39.612711301,-75.6563009179999,307,"206 JESTAN BLVD, NEW CASTLE, DE, 19720","Match","Exact","206 JESTAN BLVD, NEW CASTLE, DE, 19720",187292679,"L"
110308,"206 JOLIET AVE","CINCINNATI","OH",45215,39.255929526,-84.4816243339999,308,"206 JOLIET AVE, CINCINNATI, OH, 45215","Match","Exact","206 JOLIET AVE, CINCINNATI, OH, 45215",103973432,"L"
110309,"206 JUNIPER DR","LANCASTER","PA",17602,40.009829623,-76.247065173,309,"206 JUNIPER DR, LANCASTER, PA, 17602","Match","Exact","206 JUNIPER DR, LANCASTER, PA, 17602",179694471,"L"
110310,"206 KAY AVENUE","SALISBURY","MD",21801,38.3366167290001,-75.611835243,310,"206 KAY AVENUE, SALISBURY, MD, 21801","Match","Exact","206 KAY AVE, SALISBURY, MD, 21801",114461218,"R"
110311,"206 KENDRICK PINES BLVD","SPRING","TX",77389,30.146040172,-95.5457955859999,311,"206 KENDRICK PINES BLVD, SPRING, TX, 77389","Match","Exact","206 KENDRICK PINES BLVD, SPRING, TX, 77389",642142152,"R"
110312,"206 KINNLEY COURT","GREENSBORO","NC",27455,36.1402274440001,-79.786234599,312,"206 KINNLEY COURT, GREENSBORO, NC, 27455","Match","Exact","206 KINNLEY CT, GREENSBORO, NC, 27455",637594951,"L"
110313,"206 KIOWA COURT","WHITE HOUSE","TN",37188,36.4806770530001,-86.6664966709999,313,"206 KIOWA COURT, WHITE HOUSE, TN, 37188","Match","Exact","206 KIOWA CT, WHITE HOUSE, TN, 37188",97452578,"R"
110314,"206 KYNDALE DR","HAMPTON","GA",30228,33.3614689770001,-84.255881765,314,"206 KYNDALE DR, HAMPTON, GA, 30228","Match","Non_Exact","206 KYNDAL DR, HAMPTON, GA, 30228",619935119,"L"
110315,"206 LA DONNA LANE NE","ALBUQUERQUE","NM",87113,NA,NA,315,"206 LA DONNA LANE NE, ALBUQUERQUE, NM, 87113","No_Match",NA,NA,NA,NA
110316,"206 LAKEN DR","WEST PALM BEACH","FL",33409,26.7149260520001,-80.087912892,316,"206 LAKEN DR, WEST PALM BEACH, FL, 33409","Match","Exact","206 LAKEN DR, WEST PALM BEACH, FL, 33409",115579871,"R"
110317,"206 LAKESHORE DRIVE","GEORGETOWN","KY",40324,38.304989822,-84.5657095729999,317,"206 LAKESHORE DRIVE, GEORGETOWN, KY, 40324","Match","Exact","206 LAKESHORE DR, GEORGETOWN, KY, 40324",41238853,"L"
110318,"206 LAKEVIEW DR","ROCKWALL","TX",75087,32.9092699650001,-96.46655427,318,"206 LAKEVIEW DR, ROCKWALL, TX, 75087","Match","Exact","206 LAKEVIEW DR, ROCKWALL, TX, 75087",123779353,"L"
110319,"206 LEXINGTON DR","BOLINGBROOK","IL",60440,41.702512294,-88.073738888,319,"206 LEXINGTON DR, BOLINGBROOK, IL, 60440","Match","Exact","206 LEXINGTON DR, BOLINGBROOK, IL, 60440",111535079,"R"
110320,"206 LOFT LANE 153","RALEIGH","NC",27609,35.858873509,-78.641270365,320,"206 LOFT LANE 153, RALEIGH, NC, 27609","Match","Exact","206 LOFT LN, RALEIGH, NC, 27609",72505523,"L"
110321,"206 LYNDHURST AVE","WILMINGTON","DE",19803,39.802798915,-75.543811445,321,"206 LYNDHURST AVE, WILMINGTON, DE, 19803","Match","Exact","206 LYNDHURST AVE, WILMINGTON, DE, 19803",187256167,"R"
110322,"206 LYONS STREET","MELVILLE","LA",71353,NA,NA,322,"206 LYONS STREET, MELVILLE, LA, 71353","No_Match",NA,NA,NA,NA
110323,"206 MACARTHUR DR","WILLIAMSVILLE","NY",14221,42.9835504070001,-78.729623202,323,"206 MACARTHUR DR, WILLIAMSVILLE, NY, 14221","Match","Exact","206 MACARTHUR DR, WILLIAMSVILLE, NY, 14221",48305233,"L"
110324,"206 MAIN ST","LORDSBURG","NM",88045,32.3493548490001,-108.708985424,324,"206 MAIN ST, LORDSBURG, NM, 88045","Match","Exact","206 MAIN ST, LORDSBURG, NM, 88045",137569884,"R"
110325,"206 MAIN STREET","HORNELL","NY",14843,42.3263198540001,-77.658085848,325,"206 MAIN STREET, HORNELL, NY, 14843","Match","Exact","206 MAIN ST, HORNELL, NY, 14843",14710311,"R"
110326,"206 MAIN STREET","SPARKMAN","AR",71763,33.9164603510001,-92.843382318,326,"206 MAIN STREET, SPARKMAN, AR, 71763","Match","Non_Exact","206 E MAIN ST, SPARKMAN, AR, 71763",2394285,"R"
110327,"206 MAIN","LA VETA","CO",81055,NA,NA,327,"206 MAIN, LA VETA, CO, 81055","No_Match",NA,NA,NA,NA
110328,"206 MIDWAY DRIVE","LETART","WV",25253,38.9851328710001,-81.951793547,328,"206 MIDWAY DRIVE, LETART, WV, 25253","Match","Exact","206 MIDWAY DR, LETART, WV, 25253",101802735,"L"
110329,"206 MILLER AVE","TYBEE ISLAND","GA",31328,32.0115593310001,-80.844729722,329,"206 MILLER AVE, TYBEE ISLAND, GA, 31328","Match","Exact","206 MILLER AVE, TYBEE ISLAND, GA, 31328",6188217,"R"
110330,"206 MONOMONAC ROAD EAST","WINCHENDON","MA",1475,42.7106333940001,-71.993154192,330,"206 MONOMONAC ROAD EAST, WINCHENDON, MA, 1475","Match","Exact","206 MONOMONAC RD E, WINCHENDON, MA, 01475",40072528,"L"
110331,"206 MOREHEAD PLAZA","MOREHEAD","KY",40351,NA,NA,331,"206 MOREHEAD PLAZA, MOREHEAD, KY, 40351","No_Match",NA,NA,NA,NA
110332,"206 MORNINGWALK LANE SW","HUNTSVILLE","AL",35824,34.65913411,-86.722687815,332,"206 MORNINGWALK LANE SW, HUNTSVILLE, AL, 35824","Match","Exact","206 MORNINGWALK LN SW, HUNTSVILLE, AL, 35824",614126398,"R"
110333,"206 MT HWY 55S","WHITEHALL","MT",59759,NA,NA,333,"206 MT HWY 55S, WHITEHALL, MT, 59759","No_Match",NA,NA,NA,NA
110334,"206 N 3RD STREET","GROTON","SD",57445,45.447369178,-98.097228952,334,"206 N 3RD STREET, GROTON, SD, 57445","Match","Exact","206 N 3RD ST, GROTON, SD, 57445",200798002,"L"
110335,"206 N 4TH ST SUITE 15","WILMINGTON","NC",28401,NA,NA,335,"206 N 4TH ST SUITE 15, WILMINGTON, NC, 28401","Tie",NA,NA,NA,NA
110336,"206 N 4TH STREET","SNOW SHOE","PA",16874,41.032146373,-77.947778549,336,"206 N 4TH STREET, SNOW SHOE, PA, 16874","Match","Exact","206 4TH ST, SNOW SHOE, PA, 16874",630200188,"L"
110337,"206 N ADAMS ST","WAYLAND","IA",52654,41.1480968450001,-91.654564067,337,"206 N ADAMS ST, WAYLAND, IA, 52654","Match","Exact","206 N ADAMS ST, WAYLAND, IA, 52654",16081662,"L"
110338,"206 N ADAMS STREET","ROCKVILLE","MD",20850,39.0869794640001,-77.154899582,338,"206 N ADAMS STREET, ROCKVILLE, MD, 20850","Match","Exact","206 N ADAMS ST, ROCKVILLE, MD, 20850",62100810,"L"
110339,"206 N AVE 52 1/4","LOS ANGELES","CA",90042,NA,NA,339,"206 N AVE 52 1/4, LOS ANGELES, CA, 90042","Tie",NA,NA,NA,NA
110340,"206 N BEACH ST SUITE 201","DAYTONA BEACH","FL",32114,NA,NA,340,"206 N BEACH ST SUITE 201, DAYTONA BEACH, FL, 32114","Tie",NA,NA,NA,NA
110341,"206 N CEDAR AVENUE","INGLEWOOD","CA",90301,33.96445665,-118.363931242,341,"206 N CEDAR AVENUE, INGLEWOOD, CA, 90301","Match","Exact","206 N CEDAR AVE, INGLEWOOD, CA, 90301",142749829,"R"
110342,"206 N CHOCTAW","SHAMROCK","TX",79079,35.215584264,-100.251687243,342,"206 N CHOCTAW, SHAMROCK, TX, 79079","Match","Non_Exact","206 N CHOCTAW ST, SHAMROCK, TX, 79079",170114677,"R"
110343,"206 N COMMERCIAL","MANKATO","KS",66956,39.7874011750001,-98.209955764,343,"206 N COMMERCIAL, MANKATO, KS, 66956","Match","Non_Exact","206 N COMMERCIAL ST, MANKATO, KS, 66956",148260542,"R"
110344,"206 N DIXIE DR","VANDALIA","OH",45377,39.8946451030001,-84.198395283,344,"206 N DIXIE DR, VANDALIA, OH, 45377","Match","Exact","206 N DIXIE DR, VANDALIA, OH, 45377",645877026,"R"
110345,"206 N FOURTH STREET SUITE 14","WILMINGTON","NC",28401,NA,NA,345,"206 N FOURTH STREET SUITE 14, WILMINGTON, NC, 28401","Tie",NA,NA,NA,NA
110346,"206 N KNOX STREET","DERMOTT","GA",71638,NA,NA,346,"206 N KNOX STREET, DERMOTT, GA, 71638","No_Match",NA,NA,NA,NA
110347,"206 N MURPHY ROAD","MURPHY","TX",75094,33.018960828,-96.612693844,347,"206 N MURPHY ROAD, MURPHY, TX, 75094","Match","Exact","206 N MURPHY RD, MURPHY, TX, 75094",648463084,"L"
110348,"206 N ORANGE ST","SWEENY","TX",77480,29.0414699780001,-95.6962003469999,348,"206 N ORANGE ST, SWEENY, TX, 77480","Match","Exact","206 N ORANGE ST, SWEENY, TX, 77480",116572892,"R"
110349,"206 N PARTIN DRIVE","NICEVILLE","FL",32578,30.518278568,-86.482521828,349,"206 N PARTIN DRIVE, NICEVILLE, FL, 32578","Match","Non_Exact","206 S PARTIN DR, NICEVILLE, FL, 32578",74390062,"R"
110350,"206 N SIGNAL STREET SUITE M","OJAI","CA",93023,NA,NA,350,"206 N SIGNAL STREET SUITE M, OJAI, CA, 93023","Tie",NA,NA,NA,NA
110351,"206 NATIONAL DRIVE","CLAYTON","NC",27527,35.622071395,-78.395177878,351,"206 NATIONAL DRIVE, CLAYTON, NC, 27527","Match","Exact","206 NATIONAL DR, CLAYTON, NC, 27527",651691528,"R"
110352,"206 NE CHIPMAN ROAD","LEES SUMMIT","MO",64063,38.924948112,-94.375506337,352,"206 NE CHIPMAN ROAD, LEES SUMMIT, MO, 64063","Match","Exact","206 NE CHIPMAN RD, LEES SUMMIT, MO, 64063",644993056,"L"
110353,"206 NEWPORT STREET - 2C","BROOKLYN","NY",11212,40.6595258130001,-73.90778784,353,"206 NEWPORT STREET - 2C, BROOKLYN, NY, 11212","Match","Exact","206 NEWPORT ST, BROOKLYN, NY, 11212",59084106,"R"
110354,"206 NORTH 4TH STREET","BATTLE CREEK","NE",68715,41.9980143710001,-97.60110931,354,"206 NORTH 4TH STREET, BATTLE CREEK, NE, 68715","Match","Non_Exact","206 S 4TH ST, BATTLE CREEK, NE, 68715",161577534,"L"
110355,"206 NORTH ADAMS ST","ROCKVILLE","MD",20850,39.086977883,-77.1548995639999,355,"206 NORTH ADAMS ST, ROCKVILLE, MD, 20850","Match","Exact","206 N ADAMS ST, ROCKVILLE, MD, 20850",62100810,"L"
110356,"206 NORTH LAIR STREET","SOMERSET","KY",42501,37.099287374,-84.6037880059999,356,"206 NORTH LAIR STREET, SOMERSET, KY, 42501","Match","Non_Exact","206 LAIR ST, SOMERSET, KY, 42501",39111773,"L"
110357,"206 NW 40TH STREET","SEATTLE","WA",98107,47.6555768420001,-122.359280301,357,"206 NW 40TH STREET, SEATTLE, WA, 98107","Match","Exact","206 NW 40TH ST, SEATTLE, WA, 98107",186581030,"R"
110358,"206 OASIS ST","GILMER","TX",75645,32.7490972040001,-94.923609266,358,"206 OASIS ST, GILMER, TX, 75645","Match","Exact","206 OASIS ST, GILMER, TX, 75645",636331756,"R"
110359,"206 OLD HOME ROAD","ASHEVILLE","NC",28804,35.663779349,-82.580886861,359,"206 OLD HOME ROAD, ASHEVILLE, NC, 28804","Match","Exact","206 OLD HOME RD, ASHEVILLE, NC, 28804",36903516,"L"
110360,"206 OLIVE FIELD DRIVE","HOLLY SPRINGS","NC",27540,35.666130546,-78.7788614139999,360,"206 OLIVE FIELD DRIVE, HOLLY SPRINGS, NC, 27540","Match","Exact","206 OLIVE FIELD DR, HOLLY SPRINGS, NC, 27540",612818282,"L"
110361,"206 OXFORD ST","MARTIN","TN",38237,36.3440590550001,-88.854269276,361,"206 OXFORD ST, MARTIN, TN, 38237","Match","Exact","206 OXFORD ST, MARTIN, TN, 38237",40878548,"L"
110362,"206 PALOMINO RUN","HOLLY SPRINGS","MS",38635,34.929256852,-89.4996269869999,362,"206 PALOMINO RUN, HOLLY SPRINGS, MS, 38635","Match","Exact","206 PALOMINO RUN, HOLLY SPRINGS, MS, 38635",627901020,"L"
110363,"206 PARK ROAD","BOOMER","WV",25031,NA,NA,363,"206 PARK ROAD, BOOMER, WV, 25031","No_Match",NA,NA,NA,NA
110364,"206 PARK STREET","WEST ROXBURY","MA",2132,42.2827429290001,-71.151591335,364,"206 PARK STREET, WEST ROXBURY, MA, 2132","Match","Exact","206 PARK ST, WEST ROXBURY, MA, 02132",85702788,"L"
110365,"206 PARTIN DR N","NICEVILLE","FL",32578,NA,NA,365,"206 PARTIN DR N, NICEVILLE, FL, 32578","No_Match",NA,NA,NA,NA
110366,"206 PINE LAKE RD","SOUTHPORT","NC",28461,34.0363962540001,-78.065758543,366,"206 PINE LAKE RD, SOUTHPORT, NC, 28461","Match","Non_Exact","206 PINE LAKE DR, SOUTHPORT, NC, 28461",153133813,"R"
110367,"206 PLATEAU DR","GREENIVILLE","NC",27858,35.5743559740001,-77.3144705989999,367,"206 PLATEAU DR, GREENIVILLE, NC, 27858","Match","Non_Exact","206 PLATEAU DR, GREENVILLE, NC, 27858",632434493,"L"
110368,"206 PLAZA SALINAS","CHULA VISTA","CA",91914,32.6670318710001,-116.990706123,368,"206 PLAZA SALINAS, CHULA VISTA, CA, 91914","Match","Non_Exact","206 PLZ SALINAS, CHULA VISTA, CA, 91914",612879984,"R"
110369,"206 POWERS DRIVE","OXFORD","MS",38655,34.3147797120001,-89.523420885,369,"206 POWERS DRIVE, OXFORD, MS, 38655","Match","Exact","206 POWERS DR, OXFORD, MS, 38655",76975616,"L"
110370,"206 POWERS STREET","BROOKLYN","NY",11211,40.712485187,-73.9428541309999,370,"206 POWERS STREET, BROOKLYN, NY, 11211","Match","Exact","206 POWERS ST, BROOKLYN, NY, 11211",59077194,"R"
110371,"206 QUENTIN ROAD APT 6B","BROOKLYN","NY",11223,40.60601152,-73.9785568359999,371,"206 QUENTIN ROAD APT 6B, BROOKLYN, NY, 11223","Match","Exact","206 QUENTIN RD, BROOKLYN, NY, 11223",59089474,"R"
110372,"206 RAILROAD AVE","SUNBURST","MT",59482,NA,NA,372,"206 RAILROAD AVE, SUNBURST, MT, 59482","No_Match",NA,NA,NA,NA
110373,"206 RANDOLPH DR","LAFAYETTE","LA",70501,30.2430404450001,-92.003016805,373,"206 RANDOLPH DR, LAFAYETTE, LA, 70501","Match","Exact","206 RANDOLPH DR, LAFAYETTE, LA, 70501",85617010,"R"
110374,"206 REGENT PARK","STOCKBRIDGE","GA",30281,NA,NA,374,"206 REGENT PARK, STOCKBRIDGE, GA, 30281","No_Match",NA,NA,NA,NA
110375,"206 REYNOLDS STREET","FAYETTE","MO",65248,39.1518155150001,-92.681057997,375,"206 REYNOLDS STREET, FAYETTE, MO, 65248","Match","Exact","206 REYNOLDS ST, FAYETTE, MO, 65248",23120247,"L"
110376,"206 RICHARD BASSETT ROAD","DOVER","DE",19904,39.13224818,-75.5329526479999,376,"206 RICHARD BASSETT ROAD, DOVER, DE, 19904","Match","Exact","206 RICHARD BASSETT RD, DOVER, DE, 19904",68088866,"R"
110377,"206 RICHARDSON STREET - 749","SMITHVILLE","MO",64089,NA,NA,377,"206 RICHARDSON STREET - 749, SMITHVILLE, MO, 64089","No_Match",NA,NA,NA,NA
110378,"206 RIDGEFIELD CIRCLE","EALSEY","SC",29640,34.9060730370001,-82.610759526,378,"206 RIDGEFIELD CIRCLE, EALSEY, SC, 29640","Match","Non_Exact","206 RIDGEFIELD CIR, EASLEY, SC, 29640",26175820,"R"
110379,"206 RIMINI ROAD","PIKEVILLE","NC",27863,35.513115858,-78.022174908,379,"206 RIMINI ROAD, PIKEVILLE, NC, 27863","Match","Exact","206 RIMINI RD, PIKEVILLE, NC, 27863",605718774,"L"
110380,"206 ROBINHOOD DRIVE NE","GRAND RAPIDS","MI",49546,42.96566355,-85.5883637159999,380,"206 ROBINHOOD DRIVE NE, GRAND RAPIDS, MI, 49546","Match","Exact","206 ROBINHOOD DR NE, GRAND RAPIDS, MI, 49546",12467507,"R"
110381,"206 ROYAL PALM DR","FORT LAUDERDALE","FL",33301,26.125604437,-80.116837093,381,"206 ROYAL PALM DR, FORT LAUDERDALE, FL, 33301","Match","Exact","206 ROYAL PALM DR, FORT LAUDERDALE, FL, 33301",114726079,"R"
110382,"206 RUBE ASHLEY RD","BELTON","SC",29627,34.3849243010001,-82.486611115,382,"206 RUBE ASHLEY RD, BELTON, SC, 29627","Match","Exact","206 RUBE ASHLEY RD, BELTON, SC, 29627",25438246,"L"
110383,"206 S 122ND LN","AVONDALE","AZ",85323,33.443362623,-112.323182931,383,"206 S 122ND LN, AVONDALE, AZ, 85323","Match","Exact","206 S 122ND LN, AVONDALE, AZ, 85323",128848160,"L"
110384,"206 S 2ND ST STE C","ROGERS","AR",72756,NA,NA,384,"206 S 2ND ST STE C, ROGERS, AR, 72756","Tie",NA,NA,NA,NA
110385,"206 S 4TH STREET","MARSHALLTOWN","IA",50158,42.0465127680001,-92.919282368,385,"206 S 4TH STREET, MARSHALLTOWN, IA, 50158","Match","Exact","206 S 4TH ST, MARSHALLTOWN, IA, 50158",90920919,"R"
110386,"206 S 850 E","GREENFIELD","IN",46140,39.7853619840001,-85.647056262,386,"206 S 850 E, GREENFIELD, IN, 46140","Match","Exact","206 S 850 E, GREENFIELD, IN, 46140",31085418,"L"
110387,"206 S DIVISION ST","WALLA WALLA","WA",99362,46.066631074,-118.319857481,387,"206 S DIVISION ST, WALLA WALLA, WA, 99362","Match","Exact","206 S DIVISION ST, WALLA WALLA, WA, 99362",174673753,"L"
110388,"206 S FULTON AVENUE","MOUNT VERNON","NY",10550,40.908662172,-73.828335841,388,"206 S FULTON AVENUE, MOUNT VERNON, NY, 10550","Match","Exact","206 S FULTON AVE, MOUNT VERNON, NY, 10550",139748706,"R"
110389,"206 S HEIDEKE ST","SEGUIN","TX",78155,29.568274295,-97.954988837,389,"206 S HEIDEKE ST, SEGUIN, TX, 78155","Match","Exact","206 S HEIDEKE ST, SEGUIN, TX, 78155",54828151,"L"
110390,"206 S MAIN STREET","SEABOARD","NC",27876,36.4909144370001,-77.441331158,390,"206 S MAIN STREET, SEABOARD, NC, 27876","Match","Exact","206 S MAIN ST, SEABOARD, NC, 27876",636569987,"R"
110391,"206 S MARKET ST","MARION","IL",62959,37.729831129,-88.927185663,391,"206 S MARKET ST, MARION, IL, 62959","Match","Exact","206 S MARKET ST, MARION, IL, 62959",6012077,"L"
110392,"206 S MARTIN STREET","LIGONIER","IN",46767,41.464495141,-85.590671975,392,"206 S MARTIN STREET, LIGONIER, IN, 46767","Match","Exact","206 S MARTIN ST, LIGONIER, IN, 46767",6578399,"L"
110393,"206 S MOONEY BLVD","VISALIA","CA",93291,36.3294024250001,-119.313983862,393,"206 S MOONEY BLVD, VISALIA, CA, 93291","Match","Exact","206 S MOONEY BLVD, VISALIA, CA, 93291",202779876,"L"
110394,"206 S NEWBERN CT","AURORA","CO",80018,39.7127980830001,-104.684350825,394,"206 S NEWBERN CT, AURORA, CO, 80018","Match","Exact","206 S NEWBERN CT, AURORA, CO, 80018",177564581,"L"
110395,"206 S QUEEN ANNE RD","WOODSTOCK","IL",60098,42.3263509120001,-88.41385883,395,"206 S QUEEN ANNE RD, WOODSTOCK, IL, 60098","Match","Exact","206 QUEEN ANNE RD, WOODSTOCK, IL, 60098",649267804,"L"
110396,"206 S RAILROAD AVE","SUNBURST","MT",59482,NA,NA,396,"206 S RAILROAD AVE, SUNBURST, MT, 59482","No_Match",NA,NA,NA,NA
110397,"206 S RUSH STREET","ROSELLE","IL",60172,41.97878798,-88.074054186,397,"206 S RUSH STREET, ROSELLE, IL, 60172","Match","Exact","206 RUSH ST, ROSELLE, IL, 60172",112519270,"R"
110398,"206 S STEWART RD LOT 6","MISSION","TX",78572,NA,NA,398,"206 S STEWART RD LOT 6, MISSION, TX, 78572","Tie",NA,NA,NA,NA
110399,"206 S TAYLOR","SEFFER","FL",33584,27.994666701,-82.290013667,399,"206 S TAYLOR, SEFFER, FL, 33584","Match","Non_Exact","206 S TAYLOR RD, SEFFNER, FL, 33584",104541494,"L"
110400,"206 SAINT CLAIR DR","MARQUETTE HEIGHTS","IL",61554,40.623743792,-89.618514924,400,"206 SAINT CLAIR DR, MARQUETTE HEIGHTS, IL, 61554","Match","Exact","206 SAINT CLAIR DR, MARQUETTE HEIGHTS, IL, 61554",22497144,"R"
110401,"206 SAM WALTON DRIVE","RUSSELLVILLE","KY",42276,NA,NA,401,"206 SAM WALTON DRIVE, RUSSELLVILLE, KY, 42276","No_Match",NA,NA,NA,NA
110402,"206 SARAH DR","ASHLAND","MO",65010,38.7689908250001,-92.259950115,402,"206 SARAH DR, ASHLAND, MO, 65010","Match","Exact","206 SARAH DR, ASHLAND, MO, 65010",639709745,"R"
110403,"206 SARAS STROLL","GRAY COURT","SC",29645,34.6324058540001,-82.174354882,403,"206 SARAS STROLL, GRAY COURT, SC, 29645","Match","Exact","206 SARAS STROLL, GRAY COURT, SC, 29645",44447949,"R"
110404,"206 SHAKERAG STREET","MINERAL POINT","WI",53565,42.8676514410001,-90.170357838,404,"206 SHAKERAG STREET, MINERAL POINT, WI, 53565","Match","Exact","206 SHAKERAG ST, MINERAL POINT, WI, 53565",49797520,"L"
110405,"206 SHERMAN STREET","MUNCY","PA",17756,41.202130762,-76.7892338029999,405,"206 SHERMAN STREET, MUNCY, PA, 17756","Match","Exact","206 SHERMAN ST, MUNCY, PA, 17756",59450744,"R"
110406,"206 SHORT BRANCH ROAD","STAFFORD","VA",22556,38.479660289,-77.4023000189999,406,"206 SHORT BRANCH ROAD, STAFFORD, VA, 22556","Match","Exact","206 SHORT BRANCH RD, STAFFORD, VA, 22556",640798849,"R"
110407,"206 SILVER ALLEY","GILMER","TX",75644,32.727598304,-94.945262651,407,"206 SILVER ALLEY, GILMER, TX, 75644","Match","Exact","206 SILVER ALY, GILMER, TX, 75644",147587566,"L"
110408,"206 SINTON PLACE","WARNER ROBINS","GA",31098,32.6128383540001,-83.606183815,408,"206 SINTON PLACE, WARNER ROBINS, GA, 31098","Match","Exact","206 SINTON PL, WARNER ROBINS, GA, 31098",625650078,"R"
110409,"206 SKYWOOD DRIVE","VALRICO","FL",33594,27.9399875440001,-82.232249958,409,"206 SKYWOOD DRIVE, VALRICO, FL, 33594","Match","Exact","206 SKYWOOD DR, VALRICO, FL, 33594",647460046,"L"
110410,"206 SMITH STREET","MANLIUS","NY",13104,43.0046394300001,-75.978318314,410,"206 SMITH STREET, MANLIUS, NY, 13104","Match","Exact","206 SMITH ST, MANLIUS, NY, 13104",46578925,"R"
110411,"206 SONOMA VALLEY","VINE GROVE","KY",40175,37.8220335030001,-85.972080874,411,"206 SONOMA VALLEY, VINE GROVE, KY, 40175","Match","Exact","206 SONOMA VALLEY, VINE GROVE, KY, 40175",628649800,"L"
110412,"206 SOUTH 1ST STREET","WATERTOWN","WI",53094,43.193467619,-88.724299721,412,"206 SOUTH 1ST STREET, WATERTOWN, WI, 53094","Match","Exact","206 S 1ST ST, WATERTOWN, WI, 53094",53210305,"L"
110413,"206 SOUTH 2ND STREET SUITE D","ROGERS","AR",72756,36.3319394580001,-94.117536957,413,"206 SOUTH 2ND STREET SUITE D, ROGERS, AR, 72756","Match","Exact","206 S 2ND ST, ROGERS, AR, 72756",47834988,"R"
110414,"206 SOUTH 850 ESAT","GREENFIELD","IN",46140,39.7854065240001,-85.647057317,414,"206 SOUTH 850 ESAT, GREENFIELD, IN, 46140","Match","Non_Exact","206 S 850 E, GREENFIELD, IN, 46140",31085418,"L"
110415,"206 SOUTH BLACKHAWK STREET","SHABBONA","IL",60550,41.7668620850001,-88.868144894,415,"206 SOUTH BLACKHAWK STREET, SHABBONA, IL, 60550","Match","Non_Exact","206 BLACKHAWK ST, SHABBONA, IL, 60550",642647327,"R"
110416,"206 SOUTH BROADWAY STREET","ELSA","TX",78543,26.2918662280001,-97.993197224,416,"206 SOUTH BROADWAY STREET, ELSA, TX, 78543","Match","Non_Exact","206 S BROADWAY, ELSA, TX, 78543",71480359,"R"
110417,"206 SOUTH COURT STREET","HOHENWALD","TN",38462,35.5456686040001,-87.553962611,417,"206 SOUTH COURT STREET, HOHENWALD, TN, 38462","Match","Exact","206 S COURT ST, HOHENWALD, TN, 38462",607139147,"L"
110418,"206 SOUTH FIRST STREET","PULASKI","TN",38478,35.1977820120001,-87.031561793,418,"206 SOUTH FIRST STREET, PULASKI, TN, 38478","Match","Exact","206 S 1ST ST, PULASKI, TN, 38478",45313548,"L"
110419,"206 SOUTH HOLLY CANYON DR","RIDGECREST","CA",93555,35.620425335,-117.662209762,419,"206 SOUTH HOLLY CANYON DR, RIDGECREST, CA, 93555","Match","Non_Exact","206 S HOLLY CANYON ST, RIDGECREST, CA, 93555",109036631,"L"
110420,"206 SOUTH MAIN STREET PO BOX 178","REESEVILLE","WI",53579,43.303393053,-88.846398006,420,"206 SOUTH MAIN STREET PO BOX 178, REESEVILLE, WI, 53579","Match","Exact","206 S MAIN ST, REESEVILLE, WI, 53579",53532505,"L"
110421,"206 SOUTH MAIN STREET","ELIZABETHTOWN","KY",42701,37.6918621390001,-85.85911175,421,"206 SOUTH MAIN STREET, ELIZABETHTOWN, KY, 42701","Match","Exact","206 S MAIN ST, ELIZABETHTOWN, KY, 42701",34638542,"L"
110422,"206 SOUTH MCNEILL STREET","CARTHAGE","NC",28327,NA,NA,422,"206 SOUTH MCNEILL STREET, CARTHAGE, NC, 28327","Tie",NA,NA,NA,NA
110423,"206 SOUTH PATTERSON PARK AVENUE","BALTIMORE","MD",21231,39.2893883620001,-76.584563795,423,"206 SOUTH PATTERSON PARK AVENUE, BALTIMORE, MD, 21231","Match","Exact","206 S PATTERSON PARK AVE, BALTIMORE, MD, 21231",206424779,"R"
110424,"206 SOUTH ST","EMINGTON","IL",60934,40.968518971,-88.3587084869999,424,"206 SOUTH ST, EMINGTON, IL, 60934","Match","Exact","206 SOUTH ST, EMINGTON, IL, 60934",22387976,"L"
110425,"206 SOUTH STREET","GORHAM","ME",4038,43.669096304,-70.4366579219999,425,"206 SOUTH STREET, GORHAM, ME, 4038","Match","Exact","206 SOUTH ST, GORHAM, ME, 04038",653279577,"L"
110426,"206 SOUTH WALTON","ROBY","TX",79543,32.743121623,-100.381210257,426,"206 SOUTH WALTON, ROBY, TX, 79543","Match","Non_Exact","206 S WALTON ST, ROBY, TX, 79543",186270974,"R"
110427,"206 STAR CIRCLE","HUEYTOWN","AL",35023,33.419081224,-87.038673683,427,"206 STAR CIRCLE, HUEYTOWN, AL, 35023","Match","Exact","206 STAR CIR, HUEYTOWN, AL, 35023",81688737,"R"
110428,"206 STATE STREET","GROVETON","NH",3582,NA,NA,428,"206 STATE STREET, GROVETON, NH, 3582","No_Match",NA,NA,NA,NA
110429,"206 STITES STREET","WEST WYOMING","PA",18644,41.3074624220001,-75.864042486,429,"206 STITES STREET, WEST WYOMING, PA, 18644","Match","Exact","206 STITES ST, WEST WYOMING, PA, 18644",614338831,"L"
110430,"206 STRAIGHT ST","RIPLEY","WV",25271,38.821430322,-81.7162755379999,430,"206 STRAIGHT ST, RIPLEY, WV, 25271","Match","Exact","206 STRAIGHT ST, RIPLEY, WV, 25271",130490917,"L"
110431,"206 SW 12TH AVENUE","SOUTH BAY","FL",33493,26.662570879,-80.723706724,431,"206 SW 12TH AVENUE, SOUTH BAY, FL, 33493","Match","Exact","206 SW 12TH AVE, SOUTH BAY, FL, 33493",115343052,"L"
110432,"206 SW 19TH ST","BATTLE GROUND","WA",98604,45.7672684090001,-122.539606554,432,"206 SW 19TH ST, BATTLE GROUND, WA, 98604","Match","Exact","206 SW 19TH ST, BATTLE GROUND, WA, 98604",158357971,"L"
110433,"206 SW 7TH STREET","DELRAY BEACH","FL",33344,26.4511470410001,-80.075207339,433,"206 SW 7TH STREET, DELRAY BEACH, FL, 33344","Match","Non_Exact","206 SW 7TH ST, DELRAY BEACH, FL, 33444",115291207,"L"
110434,"206 THORNCLIFF LANDING","ACWORTH","GA",30101,34.0608581910001,-84.74965615,434,"206 THORNCLIFF LANDING, ACWORTH, GA, 30101","Match","Exact","206 THORNCLIFF LNDG, ACWORTH, GA, 30101",651271612,"R"
110435,"206 THORNTON TRAIL","JACKSBORO","TX",76458,NA,NA,435,"206 THORNTON TRAIL, JACKSBORO, TX, 76458","No_Match",NA,NA,NA,NA
110436,"206 TIMOTHY CT","VIDALIA","GA",30474,32.2360047660001,-82.410125304,436,"206 TIMOTHY CT, VIDALIA, GA, 30474","Match","Exact","206 TIMOTHY CT, VIDALIA, GA, 30474",4770667,"R"
110437,"206 TRACY LN","WILLIAMSBURG","IA",52361,41.6634780750001,-92.024289319,437,"206 TRACY LN, WILLIAMSBURG, IA, 52361","Match","Exact","206 TRACY LN, WILLIAMSBURG, IA, 52361",84393216,"R"
110438,"206 TWEED DRIVE","MADISON","AL",35758,34.740488887,-86.7637242229999,438,"206 TWEED DRIVE, MADISON, AL, 35758","Match","Exact","206 TWEED DR, MADISON, AL, 35758",236745795,"L"
110439,"206 TWO NOTCH ROAD","LEXINGTON","SC",29073,33.9728403720001,-81.173189624,439,"206 TWO NOTCH ROAD, LEXINGTON, SC, 29073","Match","Exact","206 TWO NOTCH RD, LEXINGTON, SC, 29073",652909478,"L"
110440,"206 U ST","RIO LINDA","CA",95763,38.7050775450001,-121.461041682,440,"206 U ST, RIO LINDA, CA, 95763","Match","Non_Exact","206 U ST, RIO LINDA, CA, 95673",623881551,"R"
110441,"206 UNION AVE","SEWELL","NJ",8080,39.764951044,-75.144234051,441,"206 UNION AVE, SEWELL, NJ, 8080","Match","Exact","206 UNION AVE, SEWELL, NJ, 08080",134585611,"R"
110442,"206 US 29 S","HOGANSVILLE","GA",30230,NA,NA,442,"206 US 29 S, HOGANSVILLE, GA, 30230","No_Match",NA,NA,NA,NA
110443,"206 VANDERBILT AVENUE","BROOKLYN","NY",11205,40.691228015,-73.969459311,443,"206 VANDERBILT AVENUE, BROOKLYN, NY, 11205","Match","Exact","206 VANDERBILT AVE, BROOKLYN, NY, 11205",59077775,"R"
110444,"206 W 149TH ST 4A","NEW YORK","NY",10039,40.8243442720001,-73.9375988199999,444,"206 W 149TH ST 4A, NEW YORK, NY, 10039","Match","Non_Exact","206 W 149TH ST, NEW YORK, NY, 10039",59656311,"L"
110445,"206 W 14TH ST","SHIP BOTTOM","NJ",8008,NA,NA,445,"206 W 14TH ST, SHIP BOTTOM, NJ, 8008","Tie",NA,NA,NA,NA
110446,"206 W 6TH STREET 870","LOS ANGELES","CA",90014,NA,NA,446,"206 W 6TH STREET 870, LOS ANGELES, CA, 90014","Tie",NA,NA,NA,NA
110447,"206 W 9TH ST","NEW CASTLE","DE",19720,NA,NA,447,"206 W 9TH ST, NEW CASTLE, DE, 19720","Tie",NA,NA,NA,NA
110448,"206 W ADAMS STREET","MAYODAN","NC",27027,36.411836545,-79.96892933,448,"206 W ADAMS STREET, MAYODAN, NC, 27027","Match","Exact","206 W ADAMS ST, MAYODAN, NC, 27027",56212091,"L"
110449,"206 W BANNISTER ROAD","KANSAS CITY","MO",64114,38.956047174,-94.594454438,449,"206 W BANNISTER ROAD, KANSAS CITY, MO, 64114","Match","Exact","206 W BANNISTER RD, KANSAS CITY, MO, 64114",91455629,"R"
110450,"206 W CENTRE ST","GARNAVILLO","IA",52049,42.868115521,-91.237228866,450,"206 W CENTRE ST, GARNAVILLO, IA, 52049","Match","Exact","206 W CENTRE ST, GARNAVILLO, IA, 52049",48478105,"L"
110451,"206 W DUNCAN","MANCHESTER","MI",48158,42.1476138840001,-84.0406610269999,451,"206 W DUNCAN, MANCHESTER, MI, 48158","Match","Non_Exact","206 W DUNCAN ST, MANCHESTER, MI, 48158",26009490,"R"
110452,"206 W GREYSTONE COURT","DUNLAP","IL",61525,40.8444270420001,-89.594281167,452,"206 W GREYSTONE COURT, DUNLAP, IL, 61525","Match","Exact","206 GREYSTONE CT, DUNLAP, IL, 61525",8727309,"R"
110453,"206 W JEFFERSON ST","ROCK CITY","IL",61070,42.413239606,-89.470340103,453,"206 W JEFFERSON ST, ROCK CITY, IL, 61070","Match","Exact","206 JEFFERSON ST, ROCK CITY, IL, 61070",32691557,"R"
110454,"206 W MAIN ST","WESTFIELD","IN",46032,39.9783488160001,-86.130003594,454,"206 W MAIN ST, WESTFIELD, IN, 46032","Match","Non_Exact","206 W MAIN ST, CARMEL, IN, 46032",639697520,"L"
110455,"206 W MAIN STREET","JONESBOROUGH","TN",37659,36.2933929980001,-82.475556707,455,"206 W MAIN STREET, JONESBOROUGH, TN, 37659","Match","Exact","206 W MAIN ST, JONESBOROUGH, TN, 37659",127919477,"L"
110456,"206 W MOUNTAIN ST","KINGS MOUNTAIN","NC",28086,35.2392720980001,-81.3459738349999,456,"206 W MOUNTAIN ST, KINGS MOUNTAIN, NC, 28086","Match","Exact","206 W MOUNTAIN ST, KINGS MOUNTAIN, NC, 28086",19325256,"L"
110457,"206 W OAKRIDGE PARK","METAIRIE","LA",70005,29.984577034,-90.133959263,457,"206 W OAKRIDGE PARK, METAIRIE, LA, 70005","Match","Exact","206 W OAKRIDGE PARK, METAIRIE, LA, 70005",93538905,"R"
110458,"206 W STUBBS STREET","EDINBURG","TX",78539,26.2985936590001,-98.1642532769999,458,"206 W STUBBS STREET, EDINBURG, TX, 78539","Match","Exact","206 W STUBBS ST, EDINBURG, TX, 78539",71496221,"L"
110459,"206 WALKER AVENUE","CLARENDON HILLS","IL",60514,41.792302084,-87.9550054859999,459,"206 WALKER AVENUE, CLARENDON HILLS, IL, 60514","Match","Exact","206 WALKER AVE, CLARENDON HILLS, IL, 60514",112693095,"R"
110460,"206 WALNUT STREET 2ND FL","WATERBURY","CT",6704,41.558231402,-73.028542839,460,"206 WALNUT STREET 2ND FL, WATERBURY, CT, 6704","Match","Exact","206 WALNUT ST, WATERBURY, CT, 06704",3730076,"R"
110461,"206 WALNUT STREET","PEEKSKILL","NY",10566,41.286394294,-73.917904307,461,"206 WALNUT STREET, PEEKSKILL, NY, 10566","Match","Exact","206 WALNUT ST, PEEKSKILL, NY, 10566",139724232,"L"
110462,"206 WASHINGTON AVENUE","LA PLATA","MD",20646,38.532262653,-76.978206442,462,"206 WASHINGTON AVENUE, LA PLATA, MD, 20646","Match","Exact","206 WASHINGTON AVE, LA PLATA, MD, 20646",642697022,"R"
110463,"206 WATER STREET","EAU CLAIRE","WI",54703,44.8021715570001,-91.503530725,463,"206 WATER STREET, EAU CLAIRE, WI, 54703","Match","Exact","206 WATER ST, EAU CLAIRE, WI, 54703",637818193,"R"
110464,"206 WATERFRONT DRIVE","WILLIAMSTON","SC",29697,34.627993406,-82.483662231,464,"206 WATERFRONT DRIVE, WILLIAMSTON, SC, 29697","Match","Exact","206 WATERFRONT DR, WILLIAMSTON, SC, 29697",25472365,"R"
110465,"206 WATERGAP VILLAGE BOX 333","DELAWARE  WATER GAP","PA",18327,40.988823677,-75.1476956669999,465,"206 WATERGAP VILLAGE BOX 333, DELAWARE  WATER GAP, PA, 18327","Match","Non_Exact","206 WATER GAP VLG, DELAWARE WATER GAP, PA, 18327",649081227,"R"
110466,"206 WEDGEWOOD DRIVE","BONAIRE","GA",31005,32.536139791,-83.5640565639999,466,"206 WEDGEWOOD DRIVE, BONAIRE, GA, 31005","Match","Exact","206 WEDGEWOOD DR, BONAIRE, GA, 31005",91253554,"L"
110467,"206 WEST CUNDYS POINT RD","HARPSWELL","ME",4079,43.776956495,-69.901910616,467,"206 WEST CUNDYS POINT RD, HARPSWELL, ME, 4079","Match","Exact","206 W CUNDYS POINT RD, HARPSWELL, ME, 04079",78008718,"L"
110468,"206 WEST EDMONDSON ST","CULPEPER","VA",22701,38.475655412,-77.997104436,468,"206 WEST EDMONDSON ST, CULPEPER, VA, 22701","Match","Exact","206 W EDMONDSON ST, CULPEPER, VA, 22701",29835971,"R"
110469,"206 WEST FIRST STREET","MINNEOTA","MN",56264,44.5609069540001,-95.9900988219999,469,"206 WEST FIRST STREET, MINNEOTA, MN, 56264","Match","Exact","206 W 1ST ST, MINNEOTA, MN, 56264",38512755,"R"
110470,"206 WEST HOGAN DRIVE","COPPERAS COVE","TX",76522,31.1330662250001,-97.895543969,470,"206 WEST HOGAN DRIVE, COPPERAS COVE, TX, 76522","Match","Exact","206 W HOGAN DR, COPPERAS COVE, TX, 76522",146566531,"R"
110471,"206 WEST MAIN ST","PLAINFIELD","IN",46168,39.7027359040001,-86.403134392,471,"206 WEST MAIN ST, PLAINFIELD, IN, 46168","Match","Exact","206 W MAIN ST, PLAINFIELD, IN, 46168",89200623,"L"
110472,"206 WEST MAIN STREET","WALNUT RIDGE","AR",72476,36.0691706120001,-90.95690317,472,"206 WEST MAIN STREET, WALNUT RIDGE, AR, 72476","Match","Exact","206 W MAIN ST, WALNUT RIDGE, AR, 72476",79043523,"L"
110473,"206 WEST MAPLE AVENUE APT 2A","LIBERTYVILLE","IL",60048,42.2849708410001,-87.9555914599999,473,"206 WEST MAPLE AVENUE APT 2A, LIBERTYVILLE, IL, 60048","Match","Exact","206 W MAPLE AVE, LIBERTYVILLE, IL, 60048",119642394,"L"
110474,"206 WEST MUNSELL AVENUE","LINDEN","NJ",7036,40.6267800140001,-74.249586434,474,"206 WEST MUNSELL AVENUE, LINDEN, NJ, 7036","Match","Exact","206 W MUNSELL AVE, LINDEN, NJ, 07036",60576265,"R"
110475,"206 WEST STATE STREET","TRENTON","NJ",8608,40.2218519090001,-74.7729962029999,475,"206 WEST STATE STREET, TRENTON, NJ, 8608","Match","Exact","206 W STATE ST, TRENTON, NJ, 08608",60178491,"R"
110476,"206 WEST STREET NORTH","MILTONA","MN",56354,NA,NA,476,"206 WEST STREET NORTH, MILTONA, MN, 56354","No_Match",NA,NA,NA,NA
110477,"206 WEST WASHINGTON PO BOX 7788","NAPOLEON","OH",43545,41.390519705,-84.1263089,477,"206 WEST WASHINGTON PO BOX 7788, NAPOLEON, OH, 43545","Match","Non_Exact","206 W WASHINGTON ST, NAPOLEON, OH, 43545",647410857,"L"
110478,"206 WEST WILDING DRIVE","MONTGOMERY","AL",36116,32.309410734,-86.262033752,478,"206 WEST WILDING DRIVE, MONTGOMERY, AL, 36116","Match","Exact","206 W WILDING DR, MONTGOMERY, AL, 36116",1544682,"R"
110479,"206 WHITTEN ROAD","PELZER","SC",29669,34.6594238000001,-82.4928167149999,479,"206 WHITTEN ROAD, PELZER, SC, 29669","Match","Exact","206 WHITTEN RD, PELZER, SC, 29669",639234233,"R"
110480,"206 WILSON STREET","WILLIAMSTON","NC",27892,35.8500016290001,-77.058355209,480,"206 WILSON STREET, WILLIAMSTON, NC, 27892","Match","Exact","206 WILSON ST, WILLIAMSTON, NC, 27892",56805933,"L"
110481,"206 WOODBROOK WAY","MONCKS CORNER","SC",29461,33.1095428670001,-80.036364146,481,"206 WOODBROOK WAY, MONCKS CORNER, SC, 29461","Match","Exact","206 WOODBROOK WAY, MONCKS CORNER, SC, 29461",637227644,"L"
110482,"206 WOODLAND HEIGHTS","PETERBOROUGH","NH",3458,NA,NA,482,"206 WOODLAND HEIGHTS, PETERBOROUGH, NH, 3458","No_Match",NA,NA,NA,NA
110483,"206 WOODLANDS DRIVE","WILMINGTON","NC",28403,NA,NA,483,"206 WOODLANDS DRIVE, WILMINGTON, NC, 28403","No_Match",NA,NA,NA,NA
110484,"206 WOODS ROAD","TIVOLI","NY",12583,42.071178106,-73.916248653,484,"206 WOODS ROAD, TIVOLI, NY, 12583","Match","Exact","206 WOODS RD, TIVOLI, NY, 12583",4188402,"R"
110485,"206 YORKTOWN RD","CLARKSVILLE","TN",37042,36.5707823390001,-87.396227256,485,"206 YORKTOWN RD, CLARKSVILLE, TN, 37042","Match","Exact","206 YORKTOWN RD, CLARKSVILLE, TN, 37042",31813743,"R"
110486,"2060 B JET WING DRIVE","COLORADO SPRINGS","CO",80916,38.8016021130001,-104.750415264,486,"2060 B JET WING DRIVE, COLORADO SPRINGS, CO, 80916","Match","Exact","2060 JET WING DR, COLORADO SPRINGS, CO, 80916",610742235,"R"
110487,"2060 CALLE LOIZA","SAN JUAN","PR",911,18.4499882260001,-66.0518467959999,487,"2060 CALLE LOIZA, SAN JUAN, PR, 911","Match","Non_Exact","2060 CLL LOIZA, SAN JUAN, PR, 00911",206627120,"L"
110488,"2060 CARTER AVE","ST PAUL","MN",55108,44.9819521480001,-93.188123119,488,"2060 CARTER AVE, ST PAUL, MN, 55108","Match","Exact","2060 CARTER AVE, SAINT PAUL, MN, 55108",97638615,"L"
110489,"2060 COOLIDGE DRIVE","SANTA CLARA","CA",95051,37.3604306190001,-121.971186328,489,"2060 COOLIDGE DRIVE, SANTA CLARA, CA, 95051","Match","Exact","2060 COOLIDGE DR, SANTA CLARA, CA, 95051",122898905,"L"
110490,"2060 FEATHERMINT DR","SAN RAMON","CA",94582,37.7761875080001,-121.913288701,490,"2060 FEATHERMINT DR, SAN RAMON, CA, 94582","Match","Exact","2060 FEATHERMINT DR, SAN RAMON, CA, 94582",192115424,"L"
110491,"2060 FOURTH ST  APARTMENT 119","BERKELEY","CA",94710,37.8667422890001,-122.299626735,491,"2060 FOURTH ST  APARTMENT 119, BERKELEY, CA, 94710","Match","Exact","2060 4TH ST, BERKELEY, CA, 94710",649681401,"R"
110492,"2060 GRAND RIVER ANNEX STE 100","BRIGHTON","MI",48114,42.570576267,-83.817403594,492,"2060 GRAND RIVER ANNEX STE 100, BRIGHTON, MI, 48114","Match","Exact","2060 GRAND RIVER ANX, BRIGHTON, MI, 48114",619592601,"R"
110493,"2060 HAMMOCK ROAD","MOBILE","AL",36605,30.5425963760001,-88.086058618,493,"2060 HAMMOCK ROAD, MOBILE, AL, 36605","Match","Exact","2060 HAMMOCK RD, MOBILE, AL, 36605",61954873,"L"
110494,"2060 HAYLIFT LANE","MOSIER","OR",97040,45.6588120540001,-121.332291978,494,"2060 HAYLIFT LANE, MOSIER, OR, 97040","Match","Exact","2060 HAYLIFT LN, MOSIER, OR, 97040",611143535,"R"
110495,"2060 HERCULES DRIVE","LOS ANGELES","CA",90046,34.1074365790001,-118.363122208,495,"2060 HERCULES DRIVE, LOS ANGELES, CA, 90046","Match","Exact","2060 HERCULES DR, LOS ANGELES, CA, 90046",141593798,"R"
110496,"2060 HWY 343","CHURCH POINT","LA",70525,30.34907767,-92.141560397,496,"2060 HWY 343, CHURCH POINT, LA, 70525","Match","Non_Exact","2060 STATE RTE 343, CHURCH POINT, LA, 70525",106453753,"R"
110497,"2060 LIAMARIE WAY","WINTER HAVEN","FL",33884,27.980391282,-81.690915395,497,"2060 LIAMARIE WAY, WINTER HAVEN, FL, 33884","Match","Exact","2060 LIAMARIE WAY, WINTER HAVEN, FL, 33884",614468001,"R"
110498,"2060 MARDEL LANE","SAN JOSE","CA",95128,37.306928306,-121.928719396,498,"2060 MARDEL LANE, SAN JOSE, CA, 95128","Match","Exact","2060 MARDEL LN, SAN JOSE, CA, 95128",122905483,"L"
110499,"2060 MARILYN ST STE D222","CLEARWATER","FL",33765,27.971582277,-82.750167747,499,"2060 MARILYN ST STE D222, CLEARWATER, FL, 33765","Match","Exact","2060 MARILYN ST, CLEARWATER, FL, 33765",639741232,"L"
110500,"2060 MCGRAW AVE","BRONX","NY",10462,40.8354951430001,-73.856406551,500,"2060 MCGRAW AVE, BRONX, NY, 10462","Match","Exact","2060 MCGRAW AVE, BRONX, NY, 10462",609089837,"R"
