"ID","Address","City","State","Zip","lat","long","id","input_address","match_indicator","match_type","matched_address","tiger_line_id","tiger_side"
336001,"PO BOX 1654","WEST PALM BEACH","FL",33402,NA,NA,1,"PO BOX 1654, WEST PALM BEACH, FL, 33402","No_Match",NA,NA,NA,NA
336002,"PO BOX 16542","HOOKSETT","NH",3106,NA,NA,2,"PO BOX 16542, HOOKSETT, NH, 3106","No_Match",NA,NA,NA,NA
336003,"PO BOX 1655","EVANS","GA",30809,NA,NA,3,"PO BOX 1655, EVANS, GA, 30809","No_Match",NA,NA,NA,NA
336004,"PO BOX 1655","LIBERTY HILL","TX",78642,NA,NA,4,"PO BOX 1655, LIBERTY HILL, TX, 78642","No_Match",NA,NA,NA,NA
336005,"PO BOX 1655","PROSSER","WA",99350,NA,NA,5,"PO BOX 1655, PROSSER, WA, 99350","No_Match",NA,NA,NA,NA
336006,"PO BOX 1655","SHARPSBURG","GA",30277,NA,NA,6,"PO BOX 1655, SHARPSBURG, GA, 30277","No_Match",NA,NA,NA,NA
336007,"PO BOX 16551","MILWAUKEE","WI",53216,NA,NA,7,"PO BOX 16551, MILWAUKEE, WI, 53216","No_Match",NA,NA,NA,NA
336008,"PO BOX 165522","IRVING","TX",75016,NA,NA,8,"PO BOX 165522, IRVING, TX, 75016","No_Match",NA,NA,NA,NA
336009,"PO BOX 1656","BENTONVILLE","AR",72713,NA,NA,9,"PO BOX 1656, BENTONVILLE, AR, 72713","No_Match",NA,NA,NA,NA
336010,"PO BOX 1656","CEDARTOWN","GA",30125,NA,NA,10,"PO BOX 1656, CEDARTOWN, GA, 30125","No_Match",NA,NA,NA,NA
336011,"PO BOX 1656","FONTANA","CA",92334,NA,NA,11,"PO BOX 1656, FONTANA, CA, 92334","No_Match",NA,NA,NA,NA
336012,"PO BOX 1656","GAFFNEY","SC",29342,NA,NA,12,"PO BOX 1656, GAFFNEY, SC, 29342","No_Match",NA,NA,NA,NA
336013,"PO BOX 1656","MANATI","PR",674,NA,NA,13,"PO BOX 1656, MANATI, PR, 674","No_Match",NA,NA,NA,NA
336014,"PO BOX 1656","WAPAKONETA","OH",45895,NA,NA,14,"PO BOX 1656, WAPAKONETA, OH, 45895","No_Match",NA,NA,NA,NA
336015,"PO BOX 16562","CHICAGO","IL",60616,NA,NA,15,"PO BOX 16562, CHICAGO, IL, 60616","No_Match",NA,NA,NA,NA
336016,"PO BOX 165657","LITTLE ROCK","AR",72216,NA,NA,16,"PO BOX 165657, LITTLE ROCK, AR, 72216","No_Match",NA,NA,NA,NA
336017,"PO BOX 1657","FORTSON","GA",31808,NA,NA,17,"PO BOX 1657, FORTSON, GA, 31808","No_Match",NA,NA,NA,NA
336018,"PO BOX 1657","OCEANSIDE","CA",92051,NA,NA,18,"PO BOX 1657, OCEANSIDE, CA, 92051","No_Match",NA,NA,NA,NA
336019,"PO BOX 16576","TALLAHASSEE","FL",32317,NA,NA,19,"PO BOX 16576, TALLAHASSEE, FL, 32317","No_Match",NA,NA,NA,NA
336020,"PO BOX 1658","DULUTH","GA",30096,NA,NA,20,"PO BOX 1658, DULUTH, GA, 30096","No_Match",NA,NA,NA,NA
336021,"PO BOX 1658","VISTA","CA",92085,NA,NA,21,"PO BOX 1658, VISTA, CA, 92085","No_Match",NA,NA,NA,NA
336022,"PO BOX 1659","BENNETTSVILLE","SC",29512,NA,NA,22,"PO BOX 1659, BENNETTSVILLE, SC, 29512","No_Match",NA,NA,NA,NA
336023,"PO BOX 1659","HEALDSBURG","CA",95448,NA,NA,23,"PO BOX 1659, HEALDSBURG, CA, 95448","No_Match",NA,NA,NA,NA
336024,"PO BOX 1659","PORT TOWNSEND","WA",98368,NA,NA,24,"PO BOX 1659, PORT TOWNSEND, WA, 98368","No_Match",NA,NA,NA,NA
336025,"PO BOX 16592","SAN JUAN","NY",908,NA,NA,25,"PO BOX 16592, SAN JUAN, NY, 908","No_Match",NA,NA,NA,NA
336026,"PO BOX 16592","SAN JUAN","PR",908,NA,NA,26,"PO BOX 16592, SAN JUAN, PR, 908","No_Match",NA,NA,NA,NA
336027,"PO BOX 16595","MILWAUKEE","WI",53216,NA,NA,27,"PO BOX 16595, MILWAUKEE, WI, 53216","No_Match",NA,NA,NA,NA
336028,"PO BOX 166 - 400 SW 4TH STREET","ATLANTA","IL",61723,40.2630363420001,-89.234921872,28,"PO BOX 166 - 400 SW 4TH STREET, ATLANTA, IL, 61723","Match","Exact","166 SW 4TH ST, ATLANTA, IL, 61723",22443431,"L"
336029,"PO BOX 166","BERRIEN SPRINGS","MI",49103,NA,NA,29,"PO BOX 166, BERRIEN SPRINGS, MI, 49103","No_Match",NA,NA,NA,NA
336030,"PO BOX 166","CABIN CREEK","WV",25035,NA,NA,30,"PO BOX 166, CABIN CREEK, WV, 25035","No_Match",NA,NA,NA,NA
336031,"PO BOX 166","FREDERIC","WI",54837,NA,NA,31,"PO BOX 166, FREDERIC, WI, 54837","No_Match",NA,NA,NA,NA
336032,"PO BOX 166","GREENVILLE","VA",24440,NA,NA,32,"PO BOX 166, GREENVILLE, VA, 24440","No_Match",NA,NA,NA,NA
336033,"PO BOX 166","JOSEPH","OR",97846,NA,NA,33,"PO BOX 166, JOSEPH, OR, 97846","No_Match",NA,NA,NA,NA
336034,"PO BOX 166","KOUTS","IN",46347,NA,NA,34,"PO BOX 166, KOUTS, IN, 46347","No_Match",NA,NA,NA,NA
336035,"PO BOX 166","MADRID","IA",50156,NA,NA,35,"PO BOX 166, MADRID, IA, 50156","No_Match",NA,NA,NA,NA
336036,"PO BOX 166","MARTINSVILLE","VA",24114,NA,NA,36,"PO BOX 166, MARTINSVILLE, VA, 24114","No_Match",NA,NA,NA,NA
336037,"PO BOX 166","MATTESON","IL",60443,NA,NA,37,"PO BOX 166, MATTESON, IL, 60443","No_Match",NA,NA,NA,NA
336038,"PO BOX 166","MECHANICSVILLE","MD",20659,NA,NA,38,"PO BOX 166, MECHANICSVILLE, MD, 20659","No_Match",NA,NA,NA,NA
336039,"PO BOX 166","NEWPORT","VT",5855,NA,NA,39,"PO BOX 166, NEWPORT, VT, 5855","No_Match",NA,NA,NA,NA
336040,"PO BOX 166","OTTAWA LAKE","MI",49267,NA,NA,40,"PO BOX 166, OTTAWA LAKE, MI, 49267","No_Match",NA,NA,NA,NA
336041,"PO BOX 166","PUKWANA","SD",57370,NA,NA,41,"PO BOX 166, PUKWANA, SD, 57370","No_Match",NA,NA,NA,NA
336042,"PO BOX 1660","HOOD RIVER","OR",97031,NA,NA,42,"PO BOX 1660, HOOD RIVER, OR, 97031","No_Match",NA,NA,NA,NA
336043,"PO BOX 1660","ORACLE","AZ",85623,NA,NA,43,"PO BOX 1660, ORACLE, AZ, 85623","No_Match",NA,NA,NA,NA
336044,"PO BOX 1660","PITTSBORO","NC",27562,NA,NA,44,"PO BOX 1660, PITTSBORO, NC, 27562","No_Match",NA,NA,NA,NA
336045,"PO BOX 1661","BROOKFIELD","WI",53008,NA,NA,45,"PO BOX 1661, BROOKFIELD, WI, 53008","No_Match",NA,NA,NA,NA
336046,"PO BOX 1661","CICERO","NY",13039,NA,NA,46,"PO BOX 1661, CICERO, NY, 13039","No_Match",NA,NA,NA,NA
336047,"PO BOX 1661","ERIE","PA",16512,NA,NA,47,"PO BOX 1661, ERIE, PA, 16512","No_Match",NA,NA,NA,NA
336048,"PO BOX 1661","LEVITTOWN","PA",19058,NA,NA,48,"PO BOX 1661, LEVITTOWN, PA, 19058","No_Match",NA,NA,NA,NA
336049,"PO BOX 1661","ROSAMOND","CA",93560,NA,NA,49,"PO BOX 1661, ROSAMOND, CA, 93560","No_Match",NA,NA,NA,NA
336050,"PO BOX 1661","THREE RIVERS","TX",78071,NA,NA,50,"PO BOX 1661, THREE RIVERS, TX, 78071","No_Match",NA,NA,NA,NA
336051,"PO BOX 166104","LITTLE ROCK","AR",72216,NA,NA,51,"PO BOX 166104, LITTLE ROCK, AR, 72216","No_Match",NA,NA,NA,NA
336052,"PO BOX 16612","CHAPEL HILL","NC",27516,NA,NA,52,"PO BOX 16612, CHAPEL HILL, NC, 27516","No_Match",NA,NA,NA,NA
336053,"PO BOX 1662","DALTON","GA",30722,NA,NA,53,"PO BOX 1662, DALTON, GA, 30722","No_Match",NA,NA,NA,NA
336054,"PO BOX 1662","HERMISTON","OR",97838,NA,NA,54,"PO BOX 1662, HERMISTON, OR, 97838","No_Match",NA,NA,NA,NA
336055,"PO BOX 1662","LEAGUE CITY","TX",77574,NA,NA,55,"PO BOX 1662, LEAGUE CITY, TX, 77574","No_Match",NA,NA,NA,NA
336056,"PO BOX 1662","TAPPAHANNOCK","VA",22560,NA,NA,56,"PO BOX 1662, TAPPAHANNOCK, VA, 22560","No_Match",NA,NA,NA,NA
336057,"PO BOX 16629","DUBLIN","GA",31040,NA,NA,57,"PO BOX 16629, DUBLIN, GA, 31040","No_Match",NA,NA,NA,NA
336058,"PO BOX 1663","BEAVERTON","OR",97076,NA,NA,58,"PO BOX 1663, BEAVERTON, OR, 97076","No_Match",NA,NA,NA,NA
336059,"PO BOX 1663","BUNA","TX",77612,NA,NA,59,"PO BOX 1663, BUNA, TX, 77612","No_Match",NA,NA,NA,NA
336060,"PO BOX 1663","CALERA","AL",35040,NA,NA,60,"PO BOX 1663, CALERA, AL, 35040","No_Match",NA,NA,NA,NA
336061,"PO BOX 1663","SANTA YNEZ","CA",93460,NA,NA,61,"PO BOX 1663, SANTA YNEZ, CA, 93460","No_Match",NA,NA,NA,NA
336062,"PO BOX 16631","SALT LAKE CITY","UT",84116,NA,NA,62,"PO BOX 16631, SALT LAKE CITY, UT, 84116","No_Match",NA,NA,NA,NA
336063,"PO BOX 16638","CHICAGO","IL",60616,NA,NA,63,"PO BOX 16638, CHICAGO, IL, 60616","No_Match",NA,NA,NA,NA
336064,"PO BOX 1664","AIEA","HI",96701,NA,NA,64,"PO BOX 1664, AIEA, HI, 96701","No_Match",NA,NA,NA,NA
336065,"PO BOX 1664","BEND","OR",97709,NA,NA,65,"PO BOX 1664, BEND, OR, 97709","No_Match",NA,NA,NA,NA
336066,"PO BOX 1664","GEORGETOWN","TX",78627,NA,NA,66,"PO BOX 1664, GEORGETOWN, TX, 78627","No_Match",NA,NA,NA,NA
336067,"PO BOX 1664","HELENA","MT",59624,NA,NA,67,"PO BOX 1664, HELENA, MT, 59624","No_Match",NA,NA,NA,NA
336068,"PO BOX 1664","POST FALLS","ID",83877,NA,NA,68,"PO BOX 1664, POST FALLS, ID, 83877","No_Match",NA,NA,NA,NA
336069,"PO BOX 1664","RICHLAND","WA",99352,NA,NA,69,"PO BOX 1664, RICHLAND, WA, 99352","No_Match",NA,NA,NA,NA
336070,"PO BOX 16641","ST. LOUIS PARK","MN",55416,NA,NA,70,"PO BOX 16641, ST. LOUIS PARK, MN, 55416","No_Match",NA,NA,NA,NA
336071,"PO BOX 166431","LITTLE ROCK","AR",72216,NA,NA,71,"PO BOX 166431, LITTLE ROCK, AR, 72216","No_Match",NA,NA,NA,NA
336072,"PO BOX 166444","LITTLE ROCK","AR",72216,NA,NA,72,"PO BOX 166444, LITTLE ROCK, AR, 72216","No_Match",NA,NA,NA,NA
336073,"PO BOX 16645","MILWAUKEE","WI",53216,NA,NA,73,"PO BOX 16645, MILWAUKEE, WI, 53216","No_Match",NA,NA,NA,NA
336074,"PO BOX 1665","CAHOKIA","IL",62206,NA,NA,74,"PO BOX 1665, CAHOKIA, IL, 62206","No_Match",NA,NA,NA,NA
336075,"PO BOX 1665","CLINTON","LA",70722,NA,NA,75,"PO BOX 1665, CLINTON, LA, 70722","No_Match",NA,NA,NA,NA
336076,"PO BOX 16653","ASHEVILLE","NC",28816,NA,NA,76,"PO BOX 16653, ASHEVILLE, NC, 28816","No_Match",NA,NA,NA,NA
336077,"PO BOX 1666","CORDOVA","AK",99574,NA,NA,77,"PO BOX 1666, CORDOVA, AK, 99574","No_Match",NA,NA,NA,NA
336078,"PO BOX 1666","MANTEO","NC",27954,NA,NA,78,"PO BOX 1666, MANTEO, NC, 27954","No_Match",NA,NA,NA,NA
336079,"PO BOX 1666","OLIVE BRANCH","MS",38651,NA,NA,79,"PO BOX 1666, OLIVE BRANCH, MS, 38651","No_Match",NA,NA,NA,NA
336080,"PO BOX 1666","SISTERS","OR",97759,NA,NA,80,"PO BOX 1666, SISTERS, OR, 97759","No_Match",NA,NA,NA,NA
336081,"PO BOX 166648","LITTLE ROCK","AR",72216,NA,NA,81,"PO BOX 166648, LITTLE ROCK, AR, 72216","No_Match",NA,NA,NA,NA
336082,"PO BOX 1667","CRYSTAL BEACH","TX",77650,NA,NA,82,"PO BOX 1667, CRYSTAL BEACH, TX, 77650","No_Match",NA,NA,NA,NA
336083,"PO BOX 1667","SANTA ROSA BEACH","FL",32459,NA,NA,83,"PO BOX 1667, SANTA ROSA BEACH, FL, 32459","No_Match",NA,NA,NA,NA
336084,"PO BOX 166708","LITTLE ROCK","AR",72216,NA,NA,84,"PO BOX 166708, LITTLE ROCK, AR, 72216","No_Match",NA,NA,NA,NA
336085,"PO BOX 16676","HATTIESBURG","MS",39401,NA,NA,85,"PO BOX 16676, HATTIESBURG, MS, 39401","No_Match",NA,NA,NA,NA
336086,"PO BOX 16677","SAINT LOUIS","MO",63105,NA,NA,86,"PO BOX 16677, SAINT LOUIS, MO, 63105","No_Match",NA,NA,NA,NA
336087,"PO BOX 1668","MASON","TX",76856,NA,NA,87,"PO BOX 1668, MASON, TX, 76856","No_Match",NA,NA,NA,NA
336088,"PO BOX 1668","WASHINGTON","MO",63090,NA,NA,88,"PO BOX 1668, WASHINGTON, MO, 63090","No_Match",NA,NA,NA,NA
336089,"PO BOX 16682","DULUTH","MN",55816,NA,NA,89,"PO BOX 16682, DULUTH, MN, 55816","No_Match",NA,NA,NA,NA
336090,"PO BOX 16683","FERNANDINA BEACH","FL",32035,NA,NA,90,"PO BOX 16683, FERNANDINA BEACH, FL, 32035","No_Match",NA,NA,NA,NA
336091,"PO BOX 166851","LITTLE ROCK","AR",72216,NA,NA,91,"PO BOX 166851, LITTLE ROCK, AR, 72216","No_Match",NA,NA,NA,NA
336092,"PO BOX 16687","ATLANTA","GA",30321,NA,NA,92,"PO BOX 16687, ATLANTA, GA, 30321","No_Match",NA,NA,NA,NA
336093,"PO BOX 1669","PASO ROBLES","CA",93447,NA,NA,93,"PO BOX 1669, PASO ROBLES, CA, 93447","No_Match",NA,NA,NA,NA
336094,"PO BOX 167 / 202 W MADISON","CHRISMAN","IL",61924,39.8044269310001,-87.679131969,94,"PO BOX 167 / 202 W MADISON, CHRISMAN, IL, 61924","Match","Non_Exact","202 W MADISON AVE, CHRISMAN, IL, 61924",5786326,"L"
336095,"PO BOX 167 11 ELM ST","FREEDOM","NH",3836,43.8127538860001,-71.035634805,95,"PO BOX 167 11 ELM ST, FREEDOM, NH, 3836","Match","Exact","11 ELM ST, FREEDOM, NH, 03836",145612381,"R"
336096,"PO BOX 167 SAINT JUST","TRUJILLO ALTO","PR",978,NA,NA,96,"PO BOX 167 SAINT JUST, TRUJILLO ALTO, PR, 978","No_Match",NA,NA,NA,NA
336097,"PO BOX 167","BARRE","VT",5641,NA,NA,97,"PO BOX 167, BARRE, VT, 5641","No_Match",NA,NA,NA,NA
336098,"PO BOX 167","BERLIN","MD",21811,NA,NA,98,"PO BOX 167, BERLIN, MD, 21811","No_Match",NA,NA,NA,NA
336099,"PO BOX 167","DEER PARK","NY",11729,NA,NA,99,"PO BOX 167, DEER PARK, NY, 11729","No_Match",NA,NA,NA,NA
336100,"PO BOX 167","ELKHORN","WI",53121,NA,NA,100,"PO BOX 167, ELKHORN, WI, 53121","No_Match",NA,NA,NA,NA
336101,"PO BOX 167","IXONIA","WI",53036,NA,NA,101,"PO BOX 167, IXONIA, WI, 53036","No_Match",NA,NA,NA,NA
336102,"PO BOX 167","JOHNSON CITY","NY",13790,NA,NA,102,"PO BOX 167, JOHNSON CITY, NY, 13790","No_Match",NA,NA,NA,NA
336103,"PO BOX 167","MENAN","ID",83434,NA,NA,103,"PO BOX 167, MENAN, ID, 83434","No_Match",NA,NA,NA,NA
336104,"PO BOX 167","METUCHEN","NJ",8840,NA,NA,104,"PO BOX 167, METUCHEN, NJ, 8840","No_Match",NA,NA,NA,NA
336105,"PO BOX 167","MT VERNON","SD",57363,NA,NA,105,"PO BOX 167, MT VERNON, SD, 57363","No_Match",NA,NA,NA,NA
336106,"PO BOX 167","PATASKALA","OH",43062,NA,NA,106,"PO BOX 167, PATASKALA, OH, 43062","No_Match",NA,NA,NA,NA
336107,"PO BOX 167","SANDYVILLE","OH",44671,NA,NA,107,"PO BOX 167, SANDYVILLE, OH, 44671","No_Match",NA,NA,NA,NA
336108,"PO BOX 167","ST. ALBANS","VT",5478,NA,NA,108,"PO BOX 167, ST. ALBANS, VT, 5478","No_Match",NA,NA,NA,NA
336109,"PO BOX 167","TRABUCO CANYON","CA",92678,NA,NA,109,"PO BOX 167, TRABUCO CANYON, CA, 92678","No_Match",NA,NA,NA,NA
336110,"PO BOX 167","WAUSA","NE",68786,NA,NA,110,"PO BOX 167, WAUSA, NE, 68786","No_Match",NA,NA,NA,NA
336111,"PO BOX 1671","BARCELONETA","PR",617,NA,NA,111,"PO BOX 1671, BARCELONETA, PR, 617","No_Match",NA,NA,NA,NA
336112,"PO BOX 1671","BELMONT","NC",28012,NA,NA,112,"PO BOX 1671, BELMONT, NC, 28012","No_Match",NA,NA,NA,NA
336113,"PO BOX 1671","HONOLULU","HI",96806,NA,NA,113,"PO BOX 1671, HONOLULU, HI, 96806","No_Match",NA,NA,NA,NA
336114,"PO BOX 1671","UNION CITY","CA",94587,NA,NA,114,"PO BOX 1671, UNION CITY, CA, 94587","No_Match",NA,NA,NA,NA
336115,"PO BOX 16714","SAN JUAN","PR",908,NA,NA,115,"PO BOX 16714, SAN JUAN, PR, 908","No_Match",NA,NA,NA,NA
336116,"PO BOX 1672","GREENBELT","MD",20768,NA,NA,116,"PO BOX 1672, GREENBELT, MD, 20768","No_Match",NA,NA,NA,NA
336117,"PO BOX 1672","HOOD RIVER","OR",97031,NA,NA,117,"PO BOX 1672, HOOD RIVER, OR, 97031","No_Match",NA,NA,NA,NA
336118,"PO BOX 1672","LINDEN","NJ",7036,NA,NA,118,"PO BOX 1672, LINDEN, NJ, 7036","No_Match",NA,NA,NA,NA
336119,"PO BOX 1672","OZARK","MO",65721,NA,NA,119,"PO BOX 1672, OZARK, MO, 65721","No_Match",NA,NA,NA,NA
336120,"PO BOX 16721","SAN DIEGO","CA",92176,NA,NA,120,"PO BOX 16721, SAN DIEGO, CA, 92176","No_Match",NA,NA,NA,NA
336121,"PO BOX 1673","CRESTVIEW","FL",32536,NA,NA,121,"PO BOX 1673, CRESTVIEW, FL, 32536","No_Match",NA,NA,NA,NA
336122,"PO BOX 1673","LIBERAL","KS",67901,NA,NA,122,"PO BOX 1673, LIBERAL, KS, 67901","No_Match",NA,NA,NA,NA
336123,"PO BOX 1673","VIDOR","TX",77662,NA,NA,123,"PO BOX 1673, VIDOR, TX, 77662","No_Match",NA,NA,NA,NA
336124,"PO BOX 16732","MINNEAPOLIS","MN",55416,NA,NA,124,"PO BOX 16732, MINNEAPOLIS, MN, 55416","No_Match",NA,NA,NA,NA
336125,"PO BOX 167332","CHICAGO","IL",60616,NA,NA,125,"PO BOX 167332, CHICAGO, IL, 60616","No_Match",NA,NA,NA,NA
336126,"PO BOX 1674","GAINESVILLE","GA",30501,NA,NA,126,"PO BOX 1674, GAINESVILLE, GA, 30501","No_Match",NA,NA,NA,NA
336127,"PO BOX 1674","RIVERSIDE","CA",92502,NA,NA,127,"PO BOX 1674, RIVERSIDE, CA, 92502","No_Match",NA,NA,NA,NA
336128,"PO BOX 1674","STOCKBRIDGE","GA",30281,NA,NA,128,"PO BOX 1674, STOCKBRIDGE, GA, 30281","No_Match",NA,NA,NA,NA
336129,"PO BOX 1674","WAUCHULA","FL",33873,NA,NA,129,"PO BOX 1674, WAUCHULA, FL, 33873","No_Match",NA,NA,NA,NA
336130,"PO BOX 16741","PHOENIX","AZ",85011,NA,NA,130,"PO BOX 16741, PHOENIX, AZ, 85011","No_Match",NA,NA,NA,NA
336131,"PO BOX 16741","ST LOUIS","MO",63105,NA,NA,131,"PO BOX 16741, ST LOUIS, MO, 63105","No_Match",NA,NA,NA,NA
336132,"PO BOX 16746","SAINT LOUIS","MO",63105,NA,NA,132,"PO BOX 16746, SAINT LOUIS, MO, 63105","No_Match",NA,NA,NA,NA
336133,"PO BOX 1675","BRUSH PRAIRIE","WA",98606,NA,NA,133,"PO BOX 1675, BRUSH PRAIRIE, WA, 98606","No_Match",NA,NA,NA,NA
336134,"PO BOX 1675","HIRAM","GA",30141,NA,NA,134,"PO BOX 1675, HIRAM, GA, 30141","No_Match",NA,NA,NA,NA
336135,"PO BOX 1675","PECOS","TX",79772,NA,NA,135,"PO BOX 1675, PECOS, TX, 79772","No_Match",NA,NA,NA,NA
336136,"PO BOX 1675","RUSSELL SPRINGS","KY",42642,NA,NA,136,"PO BOX 1675, RUSSELL SPRINGS, KY, 42642","No_Match",NA,NA,NA,NA
336137,"PO BOX 1675","SCARBOROUGH","ME",4070,NA,NA,137,"PO BOX 1675, SCARBOROUGH, ME, 4070","No_Match",NA,NA,NA,NA
336138,"PO BOX 16751","MEMPHIS","TN",38186,NA,NA,138,"PO BOX 16751, MEMPHIS, TN, 38186","No_Match",NA,NA,NA,NA
336139,"PO BOX 1676","MARION","VA",24354,NA,NA,139,"PO BOX 1676, MARION, VA, 24354","No_Match",NA,NA,NA,NA
336140,"PO BOX 1676","VANCOUVER","WA",98668,NA,NA,140,"PO BOX 1676, VANCOUVER, WA, 98668","No_Match",NA,NA,NA,NA
336141,"PO BOX 16765","MISSOULA","MT",59808,NA,NA,141,"PO BOX 16765, MISSOULA, MT, 59808","No_Match",NA,NA,NA,NA
336142,"PO BOX 167671","LOUISVILLE","KY",40256,NA,NA,142,"PO BOX 167671, LOUISVILLE, KY, 40256","No_Match",NA,NA,NA,NA
336143,"PO BOX 1677","APEX","NC",27502,NA,NA,143,"PO BOX 1677, APEX, NC, 27502","No_Match",NA,NA,NA,NA
336144,"PO BOX 1677","BELTON","TX",76513,NA,NA,144,"PO BOX 1677, BELTON, TX, 76513","No_Match",NA,NA,NA,NA
336145,"PO BOX 1677","COLUMBUS","NE",68602,NA,NA,145,"PO BOX 1677, COLUMBUS, NE, 68602","No_Match",NA,NA,NA,NA
336146,"PO BOX 1677","FREEDOM","CA",95019,NA,NA,146,"PO BOX 1677, FREEDOM, CA, 95019","No_Match",NA,NA,NA,NA
336147,"PO BOX 16771","FORT WORTH","TX",76162,NA,NA,147,"PO BOX 16771, FORT WORTH, TX, 76162","No_Match",NA,NA,NA,NA
336148,"PO BOX 16773","SAINT PETERSBURG","FL",33733,NA,NA,148,"PO BOX 16773, SAINT PETERSBURG, FL, 33733","No_Match",NA,NA,NA,NA
336149,"PO BOX 167853","OREGON","OH",43616,NA,NA,149,"PO BOX 167853, OREGON, OH, 43616","No_Match",NA,NA,NA,NA
336150,"PO BOX 16788","FORT WORTH","TX",76162,NA,NA,150,"PO BOX 16788, FORT WORTH, TX, 76162","No_Match",NA,NA,NA,NA
336151,"PO BOX 168  257 LAWRENCE ST NE","MARIETTA","GA",30060,33.9531862920001,-84.545150297,151,"PO BOX 168  257 LAWRENCE ST NE, MARIETTA, GA, 30060","Match","Exact","257 LAWRENCE ST NE, MARIETTA, GA, 30060",17176032,"L"
336152,"PO BOX 168","BUHL","ID",83316,NA,NA,152,"PO BOX 168, BUHL, ID, 83316","No_Match",NA,NA,NA,NA
336153,"PO BOX 168","COOKSBURG","PA",16217,NA,NA,153,"PO BOX 168, COOKSBURG, PA, 16217","No_Match",NA,NA,NA,NA
336154,"PO BOX 168","CORNWALL BRIDGE","CT",6754,NA,NA,154,"PO BOX 168, CORNWALL BRIDGE, CT, 6754","No_Match",NA,NA,NA,NA
336155,"PO BOX 168","DEER PARK","WA",99006,NA,NA,155,"PO BOX 168, DEER PARK, WA, 99006","No_Match",NA,NA,NA,NA
336156,"PO BOX 168","DOVER","DE",19936,NA,NA,156,"PO BOX 168, DOVER, DE, 19936","No_Match",NA,NA,NA,NA
336157,"PO BOX 168","ELK RIVER","ID",83827,NA,NA,157,"PO BOX 168, ELK RIVER, ID, 83827","No_Match",NA,NA,NA,NA
336158,"PO BOX 168","LOVETTSVILLE","VA",20180,NA,NA,158,"PO BOX 168, LOVETTSVILLE, VA, 20180","No_Match",NA,NA,NA,NA
336159,"PO BOX 168","PALMYRA","MO",63461,NA,NA,159,"PO BOX 168, PALMYRA, MO, 63461","No_Match",NA,NA,NA,NA
336160,"PO BOX 168","WEST POINT","PA",19486,NA,NA,160,"PO BOX 168, WEST POINT, PA, 19486","No_Match",NA,NA,NA,NA
336161,"PO BOX 1680","LIBERAL","KS",67905,NA,NA,161,"PO BOX 1680, LIBERAL, KS, 67905","No_Match",NA,NA,NA,NA
336162,"PO BOX 1680","WEST PLAINS","MO",65775,NA,NA,162,"PO BOX 1680, WEST PLAINS, MO, 65775","No_Match",NA,NA,NA,NA
336163,"PO BOX 16804","CHARLOTTE","NC",28297,NA,NA,163,"PO BOX 16804, CHARLOTTE, NC, 28297","No_Match",NA,NA,NA,NA
336164,"PO BOX 16806","ATLANTA","GA",30321,NA,NA,164,"PO BOX 16806, ATLANTA, GA, 30321","No_Match",NA,NA,NA,NA
336165,"PO BOX 1681","ANDOVER","OH",44003,NA,NA,165,"PO BOX 1681, ANDOVER, OH, 44003","No_Match",NA,NA,NA,NA
336166,"PO BOX 1681","ELMIRAGE","AZ",85335,NA,NA,166,"PO BOX 1681, ELMIRAGE, AZ, 85335","No_Match",NA,NA,NA,NA
336167,"PO BOX 1681","HORSHAM","PA",19044,NA,NA,167,"PO BOX 1681, HORSHAM, PA, 19044","No_Match",NA,NA,NA,NA
336168,"PO BOX 1681","ROWLETT","TX",75030,NA,NA,168,"PO BOX 1681, ROWLETT, TX, 75030","No_Match",NA,NA,NA,NA
336169,"PO BOX 1681","TEHACHAPI","CA",93581,NA,NA,169,"PO BOX 1681, TEHACHAPI, CA, 93581","No_Match",NA,NA,NA,NA
336170,"PO BOX 1681","WATERLOO","IA",50704,NA,NA,170,"PO BOX 1681, WATERLOO, IA, 50704","No_Match",NA,NA,NA,NA
336171,"PO BOX 16815","SAVANNAH","GA",31416,NA,NA,171,"PO BOX 16815, SAVANNAH, GA, 31416","No_Match",NA,NA,NA,NA
336172,"PO BOX 168154","IRVING","TX",75016,NA,NA,172,"PO BOX 168154, IRVING, TX, 75016","No_Match",NA,NA,NA,NA
336173,"PO BOX 1682","GARDEN GROVE","CA",92704,NA,NA,173,"PO BOX 1682, GARDEN GROVE, CA, 92704","No_Match",NA,NA,NA,NA
336174,"PO BOX 1682","LINCOLNTON STATION","NY",10037,NA,NA,174,"PO BOX 1682, LINCOLNTON STATION, NY, 10037","No_Match",NA,NA,NA,NA
336175,"PO BOX 1682","MONTGOMERY","TX",77356,NA,NA,175,"PO BOX 1682, MONTGOMERY, TX, 77356","No_Match",NA,NA,NA,NA
336176,"PO BOX 1682","SANTA ROSA BEACH","FL",32459,NA,NA,176,"PO BOX 1682, SANTA ROSA BEACH, FL, 32459","No_Match",NA,NA,NA,NA
336177,"PO BOX 1682","SEQUIM","WA",98382,NA,NA,177,"PO BOX 1682, SEQUIM, WA, 98382","No_Match",NA,NA,NA,NA
336178,"PO BOX 1682","STONE MOUNTAIN","GA",30086,NA,NA,178,"PO BOX 1682, STONE MOUNTAIN, GA, 30086","No_Match",NA,NA,NA,NA
336179,"PO BOX 16823","LUBBOCK","TX",79490,NA,NA,179,"PO BOX 16823, LUBBOCK, TX, 79490","No_Match",NA,NA,NA,NA
336180,"PO BOX 16824","COLUMBUS","OH",43216,NA,NA,180,"PO BOX 16824, COLUMBUS, OH, 43216","No_Match",NA,NA,NA,NA
336181,"PO BOX 16824","MILWAUKEE","WI",53216,NA,NA,181,"PO BOX 16824, MILWAUKEE, WI, 53216","No_Match",NA,NA,NA,NA
336182,"PO BOX 1683","ALPINE","TX",79831,NA,NA,182,"PO BOX 1683, ALPINE, TX, 79831","No_Match",NA,NA,NA,NA
336183,"PO BOX 1683","BENTON","AR",72018,NA,NA,183,"PO BOX 1683, BENTON, AR, 72018","No_Match",NA,NA,NA,NA
336184,"PO BOX 1683","BRENHAM","TX",77834,NA,NA,184,"PO BOX 1683, BRENHAM, TX, 77834","No_Match",NA,NA,NA,NA
336185,"PO BOX 1683","EAGLE BUTTE","SD",57625,NA,NA,185,"PO BOX 1683, EAGLE BUTTE, SD, 57625","No_Match",NA,NA,NA,NA
336186,"PO BOX 1683","YUMA","AZ",85366,NA,NA,186,"PO BOX 1683, YUMA, AZ, 85366","No_Match",NA,NA,NA,NA
336187,"PO BOX 1684","CENTRAL ISLIP","NY",11722,NA,NA,187,"PO BOX 1684, CENTRAL ISLIP, NY, 11722","No_Match",NA,NA,NA,NA
336188,"PO BOX 1684","DOVER","DE",19903,NA,NA,188,"PO BOX 1684, DOVER, DE, 19903","No_Match",NA,NA,NA,NA
336189,"PO BOX 1684","MARYSVILLE","WA",98270,NA,NA,189,"PO BOX 1684, MARYSVILLE, WA, 98270","No_Match",NA,NA,NA,NA
336190,"PO BOX 1684","PORT ANGELES","WA",98362,NA,NA,190,"PO BOX 1684, PORT ANGELES, WA, 98362","No_Match",NA,NA,NA,NA
336191,"PO BOX 1684","SUMMERVILLE","SC",29484,NA,NA,191,"PO BOX 1684, SUMMERVILLE, SC, 29484","No_Match",NA,NA,NA,NA
336192,"PO BOX 1684","TARPON SPRINGS","FL",34688,NA,NA,192,"PO BOX 1684, TARPON SPRINGS, FL, 34688","No_Match",NA,NA,NA,NA
336193,"PO BOX 1684","WESTHAMPTON BEACH","NY",11978,NA,NA,193,"PO BOX 1684, WESTHAMPTON BEACH, NY, 11978","No_Match",NA,NA,NA,NA
336194,"PO BOX 1685","HAYDEN","CO",81639,NA,NA,194,"PO BOX 1685, HAYDEN, CO, 81639","No_Match",NA,NA,NA,NA
336195,"PO BOX 1685","LITHONIA","GA",30058,NA,NA,195,"PO BOX 1685, LITHONIA, GA, 30058","No_Match",NA,NA,NA,NA
336196,"PO BOX 16851","SAINT LOUIS","MO",63105,NA,NA,196,"PO BOX 16851, SAINT LOUIS, MO, 63105","No_Match",NA,NA,NA,NA
336197,"PO BOX 16855","DULUTH","MN",55816,NA,NA,197,"PO BOX 16855, DULUTH, MN, 55816","No_Match",NA,NA,NA,NA
336198,"PO BOX 1686","EL GRANADA","CA",95067,NA,NA,198,"PO BOX 1686, EL GRANADA, CA, 95067","No_Match",NA,NA,NA,NA
336199,"PO BOX 1686","LEICESTER","NC",28748,NA,NA,199,"PO BOX 1686, LEICESTER, NC, 28748","No_Match",NA,NA,NA,NA
336200,"PO BOX 1686","PORTAGE","MI",49081,NA,NA,200,"PO BOX 1686, PORTAGE, MI, 49081","No_Match",NA,NA,NA,NA
336201,"PO BOX 1686","QUINCY","WA",98848,NA,NA,201,"PO BOX 1686, QUINCY, WA, 98848","No_Match",NA,NA,NA,NA
336202,"PO BOX 1686","THOMPSON FALLS","MT",59873,NA,NA,202,"PO BOX 1686, THOMPSON FALLS, MT, 59873","No_Match",NA,NA,NA,NA
336203,"PO BOX 16862","SAINT LOUIS","MO",63015,NA,NA,203,"PO BOX 16862, SAINT LOUIS, MO, 63015","No_Match",NA,NA,NA,NA
336204,"PO BOX 1687","BENSALEM","PA",19020,NA,NA,204,"PO BOX 1687, BENSALEM, PA, 19020","No_Match",NA,NA,NA,NA
336205,"PO BOX 1687","KAUNAKAKAI","HI",96748,NA,NA,205,"PO BOX 1687, KAUNAKAKAI, HI, 96748","No_Match",NA,NA,NA,NA
336206,"PO BOX 1687","RIVERHEAD","NY",11901,NA,NA,206,"PO BOX 1687, RIVERHEAD, NY, 11901","No_Match",NA,NA,NA,NA
336207,"PO BOX 1688","ROGUE RIVER","OR",97537,NA,NA,207,"PO BOX 1688, ROGUE RIVER, OR, 97537","No_Match",NA,NA,NA,NA
336208,"PO BOX 1689","APEX","NC",27502,NA,NA,208,"PO BOX 1689, APEX, NC, 27502","No_Match",NA,NA,NA,NA
336209,"PO BOX 1689","BASTROP","TX",78602,NA,NA,209,"PO BOX 1689, BASTROP, TX, 78602","No_Match",NA,NA,NA,NA
336210,"PO BOX 1689","VIDOR","TX",77670,NA,NA,210,"PO BOX 1689, VIDOR, TX, 77670","No_Match",NA,NA,NA,NA
336211,"PO BOX 16895","RAYTOWN","MO",64133,NA,NA,211,"PO BOX 16895, RAYTOWN, MO, 64133","No_Match",NA,NA,NA,NA
336212,"PO BOX 169","BELLEVILLE","WI",53508,NA,NA,212,"PO BOX 169, BELLEVILLE, WI, 53508","No_Match",NA,NA,NA,NA
336213,"PO BOX 169","KING","WI",54946,NA,NA,213,"PO BOX 169, KING, WI, 54946","No_Match",NA,NA,NA,NA
336214,"PO BOX 169","MAPLE LAKE","MN",55358,NA,NA,214,"PO BOX 169, MAPLE LAKE, MN, 55358","No_Match",NA,NA,NA,NA
336215,"PO BOX 169","MEXIA","TX",76667,NA,NA,215,"PO BOX 169, MEXIA, TX, 76667","No_Match",NA,NA,NA,NA
336216,"PO BOX 169","MINOTOLA","NJ",8341,NA,NA,216,"PO BOX 169, MINOTOLA, NJ, 8341","No_Match",NA,NA,NA,NA
336217,"PO BOX 169","NEW MILFORD","NJ",7646,NA,NA,217,"PO BOX 169, NEW MILFORD, NJ, 7646","No_Match",NA,NA,NA,NA
336218,"PO BOX 169","PORT WASHINGTON","NY",11050,NA,NA,218,"PO BOX 169, PORT WASHINGTON, NY, 11050","No_Match",NA,NA,NA,NA
336219,"PO BOX 169","POWAY","CA",92064,NA,NA,219,"PO BOX 169, POWAY, CA, 92064","No_Match",NA,NA,NA,NA
336220,"PO BOX 169","SHERRODSVILLE","OH",44675,NA,NA,220,"PO BOX 169, SHERRODSVILLE, OH, 44675","No_Match",NA,NA,NA,NA
336221,"PO BOX 169","SKANEATELES","NY",13152,NA,NA,221,"PO BOX 169, SKANEATELES, NY, 13152","No_Match",NA,NA,NA,NA
336222,"PO BOX 169","VICTOR","ID",83455,NA,NA,222,"PO BOX 169, VICTOR, ID, 83455","No_Match",NA,NA,NA,NA
336223,"PO BOX 169","WAKEFIELD","RI",2880,NA,NA,223,"PO BOX 169, WAKEFIELD, RI, 2880","No_Match",NA,NA,NA,NA
336224,"PO BOX 169","WASHOUGAL","WA",98671,NA,NA,224,"PO BOX 169, WASHOUGAL, WA, 98671","No_Match",NA,NA,NA,NA
336225,"PO BOX 169","WEST HAVEN","CT",6516,NA,NA,225,"PO BOX 169, WEST HAVEN, CT, 6516","No_Match",NA,NA,NA,NA
336226,"PO BOX 1690","FOLLY BEACH","SC",29439,NA,NA,226,"PO BOX 1690, FOLLY BEACH, SC, 29439","No_Match",NA,NA,NA,NA
336227,"PO BOX 1690","HERMISTON","OR",97838,NA,NA,227,"PO BOX 1690, HERMISTON, OR, 97838","No_Match",NA,NA,NA,NA
336228,"PO BOX 1690","PLAINS","MT",59859,NA,NA,228,"PO BOX 1690, PLAINS, MT, 59859","No_Match",NA,NA,NA,NA
336229,"PO BOX 1690","SMYRNA","GA",30081,NA,NA,229,"PO BOX 1690, SMYRNA, GA, 30081","No_Match",NA,NA,NA,NA
336230,"PO BOX 1690","STATESVILLE","NC",28687,NA,NA,230,"PO BOX 1690, STATESVILLE, NC, 28687","No_Match",NA,NA,NA,NA
336231,"PO BOX 16908","ATLANTA","GA",30321,NA,NA,231,"PO BOX 16908, ATLANTA, GA, 30321","No_Match",NA,NA,NA,NA
336232,"PO BOX 1691","BENICIA","CA",94510,NA,NA,232,"PO BOX 1691, BENICIA, CA, 94510","No_Match",NA,NA,NA,NA
336233,"PO BOX 1691","BURLESON","TX",76097,NA,NA,233,"PO BOX 1691, BURLESON, TX, 76097","No_Match",NA,NA,NA,NA
336234,"PO BOX 1691","COLORADO CITY","AZ",86021,NA,NA,234,"PO BOX 1691, COLORADO CITY, AZ, 86021","No_Match",NA,NA,NA,NA
336235,"PO BOX 1691","CROSSVILLE","TN",38558,NA,NA,235,"PO BOX 1691, CROSSVILLE, TN, 38558","No_Match",NA,NA,NA,NA
336236,"PO BOX 1691","HONOLULU","HI",96701,NA,NA,236,"PO BOX 1691, HONOLULU, HI, 96701","No_Match",NA,NA,NA,NA
336237,"PO BOX 1691","LEXINGTON","KY",40588,NA,NA,237,"PO BOX 1691, LEXINGTON, KY, 40588","No_Match",NA,NA,NA,NA
336238,"PO BOX 1691","MABLETON","GA",30126,NA,NA,238,"PO BOX 1691, MABLETON, GA, 30126","No_Match",NA,NA,NA,NA
336239,"PO BOX 1691","SAN JACINTO","CA",92581,NA,NA,239,"PO BOX 1691, SAN JACINTO, CA, 92581","No_Match",NA,NA,NA,NA
336240,"PO BOX 1691","YELM","WA",98597,NA,NA,240,"PO BOX 1691, YELM, WA, 98597","No_Match",NA,NA,NA,NA
336241,"PO BOX 16912","COLUMBUS","OH",43216,NA,NA,241,"PO BOX 16912, COLUMBUS, OH, 43216","No_Match",NA,NA,NA,NA
336242,"PO BOX 16915","MISSOULA","MT",59808,NA,NA,242,"PO BOX 16915, MISSOULA, MT, 59808","No_Match",NA,NA,NA,NA
336243,"PO BOX 1692","CHICKASHA","OK",73023,NA,NA,243,"PO BOX 1692, CHICKASHA, OK, 73023","No_Match",NA,NA,NA,NA
336244,"PO BOX 1692","HOUSTON","TX",77251,NA,NA,244,"PO BOX 1692, HOUSTON, TX, 77251","No_Match",NA,NA,NA,NA
336245,"PO BOX 1692","MANSFIELD","TX",76063,NA,NA,245,"PO BOX 1692, MANSFIELD, TX, 76063","No_Match",NA,NA,NA,NA
336246,"PO BOX 1692","SALT LAKE CITY","PA",84110,NA,NA,246,"PO BOX 1692, SALT LAKE CITY, PA, 84110","No_Match",NA,NA,NA,NA
336247,"PO BOX 1692","SHEPHERD","TX",77371,NA,NA,247,"PO BOX 1692, SHEPHERD, TX, 77371","No_Match",NA,NA,NA,NA
336248,"PO BOX 16921","ATLANTA","GA",30321,NA,NA,248,"PO BOX 16921, ATLANTA, GA, 30321","No_Match",NA,NA,NA,NA
336249,"PO BOX 16922","CHARLOTTE","NC",28297,NA,NA,249,"PO BOX 16922, CHARLOTTE, NC, 28297","No_Match",NA,NA,NA,NA
336250,"PO BOX 1693","LEWISTON","ID",83501,NA,NA,250,"PO BOX 1693, LEWISTON, ID, 83501","No_Match",NA,NA,NA,NA
336251,"PO BOX 1693","OSHKOSH","WI",54902,NA,NA,251,"PO BOX 1693, OSHKOSH, WI, 54902","No_Match",NA,NA,NA,NA
336252,"PO BOX 16937","CHICAGO","IL",60616,NA,NA,252,"PO BOX 16937, CHICAGO, IL, 60616","No_Match",NA,NA,NA,NA
336253,"PO BOX 1694","FRIDAY HARBOR","WA",98250,NA,NA,253,"PO BOX 1694, FRIDAY HARBOR, WA, 98250","No_Match",NA,NA,NA,NA
336254,"PO BOX 1694","GALAX","VA",24333,NA,NA,254,"PO BOX 1694, GALAX, VA, 24333","No_Match",NA,NA,NA,NA
336255,"PO BOX 1694","KLAMATH FALLS","OR",97601,NA,NA,255,"PO BOX 1694, KLAMATH FALLS, OR, 97601","No_Match",NA,NA,NA,NA
336256,"PO BOX 1694","MIDLOTHIAN","TX",76065,NA,NA,256,"PO BOX 1694, MIDLOTHIAN, TX, 76065","No_Match",NA,NA,NA,NA
336257,"PO BOX 1694","STOCKTON","CA",95201,NA,NA,257,"PO BOX 1694, STOCKTON, CA, 95201","No_Match",NA,NA,NA,NA
336258,"PO BOX 1695","BREVARD","NC",28712,NA,NA,258,"PO BOX 1695, BREVARD, NC, 28712","No_Match",NA,NA,NA,NA
336259,"PO BOX 1696","HUNTERSVILLE","NC",28078,NA,NA,259,"PO BOX 1696, HUNTERSVILLE, NC, 28078","No_Match",NA,NA,NA,NA
336260,"PO BOX 1696","VERADALE","WA",99037,NA,NA,260,"PO BOX 1696, VERADALE, WA, 99037","No_Match",NA,NA,NA,NA
336261,"PO BOX 16966","CHESAPEAKE","VA",23328,NA,NA,261,"PO BOX 16966, CHESAPEAKE, VA, 23328","No_Match",NA,NA,NA,NA
336262,"PO BOX 1697","AZTEC","NM",87410,NA,NA,262,"PO BOX 1697, AZTEC, NM, 87410","No_Match",NA,NA,NA,NA
336263,"PO BOX 1697","HOUSTON","TX",77251,NA,NA,263,"PO BOX 1697, HOUSTON, TX, 77251","No_Match",NA,NA,NA,NA
336264,"PO BOX 16971","JONESBORO","AR",72403,NA,NA,264,"PO BOX 16971, JONESBORO, AR, 72403","No_Match",NA,NA,NA,NA
336265,"PO BOX 1698","BETHLEHEM","PA",18016,NA,NA,265,"PO BOX 1698, BETHLEHEM, PA, 18016","No_Match",NA,NA,NA,NA
336266,"PO BOX 16985","PHILADELPHIA","PA",19142,NA,NA,266,"PO BOX 16985, PHILADELPHIA, PA, 19142","No_Match",NA,NA,NA,NA
336267,"PO BOX 16993","ATLANTA","GA",30321,NA,NA,267,"PO BOX 16993, ATLANTA, GA, 30321","No_Match",NA,NA,NA,NA
336268,"PO BOX 16999","GOLDEN","CO",80402,NA,NA,268,"PO BOX 16999, GOLDEN, CO, 80402","No_Match",NA,NA,NA,NA
336269,"PO BOX 17     2716 7TH STREET","WYANO","PA",15695,40.1973384460001,-79.69134049,269,"PO BOX 17     2716 7TH STREET, WYANO, PA, 15695","Match","Exact","2716 7TH ST, WYANO, PA, 15695",52969173,"R"
336270,"PO BOX 17","ALBERTSON","NY",11507,NA,NA,270,"PO BOX 17, ALBERTSON, NY, 11507","No_Match",NA,NA,NA,NA
336271,"PO BOX 17","BENTON","PA",17814,NA,NA,271,"PO BOX 17, BENTON, PA, 17814","No_Match",NA,NA,NA,NA
336272,"PO BOX 17","BUENA","NJ",8310,NA,NA,272,"PO BOX 17, BUENA, NJ, 8310","No_Match",NA,NA,NA,NA
336273,"PO BOX 17","CALLAO","VA",22435,NA,NA,273,"PO BOX 17, CALLAO, VA, 22435","No_Match",NA,NA,NA,NA
336274,"PO BOX 17","CLIFTON PARK","NY",12065,NA,NA,274,"PO BOX 17, CLIFTON PARK, NY, 12065","No_Match",NA,NA,NA,NA
336275,"PO BOX 17","DAMASCUS","OH",44619,NA,NA,275,"PO BOX 17, DAMASCUS, OH, 44619","No_Match",NA,NA,NA,NA
336276,"PO BOX 17","EPHRAIM","WI",54211,NA,NA,276,"PO BOX 17, EPHRAIM, WI, 54211","No_Match",NA,NA,NA,NA
336277,"PO BOX 17","FRESNO","CA",93717,NA,NA,277,"PO BOX 17, FRESNO, CA, 93717","No_Match",NA,NA,NA,NA
336278,"PO BOX 17","FRYEBURG","ME",4037,NA,NA,278,"PO BOX 17, FRYEBURG, ME, 4037","No_Match",NA,NA,NA,NA
336279,"PO BOX 17","JOHNSON","VT",5656,NA,NA,279,"PO BOX 17, JOHNSON, VT, 5656","No_Match",NA,NA,NA,NA
336280,"PO BOX 17","MANCHESTER","KY",40962,NA,NA,280,"PO BOX 17, MANCHESTER, KY, 40962","No_Match",NA,NA,NA,NA
336281,"PO BOX 17","MAYFIELD","KY",42066,NA,NA,281,"PO BOX 17, MAYFIELD, KY, 42066","No_Match",NA,NA,NA,NA
336282,"PO BOX 17","MISHAWAKA","IN",46546,NA,NA,282,"PO BOX 17, MISHAWAKA, IN, 46546","No_Match",NA,NA,NA,NA
336283,"PO BOX 17","NEWTONVILLE","NJ",8346,NA,NA,283,"PO BOX 17, NEWTONVILLE, NJ, 8346","No_Match",NA,NA,NA,NA
336284,"PO BOX 17","NICKERSON","NE",68044,NA,NA,284,"PO BOX 17, NICKERSON, NE, 68044","No_Match",NA,NA,NA,NA
336285,"PO BOX 17","PELL CITY","AL",35128,NA,NA,285,"PO BOX 17, PELL CITY, AL, 35128","No_Match",NA,NA,NA,NA
336286,"PO BOX 17","PENRYN","CA",95663,NA,NA,286,"PO BOX 17, PENRYN, CA, 95663","No_Match",NA,NA,NA,NA
336287,"PO BOX 17","PETOSKEY","MI",49770,NA,NA,287,"PO BOX 17, PETOSKEY, MI, 49770","No_Match",NA,NA,NA,NA
336288,"PO BOX 17","SAXONBURG","PA",16056,NA,NA,288,"PO BOX 17, SAXONBURG, PA, 16056","No_Match",NA,NA,NA,NA
336289,"PO BOX 17","WATERLOO","IL",62298,NA,NA,289,"PO BOX 17, WATERLOO, IL, 62298","No_Match",NA,NA,NA,NA
336290,"PO BOX 17","WEST COLUMBIA","TX",77486,NA,NA,290,"PO BOX 17, WEST COLUMBIA, TX, 77486","No_Match",NA,NA,NA,NA
336291,"PO BOX 170","CAMP SHERMAN","OR",97730,NA,NA,291,"PO BOX 170, CAMP SHERMAN, OR, 97730","No_Match",NA,NA,NA,NA
336292,"PO BOX 170","CAVALIER","ND",58220,NA,NA,292,"PO BOX 170, CAVALIER, ND, 58220","No_Match",NA,NA,NA,NA
336293,"PO BOX 170","CHECOTAH","OK",74426,NA,NA,293,"PO BOX 170, CHECOTAH, OK, 74426","No_Match",NA,NA,NA,NA
336294,"PO BOX 170","CLEVELAND","GA",30528,NA,NA,294,"PO BOX 170, CLEVELAND, GA, 30528","No_Match",NA,NA,NA,NA
336295,"PO BOX 170","HALLSVILLE","MO",65255,NA,NA,295,"PO BOX 170, HALLSVILLE, MO, 65255","No_Match",NA,NA,NA,NA
336296,"PO BOX 170","HEMPHILL","TX",75948,NA,NA,296,"PO BOX 170, HEMPHILL, TX, 75948","No_Match",NA,NA,NA,NA
336297,"PO BOX 170","ROCKLAND","DE",19732,NA,NA,297,"PO BOX 170, ROCKLAND, DE, 19732","No_Match",NA,NA,NA,NA
336298,"PO BOX 170","WILDER","VT",5088,NA,NA,298,"PO BOX 170, WILDER, VT, 5088","No_Match",NA,NA,NA,NA
336299,"PO BOX 1700","CRESTED BUTTE","CO",81224,NA,NA,299,"PO BOX 1700, CRESTED BUTTE, CO, 81224","No_Match",NA,NA,NA,NA
336300,"PO BOX 1700","HOODSPORT","WA",98548,NA,NA,300,"PO BOX 1700, HOODSPORT, WA, 98548","No_Match",NA,NA,NA,NA
336301,"PO BOX 1700","MANSFIELD","TX",76063,NA,NA,301,"PO BOX 1700, MANSFIELD, TX, 76063","No_Match",NA,NA,NA,NA
336302,"PO BOX 1700","THE DALLES","OR",97058,NA,NA,302,"PO BOX 1700, THE DALLES, OR, 97058","No_Match",NA,NA,NA,NA
336303,"PO BOX 170010","ATLANTA","GA",30317,NA,NA,303,"PO BOX 170010, ATLANTA, GA, 30317","No_Match",NA,NA,NA,NA
336304,"PO BOX 170016","MILWAUKEE","WI",53217,NA,NA,304,"PO BOX 170016, MILWAUKEE, WI, 53217","No_Match",NA,NA,NA,NA
336305,"PO BOX 170033","MILWAUKEE","WI",53217,NA,NA,305,"PO BOX 170033, MILWAUKEE, WI, 53217","No_Match",NA,NA,NA,NA
336306,"PO BOX 1701","BRISTOL","TN",37621,NA,NA,306,"PO BOX 1701, BRISTOL, TN, 37621","No_Match",NA,NA,NA,NA
336307,"PO BOX 1701","LOCKEFORD","CA",95237,NA,NA,307,"PO BOX 1701, LOCKEFORD, CA, 95237","No_Match",NA,NA,NA,NA
336308,"PO BOX 1701","SALYERSVILLE","KY",41465,NA,NA,308,"PO BOX 1701, SALYERSVILLE, KY, 41465","No_Match",NA,NA,NA,NA
336309,"PO BOX 1701","WENATCHEE","WA",98807,NA,NA,309,"PO BOX 1701, WENATCHEE, WA, 98807","No_Match",NA,NA,NA,NA
336310,"PO BOX 170130","SAN FRANCISCO","CA",94117,NA,NA,310,"PO BOX 170130, SAN FRANCISCO, CA, 94117","No_Match",NA,NA,NA,NA
336311,"PO BOX 17015","WINSTON SALEM","NC",27116,NA,NA,311,"PO BOX 17015, WINSTON SALEM, NC, 27116","No_Match",NA,NA,NA,NA
336312,"PO BOX 170157","BROOKLYN","NY",11217,NA,NA,312,"PO BOX 170157, BROOKLYN, NY, 11217","No_Match",NA,NA,NA,NA
336313,"PO BOX 1702","BISMARCK","ND",58504,NA,NA,313,"PO BOX 1702, BISMARCK, ND, 58504","No_Match",NA,NA,NA,NA
336314,"PO BOX 1702","PORTOLA","CA",96122,NA,NA,314,"PO BOX 1702, PORTOLA, CA, 96122","No_Match",NA,NA,NA,NA
336315,"PO BOX 1702","WHITE SALMON","WA",98672,NA,NA,315,"PO BOX 1702, WHITE SALMON, WA, 98672","No_Match",NA,NA,NA,NA
336316,"PO BOX 1702","YORK","SC",29745,NA,NA,316,"PO BOX 1702, YORK, SC, 29745","No_Match",NA,NA,NA,NA
336317,"PO BOX 170285","AUSTIN","TX",78717,NA,NA,317,"PO BOX 170285, AUSTIN, TX, 78717","No_Match",NA,NA,NA,NA
336318,"PO BOX 1703","LINCOLNTON","GA",30817,NA,NA,318,"PO BOX 1703, LINCOLNTON, GA, 30817","No_Match",NA,NA,NA,NA
336319,"PO BOX 1703","MUKILTEO","WA",98275,NA,NA,319,"PO BOX 1703, MUKILTEO, WA, 98275","No_Match",NA,NA,NA,NA
336320,"PO BOX 1703","ORLANDO","FL",32802,NA,NA,320,"PO BOX 1703, ORLANDO, FL, 32802","No_Match",NA,NA,NA,NA
336321,"PO BOX 1703","OWENSBORO","KY",42302,NA,NA,321,"PO BOX 1703, OWENSBORO, KY, 42302","No_Match",NA,NA,NA,NA
336322,"PO BOX 1703","PALO ALTO","CA",94302,NA,NA,322,"PO BOX 1703, PALO ALTO, CA, 94302","No_Match",NA,NA,NA,NA
336323,"PO BOX 1703","PAONIA","CO",81428,NA,NA,323,"PO BOX 1703, PAONIA, CO, 81428","No_Match",NA,NA,NA,NA
336324,"PO BOX 1703","TROY","MI",48099,NA,NA,324,"PO BOX 1703, TROY, MI, 48099","No_Match",NA,NA,NA,NA
336325,"PO BOX 17031","CINCINNATI","OH",45217,NA,NA,325,"PO BOX 17031, CINCINNATI, OH, 45217","No_Match",NA,NA,NA,NA
336326,"PO BOX 170327","BROOKLYN","NY",11217,NA,NA,326,"PO BOX 170327, BROOKLYN, NY, 11217","No_Match",NA,NA,NA,NA
336327,"PO BOX 17034","BOULDER","CO",80308,NA,NA,327,"PO BOX 17034, BOULDER, CO, 80308","No_Match",NA,NA,NA,NA
336328,"PO BOX 17039","JERSEY CITY","NJ",7307,NA,NA,328,"PO BOX 17039, JERSEY CITY, NJ, 7307","No_Match",NA,NA,NA,NA
336329,"PO BOX 1704","BEAVER FALLS","PA",15010,NA,NA,329,"PO BOX 1704, BEAVER FALLS, PA, 15010","No_Match",NA,NA,NA,NA
336330,"PO BOX 1704","BLOWING ROCK","NC",28605,NA,NA,330,"PO BOX 1704, BLOWING ROCK, NC, 28605","No_Match",NA,NA,NA,NA
336331,"PO BOX 1704","HERNDON","VA",20170,NA,NA,331,"PO BOX 1704, HERNDON, VA, 20170","No_Match",NA,NA,NA,NA
336332,"PO BOX 1704","ORTING","WA",98360,NA,NA,332,"PO BOX 1704, ORTING, WA, 98360","No_Match",NA,NA,NA,NA
336333,"PO BOX 1704","RED LODGE","MT",59068,NA,NA,333,"PO BOX 1704, RED LODGE, MT, 59068","No_Match",NA,NA,NA,NA
336334,"PO BOX 1704","TUALATIN","OR",97062,NA,NA,334,"PO BOX 1704, TUALATIN, OR, 97062","No_Match",NA,NA,NA,NA
336335,"PO BOX 1704","TWENTYNINE PALMS","CA",92277,NA,NA,335,"PO BOX 1704, TWENTYNINE PALMS, CA, 92277","No_Match",NA,NA,NA,NA
336336,"PO BOX 1704","WILKES BARRE","PA",18703,NA,NA,336,"PO BOX 1704, WILKES BARRE, PA, 18703","No_Match",NA,NA,NA,NA
336337,"PO BOX 170414","BOSTON","MA",2021,NA,NA,337,"PO BOX 170414, BOSTON, MA, 2021","No_Match",NA,NA,NA,NA
336338,"PO BOX 170431","DALLAS","TX",75217,NA,NA,338,"PO BOX 170431, DALLAS, TX, 75217","No_Match",NA,NA,NA,NA
336339,"PO BOX 170493","AUSTIN","TX",78717,NA,NA,339,"PO BOX 170493, AUSTIN, TX, 78717","No_Match",NA,NA,NA,NA
336340,"PO BOX 1705","HAYDEN","CO",81639,NA,NA,340,"PO BOX 1705, HAYDEN, CO, 81639","No_Match",NA,NA,NA,NA
336341,"PO BOX 1705","TOPANGA","CA",90290,NA,NA,341,"PO BOX 1705, TOPANGA, CA, 90290","No_Match",NA,NA,NA,NA
336342,"PO BOX 1705","VANCOUVER","WA",98661,NA,NA,342,"PO BOX 1705, VANCOUVER, WA, 98661","No_Match",NA,NA,NA,NA
336343,"PO BOX 170516","MILWAUKEE","WI",53217,NA,NA,343,"PO BOX 170516, MILWAUKEE, WI, 53217","No_Match",NA,NA,NA,NA
336344,"PO BOX 170532","BROOKLYN","NY",11217,NA,NA,344,"PO BOX 170532, BROOKLYN, NY, 11217","No_Match",NA,NA,NA,NA
336345,"PO BOX 170581","SPARTANBURG","SC",29301,NA,NA,345,"PO BOX 170581, SPARTANBURG, SC, 29301","No_Match",NA,NA,NA,NA
336346,"PO BOX 1706","ROCKVILLE","MD",20849,NA,NA,346,"PO BOX 1706, ROCKVILLE, MD, 20849","No_Match",NA,NA,NA,NA
336347,"PO BOX 1706","YAZOO CITY","MS",39194,NA,NA,347,"PO BOX 1706, YAZOO CITY, MS, 39194","No_Match",NA,NA,NA,NA
336348,"PO BOX 170614","AUSTIN","TX",78717,NA,NA,348,"PO BOX 170614, AUSTIN, TX, 78717","No_Match",NA,NA,NA,NA
336349,"PO BOX 170663","AUSTIN","TX",78717,NA,NA,349,"PO BOX 170663, AUSTIN, TX, 78717","No_Match",NA,NA,NA,NA
336350,"PO BOX 170693","DALLAS","TX",75217,NA,NA,350,"PO BOX 170693, DALLAS, TX, 75217","No_Match",NA,NA,NA,NA
336351,"PO BOX 1707","GRANBURY","TX",76048,NA,NA,351,"PO BOX 1707, GRANBURY, TX, 76048","No_Match",NA,NA,NA,NA
336352,"PO BOX 1707","PEMBROKE","NC",28372,NA,NA,352,"PO BOX 1707, PEMBROKE, NC, 28372","No_Match",NA,NA,NA,NA
336353,"PO BOX 1707","QUINLAN","TX",75474,NA,NA,353,"PO BOX 1707, QUINLAN, TX, 75474","No_Match",NA,NA,NA,NA
336354,"PO BOX 1707","ZILLAH","WA",98953,NA,NA,354,"PO BOX 1707, ZILLAH, WA, 98953","No_Match",NA,NA,NA,NA
336355,"PO BOX 170745","BIRMINGHAM","AL",35217,NA,NA,355,"PO BOX 170745, BIRMINGHAM, AL, 35217","No_Match",NA,NA,NA,NA
336356,"PO BOX 170753","IRVING","TX",75017,NA,NA,356,"PO BOX 170753, IRVING, TX, 75017","No_Match",NA,NA,NA,NA
336357,"PO BOX 170773","ARLINGTON","TX",76003,NA,NA,357,"PO BOX 170773, ARLINGTON, TX, 76003","No_Match",NA,NA,NA,NA
336358,"PO BOX 1708","KAILUA","HI",96734,NA,NA,358,"PO BOX 1708, KAILUA, HI, 96734","No_Match",NA,NA,NA,NA
336359,"PO BOX 1708","NORFOLK","WV",23505,NA,NA,359,"PO BOX 1708, NORFOLK, WV, 23505","No_Match",NA,NA,NA,NA
336360,"PO BOX 1708","TROY","NY",12181,NA,NA,360,"PO BOX 1708, TROY, NY, 12181","No_Match",NA,NA,NA,NA
336361,"PO BOX 17081","ASHEVILLE","NC",28816,NA,NA,361,"PO BOX 17081, ASHEVILLE, NC, 28816","No_Match",NA,NA,NA,NA
336362,"PO BOX 17084","IRVINE","CA",92623,NA,NA,362,"PO BOX 17084, IRVINE, CA, 92623","No_Match",NA,NA,NA,NA
336363,"PO BOX 170848","AUSTIN","TX",78717,NA,NA,363,"PO BOX 170848, AUSTIN, TX, 78717","No_Match",NA,NA,NA,NA
336364,"PO BOX 17087","NASHVILLE","TN",37217,NA,NA,364,"PO BOX 17087, NASHVILLE, TN, 37217","No_Match",NA,NA,NA,NA
336365,"PO BOX 170871","BOSTON","MA",2117,NA,NA,365,"PO BOX 170871, BOSTON, MA, 2117","No_Match",NA,NA,NA,NA
336366,"PO BOX 170934","AUSTIN","TX",78717,NA,NA,366,"PO BOX 170934, AUSTIN, TX, 78717","No_Match",NA,NA,NA,NA
336367,"PO BOX 171 6059 ALLENTOWN BLVD","HARRISBURG","PA",17112,NA,NA,367,"PO BOX 171 6059 ALLENTOWN BLVD, HARRISBURG, PA, 17112","No_Match",NA,NA,NA,NA
336368,"PO BOX 171","ADAMS","MA",1220,NA,NA,368,"PO BOX 171, ADAMS, MA, 1220","No_Match",NA,NA,NA,NA
336369,"PO BOX 171","ANAHOLA","HI",96703,NA,NA,369,"PO BOX 171, ANAHOLA, HI, 96703","No_Match",NA,NA,NA,NA
336370,"PO BOX 171","ATHENS","GA",30603,NA,NA,370,"PO BOX 171, ATHENS, GA, 30603","No_Match",NA,NA,NA,NA
336371,"PO BOX 171","AUSTIN","TX",78767,NA,NA,371,"PO BOX 171, AUSTIN, TX, 78767","No_Match",NA,NA,NA,NA
336372,"PO BOX 171","BAINVILLE","MT",59212,NA,NA,372,"PO BOX 171, BAINVILLE, MT, 59212","No_Match",NA,NA,NA,NA
336373,"PO BOX 171","BEAVER FALLS","NY",13305,NA,NA,373,"PO BOX 171, BEAVER FALLS, NY, 13305","No_Match",NA,NA,NA,NA
336374,"PO BOX 171","BELTSVILLE","MD",20904,NA,NA,374,"PO BOX 171, BELTSVILLE, MD, 20904","No_Match",NA,NA,NA,NA
336375,"PO BOX 171","CEDAR HILL","TX",75106,NA,NA,375,"PO BOX 171, CEDAR HILL, TX, 75106","No_Match",NA,NA,NA,NA
336376,"PO BOX 171","CIRCLE PINES","MN",55014,NA,NA,376,"PO BOX 171, CIRCLE PINES, MN, 55014","No_Match",NA,NA,NA,NA
336377,"PO BOX 171","COALDALE","CO",81222,NA,NA,377,"PO BOX 171, COALDALE, CO, 81222","No_Match",NA,NA,NA,NA
336378,"PO BOX 171","CONNEAUT LAKE","PA",16316,NA,NA,378,"PO BOX 171, CONNEAUT LAKE, PA, 16316","No_Match",NA,NA,NA,NA
336379,"PO BOX 171","FAIRBANK","IA",50629,NA,NA,379,"PO BOX 171, FAIRBANK, IA, 50629","No_Match",NA,NA,NA,NA
336380,"PO BOX 171","FILLMORE","NY",14735,NA,NA,380,"PO BOX 171, FILLMORE, NY, 14735","No_Match",NA,NA,NA,NA
336381,"PO BOX 171","FREDERICK","MD",21705,NA,NA,381,"PO BOX 171, FREDERICK, MD, 21705","No_Match",NA,NA,NA,NA
336382,"PO BOX 171","FRESNO","TX",77545,NA,NA,382,"PO BOX 171, FRESNO, TX, 77545","No_Match",NA,NA,NA,NA
336383,"PO BOX 171","GARFIELD","WA",99130,NA,NA,383,"PO BOX 171, GARFIELD, WA, 99130","No_Match",NA,NA,NA,NA
336384,"PO BOX 171","GRANBY","MO",64844,NA,NA,384,"PO BOX 171, GRANBY, MO, 64844","No_Match",NA,NA,NA,NA
336385,"PO BOX 171","GREENSBORO","NC",27402,NA,NA,385,"PO BOX 171, GREENSBORO, NC, 27402","No_Match",NA,NA,NA,NA
336386,"PO BOX 171","HOWARD","OH",43028,NA,NA,386,"PO BOX 171, HOWARD, OH, 43028","No_Match",NA,NA,NA,NA
336387,"PO BOX 171","KENMORE","NY",14217,NA,NA,387,"PO BOX 171, KENMORE, NY, 14217","No_Match",NA,NA,NA,NA
336388,"PO BOX 171","KEWASKUM","WI",53040,NA,NA,388,"PO BOX 171, KEWASKUM, WI, 53040","No_Match",NA,NA,NA,NA
336389,"PO BOX 171","LAKE JACKSON","TX",77566,NA,NA,389,"PO BOX 171, LAKE JACKSON, TX, 77566","No_Match",NA,NA,NA,NA
336390,"PO BOX 171","MATTOON","IL",61938,NA,NA,390,"PO BOX 171, MATTOON, IL, 61938","No_Match",NA,NA,NA,NA
336391,"PO BOX 171","MOUNT PLEASANT","SC",29465,NA,NA,391,"PO BOX 171, MOUNT PLEASANT, SC, 29465","No_Match",NA,NA,NA,NA
336392,"PO BOX 171","NIPOMO","CA",93444,NA,NA,392,"PO BOX 171, NIPOMO, CA, 93444","No_Match",NA,NA,NA,NA
336393,"PO BOX 171","PALMER","AK",99645,NA,NA,393,"PO BOX 171, PALMER, AK, 99645","No_Match",NA,NA,NA,NA
336394,"PO BOX 171","PAW PAW","MI",49079,NA,NA,394,"PO BOX 171, PAW PAW, MI, 49079","No_Match",NA,NA,NA,NA
336395,"PO BOX 171","PECOS","TX",79772,NA,NA,395,"PO BOX 171, PECOS, TX, 79772","No_Match",NA,NA,NA,NA
336396,"PO BOX 171","ROCKWALL","TX",75087,NA,NA,396,"PO BOX 171, ROCKWALL, TX, 75087","No_Match",NA,NA,NA,NA
336397,"PO BOX 171","ROCKY HILL","NJ",8553,NA,NA,397,"PO BOX 171, ROCKY HILL, NJ, 8553","No_Match",NA,NA,NA,NA
336398,"PO BOX 171","STEUBENVILLE","OH",43952,NA,NA,398,"PO BOX 171, STEUBENVILLE, OH, 43952","No_Match",NA,NA,NA,NA
336399,"PO BOX 171","SUSANVILLE","CA",96130,NA,NA,399,"PO BOX 171, SUSANVILLE, CA, 96130","No_Match",NA,NA,NA,NA
336400,"PO BOX 171","SYOSSET","NY",11791,NA,NA,400,"PO BOX 171, SYOSSET, NY, 11791","No_Match",NA,NA,NA,NA
336401,"PO BOX 171","TEASDALE","UT",84773,NA,NA,401,"PO BOX 171, TEASDALE, UT, 84773","No_Match",NA,NA,NA,NA
336402,"PO BOX 171","WIMBERLEY","TX",78676,NA,NA,402,"PO BOX 171, WIMBERLEY, TX, 78676","No_Match",NA,NA,NA,NA
336403,"PO BOX 1710","DARLINGTON","SC",29540,NA,NA,403,"PO BOX 1710, DARLINGTON, SC, 29540","No_Match",NA,NA,NA,NA
336404,"PO BOX 171005","AUSTIN","TX",78717,NA,NA,404,"PO BOX 171005, AUSTIN, TX, 78717","No_Match",NA,NA,NA,NA
336405,"PO BOX 171006","BOSTON","MA",2116,NA,NA,405,"PO BOX 171006, BOSTON, MA, 2116","No_Match",NA,NA,NA,NA
336406,"PO BOX 17101","PENSACOLA","FL",32522,NA,NA,406,"PO BOX 17101, PENSACOLA, FL, 32522","No_Match",NA,NA,NA,NA
336407,"PO BOX 171026","NASHVILLE","TN",37217,NA,NA,407,"PO BOX 171026, NASHVILLE, TN, 37217","No_Match",NA,NA,NA,NA
336408,"PO BOX 171041","AUSTIN","TX",78717,NA,NA,408,"PO BOX 171041, AUSTIN, TX, 78717","No_Match",NA,NA,NA,NA
336409,"PO BOX 171080","BOSTON","MA",2117,NA,NA,409,"PO BOX 171080, BOSTON, MA, 2117","No_Match",NA,NA,NA,NA
336410,"PO BOX 1711 GRAND CENTRAL STATION","NEW YORK","NY",10163,NA,NA,410,"PO BOX 1711 GRAND CENTRAL STATION, NEW YORK, NY, 10163","No_Match",NA,NA,NA,NA
336411,"PO BOX 1711","BRONX","NY",10451,NA,NA,411,"PO BOX 1711, BRONX, NY, 10451","No_Match",NA,NA,NA,NA
336412,"PO BOX 1711","CANTON","MS",39046,NA,NA,412,"PO BOX 1711, CANTON, MS, 39046","No_Match",NA,NA,NA,NA
336413,"PO BOX 1711","DARLINGTON","SC",29540,NA,NA,413,"PO BOX 1711, DARLINGTON, SC, 29540","No_Match",NA,NA,NA,NA
336414,"PO BOX 1711","DEER PARK","TX",77536,NA,NA,414,"PO BOX 1711, DEER PARK, TX, 77536","No_Match",NA,NA,NA,NA
336415,"PO BOX 1711","LOCKPORT","NY",14094,NA,NA,415,"PO BOX 1711, LOCKPORT, NY, 14094","No_Match",NA,NA,NA,NA
336416,"PO BOX 1711","STARKVILLE","MS",39760,NA,NA,416,"PO BOX 1711, STARKVILLE, MS, 39760","No_Match",NA,NA,NA,NA
336417,"PO BOX 171139","SALT LAKE CITY","UT",84117,NA,NA,417,"PO BOX 171139, SALT LAKE CITY, UT, 84117","No_Match",NA,NA,NA,NA
336418,"PO BOX 17118","HOLLADAY","UT",84117,NA,NA,418,"PO BOX 17118, HOLLADAY, UT, 84117","No_Match",NA,NA,NA,NA
336419,"PO BOX 1712","BOISE","ID",83701,NA,NA,419,"PO BOX 1712, BOISE, ID, 83701","No_Match",NA,NA,NA,NA
336420,"PO BOX 1712","BOZEMAN","MT",59771,NA,NA,420,"PO BOX 1712, BOZEMAN, MT, 59771","No_Match",NA,NA,NA,NA
336421,"PO BOX 1712","DILLON","SC",29536,NA,NA,421,"PO BOX 1712, DILLON, SC, 29536","No_Match",NA,NA,NA,NA
336422,"PO BOX 1712","GOLD BEACH","OR",97444,NA,NA,422,"PO BOX 1712, GOLD BEACH, OR, 97444","No_Match",NA,NA,NA,NA
336423,"PO BOX 1712","SANDPOINT","ID",83864,NA,NA,423,"PO BOX 1712, SANDPOINT, ID, 83864","No_Match",NA,NA,NA,NA
336424,"PO BOX 1712","WIMBERLEY","TX",78676,NA,NA,424,"PO BOX 1712, WIMBERLEY, TX, 78676","No_Match",NA,NA,NA,NA
336425,"PO BOX 17120","PITTSBURGH","PA",15235,NA,NA,425,"PO BOX 17120, PITTSBURGH, PA, 15235","No_Match",NA,NA,NA,NA
336426,"PO BOX 17126","SALEM","OR",97305,NA,NA,426,"PO BOX 17126, SALEM, OR, 97305","No_Match",NA,NA,NA,NA
336427,"PO BOX 17126","WINSTON-SALEM","NC",27116,NA,NA,427,"PO BOX 17126, WINSTON-SALEM, NC, 27116","No_Match",NA,NA,NA,NA
336428,"PO BOX 171292","BOISE","ID",83717,NA,NA,428,"PO BOX 171292, BOISE, ID, 83717","No_Match",NA,NA,NA,NA
336429,"PO BOX 1713","BIG SPRING","TX",79721,NA,NA,429,"PO BOX 1713, BIG SPRING, TX, 79721","No_Match",NA,NA,NA,NA
336430,"PO BOX 1713","BUELLTON","CA",93427,NA,NA,430,"PO BOX 1713, BUELLTON, CA, 93427","No_Match",NA,NA,NA,NA
336431,"PO BOX 1713","KILL DEVIL HILLS","NC",27948,NA,NA,431,"PO BOX 1713, KILL DEVIL HILLS, NC, 27948","No_Match",NA,NA,NA,NA
336432,"PO BOX 1713","LOVELAND","CO",80539,NA,NA,432,"PO BOX 1713, LOVELAND, CO, 80539","No_Match",NA,NA,NA,NA
336433,"PO BOX 1713","MARYSVILLE","WA",98270,NA,NA,433,"PO BOX 1713, MARYSVILLE, WA, 98270","No_Match",NA,NA,NA,NA
336434,"PO BOX 1713","PENDLETON","OR",97801,NA,NA,434,"PO BOX 1713, PENDLETON, OR, 97801","No_Match",NA,NA,NA,NA
336435,"PO BOX 1713","SHELTER ISLAND","NY",11964,NA,NA,435,"PO BOX 1713, SHELTER ISLAND, NY, 11964","No_Match",NA,NA,NA,NA
336436,"PO BOX 1713","SUWANEE","GA",30024,NA,NA,436,"PO BOX 1713, SUWANEE, GA, 30024","No_Match",NA,NA,NA,NA
336437,"PO BOX 171301","MEMPHIS","TN",38187,NA,NA,437,"PO BOX 171301, MEMPHIS, TN, 38187","No_Match",NA,NA,NA,NA
336438,"PO BOX 17132","ST. BERNARD","OH",45217,NA,NA,438,"PO BOX 17132, ST. BERNARD, OH, 45217","No_Match",NA,NA,NA,NA
336439,"PO BOX 171333","SAN ANTONIO","TX",78217,NA,NA,439,"PO BOX 171333, SAN ANTONIO, TX, 78217","No_Match",NA,NA,NA,NA
336440,"PO BOX 17134","FOUNTAIN HILLS","AZ",85269,NA,NA,440,"PO BOX 17134, FOUNTAIN HILLS, AZ, 85269","No_Match",NA,NA,NA,NA
336441,"PO BOX 171393","SAN ANTONIO","TX",78217,NA,NA,441,"PO BOX 171393, SAN ANTONIO, TX, 78217","No_Match",NA,NA,NA,NA
336442,"PO BOX 1714","CAPITAN","NM",88316,NA,NA,442,"PO BOX 1714, CAPITAN, NM, 88316","No_Match",NA,NA,NA,NA
336443,"PO BOX 1714","CLAREMONT","CA",91711,NA,NA,443,"PO BOX 1714, CLAREMONT, CA, 91711","No_Match",NA,NA,NA,NA
336444,"PO BOX 1714","MARIETTA","GA",30060,NA,NA,444,"PO BOX 1714, MARIETTA, GA, 30060","No_Match",NA,NA,NA,NA
336445,"PO BOX 1714","NOBLE","OK",73068,NA,NA,445,"PO BOX 1714, NOBLE, OK, 73068","No_Match",NA,NA,NA,NA
336446,"PO BOX 1714","SHEPHERDSVILLE","KY",40165,NA,NA,446,"PO BOX 1714, SHEPHERDSVILLE, KY, 40165","No_Match",NA,NA,NA,NA
336447,"PO BOX 1714","THOMSON","GA",30824,NA,NA,447,"PO BOX 1714, THOMSON, GA, 30824","No_Match",NA,NA,NA,NA
336448,"PO BOX 1715","VIDALIA","GA",30475,NA,NA,448,"PO BOX 1715, VIDALIA, GA, 30475","No_Match",NA,NA,NA,NA
336449,"PO BOX 17156","HONOLULU","HI",96817,NA,NA,449,"PO BOX 17156, HONOLULU, HI, 96817","No_Match",NA,NA,NA,NA
336450,"PO BOX 17156","JONESBORO","AR",72403,NA,NA,450,"PO BOX 17156, JONESBORO, AR, 72403","No_Match",NA,NA,NA,NA
336451,"PO BOX 1716","MAKAWAO","HI",96768,NA,NA,451,"PO BOX 1716, MAKAWAO, HI, 96768","No_Match",NA,NA,NA,NA
336452,"PO BOX 1716","RANCHO CORDOVA","CA",95741,NA,NA,452,"PO BOX 1716, RANCHO CORDOVA, CA, 95741","No_Match",NA,NA,NA,NA
336453,"PO BOX 1716","RUNNING SPRINGS","CA",92382,NA,NA,453,"PO BOX 1716, RUNNING SPRINGS, CA, 92382","No_Match",NA,NA,NA,NA
336454,"PO BOX 1716","SISTERS","OR",97759,NA,NA,454,"PO BOX 1716, SISTERS, OR, 97759","No_Match",NA,NA,NA,NA
336455,"PO BOX 171628","IRVING","TX",75017,NA,NA,455,"PO BOX 171628, IRVING, TX, 75017","No_Match",NA,NA,NA,NA
336456,"PO BOX 17164","JONESBORO","AR",72403,NA,NA,456,"PO BOX 17164, JONESBORO, AR, 72403","No_Match",NA,NA,NA,NA
336457,"PO BOX 1717 / 466-925 BAXTER CRK RD","SUSANVILLE","CA",96130,40.323914679,-120.605410485,457,"PO BOX 1717 / 466-925 BAXTER CRK RD, SUSANVILLE, CA, 96130","Match","Non_Exact","466-925 BAXTER RD, SUSANVILLE, CA, 96130",126934531,"L"
336458,"PO BOX 1717","MARFA","TX",79843,NA,NA,458,"PO BOX 1717, MARFA, TX, 79843","No_Match",NA,NA,NA,NA
336459,"PO BOX 1717","NEW YORK","NY",10037,NA,NA,459,"PO BOX 1717, NEW YORK, NY, 10037","No_Match",NA,NA,NA,NA
336460,"PO BOX 1717","TERRELL","TX",75161,NA,NA,460,"PO BOX 1717, TERRELL, TX, 75161","No_Match",NA,NA,NA,NA
336461,"PO BOX 17171","SALEM","OR",97305,NA,NA,461,"PO BOX 17171, SALEM, OR, 97305","No_Match",NA,NA,NA,NA
336462,"PO BOX 17171","STAMFORD","CT",6907,NA,NA,462,"PO BOX 17171, STAMFORD, CT, 6907","No_Match",NA,NA,NA,NA
336463,"PO BOX 171763","KANSAS CITY","KS",66117,NA,NA,463,"PO BOX 171763, KANSAS CITY, KS, 66117","No_Match",NA,NA,NA,NA
336464,"PO BOX 1718","ONEONTA","AL",35121,NA,NA,464,"PO BOX 1718, ONEONTA, AL, 35121","No_Match",NA,NA,NA,NA
336465,"PO BOX 1718","QUINCY","CA",95971,NA,NA,465,"PO BOX 1718, QUINCY, CA, 95971","No_Match",NA,NA,NA,NA
336466,"PO BOX 17184","PITTSBURGH","PA",15235,NA,NA,466,"PO BOX 17184, PITTSBURGH, PA, 15235","No_Match",NA,NA,NA,NA
336467,"PO BOX 171894","KANSAS CITY","KS",66117,NA,NA,467,"PO BOX 171894, KANSAS CITY, KS, 66117","No_Match",NA,NA,NA,NA
336468,"PO BOX 1719","FAIRVIEW","OR",97024,NA,NA,468,"PO BOX 1719, FAIRVIEW, OR, 97024","No_Match",NA,NA,NA,NA
336469,"PO BOX 1719","PORT WASHINGTON","NY",11050,NA,NA,469,"PO BOX 1719, PORT WASHINGTON, NY, 11050","No_Match",NA,NA,NA,NA
336470,"PO BOX 17196","PLANTATION","FL",33318,NA,NA,470,"PO BOX 17196, PLANTATION, FL, 33318","No_Match",NA,NA,NA,NA
336471,"PO BOX 172","BANGOR","PA",18013,NA,NA,471,"PO BOX 172, BANGOR, PA, 18013","No_Match",NA,NA,NA,NA
336472,"PO BOX 172","BLAINE","TN",37709,NA,NA,472,"PO BOX 172, BLAINE, TN, 37709","No_Match",NA,NA,NA,NA
336473,"PO BOX 172","COLLINS","NY",14034,NA,NA,473,"PO BOX 172, COLLINS, NY, 14034","No_Match",NA,NA,NA,NA
336474,"PO BOX 172","CROWN POINT","IN",46308,NA,NA,474,"PO BOX 172, CROWN POINT, IN, 46308","No_Match",NA,NA,NA,NA
336475,"PO BOX 172","DEEP RIVER","CT",6417,NA,NA,475,"PO BOX 172, DEEP RIVER, CT, 6417","No_Match",NA,NA,NA,NA
336476,"PO BOX 172","GREENVILLE","SC",29602,NA,NA,476,"PO BOX 172, GREENVILLE, SC, 29602","No_Match",NA,NA,NA,NA
336477,"PO BOX 172","HARRISONVILLE","NJ",8039,NA,NA,477,"PO BOX 172, HARRISONVILLE, NJ, 8039","No_Match",NA,NA,NA,NA
336478,"PO BOX 172","HOMOSASSA","FL",34487,NA,NA,478,"PO BOX 172, HOMOSASSA, FL, 34487","No_Match",NA,NA,NA,NA
336479,"PO BOX 172","HUMMELSTOWN","PA",17036,NA,NA,479,"PO BOX 172, HUMMELSTOWN, PA, 17036","No_Match",NA,NA,NA,NA
336480,"PO BOX 172","KEENE","CA",93531,NA,NA,480,"PO BOX 172, KEENE, CA, 93531","No_Match",NA,NA,NA,NA
336481,"PO BOX 172","LANSFORD","PA",18232,NA,NA,481,"PO BOX 172, LANSFORD, PA, 18232","No_Match",NA,NA,NA,NA
336482,"PO BOX 172","LEBANON JUNCTION","KY",40150,NA,NA,482,"PO BOX 172, LEBANON JUNCTION, KY, 40150","No_Match",NA,NA,NA,NA
336483,"PO BOX 172","LIVERMORE","CA",94551,NA,NA,483,"PO BOX 172, LIVERMORE, CA, 94551","No_Match",NA,NA,NA,NA
336484,"PO BOX 172","MAYO","FL",32066,NA,NA,484,"PO BOX 172, MAYO, FL, 32066","No_Match",NA,NA,NA,NA
336485,"PO BOX 172","PHOENIXVILLE","PA",19460,NA,NA,485,"PO BOX 172, PHOENIXVILLE, PA, 19460","No_Match",NA,NA,NA,NA
336486,"PO BOX 172","POPLARVILLE","MS",39470,NA,NA,486,"PO BOX 172, POPLARVILLE, MS, 39470","No_Match",NA,NA,NA,NA
336487,"PO BOX 172","PORT AUSTIN","MI",48467,NA,NA,487,"PO BOX 172, PORT AUSTIN, MI, 48467","No_Match",NA,NA,NA,NA
336488,"PO BOX 172","PRINCETON","WI",54968,NA,NA,488,"PO BOX 172, PRINCETON, WI, 54968","No_Match",NA,NA,NA,NA
336489,"PO BOX 172","REYNOLDSBURG","OH",43068,NA,NA,489,"PO BOX 172, REYNOLDSBURG, OH, 43068","No_Match",NA,NA,NA,NA
336490,"PO BOX 172","RIDGELAND","SC",29936,NA,NA,490,"PO BOX 172, RIDGELAND, SC, 29936","No_Match",NA,NA,NA,NA
336491,"PO BOX 172","SAN MARCOS","TX",78667,NA,NA,491,"PO BOX 172, SAN MARCOS, TX, 78667","No_Match",NA,NA,NA,NA
336492,"PO BOX 172","SANTA","ID",83866,NA,NA,492,"PO BOX 172, SANTA, ID, 83866","No_Match",NA,NA,NA,NA
336493,"PO BOX 172","SCARSDALE","NY",10583,NA,NA,493,"PO BOX 172, SCARSDALE, NY, 10583","No_Match",NA,NA,NA,NA
336494,"PO BOX 172","SESSER","IL",62884,NA,NA,494,"PO BOX 172, SESSER, IL, 62884","No_Match",NA,NA,NA,NA
336495,"PO BOX 172","SNOOK","TX",77878,NA,NA,495,"PO BOX 172, SNOOK, TX, 77878","No_Match",NA,NA,NA,NA
336496,"PO BOX 172","SNOWMASS","CO",81654,NA,NA,496,"PO BOX 172, SNOWMASS, CO, 81654","No_Match",NA,NA,NA,NA
336497,"PO BOX 172","ST GEORGE","ME",4860,NA,NA,497,"PO BOX 172, ST GEORGE, ME, 4860","No_Match",NA,NA,NA,NA
336498,"PO BOX 172","ST. MICHAEL","MN",55376,NA,NA,498,"PO BOX 172, ST. MICHAEL, MN, 55376","No_Match",NA,NA,NA,NA
336499,"PO BOX 172","STONEWALL","LA",71078,NA,NA,499,"PO BOX 172, STONEWALL, LA, 71078","No_Match",NA,NA,NA,NA
336500,"PO BOX 172","TRIADELPHIA","WV",26059,NA,NA,500,"PO BOX 172, TRIADELPHIA, WV, 26059","No_Match",NA,NA,NA,NA
