"ID","Address","City","State","Zip","lat","long","id","input_address","match_indicator","match_type","matched_address","tiger_line_id","tiger_side"
223501,"4795 EUREKA ROAD","BATESVILLE","MS",38606,34.260415214,-89.905409259,1,"4795 EUREKA ROAD, BATESVILLE, MS, 38606","Match","Exact","4795 EUREKA RD, BATESVILLE, MS, 38606",607790394,"R"
223502,"4795 FOXBERRY DRIVE","MEDINA","MN",55340,45.0651991440001,-93.543380126,2,"4795 FOXBERRY DRIVE, MEDINA, MN, 55340","Match","Exact","4795 FOXBERRY DR, MEDINA, MN, 55340",43851495,"L"
223503,"4795 MAGNOLIA AVE","RIVERSIDE","CA",92506,33.9710305610001,-117.385016356,3,"4795 MAGNOLIA AVE, RIVERSIDE, CA, 92506","Match","Exact","4795 MAGNOLIA AVE, RIVERSIDE, CA, 92506",194836277,"R"
223504,"4795 RIVEREDGE COVE","SNELLVILLE","GA",30039,33.7749113350001,-84.058654974,4,"4795 RIVEREDGE COVE, SNELLVILLE, GA, 30039","Match","Exact","4795 RIVEREDGE COVE, SNELLVILLE, GA, 30039",638049600,"L"
223505,"4795 SUMMERLANE","MEMPHIS","TN",38118,35.0708963640001,-89.902961849,5,"4795 SUMMERLANE, MEMPHIS, TN, 38118","Match","Non_Exact","4795 SUMMERLANE AVE, MEMPHIS, TN, 38118",72927801,"R"
223506,"4796 ANDOREA DRIVE","MAYSLANDING","NJ",8330,39.4464801880001,-74.66127191,6,"4796 ANDOREA DRIVE, MAYSLANDING, NJ, 8330","Match","Non_Exact","4796 ANDOREA DR, MAYS LANDING, NJ, 08330",627066303,"R"
223507,"4796 BEAU POINT COURT","SNELLVILLE","GA",30039,33.7750868090001,-84.0115064399999,7,"4796 BEAU POINT COURT, SNELLVILLE, GA, 30039","Match","Exact","4796 BEAU POINT CT, SNELLVILLE, GA, 30039",633139269,"L"
223508,"4796 GWYNNE ROAD","MEMPHIS","TN",38117,35.1264341680001,-89.902349758,8,"4796 GWYNNE ROAD, MEMPHIS, TN, 38117","Match","Exact","4796 GWYNNE RD, MEMPHIS, TN, 38117",72957548,"L"
223509,"4796 SOUTH RIVER MEADOW WAY","TAYLORSVILLE","UT",84123,40.665376247,-111.911190053,9,"4796 SOUTH RIVER MEADOW WAY, TAYLORSVILLE, UT, 84123","Match","Non_Exact","4796 RIVER MEADOW WAY, TAYLORSVILLE, UT, 84123",176129488,"R"
223510,"4797 10H STREET","BOULDER","CO",80304,NA,NA,10,"4797 10H STREET, BOULDER, CO, 80304","No_Match",NA,NA,NA,NA
223511,"4797 ARBOR CT S","FARGO","ND",58104,46.808854002,-96.8592887469999,11,"4797 ARBOR CT S, FARGO, ND, 58104","Match","Exact","4797 ARBOR CT S, FARGO, ND, 58104",618487958,"R"
223512,"4797 COUNTY ROAD 862","MCKINNEY","TX",75071,33.2822157350001,-96.670353839,12,"4797 COUNTY ROAD 862, MCKINNEY, TX, 75071","Match","Exact","4797 CO RD 862, MCKINNEY, TX, 75071",123535272,"L"
223513,"4797 PERSIMMON ROAD","CLAYTON","GA",30525,34.924441373,-83.5153891099999,13,"4797 PERSIMMON ROAD, CLAYTON, GA, 30525","Match","Exact","4797 PERSIMMON RD, CLAYTON, GA, 30525",35802684,"L"
223514,"4797 SHARON COPLEY ROAD","MEDINA","OH",44256,41.1066699400001,-81.8607299019999,14,"4797 SHARON COPLEY ROAD, MEDINA, OH, 44256","Match","Non_Exact","4797 SHARON-COPLEY RD, MEDINA, OH, 44256",58689276,"L"
223515,"4797 STONEWOOD DRIVE","FAIRFIELD","CA",94534,38.175633841,-122.135861422,15,"4797 STONEWOOD DRIVE, FAIRFIELD, CA, 94534","Match","Exact","4797 STONEWOOD DR, FAIRFIELD, CA, 94534",192554046,"R"
223516,"4798 CAINS WREN TRAIL","SANFORD","FL",32771,28.8318414340001,-81.36097191,16,"4798 CAINS WREN TRAIL, SANFORD, FL, 32771","Match","Exact","4798 CAINS WREN TRL, SANFORD, FL, 32771",632053802,"R"
223517,"4798 FLAT SHOALS PKWY","DECATUR","GA",30034,33.681985808,-84.231433926,17,"4798 FLAT SHOALS PKWY, DECATUR, GA, 30034","Match","Exact","4798 FLAT SHOALS PKWY, DECATUR, GA, 30034",645263621,"L"
223518,"4798 HARBOR BLV","COLUMBUS","OH",43232,39.9031926120001,-82.87384114,18,"4798 HARBOR BLV, COLUMBUS, OH, 43232","Match","Exact","4798 HARBOR BLVD, COLUMBUS, OH, 43232",218675494,"L"
223519,"4798 N KITTYHAWK AVE","SANGER","CA",93657,36.805593156,-119.54007314,19,"4798 N KITTYHAWK AVE, SANGER, CA, 93657","Match","Exact","4798 N KITTYHAWK AVE, SANGER, CA, 93657",197642490,"R"
223520,"4798 RAVENSWOOD","GRANDVILLE","MI",49418,NA,NA,20,"4798 RAVENSWOOD, GRANDVILLE, MI, 49418","No_Match",NA,NA,NA,NA
223521,"4798 RIDGE WALK LANE","MEMPHIS","TN",38125,35.0175025230001,-89.803859739,21,"4798 RIDGE WALK LANE, MEMPHIS, TN, 38125","Match","Exact","4798 RIDGE WALK LN, MEMPHIS, TN, 38125",72976550,"R"
223522,"4798 S FLORIDA AVENUE  NO 123","LAKELAND","FL",33813,NA,NA,22,"4798 S FLORIDA AVENUE  NO 123, LAKELAND, FL, 33813","No_Match",NA,NA,NA,NA
223523,"4798 SOUTH FLORIDA AVE BOX 307","LAKELAND","FL",33813,NA,NA,23,"4798 SOUTH FLORIDA AVE BOX 307, LAKELAND, FL, 33813","No_Match",NA,NA,NA,NA
223524,"4798 WENMAR DRIVE","SAGINAW","MI",48604,43.4764404570001,-83.967996527,24,"4798 WENMAR DRIVE, SAGINAW, MI, 48604","Match","Exact","4798 WENMAR DR, SAGINAW, MI, 48604",80209941,"R"
223525,"4799 EAST 176TH STREET","CLEVELAND","OH",44128,41.4287021310001,-81.555376095,25,"4799 EAST 176TH STREET, CLEVELAND, OH, 44128","Match","Exact","4799 E 176TH ST, CLEVELAND, OH, 44128",61129242,"L"
223526,"4799 KELLY ROAD","WOODRIDGE","VA",22193,38.6666745540001,-77.3495321409999,26,"4799 KELLY ROAD, WOODRIDGE, VA, 22193","Match","Non_Exact","4799 KELLY RD, WOODBRIDGE, VA, 22193",76515631,"R"
223527,"4799 NW 4TH AVE","BOCA RATON","FL",33431,26.392292303,-80.087779064,27,"4799 NW 4TH AVE, BOCA RATON, FL, 33431","Match","Exact","4799 NW 4TH AVE, BOCA RATON, FL, 33431",115575747,"L"
223528,"47A ELM STREET","SALISBURY","MA",1952,42.840477165,-70.8672054799999,28,"47A ELM STREET, SALISBURY, MA, 1952","Match","Exact","47 ELM ST, SALISBURY, MA, 01952",86709250,"R"
223529,"47W085 MAIN STREET ROAD","ELBURN","IL",60119,41.8325677600001,-88.53001697,29,"47W085 MAIN STREET ROAD, ELBURN, IL, 60119","Match","Exact","47W85 MAIN STREET RD, ELBURN, IL, 60119",119583952,"R"
223530,"48 14TH STREET","WHEELING","WV",26003,40.065704393,-80.721158669,30,"48 14TH STREET, WHEELING, WV, 26003","Match","Exact","48 14TH ST, WHEELING, WV, 26003",38088718,"R"
223531,"48 16TH STREET","FALL RIVER","MA",2723,41.699239086,-71.142634554,31,"48 16TH STREET, FALL RIVER, MA, 2723","Match","Exact","48 16TH ST, FALL RIVER, MA, 02723",46808039,"L"
223532,"48 2ND ST","PARK RIDGE","NJ",7656,41.0364338850001,-74.051824346,32,"48 2ND ST, PARK RIDGE, NJ, 7656","Match","Exact","48 2ND ST, PARK RIDGE, NJ, 07656",64367323,"L"
223533,"48 AARON DR","BELLEVILLE","IL",62220,38.501656181,-90.009902943,33,"48 AARON DR, BELLEVILLE, IL, 62220","Match","Exact","48 AARON DR, BELLEVILLE, IL, 62220",107902327,"R"
223534,"48 ALEXANDER STREET","CHARLESTON","SC",29401,32.786161791,-79.929807191,34,"48 ALEXANDER STREET, CHARLESTON, SC, 29401","Match","Exact","48 ALEXANDER ST, CHARLESTON, SC, 29401",108807711,"R"
223535,"48 ALFRED STREET SUITE 205","BIDDEFORD","ME",4005,43.491829711,-70.454383913,35,"48 ALFRED STREET SUITE 205, BIDDEFORD, ME, 4005","Match","Exact","48 ALFRED ST, BIDDEFORD, ME, 04005",92741703,"L"
223536,"48 ANNAPOLIS DRIVE","SICKLERVILLE","NJ",8081,39.760493749,-74.997576136,36,"48 ANNAPOLIS DRIVE, SICKLERVILLE, NJ, 8081","Match","Exact","48 ANNAPOLIS DR, SICKLERVILLE, NJ, 08081",134400475,"L"
223537,"48 ARDEN STREET","HOLYOKE","MA",1040,42.192659366,-72.64676122,37,"48 ARDEN STREET, HOLYOKE, MA, 1040","Match","Exact","48 ARDEN ST, HOLYOKE, MA, 01040",4016975,"L"
223538,"48 ARDMORE HWY","FAYETTEVILLE","TN",37334,35.1172230010001,-86.5706142019999,38,"48 ARDMORE HWY, FAYETTEVILLE, TN, 37334","Match","Exact","48 ARDMORE HWY, FAYETTEVILLE, TN, 37334",58307722,"R"
223539,"48 ASHLEY RD","WINDSOR","CT",6095,41.8316317110001,-72.6489562099999,39,"48 ASHLEY RD, WINDSOR, CT, 6095","Match","Non_Exact","48 ASHLY RD, WINDSOR, CT, 06095",3528487,"L"
223540,"48 AUGUSTA DRIVE","MEDFORD","NY",11763,40.8396991980001,-72.9645575439999,40,"48 AUGUSTA DRIVE, MEDFORD, NY, 11763","Match","Exact","48 AUGUSTA DR, MEDFORD, NY, 11763",643092162,"R"
223541,"48 B SOUTH STREET","WILSON CITY","MO",63882,36.9223971700001,-89.2232041139999,41,"48 B SOUTH STREET, WILSON CITY, MO, 63882","Match","Non_Exact","48 SOUTH ST, WYATT, MO, 63882",27929327,"L"
223542,"48 BAY AVENUE","HANCOCK","ME",4640,44.466570839,-68.224895804,42,"48 BAY AVENUE, HANCOCK, ME, 4640","Match","Exact","48 BAY AVE, HANCOCK, ME, 04640",110288077,"L"
223543,"48 BENEDICT BOULEVARD","ELMIRA","NY",14903,42.1277374270001,-76.86025097,43,"48 BENEDICT BOULEVARD, ELMIRA, NY, 14903","Match","Exact","48 BENEDICT BLVD, ELMIRA, NY, 14903",18565833,"R"
223544,"48 BENJAMIN RUSH LN","PRINCETON","NJ",8540,40.3299420170001,-74.6855165859999,44,"48 BENJAMIN RUSH LN, PRINCETON, NJ, 8540","Match","Exact","48 BENJAMIN RUSH LN, PRINCETON, NJ, 08540",60191241,"L"
223545,"48 BENTLY LN","WILLINGBORO","NJ",8046,40.046404056,-74.8856718169999,45,"48 BENTLY LN, WILLINGBORO, NJ, 8046","Match","Exact","48 BENTLY LN, WILLINGBORO, NJ, 08046",134029229,"R"
223546,"48 BI STATE PLAZA PMB 384","OLD TAPPAN","NJ",7675,41.014779321,-73.9818991819999,46,"48 BI STATE PLAZA PMB 384, OLD TAPPAN, NJ, 7675","Match","Exact","48 BI STATE PLZ, OLD TAPPAN, NJ, 07675",64417538,"R"
223547,"48 BIDLACK STREET","FORTY FORT","PA",18704,41.289749554,-75.872176654,47,"48 BIDLACK STREET, FORTY FORT, PA, 18704","Match","Exact","48 BIDLACK ST, FORTY FORT, PA, 18704",614340442,"L"
223548,"48 BINGHAM ROAD","CARLISLE","MA",1741,42.5239967250001,-71.360818517,48,"48 BINGHAM ROAD, CARLISLE, MA, 1741","Match","Exact","48 BINGHAM RD, CARLISLE, MA, 01741",87110568,"L"
223549,"48 BIRCH RD","AMITYVILLE","NY",11701,40.6808545310001,-73.422132602,49,"48 BIRCH RD, AMITYVILLE, NY, 11701","Match","Non_Exact","48 BURCH AVE, AMITYVILLE, NY, 11701",113970902,"R"
223550,"48 BITTERSWEET DR","DOYLESTOWN","PA",18901,40.281310729,-75.146689243,50,"48 BITTERSWEET DR, DOYLESTOWN, PA, 18901","Match","Exact","48 BITTERSWEET DR, DOYLESTOWN, PA, 18901",134743974,"R"
223551,"48 BLUE SPRUCE CIR","CLAYTON","NC",27527,35.6641596170001,-78.348110597,51,"48 BLUE SPRUCE CIR, CLAYTON, NC, 27527","Match","Exact","48 BLUE SPRUCE CIR, CLAYTON, NC, 27527",651508697,"R"
223552,"48 BRIDLE BROOK LANE","NEWARK","DE",19711,39.699273739,-75.778341975,52,"48 BRIDLE BROOK LANE, NEWARK, DE, 19711","Match","Non_Exact","48 BRIDLEBROOK LN, NEWARK, DE, 19711",605772772,"L"
223553,"48 BROAD AVE","TRENTON","NJ",8618,40.2601627450001,-74.784672692,53,"48 BROAD AVE, TRENTON, NJ, 8618","Match","Exact","48 BROAD AVE, TRENTON, NJ, 08618",60176682,"R"
223554,"48 CAMBRIDGE DRIVE","GREENWICH","CT",6831,41.028940457,-73.667879749,54,"48 CAMBRIDGE DRIVE, GREENWICH, CT, 6831","Match","Exact","48 CAMBRIDGE DR, GREENWICH, CT, 06831",3275179,"R"
223555,"48 CAMDEN CIRCLE APT 206","SCOTT DEPOT","WV",25560,38.4467983050001,-81.8978942209999,55,"48 CAMDEN CIRCLE APT 206, SCOTT DEPOT, WV, 25560","Match","Exact","48 CAMDEN CIR, SCOTT DEPOT, WV, 25560",649987602,"R"
223556,"48 CARMELITA AVENUE","MILL VALLEY","CA",94941,37.905477309,-122.540781281,56,"48 CARMELITA AVENUE, MILL VALLEY, CA, 94941","Match","Exact","48 CARMELITA AVE, MILL VALLEY, CA, 94941",192766445,"R"
223557,"48 CAROL ST","WEST HEMPSTEAD","NY",11552,40.678316094,-73.649080082,57,"48 CAROL ST, WEST HEMPSTEAD, NY, 11552","Match","Exact","48 CAROL ST, W HEMPSTEAD, NY, 11552",147676287,"L"
223558,"48 CARPENTER STREET","RED BANK","NJ",7701,40.350611772,-74.084964311,58,"48 CARPENTER STREET, RED BANK, NJ, 7701","Match","Exact","48 CARPENTER ST, RED BANK, NJ, 07701",90451998,"R"
223559,"48 CEDAR ST","COVENTRY","RI",2816,41.7241770420001,-71.5436263999999,59,"48 CEDAR ST, COVENTRY, RI, 2816","Match","Exact","48 CEDAR ST, COVENTRY, RI, 02816",159141924,"R"
223560,"48 CHRISTIAN LANE","NEWINGTON","CT",6111,41.6532042170001,-72.750003928,60,"48 CHRISTIAN LANE, NEWINGTON, CT, 6111","Match","Exact","48 CHRISTIAN LN, NEWINGTON, CT, 06111",3515340,"L"
223561,"48 CONCH REEF","ALISO VIEJO","CA",92656,33.585716959,-117.72220492,61,"48 CONCH REEF, ALISO VIEJO, CA, 92656","Match","Exact","48 CONCH REEF, ALISO VIEJO, CA, 92656",144386551,"L"
223562,"48 CONCORD ST","MAYNARD","MA",1754,42.437734435,-71.451941712,62,"48 CONCORD ST, MAYNARD, MA, 1754","Match","Exact","48 CONCORD ST, MAYNARD, MA, 01754",86843143,"R"
223563,"48 CORTLANDT STREET","RICHMOND","NY",10302,40.630091194,-74.1322134609999,63,"48 CORTLANDT STREET, RICHMOND, NY, 10302","Match","Non_Exact","48 CORTLANDT ST, STATEN ISLAND, NY, 10302",59887195,"R"
223564,"48 CORTLANDT STREET","STATEN ISLAND","NY",10302,40.630091194,-74.1322134609999,64,"48 CORTLANDT STREET, STATEN ISLAND, NY, 10302","Match","Exact","48 CORTLANDT ST, STATEN ISLAND, NY, 10302",59887195,"R"
223565,"48 CRANFORD BLVD","MASTIC","NY",11950,40.822915902,-72.852699216,65,"48 CRANFORD BLVD, MASTIC, NY, 11950","Match","Exact","48 CRANFORD BLVD, MASTIC, NY, 11950",114019746,"R"
223566,"48 CRESENT PLACE","BRIDEPORT","CT",6608,NA,NA,66,"48 CRESENT PLACE, BRIDEPORT, CT, 6608","No_Match",NA,NA,NA,NA
223567,"48 CROSBY STREET","QUINCY","MA",2169,42.270981529,-70.953060894,67,"48 CROSBY STREET, QUINCY, MA, 2169","Match","Exact","48 CROSBY ST, QUINCY, MA, 02169",87251892,"L"
223568,"48 DICKINSON AVE","BINGHAMTON","NY",13901,42.143307588,-75.888230349,68,"48 DICKINSON AVE, BINGHAMTON, NY, 13901","Match","Exact","48 DICKINSON AVE, BINGHAMTON, NY, 13901",46357657,"R"
223569,"48 DISALVO PLACE","APOPKA","FL",32704,28.72321121,-81.510398078,69,"48 DISALVO PLACE, APOPKA, FL, 32704","Match","Non_Exact","48 DISALVO PL, APOPKA, FL, 32712",631796727,"L"
223570,"48 DONLEY ST SUITE 800","MORGANTOWN","WV",26501,39.6262734740001,-79.961898589,70,"48 DONLEY ST SUITE 800, MORGANTOWN, WV, 26501","Match","Exact","48 DONLEY ST, MORGANTOWN, WV, 26501",50770565,"L"
223571,"48 DONLEY STREET SUITE 800","MORGANTOWN","WV",26501,39.6262734740001,-79.961898589,71,"48 DONLEY STREET SUITE 800, MORGANTOWN, WV, 26501","Match","Exact","48 DONLEY ST, MORGANTOWN, WV, 26501",50770565,"L"
223572,"48 DORRIS AVE","BUFFALO","NY",14215,42.9262329790001,-78.8170307999999,72,"48 DORRIS AVE, BUFFALO, NY, 14215","Match","Exact","48 DORRIS AVE, BUFFALO, NY, 14215",48297368,"L"
223573,"48 DRAWBRIDGE CT","SACRAMENTO","CA",95833,38.612142412,-121.531216072,73,"48 DRAWBRIDGE CT, SACRAMENTO, CA, 95833","Match","Exact","48 DRAWBRIDGE CT, SACRAMENTO, CA, 95833",133399998,"R"
223574,"48 DREAM LAKE RD","LAKE GEORGE","NY",12845,43.382996845,-73.641430535,74,"48 DREAM LAKE RD, LAKE GEORGE, NY, 12845","Match","Exact","48 DREAM LAKE RD, LAKE GEORGE, NY, 12845",173907557,"R"
223575,"48 DURHAM ROAD","SAN ANSELMO","CA",94960,37.9873347980001,-122.56693008,75,"48 DURHAM ROAD, SAN ANSELMO, CA, 94960","Match","Exact","48 DURHAM RD, SAN ANSELMO, CA, 94960",192763223,"R"
223576,"48 E FLAGLER STREET PENTHOUSE 101","MIAMI","FL",33131,25.7741553390001,-80.192786468,76,"48 E FLAGLER STREET PENTHOUSE 101, MIAMI, FL, 33131","Match","Non_Exact","48 E FLAGLER ST, MIAMI, FL, 33131",116018416,"R"
223577,"48 E MANKATO ST","CHULA VISTA","CA",91910,32.637422536,-117.06190892,77,"48 E MANKATO ST, CHULA VISTA, CA, 91910","Match","Exact","48 E MANKATO ST, CHULA VISTA, CA, 91910",195356955,"R"
223578,"48 EAST 51ST STREET","BROOKLYN","NY",11203,40.661053839,-73.930360569,78,"48 EAST 51ST STREET, BROOKLYN, NY, 11203","Match","Exact","48 E 51ST ST, BROOKLYN, NY, 11203",59083499,"R"
223579,"48 EAST MCCULLEY COURT","WILMINGTON","DE",19801,39.7448115110001,-75.541484076,79,"48 EAST MCCULLEY COURT, WILMINGTON, DE, 19801","Match","Non_Exact","48 E MCCAULLEY CT, WILMINGTON, DE, 19801",606273952,"L"
223580,"48 EAST WINTONBURY AVE","BLOOMFIELD","CT",6002,41.836355236,-72.6905302,80,"48 EAST WINTONBURY AVE, BLOOMFIELD, CT, 6002","Match","Exact","48 E WINTONBURY AVE, BLOOMFIELD, CT, 06002",618695470,"L"
223581,"48 EDDINGTON LN","MONROE","NJ",8831,40.258013605,-74.4728455979999,81,"48 EDDINGTON LN, MONROE, NJ, 8831","Match","Exact","48 EDDINGTON LN, MONROE, NJ, 08831",60320728,"L"
223582,"48 EDISON LANE","WILLINGBORO","NJ",80846,40.013305535,-74.871115472,82,"48 EDISON LANE, WILLINGBORO, NJ, 80846","Match","Non_Exact","48 EDISON LN, WILLINGBORO, NJ, 08046",134058419,"L"
223583,"48 ELMWOOD AVENUE","IRVINGTON","NJ",7111,40.725606074,-74.239821545,83,"48 ELMWOOD AVENUE, IRVINGTON, NJ, 7111","Match","Exact","48 ELMWOOD AVE, IRVINGTON, NJ, 07111",63463648,"R"
223584,"48 EVRON CT","LAKE SAINT LOUIS","MO",63367,38.802951883,-90.7974682239999,84,"48 EVRON CT, LAKE SAINT LOUIS, MO, 63367","Match","Exact","48 EVRON CT, LAKE SAINT LOUIS, MO, 63367",100012786,"R"
223585,"48 FAIRWAY AVE","WEST ORANGE","NJ",7052,40.8244098060001,-74.255692777,85,"48 FAIRWAY AVE, WEST ORANGE, NJ, 7052","Match","Exact","48 FAIRWAY AVE, WEST ORANGE, NJ, 07052",63459939,"L"
223586,"48 FALLS RD","NORTH EAST","MD",21901,39.616230452,-75.9321611139999,86,"48 FALLS RD, NORTH EAST, MD, 21901","Match","Exact","48 FALLS RD, NORTH EAST, MD, 21901",187417192,"L"
223587,"48 FALMOUTH ST","BELMONT","MA",2478,42.3784097970001,-71.160440264,87,"48 FALMOUTH ST, BELMONT, MA, 2478","Match","Exact","48 FALMOUTH ST, BELMONT, MA, 02478",86891888,"L"
223588,"48 FOREST AVE","MASSAPEQUA","NY",11758,40.651118791,-73.4800755859999,88,"48 FOREST AVE, MASSAPEQUA, NY, 11758","Match","Exact","48 FOREST AVE, MASSAPEQUA, NY, 11758",147653712,"L"
223589,"48 FOREST AVE","SAUGUS","MA",1906,42.4542263100001,-71.0113894,89,"48 FOREST AVE, SAUGUS, MA, 1906","Match","Exact","48 FOREST AVE, SAUGUS, MA, 01906",649783568,"L"
223590,"48 FORSTER ROAD","MANCHESTER","MA",1944,42.5747468750001,-70.786018117,90,"48 FORSTER ROAD, MANCHESTER, MA, 1944","Match","Exact","48 FORSTER RD, MANCHESTER, MA, 01944",86679444,"R"
223591,"48 FRONT STREET","BEREA","OH",44017,41.3667909640001,-81.853147827,91,"48 FRONT STREET, BEREA, OH, 44017","Match","Exact","48 FRONT ST, BEREA, OH, 44017",61130898,"R"
223592,"48 GAINSBOROUGH RD","SCARSDALE","NY",10583,40.9783897470001,-73.816835152,92,"48 GAINSBOROUGH RD, SCARSDALE, NY, 10583","Match","Exact","48 GAINSBOROUGH RD, SCARSDALE, NY, 10583",139739801,"R"
223593,"48 GIRARD AVE","HARTFORD","CT",6105,41.7681287870001,-72.708673726,93,"48 GIRARD AVE, HARTFORD, CT, 6105","Match","Exact","48 GIRARD AVE, HARTFORD, CT, 06105",637842581,"R"
223594,"48 GLENVILLE AVENUE SUITE 8","ALLSTON","MA",2134,42.3498765470001,-71.134040393,94,"48 GLENVILLE AVENUE SUITE 8, ALLSTON, MA, 2134","Match","Exact","48 GLENVILLE AVE, ALLSTON, MA, 02134",85695634,"L"
223595,"48 GODFREY LANE","FREMONT","NH",3044,43.001119035,-71.084139576,95,"48 GODFREY LANE, FREMONT, NH, 3044","Match","Exact","48 GODFREY LN, FREMONT, NH, 03044",113717115,"L"
223596,"48 GOLDENROD STREET","MCCONNELL","WV",25646,37.8231235480001,-81.966255868,96,"48 GOLDENROD STREET, MCCONNELL, WV, 25646","Match","Non_Exact","48 GOLDENROD ST, MC CONNELL, WV, 25646",78796257,"L"
223597,"48 GRANT AVENUE","EAST HANOVER","NJ",7936,40.8240239890001,-74.3557182719999,97,"48 GRANT AVENUE, EAST HANOVER, NJ, 7936","Match","Exact","48 GRANT AVE, EAST HANOVER, NJ, 07936",60448510,"L"
223598,"48 GREENWOOD DR","TURNERSVILLE","NJ",8012,39.7492054800001,-75.067288573,98,"48 GREENWOOD DR, TURNERSVILLE, NJ, 8012","Match","Exact","48 GREENWOOD DR, TURNERSVILLE, NJ, 08012",134586992,"L"
223599,"48 GROVELAND STREET","MATTAPAN","MA",2126,42.273062236,-71.077365486,99,"48 GROVELAND STREET, MATTAPAN, MA, 2126","Match","Exact","48 GROVELAND ST, MATTAPAN, MA, 02126",85706148,"L"
223600,"48 HAMILTON LANE","OLD CHATHAM","NY",12136,42.4255954270001,-73.5472029709999,100,"48 HAMILTON LANE, OLD CHATHAM, NY, 12136","Match","Exact","48 HAMILTON LN, OLD CHATHAM, NY, 12136",641535980,"R"
223601,"48 HAMPTON GLEN PARKWAY","HAMPTON","VA",23669,NA,NA,101,"48 HAMPTON GLEN PARKWAY, HAMPTON, VA, 23669","No_Match",NA,NA,NA,NA
223602,"48 HARDING STREET","MILFORD","MA",1757,42.149487107,-71.5427959799999,102,"48 HARDING STREET, MILFORD, MA, 1757","Match","Exact","48 HARDING ST, MILFORD, MA, 01757",40038056,"R"
223603,"48 HAZELWOOD AVENUE","BRIDGEPORT","CT",6605,41.177643319,-73.208602899,103,"48 HAZELWOOD AVENUE, BRIDGEPORT, CT, 6605","Match","Exact","48 HAZELWOOD AVE, BRIDGEPORT, CT, 06605",3223762,"R"
223604,"48 HENDERSON STREET SW","MARIETTA","GA",30064,33.9505779300001,-84.552716254,104,"48 HENDERSON STREET SW, MARIETTA, GA, 30064","Match","Non_Exact","48 HENDERSON ST, MARIETTA, GA, 30064",17175965,"R"
223605,"48 HENRIETTA","SAINT LOUIS","MO",63104,38.6163418150001,-90.226386116,105,"48 HENRIETTA, SAINT LOUIS, MO, 63104","Match","Non_Exact","48 HENRIETTA PL, SAINT LOUIS, MO, 63104",107607572,"L"
223606,"48 HIDING PLACE RD","LIBBY","MT",59923,NA,NA,106,"48 HIDING PLACE RD, LIBBY, MT, 59923","No_Match",NA,NA,NA,NA
223607,"48 HIGH STREET APT 23","CLINTON","MA",1510,42.41709059,-71.6847548439999,107,"48 HIGH STREET APT 23, CLINTON, MA, 1510","Match","Exact","48 HIGH ST, CLINTON, MA, 01510",40109978,"L"
223608,"48 HIGH STREET","SOUTHAMPTON","MA",1073,42.2291443510001,-72.7334007379999,108,"48 HIGH STREET, SOUTHAMPTON, MA, 1073","Match","Exact","48 HIGH ST, SOUTHAMPTON, MA, 01073",39866925,"R"
223609,"48 HIGHLAND STREET","SHARON","MA",2067,42.1248301570001,-71.174489733,109,"48 HIGHLAND STREET, SHARON, MA, 2067","Match","Exact","48 HIGHLAND ST, SHARON, MA, 02067",87262302,"L"
223610,"48 HILLCREST DRIVE","BERNARDSTON","MA",1337,42.6594329750001,-72.5627807779999,110,"48 HILLCREST DRIVE, BERNARDSTON, MA, 1337","Match","Exact","48 HILLCREST DR, BERNARDSTON, MA, 01337",39912287,"L"
223611,"48 HURON ST","ALBANY","NY",12203,42.666269728,-73.820474546,111,"48 HURON ST, ALBANY, NY, 12203","Match","Non_Exact","48 HURON AVE, ALBANY, NY, 12203",652646977,"R"
223612,"48 INDIGO RD","LEVITTOWN","PA",19057,40.1471597290001,-74.859406295,112,"48 INDIGO RD, LEVITTOWN, PA, 19057","Match","Exact","48 INDIGO RD, LEVITTOWN, PA, 19057",134737198,"R"
223613,"48 ISLAND AVENUE","RAMSEY","NJ",7446,41.058399815,-74.136669496,113,"48 ISLAND AVENUE, RAMSEY, NJ, 7446","Match","Exact","48 ISLAND AVE, RAMSEY, NJ, 07446",64403197,"R"
223614,"48 JEFFERSON AVE","SHORT HILLS","NJ",7078,40.7329378680001,-74.31784771,114,"48 JEFFERSON AVE, SHORT HILLS, NJ, 7078","Match","Exact","48 JEFFERSON AVE, SHORT HILLS, NJ, 07078",63461405,"L"
223615,"48 JOHN STREET","BROOKLYN","NY",11201,40.7044005130001,-73.986338089,115,"48 JOHN STREET, BROOKLYN, NY, 11201","Match","Exact","48 JOHN ST, BROOKLYN, NY, 11201",59075108,"R"
223616,"48 JUNIPER DRIVE","GOFFSTOWN","NH",3045,43.0253137780001,-71.547762717,116,"48 JUNIPER DRIVE, GOFFSTOWN, NH, 3045","Match","Exact","48 JUNIPER DR, GOFFSTOWN, NH, 03045",113573016,"R"
223617,"48 JUNIPER HILL DRIVE","SOMERS","CT",6071,41.981774043,-72.420885563,117,"48 JUNIPER HILL DRIVE, SOMERS, CT, 6071","Match","Exact","48 JUNIPER HL, SOMERS, CT, 06071",636280877,"R"
223618,"48 KEMI LANE","SAYVILLE","NY",11782,NA,NA,118,"48 KEMI LANE, SAYVILLE, NY, 11782","Tie",NA,NA,NA,NA
223619,"48 KENOSHA MOUNTAIN DRIVE","LIVERMORE","CO",80536,40.7525581350001,-105.446583127,119,"48 KENOSHA MOUNTAIN DRIVE, LIVERMORE, CO, 80536","Match","Exact","48 KENOSHA MOUNTAIN DR, LIVERMORE, CO, 80536",188618894,"L"
223620,"48 KIMBERLY COURT","MONMOUTH JUNCTION","NJ",8852,40.3936657510001,-74.5746801929999,120,"48 KIMBERLY COURT, MONMOUTH JUNCTION, NJ, 8852","Match","Exact","48 KIMBERLY CT, MONMOUTH JCT, NJ, 08852",60303924,"L"
223621,"48 KINGSTON RD","NEWTON","MA",2461,42.3253256350001,-71.2144222599999,121,"48 KINGSTON RD, NEWTON, MA, 2461","Match","Exact","48 KINGSTON RD, NEWTON, MA, 02461",86865687,"L"
223622,"48 KRISTEN MEADOWS","EAST AMHERST","NY",14051,43.0012804580001,-78.7012819829999,122,"48 KRISTEN MEADOWS, EAST AMHERST, NY, 14051","Match","Exact","48 KRISTEN MEADOWS, EAST AMHERST, NY, 14051",48318338,"R"
223623,"48 LANGDON DR","PALM COAST","FL",32136,29.61272789,-81.262129355,123,"48 LANGDON DR, PALM COAST, FL, 32136","Match","Non_Exact","48 LANGDON DR, PALM COAST, FL, 32137",611256093,"L"
223624,"48 LAREDO COURT","IOWA CITY","IA",52246,41.647190617,-91.598337092,124,"48 LAREDO COURT, IOWA CITY, IA, 52246","Match","Exact","48 LAREDO CT, IOWA CITY, IA, 52246",84509837,"L"
223625,"48 LEXINGTON CT","RICHMOND HILL","GA",31324,31.9528566490001,-81.305698271,125,"48 LEXINGTON CT, RICHMOND HILL, GA, 31324","Match","Exact","48 LEXINGTON CT, RICHMOND HILL, GA, 31324",6091186,"R"
223626,"48 LINCOLN AVENUE","ISLIP TERRACE","NY",11752,40.7476119880001,-73.1888329719999,126,"48 LINCOLN AVENUE, ISLIP TERRACE, NY, 11752","Match","Exact","48 LINCOLN AVE, ISLIP TERRACE, NY, 11752",113998577,"R"
223627,"48 LONG HILL ROAD","NEW VERNON","NJ",7976,NA,NA,127,"48 LONG HILL ROAD, NEW VERNON, NJ, 7976","No_Match",NA,NA,NA,NA
223628,"48 LONGSHORE STREET","BAY SHORE","NY",11706,40.7446184770001,-73.300216282,128,"48 LONGSHORE STREET, BAY SHORE, NY, 11706","Match","Exact","48 LONGSHORE ST, BAY SHORE, NY, 11706",113993164,"L"
223629,"48 MACON STREET 1","BROOKLYN","NY",11216,40.6811349910001,-73.949124992,129,"48 MACON STREET 1, BROOKLYN, NY, 11216","Match","Exact","48 MACON ST, BROOKLYN, NY, 11216",59078926,"R"
223630,"48 MAIN STREET","WHITESBURG","KY",41858,37.1165754640001,-82.825310471,130,"48 MAIN STREET, WHITESBURG, KY, 41858","Match","Exact","48 MAIN ST, WHITESBURG, KY, 41858",88032644,"L"
223631,"48 MALUNIU ST","KAILUA","HI",96734,21.397137914,-157.741500276,131,"48 MALUNIU ST, KAILUA, HI, 96734","Match","Non_Exact","48 MALUNIU AVE, KAILUA, HI, 96734",203248957,"R"
223632,"48 MANOR STREET","BAKERSFIELD","CA",93308,NA,NA,132,"48 MANOR STREET, BAKERSFIELD, CA, 93308","No_Match",NA,NA,NA,NA
223633,"48 MARINER WAY","MONSEY","NY",10952,41.1432518060001,-74.071380303,133,"48 MARINER WAY, MONSEY, NY, 10952","Match","Exact","48 MARINER WAY, MONSEY, NY, 10952",124610695,"L"
223634,"48 MARIO DRIVE","DAYTON","OH",45426,39.794412279,-84.3033133289999,134,"48 MARIO DRIVE, DAYTON, OH, 45426","Match","Exact","48 MARIO DR, DAYTON, OH, 45426",143562448,"R"
223635,"48 MARION STREET","MEDFORD","MA",2155,42.402732863,-71.109264213,135,"48 MARION STREET, MEDFORD, MA, 2155","Match","Exact","48 MARION ST, MEDFORD, MA, 02155",86858995,"L"
223636,"48 MASE ROAD","LK HOPATCONG","NJ",7849,40.9458610570001,-74.6129573329999,136,"48 MASE ROAD, LK HOPATCONG, NJ, 7849","Match","Exact","48 MASE RD, LAKE HOPATCONG, NJ, 07849",60434277,"L"
223637,"48 MASON DR","COLUMBUS","GA",31903,32.4099516220001,-84.9426371329999,137,"48 MASON DR, COLUMBUS, GA, 31903","Match","Exact","48 MASON DR, COLUMBUS, GA, 31903",98942515,"L"
223638,"48 MILFORD STREET  FLOOR 2","HARTFORD","CT",6112,41.7815726520001,-72.699085791,138,"48 MILFORD STREET  FLOOR 2, HARTFORD, CT, 6112","Match","Exact","48 MILFORD ST, HARTFORD, CT, 06112",3488927,"R"
223639,"48 MONTE ST","JACKSONVILLE","FL",32254,30.324129429,-81.758484121,139,"48 MONTE ST, JACKSONVILLE, FL, 32254","Match","Exact","48 MONTE ST, JACKSONVILLE, FL, 32254",83969030,"L"
223640,"48 MORRELL ST","WEST ROXBURY","MA",2132,42.2728804290001,-71.1670549729999,140,"48 MORRELL ST, WEST ROXBURY, MA, 2132","Match","Exact","48 MORRELL ST, WEST ROXBURY, MA, 02132",85724459,"L"
223641,"48 N 4TH ST","ZANESVILLE","OH",43701,39.9405759850001,-82.007745998,141,"48 N 4TH ST, ZANESVILLE, OH, 43701","Match","Exact","48 N 4TH ST, ZANESVILLE, OH, 43701",639720665,"R"
223642,"48 N FORTY RD","WOODBURY","CT",6798,41.551597294,-73.233485178,142,"48 N FORTY RD, WOODBURY, CT, 6798","Match","Exact","48 N FORTY RD, WOODBURY, CT, 06798",3108735,"R"
223643,"48 N KIRKMAN RD ST 6","ORLANDO","FL",32811,28.5406252220001,-81.4582625849999,143,"48 N KIRKMAN RD ST 6, ORLANDO, FL, 32811","Match","Non_Exact","48 S KIRKMAN RD, ORLANDO, FL, 32811",637886262,"L"
223644,"48 N OXFORD RD","SPRINGFIELD","IL",62702,39.8042086560001,-89.7019228949999,144,"48 N OXFORD RD, SPRINGFIELD, IL, 62702","Match","Exact","48 N OXFORD RD, SPRINGFIELD, IL, 62702",97321840,"R"
223645,"48 N WHITCOMB AVE","INDIANAPOLIS","IN",46224,39.7659351090001,-86.2575849899999,145,"48 N WHITCOMB AVE, INDIANAPOLIS, IN, 46224","Match","Exact","48 N WHITCOMB AVE, INDIANAPOLIS, IN, 46224",107979562,"L"
223646,"48 NARRATICON DRIVE","SWEDESORO","NJ",8085,NA,NA,146,"48 NARRATICON DRIVE, SWEDESORO, NJ, 8085","No_Match",NA,NA,NA,NA
223647,"48 NORMAN PL","TENAFLY","NJ",7670,40.922727201,-73.9735895169999,147,"48 NORMAN PL, TENAFLY, NJ, 7670","Match","Exact","48 NORMAN PL, TENAFLY, NJ, 07670",64374073,"L"
223648,"48 NORTH FOURTH STREET","EASTON","PA",18042,40.69225371,-75.211210369,148,"48 NORTH FOURTH STREET, EASTON, PA, 18042","Match","Exact","48 N 4TH ST, EASTON, PA, 18042",136883922,"L"
223649,"48 OKLAHOMA STATE DRIVE","NEWARK","DE",19713,39.649163716,-75.772568655,149,"48 OKLAHOMA STATE DRIVE, NEWARK, DE, 19713","Match","Exact","48 OKLAHOMA STATE DR, NEWARK, DE, 19713",633686965,"L"
223650,"48 OVAL TURN LANE","LEVITTOWN","PA",19055,40.15007597,-74.839561251,150,"48 OVAL TURN LANE, LEVITTOWN, PA, 19055","Match","Exact","48 OVAL TURN LN, LEVITTOWN, PA, 19055",134737403,"R"
223651,"48 OWEN STREET","FORTY FORT","PA",18704,41.2955775630001,-75.8664196079999,151,"48 OWEN STREET, FORTY FORT, PA, 18704","Match","Exact","48 OWEN ST, FORTY FORT, PA, 18704",604522799,"L"
223652,"48 PHEASANT MEADOW DR","GALLOWAY","NJ",8205,39.493019287,-74.4540048819999,152,"48 PHEASANT MEADOW DR, GALLOWAY, NJ, 8205","Match","Exact","48 PHEASANT MEADOW DR, GALLOWAY, NJ, 08205",202508484,"L"
223653,"48 PINE KNOLL ROAD","LENOX","MA",1240,42.3514496650001,-73.2527132,153,"48 PINE KNOLL ROAD, LENOX, MA, 1240","Match","Exact","48 PINE KNOLL RD, LENOX, MA, 01240",3948859,"R"
223654,"48 PIONEER TRAIL","HANNIBAL","MO",63401,39.708049219,-91.407203841,154,"48 PIONEER TRAIL, HANNIBAL, MO, 63401","Match","Exact","48 PIONEER TRL, HANNIBAL, MO, 63401",651766035,"L"
223655,"48 PIONEER TRL","HANNIBAL","MO",63401,39.708049219,-91.407203841,155,"48 PIONEER TRL, HANNIBAL, MO, 63401","Match","Exact","48 PIONEER TRL, HANNIBAL, MO, 63401",651766035,"L"
223656,"48 POINT WEST CIRCLE","LITTLE ROCK","AR",72211,34.7470488640001,-92.414825009,156,"48 POINT WEST CIRCLE, LITTLE ROCK, AR, 72211","Match","Exact","48 POINT WEST CIR, LITTLE ROCK, AR, 72211",83533272,"L"
223657,"48 POINTE ROK DRIVE","WORCESTER","MA",1604,42.2380899550001,-71.734794358,157,"48 POINTE ROK DRIVE, WORCESTER, MA, 1604","Match","Exact","48 POINTE ROK DR, WORCESTER, MA, 01604",40103284,"R"
223658,"48 POODUCK ROAD","BROOKLIN","ME",4616,44.2544718840001,-68.563409312,158,"48 POODUCK ROAD, BROOKLIN, ME, 4616","Match","Exact","48 POODUCK RD, BROOKLIN, ME, 04616",110288477,"R"
223659,"48 POWDERVIEW COURT","NOTTINGHAM","MD",21236,39.416667762,-76.488386282,159,"48 POWDERVIEW COURT, NOTTINGHAM, MD, 21236","Match","Non_Exact","48 POWDER VIEW CT, NOTTINGHAM, MD, 21236",191503168,"L"
223660,"48 PRICHARD AVENUE","SOMERVILLE","MA",2144,42.3960861730001,-71.111121187,160,"48 PRICHARD AVENUE, SOMERVILLE, MA, 2144","Match","Exact","48 PRICHARD AVE, SOMERVILLE, MA, 02144",86858970,"L"
223661,"48 RED ROBIN TURN","HAMPTON","VA",23669,37.0303484500001,-76.370173933,161,"48 RED ROBIN TURN, HAMPTON, VA, 23669","Match","Exact","48 RED ROBIN TURN, HAMPTON, VA, 23669",638678459,"L"
223662,"48 RICHARD MINE ROAD","WHARTON","NJ",7885,40.918739476,-74.545052778,162,"48 RICHARD MINE ROAD, WHARTON, NJ, 7885","Match","Exact","48 RICHARD MINE RD, WHARTON, NJ, 07885",647656375,"R"
223663,"48 RIDGE DR APT 106","FAIRFIELD","OH",45014,39.3271325060001,-84.5194648999999,163,"48 RIDGE DR APT 106, FAIRFIELD, OH, 45014","Match","Exact","48 RIDGE DR, FAIRFIELD, OH, 45014",113815795,"L"
223664,"48 RIDGE ROAD","WESTMINSTER","MD",21157,39.576941757,-77.006068165,164,"48 RIDGE ROAD, WESTMINSTER, MD, 21157","Match","Exact","48 RIDGE RD, WESTMINSTER, MD, 21157",61788576,"R"
223665,"48 RIVERS RUN WAY","OAK RIDGE","TN",37830,36.022915858,-84.177945073,165,"48 RIVERS RUN WAY, OAK RIDGE, TN, 37830","Match","Exact","48 RIVERS RUN WAY, OAK RIDGE, TN, 37830",645527533,"R"
223666,"48 RIVERSIDE ROAD","WATSONVILLE","CA",95076,36.9135049870001,-121.742137315,166,"48 RIVERSIDE ROAD, WATSONVILLE, CA, 95076","Match","Exact","48 RIVERSIDE RD, WATSONVILLE, CA, 95076",125527000,"R"
223667,"48 ROBBINS DR","WETHERSFIELD","CT",6109,41.713926072,-72.6726639789999,167,"48 ROBBINS DR, WETHERSFIELD, CT, 6109","Match","Exact","48 ROBBINS DR, WETHERSFIELD, CT, 06109",3516971,"R"
223668,"48 RODERICK AVE","STATEN ISLAND","NY",10305,40.6018505640001,-74.0735368269999,168,"48 RODERICK AVE, STATEN ISLAND, NY, 10305","Match","Exact","48 RODERICK AVE, STATEN ISLAND, NY, 10305",59869613,"R"
223669,"48 ROLLING ACRES DRDIVE","CUMBERLAND","RI",2864,41.973273782,-71.449168406,169,"48 ROLLING ACRES DRDIVE, CUMBERLAND, RI, 2864","Match","Non_Exact","48 ROLLING ACRES DR, CUMBERLAND, RI, 02864",651142908,"L"
223670,"48 ROOSEVELT AVENUE","WEST BRIDGEWATER","MA",2379,42.0396650810001,-71.021519742,170,"48 ROOSEVELT AVENUE, WEST BRIDGEWATER, MA, 2379","Match","Exact","48 ROOSEVELT AVE, W BRIDGEWATER, MA, 02379",87444524,"L"
223671,"48 ROSSINOFF PLACE","BRIDGEPORT","CT",6606,41.191940291,-73.2035498339999,171,"48 ROSSINOFF PLACE, BRIDGEPORT, CT, 6606","Match","Non_Exact","48 ROSINOFF PL, BRIDGEPORT, CT, 06606",3223243,"R"
223672,"48 S 300 W","PROVO","UT",84601,40.2330512250001,-111.663948038,172,"48 S 300 W, PROVO, UT, 84601","Match","Exact","48 S 300 W, PROVO, UT, 84601",134209287,"R"
223673,"48 S PURCELL AVENUE","WINCHESTER","VA",22601,39.1799432610001,-78.152388409,173,"48 S PURCELL AVENUE, WINCHESTER, VA, 22601","Match","Exact","48 S PURCELL AVE, WINCHESTER, VA, 22601",55609692,"R"
223674,"48 SANDALWOOD DRIVE","ATTLEBORO","MA",2703,41.9068111070001,-71.32465381,174,"48 SANDALWOOD DRIVE, ATTLEBORO, MA, 2703","Match","Exact","48 SANDALWOOD DR, ATTLEBORO, MA, 02703",46785719,"L"
223675,"48 SARLES LANE","PLEASANTVILLE","NY",10570,41.1345967250001,-73.797328487,175,"48 SARLES LANE, PLEASANTVILLE, NY, 10570","Match","Exact","48 SARLES LN, PLEASANTVILLE, NY, 10570",139789174,"L"
223676,"48 SCHOOL STREET","MIDDLEBORO","MA",2346,41.895929488,-70.908780526,176,"48 SCHOOL STREET, MIDDLEBORO, MA, 2346","Match","Exact","48 SCHOOL ST, MIDDLEBORO, MA, 02346",87418891,"L"
223677,"48 SHADYLAWN DRIVE","MADISON","NJ",7940,40.77304708,-74.434208494,177,"48 SHADYLAWN DRIVE, MADISON, NJ, 7940","Match","Exact","48 SHADYLAWN DR, MADISON, NJ, 07940",60447645,"L"
223678,"48 SHANNON ST APT 2","BOSTON","MA",2135,42.346539814,-71.149627881,178,"48 SHANNON ST APT 2, BOSTON, MA, 2135","Match","Exact","48 SHANNON ST, BOSTON, MA, 02135",85695159,"L"
223679,"48 SHERIDAN STREET NE","WASHINGTON","DC",20011,38.9664249240001,-77.007319481,179,"48 SHERIDAN STREET NE, WASHINGTON, DC, 20011","Match","Exact","48 SHERIDAN ST NE, WASHINGTON, DC, 20011",76227959,"L"
223680,"48 SNOW STREET","CONCORD","NH",3303,43.2661489540001,-71.5817438889999,180,"48 SNOW STREET, CONCORD, NH, 3303","Match","Exact","48 SNOW ST, CONCORD, NH, 03303",117711700,"L"
223681,"48 SOUTH FRANKLIN TURNPIKE","RAMSEY","NJ",7446,41.056225528,-74.131637944,181,"48 SOUTH FRANKLIN TURNPIKE, RAMSEY, NJ, 7446","Match","Exact","48 S FRANKLIN TPKE, RAMSEY, NJ, 07446",64403212,"R"
223682,"48 SOUTH HIGH STREET SUITE B","DUBLIN","OH",43017,40.098565691,-83.1135825489999,182,"48 SOUTH HIGH STREET SUITE B, DUBLIN, OH, 43017","Match","Exact","48 S HIGH ST, DUBLIN, OH, 43017",625081276,"L"
223683,"48 SOUTH NEW YORK ROAD","GALLOWAY TOWNSHIP","NJ",8205,39.488223196,-74.4585013769999,183,"48 SOUTH NEW YORK ROAD, GALLOWAY TOWNSHIP, NJ, 8205","Match","Non_Exact","48 S NEW YORK RD, GALLOWAY, NJ, 08205",642610740,"R"
223684,"48 SPERRY ROAD","WATERTOWN","CT",6795,41.578321106,-73.1280058419999,184,"48 SPERRY ROAD, WATERTOWN, CT, 6795","Match","Exact","48 SPERRY RD, WATERTOWN, CT, 06795",3108664,"R"
223685,"48 SPRING LAKE BLVD","WARETOWN","NJ",8758,39.789888854,-74.226030485,185,"48 SPRING LAKE BLVD, WARETOWN, NJ, 8758","Match","Exact","48 SPRING LAKE BLVD, WARETOWN, NJ, 08758",617541378,"R"
223686,"48 SPRUCE ST APT 2","SANFORD","ME",4073,43.44437795,-70.772440412,186,"48 SPRUCE ST APT 2, SANFORD, ME, 4073","Match","Exact","48 SPRUCE ST, SANFORD, ME, 04073",92737902,"L"
223687,"48 SQUIRE ST","NEW LONDON","CT",6320,41.344321746,-72.107162328,187,"48 SQUIRE ST, NEW LONDON, CT, 6320","Match","Exact","48 SQUIRE ST, NEW LONDON, CT, 06320",56851203,"L"
223688,"48 STAGE RD","WESTHAMPTON","MA",1027,42.3046307210001,-72.7662472229999,188,"48 STAGE RD, WESTHAMPTON, MA, 1027","Match","Exact","48 STAGE RD, WESTHAMPTON, MA, 01027",39866008,"L"
223689,"48 STATE HOUSE STATION","AUGUSTA","ME",4333,NA,NA,189,"48 STATE HOUSE STATION, AUGUSTA, ME, 4333","No_Match",NA,NA,NA,NA
223690,"48 STONEHURST LANE","DIX HILLS","NY",11746,40.8064382210001,-73.298414866,190,"48 STONEHURST LANE, DIX HILLS, NY, 11746","Match","Exact","48 STONEHURST LN, DIX HILLS, NY, 11746",113982390,"R"
223691,"48 SUMMER ST","PLYMOUTH","MA",2360,41.954022292,-70.665485281,191,"48 SUMMER ST, PLYMOUTH, MA, 2360","Match","Exact","48 SUMMER ST, PLYMOUTH, MA, 02360",87481255,"R"
223692,"48 SUNSET DR","HUTCHINSON","KS",67502,38.0751529550001,-97.951539919,192,"48 SUNSET DR, HUTCHINSON, KS, 67502","Match","Exact","48 SUNSET DR, HUTCHINSON, KS, 67502",142933680,"R"
223693,"48 SUNSET DRIVE","HUTCHINSON","KS",67502,38.0751529550001,-97.951539919,193,"48 SUNSET DRIVE, HUTCHINSON, KS, 67502","Match","Exact","48 SUNSET DR, HUTCHINSON, KS, 67502",142933680,"R"
223694,"48 SUNSET ROAD","POMPTON PLAINS","NJ",7444,40.9619024260001,-74.30260742,194,"48 SUNSET ROAD, POMPTON PLAINS, NJ, 7444","Match","Exact","48 SUNSET RD, POMPTON PLAINS, NJ, 07444",60427857,"R"
223695,"48 TALMADGE COURT","ASHEVILLE","NC",28806,35.5691711200001,-82.596753387,195,"48 TALMADGE COURT, ASHEVILLE, NC, 28806","Match","Exact","48 TALMADGE CT, ASHEVILLE, NC, 28806",36843284,"L"
223696,"48 TAMARACK HILL DR","POUGHKEEPSIE","NY",12603,41.7236155360001,-73.855439555,196,"48 TAMARACK HILL DR, POUGHKEEPSIE, NY, 12603","Match","Exact","48 TAMARACK HILL DR, POUGHKEEPSIE, NY, 12603",624213009,"R"
223697,"48 THE GLEN","GLEN HEAD","NY",11545,40.8436874650001,-73.6182916819999,197,"48 THE GLEN, GLEN HEAD, NY, 11545","Match","Exact","48 THE GLEN, GLEN HEAD, NY, 11545",147839722,"L"
223698,"48 TOWLE PASTURE DRIVE","EPSOM","NH",3234,43.2134136180001,-71.353155742,198,"48 TOWLE PASTURE DRIVE, EPSOM, NH, 3234","Match","Exact","48 TOWLE PASTURE DR, EPSOM, NH, 03234",117719924,"L"
223699,"48 TRADING POST LN","LANCASTER","PA",17602,40.002744287,-76.2446823609999,199,"48 TRADING POST LN, LANCASTER, PA, 17602","Match","Exact","48 TRADING POST LN, LANCASTER, PA, 17602",653367584,"L"
223700,"48 TROY DRIVE APT A","SPRINGFIELD","NJ",7081,40.7138708960001,-74.3304829149999,200,"48 TROY DRIVE APT A, SPRINGFIELD, NJ, 7081","Match","Exact","48 TROY DR, SPRINGFIELD, NJ, 07081",60603884,"L"
223701,"48 UNION ST STE 1C","STAMFORD","CT",6906,41.0733644760001,-73.5215497359999,201,"48 UNION ST STE 1C, STAMFORD, CT, 6906","Match","Exact","48 UNION ST, STAMFORD, CT, 06906",3246565,"L"
223702,"48 UNION ST STE BLD 2","STAMFORD","CT",6906,41.0733644760001,-73.5215497359999,202,"48 UNION ST STE BLD 2, STAMFORD, CT, 6906","Match","Exact","48 UNION ST, STAMFORD, CT, 06906",3246565,"L"
223703,"48 VINEYARD AVE PO BOX 325","OAK BLUFFS","MA",2557,41.452363823,-70.567693651,203,"48 VINEYARD AVE PO BOX 325, OAK BLUFFS, MA, 2557","Match","Exact","48 VINEYARD AVE, OAK BLUFFS, MA, 02557",118869243,"L"
223704,"48 VIOLET LN","DALLAS","GA",30132,33.9862115970001,-84.782580358,204,"48 VIOLET LN, DALLAS, GA, 30132","Match","Non_Exact","48 VIOLET CT, DALLAS, GA, 30132",618949146,"R"
223705,"48 W 138TH ST APT 3I","NEW YORK","NY",10037,NA,NA,205,"48 W 138TH ST APT 3I, NEW YORK, NY, 10037","Tie",NA,NA,NA,NA
223706,"48 W 600 S","JEROME","ID",83338,42.637113605,-114.528709095,206,"48 W 600 S, JEROME, ID, 83338","Match","Exact","48 W 600 S, JEROME, ID, 83338",105463159,"R"
223707,"48 W BROADWAY 2005","SALT LAKE CITY","UT",84101,40.762829288,-111.892494259,207,"48 W BROADWAY 2005, SALT LAKE CITY, UT, 84101","Match","Non_Exact","48 W BROADWAY, SALT LAKE CITY, UT, 84101",176067347,"R"
223708,"48 W BROADWAY","PLYMOUTH","OH",44865,40.995253964,-82.666874632,208,"48 W BROADWAY, PLYMOUTH, OH, 44865","Match","Non_Exact","48 W BROADWAY ST, PLYMOUTH, OH, 44865",12605597,"R"
223709,"48 W THIRD STREET","WILLIAMSPORT","PA",17701,41.240714188,-77.001858765,209,"48 W THIRD STREET, WILLIAMSPORT, PA, 17701","Match","Exact","48 W 3RD ST, WILLIAMSPORT, PA, 17701",651778900,"R"
223710,"48 WALL ST 11TH FL","NEW YORK","NY",10005,40.7063557980001,-74.0094419389999,210,"48 WALL ST 11TH FL, NEW YORK, NY, 10005","Match","Exact","48 WALL ST, NEW YORK, NY, 10005",59659665,"L"
223711,"48 WALL STREET","NEW YORK","NY",10005,40.7063557980001,-74.0094419389999,211,"48 WALL STREET, NEW YORK, NY, 10005","Match","Exact","48 WALL ST, NEW YORK, NY, 10005",59659665,"L"
223712,"48 WATERMAN AVE","RUMSON","NJ",7760,40.361367097,-73.979230951,212,"48 WATERMAN AVE, RUMSON, NJ, 7760","Match","Exact","48 WATERMAN AVE, RUMSON, NJ, 07760",90453195,"R"
223713,"48 WEST 105TH STREET 1A","NEW YORK","NY",10025,40.7979354720001,-73.961865087,213,"48 WEST 105TH STREET 1A, NEW YORK, NY, 10025","Match","Exact","48 W 105TH ST, NEW YORK, NY, 10025",59656910,"L"
223714,"48 WEST 21ST STREET FL 8","NEW YORK","NY",10010,40.740913048,-73.992072593,214,"48 WEST 21ST STREET FL 8, NEW YORK, NY, 10010","Match","Exact","48 W 21ST ST, NEW YORK, NY, 10010",59653502,"L"
223715,"48 WEST CLINTON AVE","ROOSEVELT","NY",11575,40.682917929,-73.5946981069999,215,"48 WEST CLINTON AVE, ROOSEVELT, NY, 11575","Match","Exact","48 W CLINTON AVE, ROOSEVELT, NY, 11575",147630648,"R"
223716,"48 WEST HIGH STREET","WAYNESBURG","PA",15370,39.8964866540001,-80.187504258,216,"48 WEST HIGH STREET, WAYNESBURG, PA, 15370","Match","Exact","48 W HIGH ST, WAYNESBURG, PA, 15370",51362353,"L"
223717,"48 WEST MAIN STREET","PENNS GROVE","NJ",8069,39.730341638,-75.469304111,217,"48 WEST MAIN STREET, PENNS GROVE, NJ, 8069","Match","Exact","48 W MAIN ST, PENNS GROVE, NJ, 08069",174415418,"R"
223718,"48 WEST WINDSOR DRIVE","LITTLE ROCK","AR",72209,34.694635459,-92.3600736449999,218,"48 WEST WINDSOR DRIVE, LITTLE ROCK, AR, 72209","Match","Exact","48 W WINDSOR DR, LITTLE ROCK, AR, 72209",83511953,"R"
223719,"48 WESTSIDE COURT","SALEM","NJ",8079,39.5728725380001,-75.4762820509999,219,"48 WESTSIDE COURT, SALEM, NJ, 8079","Match","Exact","48 WESTSIDE CT, SALEM, NJ, 08079",174421836,"L"
223720,"48 WETSTONE","IRVINE","CA",92604,33.684414019,-117.799483462,220,"48 WETSTONE, IRVINE, CA, 92604","Match","Exact","48 WETSTONE, IRVINE, CA, 92604",609071245,"R"
223721,"48 WEYBOSSET","PROVIDENCE","RI",2903,41.8239904260001,-71.409793481,221,"48 WEYBOSSET, PROVIDENCE, RI, 2903","Match","Non_Exact","48 WEYBOSSET ST, PROVIDENCE, RI, 02903",647209051,"L"
223722,"48 WHITE OAK DRIVE","NATCHEZ","MS",39120,31.5770071330001,-91.333263046,222,"48 WHITE OAK DRIVE, NATCHEZ, MS, 39120","Match","Exact","48 WHITE OAK DR, NATCHEZ, MS, 39120",649249346,"L"
223723,"48 WILDWOOD DRIVE","SOUTHBOROUGH","MA",1772,42.272119407,-71.5417193,223,"48 WILDWOOD DRIVE, SOUTHBOROUGH, MA, 1772","Match","Exact","48 WILDWOOD DR, SOUTHBOROUGH, MA, 01772",40107738,"L"
223724,"48 WINTER ST SUITE 4F","BOSTON","MA",2108,42.3560462180001,-71.061750646,224,"48 WINTER ST SUITE 4F, BOSTON, MA, 2108","Match","Exact","48 WINTER ST, BOSTON, MA, 02108",85709812,"L"
223725,"48 WOOD FARM LANE","NORTH EAST","MD",21901,NA,NA,225,"48 WOOD FARM LANE, NORTH EAST, MD, 21901","No_Match",NA,NA,NA,NA
223726,"48-1 REVERE RD","DREXEL HILL","PA",19026,39.946479637,-75.316910626,226,"48-1 REVERE RD, DREXEL HILL, PA, 19026","Match","Exact","48-1 REVERE RD, DREXEL HILL, PA, 19026",134898610,"L"
223727,"48-609 CALLE ESPERANZA","LA QUINTA","CA",92253,NA,NA,227,"48-609 CALLE ESPERANZA, LA QUINTA, CA, 92253","No_Match",NA,NA,NA,NA
223728,"480 23RD AVE N","ST PETERSBURG","FL",33704,27.793019981,-82.6401040969999,228,"480 23RD AVE N, ST PETERSBURG, FL, 33704","Match","Exact","480 23RD AVE N, SAINT PETERSBURG, FL, 33704",124707028,"L"
223729,"480 AMETHYST AVE","AUBURNDALE","FL",33823,28.0956351030001,-81.7745191719999,229,"480 AMETHYST AVE, AUBURNDALE, FL, 33823","Match","Exact","480 AMETHYST AVE, AUBURNDALE, FL, 33823",639807393,"R"
223730,"480 ARDEN CIRCLE","SHOREVIEW","MN",55126,45.049045144,-93.1205339859999,230,"480 ARDEN CIRCLE, SHOREVIEW, MN, 55126","Match","Exact","480 ARDEN CIR, SHOREVIEW, MN, 55126",97655873,"R"
223731,"480 ARTESIAN WAY","WAUSAU","WI",54401,44.9675531440001,-89.697923724,231,"480 ARTESIAN WAY, WAUSAU, WI, 54401","Match","Exact","480 ARTESIAN WAY, WAUSAU, WI, 54401",117154121,"R"
223732,"480 BEACH 43RD STREET","FAR ROCKAWAY","NY",11691,40.598372139,-73.7750644989999,232,"480 BEACH 43RD STREET, FAR ROCKAWAY, NY, 11691","Match","Exact","480 BEACH 43RD ST, FAR ROCKAWAY, NY, 11691",59730422,"L"
223733,"480 BEDFORD AVE","BROOKLYN","NY",11211,40.708386626,-73.9642571109999,233,"480 BEDFORD AVE, BROOKLYN, NY, 11211","Match","Exact","480 BEDFORD AVE, BROOKLYN, NY, 11211",59076139,"R"
223734,"480 BISON DR","BOULDER","CO",80302,39.958895252,-105.320589308,234,"480 BISON DR, BOULDER, CO, 80302","Match","Exact","480 BISON DR, BOULDER, CO, 80302",644255749,"R"
223735,"480 BLAIRWOOD CT","SPARTANBURG","SC",29303,34.9798746280001,-81.9394821509999,235,"480 BLAIRWOOD CT, SPARTANBURG, SC, 29303","Match","Exact","480 BLAIRWOOD CT, SPARTANBURG, SC, 29303",653326019,"R"
223736,"480 BROADWAY STREET","ROCHESTER","NY",14607,43.147773247,-77.600955309,236,"480 BROADWAY STREET, ROCHESTER, NY, 14607","Match","Exact","480 BROADWAY ST, ROCHESTER, NY, 14607",14540420,"L"
223737,"480 CALLE DEL NORTE","BERNALILLO","NM",87004,35.311938162,-106.553581452,237,"480 CALLE DEL NORTE, BERNALILLO, NM, 87004","Match","Non_Exact","480 CLLE DEL NORTE, BERNALILLO, NM, 87004",194010507,"R"
223738,"480 CHURCH RD","AVONDALE","PA",19311,39.8368173870001,-75.775950925,238,"480 CHURCH RD, AVONDALE, PA, 19311","Match","Exact","480 CHURCH RD, AVONDALE, PA, 19311",642921039,"R"
223739,"480 COLLEGE STREET","MOORESVILLE","NC",28115,35.5736791520001,-80.8165850829999,239,"480 COLLEGE STREET, MOORESVILLE, NC, 28115","Match","Exact","480 COLLEGE ST, MOORESVILLE, NC, 28115",640638263,"R"
223740,"480 COURTRIGHT DR","PICKERINGTON","OH",43417,39.896892129,-82.767435494,240,"480 COURTRIGHT DR, PICKERINGTON, OH, 43417","Match","Non_Exact","480 COURTRIGHT DR, PICKERINGTON, OH, 43147",37234892,"L"
223741,"480 DILLINGHAM CIRCLE","ASHEVILLE","NC",28805,35.622740069,-82.4579327769999,241,"480 DILLINGHAM CIRCLE, ASHEVILLE, NC, 28805","Match","Exact","480 DILLINGHAM CIR, ASHEVILLE, NC, 28805",36898386,"L"
223742,"480 DR MARTIN LUTHER KING JR STREET","SAFETY HARBOR","FL",34695,NA,NA,242,"480 DR MARTIN LUTHER KING JR STREET, SAFETY HARBOR, FL, 34695","No_Match",NA,NA,NA,NA
223743,"480 DREXEL LANE","LERONA","WV",25971,37.4616460770001,-80.99682659,243,"480 DREXEL LANE, LERONA, WV, 25971","Match","Exact","480 DREXEL LN, LERONA, WV, 25971",648076346,"R"
223744,"480 E MARKET STEET","WARREN","OH",44481,41.23620034,-80.81230936,244,"480 E MARKET STEET, WARREN, OH, 44481","Match","Exact","480 E MARKET ST, WARREN, OH, 44481",117405748,"R"
223745,"480 ELIOT STREET","MILTON","MA",2186,42.2648681480001,-71.088487179,245,"480 ELIOT STREET, MILTON, MA, 2186","Match","Exact","480 ELIOT ST, MILTON, MA, 02186",87247274,"L"
223746,"480 HUNTERS HILL DR","CHESTERFIELD","MO",63017,38.6464337990001,-90.517053897,246,"480 HUNTERS HILL DR, CHESTERFIELD, MO, 63017","Match","Exact","480 HUNTERS HILL DR, CHESTERFIELD, MO, 63017",100123237,"L"
223747,"480 HWY 347","BIISMARCK","AR",71929,NA,NA,247,"480 HWY 347, BIISMARCK, AR, 71929","No_Match",NA,NA,NA,NA
223748,"480 ISLAND HOUSE PATH","THE VILLAGES","FL",32163,28.8360619260001,-81.960492291,248,"480 ISLAND HOUSE PATH, THE VILLAGES, FL, 32163","Match","Exact","480 ISLAND HOUSE PATH, THE VILLAGES, FL, 32163",646506222,"R"
223749,"480 JEFFERSON DR UNITE 104","DEERFIELD BEACH","FL",33442,26.321973842,-80.151754216,249,"480 JEFFERSON DR UNITE 104, DEERFIELD BEACH, FL, 33442","Match","Exact","480 JEFFERSON DR, DEERFIELD BEACH, FL, 33442",114787989,"L"
223750,"480 KELLEY LN SW","CLEVELAND","TN",37311,35.079215193,-84.96250142,250,"480 KELLEY LN SW, CLEVELAND, TN, 37311","Match","Exact","480 KELLEY LN SW, CLEVELAND, TN, 37311",57581604,"R"
223751,"480 KNICKERBOCKER AVENUE","BROOKLYN","NY",11237,40.698409805,-73.917654391,251,"480 KNICKERBOCKER AVENUE, BROOKLYN, NY, 11237","Match","Exact","480 KNICKERBOCKER AVE, BROOKLYN, NY, 11237",59082931,"R"
223752,"480 LA CUESTA DRIVE","SCOTTS VALLY","CA",95066,37.0385367650001,-122.027785907,252,"480 LA CUESTA DRIVE, SCOTTS VALLY, CA, 95066","Match","Exact","480 LA CUESTA DR, SCOTTS VALLEY, CA, 95066",632951483,"R"
223753,"480 LANGFORD RD","BLYTHEWOOD","SC",29016,34.2056463500001,-80.95038508,253,"480 LANGFORD RD, BLYTHEWOOD, SC, 29016","Match","Exact","480 LANGFORD RD, BLYTHEWOOD, SC, 29016",645308124,"L"
223754,"480 LEHMAN AVE APT 301","BOWLING GREEN","OH",43402,41.3700672160001,-83.6452190369999,254,"480 LEHMAN AVE APT 301, BOWLING GREEN, OH, 43402","Match","Exact","480 LEHMAN AVE, BOWLING GREEN, OH, 43402",38734122,"L"
223755,"480 LEXINGTON RD STE 12 BOX 187","VERSAILLES","KY",40383,38.05158371,-84.7192585129999,255,"480 LEXINGTON RD STE 12 BOX 187, VERSAILLES, KY, 40383","Match","Non_Exact","480 LEXINGTON ST, VERSAILLES, KY, 40383",636694703,"R"
223756,"480 LONESTAR DR","ODESSA","TX",79766,31.7734291,-102.354165224,256,"480 LONESTAR DR, ODESSA, TX, 79766","Match","Non_Exact","480 LONE STAR DR, ODESSA, TX, 79766",632394073,"R"
223757,"480 LUELLA ROAD","LOCUST GROVE","GA",30248,33.3549289380001,-84.1834010169999,257,"480 LUELLA ROAD, LOCUST GROVE, GA, 30248","Match","Exact","480 LUELLA RD, LOCUST GROVE, GA, 30248",210411384,"L"
223758,"480 MCBRIDE AVENUE","PATERSON","NJ",7502,NA,NA,258,"480 MCBRIDE AVENUE, PATERSON, NJ, 7502","No_Match",NA,NA,NA,NA
223759,"480 N CANAL ST","SOUTH SAN FRANCISCO","CA",94080,37.651399482,-122.416847125,259,"480 N CANAL ST, SOUTH SAN FRANCISCO, CA, 94080","Match","Exact","480 N CANAL ST, S SAN FRAN, CA, 94080",192373341,"R"
223760,"480 N CANTON CENTER RD STE 871043","CANTON","MI",48187,42.3140896950001,-83.4875043009999,260,"480 N CANTON CENTER RD STE 871043, CANTON, MI, 48187","Match","Non_Exact","480 N CANTON CENTER RD, CANTON, MI, 48187",95408876,"R"
223761,"480 N CANTON CENTER RD SUITE 871851","CANTON","MI",48187,42.3140896950001,-83.4875043009999,261,"480 N CANTON CENTER RD SUITE 871851, CANTON, MI, 48187","Match","Non_Exact","480 N CANTON CENTER RD, CANTON, MI, 48187",95408876,"R"
223762,"480 N COUNTY HIGHWAY 393","SANTA ROSA BEACH","FL",32459,30.3796628630001,-86.228873157,262,"480 N COUNTY HIGHWAY 393, SANTA ROSA BEACH, FL, 32459","Match","Exact","480 N CO HWY 393, SANTA ROSA BEACH, FL, 32459",32994970,"R"
223763,"480 N MAIN STORE","WOODSTOCK","VA",22664,NA,NA,263,"480 N MAIN STORE, WOODSTOCK, VA, 22664","No_Match",NA,NA,NA,NA
223764,"480 N SAN JACINTO AVE","SAN JACINTO","CA",92583,NA,NA,264,"480 N SAN JACINTO AVE, SAN JACINTO, CA, 92583","Tie",NA,NA,NA,NA
223765,"480 NEW HOLLAND AVE SUITE 8202","LANCASTER","PA",17602,NA,NA,265,"480 NEW HOLLAND AVE SUITE 8202, LANCASTER, PA, 17602","No_Match",NA,NA,NA,NA
223766,"480 NEW HOLLAND AVENUE APT 7304","LANCASTER","PA",17602,NA,NA,266,"480 NEW HOLLAND AVENUE APT 7304, LANCASTER, PA, 17602","No_Match",NA,NA,NA,NA
223767,"480 NEW HOLLAND AVENUE SUITE 6205","LANCASTER","PA",17602,NA,NA,267,"480 NEW HOLLAND AVENUE SUITE 6205, LANCASTER, PA, 17602","No_Match",NA,NA,NA,NA
223768,"480 NEW HOLLAND AVENUE- SUITE 6204","LANCASTER","PA",17602,NA,NA,268,"480 NEW HOLLAND AVENUE- SUITE 6204, LANCASTER, PA, 17602","No_Match",NA,NA,NA,NA
223769,"480 NICKMAN STREET","CHULA VISTA","CA",91911,32.6131179550001,-117.076851431,269,"480 NICKMAN STREET, CHULA VISTA, CA, 91911","Match","Exact","480 NICKMAN ST, CHULA VISTA, CA, 91911",195704134,"R"
223770,"480 NORTH COUNTRY WAY DRIVE","CORDOVA","TN",38018,35.1383608030001,-89.721649398,270,"480 NORTH COUNTRY WAY DRIVE, CORDOVA, TN, 38018","Match","Exact","480 N COUNTRY WAY DR, CORDOVA, TN, 38018",72974446,"L"
223771,"480 NORTH HEWITT RD","YPSILANTI","MI",48197,42.2463755790001,-83.6475362039999,271,"480 NORTH HEWITT RD, YPSILANTI, MI, 48197","Match","Exact","480 N HEWITT RD, YPSILANTI, MI, 48197",26017903,"R"
223772,"480 NOVA DRIVE SE","MASSILLON","OH",44646,NA,NA,272,"480 NOVA DRIVE SE, MASSILLON, OH, 44646","No_Match",NA,NA,NA,NA
223773,"480 NW 90TH ST","EL PORTAL","FL",33150,25.8573316860001,-80.205091682,273,"480 NW 90TH ST, EL PORTAL, FL, 33150","Match","Exact","480 NW 90TH ST, EL PORTAL, FL, 33150",116003374,"L"
223774,"480 NW TORK PLACE","HILLSBORO","OR",97006,45.524202598,-122.89336436,274,"480 NW TORK PLACE, HILLSBORO, OR, 97006","Match","Exact","480 NW TORK PL, HILLSBORO, OR, 97006",627418998,"R"
223775,"480 OCEAN BLVD 5K","LONG BRANCH","NJ",7740,40.2885000640001,-73.983322317,275,"480 OCEAN BLVD 5K, LONG BRANCH, NJ, 7740","Match","Exact","480 OCEAN BLVD, LONG BRANCH, NJ, 07740",90530100,"R"
223776,"480 OLD STONE RD","RIDGEWOOD","NJ",7450,40.99726796,-74.1291640539999,276,"480 OLD STONE RD, RIDGEWOOD, NJ, 7450","Match","Exact","480 OLD STONE RD, RIDGEWOOD, NJ, 07450",64405077,"L"
223777,"480 OLD STONE ROAD","RIDGEWOOD","NJ",7450,40.99726796,-74.1291640539999,277,"480 OLD STONE ROAD, RIDGEWOOD, NJ, 7450","Match","Exact","480 OLD STONE RD, RIDGEWOOD, NJ, 07450",64405077,"L"
223778,"480 OLD TURNPIKE ROAD","BANNER ELK","NC",28604,36.1611980340001,-81.884863869,278,"480 OLD TURNPIKE ROAD, BANNER ELK, NC, 28604","Match","Exact","480 OLD TURNPIKE RD, BANNER ELK, NC, 28604",36766259,"L"
223779,"480 OTIS AVE","SAINT PAUL","MN",55104,44.95415259,-93.202781457,279,"480 OTIS AVE, SAINT PAUL, MN, 55104","Match","Exact","480 OTIS AVE, SAINT PAUL, MN, 55104",647910429,"R"
223780,"480 PARK A VENUE APARTMENT 20H","NEW YORK","NY",10022,40.7624635270001,-73.970137184,280,"480 PARK A VENUE APARTMENT 20H, NEW YORK, NY, 10022","Match","Non_Exact","480 PARK AVE, NEW YORK, NY, 10022",59657441,"L"
223781,"480 PARKWAY DRIVE","BATTLE CREEK","MI",49037,42.3333171210001,-85.207982391,281,"480 PARKWAY DRIVE, BATTLE CREEK, MI, 49037","Match","Non_Exact","480 PARKWAY DR, BATTLE CREEK, MI, 49017",11723592,"R"
223782,"480 PEACHTREE LANE","BOWLING GREEN","KY",42103,36.919828039,-86.401203954,282,"480 PEACHTREE LANE, BOWLING GREEN, KY, 42103","Match","Exact","480 PEACHTREE LN, BOWLING GREEN, KY, 42103",635504689,"R"
223783,"480 PENHOW CIRCLE","SACRAMENTO","CA",95834,38.6534726150001,-121.534527832,283,"480 PENHOW CIRCLE, SACRAMENTO, CA, 95834","Match","Exact","480 PENHOW CIR, SACRAMENTO, CA, 95834",624948257,"R"
223784,"480 PINE AVE","LONG BEACH","CA",90802,33.772647894,-118.192370113,284,"480 PINE AVE, LONG BEACH, CA, 90802","Match","Exact","480 PINE AVE, LONG BEACH, CA, 90802",653858887,"R"
223785,"480 REDWOOD STREET SUITE 14","VALLEJO","CA",94590,38.1232993140001,-122.258448914,285,"480 REDWOOD STREET SUITE 14, VALLEJO, CA, 94590","Match","Exact","480 REDWOOD ST, VALLEJO, CA, 94590",640041159,"L"
223786,"480 RIO COMMUNITIES BLVD BOX 3","RIO COMMUNITIES","NM",87002,34.644010354,-106.729868668,286,"480 RIO COMMUNITIES BLVD BOX 3, RIO COMMUNITIES, NM, 87002","Match","Exact","480 RIO COMMUNITIES BLVD, RIO COMMUNITIES, NM, 87002",179219738,"L"
223787,"480 RIVER ST PO BOX 20","BELLEVILLE","WI",53508,42.86890901,-89.5330737,287,"480 RIVER ST PO BOX 20, BELLEVILLE, WI, 53508","Match","Exact","480 RIVER ST, BELLEVILLE, WI, 53508",49516892,"R"
223788,"480 ROSEDALE ROAD","DONIPHAN","NE",68832,NA,NA,288,"480 ROSEDALE ROAD, DONIPHAN, NE, 68832","Tie",NA,NA,NA,NA
223789,"480 S 3RD ST SUITE 44","COLUMBUS","OH",43215,39.952182689,-82.995973278,289,"480 S 3RD ST SUITE 44, COLUMBUS, OH, 43215","Match","Non_Exact","480 S 3RD ST, COLUMBUS, OH, 43215",135576803,"L"
223790,"480 S BODMER AVE","STRASBURG","OH",44680,40.5925540800001,-81.530315855,290,"480 S BODMER AVE, STRASBURG, OH, 44680","Match","Exact","480 S BODMER AVE, STRASBURG, OH, 44680",44233858,"L"
223791,"480 S COMMERCE AVENUE SUITE F","FRONT ROYAL","VA",22630,38.912455132,-78.1847536559999,291,"480 S COMMERCE AVENUE SUITE F, FRONT ROYAL, VA, 22630","Match","Non_Exact","480 S COMMERCE AVE, FRONT ROYAL, VA, 22630",639272832,"R"
223792,"480 S PARK BLVD","GLEN ELLYN","IL",60137,41.845142378,-88.062490677,292,"480 S PARK BLVD, GLEN ELLYN, IL, 60137","Match","Exact","480 PARK BLVD, GLEN ELLYN, IL, 60137",651537933,"L"
223793,"480 S RONALD REAGAN BLVD SUITE 1020","LONGWOOD","FL",32750,NA,NA,293,"480 S RONALD REAGAN BLVD SUITE 1020, LONGWOOD, FL, 32750","Tie",NA,NA,NA,NA
223794,"480 SOUTH MAIN STREET","BRADFORD","MA",1835,42.762951528,-71.0866208639999,294,"480 SOUTH MAIN STREET, BRADFORD, MA, 1835","Match","Exact","480 S MAIN ST, BRADFORD, MA, 01835",86685618,"L"
223795,"480 SOUTH PARK STREET","DETROIT","MI",48215,42.3645984450001,-82.946524043,295,"480 SOUTH PARK STREET, DETROIT, MI, 48215","Match","Exact","480 S PARK ST, DETROIT, MI, 48215",95704238,"R"
223796,"480 ST NICHOLAS AVENUE UNIT 15D","NEW YORK","NY",10030,40.815746195,-73.9486439249999,296,"480 ST NICHOLAS AVENUE UNIT 15D, NEW YORK, NY, 10030","Match","Exact","480 ST NICHOLAS AVE, NEW YORK, NY, 10030",59656121,"R"
223797,"480 ST PAUL AVE","FARIBAULT","MN",55021,44.298886678,-93.2488409059999,297,"480 ST PAUL AVE, FARIBAULT, MN, 55021","Match","Exact","480 ST PAUL AVE, FARIBAULT, MN, 55021",640621307,"L"
223798,"480 STAFFORD AVE","SYRACUSE","NY",13206,43.0594511780001,-76.1119262729999,298,"480 STAFFORD AVE, SYRACUSE, NY, 13206","Match","Exact","480 STAFFORD AVE, SYRACUSE, NY, 13206",46572708,"R"
223799,"480 STERLING HILL DR","LAWRENCEVILLE","GA",30046,33.9428853210001,-84.01935596,299,"480 STERLING HILL DR, LAWRENCEVILLE, GA, 30046","Match","Exact","480 STERLING HILL DR, LAWRENCEVILLE, GA, 30046",88936527,"L"
223800,"480 STONEWALL LANE","QUICKSBURG","VA",22847,38.7044700230001,-78.666985971,300,"480 STONEWALL LANE, QUICKSBURG, VA, 22847","Match","Exact","480 STONEWALL LN, QUICKSBURG, VA, 22847",55936213,"R"
223801,"480 STONEY BROOK","KERRVILLE","TX",78028,30.0885558850001,-99.140753584,301,"480 STONEY BROOK, KERRVILLE, TX, 78028","Match","Non_Exact","480 STONEY BROOK RD, KERRVILLE, TX, 78028",176912294,"R"
223802,"480 SW 102 WAY  UNIT 101","PEMBROKE PINES","FL",33025,26.0034357330001,-80.2816063619999,302,"480 SW 102 WAY  UNIT 101, PEMBROKE PINES, FL, 33025","Match","Non_Exact","480 SW 102ND WAY, PEMBROKE PINES, FL, 33025",646576288,"R"
223803,"480 SW REMINGTON CT","LAKE CITY","FL",32024,30.002215463,-82.6064347889999,303,"480 SW REMINGTON CT, LAKE CITY, FL, 32024","Match","Exact","480 SW REMINGTON CT, LAKE CITY, FL, 32024",606859704,"L"
223804,"480 TANGENT STREET","LEBANON","OR",97355,44.5450190830001,-122.914095082,304,"480 TANGENT STREET, LEBANON, OR, 97355","Match","Exact","480 TANGENT ST, LEBANON, OR, 97355",156062213,"L"
223805,"480 TOYON AVENUE SUITE 214","SAN JOSE","CA",95127,37.3836457400001,-121.828082009,305,"480 TOYON AVENUE SUITE 214, SAN JOSE, CA, 95127","Match","Exact","480 TOYON AVE, SAN JOSE, CA, 95127",618191573,"R"
223806,"480 TREASURE LAKE","DUBOIS","PA",15801,41.159741637,-78.717676462,306,"480 TREASURE LAKE, DUBOIS, PA, 15801","Match","Exact","480 TREASURE LAKE, DUBOIS, PA, 15801",50470384,"R"
223807,"480 UNDERWOOD AVE","MONTELLO","WI",53949,43.7951113060001,-89.341070399,307,"480 UNDERWOOD AVE, MONTELLO, WI, 53949","Match","Exact","480 UNDERWOOD AVE, MONTELLO, WI, 53949",611902205,"L"
223808,"480 W 187TH ST APT 5C","NEW YORK","NY",10033,40.8517648380001,-73.9279181969999,308,"480 W 187TH ST APT 5C, NEW YORK, NY, 10033","Match","Non_Exact","480 W 187TH ST, NEW YORK, NY, 10033",59659091,"L"
223809,"480 W BROOKS RD","MEMPHIS","TN",38109,35.0636133720001,-90.08005521,309,"480 W BROOKS RD, MEMPHIS, TN, 38109","Match","Exact","480 W BROOKS RD, MEMPHIS, TN, 38109",72906753,"R"
223810,"480 W CARMEN ST","TEMPE","AZ",85283,33.3596640480001,-111.948763668,310,"480 W CARMEN ST, TEMPE, AZ, 85283","Match","Exact","480 W CARMEN ST, TEMPE, AZ, 85283",128802502,"L"
223811,"480 W HONEY CREEK DRIVE","TERRE HAUTE","IN",47802,NA,NA,311,"480 W HONEY CREEK DRIVE, TERRE HAUTE, IN, 47802","No_Match",NA,NA,NA,NA
223812,"480 W RIVERSIDE DRIVE","BURBANK","CA",91506,34.1613500380001,-118.309799182,312,"480 W RIVERSIDE DRIVE, BURBANK, CA, 91506","Match","Exact","480 W RIVERSIDE DR, BURBANK, CA, 91506",624550866,"L"
223813,"480 WAYSIDE DRIVE","WINSTON SALEM","NC",27107,36.079910329,-80.161308621,313,"480 WAYSIDE DRIVE, WINSTON SALEM, NC, 27107","Match","Exact","480 WAYSIDE DR, WINSTON SALEM, NC, 27107",84671204,"R"
223814,"480 WEST 580 NORTH","CRAWFORDSVILLE","IN",47933,40.1230310020001,-86.913166745,314,"480 WEST 580 NORTH, CRAWFORDSVILLE, IN, 47933","Match","Exact","480 W 580 N, CRAWFORDSVILLE, IN, 47933",29364408,"R"
223815,"480 WEST 78TH STREET SUITE 114","CHANHASSEN","MN",55317,44.8621523990001,-93.533739768,315,"480 WEST 78TH STREET SUITE 114, CHANHASSEN, MN, 55317","Match","Exact","480 W 78TH ST, CHANHASSEN, MN, 55317",43494037,"L"
223816,"480 WEST APPLE STREET","RINGTOWN","PA",17967,40.8559708760001,-76.241387244,316,"480 WEST APPLE STREET, RINGTOWN, PA, 17967","Match","Exact","480 W APPLE ST, RINGTOWN, PA, 17967",70936916,"L"
223817,"480 WEST TOWN ST","COLUMBUS","OH",43215,39.9573346,-83.0128961139999,317,"480 WEST TOWN ST, COLUMBUS, OH, 43215","Match","Exact","480 W TOWN ST, COLUMBUS, OH, 43215",135576359,"R"
223818,"480 WESTGATE ST","PASADENA","CA",91103,34.1651443370001,-118.160813083,318,"480 WESTGATE ST, PASADENA, CA, 91103","Match","Exact","480 WESTGATE ST, PASADENA, CA, 91103",141627586,"L"
223819,"480 WILLIAM AVE E","DASSEL","MN",55325,45.0829908490001,-94.301388791,319,"480 WILLIAM AVE E, DASSEL, MN, 55325","Match","Exact","480 WILLIAM AVE E, DASSEL, MN, 55325",36970527,"R"
223820,"480 WOLCOTT STREET","BRISTOL","CT",6010,41.660130236,-72.959571264,320,"480 WOLCOTT STREET, BRISTOL, CT, 6010","Match","Exact","480 WOLCOTT ST, BRISTOL, CT, 06010",624064440,"R"
223821,"480 YAKIMA RIVER DR","ELLENSBURG","WA",98926,47.083420479,-120.679418943,321,"480 YAKIMA RIVER DR, ELLENSBURG, WA, 98926","Match","Exact","480 YAKIMA RIVER DR, ELLENSBURG, WA, 98926",157204774,"R"
223822,"4800 28TH STREET","BOULDER","CO",80301,40.0621002190001,-105.277003936,322,"4800 28TH STREET, BOULDER, CO, 80301","Match","Exact","4800 28TH ST, BOULDER, CO, 80301",188158589,"R"
223823,"4800 3RD ST UNIT 404","SAN FRANCISCO","CA",94124,37.7347969150001,-122.39082354,323,"4800 3RD ST UNIT 404, SAN FRANCISCO, CA, 94124","Match","Exact","4800 3RD ST, SAN FRANCISCO, CA, 94124",192289918,"R"
223824,"4800 ALPINE PLACE SUITE 12","LAS VEGAS","NV",89107,36.1600164450001,-115.205942407,324,"4800 ALPINE PLACE SUITE 12, LAS VEGAS, NV, 89107","Match","Exact","4800 ALPINE PL, LAS VEGAS, NV, 89107",201861278,"R"
223825,"4800 ARKANSAS AVE NW","WASHINGTON","DC",20011,38.9484380920001,-77.0299398449999,325,"4800 ARKANSAS AVE NW, WASHINGTON, DC, 20011","Match","Exact","4800 ARKANSAS AVE NW, WASHINGTON, DC, 20011",76223437,"L"
223826,"4800 AUBURN AVE SUITE 1606","BETHESDA","MD",20814,38.9908951260001,-77.098986812,326,"4800 AUBURN AVE SUITE 1606, BETHESDA, MD, 20814","Match","Exact","4800 AUBURN AVE, BETHESDA, MD, 20814",62065504,"L"
223827,"4800 AUBURN FOLSOM ROAD SPACE 31","LOOMIS","CA",95650,38.798528418,-121.132427037,327,"4800 AUBURN FOLSOM ROAD SPACE 31, LOOMIS, CA, 95650","Match","Exact","4800 AUBURN FOLSOM RD, LOOMIS, CA, 95650",106809442,"L"
223828,"4800 BASS POINT ROAD","ORLANDO","FL",32820,28.61028428,-81.125059838,328,"4800 BASS POINT ROAD, ORLANDO, FL, 32820","Match","Exact","4800 BASS POINT RD, ORLANDO, FL, 32820",94367382,"R"
223829,"4800 BOARDWALK 1610","VENTNOR","NJ",8406,NA,NA,329,"4800 BOARDWALK 1610, VENTNOR, NJ, 8406","No_Match",NA,NA,NA,NA
223830,"4800 BRIDLE POINT PKWY","SNELLVILLE","GA",30039,33.771912022,-84.0271308759999,330,"4800 BRIDLE POINT PKWY, SNELLVILLE, GA, 30039","Match","Non_Exact","4800 BRIDLE POINT PKWY SW, SNELLVILLE, GA, 30039",634065236,"L"
223831,"4800 CANDACRAIG","ALPHARETTA","GA",30022,34.0357197120001,-84.2203993049999,331,"4800 CANDACRAIG, ALPHARETTA, GA, 30022","Match","Non_Exact","4800 CANDACRAIG RD, ALPHARETTA, GA, 30022",610161337,"L"
223832,"4800 CHEF MENTEUR HWY","NEW ORLEANS","LA",70126,30.0062421100001,-90.033766031,332,"4800 CHEF MENTEUR HWY, NEW ORLEANS, LA, 70126","Match","Exact","4800 CHEF MENTEUR HWY, NEW ORLEANS, LA, 70126",646683316,"L"
223833,"4800 COCHRAN ROAD","ATLANTA","GA",30349,33.598522652,-84.550120584,333,"4800 COCHRAN ROAD, ATLANTA, GA, 30349","Match","Exact","4800 COCHRAN RD, ATLANTA, GA, 30349",642626368,"R"
223834,"4800 CONVICT HILL RD","AUSTIN","TX",78749,30.217729601,-97.8491888679999,334,"4800 CONVICT HILL RD, AUSTIN, TX, 78749","Match","Exact","4800 CONVICT HILL RD, AUSTIN, TX, 78749",647953693,"R"
223835,"4800 DOLPHIN RD","DALLAS","TX",75223,32.781134352,-96.737663314,335,"4800 DOLPHIN RD, DALLAS, TX, 75223","Match","Exact","4800 DOLPHIN RD, DALLAS, TX, 75223",102921574,"R"
223836,"4800 DOUGLAS DRIVE NORTH","CRYSTAL","MN",55429,45.042018043,-93.360151273,336,"4800 DOUGLAS DRIVE NORTH, CRYSTAL, MN, 55429","Match","Exact","4800 DOUGLAS DR N, CRYSTAL, MN, 55429",43617870,"R"
223837,"4800 E 27TH ST PO BOX 270371","KANSAS CITY","MO",64127,39.076288601,-94.527771719,337,"4800 E 27TH ST PO BOX 270371, KANSAS CITY, MO, 64127","Match","Non_Exact","4800 E 27TH ST, KANSAS CITY, MO, 64127",91451504,"L"
223838,"4800 E DOUBLETREE RANCH RD","PARADISE VALLEY","AZ",85253,33.568258047,-111.977332361,338,"4800 E DOUBLETREE RANCH RD, PARADISE VALLEY, AZ, 85253","Match","Exact","4800 E DOUBLETREE RANCH RD, PARADISE VALLEY, AZ, 85253",128354556,"L"
223839,"4800 ELDER STREET","MOSS POINT","MS",39563,30.4058636570001,-88.529133604,339,"4800 ELDER STREET, MOSS POINT, MS, 39563","Match","Exact","4800 ELDER ST, MOSS POINT, MS, 39563",89273669,"R"
223840,"4800 ELMHURST","DETROIT","MI",48204,42.377389759,-83.1342983329999,340,"4800 ELMHURST, DETROIT, MI, 48204","Match","Non_Exact","4800 ELMHURST ST, DETROIT, MI, 48204",95470586,"R"
223841,"4800 EXPRESS DR 19769","CHARLOTTE","NC",28208,35.209205592,-80.940189012,341,"4800 EXPRESS DR 19769, CHARLOTTE, NC, 28208","Match","Exact","4800 EXPRESS DR, CHARLOTTE, NC, 28208",70511663,"R"
223842,"4800 FRICH DRIVE","PITTSBURGH","PA",15227,40.357276949,-79.97425084,342,"4800 FRICH DRIVE, PITTSBURGH, PA, 15227","Match","Exact","4800 FRICH DR, PITTSBURGH, PA, 15227",607612307,"L"
223843,"4800 GLENWAY AVE","CINCINNATI","OH",45238,39.116757691,-84.5974813289999,343,"4800 GLENWAY AVE, CINCINNATI, OH, 45238","Match","Exact","4800 GLENWAY AVE, CINCINNATI, OH, 45238",103918788,"R"
223844,"4800 HAMPDEN LANE SUITE 200","BETHESDA","MD",20814,38.9827310740001,-77.094758839,344,"4800 HAMPDEN LANE SUITE 200, BETHESDA, MD, 20814","Match","Exact","4800 HAMPDEN LN, BETHESDA, MD, 20814",637774532,"L"
223845,"4800 ISLAND VIEW ST","OXNARD","CA",93035,34.185967884,-119.236570118,345,"4800 ISLAND VIEW ST, OXNARD, CA, 93035","Match","Exact","4800 ISLAND VIEW ST, OXNARD, CA, 93035",110115515,"L"
223846,"4800 JACK C HAYS TRAIL","BUDA","TX",78610,NA,NA,346,"4800 JACK C HAYS TRAIL, BUDA, TX, 78610","No_Match",NA,NA,NA,NA
223847,"4800 JACK C HAYS TRL","BUDA","TX",78610,NA,NA,347,"4800 JACK C HAYS TRL, BUDA, TX, 78610","No_Match",NA,NA,NA,NA
223848,"4800 KENNETH COLE ROAD","VANCLEAVE","MS",39565,30.5322536900001,-88.683071227,348,"4800 KENNETH COLE ROAD, VANCLEAVE, MS, 39565","Match","Exact","4800 KENNETH COLE RD, VANCLEAVE, MS, 39565",640017442,"R"
223849,"4800 LABAN ROAD NE","RIO RANCHO","NM",87144,NA,NA,349,"4800 LABAN ROAD NE, RIO RANCHO, NM, 87144","No_Match",NA,NA,NA,NA
223850,"4800 LEO BINGO CT","NEW WASHOE CITY","NV",89704,39.2681237090001,-119.756414539,350,"4800 LEO BINGO CT, NEW WASHOE CITY, NV, 89704","Match","Non_Exact","4800 LEO BINGO CT, WASHOE VALLEY, NV, 89704",107107136,"L"
223851,"4800 LEXINGTON AVE","BELTSVILLE","MD",20705,39.0440424600001,-76.909380918,351,"4800 LEXINGTON AVE, BELTSVILLE, MD, 20705","Match","Exact","4800 LEXINGTON AVE, BELTSVILLE, MD, 20705",76324096,"L"
223852,"4800 LINTON BLVD SUITE D503","DELRAY BEACH","FL",33445,26.439372002,-80.116714675,352,"4800 LINTON BLVD SUITE D503, DELRAY BEACH, FL, 33445","Match","Exact","4800 LINTON BLVD, DELRAY BEACH, FL, 33445",646935828,"L"
223853,"4800 MCADORY SCHOOL ROAD","MCCALLA","AL",35111,33.3316465720001,-87.000041551,353,"4800 MCADORY SCHOOL ROAD, MCCALLA, AL, 35111","Match","Non_Exact","4800 MCADORY SCHOOL RD, MC CALLA, AL, 35111",601257898,"L"
223854,"4800 MEADE STREET NE","WASHINGTON","DC",20019,38.906076673,-76.9326237179999,354,"4800 MEADE STREET NE, WASHINGTON, DC, 20019","Match","Exact","4800 MEADE ST NE, WASHINGTON, DC, 20019",76233337,"L"
223855,"4800 N 22ND STREET","PHOENIX","AZ",85016,33.5065770640001,-112.034534913,355,"4800 N 22ND STREET, PHOENIX, AZ, 85016","Match","Exact","4800 N 22ND ST, PHOENIX, AZ, 85016",128209825,"L"
223856,"4800 N ARDMORE AVENUE","WHITEFISH BAY","WI",53217,43.104042603,-87.894704154,356,"4800 N ARDMORE AVENUE, WHITEFISH BAY, WI, 53217","Match","Exact","4800 N ARDMORE AVE, WHITEFISH BAY, WI, 53217",77743006,"R"
223857,"4800 N CAREER AVE SUITE 225","SIOUX FALLS","SD",57107,43.5999730350001,-96.780744552,357,"4800 N CAREER AVE SUITE 225, SIOUX FALLS, SD, 57107","Match","Non_Exact","4800 N CAREER AVE, SIOUX FALLS, SD, 57107",650945510,"R"
223858,"4800 N DAVIS HIGHWAY","PENSACOLA","FL",32503,30.4665785,-87.224409963,358,"4800 N DAVIS HIGHWAY, PENSACOLA, FL, 32503","Match","Exact","4800 N DAVIS HWY, PENSACOLA, FL, 32503",93250071,"R"
223859,"4800 N DIXIE DR","DAYTON","OH",45414,39.810070006,-84.197268584,359,"4800 N DIXIE DR, DAYTON, OH, 45414","Match","Exact","4800 N DIXIE DR, DAYTON, OH, 45414",143568883,"R"
223860,"4800 NANNIE HELEN BURROUGHS NE 303","WASHINGTON","DC",20019,38.898954766,-76.9335843109999,360,"4800 NANNIE HELEN BURROUGHS NE 303, WASHINGTON, DC, 20019","Match","Non_Exact","4800 NANNIE HELEN BURROUGHS AVE NE, WASHINGTON, DC, 20019",76243572,"L"
223861,"4800 NATURAL BRIDGE","ST LOUIS","MO",63115,38.6738028400001,-90.245978424,361,"4800 NATURAL BRIDGE, ST LOUIS, MO, 63115","Match","Non_Exact","4800 NATURAL BRIDGE AVE, SAINT LOUIS, MO, 63115",107595513,"L"
223862,"4800 NEW HARTFORD ROAD","OWENSBORO","KY",42303,37.7243166160001,-87.083529411,362,"4800 NEW HARTFORD ROAD, OWENSBORO, KY, 42303","Match","Exact","4800 NEW HARTFORD RD, OWENSBORO, KY, 42303",37561191,"R"
223863,"4800 NORTH KENMORE AVENUE UNIT 3","CHICAGO","IL",60640,41.9691112840001,-87.6562263609999,363,"4800 NORTH KENMORE AVENUE UNIT 3, CHICAGO, IL, 60640","Match","Exact","4800 N KENMORE AVE, CHICAGO, IL, 60640",611467221,"L"
223864,"4800 NW 15TH AVENUE SUITE B","FORT LAUDERDALE","FL",33309,26.185645278,-80.1628997669999,364,"4800 NW 15TH AVENUE SUITE B, FORT LAUDERDALE, FL, 33309","Match","Non_Exact","4800 NW 15TH AVE, FORT LAUDERDALE, FL, 33309",640127570,"L"
223865,"4800 OLD CHAPEL HILL ROAD","DURHAM","NC",27707,35.9430909540001,-78.980594711,365,"4800 OLD CHAPEL HILL ROAD, DURHAM, NC, 27707","Match","Exact","4800 OLD CHAPEL HILL RD, DURHAM, NC, 27707",71773036,"R"
223866,"4800 OLD STATE ROAD","NATIONAL CITY","MI",48748,44.313555492,-83.7166234539999,366,"4800 OLD STATE ROAD, NATIONAL CITY, MI, 48748","Match","Exact","4800 OLD STATE RD, NATIONAL CITY, MI, 48748",637153456,"L"
223867,"4800 OLDE MILL POND PLACE","GLEN ALLEN","VA",23060,37.657222297,-77.54871602,367,"4800 OLDE MILL POND PLACE, GLEN ALLEN, VA, 23060","Match","Exact","4800 OLDE MILL POND PL, GLEN ALLEN, VA, 23060",624804301,"L"
223868,"4800 PALUXY DR APT 117","TYLER","TX",75703,32.2977670510001,-95.2787630939999,368,"4800 PALUXY DR APT 117, TYLER, TX, 75703","Match","Exact","4800 PALUXY DR, TYLER, TX, 75703",635752694,"L"
223869,"4800 PARK AVE","MEMPHIS","TN",38117,35.106764813,-89.902020754,369,"4800 PARK AVE, MEMPHIS, TN, 38117","Match","Exact","4800 PARK AVE, MEMPHIS, TN, 38117",72926513,"L"
223870,"4800 PATMORE ASH DRIVE","LOVELAND","CO",80538,40.4415593370001,-105.095445684,370,"4800 PATMORE ASH DRIVE, LOVELAND, CO, 80538","Match","Exact","4800 PATMORE ASH DR, LOVELAND, CO, 80538",640626314,"R"
223871,"4800 PINE ST","COCOA","FL",32926,28.429126211,-80.8269871589999,371,"4800 PINE ST, COCOA, FL, 32926","Match","Exact","4800 PINE ST, COCOA, FL, 32926",93913934,"R"
223872,"4800 PRINTERS WAY APT 4043","FRISCO","TX",75033,33.1571058960001,-96.8475839229999,372,"4800 PRINTERS WAY APT 4043, FRISCO, TX, 75033","Match","Non_Exact","4800 PRINTER'S WAY, FRISCO, TX, 75033",641483092,"L"
223873,"4800 RILEY FUZZEL","SPRING","TX",77386,NA,NA,373,"4800 RILEY FUZZEL, SPRING, TX, 77386","No_Match",NA,NA,NA,NA
223874,"4800 ROUNDING RUN ROAD","CHARLOTTE","NC",28277,35.0839542840001,-80.7904637949999,374,"4800 ROUNDING RUN ROAD, CHARLOTTE, NC, 28277","Match","Exact","4800 ROUNDING RUN RD, CHARLOTTE, NC, 28277",70538822,"L"
223875,"4800 S 60TH ST","GREENFIELD","WI",53220,42.957698184,-87.988551854,375,"4800 S 60TH ST, GREENFIELD, WI, 53220","Match","Exact","4800 S 60TH ST, GREENFIELD, WI, 53220",641664703,"L"
223876,"4800 S CHICAGO BEACH DR APT 2006S","CHICAGO","IL",60615,NA,NA,376,"4800 S CHICAGO BEACH DR APT 2006S, CHICAGO, IL, 60615","No_Match",NA,NA,NA,NA
223877,"4800 S CHICAGO BEACH DR SUITE 1707S","CHICAGO","IL",60615,NA,NA,377,"4800 S CHICAGO BEACH DR SUITE 1707S, CHICAGO, IL, 60615","No_Match",NA,NA,NA,NA
223878,"4800 S CHICAGO BEACH DR/SUITE2705 S","CHICAGO","IL",60615,NA,NA,378,"4800 S CHICAGO BEACH DR/SUITE2705 S, CHICAGO, IL, 60615","No_Match",NA,NA,NA,NA
223879,"4800 S HENDERSON STREET","SEATTLE","WA",98118,47.523311017,-122.272720912,379,"4800 S HENDERSON STREET, SEATTLE, WA, 98118","Match","Exact","4800 S HENDERSON ST, SEATTLE, WA, 98118",186597103,"L"
223880,"4800 S LAKE PARK AVE APT 1302A","CHICAGO","IL",60615,41.808069403,-87.59064324,380,"4800 S LAKE PARK AVE APT 1302A, CHICAGO, IL, 60615","Match","Non_Exact","4800 S LAKE PARK AVE, CHICAGO, IL, 60615",611257661,"R"
223881,"4800 S LAKE PARK AVE UNIT 802A","CHICAGO","IL",60615,41.808069403,-87.59064324,381,"4800 S LAKE PARK AVE UNIT 802A, CHICAGO, IL, 60615","Match","Non_Exact","4800 S LAKE PARK AVE, CHICAGO, IL, 60615",611257661,"R"
223882,"4800 S ST LAWRENCE AVENUE 2S","CHICAGO","IL",60615,41.8074990150001,-87.611413456,382,"4800 S ST LAWRENCE AVENUE 2S, CHICAGO, IL, 60615","Match","Non_Exact","4800 S SAINT LAWRENCE AVE, CHICAGO, IL, 60615",111770900,"R"
223883,"4800 S WHITE MOUNTAIN RD STE A","SHOW LOW","AZ",85901,34.208134961,-110.02250951,383,"4800 S WHITE MOUNTAIN RD STE A, SHOW LOW, AZ, 85901","Match","Non_Exact","4800 S WHITE MOUNTAIN RD, SHOW LOW, AZ, 85901",647278635,"L"
223884,"4800 SACHSE ROAD","SACHSE","TX",75048,32.9732085860001,-96.578096681,384,"4800 SACHSE ROAD, SACHSE, TX, 75048","Match","Exact","4800 SACHSE RD, SACHSE, TX, 75048",102925404,"R"
223885,"4800 SEPULVEDA BLVD APT 411","CULVER CITY","CA",90230,34.001060577,-118.403538173,385,"4800 SEPULVEDA BLVD APT 411, CULVER CITY, CA, 90230","Match","Exact","4800 SEPULVEDA BLVD, CULVER CITY, CA, 90230",141574491,"L"
223886,"4800 SHIREMAN RD","POSEYVILLE","IN",47633,38.107961215,-87.779828664,386,"4800 SHIREMAN RD, POSEYVILLE, IN, 47633","Match","Exact","4800 SHIREMAN RD, POSEYVILLE, IN, 47633",652685833,"L"
223887,"4800 SOUTH CHICAGO BEACH DRIVE","CHICAGO","IL",60615,NA,NA,387,"4800 SOUTH CHICAGO BEACH DRIVE, CHICAGO, IL, 60615","No_Match",NA,NA,NA,NA
223888,"4800 SOUTH ELLIS","CHICAGO","IL",60615,41.807627337,-87.601665222,388,"4800 SOUTH ELLIS, CHICAGO, IL, 60615","Match","Non_Exact","4800 S ELLIS AVE, CHICAGO, IL, 60615",111771521,"R"
223889,"4800 SOUTH LAKE PARK AVENUE 1602-A","CHICAGO","IL",60615,41.808069403,-87.59064324,389,"4800 SOUTH LAKE PARK AVENUE 1602-A, CHICAGO, IL, 60615","Match","Exact","4800 S LAKE PARK AVE, CHICAGO, IL, 60615",611257661,"R"
223890,"4800 SOUTH ROCKFORT RD","BLOOMINGTON","IN",47403,39.1066423410001,-86.576554958,390,"4800 SOUTH ROCKFORT RD, BLOOMINGTON, IN, 47403","Match","Non_Exact","4800 S ROCKPORT RD, BLOOMINGTON, IN, 47403",42325462,"R"
223891,"4800 SOUTH SAGINAW STREET","FLINT","MI",48507,42.9850966820001,-83.675156986,391,"4800 SOUTH SAGINAW STREET, FLINT, MI, 48507","Match","Exact","4800 S SAGINAW ST, FLINT, MI, 48507",69575567,"R"
223892,"4800 SPARKMAN DRIVE","HUNTSVILLE","AL",35810,34.759266989,-86.6350490519999,392,"4800 SPARKMAN DRIVE, HUNTSVILLE, AL, 35810","Match","Non_Exact","4800 SPARKMAN DR NW, HUNTSVILLE, AL, 35810",58153607,"R"
223893,"4800 SUGAR GROVE BLVD STE 320","STAFFORD","TX",77477,29.643232702,-95.583344255,393,"4800 SUGAR GROVE BLVD STE 320, STAFFORD, TX, 77477","Match","Exact","4800 SUGAR GROVE BLVD, STAFFORD, TX, 77477",227773830,"L"
223894,"4800 SUGARGROVE BLVD STE 317","STAFFORD","TX",77477,29.643232702,-95.583344255,394,"4800 SUGARGROVE BLVD STE 317, STAFFORD, TX, 77477","Match","Non_Exact","4800 SUGAR GROVE BLVD, STAFFORD, TX, 77477",227773830,"L"
223895,"4800 SUSQUEHANNA  TRL","TURBOTVILLE","PA",17772,41.099388822,-76.805963664,395,"4800 SUSQUEHANNA  TRL, TURBOTVILLE, PA, 17772","Match","Exact","4800 SUSQUEHANNA TRL, TURBOTVILLE, PA, 17772",48052333,"R"
223896,"4800 SUSQUEHANNA TRAIL","TURBOTVILLE","PA",17772,41.099388822,-76.805963664,396,"4800 SUSQUEHANNA TRAIL, TURBOTVILLE, PA, 17772","Match","Exact","4800 SUSQUEHANNA TRL, TURBOTVILLE, PA, 17772",48052333,"R"
223897,"4800 SW 35TH DRIVE","GAINESVILLE","FL",32608,29.6085759440001,-82.374532704,397,"4800 SW 35TH DRIVE, GAINESVILLE, FL, 32608","Match","Exact","4800 SW 35 DR, GAINESVILLE, FL, 32608",6884852,"R"
223898,"4800 SW GRIFFITH DR STE 320","BEAVERTON","OR",97005,45.483971362,-122.795152041,398,"4800 SW GRIFFITH DR STE 320, BEAVERTON, OR, 97005","Match","Non_Exact","4800 SW GRIFFITH DR, BEAVERTON, OR, 97005",158186718,"L"
223899,"4800 SW MEADOWS RD SUITE 300","LAKE OSWEGO","OR",97035,45.4170684790001,-122.725073207,399,"4800 SW MEADOWS RD SUITE 300, LAKE OSWEGO, OR, 97035","Match","Exact","4800 MEADOWS RD, LAKE OSWEGO, OR, 97035",640615390,"R"
223900,"4800 TIMBER TRAIL DRIVE","MIDDLETOWN","OH",45044,39.505433705,-84.345232465,400,"4800 TIMBER TRAIL DRIVE, MIDDLETOWN, OH, 45044","Match","Exact","4800 TIMBER TRAIL DR, MIDDLETOWN, OH, 45044",113793661,"R"
223901,"4800 TRUMPET CIRCLE","NASHVILLE","TN",37218,36.2271353680001,-86.824779841,401,"4800 TRUMPET CIRCLE, NASHVILLE, TN, 37218","Match","Exact","4800 TRUMPET CIR, NASHVILLE, TN, 37218",97183986,"R"
223902,"4800 W COPANS ROAD","COCONUT CREEK","FL",33063,NA,NA,402,"4800 W COPANS ROAD, COCONUT CREEK, FL, 33063","No_Match",NA,NA,NA,NA
223903,"4800 WATOGA PARK RD","MARLINTON","WV",24954,NA,NA,403,"4800 WATOGA PARK RD, MARLINTON, WV, 24954","No_Match",NA,NA,NA,NA
223904,"4800 WEST HUNDRED RD","CHESTER","VA",23831,37.3513972120001,-77.4564274749999,404,"4800 WEST HUNDRED RD, CHESTER, VA, 23831","Match","Exact","4800 W HUNDRED RD, CHESTER, VA, 23831",201550643,"R"
223905,"4800 WHITE CLAY PIT ROAD","HAINES CITY","FL",33844,NA,NA,405,"4800 WHITE CLAY PIT ROAD, HAINES CITY, FL, 33844","No_Match",NA,NA,NA,NA
223906,"4800","WASHOE VALLEY","NV",89704,NA,NA,406,"4800, WASHOE VALLEY, NV, 89704","No_Match",NA,NA,NA,NA
223907,"4800A NEW HARTFORD ROAD","OWENSBORO","KY",42303,37.724313523,-87.083527567,407,"4800A NEW HARTFORD ROAD, OWENSBORO, KY, 42303","Match","Exact","4800 NEW HARTFORD RD, OWENSBORO, KY, 42303",37561191,"R"
223908,"4801 34TH ST","LUBBOCK","TX",79410,33.5632640760001,-101.913935809,408,"4801 34TH ST, LUBBOCK, TX, 79410","Match","Exact","4801 34TH ST, LUBBOCK, TX, 79410",185250568,"L"
223909,"4801 6TH STREET NE","WASHINGTON","DC",20017,38.948446006,-76.9991241229999,409,"4801 6TH STREET NE, WASHINGTON, DC, 20017","Match","Exact","4801 6TH ST NE, WASHINGTON, DC, 20017",649316890,"R"
223910,"4801 ALEXON WAY","CARMICHAEL","CA",95608,38.651198423,-121.340266347,410,"4801 ALEXON WAY, CARMICHAEL, CA, 95608","Match","Exact","4801 ALEXON WAY, CARMICHAEL, CA, 95608",133342673,"L"
223911,"4801 ALL SAINTS ROAD NW","ALBUQERQUE","NM",87120,35.180682764,-106.670946965,411,"4801 ALL SAINTS ROAD NW, ALBUQERQUE, NM, 87120","Match","Non_Exact","4801 ALL SAINTS RD NW, ALBUQUERQUE, NM, 87120",634631604,"L"
223912,"4801 BETHEL CREEK DRIVE","VERO BEACH","FL",32963,27.669345268,-80.363213969,412,"4801 BETHEL CREEK DRIVE, VERO BEACH, FL, 32963","Match","Exact","4801 BETHEL CREEK DR, VERO BEACH, FL, 32963",120335376,"L"
223913,"4801 BONITA BAY BLVD PH 202","BONITA SPRINGS","FL",34134,26.356575417,-81.8326787399999,413,"4801 BONITA BAY BLVD PH 202, BONITA SPRINGS, FL, 34134","Match","Exact","4801 BONITA BAY BLVD, BONITA SPGS, FL, 34134",650086034,"L"
223914,"4801 BORDEAUX DRIVE","LAKE IN THE HILLS","IL",60156,42.1852934080001,-88.38680412,414,"4801 BORDEAUX DRIVE, LAKE IN THE HILLS, IL, 60156","Match","Exact","4801 BORDEAUX DR, LAKE IN THE HILLS, IL, 60156",636318198,"L"
223915,"4801 CHARLESTON DRIVE","CHARLOTTE","NC",28212,35.191717716,-80.765914918,415,"4801 CHARLESTON DRIVE, CHARLOTTE, NC, 28212","Match","Exact","4801 CHARLESTON DR, CHARLOTTE, NC, 28212",70492338,"L"
223916,"4801 CHURCH ROAD","EVANSVILLE","IN",47720,38.0228801270001,-87.6629015779999,416,"4801 CHURCH ROAD, EVANSVILLE, IN, 47720","Match","Exact","4801 CHURCH RD, EVANSVILLE, IN, 47720",39777491,"L"
223917,"4801 CIMARRON RIDGE DRIVE","BAKERSFIELD","CA",93313,35.274876153,-119.055321621,417,"4801 CIMARRON RIDGE DRIVE, BAKERSFIELD, CA, 93313","Match","Exact","4801 CIMARRON RIDGE DR, BAKERSFIELD, CA, 93313",614127891,"L"
223918,"4801 CONNECTICUT AVE NW APT 404","WASHINGTON","DC",20008,38.9521971450001,-77.068170761,418,"4801 CONNECTICUT AVE NW APT 404, WASHINGTON, DC, 20008","Match","Exact","4801 CONNECTICUT AVE NW, WASHINGTON, DC, 20008",76220416,"R"
223919,"4801 COPLEY LN 140","UPPER MARLBORO","MD",20772,38.8241779430001,-76.760194472,419,"4801 COPLEY LN 140, UPPER MARLBORO, MD, 20772","Match","Exact","4801 COPLEY LN, UPPER MARLBORO, MD, 20772",76344458,"R"
223920,"4801 COUNTRY CLUB BLVD","SOUTH CHARLESTON","WV",25309,38.3463984590001,-81.727697959,420,"4801 COUNTRY CLUB BLVD, SOUTH CHARLESTON, WV, 25309","Match","Exact","4801 COUNTRY CLUB BLVD, S CHARLESTON, WV, 25309",78587777,"L"
223921,"4801 COUNTY ROAD 305","GRANDVIEW","TX",76050,32.2739190990001,-97.293791915,421,"4801 COUNTY ROAD 305, GRANDVIEW, TX, 76050","Match","Exact","4801 CO RD 305, GRANDVIEW, TX, 76050",103551585,"L"
223922,"4801 COURTHOUSE STREET STE 300","WILLIAMSBUG","VA",23188,37.276593189,-76.741924631,422,"4801 COURTHOUSE STREET STE 300, WILLIAMSBUG, VA, 23188","Match","Non_Exact","4801 COURTHOUSE ST, WILLIAMSBURG, VA, 23188",653492763,"R"
223923,"4801 COURTHOUSE STREET STE 300","WILLIAMSBURG","VA",23188,37.276593189,-76.741924631,423,"4801 COURTHOUSE STREET STE 300, WILLIAMSBURG, VA, 23188","Match","Exact","4801 COURTHOUSE ST, WILLIAMSBURG, VA, 23188",653492763,"R"
223924,"4801 COURTHOUSE STREET SUITE 300","WILLIAMSBURG","VA",23188,37.276593189,-76.741924631,424,"4801 COURTHOUSE STREET SUITE 300, WILLIAMSBURG, VA, 23188","Match","Exact","4801 COURTHOUSE ST, WILLIAMSBURG, VA, 23188",653492763,"R"
223925,"4801 DEVERS RD","SOUTHSIDE","TN",37171,36.369662825,-87.323594497,425,"4801 DEVERS RD, SOUTHSIDE, TN, 37171","Match","Exact","4801 DEVERS RD, SOUTHSIDE, TN, 37171",31823436,"R"
223926,"4801 E 41 ST 106","SIOUX FALLS","SD",57110,NA,NA,426,"4801 E 41 ST 106, SIOUX FALLS, SD, 57110","No_Match",NA,NA,NA,NA
223927,"4801 E 65TH ST","INDIANAPOLIS","IN",46220,39.875897448,-86.089502489,427,"4801 E 65TH ST, INDIANAPOLIS, IN, 46220","Match","Exact","4801 E 65TH ST, INDIANAPOLIS, IN, 46220",107995766,"R"
223928,"4801 E BROADWAY BLVD SUITE 501","TUCSON","AZ",85711,32.2215728350001,-110.889967989,428,"4801 E BROADWAY BLVD SUITE 501, TUCSON, AZ, 85711","Match","Non_Exact","4801 E BROADWAY BLVD, TUCSON, AZ, 85711",121203652,"L"
223929,"4801 E OAKVIEW DR","MILTON","WI",53563,42.819129779,-88.9526142999999,429,"4801 E OAKVIEW DR, MILTON, WI, 53563","Match","Exact","4801 E OAKVIEW DR, MILTON, WI, 53563",49860452,"L"
223930,"4801 E SAHARA AVE APT 163","LAS VEGAS","NV",89104,36.1443215080001,-115.069739631,430,"4801 E SAHARA AVE APT 163, LAS VEGAS, NV, 89104","Match","Non_Exact","4801 E SAHARA AVE, LAS VEGAS, NV, 89104",201878321,"R"
223931,"4801 EAST HOFFMAN LANE","SPOKANE","WA",99223,47.5622426800001,-117.345260712,431,"4801 EAST HOFFMAN LANE, SPOKANE, WA, 99223","Match","Exact","4801 E HOFFMAN LN, SPOKANE, WA, 99223",189908061,"L"
223932,"4801 EAST SAHARA AVE APT 42","LAS VEGAS","NV",89104,36.1443215080001,-115.069739631,432,"4801 EAST SAHARA AVE APT 42, LAS VEGAS, NV, 89104","Match","Exact","4801 E SAHARA AVE, LAS VEGAS, NV, 89104",201878321,"R"
223933,"4801 FARBER ROW","COLUMBUS","OH",43221,40.0542575150001,-83.117919461,433,"4801 FARBER ROW, COLUMBUS, OH, 43221","Match","Exact","4801 FARBER ROW, COLUMBUS, OH, 43221",218536789,"R"
223934,"4801 FRANKFORD ROAD - 300","DALLAS","TX",75287,32.9988024640001,-96.825498962,434,"4801 FRANKFORD ROAD - 300, DALLAS, TX, 75287","Match","Exact","4801 FRANKFORD RD, DALLAS, TX, 75287",210494668,"L"
223935,"4801 FRANKLIN AVE ROOM 1132","DES MOINES","IA",50310,41.6112586720001,-93.6828699599999,435,"4801 FRANKLIN AVE ROOM 1132, DES MOINES, IA, 50310","Match","Exact","4801 FRANKLIN AVE, DES MOINES, IA, 50310",65779631,"R"
223936,"4801 GEORGIA AVE NW","WASHINGTON","DC",20011,38.9483181530001,-77.0269316169999,436,"4801 GEORGIA AVE NW, WASHINGTON, DC, 20011","Match","Exact","4801 GEORGIA AVE NW, WASHINGTON, DC, 20011",76223449,"R"
223937,"4801 GLENWOOD AVE STE 200 PMB 471","RALEIGH","NC",27612,35.8432381370001,-78.681334464,437,"4801 GLENWOOD AVE STE 200 PMB 471, RALEIGH, NC, 27612","Match","Exact","4801 GLENWOOD AVE, RALEIGH, NC, 27612",636583732,"L"
223938,"4801 GLENWOOD AVE STE 200","RALEIGH","NC",27612,35.8432381370001,-78.681334464,438,"4801 GLENWOOD AVE STE 200, RALEIGH, NC, 27612","Match","Exact","4801 GLENWOOD AVE, RALEIGH, NC, 27612",636583732,"L"
223939,"4801 GLENWOOD AVE SUITE 200 PMB 521","RALEIGH","NC",27612,35.8432381370001,-78.681334464,439,"4801 GLENWOOD AVE SUITE 200 PMB 521, RALEIGH, NC, 27612","Match","Exact","4801 GLENWOOD AVE, RALEIGH, NC, 27612",636583732,"L"
223940,"4801 GLENWOOD AVE SUITE 200 PMB235","RALEIGH","NC",27612,35.8432381370001,-78.681334464,440,"4801 GLENWOOD AVE SUITE 200 PMB235, RALEIGH, NC, 27612","Match","Exact","4801 GLENWOOD AVE, RALEIGH, NC, 27612",636583732,"L"
223941,"4801 GOOD DR","NEW ORLEANS","LA",70127,30.0243255620001,-89.962047131,441,"4801 GOOD DR, NEW ORLEANS, LA, 70127","Match","Exact","4801 GOOD DR, NEW ORLEANS, LA, 70127",191721843,"R"
223942,"4801 GRANBY WAY","DENVER","CO",80239,39.7790479600001,-104.810679253,442,"4801 GRANBY WAY, DENVER, CO, 80239","Match","Exact","4801 GRANBY WAY, DENVER, CO, 80239",177350324,"R"
223943,"4801 GULF BLVD - 330","ST PETE BEACH","FL",33706,27.7227608740001,-82.7404948879999,443,"4801 GULF BLVD - 330, ST PETE BEACH, FL, 33706","Match","Exact","4801 GULF BLVD, SAINT PETE BEACH, FL, 33706",636396353,"R"
223944,"4801 GULF BLVD SUITE 172","ST PETE BEACH","FL",33706,27.7227608740001,-82.7404948879999,444,"4801 GULF BLVD SUITE 172, ST PETE BEACH, FL, 33706","Match","Exact","4801 GULF BLVD, SAINT PETE BEACH, FL, 33706",636396353,"R"
223945,"4801 HARD SCRABBLE RD","COLUMBIA","SC",29229,34.1726501900001,-80.902907467,445,"4801 HARD SCRABBLE RD, COLUMBIA, SC, 29229","Match","Exact","4801 HARD SCRABBLE RD, COLUMBIA, SC, 29229",645309920,"L"
223946,"4801 HARDSCRABBLE RD","COLUMBIA","SC",29229,34.1726501900001,-80.902907467,446,"4801 HARDSCRABBLE RD, COLUMBIA, SC, 29229","Match","Non_Exact","4801 HARD SCRABBLE RD, COLUMBIA, SC, 29229",645309920,"L"
223947,"4801 HARGROVE ROAD","RALEIGH","NC",27616,35.851963874,-78.592140985,447,"4801 HARGROVE ROAD, RALEIGH, NC, 27616","Match","Exact","4801 HARGROVE RD, RALEIGH, NC, 27616",72596004,"L"
223948,"4801 HARPER DR","MESQUITE","TX",75150,32.831522631,-96.642849757,448,"4801 HARPER DR, MESQUITE, TX, 75150","Match","Exact","4801 HARPER DR, MESQUITE, TX, 75150",102930466,"L"
223949,"4801 HICKORY WOODS DRIVE","GREENSBORO","NC",27410,36.1365952360001,-79.8991015079999,449,"4801 HICKORY WOODS DRIVE, GREENSBORO, NC, 27410","Match","Exact","4801 HICKORY WOODS DR, GREENSBORO, NC, 27410",131088324,"L"
223950,"4801 JOHNSON ROAD SUITE 9","COCONUT CREEK","FL",33073,26.3119550860001,-80.190810182,450,"4801 JOHNSON ROAD SUITE 9, COCONUT CREEK, FL, 33073","Match","Exact","4801 JOHNSON RD, COCONUT CREEK, FL, 33073",640852529,"R"
223951,"4801 KENMORE AVENUE APT 1219","ALEXANDRIA","VA",22304,38.827388285,-77.113328193,451,"4801 KENMORE AVENUE APT 1219, ALEXANDRIA, VA, 22304","Match","Exact","4801 KENMORE AVE, ALEXANDRIA, VA, 22304",638916874,"L"
223952,"4801 LAGUNA BLVD    105-257","ELK GROVE","CA",95758,38.423163636,-121.450198765,452,"4801 LAGUNA BLVD    105-257, ELK GROVE, CA, 95758","Match","Exact","4801 LAGUNA BLVD, ELK GROVE, CA, 95758",133382666,"R"
223953,"4801 LAGUNA BLVD STE 105 381","ELK GROVE","CA",95759,38.423163636,-121.450198765,453,"4801 LAGUNA BLVD STE 105 381, ELK GROVE, CA, 95759","Match","Non_Exact","4801 LAGUNA BLVD, ELK GROVE, CA, 95758",133382666,"R"
223954,"4801 LANG AVENUE NE SUITE 110","ALBUQUERQUE","NM",87109,35.173110557,-106.591755326,454,"4801 LANG AVENUE NE SUITE 110, ALBUQUERQUE, NM, 87109","Match","Exact","4801 LANG AVE NE, ALBUQUERQUE, NM, 87109",645545908,"L"
223955,"4801 LINTON BLVD 11A493","DELRAY BEACH","FL",33445,26.439357591,-80.119193781,455,"4801 LINTON BLVD 11A493, DELRAY BEACH, FL, 33445","Match","Exact","4801 LINTON BLVD, DELRAY BEACH, FL, 33445",646935828,"R"
223956,"4801 MCKNIGHT ROAD SUITE 202","PITTSBURGH","PA",15237,NA,NA,456,"4801 MCKNIGHT ROAD SUITE 202, PITTSBURGH, PA, 15237","No_Match",NA,NA,NA,NA
223957,"4801 N 1ST AVE","TUCSON","AZ",85718,32.294115709,-110.961180694,457,"4801 N 1ST AVE, TUCSON, AZ, 85718","Match","Exact","4801 N 1ST AVE, TUCSON, AZ, 85718",121396465,"L"
223958,"4801 N CAGE BLVD","PHARR","TX",78577,26.236145784,-98.177874811,458,"4801 N CAGE BLVD, PHARR, TX, 78577","Match","Exact","4801 N CAGE BLVD, PHARR, TX, 78577",638414665,"R"
223959,"4801 N CAN ADA RD","STAR","ID",83669,43.740174322,-116.512623992,459,"4801 N CAN ADA RD, STAR, ID, 83669","Match","Exact","4801 N CAN ADA RD, STAR, ID, 83669",648981557,"R"
223960,"4801 N HILLS BLVD APT 1106","NORTH LITTLE ROCK","AR",72116,34.7990162580001,-92.238050839,460,"4801 N HILLS BLVD APT 1106, NORTH LITTLE ROCK, AR, 72116","Match","Non_Exact","4801 N HILLS BLVD, N LITTLE ROCK, AR, 72116",83583972,"L"
223961,"4801 NE 19TH AVE","PORTLAND","OR",97211,45.55780014,-122.645827833,461,"4801 NE 19TH AVE, PORTLAND, OR, 97211","Match","Exact","4801 NE 19TH AVE, PORTLAND, OR, 97211",157505705,"L"
223962,"4801 NW LOOP 410 STE 530","SAN ANTONIO","TX",78229,29.489700462,-98.579400692,462,"4801 NW LOOP 410 STE 530, SAN ANTONIO, TX, 78229","Match","Non_Exact","4801 NW LOOP 410, SAN ANTONIO, TX, 78229",639262359,"R"
223963,"4801 NW75 TH AVE","LAUDERHILL","FL",33319,NA,NA,463,"4801 NW75 TH AVE, LAUDERHILL, FL, 33319","No_Match",NA,NA,NA,NA
223964,"4801 OAKWOOD DR","ST CLOUD","FL",34772,28.1854837290001,-81.2473708649999,464,"4801 OAKWOOD DR, ST CLOUD, FL, 34772","Match","Exact","4801 OAKWOOD DR, SAINT CLOUD, FL, 34772",176661421,"L"
223965,"4801 PACIFIC COAST HIGHWAY","TORRANCE","CA",90503,NA,NA,465,"4801 PACIFIC COAST HIGHWAY, TORRANCE, CA, 90503","No_Match",NA,NA,NA,NA
223966,"4801 PACIFIC COAST HIGHWAY","TORRANCE","CA",90505,NA,NA,466,"4801 PACIFIC COAST HIGHWAY, TORRANCE, CA, 90505","No_Match",NA,NA,NA,NA
223967,"4801 PACIFIC COAST HWY","TORRANCE","CA",90505,NA,NA,467,"4801 PACIFIC COAST HWY, TORRANCE, CA, 90505","No_Match",NA,NA,NA,NA
223968,"4801 PINE ST APT D2","PHILADELPHIA","PA",19143,39.952571226,-75.218424694,468,"4801 PINE ST APT D2, PHILADELPHIA, PA, 19143","Match","Exact","4801 PINE ST, PHILADELPHIA, PA, 19143",131399715,"R"
223969,"4801 POLO COURT","PUEBLO","CO",81001,38.322410205,-104.59381111,469,"4801 POLO COURT, PUEBLO, CO, 81001","Match","Exact","4801 POLO CT, PUEBLO, CO, 81001",105045357,"L"
223970,"4801 RANDOLPH RD","NORTH LITTLE ROCK","AR",72116,34.7988834390001,-92.241744378,470,"4801 RANDOLPH RD, NORTH LITTLE ROCK, AR, 72116","Match","Exact","4801 RANDOLPH RD, N LITTLE ROCK, AR, 72116",83514303,"L"
223971,"4801 REEDY BRANCH ROAD","WINTERVILLE","NC",28590,35.5339287350001,-77.4159880989999,471,"4801 REEDY BRANCH ROAD, WINTERVILLE, NC, 28590","Match","Exact","4801 REEDY BRANCH RD, WINTERVILLE, NC, 28590",80037429,"R"
223972,"4801 S 26TH ST","MCALLEN","TX",78503,26.164223808,-98.2562819839999,472,"4801 S 26TH ST, MCALLEN, TX, 78503","Match","Exact","4801 S 26TH ST, MCALLEN, TX, 78503",71500769,"L"
223973,"4801 S ASHLAND AVE","CHICAGO","IL",60609,41.806639245,-87.6649074749999,473,"4801 S ASHLAND AVE, CHICAGO, IL, 60609","Match","Exact","4801 S ASHLAND AVE, CHICAGO, IL, 60609",111805232,"L"
223974,"4801 S UNIVERSITY DRIVE STE 2080","DAVIE","FL",33328,26.0616213980001,-80.2522387559999,474,"4801 S UNIVERSITY DRIVE STE 2080, DAVIE, FL, 33328","Match","Non_Exact","4801 S UNIVERSITY DR, DAVIE, FL, 33328",648550329,"R"
223975,"4801 SAPONI VILLAGE TRAIL","WINSTON-SALEM","NC",27127,36.0109558840001,-80.283147153,475,"4801 SAPONI VILLAGE TRAIL, WINSTON-SALEM, NC, 27127","Match","Exact","4801 SAPONI VILLAGE TRL, WINSTON SALEM, NC, 27127",84639198,"L"
223976,"4801 SIPPLE AVENUE","BALTIMORE","MD",21206,39.3288180060001,-76.5504589829999,476,"4801 SIPPLE AVENUE, BALTIMORE, MD, 21206","Match","Exact","4801 SIPPLE AVE, BALTIMORE, MD, 21206",206411764,"R"
223977,"4801 SOUTHSIDE DRIVE","LOUISVILLE","KY",40214,38.1790525580001,-85.764721999,477,"4801 SOUTHSIDE DRIVE, LOUISVILLE, KY, 40214","Match","Exact","4801 SOUTHSIDE DR, LOUISVILLE, KY, 40214",96848958,"L"
223978,"4801 SOUTHWEST PKY PARKWAY2 STE 150","AUSTIN","TX",78735,30.239894889,-97.831798027,478,"4801 SOUTHWEST PKY PARKWAY2 STE 150, AUSTIN, TX, 78735","Match","Exact","4801 SOUTHWEST PKWY, AUSTIN, TX, 78735",641678823,"L"
223979,"4801 SPRINGFIELD ST","DAYTON","OH",45431,39.780869447,-84.128415106,479,"4801 SPRINGFIELD ST, DAYTON, OH, 45431","Match","Exact","4801 SPRINGFIELD ST, DAYTON, OH, 45431",143575754,"L"
223980,"4801 SPRINGFIELD STREET","DAYTON","OH",45431,39.780869447,-84.128415106,480,"4801 SPRINGFIELD STREET, DAYTON, OH, 45431","Match","Exact","4801 SPRINGFIELD ST, DAYTON, OH, 45431",143575754,"L"
223981,"4801 SPRINGVIEW DR","BANNING","CA",92220,33.9294104190001,-116.929078139,481,"4801 SPRINGVIEW DR, BANNING, CA, 92220","Match","Non_Exact","4801 SPRING VIEW DR, BANNING, CA, 92220",195047333,"L"
223982,"4801 STUDBURY HALL CT","WAKE FOREST","NC",27587,NA,NA,482,"4801 STUDBURY HALL CT, WAKE FOREST, NC, 27587","No_Match",NA,NA,NA,NA
223983,"4801 SUN VALLEY DR","EL PASO","TX",79924,31.912568693,-106.433203231,483,"4801 SUN VALLEY DR, EL PASO, TX, 79924","Match","Exact","4801 SUN VALLEY DR, EL PASO, TX, 79924",189337783,"L"
223984,"4801 TWIN HICKORY ROAD","GLEN ALLEN","VA",23059,37.673364522,-77.602331568,484,"4801 TWIN HICKORY ROAD, GLEN ALLEN, VA, 23059","Match","Exact","4801 TWIN HICKORY RD, GLEN ALLEN, VA, 23059",106687164,"R"
223985,"4801 US HIGHWAY 3","BILLINGS","MT",59106,45.823015673,-108.635673452,485,"4801 US HIGHWAY 3, BILLINGS, MT, 59106","Match","Exact","4801 US HWY 3, BILLINGS, MT, 59106",635522573,"R"
223986,"4801 W PETERSON AVE ROOM 210","CHICAGO","IL",60646,41.9898406980001,-87.748438503,486,"4801 W PETERSON AVE ROOM 210, CHICAGO, IL, 60646","Match","Non_Exact","4801 W PETERSON AVE, CHICAGO, IL, 60646",639790040,"L"
223987,"4801 W TEN RD","EFLAND","NC",27243,36.0697541230001,-79.195642116,487,"4801 W TEN RD, EFLAND, NC, 27243","Match","Exact","4801 W TEN RD, EFLAND, NC, 27243",72425081,"R"
223988,"4801 WASHINGTON BLVD","INDIANAPOLIS","IN",46205,39.841727785,-86.152292879,488,"4801 WASHINGTON BLVD, INDIANAPOLIS, IN, 46205","Match","Non_Exact","4801 N WASHINGTON BLVD, INDIANAPOLIS, IN, 46205",107984380,"R"
223989,"4801 WAUKESHA ST","MADISON","WI",53705,43.066006965,-89.4590243069999,489,"4801 WAUKESHA ST, MADISON, WI, 53705","Match","Exact","4801 WAUKESHA ST, MADISON, WI, 53705",49530047,"L"
223990,"4801 WEST 41 STREET","ST. LOUIS PARK","MN",55416,44.9289374690001,-93.340824241,490,"4801 WEST 41 STREET, ST. LOUIS PARK, MN, 55416","Match","Exact","4801 W 41ST ST, SAINT LOUIS PARK, MN, 55416",43626088,"L"
223991,"4801 WEST 41ST ST","SIOUX FALLS","SD",57106,43.5148150960001,-96.785383284,491,"4801 WEST 41ST ST, SIOUX FALLS, SD, 57106","Match","Exact","4801 W 41ST ST, SIOUX FALLS, SD, 57106",34970591,"L"
223992,"4801 WEST MAIN STREET SUITE 1","DOTHAN","AL",36305,31.2375287830001,-85.464883013,492,"4801 WEST MAIN STREET SUITE 1, DOTHAN, AL, 36305","Match","Exact","4801 W MAIN ST, DOTHAN, AL, 36305",101212195,"R"
223993,"4801 WILSHIRE BLVD STE 301","LOS ANGELES","CA",90010,34.062043524,-118.334553292,493,"4801 WILSHIRE BLVD STE 301, LOS ANGELES, CA, 90010","Match","Exact","4801 WILSHIRE BLVD, LOS ANGELES, CA, 90010",141600355,"R"
223994,"4801 ZION HILL RD","WEATHERFORD","TX",76088,32.872917984,-97.823441529,494,"4801 ZION HILL RD, WEATHERFORD, TX, 76088","Match","Exact","4801 ZION HILL RD, WEATHERFORD, TX, 76088",636351824,"L"
223995,"48016 RIVERSIDE PLACE","SIOUX FALLS","SD",57108,43.493417171,-96.604445805,495,"48016 RIVERSIDE PLACE, SIOUX FALLS, SD, 57108","Match","Exact","48016 RIVERSIDE PL, SIOUX FALLS, SD, 57108",176328321,"R"
223996,"4802 48TH ST APT 3CR","FLUSHING","NY",11377,NA,NA,496,"4802 48TH ST APT 3CR, FLUSHING, NY, 11377","No_Match",NA,NA,NA,NA
223997,"4802 51ST STREET W  APT 1501","BRADENTON","FL",34210,NA,NA,497,"4802 51ST STREET W  APT 1501, BRADENTON, FL, 34210","No_Match",NA,NA,NA,NA
223998,"4802 CHAPEL RIDGE DR","GREENSBORO","NC",27405,36.14254371,-79.762922727,498,"4802 CHAPEL RIDGE DR, GREENSBORO, NC, 27405","Match","Exact","4802 CHAPEL RIDGE DR, GREENSBORO, NC, 27405",623949570,"R"
223999,"4802 CUMBERLAND RD","TUSCALOOSA","AL",35404,33.2046017660001,-87.475886037,499,"4802 CUMBERLAND RD, TUSCALOOSA, AL, 35404","Match","Exact","4802 CUMBERLAND RD, TUSCALOOSA, AL, 35404",82203450,"R"
224000,"4802 E RAY RD SUITE 23-264","PHOENIX","AZ",85044,33.3198501110001,-111.980069132,500,"4802 E RAY RD SUITE 23-264, PHOENIX, AZ, 85044","Match","Non_Exact","4802 E RAY RD, PHOENIX, AZ, 85044",128811132,"L"
