"ID","Address","City","State","Zip","lat","long","id","input_address","match_indicator","match_type","matched_address","tiger_line_id","tiger_side"
342001,"PO BOX 2585","HICKORY","NC",28603,NA,NA,1,"PO BOX 2585, HICKORY, NC, 28603","No_Match",NA,NA,NA,NA
342002,"PO BOX 2586","MARTINSBURG","WV",25402,NA,NA,2,"PO BOX 2586, MARTINSBURG, WV, 25402","No_Match",NA,NA,NA,NA
342003,"PO BOX 2587","FT WORTH","TX",76113,NA,NA,3,"PO BOX 2587, FT WORTH, TX, 76113","No_Match",NA,NA,NA,NA
342004,"PO BOX 2587","MANDEVILLE","LA",70470,NA,NA,4,"PO BOX 2587, MANDEVILLE, LA, 70470","No_Match",NA,NA,NA,NA
342005,"PO BOX 2587","VANCOUVER","WA",98668,NA,NA,5,"PO BOX 2587, VANCOUVER, WA, 98668","No_Match",NA,NA,NA,NA
342006,"PO BOX 2588 - 615 MAIN STREET","NIAGARA FALLS","NY",14302,43.1124981740001,-79.055254346,6,"PO BOX 2588 - 615 MAIN STREET, NIAGARA FALLS, NY, 14302","Match","Non_Exact","2588 MAIN ST, NIAGARA FALLS, NY, 14305",48683499,"L"
342007,"PO BOX 2588","IRMO","SC",29063,NA,NA,7,"PO BOX 2588, IRMO, SC, 29063","No_Match",NA,NA,NA,NA
342008,"PO BOX 2588","TUCSON","AZ",85702,NA,NA,8,"PO BOX 2588, TUCSON, AZ, 85702","No_Match",NA,NA,NA,NA
342009,"PO BOX 25884","SAINT LOUIS","MO",63136,NA,NA,9,"PO BOX 25884, SAINT LOUIS, MO, 63136","No_Match",NA,NA,NA,NA
342010,"PO BOX 259","EAST SETAUKET","NY",11733,NA,NA,10,"PO BOX 259, EAST SETAUKET, NY, 11733","No_Match",NA,NA,NA,NA
342011,"PO BOX 259","FORT COLLINS","CO",80522,NA,NA,11,"PO BOX 259, FORT COLLINS, CO, 80522","No_Match",NA,NA,NA,NA
342012,"PO BOX 259","KATY","TX",77492,NA,NA,12,"PO BOX 259, KATY, TX, 77492","No_Match",NA,NA,NA,NA
342013,"PO BOX 259","LINCOLNSHIRE","IL",60069,NA,NA,13,"PO BOX 259, LINCOLNSHIRE, IL, 60069","No_Match",NA,NA,NA,NA
342014,"PO BOX 2590","EDWARDS","CO",81632,NA,NA,14,"PO BOX 2590, EDWARDS, CO, 81632","No_Match",NA,NA,NA,NA
342015,"PO BOX 25903","FRESNO","CA",93729,NA,NA,15,"PO BOX 25903, FRESNO, CA, 93729","No_Match",NA,NA,NA,NA
342016,"PO BOX 2591","ANDERSON","SC",29622,NA,NA,16,"PO BOX 2591, ANDERSON, SC, 29622","No_Match",NA,NA,NA,NA
342017,"PO BOX 2591","SLIDELL","LA",70459,NA,NA,17,"PO BOX 2591, SLIDELL, LA, 70459","No_Match",NA,NA,NA,NA
342018,"PO BOX 25915","FAYETTEVILLE","NC",28314,NA,NA,18,"PO BOX 25915, FAYETTEVILLE, NC, 28314","No_Match",NA,NA,NA,NA
342019,"PO BOX 2592","HALLANDALE","FL",33008,NA,NA,19,"PO BOX 2592, HALLANDALE, FL, 33008","No_Match",NA,NA,NA,NA
342020,"PO BOX 2592","HINDMAN","KY",41822,NA,NA,20,"PO BOX 2592, HINDMAN, KY, 41822","No_Match",NA,NA,NA,NA
342021,"PO BOX 2592","LITCHFIELD PARK","AZ",85340,NA,NA,21,"PO BOX 2592, LITCHFIELD PARK, AZ, 85340","No_Match",NA,NA,NA,NA
342022,"PO BOX 25928","HONOLULU","HI",96825,NA,NA,22,"PO BOX 25928, HONOLULU, HI, 96825","No_Match",NA,NA,NA,NA
342023,"PO BOX 2593","NEW YORK","NY",10008,NA,NA,23,"PO BOX 2593, NEW YORK, NY, 10008","No_Match",NA,NA,NA,NA
342024,"PO BOX 25933","TEMPE","AZ",85285,NA,NA,24,"PO BOX 25933, TEMPE, AZ, 85285","No_Match",NA,NA,NA,NA
342025,"PO BOX 2594","COLUMBIA","SC",29202,NA,NA,25,"PO BOX 2594, COLUMBIA, SC, 29202","No_Match",NA,NA,NA,NA
342026,"PO BOX 2594","CONWAY","AR",72033,NA,NA,26,"PO BOX 2594, CONWAY, AR, 72033","No_Match",NA,NA,NA,NA
342027,"PO BOX 2594","DALLAS","GA",30132,NA,NA,27,"PO BOX 2594, DALLAS, GA, 30132","No_Match",NA,NA,NA,NA
342028,"PO BOX 2594","ISABELA","PR",662,NA,NA,28,"PO BOX 2594, ISABELA, PR, 662","No_Match",NA,NA,NA,NA
342029,"PO BOX 2594","NYSSA","OR",97913,NA,NA,29,"PO BOX 2594, NYSSA, OR, 97913","No_Match",NA,NA,NA,NA
342030,"PO BOX 2594","WESTMINSTER","MD",21158,NA,NA,30,"PO BOX 2594, WESTMINSTER, MD, 21158","No_Match",NA,NA,NA,NA
342031,"PO BOX 2595","ISABELA","PR",662,NA,NA,31,"PO BOX 2595, ISABELA, PR, 662","No_Match",NA,NA,NA,NA
342032,"PO BOX 259504","MADISON","WI",53725,NA,NA,32,"PO BOX 259504, MADISON, WI, 53725","No_Match",NA,NA,NA,NA
342033,"PO BOX 2596","ALLIANCE","OH",44601,NA,NA,33,"PO BOX 2596, ALLIANCE, OH, 44601","No_Match",NA,NA,NA,NA
342034,"PO BOX 2596","BISMARCK","ND",58502,NA,NA,34,"PO BOX 2596, BISMARCK, ND, 58502","No_Match",NA,NA,NA,NA
342035,"PO BOX 2596","FRISCO","TX",75034,NA,NA,35,"PO BOX 2596, FRISCO, TX, 75034","No_Match",NA,NA,NA,NA
342036,"PO BOX 2596","SIOUX CITY","IA",51106,NA,NA,36,"PO BOX 2596, SIOUX CITY, IA, 51106","No_Match",NA,NA,NA,NA
342037,"PO BOX 2597","AMAGANSETT","NY",11930,NA,NA,37,"PO BOX 2597, AMAGANSETT, NY, 11930","No_Match",NA,NA,NA,NA
342038,"PO BOX 2597","SANTA CRUZ","CA",95063,NA,NA,38,"PO BOX 2597, SANTA CRUZ, CA, 95063","No_Match",NA,NA,NA,NA
342039,"PO BOX 25976","TAMARAC","FL",33320,NA,NA,39,"PO BOX 25976, TAMARAC, FL, 33320","No_Match",NA,NA,NA,NA
342040,"PO BOX 259852","MADISON","WI",53725,NA,NA,40,"PO BOX 259852, MADISON, WI, 53725","No_Match",NA,NA,NA,NA
342041,"PO BOX 259883","MADISON","WI",53725,NA,NA,41,"PO BOX 259883, MADISON, WI, 53725","No_Match",NA,NA,NA,NA
342042,"PO BOX 259914","MADISON","WI",53715,NA,NA,42,"PO BOX 259914, MADISON, WI, 53715","No_Match",NA,NA,NA,NA
342043,"PO BOX 259926","MADISON","WI",53725,NA,NA,43,"PO BOX 259926, MADISON, WI, 53725","No_Match",NA,NA,NA,NA
342044,"PO BOX 26          1950 LOCK BERLIN","LYONS","NY",14489,NA,NA,44,"PO BOX 26          1950 LOCK BERLIN, LYONS, NY, 14489","No_Match",NA,NA,NA,NA
342045,"PO BOX 26","CARIBOU","ME",4736,NA,NA,45,"PO BOX 26, CARIBOU, ME, 4736","No_Match",NA,NA,NA,NA
342046,"PO BOX 26","CORNWALL","CT",6753,NA,NA,46,"PO BOX 26, CORNWALL, CT, 6753","No_Match",NA,NA,NA,NA
342047,"PO BOX 26","DEER HARBOR","WA",98243,NA,NA,47,"PO BOX 26, DEER HARBOR, WA, 98243","No_Match",NA,NA,NA,NA
342048,"PO BOX 26","FAIRMONT","NC",28340,NA,NA,48,"PO BOX 26, FAIRMONT, NC, 28340","No_Match",NA,NA,NA,NA
342049,"PO BOX 26","FREDERIKSTED","VI",841,NA,NA,49,"PO BOX 26, FREDERIKSTED, VI, 841","No_Match",NA,NA,NA,NA
342050,"PO BOX 26","HAME","SC",29547,NA,NA,50,"PO BOX 26, HAME, SC, 29547","No_Match",NA,NA,NA,NA
342051,"PO BOX 26","HAMILTON","GA",31811,NA,NA,51,"PO BOX 26, HAMILTON, GA, 31811","No_Match",NA,NA,NA,NA
342052,"PO BOX 26","HINESVILLE","GA",31310,NA,NA,52,"PO BOX 26, HINESVILLE, GA, 31310","No_Match",NA,NA,NA,NA
342053,"PO BOX 26","IMPERIAL","CA",92251,NA,NA,53,"PO BOX 26, IMPERIAL, CA, 92251","No_Match",NA,NA,NA,NA
342054,"PO BOX 26","KULPMONT","PA",17834,NA,NA,54,"PO BOX 26, KULPMONT, PA, 17834","No_Match",NA,NA,NA,NA
342055,"PO BOX 26","LINESVILLE","PA",16424,NA,NA,55,"PO BOX 26, LINESVILLE, PA, 16424","No_Match",NA,NA,NA,NA
342056,"PO BOX 26","MINOT","ND",58702,NA,NA,56,"PO BOX 26, MINOT, ND, 58702","No_Match",NA,NA,NA,NA
342057,"PO BOX 26","MORRISTOWN","IN",46161,NA,NA,57,"PO BOX 26, MORRISTOWN, IN, 46161","No_Match",NA,NA,NA,NA
342058,"PO BOX 26","NORFOLK","CT",6058,NA,NA,58,"PO BOX 26, NORFOLK, CT, 6058","No_Match",NA,NA,NA,NA
342059,"PO BOX 26","NORTH MANCHESTER","IN",46962,NA,NA,59,"PO BOX 26, NORTH MANCHESTER, IN, 46962","No_Match",NA,NA,NA,NA
342060,"PO BOX 26","OLEMA","CA",94950,NA,NA,60,"PO BOX 26, OLEMA, CA, 94950","No_Match",NA,NA,NA,NA
342061,"PO BOX 26","PETALUMA","CA",94953,NA,NA,61,"PO BOX 26, PETALUMA, CA, 94953","No_Match",NA,NA,NA,NA
342062,"PO BOX 26","REAGAN","TX",76680,NA,NA,62,"PO BOX 26, REAGAN, TX, 76680","No_Match",NA,NA,NA,NA
342063,"PO BOX 26","SIMPSON","IL",62985,NA,NA,63,"PO BOX 26, SIMPSON, IL, 62985","No_Match",NA,NA,NA,NA
342064,"PO BOX 26","STANDISH","ME",4084,NA,NA,64,"PO BOX 26, STANDISH, ME, 4084","No_Match",NA,NA,NA,NA
342065,"PO BOX 26","STEVINSON","CA",95374,NA,NA,65,"PO BOX 26, STEVINSON, CA, 95374","No_Match",NA,NA,NA,NA
342066,"PO BOX 26","VIOLA","WI",54664,NA,NA,66,"PO BOX 26, VIOLA, WI, 54664","No_Match",NA,NA,NA,NA
342067,"PO BOX 26","WILMINGTON","OH",45177,NA,NA,67,"PO BOX 26, WILMINGTON, OH, 45177","No_Match",NA,NA,NA,NA
342068,"PO BOX 26","YAZOO CITY","MS",39194,NA,NA,68,"PO BOX 26, YAZOO CITY, MS, 39194","No_Match",NA,NA,NA,NA
342069,"PO BOX 260","BENSON","AZ",85602,NA,NA,69,"PO BOX 260, BENSON, AZ, 85602","No_Match",NA,NA,NA,NA
342070,"PO BOX 260","BRIARCLIFF","NY",10510,NA,NA,70,"PO BOX 260, BRIARCLIFF, NY, 10510","No_Match",NA,NA,NA,NA
342071,"PO BOX 260","CARLISLE","PA",17013,NA,NA,71,"PO BOX 260, CARLISLE, PA, 17013","No_Match",NA,NA,NA,NA
342072,"PO BOX 260","CENTRAL SQUARE","NY",13036,NA,NA,72,"PO BOX 260, CENTRAL SQUARE, NY, 13036","No_Match",NA,NA,NA,NA
342073,"PO BOX 260","EAST HANOVER","NJ",7936,NA,NA,73,"PO BOX 260, EAST HANOVER, NJ, 7936","No_Match",NA,NA,NA,NA
342074,"PO BOX 260","FREMONT","CA",94537,NA,NA,74,"PO BOX 260, FREMONT, CA, 94537","No_Match",NA,NA,NA,NA
342075,"PO BOX 260","KUALAPUU","HI",96757,NA,NA,75,"PO BOX 260, KUALAPUU, HI, 96757","No_Match",NA,NA,NA,NA
342076,"PO BOX 260","NEW YORK","NY",10116,NA,NA,76,"PO BOX 260, NEW YORK, NY, 10116","No_Match",NA,NA,NA,NA
342077,"PO BOX 260","SAVOY","IL",61874,NA,NA,77,"PO BOX 260, SAVOY, IL, 61874","No_Match",NA,NA,NA,NA
342078,"PO BOX 260","WAVERLY","FL",33877,NA,NA,78,"PO BOX 260, WAVERLY, FL, 33877","No_Match",NA,NA,NA,NA
342079,"PO BOX 260046","MADISON","WI",53726,NA,NA,79,"PO BOX 260046, MADISON, WI, 53726","No_Match",NA,NA,NA,NA
342080,"PO BOX 260056","CORPUS CHRISTI","TX",78426,NA,NA,80,"PO BOX 260056, CORPUS CHRISTI, TX, 78426","No_Match",NA,NA,NA,NA
342081,"PO BOX 2601","WILMINGTON","DE",19805,NA,NA,81,"PO BOX 2601, WILMINGTON, DE, 19805","No_Match",NA,NA,NA,NA
342082,"PO BOX 26011","ANAHEIM","CA",92825,NA,NA,82,"PO BOX 26011, ANAHEIM, CA, 92825","No_Match",NA,NA,NA,NA
342083,"PO BOX 260138","MARTIN CITY","MT",59926,NA,NA,83,"PO BOX 260138, MARTIN CITY, MT, 59926","No_Match",NA,NA,NA,NA
342084,"PO BOX 260151","PEMBROKE PINES","FL",33026,NA,NA,84,"PO BOX 260151, PEMBROKE PINES, FL, 33026","No_Match",NA,NA,NA,NA
342085,"PO BOX 260185","MADISON","WI",53726,NA,NA,85,"PO BOX 260185, MADISON, WI, 53726","No_Match",NA,NA,NA,NA
342086,"PO BOX 260196","MADISON","WI",53726,NA,NA,86,"PO BOX 260196, MADISON, WI, 53726","No_Match",NA,NA,NA,NA
342087,"PO BOX 260205","LAKEWOOD","CO",80226,NA,NA,87,"PO BOX 260205, LAKEWOOD, CO, 80226","No_Match",NA,NA,NA,NA
342088,"PO BOX 260278","BELLEROSE","NY",11426,NA,NA,88,"PO BOX 260278, BELLEROSE, NY, 11426","No_Match",NA,NA,NA,NA
342089,"PO BOX 260299","HARTFORD","CT",6126,NA,NA,89,"PO BOX 260299, HARTFORD, CT, 6126","No_Match",NA,NA,NA,NA
342090,"PO BOX 2603","LUBBOCK","TX",79408,NA,NA,90,"PO BOX 2603, LUBBOCK, TX, 79408","No_Match",NA,NA,NA,NA
342091,"PO BOX 2603","PALM BEACH","FL",33480,NA,NA,91,"PO BOX 2603, PALM BEACH, FL, 33480","No_Match",NA,NA,NA,NA
342092,"PO BOX 2603","POWDER SPRINGS","GA",30127,NA,NA,92,"PO BOX 2603, POWDER SPRINGS, GA, 30127","No_Match",NA,NA,NA,NA
342093,"PO BOX 2603","WHITEHOUSE","OH",43571,NA,NA,93,"PO BOX 2603, WHITEHOUSE, OH, 43571","No_Match",NA,NA,NA,NA
342094,"PO BOX 2604","EVERGREEN","CO",80437,NA,NA,94,"PO BOX 2604, EVERGREEN, CO, 80437","No_Match",NA,NA,NA,NA
342095,"PO BOX 2604","SUWANEE","GA",30024,NA,NA,95,"PO BOX 2604, SUWANEE, GA, 30024","No_Match",NA,NA,NA,NA
342096,"PO BOX 26042","LANSING","MI",48909,NA,NA,96,"PO BOX 26042, LANSING, MI, 48909","No_Match",NA,NA,NA,NA
342097,"PO BOX 26043","LITTLE ROCK","AR",72221,NA,NA,97,"PO BOX 26043, LITTLE ROCK, AR, 72221","No_Match",NA,NA,NA,NA
342098,"PO BOX 26045","SCOTTSDALE","AZ",85255,NA,NA,98,"PO BOX 26045, SCOTTSDALE, AZ, 85255","No_Match",NA,NA,NA,NA
342099,"PO BOX 260458","HARTFORD","CT",6126,NA,NA,99,"PO BOX 260458, HARTFORD, CT, 6126","No_Match",NA,NA,NA,NA
342100,"PO BOX 26050","PLANO","TX",75074,NA,NA,100,"PO BOX 26050, PLANO, TX, 75074","No_Match",NA,NA,NA,NA
342101,"PO BOX 26053","KANSAS CITY","MO",64196,NA,NA,101,"PO BOX 26053, KANSAS CITY, MO, 64196","No_Match",NA,NA,NA,NA
342102,"PO BOX 260531","CORPUS CHRISTI","TX",78426,NA,NA,102,"PO BOX 260531, CORPUS CHRISTI, TX, 78426","No_Match",NA,NA,NA,NA
342103,"PO BOX 2606","DUNEDIN","FL",34697,NA,NA,103,"PO BOX 2606, DUNEDIN, FL, 34697","No_Match",NA,NA,NA,NA
342104,"PO BOX 2606","LEAGUE CITY","TX",77574,NA,NA,104,"PO BOX 2606, LEAGUE CITY, TX, 77574","No_Match",NA,NA,NA,NA
342105,"PO BOX 26061","LANSING","MI",48909,NA,NA,105,"PO BOX 26061, LANSING, MI, 48909","No_Match",NA,NA,NA,NA
342106,"PO BOX 260613","PEMBROKE PINES","FL",33026,NA,NA,106,"PO BOX 260613, PEMBROKE PINES, FL, 33026","No_Match",NA,NA,NA,NA
342107,"PO BOX 260636","BROOKLYN","NY",11226,NA,NA,107,"PO BOX 260636, BROOKLYN, NY, 11226","No_Match",NA,NA,NA,NA
342108,"PO BOX 260636","MATTAPAN","MA",2126,NA,NA,108,"PO BOX 260636, MATTAPAN, MA, 2126","No_Match",NA,NA,NA,NA
342109,"PO BOX 26073","PHOENIX","AZ",85068,NA,NA,109,"PO BOX 26073, PHOENIX, AZ, 85068","No_Match",NA,NA,NA,NA
342110,"PO BOX 26074","MACON","GA",31221,NA,NA,110,"PO BOX 26074, MACON, GA, 31221","No_Match",NA,NA,NA,NA
342111,"PO BOX 260750","MATTAPAN","MA",2126,NA,NA,111,"PO BOX 260750, MATTAPAN, MA, 2126","No_Match",NA,NA,NA,NA
342112,"PO BOX 26081","SAINT LOUIS","MO",63136,NA,NA,112,"PO BOX 26081, SAINT LOUIS, MO, 63136","No_Match",NA,NA,NA,NA
342113,"PO BOX 26082","FRESNO","CA",93729,NA,NA,113,"PO BOX 26082, FRESNO, CA, 93729","No_Match",NA,NA,NA,NA
342114,"PO BOX 26083","HONOLULU","HI",96825,NA,NA,114,"PO BOX 26083, HONOLULU, HI, 96825","No_Match",NA,NA,NA,NA
342115,"PO BOX 26090","WASHINGTON","DC",20001,NA,NA,115,"PO BOX 26090, WASHINGTON, DC, 20001","No_Match",NA,NA,NA,NA
342116,"PO BOX 26092","WASHINGTON","DC",20001,NA,NA,116,"PO BOX 26092, WASHINGTON, DC, 20001","No_Match",NA,NA,NA,NA
342117,"PO BOX 26093","ST LOUIS PARK","MN",55426,NA,NA,117,"PO BOX 26093, ST LOUIS PARK, MN, 55426","No_Match",NA,NA,NA,NA
342118,"PO BOX 260968","SAN JUAN","PR",926,NA,NA,118,"PO BOX 260968, SAN JUAN, PR, 926","No_Match",NA,NA,NA,NA
342119,"PO BOX 260993","MIAMI","FL",33126,NA,NA,119,"PO BOX 260993, MIAMI, FL, 33126","No_Match",NA,NA,NA,NA
342120,"PO BOX 261","BARRINGTON","NH",3825,NA,NA,120,"PO BOX 261, BARRINGTON, NH, 3825","No_Match",NA,NA,NA,NA
342121,"PO BOX 261","BELT","MT",59412,NA,NA,121,"PO BOX 261, BELT, MT, 59412","No_Match",NA,NA,NA,NA
342122,"PO BOX 261","BOERNE","TX",78006,NA,NA,122,"PO BOX 261, BOERNE, TX, 78006","No_Match",NA,NA,NA,NA
342123,"PO BOX 261","BROOKLYN","NY",11206,NA,NA,123,"PO BOX 261, BROOKLYN, NY, 11206","No_Match",NA,NA,NA,NA
342124,"PO BOX 261","COLUMBUS","MT",59019,NA,NA,124,"PO BOX 261, COLUMBUS, MT, 59019","No_Match",NA,NA,NA,NA
342125,"PO BOX 261","COMO","NC",27855,NA,NA,125,"PO BOX 261, COMO, NC, 27855","No_Match",NA,NA,NA,NA
342126,"PO BOX 261","ENON","OH",45323,NA,NA,126,"PO BOX 261, ENON, OH, 45323","No_Match",NA,NA,NA,NA
342127,"PO BOX 261","FAIRFAX","VT",5454,NA,NA,127,"PO BOX 261, FAIRFAX, VT, 5454","No_Match",NA,NA,NA,NA
342128,"PO BOX 261","GREENLAND","NH",3840,NA,NA,128,"PO BOX 261, GREENLAND, NH, 3840","No_Match",NA,NA,NA,NA
342129,"PO BOX 261","LADORA","IA",52251,NA,NA,129,"PO BOX 261, LADORA, IA, 52251","No_Match",NA,NA,NA,NA
342130,"PO BOX 261","LAKE STEVENS","WA",98258,NA,NA,130,"PO BOX 261, LAKE STEVENS, WA, 98258","No_Match",NA,NA,NA,NA
342131,"PO BOX 261","LAWTON","MI",49065,NA,NA,131,"PO BOX 261, LAWTON, MI, 49065","No_Match",NA,NA,NA,NA
342132,"PO BOX 261","MATAWAN","NJ",7747,NA,NA,132,"PO BOX 261, MATAWAN, NJ, 7747","No_Match",NA,NA,NA,NA
342133,"PO BOX 261","MILAN","OH",44846,NA,NA,133,"PO BOX 261, MILAN, OH, 44846","No_Match",NA,NA,NA,NA
342134,"PO BOX 261","OAKLAND","OR",97462,NA,NA,134,"PO BOX 261, OAKLAND, OR, 97462","No_Match",NA,NA,NA,NA
342135,"PO BOX 261","OGDEN","UT",84402,NA,NA,135,"PO BOX 261, OGDEN, UT, 84402","No_Match",NA,NA,NA,NA
342136,"PO BOX 261","OWLS HEAD","ME",4854,NA,NA,136,"PO BOX 261, OWLS HEAD, ME, 4854","No_Match",NA,NA,NA,NA
342137,"PO BOX 261","PERIDOT","AZ",85542,NA,NA,137,"PO BOX 261, PERIDOT, AZ, 85542","No_Match",NA,NA,NA,NA
342138,"PO BOX 261","PORTLAND","ME",4112,NA,NA,138,"PO BOX 261, PORTLAND, ME, 4112","No_Match",NA,NA,NA,NA
342139,"PO BOX 261","RIO VISTA","TX",76093,NA,NA,139,"PO BOX 261, RIO VISTA, TX, 76093","No_Match",NA,NA,NA,NA
342140,"PO BOX 261","RITZVILLE","WA",99169,NA,NA,140,"PO BOX 261, RITZVILLE, WA, 99169","No_Match",NA,NA,NA,NA
342141,"PO BOX 261","SANBORNTON","NH",3269,NA,NA,141,"PO BOX 261, SANBORNTON, NH, 3269","No_Match",NA,NA,NA,NA
342142,"PO BOX 261","SHAFTSBURY","VT",5262,NA,NA,142,"PO BOX 261, SHAFTSBURY, VT, 5262","No_Match",NA,NA,NA,NA
342143,"PO BOX 261","SHARPSBURG","MD",21782,NA,NA,143,"PO BOX 261, SHARPSBURG, MD, 21782","No_Match",NA,NA,NA,NA
342144,"PO BOX 261042","LAKEWOOD","CO",80226,NA,NA,144,"PO BOX 261042, LAKEWOOD, CO, 80226","No_Match",NA,NA,NA,NA
342145,"PO BOX 2611","ATTLEBORO FALLS","MA",2763,NA,NA,145,"PO BOX 2611, ATTLEBORO FALLS, MA, 2763","No_Match",NA,NA,NA,NA
342146,"PO BOX 2611","BISMARCK","ND",58502,NA,NA,146,"PO BOX 2611, BISMARCK, ND, 58502","No_Match",NA,NA,NA,NA
342147,"PO BOX 2611","GEORGETOWN","TX",78627,NA,NA,147,"PO BOX 2611, GEORGETOWN, TX, 78627","No_Match",NA,NA,NA,NA
342148,"PO BOX 2611","NEVADA CITY","CA",95959,NA,NA,148,"PO BOX 2611, NEVADA CITY, CA, 95959","No_Match",NA,NA,NA,NA
342149,"PO BOX 2611","RALEIGH","NC",27602,NA,NA,149,"PO BOX 2611, RALEIGH, NC, 27602","No_Match",NA,NA,NA,NA
342150,"PO BOX 2611","WRIGHTWOOD","CA",92397,NA,NA,150,"PO BOX 2611, WRIGHTWOOD, CA, 92397","No_Match",NA,NA,NA,NA
342151,"PO BOX 26112","WAUWATOSA","WI",53226,NA,NA,151,"PO BOX 26112, WAUWATOSA, WI, 53226","No_Match",NA,NA,NA,NA
342152,"PO BOX 26115","GREENVILLE","SC",29616,NA,NA,152,"PO BOX 26115, GREENVILLE, SC, 29616","No_Match",NA,NA,NA,NA
342153,"PO BOX 26116","RICHMOND","VA",23260,NA,NA,153,"PO BOX 26116, RICHMOND, VA, 23260","No_Match",NA,NA,NA,NA
342154,"PO BOX 2612","LEBANON","OR",97355,NA,NA,154,"PO BOX 2612, LEBANON, OR, 97355","No_Match",NA,NA,NA,NA
342155,"PO BOX 2612","SALINAS","CA",93902,NA,NA,155,"PO BOX 2612, SALINAS, CA, 93902","No_Match",NA,NA,NA,NA
342156,"PO BOX 261276","SAN DIEGO","CA",92196,NA,NA,156,"PO BOX 261276, SAN DIEGO, CA, 92196","No_Match",NA,NA,NA,NA
342157,"PO BOX 2613","COLUMBIA, SC","SC",29201,NA,NA,157,"PO BOX 2613, COLUMBIA, SC, SC, 29201","No_Match",NA,NA,NA,NA
342158,"PO BOX 2613","CORVALLIS","OR",97339,NA,NA,158,"PO BOX 2613, CORVALLIS, OR, 97339","No_Match",NA,NA,NA,NA
342159,"PO BOX 2613","KENNER","LA",70062,NA,NA,159,"PO BOX 2613, KENNER, LA, 70062","No_Match",NA,NA,NA,NA
342160,"PO BOX 2613","PRESIDIO","TX",79845,NA,NA,160,"PO BOX 2613, PRESIDIO, TX, 79845","No_Match",NA,NA,NA,NA
342161,"PO BOX 261354","LAKEWOOD","CO",80226,NA,NA,161,"PO BOX 261354, LAKEWOOD, CO, 80226","No_Match",NA,NA,NA,NA
342162,"PO BOX 26137","HONOLULU","HI",96825,NA,NA,162,"PO BOX 26137, HONOLULU, HI, 96825","No_Match",NA,NA,NA,NA
342163,"PO BOX 2614","KEALAKEKUA","HI",96750,NA,NA,163,"PO BOX 2614, KEALAKEKUA, HI, 96750","No_Match",NA,NA,NA,NA
342164,"PO BOX 2614","PEACHTREE CITY","GA",30269,NA,NA,164,"PO BOX 2614, PEACHTREE CITY, GA, 30269","No_Match",NA,NA,NA,NA
342165,"PO BOX 26142","JACKSONVILLE","FL",32226,NA,NA,165,"PO BOX 26142, JACKSONVILLE, FL, 32226","No_Match",NA,NA,NA,NA
342166,"PO BOX 2615","LONGVIEW","WA",98632,NA,NA,166,"PO BOX 2615, LONGVIEW, WA, 98632","No_Match",NA,NA,NA,NA
342167,"PO BOX 2615","STATELINE","NV",89449,NA,NA,167,"PO BOX 2615, STATELINE, NV, 89449","No_Match",NA,NA,NA,NA
342168,"PO BOX 26152","CHARLOTTE","NC",28221,NA,NA,168,"PO BOX 26152, CHARLOTTE, NC, 28221","No_Match",NA,NA,NA,NA
342169,"PO BOX 261548","PLANO","TX",75024,NA,NA,169,"PO BOX 261548, PLANO, TX, 75024","No_Match",NA,NA,NA,NA
342170,"PO BOX 2616","FERNLEY","NV",89408,NA,NA,170,"PO BOX 2616, FERNLEY, NV, 89408","No_Match",NA,NA,NA,NA
342171,"PO BOX 2616","FRISCO","TX",75034,NA,NA,171,"PO BOX 2616, FRISCO, TX, 75034","No_Match",NA,NA,NA,NA
342172,"PO BOX 2616","PEMBROKE","NC",28372,NA,NA,172,"PO BOX 2616, PEMBROKE, NC, 28372","No_Match",NA,NA,NA,NA
342173,"PO BOX 26162","LANSING","MI",48909,NA,NA,173,"PO BOX 26162, LANSING, MI, 48909","No_Match",NA,NA,NA,NA
342174,"PO BOX 2617","TOLEDO","OH",43606,NA,NA,174,"PO BOX 2617, TOLEDO, OH, 43606","No_Match",NA,NA,NA,NA
342175,"PO BOX 2618","GULF SHORES","AL",36547,NA,NA,175,"PO BOX 2618, GULF SHORES, AL, 36547","No_Match",NA,NA,NA,NA
342176,"PO BOX 2618","NEWBURGH","NY",12550,NA,NA,176,"PO BOX 2618, NEWBURGH, NY, 12550","No_Match",NA,NA,NA,NA
342177,"PO BOX 26184","NEW ORLEANS","LA",70186,NA,NA,177,"PO BOX 26184, NEW ORLEANS, LA, 70186","No_Match",NA,NA,NA,NA
342178,"PO BOX 262","BEAVER","PA",15009,NA,NA,178,"PO BOX 262, BEAVER, PA, 15009","No_Match",NA,NA,NA,NA
342179,"PO BOX 262","BROOKFIELD","OH",44403,NA,NA,179,"PO BOX 262, BROOKFIELD, OH, 44403","No_Match",NA,NA,NA,NA
342180,"PO BOX 262","CASCADE","CO",80809,NA,NA,180,"PO BOX 262, CASCADE, CO, 80809","No_Match",NA,NA,NA,NA
342181,"PO BOX 262","CHARLES CITY","IA",50616,NA,NA,181,"PO BOX 262, CHARLES CITY, IA, 50616","No_Match",NA,NA,NA,NA
342182,"PO BOX 262","CHESTERFIELD","VA",23832,NA,NA,182,"PO BOX 262, CHESTERFIELD, VA, 23832","No_Match",NA,NA,NA,NA
342183,"PO BOX 262","DAMARISCOTTA","ME",4543,NA,NA,183,"PO BOX 262, DAMARISCOTTA, ME, 4543","No_Match",NA,NA,NA,NA
342184,"PO BOX 262","EUTAWVILLE","SC",29048,NA,NA,184,"PO BOX 262, EUTAWVILLE, SC, 29048","No_Match",NA,NA,NA,NA
342185,"PO BOX 262","FARRELL","PA",16121,NA,NA,185,"PO BOX 262, FARRELL, PA, 16121","No_Match",NA,NA,NA,NA
342186,"PO BOX 262","FERGUS FALLS","MN",56538,NA,NA,186,"PO BOX 262, FERGUS FALLS, MN, 56538","No_Match",NA,NA,NA,NA
342187,"PO BOX 262","FERNDALE","CA",95536,NA,NA,187,"PO BOX 262, FERNDALE, CA, 95536","No_Match",NA,NA,NA,NA
342188,"PO BOX 262","GRASS VALLEY","CA",95945,NA,NA,188,"PO BOX 262, GRASS VALLEY, CA, 95945","No_Match",NA,NA,NA,NA
342189,"PO BOX 262","HARTFORD","CT",6141,NA,NA,189,"PO BOX 262, HARTFORD, CT, 6141","No_Match",NA,NA,NA,NA
342190,"PO BOX 262","HARVEY","ND",58341,NA,NA,190,"PO BOX 262, HARVEY, ND, 58341","No_Match",NA,NA,NA,NA
342191,"PO BOX 262","LEWISVILLE","NC",27023,NA,NA,191,"PO BOX 262, LEWISVILLE, NC, 27023","No_Match",NA,NA,NA,NA
342192,"PO BOX 262","MARATHON","NY",13803,NA,NA,192,"PO BOX 262, MARATHON, NY, 13803","No_Match",NA,NA,NA,NA
342193,"PO BOX 262","MARIANNA","FL",32447,NA,NA,193,"PO BOX 262, MARIANNA, FL, 32447","No_Match",NA,NA,NA,NA
342194,"PO BOX 262","MENDON","MA",1756,NA,NA,194,"PO BOX 262, MENDON, MA, 1756","No_Match",NA,NA,NA,NA
342195,"PO BOX 262","MIAMI","OK",74355,NA,NA,195,"PO BOX 262, MIAMI, OK, 74355","No_Match",NA,NA,NA,NA
342196,"PO BOX 262","MILLER","MO",65707,NA,NA,196,"PO BOX 262, MILLER, MO, 65707","No_Match",NA,NA,NA,NA
342197,"PO BOX 262","NORTH CHICAGO","IL",60064,NA,NA,197,"PO BOX 262, NORTH CHICAGO, IL, 60064","No_Match",NA,NA,NA,NA
342198,"PO BOX 262","PARKER","SD",57053,NA,NA,198,"PO BOX 262, PARKER, SD, 57053","No_Match",NA,NA,NA,NA
342199,"PO BOX 262","PELL LAKE","WI",53157,NA,NA,199,"PO BOX 262, PELL LAKE, WI, 53157","No_Match",NA,NA,NA,NA
342200,"PO BOX 262","PERKINS","OK",74059,NA,NA,200,"PO BOX 262, PERKINS, OK, 74059","No_Match",NA,NA,NA,NA
342201,"PO BOX 262","SALINE","MI",48176,NA,NA,201,"PO BOX 262, SALINE, MI, 48176","No_Match",NA,NA,NA,NA
342202,"PO BOX 262","SCHWENKSVILLE","PA",19473,NA,NA,202,"PO BOX 262, SCHWENKSVILLE, PA, 19473","No_Match",NA,NA,NA,NA
342203,"PO BOX 262","SHELDON","SC",29941,NA,NA,203,"PO BOX 262, SHELDON, SC, 29941","No_Match",NA,NA,NA,NA
342204,"PO BOX 262","SIMPSONVILLE","KY",40067,NA,NA,204,"PO BOX 262, SIMPSONVILLE, KY, 40067","No_Match",NA,NA,NA,NA
342205,"PO BOX 262","SUNRAY","TX",79086,NA,NA,205,"PO BOX 262, SUNRAY, TX, 79086","No_Match",NA,NA,NA,NA
342206,"PO BOX 262","TIMBERON","NM",88350,NA,NA,206,"PO BOX 262, TIMBERON, NM, 88350","No_Match",NA,NA,NA,NA
342207,"PO BOX 262","VIOLA","KS",67149,NA,NA,207,"PO BOX 262, VIOLA, KS, 67149","No_Match",NA,NA,NA,NA
342208,"PO BOX 262","WADENA","MN",56482,NA,NA,208,"PO BOX 262, WADENA, MN, 56482","No_Match",NA,NA,NA,NA
342209,"PO BOX 262","WARSAW","NC",28398,NA,NA,209,"PO BOX 262, WARSAW, NC, 28398","No_Match",NA,NA,NA,NA
342210,"PO BOX 262","WAXAHACHIE","TX",75168,NA,NA,210,"PO BOX 262, WAXAHACHIE, TX, 75168","No_Match",NA,NA,NA,NA
342211,"PO BOX 262","WELLS","TX",75976,NA,NA,211,"PO BOX 262, WELLS, TX, 75976","No_Match",NA,NA,NA,NA
342212,"PO BOX 262","WHITELAND","IN",46184,NA,NA,212,"PO BOX 262, WHITELAND, IN, 46184","No_Match",NA,NA,NA,NA
342213,"PO BOX 2620","SAPULPA","OK",74066,NA,NA,213,"PO BOX 2620, SAPULPA, OK, 74066","No_Match",NA,NA,NA,NA
342214,"PO BOX 262012","HOUSTON","TX",77207,NA,NA,214,"PO BOX 262012, HOUSTON, TX, 77207","No_Match",NA,NA,NA,NA
342215,"PO BOX 26206","SAINT LOUIS","MO",63136,NA,NA,215,"PO BOX 26206, SAINT LOUIS, MO, 63136","No_Match",NA,NA,NA,NA
342216,"PO BOX 2621","GILROY","CA",95021,NA,NA,216,"PO BOX 2621, GILROY, CA, 95021","No_Match",NA,NA,NA,NA
342217,"PO BOX 2621","GLEN ELLYN","IL",60138,NA,NA,217,"PO BOX 2621, GLEN ELLYN, IL, 60138","No_Match",NA,NA,NA,NA
342218,"PO BOX 2622 EAST SIDE STATION","PROVIDENCE","RI",2906,NA,NA,218,"PO BOX 2622 EAST SIDE STATION, PROVIDENCE, RI, 2906","No_Match",NA,NA,NA,NA
342219,"PO BOX 2622","PURCELLVILLE","VA",20134,NA,NA,219,"PO BOX 2622, PURCELLVILLE, VA, 20134","No_Match",NA,NA,NA,NA
342220,"PO BOX 2622","RIVERVIEW","MI",48192,NA,NA,220,"PO BOX 2622, RIVERVIEW, MI, 48192","No_Match",NA,NA,NA,NA
342221,"PO BOX 2624","GLENVILLE","NY",12325,NA,NA,221,"PO BOX 2624, GLENVILLE, NY, 12325","No_Match",NA,NA,NA,NA
342222,"PO BOX 2624","SANDPOINT","ID",83864,NA,NA,222,"PO BOX 2624, SANDPOINT, ID, 83864","No_Match",NA,NA,NA,NA
342223,"PO BOX 2624","SCOTTSDALE","AZ",85252,NA,NA,223,"PO BOX 2624, SCOTTSDALE, AZ, 85252","No_Match",NA,NA,NA,NA
342224,"PO BOX 26253","COLORADO SPRINGS","CO",80936,NA,NA,224,"PO BOX 26253, COLORADO SPRINGS, CO, 80936","No_Match",NA,NA,NA,NA
342225,"PO BOX 2626","ALAMOGORDO","NM",88311,NA,NA,225,"PO BOX 2626, ALAMOGORDO, NM, 88311","No_Match",NA,NA,NA,NA
342226,"PO BOX 2626","CUMMING","GA",30028,NA,NA,226,"PO BOX 2626, CUMMING, GA, 30028","No_Match",NA,NA,NA,NA
342227,"PO BOX 2626","GREENSBORO","NC",27402,NA,NA,227,"PO BOX 2626, GREENSBORO, NC, 27402","No_Match",NA,NA,NA,NA
342228,"PO BOX 2626","MIDLOTHIAN","VA",23113,NA,NA,228,"PO BOX 2626, MIDLOTHIAN, VA, 23113","No_Match",NA,NA,NA,NA
342229,"PO BOX 262613","TAMPA","FL",33685,NA,NA,229,"PO BOX 262613, TAMPA, FL, 33685","No_Match",NA,NA,NA,NA
342230,"PO BOX 262632","PLANO","TX",75026,NA,NA,230,"PO BOX 262632, PLANO, TX, 75026","No_Match",NA,NA,NA,NA
342231,"PO BOX 2627","EAGLE","ID",83616,NA,NA,231,"PO BOX 2627, EAGLE, ID, 83616","No_Match",NA,NA,NA,NA
342232,"PO BOX 2627","EWA BEACH","HI",96706,NA,NA,232,"PO BOX 2627, EWA BEACH, HI, 96706","No_Match",NA,NA,NA,NA
342233,"PO BOX 2627","HARRISON","AR",72602,NA,NA,233,"PO BOX 2627, HARRISON, AR, 72602","No_Match",NA,NA,NA,NA
342234,"PO BOX 26271","SANTA ANA","CA",92799,NA,NA,234,"PO BOX 26271, SANTA ANA, CA, 92799","No_Match",NA,NA,NA,NA
342235,"PO BOX 2628","MARTINSBURG","WV",25402,NA,NA,235,"PO BOX 2628, MARTINSBURG, WV, 25402","No_Match",NA,NA,NA,NA
342236,"PO BOX 263","ATLANTIC","IA",50022,NA,NA,236,"PO BOX 263, ATLANTIC, IA, 50022","No_Match",NA,NA,NA,NA
342237,"PO BOX 263","BEAVERTON","MI",48612,NA,NA,237,"PO BOX 263, BEAVERTON, MI, 48612","No_Match",NA,NA,NA,NA
342238,"PO BOX 263","BRAMWELL","WV",24715,NA,NA,238,"PO BOX 263, BRAMWELL, WV, 24715","No_Match",NA,NA,NA,NA
342239,"PO BOX 263","BURWELL","NE",68823,NA,NA,239,"PO BOX 263, BURWELL, NE, 68823","No_Match",NA,NA,NA,NA
342240,"PO BOX 263","CRESTVIEW","FL",32536,NA,NA,240,"PO BOX 263, CRESTVIEW, FL, 32536","No_Match",NA,NA,NA,NA
342241,"PO BOX 263","EBENSBURG","PA",15931,NA,NA,241,"PO BOX 263, EBENSBURG, PA, 15931","No_Match",NA,NA,NA,NA
342242,"PO BOX 263","EULESS","TX",76039,NA,NA,242,"PO BOX 263, EULESS, TX, 76039","No_Match",NA,NA,NA,NA
342243,"PO BOX 263","FORT MEADE","FL",33841,NA,NA,243,"PO BOX 263, FORT MEADE, FL, 33841","No_Match",NA,NA,NA,NA
342244,"PO BOX 263","FROST","TX",76641,NA,NA,244,"PO BOX 263, FROST, TX, 76641","No_Match",NA,NA,NA,NA
342245,"PO BOX 263","GRAFTON","MA",1519,NA,NA,245,"PO BOX 263, GRAFTON, MA, 1519","No_Match",NA,NA,NA,NA
342246,"PO BOX 263","GRAND MARAIS","MI",49839,NA,NA,246,"PO BOX 263, GRAND MARAIS, MI, 49839","No_Match",NA,NA,NA,NA
342247,"PO BOX 263","HAZLEHURST","GA",31539,NA,NA,247,"PO BOX 263, HAZLEHURST, GA, 31539","No_Match",NA,NA,NA,NA
342248,"PO BOX 263","HOLTSVILLE","NY",11742,NA,NA,248,"PO BOX 263, HOLTSVILLE, NY, 11742","No_Match",NA,NA,NA,NA
342249,"PO BOX 263","KINGSTON","WA",98346,NA,NA,249,"PO BOX 263, KINGSTON, WA, 98346","No_Match",NA,NA,NA,NA
342250,"PO BOX 263","LAGRANGEVILLE","NY",12540,NA,NA,250,"PO BOX 263, LAGRANGEVILLE, NY, 12540","No_Match",NA,NA,NA,NA
342251,"PO BOX 263","LAKELAND","MI",48143,NA,NA,251,"PO BOX 263, LAKELAND, MI, 48143","No_Match",NA,NA,NA,NA
342252,"PO BOX 263","LEWISTOWN","MT",59457,NA,NA,252,"PO BOX 263, LEWISTOWN, MT, 59457","No_Match",NA,NA,NA,NA
342253,"PO BOX 263","LEWISVILLE","TX",75067,NA,NA,253,"PO BOX 263, LEWISVILLE, TX, 75067","No_Match",NA,NA,NA,NA
342254,"PO BOX 263","LONG ISLAND","ME",4050,NA,NA,254,"PO BOX 263, LONG ISLAND, ME, 4050","No_Match",NA,NA,NA,NA
342255,"PO BOX 263","NEW HARTFORD","NY",13413,NA,NA,255,"PO BOX 263, NEW HARTFORD, NY, 13413","No_Match",NA,NA,NA,NA
342256,"PO BOX 263","NEW HAVEN","CT",6513,NA,NA,256,"PO BOX 263, NEW HAVEN, CT, 6513","No_Match",NA,NA,NA,NA
342257,"PO BOX 263","NEWPORT","VT",5855,NA,NA,257,"PO BOX 263, NEWPORT, VT, 5855","No_Match",NA,NA,NA,NA
342258,"PO BOX 263","NORWAY","ME",4268,NA,NA,258,"PO BOX 263, NORWAY, ME, 4268","No_Match",NA,NA,NA,NA
342259,"PO BOX 263","PENNSVILLE","NJ",8070,NA,NA,259,"PO BOX 263, PENNSVILLE, NJ, 8070","No_Match",NA,NA,NA,NA
342260,"PO BOX 263","PHILLIPSBURG","NJ",8865,NA,NA,260,"PO BOX 263, PHILLIPSBURG, NJ, 8865","No_Match",NA,NA,NA,NA
342261,"PO BOX 263","RICHLAND","OR",97870,NA,NA,261,"PO BOX 263, RICHLAND, OR, 97870","No_Match",NA,NA,NA,NA
342262,"PO BOX 263","SALLEY","SC",29137,NA,NA,262,"PO BOX 263, SALLEY, SC, 29137","No_Match",NA,NA,NA,NA
342263,"PO BOX 263","SOUTH HERO","VT",5486,NA,NA,263,"PO BOX 263, SOUTH HERO, VT, 5486","No_Match",NA,NA,NA,NA
342264,"PO BOX 263","WYCOFF","NJ",7481,NA,NA,264,"PO BOX 263, WYCOFF, NJ, 7481","No_Match",NA,NA,NA,NA
342265,"PO BOX 26303","CHARLOTTE","NC",28221,NA,NA,265,"PO BOX 26303, CHARLOTTE, NC, 28221","No_Match",NA,NA,NA,NA
342266,"PO BOX 2631","CEDAR RAPIDS","IA",52406,NA,NA,266,"PO BOX 2631, CEDAR RAPIDS, IA, 52406","No_Match",NA,NA,NA,NA
342267,"PO BOX 2631","MONTEREY","CA",93942,NA,NA,267,"PO BOX 2631, MONTEREY, CA, 93942","No_Match",NA,NA,NA,NA
342268,"PO BOX 2631","ROCKY MOUNT","NC",27801,NA,NA,268,"PO BOX 2631, ROCKY MOUNT, NC, 27801","No_Match",NA,NA,NA,NA
342269,"PO BOX 263122","TAMPA","FL",33685,NA,NA,269,"PO BOX 263122, TAMPA, FL, 33685","No_Match",NA,NA,NA,NA
342270,"PO BOX 263172","TAMPA","FL",33685,NA,NA,270,"PO BOX 263172, TAMPA, FL, 33685","No_Match",NA,NA,NA,NA
342271,"PO BOX 2632","KALAMAZOO","MI",49003,NA,NA,271,"PO BOX 2632, KALAMAZOO, MI, 49003","No_Match",NA,NA,NA,NA
342272,"PO BOX 2632","LITCHFIELD PARK","AZ",85340,NA,NA,272,"PO BOX 2632, LITCHFIELD PARK, AZ, 85340","No_Match",NA,NA,NA,NA
342273,"PO BOX 2632","LITTLE ROCK","AR",72203,NA,NA,273,"PO BOX 2632, LITTLE ROCK, AR, 72203","No_Match",NA,NA,NA,NA
342274,"PO BOX 26323","NEW ORLEANS","LA",70186,NA,NA,274,"PO BOX 26323, NEW ORLEANS, LA, 70186","No_Match",NA,NA,NA,NA
342275,"PO BOX 26329","RICHMOND","VA",23260,NA,NA,275,"PO BOX 26329, RICHMOND, VA, 23260","No_Match",NA,NA,NA,NA
342276,"PO BOX 2633","BIG BEAR CITY","CA",92314,NA,NA,276,"PO BOX 2633, BIG BEAR CITY, CA, 92314","No_Match",NA,NA,NA,NA
342277,"PO BOX 2633","CROSSVILLE","TN",38557,NA,NA,277,"PO BOX 2633, CROSSVILLE, TN, 38557","No_Match",NA,NA,NA,NA
342278,"PO BOX 2633","GLENVILLE","NY",12325,NA,NA,278,"PO BOX 2633, GLENVILLE, NY, 12325","No_Match",NA,NA,NA,NA
342279,"PO BOX 2633","REDMOND","WA",98073,NA,NA,279,"PO BOX 2633, REDMOND, WA, 98073","No_Match",NA,NA,NA,NA
342280,"PO BOX 26333","LITTLE ROCK","AR",72221,NA,NA,280,"PO BOX 26333, LITTLE ROCK, AR, 72221","No_Match",NA,NA,NA,NA
342281,"PO BOX 2635","KEY WEST","FL",33045,NA,NA,281,"PO BOX 2635, KEY WEST, FL, 33045","No_Match",NA,NA,NA,NA
342282,"PO BOX 2635","TAYLOR","MI",48180,NA,NA,282,"PO BOX 2635, TAYLOR, MI, 48180","No_Match",NA,NA,NA,NA
342283,"PO BOX 2636","APPLE VALLEY","CA",92307,NA,NA,283,"PO BOX 2636, APPLE VALLEY, CA, 92307","No_Match",NA,NA,NA,NA
342284,"PO BOX 2636","BLUE JAY","CA",92317,NA,NA,284,"PO BOX 2636, BLUE JAY, CA, 92317","No_Match",NA,NA,NA,NA
342285,"PO BOX 2636","FLORISSANT","MO",63032,NA,NA,285,"PO BOX 2636, FLORISSANT, MO, 63032","No_Match",NA,NA,NA,NA
342286,"PO BOX 2636","WASHINGTON","DC",20013,NA,NA,286,"PO BOX 2636, WASHINGTON, DC, 20013","No_Match",NA,NA,NA,NA
342287,"PO BOX 26361","TEMPE","AZ",85285,NA,NA,287,"PO BOX 26361, TEMPE, AZ, 85285","No_Match",NA,NA,NA,NA
342288,"PO BOX 26369","SAN DIEGO","CA",92196,NA,NA,288,"PO BOX 26369, SAN DIEGO, CA, 92196","No_Match",NA,NA,NA,NA
342289,"PO BOX 2638","ARCADIA","FL",34265,NA,NA,289,"PO BOX 2638, ARCADIA, FL, 34265","No_Match",NA,NA,NA,NA
342290,"PO BOX 2639","BENTONVILLE","AR",72712,NA,NA,290,"PO BOX 2639, BENTONVILLE, AR, 72712","No_Match",NA,NA,NA,NA
342291,"PO BOX 2639","KYLE","TX",78640,NA,NA,291,"PO BOX 2639, KYLE, TX, 78640","No_Match",NA,NA,NA,NA
342292,"PO BOX 2639","SUGAR LAND","TX",77487,NA,NA,292,"PO BOX 2639, SUGAR LAND, TX, 77487","No_Match",NA,NA,NA,NA
342293,"PO BOX 264","ASCUTNEY","VT",5030,NA,NA,293,"PO BOX 264, ASCUTNEY, VT, 5030","No_Match",NA,NA,NA,NA
342294,"PO BOX 264","CARLISLE","PA",17103,NA,NA,294,"PO BOX 264, CARLISLE, PA, 17103","No_Match",NA,NA,NA,NA
342295,"PO BOX 264","EAST ARLINGTON","VT",5252,NA,NA,295,"PO BOX 264, EAST ARLINGTON, VT, 5252","No_Match",NA,NA,NA,NA
342296,"PO BOX 264","EDGEFIELD","SC",29824,NA,NA,296,"PO BOX 264, EDGEFIELD, SC, 29824","No_Match",NA,NA,NA,NA
342297,"PO BOX 264","ERWINVILLE","LA",70729,NA,NA,297,"PO BOX 264, ERWINVILLE, LA, 70729","No_Match",NA,NA,NA,NA
342298,"PO BOX 264","FORDS","NJ",8863,NA,NA,298,"PO BOX 264, FORDS, NJ, 8863","No_Match",NA,NA,NA,NA
342299,"PO BOX 264","FORT MYERS","FL",33902,NA,NA,299,"PO BOX 264, FORT MYERS, FL, 33902","No_Match",NA,NA,NA,NA
342300,"PO BOX 264","HAZEL CREST","IL",60429,NA,NA,300,"PO BOX 264, HAZEL CREST, IL, 60429","No_Match",NA,NA,NA,NA
342301,"PO BOX 264","HOPKINSVILLE","KY",42241,NA,NA,301,"PO BOX 264, HOPKINSVILLE, KY, 42241","No_Match",NA,NA,NA,NA
342302,"PO BOX 264","HOT SULPHUR SPRINGS","CO",80451,NA,NA,302,"PO BOX 264, HOT SULPHUR SPRINGS, CO, 80451","No_Match",NA,NA,NA,NA
342303,"PO BOX 264","KENO","OR",97627,NA,NA,303,"PO BOX 264, KENO, OR, 97627","No_Match",NA,NA,NA,NA
342304,"PO BOX 264","LA MESA","CA",91944,NA,NA,304,"PO BOX 264, LA MESA, CA, 91944","No_Match",NA,NA,NA,NA
342305,"PO BOX 264","LAKE PRESTON","SD",57249,NA,NA,305,"PO BOX 264, LAKE PRESTON, SD, 57249","No_Match",NA,NA,NA,NA
342306,"PO BOX 264","LANDISVILLE","PA",17538,NA,NA,306,"PO BOX 264, LANDISVILLE, PA, 17538","No_Match",NA,NA,NA,NA
342307,"PO BOX 264","MARSHALL","NC",28753,NA,NA,307,"PO BOX 264, MARSHALL, NC, 28753","No_Match",NA,NA,NA,NA
342308,"PO BOX 264","MONTICELLO","IN",47960,NA,NA,308,"PO BOX 264, MONTICELLO, IN, 47960","No_Match",NA,NA,NA,NA
342309,"PO BOX 264","MOTT","ND",58646,NA,NA,309,"PO BOX 264, MOTT, ND, 58646","No_Match",NA,NA,NA,NA
342310,"PO BOX 264","NORTHFORD","CT",6472,NA,NA,310,"PO BOX 264, NORTHFORD, CT, 6472","No_Match",NA,NA,NA,NA
342311,"PO BOX 264","NORWICH","VT",5055,NA,NA,311,"PO BOX 264, NORWICH, VT, 5055","No_Match",NA,NA,NA,NA
342312,"PO BOX 264","OCEANPORT","NJ",7757,NA,NA,312,"PO BOX 264, OCEANPORT, NJ, 7757","No_Match",NA,NA,NA,NA
342313,"PO BOX 264","OMEGA","GA",31775,NA,NA,313,"PO BOX 264, OMEGA, GA, 31775","No_Match",NA,NA,NA,NA
342314,"PO BOX 264","PALMERTON","PA",18071,NA,NA,314,"PO BOX 264, PALMERTON, PA, 18071","No_Match",NA,NA,NA,NA
342315,"PO BOX 264","PFLUGERVILLE","TX",78691,NA,NA,315,"PO BOX 264, PFLUGERVILLE, TX, 78691","No_Match",NA,NA,NA,NA
342316,"PO BOX 264","REDAN","GA",30074,NA,NA,316,"PO BOX 264, REDAN, GA, 30074","No_Match",NA,NA,NA,NA
342317,"PO BOX 264","RENSSELAER","IN",47978,NA,NA,317,"PO BOX 264, RENSSELAER, IN, 47978","No_Match",NA,NA,NA,NA
342318,"PO BOX 264","RIVER FALLS","WI",54022,NA,NA,318,"PO BOX 264, RIVER FALLS, WI, 54022","No_Match",NA,NA,NA,NA
342319,"PO BOX 264","SENECA","MO",64865,NA,NA,319,"PO BOX 264, SENECA, MO, 64865","No_Match",NA,NA,NA,NA
342320,"PO BOX 264","STOTTVILLE","NY",12174,NA,NA,320,"PO BOX 264, STOTTVILLE, NY, 12174","No_Match",NA,NA,NA,NA
342321,"PO BOX 264","TELFORD","PA",18969,NA,NA,321,"PO BOX 264, TELFORD, PA, 18969","No_Match",NA,NA,NA,NA
342322,"PO BOX 264","THONOTOSSASSA","FL",33592,NA,NA,322,"PO BOX 264, THONOTOSSASSA, FL, 33592","No_Match",NA,NA,NA,NA
342323,"PO BOX 264","WAPELLA","IL",61777,NA,NA,323,"PO BOX 264, WAPELLA, IL, 61777","No_Match",NA,NA,NA,NA
342324,"PO BOX 264","WARRENVILLE","IL",60555,NA,NA,324,"PO BOX 264, WARRENVILLE, IL, 60555","No_Match",NA,NA,NA,NA
342325,"PO BOX 26401","FRESNO","CA",93729,NA,NA,325,"PO BOX 26401, FRESNO, CA, 93729","No_Match",NA,NA,NA,NA
342326,"PO BOX 26406","OKLAHOMA CITY","OK",73126,NA,NA,326,"PO BOX 26406, OKLAHOMA CITY, OK, 73126","No_Match",NA,NA,NA,NA
342327,"PO BOX 2642","DEARBORN","MI",48123,NA,NA,327,"PO BOX 2642, DEARBORN, MI, 48123","No_Match",NA,NA,NA,NA
342328,"PO BOX 2642","DENTON","TX",76202,NA,NA,328,"PO BOX 2642, DENTON, TX, 76202","No_Match",NA,NA,NA,NA
342329,"PO BOX 2642","PAGOSA SPRINGS","CO",81147,NA,NA,329,"PO BOX 2642, PAGOSA SPRINGS, CO, 81147","No_Match",NA,NA,NA,NA
342330,"PO BOX 26421","INDIANAPOLIS","IN",46226,NA,NA,330,"PO BOX 26421, INDIANAPOLIS, IN, 46226","No_Match",NA,NA,NA,NA
342331,"PO BOX 26421","LOS ANGELES","CA",90026,NA,NA,331,"PO BOX 26421, LOS ANGELES, CA, 90026","No_Match",NA,NA,NA,NA
342332,"PO BOX 26421","WINSTON SALEM","NC",27114,NA,NA,332,"PO BOX 26421, WINSTON SALEM, NC, 27114","No_Match",NA,NA,NA,NA
342333,"PO BOX 2643","CANDLER","NC",28715,NA,NA,333,"PO BOX 2643, CANDLER, NC, 28715","No_Match",NA,NA,NA,NA
342334,"PO BOX 2643","CHAPEL HILL","NC",27515,NA,NA,334,"PO BOX 2643, CHAPEL HILL, NC, 27515","No_Match",NA,NA,NA,NA
342335,"PO BOX 2643","ORLEANS","MA",2653,NA,NA,335,"PO BOX 2643, ORLEANS, MA, 2653","No_Match",NA,NA,NA,NA
342336,"PO BOX 26441","ALBUQUERQUE","NM",87125,NA,NA,336,"PO BOX 26441, ALBUQUERQUE, NM, 87125","No_Match",NA,NA,NA,NA
342337,"PO BOX 26443","SCOTTSDALE","AZ",85255,NA,NA,337,"PO BOX 26443, SCOTTSDALE, AZ, 85255","No_Match",NA,NA,NA,NA
342338,"PO BOX 2645","CHINO","CA",91708,NA,NA,338,"PO BOX 2645, CHINO, CA, 91708","No_Match",NA,NA,NA,NA
342339,"PO BOX 2645","INDIANAPOLIS","IN",46206,NA,NA,339,"PO BOX 2645, INDIANAPOLIS, IN, 46206","No_Match",NA,NA,NA,NA
342340,"PO BOX 2645","SANTA CLARA","CA",95051,NA,NA,340,"PO BOX 2645, SANTA CLARA, CA, 95051","No_Match",NA,NA,NA,NA
342341,"PO BOX 2645","WRIGHTWOOD","CA",92397,NA,NA,341,"PO BOX 2645, WRIGHTWOOD, CA, 92397","No_Match",NA,NA,NA,NA
342342,"PO BOX 26457","SAN JOSE","CA",95159,NA,NA,342,"PO BOX 26457, SAN JOSE, CA, 95159","No_Match",NA,NA,NA,NA
342343,"PO BOX 26460","WASHINGTON","DC",20001,NA,NA,343,"PO BOX 26460, WASHINGTON, DC, 20001","No_Match",NA,NA,NA,NA
342344,"PO BOX 26477","SAN FRANCISCO","CA",94126,NA,NA,344,"PO BOX 26477, SAN FRANCISCO, CA, 94126","No_Match",NA,NA,NA,NA
342345,"PO BOX 2648","OREGON CITY","OR",97045,NA,NA,345,"PO BOX 2648, OREGON CITY, OR, 97045","No_Match",NA,NA,NA,NA
342346,"PO BOX 26483","PHILADELPHIA","PA",19141,NA,NA,346,"PO BOX 26483, PHILADELPHIA, PA, 19141","No_Match",NA,NA,NA,NA
342347,"PO BOX 26487","PHOENIX","AZ",85068,NA,NA,347,"PO BOX 26487, PHOENIX, AZ, 85068","No_Match",NA,NA,NA,NA
342348,"PO BOX 2649","SMITHFIELD","NC",27577,NA,NA,348,"PO BOX 2649, SMITHFIELD, NC, 27577","No_Match",NA,NA,NA,NA
342349,"PO BOX 265","ALBION","RI",2802,NA,NA,349,"PO BOX 265, ALBION, RI, 2802","No_Match",NA,NA,NA,NA
342350,"PO BOX 265","AMSTERDAM","OH",43903,NA,NA,350,"PO BOX 265, AMSTERDAM, OH, 43903","No_Match",NA,NA,NA,NA
342351,"PO BOX 265","APLINGTON","IA",50604,NA,NA,351,"PO BOX 265, APLINGTON, IA, 50604","No_Match",NA,NA,NA,NA
342352,"PO BOX 265","AUBURN","GA",30011,NA,NA,352,"PO BOX 265, AUBURN, GA, 30011","No_Match",NA,NA,NA,NA
342353,"PO BOX 265","BERRYVILLE","AR",72616,NA,NA,353,"PO BOX 265, BERRYVILLE, AR, 72616","No_Match",NA,NA,NA,NA
342354,"PO BOX 265","CANTON","TX",75103,NA,NA,354,"PO BOX 265, CANTON, TX, 75103","No_Match",NA,NA,NA,NA
342355,"PO BOX 265","CARROLLTON","KY",41008,NA,NA,355,"PO BOX 265, CARROLLTON, KY, 41008","No_Match",NA,NA,NA,NA
342356,"PO BOX 265","COLUMBIANA","OH",44408,NA,NA,356,"PO BOX 265, COLUMBIANA, OH, 44408","No_Match",NA,NA,NA,NA
342357,"PO BOX 265","EVERETT","WA",98206,NA,NA,357,"PO BOX 265, EVERETT, WA, 98206","No_Match",NA,NA,NA,NA
342358,"PO BOX 265","KAPAAU","HI",96755,NA,NA,358,"PO BOX 265, KAPAAU, HI, 96755","No_Match",NA,NA,NA,NA
342359,"PO BOX 265","LANSING","NY",14882,NA,NA,359,"PO BOX 265, LANSING, NY, 14882","No_Match",NA,NA,NA,NA
342360,"PO BOX 265","LOCK HAVEN","PA",17745,NA,NA,360,"PO BOX 265, LOCK HAVEN, PA, 17745","No_Match",NA,NA,NA,NA
342361,"PO BOX 265","MORGAN MILL","TX",76465,NA,NA,361,"PO BOX 265, MORGAN MILL, TX, 76465","No_Match",NA,NA,NA,NA
342362,"PO BOX 265","NEOGA","IL",62447,NA,NA,362,"PO BOX 265, NEOGA, IL, 62447","No_Match",NA,NA,NA,NA
342363,"PO BOX 265","OLDSMAR","FL",34677,NA,NA,363,"PO BOX 265, OLDSMAR, FL, 34677","No_Match",NA,NA,NA,NA
342364,"PO BOX 265","OVERTON","TX",75684,NA,NA,364,"PO BOX 265, OVERTON, TX, 75684","No_Match",NA,NA,NA,NA
342365,"PO BOX 265","PAW CREEK","NC",28130,NA,NA,365,"PO BOX 265, PAW CREEK, NC, 28130","No_Match",NA,NA,NA,NA
342366,"PO BOX 265","ROCKWALL","TX",75087,NA,NA,366,"PO BOX 265, ROCKWALL, TX, 75087","No_Match",NA,NA,NA,NA
342367,"PO BOX 265","SALEM","WI",53168,NA,NA,367,"PO BOX 265, SALEM, WI, 53168","No_Match",NA,NA,NA,NA
342368,"PO BOX 265","SHELBY","OH",44875,NA,NA,368,"PO BOX 265, SHELBY, OH, 44875","No_Match",NA,NA,NA,NA
342369,"PO BOX 265","STERLING HEIGHTS","MI",48311,NA,NA,369,"PO BOX 265, STERLING HEIGHTS, MI, 48311","No_Match",NA,NA,NA,NA
342370,"PO BOX 265","SYRACUSE","NY",13214,NA,NA,370,"PO BOX 265, SYRACUSE, NY, 13214","No_Match",NA,NA,NA,NA
342371,"PO BOX 265","TIFTON","GA",31793,NA,NA,371,"PO BOX 265, TIFTON, GA, 31793","No_Match",NA,NA,NA,NA
342372,"PO BOX 265","VEGA","TX",79092,NA,NA,372,"PO BOX 265, VEGA, TX, 79092","No_Match",NA,NA,NA,NA
342373,"PO BOX 265","WALLACE","CA",95254,NA,NA,373,"PO BOX 265, WALLACE, CA, 95254","No_Match",NA,NA,NA,NA
342374,"PO BOX 265","WAUSEON","OH",43567,NA,NA,374,"PO BOX 265, WAUSEON, OH, 43567","No_Match",NA,NA,NA,NA
342375,"PO BOX 265","WEBSTER CITY","IA",50595,NA,NA,375,"PO BOX 265, WEBSTER CITY, IA, 50595","No_Match",NA,NA,NA,NA
342376,"PO BOX 26502","LITTLE ROCK","AR",72221,NA,NA,376,"PO BOX 26502, LITTLE ROCK, AR, 72221","No_Match",NA,NA,NA,NA
342377,"PO BOX 26506","SCOTTSDALE","AZ",85255,NA,NA,377,"PO BOX 26506, SCOTTSDALE, AZ, 85255","No_Match",NA,NA,NA,NA
342378,"PO BOX 2651","BLOWING ROCK","NC",28605,NA,NA,378,"PO BOX 2651, BLOWING ROCK, NC, 28605","No_Match",NA,NA,NA,NA
342379,"PO BOX 2651","RESTON","VA",20195,NA,NA,379,"PO BOX 2651, RESTON, VA, 20195","No_Match",NA,NA,NA,NA
342380,"PO BOX 2651","RICHMOND","IN",47375,NA,NA,380,"PO BOX 2651, RICHMOND, IN, 47375","No_Match",NA,NA,NA,NA
342381,"PO BOX 26512","PHILADELPHIA","PA",19141,NA,NA,381,"PO BOX 26512, PHILADELPHIA, PA, 19141","No_Match",NA,NA,NA,NA
342382,"PO BOX 26516","ROCHESTER","NY",14626,NA,NA,382,"PO BOX 26516, ROCHESTER, NY, 14626","No_Match",NA,NA,NA,NA
342383,"PO BOX 2652","PLAINFIELD","NJ",7060,NA,NA,383,"PO BOX 2652, PLAINFIELD, NJ, 7060","No_Match",NA,NA,NA,NA
342384,"PO BOX 2652","SOUTHERN PINES","NC",28388,NA,NA,384,"PO BOX 2652, SOUTHERN PINES, NC, 28388","No_Match",NA,NA,NA,NA
342385,"PO BOX 2653","BURLINGTON","NC",27216,NA,NA,385,"PO BOX 2653, BURLINGTON, NC, 27216","No_Match",NA,NA,NA,NA
342386,"PO BOX 2653","LEBANON","OR",97355,NA,NA,386,"PO BOX 2653, LEBANON, OR, 97355","No_Match",NA,NA,NA,NA
342387,"PO BOX 2653","ORMOND BEACH","FL",32175,NA,NA,387,"PO BOX 2653, ORMOND BEACH, FL, 32175","No_Match",NA,NA,NA,NA
342388,"PO BOX 26534","GREENVILLE","SC",29616,NA,NA,388,"PO BOX 26534, GREENVILLE, SC, 29616","No_Match",NA,NA,NA,NA
342389,"PO BOX 2654","GARDENA","CA",90247,NA,NA,389,"PO BOX 2654, GARDENA, CA, 90247","No_Match",NA,NA,NA,NA
342390,"PO BOX 2654","SEATTLE","WA",98111,NA,NA,390,"PO BOX 2654, SEATTLE, WA, 98111","No_Match",NA,NA,NA,NA
342391,"PO BOX 2655","DENVER","CO",80201,NA,NA,391,"PO BOX 2655, DENVER, CO, 80201","No_Match",NA,NA,NA,NA
342392,"PO BOX 2655","SHALLOTTE","NC",28459,NA,NA,392,"PO BOX 2655, SHALLOTTE, NC, 28459","No_Match",NA,NA,NA,NA
342393,"PO BOX 26553","COLLEGEVILLE","PA",19426,NA,NA,393,"PO BOX 26553, COLLEGEVILLE, PA, 19426","No_Match",NA,NA,NA,NA
342394,"PO BOX 2656","MIDLOTHIAN","VA",23113,NA,NA,394,"PO BOX 2656, MIDLOTHIAN, VA, 23113","No_Match",NA,NA,NA,NA
342395,"PO BOX 26573","COLLEGEVILLE","PA",19426,NA,NA,395,"PO BOX 26573, COLLEGEVILLE, PA, 19426","No_Match",NA,NA,NA,NA
342396,"PO BOX 2659","COEUR D ALENE","ID",83816,NA,NA,396,"PO BOX 2659, COEUR D ALENE, ID, 83816","No_Match",NA,NA,NA,NA
342397,"PO BOX 26596","PRESCOTT VALLEY","AZ",86312,NA,NA,397,"PO BOX 26596, PRESCOTT VALLEY, AZ, 86312","No_Match",NA,NA,NA,NA
342398,"PO BOX 266","ACCORD","MA",2018,NA,NA,398,"PO BOX 266, ACCORD, MA, 2018","No_Match",NA,NA,NA,NA
342399,"PO BOX 266","ANCHOR POINT","AK",99556,NA,NA,399,"PO BOX 266, ANCHOR POINT, AK, 99556","No_Match",NA,NA,NA,NA
342400,"PO BOX 266","BLOOMER","WI",54724,NA,NA,400,"PO BOX 266, BLOOMER, WI, 54724","No_Match",NA,NA,NA,NA
342401,"PO BOX 266","CARRBORO","NC",27510,NA,NA,401,"PO BOX 266, CARRBORO, NC, 27510","No_Match",NA,NA,NA,NA
342402,"PO BOX 266","COMANCHE","TX",76442,NA,NA,402,"PO BOX 266, COMANCHE, TX, 76442","No_Match",NA,NA,NA,NA
342403,"PO BOX 266","CONCAN","TX",78838,NA,NA,403,"PO BOX 266, CONCAN, TX, 78838","No_Match",NA,NA,NA,NA
342404,"PO BOX 266","COXSACKIE","NY",12051,NA,NA,404,"PO BOX 266, COXSACKIE, NY, 12051","No_Match",NA,NA,NA,NA
342405,"PO BOX 266","DRUMMOND","MT",59832,NA,NA,405,"PO BOX 266, DRUMMOND, MT, 59832","No_Match",NA,NA,NA,NA
342406,"PO BOX 266","ELLICOTTVILLE","NY",14731,NA,NA,406,"PO BOX 266, ELLICOTTVILLE, NY, 14731","No_Match",NA,NA,NA,NA
342407,"PO BOX 266","HAGERMAN","NM",88232,NA,NA,407,"PO BOX 266, HAGERMAN, NM, 88232","No_Match",NA,NA,NA,NA
342408,"PO BOX 266","HAKALAU","HI",96710,NA,NA,408,"PO BOX 266, HAKALAU, HI, 96710","No_Match",NA,NA,NA,NA
342409,"PO BOX 266","KEARNY","NJ",7032,NA,NA,409,"PO BOX 266, KEARNY, NJ, 7032","No_Match",NA,NA,NA,NA
342410,"PO BOX 266","LAKE JACKSON","TX",77566,NA,NA,410,"PO BOX 266, LAKE JACKSON, TX, 77566","No_Match",NA,NA,NA,NA
342411,"PO BOX 266","LITHIA SPRINGS","GA",30122,NA,NA,411,"PO BOX 266, LITHIA SPRINGS, GA, 30122","No_Match",NA,NA,NA,NA
342412,"PO BOX 266","MULLENS","WV",25882,NA,NA,412,"PO BOX 266, MULLENS, WV, 25882","No_Match",NA,NA,NA,NA
342413,"PO BOX 266","NEVIS","MN",56467,NA,NA,413,"PO BOX 266, NEVIS, MN, 56467","No_Match",NA,NA,NA,NA
342414,"PO BOX 266","NEW ALBANY","OH",43054,NA,NA,414,"PO BOX 266, NEW ALBANY, OH, 43054","No_Match",NA,NA,NA,NA
342415,"PO BOX 266","OLD LYME","CT",6371,NA,NA,415,"PO BOX 266, OLD LYME, CT, 6371","No_Match",NA,NA,NA,NA
342416,"PO BOX 266","PITTSFIELD","IL",62363,NA,NA,416,"PO BOX 266, PITTSFIELD, IL, 62363","No_Match",NA,NA,NA,NA
342417,"PO BOX 266","PRINCETON","IN",47670,NA,NA,417,"PO BOX 266, PRINCETON, IN, 47670","No_Match",NA,NA,NA,NA
342418,"PO BOX 266","SENECA FALLS","NY",13148,NA,NA,418,"PO BOX 266, SENECA FALLS, NY, 13148","No_Match",NA,NA,NA,NA
342419,"PO BOX 266","TERRELL","TX",75160,NA,NA,419,"PO BOX 266, TERRELL, TX, 75160","No_Match",NA,NA,NA,NA
342420,"PO BOX 266","TWIN BRIDGES","MT",59754,NA,NA,420,"PO BOX 266, TWIN BRIDGES, MT, 59754","No_Match",NA,NA,NA,NA
342421,"PO BOX 266","WAYLAND","IA",52654,NA,NA,421,"PO BOX 266, WAYLAND, IA, 52654","No_Match",NA,NA,NA,NA
342422,"PO BOX 266","WEST BOYLSTON","MA",1583,NA,NA,422,"PO BOX 266, WEST BOYLSTON, MA, 1583","No_Match",NA,NA,NA,NA
342423,"PO BOX 2661","LA PUENTE","CA",91746,NA,NA,423,"PO BOX 2661, LA PUENTE, CA, 91746","No_Match",NA,NA,NA,NA
342424,"PO BOX 2661","SOUTHFIELD","MI",48037,NA,NA,424,"PO BOX 2661, SOUTHFIELD, MI, 48037","No_Match",NA,NA,NA,NA
342425,"PO BOX 2662","LAKE ARROWHEAD","CA",92352,NA,NA,425,"PO BOX 2662, LAKE ARROWHEAD, CA, 92352","No_Match",NA,NA,NA,NA
342426,"PO BOX 26624","GREENVILLE","SC",29616,NA,NA,426,"PO BOX 26624, GREENVILLE, SC, 29616","No_Match",NA,NA,NA,NA
342427,"PO BOX 266282","HOUSTON","TX",77207,NA,NA,427,"PO BOX 266282, HOUSTON, TX, 77207","No_Match",NA,NA,NA,NA
342428,"PO BOX 2663","BARTOW","FL",33831,NA,NA,428,"PO BOX 2663, BARTOW, FL, 33831","No_Match",NA,NA,NA,NA
342429,"PO BOX 26636","BENBROOK","TX",76126,NA,NA,429,"PO BOX 26636, BENBROOK, TX, 76126","No_Match",NA,NA,NA,NA
342430,"PO BOX 2664","COTTONWOOD","AZ",86326,NA,NA,430,"PO BOX 2664, COTTONWOOD, AZ, 86326","No_Match",NA,NA,NA,NA
342431,"PO BOX 2664","IOWA CITY","IA",52240,NA,NA,431,"PO BOX 2664, IOWA CITY, IA, 52240","No_Match",NA,NA,NA,NA
342432,"PO BOX 2664","WASHINGTON","NC",27889,NA,NA,432,"PO BOX 2664, WASHINGTON, NC, 27889","No_Match",NA,NA,NA,NA
342433,"PO BOX 26641","LITTLE ROCK","AR",72221,NA,NA,433,"PO BOX 26641, LITTLE ROCK, AR, 72221","No_Match",NA,NA,NA,NA
342434,"PO BOX 26647","PHILADELPHIA","PA",19141,NA,NA,434,"PO BOX 26647, PHILADELPHIA, PA, 19141","No_Match",NA,NA,NA,NA
342435,"PO BOX 2665","BAY ST LOUIS","MS",39521,NA,NA,435,"PO BOX 2665, BAY ST LOUIS, MS, 39521","No_Match",NA,NA,NA,NA
342436,"PO BOX 26651","COLORADO SPRINGS","CO",80936,NA,NA,436,"PO BOX 26651, COLORADO SPRINGS, CO, 80936","No_Match",NA,NA,NA,NA
342437,"PO BOX 26651","ROCHESTER","NY",14626,NA,NA,437,"PO BOX 26651, ROCHESTER, NY, 14626","No_Match",NA,NA,NA,NA
342438,"PO BOX 266531","WESTON","FL",33326,NA,NA,438,"PO BOX 266531, WESTON, FL, 33326","No_Match",NA,NA,NA,NA
342439,"PO BOX 2666","APPLETON","WI",54912,NA,NA,439,"PO BOX 2666, APPLETON, WI, 54912","No_Match",NA,NA,NA,NA
342440,"PO BOX 2666","COLUMBUS","GA",31902,NA,NA,440,"PO BOX 2666, COLUMBUS, GA, 31902","No_Match",NA,NA,NA,NA
342441,"PO BOX 2666","LITTLE ROCK","AR",72203,NA,NA,441,"PO BOX 2666, LITTLE ROCK, AR, 72203","No_Match",NA,NA,NA,NA
342442,"PO BOX 2666","SECAUCUS","NJ",7096,NA,NA,442,"PO BOX 2666, SECAUCUS, NJ, 7096","No_Match",NA,NA,NA,NA
342443,"PO BOX 2667","RENTON","WA",98056,NA,NA,443,"PO BOX 2667, RENTON, WA, 98056","No_Match",NA,NA,NA,NA
342444,"PO BOX 2668","RENTON","WA",98056,NA,NA,444,"PO BOX 2668, RENTON, WA, 98056","No_Match",NA,NA,NA,NA
342445,"PO BOX 266844","HOUSTON","TX",77207,NA,NA,445,"PO BOX 266844, HOUSTON, TX, 77207","No_Match",NA,NA,NA,NA
342446,"PO BOX 267","AVON","CT",6001,NA,NA,446,"PO BOX 267, AVON, CT, 6001","No_Match",NA,NA,NA,NA
342447,"PO BOX 267","BERLIN","WI",54923,NA,NA,447,"PO BOX 267, BERLIN, WI, 54923","No_Match",NA,NA,NA,NA
342448,"PO BOX 267","BREMOND","TX",76629,NA,NA,448,"PO BOX 267, BREMOND, TX, 76629","No_Match",NA,NA,NA,NA
342449,"PO BOX 267","BROOKLIN","ME",4616,NA,NA,449,"PO BOX 267, BROOKLIN, ME, 4616","No_Match",NA,NA,NA,NA
342450,"PO BOX 267","DRAYTON","ND",58225,NA,NA,450,"PO BOX 267, DRAYTON, ND, 58225","No_Match",NA,NA,NA,NA
342451,"PO BOX 267","EL PRADO","NM",87529,NA,NA,451,"PO BOX 267, EL PRADO, NM, 87529","No_Match",NA,NA,NA,NA
342452,"PO BOX 267","ELK RIVER","MN",55330,NA,NA,452,"PO BOX 267, ELK RIVER, MN, 55330","No_Match",NA,NA,NA,NA
342453,"PO BOX 267","FAIRVIEW VILLAGE","PA",19409,NA,NA,453,"PO BOX 267, FAIRVIEW VILLAGE, PA, 19409","No_Match",NA,NA,NA,NA
342454,"PO BOX 267","GARRETSON","SD",57030,NA,NA,454,"PO BOX 267, GARRETSON, SD, 57030","No_Match",NA,NA,NA,NA
342455,"PO BOX 267","GREENVILLE JUNCTION","ME",4442,NA,NA,455,"PO BOX 267, GREENVILLE JUNCTION, ME, 4442","No_Match",NA,NA,NA,NA
342456,"PO BOX 267","LINTHICUM","MD",21090,NA,NA,456,"PO BOX 267, LINTHICUM, MD, 21090","No_Match",NA,NA,NA,NA
342457,"PO BOX 267","MCCORMICK","SC",29835,NA,NA,457,"PO BOX 267, MCCORMICK, SC, 29835","No_Match",NA,NA,NA,NA
342458,"PO BOX 267","OTISVILLE","MI",48463,NA,NA,458,"PO BOX 267, OTISVILLE, MI, 48463","No_Match",NA,NA,NA,NA
342459,"PO BOX 267","PENDLETON","KY",40055,NA,NA,459,"PO BOX 267, PENDLETON, KY, 40055","No_Match",NA,NA,NA,NA
342460,"PO BOX 267","RAVENSWOOD","WV",26164,NA,NA,460,"PO BOX 267, RAVENSWOOD, WV, 26164","No_Match",NA,NA,NA,NA
342461,"PO BOX 267","STERLING","CO",80751,NA,NA,461,"PO BOX 267, STERLING, CO, 80751","No_Match",NA,NA,NA,NA
342462,"PO BOX 267","SUN PRAIRIE","WI",53590,NA,NA,462,"PO BOX 267, SUN PRAIRIE, WI, 53590","No_Match",NA,NA,NA,NA
342463,"PO BOX 267","WELLSTON","OH",45692,NA,NA,463,"PO BOX 267, WELLSTON, OH, 45692","No_Match",NA,NA,NA,NA
342464,"PO BOX 267","WINCHESTER","VA",22604,NA,NA,464,"PO BOX 267, WINCHESTER, VA, 22604","No_Match",NA,NA,NA,NA
342465,"PO BOX 26702","INDIANAPOLIS","IN",46226,NA,NA,465,"PO BOX 26702, INDIANAPOLIS, IN, 46226","No_Match",NA,NA,NA,NA
342466,"PO BOX 26705","TEMPE","AZ",85285,NA,NA,466,"PO BOX 26705, TEMPE, AZ, 85285","No_Match",NA,NA,NA,NA
342467,"PO BOX 26707","JACKSONVILLE","FL",32226,NA,NA,467,"PO BOX 26707, JACKSONVILLE, FL, 32226","No_Match",NA,NA,NA,NA
342468,"PO BOX 2671","GRANITE BAY","CA",95746,NA,NA,468,"PO BOX 2671, GRANITE BAY, CA, 95746","No_Match",NA,NA,NA,NA
342469,"PO BOX 2671","MCKINNEY","TX",75070,NA,NA,469,"PO BOX 2671, MCKINNEY, TX, 75070","No_Match",NA,NA,NA,NA
342470,"PO BOX 26713","PRESCOTT VALLEY","AZ",86312,NA,NA,470,"PO BOX 26713, PRESCOTT VALLEY, AZ, 86312","No_Match",NA,NA,NA,NA
342471,"PO BOX 26715","LITTLE ROCK","AR",72221,NA,NA,471,"PO BOX 26715, LITTLE ROCK, AR, 72221","No_Match",NA,NA,NA,NA
342472,"PO BOX 267157","WESTON","FL",33326,NA,NA,472,"PO BOX 267157, WESTON, FL, 33326","No_Match",NA,NA,NA,NA
342473,"PO BOX 2672","CHESAPEAKE","VA",23327,NA,NA,473,"PO BOX 2672, CHESAPEAKE, VA, 23327","No_Match",NA,NA,NA,NA
342474,"PO BOX 2673","BROKEN ARROW","OK",74013,NA,NA,474,"PO BOX 2673, BROKEN ARROW, OK, 74013","No_Match",NA,NA,NA,NA
342475,"PO BOX 2673","EVERETT","WA",98213,NA,NA,475,"PO BOX 2673, EVERETT, WA, 98213","No_Match",NA,NA,NA,NA
342476,"PO BOX 26745","ELKINS PARK","PA",19027,NA,NA,476,"PO BOX 26745, ELKINS PARK, PA, 19027","No_Match",NA,NA,NA,NA
342477,"PO BOX 2675","ARLINGTON","VA",22202,NA,NA,477,"PO BOX 2675, ARLINGTON, VA, 22202","No_Match",NA,NA,NA,NA
342478,"PO BOX 2675","BIG BEAR CITY","CA",92314,NA,NA,478,"PO BOX 2675, BIG BEAR CITY, CA, 92314","No_Match",NA,NA,NA,NA
342479,"PO BOX 26750","LOS ANGELES","CA",90026,NA,NA,479,"PO BOX 26750, LOS ANGELES, CA, 90026","No_Match",NA,NA,NA,NA
342480,"PO BOX 26752","GREENVILLE","SC",29616,NA,NA,480,"PO BOX 26752, GREENVILLE, SC, 29616","No_Match",NA,NA,NA,NA
342481,"PO BOX 2676","DESOTO","TX",75123,NA,NA,481,"PO BOX 2676, DESOTO, TX, 75123","No_Match",NA,NA,NA,NA
342482,"PO BOX 2676","STUART","FL",34995,NA,NA,482,"PO BOX 2676, STUART, FL, 34995","No_Match",NA,NA,NA,NA
342483,"PO BOX 26760","TEMPE","AZ",85285,NA,NA,483,"PO BOX 26760, TEMPE, AZ, 85285","No_Match",NA,NA,NA,NA
342484,"PO BOX 2677","AMAGANSETT","NY",11930,NA,NA,484,"PO BOX 2677, AMAGANSETT, NY, 11930","No_Match",NA,NA,NA,NA
342485,"PO BOX 26774","MACON","GA",31221,NA,NA,485,"PO BOX 26774, MACON, GA, 31221","No_Match",NA,NA,NA,NA
342486,"PO BOX 2679","HUNTINGTON STATION","NY",11746,NA,NA,486,"PO BOX 2679, HUNTINGTON STATION, NY, 11746","No_Match",NA,NA,NA,NA
342487,"PO BOX 2679","SANTA ROSA","CA",95405,NA,NA,487,"PO BOX 2679, SANTA ROSA, CA, 95405","No_Match",NA,NA,NA,NA
342488,"PO BOX 268","CANTON","GA",30114,NA,NA,488,"PO BOX 268, CANTON, GA, 30114","No_Match",NA,NA,NA,NA
342489,"PO BOX 268","CAVE SPRING","GA",30124,NA,NA,489,"PO BOX 268, CAVE SPRING, GA, 30124","No_Match",NA,NA,NA,NA
342490,"PO BOX 268","EAST NASSAU","NY",12062,NA,NA,490,"PO BOX 268, EAST NASSAU, NY, 12062","No_Match",NA,NA,NA,NA
342491,"PO BOX 268","GALESVILLE","MD",20765,NA,NA,491,"PO BOX 268, GALESVILLE, MD, 20765","No_Match",NA,NA,NA,NA
342492,"PO BOX 268","GRACEWOOD","GA",30812,NA,NA,492,"PO BOX 268, GRACEWOOD, GA, 30812","No_Match",NA,NA,NA,NA
342493,"PO BOX 268","LAFAYETTE","OR",97127,NA,NA,493,"PO BOX 268, LAFAYETTE, OR, 97127","No_Match",NA,NA,NA,NA
342494,"PO BOX 268","LAKEVIEW","OR",97630,NA,NA,494,"PO BOX 268, LAKEVIEW, OR, 97630","No_Match",NA,NA,NA,NA
342495,"PO BOX 268","LATHROP","MO",64465,NA,NA,495,"PO BOX 268, LATHROP, MO, 64465","No_Match",NA,NA,NA,NA
342496,"PO BOX 268","MARBLE FALLS","TX",78654,NA,NA,496,"PO BOX 268, MARBLE FALLS, TX, 78654","No_Match",NA,NA,NA,NA
342497,"PO BOX 268","PARKTON","NC",28371,NA,NA,497,"PO BOX 268, PARKTON, NC, 28371","No_Match",NA,NA,NA,NA
342498,"PO BOX 268","ROCK CAVE","WV",26234,NA,NA,498,"PO BOX 268, ROCK CAVE, WV, 26234","No_Match",NA,NA,NA,NA
342499,"PO BOX 268","SHAWNEE","CO",90475,NA,NA,499,"PO BOX 268, SHAWNEE, CO, 90475","No_Match",NA,NA,NA,NA
342500,"PO BOX 268","STANLEY","ND",58784,NA,NA,500,"PO BOX 268, STANLEY, ND, 58784","No_Match",NA,NA,NA,NA
