"ID","Address","City","State","Zip","lat","long","id","input_address","match_indicator","match_type","matched_address","tiger_line_id","tiger_side"
27501,"1141 OAKCREST DRIVE","CHARLESTON","SC",29412,32.7239632820001,-79.959640281,1,"1141 OAKCREST DRIVE, CHARLESTON, SC, 29412","Match","Exact","1141 OAKCREST DR, CHARLESTON, SC, 29412",108825840,"R"
27502,"1141 OLIVIA LN","CINCINNATI","OH",45238,39.115123381,-84.596987416,2,"1141 OLIVIA LN, CINCINNATI, OH, 45238","Match","Exact","1141 OLIVIA LN, CINCINNATI, OH, 45238",647371108,"L"
27503,"1141 ONTARIO STREET","BRIGHTON","AL",35020,33.434578903,-86.9436853349999,3,"1141 ONTARIO STREET, BRIGHTON, AL, 35020","Match","Exact","1141 ONTARIO ST, BRIGHTON, AL, 35020",81712849,"R"
27504,"1141 RAMSGATE RD APT 4","FLINT","MI",48532,43.0142519,-83.806882832,4,"1141 RAMSGATE RD APT 4, FLINT, MI, 48532","Match","Exact","1141 RAMSGATE RD, FLINT, MI, 48532",69561773,"L"
27505,"1141 RAMSGATE RD","FLINT","MI",48532,43.0142519,-83.806882832,5,"1141 RAMSGATE RD, FLINT, MI, 48532","Match","Exact","1141 RAMSGATE RD, FLINT, MI, 48532",69561773,"L"
27506,"1141 REX ROAD","HAYWARD","CA",94541,37.679884932,-122.086955032,6,"1141 REX ROAD, HAYWARD, CA, 94541","Match","Exact","1141 REX RD, HAYWARD, CA, 94541",125050410,"R"
27507,"1141 S BIRCH ST  2-401","GLENDALE","CO",80246,39.6958195920001,-104.936229673,7,"1141 S BIRCH ST  2-401, GLENDALE, CO, 80246","Match","Non_Exact","1141 S BIRCH ST, GLENDALE, CO, 80246",177516128,"R"
27508,"1141 S E 2ND AVENUE","FORT LAUDERDALE","FL",33316,26.1081544910001,-80.141321249,8,"1141 S E 2ND AVENUE, FORT LAUDERDALE, FL, 33316","Match","Non_Exact","1141 SE 2ND AVE, FORT LAUDERDALE, FL, 33316",114727938,"R"
27509,"1141 S EDWIN C MOSES BLVD","DAYTON","OH",45417,39.741637257,-84.194849129,9,"1141 S EDWIN C MOSES BLVD, DAYTON, OH, 45417","Match","Exact","1141 S EDWIN C MOSES BLVD, DAYTON, OH, 45417",653476374,"R"
27510,"1141 S STRANG LINE ROAD","LENEXA","KS",66215,NA,NA,10,"1141 S STRANG LINE ROAD, LENEXA, KS, 66215","No_Match",NA,NA,NA,NA
27511,"1141 SAINT JOHNS PL","BROOKLYN","NY",11213,40.67110481,-73.940444669,11,"1141 SAINT JOHNS PL, BROOKLYN, NY, 11213","Match","Exact","1141 ST JOHNS PL, BROOKLYN, NY, 11213",59079707,"L"
27512,"1141 SHAMROCK DRIVE","SEBRING","FL",33875,27.464617462,-81.454968035,12,"1141 SHAMROCK DRIVE, SEBRING, FL, 33875","Match","Exact","1141 SHAMROCK DR, SEBRING, FL, 33875",4711964,"L"
27513,"1141 SHERIDAN ROAD NE","ATLANTA","GA",30324,33.820398163,-84.350146431,13,"1141 SHERIDAN ROAD NE, ATLANTA, GA, 30324","Match","Exact","1141 SHERIDAN RD NE, ATLANTA, GA, 30324",17356456,"R"
27514,"1141 STILFORD AVE","PLAINFIELD","NJ",7060,40.609224204,-74.4046332789999,14,"1141 STILFORD AVE, PLAINFIELD, NJ, 7060","Match","Exact","1141 STILFORD AVE, PLAINFIELD, NJ, 07060",60560822,"L"
27515,"1141 STONE KIRK DRIVE","RALEIGH","NC",27614,35.9464213140001,-78.662241845,15,"1141 STONE KIRK DRIVE, RALEIGH, NC, 27614","Match","Exact","1141 STONE KIRK DR, RALEIGH, NC, 27614",612820125,"L"
27516,"1141 SW 75TH AVE","PLANTATION","FL",33317,26.1061731360001,-80.248211869,16,"1141 SW 75TH AVE, PLANTATION, FL, 33317","Match","Exact","1141 SW 75TH AVE, PLANTATION, FL, 33317",608974494,"R"
27517,"1141 TENNYSON AVE","DAYTON","OH",45406,39.7690636620001,-84.238064922,17,"1141 TENNYSON AVE, DAYTON, OH, 45406","Match","Exact","1141 TENNYSON AVE, DAYTON, OH, 45406",143566839,"L"
27518,"1141 THORNWELL DRIVE","ATHENS","GA",30606,33.880617138,-83.396420769,18,"1141 THORNWELL DRIVE, ATHENS, GA, 30606","Match","Exact","1141 THORNWELL DR, ATHENS, GA, 30606",635757463,"L"
27519,"1141 VETETO RD","HUNTINGTON TX","TX",75949,31.382167764,-94.538935185,19,"1141 VETETO RD, HUNTINGTON TX, TX, 75949","Match","Non_Exact","1141 VETETO RD, HUNTINGTON, TX, 75949",23857446,"L"
27520,"1141 VISTA SOL","PALM SPRINGS","CA",92262,33.86728795,-116.564984504,20,"1141 VISTA SOL, PALM SPRINGS, CA, 92262","Match","Exact","1141 VIS SOL, PALM SPRINGS, CA, 92262",618341714,"R"
27521,"1141 W BEECH STREET","ALLIANCE","OH",44601,NA,NA,21,"1141 W BEECH STREET, ALLIANCE, OH, 44601","Tie",NA,NA,NA,NA
27522,"1141 W MAIN AVE STE 101","DEPERE","WI",54115,NA,NA,22,"1141 W MAIN AVE STE 101, DEPERE, WI, 54115","No_Match",NA,NA,NA,NA
27523,"1141 W RANDOLPH ST 2ND FLOOR","CHICAGO","IL",60607,41.8841441930001,-87.6556891499999,23,"1141 W RANDOLPH ST 2ND FLOOR, CHICAGO, IL, 60607","Match","Exact","1141 RANDOLPH ST, CHICAGO, IL, 60607",605268330,"L"
27524,"1141 W SHAW AVE SUITE 101","FRESNO","CA",93711,36.80835527,-119.811414195,24,"1141 W SHAW AVE SUITE 101, FRESNO, CA, 93711","Match","Non_Exact","1141 W SHAW AVE, FRESNO, CA, 93711",197569059,"L"
27525,"1141 WARD AVENUE APT BSMT","BRONX","NY",10472,40.82732822,-73.876973485,25,"1141 WARD AVENUE APT BSMT, BRONX, NY, 10472","Match","Exact","1141 WARD AVE, BRONX, NY, 10472",80311502,"L"
27526,"1141 WINDSOR LAKE CIRCLE","SANFORD","FL",32773,28.7681608120001,-81.277025609,26,"1141 WINDSOR LAKE CIRCLE, SANFORD, FL, 32773","Match","Exact","1141 WINDSOR LAKE CIR, SANFORD, FL, 32773",629321548,"R"
27527,"1141-13 72ND DRIVE","FLUSHING","NY",11367,NA,NA,27,"1141-13 72ND DRIVE, FLUSHING, NY, 11367","No_Match",NA,NA,NA,NA
27528,"1141-82ND AVENUE","OAKLAND","CA",94621,NA,NA,28,"1141-82ND AVENUE, OAKLAND, CA, 94621","No_Match",NA,NA,NA,NA
27529,"11410 APACHE DR APT 204","PARMA HEIGHTS","OH",44134,41.3991145030001,-81.7662834939999,29,"11410 APACHE DR APT 204, PARMA HEIGHTS, OH, 44134","Match","Non_Exact","11410 APACHE DR, PARMA HEIGHTS, OH, 44130",624550544,"L"
27530,"11410 BEACH ROAD","CHESTERFIELD","VA",23838,37.3558580870001,-77.5940626949999,30,"11410 BEACH ROAD, CHESTERFIELD, VA, 23838","Match","Exact","11410 BEACH RD, CHESTERFIELD, VA, 23838",201527437,"L"
27531,"11410 DEERFIELD DR BLDG A1","TRUCKEE","CA",96161,39.3205974000001,-120.209065168,31,"11410 DEERFIELD DR BLDG A1, TRUCKEE, CA, 96161","Match","Exact","11410 DEERFIELD DR, TRUCKEE, CA, 96161",106562325,"R"
27532,"11410 FM 1826","AUSTIN","TX",78737,30.1969880240001,-97.92189472,32,"11410 FM 1826, AUSTIN, TX, 78737","Match","Exact","11410 FM 1826, AUSTIN, TX, 78737",624380104,"R"
27533,"11410 GERMAN CHRUCH RD","WILLOW SPRINGS","IL",60480,41.738784278,-87.901165137,33,"11410 GERMAN CHRUCH RD, WILLOW SPRINGS, IL, 60480","Match","Non_Exact","11410 GERMAN CHURCH RD, WILLOW SPGS, IL, 60480",638361863,"R"
27534,"11410 NE 124TH STREET PMB475","KIRKLAND","WA",98034,47.711192512,-122.188620447,34,"11410 NE 124TH STREET PMB475, KIRKLAND, WA, 98034","Match","Non_Exact","11410 NE 124TH ST, KIRKLAND, WA, 98034",186997080,"L"
27535,"11410 SE PETROVITSKY ROAD","RENTON","WA",98055,NA,NA,35,"11410 SE PETROVITSKY ROAD, RENTON, WA, 98055","No_Match",NA,NA,NA,NA
27536,"11410 STATE HWY 113","MCALESTER","OK",74501,35.1448693400001,-95.771932033,36,"11410 STATE HWY 113, MCALESTER, OK, 74501","Match","Exact","11410 STATE HWY 113, MCALESTER, OK, 74501",106313794,"R"
27537,"11410 YELLOW TIP P","PARKER","CO",80134,39.509405578,-104.823744629,37,"11410 YELLOW TIP P, PARKER, CO, 80134","Match","Non_Exact","11410 YELLOW TIP PT, PARKER, CO, 80134",645843082,"L"
27538,"11411 BIG CANOE","JASPER","GA",30143,NA,NA,38,"11411 BIG CANOE, JASPER, GA, 30143","No_Match",NA,NA,NA,NA
27539,"11411 CARROLLWOOD DRIVE","TAMPA","FL",33618,28.0522989670001,-82.490629036,39,"11411 CARROLLWOOD DRIVE, TAMPA, FL, 33618","Match","Exact","11411 CARROLLWOOD DR, TAMPA, FL, 33618",104514626,"R"
27540,"11411 COLBERT CREEK LOOP NUM 104","RALEIGH","NC",27614,NA,NA,40,"11411 COLBERT CREEK LOOP NUM 104, RALEIGH, NC, 27614","No_Match",NA,NA,NA,NA
27541,"11411 NE 379TH STREET","LACENTER","WA",98629,45.8955415790001,-122.555719892,41,"11411 NE 379TH STREET, LACENTER, WA, 98629","Match","Non_Exact","11411 NE 379TH ST, LA CENTER, WA, 98629",158311711,"R"
27542,"11411 RESEARCH BLVD APT 814","AUSTIN","TX",78759,30.410877354,-97.744909642,42,"11411 RESEARCH BLVD APT 814, AUSTIN, TX, 78759","Match","Exact","11411 RESEARCH BLVD, AUSTIN, TX, 78759",650113804,"R"
27543,"11411 STEPHAN BRIDGE RD","ROSCOMMON","MI",48653,44.520804911,-84.600988393,43,"11411 STEPHAN BRIDGE RD, ROSCOMMON, MI, 48653","Match","Exact","11411 STEPHAN BRIDGE RD, ROSCOMMON, MI, 48653",174468553,"R"
27544,"11411 SW 225TH STREET","MIAMI","FL",33170,25.5582778690001,-80.376702334,44,"11411 SW 225TH STREET, MIAMI, FL, 33170","Match","Exact","11411 SW 225TH ST, MIAMI, FL, 33170",115994976,"R"
27545,"11411 TAFT ST","PEMBROKE PINES","FL",33026,26.024272904,-80.302335934,45,"11411 TAFT ST, PEMBROKE PINES, FL, 33026","Match","Exact","11411 TAFT ST, PEMBROKE PINES, FL, 33026",114700745,"R"
27546,"11411 VINEA LANE","HAMPTON","GA",30228,33.443588676,-84.317997277,46,"11411 VINEA LANE, HAMPTON, GA, 30228","Match","Exact","11411 VINEA LN, HAMPTON, GA, 30228",637663223,"R"
27547,"11411 WEST AVENUE","SAN ANTONIO","TX",78213,29.5436569120001,-98.51169226,47,"11411 WEST AVENUE, SAN ANTONIO, TX, 78213","Match","Exact","11411 WEST AVE, SAN ANTONIO, TX, 78213",101492831,"L"
27548,"114111 NW 34TH PL","SUNRISE","FL",33323,NA,NA,48,"114111 NW 34TH PL, SUNRISE, FL, 33323","No_Match",NA,NA,NA,NA
27549,"11412 GLEN FALLOCH COURT","AUSTIN","TX",78754,30.3478723060001,-97.609232458,49,"11412 GLEN FALLOCH COURT, AUSTIN, TX, 78754","Match","Exact","11412 GLEN FALLOCH CT, AUSTIN, TX, 78754",64006088,"R"
27550,"11412 KLEBBA","TAYLOR","MI",48480,NA,NA,50,"11412 KLEBBA, TAYLOR, MI, 48480","No_Match",NA,NA,NA,NA
27551,"11412 MIRACLE HILLS DRIVE SUITE 401","OMAHA","NE",68154,41.268675832,-96.100308543,51,"11412 MIRACLE HILLS DRIVE SUITE 401, OMAHA, NE, 68154","Match","Exact","11412 MIRACLE HILLS DR, OMAHA, NE, 68154",117018060,"L"
27552,"11412 QUEEN ANNE AVENUE","BELTSVILLE","MD",20705,39.0416744440001,-76.906533107,52,"11412 QUEEN ANNE AVENUE, BELTSVILLE, MD, 20705","Match","Exact","11412 QUEEN ANNE AVE, BELTSVILLE, MD, 20705",76324154,"L"
27553,"11413 HAWK ROOST CT","CHARLOTTE","NC",28214,35.312204063,-80.976430256,53,"11413 HAWK ROOST CT, CHARLOTTE, NC, 28214","Match","Exact","11413 HAWK ROOST CT, CHARLOTTE, NC, 28214",70543360,"R"
27554,"11413 LAKE LUCAYA DR","RIVERVIEW","FL",33579,27.8202067290001,-82.3143803309999,54,"11413 LAKE LUCAYA DR, RIVERVIEW, FL, 33579","Match","Exact","11413 LAKE LUCAYA DR, RIVERVIEW, FL, 33579",653183062,"R"
27555,"11413 MAGGIORE DRIVE","AUSTIN","TX",78739,30.184551824,-97.899581059,55,"11413 MAGGIORE DRIVE, AUSTIN, TX, 78739","Match","Exact","11413 MAGGIORE DR, AUSTIN, TX, 78739",649000192,"R"
27556,"11413 SULLIVAN ROAD","CENTRAL","LA",70818,30.5525796000001,-91.035796482,56,"11413 SULLIVAN ROAD, CENTRAL, LA, 70818","Match","Non_Exact","11413 SULLIVAN RD, BATON ROUGE, LA, 70818",636233861,"L"
27557,"11414 ARMORY RD","HEBRON","IL",60034,42.491545231,-88.413082671,57,"11414 ARMORY RD, HEBRON, IL, 60034","Match","Exact","11414 ARMORY RD, HEBRON, IL, 60034",119815181,"L"
27558,"11414 BELLAMAR ST","TEMPLE TERRACE","FL",33637,28.052998315,-82.362903869,58,"11414 BELLAMAR ST, TEMPLE TERRACE, FL, 33637","Match","Exact","11414 BELLAMAR ST, TEMPLE TER, FL, 33637",104715181,"R"
27559,"11414 EVERGREEN AVENUE","NORTHPORT","AL",35475,33.297839348,-87.585440308,59,"11414 EVERGREEN AVENUE, NORTHPORT, AL, 35475","Match","Exact","11414 EVERGREEN AVE, NORTHPORT, AL, 35475",640979703,"R"
27560,"11414 GLENN DALE RIDGE RD","GLENN DALE","MD",20769,38.9910726480001,-76.806548584,60,"11414 GLENN DALE RIDGE RD, GLENN DALE, MD, 20769","Match","Exact","11414 GLENN DALE RIDGE RD, GLENN DALE, MD, 20769",623960750,"R"
27561,"11414 GREAT MEADOW DRIVE","RESTON","VA",20191,38.942411986,-77.339004373,61,"11414 GREAT MEADOW DRIVE, RESTON, VA, 20191","Match","Exact","11414 GREAT MEADOW DR, RESTON, VA, 20191",642598786,"R"
27562,"11414 N PARK PL","MILWAUKEE","WI",53224,43.1522730200001,-88.054080818,62,"11414 N PARK PL, MILWAUKEE, WI, 53224","Match","Non_Exact","11414 W PARK PL, MILWAUKEE, WI, 53224",636677825,"R"
27563,"11414 NORTH 67TH STREET","SCOTTSDALE","AZ",85254,33.58983691,-111.937262162,63,"11414 NORTH 67TH STREET, SCOTTSDALE, AZ, 85254","Match","Exact","11414 N 67TH ST, SCOTTSDALE, AZ, 85254",128188575,"L"
27564,"11414 THORNWOOD AVE","CLEVELAND","OH",44108,41.528540929,-81.605228843,64,"11414 THORNWOOD AVE, CLEVELAND, OH, 44108","Match","Exact","11414 THORNWOOD AVE, CLEVELAND, OH, 44108",61163505,"R"
27565,"11414 TIJERAS","HELOTES","TX",78023,29.550077093,-98.678701584,65,"11414 TIJERAS, HELOTES, TX, 78023","Match","Exact","11414 TIJERAS, HELOTES, TX, 78023",101700574,"L"
27566,"11414 TOWER HILL LN","MARDELA SPRINGS","MD",21837,38.508226517,-75.731078811,66,"11414 TOWER HILL LN, MARDELA SPRINGS, MD, 21837","Match","Exact","11414 TOWER HILL LN, MARDELA SPRINGS, MD, 21837",635738365,"L"
27567,"11414 W ALVARADO RD","AVONDALE","AZ",85392,33.4708300120001,-112.305140513,67,"11414 W ALVARADO RD, AVONDALE, AZ, 85392","Match","Exact","11414 W ALVARADO RD, AVONDALE, AZ, 85392",244020036,"L"
27568,"11414 WEST PARK PLACE 202","MILWAUKEE","WI",53224,43.15225717,-88.054071804,68,"11414 WEST PARK PLACE 202, MILWAUKEE, WI, 53224","Match","Exact","11414 W PARK PL, MILWAUKEE, WI, 53224",636677825,"R"
27569,"11414 WEST PARK PLACE SUITE 202","MILWAUKEE","WI",53224,43.15225717,-88.054071804,69,"11414 WEST PARK PLACE SUITE 202, MILWAUKEE, WI, 53224","Match","Exact","11414 W PARK PL, MILWAUKEE, WI, 53224",636677825,"R"
27570,"11415 BEDFORDSHIRE AVE","POTOMAC","MD",20854,39.043346091,-77.2051474049999,70,"11415 BEDFORDSHIRE AVE, POTOMAC, MD, 20854","Match","Exact","11415 BEDFORDSHIRE AVE, POTOMAC, MD, 20854",62053542,"R"
27571,"11415 CHIMNEY ROCK STE 201","HOUSTON","TX",77035,NA,NA,71,"11415 CHIMNEY ROCK STE 201, HOUSTON, TX, 77035","No_Match",NA,NA,NA,NA
27572,"11415 FIGHTER DRIVE","JBER","AK",99506,61.2412707720001,-149.848918645,72,"11415 FIGHTER DRIVE, JBER, AK, 99506","Match","Exact","11415 FIGHTER DR, JBER, AK, 99506",605173376,"L"
27573,"11415 FOUNTAINGROVE DRIVE","CHARLOTTE","NC",28262,35.346290841,-80.7483317149999,73,"11415 FOUNTAINGROVE DRIVE, CHARLOTTE, NC, 28262","Match","Exact","11415 FOUNTAINGROVE DR, CHARLOTTE, NC, 28262",70543825,"L"
27574,"11415 LEMOLI AVE 117","HAWTHORNE","CA",90250,NA,NA,74,"11415 LEMOLI AVE 117, HAWTHORNE, CA, 90250","No_Match",NA,NA,NA,NA
27575,"11415 SAGEMORGAN DRIVE","HOUSTON","TX",77089,29.5799543040001,-95.232860876,75,"11415 SAGEMORGAN DRIVE, HOUSTON, TX, 77089","Match","Exact","11415 SAGEMORGAN DR, HOUSTON, TX, 77089",96113040,"L"
27576,"11416 S YALE AVE","CHICAGO","IL",60628,41.686768338,-87.628940782,76,"11416 S YALE AVE, CHICAGO, IL, 60628","Match","Exact","11416 S YALE AVE, CHICAGO, IL, 60628",605459245,"R"
27577,"11416 TIMOTHY WAY","GRASS VALLEY","CA",95949,39.141576372,-121.044217155,77,"11416 TIMOTHY WAY, GRASS VALLEY, CA, 95949","Match","Exact","11416 TIMOTHY WAY, GRASS VALLEY, CA, 95949",106551534,"L"
27578,"11417 BUTTERFRUIT WAY","ELLICOTT CITY","MD",21042,39.2846359820001,-76.906283038,78,"11417 BUTTERFRUIT WAY, ELLICOTT CITY, MD, 21042","Match","Exact","11417 BUTTERFRUIT WAY, ELLICOTT CITY, MD, 21042",614147203,"L"
27579,"11417 EASTON SPRINGS DR","PEARLAND","TX",77584,29.563602229,-95.3977980509999,79,"11417 EASTON SPRINGS DR, PEARLAND, TX, 77584","Match","Exact","11417 EASTON SPRINGS DR, PEARLAND, TX, 77584",627642787,"L"
27580,"11417 EDGELAKE CT","GLEN ALLEN","VA",23059,37.7241131490001,-77.634251271,80,"11417 EDGELAKE CT, GLEN ALLEN, VA, 23059","Match","Exact","11417 EDGELAKE CT, GLEN ALLEN, VA, 23059",84975203,"R"
27581,"11417 STRANG LINE ROAD","LENEXA","KS",66215,38.921780702,-94.759081508,81,"11417 STRANG LINE ROAD, LENEXA, KS, 66215","Match","Exact","11417 STRANG LINE RD, LENEXA, KS, 66215",91316578,"R"
27582,"11418 BLOOMFIELD DRIVE","CHARLOTTE","NC",28277,35.0613619860001,-80.8052927259999,82,"11418 BLOOMFIELD DRIVE, CHARLOTTE, NC, 28277","Match","Exact","11418 BLOOMFIELD DR, CHARLOTTE, NC, 28277",70543578,"L"
27583,"11418 CORAL CANYON","SAN ANTONIO","TX",78252,29.3770900440001,-98.7158155019999,83,"11418 CORAL CANYON, SAN ANTONIO, TX, 78252","Match","Exact","11418 CORAL CANYON, SAN ANTONIO, TX, 78252",651694619,"R"
27584,"11418 CRYSTAL VIEW COURT","CLERMONT","FL",34711,28.5130208420001,-81.781033859,84,"11418 CRYSTAL VIEW COURT, CLERMONT, FL, 34711","Match","Exact","11418 CRYSTAL VIEW CT, CLERMONT, FL, 34711",94209430,"R"
27585,"11418 HAYMARKET CT","ORLANDO","FL",32837,28.400427758,-81.411121188,85,"11418 HAYMARKET CT, ORLANDO, FL, 32837","Match","Exact","11418 HAYMARKET CT, ORLANDO, FL, 32837",94290399,"R"
27586,"11418 HOGAN COVE","SAN ANTONIO","TX",78221,29.3048827430001,-98.483639872,86,"11418 HOGAN COVE, SAN ANTONIO, TX, 78221","Match","Exact","11418 HOGAN COVE, SAN ANTONIO, TX, 78221",619996544,"L"
27587,"11418 NORTH 39TH PLACE","PHOENIX","AZ",85028,33.5909022500001,-111.99709118,87,"11418 NORTH 39TH PLACE, PHOENIX, AZ, 85028","Match","Exact","11418 N 39TH PL, PHOENIX, AZ, 85028",128186808,"L"
27588,"11418 NORTH 5370 WEST","HIGHLAND","UT",84003,NA,NA,88,"11418 NORTH 5370 WEST, HIGHLAND, UT, 84003","No_Match",NA,NA,NA,NA
27589,"11418 S 43TH ST","BELLEVUE","NE",68123,NA,NA,89,"11418 S 43TH ST, BELLEVUE, NE, 68123","No_Match",NA,NA,NA,NA
27590,"11419 CENTER VILLAGE RD","GALENA","OH",43021,40.167069923,-82.837815908,90,"11419 CENTER VILLAGE RD, GALENA, OH, 43021","Match","Exact","11419 CENTER VILLAGE RD, GALENA, OH, 43021",639288255,"L"
27591,"11419 CENTER VILLAGE ROAD","GALENA","OH",43021,40.167069923,-82.837815908,91,"11419 CENTER VILLAGE ROAD, GALENA, OH, 43021","Match","Exact","11419 CENTER VILLAGE RD, GALENA, OH, 43021",639288255,"L"
27592,"11419 HABERSHAM COURT","NORTH FORT MYERS","FL",33917,26.71602941,-81.7711338949999,92,"11419 HABERSHAM COURT, NORTH FORT MYERS, FL, 33917","Match","Exact","11419 HABERSHAM CT, N FORT MYERS, FL, 33917",118023537,"L"
27593,"11419 ROCKFORD DRIVE","HOUSTON","TX",77048,29.6360229210001,-95.3420912029999,93,"11419 ROCKFORD DRIVE, HOUSTON, TX, 77048","Match","Exact","11419 ROCKFORD DR, HOUSTON, TX, 77048",96596009,"L"
27594,"11419 S FOREST AVE","CHICAGO","IL",60628,41.687164506,-87.615634186,94,"11419 S FOREST AVE, CHICAGO, IL, 60628","Match","Exact","11419 S FOREST AVE, CHICAGO, IL, 60628",111774035,"L"
27595,"11419 STANCLIFF ROAD","HOUSTON","TX",77099,29.6625421050001,-95.580219949,95,"11419 STANCLIFF ROAD, HOUSTON, TX, 77099","Match","Exact","11419 STANCLIFF RD, HOUSTON, TX, 77099",96036157,"L"
27596,"11419 SUNNYSIDE DRIVE","BAYTOWN","TX",77523,29.8652703270001,-94.8430066399999,96,"11419 SUNNYSIDE DRIVE, BAYTOWN, TX, 77523","Match","Exact","11419 SUNNYSIDE DR, BAYTOWN, TX, 77523",95952883,"L"
27597,"1142 3RD AVE","NAPA","CA",94558,38.300997717,-122.238263623,97,"1142 3RD AVE, NAPA, CA, 94558","Match","Exact","1142 3RD AVE, NAPA, CA, 94558",635481638,"R"
27598,"1142 ALLISON ROAD / P O BOX 987","BELLEFONTAINE","OH",43311,40.374852053,-83.7497425399999,98,"1142 ALLISON ROAD / P O BOX 987, BELLEFONTAINE, OH, 43311","Match","Exact","1142 ALLISON RD, BELLEFONTAINE, OH, 43311",52166243,"R"
27599,"1142 BERKLEY AVENUE","YOUNGSTOWN","OH",44505,41.114901747,-80.6273549429999,99,"1142 BERKLEY AVENUE, YOUNGSTOWN, OH, 44505","Match","Exact","1142 BERKLEY AVE, YOUNGSTOWN, OH, 44505",64596538,"L"
27600,"1142 BETHEL ST","HONOLULU","HI",96813,21.3109726370001,-157.860852625,100,"1142 BETHEL ST, HONOLULU, HI, 96813","Match","Exact","1142 BETHEL ST, HONOLULU, HI, 96813",203236004,"L"
27601,"1142 BORDEN GRANT TRAIL","BUENA VISTA","VA",24416,37.81279111,-79.3405312899999,101,"1142 BORDEN GRANT TRAIL, BUENA VISTA, VA, 24416","Match","Exact","1142 BORDEN GRANT TRL, BUENA VISTA, VA, 24416",63130188,"R"
27602,"1142 BRIENSBURG RD","BENTON","KY",42025,36.901796921,-88.3299866999999,102,"1142 BRIENSBURG RD, BENTON, KY, 42025","Match","Exact","1142 BRIENSBURG RD, BENTON, KY, 42025",99503582,"L"
27603,"1142 DANTEL COURT","STONE MOUNTAIN","GA",30083,33.813075747,-84.183605137,103,"1142 DANTEL COURT, STONE MOUNTAIN, GA, 30083","Match","Exact","1142 DANTEL CT, STONE MOUNTAIN, GA, 30083",23364586,"L"
27604,"1142 DE LEON DRIVE","CHULA VISA","CA",91910,32.631575361,-117.005472234,104,"1142 DE LEON DRIVE, CHULA VISA, CA, 91910","Match","Non_Exact","1142 DE LEON DR, CHULA VISTA, CA, 91910",195670867,"R"
27605,"1142 DUDLEY","PONTIAC","MI",48342,42.6522756520001,-83.256924875,105,"1142 DUDLEY, PONTIAC, MI, 48342","Match","Non_Exact","1142 DUDLEY AVE, PONTIAC, MI, 48342",69705303,"R"
27606,"1142 E 405TH RD","BOLIVAR","MO",65613,37.66484573,-93.421419752,106,"1142 E 405TH RD, BOLIVAR, MO, 65613","Match","Exact","1142 E 405TH RD, BOLIVAR, MO, 65613",23053448,"L"
27607,"1142 E 75TH STREET","LOS ANGELES","CA",90001,33.9723115400001,-118.254825143,107,"1142 E 75TH STREET, LOS ANGELES, CA, 90001","Match","Exact","1142 E 75TH ST, LOS ANGELES, CA, 90001",142760288,"R"
27608,"1142 E SANDRTERRACE","PHOENIX","AZ",85022,NA,NA,108,"1142 E SANDRTERRACE, PHOENIX, AZ, 85022","No_Match",NA,NA,NA,NA
27609,"1142 EAST 165TH STREET","BRONX","NY",10459,40.8252340400001,-73.8876437499999,109,"1142 EAST 165TH STREET, BRONX, NY, 10459","Match","Exact","1142 E 165TH ST, BRONX, NY, 10459",80302482,"R"
27610,"1142 HOLTON ROAD","GROVE CITY","OH",43123,39.8580271860001,-83.0314287799999,110,"1142 HOLTON ROAD, GROVE CITY, OH, 43123","Match","Exact","1142 HOLTON RD, GROVE CITY, OH, 43123",624353170,"R"
27611,"1142 HUNTERS RD SE","BOGUE CHITTO","MS",39629,31.450810507,-90.413107253,111,"1142 HUNTERS RD SE, BOGUE CHITTO, MS, 39629","Match","Exact","1142 HUNTERS RD SE, BOGUE CHITTO, MS, 39629",612488984,"R"
27612,"1142 LEVITOW BLVD STE 231","MCCHORD AFB","WA",98438,NA,NA,112,"1142 LEVITOW BLVD STE 231, MCCHORD AFB, WA, 98438","No_Match",NA,NA,NA,NA
27613,"1142 N 95TH PLACE","MESA","AZ",85207,33.4360828590001,-111.624693546,113,"1142 N 95TH PLACE, MESA, AZ, 85207","Match","Exact","1142 N 95TH PL, MESA, AZ, 85207",128268142,"L"
27614,"1142 N HUDSON AVE","PASADENA","CA",91104,34.1657116310001,-118.134027368,114,"1142 N HUDSON AVE, PASADENA, CA, 91104","Match","Exact","1142 N HUDSON AVE, PASADENA, CA, 91104",141628631,"R"
27615,"1142 N LOUISE UNIT 4","GLENDALE","CA",91207,NA,NA,115,"1142 N LOUISE UNIT 4, GLENDALE, CA, 91207","No_Match",NA,NA,NA,NA
27616,"1142 NATURE RUN ROAD","BATAVIA","OH",45103,39.1106370740001,-84.246463959,116,"1142 NATURE RUN ROAD, BATAVIA, OH, 45103","Match","Exact","1142 NATURE RUN RD, BATAVIA, OH, 45103",118446940,"L"
27617,"1142 NW 195TH AVE SUITE 201","PEMBROKE PINES","FL",33029,26.016628794,-80.408283648,117,"1142 NW 195TH AVE SUITE 201, PEMBROKE PINES, FL, 33029","Match","Non_Exact","1142 NW 195TH AVE, PEMBROKE PINES, FL, 33029",114781513,"L"
27618,"1142 RED DANDY DR","ORLANDO","FL",32818,28.5604250420001,-81.512751989,118,"1142 RED DANDY DR, ORLANDO, FL, 32818","Match","Exact","1142 RED DANDY DR, ORLANDO, FL, 32818",94342041,"L"
27619,"1142 S BEECH ST","CASPER","WY",82601,42.838931867,-106.32092522,119,"1142 S BEECH ST, CASPER, WY, 82601","Match","Exact","1142 S BEECH ST, CASPER, WY, 82601",607720322,"R"
27620,"1142 S DIAMOND BAR BLVD  SUITE 834","DIAMOND BAR","CA",91765,NA,NA,120,"1142 S DIAMOND BAR BLVD  SUITE 834, DIAMOND BAR, CA, 91765","Tie",NA,NA,NA,NA
27621,"1142 S DIAMOND BAR BLVD","DIAMOND BAR","CA",91765,34.001791478,-117.810540257,121,"1142 S DIAMOND BAR BLVD, DIAMOND BAR, CA, 91765","Match","Exact","1142 S DIAMOND BAR BLVD, DIAMOND BAR, CA, 91765",241246316,"L"
27622,"1142 SICILY DR","GARLAND","TX",75040,32.938745888,-96.6165000129999,122,"1142 SICILY DR, GARLAND, TX, 75040","Match","Exact","1142 SICILY DR, GARLAND, TX, 75040",102926400,"R"
27623,"1142 SOMERA ROAD","LOS ANGELES","CA",90077,34.094124134,-118.45840637,123,"1142 SOMERA ROAD, LOS ANGELES, CA, 90077","Match","Exact","1142 SOMERA RD, LOS ANGELES, CA, 90077",141566637,"R"
27624,"1142 SOUTH MAIN","UNION","OR",97883,45.2017743070001,-117.865582197,124,"1142 SOUTH MAIN, UNION, OR, 97883","Match","Non_Exact","1142 S MAIN ST, UNION, OR, 97883",138843994,"L"
27625,"1142 STATE RD","WEST BRANCH","MI",48661,44.3036002540001,-84.170562347,125,"1142 STATE RD, WEST BRANCH, MI, 48661","Match","Exact","1142 STATE RD, WEST BRANCH, MI, 48661",161345615,"L"
27626,"1142 UNION SCHOOL ROAD","MOUNT JOY","PA",17552,40.082222164,-76.515211146,126,"1142 UNION SCHOOL ROAD, MOUNT JOY, PA, 17552","Match","Exact","1142 UNION SCHOOL RD, MOUNT JOY, PA, 17552",179679765,"R"
27627,"1142 W COURT ST","ELKHORN","WI",53121,42.674068649,-88.564165643,127,"1142 W COURT ST, ELKHORN, WI, 53121","Match","Exact","1142 W COURT ST, ELKHORN, WI, 53121",53690316,"R"
27628,"1142 WEST LAWRENCE 3N","CHICAGO","IL",60640,41.96904341,-87.658966159,128,"1142 WEST LAWRENCE 3N, CHICAGO, IL, 60640","Match","Non_Exact","1142 W LAWRENCE AVE, CHICAGO, IL, 60640",111761605,"R"
27629,"1142 WILLAGILLESPIE RD STE 11","EUGENE","OR",97401,44.072207115,-123.100390066,129,"1142 WILLAGILLESPIE RD STE 11, EUGENE, OR, 97401","Match","Exact","1142 WILLAGILLESPIE RD, EUGENE, OR, 97401",635937080,"L"
27630,"1142","Los Angeles","CA",90019,NA,NA,130,"1142, Los Angeles, CA, 90019","No_Match",NA,NA,NA,NA
27631,"11420 E 1ST AVE","AURORA","CO",80010,39.717931133,-104.85829941,131,"11420 E 1ST AVE, AURORA, CO, 80010","Match","Exact","11420 E 1ST AVE, AURORA, CO, 80010",177343077,"L"
27632,"11420 E 26TH AVE","AURORA","CO",80010,39.754721633,-104.85498118,132,"11420 E 26TH AVE, AURORA, CO, 80010","Match","Exact","11420 E 26TH AVE, AURORA, CO, 80010",646543623,"R"
27633,"11420 FORT WASHINGTON ROAD","FORT WASHINGTON","MD",20744,38.740070631,-77.001070278,133,"11420 FORT WASHINGTON ROAD, FORT WASHINGTON, MD, 20744","Match","Exact","11420 FORT WASHINGTON RD, FT WASHINGTON, MD, 20744",76315876,"L"
27634,"11420 LIBERTY MILLS ROAD","FORT WAYNE","IN",46814,41.030546402,-85.290629769,134,"11420 LIBERTY MILLS ROAD, FORT WAYNE, IN, 46814","Match","Exact","11420 LIBERTY MILLS RD, FORT WAYNE, IN, 46814",6373414,"R"
27635,"11420 MOLLY MAC DR","BALCH SPRINGS","TX",75180,32.714329627,-96.630621692,135,"11420 MOLLY MAC DR, BALCH SPRINGS, TX, 75180","Match","Exact","11420 MOLLY MAC DR, BALCH SPRINGS, TX, 75180",102963001,"R"
27636,"11420 NW 28TH CT","SUNRISE","FL",33323,26.160507653,-80.30283027,136,"11420 NW 28TH CT, SUNRISE, FL, 33323","Match","Exact","11420 NW 28TH CT, SUNRISE, FL, 33323",114767802,"R"
27637,"11420 PARMA LN APT 1022","FT WORTH","TX",76244,NA,NA,137,"11420 PARMA LN APT 1022, FT WORTH, TX, 76244","No_Match",NA,NA,NA,NA
27638,"11420 PINEHURST WAY NE","SEATTLE","WA",98125,47.711583402,-122.316032916,138,"11420 PINEHURST WAY NE, SEATTLE, WA, 98125","Match","Exact","11420 PINEHURST WAY NE, SEATTLE, WA, 98125",186584415,"R"
27639,"11420 TOP WALNUT LOOP","LOUISVILLE","KY",40229,38.0929348110001,-85.647240642,139,"11420 TOP WALNUT LOOP, LOUISVILLE, KY, 40229","Match","Exact","11420 TOP WALNUT LOOP, LOUISVILLE, KY, 40229",629086780,"R"
27640,"11420 US HIGHWAY ONE BOX 210","NORTH PALM BEACH","FL",33408,26.8431568990001,-80.061520888,140,"11420 US HIGHWAY ONE BOX 210, NORTH PALM BEACH, FL, 33408","Match","Non_Exact","11420 US HWY 1, NORTH PALM BEACH, FL, 33408",115337691,"R"
27641,"11421 13TH ST SE","DAZEY","ND",58429,47.2264663710001,-98.072269453,141,"11421 13TH ST SE, DAZEY, ND, 58429","Match","Exact","11421 13TH ST SE, DAZEY, ND, 58429",150692849,"L"
27642,"11421 COLBERT CREEK LOOP APT 309","RALEIGH","NC",27614,NA,NA,142,"11421 COLBERT CREEK LOOP APT 309, RALEIGH, NC, 27614","No_Match",NA,NA,NA,NA
27643,"11421 PATRIOT LN","POTOMAC","MD",20854,39.043411699,-77.1609707,143,"11421 PATRIOT LN, POTOMAC, MD, 20854","Match","Exact","11421 PATRIOT LN, POTOMAC, MD, 20854",62054264,"L"
27644,"11422 DERBY CT","PERKINS","OK",74059,35.9872304130001,-97.006176221,144,"11422 DERBY CT, PERKINS, OK, 74059","Match","Exact","11422 DERBY CT, PERKINS, OK, 74059",636129385,"L"
27645,"11422 ELEGANT WAY","HOUSTON","TX",77066,29.9427394620001,-95.494250665,145,"11422 ELEGANT WAY, HOUSTON, TX, 77066","Match","Exact","11422 ELEGANT WAY, HOUSTON, TX, 77066",624186795,"R"
27646,"11422 PACE CT","INDIANAPOLIS","IN",46229,39.8019563410001,-85.963489088,146,"11422 PACE CT, INDIANAPOLIS, IN, 46229","Match","Exact","11422 PACE CT, INDIANAPOLIS, IN, 46229",627383840,"L"
27647,"11422 SOUTH FOREST AVE APT3","CHICAGO","IL",60628,41.686528566,-87.6156301669999,147,"11422 SOUTH FOREST AVE APT3, CHICAGO, IL, 60628","Match","Exact","11422 S FOREST AVE, CHICAGO, IL, 60628",111774035,"R"
27648,"11422 W RT 150","BRIMFIELD","IL",61517,40.7940963840001,-89.774750873,148,"11422 W RT 150, BRIMFIELD, IL, 61517","Match","Non_Exact","11422 US HWY 150, BRIMFIELD, IL, 61517",8707752,"L"
27649,"11423 BELLE MEADE WAY","NORTHPORT","AL",35475,33.3012839630001,-87.572008377,149,"11423 BELLE MEADE WAY, NORTHPORT, AL, 35475","Match","Non_Exact","11423 BELLE MEADE CIR, NORTHPORT, AL, 35475",637531756,"R"
27650,"11423 LAKESIDE PLACE DRIVE","HOUSTON","TX",77077,29.7540037040001,-95.578701673,150,"11423 LAKESIDE PLACE DRIVE, HOUSTON, TX, 77077","Match","Exact","11423 LAKESIDE PLACE DR, HOUSTON, TX, 77077",96022526,"L"
27651,"11423 LEFFERTS BLVD","SOUTH OZONE PARK","NY",11420,NA,NA,151,"11423 LEFFERTS BLVD, SOUTH OZONE PARK, NY, 11420","No_Match",NA,NA,NA,NA
27652,"11423 WEATHERING OAKS DR","HOUSTON","TX",77066,29.94250966,-95.5015075909999,152,"11423 WEATHERING OAKS DR, HOUSTON, TX, 77066","Match","Exact","11423 WEATHERING OAKS DR, HOUSTON, TX, 77066",96143824,"R"
27653,"11424 FM 1807","ALVARADO","TX",76009,32.3830439160001,-97.1370745899999,153,"11424 FM 1807, ALVARADO, TX, 76009","Match","Exact","11424 FM 1807, ALVARADO, TX, 76009",640013968,"R"
27654,"11424 MT RITTER ST","RANCHO CUCAMONGA","CA",91737,34.1374278320001,-117.556005608,154,"11424 MT RITTER ST, RANCHO CUCAMONGA, CA, 91737","Match","Exact","11424 MT RITTER ST, RANCHO CUCAMONGA, CA, 91737",636785991,"L"
27655,"11425 GALE RIDGE TERRACE","HASLET","TX",76052,32.936250441,-97.3853358119999,155,"11425 GALE RIDGE TERRACE, HASLET, TX, 76052","Match","Exact","11425 GALE RIDGE TER, HASLET, TX, 76052",651893140,"R"
27656,"11425 HWY 64 E","TYLER","TX",75707,32.3225394570001,-95.2204485299999,156,"11425 HWY 64 E, TYLER, TX, 75707","Match","Non_Exact","11425 STATE HWY 64 E, TYLER, TX, 75707",141307207,"R"
27657,"11425 KINGSGATE DR","AUSTIN","TX",78748,30.155701605,-97.8397889299999,157,"11425 KINGSGATE DR, AUSTIN, TX, 78748","Match","Exact","11425 KINGSGATE DR, AUSTIN, TX, 78748",64031701,"L"
27658,"11425 NW 76 TERRACE","MIAMI","FL",33178,25.8427336980001,-80.382734034,158,"11425 NW 76 TERRACE, MIAMI, FL, 33178","Match","Exact","11425 NW 76TH TER, MIAMI, FL, 33178",629762881,"R"
27659,"11425 PRESIDIO DR","INDIANAPOLIS","IN",46235,39.832718034,-85.963871073,159,"11425 PRESIDIO DR, INDIANAPOLIS, IN, 46235","Match","Exact","11425 PRESIDIO DR, INDIANAPOLIS, IN, 46235",637808103,"R"
27660,"11425 RED JADE COURT","MARLBORO","MD",20774,38.892316239,-76.806829852,160,"11425 RED JADE COURT, MARLBORO, MD, 20774","Match","Non_Exact","11425 RED JADE CT, UPR MARLBORO, MD, 20774",76385327,"L"
27661,"11426 BALTIC STREET","SAN ANTONIO","TX",78213,29.5448130390001,-98.518487668,161,"11426 BALTIC STREET, SAN ANTONIO, TX, 78213","Match","Exact","11426 BALTIC ST, SAN ANTONIO, TX, 78213",101492806,"R"
27662,"11426 OAK POINT DRIVE","WEST BURLINGTON","IA",52655,40.8470653030001,-91.211376682,162,"11426 OAK POINT DRIVE, WEST BURLINGTON, IA, 52655","Match","Exact","11426 OAK POINT DR, W BURLINGTON, IA, 52655",5540507,"R"
27663,"11426 ROCKVILLE PIKE SUITE 229","ROCKVILLE","MD",20852,39.044601588,-77.111827525,163,"11426 ROCKVILLE PIKE SUITE 229, ROCKVILLE, MD, 20852","Match","Exact","11426 ROCKVILLE PIKE, ROCKVILLE, MD, 20852",642982447,"L"
27664,"11426 ROKEBY AVENUE","KENSINGTON","MD",20895,39.0432994490001,-77.1002098769999,164,"11426 ROKEBY AVENUE, KENSINGTON, MD, 20895","Match","Exact","11426 ROKEBY AVE, KENSINGTON, MD, 20895",62140013,"L"
27665,"11427 AMIGO AVE","PORTER RANCH","CA",91326,34.2788834840001,-118.54037714,165,"11427 AMIGO AVE, PORTER RANCH, CA, 91326","Match","Exact","11427 AMIGO AVE, PORTER RANCH, CA, 91326",141539250,"L"
27666,"11427 CARLTON FIELDS DRIVE","RIVERVIEW","FL",33579,27.7726080950001,-82.313373165,166,"11427 CARLTON FIELDS DRIVE, RIVERVIEW, FL, 33579","Match","Exact","11427 CARLTON FIELDS DR, RIVERVIEW, FL, 33579",648673121,"L"
27667,"11427 CHURCH HILL RD","MERCERSBURG","PA",17236,39.8374954380001,-77.888119154,167,"11427 CHURCH HILL RD, MERCERSBURG, PA, 17236","Match","Exact","11427 CHURCH HILL RD, MERCERSBURG, PA, 17236",60086029,"L"
27668,"11427 REED HARTMAN HIGHWAY S202","CINCINNATI","OH",45241,39.2771218520001,-84.373852843,168,"11427 REED HARTMAN HIGHWAY S202, CINCINNATI, OH, 45241","Match","Exact","11427 REED HARTMAN HWY, CINCINNATI, OH, 45241",103945295,"L"
27669,"11427 VILLAGE SQUARE DRIVE","MIDDLESEX","NC",27557,35.7919646390001,-78.209054012,169,"11427 VILLAGE SQUARE DRIVE, MIDDLESEX, NC, 27557","Match","Exact","11427 VILLAGE SQUARE DR, MIDDLESEX, NC, 27557",604962180,"L"
27670,"11428 17TH AVE CT NW","GIG HARBOR","WA",98332,47.3618940800001,-122.561206431,170,"11428 17TH AVE CT NW, GIG HARBOR, WA, 98332","Match","Exact","11428 17TH AVENUE CT NW, GIG HARBOR, WA, 98332",639241201,"L"
27671,"11428 CEDAR SPRING DR","FRISCO","TX",75035,33.187082565,-96.7790549919999,171,"11428 CEDAR SPRING DR, FRISCO, TX, 75035","Match","Exact","11428 CEDAR SPRINGS DR, FRISCO, TX, 75035",635383793,"L"
27672,"11428 FREEWAY PLACE NE","ALBUQUERQUE","NM",87123,35.080059584,-106.522078967,172,"11428 FREEWAY PLACE NE, ALBUQUERQUE, NM, 87123","Match","Exact","11428 FREEWAY PL NE, ALBUQUERQUE, NM, 87123",206774217,"R"
27673,"11428 MAPLE VALLEY DRIVE","PLYMOUTH","MI",48170,42.3623661560001,-83.537909771,173,"11428 MAPLE VALLEY DRIVE, PLYMOUTH, MI, 48170","Match","Exact","11428 MAPLE VALLEY DR, PLYMOUTH, MI, 48170",95689037,"L"
27674,"11428 PALATINE DRIVE","POTOMAC","MD",20854,39.0662828100001,-77.242306892,174,"11428 PALATINE DRIVE, POTOMAC, MD, 20854","Match","Exact","11428 PALATINE DR, POTOMAC, MD, 20854",62099659,"R"
27675,"11428 SOUTHEAST 90TH AVENUE 215","HAPPY VALLEY","OR",97086,45.4404613450001,-122.571128958,175,"11428 SOUTHEAST 90TH AVENUE 215, HAPPY VALLEY, OR, 97086","Match","Exact","11428 SE 90TH AVE, HAPPY VALLEY, OR, 97086",157976950,"L"
27676,"11428 THOMAS RD","SEFFNER","FL",33584,28.018991468,-82.292119677,176,"11428 THOMAS RD, SEFFNER, FL, 33584","Match","Exact","11428 THOMAS RD, SEFFNER, FL, 33584",104576266,"R"
27677,"11428 W MADERO DR","ARIZONA CITY","AZ",85123,32.754764933,-111.690266024,177,"11428 W MADERO DR, ARIZONA CITY, AZ, 85123","Match","Exact","11428 W MADERO DR, ARIZONA CITY, AZ, 85123",129185709,"R"
27678,"11429 177TH STREET","JAMAICA","NY",11434,40.6659007650001,-73.7709829039999,178,"11429 177TH STREET, JAMAICA, NY, 11434","Match","Non_Exact","11429 177TH PL, JAMAICA, NY, 11434",59735764,"R"
27679,"11429 DUBLIN RD","GLEN ALLEN","VA",23060,37.658174258,-77.592031052,179,"11429 DUBLIN RD, GLEN ALLEN, VA, 23060","Match","Exact","11429 DUBLIN RD, GLEN ALLEN, VA, 23060",651955728,"L"
27680,"11429 DUBLIN ROAD","GLEN ALLEN","VA",23060,37.658174258,-77.592031052,180,"11429 DUBLIN ROAD, GLEN ALLEN, VA, 23060","Match","Exact","11429 DUBLIN RD, GLEN ALLEN, VA, 23060",651955728,"L"
27681,"11429 MADERA ROSA WAY","SAN DIEGO","CA",92124,32.8143112880001,-117.082189998,181,"11429 MADERA ROSA WAY, SAN DIEGO, CA, 92124","Match","Exact","11429 MADERA ROSA WAY, SAN DIEGO, CA, 92124",195322463,"R"
27682,"11429 MANATEE DRIVE 1C","JACKSONVILLE","FL",32218,30.4430010230001,-81.660492318,182,"11429 MANATEE DRIVE 1C, JACKSONVILLE, FL, 32218","Match","Exact","11429 MANATEE DR, JACKSONVILLE, FL, 32218",83890996,"R"
27683,"11429 NEWGATE CREST","RIVERVIEW","FL",33579,27.811324228,-82.310394016,183,"11429 NEWGATE CREST, RIVERVIEW, FL, 33579","Match","Non_Exact","11429 NEWGATE CREST DR, RIVERVIEW, FL, 33579",612570481,"R"
27684,"11429 RUBY ROAD UNIT B","SALIDA","CO",81201,38.585864191,-106.064885839,184,"11429 RUBY ROAD UNIT B, SALIDA, CO, 81201","Match","Exact","11429 RUBY RD, SALIDA, CO, 81201",634955528,"R"
27685,"11429 TURNING LEAF TRAIL","FORT WORTH","TX",76244,32.939968826,-97.302162831,185,"11429 TURNING LEAF TRAIL, FORT WORTH, TX, 76244","Match","Exact","11429 TURNING LEAF TRL, FORT WORTH, TX, 76244",641668160,"L"
27686,"11429 VIA SPIGA DRIVE","LAS VEGAS","NV",89138,36.1649223580001,-115.346007086,186,"11429 VIA SPIGA DRIVE, LAS VEGAS, NV, 89138","Match","Exact","11429 VIA SPIGA DR, LAS VEGAS, NV, 89138",612689813,"L"
27687,"1143 1OTH ST","OAKLAND","CA",94607,NA,NA,187,"1143 1OTH ST, OAKLAND, CA, 94607","No_Match",NA,NA,NA,NA
27688,"1143 43RD ST","BROOKLYN","NY",11219,40.6405807510001,-73.9922392,188,"1143 43RD ST, BROOKLYN, NY, 11219","Match","Exact","1143 43RD ST, BROOKLYN, NY, 11219",59080105,"L"
27689,"1143 ANNIE LANE","MABLETON","GA",30126,33.83832862,-84.5870682939999,189,"1143 ANNIE LANE, MABLETON, GA, 30126","Match","Exact","1143 ANNIE LN, MABLETON, GA, 30126",17223179,"L"
27690,"1143 AVALON PKWY","WILLIAMSPORT","PA",17701,41.2701122290001,-76.9991397759999,190,"1143 AVALON PKWY, WILLIAMSPORT, PA, 17701","Match","Exact","1143 AVALON PKWY, WILLIAMSPORT, PA, 17701",213690624,"L"
27691,"1143 BEECHWOOD DR","TALLMADGE","OH",44278,41.095514167,-81.399788653,191,"1143 BEECHWOOD DR, TALLMADGE, OH, 44278","Match","Exact","1143 BEECHWOOD DR, TALLMADGE, OH, 44278",635797546,"L"
27692,"1143 CAROLEE DRIVE","RICHMOND","VA",23223,37.5625940410001,-77.3673917839999,192,"1143 CAROLEE DRIVE, RICHMOND, VA, 23223","Match","Exact","1143 CAROLEE DR, RICHMOND, VA, 23223",106659401,"L"
27693,"1143 COAKLEY RD","MT PLEASANT","SC",29466,32.8547240620001,-79.797882554,193,"1143 COAKLEY RD, MT PLEASANT, SC, 29466","Match","Exact","1143 COAKLEY RD, MOUNT PLEASANT, SC, 29466",649481712,"R"
27694,"1143 COAKLEY ROAD","MT PLEASANT","SC",29466,32.8547240620001,-79.797882554,194,"1143 COAKLEY ROAD, MT PLEASANT, SC, 29466","Match","Exact","1143 COAKLEY RD, MOUNT PLEASANT, SC, 29466",649481712,"R"
27695,"1143 E42ND STREET","BROOKLYN","NY",11210,NA,NA,195,"1143 E42ND STREET, BROOKLYN, NY, 11210","No_Match",NA,NA,NA,NA
27696,"1143 EAST 19TH STREET","BROOKLYN","NY",11230,40.622559202,-73.957011428,196,"1143 EAST 19TH STREET, BROOKLYN, NY, 11230","Match","Exact","1143 E 19TH ST, BROOKLYN, NY, 11230",59089933,"L"
27697,"1143 EAST 84TH STREET","BROOKLYN","NY",11236,40.6333924420001,-73.905902096,197,"1143 EAST 84TH STREET, BROOKLYN, NY, 11236","Match","Exact","1143 E 84TH ST, BROOKLYN, NY, 11236",59086488,"L"
27698,"1143 FOREST RISE DRIVE","WESTERVILLE","OH",43081,40.1076533570001,-82.892652003,198,"1143 FOREST RISE DRIVE, WESTERVILLE, OH, 43081","Match","Exact","1143 FOREST RISE DR, WESTERVILLE, OH, 43081",218696176,"R"
27699,"1143 GEORGETOWN RD APT 203","NORFOLK","VA",23502,36.8600828130001,-76.2029736819999,199,"1143 GEORGETOWN RD APT 203, NORFOLK, VA, 23502","Match","Exact","1143 GEORGETOWN RD, NORFOLK, VA, 23502",122143250,"L"
27700,"1143 HALLE PARK CIRCLE","COLLIERVILLE","TN",38017,35.0546566570001,-89.69796984,200,"1143 HALLE PARK CIRCLE, COLLIERVILLE, TN, 38017","Match","Exact","1143 HALLE PARK CIR, COLLIERVILLE, TN, 38017",643451267,"L"
27701,"1143 HICKORY MILLS DRIVE","HURRICANE","WV",25526,38.4431053980001,-81.998593672,201,"1143 HICKORY MILLS DRIVE, HURRICANE, WV, 25526","Match","Exact","1143 HICKORY MILLS DR, HURRICANE, WV, 25526",639847343,"R"
27702,"1143 HURON ROAD","NORTH BRUNSWICK","NJ",8902,40.461604127,-74.485864439,202,"1143 HURON ROAD, NORTH BRUNSWICK, NJ, 8902","Match","Exact","1143 HURON RD, N BRUNSWICK, NJ, 08902",60263321,"R"
27703,"1143 KENORA CIRCLE","BEAVERCREEK","OH",45430,39.724755396,-84.079621725,203,"1143 KENORA CIRCLE, BEAVERCREEK, OH, 45430","Match","Exact","1143 KENORA CIR, BEAVERCREEK, OH, 45430",143398932,"L"
27704,"1143 LAKE STREET","SALT LAKE CITY","UT",84105,40.7440308640001,-111.869609255,204,"1143 LAKE STREET, SALT LAKE CITY, UT, 84105","Match","Non_Exact","1143 S LAKE ST, SALT LAKE CITY, UT, 84105",176080330,"L"
27705,"1143 LENTEN WAY","STATHAM","GA",30666,33.9339691920001,-83.566508146,205,"1143 LENTEN WAY, STATHAM, GA, 30666","Match","Exact","1143 LENTEN WAY, STATHAM, GA, 30666",648566066,"R"
27706,"1143 LONGFELLOW AVE","WATERLOO","IA",50703,42.524774403,-92.3621871459999,206,"1143 LONGFELLOW AVE, WATERLOO, IA, 50703","Match","Exact","1143 LONGFELLOW AVE, WATERLOO, IA, 50703",77251750,"L"
27707,"1143 M CT","ANCHORAGE","AK",99501,61.2109400050001,-149.906435255,207,"1143 M CT, ANCHORAGE, AK, 99501","Match","Exact","1143 M CT, ANCHORAGE, AK, 99501",190796601,"L"
27708,"1143 N LAKE AVENUE","PASADENA","CA",91104,34.165495869,-118.132399281,208,"1143 N LAKE AVENUE, PASADENA, CA, 91104","Match","Exact","1143 N LAKE AVE, PASADENA, CA, 91104",141628636,"L"
27709,"1143 OLD ALBANY POST ROAD","GARRISON","NY",10524,NA,NA,209,"1143 OLD ALBANY POST ROAD, GARRISON, NY, 10524","Tie",NA,NA,NA,NA
27710,"1143 PARK HOLLOW LANE","LAWRENCEVILLE","GA",30043,34.0048579410001,-83.981877563,210,"1143 PARK HOLLOW LANE, LAWRENCEVILLE, GA, 30043","Match","Exact","1143 PARK HOLLOW LN, LAWRENCEVILLE, GA, 30043",645842045,"L"
27711,"1143 POPPY LN","WINNECONNE","WI",54986,44.1042179180001,-88.732391138,211,"1143 POPPY LN, WINNECONNE, WI, 54986","Match","Exact","1143 POPPY LN, WINNECONNE, WI, 54986",74504878,"R"
27712,"1143 SHRADER ST","SAN FRANCISCO","CA",94117,37.7643127540001,-122.451142743,212,"1143 SHRADER ST, SAN FRANCISCO, CA, 94117","Match","Exact","1143 SHRADER ST, SAN FRANCISCO, CA, 94117",192282379,"R"
27713,"1143 SOMMERS STREET NORTH","HUDSON","WI",54016,44.9988338210001,-92.7423424259999,213,"1143 SOMMERS STREET NORTH, HUDSON, WI, 54016","Match","Exact","1143 SOMMERS ST N, HUDSON, WI, 54016",612044504,"L"
27714,"1143 STATE ROAD","NORTH ADAMS","MA",1247,42.7011919770001,-73.175298508,214,"1143 STATE ROAD, NORTH ADAMS, MA, 1247","Match","Exact","1143 STATE RD, NORTH ADAMS, MA, 01247",618744181,"R"
27715,"1143 VILLAGE WAY","FAIRMONT","WV",26554,39.485632654,-80.167761573,215,"1143 VILLAGE WAY, FAIRMONT, WV, 26554","Match","Exact","1143 VILLAGE WAY, FAIRMONT, WV, 26554",51428941,"R"
27716,"1143 WINDRIM AVE","PHILADELPHIA","PA",19141,40.0321859210001,-75.1416599419999,216,"1143 WINDRIM AVE, PHILADELPHIA, PA, 19141","Match","Exact","1143 WINDRIM AVE, PHILADELPHIA, PA, 19141",131417321,"R"
27717,"11430 BALLS FORD RD","MANASSAS","VA",20136,38.793435075,-77.5375016529999,217,"11430 BALLS FORD RD, MANASSAS, VA, 20136","Match","Non_Exact","11430 BALLS FORD RD, MANASSAS, VA, 20109",76520034,"R"
27718,"11430 CEDAR AVENUE APT 9","HAWTHORNE","CA",90250,33.930569764,-118.349250224,218,"11430 CEDAR AVENUE APT 9, HAWTHORNE, CA, 90250","Match","Exact","11430 CEDAR AVE, HAWTHORNE, CA, 90250",141656963,"L"
27719,"11430 CORDOVA ROAD","CORDOVA","MD",21625,38.8603594940001,-76.0085598169999,219,"11430 CORDOVA ROAD, CORDOVA, MD, 21625","Match","Exact","11430 CORDOVA RD, CORDOVA, MD, 21625",209755443,"L"
27720,"11430 JAY ST NW","COON RAPIDS","MN",55433,45.1779914140001,-93.313578036,220,"11430 JAY ST NW, COON RAPIDS, MN, 55433","Match","Exact","11430 JAY ST NW, COON RAPIDS, MN, 55433",97516783,"L"
27721,"11430 N CHAROLEAU DR","ORO VALLEY","AZ",85737,32.413044165,-110.945597496,221,"11430 N CHAROLEAU DR, ORO VALLEY, AZ, 85737","Match","Exact","11430 N CHAROLEAU DR, ORO VALLEY, AZ, 85737",121225092,"L"
27722,"11430 NW 160TH STREET","REDDICK","FL",32686,29.376981432,-82.3131485279999,222,"11430 NW 160TH STREET, REDDICK, FL, 32686","Match","Exact","11430 NW 160TH ST, REDDICK, FL, 32686",116793953,"R"
27723,"11430 SOUTH STREET","CERRITOS","CA",90703,33.8583986200001,-118.089955758,223,"11430 SOUTH STREET, CERRITOS, CA, 90703","Match","Exact","11430 SOUTH ST, CERRITOS, CA, 90703",647450402,"R"
27724,"11430 TRAILBROOK LANE","SAN DIEGO","CA",92128,32.9435223850001,-117.082800877,224,"11430 TRAILBROOK LANE, SAN DIEGO, CA, 92128","Match","Exact","11430 TRAILBROOK LN, SAN DIEGO, CA, 92128",195686821,"R"
27725,"11430 VIOLET COVE","SAN ANTONIO","TX",78253,29.492127124,-98.718997442,225,"11430 VIOLET COVE, SAN ANTONIO, TX, 78253","Match","Exact","11430 VIOLET COVE, SAN ANTONIO, TX, 78253",641597976,"R"
27726,"11430 WEATHERING OAKS DR","HOUSTON","TX",77066,29.9427022190001,-95.501556565,226,"11430 WEATHERING OAKS DR, HOUSTON, TX, 77066","Match","Exact","11430 WEATHERING OAKS DR, HOUSTON, TX, 77066",96143824,"L"
27727,"11431 AMHERST STREET P O BOX 1324","SILVER SPRING","MD",20915,NA,NA,227,"11431 AMHERST STREET P O BOX 1324, SILVER SPRING, MD, 20915","No_Match",NA,NA,NA,NA
27728,"11431 N 39TH PLACE","PHOENIX","AZ",85028,33.5909502390001,-111.997121492,228,"11431 N 39TH PLACE, PHOENIX, AZ, 85028","Match","Exact","11431 N 39TH PL, PHOENIX, AZ, 85028",128186808,"R"
27729,"11431 N 56TH AVENUE","GLENDALE","AZ",85304,33.590328899,-112.18006983,229,"11431 N 56TH AVENUE, GLENDALE, AZ, 85304","Match","Exact","11431 N 56TH AVE, GLENDALE, AZ, 85304",128174902,"L"
27730,"11431 N PORT WASHINGTON RD STE 270","MEQUON","WI",53092,NA,NA,230,"11431 N PORT WASHINGTON RD STE 270, MEQUON, WI, 53092","No_Match",NA,NA,NA,NA
27731,"11431 SE 229TH ST","KENT","WA",98031,47.3964770850001,-122.187815741,231,"11431 SE 229TH ST, KENT, WA, 98031","Match","Exact","11431 SE 229TH ST, KENT, WA, 98031",186635459,"L"
27732,"11431 SUNSET BLVD","PINCKNEY","MI",48169,42.4316699760001,-83.991490961,232,"11431 SUNSET BLVD, PINCKNEY, MI, 48169","Match","Exact","11431 SUNSET BLVD, PINCKNEY, MI, 48169",23547372,"R"
27733,"11432  SOUTH STREET UNIT 385","CERRITOS","CA",90703,33.8583988720001,-118.089918478,233,"11432  SOUTH STREET UNIT 385, CERRITOS, CA, 90703","Match","Exact","11432 SOUTH ST, CERRITOS, CA, 90703",647450402,"R"
27734,"11432 RUM SPRING RD","FREDERICK","MD",21702,39.5475829100001,-77.502991664,234,"11432 RUM SPRING RD, FREDERICK, MD, 21702","Match","Exact","11432 RUM SPRINGS RD, FREDERICK, MD, 21702",651575691,"L"
27735,"11432 S 199TH ST","GRETNA","NE",68028,41.140753815,-96.227364214,235,"11432 S 199TH ST, GRETNA, NE, 68028","Match","Exact","11432 S 199TH ST, GRETNA, NE, 68028",217532527,"L"
27736,"11432 SOUTH ST APT 154","CERRITOS","CA",90703,33.8583988720001,-118.089918478,236,"11432 SOUTH ST APT 154, CERRITOS, CA, 90703","Match","Exact","11432 SOUTH ST, CERRITOS, CA, 90703",647450402,"R"
27737,"11433 ARLEE AVE","NORWALK","CA",90650,33.926747431,-118.080666155,237,"11433 ARLEE AVE, NORWALK, CA, 90650","Match","Exact","11433 ARLEE AVE, NORWALK, CA, 90650",141741281,"R"
27738,"11433 BUTTEMERE ROAD","PHELAN","CA",92371,34.4582331490001,-117.503878247,238,"11433 BUTTEMERE ROAD, PHELAN, CA, 92371","Match","Exact","11433 BUTTEMERE RD, PHELAN, CA, 92371",144582781,"R"
27739,"11433 EAST SAM HOUSTON PKWY N","HOUSTON","TX",77044,NA,NA,239,"11433 EAST SAM HOUSTON PKWY N, HOUSTON, TX, 77044","No_Match",NA,NA,NA,NA
27740,"11433 HAWTHORNE BOULEVARD","HAWTHORNE","CA",90250,NA,NA,240,"11433 HAWTHORNE BOULEVARD, HAWTHORNE, CA, 90250","No_Match",NA,NA,NA,NA
27741,"11433 IVAN LAKES CT","JACKSONVILLE","FL",32221,30.272716174,-81.855918645,241,"11433 IVAN LAKES CT, JACKSONVILLE, FL, 32221","Match","Exact","11433 IVAN LAKES CT, JACKSONVILLE, FL, 32221",629266713,"R"
27742,"11433 NEWGATE CREST DRIVE","RIVERVIEW","FL",33579,27.8113147190001,-82.3103668649999,242,"11433 NEWGATE CREST DRIVE, RIVERVIEW, FL, 33579","Match","Exact","11433 NEWGATE CREST DR, RIVERVIEW, FL, 33579",612570481,"R"
27743,"11433 RUNNING BEAR COURT","BELTSVILLE","MD",20705,39.0459835670001,-76.88491176,243,"11433 RUNNING BEAR COURT, BELTSVILLE, MD, 20705","Match","Exact","11433 RUNNING BEAR CT, BELTSVILLE, MD, 20705",76340844,"R"
27744,"11434 MILL RD","CINCINNATI","OH",45240,39.2853204350001,-84.5439037309999,244,"11434 MILL RD, CINCINNATI, OH, 45240","Match","Exact","11434 MILL RD, CINCINNATI, OH, 45240",103942908,"R"
27745,"11434 SUMMER LANE ROAD","BILOXI","MS",39532,30.4545948410001,-88.935734812,245,"11434 SUMMER LANE ROAD, BILOXI, MS, 39532","Match","Exact","11434 SUMMER LANE RD, BILOXI, MS, 39532",111398069,"L"
27746,"11435 AMBER VALLEY CT","HOUSTON","TX",77066,29.9531337700001,-95.505664623,246,"11435 AMBER VALLEY CT, HOUSTON, TX, 77066","Match","Exact","11435 AMBER VALLEY CT, HOUSTON, TX, 77066",96130048,"L"
27747,"11435 N BRYAN RD","MISSION","TX",78573,26.3192008400001,-98.29203674,247,"11435 N BRYAN RD, MISSION, TX, 78573","Match","Exact","11435 BRYAN RD, MISSION, TX, 78573",607624155,"L"
27748,"11435 W BUCKEYE RD SUITE 104-261","AVONDALE","AZ",85323,33.435419573,-112.304980499,248,"11435 W BUCKEYE RD SUITE 104-261, AVONDALE, AZ, 85323","Match","Exact","11435 BUCKEYE RD, AVONDALE, AZ, 85323",128171243,"L"
27749,"11436 E AMHERST CIRCLE NORTH","AURORA","CO",80014,39.6647780540001,-104.854854156,249,"11436 E AMHERST CIRCLE NORTH, AURORA, CO, 80014","Match","Exact","11436 E AMHERST CIR N, AURORA, CO, 80014",177355043,"R"
27750,"11436 ELMORE ROAD","ANCHORAGE","AK",99516,61.1171021580001,-149.804198248,250,"11436 ELMORE ROAD, ANCHORAGE, AK, 99516","Match","Exact","11436 ELMORE RD, ANCHORAGE, AK, 99516",190826123,"R"
27751,"11436 GERANIUM DR","FRISCO","TX",75035,33.1727137170001,-96.752772744,251,"11436 GERANIUM DR, FRISCO, TX, 75035","Match","Exact","11436 GERANIUM DR, FRISCO, TX, 75035",614141262,"L"
27752,"11436 MARKETPLACE DRIVE SUITE 333","CHAMPLIN","MN",55316,45.161950018,-93.3895720639999,252,"11436 MARKETPLACE DRIVE SUITE 333, CHAMPLIN, MN, 55316","Match","Exact","11436 MARKETPLACE DR, CHAMPLIN, MN, 55316",43670848,"R"
27753,"11436 RUSTIC ROCK DRIVE","AUSTIN","TX",78750,30.431549454,-97.784747361,253,"11436 RUSTIC ROCK DRIVE, AUSTIN, TX, 78750","Match","Exact","11436 RUSTIC ROCK DR, AUSTIN, TX, 78750",63925706,"L"
27754,"11436 SE 208TH ST SPC 53","KENT","WA",98031,47.4158393290001,-122.188574172,254,"11436 SE 208TH ST SPC 53, KENT, WA, 98031","Match","Non_Exact","11436 SE 208TH ST, KENT, WA, 98031",186672282,"L"
27755,"11437 STONE MILL CT","OAKTON","VA",22124,38.8801681960001,-77.343116714,255,"11437 STONE MILL CT, OAKTON, VA, 22124","Match","Exact","11437 STONE MILL CT, OAKTON, VA, 22124",641255643,"L"
27756,"11438 EAST RICKS CIRCLE","DALLAS","TX",75230,32.904716674,-96.789745653,256,"11438 EAST RICKS CIRCLE, DALLAS, TX, 75230","Match","Exact","11438 E RICKS CIR, DALLAS, TX, 75230",102901874,"R"
27757,"11438 GHIBERTI WAY","PORTER RANCH","CA",91326,34.2789389500001,-118.572340538,257,"11438 GHIBERTI WAY, PORTER RANCH, CA, 91326","Match","Exact","11438 GHIBERTI WAY, PORTER RANCH, CA, 91326",641002662,"R"
27758,"11438 S KINGSTON AVE","TULSA","OK",74137,35.997538498,-95.9071821799999,258,"11438 S KINGSTON AVE, TULSA, OK, 74137","Match","Exact","11438 S KINGSTON AVE, TULSA, OK, 74137",166486369,"R"
27759,"11438 S MARY ELLEN TER","HOMOSASSA","FL",34448,28.6958917360001,-82.555351875,259,"11438 S MARY ELLEN TER, HOMOSASSA, FL, 34448","Match","Exact","11438 S MARY ELLEN TER, HOMOSASSA, FL, 34448",86208289,"L"
27760,"11439 FRAMINGHAM DRIVE","CINCINNATI","OH",45240,39.2869144150001,-84.503025279,260,"11439 FRAMINGHAM DRIVE, CINCINNATI, OH, 45240","Match","Exact","11439 FRAMINGHAM DR, CINCINNATI, OH, 45240",103943616,"L"
27761,"11439 NW 49TH DR","CORAL SPRINGS","FL",33076,26.2909636000001,-80.279975453,261,"11439 NW 49TH DR, CORAL SPRINGS, FL, 33076","Match","Exact","11439 NW 49TH DR, CORAL SPRINGS, FL, 33076",114791783,"L"
27762,"11439 REMSEN ST","SAN ANTONIO","TX",78251,29.4388444900001,-98.705625627,262,"11439 REMSEN ST, SAN ANTONIO, TX, 78251","Match","Exact","11439 REMSEN ST, SAN ANTONIO, TX, 78251",101505409,"R"
27763,"1144 10TH AVE SUITE 300","HONOLULU","HI",96816,NA,NA,263,"1144 10TH AVE SUITE 300, HONOLULU, HI, 96816","No_Match",NA,NA,NA,NA
27764,"1144 17TH STREET","NEWPORT NEWS","VA",23607,36.980990681,-76.404009693,264,"1144 17TH STREET, NEWPORT NEWS, VA, 23607","Match","Exact","1144 17TH ST, NEWPORT NEWS, VA, 23607",103819617,"R"
27765,"1144 AMBER RIDGE SW","LILBURN","GA",30047,33.877304386,-84.064438944,265,"1144 AMBER RIDGE SW, LILBURN, GA, 30047","Match","Exact","1144 AMBER RIDGE SW, LILBURN, GA, 30047",88889693,"L"
27766,"1144 ARDSLEY COURT","SAN JOSE","CA",95120,37.2377602060001,-121.876343489,266,"1144 ARDSLEY COURT, SAN JOSE, CA, 95120","Match","Exact","1144 ARDSLEY CT, SAN JOSE, CA, 95120",123008680,"L"
27767,"1144 AUTUMN LANE","NEW LONDON","NC",28127,35.4175763160001,-80.2202814509999,267,"1144 AUTUMN LANE, NEW LONDON, NC, 28127","Match","Exact","1144 AUTUMN LN, NEW LONDON, NC, 28127",14094926,"L"
27768,"1144 BARBARA DR","DAYTONA BEACH","FL",32117,29.222478052,-81.068777446,268,"1144 BARBARA DR, DAYTONA BEACH, FL, 32117","Match","Exact","1144 BARBARA DR, DAYTONA BEACH, FL, 32117",94522513,"L"
27769,"1144 BARKER RD","MINERAL WELLS","TX",76067,32.79756565,-98.134699869,269,"1144 BARKER RD, MINERAL WELLS, TX, 76067","Match","Exact","1144 BARKER RD, MINERAL WELLS, TX, 76067",158840446,"R"
27770,"1144 BEECHRIDGE CT","BATAVIA","OH",45103,39.1100575520001,-84.247299055,270,"1144 BEECHRIDGE CT, BATAVIA, OH, 45103","Match","Exact","1144 BEECHRIDGE CT, BATAVIA, OH, 45103",118454336,"L"
27771,"1144 BUSHWICK AVE APT 3F","BROOKLYN","NY",11221,40.6892825480001,-73.9177688629999,271,"1144 BUSHWICK AVE APT 3F, BROOKLYN, NY, 11221","Match","Exact","1144 BUSHWICK AVE, BROOKLYN, NY, 11221",59083105,"R"
27772,"1144 BUSHWICK AVENUE STE 4F","BROOKLYN","NY",11221,40.6892825480001,-73.9177688629999,272,"1144 BUSHWICK AVENUE STE 4F, BROOKLYN, NY, 11221","Match","Exact","1144 BUSHWICK AVE, BROOKLYN, NY, 11221",59083105,"R"
27773,"1144 CLEVELAND AVENUE","HAVRE","MT",59501,48.5421434090001,-109.696940238,273,"1144 CLEVELAND AVENUE, HAVRE, MT, 59501","Match","Exact","1144 CLEVELAND AVE, HAVRE, MT, 59501",162154683,"L"
27774,"1144 DECATUR STREET","BROOKLYN","NY",11207,40.6877391880001,-73.908550249,274,"1144 DECATUR STREET, BROOKLYN, NY, 11207","Match","Exact","1144 DECATUR ST, BROOKLYN, NY, 11207",59083233,"R"
27775,"1144 E LARCH AVE","MUSKEGON","MI",49442,43.220623769,-86.215899365,275,"1144 E LARCH AVE, MUSKEGON, MI, 49442","Match","Exact","1144 E LARCH AVE, MUSKEGON, MI, 49442",77655157,"R"
27776,"1144 EDWARDS RD","CINCINNATI","OH",45208,39.1315761490001,-84.4440759349999,276,"1144 EDWARDS RD, CINCINNATI, OH, 45208","Match","Exact","1144 EDWARDS RD, CINCINNATI, OH, 45208",103931142,"R"
27777,"1144 FM 20","CEDAR CREEK","TX",78612,30.045169328,-97.4164359,277,"1144 FM 20, CEDAR CREEK, TX, 78612","Match","Exact","1144 FM 20, CEDAR CREEK, TX, 78612",45483218,"L"
27778,"1144 GEORGETOWN RD APT 202","NORFOLK","VA",23502,36.8600893920001,-76.202962719,278,"1144 GEORGETOWN RD APT 202, NORFOLK, VA, 23502","Match","Exact","1144 GEORGETOWN RD, NORFOLK, VA, 23502",122143250,"R"
27779,"1144 HERITAGE COURT","CHARLOTTE","NC",28208,NA,NA,279,"1144 HERITAGE COURT, CHARLOTTE, NC, 28208","No_Match",NA,NA,NA,NA
27780,"1144 LENOIR RHYNE BLVD SE","HICKORY","NC",28602,35.717496216,-81.314175022,280,"1144 LENOIR RHYNE BLVD SE, HICKORY, NC, 28602","Match","Exact","1144 LENOIR RHYNE BLVD SE, HICKORY, NC, 28602",45934162,"L"
27781,"1144 LIBERTY DRIVE","THOMASVILLE","NC",27360,35.863223084,-80.066963303,281,"1144 LIBERTY DRIVE, THOMASVILLE, NC, 27360","Match","Exact","1144 LIBERTY DR, THOMASVILLE, NC, 27360",604812552,"L"
27782,"1144 MOUNT IDA RD","OROVILLE","CA",95966,39.493384979,-121.476689643,282,"1144 MOUNT IDA RD, OROVILLE, CA, 95966","Match","Exact","1144 MOUNT IDA RD, OROVILLE, CA, 95966",68434400,"L"
27783,"1144 OXFORD ROAD","CLEVELAND HEIGHTS","OH",44121,41.5291591430001,-81.545372963,283,"1144 OXFORD ROAD, CLEVELAND HEIGHTS, OH, 44121","Match","Exact","1144 OXFORD RD, CLEVELAND HEIGHTS, OH, 44121",61124290,"R"
27784,"1144 ROCKY SPRINGS RD","MADISONVILLE","TN",37354,35.4838165950001,-84.329904485,284,"1144 ROCKY SPRINGS RD, MADISONVILLE, TN, 37354","Match","Exact","1144 ROCKY SPRINGS RD, MADISONVILLE, TN, 37354",85292334,"L"
27785,"1144 S BELVEDERE AVE","GASTONIA","NC",28054,35.261169916,-81.162130389,285,"1144 S BELVEDERE AVE, GASTONIA, NC, 28054","Match","Exact","1144 S BELVEDERE AVE, GASTONIA, NC, 28054",70380306,"L"
27786,"1144 SOUTH DETROIT UNIT 140771","TOLEDO","OH",43614,41.6195431460001,-83.599198971,286,"1144 SOUTH DETROIT UNIT 140771, TOLEDO, OH, 43614","Match","Non_Exact","1144 S DETROIT AVE, TOLEDO, OH, 43614",33950486,"R"
27787,"1144 SPRING CREEK DRIVE APT 303","FOREST","VA",24551,37.3690028070001,-79.2566638119999,287,"1144 SPRING CREEK DRIVE APT 303, FOREST, VA, 24551","Match","Exact","1144 SPRING CREEK DR, FOREST, VA, 24551",651789456,"L"
27788,"1144 VALLEY VISTA DRIVE","IRVING","TX",75063,32.9470246720001,-96.9620803289999,288,"1144 VALLEY VISTA DRIVE, IRVING, TX, 75063","Match","Exact","1144 VALLEY VISTA DR, IRVING, TX, 75063",617054944,"L"
27789,"1144 W 1ST STREET SUITE 1","CHICO","CA",94928,NA,NA,289,"1144 W 1ST STREET SUITE 1, CHICO, CA, 94928","No_Match",NA,NA,NA,NA
27790,"1144 WALNUT STREET","CENTREVILLE","AL",35042,32.944903643,-87.1346289419999,290,"1144 WALNUT STREET, CENTREVILLE, AL, 35042","Match","Exact","1144 WALNUT ST, CENTREVILLE, AL, 35042",38851507,"R"
27791,"1144 WEST 11TH STREET","LAWRENCE","KS",66044,38.964312964,-95.2480691119999,291,"1144 WEST 11TH STREET, LAWRENCE, KS, 66044","Match","Exact","1144 W 11TH ST, LAWRENCE, KS, 66044",17704668,"R"
27792,"1144 WEST GREGORY ROAD","PHOENIX","AZ",85041,33.402639924,-112.087001557,292,"1144 WEST GREGORY ROAD, PHOENIX, AZ, 85041","Match","Exact","1144 W GREGORY RD, PHOENIX, AZ, 85041",128212660,"R"
27793,"1144 WEST MAIN STREET","ASHLAND","OH",44805,40.8679904910001,-82.335452973,293,"1144 WEST MAIN STREET, ASHLAND, OH, 44805","Match","Exact","1144 W MAIN ST, ASHLAND, OH, 44805",30169059,"L"
27794,"11440 ABERDEEN DR","FONTANA","CA",92337,34.0450874920001,-117.463152089,294,"11440 ABERDEEN DR, FONTANA, CA, 92337","Match","Exact","11440 ABERDEEN DR, FONTANA, CA, 92337",144969216,"R"
27795,"11440 EAST GOODALL ROAD","Durand","MI",48429,42.9515287900001,-83.9426787949999,295,"11440 EAST GOODALL ROAD, Durand, MI, 48429","Match","Non_Exact","11440 GOODALL RD, DURAND, MI, 48429",647748686,"L"
27796,"11440 EAST GOODALL ROAD","DURAND","MI",48429,42.9515287900001,-83.9426787949999,296,"11440 EAST GOODALL ROAD, DURAND, MI, 48429","Match","Non_Exact","11440 GOODALL RD, DURAND, MI, 48429",647748686,"L"
27797,"11440 HALEIWA PL","DIAMONDHEAD","MS",39525,30.409417772,-89.372721912,297,"11440 HALEIWA PL, DIAMONDHEAD, MS, 39525","Match","Exact","11440 HALEIWA PL, DIAMONDHEAD, MS, 39525",111143326,"R"
27798,"11440 N 67TH STREET","SCOTTSDALE","AZ",85254,33.590026811,-111.937262421,298,"11440 N 67TH STREET, SCOTTSDALE, AZ, 85254","Match","Exact","11440 N 67TH ST, SCOTTSDALE, AZ, 85254",128188575,"L"
27799,"11440 NW 37TH ST","CORAL SPRINGS","FL",33065,26.275587757,-80.2786709489999,299,"11440 NW 37TH ST, CORAL SPRINGS, FL, 33065","Match","Exact","11440 NW 37TH ST, CORAL SPRINGS, FL, 33065",114689833,"L"
27800,"11440 OCEAN HWY","PRINCESS ANNE","MD",21853,NA,NA,300,"11440 OCEAN HWY, PRINCESS ANNE, MD, 21853","No_Match",NA,NA,NA,NA
27801,"11440 RAPALLO LANE","WINDERMERE","FL",34786,28.528816486,-81.548348166,301,"11440 RAPALLO LANE, WINDERMERE, FL, 34786","Match","Exact","11440 RAPALLO LN, WINDERMERE, FL, 34786",94408333,"L"
27802,"11440 W BERNARDO COURT SUITE 300","SAN DIEGO","CA",92127,33.020776518,-117.083073169,302,"11440 W BERNARDO COURT SUITE 300, SAN DIEGO, CA, 92127","Match","Non_Exact","11440 W BERNARDO CT, SAN DIEGO, CA, 92127",639049537,"R"
27803,"11440 WEST BERNARDO COURT SUITE 300","SAN DIEGO","CA",92127,33.0207845910001,-117.083076849,303,"11440 WEST BERNARDO COURT SUITE 300, SAN DIEGO, CA, 92127","Match","Exact","11440 W BERNARDO CT, SAN DIEGO, CA, 92127",639049537,"R"
27804,"11441 ELDRIDGE AVENUE","LAKE VIEW TERRACE","CA",91342,34.2776928390001,-118.381022921,304,"11441 ELDRIDGE AVENUE, LAKE VIEW TERRACE, CA, 91342","Match","Exact","11441 ELDRIDGE AVE, LAKE VIEW TERRACE, CA, 91342",141551689,"L"
27805,"11441 GOODWOOD BLVD","BATON ROUGE","LA",70815,30.4488554700001,-91.0562027719999,305,"11441 GOODWOOD BLVD, BATON ROUGE, LA, 70815","Match","Exact","11441 GOODWOOD BLVD, BATON ROUGE, LA, 70815",92191645,"L"
27806,"11441 NEWGATE CREST DR","RIVERVIEW","FL",33579,27.811295699,-82.310312562,306,"11441 NEWGATE CREST DR, RIVERVIEW, FL, 33579","Match","Exact","11441 NEWGATE CREST DR, RIVERVIEW, FL, 33579",612570481,"R"
27807,"11442 ELIZABETH BROOK DR","RICHMOND","TX",77406,29.6927677480001,-95.833957173,307,"11442 ELIZABETH BROOK DR, RICHMOND, TX, 77406","Match","Exact","11442 ELIZABETH BROOK DR, RICHMOND, TX, 77406",635083012,"R"
27808,"11442 SUNFISH DR","DELTON","MI",49046,42.4868383290001,-85.4410710079999,308,"11442 SUNFISH DR, DELTON, MI, 49046","Match","Exact","11442 SUNFISH DR, DELTON, MI, 49046",10530284,"L"
27809,"11442 TRILOGY PARKWAY NE","REDMOND","WA",98053,47.6996353380001,-122.023498247,309,"11442 TRILOGY PARKWAY NE, REDMOND, WA, 98053","Match","Exact","11442 TRILOGY PKWY NE, REDMOND, WA, 98053",644763915,"R"
27810,"114423 S 4177 ROAD","EUFAULA","OK",74432,NA,NA,310,"114423 S 4177 ROAD, EUFAULA, OK, 74432","No_Match",NA,NA,NA,NA
27811,"11443 EAST BALSAM FOREST LANE","BRIGHTON","UT",84121,NA,NA,311,"11443 EAST BALSAM FOREST LANE, BRIGHTON, UT, 84121","No_Match",NA,NA,NA,NA
27812,"11443 MANGLA DR","CHARLOTTE","NC",28214,35.340539861,-80.967067032,312,"11443 MANGLA DR, CHARLOTTE, NC, 28214","Match","Exact","11443 MANGLA DR, CHARLOTTE, NC, 28214",70555927,"L"
27813,"11443 MARIPOE ROAD","WEEKI WACHEE","FL",34614,28.5948957520001,-82.515381724,313,"11443 MARIPOE ROAD, WEEKI WACHEE, FL, 34614","Match","Exact","11443 MARIPOE RD, WEEKI WACHEE, FL, 34614",85422066,"L"
27814,"11443 ROSSOW COURT","DENHAM SPRINGS","LA",70726,30.4286281330001,-90.896525926,314,"11443 ROSSOW COURT, DENHAM SPRINGS, LA, 70726","Match","Non_Exact","11443 ROSSOW, DENHAM SPRINGS, LA, 70726",612915880,"L"
27815,"11444 28TH DRIVE UNIT 4","PHOENIX","AZ",85029,33.590979292,-112.119165051,315,"11444 28TH DRIVE UNIT 4, PHOENIX, AZ, 85029","Match","Non_Exact","11444 N 28TH DR, PHOENIX, AZ, 85029",128950938,"L"
27816,"11444 ANDREWS PARK DR","OLIVE BRANCH","MS",38654,34.9087229560001,-89.7881074479999,316,"11444 ANDREWS PARK DR, OLIVE BRANCH, MS, 38654","Match","Exact","11444 ANDREWS PARK DR, OLIVE BRANCH, MS, 38654",617662933,"L"
27817,"11444 W OLYMPIC BLVD 11TH FL","LOS ANGELES","CA",90064,34.0367911220001,-118.443581843,317,"11444 W OLYMPIC BLVD 11TH FL, LOS ANGELES, CA, 90064","Match","Non_Exact","11444 W OLYMPIC BLVD, LOS ANGELES, CA, 90064",141569595,"L"
27818,"11445 COMPAQ CENTER DR WEST","HOUSTON","TX",77070,NA,NA,318,"11445 COMPAQ CENTER DR WEST, HOUSTON, TX, 77070","No_Match",NA,NA,NA,NA
27819,"11445 E VIA LINDA SUITE 2-435","SCOTTSDALE","AZ",85259,33.589614367,-111.835224266,319,"11445 E VIA LINDA SUITE 2-435, SCOTTSDALE, AZ, 85259","Match","Non_Exact","11445 E VIA LINDA, SCOTTSDALE, AZ, 85259",128586295,"R"
27820,"11445 EMERALD ST STE 112","DALLLAS","TX",75229,32.8967637750001,-96.89931433,320,"11445 EMERALD ST STE 112, DALLLAS, TX, 75229","Match","Non_Exact","11445 EMERALD ST, DALLAS, TX, 75229",102889927,"L"
27821,"11445 FRANCES GREEN DR","NORTH POTOMAC","MD",20878,39.0914765270001,-77.2367432949999,321,"11445 FRANCES GREEN DR, NORTH POTOMAC, MD, 20878","Match","Exact","11445 FRANCES GREEN DR, N POTOMAC, MD, 20878",62048844,"R"
27822,"11445 HARDIN VALLEY RD","KNOXVILLE","TN",37932,35.932592442,-84.18218415,322,"11445 HARDIN VALLEY RD, KNOXVILLE, TN, 37932","Match","Exact","11445 HARDIN VALLEY RD, KNOXVILLE, TN, 37932",645577531,"L"
27823,"11445 HARTS ROAD","JACKSONVILLE","FL",32218,30.4426310380001,-81.658632757,323,"11445 HARTS ROAD, JACKSONVILLE, FL, 32218","Match","Exact","11445 HARTS RD, JACKSONVILLE, FL, 32218",83927007,"R"
27824,"11445 JOHNSON ALLY","IRVINGTON","AL",36544,30.452692944,-88.2392761,324,"11445 JOHNSON ALLY, IRVINGTON, AL, 36544","Match","Exact","11445 JOHNSON ALY, IRVINGTON, AL, 36544",61909908,"L"
27825,"11445 N 165TH LANE","SURPRISE","AZ",85388,33.58819922,-112.415454816,325,"11445 N 165TH LANE, SURPRISE, AZ, 85388","Match","Exact","11445 N 165TH LN, SURPRISE, AZ, 85388",646902619,"R"
27826,"11445 SW WOODLEE HEIGHTS CT","LAKE OSWEGO","OR",97219,45.442469815,-122.699667671,326,"11445 SW WOODLEE HEIGHTS CT, LAKE OSWEGO, OR, 97219","Match","Non_Exact","11445 SW WOODLEE HEIGHTS CT, PORTLAND, OR, 97219",157535505,"L"
27827,"11446 N STATE HWY 16","FREDERICKSBURG","TX",78624,30.3906100230001,-98.742517709,327,"11446 N STATE HWY 16, FREDERICKSBURG, TX, 78624","Match","Non_Exact","11446 N STATE HWY 16, FREDERICKSBURG, TX, 78624",652066584,"L"
27828,"11446 VIA LIDO","LOMA LINDA","CA",92354,34.0456984360001,-117.235398639,328,"11446 VIA LIDO, LOMA LINDA, CA, 92354","Match","Non_Exact","11446 VIA-LIDO, LOMA LINDA, CA, 92354",144716078,"R"
27829,"11447 BRANDOW ST","OREGON CITY","OR",97045,45.3293799300001,-122.632056884,329,"11447 BRANDOW ST, OREGON CITY, OR, 97045","Match","Non_Exact","11447 S BRANDOW ST, OREGON CITY, OR, 97045",157962893,"R"
27830,"11447 HILARY CT","PARKER","CO",80138,39.508902361,-104.751764897,330,"11447 HILARY CT, PARKER, CO, 80138","Match","Exact","11447 HILARY CT, PARKER, CO, 80138",130804034,"R"
27831,"11447 NE 92ND ST","KIRKLAND","WA",98033,47.684092337,-122.187694695,331,"11447 NE 92ND ST, KIRKLAND, WA, 98033","Match","Exact","11447 NE 92ND ST, KIRKLAND, WA, 98033",186671410,"R"
27832,"11448 DEBRA LANE","OGILVIE","MN",56358,45.752157143,-93.366823833,332,"11448 DEBRA LANE, OGILVIE, MN, 56358","Match","Exact","11448 DEBRA LN, OGILVIE, MN, 56358",163036908,"R"
27833,"11448 GRACEY LN","SANDY","UT",84092,40.543360406,-111.837090389,333,"11448 GRACEY LN, SANDY, UT, 84092","Match","Exact","11448 GRACEY LN, SANDY, UT, 84092",609020413,"R"
27834,"11448 LAKE DRIVE","LEESBURG","TX",34788,NA,NA,334,"11448 LAKE DRIVE, LEESBURG, TX, 34788","No_Match",NA,NA,NA,NA
27835,"11448 NORTHWAY DRIVE","SAINT LOUIS","MO",63136,38.7844502310001,-90.243950291,335,"11448 NORTHWAY DRIVE, SAINT LOUIS, MO, 63136","Match","Exact","11448 NORTHWAY DR, SAINT LOUIS, MO, 63136",100148003,"R"
27836,"11448 RAPHAEL PLACE","CINCINNATI","OH",45240,39.289530875,-84.5588473299999,336,"11448 RAPHAEL PLACE, CINCINNATI, OH, 45240","Match","Exact","11448 RAPHAEL PL, CINCINNATI, OH, 45240",103942593,"R"
27837,"11448 ROBIOUS ROAD","RICHMOND","VA",23235,37.5209363000001,-77.608022788,337,"11448 ROBIOUS ROAD, RICHMOND, VA, 23235","Match","Exact","11448 ROBIOUS RD, RICHMOND, VA, 23235",223168774,"L"
27838,"11448 TANBARK DR","RESTON","VA",20191,38.9303494170001,-77.340182313,338,"11448 TANBARK DR, RESTON, VA, 20191","Match","Exact","11448 TANBARK DR, RESTON, VA, 20191",624844927,"L"
27839,"11449 CRIPPS RD","GENTRY","AR",72734,36.272496258,-94.5382288389999,339,"11449 CRIPPS RD, GENTRY, AR, 72734","Match","Exact","11449 CRIPPS RD, GENTRY, AR, 72734",47825676,"L"
27840,"11449 E RALEIGH AVE","MESA","AZ",85212,33.3453487240001,-111.586579929,340,"11449 E RALEIGH AVE, MESA, AZ, 85212","Match","Exact","11449 E RALEIGH AVE, MESA, AZ, 85212",243960482,"R"
27841,"11449 HIGH TIMBER DR","INDIANAPOLIS","IN",46235,39.8609375990001,-85.964118006,341,"11449 HIGH TIMBER DR, INDIANAPOLIS, IN, 46235","Match","Exact","11449 HIGH TIMBER DR, INDIANAPOLIS, IN, 46235",640709300,"R"
27842,"11449 S VINCENNES AVE","CHICAGO","IL",60643,41.6856994240001,-87.667146569,342,"11449 S VINCENNES AVE, CHICAGO, IL, 60643","Match","Exact","11449 S VINCENNES AVE, CHICAGO, IL, 60643",111823642,"L"
27843,"11449","RIVERVIEW","CO",33569,NA,NA,343,"11449, RIVERVIEW, CO, 33569","No_Match",NA,NA,NA,NA
27844,"1145 12TH AVE NW SUITE C-1","ISSAQUAH","WA",98027,47.54243681,-122.057529857,344,"1145 12TH AVE NW SUITE C-1, ISSAQUAH, WA, 98027","Match","Exact","1145 12TH AVE NW, ISSAQUAH, WA, 98027",186618543,"L"
27845,"1145 2ND STREET SUITE A183","BRENTWOOD","CA",94513,NA,NA,345,"1145 2ND STREET SUITE A183, BRENTWOOD, CA, 94513","Tie",NA,NA,NA,NA
27846,"1145 ALDERBROOK LN","SAN JOSE","CA",95129,37.304411988,-122.018649738,346,"1145 ALDERBROOK LN, SAN JOSE, CA, 95129","Match","Exact","1145 ALDERBROOK LN, SAN JOSE, CA, 95129",122940761,"R"
27847,"1145 AURORA AVE","ST PAUL PARK","MN",55071,44.837632828,-92.977082272,347,"1145 AURORA AVE, ST PAUL PARK, MN, 55071","Match","Exact","1145 AURORA AVE, SAINT PAUL PARK, MN, 55071",97786468,"R"
27848,"1145 BARRY AVE  SUITE 102","LOS ANGELES","CA",90049,34.051464778,-118.460625118,348,"1145 BARRY AVE  SUITE 102, LOS ANGELES, CA, 90049","Match","Exact","1145 BARRY AVE, LOS ANGELES, CA, 90049",141567120,"R"
27849,"1145 BARRY AVE UNIT 103","LOS ANGELES","CA",90049,34.051464778,-118.460625118,349,"1145 BARRY AVE UNIT 103, LOS ANGELES, CA, 90049","Match","Exact","1145 BARRY AVE, LOS ANGELES, CA, 90049",141567120,"R"
27850,"1145 BIRCH FALLS DRIVE","BELLINGHAM","WA",98229,48.7420019910001,-122.424916257,350,"1145 BIRCH FALLS DRIVE, BELLINGHAM, WA, 98229","Match","Exact","1145 BIRCH FALLS DR, BELLINGHAM, WA, 98229",627221402,"R"
27851,"1145 BRANDYWINE DRIVE","BEAUMONT","TX",77706,30.0866327370001,-94.179560883,351,"1145 BRANDYWINE DRIVE, BEAUMONT, TX, 77706","Match","Exact","1145 BRANDYWINE DR, BEAUMONT, TX, 77706",73851690,"L"
27852,"1145 BROOKHILL RD","TUSCALOOSA","AL",35404,33.2021628630001,-87.4805913599999,352,"1145 BROOKHILL RD, TUSCALOOSA, AL, 35404","Match","Exact","1145 BROOKHILL RD, TUSCALOOSA, AL, 35404",82170215,"L"
27853,"1145 CAMBRIDGE CIRCLE","BENTON","AR",72019,34.5740813300001,-92.604277138,353,"1145 CAMBRIDGE CIRCLE, BENTON, AR, 72019","Match","Exact","1145 CAMBRIDGE CIR, BENTON, AR, 72019",636167741,"R"
27854,"1145 COMANCHE PATH","BANDERA","TX",78003,29.687680991,-98.976087342,354,"1145 COMANCHE PATH, BANDERA, TX, 78003","Match","Exact","1145 COMANCHE PATH, BANDERA, TX, 78003",651089210,"L"
27855,"1145 CONNETQUOT AVENUE","CENTRAL ISLIP","NY",11722,40.786190398,-73.177823916,355,"1145 CONNETQUOT AVENUE, CENTRAL ISLIP, NY, 11722","Match","Exact","1145 CONNETQUOT AVE, CENTRAL ISLIP, NY, 11722",113990481,"R"
27856,"1145 E 22ND STREET","INDIANAPOLIS","IN",46202,39.7977355460001,-86.1387504859999,356,"1145 E 22ND STREET, INDIANAPOLIS, IN, 46202","Match","Exact","1145 E 22ND ST, INDIANAPOLIS, IN, 46202",107990522,"R"
27857,"1145 E 3350 N","NORTH OGDEN","UT",84414,41.321936045,-111.945011272,357,"1145 E 3350 N, NORTH OGDEN, UT, 84414","Match","Exact","1145 E 3350 N, NORTH OGDEN, UT, 84414",155716602,"L"
27858,"1145 E KALER DR","PHOENIX","AZ",85020,33.5479332140001,-112.057451769,358,"1145 E KALER DR, PHOENIX, AZ, 85020","Match","Exact","1145 E KALER DR, PHOENIX, AZ, 85020",128304438,"R"
27859,"1145 E VIA LINDA SUITE 2427","SCOTTSDALE","AZ",85259,NA,NA,359,"1145 E VIA LINDA SUITE 2427, SCOTTSDALE, AZ, 85259","No_Match",NA,NA,NA,NA
27860,"1145 EAST 98TH ST","CLEVELAND","OH",44108,41.5250949220001,-81.622045264,360,"1145 EAST 98TH ST, CLEVELAND, OH, 44108","Match","Exact","1145 E 98TH ST, CLEVELAND, OH, 44108",61112415,"L"
27861,"1145 EUGENIA PLACE -  SUITE 201","CARPINTERIA","CA",93013,34.399149116,-119.516533227,361,"1145 EUGENIA PLACE -  SUITE 201, CARPINTERIA, CA, 93013","Match","Exact","1145 EUGENIA PL, CARPINTERIA, CA, 93013",108608240,"L"
27862,"1145 FURNAS AVENUE","LINCOLN","NE",68521,40.841090239,-96.7049973169999,362,"1145 FURNAS AVENUE, LINCOLN, NE, 68521","Match","Exact","1145 FURNAS AVE, LINCOLN, NE, 68521",28252550,"R"
27863,"1145 GEER RD SUITE D","TURLOCK","CA",95380,37.5038067730001,-120.848879428,363,"1145 GEER RD SUITE D, TURLOCK, CA, 95380","Match","Exact","1145 GEER RD, TURLOCK, CA, 95380",102594862,"R"
27864,"1145 HIGHWAY 5","DESHLER","NE",68340,40.1532041730001,-97.7270788019999,364,"1145 HIGHWAY 5, DESHLER, NE, 68340","Match","Non_Exact","1145 STATE HWY 5, DESHLER, NE, 68340",11893450,"L"
27865,"1145 HOBART AVE","BRONX","NY",10461,40.837223013,-73.827106273,365,"1145 HOBART AVE, BRONX, NY, 10461","Match","Exact","1145 HOBART AVE, BRONX, NY, 10461",80306878,"L"
27866,"1145 HWY 70","DE QUEEN","AR",71832,NA,NA,366,"1145 HWY 70, DE QUEEN, AR, 71832","Tie",NA,NA,NA,NA
27867,"1145 LAWRENCE DRIVE","COLUMBUS","OH",43207,39.9256913240001,-82.9639576,367,"1145 LAWRENCE DRIVE, COLUMBUS, OH, 43207","Match","Exact","1145 LAWRENCE DR, COLUMBUS, OH, 43207",218676732,"R"
27868,"1145 LEVITOW BLVD SUITE 170","LEWIS-MCCHORD","WA",98348,NA,NA,368,"1145 LEVITOW BLVD SUITE 170, LEWIS-MCCHORD, WA, 98348","No_Match",NA,NA,NA,NA
27869,"1145 MADISON AVENUE","DAYTONA BEACH","FL",32114,29.2131440310001,-81.055357398,369,"1145 MADISON AVENUE, DAYTONA BEACH, FL, 32114","Match","Exact","1145 MADISON AVE, DAYTONA BEACH, FL, 32114",94522813,"L"
27870,"1145 MAIN STREET SUITE 107","SPRINGFIELD","MA",1103,42.100399216,-72.586195109,370,"1145 MAIN STREET SUITE 107, SPRINGFIELD, MA, 1103","Match","Exact","1145 MAIN ST, SPRINGFIELD, MA, 01103",4035154,"R"
27871,"1145 MARY LEE COURT","RIVERDALE","GA",30296,33.578427704,-84.42619947,371,"1145 MARY LEE COURT, RIVERDALE, GA, 30296","Match","Exact","1145 MARY LEE CT, RIVERDALE, GA, 30296",23331342,"L"
27872,"1145 MONTEREY AVE","BERKELEY","CA",94707,NA,NA,372,"1145 MONTEREY AVE, BERKELEY, CA, 94707","No_Match",NA,NA,NA,NA
27873,"1145 NARRAGANSETT BOULEVARD","CRANSTON","RI",2905,41.7819983730001,-71.393685026,373,"1145 NARRAGANSETT BOULEVARD, CRANSTON, RI, 2905","Match","Exact","1145 NARRAGANSETT BLVD, CRANSTON, RI, 02905",47485442,"R"
27874,"1145 NE 135TH ST","N MIAMI","FL",33161,25.899894997,-80.175865205,374,"1145 NE 135TH ST, N MIAMI, FL, 33161","Match","Non_Exact","1145 NE 135TH ST, NORTH MIAMI, FL, 33161",116037156,"L"
27875,"1145 NW 55TH ST","MIAMI","FL",33127,25.825528804,-80.215166043,375,"1145 NW 55TH ST, MIAMI, FL, 33127","Match","Exact","1145 NW 55TH ST, MIAMI, FL, 33127",116005432,"R"
27876,"1145 PENNSYLVANIA AVE","ELMIRA","NY",14904,42.0560257820001,-76.818201271,376,"1145 PENNSYLVANIA AVE, ELMIRA, NY, 14904","Match","Exact","1145 PENNSYLVANIA AVE, ELMIRA, NY, 14904",18535153,"L"
27877,"1145 PEORIA ST","SANDY VALLEY","NV",89019,35.8260682150001,-115.658357436,377,"1145 PEORIA ST, SANDY VALLEY, NV, 89019","Match","Exact","1145 PEORIA ST, SANDY VALLEY, NV, 89019",201837088,"L"
27878,"1145 ROUTE 580 HWY","CLYMER","PA",15728,NA,NA,378,"1145 ROUTE 580 HWY, CLYMER, PA, 15728","No_Match",NA,NA,NA,NA
27879,"1145 S UTICA AVE  SUITE 410","TULSA","OK",74104,36.14693379,-95.967140823,379,"1145 S UTICA AVE  SUITE 410, TULSA, OK, 74104","Match","Non_Exact","1145 S UTICA AVE, TULSA, OK, 74104",166439350,"L"
27880,"1145 S VOSS RD 110-131","HOUSTON","TX",77057,29.7888579150001,-95.5036684949999,380,"1145 S VOSS RD 110-131, HOUSTON, TX, 77057","Match","Non_Exact","1145 VOSS RD, HOUSTON, TX, 77055",96030149,"L"
27881,"1145 SANTA FE DRIVE UNIT 1041","WEATHERFORD","TX",76086,32.746364785,-97.782099662,381,"1145 SANTA FE DRIVE UNIT 1041, WEATHERFORD, TX, 76086","Match","Exact","1145 SANTA FE DR, WEATHERFORD, TX, 76086",103579827,"R"
27882,"1145 SPENCER LN","FULLERTON","CA",92833,33.8802317,-117.957025542,382,"1145 SPENCER LN, FULLERTON, CA, 92833","Match","Exact","1145 SPENCER LN, FULLERTON, CA, 92833",651012309,"L"
27883,"1145 STONECREST DRIVE","ARROYO GRANDE","CA",93420,35.1262572810001,-120.600207953,383,"1145 STONECREST DRIVE, ARROYO GRANDE, CA, 93420","Match","Exact","1145 STONECREST DR, ARROYO GRANDE, CA, 93420",623828835,"L"
27884,"1145 SUNNYHILLS ROAD","OAKLAND","CA",94610,37.811120212,-122.226446509,384,"1145 SUNNYHILLS ROAD, OAKLAND, CA, 94610","Match","Exact","1145 SUNNYHILLS RD, OAKLAND, CA, 94610",125002179,"R"
27885,"1145 SUNSET DRIVE","BERESFORD","SD",57004,43.078440244,-96.787550604,385,"1145 SUNSET DRIVE, BERESFORD, SD, 57004","Match","Exact","1145 SUNSET DR, BERESFORD, SD, 57004",176353446,"L"
27886,"1145 UNIVERSITY PARK COURT","RENO","NV",89512,39.562911242,-119.809000151,386,"1145 UNIVERSITY PARK COURT, RENO, NV, 89512","Match","Exact","1145 UNIVERSITY PARK CT, RENO, NV, 89512",618257794,"L"
27887,"1145 W 55TH STREET","LOS ANGELES","CA",90008,33.992315504,-118.294524856,387,"1145 W 55TH STREET, LOS ANGELES, CA, 90008","Match","Non_Exact","1145 W 55TH ST, LOS ANGELES, CA, 90037",141659171,"R"
27888,"1145 W CEDAR ST","WILLOWS","CA",95988,39.514061913,-122.20778864,388,"1145 W CEDAR ST, WILLOWS, CA, 95988","Match","Exact","1145 W CEDAR ST, WILLOWS, CA, 95988",640442523,"L"
27889,"1145 W CURTIS RD","SANFORD","MI",48657,43.7993717090001,-84.409410988,389,"1145 W CURTIS RD, SANFORD, MI, 48657","Match","Exact","1145 W CURTIS RD, SANFORD, MI, 48657",81189519,"R"
27890,"1145 W EDGEMONT AVENUE","PHOENIX","AZ",85007,33.4794942670001,-112.088550635,390,"1145 W EDGEMONT AVENUE, PHOENIX, AZ, 85007","Match","Exact","1145 W EDGEMONT AVE, PHOENIX, AZ, 85007",646094945,"L"
27891,"1145 WEST NORTH ST","WYTHEVILLE","VA",24382,36.943789521,-81.0952345969999,391,"1145 WEST NORTH ST, WYTHEVILLE, VA, 24382","Match","Exact","1145 W NORTH ST, WYTHEVILLE, VA, 24382",47634543,"R"
27892,"1145 WHISTLE STOP DRIVE","SAGINAW","TX",76131,32.8789425890001,-97.347590499,392,"1145 WHISTLE STOP DRIVE, SAGINAW, TX, 76131","Match","Exact","1145 WHISTLE STOP DR, SAGINAW, TX, 76131",102095196,"R"
27893,"1145 WINDCHIME WAY","PENSACOLA","FL",32503,30.46374861,-87.208616354,393,"1145 WINDCHIME WAY, PENSACOLA, FL, 32503","Match","Exact","1145 WINDCHIME WAY, PENSACOLA, FL, 32503",93292493,"L"
27894,"1145 WINDING DRIVE","CHERRY HILL","NJ",8003,39.888663374,-74.9801483809999,394,"1145 WINDING DRIVE, CHERRY HILL, NJ, 8003","Match","Exact","1145 WINDING DR, CHERRY HILL, NJ, 08003",134358199,"R"
27895,"1145 ZONOLITE RD STE 10","ATLANTA","GA",30306,33.8065498600001,-84.342576346,395,"1145 ZONOLITE RD STE 10, ATLANTA, GA, 30306","Match","Non_Exact","1145 ZONOLITE RD NE, ATLANTA, GA, 30306",23386379,"R"
27896,"11450 E 10 MILE RD","WARREN","MI",48089,42.4778167330001,-83.0088336749999,396,"11450 E 10 MILE RD, WARREN, MI, 48089","Match","Exact","11450 E 10 MILE RD, WARREN, MI, 48089",110677401,"R"
27897,"11450 GENTLEWOOD DRIVE","MOORPARK","CA",93021,34.2681643330001,-118.904973667,397,"11450 GENTLEWOOD DRIVE, MOORPARK, CA, 93021","Match","Exact","11450 GENTLEWOOD DR, MOORPARK, CA, 93021",110023568,"R"
27898,"11450 HWY 380 SUITE 130/121","CROSSROADS","TX",76227,NA,NA,398,"11450 HWY 380 SUITE 130/121, CROSSROADS, TX, 76227","No_Match",NA,NA,NA,NA
27899,"11450 LAMPSON AVENUE APT 224","GARDEN GROVE","CA",92840,33.7815122370001,-117.932932929,399,"11450 LAMPSON AVENUE APT 224, GARDEN GROVE, CA, 92840","Match","Exact","11450 LAMPSON AVE, GARDEN GROVE, CA, 92840",144089689,"R"
27900,"11450 LIBERTY SCHOOL ROAD","AZLE","TX",76020,32.935221599,-97.523957004,400,"11450 LIBERTY SCHOOL ROAD, AZLE, TX, 76020","Match","Exact","11450 LIBERTY SCHOOL RD, AZLE, TX, 76020",101926924,"R"
27901,"11450 SE BUSH ST","PORTLAND","OR",97266,45.494855757,-122.54494217,401,"11450 SE BUSH ST, PORTLAND, OR, 97266","Match","Exact","11450 SE BUSH ST, PORTLAND, OR, 97266",157550120,"R"
27902,"11450 SE CASCADE VIEW CT","HAPPY VALLEY","OR",97086,45.43812223,-122.545510271,402,"11450 SE CASCADE VIEW CT, HAPPY VALLEY, OR, 97086","Match","Exact","11450 SE CASCADE VIEW CT, HAPPY VALLEY, OR, 97086",157920389,"R"
27903,"11450 U S HWY 380 STE 130  220","CROSS ROADS","TX",76227,NA,NA,403,"11450 U S HWY 380 STE 130  220, CROSS ROADS, TX, 76227","No_Match",NA,NA,NA,NA
27904,"11450 US HWY 380  SUITE 130 BOX 107","CROSS ROADS","TX",76227,NA,NA,404,"11450 US HWY 380  SUITE 130 BOX 107, CROSS ROADS, TX, 76227","No_Match",NA,NA,NA,NA
27905,"11450 W SYLVANIA AVENUE","BERKEY","OH",43504,41.6868446140001,-83.8183092959999,405,"11450 W SYLVANIA AVENUE, BERKEY, OH, 43504","Match","Exact","11450 SYLVANIA AVE, BERKEY, OH, 43504",33924827,"L"
27906,"11451 HWY D","LAMONTE MO","MO",65337,NA,NA,406,"11451 HWY D, LAMONTE MO, MO, 65337","No_Match",NA,NA,NA,NA
27907,"11452 KING COURT","WESTMINSTER","CO",80031,39.904332256,-105.032994969,407,"11452 KING COURT, WESTMINSTER, CO, 80031","Match","Exact","11452 KING CT, WESTMINSTER, CO, 80031",177378750,"L"
27908,"11452 SW BULL MOUNTAIN ROAD 241","TIGARD","OR",97224,45.4142437830001,-122.79474379,408,"11452 SW BULL MOUNTAIN ROAD 241, TIGARD, OR, 97224","Match","Non_Exact","11452 SW BULL MOUNTAIN RD, TIGARD, OR, 97224",158234216,"L"
27909,"11452 VAN HORN ROAD","BENTON","IL",62812,38.0288521320001,-88.895076472,409,"11452 VAN HORN ROAD, BENTON, IL, 62812","Match","Exact","11452 VAN HORN RD, BENTON, IL, 62812",92956658,"R"
27910,"11453 N FOUR SEASONS DR","BATESVILLE","IN",47006,39.24134544,-85.214450857,410,"11453 N FOUR SEASONS DR, BATESVILLE, IN, 47006","Match","Exact","11453 FOUR SEASONS DR, BATESVILLE, IN, 47006",635878239,"L"
27911,"11453 SOLAR AVE NE","ALLIANCE","OH",44601,40.936118837,-81.092110292,411,"11453 SOLAR AVE NE, ALLIANCE, OH, 44601","Match","Exact","11453 SOLAR AVE NE, ALLIANCE, OH, 44601",64712119,"R"
27912,"11453 VERGA LN","BRANDY STATION","VA",22714,38.5405874690001,-77.933935096,412,"11453 VERGA LN, BRANDY STATION, VA, 22714","Match","Exact","11453 VERGA LN, BRANDY STATION, VA, 22714",29844864,"R"
27913,"114534 CONNERWOOD STREET","LAS VEGAS","NV",89141,NA,NA,413,"114534 CONNERWOOD STREET, LAS VEGAS, NV, 89141","No_Match",NA,NA,NA,NA
27914,"11454 E 4TH WAY","AURORA","CO",80010,39.7189294140001,-104.858552493,414,"11454 E 4TH WAY, AURORA, CO, 80010","Match","Exact","11454 E 4TH WAY, AURORA, CO, 80010",177343032,"R"
27915,"11454 PINEVIEW CROSSING DRIVE","MARYLAND HEIGHTS","MO",63043,38.714333724,-90.416473287,415,"11454 PINEVIEW CROSSING DRIVE, MARYLAND HEIGHTS, MO, 63043","Match","Exact","11454 PINEVIEW CROSSING DR, MARYLAND HEIGHTS, MO, 63043",100188675,"R"
27916,"11454 WEST 135TH STREET","ORLAND PARK","IL",60467,NA,NA,416,"11454 WEST 135TH STREET, ORLAND PARK, IL, 60467","No_Match",NA,NA,NA,NA
27917,"11455 FALLBROOK DR UNIT 301A","HOUSTON","TX",77065,NA,NA,417,"11455 FALLBROOK DR UNIT 301A, HOUSTON, TX, 77065","No_Match",NA,NA,NA,NA
27918,"11455 SAINTS RD","JACKSONVILLE","FL",32246,30.2948927350001,-81.5250563709999,418,"11455 SAINTS RD, JACKSONVILLE, FL, 32246","Match","Exact","11455 SAINTS RD, JACKSONVILLE, FL, 32246",83920623,"L"
27919,"11455 SW 40 STREET 217","MIAMI","FL",33165,NA,NA,419,"11455 SW 40 STREET 217, MIAMI, FL, 33165","No_Match",NA,NA,NA,NA
27920,"11455 SW 40TH STREET SUITE 224","MIAMI","FL",33165,NA,NA,420,"11455 SW 40TH STREET SUITE 224, MIAMI, FL, 33165","No_Match",NA,NA,NA,NA
27921,"11455 SW 57 STREET","MIAMI","FL",33173,25.714133471,-80.380097173,421,"11455 SW 57 STREET, MIAMI, FL, 33173","Match","Non_Exact","11455 SW 57TH ST, MIAMI, FL, 33173",115972175,"R"
27922,"11456 52ND COURT EAST","PARRISH","FL",34219,27.5613655110001,-82.442945611,422,"11456 52ND COURT EAST, PARRISH, FL, 34219","Match","Exact","11456 52ND CT E, PARRISH, FL, 34219",640859490,"R"
27923,"11456 E SAN RAMON","CLOVIS","CA",93619,36.8137718300001,-119.583624503,423,"11456 E SAN RAMON, CLOVIS, CA, 93619","Match","Non_Exact","11456 E SAN RAMON AVE, CLOVIS, CA, 93619",197590220,"L"
27924,"11456 GOLD BLUFF RD","MORENO VALLEY","CA",92557,33.954647833,-117.229961987,424,"11456 GOLD BLUFF RD, MORENO VALLEY, CA, 92557","Match","Exact","11456 GOLD BLUFF RD, MORENO VALLEY, CA, 92557",194749177,"L"
27925,"11456 HIGH GRASS DRIVE","INDIANAPOLIS","IN",46235,39.862069655,-85.963486487,425,"11456 HIGH GRASS DRIVE, INDIANAPOLIS, IN, 46235","Match","Exact","11456 HIGH GRASS DR, INDIANAPOLIS, IN, 46235",640399323,"L"
27926,"11457 70TH ST","OLIN","IA",52320,42.033861829,-91.101690606,426,"11457 70TH ST, OLIN, IA, 52320","Match","Exact","11457 70TH ST, OLIN, IA, 52320",16521326,"R"
27927,"11457 E RAFAEL AVENUE","MESA","AZ",85212,33.3419322830001,-111.587337412,427,"11457 E RAFAEL AVENUE, MESA, AZ, 85212","Match","Exact","11457 E RAFAEL AVE, MESA, AZ, 85212",243958053,"R"
27928,"11457 SW 17TH COURT","MIRAMAR","FL",33025,25.992705979,-80.298489359,428,"11457 SW 17TH COURT, MIRAMAR, FL, 33025","Match","Non_Exact","11457 SW 17TH CT, MIRAMAR, FL, 33025",114778228,"L"
27929,"11458 COUNTY ROAD 1","EDON","OH",43518,41.5774994130001,-84.805277491,429,"11458 COUNTY ROAD 1, EDON, OH, 43518","Match","Exact","11458 CO RD 1, EDON, OH, 43518",635522800,"R"
27930,"11458 GOTHIC AVENUE","GRANADA HILLS","CA",91344,34.2785911770001,-118.48901874,430,"11458 GOTHIC AVENUE, GRANADA HILLS, CA, 91344","Match","Exact","11458 GOTHIC AVE, GRANADA HILLS, CA, 91344",141542818,"R"
27931,"11458 N 128TH PLACE","SCOTTSDALE","AZ",85259,33.590296424,-111.803918014,431,"11458 N 128TH PLACE, SCOTTSDALE, AZ, 85259","Match","Exact","11458 N 128TH PL, SCOTTSDALE, AZ, 85259",128958301,"R"
27932,"11459 E 26TH PL","YUMA","AZ",85367,32.6811136470001,-114.436586805,432,"11459 E 26TH PL, YUMA, AZ, 85367","Match","Exact","11459 E 26TH PL, YUMA, AZ, 85367",129680052,"L"
27933,"11459 LAGRANDE DR","FRISCO","TX",75035,NA,NA,433,"11459 LAGRANDE DR, FRISCO, TX, 75035","No_Match",NA,NA,NA,NA
27934,"1146 19TH ST NW SUITE 350","WASHINGTON DC","DC",23006,38.9049945040001,-77.0434540959999,434,"1146 19TH ST NW SUITE 350, WASHINGTON DC, DC, 23006","Match","Non_Exact","1146 19TH ST NW, WASHINGTON, DC, 20036",649879428,"L"
27935,"1146 BELLE ISLE ROAD UNIT 102","GEORGETOWN","SC",29440,33.3036709890001,-79.29357909,435,"1146 BELLE ISLE ROAD UNIT 102, GEORGETOWN, SC, 29440","Match","Exact","1146 BELLE ISLE RD, GEORGETOWN, SC, 29440",29005386,"R"
27936,"1146 BELMONT AVE","SOUTH BEND","IN",46615,41.6680986000001,-86.233316163,436,"1146 BELMONT AVE, SOUTH BEND, IN, 46615","Match","Exact","1146 BELMONT AVE, SOUTH BEND, IN, 46615",8084088,"R"
27937,"1146 BLUEJAY DRIVE","BOWLING GREEN","OH",43402,41.390262346,-83.6734828479999,437,"1146 BLUEJAY DRIVE, BOWLING GREEN, OH, 43402","Match","Exact","1146 BLUEJAY DR, BOWLING GREEN, OH, 43402",38742969,"R"
27938,"1146 BRIANNA AVE","LANCASTER","CA",93535,34.6659192910001,-118.109119903,438,"1146 BRIANNA AVE, LANCASTER, CA, 93535","Match","Exact","1146 BRIANNA AVE, LANCASTER, CA, 93535",625710006,"L"
27939,"1146 CAMDEN STREET","NORTH CHARLESTON","SC",29405,32.8902820820001,-79.982033536,439,"1146 CAMDEN STREET, NORTH CHARLESTON, SC, 29405","Match","Exact","1146 CAMDEN ST, N CHARLESTON, SC, 29405",615117473,"R"
27940,"1146 CENTER ST","SPRINGVILLE","UT",84663,NA,NA,440,"1146 CENTER ST, SPRINGVILLE, UT, 84663","Tie",NA,NA,NA,NA
27941,"1146 COATES ROAD","BONIFAY","FL",32425,30.967360791,-85.689359172,441,"1146 COATES ROAD, BONIFAY, FL, 32425","Match","Exact","1146 COATES RD, BONIFAY, FL, 32425",32685840,"L"
27942,"1146 CRAGMONT AVE","BERKELEY","CA",94708,37.888882042,-122.259185443,442,"1146 CRAGMONT AVE, BERKELEY, CA, 94708","Match","Exact","1146 CRAGMONT AVE, BERKELEY, CA, 94708",650955040,"R"
27943,"1146 DAVIS STREET","CONWAAY","AR",72032,35.0944144110001,-92.447801327,443,"1146 DAVIS STREET, CONWAAY, AR, 72032","Match","Non_Exact","1146 DAVIS ST, CONWAY, AR, 72034",141043875,"R"
27944,"1146 DRUID HILL DRIVE","JACKSON","MS",39206,32.3517711640001,-90.15678602,444,"1146 DRUID HILL DRIVE, JACKSON, MS, 39206","Match","Exact","1146 DRUID HILL DR, JACKSON, MS, 39206",65373127,"L"
27945,"1146 E 9TH ST","FREMONT","NE",68025,41.4372256890001,-96.482734695,445,"1146 E 9TH ST, FREMONT, NE, 68025","Match","Exact","1146 E 9TH ST, FREMONT, NE, 68025",136314784,"L"
27946,"1146 E CENTRAL AVE","MIAMISBURG","OH",45342,39.6409291320001,-84.271749433,446,"1146 E CENTRAL AVE, MIAMISBURG, OH, 45342","Match","Exact","1146 E CENTRAL AVE, MIAMISBURG, OH, 45342",143578449,"R"
27947,"1146 ELDERBERRY LOOP","DELAWARE","OH",43015,40.2124929820001,-83.055638659,447,"1146 ELDERBERRY LOOP, DELAWARE, OH, 43015","Match","Exact","1146 ELDERBERRY LOOP, DELAWARE, OH, 43015",637246601,"R"
27948,"1146 FLAT ROCK RD","STOCKBRIDGE","GA",30281,33.5672536270001,-84.198984528,448,"1146 FLAT ROCK RD, STOCKBRIDGE, GA, 30281","Match","Exact","1146 FLAT ROCK RD, STOCKBRIDGE, GA, 30281",646166624,"R"
27949,"1146 MANCHESTER AVENUE","NORFOLK","VA",23508,36.899042453,-76.30144001,449,"1146 MANCHESTER AVENUE, NORFOLK, VA, 23508","Match","Exact","1146 MANCHESTER AVE, NORFOLK, VA, 23508",122131500,"R"
27950,"1146 N CENTRAL AVE SUITE 207","GLENDALE","CA",91202,34.1625197860001,-118.256861134,450,"1146 N CENTRAL AVE SUITE 207, GLENDALE, CA, 91202","Match","Non_Exact","1146 N CENTRAL AVE, GLENDALE, CA, 91202",241240345,"R"
27951,"1146 N CENTRAL AVE SUITE 684","GLENDALE","CA",91202,34.1625197860001,-118.256861134,451,"1146 N CENTRAL AVE SUITE 684, GLENDALE, CA, 91202","Match","Non_Exact","1146 N CENTRAL AVE, GLENDALE, CA, 91202",241240345,"R"
27952,"1146 N CENTRAL AVE UNIT 215","GLENDALE","CA",91202,34.1625197860001,-118.256861134,452,"1146 N CENTRAL AVE UNIT 215, GLENDALE, CA, 91202","Match","Non_Exact","1146 N CENTRAL AVE, GLENDALE, CA, 91202",241240345,"R"
27953,"1146 N CENTRAL AVENUE SUITE 170","GLENDALE","CA",91202,34.1625197860001,-118.256861134,453,"1146 N CENTRAL AVENUE SUITE 170, GLENDALE, CA, 91202","Match","Non_Exact","1146 N CENTRAL AVE, GLENDALE, CA, 91202",241240345,"R"
27954,"1146 NORTH CENTRAL AVE 292","GLENDALE","CA",91202,34.1625015660001,-118.256861853,454,"1146 NORTH CENTRAL AVE 292, GLENDALE, CA, 91202","Match","Exact","1146 N CENTRAL AVE, GLENDALE, CA, 91202",241240345,"R"
27955,"1146 NORTH CENTRAL AVE SUITE 270","GLENDALE","CA",91202,34.1625015660001,-118.256861853,455,"1146 NORTH CENTRAL AVE SUITE 270, GLENDALE, CA, 91202","Match","Exact","1146 N CENTRAL AVE, GLENDALE, CA, 91202",241240345,"R"
27956,"1146 NORTON","SAINT PAUL","MN",55117,44.9747929010001,-93.12000132,456,"1146 NORTON, SAINT PAUL, MN, 55117","Match","Non_Exact","1146 NORTON ST, SAINT PAUL, MN, 55117",97643949,"R"
27957,"1146 OGDEN AVENUE SUITE 4G","BRONX","NY",10452,40.836567696,-73.9273182109999,457,"1146 OGDEN AVENUE SUITE 4G, BRONX, NY, 10452","Match","Exact","1146 OGDEN AVE, BRONX, NY, 10452",80299360,"R"
27958,"1146 OLDHAMS ROAD","WARSAW","VA",22572,37.994398448,-76.706895273,458,"1146 OLDHAMS ROAD, WARSAW, VA, 22572","Match","Exact","1146 OLDHAMS RD, WARSAW, VA, 22572",22167740,"L"
27959,"1146 RADIS PLACE","JACKSONVILLE","FL",32225,30.339747448,-81.5329928,459,"1146 RADIS PLACE, JACKSONVILLE, FL, 32225","Match","Exact","1146 RADIS PL, JACKSONVILLE, FL, 32225",83947480,"R"
27960,"1146 REDWOOD DRIVE","LEXINGTON","KY",40511,38.0822068160001,-84.505962438,460,"1146 REDWOOD DRIVE, LEXINGTON, KY, 40511","Match","Exact","1146 REDWOOD DR, LEXINGTON, KY, 40511",640449248,"L"
27961,"1146 SPRINGBORROW","FLINT","MI",48532,43.0200468,-83.799815339,461,"1146 SPRINGBORROW, FLINT, MI, 48532","Match","Non_Exact","1146 SPRINGBORROW DR, FLINT, MI, 48532",69598597,"L"
27962,"1146 TASSIE LN","CINCINATI","OH",45231,39.2282837130001,-84.52562438,462,"1146 TASSIE LN, CINCINATI, OH, 45231","Match","Non_Exact","1146 TASSIE LN, CINCINNATI, OH, 45231",103920092,"R"
27963,"1146 VIEJO HILLS DR","LAKE FOREST","CA",92610,33.670486301,-117.637049468,463,"1146 VIEJO HILLS DR, LAKE FOREST, CA, 92610","Match","Exact","1146 VIEJO HILLS DR, LAKE FOREST, CA, 92610",651402227,"L"
27964,"1146 W BUCKEYE RD SUITE B","PHOENIX","AZ",85007,33.436767708,-112.087387749,464,"1146 W BUCKEYE RD SUITE B, PHOENIX, AZ, 85007","Match","Non_Exact","1146 W BUCKEYE RD, PHOENIX, AZ, 85007",128212047,"R"
27965,"1146 W LAREDO AVE","GILBERT","AZ",85233,NA,NA,465,"1146 W LAREDO AVE, GILBERT, AZ, 85233","No_Match",NA,NA,NA,NA
27966,"1146 WATERMAN AVE","FRESNO","CA",93706,36.7253842810001,-119.805742723,466,"1146 WATERMAN AVE, FRESNO, CA, 93706","Match","Exact","1146 WATERMAN AVE, FRESNO, CA, 93706",197579359,"R"
27967,"1146 WEST KINGS HIGHWAY","MOUNT EPHRAIM","NJ",8059,39.879248999,-75.1000954089999,467,"1146 WEST KINGS HIGHWAY, MOUNT EPHRAIM, NJ, 8059","Match","Exact","1146 W KINGS HWY, MOUNT EPHRAIM, NJ, 08059",134350771,"L"
27968,"1146 YORKTOWN RD","COLLIERVILLE","TN",38017,35.071006077,-89.664257536,468,"1146 YORKTOWN RD, COLLIERVILLE, TN, 38017","Match","Exact","1146 YORKTOWN RD, COLLIERVILLE, TN, 38017",72961790,"R"
27969,"11460 CORINTHIA COURT","WOODBRIDGE","VA",22192,38.7039833850001,-77.3096566409999,469,"11460 CORINTHIA COURT, WOODBRIDGE, VA, 22192","Match","Exact","11460 CORINTHIA CT, WOODBRIDGE, VA, 22192",76520306,"R"
27970,"11460 FALLOW DEER COURT","FORT MYERS","FL",33966,26.5774901730001,-81.8288975309999,470,"11460 FALLOW DEER COURT, FORT MYERS, FL, 33966","Match","Exact","11460 FALLOW DEER CT, FORT MYERS, FL, 33966",118071099,"R"
27971,"11460 LASSELLE STREET","MORENO VALLEY","CA",92557,33.954328446,-117.208964958,471,"11460 LASSELLE STREET, MORENO VALLEY, CA, 92557","Match","Exact","11460 LASSELLE ST, MORENO VALLEY, CA, 92557",194749310,"L"
27972,"11460 S BORDER MONUMENT RD","HEREFORD","AZ",85615,31.3447412800001,-110.15199905,472,"11460 S BORDER MONUMENT RD, HEREFORD, AZ, 85615","Match","Exact","11460 S BORDER MONUMENT RD, HEREFORD, AZ, 85615",121033208,"R"
27973,"11460 SILVER CREEK ROAD","ALHAMBRA","IL",62001,38.9412391650001,-89.7319031649999,473,"11460 SILVER CREEK ROAD, ALHAMBRA, IL, 62001","Match","Exact","11460 SILVER CREEK RD, ALHAMBRA, IL, 62001",107762508,"R"
27974,"11460 TORI LANE","JACKSONVILLE","FL",32218,30.4438797770001,-81.687770594,474,"11460 TORI LANE, JACKSONVILLE, FL, 32218","Match","Exact","11460 TORI LN, JACKSONVILLE, FL, 32218",627950124,"L"
27975,"11461 REAGAN DR","FISHERS","IN",46038,39.954692353,-86.021750593,475,"11461 REAGAN DR, FISHERS, IN, 46038","Match","Exact","11461 REAGAN DR, FISHERS, IN, 46038",624524630,"R"
27976,"11461 SE 282ND DRIVE","BORING","OR",97009,45.4399509560001,-122.372815644,476,"11461 SE 282ND DRIVE, BORING, OR, 97009","Match","Non_Exact","11461 SE 282ND AVE, BORING, OR, 97009",157936268,"R"
27977,"11461 SW 236TH LN","MIAMI","FL",33032,25.547372495,-80.3777952249999,477,"11461 SW 236TH LN, MIAMI, FL, 33032","Match","Non_Exact","11461 SW 236TH LN, NARANJA, FL, 33032",637645828,"L"
27978,"11462 S VINCENNES","CHICAGO","IL",60643,41.6854597130001,-87.6672996619999,478,"11462 S VINCENNES, CHICAGO, IL, 60643","Match","Non_Exact","11462 S VINCENNES AVE, CHICAGO, IL, 60643",111823642,"R"
27979,"11463 HALTONSHIRE WAY","GLEN ALLEN","VA",23059,37.711399946,-77.484251321,479,"11463 HALTONSHIRE WAY, GLEN ALLEN, VA, 23059","Match","Exact","11463 HALTONSHIRE WAY, GLEN ALLEN, VA, 23059",618116464,"R"
27980,"11463 KING RICHARD DRIVE","BATON ROUGE","LA",70815,30.4383575210001,-91.055880556,480,"11463 KING RICHARD DRIVE, BATON ROUGE, LA, 70815","Match","Exact","11463 KING RICHARD DR, BATON ROUGE, LA, 70815",92202754,"L"
27981,"11464 SW 226 ST","MIAMI","FL",33170,25.557473825,-80.377126168,481,"11464 SW 226 ST, MIAMI, FL, 33170","Match","Exact","11464 SW 226TH ST, MIAMI, FL, 33170",116056113,"L"
27982,"11464 SW 226TH STREET","MIAMI","FL",33170,25.557473825,-80.377126168,482,"11464 SW 226TH STREET, MIAMI, FL, 33170","Match","Exact","11464 SW 226TH ST, MIAMI, FL, 33170",116056113,"L"
27983,"11464 W SAMPLE ROAD","CORAL SPRINGS","FL",33065,26.2727047760001,-80.2807622139999,483,"11464 W SAMPLE ROAD, CORAL SPRINGS, FL, 33065","Match","Exact","11464 W SAMPLE RD, CORAL SPRINGS, FL, 33065",640933009,"R"
27984,"11465 CUMPSTON STREET","NORTH HOLLYWOOD","CA",91601,34.1696688220001,-118.381017052,484,"11465 CUMPSTON STREET, NORTH HOLLYWOOD, CA, 91601","Match","Exact","11465 CUMPSTON ST, N HOLLYWOOD, CA, 91601",141564893,"R"
27985,"11465 FOWLER DRIVE","NORTHGLENN","CO",80233,39.905181945,-104.970353077,485,"11465 FOWLER DRIVE, NORTHGLENN, CO, 80233","Match","Exact","11465 FOWLER DR, NORTHGLENN, CO, 80233",177403990,"L"
27986,"11465 GRASSY TRAIL DRIVE","SAN DIEGO","CA",92127,33.001644996,-117.084168982,486,"11465 GRASSY TRAIL DRIVE, SAN DIEGO, CA, 92127","Match","Exact","11465 GRASSY TRAIL DR, SAN DIEGO, CA, 92127",195315956,"R"
27987,"11465 NORTHCROSS LANE","SAN ANGELO","TX",76904,31.315985578,-100.630600467,487,"11465 NORTHCROSS LANE, SAN ANGELO, TX, 76904","Match","Exact","11465 NORTHCROSS LN, SAN ANGELO, TX, 76904",190693505,"L"
27988,"11465 W COLDWATER SPRINGS  BLVD","AVONDALE","AZ",85323,NA,NA,488,"11465 W COLDWATER SPRINGS  BLVD, AVONDALE, AZ, 85323","No_Match",NA,NA,NA,NA
27989,"11466 WASHINGTON PL STE A","LOS ANGELES","CA",90066,34.0055938960001,-118.419291304,489,"11466 WASHINGTON PL STE A, LOS ANGELES, CA, 90066","Match","Exact","11466 WASHINGTON PL, LOS ANGELES, CA, 90066",141574029,"L"
27990,"11467 BROOKMEADOW","HOUSTON","TX",77089,29.592085829,-95.211978404,490,"11467 BROOKMEADOW, HOUSTON, TX, 77089","Match","Non_Exact","11467 BROOK MEADOW DR, HOUSTON, TX, 77089",96113878,"L"
27991,"11467 HIGHWAY 66","ASHLAND","OR",97520,42.1229325350001,-122.462504205,491,"11467 HIGHWAY 66, ASHLAND, OR, 97520","Match","Non_Exact","11467 STATE HWY 66, ASHLAND, OR, 97520",155527318,"R"
27992,"11467 VIA MONTE","FONTANA","CA",92337,34.045205874,-117.434863685,492,"11467 VIA MONTE, FONTANA, CA, 92337","Match","Exact","11467 VIA MONTE, FONTANA, CA, 92337",144969265,"L"
27993,"11468 AUTUMN HILL DRIVE","SANDY","UT",84094,40.542999708,-111.855525961,493,"11468 AUTUMN HILL DRIVE, SANDY, UT, 84094","Match","Exact","11468 AUTUMN HILL DR, SANDY, UT, 84094",176092900,"R"
27994,"11468 MARKETPLACE N STE 600","CHAMPLIN","MN",55316,45.161381733,-93.3909003319999,494,"11468 MARKETPLACE N STE 600, CHAMPLIN, MN, 55316","Match","Non_Exact","11468 MARKETPLACE DR N, CHAMPLIN, MN, 55316",43670851,"L"
27995,"11468 MCDOWELL CT","SAN DIEGO","CA",92131,32.927590885,-117.108623976,495,"11468 MCDOWELL CT, SAN DIEGO, CA, 92131","Match","Exact","11468 MCDOWELL CT, SAN DIEGO, CA, 92131",612894371,"L"
27996,"11468 S BRENTRIDGE CIRCLE","SOUTH JORDAN","UT",84095,40.5423610610001,-111.925933849,496,"11468 S BRENTRIDGE CIRCLE, SOUTH JORDAN, UT, 84095","Match","Exact","11468 BRENTRIDGE CIR, SOUTH JORDAN, UT, 84095",176141719,"L"
27997,"11468 S ORION DR","GOODYEAR","AZ",85338,33.342209171,-112.42894907,497,"11468 S ORION DR, GOODYEAR, AZ, 85338","Match","Exact","11468 S ORION DR, GOODYEAR, AZ, 85338",650768922,"R"
27998,"11468 SUTTON PLACE DRIVE EAST","CARMEL","IN",46032,39.9522859210001,-86.1986129599999,498,"11468 SUTTON PLACE DRIVE EAST, CARMEL, IN, 46032","Match","Exact","11468 SUTTON PLACE DR E, CARMEL, IN, 46032",29309454,"L"
27999,"11469 260TH ST","BLANCHARD","OK",73010,35.0878483970001,-97.645010541,499,"11469 260TH ST, BLANCHARD, OK, 73010","Match","Exact","11469 260TH ST, BLANCHARD, OK, 73010",58364787,"R"
28000,"11469 OLIVE BLVD STE 1216","CREVE COEUR","MO",63141,38.671231651,-90.434665486,500,"11469 OLIVE BLVD STE 1216, CREVE COEUR, MO, 63141","Match","Exact","11469 OLIVE BLVD, CREVE COEUR, MO, 63141",615047830,"R"
