"ID","Address","City","State","Zip","lat","long","id","input_address","match_indicator","match_type","matched_address","tiger_line_id","tiger_side"
256001,"604 JACKSON HILL STREET UNIT E","HOUSTON","TX",77007,29.7663980510001,-95.401809375,1,"604 JACKSON HILL STREET UNIT E, HOUSTON, TX, 77007","Match","Exact","604 JACKSON HILL ST, HOUSTON, TX, 77007",96061896,"R"
256002,"604 JORDAN LANE","HUNTSVILLE","AL",35816,34.728020514,-86.627458368,2,"604 JORDAN LANE, HUNTSVILLE, AL, 35816","Match","Non_Exact","604 JORDAN LN NW, HUNTSVILLE, AL, 35816",58185379,"R"
256003,"604 JULIA STREET","NEW ORLEANS","LA",70130,29.945668176,-90.070572673,3,"604 JULIA STREET, NEW ORLEANS, LA, 70130","Match","Exact","604 JULIA ST, NEW ORLEANS, LA, 70130",191714304,"L"
256004,"604 KELSIE LANE","DESOTO","TX",75115,32.5795734490001,-96.864517135,4,"604 KELSIE LANE, DESOTO, TX, 75115","Match","Exact","604 KELSIE LN, DESOTO, TX, 75115",637598964,"R"
256005,"604 KENWICK CIR UNIT 104","CASSELBERRY","FL",32707,28.6613087850001,-81.3357116029999,5,"604 KENWICK CIR UNIT 104, CASSELBERRY, FL, 32707","Match","Exact","604 KENWICK CIR, CASSELBERRY, FL, 32707",93793102,"R"
256006,"604 KOUNTZE MEMORIAL DRIVE","BELLEVUE","NE",68005,41.1555363190001,-95.887656303,6,"604 KOUNTZE MEMORIAL DRIVE, BELLEVUE, NE, 68005","Match","Exact","604 KOUNTZE MEMORIAL DR, BELLEVUE, NE, 68005",28471593,"R"
256007,"604 LANG AVE","WOODBINE","GA",31569,30.9639166100001,-81.729526764,7,"604 LANG AVE, WOODBINE, GA, 31569","Match","Exact","604 LANG AVE, WOODBINE, GA, 31569",125696617,"L"
256008,"604 LAUREL ST","CONWAY","SC",29526,33.838570954,-79.0497629509999,8,"604 LAUREL ST, CONWAY, SC, 29526","Match","Exact","604 LAUREL ST, CONWAY, SC, 29526",29040872,"R"
256009,"604 LEONA DRIVE","ANN ARBOR","MI",48103,42.2864597760001,-83.7759993499999,9,"604 LEONA DRIVE, ANN ARBOR, MI, 48103","Match","Exact","604 LEONA DR, ANN ARBOR, MI, 48103",26012203,"R"
256010,"604 LONGFELLOW ST NW","WASHINGTON","DC",20011,38.9574795880001,-77.0212,10,"604 LONGFELLOW ST NW, WASHINGTON, DC, 20011","Match","Exact","604 LONGFELLOW ST NW, WASHINGTON, DC, 20011",76223345,"L"
256011,"604 MAPLE STREET","WEST UNION","OH",45693,38.797378446,-83.538754123,11,"604 MAPLE STREET, WEST UNION, OH, 45693","Match","Exact","604 MAPLE ST, WEST UNION, OH, 45693",100850966,"R"
256012,"604 MEMORIAL HILL WAY","MURPHY","TX",75094,33.0378305990001,-96.59860265,12,"604 MEMORIAL HILL WAY, MURPHY, TX, 75094","Match","Exact","604 MEMORIAL HILL WAY, MURPHY, TX, 75094",639631359,"R"
256013,"604 MILL SPRING CT","HOPKINSVILLE","KY",42240,36.850931137,-87.5322789539999,13,"604 MILL SPRING CT, HOPKINSVILLE, KY, 42240","Match","Exact","604 MILL SPRING CT, HOPKINSVILLE, KY, 42240",11273058,"R"
256014,"604 MILL STREET","GOLDEN CITY","MO",64748,37.394521184,-94.0928661729999,14,"604 MILL STREET, GOLDEN CITY, MO, 64748","Match","Exact","604 MILL ST, GOLDEN CITY, MO, 64748",99040111,"L"
256015,"604 MURK DRIVE","IRVING","TX",75062,NA,NA,15,"604 MURK DRIVE, IRVING, TX, 75062","No_Match",NA,NA,NA,NA
256016,"604 MURL DRIVE","IRVING","TX",75062,32.849027746,-96.95207698,16,"604 MURL DRIVE, IRVING, TX, 75062","Match","Exact","604 MURL DR, IRVING, TX, 75062",103201521,"L"
256017,"604 N 10TH ST","ONEILL","NE",68763,42.4642420710001,-98.638190509,17,"604 N 10TH ST, ONEILL, NE, 68763","Match","Exact","604 N 10TH ST, ONEILL, NE, 68763",167132980,"R"
256018,"604 N 27TH AVE","MYRTLE BEACH","SC",29577,33.709951545,-78.8683012,18,"604 N 27TH AVE, MYRTLE BEACH, SC, 29577","Match","Non_Exact","604 27TH AVE N, MYRTLE BEACH, SC, 29577",647253862,"R"
256019,"604 N 6TH ST","BELLWOOD","PA",16617,40.6050215320001,-78.338082022,19,"604 N 6TH ST, BELLWOOD, PA, 16617","Match","Exact","604 N 6TH ST, BELLWOOD, PA, 16617",49707872,"R"
256020,"604 N ALAMO ST 2","ANAHEIM","CA",92801,33.839942642,-117.964011287,20,"604 N ALAMO ST 2, ANAHEIM, CA, 92801","Match","Non_Exact","604 N ALAMO ST, ANAHEIM, CA, 92801",144023144,"R"
256021,"604 N FREDERIC ST","BURBANK","CA",91505,34.168363492,-118.334234411,21,"604 N FREDERIC ST, BURBANK, CA, 91505","Match","Exact","604 N FREDERIC ST, BURBANK, CA, 91505",142726237,"R"
256022,"604 N HIGHWAY 27  SUITE 10","MINNEOLA","FL",34715,28.586330499,-81.751999159,22,"604 N HIGHWAY 27  SUITE 10, MINNEOLA, FL, 34715","Match","Non_Exact","604 US HWY 27, MINNEOLA, FL, 34715",621936687,"L"
256023,"604 N LARAMIE","CHICAGO","IL",60644,41.8915087330001,-87.755480366,23,"604 N LARAMIE, CHICAGO, IL, 60644","Match","Non_Exact","604 N LARAMIE AVE, CHICAGO, IL, 60644",111758137,"L"
256024,"604 N LOCUST ST","NORTH LITTLE ROCK","AR",72114,34.759041725,-92.261624259,24,"604 N LOCUST ST, NORTH LITTLE ROCK, AR, 72114","Match","Exact","604 N LOCUST ST, N LITTLE ROCK, AR, 72114",83515117,"R"
256025,"604 N MAIN ST","GORDONSVILLE","VA",22942,38.143189842,-78.1904609869999,25,"604 N MAIN ST, GORDONSVILLE, VA, 22942","Match","Exact","604 N MAIN ST, GORDONSVILLE, VA, 22942",29878400,"R"
256026,"604 N RAYNOR AVE","JOLIET","IL",60435,41.534741712,-88.101269262,26,"604 N RAYNOR AVE, JOLIET, IL, 60435","Match","Exact","604 N RAYNOR AVE, JOLIET, IL, 60435",111540948,"R"
256027,"604 N WHEELER RD","COLMESNEIL","TX",75938,30.909701741,-94.422599914,27,"604 N WHEELER RD, COLMESNEIL, TX, 75938","Match","Non_Exact","604 N WHEELER AVE, COLMESNEIL, TX, 75938",24404373,"R"
256028,"604 NE VICTORIA DR","LEES SUMMIT","MO",64086,38.9386365460001,-94.366467576,28,"604 NE VICTORIA DR, LEES SUMMIT, MO, 64086","Match","Exact","604 NE VICTORIA DR, LEES SUMMIT, MO, 64086",91488667,"R"
256029,"604 NORTH HIGH STREET","COLUMBIA","TN",38401,35.6177525780001,-87.036808379,29,"604 NORTH HIGH STREET, COLUMBIA, TN, 38401","Match","Exact","604 N HIGH ST, COLUMBIA, TN, 38401",26883263,"R"
256030,"604 NORTH HWY 8","LINDEN","TX",75563,NA,NA,30,"604 NORTH HWY 8, LINDEN, TX, 75563","No_Match",NA,NA,NA,NA
256031,"604 NORTH WALKER","OLATHE","KS",66061,38.8895728740001,-94.813667584,31,"604 NORTH WALKER, OLATHE, KS, 66061","Match","Exact","604 N WALKER, OLATHE, KS, 66061",91282958,"R"
256032,"604 NOTTINGHAM COURT","SCARSDALE","NY",10583,NA,NA,32,"604 NOTTINGHAM COURT, SCARSDALE, NY, 10583","No_Match",NA,NA,NA,NA
256033,"604 NW 12TH ST","FLORIDA CITY","FL",33034,25.458796555,-80.4854463299999,33,"604 NW 12TH ST, FLORIDA CITY, FL, 33034","Match","Exact","604 NW 12TH ST, FLORIDA CITY, FL, 33034",115992278,"R"
256034,"604 OAK ST STE 102","GRAHAM","TX",76450,33.105767009,-98.591237037,34,"604 OAK ST STE 102, GRAHAM, TX, 76450","Match","Exact","604 OAK ST, GRAHAM, TX, 76450",183299825,"L"
256035,"604 OAK STREET","SAGINAW","MI",48602,43.4421329040001,-83.951198812,35,"604 OAK STREET, SAGINAW, MI, 48602","Match","Exact","604 OAK ST, SAGINAW, MI, 48602",80211115,"R"
256036,"604 PAR DR","BRYANT","AR",72022,34.60712054,-92.517800442,36,"604 PAR DR, BRYANT, AR, 72022","Match","Exact","604 PAR DR, BRYANT, AR, 72022",635877811,"R"
256037,"604 PEACOCK RUN","BOILING SPRINGS","SC",29316,35.019567024,-81.970361467,37,"604 PEACOCK RUN, BOILING SPRINGS, SC, 29316","Match","Exact","604 PEACOCK RUN, BOILING SPRINGS, SC, 29316",19466283,"R"
256038,"604 PHILIP STREET","DES MOINES","IA",50315,41.544559989,-93.6221617739999,38,"604 PHILIP STREET, DES MOINES, IA, 50315","Match","Exact","604 PHILIP ST, DES MOINES, IA, 50315",65786308,"L"
256039,"604 PINE STREET","WATERTOWN","NY",13601,43.9701782860001,-75.926240557,39,"604 PINE STREET, WATERTOWN, NY, 13601","Match","Exact","604 PINE ST, WATERTOWN, NY, 13601",154240032,"R"
256040,"604 PLAINVIEW","HOWARDWICK","TX",79226,35.0497241360001,-100.895594701,40,"604 PLAINVIEW, HOWARDWICK, TX, 79226","Match","Non_Exact","604 PLAINVIEW ST, HOWARDWICK, TX, 79226",642148072,"R"
256041,"604 POWELL STREET 2ND FL","BROOKLYN","NY",11212,40.659350913,-73.9013040139999,41,"604 POWELL STREET 2ND FL, BROOKLYN, NY, 11212","Match","Exact","604 POWELL ST, BROOKLYN, NY, 11212",59084798,"R"
256042,"604 PRAIRIE COURT","MT HOREB","WI",53572,43.000062196,-89.731897107,42,"604 PRAIRIE COURT, MT HOREB, WI, 53572","Match","Exact","604 PRAIRIE CT, MOUNT HOREB, WI, 53572",49495677,"R"
256043,"604 ROUS FLS","MCKINNEY","TX",75071,33.2801808180001,-96.61423181,43,"604 ROUS FLS, MCKINNEY, TX, 75071","Match","Exact","604 ROUS FALLS, MCKINNEY, TX, 75071",646748638,"L"
256044,"604 S BROADWAY","CARL JUNCTION","MO",64834,37.1722396330001,-94.569084038,44,"604 S BROADWAY, CARL JUNCTION, MO, 64834","Match","Non_Exact","604 BROADWAY AVE, CARL JUNCTION, MO, 64834",66172172,"L"
256045,"604 S DEAN RD","AUBURN","AL",36830,32.594229285,-85.464783906,45,"604 S DEAN RD, AUBURN, AL, 36830","Match","Exact","604 S DEAN RD, AUBURN, AL, 36830",1570166,"R"
256046,"604 S ELM STREET","DENTON","TX",76201,33.2090664130001,-97.133786323,46,"604 S ELM STREET, DENTON, TX, 76201","Match","Exact","604 S ELM ST, DENTON, TX, 76201",103339120,"L"
256047,"604 S HORSESHOE BND","MAIZE","KS",67101,37.770813371,-97.455347901,47,"604 S HORSESHOE BND, MAIZE, KS, 67101","Match","Non_Exact","604 S HORSESHOE BEND ST, MAIZE, KS, 67101",115698395,"L"
256048,"604 S MAIN","ROANOKE","IN",46783,40.9569275650001,-85.374436298,48,"604 S MAIN, ROANOKE, IN, 46783","Match","Non_Exact","604 S MAIN ST, ROANOKE, IN, 46783",6557549,"L"
256049,"604 S QUAIL RUN ROAD","VINCENNES","IN",47591,NA,NA,49,"604 S QUAIL RUN ROAD, VINCENNES, IN, 47591","No_Match",NA,NA,NA,NA
256050,"604 S SMITH STREET","CLARK","SD",57225,44.871740452,-97.734944362,50,"604 S SMITH STREET, CLARK, SD, 57225","Match","Exact","604 S SMITH ST, CLARK, SD, 57225",201138689,"L"
256051,"604 SADDLEBROOK DR","COLLEYVILLE","TX",76034,32.8708793800001,-97.158252195,51,"604 SADDLEBROOK DR, COLLEYVILLE, TX, 76034","Match","Exact","604 SADDLEBROOK DR, COLLEYVILLE, TX, 76034",101867415,"L"
256052,"604 SAVOY PLACE","VALPARAISO","IN",46383,41.5064553280001,-87.0530371959999,52,"604 SAVOY PLACE, VALPARAISO, IN, 46383","Match","Exact","604 SAVOY PL, VALPARAISO, IN, 46383",119913307,"L"
256053,"604 SE 6TH ST","GREENFIELD","IA",50849,41.2992045610001,-94.4532193539999,53,"604 SE 6TH ST, GREENFIELD, IA, 50849","Match","Exact","604 SE 6TH ST, GREENFIELD, IA, 50849",61674482,"L"
256054,"604 SECOND STREET APT 4","MAMARONECK","NY",10543,40.959988847,-73.734048703,54,"604 SECOND STREET APT 4, MAMARONECK, NY, 10543","Match","Exact","604 SECOND ST, MAMARONECK, NY, 10543",139754884,"L"
256055,"604 SOUTH 37TH ST","OMAHA","NE",68105,41.2546719540001,-95.967596629,55,"604 SOUTH 37TH ST, OMAHA, NE, 68105","Match","Exact","604 S 37TH ST, OMAHA, NE, 68105",116984261,"R"
256056,"604 SOUTH MAIN ST","RAYNHAM","MA",2767,41.919341683,-71.056801014,56,"604 SOUTH MAIN ST, RAYNHAM, MA, 2767","Match","Exact","604 S MAIN ST, RAYNHAM, MA, 02767",636786099,"L"
256057,"604 SOUTH WASHINGTON SQUARE 1613","PHILADELPHIA","PA",19106,39.9461239500001,-75.151624527,57,"604 SOUTH WASHINGTON SQUARE 1613, PHILADELPHIA, PA, 19106","Match","Exact","604 S WASHINGTON SQ, PHILADELPHIA, PA, 19106",131424118,"L"
256058,"604 SPENCER ST","SHAKOPEE","MN",55379,44.793899417,-93.5210938389999,58,"604 SPENCER ST, SHAKOPEE, MN, 55379","Match","Non_Exact","604 SPENCER ST S, SHAKOPEE, MN, 55379",38140593,"R"
256059,"604 SPRING ARBOR LANE","CEDAR PARK","TX",78613,30.4910699380001,-97.822308344,59,"604 SPRING ARBOR LANE, CEDAR PARK, TX, 78613","Match","Exact","604 SPRING ARBOR LN, CEDAR PARK, TX, 78613",617957135,"L"
256060,"604 SW JOSEPH CIRCLE","GRAIN VALLEY","MO",64029,39.001186627,-94.222602767,60,"604 SW JOSEPH CIRCLE, GRAIN VALLEY, MO, 64029","Match","Exact","604 SW JOSEPH CIR, GRAIN VALLEY, MO, 64029",628960775,"L"
256061,"604 SW SOUTH ST","GEARY","OK",73040,NA,NA,61,"604 SW SOUTH ST, GEARY, OK, 73040","No_Match",NA,NA,NA,NA
256062,"604 SWEET STREAM COURT","LAWRENCEVILLE","GA",30044,33.93237322,-84.0772985199999,62,"604 SWEET STREAM COURT, LAWRENCEVILLE, GA, 30044","Match","Non_Exact","604 SWEET STREAM CT NW, LAWRENCEVILLE, GA, 30044",88919713,"R"
256063,"604 TENNYSON CT","O FALLON","IL",62269,38.6187752330001,-89.9452349169999,63,"604 TENNYSON CT, O FALLON, IL, 62269","Match","Exact","604 TENNYSON CT, O FALLON, IL, 62269",107886403,"L"
256064,"604 THOMAS WAY","SEVERNA PARK","MD",21146,39.0812558540001,-76.55644764,64,"604 THOMAS WAY, SEVERNA PARK, MD, 21146","Match","Exact","604 THOMAS WAY, SEVERNA PARK, MD, 21146",68191306,"R"
256065,"604 TIMBER CREST DRIVE","COLUMBIA","SC",29229,34.1555241360001,-80.893617809,65,"604 TIMBER CREST DRIVE, COLUMBIA, SC, 29229","Match","Exact","604 TIMBER CREST DR, COLUMBIA, SC, 29229",71852822,"R"
256066,"604 TUVE AVENUE","PARKERSBURG","IA",50665,42.57325202,-92.773074795,66,"604 TUVE AVENUE, PARKERSBURG, IA, 50665","Match","Exact","604 TUVE AVE, PARKERSBURG, IA, 50665",9624818,"L"
256067,"604 VISTA VIEW LANE","NORTH SALT LAKE","UT",84054,NA,NA,67,"604 VISTA VIEW LANE, NORTH SALT LAKE, UT, 84054","Tie",NA,NA,NA,NA
256068,"604 W 12TH STREET","JUNEAU","AK",99801,58.30372398,-134.421490056,68,"604 W 12TH STREET, JUNEAU, AK, 99801","Match","Exact","604 W 12TH ST, JUNEAU, AK, 99801",190964196,"R"
256069,"604 W 2775 N","PLEASANT VIEW","UT",84414,41.3080494050001,-111.992512301,69,"604 W 2775 N, PLEASANT VIEW, UT, 84414","Match","Exact","604 W 2775 N, PLEASANT VIEW, UT, 84414",652071610,"L"
256070,"604 W 4TH STREET","TYLER","TX",75701,32.3319794660001,-95.306600249,70,"604 W 4TH STREET, TYLER, TX, 75701","Match","Exact","604 W 4TH ST, TYLER, TX, 75701",141271688,"L"
256071,"604 W 52ND PLACE","LOS ANGELES","CA",90037,33.99501185,-118.284337679,71,"604 W 52ND PLACE, LOS ANGELES, CA, 90037","Match","Exact","604 W 52ND PL, LOS ANGELES, CA, 90037",141659499,"L"
256072,"604 W 61ST TERR","KANSAS CITY","KS",64113,NA,NA,72,"604 W 61ST TERR, KANSAS CITY, KS, 64113","No_Match",NA,NA,NA,NA
256073,"604 W HIGH STREET","QUINCY","CA",95971,39.934847389,-120.950424794,73,"604 W HIGH STREET, QUINCY, CA, 95971","Match","Exact","604 W HIGH ST, QUINCY, CA, 95971",127203559,"R"
256074,"604 W LARKIN STREET","MIDLAND","MI",48640,43.616869195,-84.248831202,74,"604 W LARKIN STREET, MIDLAND, MI, 48640","Match","Exact","604 W LARKIN ST, MIDLAND, MI, 48640",81196343,"R"
256075,"604 W MAIN ST","MALAGA","NJ",8328,39.5725123820001,-75.048023418,75,"604 W MAIN ST, MALAGA, NJ, 8328","Match","Exact","604 W MAIN ST, MALAGA, NJ, 08328",643867059,"L"
256076,"604 W TERRITORIAL AVE","BATTLE CREEK","MI",49015,NA,NA,76,"604 W TERRITORIAL AVE, BATTLE CREEK, MI, 49015","No_Match",NA,NA,NA,NA
256077,"604 WAPELLO ST","ALTADENA","CA",91001,34.198533931,-118.132849125,77,"604 WAPELLO ST, ALTADENA, CA, 91001","Match","Exact","604 WAPELLO ST, ALTADENA, CA, 91001",141628115,"R"
256078,"604 WASHINGTON COVE WAY","INDIANAPOLIS","IN",46229,39.7788524440001,-85.9530122479999,78,"604 WASHINGTON COVE WAY, INDIANAPOLIS, IN, 46229","Match","Exact","604 WASHINGTON COVE WAY, INDIANAPOLIS, IN, 46229",647258945,"R"
256079,"604 WEST 11TH STREET","AUSTIN","TX",78701,30.2743444560001,-97.746835136,79,"604 WEST 11TH STREET, AUSTIN, TX, 78701","Match","Exact","604 W 11TH ST, AUSTIN, TX, 78701",63943179,"R"
256080,"604 WEST 33RD AVE","PINE BLUFF","CA",70603,NA,NA,80,"604 WEST 33RD AVE, PINE BLUFF, CA, 70603","No_Match",NA,NA,NA,NA
256081,"604 WEST 4TH STREET","TYLER","TX",75701,32.331979597,-95.3065996189999,81,"604 WEST 4TH STREET, TYLER, TX, 75701","Match","Exact","604 W 4TH ST, TYLER, TX, 75701",141271688,"L"
256082,"604 WEST 8TH AVE 149","MESA","AZ",85210,NA,NA,82,"604 WEST 8TH AVE 149, MESA, AZ, 85210","No_Match",NA,NA,NA,NA
256083,"604 WEST DECKER STREET","VIROQUA","WI",54665,43.557186791,-90.8958317239999,83,"604 WEST DECKER STREET, VIROQUA, WI, 54665","Match","Exact","604 W DECKER ST, VIROQUA, WI, 54665",627095353,"R"
256084,"604 WEST ORGAN AVENUE","LAS CRUCES","NM",88005,32.308682172,-106.784292248,84,"604 WEST ORGAN AVENUE, LAS CRUCES, NM, 88005","Match","Exact","604 W ORGAN AVE, LAS CRUCES, NM, 88005",189543846,"R"
256085,"604 WILDWOOD LANE","CENTERVILLE","IA",52544,40.726697663,-92.886928631,85,"604 WILDWOOD LANE, CENTERVILLE, IA, 52544","Match","Exact","604 WILDWOOD LN, CENTERVILLE, IA, 52544",608453641,"L"
256086,"604 WOODHAVEN DRIVE","JOHNSON CITY","TN",37604,36.339504038,-82.3854669099999,86,"604 WOODHAVEN DRIVE, JOHNSON CITY, TN, 37604","Match","Exact","604 WOODHAVEN DR, JOHNSON CITY, TN, 37604",127921826,"R"
256087,"604 ZELLER DR","SPRINGFIELD","OH",45503,39.95732051,-83.797146954,87,"604 ZELLER DR, SPRINGFIELD, OH, 45503","Match","Exact","604 ZELLER DR, SPRINGFIELD, OH, 45503",135006764,"L"
256088,"604","ELIZABETHTON","TN",37644,NA,NA,88,"604, ELIZABETHTON, TN, 37644","No_Match",NA,NA,NA,NA
256089,"604","EULESS","TX",76040,NA,NA,89,"604, EULESS, TX, 76040","No_Match",NA,NA,NA,NA
256090,"604","MEDFORD","OR",97501,NA,NA,90,"604, MEDFORD, OR, 97501","No_Match",NA,NA,NA,NA
256091,"6040 ASPEN LANE","MATTESON","IL",60443,41.5177256580001,-87.7620712729999,91,"6040 ASPEN LANE, MATTESON, IL, 60443","Match","Exact","6040 ASPEN LN, MATTESON, IL, 60443",111706848,"R"
256092,"6040 BAY VALLEY RD","BAY CITY","MI",48706,43.5648270550001,-83.964021286,92,"6040 BAY VALLEY RD, BAY CITY, MI, 48706","Match","Exact","6040 BAY VALLEY RD, BAY CITY, MI, 48706",81146202,"R"
256093,"6040 CEZANNE COURT","ROANOKE","VA",24018,37.200365006,-80.028360912,93,"6040 CEZANNE COURT, ROANOKE, VA, 24018","Match","Exact","6040 CEZANNE CT, ROANOKE, VA, 24018",62919938,"L"
256094,"6040 COMFORT CT","CARMICHAEL","CA",95608,38.619328604,-121.324746586,94,"6040 COMFORT CT, CARMICHAEL, CA, 95608","Match","Exact","6040 COMFORT CT, CARMICHAEL, CA, 95608",133343318,"L"
256095,"6040 COMMERCE BLVD SUITE 105","ROHNERT PARK","CA",94928,38.352026224,-122.710315514,95,"6040 COMMERCE BLVD SUITE 105, ROHNERT PARK, CA, 94928","Match","Exact","6040 COMMERCE BLVD, ROHNERT PARK, CA, 94928",605009070,"L"
256096,"6040 CREEKVIEW LANE NORTH","BROOKLYN PARK","MN",55443,45.110795249,-93.359610007,96,"6040 CREEKVIEW LANE NORTH, BROOKLYN PARK, MN, 55443","Match","Exact","6040 CREEKVIEW LN N, BROOKLYN PARK, MN, 55443",645545244,"R"
256097,"6040 DUDLEY ST","TAYLOR","MI",48180,42.2668540710001,-83.248015767,97,"6040 DUDLEY ST, TAYLOR, MI, 48180","Match","Exact","6040 DUDLEY ST, TAYLOR, MI, 48180",95445330,"R"
256098,"6040 E PLEASANT RUN PARKWAY S DR","INDIANAPOLIS","IN",46219,39.774639989,-86.063483245,98,"6040 E PLEASANT RUN PARKWAY S DR, INDIANAPOLIS, IN, 46219","Match","Exact","6040 E PLEASANT RUN PKWY S DR, INDIANAPOLIS, IN, 46219",108003303,"L"
256099,"6040 FM 603","CLYDE","TX",79510,32.3412026350001,-99.562021654,99,"6040 FM 603, CLYDE, TX, 79510","Match","Exact","6040 FM 603, CLYDE, TX, 79510",129537680,"R"
256100,"6040 GROVEOAK PL","RANCHO PALOS VERDES","CA",90275,33.7864700600001,-118.383700698,100,"6040 GROVEOAK PL, RANCHO PALOS VERDES, CA, 90275","Match","Exact","6040 GROVEOAK PL, RANCHO PALOS VERDES, CA, 90275",141585372,"L"
256101,"6040 I 55 N","JACKSON","MS",39211,NA,NA,101,"6040 I 55 N, JACKSON, MS, 39211","No_Match",NA,NA,NA,NA
256102,"6040 MAIN STREET","EAST PETERSBURG","PA",17520,40.100572592,-76.35417953,102,"6040 MAIN STREET, EAST PETERSBURG, PA, 17520","Match","Exact","6040 MAIN ST, E PETERSBURG, PA, 17520",179686273,"L"
256103,"6040 MIDDLE DRIVE","INDIANAPOLIS","IN",46235,39.867731657,-85.960159076,103,"6040 MIDDLE DRIVE, INDIANAPOLIS, IN, 46235","Match","Exact","6040 MIDDLE DR, INDIANAPOLIS, IN, 46235",652698388,"L"
256104,"6040 N FIGUEROA STREET","LOS ANGELES","CA",90042,34.1117786500001,-118.18832157,104,"6040 N FIGUEROA STREET, LOS ANGELES, CA, 90042","Match","Exact","6040 N FIGUEROA ST, LOS ANGELES, CA, 90042",142253644,"R"
256105,"6040 PRINCETON AVE NE","SEATTLE","WA",98115,47.6735143660001,-122.274770063,105,"6040 PRINCETON AVE NE, SEATTLE, WA, 98115","Match","Exact","6040 PRINCETON AVE NE, SEATTLE, WA, 98115",186586712,"R"
256106,"6040 PRINCETON ROAD","LIBERTY TOWNSHIP","OH",45011,39.386597506,-84.418402618,106,"6040 PRINCETON ROAD, LIBERTY TOWNSHIP, OH, 45011","Match","Exact","6040 PRINCETON RD, LIBERTY TWP, OH, 45011",649561086,"L"
256107,"6040 RICHMOND HWY APT  405","ALEXANDRIA","VA",22303,38.786310057,-77.068926961,107,"6040 RICHMOND HWY APT  405, ALEXANDRIA, VA, 22303","Match","Exact","6040 RICHMOND HWY, ALEXANDRIA, VA, 22303",649306582,"L"
256108,"6040 S HARPER 507","CHICAGO","IL",60637,NA,NA,108,"6040 S HARPER 507, CHICAGO, IL, 60637","No_Match",NA,NA,NA,NA
256109,"6040 S WINCHESTER AVE","CHICAGO","IL",60636,41.7840407780001,-87.672821757,109,"6040 S WINCHESTER AVE, CHICAGO, IL, 60636","Match","Exact","6040 S WINCHESTER AVE, CHICAGO, IL, 60636",111805645,"R"
256110,"6040 TURTLE PT","MCDONOUGH","GA",30252,33.4245239680001,-84.13105588,110,"6040 TURTLE PT, MCDONOUGH, GA, 30252","Match","Exact","6040 TURTLE PT, MCDONOUGH, GA, 30252",23200538,"R"
256111,"6040 UNITY DR STE I","NORCROSS","GA",30071,33.914970496,-84.205940611,111,"6040 UNITY DR STE I, NORCROSS, GA, 30071","Match","Exact","6040 UNITY DR, NORCROSS, GA, 30071",88924431,"L"
256112,"6040 WEST AVENUE L","LANCASTER","CA",93536,34.6601770390001,-118.237445675,112,"6040 WEST AVENUE L, LANCASTER, CA, 93536","Match","Exact","6040 W AVE L, LANCASTER, CA, 93536",648792658,"R"
256113,"60401 TALL PINE AVENUE","BEND","OR",97702,43.993817721,-121.305727837,113,"60401 TALL PINE AVENUE, BEND, OR, 97702","Match","Exact","60401 TALL PINE AVE, BEND, OR, 97702",152528385,"R"
256114,"6041 BONITA DR","PRESQUE ISLE","MI",49777,45.3332438580001,-83.499022898,114,"6041 BONITA DR, PRESQUE ISLE, MI, 49777","Match","Exact","6041 BONITA DR, PRESQUE ISLE, MI, 49777",130762366,"R"
256115,"6041 KIMBERLY BLVD SUITE D","NORTH LAUDERDALE","FL",33068,26.215765628,-80.205507164,115,"6041 KIMBERLY BLVD SUITE D, NORTH LAUDERDALE, FL, 33068","Match","Exact","6041 KIMBERLY BLVD, N LAUDERDALE, FL, 33068",114693350,"R"
256116,"6041 MORGANWOOD SQ","HILLIARD","OH",43026,40.020153297,-83.17509122,116,"6041 MORGANWOOD SQ, HILLIARD, OH, 43026","Match","Exact","6041 MORGANWOOD SQ, HILLIARD, OH, 43026",218698839,"L"
256117,"6041 MOUNT MORIAH ROAD","MEMPHIS","TN",38115,NA,NA,117,"6041 MOUNT MORIAH ROAD, MEMPHIS, TN, 38115","No_Match",NA,NA,NA,NA
256118,"6041 N CENTRAL AVE","HILMAR","CA",95324,37.381290801,-120.959486721,118,"6041 N CENTRAL AVE, HILMAR, CA, 95324","Match","Exact","6041 CENTRAL AVE, HILMAR, CA, 95324",125345763,"R"
256119,"6041 N LITTLE PAPOOSE DRIVE","PRESCOTT VALLEY","AZ",86314,NA,NA,119,"6041 N LITTLE PAPOOSE DRIVE, PRESCOTT VALLEY, AZ, 86314","Tie",NA,NA,NA,NA
256120,"6041 STONEGATE DRIVE","ALEXANDRIA","LA",71303,31.2686432090001,-92.500718568,120,"6041 STONEGATE DRIVE, ALEXANDRIA, LA, 71303","Match","Exact","6041 STONEGATE DR, ALEXANDRIA, LA, 71303",651153226,"L"
256121,"6041 W LOS ALTOS","FRESNO","CA",93722,36.8329325020001,-119.900692977,121,"6041 W LOS ALTOS, FRESNO, CA, 93722","Match","Non_Exact","6041 W LOS ALTOS AVE, FRESNO, CA, 93722",619142481,"L"
256122,"6041 WINTER GRAIN PATH","CLARKSVILLE","MD",21029,39.203964408,-76.922155586,122,"6041 WINTER GRAIN PATH, CLARKSVILLE, MD, 21029","Match","Exact","6041 WINTER GRAIN PATH, CLARKSVILLE, MD, 21029",158936443,"L"
256123,"6042 ARRON CT","WEED","CA",96094,41.5033614210001,-122.375771467,123,"6042 ARRON CT, WEED, CA, 96094","Match","Exact","6042 ARRON CT, WEED, CA, 96094",113232464,"L"
256124,"6042 C STREET","CHINO","CA",91710,34.0156445600001,-117.673571195,124,"6042 C STREET, CHINO, CA, 91710","Match","Exact","6042 C ST, CHINO, CA, 91710",144673941,"L"
256125,"6042 CHESEBRO RD","AGOURA HILLS","CA",91301,34.1574370120001,-118.733979636,125,"6042 CHESEBRO RD, AGOURA HILLS, CA, 91301","Match","Exact","6042 CHESEBRO RD, AGOURA HILLS, CA, 91301",142786023,"L"
256126,"6042 HERITAGE LAKES DRIVE","HILLIARD","OH",43026,40.022235514,-83.176633216,126,"6042 HERITAGE LAKES DRIVE, HILLIARD, OH, 43026","Match","Exact","6042 HERITAGE LAKES DR, HILLIARD, OH, 43026",218682334,"L"
256127,"6042 MEYERS LANDING COURT","BURKE","VA",22015,38.7875840680001,-77.3050607879999,127,"6042 MEYERS LANDING COURT, BURKE, VA, 22015","Match","Exact","6042 MEYERS LANDING CT, BURKE, VA, 22015",75973737,"R"
256128,"6042 S PRAIRIE UNIT 1","CHICAGO","IL",60637,NA,NA,128,"6042 S PRAIRIE UNIT 1, CHICAGO, IL, 60637","No_Match",NA,NA,NA,NA
256129,"6042 US HWY 98 W","HATTIESBURG","MS",39402,31.3217064840001,-89.379563375,129,"6042 US HWY 98 W, HATTIESBURG, MS, 39402","Match","Non_Exact","6042 US HWY 98, HATTIESBURG, MS, 39402",505863,"R"
256130,"6042 WRIGHTSVILLE AVE","WILMINGTON","NC",28403,34.2186477430001,-77.8465887409999,130,"6042 WRIGHTSVILLE AVE, WILMINGTON, NC, 28403","Match","Exact","6042 WRIGHTSVILLE AVE, WILMINGTON, NC, 28403",650633360,"R"
256131,"6043 - WALNUT AVENUE","LONG BEACH","CA",90805,NA,NA,131,"6043 - WALNUT AVENUE, LONG BEACH, CA, 90805","No_Match",NA,NA,NA,NA
256132,"6043 48TH AVE SW","SEATTLE","WA",98136,47.548219798,-122.393836738,132,"6043 48TH AVE SW, SEATTLE, WA, 98136","Match","Exact","6043 48TH AVE SW, SEATTLE, WA, 98136",186661480,"R"
256133,"6043 BLUEPOINT COURT","CLARKSVILLE","MD",21029,39.2063787920001,-76.933690597,133,"6043 BLUEPOINT COURT, CLARKSVILLE, MD, 21029","Match","Non_Exact","6043 BLUE POINT CT, CLARKSVILLE, MD, 21029",614405224,"L"
256134,"6043 HUDSON ROAD SUITE 335","WOODBURY","MN",55125,NA,NA,134,"6043 HUDSON ROAD SUITE 335, WOODBURY, MN, 55125","No_Match",NA,NA,NA,NA
256135,"6043 LAKE POINTE DRIVE   APT 305","ORLANDO","TX",32822,NA,NA,135,"6043 LAKE POINTE DRIVE   APT 305, ORLANDO, TX, 32822","No_Match",NA,NA,NA,NA
256136,"6043 MAGNOLIA RIDGE","STONE MOUNTAIN","GA",30087,33.774859823,-84.144333482,136,"6043 MAGNOLIA RIDGE, STONE MOUNTAIN, GA, 30087","Match","Exact","6043 MAGNOLIA RDG, STONE MOUNTAIN, GA, 30087",627673709,"R"
256137,"6043 N 17TH AVE","PHOENIX","AZ",85015,33.5253695070001,-112.09539937,137,"6043 N 17TH AVE, PHOENIX, AZ, 85015","Match","Non_Exact","6043 N 17TH AVE, PHOENIX, AZ, 85015",128205414,"R"
256138,"6043 NW 6TH COURT","MIAMI","FL",33127,25.8309450020001,-80.207400422,138,"6043 NW 6TH COURT, MIAMI, FL, 33127","Match","Non_Exact","6043 NW 6TH CT, MIAMI, FL, 33127",116004855,"R"
256139,"6043 S LINWOOD DRIVE NE","WYOMING","MN",55092,45.3477374870001,-93.1178891709999,139,"6043 S LINWOOD DRIVE NE, WYOMING, MN, 55092","Match","Exact","6043 S LINWOOD DR NE, WYOMING, MN, 55092",97553309,"L"
256140,"6043 SUSANNA DR","GRAND PRAIRIE","TX",75052,32.628753923,-97.063764565,140,"6043 SUSANNA DR, GRAND PRAIRIE, TX, 75052","Match","Exact","6043 SUSANNA DR, GRAND PRAIRIE, TX, 75052",102121956,"L"
256141,"6043 WEST INTERSTATE 20","ARLINGTON","TX",76017,NA,NA,141,"6043 WEST INTERSTATE 20, ARLINGTON, TX, 76017","No_Match",NA,NA,NA,NA
256142,"6043 WOODBURY DR","WRIGHT","MN",55798,46.6851268720001,-92.9334284779999,142,"6043 WOODBURY DR, WRIGHT, MN, 55798","Match","Exact","6043 WOODBURY DR, WRIGHT, MN, 55798",612109071,"L"
256143,"6044 BLUE POINT CT","CLARKSVILLE","MD",21029,39.206262252,-76.9341826359999,143,"6044 BLUE POINT CT, CLARKSVILLE, MD, 21029","Match","Exact","6044 BLUE POINT CT, CLARKSVILLE, MD, 21029",614405225,"R"
256144,"6044 CEDAR GLEN DR","GRAND PRAIRIE","TX",75052,32.623705177,-97.062799748,144,"6044 CEDAR GLEN DR, GRAND PRAIRIE, TX, 75052","Match","Exact","6044 CEDAR GLEN DR, GRAND PRAIRIE, TX, 75052",102187823,"L"
256145,"6044 DEERFIELD CT MORROW","MORROW","GA",30260,33.589431271,-84.30882051,145,"6044 DEERFIELD CT MORROW, MORROW, GA, 30260","Match","Exact","6044 DEERFIELD CT, MORROW, GA, 30260",23315781,"R"
256146,"6044 DIXON AVE","TOLEDO","OH",43613,41.72583911,-83.606931252,146,"6044 DIXON AVE, TOLEDO, OH, 43613","Match","Exact","6044 DIXON AVE, TOLEDO, OH, 43613",33932711,"R"
256147,"6044 FM 804","LARUE","TX",75770,32.162091552,-95.748688255,147,"6044 FM 804, LARUE, TX, 75770","Match","Exact","6044 FM 804, LARUE, TX, 75770",652019151,"R"
256148,"6044 HOLETON ROAD","CARMICHAEL","CA",95608,38.6284780870001,-121.324207815,148,"6044 HOLETON ROAD, CARMICHAEL, CA, 95608","Match","Exact","6044 HOLETON RD, CARMICHAEL, CA, 95608",133361805,"R"
256149,"6044 MONTE AZUL PLACE","SANTA FE","NM",87507,35.629379859,-106.038933217,149,"6044 MONTE AZUL PLACE, SANTA FE, NM, 87507","Match","Exact","6044 MONTE AZUL PL, SANTA FE, NM, 87507",169426467,"R"
256150,"6044 N AVONDALE AVENUE","CHICAGO","IL",60631,41.9911442260001,-87.798589378,150,"6044 N AVONDALE AVENUE, CHICAGO, IL, 60631","Match","Exact","6044 N AVONDALE AVE, CHICAGO, IL, 60631",111736186,"L"
256151,"6044 W STATE ROAD 80","FORT DENAUD","FL",33935,NA,NA,151,"6044 W STATE ROAD 80, FORT DENAUD, FL, 33935","No_Match",NA,NA,NA,NA
256152,"60445 ZUNI RD","BEND","OR",97702,43.994706405,-121.378339941,152,"60445 ZUNI RD, BEND, OR, 97702","Match","Exact","60445 ZUNI RD, BEND, OR, 97702",152587186,"L"
256153,"6045 A1A S","ST AUGUSTINE","FL",32080,29.783311951,-81.2584418929999,153,"6045 A1A S, ST AUGUSTINE, FL, 32080","Match","Exact","6045 A1A S, SAINT AUGUSTINE, FL, 32080",92596766,"L"
256154,"6045 ARBOR GLEN DR","MONTGOMERY","AL",36117,32.351543156,-86.202736096,154,"6045 ARBOR GLEN DR, MONTGOMERY, AL, 36117","Match","Exact","6045 ARBOR GLEN DR, MONTGOMERY, AL, 36117",1489321,"L"
256155,"6045 ELSA AVE","ROHNERT PARK","CA",94928,38.3539372870001,-122.693659698,155,"6045 ELSA AVE, ROHNERT PARK, CA, 94928","Match","Exact","6045 ELSA AVE, ROHNERT PARK, CA, 94928",67472177,"R"
256156,"6045 MACKINAW","SAGINAW","MI",48604,43.4952226290001,-83.9932499559999,156,"6045 MACKINAW, SAGINAW, MI, 48604","Match","Non_Exact","6045 MACKINAW RD, SAGINAW, MI, 48604",80233751,"R"
256157,"6045 N ROCKWELL ST","CHICAGO","IL",60659,41.991507491,-87.694554876,157,"6045 N ROCKWELL ST, CHICAGO, IL, 60659","Match","Exact","6045 N ROCKWELL ST, CHICAGO, IL, 60659",605173121,"R"
256158,"6045 QUARTZ LANE","GRAND BLANC","MI",48439,42.9405187740001,-83.590966819,158,"6045 QUARTZ LANE, GRAND BLANC, MI, 48439","Match","Exact","6045 QUARTZ LN, GRAND BLANC, MI, 48439",617492419,"L"
256159,"6045 RIVERDALE ROAD","COLLEGE PARK","GA",30349,NA,NA,159,"6045 RIVERDALE ROAD, COLLEGE PARK, GA, 30349","No_Match",NA,NA,NA,NA
256160,"6045 SW ERICKSON AVE","BEAVERTON","OR",97008,45.475998776,-122.812087487,160,"6045 SW ERICKSON AVE, BEAVERTON, OR, 97008","Match","Exact","6045 SW ERICKSON AVE, BEAVERTON, OR, 97008",652331762,"R"
256161,"6045 W CHANDLER BLVD STE 13-131","CHANDLER","AZ",85226,33.305333332,-111.947043245,161,"6045 W CHANDLER BLVD STE 13-131, CHANDLER, AZ, 85226","Match","Non_Exact","6045 W CHANDLER BLVD, CHANDLER, AZ, 85226",128923882,"L"
256162,"6045 WILSON BLVD STE 300","ARLINGTON","VA",22205,38.8734776000001,-77.1410217329999,162,"6045 WILSON BLVD STE 300, ARLINGTON, VA, 22205","Match","Exact","6045 WILSON BLVD, ARLINGTON, VA, 22205",76467581,"R"
256163,"6046 2920 RD STE 142","SPRING","TX",77379,NA,NA,163,"6046 2920 RD STE 142, SPRING, TX, 77379","No_Match",NA,NA,NA,NA
256164,"6046 7TH AVE","LOS ANGELES","CA",90043,33.9849487230001,-118.324487012,164,"6046 7TH AVE, LOS ANGELES, CA, 90043","Match","Exact","6046 7TH AVE, LOS ANGELES, CA, 90043",141655083,"L"
256165,"6046 CONERSTONE CT W","SAN DIEGO","CA",92121,NA,NA,165,"6046 CONERSTONE CT W, SAN DIEGO, CA, 92121","No_Match",NA,NA,NA,NA
256166,"6046 FM 2920 RD STE 330","SPRING","TX",77379,NA,NA,166,"6046 FM 2920 RD STE 330, SPRING, TX, 77379","No_Match",NA,NA,NA,NA
256167,"6046 FM 2920 RD SUITE 259","SPRING","TX",77379,NA,NA,167,"6046 FM 2920 RD SUITE 259, SPRING, TX, 77379","No_Match",NA,NA,NA,NA
256168,"6046 FM2920 NUMBER 628","SPRING","TX",77379,NA,NA,168,"6046 FM2920 NUMBER 628, SPRING, TX, 77379","No_Match",NA,NA,NA,NA
256169,"6046 GREENVIEW AVE","DETROIT","MI",48228,42.3329848050001,-83.221638153,169,"6046 GREENVIEW AVE, DETROIT, MI, 48228","Match","Exact","6046 GREENVIEW AVE, DETROIT, MI, 48228",95441035,"R"
256170,"6046 LANCE STREET","PANAMA CITY","FL",32404,30.1337275230001,-85.584006253,170,"6046 LANCE STREET, PANAMA CITY, FL, 32404","Match","Exact","6046 LANCE ST, PANAMA CITY, FL, 32404",7032418,"L"
256171,"6046 PLUMAS ST APT 46D","RENO","NV",89519,39.474451349,-119.811563124,171,"6046 PLUMAS ST APT 46D, RENO, NV, 89519","Match","Exact","6046 PLUMAS ST, RENO, NV, 89519",107045917,"L"
256172,"6046 S CHESTER WAY","GREENWOOD VILLAG","CO",80111,39.6066705220001,-104.879957927,172,"6046 S CHESTER WAY, GREENWOOD VILLAG, CO, 80111","Match","Exact","6046 S CHESTER WAY, GREENWOOD VILLAGE, CO, 80111",177538840,"R"
256173,"6046 S CHESTER WAY","GREENWOOD VILLAGE","CO",80111,39.6066705220001,-104.879957927,173,"6046 S CHESTER WAY, GREENWOOD VILLAGE, CO, 80111","Match","Exact","6046 S CHESTER WAY, GREENWOOD VILLAGE, CO, 80111",177538840,"R"
256174,"6046 S MCVICKER AVE","CHICAGO","IL",60638,41.7824599900001,-87.7728948069999,174,"6046 S MCVICKER AVE, CHICAGO, IL, 60638","Match","Exact","6046 S MCVICKER AVE, CHICAGO, IL, 60638",111797248,"R"
256175,"6046 SHADOW LAKE VIEW","LITHONIA","GA",30058,33.7654268160001,-84.141832286,175,"6046 SHADOW LAKE VIEW, LITHONIA, GA, 30058","Match","Exact","6046 SHADOW LAKE VW, LITHONIA, GA, 30058",23397533,"L"
256176,"6046 SOUTH 4000 WEST","TAYLORSVILLE","UT",84129,40.641104151,-111.986467718,176,"6046 SOUTH 4000 WEST, TAYLORSVILLE, UT, 84129","Match","Exact","6046 S 4000 W, TAYLORSVILLE, UT, 84129",652893084,"L"
256177,"6046 SOUTH CANTERBURY PLACE","SIOUX FALLS","SD",57106,43.4911676,-96.803794314,177,"6046 SOUTH CANTERBURY PLACE, SIOUX FALLS, SD, 57106","Match","Exact","6046 S CANTERBURY PL, SIOUX FALLS, SD, 57106",176320850,"R"
256178,"60465 VERMILLION DR","LACOMBE","LA",70445,30.313539427,-89.9076479129999,178,"60465 VERMILLION DR, LACOMBE, LA, 70445","Match","Exact","60465 VERMILLION DR, LACOMBE, LA, 70445",636680884,"L"
256179,"6047 KIMBERLY BLVD SUITE G","NORTH LAUDERDALE","FL",33068,26.215747552,-80.20563772,179,"6047 KIMBERLY BLVD SUITE G, NORTH LAUDERDALE, FL, 33068","Match","Exact","6047 KIMBERLY BLVD, N LAUDERDALE, FL, 33068",114693350,"R"
256180,"6047 KIMBERLY BLVD SUITE J","NORTH LAUDERDALE","FL",33068,26.215747552,-80.20563772,180,"6047 KIMBERLY BLVD SUITE J, NORTH LAUDERDALE, FL, 33068","Match","Exact","6047 KIMBERLY BLVD, N LAUDERDALE, FL, 33068",114693350,"R"
256181,"6047 LIBERTY OAKS CV NUMBER 4","MURRAY","UT",84107,40.639425229,-111.897000779,181,"6047 LIBERTY OAKS CV NUMBER 4, MURRAY, UT, 84107","Match","Non_Exact","6047 S LIBERTY OAKS COVE, MURRAY, UT, 84107",640972033,"L"
256182,"6047 MORGAN PL","STOCKTON","CA",95219,37.9996730500001,-121.351918888,182,"6047 MORGAN PL, STOCKTON, CA, 95219","Match","Exact","6047 MORGAN PL, STOCKTON, CA, 95219",653160331,"R"
256183,"6047 SW 112TH ST","LAWTON","OK",73505,34.548450421,-98.5276139649999,183,"6047 SW 112TH ST, LAWTON, OK, 73505","Match","Exact","6047 SW 112TH ST, LAWTON, OK, 73505",634127817,"L"
256184,"6047 TAMPA AVENUE SUITE 304","TARZANA","CA",91356,34.1804723180001,-118.553481776,184,"6047 TAMPA AVENUE SUITE 304, TARZANA, CA, 91356","Match","Exact","6047 TAMPA AVE, TARZANA, CA, 91356",142049742,"L"
256185,"6047 TYVOLA GLEN CIRCLE","CHARLOTTE","NC",28216,35.1645664490001,-80.8935338759999,185,"6047 TYVOLA GLEN CIRCLE, CHARLOTTE, NC, 28216","Match","Non_Exact","6047 TYVOLA GLEN CIR, CHARLOTTE, NC, 28217",70563004,"R"
256186,"6047 WINDBREAKER WAY","SACRAMENTO","CA",95823,38.4484350480001,-121.432617813,186,"6047 WINDBREAKER WAY, SACRAMENTO, CA, 95823","Match","Exact","6047 WINDBREAKER WAY, SACRAMENTO, CA, 95823",133380058,"L"
256187,"6048 189TH PL NE","REDMOND","WA",98052,47.66083524,-122.087046398,187,"6048 189TH PL NE, REDMOND, WA, 98052","Match","Exact","6048 189TH PL NE, REDMOND, WA, 98052",186954151,"R"
256188,"6048 E CIMARRON AVE","FRESNO","CA",93727,36.7450658720001,-119.681344264,188,"6048 E CIMARRON AVE, FRESNO, CA, 93727","Match","Exact","6048 E CIMARRON AVE, FRESNO, CA, 93727",197564265,"R"
256189,"6048 W 79TH ST UNIT 3","BURBANK","IL",60459,41.7486117780001,-87.772125699,189,"6048 W 79TH ST UNIT 3, BURBANK, IL, 60459","Match","Exact","6048 79TH ST, BURBANK, IL, 60459",111811464,"R"
256190,"6049 260TH AVE","ROYALTON","MN",56373,45.8502739780001,-94.113290832,190,"6049 260TH AVE, ROYALTON, MN, 56373","Match","Exact","6049 260TH AVE, ROYALTON, MN, 56373",167402912,"L"
256191,"6049 CLEMENS AVE","ST LOUIS","MO",63112,38.65722744,-90.293539636,191,"6049 CLEMENS AVE, ST LOUIS, MO, 63112","Match","Exact","6049 CLEMENS AVE, SAINT LOUIS, MO, 63112",107592557,"R"
256192,"6049 CRANE ROAD","EDINBORO","PA",16412,41.902730412,-80.17779419,192,"6049 CRANE ROAD, EDINBORO, PA, 16412","Match","Exact","6049 CRANE RD, EDINBORO, PA, 16412",117518903,"L"
256193,"6049 HILLSIDE AVENUE WEST  DR","INDIANAPOLIS","IN",46220,39.864409417,-86.125431697,193,"6049 HILLSIDE AVENUE WEST  DR, INDIANAPOLIS, IN, 46220","Match","Exact","6049 HILLSIDE AVE W DR, INDIANAPOLIS, IN, 46220",108045597,"R"
256194,"6049 LATTA SPRINGS CIRCLE","HUNTERSVILLE","NC",28078,35.3747746920001,-80.920992516,194,"6049 LATTA SPRINGS CIRCLE, HUNTERSVILLE, NC, 28078","Match","Exact","6049 LATTA SPRINGS CIR, HUNTERSVILLE, NC, 28078",70560346,"L"
256195,"6049 LEXINGTON RD","WINCHESTER","KY",40391,38.0274361830001,-84.2760293159999,195,"6049 LEXINGTON RD, WINCHESTER, KY, 40391","Match","Exact","6049 LEXINGTON RD, WINCHESTER, KY, 40391",31789784,"L"
256196,"6049 LYNX CREEK CIRCLE","FREDERICK","CO",80516,40.088476089,-105.003108559,196,"6049 LYNX CREEK CIRCLE, FREDERICK, CO, 80516","Match","Non_Exact","6049 LYNN CREEK CIR, FREDERICK, CO, 80516",649634651,"L"
256197,"6049 LYON ST","CHINO","CA",91710,33.992929562,-117.672806123,197,"6049 LYON ST, CHINO, CA, 91710","Match","Exact","6049 LYON ST, CHINO, CA, 91710",650997699,"R"
256198,"6049 PREMIERE AVE","LAKEWOOD","CA",90712,33.8652216770001,-118.130873822,198,"6049 PREMIERE AVE, LAKEWOOD, CA, 90712","Match","Exact","6049 PREMIERE AVE, LAKEWOOD, CA, 90712",642861187,"L"
256199,"6049 STEPHAN ROAD","SARDINIA","OH",45171,NA,NA,199,"6049 STEPHAN ROAD, SARDINIA, OH, 45171","No_Match",NA,NA,NA,NA
256200,"6049 WINDY HOLLOW COURT","LOVELAND","OH",45140,39.250638402,-84.2417015569999,200,"6049 WINDY HOLLOW COURT, LOVELAND, OH, 45140","Match","Exact","6049 WINDY HOLLOW CT, LOVELAND, OH, 45140",618760867,"L"
256201,"605 1/2 S MAIN ST","SEATTLE","WA",98104,47.6000230080001,-122.326156592,201,"605 1/2 S MAIN ST, SEATTLE, WA, 98104","Match","Exact","605 S MAIN ST, SEATTLE, WA, 98104",186590148,"R"
256202,"605 1/2 TOWER SQUARE PLAZA","MARION","IL",62959,37.7304971250001,-88.927378203,202,"605 1/2 TOWER SQUARE PLAZA, MARION, IL, 62959","Match","Exact","605 TOWER SQUARE PLZ, MARION, IL, 62959",6058419,"R"
256203,"605 1/2 W HAYS ST APT 1","BOISE","ID",83702,43.619849802,-116.196120289,203,"605 1/2 W HAYS ST APT 1, BOISE, ID, 83702","Match","Exact","605 W HAYS ST, BOISE, ID, 83702",117865668,"L"
256204,"605 11TH AVENUE NE","CAIRO","GA",39828,30.8874695540001,-84.196795626,204,"605 11TH AVENUE NE, CAIRO, GA, 39828","Match","Exact","605 11TH AVE NE, CAIRO, GA, 39828",84360620,"R"
256205,"605 15TH ST","GERING","NE",69341,41.812991201,-103.667093326,205,"605 15TH ST, GERING, NE, 69341","Match","Exact","605 15TH ST, GERING, NE, 69341",160047656,"L"
256206,"605 1ST AVE SE","SIOUX CENTER","IA",51250,43.0723189980001,-96.174017138,206,"605 1ST AVE SE, SIOUX CENTER, IA, 51250","Match","Exact","605 1ST AVE SE, SIOUX CENTER, IA, 51250",93372095,"L"
256207,"605 2ND STREET NE","HANKINSON","ND",58041,46.074549543,-96.894193209,207,"605 2ND STREET NE, HANKINSON, ND, 58041","Match","Exact","605 2ND ST NE, HANKINSON, ND, 58041",181265594,"L"
256208,"605 33RD STREET","MANHATTAN BEACH","CA",90266,33.899088711,-118.409381138,208,"605 33RD STREET, MANHATTAN BEACH, CA, 90266","Match","Exact","605 33RD ST, MANHATTAN BEACH, CA, 90266",141580686,"L"
256209,"605 3RD STREET","HELENA","MT",59601,46.5815110820001,-112.031334717,209,"605 3RD STREET, HELENA, MT, 59601","Match","Exact","605 3RD ST, HELENA, MT, 59601",202350080,"R"
256210,"605 4TH AVENUE WEST","SHAKOPEE","MN",55379,44.7945883460001,-93.5333588349999,210,"605 4TH AVENUE WEST, SHAKOPEE, MN, 55379","Match","Exact","605 4TH AVE W, SHAKOPEE, MN, 55379",38140337,"L"
256211,"605 8TH  STREET","MODESTO","CA",95354,37.6353097160001,-120.997761465,211,"605 8TH  STREET, MODESTO, CA, 95354","Match","Exact","605 8TH ST, MODESTO, CA, 95354",102604645,"L"
256212,"605 8TH STREET","HUNTINGTON BEACH","CA",92648,33.6639257580001,-118.000654832,212,"605 8TH STREET, HUNTINGTON BEACH, CA, 92648","Match","Exact","605 8TH ST, HUNTINGTON BEACH, CA, 92648",144019779,"L"
256213,"605 AIRWAYS BLVD","JACKSON","TN",38301,NA,NA,213,"605 AIRWAYS BLVD, JACKSON, TN, 38301","No_Match",NA,NA,NA,NA
256214,"605 ALEXANDER ROAD","LIBERTY","PA",16930,41.5948178310001,-77.091723944,214,"605 ALEXANDER ROAD, LIBERTY, PA, 16930","Match","Exact","605 ALEXANDER RD, LIBERTY, PA, 16930",189674624,"R"
256215,"605 ANDREA CT","ANTIOCH","TN",37013,36.07068335,-86.6653458059999,215,"605 ANDREA CT, ANTIOCH, TN, 37013","Match","Exact","605 ANDREA CT, ANTIOCH, TN, 37013",97198582,"L"
256216,"605 APOLLO BEACH BLVD","APOLLO BEACH","FL",33572,27.7742968590001,-82.406405728,216,"605 APOLLO BEACH BLVD, APOLLO BEACH, FL, 33572","Match","Exact","605 APOLLO BEACH BLVD, APOLLO BEACH, FL, 33572",104495484,"R"
256217,"605 AVE CONDADO SAN ALBERTO STE 419","SAN JUAN","PR",907,NA,NA,217,"605 AVE CONDADO SAN ALBERTO STE 419, SAN JUAN, PR, 907","No_Match",NA,NA,NA,NA
256218,"605 BELLMEAD BAY DRIVE","DURHAM","NC",27703,35.9738867830001,-78.819346079,218,"605 BELLMEAD BAY DRIVE, DURHAM, NC, 27703","Match","Non_Exact","605 BELLMEADE BAY DR, DURHAM, NC, 27703",71760659,"R"
256219,"605 BELVEDERE ROAD  SUITE 10","WEST PALM BEACH","FL",33405,26.690407152,-80.0574537379999,219,"605 BELVEDERE ROAD  SUITE 10, WEST PALM BEACH, FL, 33405","Match","Exact","605 BELVEDERE RD, WEST PALM BEACH, FL, 33405",115279226,"R"
256220,"605 BERRY RD 2008","HOUSTON","TX",77022,29.8375938390001,-95.3678347749999,220,"605 BERRY RD 2008, HOUSTON, TX, 77022","Match","Exact","605 BERRY RD, HOUSTON, TX, 77022",96057402,"L"
256221,"605 BLUEGRASS TRAIL","KOKOMO","IN",46901,40.4914916540001,-86.172195647,221,"605 BLUEGRASS TRAIL, KOKOMO, IN, 46901","Match","Exact","605 BLUEGRASS TRL, KOKOMO, IN, 46901",27286259,"R"
256222,"605 BRIGHTVIEW DRIVE","LAKE MARY","FL",32746,28.7814500490001,-81.301216736,222,"605 BRIGHTVIEW DRIVE, LAKE MARY, FL, 32746","Match","Exact","605 BRIGHTVIEW DR, LAKE MARY, FL, 32746",93766473,"L"
256223,"605 BROOKSBORO TERRACE","NASHVILLE","TN",37217,36.083831532,-86.646537107,223,"605 BROOKSBORO TERRACE, NASHVILLE, TN, 37217","Match","Exact","605 BROOKSBORO TER, NASHVILLE, TN, 37217",97202775,"R"
256224,"605 CALEDONIA ROAD","DIX HILLS","NY",11746,40.8191014280001,-73.3618738329999,224,"605 CALEDONIA ROAD, DIX HILLS, NY, 11746","Match","Exact","605 CALEDONIA RD, DIX HILLS, NY, 11746",113968382,"L"
256225,"605 CEDAR PARK DRIVE","DAYTONA BEACH","FL",32114,29.1974899690001,-81.0264974299999,225,"605 CEDAR PARK DRIVE, DAYTONA BEACH, FL, 32114","Match","Exact","605 CEDAR PARK DR, DAYTONA BEACH, FL, 32114",94524900,"L"
256226,"605 CENTER RD APT F203","EVERETT","WA",98204,47.8903429160001,-122.241490989,226,"605 CENTER RD APT F203, EVERETT, WA, 98204","Match","Exact","605 CENTER RD, EVERETT, WA, 98204",608918619,"L"
256227,"605 CENTER STREET","NUTLEY","NJ",7110,40.8188126050001,-74.170791758,227,"605 CENTER STREET, NUTLEY, NJ, 7110","Match","Exact","605 CENTRE ST, NUTLEY, NJ, 07110",63453095,"L"
256228,"605 CENTRAL AVE","HOYT","KS",66440,39.251377104,-95.7050696329999,228,"605 CENTRAL AVE, HOYT, KS, 66440","Match","Exact","605 CENTRAL AVE, HOYT, KS, 66440",10128920,"R"
256229,"605 CEREMONY WAY","ACWORTH","GA",30102,34.0825215410001,-84.626493354,229,"605 CEREMONY WAY, ACWORTH, GA, 30102","Match","Exact","605 CEREMONY WAY, ACWORTH, GA, 30102",640592893,"L"
256230,"605 CHELSEA AVE","LAKE CHARLES","LA",70605,30.1621883830001,-93.227720351,230,"605 CHELSEA AVE, LAKE CHARLES, LA, 70605","Match","Exact","605 CHELSEA AVE, LAKE CHARLES, LA, 70605",600630236,"L"
256231,"605 CHESTNUT ST STE 1700","CHATTANOOGA","TN",37450,35.0494756050001,-85.3116981539999,231,"605 CHESTNUT ST STE 1700, CHATTANOOGA, TN, 37450","Match","Exact","605 CHESTNUT ST, CHATTANOOGA, TN, 37450",59303967,"R"
256232,"605 DEER PARK DRIVE","PRUDENVILLE","MI",48651,44.3024962010001,-84.6698138949999,232,"605 DEER PARK DRIVE, PRUDENVILLE, MI, 48651","Match","Exact","605 DEER PARK DR, PRUDENVILLE, MI, 48651",179426868,"R"
256233,"605 DORADO TERRACE","SAN FRANCISCO","CA",94112,37.7263345600001,-122.461826681,233,"605 DORADO TERRACE, SAN FRANCISCO, CA, 94112","Match","Exact","605 DORADO TER, SAN FRANCISCO, CA, 94112",192292685,"L"
256234,"605 DOVE COVE CT","PLANO","TX",75094,33.0309207060001,-96.627818114,234,"605 DOVE COVE CT, PLANO, TX, 75094","Match","Exact","605 DOVE COVE CT, PLANO, TX, 75094",210508805,"R"
256235,"605 DOWS ROAD SE","CEDAR RAPIDS","IA",52403,41.9835203920001,-91.569734065,235,"605 DOWS ROAD SE, CEDAR RAPIDS, IA, 52403","Match","Exact","605 DOWS RD SE, CEDAR RAPIDS, IA, 52403",17052242,"L"
256236,"605 E 122ND TERRACE","KANSAS CITY","MO",64145,38.904814786,-94.586698929,236,"605 E 122ND TERRACE, KANSAS CITY, MO, 64145","Match","Exact","605 E 122ND TER, KANSAS CITY, MO, 64145",91501301,"R"
256237,"605 E 138TH ST","BURNSVILLE","MN",55337,44.753695915,-93.267584305,237,"605 E 138TH ST, BURNSVILLE, MN, 55337","Match","Exact","605 E 138TH ST, BURNSVILLE, MN, 55337",37904292,"R"
256238,"605 E 138TH STREET","BURNSVILLE","MN",55337,44.753695915,-93.267584305,238,"605 E 138TH STREET, BURNSVILLE, MN, 55337","Match","Exact","605 E 138TH ST, BURNSVILLE, MN, 55337",37904292,"R"
256239,"605 E 71ST STREET STE 121","CHICAGO","IL",60619,41.7657963680001,-87.6101768409999,239,"605 E 71ST STREET STE 121, CHICAGO, IL, 60619","Match","Non_Exact","605 E 71ST ST, CHICAGO, IL, 60619",616888015,"R"
256240,"605 E BROADWAY","FAIRFIELD","IA",52556,41.00763483,-91.9559675099999,240,"605 E BROADWAY, FAIRFIELD, IA, 52556","Match","Non_Exact","605 E BROADWAY AVE, FAIRFIELD, IA, 52556",647757453,"R"
256241,"605 E ILLINOIS ST","URBANA","IL",61801,40.1093146640001,-88.201205622,241,"605 E ILLINOIS ST, URBANA, IL, 61801","Match","Exact","605 E ILLINOIS ST, URBANA, IL, 61801",8813520,"R"
256242,"605 E MOUNT PLEASANT AVE","PHILADELPHIA","PA",19119,40.066439249,-75.180396921,242,"605 E MOUNT PLEASANT AVE, PHILADELPHIA, PA, 19119","Match","Exact","605 E MOUNT PLEASANT AVE, PHILADELPHIA, PA, 19119",652461993,"L"
256243,"605 E MULLAN AVE/POBOX 335","OSBURN","ID",83849,NA,NA,243,"605 E MULLAN AVE/POBOX 335, OSBURN, ID, 83849","No_Match",NA,NA,NA,NA
256244,"605 E VIOLET AVE","MCALLEN","TX",78504,NA,NA,244,"605 E VIOLET AVE, MCALLEN, TX, 78504","Tie",NA,NA,NA,NA
256245,"605 E WALNUT ST","GARDEN CITY KS","KS",67846,37.9705072350001,-100.865841284,245,"605 E WALNUT ST, GARDEN CITY KS, KS, 67846","Match","Non_Exact","605 E WALNUT ST, GARDEN CITY, KS, 67846",145421785,"R"
256246,"605 E WEBB AVENUE","BURLINGTON","NC",27217,36.0893766830001,-79.430959473,246,"605 E WEBB AVENUE, BURLINGTON, NC, 27217","Match","Exact","605 E WEBB AVE, BURLINGTON, NC, 27217",71664004,"R"
256247,"605 E WHIPPING LAKE LANE","WATHA","NC",28477,34.6785795820001,-77.944795404,247,"605 E WHIPPING LAKE LANE, WATHA, NC, 28477","Match","Non_Exact","605 E WHIPPING LAKE LN, WATHA, NC, 28478",14145169,"L"
256248,"605 EAGLESCREST VILLAGE LANE APT 8","ROSWELL","GA",30076,34.040381402,-84.3376272149999,248,"605 EAGLESCREST VILLAGE LANE APT 8, ROSWELL, GA, 30076","Match","Non_Exact","605 EAGLES CREST VILLAGE LN, ROSWELL, GA, 30076",17419172,"R"
256249,"605 EAST 138TH STREET","BURNSVILLE","MN",55337,44.7536952720001,-93.2676556979999,249,"605 EAST 138TH STREET, BURNSVILLE, MN, 55337","Match","Exact","605 E 138TH ST, BURNSVILLE, MN, 55337",37904292,"R"
256250,"605 EAST 7TH STREET","PROSPER","TX",75078,33.2391361570001,-96.796973377,250,"605 EAST 7TH STREET, PROSPER, TX, 75078","Match","Exact","605 E SEVENTH ST, PROSPER, TX, 75078",123513909,"L"
256251,"605 EAST BROAD STREET","STATESVILLE","NC",28677,35.787653818,-80.878725801,251,"605 EAST BROAD STREET, STATESVILLE, NC, 28677","Match","Exact","605 E BROAD ST, STATESVILLE, NC, 28677",46027120,"L"
256252,"605 EASTBROOK DR NW","HUNTSVILLE","AL",35811,34.7592961550001,-86.5841104639999,252,"605 EASTBROOK DR NW, HUNTSVILLE, AL, 35811","Match","Exact","605 EASTBROOK DR NW, HUNTSVILLE, AL, 35811",58117217,"L"
256253,"605 ELGIE","BEAUMONT","TX",77705,30.0524917600001,-94.0872441879999,253,"605 ELGIE, BEAUMONT, TX, 77705","Match","Non_Exact","605 ELGIE ST, BEAUMONT, TX, 77705",73857918,"L"
256254,"605 ELM ST","SWEET HOME","OR",97386,44.3918399660001,-122.737069769,254,"605 ELM ST, SWEET HOME, OR, 97386","Match","Exact","605 ELM ST, SWEET HOME, OR, 97386",156046814,"R"
256255,"605 EMERALD AVENUE","TERRYTOWN","PA",70056,NA,NA,255,"605 EMERALD AVENUE, TERRYTOWN, PA, 70056","No_Match",NA,NA,NA,NA
256256,"605 ETHAN ALLEN AVENUE","TAKOMA PARK","MD",20912,38.976084158,-76.996649267,256,"605 ETHAN ALLEN AVENUE, TAKOMA PARK, MD, 20912","Match","Exact","605 ETHAN ALLEN AVE, TAKOMA PARK, MD, 20912",614265192,"R"
256257,"605 EXCALIBUR CT","SMYRNA","TN",37167,35.973611512,-86.546894492,257,"605 EXCALIBUR CT, SMYRNA, TN, 37167","Match","Exact","605 EXCALIBUR CT, SMYRNA, TN, 37167",606765773,"R"
256258,"605 FREMONT STREET SW","DECATUR","AL",35601,34.587527874,-86.9970362289999,258,"605 FREMONT STREET SW, DECATUR, AL, 35601","Match","Non_Exact","605 FREEMONT ST SW, DECATUR, AL, 35601",97113338,"L"
256259,"605 GILBERT COURT","WINCHESTER","KY",40391,37.971442075,-84.222132656,259,"605 GILBERT COURT, WINCHESTER, KY, 40391","Match","Exact","605 GILBERT CT, WINCHESTER, KY, 40391",31791982,"R"
256260,"605 GLENVIEW ST","PHILADELPHIA","PA",19111,40.0539468310001,-75.088218097,260,"605 GLENVIEW ST, PHILADELPHIA, PA, 19111","Match","Exact","605 GLENVIEW ST, PHILADELPHIA, PA, 19111",131415124,"L"
256261,"605 GREER STREET","PITTSBURGH","PA",15217,40.423600654,-79.939108988,261,"605 GREER STREET, PITTSBURGH, PA, 15217","Match","Exact","605 GREER ST, PITTSBURGH, PA, 15217",51682376,"L"
256262,"605 HAAWINA STREET","MAUI","HI",96779,20.9016016310001,-156.371861317,262,"605 HAAWINA STREET, MAUI, HI, 96779","Match","Non_Exact","605 HAAWINA ST, PAIA, HI, 96779",85080938,"L"
256263,"605 HAMILTON BLVD","MORRISVILLE","PA",19067,40.2124066110001,-74.78859868,263,"605 HAMILTON BLVD, MORRISVILLE, PA, 19067","Match","Exact","605 HAMILTON BLVD, MORRISVILLE, PA, 19067",134798113,"L"
256264,"605 HARBOURTOWN CT APT A","NOBLESVILLE","IN",46062,40.0940069750001,-86.0681913349999,264,"605 HARBOURTOWN CT APT A, NOBLESVILLE, IN, 46062","Match","Non_Exact","605 HARBOUR TOWN DR, NOBLESVILLE, IN, 46062",29335997,"R"
256265,"605 HASTAY BLVD","EATON RAPIDS","MI",48827,42.517018641,-84.64566459,265,"605 HASTAY BLVD, EATON RAPIDS, MI, 48827","Match","Exact","605 HASTAY BLVD, EATON RAPIDS, MI, 48827",12041486,"L"
256266,"605 HIGH TEA COURT","FOUNTAIN","CO",80817,38.702676093,-104.696221346,266,"605 HIGH TEA COURT, FOUNTAIN, CO, 80817","Match","Exact","605 HIGH TEA CT, FOUNTAIN, CO, 80817",105548349,"R"
256267,"605 HIGHLAND OVERLOOK","ATLANTA","GA",30349,33.643883067,-84.556023263,267,"605 HIGHLAND OVERLOOK, ATLANTA, GA, 30349","Match","Exact","605 HIGHLAND OVERLOOK, ATLANTA, GA, 30349",627635417,"L"
256268,"605 HIGHVIEW TERRACE SOUTH","BRANDON","FL",33510,27.961117227,-82.29598014,268,"605 HIGHVIEW TERRACE SOUTH, BRANDON, FL, 33510","Match","Exact","605 HIGHVIEW TER S, BRANDON, FL, 33510",104541698,"L"
256269,"605 HIGHWAY 38","DES ARC","AR",72040,34.981472615,-91.5006312579999,269,"605 HIGHWAY 38, DES ARC, AR, 72040","Match","Non_Exact","605 STATE HWY 38, DES ARC, AR, 72040",12391441,"L"
256270,"605 HOLBROOK","DETROIT","MI",48202,42.383612021,-83.0738286009999,270,"605 HOLBROOK, DETROIT, MI, 48202","Match","Non_Exact","605 HOLBROOK ST, DETROIT, MI, 48202",95476574,"L"
256271,"605 HOLDERRIETH BLVD","TOMBALL","TX",77375,30.089384271,-95.624069912,271,"605 HOLDERRIETH BLVD, TOMBALL, TX, 77375","Match","Exact","605 HOLDERRIETH BLVD, TOMBALL, TX, 77375",642867197,"R"
256272,"605 HOWARD STREET BOX 8","HOMER","NE",68030,NA,NA,272,"605 HOWARD STREET BOX 8, HOMER, NE, 68030","No_Match",NA,NA,NA,NA
256273,"605 INDIAN TRAIL RD SUITE 102","LILBURN","GA",30047,NA,NA,273,"605 INDIAN TRAIL RD SUITE 102, LILBURN, GA, 30047","No_Match",NA,NA,NA,NA
256274,"605 KELLER STREET","PLANO","IL",60545,41.669781334,-88.497207859,274,"605 KELLER STREET, PLANO, IL, 60545","Match","Exact","605 KELLER ST, PLANO, IL, 60545",600431991,"L"
256275,"605 KENTSHIRE DR","FAIRBANKS","AK",99709,64.8407547090001,-147.88709077,275,"605 KENTSHIRE DR, FAIRBANKS, AK, 99709","Match","Exact","605 KENTSHIRE DR, FAIRBANKS, AK, 99709",190919756,"L"
256276,"605 KNOLLWOOD CT","VALLEY COTTAGE","NY",10989,41.134385068,-73.954227499,276,"605 KNOLLWOOD CT, VALLEY COTTAGE, NY, 10989","Match","Exact","605 KNOLLWOOD CT, VALLEY COTTAGE, NY, 10989",124597934,"L"
256277,"605 LAKESHORE CT","MONROE","GA",30655,33.765070795,-83.79499598,277,"605 LAKESHORE CT, MONROE, GA, 30655","Match","Exact","605 LAKESHORE CT, MONROE, GA, 30655",618465468,"R"
256278,"605 LILY GREEN CT NW","CONCORD","NC",28027,35.371734234,-80.727853576,278,"605 LILY GREEN CT NW, CONCORD, NC, 28027","Match","Exact","605 LILY GREEN CT NW, CONCORD, NC, 28027",24922584,"R"
256279,"605 LINCOLN RD 5TH FLOOR","MIAMI BEACH","FL",33139,25.7906251570001,-80.1344181809999,279,"605 LINCOLN RD 5TH FLOOR, MIAMI BEACH, FL, 33139","Match","Exact","605 LINCOLN RD, MIAMI BEACH, FL, 33139",116020452,"R"
256280,"605 LONGWOODS LANE","HOUSTON","TX",77024,29.775482292,-95.48636486,280,"605 LONGWOODS LANE, HOUSTON, TX, 77024","Match","Exact","605 LONGWOODS LN, HOUSTON, TX, 77024",96032043,"L"
256281,"605 LOUISIANA AVE APT 5G","BROOKLYN","NY",11239,40.647137555,-73.885315527,281,"605 LOUISIANA AVE APT 5G, BROOKLYN, NY, 11239","Match","Exact","605 LOUISIANA AVE, BROOKLYN, NY, 11239",650065078,"L"
256282,"605 MAIN AVE W","SOUTH HEART","ND",58655,46.8618789290001,-102.994645809,282,"605 MAIN AVE W, SOUTH HEART, ND, 58655","Match","Exact","605 MAIN AVE W, SOUTH HEART, ND, 58655",199276950,"L"
256283,"605 MANGO TREE DR","EDGEWATER","FL",32132,28.9831520820001,-80.91415433,283,"605 MANGO TREE DR, EDGEWATER, FL, 32132","Match","Exact","605 MANGO TREE DR, EDGEWATER, FL, 32132",644991809,"L"
256284,"605 MARKET SUITE 505","SAN FRANCISCO","CA",94105,37.7891231460001,-122.401454442,284,"605 MARKET SUITE 505, SAN FRANCISCO, CA, 94105","Match","Non_Exact","605 MARKET ST, SAN FRANCISCO, CA, 94105",192301682,"L"
256285,"605 MARY STREET","PUNTA GORDA","FL",33950,26.935283269,-82.0401114919999,285,"605 MARY STREET, PUNTA GORDA, FL, 33950","Match","Exact","605 MARY ST, PUNTA GORDA, FL, 33950",4306716,"L"
256286,"605 MAYNARD BLVD","JACKSONVILLE","NC",28546,34.8104913290001,-77.440172628,286,"605 MAYNARD BLVD, JACKSONVILLE, NC, 28546","Match","Exact","605 MAYNARD BLVD, JACKSONVILLE, NC, 28546",635195381,"L"
256287,"605 MCMACKIN STREET","CEDAR HILL","TX",75104,32.5790467320001,-96.932617087,287,"605 MCMACKIN STREET, CEDAR HILL, TX, 75104","Match","Exact","605 MCMACKIN ST, CEDAR HILL, TX, 75104",102981885,"R"
256288,"605 MINERAL SPRINGS","ORRVILLE","OH",44667,40.8505117940001,-81.77155083,288,"605 MINERAL SPRINGS, ORRVILLE, OH, 44667","Match","Non_Exact","605 MINERAL SPRING ST, ORRVILLE, OH, 44667",58759474,"R"
256289,"605 MIRA VISTA AVENUE","OAKLAND","CA",94610,37.8169793820001,-122.247436726,289,"605 MIRA VISTA AVENUE, OAKLAND, CA, 94610","Match","Exact","605 MIRA VISTA AVE, OAKLAND, CA, 94610",125000753,"L"
256290,"605 MISSION STREET","MCCALL","ID",83638,NA,NA,290,"605 MISSION STREET, MCCALL, ID, 83638","No_Match",NA,NA,NA,NA
256291,"605 MONROE STREET","VALDOSTA","GA",31601,30.8363504490001,-83.290955987,291,"605 MONROE STREET, VALDOSTA, GA, 31601","Match","Exact","605 MONROE ST, VALDOSTA, GA, 31601",87717991,"L"
256292,"605 MOREWOOD AVENUE","PITTSBURGH","PA",15213,40.4506861890001,-79.942991708,292,"605 MOREWOOD AVENUE, PITTSBURGH, PA, 15213","Match","Exact","605 MOREWOOD AVE, PITTSBURGH, PA, 15213",51644523,"L"
256293,"605 MOTOR ROAD","WINSTON SALEM","NC",27105,36.1579886860001,-80.246048155,293,"605 MOTOR ROAD, WINSTON SALEM, NC, 27105","Match","Exact","605 MOTOR RD, WINSTON SALEM, NC, 27105",84606736,"L"
256294,"605 N 178TH STREET","SHORELINE","WA",98133,47.7577122060001,-122.352161665,294,"605 N 178TH STREET, SHORELINE, WA, 98133","Match","Exact","605 N 178TH ST, SHORELINE, WA, 98133",186573722,"R"
256295,"605 N 25TH STREET","RICHMOND","VA",23223,37.534343995,-77.4162067789999,295,"605 N 25TH STREET, RICHMOND, VA, 23223","Match","Exact","605 N 25TH ST, RICHMOND, VA, 23223",201541314,"R"
256296,"605 N 2ND ST","MCGEHEE","AR",71654,33.6327319330001,-91.3994518109999,296,"605 N 2ND ST, MCGEHEE, AR, 71654","Match","Exact","605 N 2ND ST, MCGEHEE, AR, 71654",25898972,"L"
256297,"605 N 3D STREET","ROANOKE","IL",61561,NA,NA,297,"605 N 3D STREET, ROANOKE, IL, 61561","No_Match",NA,NA,NA,NA
256298,"605 N BUHLER ROAD","HUTCHINSON","KS",67501,NA,NA,298,"605 N BUHLER ROAD, HUTCHINSON, KS, 67501","Tie",NA,NA,NA,NA
256299,"605 N DALLAS STREET","ENNIS","TX",75119,32.3314700770001,-96.630870724,299,"605 N DALLAS STREET, ENNIS, TX, 75119","Match","Exact","605 N DALLAS ST, ENNIS, TX, 75119",103455109,"L"
256300,"605 N DODGE BLVD","TUCSON","AZ",85716,32.2290594310001,-110.913231358,300,"605 N DODGE BLVD, TUCSON, AZ, 85716","Match","Exact","605 N DODGE BLVD, TUCSON, AZ, 85716",121175404,"L"
256301,"605 N GROVE","WICHITA","KS",67214,NA,NA,301,"605 N GROVE, WICHITA, KS, 67214","No_Match",NA,NA,NA,NA
256302,"605 N MAPLE ST","MUENSTER","TX",76252,33.654770441,-97.379842647,302,"605 N MAPLE ST, MUENSTER, TX, 76252","Match","Exact","605 N MAPLE ST, MUENSTER, TX, 76252",151317234,"L"
256303,"605 N MAPLE STREET","DURHAM","NC",27703,35.9915165720001,-78.880632996,303,"605 N MAPLE STREET, DURHAM, NC, 27703","Match","Exact","605 N MAPLE ST, DURHAM, NC, 27703",71742833,"L"
256304,"605 N MARQUETTE ST","PACIFIC PALISADES","CA",90272,34.0449900450001,-118.54224178,304,"605 N MARQUETTE ST, PACIFIC PALISADES, CA, 90272","Match","Exact","605 N MARQUETTE ST, PACIFIC PALISADES, CA, 90272",142665161,"L"
256305,"605 N MICHIGAN AVE / 4TH FLOOR","CHICAGO","IL",60611,41.892605417,-87.624110735,305,"605 N MICHIGAN AVE / 4TH FLOOR, CHICAGO, IL, 60611","Match","Exact","605 MICHIGAN AVE, CHICAGO, IL, 60611",605274606,"L"
256306,"605 N MICHIGAN AVE","CHICAGO","IL",60611,NA,NA,306,"605 N MICHIGAN AVE, CHICAGO, IL, 60611","Tie",NA,NA,NA,NA
256307,"605 N ORLANDO AVENUE","WINTER PARK","FL",32789,28.602932009,-81.365145102,307,"605 N ORLANDO AVENUE, WINTER PARK, FL, 32789","Match","Exact","605 N ORLANDO AVE, WINTER PARK, FL, 32789",606099766,"L"
256308,"605 N PROVIDENCE RD","COLUMBIA","MO",65203,38.958377415,-92.3341247279999,308,"605 N PROVIDENCE RD, COLUMBIA, MO, 65203","Match","Exact","605 N PROVIDENCE RD, COLUMBIA, MO, 65203",23480877,"L"
256309,"605 N REVERE RD","AKRON","OH",44333,NA,NA,309,"605 N REVERE RD, AKRON, OH, 44333","No_Match",NA,NA,NA,NA
256310,"605 N SANTA CRUZ AVE","ELOY","AZ",85131,32.7550105390001,-111.549127471,310,"605 N SANTA CRUZ AVE, ELOY, AZ, 85131","Match","Exact","605 N SANTA CRUZ AVE, ELOY, AZ, 85131",647336803,"R"
256311,"605 N ST","NELIGH","NE",68756,42.1307116630001,-98.031231774,311,"605 N ST, NELIGH, NE, 68756","Match","Exact","605 N ST, NELIGH, NE, 68756",161671239,"R"
256312,"605 NANCY LN","HENSLEY","AR",72065,34.5618152810001,-92.2895444759999,312,"605 NANCY LN, HENSLEY, AR, 72065","Match","Exact","605 NANCY LN, HENSLEY, AR, 72065",641985903,"L"
256313,"605 NE 20TH ST","OCALA","FL",34470,29.2071657810001,-82.1310547849999,313,"605 NE 20TH ST, OCALA, FL, 34470","Match","Exact","605 NE 20TH ST, OCALA, FL, 34470",116824993,"L"
256314,"605 NETTIE DRIVE","INMAN","SC",29349,35.0189514240001,-82.076182338,314,"605 NETTIE DRIVE, INMAN, SC, 29349","Match","Exact","605 NETTIE DR, INMAN, SC, 29349",640339979,"L"
256315,"605 NEW ENGLAND ROAD","GUILFORD","CT",6437,41.3138506990001,-72.713005541,315,"605 NEW ENGLAND ROAD, GUILFORD, CT, 6437","Match","Exact","605 NEW ENGLAND RD, GUILFORD, CT, 06437",604745276,"R"
256316,"605 NINTH ST","OAKMONT","PA",15139,40.5186498030001,-79.833690089,316,"605 NINTH ST, OAKMONT, PA, 15139","Match","Exact","605 9TH ST, OAKMONT, PA, 15139",51665858,"L"
256317,"605 NOAH A JAMES DRIVE","HAMMOND","LA",70403,30.501449693,-90.449356811,317,"605 NOAH A JAMES DRIVE, HAMMOND, LA, 70403","Match","Exact","605 NOAH A JAMES DR, HAMMOND, LA, 70403",75751897,"R"
256318,"605 NORTH 12TH STREET","GROVER BEACH","CA",93433,35.128209853,-120.616281641,318,"605 NORTH 12TH STREET, GROVER BEACH, CA, 93433","Match","Exact","605 N 12TH ST, GROVER BEACH, CA, 93433",109778927,"L"
256319,"605 NORTH FAIRWAY","FAIRFIELD","TX",75840,31.730778367,-96.167098636,319,"605 NORTH FAIRWAY, FAIRFIELD, TX, 75840","Match","Non_Exact","605 N FAIRWAY ST, FAIRFIELD, TX, 75840",88975806,"L"
256320,"605 NW 2ND STREET","FLORIDA CITY","FL",33034,25.4498103,-80.485528876,320,"605 NW 2ND STREET, FLORIDA CITY, FL, 33034","Match","Exact","605 NW 2ND ST, FLORIDA CITY, FL, 33034",115992344,"L"
256321,"605 OCEAN PARKWAY","BROOKLYN","NY",11218,40.6338042450001,-73.972003633,321,"605 OCEAN PARKWAY, BROOKLYN, NY, 11218","Match","Exact","605 OCEAN PKWY, BROOKLYN, NY, 11218",639410877,"R"
256322,"605 OMNI DRIVE","HILLSBOROUGH","NJ",8844,NA,NA,322,"605 OMNI DRIVE, HILLSBOROUGH, NJ, 8844","No_Match",NA,NA,NA,NA
256323,"605 OPPOSITION WAY","WAKE FOREST","NC",27587,35.9749980190001,-78.477738438,323,"605 OPPOSITION WAY, WAKE FOREST, NC, 27587","Match","Exact","605 OPPOSITION WAY, WAKE FOREST, NC, 27587",639850633,"R"
256324,"605 PALM AVE","GREENFIELD","CA",93927,36.3240518430001,-121.241605839,324,"605 PALM AVE, GREENFIELD, CA, 93927","Match","Exact","605 PALM AVE, GREENFIELD, CA, 93927",636418916,"R"
256325,"605 PALOMAR LN","RICHARDSON","TX",75081,32.939899516,-96.7070853009999,325,"605 PALOMAR LN, RICHARDSON, TX, 75081","Match","Exact","605 PALOMAR LN, RICHARDSON, TX, 75081",102915735,"L"
256326,"605 PARK DRIVE","GREENWOOD","IN",46143,39.6256792820001,-86.102038063,326,"605 PARK DRIVE, GREENWOOD, IN, 46143","Match","Exact","605 PARK DR, GREENWOOD, IN, 46143",114642948,"L"
256327,"605 PARKVIEW DR","PARK CITY","UT",84098,40.7396445370001,-111.610948587,327,"605 PARKVIEW DR, PARK CITY, UT, 84098","Match","Exact","605 PARKVIEW DR, PARK CITY, UT, 84098",160624433,"R"
256328,"605 PHILIP DR","BARTLETT","IL",60103,42.0086491380001,-88.2198299889999,328,"605 PHILIP DR, BARTLETT, IL, 60103","Match","Exact","605 PHILIP DR, BARTLETT, IL, 60103",639813086,"L"
256329,"605 PLEASANT GROVE RD","JASPER","TN",37347,35.0647829280001,-85.591685062,329,"605 PLEASANT GROVE RD, JASPER, TN, 37347","Match","Exact","605 PLEASANT GROVE RD, JASPER, TN, 37347",58407971,"L"
256330,"605 PRESTON VILLAGE WAY","CARY","NC",27519,35.8097213070001,-78.8606640039999,330,"605 PRESTON VILLAGE WAY, CARY, NC, 27519","Match","Exact","605 PRESTON VILLAGE WAY, CARY, NC, 27519",72641857,"R"
256331,"605 PRINCETON ST","BRANDON","FL",33511,27.9015457450001,-82.2921771699999,331,"605 PRINCETON ST, BRANDON, FL, 33511","Match","Exact","605 PRINCETON ST, BRANDON, FL, 33511",104652972,"L"
256332,"605 RALEIGH PLACE SE","WASHINGTON","DC",20032,38.844262767,-76.997749442,332,"605 RALEIGH PLACE SE, WASHINGTON, DC, 20032","Match","Exact","605 RALEIGH PL SE, WASHINGTON, DC, 20032",76232334,"R"
256333,"605 RANDOM LAKE RD","RANDOM LAKE","WI",53075,43.5573375220001,-87.970898038,333,"605 RANDOM LAKE RD, RANDOM LAKE, WI, 53075","Match","Exact","605 RANDOM LAKE RD, RANDOM LAKE, WI, 53075",79509272,"R"
256334,"605 RED OAK COURT","SEVERNA PARK","MD",21146,39.071578462,-76.562142595,334,"605 RED OAK COURT, SEVERNA PARK, MD, 21146","Match","Exact","605 RED OAK CT, SEVERNA PARK, MD, 21146",624956949,"R"
256335,"605 RIDGEVIEW CIRCLE","CLEWISTON","FL",33440,26.760918528,-80.943688385,335,"605 RIDGEVIEW CIRCLE, CLEWISTON, FL, 33440","Match","Exact","605 RIDGEVIEW CIR, CLEWISTON, FL, 33440",4508992,"R"
256336,"605 RISING SUN CIRCLE","MASCOTTE","FL",34753,28.568890739,-81.8880912979999,336,"605 RISING SUN CIRCLE, MASCOTTE, FL, 34753","Match","Exact","605 RISING SUN CIR, MASCOTTE, FL, 34753",94165654,"L"
256337,"605 RIVERVIEW DR","GADSDEN","AL",35903,34.0076759630001,-85.951156584,337,"605 RIVERVIEW DR, GADSDEN, AL, 35903","Match","Exact","605 RIVERVIEW DR, GADSDEN, AL, 35903",652372929,"R"
256338,"605 S 14TH STREET","LINCOLN","NE",68508,40.8079524570001,-96.701198806,338,"605 S 14TH STREET, LINCOLN, NE, 68508","Match","Exact","605 S 14TH ST, LINCOLN, NE, 68508",28253316,"R"
256339,"605 S 1810 W","OREM","UT",84058,NA,NA,339,"605 S 1810 W, OREM, UT, 84058","Tie",NA,NA,NA,NA
256340,"605 S 6TH STREET","CLINTON","OK",73601,35.5083483980001,-98.967177625,340,"605 S 6TH STREET, CLINTON, OK, 73601","Match","Exact","605 S 6TH ST, CLINTON, OK, 73601",150572702,"R"
256341,"605 S AVE G EAST","HASKELL","TX",79521,33.1494779490001,-99.720254682,341,"605 S AVE G EAST, HASKELL, TX, 79521","Match","Non_Exact","605 N AVE G E, HASKELL, TX, 79521",185494507,"R"
256342,"605 S MARINA DR","GILBERT","AZ",85233,33.3394288550001,-111.819323547,342,"605 S MARINA DR, GILBERT, AZ, 85233","Match","Exact","605 S MARINA DR, GILBERT, AZ, 85233",128787647,"L"
256343,"605 S STATE COLLEGE BLVD","ANAHEIM","CA",92806,33.833811675,-117.889239583,343,"605 S STATE COLLEGE BLVD, ANAHEIM, CA, 92806","Match","Exact","605 S STATE COLLEGE BLVD, ANAHEIM, CA, 92806",144027434,"R"
256344,"605 S SUMMIT STREET","FLANDREAU","SD",57028,44.042833068,-96.587534184,344,"605 S SUMMIT STREET, FLANDREAU, SD, 57028","Match","Exact","605 S SUMMIT ST, FLANDREAU, SD, 57028",640130747,"R"
256345,"605 S TEJON STREET","COLORADO SPRINGS","CO",80903,38.825357308,-104.823946852,345,"605 S TEJON STREET, COLORADO SPRINGS, CO, 80903","Match","Exact","605 S TEJON ST, COLORADO SPRINGS, CO, 80903",105514702,"L"
256346,"605 SAINT NICHOLAS DRIVE","NORTH POLE","AK",99705,64.750149612,-147.329695675,346,"605 SAINT NICHOLAS DRIVE, NORTH POLE, AK, 99705","Match","Exact","605 SAINT NICHOLAS DR, NORTH POLE, AK, 99705",190925410,"R"
256347,"605 SE 11TH ST","WASHINGTON","IN",47051,38.651817668,-87.1633248049999,347,"605 SE 11TH ST, WASHINGTON, IN, 47051","Match","Non_Exact","605 S E 11TH ST, WASHINGTON, IN, 47501",32079257,"L"
256348,"605 SE 1ST AVE STE H","DELRAY BEACH","FL",33444,NA,NA,348,"605 SE 1ST AVE STE H, DELRAY BEACH, FL, 33444","Tie",NA,NA,NA,NA
256349,"605 SE 5TH AVENUE","ALEDO","IL",61231,41.197101166,-90.744659801,349,"605 SE 5TH AVENUE, ALEDO, IL, 61231","Match","Exact","605 SE 5TH AVE, ALEDO, IL, 61231",5474665,"L"
256350,"605 SHENANDOAH RD W","MOBILE","AL",36608,30.679476596,-88.1814288899999,350,"605 SHENANDOAH RD W, MOBILE, AL, 36608","Match","Exact","605 SHENANDOAH RD W, MOBILE, AL, 36608",637723437,"L"
256351,"605 SIGNALPOINTE COURT","COLD SPRING","KY",41076,39.004382048,-84.452585052,351,"605 SIGNALPOINTE COURT, COLD SPRING, KY, 41076","Match","Exact","605 SIGNALPOINTE CT, COLD SPRING, KY, 41076",635648408,"L"
256352,"605 SMITHVIEW DRIVE","MARYVILLE","TN",37803,35.7529896500001,-83.953043902,352,"605 SMITHVIEW DRIVE, MARYVILLE, TN, 37803","Match","Exact","605 SMITHVIEW DR, MARYVILLE, TN, 37803",607460420,"R"
256353,"605 SOUTH 15TH STREET","WEST MEMPHIS","AR",72301,35.1390100770001,-90.166494883,353,"605 SOUTH 15TH STREET, WEST MEMPHIS, AR, 72301","Match","Exact","605 S 15TH ST, WEST MEMPHIS, AR, 72301",69373013,"R"
256354,"605 SOUTH AVE SUITE 3","WESTON","MA",2493,42.338567788,-71.316552717,354,"605 SOUTH AVE SUITE 3, WESTON, MA, 2493","Match","Exact","605 SOUTH AVE, WESTON, MA, 02493",87104367,"R"
256355,"605 SOUTH HIGH STREET","MT. ORAB","OH",45154,NA,NA,355,"605 SOUTH HIGH STREET, MT. ORAB, OH, 45154","No_Match",NA,NA,NA,NA
256356,"605 SOUTH PRAIRIE AVENUE","WAUKESHA","WI",53186,42.9974260870001,-88.243182459,356,"605 SOUTH PRAIRIE AVENUE, WAUKESHA, WI, 53186","Match","Exact","605 S PRAIRIE AVE, WAUKESHA, WI, 53186",53820460,"L"
256357,"605 SPRING STREET","SAUSALITO","CA",94965,37.860955329,-122.495680019,357,"605 SPRING STREET, SAUSALITO, CA, 94965","Match","Exact","605 SPRING ST, SAUSALITO, CA, 94965",192770111,"L"
256358,"605 STATE STREET","ELYRIA","OH",44035,41.3441608690001,-82.105292326,358,"605 STATE STREET, ELYRIA, OH, 44035","Match","Exact","605 STATE ST, ELYRIA, OH, 44035",55434006,"R"
256359,"605 STEVENSON AVE","ENUMCLAW","WA",98022,47.199772556,-121.986130283,359,"605 STEVENSON AVE, ENUMCLAW, WA, 98022","Match","Exact","605 STEVENSON AVE, ENUMCLAW, WA, 98022",186643466,"L"
256360,"605 SUNSET DRIVE","BEAVER DAM","KY",42320,37.4052379130001,-86.884585602,360,"605 SUNSET DRIVE, BEAVER DAM, KY, 42320","Match","Exact","605 SUNSET DR, BEAVER DAM, KY, 42320",27955455,"R"
256361,"605 SW HURBERT STREET SUITE 101","NEWPORT","OR",97365,NA,NA,361,"605 SW HURBERT STREET SUITE 101, NEWPORT, OR, 97365","Tie",NA,NA,NA,NA
256362,"605 SW PARK STREET 214","OKEECHOBEE","FL",34972,27.243798015,-80.823949351,362,"605 SW PARK STREET 214, OKEECHOBEE, FL, 34972","Match","Non_Exact","605 NE PARK ST, OKEECHOBEE, FL, 34972",648014051,"L"
256363,"605 THIRD AVE","NEW YORK","NY",10158,40.7490436210001,-73.975696779,363,"605 THIRD AVE, NEW YORK, NY, 10158","Match","Exact","605 3RD AVE, NEW YORK, NY, 10158",59654460,"R"
256364,"605 THIRD AVENUE FL 34","NEW YORK","NY",10158,40.7490436210001,-73.975696779,364,"605 THIRD AVENUE FL 34, NEW YORK, NY, 10158","Match","Exact","605 3RD AVE, NEW YORK, NY, 10158",59654460,"R"
256365,"605 THOMAS WILLIAMS RD","SANFORD","NC",27330,35.5224678340001,-79.191796541,365,"605 THOMAS WILLIAMS RD, SANFORD, NC, 27330","Match","Exact","605 THOMAS WILLIAMS RD, SANFORD, NC, 27330",72088752,"R"
256366,"605 TRIBBLE GAP RD","CUMMING","GA",30040,NA,NA,366,"605 TRIBBLE GAP RD, CUMMING, GA, 30040","No_Match",NA,NA,NA,NA
256367,"605 TRIBBLE GAP ROAD","CUMMING","GA",30040,NA,NA,367,"605 TRIBBLE GAP ROAD, CUMMING, GA, 30040","No_Match",NA,NA,NA,NA
256368,"605 TRIPP CREEK CT","ANNAPOLIS","MD",21401,38.9716954790001,-76.527047314,368,"605 TRIPP CREEK CT, ANNAPOLIS, MD, 21401","Match","Exact","605 TRIPP CREEK CT, ANNAPOLIS, MD, 21401",68207521,"L"
256369,"605 W ACADEMY AVE","MAIZE","KS",67101,NA,NA,369,"605 W ACADEMY AVE, MAIZE, KS, 67101","No_Match",NA,NA,NA,NA
256370,"605 W BEND BLVD","BURLESON","TX",76028,32.5524605790001,-97.357328944,370,"605 W BEND BLVD, BURLESON, TX, 76028","Match","Exact","605 W BEND BLVD, BURLESON, TX, 76028",641271475,"R"
256371,"605 W DAISY L GATSON BATES DR","LITTLE ROCK","AR",72202,34.7361861480001,-92.279083154,371,"605 W DAISY L GATSON BATES DR, LITTLE ROCK, AR, 72202","Match","Exact","605 W DAISY L GATSON BATES DR, LITTLE ROCK, AR, 72202",83564285,"L"
256372,"605 W DICKSON STREET SUITE 201","FAYETTEVILLE","AR",72701,NA,NA,372,"605 W DICKSON STREET SUITE 201, FAYETTEVILLE, AR, 72701","Tie",NA,NA,NA,NA
256373,"605 W NORTH ST","PEOTONE","IL",60468,NA,NA,373,"605 W NORTH ST, PEOTONE, IL, 60468","Tie",NA,NA,NA,NA
256374,"605 W PRAIRIE ST","CRESTON","IA",50801,41.0679968640001,-94.368382853,374,"605 W PRAIRIE ST, CRESTON, IA, 50801","Match","Exact","605 W PRAIRIE ST, CRESTON, IA, 50801",75232031,"R"
256375,"605 W SMITH VALLEY ROAD","GREENWOOD","IN",46142,39.606216553,-86.11646053,375,"605 W SMITH VALLEY ROAD, GREENWOOD, IN, 46142","Match","Exact","605 W SMITH VALLEY RD, GREENWOOD, IN, 46142",612585670,"R"
256376,"605 W VERMONT","URBANA","IL",61801,40.099836059,-88.21465287,376,"605 W VERMONT, URBANA, IL, 61801","Match","Non_Exact","605 W VERMONT AVE, URBANA, IL, 61801",8812343,"L"
256377,"605 WALNUT ST","TRAER","IA",50675,42.188809549,-92.467749644,377,"605 WALNUT ST, TRAER, IA, 50675","Match","Exact","605 WALNUT ST, TRAER, IA, 50675",90969780,"R"
256378,"605 WATER STREET APT 11C","NEW YORK","NY",10002,40.711246417,-73.9845497009999,378,"605 WATER STREET APT 11C, NEW YORK, NY, 10002","Match","Exact","605 WATER ST, NEW YORK, NY, 10002",59654349,"R"
256379,"605 WEDGEWOOD AVE","OCONTO","WI",54153,44.877945131,-87.854617114,379,"605 WEDGEWOOD AVE, OCONTO, WI, 54153","Match","Exact","605 WEDGEWOOD AVE, OCONTO, WI, 54153",170313883,"R"
256380,"605 WEST 6TH STREET","MOUNTAIN HOME","AR",72653,36.3353632770001,-92.377871472,380,"605 WEST 6TH STREET, MOUNTAIN HOME, AR, 72653","Match","Non_Exact","605 E 6TH ST, MOUNTAIN HOME, AR, 72653",2951236,"R"
256381,"605 WEST HUNTINGTON DRIVE SUITE 635","MONROVIA","CA",91016,34.140307518,-118.011994479,381,"605 WEST HUNTINGTON DRIVE SUITE 635, MONROVIA, CA, 91016","Match","Exact","605 W HUNTINGTON DR, MONROVIA, CA, 91016",141646306,"R"
256382,"605 WEST STATE STREET","JACKSONVILLE","IL",62650,39.734310045,-90.23645652,382,"605 WEST STATE STREET, JACKSONVILLE, IL, 62650","Match","Exact","605 W STATE ST, JACKSONVILLE, IL, 62650",81432109,"L"
256383,"605 WEST TENTH STREET","CLAREMONT","CA",91711,34.103520082,-117.724816949,383,"605 WEST TENTH STREET, CLAREMONT, CA, 91711","Match","Exact","605 W 10TH ST, CLAREMONT, CA, 91711",141732476,"R"
256384,"605 WEST UPSAL STREET  SUITE 300","PHILADELPHIA","PA",19119,40.0389804700001,-75.192933571,384,"605 WEST UPSAL STREET  SUITE 300, PHILADELPHIA, PA, 19119","Match","Exact","605 W UPSAL ST, PHILADELPHIA, PA, 19119",131394632,"R"
256385,"605 WILSON AVE","SPRING VALLEY","NY",10977,41.136252905,-74.028222737,385,"605 WILSON AVE, SPRING VALLEY, NY, 10977","Match","Exact","605 WILSON AVE, SPRING VALLEY, NY, 10977",653730602,"R"
256386,"605 WOODGLEN CIRCLE","AUBURN HILLS","MI",48326,42.70314296,-83.3187182519999,386,"605 WOODGLEN CIRCLE, AUBURN HILLS, MI, 48326","Match","Exact","605 WOODGLEN CIR, AUBURN HILLS, MI, 48326",69836669,"L"
256387,"605 WOODLAND DR","PADUCAH","KY",42001,37.068858748,-88.655069404,387,"605 WOODLAND DR, PADUCAH, KY, 42001","Match","Exact","605 WOODLAND DR, PADUCAH, KY, 42001",8394137,"L"
256388,"605 YORKSHIRE DRIVE","COLLEGE STATION","TX",77845,30.574213608,-96.3035910569999,388,"605 YORKSHIRE DRIVE, COLLEGE STATION, TX, 77845","Match","Exact","605 YORKSHIRE DR, COLLEGE STATION, TX, 77845",21825384,"L"
256389,"6050 ARGONNE BLVD","NEW ORLEANS","LA",70124,29.999669727,-90.1033798449999,389,"6050 ARGONNE BLVD, NEW ORLEANS, LA, 70124","Match","Exact","6050 ARGONNE BLVD, NEW ORLEANS, LA, 70124",191705832,"L"
256390,"6050 BLUE TERRACE PLACE","CASTLE PINES","CO",80108,39.4917935020001,-104.918819131,390,"6050 BLUE TERRACE PLACE, CASTLE PINES, CO, 80108","Match","Exact","6050 BLUE TERRACE PL, CASTLE PINES, CO, 80108",130841604,"R"
256391,"6050 BUTTERCUP COURT","ALEXANDRIA","VA",22310,38.7852201470001,-77.1410064519999,391,"6050 BUTTERCUP COURT, ALEXANDRIA, VA, 22310","Match","Exact","6050 BUTTERCUP CT, ALEXANDRIA, VA, 22310",76045278,"L"
256392,"6050 CASS AVENUE","DETROIT","MI",48202,42.3646524650001,-83.071597444,392,"6050 CASS AVENUE, DETROIT, MI, 48202","Match","Exact","6050 CASS AVE, DETROIT, MI, 48202",95476192,"R"
256393,"6050 DUCHESS AVE","ABILENE","TX",79606,32.4201560760001,-99.8042709169999,393,"6050 DUCHESS AVE, ABILENE, TX, 79606","Match","Exact","6050 DUCHESS AVE, ABILENE, TX, 79606",129967486,"R"
256394,"6050 ESTATE LOVENLUND NO 7","ST THOMAS","WA",802,NA,NA,394,"6050 ESTATE LOVENLUND NO 7, ST THOMAS, WA, 802","No_Match",NA,NA,NA,NA
256395,"6050 GREENFIELD SUITE 200","DEARBORN","MI",48126,42.3333390230001,-83.1957640379999,395,"6050 GREENFIELD SUITE 200, DEARBORN, MI, 48126","Match","Non_Exact","6050 GREENFIELD RD, DEARBORN, MI, 48126",95737431,"R"
256396,"6050 HEWSON ROAD","LAKE VIEW","NY",14085,42.721997607,-78.941942586,396,"6050 HEWSON ROAD, LAKE VIEW, NY, 14085","Match","Exact","6050 HEWSON RD, LAKE VIEW, NY, 14085",604687779,"R"
256397,"6050 KINGSTON WOOD WAY","LITHONIA","GA",30038,33.6442720700001,-84.143990963,397,"6050 KINGSTON WOOD WAY, LITHONIA, GA, 30038","Match","Exact","6050 KINGSTON WOOD WAY, LITHONIA, GA, 30038",23395812,"R"
256398,"6050 MONCRIEF RD 10","JACKSONVILLE","FL",32209,30.381210556,-81.696337322,398,"6050 MONCRIEF RD 10, JACKSONVILLE, FL, 32209","Match","Exact","6050 MONCRIEF RD, JACKSONVILLE, FL, 32209",83892032,"L"
256399,"6050 MONCRIEF ROAD SUITE 7","JACKSONVILLE","FL",32208,30.381210556,-81.696337322,399,"6050 MONCRIEF ROAD SUITE 7, JACKSONVILLE, FL, 32208","Match","Non_Exact","6050 MONCRIEF RD, JACKSONVILLE, FL, 32209",83892032,"L"
256400,"6050 OLD HWY 2","BERTHOLD","ND",58718,48.3558460260001,-101.941598227,400,"6050 OLD HWY 2, BERTHOLD, ND, 58718","Match","Exact","6050 OLD HWY 2, BERTHOLD, ND, 58718",200614722,"R"
256401,"6050 PEACHTREE PARKWAY","NORCROSS","GA",30092,33.954223384,-84.233228728,401,"6050 PEACHTREE PARKWAY, NORCROSS, GA, 30092","Match","Non_Exact","6050 PEACHTREE PKWY NW, NORCROSS, GA, 30092",88941043,"R"
256402,"6050 PEACHTREE PKWY BLG 240 STE 155","NORCROSS","GA",30092,33.954223384,-84.233228728,402,"6050 PEACHTREE PKWY BLG 240 STE 155, NORCROSS, GA, 30092","Match","Non_Exact","6050 PEACHTREE PKWY NW, NORCROSS, GA, 30092",88941043,"R"
256403,"6050 PEREGRINE AVE","ORLANDO","FL",32819,28.48668933,-81.4645296049999,403,"6050 PEREGRINE AVE, ORLANDO, FL, 32819","Match","Exact","6050 PEREGRINE AVE, ORLANDO, FL, 32819",653175625,"L"
256404,"6050 PITCH LANE","BOYNTON BEACH","FL",33437,26.49337553,-80.1412130209999,404,"6050 PITCH LANE, BOYNTON BEACH, FL, 33437","Match","Exact","6050 PITCH LN, BOYNTON BEACH, FL, 33437",115576763,"L"
256405,"6050 POPES CREEK PLACE","HAYMARKET","VA",20169,38.8243673910001,-77.633103695,405,"6050 POPES CREEK PLACE, HAYMARKET, VA, 20169","Match","Exact","6050 POPES CREEK PL, HAYMARKET, VA, 20169",614163011,"L"
256406,"6050 S BUFFALO DRIVE","LAS VEGVAS","NV",89113,36.0809323930001,-115.260849565,406,"6050 S BUFFALO DRIVE, LAS VEGVAS, NV, 89113","Match","Non_Exact","6050 S BUFFALO DR, LAS VEGAS, NV, 89113",650675400,"L"
256407,"6050 SEAHAWK ST","VENTURA","CA",93003,34.252224416,-119.207518141,407,"6050 SEAHAWK ST, VENTURA, CA, 93003","Match","Exact","6050 SEAHAWK ST, VENTURA, CA, 93003",110027878,"R"
256408,"6050 SOUTHARD TRACE","CUMMING","GA",30040,NA,NA,408,"6050 SOUTHARD TRACE, CUMMING, GA, 30040","No_Match",NA,NA,NA,NA
256409,"60500 US HIGHWAY 40 BOX 338","GRANBY","CO",80446,NA,NA,409,"60500 US HIGHWAY 40 BOX 338, GRANBY, CO, 80446","No_Match",NA,NA,NA,NA
256410,"60500 US HIGHWAY 40 PO RANBYBOX 338","GRANBY","CO",80446,NA,NA,410,"60500 US HIGHWAY 40 PO RANBYBOX 338, GRANBY, CO, 80446","No_Match",NA,NA,NA,NA
256411,"60506 345TH ST","WARROAD","MN",56763,48.8941519250001,-95.30770891,411,"60506 345TH ST, WARROAD, MN, 56763","Match","Non_Exact","60506 345TH ST SE, WARROAD, MN, 56763",176605851,"R"
256412,"6051 BUSINESS CENTER CT STE 4-173","SAN DIEGO","CA",92154,32.569300561,-117.00464631,412,"6051 BUSINESS CENTER CT STE 4-173, SAN DIEGO, CA, 92154","Match","Non_Exact","6051 BUS CENTER CT, SAN DIEGO, CA, 92154",195728384,"R"
256413,"6051 CAREY DRIVE","VALLEY VIEW","OH",44125,41.397222852,-81.6131411869999,413,"6051 CAREY DRIVE, VALLEY VIEW, OH, 44125","Match","Exact","6051 CAREY DR, VALLEY VIEW, OH, 44125",61150172,"R"
256414,"6051 HALIFAX AVE NORTH","BROOKLYNCENTER","MN",55429,45.064478514,-93.332684023,414,"6051 HALIFAX AVE NORTH, BROOKLYNCENTER, MN, 55429","Match","Non_Exact","6051 HALIFAX AVE N, BROOKLYN CENTER, MN, 55429",43829880,"L"
256415,"6051 HALIFAX AVENUE NORTH","BROOKLYN CENTER","MN",55429,45.064478514,-93.332684023,415,"6051 HALIFAX AVENUE NORTH, BROOKLYN CENTER, MN, 55429","Match","Exact","6051 HALIFAX AVE N, BROOKLYN CENTER, MN, 55429",43829880,"L"
256416,"6051 LA JOLLA HERMOSA AVE","LA JOLLA","CA",92037,32.8206840730001,-117.273135062,416,"6051 LA JOLLA HERMOSA AVE, LA JOLLA, CA, 92037","Match","Exact","6051 LA JOLLA HERMOSA AVE, LA JOLLA, CA, 92037",195298444,"R"
256417,"6051 N BROOKLINE SUITE 125","OKLAHOMA CITY","OK",73112,NA,NA,417,"6051 N BROOKLINE SUITE 125, OKLAHOMA CITY, OK, 73112","No_Match",NA,NA,NA,NA
256418,"6051 S WATT AVE","SACRAMENTO","CA",95829,38.5167453870001,-121.369914303,418,"6051 S WATT AVE, SACRAMENTO, CA, 95829","Match","Exact","6051 S WATT AVE, SACRAMENTO, CA, 95829",133404594,"L"
256419,"6051 W CABANNE PL","SAINT LOUIS","MO",63112,38.6596769010001,-90.294208044,419,"6051 W CABANNE PL, SAINT LOUIS, MO, 63112","Match","Exact","6051 W CABANNE PL, SAINT LOUIS, MO, 63112",107592550,"R"
256420,"6051 W DEWEY DR","LAS VEGAS","NV",89118,36.087249183,-115.224678138,420,"6051 W DEWEY DR, LAS VEGAS, NV, 89118","Match","Exact","6051 W DEWEY DR, LAS VEGAS, NV, 89118",202004219,"L"
256421,"6051 W SWEETWATER AVENUE","GLENDALE","AZ",85304,33.603531187,-112.189089943,421,"6051 W SWEETWATER AVENUE, GLENDALE, AZ, 85304","Match","Exact","6051 W SWEETWATER AVE, GLENDALE, AZ, 85304",128174782,"L"
256422,"6051 WEST SWEETWATER AVENUE","GLENDALE","AZ",85304,33.603531403,-112.18906891,422,"6051 WEST SWEETWATER AVENUE, GLENDALE, AZ, 85304","Match","Exact","6051 W SWEETWATER AVE, GLENDALE, AZ, 85304",128174782,"L"
256423,"6052 1/2 HOMEWOOD AVENUE","BUENA PARK","CA",90621,33.8726628520001,-117.997059205,423,"6052 1/2 HOMEWOOD AVENUE, BUENA PARK, CA, 90621","Match","Exact","6052 HOMEWOOD AVE, BUENA PARK, CA, 90621",144009901,"L"
256424,"6052 GLEBE DRIVE","INDIANAPOLIS","IN",46237,39.6988032890001,-86.062136585,424,"6052 GLEBE DRIVE, INDIANAPOLIS, IN, 46237","Match","Exact","6052 GLEBE DR, INDIANAPOLIS, IN, 46237",641064054,"L"
256425,"6052 MAIN STREET","VOORHEES","NJ",8043,39.8641904360001,-74.9456044139999,425,"6052 MAIN STREET, VOORHEES, NJ, 8043","Match","Exact","6052 MAIN ST, VOORHEES, NJ, 08043",134374398,"L"
256426,"6052 OLD LOGAN ROAD","LOGAN","WV",25601,NA,NA,426,"6052 OLD LOGAN ROAD, LOGAN, WV, 25601","No_Match",NA,NA,NA,NA
256427,"6052 STRAWBERRY LAKES CIRCLE","LAKE WORTH","FL",33463,26.5874611400001,-80.139892042,427,"6052 STRAWBERRY LAKES CIRCLE, LAKE WORTH, FL, 33463","Match","Exact","6052 STRAWBERRY LAKES CIR, LAKE WORTH, FL, 33463",115577992,"R"
256428,"6052 TURKEY LAKE RD UNIT 205","ORLANDO","FL",32819,28.478590167,-81.474924522,428,"6052 TURKEY LAKE RD UNIT 205, ORLANDO, FL, 32819","Match","Exact","6052 TURKEY LAKE RD, ORLANDO, FL, 32819",94316232,"R"
256429,"60525 CHICKASAW WAY","BEND","OR",97702,43.9966224510001,-121.167943141,429,"60525 CHICKASAW WAY, BEND, OR, 97702","Match","Exact","60525 CHICKASAW WAY, BEND, OR, 97702",152578602,"R"
256430,"6053 ARNIES WAY","MILTON","FL",32570,30.646507258,-87.0693432429999,430,"6053 ARNIES WAY, MILTON, FL, 32570","Match","Exact","6053 ARNIES WAY, MILTON, FL, 32570",74578874,"R"
256431,"6053 EASTHAM WAY","HUDSON","OH",44236,41.226077774,-81.425047671,431,"6053 EASTHAM WAY, HUDSON, OH, 44236","Match","Exact","6053 EASTHAM WAY, HUDSON, OH, 44236",61346683,"R"
256432,"6053 LOETTO AVENUE","PHILADELPHIA","PA",19149,NA,NA,432,"6053 LOETTO AVENUE, PHILADELPHIA, PA, 19149","No_Match",NA,NA,NA,NA
256433,"6053 N MCCAFFREY","FRESNO","CA",93722,36.8227147630001,-119.891462614,433,"6053 N MCCAFFREY, FRESNO, CA, 93722","Match","Non_Exact","6053 N MCCAFFREY AVE, FRESNO, CA, 93722",197615587,"R"
256434,"6053 OLD BRIDGE ROAD","BROWNSBURG","IN",46112,39.8299456920001,-86.419293942,434,"6053 OLD BRIDGE ROAD, BROWNSBURG, IN, 46112","Match","Exact","6053 OLD BRIDGE RD, BROWNSBURG, IN, 46112",89204938,"R"
256435,"6053 RAMSHORN PL","MCLEAN","VA",22101,38.940376262,-77.143881036,435,"6053 RAMSHORN PL, MCLEAN, VA, 22101","Match","Exact","6053 RAMSHORN PL, MCLEAN, VA, 22101",215950468,"L"
256436,"6053 TABOR AVE","MORROW","GA",30260,33.589311551,-84.303226771,436,"6053 TABOR AVE, MORROW, GA, 30260","Match","Exact","6053 TABOR AVE, MORROW, GA, 30260",23315820,"R"
256437,"6053 WINNERS CIRCLE","SAN ANGELO","TX",76904,31.388856907,-100.439722877,437,"6053 WINNERS CIRCLE, SAN ANGELO, TX, 76904","Match","Exact","6053 WINNERS CIR, SAN ANGELO, TX, 76904",190690297,"L"
256438,"6053 WOODHAVEN RD","JACKSON","MS",39209,32.3902852100001,-90.174567511,438,"6053 WOODHAVEN RD, JACKSON, MS, 39209","Match","Non_Exact","6053 WOODHAVEN RD, JACKSON, MS, 39206",65360074,"L"
256439,"60530 345TH ST","WARROAD","MN",56763,48.8941338980001,-95.305461163,439,"60530 345TH ST, WARROAD, MN, 56763","Match","Non_Exact","60530 345TH ST SE, WARROAD, MN, 56763",176605851,"R"
256440,"6054 BROWN DEER PL","HUBER HEIGHTS","OH",45424,39.873752433,-84.128832145,440,"6054 BROWN DEER PL, HUBER HEIGHTS, OH, 45424","Match","Exact","6054 BROWN DEER PL, HUBER HEIGHTS, OH, 45424",143572940,"R"
256441,"6054 N 2ND STREET","PHILADELPHIA","PA",19120,40.0430421030001,-75.1238330419999,441,"6054 N 2ND STREET, PHILADELPHIA, PA, 19120","Match","Exact","6054 N 2ND ST, PHILADELPHIA, PA, 19120",131414406,"L"
256442,"6054 SHADOW LAKE VIEW","LITHONIA","GA",30058,33.7655271560001,-84.141821803,442,"6054 SHADOW LAKE VIEW, LITHONIA, GA, 30058","Match","Exact","6054 SHADOW LAKE VW, LITHONIA, GA, 30058",23397533,"L"
256443,"6055 E DYNAMITE BLVD","CAVE CREEK","AZ",85331,33.7411643500001,-111.950998582,443,"6055 E DYNAMITE BLVD, CAVE CREEK, AZ, 85331","Match","Exact","6055 E DYNAMITE BLVD, CAVE CREEK, AZ, 85331",128596079,"L"
256444,"6055 MACADAM CT","AGOURA HILLS","CA",91301,34.1620067760001,-118.762304579,444,"6055 MACADAM CT, AGOURA HILLS, CA, 91301","Match","Exact","6055 MACADAM CT, AGOURA HILLS, CA, 91301",141721377,"L"
256445,"6055 PALLADIUM CT APT 302","ALEXANDRIA","VA",22315,38.7604909790001,-77.144729019,445,"6055 PALLADIUM CT APT 302, ALEXANDRIA, VA, 22315","Match","Exact","6055 PALLADIUM CT, ALEXANDRIA, VA, 22315",76017317,"L"
256446,"6055 SOUTHARD TRACE","CUMMING","GA",30040,NA,NA,446,"6055 SOUTHARD TRACE, CUMMING, GA, 30040","No_Match",NA,NA,NA,NA
256447,"6055 SW 90TH AVE","PORTLAND","OR",97223,45.476021776,-122.769294097,447,"6055 SW 90TH AVE, PORTLAND, OR, 97223","Match","Exact","6055 SW 90TH AVE, PORTLAND, OR, 97223",158187793,"R"
256448,"6055 TRAVERS STAKE STREET","LOVELAND","CO",80538,NA,NA,448,"6055 TRAVERS STAKE STREET, LOVELAND, CO, 80538","No_Match",NA,NA,NA,NA
256449,"6056 EDSALL ROAD - SUITE 202","ALEXANDRIA","VA",22304,38.8076754850001,-77.1372647809999,449,"6056 EDSALL ROAD - SUITE 202, ALEXANDRIA, VA, 22304","Match","Exact","6056 EDSALL RD, ALEXANDRIA, VA, 22304",611508098,"L"
256450,"6056 FELIX AVENUE","RICHMOND","CA",94805,37.947729908,-122.317401821,450,"6056 FELIX AVENUE, RICHMOND, CA, 94805","Match","Exact","6056 FELIX AVE, RICHMOND, CA, 94805",192042317,"R"
256451,"6056 LIVINGSTON HWY","CELINA","TN",38551,NA,NA,451,"6056 LIVINGSTON HWY, CELINA, TN, 38551","No_Match",NA,NA,NA,NA
256452,"6056 SUGARSTONE COURT","MCLEAN","VA",22101,38.9322920700001,-77.143711689,452,"6056 SUGARSTONE COURT, MCLEAN, VA, 22101","Match","Exact","6056 SUGARSTONE CT, MCLEAN, VA, 22101",76040224,"R"
256453,"6057 COURTHOUSE RD","SPOTSYLVANIA","VA",22551,38.1250983950001,-77.738612529,453,"6057 COURTHOUSE RD, SPOTSYLVANIA, VA, 22551","Match","Exact","6057 COURTHOUSE RD, SPOTSYLVANIA, VA, 22551",228796092,"R"
256454,"6057 N WHIPPLE ST","CHICAGO","IL",60659,41.9920747790001,-87.705516473,454,"6057 N WHIPPLE ST, CHICAGO, IL, 60659","Match","Exact","6057 N WHIPPLE ST, CHICAGO, IL, 60659",605174306,"R"
256455,"6057 OLIVA AVE","LAKEWOOD","CA",90712,33.865285371,-118.144486005,455,"6057 OLIVA AVE, LAKEWOOD, CA, 90712","Match","Exact","6057 OLIVA AVE, LAKEWOOD, CA, 90712",642870310,"L"
256456,"6057 SHULTE","ST. LOUIS","MO",63107,NA,NA,456,"6057 SHULTE, ST. LOUIS, MO, 63107","No_Match",NA,NA,NA,NA
256457,"6057 US HIGHWAY 319 S","THOMASVILLE","GA",31792,NA,NA,457,"6057 US HIGHWAY 319 S, THOMASVILLE, GA, 31792","No_Match",NA,NA,NA,NA
256458,"6057 US HWY 319 S","THOMASVILLE","GA",31792,NA,NA,458,"6057 US HWY 319 S, THOMASVILLE, GA, 31792","No_Match",NA,NA,NA,NA
256459,"6057 WOLF POND ROAD","GREENWOOD","FL",32443,30.8953789720001,-85.088734329,459,"6057 WOLF POND ROAD, GREENWOOD, FL, 32443","Match","Exact","6057 WOLF POND RD, GREENWOOD, FL, 32443",610783182,"R"
256460,"6058 AUTRY AVE","LAKEWOOD","CA",90712,33.865390833,-118.127174032,460,"6058 AUTRY AVE, LAKEWOOD, CA, 90712","Match","Exact","6058 AUTRY AVE, LAKEWOOD, CA, 90712",642866894,"R"
256461,"6058 LAKE LINDERO DRIVE","AGOURA HILLS","CA",91301,34.162909816,-118.785742886,461,"6058 LAKE LINDERO DRIVE, AGOURA HILLS, CA, 91301","Match","Non_Exact","6058 S LAKE LINDERO DR, AGOURA HILLS, CA, 91301",241247900,"R"
256462,"6058 N SULTANA TER","BEVERLY HILLS","FL",34465,28.9503944260001,-82.4978034379999,462,"6058 N SULTANA TER, BEVERLY HILLS, FL, 34465","Match","Exact","6058 N SULTANA TER, BEVERLY HILLS, FL, 34465",86210518,"R"
256463,"6058 PENWOOD","MT MORRIS","MI",48458,43.09177472,-83.711518664,463,"6058 PENWOOD, MT MORRIS, MI, 48458","Match","Non_Exact","6058 PENWOOD RD, MOUNT MORRIS, MI, 48458",69563599,"R"
256464,"6058 RONNOCO RD","ROCHESTER HILLS","MI",48306,42.710535039,-83.1437928569999,464,"6058 RONNOCO RD, ROCHESTER HILLS, MI, 48306","Match","Exact","6058 RONNOCO RD, ROCHESTER HILLS, MI, 48306",69712714,"R"
256465,"6059 AGUSTA STREET","PHILADELPHIA","PA",19149,40.037454015,-75.085523144,465,"6059 AGUSTA STREET, PHILADELPHIA, PA, 19149","Match","Exact","6059 AGUSTA ST, PHILADELPHIA, PA, 19149",131426770,"R"
256466,"6059 CLEMENS AVE","ST. LOUIS","MO",63112,38.6572468750001,-90.293740094,466,"6059 CLEMENS AVE, ST. LOUIS, MO, 63112","Match","Exact","6059 CLEMENS AVE, SAINT LOUIS, MO, 63112",107592557,"R"
256467,"6059 GUM SWAMP ROAD","AYDEN","NC",28513,35.4166650600001,-77.372100925,467,"6059 GUM SWAMP ROAD, AYDEN, NC, 28513","Match","Exact","6059 GUM SWAMP RD, AYDEN, NC, 28513",80003047,"R"
256468,"6059 N PALM AVE","FRESNO","CA",93704,36.823932472,-119.808325759,468,"6059 N PALM AVE, FRESNO, CA, 93704","Match","Exact","6059 N PALM AVE, FRESNO, CA, 93704",197572345,"L"
256469,"6059 NW 74TH STREET","PARKLAND","FL",33067,26.3225256310001,-80.207017118,469,"6059 NW 74TH STREET, PARKLAND, FL, 33067","Match","Exact","6059 NW 74TH ST, PARKLAND, FL, 33067",114768729,"R"
256470,"6059 W IRVING PARK","CHICAGO","IL",60634,41.953019194,-87.778547982,470,"6059 W IRVING PARK, CHICAGO, IL, 60634","Match","Non_Exact","6059 W IRVING PARK RD, CHICAGO, IL, 60634",111751472,"L"
256471,"606 18TH STREET","BAKERSFIELD","CA",93301,35.375256193,-119.008596883,471,"606 18TH STREET, BAKERSFIELD, CA, 93301","Match","Exact","606 18TH ST, BAKERSFIELD, CA, 93301",109089946,"R"
256472,"606 1ST AVENUE SUITE 301","DODGE CITY","KS",67801,37.753611795,-100.017982735,472,"606 1ST AVENUE SUITE 301, DODGE CITY, KS, 67801","Match","Exact","606 1ST AVE, DODGE CITY, KS, 67801",206554915,"R"
256473,"606 2ND AVE","TROY","NY",12182,42.7762600680001,-73.6765235829999,473,"606 2ND AVE, TROY, NY, 12182","Match","Exact","606 2ND AVE, TROY, NY, 12182",35729989,"R"
256474,"606 2ND STREET  PO BOX 372","FARWELL","TX",79325,34.38205967,-103.041677161,474,"606 2ND STREET  PO BOX 372, FARWELL, TX, 79325","Match","Exact","606 2ND ST, FARWELL, TX, 79325",164047163,"L"
256475,"606 2ND STREET","IDA GROVE","IA",51445,42.3450884870001,-95.47282416,475,"606 2ND STREET, IDA GROVE, IA, 51445","Match","Exact","606 2ND ST, IDA GROVE, IA, 51445",82817753,"R"
256476,"606 5TH AVENUE SW","ALTOONA","IA",50009,41.6455696040001,-93.469305447,476,"606 5TH AVENUE SW, ALTOONA, IA, 50009","Match","Exact","606 5TH AVE SW, ALTOONA, IA, 50009",65791013,"L"
256477,"606 ALAMO PINTADO ROAD STE 3-130","SOLVANG","CA",93463,34.6073075360001,-120.124258274,477,"606 ALAMO PINTADO ROAD STE 3-130, SOLVANG, CA, 93463","Match","Exact","606 ALAMO PINTADO RD, SOLVANG, CA, 93463",649765409,"R"
256478,"606 ALLAMAKEE STREET","WAUKON","IA",52172,43.2748875660001,-91.475553648,478,"606 ALLAMAKEE STREET, WAUKON, IA, 52172","Match","Non_Exact","606 ALLAMAKEE ST NW, WAUKON, IA, 52172",48221745,"L"
256479,"606 ANDERSON CIRCLE 102","DEERFIELD BEACH","FL",33441,26.3081949670001,-80.1113133329999,479,"606 ANDERSON CIRCLE 102, DEERFIELD BEACH, FL, 33441","Match","Exact","606 ANDERSON CIR, DEERFIELD BEACH, FL, 33441",114765391,"L"
256480,"606 BAINBRIDGE STREET","BROOKLYN","NY",11233,40.682975743,-73.913551356,480,"606 BAINBRIDGE STREET, BROOKLYN, NY, 11233","Match","Exact","606 BAINBRIDGE ST, BROOKLYN, NY, 11233",59083249,"R"
256481,"606 BAYBERRY PT","CANTON","GA",30115,34.2471938730001,-84.318654483,481,"606 BAYBERRY PT, CANTON, GA, 30115","Match","Exact","606 BAYBERRY PT, CANTON, GA, 30115",68847733,"R"
256482,"606 BEACON HILL DR","HOLLAND","PA",18966,40.205841981,-74.9524101709999,482,"606 BEACON HILL DR, HOLLAND, PA, 18966","Match","Exact","606 BEACON HILL DR, HOLLAND, PA, 18966",134740275,"L"
256483,"606 BEULAH ROAD","VIENNA","VA",22180,38.9142318130001,-77.2658298969999,483,"606 BEULAH ROAD, VIENNA, VA, 22180","Match","Non_Exact","606 BEULAH RD NE, VIENNA, VA, 22180",648210237,"L"
256484,"606 BLUE RIDGE PKWY","MADISON","WI",53705,43.0744215980001,-89.4912246709999,484,"606 BLUE RIDGE PKWY, MADISON, WI, 53705","Match","Exact","606 BLUE RIDGE PKWY, MADISON, WI, 53705",49466762,"L"
256485,"606 BOWMAN AVE","SALEM","VA",24153,37.2798718490001,-80.0613129669999,485,"606 BOWMAN AVE, SALEM, VA, 24153","Match","Exact","606 BOWMAN AVE, SALEM, VA, 24153",62901251,"L"
256486,"606 BOYD STREET","GOLDEN","CO",80403,39.762705989,-105.222412387,486,"606 BOYD STREET, GOLDEN, CO, 80403","Match","Exact","606 BOYD ST, GOLDEN, CO, 80403",177279112,"R"
256487,"606 BURDICK EXPY W STE A","MINOT","ND",58701,48.2323058530001,-101.301765347,487,"606 BURDICK EXPY W STE A, MINOT, ND, 58701","Match","Exact","606 BURDICK EXPY W, MINOT, ND, 58701",647731743,"L"
256488,"606 BURLESON STREET","BRENHAM","TX",77833,30.169939309,-96.4062047369999,488,"606 BURLESON STREET, BRENHAM, TX, 77833","Match","Exact","606 BURLESON ST, BRENHAM, TX, 77833",39236298,"R"
256489,"606 CABRITO DR","ODESSA","TX",79765,31.9452430050001,-102.395701406,489,"606 CABRITO DR, ODESSA, TX, 79765","Match","Exact","606 CABRITO DR, ODESSA, TX, 79765",627921872,"R"
256490,"606 CAMERON LANDING DRIVE","STOCKBRIDGE","GA",30281,33.553956311,-84.279987083,490,"606 CAMERON LANDING DRIVE, STOCKBRIDGE, GA, 30281","Match","Exact","606 CAMERON LANDING DR, STOCKBRIDGE, GA, 30281",645821587,"R"
256491,"606 CHIEF JUSTICE CUSHING HIGHWAY","SCITUATE","MA",2066,NA,NA,491,"606 CHIEF JUSTICE CUSHING HIGHWAY, SCITUATE, MA, 2066","No_Match",NA,NA,NA,NA
256492,"606 COLLEGE STREET","GATESVILLE","TX",76528,31.4307428770001,-97.750934114,492,"606 COLLEGE STREET, GATESVILLE, TX, 76528","Match","Exact","606 COLLEGE ST, GATESVILLE, TX, 76528",146569069,"L"
256493,"606 CONTADORA","SAN ANTONIO","TX",78258,29.617660662,-98.495020511,493,"606 CONTADORA, SAN ANTONIO, TX, 78258","Match","Exact","606 CONTADORA, SAN ANTONIO, TX, 78258",101556268,"L"
256494,"606 CRIEFF ROAD","RICHMOND","VA",23225,37.5109863660001,-77.511159558,494,"606 CRIEFF ROAD, RICHMOND, VA, 23225","Match","Exact","606 CRIEFF RD, RICHMOND, VA, 23225",201536499,"L"
256495,"606 DELMAR AVE SE","ATLANTA","GA",30312,33.7321501590001,-84.367273914,495,"606 DELMAR AVE SE, ATLANTA, GA, 30312","Match","Exact","606 DELMAR AVE SE, ATLANTA, GA, 30312",17358185,"L"
256496,"606 E 7TH ST","AUSTIN","TX",78701,30.2671507860001,-97.735865438,496,"606 E 7TH ST, AUSTIN, TX, 78701","Match","Exact","606 E 7TH ST, AUSTIN, TX, 78701",63946538,"L"
256497,"606 E ACADEMY ST","TROY","AL",36081,31.80911924,-85.966368197,497,"606 E ACADEMY ST, TROY, AL, 36081","Match","Exact","606 E ACADEMY ST, TROY, AL, 36081",69213298,"R"
256498,"606 E MAIN ST","ELK POINT","SD",57025,42.68356677,-96.678946963,498,"606 E MAIN ST, ELK POINT, SD, 57025","Match","Exact","606 E MAIN ST, ELK POINT, SD, 57025",176346040,"L"
256499,"606 E MASON DR","BROKEN ARROW","OK",74012,36.0410517340001,-95.782838646,499,"606 E MASON DR, BROKEN ARROW, OK, 74012","Match","Exact","606 E MASON DR, BROKEN ARROW, OK, 74012",166465389,"L"
256500,"606 E MONROE","WAURIKA","OK",73573,34.175439559,-97.994352794,500,"606 E MONROE, WAURIKA, OK, 73573","Match","Non_Exact","606 E MONROE ST, WAURIKA, OK, 73573",15285089,"R"
