"ID","Address","City","State","Zip","lat","long","id","input_address","match_indicator","match_type","matched_address","tiger_line_id","tiger_side"
352501,"PO BOX 5461","AIKEN","SC",29804,NA,NA,1,"PO BOX 5461, AIKEN, SC, 29804","No_Match",NA,NA,NA,NA
352502,"PO BOX 5462","PRINCETON","WV",24740,NA,NA,2,"PO BOX 5462, PRINCETON, WV, 24740","No_Match",NA,NA,NA,NA
352503,"PO BOX 54621","WASHINGTON, DC","DC",20032,NA,NA,3,"PO BOX 54621, WASHINGTON, DC, DC, 20032","No_Match",NA,NA,NA,NA
352504,"PO BOX 54639","JACKSONVILLE","FL",32245,NA,NA,4,"PO BOX 54639, JACKSONVILLE, FL, 32245","No_Match",NA,NA,NA,NA
352505,"PO BOX 5465","LINCOLN","NE",68505,NA,NA,5,"PO BOX 5465, LINCOLN, NE, 68505","No_Match",NA,NA,NA,NA
352506,"PO BOX 54673","LEXINGTON","KY",40555,NA,NA,6,"PO BOX 54673, LEXINGTON, KY, 40555","No_Match",NA,NA,NA,NA
352507,"PO BOX 5468","FAIRLAWN","OH",44334,NA,NA,7,"PO BOX 5468, FAIRLAWN, OH, 44334","No_Match",NA,NA,NA,NA
352508,"PO BOX 5468","SACRAMENTO","CA",95817,NA,NA,8,"PO BOX 5468, SACRAMENTO, CA, 95817","No_Match",NA,NA,NA,NA
352509,"PO BOX 5468","WEST RICHLAND","WA",99353,NA,NA,9,"PO BOX 5468, WEST RICHLAND, WA, 99353","No_Match",NA,NA,NA,NA
352510,"PO BOX 547","COUNCIL","ID",83612,NA,NA,10,"PO BOX 547, COUNCIL, ID, 83612","No_Match",NA,NA,NA,NA
352511,"PO BOX 547","CULLMAN","AL",35056,NA,NA,11,"PO BOX 547, CULLMAN, AL, 35056","No_Match",NA,NA,NA,NA
352512,"PO BOX 547","EL PASO","TX",79944,NA,NA,12,"PO BOX 547, EL PASO, TX, 79944","No_Match",NA,NA,NA,NA
352513,"PO BOX 547","ELLIJAY","GA",30536,NA,NA,13,"PO BOX 547, ELLIJAY, GA, 30536","No_Match",NA,NA,NA,NA
352514,"PO BOX 547","HYANNIS","MA",2601,NA,NA,14,"PO BOX 547, HYANNIS, MA, 2601","No_Match",NA,NA,NA,NA
352515,"PO BOX 547","TULARE","CA",93275,NA,NA,15,"PO BOX 547, TULARE, CA, 93275","No_Match",NA,NA,NA,NA
352516,"PO BOX 547","WILLOW SPRINGS","MO",65793,NA,NA,16,"PO BOX 547, WILLOW SPRINGS, MO, 65793","No_Match",NA,NA,NA,NA
352517,"PO BOX 54701","WASHINGTON","DC",20032,NA,NA,17,"PO BOX 54701, WASHINGTON, DC, 20032","No_Match",NA,NA,NA,NA
352518,"PO BOX 54705","LEXINGTON","KY",40555,NA,NA,18,"PO BOX 54705, LEXINGTON, KY, 40555","No_Match",NA,NA,NA,NA
352519,"PO BOX 5471","CLARK","NJ",7066,NA,NA,19,"PO BOX 5471, CLARK, NJ, 7066","No_Match",NA,NA,NA,NA
352520,"PO BOX 5472","HUNTSVILLE","AL",35814,NA,NA,20,"PO BOX 5472, HUNTSVILLE, AL, 35814","No_Match",NA,NA,NA,NA
352521,"PO BOX 547254","ORLANDO","FL",32854,NA,NA,21,"PO BOX 547254, ORLANDO, FL, 32854","No_Match",NA,NA,NA,NA
352522,"PO BOX 5473","ORANGE","CA",92863,NA,NA,22,"PO BOX 5473, ORANGE, CA, 92863","No_Match",NA,NA,NA,NA
352523,"PO BOX 5476","FLORENCE","SC",29502,NA,NA,23,"PO BOX 5476, FLORENCE, SC, 29502","No_Match",NA,NA,NA,NA
352524,"PO BOX 547643","ORLANDO","FL",32804,NA,NA,24,"PO BOX 547643, ORLANDO, FL, 32804","No_Match",NA,NA,NA,NA
352525,"PO BOX 547683","ORLANDO","FL",32854,NA,NA,25,"PO BOX 547683, ORLANDO, FL, 32854","No_Match",NA,NA,NA,NA
352526,"PO BOX 5477","FARMINGTON","NM",87499,NA,NA,26,"PO BOX 5477, FARMINGTON, NM, 87499","No_Match",NA,NA,NA,NA
352527,"PO BOX 5477","SUN CITY CENTER","FL",33571,NA,NA,27,"PO BOX 5477, SUN CITY CENTER, FL, 33571","No_Match",NA,NA,NA,NA
352528,"PO BOX 5479","RICHMOND","CA",94805,NA,NA,28,"PO BOX 5479, RICHMOND, CA, 94805","No_Match",NA,NA,NA,NA
352529,"PO BOX 548","EUREKA SPRINGS","AR",72632,NA,NA,29,"PO BOX 548, EUREKA SPRINGS, AR, 72632","No_Match",NA,NA,NA,NA
352530,"PO BOX 548","GUSTINE","CA",95322,NA,NA,30,"PO BOX 548, GUSTINE, CA, 95322","No_Match",NA,NA,NA,NA
352531,"PO BOX 548","PILOT KNOB","MO",63663,NA,NA,31,"PO BOX 548, PILOT KNOB, MO, 63663","No_Match",NA,NA,NA,NA
352532,"PO BOX 548","RANCHOS DE TAOS","NM",87557,NA,NA,32,"PO BOX 548, RANCHOS DE TAOS, NM, 87557","No_Match",NA,NA,NA,NA
352533,"PO BOX 548","SPOONER","WI",54801,NA,NA,33,"PO BOX 548, SPOONER, WI, 54801","No_Match",NA,NA,NA,NA
352534,"PO BOX 548/ 597 KILBANE RD","ANDOVER","NY",14806,NA,NA,34,"PO BOX 548/ 597 KILBANE RD, ANDOVER, NY, 14806","No_Match",NA,NA,NA,NA
352535,"PO BOX 5482","JOHNSON CITY","TN",37602,NA,NA,35,"PO BOX 5482, JOHNSON CITY, TN, 37602","No_Match",NA,NA,NA,NA
352536,"PO BOX 5483","SO. SAN FRANCISCO","CA",94083,NA,NA,36,"PO BOX 5483, SO. SAN FRANCISCO, CA, 94083","No_Match",NA,NA,NA,NA
352537,"PO BOX 54831","LEXINGTON","KY",40555,NA,NA,37,"PO BOX 54831, LEXINGTON, KY, 40555","No_Match",NA,NA,NA,NA
352538,"PO BOX 54836","JACKSONVILLE","FL",32245,NA,NA,38,"PO BOX 54836, JACKSONVILLE, FL, 32245","No_Match",NA,NA,NA,NA
352539,"PO BOX 5484","ELGIN","IL",60121,NA,NA,39,"PO BOX 5484, ELGIN, IL, 60121","No_Match",NA,NA,NA,NA
352540,"PO BOX 54842","MESA","AZ",85209,NA,NA,40,"PO BOX 54842, MESA, AZ, 85209","No_Match",NA,NA,NA,NA
352541,"PO BOX 5486","WENATCHEE","WA",98807,NA,NA,41,"PO BOX 5486, WENATCHEE, WA, 98807","No_Match",NA,NA,NA,NA
352542,"PO BOX 5488","WENATCHEE","WA",98807,NA,NA,42,"PO BOX 5488, WENATCHEE, WA, 98807","No_Match",NA,NA,NA,NA
352543,"PO BOX 54884","OKLAHOMA","OK",73154,NA,NA,43,"PO BOX 54884, OKLAHOMA, OK, 73154","No_Match",NA,NA,NA,NA
352544,"PO BOX 549 6804 E HWY 6 SOUTH","HOUSTON","TX",77083,NA,NA,44,"PO BOX 549 6804 E HWY 6 SOUTH, HOUSTON, TX, 77083","No_Match",NA,NA,NA,NA
352545,"PO BOX 549","ARCHER CITY","TX",76351,NA,NA,45,"PO BOX 549, ARCHER CITY, TX, 76351","No_Match",NA,NA,NA,NA
352546,"PO BOX 549","BOWIE","MD",20718,NA,NA,46,"PO BOX 549, BOWIE, MD, 20718","No_Match",NA,NA,NA,NA
352547,"PO BOX 549","CEDARVILLE","CA",96104,NA,NA,47,"PO BOX 549, CEDARVILLE, CA, 96104","No_Match",NA,NA,NA,NA
352548,"PO BOX 549","EAGLE POINT","OR",97524,NA,NA,48,"PO BOX 549, EAGLE POINT, OR, 97524","No_Match",NA,NA,NA,NA
352549,"PO BOX 549","JONESTOWN","PA",17038,NA,NA,49,"PO BOX 549, JONESTOWN, PA, 17038","No_Match",NA,NA,NA,NA
352550,"PO BOX 549","LOMITA","CA",90717,NA,NA,50,"PO BOX 549, LOMITA, CA, 90717","No_Match",NA,NA,NA,NA
352551,"PO BOX 549","MONMOUTH","OR",97361,NA,NA,51,"PO BOX 549, MONMOUTH, OR, 97361","No_Match",NA,NA,NA,NA
352552,"PO BOX 549","PINEDALE","WY",82941,NA,NA,52,"PO BOX 549, PINEDALE, WY, 82941","No_Match",NA,NA,NA,NA
352553,"PO BOX 549","POWAY","CA",92074,NA,NA,53,"PO BOX 549, POWAY, CA, 92074","No_Match",NA,NA,NA,NA
352554,"PO BOX 549","ROSEBURG","OR",97470,NA,NA,54,"PO BOX 549, ROSEBURG, OR, 97470","No_Match",NA,NA,NA,NA
352555,"PO BOX 549","THOREAU","NM",87323,NA,NA,55,"PO BOX 549, THOREAU, NM, 87323","No_Match",NA,NA,NA,NA
352556,"PO BOX 549","VALDOSTA","GA",31603,NA,NA,56,"PO BOX 549, VALDOSTA, GA, 31603","No_Match",NA,NA,NA,NA
352557,"PO BOX 549","WESTPORT","IN",47283,NA,NA,57,"PO BOX 549, WESTPORT, IN, 47283","No_Match",NA,NA,NA,NA
352558,"PO BOX 5492","VALLEJO","CA",94591,NA,NA,58,"PO BOX 5492, VALLEJO, CA, 94591","No_Match",NA,NA,NA,NA
352559,"PO BOX 5493","POLAND","OH",44514,NA,NA,59,"PO BOX 5493, POLAND, OH, 44514","No_Match",NA,NA,NA,NA
352560,"PO BOX 5493","SACRAMENTO","CA",95817,NA,NA,60,"PO BOX 5493, SACRAMENTO, CA, 95817","No_Match",NA,NA,NA,NA
352561,"PO BOX 54931","ATLANTA","GA",30308,NA,NA,61,"PO BOX 54931, ATLANTA, GA, 30308","No_Match",NA,NA,NA,NA
352562,"PO BOX 5494","SACRAMENTO","CA",95827,NA,NA,62,"PO BOX 5494, SACRAMENTO, CA, 95827","No_Match",NA,NA,NA,NA
352563,"PO BOX 54941","HURST","TX",76054,NA,NA,63,"PO BOX 54941, HURST, TX, 76054","No_Match",NA,NA,NA,NA
352564,"PO BOX 55 / 870 WW HIGHWAY","OSCEOLA","MO",64776,NA,NA,64,"PO BOX 55 / 870 WW HIGHWAY, OSCEOLA, MO, 64776","No_Match",NA,NA,NA,NA
352565,"PO BOX 55 110 BRUNO LANE","IMPERIAL","PA",15126,40.4429074760001,-80.2708380509999,65,"PO BOX 55 110 BRUNO LANE, IMPERIAL, PA, 15126","Match","Exact","110 BRUNO LN, IMPERIAL, PA, 15126",51924514,"L"
352566,"PO BOX 55","ABINGDON","MD",21009,NA,NA,66,"PO BOX 55, ABINGDON, MD, 21009","No_Match",NA,NA,NA,NA
352567,"PO BOX 55","ASHLAND","NE",68003,NA,NA,67,"PO BOX 55, ASHLAND, NE, 68003","No_Match",NA,NA,NA,NA
352568,"PO BOX 55","BARSTOW","TX",79719,NA,NA,68,"PO BOX 55, BARSTOW, TX, 79719","No_Match",NA,NA,NA,NA
352569,"PO BOX 55","BIG HILL","KY",40403,NA,NA,69,"PO BOX 55, BIG HILL, KY, 40403","No_Match",NA,NA,NA,NA
352570,"PO BOX 55","CAREY","OH",43316,NA,NA,70,"PO BOX 55, CAREY, OH, 43316","No_Match",NA,NA,NA,NA
352571,"PO BOX 55","CLAREMONT","NH",3743,NA,NA,71,"PO BOX 55, CLAREMONT, NH, 3743","No_Match",NA,NA,NA,NA
352572,"PO BOX 55","COOLVILLE","OH",45723,NA,NA,72,"PO BOX 55, COOLVILLE, OH, 45723","No_Match",NA,NA,NA,NA
352573,"PO BOX 55","CRESTONE","CO",81131,NA,NA,73,"PO BOX 55, CRESTONE, CO, 81131","No_Match",NA,NA,NA,NA
352574,"PO BOX 55","ELLSINORE","MO",63937,NA,NA,74,"PO BOX 55, ELLSINORE, MO, 63937","No_Match",NA,NA,NA,NA
352575,"PO BOX 55","ENFIELD","NH",3748,NA,NA,75,"PO BOX 55, ENFIELD, NH, 3748","No_Match",NA,NA,NA,NA
352576,"PO BOX 55","FAIRHOPE","AL",36533,NA,NA,76,"PO BOX 55, FAIRHOPE, AL, 36533","No_Match",NA,NA,NA,NA
352577,"PO BOX 55","FLORENCE","OR",97439,NA,NA,77,"PO BOX 55, FLORENCE, OR, 97439","No_Match",NA,NA,NA,NA
352578,"PO BOX 55","FREDERICK","MD",21705,NA,NA,78,"PO BOX 55, FREDERICK, MD, 21705","No_Match",NA,NA,NA,NA
352579,"PO BOX 55","FRISCO","TX",75034,NA,NA,79,"PO BOX 55, FRISCO, TX, 75034","No_Match",NA,NA,NA,NA
352580,"PO BOX 55","GRAND RAPIDS","OH",43522,NA,NA,80,"PO BOX 55, GRAND RAPIDS, OH, 43522","No_Match",NA,NA,NA,NA
352581,"PO BOX 55","GRATON","CA",95444,NA,NA,81,"PO BOX 55, GRATON, CA, 95444","No_Match",NA,NA,NA,NA
352582,"PO BOX 55","HARDIN","TX",77561,NA,NA,82,"PO BOX 55, HARDIN, TX, 77561","No_Match",NA,NA,NA,NA
352583,"PO BOX 55","IDALIA","CO",80735,NA,NA,83,"PO BOX 55, IDALIA, CO, 80735","No_Match",NA,NA,NA,NA
352584,"PO BOX 55","KNOX","IN",46534,NA,NA,84,"PO BOX 55, KNOX, IN, 46534","No_Match",NA,NA,NA,NA
352585,"PO BOX 55","LARAMIE","WY",82073,NA,NA,85,"PO BOX 55, LARAMIE, WY, 82073","No_Match",NA,NA,NA,NA
352586,"PO BOX 55","LOMA MAR","CA",94021,NA,NA,86,"PO BOX 55, LOMA MAR, CA, 94021","No_Match",NA,NA,NA,NA
352587,"PO BOX 55","MARCUS","IA",51035,NA,NA,87,"PO BOX 55, MARCUS, IA, 51035","No_Match",NA,NA,NA,NA
352588,"PO BOX 55","MIDDLETOWN","NJ",7748,NA,NA,88,"PO BOX 55, MIDDLETOWN, NJ, 7748","No_Match",NA,NA,NA,NA
352589,"PO BOX 55","MISSOURI CITY","TX",77459,NA,NA,89,"PO BOX 55, MISSOURI CITY, TX, 77459","No_Match",NA,NA,NA,NA
352590,"PO BOX 55","NEW CONCORD","OH",43762,NA,NA,90,"PO BOX 55, NEW CONCORD, OH, 43762","No_Match",NA,NA,NA,NA
352591,"PO BOX 55","NUTLEY","NJ",7110,NA,NA,91,"PO BOX 55, NUTLEY, NJ, 7110","No_Match",NA,NA,NA,NA
352592,"PO BOX 55","OKTAHA","OK",74450,NA,NA,92,"PO BOX 55, OKTAHA, OK, 74450","No_Match",NA,NA,NA,NA
352593,"PO BOX 55","POPLAR RIDGE","NY",13139,NA,NA,93,"PO BOX 55, POPLAR RIDGE, NY, 13139","No_Match",NA,NA,NA,NA
352594,"PO BOX 55","RACINE","WV",25165,NA,NA,94,"PO BOX 55, RACINE, WV, 25165","No_Match",NA,NA,NA,NA
352595,"PO BOX 55","RAND","CO",80473,NA,NA,95,"PO BOX 55, RAND, CO, 80473","No_Match",NA,NA,NA,NA
352596,"PO BOX 55","RINGGOLD","GA",30736,NA,NA,96,"PO BOX 55, RINGGOLD, GA, 30736","No_Match",NA,NA,NA,NA
352597,"PO BOX 55","ROCK VIEW","WV",24880,NA,NA,97,"PO BOX 55, ROCK VIEW, WV, 24880","No_Match",NA,NA,NA,NA
352598,"PO BOX 55","SHORT HILLS","NJ",7078,NA,NA,98,"PO BOX 55, SHORT HILLS, NJ, 7078","No_Match",NA,NA,NA,NA
352599,"PO BOX 55","SISSETON","SD",57262,NA,NA,99,"PO BOX 55, SISSETON, SD, 57262","No_Match",NA,NA,NA,NA
352600,"PO BOX 55","SWAN QUARTER","NC",27885,NA,NA,100,"PO BOX 55, SWAN QUARTER, NC, 27885","No_Match",NA,NA,NA,NA
352601,"PO BOX 550","BELLEVIEW","FL",34421,NA,NA,101,"PO BOX 550, BELLEVIEW, FL, 34421","No_Match",NA,NA,NA,NA
352602,"PO BOX 550","BLAIRSVILLE","GA",30514,NA,NA,102,"PO BOX 550, BLAIRSVILLE, GA, 30514","No_Match",NA,NA,NA,NA
352603,"PO BOX 550","BREMOND","TX",76629,NA,NA,103,"PO BOX 550, BREMOND, TX, 76629","No_Match",NA,NA,NA,NA
352604,"PO BOX 550","BRIDGE CITY","TX",77611,NA,NA,104,"PO BOX 550, BRIDGE CITY, TX, 77611","No_Match",NA,NA,NA,NA
352605,"PO BOX 550","CARUTHERSVILLE","MO",63830,NA,NA,105,"PO BOX 550, CARUTHERSVILLE, MO, 63830","No_Match",NA,NA,NA,NA
352606,"PO BOX 550","CRAIG","AK",99921,NA,NA,106,"PO BOX 550, CRAIG, AK, 99921","No_Match",NA,NA,NA,NA
352607,"PO BOX 550","INKOM","ID",83250,NA,NA,107,"PO BOX 550, INKOM, ID, 83250","No_Match",NA,NA,NA,NA
352608,"PO BOX 550","JONESTOWN","PA",17038,NA,NA,108,"PO BOX 550, JONESTOWN, PA, 17038","No_Match",NA,NA,NA,NA
352609,"PO BOX 550","LAS CRUCES","NM",88004,NA,NA,109,"PO BOX 550, LAS CRUCES, NM, 88004","No_Match",NA,NA,NA,NA
352610,"PO BOX 550","LITTLETON","CO",80160,NA,NA,110,"PO BOX 550, LITTLETON, CO, 80160","No_Match",NA,NA,NA,NA
352611,"PO BOX 550","NORTHOORT","MI",49670,NA,NA,111,"PO BOX 550, NORTHOORT, MI, 49670","No_Match",NA,NA,NA,NA
352612,"PO BOX 550","PERRY","IA",50220,NA,NA,112,"PO BOX 550, PERRY, IA, 50220","No_Match",NA,NA,NA,NA
352613,"PO BOX 550","SOPHIA","WV",25921,NA,NA,113,"PO BOX 550, SOPHIA, WV, 25921","No_Match",NA,NA,NA,NA
352614,"PO BOX 550","WATERBURY","VT",5676,NA,NA,114,"PO BOX 550, WATERBURY, VT, 5676","No_Match",NA,NA,NA,NA
352615,"PO BOX 550","WOODLAKE","CA",93286,NA,NA,115,"PO BOX 550, WOODLAKE, CA, 93286","No_Match",NA,NA,NA,NA
352616,"PO BOX 550026","ORLANDO","FL",32855,NA,NA,116,"PO BOX 550026, ORLANDO, FL, 32855","No_Match",NA,NA,NA,NA
352617,"PO BOX 5501","FALLON","NV",89407,NA,NA,117,"PO BOX 5501, FALLON, NV, 89407","No_Match",NA,NA,NA,NA
352618,"PO BOX 550111","DAVIE","FL",33355,NA,NA,118,"PO BOX 550111, DAVIE, FL, 33355","No_Match",NA,NA,NA,NA
352619,"PO BOX 550116","ORLANDO","FL",32855,NA,NA,119,"PO BOX 550116, ORLANDO, FL, 32855","No_Match",NA,NA,NA,NA
352620,"PO BOX 550193","HOUSTON","TX",77255,NA,NA,120,"PO BOX 550193, HOUSTON, TX, 77255","No_Match",NA,NA,NA,NA
352621,"PO BOX 550222","BIRMINGHAM","AL",35255,NA,NA,121,"PO BOX 550222, BIRMINGHAM, AL, 35255","No_Match",NA,NA,NA,NA
352622,"PO BOX 55023","BIRMINGHAM","AL",35255,NA,NA,122,"PO BOX 55023, BIRMINGHAM, AL, 35255","No_Match",NA,NA,NA,NA
352623,"PO BOX 55028","GASTONIA","NC",28055,NA,NA,123,"PO BOX 55028, GASTONIA, NC, 28055","No_Match",NA,NA,NA,NA
352624,"PO BOX 5503","CHARLOTTESVILLE","VA",22905,NA,NA,124,"PO BOX 5503, CHARLOTTESVILLE, VA, 22905","No_Match",NA,NA,NA,NA
352625,"PO BOX 5503","MANCHESTER","NH",3108,NA,NA,125,"PO BOX 5503, MANCHESTER, NH, 3108","No_Match",NA,NA,NA,NA
352626,"PO BOX 5503","SAN JOSE","CA",95150,NA,NA,126,"PO BOX 5503, SAN JOSE, CA, 95150","No_Match",NA,NA,NA,NA
352627,"PO BOX 550343","BIRMINGHAM","AL",35205,NA,NA,127,"PO BOX 550343, BIRMINGHAM, AL, 35205","No_Match",NA,NA,NA,NA
352628,"PO BOX 550434","GASTONIA","NC",28054,NA,NA,128,"PO BOX 550434, GASTONIA, NC, 28054","No_Match",NA,NA,NA,NA
352629,"PO BOX 5505","EUGENE","OR",97405,NA,NA,129,"PO BOX 5505, EUGENE, OR, 97405","No_Match",NA,NA,NA,NA
352630,"PO BOX 5505","HIGH POINT","NC",27262,NA,NA,130,"PO BOX 5505, HIGH POINT, NC, 27262","No_Match",NA,NA,NA,NA
352631,"PO BOX 5505","PINE MTN CLUB","CA",93222,NA,NA,131,"PO BOX 5505, PINE MTN CLUB, CA, 93222","No_Match",NA,NA,NA,NA
352632,"PO BOX 550551","FORT LAUDERDALE","FL",33355,NA,NA,132,"PO BOX 550551, FORT LAUDERDALE, FL, 33355","No_Match",NA,NA,NA,NA
352633,"PO BOX 5506","ALBANY","NY",12205,NA,NA,133,"PO BOX 5506, ALBANY, NY, 12205","No_Match",NA,NA,NA,NA
352634,"PO BOX 5506","MILWAUKEE","WI",53205,NA,NA,134,"PO BOX 5506, MILWAUKEE, WI, 53205","No_Match",NA,NA,NA,NA
352635,"PO BOX 550632","SOUTH LAKE TAHOE","CA",96155,NA,NA,135,"PO BOX 550632, SOUTH LAKE TAHOE, CA, 96155","No_Match",NA,NA,NA,NA
352636,"PO BOX 550663","HOUSTON","TX",77255,NA,NA,136,"PO BOX 550663, HOUSTON, TX, 77255","No_Match",NA,NA,NA,NA
352637,"PO BOX 55067","RIVERSIDE","CA",92517,NA,NA,137,"PO BOX 55067, RIVERSIDE, CA, 92517","No_Match",NA,NA,NA,NA
352638,"PO BOX 55071 13825","BOSTON","MA",2205,NA,NA,138,"PO BOX 55071 13825, BOSTON, MA, 2205","No_Match",NA,NA,NA,NA
352639,"PO BOX 550741","JACKSONVILLE","FL",32255,NA,NA,139,"PO BOX 550741, JACKSONVILLE, FL, 32255","No_Match",NA,NA,NA,NA
352640,"PO BOX 550921","ATLANTA","GA",30355,NA,NA,140,"PO BOX 550921, ATLANTA, GA, 30355","No_Match",NA,NA,NA,NA
352641,"PO BOX 551","CARLSBAD","NM",88220,NA,NA,141,"PO BOX 551, CARLSBAD, NM, 88220","No_Match",NA,NA,NA,NA
352642,"PO BOX 551","CORSICANA","TX",75151,NA,NA,142,"PO BOX 551, CORSICANA, TX, 75151","No_Match",NA,NA,NA,NA
352643,"PO BOX 551","CUMBERLAND","KY",40823,NA,NA,143,"PO BOX 551, CUMBERLAND, KY, 40823","No_Match",NA,NA,NA,NA
352644,"PO BOX 551","FAITH","NC",28041,NA,NA,144,"PO BOX 551, FAITH, NC, 28041","No_Match",NA,NA,NA,NA
352645,"PO BOX 551","GREENWOOD","SC",29649,NA,NA,145,"PO BOX 551, GREENWOOD, SC, 29649","No_Match",NA,NA,NA,NA
352646,"PO BOX 551","NEW YORK","NY",10030,NA,NA,146,"PO BOX 551, NEW YORK, NY, 10030","No_Match",NA,NA,NA,NA
352647,"PO BOX 551","ROWLETT","TX",75030,NA,NA,147,"PO BOX 551, ROWLETT, TX, 75030","No_Match",NA,NA,NA,NA
352648,"PO BOX 551","SAN LUIS","AZ",85349,NA,NA,148,"PO BOX 551, SAN LUIS, AZ, 85349","No_Match",NA,NA,NA,NA
352649,"PO BOX 551","YORK","SC",29745,NA,NA,149,"PO BOX 551, YORK, SC, 29745","No_Match",NA,NA,NA,NA
352650,"PO BOX 551023","ATLANTA","GA",30355,NA,NA,150,"PO BOX 551023, ATLANTA, GA, 30355","No_Match",NA,NA,NA,NA
352651,"PO BOX 551062","INDIANAPOLIS","IN",46205,NA,NA,151,"PO BOX 551062, INDIANAPOLIS, IN, 46205","No_Match",NA,NA,NA,NA
352652,"PO BOX 5512","WHITEFISH","MT",59937,NA,NA,152,"PO BOX 5512, WHITEFISH, MT, 59937","No_Match",NA,NA,NA,NA
352653,"PO BOX 551212","JACKSONVILLE","FL",32215,NA,NA,153,"PO BOX 551212, JACKSONVILLE, FL, 32215","No_Match",NA,NA,NA,NA
352654,"PO BOX 55122","WASHINGTON","DC",20040,NA,NA,154,"PO BOX 55122, WASHINGTON, DC, 20040","No_Match",NA,NA,NA,NA
352655,"PO BOX 551260","JACKSONVILLE","FL",32255,NA,NA,155,"PO BOX 551260, JACKSONVILLE, FL, 32255","No_Match",NA,NA,NA,NA
352656,"PO BOX 5513","KATY","TX",77449,NA,NA,156,"PO BOX 5513, KATY, TX, 77449","No_Match",NA,NA,NA,NA
352657,"PO BOX 5513","PALM SPRINGS","CA",92263,NA,NA,157,"PO BOX 5513, PALM SPRINGS, CA, 92263","No_Match",NA,NA,NA,NA
352658,"PO BOX 55132","LITTLE ROCK","AR",72215,NA,NA,158,"PO BOX 55132, LITTLE ROCK, AR, 72215","No_Match",NA,NA,NA,NA
352659,"PO BOX 55134","WASHINGTON","DC",20040,NA,NA,159,"PO BOX 55134, WASHINGTON, DC, 20040","No_Match",NA,NA,NA,NA
352660,"PO BOX 5514","JACKSONVILLE","FL",32247,NA,NA,160,"PO BOX 5514, JACKSONVILLE, FL, 32247","No_Match",NA,NA,NA,NA
352661,"PO BOX 551439","ORLANDO","FL",32855,NA,NA,161,"PO BOX 551439, ORLANDO, FL, 32855","No_Match",NA,NA,NA,NA
352662,"PO BOX 55151","WASHINGTON","DC",20040,NA,NA,162,"PO BOX 55151, WASHINGTON, DC, 20040","No_Match",NA,NA,NA,NA
352663,"PO BOX 55162","BIRMINGHAM","AL",35205,NA,NA,163,"PO BOX 55162, BIRMINGHAM, AL, 35205","No_Match",NA,NA,NA,NA
352664,"PO BOX 55162","LONG BEACH","CA",90805,NA,NA,164,"PO BOX 55162, LONG BEACH, CA, 90805","No_Match",NA,NA,NA,NA
352665,"PO BOX 5517","BURLINGTON","VT",5402,NA,NA,165,"PO BOX 5517, BURLINGTON, VT, 5402","No_Match",NA,NA,NA,NA
352666,"PO BOX 551706","JACKSONVILLE","FL",32255,NA,NA,166,"PO BOX 551706, JACKSONVILLE, FL, 32255","No_Match",NA,NA,NA,NA
352667,"PO BOX 551752","DAVIE","FL",33355,NA,NA,167,"PO BOX 551752, DAVIE, FL, 33355","No_Match",NA,NA,NA,NA
352668,"PO BOX 552","BONDSVILLE","MA",1009,NA,NA,168,"PO BOX 552, BONDSVILLE, MA, 1009","No_Match",NA,NA,NA,NA
352669,"PO BOX 552","BUCHANAN","MI",49107,NA,NA,169,"PO BOX 552, BUCHANAN, MI, 49107","No_Match",NA,NA,NA,NA
352670,"PO BOX 552","COMMERCE","TX",75429,NA,NA,170,"PO BOX 552, COMMERCE, TX, 75429","No_Match",NA,NA,NA,NA
352671,"PO BOX 552","EAST GRAND FORKS","MN",56721,NA,NA,171,"PO BOX 552, EAST GRAND FORKS, MN, 56721","No_Match",NA,NA,NA,NA
352672,"PO BOX 552","FALLSTON","MD",21047,NA,NA,172,"PO BOX 552, FALLSTON, MD, 21047","No_Match",NA,NA,NA,NA
352673,"PO BOX 552","FESTUS","MO",63028,NA,NA,173,"PO BOX 552, FESTUS, MO, 63028","No_Match",NA,NA,NA,NA
352674,"PO BOX 552","INTERLACHEN","FL",32148,NA,NA,174,"PO BOX 552, INTERLACHEN, FL, 32148","No_Match",NA,NA,NA,NA
352675,"PO BOX 552","MAPLE SHADE","NJ",8052,NA,NA,175,"PO BOX 552, MAPLE SHADE, NJ, 8052","No_Match",NA,NA,NA,NA
352676,"PO BOX 552","MARSING","ID",83639,NA,NA,176,"PO BOX 552, MARSING, ID, 83639","No_Match",NA,NA,NA,NA
352677,"PO BOX 552","MONTROSE","PA",18801,NA,NA,177,"PO BOX 552, MONTROSE, PA, 18801","No_Match",NA,NA,NA,NA
352678,"PO BOX 552","NEWARK","CA",94560,NA,NA,178,"PO BOX 552, NEWARK, CA, 94560","No_Match",NA,NA,NA,NA
352679,"PO BOX 552","OAK CREEK","WI",53154,NA,NA,179,"PO BOX 552, OAK CREEK, WI, 53154","No_Match",NA,NA,NA,NA
352680,"PO BOX 552","OAKLEY","UT",84055,NA,NA,180,"PO BOX 552, OAKLEY, UT, 84055","No_Match",NA,NA,NA,NA
352681,"PO BOX 552","OSTEEN","FL",32764,NA,NA,181,"PO BOX 552, OSTEEN, FL, 32764","No_Match",NA,NA,NA,NA
352682,"PO BOX 552","PALO ALTO","CA",94302,NA,NA,182,"PO BOX 552, PALO ALTO, CA, 94302","No_Match",NA,NA,NA,NA
352683,"PO BOX 552","PISCATAWAY","NJ",8854,NA,NA,183,"PO BOX 552, PISCATAWAY, NJ, 8854","No_Match",NA,NA,NA,NA
352684,"PO BOX 552","SOUTH GLASTONBURY","CT",6073,NA,NA,184,"PO BOX 552, SOUTH GLASTONBURY, CT, 6073","No_Match",NA,NA,NA,NA
352685,"PO BOX 552","SOUTHFIELD","MI",48037,NA,NA,185,"PO BOX 552, SOUTHFIELD, MI, 48037","No_Match",NA,NA,NA,NA
352686,"PO BOX 552","ST JOHNSBURY","VT",5819,NA,NA,186,"PO BOX 552, ST JOHNSBURY, VT, 5819","No_Match",NA,NA,NA,NA
352687,"PO BOX 552","VALLEY VIEW","TX",76272,NA,NA,187,"PO BOX 552, VALLEY VIEW, TX, 76272","No_Match",NA,NA,NA,NA
352688,"PO BOX 552","WINSTON","GA",30187,NA,NA,188,"PO BOX 552, WINSTON, GA, 30187","No_Match",NA,NA,NA,NA
352689,"PO BOX 5521","ALBANY","NY",12205,NA,NA,189,"PO BOX 5521, ALBANY, NY, 12205","No_Match",NA,NA,NA,NA
352690,"PO BOX 5521","DELTONA","FL",32728,NA,NA,190,"PO BOX 5521, DELTONA, FL, 32728","No_Match",NA,NA,NA,NA
352691,"PO BOX 5523","PAGOSA SPRINGS","CO",81147,NA,NA,191,"PO BOX 5523, PAGOSA SPRINGS, CO, 81147","No_Match",NA,NA,NA,NA
352692,"PO BOX 5526","OCEANSIDE","CA",92052,NA,NA,192,"PO BOX 5526, OCEANSIDE, CA, 92052","No_Match",NA,NA,NA,NA
352693,"PO BOX 5527","FRISCO","TX",75035,NA,NA,193,"PO BOX 5527, FRISCO, TX, 75035","No_Match",NA,NA,NA,NA
352694,"PO BOX 55284","METAIRIE","LA",70055,NA,NA,194,"PO BOX 55284, METAIRIE, LA, 70055","No_Match",NA,NA,NA,NA
352695,"PO BOX 55287","ATLANTA","GA",30308,NA,NA,195,"PO BOX 55287, ATLANTA, GA, 30308","No_Match",NA,NA,NA,NA
352696,"PO BOX 553","ATMORE","AL",36504,NA,NA,196,"PO BOX 553, ATMORE, AL, 36504","No_Match",NA,NA,NA,NA
352697,"PO BOX 553","COCOA","FL",32923,NA,NA,197,"PO BOX 553, COCOA, FL, 32923","No_Match",NA,NA,NA,NA
352698,"PO BOX 553","COOPERSTOWN","ND",58425,NA,NA,198,"PO BOX 553, COOPERSTOWN, ND, 58425","No_Match",NA,NA,NA,NA
352699,"PO BOX 553","FESTUS","MO",63028,NA,NA,199,"PO BOX 553, FESTUS, MO, 63028","No_Match",NA,NA,NA,NA
352700,"PO BOX 553","GARDNER","KS",66030,NA,NA,200,"PO BOX 553, GARDNER, KS, 66030","No_Match",NA,NA,NA,NA
352701,"PO BOX 553","HORSHAM","SC",19044,NA,NA,201,"PO BOX 553, HORSHAM, SC, 19044","No_Match",NA,NA,NA,NA
352702,"PO BOX 553","JASPER","TX",75951,NA,NA,202,"PO BOX 553, JASPER, TX, 75951","No_Match",NA,NA,NA,NA
352703,"PO BOX 553","KINGSTON","TN",37763,NA,NA,203,"PO BOX 553, KINGSTON, TN, 37763","No_Match",NA,NA,NA,NA
352704,"PO BOX 553","MANTEO","NC",27954,NA,NA,204,"PO BOX 553, MANTEO, NC, 27954","No_Match",NA,NA,NA,NA
352705,"PO BOX 553","PINELLAS PARK","FL",33780,NA,NA,205,"PO BOX 553, PINELLAS PARK, FL, 33780","No_Match",NA,NA,NA,NA
352706,"PO BOX 553","SUGAR CITY","ID",83448,NA,NA,206,"PO BOX 553, SUGAR CITY, ID, 83448","No_Match",NA,NA,NA,NA
352707,"PO BOX 553","TEANECK","NJ",7666,NA,NA,207,"PO BOX 553, TEANECK, NJ, 7666","No_Match",NA,NA,NA,NA
352708,"PO BOX 553","TOMBALL","TX",77377,NA,NA,208,"PO BOX 553, TOMBALL, TX, 77377","No_Match",NA,NA,NA,NA
352709,"PO BOX 553","VICTORIA","MN",55386,NA,NA,209,"PO BOX 553, VICTORIA, MN, 55386","No_Match",NA,NA,NA,NA
352710,"PO BOX 5530","DERWOOD","MD",20855,NA,NA,210,"PO BOX 5530, DERWOOD, MD, 20855","No_Match",NA,NA,NA,NA
352711,"PO BOX 55300","LITTLE ROCK","AR",72215,NA,NA,211,"PO BOX 55300, LITTLE ROCK, AR, 72215","No_Match",NA,NA,NA,NA
352712,"PO BOX 5531","EDMOND","OK",73083,NA,NA,212,"PO BOX 5531, EDMOND, OK, 73083","No_Match",NA,NA,NA,NA
352713,"PO BOX 5532","KINGWOOD","TX",77339,NA,NA,213,"PO BOX 5532, KINGWOOD, TX, 77339","No_Match",NA,NA,NA,NA
352714,"PO BOX 55323","SHORELINE","WA",98155,NA,NA,214,"PO BOX 55323, SHORELINE, WA, 98155","No_Match",NA,NA,NA,NA
352715,"PO BOX 5533","SONORA","CA",95370,NA,NA,215,"PO BOX 5533, SONORA, CA, 95370","No_Match",NA,NA,NA,NA
352716,"PO BOX 5534","PASCO","WA",99302,NA,NA,216,"PO BOX 5534, PASCO, WA, 99302","No_Match",NA,NA,NA,NA
352717,"PO BOX 55344","LEXINGTON","KY",40555,NA,NA,217,"PO BOX 55344, LEXINGTON, KY, 40555","No_Match",NA,NA,NA,NA
352718,"PO BOX 55371","SEATTLE","WA",98155,NA,NA,218,"PO BOX 55371, SEATTLE, WA, 98155","No_Match",NA,NA,NA,NA
352719,"PO BOX 5538","HOPKINS","MN",55343,NA,NA,219,"PO BOX 5538, HOPKINS, MN, 55343","No_Match",NA,NA,NA,NA
352720,"PO BOX 55391","LITTLE ROCK","AR",72215,NA,NA,220,"PO BOX 55391, LITTLE ROCK, AR, 72215","No_Match",NA,NA,NA,NA
352721,"PO BOX 554","ATKINSON","NH",3811,NA,NA,221,"PO BOX 554, ATKINSON, NH, 3811","No_Match",NA,NA,NA,NA
352722,"PO BOX 554","DANVILLE","IN",46122,NA,NA,222,"PO BOX 554, DANVILLE, IN, 46122","No_Match",NA,NA,NA,NA
352723,"PO BOX 554","DURHAM","CA",95938,NA,NA,223,"PO BOX 554, DURHAM, CA, 95938","No_Match",NA,NA,NA,NA
352724,"PO BOX 554","ENKA","NC",28725,NA,NA,224,"PO BOX 554, ENKA, NC, 28725","No_Match",NA,NA,NA,NA
352725,"PO BOX 554","GONZALES","TX",78629,NA,NA,225,"PO BOX 554, GONZALES, TX, 78629","No_Match",NA,NA,NA,NA
352726,"PO BOX 554","GREENVILLE","RI",2828,NA,NA,226,"PO BOX 554, GREENVILLE, RI, 2828","No_Match",NA,NA,NA,NA
352727,"PO BOX 554","KENTON","OH",45810,NA,NA,227,"PO BOX 554, KENTON, OH, 45810","No_Match",NA,NA,NA,NA
352728,"PO BOX 554","KERMAN","CA",93630,NA,NA,228,"PO BOX 554, KERMAN, CA, 93630","No_Match",NA,NA,NA,NA
352729,"PO BOX 554","MCCLEARY","WA",98557,NA,NA,229,"PO BOX 554, MCCLEARY, WA, 98557","No_Match",NA,NA,NA,NA
352730,"PO BOX 554","NORMAN","OK",73069,NA,NA,230,"PO BOX 554, NORMAN, OK, 73069","No_Match",NA,NA,NA,NA
352731,"PO BOX 554","PORT ARTHUR","TX",77641,NA,NA,231,"PO BOX 554, PORT ARTHUR, TX, 77641","No_Match",NA,NA,NA,NA
352732,"PO BOX 554","ROSEVILLE","CA",95678,NA,NA,232,"PO BOX 554, ROSEVILLE, CA, 95678","No_Match",NA,NA,NA,NA
352733,"PO BOX 554","SAINT FRANCISVILLE","LA",70775,NA,NA,233,"PO BOX 554, SAINT FRANCISVILLE, LA, 70775","No_Match",NA,NA,NA,NA
352734,"PO BOX 554","VAUGHN","WA",98394,NA,NA,234,"PO BOX 554, VAUGHN, WA, 98394","No_Match",NA,NA,NA,NA
352735,"PO BOX 554","WINK","TX",79789,NA,NA,235,"PO BOX 554, WINK, TX, 79789","No_Match",NA,NA,NA,NA
352736,"PO BOX 554","YORKVILLE","IL",60560,NA,NA,236,"PO BOX 554, YORKVILLE, IL, 60560","No_Match",NA,NA,NA,NA
352737,"PO BOX 554","ZILLAH","WA",98953,NA,NA,237,"PO BOX 554, ZILLAH, WA, 98953","No_Match",NA,NA,NA,NA
352738,"PO BOX 5541","EUREKA","CA",95502,NA,NA,238,"PO BOX 5541, EUREKA, CA, 95502","No_Match",NA,NA,NA,NA
352739,"PO BOX 5541","SLIDELL","LA",70469,NA,NA,239,"PO BOX 5541, SLIDELL, LA, 70469","No_Match",NA,NA,NA,NA
352740,"PO Box 5541","VICTORIA","TX",77903,NA,NA,240,"PO Box 5541, VICTORIA, TX, 77903","No_Match",NA,NA,NA,NA
352741,"PO BOX 5543","ATLANTA","GA",31107,NA,NA,241,"PO BOX 5543, ATLANTA, GA, 31107","No_Match",NA,NA,NA,NA
352742,"PO BOX 5544","CAPITOL HGTS","MD",20791,NA,NA,242,"PO BOX 5544, CAPITOL HGTS, MD, 20791","No_Match",NA,NA,NA,NA
352743,"PO BOX 5544","LOUISVILLE","KY",40255,NA,NA,243,"PO BOX 5544, LOUISVILLE, KY, 40255","No_Match",NA,NA,NA,NA
352744,"PO BOX 55446","PHOENIX","AZ",85078,NA,NA,244,"PO BOX 55446, PHOENIX, AZ, 85078","No_Match",NA,NA,NA,NA
352745,"PO BOX 5545","RENO","NV",89513,NA,NA,245,"PO BOX 5545, RENO, NV, 89513","No_Match",NA,NA,NA,NA
352746,"PO BOX 55453","ATLANTA","GA",30308,NA,NA,246,"PO BOX 55453, ATLANTA, GA, 30308","No_Match",NA,NA,NA,NA
352747,"PO BOX 55465","BIRMINGHAM","AL",35255,NA,NA,247,"PO BOX 55465, BIRMINGHAM, AL, 35255","No_Match",NA,NA,NA,NA
352748,"PO BOX 5547","BELLA VISTA","AR",72714,NA,NA,248,"PO BOX 5547, BELLA VISTA, AR, 72714","No_Match",NA,NA,NA,NA
352749,"PO BOX 5549","RENO","NV",89513,NA,NA,249,"PO BOX 5549, RENO, NV, 89513","No_Match",NA,NA,NA,NA
352750,"PO BOX 555","BLOOMINGBURG","NY",12721,NA,NA,250,"PO BOX 555, BLOOMINGBURG, NY, 12721","No_Match",NA,NA,NA,NA
352751,"PO BOX 555","BOWLING GREEN","OH",43402,NA,NA,251,"PO BOX 555, BOWLING GREEN, OH, 43402","No_Match",NA,NA,NA,NA
352752,"PO BOX 555","ENGLEWOOD","FL",34295,NA,NA,252,"PO BOX 555, ENGLEWOOD, FL, 34295","No_Match",NA,NA,NA,NA
352753,"PO BOX 555","EVELETH","MN",55734,NA,NA,253,"PO BOX 555, EVELETH, MN, 55734","No_Match",NA,NA,NA,NA
352754,"PO BOX 555","FORT MORGAN","CO",80701,NA,NA,254,"PO BOX 555, FORT MORGAN, CO, 80701","No_Match",NA,NA,NA,NA
352755,"PO BOX 555","GEORGETOWN","CA",95634,NA,NA,255,"PO BOX 555, GEORGETOWN, CA, 95634","No_Match",NA,NA,NA,NA
352756,"PO BOX 555","GUSTINE","CA",95322,NA,NA,256,"PO BOX 555, GUSTINE, CA, 95322","No_Match",NA,NA,NA,NA
352757,"PO BOX 555","HIGHWOOD","IL",60040,NA,NA,257,"PO BOX 555, HIGHWOOD, IL, 60040","No_Match",NA,NA,NA,NA
352758,"PO BOX 555","MOBILE","AL",36601,NA,NA,258,"PO BOX 555, MOBILE, AL, 36601","No_Match",NA,NA,NA,NA
352759,"PO BOX 555","NEW YORK","NY",10026,NA,NA,259,"PO BOX 555, NEW YORK, NY, 10026","No_Match",NA,NA,NA,NA
352760,"PO BOX 555","PINE PLAINS","NY",12567,NA,NA,260,"PO BOX 555, PINE PLAINS, NY, 12567","No_Match",NA,NA,NA,NA
352761,"PO BOX 555","POTTSBORO","TX",75076,NA,NA,261,"PO BOX 555, POTTSBORO, TX, 75076","No_Match",NA,NA,NA,NA
352762,"PO BOX 555","ROCKVILLE CENTRE","NY",11570,NA,NA,262,"PO BOX 555, ROCKVILLE CENTRE, NY, 11570","No_Match",NA,NA,NA,NA
352763,"PO BOX 555","ROCKVILLE CENTRE","NY",11571,NA,NA,263,"PO BOX 555, ROCKVILLE CENTRE, NY, 11571","No_Match",NA,NA,NA,NA
352764,"PO BOX 555","SKIDMORE","TX",78389,NA,NA,264,"PO BOX 555, SKIDMORE, TX, 78389","No_Match",NA,NA,NA,NA
352765,"PO BOX 555","TRUMANSBURG","NY",14886,NA,NA,265,"PO BOX 555, TRUMANSBURG, NY, 14886","No_Match",NA,NA,NA,NA
352766,"PO BOX 55502","ATLANTA","GA",30308,NA,NA,266,"PO BOX 55502, ATLANTA, GA, 30308","No_Match",NA,NA,NA,NA
352767,"PO BOX 55507","LITTLE ROCK","AR",72215,NA,NA,267,"PO BOX 55507, LITTLE ROCK, AR, 72215","No_Match",NA,NA,NA,NA
352768,"PO BOX 55512","VALENCIA","CA",91385,NA,NA,268,"PO BOX 55512, VALENCIA, CA, 91385","No_Match",NA,NA,NA,NA
352769,"PO BOX 5552","ALBANY","NY",12205,NA,NA,269,"PO BOX 5552, ALBANY, NY, 12205","No_Match",NA,NA,NA,NA
352770,"PO BOX 555243","CAMP PENDLETON","CA",92055,NA,NA,270,"PO BOX 555243, CAMP PENDLETON, CA, 92055","No_Match",NA,NA,NA,NA
352771,"PO BOX 5554","OCALA","FL",34478,NA,NA,271,"PO BOX 5554, OCALA, FL, 34478","No_Match",NA,NA,NA,NA
352772,"PO BOX 55558","LITTLE ROCK","AR",72215,NA,NA,272,"PO BOX 55558, LITTLE ROCK, AR, 72215","No_Match",NA,NA,NA,NA
352773,"PO BOX 5556","CLEVELAND","OH",44101,NA,NA,273,"PO BOX 5556, CLEVELAND, OH, 44101","No_Match",NA,NA,NA,NA
352774,"PO BOX 5556","EVERETT","WA",98206,NA,NA,274,"PO BOX 5556, EVERETT, WA, 98206","No_Match",NA,NA,NA,NA
352775,"PO BOX 5557","WEST COLUMBIA","SC",29171,NA,NA,275,"PO BOX 5557, WEST COLUMBIA, SC, 29171","No_Match",NA,NA,NA,NA
352776,"PO BOX 55571","LEXINGTON","KY",40555,NA,NA,276,"PO BOX 55571, LEXINGTON, KY, 40555","No_Match",NA,NA,NA,NA
352777,"PO BOX 5558","HILO","HI",96720,NA,NA,277,"PO BOX 5558, HILO, HI, 96720","No_Match",NA,NA,NA,NA
352778,"PO BOX 55586","JACKSON","MS",39296,NA,NA,278,"PO BOX 55586, JACKSON, MS, 39296","No_Match",NA,NA,NA,NA
352779,"PO BOX 555945","ORLANDO","FL",32855,NA,NA,279,"PO BOX 555945, ORLANDO, FL, 32855","No_Match",NA,NA,NA,NA
352780,"PO BOX 556   544D NORTH CENTER ST","LAGRANGE","OH",44050,NA,NA,280,"PO BOX 556   544D NORTH CENTER ST, LAGRANGE, OH, 44050","Tie",NA,NA,NA,NA
352781,"PO BOX 556","BOONEVILLE","AR",72927,NA,NA,281,"PO BOX 556, BOONEVILLE, AR, 72927","No_Match",NA,NA,NA,NA
352782,"PO BOX 556","CHRISTOVAL","TX",76935,NA,NA,282,"PO BOX 556, CHRISTOVAL, TX, 76935","No_Match",NA,NA,NA,NA
352783,"PO BOX 556","HINESBURG","VT",5461,NA,NA,283,"PO BOX 556, HINESBURG, VT, 5461","No_Match",NA,NA,NA,NA
352784,"PO BOX 556","LOCUST GROVE","GA",30248,NA,NA,284,"PO BOX 556, LOCUST GROVE, GA, 30248","No_Match",NA,NA,NA,NA
352785,"PO BOX 556","LONDONDERRY","NH",3053,NA,NA,285,"PO BOX 556, LONDONDERRY, NH, 3053","No_Match",NA,NA,NA,NA
352786,"PO BOX 556","SOMERS POINT","NJ",8244,NA,NA,286,"PO BOX 556, SOMERS POINT, NJ, 8244","No_Match",NA,NA,NA,NA
352787,"PO BOX 556","WEST WARREN","MA",1092,NA,NA,287,"PO BOX 556, WEST WARREN, MA, 1092","No_Match",NA,NA,NA,NA
352788,"PO BOX 55607","ALTANTA","GA",30308,NA,NA,288,"PO BOX 55607, ALTANTA, GA, 30308","No_Match",NA,NA,NA,NA
352789,"PO BOX 5561","LOUISVILLE","KY",40255,NA,NA,289,"PO BOX 5561, LOUISVILLE, KY, 40255","No_Match",NA,NA,NA,NA
352790,"PO BOX 5561","NAPERVILLE","IL",60567,NA,NA,290,"PO BOX 5561, NAPERVILLE, IL, 60567","No_Match",NA,NA,NA,NA
352791,"PO BOX 55625","HOUSTON","TX",77255,NA,NA,291,"PO BOX 55625, HOUSTON, TX, 77255","No_Match",NA,NA,NA,NA
352792,"PO BOX 55641","TRENTON","NJ",8638,NA,NA,292,"PO BOX 55641, TRENTON, NJ, 8638","No_Match",NA,NA,NA,NA
352793,"PO BOX 5565","GAINESVILLE","GA",30504,NA,NA,293,"PO BOX 5565, GAINESVILLE, GA, 30504","No_Match",NA,NA,NA,NA
352794,"PO BOX 5565","TALLAHASSEE","FL",32314,NA,NA,294,"PO BOX 5565, TALLAHASSEE, FL, 32314","No_Match",NA,NA,NA,NA
352795,"PO BOX 5566","CARY","NC",27512,NA,NA,295,"PO BOX 5566, CARY, NC, 27512","No_Match",NA,NA,NA,NA
352796,"PO BOX 5567","FRISCO","CO",80443,NA,NA,296,"PO BOX 5567, FRISCO, CO, 80443","No_Match",NA,NA,NA,NA
352797,"PO BOX 5568","MARYVILLE","TN",37802,NA,NA,297,"PO BOX 5568, MARYVILLE, TN, 37802","No_Match",NA,NA,NA,NA
352798,"PO BOX 557","AQUEBOGUE","NY",11931,NA,NA,298,"PO BOX 557, AQUEBOGUE, NY, 11931","No_Match",NA,NA,NA,NA
352799,"PO BOX 557","BOALSBURG","PA",16827,NA,NA,299,"PO BOX 557, BOALSBURG, PA, 16827","No_Match",NA,NA,NA,NA
352800,"PO BOX 557","DENVER CITY","TX",79323,NA,NA,300,"PO BOX 557, DENVER CITY, TX, 79323","No_Match",NA,NA,NA,NA
352801,"PO BOX 557","EUREKA","NV",89316,NA,NA,301,"PO BOX 557, EUREKA, NV, 89316","No_Match",NA,NA,NA,NA
352802,"PO BOX 557","EVERETT","WA",98206,NA,NA,302,"PO BOX 557, EVERETT, WA, 98206","No_Match",NA,NA,NA,NA
352803,"PO BOX 557","GROVETOWN","GA",30813,NA,NA,303,"PO BOX 557, GROVETOWN, GA, 30813","No_Match",NA,NA,NA,NA
352804,"PO BOX 557","MADISON","NC",27025,NA,NA,304,"PO BOX 557, MADISON, NC, 27025","No_Match",NA,NA,NA,NA
352805,"PO BOX 557","RUSH SPRINGS","OK",73082,NA,NA,305,"PO BOX 557, RUSH SPRINGS, OK, 73082","No_Match",NA,NA,NA,NA
352806,"PO BOX 557064","MIAMI","FL",33255,NA,NA,306,"PO BOX 557064, MIAMI, FL, 33255","No_Match",NA,NA,NA,NA
352807,"PO BOX 5571","TAHOE CITY","CA",96145,NA,NA,307,"PO BOX 5571, TAHOE CITY, CA, 96145","No_Match",NA,NA,NA,NA
352808,"PO BOX 5571","YBOR CITY","FL",33675,NA,NA,308,"PO BOX 5571, YBOR CITY, FL, 33675","No_Match",NA,NA,NA,NA
352809,"PO BOX 557565","MIAMI","FL",33255,NA,NA,309,"PO BOX 557565, MIAMI, FL, 33255","No_Match",NA,NA,NA,NA
352810,"PO BOX 5577","VICTORIA","TX",77903,NA,NA,310,"PO BOX 5577, VICTORIA, TX, 77903","No_Match",NA,NA,NA,NA
352811,"PO BOX 55771","SHORELINE","WA",98155,NA,NA,311,"PO BOX 55771, SHORELINE, WA, 98155","No_Match",NA,NA,NA,NA
352812,"PO BOX 557819","CHICAGO","IL",60655,NA,NA,312,"PO BOX 557819, CHICAGO, IL, 60655","No_Match",NA,NA,NA,NA
352813,"PO BOX 558","CLINTON","CT",6413,NA,NA,313,"PO BOX 558, CLINTON, CT, 6413","No_Match",NA,NA,NA,NA
352814,"PO BOX 558","KNIGHTDALE","NC",27545,NA,NA,314,"PO BOX 558, KNIGHTDALE, NC, 27545","No_Match",NA,NA,NA,NA
352815,"PO BOX 558","LAIRD HILL","TX",75666,NA,NA,315,"PO BOX 558, LAIRD HILL, TX, 75666","No_Match",NA,NA,NA,NA
352816,"PO BOX 558","LENOX","GA",31637,NA,NA,316,"PO BOX 558, LENOX, GA, 31637","No_Match",NA,NA,NA,NA
352817,"PO BOX 558","LONDON","OH",43140,NA,NA,317,"PO BOX 558, LONDON, OH, 43140","No_Match",NA,NA,NA,NA
352818,"PO BOX 558","PALM SPRINGS","CA",92264,NA,NA,318,"PO BOX 558, PALM SPRINGS, CA, 92264","No_Match",NA,NA,NA,NA
352819,"PO BOX 558","REDWAY","CA",95560,NA,NA,319,"PO BOX 558, REDWAY, CA, 95560","No_Match",NA,NA,NA,NA
352820,"PO BOX 558","TONGANOXIE","KS",66086,NA,NA,320,"PO BOX 558, TONGANOXIE, KS, 66086","No_Match",NA,NA,NA,NA
352821,"PO BOX 55802","WASHINGTON","DC",20040,NA,NA,321,"PO BOX 55802, WASHINGTON, DC, 20040","No_Match",NA,NA,NA,NA
352822,"PO BOX 5582","VICTORIA","TX",77903,NA,NA,322,"PO BOX 5582, VICTORIA, TX, 77903","No_Match",NA,NA,NA,NA
352823,"PO BOX 558593","MIAMI","FL",33255,NA,NA,323,"PO BOX 558593, MIAMI, FL, 33255","No_Match",NA,NA,NA,NA
352824,"PO BOX 5586","FREDERICKSBURG","VA",22406,NA,NA,324,"PO BOX 5586, FREDERICKSBURG, VA, 22406","No_Match",NA,NA,NA,NA
352825,"PO BOX 5588","SANTA FE","NM",87502,NA,NA,325,"PO BOX 5588, SANTA FE, NM, 87502","No_Match",NA,NA,NA,NA
352826,"PO BOX 55883","ST PETERSBURG","FL",33732,NA,NA,326,"PO BOX 55883, ST PETERSBURG, FL, 33732","No_Match",NA,NA,NA,NA
352827,"PO BOX 559","ADA","MI",49301,NA,NA,327,"PO BOX 559, ADA, MI, 49301","No_Match",NA,NA,NA,NA
352828,"PO BOX 559","BRITTON","SD",57430,NA,NA,328,"PO BOX 559, BRITTON, SD, 57430","No_Match",NA,NA,NA,NA
352829,"PO BOX 559","ITASCA","IL",60143,NA,NA,329,"PO BOX 559, ITASCA, IL, 60143","No_Match",NA,NA,NA,NA
352830,"PO BOX 559","PARISHVILLE","NY",13672,NA,NA,330,"PO BOX 559, PARISHVILLE, NY, 13672","No_Match",NA,NA,NA,NA
352831,"PO BOX 559","PINOLE","CA",94564,NA,NA,331,"PO BOX 559, PINOLE, CA, 94564","No_Match",NA,NA,NA,NA
352832,"PO BOX 559","ROSELAND","LA",70456,NA,NA,332,"PO BOX 559, ROSELAND, LA, 70456","No_Match",NA,NA,NA,NA
352833,"PO BOX 559","VESTAL","NY",13851,NA,NA,333,"PO BOX 559, VESTAL, NY, 13851","No_Match",NA,NA,NA,NA
352834,"PO BOX 5591","BEND","OR",97708,NA,NA,334,"PO BOX 5591, BEND, OR, 97708","No_Match",NA,NA,NA,NA
352835,"PO BOX 5591","PORTLAND","OR",97228,NA,NA,335,"PO BOX 5591, PORTLAND, OR, 97228","No_Match",NA,NA,NA,NA
352836,"PO BOX 55923","INDIANAPOLIS","IN",46205,NA,NA,336,"PO BOX 55923, INDIANAPOLIS, IN, 46205","No_Match",NA,NA,NA,NA
352837,"PO BOX 55924","BIRMINGHAM","AL",35255,NA,NA,337,"PO BOX 55924, BIRMINGHAM, AL, 35255","No_Match",NA,NA,NA,NA
352838,"PO BOX 5593","LAKELAND","FL",33807,NA,NA,338,"PO BOX 5593, LAKELAND, FL, 33807","No_Match",NA,NA,NA,NA
352839,"PO BOX 5595","BUENA PARK","CA",90622,NA,NA,339,"PO BOX 5595, BUENA PARK, CA, 90622","No_Match",NA,NA,NA,NA
352840,"PO BOX 5598","WALNUT CREEK","CA",94596,NA,NA,340,"PO BOX 5598, WALNUT CREEK, CA, 94596","No_Match",NA,NA,NA,NA
352841,"PO BOX 55995","NORTH POLE","AK",99705,NA,NA,341,"PO BOX 55995, NORTH POLE, AK, 99705","No_Match",NA,NA,NA,NA
352842,"PO BOX 56 681 BROADWAY","RAYNHAM","MA",2768,NA,NA,342,"PO BOX 56 681 BROADWAY, RAYNHAM, MA, 2768","No_Match",NA,NA,NA,NA
352843,"PO BOX 56-0237","MIAMI","FL",33256,NA,NA,343,"PO BOX 56-0237, MIAMI, FL, 33256","No_Match",NA,NA,NA,NA
352844,"PO BOX 56","AHOSKIE","NC",27910,NA,NA,344,"PO BOX 56, AHOSKIE, NC, 27910","No_Match",NA,NA,NA,NA
352845,"PO BOX 56","BANQUETE","TX",78339,NA,NA,345,"PO BOX 56, BANQUETE, TX, 78339","No_Match",NA,NA,NA,NA
352846,"PO BOX 56","BLACK EARTH","WI",53515,NA,NA,346,"PO BOX 56, BLACK EARTH, WI, 53515","No_Match",NA,NA,NA,NA
352847,"PO BOX 56","BROWNFIELD","ME",4010,NA,NA,347,"PO BOX 56, BROWNFIELD, ME, 4010","No_Match",NA,NA,NA,NA
352848,"PO BOX 56","CENTRAL ISLIP","NY",11722,NA,NA,348,"PO BOX 56, CENTRAL ISLIP, NY, 11722","No_Match",NA,NA,NA,NA
352849,"PO BOX 56","CHESTERTOWN","NY",12817,NA,NA,349,"PO BOX 56, CHESTERTOWN, NY, 12817","No_Match",NA,NA,NA,NA
352850,"PO BOX 56","CINCINNATI","OH",45201,NA,NA,350,"PO BOX 56, CINCINNATI, OH, 45201","No_Match",NA,NA,NA,NA
352851,"PO BOX 56","CIRCLEVILLE","WV",26804,NA,NA,351,"PO BOX 56, CIRCLEVILLE, WV, 26804","No_Match",NA,NA,NA,NA
352852,"PO BOX 56","COOS BAY","OR",97420,NA,NA,352,"PO BOX 56, COOS BAY, OR, 97420","No_Match",NA,NA,NA,NA
352853,"PO BOX 56","CRAWFORD","GA",30630,NA,NA,353,"PO BOX 56, CRAWFORD, GA, 30630","No_Match",NA,NA,NA,NA
352854,"PO BOX 56","DANESE","WV",25831,NA,NA,354,"PO BOX 56, DANESE, WV, 25831","No_Match",NA,NA,NA,NA
352855,"PO BOX 56","DEKALB","TX",75559,NA,NA,355,"PO BOX 56, DEKALB, TX, 75559","No_Match",NA,NA,NA,NA
352856,"PO BOX 56","DELTON","MI",49046,NA,NA,356,"PO BOX 56, DELTON, MI, 49046","No_Match",NA,NA,NA,NA
352857,"PO BOX 56","FALCON","NC",28342,NA,NA,357,"PO BOX 56, FALCON, NC, 28342","No_Match",NA,NA,NA,NA
352858,"PO BOX 56","FALL RIVER MILLS","CA",96028,NA,NA,358,"PO BOX 56, FALL RIVER MILLS, CA, 96028","No_Match",NA,NA,NA,NA
352859,"PO BOX 56","FORT ROCK","OR",97735,NA,NA,359,"PO BOX 56, FORT ROCK, OR, 97735","No_Match",NA,NA,NA,NA
352860,"PO BOX 56","FREMONT","MI",49412,NA,NA,360,"PO BOX 56, FREMONT, MI, 49412","No_Match",NA,NA,NA,NA
352861,"PO BOX 56","GRAFTON","NH",3240,NA,NA,361,"PO BOX 56, GRAFTON, NH, 3240","No_Match",NA,NA,NA,NA
352862,"PO BOX 56","GREENSBURG","KY",42743,NA,NA,362,"PO BOX 56, GREENSBURG, KY, 42743","No_Match",NA,NA,NA,NA
352863,"PO BOX 56","HIBERNIA","NJ",7842,NA,NA,363,"PO BOX 56, HIBERNIA, NJ, 7842","No_Match",NA,NA,NA,NA
352864,"PO BOX 56","HICKORY","KY",42051,NA,NA,364,"PO BOX 56, HICKORY, KY, 42051","No_Match",NA,NA,NA,NA
352865,"PO BOX 56","ISLESFORD","ME",4646,NA,NA,365,"PO BOX 56, ISLESFORD, ME, 4646","No_Match",NA,NA,NA,NA
352866,"PO BOX 56","KILN","MS",39556,NA,NA,366,"PO BOX 56, KILN, MS, 39556","No_Match",NA,NA,NA,NA
352867,"PO BOX 56","LYNDON","KS",66451,NA,NA,367,"PO BOX 56, LYNDON, KS, 66451","No_Match",NA,NA,NA,NA
352868,"PO BOX 56","MANOR","TX",78653,NA,NA,368,"PO BOX 56, MANOR, TX, 78653","No_Match",NA,NA,NA,NA
352869,"PO BOX 56","NEW RIEGEL","OH",44853,NA,NA,369,"PO BOX 56, NEW RIEGEL, OH, 44853","No_Match",NA,NA,NA,NA
352870,"PO BOX 56","NEW YORK","NY",10276,NA,NA,370,"PO BOX 56, NEW YORK, NY, 10276","No_Match",NA,NA,NA,NA
352871,"PO BOX 56","OXFORD","GA",30054,NA,NA,371,"PO BOX 56, OXFORD, GA, 30054","No_Match",NA,NA,NA,NA
352872,"PO BOX 56","PARIS","ME",4271,NA,NA,372,"PO BOX 56, PARIS, ME, 4271","No_Match",NA,NA,NA,NA
352873,"PO BOX 56","PINE GROVE","WV",26419,NA,NA,373,"PO BOX 56, PINE GROVE, WV, 26419","No_Match",NA,NA,NA,NA
352874,"PO BOX 56","ROLESVILLE","NC",27571,NA,NA,374,"PO BOX 56, ROLESVILLE, NC, 27571","No_Match",NA,NA,NA,NA
352875,"PO BOX 56","ROSE HILL","NC",28458,NA,NA,375,"PO BOX 56, ROSE HILL, NC, 28458","No_Match",NA,NA,NA,NA
352876,"PO BOX 56","SENOIA","GA",30276,NA,NA,376,"PO BOX 56, SENOIA, GA, 30276","No_Match",NA,NA,NA,NA
352877,"PO BOX 56","SOUTH ENGLISH","IA",52335,NA,NA,377,"PO BOX 56, SOUTH ENGLISH, IA, 52335","No_Match",NA,NA,NA,NA
352878,"PO BOX 56","WINTERSET","IA",50273,NA,NA,378,"PO BOX 56, WINTERSET, IA, 50273","No_Match",NA,NA,NA,NA
352879,"PO BOX 560","IMPERIAL","PA",15126,NA,NA,379,"PO BOX 560, IMPERIAL, PA, 15126","No_Match",NA,NA,NA,NA
352880,"PO BOX 560","OSCEOLA","WI",54020,NA,NA,380,"PO BOX 560, OSCEOLA, WI, 54020","No_Match",NA,NA,NA,NA
352881,"PO BOX 560","WINDERMERE","FL",34786,NA,NA,381,"PO BOX 560, WINDERMERE, FL, 34786","No_Match",NA,NA,NA,NA
352882,"PO BOX 560","WRIGHTWOOD","CA",92397,NA,NA,382,"PO BOX 560, WRIGHTWOOD, CA, 92397","No_Match",NA,NA,NA,NA
352883,"PO BOX 560078","SCIPIO","UT",84656,NA,NA,383,"PO BOX 560078, SCIPIO, UT, 84656","No_Match",NA,NA,NA,NA
352884,"PO BOX 560083","ROCKLEDGE","FL",32956,NA,NA,384,"PO BOX 560083, ROCKLEDGE, FL, 32956","No_Match",NA,NA,NA,NA
352885,"PO BOX 560084","ROCKLEDGE","FL",32956,NA,NA,385,"PO BOX 560084, ROCKLEDGE, FL, 32956","No_Match",NA,NA,NA,NA
352886,"PO BOX 5601","SANTA MONICA","CA",90409,NA,NA,386,"PO BOX 5601, SANTA MONICA, CA, 90409","No_Match",NA,NA,NA,NA
352887,"PO BOX 5601","SUN CITY CENTER","FL",33571,NA,NA,387,"PO BOX 5601, SUN CITY CENTER, FL, 33571","No_Match",NA,NA,NA,NA
352888,"PO BOX 56012","RIVERSIDE","CA",92517,NA,NA,388,"PO BOX 56012, RIVERSIDE, CA, 92517","No_Match",NA,NA,NA,NA
352889,"PO BOX 560176","MEDFORD","MA",2156,NA,NA,389,"PO BOX 560176, MEDFORD, MA, 2156","No_Match",NA,NA,NA,NA
352890,"PO BOX 56020","BAYAMON","PR",960,NA,NA,390,"PO BOX 56020, BAYAMON, PR, 960","No_Match",NA,NA,NA,NA
352891,"PO BOX 560201","VIERA","FL",32956,NA,NA,391,"PO BOX 560201, VIERA, FL, 32956","No_Match",NA,NA,NA,NA
352892,"PO BOX 560280","MIAMI","FL",33256,NA,NA,392,"PO BOX 560280, MIAMI, FL, 33256","No_Match",NA,NA,NA,NA
352893,"PO BOX 5603","BIRMINGHAM","AL",35207,NA,NA,393,"PO BOX 5603, BIRMINGHAM, AL, 35207","No_Match",NA,NA,NA,NA
352894,"PO BOX 5603","SCOTTSDALE","AZ",85261,NA,NA,394,"PO BOX 5603, SCOTTSDALE, AZ, 85261","No_Match",NA,NA,NA,NA
352895,"PO BOX 56034","INDIANAPOLIS","IN",46256,NA,NA,395,"PO BOX 56034, INDIANAPOLIS, IN, 46256","No_Match",NA,NA,NA,NA
352896,"PO BOX 56035","NORTH POLE","AK",99705,NA,NA,396,"PO BOX 56035, NORTH POLE, AK, 99705","No_Match",NA,NA,NA,NA
352897,"PO BOX 5604","SALEM","OR",97304,NA,NA,397,"PO BOX 5604, SALEM, OR, 97304","No_Match",NA,NA,NA,NA
352898,"PO BOX 56041","LITTLE ROCK","AR",72215,NA,NA,398,"PO BOX 56041, LITTLE ROCK, AR, 72215","No_Match",NA,NA,NA,NA
352899,"PO BOX 560459","MIAMI","FL",33256,NA,NA,399,"PO BOX 560459, MIAMI, FL, 33256","No_Match",NA,NA,NA,NA
352900,"PO BOX 560481","THE COLONY","TX",75056,NA,NA,400,"PO BOX 560481, THE COLONY, TX, 75056","No_Match",NA,NA,NA,NA
352901,"PO BOX 560482","ORLANDO","FL",32856,NA,NA,401,"PO BOX 560482, ORLANDO, FL, 32856","No_Match",NA,NA,NA,NA
352902,"PO BOX 56056","LOS ANGELES","CA",90056,NA,NA,402,"PO BOX 56056, LOS ANGELES, CA, 90056","No_Match",NA,NA,NA,NA
352903,"PO BOX 560584","MIAMI","FL",33256,NA,NA,403,"PO BOX 560584, MIAMI, FL, 33256","No_Match",NA,NA,NA,NA
352904,"PO BOX 560594","ORLANDO","FL",32856,NA,NA,404,"PO BOX 560594, ORLANDO, FL, 32856","No_Match",NA,NA,NA,NA
352905,"PO BOX 5606","SALISBURY","MA",1952,NA,NA,405,"PO BOX 5606, SALISBURY, MA, 1952","No_Match",NA,NA,NA,NA
352906,"PO BOX 561 12012 NE 150H CIR","BRUSH PRAIRIE","WA",98606,NA,NA,406,"PO BOX 561 12012 NE 150H CIR, BRUSH PRAIRIE, WA, 98606","No_Match",NA,NA,NA,NA
352907,"PO BOX 561","CARL JUNCTION","MO",64834,NA,NA,407,"PO BOX 561, CARL JUNCTION, MO, 64834","No_Match",NA,NA,NA,NA
352908,"PO BOX 561","CEDAR CREEK","TX",78612,NA,NA,408,"PO BOX 561, CEDAR CREEK, TX, 78612","No_Match",NA,NA,NA,NA
352909,"PO BOX 561","CONNEAUT","OH",44030,NA,NA,409,"PO BOX 561, CONNEAUT, OH, 44030","No_Match",NA,NA,NA,NA
352910,"PO BOX 561","CROSBYTON","TX",79322,NA,NA,410,"PO BOX 561, CROSBYTON, TX, 79322","No_Match",NA,NA,NA,NA
352911,"PO BOX 561","FREDERICK","MD",21701,NA,NA,411,"PO BOX 561, FREDERICK, MD, 21701","No_Match",NA,NA,NA,NA
352912,"PO BOX 561","HARVARD","IL",60033,NA,NA,412,"PO BOX 561, HARVARD, IL, 60033","No_Match",NA,NA,NA,NA
352913,"PO BOX 561","PLANKINTON","SD",57368,NA,NA,413,"PO BOX 561, PLANKINTON, SD, 57368","No_Match",NA,NA,NA,NA
352914,"PO BOX 561","POULSBO","WA",98370,NA,NA,414,"PO BOX 561, POULSBO, WA, 98370","No_Match",NA,NA,NA,NA
352915,"PO BOX 561","REEDLEY","CA",93654,NA,NA,415,"PO BOX 561, REEDLEY, CA, 93654","No_Match",NA,NA,NA,NA
352916,"PO BOX 561","SAHUARITA","AZ",85629,NA,NA,416,"PO BOX 561, SAHUARITA, AZ, 85629","No_Match",NA,NA,NA,NA
352917,"PO BOX 561","ST. CLAIRSVILLE","OH",43950,NA,NA,417,"PO BOX 561, ST. CLAIRSVILLE, OH, 43950","No_Match",NA,NA,NA,NA
352918,"PO BOX 561","STOWE","VT",5672,NA,NA,418,"PO BOX 561, STOWE, VT, 5672","No_Match",NA,NA,NA,NA
352919,"PO BOX 561","WASHINGTON","IN",47501,NA,NA,419,"PO BOX 561, WASHINGTON, IN, 47501","No_Match",NA,NA,NA,NA
352920,"PO BOX 56118","LOS ANGELES","CA",90056,NA,NA,420,"PO BOX 56118, LOS ANGELES, CA, 90056","No_Match",NA,NA,NA,NA
352921,"PO BOX 5613","OLD BRIDGE","NJ",8857,NA,NA,421,"PO BOX 5613, OLD BRIDGE, NJ, 8857","No_Match",NA,NA,NA,NA
352922,"PO BOX 5613","SPRING HILL","FL",34611,NA,NA,422,"PO BOX 5613, SPRING HILL, FL, 34611","No_Match",NA,NA,NA,NA
352923,"PO BOX 561358","ROCKLEDGE","FL",32956,NA,NA,423,"PO BOX 561358, ROCKLEDGE, FL, 32956","No_Match",NA,NA,NA,NA
352924,"PO BOX 561545","ROCKLEDGE","FL",32956,NA,NA,424,"PO BOX 561545, ROCKLEDGE, FL, 32956","No_Match",NA,NA,NA,NA
352925,"PO BOX 561566","CHARLOTTE","NC",28216,NA,NA,425,"PO BOX 561566, CHARLOTTE, NC, 28216","No_Match",NA,NA,NA,NA
352926,"PO BOX 5616","OCALA","FL",34478,NA,NA,426,"PO BOX 5616, OCALA, FL, 34478","No_Match",NA,NA,NA,NA
352927,"PO BOX 56162","VIRGINIA BEACH","VA",23456,NA,NA,427,"PO BOX 56162, VIRGINIA BEACH, VA, 23456","No_Match",NA,NA,NA,NA
352928,"PO BOX 5616645","CHARLOTTE","NC",28256,NA,NA,428,"PO BOX 5616645, CHARLOTTE, NC, 28256","No_Match",NA,NA,NA,NA
352929,"PO BOX 561806","LOS ANGELES","CA",90056,NA,NA,429,"PO BOX 561806, LOS ANGELES, CA, 90056","No_Match",NA,NA,NA,NA
352930,"PO BOX 56193","ATLANTA","GA",30343,NA,NA,430,"PO BOX 56193, ATLANTA, GA, 30343","No_Match",NA,NA,NA,NA
352931,"PO BOX 56197","PHILADELPHIA","PA",19130,NA,NA,431,"PO BOX 56197, PHILADELPHIA, PA, 19130","No_Match",NA,NA,NA,NA
352932,"PO BOX 562 / 810 6TH STREET","LOVELOCK","NV",89419,NA,NA,432,"PO BOX 562 / 810 6TH STREET, LOVELOCK, NV, 89419","No_Match",NA,NA,NA,NA
352933,"PO BOX 562","AMHERST","OH",44001,NA,NA,433,"PO BOX 562, AMHERST, OH, 44001","No_Match",NA,NA,NA,NA
352934,"PO BOX 562","CORBIN","KY",40702,NA,NA,434,"PO BOX 562, CORBIN, KY, 40702","No_Match",NA,NA,NA,NA
352935,"PO BOX 562","DUNSMUIR","CA",96025,NA,NA,435,"PO BOX 562, DUNSMUIR, CA, 96025","No_Match",NA,NA,NA,NA
352936,"PO BOX 562","GOOSE CREEK","SC",29445,NA,NA,436,"PO BOX 562, GOOSE CREEK, SC, 29445","No_Match",NA,NA,NA,NA
352937,"PO BOX 562","LAINGSBURG","MI",48848,NA,NA,437,"PO BOX 562, LAINGSBURG, MI, 48848","No_Match",NA,NA,NA,NA
352938,"PO BOX 562","LAKESIDE","OR",97449,NA,NA,438,"PO BOX 562, LAKESIDE, OR, 97449","No_Match",NA,NA,NA,NA
352939,"PO BOX 562","LAYTON","UT",84041,NA,NA,439,"PO BOX 562, LAYTON, UT, 84041","No_Match",NA,NA,NA,NA
352940,"PO BOX 562","MERIDEN","CT",6450,NA,NA,440,"PO BOX 562, MERIDEN, CT, 6450","No_Match",NA,NA,NA,NA
352941,"PO BOX 562","MOUNT VERNON","IL",62864,NA,NA,441,"PO BOX 562, MOUNT VERNON, IL, 62864","No_Match",NA,NA,NA,NA
352942,"PO BOX 562","NASSAU","DE",19969,NA,NA,442,"PO BOX 562, NASSAU, DE, 19969","No_Match",NA,NA,NA,NA
352943,"PO BOX 562","OSAWATOMIE","KS",66064,NA,NA,443,"PO BOX 562, OSAWATOMIE, KS, 66064","No_Match",NA,NA,NA,NA
352944,"PO BOX 562","POCONO PINES","PA",18350,NA,NA,444,"PO BOX 562, POCONO PINES, PA, 18350","No_Match",NA,NA,NA,NA
352945,"PO BOX 562","PORTSMOUTH","NH",3802,NA,NA,445,"PO BOX 562, PORTSMOUTH, NH, 3802","No_Match",NA,NA,NA,NA
352946,"PO BOX 562","SUDBURY","MA",1776,NA,NA,446,"PO BOX 562, SUDBURY, MA, 1776","No_Match",NA,NA,NA,NA
352947,"PO BOX 562","TANNERSVILLE","NY",12485,NA,NA,447,"PO BOX 562, TANNERSVILLE, NY, 12485","No_Match",NA,NA,NA,NA
352948,"PO BOX 562","WEST BEND","WI",53095,NA,NA,448,"PO BOX 562, WEST BEND, WI, 53095","No_Match",NA,NA,NA,NA
352949,"PO BOX 562","WHITESBORO","TX",76273,NA,NA,449,"PO BOX 562, WHITESBORO, TX, 76273","No_Match",NA,NA,NA,NA
352950,"PO BOX 562141","CHARLOTTE","NC",28256,NA,NA,450,"PO BOX 562141, CHARLOTTE, NC, 28256","No_Match",NA,NA,NA,NA
352951,"PO BOX 5623","SYRACUSE","NY",13220,NA,NA,451,"PO BOX 5623, SYRACUSE, NY, 13220","No_Match",NA,NA,NA,NA
352952,"PO BOX 5623","TALLAHASSEE","FL",32314,NA,NA,452,"PO BOX 5623, TALLAHASSEE, FL, 32314","No_Match",NA,NA,NA,NA
352953,"PO BOX 56253","NEW ORLEANS","LA",70156,NA,NA,453,"PO BOX 56253, NEW ORLEANS, LA, 70156","No_Match",NA,NA,NA,NA
352954,"PO BOX 562623","CHARLOTTE","NC",28256,NA,NA,454,"PO BOX 562623, CHARLOTTE, NC, 28256","No_Match",NA,NA,NA,NA
352955,"PO BOX 56274","WASHINGTON","DC",20040,NA,NA,455,"PO BOX 56274, WASHINGTON, DC, 20040","No_Match",NA,NA,NA,NA
352956,"PO BOX 562831","CHARLOTTE","NC",28256,NA,NA,456,"PO BOX 562831, CHARLOTTE, NC, 28256","No_Match",NA,NA,NA,NA
352957,"PO BOX 563","AHOSKIE","NC",27910,NA,NA,457,"PO BOX 563, AHOSKIE, NC, 27910","No_Match",NA,NA,NA,NA
352958,"PO BOX 563","AZTEC","NM",87410,NA,NA,458,"PO BOX 563, AZTEC, NM, 87410","No_Match",NA,NA,NA,NA
352959,"PO BOX 563","BATAVIA","OH",45103,NA,NA,459,"PO BOX 563, BATAVIA, OH, 45103","No_Match",NA,NA,NA,NA
352960,"PO BOX 563","BREVARD","NC",28712,NA,NA,460,"PO BOX 563, BREVARD, NC, 28712","No_Match",NA,NA,NA,NA
352961,"PO BOX 563","BUTLER","AL",36904,NA,NA,461,"PO BOX 563, BUTLER, AL, 36904","No_Match",NA,NA,NA,NA
352962,"PO BOX 563","CANANDAIGUA","NY",14424,NA,NA,462,"PO BOX 563, CANANDAIGUA, NY, 14424","No_Match",NA,NA,NA,NA
352963,"PO BOX 563","EL CAMPO","TX",77437,NA,NA,463,"PO BOX 563, EL CAMPO, TX, 77437","No_Match",NA,NA,NA,NA
352964,"PO BOX 563","GLOUCESTER CITY","NJ",8030,NA,NA,464,"PO BOX 563, GLOUCESTER CITY, NJ, 8030","No_Match",NA,NA,NA,NA
352965,"PO BOX 563","GREENSBURG","IN",47240,NA,NA,465,"PO BOX 563, GREENSBURG, IN, 47240","No_Match",NA,NA,NA,NA
352966,"PO BOX 563","HOHENWALD","TN",38462,NA,NA,466,"PO BOX 563, HOHENWALD, TN, 38462","No_Match",NA,NA,NA,NA
352967,"PO BOX 563","JACKPOT","NV",89825,NA,NA,467,"PO BOX 563, JACKPOT, NV, 89825","No_Match",NA,NA,NA,NA
352968,"PO BOX 563","LAKE GENEVA","WI",53147,NA,NA,468,"PO BOX 563, LAKE GENEVA, WI, 53147","No_Match",NA,NA,NA,NA
352969,"PO BOX 563","LOCUST GROVE","GA",30248,NA,NA,469,"PO BOX 563, LOCUST GROVE, GA, 30248","No_Match",NA,NA,NA,NA
352970,"PO BOX 563","MERRIMACK","NH",3054,NA,NA,470,"PO BOX 563, MERRIMACK, NH, 3054","No_Match",NA,NA,NA,NA
352971,"PO BOX 563","MINDEN","NV",89423,NA,NA,471,"PO BOX 563, MINDEN, NV, 89423","No_Match",NA,NA,NA,NA
352972,"PO BOX 563","PIERRE","SD",57501,NA,NA,472,"PO BOX 563, PIERRE, SD, 57501","No_Match",NA,NA,NA,NA
352973,"PO BOX 563","SAN LUIS OBISPO","CA",93406,NA,NA,473,"PO BOX 563, SAN LUIS OBISPO, CA, 93406","No_Match",NA,NA,NA,NA
352974,"PO BOX 563","SCHUYLKILL HAVEN","PA",17972,NA,NA,474,"PO BOX 563, SCHUYLKILL HAVEN, PA, 17972","No_Match",NA,NA,NA,NA
352975,"PO BOX 563","TIPP CITY","OH",45371,NA,NA,475,"PO BOX 563, TIPP CITY, OH, 45371","No_Match",NA,NA,NA,NA
352976,"PO BOX 563","UNIONDALE","NY",11553,NA,NA,476,"PO BOX 563, UNIONDALE, NY, 11553","No_Match",NA,NA,NA,NA
352977,"PO BOX 5630","ELGIN","IL",60121,NA,NA,477,"PO BOX 5630, ELGIN, IL, 60121","No_Match",NA,NA,NA,NA
352978,"PO BOX 5631","GLENDALE","AZ",85312,NA,NA,478,"PO BOX 5631, GLENDALE, AZ, 85312","No_Match",NA,NA,NA,NA
352979,"PO BOX 5631","KINGSPORT","TN",37663,NA,NA,479,"PO BOX 5631, KINGSPORT, TN, 37663","No_Match",NA,NA,NA,NA
352980,"PO BOX 5631","LA QUINTA","CA",92248,NA,NA,480,"PO BOX 5631, LA QUINTA, CA, 92248","No_Match",NA,NA,NA,NA
352981,"PO BOX 5631","MCALLEN","TX",78502,NA,NA,481,"PO BOX 5631, MCALLEN, TX, 78502","No_Match",NA,NA,NA,NA
352982,"PO BOX 56326","PHILADELPHIA","PA",19130,NA,NA,482,"PO BOX 56326, PHILADELPHIA, PA, 19130","No_Match",NA,NA,NA,NA
352983,"PO BOX 56373","SHERMAN OAKS","CA",91413,NA,NA,483,"PO BOX 56373, SHERMAN OAKS, CA, 91413","No_Match",NA,NA,NA,NA
352984,"PO BOX 5639","SALTON CITY","CA",92275,NA,NA,484,"PO BOX 5639, SALTON CITY, CA, 92275","No_Match",NA,NA,NA,NA
352985,"PO BOX 564","APOKA","FL",32704,NA,NA,485,"PO BOX 564, APOKA, FL, 32704","No_Match",NA,NA,NA,NA
352986,"PO BOX 564","BELGRADE","MT",59714,NA,NA,486,"PO BOX 564, BELGRADE, MT, 59714","No_Match",NA,NA,NA,NA
352987,"PO BOX 564","BENTON","TN",37307,NA,NA,487,"PO BOX 564, BENTON, TN, 37307","No_Match",NA,NA,NA,NA
352988,"PO BOX 564","BRUCETON MILLS","WV",26525,NA,NA,488,"PO BOX 564, BRUCETON MILLS, WV, 26525","No_Match",NA,NA,NA,NA
352989,"PO BOX 564","DURAND","IL",61024,NA,NA,489,"PO BOX 564, DURAND, IL, 61024","No_Match",NA,NA,NA,NA
352990,"PO BOX 564","ESTES PARK","CO",80517,NA,NA,490,"PO BOX 564, ESTES PARK, CO, 80517","No_Match",NA,NA,NA,NA
352991,"PO BOX 564","EVANSTON","IL",60204,NA,NA,491,"PO BOX 564, EVANSTON, IL, 60204","No_Match",NA,NA,NA,NA
352992,"PO BOX 564","GLEN ARBOR","MI",49636,NA,NA,492,"PO BOX 564, GLEN ARBOR, MI, 49636","No_Match",NA,NA,NA,NA
352993,"PO BOX 564","HAMPDEN","ME",4444,NA,NA,493,"PO BOX 564, HAMPDEN, ME, 4444","No_Match",NA,NA,NA,NA
352994,"PO BOX 564","LEHIGHTON","PA",18235,NA,NA,494,"PO BOX 564, LEHIGHTON, PA, 18235","No_Match",NA,NA,NA,NA
352995,"PO BOX 564","METUCHEN","NJ",8840,NA,NA,495,"PO BOX 564, METUCHEN, NJ, 8840","No_Match",NA,NA,NA,NA
352996,"PO BOX 564","ONEONTA","NY",13820,NA,NA,496,"PO BOX 564, ONEONTA, NY, 13820","No_Match",NA,NA,NA,NA
352997,"PO BOX 564","SAN CARLOS","CA",94070,NA,NA,497,"PO BOX 564, SAN CARLOS, CA, 94070","No_Match",NA,NA,NA,NA
352998,"PO BOX 564","TUCUMCARI","NM",88401,NA,NA,498,"PO BOX 564, TUCUMCARI, NM, 88401","No_Match",NA,NA,NA,NA
352999,"PO BOX 5641","DELTONA","FL",32728,NA,NA,499,"PO BOX 5641, DELTONA, FL, 32728","No_Match",NA,NA,NA,NA
353000,"PO BOX 5641","PHILADELPHIA","PA",19129,NA,NA,500,"PO BOX 5641, PHILADELPHIA, PA, 19129","No_Match",NA,NA,NA,NA
