"ID","Address","City","State","Zip","lat","long","id","input_address","match_indicator","match_type","matched_address","tiger_line_id","tiger_side"
114001,"2106 OAKMONT DRIVE","RIVIERA BEACH","FL",33404,26.7898088310001,-80.0877918899999,1,"2106 OAKMONT DRIVE, RIVIERA BEACH, FL, 33404","Match","Exact","2106 OAKMONT DR, RIVIERA BEACH, FL, 33404",624443218,"L"
114002,"2106 OLD SPARTANBURG RD","GREER","SC",29650,NA,NA,2,"2106 OLD SPARTANBURG RD, GREER, SC, 29650","No_Match",NA,NA,NA,NA
114003,"2106 PLEASANT ROAD","ARDMORE","OK",73401,NA,NA,3,"2106 PLEASANT ROAD, ARDMORE, OK, 73401","No_Match",NA,NA,NA,NA
114004,"2106 ROSE MAY DR","FORNEY","TX",75126,32.7568703200001,-96.410257353,4,"2106 ROSE MAY DR, FORNEY, TX, 75126","Match","Exact","2106 ROSE MAY DR, FORNEY, TX, 75126",627563535,"L"
114005,"2106 S 70TH STREET","PHILADELPHIA","PA",19142,39.921497968,-75.242516248,5,"2106 S 70TH STREET, PHILADELPHIA, PA, 19142","Match","Exact","2106 S 70TH ST, PHILADELPHIA, PA, 19142",131408513,"R"
114006,"2106 S HWY 174","RIO VISTA","TX",76093,NA,NA,6,"2106 S HWY 174, RIO VISTA, TX, 76093","No_Match",NA,NA,NA,NA
114007,"2106 S MAIN ST","KANNAPOLIS","NC",28081,35.464160802,-80.621997971,7,"2106 S MAIN ST, KANNAPOLIS, NC, 28081","Match","Exact","2106 S MAIN ST, KANNAPOLIS, NC, 28081",24913692,"R"
114008,"2106 S SPAULDING AVE","CHICAGO","IL",60623,41.853454174,-87.7077479989999,8,"2106 S SPAULDING AVE, CHICAGO, IL, 60623","Match","Exact","2106 S SPAULDING AVE, CHICAGO, IL, 60623",605095485,"R"
114009,"2106 SALISBURY RD","SILVER SPRING","MD",20910,39.008426521,-77.047191781,9,"2106 SALISBURY RD, SILVER SPRING, MD, 20910","Match","Exact","2106 SALISBURY RD, SILVER SPRING, MD, 20910",62067406,"L"
114010,"2106 SCHOFIELD AVENUE","WESTON","WI",54476,44.9090979160001,-89.597484255,10,"2106 SCHOFIELD AVENUE, WESTON, WI, 54476","Match","Exact","2106 SCHOFIELD AVE, WESTON, WI, 54476",117144106,"L"
114011,"2106 SIXTH AVENUE","CADILLAC","MI",49601,44.27006864,-85.416627223,11,"2106 SIXTH AVENUE, CADILLAC, MI, 49601","Match","Exact","2106 6TH AVE, CADILLAC, MI, 49601",146094756,"R"
114012,"2106 ST ANDREWS STREET","DECATUR","AL",35603,34.5600109870001,-87.0223545649999,12,"2106 ST ANDREWS STREET, DECATUR, AL, 35603","Match","Non_Exact","2106 SAINT ANDREWS ST SW, DECATUR, AL, 35603",97112464,"R"
114013,"2106 SWEET GUM DR","ANNA","TX",75409,33.3344392550001,-96.5768914939999,13,"2106 SWEET GUM DR, ANNA, TX, 75409","Match","Exact","2106 SWEET GUM DR, ANNA, TX, 75409",642935034,"L"
114014,"2106 TARZAN ST","OKOBOJI","IA",51355,43.3926226770001,-95.148376546,14,"2106 TARZAN ST, OKOBOJI, IA, 51355","Match","Exact","2106 TARZAN ST, OKOBOJI, IA, 51355",633296646,"R"
114015,"2106 UPLAND PARK DR","SUGAR LAND","TX",77479,29.552244876,-95.6589374879999,15,"2106 UPLAND PARK DR, SUGAR LAND, TX, 77479","Match","Non_Exact","2106 UPLAND PARK CT, SUGAR LAND, TX, 77479",635324109,"L"
114016,"2106 US 23 S","ALPENA","MI",49707,NA,NA,16,"2106 US 23 S, ALPENA, MI, 49707","No_Match",NA,NA,NA,NA
114017,"2106 US HIGHWAY 19 SOUTH","SMITHVILLE","GA",31787,31.9376631260001,-84.25675782,17,"2106 US HIGHWAY 19 SOUTH, SMITHVILLE, GA, 31787","Match","Exact","2106 HWY 19 S, SMITHVILLE, GA, 31787",645778789,"R"
114018,"2106 US HIGHWAY 441","LEESBURG","FL",34748,28.8189031110001,-81.840926418,18,"2106 US HIGHWAY 441, LEESBURG, FL, 34748","Match","Exact","2106 US HWY 441, LEESBURG, FL, 34748",94231029,"L"
114019,"2106 W HOWETT STREET","PEORIA","IL",61605,40.68230757,-89.626251661,19,"2106 W HOWETT STREET, PEORIA, IL, 61605","Match","Exact","2106 W HOWETT ST, PEORIA, IL, 61605",8716124,"L"
114020,"2106 WEST MAIN STREET","TAMPA","FL",33607,27.957144978,-82.481189656,20,"2106 WEST MAIN STREET, TAMPA, FL, 33607","Match","Exact","2106 W MAIN ST, TAMPA, FL, 33607",104521258,"L"
114021,"2106 WOODLAND PARK DR NE","ALEXANDRIA","MN",56308,45.9084266130001,-95.345563058,21,"2106 WOODLAND PARK DR NE, ALEXANDRIA, MN, 56308","Match","Exact","2106 WOODLAND PARK DR NE, ALEXANDRIA, MN, 56308",204652657,"R"
114022,"2106 WOODVIEW DRIVE","RALEIGH","NC",27604,35.800562842,-78.614345363,22,"2106 WOODVIEW DRIVE, RALEIGH, NC, 27604","Match","Exact","2106 WOODVIEW DR, RALEIGH, NC, 27604",72508185,"R"
114023,"21060 HOMESTEAD RD STE 210","CUPERTINAO","CA",95014,37.3375576610001,-122.042716292,23,"21060 HOMESTEAD RD STE 210, CUPERTINAO, CA, 95014","Match","Non_Exact","21060 W HOMESTEAD RD, CUPERTINO, CA, 95014",614040774,"L"
114024,"21060 HOMESTEAD RD SUITE210","CUPERTINO","CA",95014,37.3375576610001,-122.042716292,24,"21060 HOMESTEAD RD SUITE210, CUPERTINO, CA, 95014","Match","Non_Exact","21060 W HOMESTEAD RD, CUPERTINO, CA, 95014",614040774,"L"
114025,"21061 LYCOMING ST","WALNUT","CA",91789,34.002919369,-117.844748165,25,"21061 LYCOMING ST, WALNUT, CA, 91789","Match","Exact","21061 LYCOMING ST, WALNUT, CA, 91789",141728755,"L"
114026,"21063 COUNTY ROAD K","WEST UNITY","OH",43570,NA,NA,26,"21063 COUNTY ROAD K, WEST UNITY, OH, 43570","No_Match",NA,NA,NA,NA
114027,"21063 DODD AVE UNIT B-3","REHOBOTH BEACH","DE",19971,38.6984731690001,-75.080719641,27,"21063 DODD AVE UNIT B-3, REHOBOTH BEACH, DE, 19971","Match","Exact","21063 DODD AVE, REHOBOTH BCH, DE, 19971",106089767,"R"
114028,"21065 MARKBOROUGH TER","STERLING","VA",20166,39.033279958,-77.415633096,28,"21065 MARKBOROUGH TER, STERLING, VA, 20166","Match","Exact","21065 MARKBOROUGH TER, STERLING, VA, 20166",62335349,"R"
114029,"21065 WINFIELD RD","TOPANGA","CA",90290,34.099919551,-118.592730649,29,"21065 WINFIELD RD, TOPANGA, CA, 90290","Match","Exact","21065 WINFIELD RD, TOPANGA, CA, 90290",142710363,"L"
114030,"21067 ETHAN CT","STERLING","VA",20164,39.0088534160001,-77.383190871,30,"21067 ETHAN CT, STERLING, VA, 20164","Match","Exact","21067 ETHAN CT, STERLING, VA, 20164",62330594,"R"
114031,"21067 GIFT RD","BEND","OR",97703,44.183473043,-121.271725037,31,"21067 GIFT RD, BEND, OR, 97703","Match","Exact","21067 GIFT RD, BEND, OR, 97703",152550137,"R"
114032,"21067 VALERIO ST","CANOGA PARK","CA",91303,34.2046819720001,-118.592051748,32,"21067 VALERIO ST, CANOGA PARK, CA, 91303","Match","Exact","21067 VALERIO ST, CANOGA PARK, CA, 91303",141533509,"R"
114033,"2107  PLUNKETT  COURT","HOLLYWOOD","FL",33020,26.0011759810001,-80.149187522,33,"2107  PLUNKETT  COURT, HOLLYWOOD, FL, 33020","Match","Exact","2107 PLUNKETT CT, HOLLYWOOD, FL, 33020",114732559,"R"
114034,"2107 150TH ST","FAIRFIELD","IA",52556,41.0901450440001,-91.965220528,34,"2107 150TH ST, FAIRFIELD, IA, 52556","Match","Exact","2107 150TH ST, FAIRFIELD, IA, 52556",84426737,"L"
114035,"2107 355 STREET","ADA","MN",56510,47.312567707,-96.312086721,35,"2107 355 STREET, ADA, MN, 56510","Match","Exact","2107 355TH ST, ADA, MN, 56510",168252786,"L"
114036,"2107 355TH ST","ADA","MN",56510,47.312567707,-96.312086721,36,"2107 355TH ST, ADA, MN, 56510","Match","Exact","2107 355TH ST, ADA, MN, 56510",168252786,"L"
114037,"2107 5TH AVENUE N","BIRMINGHAM","AL",35203,33.518854576,-86.806565558,37,"2107 5TH AVENUE N, BIRMINGHAM, AL, 35203","Match","Exact","2107 5TH AVE N, BIRMINGHAM, AL, 35203",81575745,"R"
114038,"2107 5TH AVENUE NORTH SUITE 300","BIRMINGHAM","AL",35203,33.518854576,-86.806565558,38,"2107 5TH AVENUE NORTH SUITE 300, BIRMINGHAM, AL, 35203","Match","Exact","2107 5TH AVE N, BIRMINGHAM, AL, 35203",81575745,"R"
114039,"2107 ABERDEEN DRIVE","CORONA","CA",92881,33.8508874720001,-117.542366382,39,"2107 ABERDEEN DRIVE, CORONA, CA, 92881","Match","Exact","2107 ABERDEEN DR, CORONA, CA, 92881",194872793,"R"
114040,"2107 BASHOR RD","GOSHEN","IN",46526,41.5951564530001,-85.870952507,40,"2107 BASHOR RD, GOSHEN, IN, 46526","Match","Exact","2107 BASHOR RD, GOSHEN, IN, 46526",7766424,"R"
114041,"2107 BUNZEL STREET","HOUSTON","TX",77088,29.8911173270001,-95.436047577,41,"2107 BUNZEL STREET, HOUSTON, TX, 77088","Match","Exact","2107 BUNZEL ST, HOUSTON, TX, 77088",96027355,"L"
114042,"2107 BURBANK RD","WOOSTER","OH",44691,40.825726622,-81.9386536109999,42,"2107 BURBANK RD, WOOSTER, OH, 44691","Match","Exact","2107 BURBANK RD, WOOSTER, OH, 44691",58721299,"R"
114043,"2107 CANAL STREET","PORT ARTHUR","TX",77640,29.896208003,-94.007530549,43,"2107 CANAL STREET, PORT ARTHUR, TX, 77640","Match","Exact","2107 CANAL ST, PORT ARTHUR, TX, 77640",73872021,"R"
114044,"2107 CHESTNUT DR","HUDSON","WI",54016,44.983939272,-92.732044668,44,"2107 CHESTNUT DR, HUDSON, WI, 54016","Match","Exact","2107 CHESTNUT DR, HUDSON, WI, 54016",110908443,"R"
114045,"2107 COLFAX STREET","EVANSTON","IL",60201,42.0608750320001,-87.702343067,45,"2107 COLFAX STREET, EVANSTON, IL, 60201","Match","Exact","2107 COLFAX ST, EVANSTON, IL, 60201",618051607,"R"
114046,"2107 E 63RD ST","TULSA","OK",74130,36.0716585270001,-95.9626898339999,46,"2107 E 63RD ST, TULSA, OK, 74130","Match","Non_Exact","2107 E 63RD ST, TULSA, OK, 74136",651615581,"L"
114047,"2107 E ROSSER AVE","BISMARCK","ND",58501,46.8082484010001,-100.760051645,47,"2107 E ROSSER AVE, BISMARCK, ND, 58501","Match","Exact","2107 E ROSSER AVE, BISMARCK, ND, 58501",198849859,"R"
114048,"2107 EAST 5TH AVENUE","SPOKANE","WA",99202,47.6516861200001,-117.379470973,48,"2107 EAST 5TH AVENUE, SPOKANE, WA, 99202","Match","Exact","2107 E 5TH AVE, SPOKANE, WA, 99202",189881179,"L"
114049,"2107 EPWORTH DR CONDO G","HUNTSVILLE","AL",35811,34.7606780620001,-86.558652208,49,"2107 EPWORTH DR CONDO G, HUNTSVILLE, AL, 35811","Match","Non_Exact","2107 EPWORTH DR NE, HUNTSVILLE, AL, 35811",58195109,"L"
114050,"2107 FAULKNER ROAD NE ABV121-1","ATLANTA","GA",30324,33.8125563460001,-84.358556936,50,"2107 FAULKNER ROAD NE ABV121-1, ATLANTA, GA, 30324","Match","Exact","2107 FAULKNER RD NE, ATLANTA, GA, 30324",17356291,"L"
114051,"2107 FOLEY DRIVE","ARLINGTON","TX",76013,32.709038815,-97.186320786,51,"2107 FOLEY DRIVE, ARLINGTON, TX, 76013","Match","Exact","2107 FOLEY DR, ARLINGTON, TX, 76013",101939035,"L"
114052,"2107 FORGE DR","ALIQUIPPA","PA",15001,40.5877246330001,-80.265628259,52,"2107 FORGE DR, ALIQUIPPA, PA, 15001","Match","Exact","2107 FORGE DR, ALIQUIPPA, PA, 15001",52574969,"L"
114053,"2107 GOLDEN IVY WAY","APOPKA","FL",32703,28.6822191950001,-81.469808528,53,"2107 GOLDEN IVY WAY, APOPKA, FL, 32703","Match","Exact","2107 GOLDEN IVY WAY, APOPKA, FL, 32703",94408820,"R"
114054,"2107 HADLEY","HOUSTON","TX",77003,29.7415084310001,-95.3630394639999,54,"2107 HADLEY, HOUSTON, TX, 77003","Match","Non_Exact","2107 HADLEY ST, HOUSTON, TX, 77003",96071712,"L"
114055,"2107 HAMMOCK COURT","TRINITY","FL",34655,NA,NA,55,"2107 HAMMOCK COURT, TRINITY, FL, 34655","No_Match",NA,NA,NA,NA
114056,"2107 KING LEAR COURT","GREENVILLE","NC",27858,35.584141801,-77.3375468369999,56,"2107 KING LEAR COURT, GREENVILLE, NC, 27858","Match","Exact","2107 KING LEAR CT, GREENVILLE, NC, 27858",80033520,"R"
114057,"2107 LANICE AVENUE","BRIDGEPORT","TX",76426,33.2083259950001,-97.745060702,57,"2107 LANICE AVENUE, BRIDGEPORT, TX, 76426","Match","Exact","2107 LANICE AVE, BRIDGEPORT, TX, 76426",103664631,"L"
114058,"2107 LIESFELD PARKWAY","GLEN ALLEN","VA",23060,37.646258721,-77.5996005969999,58,"2107 LIESFELD PARKWAY, GLEN ALLEN, VA, 23060","Match","Exact","2107 LIESFELD PKWY, GLEN ALLEN, VA, 23060",641619392,"L"
114059,"2107 LUGINE AVE","GWYNN OAK","MD",21207,39.3335577990001,-76.743217923,59,"2107 LUGINE AVE, GWYNN OAK, MD, 21207","Match","Exact","2107 LUGINE AVE, GWYNN OAK, MD, 21207",191555153,"R"
114060,"2107 LYTHAM COURT","WILMINGTON","NC",28405,34.250364915,-77.806682033,60,"2107 LYTHAM COURT, WILMINGTON, NC, 28405","Match","Exact","2107 LYTHAM CT, WILMINGTON, NC, 28405",152757909,"R"
114061,"2107 MARENGO STREET","NEW ORLEANS","LA",70115,29.9318119120001,-90.0990556899999,61,"2107 MARENGO STREET, NEW ORLEANS, LA, 70115","Match","Exact","2107 MARENGO ST, NEW ORLEANS, LA, 70115",191712466,"R"
114062,"2107 MINORU DR","ALTADENA","CA",91001,34.180730543,-118.10982059,62,"2107 MINORU DR, ALTADENA, CA, 91001","Match","Exact","2107 MINORU DR, ALTADENA, CA, 91001",141631693,"L"
114063,"2107 N 42ND ST","OMAHA","NE",68111,41.278720557,-95.975730353,63,"2107 N 42ND ST, OMAHA, NE, 68111","Match","Exact","2107 N 42ND ST, OMAHA, NE, 68111",116978972,"R"
114064,"2107 N BEACHWOOD DR APT 304","LOS ANGELES","CA",90068,NA,NA,64,"2107 N BEACHWOOD DR APT 304, LOS ANGELES, CA, 90068","Tie",NA,NA,NA,NA
114065,"2107 N DECATUR RD STE 251","DECATUR","GA",30033,33.7902257750001,-84.3057677259999,65,"2107 N DECATUR RD STE 251, DECATUR, GA, 30033","Match","Non_Exact","2107 N DECATUR RD, DECATUR, GA, 30033",23366306,"R"
114066,"2107 N DECATUR RD UNIT 719","DECATUR","GA",30033,33.7902257750001,-84.3057677259999,66,"2107 N DECATUR RD UNIT 719, DECATUR, GA, 30033","Match","Non_Exact","2107 N DECATUR RD, DECATUR, GA, 30033",23366306,"R"
114067,"2107 N DECATUR ROAD SUITE 759","DECATUR","GA",30033,33.7902257750001,-84.3057677259999,67,"2107 N DECATUR ROAD SUITE 759, DECATUR, GA, 30033","Match","Non_Exact","2107 N DECATUR RD, DECATUR, GA, 30033",23366306,"R"
114068,"2107 N KARLOV","CHICAGO","IL",60639,41.9192499160001,-87.7290574099999,68,"2107 N KARLOV, CHICAGO, IL, 60639","Match","Non_Exact","2107 N KARLOV AVE, CHICAGO, IL, 60639",605189756,"R"
114069,"2107 NORTH DECATUR ROAD 198","DECATUR","GA",30033,33.790227278,-84.305781779,69,"2107 NORTH DECATUR ROAD 198, DECATUR, GA, 30033","Match","Exact","2107 N DECATUR RD, DECATUR, GA, 30033",23366306,"R"
114070,"2107 NORTH DECATUR ROAD SUITE 784","DECATUR","GA",30033,33.790227278,-84.305781779,70,"2107 NORTH DECATUR ROAD SUITE 784, DECATUR, GA, 30033","Match","Exact","2107 N DECATUR RD, DECATUR, GA, 30033",23366306,"R"
114071,"2107 NORTH DECATUR ROAD UNIT 417","DECATUR","GA",30033,33.790227278,-84.305781779,71,"2107 NORTH DECATUR ROAD UNIT 417, DECATUR, GA, 30033","Match","Exact","2107 N DECATUR RD, DECATUR, GA, 30033",23366306,"R"
114072,"2107 NORTH DECATUR ROAD","DECATUR","GA",30033,33.790227278,-84.305781779,72,"2107 NORTH DECATUR ROAD, DECATUR, GA, 30033","Match","Exact","2107 N DECATUR RD, DECATUR, GA, 30033",23366306,"R"
114073,"2107 PEACHWOOD DRIVE","MISSOURI CITY","TX",77489,29.589943835,-95.535418425,73,"2107 PEACHWOOD DRIVE, MISSOURI CITY, TX, 77489","Match","Exact","2107 PEACHWOOD DR, MISSOURI CITY, TX, 77489",78270902,"R"
114074,"2107 PLAIN VIEW RD","CHEYENNE","WY",82009,41.1687545870001,-104.788343351,74,"2107 PLAIN VIEW RD, CHEYENNE, WY, 82009","Match","Exact","2107 PLAIN VIEW RD, CHEYENNE, WY, 82009",160173037,"L"
114075,"2107 RIMROCK DR SUITE 102","STROUDSBURG","PA",18360,40.958965736,-75.292729804,75,"2107 RIMROCK DR SUITE 102, STROUDSBURG, PA, 18360","Match","Exact","2107 RIMROCK DR, STROUDSBURG, PA, 18360",136766788,"L"
114076,"2107 RIVER RIDGE BLVD","FORT MYERS","FL",33905,26.7130949260001,-81.745813631,76,"2107 RIVER RIDGE BLVD, FORT MYERS, FL, 33905","Match","Exact","2107 RIVER RIDGE BLVD, FORT MYERS, FL, 33905",117982250,"L"
114077,"2107 ROBINSON ROAD SE","GRAND RAPIDS","MI",49506,42.9588012400001,-85.61678857,77,"2107 ROBINSON ROAD SE, GRAND RAPIDS, MI, 49506","Match","Exact","2107 ROBINSON RD SE, GRAND RAPIDS, MI, 49506",12461210,"L"
114078,"2107 SELIM AVENUU","CINCINNATI","OH",45214,39.1208139410001,-84.551837153,78,"2107 SELIM AVENUU, CINCINNATI, OH, 45214","Match","Non_Exact","2107 SELIM AVE, CINCINNATI, OH, 45214",103922749,"L"
114079,"2107 SHERRY ST","ARLINGTON","TX",76010,32.7135459300001,-97.071742945,79,"2107 SHERRY ST, ARLINGTON, TX, 76010","Match","Exact","2107 SHERRY ST, ARLINGTON, TX, 76010",101919786,"L"
114080,"2107 SINGER ROAD","JOPPA","MD",21085,39.466740901,-76.3623964879999,80,"2107 SINGER ROAD, JOPPA, MD, 21085","Match","Exact","2107 SINGER RD, JOPPA, MD, 21085",191662406,"L"
114081,"2107 SUN VALLEY RD","SAN MARCOS","CA",92078,33.126965134,-117.223719463,81,"2107 SUN VALLEY RD, SAN MARCOS, CA, 92078","Match","Exact","2107 SUN VALLEY RD, SAN MARCOS, CA, 92078",195762513,"R"
114082,"2107 SUNSET RIDGE","CANYON LAKE","TX",78133,29.909407636,-98.20622437,82,"2107 SUNSET RIDGE, CANYON LAKE, TX, 78133","Match","Exact","2107 SUNSET RIDGE, CANYON LAKE, TX, 78133",72264291,"L"
114083,"2107 TIMBER LANE","CONROE","TX",77301,30.3331342110001,-95.471399898,83,"2107 TIMBER LANE, CONROE, TX, 77301","Match","Non_Exact","2107 TIMBERLANE ST, CONROE, TX, 77301",79275319,"L"
114084,"2107 TWIN HILL ROAD","LOUISVILLE","KY",40207,38.284978783,-85.664261032,84,"2107 TWIN HILL ROAD, LOUISVILLE, KY, 40207","Match","Exact","2107 TWIN HILL RD, LOUISVILLE, KY, 40207",96884857,"L"
114085,"2107 W COMMONWEALTH AVE SUITE 414","ALHAMBRA","CA",91803,34.087882721,-118.146767077,85,"2107 W COMMONWEALTH AVE SUITE 414, ALHAMBRA, CA, 91803","Match","Non_Exact","2107 W COMMONWEALTH AVE, ALHAMBRA, CA, 91803",638699861,"R"
114086,"2107 W MORSE","CHICAGO","IL",60645,42.0072776540001,-87.6841745789999,86,"2107 W MORSE, CHICAGO, IL, 60645","Match","Non_Exact","2107 W MORSE AVE, CHICAGO, IL, 60645",111744839,"L"
114087,"2107 W TORONTO ST","PHILADELPHIA","PA",19132,40.000769093,-75.1650198299999,87,"2107 W TORONTO ST, PHILADELPHIA, PA, 19132","Match","Exact","2107 W TORONTO ST, PHILADELPHIA, PA, 19132",131402481,"R"
114088,"2107 WEST HOLMES ROAD","LANSING","MI",48910,42.697561965,-84.580323794,88,"2107 WEST HOLMES ROAD, LANSING, MI, 48910","Match","Exact","2107 W HOLMES RD, LANSING, MI, 48910",17502222,"L"
114089,"2107 WESTOVER AVE SW","ROANOKE","VA",24015,37.2651470440001,-79.980420774,89,"2107 WESTOVER AVE SW, ROANOKE, VA, 24015","Match","Exact","2107 WESTOVER AVE SW, ROANOKE, VA, 24015",62908544,"R"
114090,"2107 WINDING LAKES DRIVE","PLAINFIELD","IL",60586,41.5603338650001,-88.22158065,90,"2107 WINDING LAKES DRIVE, PLAINFIELD, IL, 60586","Match","Exact","2107 WINDING LAKES DR, PLAINFIELD, IL, 60586",111621091,"L"
114091,"2107 YACHT DAPHNE","NEWPORT BEACH","CA",92660,33.6162506900001,-117.853760365,91,"2107 YACHT DAPHNE, NEWPORT BEACH, CA, 92660","Match","Exact","2107 YACHT DAPHNE, NEWPORT BEACH, CA, 92660",144059208,"R"
114092,"21072 EAST 45TH AVENUE","DENVER","CO",80249,39.7785160450001,-104.741662973,92,"21072 EAST 45TH AVENUE, DENVER, CO, 80249","Match","Exact","21072 E 45TH AVE, DENVER, CO, 80249",177630620,"R"
114093,"21072 MOSSY GLEN TERRACE","ASHBURN","VA",20147,39.0337890500001,-77.475062609,93,"21072 MOSSY GLEN TERRACE, ASHBURN, VA, 20147","Match","Exact","21072 MOSSY GLEN TER, ASHBURN, VA, 20147",62336779,"R"
114094,"21073 POWERLINE RD SUITE 45","BOCA RATON","FL",33433,26.362110194,-80.1514283929999,94,"21073 POWERLINE RD SUITE 45, BOCA RATON, FL, 33433","Match","Exact","21073 POWERLINE RD, BOCA RATON, FL, 33433",115545287,"R"
114095,"21074 WILDWOOD RD","BRAINERD","MN",56401,46.45689559,-94.2094034789999,95,"21074 WILDWOOD RD, BRAINERD, MN, 56401","Match","Exact","21074 WILDWOOD RD, BRAINERD, MN, 56401",162824454,"R"
114096,"21076 SYDENHAM ROAD","SHAKER HEIGHTS","OH",44122,41.474844848,-81.531424101,96,"21076 SYDENHAM ROAD, SHAKER HEIGHTS, OH, 44122","Match","Exact","21076 SYDENHAM RD, SHAKER HEIGHTS, OH, 44122",61125959,"R"
114097,"21077 BROOKSHIRE TERRACE","BOCA RATON","FL",33433,26.3641048260001,-80.144346033,97,"21077 BROOKSHIRE TERRACE, BOCA RATON, FL, 33433","Match","Exact","21077 BROOKSHIRE TER, BOCA RATON, FL, 33433",115318334,"L"
114098,"21079 POMINO DRIVE","NORTHVILLE","MI",48167,42.439008825,-83.5282678459999,98,"21079 POMINO DRIVE, NORTHVILLE, MI, 48167","Match","Exact","21079 POMINO DR, NORTHVILLE, MI, 48167",624211497,"R"
114099,"2108 ANNIN ST","PHILADELPHIA","PA",19146,39.938024854,-75.1787567439999,99,"2108 ANNIN ST, PHILADELPHIA, PA, 19146","Match","Exact","2108 ANNIN ST, PHILADELPHIA, PA, 19146",131407235,"L"
114100,"2108 AQUEDUCT AVE E FL 2","BRONX","NY",10453,40.8564676350001,-73.909317732,100,"2108 AQUEDUCT AVE E FL 2, BRONX, NY, 10453","Match","Exact","2108 AQUEDUCT AVE E, BRONX, NY, 10453",80299656,"R"
114101,"2108 AUSTELL RD SW","MARIETTA","GA",30008,33.902274323,-84.5687014489999,101,"2108 AUSTELL RD SW, MARIETTA, GA, 30008","Match","Exact","2108 AUSTELL RD SW, MARIETTA, GA, 30008",616602242,"L"
114102,"2108 BLACKWOLF RUN LANE","RALEIGH","NC",27604,35.8101279000001,-78.537421375,102,"2108 BLACKWOLF RUN LANE, RALEIGH, NC, 27604","Match","Exact","2108 BLACKWOLF RUN LN, RALEIGH, NC, 27604",72643084,"R"
114103,"2108 BOULEVARD","COLONIAL HEIGHTS","VA",23834,37.2590907690001,-77.411385907,103,"2108 BOULEVARD, COLONIAL HEIGHTS, VA, 23834","Match","Exact","2108 BOULEVARD, COLONIAL HEIGHTS, VA, 23834",201633940,"L"
114104,"2108 BRAEWICK CIRCLE SUITE 303","AKRON","OH",44313,41.118478967,-81.587076904,104,"2108 BRAEWICK CIRCLE SUITE 303, AKRON, OH, 44313","Match","Exact","2108 BRAEWICK CIR, AKRON, OH, 44313",61386382,"L"
114105,"2108 BRAEWICK CIRCLE SUITE 3030","AKRON","OH",44313,41.118478967,-81.587076904,105,"2108 BRAEWICK CIRCLE SUITE 3030, AKRON, OH, 44313","Match","Exact","2108 BRAEWICK CIR, AKRON, OH, 44313",61386382,"L"
114106,"2108 CARLISLE CIRCLE","BIRMINGHAM","AL",35235,33.644309053,-86.6508158519999,106,"2108 CARLISLE CIRCLE, BIRMINGHAM, AL, 35235","Match","Non_Exact","2108 CARLISLE DR, BIRMINGHAM, AL, 35235",617525070,"L"
114107,"2108 CERMACK ST","COLUMBIA","SC",29223,34.0515525170001,-80.938751999,107,"2108 CERMACK ST, COLUMBIA, SC, 29223","Match","Exact","2108 CERMACK ST, COLUMBIA, SC, 29223",71825761,"L"
114108,"2108 CHARLES STREET","LA CROSSE","WI",54603,43.852950665,-91.2425729509999,108,"2108 CHARLES STREET, LA CROSSE, WI, 54603","Match","Exact","2108 CHARLES ST, LA CROSSE, WI, 54603",51009850,"R"
114109,"2108 DALLAS PKWY","PLANO","TX",75093,33.028654214,-96.828819543,109,"2108 DALLAS PKWY, PLANO, TX, 75093","Match","Exact","2108 DALLAS PKWY, PLANO, TX, 75093",210475656,"L"
114110,"2108 DOCKING POST DR","CHESAPEAKE","VA",23323,36.746038952,-76.325129112,110,"2108 DOCKING POST DR, CHESAPEAKE, VA, 23323","Match","Exact","2108 DOCKING POST DR, CHESAPEAKE, VA, 23323",651963981,"L"
114111,"2108 FAIR PARK AVE APT314","LOS ANGELES","CA",90041,34.1357156890001,-118.213096491,111,"2108 FAIR PARK AVE APT314, LOS ANGELES, CA, 90041","Match","Exact","2108 FAIR PARK AVE, LOS ANGELES, CA, 90041",142731905,"L"
114112,"2108 FORT BRAGG ROAD SUITE 104B","FAYETTEVILLE","NC",28303,35.065038579,-78.9136941259999,112,"2108 FORT BRAGG ROAD SUITE 104B, FAYETTEVILLE, NC, 28303","Match","Exact","2108 FORT BRAGG RD, FAYETTEVILLE, NC, 28303",64199784,"R"
114113,"2108 GROVEHURST DRIVE","JOHNS CREEK","GA",30022,34.0262073850001,-84.2466436349999,113,"2108 GROVEHURST DRIVE, JOHNS CREEK, GA, 30022","Match","Exact","2108 GROVEHURST DR, JOHNS CREEK, GA, 30022",17394088,"R"
114114,"2108 HARROW DR","WOODSTOCK","MD",21163,39.308739331,-76.8875628549999,114,"2108 HARROW DR, WOODSTOCK, MD, 21163","Match","Exact","2108 HARROW DR, WOODSTOCK, MD, 21163",614146668,"L"
114115,"2108 HYDE PARK AVE","HARVEY","LA",70058,29.8701743440001,-90.049390655,115,"2108 HYDE PARK AVE, HARVEY, LA, 70058","Match","Non_Exact","2108 HYDE PARK AVE S, HARVEY, LA, 70058",631860098,"R"
114116,"2108 JOLINE ST","WICHITA FALLS","TX",76309,33.890940319,-98.5163427319999,116,"2108 JOLINE ST, WICHITA FALLS, TX, 76309","Match","Exact","2108 JOLINE ST, WICHITA FALLS, TX, 76309",169842959,"R"
114117,"2108 KIMBALL HILL CT","SOUTHLAKE","TX",76092,32.934122793,-97.1190632349999,117,"2108 KIMBALL HILL CT, SOUTHLAKE, TX, 76092","Match","Exact","2108 KIMBALL HILL CT, SOUTHLAKE, TX, 76092",619808634,"L"
114118,"2108 KINLOCK AVENUE","INDIANOLA","MS",38751,33.429784435,-90.659739568,118,"2108 KINLOCK AVENUE, INDIANOLA, MS, 38751","Match","Non_Exact","2108 KINLOCK RD, INDIANOLA, MS, 38751",2736149,"L"
114119,"2108 LAVERA DRIVE","TUSCALOOSA","AL",35404,33.195976031,-87.509932927,119,"2108 LAVERA DRIVE, TUSCALOOSA, AL, 35404","Match","Exact","2108 LAVERA DR, TUSCALOOSA, AL, 35404",635345190,"L"
114120,"2108 MILITARY ROAD","ARLINGTON","VA",22207,38.8983077140001,-77.10891406,120,"2108 MILITARY ROAD, ARLINGTON, VA, 22207","Match","Exact","2108 MILITARY RD, ARLINGTON, VA, 22207",76478617,"L"
114121,"2108 N 18TH STREET","NEDERLAND","TX",77627,29.981933014,-94.01031696,121,"2108 N 18TH STREET, NEDERLAND, TX, 77627","Match","Exact","2108 N 18TH ST, NEDERLAND, TX, 77627",73876365,"R"
114122,"2108 N SUMMERWOOD DRIVE","FARMINGTON","UT",84025,41.014785551,-111.904737351,122,"2108 N SUMMERWOOD DRIVE, FARMINGTON, UT, 84025","Match","Exact","2108 SUMMERWOOD DR, FARMINGTON, UT, 84025",229359956,"R"
114123,"2108 N TAMPA STREET","TAMPA","FL",33602,27.9624141400001,-82.4609095179999,123,"2108 N TAMPA STREET, TAMPA, FL, 33602","Match","Non_Exact","2108 TAMPA ST N, TAMPA, FL, 33602",104521838,"L"
114124,"2108 NW 24TH AVENUE","CAPE CORAL",NA,33993,26.6921511050001,-82.021934523,124,"2108 NW 24TH AVENUE, CAPE CORAL, , 33993","Match","Exact","2108 NW 24TH AVE, CAPE CORAL, FL, 33993",117998837,"L"
114125,"2108 OWLS COVE LANE","RESTON","VA",20191,38.933455241,-77.33188898,125,"2108 OWLS COVE LANE, RESTON, VA, 20191","Match","Exact","2108 OWLS COVE LN, RESTON, VA, 20191",215922619,"R"
114126,"2108 PIN OAK PKWY","BOWIE","MD",20721,38.918848417,-76.7444790059999,126,"2108 PIN OAK PKWY, BOWIE, MD, 20721","Match","Exact","2108 PIN OAK PKWY, BOWIE, MD, 20721",76416956,"L"
114127,"2108 REYNOLDS","MUSKEGON","MI",49444,43.2138786470001,-86.238192506,127,"2108 REYNOLDS, MUSKEGON, MI, 49444","Match","Non_Exact","2108 REYNOLDS ST, MUSKEGON, MI, 49444",77651720,"L"
114128,"2108 ROSETTA DRIVE","CHALMETTE","LA",70043,29.9358900390001,-89.961420039,128,"2108 ROSETTA DRIVE, CHALMETTE, LA, 70043","Match","Exact","2108 ROSETTA DR, CHALMETTE, LA, 70043",111187257,"L"
114129,"2108 S KANAWAH ST","BECKLEY","WV",25801,NA,NA,129,"2108 S KANAWAH ST, BECKLEY, WV, 25801","No_Match",NA,NA,NA,NA
114130,"2108 SEDALIA LANE","LEXINGTON","KY",40513,38.030752852,-84.569669171,130,"2108 SEDALIA LANE, LEXINGTON, KY, 40513","Match","Exact","2108 SEDALIA LN, LEXINGTON, KY, 40513",31954579,"R"
114131,"2108 SPOOKY HOLLOW ROAD","LOWER BURRELL","PA",15068,NA,NA,131,"2108 SPOOKY HOLLOW ROAD, LOWER BURRELL, PA, 15068","No_Match",NA,NA,NA,NA
114132,"2108 THEODORE ROAD","RISING SUN","MD",21911,NA,NA,132,"2108 THEODORE ROAD, RISING SUN, MD, 21911","No_Match",NA,NA,NA,NA
114133,"2108 TREVERTON PLACE","RALEIGH","NC",27609,35.861941008,-78.6086587189999,133,"2108 TREVERTON PLACE, RALEIGH, NC, 27609","Match","Exact","2108 TREVERTON PL, RALEIGH, NC, 27609",72540360,"L"
114134,"2108 VARDEN COURT","CHARLOTTE","NC",28208,35.2522299940001,-80.920551975,134,"2108 VARDEN COURT, CHARLOTTE, NC, 28208","Match","Exact","2108 VARDEN CT, CHARLOTTE, NC, 28208",70507488,"L"
114135,"2108 W PALMAIRE AVE","PHOENIX","AZ",85021,33.5408914270001,-112.104397936,135,"2108 W PALMAIRE AVE, PHOENIX, AZ, 85021","Match","Exact","2108 W PALMAIRE AVE, PHOENIX, AZ, 85021",128918424,"R"
114136,"2108 WEBSTER ST","PHILADELPHIA","PA",19146,39.9419481410001,-75.1778430959999,136,"2108 WEBSTER ST, PHILADELPHIA, PA, 19146","Match","Exact","2108 WEBSTER ST, PHILADELPHIA, PA, 19146",131407202,"L"
114137,"2108 WINNING COLORS LANE","LEXINGTON","KY",40509,38.01099258,-84.3842746669999,137,"2108 WINNING COLORS LANE, LEXINGTON, KY, 40509","Match","Exact","2108 WINNING COLORS LN, LEXINGTON, KY, 40509",31952390,"R"
114138,"21080 OSAGE STREET","HELENA","MO",64459,39.9144251180001,-94.649573297,138,"21080 OSAGE STREET, HELENA, MO, 64459","Match","Exact","21080 OSAGE ST, HELENA, MO, 64459",15934318,"L"
114139,"21081 BELLEMEADE DR","LAWRENCEBURG","IN",47025,39.1773907100001,-84.856134509,139,"21081 BELLEMEADE DR, LAWRENCEBURG, IN, 47025","Match","Exact","21081 BELLEMEADE DR, LAWRENCEBURG, IN, 47025",76858150,"R"
114140,"21087 NE SHORE DR","FAIRVIEW","OR",97024,45.547708141,-122.445453833,140,"21087 NE SHORE DR, FAIRVIEW, OR, 97024","Match","Exact","21087 NE SHORE DR, FAIRVIEW, OR, 97024",157600843,"L"
114141,"21087 SE 7TH PL","SAMMAMISH","WA",98074,47.6023480590001,-122.059874199,141,"21087 SE 7TH PL, SAMMAMISH, WA, 98074","Match","Exact","21087 SE 7TH PL, SAMMAMISH, WA, 98074",640958281,"L"
114142,"2108A LEE STREET","LONGVIEW","TX",75604,32.5284656690001,-94.813379369,142,"2108A LEE STREET, LONGVIEW, TX, 75604","Match","Exact","2108 LEE ST, LONGVIEW, TX, 75604",141107247,"R"
114143,"2109  9TH STREET NORTH","FARGO","ND",58102,46.9065010940001,-96.791041848,143,"2109  9TH STREET NORTH, FARGO, ND, 58102","Match","Exact","2109 9TH ST N, FARGO, ND, 58102",151445897,"R"
114144,"2109 141ST AVE NE","HAM LAKE","MN",55304,45.2255518440001,-93.217372795,144,"2109 141ST AVE NE, HAM LAKE, MN, 55304","Match","Exact","2109 141ST AVE NE, HAM LAKE, MN, 55304",97540677,"L"
114145,"2109 30TH ST","DES MOINES","IA",50310,41.6137453380001,-93.658500112,145,"2109 30TH ST, DES MOINES, IA, 50310","Match","Exact","2109 30TH ST, DES MOINES, IA, 50310",65780309,"R"
114146,"2109 50TH AVE NW","GIG HARBOR","WA",98335,47.277153281,-122.605642154,146,"2109 50TH AVE NW, GIG HARBOR, WA, 98335","Match","Exact","2109 50TH AVE NW, GIG HARBOR, WA, 98335",184732856,"R"
114147,"2109 AMBASSADOR CT","ORLANDO","FL",32808,28.569949067,-81.467093087,147,"2109 AMBASSADOR CT, ORLANDO, FL, 32808","Match","Exact","2109 AMBASSADOR CT, ORLANDO, FL, 32808",94269019,"R"
114148,"2109 AMSTERDAM AVE APT 2D","NEW YORK","NY",10032,40.83756894,-73.938584244,148,"2109 AMSTERDAM AVE APT 2D, NEW YORK, NY, 10032","Match","Exact","2109 AMSTERDAM AVE, NEW YORK, NY, 10032",59655832,"R"
114149,"2109 BLOOMFIELD AVE","ROANOKE","VA",24012,37.3150333890001,-79.895398406,149,"2109 BLOOMFIELD AVE, ROANOKE, VA, 24012","Match","Exact","2109 BLOOMFIELD AVE, ROANOKE, VA, 24012",62929393,"R"
114150,"2109 BRIGADE DR","CHALMETTE","LA",70043,29.946718171,-89.983105149,150,"2109 BRIGADE DR, CHALMETTE, LA, 70043","Match","Exact","2109 BRIGADE DR, CHALMETTE, LA, 70043",111186732,"R"
114151,"2109 BROADWAY APT 5157","NEW YORK","NY",10023,40.7798789760001,-73.981640308,151,"2109 BROADWAY APT 5157, NEW YORK, NY, 10023","Match","Exact","2109 BROADWAY, NEW YORK, NY, 10023",59656990,"L"
114152,"2109 BROADWAY SUITE 5-20","NEW YORK","NY",10023,40.7798789760001,-73.981640308,152,"2109 BROADWAY SUITE 5-20, NEW YORK, NY, 10023","Match","Exact","2109 BROADWAY, NEW YORK, NY, 10023",59656990,"L"
114153,"2109 CARROLL CREEK VIEW COURT","FREDERICK","MD",21702,39.4417363330001,-77.442611095,153,"2109 CARROLL CREEK VIEW COURT, FREDERICK, MD, 21702","Match","Exact","2109 CARROLL CREEK VIEW CT, FREDERICK, MD, 21702",60707569,"L"
114154,"2109 CLOVER MILL ROAD","QUAKERTOWN","PA",18951,40.435843726,-75.4002055719999,154,"2109 CLOVER MILL ROAD, QUAKERTOWN, PA, 18951","Match","Exact","2109 CLOVER MILL RD, QUAKERTOWN, PA, 18951",134750315,"L"
114155,"2109 CRYSTAL LAKE ROAD","CARY","IL",60013,42.2344937920001,-88.239642018,155,"2109 CRYSTAL LAKE ROAD, CARY, IL, 60013","Match","Exact","2109 CRYSTAL LAKE RD, CARY, IL, 60013",617580638,"R"
114156,"2109 DAISY LANE","FORT WORTH","TX",76111,32.7848415350001,-97.3148041439999,156,"2109 DAISY LANE, FORT WORTH, TX, 76111","Match","Exact","2109 DAISY LN, FORT WORTH, TX, 76111",102105737,"L"
114157,"2109 E PALM AVE  STE 201","TAMPA","FL",33605,27.962431128,-82.4354054029999,157,"2109 E PALM AVE  STE 201, TAMPA, FL, 33605","Match","Non_Exact","2109 E PALM AVE, TAMPA, FL, 33605",104624906,"R"
114158,"2109 EAST AVE I","TEMPLE","TX",76501,31.0815364530001,-97.3251007919999,158,"2109 EAST AVE I, TEMPLE, TX, 76501","Match","Exact","2109 E AVE I, TEMPLE, TX, 76501",146150284,"R"
114159,"2109 EMORTON PARK ROAD - SUITE 119","EDGEWOOD","MD",21040,39.451753078,-76.308227571,159,"2109 EMORTON PARK ROAD - SUITE 119, EDGEWOOD, MD, 21040","Match","Non_Exact","2109 EMMORTON PARK DR, EDGEWOOD, MD, 21040",191672017,"L"
114160,"2109 ESTES PARK ROAD","SOUTHLAKE","TX",76092,32.9677824010001,-97.140356017,160,"2109 ESTES PARK ROAD, SOUTHLAKE, TX, 76092","Match","Non_Exact","2109 ESTES PARK DR, SOUTHLAKE, TX, 76092",634105045,"R"
114161,"2109 ETIENNE DRIVE","MERAUX","LA",70075,29.931458391,-89.930976237,161,"2109 ETIENNE DRIVE, MERAUX, LA, 70075","Match","Exact","2109 ETIENNE DR, MERAUX, LA, 70075",111192845,"L"
114162,"2109 FOREST HILL RD","ALEXANDRIA","VA",22307,38.7816167390001,-77.066511836,162,"2109 FOREST HILL RD, ALEXANDRIA, VA, 22307","Match","Non_Exact","2109 FORESTHILL RD, ALEXANDRIA, VA, 22307",75989732,"L"
114163,"2109 GOODWIN DRIVE","VISTA","CA",92084,33.2323468220001,-117.243540072,163,"2109 GOODWIN DRIVE, VISTA, CA, 92084","Match","Exact","2109 GOODWIN DR, VISTA, CA, 92084",612859145,"R"
114164,"2109 GREEN CREEK RD","MUSKEGON","MI",49445,43.293707313,-86.311124109,164,"2109 GREEN CREEK RD, MUSKEGON, MI, 49445","Match","Non_Exact","2109 N GREEN CREEK RD, MUSKEGON, MI, 49445",627817199,"L"
114165,"2109 HARDING RD","AUGUSTA","GA",30906,33.416486112,-82.0243677349999,165,"2109 HARDING RD, AUGUSTA, GA, 30906","Match","Exact","2109 HARDING RD, AUGUSTA, GA, 30906",55649275,"R"
114166,"2109 HAYES ST","ANACONDA","MT",59711,46.137953614,-112.985856862,166,"2109 HAYES ST, ANACONDA, MT, 59711","Match","Non_Exact","2109 HAYES AVE, ANACONDA, MT, 59711",152705779,"L"
114167,"2109 HIGHCOURT LN UNIT 103","HERNDON","VA",20170,38.955426296,-77.392568825,167,"2109 HIGHCOURT LN UNIT 103, HERNDON, VA, 20170","Match","Exact","2109 HIGHCOURT LN, HERNDON, VA, 20170",76035978,"R"
114168,"2109 J STREET","SPRINGFIELD","OR",97477,44.055142242,-122.99413578,168,"2109 J STREET, SPRINGFIELD, OR, 97477","Match","Exact","2109 J ST, SPRINGFIELD, OR, 97477",178173527,"R"
114169,"2109 LARGO ROAD","WILMINGTON","DE",19803,39.8011515680001,-75.5354375109999,169,"2109 LARGO ROAD, WILMINGTON, DE, 19803","Match","Exact","2109 LARGO RD, WILMINGTON, DE, 19803",187256252,"R"
114170,"2109 LONESOME ROAD","MANDEVILLE","LA",70448,30.389694896,-90.049037239,170,"2109 LONESOME ROAD, MANDEVILLE, LA, 70448","Match","Exact","2109 LONESOME RD, MANDEVILLE, LA, 70448",111272831,"L"
114171,"2109 LUANN LANE","MADISON","WI",53713,43.032726317,-89.416332698,171,"2109 LUANN LANE, MADISON, WI, 53713","Match","Exact","2109 LUANN LN, MADISON, WI, 53713",49530497,"R"
114172,"2109 M STREET","RICHMOND","VA",23223,37.536457795,-77.4196659099999,172,"2109 M STREET, RICHMOND, VA, 23223","Match","Exact","2109 M ST, RICHMOND, VA, 23223",201541198,"R"
114173,"2109 MCDONALD ROAD","HENRICO","VA",23222,37.5835078320001,-77.3960046239999,173,"2109 MCDONALD ROAD, HENRICO, VA, 23222","Match","Non_Exact","2109 MCDONALD RD, RICHMOND, VA, 23222",106649531,"R"
114174,"2109 MONCRIEF ROAD","GARDENDALE","AL",35071,33.673022707,-86.815800902,174,"2109 MONCRIEF ROAD, GARDENDALE, AL, 35071","Match","Exact","2109 MONCRIEF RD, GARDENDALE, AL, 35071",635826460,"R"
114175,"2109 MOORWOOD DR","HOLT","MI",48842,42.643356,-84.568587146,175,"2109 MOORWOOD DR, HOLT, MI, 48842","Match","Exact","2109 MOORWOOD DR, HOLT, MI, 48842",642537312,"R"
114176,"2109 MORGAN CREEK DRIVE","FORT WAYNE","IN",46808,41.093821136,-85.203237744,176,"2109 MORGAN CREEK DRIVE, FORT WAYNE, IN, 46808","Match","Exact","2109 MORGAN CREEK DR, FORT WAYNE, IN, 46808",606532924,"L"
114177,"2109 OAK FOREST RD","WESTLAKE","LA",70669,30.2611332560001,-93.229166181,177,"2109 OAK FOREST RD, WESTLAKE, LA, 70669","Match","Exact","2109 OAK FOREST RD, WESTLAKE, LA, 70669",600634437,"R"
114178,"2109 PACIFIC AVE","LONG BEACH","CA",90806,33.7955752030001,-118.193716116,178,"2109 PACIFIC AVE, LONG BEACH, CA, 90806","Match","Exact","2109 PACIFIC AVE, LONG BEACH, CA, 90806",141686832,"L"
114179,"2109 PARK RIDGE ESTATES APT 2019","RUSTON","LA",71270,32.5336795540001,-92.664697076,179,"2109 PARK RIDGE ESTATES APT 2019, RUSTON, LA, 71270","Match","Non_Exact","2109 PARK RIDGE LN, RUSTON, LA, 71270",650346060,"R"
114180,"2109 ROCKWOOD COVE","JONESBORO","AR",72401,35.7872837510001,-90.7400893079999,180,"2109 ROCKWOOD COVE, JONESBORO, AR, 72401","Match","Non_Exact","2109 ROCKWOOD COVE, JONESBORO, AR, 72404",46943757,"L"
114181,"2109 S SKIPWORTH","SPOKANE VALLEY","WA",99206,47.6377527330001,-117.253326907,181,"2109 S SKIPWORTH, SPOKANE VALLEY, WA, 99206","Match","Non_Exact","2109 S SKIPWORTH RD, SPOKANE VALLEY, WA, 99206",189887582,"L"
114182,"2109 SAWDUST ROAD NO 14204","SPRING","TX",77380,30.130277522,-95.472051058,182,"2109 SAWDUST ROAD NO 14204, SPRING, TX, 77380","Match","Non_Exact","2109 SAWDUST RD, SPRING, TX, 77380",633114226,"L"
114183,"2109 SCISSOR TAIL RD","PEARLAND","TX",77581,29.572278747,-95.3360250379999,183,"2109 SCISSOR TAIL RD, PEARLAND, TX, 77581","Match","Exact","2109 SCISSOR TAIL RD, PEARLAND, TX, 77581",648577566,"R"
114184,"2109 SE SERENADE WAY","PORT ORCHARD","WA",98366,47.515469372,-122.624602673,184,"2109 SE SERENADE WAY, PORT ORCHARD, WA, 98366","Match","Exact","2109 SE SERENADE WAY, PORT ORCHARD, WA, 98366",187643751,"R"
114185,"2109 SENECA DRIVE","CHARLESTON","IL",61920,39.475623397,-88.188593763,185,"2109 SENECA DRIVE, CHARLESTON, IL, 61920","Match","Exact","2109 SENECA DR, CHARLESTON, IL, 61920",5452734,"L"
114186,"2109 SHADOW CREEK DRIVE","RALEIGH","NC",27604,35.813692303,-78.548938947,186,"2109 SHADOW CREEK DRIVE, RALEIGH, NC, 27604","Match","Exact","2109 SHADOW CREEK DR, RALEIGH, NC, 27604",612825203,"L"
114187,"2109 ST ANDREW STREET","NEW ORLEANS","LA",70113,29.9398354,-90.08270638,187,"2109 ST ANDREW STREET, NEW ORLEANS, LA, 70113","Match","Exact","2109 SAINT ANDREW ST, NEW ORLEANS, LA, 70113",191732717,"R"
114188,"2109 SUNFLOWER DRIVE","JUNCTION CITY","KS",66441,39.0178776820001,-96.867743897,188,"2109 SUNFLOWER DRIVE, JUNCTION CITY, KS, 66441","Match","Exact","2109 SUNFLOWER DR, JUNCTION CITY, KS, 66441",28392931,"L"
114189,"2109 THOROUGHGOOD RD NUM 5845","VIRGINIA BEACH","VA",23455,36.895453194,-76.140903819,189,"2109 THOROUGHGOOD RD NUM 5845, VIRGINIA BEACH, VA, 23455","Match","Exact","2109 THOROUGHGOOD RD, VIRGINIA BCH, VA, 23455",122259265,"L"
114190,"2109 TILLERS PLOW ROW","EFFINGHAM","SC",29541,34.1554096740001,-79.825012256,190,"2109 TILLERS PLOW ROW, EFFINGHAM, SC, 29541","Match","Non_Exact","2109 W TILLERS PLOW ROW, EFFINGHAM, SC, 29541",633779800,"R"
114191,"2109 W 10TH ST","PANAMA CITY","FL",32401,30.167439233,-85.69231382,191,"2109 W 10TH ST, PANAMA CITY, FL, 32401","Match","Exact","2109 W 10TH ST, PANAMA CITY, FL, 32401",7028575,"L"
114192,"2109 W ARTHUR AVE","CHICAGO","IL",60645,41.999655191,-87.682995744,192,"2109 W ARTHUR AVE, CHICAGO, IL, 60645","Match","Exact","2109 W ARTHUR AVE, CHICAGO, IL, 60645",111744885,"L"
114193,"2109 W MAIN ST","RICHMOND","VA",23220,37.549713167,-77.467274673,193,"2109 W MAIN ST, RICHMOND, VA, 23220","Match","Exact","2109 W MAIN ST, RICHMOND, VA, 23220",201536127,"L"
114194,"2109 W MARKET ST NUM 100-D","JOHNSON CITY","TN",37604,36.3108849330001,-82.390235316,194,"2109 W MARKET ST NUM 100-D, JOHNSON CITY, TN, 37604","Match","Non_Exact","2109 W MARKET ST, JOHNSON CITY, TN, 37604",636644582,"R"
114195,"2109 W PARKER ROAD STE 728","PLANO","TX",75023,33.0410805330001,-96.734818557,195,"2109 W PARKER ROAD STE 728, PLANO, TX, 75023","Match","Non_Exact","2109 W PARKER RD, PLANO, TX, 75023",210489156,"L"
114196,"2109 WASHINGTON OVERLOOK DR","FORT WASHINGTON","MD",20744,38.7624117010001,-76.972547042,196,"2109 WASHINGTON OVERLOOK DR, FORT WASHINGTON, MD, 20744","Match","Exact","2109 WASHINGTON OVERLOOK DR, FT WASHINGTON, MD, 20744",76387783,"L"
114197,"2109 WATERLEAF WAY","BOWIE","MD",20721,38.9185442130001,-76.806033025,197,"2109 WATERLEAF WAY, BOWIE, MD, 20721","Match","Exact","2109 WATERLEAF WAY, BOWIE, MD, 20721",76331708,"L"
114198,"2109 WEKIVA RESERVE BOULEVARD","APOPKA","FL",32703,28.6784864690001,-81.470287838,198,"2109 WEKIVA RESERVE BOULEVARD, APOPKA, FL, 32703","Match","Exact","2109 WEKIVA RESERVE BLVD, APOPKA, FL, 32703",94378263,"L"
114199,"2109 WEST RESERVE DRIVE","PHILADELPHIA","PA",19145,39.908383413,-75.1853358819999,199,"2109 WEST RESERVE DRIVE, PHILADELPHIA, PA, 19145","Match","Non_Exact","2109 RESERVE DR, PHILADELPHIA, PA, 19145",625532972,"R"
114200,"2109 WHIGHTMAN STREET APARTMENT 9","PITTSBURGH","PA",15217,NA,NA,200,"2109 WHIGHTMAN STREET APARTMENT 9, PITTSBURGH, PA, 15217","No_Match",NA,NA,NA,NA
114201,"2109 WILTSHIRE BLVD","HUNTINGTON","WV",25701,38.4046551440001,-82.415579776,201,"2109 WILTSHIRE BLVD, HUNTINGTON, WV, 25701","Match","Exact","2109 WILTSHIRE BLVD, HUNTINGTON, WV, 25701",101318851,"R"
114202,"2109 WINDROSE PL","MOUNTAIN VIEW","CA",94043,37.4157462970001,-122.093419598,202,"2109 WINDROSE PL, MOUNTAIN VIEW, CA, 94043","Match","Exact","2109 WINDROSE PL, MOUNTAIN VIEW, CA, 94043",627230192,"L"
114203,"2109 ZEPPELIN DRIVE","CEDAR PARK","TX",78613,30.485730979,-97.849502837,203,"2109 ZEPPELIN DRIVE, CEDAR PARK, TX, 78613","Match","Exact","2109 ZEPPELIN DR, CEDAR PARK, TX, 78613",126463322,"L"
114204,"2109","LEANDER","TX",78641,NA,NA,204,"2109, LEANDER, TX, 78641","No_Match",NA,NA,NA,NA
114205,"2109","MOUNTAIN HOME","AR",72653,NA,NA,205,"2109, MOUNTAIN HOME, AR, 72653","No_Match",NA,NA,NA,NA
114206,"21091 LINCOLN ST","ABITA SPRINGS","LA",70420,30.4495087760001,-90.05494548,206,"21091 LINCOLN ST, ABITA SPRINGS, LA, 70420","Match","Exact","21091 LINCOLN ST, ABITA SPRINGS, LA, 70420",111235548,"L"
114207,"21092 451ST AVENUE","ARLINGTON","MN",55307,44.6437333200001,-94.172946474,207,"21092 451ST AVENUE, ARLINGTON, MN, 55307","Match","Exact","21092 451ST AVE, ARLINGTON, MN, 55307",37010990,"L"
114208,"21093","FLORAL PARK","NY",11002,NA,NA,208,"21093, FLORAL PARK, NY, 11002","No_Match",NA,NA,NA,NA
114209,"21094 FLORA STREET","ROSEVILLE","MI",48066,42.527685954,-82.904320549,209,"21094 FLORA STREET, ROSEVILLE, MI, 48066","Match","Exact","21094 FLORA ST, ROSEVILLE, MI, 48066",110682006,"R"
114210,"21097 FIR TRAIL","PARK RAPIDS","MN",56470,46.9653721400001,-95.068385549,210,"21097 FIR TRAIL, PARK RAPIDS, MN, 56470","Match","Exact","21097 FIR TRL, PARK RAPIDS, MN, 56470",635614351,"L"
114211,"21099 OLD RANCH CT","SALINAS","CA",93908,36.6190961500001,-121.671702921,211,"21099 OLD RANCH CT, SALINAS, CA, 93908","Match","Exact","21099 OLD RANCH CT, SALINAS, CA, 93908",196841113,"L"
114212,"210A MAIN STREET","ALEXANDRIA","PA",16611,40.556178403,-78.0970129149999,212,"210A MAIN STREET, ALEXANDRIA, PA, 16611","Match","Exact","210 MAIN ST, ALEXANDRIA, PA, 16611",50615610,"L"
114213,"210D HARBOR BLVD","DESTIN","FL",32541,30.3954078990001,-86.5127892959999,213,"210D HARBOR BLVD, DESTIN, FL, 32541","Match","Exact","210 HARBOR BLVD, DESTIN, FL, 32541",624541953,"L"
114214,"210WEST 104TH STUNIT 10E","NEW YORK","NY",10025,NA,NA,214,"210WEST 104TH STUNIT 10E, NEW YORK, NY, 10025","No_Match",NA,NA,NA,NA
114215,"211 1/2 N FIRST ST","TALENT","OR",97540,42.244606751,-122.79232131,215,"211 1/2 N FIRST ST, TALENT, OR, 97540","Match","Exact","211 N 1ST ST, TALENT, OR, 97540",155520349,"L"
114216,"211 10TH ST","AUGUSTA","GA",30901,NA,NA,216,"211 10TH ST, AUGUSTA, GA, 30901","No_Match",NA,NA,NA,NA
114217,"211 19TH AVE NORTH","NAMPA","ID",83687,43.576778344,-116.548632182,217,"211 19TH AVE NORTH, NAMPA, ID, 83687","Match","Exact","211 19TH AVE N, NAMPA, ID, 83687",122817592,"L"
114218,"211 23RD AVE N","SAINT CLOUD","MN",56303,45.5570269130001,-94.1853204779999,218,"211 23RD AVE N, SAINT CLOUD, MN, 56303","Match","Exact","211 23RD AVE N, SAINT CLOUD, MN, 56303",107414595,"L"
114219,"211 2ND AVE NE","CULLMAN","AL",35055,34.17932891,-86.842811185,219,"211 2ND AVE NE, CULLMAN, AL, 35055","Match","Exact","211 2ND AVE NE, CULLMAN, AL, 35055",130220329,"L"
114220,"211 4TH ST/ 2ND FLOOR/ SUITE 200","ALEXANDRIA","LA",71303,NA,NA,220,"211 4TH ST/ 2ND FLOOR/ SUITE 200, ALEXANDRIA, LA, 71303","No_Match",NA,NA,NA,NA
114221,"211 4TH STREET","TIFTON","GA",31794,NA,NA,221,"211 4TH STREET, TIFTON, GA, 31794","Tie",NA,NA,NA,NA
114222,"211 5TH STREET","CHICKASAW","AL",36611,30.7626893400001,-88.07999232,222,"211 5TH STREET, CHICKASAW, AL, 36611","Match","Exact","211 5TH ST, CHICKASAW, AL, 36611",61851029,"L"
114223,"211 68TH STREET SOUTH","BIRMINGHAM","AL",35212,33.548615956,-86.734005735,223,"211 68TH STREET SOUTH, BIRMINGHAM, AL, 35212","Match","Exact","211 68TH ST S, BIRMINGHAM, AL, 35212",81762734,"L"
114224,"211 8TH AVENUE SW","CEDAR RAPIDS","IA",52404,41.9694414350001,-91.670379591,224,"211 8TH AVENUE SW, CEDAR RAPIDS, IA, 52404","Match","Exact","211 8TH AVE SW, CEDAR RAPIDS, IA, 52404",17025898,"L"
114225,"211 8TH ST","BROOKLYN","NY",11215,40.6708643420001,-73.988018289,225,"211 8TH ST, BROOKLYN, NY, 11215","Match","Exact","211 8TH ST, BROOKLYN, NY, 11215",59075699,"L"
114226,"211 9TH STREET SOUTH","FARGO","ND",58103,46.8724913900001,-96.7928258759999,226,"211 9TH STREET SOUTH, FARGO, ND, 58103","Match","Exact","211 9TH ST S, FARGO, ND, 58103",151472263,"R"
114227,"211 ACADEMY STREET","BOONVILLE","NY",13309,43.479876651,-75.331384838,227,"211 ACADEMY STREET, BOONVILLE, NY, 13309","Match","Exact","211 ACADEMY ST, BOONVILLE, NY, 13309",171533940,"L"
114228,"211 ACADEMY STREET","SOUTH ORANGE","NJ",7079,40.7415164060001,-74.260366486,228,"211 ACADEMY STREET, SOUTH ORANGE, NJ, 7079","Match","Exact","211 ACADEMY ST, SOUTH ORANGE, NJ, 07079",63462882,"R"
114229,"211 ADAIR DR","SANTA BARBARA","CA",93105,34.4423880890001,-119.741814794,229,"211 ADAIR DR, SANTA BARBARA, CA, 93105","Match","Exact","211 ADAIR DR, SANTA BARBARA, CA, 93105",108603484,"L"
114230,"211 ADAIR DRIVE","SANTA BARBARA","CA",93105,34.4423880890001,-119.741814794,230,"211 ADAIR DRIVE, SANTA BARBARA, CA, 93105","Match","Exact","211 ADAIR DR, SANTA BARBARA, CA, 93105",108603484,"L"
114231,"211 ADELAIDE ST","BELLEVILLE","NJ",7109,40.80464032,-74.155032362,231,"211 ADELAIDE ST, BELLEVILLE, NJ, 7109","Match","Exact","211 ADELAIDE ST, BELLEVILLE, NJ, 07109",63455311,"L"
114232,"211 AMHERST ROAD","GLENSHAW","PA",15116,40.548626508,-79.9682159929999,232,"211 AMHERST ROAD, GLENSHAW, PA, 15116","Match","Non_Exact","211 AMHERST DR, GLENSHAW, PA, 15116",51640177,"L"
114233,"211 ARBOR WAY","DALLAS","GA",30157,33.8279542860001,-84.873582809,233,"211 ARBOR WAY, DALLAS, GA, 30157","Match","Exact","211 ARBOR WAY, DALLAS, GA, 30157",207991310,"L"
114234,"211 ATHANIA PARKWAY","METAIRIE","LA",70001,29.9786925720001,-90.158165963,234,"211 ATHANIA PARKWAY, METAIRIE, LA, 70001","Match","Exact","211 ATHANIA PKWY, METAIRIE, LA, 70001",647781067,"R"
114235,"211 AUDREYS CT SE","VIENNA","VA",22180,38.893013029,-77.2459389219999,235,"211 AUDREYS CT SE, VIENNA, VA, 22180","Match","Exact","211 AUDREYS CT SE, VIENNA, VA, 22180",75970982,"L"
114236,"211 AVENUE O","WINTER HAVEN","FL",33885,NA,NA,236,"211 AVENUE O, WINTER HAVEN, FL, 33885","No_Match",NA,NA,NA,NA
114237,"211 AZURE HILL DR","VAN BUREN","AR",72956,35.45670204,-94.3630688389999,237,"211 AZURE HILL DR, VAN BUREN, AR, 72956","Match","Non_Exact","211 AZURE HILLS DR, VAN BUREN, AR, 72956",53497984,"L"
114238,"211 BAKER AVE","WESTFIELD","NJ",7090,40.660505019,-74.3421779459999,238,"211 BAKER AVE, WESTFIELD, NJ, 7090","Match","Exact","211 BAKER AVE, WESTFIELD, NJ, 07090",60566963,"L"
114239,"211 BAYBERRY DRIVE - SUITE 2A","CAPE MAY COURT HOUSE","NJ",8210,39.080238207,-74.816209337,239,"211 BAYBERRY DRIVE - SUITE 2A, CAPE MAY COURT HOUSE, NJ, 8210","Match","Exact","211 BAYBERRY DR, CAPE MAY COURT HOUSE, NJ, 08210",636067680,"R"
114240,"211 BELMONT STREET","BURLINGTON","NJ",8016,40.073831329,-74.8533847689999,240,"211 BELMONT STREET, BURLINGTON, NJ, 8016","Match","Exact","211 BELMONT ST, BURLINGTON, NJ, 08016",134033326,"L"
114241,"211 BENNINGTON CIRCLE","COLUMBIA","SC",29229,34.152289415,-80.917219701,241,"211 BENNINGTON CIRCLE, COLUMBIA, SC, 29229","Match","Exact","211 BENNINGTON CIR, COLUMBIA, SC, 29229",604797409,"L"
114242,"211 BERGEN AVE","VOORHEES","NJ",8043,39.8564342510001,-74.993689385,242,"211 BERGEN AVE, VOORHEES, NJ, 8043","Match","Exact","211 BERGEN AVE, VOORHEES, NJ, 08043",629314753,"L"
114243,"211 BLACKGUM LANE","MENA","AR",71953,NA,NA,243,"211 BLACKGUM LANE, MENA, AR, 71953","No_Match",NA,NA,NA,NA
114244,"211 BLUESTEM LANE","ALEDO","TX",76008,32.7057927870001,-97.60426975,244,"211 BLUESTEM LANE, ALEDO, TX, 76008","Match","Exact","211 BLUESTEM LN, ALEDO, TX, 76008",653212249,"L"
114245,"211 BOSTON  AVE","EGG HBR TWP","NJ",8234,39.357315973,-74.626668963,245,"211 BOSTON  AVE, EGG HBR TWP, NJ, 8234","Match","Exact","211 BOSTON AVE, EGG HARBOR TOWNSHIP, NJ, 08234",202481840,"R"
114246,"211 BOXFORD ST","NORTH ANDOVER","MA",1845,42.666400401,-71.0623073469999,246,"211 BOXFORD ST, NORTH ANDOVER, MA, 1845","Match","Exact","211 BOXFORD ST, NORTH ANDOVER, MA, 01845",86671768,"R"
114247,"211 BREAKERS EDGE CT","STAFFORD","VA",22554,38.473545615,-77.399142894,247,"211 BREAKERS EDGE CT, STAFFORD, VA, 22554","Match","Exact","211 BREAKERS EDGE CT, STAFFORD, VA, 22554",632949330,"L"
114248,"211 BRIARHAVEN DRIVE","DURHAM","NC",27703,35.9811184540001,-78.7965762219999,248,"211 BRIARHAVEN DRIVE, DURHAM, NC, 27703","Match","Exact","211 BRIARHAVEN DR, DURHAM, NC, 27703",71757121,"L"
114249,"211 BRIDGE AVE","MURFREESBORO","TN",37129,35.8439637380001,-86.399918323,249,"211 BRIDGE AVE, MURFREESBORO, TN, 37129","Match","Exact","211 BRIDGE AVE, MURFREESBORO, TN, 37129",59014078,"R"
114250,"211 BRIDGE ST","SALEM","MA",1970,42.5237991860001,-70.896567343,250,"211 BRIDGE ST, SALEM, MA, 1970","Match","Exact","211 BRIDGE ST, SALEM, MA, 01970",638200233,"L"
114251,"211 BROAD ST","WINTER HAVEN","FL",33881,28.0486642390001,-81.6809276389999,251,"211 BROAD ST, WINTER HAVEN, FL, 33881","Match","Exact","211 BROAD ST, WINTER HAVEN, FL, 33881",630324660,"R"
114252,"211 BROADWAY 2ND FL","METHUEN","MA",1844,NA,NA,252,"211 BROADWAY 2ND FL, METHUEN, MA, 1844","No_Match",NA,NA,NA,NA
114253,"211 BROOKS ST BOX 2793","OCEANSIDE","CA",92051,NA,NA,253,"211 BROOKS ST BOX 2793, OCEANSIDE, CA, 92051","No_Match",NA,NA,NA,NA
114254,"211 BROWNS TRACE RD","JERICHO","VT",5465,44.4792890160001,-72.967471068,254,"211 BROWNS TRACE RD, JERICHO, VT, 5465","Match","Exact","211 BROWNS TRACE RD, JERICHO, VT, 05465",135835318,"R"
114255,"211 CALITHEA LANE","HILLSBOROUGH","NC",27278,NA,NA,255,"211 CALITHEA LANE, HILLSBOROUGH, NC, 27278","No_Match",NA,NA,NA,NA
114256,"211 CALLE FANILLIA","OAK PARK","CA",91377,34.1739495100001,-118.765200468,256,"211 CALLE FANILLIA, OAK PARK, CA, 91377","Match","Non_Exact","211 CLL FANILLIA, OAK PARK, CA, 91377",110057446,"L"
114257,"211 CANDLELIGHT LANE","IRONDALE","AL",35210,33.538216479,-86.6858918789999,257,"211 CANDLELIGHT LANE, IRONDALE, AL, 35210","Match","Exact","211 CANDLELIGHT LN, IRONDALE, AL, 35210",647647680,"R"
114258,"211 CARDINAL AVENUE","VERSAILLES","KY",40383,38.057078061,-84.7362297179999,258,"211 CARDINAL AVENUE, VERSAILLES, KY, 40383","Match","Exact","211 CARDINAL AVE, VERSAILLES, KY, 40383",38495795,"R"
114259,"211 CATHEDRAL COURT","NEWARK","NJ",7104,40.7501519510001,-74.175136142,259,"211 CATHEDRAL COURT, NEWARK, NJ, 7104","Match","Exact","211 CATHEDRAL CT, NEWARK, NJ, 07104",63477029,"L"
114260,"211 CEDARBROOK COURT","LITTLE EGG HARBOR","NJ",8087,39.5732277450001,-74.3551173499999,260,"211 CEDARBROOK COURT, LITTLE EGG HARBOR, NJ, 8087","Match","Exact","211 CEDARBROOK CT, LITTLE EGG HARBOR, NJ, 08087",203805779,"L"
114261,"211 CENTER STREEET","LAVERGNE","TN",37086,NA,NA,261,"211 CENTER STREEET, LAVERGNE, TN, 37086","No_Match",NA,NA,NA,NA
114262,"211 CENTER STREET","IRONTON","OH",45645,38.5352190300001,-82.686276348,262,"211 CENTER STREET, IRONTON, OH, 45645","Match","Non_Exact","211 CENTER ST, IRONTON, OH, 45638",55009623,"L"
114263,"211 CENTRAL PARK WEST - APT 18J","NEW YORK","NY",10024,40.7824388990001,-73.9714248129999,263,"211 CENTRAL PARK WEST - APT 18J, NEW YORK, NY, 10024","Match","Exact","211 CENTRAL PARK W, NEW YORK, NY, 10024",59656770,"L"
114264,"211 CENTRAL ST A301","NORWOOD","MA",2062,42.1952308210001,-71.1988844209999,264,"211 CENTRAL ST A301, NORWOOD, MA, 2062","Match","Exact","211 CENTRAL ST, NORWOOD, MA, 02062",87243694,"R"
114265,"211 CHEADLE LOOP ROAD","SEAFORD","VA",23696,37.1849256990001,-76.432490919,265,"211 CHEADLE LOOP ROAD, SEAFORD, VA, 23696","Match","Exact","211 CHEADLE LOOP RD, SEAFORD, VA, 23696",103793484,"L"
114266,"211 CHURCH RD","BRIDGEWATER","NJ",8807,40.5995284730001,-74.6709665509999,266,"211 CHURCH RD, BRIDGEWATER, NJ, 8807","Match","Exact","211 CHURCH RD, BRIDGEWATER, NJ, 08807",59944667,"L"
114267,"211 CHURCH ST","SOUTHAMPTON","NY",11968,40.872622629,-72.433161217,267,"211 CHURCH ST, SOUTHAMPTON, NY, 11968","Match","Non_Exact","211 W CHURCH ST, SOUTHAMPTON, NY, 11968",114029364,"R"
114268,"211 CHURCH STREET","SARATOGA SPRINGS","NY",12866,43.0847889390001,-73.796216723,268,"211 CHURCH STREET, SARATOGA SPRINGS, NY, 12866","Match","Exact","211 CHURCH ST, SARATOGA SPGS, NY, 12866",18767507,"L"
114269,"211 CLARK STREET","CLARKSDALE","MS",38614,34.206187196,-90.5742927219999,269,"211 CLARK STREET, CLARKSDALE, MS, 38614","Match","Exact","211 CLARK ST, CLARKSDALE, MS, 38614",953009,"L"
114270,"211 CLUBHOUSE DRIVE","WILLINGBORO","NJ",8046,40.0151943480001,-74.9008588309999,270,"211 CLUBHOUSE DRIVE, WILLINGBORO, NJ, 8046","Match","Non_Exact","211 CLUB HOUSE DR, WILLINGBORO, NJ, 08046",645318487,"R"
114271,"211 COLLINS RD","PETAL","MS",39465,31.338915377,-89.25158762,271,"211 COLLINS RD, PETAL, MS, 39465","Match","Exact","211 COLLINS RD, PETAL, MS, 39465",647545276,"R"
114272,"211 COMMERCE STREET SUITE 600","NASHVILLE","TN",37201,36.163052555,-86.776505385,272,"211 COMMERCE STREET SUITE 600, NASHVILLE, TN, 37201","Match","Exact","211 COMMERCE ST, NASHVILLE, TN, 37201",606407529,"L"
114273,"211 COMMERCE STREET","HOPKINSVILLE","KY",42211,NA,NA,273,"211 COMMERCE STREET, HOPKINSVILLE, KY, 42211","No_Match",NA,NA,NA,NA
114274,"211 CORNWELL DRIVE","BEAR","DE",19701,39.567032591,-75.689523908,274,"211 CORNWELL DRIVE, BEAR, DE, 19701","Match","Exact","211 CORNWELL DR, BEAR, DE, 19701",635473859,"L"
114275,"211 COUNTY RD 294","BURNSVILLE","MS",38833,34.867280814,-88.325502464,275,"211 COUNTY RD 294, BURNSVILLE, MS, 38833","Match","Exact","211 CO RD 294, BURNSVILLE, MS, 38833",649621812,"L"
114276,"211 COUNTY RD 6","MEEKER","CO",81641,40.0309355210001,-107.821604717,276,"211 COUNTY RD 6, MEEKER, CO, 81641","Match","Exact","211 CO RD 6, MEEKER, CO, 81641",607187196,"R"
114277,"211 COUNTY ROAD 401","FALKNER","MS",38629,34.8372009060001,-88.9623209549999,277,"211 COUNTY ROAD 401, FALKNER, MS, 38629","Match","Exact","211 CO RD 401, FALKNER, MS, 38629",76570284,"L"
114278,"211 COVINGTON COVE","BYRON","GA",31008,32.628469647,-83.712683824,278,"211 COVINGTON COVE, BYRON, GA, 31008","Match","Exact","211 COVINGTON COVE, BYRON, GA, 31008",217635751,"R"
114279,"211 CRABTREE LANE","BOWLING GREEN","KY",42103,36.9364905040001,-86.3322563899999,279,"211 CRABTREE LANE, BOWLING GREEN, KY, 42103","Match","Exact","211 CRABTREE LN, BOWLING GREEN, KY, 42103",28011409,"L"
114280,"211 CREEKTOP CT","GREENVILLE","SC",29605,34.761947708,-82.3430184429999,280,"211 CREEKTOP CT, GREENVILLE, SC, 29605","Match","Exact","211 CREEKTOP CT, GREENVILLE, SC, 29605",632747254,"L"
114281,"211 DARDEN HILL ROAD SUITE A200","DRIFTWOOD","TX",78619,30.150994842,-98.050224118,281,"211 DARDEN HILL ROAD SUITE A200, DRIFTWOOD, TX, 78619","Match","Exact","211 DARDEN HILL RD, DRIFTWOOD, TX, 78619",63843963,"L"
114282,"211 DAWN CT","ELGIN","IL",60124,42.0390279160001,-88.371084019,282,"211 DAWN CT, ELGIN, IL, 60124","Match","Exact","211 DAWN CT, ELGIN, IL, 60124",601622761,"R"
114283,"211 DE SOTO AVE","WATERLOO","IA",50701,42.5152871550001,-92.3946142729999,283,"211 DE SOTO AVE, WATERLOO, IA, 50701","Match","Non_Exact","211 DESOTO AVE, WATERLOO, IA, 50701",77257405,"L"
114284,"211 DEAN ST","WOODSTOCK","IL",60098,42.313626963,-88.447370314,284,"211 DEAN ST, WOODSTOCK, IL, 60098","Match","Exact","211 DEAN ST, WOODSTOCK, IL, 60098",119816933,"R"
114285,"211 DEBORAH AVENUE","NORTH CAPE MAY","NJ",8204,38.9872576380001,-74.940470488,285,"211 DEBORAH AVENUE, NORTH CAPE MAY, NJ, 8204","Match","Non_Exact","211 DEBORAH LN, N CAPE MAY, NJ, 08204",174332193,"R"
114286,"211 DENTON AVE SUITE 195","GARDEN CITY PARK","NY",11040,40.7449468190001,-73.6718859439999,286,"211 DENTON AVE SUITE 195, GARDEN CITY PARK, NY, 11040","Match","Exact","211 DENTON AVE, GARDEN CITY PARK, NY, 11040",147671034,"L"
114287,"211 DEVON DRIVE","BURR RIDGE","IL",60527,41.727088956,-87.920010421,287,"211 DEVON DRIVE, BURR RIDGE, IL, 60527","Match","Exact","211 DEVON DR, BURR RIDGE, IL, 60527",112679453,"L"
114288,"211 DEWEY STREET","JACKSON","MN",56143,43.6194652770001,-95.001058767,288,"211 DEWEY STREET, JACKSON, MN, 56143","Match","Exact","211 DEWEY ST, JACKSON, MN, 56143",9941487,"L"
114289,"211 DOMINION PARK DR 1302","HOUSTON","TX",77090,29.975141943,-95.4229599829999,289,"211 DOMINION PARK DR 1302, HOUSTON, TX, 77090","Match","Exact","211 DOMINION PARK DR, HOUSTON, TX, 77090",642109916,"L"
114290,"211 DOMINION PARK DR APT 1221","HOUSTON","TX",77090,29.975141943,-95.4229599829999,290,"211 DOMINION PARK DR APT 1221, HOUSTON, TX, 77090","Match","Exact","211 DOMINION PARK DR, HOUSTON, TX, 77090",642109916,"L"
114291,"211 DONEGAL AVENUE","LAKE MARY","FL",32746,28.7451654010001,-81.354018401,291,"211 DONEGAL AVENUE, LAKE MARY, FL, 32746","Match","Exact","211 DONEGAL AVE, LAKE MARY, FL, 32746",93737579,"L"
114292,"211 DONELSON PIKE SUITE 106","NASHVILLE","TN",37214,36.1616400290001,-86.664186018,292,"211 DONELSON PIKE SUITE 106, NASHVILLE, TN, 37214","Match","Exact","211 DONELSON PIKE, NASHVILLE, TN, 37214",649300131,"L"
114293,"211 DOOLEY COURT SW","ALTOONA","IA",50009,41.6327570290001,-93.466853988,293,"211 DOOLEY COURT SW, ALTOONA, IA, 50009","Match","Exact","211 DOOLEY CT SW, ALTOONA, IA, 50009",65814443,"R"
114294,"211 DOWNING FOREST PLACE","CARY","NC",27519,35.7751946270001,-78.8679744899999,294,"211 DOWNING FOREST PLACE, CARY, NC, 27519","Match","Exact","211 DOWNING FOREST PL, CARY, NC, 27519",72589564,"R"
114295,"211 DUNCAN AVENUE","JERSEY CITY","NJ",7306,40.7275553380001,-74.078624121,295,"211 DUNCAN AVENUE, JERSEY CITY, NJ, 7306","Match","Exact","211 DUNCAN AVE, JERSEY CITY, NJ, 07306",59604178,"L"
114296,"211 E 11TH STREET B","PANAMA CITY","FL",32401,NA,NA,296,"211 E 11TH STREET B, PANAMA CITY, FL, 32401","Tie",NA,NA,NA,NA
114297,"211 E 6TH ST","HORTON","KS",66439,39.6579245520001,-95.5256175599999,297,"211 E 6TH ST, HORTON, KS, 66439","Match","Exact","211 E 6TH ST, HORTON, KS, 66439",9771549,"L"
114298,"211 E 7TH AVE","COLUMBUS","OH",43201,39.989944705,-83.0004084399999,298,"211 E 7TH AVE, COLUMBUS, OH, 43201","Match","Exact","211 E 7TH AVE, COLUMBUS, OH, 43201",218651079,"R"
114299,"211 E 7TH STREET SUITE 620","AUSTIN","TX",78701,NA,NA,299,"211 E 7TH STREET SUITE 620, AUSTIN, TX, 78701","Tie",NA,NA,NA,NA
114300,"211 E AVE G","MIDLOTHIAN","TX",76065,32.482417437,-96.992172599,300,"211 E AVE G, MIDLOTHIAN, TX, 76065","Match","Exact","211 E AVE G, MIDLOTHIAN, TX, 76065",103448073,"L"
114301,"211 E COURT AVENUE","JEFFERSONVILLE","IN",47130,38.275095191,-85.740848668,301,"211 E COURT AVENUE, JEFFERSONVILLE, IN, 47130","Match","Exact","211 E COURT AVE, JEFFERSONVILLE, IN, 47130",64919274,"L"
114302,"211 E ELEANOR ST","PHILADELPHIA","PA",19120,40.0235931490001,-75.121601728,302,"211 E ELEANOR ST, PHILADELPHIA, PA, 19120","Match","Exact","211 E ELEANOR ST, PHILADELPHIA, PA, 19120",131420069,"L"
114303,"211 E ELM","HILLSBORO","TX",76645,32.010738974,-97.128081138,303,"211 E ELM, HILLSBORO, TX, 76645","Match","Non_Exact","211 E ELM ST, HILLSBORO, TX, 76645",160515748,"R"
114304,"211 E FIRST ST","ALTURAS","CA",96101,41.4840973440001,-120.541185531,304,"211 E FIRST ST, ALTURAS, CA, 96101","Match","Exact","211 E 1ST ST, ALTURAS, CA, 96101",127078185,"R"
114305,"211 E FREMONT STREET","ARCADIA","OH",44804,41.109675329,-83.5116398009999,305,"211 E FREMONT STREET, ARCADIA, OH, 44804","Match","Exact","211 FREMONT ST, ARCADIA, OH, 44804",636548746,"R"
114306,"211 E GREEN ST","WEST HAZLETON","PA",18202,40.9595427990001,-75.9975571429999,306,"211 E GREEN ST, WEST HAZLETON, PA, 18202","Match","Non_Exact","211 W GREEN ST, W HAZLETON, PA, 18202",80927787,"R"
114307,"211 E JEFFERSON ST","CAMP POINT","IL",62320,40.04110918,-91.068102212,307,"211 E JEFFERSON ST, CAMP POINT, IL, 62320","Match","Exact","211 JEFFERSON ST, CAMP POINT, IL, 62320",35075424,"L"
114308,"211 E JEFFERSON","CAMP POINT","IL",62320,40.0411091940001,-91.068105155,308,"211 E JEFFERSON, CAMP POINT, IL, 62320","Match","Non_Exact","211 JEFFERSON ST, CAMP POINT, IL, 62320",35075424,"L"
114309,"211 E KEMP","WATERTOWN","SD",57201,44.8997349480001,-97.11093586,309,"211 E KEMP, WATERTOWN, SD, 57201","Match","Non_Exact","211 E KEMP AVE, WATERTOWN, SD, 57201",200729986,"R"
114310,"211 E LOMBARD ST  SUITE 259","BALTIMORE","MD",21201,39.2876513480001,-76.617975811,310,"211 E LOMBARD ST  SUITE 259, BALTIMORE, MD, 21201","Match","Non_Exact","211 W LOMBARD ST, BALTIMORE, MD, 21201",206466672,"L"
114311,"211 E LOMBARD ST","BALTIMORE","MD",21202,39.2878360620001,-76.611139237,311,"211 E LOMBARD ST, BALTIMORE, MD, 21202","Match","Exact","211 E LOMBARD ST, BALTIMORE, MD, 21202",206420841,"R"
114312,"211 E LOMBARD STREET","BALTIMORE","MO",21202,NA,NA,312,"211 E LOMBARD STREET, BALTIMORE, MO, 21202","No_Match",NA,NA,NA,NA
114313,"211 E MAUDE AVENUE","SUNNYVALE","CA",94085,37.3877330970001,-122.024473281,313,"211 E MAUDE AVENUE, SUNNYVALE, CA, 94085","Match","Exact","211 E MAUDE AVE, SUNNYVALE, CA, 94085",639673775,"L"
114314,"211 E PRAIRIE AVE","LOMBARD","IL",60148,41.8915493260001,-88.012448809,314,"211 E PRAIRIE AVE, LOMBARD, IL, 60148","Match","Exact","211 E PRAIRIE AVE, LOMBARD, IL, 60148",112524530,"R"
114315,"211 E SHEPHERD AVE SUITE104","LUFKIN","TX",75902,NA,NA,315,"211 E SHEPHERD AVE SUITE104, LUFKIN, TX, 75902","No_Match",NA,NA,NA,NA
114316,"211 EAGLES LANDING WAY","MCDONOUGH","GA",30253,33.5047371360001,-84.214440462,316,"211 EAGLES LANDING WAY, MCDONOUGH, GA, 30253","Match","Exact","211 EAGLES LANDING WAY, MCDONOUGH, GA, 30253",23191757,"R"
114317,"211 EARL PARK WAY","WESTFIELD","IN",46074,40.02881991,-86.1557250499999,317,"211 EARL PARK WAY, WESTFIELD, IN, 46074","Match","Exact","211 EARL PARK WAY, WESTFIELD, IN, 46074",29339507,"R"
114318,"211 EAST  STREET","NORCO","CA",92860,33.9342731360001,-117.525726005,318,"211 EAST  STREET, NORCO, CA, 92860","Match","Exact","211 EAST ST, NORCO, CA, 92860",194735512,"R"
114319,"211 EAST 10TH STREET","LEXINGTON","NC",27295,35.8387336910001,-80.2511411849999,319,"211 EAST 10TH STREET, LEXINGTON, NC, 27295","Match","Non_Exact","211 10TH ST, LEXINGTON, NC, 27295",20205532,"R"
114320,"211 EAST 5TH AVENUE","ROSELLE","NJ",7203,40.6556365000001,-74.258723114,320,"211 EAST 5TH AVENUE, ROSELLE, NJ, 7203","Match","Exact","211 E 5TH AVE, ROSELLE, NJ, 07203",60593882,"L"
114321,"211 EAST HALLAM STREET","ASPEN","CO",81611,39.192719056,-106.820843797,321,"211 EAST HALLAM STREET, ASPEN, CO, 81611","Match","Exact","211 E HALLAM ST, ASPEN, CO, 81611",105957442,"L"
114322,"211 EAST HIGH STREET","CHARLOTTESVILLE","VA",22902,38.0332836200001,-78.4813594889999,322,"211 EAST HIGH STREET, CHARLOTTESVILLE, VA, 22902","Match","Non_Exact","211 HIGH ST, CHARLOTTESVILLE, VA, 22902",83406813,"R"
114323,"211 EAST PENNVIEW STREET","GLENSHAW","PA",15116,NA,NA,323,"211 EAST PENNVIEW STREET, GLENSHAW, PA, 15116","No_Match",NA,NA,NA,NA
114324,"211 EAST VIRGINIA STREET","TALLAHASSEE","FL",32301,30.445801558,-84.280496055,324,"211 EAST VIRGINIA STREET, TALLAHASSEE, FL, 32301","Match","Exact","211 E VIRGINIA ST, TALLAHASSEE, FL, 32301",82850734,"R"
114325,"211 EAST WATER STREET SUITE 401","KALAMAZOO","MI",49007,42.2926381870001,-85.582776412,325,"211 EAST WATER STREET SUITE 401, KALAMAZOO, MI, 49007","Match","Exact","211 E WATER ST, KALAMAZOO, MI, 49007",12226981,"L"
114326,"211 EDENBORN STREET","CAMPTI","LA",71411,31.8895725030001,-93.114857509,326,"211 EDENBORN STREET, CAMPTI, LA, 71411","Match","Exact","211 EDENBORN ST, CAMPTI, LA, 71411",13347006,"R"
114327,"211 ELAINE DR","KENNETT","MO",63857,36.224193316,-90.0552663029999,327,"211 ELAINE DR, KENNETT, MO, 63857","Match","Exact","211 ELAINE DR, KENNETT, MO, 63857",38800662,"R"
114328,"211 ELBRING DRIVE","ST. LOUIS","MO",63135,38.764622043,-90.320632744,328,"211 ELBRING DRIVE, ST. LOUIS, MO, 63135","Match","Exact","211 ELBRING DR, SAINT LOUIS, MO, 63135",100196247,"R"
114329,"211 ELEPHANT WALK BLVD","CARENCRO","LA",70520,30.36808044,-92.04224241,329,"211 ELEPHANT WALK BLVD, CARENCRO, LA, 70520","Match","Exact","211 ELEPHANT WALK BLVD, CARENCRO, LA, 70520",85609841,"R"
114330,"211 ELLIS ST","DADEVILLE","AL",36853,32.8244526120001,-85.7515441749999,330,"211 ELLIS ST, DADEVILLE, AL, 36853","Match","Exact","211 ELLIS ST, DADEVILLE, AL, 36853",1692602,"R"
114331,"211 ELM STREET","SALISBURY","MA",1952,42.84419681,-70.8948972429999,331,"211 ELM STREET, SALISBURY, MA, 1952","Match","Exact","211 ELM ST, SALISBURY, MA, 01952",646688948,"R"
114332,"211 ELMHURST CIR","CRANBERRY TWP","PA",16066,40.7268321560001,-80.082187776,332,"211 ELMHURST CIR, CRANBERRY TWP, PA, 16066","Match","Exact","211 ELMHURST CIR, CRANBERRY TOWNSHIP, PA, 16066",52682259,"L"
114333,"211 ELMHURST SUITE D","KYLE","TX",78640,29.9995781600001,-97.8611218779999,333,"211 ELMHURST SUITE D, KYLE, TX, 78640","Match","Non_Exact","211 ELMHURST DR, KYLE, TX, 78640",641083524,"L"
114334,"211 ELMSMERE PLACE","FORT LEE","NJ",7024,NA,NA,334,"211 ELMSMERE PLACE, FORT LEE, NJ, 7024","No_Match",NA,NA,NA,NA
114335,"211 FAIRGROUND RD","LEXINGTON","GA",30648,33.8853286450001,-83.087590376,335,"211 FAIRGROUND RD, LEXINGTON, GA, 30648","Match","Exact","211 FAIRGROUND RD, LEXINGTON, GA, 30648",642528220,"R"
114336,"211 FILES RD","MANSFIELD","LA",71052,31.979952826,-93.8268031699999,336,"211 FILES RD, MANSFIELD, LA, 71052","Match","Exact","211 FILES RD, MANSFIELD, LA, 71052",67653833,"L"
114337,"211 FIRST STREET BOX 162","RAMAH","CO",80832,39.123543345,-104.165012538,337,"211 FIRST STREET BOX 162, RAMAH, CO, 80832","Match","Exact","211 1ST ST, RAMAH, CO, 80832",105495937,"R"
114338,"211 FOURTH STREET","MERIDEN","CT",6451,41.534824859,-72.813976259,338,"211 FOURTH STREET, MERIDEN, CT, 6451","Match","Exact","211 4TH ST, MERIDEN, CT, 06451",3723354,"R"
114339,"211 FOX RIDGE DRIVE","ST CHARLES","MO",63303,38.740461958,-90.534008237,339,"211 FOX RIDGE DRIVE, ST CHARLES, MO, 63303","Match","Exact","211 FOX RIDGE DR, SAINT CHARLES, MO, 63303",100103268,"L"
114340,"211 FRONT ST","PERTH AMBOY","NJ",8861,40.5041184940001,-74.2634359039999,340,"211 FRONT ST, PERTH AMBOY, NJ, 8861","Match","Exact","211 FRONT ST, PERTH AMBOY, NJ, 08861",60313267,"L"
114341,"211 GIRDLE ROAD","ELMA","NY",14059,NA,NA,341,"211 GIRDLE ROAD, ELMA, NY, 14059","No_Match",NA,NA,NA,NA
114342,"211 GLENN ELLEN DRIVE","HARVEST","AL",35749,34.7898130090001,-86.772921388,342,"211 GLENN ELLEN DRIVE, HARVEST, AL, 35749","Match","Exact","211 GLENN ELLEN DR, HARVEST, AL, 35749",58151652,"L"
114343,"211 GOAD CEMETERY ROAD E","NEW HARMONY","IN",47631,38.0395814870001,-87.917928084,343,"211 GOAD CEMETERY ROAD E, NEW HARMONY, IN, 47631","Match","Non_Exact","211 GOAD CEMETERY RD, NEW HARMONY, IN, 47631",647819035,"R"
114344,"211 GODFREY ROAD","LEECHBURG","PA",15656,NA,NA,344,"211 GODFREY ROAD, LEECHBURG, PA, 15656","No_Match",NA,NA,NA,NA
114345,"211 GRANDVIEW AVENUE","TONAWANDA","NY",14223,42.9642566430001,-78.824738747,345,"211 GRANDVIEW AVENUE, TONAWANDA, NY, 14223","Match","Exact","211 GRANDVIEW AVE, TONAWANDA, NY, 14223",48295168,"R"
114346,"211 GRANT AVENUE","MILLVALE","PA",15209,40.4787994120001,-79.971151662,346,"211 GRANT AVENUE, MILLVALE, PA, 15209","Match","Exact","211 GRANT AVE, MILLVALE, PA, 15209",51641698,"L"
114347,"211 GRANVILLE COURT","ATLANTA","GA",30328,33.9300528250001,-84.36106188,347,"211 GRANVILLE COURT, ATLANTA, GA, 30328","Match","Exact","211 GRANVILLE CT, ATLANTA, GA, 30328",610360264,"L"
114348,"211 GRASSLANDS RD","HUNTSVILLE","AL",35811,34.772344806,-86.426867255,348,"211 GRASSLANDS RD, HUNTSVILLE, AL, 35811","Match","Exact","211 GRASSLANDS RD, HUNTSVILLE, AL, 35811",627200179,"R"
114349,"211 GREENWOOD AVENUE 2-2 SUITE 109","BETHEL","CT",6801,41.3715530060001,-73.416061256,349,"211 GREENWOOD AVENUE 2-2 SUITE 109, BETHEL, CT, 6801","Match","Exact","211 GREENWOOD AVE, BETHEL, CT, 06801",3262970,"R"
114350,"211 HALTER DR","COPPERAS COVE","TX",76522,31.147322628,-97.9224067329999,350,"211 HALTER DR, COPPERAS COVE, TX, 76522","Match","Exact","211 HALTER DR, COPPERAS COVE, TX, 76522",146567719,"L"
114351,"211 HARPERS WAY","FREDERICK","MD",21702,39.4630342990001,-77.408186106,351,"211 HARPERS WAY, FREDERICK, MD, 21702","Match","Exact","211 HARPERS WAY, FREDERICK, MD, 21702",60706671,"R"
114352,"211 HARRIS CREEK RD","HAMPTON","VA",23669,37.0740603090001,-76.314321808,352,"211 HARRIS CREEK RD, HAMPTON, VA, 23669","Match","Exact","211 HARRIS CREEK RD, HAMPTON, VA, 23669",103808383,"L"
114353,"211 HARRY S TRUMAN DRIVE  APT 13","UPPER MARLBORO","MD",20774,38.887142533,-76.835846418,353,"211 HARRY S TRUMAN DRIVE  APT 13, UPPER MARLBORO, MD, 20774","Match","Exact","211 HARRY S TRUMAN DR, UPPER MARLBORO, MD, 20774",76338467,"R"
114354,"211 HAY ST","HIGH POINT","NC",27260,35.962186355,-79.988410371,354,"211 HAY ST, HIGH POINT, NC, 27260","Match","Exact","211 HAY ST, HIGH POINT, NC, 27260",619939614,"L"
114355,"211 HEATH ST","MILPITAS","CA",95035,37.4319756520001,-121.917664666,355,"211 HEATH ST, MILPITAS, CA, 95035","Match","Exact","211 HEATH ST, MILPITAS, CA, 95035",122958878,"L"
114356,"211 HENRY LEE LN","YORKTOWN","VA",23692,37.16213851,-76.447102383,356,"211 HENRY LEE LN, YORKTOWN, VA, 23692","Match","Exact","211 HENRY LEE LN, YORKTOWN, VA, 23692",103765721,"R"
114357,"211 HETH RD","COUDERSPORT","PA",16915,41.7023942650001,-78.035770209,357,"211 HETH RD, COUDERSPORT, PA, 16915","Match","Exact","211 HETH RD, COUDERSPORT, PA, 16915",126372944,"R"
114358,"211 HIBISCUS STREET","TAVERNIER","FL",33070,24.9972871040001,-80.541898362,358,"211 HIBISCUS STREET, TAVERNIER, FL, 33070","Match","Exact","211 HIBISCUS ST, TAVERNIER, FL, 33070",116467027,"L"
114359,"211 HIGHLAND AVENUE","PORTAGE","WI",53901,43.547022328,-89.4832445869999,359,"211 HIGHLAND AVENUE, PORTAGE, WI, 53901","Match","Exact","211 HIGHLAND AVE, PORTAGE, WI, 53901",73329421,"R"
114360,"211 HILLYER STREET","VIROQUA","WI",54665,43.5590482640001,-90.8987899259999,360,"211 HILLYER STREET, VIROQUA, WI, 54665","Match","Exact","211 HILLYER ST, VIROQUA, WI, 54665",48628321,"R"
114361,"211 HOLLAND RD","FARMVILLE","VA",23901,37.3985940250001,-78.4837469559999,361,"211 HOLLAND RD, FARMVILLE, VA, 23901","Match","Exact","211 HOLLAND RD, FARMVILLE, VA, 23901",639565242,"L"
114362,"211 HOLLYWOOD BOULEVARD NE","FORT WALTON BEACH","FL",32548,30.412247909,-86.601299727,362,"211 HOLLYWOOD BOULEVARD NE, FORT WALTON BEACH, FL, 32548","Match","Exact","211 HOLLYWOOD BLVD NE, FORT WALTON BEACH, FL, 32548",74392969,"L"
114363,"211 HOLMES STREET","VANDERGRIFT","PA",15690,40.5934867660001,-79.5716868439999,363,"211 HOLMES STREET, VANDERGRIFT, PA, 15690","Match","Exact","211 HOLMES ST, VANDERGRIFT, PA, 15690",52962592,"R"
114364,"211 HORSESHOE DRIVE","VICTORIA","TX",77904,28.924966689,-97.077357255,364,"211 HORSESHOE DRIVE, VICTORIA, TX, 77904","Match","Exact","211 HORSESHOE DR, VICTORIA, TX, 77904",44576090,"R"
114365,"211 HUCKLEBERRY LN","LEXINGTON","SC",29072,34.0233734400001,-81.206377687,365,"211 HUCKLEBERRY LN, LEXINGTON, SC, 29072","Match","Exact","211 HUCKLEBERRY LN, LEXINGTON, SC, 29072",632187581,"L"
114366,"211 HUDSON BAY ST","FOSTER CITY","CA",94404,37.5366814440001,-122.274593911,366,"211 HUDSON BAY ST, FOSTER CITY, CA, 94404","Match","Exact","211 HUDSON BAY ST, FOSTER CITY, CA, 94404",192380893,"L"
114367,"211 HWY 218 NORTH","ST ANSGAR","IA",50472,NA,NA,367,"211 HWY 218 NORTH, ST ANSGAR, IA, 50472","No_Match",NA,NA,NA,NA
114368,"211 INGLEWOOD DR","ENTERPRISE","AL",36330,31.3520242070001,-85.8522069969999,368,"211 INGLEWOOD DR, ENTERPRISE, AL, 36330","Match","Exact","211 INGLEWOOD DR, ENTERPRISE, AL, 36330",99555108,"R"
114369,"211 JEFFERSON DRIVE","PITTSBURGH","PA",15228,40.3741600560001,-80.043998893,369,"211 JEFFERSON DRIVE, PITTSBURGH, PA, 15228","Match","Exact","211 JEFFERSON DR, PITTSBURGH, PA, 15228",51632419,"L"
114370,"211 JEFFERSON ST NE","ALBUQUERQUE","NM",87108,35.080443475,-106.593052049,370,"211 JEFFERSON ST NE, ALBUQUERQUE, NM, 87108","Match","Exact","211 JEFFERSON ST NE, ALBUQUERQUE, NM, 87108",206716360,"L"
114371,"211 JOHNSON AVE","BROOKLYN","NY",11206,40.7067846840001,-73.941179392,371,"211 JOHNSON AVE, BROOKLYN, NY, 11206","Match","Exact","211 JOHNSON AVE, BROOKLYN, NY, 11206",59077287,"L"
114372,"211 LAIRDS DRIVE","COPPELL","TX",75019,32.9918020480001,-96.9997410569999,372,"211 LAIRDS DRIVE, COPPELL, TX, 75019","Match","Exact","211 LAIRDS DR, COPPELL, TX, 75019",103411166,"R"
114373,"211 LAKE HOPE DRIVE","NELSONVILLE","OH",45764,39.45841747,-82.2440936,373,"211 LAKE HOPE DRIVE, NELSONVILLE, OH, 45764","Match","Exact","211 LAKE HOPE DR, NELSONVILLE, OH, 45764",652821989,"R"
114374,"211 LAKESHORE DR","WAYLAND","MA",1778,42.327872746,-71.376602812,374,"211 LAKESHORE DR, WAYLAND, MA, 1778","Match","Non_Exact","211 LAKE SHORE DR, WAYLAND, MA, 01778",86848677,"R"
114375,"211 LAKEWOOD AVENUE","CHARLOTTE","NC",28208,35.2557698580001,-80.877400396,375,"211 LAKEWOOD AVENUE, CHARLOTTE, NC, 28208","Match","Exact","211 LAKEWOOD AVE, CHARLOTTE, NC, 28208",70476534,"L"
114376,"211 LARIAT LOOP POX4055","EDWARDS","CO",81632,39.639455513,-106.593257085,376,"211 LARIAT LOOP POX4055, EDWARDS, CO, 81632","Match","Exact","211 LARIAT LOOP, EDWARDS, CO, 81632",649663385,"L"
114377,"211 LASSO DRIVE","RIVERDALE","GA",30274,33.540127123,-84.396723762,377,"211 LASSO DRIVE, RIVERDALE, GA, 30274","Match","Exact","211 LASSO DR, RIVERDALE, GA, 30274",23330409,"L"
114378,"211 LAUREL STREET","SANTA CRUZ","CA",95060,36.9691628900001,-122.025041138,378,"211 LAUREL STREET, SANTA CRUZ, CA, 95060","Match","Exact","211 LAUREL ST, SANTA CRUZ, CA, 95060",125506205,"L"
114379,"211 LAWRENCE DR","SUMMERVILLE","SC",29483,33.044789187,-80.196793785,379,"211 LAWRENCE DR, SUMMERVILLE, SC, 29483","Match","Exact","211 LAWRENCE DR, SUMMERVILLE, SC, 29483",178458617,"L"
114380,"211 LEAFWOOD LN","RIVERDALE","GA",30274,33.5162755010001,-84.398057013,380,"211 LEAFWOOD LN, RIVERDALE, GA, 30274","Match","Exact","211 LEAFWOOD LN, RIVERDALE, GA, 30274",23330689,"R"
114381,"211 LEER STREET","NEW LISBON","WI",53950,43.8811867520001,-90.168668453,381,"211 LEER STREET, NEW LISBON, WI, 53950","Match","Non_Exact","211 N LEER ST, NEW LISBON, WI, 53950",50948252,"L"
114382,"211 LIGHTHOUSE WAY","MARYVILLE","TN",37801,35.6844732380001,-84.051156001,382,"211 LIGHTHOUSE WAY, MARYVILLE, TN, 37801","Match","Exact","211 LIGHTHOUSE WAY, MARYVILLE, TN, 37801",617444636,"L"
114383,"211 LINCOLN DRIVE","PHILADELPHIA","PA",19144,40.027547881,-75.191742881,383,"211 LINCOLN DRIVE, PHILADELPHIA, PA, 19144","Match","Exact","211 LINCOLN DR, PHILADELPHIA, PA, 19144",642122359,"R"
114384,"211 LINDEN AVENUE","LONG BEACH","CA",90802,33.769564469,-118.186369551,384,"211 LINDEN AVENUE, LONG BEACH, CA, 90802","Match","Exact","211 LINDEN AVE, LONG BEACH, CA, 90802",141694443,"L"
114385,"211 LINDSAY ST","HIGH POINT","NC",27262,35.9574783740001,-80.012036641,385,"211 LINDSAY ST, HIGH POINT, NC, 27262","Match","Exact","211 LINDSAY ST, HIGH POINT, NC, 27262",131039283,"L"
114386,"211 LINNERUD DRIVE","SUN PRAIRIE","WI",53590,43.179225591,-89.214306165,386,"211 LINNERUD DRIVE, SUN PRAIRIE, WI, 53590","Match","Non_Exact","211 E LINNERUD DR, SUN PRAIRIE, WI, 53590",49479309,"L"
114387,"211 LIVINGSTON AVENUE","NEW BRUNSWICK","NJ",8901,40.4865791330001,-74.4511639949999,387,"211 LIVINGSTON AVENUE, NEW BRUNSWICK, NJ, 8901","Match","Exact","211 LIVINGSTON AVE, NEW BRUNSWICK, NJ, 08901",60264079,"R"
114388,"211 LONG POI9NT RD","CAPE CANAVERAL","FL",32920,NA,NA,388,"211 LONG POI9NT RD, CAPE CANAVERAL, FL, 32920","No_Match",NA,NA,NA,NA
114389,"211 LONG ST E","MCEWEN","TN",37101,36.1088407350001,-87.6322888349999,389,"211 LONG ST E, MCEWEN, TN, 37101","Match","Non_Exact","211 LONG ST E, MC EWEN, TN, 37101",19869679,"R"
114390,"211 LONG SWAMP ROAD","NEW EGYPT","NJ",8533,40.0507208450001,-74.491508803,390,"211 LONG SWAMP ROAD, NEW EGYPT, NJ, 8533","Match","Exact","211 LONG SWAMP RD, NEW EGYPT, NJ, 08533",203849738,"L"
114391,"211 LOOKOUT AVE","MOUNT AIRY","MD",21771,39.3746444290001,-77.153050782,391,"211 LOOKOUT AVE, MOUNT AIRY, MD, 21771","Match","Exact","211 LOOKOUT AVE, MOUNT AIRY, MD, 21771",209397725,"L"
114392,"211 LOUDON ROAD SUITE C","CONCORD","NH",3301,43.220029276,-71.49860532,392,"211 LOUDON ROAD SUITE C, CONCORD, NH, 3301","Match","Exact","211 LOUDON RD, CONCORD, NH, 03301",117719347,"L"
114393,"211 LYNN ROAD","BETHLEHEM","GA",30620,33.913917527,-83.7307048279999,393,"211 LYNN ROAD, BETHLEHEM, GA, 30620","Match","Exact","211 LYNN RD, BETHLEHEM, GA, 30620",628071519,"R"
114394,"211 MADISON AVENUE APARTMENT 7B","NEW YORK","NY",10016,40.748850926,-73.982159177,394,"211 MADISON AVENUE APARTMENT 7B, NEW YORK, NY, 10016","Match","Exact","211 MADISON AVE, NEW YORK, NY, 10016",59654397,"R"
114395,"211 MAIN STREET SUITE 346","NEW ROCHELLE","NY",10801,40.915057437,-73.7715686889999,395,"211 MAIN STREET SUITE 346, NEW ROCHELLE, NY, 10801","Match","Exact","211 MAIN ST, NEW ROCHELLE, NY, 10801",139752334,"R"
114396,"211 MAIN STREET","NORTH READING","MA",1864,42.5868503720001,-71.115133461,396,"211 MAIN STREET, NORTH READING, MA, 1864","Match","Exact","211 MAIN ST, NORTH READING, MA, 01864",617692913,"L"
114397,"211 MAPLE AVENUE","BETHPAGE","NY",11714,40.7524268830001,-73.491074995,397,"211 MAPLE AVENUE, BETHPAGE, NY, 11714","Match","Exact","211 MAPLE AVE, BETHPAGE, NY, 11714",147645250,"L"
114398,"211 MARGINAL WAY","PORTLAND","ME",4101,43.664479832,-70.261152954,398,"211 MARGINAL WAY, PORTLAND, ME, 4101","Match","Exact","211 MARGINAL WAY, PORTLAND, ME, 04101",624855457,"R"
114399,"211 MCCORMICK DR","DEKALB","IL",60115,41.948355141,-88.7503849779999,399,"211 MCCORMICK DR, DEKALB, IL, 60115","Match","Exact","211 MCCORMICK DR, DEKALB, IL, 60115",52257229,"R"
114400,"211 MEDICAL DRIVE","NATCHITOCHES","LA",71457,NA,NA,400,"211 MEDICAL DRIVE, NATCHITOCHES, LA, 71457","No_Match",NA,NA,NA,NA
114401,"211 MERCEDES DR","SMYRNA","TN",37167,35.9229473180001,-86.548393349,401,"211 MERCEDES DR, SMYRNA, TN, 37167","Match","Exact","211 MERCEDES DR, SMYRNA, TN, 37167",635424554,"R"
114402,"211 MIDLAND AVENUE STE 201","BASALT","CO",81621,39.3690509150001,-107.032918771,402,"211 MIDLAND AVENUE STE 201, BASALT, CO, 81621","Match","Exact","211 MIDLAND AVE, BASALT, CO, 81621",105745459,"R"
114403,"211 MOCKINGBIRD LN","LOCKHART","TX",78644,29.8796966100001,-97.694438519,403,"211 MOCKINGBIRD LN, LOCKHART, TX, 78644","Match","Exact","211 MOCKINGBIRD LN, LOCKHART, TX, 78644",639380630,"R"
114404,"211 MOCKINGBIRD LN","SAN ANGELO","TX",76901,31.443152561,-100.487453106,404,"211 MOCKINGBIRD LN, SAN ANGELO, TX, 76901","Match","Exact","211 MOCKINGBIRD LN, SAN ANGELO, TX, 76901",190678539,"L"
114405,"211 MONTY BEVINS BOTTOM","HATFIELD","KY",41514,37.655035668,-82.373378722,405,"211 MONTY BEVINS BOTTOM, HATFIELD, KY, 41514","Match","Exact","211 MONTY BEVINS BTM, HATFIELD, KY, 41514",651165221,"R"
114406,"211 MOONDANCE LANE","PORT MATILDA","PA",16870,40.8338517340001,-77.9220070489999,406,"211 MOONDANCE LANE, PORT MATILDA, PA, 16870","Match","Exact","211 MOONDANCE LN, PORT MATILDA, PA, 16870",50391704,"L"
114407,"211 N  CHURCH AVE","BOZEMAN","MT",59715,45.6818982950001,-111.030281262,407,"211 N  CHURCH AVE, BOZEMAN, MT, 59715","Match","Exact","211 N CHURCH AVE, BOZEMAN, MT, 59715",163497971,"L"
114408,"211 N 14TH ST","LINCOLN","NE",68508,40.8149318820001,-96.7011596839999,408,"211 N 14TH ST, LINCOLN, NE, 68508","Match","Exact","211 N 14TH ST, LINCOLN, NE, 68508",28253253,"L"
114409,"211 N 14TH STREET","LINCOLN","NE",68508,40.8149318820001,-96.7011596839999,409,"211 N 14TH STREET, LINCOLN, NE, 68508","Match","Exact","211 N 14TH ST, LINCOLN, NE, 68508",28253253,"L"
114410,"211 N 2ND ST","POTTSVILLE","PA",17901,40.6864982050001,-76.197460249,410,"211 N 2ND ST, POTTSVILLE, PA, 17901","Match","Exact","211 N 2ND ST, POTTSVILLE, PA, 17901",70944785,"L"
114411,"211 N 32ND STREET","PAXTANG","PA",17111,40.2616497590001,-76.836427338,411,"211 N 32ND STREET, PAXTANG, PA, 17111","Match","Exact","211 N 32ND ST, PAXTANG, PA, 17111",70821869,"R"
114412,"211 N 8TH ST APT 331","LAS VEGAS","NV",89101,36.166409501,-115.138107561,412,"211 N 8TH ST APT 331, LAS VEGAS, NV, 89101","Match","Non_Exact","211 S 8TH ST, LAS VEGAS, NV, 89101",201867551,"L"
114413,"211 N BASSEDENA CIR","LAKELAND","FL",33805,NA,NA,413,"211 N BASSEDENA CIR, LAKELAND, FL, 33805","Tie",NA,NA,NA,NA
114414,"211 N BRIGHTON AVE","ATLANTIC CITY","NJ",8401,39.357650533,-74.4491094159999,414,"211 N BRIGHTON AVE, ATLANTIC CITY, NJ, 8401","Match","Exact","211 N BRIGHTON AVE, ATLANTIC CITY, NJ, 08401",202489302,"R"
114415,"211 N CENTRAL AVE","SIDNEY","MT",59270,47.7163665470001,-104.15639408,415,"211 N CENTRAL AVE, SIDNEY, MT, 59270","Match","Exact","211 N CENTRAL AVE, SIDNEY, MT, 59270",161878021,"R"
114416,"211 N CLIFTON AVE","WICHITA","KS",67208,37.68914597,-97.2943825949999,416,"211 N CLIFTON AVE, WICHITA, KS, 67208","Match","Exact","211 N CLIFTON AVE, WICHITA, KS, 67208",115638079,"L"
114417,"211 N COMMERCIAL STREET","NEENAH","WI",54956,44.1895657590001,-88.458695372,417,"211 N COMMERCIAL STREET, NEENAH, WI, 54956","Match","Exact","211 N COMMERCIAL ST, NEENAH, WI, 54956",74492170,"R"
114418,"211 N ERVAY ST","DALLAS","TX",75201,32.782039942,-96.7973958319999,418,"211 N ERVAY ST, DALLAS, TX, 75201","Match","Exact","211 N ERVAY ST, DALLAS, TX, 75201",102909983,"L"
114419,"211 N FOLGER","CARROLLTON","MO",64633,39.361044674,-93.497021901,419,"211 N FOLGER, CARROLLTON, MO, 64633","Match","Non_Exact","211 N FOLGER ST, CARROLLTON, MO, 64633",605727141,"L"
114420,"211 N GROVE AVE APT 4A","OAK PARK","IL",60302,NA,NA,420,"211 N GROVE AVE APT 4A, OAK PARK, IL, 60302","Tie",NA,NA,NA,NA
114421,"211 N JEFFERSON ST SUITE 1","ALBANY","GA",31701,NA,NA,421,"211 N JEFFERSON ST SUITE 1, ALBANY, GA, 31701","Tie",NA,NA,NA,NA
114422,"211 N MAIN STREET","BONHAM","TX",75418,33.575396246,-96.179332571,422,"211 N MAIN STREET, BONHAM, TX, 75418","Match","Exact","211 N MAIN ST, BONHAM, TX, 75418",648194063,"L"
114423,"211 N OLIVE STREET","MEDIA","PA",19063,39.920029239,-75.390627176,423,"211 N OLIVE STREET, MEDIA, PA, 19063","Match","Exact","211 N OLIVE ST, MEDIA, PA, 19063",134870504,"R"
114424,"211 N ROBINSON 10TH FLOOR","OKLAHOMA CITY","OK",73102,NA,NA,424,"211 N ROBINSON 10TH FLOOR, OKLAHOMA CITY, OK, 73102","No_Match",NA,NA,NA,NA
114425,"211 N SAINT JOHN","HIGHLAND","MI",48357,42.6394662440001,-83.616441358,425,"211 N SAINT JOHN, HIGHLAND, MI, 48357","Match","Non_Exact","211 N SAINT JOHN RD, HIGHLAND, MI, 48357",69687504,"L"
114426,"211 N SPRING","CANEY","KS",67333,NA,NA,426,"211 N SPRING, CANEY, KS, 67333","Tie",NA,NA,NA,NA
114427,"211 N SWEETGRASS AVENUE","BOZEMAN","MT",59718,45.6818932740001,-111.083919455,427,"211 N SWEETGRASS AVENUE, BOZEMAN, MT, 59718","Match","Exact","211 SWEETGRASS AVE, BOZEMAN, MT, 59718",163518925,"R"
114428,"211 N THIRD STREET","FOWLER","CA",93625,36.633789553,-119.677057267,428,"211 N THIRD STREET, FOWLER, CA, 93625","Match","Exact","211 N 3RD ST, FOWLER, CA, 93625",197587926,"R"
114429,"211 N TOWER AVE STE A","CENTRALIA","WA",98531,NA,NA,429,"211 N TOWER AVE STE A, CENTRALIA, WA, 98531","Tie",NA,NA,NA,NA
114430,"211 NE 162ND AVE","PORTLAND","OR",97230,45.5238851330001,-122.496443839,430,"211 NE 162ND AVE, PORTLAND, OR, 97230","Match","Exact","211 NE 162ND AVE, PORTLAND, OR, 97230",157522821,"L"
114431,"211 NEWMAN AVE","SEEKONK","MA",2771,41.847109248,-71.333202838,431,"211 NEWMAN AVE, SEEKONK, MA, 2771","Match","Exact","211 NEWMAN AVE, SEEKONK, MA, 02771",46772532,"R"
114432,"211 NORTH 1ST AVENUE","ALPENA","MI",49707,45.0620160560001,-83.431020868,432,"211 NORTH 1ST AVENUE, ALPENA, MI, 49707","Match","Exact","211 N 1ST AVE, ALPENA, MI, 49707",135791095,"L"
114433,"211 NORTH COLLEGE STREET","WHITESBORO","TX",76273,33.657317176,-96.908484691,433,"211 NORTH COLLEGE STREET, WHITESBORO, TX, 76273","Match","Exact","211 N COLLEGE ST, WHITESBORO, TX, 76273",63346331,"L"
114434,"211 NORTH COMMERCIAL STREET","NEENAH","WI",54956,44.1895643020001,-88.458696693,434,"211 NORTH COMMERCIAL STREET, NEENAH, WI, 54956","Match","Exact","211 N COMMERCIAL ST, NEENAH, WI, 54956",74492170,"R"
114435,"211 NORTH DR","LAKEWOOD","NJ",8701,40.067108385,-74.2269963799999,435,"211 NORTH DR, LAKEWOOD, NJ, 8701","Match","Exact","211 NORTH DR, LAKEWOOD, NJ, 08701",203723975,"L"
114436,"211 NORTH END AVE","NEW YORK","NY",10282,40.7160911510001,-74.015283941,436,"211 NORTH END AVE, NEW YORK, NY, 10282","Match","Exact","211 N END AVE, NEW YORK, NY, 10282",59665430,"L"
114437,"211 NORTH ERVAY  SUITE 350","DALLAS","TX",75201,32.782038782,-96.797395501,437,"211 NORTH ERVAY  SUITE 350, DALLAS, TX, 75201","Match","Non_Exact","211 N ERVAY ST, DALLAS, TX, 75201",102909983,"L"
114438,"211 NORTH FRONT STREET","TALENT","OR",97540,42.247443463,-122.79421104,438,"211 NORTH FRONT STREET, TALENT, OR, 97540","Match","Exact","211 N FRONT ST, TALENT, OR, 97540",640098522,"L"
114439,"211 NORTH GRANDE AVE","BOZEMAN","MT",59715,45.6813984820001,-111.040048892,439,"211 NORTH GRANDE AVE, BOZEMAN, MT, 59715","Match","Non_Exact","211 N GRAND AVE, BOZEMAN, MT, 59715",163497985,"L"
114440,"211 NORTH GROVE AVE","MILFORD","IL",60953,40.6301322670001,-87.691041356,440,"211 NORTH GROVE AVE, MILFORD, IL, 60953","Match","Exact","211 N GROVE AVE, MILFORD, IL, 60953",90766878,"R"
114441,"211 NORTH MERSINGTON AVENUE","KANSAS CITY","MO",64123,39.1142493880001,-94.536176149,441,"211 NORTH MERSINGTON AVENUE, KANSAS CITY, MO, 64123","Match","Exact","211 N MERSINGTON AVE, KANSAS CITY, MO, 64123",91450329,"R"
114442,"211 NW 12TH AVE","DANIA BEACH","FL",33004,26.0562599730001,-80.151944422,442,"211 NW 12TH AVE, DANIA BEACH, FL, 33004","Match","Exact","211 NW 12TH AVE, DANIA BEACH, FL, 33004",114766099,"L"
114443,"211 NW 16TH STREET","DELRAY BEACH","FL",33444,26.4814960960001,-80.0756005279999,443,"211 NW 16TH STREET, DELRAY BEACH, FL, 33444","Match","Exact","211 NW 16TH ST, DELRAY BEACH, FL, 33444",115297586,"R"
114444,"211 NW 16TH TERRACE","OCALA","FL",34475,29.1879817020001,-82.1539758179999,444,"211 NW 16TH TERRACE, OCALA, FL, 34475","Match","Exact","211 NW 16TH TER, OCALA, FL, 34475",116736612,"R"
114445,"211 NW 3RD STREET","OCALA","FL",34475,29.189315644,-82.138762546,445,"211 NW 3RD STREET, OCALA, FL, 34475","Match","Exact","211 NW 3RD ST, OCALA, FL, 34475",116725281,"R"
114446,"211 NW THIRD STREET","OCALA","FL",34475,29.189315644,-82.138762546,446,"211 NW THIRD STREET, OCALA, FL, 34475","Match","Exact","211 NW 3RD ST, OCALA, FL, 34475",116725281,"R"
114447,"211 OAK GROVE DRIVE","AKRON","OH",44319,40.996771639,-81.5310892689999,447,"211 OAK GROVE DRIVE, AKRON, OH, 44319","Match","Exact","211 OAK GROVE DR, AKRON, OH, 44319",61357733,"L"
114448,"211 OAK ST SO  BOX 921","LESTER PRAIRIE","MN",55354,44.8819556870001,-94.0394280899999,448,"211 OAK ST SO  BOX 921, LESTER PRAIRIE, MN, 55354","Match","Exact","211 OAK ST S, LESTER PR, MN, 55354",36797771,"L"
114449,"211 OCEAN AVENUE","BROOKLYN","NY",11225,40.657632205,-73.9623251369999,449,"211 OCEAN AVENUE, BROOKLYN, NY, 11225","Match","Exact","211 OCEAN AVE, BROOKLYN, NY, 11225",650074760,"L"
114450,"211 OLD BRIDGE COURT","NEWPORT NEWS","VA",23608,37.170603984,-76.570994764,450,"211 OLD BRIDGE COURT, NEWPORT NEWS, VA, 23608","Match","Exact","211 OLD BRIDGE CT, NEWPORT NEWS, VA, 23608",103816084,"L"
114451,"211 OUTLOOK COVE DRIVE","LA PORTE","IN",46350,NA,NA,451,"211 OUTLOOK COVE DRIVE, LA PORTE, IN, 46350","No_Match",NA,NA,NA,NA
114452,"211 OVERCREEK RD","PHOENIXVILLE","PA",19460,40.1390802760001,-75.5643440599999,452,"211 OVERCREEK RD, PHOENIXVILLE, PA, 19460","Match","Exact","211 OVERCREEK RD, PHOENIXVILLE, PA, 19460",179516554,"L"
114453,"211 PARK STREET","NEW HAVEN","CT",6511,41.309075969,-72.93339493,453,"211 PARK STREET, NEW HAVEN, CT, 6511","Match","Exact","211 PARK ST, NEW HAVEN, CT, 06511",3701115,"R"
114454,"211 PARKVIEW COURT","SAVANNAH","GA",31419,32.027403683,-81.231573055,454,"211 PARKVIEW COURT, SAVANNAH, GA, 31419","Match","Exact","211 PARKVIEW CT, SAVANNAH, GA, 31419",627249829,"R"
114455,"211 PAXINOSA ROAD EAST","EASTON","PA",18040,40.708949015,-75.2123140799999,455,"211 PAXINOSA ROAD EAST, EASTON, PA, 18040","Match","Exact","211 PAXINOSA RD E, EASTON, PA, 18040",136898137,"R"
114456,"211 PELICAN LOOP","PITTSBURG","CA",94565,38.0365376710001,-121.886944975,456,"211 PELICAN LOOP, PITTSBURG, CA, 94565","Match","Exact","211 PELICAN LOOP, PITTSBURG, CA, 94565",636423638,"R"
114457,"211 PENDER STREET SE","WILMINGTON","NC",27893,35.71948264,-77.9055931939999,457,"211 PENDER STREET SE, WILMINGTON, NC, 27893","Match","Non_Exact","211 PENDER ST SE, WILSON, NC, 27893",26705529,"R"
114458,"211 PENDLETON STREET","WAYCROSS","GA",31501,31.2090050850001,-82.359897898,458,"211 PENDLETON STREET, WAYCROSS, GA, 31501","Match","Exact","211 PENDLETON ST, WAYCROSS, GA, 31501",5237897,"L"
114459,"211 PENN AVENUE","ALIQUIPPA","PA",15001,40.6117117740001,-80.2695461339999,459,"211 PENN AVENUE, ALIQUIPPA, PA, 15001","Match","Exact","211 PENN AVE, ALIQUIPPA, PA, 15001",52566878,"L"
114460,"211 PINE BLUFF ROAD LOT 231","ALBANY","GA",31705,31.5759098780001,-84.073051881,460,"211 PINE BLUFF ROAD LOT 231, ALBANY, GA, 31705","Match","Exact","211 PINE BLUFF RD, ALBANY, GA, 31705",84326154,"L"
114461,"211 PINE BRANCH DRIVE","SPRING","TX",77388,30.042613782,-95.433191714,461,"211 PINE BRANCH DRIVE, SPRING, TX, 77388","Match","Exact","211 PINE BRANCH DR, SPRING, TX, 77388",96147288,"R"
114462,"211 POST RD","WESTERLY","RI",2891,41.350845394,-71.774695622,462,"211 POST RD, WESTERLY, RI, 2891","Match","Exact","211 POST RD, WESTERLY, RI, 02891",640325957,"R"
114463,"211 PRATHER PARK DRIVE SUITE A","MYRTLE BEACH","SC",29588,33.6920144170001,-79.0043456659999,463,"211 PRATHER PARK DRIVE SUITE A, MYRTLE BEACH, SC, 29588","Match","Exact","211 PRATHER PARK DR, MYRTLE BEACH, SC, 29588",631181003,"L"
114464,"211 PRINCESS AVENUE","LANCASTER","PA",17601,40.0618095310001,-76.303227305,464,"211 PRINCESS AVENUE, LANCASTER, PA, 17601","Match","Exact","211 PRINCESS AVE, LANCASTER, PA, 17601",179662499,"L"
114465,"211 PROSPECT AVENUE","WEST SPRINGFIELD","MA",1089,42.1552813750001,-72.6403448619999,465,"211 PROSPECT AVENUE, WEST SPRINGFIELD, MA, 1089","Match","Exact","211 PROSPECT AVE, W SPRINGFIELD, MA, 01089",4058215,"L"
114466,"211 PROVIDENCE FARM DRIVE","BOILING SPRINGS","SC",29316,NA,NA,466,"211 PROVIDENCE FARM DRIVE, BOILING SPRINGS, SC, 29316","No_Match",NA,NA,NA,NA
114467,"211 PROVIDENCE ROAD STE 3","CHESAPEAKE","VA",23325,36.798482533,-76.254435174,467,"211 PROVIDENCE ROAD STE 3, CHESAPEAKE, VA, 23325","Match","Exact","211 PROVIDENCE RD, CHESAPEAKE, VA, 23325",121784565,"R"
114468,"211 PROVIDENCE ROAD","CHESAPEAKE","VA",23325,36.798482533,-76.254435174,468,"211 PROVIDENCE ROAD, CHESAPEAKE, VA, 23325","Match","Exact","211 PROVIDENCE RD, CHESAPEAKE, VA, 23325",121784565,"R"
114469,"211 RAILROAD STREET","BUDA","TX",78610,30.0814379180001,-97.84228347,469,"211 RAILROAD STREET, BUDA, TX, 78610","Match","Exact","211 RAILROAD ST, BUDA, TX, 78610",63819925,"L"
114470,"211 RAMBLESIDE DRIVE","MANSFIELD","OH",44907,40.7338554990001,-82.518963591,470,"211 RAMBLESIDE DRIVE, MANSFIELD, OH, 44907","Match","Exact","211 RAMBLESIDE DR, MANSFIELD, OH, 44907",12835589,"L"
114471,"211 RANCH GATE TRAIL","MCGREGOR","TX",76657,31.4728944880001,-97.304168846,471,"211 RANCH GATE TRAIL, MCGREGOR, TX, 76657","Match","Non_Exact","211 RANCHGATE TRL, MC GREGOR, TX, 76657",636438612,"L"
114472,"211 RANDOMWOOD LANE","NEW BERN","NC",28562,35.063623853,-77.149786532,472,"211 RANDOMWOOD LANE, NEW BERN, NC, 28562","Match","Exact","211 RANDOMWOOD LN, NEW BERN, NC, 28562",34153021,"L"
114473,"211 RED FOX DR","DUNCANSVILLE","PA",16635,40.4488552080001,-78.4029668919999,473,"211 RED FOX DR, DUNCANSVILLE, PA, 16635","Match","Exact","211 RED FOX DR, DUNCANSVILLE, PA, 16635",49738525,"L"
114474,"211 RICHMOND CEMETERY RD","PETERSBURG","TN",37144,35.3808017850001,-86.592012096,474,"211 RICHMOND CEMETERY RD, PETERSBURG, TN, 37144","Match","Exact","211 RICHMOND CEMETERY RD, PETERSBURG, TN, 37144",58849753,"R"
114475,"211 RICHMOND CEMETERY ROAD","PETERSBURG","TN",37144,35.3808017850001,-86.592012096,475,"211 RICHMOND CEMETERY ROAD, PETERSBURG, TN, 37144","Match","Exact","211 RICHMOND CEMETERY RD, PETERSBURG, TN, 37144",58849753,"R"
114476,"211 RIDGE PARK DRIVE","BECKLEY","WV",25801,37.7853554610001,-81.242055141,476,"211 RIDGE PARK DRIVE, BECKLEY, WV, 25801","Match","Non_Exact","211 RIDGEPARK DR, BECKLEY, WV, 25801",78844064,"R"
114477,"211 RIVER LANDING DRIVE  UNIT 410","DANIEL ISLAND","SC",29492,32.859113759,-79.907320359,477,"211 RIVER LANDING DRIVE  UNIT 410, DANIEL ISLAND, SC, 29492","Match","Exact","211 RIVER LANDING DR, DANIEL ISLAND, SC, 29492",648235322,"R"
114478,"211 ROSE AVENUE","BIG RAPIDS","MI",49307,43.700050645,-85.487024331,478,"211 ROSE AVENUE, BIG RAPIDS, MI, 49307","Match","Exact","211 ROSE AVE, BIG RAPIDS, MI, 49307",110515165,"L"
114479,"211 ROSENBERRY HILLS DRIVE","CARY","NC",27513,35.8116323190001,-78.8046161669999,479,"211 ROSENBERRY HILLS DRIVE, CARY, NC, 27513","Match","Exact","211 ROSENBERRY HILLS DR, CARY, NC, 27513",639845751,"L"
114480,"211 ROUTE 259","LIGONIER","PA",15658,40.2668797060001,-79.262474004,480,"211 ROUTE 259, LIGONIER, PA, 15658","Match","Non_Exact","211 STATE RTE 259, LIGONIER, PA, 15658",52950721,"L"
114481,"211 RUBEN JONES ROAD","CLAXTON","GA",30417,32.17928929,-81.856070734,481,"211 RUBEN JONES ROAD, CLAXTON, GA, 30417","Match","Exact","211 RUBEN JONES RD, CLAXTON, GA, 30417",6302754,"L"
114482,"211 RUTH DRIVE","GAFFNEY","SC",29341,35.108890914,-81.7071368749999,482,"211 RUTH DRIVE, GAFFNEY, SC, 29341","Match","Exact","211 RUTH DR, GAFFNEY, SC, 29341",18997542,"L"
114483,"211 S 31ST ST","MIDDLESBORO","KY",40965,36.6043895170001,-83.731357981,483,"211 S 31ST ST, MIDDLESBORO, KY, 40965","Match","Exact","211 S 31ST ST, MIDDLESBORO, KY, 40965",87970815,"L"
114484,"211 S 3RD ST","FOWLER","CA",93625,36.631592621,-119.674614224,484,"211 S 3RD ST, FOWLER, CA, 93625","Match","Exact","211 S 3RD ST, FOWLER, CA, 93625",197588034,"L"
114485,"211 S AKARD STREET","DALLAS","TX",75202,32.779694846,-96.7992713259999,485,"211 S AKARD STREET, DALLAS, TX, 75202","Match","Exact","211 S AKARD ST, DALLAS, TX, 75202",102910221,"R"
114486,"211 S ALABAMA AVENUE","CHESNEE","SC",29323,35.1471110470001,-81.860368637,486,"211 S ALABAMA AVENUE, CHESNEE, SC, 29323","Match","Exact","211 S ALABAMA AVE, CHESNEE, SC, 29323",19455710,"R"
114487,"211 S AVE 57 UNIT 2","LOS ANGELES","CA",90042,34.110921531,-118.193816091,487,"211 S AVE 57 UNIT 2, LOS ANGELES, CA, 90042","Match","Non_Exact","211 N AVE 57, LOS ANGELES, CA, 90042",142732114,"R"
114488,"211 S CHESTNUT ST","PRATTVILLE","AL",36067,32.461984425,-86.472514626,488,"211 S CHESTNUT ST, PRATTVILLE, AL, 36067","Match","Exact","211 S CHESTNUT ST, PRATTVILLE, AL, 36067",2826888,"L"
114489,"211 S CORN STREET","ITHACA","NY",14850,42.438246017,-76.506072466,489,"211 S CORN STREET, ITHACA, NY, 14850","Match","Exact","211 S CORN ST, ITHACA, NY, 14850",18855438,"R"
114490,"211 S EL MOLINO AVE  UNIT 4","PASADENA","CA",91101,NA,NA,490,"211 S EL MOLINO AVE  UNIT 4, PASADENA, CA, 91101","Tie",NA,NA,NA,NA
114491,"211 S KARLOV AVE","CHICAGO","IL",60624,41.877541933,-87.728004082,491,"211 S KARLOV AVE, CHICAGO, IL, 60624","Match","Exact","211 S KARLOV AVE, CHICAGO, IL, 60624",605080766,"L"
114492,"211 S LAWLER STREET","CHAMBERLAIN","SD",57325,NA,NA,492,"211 S LAWLER STREET, CHAMBERLAIN, SD, 57325","No_Match",NA,NA,NA,NA
114493,"211 S MAIN STREET","ELMORE CITY","OK",73433,34.6239457,-97.396452224,493,"211 S MAIN STREET, ELMORE CITY, OK, 73433","Match","Non_Exact","211 N MAIN ST, ELMORE CITY, OK, 73433",15163889,"L"
114494,"211 S MILL ST","BALTIMORE","OH",43105,39.8440882990001,-82.6039134819999,494,"211 S MILL ST, BALTIMORE, OH, 43105","Match","Exact","211 S MILL ST, BALTIMORE, OH, 43105",37218160,"L"
114495,"211 S PICKENS BRIDGE ROAD","JOHNSON CITY","TN",37615,36.391047766,-82.4055666359999,495,"211 S PICKENS BRIDGE ROAD, JOHNSON CITY, TN, 37615","Match","Non_Exact","211 PICKENS BRIDGE RD, JOHNSON CITY, TN, 37615",127948257,"L"
114496,"211 S POPLAR","PIERRE","SD",57501,44.3716247340001,-100.358934208,496,"211 S POPLAR, PIERRE, SD, 57501","Match","Non_Exact","211 S POPLAR AVE, PIERRE, SD, 57501",200329862,"L"
114497,"211 S PRIMROSE AVE","MONROVIA","CA",91016,34.1499452910001,-118.003183049,497,"211 S PRIMROSE AVE, MONROVIA, CA, 91016","Match","Exact","211 S PRIMROSE AVE, MONROVIA, CA, 91016",142743603,"R"
114498,"211 S SHERWOOD ST","IVANHOE","MN",56142,44.459018014,-96.248731133,498,"211 S SHERWOOD ST, IVANHOE, MN, 56142","Match","Exact","211 S SHERWOOD ST, IVANHOE, MN, 56142",43955313,"L"
114499,"211 SAIPAN PL","SAN ANTONIO","TX",78221,29.3412513750001,-98.501229466,499,"211 SAIPAN PL, SAN ANTONIO, TX, 78221","Match","Exact","211 SAIPAN PL, SAN ANTONIO, TX, 78221",101533322,"L"
114500,"211 SANDY BEND PL","CASTLE ROCK","WA",98611,46.232524244,-122.914878141,500,"211 SANDY BEND PL, CASTLE ROCK, WA, 98611","Match","Exact","211 SANDY BEND PL, CASTLE ROCK, WA, 98611",184516415,"R"
