"ID","Address","City","State","Zip","lat","long","id","input_address","match_indicator","match_type","matched_address","tiger_line_id","tiger_side"
180001,"3416 ESSEX RD","DOVER","PA",17315,39.987038597,-76.8290477629999,1,"3416 ESSEX RD, DOVER, PA, 17315","Match","Exact","3416 ESSEX RD, DOVER, PA, 17315",88727078,"L"
180002,"3416 FLAT CREEK DRIVE","PLANO","TX",75025,33.1101323140001,-96.760544188,2,"3416 FLAT CREEK DRIVE, PLANO, TX, 75025","Match","Exact","3416 FLAT CREEK DR, PLANO, TX, 75025",210528813,"R"
180003,"3416 FREEMAN AVE","KANSAS CITY","KS",66102,39.122211948,-94.668264012,3,"3416 FREEMAN AVE, KANSAS CITY, KS, 66102","Match","Exact","3416 FREEMAN AVE, KANSAS CITY, KS, 66102",91135145,"R"
180004,"3416 GARY DRIVE","PLANO","TX",75023,33.0683386700001,-96.758480322,4,"3416 GARY DRIVE, PLANO, TX, 75023","Match","Exact","3416 GARY DR, PLANO, TX, 75023",123501554,"R"
180005,"3416 HOME ST","HOUSTON","TX",77007,29.7722335600001,-95.394405276,5,"3416 HOME ST, HOUSTON, TX, 77007","Match","Exact","3416 HOME ST, HOUSTON, TX, 77007",96062240,"R"
180006,"3416 LOCH LOMOND CT","LAPORTE","CO",80535,40.6298978400001,-105.151682071,6,"3416 LOCH LOMOND CT, LAPORTE, CO, 80535","Match","Exact","3416 LOCH LOMOND CT, LAPORTE, CO, 80535",188479056,"R"
180007,"3416 LODGE DRIVE","BELMONT","CA",94002,37.5125019160001,-122.316690194,7,"3416 LODGE DRIVE, BELMONT, CA, 94002","Match","Exact","3416 LODGE DR, BELMONT, CA, 94002",645990837,"L"
180008,"3416 MAIN AVENUE UNIT A2","DURANGO","CO",81301,NA,NA,8,"3416 MAIN AVENUE UNIT A2, DURANGO, CO, 81301","Tie",NA,NA,NA,NA
180009,"3416 N MARSHFIELD AVE","CHICAGO","IL",60657,41.943817854,-87.670000847,9,"3416 N MARSHFIELD AVE, CHICAGO, IL, 60657","Match","Exact","3416 N MARSHFIELD AVE, CHICAGO, IL, 60657",111762047,"L"
180010,"3416 OLD DOMINION BLVD","ALEXANDRIA","VA",22305,38.8381547870001,-77.0689432999999,10,"3416 OLD DOMINION BLVD, ALEXANDRIA, VA, 22305","Match","Exact","3416 OLD DOMINION BLVD, ALEXANDRIA, VA, 22305",75987309,"L"
180011,"3416 OLDS RD","OXNARD","CA",93033,34.1689588090001,-119.15144097,11,"3416 OLDS RD, OXNARD, CA, 93033","Match","Exact","3416 OLDS RD, OXNARD, CA, 93033",110018237,"L"
180012,"3416 ORMOND RD","CLEVELAND HEIGHTS","OH",44118,41.4951709590001,-81.558892349,12,"3416 ORMOND RD, CLEVELAND HEIGHTS, OH, 44118","Match","Exact","3416 ORMOND RD, CLEVELAND HEIGHTS, OH, 44118",61125238,"R"
180013,"3416 PRIMM LANE","BIRMINGHAM","AL",35216,33.394019384,-86.802488517,13,"3416 PRIMM LANE, BIRMINGHAM, AL, 35216","Match","Exact","3416 PRIMM LN, BIRMINGHAM, AL, 35216",81616691,"R"
180014,"3416 PURDUE","DALLAS","TX",75225,32.8539484140001,-96.7876650059999,14,"3416 PURDUE, DALLAS, TX, 75225","Match","Non_Exact","3416 PURDUE ST, DALLAS, TX, 75225",102907213,"R"
180015,"3416 RAPIDS WAY","DECATUR","GA",30034,33.6972253860001,-84.249035785,15,"3416 RAPIDS WAY, DECATUR, GA, 30034","Match","Exact","3416 RAPIDS WAY, DECATUR, GA, 30034",23387745,"R"
180016,"3416 SE 171ST STREET","VANCOUVER","WA",98683,45.59599489,-122.49661852,16,"3416 SE 171ST STREET, VANCOUVER, WA, 98683","Match","Non_Exact","3416 SE 171ST AVE, VANCOUVER, WA, 98683",158368575,"L"
180017,"3416 SEQUOIA CIRCLE","WAUKESHA","WI",53188,43.0255354390001,-88.292020207,17,"3416 SEQUOIA CIRCLE, WAUKESHA, WI, 53188","Match","Exact","3416 SEQUOIA CIR, WAUKESHA, WI, 53188",617671790,"L"
180018,"3416 SNYDER AVE","CHEYENNE","WY",82001,41.1475026000001,-104.831369259,18,"3416 SNYDER AVE, CHEYENNE, WY, 82001","Match","Exact","3416 SNYDER AVE, CHEYENNE, WY, 82001",160149001,"L"
180019,"3416 SOUTH 368TH PLACE","AUBURN","WA",98001,47.270212772,-122.289055359,19,"3416 SOUTH 368TH PLACE, AUBURN, WA, 98001","Match","Exact","3416 S 368TH PL, AUBURN, WA, 98001",187023675,"L"
180020,"3416 SUMMER COVE DRIVE","FAYETTEVILLE","NC",23604,34.9517020010001,-78.8544484609999,20,"3416 SUMMER COVE DRIVE, FAYETTEVILLE, NC, 23604","Match","Non_Exact","3416 SUMMER COVE DR, FAYETTEVILLE, NC, 28306",646532018,"L"
180021,"3416 SUMMESPRINGS DRIVE","LAS VEGAS","NV",89129,NA,NA,21,"3416 SUMMESPRINGS DRIVE, LAS VEGAS, NV, 89129","No_Match",NA,NA,NA,NA
180022,"3416 TAYLOR FALLS DR","PFLUGERVILLE","TX",78660,30.456780832,-97.572996339,22,"3416 TAYLOR FALLS DR, PFLUGERVILLE, TX, 78660","Match","Exact","3416 TAYLOR FALLS DR, PFLUGERVILLE, TX, 78660",601189638,"R"
180023,"3416 VASSAR DRIVE","ANCHORAGE","AK",99508,61.189890748,-149.856283945,23,"3416 VASSAR DRIVE, ANCHORAGE, AK, 99508","Match","Exact","3416 VASSAR DR, ANCHORAGE, AK, 99508",605169005,"R"
180024,"3416 W 160TH STREET","MARKHAM","IL",60428,41.5989618360001,-87.7000417899999,24,"3416 W 160TH STREET, MARKHAM, IL, 60428","Match","Exact","3416 160TH ST, MARKHAM, IL, 60428",111704799,"R"
180025,"3416 WATERBRIDGE DRIVE","TAMPA","FL",33618,28.064744037,-82.498947512,25,"3416 WATERBRIDGE DRIVE, TAMPA, FL, 33618","Match","Exact","3416 WATERBRIDGE DR, TAMPA, FL, 33618",104585625,"R"
180026,"3416 WESTFIELD DR","PLANO","TX",75093,33.0466491120001,-96.836720918,26,"3416 WESTFIELD DR, PLANO, TX, 75093","Match","Exact","3416 WESTFIELD DR, PLANO, TX, 75093",123531410,"L"
180027,"34165 VIA LUCCA","FREMONT","CA",94555,37.560256178,-122.061724165,27,"34165 VIA LUCCA, FREMONT, CA, 94555","Match","Exact","34165 VIA LUCCA, FREMONT, CA, 94555",617583728,"R"
180028,"3417 26 1/2 AVE N","ROBBINSDALE","MN",55422,45.0069479220001,-93.322682014,28,"3417 26 1/2 AVE N, ROBBINSDALE, MN, 55422","Match","Exact","3417 26TH 1/2 AVE N, ROBBINSDALE, MN, 55422",43621255,"L"
180029,"3417 27TH AVENUE","KEARNEY","NE",68845,40.7092674410001,-99.1177987469999,29,"3417 27TH AVENUE, KEARNEY, NE, 68845","Match","Exact","3417 27TH AVE, KEARNEY, NE, 68845",649808597,"L"
180030,"3417 51ST AVE CT WEST","MILAN","IL",61264,41.474588468,-90.608407128,30,"3417 51ST AVE CT WEST, MILAN, IL, 61264","Match","Exact","3417 51ST AVE CT W, MILAN, IL, 61264",9231297,"R"
180031,"3417 ANN FRANKLIN COURT","CHARLOTTE","NC",28216,35.315216422,-80.894200957,31,"3417 ANN FRANKLIN COURT, CHARLOTTE, NC, 28216","Match","Exact","3417 ANN FRANKLIN CT, CHARLOTTE, NC, 28216",635657782,"L"
180032,"3417 AUBURN ROAD","CRESTVIEW","FL",32539,30.8197758900001,-86.5074555899999,32,"3417 AUBURN ROAD, CRESTVIEW, FL, 32539","Match","Exact","3417 AUBURN RD, CRESTVIEW, FL, 32539",74379242,"R"
180033,"3417 BEAR CREEK DR","HURST","TX",76054,32.8839765480001,-97.175927999,33,"3417 BEAR CREEK DR, HURST, TX, 76054","Match","Exact","3417 BEAR CREEK DR, HURST, TX, 76054",102186280,"R"
180034,"3417 BLINE AVENUE","BELLEVUE","NE",68123,41.1354348020001,-95.963531845,34,"3417 BLINE AVENUE, BELLEVUE, NE, 68123","Match","Exact","3417 BLINE AVE, BELLEVUE, NE, 68123",28469708,"L"
180035,"3417 BOTTOMWOOD DRIVE","ERLANGER","KY",41018,38.980897987,-84.5894945219999,35,"3417 BOTTOMWOOD DRIVE, ERLANGER, KY, 41018","Match","Exact","3417 BOTTOMWOOD DR, ERLANGER, KY, 41018",103882430,"R"
180036,"3417 BUCHANAN ST","HOLLYWOOD","FL",33021,26.0159930620001,-80.176419107,36,"3417 BUCHANAN ST, HOLLYWOOD, FL, 33021","Match","Exact","3417 BUCHANAN ST, HOLLYWOOD, FL, 33021",640934216,"R"
180037,"3417 CANOGA AVENUE","NORTH LAS VEGAS","NV",89030,36.2072269060001,-115.102331507,37,"3417 CANOGA AVENUE, NORTH LAS VEGAS, NV, 89030","Match","Non_Exact","3417 E CANOGA AVE, N LAS VEGAS, NV, 89030",201866741,"R"
180038,"3417 CROSSWIND COURT","MEDIA","OH",44256,NA,NA,38,"3417 CROSSWIND COURT, MEDIA, OH, 44256","No_Match",NA,NA,NA,NA
180039,"3417 DERBY DR","JONESBORO","AR",72404,35.8018558950001,-90.664380229,39,"3417 DERBY DR, JONESBORO, AR, 72404","Match","Exact","3417 DERBY DR, JONESBORO, AR, 72404",627098935,"R"
180040,"3417 E JEAN STREET","TAMPA","FL",33610,28.0040893410001,-82.421933101,40,"3417 E JEAN STREET, TAMPA, FL, 33610","Match","Exact","3417 E JEAN ST, TAMPA, FL, 33610",104533242,"R"
180041,"3417 EAST WASHINGTON AVE","DES MOINES","IA",50317,41.608277011,-93.550006052,41,"3417 EAST WASHINGTON AVE, DES MOINES, IA, 50317","Match","Exact","3417 E WASHINGTON AVE, DES MOINES, IA, 50317",65789667,"R"
180042,"3417 EVANSTON AV N  SUITE 231","SEATTLE","WA",98103,47.6500184650001,-122.351311187,42,"3417 EVANSTON AV N  SUITE 231, SEATTLE, WA, 98103","Match","Exact","3417 EVANSTON AVE N, SEATTLE, WA, 98103",186581654,"L"
180043,"3417 EVANSTON AVE N STE 212","SEATTLE","WA",98103,47.6500184650001,-122.351311187,43,"3417 EVANSTON AVE N STE 212, SEATTLE, WA, 98103","Match","Exact","3417 EVANSTON AVE N, SEATTLE, WA, 98103",186581654,"L"
180044,"3417 EVANSTON AVE NORTH SUITE 315","SEATTLE","WA",98103,47.6500184650001,-122.351311187,44,"3417 EVANSTON AVE NORTH SUITE 315, SEATTLE, WA, 98103","Match","Exact","3417 EVANSTON AVE N, SEATTLE, WA, 98103",186581654,"L"
180045,"3417 FOXCROFT ROAD","MIRAMAR","FL",33025,25.9768027430001,-80.268161493,45,"3417 FOXCROFT ROAD, MIRAMAR, FL, 33025","Match","Exact","3417 FOXCROFT RD, MIRAMAR, FL, 33025",650143407,"L"
180046,"3417 HOPI DR","ORLANDO","FL",32839,28.5073022450001,-81.41211473,46,"3417 HOPI DR, ORLANDO, FL, 32839","Match","Exact","3417 HOPI DR, ORLANDO, FL, 32839",94274642,"L"
180047,"3417 IVY DRIVE","GRAND FORKS","ND",58201,47.91253428,-97.078171515,47,"3417 IVY DRIVE, GRAND FORKS, ND, 58201","Match","Exact","3417 IVY DR, GRAND FORKS, ND, 58201",171308808,"R"
180048,"3417 JESSICA RUN","DECATUR","GA",30034,33.675556644,-84.249122357,48,"3417 JESSICA RUN, DECATUR, GA, 30034","Match","Exact","3417 JESSICA RUN, DECATUR, GA, 30034",23395459,"R"
180049,"3417 LEBANON PIKE A302","NASHVILLE","TN",37076,NA,NA,49,"3417 LEBANON PIKE A302, NASHVILLE, TN, 37076","No_Match",NA,NA,NA,NA
180050,"3417 MAGNOLIA SHORES LN","PEARLAND","TX",77584,29.5467295770001,-95.4276795009999,50,"3417 MAGNOLIA SHORES LN, PEARLAND, TX, 77584","Match","Exact","3417 MAGNOLIA SHORES LN, PEARLAND, TX, 77584",648926613,"R"
180051,"3417 N ALBANY","CHICAGO","IL",60618,41.9433188520001,-87.705276767,51,"3417 N ALBANY, CHICAGO, IL, 60618","Match","Non_Exact","3417 N ALBANY AVE, CHICAGO, IL, 60618",111760647,"R"
180052,"3417 N VERDE RD","GOLDEN VALLEY","AZ",86413,35.2265818610001,-114.218447562,52,"3417 N VERDE RD, GOLDEN VALLEY, AZ, 86413","Match","Exact","3417 VERDE RD, GOLDEN VALLEY, AZ, 86413",618644065,"L"
180053,"3417 NE 138TH AVENUE","VANCOUVER","WA",98682,45.6469141160001,-122.530691592,53,"3417 NE 138TH AVENUE, VANCOUVER, WA, 98682","Match","Exact","3417 NE 138TH AVE, VANCOUVER, WA, 98682",158346152,"R"
180054,"3417 S 113TH WEST AVENUE","SAND SPRINGS","OK",74063,36.111051774,-96.119136248,54,"3417 S 113TH WEST AVENUE, SAND SPRINGS, OK, 74063","Match","Exact","3417 S 113TH WEST AVE, SAND SPRINGS, OK, 74063",166432022,"L"
180055,"3417 S 206TH E AVE","BROKEN ARROW","OK",74014,36.11425195,-95.747295618,55,"3417 S 206TH E AVE, BROKEN ARROW, OK, 74014","Match","Exact","3417 S 206TH E AVE, BROKEN ARROW, OK, 74014",617313449,"L"
180056,"3417 S LONE PINE AVE","SPRINGFELD","MO",65804,37.150782674,-93.238776377,56,"3417 S LONE PINE AVE, SPRINGFELD, MO, 65804","Match","Non_Exact","3417 S LONE PINE AVE, SPRINGFIELD, MO, 65804",605898516,"R"
180057,"3417 S MAIN ST","NEW CASTLE","IN",47362,39.8990405390001,-85.371118686,57,"3417 S MAIN ST, NEW CASTLE, IN, 47362","Match","Exact","3417 S MAIN ST, NEW CASTLE, IN, 47362",29985971,"L"
180058,"3417 SILSBY ROAD","CLEVELAND HEIGHTS","OH",44118,41.4978678300001,-81.5574180789999,58,"3417 SILSBY ROAD, CLEVELAND HEIGHTS, OH, 44118","Match","Exact","3417 SILSBY RD, CLEVELAND HEIGHTS, OH, 44118",61124976,"L"
180059,"3417 SOUTH 144TH STREET","TUKWILA","WA",98168,47.474291173,-122.288991394,59,"3417 SOUTH 144TH STREET, TUKWILA, WA, 98168","Match","Exact","3417 S 144TH ST, TUKWILA, WA, 98168",186627032,"R"
180060,"3417 SOUTH PLAZA DRIVE UNIT I","SANTA ANA","CA",92704,33.7004125880001,-117.888792245,60,"3417 SOUTH PLAZA DRIVE UNIT I, SANTA ANA, CA, 92704","Match","Exact","3417 S PLAZA DR, SANTA ANA, CA, 92704",630511005,"L"
180061,"3417 SOUTHMEADE CIR","LOUISVILLE","KY",40214,38.1549963430001,-85.8224324349999,61,"3417 SOUTHMEADE CIR, LOUISVILLE, KY, 40214","Match","Exact","3417 SOUTHMEADE CIR, LOUISVILLE, KY, 40214",618510712,"R"
180062,"3417 TRASKWOOD CIRCLE","CINCINNATI","OH",45208,39.1426428980001,-84.406827607,62,"3417 TRASKWOOD CIRCLE, CINCINNATI, OH, 45208","Match","Exact","3417 TRASKWOOD CIR, CINCINNATI, OH, 45208",650334212,"R"
180063,"3417 VT ROUTE 30","JAMAICA","VT",5343,43.099820735,-72.77365631,63,"3417 VT ROUTE 30, JAMAICA, VT, 5343","Match","Non_Exact","3417 STATE RTE 30, JAMAICA, VT, 05343",641173667,"L"
180064,"3417 W BROWARD TRAIL","TUCSON","AZ",85741,32.3576732540001,-111.039203547,64,"3417 W BROWARD TRAIL, TUCSON, AZ, 85741","Match","Exact","3417 W BROWARD TRL, TUCSON, AZ, 85741",636139196,"R"
180065,"3417 WESTBURY ROAD","SHAKER HTS","OH",44120,41.4665824780001,-81.574143931,65,"3417 WESTBURY ROAD, SHAKER HTS, OH, 44120","Match","Exact","3417 WESTBURY RD, SHAKER HEIGHTS, OH, 44120",61127301,"L"
180066,"3417 YORKMINSTER ST","LAS VEGAS","NV",89129,36.223049035,-115.290001081,66,"3417 YORKMINSTER ST, LAS VEGAS, NV, 89129","Match","Exact","3417 YORKMINSTER ST, LAS VEGAS, NV, 89129",201934722,"L"
180067,"34170 HWY 74","HEMET","CA",92545,33.7409850540001,-117.065637043,67,"34170 HWY 74, HEMET, CA, 92545","Match","Non_Exact","34170 STATE RTE 74, HEMET, CA, 92545",194796395,"L"
180068,"34171 COUNTY ROAD M","CAMPO","CO",81029,NA,NA,68,"34171 COUNTY ROAD M, CAMPO, CO, 81029","No_Match",NA,NA,NA,NA
180069,"34175 CAMINO CAPISTRANO STE 201","DANA POINT","CA",92624,NA,NA,69,"34175 CAMINO CAPISTRANO STE 201, DANA POINT, CA, 92624","No_Match",NA,NA,NA,NA
180070,"34175 VALLE DR","UNION CITY","CA",94587,37.5988176880001,-122.014366982,70,"34175 VALLE DR, UNION CITY, CA, 94587","Match","Exact","34175 VALLE DR, UNION CITY, CA, 94587",617272722,"L"
180071,"34176 CHARLES TOWN PIKE","PURCELLVILLE","VA",20132,39.2604178230001,-77.761680215,71,"34176 CHARLES TOWN PIKE, PURCELLVILLE, VA, 20132","Match","Exact","34176 CHARLES TOWN PIKE, PURCELLVILLE, VA, 20132",62317555,"R"
180072,"34179 MARINA DRIVE","WAGONER","OK",74467,35.9413683600001,-95.2775134779999,72,"34179 MARINA DRIVE, WAGONER, OK, 74467","Match","Exact","34179 MARINA DR, WAGONER, OK, 74467",83155843,"L"
180073,"3418 AFTON FOREST LANE","KATY","TX",77449,29.822790404,-95.736982687,73,"3418 AFTON FOREST LANE, KATY, TX, 77449","Match","Exact","3418 AFTON FOREST LN, KATY, TX, 77449",624814025,"L"
180074,"3418 ANITA STREET","HOUSTON","TX",77004,29.7306817240001,-95.35177427,74,"3418 ANITA STREET, HOUSTON, TX, 77004","Match","Exact","3418 ANITA ST, HOUSTON, TX, 77004",96073316,"R"
180075,"3418 ANNE MARIE DRIVE","ERIE","PA",16506,42.061641879,-80.137390782,75,"3418 ANNE MARIE DRIVE, ERIE, PA, 16506","Match","Exact","3418 ANNE MARIE DR, ERIE, PA, 16506",625531462,"L"
180076,"3418 AVENUE N","GALVESTON","TX",77550,29.2922562740001,-94.8033697979999,76,"3418 AVENUE N, GALVESTON, TX, 77550","Match","Exact","3418 AVENUE N, GALVESTON, TX, 77550",96679745,"R"
180077,"3418 CHARLIE TAYLOR ROAD","PLANT CITY","FL",33565,28.0505151350001,-82.072499793,77,"3418 CHARLIE TAYLOR ROAD, PLANT CITY, FL, 33565","Match","Exact","3418 CHARLIE TAYLOR RD, PLANT CITY, FL, 33565",616394287,"L"
180078,"3418 CLARK HOUSE FARM ROAD","STUART","VA",24171,36.573919695,-80.211626124,78,"3418 CLARK HOUSE FARM ROAD, STUART, VA, 24171","Match","Exact","3418 CLARK HOUSE FARM RD, STUART, VA, 24171",56557011,"L"
180079,"3418 COTSWOLD TERRACE","GREENSBORO","NC",27455,36.1376093580001,-79.8404573289999,79,"3418 COTSWOLD TERRACE, GREENSBORO, NC, 27455","Match","Exact","3418 COTSWOLD TER, GREENSBORO, NC, 27455",131027749,"R"
180080,"3418 DANIEL AVENUE","DALLAS","TX",75205,32.846670282,-96.7886121879999,80,"3418 DANIEL AVENUE, DALLAS, TX, 75205","Match","Exact","3418 DANIEL AVE, DALLAS, TX, 75205",103201899,"R"
180081,"3418 DOGWOOD DRIVE","HAPEVILLE","GA",30354,33.661724097,-84.40963565,81,"3418 DOGWOOD DRIVE, HAPEVILLE, GA, 30354","Match","Exact","3418 DOGWOOD DR, HAPEVILLE, GA, 30354",17349700,"L"
180082,"3418 E MEGAN ST","GILBERT","AZ",85295,33.3208282530001,-111.716293697,82,"3418 E MEGAN ST, GILBERT, AZ, 85295","Match","Exact","3418 E MEGAN ST, GILBERT, AZ, 85295",601667173,"L"
180083,"3418 EGMONT WAY","SACRAMENTO","CA",95827,38.5636010270001,-121.331606961,83,"3418 EGMONT WAY, SACRAMENTO, CA, 95827","Match","Exact","3418 EGMONT WAY, SACRAMENTO, CA, 95827",133410253,"R"
180084,"3418 FRANKFORT AVENUE","LOUISVILLE","KY",40207,38.2539236810001,-85.668705802,84,"3418 FRANKFORT AVENUE, LOUISVILLE, KY, 40207","Match","Exact","3418 FRANKFORT AVE, LOUISVILLE, KY, 40207",619102729,"R"
180085,"3418 HAMMOCKS DR APT 204","BALDWINSVILLE","NY",13027,NA,NA,85,"3418 HAMMOCKS DR APT 204, BALDWINSVILLE, NY, 13027","No_Match",NA,NA,NA,NA
180086,"3418 HWY 6 S SUITE B314","HOUSTON","TX",77082,NA,NA,86,"3418 HWY 6 S SUITE B314, HOUSTON, TX, 77082","No_Match",NA,NA,NA,NA
180087,"3418 KEOKUK ST","SAINT LOUIS","MO",63118,38.5860994000001,-90.2415229379999,87,"3418 KEOKUK ST, SAINT LOUIS, MO, 63118","Match","Exact","3418 KEOKUK ST, SAINT LOUIS, MO, 63118",107601393,"L"
180088,"3418 NORTH 50TH STREET","MILWAUKEE","WI",53216,43.0813525300001,-87.9759486309999,88,"3418 NORTH 50TH STREET, MILWAUKEE, WI, 53216","Match","Exact","3418 N 50TH ST, MILWAUKEE, WI, 53216",77731825,"R"
180089,"3418 OLSEN BLVD STE A","AMARILLO","TX",79109,35.1847435350001,-101.877824408,89,"3418 OLSEN BLVD STE A, AMARILLO, TX, 79109","Match","Exact","3418 OLSEN BLVD, AMARILLO, TX, 79109",182470236,"R"
180090,"3418 ONE PLACE","JONESBORO","AR",72403,35.8029938990001,-90.6491124839999,90,"3418 ONE PLACE, JONESBORO, AR, 72403","Match","Non_Exact","3418 ONE PL, JONESBORO, AR, 72404",46924663,"L"
180091,"3418 PICKERING LANE","PEARLAND","TX",77584,29.5443653410001,-95.36612724,91,"3418 PICKERING LANE, PEARLAND, TX, 77584","Match","Exact","3418 PICKERING LN, PEARLAND, TX, 77584",116611806,"R"
180092,"3418 REYNARD CT","LITHONIA","GA",30038,33.6819396990001,-84.161787977,92,"3418 REYNARD CT, LITHONIA, GA, 30038","Match","Exact","3418 REYNARD CT, LITHONIA, GA, 30038",23378708,"R"
180093,"3418 ROBERT DR","DUNCAN","OK",73533,34.5445807830001,-97.956368292,93,"3418 ROBERT DR, DUNCAN, OK, 73533","Match","Exact","3418 ROBERT DR, DUNCAN, OK, 73533",13674008,"L"
180094,"3418 S DIXIE HIGHWAY NUM 303","FRANKLIN","OH",45005,39.4965006990001,-84.3361495359999,94,"3418 S DIXIE HIGHWAY NUM 303, FRANKLIN, OH, 45005","Match","Non_Exact","3418 S DIXIE HWY, FRANKLIN, OH, 45005",159021189,"L"
180095,"3418 S GRAND BLVD","SPOKANE","WA",99203,47.6230268950001,-117.401791587,95,"3418 S GRAND BLVD, SPOKANE, WA, 99203","Match","Exact","3418 S GRAND BLVD, SPOKANE, WA, 99203",189881412,"R"
180096,"3418 SANTA CATALINA CT","KATY","TX",77450,29.734335322,-95.7470130249999,96,"3418 SANTA CATALINA CT, KATY, TX, 77450","Match","Exact","3418 SANTA CATALINA CT, KATY, TX, 77450",78322982,"R"
180097,"3418 SHANNON PARK DRIVE","FREDERICKSBURG","VA",22408,38.2666147750001,-77.451114731,97,"3418 SHANNON PARK DRIVE, FREDERICKSBURG, VA, 22408","Match","Exact","3418 SHANNON PARK DR, FREDERICKSBURG, VA, 22408",640914357,"L"
180098,"3418 SW NEWBERRY CT","PALM CITY","FL",34990,27.162741463,-80.282688025,98,"3418 SW NEWBERRY CT, PALM CITY, FL, 34990","Match","Exact","3418 SW NEWBERRY CT, PALM CITY, FL, 34990",120473584,"R"
180099,"3418 UPTON AVE N","MINNEAPOLIS","MN",55412,45.0172782670001,-93.314604666,99,"3418 UPTON AVE N, MINNEAPOLIS, MN, 55412","Match","Exact","3418 UPTON AVE N, MINNEAPOLIS, MN, 55412",43621194,"R"
180100,"3418 W 64TH STREET","MISSION HILLS","KS",66208,39.013634815,-94.625249079,100,"3418 W 64TH STREET, MISSION HILLS, KS, 66208","Match","Exact","3418 W 64TH ST, MISSION HILLS, KS, 66208",91320594,"R"
180101,"3418 WATERFORD COURT","CHARLESTON","SC",29420,32.93904422,-80.0823967859999,101,"3418 WATERFORD COURT, CHARLESTON, SC, 29420","Match","Exact","3418 WATERFORD CT, CHARLESTON, SC, 29420",645481444,"R"
180102,"3418 WATERSTONE DRIVE","FAYETTEVILLE","AR",72764,36.134644931,-94.112171911,102,"3418 WATERSTONE DRIVE, FAYETTEVILLE, AR, 72764","Match","Non_Exact","3418 E WATERSTONE DR, FAYETTEVILLE, AR, 72764",49093087,"L"
180103,"3418 WEST MEDILL AVE","CHICAGO","IL",60647,41.9237507240001,-87.712809029,103,"3418 WEST MEDILL AVE, CHICAGO, IL, 60647","Match","Exact","3418 W MEDILL AVE, CHICAGO, IL, 60647",605221494,"R"
180104,"3418-A GLEN PARK DRIVE NW","HUNTSVILLE","AL",35810,34.7690699030001,-86.593538133,104,"3418-A GLEN PARK DRIVE NW, HUNTSVILLE, AL, 35810","Match","Exact","3418 GLEN PARK DR NW, HUNTSVILLE, AL, 35810",58115960,"L"
180105,"34185 FREMONT BOULEVARD","FREMONT","CA",94555,37.576244778,-122.043589979,105,"34185 FREMONT BOULEVARD, FREMONT, CA, 94555","Match","Exact","34185 FREMONT BLVD, FREMONT, CA, 94555",638566521,"R"
180106,"3419 58TH STREET 2FL","WOODSIDE","NY",11377,NA,NA,106,"3419 58TH STREET 2FL, WOODSIDE, NY, 11377","No_Match",NA,NA,NA,NA
180107,"3419 AVE L","GALVESTON","TX",77550,29.294856296,-94.8042915679999,107,"3419 AVE L, GALVESTON, TX, 77550","Match","Exact","3419 AVE L, GALVESTON, TX, 77550",96679596,"L"
180108,"3419 BEAVER CREEK ROAD","RHINELANDER","WI",54501,45.5901794750001,-89.282472161,108,"3419 BEAVER CREEK ROAD, RHINELANDER, WI, 54501","Match","Exact","3419 BEAVER CREEK RD, RHINELANDER, WI, 54501",196594449,"L"
180109,"3419 BRAHMA DR","DALLAS","TX",75241,32.658658175,-96.7652430909999,109,"3419 BRAHMA DR, DALLAS, TX, 75241","Match","Exact","3419 BRAHMA DR, DALLAS, TX, 75241",619132322,"L"
180110,"3419 CLERMONT DRIVE","MUSCATINE","IA",52761,41.449357854,-91.0736887479999,110,"3419 CLERMONT DRIVE, MUSCATINE, IA, 52761","Match","Exact","3419 CLERMONT DR, MUSCATINE, IA, 52761",643004730,"R"
180111,"3419 COAL ST","HOUSTON","TX",77026,29.801352738,-95.33481576,111,"3419 COAL ST, HOUSTON, TX, 77026","Match","Exact","3419 COAL ST, HOUSTON, TX, 77026",96076396,"L"
180112,"3419 E CHAPMAN AVE 249","ORANGE","CA",92869,33.7877874550001,-117.816406678,112,"3419 E CHAPMAN AVE 249, ORANGE, CA, 92869","Match","Non_Exact","3419 E CHAPMAN AVE, ORANGE, CA, 92869",644544576,"L"
180113,"3419 E TERRACE AVENUE","GILBERT","AZ",85234,33.377925842,-111.71739151,113,"3419 E TERRACE AVENUE, GILBERT, AZ, 85234","Match","Exact","3419 TERRACE AVE, GILBERT, AZ, 85234",647703014,"L"
180114,"3419 EAST ALVORD ROAD SUITE 16","TUCSON","AZ",85706,32.1451797010001,-110.918931211,114,"3419 EAST ALVORD ROAD SUITE 16, TUCSON, AZ, 85706","Match","Exact","3419 E ALVORD RD, TUCSON, AZ, 85706",624974515,"L"
180115,"3419 EAST CHAPMAN  SUITE 346","ORANGE","CA",92869,33.787787467,-117.816412603,115,"3419 EAST CHAPMAN  SUITE 346, ORANGE, CA, 92869","Match","Non_Exact","3419 E CHAPMAN AVE, ORANGE, CA, 92869",644544576,"L"
180116,"3419 FAIRVIEW AVE","DALLAS","TX",75223,32.7894071010001,-96.73691619,116,"3419 FAIRVIEW AVE, DALLAS, TX, 75223","Match","Exact","3419 FAIRVIEW AVE, DALLAS, TX, 75223",102921596,"L"
180117,"3419 HOLT STREET","CHARLOTTE","NC",28205,35.243189301,-80.796627507,117,"3419 HOLT STREET, CHARLOTTE, NC, 28205","Match","Exact","3419 HOLT ST, CHARLOTTE, NC, 28205",70480283,"L"
180118,"3419 HWY 47","LOS LUNAS","NM",87031,NA,NA,118,"3419 HWY 47, LOS LUNAS, NM, 87031","No_Match",NA,NA,NA,NA
180119,"3419 PARHAM DRIVE","GRAND PRAIRIE","TX",75053,32.6872300960001,-97.058627609,119,"3419 PARHAM DRIVE, GRAND PRAIRIE, TX, 75053","Match","Non_Exact","3419 PARHAM DR, GRAND PRAIRIE, TX, 75052",101962414,"R"
180120,"3419 PINOCA LANE","NORTH CHARLESTON","SC",29420,32.93633328,-80.078068892,120,"3419 PINOCA LANE, NORTH CHARLESTON, SC, 29420","Match","Exact","3419 PINOCA LN, N CHARLESTON, SC, 29420",108797238,"R"
180121,"3419 S EWING AVE","DALLAS","TX",75216,32.7025246160001,-96.810870014,121,"3419 S EWING AVE, DALLAS, TX, 75216","Match","Exact","3419 S EWING AVE, DALLAS, TX, 75216",102951186,"R"
180122,"3419 S US HWY 421","GREENSBURG","IN",47240,39.2875295050001,-85.413378044,122,"3419 S US HWY 421, GREENSBURG, IN, 47240","Match","Exact","3419 S US HWY 421, GREENSBURG, IN, 47240",625552239,"L"
180123,"3419 SAGUARO DR","GRAND PRAIRIE","TX",75052,32.6878514220001,-97.033953056,123,"3419 SAGUARO DR, GRAND PRAIRIE, TX, 75052","Match","Exact","3419 SAGUARO DR, GRAND PRAIRIE, TX, 75052",617673057,"R"
180124,"3419 STRATFORD HILLS LANE","AUSTIN","TX",78746,30.287892566,-97.7910538099999,124,"3419 STRATFORD HILLS LANE, AUSTIN, TX, 78746","Match","Exact","3419 STRATFORD HILLS LN, AUSTIN, TX, 78746",63977233,"L"
180125,"3419 SUMMERHILL DRIVE","FAYETTEVILLE","AR",72701,NA,NA,125,"3419 SUMMERHILL DRIVE, FAYETTEVILLE, AR, 72701","No_Match",NA,NA,NA,NA
180126,"3419 TULANE DR APT 11","HYATSVILLE","MD",20783,38.984672152,-76.957916531,126,"3419 TULANE DR APT 11, HYATSVILLE, MD, 20783","Match","Non_Exact","3419 TULANE DR, HYATTSVILLE, MD, 20783",600643664,"R"
180127,"3419 VIA LIDO BOX 354","NEWPORT BEACH","CA",92663,33.618087281,-117.928595596,127,"3419 VIA LIDO BOX 354, NEWPORT BEACH, CA, 92663","Match","Exact","3419 VIA LIDO, NEWPORT BEACH, CA, 92663",144047093,"L"
180128,"3419 VIRGINIA BEACH BLVD -BOX 5285","VIRGINIA BEACH","VA",23452,36.8410954230001,-76.092476625,128,"3419 VIRGINIA BEACH BLVD -BOX 5285, VIRGINIA BEACH, VA, 23452","Match","Exact","3419 VIRGINIA BEACH BLVD, VA BCH, VA, 23452",122311642,"R"
180129,"3419 VIRGINIA BEACH BLVD 5004","VIRGINIA BEACH","VA",23452,36.8410954230001,-76.092476625,129,"3419 VIRGINIA BEACH BLVD 5004, VIRGINIA BEACH, VA, 23452","Match","Exact","3419 VIRGINIA BEACH BLVD, VA BCH, VA, 23452",122311642,"R"
180130,"3419 VIRGINIA BEACH BLVD 971","VIRGINIA BEACH","VA",23452,36.8410954230001,-76.092476625,130,"3419 VIRGINIA BEACH BLVD 971, VIRGINIA BEACH, VA, 23452","Match","Exact","3419 VIRGINIA BEACH BLVD, VA BCH, VA, 23452",122311642,"R"
180131,"3419 VIRGINIA BEACH BOULEVARD 371","VIRGINIA BEACH","VA",23452,36.8410954230001,-76.092476625,131,"3419 VIRGINIA BEACH BOULEVARD 371, VIRGINIA BEACH, VA, 23452","Match","Exact","3419 VIRGINIA BEACH BLVD, VA BCH, VA, 23452",122311642,"R"
180132,"3419 WARDEN DR","PHILADELPHIA","PA",19129,40.017153008,-75.1920847969999,132,"3419 WARDEN DR, PHILADELPHIA, PA, 19129","Match","Exact","3419 WARDEN DR, PHILADELPHIA, PA, 19129",131440720,"R"
180133,"3419 WEST","DALLAS","TX",75205,NA,NA,133,"3419 WEST, DALLAS, TX, 75205","No_Match",NA,NA,NA,NA
180134,"3419 WESTMINSTER AVE STE 291","DALLAS","TX",75205,32.850248295,-96.787753031,134,"3419 WESTMINSTER AVE STE 291, DALLAS, TX, 75205","Match","Exact","3419 WESTMINSTER AVE, DALLAS, TX, 75205",102907258,"L"
180135,"3419 WESTMINSTER AVENUE BOX 226","DALLAS","TX",75205,32.850248295,-96.787753031,135,"3419 WESTMINSTER AVENUE BOX 226, DALLAS, TX, 75205","Match","Exact","3419 WESTMINSTER AVE, DALLAS, TX, 75205",102907258,"L"
180136,"34194 AURORA RD  SUITE 131","SOLON","OH",44139,41.3846484700001,-81.435246695,136,"34194 AURORA RD  SUITE 131, SOLON, OH, 44139","Match","Exact","34194 AURORA RD, SOLON, OH, 44139",651068977,"R"
180137,"34194 AURORA RD NUM 236","SOLON","OH",44139,41.3846484700001,-81.435246695,137,"34194 AURORA RD NUM 236, SOLON, OH, 44139","Match","Exact","34194 AURORA RD, SOLON, OH, 44139",651068977,"R"
180138,"34194 AURORA RD","SOLON","OH",44139,41.3846484700001,-81.435246695,138,"34194 AURORA RD, SOLON, OH, 44139","Match","Exact","34194 AURORA RD, SOLON, OH, 44139",651068977,"R"
180139,"34194 AURORA ROAD NUMBER 231","SOLON","OH",44139,41.3846484700001,-81.435246695,139,"34194 AURORA ROAD NUMBER 231, SOLON, OH, 44139","Match","Exact","34194 AURORA RD, SOLON, OH, 44139",651068977,"R"
180140,"341PALMETTO PARKWAY","ORANGEBURG","SC",29115,NA,NA,140,"341PALMETTO PARKWAY, ORANGEBURG, SC, 29115","No_Match",NA,NA,NA,NA
180141,"342  CHEROKEE AVE","HAINES CITY","FL",33844,28.135395423,-81.631837576,141,"342  CHEROKEE AVE, HAINES CITY, FL, 33844","Match","Exact","342 CHEROKEE AVE, HAINES CITY, FL, 33844",616523774,"L"
180142,"342 10TH ST","ASTORIA","OR",97103,46.1887460780001,-123.832729813,142,"342 10TH ST, ASTORIA, OR, 97103","Match","Exact","342 10TH ST, ASTORIA, OR, 97103",159221462,"R"
180143,"342 ACASTA DRIVE","MIDDLETOWN","DE",19709,39.5411308980001,-75.670493804,143,"342 ACASTA DRIVE, MIDDLETOWN, DE, 19709","Match","Exact","342 ACASTA DR, MIDDLETOWN, DE, 19709",648959644,"R"
180144,"342 AVALON WAY","BRANDON","MS",39047,32.3728105550001,-90.042885124,144,"342 AVALON WAY, BRANDON, MS, 39047","Match","Exact","342 AVALON WAY, BRANDON, MS, 39047",116918085,"R"
180145,"342 BALD EAGLES CIRCLE","MOUNT WASHTINGTON","KY",40047,NA,NA,145,"342 BALD EAGLES CIRCLE, MOUNT WASHTINGTON, KY, 40047","No_Match",NA,NA,NA,NA
180146,"342 BUENA VISTA AVE","ASHLAND","OH",44805,40.85704495,-82.318460852,146,"342 BUENA VISTA AVE, ASHLAND, OH, 44805","Match","Exact","342 BUENA VISTA AVE, ASHLAND, OH, 44805",30146904,"R"
180147,"342 CATHERINE STREET","WALLA WALLA","WA",99362,46.064409492,-118.332792528,147,"342 CATHERINE STREET, WALLA WALLA, WA, 99362","Match","Exact","342 CATHERINE ST, WALLA WALLA, WA, 99362",651698426,"L"
180148,"342 CEDARWOOD DRIVE","ORANGE","CT",6477,41.2917326900001,-73.0448012219999,148,"342 CEDARWOOD DRIVE, ORANGE, CT, 6477","Match","Exact","342 CEDARWOOD DR, ORANGE, CT, 06477",648660955,"L"
180149,"342 CLINTON STREET","SOUTH WILLIAMSPORT","PA",17702,41.228384921,-77.004817477,149,"342 CLINTON STREET, SOUTH WILLIAMSPORT, PA, 17702","Match","Exact","342 CLINTON ST, S WILLIAMSPORT, PA, 17702",59456902,"R"
180150,"342 COUNTRY RIDGE DRIVE","RED LION","PA",17356,39.892620488,-76.62528242,150,"342 COUNTRY RIDGE DRIVE, RED LION, PA, 17356","Match","Exact","342 COUNTRY RIDGE DR, RED LION, PA, 17356",629907898,"L"
180151,"342 COURT ST ROOM 308","PEKIN","IL",61554,40.5697658220001,-89.648028462,151,"342 COURT ST ROOM 308, PEKIN, IL, 61554","Match","Exact","342 COURT ST, PEKIN, IL, 61554",22497722,"R"
180152,"342 DAVEY STREET","BUFFALO","NY",14206,42.8939832140001,-78.803634108,152,"342 DAVEY STREET, BUFFALO, NY, 14206","Match","Exact","342 DAVEY ST, BUFFALO, NY, 14206",48301491,"L"
180153,"342 E 119TH ST 5B","NEW YORK","NY",10035,40.7984839640001,-73.935301728,153,"342 E 119TH ST 5B, NEW YORK, NY, 10035","Match","Non_Exact","342 E 119TH ST, NEW YORK, NY, 10035",59658136,"R"
180154,"342 E 600 S","ST GEORGE","UT",84770,37.097964806,-113.576030947,154,"342 E 600 S, ST GEORGE, UT, 84770","Match","Exact","342 E 600 S, SAINT GEORGE, UT, 84770",166167098,"L"
180155,"342 E 81ST ST APT 2A","NEW YORK","NY",10028,40.7742056390001,-73.953033438,155,"342 E 81ST ST APT 2A, NEW YORK, NY, 10028","Match","Non_Exact","342 E 81ST ST, NEW YORK, NY, 10028",59658295,"R"
180156,"342 EAST FREDERICK STREET","LANCASTER","PA",17602,40.048578617,-76.299761202,156,"342 EAST FREDERICK STREET, LANCASTER, PA, 17602","Match","Exact","342 E FREDERICK ST, LANCASTER, PA, 17602",179662957,"R"
180157,"342 FORDS LANDING LANE","MILLINGTON","MD",21651,39.2425849270001,-75.894431912,157,"342 FORDS LANDING LANE, MILLINGTON, MD, 21651","Match","Exact","342 FORDS LANDING LN, MILLINGTON, MD, 21651",68045481,"R"
180158,"342 GLENRIDGE ROAD","ERIE","PA",16509,42.0875665730001,-80.0642224389999,158,"342 GLENRIDGE ROAD, ERIE, PA, 16509","Match","Exact","342 GLENRIDGE RD, ERIE, PA, 16509",117498156,"R"
180159,"342 GREENWICH CT","KISSIMMEE","FL",34758,28.1717187610001,-81.5014452359999,159,"342 GREENWICH CT, KISSIMMEE, FL, 34758","Match","Exact","342 GREENWICH CT, KISSIMMEE, FL, 34758",176669511,"L"
180160,"342 HANNUM AVENUE","WEST CHESTER","PA",19380,39.958978658,-75.610614401,160,"342 HANNUM AVENUE, WEST CHESTER, PA, 19380","Match","Exact","342 HANNUM AVE, WEST CHESTER, PA, 19380",179553415,"L"
180161,"342 HARRISON","OAK PARK","IL",60304,41.8726450710001,-87.7835195819999,161,"342 HARRISON, OAK PARK, IL, 60304","Match","Non_Exact","342 HARRISON ST, OAK PARK, IL, 60304",111794095,"R"
180162,"342 HORSESHOE LOOP","LIBERTY HILL","TX",78642,30.658084246,-97.874378241,162,"342 HORSESHOE LOOP, LIBERTY HILL, TX, 78642","Match","Exact","342 HORSESHOE LOOP, LIBERTY HILL, TX, 78642",126465082,"L"
180163,"342 INDIAN POINTE","OSAGE BEACH","MO",65065,NA,NA,163,"342 INDIAN POINTE, OSAGE BEACH, MO, 65065","No_Match",NA,NA,NA,NA
180164,"342 JEFFERSON ST","SARATOGA SPRINGS","NY",12866,43.0603479260001,-73.7784128,164,"342 JEFFERSON ST, SARATOGA SPRINGS, NY, 12866","Match","Exact","342 JEFFERSON ST, SARATOGA SPGS, NY, 12866",18768063,"R"
180165,"342 KELFORD LANE","CHARLOTTE","NC",28270,35.139039413,-80.7615912429999,165,"342 KELFORD LANE, CHARLOTTE, NC, 28270","Match","Exact","342 KELFORD LN, CHARLOTTE, NC, 28270",70493432,"R"
180166,"342 KIMBERLY LANE","LOS ALAMOS","NM",87544,35.8183598530001,-106.19773864,166,"342 KIMBERLY LANE, LOS ALAMOS, NM, 87544","Match","Non_Exact","342 KIMBERLY LN, LOS ALAMOS, NM, 87547",143756146,"L"
180167,"342 LOUISIANA STREET","STURGEON BAY","WI",54235,44.8353228990001,-87.376549814,167,"342 LOUISIANA STREET, STURGEON BAY, WI, 54235","Match","Exact","342 LOUISIANA ST, STURGEON BAY, WI, 54235",167249150,"L"
180168,"342 MACHEN","TOLEDO","OH",43620,41.6699321560001,-83.551662936,168,"342 MACHEN, TOLEDO, OH, 43620","Match","Non_Exact","342 MACHEN ST, TOLEDO, OH, 43620",33943239,"R"
180169,"342 MAIN STREET","LAKEVILLE","CT",6039,41.967021334,-73.4392439979999,169,"342 MAIN STREET, LAKEVILLE, CT, 6039","Match","Exact","342 MAIN ST, LAKEVILLE, CT, 06039",647170515,"L"
180170,"342 MARINA POINTE DRIVE","EAST ROCKAWAY","NY",11518,NA,NA,170,"342 MARINA POINTE DRIVE, EAST ROCKAWAY, NY, 11518","No_Match",NA,NA,NA,NA
180171,"342 MCRAE STREET","COLUMBIA","SC",29203,34.03154892,-81.0644475409999,171,"342 MCRAE STREET, COLUMBIA, SC, 29203","Match","Exact","342 MCRAE ST, COLUMBIA, SC, 29203",71817979,"L"
180172,"342 MESSER RD","CLYDE","NC",28721,35.6032812330001,-82.9310902999999,172,"342 MESSER RD, CLYDE, NC, 28721","Match","Exact","342 MESSER RD, CLYDE, NC, 28721",151827667,"L"
180173,"342 N QUEEN ST REAR","LANCASTER","PA",17603,NA,NA,173,"342 N QUEEN ST REAR, LANCASTER, PA, 17603","Tie",NA,NA,NA,NA
180174,"342 N QUEEN STREET WAREHOUSE D","LANCASTER","PA",17603,NA,NA,174,"342 N QUEEN STREET WAREHOUSE D, LANCASTER, PA, 17603","Tie",NA,NA,NA,NA
180175,"342 N WATER ST SUITE 600","MILWAUKEE","WI",53202,43.0342748350001,-87.9089086069999,175,"342 N WATER ST SUITE 600, MILWAUKEE, WI, 53202","Match","Non_Exact","342 N WATER ST, MILWAUKEE, WI, 53202",77744653,"R"
180176,"342 N WATER ST","MILWAUKEE","WI",53202,43.0342748350001,-87.9089086069999,176,"342 N WATER ST, MILWAUKEE, WI, 53202","Match","Exact","342 N WATER ST, MILWAUKEE, WI, 53202",77744653,"R"
180177,"342 NELSON ST SW UNIT 221","ATLANTA","GA",30313,33.751504638,-84.398717635,177,"342 NELSON ST SW UNIT 221, ATLANTA, GA, 30313","Match","Exact","342 NELSON ST SW, ATLANTA, GA, 30313",618353872,"L"
180178,"342 NORTH MAIN STREET SUITE 301","WEST HARTFORD","CT",6117,41.7831019450001,-72.746620617,178,"342 NORTH MAIN STREET SUITE 301, WEST HARTFORD, CT, 6117","Match","Exact","342 N MAIN ST, WEST HARTFORD, CT, 06117",3533167,"R"
180179,"342 NORTH QUEEN STREET BUILDING D","LANCASTER","PA",17603,40.0434013230001,-76.306725849,179,"342 NORTH QUEEN STREET BUILDING D, LANCASTER, PA, 17603","Match","Exact","342 N QUEEN ST, LANCASTER, PA, 17603",179662739,"L"
180180,"342 NORTH QUEEN STREET REAR","LANCASTER","PA",17603,40.0434013230001,-76.306725849,180,"342 NORTH QUEEN STREET REAR, LANCASTER, PA, 17603","Match","Exact","342 N QUEEN ST, LANCASTER, PA, 17603",179662739,"L"
180181,"342 PEAR TREE AVE","GOODLAND","FL",34140,25.9249148380001,-81.647271803,181,"342 PEAR TREE AVE, GOODLAND, FL, 34140","Match","Exact","342 PEAR TREE AVE, GOODLAND, FL, 34140",115122643,"R"
180182,"342 PR 1402","MORGAN","TX",76671,31.977372852,-97.438699668,182,"342 PR 1402, MORGAN, TX, 76671","Match","Non_Exact","342 CO RD 1402, MORGAN, TX, 76671",158607012,"L"
180183,"342 QUAKERTOWN ROAD","PITTSTOWN","NJ",8867,NA,NA,183,"342 QUAKERTOWN ROAD, PITTSTOWN, NJ, 8867","No_Match",NA,NA,NA,NA
180184,"342 RUDY ROAD","MANSFIELD","OH",44903,40.75020855,-82.646997831,184,"342 RUDY ROAD, MANSFIELD, OH, 44903","Match","Exact","342 RUDY RD, MANSFIELD, OH, 44903",207224524,"R"
180185,"342 S CORDOVA CT","SPRINGFIELD","MO",65802,37.2070670000001,-93.273822625,185,"342 S CORDOVA CT, SPRINGFIELD, MO, 65802","Match","Exact","342 S CORDOVA CT, SPRINGFIELD, MO, 65802",76678393,"R"
180186,"342 S MAIN ST SUITE 200","GRAPEVINE","TX",76051,NA,NA,186,"342 S MAIN ST SUITE 200, GRAPEVINE, TX, 76051","Tie",NA,NA,NA,NA
180187,"342 S MAIN ST","JAMESTOWN","KY",42629,36.980762444,-85.059724223,187,"342 S MAIN ST, JAMESTOWN, KY, 42629","Match","Exact","342 S MAIN ST, JAMESTOWN, KY, 42629",38433300,"R"
180188,"342 S SCHOOL ST","GRASS VALLEY","CA",95945,39.2155343530001,-121.067184036,188,"342 S SCHOOL ST, GRASS VALLEY, CA, 95945","Match","Exact","342 S SCHOOL ST, GRASS VALLEY, CA, 95945",106533968,"L"
180189,"342 SCHRAALENBURGH RD","HAWORTH","NJ",7641,40.967419132,-73.983106372,189,"342 SCHRAALENBURGH RD, HAWORTH, NJ, 7641","Match","Non_Exact","342 SCHRAELENBURGH RD, HAWORTH, NJ, 07641",647244268,"L"
180190,"342 SEWARD STREET","WEST BABYLON","NY",11704,40.7286330410001,-73.344450141,190,"342 SEWARD STREET, WEST BABYLON, NY, 11704","Match","Exact","342 SEWARD ST, WEST BABYLON, NY, 11704",113976647,"R"
180191,"342 SUNNYRIDGE ROAD","TOLEDO","OR",97391,44.594660022,-123.925190409,191,"342 SUNNYRIDGE ROAD, TOLEDO, OR, 97391","Match","Exact","342 SUNNYRIDGE RD, TOLEDO, OR, 97391",155942525,"L"
180192,"342 SW 16TH ST","CHEHALIS","WA",98532,46.6494747510001,-122.950854094,192,"342 SW 16TH ST, CHEHALIS, WA, 98532","Match","Exact","342 SW 16TH ST, CHEHALIS, WA, 98532",180709828,"R"
180193,"342 THOMAS S BOYLAND STREET","BROOKLYN","NY",11233,40.6726506410001,-73.9140639839999,193,"342 THOMAS S BOYLAND STREET, BROOKLYN, NY, 11233","Match","Exact","342 THOMAS S BOYLAND ST, BROOKLYN, NY, 11233",59083767,"R"
180194,"342 VILLAGE CIRCLE","GARDEN VALLEY","ID",83622,NA,NA,194,"342 VILLAGE CIRCLE, GARDEN VALLEY, ID, 83622","No_Match",NA,NA,NA,NA
180195,"342 VINE STREET","SYRACUSE","NY",13203,43.054257459,-76.125611593,195,"342 VINE STREET, SYRACUSE, NY, 13203","Match","Exact","342 VINE ST, SYRACUSE, NY, 13203",46573305,"R"
180196,"342 W FOURTH ST","MEDIA","PA",19063,39.9221822490001,-75.3930385529999,196,"342 W FOURTH ST, MEDIA, PA, 19063","Match","Exact","342 W 4TH ST, MEDIA, PA, 19063",134869997,"L"
180197,"342 WASHINGTON AVENUE SUITE 201","GREENVILLE","MS",38701,33.411935961,-91.061801497,197,"342 WASHINGTON AVENUE SUITE 201, GREENVILLE, MS, 38701","Match","Exact","342 WASHINGTON AVE, GREENVILLE, MS, 38701",1153513,"R"
180198,"342 WEST 16TH PLACE","CHICAGO HEIGHTS","IL",60411,41.501335947,-87.655882925,198,"342 WEST 16TH PLACE, CHICAGO HEIGHTS, IL, 60411","Match","Exact","342 W 16TH PL, CHICAGO HEIGHTS, IL, 60411",111711264,"L"
180199,"342 WEST 4TH STREET","CINCINNATI","OH",45202,39.0991381920001,-84.518186574,199,"342 WEST 4TH STREET, CINCINNATI, OH, 45202","Match","Exact","342 W 4TH ST, CINCINNATI, OH, 45202",103936484,"R"
180200,"342 WOODLAND PATH","DALLAS","GA",30132,33.947727033,-84.898409312,200,"342 WOODLAND PATH, DALLAS, GA, 30132","Match","Exact","342 WOODLAND PATH, DALLAS, GA, 30132",645835126,"R"
180201,"342","PATCHOGUE","NY",11772,NA,NA,201,"342, PATCHOGUE, NY, 11772","No_Match",NA,NA,NA,NA
180202,"3420  14TH ST STE 100","PLANO","TX",75074,33.0151852930001,-96.671696132,202,"3420  14TH ST STE 100, PLANO, TX, 75074","Match","Exact","3420 14TH ST, PLANO, TX, 75074",210471397,"R"
180203,"3420 10TH PL SE","WASHINGTON","WA",20032,NA,NA,203,"3420 10TH PL SE, WASHINGTON, WA, 20032","No_Match",NA,NA,NA,NA
180204,"3420 16TH ST NW 107","WASHINGTON","DC",20010,38.933575698,-77.036459495,204,"3420 16TH ST NW 107, WASHINGTON, DC, 20010","Match","Exact","3420 16TH ST NW, WASHINGTON, DC, 20010",76222855,"L"
180205,"3420 21ST STREET","SAN FRANCISCO","CA",94110,37.7567388590001,-122.423954107,205,"3420 21ST STREET, SAN FRANCISCO, CA, 94110","Match","Exact","3420 21ST ST, SAN FRANCISCO, CA, 94110",192284862,"R"
180206,"3420 37TH STREET SOUTH","WISCONSIN RAPIDS","WI",54494,44.363476452,-89.779322112,206,"3420 37TH STREET SOUTH, WISCONSIN RAPIDS, WI, 54494","Match","Exact","3420 37TH ST S, WISCONSIN RAPIDS, WI, 54494",51291343,"L"
180207,"3420 4TH ST","SPARKS","NV",89431,39.5619764260001,-119.746302381,207,"3420 4TH ST, SPARKS, NV, 89431","Match","Exact","3420 4TH ST, SPARKS, NV, 89431",107049452,"R"
180208,"3420 4TH STREET","SPARKS","NV",89431,39.5619764260001,-119.746302381,208,"3420 4TH STREET, SPARKS, NV, 89431","Match","Exact","3420 4TH ST, SPARKS, NV, 89431",107049452,"R"
180209,"3420 ARGYLE ROAD","BIRMINGHAM","AL",35213,33.5033198670001,-86.775373356,209,"3420 ARGYLE ROAD, BIRMINGHAM, AL, 35213","Match","Exact","3420 ARGYLE RD, BIRMINGHAM, AL, 35213",81579877,"L"
180210,"3420 AVENUE Q","BIRMINGHAM","AL",35208,33.494650796,-86.887419211,210,"3420 AVENUE Q, BIRMINGHAM, AL, 35208","Match","Exact","3420 AVE Q, BIRMINGHAM, AL, 35208",81719384,"R"
180211,"3420 BAYLOR CIRCLE","MCDONOUGH","GA",30253,33.4481594650001,-84.191346701,211,"3420 BAYLOR CIRCLE, MCDONOUGH, GA, 30253","Match","Exact","3420 BAYLOR CIR, MCDONOUGH, GA, 30253",632921420,"L"
180212,"3420 BROOKLYN DRIVE","CANTON","MI",48188,42.279974345,-83.520650464,212,"3420 BROOKLYN DRIVE, CANTON, MI, 48188","Match","Exact","3420 BROOKLYN DR, CANTON, MI, 48188",95725959,"L"
180213,"3420 BURBANK AVENUE","KINGMAN","AZ",86409,NA,NA,213,"3420 BURBANK AVENUE, KINGMAN, AZ, 86409","No_Match",NA,NA,NA,NA
180214,"3420 CALEB DR","HOUMA","LA",70360,29.577373327,-90.7628812629999,214,"3420 CALEB DR, HOUMA, LA, 70360","Match","Exact","3420 CALEB DR, HOUMA, LA, 70360",623846049,"L"
180215,"3420 COLLEGE AVE","ALTON","IL",62002,38.9043948230001,-90.134868911,215,"3420 COLLEGE AVE, ALTON, IL, 62002","Match","Exact","3420 COLLEGE AVE, ALTON, IL, 62002",640581253,"L"
180216,"3420 CONSTITUTION AVE NE","ALBUQUERQUE","NM",87106,35.094720706,-106.606168794,216,"3420 CONSTITUTION AVE NE, ALBUQUERQUE, NM, 87106","Match","Exact","3420 CONSTITUTION AVE NE, ALBUQUERQUE, NM, 87106",206710226,"R"
180217,"3420 COUNTRY SQUARE DR","CARROLLTON","TX",75006,32.963642269,-96.8493692119999,217,"3420 COUNTRY SQUARE DR, CARROLLTON, TX, 75006","Match","Exact","3420 COUNTRY SQUARE DR, CARROLLTON, TX, 75006",650072070,"R"
180218,"3420 DELAWARE AVE","70065","LA",70065,30.018380575,-90.241502517,218,"3420 DELAWARE AVE, 70065, LA, 70065","Match","Non_Exact","3420 DELAWARE AVE, KENNER, LA, 70065",93493142,"R"
180219,"3420 E 43RD","DES MOINES","IA",50317,NA,NA,219,"3420 E 43RD, DES MOINES, IA, 50317","Tie",NA,NA,NA,NA
180220,"3420 E SHEA BLVD - SUITE 200","PHOENIX","AZ",85028,33.5825935500001,-112.005933949,220,"3420 E SHEA BLVD - SUITE 200, PHOENIX, AZ, 85028","Match","Non_Exact","3420 E SHEA BLVD, PHOENIX, AZ, 85028",639054122,"L"
180221,"3420 E SHEA BLVD STE 200","PHOENIX","AZ",85028,33.5825935500001,-112.005933949,221,"3420 E SHEA BLVD STE 200, PHOENIX, AZ, 85028","Match","Non_Exact","3420 E SHEA BLVD, PHOENIX, AZ, 85028",639054122,"L"
180222,"3420 EAST BROAD ST APT B","RICHMOND","VA",23223,37.526369672,-77.4101540739999,222,"3420 EAST BROAD ST APT B, RICHMOND, VA, 23223","Match","Exact","3420 E BROAD ST, RICHMOND, VA, 23223",616227163,"L"
180223,"3420 EAST PALM CT","HIALEAH","FL",33013,25.8533269920001,-80.281677179,223,"3420 EAST PALM CT, HIALEAH, FL, 33013","Match","Exact","3420 E PALM CT, HIALEAH, FL, 33013",115958426,"L"
180224,"3420 EAST SHEA BLVD SUITE 200","PHOENIX","AZ",85028,33.5825935130001,-112.00593616,224,"3420 EAST SHEA BLVD SUITE 200, PHOENIX, AZ, 85028","Match","Exact","3420 E SHEA BLVD, PHOENIX, AZ, 85028",639054122,"L"
180225,"3420 FRUITION CT","MURFREESBORO","TN",37128,35.8275815260001,-86.461345217,225,"3420 FRUITION CT, MURFREESBORO, TN, 37128","Match","Exact","3420 FRUITION CT, MURFREESBORO, TN, 37128",643085842,"L"
180226,"3420 GARDEN AVENUE","MIAMI","FL",33140,25.8103366280001,-80.135183801,226,"3420 GARDEN AVENUE, MIAMI, FL, 33140","Match","Exact","3420 GARDEN AVE, MIAMI, FL, 33140",116008931,"L"
180227,"3420 GENESEE STREET APT B2","CHEEKTOWAGA","NY",14225,42.9261654910001,-78.7588111909999,227,"3420 GENESEE STREET APT B2, CHEEKTOWAGA, NY, 14225","Match","Exact","3420 GENESEE ST, CHEEKTOWAGA, NY, 14225",48300115,"L"
180228,"3420 GENTRYTOWN DRIVE","ANTIOCH","CA",94509,37.986633161,-121.837786536,228,"3420 GENTRYTOWN DRIVE, ANTIOCH, CA, 94509","Match","Exact","3420 GENTRYTOWN DR, ANTIOCH, CA, 94509",192068020,"R"
180229,"3420 HIGHWAY M","CABOOL","MO",65689,NA,NA,229,"3420 HIGHWAY M, CABOOL, MO, 65689","No_Match",NA,NA,NA,NA
180230,"3420 INDIAN QUEEN LANE","PHILADELPHIA","PA",19129,40.0113393610001,-75.1867730609999,230,"3420 INDIAN QUEEN LANE, PHILADELPHIA, PA, 19129","Match","Exact","3420 INDIAN QUEEN LN, PHILADELPHIA, PA, 19129",131401638,"L"
180231,"3420 JACKSON ST","BELLWOOD","IL",60104,41.874415927,-87.874675186,231,"3420 JACKSON ST, BELLWOOD, IL, 60104","Match","Exact","3420 JACKSON ST, BELLWOOD, IL, 60104",111788166,"L"
180232,"3420 LAURELWOOD DRIVE","HORN LAKE","MS",38637,34.9589436420001,-90.047733533,232,"3420 LAURELWOOD DRIVE, HORN LAKE, MS, 38637","Match","Exact","3420 LAURELWOOD DR, HORN LAKE, MS, 38637",91832473,"L"
180233,"3420 LICKING LANE","ZANESVILLE","OH",43701,39.971214995,-82.0588600629999,233,"3420 LICKING LANE, ZANESVILLE, OH, 43701","Match","Exact","3420 LICKING LN, ZANESVILLE, OH, 43701",45608978,"R"
180234,"3420 MAIN ST","BUFFALO","NY",14214,42.9556095740001,-78.8209388609999,234,"3420 MAIN ST, BUFFALO, NY, 14214","Match","Exact","3420 MAIN ST, BUFFALO, NY, 14214",647640841,"L"
180235,"3420 MISSION ST","FORT WORTH","TX",76109,32.699562751,-97.358361012,235,"3420 MISSION ST, FORT WORTH, TX, 76109","Match","Exact","3420 MISSION ST, FORT WORTH, TX, 76109",101886421,"R"
180236,"3420 N 31ST STREET","PHOENIX","AZ",85016,33.488238584,-112.015589932,236,"3420 N 31ST STREET, PHOENIX, AZ, 85016","Match","Exact","3420 N 31ST ST, PHOENIX, AZ, 85016",128219495,"L"
180237,"3420 N BROADWAY ST","INDIANAPOLIS","IN",46204,39.818023521,-86.146179584,237,"3420 N BROADWAY ST, INDIANAPOLIS, IN, 46204","Match","Non_Exact","3420 BROADWAY ST, INDIANAPOLIS, IN, 46205",107989158,"L"
180238,"3420 NW 18TH PLACE","LAUDERHILL","FL",33311,26.1502064210001,-80.193819036,238,"3420 NW 18TH PLACE, LAUDERHILL, FL, 33311","Match","Non_Exact","3420 NW 18TH PL, LAUDERHILL, FL, 33311",114709092,"L"
180239,"3420 PRAIRIE DRIVE","DYER","IN",46311,41.469550358,-87.519235457,239,"3420 PRAIRIE DRIVE, DYER, IN, 46311","Match","Exact","3420 PRAIRIE DR, DYER, IN, 46311",606279405,"L"
180240,"3420 PUMP ROAD -- NUMBER 802","HENRICO","VA",23233,37.6480381120001,-77.614366379,240,"3420 PUMP ROAD -- NUMBER 802, HENRICO, VA, 23233","Match","Exact","3420 PUMP RD, HENRICO, VA, 23233",106669151,"L"
180241,"3420 PUMP ROAD NUM 260","HENRICO","VA",23233,37.6480381120001,-77.614366379,241,"3420 PUMP ROAD NUM 260, HENRICO, VA, 23233","Match","Exact","3420 PUMP RD, HENRICO, VA, 23233",106669151,"L"
180242,"3420 RAVENWOOD LANE","MIRAMAR BEACH","FL",32550,30.397386786,-86.317845117,242,"3420 RAVENWOOD LANE, MIRAMAR BEACH, FL, 32550","Match","Exact","3420 RAVENWOOD LN, MIRAMAR BEACH, FL, 32550",635017870,"R"
180243,"3420 RIVERCREST CT","BATON ROUGE","LA",70820,30.389811147,-91.2005803819999,243,"3420 RIVERCREST CT, BATON ROUGE, LA, 70820","Match","Exact","3420 RIVERCREST CT, BATON ROUGE, LA, 70820",92205666,"R"
180244,"3420 SW 147TH AVENUE","MIRAMAR","FL",33027,25.9769793400001,-80.342959846,244,"3420 SW 147TH AVENUE, MIRAMAR, FL, 33027","Match","Exact","3420 SW 147TH AVE, MIRAMAR, FL, 33027",114806489,"R"
180245,"3420 SW 32ND ST","WEST PARK","FL",33024,25.9826618220001,-80.1768289949999,245,"3420 SW 32ND ST, WEST PARK, FL, 33024","Match","Non_Exact","3420 SW 32ND ST, WEST PARK, FL, 33023",114736118,"L"
180246,"3420 THEODORE RD","ERATH","LA",70533,29.944363735,-92.029442939,246,"3420 THEODORE RD, ERATH, LA, 70533","Match","Exact","3420 THEODORE RD, ERATH, LA, 70533",85964992,"R"
180247,"3420 TOLEDO TERRACE SUITE 314","HYATTSVILLE","MD",20782,38.9711624380001,-76.9585065479999,247,"3420 TOLEDO TERRACE SUITE 314, HYATTSVILLE, MD, 20782","Match","Exact","3420 TOLEDO TER, HYATTSVILLE, MD, 20782",76392139,"L"
180248,"3420 VALERIE DRIVE","CHARLOTTE","NC",28216,35.307435501,-80.868286327,248,"3420 VALERIE DRIVE, CHARLOTTE, NC, 28216","Match","Exact","3420 VALERIE DR, CHARLOTTE, NC, 28216",70561613,"R"
180249,"3420 VINTON AVE APT 3","LOS ANGELES","CA",90034,34.0279549030001,-118.408175364,249,"3420 VINTON AVE APT 3, LOS ANGELES, CA, 90034","Match","Exact","3420 VINTON AVE, LOS ANGELES, CA, 90034",141573644,"R"
180250,"3420 W PALMIRA AVE","TAMPA","FL",33629,27.9225002200001,-82.499149216,250,"3420 W PALMIRA AVE, TAMPA, FL, 33629","Match","Exact","3420 W PALMIRA AVE, TAMPA, FL, 33629",104605891,"L"
180251,"3420 WASHINGTON LANE","COOPER CITY","FL",33026,26.0379349070001,-80.2853211509999,251,"3420 WASHINGTON LANE, COOPER CITY, FL, 33026","Match","Non_Exact","3420 WASHINGTON LN, HOLLYWOOD, FL, 33026",114760768,"L"
180252,"3420 WEST 83RD STREET","CHICAGO","IL",60652,41.742413813,-87.707678143,252,"3420 WEST 83RD STREET, CHICAGO, IL, 60652","Match","Exact","3420 W 83RD ST, CHICAGO, IL, 60652",111817432,"R"
180253,"34200 GOLDEN CYPRESS LANE","PEARLAND","TX",77584,NA,NA,253,"34200 GOLDEN CYPRESS LANE, PEARLAND, TX, 77584","No_Match",NA,NA,NA,NA
180254,"34205 HARROW HILL RD","WILDOMAR","CA",92595,33.6245439050001,-117.231799002,254,"34205 HARROW HILL RD, WILDOMAR, CA, 92595","Match","Exact","34205 HARROW HILL RD, WILDOMAR, CA, 92595",194715708,"R"
180255,"3421 25TH STREET / APARTMENT 4","SAN FRANCISCO","CA",94110,37.750608132,-122.418731993,255,"3421 25TH STREET / APARTMENT 4, SAN FRANCISCO, CA, 94110","Match","Exact","3421 25TH ST, SAN FRANCISCO, CA, 94110",192288357,"L"
180256,"3421 27TH AVENUE","TEMPLE HILLS","MD",20748,38.8436053560001,-76.957998946,256,"3421 27TH AVENUE, TEMPLE HILLS, MD, 20748","Match","Exact","3421 27TH AVE, TEMPLE HILLS, MD, 20748",76312344,"R"
180257,"3421 BACKSPIN LN","ORLANDO","FL",32804,28.582577427,-81.37880946,257,"3421 BACKSPIN LN, ORLANDO, FL, 32804","Match","Exact","3421 BACKSPIN LN, ORLANDO, FL, 32804",94399435,"R"
180258,"3421 BETHUNE DRIVE","BIRMINGHAM","AL",35223,33.4909968640001,-86.72446316,258,"3421 BETHUNE DRIVE, BIRMINGHAM, AL, 35223","Match","Exact","3421 BETHUNE DR, BIRMINGHAM, AL, 35223",81587749,"R"
180259,"3421 BRIGHTON ROAD","PITTSBURGH","PA",15212,40.4783717130001,-80.031161679,259,"3421 BRIGHTON ROAD, PITTSBURGH, PA, 15212","Match","Exact","3421 BRIGHTON RD, PITTSBURGH, PA, 15212",51623158,"L"
180260,"3421 BUFFALO RD","WESLEYVILLE","PA",16510,42.1411538770001,-80.0133147239999,260,"3421 BUFFALO RD, WESLEYVILLE, PA, 16510","Match","Non_Exact","3421 BUFFALO RD, ERIE, PA, 16510",117499090,"R"
180261,"3421 CHESTNUT ST","NEW ORLEANS","LA",70115,29.9247708790001,-90.090076767,261,"3421 CHESTNUT ST, NEW ORLEANS, LA, 70115","Match","Exact","3421 CHESTNUT ST, NEW ORLEANS, LA, 70115",191713276,"R"
180262,"3421 CRAGGY BLUFF PL","COCOA","FL",32926,28.403318481,-80.776824479,262,"3421 CRAGGY BLUFF PL, COCOA, FL, 32926","Match","Exact","3421 CRAGGY BLUFF PL, COCOA, FL, 32926",93922060,"R"
180263,"3421 DEREIMER AVE NO 1","BRONX","NY",10475,NA,NA,263,"3421 DEREIMER AVE NO 1, BRONX, NY, 10475","No_Match",NA,NA,NA,NA
180264,"3421 E RHETT BUTLER RD","CLARKSVILLE","TN",37042,36.632239741,-87.37038333,264,"3421 E RHETT BUTLER RD, CLARKSVILLE, TN, 37042","Match","Exact","3421 E RHETT BUTLER RD, CLARKSVILLE, TN, 37042",31831197,"R"
180265,"3421 EAST STATE BOULEVARD","FORT WAYNE","IN",46805,41.097430235,-85.095545408,265,"3421 EAST STATE BOULEVARD, FORT WAYNE, IN, 46805","Match","Exact","3421 E STATE BLVD, FORT WAYNE, IN, 46805",6380388,"L"
180266,"3421 FARMDALE AVE","LOS ANGELES","CA",90016,34.025181031,-118.346039497,266,"3421 FARMDALE AVE, LOS ANGELES, CA, 90016","Match","Exact","3421 FARMDALE AVE, LOS ANGELES, CA, 90016",141601834,"R"
180267,"3421 FIDDLERS GREEN LOOP","WESLEY CHAPEL","FL",33544,NA,NA,267,"3421 FIDDLERS GREEN LOOP, WESLEY CHAPEL, FL, 33544","No_Match",NA,NA,NA,NA
180268,"3421 KESSLER BOULEVARD EAST DR","INDIANAPOLIS","IN",46220,NA,NA,268,"3421 KESSLER BOULEVARD EAST DR, INDIANAPOLIS, IN, 46220","No_Match",NA,NA,NA,NA
180269,"3421 MONTE VERDE DRIVE","LINCOLN","CA",95648,38.8628091410001,-121.239458946,269,"3421 MONTE VERDE DRIVE, LINCOLN, CA, 95648","Match","Non_Exact","3421 MONTEVERDE DR, LINCOLN, CA, 95648",629301426,"L"
180270,"3421 N 180 E","PROVO","UT",84604,40.2794322930001,-111.655141054,270,"3421 N 180 E, PROVO, UT, 84604","Match","Exact","3421 N 180 E, PROVO, UT, 84604",638123118,"L"
180271,"3421 N PARK AVE SUITE 550","INDIANAPOLIS","IN",46205,39.8178874980001,-86.147335074,271,"3421 N PARK AVE SUITE 550, INDIANAPOLIS, IN, 46205","Match","Non_Exact","3421 N PARK AVE, INDIANAPOLIS, IN, 46205",107989156,"R"
180272,"3421 NORMANDY AVENUE SUITE 7","DALLAS","TX",75205,32.8387147810001,-96.788099426,272,"3421 NORMANDY AVENUE SUITE 7, DALLAS, TX, 75205","Match","Exact","3421 NORMANDY AVE, DALLAS, TX, 75205",102907662,"L"
180273,"3421 NORTH 29TH STREET","KANSAS CITY","KS",66104,39.1478955090001,-94.661410438,273,"3421 NORTH 29TH STREET, KANSAS CITY, KS, 66104","Match","Exact","3421 N 29TH ST, KANSAS CITY, KS, 66104",91134803,"R"
180274,"3421 NW 188 STREET","MIAMI GARDENS","FL",33056,25.945241846,-80.257503669,274,"3421 NW 188 STREET, MIAMI GARDENS, FL, 33056","Match","Exact","3421 NW 188TH ST, MIAMI GARDENS, FL, 33056",116027019,"R"
180275,"3421 NW 44 ST APT 206","LAUDERDALE LAKES","FL",33309,NA,NA,275,"3421 NW 44 ST APT 206, LAUDERDALE LAKES, FL, 33309","No_Match",NA,NA,NA,NA
180276,"3421 RAVENWOOD DRIVE","AUGUSTA","GA",30907,33.505660305,-82.0787967809999,276,"3421 RAVENWOOD DRIVE, AUGUSTA, GA, 30907","Match","Exact","3421 RAVENWOOD DR, AUGUSTA, GA, 30907",55633298,"R"
180277,"3421 S HARCOURT AVENUE","LOS ANGELES","CA",90016,34.0252746300001,-118.350749779,277,"3421 S HARCOURT AVENUE, LOS ANGELES, CA, 90016","Match","Exact","3421 S HARCOURT AVE, LOS ANGELES, CA, 90016",141601297,"R"
180278,"3421 SABLE CHASE LANE","COLLEGE PARK","GA",30349,33.598429277,-84.503705149,278,"3421 SABLE CHASE LANE, COLLEGE PARK, GA, 30349","Match","Exact","3421 SABLE CHASE LN, COLLEGE PARK, GA, 30349",624955587,"L"
180279,"3421 SOUTH DYE ROAD","FLINT","MI",48507,42.975608057,-83.781928705,279,"3421 SOUTH DYE ROAD, FLINT, MI, 48507","Match","Exact","3421 S DYE RD, FLINT, MI, 48507",69594727,"L"
180280,"3421 SOUTH ELM STREET","DENVER","CO",80222,39.654423712,-104.9293374,280,"3421 SOUTH ELM STREET, DENVER, CO, 80222","Match","Exact","3421 S ELM ST, DENVER, CO, 80222",177341534,"R"
180281,"3421 W CLUBVIEW COURT","MEQUON","WI",53092,43.211743563,-87.953132453,281,"3421 W CLUBVIEW COURT, MEQUON, WI, 53092","Match","Exact","3421 W CLUBVIEW CT, MEQUON, WI, 53092",95903501,"L"
180282,"3421 W HIGHWAY 83 STE 6","MCALLEN","TX",78501,NA,NA,282,"3421 W HIGHWAY 83 STE 6, MCALLEN, TX, 78501","No_Match",NA,NA,NA,NA
180283,"3421 WILDWOOD AVENUE","HIGH POINT","NC",27265,36.0324624570001,-79.986509682,283,"3421 WILDWOOD AVENUE, HIGH POINT, NC, 27265","Match","Exact","3421 WILDWOOD AVE, HIGH POINT, NC, 27265",131052966,"L"
180284,"34213 FINNIGAN TER","FREMONT","CA",94555,37.564231942,-122.057696445,284,"34213 FINNIGAN TER, FREMONT, CA, 94555","Match","Exact","34213 FINNIGAN TER, FREMONT, CA, 94555",125056239,"R"
180285,"34216 VIOLET LANTERN SUITE 203","DANA POINT","CA",92629,33.465435906,-117.700291706,285,"34216 VIOLET LANTERN SUITE 203, DANA POINT, CA, 92629","Match","Non_Exact","34216 VIOLET LANTERN ST, DANA POINT, CA, 92629",609047215,"L"
180286,"3422 AVENUE I","BROOKLYN","NY",11210,40.6295712520001,-73.943155318,286,"3422 AVENUE I, BROOKLYN, NY, 11210","Match","Exact","3422 AVE I, BROOKLYN, NY, 11210",59082030,"R"
180287,"3422 BURLINGDELL AVE","DALLAS","TX",75211,32.736878694,-96.876383714,287,"3422 BURLINGDELL AVE, DALLAS, TX, 75211","Match","Exact","3422 BURLINGDELL AVE, DALLAS, TX, 75211",102940447,"L"
180288,"3422 BUSINESS CENTER DR S 106-400","PEARLAND","TX",77584,NA,NA,288,"3422 BUSINESS CENTER DR S 106-400, PEARLAND, TX, 77584","No_Match",NA,NA,NA,NA
180289,"3422 BUSINESS CENTER DRIVE 106/49","PEARLAND","TX",77584,29.546964557,-95.3896586819999,289,"3422 BUSINESS CENTER DRIVE 106/49, PEARLAND, TX, 77584","Match","Non_Exact","3422 BUS CENTER DR, PEARLAND, TX, 77584",653222808,"R"
180290,"3422 BUSINESS CENTER DRIVE STE 106","PEARLAND","TX",77584,29.546964557,-95.3896586819999,290,"3422 BUSINESS CENTER DRIVE STE 106, PEARLAND, TX, 77584","Match","Non_Exact","3422 BUS CENTER DR, PEARLAND, TX, 77584",653222808,"R"
180291,"3422 CARPENTER AVE","HURRICANE","WV",25526,38.44081994,-82.0091461659999,291,"3422 CARPENTER AVE, HURRICANE, WV, 25526","Match","Exact","3422 CARPENTER AVE, HURRICANE, WV, 25526",627648403,"R"
180292,"3422 CATHE DYKSTRA WAY APT 204","LOUISVILLE","KY",40216,NA,NA,292,"3422 CATHE DYKSTRA WAY APT 204, LOUISVILLE, KY, 40216","No_Match",NA,NA,NA,NA
180293,"3422 CHICKERING LANE","BLOOMFIELD HILS","MI",48302,42.590189165,-83.277440188,293,"3422 CHICKERING LANE, BLOOMFIELD HILS, MI, 48302","Match","Non_Exact","3422 CHICKERING LN, BLOOMFIELD HILLS, MI, 48302",69776872,"R"
180294,"3422 CONSTANCE STREET","NEW ORLEANS","LA",70115,29.9218209310001,-90.089076332,294,"3422 CONSTANCE STREET, NEW ORLEANS, LA, 70115","Match","Exact","3422 CONSTANCE ST, NEW ORLEANS, LA, 70115",191713339,"L"
180295,"3422 DOUGLAS DR N","CRYSTAL","MN",55422,45.0189114450001,-93.360033712,295,"3422 DOUGLAS DR N, CRYSTAL, MN, 55422","Match","Exact","3422 DOUGLAS DR N, CRYSTAL, MN, 55422",43618463,"R"
180296,"3422 E VIRGINIA AVE","PHOENIX","AZ",85008,33.476798538,-112.007796376,296,"3422 E VIRGINIA AVE, PHOENIX, AZ, 85008","Match","Exact","3422 E VIRGINIA AVE, PHOENIX, AZ, 85008",128223120,"L"
180297,"3422 HAWTHORNE AVE","RICHMOND","VA",23222,37.5788046370001,-77.444303995,297,"3422 HAWTHORNE AVE, RICHMOND, VA, 23222","Match","Exact","3422 HAWTHORNE AVE, RICHMOND, VA, 23222",201534105,"L"
180298,"3422 HWY 81","OXFORD","GA",30054,33.679246327,-83.8504601499999,298,"3422 HWY 81, OXFORD, GA, 30054","Match","Non_Exact","3422 STATE RTE 81, OXFORD, GA, 30054",23627145,"R"
180299,"3422 JENNY LANE","BARTLETT","TN",38135,35.2194471670001,-89.860057991,299,"3422 JENNY LANE, BARTLETT, TN, 38135","Match","Exact","3422 JENNY LN, BARTLETT, TN, 38135",72924203,"L"
180300,"3422 LAKESIDE DRIVE","ROCKWALL","TX",75087,NA,NA,300,"3422 LAKESIDE DRIVE, ROCKWALL, TX, 75087","No_Match",NA,NA,NA,NA
180301,"3422 LOMAS SERENAS DRIVE","ESCONDIDO","UT",92029,NA,NA,301,"3422 LOMAS SERENAS DRIVE, ESCONDIDO, UT, 92029","No_Match",NA,NA,NA,NA
180302,"3422 MARRIOTT DEIVE","COLUMBUS","GA",31907,32.4951487700001,-84.907384538,302,"3422 MARRIOTT DEIVE, COLUMBUS, GA, 31907","Match","Non_Exact","3422 MARRIOTT DR, COLUMBUS, GA, 31907",98941050,"R"
180303,"3422 NONETTE DR","LANSING","MI",48911,42.677337601,-84.5962539239999,303,"3422 NONETTE DR, LANSING, MI, 48911","Match","Exact","3422 NONETTE DR, LANSING, MI, 48911",17497047,"R"
180304,"3422 OLD CAPITAL TRAIL SUITE 700","WILMINGTON","DE",19808,39.7316191290001,-75.6266954989999,304,"3422 OLD CAPITAL TRAIL SUITE 700, WILMINGTON, DE, 19808","Match","Non_Exact","3422 OLD CAPITOL TRL, WILMINGTON, DE, 19808",187253700,"L"
180305,"3422 OLD CAPITOL TRAIL   STE 748","WILMINGTON","DE",19808,39.7316191290001,-75.6266954989999,305,"3422 OLD CAPITOL TRAIL   STE 748, WILMINGTON, DE, 19808","Match","Non_Exact","3422 OLD CAPITOL TRL, WILMINGTON, DE, 19808",187253700,"L"
180306,"3422 OLD CAPITOL TRAIL SUITE 700","WILMINGTON","DE",19808,39.7316191290001,-75.6266954989999,306,"3422 OLD CAPITOL TRAIL SUITE 700, WILMINGTON, DE, 19808","Match","Non_Exact","3422 OLD CAPITOL TRL, WILMINGTON, DE, 19808",187253700,"L"
180307,"3422 RETLAW ROAD","BALTIMORE","MD",21207,39.3359471520001,-76.717838345,307,"3422 RETLAW ROAD, BALTIMORE, MD, 21207","Match","Exact","3422 RETLAW RD, BALTIMORE, MD, 21207",191469316,"L"
180308,"3422 RUSTIN AVENUE","RIVERSIDE","CA",92507,33.9806908310001,-117.33545071,308,"3422 RUSTIN AVENUE, RIVERSIDE, CA, 92507","Match","Exact","3422 RUSTIN AVE, RIVERSIDE, CA, 92507",194879235,"L"
180309,"3422 S PENNSYLVANIA AVENUE","MILWAUKEE","WI",53207,42.9822517100001,-87.8795768689999,309,"3422 S PENNSYLVANIA AVENUE, MILWAUKEE, WI, 53207","Match","Exact","3422 S PENNSYLVANIA AVE, MILWAUKEE, WI, 53207",77754411,"L"
180310,"3422 SENECA CLUB LOOP UNIT A","ORLANDO","FL",32808,28.5856931880001,-81.423174791,310,"3422 SENECA CLUB LOOP UNIT A, ORLANDO, FL, 32808","Match","Exact","3422 SENECA CLUB LOOP, ORLANDO, FL, 32808",631836489,"L"
180311,"3422 SPYGLASS RIDGE","HAMILTON","OH",45013,39.343752985,-84.678252695,311,"3422 SPYGLASS RIDGE, HAMILTON, OH, 45013","Match","Exact","3422 SPYGLASS RIDGE, HAMILTON, OH, 45013",113814630,"L"
180312,"3422 STERNE ST","SAN DIEGO","CA",92106,32.73547324,-117.226595679,312,"3422 STERNE ST, SAN DIEGO, CA, 92106","Match","Exact","3422 STERNE ST, SAN DIEGO, CA, 92106",651674253,"R"
180313,"3422 SW 15 SUITE 9097","DEERFIELD BEACH","FL",33442,NA,NA,313,"3422 SW 15 SUITE 9097, DEERFIELD BEACH, FL, 33442","No_Match",NA,NA,NA,NA
180314,"3422 TURNOUT WAY","PERRIS","CA",92571,33.83471081,-117.193866576,314,"3422 TURNOUT WAY, PERRIS, CA, 92571","Match","Exact","3422 TURNOUT WAY, PERRIS, CA, 92571",636790308,"L"
180315,"3422 WOODHAVEN DR","SOMERSET","KY",42503,37.1399968160001,-84.5660010719999,315,"3422 WOODHAVEN DR, SOMERSET, KY, 42503","Match","Exact","3422 WOODHAVEN DR, SOMERSET, KY, 42503",39090902,"R"
180316,"3422 WOODVINE CIR","BOSSIER CITY","LA",71037,32.5766476110001,-93.617967211,316,"3422 WOODVINE CIR, BOSSIER CITY, LA, 71037","Match","Non_Exact","3422 WOODVINE CIR, HAUGHTON, LA, 71037",108533452,"L"
180317,"34224 S FINLEY PT RD","POLSON","MT",59860,NA,NA,317,"34224 S FINLEY PT RD, POLSON, MT, 59860","Tie",NA,NA,NA,NA
180318,"3423 BRADFORD STE B","HOUSTON","TX",77025,29.705134076,-95.429710445,318,"3423 BRADFORD STE B, HOUSTON, TX, 77025","Match","Non_Exact","3423 BRADFORD ST, HOUSTON, TX, 77025",96063573,"L"
180319,"3423 CHIMNEY ROCK ROAD","LAS CRUCES","NM",88011,32.3158150250001,-106.731912061,319,"3423 CHIMNEY ROCK ROAD, LAS CRUCES, NM, 88011","Match","Exact","3423 CHIMNEY ROCK RD, LAS CRUCES, NM, 88011",645327431,"R"
180320,"3423 COACH DR","HIXSON","TN",37343,35.1364355900001,-85.2120858489999,320,"3423 COACH DR, HIXSON, TN, 37343","Match","Exact","3423 COACH DR, HIXSON, TN, 37343",635771569,"L"
180321,"3423 E SILVER SPRINGS BLVD SUITE 7","OCALA","FL",34470,29.195107082,-82.090846039,321,"3423 E SILVER SPRINGS BLVD SUITE 7, OCALA, FL, 34470","Match","Non_Exact","3423 E SILVER SPRINGS BLVD, OCALA, FL, 34470",116728645,"L"
180322,"3423 GARDEN GROVE DRIVE","INDIANAPOLIS","IN",46214,39.8162875960001,-86.2939266179999,322,"3423 GARDEN GROVE DRIVE, INDIANAPOLIS, IN, 46214","Match","Exact","3423 GARDEN GROVE DR, INDIANAPOLIS, IN, 46214",108027585,"R"
180323,"3423 GILMER COURT SUITE 1","MONTGOMERY","AL",36105,32.3436306350001,-86.302190916,323,"3423 GILMER COURT SUITE 1, MONTGOMERY, AL, 36105","Match","Exact","3423 GILMER CT, MONTGOMERY, AL, 36105",1475162,"L"
180324,"3423 GREEN ASPEN LANE","HOUSTON","TX",77047,29.60480835,-95.3691871519999,324,"3423 GREEN ASPEN LANE, HOUSTON, TX, 77047","Match","Exact","3423 GREEN ASPEN LN, HOUSTON, TX, 77047",624603140,"L"
180325,"3423 INDEPENDENCE AVENUE","SOUTH GATE","CA",90280,33.957872238,-118.207498978,325,"3423 INDEPENDENCE AVENUE, SOUTH GATE, CA, 90280","Match","Exact","3423 INDEPENDENCE AVE, SOUTH GATE, CA, 90280",141676320,"L"
180326,"3423 MARYLEA CT","WALDORF","MD",20603,38.6145044310001,-76.999471995,326,"3423 MARYLEA CT, WALDORF, MD, 20603","Match","Exact","3423 MARYLEA CT, WALDORF, MD, 20603",636750501,"R"
180327,"3423 NE SISKIYOU ST","PORTLAND","OR",97212,45.5460228970001,-122.629164609,327,"3423 NE SISKIYOU ST, PORTLAND, OR, 97212","Match","Exact","3423 NE SISKIYOU ST, PORTLAND, OR, 97212",157506502,"L"
180328,"3423 OVERO COURT","NORTH LAS VEGAS","NV",89032,36.2212464990001,-115.199050312,328,"3423 OVERO COURT, NORTH LAS VEGAS, NV, 89032","Match","Exact","3423 OVERO CT, N LAS VEGAS, NV, 89032",201973188,"L"
180329,"3423 S 87TH STREET","MILWAUKEE","WI",53227,42.9823046000001,-88.0214029059999,329,"3423 S 87TH STREET, MILWAUKEE, WI, 53227","Match","Exact","3423 S 87TH ST, MILWAUKEE, WI, 53227",77746006,"R"
180330,"3423 S DREXEL AVE","TAMPA","FL",33629,27.9122360590001,-82.4968322409999,330,"3423 S DREXEL AVE, TAMPA, FL, 33629","Match","Exact","3423 S DREXEL AVE, TAMPA, FL, 33629",104605884,"R"
180331,"3423 S SONCY SUITE 300","AMARILLO","TX",79119,35.176034126,-101.93812581,331,"3423 S SONCY SUITE 300, AMARILLO, TX, 79119","Match","Non_Exact","3423 SONCY RD, AMARILLO, TX, 79119",641816640,"L"
180332,"3423 SE CARUTHERS ST","PORTLAND","OR",97214,45.5054320850001,-122.629324504,332,"3423 SE CARUTHERS ST, PORTLAND, OR, 97214","Match","Exact","3423 SE CARUTHERS ST, PORTLAND, OR, 97214",157509913,"L"
180333,"3423 SILVIEUS","ASHTABULA","OH",44004,41.8749193530001,-80.7583842879999,333,"3423 SILVIEUS, ASHTABULA, OH, 44004","Match","Non_Exact","3423 SILVIEUS DR, ASHTABULA, OH, 44004",117314693,"L"
180334,"3423 SOUTH OSWEGO AVENUE","TULSA","OK",74135,36.1140162780001,-95.9317597739999,334,"3423 SOUTH OSWEGO AVENUE, TULSA, OK, 74135","Match","Exact","3423 S OSWEGO AVE, TULSA, OK, 74135",166449969,"L"
180335,"3423 SPRING ROAD","OAK BROOK","IL",60523,41.825856146,-87.937811338,335,"3423 SPRING ROAD, OAK BROOK, IL, 60523","Match","Exact","3423 SPRING RD, OAK BROOK, IL, 60523",112573386,"L"
180336,"3423 SUNNYSIDE AVE","ROCKFORD","IL",61101,42.2947390950001,-89.111787681,336,"3423 SUNNYSIDE AVE, ROCKFORD, IL, 61101","Match","Exact","3423 SUNNYSIDE AVE, ROCKFORD, IL, 61101",49250733,"R"
180337,"3423 TISDALL DRIVE","WHITES CREEK","TN",37189,36.238525317,-86.807638674,337,"3423 TISDALL DRIVE, WHITES CREEK, TN, 37189","Match","Exact","3423 TISDALL DR, WHITES CREEK, TN, 37189",97206847,"L"
180338,"3423 TOP FLITE LN","MASON","OH",45040,39.3905433410001,-84.322351123,338,"3423 TOP FLITE LN, MASON, OH, 45040","Match","Exact","3423 TOP FLITE LN, MASON, OH, 45040",159052190,"R"
180339,"3423 VIA ARNEZ","LOMPOC","CA",93436,34.688895615,-120.436701073,339,"3423 VIA ARNEZ, LOMPOC, CA, 93436","Match","Exact","3423 VIA ARNEZ, LOMPOC, CA, 93436",108599352,"L"
180340,"3423 VOYAGER CIRCLE","SAN DIEGO","CA",92130,32.9524636630001,-117.241172171,340,"3423 VOYAGER CIRCLE, SAN DIEGO, CA, 92130","Match","Exact","3423 VOYAGER CIR, SAN DIEGO, CA, 92130",637361151,"R"
180341,"3423 W PURDUE AVE","PHEONIX","AZ",85051,33.5738550950001,-112.132777253,341,"3423 W PURDUE AVE, PHEONIX, AZ, 85051","Match","Non_Exact","3423 W PURDUE AVE, PHOENIX, AZ, 85051",128197034,"L"
180342,"342341","BARTLETT","TN",38184,NA,NA,342,"342341, BARTLETT, TN, 38184","No_Match",NA,NA,NA,NA
180343,"34237 OVERTON RD","MELROSE","MN",56352,45.6171993020001,-94.8301671629999,343,"34237 OVERTON RD, MELROSE, MN, 56352","Match","Exact","34237 OVERTON RD, MELROSE, MN, 56352",611977297,"L"
180344,"34238 ARIZONA","UNION CITY","CA",94587,37.587296994,-122.029528975,344,"34238 ARIZONA, UNION CITY, CA, 94587","Match","Non_Exact","34238 ARIZONA ST, UNION CITY, CA, 94587",125025835,"L"
180345,"3424 71ST STREET","JACKSON HEIGHTS","NY",11372,NA,NA,345,"3424 71ST STREET, JACKSON HEIGHTS, NY, 11372","No_Match",NA,NA,NA,NA
180346,"3424 ARIZONA STREET","OAKLAND","CA",94603,37.796496877,-122.197192005,346,"3424 ARIZONA STREET, OAKLAND, CA, 94603","Match","Non_Exact","3424 ARIZONA ST, OAKLAND, CA, 94602",606232299,"L"
180347,"3424 ASHLEY VIEW DRIVE","CHARLOTTE","NC",28213,35.3006782510001,-80.6920460589999,347,"3424 ASHLEY VIEW DRIVE, CHARLOTTE, NC, 28213","Match","Exact","3424 ASHLEY VIEW DR, CHARLOTTE, NC, 28213",618153195,"R"
180348,"3424 CHARLESTON PLACE CT","VALLEY PARK","MO",63088,38.5636261550001,-90.484361243,348,"3424 CHARLESTON PLACE CT, VALLEY PARK, MO, 63088","Match","Exact","3424 CHARLESTON PLACE CT, VALLEY PARK, MO, 63088",100186211,"L"
180349,"3424 COVINGTON OAKS DRIVE","CHARLOTTE","NC",28205,35.2188911810001,-80.785256616,349,"3424 COVINGTON OAKS DRIVE, CHARLOTTE, NC, 28205","Match","Exact","3424 COVINGTON OAKS DR, CHARLOTTE, NC, 28205",70535018,"R"
180350,"3424 E 1ST STREET","LONG BEACH","CA",90803,33.7622292390001,-118.151933048,350,"3424 E 1ST STREET, LONG BEACH, CA, 90803","Match","Exact","3424 E 1ST ST, LONG BEACH, CA, 90803",141701986,"R"
180351,"3424 EAGLES ROOST ROAD","RICHMOND","VA",23223,37.5740000330001,-77.373866656,351,"3424 EAGLES ROOST ROAD, RICHMOND, VA, 23223","Match","Exact","3424 EAGLES ROOST RD, RICHMOND, VA, 23223",637686152,"L"
180352,"3424 FOWLER ST","FORT MYERS","FL",33901,26.615127154,-81.8619302389999,352,"3424 FOWLER ST, FORT MYERS, FL, 33901","Match","Exact","3424 FOWLER ST, FORT MYERS, FL, 33901",118026517,"R"
180353,"3424 GRANT AVE","INDIANAPOLIS","IN",46218,39.8187324670001,-86.099050403,353,"3424 GRANT AVE, INDIANAPOLIS, IN, 46218","Match","Non_Exact","3424 N GRANT AVE, INDIANAPOLIS, IN, 46218",107998591,"L"
180354,"3424 INDEPENDENCE AVE N","NEW HOPE","MN",55427,45.018591175,-93.3996680399999,354,"3424 INDEPENDENCE AVE N, NEW HOPE, MN, 55427","Match","Exact","3424 INDEPENDENCE AVE N, NEW HOPE, MN, 55427",43609025,"R"
180355,"3424 JUDGE DUPREE","DALLAS","TX",75241,32.664250908,-96.76654288,355,"3424 JUDGE DUPREE, DALLAS, TX, 75241","Match","Non_Exact","3424 JUDGE DUPREE DR, DALLAS, TX, 75241",102959111,"R"
180356,"3424 KEITHSHIRE WAY","LEXINGTON","KY",40503,37.9933246790001,-84.555801129,356,"3424 KEITHSHIRE WAY, LEXINGTON, KY, 40503","Match","Exact","3424 KEITHSHIRE WAY, LEXINGTON, KY, 40503",31920162,"L"
180357,"3424 MURCIA COURT","FORT MYERS","FL",33905,NA,NA,357,"3424 MURCIA COURT, FORT MYERS, FL, 33905","No_Match",NA,NA,NA,NA
180358,"3424 N STREET SOUTHEAST","WASHINGTON","DC",20019,38.874607801,-76.9563165929999,358,"3424 N STREET SOUTHEAST, WASHINGTON, DC, 20019","Match","Exact","3424 N ST SE, WASHINGTON, DC, 20019",76232012,"L"
180359,"3424 NORTH 56 STREET","MILWAUKEE","WI",53216,43.0813305880001,-87.983285596,359,"3424 NORTH 56 STREET, MILWAUKEE, WI, 53216","Match","Exact","3424 N 56TH ST, MILWAUKEE, WI, 53216",77731738,"R"
180360,"3424 ROLSTON ROAD","FENTON","MI",48430,42.83148737,-83.740511268,360,"3424 ROLSTON ROAD, FENTON, MI, 48430","Match","Non_Exact","3424 E ROLSTON RD, FENTON, MI, 48430",69579205,"L"
180361,"3424 S MAIN ST","SALT LAKE CITY","UT",84115,40.6972078650001,-111.891138099,361,"3424 S MAIN ST, SALT LAKE CITY, UT, 84115","Match","Exact","3424 S MAIN ST, SALT LAKE CITY, UT, 84115",623893147,"R"
180362,"3424 S WHIP POOR WILL LN","APPLETON","WI",54915,44.229148035,-88.388987302,362,"3424 S WHIP POOR WILL LN, APPLETON, WI, 54915","Match","Non_Exact","3424 S WHIP-POOR-WILL LN, APPLETON, WI, 54915",74804997,"R"
180363,"3424 SNOWBELL CT","ORLANDO","FL",32810,28.6262231270001,-81.421849681,363,"3424 SNOWBELL CT, ORLANDO, FL, 32810","Match","Exact","3424 SNOWBELL CT, ORLANDO, FL, 32810",94269406,"R"
180364,"3424 SOUTH 97TH DRIVE","TOLLESON","AZ",85353,33.4150409370001,-112.26869177,364,"3424 SOUTH 97TH DRIVE, TOLLESON, AZ, 85353","Match","Exact","3424 S 97TH DR, TOLLESON, AZ, 85353",243959055,"L"
180365,"3424 SOUTHRIDGE BLVD","MURFREESBORO","TN",37128,35.802480583,-86.422278987,365,"3424 SOUTHRIDGE BLVD, MURFREESBORO, TN, 37128","Match","Exact","3424 SOUTHRIDGE BLVD, MURFREESBORO, TN, 37128",59043965,"L"
180366,"3424 SPAIN STREET","NEW ORLEANS","LA",70122,29.9933798330001,-90.0552286069999,366,"3424 SPAIN STREET, NEW ORLEANS, LA, 70122","Match","Exact","3424 SPAIN ST, NEW ORLEANS, LA, 70122",191715261,"L"
180367,"3424 SUMMERCOURT DR","JONESBORO","GA",30236,33.5647473120001,-84.377593043,367,"3424 SUMMERCOURT DR, JONESBORO, GA, 30236","Match","Exact","3424 SUMMERCOURT DR, JONESBORO, GA, 30236",648399006,"L"
180368,"3424 TERAVISTA WAY","RALEIGH","NC",27616,35.9004621920001,-78.520326382,368,"3424 TERAVISTA WAY, RALEIGH, NC, 27616","Match","Exact","3424 TERAVISTA WAY, RALEIGH, NC, 27616",646965602,"R"
180369,"3424 W COLLEGE AVE","MILWAUKEE","WI",53221,42.930397219,-87.958169238,369,"3424 W COLLEGE AVE, MILWAUKEE, WI, 53221","Match","Exact","3424 W COLLEGE AVE, MILWAUKEE, WI, 53221",653037926,"R"
180370,"3424 WILSHIRE  BOULEVARD 5TH FLOOR","LOS ANGELES","CA",90010,34.061751369,-118.298551392,370,"3424 WILSHIRE  BOULEVARD 5TH FLOOR, LOS ANGELES, CA, 90010","Match","Exact","3424 WILSHIRE BLVD, LOS ANGELES, CA, 90010",141603917,"L"
180371,"34245 S MUD SPRINGS RD","BLACK CANYON CITY","AZ",85324,34.0677008440001,-112.135703066,371,"34245 S MUD SPRINGS RD, BLACK CANYON CITY, AZ, 85324","Match","Exact","34245 MUD SPRINGS RD, BLACK CANYON CITY, AZ, 85324",616279648,"R"
180372,"342457","MEMPHIS","TN",38184,NA,NA,372,"342457, MEMPHIS, TN, 38184","No_Match",NA,NA,NA,NA
180373,"34248 250TH AVE","OGEMA","MN",56569,47.067879604,-95.869537942,373,"34248 250TH AVE, OGEMA, MN, 56569","Match","Exact","34248 250TH AVE, OGEMA, MN, 56569",167947687,"L"
180374,"3425 118TH","LUBBOCK","TX",79423,33.487238029,-101.891886238,374,"3425 118TH, LUBBOCK, TX, 79423","Match","Non_Exact","3425 118TH ST, LUBBOCK, TX, 79423",643089578,"R"
180375,"3425 159TH DRIVE SE","SNOHOMISH","WA",98290,47.964534084,-122.015592044,375,"3425 159TH DRIVE SE, SNOHOMISH, WA, 98290","Match","Exact","3425 159TH DR SE, SNOHOMISH, WA, 98290",187778024,"R"
180376,"3425 ALHAMBRA CIRCLE","CORAL GABLES","FL",33134,25.739223968,-80.28452079,376,"3425 ALHAMBRA CIRCLE, CORAL GABLES, FL, 33134","Match","Exact","3425 ALHAMBRA CIR, CORAL GABLES, FL, 33134",116283814,"L"
180377,"3425 AUSTIN PEAY HWY","MEMPHIS","TN",38128,35.2189458450001,-89.911370139,377,"3425 AUSTIN PEAY HWY, MEMPHIS, TN, 38128","Match","Exact","3425 AUSTIN PEAY HWY, MEMPHIS, TN, 38128",607399838,"L"
180378,"3425 BANNERMAN ROAD - 164","TALLAHASSEE","FL",32312,30.566148438,-84.222191977,378,"3425 BANNERMAN ROAD - 164, TALLAHASSEE, FL, 32312","Match","Exact","3425 BANNERMAN RD, TALLAHASSEE, FL, 32312",82846316,"R"
180379,"3425 BANNERMAN ROAD SUITE 106","TALLAHASSEE","FL",32312,30.566148438,-84.222191977,379,"3425 BANNERMAN ROAD SUITE 106, TALLAHASSEE, FL, 32312","Match","Exact","3425 BANNERMAN RD, TALLAHASSEE, FL, 32312",82846316,"R"
180380,"3425 BANNERMAN ROAD UNIT 105","TALLAHASSEE","FL",32312,30.566148438,-84.222191977,380,"3425 BANNERMAN ROAD UNIT 105, TALLAHASSEE, FL, 32312","Match","Exact","3425 BANNERMAN RD, TALLAHASSEE, FL, 32312",82846316,"R"
180381,"3425 BRAES MEADOW CT","GRAND PRAIRIE","TX",75052,32.6869039040001,-97.0552765039999,381,"3425 BRAES MEADOW CT, GRAND PRAIRIE, TX, 75052","Match","Exact","3425 BRAES MEADOW CT, GRAND PRAIRIE, TX, 75052",101952042,"L"
180382,"3425 BRIGHTON DRIVE","MIDLOTHIAN","TX",76065,32.446231348,-96.993735939,382,"3425 BRIGHTON DRIVE, MIDLOTHIAN, TX, 76065","Match","Exact","3425 BRIGHTON DR, MIDLOTHIAN, TX, 76065",648669024,"R"
180383,"3425 CARRIAGE HILL CIRCLE 204","RANDALLSTOWN","MD",21133,39.368416476,-76.811504456,383,"3425 CARRIAGE HILL CIRCLE 204, RANDALLSTOWN, MD, 21133","Match","Exact","3425 CARRIAGE HILL CIR, RANDALLSTOWN, MD, 21133",191463408,"R"
180384,"3425 CHRISTENSEN RD","CHEYENNE","WY",82009,41.147630538,-104.713287544,384,"3425 CHRISTENSEN RD, CHEYENNE, WY, 82009","Match","Exact","3425 CHRISTENSEN RD, CHEYENNE, WY, 82009",653266701,"R"
180385,"3425 CLIFF SHADOWS PARKWAY 250","LAS VEGAS","NV",89129,36.220763596,-115.330979291,385,"3425 CLIFF SHADOWS PARKWAY 250, LAS VEGAS, NV, 89129","Match","Exact","3425 CLIFF SHADOWS PKWY, LAS VEGAS, NV, 89129",650982299,"L"
180386,"3425 DEERLOPE TRL","WILLIAMSBURG","VA",23188,37.256334263,-76.7702151509999,386,"3425 DEERLOPE TRL, WILLIAMSBURG, VA, 23188","Match","Exact","3425 DEERLOPE TRL, WILLIAMSBURG, VA, 23188",103770319,"L"
180387,"3425 E EQUESTRIAN TR","PHOENIX","AZ",85044,33.335979466,-112.00878291,387,"3425 E EQUESTRIAN TR, PHOENIX, AZ, 85044","Match","Exact","3425 E EQUESTRIAN TRL, PHOENIX, AZ, 85044",128235674,"L"
180388,"3425 EDENBORN AVE APT 147","METAIRIE","LA",70002,30.011740263,-90.1617723809999,388,"3425 EDENBORN AVE APT 147, METAIRIE, LA, 70002","Match","Exact","3425 EDENBORN AVE, METAIRIE, LA, 70002",93537729,"R"
180389,"3425 EMERALD ISLE DR","GLENDALE","CA",91206,34.1791037630001,-118.201987687,389,"3425 EMERALD ISLE DR, GLENDALE, CA, 91206","Match","Exact","3425 EMERALD ISLE DR, GLENDALE, CA, 91206",141612446,"L"
180390,"3425 FOLTZ ST","INDIANAPOLIS","IN",46221,39.7116152850001,-86.229718082,390,"3425 FOLTZ ST, INDIANAPOLIS, IN, 46221","Match","Exact","3425 FOLTZ ST, INDIANAPOLIS, IN, 46221",108005246,"L"
180391,"3425 GLEN CREEK RD NW","SALEM","OR",97304,44.9512572610001,-123.099520793,391,"3425 GLEN CREEK RD NW, SALEM, OR, 97304","Match","Exact","3425 GLEN CREEK RD NW, SALEM, OR, 97304",636575101,"R"
180392,"3425 GLENWOOD RIDGE DRIVE","RICHMOND","VA",23223,37.5595967680001,-77.3860707489999,392,"3425 GLENWOOD RIDGE DRIVE, RICHMOND, VA, 23223","Match","Exact","3425 GLENWOOD RIDGE DR, RICHMOND, VA, 23223",106671854,"L"
180393,"3425 HACIENDA DR","DALLAS","TX",75233,32.702879469,-96.888214008,393,"3425 HACIENDA DR, DALLAS, TX, 75233","Match","Exact","3425 HACIENDA DR, DALLAS, TX, 75233",102941093,"R"
180394,"3425 HAMILTON AVE","FORT WORTH","TX",76107,32.7548349570001,-97.3671484019999,394,"3425 HAMILTON AVE, FORT WORTH, TX, 76107","Match","Exact","3425 HAMILTON AVE, FORT WORTH, TX, 76107",101883718,"L"
180395,"3425 HIGHTIMBER DRIVE","GRAPEVINE","TX",76051,32.901316507,-97.118270974,395,"3425 HIGHTIMBER DRIVE, GRAPEVINE, TX, 76051","Match","Exact","3425 HIGHTIMBER DR, GRAPEVINE, TX, 76051",102092381,"L"
180396,"3425 KNOX PLACE 4H","BRONX","NY",10467,40.8817977320001,-73.883661946,396,"3425 KNOX PLACE 4H, BRONX, NY, 10467","Match","Exact","3425 KNOX PL, BRONX, NY, 10467",80296696,"L"
180397,"3425 LEXINGTON ROAD","LOUISVILLE","KY",40207,38.2499632920001,-85.665894252,397,"3425 LEXINGTON ROAD, LOUISVILLE, KY, 40207","Match","Exact","3425 LEXINGTON RD, LOUISVILLE, KY, 40207",96852424,"L"
180398,"3425 LOCKWOOD DRIVE","SAN DIEGO","CA",92123,32.805756816,-117.124786309,398,"3425 LOCKWOOD DRIVE, SAN DIEGO, CA, 92123","Match","Exact","3425 LOCKWOOD DR, SAN DIEGO, CA, 92123",195321344,"R"
180399,"3425 LONDON HOLLOW ROAD","NEWARK","OH",43055,40.106791478,-82.327722038,399,"3425 LONDON HOLLOW ROAD, NEWARK, OH, 43055","Match","Non_Exact","3425 LONDON HOLLOW RD NE, NEWARK, OH, 43055",61545913,"L"
180400,"3425 LORD BYRON DRVIE","BETHLEHEM","PA",18017,40.658852944,-75.4087632659999,400,"3425 LORD BYRON DRVIE, BETHLEHEM, PA, 18017","Match","Non_Exact","3425 LORD BYRON DR, BETHLEHEM, PA, 18017",136875595,"L"
180401,"3425 MISSION DR","SANTA CRUZ","CA",95065,36.992279081,-121.979856982,401,"3425 MISSION DR, SANTA CRUZ, CA, 95065","Match","Exact","3425 MISSION DR, SANTA CRUZ, CA, 95065",606003760,"L"
180402,"3425 N 14TH PL","PHOENIX","AZ",85014,33.48795664,-112.050331755,402,"3425 N 14TH PL, PHOENIX, AZ, 85014","Match","Exact","3425 N 14TH PL, PHOENIX, AZ, 85014",128209714,"R"
180403,"3425 N PRTAGE PL APT C","DECATUR","IL",62526,NA,NA,403,"3425 N PRTAGE PL APT C, DECATUR, IL, 62526","No_Match",NA,NA,NA,NA
180404,"3425 NATURE TRAIL COURT","PERRIS","CA",92571,33.834461823,-117.196800787,404,"3425 NATURE TRAIL COURT, PERRIS, CA, 92571","Match","Exact","3425 NATURE TRAIL CT, PERRIS, CA, 92571",195090108,"R"
180405,"3425 NE 33RD COURT","SPENCER","OK",73084,35.502838544,-97.3777765729999,405,"3425 NE 33RD COURT, SPENCER, OK, 73084","Match","Exact","3425 NE 33RD CT, SPENCER, OK, 73084",100415728,"L"
180406,"3425 OLD STATE ROAD 37 N","BEDFORD","IN",47421,NA,NA,406,"3425 OLD STATE ROAD 37 N, BEDFORD, IN, 47421","No_Match",NA,NA,NA,NA
180407,"3425 PALOS VERDES DRIVE NORTH","PALOS VERDES ESTATES","CA",90274,33.8025323160001,-118.37168804,407,"3425 PALOS VERDES DRIVE NORTH, PALOS VERDES ESTATES, CA, 90274","Match","Exact","3425 PALOS VERDES DR N, PALOS VERDES ESTATES, CA, 90274",141665231,"L"
180408,"3425 PEMBROOK FARM CT SW","SNELLVILLE","GA",30039,33.7797672030001,-84.003464132,408,"3425 PEMBROOK FARM CT SW, SNELLVILLE, GA, 30039","Match","Exact","3425 PEMBROOK FARM CT SW, SNELLVILLE, GA, 30039",636186272,"R"
180409,"3425 S 176TH ST UNIT 215","SEATAC","WA",98188,47.445229499,-122.288412978,409,"3425 S 176TH ST UNIT 215, SEATAC, WA, 98188","Match","Non_Exact","3425 S 176TH ST, SEATAC, WA, 98188",187005776,"R"
180410,"3425 S CLARKSON STREET","ENGLEWOOD","CO",80013,39.654440585,-104.978252662,410,"3425 S CLARKSON STREET, ENGLEWOOD, CO, 80013","Match","Non_Exact","3425 S CLARKSON ST, ENGLEWOOD, CO, 80113",177333971,"R"
180411,"3425 SAINT VINCENT ST","PHILADELPHIA","PA",19149,40.036614748,-75.04509687,411,"3425 SAINT VINCENT ST, PHILADELPHIA, PA, 19149","Match","Exact","3425 SAINT VINCENT ST, PHILADELPHIA, PA, 19149",131435261,"L"
180412,"3425 SPUR ROAD","GREYBULL","WY",82426,44.4969190620001,-108.040285427,412,"3425 SPUR ROAD, GREYBULL, WY, 82426","Match","Exact","3425 SPUR RD, GREYBULL, WY, 82426",605619500,"R"
180413,"3425 SUMTER AVE S","ST LOUIS PARK","MN",55426,44.9417528640001,-93.379565482,413,"3425 SUMTER AVE S, ST LOUIS PARK, MN, 55426","Match","Exact","3425 SUMTER AVE S, SAINT LOUIS PARK, MN, 55426",43624897,"L"
180414,"3425 SW RIVERA ST","PORT SAINT LUCIE","FL",34953,27.241743453,-80.371653565,414,"3425 SW RIVERA ST, PORT SAINT LUCIE, FL, 34953","Match","Exact","3425 SW RIVERA ST, PORT ST LUCIE, FL, 34953",120152619,"R"
180415,"3425 ULLOA STREET","SAN FRANCISCO","CA",94116,37.740409174,-122.493008608,415,"3425 ULLOA STREET, SAN FRANCISCO, CA, 94116","Match","Exact","3425 ULLOA ST, SAN FRANCISCO, CA, 94116",192277952,"L"
180416,"3425 VIERA BLVD","VIERA","FL",32940,NA,NA,416,"3425 VIERA BLVD, VIERA, FL, 32940","No_Match",NA,NA,NA,NA
180417,"3425 W DUBLIN ST","EAGLE","ID",83616,43.6678662940001,-116.396344333,417,"3425 W DUBLIN ST, EAGLE, ID, 83616","Match","Exact","3425 W DUBLIN ST, EAGLE, ID, 83616",641543879,"R"
180418,"3425 WEST MANCHESTER BLVD SUITE 200","INGLEWOOD","CA",90305,33.960054626,-118.33447491,418,"3425 WEST MANCHESTER BLVD SUITE 200, INGLEWOOD, CA, 90305","Match","Exact","3425 W MANCHESTER BLVD, INGLEWOOD, CA, 90305",241109668,"R"
180419,"34257 KALANCHOE ROAD","LAKE ELSINORE","CA",92532,33.6644221970001,-117.234772415,419,"34257 KALANCHOE ROAD, LAKE ELSINORE, CA, 92532","Match","Exact","34257 KALANCHOE RD, LAKE ELSINORE, CA, 92532",646200481,"L"
180420,"3426 ALMAR KNOT DR","MURFREESBORO","TN",37128,35.850559694,-86.458548948,420,"3426 ALMAR KNOT DR, MURFREESBORO, TN, 37128","Match","Exact","3426 ALMAR KNOT DR, MURFREESBORO, TN, 37128",606779795,"R"
180421,"3426 BAHIA BLANCA WEST UNIT N","LAGUNA WOODS","CA",92637,33.6105098370001,-117.753525326,421,"3426 BAHIA BLANCA WEST UNIT N, LAGUNA WOODS, CA, 92637","Match","Exact","3426 BAHIA BLANCA W, LAGUNA WOODS, CA, 92637",649789571,"L"
180422,"3426 CONSTITUTION DR","TITUSVILLE","FL",32780,28.577975193,-80.834564609,422,"3426 CONSTITUTION DR, TITUSVILLE, FL, 32780","Match","Exact","3426 CONSTITUTION DR, TITUSVILLE, FL, 32780",93890894,"R"
180423,"3426 COVEY TRAIL DR","MISSOURI CITY","TX",77459,29.5760055850001,-95.55972554,423,"3426 COVEY TRAIL DR, MISSOURI CITY, TX, 77459","Match","Exact","3426 COVEY TRAIL DR, MISSOURI CITY, TX, 77459",78269329,"L"
180424,"3426 CROMWELL TRAIL","ROSEMOUNT","MN",55068,44.750583858,-93.135115263,424,"3426 CROMWELL TRAIL, ROSEMOUNT, MN, 55068","Match","Exact","3426 CROMWELL TRL, ROSEMOUNT, MN, 55068",624593528,"R"
180425,"3426 E ROCKWOOD DR","PHOENIX","AZ",85050,33.6566719310001,-112.008846423,425,"3426 E ROCKWOOD DR, PHOENIX, AZ, 85050","Match","Exact","3426 E ROCKWOOD DR, PHOENIX, AZ, 85050",128592777,"R"
180426,"3426 FAIRESTA STREET","LA CRESCENTA","CA",91214,34.234841972,-118.253567852,426,"3426 FAIRESTA STREET, LA CRESCENTA, CA, 91214","Match","Exact","3426 FAIRESTA ST, LA CRESCENTA, CA, 91214",141589186,"L"
180427,"3426 GREEN DR","AKRON","OH",44333,41.1411598830001,-81.634055039,427,"3426 GREEN DR, AKRON, OH, 44333","Match","Exact","3426 GREEN DR, AKRON, OH, 44333",61362077,"L"
180428,"3426 MAUREEN DR","SACRAMENTO","CA",95821,38.6278648320001,-121.381068149,428,"3426 MAUREEN DR, SACRAMENTO, CA, 95821","Match","Exact","3426 MAUREEN DR, SACRAMENTO, CA, 95821",133333329,"R"
180429,"3426 MCCURLEY DRIVE","ABINGDON","MD",21009,39.4652641210001,-76.3016079349999,429,"3426 MCCURLEY DRIVE, ABINGDON, MD, 21009","Match","Exact","3426 MCCURLEY DR, ABINGDON, MD, 21009",650917784,"L"
180430,"3426 NW 14 CT","LAUDERHILL","FL",33311,26.143683088,-80.195430727,430,"3426 NW 14 CT, LAUDERHILL, FL, 33311","Match","Exact","3426 NW 14TH CT, LAUDERHILL, FL, 33311",633859498,"L"
180431,"3426 OLD GALLATIN ROAD","SCOTTSVILLE","KY",42164,36.718109821,-86.224536299,431,"3426 OLD GALLATIN ROAD, SCOTTSVILLE, KY, 42164","Match","Exact","3426 OLD GALLATIN RD, SCOTTSVILLE, KY, 42164",29393350,"R"
180432,"3426 OLD OAK PARK DRIVE","SAN ANTONIO","TX",78247,29.5680611270001,-98.428273996,432,"3426 OLD OAK PARK DRIVE, SAN ANTONIO, TX, 78247","Match","Non_Exact","3426 OLDOAK PARK DR, SAN ANTONIO, TX, 78247",101567931,"L"
180433,"3426 OTTAWA ST","BUTTE","MT",59701,45.9892681900001,-112.484427698,433,"3426 OTTAWA ST, BUTTE, MT, 59701","Match","Exact","3426 OTTAWA ST, BUTTE, MT, 59701",640933531,"R"
180434,"3426 OXFORD ROAD","CAMERON PARK","CA",95682,38.677724003,-120.979706141,434,"3426 OXFORD ROAD, CAMERON PARK, CA, 95682","Match","Exact","3426 OXFORD RD, CAMERON PARK, CA, 95682",133024089,"R"
180435,"3426 PAKUI STREET APT A","HONOLULU","HI",96816,21.290813542,-157.798800008,435,"3426 PAKUI STREET APT A, HONOLULU, HI, 96816","Match","Exact","3426 PAKUI ST, HONOLULU, HI, 96816",203242482,"L"
180436,"3426 SHEPPERTON BLVD","INDIANAPOLIS","IN",46228,39.8257857290001,-86.218125664,436,"3426 SHEPPERTON BLVD, INDIANAPOLIS, IN, 46228","Match","Exact","3426 SHEPPERTON BLVD, INDIANAPOLIS, IN, 46228",609298445,"R"
180437,"3426 SHORESIDE DRIVE","GARLAND","TX",75043,32.860051243,-96.575835287,437,"3426 SHORESIDE DRIVE, GARLAND, TX, 75043","Match","Exact","3426 SHORESIDE DR, GARLAND, TX, 75043",103239928,"R"
180438,"3426 SMITH HILL RD","SLATINGTON","PA",18080,40.7357656500001,-75.629663162,438,"3426 SMITH HILL RD, SLATINGTON, PA, 18080","Match","Exact","3426 SMITH HILL RD, SLATINGTON, PA, 18080",629177786,"L"
180439,"3426 SOUTHWEST 24TH STREET","MIAMI","FL",33145,25.746297917,-80.24987186,439,"3426 SOUTHWEST 24TH STREET, MIAMI, FL, 33145","Match","Exact","3426 SW 24TH ST, MIAMI, FL, 33145",116266001,"L"
180440,"3426 W HWY 80","MINEOLA","TX",75773,32.677016515,-95.544528608,440,"3426 W HWY 80, MINEOLA, TX, 75773","Match","Non_Exact","3426 US HWY 80, MINEOLA, TX, 75773",636450703,"L"
180441,"3426 WELLINGTON AVE","INDIANAPOLIS","IN",46226,39.8197711770001,-86.0299922579999,441,"3426 WELLINGTON AVE, INDIANAPOLIS, IN, 46226","Match","Exact","3426 WELLINGTON AVE, INDIANAPOLIS, IN, 46226",108002670,"L"
180442,"3426 WEST 2ND STREET","DAYTON","OH",45417,39.754019553,-84.2472728339999,442,"3426 WEST 2ND STREET, DAYTON, OH, 45417","Match","Exact","3426 W 2ND ST, DAYTON, OH, 45417",143567357,"L"
180443,"3426 WHITE STALLION CT","N LAS VEGAS","NV",89032,36.221276479,-115.202590755,443,"3426 WHITE STALLION CT, N LAS VEGAS, NV, 89032","Match","Exact","3426 WHITE STALLION CT, N LAS VEGAS, NV, 89032",201930211,"R"
180444,"3426 WILMINGTON DRIVE","MACON","GA",31204,32.8257110600001,-83.691706997,444,"3426 WILMINGTON DRIVE, MACON, GA, 31204","Match","Exact","3426 WILMINGTON DR, MACON, GA, 31204",81067014,"L"
180445,"3426 WINGREN DRIVE","IRVING","TX",75062,32.849451881,-96.942424801,445,"3426 WINGREN DRIVE, IRVING, TX, 75062","Match","Exact","3426 WINGREN DR, IRVING, TX, 75062",102891750,"R"
180446,"3426 WRIGHT AVE","SAINT ANN","MO",63074,38.7196048500001,-90.3783030009999,446,"3426 WRIGHT AVE, SAINT ANN, MO, 63074","Match","Exact","3426 WRIGHT AVE, SAINT ANN, MO, 63074",100118534,"R"
180447,"3427 ASHTON SPRINGS LN","PEARLAND","TX",77584,29.5457025700001,-95.426306898,447,"3427 ASHTON SPRINGS LN, PEARLAND, TX, 77584","Match","Exact","3427 ASHTON SPRINGS LN, PEARLAND, TX, 77584",648926625,"R"
180448,"3427 AUSTIN CT","ALEXANDRIA","VA",22310,38.780124852,-77.092788217,448,"3427 AUSTIN CT, ALEXANDRIA, VA, 22310","Match","Exact","3427 AUSTIN CT, ALEXANDRIA, VA, 22310",76016808,"L"
180449,"3427 AVENUE O","GALVESTON","TX",77550,29.290473676,-94.802914733,449,"3427 AVENUE O, GALVESTON, TX, 77550","Match","Exact","3427 AVE O, GALVESTON, TX, 77550",96679751,"L"
180450,"3427 CEDAR SPRINGS RD 1553","DALLAS","TX",75219,32.80625881,-96.805143061,450,"3427 CEDAR SPRINGS RD 1553, DALLAS, TX, 75219","Match","Exact","3427 CEDAR SPRINGS RD, DALLAS, TX, 75219",102908871,"L"
180451,"3427 COLUMBIA CT","DECATUR","GA",30032,33.7214775480001,-84.24995789,451,"3427 COLUMBIA CT, DECATUR, GA, 30032","Match","Exact","3427 COLUMBIA CT, DECATUR, GA, 30032",23370690,"R"
180452,"3427 COOPER RD","RICHMOND","VA",23225,37.5454229040001,-77.517074097,452,"3427 COOPER RD, RICHMOND, VA, 23225","Match","Exact","3427 COOPER RD, RICHMOND, VA, 23225",201534797,"R"
180453,"3427 DALRAIDA PARKWAY","MONTGOMERY","AL",36109,32.3941301510001,-86.255474996,453,"3427 DALRAIDA PARKWAY, MONTGOMERY, AL, 36109","Match","Exact","3427 DALRAIDA PKWY, MONTGOMERY, AL, 36109",1543957,"L"
180454,"3427 DOLFIELD AVENUE","BALTIMORE","MD",21215,39.3333494390001,-76.67303636,454,"3427 DOLFIELD AVENUE, BALTIMORE, MD, 21215","Match","Exact","3427 DOLFIELD AVE, BALTIMORE, MD, 21215",206405662,"L"
180455,"3427 DOVER ROAD","DURHAM","NC",27707,35.954240471,-78.951168996,455,"3427 DOVER ROAD, DURHAM, NC, 27707","Match","Exact","3427 DOVER RD, DURHAM, NC, 27707",71737379,"L"
180456,"3427 E LAZY LN","PHOENIX","AZ",85028,33.573600748,-112.007241599,456,"3427 E LAZY LN, PHOENIX, AZ, 85028","Match","Exact","3427 E LAZY LN, PHOENIX, AZ, 85028",128218528,"R"
180457,"3427 E OSBORN RD","PHOENIX","AZ",85018,33.487842259,-112.007185142,457,"3427 E OSBORN RD, PHOENIX, AZ, 85018","Match","Exact","3427 E OSBORN RD, PHOENIX, AZ, 85018",128219775,"R"
180458,"3427 KLUSNER AVE","PARMA","OH",44134,41.376685912,-81.708407439,458,"3427 KLUSNER AVE, PARMA, OH, 44134","Match","Exact","3427 KLUSNER AVE, PARMA, OH, 44134",61117316,"L"
180459,"3427 MAIN STREET","COLLEGE PARK","GA",30337,33.662073175,-84.446695942,459,"3427 MAIN STREET, COLLEGE PARK, GA, 30337","Match","Exact","3427 MAIN ST, COLLEGE PARK, GA, 30337",17348446,"R"
180460,"3427 N LYNNBANK RD","HENDERSON","NC",27537,36.2594478600001,-78.456762897,460,"3427 N LYNNBANK RD, HENDERSON, NC, 27537","Match","Non_Exact","3429 N LYNNBANK RD, HENDERSON, NC, 27537",90280504,"R"
180461,"3427 OVERLAND AVE","LOS ANGELES","CA",90034,34.0256621500001,-118.412331666,461,"3427 OVERLAND AVE, LOS ANGELES, CA, 90034","Match","Exact","3427 OVERLAND AVE, LOS ANGELES, CA, 90034",141573621,"R"
180462,"3427 RIDGE RD","LANSING","IL",60438,41.564469704,-87.53311525,462,"3427 RIDGE RD, LANSING, IL, 60438","Match","Exact","3427 RIDGE RD, LANSING, IL, 60438",616796126,"R"
180463,"3427 RIPPLE RD","WINDSOR MILL","MD",21244,39.3469530340001,-76.7523074439999,463,"3427 RIPPLE RD, WINDSOR MILL, MD, 21244","Match","Exact","3427 RIPPLE RD, WINDSOR MILL, MD, 21244",191467422,"R"
180464,"3427 SANTA MONICA DR","ORLANDO","FL",32822,28.5075760120001,-81.294840382,464,"3427 SANTA MONICA DR, ORLANDO, FL, 32822","Match","Exact","3427 SANTA MONICA DR, ORLANDO, FL, 32822",606112268,"R"
180465,"3427 STARWICK DRIVE","CANFIELD","OH",44406,41.06480198,-80.7496789899999,465,"3427 STARWICK DRIVE, CANFIELD, OH, 44406","Match","Exact","3427 STARWICK DR, CANFIELD, OH, 44406",64608033,"L"
180466,"3427 STONEBRIDGE DRIVE","WALDORF","MD",20601,NA,NA,466,"3427 STONEBRIDGE DRIVE, WALDORF, MD, 20601","No_Match",NA,NA,NA,NA
180467,"3427 TIMBERWOOD CIRCLE","NAPLES","FL",34105,26.201161327,-81.7647517299999,467,"3427 TIMBERWOOD CIRCLE, NAPLES, FL, 34105","Match","Exact","3427 TIMBERWOOD CIR, NAPLES, FL, 34105",115171921,"L"
180468,"3427 TWEEDY BLVD","SOUTH GATE","CA",90280,33.9446067960001,-118.209101523,468,"3427 TWEEDY BLVD, SOUTH GATE, CA, 90280","Match","Exact","3427 TWEEDY BLVD, SOUTH GATE, CA, 90280",141677580,"L"
180469,"3427 W 83RD ST","INGLEWOOD","CA",90305,33.9627303620001,-118.331738418,469,"3427 W 83RD ST, INGLEWOOD, CA, 90305","Match","Exact","3427 W 83RD ST, INGLEWOOD, CA, 90305",142750688,"R"
180470,"3427","SAN DIEGO","CA",92115,NA,NA,470,"3427, SAN DIEGO, CA, 92115","No_Match",NA,NA,NA,NA
180471,"3428 BRUCEVILLE RD","VINCENNES","IN",47591,38.7251459820001,-87.438567107,471,"3428 BRUCEVILLE RD, VINCENNES, IN, 47591","Match","Exact","3428 BRUCEVILLE RD, VINCENNES, IN, 47591",30067668,"R"
180472,"3428 E DERRINGER WAY","GILBERT","AZ",85297,33.2918814270001,-111.71627145,472,"3428 E DERRINGER WAY, GILBERT, AZ, 85297","Match","Exact","3428 E DERRINGER WAY, GILBERT, AZ, 85297",128817129,"L"
180473,"3428 IBERVILLE DR","TYLER","TX",75701,32.3113395990001,-95.315231511,473,"3428 IBERVILLE DR, TYLER, TX, 75701","Match","Exact","3428 IBERVILLE DR, TYLER, TX, 75701",625173243,"R"
180474,"3428 LONZALO WAY","TRINITY","FL",34655,28.2090571850001,-82.640717577,474,"3428 LONZALO WAY, TRINITY, FL, 34655","Match","Exact","3428 LONZALO WAY, TRINITY, FL, 34655",624851892,"R"
180475,"3428 MAPLE AVE SW","BIRMINGHAM","AL",35221,33.454151177,-86.8891222519999,475,"3428 MAPLE AVE SW, BIRMINGHAM, AL, 35221","Match","Exact","3428 MAPLE AVE SW, BIRMINGHAM, AL, 35221",81557828,"R"
180476,"3428 MAPLE AVE SW","BIRMINGHAM",NA,35221,33.454151177,-86.8891222519999,476,"3428 MAPLE AVE SW, BIRMINGHAM, , 35221","Match","Exact","3428 MAPLE AVE SW, BIRMINGHAM, AL, 35221",81557828,"R"
180477,"3428 NORTH CHURCH ST","GREENSBORO","NC",27405,36.1248908790001,-79.7875675349999,477,"3428 NORTH CHURCH ST, GREENSBORO, NC, 27405","Match","Exact","3428 N CHURCH ST, GREENSBORO, NC, 27405",131069139,"R"
180478,"3428 REDWING DRIVE","NAPERVILLE","IL",60564,41.7006124120001,-88.215773332,478,"3428 REDWING DRIVE, NAPERVILLE, IL, 60564","Match","Exact","3428 REDWING DR, NAPERVILLE, IL, 60564",111617893,"R"
180479,"3428 S BLACKMAN AVENUE","SPRINGFIELD","MO",65809,37.1503668930001,-93.217420465,479,"3428 S BLACKMAN AVENUE, SPRINGFIELD, MO, 65809","Match","Exact","3428 S BLACKMAN AVE, SPRINGFIELD, MO, 65809",76707301,"L"
180480,"3428 TEXAS TRAIL","HURST","TX",76054,32.884034075,-97.180911141,480,"3428 TEXAS TRAIL, HURST, TX, 76054","Match","Exact","3428 TEXAS TRL, HURST, TX, 76054",102185993,"L"
180481,"3428 W MICHIGAN ST","INDIANAPOLIS","IN",46222,39.7739855880001,-86.2171270379999,481,"3428 W MICHIGAN ST, INDIANAPOLIS, IN, 46222","Match","Non_Exact","3428 W MICHIGAN ST, INDIANAPOLIS, IN, 46222",107987046,"R"
180482,"3428 WEST MARKET STREET","FAIRLAWN","OH",44333,41.1346409920001,-81.623724953,482,"3428 WEST MARKET STREET, FAIRLAWN, OH, 44333","Match","Exact","3428 W MARKET ST, FAIRLAWN, OH, 44333",61393569,"L"
180483,"34280 COPPOLA ST","TEMECULA","CA",92592,33.4846666920001,-117.060916944,483,"34280 COPPOLA ST, TEMECULA, CA, 92592","Match","Exact","34280 COPPOLA ST, TEMECULA, CA, 92592",640909176,"R"
180484,"34282 EUCALYPTUS TERRACE","FREMONT","CA",94555,37.5581361810001,-122.057902438,484,"34282 EUCALYPTUS TERRACE, FREMONT, CA, 94555","Match","Exact","34282 EUCALYPTUS TER, FREMONT, CA, 94555",125056486,"R"
180485,"34283 N TANGUERAY DRIVE","GRAYSLAKE","IL",60030,42.3603536460001,-87.9907262199999,485,"34283 N TANGUERAY DRIVE, GRAYSLAKE, IL, 60030","Match","Exact","34283 TANGUERAY DR, GRAYSLAKE, IL, 60030",119701777,"R"
180486,"3429 COCHISE STREET","NORTH CHARLESTON","SC",29405,32.8585449870001,-79.976007748,486,"3429 COCHISE STREET, NORTH CHARLESTON, SC, 29405","Match","Exact","3429 COCHISE ST, N CHARLESTON, SC, 29405",604845406,"R"
180487,"3429 COVE CT E","WINTER HAVEN","FL",33880,NA,NA,487,"3429 COVE CT E, WINTER HAVEN, FL, 33880","Tie",NA,NA,NA,NA
180488,"3429 E MELODY DR","PHOENIX","AZ",85042,33.3739450890001,-112.00917138,488,"3429 E MELODY DR, PHOENIX, AZ, 85042","Match","Exact","3429 E MELODY DR, PHOENIX, AZ, 85042",128355965,"R"
180489,"3429 LORNA LANE","HOOVER","AL",35216,33.394852529,-86.794699497,489,"3429 LORNA LANE, HOOVER, AL, 35216","Match","Exact","3429 LORNA LN, HOOVER, AL, 35216",81583857,"L"
180490,"3429 MARITIME DR","INDIANAPOLIS","IN",46214,39.815595581,-86.2996785989999,490,"3429 MARITIME DR, INDIANAPOLIS, IN, 46214","Match","Exact","3429 MARITIME DR, INDIANAPOLIS, IN, 46214",108032149,"L"
180491,"3429 MIDWAY DR SUITE B","CEDAR FALLS","IA",50613,42.50685773,-92.4063436769999,491,"3429 MIDWAY DR SUITE B, CEDAR FALLS, IA, 50613","Match","Exact","3429 MIDWAY DR, CEDAR FALLS, IA, 50613",77249806,"R"
180492,"3429 MIDWAY DR","CEDAR FALLS","IA",50613,42.50685773,-92.4063436769999,492,"3429 MIDWAY DR, CEDAR FALLS, IA, 50613","Match","Exact","3429 MIDWAY DR, CEDAR FALLS, IA, 50613",77249806,"R"
180493,"3429 NORTH ROSEWAY DRIVE","INDIANAPOLIS","IN",46226,39.8198310070001,-86.0275906689999,493,"3429 NORTH ROSEWAY DRIVE, INDIANAPOLIS, IN, 46226","Match","Non_Exact","3429 ROSEWAY DR, INDIANAPOLIS, IN, 46226",108002832,"R"
180494,"3429 REGENCY PKWY","DISTRICT HEIGHTS","MD",20747,38.8420700360001,-76.9086946049999,494,"3429 REGENCY PKWY, DISTRICT HEIGHTS, MD, 20747","Match","Exact","3429 REGENCY PKWY, DISTRICT HEIGHTS, MD, 20747",76402705,"R"
180495,"3429 RISHER AVENUE","YOUNGSTOWN","OH",44511,41.0644834730001,-80.688866608,495,"3429 RISHER AVENUE, YOUNGSTOWN, OH, 44511","Match","Non_Exact","3429 RISHER RD, YOUNGSTOWN, OH, 44511",64594828,"L"
180496,"3429 RUTHERFORD ROAD EXT STE B","TAYLORS","SC",29687,NA,NA,496,"3429 RUTHERFORD ROAD EXT STE B, TAYLORS, SC, 29687","No_Match",NA,NA,NA,NA
180497,"3429 S LITUANICA UNIT 2","CHICAGO","IL",60608,NA,NA,497,"3429 S LITUANICA UNIT 2, CHICAGO, IL, 60608","No_Match",NA,NA,NA,NA
180498,"3429 S PRAIRIE AVE","CHICAGO","IL",60616,41.832428516,-87.6205674509999,498,"3429 S PRAIRIE AVE, CHICAGO, IL, 60616","Match","Exact","3429 S PRAIRIE AVE, CHICAGO, IL, 60616",111770167,"L"
180499,"3429 SILVERTON AVENUE","WANTAUGH","NY",11793,40.6879291110001,-73.506171654,499,"3429 SILVERTON AVENUE, WANTAUGH, NY, 11793","Match","Non_Exact","3429 SILVERTON AVE, WANTAGH, NY, 11793",147825441,"L"
180500,"3429 SOUTH 200 EAST  APARTMENT A","SALT LAKE CITY","UT",84115,NA,NA,500,"3429 SOUTH 200 EAST  APARTMENT A, SALT LAKE CITY, UT, 84115","No_Match",NA,NA,NA,NA
