"ID","Address","City","State","Zip","lat","long","id","input_address","match_indicator","match_type","matched_address","tiger_line_id","tiger_side"
347001,"PO BOX 373","ALLENDALE","SC",29810,NA,NA,1,"PO BOX 373, ALLENDALE, SC, 29810","No_Match",NA,NA,NA,NA
347002,"PO BOX 373","ALLENHURST","NJ",7711,NA,NA,2,"PO BOX 373, ALLENHURST, NJ, 7711","No_Match",NA,NA,NA,NA
347003,"PO BOX 373","APPOMATTOX","VA",24522,NA,NA,3,"PO BOX 373, APPOMATTOX, VA, 24522","No_Match",NA,NA,NA,NA
347004,"PO BOX 373","ARLINGTON","TX",76004,NA,NA,4,"PO BOX 373, ARLINGTON, TX, 76004","No_Match",NA,NA,NA,NA
347005,"PO BOX 373","ATMORE","AL",36504,NA,NA,5,"PO BOX 373, ATMORE, AL, 36504","No_Match",NA,NA,NA,NA
347006,"PO BOX 373","BOSTON","GA",31626,NA,NA,6,"PO BOX 373, BOSTON, GA, 31626","No_Match",NA,NA,NA,NA
347007,"PO BOX 373","CARO","MI",48723,NA,NA,7,"PO BOX 373, CARO, MI, 48723","No_Match",NA,NA,NA,NA
347008,"PO BOX 373","COLLINSVILLE","IL",62234,NA,NA,8,"PO BOX 373, COLLINSVILLE, IL, 62234","No_Match",NA,NA,NA,NA
347009,"PO BOX 373","DOBBINS","CA",95935,NA,NA,9,"PO BOX 373, DOBBINS, CA, 95935","No_Match",NA,NA,NA,NA
347010,"PO BOX 373","DRIPPING SPRINGS","TX",78620,NA,NA,10,"PO BOX 373, DRIPPING SPRINGS, TX, 78620","No_Match",NA,NA,NA,NA
347011,"PO BOX 373","ELBA","AL",36323,NA,NA,11,"PO BOX 373, ELBA, AL, 36323","No_Match",NA,NA,NA,NA
347012,"PO BOX 373","EVANS CITY","PA",16033,NA,NA,12,"PO BOX 373, EVANS CITY, PA, 16033","No_Match",NA,NA,NA,NA
347013,"PO BOX 373","LACKAWANNA","NY",14218,NA,NA,13,"PO BOX 373, LACKAWANNA, NY, 14218","No_Match",NA,NA,NA,NA
347014,"PO BOX 373","LITTLE COMPTON","RI",2837,NA,NA,14,"PO BOX 373, LITTLE COMPTON, RI, 2837","No_Match",NA,NA,NA,NA
347015,"PO BOX 373","LONDON","KY",40743,NA,NA,15,"PO BOX 373, LONDON, KY, 40743","No_Match",NA,NA,NA,NA
347016,"PO BOX 373","NEW YORK","NY",10150,NA,NA,16,"PO BOX 373, NEW YORK, NY, 10150","No_Match",NA,NA,NA,NA
347017,"PO BOX 373","OSCEOLA","WI",54020,NA,NA,17,"PO BOX 373, OSCEOLA, WI, 54020","No_Match",NA,NA,NA,NA
347018,"PO BOX 373","PALMYRA","MO",63461,NA,NA,18,"PO BOX 373, PALMYRA, MO, 63461","No_Match",NA,NA,NA,NA
347019,"PO BOX 373","PLENTYWOOD","MT",59254,NA,NA,19,"PO BOX 373, PLENTYWOOD, MT, 59254","No_Match",NA,NA,NA,NA
347020,"PO BOX 373","PRINCETON","WV",24740,NA,NA,20,"PO BOX 373, PRINCETON, WV, 24740","No_Match",NA,NA,NA,NA
347021,"PO BOX 373","REX","GA",30273,NA,NA,21,"PO BOX 373, REX, GA, 30273","No_Match",NA,NA,NA,NA
347022,"PO BOX 373","ROME","GA",30162,NA,NA,22,"PO BOX 373, ROME, GA, 30162","No_Match",NA,NA,NA,NA
347023,"PO BOX 373","SHIP BOTTOM","NJ",8008,NA,NA,23,"PO BOX 373, SHIP BOTTOM, NJ, 8008","No_Match",NA,NA,NA,NA
347024,"PO BOX 373","VALLEY STREAM","NY",11582,NA,NA,24,"PO BOX 373, VALLEY STREAM, NY, 11582","No_Match",NA,NA,NA,NA
347025,"PO BOX 373","WARRENTON","VA",20188,NA,NA,25,"PO BOX 373, WARRENTON, VA, 20188","No_Match",NA,NA,NA,NA
347026,"PO BOX 373","WINONA","MN",55987,NA,NA,26,"PO BOX 373, WINONA, MN, 55987","No_Match",NA,NA,NA,NA
347027,"PO BOX 373","WRANGELL","AK",99929,NA,NA,27,"PO BOX 373, WRANGELL, AK, 99929","No_Match",NA,NA,NA,NA
347028,"PO BOX 373","WRIGHTSVILLE BEACH","NC",28480,NA,NA,28,"PO BOX 373, WRIGHTSVILLE BEACH, NC, 28480","No_Match",NA,NA,NA,NA
347029,"PO BOX 373005","DECATUR","GA",30037,NA,NA,29,"PO BOX 373005, DECATUR, GA, 30037","No_Match",NA,NA,NA,NA
347030,"PO BOX 3732","BLUFFTON","SC",29910,NA,NA,30,"PO BOX 3732, BLUFFTON, SC, 29910","No_Match",NA,NA,NA,NA
347031,"PO BOX 37333","HOUSTON","TX",77237,NA,NA,31,"PO BOX 37333, HOUSTON, TX, 77237","No_Match",NA,NA,NA,NA
347032,"PO BOX 37343","HOUSTON","TX",77237,NA,NA,32,"PO BOX 37343, HOUSTON, TX, 77237","No_Match",NA,NA,NA,NA
347033,"PO BOX 3736","FARMINGTON","NM",87499,NA,NA,33,"PO BOX 3736, FARMINGTON, NM, 87499","No_Match",NA,NA,NA,NA
347034,"PO BOX 3737","BLUFFTON","SC",29910,NA,NA,34,"PO BOX 3737, BLUFFTON, SC, 29910","No_Match",NA,NA,NA,NA
347035,"PO BOX 3737","NEW YORK","NY",10163,NA,NA,35,"PO BOX 3737, NEW YORK, NY, 10163","No_Match",NA,NA,NA,NA
347036,"PO BOX 3738","LA HABRA","CA",90632,NA,NA,36,"PO BOX 3738, LA HABRA, CA, 90632","No_Match",NA,NA,NA,NA
347037,"PO BOX 374","BETHESDA","OH",43719,NA,NA,37,"PO BOX 374, BETHESDA, OH, 43719","No_Match",NA,NA,NA,NA
347038,"PO BOX 374","CENTREVILLE","MD",21617,NA,NA,38,"PO BOX 374, CENTREVILLE, MD, 21617","No_Match",NA,NA,NA,NA
347039,"PO BOX 374","COPPER CENTER","AK",99573,NA,NA,39,"PO BOX 374, COPPER CENTER, AK, 99573","No_Match",NA,NA,NA,NA
347040,"PO BOX 374","DONIPHAN","MO",63935,NA,NA,40,"PO BOX 374, DONIPHAN, MO, 63935","No_Match",NA,NA,NA,NA
347041,"PO BOX 374","EPHRATA","WA",98823,NA,NA,41,"PO BOX 374, EPHRATA, WA, 98823","No_Match",NA,NA,NA,NA
347042,"PO BOX 374","FLORENCE","NJ",8518,NA,NA,42,"PO BOX 374, FLORENCE, NJ, 8518","No_Match",NA,NA,NA,NA
347043,"PO BOX 374","GRASS LAKE","MI",49240,NA,NA,43,"PO BOX 374, GRASS LAKE, MI, 49240","No_Match",NA,NA,NA,NA
347044,"PO BOX 374","GRINNELL","IA",50112,NA,NA,44,"PO BOX 374, GRINNELL, IA, 50112","No_Match",NA,NA,NA,NA
347045,"PO BOX 374","HARRISON CITY","PA",15636,NA,NA,45,"PO BOX 374, HARRISON CITY, PA, 15636","No_Match",NA,NA,NA,NA
347046,"PO BOX 374","HEIDRICK","KY",40949,NA,NA,46,"PO BOX 374, HEIDRICK, KY, 40949","No_Match",NA,NA,NA,NA
347047,"PO BOX 374","HENDERSON","CO",80640,NA,NA,47,"PO BOX 374, HENDERSON, CO, 80640","No_Match",NA,NA,NA,NA
347048,"PO BOX 374","HONDO","TX",78861,NA,NA,48,"PO BOX 374, HONDO, TX, 78861","No_Match",NA,NA,NA,NA
347049,"PO BOX 374","LAKE VILLAGE","AR",71653,NA,NA,49,"PO BOX 374, LAKE VILLAGE, AR, 71653","No_Match",NA,NA,NA,NA
347050,"PO BOX 374","LIBERTY HILL","TX",78642,NA,NA,50,"PO BOX 374, LIBERTY HILL, TX, 78642","No_Match",NA,NA,NA,NA
347051,"PO BOX 374","LUMBERTON","NC",28359,NA,NA,51,"PO BOX 374, LUMBERTON, NC, 28359","No_Match",NA,NA,NA,NA
347052,"PO BOX 374","MORGANFIELD","KY",42437,NA,NA,52,"PO BOX 374, MORGANFIELD, KY, 42437","No_Match",NA,NA,NA,NA
347053,"PO BOX 374","OXFORD","MI",48371,NA,NA,53,"PO BOX 374, OXFORD, MI, 48371","No_Match",NA,NA,NA,NA
347054,"PO BOX 374","PATEROS","WA",98846,NA,NA,54,"PO BOX 374, PATEROS, WA, 98846","No_Match",NA,NA,NA,NA
347055,"PO BOX 374","PENN YAN","NY",14527,NA,NA,55,"PO BOX 374, PENN YAN, NY, 14527","No_Match",NA,NA,NA,NA
347056,"PO BOX 374","RANCHO CORDOVA","CA",95741,NA,NA,56,"PO BOX 374, RANCHO CORDOVA, CA, 95741","No_Match",NA,NA,NA,NA
347057,"PO BOX 374","THE DALLES","OR",97058,NA,NA,57,"PO BOX 374, THE DALLES, OR, 97058","No_Match",NA,NA,NA,NA
347058,"PO BOX 374","WALDOBORO","ME",4572,NA,NA,58,"PO BOX 374, WALDOBORO, ME, 4572","No_Match",NA,NA,NA,NA
347059,"PO BOX 374","WILLIAMS BAY","WI",53191,NA,NA,59,"PO BOX 374, WILLIAMS BAY, WI, 53191","No_Match",NA,NA,NA,NA
347060,"PO BOX 374","WILLIAMSTON","NC",27892,NA,NA,60,"PO BOX 374, WILLIAMSTON, NC, 27892","No_Match",NA,NA,NA,NA
347061,"PO BOX 374","YONKERS","NY",10703,NA,NA,61,"PO BOX 374, YONKERS, NY, 10703","No_Match",NA,NA,NA,NA
347062,"PO BOX 374035","DECATUR","GA",30037,NA,NA,62,"PO BOX 374035, DECATUR, GA, 30037","No_Match",NA,NA,NA,NA
347063,"PO BOX 3741  126 ATLANTIC ST","NORFOLK","VA",23514,36.846151918,-76.29012188,63,"PO BOX 3741  126 ATLANTIC ST, NORFOLK, VA, 23514","Match","Non_Exact","126 ATLANTIC ST, NORFOLK, VA, 23510",122127465,"R"
347064,"PO BOX 3742","KINGSPORT","TN",37664,NA,NA,64,"PO BOX 3742, KINGSPORT, TN, 37664","No_Match",NA,NA,NA,NA
347065,"PO BOX 37422","CINCINNATI","OH",45222,NA,NA,65,"PO BOX 37422, CINCINNATI, OH, 45222","No_Match",NA,NA,NA,NA
347066,"PO BOX 3743","OAK BROOK","IL",60522,NA,NA,66,"PO BOX 3743, OAK BROOK, IL, 60522","No_Match",NA,NA,NA,NA
347067,"PO BOX 3744","NEW YORK","NY",10163,NA,NA,67,"PO BOX 3744, NEW YORK, NY, 10163","No_Match",NA,NA,NA,NA
347068,"PO BOX 3744","PEACHTREE CITY","GA",30269,NA,NA,68,"PO BOX 3744, PEACHTREE CITY, GA, 30269","No_Match",NA,NA,NA,NA
347069,"PO BOX 37465","HOUSTON","TX",77237,NA,NA,69,"PO BOX 37465, HOUSTON, TX, 77237","No_Match",NA,NA,NA,NA
347070,"PO BOX 375","CLARKSVILLE","VA",23927,NA,NA,70,"PO BOX 375, CLARKSVILLE, VA, 23927","No_Match",NA,NA,NA,NA
347071,"PO BOX 375","COBDEN","IL",62920,NA,NA,71,"PO BOX 375, COBDEN, IL, 62920","No_Match",NA,NA,NA,NA
347072,"PO BOX 375","COLCHESTER","CT",6415,NA,NA,72,"PO BOX 375, COLCHESTER, CT, 6415","No_Match",NA,NA,NA,NA
347073,"PO BOX 375","COLDWATER","MS",38618,NA,NA,73,"PO BOX 375, COLDWATER, MS, 38618","No_Match",NA,NA,NA,NA
347074,"PO BOX 375","EAST PALATKA","FL",32131,NA,NA,74,"PO BOX 375, EAST PALATKA, FL, 32131","No_Match",NA,NA,NA,NA
347075,"PO BOX 375","Hot Springs","MT",59845,NA,NA,75,"PO BOX 375, Hot Springs, MT, 59845","No_Match",NA,NA,NA,NA
347076,"PO BOX 375","HYDE PARK","VT",5655,NA,NA,76,"PO BOX 375, HYDE PARK, VT, 5655","No_Match",NA,NA,NA,NA
347077,"PO BOX 375","JACKSON","MO",63755,NA,NA,77,"PO BOX 375, JACKSON, MO, 63755","No_Match",NA,NA,NA,NA
347078,"PO BOX 375","JACKSON","WI",53037,NA,NA,78,"PO BOX 375, JACKSON, WI, 53037","No_Match",NA,NA,NA,NA
347079,"PO BOX 375","LESLIE","MI",49251,NA,NA,79,"PO BOX 375, LESLIE, MI, 49251","No_Match",NA,NA,NA,NA
347080,"PO BOX 375","LEXINGTON","SC",29071,NA,NA,80,"PO BOX 375, LEXINGTON, SC, 29071","No_Match",NA,NA,NA,NA
347081,"PO BOX 375","PICKERINGTON","OH",43147,NA,NA,81,"PO BOX 375, PICKERINGTON, OH, 43147","No_Match",NA,NA,NA,NA
347082,"PO BOX 375","PLYMOUTH","NH",3264,NA,NA,82,"PO BOX 375, PLYMOUTH, NH, 3264","No_Match",NA,NA,NA,NA
347083,"PO BOX 375","ROSCOMMON","MI",48653,NA,NA,83,"PO BOX 375, ROSCOMMON, MI, 48653","No_Match",NA,NA,NA,NA
347084,"PO BOX 375","RUIDOSO","NM",88355,NA,NA,84,"PO BOX 375, RUIDOSO, NM, 88355","No_Match",NA,NA,NA,NA
347085,"PO BOX 3751","SHREVEPORT","LA",71133,NA,NA,85,"PO BOX 3751, SHREVEPORT, LA, 71133","No_Match",NA,NA,NA,NA
347086,"PO BOX 375107","CAYEY","PR",737,NA,NA,86,"PO BOX 375107, CAYEY, PR, 737","No_Match",NA,NA,NA,NA
347087,"PO BOX 3752","SANTA MONICA","CA",90408,NA,NA,87,"PO BOX 3752, SANTA MONICA, CA, 90408","No_Match",NA,NA,NA,NA
347088,"PO BOX 3753","ANN ARBOR","MI",48106,NA,NA,88,"PO BOX 3753, ANN ARBOR, MI, 48106","No_Match",NA,NA,NA,NA
347089,"PO BOX 3753","BUTTE","MT",59702,NA,NA,89,"PO BOX 3753, BUTTE, MT, 59702","No_Match",NA,NA,NA,NA
347090,"PO BOX 3753","SILVERDALE","WA",98383,NA,NA,90,"PO BOX 3753, SILVERDALE, WA, 98383","No_Match",NA,NA,NA,NA
347091,"PO BOX 37531","NORTH CHESTERFIELD","VA",23234,NA,NA,91,"PO BOX 37531, NORTH CHESTERFIELD, VA, 23234","No_Match",NA,NA,NA,NA
347092,"PO BOX 37545","HONOLULU","HI",96837,NA,NA,92,"PO BOX 37545, HONOLULU, HI, 96837","No_Match",NA,NA,NA,NA
347093,"PO BOX 3756","GREENWOOD VILLAGE","CO",80155,NA,NA,93,"PO BOX 3756, GREENWOOD VILLAGE, CO, 80155","No_Match",NA,NA,NA,NA
347094,"PO BOX 3757","ALLENTOWN","PA",18106,NA,NA,94,"PO BOX 3757, ALLENTOWN, PA, 18106","No_Match",NA,NA,NA,NA
347095,"PO BOX 37574","RALEIGH","NC",27606,NA,NA,95,"PO BOX 37574, RALEIGH, NC, 27606","No_Match",NA,NA,NA,NA
347096,"PO BOX 37586","HONOLULU","HI",96837,NA,NA,96,"PO BOX 37586, HONOLULU, HI, 96837","No_Match",NA,NA,NA,NA
347097,"PO BOX 3759","LACEY","WA",98509,NA,NA,97,"PO BOX 3759, LACEY, WA, 98509","No_Match",NA,NA,NA,NA
347098,"PO BOX 376 3333 HIGHWAY 60 EAST","MITCHELL","IN",47446,38.723132794,-86.416325274,98,"PO BOX 376 3333 HIGHWAY 60 EAST, MITCHELL, IN, 47446","Match","Non_Exact","3333 STATE RD 60 E, MITCHELL, IN, 47446",42077372,"R"
347099,"PO BOX 376","BERKELEY","CA",94701,NA,NA,99,"PO BOX 376, BERKELEY, CA, 94701","No_Match",NA,NA,NA,NA
347100,"PO BOX 376","GREAT NECK","NY",11022,NA,NA,100,"PO BOX 376, GREAT NECK, NY, 11022","No_Match",NA,NA,NA,NA
347101,"PO BOX 376","LAONA","WI",54541,NA,NA,101,"PO BOX 376, LAONA, WI, 54541","No_Match",NA,NA,NA,NA
347102,"PO BOX 376","LEDGEWOOD","NJ",7852,NA,NA,102,"PO BOX 376, LEDGEWOOD, NJ, 7852","No_Match",NA,NA,NA,NA
347103,"PO BOX 376","MOUNTLAKE TERRACE","WA",98043,NA,NA,103,"PO BOX 376, MOUNTLAKE TERRACE, WA, 98043","No_Match",NA,NA,NA,NA
347104,"PO BOX 376","PITSBURG","OH",45358,NA,NA,104,"PO BOX 376, PITSBURG, OH, 45358","No_Match",NA,NA,NA,NA
347105,"PO BOX 376","RENSSELAER","NY",12144,NA,NA,105,"PO BOX 376, RENSSELAER, NY, 12144","No_Match",NA,NA,NA,NA
347106,"PO BOX 3761","PENSACOLA","FL",32516,NA,NA,106,"PO BOX 3761, PENSACOLA, FL, 32516","No_Match",NA,NA,NA,NA
347107,"PO BOX 3761","ST AUGUSTINE","FL",32085,NA,NA,107,"PO BOX 3761, ST AUGUSTINE, FL, 32085","No_Match",NA,NA,NA,NA
347108,"PO BOX 37618","OAK PARK","MI",48237,NA,NA,108,"PO BOX 37618, OAK PARK, MI, 48237","No_Match",NA,NA,NA,NA
347109,"PO BOX 3762","SHAWNEE","OK",74802,NA,NA,109,"PO BOX 3762, SHAWNEE, OK, 74802","No_Match",NA,NA,NA,NA
347110,"PO BOX 37624","HONOLULU","HI",96837,NA,NA,110,"PO BOX 37624, HONOLULU, HI, 96837","No_Match",NA,NA,NA,NA
347111,"PO BOX 3763","WAYNE","NJ",7474,NA,NA,111,"PO BOX 3763, WAYNE, NJ, 7474","No_Match",NA,NA,NA,NA
347112,"PO BOX 37647","SHREVEPORT","LA",71133,NA,NA,112,"PO BOX 37647, SHREVEPORT, LA, 71133","No_Match",NA,NA,NA,NA
347113,"PO BOX 3765","JERSEY CITY","NJ",7303,NA,NA,113,"PO BOX 3765, JERSEY CITY, NJ, 7303","No_Match",NA,NA,NA,NA
347114,"PO BOX 3768","BOULDER","CO",80307,NA,NA,114,"PO BOX 3768, BOULDER, CO, 80307","No_Match",NA,NA,NA,NA
347115,"PO BOX 377","ANDERSON","SC",29622,NA,NA,115,"PO BOX 377, ANDERSON, SC, 29622","No_Match",NA,NA,NA,NA
347116,"PO BOX 377","ANNANDALE","NJ",8801,NA,NA,116,"PO BOX 377, ANNANDALE, NJ, 8801","No_Match",NA,NA,NA,NA
347117,"PO BOX 377","AROMAS","CA",95004,NA,NA,117,"PO BOX 377, AROMAS, CA, 95004","No_Match",NA,NA,NA,NA
347118,"PO BOX 377","DORRIS","CA",96023,NA,NA,118,"PO BOX 377, DORRIS, CA, 96023","No_Match",NA,NA,NA,NA
347119,"PO BOX 377","HARRELLS","NC",28444,NA,NA,119,"PO BOX 377, HARRELLS, NC, 28444","No_Match",NA,NA,NA,NA
347120,"PO BOX 377","HARRINGTON","WA",99134,NA,NA,120,"PO BOX 377, HARRINGTON, WA, 99134","No_Match",NA,NA,NA,NA
347121,"PO BOX 377","HERSCHER","IL",60941,NA,NA,121,"PO BOX 377, HERSCHER, IL, 60941","No_Match",NA,NA,NA,NA
347122,"PO BOX 377","LUMBERTON","NJ",8048,NA,NA,122,"PO BOX 377, LUMBERTON, NJ, 8048","No_Match",NA,NA,NA,NA
347123,"PO BOX 377","OPP","AL",36467,NA,NA,123,"PO BOX 377, OPP, AL, 36467","No_Match",NA,NA,NA,NA
347124,"PO BOX 377","VON ORMY","TX",78073,NA,NA,124,"PO BOX 377, VON ORMY, TX, 78073","No_Match",NA,NA,NA,NA
347125,"PO BOX 3771","FEDERAL WAY","WA",98063,NA,NA,125,"PO BOX 3771, FEDERAL WAY, WA, 98063","No_Match",NA,NA,NA,NA
347126,"PO BOX 3771","MORGANTON","NC",28680,NA,NA,126,"PO BOX 3771, MORGANTON, NC, 28680","No_Match",NA,NA,NA,NA
347127,"PO BOX 3771","RENO","NV",89505,NA,NA,127,"PO BOX 3771, RENO, NV, 89505","No_Match",NA,NA,NA,NA
347128,"PO BOX 3772","CRESTED BUTTE","CO",81224,NA,NA,128,"PO BOX 3772, CRESTED BUTTE, CO, 81224","No_Match",NA,NA,NA,NA
347129,"PO BOX 3773","CUYAHOGA FALLS","OH",44223,NA,NA,129,"PO BOX 3773, CUYAHOGA FALLS, OH, 44223","No_Match",NA,NA,NA,NA
347130,"PO BOX 3774","HOUSTON","TX",77253,NA,NA,130,"PO BOX 3774, HOUSTON, TX, 77253","No_Match",NA,NA,NA,NA
347131,"PO BOX 377445","OCEAN VIEW","HI",96737,NA,NA,131,"PO BOX 377445, OCEAN VIEW, HI, 96737","No_Match",NA,NA,NA,NA
347132,"PO BOX 3776","SANTA CRUZ","CA",95063,NA,NA,132,"PO BOX 3776, SANTA CRUZ, CA, 95063","No_Match",NA,NA,NA,NA
347133,"PO BOX 377623","GREELEY","CO",80633,NA,NA,133,"PO BOX 377623, GREELEY, CO, 80633","No_Match",NA,NA,NA,NA
347134,"PO BOX 3777","BRECKENRIDGE","CO",80424,NA,NA,134,"PO BOX 3777, BRECKENRIDGE, CO, 80424","No_Match",NA,NA,NA,NA
347135,"PO BOX 378","CHEWELAH","WA",99109,NA,NA,135,"PO BOX 378, CHEWELAH, WA, 99109","No_Match",NA,NA,NA,NA
347136,"PO BOX 378","ELMER","NJ",8318,NA,NA,136,"PO BOX 378, ELMER, NJ, 8318","No_Match",NA,NA,NA,NA
347137,"PO BOX 378","FORT DAVIS","TX",79734,NA,NA,137,"PO BOX 378, FORT DAVIS, TX, 79734","No_Match",NA,NA,NA,NA
347138,"PO BOX 378","FREMONT","OH",43420,NA,NA,138,"PO BOX 378, FREMONT, OH, 43420","No_Match",NA,NA,NA,NA
347139,"PO BOX 378","PLAINFIELD","VT",5667,NA,NA,139,"PO BOX 378, PLAINFIELD, VT, 5667","No_Match",NA,NA,NA,NA
347140,"PO BOX 3782","VISTA","CA",92085,NA,NA,140,"PO BOX 3782, VISTA, CA, 92085","No_Match",NA,NA,NA,NA
347141,"PO BOX 3783","HITCHCOCK","TX",77563,NA,NA,141,"PO BOX 3783, HITCHCOCK, TX, 77563","No_Match",NA,NA,NA,NA
347142,"PO BOX 3784","UNION","NJ",7083,NA,NA,142,"PO BOX 3784, UNION, NJ, 7083","No_Match",NA,NA,NA,NA
347143,"PO BOX 378593","CHICAGO","IL",60637,NA,NA,143,"PO BOX 378593, CHICAGO, IL, 60637","No_Match",NA,NA,NA,NA
347144,"PO BOX 37874","RALEIGH","NC",27627,NA,NA,144,"PO BOX 37874, RALEIGH, NC, 27627","No_Match",NA,NA,NA,NA
347145,"PO BOX 37875","CINCINNATI","OH",45222,NA,NA,145,"PO BOX 37875, CINCINNATI, OH, 45222","No_Match",NA,NA,NA,NA
347146,"PO BOX 37883","CINCINNATI","OH",45222,NA,NA,146,"PO BOX 37883, CINCINNATI, OH, 45222","No_Match",NA,NA,NA,NA
347147,"PO BOX 3789","CARTERSVILLE","GA",30120,NA,NA,147,"PO BOX 3789, CARTERSVILLE, GA, 30120","No_Match",NA,NA,NA,NA
347148,"PO BOX 379","ANKENY","IA",50021,NA,NA,148,"PO BOX 379, ANKENY, IA, 50021","No_Match",NA,NA,NA,NA
347149,"PO BOX 379","BELLE","WV",25015,NA,NA,149,"PO BOX 379, BELLE, WV, 25015","No_Match",NA,NA,NA,NA
347150,"PO BOX 379","CHALLIS","ID",83226,NA,NA,150,"PO BOX 379, CHALLIS, ID, 83226","No_Match",NA,NA,NA,NA
347151,"PO BOX 379","ELGIN","NE",68636,NA,NA,151,"PO BOX 379, ELGIN, NE, 68636","No_Match",NA,NA,NA,NA
347152,"PO BOX 379","GASPORT","NY",14067,NA,NA,152,"PO BOX 379, GASPORT, NY, 14067","No_Match",NA,NA,NA,NA
347153,"PO BOX 379","NEW YORK CITY","NY",10014,NA,NA,153,"PO BOX 379, NEW YORK CITY, NY, 10014","No_Match",NA,NA,NA,NA
347154,"PO BOX 379","NORTH HIGHLANDS","CA",95842,NA,NA,154,"PO BOX 379, NORTH HIGHLANDS, CA, 95842","No_Match",NA,NA,NA,NA
347155,"PO BOX 379","PECK","MI",48466,NA,NA,155,"PO BOX 379, PECK, MI, 48466","No_Match",NA,NA,NA,NA
347156,"PO BOX 3791","ROSWELL","NM",88202,NA,NA,156,"PO BOX 3791, ROSWELL, NM, 88202","No_Match",NA,NA,NA,NA
347157,"PO BOX 3792","TAOS","NM",87571,NA,NA,157,"PO BOX 3792, TAOS, NM, 87571","No_Match",NA,NA,NA,NA
347158,"PO BOX 3793","BOARDMAN","OH",44513,NA,NA,158,"PO BOX 3793, BOARDMAN, OH, 44513","No_Match",NA,NA,NA,NA
347159,"PO BOX 3793","DECATUR","GA",30031,NA,NA,159,"PO BOX 3793, DECATUR, GA, 30031","No_Match",NA,NA,NA,NA
347160,"PO BOX 3795","URBANDALE","IA",50323,NA,NA,160,"PO BOX 3795, URBANDALE, IA, 50323","No_Match",NA,NA,NA,NA
347161,"PO BOX 3796","SAGINAW","MI",48605,NA,NA,161,"PO BOX 3796, SAGINAW, MI, 48605","No_Match",NA,NA,NA,NA
347162,"PO BOX 3797","DICKINSON","ND",58601,NA,NA,162,"PO BOX 3797, DICKINSON, ND, 58601","No_Match",NA,NA,NA,NA
347163,"PO BOX 37970","HONOLULU","HI",96837,NA,NA,163,"PO BOX 37970, HONOLULU, HI, 96837","No_Match",NA,NA,NA,NA
347164,"PO BOX 38  9 JEWEL ROAD","HOLBROOK","MA",2343,42.1559180950001,-71.008264245,164,"PO BOX 38  9 JEWEL ROAD, HOLBROOK, MA, 2343","Match","Exact","9 JEWEL RD, HOLBROOK, MA, 02343",87269373,"R"
347165,"PO BOX 38 8900 NC HWY 35","SEVERN","NC",27877,36.5107975770001,-77.1904056769999,165,"PO BOX 38 8900 NC HWY 35, SEVERN, NC, 27877","Match","Non_Exact","8900 STATE HWY 35, SEVERN, NC, 27877",54069297,"R"
347166,"PO BOX 38","AMBER","OK",73004,NA,NA,166,"PO BOX 38, AMBER, OK, 73004","No_Match",NA,NA,NA,NA
347167,"PO BOX 38","ATLANTIC BEACH","NY",11509,NA,NA,167,"PO BOX 38, ATLANTIC BEACH, NY, 11509","No_Match",NA,NA,NA,NA
347168,"PO BOX 38","BUNKER HILL","WV",25413,NA,NA,168,"PO BOX 38, BUNKER HILL, WV, 25413","No_Match",NA,NA,NA,NA
347169,"PO BOX 38","CARTERSVILLE","VA",23027,NA,NA,169,"PO BOX 38, CARTERSVILLE, VA, 23027","No_Match",NA,NA,NA,NA
347170,"PO BOX 38","CHARDON","OH",44024,NA,NA,170,"PO BOX 38, CHARDON, OH, 44024","No_Match",NA,NA,NA,NA
347171,"PO BOX 38","COLDWATER","MI",49036,NA,NA,171,"PO BOX 38, COLDWATER, MI, 49036","No_Match",NA,NA,NA,NA
347172,"PO BOX 38","EASTVILLE","VA",23347,NA,NA,172,"PO BOX 38, EASTVILLE, VA, 23347","No_Match",NA,NA,NA,NA
347173,"PO BOX 38","ESSEX","NY",12936,NA,NA,173,"PO BOX 38, ESSEX, NY, 12936","No_Match",NA,NA,NA,NA
347174,"PO BOX 38","FLETCHER","NC",28732,NA,NA,174,"PO BOX 38, FLETCHER, NC, 28732","No_Match",NA,NA,NA,NA
347175,"PO BOX 38","GAINESVILLE","TX",76241,NA,NA,175,"PO BOX 38, GAINESVILLE, TX, 76241","No_Match",NA,NA,NA,NA
347176,"PO BOX 38","GAS","VA",23857,NA,NA,176,"PO BOX 38, GAS, VA, 23857","No_Match",NA,NA,NA,NA
347177,"PO BOX 38","GASBURG","VA",23857,NA,NA,177,"PO BOX 38, GASBURG, VA, 23857","No_Match",NA,NA,NA,NA
347178,"PO BOX 38","GILSUM","NH",3448,NA,NA,178,"PO BOX 38, GILSUM, NH, 3448","No_Match",NA,NA,NA,NA
347179,"PO BOX 38","HARLAN","IN",46743,NA,NA,179,"PO BOX 38, HARLAN, IN, 46743","No_Match",NA,NA,NA,NA
347180,"PO BOX 38","HARRINGTON","WA",99134,NA,NA,180,"PO BOX 38, HARRINGTON, WA, 99134","No_Match",NA,NA,NA,NA
347181,"PO BOX 38","HONAUNAU","HI",96726,NA,NA,181,"PO BOX 38, HONAUNAU, HI, 96726","No_Match",NA,NA,NA,NA
347182,"PO BOX 38","LENNOX","SD",57039,NA,NA,182,"PO BOX 38, LENNOX, SD, 57039","No_Match",NA,NA,NA,NA
347183,"PO BOX 38","LOUISBURG","MO",65685,NA,NA,183,"PO BOX 38, LOUISBURG, MO, 65685","No_Match",NA,NA,NA,NA
347184,"PO BOX 38","NEW BOSTON","MI",48164,NA,NA,184,"PO BOX 38, NEW BOSTON, MI, 48164","No_Match",NA,NA,NA,NA
347185,"PO BOX 38","NEW FREEDOM","PA",17349,NA,NA,185,"PO BOX 38, NEW FREEDOM, PA, 17349","No_Match",NA,NA,NA,NA
347186,"PO BOX 38","ONA","WV",25545,NA,NA,186,"PO BOX 38, ONA, WV, 25545","No_Match",NA,NA,NA,NA
347187,"PO BOX 38","OSCODA","MI",48750,NA,NA,187,"PO BOX 38, OSCODA, MI, 48750","No_Match",NA,NA,NA,NA
347188,"PO BOX 38","PAINTSVILLE","KY",41240,NA,NA,188,"PO BOX 38, PAINTSVILLE, KY, 41240","No_Match",NA,NA,NA,NA
347189,"PO BOX 38","PELHAM","NH",3076,NA,NA,189,"PO BOX 38, PELHAM, NH, 3076","No_Match",NA,NA,NA,NA
347190,"PO BOX 38","PLAINFIELD","IN",46168,NA,NA,190,"PO BOX 38, PLAINFIELD, IN, 46168","No_Match",NA,NA,NA,NA
347191,"PO BOX 38","POTSDAM","OH",45361,NA,NA,191,"PO BOX 38, POTSDAM, OH, 45361","No_Match",NA,NA,NA,NA
347192,"PO BOX 38","SELMA","CA",93662,NA,NA,192,"PO BOX 38, SELMA, CA, 93662","No_Match",NA,NA,NA,NA
347193,"PO BOX 38","ST FRANCISVILLE","LA",70775,NA,NA,193,"PO BOX 38, ST FRANCISVILLE, LA, 70775","No_Match",NA,NA,NA,NA
347194,"PO BOX 38","SUBLIMITY","OR",97385,NA,NA,194,"PO BOX 38, SUBLIMITY, OR, 97385","No_Match",NA,NA,NA,NA
347195,"PO BOX 38","VENICE","IL",62060,NA,NA,195,"PO BOX 38, VENICE, IL, 62060","No_Match",NA,NA,NA,NA
347196,"PO BOX 38","VESTAL","NY",13850,NA,NA,196,"PO BOX 38, VESTAL, NY, 13850","No_Match",NA,NA,NA,NA
347197,"PO BOX 380 ATTN SUSAN BARNES","EAST BARRE","VT",5649,NA,NA,197,"PO BOX 380 ATTN SUSAN BARNES, EAST BARRE, VT, 5649","No_Match",NA,NA,NA,NA
347198,"PO BOX 380","JERSEY CITY","NJ",7303,NA,NA,198,"PO BOX 380, JERSEY CITY, NJ, 7303","No_Match",NA,NA,NA,NA
347199,"PO BOX 380","RINCON","PR",677,NA,NA,199,"PO BOX 380, RINCON, PR, 677","No_Match",NA,NA,NA,NA
347200,"PO BOX 380","VICTOR","NY",14564,NA,NA,200,"PO BOX 380, VICTOR, NY, 14564","No_Match",NA,NA,NA,NA
347201,"PO BOX 380020","CAMBRIDGE","MA",2238,NA,NA,201,"PO BOX 380020, CAMBRIDGE, MA, 2238","No_Match",NA,NA,NA,NA
347202,"PO BOX 380071","DUNCANVILLE","TX",75183,NA,NA,202,"PO BOX 380071, DUNCANVILLE, TX, 75183","No_Match",NA,NA,NA,NA
347203,"PO BOX 3801","CRESTED BUTTE","CO",81224,NA,NA,203,"PO BOX 3801, CRESTED BUTTE, CO, 81224","No_Match",NA,NA,NA,NA
347204,"PO BOX 380156","MURDOCK","FL",33938,NA,NA,204,"PO BOX 380156, MURDOCK, FL, 33938","No_Match",NA,NA,NA,NA
347205,"PO BOX 3802","EASTON","PA",18043,NA,NA,205,"PO BOX 3802, EASTON, PA, 18043","No_Match",NA,NA,NA,NA
347206,"PO BOX 3802","ERIE","PA",16508,NA,NA,206,"PO BOX 3802, ERIE, PA, 16508","No_Match",NA,NA,NA,NA
347207,"PO BOX 380204","BIRMINGHAM","AL",35238,NA,NA,207,"PO BOX 380204, BIRMINGHAM, AL, 35238","No_Match",NA,NA,NA,NA
347208,"PO BOX 38023","CHARLOTTE","NC",28278,NA,NA,208,"PO BOX 38023, CHARLOTTE, NC, 28278","No_Match",NA,NA,NA,NA
347209,"PO BOX 380230","CAMBRIDGE","MA",2238,NA,NA,209,"PO BOX 380230, CAMBRIDGE, MA, 2238","No_Match",NA,NA,NA,NA
347210,"PO BOX 380252","MIAMI","FL",33238,NA,NA,210,"PO BOX 380252, MIAMI, FL, 33238","No_Match",NA,NA,NA,NA
347211,"PO BOX 380266","CLINTON TOWNSHIP","MI",48038,NA,NA,211,"PO BOX 380266, CLINTON TOWNSHIP, MI, 48038","No_Match",NA,NA,NA,NA
347212,"PO BOX 38028","GERMANTOWN","TN",38183,NA,NA,212,"PO BOX 38028, GERMANTOWN, TN, 38183","No_Match",NA,NA,NA,NA
347213,"PO BOX 3803","MILTON","FL",32572,NA,NA,213,"PO BOX 3803, MILTON, FL, 32572","No_Match",NA,NA,NA,NA
347214,"PO BOX 380314","MIAMI","FL",33238,NA,NA,214,"PO BOX 380314, MIAMI, FL, 33238","No_Match",NA,NA,NA,NA
347215,"PO BOX 380336","CAMBRIDGE","MA",2238,NA,NA,215,"PO BOX 380336, CAMBRIDGE, MA, 2238","No_Match",NA,NA,NA,NA
347216,"PO BOX 3804","HONOLULU","HI",96812,NA,NA,216,"PO BOX 3804, HONOLULU, HI, 96812","No_Match",NA,NA,NA,NA
347217,"PO BOX 380411","CAMBRIDGE","MA",2138,NA,NA,217,"PO BOX 380411, CAMBRIDGE, MA, 2138","No_Match",NA,NA,NA,NA
347218,"PO BOX 38052","CHARLOTTE","NC",28278,NA,NA,218,"PO BOX 38052, CHARLOTTE, NC, 28278","No_Match",NA,NA,NA,NA
347219,"PO BOX 3806","OMAK","WA",98841,NA,NA,219,"PO BOX 3806, OMAK, WA, 98841","No_Match",NA,NA,NA,NA
347220,"PO BOX 380624","MURDOCK","FL",33938,NA,NA,220,"PO BOX 380624, MURDOCK, FL, 33938","No_Match",NA,NA,NA,NA
347221,"PO BOX 38069","CHARLOTTE","NC",28278,NA,NA,221,"PO BOX 38069, CHARLOTTE, NC, 28278","No_Match",NA,NA,NA,NA
347222,"PO BOX 38070","TALLAHASSEE","FL",32315,NA,NA,222,"PO BOX 38070, TALLAHASSEE, FL, 32315","No_Match",NA,NA,NA,NA
347223,"PO BOX 380714","BIRMINGHAM","AL",35238,NA,NA,223,"PO BOX 380714, BIRMINGHAM, AL, 35238","No_Match",NA,NA,NA,NA
347224,"PO BOX 38073","RICHMOND","VA",23231,NA,NA,224,"PO BOX 38073, RICHMOND, VA, 23231","No_Match",NA,NA,NA,NA
347225,"PO BOX 380754","MURDOCK","FL",33938,NA,NA,225,"PO BOX 380754, MURDOCK, FL, 33938","No_Match",NA,NA,NA,NA
347226,"PO BOX 380871","MIAMI","FL",33238,NA,NA,226,"PO BOX 380871, MIAMI, FL, 33238","No_Match",NA,NA,NA,NA
347227,"PO BOX 380875","CAMBRIDGE","MA",2238,NA,NA,227,"PO BOX 380875, CAMBRIDGE, MA, 2238","No_Match",NA,NA,NA,NA
347228,"PO BOX 3809","S PASADENA","CA",91031,NA,NA,228,"PO BOX 3809, S PASADENA, CA, 91031","No_Match",NA,NA,NA,NA
347229,"PO BOX 38091","CHARLOTTE","NC",28278,NA,NA,229,"PO BOX 38091, CHARLOTTE, NC, 28278","No_Match",NA,NA,NA,NA
347230,"PO BOX 380982","BROOKLYN","NY",11238,NA,NA,230,"PO BOX 380982, BROOKLYN, NY, 11238","No_Match",NA,NA,NA,NA
347231,"PO BOX 380988","DUNCANVILLE","TX",75138,NA,NA,231,"PO BOX 380988, DUNCANVILLE, TX, 75138","No_Match",NA,NA,NA,NA
347232,"PO BOX 381 FOR 136 HEMINGWAY ROAD","BRANT LAKE","NY",12815,43.724053101,-73.715789846,232,"PO BOX 381 FOR 136 HEMINGWAY ROAD, BRANT LAKE, NY, 12815","Match","Exact","136 HEMINGWAY RD, BRANT LAKE, NY, 12815",173925096,"R"
347233,"PO BOX 381","BARNEGAT","NJ",8005,NA,NA,233,"PO BOX 381, BARNEGAT, NJ, 8005","No_Match",NA,NA,NA,NA
347234,"PO BOX 381","BELFRY","KY",41514,NA,NA,234,"PO BOX 381, BELFRY, KY, 41514","No_Match",NA,NA,NA,NA
347235,"PO BOX 381","BELMONT","NC",28012,NA,NA,235,"PO BOX 381, BELMONT, NC, 28012","No_Match",NA,NA,NA,NA
347236,"PO BOX 381","BUFFALO","NY",14205,NA,NA,236,"PO BOX 381, BUFFALO, NY, 14205","No_Match",NA,NA,NA,NA
347237,"PO BOX 381","CHARLESTON","MS",38921,NA,NA,237,"PO BOX 381, CHARLESTON, MS, 38921","No_Match",NA,NA,NA,NA
347238,"PO BOX 381","CHEHALIS","WA",98532,NA,NA,238,"PO BOX 381, CHEHALIS, WA, 98532","No_Match",NA,NA,NA,NA
347239,"PO BOX 381","CHRISTOVAL","TX",76935,NA,NA,239,"PO BOX 381, CHRISTOVAL, TX, 76935","No_Match",NA,NA,NA,NA
347240,"PO BOX 381","COULEE CITY","WA",99115,NA,NA,240,"PO BOX 381, COULEE CITY, WA, 99115","No_Match",NA,NA,NA,NA
347241,"PO BOX 381","DECATUR","AL",35602,NA,NA,241,"PO BOX 381, DECATUR, AL, 35602","No_Match",NA,NA,NA,NA
347242,"PO BOX 381","DILLSBORO","IN",47018,NA,NA,242,"PO BOX 381, DILLSBORO, IN, 47018","No_Match",NA,NA,NA,NA
347243,"PO BOX 381","ELLISVILLE","MS",39437,NA,NA,243,"PO BOX 381, ELLISVILLE, MS, 39437","No_Match",NA,NA,NA,NA
347244,"PO BOX 381","FAIRFAX","VT",5454,NA,NA,244,"PO BOX 381, FAIRFAX, VT, 5454","No_Match",NA,NA,NA,NA
347245,"PO BOX 381","GOLDEN","CO",80402,NA,NA,245,"PO BOX 381, GOLDEN, CO, 80402","No_Match",NA,NA,NA,NA
347246,"PO BOX 381","HENRICO","VA",23075,NA,NA,246,"PO BOX 381, HENRICO, VA, 23075","No_Match",NA,NA,NA,NA
347247,"PO BOX 381","HODGENVILLE","KY",42748,NA,NA,247,"PO BOX 381, HODGENVILLE, KY, 42748","No_Match",NA,NA,NA,NA
347248,"PO BOX 381","HYNDMAN","PA",15545,NA,NA,248,"PO BOX 381, HYNDMAN, PA, 15545","No_Match",NA,NA,NA,NA
347249,"PO BOX 381","IDYLLWILD","CA",92549,NA,NA,249,"PO BOX 381, IDYLLWILD, CA, 92549","No_Match",NA,NA,NA,NA
347250,"PO BOX 381","ITHACA","NY",14851,NA,NA,250,"PO BOX 381, ITHACA, NY, 14851","No_Match",NA,NA,NA,NA
347251,"PO BOX 381","LULING","TX",78648,NA,NA,251,"PO BOX 381, LULING, TX, 78648","No_Match",NA,NA,NA,NA
347252,"PO BOX 381","N CLARENDON","VT",5759,NA,NA,252,"PO BOX 381, N CLARENDON, VT, 5759","No_Match",NA,NA,NA,NA
347253,"PO BOX 381","NEHALEM","OR",97131,NA,NA,253,"PO BOX 381, NEHALEM, OR, 97131","No_Match",NA,NA,NA,NA
347254,"PO BOX 381","PURCELLVILLE","VA",20134,NA,NA,254,"PO BOX 381, PURCELLVILLE, VA, 20134","No_Match",NA,NA,NA,NA
347255,"PO BOX 381","STACY","MN",55079,NA,NA,255,"PO BOX 381, STACY, MN, 55079","No_Match",NA,NA,NA,NA
347256,"PO BOX 381","SYCAMORE","OH",44882,NA,NA,256,"PO BOX 381, SYCAMORE, OH, 44882","No_Match",NA,NA,NA,NA
347257,"PO BOX 381","TICKFAW","LA",70466,NA,NA,257,"PO BOX 381, TICKFAW, LA, 70466","No_Match",NA,NA,NA,NA
347258,"PO BOX 381","VASS","NC",28394,NA,NA,258,"PO BOX 381, VASS, NC, 28394","No_Match",NA,NA,NA,NA
347259,"PO BOX 381","YOUNGSTOWN","NY",14174,NA,NA,259,"PO BOX 381, YOUNGSTOWN, NY, 14174","No_Match",NA,NA,NA,NA
347260,"PO BOX 38100","PHOENIX","AZ",85069,NA,NA,260,"PO BOX 38100, PHOENIX, AZ, 85069","No_Match",NA,NA,NA,NA
347261,"PO BOX 381002","BROOKLYN","NY",11238,NA,NA,261,"PO BOX 381002, BROOKLYN, NY, 11238","No_Match",NA,NA,NA,NA
347262,"PO BOX 381030","CAMBRIDGE","MA",2238,NA,NA,262,"PO BOX 381030, CAMBRIDGE, MA, 2238","No_Match",NA,NA,NA,NA
347263,"PO BOX 381094","CLINTON TOWNSHIP","MI",48038,NA,NA,263,"PO BOX 381094, CLINTON TOWNSHIP, MI, 48038","No_Match",NA,NA,NA,NA
347264,"PO BOX 381164","CLINTON TWP","MI",48038,NA,NA,264,"PO BOX 381164, CLINTON TWP, MI, 48038","No_Match",NA,NA,NA,NA
347265,"PO BOX 3812","MISSISSIPPI STATE","MS",39762,NA,NA,265,"PO BOX 3812, MISSISSIPPI STATE, MS, 39762","No_Match",NA,NA,NA,NA
347266,"PO BOX 3812","OAKLAND","CA",94609,NA,NA,266,"PO BOX 3812, OAKLAND, CA, 94609","No_Match",NA,NA,NA,NA
347267,"PO BOX 3812","TONOPAH","NV",89049,NA,NA,267,"PO BOX 3812, TONOPAH, NV, 89049","No_Match",NA,NA,NA,NA
347268,"PO BOX 381232","DUNCANVILLE","TX",75148,NA,NA,268,"PO BOX 381232, DUNCANVILLE, TX, 75148","No_Match",NA,NA,NA,NA
347269,"PO BOX 381247","CAMBRIDGE","MA",2238,NA,NA,269,"PO BOX 381247, CAMBRIDGE, MA, 2238","No_Match",NA,NA,NA,NA
347270,"PO BOX 3813","ERIE","PA",16508,NA,NA,270,"PO BOX 3813, ERIE, PA, 16508","No_Match",NA,NA,NA,NA
347271,"PO BOX 3813","SUMTER","SC",29151,NA,NA,271,"PO BOX 3813, SUMTER, SC, 29151","No_Match",NA,NA,NA,NA
347272,"PO BOX 381373","DUNCANVILLE","TX",75138,NA,NA,272,"PO BOX 381373, DUNCANVILLE, TX, 75138","No_Match",NA,NA,NA,NA
347273,"PO BOX 3814","CHERRY HILL","NJ",8034,NA,NA,273,"PO BOX 3814, CHERRY HILL, NJ, 8034","No_Match",NA,NA,NA,NA
347274,"PO BOX 3814","VALDOSTA","GA",31604,NA,NA,274,"PO BOX 3814, VALDOSTA, GA, 31604","No_Match",NA,NA,NA,NA
347275,"PO BOX 38141","HONOLULU","HI",96837,NA,NA,275,"PO BOX 38141, HONOLULU, HI, 96837","No_Match",NA,NA,NA,NA
347276,"PO BOX 381467","GERMANTOWN","TN",38183,NA,NA,276,"PO BOX 381467, GERMANTOWN, TN, 38183","No_Match",NA,NA,NA,NA
347277,"PO BOX 3815","PIKEVILLE","KY",41502,NA,NA,277,"PO BOX 3815, PIKEVILLE, KY, 41502","No_Match",NA,NA,NA,NA
347278,"PO BOX 3816","DECATUR","IL",62524,NA,NA,278,"PO BOX 3816, DECATUR, IL, 62524","No_Match",NA,NA,NA,NA
347279,"PO BOX 3816","OAK PARK","IL",60301,NA,NA,279,"PO BOX 3816, OAK PARK, IL, 60301","No_Match",NA,NA,NA,NA
347280,"PO BOX 381713","MIAMI","FL",33238,NA,NA,280,"PO BOX 381713, MIAMI, FL, 33238","No_Match",NA,NA,NA,NA
347281,"PO BOX 381715","BIRMINGHAM","AL",35238,NA,NA,281,"PO BOX 381715, BIRMINGHAM, AL, 35238","No_Match",NA,NA,NA,NA
347282,"PO BOX 381754","DUNCANVILLE","TX",75138,NA,NA,282,"PO BOX 381754, DUNCANVILLE, TX, 75138","No_Match",NA,NA,NA,NA
347283,"PO BOX 381808","DUNCANVILLE","TX",75138,NA,NA,283,"PO BOX 381808, DUNCANVILLE, TX, 75138","No_Match",NA,NA,NA,NA
347284,"PO BOX 382","ATCO","NJ",8004,NA,NA,284,"PO BOX 382, ATCO, NJ, 8004","No_Match",NA,NA,NA,NA
347285,"PO BOX 382","BOONE","NC",28607,NA,NA,285,"PO BOX 382, BOONE, NC, 28607","No_Match",NA,NA,NA,NA
347286,"PO BOX 382","BRIDGEHAMPTON","NY",11932,NA,NA,286,"PO BOX 382, BRIDGEHAMPTON, NY, 11932","No_Match",NA,NA,NA,NA
347287,"PO BOX 382","CAMILLA","GA",31730,NA,NA,287,"PO BOX 382, CAMILLA, GA, 31730","No_Match",NA,NA,NA,NA
347288,"PO BOX 382","COLOMA","MI",49038,NA,NA,288,"PO BOX 382, COLOMA, MI, 49038","No_Match",NA,NA,NA,NA
347289,"PO BOX 382","DIVIDE","CO",80814,NA,NA,289,"PO BOX 382, DIVIDE, CO, 80814","No_Match",NA,NA,NA,NA
347290,"PO BOX 382","EAST HADDAM","CT",6423,NA,NA,290,"PO BOX 382, EAST HADDAM, CT, 6423","No_Match",NA,NA,NA,NA
347291,"PO BOX 382","EAST TEXAS","PA",18046,NA,NA,291,"PO BOX 382, EAST TEXAS, PA, 18046","No_Match",NA,NA,NA,NA
347292,"PO BOX 382","ELVERSON","PA",19520,NA,NA,292,"PO BOX 382, ELVERSON, PA, 19520","No_Match",NA,NA,NA,NA
347293,"PO BOX 382","FAIRPLAY","CO",80440,NA,NA,293,"PO BOX 382, FAIRPLAY, CO, 80440","No_Match",NA,NA,NA,NA
347294,"PO BOX 382","GAINESVILLE","TX",76241,NA,NA,294,"PO BOX 382, GAINESVILLE, TX, 76241","No_Match",NA,NA,NA,NA
347295,"PO BOX 382","GREEN COVE SPRINGS","FL",32043,NA,NA,295,"PO BOX 382, GREEN COVE SPRINGS, FL, 32043","No_Match",NA,NA,NA,NA
347296,"PO BOX 382","HAYS","KS",67601,NA,NA,296,"PO BOX 382, HAYS, KS, 67601","No_Match",NA,NA,NA,NA
347297,"PO BOX 382","HENDERSONVILLE","TN",37075,NA,NA,297,"PO BOX 382, HENDERSONVILLE, TN, 37075","No_Match",NA,NA,NA,NA
347298,"PO BOX 382","MARSHALL","VA",20116,NA,NA,298,"PO BOX 382, MARSHALL, VA, 20116","No_Match",NA,NA,NA,NA
347299,"PO BOX 382","MULLAN","ID",83846,NA,NA,299,"PO BOX 382, MULLAN, ID, 83846","No_Match",NA,NA,NA,NA
347300,"PO BOX 382","NEWTON FALLS","OH",44444,NA,NA,300,"PO BOX 382, NEWTON FALLS, OH, 44444","No_Match",NA,NA,NA,NA
347301,"PO BOX 382","OSCODA","MI",48750,NA,NA,301,"PO BOX 382, OSCODA, MI, 48750","No_Match",NA,NA,NA,NA
347302,"PO BOX 382","PERHAM","MN",56573,NA,NA,302,"PO BOX 382, PERHAM, MN, 56573","No_Match",NA,NA,NA,NA
347303,"PO BOX 382","PLYMOUTH","FL",32768,NA,NA,303,"PO BOX 382, PLYMOUTH, FL, 32768","No_Match",NA,NA,NA,NA
347304,"PO BOX 382","REDMOND","OR",97756,NA,NA,304,"PO BOX 382, REDMOND, OR, 97756","No_Match",NA,NA,NA,NA
347305,"PO BOX 382","SAINT PETER","MN",56082,NA,NA,305,"PO BOX 382, SAINT PETER, MN, 56082","No_Match",NA,NA,NA,NA
347306,"PO BOX 382","TIPTON","IA",52772,NA,NA,306,"PO BOX 382, TIPTON, IA, 52772","No_Match",NA,NA,NA,NA
347307,"PO BOX 382","VICTORIA","KS",67671,NA,NA,307,"PO BOX 382, VICTORIA, KS, 67671","No_Match",NA,NA,NA,NA
347308,"PO BOX 382","WAUKEE","IA",50263,NA,NA,308,"PO BOX 382, WAUKEE, IA, 50263","No_Match",NA,NA,NA,NA
347309,"PO BOX 382","WAWARSING","NY",12489,NA,NA,309,"PO BOX 382, WAWARSING, NY, 12489","No_Match",NA,NA,NA,NA
347310,"PO BOX 382","WELLINGTON","CO",80549,NA,NA,310,"PO BOX 382, WELLINGTON, CO, 80549","No_Match",NA,NA,NA,NA
347311,"PO BOX 382","WILLISTON","FL",32696,NA,NA,311,"PO BOX 382, WILLISTON, FL, 32696","No_Match",NA,NA,NA,NA
347312,"PO BOX 382034","BIRMINGHAM","AL",35238,NA,NA,312,"PO BOX 382034, BIRMINGHAM, AL, 35238","No_Match",NA,NA,NA,NA
347313,"PO BOX 38207","HOUSTON","TX",77238,NA,NA,313,"PO BOX 38207, HOUSTON, TX, 77238","No_Match",NA,NA,NA,NA
347314,"PO BOX 3821","BUTTE","MT",59702,NA,NA,314,"PO BOX 3821, BUTTE, MT, 59702","No_Match",NA,NA,NA,NA
347315,"PO BOX 3821","KANSAS CITY","KS",66103,NA,NA,315,"PO BOX 3821, KANSAS CITY, KS, 66103","No_Match",NA,NA,NA,NA
347316,"PO BOX 382207","MIAMI","FM",33238,NA,NA,316,"PO BOX 382207, MIAMI, FM, 33238","No_Match",NA,NA,NA,NA
347317,"PO BOX 382221","GERMANTOWN","TN",38183,NA,NA,317,"PO BOX 382221, GERMANTOWN, TN, 38183","No_Match",NA,NA,NA,NA
347318,"PO BOX 382252","GERMANTOWN","TN",38183,NA,NA,318,"PO BOX 382252, GERMANTOWN, TN, 38183","No_Match",NA,NA,NA,NA
347319,"PO BOX 3823","BRYAN","TX",77805,NA,NA,319,"PO BOX 3823, BRYAN, TX, 77805","No_Match",NA,NA,NA,NA
347320,"PO BOX 3823","CARY","NC",27519,NA,NA,320,"PO BOX 3823, CARY, NC, 27519","No_Match",NA,NA,NA,NA
347321,"PO BOX 382362","GERMANTOWN","TN",38183,NA,NA,321,"PO BOX 382362, GERMANTOWN, TN, 38183","No_Match",NA,NA,NA,NA
347322,"PO BOX 382436","BIRMINGHAM","AL",35238,NA,NA,322,"PO BOX 382436, BIRMINGHAM, AL, 35238","No_Match",NA,NA,NA,NA
347323,"PO BOX 3826","SHAWNEE","KS",66203,NA,NA,323,"PO BOX 3826, SHAWNEE, KS, 66203","No_Match",NA,NA,NA,NA
347324,"PO BOX 3826","VIRGINIA BEACH","VA",23454,NA,NA,324,"PO BOX 3826, VIRGINIA BEACH, VA, 23454","No_Match",NA,NA,NA,NA
347325,"PO BOX 382621","DUNCANVILLE","TX",75138,NA,NA,325,"PO BOX 382621, DUNCANVILLE, TX, 75138","No_Match",NA,NA,NA,NA
347326,"PO BOX 382641","GERMANTOWN","TN",38138,NA,NA,326,"PO BOX 382641, GERMANTOWN, TN, 38138","No_Match",NA,NA,NA,NA
347327,"PO BOX 382852","DUNCANVILLE","TX",75138,NA,NA,327,"PO BOX 382852, DUNCANVILLE, TX, 75138","No_Match",NA,NA,NA,NA
347328,"PO BOX 382886","DUNCANVILLE","TX",75138,NA,NA,328,"PO BOX 382886, DUNCANVILLE, TX, 75138","No_Match",NA,NA,NA,NA
347329,"PO BOX 3829","PHILADELPHIA","PA",19146,NA,NA,329,"PO BOX 3829, PHILADELPHIA, PA, 19146","No_Match",NA,NA,NA,NA
347330,"PO BOX 382904","DUNCANVILLE","TX",75138,NA,NA,330,"PO BOX 382904, DUNCANVILLE, TX, 75138","No_Match",NA,NA,NA,NA
347331,"PO BOX 38291","BALTIMORE","MD",21231,NA,NA,331,"PO BOX 38291, BALTIMORE, MD, 21231","No_Match",NA,NA,NA,NA
347332,"PO BOX 383","BATAVIA","IL",60510,NA,NA,332,"PO BOX 383, BATAVIA, IL, 60510","No_Match",NA,NA,NA,NA
347333,"PO BOX 383","BIRMINGHAM","MI",48012,NA,NA,333,"PO BOX 383, BIRMINGHAM, MI, 48012","No_Match",NA,NA,NA,NA
347334,"PO BOX 383","CHAPEL HILL","NC",27514,NA,NA,334,"PO BOX 383, CHAPEL HILL, NC, 27514","No_Match",NA,NA,NA,NA
347335,"PO BOX 383","CHARLTON CITY","MA",1508,NA,NA,335,"PO BOX 383, CHARLTON CITY, MA, 1508","No_Match",NA,NA,NA,NA
347336,"PO BOX 383","JOHNSON","VT",5656,NA,NA,336,"PO BOX 383, JOHNSON, VT, 5656","No_Match",NA,NA,NA,NA
347337,"PO BOX 383","LITCHFIELD PARK","AZ",85340,NA,NA,337,"PO BOX 383, LITCHFIELD PARK, AZ, 85340","No_Match",NA,NA,NA,NA
347338,"PO BOX 383","LITTLESTOWN","PA",17340,NA,NA,338,"PO BOX 383, LITTLESTOWN, PA, 17340","No_Match",NA,NA,NA,NA
347339,"PO BOX 383","MORRISON","CO",80465,NA,NA,339,"PO BOX 383, MORRISON, CO, 80465","No_Match",NA,NA,NA,NA
347340,"PO BOX 383","OLATHE","KS",66051,NA,NA,340,"PO BOX 383, OLATHE, KS, 66051","No_Match",NA,NA,NA,NA
347341,"PO BOX 383","RONAN","MT",59864,NA,NA,341,"PO BOX 383, RONAN, MT, 59864","No_Match",NA,NA,NA,NA
347342,"PO BOX 383","ROSCOMMON","MI",48653,NA,NA,342,"PO BOX 383, ROSCOMMON, MI, 48653","No_Match",NA,NA,NA,NA
347343,"PO BOX 383","WEST HURLEY","NY",12491,NA,NA,343,"PO BOX 383, WEST HURLEY, NY, 12491","No_Match",NA,NA,NA,NA
347344,"PO BOX 383","WILLMAR","MN",56201,NA,NA,344,"PO BOX 383, WILLMAR, MN, 56201","No_Match",NA,NA,NA,NA
347345,"PO BOX 383002","WAIKOLOA","HI",96738,NA,NA,345,"PO BOX 383002, WAIKOLOA, HI, 96738","No_Match",NA,NA,NA,NA
347346,"PO BOX 383005","WAIKOLOA","HI",96738,NA,NA,346,"PO BOX 383005, WAIKOLOA, HI, 96738","No_Match",NA,NA,NA,NA
347347,"PO BOX 38301","ALBANY","NY",12203,NA,NA,347,"PO BOX 38301, ALBANY, NY, 12203","No_Match",NA,NA,NA,NA
347348,"PO BOX 383027","DUNCANVILLE","TX",75138,NA,NA,348,"PO BOX 383027, DUNCANVILLE, TX, 75138","No_Match",NA,NA,NA,NA
347349,"PO BOX 383102","DUNCANVILLE","TX",75138,NA,NA,349,"PO BOX 383102, DUNCANVILLE, TX, 75138","No_Match",NA,NA,NA,NA
347350,"PO BOX 383234","BIRMINGHAM","AL",35238,NA,NA,350,"PO BOX 383234, BIRMINGHAM, AL, 35238","No_Match",NA,NA,NA,NA
347351,"PO BOX 3834","MANSFIELD","OH",44907,NA,NA,351,"PO BOX 3834, MANSFIELD, OH, 44907","No_Match",NA,NA,NA,NA
347352,"PO BOX 38340","ALDEN MANOR","NY",11003,NA,NA,352,"PO BOX 38340, ALDEN MANOR, NY, 11003","No_Match",NA,NA,NA,NA
347353,"PO BOX 3836","SIERRA VISTA","AZ",85636,NA,NA,353,"PO BOX 3836, SIERRA VISTA, AZ, 85636","No_Match",NA,NA,NA,NA
347354,"PO BOX 3837","COEUR D ALENE","ID",83816,NA,NA,354,"PO BOX 3837, COEUR D ALENE, ID, 83816","No_Match",NA,NA,NA,NA
347355,"PO BOX 38381","DALLAS","TX",75218,NA,NA,355,"PO BOX 38381, DALLAS, TX, 75218","No_Match",NA,NA,NA,NA
347356,"PO BOX 38381","RICHMOND","VA",23231,NA,NA,356,"PO BOX 38381, RICHMOND, VA, 23231","No_Match",NA,NA,NA,NA
347357,"PO BOX 38383","PHILADELPHIA","PA",19140,NA,NA,357,"PO BOX 38383, PHILADELPHIA, PA, 19140","No_Match",NA,NA,NA,NA
347358,"PO BOX 384","COOPER","TX",75432,NA,NA,358,"PO BOX 384, COOPER, TX, 75432","No_Match",NA,NA,NA,NA
347359,"PO BOX 384","GILMER","TX",75644,NA,NA,359,"PO BOX 384, GILMER, TX, 75644","No_Match",NA,NA,NA,NA
347360,"PO BOX 384","GRANGER","IA",50109,NA,NA,360,"PO BOX 384, GRANGER, IA, 50109","No_Match",NA,NA,NA,NA
347361,"PO BOX 384","GRAYSON","GA",30017,NA,NA,361,"PO BOX 384, GRAYSON, GA, 30017","No_Match",NA,NA,NA,NA
347362,"PO BOX 384","HOLLY SPRINGS","NC",27540,NA,NA,362,"PO BOX 384, HOLLY SPRINGS, NC, 27540","No_Match",NA,NA,NA,NA
347363,"PO BOX 384","LEONIA","NJ",7605,NA,NA,363,"PO BOX 384, LEONIA, NJ, 7605","No_Match",NA,NA,NA,NA
347364,"PO BOX 384","LEWISBURG","PA",17837,NA,NA,364,"PO BOX 384, LEWISBURG, PA, 17837","No_Match",NA,NA,NA,NA
347365,"PO BOX 384","LONOKE","AR",72086,NA,NA,365,"PO BOX 384, LONOKE, AR, 72086","No_Match",NA,NA,NA,NA
347366,"PO BOX 384","MAPLEWOOD","NJ",7040,NA,NA,366,"PO BOX 384, MAPLEWOOD, NJ, 7040","No_Match",NA,NA,NA,NA
347367,"PO BOX 384","PARSHALL","ND",58770,NA,NA,367,"PO BOX 384, PARSHALL, ND, 58770","No_Match",NA,NA,NA,NA
347368,"PO BOX 384","PAYSON","UT",84651,NA,NA,368,"PO BOX 384, PAYSON, UT, 84651","No_Match",NA,NA,NA,NA
347369,"PO BOX 384","POST FALLS","ID",83877,NA,NA,369,"PO BOX 384, POST FALLS, ID, 83877","No_Match",NA,NA,NA,NA
347370,"PO BOX 384","RAVENNA","MI",49451,NA,NA,370,"PO BOX 384, RAVENNA, MI, 49451","No_Match",NA,NA,NA,NA
347371,"PO BOX 384","RIDGEWOOD","NJ",7450,NA,NA,371,"PO BOX 384, RIDGEWOOD, NJ, 7450","No_Match",NA,NA,NA,NA
347372,"PO BOX 384","RINGLING","OK",73456,NA,NA,372,"PO BOX 384, RINGLING, OK, 73456","No_Match",NA,NA,NA,NA
347373,"PO BOX 384","ROUNDUP","MT",59072,NA,NA,373,"PO BOX 384, ROUNDUP, MT, 59072","No_Match",NA,NA,NA,NA
347374,"PO BOX 384","SMYRNA","TN",37167,NA,NA,374,"PO BOX 384, SMYRNA, TN, 37167","No_Match",NA,NA,NA,NA
347375,"PO BOX 384","ST JOSEPH","MN",56374,NA,NA,375,"PO BOX 384, ST JOSEPH, MN, 56374","No_Match",NA,NA,NA,NA
347376,"PO BOX 384","SUMMERTON","SC",29148,NA,NA,376,"PO BOX 384, SUMMERTON, SC, 29148","No_Match",NA,NA,NA,NA
347377,"PO BOX 384","SUMTER","SC",29151,NA,NA,377,"PO BOX 384, SUMTER, SC, 29151","No_Match",NA,NA,NA,NA
347378,"PO BOX 384","TAZEWELL","TN",37879,NA,NA,378,"PO BOX 384, TAZEWELL, TN, 37879","No_Match",NA,NA,NA,NA
347379,"PO BOX 384","TRAVERSE CITY","MI",49685,NA,NA,379,"PO BOX 384, TRAVERSE CITY, MI, 49685","No_Match",NA,NA,NA,NA
347380,"PO BOX 384","WELLSTON","OH",45692,NA,NA,380,"PO BOX 384, WELLSTON, OH, 45692","No_Match",NA,NA,NA,NA
347381,"PO BOX 384","WINTERS","TX",79567,NA,NA,381,"PO BOX 384, WINTERS, TX, 79567","No_Match",NA,NA,NA,NA
347382,"PO BOX 3840","SAN ANGELO","TX",76902,NA,NA,382,"PO BOX 3840, SAN ANGELO, TX, 76902","No_Match",NA,NA,NA,NA
347383,"PO BOX 38412","DALLAS","TX",75238,NA,NA,383,"PO BOX 38412, DALLAS, TX, 75238","No_Match",NA,NA,NA,NA
347384,"PO BOX 38412","SAINT LOUIS","MO",63138,NA,NA,384,"PO BOX 38412, SAINT LOUIS, MO, 63138","No_Match",NA,NA,NA,NA
347385,"PO BOX 38414","GREENSBORO","NC",27438,NA,NA,385,"PO BOX 38414, GREENSBORO, NC, 27438","No_Match",NA,NA,NA,NA
347386,"PO BOX 3842","ALBANY","NY",12203,NA,NA,386,"PO BOX 3842, ALBANY, NY, 12203","No_Match",NA,NA,NA,NA
347387,"PO BOX 38426","DETROIT","MI",48238,NA,NA,387,"PO BOX 38426, DETROIT, MI, 48238","No_Match",NA,NA,NA,NA
347388,"PO BOX 3843","SAN CLEMENTE","CA",92674,NA,NA,388,"PO BOX 3843, SAN CLEMENTE, CA, 92674","No_Match",NA,NA,NA,NA
347389,"PO BOX 3844","AKRON","OH",44314,NA,NA,389,"PO BOX 3844, AKRON, OH, 44314","No_Match",NA,NA,NA,NA
347390,"PO BOX 3845","GULFPORT","MS",39505,NA,NA,390,"PO BOX 3845, GULFPORT, MS, 39505","No_Match",NA,NA,NA,NA
347391,"PO BOX 38451","SHREVEPORT","LA",71133,NA,NA,391,"PO BOX 38451, SHREVEPORT, LA, 71133","No_Match",NA,NA,NA,NA
347392,"PO BOX 3848","CARMEL","IN",46082,NA,NA,392,"PO BOX 3848, CARMEL, IN, 46082","No_Match",NA,NA,NA,NA
347393,"PO BOX 3848","SANTA ROSA","CA",95402,NA,NA,393,"PO BOX 3848, SANTA ROSA, CA, 95402","No_Match",NA,NA,NA,NA
347394,"PO BOX 385","ADAMS","MA",1220,NA,NA,394,"PO BOX 385, ADAMS, MA, 1220","No_Match",NA,NA,NA,NA
347395,"PO BOX 385","BAKER","MT",59313,NA,NA,395,"PO BOX 385, BAKER, MT, 59313","No_Match",NA,NA,NA,NA
347396,"PO BOX 385","CARNATION","WA",98014,NA,NA,396,"PO BOX 385, CARNATION, WA, 98014","No_Match",NA,NA,NA,NA
347397,"PO BOX 385","GRAY","KY",40734,NA,NA,397,"PO BOX 385, GRAY, KY, 40734","No_Match",NA,NA,NA,NA
347398,"PO BOX 385","HALLOCK","MN",56728,NA,NA,398,"PO BOX 385, HALLOCK, MN, 56728","No_Match",NA,NA,NA,NA
347399,"PO BOX 385","HALLOWELL","ME",4344,NA,NA,399,"PO BOX 385, HALLOWELL, ME, 4344","No_Match",NA,NA,NA,NA
347400,"PO BOX 385","HANCOCK","MI",49930,NA,NA,400,"PO BOX 385, HANCOCK, MI, 49930","No_Match",NA,NA,NA,NA
347401,"PO BOX 385","HOPKINTON","NH",3229,NA,NA,401,"PO BOX 385, HOPKINTON, NH, 3229","No_Match",NA,NA,NA,NA
347402,"PO BOX 385","IRVINGTON","VA",22480,NA,NA,402,"PO BOX 385, IRVINGTON, VA, 22480","No_Match",NA,NA,NA,NA
347403,"PO BOX 385","JOPLIN","MO",64802,NA,NA,403,"PO BOX 385, JOPLIN, MO, 64802","No_Match",NA,NA,NA,NA
347404,"PO BOX 385","KINGWOOD","WV",26537,NA,NA,404,"PO BOX 385, KINGWOOD, WV, 26537","No_Match",NA,NA,NA,NA
347405,"PO BOX 385","LAWRENCEBURG","KY",40342,NA,NA,405,"PO BOX 385, LAWRENCEBURG, KY, 40342","No_Match",NA,NA,NA,NA
347406,"PO BOX 385","LIVELY","VA",22507,NA,NA,406,"PO BOX 385, LIVELY, VA, 22507","No_Match",NA,NA,NA,NA
347407,"PO BOX 385","MC CALLA","AL",35111,NA,NA,407,"PO BOX 385, MC CALLA, AL, 35111","No_Match",NA,NA,NA,NA
347408,"PO BOX 385","MOUNT VERNON","MO",65712,NA,NA,408,"PO BOX 385, MOUNT VERNON, MO, 65712","No_Match",NA,NA,NA,NA
347409,"PO BOX 385","NEWCASTLE","ME",4553,NA,NA,409,"PO BOX 385, NEWCASTLE, ME, 4553","No_Match",NA,NA,NA,NA
347410,"PO BOX 385","OKEENE","OK",73763,NA,NA,410,"PO BOX 385, OKEENE, OK, 73763","No_Match",NA,NA,NA,NA
347411,"PO BOX 385","ROCKWALL","TX",75087,NA,NA,411,"PO BOX 385, ROCKWALL, TX, 75087","No_Match",NA,NA,NA,NA
347412,"PO BOX 385","TALENT","OR",97540,NA,NA,412,"PO BOX 385, TALENT, OR, 97540","No_Match",NA,NA,NA,NA
347413,"PO BOX 385","WYCKOFF","NJ",7481,NA,NA,413,"PO BOX 385, WYCKOFF, NJ, 7481","No_Match",NA,NA,NA,NA
347414,"PO BOX 38504","DALLAS","TX",75238,NA,NA,414,"PO BOX 38504, DALLAS, TX, 75238","No_Match",NA,NA,NA,NA
347415,"PO BOX 3851","GALVESTON","TX",77552,NA,NA,415,"PO BOX 3851, GALVESTON, TX, 77552","No_Match",NA,NA,NA,NA
347416,"PO BOX 38512","HENRICO","VA",23231,NA,NA,416,"PO BOX 38512, HENRICO, VA, 23231","No_Match",NA,NA,NA,NA
347417,"PO BOX 3852","LISLE","IL",60532,NA,NA,417,"PO BOX 3852, LISLE, IL, 60532","No_Match",NA,NA,NA,NA
347418,"PO BOX 38522","CHARLOTTE","NC",28278,NA,NA,418,"PO BOX 38522, CHARLOTTE, NC, 28278","No_Match",NA,NA,NA,NA
347419,"PO BOX 385225","BLOOMINGTON","MN",55438,NA,NA,419,"PO BOX 385225, BLOOMINGTON, MN, 55438","No_Match",NA,NA,NA,NA
347420,"PO BOX 38535","PHILADELPHIA","PA",19194,NA,NA,420,"PO BOX 38535, PHILADELPHIA, PA, 19194","No_Match",NA,NA,NA,NA
347421,"PO BOX 38552","DALLAS","TX",75238,NA,NA,421,"PO BOX 38552, DALLAS, TX, 75238","No_Match",NA,NA,NA,NA
347422,"PO BOX 385528","WAIKOLOA","HI",96738,NA,NA,422,"PO BOX 385528, WAIKOLOA, HI, 96738","No_Match",NA,NA,NA,NA
347423,"PO BOX 3856","LUMBERTON","NC",28359,NA,NA,423,"PO BOX 3856, LUMBERTON, NC, 28359","No_Match",NA,NA,NA,NA
347424,"PO BOX 3856","WINTER PARK","FL",32790,NA,NA,424,"PO BOX 3856, WINTER PARK, FL, 32790","No_Match",NA,NA,NA,NA
347425,"PO BOX 386","ABERDEEN","MS",39730,NA,NA,425,"PO BOX 386, ABERDEEN, MS, 39730","No_Match",NA,NA,NA,NA
347426,"PO BOX 386","BETHLEHEM","PA",18016,NA,NA,426,"PO BOX 386, BETHLEHEM, PA, 18016","No_Match",NA,NA,NA,NA
347427,"PO BOX 386","CHESTERTOWN","NY",12817,NA,NA,427,"PO BOX 386, CHESTERTOWN, NY, 12817","No_Match",NA,NA,NA,NA
347428,"PO BOX 386","COLUMBUS","GA",31902,NA,NA,428,"PO BOX 386, COLUMBUS, GA, 31902","No_Match",NA,NA,NA,NA
347429,"PO BOX 386","DECATUR","IL",62525,NA,NA,429,"PO BOX 386, DECATUR, IL, 62525","No_Match",NA,NA,NA,NA
347430,"PO BOX 386","ELK RAPIDS","MI",49629,NA,NA,430,"PO BOX 386, ELK RAPIDS, MI, 49629","No_Match",NA,NA,NA,NA
347431,"PO BOX 386","GROVEPORT","OH",43125,NA,NA,431,"PO BOX 386, GROVEPORT, OH, 43125","No_Match",NA,NA,NA,NA
347432,"PO BOX 386","HARLETON","TX",75651,NA,NA,432,"PO BOX 386, HARLETON, TX, 75651","No_Match",NA,NA,NA,NA
347433,"PO BOX 386","LOGAN","WV",25601,NA,NA,433,"PO BOX 386, LOGAN, WV, 25601","No_Match",NA,NA,NA,NA
347434,"PO BOX 386","MONROVAI","MD",21770,NA,NA,434,"PO BOX 386, MONROVAI, MD, 21770","No_Match",NA,NA,NA,NA
347435,"PO BOX 386","MUKILTEO","WA",98275,NA,NA,435,"PO BOX 386, MUKILTEO, WA, 98275","No_Match",NA,NA,NA,NA
347436,"PO BOX 386","NEWTOWN","PA",18940,NA,NA,436,"PO BOX 386, NEWTOWN, PA, 18940","No_Match",NA,NA,NA,NA
347437,"PO BOX 386","PORTERDALE","GA",30070,NA,NA,437,"PO BOX 386, PORTERDALE, GA, 30070","No_Match",NA,NA,NA,NA
347438,"PO BOX 386","PRINCETON","MN",55371,NA,NA,438,"PO BOX 386, PRINCETON, MN, 55371","No_Match",NA,NA,NA,NA
347439,"PO BOX 386","RYE BROOK","NY",10579,NA,NA,439,"PO BOX 386, RYE BROOK, NY, 10579","No_Match",NA,NA,NA,NA
347440,"PO BOX 386","SCOTLAND","PA",17254,NA,NA,440,"PO BOX 386, SCOTLAND, PA, 17254","No_Match",NA,NA,NA,NA
347441,"PO BOX 386","TIPP CITY","OH",45371,NA,NA,441,"PO BOX 386, TIPP CITY, OH, 45371","No_Match",NA,NA,NA,NA
347442,"PO BOX 386","WATERFORD","NY",12188,NA,NA,442,"PO BOX 386, WATERFORD, NY, 12188","No_Match",NA,NA,NA,NA
347443,"PO BOX 386","WESTON","WV",26452,NA,NA,443,"PO BOX 386, WESTON, WV, 26452","No_Match",NA,NA,NA,NA
347444,"PO BOX 3860","SCHENECTADY","NY",12303,NA,NA,444,"PO BOX 3860, SCHENECTADY, NY, 12303","No_Match",NA,NA,NA,NA
347445,"PO BOX 38614","CHARLOTTE","NC",28278,NA,NA,445,"PO BOX 38614, CHARLOTTE, NC, 28278","No_Match",NA,NA,NA,NA
347446,"PO BOX 3862","ALBANY","NY",12203,NA,NA,446,"PO BOX 3862, ALBANY, NY, 12203","No_Match",NA,NA,NA,NA
347447,"PO BOX 3862","EDINBURG","TX",78540,NA,NA,447,"PO BOX 3862, EDINBURG, TX, 78540","No_Match",NA,NA,NA,NA
347448,"PO BOX 3862","SALEM","OR",97302,NA,NA,448,"PO BOX 3862, SALEM, OR, 97302","No_Match",NA,NA,NA,NA
347449,"PO BOX 3863","ITHACA","NY",14850,NA,NA,449,"PO BOX 3863, ITHACA, NY, 14850","No_Match",NA,NA,NA,NA
347450,"PO BOX 38635","DETROIT","MI",48238,NA,NA,450,"PO BOX 38635, DETROIT, MI, 48238","No_Match",NA,NA,NA,NA
347451,"PO BOX 3864","MANHATTAN BEACH","CA",90266,NA,NA,451,"PO BOX 3864, MANHATTAN BEACH, CA, 90266","No_Match",NA,NA,NA,NA
347452,"PO BOX 3865","SEDONA","AZ",86340,NA,NA,452,"PO BOX 3865, SEDONA, AZ, 86340","No_Match",NA,NA,NA,NA
347453,"PO BOX 3866","NAMPA","ID",83653,NA,NA,453,"PO BOX 3866, NAMPA, ID, 83653","No_Match",NA,NA,NA,NA
347454,"PO BOX 38682","PHOENIX","AZ",85069,NA,NA,454,"PO BOX 38682, PHOENIX, AZ, 85069","No_Match",NA,NA,NA,NA
347455,"PO BOX 387","BROOKHAVEN","NY",11719,NA,NA,455,"PO BOX 387, BROOKHAVEN, NY, 11719","No_Match",NA,NA,NA,NA
347456,"PO BOX 387","EAST AURORA","NY",14052,NA,NA,456,"PO BOX 387, EAST AURORA, NY, 14052","No_Match",NA,NA,NA,NA
347457,"PO BOX 387","loganville","GA",30047,NA,NA,457,"PO BOX 387, loganville, GA, 30047","No_Match",NA,NA,NA,NA
347458,"PO BOX 387","MENOMONEE FALLS","WI",53052,NA,NA,458,"PO BOX 387, MENOMONEE FALLS, WI, 53052","No_Match",NA,NA,NA,NA
347459,"PO BOX 387","MT PLEASANT","TN",38474,NA,NA,459,"PO BOX 387, MT PLEASANT, TN, 38474","No_Match",NA,NA,NA,NA
347460,"PO BOX 387","OKANOGAN","WA",98840,NA,NA,460,"PO BOX 387, OKANOGAN, WA, 98840","No_Match",NA,NA,NA,NA
347461,"PO BOX 387","RONAN","MT",59864,NA,NA,461,"PO BOX 387, RONAN, MT, 59864","No_Match",NA,NA,NA,NA
347462,"PO BOX 387","SELINSGROVE","PA",17870,NA,NA,462,"PO BOX 387, SELINSGROVE, PA, 17870","No_Match",NA,NA,NA,NA
347463,"PO BOX 387","SPRING","TX",77383,NA,NA,463,"PO BOX 387, SPRING, TX, 77383","No_Match",NA,NA,NA,NA
347464,"PO BOX 387","TILLSON","NY",12486,NA,NA,464,"PO BOX 387, TILLSON, NY, 12486","No_Match",NA,NA,NA,NA
347465,"PO BOX 387","TREZEVANT","TN",38258,NA,NA,465,"PO BOX 387, TREZEVANT, TN, 38258","No_Match",NA,NA,NA,NA
347466,"PO BOX 387","TRUMANSBURG","NY",14886,NA,NA,466,"PO BOX 387, TRUMANSBURG, NY, 14886","No_Match",NA,NA,NA,NA
347467,"PO BOX 387","WINDOW ROCK","AZ",86515,NA,NA,467,"PO BOX 387, WINDOW ROCK, AZ, 86515","No_Match",NA,NA,NA,NA
347468,"PO BOX 3871","CHERRY HILL","NJ",8034,NA,NA,468,"PO BOX 3871, CHERRY HILL, NJ, 8034","No_Match",NA,NA,NA,NA
347469,"PO BOX 3872","ESPANOLA","NM",87533,NA,NA,469,"PO BOX 3872, ESPANOLA, NM, 87533","No_Match",NA,NA,NA,NA
347470,"PO BOX 3872","JERSEY CITY","NJ",7302,NA,NA,470,"PO BOX 3872, JERSEY CITY, NJ, 7302","No_Match",NA,NA,NA,NA
347471,"PO BOX 3873","SARASOTA","FL",34230,NA,NA,471,"PO BOX 3873, SARASOTA, FL, 34230","No_Match",NA,NA,NA,NA
347472,"PO BOX 3875","EDINBURG","TX",78540,NA,NA,472,"PO BOX 3875, EDINBURG, TX, 78540","No_Match",NA,NA,NA,NA
347473,"PO BOX 3876","BIRMINGHAM","AL",35208,NA,NA,473,"PO BOX 3876, BIRMINGHAM, AL, 35208","No_Match",NA,NA,NA,NA
347474,"PO BOX 38772","HENRICO","VI",23231,NA,NA,474,"PO BOX 38772, HENRICO, VI, 23231","No_Match",NA,NA,NA,NA
347475,"PO BOX 3878","MOSCOW","ID",83843,NA,NA,475,"PO BOX 3878, MOSCOW, ID, 83843","No_Match",NA,NA,NA,NA
347476,"PO BOX 3879","PENSACOLA","FL",32516,NA,NA,476,"PO BOX 3879, PENSACOLA, FL, 32516","No_Match",NA,NA,NA,NA
347477,"PO BOX 388","ARTESIA","NM",88211,NA,NA,477,"PO BOX 388, ARTESIA, NM, 88211","No_Match",NA,NA,NA,NA
347478,"PO BOX 388","CORRIGAN","TX",75939,NA,NA,478,"PO BOX 388, CORRIGAN, TX, 75939","No_Match",NA,NA,NA,NA
347479,"PO BOX 388","GHENT","WV",25843,NA,NA,479,"PO BOX 388, GHENT, WV, 25843","No_Match",NA,NA,NA,NA
347480,"PO BOX 388","GOTHA","FM",34734,NA,NA,480,"PO BOX 388, GOTHA, FM, 34734","No_Match",NA,NA,NA,NA
347481,"PO BOX 388","HAGAMAN","NY",12086,NA,NA,481,"PO BOX 388, HAGAMAN, NY, 12086","No_Match",NA,NA,NA,NA
347482,"PO BOX 388","HAMBURG","PA",19526,NA,NA,482,"PO BOX 388, HAMBURG, PA, 19526","No_Match",NA,NA,NA,NA
347483,"PO BOX 388","JOLIET","MT",59041,NA,NA,483,"PO BOX 388, JOLIET, MT, 59041","No_Match",NA,NA,NA,NA
347484,"PO BOX 388","LEWES","DE",19958,NA,NA,484,"PO BOX 388, LEWES, DE, 19958","No_Match",NA,NA,NA,NA
347485,"PO BOX 388","MOBILE","AL",36601,NA,NA,485,"PO BOX 388, MOBILE, AL, 36601","No_Match",NA,NA,NA,NA
347486,"PO BOX 388","SANDWICH","IL",60548,NA,NA,486,"PO BOX 388, SANDWICH, IL, 60548","No_Match",NA,NA,NA,NA
347487,"PO BOX 388","SOMERVILLE","TX",77879,NA,NA,487,"PO BOX 388, SOMERVILLE, TX, 77879","No_Match",NA,NA,NA,NA
347488,"PO BOX 388","WILSON","KS",67490,NA,NA,488,"PO BOX 388, WILSON, KS, 67490","No_Match",NA,NA,NA,NA
347489,"PO BOX 3880","BRANDON","FL",33509,NA,NA,489,"PO BOX 3880, BRANDON, FL, 33509","No_Match",NA,NA,NA,NA
347490,"PO BOX 38802","COLORADO SPRINGS","CO",80937,NA,NA,490,"PO BOX 38802, COLORADO SPRINGS, CO, 80937","No_Match",NA,NA,NA,NA
347491,"PO BOX 388148","CHICAGO","IL",60638,NA,NA,491,"PO BOX 388148, CHICAGO, IL, 60638","No_Match",NA,NA,NA,NA
347492,"PO BOX 3882","BLUFFTON","SC",29910,NA,NA,492,"PO BOX 3882, BLUFFTON, SC, 29910","No_Match",NA,NA,NA,NA
347493,"PO BOX 3882","FREDERICKSBURG","VA",22402,NA,NA,493,"PO BOX 3882, FREDERICKSBURG, VA, 22402","No_Match",NA,NA,NA,NA
347494,"PO BOX 3883","SALEM","OR",97302,NA,NA,494,"PO BOX 3883, SALEM, OR, 97302","No_Match",NA,NA,NA,NA
347495,"PO BOX 3884","SHREVEPORT","LA",71133,NA,NA,495,"PO BOX 3884, SHREVEPORT, LA, 71133","No_Match",NA,NA,NA,NA
347496,"PO BOX 38843","CHARLOTTE","NC",28278,NA,NA,496,"PO BOX 38843, CHARLOTTE, NC, 28278","No_Match",NA,NA,NA,NA
347497,"PO BOX 38844","CHARLOTTE","NC",28278,NA,NA,497,"PO BOX 38844, CHARLOTTE, NC, 28278","No_Match",NA,NA,NA,NA
347498,"PO BOX 38862","CHARLOTTE","NC",28278,NA,NA,498,"PO BOX 38862, CHARLOTTE, NC, 28278","No_Match",NA,NA,NA,NA
347499,"PO BOX 3887","BATESVILLE","AR",72501,NA,NA,499,"PO BOX 3887, BATESVILLE, AR, 72501","No_Match",NA,NA,NA,NA
347500,"PO BOX 38890","DETROIT","MI",48238,NA,NA,500,"PO BOX 38890, DETROIT, MI, 48238","No_Match",NA,NA,NA,NA
