"ID","Address","City","State","Zip","lat","long","id","input_address","match_indicator","match_type","matched_address","tiger_line_id","tiger_side"
22501,"111 SW 5TH AVE STE 3150","PORTLAND","OR",97204,45.522050473,-122.675824262,1,"111 SW 5TH AVE STE 3150, PORTLAND, OR, 97204","Match","Non_Exact","111 SW 5TH AVE, PORTLAND, OR, 97204",157504631,"R"
22502,"111 SW 6TH STREET","FT LAUDERDALE","FL",33301,NA,NA,2,"111 SW 6TH STREET, FT LAUDERDALE, FL, 33301","Tie",NA,NA,NA,NA
22503,"111 SW 75TH TERRACE","PLANTATION","FL",33317,26.11772869,-80.249604762,3,"111 SW 75TH TERRACE, PLANTATION, FL, 33317","Match","Exact","111 SW 75TH TER, PLANTATION, FL, 33317",114704906,"R"
22504,"111 SYCAMORE ST","OWENSBORO","KY",42301,37.77522529,-87.121690449,4,"111 SYCAMORE ST, OWENSBORO, KY, 42301","Match","Exact","111 SYCAMORE ST, OWENSBORO, KY, 42301",37558314,"L"
22505,"111 SYRINGA STREET","BROWNS MILLS","NJ",8015,39.9832440810001,-74.56895076,5,"111 SYRINGA STREET, BROWNS MILLS, NJ, 8015","Match","Exact","111 SYRINGA ST, BROWNS MILLS, NJ, 08015",134044847,"R"
22506,"111 TAHITI CIRCLE","NAPLES","FL",34113,25.9805092710001,-81.73089344,6,"111 TAHITI CIRCLE, NAPLES, FL, 34113","Match","Exact","111 TAHITI CIR, NAPLES, FL, 34113",115122135,"R"
22507,"111 TAYLOR STREET","PHOENIX","AZ",85004,33.453489077,-112.072331994,7,"111 TAYLOR STREET, PHOENIX, AZ, 85004","Match","Non_Exact","111 E TAYLOR ST, PHOENIX, AZ, 85004",128213438,"R"
22508,"111 TERRA BELLA BLVD","COVINGTON","LA",70433,NA,NA,8,"111 TERRA BELLA BLVD, COVINGTON, LA, 70433","No_Match",NA,NA,NA,NA
22509,"111 THOMAS WILLIAM DR","JUDSONIA","AR",72081,35.3128465300001,-91.671721363,9,"111 THOMAS WILLIAM DR, JUDSONIA, AR, 72081","Match","Exact","111 THOMAS WILLIAM DR, JUDSONIA, AR, 72081",641776962,"L"
22510,"111 THORNBERRY TRAIL","JACKSON","GA",30233,33.3396456680001,-83.971016774,10,"111 THORNBERRY TRAIL, JACKSON, GA, 30233","Match","Exact","111 THORNBERRY TRL, JACKSON, GA, 30233",627642487,"L"
22511,"111 TIGER LANE","DRIPPING SPRINGS","TX",78620,30.204662575,-98.120669197,11,"111 TIGER LANE, DRIPPING SPRINGS, TX, 78620","Match","Exact","111 TIGER LN, DRIPPING SPRINGS, TX, 78620",63819084,"R"
22512,"111 TIPTON DRIVE","DAHLONEGA","GA",30533,34.523361161,-83.977659877,12,"111 TIPTON DRIVE, DAHLONEGA, GA, 30533","Match","Exact","111 TIPTON DR, DAHLONEGA, GA, 30533",210897287,"L"
22513,"111 UPPER GLEN DRIVE","BLYTHEWOOD","SC",29016,34.1861559290001,-80.9568379299999,13,"111 UPPER GLEN DRIVE, BLYTHEWOOD, SC, 29016","Match","Exact","111 UPPER GLEN DR, BLYTHEWOOD, SC, 29016",71850162,"L"
22514,"111 VALLEY AVE","HIGHLANDS","NJ",7732,40.398897941,-73.9919003689999,14,"111 VALLEY AVE, HIGHLANDS, NJ, 7732","Match","Exact","111 VALLEY AVE, HIGHLANDS, NJ, 07732",90468565,"L"
22515,"111 VERDANT LAWN FARM","CHARLOTTESVILLE","VA",22901,38.057728803,-78.5672136109999,15,"111 VERDANT LAWN FARM, CHARLOTTESVILLE, VA, 22901","Match","Exact","111 VERDANT LAWN FARM, CHARLOTTESVILLE, VA, 22901",640851488,"L"
22516,"111 VETERANS BLVD SUITE 702","METAIRIE","LA",70005,NA,NA,16,"111 VETERANS BLVD SUITE 702, METAIRIE, LA, 70005","No_Match",NA,NA,NA,NA
22517,"111 VILLAGE TRACE","WOODSTOCK","GA",30188,34.0892285140001,-84.465849485,17,"111 VILLAGE TRACE, WOODSTOCK, GA, 30188","Match","Exact","111 VILLAGE TRCE, WOODSTOCK, GA, 30188",647621161,"L"
22518,"111 VINCENT ST","FOND DU LAC","WI",54935,43.7754196880001,-88.430449742,18,"111 VINCENT ST, FOND DU LAC, WI, 54935","Match","Exact","111 VINCENT ST, FOND DU LAC, WI, 54935",74811542,"L"
22519,"111 W 10TH STREET","KANSAS CITY","MO",64105,39.102255164,-94.5844225279999,19,"111 W 10TH STREET, KANSAS CITY, MO, 64105","Match","Exact","111 W 10TH ST, KANSAS CITY, MO, 64105",91445154,"L"
22520,"111 W 11TH AVE","TYNDALL","SD",57066,42.986015003,-97.862777917,20,"111 W 11TH AVE, TYNDALL, SD, 57066","Match","Exact","111 W 11TH AVE, TYNDALL, SD, 57066",172927341,"L"
22521,"111 W 5TH STREET","TYLER","TX",75701,32.3310309930001,-95.300886711,21,"111 W 5TH STREET, TYLER, TX, 75701","Match","Exact","111 W 5TH ST, TYLER, TX, 75701",141271710,"R"
22522,"111 W 7TH ST/ STE 502","LOS ANGELES","CA",90014,NA,NA,22,"111 W 7TH ST/ STE 502, LOS ANGELES, CA, 90014","No_Match",NA,NA,NA,NA
22523,"111 W ANDERSON LN SUITE E330","AUSTIN","TX",78752,NA,NA,23,"111 W ANDERSON LN SUITE E330, AUSTIN, TX, 78752","Tie",NA,NA,NA,NA
22524,"111 W ANDESON LN STE D-211","AUSTIN","TX",78752,NA,NA,24,"111 W ANDESON LN STE D-211, AUSTIN, TX, 78752","No_Match",NA,NA,NA,NA
22525,"111 W AVENIDA PALIZADA","SAN CLEMENTE","CA",92672,33.4293824160001,-117.61564585,25,"111 W AVENIDA PALIZADA, SAN CLEMENTE, CA, 92672","Match","Exact","111 W AVE PALIZADA, SAN CLEMENTE, CA, 92672",609047769,"L"
22526,"111 W BROADWAY","BOLIVAR","MO",65613,37.613959708,-93.4118883259999,26,"111 W BROADWAY, BOLIVAR, MO, 65613","Match","Non_Exact","111 W BROADWAY ST, BOLIVAR, MO, 65613",23030058,"L"
22527,"111 W CENTRAL AVE  PO BOX 123","WINTER HAVEN","FL",33880,NA,NA,27,"111 W CENTRAL AVE  PO BOX 123, WINTER HAVEN, FL, 33880","Tie",NA,NA,NA,NA
22528,"111 W CENTRAL AVE","WINTER HAVEN","FL",33880,28.0220992650001,-81.7271802879999,28,"111 W CENTRAL AVE, WINTER HAVEN, FL, 33880","Match","Exact","111 W CENTRAL AVE, WINTER HAVEN, FL, 33880",104823903,"R"
22529,"111 W CENTRAL AVENUE","CAMDEN","OH",45311,39.62909137,-84.650214912,29,"111 W CENTRAL AVENUE, CAMDEN, OH, 45311","Match","Exact","111 W CENTRAL AVE, CAMDEN, OH, 45311",54604489,"R"
22530,"111 W FABRA LANE","BOERNE","TX",78006,29.8296523220001,-98.761318946,30,"111 W FABRA LANE, BOERNE, TX, 78006","Match","Exact","111 W FABRA LN, BOERNE, TX, 78006",102756029,"R"
22531,"111 W FRANKLIN STREET","HARTWELL","GA",30643,34.3532385500001,-82.931075796,31,"111 W FRANKLIN STREET, HARTWELL, GA, 30643","Match","Exact","111 W FRANKLIN ST, HARTWELL, GA, 30643",22639765,"L"
22532,"111 W FRONT STREET","BERWICK","PA",18603,41.0546018470001,-76.2339155029999,32,"111 W FRONT STREET, BERWICK, PA, 18603","Match","Exact","111 W FRONT ST, BERWICK, PA, 18603",59238119,"L"
22533,"111 W GRANDVIEW AVE","ZELIENOPLE","PA",16063,40.797093612,-80.1375787699999,33,"111 W GRANDVIEW AVE, ZELIENOPLE, PA, 16063","Match","Exact","111 W GRANDVIEW AVE, ZELIENOPLE, PA, 16063",52670136,"L"
22534,"111 W HERITAGE DR","RAYMORE","MO",64083,38.815221007,-94.45229411,34,"111 W HERITAGE DR, RAYMORE, MO, 64083","Match","Exact","111 W HERITAGE DR, RAYMORE, MO, 64083",100907971,"R"
22535,"111 W HICKORY ST","DENTON","TX",76201,33.214525962,-97.132665152,35,"111 W HICKORY ST, DENTON, TX, 76201","Match","Exact","111 W HICKORY ST, DENTON, TX, 76201",103339137,"R"
22536,"111 W JACKSON BLVD STE 1700","CHICAGO","IL",60604,41.8781401150001,-87.631299579,36,"111 W JACKSON BLVD STE 1700, CHICAGO, IL, 60604","Match","Non_Exact","111 W JACKSON BLVD, CHICAGO, IL, 60604",111769599,"L"
22537,"111 W JACKSON BLVD SUITE 1700","CHICAGO","IL",60604,41.8781401150001,-87.631299579,37,"111 W JACKSON BLVD SUITE 1700, CHICAGO, IL, 60604","Match","Non_Exact","111 W JACKSON BLVD, CHICAGO, IL, 60604",111769599,"L"
22538,"111 W JONES AVE APT 222","SAN ANTONIO","TX",78215,NA,NA,38,"111 W JONES AVE APT 222, SAN ANTONIO, TX, 78215","Tie",NA,NA,NA,NA
22539,"111 W JOSEPHINE ST","WEATHERFORD","TX",76086,32.753660412,-97.798288462,39,"111 W JOSEPHINE ST, WEATHERFORD, TX, 76086","Match","Non_Exact","111 W JOSEPHINE AVE, WEATHERFORD, TX, 76086",617965893,"L"
22540,"111 W LONDON AVE","SALISBURY","MD",21801,38.376027906,-75.593513061,40,"111 W LONDON AVE, SALISBURY, MD, 21801","Match","Exact","111 W LONDON AVE, SALISBURY, MD, 21801",114447663,"R"
22541,"111 W MAIN ST STE 110","BAY SHORE","NY",11706,NA,NA,41,"111 W MAIN ST STE 110, BAY SHORE, NY, 11706","Tie",NA,NA,NA,NA
22542,"111 W MAIN ST SUITE 100","CARMEL","IN",46032,NA,NA,42,"111 W MAIN ST SUITE 100, CARMEL, IN, 46032","Tie",NA,NA,NA,NA
22543,"111 W MAIN ST","FLORENCE","CO",81226,38.389985509,-105.118050552,43,"111 W MAIN ST, FLORENCE, CO, 81226","Match","Exact","111 W MAIN ST, FLORENCE, CO, 81226",108291791,"L"
22544,"111 W MAPLE AVENUE","MUNDELEIN","IL",60060,NA,NA,44,"111 W MAPLE AVENUE, MUNDELEIN, IL, 60060","Tie",NA,NA,NA,NA
22545,"111 W PORTAGE AVE 2ND FLOOR","SAULT STE. MARIE","MI",49783,NA,NA,45,"111 W PORTAGE AVE 2ND FLOOR, SAULT STE. MARIE, MI, 49783","Tie",NA,NA,NA,NA
22546,"111 W QUINCY ST","PITTSBURG","KS",66762,37.396415964,-94.7051989239999,46,"111 W QUINCY ST, PITTSBURG, KS, 66762","Match","Exact","111 W QUINCY ST, PITTSBURG, KS, 66762",33423750,"L"
22547,"111 W STREAMWOOD BLVD","STREAMWOOD","IL",60107,42.0218952800001,-88.187355962,47,"111 W STREAMWOOD BLVD, STREAMWOOD, IL, 60107","Match","Exact","111 W STREAMWOOD BLVD, STREAMWOOD, IL, 60107",111688716,"L"
22548,"111 W TOPA TOPA STREET","OJAI","CA",93023,34.446724977,-119.24720764,48,"111 W TOPA TOPA STREET, OJAI, CA, 93023","Match","Exact","111 W TOPA TOPA ST, OJAI, CA, 93023",109984184,"R"
22549,"111 W VIRGINIA AVE","VINTON","VA",24179,37.2761560930001,-79.9004417089999,49,"111 W VIRGINIA AVE, VINTON, VA, 24179","Match","Exact","111 WEST VIRGINIA AVE, VINTON, VA, 24179",62906439,"L"
22550,"111 W WILSON ST APT 804","MADISON","WI",53703,NA,NA,50,"111 W WILSON ST APT 804, MADISON, WI, 53703","Tie",NA,NA,NA,NA
22551,"111 WABASH DRIVE","LEXINGTON","KY",40503,38.0157326550001,-84.5172473709999,51,"111 WABASH DRIVE, LEXINGTON, KY, 40503","Match","Exact","111 WABASH DR, LEXINGTON, KY, 40503",31933263,"R"
22552,"111 WASHINGTON AVE","FULTON","KY",42041,36.5027456990001,-88.8734937139999,52,"111 WASHINGTON AVE, FULTON, KY, 42041","Match","Non_Exact","111 WASHINGTON ST, FULTON, KY, 42041",30307188,"R"
22553,"111 WASHINGTON GROVE LANE  - 874","WASHINGTON GROVE","MD",20880,NA,NA,53,"111 WASHINGTON GROVE LANE  - 874, WASHINGTON GROVE, MD, 20880","No_Match",NA,NA,NA,NA
22554,"111 WASHINGTON STREET","DONIPHAN","MO",63935,NA,NA,54,"111 WASHINGTON STREET, DONIPHAN, MO, 63935","No_Match",NA,NA,NA,NA
22555,"111 WATER ST","NEW HAVEN","CT",6511,41.300998754,-72.919247873,55,"111 WATER ST, NEW HAVEN, CT, 6511","Match","Exact","111 WATER ST, NEW HAVEN, CT, 06511",3758147,"R"
22556,"111 WEBB DRIVE","DAVENPORT","FL",33837,NA,NA,56,"111 WEBB DRIVE, DAVENPORT, FL, 33837","No_Match",NA,NA,NA,NA
22557,"111 WELCH DR","LINCOLN","IL",62656,40.140080868,-89.348623333,57,"111 WELCH DR, LINCOLN, IL, 62656","Match","Exact","111 WELCH DR, LINCOLN, IL, 62656",22446460,"L"
22558,"111 WELLIVER RD","PLENTYWOOD","MT",59254,48.7139265170001,-104.665285604,58,"111 WELLIVER RD, PLENTYWOOD, MT, 59254","Match","Exact","111 WELLIVER RD, PLENTYWOOD, MT, 59254",199987029,"R"
22559,"111 WESLEY STREET","FREDERICKSBURG","IA",50630,42.959938251,-92.1993960569999,59,"111 WESLEY STREET, FREDERICKSBURG, IA, 50630","Match","Exact","111 WESLEY ST, FREDERICKSBURG, IA, 50630",9734938,"R"
22560,"111 WEST 14TH STREET","CASPER","WY",82601,42.836513391,-106.325407263,60,"111 WEST 14TH STREET, CASPER, WY, 82601","Match","Exact","111 W 14TH ST, CASPER, WY, 82601",617963178,"L"
22561,"111 WEST 1ST STREET / SUITE A","FROSTPROOF","FL",33843,NA,NA,61,"111 WEST 1ST STREET / SUITE A, FROSTPROOF, FL, 33843","Tie",NA,NA,NA,NA
22562,"111 WEST ANDERSON LANE","AUSTIN","TX",78752,30.3443371750001,-97.70647798,62,"111 WEST ANDERSON LANE, AUSTIN, TX, 78752","Match","Exact","111 W ANDERSON LN, AUSTIN, TX, 78752",616096220,"R"
22563,"111 WEST CLEVELAND","ELECTRA","TX",76360,34.029903522,-98.9187454569999,63,"111 WEST CLEVELAND, ELECTRA, TX, 76360","Match","Non_Exact","111 W CLEVELAND AVE, ELECTRA, TX, 76360",169832178,"R"
22564,"111 WEST MAIN ST","DESHLER","OH",43516,41.2072491930001,-83.901937672,64,"111 WEST MAIN ST, DESHLER, OH, 43516","Match","Exact","111 W MAIN ST, DESHLER, OH, 43516",639289020,"L"
22565,"111 WEST MAIN ST","LATTA","SC",29565,34.337878733,-79.4327823949999,65,"111 WEST MAIN ST, LATTA, SC, 29565","Match","Exact","111 W MAIN ST, LATTA, SC, 29565",28822313,"L"
22566,"111 WEST MAIN STREET","ALLEGANY","NY",14706,42.0922995650001,-78.497379204,66,"111 WEST MAIN STREET, ALLEGANY, NY, 14706","Match","Exact","111 W MAIN ST, ALLEGANY, NY, 14706",122031294,"L"
22567,"111 WEST MAIN STREET","DURHAM","NC",27701,35.9951397950001,-78.900859466,67,"111 WEST MAIN STREET, DURHAM, NC, 27701","Match","Exact","111 W MAIN ST, DURHAM, NC, 27701",71739643,"L"
22568,"111 WEST MONUMENT STREET","JACKSON","MS",39202,32.308527564,-90.189017268,68,"111 WEST MONUMENT STREET, JACKSON, MS, 39202","Match","Exact","111 W MONUMENT ST, JACKSON, MS, 39202",65370333,"L"
22569,"111 WEST OCEAN BLVD FOURTH FLOOR","LONG BEACH","CA",90802,33.7671055500001,-118.192759151,69,"111 WEST OCEAN BLVD FOURTH FLOOR, LONG BEACH, CA, 90802","Match","Exact","111 W OCEAN BLVD, LONG BEACH, CA, 90802",142771219,"R"
22570,"111 WEST SAINT JAMES ST","SAN JOSE","CA",95113,37.338341632,-121.894377542,70,"111 WEST SAINT JAMES ST, SAN JOSE, CA, 95113","Match","Non_Exact","111 W ST JAMES ST, SAN JOSE, CA, 95110",123180795,"R"
22571,"111 WEST WASHINGTON ST STE 1110","CHICAGO","IL",60602,41.8832051460001,-87.631475506,71,"111 WEST WASHINGTON ST STE 1110, CHICAGO, IL, 60602","Match","Exact","111 W WASHINGTON ST, CHICAGO, IL, 60602",111768730,"L"
22572,"111 WEST WASHINGTON SUITE 1920","CHICAGO","IL",60602,41.8832051460001,-87.631475506,72,"111 WEST WASHINGTON SUITE 1920, CHICAGO, IL, 60602","Match","Non_Exact","111 W WASHINGTON ST, CHICAGO, IL, 60602",111768730,"L"
22573,"111 WILLOW STREET","BETHESDA","OH",43719,40.01606466,-81.074823168,73,"111 WILLOW STREET, BETHESDA, OH, 43719","Match","Non_Exact","111 WILLOW AVE, BETHESDA, OH, 43719",36211202,"L"
22574,"111 WILMER VALLEY DR","WENTZVILLE","MO",63385,38.7958204070001,-90.865795858,74,"111 WILMER VALLEY DR, WENTZVILLE, MO, 63385","Match","Exact","111 WILMER VALLEY DR, WENTZVILLE, MO, 63385",645657493,"L"
22575,"111 WINDERMERE CIRCLE","PERRY","GA",31069,32.476499625,-83.725591217,75,"111 WINDERMERE CIRCLE, PERRY, GA, 31069","Match","Exact","111 WINDERMERE CIR, PERRY, GA, 31069",91243839,"L"
22576,"111 WINDHAM","IRVINE","CA",92620,33.7058470860001,-117.733336277,76,"111 WINDHAM, IRVINE, CA, 92620","Match","Exact","111 WINDHAM, IRVINE, CA, 92620",650715476,"L"
22577,"111 WINSOME LANE","CHAPEL HILL","NC",27516,35.928756971,-79.1031276799999,77,"111 WINSOME LANE, CHAPEL HILL, NC, 27516","Match","Exact","111 WINSOME LN, CHAPEL HILL, NC, 27516",72391127,"L"
22578,"111 WOODALE AVENUE","PEESKILL","NY",10566,41.281241245,-73.9066221969999,78,"111 WOODALE AVENUE, PEESKILL, NY, 10566","Match","Non_Exact","111 WOODALE AVE, PEEKSKILL, NY, 10566",624770209,"L"
22579,"111 WOODLAND AVE APT 503","LEXINGTON","KY",40502,38.0390325000001,-84.489635359,79,"111 WOODLAND AVE APT 503, LEXINGTON, KY, 40502","Match","Exact","111 WOODLAND AVE, LEXINGTON, KY, 40502",652742374,"R"
22580,"111 WOODLAND AVE UNIT 509","LEXINGTON","KY",40502,38.0390325000001,-84.489635359,80,"111 WOODLAND AVE UNIT 509, LEXINGTON, KY, 40502","Match","Exact","111 WOODLAND AVE, LEXINGTON, KY, 40502",652742374,"R"
22581,"111 YARBOROUGH PL","WAVELAND","MS",39576,30.2958329470001,-89.40649973,81,"111 YARBOROUGH PL, WAVELAND, MS, 39576","Match","Exact","111 YARBOROUGH PL, WAVELAND, MS, 39576",642172871,"R"
22582,"111-04 180TH STREET","JAMAICA","NY",11433,40.699564799,-73.773729021,82,"111-04 180TH STREET, JAMAICA, NY, 11433","Match","Exact","111-4 180TH ST, JAMAICA, NY, 11433",59718611,"R"
22583,"111-11 118 ST","SOUTH OZONE PARK","NY",11420,40.679964109,-73.8220695329999,83,"111-11 118 ST, SOUTH OZONE PARK, NY, 11420","Match","Exact","111-11 118TH ST, SOUTH OZONE PARK, NY, 11420",59712943,"L"
22584,"111-15 127TH ST","SOUTH OZONE PARK","NY",11420,40.6821586340001,-73.814117638,84,"111-15 127TH ST, SOUTH OZONE PARK, NY, 11420","Match","Exact","111-15 127TH ST, SOUTH OZONE PARK, NY, 11420",59713387,"L"
22585,"111-20A FARMERS BLVD","SAINT ALBANS","NY",11412,NA,NA,85,"111-20A FARMERS BLVD, SAINT ALBANS, NY, 11412","Tie",NA,NA,NA,NA
22586,"111-32 196TH STREET","ST ALBANS","NY",11412,40.7023140760001,-73.7597007689999,86,"111-32 196TH STREET, ST ALBANS, NY, 11412","Match","Exact","111-32 196TH ST, SAINT ALBANS, NY, 11412",59719030,"R"
22587,"111-37 199TH ST","SAINT ALBANS","NY",11412,40.7033082200001,-73.757157924,87,"111-37 199TH ST, SAINT ALBANS, NY, 11412","Match","Exact","111-37 199TH ST, SAINT ALBANS, NY, 11412",59719134,"L"
22588,"111-38 205TH ST","ST ALBANS","NY",11412,40.704382466,-73.7516760519999,88,"111-38 205TH ST, ST ALBANS, NY, 11412","Match","Exact","111-38 205TH ST, SAINT ALBANS, NY, 11412",59717894,"R"
22589,"111-59 128TH STREET","SOUTH OZONE PARK","NY",11420,40.681748376,-73.8129143589999,89,"111-59 128TH STREET, SOUTH OZONE PARK, NY, 11420","Match","Exact","111-59 128TH ST, SOUTH OZONE PARK, NY, 11420",59713405,"L"
22590,"111-59 41ST AVE","CORONA","NY",11368,40.751450054,-73.853621994,90,"111-59 41ST AVE, CORONA, NY, 11368","Match","Exact","111-59 41ST AVE, CORONA, NY, 11368",59705636,"L"
22591,"111-A LIBRARY HILL LANE","LEXINGTON","SC",29072,33.9762321110001,-81.220888368,91,"111-A LIBRARY HILL LANE, LEXINGTON, SC, 29072","Match","Exact","111 LIBRARY HILL LN, LEXINGTON, SC, 29072",70089138,"L"
22592,"111-A NORTH GLASS STREET","VICTORIA","TX",77901,28.7999349620001,-97.007901518,92,"111-A NORTH GLASS STREET, VICTORIA, TX, 77901","Match","Exact","111 N GLASS ST, VICTORIA, TX, 77901",44559103,"L"
22593,"111","BERKELEY SPRINGS","WV",25411,NA,NA,93,"111, BERKELEY SPRINGS, WV, 25411","No_Match",NA,NA,NA,NA
22594,"111","CHICAGO","IL",60603,NA,NA,94,"111, CHICAGO, IL, 60603","No_Match",NA,NA,NA,NA
22595,"111","LONG BEACH","MS",39560,NA,NA,95,"111, LONG BEACH, MS, 39560","No_Match",NA,NA,NA,NA
22596,"1110  WEST LEIGH STREET","RICHMOND","VA",23220,37.5540524350001,-77.448538444,96,"1110  WEST LEIGH STREET, RICHMOND, VA, 23220","Match","Exact","1110 W LEIGH ST, RICHMOND, VA, 23220",201539038,"R"
22597,"1110 12TH STREET","GOLDEN","CO",80401,39.7535322690001,-105.224706284,97,"1110 12TH STREET, GOLDEN, CO, 80401","Match","Exact","1110 12TH ST, GOLDEN, CO, 80401",177279258,"R"
22598,"1110 18TH AVENUE","MONROE","WI",53566,42.6009620890001,-89.6374352459999,98,"1110 18TH AVENUE, MONROE, WI, 53566","Match","Exact","1110 18TH AVE, MONROE, WI, 53566",48532302,"R"
22599,"1110 1ST AVENUE FL2","NEW HYDE PARK","NY",11040,40.7314712630001,-73.684008004,99,"1110 1ST AVENUE FL2, NEW HYDE PARK, NY, 11040","Match","Exact","1110 1ST AVE, NEW HYDE PARK, NY, 11040",147666191,"R"
22600,"1110 1ST ST SW","ELBA","MN",55910,44.088198961,-92.0199776439999,100,"1110 1ST ST SW, ELBA, MN, 55910","Match","Non_Exact","1110 1ST ST SW, ALTURA, MN, 55910",31659571,"R"
22601,"1110 20TH AVE","FAIRBANKS","AK",99701,64.8293200080001,-147.729019511,101,"1110 20TH AVE, FAIRBANKS, AK, 99701","Match","Exact","1110 20TH AVE, FAIRBANKS, AK, 99701",190893869,"L"
22602,"1110 6TH STREET    PO BOX 558","NEVADA","IA",50201,42.02186032,-93.4522654519999,102,"1110 6TH STREET    PO BOX 558, NEVADA, IA, 50201","Match","Exact","1110 6TH ST, NEVADA, IA, 50201",65942732,"L"
22603,"1110 6TH STREET BOX 558","NEVADA","IA",50201,42.02186032,-93.4522654519999,103,"1110 6TH STREET BOX 558, NEVADA, IA, 50201","Match","Exact","1110 6TH ST, NEVADA, IA, 50201",65942732,"L"
22604,"1110 6TH STREET","NEVADA","IA",50201,42.02186032,-93.4522654519999,104,"1110 6TH STREET, NEVADA, IA, 50201","Match","Exact","1110 6TH ST, NEVADA, IA, 50201",65942732,"L"
22605,"1110 77TH ST","LUBBOCK","TX",79423,33.524701479,-101.846571391,105,"1110 77TH ST, LUBBOCK, TX, 79423","Match","Exact","1110 77TH ST, LUBBOCK, TX, 79423",642460088,"R"
22606,"1110 ALLENS CREEK ROAD","ROCHESTER","NY",14618,43.126846125,-77.528729571,106,"1110 ALLENS CREEK ROAD, ROCHESTER, NY, 14618","Match","Exact","1110 ALLENS CREEK RD, ROCHESTER, NY, 14618",14543748,"L"
22607,"1110 ALTHEA STREET","RICHMOND","VA",23222,37.5617288670001,-77.4271201769999,107,"1110 ALTHEA STREET, RICHMOND, VA, 23222","Match","Exact","1110 ALTHEA ST, RICHMOND, VA, 23222",648037944,"L"
22608,"1110 ANGELA DRIVE","CEDAR HILL","TX",75104,32.567742422,-96.9739240929999,108,"1110 ANGELA DRIVE, CEDAR HILL, TX, 75104","Match","Exact","1110 ANGELA DR, CEDAR HILL, TX, 75104",102938600,"R"
22609,"1110 BIRCHWOOD DRIVE","GARLAND","TX",75043,32.853212355,-96.6400448809999,109,"1110 BIRCHWOOD DRIVE, GARLAND, TX, 75043","Match","Exact","1110 BIRCHWOOD DR, GARLAND, TX, 75043",102930650,"L"
22610,"1110 BLAKELY COURT","WEST COLUMBIA","SC",29170,33.961302586,-81.099049585,110,"1110 BLAKELY COURT, WEST COLUMBIA, SC, 29170","Match","Exact","1110 BLAKELY CT, WEST COLUMBIA, SC, 29170",644851345,"R"
22611,"1110 BLUEFIELD AVENUE","ELIZABETHTON","TN",37643,36.3440527400001,-82.199205825,111,"1110 BLUEFIELD AVENUE, ELIZABETHTON, TN, 37643","Match","Exact","1110 BLUEFIELD AVE, ELIZABETHTON, TN, 37643",43049345,"R"
22612,"1110 BRICKELL AVE STE 430","MIAMI","FL",33131,25.7621937970001,-80.19175451,112,"1110 BRICKELL AVE STE 430, MIAMI, FL, 33131","Match","Exact","1110 BRICKELL AVE, MIAMI, FL, 33131",116018703,"R"
22613,"1110 BRICKELL AVENUE SUITE 719","MIAMI","FL",33131,25.7621937970001,-80.19175451,113,"1110 BRICKELL AVENUE SUITE 719, MIAMI, FL, 33131","Match","Exact","1110 BRICKELL AVE, MIAMI, FL, 33131",116018703,"R"
22614,"1110 BRUSHY CREEK ROAD","LUCEALE","MS",39452,30.9288704890001,-88.493139244,114,"1110 BRUSHY CREEK ROAD, LUCEALE, MS, 39452","Match","Non_Exact","1110 BRUSHY CREEK RD, LUCEDALE, MS, 39452",649969042,"R"
22615,"1110 BRYSON LANE","MIDLOTHIAN","TX",76065,32.4925876840001,-96.908002982,115,"1110 BRYSON LANE, MIDLOTHIAN, TX, 76065","Match","Exact","1110 BRYSON LN, MIDLOTHIAN, TX, 76065",641964205,"L"
22616,"1110 CAMINO CONSUELO","SANTA FE","NM",87507,NA,NA,116,"1110 CAMINO CONSUELO, SANTA FE, NM, 87507","No_Match",NA,NA,NA,NA
22617,"1110 CARRAIGE RD","PAPILLION","NE",68046,41.1462382060001,-96.038718729,117,"1110 CARRAIGE RD, PAPILLION, NE, 68046","Match","Non_Exact","1110 CARRIAGE RD, PAPILLION, NE, 68046",28468983,"R"
22618,"1110 CATESBY TERRACE","HYATTSVILLE","MD",20785,38.904168283,-76.858863614,118,"1110 CATESBY TERRACE, HYATTSVILLE, MD, 20785","Match","Exact","1110 CATESBY TER, HYATTSVILLE, MD, 20785",76381155,"L"
22619,"1110 CLANTON ROAD","CHARLOTTE","NC",28217,35.201355558,-80.891502917,119,"1110 CLANTON ROAD, CHARLOTTE, NC, 28217","Match","Exact","1110 CLANTON RD, CHARLOTTE, NC, 28217",70484589,"R"
22620,"1110 COAL AVE SW APT 8","ALBUQUERQUE","NM",87102,35.0817298650001,-106.660854048,120,"1110 COAL AVE SW APT 8, ALBUQUERQUE, NM, 87102","Match","Exact","1110 COAL AVE SW, ALBUQUERQUE, NM, 87102",206706562,"L"
22621,"1110 CONCORD SUITE 2","DETROIT","MI",48207,42.3496602880001,-83.007470717,121,"1110 CONCORD SUITE 2, DETROIT, MI, 48207","Match","Non_Exact","1110 CONCORD ST, DETROIT, MI, 48207",95483911,"R"
22622,"1110 COOPER AVE","COLORADO SPRINGS","CO",80905,38.8498344070001,-104.834774529,122,"1110 COOPER AVE, COLORADO SPRINGS, CO, 80905","Match","Exact","1110 COOPER AVE, COLORADO SPRINGS, CO, 80905",610723248,"L"
22623,"1110 COUNTRY CLUB DR","ORELAND","PA",19075,40.110575926,-75.1813258779999,123,"1110 COUNTRY CLUB DR, ORELAND, PA, 19075","Match","Exact","1110 COUNTRY CLUB DR, ORELAND, PA, 19075",135089862,"L"
22624,"1110 CURTIS AVENUE","JOLIET","IL",60435,41.5466339120001,-88.1093462279999,124,"1110 CURTIS AVENUE, JOLIET, IL, 60435","Match","Exact","1110 CURTIS AVE, JOLIET, IL, 60435",111540529,"L"
22625,"1110 CYPRESS ROAD","WILMINGTON","DE",19810,39.82172115,-75.470305803,125,"1110 CYPRESS ROAD, WILMINGTON, DE, 19810","Match","Exact","1110 CYPRESS RD, WILMINGTON, DE, 19810",187260602,"L"
22626,"1110 DAPPLE GREY COURT","GREAT FALLS","VA",22066,38.968307597,-77.276272241,126,"1110 DAPPLE GREY COURT, GREAT FALLS, VA, 22066","Match","Exact","1110 DAPPLE GREY CT, GREAT FALLS, VA, 22066",75960488,"R"
22627,"1110 DEL SOL ROAD SE","DEMING","NM",88030,32.1840249680001,-107.740389037,127,"1110 DEL SOL ROAD SE, DEMING, NM, 88030","Match","Exact","1110 DEL SOL RD SE, DEMING, NM, 88030",201332373,"R"
22628,"1110 DOSS ROAD","MILLSAP","TX",76066,32.7809006620001,-97.978421496,128,"1110 DOSS ROAD, MILLSAP, TX, 76066","Match","Exact","1110 DOSS RD, MILLSAP, TX, 76066",103574814,"R"
22629,"1110 DREW AV","ORLANDO","FL",32805,28.527473796,-81.4240531729999,129,"1110 DREW AV, ORLANDO, FL, 32805","Match","Exact","1110 DREW AVE, ORLANDO, FL, 32805",94273700,"R"
22630,"1110 DUPONT CIRCLE","LOUISVILLE","KY",40207,38.2332946010001,-85.635116432,130,"1110 DUPONT CIRCLE, LOUISVILLE, KY, 40207","Match","Exact","1110 DUPONT CIR, LOUISVILLE, KY, 40207",96856353,"R"
22631,"1110 E 33RD STREET","TUCSON","AZ",85713,32.1955076240001,-110.954255377,131,"1110 E 33RD STREET, TUCSON, AZ, 85713","Match","Exact","1110 E 33RD ST, TUCSON, AZ, 85713",121172914,"R"
22632,"1110 E WINTERGREEN RD APT 1724","DESOTO","TX",75115,NA,NA,132,"1110 E WINTERGREEN RD APT 1724, DESOTO, TX, 75115","Tie",NA,NA,NA,NA
22633,"1110 E WINTERGREEN RD APT 321","DESOTO","TX",75115,NA,NA,133,"1110 E WINTERGREEN RD APT 321, DESOTO, TX, 75115","Tie",NA,NA,NA,NA
22634,"1110 EAST FOURTH STREET","DULUTH","MN",55805,46.800268944,-92.088656165,134,"1110 EAST FOURTH STREET, DULUTH, MN, 55805","Match","Exact","1110 E 4TH ST, DULUTH, MN, 55805",163211931,"R"
22635,"1110 EAST PLEASANT RUN ROAD","DESOTO","TX",75115,32.604144091,-96.828424135,135,"1110 EAST PLEASANT RUN ROAD, DESOTO, TX, 75115","Match","Exact","1110 E PLEASANT RUN RD, DESOTO, TX, 75115",632262222,"L"
22636,"1110 ESCAMBIA WAY DR","RICHMOND","TX",77406,29.610949894,-95.745966462,136,"1110 ESCAMBIA WAY DR, RICHMOND, TX, 77406","Match","Exact","1110 ESCAMBIA WAY DR, RICHMOND, TX, 77406",627679131,"L"
22637,"1110 ESTES AVENUE","AUSTIN","TX",78721,30.26779946,-97.684915879,137,"1110 ESTES AVENUE, AUSTIN, TX, 78721","Match","Exact","1110 ESTES AVE, AUSTIN, TX, 78721",63951650,"L"
22638,"1110 FAIRGROUNDS RD PO BOX 435","MADISON","VA",22727,38.3600487200001,-78.265732971,138,"1110 FAIRGROUNDS RD PO BOX 435, MADISON, VA, 22727","Match","Non_Exact","1110 FAIRGROUND RD, MADISON, VA, 22727",29585803,"R"
22639,"1110 FAWN RIDGE DR","DUNCANVILLE","TX",75137,32.6283331720001,-96.9354825299999,139,"1110 FAWN RIDGE DR, DUNCANVILLE, TX, 75137","Match","Exact","1110 FAWN RIDGE DR, DUNCANVILLE, TX, 75137",102942020,"R"
22640,"1110 FAXON STREET","MEMPHIS","TN",38105,35.1555162970001,-90.021917448,140,"1110 FAXON STREET, MEMPHIS, TN, 38105","Match","Non_Exact","1110 FAXON AVE, MEMPHIS, TN, 38105",638140740,"L"
22641,"1110 FIDLER LANE 800","SILVER SPRING","MD",20910,38.9968207060001,-77.0293987329999,141,"1110 FIDLER LANE 800, SILVER SPRING, MD, 20910","Match","Exact","1110 FIDLER LN, SILVER SPRING, MD, 20910",637196742,"L"
22642,"1110 G STREET NE","WASHINGTON","MD",20002,NA,NA,142,"1110 G STREET NE, WASHINGTON, MD, 20002","No_Match",NA,NA,NA,NA
22643,"1110 GRAND AVENUE","PHOENIX","AZ",85007,33.4552954150001,-112.087157783,143,"1110 GRAND AVENUE, PHOENIX, AZ, 85007","Match","Exact","1110 GRAND AVE, PHOENIX, AZ, 85007",128211799,"R"
22644,"1110 GUINEA","HOUSTON","TX",77055,29.7877613530001,-95.488242481,144,"1110 GUINEA, HOUSTON, TX, 77055","Match","Non_Exact","1110 GUINEA DR, HOUSTON, TX, 77055",96031953,"R"
22645,"1110 HACIENDA AVE","CAMPBELL","CA",95008,37.269107708,-121.968846755,145,"1110 HACIENDA AVE, CAMPBELL, CA, 95008","Match","Non_Exact","1110 W HACIENDA AVE, CAMPBELL, CA, 95008",122919968,"L"
22646,"1110 HACIENDA PLACE SUITE 102","WEST HOLLYWOOD","CA",90069,34.091054818,-118.375086694,146,"1110 HACIENDA PLACE SUITE 102, WEST HOLLYWOOD, CA, 90069","Match","Non_Exact","1110 N HACIENDA PL, W HOLLYWOOD, CA, 90069",141597943,"R"
22647,"1110 HARRISON STREET - SUITE I","FRECHTOWN","NJ",8825,40.5358872950001,-75.062966976,147,"1110 HARRISON STREET - SUITE I, FRECHTOWN, NJ, 8825","Match","Non_Exact","1110 HARRISON ST, FRENCHTOWN, NJ, 08825",60015338,"R"
22648,"1110 HARRISWAY DRIVE","WILLIANSTON","NC",27892,35.8275466740001,-77.0672431739999,148,"1110 HARRISWAY DRIVE, WILLIANSTON, NC, 27892","Match","Non_Exact","1110 HARRIS WAY DR, WILLIAMSTON, NC, 27892",635968179,"R"
22649,"1110 HIGHWAY 41 NORTH","CORDELE","GA",31010,NA,NA,149,"1110 HIGHWAY 41 NORTH, CORDELE, GA, 31010","No_Match",NA,NA,NA,NA
22650,"1110 IDAHO STREET","GARY","IN",46403,41.592512136,-87.294322079,150,"1110 IDAHO STREET, GARY, IN, 46403","Match","Exact","1110 IDAHO ST, GARY, IN, 46403",606314150,"R"
22651,"1110 KILMINGTON CT","ALPHARETTA","GA",30009,34.0650129380001,-84.30069543,151,"1110 KILMINGTON CT, ALPHARETTA, GA, 30009","Match","Exact","1110 KILMINGTON CT, ALPHARETTA, GA, 30009",642710436,"R"
22652,"1110 KIRKLAND DR","COCOA","FL",32922,28.3665264860001,-80.744240294,152,"1110 KIRKLAND DR, COCOA, FL, 32922","Match","Exact","1110 KIRKLAND DR, COCOA, FL, 32922",93892911,"R"
22653,"1110 LADY ELAINE DR","VALRICO","FL",33594,27.956213178,-82.265991076,153,"1110 LADY ELAINE DR, VALRICO, FL, 33594","Match","Exact","1110 LADY ELAINE DR, VALRICO, FL, 33594",104597569,"L"
22654,"1110 LEED PARKWAY","PLAIN","WI",53557,NA,NA,154,"1110 LEED PARKWAY, PLAIN, WI, 53557","No_Match",NA,NA,NA,NA
22655,"1110 LEMONWOOD RD","JACKSONVILLE","FL",32259,30.104856747,-81.633019976,155,"1110 LEMONWOOD RD, JACKSONVILLE, FL, 32259","Match","Exact","1110 LEMONWOOD RD, JACKSONVILLE, FL, 32259",92591015,"L"
22656,"1110 LIBERTY ST","OSKALOOSA","KS",66066,39.209562557,-95.3143711709999,156,"1110 LIBERTY ST, OSKALOOSA, KS, 66066","Match","Exact","1110 LIBERTY ST, OSKALOOSA, KS, 66066",646956781,"R"
22657,"1110 MAIKAI DR","MERRITT ISLAND","FL",32953,28.37746571,-80.692158826,157,"1110 MAIKAI DR, MERRITT ISLAND, FL, 32953","Match","Exact","1110 MAIKAI DR, MERRITT ISLAND, FL, 32953",93893455,"R"
22658,"1110 MAIN STREET","HUNTINGBURG","IN",47542,NA,NA,158,"1110 MAIN STREET, HUNTINGBURG, IN, 47542","Tie",NA,NA,NA,NA
22659,"1110 MAIN STREET","SUSANVILLE","CA",96130,40.4172394940001,-120.65624654,159,"1110 MAIN STREET, SUSANVILLE, CA, 96130","Match","Exact","1110 MAIN ST, SUSANVILLE, CA, 96130",126931362,"L"
22660,"1110 MATHIAS DR","SPRINGDALE","AR",72762,36.1790864640001,-94.190582069,160,"1110 MATHIAS DR, SPRINGDALE, AR, 72762","Match","Non_Exact","1110 MATHIS DR, SPRINGDALE, AR, 72762",49090736,"R"
22661,"1110 MILAN STREET","NEW ORLEANS","LA",70115,29.92312529,-90.099333192,161,"1110 MILAN STREET, NEW ORLEANS, LA, 70115","Match","Exact","1110 MILAN ST, NEW ORLEANS, LA, 70115",191713019,"L"
22662,"1110 N CENTER PARKWAY SUITE A","KENNEWICK","WA",99336,46.222810221,-119.231249099,162,"1110 N CENTER PARKWAY SUITE A, KENNEWICK, WA, 99336","Match","Non_Exact","1110 N CENTER PKWY, KENNEWICK, WA, 99336",606989337,"R"
22663,"1110 N MAIN ST","FORT STOCKTON","TX",79735,30.895126082,-102.879107925,163,"1110 N MAIN ST, FORT STOCKTON, TX, 79735","Match","Exact","1110 N MAIN ST, FORT STOCKTON, TX, 79735",184256386,"R"
22664,"1110 N PALAFOX ST","PENSACOLA","FL",32501,30.4243319550001,-87.218024433,164,"1110 N PALAFOX ST, PENSACOLA, FL, 32501","Match","Exact","1110 N PALAFOX ST, PENSACOLA, FL, 32501",93248490,"R"
22665,"1110 NASA PARKWAY SUITE 305","HOUSTON","TX",77058,NA,NA,165,"1110 NASA PARKWAY SUITE 305, HOUSTON, TX, 77058","No_Match",NA,NA,NA,NA
22666,"1110 NC 153 HWY","CHINA GROVE","NC",28023,NA,NA,166,"1110 NC 153 HWY, CHINA GROVE, NC, 28023","No_Match",NA,NA,NA,NA
22667,"1110 NE 17TH WAY","FT LAUDERDALE","FL",33304,26.139486461,-80.123987093,167,"1110 NE 17TH WAY, FT LAUDERDALE, FL, 33304","Match","Exact","1110 NE 17TH WAY, FORT LAUDERDALE, FL, 33304",114725493,"R"
22668,"1110 NE ROSEWOOD STREET","SUBLIMITY","OR",97385,44.8321876000001,-122.782586805,168,"1110 NE ROSEWOOD STREET, SUBLIMITY, OR, 97385","Match","Exact","1110 NE ROSEWOOD ST, SUBLIMITY, OR, 97385",156278238,"L"
22669,"1110 NORTH 5TH AVENUE NE","ROME","GA",30165,34.264764207,-85.17845969,169,"1110 NORTH 5TH AVENUE NE, ROME, GA, 30165","Match","Non_Exact","1110 N 5TH AVE, ROME, GA, 30165",30675788,"R"
22670,"1110 NORTH 9TH AVENUE","PENSACOLA","FL",32501,30.424188922,-87.207327804,170,"1110 NORTH 9TH AVENUE, PENSACOLA, FL, 32501","Match","Exact","1110 N 9TH AVE, PENSACOLA, FL, 32501",93221580,"R"
22671,"1110 NORTH BRAND BLVD SUITE 304","GLENDALE","CA",91202,34.162658955,-118.255015331,171,"1110 NORTH BRAND BLVD SUITE 304, GLENDALE, CA, 91202","Match","Exact","1110 N BRAND BLVD, GLENDALE, CA, 91202",638622282,"R"
22672,"1110 NUUANU AVE NUM 282","HONOLULU","HI",96817,21.3111878610001,-157.861803141,172,"1110 NUUANU AVE NUM 282, HONOLULU, HI, 96817","Match","Exact","1110 NUUANU AVE, HONOLULU, HI, 96817",203235998,"L"
22673,"1110 NUUANU AVE UNIT A1-200","HONOLULU","HI",96817,21.3111878610001,-157.861803141,173,"1110 NUUANU AVE UNIT A1-200, HONOLULU, HI, 96817","Match","Exact","1110 NUUANU AVE, HONOLULU, HI, 96817",203235998,"L"
22674,"1110 NUUANU AVE UNIT A1-290","HONOLULU","HI",96817,21.3111878610001,-157.861803141,174,"1110 NUUANU AVE UNIT A1-290, HONOLULU, HI, 96817","Match","Exact","1110 NUUANU AVE, HONOLULU, HI, 96817",203235998,"L"
22675,"1110 NUUANU AVENUE UNIT 1028","HONOLULU","HI",96817,21.3111878610001,-157.861803141,175,"1110 NUUANU AVENUE UNIT 1028, HONOLULU, HI, 96817","Match","Exact","1110 NUUANU AVE, HONOLULU, HI, 96817",203235998,"L"
22676,"1110 NUUANU AVENUE","HONOLULU","HI",96817,21.3111878610001,-157.861803141,176,"1110 NUUANU AVENUE, HONOLULU, HI, 96817","Match","Exact","1110 NUUANU AVE, HONOLULU, HI, 96817",203235998,"L"
22677,"1110 NW 134TH AVE","MIAMI","FL",33182,25.7813564040001,-80.412340531,177,"1110 NW 134TH AVE, MIAMI, FL, 33182","Match","Exact","1110 NW 134TH AVE, MIAMI, FL, 33182",640558978,"L"
22678,"1110 OLD SCHOOL RD","CHAPEL HILL","NC",27516,35.8812882290001,-79.106832208,178,"1110 OLD SCHOOL RD, CHAPEL HILL, NC, 27516","Match","Exact","1110 OLD SCHOOL RD, CHAPEL HILL, NC, 27516",72408132,"L"
22679,"1110 OPAL STREET SUITE 101","BROOMFIELD","CO",80020,39.932398069,-105.086697834,179,"1110 OPAL STREET SUITE 101, BROOMFIELD, CO, 80020","Match","Exact","1110 OPAL ST, BROOMFIELD, CO, 80020",210038015,"R"
22680,"1110 PAIGE ROAD","HONEA PATH","SC",29654,34.418689584,-82.4224173279999,180,"1110 PAIGE ROAD, HONEA PATH, SC, 29654","Match","Exact","1110 PAIGE RD, HONEA PATH, SC, 29654",25474000,"R"
22681,"1110 PALM BLUFF STREET","CLEARWATER","FL",33755,27.9772717880001,-82.791144483,181,"1110 PALM BLUFF STREET, CLEARWATER, FL, 33755","Match","Exact","1110 PALM BLUFF ST, CLEARWATER, FL, 33755",124667901,"L"
22682,"1110 PALMETTO STREET","NEW SMYRNA","FL",32168,29.014223836,-80.919844509,182,"1110 PALMETTO STREET, NEW SMYRNA, FL, 32168","Match","Exact","1110 PALMETTO ST, NEW SMYRNA, FL, 32168",94532628,"R"
22683,"1110 PARK AVE  APT L","NORFOLK","VA",23504,36.8124166580001,-76.274837264,183,"1110 PARK AVE  APT L, NORFOLK, VA, 23504","Match","Non_Exact","1110 PARK AVE, SOUTH NORFOLK, VA, 23324",121770381,"R"
22684,"1110 PIERCE STREET","MOORE HAVEN","FL",33471,26.84155743,-81.0996418559999,184,"1110 PIERCE STREET, MOORE HAVEN, FL, 33471","Match","Exact","1110 PIERCE ST, MOORE HAVEN, FL, 33471",4252732,"R"
22685,"1110 PINE RIDGE RD","WOODLAND PARK","CO",80863,39.002832024,-105.040355312,185,"1110 PINE RIDGE RD, WOODLAND PARK, CO, 80863","Match","Exact","1110 PINE RIDGE RD, WOODLAND PARK, CO, 80863",130953770,"L"
22686,"1110 POPLAR STREET","EVERETT","WA",98201,48.0020887910001,-122.19472988,186,"1110 POPLAR STREET, EVERETT, WA, 98201","Match","Exact","1110 POPLAR ST, EVERETT, WA, 98201",187744859,"R"
22687,"1110 PRAIRIE VIEW DRIVE","WAUNAKEE","WI",53597,43.187318078,-89.4249957229999,187,"1110 PRAIRIE VIEW DRIVE, WAUNAKEE, WI, 53597","Match","Non_Exact","1110 PRARIE VIEW CT, WAUNAKEE, WI, 53597",640729948,"L"
22688,"1110 PRESIDENT STREET","BROOKLYN","NY",11225,40.6682617160001,-73.9541690349999,188,"1110 PRESIDENT STREET, BROOKLYN, NY, 11225","Match","Exact","1110 PRESIDENT ST, BROOKLYN, NY, 11225",59079390,"R"
22689,"1110 PROFESSIONAL COURT SUITE 300","HAGERSTOWN","MD",21740,39.637151841,-77.695059923,189,"1110 PROFESSIONAL COURT SUITE 300, HAGERSTOWN, MD, 21740","Match","Exact","1110 PROFESSIONAL CT, HAGERSTOWN, MD, 21740",612158565,"L"
22690,"1110 S 12TH STREET","LONGVIEW","TX",75602,32.479489141,-94.7220113769999,190,"1110 S 12TH STREET, LONGVIEW, TX, 75602","Match","Exact","1110 S 12TH ST, LONGVIEW, TX, 75602",141110916,"L"
22691,"1110 S 4TH ST","IRONTON","OH",45638,38.527839865,-82.677812949,191,"1110 S 4TH ST, IRONTON, OH, 45638","Match","Exact","1110 S 4TH ST, IRONTON, OH, 45638",55010019,"R"
22692,"1110 S CORNELL AVE","CHERRY HILL","NJ",8002,39.9250136050001,-75.0466647229999,192,"1110 S CORNELL AVE, CHERRY HILL, NJ, 8002","Match","Exact","1110 S CORNELL AVE, CHERRY HILL, NJ, 08002",134408780,"R"
22693,"1110 S FELL","NORMAL","IL",61761,40.499532657,-88.986860591,193,"1110 S FELL, NORMAL, IL, 61761","Match","Non_Exact","1110 S FELL AVE, NORMAL, IL, 61761",20544506,"L"
22694,"1110 S LA CIENEGA BLVD","LOS ANGELES","CA",90035,34.056746441,-118.37616738,194,"1110 S LA CIENEGA BLVD, LOS ANGELES, CA, 90035","Match","Exact","1110 S LA CIENEGA BLVD, LOS ANGELES, CA, 90035",141573088,"L"
22695,"1110 S LINDEN ROAD SUITE 5","FLINT","MI",48532,43.013097798,-83.7729670259999,195,"1110 S LINDEN ROAD SUITE 5, FLINT, MI, 48532","Match","Exact","1110 LINDEN RD, FLINT, MI, 48532",69606200,"R"
22696,"1110 S MAIN ST","HECTOR","AR",72843,NA,NA,196,"1110 S MAIN ST, HECTOR, AR, 72843","No_Match",NA,NA,NA,NA
22697,"1110 S VISTA AVE STE 27","BOISE","ID",83705,NA,NA,197,"1110 S VISTA AVE STE 27, BOISE, ID, 83705","No_Match",NA,NA,NA,NA
22698,"1110 SARANAC","NORTHBROOK","IL",60062,42.1316802110001,-87.846402386,198,"1110 SARANAC, NORTHBROOK, IL, 60062","Match","Non_Exact","1110 SARANAC LN, NORTHBROOK, IL, 60062",111839506,"R"
22699,"1110 SCHENECTADY RD","ARLINGTON","TX",76017,32.654885101,-97.1307237089999,199,"1110 SCHENECTADY RD, ARLINGTON, TX, 76017","Match","Exact","1110 SCHENECTADY RD, ARLINGTON, TX, 76017",102189387,"L"
22700,"1110 SCOTT","WICHITA FALLS","TX",76301,33.9088092100001,-98.489542237,200,"1110 SCOTT, WICHITA FALLS, TX, 76301","Match","Non_Exact","1110 SCOTT AVE, WICHITA FALLS, TX, 76301",169844371,"R"
22701,"1110 SKY TAVERN","RENO","NV",89511,39.3372448580001,-119.877135559,201,"1110 SKY TAVERN, RENO, NV, 89511","Match","Non_Exact","1110 SKY TAVERN RD, RENO, NV, 89511",107046055,"L"
22702,"1110 SOUTH AVENUE","NORWALK","IA",50211,41.4739993430001,-93.675137704,202,"1110 SOUTH AVENUE, NORWALK, IA, 50211","Match","Exact","1110 SOUTH AVE, NORWALK, IA, 50211",639587717,"R"
22703,"1110 SPRING HARBOR DRIVE","MADION","WI",53705,43.0802717230001,-89.472185574,203,"1110 SPRING HARBOR DRIVE, MADION, WI, 53705","Match","Non_Exact","1110 SPRING HARBOR DR, MADISON, WI, 53705",49467105,"L"
22704,"1110 STAR LAKE DR","MISSOURI CITY","TX",77459,29.4699570870001,-95.488888103,204,"1110 STAR LAKE DR, MISSOURI CITY, TX, 77459","Match","Exact","1110 STAR LAKE DR, MISSOURI CITY, TX, 77459",78330674,"L"
22705,"1110 STATE OFFICE BUILDING","SALT LAKE CITY","UT",84114,NA,NA,205,"1110 STATE OFFICE BUILDING, SALT LAKE CITY, UT, 84114","No_Match",NA,NA,NA,NA
22706,"1110 STATE RTE 175","CAMPTON","NH",3223,43.851961164,-71.634984926,206,"1110 STATE RTE 175, CAMPTON, NH, 3223","Match","Exact","1110 STATE RTE 175, CAMPTON, NH, 03223",145698597,"R"
22707,"1110 STONUM LANE","MANTECA","CA",95337,37.7863819890001,-121.239894687,207,"1110 STONUM LANE, MANTECA, CA, 95337","Match","Exact","1110 STONUM LN, MANTECA, CA, 95337",133880514,"R"
22708,"1110 STORYBROOK DRIVE","WASHINGTON COURTHOUS","OH",43160,39.551509568,-83.411548614,208,"1110 STORYBROOK DRIVE, WASHINGTON COURTHOUS, OH, 43160","Match","Non_Exact","1110 STORYBROOK DR, WASHINGTON COURT HOUSE, OH, 43160",119065305,"L"
22709,"1110 STRUCKMAN BLVD","BARTLETT","IL",60103,41.9629098,-88.20772635,209,"1110 STRUCKMAN BLVD, BARTLETT, IL, 60103","Match","Non_Exact","1110 W STRUCKMAN BLVD, BARTLETT, IL, 60103",112576545,"R"
22710,"1110 SW BRIDGE STREET","GRANTS PASS","OR",97526,42.435070266,-123.339961759,210,"1110 SW BRIDGE STREET, GRANTS PASS, OR, 97526","Match","Exact","1110 SW BRIDGE ST, GRANTS PASS, OR, 97526",625592731,"R"
22711,"1110 TABBERT RD","ALEXANDRIA","MN",56308,45.9056210050001,-95.394903643,211,"1110 TABBERT RD, ALEXANDRIA, MN, 56308","Match","Non_Exact","1110 TABBERT RD NW, ALEXANDRIA, MN, 56308",648597767,"L"
22712,"1110 THORN CREEK PL","ROUND ROCK","TX",78664,30.533132514,-97.656068277,212,"1110 THORN CREEK PL, ROUND ROCK, TX, 78664","Match","Exact","1110 THORN CREEK PL, ROUND ROCK, TX, 78664",126473594,"R"
22713,"1110 TURTLE CREEK LN","THOUSAND OAKS","CA",91320,34.194070202,-118.911312438,213,"1110 TURTLE CREEK LN, THOUSAND OAKS, CA, 91320","Match","Exact","1110 TURTLE CREEK LN, THOUSAND OAKS, CA, 91320",627218656,"L"
22714,"1110 UNIVERSITY AVENUE SUITE 309","HONOLULU","HI",96826,21.2926719760001,-157.821519443,214,"1110 UNIVERSITY AVENUE SUITE 309, HONOLULU, HI, 96826","Match","Exact","1110 UNIVERSITY AVE, HONOLULU, HI, 96826",203241991,"L"
22715,"1110 VALKENBURG DR","COLORADO SPRINGS","CO",80907,38.8848008210001,-104.843507887,215,"1110 VALKENBURG DR, COLORADO SPRINGS, CO, 80907","Match","Exact","1110 VALKENBURG DR, COLORADO SPRINGS, CO, 80907",105512189,"L"
22716,"1110 VERMONT AVE NW SUITE 550","WASHINGTON","DC",20005,38.904001211,-77.0329259809999,216,"1110 VERMONT AVE NW SUITE 550, WASHINGTON, DC, 20005","Match","Exact","1110 VERMONT AVE NW, WASHINGTON, DC, 20005",76225762,"L"
22717,"1110 VERMONT AVENUE NW STE 500","WASHINGTON","DC",20005,38.904001211,-77.0329259809999,217,"1110 VERMONT AVENUE NW STE 500, WASHINGTON, DC, 20005","Match","Exact","1110 VERMONT AVE NW, WASHINGTON, DC, 20005",76225762,"L"
22718,"1110 VINYARD ROAD","VINTON","VA",24179,37.272814059,-79.888631209,218,"1110 VINYARD ROAD, VINTON, VA, 24179","Match","Exact","1110 VINYARD RD, VINTON, VA, 24179",62917364,"L"
22719,"1110 VISTA VALET APT818","SAN ANTONIO","TX",78216,29.5583159660001,-98.508669479,219,"1110 VISTA VALET APT818, SAN ANTONIO, TX, 78216","Match","Exact","1110 VIS VALET, SAN ANTONIO, TX, 78216",101735572,"L"
22720,"1110 W 57TH ST","LOS ANGELES","CA",90037,33.9904903990001,-118.293881887,220,"1110 W 57TH ST, LOS ANGELES, CA, 90037","Match","Exact","1110 W 57TH ST, LOS ANGELES, CA, 90037",141659176,"L"
22721,"1110 W 8TH","COFFEYVILLE","KS",67337,37.0361873730001,-95.632426535,221,"1110 W 8TH, COFFEYVILLE, KS, 67337","Match","Non_Exact","1110 W 8TH ST, COFFEYVILLE, KS, 67337",13788960,"R"
22722,"1110 W FRONT ST","ALHAMBRA","CA",91803,34.0840613880001,-118.135051246,222,"1110 W FRONT ST, ALHAMBRA, CA, 91803","Match","Exact","1110 FRONT ST, ALHAMBRA, CA, 91803",141636404,"L"
22723,"1110 WEST MICHIGAN STREET LO200","INDIANAPOLIS","IN",46203,39.774588969,-86.1770019639999,223,"1110 WEST MICHIGAN STREET LO200, INDIANAPOLIS, IN, 46203","Match","Non_Exact","1110 W MICHIGAN ST, INDIANAPOLIS, IN, 46202",108054532,"R"
22724,"1110 WILLOWGRASS LN","WAKE FOREST","NC",27587,35.941970225,-78.495556987,224,"1110 WILLOWGRASS LN, WAKE FOREST, NC, 27587","Match","Exact","1110 WILLOWGRASS LN, WAKE FOREST, NC, 27587",624587613,"R"
22725,"11100 4TH STREET APT D102","RANCHO CUCAMONGA","CA",91730,34.077306262,-117.562344119,225,"11100 4TH STREET APT D102, RANCHO CUCAMONGA, CA, 91730","Match","Exact","11100 4TH ST, RANCHO CUCAMONGA, CA, 91730",614811196,"L"
22726,"11100 BROOKES RESERVE ROAD","UPPER MARLBORO","MD",20772,38.738164942,-76.766423571,226,"11100 BROOKES RESERVE ROAD, UPPER MARLBORO, MD, 20772","Match","Non_Exact","11100 BROOKS RESERVE RD, UPPER MARLBORO, MD, 20772",76397281,"L"
22727,"11100 CORRYVILLE ROAD","NORTH CHESTERFIELD","VA",23236,37.4545770720001,-77.600801163,227,"11100 CORRYVILLE ROAD, NORTH CHESTERFIELD, VA, 23236","Match","Exact","11100 CORRYVILLE RD, NORTH CHESTERFIELD, VA, 23236",201561163,"R"
22728,"11100 E DARTMOUTH AVE APT 208","DENVER","CO",80014,39.6603339220001,-104.858785303,228,"11100 E DARTMOUTH AVE APT 208, DENVER, CO, 80014","Match","Non_Exact","11100 E DARTMOUTH AVE, DENVER, CO, 80014",612840085,"R"
22729,"11100 E WINNER RD","INDEPENDENCE","MO",64052,39.0877541180001,-94.447022477,229,"11100 E WINNER RD, INDEPENDENCE, MO, 64052","Match","Exact","11100 E WINNER RD, INDEPENDENCE, MO, 64052",91534867,"L"
22730,"11100 GAINSBORUGH ROAD","POTOMAC","MD",20854,39.039511164,-77.1726895259999,230,"11100 GAINSBORUGH ROAD, POTOMAC, MD, 20854","Match","Non_Exact","11100 GAINSBOROUGH RD, POTOMAC, MD, 20854",62054350,"L"
22731,"11100 GENERAL AVE","JACKSONVILLE","FL",32220,30.3125574090001,-81.847649679,231,"11100 GENERAL AVE, JACKSONVILLE, FL, 32220","Match","Exact","11100 GENERAL AVE, JACKSONVILLE, FL, 32220",83968892,"L"
22732,"11100 LORWIND COURT","CHARLOTTE","NC",28262,35.3455479940001,-80.7561365729999,232,"11100 LORWIND COURT, CHARLOTTE, NC, 28262","Match","Exact","11100 LORWIND CT, CHARLOTTE, NC, 28262",70531872,"R"
22733,"11100 MUELLER ROAD STE 1","SAINT LOUIS","MO",63123,38.523027385,-90.346064521,233,"11100 MUELLER ROAD STE 1, SAINT LOUIS, MO, 63123","Match","Exact","11100 MUELLER RD, SAINT LOUIS, MO, 63123",100176934,"L"
22734,"11100 NW 188 STREET ROAD","MICANOPY","FL",32667,29.4169351300001,-82.3075455699999,234,"11100 NW 188 STREET ROAD, MICANOPY, FL, 32667","Match","Exact","11100 NW 188TH STREET RD, MICANOPY, FL, 32667",652505272,"L"
22735,"11100 NW 188TH STREET ROAD","MICANOPY","FL",32667,29.4169351300001,-82.3075455699999,235,"11100 NW 188TH STREET ROAD, MICANOPY, FL, 32667","Match","Exact","11100 NW 188TH STREET RD, MICANOPY, FL, 32667",652505272,"L"
22736,"11100 NW 23RD STREET","CORAL SPRINGS","FL",33065,26.259975039,-80.2746154289999,236,"11100 NW 23RD STREET, CORAL SPRINGS, FL, 33065","Match","Non_Exact","11100 NW 23RD CT, CORAL SPRINGS, FL, 33065",114690438,"L"
22737,"11100 SADDLE RIDGE ROAD","MORENO VALLEY","CA",92557,33.9602902680001,-117.259429172,237,"11100 SADDLE RIDGE ROAD, MORENO VALLEY, CA, 92557","Match","Exact","11100 SADDLE RIDGE RD, MORENO VALLEY, CA, 92557",194790294,"R"
22738,"11100 SEPULVEDA BLVD STE 8 PMB 514","MISSION HILLS","CA",91345,34.2721376800001,-118.467468414,238,"11100 SEPULVEDA BLVD STE 8 PMB 514, MISSION HILLS, CA, 91345","Match","Exact","11100 SEPULVEDA BLVD, MISSION HILLS, CA, 91345",142713279,"R"
22739,"11100 STRATHERN ST 53","SUN VALLEY","CA",91352,34.2156921480001,-118.372532408,239,"11100 STRATHERN ST 53, SUN VALLEY, CA, 91352","Match","Exact","11100 STRATHERN ST, SUN VALLEY, CA, 91352",141586658,"L"
22740,"11100 SUNNYSLOPE DRIVE","KANSAS CITY","MO",64134,38.9214360440001,-94.520952193,240,"11100 SUNNYSLOPE DRIVE, KANSAS CITY, MO, 64134","Match","Exact","11100 SUNNYSLOPE DR, KANSAS CITY, MO, 64134",91458434,"R"
22741,"11100 TELEGRAPH SPACE 85","VENTURA","CA",93004,34.295655116,-119.160086794,241,"11100 TELEGRAPH SPACE 85, VENTURA, CA, 93004","Match","Non_Exact","11100 TELEGRAPH RD, VENTURA, CA, 93004",110039453,"R"
22742,"11100 VANALDEN AVENUE","PORTER RANCH","CA",91326,34.271599973,-118.546974112,242,"11100 VANALDEN AVENUE, PORTER RANCH, CA, 91326","Match","Exact","11100 VANALDEN AVE, PORTER RANCH, CA, 91326",141539394,"R"
22743,"11101 AIRLINE DR","HOUSTON","TX",77037,29.918927495,-95.406387599,243,"11101 AIRLINE DR, HOUSTON, TX, 77037","Match","Exact","11101 AIRLINE DR, HOUSTON, TX, 77037",96653974,"L"
22744,"11101 AIRLINE DRIVE","HOUSTON","TX",77037,29.918927495,-95.406387599,244,"11101 AIRLINE DRIVE, HOUSTON, TX, 77037","Match","Exact","11101 AIRLINE DR, HOUSTON, TX, 77037",96653974,"L"
22745,"11101 COUNTY ROAD 64","DAPHNE","AL",36526,30.603874494,-87.833121247,245,"11101 COUNTY ROAD 64, DAPHNE, AL, 36526","Match","Exact","11101 CO RD 64, DAPHNE, AL, 36526",131632670,"R"
22746,"11101 DOT 2200 CHILDRENS WAY","NASHVILLE","TN",37323,36.138859654,-86.802873902,246,"11101 DOT 2200 CHILDRENS WAY, NASHVILLE, TN, 37323","Match","Non_Exact","2298 CHILDREN'S WAY, NASHVILLE, TN, 37232",97190388,"L"
22747,"11101 DRAGONS LAIR DRIVE","FREDERICKSBURG","VA",22407,38.2608829160001,-77.5782686109999,247,"11101 DRAGONS LAIR DRIVE, FREDERICKSBURG, VA, 22407","Match","Exact","11101 DRAGONS LAIR DR, FREDERICKSBURG, VA, 22407",85024169,"R"
22748,"11101 HARBOUR ESTATES CIRCLE","FORT MYERS","FL",33908,26.5278678450001,-81.934324181,248,"11101 HARBOUR ESTATES CIRCLE, FORT MYERS, FL, 33908","Match","Exact","11101 HARBOUR ESTATES CIR, FORT MYERS, FL, 33908",118082548,"R"
22749,"11101 SW 79TH AVENUE","PINECREST","FL",33156,25.6673632490001,-80.322259823,249,"11101 SW 79TH AVENUE, PINECREST, FL, 33156","Match","Exact","11101 SW 79TH AVE, PINECREST, FL, 33156",115984837,"L"
22750,"11101 WINTHROP WAY","TAMPA","FL",33612,28.0505333,-82.482963467,250,"11101 WINTHROP WAY, TAMPA, FL, 33612","Match","Exact","11101 WINTHROP WAY, TAMPA, FL, 33612",104573494,"L"
22751,"11101-9 LEOPARD ST","CORPUS CHRISTI","TX",78410,27.844443282,-97.5839642449999,251,"11101-9 LEOPARD ST, CORPUS CHRISTI, TX, 78410","Match","Exact","11101 LEOPARD ST, CORPUS CHRISTI, TX, 78410",640133128,"L"
22752,"11102 238TH ST E","GRAHAM","WA",98338,47.0401683310001,-122.283676644,252,"11102 238TH ST E, GRAHAM, WA, 98338","Match","Exact","11102 238TH ST E, GRAHAM, WA, 98338",184639167,"R"
22753,"11102 25TH AVE E STE D","TACOMA","WA",98445,47.1557017860001,-122.396124631,253,"11102 25TH AVE E STE D, TACOMA, WA, 98445","Match","Exact","11102 25TH AVE E, TACOMA, WA, 98445",184668474,"R"
22754,"11102 HUNT GLENN CT","CHARLOTTE","NC",28216,35.2951620700001,-80.852787776,254,"11102 HUNT GLENN CT, CHARLOTTE, NC, 28216","Match","Exact","11102 HUNT GLENN CT, CHARLOTTE, NC, 28216",70597787,"R"
22755,"11102 N 79TH AVE","PEORIA","AZ",85345,33.5856645800001,-112.228984922,255,"11102 N 79TH AVE, PEORIA, AZ, 85345","Match","Exact","11102 N 79TH AVE, PEORIA, AZ, 85345",128261701,"L"
22756,"11103 BALLANTYNE FOREST DRIVE","CHARLOTTE","NC",28277,35.0533609570001,-80.83764034,256,"11103 BALLANTYNE FOREST DRIVE, CHARLOTTE, NC, 28277","Match","Exact","11103 BALLANTYNE FOREST DR, CHARLOTTE, NC, 28277",70529032,"L"
22757,"11103 BIRCH WAY","CLINTON","MD",20735,38.739679736,-76.898120577,257,"11103 BIRCH WAY, CLINTON, MD, 20735","Match","Exact","11103 BIRCH WAY, CLINTON, MD, 20735",76321012,"R"
22758,"11103 CAMARILLO ST","NORTH HOLLYWOOD","CA",91602,34.1576518860001,-118.372827039,258,"11103 CAMARILLO ST, NORTH HOLLYWOOD, CA, 91602","Match","Exact","11103 CAMARILLO ST, N HOLLYWOOD, CA, 91602",638626105,"R"
22759,"11103 NANTUCKET BAY CT","WELLINGTON","FL",33414,26.625936865,-80.223669517,259,"11103 NANTUCKET BAY CT, WELLINGTON, FL, 33414","Match","Exact","11103 NANTUCKET BAY CT, WELLINGTON, FL, 33414",115501084,"L"
22760,"11103 QUEENS WOOD TER","BOWIE","MD",20721,38.920573029,-76.812596162,260,"11103 QUEENS WOOD TER, BOWIE, MD, 20721","Match","Exact","11103 QUEENS WOOD TER, BOWIE, MD, 20721",76416729,"R"
22761,"11103 S HOBART BLVD","LOS ANGELES","CA",90047,33.9336396420001,-118.307213445,261,"11103 S HOBART BLVD, LOS ANGELES, CA, 90047","Match","Exact","11103 S HOBART BLVD, LOS ANGELES, CA, 90047",141660803,"R"
22762,"11104 BOWEN AVE","GREAT FALLS","VA",22066,38.9965038670001,-77.3301208629999,262,"11104 BOWEN AVE, GREAT FALLS, VA, 22066","Match","Exact","11104 BOWEN AVE, GREAT FALLS, VA, 22066",76020411,"R"
22763,"11104 CHESTNUT DRIVE","PLYMOUTH","MI",48170,42.36497224,-83.438607294,263,"11104 CHESTNUT DRIVE, PLYMOUTH, MI, 48170","Match","Exact","11104 CHESTNUT DR, PLYMOUTH, MI, 48170",95494350,"L"
22764,"11104 DON TOMAS LOOP","LAREDO","TX",78045,27.595233428,-99.5227397309999,264,"11104 DON TOMAS LOOP, LAREDO, TX, 78045","Match","Exact","11104 DON TOMAS LOOP, LAREDO, TX, 78045",635330228,"R"
22765,"11104 GLEN ARM ROAD","GLEN ARM","MD",21057,39.4282292780001,-76.531017752,265,"11104 GLEN ARM ROAD, GLEN ARM, MD, 21057","Match","Exact","11104 GLEN ARM RD, GLEN ARM, MD, 21057",635886886,"L"
22766,"11104 SE 105TH AVE","HAPPY VALLEY","OR",97086,45.4434185330001,-122.555722338,266,"11104 SE 105TH AVE, HAPPY VALLEY, OR, 97086","Match","Exact","11104 SE 105TH AVE, HAPPY VALLEY, OR, 97086",157920143,"L"
22767,"11104 W AIRPORT BLVD SUITE 101","STAFFORD","TX",77477,29.6411274180001,-95.568322823,267,"11104 W AIRPORT BLVD SUITE 101, STAFFORD, TX, 77477","Match","Non_Exact","11104 W AIRPORT BLVD, STAFFORD, TX, 77477",78341056,"L"
22768,"11104 WEST AIRPORT STE 214","STAFFORD","TX",77477,29.641127931,-95.568269088,268,"11104 WEST AIRPORT STE 214, STAFFORD, TX, 77477","Match","Non_Exact","11104 W AIRPORT BLVD, STAFFORD, TX, 77477",78341056,"L"
22769,"11105 AUTUMN LANE","CLERMONT","FL",34711,28.4795724690001,-81.773323338,269,"11105 AUTUMN LANE, CLERMONT, FL, 34711","Match","Exact","11105 AUTUMN LN, CLERMONT, FL, 34711",94160760,"R"
22770,"11105 BELLAVISTA DRIVE","POTOMAC","MD",20854,39.0054131140001,-77.22747441,270,"11105 BELLAVISTA DRIVE, POTOMAC, MD, 20854","Match","Exact","11105 BELLAVISTA DR, POTOMAC, MD, 20854",62049532,"L"
22771,"11105 EASTVIEW CIRCLE","DALLAS","TX",75230,32.8987304190001,-96.78960454,271,"11105 EASTVIEW CIRCLE, DALLAS, TX, 75230","Match","Exact","11105 EASTVIEW CIR, DALLAS, TX, 75230",102901898,"L"
22772,"11105 FAIRWAY AVE","OKLAHOMA CITY","OK",73170,35.3571158120001,-97.57371391,272,"11105 FAIRWAY AVE, OKLAHOMA CITY, OK, 73170","Match","Exact","11105 FAIRWAY AVE, OKLAHOMA CITY, OK, 73170",99933739,"R"
22773,"11105 QUEARY COURT","CHARLOTTE","NC",28277,35.0535156500001,-80.8359758459999,273,"11105 QUEARY COURT, CHARLOTTE, NC, 28277","Match","Exact","11105 QUEARY CT, CHARLOTTE, NC, 28277",70529035,"L"
22774,"11105 SAFFOLD WAY","RESTON","VA",20190,38.9723219750001,-77.3282838869999,274,"11105 SAFFOLD WAY, RESTON, VA, 20190","Match","Exact","11105 SAFFOLD WAY, RESTON, VA, 20190",75958306,"L"
22775,"11105 VALLEYBROOK CIR","HIGHLANDS RANCH","CO",80130,39.5143768930001,-104.941087254,275,"11105 VALLEYBROOK CIR, HIGHLANDS RANCH, CO, 80130","Match","Exact","11105 VALLEYBROOK CIR, HIGHLANDS RANCH, CO, 80130",627784973,"L"
22776,"11105 WESTFORK RD","CHINOOK","MT",59523,NA,NA,276,"11105 WESTFORK RD, CHINOOK, MT, 59523","No_Match",NA,NA,NA,NA
22777,"11105 ZION ST NW","COON RAPIDS","MN",55433,45.17153309,-93.332545981,277,"11105 ZION ST NW, COON RAPIDS, MN, 55433","Match","Exact","11105 ZION ST NW, COON RAPIDS, MN, 55433",97484280,"R"
22778,"11106 5850 ROAD","MONTROSE","CO",81403,38.5318158040001,-107.995362652,278,"11106 5850 ROAD, MONTROSE, CO, 81403","Match","Exact","11106 5850 RD, MONTROSE, CO, 81403",651087600,"R"
22779,"11106 BRIDGEHAMPTON DRIVE","CHARLOTTE","NC",28262,35.327731376,-80.6975552499999,279,"11106 BRIDGEHAMPTON DRIVE, CHARLOTTE, NC, 28262","Match","Exact","11106 BRIDGEHAMPTON DR, CHARLOTTE, NC, 28262",70532313,"R"
22780,"11106 CROSBY GARDEN","MISSOURI CITY","TX",77459,29.5004579700001,-95.497784332,280,"11106 CROSBY GARDEN, MISSOURI CITY, TX, 77459","Match","Exact","11106 CROSBY GARDEN, MISSOURI CITY, TX, 77459",635229681,"R"
22781,"11106 CURREY DR","SONORA","CA",95370,37.9931868210001,-120.403112329,281,"11106 CURREY DR, SONORA, CA, 95370","Match","Non_Exact","11106 CURRY DR, SONORA, CA, 95370",101396450,"L"
22782,"11106 DEER VALLEY DRIVE","INDIANAPOLIS","IN",46229,39.7679120010001,-85.9695207669999,282,"11106 DEER VALLEY DRIVE, INDIANAPOLIS, IN, 46229","Match","Exact","11106 DEER VALLEY DR, INDIANAPOLIS, IN, 46229",641063827,"L"
22783,"11106 HACKETT RD","YAKIMA","WA",98903,46.554812713,-120.654973205,283,"11106 HACKETT RD, YAKIMA, WA, 98903","Match","Exact","11106 HACKETT RD, YAKIMA, WA, 98903",184959623,"L"
22784,"11106 HOTCHKISS DR UNIT A","SEBASTIAN","FL",32958,27.799437395,-80.499016838,284,"11106 HOTCHKISS DR UNIT A, SEBASTIAN, FL, 32958","Match","Exact","11106 HOTCHKISS DR, SEBASTIAN, FL, 32958",120296824,"R"
22785,"11106 NE 101ST STREET","VANCOUVER","WA",98662,45.694569196,-122.558962125,285,"11106 NE 101ST STREET, VANCOUVER, WA, 98662","Match","Exact","11106 NE 101ST ST, VANCOUVER, WA, 98662",158368488,"L"
22786,"11106 QUEENSWAY DR","ST LOUIS","MO",63146,38.685294454,-90.412058967,286,"11106 QUEENSWAY DR, ST LOUIS, MO, 63146","Match","Exact","11106 QUEENSWAY DR, SAINT LOUIS, MO, 63146",100130004,"L"
22787,"11106 VETERANS MEMORIAL DRIVE STE F","HOUSTON","TX",77067,29.941921688,-95.463368303,287,"11106 VETERANS MEMORIAL DRIVE STE F, HOUSTON, TX, 77067","Match","Exact","11106 VETERANS MEMORIAL DR, HOUSTON, TX, 77067",642108195,"R"
22788,"11106 WEST AVENUE","SAN ANTONIO","TX",78213,29.540559135,-98.5147939839999,288,"11106 WEST AVENUE, SAN ANTONIO, TX, 78213","Match","Exact","11106 WEST AVE, SAN ANTONIO, TX, 78213",101493929,"R"
22789,"11107 HOMRIGHAUS ROAD","GALVESTON","TX",77554,29.2467955400001,-94.891740192,289,"11107 HOMRIGHAUS ROAD, GALVESTON, TX, 77554","Match","Exact","11107 HOMRIGHAUS RD, GALVESTON, TX, 77554",96731957,"R"
22790,"11107 S LONGWOOD DR","CHICAGO","IL",60643,41.691165019,-87.672076749,290,"11107 S LONGWOOD DR, CHICAGO, IL, 60643","Match","Exact","11107 S LONGWOOD DR, CHICAGO, IL, 60643",111823294,"L"
22791,"11107 SHERWOOD GARDEN DR","HOUSTON","TX",77043,29.7875948180001,-95.580168403,291,"11107 SHERWOOD GARDEN DR, HOUSTON, TX, 77043","Match","Exact","11107 SHERWOOD GARDEN DR, HOUSTON, TX, 77043",637142849,"L"
22792,"11107 WURZBACH RD STE 602","SAN ANTONIO","TX",78230,29.5425126260001,-98.5505493479999,292,"11107 WURZBACH RD STE 602, SAN ANTONIO, TX, 78230","Match","Exact","11107 WURZBACH RD, SAN ANTONIO, TX, 78230",101492269,"L"
22793,"11108 CHENNAULT BEACH ROAD 1227","MUKILTEO","WA",98275,47.8955278700001,-122.300702969,293,"11108 CHENNAULT BEACH ROAD 1227, MUKILTEO, WA, 98275","Match","Exact","11108 CHENNAULT BEACH RD, MUKILTEO, WA, 98275",629056789,"L"
22794,"11108 EAGLE VIEW DRIVE","BRAINERD","MN",56401,46.3963291270001,-94.164967828,294,"11108 EAGLE VIEW DRIVE, BRAINERD, MN, 56401","Match","Non_Exact","11108 EAGLEVIEW DR NE, BRAINERD, MN, 56401",162825222,"R"
22795,"11108 HUSTON ST","NORTH HOLLYWOOD","CA",91601,34.1597525560001,-118.371969905,295,"11108 HUSTON ST, NORTH HOLLYWOOD, CA, 91601","Match","Exact","11108 HUSTON ST, N HOLLYWOOD, CA, 91601",141591776,"L"
22796,"111082 ANTIOCH ROAD SUITE A","OVERLAND PARK","KS",66212,NA,NA,296,"111082 ANTIOCH ROAD SUITE A, OVERLAND PARK, KS, 66212","No_Match",NA,NA,NA,NA
22797,"11109 DOVE VALLEY TRAIL","HASLET","TX",75062,32.939829365,-97.362025703,297,"11109 DOVE VALLEY TRAIL, HASLET, TX, 75062","Match","Non_Exact","11109 DOVE VALLEY, HASLET, TX, 76052",617675323,"R"
22798,"11109 FRUITWOOD DR","BOWIE","MD",20720,38.948400029,-76.814286011,298,"11109 FRUITWOOD DR, BOWIE, MD, 20720","Match","Exact","11109 FRUITWOOD DR, BOWIE, MD, 20720",76310997,"R"
22799,"11109 HARBOR ROAD","FRISCO","TX",75035,33.1438641500001,-96.7824697999999,299,"11109 HARBOR ROAD, FRISCO, TX, 75035","Match","Exact","11109 HARBOR RD, FRISCO, TX, 75035",123527285,"R"
22800,"11109 HICKMAN MILLS DR","KANSAS CITY","MO",64134,38.9220563980001,-94.523239946,300,"11109 HICKMAN MILLS DR, KANSAS CITY, MO, 64134","Match","Exact","11109 HICKMAN MILLS DR, KANSAS CITY, MO, 64134",91458408,"L"
22801,"11109 LARK LANDING CT","RIVERVIEW","FL",33569,27.848481776,-82.317290718,301,"11109 LARK LANDING CT, RIVERVIEW, FL, 33569","Match","Non_Exact","11109 LARK LANDING CT, RIVERVIEW, FL, 33578",646598775,"R"
22802,"11109 NE 124TH LANE B205","KIRKLAND","WA",98034,47.711833432,-122.192816399,302,"11109 NE 124TH LANE B205, KIRKLAND, WA, 98034","Match","Non_Exact","11109 NE 124TH LN, KIRKLAND, WA, 98034",239758657,"L"
22803,"11109 NEW ORLEANS DR","FRISCO","TX",75035,33.1260652930001,-96.781800899,303,"11109 NEW ORLEANS DR, FRISCO, TX, 75035","Match","Exact","11109 NEW ORLEANS DR, FRISCO, TX, 75035",210505894,"R"
22804,"11109 OTSEGO ST NUMBER 305","NORTH HOLLYWOOD","CA",91601,34.1629841130001,-118.372156109,304,"11109 OTSEGO ST NUMBER 305, NORTH HOLLYWOOD, CA, 91601","Match","Exact","11109 OTSEGO ST, N HOLLYWOOD, CA, 91601",141591767,"R"
22805,"11109 STATE HIGHWAY 154 E","DIANA","TX",75640,NA,NA,305,"11109 STATE HIGHWAY 154 E, DIANA, TX, 75640","No_Match",NA,NA,NA,NA
22806,"11109 W COUNTRY DRIVE","OKLAHOMA CITY","OK",73170,35.357731899,-97.559778995,306,"11109 W COUNTRY DRIVE, OKLAHOMA CITY, OK, 73170","Match","Exact","11109 W COUNTRY DR, OKLAHOMA CITY, OK, 73170",99904582,"R"
22807,"1111 11TH AVENUE","SACRAMENTO","CA",95818,38.546894224,-121.505799927,307,"1111 11TH AVENUE, SACRAMENTO, CA, 95818","Match","Exact","1111 11TH AVE, SACRAMENTO, CA, 95818",133418945,"L"
22808,"1111 14TH STREET","REEDSBURG","WI",53959,43.5451460780001,-89.993839726,308,"1111 14TH STREET, REEDSBURG, WI, 53959","Match","Exact","1111 14TH ST, REEDSBURG, WI, 53959",86543031,"R"
22809,"1111 17TH AVENUE","LANGDON","ND",58249,48.7699754510001,-98.3805705569999,309,"1111 17TH AVENUE, LANGDON, ND, 58249","Match","Exact","1111 17TH AVE, LANGDON, ND, 58249",181360948,"R"
22810,"1111 1ST AVE","WALNUT GROVE","CA",95690,38.2476502980001,-121.51463143,310,"1111 1ST AVE, WALNUT GROVE, CA, 95690","Match","Exact","1111 1ST AVE, WALNUT GROVE, CA, 95690",133315877,"R"
22811,"1111 22ND ST SUITE 640","OAK BROOK","IL",60523,41.8469860340001,-87.9459281809999,311,"1111 22ND ST SUITE 640, OAK BROOK, IL, 60523","Match","Non_Exact","1111 W 22ND ST, OAK BROOK, IL, 60523",112548696,"L"
22812,"1111 24TH ST NW UNIT 46","WASHINGTON","DC",20037,38.9038603920001,-77.0514034029999,312,"1111 24TH ST NW UNIT 46, WASHINGTON, DC, 20037","Match","Exact","1111 24TH ST NW, WASHINGTON, DC, 20037",610856959,"R"
22813,"1111 25TH ST NW APT 104","WASHINGTON","DC",20037,38.9045146230001,-77.0532847109999,313,"1111 25TH ST NW APT 104, WASHINGTON, DC, 20037","Match","Exact","1111 25TH ST NW, WASHINGTON, DC, 20037",610856963,"R"
22814,"1111 2ND STREET EAST","DICKINSON","ND",58601,46.8805409760001,-102.766775294,314,"1111 2ND STREET EAST, DICKINSON, ND, 58601","Match","Exact","1111 2ND ST E, DICKINSON, ND, 58601",199290293,"L"
22815,"1111 49TH AVENUE NE","ST PETERSBURG","FL",33703,27.816642405,-82.6499869099999,315,"1111 49TH AVENUE NE, ST PETERSBURG, FL, 33703","Match","Non_Exact","1111 49TH AVE N, SAINT PETERSBURG, FL, 33703",124703823,"R"
22816,"1111 57 STREET","BROOKLYN","NY",11219,40.632993696,-74.0008073079999,316,"1111 57 STREET, BROOKLYN, NY, 11219","Match","Exact","1111 57TH ST, BROOKLYN, NY, 11219",59097897,"L"
22817,"1111 7TH AVE NW","BUFFALO","MN",55313,NA,NA,317,"1111 7TH AVE NW, BUFFALO, MN, 55313","No_Match",NA,NA,NA,NA
22818,"1111 ADAMS AVENUE APT I","HOMESTEAD","FL",33034,25.459928986,-80.462401571,318,"1111 ADAMS AVENUE APT I, HOMESTEAD, FL, 33034","Match","Exact","1111 ADAMS AVE, HOMESTEAD, FL, 33034",116096490,"L"
22819,"1111 ADELLA AV UNIT 1","CORONADO","CA",92118,32.6828097740001,-117.176694143,319,"1111 ADELLA AV UNIT 1, CORONADO, CA, 92118","Match","Exact","1111 ADELLA AVE, CORONADO, CA, 92118",636006562,"L"
22820,"1111 AINSLEE","MIDLAND","TX",79701,32.0034589840001,-102.105275992,320,"1111 AINSLEE, MIDLAND, TX, 79701","Match","Non_Exact","1111 AINSLEE ST, MIDLAND, TX, 79701",139579734,"L"
22821,"1111 ALASKA  AVENUE  UNIT 58","FAIRFIELD","CA",94533,38.272761401,-122.047205293,321,"1111 ALASKA  AVENUE  UNIT 58, FAIRFIELD, CA, 94533","Match","Exact","1111 ALASKA AVE, FAIRFIELD, CA, 94533",192579718,"L"
22822,"1111 ARCHWOOD DR SW UNIT 291","OLYMPIA","WA",98502,47.0398156970001,-122.942220922,322,"1111 ARCHWOOD DR SW UNIT 291, OLYMPIA, WA, 98502","Match","Exact","1111 ARCHWOOD DR SW, OLYMPIA, WA, 98502",180979673,"L"
22823,"1111 BAILEY AVE","NEEDLES","CA",92363,34.8356539760001,-114.618278802,323,"1111 BAILEY AVE, NEEDLES, CA, 92363","Match","Exact","1111 BAILEY AVE, NEEDLES, CA, 92363",144524278,"R"
22824,"1111 BAKER COURT","TROY","MI",48083,42.5670450640001,-83.125211303,324,"1111 BAKER COURT, TROY, MI, 48083","Match","Exact","1111 BAKER CT, TROY, MI, 48083",631757833,"R"
22825,"1111 BALD EAGLE DR","NORMAN","OK",73072,35.170036769,-97.4250567399999,325,"1111 BALD EAGLE DR, NORMAN, OK, 73072","Match","Exact","1111 BALD EAGLE DR, NORMAN, OK, 73072",99952689,"R"
22826,"1111 BELT LINE ROAD STE 108E","GARLAND","TX",75040,NA,NA,326,"1111 BELT LINE ROAD STE 108E, GARLAND, TX, 75040","No_Match",NA,NA,NA,NA
22827,"1111 BENCKESER ROAD","COLE CAMP","MO",65325,38.453761666,-93.1987747109999,327,"1111 BENCKESER ROAD, COLE CAMP, MO, 65325","Match","Exact","1111 BENCKESER RD, COLE CAMP, MO, 65325",22703320,"R"
22828,"1111 BERGE RD","STEVENSON","WA",98648,45.7207605740001,-121.7790927,328,"1111 BERGE RD, STEVENSON, WA, 98648","Match","Exact","1111 BERGE RD, STEVENSON, WA, 98648",651373682,"R"
22829,"1111 BISCAYNE BLVD APT 126","N MIAMI","FL",33181,NA,NA,329,"1111 BISCAYNE BLVD APT 126, N MIAMI, FL, 33181","No_Match",NA,NA,NA,NA
22830,"1111 BLALOCK RD APT 90","HOUSTON","TX",77075,29.78742386,-95.5217782829999,330,"1111 BLALOCK RD APT 90, HOUSTON, TX, 77075","Match","Non_Exact","1111 BLALOCK RD, HOUSTON, TX, 77055",642470910,"L"
22831,"1111 BLALOCK ROAD 32","HOUSTON","TX",77055,29.78742386,-95.5217782829999,331,"1111 BLALOCK ROAD 32, HOUSTON, TX, 77055","Match","Exact","1111 BLALOCK RD, HOUSTON, TX, 77055",642470910,"L"
22832,"1111 BLANCHARD ROAD","MEMPHIS","TN",38116,35.024694443,-90.0278129599999,332,"1111 BLANCHARD ROAD, MEMPHIS, TN, 38116","Match","Exact","1111 BLANCHARD RD, MEMPHIS, TN, 38116",72910337,"R"
22833,"1111 BOSTON POST ROAD","OLD SAYBROOK","CT",6475,NA,NA,333,"1111 BOSTON POST ROAD, OLD SAYBROOK, CT, 6475","No_Match",NA,NA,NA,NA
22834,"1111 BOXWOOD LANE","GREENWOOD","IN",46143,39.5921513850001,-86.07999682,334,"1111 BOXWOOD LANE, GREENWOOD, IN, 46143","Match","Exact","1111 BOXWOOD LN, GREENWOOD, IN, 46143",606987208,"R"
22835,"1111 BRICKELL AVENUE SUITE 2325","MIAMI","FL",33131,25.762947942,-80.191536661,335,"1111 BRICKELL AVENUE SUITE 2325, MIAMI, FL, 33131","Match","Exact","1111 BRICKELL AVE, MIAMI, FL, 33131",650065689,"L"
22836,"1111 BRICKELL AVENUE SUITE 2803","MIAMI","FL",33131,25.762947942,-80.191536661,336,"1111 BRICKELL AVENUE SUITE 2803, MIAMI, FL, 33131","Match","Exact","1111 BRICKELL AVE, MIAMI, FL, 33131",650065689,"L"
22837,"1111 BROADWAY 24TH FLOOR","OAKLAND","CA",94607,37.802407535,-122.272469331,337,"1111 BROADWAY 24TH FLOOR, OAKLAND, CA, 94607","Match","Exact","1111 BROADWAY, OAKLAND, CA, 94607",124997177,"L"
22838,"1111 BUSAC","JACKSONVILLE","FL",32205,30.30408421,-81.763059761,338,"1111 BUSAC, JACKSONVILLE, FL, 32205","Match","Non_Exact","1111 BUSAC AVE, JACKSONVILLE, FL, 32205",83910069,"L"
22839,"1111 CACTUS TERR  CONDO 102","DELRAY BCH","FL",33445,26.442614479,-80.100956728,339,"1111 CACTUS TERR  CONDO 102, DELRAY BCH, FL, 33445","Match","Exact","1111 CACTUS TER, DELRAY BEACH, FL, 33445",115291227,"L"
22840,"1111 CAREY AVE STE 1","AKRON","OH",44314,41.041612495,-81.567472964,340,"1111 CAREY AVE STE 1, AKRON, OH, 44314","Match","Exact","1111 CAREY AVE, AKRON, OH, 44314",61379319,"R"
22841,"1111 CATALINA BOULEVARD","SAN DIEGO","CA",92107,32.726547248,-117.244423812,341,"1111 CATALINA BOULEVARD, SAN DIEGO, CA, 92107","Match","Exact","1111 CATALINA BLVD, SAN DIEGO, CA, 92107",195339919,"R"
22842,"1111 CENTRE PKWY","LEXINGTON","KY",40517,37.9851036000001,-84.485324675,342,"1111 CENTRE PKWY, LEXINGTON, KY, 40517","Match","Exact","1111 CENTRE PKWY, LEXINGTON, KY, 40517",31925108,"L"
22843,"1111 CHAMPIONS POINTE DR","DURHAM","NC",27712,36.110168769,-78.8640811129999,343,"1111 CHAMPIONS POINTE DR, DURHAM, NC, 27712","Match","Exact","1111 CHAMPIONS POINTE DR, DURHAM, NC, 27712",71757572,"R"
22844,"1111 CHURCH STREET","CAMDEN","SC",29020,34.246556646,-80.6091805999999,344,"1111 CHURCH STREET, CAMDEN, SC, 29020","Match","Exact","1111 CHURCH ST, CAMDEN, SC, 29020",645782275,"L"
22845,"1111 CLAIREMONT AVE SUITE B 2","DECAUTUR","GA",30030,NA,NA,345,"1111 CLAIREMONT AVE SUITE B 2, DECAUTUR, GA, 30030","Tie",NA,NA,NA,NA
22846,"1111 CONFEDERATE DRIVE","COLUMBIA","TN",38401,35.60667225,-87.055049703,346,"1111 CONFEDERATE DRIVE, COLUMBIA, TN, 38401","Match","Exact","1111 CONFEDERATE DR, COLUMBIA, TN, 38401",650697415,"R"
22847,"1111 CORNELL AVENUE      APT A","ALBANY","CA",94706,37.884095374,-122.294224203,347,"1111 CORNELL AVENUE      APT A, ALBANY, CA, 94706","Match","Exact","1111 CORNELL AVE, ALBANY, CA, 94706",650181399,"L"
22848,"1111 DAWSON AVENUE","LONG BEACH","CA",90804,33.780997352,-118.165474178,348,"1111 DAWSON AVENUE, LONG BEACH, CA, 90804","Match","Exact","1111 DAWSON AVE, LONG BEACH, CA, 90804",141701137,"L"
22849,"1111 DELAWARE AVE","MARYSVILLE","MI",48040,42.9160665840001,-82.474253631,349,"1111 DELAWARE AVE, MARYSVILLE, MI, 48040","Match","Exact","1111 DELAWARE AVE, MARYSVILLE, MI, 48040",110976729,"R"
22850,"1111 E 118TH STREET","LOS ANGELES","CA",90059,33.9266281500001,-118.256062012,350,"1111 E 118TH STREET, LOS ANGELES, CA, 90059","Match","Exact","1111 E 118TH ST, LOS ANGELES, CA, 90059",141673426,"L"
22851,"1111 E 54TH ST SUITE 112","INDIANAPOLIS","IN",46220,39.8511632460001,-86.13945333,351,"1111 E 54TH ST SUITE 112, INDIANAPOLIS, IN, 46220","Match","Non_Exact","1111 E 54TH ST, INDIANAPOLIS, IN, 46220",107985084,"R"
22852,"1111 E DRAPER PARKWAY SUITE 101","DRAPER","UT",84020,40.5283355710001,-111.859009128,352,"1111 E DRAPER PARKWAY SUITE 101, DRAPER, UT, 84020","Match","Exact","1111 DRAPER PKWY, DRAPER, UT, 84020",176153294,"L"
22853,"1111 E HERNDON SUITE 306","FRESNO","CA",93720,NA,NA,353,"1111 E HERNDON SUITE 306, FRESNO, CA, 93720","No_Match",NA,NA,NA,NA
22854,"1111 E I-65 SERVICE RD S SUITE 208","MOBILE","AL",36606,NA,NA,354,"1111 E I-65 SERVICE RD S SUITE 208, MOBILE, AL, 36606","No_Match",NA,NA,NA,NA
22855,"1111 E SUNRISE BLVD UNIT 609","FT LAUDERDALE","FL",33304,26.1372416730001,-80.132345987,355,"1111 E SUNRISE BLVD UNIT 609, FT LAUDERDALE, FL, 33304","Match","Non_Exact","1111 E SUNRISE BLVD, FORT LAUDERDALE, FL, 33304",637280297,"L"
22856,"1111 E UNION 421","SEATTLE","WA",98122,NA,NA,356,"1111 E UNION 421, SEATTLE, WA, 98122","No_Match",NA,NA,NA,NA
22857,"1111 EAST LINCOLNWAY SUITE 213","CHEYENNE","WY",82001,41.136724918,-104.801775793,357,"1111 EAST LINCOLNWAY SUITE 213, CHEYENNE, WY, 82001","Match","Exact","1111 E LINCOLNWAY, CHEYENNE, WY, 82001",604970546,"R"
22858,"1111 EAST LINCOLWAY SUITE 109","CHEYENNE","WY",82001,NA,NA,358,"1111 EAST LINCOLWAY SUITE 109, CHEYENNE, WY, 82001","No_Match",NA,NA,NA,NA
22859,"1111 EAST LONG STREET","COLUMBUS","OH",43203,39.968308286,-82.97168949,359,"1111 EAST LONG STREET, COLUMBUS, OH, 43203","Match","Exact","1111 E LONG ST, COLUMBUS, OH, 43203",135579661,"R"
22860,"1111 EAST SOUTH RIVER STREET","APPLETON","WI",54915,44.25572249,-88.3881265539999,360,"1111 EAST SOUTH RIVER STREET, APPLETON, WI, 54915","Match","Exact","1111 E SOUTH RIVER ST, APPLETON, WI, 54915",74887306,"R"
22861,"1111 ELDERGLEN LANE","HARBOR CITY","CA",90710,33.810025857,-118.29540619,361,"1111 ELDERGLEN LANE, HARBOR CITY, CA, 90710","Match","Exact","1111 ELDERGLEN LN, HARBOR CITY, CA, 90710",141669831,"R"
22862,"1111 EUCLID STREET 101","SANTA MONICA","CA",90403,34.0271708290001,-118.491109447,362,"1111 EUCLID STREET 101, SANTA MONICA, CA, 90403","Match","Exact","1111 EUCLID ST, SANTA MONICA, CA, 90403",141559136,"L"
22863,"1111 FIGUEROA PLACE","WILMINGTON","CA",90744,33.782029922,-118.281043862,363,"1111 FIGUEROA PLACE, WILMINGTON, CA, 90744","Match","Exact","1111 FIGUEROA PL, WILMINGTON, CA, 90744",629803747,"L"
22864,"1111 FISKE ST","PACIFIC PALISADES","CA",90272,34.0494396490001,-118.522635178,364,"1111 FISKE ST, PACIFIC PALISADES, CA, 90272","Match","Exact","1111 FISKE ST, PACIFIC PALISADES, CA, 90272",141557849,"L"
22865,"1111 FRANKLIN STREET","PORT TOWNSEND","WA",98368,48.1155291970001,-122.76061088,365,"1111 FRANKLIN STREET, PORT TOWNSEND, WA, 98368","Match","Exact","1111 FRANKLIN ST, PORT TOWNSEND, WA, 98368",151991829,"R"
22866,"1111 GARNER CIR","AMES","IA",50010,42.0545347350001,-93.6265435239999,366,"1111 GARNER CIR, AMES, IA, 50010","Match","Exact","1111 GARNER CIR, AMES, IA, 50010",65964218,"L"
22867,"1111 GAZANIA DR","PFLUGERVILLE","TX",78660,30.4561058560001,-97.631923689,367,"1111 GAZANIA DR, PFLUGERVILLE, TX, 78660","Match","Exact","1111 GAZANIA DR, PFLUGERVILLE, TX, 78660",63986489,"L"
22868,"1111 GLENDALOUGH DRIVE","PFLUGERVILLE","TX",78660,30.4752916780001,-97.6360201639999,368,"1111 GLENDALOUGH DRIVE, PFLUGERVILLE, TX, 78660","Match","Exact","1111 GLENDALOUGH DR, PFLUGERVILLE, TX, 78660",64005029,"R"
22869,"1111 GOUGH STREET","SAN FRANCISCO","CA",94109,37.7844232900001,-122.424507937,369,"1111 GOUGH STREET, SAN FRANCISCO, CA, 94109","Match","Exact","1111 GOUGH ST, SAN FRANCISCO, CA, 94109",192283790,"L"
22870,"1111 GREEN HILLS ROAD","DUNCANVILLE","TX",75137,32.6387568260001,-96.939481546,370,"1111 GREEN HILLS ROAD, DUNCANVILLE, TX, 75137","Match","Exact","1111 GREEN HILLS RD, DUNCANVILLE, TX, 75137",102941986,"R"
22871,"1111 H STREET STE 205","SACRAMENTO","CA",95814,38.5820859990001,-121.49094785,371,"1111 H STREET STE 205, SACRAMENTO, CA, 95814","Match","Exact","1111 H ST, SACRAMENTO, CA, 95814",133323434,"L"
22872,"1111 HARMONY ROAD","NORFOLK","VA",23502,36.85990166,-76.2174749059999,372,"1111 HARMONY ROAD, NORFOLK, VA, 23502","Match","Exact","1111 HARMONY RD, NORFOLK, VA, 23502",122129683,"L"
22873,"1111 HARRISON AVE","MURFREESBORO","TN",37130,35.857206117,-86.374379065,373,"1111 HARRISON AVE, MURFREESBORO, TN, 37130","Match","Exact","1111 HARRISON AVE, MURFREESBORO, TN, 37130",59015678,"L"
22874,"1111 HIGHWAY 6 SUITE 150","SUGAR LAND","TX",77478,29.606136813,-95.638737324,374,"1111 HIGHWAY 6 SUITE 150, SUGAR LAND, TX, 77478","Match","Non_Exact","1111 STATE HWY 6, SUGAR LAND, TX, 77478",227766044,"R"
22875,"1111 HILLCREST DRIVE","CAVE CITY","AR",72521,35.953688405,-91.564160961,375,"1111 HILLCREST DRIVE, CAVE CITY, AR, 72521","Match","Non_Exact","1111 HILLCREST RD, CAVE CITY, AR, 72521",604547877,"L"
22876,"1111 HILLSBORO COVE CR","WEBSTER","NY",14580,43.2042087720001,-77.5157238099999,376,"1111 HILLSBORO COVE CR, WEBSTER, NY, 14580","Match","Exact","1111 HILLSBORO COVE CIR, WEBSTER, NY, 14580",14564144,"L"
22877,"1111 HOUGHTON RD APT 1205","KATY","TX",77450,29.772359479,-95.721624333,377,"1111 HOUGHTON RD APT 1205, KATY, TX, 77450","Match","Exact","1111 HOUGHTON RD, KATY, TX, 77450",96628345,"R"
22878,"1111 HOWE AVE STE 305","SACRAMENTO","CA",95823,38.585600292,-121.415323718,378,"1111 HOWE AVE STE 305, SACRAMENTO, CA, 95823","Match","Non_Exact","1111 HOWE AVE, SACRAMENTO, CA, 95825",133335393,"L"
22879,"1111 INDUSTRY DRIVE","LAWRENCEBURG","KY",40342,NA,NA,379,"1111 INDUSTRY DRIVE, LAWRENCEBURG, KY, 40342","No_Match",NA,NA,NA,NA
22880,"1111 J STREET STE G101","MODEST0","CA",95354,37.641360418,-120.999211138,380,"1111 J STREET STE G101, MODEST0, CA, 95354","Match","Non_Exact","1111 J ST, MODESTO, CA, 95354",102604586,"L"
22881,"1111 J STREET SUITE G101","MODESTO","CA",95354,37.641360418,-120.999211138,381,"1111 J STREET SUITE G101, MODESTO, CA, 95354","Match","Exact","1111 J ST, MODESTO, CA, 95354",102604586,"L"
22882,"1111 KANE CONCOURSE SUITE 610","BAY HARBOR IS","FL",33154,NA,NA,382,"1111 KANE CONCOURSE SUITE 610, BAY HARBOR IS, FL, 33154","No_Match",NA,NA,NA,NA
22883,"1111 KANE CONCOURSE SUITE 610","BAY HARBOR","FL",33154,NA,NA,383,"1111 KANE CONCOURSE SUITE 610, BAY HARBOR, FL, 33154","No_Match",NA,NA,NA,NA
22884,"1111 KANE CONCOURSE SUITE 619","BAY HARBOR ISLANDS","FL",33154,NA,NA,384,"1111 KANE CONCOURSE SUITE 619, BAY HARBOR ISLANDS, FL, 33154","No_Match",NA,NA,NA,NA
22885,"1111 LAFAYETTE DRIVE","NEW ALBANY","IN",47150,38.329948233,-85.8043114119999,385,"1111 LAFAYETTE DRIVE, NEW ALBANY, IN, 47150","Match","Exact","1111 LAFAYETTE DR, NEW ALBANY, IN, 47150",89547567,"L"
22886,"1111 LANDER ROAD","MAYFIELD HEIGHTS","OH",44124,41.53028621,-81.4632391389999,386,"1111 LANDER ROAD, MAYFIELD HEIGHTS, OH, 44124","Match","Exact","1111 LANDER RD, MAYFIELD HEIGHTS, OH, 44124",61133973,"L"
22887,"1111 LINN DR","SPEARMAN","TX",79081,36.186080319,-101.190715348,387,"1111 LINN DR, SPEARMAN, TX, 79081","Match","Exact","1111 LINN DR, SPEARMAN, TX, 79081",186537827,"R"
22888,"1111 MAIN STREET STE 750","KANSAS CITY","MO",64105,39.100690044,-94.58316095,388,"1111 MAIN STREET STE 750, KANSAS CITY, MO, 64105","Match","Exact","1111 MAIN ST, KANSAS CITY, MO, 64105",91445166,"L"
22889,"1111 MEADOW DR","EULESS","TX",76039,NA,NA,389,"1111 MEADOW DR, EULESS, TX, 76039","No_Match",NA,NA,NA,NA
22890,"1111 MEDICAL PLAZA DRIVE","SPRING","TX",77380,30.172647006,-95.4539974099999,390,"1111 MEDICAL PLAZA DRIVE, SPRING, TX, 77380","Match","Exact","1111 MEDICAL PLAZA DR, SPRING, TX, 77380",79320887,"R"
22891,"1111 MERIDENE DRIVE UNIT 2","BALTIMORE","MD",21239,39.368536836,-76.5986490619999,391,"1111 MERIDENE DRIVE UNIT 2, BALTIMORE, MD, 21239","Match","Exact","1111 MERIDENE DR, BALTIMORE, MD, 21239",206445711,"R"
22892,"1111 MORSE AVE SPACE 141","SUNNYVALE","CA",94089,37.4020165800001,-122.015857984,392,"1111 MORSE AVE SPACE 141, SUNNYVALE, CA, 94089","Match","Exact","1111 MORSE AVE, SUNNYVALE, CA, 94089",648502516,"L"
22893,"1111 MUSTANG DR","DANVILLE","CA",94526,37.7998921000001,-121.98387265,393,"1111 MUSTANG DR, DANVILLE, CA, 94526","Match","Exact","1111 MUSTANG DR, DANVILLE, CA, 94526",192065172,"R"
22894,"1111 N BOONVILLE AVE","SPRINGFIELD","MO",65802,37.2203396850001,-93.292245732,394,"1111 N BOONVILLE AVE, SPRINGFIELD, MO, 65802","Match","Exact","1111 N BOONVILLE AVE, SPRINGFIELD, MO, 65802",76675019,"L"
22895,"1111 N CALIFORNIA AVE","LA PUENTE","CA",91744,34.0437806190001,-117.956310251,395,"1111 N CALIFORNIA AVE, LA PUENTE, CA, 91744","Match","Exact","1111 N CALIFORNIA AVE, LA PUENTE, CA, 91744",141713217,"L"
22896,"1111 N CARLOS ST","WICHITA","KS",67203,37.703148132,-97.349582611,396,"1111 N CARLOS ST, WICHITA, KS, 67203","Match","Exact","1111 CARLOS ST, WICHITA, KS, 67203",115634720,"L"
22897,"1111 N CHESTNUT AVE","MARSHFIELD","WI",54449,44.6781584510001,-90.168170677,397,"1111 N CHESTNUT AVE, MARSHFIELD, WI, 54449","Match","Exact","1111 N CHESTNUT AVE, MARSHFIELD, WI, 54449",51276310,"R"
22898,"1111 N COUNTRY CLUB DR","SHOREACRES","TX",77571,29.623249248,-95.026668253,398,"1111 N COUNTRY CLUB DR, SHOREACRES, TX, 77571","Match","Exact","1111 N COUNTRY CLUB DR, SHOREACRES, TX, 77571",96116750,"L"
22899,"1111 N NORTHSHORE DRIVE SUITE P250","KNOXVILLE","TN",37919,35.938442518,-84.003219848,399,"1111 N NORTHSHORE DRIVE SUITE P250, KNOXVILLE, TN, 37919","Match","Non_Exact","1111 N NORTHSHORE DR, KNOXVILLE, TN, 37919",639402860,"L"
22900,"1111 N PIKE STREET","GRAFTON","WV",26354,39.3474918640001,-80.038025665,400,"1111 N PIKE STREET, GRAFTON, WV, 26354","Match","Exact","1111 PIKE ST, GRAFTON, WV, 26354",51548969,"L"
22901,"1111 N POST ROAD","OKLAHOMA CITY","OK",73130,35.478887936,-97.3531088619999,401,"1111 N POST ROAD, OKLAHOMA CITY, OK, 73130","Match","Exact","1111 N POST RD, OKLAHOMA CITY, OK, 73130",650002001,"L"
22902,"1111 N RUSSELL ROAD","BLOOMINGTON","IN",47408,39.1753779680001,-86.4814579169999,402,"1111 N RUSSELL ROAD, BLOOMINGTON, IN, 47408","Match","Exact","1111 N RUSSELL RD, BLOOMINGTON, IN, 47408",640359041,"L"
22903,"1111 N WELLS   STE 500","CHICAGO","IL",60610,NA,NA,403,"1111 N WELLS   STE 500, CHICAGO, IL, 60610","No_Match",NA,NA,NA,NA
22904,"1111 NE 99TH AVE SUITE 201","PORTLAND","OR",97220,45.5302992580001,-122.562097278,404,"1111 NE 99TH AVE SUITE 201, PORTLAND, OR, 97220","Match","Non_Exact","1111 NE 99TH AVE, PORTLAND, OR, 97220",157559740,"L"
22905,"1111 NEAL DRIVE","ALEXANDRIA","VA",22308,38.729702504,-77.052248074,405,"1111 NEAL DRIVE, ALEXANDRIA, VA, 22308","Match","Exact","1111 NEAL DR, ALEXANDRIA, VA, 22308",75992101,"L"
22906,"1111 NORTH BOONVILLE AVENUE","SPRINGFIELD","MO",65802,37.2203175230001,-93.292246818,406,"1111 NORTH BOONVILLE AVENUE, SPRINGFIELD, MO, 65802","Match","Exact","1111 N BOONVILLE AVE, SPRINGFIELD, MO, 65802",76675019,"L"
22907,"1111 NORTH DRIVE","SEYMOUR","IN",47274,NA,NA,407,"1111 NORTH DRIVE, SEYMOUR, IN, 47274","No_Match",NA,NA,NA,NA
22908,"1111 NORTH LOOP WEST SUITE 702","HOUSTON","TX",77008,29.814571776,-95.384042973,408,"1111 NORTH LOOP WEST SUITE 702, HOUSTON, TX, 77008","Match","Non_Exact","1111 NORTH LOOP W, HOUSTON, TX, 77022",96057662,"L"
22909,"1111 NORTH MAPLE ROAD","ANN ARBOR","MI",48103,42.292097154,-83.7806867199999,409,"1111 NORTH MAPLE ROAD, ANN ARBOR, MI, 48103","Match","Exact","1111 N MAPLE RD, ANN ARBOR, MI, 48103",26011602,"L"
22910,"1111 OCEAN SHORE BLVD 2","ORMOND BEACH","FL",32176,29.3198170480001,-81.05360682,410,"1111 OCEAN SHORE BLVD 2, ORMOND BEACH, FL, 32176","Match","Exact","1111 OCEAN SHORE BLVD, ORMOND BEACH, FL, 32176",94520394,"R"
22911,"1111 OLD CHENEY ROAD","LINCOLNE","NE",68512,40.7555904230001,-96.7051580199999,411,"1111 OLD CHENEY ROAD, LINCOLNE, NE, 68512","Match","Non_Exact","1111 OLD CHENEY RD, LINCOLN, NE, 68512",28298477,"R"
22912,"1111 ORTMAN ROAD","MARQUETTE","MI",49855,46.4773307080001,-87.358498133,412,"1111 ORTMAN ROAD, MARQUETTE, MI, 49855","Match","Exact","1111 ORTMAN RD, MARQUETTE, MI, 49855",642513922,"L"
22913,"1111 PARK AVE APT 1121","BALTIMORE","MD",21201,39.3048188770001,-76.6210733999999,413,"1111 PARK AVE APT 1121, BALTIMORE, MD, 21201","Match","Non_Exact","1111 PARK AVE, BALTIMORE, MD, 21217",639169574,"R"
22914,"1111 PARK AVENUE","NORFOLK","VA",23504,36.852948133,-76.2651176109999,414,"1111 PARK AVENUE, NORFOLK, VA, 23504","Match","Exact","1111 PARK AVE, NORFOLK, VA, 23504",122142681,"L"
22915,"1111 PARK CENTRE BLVD SUITE 105A","MIAMI","FL",33169,25.9291757510001,-80.2192599479999,415,"1111 PARK CENTRE BLVD SUITE 105A, MIAMI, FL, 33169","Match","Exact","1111 PARK CENTRE BLVD, MIAMI, FL, 33169",116250566,"L"
22916,"1111 PARK CENTRE BLVD SUITE 402","MIAMI GARDENS","FL",33169,25.9291757510001,-80.2192599479999,416,"1111 PARK CENTRE BLVD SUITE 402, MIAMI GARDENS, FL, 33169","Match","Exact","1111 PARK CENTRE BLVD, MIAMI GARDENS, FL, 33169",116250566,"L"
22917,"1111 PAULA WAY","ESCONDIDO","CA",92027,33.150912782,-117.058125456,417,"1111 PAULA WAY, ESCONDIDO, CA, 92027","Match","Exact","1111 PAULA WAY, ESCONDIDO, CA, 92027",195312909,"L"
22918,"1111 PEARL STREET SUITE 203","BOULDER","CO",80302,40.0176749990001,-105.28108736,418,"1111 PEARL STREET SUITE 203, BOULDER, CO, 80302","Match","Exact","1111 PEARL ST, BOULDER, CO, 80302",188159715,"L"
22919,"1111 PENINSULAR AVENUE","LOS ALTOS","CA",94024,37.350192769,-122.083836568,419,"1111 PENINSULAR AVENUE, LOS ALTOS, CA, 94024","Match","Exact","1111 PENINSULAR AVE, LOS ALTOS, CA, 94024",122935502,"R"
22920,"1111 POST OAK BLVD 582","HOUSTON","TX",77056,29.753334271,-95.4585675169999,420,"1111 POST OAK BLVD 582, HOUSTON, TX, 77056","Match","Exact","1111 POST OAK BLVD, HOUSTON, TX, 77056",96624608,"L"
22921,"1111 RANCHO CONEJO BLVD SUITE 305","THOUSAND OAKS","CA",91320,NA,NA,421,"1111 RANCHO CONEJO BLVD SUITE 305, THOUSAND OAKS, CA, 91320","No_Match",NA,NA,NA,NA
22922,"1111 RASHO RD","TRAVERSE CITY","MI",49686,44.701821104,-85.506240534,422,"1111 RASHO RD, TRAVERSE CITY, MI, 49686","Match","Non_Exact","1111 RASHO RD, TRAVERSE CITY, MI, 49696",145520855,"L"
22923,"1111 RAYDALE RD","HYATTSVILLE","MD",20783,38.9682106320001,-76.9885381129999,423,"1111 RAYDALE RD, HYATTSVILLE, MD, 20783","Match","Exact","1111 RAYDALE RD, HYATTSVILLE, MD, 20783",76303385,"R"
22924,"1111 RIDGE RD","VERNON HILL","VA",24597,36.755033095,-79.0689115599999,424,"1111 RIDGE RD, VERNON HILL, VA, 24597","Match","Exact","1111 RIDGE RD, VERNON HILL, VA, 24597",90344927,"L"
22925,"1111 ROSEDALE DRIVE NE","ATLANTA","GA",30306,33.779771189,-84.350975224,425,"1111 ROSEDALE DRIVE NE, ATLANTA, GA, 30306","Match","Exact","1111 ROSEDALE DR NE, ATLANTA, GA, 30306",17357917,"R"
22926,"1111 RUSHMORE DR","ALLEN","TX",75002,33.1123415530001,-96.627360266,426,"1111 RUSHMORE DR, ALLEN, TX, 75002","Match","Exact","1111 RUSHMORE DR, ALLEN, TX, 75002",123569000,"L"
22927,"1111 S 1350 W APT G422","OREM","UT",84058,40.277460465,-111.727589011,427,"1111 S 1350 W APT G422, OREM, UT, 84058","Match","Exact","1111 1350 W, OREM, UT, 84058",616581177,"L"
22928,"1111 S 1ST","CHAMPAIGN","IL",61820,40.1051711430001,-88.238646187,428,"1111 S 1ST, CHAMPAIGN, IL, 61820","Match","Non_Exact","1111 S 1ST ST, CHAMPAIGN, IL, 61820",8811967,"R"
22929,"1111 S BONNIE LN","TEMPE","AZ",85281,33.4172783930001,-111.905727285,429,"1111 S BONNIE LN, TEMPE, AZ, 85281","Match","Exact","1111 S BONNIE LN, TEMPE, AZ, 85281",128231999,"L"
22930,"1111 S BRYAN AVE","FORT COLLINS","CO",80521,40.5741955920001,-105.104972885,430,"1111 S BRYAN AVE, FORT COLLINS, CO, 80521","Match","Exact","1111 S BRYAN AVE, FORT COLLINS, CO, 80521",188490556,"R"
22931,"1111 S GRAND AVENUE APT 711","LOS ANGELES","CA",90015,34.041381931,-118.262140841,431,"1111 S GRAND AVENUE APT 711, LOS ANGELES, CA, 90015","Match","Non_Exact","1111 S GRAND AVE, LOS ANGELES, CA, 90015",650088402,"R"
22932,"1111 S HAZELWOOD RD","SPOKANE","WA",99224,47.6471424810001,-117.555123968,432,"1111 S HAZELWOOD RD, SPOKANE, WA, 99224","Match","Exact","1111 S HAZELWOOD RD, SPOKANE, WA, 99224",605669524,"R"
22933,"1111 S HIGH HILL PL D","DALLAS","TX",75203,NA,NA,433,"1111 S HIGH HILL PL D, DALLAS, TX, 75203","Tie",NA,NA,NA,NA
22934,"1111 S JACKSON ST","FRANKFORT","IN",46041,40.2715017630001,-86.510552398,434,"1111 S JACKSON ST, FRANKFORT, IN, 46041","Match","Exact","1111 S JACKSON ST, FRANKFORT, IN, 46041",27227165,"R"
22935,"1111 S MAIN 2232","CARROLLTON","TX",75006,NA,NA,435,"1111 S MAIN 2232, CARROLLTON, TX, 75006","No_Match",NA,NA,NA,NA
22936,"1111 S MARIETTA PARKWAY SUITE A","MARIETTA","GA",30060,33.942095174,-84.521469726,436,"1111 S MARIETTA PARKWAY SUITE A, MARIETTA, GA, 30060","Match","Non_Exact","1111 S MARIETTA PKWY, MARIETTA, GA, 30060",17261932,"R"
22937,"1111 S ORANGE STREET","NEW SMYRNA BEACH","FL",32168,29.01445571,-80.9211465769999,437,"1111 S ORANGE STREET, NEW SMYRNA BEACH, FL, 32168","Match","Exact","1111 S ORANGE ST, NEW SMYRNA BEACH, FL, 32168",94532423,"L"
22938,"1111 S ORCHARD ST STE 232","BOISE","ID",83705,43.5940887510001,-116.243564336,438,"1111 S ORCHARD ST STE 232, BOISE, ID, 83705","Match","Non_Exact","1111 S ORCHARD ST, BOISE, ID, 83705",117863446,"R"
22939,"1111 S ORCHARD ST","BOISE","ID",83705,43.5940887510001,-116.243564336,439,"1111 S ORCHARD ST, BOISE, ID, 83705","Match","Exact","1111 S ORCHARD ST, BOISE, ID, 83705",117863446,"R"
22940,"1111 S PLATA CIRCLE","SANTA FE","NM",87501,35.6933912530001,-105.961835719,440,"1111 S PLATA CIRCLE, SANTA FE, NM, 87501","Match","Exact","1111 S PLATA CIR, SANTA FE, NM, 87501",169377077,"R"
22941,"1111 S ROOP ST UNIT 100","CARSON CITY","CA",89702,NA,NA,441,"1111 S ROOP ST UNIT 100, CARSON CITY, CA, 89702","No_Match",NA,NA,NA,NA
22942,"1111 SALIMAN","CARSON CITY","NV",89701,NA,NA,442,"1111 SALIMAN, CARSON CITY, NV, 89701","No_Match",NA,NA,NA,NA
22943,"1111 SANDPIPER DRIVE","BEAUMONT","CA",92223,33.93846309,-116.947636814,443,"1111 SANDPIPER DRIVE, BEAUMONT, CA, 92223","Match","Exact","1111 SANDPIPER DR, BEAUMONT, CA, 92223",608989785,"L"
22944,"1111 SE DIVISION STREET","BEND","OR",97702,44.0383244670001,-121.305918853,444,"1111 SE DIVISION STREET, BEND, OR, 97702","Match","Non_Exact","1111 SW DIVISION ST, BEND, OR, 97702",152561620,"L"
22945,"1111 SHARON ROAD","LAS VEGAS","NV",89106,36.1822671580001,-115.161886204,445,"1111 SHARON ROAD, LAS VEGAS, NV, 89106","Match","Exact","1111 SHARON RD, LAS VEGAS, NV, 89106",201865279,"L"
22946,"1111 SOUTH 2ND STREET","LEAVENWORTH","KS",66048,39.309044054,-94.908287398,446,"1111 SOUTH 2ND STREET, LEAVENWORTH, KS, 66048","Match","Exact","1111 S 2ND ST, LEAVENWORTH, KS, 66048",91402306,"L"
22947,"1111 SOUTH ALPINE ROAD     STE 704","ROCKFORD","IL",61108,NA,NA,447,"1111 SOUTH ALPINE ROAD     STE 704, ROCKFORD, IL, 61108","No_Match",NA,NA,NA,NA
22948,"1111 SOUTH ALPINE ROAD  STE 704","ROCKFORD","IL",61104,NA,NA,448,"1111 SOUTH ALPINE ROAD  STE 704, ROCKFORD, IL, 61104","No_Match",NA,NA,NA,NA
22949,"1111 SOUTH LAFLIN 1106","CHICAGO","IL",60607,41.868091373,-87.664042366,449,"1111 SOUTH LAFLIN 1106, CHICAGO, IL, 60607","Match","Non_Exact","1111 S LAFLIN ST, CHICAGO, IL, 60607",605105757,"L"
22950,"1111 SOUTH LINCOLN AVENUE BOX 622","OFALLON","IL",62269,38.582138323,-89.911019174,450,"1111 SOUTH LINCOLN AVENUE BOX 622, OFALLON, IL, 62269","Match","Non_Exact","1111 S LINCOLN AVE, O FALLON, IL, 62269",648995998,"R"
22951,"1111 SOUTH ORCHARD STREET SUITE 254","BOISE","ID",83705,43.5940902730001,-116.243564322,451,"1111 SOUTH ORCHARD STREET SUITE 254, BOISE, ID, 83705","Match","Exact","1111 S ORCHARD ST, BOISE, ID, 83705",117863446,"R"
22952,"1111 STRATFORD ST","BARBERTON","OH",44203,41.0015598950001,-81.629057372,452,"1111 STRATFORD ST, BARBERTON, OH, 44203","Match","Exact","1111 STRATFORD ST, BARBERTON, OH, 44203",61363312,"R"
22953,"1111 SUBURBAN ST","CEDAR HILL","TX",75104,32.5680402460001,-96.9434697839999,453,"1111 SUBURBAN ST, CEDAR HILL, TX, 75104","Match","Exact","1111 SUBURBAN ST, CEDAR HILL, TX, 75104",102942809,"L"
22954,"1111 SW 1 AVE APT 3325","MIAMI","FL",33130,25.7631141360001,-80.195153934,454,"1111 SW 1 AVE APT 3325, MIAMI, FL, 33130","Match","Non_Exact","1111 SW 1ST AVE, MIAMI, FL, 33130",116284589,"L"
22955,"1111 SW 1ST AVE APT 1615","MIAMI","FL",33130,25.7631141360001,-80.195153934,455,"1111 SW 1ST AVE APT 1615, MIAMI, FL, 33130","Match","Non_Exact","1111 SW 1ST AVE, MIAMI, FL, 33130",116284589,"L"
22956,"1111 TACOME AVENUE SOUTH","TACOME","WA",98402,NA,NA,456,"1111 TACOME AVENUE SOUTH, TACOME, WA, 98402","No_Match",NA,NA,NA,NA
22957,"1111 TERRILL ROAD","SCOTCH PLAINS","NJ",7076,40.629975679,-74.383601594,457,"1111 TERRILL ROAD, SCOTCH PLAINS, NJ, 7076","Match","Exact","1111 TERRILL RD, SCOTCH PLAINS, NJ, 07076",60591606,"L"
22958,"1111 THIRD AVE - SUITE 3000","SEATTLE","WA",98101,47.606447996,-122.334788495,458,"1111 THIRD AVE - SUITE 3000, SEATTLE, WA, 98101","Match","Exact","1111 3RD AVE, SEATTLE, WA, 98101",186589540,"L"
22959,"1111 W BETTERAVIA","SANTA MARIA","CA",93455,34.9206753650001,-120.452207701,459,"1111 W BETTERAVIA, SANTA MARIA, CA, 93455","Match","Non_Exact","1111 W BETTERAVIA RD, SANTA MARIA, CA, 93455",108619646,"L"
22960,"1111 W CHICAGO AVE 2A","CHICAGO","IL",60642,41.8962538860001,-87.6558302719999,460,"1111 W CHICAGO AVE 2A, CHICAGO, IL, 60642","Match","Non_Exact","1111 W CHICAGO AVE, CHICAGO, IL, 60642",111765367,"L"
22961,"1111 W EL CAMINO REAL STE 109-387","SUNNYVALE","CA",94087,37.352328721,-122.002441293,461,"1111 W EL CAMINO REAL STE 109-387, SUNNYVALE, CA, 94087","Match","Non_Exact","1111 E EL CAMINO REAL, SUNNYVALE, CA, 94087",636195836,"L"
22962,"1111 W EL CAMINO REAL STE 190","SUNNYVALE","CA",94087,37.352328721,-122.002441293,462,"1111 W EL CAMINO REAL STE 190, SUNNYVALE, CA, 94087","Match","Non_Exact","1111 E EL CAMINO REAL, SUNNYVALE, CA, 94087",636195836,"L"
22963,"1111 W EL CAMINO REAL-SUITE 109/178","SUNNYVALE","CA",94087,NA,NA,463,"1111 W EL CAMINO REAL-SUITE 109/178, SUNNYVALE, CA, 94087","No_Match",NA,NA,NA,NA
22964,"1111 W LEDBETTER DR SUITE 900","DALLAS","TX",75224,NA,NA,464,"1111 W LEDBETTER DR SUITE 900, DALLAS, TX, 75224","No_Match",NA,NA,NA,NA
22965,"1111 W LONG LAKE ROAD SUITE 200","TROY","MI",48098,42.5909088770001,-83.1708426019999,465,"1111 W LONG LAKE ROAD SUITE 200, TROY, MI, 48098","Match","Non_Exact","1111 W LONG LAKE RD, TROY, MI, 48098",69759207,"L"
22966,"1111 W MOCKINGBIRD LANE STE 920","DALLAS","TX",75247,32.8179214560001,-96.870578748,466,"1111 W MOCKINGBIRD LANE STE 920, DALLAS, TX, 75247","Match","Non_Exact","1111 W MOCKINGBIRD LN, DALLAS, TX, 75247",103200548,"L"
22967,"1111 W MOCKINGBIRD LN STE 930","DALLAS","TX",75247,32.8179214560001,-96.870578748,467,"1111 W MOCKINGBIRD LN STE 930, DALLAS, TX, 75247","Match","Non_Exact","1111 W MOCKINGBIRD LN, DALLAS, TX, 75247",103200548,"L"
22968,"1111 W MOCKINGBIRD LN STE","DALLAS","TX",75247,32.8179214560001,-96.870578748,468,"1111 W MOCKINGBIRD LN STE, DALLAS, TX, 75247","Match","Non_Exact","1111 W MOCKINGBIRD LN, DALLAS, TX, 75247",103200548,"L"
22969,"1111 W ST NW APT 14","WASHINGTON","DC",20009,38.9191923720001,-77.027375408,469,"1111 W ST NW APT 14, WASHINGTON, DC, 20009","Match","Exact","1111 W ST NW, WASHINGTON, DC, 20009",652614347,"R"
22970,"1111 W SUMNER AVE","LAKE ELSINORE","CA",92530,33.674913067,-117.338120323,470,"1111 W SUMNER AVE, LAKE ELSINORE, CA, 92530","Match","Exact","1111 W SUMNER AVE, LAKE ELSINORE, CA, 92530",194707522,"R"
22971,"1111 WASHINGTON BLVD","MAYWOOD","IL",60153,41.882453008,-87.846602565,471,"1111 WASHINGTON BLVD, MAYWOOD, IL, 60153","Match","Exact","1111 WASHINGTON BLVD, MAYWOOD, IL, 60153",111748363,"R"
22972,"1111 WESLEY LANE","LEXINGTON","TX",78947,30.44115464,-97.0110086349999,472,"1111 WESLEY LANE, LEXINGTON, TX, 78947","Match","Exact","1111 WESLEY LN, LEXINGTON, TX, 78947",39145089,"R"
22973,"1111 WEST AVE","CROSSVILLE","TN",38555,35.9560960420001,-85.039720597,473,"1111 WEST AVE, CROSSVILLE, TN, 38555","Match","Exact","1111 WEST AVE, CROSSVILLE, TN, 38555",26267915,"L"
22974,"1111 WEST AVENUE L12 STE A","LANCASTER","CA",93534,34.6494257040001,-118.149332362,474,"1111 WEST AVENUE L12 STE A, LANCASTER, CA, 93534","Match","Non_Exact","1111 W AVE L 12, LANCASTER, CA, 93534",241238698,"L"
22975,"1111 WEST CENTURY BLVD","LODI","CA",95240,NA,NA,475,"1111 WEST CENTURY BLVD, LODI, CA, 95240","No_Match",NA,NA,NA,NA
22976,"1111 WEST CYPRESS DR","POMPANO BEACH","FL",33069,26.2158082280001,-80.1775870559999,476,"1111 WEST CYPRESS DR, POMPANO BEACH, FL, 33069","Match","Exact","1111 W CYPRESS DR, POMPANO BEACH, FL, 33069",114693939,"R"
22977,"1111 WEST EL CAMINO REAL - STE 109","SUNNYVALE","CA",94087,37.352328721,-122.002445169,477,"1111 WEST EL CAMINO REAL - STE 109, SUNNYVALE, CA, 94087","Match","Non_Exact","1111 E EL CAMINO REAL, SUNNYVALE, CA, 94087",636195836,"L"
22978,"1111 WEST FOURTH STREET","MADERA","CA",93637,36.955895846,-120.07312271,478,"1111 WEST FOURTH STREET, MADERA, CA, 93637","Match","Exact","1111 W 4TH ST, MADERA, CA, 93637",102338544,"L"
22979,"1111 WEST LOOP SOUTH SUITE 120","HOUSTON","TX",77027,NA,NA,479,"1111 WEST LOOP SOUTH SUITE 120, HOUSTON, TX, 77027","No_Match",NA,NA,NA,NA
22980,"1111 WEST SABINE STREET LOT 3","LONGVIEW","TX",75604,32.4788931420001,-94.759413089,480,"1111 WEST SABINE STREET LOT 3, LONGVIEW, TX, 75604","Match","Exact","1111 W SABINE ST, LONGVIEW, TX, 75604",141128779,"R"
22981,"1111 WEST VICTORY WAY SUITE 115","CRAIG","CO",81625,40.5141992550001,-107.5605184,481,"1111 WEST VICTORY WAY SUITE 115, CRAIG, CO, 81625","Match","Exact","1111 W VICTORY WAY, CRAIG, CO, 81625",612704386,"L"
22982,"1111 WESTCHESTER AVE 1129- 4-80A","WHITE PLAINS","NY",10605,NA,NA,482,"1111 WESTCHESTER AVE 1129- 4-80A, WHITE PLAINS, NY, 10605","No_Match",NA,NA,NA,NA
22983,"1111 WHITAKER WAY","RED OAK","TX",75154,32.5614298180001,-96.885945586,483,"1111 WHITAKER WAY, RED OAK, TX, 75154","Match","Exact","1111 WHITAKER WAY, RED OAK, TX, 75154",103280103,"R"
22984,"1111 WHITMAN STREET SE","ORANGEBURG","SC",29115,33.491085497,-80.8464839769999,484,"1111 WHITMAN STREET SE, ORANGEBURG, SC, 29115","Match","Exact","1111 WHITMAN ST SE, ORANGEBURG, SC, 29115",19234673,"R"
22985,"1111 WILSHIRE BLVD RM 628","LOS ANGELES","CA",90017,34.052450236,-118.263572135,485,"1111 WILSHIRE BLVD RM 628, LOS ANGELES, CA, 90017","Match","Exact","1111 WILSHIRE BLVD, LOS ANGELES, CA, 90017",650080269,"R"
22986,"1111 WILSHIRE BLVD STE 732","LOS ANGELES","CA",90017,34.052450236,-118.263572135,486,"1111 WILSHIRE BLVD STE 732, LOS ANGELES, CA, 90017","Match","Exact","1111 WILSHIRE BLVD, LOS ANGELES, CA, 90017",650080269,"R"
22987,"1111 WILSON STREET","DENTON","TX",76205,33.2080954250001,-97.118637425,487,"1111 WILSON STREET, DENTON, TX, 76205","Match","Exact","1111 WILSON ST, DENTON, TX, 76205",103384835,"R"
22988,"1111 WINDING CANYON CT","KATY","TX",77493,NA,NA,488,"1111 WINDING CANYON CT, KATY, TX, 77493","No_Match",NA,NA,NA,NA
22989,"1111 WREN CREEK DR","BLYTHEWOOD","SC",29016,34.16218443,-80.989505371,489,"1111 WREN CREEK DR, BLYTHEWOOD, SC, 29016","Match","Exact","1111 WREN CREEK DR, BLYTHEWOOD, SC, 29016",604788658,"L"
22990,"1111 YARDLEY COMMONS","YARDLEY","PA",19067,40.236175044,-74.828200839,490,"1111 YARDLEY COMMONS, YARDLEY, PA, 19067","Match","Exact","1111 YARDLEY CMNS, YARDLEY, PA, 19067",134784074,"L"
22991,"1111-244TH ST SW UNIT B","BOTHELL","WA",98021,NA,NA,491,"1111-244TH ST SW UNIT B, BOTHELL, WA, 98021","No_Match",NA,NA,NA,NA
22992,"11110 BELLAIRE BLVD SUITE 200","HOUSTON","TX",77072,29.703891549,-95.57338334,492,"11110 BELLAIRE BLVD SUITE 200, HOUSTON, TX, 77072","Match","Exact","11110 BELLAIRE BLVD, HOUSTON, TX, 77072",644582825,"R"
22993,"11110 CHESTERMERE CT","LAS VEGAS","NV",89135,36.139001158,-115.334867369,493,"11110 CHESTERMERE CT, LAS VEGAS, NV, 89135","Match","Exact","11110 CHESTERMERE CT, LAS VEGAS, NV, 89135",201984948,"R"
22994,"11110 IRISH MOSS AVE","RIVERVIEW","FL",33569,27.8392848840001,-82.3171210529999,494,"11110 IRISH MOSS AVE, RIVERVIEW, FL, 33569","Match","Exact","11110 IRISH MOSS AVE, RIVERVIEW, FL, 33569",629640675,"R"
22995,"11110 LAWRENCE 1137","MOUNT VERNON","MO",65712,37.1157322190001,-93.808888854,495,"11110 LAWRENCE 1137, MOUNT VERNON, MO, 65712","Match","Exact","11110 LAWRENCE 1137, MOUNT VERNON, MO, 65712",632423910,"R"
22996,"11110 MOORPARK ST  APT 206","NORTH HOLLYWOOD","CA",91602,34.1503649250001,-118.372395938,496,"11110 MOORPARK ST  APT 206, NORTH HOLLYWOOD, CA, 91602","Match","Exact","11110 MOORPARK ST, N HOLLYWOOD, CA, 91602",624445702,"L"
22997,"11110 MOORPARK ST APT 206","NORTH HOLLYWOOD","CA",91602,34.1503649250001,-118.372395938,497,"11110 MOORPARK ST APT 206, NORTH HOLLYWOOD, CA, 91602","Match","Exact","11110 MOORPARK ST, N HOLLYWOOD, CA, 91602",624445702,"L"
22998,"11110 OHIO AVENUE APT 104","LA","CA",90025,34.0503009880001,-118.446784901,498,"11110 OHIO AVENUE APT 104, LA, CA, 90025","Match","Exact","11110 OHIO AVE, LOS ANGELES, CA, 90025",647687673,"L"
22999,"11110 SANDSTONE ROAD","CHARLOTTE","NC",28277,35.059262345,-80.77705087,499,"11110 SANDSTONE ROAD, CHARLOTTE, NC, 28277","Match","Exact","11110 SANDSTONE RD, CHARLOTTE, NC, 28277",611905320,"R"
23000,"11110 W OAKLAND PARK BLVD NUM 308","SUNRISE","FL",33351,NA,NA,500,"11110 W OAKLAND PARK BLVD NUM 308, SUNRISE, FL, 33351","No_Match",NA,NA,NA,NA
