"ID","Address","City","State","Zip","lat","long","id","input_address","match_indicator","match_type","matched_address","tiger_line_id","tiger_side"
204501,"4121 PLANK ROAD - BOX 213","FREDERICKSBURG","VA",22407,38.2899418910001,-77.53029928,1,"4121 PLANK ROAD - BOX 213, FREDERICKSBURG, VA, 22407","Match","Exact","4121 PLANK RD, FREDERICKSBURG, VA, 22407",647704281,"L"
204502,"4121 ROLLING HILLS DRIVE","ARDMORE","OK",73401,34.164811624,-97.18190559,2,"4121 ROLLING HILLS DRIVE, ARDMORE, OK, 73401","Match","Exact","4121 ROLLING HILLS DR, ARDMORE, OK, 73401",623957327,"R"
204503,"4121 SHELBY ROAD","LYNNWOOD","WA",98087,47.8684562820001,-122.289227714,3,"4121 SHELBY ROAD, LYNNWOOD, WA, 98087","Match","Exact","4121 SHELBY RD, LYNNWOOD, WA, 98087",624626224,"R"
204504,"4121 SIERRA STREET","MARRERO","LA",70072,29.843642092,-90.10448424,4,"4121 SIERRA STREET, MARRERO, LA, 70072","Match","Exact","4121 SIERRA ST, MARRERO, LA, 70072",93510000,"L"
204505,"4121 ST CLAUDE AVE","NEW ORLEANS","LA",70117,29.965493802,-90.034167412,5,"4121 ST CLAUDE AVE, NEW ORLEANS, LA, 70117","Match","Exact","4121 SAINT CLAUDE AVE, NEW ORLEANS, LA, 70117",191717772,"L"
204506,"4121 SW 112TH AVE","MIAMI","FL",33165,25.7301898370001,-80.3756025549999,6,"4121 SW 112TH AVE, MIAMI, FL, 33165","Match","Non_Exact","4121 SW 112TH AVE, MIAMI, FL, 33165",116283160,"R"
204507,"4121 TABERNASH LANE","RICHARDSON","TX",75082,32.9854729200001,-96.644707997,7,"4121 TABERNASH LANE, RICHARDSON, TX, 75082","Match","Exact","4121 TABERNASH LN, RICHARDSON, TX, 75082",123542324,"L"
204508,"4121 TOTTENHAM STREET","FREDERICK","MD",21704,39.3462039510001,-77.334544836,8,"4121 TOTTENHAM STREET, FREDERICK, MD, 21704","Match","Exact","4121 TOTTENHAM ST, FREDERICK, MD, 21704",625435874,"L"
204509,"4121 US HWY 64","KIRTLAND","NM",87401,36.745896137,-108.369527766,9,"4121 US HWY 64, KIRTLAND, NM, 87401","Match","Non_Exact","4121 US HWY 64, KIRTLAND, NM, 87417",647693114,"L"
204510,"4121 WEST PINE BOULEVARD","SAINT LOUIS","MO",63108,38.638681122,-90.2470425449999,10,"4121 WEST PINE BOULEVARD, SAINT LOUIS, MO, 63108","Match","Exact","4121 W PINE BLVD, SAINT LOUIS, MO, 63108",107596899,"R"
204511,"4121-C NUUANU PALI DRIVE","HONOLULU","HI",96817,21.3498068710001,-157.818385377,11,"4121-C NUUANU PALI DRIVE, HONOLULU, HI, 96817","Match","Exact","4121 NUUANU PALI DR, HONOLULU, HI, 96817",624521015,"R"
204512,"41211 SCARLET CT","INDIO","CA",92203,33.7498994740001,-116.229753598,12,"41211 SCARLET CT, INDIO, CA, 92203","Match","Exact","41211 SCARLET CT, INDIO, CA, 92203",608979303,"R"
204513,"4121G ENGINEERING V","LOS ANGELES","CA",90095,NA,NA,13,"4121G ENGINEERING V, LOS ANGELES, CA, 90095","No_Match",NA,NA,NA,NA
204514,"4122 39TH STREET 1","SAN DIEGO","CA",92105,32.7519803750001,-117.110614063,14,"4122 39TH STREET 1, SAN DIEGO, CA, 92105","Match","Exact","4122 39TH ST, SAN DIEGO, CA, 92105",195346751,"L"
204515,"4122 ATWOOD DRIVE","MACON","GA",31204,32.8216741800001,-83.7066394409999,15,"4122 ATWOOD DRIVE, MACON, GA, 31204","Match","Exact","4122 ATWOOD DR, MACON, GA, 31204",81073248,"L"
204516,"4122 BELMONT SHORE LANE","MISSOURI CITY","TX",77459,29.561229213,-95.567771479,16,"4122 BELMONT SHORE LANE, MISSOURI CITY, TX, 77459","Match","Exact","4122 BELMONT SHORE LN, MISSOURI CITY, TX, 77459",78293058,"R"
204517,"4122 BENNETT MEMORIAL ROAD STE 201B","DURHAM","NC",27705,36.0304440040001,-78.964684655,17,"4122 BENNETT MEMORIAL ROAD STE 201B, DURHAM, NC, 27705","Match","Exact","4122 BENNETT MEMORIAL RD, DURHAM, NC, 27705",71756301,"R"
204518,"4122 E PONCE DE LEON AVE","CLARKSTON","GA",30084,33.807787729,-84.2410798829999,18,"4122 E PONCE DE LEON AVE, CLARKSTON, GA, 30084","Match","Non_Exact","4122 E PONCE DE LEON AVE, CLARKSTON, GA, 30021",23363066,"L"
204519,"4122 FAIRMOUNT AVE","SAN DIEGO","CA",92105,32.7519040020001,-117.100853782,19,"4122 FAIRMOUNT AVE, SAN DIEGO, CA, 92105","Match","Exact","4122 FAIRMOUNT AVE, SAN DIEGO, CA, 92105",195347036,"L"
204520,"4122 HORSESHOE LANE","SACHSE","TX",75048,32.960954251,-96.592522882,20,"4122 HORSESHOE LANE, SACHSE, TX, 75048","Match","Exact","4122 HORSESHOE LN, SACHSE, TX, 75048",646697820,"R"
204521,"4122 JAMES LOVELACE ROAD","SHELBY","NC",28152,35.2672479280001,-81.675138193,21,"4122 JAMES LOVELACE ROAD, SHELBY, NC, 28152","Match","Exact","4122 JAMES LOVELACE RD, SHELBY, NC, 28152",19344913,"R"
204522,"4122 LATONA AVENUE","WEST PALM BEACH","FL",33407,26.751753249,-80.087366732,22,"4122 LATONA AVENUE, WEST PALM BEACH, FL, 33407","Match","Exact","4122 LATONA AVE, WEST PALM BEACH, FL, 33407",115268503,"R"
204523,"4122 MARX AVENUE","BALTIMORE","MD",21206,39.3342527670001,-76.561048295,23,"4122 MARX AVENUE, BALTIMORE, MD, 21206","Match","Exact","4122 MARX AVE, BALTIMORE, MD, 21206",206411285,"L"
204524,"4122 MIRABEAU AVE","NEW ORLEANS","LA",70126,30.009434083,-90.0429976949999,24,"4122 MIRABEAU AVE, NEW ORLEANS, LA, 70126","Match","Exact","4122 MIRABEAU AVE, NEW ORLEANS, LA, 70126",637846269,"R"
204525,"4122 NEIGHBORLY CT","NORTH LAS VEGAS","NV",89032,36.2346306270001,-115.14145723,25,"4122 NEIGHBORLY CT, NORTH LAS VEGAS, NV, 89032","Match","Exact","4122 NEIGHBORLY CT, N LAS VEGAS, NV, 89032",201991508,"R"
204526,"4122 PROVIDENCE ROAD APARTMENT C","CHARLOTTE","NC",28211,35.157096487,-80.79730705,26,"4122 PROVIDENCE ROAD APARTMENT C, CHARLOTTE, NC, 28211","Match","Exact","4122 PROVIDENCE RD, CHARLOTTE, NC, 28211",635657511,"R"
204527,"4122 QUARRY VIEW","CHATTANOOGA","TN",37415,35.1371019170001,-85.305218117,27,"4122 QUARRY VIEW, CHATTANOOGA, TN, 37415","Match","Exact","4122 QUARRY VW, CHATTANOOGA, TN, 37415",627249320,"L"
204528,"4122 S 500 W","MURRAY","UT",84123,40.6821537860001,-111.905477096,28,"4122 S 500 W, MURRAY, UT, 84123","Match","Exact","4122 S 500 W, MURRAY, UT, 84123",645875344,"L"
204529,"4122 SNAPFINGER WAY","DECATUR","GA",30035,33.7183756360001,-84.222520902,29,"4122 SNAPFINGER WAY, DECATUR, GA, 30035","Match","Exact","4122 SNAPFINGER WAY, DECATUR, GA, 30035",23377583,"L"
204530,"4122 SONNET DRIVE","TALLAHASSEE","FL",32303,30.509140931,-84.327466208,30,"4122 SONNET DRIVE, TALLAHASSEE, FL, 32303","Match","Exact","4122 SONNET DR, TALLAHASSEE, FL, 32303",82847336,"L"
204531,"4122 SPRING MILL WAY","MAINEVILLE","OH",45039,39.3071270400001,-84.294901608,31,"4122 SPRING MILL WAY, MAINEVILLE, OH, 45039","Match","Exact","4122 SPRING MILL WAY, MAINEVILLE, OH, 45039",159041619,"L"
204532,"4122 SUMERDUCK RD","SUMERDUCK","VA",22742,38.4536759740001,-77.674638123,32,"4122 SUMERDUCK RD, SUMERDUCK, VA, 22742","Match","Exact","4122 SUMERDUCK RD, SUMERDUCK, VA, 22742",146278017,"L"
204533,"4122 W 55TH PLACE","TULSA","OK",74107,36.0835443080001,-96.039323832,33,"4122 W 55TH PLACE, TULSA, OK, 74107","Match","Exact","4122 W 55TH PL, TULSA, OK, 74107",640191233,"L"
204534,"4122 W OAK RD N","CEDAR HILLS","UT",84062,40.4175644200001,-111.75913457,34,"4122 W OAK RD N, CEDAR HILLS, UT, 84062","Match","Exact","4122 W OAK RD N, CEDAR HILLS, UT, 84062",134214914,"R"
204535,"41220 CHESTNUT ST","PALMDALE","CA",93551,34.631845357,-118.228200096,35,"41220 CHESTNUT ST, PALMDALE, CA, 93551","Match","Exact","41220 CHESTNUT ST, PALMDALE, CA, 93551",141782141,"L"
204536,"41220 PARK AVE","BIG BEAR CITY","CA",92314,NA,NA,36,"41220 PARK AVE, BIG BEAR CITY, CA, 92314","No_Match",NA,NA,NA,NA
204537,"41221 SANDY HILL ROAD","MONTGOMERY","TX",77316,30.2466199990001,-95.7576670719999,37,"41221 SANDY HILL ROAD, MONTGOMERY, TX, 77316","Match","Exact","41221 SANDY HILL RD, MONTGOMERY, TX, 77316",79342281,"R"
204538,"41222 MALCOLMSON ST APT10","FREMONT","CA",94538,37.529801956,-121.961213487,38,"41222 MALCOLMSON ST APT10, FREMONT, CA, 94538","Match","Exact","41222 MALCOLMSON ST, FREMONT, CA, 94538",125030745,"L"
204539,"4123 BEITING DRIVE","ALEXANDRIA","KY",41001,38.9564100640001,-84.37274701,39,"4123 BEITING DRIVE, ALEXANDRIA, KY, 41001","Match","Exact","4123 BEITING DR, ALEXANDRIA, KY, 41001",104451228,"R"
204540,"4123 BROADWAY 729","OAKLAND","CA",94611,37.8291511080001,-122.255787049,40,"4123 BROADWAY 729, OAKLAND, CA, 94611","Match","Exact","4123 BROADWAY, OAKLAND, CA, 94611",125000240,"L"
204541,"4123 C ST","LITTLE ROCK","AR",72205,34.7543051980001,-92.318802338,41,"4123 C ST, LITTLE ROCK, AR, 72205","Match","Exact","4123 C ST, LITTLE ROCK, AR, 72205",83505676,"L"
204542,"4123 CEDAR SPRINGS RD  APT 2425","DALLAS","TX",75201,32.8121295400001,-96.812642496,42,"4123 CEDAR SPRINGS RD  APT 2425, DALLAS, TX, 75201","Match","Non_Exact","4123 CEDAR SPRINGS RD, DALLAS, TX, 75219",102908441,"L"
204543,"4123 CEDAR SPRINGS RD APT 5426","DALLAS","TX",75219,32.8121295400001,-96.812642496,43,"4123 CEDAR SPRINGS RD APT 5426, DALLAS, TX, 75219","Match","Exact","4123 CEDAR SPRINGS RD, DALLAS, TX, 75219",102908441,"L"
204544,"4123 DUNHAVEN ROAD","DALLAS","TX",75220,32.871816101,-96.840970081,44,"4123 DUNHAVEN ROAD, DALLAS, TX, 75220","Match","Exact","4123 DUNHAVEN RD, DALLAS, TX, 75220",102899593,"L"
204545,"4123 JAN CT","ROCKLIN","CA",95677,38.783638846,-121.233767451,45,"4123 JAN CT, ROCKLIN, CA, 95677","Match","Non_Exact","4123 JAN DR, ROCKLIN, CA, 95677",106807774,"L"
204546,"4123 KIMBERLY AVE","LA VERNE","CA",91750,34.115157707,-117.758141459,46,"4123 KIMBERLY AVE, LA VERNE, CA, 91750","Match","Exact","4123 KIMBERLY AVE, LA VERNE, CA, 91750",141731373,"L"
204547,"4123 MYRTLE AVE","CINCINNATI","OH",45236,39.2104085660001,-84.3979220429999,47,"4123 MYRTLE AVE, CINCINNATI, OH, 45236","Match","Exact","4123 MYRTLE AVE, CINCINNATI, OH, 45236",103955676,"R"
204548,"4123 N LINDSTROM PLACE","TUCSON","AZ",85750,32.281448663,-110.851432483,48,"4123 N LINDSTROM PLACE, TUCSON, AZ, 85750","Match","Exact","4123 N LINDSTROM PL, TUCSON, AZ, 85750",121387006,"L"
204549,"4123 NEIL COURT","TALLAHASSEE","FL",32303,30.521001187,-84.336344732,49,"4123 NEIL COURT, TALLAHASSEE, FL, 32303","Match","Exact","4123 NEIL CT, TALLAHASSEE, FL, 32303",82866247,"L"
204550,"4123 S SUNSET CT","MADISON","WI",53705,43.061628028,-89.445265623,50,"4123 S SUNSET CT, MADISON, WI, 53705","Match","Exact","4123 S SUNSET CT, MADISON, WI, 53705",49493821,"L"
204551,"4123 STONE PASS DRIVE","GRANITEVILLE","SC",29829,33.5855178740001,-81.834190169,51,"4123 STONE PASS DRIVE, GRANITEVILLE, SC, 29829","Match","Exact","4123 STONE PASS DR, GRANITEVILLE, SC, 29829",627187837,"L"
204552,"4123 TED TROUT DR","LUFKIN","TX",75904,31.3258287890001,-94.7930024249999,52,"4123 TED TROUT DR, LUFKIN, TX, 75904","Match","Exact","4123 TED TROUT DR, LUFKIN, TX, 75904",642459633,"R"
204553,"4123 W MADISON ST","CHICAGO","IL",60624,41.8806827350001,-87.728786736,53,"4123 W MADISON ST, CHICAGO, IL, 60624","Match","Exact","4123 W MADISON ST, CHICAGO, IL, 60624",111765795,"L"
204554,"41230 MAPLEWOOD DRIVE","CANTON","MI",48187,42.3167783060001,-83.445699756,54,"41230 MAPLEWOOD DRIVE, CANTON, MI, 48187","Match","Exact","41230 MAPLEWOOD DR, CANTON, MI, 48187",617693879,"L"
204555,"41231 SUNNYVIEW LOOP","POLSON","MT",59860,47.7424153650001,-114.21957307,55,"41231 SUNNYVIEW LOOP, POLSON, MT, 59860","Match","Exact","41231 SUNNYVIEW LOOP, POLSON, MT, 59860",206921661,"R"
204556,"4124 163RD STREET","FLUSHING","NY",11358,40.761083166,-73.802952999,56,"4124 163RD STREET, FLUSHING, NY, 11358","Match","Exact","4124 163RD ST, FLUSHING, NY, 11358",59702291,"R"
204557,"4124 78TH AVENUE NORTH  SUITE 206","NEW HOPE","MN",55427,NA,NA,57,"4124 78TH AVENUE NORTH  SUITE 206, NEW HOPE, MN, 55427","No_Match",NA,NA,NA,NA
204558,"4124 ARICA","ROSEMEAD","CA",91770,34.0824270050001,-118.065368698,58,"4124 ARICA, ROSEMEAD, CA, 91770","Match","Non_Exact","4124 ARICA AVE, ROSEMEAD, CA, 91770",142744644,"R"
204559,"4124 C-11 SPRING VALLEY RD","HARRISBURG","PA",17109,NA,NA,59,"4124 C-11 SPRING VALLEY RD, HARRISBURG, PA, 17109","No_Match",NA,NA,NA,NA
204560,"4124 CANNON DRIVE","NORMAN","OK",73072,35.27053032,-97.500370645,60,"4124 CANNON DRIVE, NORMAN, OK, 73072","Match","Exact","4124 CANNON DR, NORMAN, OK, 73072",624478661,"R"
204561,"4124 FERNWOOD DRIVE","HOUSTON","TX",77021,29.707458178,-95.349899756,61,"4124 FERNWOOD DRIVE, HOUSTON, TX, 77021","Match","Exact","4124 FERNWOOD DR, HOUSTON, TX, 77021",96074165,"R"
204562,"4124 GRACELAND AVE","INDIANAPOLIS","IN",46208,39.830896153,-86.16284659,62,"4124 GRACELAND AVE, INDIANAPOLIS, IN, 46208","Match","Exact","4124 GRACELAND AVE, INDIANAPOLIS, IN, 46208",107988788,"L"
204563,"4124 HEARTHLIGHT CT","PLANO","TX",75024,33.103053366,-96.773891928,63,"4124 HEARTHLIGHT CT, PLANO, TX, 75024","Match","Exact","4124 HEARTHLIGHT CT, PLANO, TX, 75024",123567640,"L"
204564,"4124 JEREMY LOOP","MYRTLE BEACH","SC",29588,33.704476018,-79.016431683,64,"4124 JEREMY LOOP, MYRTLE BEACH, SC, 29588","Match","Exact","4124 JEREMY LOOP, MYRTLE BEACH, SC, 29588",29043792,"R"
204565,"4124 LEMONBERRY PL","THOUSAND OAKS","CA",91362,34.2360861080001,-118.841168735,65,"4124 LEMONBERRY PL, THOUSAND OAKS, CA, 91362","Match","Exact","4124 LEMONBERRY PL, THOUSAND OAKS, CA, 91362",110027489,"R"
204566,"4124 LONGMEADOW WAY","FORT WORTH","TX",76133,32.6318339600001,-97.383484858,66,"4124 LONGMEADOW WAY, FORT WORTH, TX, 76133","Match","Exact","4124 LONGMEADOW WAY, FORT WORTH, TX, 76133",101883350,"L"
204567,"4124 MECHANICSVILLE TPKE","MECHANICSVILLE","VA",23111,37.64990175,-77.2393430119999,67,"4124 MECHANICSVILLE TPKE, MECHANICSVILLE, VA, 23111","Match","Exact","4124 MECHANICSVILLE TPKE, MECHANICSVILLE, VA, 23111",84981482,"L"
204568,"4124 N 23RD ST STE 4","MCALLEN","TX",78504,26.2427235170001,-98.239015656,68,"4124 N 23RD ST STE 4, MCALLEN, TX, 78504","Match","Non_Exact","4124 N 23RD ST, MCALLEN, TX, 78504",71493712,"R"
204569,"4124 N KENMORE AVE 3S","CHICAGO","IL",60613,41.9571835360001,-87.656218286,69,"4124 N KENMORE AVE 3S, CHICAGO, IL, 60613","Match","Non_Exact","4124 N KENMORE AVE, CHICAGO, IL, 60613",609038429,"L"
204570,"4124 OLSSON TER APT 8","LAKE WORTH","FL",33461,26.6168089390001,-80.1019090679999,70,"4124 OLSSON TER APT 8, LAKE WORTH, FL, 33461","Match","Exact","4124 OLSSON TER, LAKE WORTH, FL, 33461",643473075,"R"
204571,"4124 PEBBLEBROOK COURT","ORLANDO","FL",32820,28.599803986,-81.126274397,71,"4124 PEBBLEBROOK COURT, ORLANDO, FL, 32820","Match","Exact","4124 PEBBLEBROOK CT, ORLANDO, FL, 32820",94367438,"L"
204572,"4124 QUEBEC AVE SUITE 201","NEW HOPE","MN",55427,45.0308052670001,-93.376497409,72,"4124 QUEBEC AVE SUITE 201, NEW HOPE, MN, 55427","Match","Non_Exact","4124 QUEBEC AVE N, NEW HOPE, MN, 55427",43865785,"R"
204573,"4124 W LIBERTY CREEK DRIVE","SOUTH JORDAN","UT",84095,40.5789954250001,-111.992049379,73,"4124 W LIBERTY CREEK DRIVE, SOUTH JORDAN, UT, 84095","Match","Non_Exact","4124 LIBERTY CREEK DR, SOUTH JORDAN, UT, 84009",644661444,"R"
204574,"41240 TRENOUTH STREET UNIT 29","FREMONT","CA",94538,37.5296680480001,-121.960236647,74,"41240 TRENOUTH STREET UNIT 29, FREMONT, CA, 94538","Match","Exact","41240 TRENOUTH ST, FREMONT, CA, 94538",125030747,"L"
204575,"4125 23RD AVE S","MINNEAPOLIS","MN",55407,44.9281903,-93.238459972,75,"4125 23RD AVE S, MINNEAPOLIS, MN, 55407","Match","Exact","4125 23RD AVE S, MINNEAPOLIS, MN, 55407",642174000,"L"
204576,"4125 2ND STREET","CHESAPEAKE","VA",23324,36.7834558650001,-76.2757393429999,76,"4125 2ND STREET, CHESAPEAKE, VA, 23324","Match","Exact","4125 2ND ST, CHESAPEAKE, VA, 23324",121771469,"L"
204577,"4125 43RD STREET","SAN DIEGO","CA",92105,32.7519416700001,-117.101937871,77,"4125 43RD STREET, SAN DIEGO, CA, 92105","Match","Exact","4125 43RD ST, SAN DIEGO, CA, 92105",195346987,"R"
204578,"4125 AMHURST DRIVE","HIGHLAND VILLAGE","TX",75077,33.0880599070001,-97.0818517069999,78,"4125 AMHURST DRIVE, HIGHLAND VILLAGE, TX, 75077","Match","Exact","4125 AMHURST DR, HIGHLAND VILLAGE, TX, 75077",653854012,"L"
204579,"4125 C2 WALKER AVE","GREENSBORO","NC",27407,36.06916769,-79.8493485559999,79,"4125 C2 WALKER AVE, GREENSBORO, NC, 27407","Match","Exact","4125 WALKER AVE, GREENSBORO, NC, 27407",131102437,"L"
204580,"4125 CARDINAL CT","WEST POINT","VA",23181,37.5571368060001,-76.830673097,80,"4125 CARDINAL CT, WEST POINT, VA, 23181","Match","Exact","4125 CARDINAL CT, WEST POINT, VA, 23181",635813842,"R"
204581,"4125 CARRINGTON DR","GARLAND","TX",75043,32.859069343,-96.5680422629999,81,"4125 CARRINGTON DR, GARLAND, TX, 75043","Match","Exact","4125 CARRINGTON DR, GARLAND, TX, 75043",103277135,"L"
204582,"4125 E 37TH","ODESSA","TX",79762,31.890048935,-102.345000529,82,"4125 E 37TH, ODESSA, TX, 79762","Match","Non_Exact","4125 E 37TH ST, ODESSA, TX, 79762",139431013,"L"
204583,"4125 E NAOMI ST","INDIANAPOLIS","IN",46203,39.743561549,-86.0955295919999,83,"4125 E NAOMI ST, INDIANAPOLIS, IN, 46203","Match","Exact","4125 E NAOMI ST, INDIANAPOLIS, IN, 46203",108001071,"R"
204584,"4125 HUMPHREY STREET","ST. LOUIS","MO",63116,38.599380367,-90.256566898,84,"4125 HUMPHREY STREET, ST. LOUIS, MO, 63116","Match","Exact","4125 HUMPHREY ST, SAINT LOUIS, MO, 63116",107600918,"R"
204585,"4125 KISSENA BOULEVARD","FLUSHING","NY",11355,NA,NA,85,"4125 KISSENA BOULEVARD, FLUSHING, NY, 11355","No_Match",NA,NA,NA,NA
204586,"4125 LAKE FOREST CT","ANN ARBOR","MI",48108,42.2272743770001,-83.768594815,86,"4125 LAKE FOREST CT, ANN ARBOR, MI, 48108","Match","Exact","4125 LAKE FOREST CT, ANN ARBOR, MI, 48108",26034958,"L"
204587,"4125 LILLINGTON DRIVE","DURHAM","NC",27704,36.0497544300001,-78.887250719,87,"4125 LILLINGTON DRIVE, DURHAM, NC, 27704","Match","Exact","4125 LILLINGTON DR, DURHAM, NC, 27704",618114453,"L"
204588,"4125 MARQUETTE ST","HOUSTON","TX",77005,29.7100873430001,-95.4440194329999,88,"4125 MARQUETTE ST, HOUSTON, TX, 77005","Match","Exact","4125 MARQUETTE ST, HOUSTON, TX, 77005",96034646,"L"
204589,"4125 MOURNING DOVE CT","MELBOURNE","FL",32934,28.1737596,-80.6931080959999,89,"4125 MOURNING DOVE CT, MELBOURNE, FL, 32934","Match","Exact","4125 MOURNING DOVE CT, MELBOURNE, FL, 32934",93930544,"R"
204590,"4125 MYRTLE AVE","PENNSAUKEN","NJ",8109,39.946860471,-75.066246575,90,"4125 MYRTLE AVE, PENNSAUKEN, NJ, 8109","Match","Exact","4125 MYRTLE AVE, PENNSAUKEN, NJ, 08109",134343469,"L"
204591,"4125 N EVEREST AVENUE","OKLAHOMA CITY","OK",73111,35.5133142080001,-97.489939471,91,"4125 N EVEREST AVENUE, OKLAHOMA CITY, OK, 73111","Match","Exact","4125 N EVEREST AVE, OKLAHOMA CITY, OK, 73111",100401173,"L"
204592,"4125 N SASSY DR","MARANA","AZ",85653,32.276906114,-111.325618501,92,"4125 N SASSY DR, MARANA, AZ, 85653","Match","Exact","4125 N SASSY DR, MARANA, AZ, 85653",121226493,"R"
204593,"4125 NE 16TH STREET","OKLAHOMA CITY","OK",73117,35.487709131,-97.44515205,93,"4125 NE 16TH STREET, OKLAHOMA CITY, OK, 73117","Match","Exact","4125 NE 16TH ST, OKLAHOMA CITY, OK, 73117",100412412,"L"
204594,"4125 OCEAN BEACH BLVD UNIT 6","COCOA BEACH","FL",32931,28.3559036710001,-80.605899612,94,"4125 OCEAN BEACH BLVD UNIT 6, COCOA BEACH, FL, 32931","Match","Exact","4125 OCEAN BEACH BLVD, COCOA BEACH, FL, 32931",93899344,"L"
204595,"4125 OLD MILTON PARKWAY","ALPHARETTA","GA",30005,34.0599980750001,-84.239731438,95,"4125 OLD MILTON PARKWAY, ALPHARETTA, GA, 30005","Match","Exact","4125 OLD MILTON PKWY, ALPHARETTA, GA, 30005",17427989,"R"
204596,"4125 PETE SEAY RD","SULPHUR","LA",70665,30.189874167,-93.4182405459999,96,"4125 PETE SEAY RD, SULPHUR, LA, 70665","Match","Exact","4125 PETE SEAY RD, SULPHUR, LA, 70665",88430708,"L"
204597,"4125 ROSA STREET","WINSTON-SALEM","NC",27015,36.1452503740001,-80.214341169,97,"4125 ROSA STREET, WINSTON-SALEM, NC, 27015","Match","Non_Exact","4125 ROSA ST, WINSTON SALEM, NC, 27105",84612042,"R"
204598,"4125 SALEM STREET","CONCORD","CA",94521,37.9699562380001,-121.99319848,98,"4125 SALEM STREET, CONCORD, CA, 94521","Match","Exact","4125 SALEM ST, CONCORD, CA, 94521",192058040,"L"
204599,"4125 SE 54TH AVE","PORTLAND","OR",97206,45.4929251350001,-122.607177572,99,"4125 SE 54TH AVE, PORTLAND, OR, 97206","Match","Exact","4125 SE 54TH AVE, PORTLAND, OR, 97206",157514981,"R"
204600,"4125 SOLOMONS ISLAND RD","HUNTINGTOWN","MD",20639,38.61903513,-76.611326446,100,"4125 SOLOMONS ISLAND RD, HUNTINGTOWN, MD, 20639","Match","Exact","4125 SOLOMONS ISLAND RD, HUNTINGTOWN, MD, 20639",78184325,"R"
204601,"4125 SUMMERSWEET LANE","CROWLEY","TX",76036,32.5927967820001,-97.382072705,101,"4125 SUMMERSWEET LANE, CROWLEY, TX, 76036","Match","Exact","4125 SUMMERSWEET LN, CROWLEY, TX, 76036",638656074,"L"
204602,"4125 SUMMIT CROSSING DRIVE","ATLANTA","GA",30034,33.6969403320001,-84.22018831,102,"4125 SUMMIT CROSSING DRIVE, ATLANTA, GA, 30034","Match","Non_Exact","4125 SUMMIT CROSSING DR, DECATUR, GA, 30034",23387762,"R"
204603,"4125 TEMESCAL ST  SUITE I","FAIR OAKS","CA",95628,38.6404780620001,-121.268581156,103,"4125 TEMESCAL ST  SUITE I, FAIR OAKS, CA, 95628","Match","Exact","4125 TEMESCAL ST, FAIR OAKS, CA, 95628",133346177,"L"
204604,"4125 W FOXVIEW DR","SOUTH JORDAN","UT",84095,40.541777644,-111.988289911,104,"4125 W FOXVIEW DR, SOUTH JORDAN, UT, 84095","Match","Non_Exact","4125 FOXVIEW DR, SOUTH JORDAN, UT, 84009",649216140,"R"
204605,"4125 W NOBLE APT 191","VISALIA","CA",93277,NA,NA,105,"4125 W NOBLE APT 191, VISALIA, CA, 93277","No_Match",NA,NA,NA,NA
204606,"4125 W TANNEHILL RD","COLUMBUS","IN",47201,NA,NA,106,"4125 W TANNEHILL RD, COLUMBUS, IN, 47201","No_Match",NA,NA,NA,NA
204607,"4125 W TOBY LN","CHINO VALLEY","AZ",86323,34.788346715,-112.520286105,107,"4125 W TOBY LN, CHINO VALLEY, AZ, 86323","Match","Exact","4125 TOBY LN, CHINO VALLEY, AZ, 86323",159491390,"L"
204608,"4125 WASHINGTON AVE","NEW ORLEANS","LA",70125,29.9519959570001,-90.10107021,108,"4125 WASHINGTON AVE, NEW ORLEANS, LA, 70125","Match","Exact","4125 WASHINGTON AVE, NEW ORLEANS, LA, 70125",191707455,"R"
204609,"4125 WASHTENAW AVE","ANN ARBOR","MI",48108,42.2536821200001,-83.6789350779999,109,"4125 WASHTENAW AVE, ANN ARBOR, MI, 48108","Match","Exact","4125 WASHTENAW AVE, ANN ARBOR, MI, 48108",26044292,"L"
204610,"4125 WESTERN DRIVE","CORPUS CHRISTI","TX",78410,27.8487366520001,-97.602203107,110,"4125 WESTERN DRIVE, CORPUS CHRISTI, TX, 78410","Match","Exact","4125 WESTERN DR, CORPUS CHRISTI, TX, 78410",178511239,"L"
204611,"4125 WHEELER PEAK WAY","MODESTO","CA",95356,37.6991295450001,-121.047128221,111,"4125 WHEELER PEAK WAY, MODESTO, CA, 95356","Match","Exact","4125 WHEELER PEAK WAY, MODESTO, CA, 95356",102633798,"L"
204612,"41252 GASLIGHT AVE","BERMUDA DUNES","CA",92203,33.7485856770001,-116.284162475,112,"41252 GASLIGHT AVE, BERMUDA DUNES, CA, 92203","Match","Exact","41252 GASLIGHT AVE, BERMUDA DUNES, CA, 92203",635358542,"L"
204613,"41259 253RD ST","MITCHELL","SD",57301,NA,NA,113,"41259 253RD ST, MITCHELL, SD, 57301","No_Match",NA,NA,NA,NA
204614,"4126 BENDING LANE","GREENWOOD","IN",46143,39.564584026,-86.1794790599999,114,"4126 BENDING LANE, GREENWOOD, IN, 46143","Match","Exact","4126 BENDING LN, GREENWOOD, IN, 46143",606984678,"R"
204615,"4126 BROOKGREEN DR","FAIRFAX","VA",22033,38.869003417,-77.375000098,115,"4126 BROOKGREEN DR, FAIRFAX, VA, 22033","Match","Exact","4126 BROOKGREEN DR, FAIRFAX, VA, 22033",618702110,"R"
204616,"4126 CAFLUR AVENUE","SAN DIEGO","CA",92117,32.8168805380001,-117.211932807,116,"4126 CAFLUR AVENUE, SAN DIEGO, CA, 92117","Match","Exact","4126 CAFLUR AVE, SAN DIEGO, CA, 92117",195303592,"L"
204617,"4126 CUMMINGS STREET","ORLANDO","FL",32828,28.5011531580001,-81.1487801059999,117,"4126 CUMMINGS STREET, ORLANDO, FL, 32828","Match","Exact","4126 CUMMINGS ST, ORLANDO, FL, 32828",94415454,"R"
204618,"4126 DEERWOOD TR","EAGAN","MN",55122,44.8096752450001,-93.168629779,118,"4126 DEERWOOD TR, EAGAN, MN, 55122","Match","Exact","4126 DEERWOOD TRL, EAGAN, MN, 55122",37934946,"L"
204619,"4126 EAST 114TH STREET","CLEVELAND","OH",44105,41.4467930970001,-81.604067416,119,"4126 EAST 114TH STREET, CLEVELAND, OH, 44105","Match","Exact","4126 E 114TH ST, CLEVELAND, OH, 44105",61126398,"R"
204620,"4126 GLENSHIRE DRIVE","HOUSTON","TX",77025,29.685699948,-95.443502714,120,"4126 GLENSHIRE DRIVE, HOUSTON, TX, 77025","Match","Non_Exact","4126 GLENSHIRE ST, HOUSTON, TX, 77025",96040033,"R"
204621,"4126 HOMERLEE AVE","EAST CHICAGO","IN",46312,41.638918119,-87.486382063,121,"4126 HOMERLEE AVE, EAST CHICAGO, IN, 46312","Match","Exact","4126 HOMERLEE AVE, EAST CHICAGO, IN, 46312",98418081,"R"
204622,"4126 PARVA AVE","LOS ANGELES","CA",90027,34.116242786,-118.283283518,122,"4126 PARVA AVE, LOS ANGELES, CA, 90027","Match","Exact","4126 PARVA AVE, LOS ANGELES, CA, 90027",642865613,"L"
204623,"4126 PEACE DR","FRISCO","TX",75034,33.1105504180001,-96.85329896,123,"4126 PEACE DR, FRISCO, TX, 75034","Match","Exact","4126 PEACE DR, FRISCO, TX, 75034",103410932,"L"
204624,"4126 ROLLING GROVE COURT","LAKELAND","FL",33810,28.1412684790001,-82.0303646519999,124,"4126 ROLLING GROVE COURT, LAKELAND, FL, 33810","Match","Exact","4126 ROLLING GROVE CT, LAKELAND, FL, 33810",104887883,"L"
204625,"4126 SHERRY MIST LN","KATY","TX",77449,29.833571841,-95.7460195359999,125,"4126 SHERRY MIST LN, KATY, TX, 77449","Match","Exact","4126 SHERRY MIST LN, KATY, TX, 77449",641637921,"R"
204626,"4126 SOMERS DRIVE","BURTON","MI",48529,42.969553568,-83.680195317,126,"4126 SOMERS DRIVE, BURTON, MI, 48529","Match","Exact","4126 SOMERS DR, BURTON, MI, 48529",69605671,"R"
204627,"412625 340TH RD","RAVENNA","NE",68869,NA,NA,127,"412625 340TH RD, RAVENNA, NE, 68869","No_Match",NA,NA,NA,NA
204628,"4127 222ND PL SE","BOTHELL","WA",98021,47.7958447760001,-122.177770938,128,"4127 222ND PL SE, BOTHELL, WA, 98021","Match","Exact","4127 222ND PL SE, BOTHELL, WA, 98021",624393986,"L"
204629,"4127 4TH STREET SE","WASHINGTON","DC",20032,38.8298313540001,-77.000574672,129,"4127 4TH STREET SE, WASHINGTON, DC, 20032","Match","Exact","4127 4TH ST SE, WASHINGTON, DC, 20032",76232606,"R"
204630,"4127 ANACOSTIA AVENUE NE","WASHINGTON","DC",20019,38.9065830810001,-76.9445656,130,"4127 ANACOSTIA AVENUE NE, WASHINGTON, DC, 20019","Match","Exact","4127 ANACOSTIA AVE NE, WASHINGTON, DC, 20019",641273517,"R"
204631,"4127 EDGEHILL DR","LOS ANGELES","CA",90008,34.00956942,-118.330439162,131,"4127 EDGEHILL DR, LOS ANGELES, CA, 90008","Match","Exact","4127 EDGEHILL DR, LOS ANGELES, CA, 90008",142729187,"R"
204632,"4127 FOREST AVE","KANSAS CITY","MO",64110,39.051931811,-94.571091795,132,"4127 FOREST AVE, KANSAS CITY, MO, 64110","Match","Exact","4127 FOREST AVE, KANSAS CITY, MO, 64110",91447977,"L"
204633,"4127 FRANKLIN AVE","NEW ORLEANS","LA",70122,30.001138869,-90.050066536,133,"4127 FRANKLIN AVE, NEW ORLEANS, LA, 70122","Match","Exact","4127 FRANKLIN AVE, NEW ORLEANS, LA, 70122",191734890,"L"
204634,"4127 HARBOUR DRIVE","PALMYRA","NJ",8065,NA,NA,134,"4127 HARBOUR DRIVE, PALMYRA, NJ, 8065","No_Match",NA,NA,NA,NA
204635,"4127 IDLEBROOK DRIVE","AKRON","OH",44333,41.1391992800001,-81.6580498869999,135,"4127 IDLEBROOK DRIVE, AKRON, OH, 44333","Match","Exact","4127 IDLEBROOK DR, AKRON, OH, 44333",61361913,"R"
204636,"4127 KATHLAND AVE","GWYNN OAK","MD",21207,39.3255233410001,-76.689609482,136,"4127 KATHLAND AVE, GWYNN OAK, MD, 21207","Match","Exact","4127 KATHLAND AVE, GWYNN OAK, MD, 21207",206405258,"L"
204637,"4127 LAGOON PLACE","ROYSE CITY","TX",75189,NA,NA,137,"4127 LAGOON PLACE, ROYSE CITY, TX, 75189","No_Match",NA,NA,NA,NA
204638,"4127 LAKE CROSS DR W","MEMPHIS","TN",38125,35.035755055,-89.803930201,138,"4127 LAKE CROSS DR W, MEMPHIS, TN, 38125","Match","Exact","4127 LAKE CROSS DR W, MEMPHIS, TN, 38125",72953197,"L"
204639,"4127 LONGHORN DR","CLEVELAND","TX",77328,30.355950728,-95.260579515,139,"4127 LONGHORN DR, CLEVELAND, TX, 77328","Match","Exact","4127 LONGHORN DR, CLEVELAND, TX, 77328",641137106,"R"
204640,"4127 NE 57TH AVENUE","PORTLAND","OR",97218,45.5527548840001,-122.604455128,140,"4127 NE 57TH AVENUE, PORTLAND, OR, 97218","Match","Exact","4127 NE 57TH AVE, PORTLAND, OR, 97218",157605822,"L"
204641,"4127 NE HILLCREST CT","ANKENY","IA",50021,41.7653159400001,-93.588978772,141,"4127 NE HILLCREST CT, ANKENY, IA, 50021","Match","Exact","4127 NE HILLCREST CT, ANKENY, IA, 50021",65865851,"L"
204642,"4127 NOTTINGHAM DR","SEMMES","AL",36575,30.7771894630001,-88.272570426,142,"4127 NOTTINGHAM DR, SEMMES, AL, 36575","Match","Exact","4127 NOTTINGHAM DR, SEMMES, AL, 36575",640527418,"R"
204643,"4127 NOTTINGHAM DRIVE","SEMMES","AL",36575,30.7771894630001,-88.272570426,143,"4127 NOTTINGHAM DRIVE, SEMMES, AL, 36575","Match","Exact","4127 NOTTINGHAM DR, SEMMES, AL, 36575",640527418,"R"
204644,"4127 PALM BAY CIRCLE APT D","WEST PALM BEACH","FL",33406,26.6683992050001,-80.1073294779999,144,"4127 PALM BAY CIRCLE APT D, WEST PALM BEACH, FL, 33406","Match","Exact","4127 PALM BAY CIR, WEST PALM BEACH, FL, 33406",625409363,"R"
204645,"4127 PRINCETON BLVD","SOUTH EUCLID","OH",44121,41.5403380770001,-81.532116989,145,"4127 PRINCETON BLVD, SOUTH EUCLID, OH, 44121","Match","Exact","4127 PRINCETON BLVD, SOUTH EUCLID, OH, 44121",61124619,"L"
204646,"4127 REDWOOD ROAD","OAKLAND","CA",94619,37.7962109600001,-122.181194036,146,"4127 REDWOOD ROAD, OAKLAND, CA, 94619","Match","Exact","4127 REDWOOD RD, OAKLAND, CA, 94619",639862403,"R"
204647,"4127 RESIDENCE DR APT 407","FORT MYERS","FL",33901,26.6025702050001,-81.864577649,147,"4127 RESIDENCE DR APT 407, FORT MYERS, FL, 33901","Match","Exact","4127 RESIDENCE DR, FORT MYERS, FL, 33901",648416261,"R"
204648,"4127 RIDGEWOOD DRIVE","YPSILANTI","MI",48197,42.2288352350001,-83.675538864,148,"4127 RIDGEWOOD DRIVE, YPSILANTI, MI, 48197","Match","Exact","4127 RIDGEWOOD DR, YPSILANTI, MI, 48197",26042890,"L"
204649,"4127 RIPA AVENUE","ST. LOUIS","MO",63125,38.534560926,-90.3046891499999,149,"4127 RIPA AVENUE, ST. LOUIS, MO, 63125","Match","Exact","4127 RIPA AVE, SAINT LOUIS, MO, 63125",100194325,"L"
204650,"4127 SOUTH MUIRFIELD RD APT A","LOS ANGELES","CA",90008,34.010714383,-118.347972569,150,"4127 SOUTH MUIRFIELD RD APT A, LOS ANGELES, CA, 90008","Match","Exact","4127 S MUIRFIELD RD, LOS ANGELES, CA, 90008",141602298,"R"
204651,"4127 STONECROFT DRIVE","AUSTIN","TX",78749,30.209646089,-97.843897618,151,"4127 STONECROFT DRIVE, AUSTIN, TX, 78749","Match","Exact","4127 STONECROFT DR, AUSTIN, TX, 78749",63937746,"L"
204652,"41271 MACKENZIE LN","INDIO","CA",92203,33.7489311790001,-116.214237897,152,"41271 MACKENZIE LN, INDIO, CA, 92203","Match","Exact","41271 MACKENZIE LN, INDIO, CA, 92203",608977302,"L"
204653,"41273 BAYOU NARCISSE RD","GONZALES","LA",70737,30.2473772380001,-90.911581102,153,"41273 BAYOU NARCISSE RD, GONZALES, LA, 70737","Match","Exact","41273 BAYOU NARCISSE RD, GONZALES, LA, 70737",115024912,"R"
204654,"41274 AUTUMN CROSSING","PRAIRIEVILLE","LA",70769,30.3242695050001,-90.912758007,154,"41274 AUTUMN CROSSING, PRAIRIEVILLE, LA, 70769","Match","Exact","41274 AUTUMN CROSSING, PRAIRIEVILLE, LA, 70769",650979302,"R"
204655,"4128 216TH PL SE","BOTHELL","WA",98021,47.801254123,-122.17451832,155,"4128 216TH PL SE, BOTHELL, WA, 98021","Match","Exact","4128 216TH PL SE, BOTHELL, WA, 98021",608923189,"L"
204656,"4128 51ST DRIVE WEST","BRADENTON","FL",34210,27.4510900000001,-82.603539116,156,"4128 51ST DRIVE WEST, BRADENTON, FL, 34210","Match","Exact","4128 51ST DR W, BRADENTON, FL, 34210",16260307,"L"
204657,"4128 ADALRIC DR","COLUMBUS","OH",43219,40.02955245,-82.904949739,157,"4128 ADALRIC DR, COLUMBUS, OH, 43219","Match","Exact","4128 ADALRIC DR, COLUMBUS, OH, 43219",624000665,"L"
204658,"4128 AMHURST DR","HIGHLAND VILLAGE","TX",75077,33.088051002,-97.081664202,158,"4128 AMHURST DR, HIGHLAND VILLAGE, TX, 75077","Match","Exact","4128 AMHURST DR, HIGHLAND VILLAGE, TX, 75077",653854012,"R"
204659,"4128 BRINKLEY ST","HOUSTON","TX",77051,29.662968215,-95.3674103879999,159,"4128 BRINKLEY ST, HOUSTON, TX, 77051","Match","Exact","4128 BRINKLEY ST, HOUSTON, TX, 77051",96088836,"R"
204660,"4128 BURKE AVE N","SEATTLE","WA",98103,47.657180275,-122.335034213,160,"4128 BURKE AVE N, SEATTLE, WA, 98103","Match","Exact","4128 BURKE AVE N, SEATTLE, WA, 98103",186582961,"R"
204661,"4128 CLEARWATER WAY","LEXINGTON","KY",40515,37.965033674,-84.5098533409999,161,"4128 CLEARWATER WAY, LEXINGTON, KY, 40515","Match","Exact","4128 CLEARWATER WAY, LEXINGTON, KY, 40515",31938687,"L"
204662,"4128 E GROVE ST","PHOENIX","AZ",85040,33.3985538330001,-111.992700234,162,"4128 E GROVE ST, PHOENIX, AZ, 85040","Match","Exact","4128 E GROVE ST, PHOENIX, AZ, 85040",128807399,"L"
204663,"4128 E TOPEKA DR","PHOENIX","AZ",85050,33.6605919720001,-111.993342837,163,"4128 E TOPEKA DR, PHOENIX, AZ, 85050","Match","Exact","4128 E TOPEKA DR, PHOENIX, AZ, 85050",128931993,"L"
204664,"4128 FARGUSON CV","OLIVE BRANCH","MS",38654,34.9211471130001,-89.805299889,164,"4128 FARGUSON CV, OLIVE BRANCH, MS, 38654","Match","Exact","4128 FARGUSON COVE, OLIVE BRANCH, MS, 38654",613366701,"L"
204665,"4128 FORT HENRY DR STE D PMB 249","KINGSPORT","TN",37663,36.483610286,-82.501386173,165,"4128 FORT HENRY DR STE D PMB 249, KINGSPORT, TN, 37663","Match","Exact","4128 FORT HENRY DR, KINGSPORT, TN, 37663",604781694,"R"
204666,"4128 GRANDVIEW DR","GIBSONIA","PA",15044,40.64076479,-79.934746538,166,"4128 GRANDVIEW DR, GIBSONIA, PA, 15044","Match","Exact","4128 GRANDVIEW DR, GIBSONIA, PA, 15044",638335462,"R"
204667,"4128 HIAWATHA TRAIL","PETOSKEY","MI",49770,45.401688215,-84.887433017,167,"4128 HIAWATHA TRAIL, PETOSKEY, MI, 49770","Match","Exact","4128 HIAWATHA TRL, PETOSKEY, MI, 49770",133982661,"R"
204668,"4128 LAKE TRAIL DR","KENNER","LA",70065,30.0309776070001,-90.2311418319999,168,"4128 LAKE TRAIL DR, KENNER, LA, 70065","Match","Exact","4128 LAKE TRAIL DR, KENNER, LA, 70065",93558068,"R"
204669,"4128 SIRIUS AVENUE","LOMPOC","CA",93436,34.7062682550001,-120.471303589,169,"4128 SIRIUS AVENUE, LOMPOC, CA, 93436","Match","Exact","4128 SIRIUS AVE, LOMPOC, CA, 93436",108598181,"L"
204670,"4128 STEVE REYNOLDS BLVD","NORCROSS","GA",30093,33.9294421440001,-84.1471456049999,170,"4128 STEVE REYNOLDS BLVD, NORCROSS, GA, 30093","Match","Exact","4128 STEVE REYNOLDS BLVD, NORCROSS, GA, 30093",88885573,"L"
204671,"4128 TRACY AVE","KANSAS CITY","MO",64110,39.051860934,-94.569978036,171,"4128 TRACY AVE, KANSAS CITY, MO, 64110","Match","Exact","4128 TRACY AVE, KANSAS CITY, MO, 64110",91447978,"R"
204672,"4128 WINDSOR ROAD","BOARDMAN","OH",44512,41.0570874220001,-80.6692939609999,172,"4128 WINDSOR ROAD, BOARDMAN, OH, 44512","Match","Exact","4128 WINDSOR RD, BOARDMAN, OH, 44512",64598338,"R"
204673,"41281 LENAH POINT DR","ALDIE","VA",20105,38.941412933,-77.574634411,173,"41281 LENAH POINT DR, ALDIE, VA, 20105","Match","Exact","41281 LENAH POINT DR, ALDIE, VA, 20105",651413529,"R"
204674,"4129 155TH LANE NE","HAM LAKE","MN",55304,45.2518493860001,-93.165371304,174,"4129 155TH LANE NE, HAM LAKE, MN, 55304","Match","Exact","4129 155TH LN NE, HAM LAKE, MN, 55304",633501042,"L"
204675,"4129 BEE CREEK ROAD","SPICEWOOD","TX",78738,30.355446715,-98.0347041859999,175,"4129 BEE CREEK ROAD, SPICEWOOD, TX, 78738","Match","Non_Exact","4129 BEE CREEK RD, SPICEWOOD, TX, 78669",632777592,"R"
204676,"4129 CARY OAKS DR","RALEIGH","NC",27539,35.690708882,-78.7811582529999,176,"4129 CARY OAKS DR, RALEIGH, NC, 27539","Match","Non_Exact","4129 CARY OAKS DR, APEX, NC, 27539",642086754,"L"
204677,"4129 LAKE LYNN DR 308","RALEIGH","NC",27613,35.8798733900001,-78.701444447,177,"4129 LAKE LYNN DR 308, RALEIGH, NC, 27613","Match","Exact","4129 LAKE LYNN DR, RALEIGH, NC, 27613",72571603,"R"
204678,"4129 LAKWSIDE DRIVE","TAMARAC","FL",33319,NA,NA,178,"4129 LAKWSIDE DRIVE, TAMARAC, FL, 33319","No_Match",NA,NA,NA,NA
204679,"4129 MAIN STREET SUITE 100","RIVERSIDE","CA",92501,33.9787382860001,-117.376603734,179,"4129 MAIN STREET SUITE 100, RIVERSIDE, CA, 92501","Match","Exact","4129 MAIN ST, RIVERSIDE, CA, 92501",194742085,"R"
204680,"4129 N 20TH ST","MILWAUKEE","WI",53209,43.0923478240001,-87.9369823069999,180,"4129 N 20TH ST, MILWAUKEE, WI, 53209","Match","Exact","4129 N 20TH ST, MILWAUKEE, WI, 53209",77737824,"L"
204681,"4129 N MOZART ST UNIT 3","CHICAGO","IL",60618,41.9563710460001,-87.6995294659999,181,"4129 N MOZART ST UNIT 3, CHICAGO, IL, 60618","Match","Non_Exact","4129 N MOZART ST, CHICAGO, IL, 60618",111760562,"R"
204682,"4129 NW 22ND ST","OKLAHOMA CITY","OK",73107,35.492420076,-97.5920857519999,182,"4129 NW 22ND ST, OKLAHOMA CITY, OK, 73107","Match","Exact","4129 NW 22ND ST, OKLAHOMA CITY, OK, 73107",100391598,"R"
204683,"4129 PINE HILL RD","NORMAN","OK",73072,35.2574519340001,-97.500816624,183,"4129 PINE HILL RD, NORMAN, OK, 73072","Match","Exact","4129 PINE HILL RD, NORMAN, OK, 73072",617927776,"R"
204684,"4129 VENDOME PLACE","NEW ORLEANS","LA",70125,29.9533503550001,-90.108003369,184,"4129 VENDOME PLACE, NEW ORLEANS, LA, 70125","Match","Exact","4129 VENDOME PL, NEW ORLEANS, LA, 70125",191707150,"R"
204685,"4129 VILLA FLORA WAY","LAS VEGAS","NV",89130,36.2342331680001,-115.215997425,185,"4129 VILLA FLORA WAY, LAS VEGAS, NV, 89130","Match","Non_Exact","4129 VILLA FLORA ST, LAS VEGAS, NV, 89130",201953057,"L"
204686,"4129 WALDROP HILLS TERRACE","DECATUR","GA",30034,33.678113454,-84.245929238,186,"4129 WALDROP HILLS TERRACE, DECATUR, GA, 30034","Match","Exact","4129 WALDROP HILLS TER, DECATUR, GA, 30034",23398210,"R"
204687,"4129 WARWICK HILLS DRIVE","WESLEY CHAPEL","FL",33543,28.217444325,-82.3128869069999,187,"4129 WARWICK HILLS DRIVE, WESLEY CHAPEL, FL, 33543","Match","Exact","4129 WARWICK HILLS DR, WESLEY CHAPEL, FL, 33543",618494808,"L"
204688,"41293","HOUSTON","TX",77241,NA,NA,188,"41293, HOUSTON, TX, 77241","No_Match",NA,NA,NA,NA
204689,"41298 COUNTY 7","BROWERVILLE","MN",56438,46.2238007760001,-94.726029277,189,"41298 COUNTY 7, BROWERVILLE, MN, 56438","Match","Exact","41298 COUNTY 7, BROWERVILLE, MN, 56438",201436073,"R"
204690,"41299 PASEO PADRE PARKWAY APT 225","FREMONT","CA",94539,37.540248293,-121.94648352,190,"41299 PASEO PADRE PARKWAY APT 225, FREMONT, CA, 94539","Match","Exact","41299 PASEO PADRE PKWY, FREMONT, CA, 94539",606247761,"R"
204691,"41299 PERIWINKLE TRAIL","LAPORTE","MN",56461,47.2548629400001,-94.6767433159999,191,"41299 PERIWINKLE TRAIL, LAPORTE, MN, 56461","Match","Exact","41299 PERIWINKLE TRL, LAPORTE, MN, 56461",608295463,"L"
204692,"413 1/2 W PINE ST","ARCADIA","FL",34266,27.210764791,-81.856973899,192,"413 1/2 W PINE ST, ARCADIA, FL, 34266","Match","Non_Exact","413 E PINE ST, ARCADIA, FL, 34266",16162049,"R"
204693,"413 16TH STREET NORTH","BIRMINGHAM","AL",35203,33.5146185620001,-86.813207789,193,"413 16TH STREET NORTH, BIRMINGHAM, AL, 35203","Match","Exact","413 16TH ST N, BIRMINGHAM, AL, 35203",81642971,"R"
204694,"413 2ND AVE SE","CULLMAN","AL",35055,NA,NA,194,"413 2ND AVE SE, CULLMAN, AL, 35055","Tie",NA,NA,NA,NA
204695,"413 39TH STREET","WEST DES MOINES","IA",50265,41.576606913,-93.756478758,195,"413 39TH STREET, WEST DES MOINES, IA, 50265","Match","Exact","413 39TH ST, W DES MOINES, IA, 50265",65775231,"R"
204696,"413 4TH AVE S STE 4","COLUMBUS","MS",39701,NA,NA,196,"413 4TH AVE S STE 4, COLUMBUS, MS, 39701","No_Match",NA,NA,NA,NA
204697,"413 7TH ST","DOUGLAS","AZ",85607,31.341290294,-109.555820367,197,"413 7TH ST, DOUGLAS, AZ, 85607","Match","Exact","413 7TH ST, DOUGLAS, AZ, 85607",120910739,"L"
204698,"413 7TH ST","HOQUIAM","WA",98550,46.9773241330001,-123.886195507,198,"413 7TH ST, HOQUIAM, WA, 98550","Match","Exact","413 7TH ST, HOQUIAM, WA, 98550",180580426,"R"
204699,"413 ASH LN","LANCASTER","TX",75146,32.5954309570001,-96.771365077,199,"413 ASH LN, LANCASTER, TX, 75146","Match","Exact","413 ASH LN, LANCASTER, TX, 75146",102989919,"L"
204700,"413 AUTUMN DRIVE 225","SAN MARCOS","CA",92069,33.143949709,-117.170042979,200,"413 AUTUMN DRIVE 225, SAN MARCOS, CA, 92069","Match","Exact","413 AUTUMN DR, SAN MARCOS, CA, 92069",645484062,"L"
204701,"413 BAYFIELD DR","TAMPA","FL",33511,27.883143472,-82.281555842,201,"413 BAYFIELD DR, TAMPA, FL, 33511","Match","Non_Exact","413 BAYFIELD DR, BRANDON, FL, 33511",104544201,"L"
204702,"413 BAYOU SARA AVE","SARALAND","AL",36571,30.824114041,-88.0597490389999,202,"413 BAYOU SARA AVE, SARALAND, AL, 36571","Match","Exact","413 BAYOU SARA AVE, SARALAND, AL, 36571",61883665,"R"
204703,"413 BELCHERTOWN RD","WARE","MA",1082,42.2646742490001,-72.294173612,203,"413 BELCHERTOWN RD, WARE, MA, 1082","Match","Exact","413 BELCHERTOWN RD, WARE, MA, 01082",635745766,"R"
204704,"413 BELFREY DRIVE","ELIZABETH","PA",15037,40.2666131350001,-79.8558233969999,204,"413 BELFREY DRIVE, ELIZABETH, PA, 15037","Match","Exact","413 BELFREY DR, ELIZABETH, PA, 15037",51679276,"L"
204705,"413 BOLLINGWOOD PL","VALRICO","FL",33594,27.9436865650001,-82.251158484,205,"413 BOLLINGWOOD PL, VALRICO, FL, 33594","Match","Exact","413 BOLLINGWOOD PL, VALRICO, FL, 33594",104544911,"R"
204706,"413 BOONESVILLE BEND","ARGYLE","TX",76226,33.103584525,-97.184186588,206,"413 BOONESVILLE BEND, ARGYLE, TX, 76226","Match","Exact","413 BOONESVILLE BEND, ARGYLE, TX, 76226",646877346,"R"
204707,"413 BOTSFORD ST","PORT HURON","MI",48060,42.979556341,-82.454468816,207,"413 BOTSFORD ST, PORT HURON, MI, 48060","Match","Exact","413 BOTSFORD ST, PORT HURON, MI, 48060",110957393,"L"
204708,"413 BOUNTY DR","CAPE FAIR","MO",65624,36.727083329,-93.46846397,208,"413 BOUNTY DR, CAPE FAIR, MO, 65624","Match","Exact","413 BOUNTY DR, CAPE FAIR, MO, 65624",64829807,"L"
204709,"413 BRANDYWINE DR","BEAR","DE",19701,39.6351277270001,-75.649518238,209,"413 BRANDYWINE DR, BEAR, DE, 19701","Match","Exact","413 BRANDYWINE DR, BEAR, DE, 19701",640728172,"L"
204710,"413 BRANDYWINE ST SE","WASHINGTON","DC",20032,38.830076585,-77.0002999069999,210,"413 BRANDYWINE ST SE, WASHINGTON, DC, 20032","Match","Exact","413 BRANDYWINE ST SE, WASHINGTON, DC, 20032",76232610,"R"
204711,"413 BROAD ST","WADSWORTH","OH",44281,41.0255383680001,-81.7181980249999,211,"413 BROAD ST, WADSWORTH, OH, 44281","Match","Exact","413 BROAD ST, WADSWORTH, OH, 44281",58679246,"R"
204712,"413 BROADWAY","SOUTH PORTLAND","ME",4106,43.637005651,-70.2470385509999,212,"413 BROADWAY, SOUTH PORTLAND, ME, 4106","Match","Exact","413 BROADWAY, SOUTH PORTLAND, ME, 04106",78028993,"R"
204713,"413 BROOK ROAD","CAVENDISH","VT",5142,43.4077241310001,-72.593615948,213,"413 BROOK ROAD, CAVENDISH, VT, 5142","Match","Exact","413 BROOK RD, CAVENDISH, VT, 05142",639590822,"L"
204714,"413 BUCKBOARD LANE","LOCUST GROVE","GA",30248,33.342814624,-84.11862895,214,"413 BUCKBOARD LANE, LOCUST GROVE, GA, 30248","Match","Exact","413 BUCKBOARD LN, LOCUST GROVE, GA, 30248",210423011,"R"
204715,"413 CALLA LILY LANE","NORMAN","OK",73069,35.249986882,-97.4479330029999,215,"413 CALLA LILY LANE, NORMAN, OK, 73069","Match","Exact","413 CALLA LILY LN, NORMAN, OK, 73069",240923323,"L"
204716,"413 CENTRAL AVENUE NUM 8-142","PAWTUCKET","RI",2861,41.885381554,-71.365562052,216,"413 CENTRAL AVENUE NUM 8-142, PAWTUCKET, RI, 2861","Match","Exact","413 CENTRAL AVE, PAWTUCKET, RI, 02861",47468621,"R"
204717,"413 CHANTICLEER","CLOVIS","NM",88101,34.4215260670001,-103.17389437,217,"413 CHANTICLEER, CLOVIS, NM, 88101","Match","Non_Exact","413 CHANTICLEER PL, CLOVIS, NM, 88101",163773374,"L"
204718,"413 CHELSEA WAY DR","SAINT CHARLES","MO",63304,38.7320778710001,-90.684750932,218,"413 CHELSEA WAY DR, SAINT CHARLES, MO, 63304","Match","Exact","413 CHELSEA WAY DR, SAINT CHARLES, MO, 63304",100048912,"R"
204719,"413 CLAREMONT WAY","MENLO PARK","CA",94025,37.4496015760001,-122.169618919,219,"413 CLAREMONT WAY, MENLO PARK, CA, 94025","Match","Exact","413 CLAREMONT WAY, MENLO PARK, CA, 94025",192365638,"L"
204720,"413 CLEVELAND STREET","CLEARWATER","FL",33755,27.965597335,-82.800833419,220,"413 CLEVELAND STREET, CLEARWATER, FL, 33755","Match","Exact","413 CLEVELAND ST, CLEARWATER, FL, 33755",613715525,"R"
204721,"413 CLINTON PL","NEWARK","NJ",7112,40.7095535020001,-74.2168879559999,221,"413 CLINTON PL, NEWARK, NJ, 7112","Match","Exact","413 CLINTON PL, NEWARK, NJ, 07112",63465302,"R"
204722,"413 COLLEGE AVENUE","LANCASTER","PA",17603,40.0434682320001,-76.319648635,222,"413 COLLEGE AVENUE, LANCASTER, PA, 17603","Match","Exact","413 COLLEGE AVE, LANCASTER, PA, 17603",639513339,"R"
204723,"413 DEER CROSSING DR","FESTUS","MO",63028,38.227298837,-90.422071693,223,"413 DEER CROSSING DR, FESTUS, MO, 63028","Match","Exact","413 DEER CROSSING DR, FESTUS, MO, 63028",62811305,"L"
204724,"413 DEMPSTER ST","EVANSTON","IL",60201,42.041155368,-87.677429397,224,"413 DEMPSTER ST, EVANSTON, IL, 60201","Match","Exact","413 DEMPSTER ST, EVANSTON, IL, 60201",605191917,"R"
204725,"413 DOVETREE LANE","KATHLEEN","GA",31047,32.518261255,-83.680418128,225,"413 DOVETREE LANE, KATHLEEN, GA, 31047","Match","Exact","413 DOVETREE LN, KATHLEEN, GA, 31047",618736465,"L"
204726,"413 E 13TH STREET","HOUSTON","TX",77008,29.7944721040001,-95.3916894549999,226,"413 E 13TH STREET, HOUSTON, TX, 77008","Match","Exact","413 E 13TH ST, HOUSTON, TX, 77008",96061390,"L"
204727,"413 E 32ND ST","HIBBING","MN",55746,NA,NA,227,"413 E 32ND ST, HIBBING, MN, 55746","Tie",NA,NA,NA,NA
204728,"413 E 400 S","GREENFIELD","IN",46140,39.728173767,-85.7953846459999,228,"413 E 400 S, GREENFIELD, IN, 46140","Match","Exact","413 E 400 S, GREENFIELD, IN, 46140",31074991,"R"
204729,"413 E 6TH AVENUE","GASTONIA","NC",28054,35.254678751,-81.1759559069999,229,"413 E 6TH AVENUE, GASTONIA, NC, 28054","Match","Exact","413 E 6TH AVE, GASTONIA, NC, 28054",70380044,"R"
204730,"413 E ELM STREET","INDEPENDENCE","MO",64050,39.087683193,-94.4102780429999,230,"413 E ELM STREET, INDEPENDENCE, MO, 64050","Match","Exact","413 E ELM ST, INDEPENDENCE, MO, 64050",91469354,"R"
204731,"413 E GRANT STREET","APPLETON","WI",54911,44.277420856,-88.4003835789999,231,"413 E GRANT STREET, APPLETON, WI, 54911","Match","Exact","413 E GRANT ST, APPLETON, WI, 54911",74920379,"R"
204732,"413 EAST  AVENIDA CORDOBA","SAN CLEMENTE","CA",92672,33.4253963470001,-117.604643587,232,"413 EAST  AVENIDA CORDOBA, SAN CLEMENTE, CA, 92672","Match","Exact","413 E AVE CORDOBA, SAN CLEMENTE, CA, 92672",144076342,"L"
204733,"413 EAST 18TH AVENUE","COLUMBUS","OH",43201,40.002251055,-82.997436425,233,"413 EAST 18TH AVENUE, COLUMBUS, OH, 43201","Match","Exact","413 E 18TH AVE, COLUMBUS, OH, 43201",218681967,"R"
204734,"413 EAST CANAL STREET","TROY","OH",45373,40.0359006790001,-84.200707398,234,"413 EAST CANAL STREET, TROY, OH, 45373","Match","Exact","413 E CANAL ST, TROY, OH, 45373",135298520,"L"
204735,"413 EAST PHILADELPHIA STREET","ARMAGH","PA",15920,NA,NA,235,"413 EAST PHILADELPHIA STREET, ARMAGH, PA, 15920","No_Match",NA,NA,NA,NA
204736,"413 EAST SAINT ANDREWS STREET","FORREST CITY","AR",72335,35.0012292660001,-90.784660667,236,"413 EAST SAINT ANDREWS STREET, FORREST CITY, AR, 72335","Match","Non_Exact","413 E SAINT ANDREWS AVE, FORREST CITY, AR, 72335",12644623,"R"
204737,"413 EDINBURGH RD","MIDDLETOWN","PA",17057,40.2126771310001,-76.77321159,237,"413 EDINBURGH RD, MIDDLETOWN, PA, 17057","Match","Exact","413 EDINBURGH RD, MIDDLETOWN, PA, 17057",70841743,"R"
204738,"413 FOREST BREEZE AVE","DOVER","FL",33527,NA,NA,238,"413 FOREST BREEZE AVE, DOVER, FL, 33527","No_Match",NA,NA,NA,NA
204739,"413 FRIDLEY DR","SUMNER","IA",50674,42.8504736260001,-92.1075482259999,239,"413 FRIDLEY DR, SUMNER, IA, 50674","Match","Exact","413 FRIDLEY DR, SUMNER, IA, 50674",77344991,"R"
204740,"413 FRUIT FARM ROAD","ROYERSFORD","PA",19468,40.1795161840001,-75.509889632,240,"413 FRUIT FARM ROAD, ROYERSFORD, PA, 19468","Match","Exact","413 FRUIT FARM RD, ROYERSFORD, PA, 19468",135066163,"L"
204741,"413 GLEN AVE","SCOTIA","NY",12302,42.828386369,-73.9740165539999,241,"413 GLEN AVE, SCOTIA, NY, 12302","Match","Exact","413 GLEN AVE, SCOTIA, NY, 12302",18024753,"L"
204742,"413 GOLFCREST DRIVE","WINDCREST","TX",78239,29.5136379900001,-98.383314743,242,"413 GOLFCREST DRIVE, WINDCREST, TX, 78239","Match","Exact","413 GOLFCREST DR, WINDCREST, TX, 78239",101502389,"L"
204743,"413 GRETNA ROAD","HYDE PARK","NY",12538,41.7825908570001,-73.846685373,243,"413 GRETNA ROAD, HYDE PARK, NY, 12538","Match","Exact","413 GRETNA RD, HYDE PARK, NY, 12538",4226592,"L"
204744,"413 HATTERAS DRIVE","EAST FALLOWFIELD","PA",19320,39.959830525,-75.829638238,244,"413 HATTERAS DRIVE, EAST FALLOWFIELD, PA, 19320","Match","Non_Exact","413 HATTERAS RD, E FALLOWFIELD, PA, 19320",179557682,"L"
204745,"413 HIGH STREET NUM 2","MIDDLETOWN","CT",6457,41.562258709,-72.656545571,245,"413 HIGH STREET NUM 2, MIDDLETOWN, CT, 6457","Match","Exact","413 HIGH ST, MIDDLETOWN, CT, 06457",113889056,"R"
204746,"413 HIGHFIELD LOOP","MYRTLE BEACH","SC",29579,33.741700903,-78.914572123,246,"413 HIGHFIELD LOOP, MYRTLE BEACH, SC, 29579","Match","Exact","413 HIGHFIELD LOOP, MYRTLE BEACH, SC, 29579",627334985,"R"
204747,"413 HUNTINGTON DRIVE","WAYNE","PA",19087,40.0787133200001,-75.426741726,247,"413 HUNTINGTON DRIVE, WAYNE, PA, 19087","Match","Exact","413 HUNTINGTON DR, WAYNE, PA, 19087",179498948,"L"
204748,"413 HWY 9","MARION","SC",29571,NA,NA,248,"413 HWY 9, MARION, SC, 29571","No_Match",NA,NA,NA,NA
204749,"413 INDEPENDENCE AVE SE SUITE B","WASHINGTON","DC",20003,38.8875931330001,-77.000380896,249,"413 INDEPENDENCE AVE SE SUITE B, WASHINGTON, DC, 20003","Match","Exact","413 INDEPENDENCE AVE SE, WASHINGTON, DC, 20003",76229929,"R"
204750,"413 JORDON POND LANE","BOWIE","MD",20721,38.896502599,-76.74615669,250,"413 JORDON POND LANE, BOWIE, MD, 20721","Match","Exact","413 JORDON POND LN, BOWIE, MD, 20721",76352250,"R"
204751,"413 JUCUNDA STREET","PITTSBURGH","PA",15210,40.4172044220001,-79.995553144,251,"413 JUCUNDA STREET, PITTSBURGH, PA, 15210","Match","Exact","413 JUCUNDA ST, PITTSBURGH, PA, 15210",51636484,"R"
204752,"413 KNODISHALL DRIVE","WARNER ROBINS","GA",31093,32.625471862,-83.659576771,252,"413 KNODISHALL DRIVE, WARNER ROBINS, GA, 31093","Match","Exact","413 KNODISHALL DR, WARNER ROBINS, GA, 31093",91234423,"R"
204753,"413 LAFAYETTE AVENUE","PROSPECT PARK","PA",19076,39.8799958000001,-75.306099386,253,"413 LAFAYETTE AVENUE, PROSPECT PARK, PA, 19076","Match","Exact","413 LAFAYETTE AVE, PROSPECT PARK, PA, 19076",134885697,"R"
204754,"413 LAKE DRIVE","LUSBY","MD",20657,38.330893766,-76.423324298,254,"413 LAKE DRIVE, LUSBY, MD, 20657","Match","Exact","413 LAKE DR, LUSBY, MD, 20657",78157965,"R"
204755,"413 LILAC LANE","FORT COLLINS","CO",80524,40.5825520280001,-105.067461238,255,"413 LILAC LANE, FORT COLLINS, CO, 80524","Match","Exact","413 LILAC LN, FORT COLLINS, CO, 80524",188491237,"R"
204756,"413 LISK AVE","STATEN ISLAND","NY",10303,40.6225794860001,-74.16363401,256,"413 LISK AVE, STATEN ISLAND, NY, 10303","Match","Exact","413 LISK AVE, STATEN ISLAND, NY, 10303",59879404,"L"
204757,"413 LONGLEAF DRIVE","VENETIA","PA",15367,40.2693459650001,-80.034587705,257,"413 LONGLEAF DRIVE, VENETIA, PA, 15367","Match","Exact","413 LONGLEAF DR, VENETIA, PA, 15367",632942896,"R"
204758,"413 LOOKOUT AVE","AKRON","OH",44310,41.0932540040001,-81.501226522,258,"413 LOOKOUT AVE, AKRON, OH, 44310","Match","Exact","413 LOOKOUT AVE, AKRON, OH, 44310",61349549,"L"
204759,"413 LOUIS COLEMAN JR DR","LOUISVILLE","KY",40212,NA,NA,259,"413 LOUIS COLEMAN JR DR, LOUISVILLE, KY, 40212","No_Match",NA,NA,NA,NA
204760,"413 MADISON","HOBART","IN",46342,41.5600427370001,-87.271198488,260,"413 MADISON, HOBART, IN, 46342","Match","Non_Exact","413 MADISON AVE, HOBART, IN, 46342",98436220,"R"
204761,"413 MAGNOLIA ST","MARION","AR",72364,35.2019470710001,-90.217361733,261,"413 MAGNOLIA ST, MARION, AR, 72364","Match","Exact","413 MAGNOLIA ST, MARION, AR, 72364",69377593,"R"
204762,"413 MAPLE STREET","MUNISING","MI",49862,46.4081299920001,-86.6552287649999,262,"413 MAPLE STREET, MUNISING, MI, 49862","Match","Exact","413 MAPLE ST, MUNISING, MI, 49862",181901817,"R"
204763,"413 MARLBORO STREET","MARTINEZ","GA",30907,33.528146824,-82.0658565639999,263,"413 MARLBORO STREET, MARTINEZ, GA, 30907","Match","Exact","413 MARLBORO ST, MARTINEZ, GA, 30907",55375201,"R"
204764,"413 MAYMONT DRIVE","CRAMERTON","NC",28032,35.229434069,-81.080251534,264,"413 MAYMONT DRIVE, CRAMERTON, NC, 28032","Match","Exact","413 MAYMONT DR, CRAMERTON, NC, 28032",70401383,"L"
204765,"413 MCPHERSON ST","CRYSTAL SPRINGS","MS",39059,31.9968654950001,-90.356671615,265,"413 MCPHERSON ST, CRYSTAL SPRINGS, MS, 39059","Match","Exact","413 MCPHERSON ST, CRYSTAL SPGS, MS, 39059",64325838,"L"
204766,"413 MICHIGAN STREET","PETOSKEY","MI",49770,45.3729142930001,-84.955085125,266,"413 MICHIGAN STREET, PETOSKEY, MI, 49770","Match","Exact","413 MICHIGAN ST, PETOSKEY, MI, 49770",133984651,"R"
204767,"413 MILLER LN","VAN ALSTYNE","TX",75495,33.423766829,-96.58112937,267,"413 MILLER LN, VAN ALSTYNE, TX, 75495","Match","Exact","413 MILLER LN, VAN ALSTYNE, TX, 75495",63360019,"R"
204768,"413 MOHICAN DRIVE","FREDERICK","MD",21701,39.429409766,-77.3923181919999,268,"413 MOHICAN DRIVE, FREDERICK, MD, 21701","Match","Exact","413 MOHICAN DR, FREDERICK, MD, 21701",627004943,"R"
204769,"413 MONROE STREET","BROOKLYN","NY",11221,40.686589327,-73.940901905,269,"413 MONROE STREET, BROOKLYN, NY, 11221","Match","Exact","413 MONROE ST, BROOKLYN, NY, 11221",59079198,"L"
204770,"413 MOROSS","GROSSE POINTE FARMS","MI",48236,42.4156781470001,-82.9072802599999,270,"413 MOROSS, GROSSE POINTE FARMS, MI, 48236","Match","Non_Exact","413 MOROSS RD, GROSSE POINTE FARMS, MI, 48236",95720391,"L"
204771,"413 N 6TH STREET","GRAND HAVEN","MI",49417,43.0656451830001,-86.222624131,271,"413 N 6TH STREET, GRAND HAVEN, MI, 49417","Match","Exact","413 N 6TH ST, GRAND HAVEN, MI, 49417",641559034,"L"
204772,"413 N CALLE DEL DIABLO","GREEN VALLEY","AZ",85614,31.876353287,-110.996427098,272,"413 N CALLE DEL DIABLO, GREEN VALLEY, AZ, 85614","Match","Non_Exact","413 N CLL DEL DIABLO, GREEN VALLEY, AZ, 85614",121121327,"L"
204773,"413 N HORSE PRAIRIE ROAD","INVERNESS","FL",34450,28.8681187190001,-82.286362788,273,"413 N HORSE PRAIRIE ROAD, INVERNESS, FL, 34450","Match","Exact","413 N HORSE PRAIRIE RD, INVERNESS, FL, 34450",86219871,"R"
204774,"413 N MILWAUKEE AVE","LIBERTYVILLE","IL",60048,42.2869964670001,-87.9541815159999,274,"413 N MILWAUKEE AVE, LIBERTYVILLE, IL, 60048","Match","Exact","413 N MILWAUKEE AVE, LIBERTYVILLE, IL, 60048",119642436,"R"
204775,"413 NEBRASKA COURT","BARTLESVILLE","OK",74006,36.7631253530001,-95.931296263,275,"413 NEBRASKA COURT, BARTLESVILLE, OK, 74006","Match","Exact","413 NEBRASKA CT, BARTLESVILLE, OK, 74006",18716463,"L"
204776,"413 NEPONSET AVE","BOSTON","MA",2122,42.2862659460001,-71.043729992,276,"413 NEPONSET AVE, BOSTON, MA, 2122","Match","Exact","413 NEPONSET AVE, BOSTON, MA, 02122",640323446,"R"
204777,"413 NORTH APPLEKNOCKER","COBDEN","IL",62920,NA,NA,277,"413 NORTH APPLEKNOCKER, COBDEN, IL, 62920","Tie",NA,NA,NA,NA
204778,"413 NORTH DIVISION","FORREST CITY","AR",72335,35.0110416540001,-90.7898008,278,"413 NORTH DIVISION, FORREST CITY, AR, 72335","Match","Non_Exact","413 N DIVISION ST, FORREST CITY, AR, 72335",12643992,"L"
204779,"413 NORTH OAKLEY STREET","FORDYCE","AR",71742,NA,NA,279,"413 NORTH OAKLEY STREET, FORDYCE, AR, 71742","Tie",NA,NA,NA,NA
204780,"413 NORTHSIDE DRIVE","CHAPEL HILL","NC",27516,35.881680585,-79.079257202,280,"413 NORTHSIDE DRIVE, CHAPEL HILL, NC, 27516","Match","Exact","413 NORTHSIDE DR, CHAPEL HILL, NC, 27516",72379120,"L"
204781,"413 NW 26TH ST","OCALA","FL",34475,29.213812057,-82.139753113,281,"413 NW 26TH ST, OCALA, FL, 34475","Match","Exact","413 NW 26TH ST, OCALA, FL, 34475",116724713,"R"
204782,"413 NW 88TH TERRACE","KANSAS CITY","MO",64155,39.2547794540001,-94.585380582,282,"413 NW 88TH TERRACE, KANSAS CITY, MO, 64155","Match","Exact","413 NW 88TH TER, KANSAS CITY, MO, 64155",89754170,"L"
204783,"413 OLD STRATFIELD RD","FAIRFIELD","CT",6825,NA,NA,283,"413 OLD STRATFIELD RD, FAIRFIELD, CT, 6825","Tie",NA,NA,NA,NA
204784,"413 OPAL WAY","SUPERIOR","CO",80027,39.9214161420001,-105.163646802,284,"413 OPAL WAY, SUPERIOR, CO, 80027","Match","Exact","413 OPAL WAY, SUPERIOR, CO, 80027",188200883,"R"
204785,"413 PAMLICO STREET","BELHAVEN","NC",27810,35.5392141560001,-76.6192951629999,285,"413 PAMLICO STREET, BELHAVEN, NC, 27810","Match","Exact","413 PAMLICO ST, BELHAVEN, NC, 27810",67945869,"L"
204786,"413 PAT DRIVE","AVONDALE","LA",70094,29.9020772640001,-90.204261393,286,"413 PAT DRIVE, AVONDALE, LA, 70094","Match","Exact","413 PAT DR, AVONDALE, LA, 70094",653317372,"L"
204787,"413 PEWTER COURT","GLASSBORO","NJ",8028,39.7211026800001,-75.101439344,287,"413 PEWTER COURT, GLASSBORO, NJ, 8028","Match","Exact","413 PEWTER CT, GLASSBORO, NJ, 08028",134598044,"L"
204788,"413 RICE RD","SILVER LAKE","KS",66539,39.1002954260001,-95.8539859539999,288,"413 RICE RD, SILVER LAKE, KS, 66539","Match","Exact","413 RICE RD, SILVER LAKE, KS, 66539",17883784,"L"
204789,"413 RIDGE AVENUE","CLARENDON HILLS","IL",60514,41.792543063,-87.96144742,289,"413 RIDGE AVENUE, CLARENDON HILLS, IL, 60514","Match","Exact","413 RIDGE AVE, CLARENDON HILLS, IL, 60514",112734426,"L"
204790,"413 RIVER ROAD","JERSEY SHORE","PA",17740,41.190889251,-77.25728849,290,"413 RIVER ROAD, JERSEY SHORE, PA, 17740","Match","Exact","413 RIVER RD, JERSEY SHORE, PA, 17740",636473493,"R"
204791,"413 ROCKINGHAM RD","COLUMBIA","SC",29223,34.122850902,-80.9262680799999,291,"413 ROCKINGHAM RD, COLUMBIA, SC, 29223","Match","Exact","413 ROCKINGHAM RD, COLUMBIA, SC, 29223",71822434,"R"
204792,"413 RUTHERFORD LN","COLUMBIA","TN",38401,35.603869591,-87.106144333,292,"413 RUTHERFORD LN, COLUMBIA, TN, 38401","Match","Exact","413 RUTHERFORD LN, COLUMBIA, TN, 38401",26885708,"L"
204793,"413 S  ARTHUR AVENUE","LOUISVILLE","CO",80027,39.964717853,-105.124600628,293,"413 S  ARTHUR AVENUE, LOUISVILLE, CO, 80027","Match","Exact","413 S ARTHUR AVE, LOUISVILLE, CO, 80027",220748511,"R"
204794,"413 S 6TH STREET","DE PERE","WI",54115,44.443907698,-88.075760729,294,"413 S 6TH STREET, DE PERE, WI, 54115","Match","Exact","413 S 6TH ST, DE PERE, WI, 54115",148098056,"L"
204795,"413 S ARTHUR AVE","LOUISVILLE","CO",80027,39.964717853,-105.124600628,295,"413 S ARTHUR AVE, LOUISVILLE, CO, 80027","Match","Exact","413 S ARTHUR AVE, LOUISVILLE, CO, 80027",220748511,"R"
204796,"413 S CONREY ST","KNOXVILLE","IA",50138,41.3157269160001,-93.1131056579999,296,"413 S CONREY ST, KNOXVILLE, IA, 50138","Match","Exact","413 S CONREY ST, KNOXVILLE, IA, 50138",89478608,"L"
204797,"413 S MACDILL AVE","TAMPA","FL",33609,27.9409173490001,-82.493339154,297,"413 S MACDILL AVE, TAMPA, FL, 33609","Match","Exact","413 S MACDILL AVE, TAMPA, FL, 33609",104526664,"R"
204798,"413 S MAIN","SHERIDAN","AR",72150,34.303751198,-92.4004361999999,298,"413 S MAIN, SHERIDAN, AR, 72150","Match","Non_Exact","413 S MAIN ST, SHERIDAN, AR, 72150",2487271,"R"
204799,"413 SALT POND RD","BETHANY BEACH","DE",19930,38.5549698630001,-75.067489721,299,"413 SALT POND RD, BETHANY BEACH, DE, 19930","Match","Exact","413 SALT POND RD, BETHANY BEACH, DE, 19930",106113566,"L"
204800,"413 SCHROCK RD","WORTHINGTON","OH",43085,40.1007341750001,-83.00461354,300,"413 SCHROCK RD, WORTHINGTON, OH, 43085","Match","Non_Exact","413 W SCHROCK RD, WORTHINGTON, OH, 43085",613733632,"R"
204801,"413 SHONNARD STREET","SYRACUSE","NY",13204,43.0411545530001,-76.1681629409999,301,"413 SHONNARD STREET, SYRACUSE, NY, 13204","Match","Exact","413 SHONNARD ST, SYRACUSE, NY, 13204",46604088,"L"
204802,"413 SILVERMEADOWS DRIVE","MIDWEST CITY","OK",73110,NA,NA,302,"413 SILVERMEADOWS DRIVE, MIDWEST CITY, OK, 73110","No_Match",NA,NA,NA,NA
204803,"413 SKYGROVE DRIVE","HOLLY SPRINGS","NC",27540,35.6620887390001,-78.7789078929999,303,"413 SKYGROVE DRIVE, HOLLY SPRINGS, NC, 27540","Match","Exact","413 SKYGROVE DR, HOLLY SPRINGS, NC, 27540",612818884,"L"
204804,"413 SOUTH DILLARD STREET","WINTER GARDEN","FL",34787,28.5605280230001,-81.583527558,304,"413 SOUTH DILLARD STREET, WINTER GARDEN, FL, 34787","Match","Exact","413 S DILLARD ST, WINTER GARDEN, FL, 34787",94264907,"L"
204805,"413 SOUTH STREET SUITE H","FRONT ROYAL","VA",22630,38.9116919910001,-78.189451565,305,"413 SOUTH STREET SUITE H, FRONT ROYAL, VA, 22630","Match","Exact","413 SOUTH ST, FRONT ROYAL, VA, 22630",159074732,"L"
204806,"413 SOUTH US 131","WHITE PIGEON","MI",49099,NA,NA,306,"413 SOUTH US 131, WHITE PIGEON, MI, 49099","No_Match",NA,NA,NA,NA
204807,"413 STEWART DR","MOUNTAIN VIEW","CA",94043,37.4080543370001,-122.059351581,307,"413 STEWART DR, MOUNTAIN VIEW, CA, 94043","Match","Exact","413 STEWART DR, MOUNTAIN VIEW, CA, 94043",624700004,"L"
204808,"413 SUMMIT AVENUE","HIGHTSTOWN","NJ",8520,40.2668135540001,-74.5322301909999,308,"413 SUMMIT AVENUE, HIGHTSTOWN, NJ, 8520","Match","Non_Exact","413 SUMMIT ST, HIGHTSTOWN, NJ, 08520",60194928,"L"
204809,"413 SUPERIOR PL","WEST PALM BEACH","FL",33904,26.710923817,-80.088501299,309,"413 SUPERIOR PL, WEST PALM BEACH, FL, 33904","Match","Non_Exact","413 SUPERIOR PL, WEST PALM BEACH, FL, 33409",115271766,"R"
204810,"413 THOREAU SPRING RD","MADISON","AL",35758,34.7234611150001,-86.774849552,310,"413 THOREAU SPRING RD, MADISON, AL, 35758","Match","Exact","413 THOREAU SPRING RD, MADISON, AL, 35758",58159685,"R"
204811,"413 THOROUGHBRED DRIVE","MONCKS CORNER","SC",29461,NA,NA,311,"413 THOROUGHBRED DRIVE, MONCKS CORNER, SC, 29461","No_Match",NA,NA,NA,NA
204812,"413 TRANQUILLE OAKS DR","OCOEE","FL",34761,28.5930368320001,-81.5035557579999,312,"413 TRANQUILLE OAKS DR, OCOEE, FL, 34761","Match","Exact","413 TRANQUILLE OAKS DR, OCOEE, FL, 34761",94312084,"L"
204813,"413 VANDERKLOOT DRIVE","OSPREY","FL",34229,27.16303851,-82.481371902,313,"413 VANDERKLOOT DRIVE, OSPREY, FL, 34229","Match","Exact","413 VANDERKLOOT DR, OSPREY, FL, 34229",16358261,"R"
204814,"413 W AVE C","ROBSTOWN","TX",78380,27.792838703,-97.673409507,314,"413 W AVE C, ROBSTOWN, TX, 78380","Match","Exact","413 W AVE C, ROBSTOWN, TX, 78380",178510515,"L"
204815,"413 W BROAD AVE","ALBANY","GA",31701,31.576971954,-84.156637443,315,"413 W BROAD AVE, ALBANY, GA, 31701","Match","Exact","413 W BROAD AVE, ALBANY, GA, 31701",84329167,"R"
204816,"413 W BURTON PLACE","CHICAGO","IL",60610,NA,NA,316,"413 W BURTON PLACE, CHICAGO, IL, 60610","No_Match",NA,NA,NA,NA
204817,"413 W KIOWA ST","COLORADO SPRINGS","CO",80905,38.835653957,-104.832834859,317,"413 W KIOWA ST, COLORADO SPRINGS, CO, 80905","Match","Exact","413 W KIOWA ST, COLORADO SPRINGS, CO, 80905",105513628,"L"
204818,"413 W MAIN ST","MANTON","MI",49663,44.410833934,-85.402784835,318,"413 W MAIN ST, MANTON, MI, 49663","Match","Exact","413 W MAIN ST, MANTON, MI, 49663",146092449,"L"
204819,"413 W MAPLE ST","RAWLINS","WY",82301,41.7916434960001,-107.240635982,319,"413 W MAPLE ST, RAWLINS, WY, 82301","Match","Exact","413 W MAPLE ST, RAWLINS, WY, 82301",148729921,"L"
204820,"413 W SCOTT ST STE1","YOUNGSTOWN","OH",44502,41.1098944300001,-80.6556037299999,320,"413 W SCOTT ST STE1, YOUNGSTOWN, OH, 44502","Match","Non_Exact","413 W SCOTT ST, YOUNGSTOWN, OH, 44502",64595239,"L"
204821,"413 WALDO AVE APT 10","PASADENA","CA",91101,34.138839423,-118.144165684,321,"413 WALDO AVE APT 10, PASADENA, CA, 91101","Match","Exact","413 WALDO AVE, PASADENA, CA, 91101",141630607,"R"
204822,"413 WASHINGTON STREET","BELLEVILLE","NJ",7109,40.795151581,-74.1494083279999,322,"413 WASHINGTON STREET, BELLEVILLE, NJ, 7109","Match","Non_Exact","413 WASHINGTON AVE, BELLEVILLE, NJ, 07109",63455677,"L"
204823,"413 WEBB AVENUE","BREAUX BRIDGE","LA",70517,30.267375771,-91.897369199,323,"413 WEBB AVENUE, BREAUX BRIDGE, LA, 70517","Match","Exact","413 WEBB AVE, BREAUX BRIDGE, LA, 70517",85817037,"R"
204824,"413 WESTCHESTER HILLS LN","VALRICO","FL",33594,27.9447484500001,-82.243834486,324,"413 WESTCHESTER HILLS LN, VALRICO, FL, 33594","Match","Exact","413 WESTCHESTER HILLS LN, VALRICO, FL, 33594",635871340,"R"
204825,"413 WHITE EGRET CV","CHESAPEAKE","VA",23322,36.689233121,-76.221709227,325,"413 WHITE EGRET CV, CHESAPEAKE, VA, 23322","Match","Exact","413 WHITE EGRET COVE, CHESAPEAKE, VA, 23322",624526981,"R"
204826,"413 WILLOW CREEK DRIVE","ELIZABETHTOWN","KY",42701,37.695739933,-85.8705499179999,326,"413 WILLOW CREEK DRIVE, ELIZABETHTOWN, KY, 42701","Match","Exact","413 WILLOW CREEK DR, ELIZABETHTOWN, KY, 42701",34633054,"R"
204827,"413 WILTON ST","GREENVILLE","SC",29609,34.864756277,-82.398239293,327,"413 WILTON ST, GREENVILLE, SC, 29609","Match","Exact","413 WILTON ST, GREENVILLE, SC, 29609",38300785,"L"
204828,"413 WOODLARK DR","DAVENPORT","FL",33897,28.2805825610001,-81.6654592629999,328,"413 WOODLARK DR, DAVENPORT, FL, 33897","Match","Exact","413 WOODLARK DR, DAVENPORT, FL, 33897",619840304,"R"
204829,"413","JACKSONVILLE","FL",32225,NA,NA,329,"413, JACKSONVILLE, FL, 32225","No_Match",NA,NA,NA,NA
204830,"4130 ABERLEIGH LANE","OLIVE BRANCH","MS",38654,34.959198912,-89.916479092,330,"4130 ABERLEIGH LANE, OLIVE BRANCH, MS, 38654","Match","Exact","4130 ABERLEIGH LN, OLIVE BRANCH, MS, 38654",627896162,"L"
204831,"4130 CANAL STREET","NEW ORLEANS","LA",70119,29.9747318940001,-90.101085088,331,"4130 CANAL STREET, NEW ORLEANS, LA, 70119","Match","Exact","4130 CANAL ST, NEW ORLEANS, LA, 70119",191706817,"L"
204832,"4130 CANYON ROAD","LAFAYETTE","CA",94549,37.9026611370001,-122.160852304,332,"4130 CANYON ROAD, LAFAYETTE, CA, 94549","Match","Exact","4130 CANYON RD, LAFAYETTE, CA, 94549",192088770,"R"
204833,"4130 CASS AVE SUITE C","DETROIT","MI",48201,42.3497904490001,-83.063111309,333,"4130 CASS AVE SUITE C, DETROIT, MI, 48201","Match","Exact","4130 CASS AVE, DETROIT, MI, 48201",95477608,"R"
204834,"4130 E 94TH AVE UNIT A","THORNTON","CO",80229,39.8661181310001,-104.939522425,334,"4130 E 94TH AVE UNIT A, THORNTON, CO, 80229","Match","Non_Exact","4130 E 94TH AVE, THORNTON, CO, 80229",177404089,"L"
204835,"4130 ELDORADO COURT","BROOKFIELD","WI",53005,43.092791065,-88.122029909,335,"4130 ELDORADO COURT, BROOKFIELD, WI, 53005","Match","Exact","4130 ELDORADO CT, BROOKFIELD, WI, 53005",53849821,"L"
204836,"4130 FRIST CTR","PRINCETON","NJ",8544,NA,NA,336,"4130 FRIST CTR, PRINCETON, NJ, 8544","No_Match",NA,NA,NA,NA
204837,"4130 GIBSON DRIVE","TIPP CITY","OH",45371,39.8874553000001,-84.143189052,337,"4130 GIBSON DRIVE, TIPP CITY, OH, 45371","Match","Exact","4130 GIBSON DR, TIPP CITY, OH, 45371",135317409,"R"
204838,"4130 HENLEY COURT","SUGAR LAND","TX",77479,29.591375752,-95.6961800399999,338,"4130 HENLEY COURT, SUGAR LAND, TX, 77479","Match","Exact","4130 HENLEY CT, SUGAR LAND, TX, 77479",78296491,"R"
204839,"4130 ISLE VISTA AVE","BELLE ISLE","FL",32812,28.4763699270001,-81.339337433,339,"4130 ISLE VISTA AVE, BELLE ISLE, FL, 32812","Match","Exact","4130 ISLE VISTA AVE, BELLE ISLE, FL, 32812",647552401,"L"
204840,"4130 MARYLAND STREET","SAN DIEGO","CA",92103,32.752600516,-117.150997326,340,"4130 MARYLAND STREET, SAN DIEGO, CA, 92103","Match","Exact","4130 MARYLAND ST, SAN DIEGO, CA, 92103",195342861,"L"
204841,"4130 MORRILL LANE","MINNEAPOLIS","MN",55406,44.928086002,-93.2064890939999,341,"4130 MORRILL LANE, MINNEAPOLIS, MN, 55406","Match","Exact","4130 MORRILL LN, MINNEAPOLIS, MN, 55406",43836628,"R"
204842,"4130 N FIGUEROA ST","LOS ANGELES","CA",90065,34.0931638110001,-118.209591632,342,"4130 N FIGUEROA ST, LOS ANGELES, CA, 90065","Match","Non_Exact","4130 N FIGUEROA ST, LOS ANGELES, CA, 90065",141621710,"R"
204843,"4130 NORTH AVERS AVENUE","CHICAGO","IL",60618,41.956472164,-87.724029763,343,"4130 NORTH AVERS AVENUE, CHICAGO, IL, 60618","Match","Exact","4130 N AVERS AVE, CHICAGO, IL, 60618",605188371,"L"
204844,"4130 NORTH MARSHALL WAY","SCOTTSDALE","AZ",85251,33.4956277410001,-111.928932133,344,"4130 NORTH MARSHALL WAY, SCOTTSDALE, AZ, 85251","Match","Exact","4130 N MARSHALL WAY, SCOTTSDALE, AZ, 85251",128222713,"L"
204845,"4130 NORTHAMPTON DR","WINSTON-SALEM","NC",27105,36.1486433320001,-80.193753704,345,"4130 NORTHAMPTON DR, WINSTON-SALEM, NC, 27105","Match","Exact","4130 NORTHAMPTON DR, WINSTON SALEM, NC, 27105",84607576,"L"
204846,"4130 NW 48TH","OKLAHOMA CITY","OK",73112,35.5199408670001,-97.593975493,346,"4130 NW 48TH, OKLAHOMA CITY, OK, 73112","Match","Non_Exact","4130 NW 48TH ST, OKLAHOMA CITY, OK, 73112",100391073,"L"
204847,"4130 ORCHARD VALLEY BLVD","INDIANAPOLIS","IN",46235,39.8325816920001,-85.9746330679999,347,"4130 ORCHARD VALLEY BLVD, INDIANAPOLIS, IN, 46235","Match","Exact","4130 ORCHARD VALLEY BLVD, INDIANAPOLIS, IN, 46235",108059452,"L"
204848,"4130 PRYTANIA STREET","NEW ORLEANS","LA",70115,29.925255296,-90.098769384,348,"4130 PRYTANIA STREET, NEW ORLEANS, LA, 70115","Match","Exact","4130 PRYTANIA ST, NEW ORLEANS, LA, 70115",191713011,"L"
204849,"4130 RADCLIFF DRIVE","CANTON","MI",48188,42.275161574,-83.5084886229999,349,"4130 RADCLIFF DRIVE, CANTON, MI, 48188","Match","Exact","4130 RADCLIFF DR, CANTON, MI, 48188",617694121,"L"
204850,"4130 REENIE AVE","MEMPHIS","TN",38128,35.188523629,-89.924181768,350,"4130 REENIE AVE, MEMPHIS, TN, 38128","Match","Exact","4130 REENIE AVE, MEMPHIS, TN, 38128",72914823,"L"
204851,"4130 ROSEMONT AVENUE","DREXEL HILL","PA",19026,39.9432798730001,-75.302400699,351,"4130 ROSEMONT AVENUE, DREXEL HILL, PA, 19026","Match","Exact","4130 ROSEMONT AVE, DREXEL HILL, PA, 19026",134876462,"L"
204852,"4130 SPICEWOOD SPRINGS RD STE 100","AUSTIN","TX",78759,NA,NA,352,"4130 SPICEWOOD SPRINGS RD STE 100, AUSTIN, TX, 78759","No_Match",NA,NA,NA,NA
204853,"4130 SW 117TH AVE STE A BOX 253","BEAVERTON","OR",97005,45.4904744510001,-122.79774432,353,"4130 SW 117TH AVE STE A BOX 253, BEAVERTON, OR, 97005","Match","Non_Exact","4130 SW 117TH AVE, BEAVERTON, OR, 97005",638597186,"L"
204854,"4130 SW VIEWPOINT TERRACE - APT 13","PORTLAND","OR",97239,45.493575874,-122.677858072,354,"4130 SW VIEWPOINT TERRACE - APT 13, PORTLAND, OR, 97239","Match","Non_Exact","4130 SW VIEW POINT TER, PORTLAND, OR, 97239",157501206,"L"
204855,"4130 TECHNOLOGY PLACE","FREMONT","CA",94538,37.510105217,-121.953439999,355,"4130 TECHNOLOGY PLACE, FREMONT, CA, 94538","Match","Exact","4130 TECHNOLOGY PL, FREMONT, CA, 94538",125034149,"R"
204856,"4130 TELEGRAPH AVENUE","OAKLAND","CA",94609,NA,NA,356,"4130 TELEGRAPH AVENUE, OAKLAND, CA, 94609","No_Match",NA,NA,NA,NA
204857,"4130 UNIVERSITY WAY NE","SEATTLE","WA",98105,47.657328755,-122.313225957,357,"4130 UNIVERSITY WAY NE, SEATTLE, WA, 98105","Match","Exact","4130 UNIVERSITY WAY NE, SEATTLE, WA, 98105",186586967,"R"
204858,"4130 WALNUT GROVE ROAD","COOKEVILLE","TN",38506,36.0570915370001,-85.499143493,358,"4130 WALNUT GROVE ROAD, COOKEVILLE, TN, 38506","Match","Exact","4130 WALNUT GROVE RD, COOKEVILLE, TN, 38506",652880668,"R"
204859,"4130 WAYNESBORO CT","WOODBRIDGE","VA",22193,38.661297002,-77.330391587,359,"4130 WAYNESBORO CT, WOODBRIDGE, VA, 22193","Match","Exact","4130 WAYNESBORO CT, WOODBRIDGE, VA, 22193",207147700,"L"
204860,"4130 XIMINES LANE N","PLYMOUTH","MN",55441,45.0300756240001,-93.418271932,360,"4130 XIMINES LANE N, PLYMOUTH, MN, 55441","Match","Exact","4130 XIMINES LN N, PLYMOUTH, MN, 55441",43754363,"L"
204861,"41305 CANTON COURT","CANTON","MI",48188,42.2958245140001,-83.4448236709999,361,"41305 CANTON COURT, CANTON, MI, 48188","Match","Exact","41305 CANTON CT, CANTON, MI, 48188",95712163,"L"
204862,"41307 12TH STREET WEST","PALMDALE","CA",93551,34.6332735940001,-118.151754369,362,"41307 12TH STREET WEST, PALMDALE, CA, 93551","Match","Exact","41307 12TH ST W, PALMDALE, CA, 93551",141843259,"L"
204863,"4131 11TH PL","DES MOINES","IA",50313,41.635423695,-93.6332414569999,363,"4131 11TH PL, DES MOINES, IA, 50313","Match","Exact","4131 11TH PL, DES MOINES, IA, 50313",65781184,"R"
204864,"4131 189TH ST","COUNTRY CLUB HILLS","IL",60478,41.5459566970001,-87.716485996,364,"4131 189TH ST, COUNTRY CLUB HILLS, IL, 60478","Match","Exact","4131 189TH ST, COUNTRY CLUB HILLS, IL, 60478",111707664,"L"
204865,"4131 ADMIRAL CT","MISSOURI CITY","TX",77459,29.583128147,-95.569796305,365,"4131 ADMIRAL CT, MISSOURI CITY, TX, 77459","Match","Exact","4131 ADMIRAL CT, MISSOURI CITY, TX, 77459",78290752,"R"
204866,"4131 BYRON ST","HOUSTON","TX",77005,29.712438693,-95.4436809859999,366,"4131 BYRON ST, HOUSTON, TX, 77005","Match","Exact","4131 BYRON ST, HOUSTON, TX, 77005",96034640,"L"
204867,"4131 CESAR CHAVEZ STREET APT 3","SAN FRANCISCO","CA",94131,37.7473703410001,-122.432418765,367,"4131 CESAR CHAVEZ STREET APT 3, SAN FRANCISCO, CA, 94131","Match","Exact","4131 CESAR CHAVEZ ST, SAN FRANCISCO, CA, 94131",624540551,"L"
204868,"4131 FLOATPLANE DRIVE","ANCHORAGE","AK",99502,61.184765924,-149.9687734,368,"4131 FLOATPLANE DRIVE, ANCHORAGE, AK, 99502","Match","Exact","4131 FLOATPLANE DR, ANCHORAGE, AK, 99502",190812414,"L"
204869,"4131 HAMILTON MILL ROAD","BUFORD","GA",30519,34.1047150790001,-83.974818695,369,"4131 HAMILTON MILL ROAD, BUFORD, GA, 30519","Match","Exact","4131 HAMILTON MILL RD, BUFORD, GA, 30519",88879085,"R"
204870,"4131 KNOLLPOINT DR","WESLEY CHAPEL","FL",33544,28.2172320350001,-82.362412018,370,"4131 KNOLLPOINT DR, WESLEY CHAPEL, FL, 33544","Match","Exact","4131 KNOLLPOINT DR, WESLEY CHAPEL, FL, 33544",632984501,"L"
204871,"4131 KNOLLPOINT DRIVE","WESLEY CHAPEL","FL",33544,28.2172320350001,-82.362412018,371,"4131 KNOLLPOINT DRIVE, WESLEY CHAPEL, FL, 33544","Match","Exact","4131 KNOLLPOINT DR, WESLEY CHAPEL, FL, 33544",632984501,"L"
204872,"4131 LAKEVIEW DR","CRESTVIEW","FL",32539,30.7573618320001,-86.4482198319999,372,"4131 LAKEVIEW DR, CRESTVIEW, FL, 32539","Match","Exact","4131 LAKEVIEW DR, CRESTVIEW, FL, 32539",74430379,"L"
204873,"4131 MOUNT PUTMAN AVE","SAN DIEGO","CA",92117,32.815487079,-117.195220252,373,"4131 MOUNT PUTMAN AVE, SAN DIEGO, CA, 92117","Match","Exact","4131 MOUNT PUTMAN AVE, SAN DIEGO, CA, 92117",195305304,"R"
204874,"4131 N 78TH COURT","MILWAUKEE","WI",53222,43.0922142570001,-88.010417697,374,"4131 N 78TH COURT, MILWAUKEE, WI, 53222","Match","Exact","4131 N 78TH CT, MILWAUKEE, WI, 53222",77730268,"L"
204875,"4131 RUFE SNOW DRIVE","NORTH RICHLAND HILLS","TX",76180,32.8243722190001,-97.238930931,375,"4131 RUFE SNOW DRIVE, NORTH RICHLAND HILLS, TX, 76180","Match","Exact","4131 RUFE SNOW DR, NORTH RICHLAND HILLS, TX, 76180",101863198,"L"
204876,"4131 S STATE ST SUITE C","CHICAGO","IL",60609,41.8189690150001,-87.626326623,376,"4131 S STATE ST SUITE C, CHICAGO, IL, 60609","Match","Non_Exact","4131 S STATE ST, CHICAGO, IL, 60609",111876352,"L"
204877,"4131 SOUTH US 1  BUILDING 1 UNIT 4","FORT PIERCE","FL",34982,NA,NA,377,"4131 SOUTH US 1  BUILDING 1 UNIT 4, FORT PIERCE, FL, 34982","No_Match",NA,NA,NA,NA
204878,"4131 SPICEWOOD SPRINGS RD STE N-10","AUSTIN","TX",78759,30.3691019460001,-97.75482213,378,"4131 SPICEWOOD SPRINGS RD STE N-10, AUSTIN, TX, 78759","Match","Exact","4131 SPICEWOOD SPRINGS RD, AUSTIN, TX, 78759",641872474,"L"
204879,"4131 SPICEWOOD SPRINGS ROAD STE M-1","AUSTIN","TX",78759,30.3691019460001,-97.75482213,379,"4131 SPICEWOOD SPRINGS ROAD STE M-1, AUSTIN, TX, 78759","Match","Exact","4131 SPICEWOOD SPRINGS RD, AUSTIN, TX, 78759",641872474,"L"
204880,"4131 STATE ROUTE 9","PLATTSBURGH","NY",12901,NA,NA,380,"4131 STATE ROUTE 9, PLATTSBURGH, NY, 12901","No_Match",NA,NA,NA,NA
204881,"4131 WARREN RD","FLOWERY BRANCH","GA",30542,34.202112567,-83.87608146,381,"4131 WARREN RD, FLOWERY BRANCH, GA, 30542","Match","Exact","4131 WARREN RD, FLOWERY BR, GA, 30542",615572337,"R"
204882,"4131 WHITE PLAINS ROAD SUITE G","BRONX","NY",10466,40.8915468870001,-73.8584080379999,382,"4131 WHITE PLAINS ROAD SUITE G, BRONX, NY, 10466","Match","Exact","4131 WHITE PLAINS RD, BRONX, NY, 10466",80297080,"L"
204883,"4131 WINESAP BEND DR","STAFFORD","TX",77477,29.6062713210001,-95.571039723,383,"4131 WINESAP BEND DR, STAFFORD, TX, 77477","Match","Exact","4131 WINESAP BEND DR, STAFFORD, TX, 77477",637089789,"L"
204884,"41317 HWY 16","FRANKLINTON","LA",70438,30.7923614810001,-90.204943597,384,"41317 HWY 16, FRANKLINTON, LA, 70438","Match","Exact","41317 HWY 16, FRANKLINTON, LA, 70438",82471622,"L"
204885,"41317 RAYBURN DR","NORTHVILLE","MI",48168,42.4012939260001,-83.45051624,385,"41317 RAYBURN DR, NORTHVILLE, MI, 48168","Match","Exact","41317 RAYBURN DR, NORTHVILLE, MI, 48168",95499719,"L"
204886,"4132 ATLANTA HIGHWAY STE 110-343","LOGANVILLE","GA",30052,NA,NA,386,"4132 ATLANTA HIGHWAY STE 110-343, LOGANVILLE, GA, 30052","No_Match",NA,NA,NA,NA
204887,"4132 ATLANTA HWY STE 110-225","LOGANVILLE","GA",30052,NA,NA,387,"4132 ATLANTA HWY STE 110-225, LOGANVILLE, GA, 30052","No_Match",NA,NA,NA,NA
204888,"4132 ATLANTA HWY SUITE 110 BX 347","LOGANVILLE","GA",30052,NA,NA,388,"4132 ATLANTA HWY SUITE 110 BX 347, LOGANVILLE, GA, 30052","No_Match",NA,NA,NA,NA
204889,"4132 BINLEY DR","RICHARDSON","TX",75082,32.989262028,-96.6443327599999,389,"4132 BINLEY DR, RICHARDSON, TX, 75082","Match","Exact","4132 BINLEY DR, RICHARDSON, TX, 75082",210506155,"R"
204890,"4132 COLLINWOOD DRIVE","MELBOURNE","FL",32901,28.0462277500001,-80.606862746,390,"4132 COLLINWOOD DRIVE, MELBOURNE, FL, 32901","Match","Exact","4132 COLLINWOOD DR, MELBOURNE, FL, 32901",93958316,"R"
204891,"4132 CONRAD ROAD","ALEXANDRIA","VA",22312,38.8328423790001,-77.14059421,391,"4132 CONRAD ROAD, ALEXANDRIA, VA, 22312","Match","Exact","4132 CONRAD RD, ALEXANDRIA, VA, 22312",75982112,"R"
204892,"4132 DIXIE HWY","ERLANGER","KY",41018,39.010958637,-84.6085817159999,392,"4132 DIXIE HWY, ERLANGER, KY, 41018","Match","Exact","4132 DIXIE HWY, ERLANGER, KY, 41018",103873482,"R"
204893,"4132 DUNGAN STREET","PHILADELPHIA","PA",19124,40.009669011,-75.1017033479999,393,"4132 DUNGAN STREET, PHILADELPHIA, PA, 19124","Match","Exact","4132 DUNGAN ST, PHILADELPHIA, PA, 19124",131427236,"L"
204894,"4132 E 11TH PL","GARY","IN",46403,41.5924090830001,-87.2864298919999,394,"4132 E 11TH PL, GARY, IN, 46403","Match","Exact","4132 E 11TH PL, GARY, IN, 46403",606316155,"L"
204895,"4132 E ADOBE ST","MESA","AZ",85205,33.430028156,-111.741443388,395,"4132 E ADOBE ST, MESA, AZ, 85205","Match","Non_Exact","4132 E ADOBE RD, MESA, AZ, 85205",128838911,"R"
204896,"4132 E JOPPA RD STE 110-1144","BALTIMORE","MD",21236,NA,NA,396,"4132 E JOPPA RD STE 110-1144, BALTIMORE, MD, 21236","No_Match",NA,NA,NA,NA
204897,"4132 EAST PECOS ROAD","GILBERT","AZ",85295,33.2926308180001,-111.701715547,397,"4132 EAST PECOS ROAD, GILBERT, AZ, 85295","Match","Exact","4132 E PECOS RD, GILBERT, AZ, 85295",649465326,"L"
204898,"4132 FOXPOINT RIDGE","CLEVES","OH",45002,39.169616096,-84.7301808349999,398,"4132 FOXPOINT RIDGE, CLEVES, OH, 45002","Match","Exact","4132 FOXPOINT RIDGE, CLEVES, OH, 45002",631798200,"R"
204899,"4132 KINNIA DRIVE","COLUMBUS","OH",43219,40.0307872750001,-82.90466966,399,"4132 KINNIA DRIVE, COLUMBUS, OH, 43219","Match","Non_Exact","4132 KINNA DR, COLUMBUS, OH, 43219",624000699,"L"
204900,"4132 LIFFEY LN","DECATUR","GA",30034,33.6957627520001,-84.218791244,400,"4132 LIFFEY LN, DECATUR, GA, 30034","Match","Exact","4132 LIFFEY LN, DECATUR, GA, 30034",23372831,"L"
204901,"4132 MARIETTA AVENUE","MOUNT JOY","PA",17552,40.0644348700001,-76.4678954779999,401,"4132 MARIETTA AVENUE, MOUNT JOY, PA, 17552","Match","Exact","4132 MARIETTA AVE, MOUNT JOY, PA, 17552",179677008,"R"
204902,"4132 MILES JOHNSON PKWY","SPRING HILL","TN",37174,35.772226027,-86.929738385,402,"4132 MILES JOHNSON PKWY, SPRING HILL, TN, 37174","Match","Exact","4132 MILES JOHNSON PKWY, SPRING HILL, TN, 37174",648289792,"R"
204903,"4132 MORELAND DR","VALRICO","FL",33596,27.8799624330001,-82.239681809,403,"4132 MORELAND DR, VALRICO, FL, 33596","Match","Non_Exact","4132 MORELAND DR, VALRICO, FL, 33594",104550948,"L"
204904,"4132 N 27TH AVE","PHOENIX","AZ",85017,33.496196383,-112.117064252,404,"4132 N 27TH AVE, PHOENIX, AZ, 85017","Match","Non_Exact","4132 N 27TH AVE, PHOENIX, AZ, 85017",128582047,"L"
204905,"4132 N SPRINGFIELD AVE","CHICAGO","IL",60618,41.956121458,-87.725243945,405,"4132 N SPRINGFIELD AVE, CHICAGO, IL, 60618","Match","Non_Exact","4132 N SPRINGFIELD AVE, CHICAGO, IL, 60618",605187331,"L"
204906,"4132 NEPAL ST","DENVER","CO",80249,39.7766931040001,-104.739652825,406,"4132 NEPAL ST, DENVER, CO, 80249","Match","Exact","4132 NEPAL ST, DENVER, CO, 80249",177370747,"R"
204907,"4132 POST OAK DRIVE","TURLOCK","CA",95382,37.5301638010001,-120.872402411,407,"4132 POST OAK DRIVE, TURLOCK, CA, 95382","Match","Exact","4132 POST OAK DR, TURLOCK, CA, 95382",605237538,"L"
204908,"4132 RAINBOW BLVD STE 352","LAS VEGAS","NV",89103,36.113625465,-115.242819829,408,"4132 RAINBOW BLVD STE 352, LAS VEGAS, NV, 89103","Match","Non_Exact","4132 S RAINBOW BLVD, LAS VEGAS, NV, 89103",639403927,"R"
204909,"4132 S RAINBOW BLVD 200","LAS VEGAS","NV",89103,36.113598514,-115.242820027,409,"4132 S RAINBOW BLVD 200, LAS VEGAS, NV, 89103","Match","Non_Exact","4132 S RAINBOW BLVD, LAS VEGAS, NV, 89103",639403927,"R"
204910,"4132 TETON PLACE","ALEXANDRIA","VA",22312,38.8333941170001,-77.1381891249999,410,"4132 TETON PLACE, ALEXANDRIA, VA, 22312","Match","Exact","4132 TETON PL, ALEXANDRIA, VA, 22312",75982146,"R"
204911,"4132 W CAMERON ST","TULSA","OK",74127,36.1579322490001,-96.038673766,411,"4132 W CAMERON ST, TULSA, OK, 74127","Match","Exact","4132 W CAMERON ST, TULSA, OK, 74127",166501806,"L"
204912,"4132 WEDGE DRIVE","PFAFFTOWN","NC",27040,36.169609544,-80.348659627,412,"4132 WEDGE DRIVE, PFAFFTOWN, NC, 27040","Match","Exact","4132 WEDGE DR, PFAFFTOWN, NC, 27040",84600397,"R"
204913,"41329 CRABTREE LN","PLYMOUTH","MI",48170,42.3930012330001,-83.451497348,413,"41329 CRABTREE LN, PLYMOUTH, MI, 48170","Match","Exact","41329 CRABTREE LN, PLYMOUTH, MI, 48170",95410539,"L"
204914,"4133 BURNHILL DR","PLANO","TX",75024,33.094508653,-96.7741713079999,414,"4133 BURNHILL DR, PLANO, TX, 75024","Match","Exact","4133 BURNHILL DR, PLANO, TX, 75024",123530872,"L"
204915,"4133 HAWKS GLIDE AVE","NORTH LAS VEGAS","NV",89084,36.2905889730001,-115.196340158,415,"4133 HAWKS GLIDE AVE, NORTH LAS VEGAS, NV, 89084","Match","Exact","4133 HAWKS GLIDE AVE, N LAS VEGAS, NV, 89084",612677614,"L"
204916,"4133 HOLLY KNOLL DRIVE","LOS ANGELES","CA",90027,34.1076214340001,-118.281208535,416,"4133 HOLLY KNOLL DRIVE, LOS ANGELES, CA, 90027","Match","Exact","4133 HOLLY KNOLL DR, LOS ANGELES, CA, 90027",141597786,"R"
204917,"4133 KITTRELL FARMS DR APT 203","GREENVILLE","NC",27858,NA,NA,417,"4133 KITTRELL FARMS DR APT 203, GREENVILLE, NC, 27858","No_Match",NA,NA,NA,NA
204918,"4133 MAIN ST PO BOX 42","STAHLSTOWN","PA",15687,40.1498217130001,-79.3323848589999,418,"4133 MAIN ST PO BOX 42, STAHLSTOWN, PA, 15687","Match","Exact","4133 MAIN ST, STAHLSTOWN, PA, 15687",52954196,"R"
204919,"4133 MONROE AVENUE","KANSAS CITY","MO",64130,39.0506175580001,-94.5413053,419,"4133 MONROE AVENUE, KANSAS CITY, MO, 64130","Match","Exact","4133 MONROE AVE, KANSAS CITY, MO, 64130",91452274,"L"
204920,"4133 SCHUYLKILL DR","CALABASAS","CA",91302,34.1428255440001,-118.621246647,420,"4133 SCHUYLKILL DR, CALABASAS, CA, 91302","Match","Exact","4133 SCHUYLKILL DR, CALABASAS, CA, 91302",141535873,"R"
204921,"4133 SEADRAGON C","GREAT LAKES","IL",60088,42.314506669,-87.855946424,421,"4133 SEADRAGON C, GREAT LAKES, IL, 60088","Match","Non_Exact","4133 SEADRAGON CT, GREAT LAKES, IL, 60088",119646159,"L"
204922,"4133 UNIVERSITY WAY NE","SEATTLE","WA",98105,47.6573543150001,-122.313241544,422,"4133 UNIVERSITY WAY NE, SEATTLE, WA, 98105","Match","Exact","4133 UNIVERSITY WAY NE, SEATTLE, WA, 98105",186586967,"L"
204923,"4134 11TH AVE A","MOLINE","IL",61240,NA,NA,423,"4134 11TH AVE A, MOLINE, IL, 61240","Tie",NA,NA,NA,NA
204924,"4134 ALHAMBRA DRIVE WEST","JACKSONVILLE","FL",32207,NA,NA,424,"4134 ALHAMBRA DRIVE WEST, JACKSONVILLE, FL, 32207","No_Match",NA,NA,NA,NA
204925,"4134 BURNS RD","PASCO","WA",99301,46.285721392,-119.254737059,425,"4134 BURNS RD, PASCO, WA, 99301","Match","Exact","4134 BURNS RD, PASCO, WA, 99301",175287753,"L"
204926,"4134 CARATOKE HIGHWAY","BARCO","NC",27917,36.377653308,-75.9707695929999,426,"4134 CARATOKE HIGHWAY, BARCO, NC, 27917","Match","Exact","4134 CARATOKE HWY, BARCO, NC, 27917",81382013,"R"
204927,"4134 CHARTER OAK","FLINT","MI",48507,42.969548897,-83.7043678759999,427,"4134 CHARTER OAK, FLINT, MI, 48507","Match","Non_Exact","4134 CHARTER OAK DR, FLINT, MI, 48507",69574967,"R"
204928,"4134 DAKOTA DR","STOCKTON","CA",95206,37.9090759360001,-121.321571105,428,"4134 DAKOTA DR, STOCKTON, CA, 95206","Match","Exact","4134 DAKOTA DR, STOCKTON, CA, 95206",133890424,"R"
204929,"4134 E DEL VALLE AVE","ORANGE","CA",92869,33.7955375080001,-117.809387193,429,"4134 E DEL VALLE AVE, ORANGE, CA, 92869","Match","Exact","4134 E DEL VALLE AVE, ORANGE, CA, 92869",144034107,"R"
204930,"4134 GAMBLE ROAD","MONTICELLO","FL",32344,30.4636317220001,-84.0193657519999,430,"4134 GAMBLE ROAD, MONTICELLO, FL, 32344","Match","Exact","4134 GAMBLE RD, MONTICELLO, FL, 32344",82682167,"R"
204931,"4134 GREENWOOD ROAD","SHREVEPORT","LA",71109,32.471274753,-93.814258337,431,"4134 GREENWOOD ROAD, SHREVEPORT, LA, 71109","Match","Exact","4134 GREENWOOD RD, SHREVEPORT, LA, 71109",57481418,"L"
204932,"4134 LANCASTER AVENUE","PHILADELPHIA","PA",19104,39.965613788,-75.206322337,432,"4134 LANCASTER AVENUE, PHILADELPHIA, PA, 19104","Match","Exact","4134 LANCASTER AVE, PHILADELPHIA, PA, 19104",131403169,"L"
204933,"4134 MARJON CT","DUMFRIES","VA",22025,38.5842774000001,-77.3366764959999,433,"4134 MARJON CT, DUMFRIES, VA, 22025","Match","Exact","4134 MARJON CT, DUMFRIES, VA, 22025",614162266,"L"
204934,"4134 MYSTIC DRIVE","SAN JOSE","CA",95124,37.255240547,-121.941235323,434,"4134 MYSTIC DRIVE, SAN JOSE, CA, 95124","Match","Exact","4134 MYSTIC DR, SAN JOSE, CA, 95124",618191220,"L"
204935,"4134 NW 82ND STREET","KANSAS CITY","MO",64151,39.244118041,-94.628613512,435,"4134 NW 82ND STREET, KANSAS CITY, MO, 64151","Match","Exact","4134 NW 82ND ST, KANSAS CITY, MO, 64151",39699153,"R"
204936,"4134 PENNSYLVANIA AVE","RENOVO","PA",17764,NA,NA,436,"4134 PENNSYLVANIA AVE, RENOVO, PA, 17764","No_Match",NA,NA,NA,NA
204937,"4134 POND RUN","CANTON","MI",48188,42.2761796120001,-83.4961909359999,437,"4134 POND RUN, CANTON, MI, 48188","Match","Exact","4134 POND RUN, CANTON, MI, 48188",95695476,"R"
204938,"4134 VENTURA AVENUE","MIAMI","FL",33133,25.718338429,-80.259960845,438,"4134 VENTURA AVENUE, MIAMI, FL, 33133","Match","Exact","4134 VENTURA AVE, MIAMI, FL, 33133",116013958,"L"
204939,"4134 W 16TH STREET","CHICAGO","IL",60623,41.8588201060001,-87.729064341,439,"4134 W 16TH STREET, CHICAGO, IL, 60623","Match","Exact","4134 W 16TH ST, CHICAGO, IL, 60623",111798698,"R"
204940,"4134 W 21ST PLACE SUITE 1","CHICAGO","IL",60623,41.852546493,-87.7281314529999,440,"4134 W 21ST PLACE SUITE 1, CHICAGO, IL, 60623","Match","Non_Exact","4134 W 21ST PL, CHICAGO, IL, 60623",111799085,"R"
204941,"4134 W ADAMS","CHICAGO","IL",60624,41.877943455,-87.728952029,441,"4134 W ADAMS, CHICAGO, IL, 60624","Match","Non_Exact","4134 W ADAMS ST, CHICAGO, IL, 60624",111765805,"R"
204942,"4135 54TH PLACE","SAN DIEGO","CA",92105,32.7521834350001,-117.078784225,442,"4135 54TH PLACE, SAN DIEGO, CA, 92105","Match","Exact","4135 54TH PL, SAN DIEGO, CA, 92105",612876551,"R"
204943,"4135 CHARLENE DR","LOS ANGELES","CA",90043,33.9917697750001,-118.346532296,443,"4135 CHARLENE DR, LOS ANGELES, CA, 90043","Match","Exact","4135 CHARLENE DR, LOS ANGELES, CA, 90043",142750265,"R"
204944,"4135 CLOVERDALE DR","TURNER","OR",97392,44.817200503,-122.977159301,444,"4135 CLOVERDALE DR, TURNER, OR, 97392","Match","Non_Exact","4135 CLOVERDALE DR SE, TURNER, OR, 97392",156254688,"R"
204945,"4135 CROW VALLEY DRIVE","MISSOURI CITY","TX",77459,29.5603225460001,-95.5451297979999,445,"4135 CROW VALLEY DRIVE, MISSOURI CITY, TX, 77459","Match","Exact","4135 CROW VALLEY DR, MISSOURI CITY, TX, 77459",78269708,"R"
204946,"4135 E JICARILLA ST","PHOENIX","AZ",85044,33.3484595560001,-111.993854116,446,"4135 E JICARILLA ST, PHOENIX, AZ, 85044","Match","Exact","4135 E JICARILLA ST, PHOENIX, AZ, 85044",128923493,"R"
204947,"4135 LORCOM LANE","ARLINGTON","VA",22207,38.902575728,-77.111948989,447,"4135 LORCOM LANE, ARLINGTON, VA, 22207","Match","Non_Exact","4135 N LORCOM LN, ARLINGTON, VA, 22207",76468077,"R"
204948,"4135 N FAIRVIEW CIRCLE","MESA","AZ",85206,33.396166253,-111.742122059,448,"4135 N FAIRVIEW CIRCLE, MESA, AZ, 85206","Match","Non_Exact","4135 E FAIRVIEW CIR, MESA, AZ, 85206",128249993,"R"
204949,"4135 N SHIRE PLACE","FAYETTEVILLE","AR",72704,36.122345689,-94.2177204929999,449,"4135 N SHIRE PLACE, FAYETTEVILLE, AR, 72704","Match","Exact","4135 SHIRE PL, FAYETTEVILLE, AR, 72704",614106354,"L"
204950,"4135 PROVIDENCE POINT DRIVE","ISSAQUAH","WA",98029,47.570080869,-122.044048529,450,"4135 PROVIDENCE POINT DRIVE, ISSAQUAH, WA, 98029","Match","Non_Exact","4135 PROVIDENCE POINT DR SE, ISSAQUAH, WA, 98029",186704820,"L"
204951,"4135 S REGAL MANOR CT","NEW BERLIN","WI",53151,NA,NA,451,"4135 S REGAL MANOR CT, NEW BERLIN, WI, 53151","Tie",NA,NA,NA,NA
204952,"4135 SHOUP RD","COLORADO SPRINGS","CO",80908,39.0127523250001,-104.749167767,452,"4135 SHOUP RD, COLORADO SPRINGS, CO, 80908","Match","Exact","4135 SHOUP RD, COLORADO SPRINGS, CO, 80908",610815105,"L"
204953,"4135 SHREVE","SAINT LOUIS","MO",63115,38.678438914,-90.242408346,453,"4135 SHREVE, SAINT LOUIS, MO, 63115","Match","Non_Exact","4135 SHREVE AVE, SAINT LOUIS, MO, 63115",107595541,"L"
204954,"4135 SUNDAY SILENCE WAY","MURFREESBORO","TN",37128,35.8610346720001,-86.472003065,454,"4135 SUNDAY SILENCE WAY, MURFREESBORO, TN, 37128","Match","Exact","4135 SUNDAY SILENCE WAY, MURFREESBORO, TN, 37128",630018720,"R"
204955,"4135-A PROVIDENCE POINT DRIVE SE","ISSAQUAH","WA",98029,47.570080869,-122.044048529,455,"4135-A PROVIDENCE POINT DRIVE SE, ISSAQUAH, WA, 98029","Match","Exact","4135 PROVIDENCE POINT DR SE, ISSAQUAH, WA, 98029",186704820,"L"
204956,"4136 DEL REY AVENUE SUITE 606","MARINA DEL REY","CA",90292,33.9884698170001,-118.445086497,456,"4136 DEL REY AVENUE SUITE 606, MARINA DEL REY, CA, 90292","Match","Non_Exact","4136 DEL REY AVE, MARINA DEL REY, CA, 90292",141577128,"L"
204957,"4136 DEL REY AVENUE","MARINA DEL REY","CA",90292,33.9884698170001,-118.445086497,457,"4136 DEL REY AVENUE, MARINA DEL REY, CA, 90292","Match","Exact","4136 DEL REY AVE, MARINA DEL REY, CA, 90292",141577128,"L"
204958,"4136 E OAKLAND STREET","GILBERT","AZ",85295,33.3124102720001,-111.701394788,458,"4136 E OAKLAND STREET, GILBERT, AZ, 85295","Match","Exact","4136 E OAKLAND ST, GILBERT, AZ, 85295",647507778,"L"
204959,"4136 HOFFMAN STREET","PLANO","IL",60545,41.669446986,-88.4921842859999,459,"4136 HOFFMAN STREET, PLANO, IL, 60545","Match","Exact","4136 HOFFMAN ST, PLANO, IL, 60545",600432016,"L"
204960,"4136 HUNTCLIFF DRIVE","WOODSTOCK","GA",30189,34.143800965,-84.5511777789999,460,"4136 HUNTCLIFF DRIVE, WOODSTOCK, GA, 30189","Match","Exact","4136 HUNTCLIFF DR, WOODSTOCK, GA, 30189",68836659,"R"
204961,"4136 LAKEVIEW DR","CNTRY CLB HLS","IL",60478,41.564008916,-87.717558472,461,"4136 LAKEVIEW DR, CNTRY CLB HLS, IL, 60478","Match","Exact","4136 LAKEVIEW DR, CNTRY CLB HLS, IL, 60478",638179843,"R"
204962,"4136 LIVERPOOL DRIVE","FLOWER MOUND","TX",75028,33.0428166900001,-97.074840427,462,"4136 LIVERPOOL DRIVE, FLOWER MOUND, TX, 75028","Match","Exact","4136 LIVERPOOL DR, FLOWER MOUND, TX, 75028",635383679,"R"
204963,"4136 SHENANDOAH AVE","SAINT LOUIS","MO",63110,38.61069881,-90.2525783579999,463,"4136 SHENANDOAH AVE, SAINT LOUIS, MO, 63110","Match","Exact","4136 SHENANDOAH AVE, SAINT LOUIS, MO, 63110",107597234,"L"
204964,"4136 WASHINGTON AVENUE","BATON ROUGE","LA",70802,30.4652016630001,-91.148801592,464,"4136 WASHINGTON AVENUE, BATON ROUGE, LA, 70802","Match","Exact","4136 WASHINGTON AVE, BATON ROUGE, LA, 70802",92181700,"R"
204965,"4137 131ST AVE SE","BELLEVUE","WA",98006,47.572834324,-122.165201056,465,"4137 131ST AVE SE, BELLEVUE, WA, 98006","Match","Exact","4137 131ST AVE SE, BELLEVUE, WA, 98006",239764644,"R"
204966,"4137 ASHCROFT AVE","CASTLE ROCK","CO",80104,39.370285983,-104.81974996,466,"4137 ASHCROFT AVE, CASTLE ROCK, CO, 80104","Match","Exact","4137 ASHCROFT AVE, CASTLE ROCK, CO, 80104",130839517,"L"
204967,"4137 BRAXTON DR E PO BOX 464","LAFAYETTE","IN",47902,40.3577371900001,-86.8861317929999,467,"4137 BRAXTON DR E PO BOX 464, LAFAYETTE, IN, 47902","Match","Non_Exact","4137 BRAXTON DR E, LAFAYETTE, IN, 47909",27320978,"L"
204968,"4137 DREW AVENUE SOUTH","MINNEAPOLIS","MN",55410,44.928032096,-93.326492194,468,"4137 DREW AVENUE SOUTH, MINNEAPOLIS, MN, 55410","Match","Exact","4137 DREW AVE S, MINNEAPOLIS, MN, 55410",43627670,"L"
204969,"4137 GREGORY MANOR CIR SW","SMYRNA","GA",30082,33.8509491090001,-84.569462922,469,"4137 GREGORY MANOR CIR SW, SMYRNA, GA, 30082","Match","Non_Exact","4137 GREGORY MANOR CIR, SMYRNA, GA, 30082",17223637,"L"
204970,"4137 MALLARD PLACE SE","ROCHESTER","MN",55904,44.010082229,-92.3961715089999,470,"4137 MALLARD PLACE SE, ROCHESTER, MN, 55904","Match","Exact","4137 MALLARD PL SE, ROCHESTER, MN, 55904",625196291,"L"
204971,"4137 N HIGHWAY 67 SUITE C","FLORISSANT","MO",63034,NA,NA,471,"4137 N HIGHWAY 67 SUITE C, FLORISSANT, MO, 63034","No_Match",NA,NA,NA,NA
204972,"4137 SALEM STREET","CONCORD","CA",94521,37.969636903,-121.992771833,472,"4137 SALEM STREET, CONCORD, CA, 94521","Match","Exact","4137 SALEM ST, CONCORD, CA, 94521",192058045,"L"
204973,"4137 SAUK TRAIL AVE","RICHTON PARK","IL",60471,41.484276816,-87.716813567,473,"4137 SAUK TRAIL AVE, RICHTON PARK, IL, 60471","Match","Exact","4137 SAUK TRL, RICHTON PARK, IL, 60471",111708610,"L"
204974,"4137 SAUK TRAIL SUITE 110","RICHTON PARK","IL",60471,41.484276816,-87.716813567,474,"4137 SAUK TRAIL SUITE 110, RICHTON PARK, IL, 60471","Match","Exact","4137 SAUK TRL, RICHTON PARK, IL, 60471",111708610,"L"
204975,"4137 SAUK TRAIL SUITE 113","RICHTON PARK","IL",60471,41.484276816,-87.716813567,475,"4137 SAUK TRAIL SUITE 113, RICHTON PARK, IL, 60471","Match","Exact","4137 SAUK TRL, RICHTON PARK, IL, 60471",111708610,"L"
204976,"4137 SAUK TRAIL","RICHTON PARK","IL",60471,41.484276816,-87.716813567,476,"4137 SAUK TRAIL, RICHTON PARK, IL, 60471","Match","Exact","4137 SAUK TRL, RICHTON PARK, IL, 60471",111708610,"L"
204977,"4137 STONECREST LANE","BELLINGHAM","WA",98226,48.7906492330001,-122.453858854,477,"4137 STONECREST LANE, BELLINGHAM, WA, 98226","Match","Exact","4137 STONECREST LN, BELLINGHAM, WA, 98226",633747808,"R"
204978,"4137 SUDER AVE","TOLEDO","OH",43611,41.696797777,-83.4968205659999,478,"4137 SUDER AVE, TOLEDO, OH, 43611","Match","Exact","4137 SUDER AVE, TOLEDO, OH, 43611",647994600,"L"
204979,"4137 W KAMERLING AVE","CHICAGO","IL",60651,41.9053120130001,-87.730233426,479,"4137 W KAMERLING AVE, CHICAGO, IL, 60651","Match","Exact","4137 W KAMERLING AVE, CHICAGO, IL, 60651",605060603,"L"
204980,"4137 WALLER DRIVE","SHREVEPORT","LA",71119,32.46045079,-93.890801708,480,"4137 WALLER DRIVE, SHREVEPORT, LA, 71119","Match","Exact","4137 WALLER DR, SHREVEPORT, LA, 71119",57477392,"L"
204981,"41370 HWY 40","CALLAWAY","NE",68825,NA,NA,481,"41370 HWY 40, CALLAWAY, NE, 68825","No_Match",NA,NA,NA,NA
204982,"41375 JIVARRO STREET","OGILVIE","MN",56358,NA,NA,482,"41375 JIVARRO STREET, OGILVIE, MN, 56358","No_Match",NA,NA,NA,NA
204983,"4138 68TH ST","WOODSIDE","NY",11377,NA,NA,483,"4138 68TH ST, WOODSIDE, NY, 11377","No_Match",NA,NA,NA,NA
204984,"4138 68TH STREET 2FL","WOODSIDE","NY",11377,NA,NA,484,"4138 68TH STREET 2FL, WOODSIDE, NY, 11377","No_Match",NA,NA,NA,NA
204985,"4138 ALLISON","HOUSTON","TX",77048,29.616613118,-95.353097992,485,"4138 ALLISON, HOUSTON, TX, 77048","Match","Non_Exact","4138 ALLISON RD, HOUSTON, TX, 77048",96090783,"R"
204986,"4138 BRIGADOON DR","SHOREVIEW","MN",55126,45.066580833,-93.129792669,486,"4138 BRIGADOON DR, SHOREVIEW, MN, 55126","Match","Exact","4138 BRIGADOON DR, SHOREVIEW, MN, 55126",97635733,"R"
204987,"4138 CARPENTER AVENUE 4A","BRONX","NY",10466,40.8926595880001,-73.861165442,487,"4138 CARPENTER AVENUE 4A, BRONX, NY, 10466","Match","Exact","4138 CARPENTER AVE, BRONX, NY, 10466",80297059,"R"
204988,"4138 CENTRAL SARASOTA PKWY APT 1521","SARASOTA","FL",34238,27.225256748,-82.485249982,488,"4138 CENTRAL SARASOTA PKWY APT 1521, SARASOTA, FL, 34238","Match","Exact","4138 CENTRAL SARASOTA PKWY, SARASOTA, FL, 34238",16425446,"R"
204989,"4138 COUNTRY PARK LANE","MURFEESBORO","TN",37128,35.8297250520001,-86.475083322,489,"4138 COUNTRY PARK LANE, MURFEESBORO, TN, 37128","Match","Non_Exact","4138 COUNTRY PARK LN, MURFREESBORO, TN, 37128",59029510,"L"
204990,"4138 GRASMERE RUN","MASON","OH",45040,39.386253987,-84.293332655,490,"4138 GRASMERE RUN, MASON, OH, 45040","Match","Exact","4138 GRASMERE RUN, MASON, OH, 45040",159042456,"R"
204991,"4138 HINSDALE ROAD","SOUTH EUCLID","OH",44121,41.5106460060001,-81.5311963679999,491,"4138 HINSDALE ROAD, SOUTH EUCLID, OH, 44121","Match","Exact","4138 HINSDALE RD, SOUTH EUCLID, OH, 44121",61125637,"R"
204992,"4138 LELAND STREET","CHEVY CHASE","MD",20815,38.9856272700001,-77.0822035469999,492,"4138 LELAND STREET, CHEVY CHASE, MD, 20815","Match","Exact","4138 LELAND ST, CHEVY CHASE, MD, 20815",62066165,"L"
204993,"4138 LEXINGTON AVENUE N","SHOREVIEW","MN",55126,45.0657591680001,-93.147216169,493,"4138 LEXINGTON AVENUE N, SHOREVIEW, MN, 55126","Match","Exact","4138 LEXINGTON AVE N, SHOREVIEW, MN, 55126",642756660,"R"
204994,"4138 MOUNT AIRY RD","CULPEPER","VA",22701,38.3497611020001,-77.955644331,494,"4138 MOUNT AIRY RD, CULPEPER, VA, 22701","Match","Exact","4138 MOUNT AIRY RD, CULPEPER, VA, 22701",29880246,"R"
204995,"4138 MOUNT RUSHMORE DRIVE","NORCO","CA",92860,33.9412922880001,-117.518095661,495,"4138 MOUNT RUSHMORE DRIVE, NORCO, CA, 92860","Match","Exact","4138 MOUNT RUSHMORE DR, NORCO, CA, 92860",194814126,"R"
204996,"4138 N TROY ST APT 3","CHICAGO","IL",60618,41.956494858,-87.706880344,496,"4138 N TROY ST APT 3, CHICAGO, IL, 60618","Match","Non_Exact","4138 N TROY ST, CHICAGO, IL, 60618",111757155,"L"
204997,"4138 PARK PLACE CIR","ELLENWOOD","GA",30294,33.658250159,-84.224560345,497,"4138 PARK PLACE CIR, ELLENWOOD, GA, 30294","Match","Exact","4138 PARK PLACE CIR, ELLENWOOD, GA, 30294",23398848,"R"
204998,"4138 SW WEBSTER ST","SEATTLE","WA",98136,47.535801491,-122.386124201,498,"4138 SW WEBSTER ST, SEATTLE, WA, 98136","Match","Exact","4138 SW WEBSTER ST, SEATTLE, WA, 98136",186661848,"R"
204999,"41385 US HWY 71 STE 1","WINDOM","MN",56101,NA,NA,499,"41385 US HWY 71 STE 1, WINDOM, MN, 56101","No_Match",NA,NA,NA,NA
205000,"4139 AVENIDA DE LA PLATA","OCEANSIDE","CA",92056,NA,NA,500,"4139 AVENIDA DE LA PLATA, OCEANSIDE, CA, 92056","No_Match",NA,NA,NA,NA
