"ID","Address","City","State","Zip","lat","long","id","input_address","match_indicator","match_type","matched_address","tiger_line_id","tiger_side"
351501,"PO BOX 514","PRUDENVILLE","MI",48651,NA,NA,1,"PO BOX 514, PRUDENVILLE, MI, 48651","No_Match",NA,NA,NA,NA
351502,"PO BOX 514","RED RIVER","NM",87558,NA,NA,2,"PO BOX 514, RED RIVER, NM, 87558","No_Match",NA,NA,NA,NA
351503,"PO BOX 514","TROY","IL",62294,NA,NA,3,"PO BOX 514, TROY, IL, 62294","No_Match",NA,NA,NA,NA
351504,"PO BOX 514","WACO","TX",76643,NA,NA,4,"PO BOX 514, WACO, TX, 76643","No_Match",NA,NA,NA,NA
351505,"PO BOX 514","XENIA","OH",45385,NA,NA,5,"PO BOX 514, XENIA, OH, 45385","No_Match",NA,NA,NA,NA
351506,"PO BOX 5140","EL PASO","TX",79953,NA,NA,6,"PO BOX 5140, EL PASO, TX, 79953","No_Match",NA,NA,NA,NA
351507,"PO BOX 5141","ALPHARETTA","GA",30023,NA,NA,7,"PO BOX 5141, ALPHARETTA, GA, 30023","No_Match",NA,NA,NA,NA
351508,"PO BOX 5142 26 HOOVER ROAD","BRIDGETON","NJ",8302,39.4981908400001,-75.214802753,8,"PO BOX 5142 26 HOOVER ROAD, BRIDGETON, NJ, 8302","Match","Exact","26 HOOVER RD, BRIDGETON, NJ, 08302",174107330,"R"
351509,"PO BOX 5142","FORT LAUDERDALE","FL",33310,NA,NA,9,"PO BOX 5142, FORT LAUDERDALE, FL, 33310","No_Match",NA,NA,NA,NA
351510,"PO BOX 5142","KNOXVILLE","TN",37918,NA,NA,10,"PO BOX 5142, KNOXVILLE, TN, 37918","No_Match",NA,NA,NA,NA
351511,"PO BOX 51421","EUGENE","OR",97405,NA,NA,11,"PO BOX 51421, EUGENE, OR, 97405","No_Match",NA,NA,NA,NA
351512,"PO BOX 51427","LIVONIA","MI",48150,NA,NA,12,"PO BOX 51427, LIVONIA, MI, 48150","No_Match",NA,NA,NA,NA
351513,"PO BOX 51462","MYRTLE BEACH","SC",29579,NA,NA,13,"PO BOX 51462, MYRTLE BEACH, SC, 29579","No_Match",NA,NA,NA,NA
351514,"PO BOX 51468","MESA","AZ",85208,NA,NA,14,"PO BOX 51468, MESA, AZ, 85208","No_Match",NA,NA,NA,NA
351515,"PO BOX 51471","GREENWOOD","SC",29649,NA,NA,15,"PO BOX 51471, GREENWOOD, SC, 29649","No_Match",NA,NA,NA,NA
351516,"PO BOX 51475","FORT MYERS","FL",33994,NA,NA,16,"PO BOX 51475, FORT MYERS, FL, 33994","No_Match",NA,NA,NA,NA
351517,"PO BOX 51477","BOSTON","MA",2205,NA,NA,17,"PO BOX 51477, BOSTON, MA, 2205","No_Match",NA,NA,NA,NA
351518,"PO BOX 5148","FITZGERALD","GA",31750,NA,NA,18,"PO BOX 5148, FITZGERALD, GA, 31750","No_Match",NA,NA,NA,NA
351519,"PO BOX 5148","WOODBRIDGE","VA",22191,NA,NA,19,"PO BOX 5148, WOODBRIDGE, VA, 22191","No_Match",NA,NA,NA,NA
351520,"PO BOX 515","BAKER","MT",59313,NA,NA,20,"PO BOX 515, BAKER, MT, 59313","No_Match",NA,NA,NA,NA
351521,"PO BOX 515","CARTERSVILLE","GA",30120,NA,NA,21,"PO BOX 515, CARTERSVILLE, GA, 30120","No_Match",NA,NA,NA,NA
351522,"PO BOX 515","CRESCO","IA",52136,NA,NA,22,"PO BOX 515, CRESCO, IA, 52136","No_Match",NA,NA,NA,NA
351523,"PO BOX 515","EDISTO ISLAND","SC",29438,NA,NA,23,"PO BOX 515, EDISTO ISLAND, SC, 29438","No_Match",NA,NA,NA,NA
351524,"PO BOX 515","LIMA","NY",14485,NA,NA,24,"PO BOX 515, LIMA, NY, 14485","No_Match",NA,NA,NA,NA
351525,"PO BOX 515","MARINA","CA",93933,NA,NA,25,"PO BOX 515, MARINA, CA, 93933","No_Match",NA,NA,NA,NA
351526,"PO BOX 515","MIDDLETON","ID",83644,NA,NA,26,"PO BOX 515, MIDDLETON, ID, 83644","No_Match",NA,NA,NA,NA
351527,"PO BOX 515","PALM HARBOR","FL",34683,NA,NA,27,"PO BOX 515, PALM HARBOR, FL, 34683","No_Match",NA,NA,NA,NA
351528,"PO BOX 515","SEQUIM","WA",98382,NA,NA,28,"PO BOX 515, SEQUIM, WA, 98382","No_Match",NA,NA,NA,NA
351529,"PO BOX 515","SLATE HILL","NY",10973,NA,NA,29,"PO BOX 515, SLATE HILL, NY, 10973","No_Match",NA,NA,NA,NA
351530,"PO BOX 515","SLEEPY EYE","MN",56085,NA,NA,30,"PO BOX 515, SLEEPY EYE, MN, 56085","No_Match",NA,NA,NA,NA
351531,"PO BOX 515","SMITHTON","IL",62285,NA,NA,31,"PO BOX 515, SMITHTON, IL, 62285","No_Match",NA,NA,NA,NA
351532,"PO BOX 515","SUNCOOK","NH",3275,NA,NA,32,"PO BOX 515, SUNCOOK, NH, 3275","No_Match",NA,NA,NA,NA
351533,"PO BOX 515","WEED","CA",96094,NA,NA,33,"PO BOX 515, WEED, CA, 96094","No_Match",NA,NA,NA,NA
351534,"PO BOX 515","WINLOCK","WA",98596,NA,NA,34,"PO BOX 515, WINLOCK, WA, 98596","No_Match",NA,NA,NA,NA
351535,"PO BOX 5150","PLAINFIELD","NJ",7060,NA,NA,35,"PO BOX 5150, PLAINFIELD, NJ, 7060","No_Match",NA,NA,NA,NA
351536,"PO BOX 51501","KNOXVILLE","TN",37950,NA,NA,36,"PO BOX 51501, KNOXVILLE, TN, 37950","No_Match",NA,NA,NA,NA
351537,"PO BOX 51504","IDAHO FALLS","ID",83405,NA,NA,37,"PO BOX 51504, IDAHO FALLS, ID, 83405","No_Match",NA,NA,NA,NA
351538,"PO BOX 5151","HELENA","MT",59604,NA,NA,38,"PO BOX 5151, HELENA, MT, 59604","No_Match",NA,NA,NA,NA
351539,"PO BOX 5151","POUGHKEEPSIE","NY",12602,NA,NA,39,"PO BOX 5151, POUGHKEEPSIE, NY, 12602","No_Match",NA,NA,NA,NA
351540,"PO BOX 5151","WAUSAU","WI",54402,NA,NA,40,"PO BOX 5151, WAUSAU, WI, 54402","No_Match",NA,NA,NA,NA
351541,"PO BOX 515132","SAINT LOUIS","MO",63151,NA,NA,41,"PO BOX 515132, SAINT LOUIS, MO, 63151","No_Match",NA,NA,NA,NA
351542,"PO BOX 5152","ATHENS","GA",30604,NA,NA,42,"PO BOX 5152, ATHENS, GA, 30604","No_Match",NA,NA,NA,NA
351543,"PO BOX 515286","DALLAS","TX",75251,NA,NA,43,"PO BOX 515286, DALLAS, TX, 75251","No_Match",NA,NA,NA,NA
351544,"PO BOX 5153","ARLINGTON","VA",22205,NA,NA,44,"PO BOX 5153, ARLINGTON, VA, 22205","No_Match",NA,NA,NA,NA
351545,"PO BOX 5153","LUBBOCK","TX",79408,NA,NA,45,"PO BOX 5153, LUBBOCK, TX, 79408","No_Match",NA,NA,NA,NA
351546,"PO BOX 51532","KNOXVILLE","TN",37950,NA,NA,46,"PO BOX 51532, KNOXVILLE, TN, 37950","No_Match",NA,NA,NA,NA
351547,"PO BOX 51549","DURHAM","NC",27717,NA,NA,47,"PO BOX 51549, DURHAM, NC, 27717","No_Match",NA,NA,NA,NA
351548,"PO BOX 51563","KALAMAZOO","MI",49005,NA,NA,48,"PO BOX 51563, KALAMAZOO, MI, 49005","No_Match",NA,NA,NA,NA
351549,"PO BOX 516","BASOM","NY",14013,NA,NA,49,"PO BOX 516, BASOM, NY, 14013","No_Match",NA,NA,NA,NA
351550,"PO BOX 516","CEDAR LAKE","IN",46303,NA,NA,50,"PO BOX 516, CEDAR LAKE, IN, 46303","No_Match",NA,NA,NA,NA
351551,"PO BOX 516","EDGEWOOD","NM",87015,NA,NA,51,"PO BOX 516, EDGEWOOD, NM, 87015","No_Match",NA,NA,NA,NA
351552,"PO BOX 516","ENFIELD","CT",6083,NA,NA,52,"PO BOX 516, ENFIELD, CT, 6083","No_Match",NA,NA,NA,NA
351553,"PO BOX 516","FORT KENT","ME",4743,NA,NA,53,"PO BOX 516, FORT KENT, ME, 4743","No_Match",NA,NA,NA,NA
351554,"PO BOX 516","GREELEY","CO",80632,NA,NA,54,"PO BOX 516, GREELEY, CO, 80632","No_Match",NA,NA,NA,NA
351555,"PO BOX 516","LAKE FOREST","CA",92609,NA,NA,55,"PO BOX 516, LAKE FOREST, CA, 92609","No_Match",NA,NA,NA,NA
351556,"PO BOX 516","LEICESTER","NC",28748,NA,NA,56,"PO BOX 516, LEICESTER, NC, 28748","No_Match",NA,NA,NA,NA
351557,"PO BOX 516","OLIVER SPRINGS","TN",37840,NA,NA,57,"PO BOX 516, OLIVER SPRINGS, TN, 37840","No_Match",NA,NA,NA,NA
351558,"PO BOX 516","PAGO PAGO","AS",96799,NA,NA,58,"PO BOX 516, PAGO PAGO, AS, 96799","No_Match",NA,NA,NA,NA
351559,"PO BOX 516","SOLEDAD","CA",93960,NA,NA,59,"PO BOX 516, SOLEDAD, CA, 93960","No_Match",NA,NA,NA,NA
351560,"PO BOX 51604","BOSTON","MA",2205,NA,NA,60,"PO BOX 51604, BOSTON, MA, 2205","No_Match",NA,NA,NA,NA
351561,"PO BOX 5161","AUSTIN","TX",78763,NA,NA,61,"PO BOX 5161, AUSTIN, TX, 78763","No_Match",NA,NA,NA,NA
351562,"PO BOX 5161","BLOOMINGTON","IL",61702,NA,NA,62,"PO BOX 5161, BLOOMINGTON, IL, 61702","No_Match",NA,NA,NA,NA
351563,"PO BOX 5161","MARIETTA","GA",30061,NA,NA,63,"PO BOX 5161, MARIETTA, GA, 30061","No_Match",NA,NA,NA,NA
351564,"PO BOX 5162","CRESTLINE","CA",92325,NA,NA,64,"PO BOX 5162, CRESTLINE, CA, 92325","No_Match",NA,NA,NA,NA
351565,"PO BOX 5162","OLD BRIDGE","NJ",8857,NA,NA,65,"PO BOX 5162, OLD BRIDGE, NJ, 8857","No_Match",NA,NA,NA,NA
351566,"PO BOX 5164","KATY","TX",77491,NA,NA,66,"PO BOX 5164, KATY, TX, 77491","No_Match",NA,NA,NA,NA
351567,"PO BOX 5164","NEWARK","OH",43058,NA,NA,67,"PO BOX 5164, NEWARK, OH, 43058","No_Match",NA,NA,NA,NA
351568,"PO BOX 51644","DURHAM","NC",27717,NA,NA,68,"PO BOX 51644, DURHAM, NC, 27717","No_Match",NA,NA,NA,NA
351569,"PO BOX 5166","HUNTSVILLE","AL",35814,NA,NA,69,"PO BOX 5166, HUNTSVILLE, AL, 35814","No_Match",NA,NA,NA,NA
351570,"PO BOX 5166","MORAGA","CA",94575,NA,NA,70,"PO BOX 5166, MORAGA, CA, 94575","No_Match",NA,NA,NA,NA
351571,"PO BOX 5166","ST AUGUSTINE","FL",32085,NA,NA,71,"PO BOX 5166, ST AUGUSTINE, FL, 32085","No_Match",NA,NA,NA,NA
351572,"PO BOX 51665","LIVONIA","MI",48151,NA,NA,72,"PO BOX 51665, LIVONIA, MI, 48151","No_Match",NA,NA,NA,NA
351573,"PO BOX 5167","RICHMOND","CA",94805,NA,NA,73,"PO BOX 5167, RICHMOND, CA, 94805","No_Match",NA,NA,NA,NA
351574,"PO BOX 5168","GRAND ISLAND","NE",68802,NA,NA,74,"PO BOX 5168, GRAND ISLAND, NE, 68802","No_Match",NA,NA,NA,NA
351575,"PO BOX 5168","PITTSBURGH","PA",15206,NA,NA,75,"PO BOX 5168, PITTSBURGH, PA, 15206","No_Match",NA,NA,NA,NA
351576,"PO BOX 5168","VIRGINIA BEACH","VA",23471,NA,NA,76,"PO BOX 5168, VIRGINIA BEACH, VA, 23471","No_Match",NA,NA,NA,NA
351577,"PO BOX 51682","ALBUQUERQUE","NM",87181,NA,NA,77,"PO BOX 51682, ALBUQUERQUE, NM, 87181","No_Match",NA,NA,NA,NA
351578,"PO BOX 51692","LAFAYETTE","LA",70505,NA,NA,78,"PO BOX 51692, LAFAYETTE, LA, 70505","No_Match",NA,NA,NA,NA
351579,"PO BOX 517","BATTLE MOUNTAIN","NV",89820,NA,NA,79,"PO BOX 517, BATTLE MOUNTAIN, NV, 89820","No_Match",NA,NA,NA,NA
351580,"PO BOX 517","CLAY CITY","KY",40312,NA,NA,80,"PO BOX 517, CLAY CITY, KY, 40312","No_Match",NA,NA,NA,NA
351581,"PO BOX 517","EAST SETAUKET","NY",11733,NA,NA,81,"PO BOX 517, EAST SETAUKET, NY, 11733","No_Match",NA,NA,NA,NA
351582,"PO BOX 517","KINGSLEY","MI",49649,NA,NA,82,"PO BOX 517, KINGSLEY, MI, 49649","No_Match",NA,NA,NA,NA
351583,"PO BOX 517","LAKE CHARLES","LA",70602,NA,NA,83,"PO BOX 517, LAKE CHARLES, LA, 70602","No_Match",NA,NA,NA,NA
351584,"PO BOX 517","MENTONE","AL",35984,NA,NA,84,"PO BOX 517, MENTONE, AL, 35984","No_Match",NA,NA,NA,NA
351585,"PO BOX 517","MONTICELLO","FL",32345,NA,NA,85,"PO BOX 517, MONTICELLO, FL, 32345","No_Match",NA,NA,NA,NA
351586,"PO BOX 517","SAINT JO","TX",76265,NA,NA,86,"PO BOX 517, SAINT JO, TX, 76265","No_Match",NA,NA,NA,NA
351587,"PO BOX 517","SANTA YNEZ","CA",93460,NA,NA,87,"PO BOX 517, SANTA YNEZ, CA, 93460","No_Match",NA,NA,NA,NA
351588,"PO BOX 517","SPEARMAN","TX",79081,NA,NA,88,"PO BOX 517, SPEARMAN, TX, 79081","No_Match",NA,NA,NA,NA
351589,"PO BOX 517","WARDENSVILLE","WV",26851,NA,NA,89,"PO BOX 517, WARDENSVILLE, WV, 26851","No_Match",NA,NA,NA,NA
351590,"PO BOX 517","WEAVERVILLE","CA",96093,NA,NA,90,"PO BOX 517, WEAVERVILLE, CA, 96093","No_Match",NA,NA,NA,NA
351591,"PO BOX 517","WEST COLUMBIA","TX",77486,NA,NA,91,"PO BOX 517, WEST COLUMBIA, TX, 77486","No_Match",NA,NA,NA,NA
351592,"PO BOX 517","WOODSTOCK","NY",12498,NA,NA,92,"PO BOX 517, WOODSTOCK, NY, 12498","No_Match",NA,NA,NA,NA
351593,"PO BOX 51706","FORT BENNING","GA",31995,NA,NA,93,"PO BOX 51706, FORT BENNING, GA, 31995","No_Match",NA,NA,NA,NA
351594,"PO BOX 5171","ASHEVILLE","NC",28813,NA,NA,94,"PO BOX 5171, ASHEVILLE, NC, 28813","No_Match",NA,NA,NA,NA
351595,"PO BOX 5171","VALLEJO","CA",94591,NA,NA,95,"PO BOX 5171, VALLEJO, CA, 94591","No_Match",NA,NA,NA,NA
351596,"PO BOX 51715","PACIFIC GROVE","CA",93950,NA,NA,96,"PO BOX 51715, PACIFIC GROVE, CA, 93950","No_Match",NA,NA,NA,NA
351597,"PO BOX 5173","WILMINGTON","DE",19808,NA,NA,97,"PO BOX 5173, WILMINGTON, DE, 19808","No_Match",NA,NA,NA,NA
351598,"PO BOX 5174","BASKING RIDGE","NJ",7920,NA,NA,98,"PO BOX 5174, BASKING RIDGE, NJ, 7920","No_Match",NA,NA,NA,NA
351599,"PO BOX 5174","CHARLESTON","WV",25361,NA,NA,99,"PO BOX 5174, CHARLESTON, WV, 25361","No_Match",NA,NA,NA,NA
351600,"PO BOX 51747","BOWLING GREEN","KY",42102,NA,NA,100,"PO BOX 51747, BOWLING GREEN, KY, 42102","No_Match",NA,NA,NA,NA
351601,"PO BOX 5176","BUENA VISTA","CO",81211,NA,NA,101,"PO BOX 5176, BUENA VISTA, CO, 81211","No_Match",NA,NA,NA,NA
351602,"PO BOX 5177","ETNA","WY",83118,NA,NA,102,"PO BOX 5177, ETNA, WY, 83118","No_Match",NA,NA,NA,NA
351603,"PO BOX 5178","BOZEMAN","MT",59717,NA,NA,103,"PO BOX 5178, BOZEMAN, MT, 59717","No_Match",NA,NA,NA,NA
351604,"PO BOX 5178","PITTSBURGH","PA",15206,NA,NA,104,"PO BOX 5178, PITTSBURGH, PA, 15206","No_Match",NA,NA,NA,NA
351605,"PO BOX 518","BADIN","NC",28009,NA,NA,105,"PO BOX 518, BADIN, NC, 28009","No_Match",NA,NA,NA,NA
351606,"PO BOX 518","BELLEVILLE","MI",48112,NA,NA,106,"PO BOX 518, BELLEVILLE, MI, 48112","No_Match",NA,NA,NA,NA
351607,"PO BOX 518","BRISTOW","OK",74010,NA,NA,107,"PO BOX 518, BRISTOW, OK, 74010","No_Match",NA,NA,NA,NA
351608,"PO BOX 518","BUFFALO","TX",75831,NA,NA,108,"PO BOX 518, BUFFALO, TX, 75831","No_Match",NA,NA,NA,NA
351609,"PO BOX 518","CUPERTINO","CA",95015,NA,NA,109,"PO BOX 518, CUPERTINO, CA, 95015","No_Match",NA,NA,NA,NA
351610,"PO BOX 518","FULTON","MS",38843,NA,NA,110,"PO BOX 518, FULTON, MS, 38843","No_Match",NA,NA,NA,NA
351611,"PO BOX 518","FUNKSTOWN","MD",21734,NA,NA,111,"PO BOX 518, FUNKSTOWN, MD, 21734","No_Match",NA,NA,NA,NA
351612,"PO BOX 518","HOWE","TX",75459,NA,NA,112,"PO BOX 518, HOWE, TX, 75459","No_Match",NA,NA,NA,NA
351613,"PO BOX 518","INGRAM","TX",78025,NA,NA,113,"PO BOX 518, INGRAM, TX, 78025","No_Match",NA,NA,NA,NA
351614,"PO BOX 518","MAKAWAO","HI",96768,NA,NA,114,"PO BOX 518, MAKAWAO, HI, 96768","No_Match",NA,NA,NA,NA
351615,"PO BOX 518","OCEAN GROVE","NJ",7756,NA,NA,115,"PO BOX 518, OCEAN GROVE, NJ, 7756","No_Match",NA,NA,NA,NA
351616,"PO BOX 518","ORISKANY","NY",13424,NA,NA,116,"PO BOX 518, ORISKANY, NY, 13424","No_Match",NA,NA,NA,NA
351617,"PO BOX 518","SANDY","OR",97055,NA,NA,117,"PO BOX 518, SANDY, OR, 97055","No_Match",NA,NA,NA,NA
351618,"PO BOX 51803","PACIFIC GROVE","CA",93950,NA,NA,118,"PO BOX 51803, PACIFIC GROVE, CA, 93950","No_Match",NA,NA,NA,NA
351619,"PO BOX 5181","TYLER","TX",75712,NA,NA,119,"PO BOX 5181, TYLER, TX, 75712","No_Match",NA,NA,NA,NA
351620,"PO BOX 51833","DURHAM","NC",27717,NA,NA,120,"PO BOX 51833, DURHAM, NC, 27717","No_Match",NA,NA,NA,NA
351621,"PO BOX 51843","MYRTLE BEACH","SC",29579,NA,NA,121,"PO BOX 51843, MYRTLE BEACH, SC, 29579","No_Match",NA,NA,NA,NA
351622,"PO BOX 51851","PROVO","UT",84605,NA,NA,122,"PO BOX 51851, PROVO, UT, 84605","No_Match",NA,NA,NA,NA
351623,"PO BOX 5186","WHITEFISH","MT",59937,NA,NA,123,"PO BOX 5186, WHITEFISH, MT, 59937","No_Match",NA,NA,NA,NA
351624,"PO BOX 51864","IRVINE","CA",92619,NA,NA,124,"PO BOX 51864, IRVINE, CA, 92619","No_Match",NA,NA,NA,NA
351625,"PO BOX 51865-1865","KNOXVILLE","TN",37950,NA,NA,125,"PO BOX 51865-1865, KNOXVILLE, TN, 37950","No_Match",NA,NA,NA,NA
351626,"PO BOX 5188","CHARLESTON","WV",25301,NA,NA,126,"PO BOX 5188, CHARLESTON, WV, 25301","No_Match",NA,NA,NA,NA
351627,"PO BOX 5188","EDGARTOWN","MA",2539,NA,NA,127,"PO BOX 5188, EDGARTOWN, MA, 2539","No_Match",NA,NA,NA,NA
351628,"PO BOX 5188","OSWEGO","NY",13126,NA,NA,128,"PO BOX 5188, OSWEGO, NY, 13126","No_Match",NA,NA,NA,NA
351629,"PO BOX 5189","FAIRLAWN","OH",44334,NA,NA,129,"PO BOX 5189, FAIRLAWN, OH, 44334","No_Match",NA,NA,NA,NA
351630,"PO BOX 5189","OCEAN ISLE BEACH","NC",28469,NA,NA,130,"PO BOX 5189, OCEAN ISLE BEACH, NC, 28469","No_Match",NA,NA,NA,NA
351631,"PO BOX 519","ANDOVER","KS",67002,NA,NA,131,"PO BOX 519, ANDOVER, KS, 67002","No_Match",NA,NA,NA,NA
351632,"PO BOX 519","CAMBRIDGE","WI",53523,NA,NA,132,"PO BOX 519, CAMBRIDGE, WI, 53523","No_Match",NA,NA,NA,NA
351633,"PO BOX 519","MONSEY","NY",10952,NA,NA,133,"PO BOX 519, MONSEY, NY, 10952","No_Match",NA,NA,NA,NA
351634,"PO BOX 519","MONTVILLE","NJ",7045,NA,NA,134,"PO BOX 519, MONTVILLE, NJ, 7045","No_Match",NA,NA,NA,NA
351635,"PO BOX 519","NIPOMO","CA",93444,NA,NA,135,"PO BOX 519, NIPOMO, CA, 93444","No_Match",NA,NA,NA,NA
351636,"PO BOX 519","TELLICO PLAINS","TN",37385,NA,NA,136,"PO BOX 519, TELLICO PLAINS, TN, 37385","No_Match",NA,NA,NA,NA
351637,"PO BOX 5190 - C/O JOE DOYLE","YOUNGSTOWN","PA",44514,NA,NA,137,"PO BOX 5190 - C/O JOE DOYLE, YOUNGSTOWN, PA, 44514","No_Match",NA,NA,NA,NA
351638,"PO BOX 5191","ASHLAND","KY",41105,NA,NA,138,"PO BOX 5191, ASHLAND, KY, 41105","No_Match",NA,NA,NA,NA
351639,"PO BOX 5191","WEST COVINA","CA",91791,NA,NA,139,"PO BOX 5191, WEST COVINA, CA, 91791","No_Match",NA,NA,NA,NA
351640,"PO BOX 5192","SILVER CITY","NM",88062,NA,NA,140,"PO BOX 5192, SILVER CITY, NM, 88062","No_Match",NA,NA,NA,NA
351641,"PO BOX 51922","DURHAM","NC",27717,NA,NA,141,"PO BOX 51922, DURHAM, NC, 27717","No_Match",NA,NA,NA,NA
351642,"PO BOX 5194  CVC STATION","CAYEY","PR",737,NA,NA,142,"PO BOX 5194  CVC STATION, CAYEY, PR, 737","No_Match",NA,NA,NA,NA
351643,"PO BOX 5194","ETNA","WY",83118,NA,NA,143,"PO BOX 5194, ETNA, WY, 83118","No_Match",NA,NA,NA,NA
351644,"PO BOX 5194","LOUISVILLE","KY",40255,NA,NA,144,"PO BOX 5194, LOUISVILLE, KY, 40255","No_Match",NA,NA,NA,NA
351645,"PO BOX 5195","NORTH BRANCH","NJ",8876,NA,NA,145,"PO BOX 5195, NORTH BRANCH, NJ, 8876","No_Match",NA,NA,NA,NA
351646,"PO BOX 51954","BOSTON","MA",2205,NA,NA,146,"PO BOX 51954, BOSTON, MA, 2205","No_Match",NA,NA,NA,NA
351647,"PO BOX 5196","EUGENE","OR",97405,NA,NA,147,"PO BOX 5196, EUGENE, OR, 97405","No_Match",NA,NA,NA,NA
351648,"PO BOX 5199","ASHEVILLE","NC",28813,NA,NA,148,"PO BOX 5199, ASHEVILLE, NC, 28813","No_Match",NA,NA,NA,NA
351649,"PO BOX 52","ABBOTT","TX",76621,NA,NA,149,"PO BOX 52, ABBOTT, TX, 76621","No_Match",NA,NA,NA,NA
351650,"PO BOX 52","AGAWAM","MA",1001,NA,NA,150,"PO BOX 52, AGAWAM, MA, 1001","No_Match",NA,NA,NA,NA
351651,"PO BOX 52","ANDALUSIA","AL",36420,NA,NA,151,"PO BOX 52, ANDALUSIA, AL, 36420","No_Match",NA,NA,NA,NA
351652,"PO BOX 52","ASHEVILLE","NC",28802,NA,NA,152,"PO BOX 52, ASHEVILLE, NC, 28802","No_Match",NA,NA,NA,NA
351653,"PO BOX 52","BARTLETT","OH",45713,NA,NA,153,"PO BOX 52, BARTLETT, OH, 45713","No_Match",NA,NA,NA,NA
351654,"PO BOX 52","DARLINGTON","PA",16115,NA,NA,154,"PO BOX 52, DARLINGTON, PA, 16115","No_Match",NA,NA,NA,NA
351655,"PO BOX 52","DEWEY BEACH","DE",19971,NA,NA,155,"PO BOX 52, DEWEY BEACH, DE, 19971","No_Match",NA,NA,NA,NA
351656,"PO BOX 52","EATON","NY",13334,NA,NA,156,"PO BOX 52, EATON, NY, 13334","No_Match",NA,NA,NA,NA
351657,"PO BOX 52","EL GRANADA","CA",94018,NA,NA,157,"PO BOX 52, EL GRANADA, CA, 94018","No_Match",NA,NA,NA,NA
351658,"PO BOX 52","ELECTRIC CITY","WA",99123,NA,NA,158,"PO BOX 52, ELECTRIC CITY, WA, 99123","No_Match",NA,NA,NA,NA
351659,"PO BOX 52","FAIRFIELD","ID",83327,NA,NA,159,"PO BOX 52, FAIRFIELD, ID, 83327","No_Match",NA,NA,NA,NA
351660,"PO BOX 52","FAIRLEE","VT",5045,NA,NA,160,"PO BOX 52, FAIRLEE, VT, 5045","No_Match",NA,NA,NA,NA
351661,"PO BOX 52","FRANCONIA","NH",3580,NA,NA,161,"PO BOX 52, FRANCONIA, NH, 3580","No_Match",NA,NA,NA,NA
351662,"PO BOX 52","FREEDOM","NH",3836,NA,NA,162,"PO BOX 52, FREEDOM, NH, 3836","No_Match",NA,NA,NA,NA
351663,"PO BOX 52","HUDSON","NY",12534,NA,NA,163,"PO BOX 52, HUDSON, NY, 12534","No_Match",NA,NA,NA,NA
351664,"PO BOX 52","JOHNSTON","IA",50131,NA,NA,164,"PO BOX 52, JOHNSTON, IA, 50131","No_Match",NA,NA,NA,NA
351665,"PO BOX 52","LICKING","MO",65542,NA,NA,165,"PO BOX 52, LICKING, MO, 65542","No_Match",NA,NA,NA,NA
351666,"PO BOX 52","LOUGHMAN","FL",33858,NA,NA,166,"PO BOX 52, LOUGHMAN, FL, 33858","No_Match",NA,NA,NA,NA
351667,"PO BOX 52","MASON","TX",76856,NA,NA,167,"PO BOX 52, MASON, TX, 76856","No_Match",NA,NA,NA,NA
351668,"PO BOX 52","MERRICK","NY",11566,NA,NA,168,"PO BOX 52, MERRICK, NY, 11566","No_Match",NA,NA,NA,NA
351669,"PO BOX 52","MOUNTAINVILLE","NY",10953,NA,NA,169,"PO BOX 52, MOUNTAINVILLE, NY, 10953","No_Match",NA,NA,NA,NA
351670,"PO BOX 52","N BILLERICA","MA",1862,NA,NA,170,"PO BOX 52, N BILLERICA, MA, 1862","No_Match",NA,NA,NA,NA
351671,"PO BOX 52","NORTH HYDE PARK","VT",5665,NA,NA,171,"PO BOX 52, NORTH HYDE PARK, VT, 5665","No_Match",NA,NA,NA,NA
351672,"PO BOX 52","POPLAR BLUFF","MO",63902,NA,NA,172,"PO BOX 52, POPLAR BLUFF, MO, 63902","No_Match",NA,NA,NA,NA
351673,"PO BOX 52","POULTNEY","VT",5764,NA,NA,173,"PO BOX 52, POULTNEY, VT, 5764","No_Match",NA,NA,NA,NA
351674,"PO BOX 52","ROGERSVILLE","MO",65742,NA,NA,174,"PO BOX 52, ROGERSVILLE, MO, 65742","No_Match",NA,NA,NA,NA
351675,"PO BOX 52","SOMERVILLE","VA",22739,NA,NA,175,"PO BOX 52, SOMERVILLE, VA, 22739","No_Match",NA,NA,NA,NA
351676,"PO BOX 52","STAR","MS",39167,NA,NA,176,"PO BOX 52, STAR, MS, 39167","No_Match",NA,NA,NA,NA
351677,"PO BOX 52","TICONDEROGA","NY",12883,NA,NA,177,"PO BOX 52, TICONDEROGA, NY, 12883","No_Match",NA,NA,NA,NA
351678,"PO BOX 52","TYNGSBOROUGH","MA",1879,NA,NA,178,"PO BOX 52, TYNGSBOROUGH, MA, 1879","No_Match",NA,NA,NA,NA
351679,"PO BOX 52","VIOLA","DE",19979,NA,NA,179,"PO BOX 52, VIOLA, DE, 19979","No_Match",NA,NA,NA,NA
351680,"PO BOX 52","WHITEFIELD","NH",3598,NA,NA,180,"PO BOX 52, WHITEFIELD, NH, 3598","No_Match",NA,NA,NA,NA
351681,"PO BOX 52","WYALUSING","PA",18853,NA,NA,181,"PO BOX 52, WYALUSING, PA, 18853","No_Match",NA,NA,NA,NA
351682,"PO BOX 520","CEDAR PARK","TX",78630,NA,NA,182,"PO BOX 520, CEDAR PARK, TX, 78630","No_Match",NA,NA,NA,NA
351683,"PO BOX 520","DOWNINGTOWN","PA",19335,NA,NA,183,"PO BOX 520, DOWNINGTOWN, PA, 19335","No_Match",NA,NA,NA,NA
351684,"PO BOX 520","FRANKLIN","TX",77856,NA,NA,184,"PO BOX 520, FRANKLIN, TX, 77856","No_Match",NA,NA,NA,NA
351685,"PO BOX 520","JACKSON","KY",41339,NA,NA,185,"PO BOX 520, JACKSON, KY, 41339","No_Match",NA,NA,NA,NA
351686,"PO BOX 520","PENROSE","CO",81240,NA,NA,186,"PO BOX 520, PENROSE, CO, 81240","No_Match",NA,NA,NA,NA
351687,"PO BOX 520","WINSLOW","AZ",86047,NA,NA,187,"PO BOX 520, WINSLOW, AZ, 86047","No_Match",NA,NA,NA,NA
351688,"PO BOX 520022","SALT LAKE CITY","UT",84152,NA,NA,188,"PO BOX 520022, SALT LAKE CITY, UT, 84152","No_Match",NA,NA,NA,NA
351689,"PO BOX 520049","BIG LAKE","AK",99652,NA,NA,189,"PO BOX 520049, BIG LAKE, AK, 99652","No_Match",NA,NA,NA,NA
351690,"PO BOX 52014","PALO ALTO","CA",94303,NA,NA,190,"PO BOX 52014, PALO ALTO, CA, 94303","No_Match",NA,NA,NA,NA
351691,"PO BOX 5202","NOVATO","CA",94948,NA,NA,191,"PO BOX 5202, NOVATO, CA, 94948","No_Match",NA,NA,NA,NA
351692,"PO BOX 52022","PALO ALTO","CA",94303,NA,NA,192,"PO BOX 52022, PALO ALTO, CA, 94303","No_Match",NA,NA,NA,NA
351693,"PO BOX 520266","BIG LAKE","AK",99652,NA,NA,193,"PO BOX 520266, BIG LAKE, AK, 99652","No_Match",NA,NA,NA,NA
351694,"PO BOX 520296","WINTHROP","MA",2152,NA,NA,194,"PO BOX 520296, WINTHROP, MA, 2152","No_Match",NA,NA,NA,NA
351695,"PO BOX 520333","MIAMI","FL",33152,NA,NA,195,"PO BOX 520333, MIAMI, FL, 33152","No_Match",NA,NA,NA,NA
351696,"PO BOX 52040","AMARILLO","TX",79159,NA,NA,196,"PO BOX 52040, AMARILLO, TX, 79159","No_Match",NA,NA,NA,NA
351697,"PO BOX 520442","SALT LAKE CITY","UT",84152,NA,NA,197,"PO BOX 520442, SALT LAKE CITY, UT, 84152","No_Match",NA,NA,NA,NA
351698,"PO BOX 52046","KNOXVILLE","TN",37950,NA,NA,198,"PO BOX 52046, KNOXVILLE, TN, 37950","No_Match",NA,NA,NA,NA
351699,"PO BOX 5205","LANCASTER","PA",17606,NA,NA,199,"PO BOX 5205, LANCASTER, PA, 17606","No_Match",NA,NA,NA,NA
351700,"PO BOX 5205","NORMAN","OK",73070,NA,NA,200,"PO BOX 5205, NORMAN, OK, 73070","No_Match",NA,NA,NA,NA
351701,"PO BOX 520562","SALT LAKE CITY","UT",84152,NA,NA,201,"PO BOX 520562, SALT LAKE CITY, UT, 84152","No_Match",NA,NA,NA,NA
351702,"PO BOX 5206","CHESAPEAKE","VA",23324,NA,NA,202,"PO BOX 5206, CHESAPEAKE, VA, 23324","No_Match",NA,NA,NA,NA
351703,"PO BOX 52068","MESA","AZ",85208,NA,NA,203,"PO BOX 52068, MESA, AZ, 85208","No_Match",NA,NA,NA,NA
351704,"PO BOX 520709","FLUSHING","NY",11352,NA,NA,204,"PO BOX 520709, FLUSHING, NY, 11352","No_Match",NA,NA,NA,NA
351705,"PO BOX 520756","SALT LAKE CITY","UT",84152,NA,NA,205,"PO BOX 520756, SALT LAKE CITY, UT, 84152","No_Match",NA,NA,NA,NA
351706,"PO BOX 520800","TINIAN","MP",96952,NA,NA,206,"PO BOX 520800, TINIAN, MP, 96952","No_Match",NA,NA,NA,NA
351707,"PO BOX 52084","DURHAM","NC",27717,NA,NA,207,"PO BOX 52084, DURHAM, NC, 27717","No_Match",NA,NA,NA,NA
351708,"PO BOX 520941","BIG LAKE","AK",99652,NA,NA,208,"PO BOX 520941, BIG LAKE, AK, 99652","No_Match",NA,NA,NA,NA
351709,"PO BOX 52097","BOSTON","MA",52097,NA,NA,209,"PO BOX 52097, BOSTON, MA, 52097","No_Match",NA,NA,NA,NA
351710,"PO BOX 521","BAILEYS HARBOR","WI",54202,NA,NA,210,"PO BOX 521, BAILEYS HARBOR, WI, 54202","No_Match",NA,NA,NA,NA
351711,"PO BOX 521","BAKERSFIELD","CA",93302,NA,NA,211,"PO BOX 521, BAKERSFIELD, CA, 93302","No_Match",NA,NA,NA,NA
351712,"PO BOX 521","BIG SANDY","MT",59520,NA,NA,212,"PO BOX 521, BIG SANDY, MT, 59520","No_Match",NA,NA,NA,NA
351713,"PO BOX 521","BOULDER JUNCTION","WI",54512,NA,NA,213,"PO BOX 521, BOULDER JUNCTION, WI, 54512","No_Match",NA,NA,NA,NA
351714,"PO BOX 521","BOZEMAN","MT",59771,NA,NA,214,"PO BOX 521, BOZEMAN, MT, 59771","No_Match",NA,NA,NA,NA
351715,"PO BOX 521","BYRON CENTER","MI",49315,NA,NA,215,"PO BOX 521, BYRON CENTER, MI, 49315","No_Match",NA,NA,NA,NA
351716,"PO BOX 521","DAVENPORT","WA",99122,NA,NA,216,"PO BOX 521, DAVENPORT, WA, 99122","No_Match",NA,NA,NA,NA
351717,"PO BOX 521","GRANTS PASS","OR",97528,NA,NA,217,"PO BOX 521, GRANTS PASS, OR, 97528","No_Match",NA,NA,NA,NA
351718,"PO BOX 521","HAYWARD","CA",94543,NA,NA,218,"PO BOX 521, HAYWARD, CA, 94543","No_Match",NA,NA,NA,NA
351719,"PO BOX 521","HURST","TX",76053,NA,NA,219,"PO BOX 521, HURST, TX, 76053","No_Match",NA,NA,NA,NA
351720,"PO BOX 521","KOKOMO","IN",46903,NA,NA,220,"PO BOX 521, KOKOMO, IN, 46903","No_Match",NA,NA,NA,NA
351721,"PO BOX 521","LA LUZ","NM",88337,NA,NA,221,"PO BOX 521, LA LUZ, NM, 88337","No_Match",NA,NA,NA,NA
351722,"PO BOX 521","MANCHESTER","MA",1944,NA,NA,222,"PO BOX 521, MANCHESTER, MA, 1944","No_Match",NA,NA,NA,NA
351723,"PO BOX 521","MUKWONAGO","WI",53149,NA,NA,223,"PO BOX 521, MUKWONAGO, WI, 53149","No_Match",NA,NA,NA,NA
351724,"PO BOX 521","NEW ULM","MN",56073,NA,NA,224,"PO BOX 521, NEW ULM, MN, 56073","No_Match",NA,NA,NA,NA
351725,"PO BOX 521","NOTTINGHAM","PA",19362,NA,NA,225,"PO BOX 521, NOTTINGHAM, PA, 19362","No_Match",NA,NA,NA,NA
351726,"PO BOX 521","PAPAIKOU","HI",96781,NA,NA,226,"PO BOX 521, PAPAIKOU, HI, 96781","No_Match",NA,NA,NA,NA
351727,"PO BOX 521","PEARBLOSSOM","CA",93553,NA,NA,227,"PO BOX 521, PEARBLOSSOM, CA, 93553","No_Match",NA,NA,NA,NA
351728,"PO BOX 521","PELLA","IA",50219,NA,NA,228,"PO BOX 521, PELLA, IA, 50219","No_Match",NA,NA,NA,NA
351729,"PO BOX 521","QUITAQUE","TX",79255,NA,NA,229,"PO BOX 521, QUITAQUE, TX, 79255","No_Match",NA,NA,NA,NA
351730,"PO BOX 521","SCIOTA","PA",18354,NA,NA,230,"PO BOX 521, SCIOTA, PA, 18354","No_Match",NA,NA,NA,NA
351731,"PO BOX 521","SPARTA","WI",54656,NA,NA,231,"PO BOX 521, SPARTA, WI, 54656","No_Match",NA,NA,NA,NA
351732,"PO BOX 521","TRYON","NC",28782,NA,NA,232,"PO BOX 521, TRYON, NC, 28782","No_Match",NA,NA,NA,NA
351733,"PO BOX 521","VALLEY VIEW","TX",76272,NA,NA,233,"PO BOX 521, VALLEY VIEW, TX, 76272","No_Match",NA,NA,NA,NA
351734,"PO BOX 521","WATERTOWN","SD",57201,NA,NA,234,"PO BOX 521, WATERTOWN, SD, 57201","No_Match",NA,NA,NA,NA
351735,"PO BOX 521","WELLSVILLE","NY",14895,NA,NA,235,"PO BOX 521, WELLSVILLE, NY, 14895","No_Match",NA,NA,NA,NA
351736,"PO BOX 5210","CLEVELAND","TN",37320,NA,NA,236,"PO BOX 5210, CLEVELAND, TN, 37320","No_Match",NA,NA,NA,NA
351737,"PO BOX 5211","PORTSMOUTH","VA",23703,NA,NA,237,"PO BOX 5211, PORTSMOUTH, VA, 23703","No_Match",NA,NA,NA,NA
351738,"PO BOX 5211","WILLOWICK","OH",44095,NA,NA,238,"PO BOX 5211, WILLOWICK, OH, 44095","No_Match",NA,NA,NA,NA
351739,"PO BOX 521196","BIG LAKE","AK",99652,NA,NA,239,"PO BOX 521196, BIG LAKE, AK, 99652","No_Match",NA,NA,NA,NA
351740,"PO BOX 5212","DALLAS","TX",75208,NA,NA,240,"PO BOX 5212, DALLAS, TX, 75208","No_Match",NA,NA,NA,NA
351741,"PO BOX 5212","SPRINGFIELD","MO",65801,NA,NA,241,"PO BOX 5212, SPRINGFIELD, MO, 65801","No_Match",NA,NA,NA,NA
351742,"PO BOX 5213","COVINGTON","LA",70434,NA,NA,242,"PO BOX 5213, COVINGTON, LA, 70434","No_Match",NA,NA,NA,NA
351743,"PO BOX 5213","KINGSHILL","VI",851,NA,NA,243,"PO BOX 5213, KINGSHILL, VI, 851","No_Match",NA,NA,NA,NA
351744,"PO BOX 5213","PALM SPRINGS","CA",92263,NA,NA,244,"PO BOX 5213, PALM SPRINGS, CA, 92263","No_Match",NA,NA,NA,NA
351745,"PO BOX 5214","SAN JOSE","CA",95150,NA,NA,245,"PO BOX 5214, SAN JOSE, CA, 95150","No_Match",NA,NA,NA,NA
351746,"PO BOX 5214","SAVANNAH","GA",31414,NA,NA,246,"PO BOX 5214, SAVANNAH, GA, 31414","No_Match",NA,NA,NA,NA
351747,"PO BOX 5215","TOLEDO","OH",43611,NA,NA,247,"PO BOX 5215, TOLEDO, OH, 43611","No_Match",NA,NA,NA,NA
351748,"PO BOX 52158","NEW ORLEANS","LA",70152,NA,NA,248,"PO BOX 52158, NEW ORLEANS, LA, 70152","No_Match",NA,NA,NA,NA
351749,"PO BOX 5216","ASHEVILLE","NC",28813,NA,NA,249,"PO BOX 5216, ASHEVILLE, NC, 28813","No_Match",NA,NA,NA,NA
351750,"PO BOX 521783","BIG LAKE","AK",99652,NA,NA,250,"PO BOX 521783, BIG LAKE, AK, 99652","No_Match",NA,NA,NA,NA
351751,"PO BOX 52186","PHILADELPHIA","PA",19115,NA,NA,251,"PO BOX 52186, PHILADELPHIA, PA, 19115","No_Match",NA,NA,NA,NA
351752,"PO BOX 522","BRICE","OH",43109,NA,NA,252,"PO BOX 522, BRICE, OH, 43109","No_Match",NA,NA,NA,NA
351753,"PO BOX 522","EAST BERNARD","TX",77435,NA,NA,253,"PO BOX 522, EAST BERNARD, TX, 77435","No_Match",NA,NA,NA,NA
351754,"PO BOX 522","EAST GREENWICH","RI",2818,NA,NA,254,"PO BOX 522, EAST GREENWICH, RI, 2818","No_Match",NA,NA,NA,NA
351755,"PO BOX 522","GOWER","MO",64454,NA,NA,255,"PO BOX 522, GOWER, MO, 64454","No_Match",NA,NA,NA,NA
351756,"PO BOX 522","HILLSBORO","MO",63050,NA,NA,256,"PO BOX 522, HILLSBORO, MO, 63050","No_Match",NA,NA,NA,NA
351757,"PO BOX 522","JESUP","GA",31598,NA,NA,257,"PO BOX 522, JESUP, GA, 31598","No_Match",NA,NA,NA,NA
351758,"PO BOX 522","LAKE FOREST","IL",60045,NA,NA,258,"PO BOX 522, LAKE FOREST, IL, 60045","No_Match",NA,NA,NA,NA
351759,"PO BOX 522","NAPLES","NC",28760,NA,NA,259,"PO BOX 522, NAPLES, NC, 28760","No_Match",NA,NA,NA,NA
351760,"PO BOX 522","ROSEBUD","TX",76570,NA,NA,260,"PO BOX 522, ROSEBUD, TX, 76570","No_Match",NA,NA,NA,NA
351761,"PO BOX 522","SAINT CLAIRSVILLE","OH",43950,NA,NA,261,"PO BOX 522, SAINT CLAIRSVILLE, OH, 43950","No_Match",NA,NA,NA,NA
351762,"PO BOX 522","SOQUEL","CA",95073,NA,NA,262,"PO BOX 522, SOQUEL, CA, 95073","No_Match",NA,NA,NA,NA
351763,"PO BOX 522","WALKERTOWN","NC",27051,NA,NA,263,"PO BOX 522, WALKERTOWN, NC, 27051","No_Match",NA,NA,NA,NA
351764,"PO BOX 522","WILSON","KS",67490,NA,NA,264,"PO BOX 522, WILSON, KS, 67490","No_Match",NA,NA,NA,NA
351765,"PO BOX 5220","CHARLESTON","WV",25361,NA,NA,265,"PO BOX 5220, CHARLESTON, WV, 25361","No_Match",NA,NA,NA,NA
351766,"PO BOX 52202","OXNARD","CA",93031,NA,NA,266,"PO BOX 52202, OXNARD, CA, 93031","No_Match",NA,NA,NA,NA
351767,"PO BOX 52208","OXNARD","CA",93036,NA,NA,267,"PO BOX 52208, OXNARD, CA, 93036","No_Match",NA,NA,NA,NA
351768,"PO BOX 522097","SALT LAKE CITY","UT",84152,NA,NA,268,"PO BOX 522097, SALT LAKE CITY, UT, 84152","No_Match",NA,NA,NA,NA
351769,"PO BOX 5221","GREENVILLE","SC",29606,NA,NA,269,"PO BOX 5221, GREENVILLE, SC, 29606","No_Match",NA,NA,NA,NA
351770,"PO BOX 52224","BOSTON","MA",2205,NA,NA,270,"PO BOX 52224, BOSTON, MA, 2205","No_Match",NA,NA,NA,NA
351771,"PO BOX 5223","BEVERLY","MA",1915,NA,NA,271,"PO BOX 5223, BEVERLY, MA, 1915","No_Match",NA,NA,NA,NA
351772,"PO BOX 522354","SALT LAKE CITY","UT",84152,NA,NA,272,"PO BOX 522354, SALT LAKE CITY, UT, 84152","No_Match",NA,NA,NA,NA
351773,"PO BOX 5224","HUNTSVILLE","AL",35814,NA,NA,273,"PO BOX 5224, HUNTSVILLE, AL, 35814","No_Match",NA,NA,NA,NA
351774,"PO BOX 522424","LONGWOOD","FL",32752,NA,NA,274,"PO BOX 522424, LONGWOOD, FL, 32752","No_Match",NA,NA,NA,NA
351775,"PO BOX 52247","MESA","AZ",85208,NA,NA,275,"PO BOX 52247, MESA, AZ, 85208","No_Match",NA,NA,NA,NA
351776,"PO BOX 52253","DURHAM","NC",27717,NA,NA,276,"PO BOX 52253, DURHAM, NC, 27717","No_Match",NA,NA,NA,NA
351777,"PO BOX 52253","IDAHO FALLS","ID",83405,NA,NA,277,"PO BOX 52253, IDAHO FALLS, ID, 83405","No_Match",NA,NA,NA,NA
351778,"PO BOX 52256","MIDLAND","TX",79710,NA,NA,278,"PO BOX 52256, MIDLAND, TX, 79710","No_Match",NA,NA,NA,NA
351779,"PO BOX 5226","JACKSON","MS",39296,NA,NA,279,"PO BOX 5226, JACKSON, MS, 39296","No_Match",NA,NA,NA,NA
351780,"PO BOX 5227","BUFFALO GROVE","IL",60089,NA,NA,280,"PO BOX 5227, BUFFALO GROVE, IL, 60089","No_Match",NA,NA,NA,NA
351781,"PO BOX 5227","DALLAS","TX",75208,NA,NA,281,"PO BOX 5227, DALLAS, TX, 75208","No_Match",NA,NA,NA,NA
351782,"PO BOX 5227","EVANSTON","IL",60201,NA,NA,282,"PO BOX 5227, EVANSTON, IL, 60201","No_Match",NA,NA,NA,NA
351783,"PO BOX 523 300 EAST BROADWAY","WAUKESHA","WI",53188,NA,NA,283,"PO BOX 523 300 EAST BROADWAY, WAUKESHA, WI, 53188","No_Match",NA,NA,NA,NA
351784,"PO BOX 523","ALLEGAN","MI",49010,NA,NA,284,"PO BOX 523, ALLEGAN, MI, 49010","No_Match",NA,NA,NA,NA
351785,"PO BOX 523","ALTAVISTA","VA",24517,NA,NA,285,"PO BOX 523, ALTAVISTA, VA, 24517","No_Match",NA,NA,NA,NA
351786,"PO BOX 523","ARDSLEY","NY",10502,NA,NA,286,"PO BOX 523, ARDSLEY, NY, 10502","No_Match",NA,NA,NA,NA
351787,"PO BOX 523","CHELTENHAM","MD",20623,NA,NA,287,"PO BOX 523, CHELTENHAM, MD, 20623","No_Match",NA,NA,NA,NA
351788,"PO BOX 523","COOPERSTOWN","NY",13326,NA,NA,288,"PO BOX 523, COOPERSTOWN, NY, 13326","No_Match",NA,NA,NA,NA
351789,"PO BOX 523","COQUILLE","OR",97423,NA,NA,289,"PO BOX 523, COQUILLE, OR, 97423","No_Match",NA,NA,NA,NA
351790,"PO BOX 523","FAYETTEVILLE","GA",30214,NA,NA,290,"PO BOX 523, FAYETTEVILLE, GA, 30214","No_Match",NA,NA,NA,NA
351791,"PO BOX 523","FORT MYERS","FL",33902,NA,NA,291,"PO BOX 523, FORT MYERS, FL, 33902","No_Match",NA,NA,NA,NA
351792,"PO BOX 523","HALFWAY","OR",97834,NA,NA,292,"PO BOX 523, HALFWAY, OR, 97834","No_Match",NA,NA,NA,NA
351793,"PO BOX 523","HALIFAX","MA",2338,NA,NA,293,"PO BOX 523, HALIFAX, MA, 2338","No_Match",NA,NA,NA,NA
351794,"PO BOX 523","HASTINGS","MI",49058,NA,NA,294,"PO BOX 523, HASTINGS, MI, 49058","No_Match",NA,NA,NA,NA
351795,"PO BOX 523","HELOTES","TX",78023,NA,NA,295,"PO BOX 523, HELOTES, TX, 78023","No_Match",NA,NA,NA,NA
351796,"PO BOX 523","HENDERSONVILLE","NC",28793,NA,NA,296,"PO BOX 523, HENDERSONVILLE, NC, 28793","No_Match",NA,NA,NA,NA
351797,"PO BOX 523","HUNTERSVILLE","NC",28078,NA,NA,297,"PO BOX 523, HUNTERSVILLE, NC, 28078","No_Match",NA,NA,NA,NA
351798,"PO BOX 523","KOKOMO","IN",46903,NA,NA,298,"PO BOX 523, KOKOMO, IN, 46903","No_Match",NA,NA,NA,NA
351799,"PO BOX 523","LEVELLAND","TX",79336,NA,NA,299,"PO BOX 523, LEVELLAND, TX, 79336","No_Match",NA,NA,NA,NA
351800,"PO BOX 523","MARTINSBURG","WV",25402,NA,NA,300,"PO BOX 523, MARTINSBURG, WV, 25402","No_Match",NA,NA,NA,NA
351801,"PO BOX 523","NEW LONDON","MN",56273,NA,NA,301,"PO BOX 523, NEW LONDON, MN, 56273","No_Match",NA,NA,NA,NA
351802,"PO BOX 523","NORTH BLOOMFIELD","OH",44450,NA,NA,302,"PO BOX 523, NORTH BLOOMFIELD, OH, 44450","No_Match",NA,NA,NA,NA
351803,"PO BOX 523","PAGO PAGO","AS",96799,NA,NA,303,"PO BOX 523, PAGO PAGO, AS, 96799","No_Match",NA,NA,NA,NA
351804,"PO BOX 523","PRAIRIE DU CHIEN","WI",53821,NA,NA,304,"PO BOX 523, PRAIRIE DU CHIEN, WI, 53821","No_Match",NA,NA,NA,NA
351805,"PO BOX 523","SOUTHINGTON","CT",6489,NA,NA,305,"PO BOX 523, SOUTHINGTON, CT, 6489","No_Match",NA,NA,NA,NA
351806,"PO BOX 523","STOCKTON","NJ",8559,NA,NA,306,"PO BOX 523, STOCKTON, NJ, 8559","No_Match",NA,NA,NA,NA
351807,"PO BOX 523","SYCAMORE","IL",60178,NA,NA,307,"PO BOX 523, SYCAMORE, IL, 60178","No_Match",NA,NA,NA,NA
351808,"PO BOX 523","WALDPORT","OR",97394,NA,NA,308,"PO BOX 523, WALDPORT, OR, 97394","No_Match",NA,NA,NA,NA
351809,"PO BOX 523","WEST FARGO","ND",58078,NA,NA,309,"PO BOX 523, WEST FARGO, ND, 58078","No_Match",NA,NA,NA,NA
351810,"PO BOX 52302","SHREVEPORT","LA",71135,NA,NA,310,"PO BOX 52302, SHREVEPORT, LA, 71135","No_Match",NA,NA,NA,NA
351811,"PO BOX 5232","PORTLAND","OR",97208,NA,NA,311,"PO BOX 5232, PORTLAND, OR, 97208","No_Match",NA,NA,NA,NA
351812,"PO BOX 5232","VICTORIA","TX",77903,NA,NA,312,"PO BOX 5232, VICTORIA, TX, 77903","No_Match",NA,NA,NA,NA
351813,"PO BOX 523285","SPRINGFIELD","VA",22152,NA,NA,313,"PO BOX 523285, SPRINGFIELD, VA, 22152","No_Match",NA,NA,NA,NA
351814,"PO BOX 5233","NORTH BRANCH","NJ",8876,NA,NA,314,"PO BOX 5233, NORTH BRANCH, NJ, 8876","No_Match",NA,NA,NA,NA
351815,"PO BOX 52337","SHAW AFB","SC",29152,NA,NA,315,"PO BOX 52337, SHAW AFB, SC, 29152","No_Match",NA,NA,NA,NA
351816,"PO BOX 523383","SPRINGFIELD","VA",22152,NA,NA,316,"PO BOX 523383, SPRINGFIELD, VA, 22152","No_Match",NA,NA,NA,NA
351817,"PO BOX 52362","SHREVEPORT","LA",71135,NA,NA,317,"PO BOX 52362, SHREVEPORT, LA, 71135","No_Match",NA,NA,NA,NA
351818,"PO BOX 5238","MARIETTA","GA",30061,NA,NA,318,"PO BOX 5238, MARIETTA, GA, 30061","No_Match",NA,NA,NA,NA
351819,"PO BOX 524 125 W BROWN STREET","GLADWIN","MI",48612,43.8822334210001,-84.487338483,319,"PO BOX 524 125 W BROWN STREET, GLADWIN, MI, 48612","Match","Non_Exact","125 W BROWN ST, BEAVERTON, MI, 48612",110422876,"L"
351820,"PO BOX 524","ALBERT LEA","MN",56007,NA,NA,320,"PO BOX 524, ALBERT LEA, MN, 56007","No_Match",NA,NA,NA,NA
351821,"PO BOX 524","COLLEYVILLE","TX",76034,NA,NA,321,"PO BOX 524, COLLEYVILLE, TX, 76034","No_Match",NA,NA,NA,NA
351822,"PO BOX 524","DORA","AL",35062,NA,NA,322,"PO BOX 524, DORA, AL, 35062","No_Match",NA,NA,NA,NA
351823,"PO BOX 524","DUNSMUIR","CA",96025,NA,NA,323,"PO BOX 524, DUNSMUIR, CA, 96025","No_Match",NA,NA,NA,NA
351824,"PO BOX 524","EAU CLAIRE","WI",54702,NA,NA,324,"PO BOX 524, EAU CLAIRE, WI, 54702","No_Match",NA,NA,NA,NA
351825,"PO BOX 524","ELKADER","IA",52043,NA,NA,325,"PO BOX 524, ELKADER, IA, 52043","No_Match",NA,NA,NA,NA
351826,"PO BOX 524","FARMVILLE","VA",23901,NA,NA,326,"PO BOX 524, FARMVILLE, VA, 23901","No_Match",NA,NA,NA,NA
351827,"PO BOX 524","FLINT","MI",48501,NA,NA,327,"PO BOX 524, FLINT, MI, 48501","No_Match",NA,NA,NA,NA
351828,"PO BOX 524","GILBERT","IA",50105,NA,NA,328,"PO BOX 524, GILBERT, IA, 50105","No_Match",NA,NA,NA,NA
351829,"PO BOX 524","GRAPEVIEW","WA",98546,NA,NA,329,"PO BOX 524, GRAPEVIEW, WA, 98546","No_Match",NA,NA,NA,NA
351830,"PO BOX 524","HUNTINGTON BEACH","CA",92648,NA,NA,330,"PO BOX 524, HUNTINGTON BEACH, CA, 92648","No_Match",NA,NA,NA,NA
351831,"PO BOX 524","HUNTLEY","MT",59037,NA,NA,331,"PO BOX 524, HUNTLEY, MT, 59037","No_Match",NA,NA,NA,NA
351832,"PO BOX 524","LANDER","WY",82520,NA,NA,332,"PO BOX 524, LANDER, WY, 82520","No_Match",NA,NA,NA,NA
351833,"PO BOX 524","LITHONIA","GA",30058,NA,NA,333,"PO BOX 524, LITHONIA, GA, 30058","No_Match",NA,NA,NA,NA
351834,"PO BOX 524","MANHATTAN","IL",60442,NA,NA,334,"PO BOX 524, MANHATTAN, IL, 60442","No_Match",NA,NA,NA,NA
351835,"PO BOX 524","MARION","OH",43301,NA,NA,335,"PO BOX 524, MARION, OH, 43301","No_Match",NA,NA,NA,NA
351836,"PO BOX 524","NORTON","MA",2766,NA,NA,336,"PO BOX 524, NORTON, MA, 2766","No_Match",NA,NA,NA,NA
351837,"PO BOX 524","OREGON","IL",61061,NA,NA,337,"PO BOX 524, OREGON, IL, 61061","No_Match",NA,NA,NA,NA
351838,"PO BOX 524","ORWELL","OH",44076,NA,NA,338,"PO BOX 524, ORWELL, OH, 44076","No_Match",NA,NA,NA,NA
351839,"PO BOX 524","PRINCEVILLE","IL",61559,NA,NA,339,"PO BOX 524, PRINCEVILLE, IL, 61559","No_Match",NA,NA,NA,NA
351840,"PO BOX 524","RED OAK","NC",27868,NA,NA,340,"PO BOX 524, RED OAK, NC, 27868","No_Match",NA,NA,NA,NA
351841,"PO BOX 524","SIKESTON","MO",63801,NA,NA,341,"PO BOX 524, SIKESTON, MO, 63801","No_Match",NA,NA,NA,NA
351842,"PO BOX 524","WEATHERFORD","TX",76086,NA,NA,342,"PO BOX 524, WEATHERFORD, TX, 76086","No_Match",NA,NA,NA,NA
351843,"PO BOX 524","WHEELERSBURG","OH",45694,NA,NA,343,"PO BOX 524, WHEELERSBURG, OH, 45694","No_Match",NA,NA,NA,NA
351844,"PO BOX 524","YAZOO CITY","MS",39194,NA,NA,344,"PO BOX 524, YAZOO CITY, MS, 39194","No_Match",NA,NA,NA,NA
351845,"PO BOX 5243","BOZEMAN","MT",59717,NA,NA,345,"PO BOX 5243, BOZEMAN, MT, 59717","No_Match",NA,NA,NA,NA
351846,"PO BOX 5243","SANTA FE","NM",87502,NA,NA,346,"PO BOX 5243, SANTA FE, NM, 87502","No_Match",NA,NA,NA,NA
351847,"PO BOX 5243","VIRGINIA BEACH","VA",23471,NA,NA,347,"PO BOX 5243, VIRGINIA BEACH, VA, 23471","No_Match",NA,NA,NA,NA
351848,"PO BOX 5243","WAKEFIELD","RI",2880,NA,NA,348,"PO BOX 5243, WAKEFIELD, RI, 2880","No_Match",NA,NA,NA,NA
351849,"PO BOX 5244","AKRON","OH",44334,NA,NA,349,"PO BOX 5244, AKRON, OH, 44334","No_Match",NA,NA,NA,NA
351850,"PO BOX 5244","GAINESVILLE","GA",30504,NA,NA,350,"PO BOX 5244, GAINESVILLE, GA, 30504","No_Match",NA,NA,NA,NA
351851,"PO BOX 5245","BILLERICA","MA",1822,NA,NA,351,"PO BOX 5245, BILLERICA, MA, 1822","No_Match",NA,NA,NA,NA
351852,"PO BOX 5245","GREENSBORO","NC",27435,NA,NA,352,"PO BOX 5245, GREENSBORO, NC, 27435","No_Match",NA,NA,NA,NA
351853,"PO BOX 5245","TERRE HAUTE","IN",47805,NA,NA,353,"PO BOX 5245, TERRE HAUTE, IN, 47805","No_Match",NA,NA,NA,NA
351854,"PO BOX 5248","POLAND","OH",44514,NA,NA,354,"PO BOX 5248, POLAND, OH, 44514","No_Match",NA,NA,NA,NA
351855,"PO BOX 525","ANAHUAC","TX",77514,NA,NA,355,"PO BOX 525, ANAHUAC, TX, 77514","No_Match",NA,NA,NA,NA
351856,"PO BOX 525","BLACKWOOD","NJ",8012,NA,NA,356,"PO BOX 525, BLACKWOOD, NJ, 8012","No_Match",NA,NA,NA,NA
351857,"PO BOX 525","CEDAR KEY","FL",32625,NA,NA,357,"PO BOX 525, CEDAR KEY, FL, 32625","No_Match",NA,NA,NA,NA
351858,"PO BOX 525","EAGLE POINT","OR",97524,NA,NA,358,"PO BOX 525, EAGLE POINT, OR, 97524","No_Match",NA,NA,NA,NA
351859,"PO BOX 525","EL CAMPO","TX",77437,NA,NA,359,"PO BOX 525, EL CAMPO, TX, 77437","No_Match",NA,NA,NA,NA
351860,"PO BOX 525","MISSION","KS",66201,NA,NA,360,"PO BOX 525, MISSION, KS, 66201","No_Match",NA,NA,NA,NA
351861,"PO BOX 525","MOODY","TX",76557,NA,NA,361,"PO BOX 525, MOODY, TX, 76557","No_Match",NA,NA,NA,NA
351862,"PO BOX 525","PALMYRA","PA",17078,NA,NA,362,"PO BOX 525, PALMYRA, PA, 17078","No_Match",NA,NA,NA,NA
351863,"PO BOX 525","TIVERTON","RI",2878,NA,NA,363,"PO BOX 525, TIVERTON, RI, 2878","No_Match",NA,NA,NA,NA
351864,"PO BOX 52512","IRVINE","CA",92619,NA,NA,364,"PO BOX 52512, IRVINE, CA, 92619","No_Match",NA,NA,NA,NA
351865,"PO BOX 5252","GARDENA","CA",90249,NA,NA,365,"PO BOX 5252, GARDENA, CA, 90249","No_Match",NA,NA,NA,NA
351866,"PO BOX 52522","DURHAM","NC",27717,NA,NA,366,"PO BOX 52522, DURHAM, NC, 27717","No_Match",NA,NA,NA,NA
351867,"PO BOX 5254","ALBUQUERQUE","NM",87185,NA,NA,367,"PO BOX 5254, ALBUQUERQUE, NM, 87185","No_Match",NA,NA,NA,NA
351868,"PO BOX 52546","HOUSTON","TX",77052,NA,NA,368,"PO BOX 52546, HOUSTON, TX, 77052","No_Match",NA,NA,NA,NA
351869,"PO BOX 52552","SHAW AFB","SC",29152,NA,NA,369,"PO BOX 52552, SHAW AFB, SC, 29152","No_Match",NA,NA,NA,NA
351870,"PO BOX 5257","SAN PEDRO","CA",90733,NA,NA,370,"PO BOX 5257, SAN PEDRO, CA, 90733","No_Match",NA,NA,NA,NA
351871,"PO BOX 526","ANGELS CAMP","CA",95222,NA,NA,371,"PO BOX 526, ANGELS CAMP, CA, 95222","No_Match",NA,NA,NA,NA
351872,"PO BOX 526","BROOKSHIRE","TX",77423,NA,NA,372,"PO BOX 526, BROOKSHIRE, TX, 77423","No_Match",NA,NA,NA,NA
351873,"PO BOX 526","DECHERD","TN",37324,NA,NA,373,"PO BOX 526, DECHERD, TN, 37324","No_Match",NA,NA,NA,NA
351874,"PO BOX 526","HOPKINSVILLE","KY",42241,NA,NA,374,"PO BOX 526, HOPKINSVILLE, KY, 42241","No_Match",NA,NA,NA,NA
351875,"PO BOX 526","LAKE WALES","FL",33859,NA,NA,375,"PO BOX 526, LAKE WALES, FL, 33859","No_Match",NA,NA,NA,NA
351876,"PO BOX 526","LONDONDERRY","VT",5148,NA,NA,376,"PO BOX 526, LONDONDERRY, VT, 5148","No_Match",NA,NA,NA,NA
351877,"PO BOX 526","MANASQUAN","NJ",8736,NA,NA,377,"PO BOX 526, MANASQUAN, NJ, 8736","No_Match",NA,NA,NA,NA
351878,"PO BOX 526","MARKESAN","WI",53946,NA,NA,378,"PO BOX 526, MARKESAN, WI, 53946","No_Match",NA,NA,NA,NA
351879,"PO BOX 526","MERCEDITA","PR",715,NA,NA,379,"PO BOX 526, MERCEDITA, PR, 715","No_Match",NA,NA,NA,NA
351880,"PO BOX 526","MONTICELLO","IN",47960,NA,NA,380,"PO BOX 526, MONTICELLO, IN, 47960","No_Match",NA,NA,NA,NA
351881,"PO BOX 526","OKAHUMPKA","FL",34762,NA,NA,381,"PO BOX 526, OKAHUMPKA, FL, 34762","No_Match",NA,NA,NA,NA
351882,"PO BOX 526","SAINT JOSEPH","MI",49085,NA,NA,382,"PO BOX 526, SAINT JOSEPH, MI, 49085","No_Match",NA,NA,NA,NA
351883,"PO BOX 526","SEARSPORT","ME",4974,NA,NA,383,"PO BOX 526, SEARSPORT, ME, 4974","No_Match",NA,NA,NA,NA
351884,"PO BOX 526","STAFFORD","TX",77497,NA,NA,384,"PO BOX 526, STAFFORD, TX, 77497","No_Match",NA,NA,NA,NA
351885,"PO BOX 526","STRATFORD","CT",6614,NA,NA,385,"PO BOX 526, STRATFORD, CT, 6614","No_Match",NA,NA,NA,NA
351886,"PO BOX 526082","SALT LAKE CITY","UT",84152,NA,NA,386,"PO BOX 526082, SALT LAKE CITY, UT, 84152","No_Match",NA,NA,NA,NA
351887,"PO BOX 5262","CHARLESTON","WV",25361,NA,NA,387,"PO BOX 5262, CHARLESTON, WV, 25361","No_Match",NA,NA,NA,NA
351888,"PO BOX 5262","OXNARD","CA",93031,NA,NA,388,"PO BOX 5262, OXNARD, CA, 93031","No_Match",NA,NA,NA,NA
351889,"PO BOX 52626","BOSTON","MA",2205,NA,NA,389,"PO BOX 52626, BOSTON, MA, 2205","No_Match",NA,NA,NA,NA
351890,"PO BOX 5264","BUENA VISTA","CO",81211,NA,NA,390,"PO BOX 5264, BUENA VISTA, CO, 81211","No_Match",NA,NA,NA,NA
351891,"PO BOX 5264","SUN CITY CENTER","FL",33751,NA,NA,391,"PO BOX 5264, SUN CITY CENTER, FL, 33751","No_Match",NA,NA,NA,NA
351892,"PO BOX 526439","SALT LAKE CITY","UT",84152,NA,NA,392,"PO BOX 526439, SALT LAKE CITY, UT, 84152","No_Match",NA,NA,NA,NA
351893,"PO BOX 5265","MADISON","WI",53705,NA,NA,393,"PO BOX 5265, MADISON, WI, 53705","No_Match",NA,NA,NA,NA
351894,"PO BOX 52654","ATLANTA","GA",30355,NA,NA,394,"PO BOX 52654, ATLANTA, GA, 30355","No_Match",NA,NA,NA,NA
351895,"PO BOX 52696","RIVERSIDE","CA",92517,NA,NA,395,"PO BOX 52696, RIVERSIDE, CA, 92517","No_Match",NA,NA,NA,NA
351896,"PO BOX 527","CARLISLE","PA",17013,NA,NA,396,"PO BOX 527, CARLISLE, PA, 17013","No_Match",NA,NA,NA,NA
351897,"PO BOX 527","GREENVILLE","RI",2828,NA,NA,397,"PO BOX 527, GREENVILLE, RI, 2828","No_Match",NA,NA,NA,NA
351898,"PO BOX 527","HUNTERSVILLE","NC",28070,NA,NA,398,"PO BOX 527, HUNTERSVILLE, NC, 28070","No_Match",NA,NA,NA,NA
351899,"PO BOX 527","NYE","MT",59061,NA,NA,399,"PO BOX 527, NYE, MT, 59061","No_Match",NA,NA,NA,NA
351900,"PO BOX 527","SUTTONS BAY","MI",49682,NA,NA,400,"PO BOX 527, SUTTONS BAY, MI, 49682","No_Match",NA,NA,NA,NA
351901,"PO BOX 527","WORTHINGTON","OH",43085,NA,NA,401,"PO BOX 527, WORTHINGTON, OH, 43085","No_Match",NA,NA,NA,NA
351902,"PO BOX 52705","DURHAM","NC",27707,NA,NA,402,"PO BOX 52705, DURHAM, NC, 27707","No_Match",NA,NA,NA,NA
351903,"PO BOX 52726","ATLANTA","GA",30355,NA,NA,403,"PO BOX 52726, ATLANTA, GA, 30355","No_Match",NA,NA,NA,NA
351904,"PO BOX 5274","CHICO","CA",95927,NA,NA,404,"PO BOX 5274, CHICO, CA, 95927","No_Match",NA,NA,NA,NA
351905,"PO BOX 5274","TWIN FALLS","ID",83303,NA,NA,405,"PO BOX 5274, TWIN FALLS, ID, 83303","No_Match",NA,NA,NA,NA
351906,"PO BOX 5275","CHINO VALLEY","AZ",86323,NA,NA,406,"PO BOX 5275, CHINO VALLEY, AZ, 86323","No_Match",NA,NA,NA,NA
351907,"PO BOX 5275","FLORENCE","SC",29502,NA,NA,407,"PO BOX 5275, FLORENCE, SC, 29502","No_Match",NA,NA,NA,NA
351908,"PO BOX 5275","MACON","GA",31213,NA,NA,408,"PO BOX 5275, MACON, GA, 31213","No_Match",NA,NA,NA,NA
351909,"PO BOX 5276","PASADENA","TX",77505,NA,NA,409,"PO BOX 5276, PASADENA, TX, 77505","No_Match",NA,NA,NA,NA
351910,"PO BOX 5278","KETCHIKAN","AK",99901,NA,NA,410,"PO BOX 5278, KETCHIKAN, AK, 99901","No_Match",NA,NA,NA,NA
351911,"PO BOX 5278","MCALLEN","TX",78502,NA,NA,411,"PO BOX 5278, MCALLEN, TX, 78502","No_Match",NA,NA,NA,NA
351912,"PO BOX 528","BRICK","NJ",8723,NA,NA,412,"PO BOX 528, BRICK, NJ, 8723","No_Match",NA,NA,NA,NA
351913,"PO BOX 528","CAMBRIDGE","MN",55008,NA,NA,413,"PO BOX 528, CAMBRIDGE, MN, 55008","No_Match",NA,NA,NA,NA
351914,"PO BOX 528","EVERSON","WA",98247,NA,NA,414,"PO BOX 528, EVERSON, WA, 98247","No_Match",NA,NA,NA,NA
351915,"PO BOX 528","PETERSBURG","AK",99833,NA,NA,415,"PO BOX 528, PETERSBURG, AK, 99833","No_Match",NA,NA,NA,NA
351916,"PO BOX 528","ROCKVILLE CENTRE","NY",11571,NA,NA,416,"PO BOX 528, ROCKVILLE CENTRE, NY, 11571","No_Match",NA,NA,NA,NA
351917,"PO BOX 528","SCIENCE HILL","KY",42553,NA,NA,417,"PO BOX 528, SCIENCE HILL, KY, 42553","No_Match",NA,NA,NA,NA
351918,"PO BOX 528","ZOAR","OH",44697,NA,NA,418,"PO BOX 528, ZOAR, OH, 44697","No_Match",NA,NA,NA,NA
351919,"PO BOX 5280","MISSION","TX",78572,NA,NA,419,"PO BOX 5280, MISSION, TX, 78572","No_Match",NA,NA,NA,NA
351920,"PO BOX 52820","TULSA","OK",74152,NA,NA,420,"PO BOX 52820, TULSA, OK, 74152","No_Match",NA,NA,NA,NA
351921,"PO BOX 5283","SYLVESTER","GA",31791,NA,NA,421,"PO BOX 5283, SYLVESTER, GA, 31791","No_Match",NA,NA,NA,NA
351922,"PO BOX 5284","BELLINGHAM","WA",98227,NA,NA,422,"PO BOX 5284, BELLINGHAM, WA, 98227","No_Match",NA,NA,NA,NA
351923,"PO BOX 52843","NEW ORLEANS","LA",70152,NA,NA,423,"PO BOX 52843, NEW ORLEANS, LA, 70152","No_Match",NA,NA,NA,NA
351924,"PO BOX 5285","FRISCO","TX",75035,NA,NA,424,"PO BOX 5285, FRISCO, TX, 75035","No_Match",NA,NA,NA,NA
351925,"PO BOX 5287","SALTON CITY","CA",92275,NA,NA,425,"PO BOX 5287, SALTON CITY, CA, 92275","No_Match",NA,NA,NA,NA
351926,"PO BOX 52881","BELLEVUE","WA",98015,NA,NA,426,"PO BOX 52881, BELLEVUE, WA, 98015","No_Match",NA,NA,NA,NA
351927,"PO BOX 52886","MESA","AZ",85208,NA,NA,427,"PO BOX 52886, MESA, AZ, 85208","No_Match",NA,NA,NA,NA
351928,"PO BOX 52896","HOUSTON","TX",77052,NA,NA,428,"PO BOX 52896, HOUSTON, TX, 77052","No_Match",NA,NA,NA,NA
351929,"PO BOX 529","CORNVILLE","AZ",86325,NA,NA,429,"PO BOX 529, CORNVILLE, AZ, 86325","No_Match",NA,NA,NA,NA
351930,"PO BOX 529","FARMINGDALE","NJ",7727,NA,NA,430,"PO BOX 529, FARMINGDALE, NJ, 7727","No_Match",NA,NA,NA,NA
351931,"PO BOX 529","KIRTLAND","NM",87417,NA,NA,431,"PO BOX 529, KIRTLAND, NM, 87417","No_Match",NA,NA,NA,NA
351932,"PO BOX 529","MARIPOSA","CA",95338,NA,NA,432,"PO BOX 529, MARIPOSA, CA, 95338","No_Match",NA,NA,NA,NA
351933,"PO BOX 529","MATTOON","IL",61938,NA,NA,433,"PO BOX 529, MATTOON, IL, 61938","No_Match",NA,NA,NA,NA
351934,"PO BOX 529","PLACERVILLE","CO",81430,NA,NA,434,"PO BOX 529, PLACERVILLE, CO, 81430","No_Match",NA,NA,NA,NA
351935,"PO BOX 5291","SHREVEPORT","LA",71135,NA,NA,435,"PO BOX 5291, SHREVEPORT, LA, 71135","No_Match",NA,NA,NA,NA
351936,"PO BOX 5291","VALLEJO","CA",94591,NA,NA,436,"PO BOX 5291, VALLEJO, CA, 94591","No_Match",NA,NA,NA,NA
351937,"PO BOX 5293","CHARLOTTE","NC",28299,NA,NA,437,"PO BOX 5293, CHARLOTTE, NC, 28299","No_Match",NA,NA,NA,NA
351938,"PO BOX 5295","HELENA","MT",59604,NA,NA,438,"PO BOX 5295, HELENA, MT, 59604","No_Match",NA,NA,NA,NA
351939,"PO BOX 5296","PITTSBURGH","PA",15206,NA,NA,439,"PO BOX 5296, PITTSBURGH, PA, 15206","No_Match",NA,NA,NA,NA
351940,"PO BOX 5297","STOCKTON","CA",95205,NA,NA,440,"PO BOX 5297, STOCKTON, CA, 95205","No_Match",NA,NA,NA,NA
351941,"PO BOX 52976","KNOXVILLE","TN",37950,NA,NA,441,"PO BOX 52976, KNOXVILLE, TN, 37950","No_Match",NA,NA,NA,NA
351942,"PO BOX 5298","FRISCO","TX",75035,NA,NA,442,"PO BOX 5298, FRISCO, TX, 75035","No_Match",NA,NA,NA,NA
351943,"PO BOX 52989","SARASOTA","FL",34232,NA,NA,443,"PO BOX 52989, SARASOTA, FL, 34232","No_Match",NA,NA,NA,NA
351944,"PO BOX 53     504 5TH AVENUE","NEZPERCE","ID",83543,NA,NA,444,"PO BOX 53     504 5TH AVENUE, NEZPERCE, ID, 83543","No_Match",NA,NA,NA,NA
351945,"PO BOX 53 124 W MAIN","RICEVILLE","IA",50466,43.363844557,-92.555268037,445,"PO BOX 53 124 W MAIN, RICEVILLE, IA, 50466","Match","Non_Exact","124 W MAIN ST, RICEVILLE, IA, 50466",7473783,"R"
351946,"PO BOX 53","ARMONK","NY",10504,NA,NA,446,"PO BOX 53, ARMONK, NY, 10504","No_Match",NA,NA,NA,NA
351947,"PO BOX 53","BELLE VALLEY","OH",43717,NA,NA,447,"PO BOX 53, BELLE VALLEY, OH, 43717","No_Match",NA,NA,NA,NA
351948,"PO BOX 53","BRADFORD","PA",16701,NA,NA,448,"PO BOX 53, BRADFORD, PA, 16701","No_Match",NA,NA,NA,NA
351949,"PO BOX 53","BROOKS","KY",40109,NA,NA,449,"PO BOX 53, BROOKS, KY, 40109","No_Match",NA,NA,NA,NA
351950,"PO BOX 53","CARRIERE","MS",39426,NA,NA,450,"PO BOX 53, CARRIERE, MS, 39426","No_Match",NA,NA,NA,NA
351951,"PO BOX 53","CLARKSTON","WA",99403,NA,NA,451,"PO BOX 53, CLARKSTON, WA, 99403","No_Match",NA,NA,NA,NA
351952,"PO BOX 53","DES PLAINES","IL",60016,NA,NA,452,"PO BOX 53, DES PLAINES, IL, 60016","No_Match",NA,NA,NA,NA
351953,"PO BOX 53","FENTON","MI",48430,NA,NA,453,"PO BOX 53, FENTON, MI, 48430","No_Match",NA,NA,NA,NA
351954,"PO BOX 53","FOLLY BEACH","SC",29439,NA,NA,454,"PO BOX 53, FOLLY BEACH, SC, 29439","No_Match",NA,NA,NA,NA
351955,"PO BOX 53","FOREST CITY","NC",28043,NA,NA,455,"PO BOX 53, FOREST CITY, NC, 28043","No_Match",NA,NA,NA,NA
351956,"PO BOX 53","FRIENDSHIP","WI",53934,NA,NA,456,"PO BOX 53, FRIENDSHIP, WI, 53934","No_Match",NA,NA,NA,NA
351957,"PO BOX 53","HILLSBORO","TX",76645,NA,NA,457,"PO BOX 53, HILLSBORO, TX, 76645","No_Match",NA,NA,NA,NA
351958,"PO BOX 53","HOPKINS","MN",55343,NA,NA,458,"PO BOX 53, HOPKINS, MN, 55343","No_Match",NA,NA,NA,NA
351959,"PO BOX 53","HUNTLEY","MT",59037,NA,NA,459,"PO BOX 53, HUNTLEY, MT, 59037","No_Match",NA,NA,NA,NA
351960,"PO BOX 53","KERNERSVILLE","NC",27285,NA,NA,460,"PO BOX 53, KERNERSVILLE, NC, 27285","No_Match",NA,NA,NA,NA
351961,"PO BOX 53","KINGSTON","WI",53939,NA,NA,461,"PO BOX 53, KINGSTON, WI, 53939","No_Match",NA,NA,NA,NA
351962,"PO BOX 53","LIGNITE","ND",58752,NA,NA,462,"PO BOX 53, LIGNITE, ND, 58752","No_Match",NA,NA,NA,NA
351963,"PO BOX 53","MERRICK","NY",11566,NA,NA,463,"PO BOX 53, MERRICK, NY, 11566","No_Match",NA,NA,NA,NA
351964,"PO BOX 53","ORTONVILLE","MN",56278,NA,NA,464,"PO BOX 53, ORTONVILLE, MN, 56278","No_Match",NA,NA,NA,NA
351965,"PO BOX 53","PARADISE","CA",95967,NA,NA,465,"PO BOX 53, PARADISE, CA, 95967","No_Match",NA,NA,NA,NA
351966,"PO BOX 53","PELHAM","NH",3076,NA,NA,466,"PO BOX 53, PELHAM, NH, 3076","No_Match",NA,NA,NA,NA
351967,"PO BOX 53","PEMBROKE","VA",24136,NA,NA,467,"PO BOX 53, PEMBROKE, VA, 24136","No_Match",NA,NA,NA,NA
351968,"PO BOX 53","PONCHA SPRINGS","CO",81242,NA,NA,468,"PO BOX 53, PONCHA SPRINGS, CO, 81242","No_Match",NA,NA,NA,NA
351969,"PO BOX 53","PRAIRIE LEA","TX",78661,NA,NA,469,"PO BOX 53, PRAIRIE LEA, TX, 78661","No_Match",NA,NA,NA,NA
351970,"PO BOX 53","REYNOLDSVILLE","PA",15851,NA,NA,470,"PO BOX 53, REYNOLDSVILLE, PA, 15851","No_Match",NA,NA,NA,NA
351971,"PO BOX 53","SAND LAKE","NY",12153,NA,NA,471,"PO BOX 53, SAND LAKE, NY, 12153","No_Match",NA,NA,NA,NA
351972,"PO BOX 53","SEAGROVE","NC",27341,NA,NA,472,"PO BOX 53, SEAGROVE, NC, 27341","No_Match",NA,NA,NA,NA
351973,"PO BOX 53","TYRONE","GA",30290,NA,NA,473,"PO BOX 53, TYRONE, GA, 30290","No_Match",NA,NA,NA,NA
351974,"PO BOX 53","UPPERCO","MD",21155,NA,NA,474,"PO BOX 53, UPPERCO, MD, 21155","No_Match",NA,NA,NA,NA
351975,"PO BOX 53","WALLER","TX",77484,NA,NA,475,"PO BOX 53, WALLER, TX, 77484","No_Match",NA,NA,NA,NA
351976,"PO BOX 53","WARROAD","MN",56763,NA,NA,476,"PO BOX 53, WARROAD, MN, 56763","No_Match",NA,NA,NA,NA
351977,"PO BOX 53","WILMETTE","IL",60091,NA,NA,477,"PO BOX 53, WILMETTE, IL, 60091","No_Match",NA,NA,NA,NA
351978,"PO BOX 53","WINFIELD","MO",63389,NA,NA,478,"PO BOX 53, WINFIELD, MO, 63389","No_Match",NA,NA,NA,NA
351979,"PO BOX 530       112 CITY CENTER DR","JEFFERSON CITY","TN",37760,36.111429597,-83.4908881279999,479,"PO BOX 530       112 CITY CENTER DR, JEFFERSON CITY, TN, 37760","Match","Exact","112 CITY CENTER DR, JEFFERSON CITY, TN, 37760",647225042,"R"
351980,"PO BOX 530","BLOOMFIELD","IN",47424,NA,NA,480,"PO BOX 530, BLOOMFIELD, IN, 47424","No_Match",NA,NA,NA,NA
351981,"PO BOX 530","EAST JORDAN","MI",49727,NA,NA,481,"PO BOX 530, EAST JORDAN, MI, 49727","No_Match",NA,NA,NA,NA
351982,"PO BOX 530","MARIPOSA","CA",95338,NA,NA,482,"PO BOX 530, MARIPOSA, CA, 95338","No_Match",NA,NA,NA,NA
351983,"PO BOX 530","MARIPOSA","CA",95538,NA,NA,483,"PO BOX 530, MARIPOSA, CA, 95538","No_Match",NA,NA,NA,NA
351984,"PO BOX 530","RANDOLPH","MA",2368,NA,NA,484,"PO BOX 530, RANDOLPH, MA, 2368","No_Match",NA,NA,NA,NA
351985,"PO BOX 530","WAKEFIELD","MA",1880,NA,NA,485,"PO BOX 530, WAKEFIELD, MA, 1880","No_Match",NA,NA,NA,NA
351986,"PO BOX 530012","ORLANDO","FL",32853,NA,NA,486,"PO BOX 530012, ORLANDO, FL, 32853","No_Match",NA,NA,NA,NA
351987,"PO BOX 530028","ORLANDO","FL",32853,NA,NA,487,"PO BOX 530028, ORLANDO, FL, 32853","No_Match",NA,NA,NA,NA
351988,"PO BOX 5301","ATLANTA","GA",31107,NA,NA,488,"PO BOX 5301, ATLANTA, GA, 31107","No_Match",NA,NA,NA,NA
351989,"PO BOX 5301","CARMEL","CA",93921,NA,NA,489,"PO BOX 5301, CARMEL, CA, 93921","No_Match",NA,NA,NA,NA
351990,"PO BOX 5301","LOUISVILLE","KY",40255,NA,NA,490,"PO BOX 5301, LOUISVILLE, KY, 40255","No_Match",NA,NA,NA,NA
351991,"PO BOX 530123","MOUNTAIN BROOK","AL",35253,NA,NA,491,"PO BOX 530123, MOUNTAIN BROOK, AL, 35253","No_Match",NA,NA,NA,NA
351992,"PO BOX 530155","HENDERSON","NV",89053,NA,NA,492,"PO BOX 530155, HENDERSON, NV, 89053","No_Match",NA,NA,NA,NA
351993,"PO BOX 5302","ALBANY","NY",12205,NA,NA,493,"PO BOX 5302, ALBANY, NY, 12205","No_Match",NA,NA,NA,NA
351994,"PO BOX 5302","BEAR VALLEY","CA",95223,NA,NA,494,"PO BOX 5302, BEAR VALLEY, CA, 95223","No_Match",NA,NA,NA,NA
351995,"PO BOX 5302","HERCULES","CA",94547,NA,NA,495,"PO BOX 5302, HERCULES, CA, 94547","No_Match",NA,NA,NA,NA
351996,"PO BOX 5302","PLANT CITY","FL",33563,NA,NA,496,"PO BOX 5302, PLANT CITY, FL, 33563","No_Match",NA,NA,NA,NA
351997,"PO BOX 530223","GRAND PRAIRIE","TX",75053,NA,NA,497,"PO BOX 530223, GRAND PRAIRIE, TX, 75053","No_Match",NA,NA,NA,NA
351998,"PO BOX 530291","HARLINGEN","TX",78553,NA,NA,498,"PO BOX 530291, HARLINGEN, TX, 78553","No_Match",NA,NA,NA,NA
351999,"PO BOX 530352","LAKE PARK","FL",33403,NA,NA,499,"PO BOX 530352, LAKE PARK, FL, 33403","No_Match",NA,NA,NA,NA
352000,"PO BOX 530355","GRAND PRAIRIE","TX",75053,NA,NA,500,"PO BOX 530355, GRAND PRAIRIE, TX, 75053","No_Match",NA,NA,NA,NA
