"ID","Address","City","State","Zip","lat","long","id","input_address","match_indicator","match_type","matched_address","tiger_line_id","tiger_side"
143001,"2605 KOHLER DRIVE","BOULDER","CO",80305,39.987585962,-105.259719237,1,"2605 KOHLER DRIVE, BOULDER, CO, 80305","Match","Exact","2605 KOHLER DR, BOULDER, CO, 80305",188163672,"L"
143002,"2605 LITTLE JOHN ROAD","RALEIGH","NC",27610,35.7626484090001,-78.597379616,2,"2605 LITTLE JOHN ROAD, RALEIGH, NC, 27610","Match","Exact","2605 LITTLE JOHN RD, RALEIGH, NC, 27610",72509810,"L"
143003,"2605 LOFTSMOOR LN","PLANO","TX",75025,33.0906371070001,-96.7455346959999,3,"2605 LOFTSMOOR LN, PLANO, TX, 75025","Match","Exact","2605 LOFTSMOOR LN, PLANO, TX, 75025",123533318,"L"
143004,"2605 LONGWOOD DR","REEDSPORT","OR",97467,43.69077802,-124.129483607,4,"2605 LONGWOOD DR, REEDSPORT, OR, 97467","Match","Exact","2605 LONGWOOD DR, REEDSPORT, OR, 97467",137221209,"R"
143005,"2605 LUCILLE AVENUE","ST JOSEPH","MO",64506,39.790678212,-94.817581732,5,"2605 LUCILLE AVENUE, ST JOSEPH, MO, 64506","Match","Exact","2605 LUCILLE AVE, SAINT JOSEPH, MO, 64506",15978881,"R"
143006,"2605 MAIN ST","LA CROSSE","WI",54601,43.811769127,-91.217541485,6,"2605 MAIN ST, LA CROSSE, WI, 54601","Match","Exact","2605 MAIN ST, LA CROSSE, WI, 54601",51013108,"L"
143007,"2605 MICARTA DR","PLANO","TX",75025,33.0807192870001,-96.7456646159999,7,"2605 MICARTA DR, PLANO, TX, 75025","Match","Exact","2605 MICARTA DR, PLANO, TX, 75025",123533189,"L"
143008,"2605 N PARK PLACE","FARMINGTON","NM",87401,36.754118615,-108.19612966,8,"2605 N PARK PLACE, FARMINGTON, NM, 87401","Match","Exact","2605 PARK PL, FARMINGTON, NM, 87401",127455619,"R"
143009,"2605 NICHOLSON RD  SUITE 2101","SEWICKLEY","PA",15143,40.6114832370001,-80.099833599,9,"2605 NICHOLSON RD  SUITE 2101, SEWICKLEY, PA, 15143","Match","Exact","2605 NICHOLSON RD, SEWICKLEY, PA, 15143",632003284,"L"
143010,"2605 NICHOLSON ROAD - SUITE 2101","SEWICKLEY","PA",15143,40.6114832370001,-80.099833599,10,"2605 NICHOLSON ROAD - SUITE 2101, SEWICKLEY, PA, 15143","Match","Exact","2605 NICHOLSON RD, SEWICKLEY, PA, 15143",632003284,"L"
143011,"2605 NICHOLSON ROAD SUITE 203","SEWICKLEY","PA",15143,40.6114832370001,-80.099833599,11,"2605 NICHOLSON ROAD SUITE 203, SEWICKLEY, PA, 15143","Match","Exact","2605 NICHOLSON RD, SEWICKLEY, PA, 15143",632003284,"L"
143012,"2605 NORTHRIDGE PARKWAY","AMES","IA",50010,42.048942062,-93.642788581,12,"2605 NORTHRIDGE PARKWAY, AMES, IA, 50010","Match","Exact","2605 NORTHRIDGE PKWY, AMES, IA, 50010",647653730,"L"
143013,"2605 OVERLAND TRL","DICKINSON","TX",77539,29.4775751710001,-95.0246302469999,13,"2605 OVERLAND TRL, DICKINSON, TX, 77539","Match","Exact","2605 OVERLAND TRL, DICKINSON, TX, 77539",96698234,"R"
143014,"2605 PALMDALE STREET","JACKSONVILLE","FL",32208,30.389001396,-81.6959953319999,14,"2605 PALMDALE STREET, JACKSONVILLE, FL, 32208","Match","Exact","2605 PALMDALE ST, JACKSONVILLE, FL, 32208",83891751,"R"
143015,"2605 PEARSON AVE","FULLERTON","CA",92831,33.871649758,-117.882619152,15,"2605 PEARSON AVE, FULLERTON, CA, 92831","Match","Exact","2605 PEARSON AVE, FULLERTON, CA, 92831",650365808,"L"
143016,"2605 POLO COURT","AUGUSTA","GA",30904,33.448425909,-82.0209366669999,16,"2605 POLO COURT, AUGUSTA, GA, 30904","Match","Exact","2605 POLO CT, AUGUSTA, GA, 30904",55638828,"R"
143017,"2605 PRINCE ST","NORTHBROOK","IL",60062,42.1079341290001,-87.844484815,17,"2605 PRINCE ST, NORTHBROOK, IL, 60062","Match","Exact","2605 PRINCE ST, NORTHBROOK, IL, 60062",111728550,"L"
143018,"2605 QUAKER CHURCH RD","YORKTOWN HEIGHTS","NY",10598,41.298468761,-73.772511831,18,"2605 QUAKER CHURCH RD, YORKTOWN HEIGHTS, NY, 10598","Match","Exact","2605 QUAKER CHURCH RD, YORKTOWN HEIGHTS, NY, 10598",139728414,"L"
143019,"2605 S LINCOLN AVENUE","LAKELAND","FL",33803,28.0140396370001,-81.965304609,19,"2605 S LINCOLN AVENUE, LAKELAND, FL, 33803","Match","Exact","2605 S LINCOLN AVE, LAKELAND, FL, 33803",104811026,"R"
143020,"2605 SAGEBRUSH DRIVE SUITE 105","FLOWER MOUND","TX",75028,33.030042155,-97.0683494369999,20,"2605 SAGEBRUSH DRIVE SUITE 105, FLOWER MOUND, TX, 75028","Match","Exact","2605 SAGEBRUSH DR, FLOWER MOUND, TX, 75028",103378661,"L"
143021,"2605 SE WINCHESTER DR","LEES SUMMIT","MO",64063,38.904538777,-94.3217733819999,21,"2605 SE WINCHESTER DR, LEES SUMMIT, MO, 64063","Match","Exact","2605 WINCHESTER DR, LEES SUMMIT, MO, 64063",91517604,"R"
143022,"2605 SOUTH INDIANA AVE","CHICAGO","IL",60616,41.8453198330001,-87.622119227,22,"2605 SOUTH INDIANA AVE, CHICAGO, IL, 60616","Match","Exact","2605 S INDIANA AVE, CHICAGO, IL, 60616",647602019,"L"
143023,"2605 SPRING DR","SACHSE","TX",75048,32.9860274270001,-96.597428169,23,"2605 SPRING DR, SACHSE, TX, 75048","Match","Exact","2605 SPRING DR, SACHSE, TX, 75048",619940464,"L"
143024,"2605 STANISLAUS PLAZA","MACON","GA",31024,32.845845716,-83.6627923249999,24,"2605 STANISLAUS PLAZA, MACON, GA, 31024","Match","Non_Exact","2605 STANISLAUS PLZ, MACON, GA, 31204",81085757,"R"
143025,"2605 STANISLAUS PLAZA","MACON","GA",31204,32.845845716,-83.6627923249999,25,"2605 STANISLAUS PLAZA, MACON, GA, 31204","Match","Exact","2605 STANISLAUS PLZ, MACON, GA, 31204",81085757,"R"
143026,"2605 SUNRISE HARBOR LN","PEARLAND","TX",77584,29.5623250090001,-95.362566532,26,"2605 SUNRISE HARBOR LN, PEARLAND, TX, 77584","Match","Exact","2605 SUNRISE HARBOR LN, PEARLAND, TX, 77584",116642422,"R"
143027,"2605 SW 33RD STREET  BUILDING 200","OCALA","FL",34471,NA,NA,27,"2605 SW 33RD STREET  BUILDING 200, OCALA, FL, 34471","Tie",NA,NA,NA,NA
143028,"2605 SW 54 ST","DANIA BEACH","FL",33312,26.054832074,-80.1748819759999,28,"2605 SW 54 ST, DANIA BEACH, FL, 33312","Match","Non_Exact","2605 SW 54TH ST, DAVIE, FL, 33312",114728745,"R"
143029,"2605 TALBOT ROAD","BALTIMORE","MD",21216,39.315040588,-76.6894226219999,29,"2605 TALBOT ROAD, BALTIMORE, MD, 21216","Match","Exact","2605 TALBOT RD, BALTIMORE, MD, 21216",206412907,"R"
143030,"2605 THRUSH CT","REDMOND","OR",97756,44.2528174230001,-121.256814635,30,"2605 THRUSH CT, REDMOND, OR, 97756","Match","Exact","2605 THRUSH CT, REDMOND, OR, 97756",152574194,"R"
143031,"2605 VALLEYVIEW DR","CLARKSTON","WA",99403,46.4122782950001,-117.091375459,31,"2605 VALLEYVIEW DR, CLARKSTON, WA, 99403","Match","Exact","2605 VALLEYVIEW DR, CLARKSTON, WA, 99403",615075667,"L"
143032,"2605 W 300 N","CAMDEN","IN",46917,40.590796218,-86.57337812,32,"2605 W 300 N, CAMDEN, IN, 46917","Match","Exact","2605 W 300 N, CAMDEN, IN, 46917",647305283,"R"
143033,"2605 W CANTON PL","BROKEN ARROW","OK",74012,36.0250550810001,-95.824879562,33,"2605 W CANTON PL, BROKEN ARROW, OK, 74012","Match","Exact","2605 W CANTON PL, BROKEN ARROW, OK, 74012",166463764,"R"
143034,"2605 WEST VLIET STREET","MILWAUKEE","WI",53205,43.048634807,-87.946462787,34,"2605 WEST VLIET STREET, MILWAUKEE, WI, 53205","Match","Exact","2605 W VLIET ST, MILWAUKEE, WI, 53205",653014702,"L"
143035,"2605 WILLO STREET - D16","SOUTH SIOUX CITY","NE",68776,NA,NA,35,"2605 WILLO STREET - D16, SOUTH SIOUX CITY, NE, 68776","No_Match",NA,NA,NA,NA
143036,"26050 MARSH LANDING PARKWAY","PONTE VEDRA BEACH","FL",32082,30.2492348070001,-81.407040659,36,"26050 MARSH LANDING PARKWAY, PONTE VEDRA BEACH, FL, 32082","Match","Exact","26050 MARSH LANDING PKWY, PONTE VEDRA BEACH, FL, 32082",92602044,"L"
143037,"26050 PREDAZZER LANE SUITE C","DAPHNE","AL",36526,NA,NA,37,"26050 PREDAZZER LANE SUITE C, DAPHNE, AL, 36526","No_Match",NA,NA,NA,NA
143038,"26050 W 143RD PLACE","OLATHE","KS",66061,38.8677358360001,-94.887610874,38,"26050 W 143RD PLACE, OLATHE, KS, 66061","Match","Exact","26050 W 143RD PL, OLATHE, KS, 66061",619897161,"R"
143039,"26051 FOREST RIDGE RD","SEDALIA","MO",65301,38.7011998090001,-93.3287116669999,39,"26051 FOREST RIDGE RD, SEDALIA, MO, 65301","Match","Exact","26051 FOREST RIDGE RD, SEDALIA, MO, 65301",54745961,"R"
143040,"26055 BOUQUET CANYON ROAD","SANTA CLARITA","CA",91350,34.41764027,-118.541750011,40,"26055 BOUQUET CANYON ROAD, SANTA CLARITA, CA, 91350","Match","Exact","26055 BOUQUET CANYON RD, SANTA CLARITA, CA, 91350",142830205,"L"
143041,"26055 BURLWOOD AVE","DENHAM SPGS","LA",70726,30.443317268,-90.868295899,41,"26055 BURLWOOD AVE, DENHAM SPGS, LA, 70726","Match","Exact","26055 BURLWOOD AVE, DENHAM SPRINGS, LA, 70726",612914652,"L"
143042,"26055 EMERY RD UNIT G","WARRENSVILLE HTS","OH",44128,41.4350921880001,-81.493609681,42,"26055 EMERY RD UNIT G, WARRENSVILLE HTS, OH, 44128","Match","Exact","26055 EMERY RD, WARRENSVILLE HEIGHTS, OH, 44128",61154995,"L"
143043,"2606 A STREET","FOREST GROVE","OR",97116,45.527270227,-123.113823744,43,"2606 A STREET, FOREST GROVE, OR, 97116","Match","Exact","2606 A ST, FOREST GROVE, OR, 97116",618502448,"R"
143044,"2606 ARROWHEAD DRIVE","LANGHORNE","PA",19053,40.1643489730001,-74.955806909,44,"2606 ARROWHEAD DRIVE, LANGHORNE, PA, 19053","Match","Exact","2606 ARROWHEAD DR, LANGHORNE, PA, 19053",134711399,"L"
143045,"2606 BANKS ST","NEW ORLEANS","LA",70119,29.962072474,-90.0885280259999,45,"2606 BANKS ST, NEW ORLEANS, LA, 70119","Match","Exact","2606 BANKS ST, NEW ORLEANS, LA, 70119",191708098,"L"
143046,"2606 CENTENNIAL PLACE","TALLAHASSEE","FL",32308,30.4808146770001,-84.2303902309999,46,"2606 CENTENNIAL PLACE, TALLAHASSEE, FL, 32308","Match","Exact","2606 CENTENNIAL PL, TALLAHASSEE, FL, 32308",618795388,"L"
143047,"2606 CENTRAL AVE APT 4","UNION CITY","NJ",7087,40.769796881,-74.033537645,47,"2606 CENTRAL AVE APT 4, UNION CITY, NJ, 7087","Match","Exact","2606 CENTRAL AVE, UNION CITY, NJ, 07087",59599056,"R"
143048,"2606 CHARLOTTE AVENUE","NASHVILLE","TN",37209,36.154483032,-86.815781761,48,"2606 CHARLOTTE AVENUE, NASHVILLE, TN, 37209","Match","Exact","2606 CHARLOTTE AVE, NASHVILLE, TN, 37209",97185223,"R"
143049,"2606 CHERRY LAUREL COURT","ABINGDON","MD",21009,39.4896483360001,-76.305396107,49,"2606 CHERRY LAUREL COURT, ABINGDON, MD, 21009","Match","Exact","2606 CHERRY LAUREL CT, ABINGDON, MD, 21009",191654265,"L"
143050,"2606 COLIN AVE","LOUISVILLE","KY",40217,38.2146467910001,-85.73547616,50,"2606 COLIN AVE, LOUISVILLE, KY, 40217","Match","Exact","2606 COLIN AVE, LOUISVILLE, KY, 40217",649442261,"R"
143051,"2606 COMPTON DR SW","DECATUR","AL",35603,34.5795622570001,-87.036471826,51,"2606 COMPTON DR SW, DECATUR, AL, 35603","Match","Exact","2606 COMPTON DR SW, DECATUR, AL, 35603",97132662,"L"
143052,"2606 DUCK COURT","AUSTELL","GA",30106,33.833771476,-84.633386284,52,"2606 DUCK COURT, AUSTELL, GA, 30106","Match","Exact","2606 DUCK CT, AUSTELL, GA, 30106",17258641,"R"
143053,"2606 E STANFORD LANE","HOLLADAY","UT",84117,NA,NA,53,"2606 E STANFORD LANE, HOLLADAY, UT, 84117","Tie",NA,NA,NA,NA
143054,"2606 EAST 15TH ST SUITE 305","BROOKLYN","NY",11235,40.587892729,-73.9543307129999,54,"2606 EAST 15TH ST SUITE 305, BROOKLYN, NY, 11235","Match","Exact","2606 E 15TH ST, BROOKLYN, NY, 11235",59091680,"R"
143055,"2606 FIRE ROAD","EGG HARBOR TOWNSHIP","NJ",8234,39.4136850470001,-74.535201205,55,"2606 FIRE ROAD, EGG HARBOR TOWNSHIP, NJ, 8234","Match","Exact","2606 FIRE RD, EGG HARBOR TOWNSHIP, NJ, 08234",202524549,"R"
143056,"2606 FOOTHILL BLVD","LA CRESCENTA","CA",91214,34.2213327200001,-118.235429742,56,"2606 FOOTHILL BLVD, LA CRESCENTA, CA, 91214","Match","Exact","2606 FOOTHILL BLVD, LA CRESCENTA, CA, 91214",141589943,"L"
143057,"2606 GLENMORE DRIVE","WESTLAKE","OH",44145,41.4506261490001,-81.929201139,57,"2606 GLENMORE DRIVE, WESTLAKE, OH, 44145","Match","Exact","2606 GLENMORE DR, WESTLAKE, OH, 44145",61137986,"R"
143058,"2606 GRAND AVENUE","BRONX","NY",10468,40.866645954,-73.900325725,58,"2606 GRAND AVENUE, BRONX, NY, 10468","Match","Exact","2606 GRAND AVE, BRONX, NY, 10468",80298688,"R"
143059,"2606 HIGHWAY 224N","KELLOGG","IA",50208,NA,NA,59,"2606 HIGHWAY 224N, KELLOGG, IA, 50208","No_Match",NA,NA,NA,NA
143060,"2606 HUNTINGTON LANE UNIT A","REDONDO BEACH","CA",90278,33.8680407250001,-118.363998272,60,"2606 HUNTINGTON LANE UNIT A, REDONDO BEACH, CA, 90278","Match","Exact","2606 HUNTINGTON LN, REDONDO BEACH, CA, 90278",141663587,"R"
143061,"2606 MANCHESTER COURT","THOUSAND OAKS","CA",91362,34.215283135,-118.830260185,61,"2606 MANCHESTER COURT, THOUSAND OAKS, CA, 91362","Match","Exact","2606 MANCHESTER CT, THOUSAND OAKS, CA, 91362",110115206,"R"
143062,"2606 MERLIN DRIVE","LEWISVILLE","TX",75056,33.030663421,-96.8910831869999,62,"2606 MERLIN DRIVE, LEWISVILLE, TX, 75056","Match","Exact","2606 MERLIN DR, LEWISVILLE, TX, 75056",641486768,"R"
143063,"2606 MIRAGE AVENUE","PLAINFIELD","IL",60586,41.567735649,-88.2501498189999,63,"2606 MIRAGE AVENUE, PLAINFIELD, IL, 60586","Match","Exact","2606 MIRAGE AVE, PLAINFIELD, IL, 60586",111622755,"R"
143064,"2606 MONCRIEF RD","JACKSONVILLE","FL",32209,30.353432474,-81.671495578,64,"2606 MONCRIEF RD, JACKSONVILLE, FL, 32209","Match","Exact","2606 MONCRIEF RD, JACKSONVILLE, FL, 32209",83895812,"L"
143065,"2606 N EDGEWATER DR","FAYETTEVILLE","NC",28303,35.058868815,-78.922600828,65,"2606 N EDGEWATER DR, FAYETTEVILLE, NC, 28303","Match","Exact","2606 N EDGEWATER DR, FAYETTEVILLE, NC, 28303",64199234,"R"
143066,"2606 PANTHER CREEK PARKWAY","FRISCO","TX",75033,33.1900190220001,-96.865241049,66,"2606 PANTHER CREEK PARKWAY, FRISCO, TX, 75033","Match","Exact","2606 PANTHER CREEK PKWY, FRISCO, TX, 75033",638719600,"R"
143067,"2606 PANTHER CREEK PARKWAY","FRISCO","TX",75034,33.1900190220001,-96.865241049,67,"2606 PANTHER CREEK PARKWAY, FRISCO, TX, 75034","Match","Non_Exact","2606 PANTHER CREEK PKWY, FRISCO, TX, 75033",638719600,"R"
143068,"2606 PANTHER CREEK PKWY","FRISCO","TX",75033,33.1900190220001,-96.865241049,68,"2606 PANTHER CREEK PKWY, FRISCO, TX, 75033","Match","Exact","2606 PANTHER CREEK PKWY, FRISCO, TX, 75033",638719600,"R"
143069,"2606 PANTHER CREEK","FRISCO","TX",75033,33.1900190220001,-96.865241049,69,"2606 PANTHER CREEK, FRISCO, TX, 75033","Match","Non_Exact","2606 PANTHER CREEK PKWY, FRISCO, TX, 75033",638719600,"R"
143070,"2606 SHERBROOKE DR","DURHAM","NC",27712,36.103976813,-78.9549984399999,70,"2606 SHERBROOKE DR, DURHAM, NC, 27712","Match","Exact","2606 SHERBROOKE DR, DURHAM, NC, 27712",71755262,"L"
143071,"2606 W FREDDY GONZALEZ","EDINBURG","TX",78539,NA,NA,71,"2606 W FREDDY GONZALEZ, EDINBURG, TX, 78539","No_Match",NA,NA,NA,NA
143072,"2606 W SPENCER RUN","PHOENIX","AZ",85041,33.40272191,-112.115018606,72,"2606 W SPENCER RUN, PHOENIX, AZ, 85041","Match","Non_Exact","2606 W SPENCER, PHOENIX, AZ, 85041",243999711,"L"
143073,"2606 WASHINGTON MILL ROAD","BELLBROOK","OH",45305,39.643469302,-84.035080364,73,"2606 WASHINGTON MILL ROAD, BELLBROOK, OH, 45305","Match","Exact","2606 WASHINGTON MILL RD, BELLBROOK, OH, 45305",143409890,"R"
143074,"2606 WINDY OAK COURT","CROFTON","MD",21114,39.0262526130001,-76.6855035949999,74,"2606 WINDY OAK COURT, CROFTON, MD, 21114","Match","Exact","2606 WINDY OAK CT, CROFTON, MD, 21114",68207741,"R"
143075,"2606 ZOLL LN","WALDORF","MD",20603,38.6389719900001,-77.0168624469999,75,"2606 ZOLL LN, WALDORF, MD, 20603","Match","Exact","2606 ZOLL LN, WALDORF, MD, 20603",25384774,"R"
143076,"26060 STATE HIGHWAY 128","WINTERS","CA",95694,NA,NA,76,"26060 STATE HIGHWAY 128, WINTERS, CA, 95694","No_Match",NA,NA,NA,NA
143077,"26061 DEL REY UNIT C","MISSION VIEJO","CA",92691,33.6254825710001,-117.675275136,77,"26061 DEL REY UNIT C, MISSION VIEJO, CA, 92691","Match","Non_Exact","26061 DEL REY, MISSION VIEJO, CA, 92691",144064859,"R"
143078,"26061 MCDANIEL RD","OPP","AL",36467,31.37349212,-86.268300364,78,"26061 MCDANIEL RD, OPP, AL, 36467","Match","Exact","26061 MCDANIEL RD, OPP, AL, 36467",1877809,"L"
143079,"26064 MESA ROCK RD","ESCONDIDO","CA",92026,33.1843697420001,-117.119119301,79,"26064 MESA ROCK RD, ESCONDIDO, CA, 92026","Match","Exact","26064 MESA ROCK RD, ESCONDIDO, CA, 92026",612890687,"L"
143080,"26066 RAVENNA ROAD","MISSION VIEJO","CA",92692,33.584128204,-117.647646323,80,"26066 RAVENNA ROAD, MISSION VIEJO, CA, 92692","Match","Exact","26066 RAVENNA RD, MISSION VIEJO, CA, 92692",144382923,"R"
143081,"2607  GRISTHAVEN LANE","BUFORD","GA",30519,34.0586095200001,-83.954007331,81,"2607  GRISTHAVEN LANE, BUFORD, GA, 30519","Match","Exact","2607 GRISTHAVEN LN, BUFORD, GA, 30519",625133517,"R"
143082,"2607 18TH ST","MENOMNIEE","MI",49858,45.122742144,-87.624141493,82,"2607 18TH ST, MENOMNIEE, MI, 49858","Match","Non_Exact","2607 18TH ST, MENOMINEE, MI, 49858",645553700,"L"
143083,"2607 AIMAR AVE","SAVANNAH","GA",31406,32.0131145300001,-81.0649606709999,83,"2607 AIMAR AVE, SAVANNAH, GA, 31406","Match","Exact","2607 AIMAR AVE, SAVANNAH, GA, 31406",6179970,"R"
143084,"2607 ASHBOURNE DR","GASTONIA","NC",28056,35.204536508,-81.138045257,84,"2607 ASHBOURNE DR, GASTONIA, NC, 28056","Match","Exact","2607 ASHBOURNE DR, GASTONIA, NC, 28056",70411437,"R"
143085,"2607 BEECH ORCHARD LANE","UPPER MARLBORO","MD",20774,38.8541011840001,-76.7409034629999,85,"2607 BEECH ORCHARD LANE, UPPER MARLBORO, MD, 20774","Match","Exact","2607 BEECH ORCHARD LN, UPPER MARLBORO, MD, 20774",636818212,"L"
143086,"2607 BROM BONES BLVD","PEARLAND","TX",77581,29.557015027,-95.23494469,86,"2607 BROM BONES BLVD, PEARLAND, TX, 77581","Match","Exact","2607 BROM BONES BLVD, PEARLAND, TX, 77581",116584580,"R"
143087,"2607 CHAPEL LAKE DR 303","GAMBRILLS","MD",21054,39.035998766,-76.6829492259999,87,"2607 CHAPEL LAKE DR 303, GAMBRILLS, MD, 21054","Match","Exact","2607 CHAPEL LAKE DR, GAMBRILLS, MD, 21054",642989888,"L"
143088,"2607 CHAPEL LAKE DRIVE APT 303","GAMBRILLS","MD",21054,39.035998766,-76.6829492259999,88,"2607 CHAPEL LAKE DRIVE APT 303, GAMBRILLS, MD, 21054","Match","Exact","2607 CHAPEL LAKE DR, GAMBRILLS, MD, 21054",642989888,"L"
143089,"2607 COUNTY ROAD 7540","LUBBOCK","TX",79423,NA,NA,89,"2607 COUNTY ROAD 7540, LUBBOCK, TX, 79423","No_Match",NA,NA,NA,NA
143090,"2607 DAWSON RIDGE RD","LAGRANGE","KY",40031,38.432876811,-85.342891459,90,"2607 DAWSON RIDGE RD, LAGRANGE, KY, 40031","Match","Exact","2607 DAWSON RIDGE RD, LAGRANGE, KY, 40031",614164757,"R"
143091,"2607 DRY CREEK DRIVE NW","HUNTSVILLE","AL",35810,34.7601927110001,-86.640069752,91,"2607 DRY CREEK DRIVE NW, HUNTSVILLE, AL, 35810","Match","Exact","2607 DRY CREEK DR NW, HUNTSVILLE, AL, 35810",58183206,"L"
143092,"2607 EAST OLIVE RD","PENSACOLA","FL",32514,30.5100560670001,-87.208454022,92,"2607 EAST OLIVE RD, PENSACOLA, FL, 32514","Match","Exact","2607 E OLIVE RD, PENSACOLA, FL, 32514",93218297,"R"
143093,"2607 KENWOOD GLEN TERRACE","ATLANTA","GA",30340,33.917012119,-84.255946339,93,"2607 KENWOOD GLEN TERRACE, ATLANTA, GA, 30340","Match","Exact","2607 KENWOOD GLEN TER, ATLANTA, GA, 30340",645878344,"R"
143094,"2607 LAKEBRIAR STREET","SAN ANTONIO","TX",78222,29.394439547,-98.3749695069999,94,"2607 LAKEBRIAR STREET, SAN ANTONIO, TX, 78222","Match","Exact","2607 LAKEBRIAR ST, SAN ANTONIO, TX, 78222",101537406,"R"
143095,"2607 MARKET AVE N","CANTON","OH",44714,40.8251064340001,-81.366388984,95,"2607 MARKET AVE N, CANTON, OH, 44714","Match","Exact","2607 MARKET AVE N, CANTON, OH, 44714",64720212,"L"
143096,"2607 MORGANMEADE DR","NASHVILLE","TN",37216,36.201306903,-86.700069978,96,"2607 MORGANMEADE DR, NASHVILLE, TN, 37216","Match","Exact","2607 MORGANMEADE DR, NASHVILLE, TN, 37216",97194605,"L"
143097,"2607 N 18TH STREET","WAUSAU","WI",54403,44.978056925,-89.602866628,97,"2607 N 18TH STREET, WAUSAU, WI, 54403","Match","Exact","2607 N 18TH ST, WAUSAU, WI, 54403",601044228,"R"
143098,"2607 N OAKLAND AVE","SPRINGFIELD","MO",65803,37.2454382780001,-93.315486133,98,"2607 N OAKLAND AVE, SPRINGFIELD, MO, 65803","Match","Exact","2607 N OAKLAND AVE, SPRINGFIELD, MO, 65803",76672801,"L"
143099,"2607 NE 21ST AVE","CAPE CORAL","FL",33909,26.7001886580001,-81.9311988809999,99,"2607 NE 21ST AVE, CAPE CORAL, FL, 33909","Match","Exact","2607 NE 21ST AVE, CAPE CORAL, FL, 33909",118007697,"L"
143100,"2607 NORTH 38TH STREET","BATON ROUGE","LA",70815,30.4717334110001,-91.152567905,100,"2607 NORTH 38TH STREET, BATON ROUGE, LA, 70815","Match","Non_Exact","2607 N 38TH ST, BATON ROUGE, LA, 70805",92181485,"L"
143101,"2607 NORTHRUP DRIVE","ROCKVILLE","MD",20850,39.0905603510001,-77.191224893,101,"2607 NORTHRUP DRIVE, ROCKVILLE, MD, 20850","Match","Exact","2607 NORTHRUP DR, ROCKVILLE, MD, 20850",62095934,"L"
143102,"2607 PHYLLIS DRIVE","NEW IBERIA","LA",70560,30.0013085200001,-91.86752389,102,"2607 PHYLLIS DRIVE, NEW IBERIA, LA, 70560","Match","Exact","2607 PHYLLIS DR, NEW IBERIA, LA, 70560",85363170,"R"
143103,"2607 PRESTON LAKE DRIVE","TUCKER","GA",30084,33.895316693,-84.20575977,103,"2607 PRESTON LAKE DRIVE, TUCKER, GA, 30084","Match","Exact","2607 PRESTON LAKE DR, TUCKER, GA, 30084",651216594,"L"
143104,"2607 S MANITO BLVD","SPOKANE","WA",99203,47.6308293430001,-117.407332812,104,"2607 S MANITO BLVD, SPOKANE, WA, 99203","Match","Exact","2607 S MANITO BLVD, SPOKANE, WA, 99203",189877647,"L"
143105,"2607 TREMONT BROOK WAY","FRESNO","TX",77545,29.539459521,-95.492657375,105,"2607 TREMONT BROOK WAY, FRESNO, TX, 77545","Match","Exact","2607 TREMONT BROOK WAY, FRESNO, TX, 77545",635209950,"L"
143106,"2607 TURNBERRY DR APARTMENT 2A","ELKHART","IN",46514,41.718646004,-85.980725294,106,"2607 TURNBERRY DR APARTMENT 2A, ELKHART, IN, 46514","Match","Exact","2607 TURNBERRY DR, ELKHART, IN, 46514",604691495,"R"
143107,"2607 W ANGEL AVE","WICHITA","KS",67217,37.6102115630001,-97.371825997,107,"2607 W ANGEL AVE, WICHITA, KS, 67217","Match","Non_Exact","2607 W ANGEL ST, WICHITA, KS, 67217",115704708,"L"
143108,"2607 W BLAINE STREET","SEATTLE","WA",98199,47.6350891000001,-122.390722334,108,"2607 W BLAINE STREET, SEATTLE, WA, 98199","Match","Exact","2607 W BLAINE ST, SEATTLE, WA, 98199",186660090,"L"
143109,"2607 W GREENLEAF AVE APT 2","CHICAGO","IL",60645,42.0094521080001,-87.695306229,109,"2607 W GREENLEAF AVE APT 2, CHICAGO, IL, 60645","Match","Non_Exact","2607 W GREENLEAF AVE, CHICAGO, IL, 60645",605265395,"L"
143110,"2607 W RASCHER AVE FL 2","CHICAGO","IL",60625,41.9804060220001,-87.694528647,110,"2607 W RASCHER AVE FL 2, CHICAGO, IL, 60625","Match","Non_Exact","2607 W RASCHER AVE, CHICAGO, IL, 60625",111759991,"L"
143111,"2607 WESLEYAN DRIVE","ANCHORAGE","AK",99508,61.1971710000001,-149.790719746,111,"2607 WESLEYAN DRIVE, ANCHORAGE, AK, 99508","Match","Exact","2607 WESLEYAN DR, ANCHORAGE, AK, 99508",641287015,"L"
143112,"2607 WESTERN AVE APT 703","SEATTLE","WA",98121,47.614649888,-122.350668611,112,"2607 WESTERN AVE APT 703, SEATTLE, WA, 98121","Match","Exact","2607 WESTERN AVE, SEATTLE, WA, 98121",186588871,"L"
143113,"2607 WHARTON STREET","PHILADELPHIA","PA",19146,39.93671355,-75.187528126,113,"2607 WHARTON STREET, PHILADELPHIA, PA, 19146","Match","Exact","2607 WHARTON ST, PHILADELPHIA, PA, 19146",131404708,"R"
143114,"2607-B FIELDSTONE VIEW LANE","CONYERS","GA",30013,33.618864183,-83.978708613,114,"2607-B FIELDSTONE VIEW LANE, CONYERS, GA, 30013","Match","Non_Exact","2607 FIELDSTONE VIEW LN SE, CONYERS, GA, 30013",23743026,"L"
143115,"26070 N 72ND DR","PEORIA","AZ",85383,33.719278353,-112.214703327,115,"26070 N 72ND DR, PEORIA, AZ, 85383","Match","Exact","26070 N 72ND DR, PEORIA, AZ, 85383",128427432,"L"
143116,"26072 CRESTA VERDE","MISSION VIEJO","CA",92691,33.58428931,-117.665232729,116,"26072 CRESTA VERDE, MISSION VIEJO, CA, 92691","Match","Exact","26072 CRESTA VERDE, MISSION VIEJO, CA, 92691",144406520,"R"
143117,"26075 JEFFERSON AVE","MURRIETA","CA",92562,33.538703105,-117.184065287,117,"26075 JEFFERSON AVE, MURRIETA, CA, 92562","Match","Exact","26075 JEFFERSON AVE, MURRIETA, CA, 92562",194842991,"L"
143118,"26077 S 558 RD","PARK HILL","OK",74451,35.797554668,-94.903575471,118,"26077 S 558 RD, PARK HILL, OK, 74451","Match","Exact","26077 S 558 RD, PARK HILL, OK, 74451",53633965,"L"
143119,"26079 JACKSON ROAD","CIRCLEVILLE","OH",43113,39.544363731,-82.8072982049999,119,"26079 JACKSON ROAD, CIRCLEVILLE, OH, 43113","Match","Exact","26079 JACKSON RD, CIRCLEVILLE, OH, 43113",37453754,"L"
143120,"2608  2ND AVE  NO 545","SEATTLE","WA",98121,NA,NA,120,"2608  2ND AVE  NO 545, SEATTLE, WA, 98121","No_Match",NA,NA,NA,NA
143121,"2608 29TH STREET SE","WASHINGTON","DC",20020,38.858946464,-76.965329716,121,"2608 29TH STREET SE, WASHINGTON, DC, 20020","Match","Exact","2608 29TH ST SE, WASHINGTON, DC, 20020",76232880,"L"
143122,"2608 2ND AVE","SEATTLE","WA",98121,47.6159976260001,-122.348956852,122,"2608 2ND AVE, SEATTLE, WA, 98121","Match","Exact","2608 2ND AVE, SEATTLE, WA, 98121",186582689,"R"
143123,"2608 ASHLAND HOLLOW LANE","KATY","TX",77494,NA,NA,123,"2608 ASHLAND HOLLOW LANE, KATY, TX, 77494","No_Match",NA,NA,NA,NA
143124,"2608 BLAISDELL AVE","MINNEAPOLIS","MN",55408,44.9552672030001,-93.279648343,124,"2608 BLAISDELL AVE, MINNEAPOLIS, MN, 55408","Match","Non_Exact","2608 BLAISDELL AVE S, MINNEAPOLIS, MN, 55408",43632296,"R"
143125,"2608 BOBWHITE DR","ROANOKE","VA",24018,37.206291284,-80.00142542,125,"2608 BOBWHITE DR, ROANOKE, VA, 24018","Match","Exact","2608 BOBWHITE DR, ROANOKE, VA, 24018",62918485,"R"
143126,"2608 CEDAR POINT DR","WACO","TX",76710,31.548694846,-97.200386512,126,"2608 CEDAR POINT DR, WACO, TX, 76710","Match","Exact","2608 CEDAR POINT DR, WACO, TX, 76710",146732770,"L"
143127,"2608 CHINABERRY PARKLANE","LEAGUE CITY","TX",77573,NA,NA,127,"2608 CHINABERRY PARKLANE, LEAGUE CITY, TX, 77573","No_Match",NA,NA,NA,NA
143128,"2608 EAST LAWTER ROAD","WEATHERFORD","OK",73096,35.551505418,-98.67243072,128,"2608 EAST LAWTER ROAD, WEATHERFORD, OK, 73096","Match","Non_Exact","2608 LAWTER RD, WEATHERFORD, OK, 73096",647855607,"R"
143129,"2608 GREAT LAKES WAY","HINCKLEY","OH",44233,41.2323360500001,-81.784257716,129,"2608 GREAT LAKES WAY, HINCKLEY, OH, 44233","Match","Exact","2608 GREAT LAKES WAY, HINCKLEY, OH, 44233",58695174,"L"
143130,"2608 HANWAY AVE","CASPER","WY",82604,42.8237782580001,-106.341277816,130,"2608 HANWAY AVE, CASPER, WY, 82604","Match","Exact","2608 HANWAY AVE, CASPER, WY, 82604",149023708,"R"
143131,"2608 HIGHPOINT COURT","FAYETTEVILLE","NC",28304,35.0104461440001,-78.981589723,131,"2608 HIGHPOINT COURT, FAYETTEVILLE, NC, 28304","Match","Exact","2608 HIGHPOINT CT, FAYETTEVILLE, NC, 28304",646512750,"R"
143132,"2608 INDUSTRIAL LANE","CONROE","TX",77301,30.3171646000001,-95.4327927149999,132,"2608 INDUSTRIAL LANE, CONROE, TX, 77301","Match","Exact","2608 INDUSTRIAL LN, CONROE, TX, 77301",642840714,"R"
143133,"2608 JADE CV","SHERWOOD","AR",72120,34.846222901,-92.196289382,133,"2608 JADE CV, SHERWOOD, AR, 72120","Match","Exact","2608 JADE COVE, SHERWOOD, AR, 72120",618990670,"L"
143134,"2608 JUNCTION STREET","DURANGO","CO",81301,37.292536344,-107.877717464,134,"2608 JUNCTION STREET, DURANGO, CO, 81301","Match","Exact","2608 JUNCTION ST, DURANGO, CO, 81301",91727404,"R"
143135,"2608 LANCASTER DR","EAST POINT","GA",30344,33.6839315550001,-84.459182155,135,"2608 LANCASTER DR, EAST POINT, GA, 30344","Match","Exact","2608 LANCASTER DR, EAST POINT, GA, 30344",17347268,"L"
143136,"2608 MAGNOLIA ST","COLUMBIA","SC",29204,34.0218205850001,-81.0122794219999,136,"2608 MAGNOLIA ST, COLUMBIA, SC, 29204","Match","Exact","2608 MAGNOLIA ST, COLUMBIA, SC, 29204",71821571,"R"
143137,"2608 MEETING PLACE UNIT 203","ORLANDO","FL",32814,NA,NA,137,"2608 MEETING PLACE UNIT 203, ORLANDO, FL, 32814","No_Match",NA,NA,NA,NA
143138,"2608 N MAIN ST SUITE B BOX 226","BELTON","TX",76513,NA,NA,138,"2608 N MAIN ST SUITE B BOX 226, BELTON, TX, 76513","Tie",NA,NA,NA,NA
143139,"2608 N MAIN STE B NO 137","BELTON","TX",76513,NA,NA,139,"2608 N MAIN STE B NO 137, BELTON, TX, 76513","No_Match",NA,NA,NA,NA
143140,"2608 PIONEER TRAIL APT 810","SANDUSKY","OH",44870,41.430921492,-82.670159778,140,"2608 PIONEER TRAIL APT 810, SANDUSKY, OH, 44870","Match","Exact","2608 PIONEER TRL, SANDUSKY, OH, 44870",55325258,"R"
143141,"2608 S WINTERSBURG RD","TONOPAH","AZ",85354,NA,NA,141,"2608 S WINTERSBURG RD, TONOPAH, AZ, 85354","Tie",NA,NA,NA,NA
143142,"2608 SECOND AVE 128 SEATTLE","SEATTLE","WA",98121,NA,NA,142,"2608 SECOND AVE 128 SEATTLE, SEATTLE, WA, 98121","No_Match",NA,NA,NA,NA
143143,"2608 SPRINGDALE CIRCLE","NAPERVILLE","IL",60564,41.715746731,-88.17636807,143,"2608 SPRINGDALE CIRCLE, NAPERVILLE, IL, 60564","Match","Exact","2608 SPRINGDALE CIR, NAPERVILLE, IL, 60564",111583307,"R"
143144,"2608 STEWART DRIVE","WACO","TX",76708,31.5815567860001,-97.1847232919999,144,"2608 STEWART DRIVE, WACO, TX, 76708","Match","Exact","2608 STEWART DR, WACO, TX, 76708",146732538,"L"
143145,"2608 SUN CREEK DRIVE","LITTLE ELM","TX",75068,33.2103130560001,-96.922840665,145,"2608 SUN CREEK DRIVE, LITTLE ELM, TX, 75068","Match","Exact","2608 SUN CREEK DR, LITTLE ELM, TX, 75068",646966046,"R"
143146,"2608 SUNFISH DRIVE","PEARLAND","TX",77584,29.5624439150001,-95.367148281,146,"2608 SUNFISH DRIVE, PEARLAND, TX, 77584","Match","Exact","2608 SUNFISH DR, PEARLAND, TX, 77584",116616979,"L"
143147,"2608 SUNNY SHORES DR","PEARLAND","TX",77584,29.5637298340001,-95.3644681549999,147,"2608 SUNNY SHORES DR, PEARLAND, TX, 77584","Match","Exact","2608 SUNNY SHORES DR, PEARLAND, TX, 77584",116647888,"R"
143148,"2608 TATE COURT","NASHVILLE","TN",37214,36.2056387320001,-86.6868301219999,148,"2608 TATE COURT, NASHVILLE, TN, 37214","Match","Exact","2608 TATE CT, NASHVILLE, TN, 37214",97202479,"R"
143149,"2608 TEABERRY DRIVE","RICHMOND","VA",23236,37.461888792,-77.5720299989999,149,"2608 TEABERRY DRIVE, RICHMOND, VA, 23236","Match","Exact","2608 TEABERRY DR, RICHMOND, VA, 23236",201555627,"R"
143150,"2608 VANDERBILT LANE APT 5","REDONDO BEACH","CA",90278,33.871887826,-118.363973624,150,"2608 VANDERBILT LANE APT 5, REDONDO BEACH, CA, 90278","Match","Exact","2608 VANDERBILT LN, REDONDO BEACH, CA, 90278",141663204,"R"
143151,"2608 VAULX LN","NASHVILLE","TN",37204,36.123843445,-86.781252616,151,"2608 VAULX LN, NASHVILLE, TN, 37204","Match","Exact","2608 VAULX LN, NASHVILLE, TN, 37204",97191745,"L"
143152,"2608 VESTAVIA FOREST PLACE","BIRMINGHAM","AL",35216,33.430497974,-86.7964688449999,152,"2608 VESTAVIA FOREST PLACE, BIRMINGHAM, AL, 35216","Match","Exact","2608 VESTAVIA FOREST PL, BIRMINGHAM, AL, 35216",81583307,"R"
143153,"2608 XAVIER","MCALLEN","TX",78504,26.297166985,-98.233262436,153,"2608 XAVIER, MCALLEN, TX, 78504","Match","Non_Exact","2608 XAVIER AVE, MCALLEN, TX, 78504",627324707,"R"
143154,"26083 GUY PLACE ROAD","COURTLAND","VA",23837,36.771649887,-77.064195503,154,"26083 GUY PLACE ROAD, COURTLAND, VA, 23837","Match","Exact","26083 GUY PLACE RD, COURTLAND, VA, 23837",82723624,"R"
143155,"2609 14TH STREET AVE","SAINT LOUIS","MO",63106,38.6498379010001,-90.196954434,155,"2609 14TH STREET AVE, SAINT LOUIS, MO, 63106","Match","Non_Exact","2609 N 14TH ST, SAINT LOUIS, MO, 63106",107604616,"L"
143156,"2609 4TH AVE SO","MOORHEAD","MN",56560,NA,NA,156,"2609 4TH AVE SO, MOORHEAD, MN, 56560","Tie",NA,NA,NA,NA
143157,"2609 ATLANTIC AVE SUITE 207","RALEIGH","NC",27604,35.8214369190001,-78.611217467,157,"2609 ATLANTIC AVE SUITE 207, RALEIGH, NC, 27604","Match","Exact","2609 ATLANTIC AVE, RALEIGH, NC, 27604",208347732,"R"
143158,"2609 ATLANTIC AVENUE","RALEIGH","NC",27604,35.8214369190001,-78.611217467,158,"2609 ATLANTIC AVENUE, RALEIGH, NC, 27604","Match","Exact","2609 ATLANTIC AVE, RALEIGH, NC, 27604",208347732,"R"
143159,"2609 B SAWGRASS DR","WINTERVILLE","NC",28590,35.5467289640001,-77.435230189,159,"2609 B SAWGRASS DR, WINTERVILLE, NC, 28590","Match","Exact","2609 SAWGRASS DR, WINTERVILLE, NC, 28590",651976053,"L"
143160,"2609 CANYON DR","MARRERO","LA",70072,29.8422410100001,-90.1061500929999,160,"2609 CANYON DR, MARRERO, LA, 70072","Match","Exact","2609 CANYON DR, MARRERO, LA, 70072",93510006,"R"
143161,"2609 CHAROLAIS WAY","ARLINGTON","TX",76017,32.6583129800001,-97.151633289,161,"2609 CHAROLAIS WAY, ARLINGTON, TX, 76017","Match","Exact","2609 CHAROLAIS WAY, ARLINGTON, TX, 76017",101910905,"R"
143162,"2609 COUNTY ROAD 134","KAUFMAN","TX",75142,32.6094579050001,-96.172182302,162,"2609 COUNTY ROAD 134, KAUFMAN, TX, 75142","Match","Exact","2609 CO RD 134, KAUFMAN, TX, 75142",123760675,"L"
143163,"2609 DOUGLASS ROAD SE SUITE 302","WASHINGTON","DC",20020,38.8575402700001,-76.9906633589999,163,"2609 DOUGLASS ROAD SE SUITE 302, WASHINGTON, DC, 20020","Match","Non_Exact","2609 DOUGLAS RD SE, WASHINGTON, DC, 20020",76237547,"R"
143164,"2609 DOVE CREEK LN","CARROLLTON","TX",75006,32.981325165,-96.862972304,164,"2609 DOVE CREEK LN, CARROLLTON, TX, 75006","Match","Exact","2609 DOVE CREEK LN, CARROLLTON, TX, 75006",103212522,"L"
143165,"2609 E PINAL VIS","TUCSON","AZ",85713,32.1877824680001,-110.932181188,165,"2609 E PINAL VIS, TUCSON, AZ, 85713","Match","Exact","2609 E PINAL VIS, TUCSON, AZ, 85713",121176122,"L"
143166,"2609 GREYWALL AVENUE","OCOEE","FL",34761,28.574223203,-81.501502939,166,"2609 GREYWALL AVENUE, OCOEE, FL, 34761","Match","Exact","2609 GREYWALL AVE, OCOEE, FL, 34761",94342099,"R"
143167,"2609 HARTFORD ST","SAN DIEGO","CA",92110,32.7889026010001,-117.198936734,167,"2609 HARTFORD ST, SAN DIEGO, CA, 92110","Match","Exact","2609 HARTFORD ST, SAN DIEGO, CA, 92110",195304174,"R"
143168,"2609 HAWK EYE COURT","MURFREESBORO","TN",37128,35.7987327450001,-86.4078249309999,168,"2609 HAWK EYE COURT, MURFREESBORO, TN, 37128","Match","Exact","2609 HAWK EYE CT, MURFREESBORO, TN, 37128",606768775,"L"
143169,"2609 HEREFORD ROAD","DENTON","TX",76210,33.169276342,-97.105539449,169,"2609 HEREFORD ROAD, DENTON, TX, 76210","Match","Exact","2609 HEREFORD RD, DENTON, TX, 76210",218067154,"L"
143170,"2609 HERITAGE DR","MINOT","ND",58703,48.2518873540001,-101.331313918,170,"2609 HERITAGE DR, MINOT, ND, 58703","Match","Exact","2609 HERITAGE DR, MINOT, ND, 58703",640675662,"R"
143171,"2609 KNOCKAWUDDY DR","BROWNSBURG","IN",46112,39.803039369,-86.3707724349999,171,"2609 KNOCKAWUDDY DR, BROWNSBURG, IN, 46112","Match","Exact","2609 KNOCKAWUDDY DR, BROWNSBURG, IN, 46112",642172257,"L"
143172,"2609 LA CHARLES DR NE","ALBUQUERQUE","NM",87112,35.1128433700001,-106.504443168,172,"2609 LA CHARLES DR NE, ALBUQUERQUE, NM, 87112","Match","Exact","2609 LA CHARLES DR NE, ALBUQUERQUE, NM, 87112",206720528,"L"
143173,"2609 MADISON STREET","HOLLYWOOD","FL",33020,26.0061467260001,-80.159472762,173,"2609 MADISON STREET, HOLLYWOOD, FL, 33020","Match","Exact","2609 MADISON ST, HOLLYWOOD, FL, 33020",114732447,"R"
143174,"2609 MAIN STREET","MELBOURNE","FL",32901,28.0691815980001,-80.601785343,174,"2609 MAIN STREET, MELBOURNE, FL, 32901","Match","Exact","2609 MAIN ST, MELBOURNE, FL, 32901",93905452,"L"
143175,"2609 MEADOW RD","LOUISVILLE","KY",40205,38.2253276120001,-85.67784002,175,"2609 MEADOW RD, LOUISVILLE, KY, 40205","Match","Exact","2609 MEADOW RD, LOUISVILLE, KY, 40205",642505332,"L"
143176,"2609 MERRIWOOD DRIVE","LOUISVILLE","KY",40299,38.2112407750001,-85.580125986,176,"2609 MERRIWOOD DRIVE, LOUISVILLE, KY, 40299","Match","Exact","2609 MERRIWOOD DR, LOUISVILLE, KY, 40299",96864810,"L"
143177,"2609 N 50TH LANE","PHOENIX","AZ",85035,33.477409992,-112.166646168,177,"2609 N 50TH LANE, PHOENIX, AZ, 85035","Match","Exact","2609 N 50TH LN, PHOENIX, AZ, 85035",128200987,"R"
143178,"2609 NAVAJO AVE","FORT PIERCE","FL",34946,27.479216434,-80.3491474859999,178,"2609 NAVAJO AVE, FORT PIERCE, FL, 34946","Match","Exact","2609 NAVAJO AVE, FORT PIERCE, FL, 34946",622019108,"L"
143179,"2609 NE 82ND ST","SEATTLE","WA",98115,47.6884527980001,-122.299781404,179,"2609 NE 82ND ST, SEATTLE, WA, 98115","Match","Exact","2609 NE 82ND ST, SEATTLE, WA, 98115",239762118,"R"
143180,"2609 NEW HAMPSHIRE AVE","JOPLIN","MO",64804,37.0616081380001,-94.499113924,180,"2609 NEW HAMPSHIRE AVE, JOPLIN, MO, 64804","Match","Exact","2609 NEW HAMPSHIRE AVE, JOPLIN, MO, 64804",66151483,"L"
143181,"2609 NINA DR APT 3B","MEMPHIS","TN",38127,NA,NA,181,"2609 NINA DR APT 3B, MEMPHIS, TN, 38127","No_Match",NA,NA,NA,NA
143182,"2609 NORTH GARDEN LN","NORTH GARDEN","VA",22959,37.9633313190001,-78.6442764449999,182,"2609 NORTH GARDEN LN, NORTH GARDEN, VA, 22959","Match","Exact","2609 N GARDEN LN, NORTH GARDEN, VA, 22959",83380299,"R"
143183,"2609 S NEWER RD","SPOKANE VALLEY","WA",99037,NA,NA,183,"2609 S NEWER RD, SPOKANE VALLEY, WA, 99037","No_Match",NA,NA,NA,NA
143184,"2609 S QUEBEC STREET UNIT 20","DENVER","CO",80231,39.7549687360001,-104.903406629,184,"2609 S QUEBEC STREET UNIT 20, DENVER, CO, 80231","Match","Non_Exact","2609 QUEBEC ST, DENVER, CO, 80207",629111012,"L"
143185,"2609 SHAY COURT","MOBILE","AL",36695,30.635971038,-88.195886021,185,"2609 SHAY COURT, MOBILE, AL, 36695","Match","Exact","2609 SHAY CT, MOBILE, AL, 36695",61854347,"L"
143186,"2609 SNAIL KITE COURT","ST AUGUSTINE","FL",32092,29.955913299,-81.534132171,186,"2609 SNAIL KITE COURT, ST AUGUSTINE, FL, 32092","Match","Exact","2609 SNAIL KITE CT, SAINT AUGUSTINE, FL, 32092",625087925,"L"
143187,"2609 SURFWOOD DRIVE","LAS VEGAS","NV",89128,36.2075410300001,-115.278299906,187,"2609 SURFWOOD DRIVE, LAS VEGAS, NV, 89128","Match","Exact","2609 SURFWOOD DR, LAS VEGAS, NV, 89128",201917327,"R"
143188,"2609 SW 38TH TERRACE","CAPE CORAL","FL",33914,26.581028862,-82.028192202,188,"2609 SW 38TH TERRACE, CAPE CORAL, FL, 33914","Match","Exact","2609 SW 38TH TER, CAPE CORAL, FL, 33914",118001753,"R"
143189,"2609 TACKLES DR","WHITE LAKE","MI",48386,42.6737648490001,-83.4658308529999,189,"2609 TACKLES DR, WHITE LAKE, MI, 48386","Match","Exact","2609 TACKLES DR, WHITE LAKE, MI, 48386",69768035,"L"
143190,"2609 TREMONT BLVD","MCKINNEY","TX",75071,33.2243941520001,-96.714689955,190,"2609 TREMONT BLVD, MCKINNEY, TX, 75071","Match","Exact","2609 TREMONT BLVD, MCKINNEY, TX, 75071",642934802,"L"
143191,"2609 W ATLANTA CT","BROKEN ARROW","OK",74012,36.0286815520001,-95.8226221419999,191,"2609 W ATLANTA CT, BROKEN ARROW, OK, 74012","Match","Exact","2609 W ATLANTA CT, BROKEN ARROW, OK, 74012",166463754,"R"
143192,"2609 W LANE AVE","PHOENIX","AZ",85051,33.5520816740001,-112.115126503,192,"2609 W LANE AVE, PHOENIX, AZ, 85051","Match","Exact","2609 W LANE AVE, PHOENIX, AZ, 85051",128202845,"L"
143193,"2609 W SOUTHERN AVE LOT 360","TEMPE","AZ",85282,NA,NA,193,"2609 W SOUTHERN AVE LOT 360, TEMPE, AZ, 85282","Tie",NA,NA,NA,NA
143194,"2609 W SOUTHERN AVE UNIT 301","TEMPE","AZ",85282,NA,NA,194,"2609 W SOUTHERN AVE UNIT 301, TEMPE, AZ, 85282","Tie",NA,NA,NA,NA
143195,"2609 WASHINGTON STREET","CARLSBAD","NM",88220,32.415454067,-104.260143183,195,"2609 WASHINGTON STREET, CARLSBAD, NM, 88220","Match","Exact","2609 WASHINGTON ST, CARLSBAD, NM, 88220",131228283,"L"
143196,"2609 WEST SOUTHERN AVE UNIT 301","TEMPE","AZ",85282,33.3928169870001,-111.976254941,196,"2609 WEST SOUTHERN AVE UNIT 301, TEMPE, AZ, 85282","Match","Exact","2609 W SOUTHERN AVE, TEMPE, AZ, 85282",128838398,"L"
143197,"26090 GRAZING CT","ALDIE","VA",20105,38.8956326750001,-77.546262547,197,"26090 GRAZING CT, ALDIE, VA, 20105","Match","Exact","26090 GRAZING CT, ALDIE, VA, 20105",645696961,"R"
143198,"26092 FM 2090","SPLENDORA","TX",77372,30.2330846300001,-95.159872324,198,"26092 FM 2090, SPLENDORA, TX, 77372","Match","Non_Exact","26092 FM 2090 RD, SPLENDORA, TX, 77372",79303124,"R"
143199,"261 3RD AVE NW","HUTCHINSON","MN",55350,44.8960416200001,-94.377646006,199,"261 3RD AVE NW, HUTCHINSON, MN, 55350","Match","Exact","261 3RD AVE NW, HUTCHINSON, MN, 55350",36818599,"L"
143200,"261 ANN DRIVE","MIDDLETOWN","DE",19709,39.535972079,-75.657487858,200,"261 ANN DRIVE, MIDDLETOWN, DE, 19709","Match","Exact","261 ANN DR, MIDDLETOWN, DE, 19709",648699946,"L"
143201,"261 ARCADE AVENUE","SEEKONK","MA",2771,41.8364426540001,-71.3318109529999,201,"261 ARCADE AVENUE, SEEKONK, MA, 2771","Match","Exact","261 ARCADE AVE, SEEKONK, MA, 02771",46814518,"L"
143202,"261 BARFIELD CRESCENT RD APT 709","MURFREESBORO","TN",37128,NA,NA,202,"261 BARFIELD CRESCENT RD APT 709, MURFREESBORO, TN, 37128","No_Match",NA,NA,NA,NA
143203,"261 BARWYNNE LANE","WYNNEWOOD","PA",19096,39.9897806390001,-75.273883171,203,"261 BARWYNNE LANE, WYNNEWOOD, PA, 19096","Match","Exact","261 BARWYNNE LN, WYNNEWOOD, PA, 19096",647891617,"L"
143204,"261 BLOSSOM DR","CANTON","MI",48188,42.303750516,-83.470143788,204,"261 BLOSSOM DR, CANTON, MI, 48188","Match","Exact","261 BLOSSOM DR, CANTON, MI, 48188",95697774,"R"
143205,"261 BROWER AVENUE","ROCKVILLE CENTRE","NY",11570,40.667198082,-73.630924422,205,"261 BROWER AVENUE, ROCKVILLE CENTRE, NY, 11570","Match","Exact","261 BROWER AVE, ROCKVILLE CENTRE, NY, 11570",147676757,"R"
143206,"261 BUCKCAMP RD","MCCALL","ID",83638,44.857744896,-116.143431291,206,"261 BUCKCAMP RD, MCCALL, ID, 83638","Match","Non_Exact","261 BUCKCAMP LN, MCCALL, ID, 83638",650009515,"R"
143207,"261 CALLE TANCA","OLD SAN JUAN","PR",901,NA,NA,207,"261 CALLE TANCA, OLD SAN JUAN, PR, 901","No_Match",NA,NA,NA,NA
143208,"261 CAMDEN HILLS DR","MONTGOMERY","TX",77356,30.4317746580001,-95.6380752159999,208,"261 CAMDEN HILLS DR, MONTGOMERY, TX, 77356","Match","Exact","261 CAMDEN HILLS DR, MONTGOMERY, TX, 77356",79315490,"L"
143209,"261 CEDAR GROVE PARKWAY","ALABASTER","AL",35007,33.236888945,-86.8423932589999,209,"261 CEDAR GROVE PARKWAY, ALABASTER, AL, 35007","Match","Exact","261 CEDAR GROVE PKWY, ALABASTER, AL, 35007",652579728,"L"
143210,"261 CIMMARON CIR","FOLSOM","CA",95630,38.6835128110001,-121.154862238,210,"261 CIMMARON CIR, FOLSOM, CA, 95630","Match","Exact","261 CIMMARON CIR, FOLSOM, CA, 95630",133358218,"R"
143211,"261 DELVIN DR","ANTIOCH","TN",37013,36.0534315630001,-86.699399052,211,"261 DELVIN DR, ANTIOCH, TN, 37013","Match","Exact","261 DELVIN DR, ANTIOCH, TN, 37013",97198063,"L"
143212,"261 E CHURCH ST","ELMHURST","IL",60126,41.894714112,-87.932024966,212,"261 E CHURCH ST, ELMHURST, IL, 60126","Match","Exact","261 E CHURCH ST, ELMHURST, IL, 60126",112545464,"L"
143213,"261 E INDIGO ST","COMPTON","CA",90220,33.8914055130001,-118.220571041,213,"261 E INDIGO ST, COMPTON, CA, 90220","Match","Exact","261 E INDIGO ST, COMPTON, CA, 90220",141682553,"L"
143214,"261 EAST RAMONA AVENUE","SALT LAKE CITY","UT",84115,40.728049222,-111.883635814,214,"261 EAST RAMONA AVENUE, SALT LAKE CITY, UT, 84115","Match","Non_Exact","261 RAMONA AVE, SALT LAKE CITY, UT, 84115",176078707,"L"
143215,"261 FLAT RIDGE DRIVE","LAKE TOXAWAY","NC",28747,35.1095225440001,-82.898447958,215,"261 FLAT RIDGE DRIVE, LAKE TOXAWAY, NC, 28747","Match","Exact","261 FLAT RIDGE DR, LAKE TOXAWAY, NC, 28747",133739374,"L"
143216,"261 GOLD STAR STREET","HENDERSON","NV",89012,36.0171212650001,-115.04807512,216,"261 GOLD STAR STREET, HENDERSON, NV, 89012","Match","Non_Exact","261 GOLDSTAR ST, HENDERSON, NV, 89012",641518438,"L"
143217,"261 HITCHCOCK RD","DALLAS","GA",30157,33.816693194,-84.860033834,217,"261 HITCHCOCK RD, DALLAS, GA, 30157","Match","Exact","261 HITCHCOCK RD, DALLAS, GA, 30157",17730063,"R"
143218,"261 HWY 45","PELICAN LAKE","WI",54463,45.479416545,-89.179137179,218,"261 HWY 45, PELICAN LAKE, WI, 54463","Match","Non_Exact","261 US HWY 45, PELICAN LAKE, WI, 54463",196617164,"L"
143219,"261 LARRY HENRY RD","WEST MONROE","LA",71292,32.4064605720001,-92.267098592,219,"261 LARRY HENRY RD, WEST MONROE, LA, 71292","Match","Exact","261 LARRY HENRY RD, WEST MONROE, LA, 71292",612382653,"R"
143220,"261 LIMEKILN RD","READING","PA",19606,40.361802497,-75.821831376,220,"261 LIMEKILN RD, READING, PA, 19606","Match","Exact","261 LIMEKILN RD, READING, PA, 19606",80379878,"L"
143221,"261 LINCOLN STREET","TWIN FALLS","ID",83301,42.5660440080001,-114.46152886,221,"261 LINCOLN STREET, TWIN FALLS, ID, 83301","Match","Exact","261 LINCOLN ST, TWIN FALLS, ID, 83301",118761597,"L"
143222,"261 LOBACHSVILLE ROAD","OLEY","PA",19547,40.4109207650001,-75.7384083649999,222,"261 LOBACHSVILLE ROAD, OLEY, PA, 19547","Match","Exact","261 LOBACHSVILLE RD, OLEY, PA, 19547",80448606,"R"
143223,"261 MAIN STREET - UNIT D","NYACK","NY",10960,41.0918721210001,-73.927389822,223,"261 MAIN STREET - UNIT D, NYACK, NY, 10960","Match","Exact","261 MAIN ST, NYACK, NY, 10960",124600416,"L"
143224,"261 MATTIONO WAY","HENDERSON","NV",89074,36.0470174750001,-115.116436848,224,"261 MATTIONO WAY, HENDERSON, NV, 89074","Match","Non_Exact","261 MATTINO WAY, HENDERSON, NV, 89074",201910560,"L"
143225,"261 MERCER MALL RD SUITE 104","BLUEFIELD","WV",24701,NA,NA,225,"261 MERCER MALL RD SUITE 104, BLUEFIELD, WV, 24701","No_Match",NA,NA,NA,NA
143226,"261 MERION COURT","MARTINEZ","GA",30907,33.4944809880001,-82.143039689,226,"261 MERION COURT, MARTINEZ, GA, 30907","Match","Exact","261 MERION CT, MARTINEZ, GA, 30907",55373072,"R"
143227,"261 MILLS ST APT 203","ATLANTA","GA",30313,33.7653455,-84.395574187,227,"261 MILLS ST APT 203, ATLANTA, GA, 30313","Match","Non_Exact","261 MILLS ST NW, ATLANTA, GA, 30313",17343968,"R"
143228,"261 MONTAUK AVENUE APT 2","BROOKLYN","NY",11208,40.6724700520001,-73.877520573,228,"261 MONTAUK AVENUE APT 2, BROOKLYN, NY, 11208","Match","Exact","261 MONTAUK AVE, BROOKLYN, NY, 11208",59085530,"L"
143229,"261 N CAMBRIDGE ST","ORANGE","CA",92866,33.790750679,-117.84438183,229,"261 N CAMBRIDGE ST, ORANGE, CA, 92866","Match","Exact","261 N CAMBRIDGE ST, ORANGE, CA, 92866",144051403,"R"
143230,"261 N FISK ST","ST. PAUL","MN",55104,44.949187152,-93.134829549,230,"261 N FISK ST, ST. PAUL, MN, 55104","Match","Exact","261 N FISK ST, SAINT PAUL, MN, 55104",97646693,"L"
143231,"261 N MADISON AVE APT 411","PASADENA","CA",91101,NA,NA,231,"261 N MADISON AVE APT 411, PASADENA, CA, 91101","Tie",NA,NA,NA,NA
143232,"261 NAUTICA DRIVE","PORT WASHINGTON","WI",53074,43.3890809580001,-87.894416979,232,"261 NAUTICA DRIVE, PORT WASHINGTON, WI, 53074","Match","Exact","261 NAUTICA DR, PORT WASHINGTON, WI, 53074",95910690,"L"
143233,"261 NE 1ST STREET - 5TH FLOOR","MIAMI","FL",33132,25.7752371930001,-80.189970736,233,"261 NE 1ST STREET - 5TH FLOOR, MIAMI, FL, 33132","Match","Non_Exact","261 NE 1ST ST, MIAMI, FL, 33132",116285854,"L"
143234,"261 NICHOLLS HILL RD","BELLE VERNON","PA",15012,40.1550879550001,-79.793631467,234,"261 NICHOLLS HILL RD, BELLE VERNON, PA, 15012","Match","Exact","261 NICHOLLS HILL RD, BELLE VERNON, PA, 15012",613054638,"R"
143235,"261 NORFELD BLVD","ELMONT","NY",11003,40.695280832,-73.704755945,235,"261 NORFELD BLVD, ELMONT, NY, 11003","Match","Exact","261 NORFELD BLVD, ELMONT, NY, 11003",147667951,"R"
143236,"261 NW 13TH ST","BOCA RATON","FL",33432,26.361930118,-80.0911056799999,236,"261 NW 13TH ST, BOCA RATON, FL, 33432","Match","Exact","261 NW 13TH ST, BOCA RATON, FL, 33432",115302963,"R"
143237,"261 OYSTER BAY ROAD","MILL NECK","NY",11765,NA,NA,237,"261 OYSTER BAY ROAD, MILL NECK, NY, 11765","No_Match",NA,NA,NA,NA
143238,"261 PARK AVENUE","RUTHERFORD","NJ",7070,40.8237619230001,-74.1134398729999,238,"261 PARK AVENUE, RUTHERFORD, NJ, 7070","Match","Exact","261 PARK AVE, RUTHERFORD, NJ, 07070",64394388,"L"
143239,"261 PINE NEEDLE TRAIL","VILLA RICA","GA",30180,33.7601114650001,-84.9547901299999,239,"261 PINE NEEDLE TRAIL, VILLA RICA, GA, 30180","Match","Exact","261 PINE NEEDLE TRL, VILLA RICA, GA, 30180",644981957,"R"
143240,"261 RALPH DAVID ABERNATHY BLVD SW","ATLANTA","GA",30312,33.736892939,-84.3965977679999,240,"261 RALPH DAVID ABERNATHY BLVD SW, ATLANTA, GA, 30312","Match","Non_Exact","261 RALPH DAVID ABERNATHY BLVD, ATLANTA, GA, 30312",17345992,"R"
143241,"261 RED CLAY RD STE 201","MARYLAND CITY","MD",20724,39.094601507,-76.811733684,241,"261 RED CLAY RD STE 201, MARYLAND CITY, MD, 20724","Match","Exact","261 RED CLAY RD, MARYLAND CITY, MD, 20724",68206015,"L"
143242,"261 REGENCY CIRCLE","LEXINGTON","KY",40503,38.0123202520001,-84.523989534,242,"261 REGENCY CIRCLE, LEXINGTON, KY, 40503","Match","Exact","261 REGENCY CIR, LEXINGTON, KY, 40503",31922931,"R"
143243,"261 RHOADES ST","AZLE","TX",76020,32.921633899,-97.53105906,243,"261 RHOADES ST, AZLE, TX, 76020","Match","Exact","261 RHOADES ST, AZLE, TX, 76020",101849375,"L"
143244,"261 RIVERCREST DRIVE","GREENVILLE","NC",27858,35.587295108,-77.272742724,244,"261 RIVERCREST DRIVE, GREENVILLE, NC, 27858","Match","Exact","261 RIVERCREST DR, GREENVILLE, NC, 27858",80040599,"R"
143245,"261 ROCKY ROAD","SHELTON","WA",98584,47.1138838470001,-123.088358903,245,"261 ROCKY ROAD, SHELTON, WA, 98584","Match","Non_Exact","261 SE ROCKY RD, SHELTON, WA, 98584",180856242,"L"
143246,"261 ROSEBURY COURT","MAYFIELD HTS","OH",44124,41.515564054,-81.4410107959999,246,"261 ROSEBURY COURT, MAYFIELD HTS, OH, 44124","Match","Exact","261 ROSEBURY CT, MAYFIELD HEIGHTS, OH, 44124",642632112,"R"
143247,"261 RUCCIO WAY","LEXINGTON","KY",40503,37.997243294,-84.531450911,247,"261 RUCCIO WAY, LEXINGTON, KY, 40503","Match","Exact","261 RUCCIO WAY, LEXINGTON, KY, 40503",31950663,"R"
143248,"261 S MAIN ST NUM 184","NEWTOWN","CT",6470,41.3696230840001,-73.271203427,248,"261 S MAIN ST NUM 184, NEWTOWN, CT, 6470","Match","Non_Exact","261 S MAIN ST, NEWTOWN, CT, 06470",618518453,"L"
143249,"261 S ORANGE AVENUE","ORANGE CITY","FL",32763,28.9467747480001,-81.292674252,249,"261 S ORANGE AVENUE, ORANGE CITY, FL, 32763","Match","Exact","261 S ORANGE AVE, ORANGE CITY, FL, 32763",94517895,"R"
143250,"261 SANTIAGO AVE","RUTHERFORD","NJ",7070,40.8327822750001,-74.116368474,250,"261 SANTIAGO AVE, RUTHERFORD, NJ, 7070","Match","Exact","261 SANTIAGO AVE, RUTHERFORD, NJ, 07070",64394235,"L"
143251,"261 SEMINOLE WOODS BLVD","GENEVA","FL",32732,28.7309242580001,-81.125403668,251,"261 SEMINOLE WOODS BLVD, GENEVA, FL, 32732","Match","Exact","261 SEMINOLE WOODS BLVD, GENEVA, FL, 32732",605419986,"R"
143252,"261 SHANGRI LN","BEDFORD","PA",15522,40.038947314,-78.4952213559999,252,"261 SHANGRI LN, BEDFORD, PA, 15522","Match","Exact","261 SHANGRI LN, BEDFORD, PA, 15522",624686364,"L"
143253,"261 SOUTH FRANKLIN STREET","HEMPSTEAD","NY",11550,40.697169037,-73.622202994,253,"261 SOUTH FRANKLIN STREET, HEMPSTEAD, NY, 11550","Match","Exact","261 S FRANKLIN ST, HEMPSTEAD, NY, 11550",147628724,"R"
143254,"261 SOUTH RIDGEDALE AVENUE","EAST HANOVER","NJ",7936,40.7956339620001,-74.3898239379999,254,"261 SOUTH RIDGEDALE AVENUE, EAST HANOVER, NJ, 7936","Match","Exact","261 S RIDGEDALE AVE, EAST HANOVER, NJ, 07936",60492918,"R"
143255,"261 STEVENS STREET","HYANNIS","MA",2601,41.6510850400001,-70.293992928,255,"261 STEVENS STREET, HYANNIS, MA, 2601","Match","Exact","261 STEVENS ST, HYANNIS, MA, 02601",121641078,"R"
143256,"261 THORNTON DRIVE","MCCONNELLSBURG","PA",17233,39.9149477180001,-77.9888648359999,256,"261 THORNTON DRIVE, MCCONNELLSBURG, PA, 17233","Match","Non_Exact","261 THORNTON DR, MC CONNELLSBURG, PA, 17233",61018526,"R"
143257,"261 TOM HUNTER ROAD","FORT LEE","NJ",7024,40.8482263700001,-73.97368189,257,"261 TOM HUNTER ROAD, FORT LEE, NJ, 7024","Match","Exact","261 TOM HUNTER RD, FORT LEE, NJ, 07024",64391929,"R"
143258,"261 UPSHAW STREET SW","ATLANTA","GA",30315,33.7111270660001,-84.3975380859999,258,"261 UPSHAW STREET SW, ATLANTA, GA, 30315","Match","Exact","261 UPSHAW ST SW, ATLANTA, GA, 30315",17346700,"R"
143259,"261 VALLERIE DRIVE","LINCOLNTON","NC",28092,35.4941817970001,-81.237589047,259,"261 VALLERIE DRIVE, LINCOLNTON, NC, 28092","Match","Non_Exact","261 VALERIE DR, LINCOLNTON, NC, 28092",624966940,"L"
143260,"261 VT RTE 132","NORWICH","VT",5055,43.764444795,-72.242045858,260,"261 VT RTE 132, NORWICH, VT, 5055","Match","Non_Exact","261 STATE RTE 132, NORWICH, VT, 05055",139281986,"L"
143261,"261 W DEYETTE RD","SHELTON","WA",98584,47.3091504330001,-123.200779848,261,"261 W DEYETTE RD, SHELTON, WA, 98584","Match","Exact","261 W DEYETTE RD, SHELTON, WA, 98584",180848865,"L"
143262,"261 W GRAISBURY AVENUE","AUDUBON","NJ",8106,39.89048288,-75.073144547,262,"261 W GRAISBURY AVENUE, AUDUBON, NJ, 8106","Match","Exact","261 W GRAISBURY AVE, AUDUBON, NJ, 08106",134350322,"R"
143263,"261 W LA CANOA","GREEN VALLEY","AZ",85614,31.882080628,-110.993053676,263,"261 W LA CANOA, GREEN VALLEY, AZ, 85614","Match","Non_Exact","261 W LA CANOA, GREEN VALLEY, AZ, 85614",121121729,"R"
143264,"261 WALNUT ST NW APT 9","ATLANTA","GA",30314,33.761486022,-84.4063833279999,264,"261 WALNUT ST NW APT 9, ATLANTA, GA, 30314","Match","Exact","261 WALNUT ST NW, ATLANTA, GA, 30314",17342872,"R"
143265,"261 WASHINGTON AVE","CEDARHURST","NY",11516,40.622644419,-73.728412304,265,"261 WASHINGTON AVE, CEDARHURST, NY, 11516","Match","Exact","261 WASHINGTON AVE, CEDARHURST, NY, 11516",147657434,"L"
143266,"261 WEST CHAPEL RIDGE ROAD","PITTSBURGH","PA",15238,40.545134741,-79.879643119,266,"261 WEST CHAPEL RIDGE ROAD, PITTSBURGH, PA, 15238","Match","Exact","261 W CHAPEL RIDGE RD, PITTSBURGH, PA, 15238",647542694,"L"
143267,"261 WESTWOOK DRIVE","SAN ANGELO","TX",76901,NA,NA,267,"261 WESTWOOK DRIVE, SAN ANGELO, TX, 76901","No_Match",NA,NA,NA,NA
143268,"261 WHITE OAK RD","MANHEIM","PA",17545,40.1753504320001,-76.388907629,268,"261 WHITE OAK RD, MANHEIM, PA, 17545","Match","Exact","261 WHITE OAK RD, MANHEIM, PA, 17545",642655695,"L"
143269,"261 WHITES HILL LANE","FAIRFIELD","CT",6824,41.1593653630001,-73.2894939399999,269,"261 WHITES HILL LANE, FAIRFIELD, CT, 6824","Match","Exact","261 WHITES HILL LN, FAIRFIELD, CT, 06824",633244677,"L"
143270,"261 WHITESAND CT","CASSELBERRY","FL",32707,28.6654853580001,-81.29387095,270,"261 WHITESAND CT, CASSELBERRY, FL, 32707","Match","Exact","261 WHITESAND CT, CASSELBERRY, FL, 32707",93773456,"L"
143271,"261 WHITMIRE CHURCH RD","TAMASSEE","SC",29686,34.9039869550001,-83.01979998,271,"261 WHITMIRE CHURCH RD, TAMASSEE, SC, 29686","Match","Exact","261 WHITMIRE CHURCH RD, TAMASSEE, SC, 29686",640618664,"L"
143272,"261","LEESBURG","VA",20175,NA,NA,272,"261, LEESBURG, VA, 20175","No_Match",NA,NA,NA,NA
143273,"2610 11TH AVE","OAKLAND","CA",94606,37.7990130430001,-122.238102152,273,"2610 11TH AVE, OAKLAND, CA, 94606","Match","Exact","2610 11TH AVE, OAKLAND, CA, 94606",125002346,"R"
143274,"2610 ALLEN ST APT 2402","DALLAS","TX",75204,32.799000989,-96.8000041399999,274,"2610 ALLEN ST APT 2402, DALLAS, TX, 75204","Match","Exact","2610 ALLEN ST, DALLAS, TX, 75204",102909134,"R"
143275,"2610 ASH HAVEN LANE","KATY","TX",77449,29.8114644300001,-95.7473735359999,275,"2610 ASH HAVEN LANE, KATY, TX, 77449","Match","Exact","2610 ASH HAVEN LN, KATY, TX, 77449",633571974,"L"
143276,"2610 ASHBOURNE DRIVE","LAWRENCEVILLE","GA",30043,34.025495393,-84.020431619,276,"2610 ASHBOURNE DRIVE, LAWRENCEVILLE, GA, 30043","Match","Non_Exact","2610 ASHBOURNE DR NE, LAWRENCEVILLE, GA, 30043",88920508,"R"
143277,"2610 BILLINGS PARK DRIVE","CHARLOTTE","NC",28213,35.2961348540001,-80.708215867,277,"2610 BILLINGS PARK DRIVE, CHARLOTTE, NC, 28213","Match","Exact","2610 BILLINGS PARK DR, CHARLOTTE, NC, 28213",70547960,"R"
143278,"2610 BRIAR ROSE COURT","PEARLAND","TX",77584,29.564281572,-95.430662346,278,"2610 BRIAR ROSE COURT, PEARLAND, TX, 77584","Match","Exact","2610 BRIAR ROSE CT, PEARLAND, TX, 77584",635754850,"L"
143279,"2610 BROOK RD","CORINTH","VT",5039,44.0396315680001,-72.2657140699999,279,"2610 BROOK RD, CORINTH, VT, 5039","Match","Exact","2610 BROOK RD, CORINTH, VT, 05039",635477387,"L"
143280,"2610 CATES AVE CAMPUS BOX 7295","RALEIGH","NC",27695,NA,NA,280,"2610 CATES AVE CAMPUS BOX 7295, RALEIGH, NC, 27695","No_Match",NA,NA,NA,NA
143281,"2610 CATES AVE NCSU CAMPUS BOX 7295","RALEIGH","NC",27695,NA,NA,281,"2610 CATES AVE NCSU CAMPUS BOX 7295, RALEIGH, NC, 27695","No_Match",NA,NA,NA,NA
143282,"2610 CATES AVE TALLEY 4210","RALEIGH","NC",27695,NA,NA,282,"2610 CATES AVE TALLEY 4210, RALEIGH, NC, 27695","No_Match",NA,NA,NA,NA
143283,"2610 CATES AVE","RALEIGH","NC",27695,NA,NA,283,"2610 CATES AVE, RALEIGH, NC, 27695","No_Match",NA,NA,NA,NA
143284,"2610 CATES AVENUE CAMPUS BOX 7295","RALEIGH","NC",27607,NA,NA,284,"2610 CATES AVENUE CAMPUS BOX 7295, RALEIGH, NC, 27607","No_Match",NA,NA,NA,NA
143285,"2610 CATES AVENUE CAMPUS BOX 7295","RALEIGH","NC",27695,NA,NA,285,"2610 CATES AVENUE CAMPUS BOX 7295, RALEIGH, NC, 27695","No_Match",NA,NA,NA,NA
143286,"2610 CATES AVENUE CAMPUS BOX 7295","RALEIGH","NC",27965,NA,NA,286,"2610 CATES AVENUE CAMPUS BOX 7295, RALEIGH, NC, 27965","No_Match",NA,NA,NA,NA
143287,"2610 CATES AVENUE PO BOX 7295","RALEIGH","NC",27606,NA,NA,287,"2610 CATES AVENUE PO BOX 7295, RALEIGH, NC, 27606","No_Match",NA,NA,NA,NA
143288,"2610 CATES AVENUE ROOM 4210","RALEIGH","NC",27695,NA,NA,288,"2610 CATES AVENUE ROOM 4210, RALEIGH, NC, 27695","No_Match",NA,NA,NA,NA
143289,"2610 CATES AVENUE","RALEIGH","NC",27695,NA,NA,289,"2610 CATES AVENUE, RALEIGH, NC, 27695","No_Match",NA,NA,NA,NA
143290,"2610 CLOUDY MEADOW","SAN ANTONIO","TX",78222,29.394541487,-98.3715366439999,290,"2610 CLOUDY MEADOW, SAN ANTONIO, TX, 78222","Match","Exact","2610 CLOUDY MEADOW, SAN ANTONIO, TX, 78222",101742099,"L"
143291,"2610 COLUMBUS AVE","SANDUSKY","OH",44870,41.4303717350001,-82.696532372,291,"2610 COLUMBUS AVE, SANDUSKY, OH, 44870","Match","Exact","2610 COLUMBUS AVE, SANDUSKY, OH, 44870",55325255,"R"
143292,"2610 COVINGTON CLUB CT","FORT WAYNE","IN",46804,41.060705618,-85.206597996,292,"2610 COVINGTON CLUB CT, FORT WAYNE, IN, 46804","Match","Exact","2610 COVINGTON CLUB CT, FORT WAYNE, IN, 46804",6374149,"R"
143293,"2610 DELMORE","CUYAHOGA FALLS","OH",44221,NA,NA,293,"2610 DELMORE, CUYAHOGA FALLS, OH, 44221","No_Match",NA,NA,NA,NA
143294,"2610 DUBLIN DRIVE","AUGUSTA","GA",30906,33.4214046710001,-82.090021827,294,"2610 DUBLIN DRIVE, AUGUSTA, GA, 30906","Match","Exact","2610 DUBLIN DR, AUGUSTA, GA, 30906",55634913,"R"
143295,"2610 E CROYDEN STREET","TUCSON","AZ",85716,32.217853312,-110.93345174,295,"2610 E CROYDEN STREET, TUCSON, AZ, 85716","Match","Exact","2610 E CROYDEN ST, TUCSON, AZ, 85716",121174619,"R"
143296,"2610 E NORTHERN LIGHTS BLVD","ANCHORAGE","AK",99508,61.195359018,-149.835375524,296,"2610 E NORTHERN LIGHTS BLVD, ANCHORAGE, AK, 99508","Match","Exact","2610 E NORTHERN LIGHTS BLVD, ANCHORAGE, AK, 99508",647160753,"R"
143297,"2610 EAST 2ND STREET","AUSTIN","TX",78702,30.254716075,-97.714679679,297,"2610 EAST 2ND STREET, AUSTIN, TX, 78702","Match","Exact","2610 E 2ND ST, AUSTIN, TX, 78702",63948898,"L"
143298,"2610 EISENHOWER STREET","SELMA","AL",36701,32.367876354,-87.0195875049999,298,"2610 EISENHOWER STREET, SELMA, AL, 36701","Match","Exact","2610 EISENHOWER ST, SELMA, AL, 36701",1300823,"L"
143299,"2610 EL CAMINO REAL SUITE A","CARLSBAD","CA",92008,33.1772716890001,-117.326473,299,"2610 EL CAMINO REAL SUITE A, CARLSBAD, CA, 92008","Match","Exact","2610 EL CAMINO REAL, CARLSBAD, CA, 92008",640047106,"L"
143300,"2610 EXETER AVE","DALLAS","TX",75216,32.705249742,-96.782788311,300,"2610 EXETER AVE, DALLAS, TX, 75216","Match","Exact","2610 EXETER AVE, DALLAS, TX, 75216",102952159,"R"
143301,"2610 FAIRVIEW LANE","JONESBORO","GA",30236,33.5040020110001,-84.307609907,301,"2610 FAIRVIEW LANE, JONESBORO, GA, 30236","Match","Exact","2610 FAIRVIEW LN, JONESBORO, GA, 30236",23321913,"R"
143302,"2610 FLOYD STREET","GREENSBORO","NC",27406,36.0382983530001,-79.809092689,302,"2610 FLOYD STREET, GREENSBORO, NC, 27406","Match","Exact","2610 FLOYD ST, GREENSBORO, NC, 27406",131045870,"R"
143303,"2610 GEORGIA HIGHWAY 155 SW","STOCKBRIDGE","GA",30281,NA,NA,303,"2610 GEORGIA HIGHWAY 155 SW, STOCKBRIDGE, GA, 30281","No_Match",NA,NA,NA,NA
143304,"2610 GOLDENROD STREET","PASADENA","TX",77503,29.674041447,-95.160072144,304,"2610 GOLDENROD STREET, PASADENA, TX, 77503","Match","Exact","2610 GOLDENROD ST, PASADENA, TX, 77503",96105225,"R"
143305,"2610 GRASSMERE LANE","ORLANDO","FL",32808,28.5785516610001,-81.462633237,305,"2610 GRASSMERE LANE, ORLANDO, FL, 32808","Match","Exact","2610 GRASSMERE LN, ORLANDO, FL, 32808",94269029,"L"
143306,"2610 HAVERSACK COURT","MARIETTA","GA",30008,33.8883191850001,-84.5908556749999,306,"2610 HAVERSACK COURT, MARIETTA, GA, 30008","Match","Non_Exact","2610 HAVERSACK CT SW, MARIETTA, GA, 30008",17216333,"L"
143307,"2610 HEWN ROCK WAY","PEARLAND","TX",77584,29.561769547,-95.378369247,307,"2610 HEWN ROCK WAY, PEARLAND, TX, 77584","Match","Exact","2610 HEWN ROCK WAY, PEARLAND, TX, 77584",116651180,"R"
143308,"2610 HIGH RIDGE AVE","ST. LOUIS","MO",63136,38.7358531940001,-90.266463124,308,"2610 HIGH RIDGE AVE, ST. LOUIS, MO, 63136","Match","Exact","2610 HIGH RIDGE AVE, SAINT LOUIS, MO, 63136",100147269,"L"
143309,"2610 HIGHWAY 155 SOUTHWEST","STOCKBRIDGE","GA",30281,NA,NA,309,"2610 HIGHWAY 155 SOUTHWEST, STOCKBRIDGE, GA, 30281","No_Match",NA,NA,NA,NA
143310,"2610 HORIZON DR SE - SUITE 130","GRAND RAPIDS","MI",49546,42.9165040620001,-85.544087529,310,"2610 HORIZON DR SE - SUITE 130, GRAND RAPIDS, MI, 49546","Match","Exact","2610 HORIZON DR SE, GRAND RAPIDS, MI, 49546",12475057,"L"
143311,"2610 INDUSTRIAL CT","HASTINGS","MN",55033,44.7218631370001,-92.842964246,311,"2610 INDUSTRIAL CT, HASTINGS, MN, 55033","Match","Exact","2610 INDUSTRIAL CT, HASTINGS, MN, 55033",37939513,"L"
143312,"2610 LYNCREST DR","COLROADO SPRINGS","CO",80918,38.9165108130001,-104.780409139,312,"2610 LYNCREST DR, COLROADO SPRINGS, CO, 80918","Match","Non_Exact","2610 LYNCREST DR, COLORADO SPRINGS, CO, 80918",105546898,"L"
143313,"2610 MARINA BAY DRIVE E APT 510","FORT LAUDERDALE","FL",33312,26.0895126230001,-80.169723263,313,"2610 MARINA BAY DRIVE E APT 510, FORT LAUDERDALE, FL, 33312","Match","Exact","2610 MARINA BAY DR E, FORT LAUDERDALE, FL, 33312",637919389,"R"
143314,"2610 MCARTHUR STREET","TALLAHASSEE","FL",32310,30.4237575810001,-84.330634792,314,"2610 MCARTHUR STREET, TALLAHASSEE, FL, 32310","Match","Non_Exact","2610 MC ARTHUR ST, TALLAHASSEE, FL, 32310",82848311,"R"
143315,"2610 N  3BS AND K RD","SUNBURY","OH",43074,NA,NA,315,"2610 N  3BS AND K RD, SUNBURY, OH, 43074","No_Match",NA,NA,NA,NA
143316,"2610 N CALIFORNIA AVENUE  APT B","PEORIA","IL",61603,40.718630488,-89.588946107,316,"2610 N CALIFORNIA AVENUE  APT B, PEORIA, IL, 61603","Match","Non_Exact","2610 N CALIFORNIA AVE, PEORIA, IL, 61603",618028369,"R"
143317,"2610 N COFFEE POT RD","AUSTIN","IN",47102,38.7300056890001,-85.781515069,317,"2610 N COFFEE POT RD, AUSTIN, IN, 47102","Match","Exact","2610 COFFEE POT RD, AUSTIN, IN, 47102",31602199,"R"
143318,"2610 NE 45 ST","LIGHTHOUSE POINT","FL",33064,26.2873073800001,-80.087977856,318,"2610 NE 45 ST, LIGHTHOUSE POINT, FL, 33064","Match","Exact","2610 NE 45TH ST, LIGHTHOUSE POINT, FL, 33064",639263257,"R"
143319,"2610 PARK MEADOWS AVE","DEER PARK","TX",77536,29.6871897520001,-95.1081626279999,319,"2610 PARK MEADOWS AVE, DEER PARK, TX, 77536","Match","Exact","2610 PARK MEADOWS AVE, DEER PARK, TX, 77536",96558304,"R"
143320,"2610 PENBROOK DR","RACINE","WI",53406,42.7497429160001,-87.861620885,320,"2610 PENBROOK DR, RACINE, WI, 53406","Match","Exact","2610 PENBROOK DR, RACINE, WI, 53406",77935330,"R"
143321,"2610 RIVER LILLY DR","KINGWOOD","TX",77345,30.0759895890001,-95.162811719,321,"2610 RIVER LILLY DR, KINGWOOD, TX, 77345","Match","Exact","2610 RIVER LILLY DR, KINGWOOD, TX, 77345",635782555,"L"
143322,"2610 S BLACK HORSE PIKE","WILLIMASTOWN","NJ",8094,39.6453060950001,-74.943897761,322,"2610 S BLACK HORSE PIKE, WILLIMASTOWN, NJ, 8094","Match","Non_Exact","2610 S BLACK HORSE PIKE, WILLIAMSTOWN, NJ, 08094",625723608,"R"
143323,"2610 S HILLCREST AVENUE","LOS ANGELES","CA",90016,34.032374229,-118.342858595,323,"2610 S HILLCREST AVENUE, LOS ANGELES, CA, 90016","Match","Non_Exact","2610 HILLCREST DR, LOS ANGELES, CA, 90016",141601856,"L"
143324,"2610 S JONES BLVD STE 3","LAS VEGAS","NV",89146,36.142032848,-115.225215482,324,"2610 S JONES BLVD STE 3, LAS VEGAS, NV, 89146","Match","Non_Exact","2610 S JONES BLVD, LAS VEGAS, NV, 89146",201862779,"L"
143325,"2610 S JONES BLVD","LAS VEGAS","NV",89146,36.142032848,-115.225215482,325,"2610 S JONES BLVD, LAS VEGAS, NV, 89146","Match","Exact","2610 S JONES BLVD, LAS VEGAS, NV, 89146",201862779,"L"
143326,"2610 SAN MATEO NE SUITE B","ALBUQUERQUE","NM",87110,NA,NA,326,"2610 SAN MATEO NE SUITE B, ALBUQUERQUE, NM, 87110","No_Match",NA,NA,NA,NA
143327,"2610 SCOTT ST","DAVENPORT","IA",52803,41.5457260110001,-90.579830106,327,"2610 SCOTT ST, DAVENPORT, IA, 52803","Match","Exact","2610 SCOTT ST, DAVENPORT, IA, 52803",122707272,"L"
143328,"2610 SHENANDOAH CIRCLE","SHERMAN","TX",75092,33.631892414,-96.6422440969999,328,"2610 SHENANDOAH CIRCLE, SHERMAN, TX, 75092","Match","Exact","2610 SHENANDOAH CIR, SHERMAN, TX, 75092",634110385,"L"
143329,"2610 SOMMERSET DR Z103","LAUDERDALE LAKES","FL",33311,26.15786776,-80.192162426,329,"2610 SOMMERSET DR Z103, LAUDERDALE LAKES, FL, 33311","Match","Non_Exact","2610 SOMERSET DR, LAUDERDALE LAKES, FL, 33311",114808827,"R"
143330,"2610 SOUTH AVENUE","WAPPINGERS FALLS","NY",12590,41.5958287510001,-73.918288671,330,"2610 SOUTH AVENUE, WAPPINGERS FALLS, NY, 12590","Match","Exact","2610 SOUTH AVE, WAPPINGERS FALLS, NY, 12590",4162746,"L"
143331,"2610 SOUTH JONES BLVD SUITE 3","LAS VEGAS","NV",89146,36.1420362220001,-115.225215559,331,"2610 SOUTH JONES BLVD SUITE 3, LAS VEGAS, NV, 89146","Match","Exact","2610 S JONES BLVD, LAS VEGAS, NV, 89146",201862779,"L"
143332,"2610 SOUTH LASALLE AVENUE","LOS ANGELES","CA",90018,34.032405225,-118.305363774,332,"2610 SOUTH LASALLE AVENUE, LOS ANGELES, CA, 90018","Match","Non_Exact","2610 S LA SALLE AVE, LOS ANGELES, CA, 90018",141606050,"L"
143333,"2610 STONEFIELD LN","LAGRANGE","KY",40031,38.3844295540001,-85.454086047,333,"2610 STONEFIELD LN, LAGRANGE, KY, 40031","Match","Exact","2610 STONEFIELD LN, LAGRANGE, KY, 40031",614164183,"L"
143334,"2610 SUMMIT VIEW DR","BARNHART","MO",63012,38.318224168,-90.437099326,334,"2610 SUMMIT VIEW DR, BARNHART, MO, 63012","Match","Exact","2610 SUMMIT VIEW DR, BARNHART, MO, 63012",607862414,"L"
143335,"2610 SUZANNE","ROSWELL","NM",88201,NA,NA,335,"2610 SUZANNE, ROSWELL, NM, 88201","No_Match",NA,NA,NA,NA
143336,"2610 TACOMA RD E","PUYALLUP","WA",98371,NA,NA,336,"2610 TACOMA RD E, PUYALLUP, WA, 98371","No_Match",NA,NA,NA,NA
143337,"2610 W CENTRAL AVE","TOLEDO","OH",43606,41.6776299050001,-83.605646819,337,"2610 W CENTRAL AVE, TOLEDO, OH, 43606","Match","Exact","2610 W CENTRAL AVE, TOLEDO, OH, 43606",33933318,"R"
143338,"2610 W DESERT MARIGOLD DR","PHOENIX","AZ",85085,33.766996299,-112.115248248,338,"2610 W DESERT MARIGOLD DR, PHOENIX, AZ, 85085","Match","Exact","2610 W DESERT MARIGOLD DR, PHOENIX, AZ, 85085",647048022,"L"
143339,"2610 W ENGLISH ROAD","HIGH POINT","NC",27262,35.929848205,-80.0368668629999,339,"2610 W ENGLISH ROAD, HIGH POINT, NC, 27262","Match","Exact","2610 W ENGLISH RD, HIGH POINT, NC, 27262",131079519,"R"
143340,"2610 W IMPERIAL HWY","HAWTHORNE","CA",90250,33.9308925830001,-118.321826965,340,"2610 W IMPERIAL HWY, HAWTHORNE, CA, 90250","Match","Exact","2610 W IMPERIAL HWY, HAWTHORNE, CA, 90250",141660623,"L"
143341,"2610 W LINCOLN HIGHWAY SUITE 101","OLYMPIA FIELDS","IL",60461,41.506171388,-87.681237801,341,"2610 W LINCOLN HIGHWAY SUITE 101, OLYMPIA FIELDS, IL, 60461","Match","Exact","2610 LINCOLN HWY, OLYMPIA FIELDS, IL, 60461",111710954,"L"
143342,"2610 W LUCE DR","PHOENIX","AZ",85086,33.805358191,-112.116263102,342,"2610 W LUCE DR, PHOENIX, AZ, 85086","Match","Exact","2610 W LUCE DR, PHOENIX, AZ, 85086",128857119,"R"
143343,"2610 W MARIGOLD COURT","MEQUON","WI",53092,43.2099760840001,-87.942615702,343,"2610 W MARIGOLD COURT, MEQUON, WI, 53092","Match","Exact","2610 W MARIGOLD CT, MEQUON, WI, 53092",95903580,"L"
143344,"2610 W OLYMPIC BLVD UNIT 210","LOS ANGELES","CA",90006,NA,NA,344,"2610 W OLYMPIC BLVD UNIT 210, LOS ANGELES, CA, 90006","No_Match",NA,NA,NA,NA
143345,"2610","MESQUITE","TX",75181,NA,NA,345,"2610, MESQUITE, TX, 75181","No_Match",NA,NA,NA,NA
143346,"26100 NE 36TH STREET","CAMAS","WA",98607,45.6486440150001,-122.40124943,346,"26100 NE 36TH STREET, CAMAS, WA, 98607","Match","Exact","26100 NE 36TH ST, CAMAS, WA, 98607",158344539,"R"
143347,"26100 NORTH 82ND STREET","SCOTTSDALE","AZ",85255,33.72239706,-111.902250342,347,"26100 NORTH 82ND STREET, SCOTTSDALE, AZ, 85255","Match","Exact","26100 N 82ND ST, SCOTTSDALE, AZ, 85255",128331862,"R"
143348,"26100 SW 144TH AVE","HOMESTEAD","FL",33032,25.5244104340001,-80.4249944279999,348,"26100 SW 144TH AVE, HOMESTEAD, FL, 33032","Match","Non_Exact","26100 SW 144TH AVE RD, HOMESTEAD, FL, 33032",642163482,"R"
143349,"26101 124TH AVENUE WEST","ILLINOIS CITY","IL",61259,41.396865115,-90.930074595,349,"26101 124TH AVENUE WEST, ILLINOIS CITY, IL, 61259","Match","Exact","26101 124TH AVE W, ILLINOIS CITY, IL, 61259",9203777,"R"
143350,"26101 COUNTRY CLUB BLVD 1906","NORTH OLMSTED","OH",44070,NA,NA,350,"26101 COUNTRY CLUB BLVD 1906, NORTH OLMSTED, OH, 44070","No_Match",NA,NA,NA,NA
143351,"26102 35TH DR NE","ARLINGTON","WA",98223,48.2329657990001,-122.181441355,351,"26102 35TH DR NE, ARLINGTON, WA, 98223","Match","Exact","26102 35TH DR NE, ARLINGTON, WA, 98223",652097624,"R"
143352,"26102 NE 216TH AVE","BATTLE GROUND","WA",98604,45.811156452,-122.45147237,352,"26102 NE 216TH AVE, BATTLE GROUND, WA, 98604","Match","Exact","26102 NE 216TH AVE, BATTLE GROUND, WA, 98604",648929759,"L"
143353,"26104 COUNTY RD 34","AKRON","CO",80720,40.060715078,-103.20618509,353,"26104 COUNTY RD 34, AKRON, CO, 80720","Match","Exact","26104 CO RD 34, AKRON, CO, 80720",177854597,"L"
143354,"26105 E BUNDSCHU RD","INDEPENDENCE","MO",64056,39.12197224,-94.26968837,354,"26105 E BUNDSCHU RD, INDEPENDENCE, MO, 64056","Match","Exact","26105 E BUNDSCHU RD, INDEPENDENCE, MO, 64056",652557981,"R"
143355,"26106 CREEKSIDE DRIVE","NEW HUDSON","MI",48165,42.4771875480001,-83.616092975,355,"26106 CREEKSIDE DRIVE, NEW HUDSON, MI, 48165","Match","Exact","26106 CREEKSIDE DR, NEW HUDSON, MI, 48165",641241105,"R"
143356,"26107 HWY 129","SALISBURY","MO",65281,39.4532211270001,-92.795557951,356,"26107 HWY 129, SALISBURY, MO, 65281","Match","Non_Exact","26107 STATE HWY 129, SALISBURY, MO, 65281",20879807,"L"
143357,"26108 LAWTON CT","HEMET","CA",92544,33.7432110550001,-116.952632836,357,"26108 LAWTON CT, HEMET, CA, 92544","Match","Exact","26108 LAWTON CT, HEMET, CA, 92544",194756527,"L"
143358,"26109 HWY 195","DOUBLE SPRINGS","AL",35553,34.1567311740001,-87.411520466,358,"26109 HWY 195, DOUBLE SPRINGS, AL, 35553","Match","Non_Exact","26109 STATE RTE 195, DOUBLE SPGS, AL, 35553",141382267,"L"
143359,"2611 12TH STREET SOUTH","WISCONSIN RAPIDS","WI",54494,44.3710895020001,-89.81187591,359,"2611 12TH STREET SOUTH, WISCONSIN RAPIDS, WI, 54494","Match","Exact","2611 12TH ST S, WISCONSIN RAPIDS, WI, 54494",51289497,"R"
143360,"2611 ALA WAI BLVD 1503","HONOLULU","HI",96815,NA,NA,360,"2611 ALA WAI BLVD 1503, HONOLULU, HI, 96815","No_Match",NA,NA,NA,NA
143361,"2611 ANTLER COURT","SILVER SPRING","MD",20904,39.0650186010001,-76.9547849859999,361,"2611 ANTLER COURT, SILVER SPRING, MD, 20904","Match","Exact","2611 ANTLER CT, SILVER SPRING, MD, 20904",62094145,"L"
143362,"2611 ARLINGTON BLVD SUITE 201","ARLINGTON","VA",22201,38.8742990480001,-77.087192375,362,"2611 ARLINGTON BLVD SUITE 201, ARLINGTON, VA, 22201","Match","Exact","2611 ARLINGTON BLVD, ARLINGTON, VA, 22201",649844701,"L"
143363,"2611 BAKER RD NW","ATLANTA","GA",30318,33.7684898790001,-84.4739791379999,363,"2611 BAKER RD NW, ATLANTA, GA, 30318","Match","Exact","2611 BAKER RD NW, ATLANTA, GA, 30318",17339505,"R"
143364,"2611 BEE CAVES RD UNIT 120","AUSTIN","TX",78746,30.2667256140001,-97.7838243309999,364,"2611 BEE CAVES RD UNIT 120, AUSTIN, TX, 78746","Match","Exact","2611 BEE CAVES RD, AUSTIN, TX, 78746",63977906,"L"
143365,"2611 BEE CAVES ROAD- APT 149","AUSTIN","TX",78746,30.2667256140001,-97.7838243309999,365,"2611 BEE CAVES ROAD- APT 149, AUSTIN, TX, 78746","Match","Non_Exact","2611 BEE CAVES RD, AUSTIN, TX, 78746",63977906,"L"
143366,"2611 BROOKSTONE CT","WAUKESHA","WI",53188,43.0363887840001,-88.269358435,366,"2611 BROOKSTONE CT, WAUKESHA, WI, 53188","Match","Exact","2611 BROOKSTONE CT, WAUKESHA, WI, 53188",53859159,"R"
143367,"2611 BURLINGAME WAY","SAN JOSE","CA",95121,37.310807616,-121.795161958,367,"2611 BURLINGAME WAY, SAN JOSE, CA, 95121","Match","Exact","2611 BURLINGAME WAY, SAN JOSE, CA, 95121",123175696,"L"
143368,"2611 CATES AVENUE BOX 8111","RALEIGH","NC",27695,NA,NA,368,"2611 CATES AVENUE BOX 8111, RALEIGH, NC, 27695","No_Match",NA,NA,NA,NA
143369,"2611 CATES AVENUE CAMPUS BOX 8111","RALEIGH","NC",27695,NA,NA,369,"2611 CATES AVENUE CAMPUS BOX 8111, RALEIGH, NC, 27695","No_Match",NA,NA,NA,NA
143370,"2611 CATES AVENUE ROOM 1000","RALEIGH","NC",27695,NA,NA,370,"2611 CATES AVENUE ROOM 1000, RALEIGH, NC, 27695","No_Match",NA,NA,NA,NA
143371,"2611 CRESTFIELD DRIVE","VALRICO","FL",33596,27.899572634,-82.237987732,371,"2611 CRESTFIELD DRIVE, VALRICO, FL, 33596","Match","Exact","2611 CRESTFIELD DR, VALRICO, FL, 33596",647469174,"R"
143372,"2611 ELBERTA STREET","NORTHPORT","AL",35475,33.3054438400001,-87.5832460509999,372,"2611 ELBERTA STREET, NORTHPORT, AL, 35475","Match","Exact","2611 ELBERTA ST, NORTHPORT, AL, 35475",82184934,"R"
143373,"2611 ESSEX COURT","CONYERS","GA",30013,33.6204310520001,-83.980793274,373,"2611 ESSEX COURT, CONYERS, GA, 30013","Match","Exact","2611 ESSEX CT, CONYERS, GA, 30013",614156579,"R"
143374,"2611 FIELDSTONE DR","CONYERS","GA",30013,33.6161204840001,-83.963681306,374,"2611 FIELDSTONE DR, CONYERS, GA, 30013","Match","Exact","2611 FIELDSTONE DR, CONYERS, GA, 30013",636395380,"L"
143375,"2611 GATES CT","MORRIS PLAINS","NJ",7950,40.849120553,-74.486154444,375,"2611 GATES CT, MORRIS PLAINS, NJ, 7950","Match","Exact","2611 GATES CT, MORRIS PLAINS, NJ, 07950",645041445,"L"
143376,"2611 GENERAL PATTON STREET","LAKE CHARLES","LA",70601,30.2061956850001,-93.176645987,376,"2611 GENERAL PATTON STREET, LAKE CHARLES, LA, 70601","Match","Non_Exact","2611 GENERAL PATTON ST, LAKE CHARLES, LA, 70615",88440696,"L"
143377,"2611 GOVERNOR PRINTZ BLVD","WILMINGTON","DE",19802,39.7495647010001,-75.5278618469999,377,"2611 GOVERNOR PRINTZ BLVD, WILMINGTON, DE, 19802","Match","Exact","2611 GOVERNOR PRINTZ BLVD, WILMINGTON, DE, 19802",187259450,"L"
143378,"2611 HARBINGER LN","DALLAS","TX",75287,32.992906782,-96.868653914,378,"2611 HARBINGER LN, DALLAS, TX, 75287","Match","Exact","2611 HARBINGER LN, DALLAS, TX, 75287",103415855,"R"
143379,"2611 HICKORY FLATS TRAIL","HUNTSVILLE","AL",35801,34.7137899470001,-86.5475036299999,379,"2611 HICKORY FLATS TRAIL, HUNTSVILLE, AL, 35801","Match","Non_Exact","2611 HICKORY FLATS TRL SE, HUNTSVILLE, AL, 35801",647677296,"R"
143380,"2611 HIGHWAY OO","FARMINGTON","MO",63640,37.726419552,-90.5219999669999,380,"2611 HIGHWAY OO, FARMINGTON, MO, 63640","Match","Non_Exact","2611 HIGHWAY W, FARMINGTON, MO, 63640",62385057,"L"
143381,"2611 HWY 35 N","ROCKPORT","TX",78382,NA,NA,381,"2611 HWY 35 N, ROCKPORT, TX, 78382","No_Match",NA,NA,NA,NA
143382,"2611 JEFFERSON DAVIS HIGHWAY 600","ALRINGTON","VA",22202,NA,NA,382,"2611 JEFFERSON DAVIS HIGHWAY 600, ALRINGTON, VA, 22202","No_Match",NA,NA,NA,NA
143383,"2611 KOEHLER AVENUE","DAYTON","OH",45414,39.8080505040001,-84.1848357869999,383,"2611 KOEHLER AVENUE, DAYTON, OH, 45414","Match","Exact","2611 KOEHLER AVE, DAYTON, OH, 45414",143569378,"L"
143384,"2611 LADY GROVE ROAD","MITCHELLVILLE","MD",20721,38.9245638890001,-76.843281154,384,"2611 LADY GROVE ROAD, MITCHELLVILLE, MD, 20721","Match","Non_Exact","2611 LADYGROVE RD, MITCHELLVILLE, MD, 20721",650139878,"L"
143385,"2611 LAKE DR N","BOYNTON BEACH","FL",33435,26.5518081280001,-80.053532595,385,"2611 LAKE DR N, BOYNTON BEACH, FL, 33435","Match","Non_Exact","2611 LAKE DR, BOYNTON BEACH, FL, 33435",115295731,"R"
143386,"2611 LAKE PARK BEND","ACWORTH","GA",30101,34.064038559,-84.63612742,386,"2611 LAKE PARK BEND, ACWORTH, GA, 30101","Match","Exact","2611 LAKE PARK BEND, ACWORTH, GA, 30101",643023707,"L"
143387,"2611 LIOHOLO PL","KIHEI","HI",96753,20.715712205,-156.438432991,387,"2611 LIOHOLO PL, KIHEI, HI, 96753","Match","Exact","2611 LIOHOLO PL, KIHEI, HI, 96753",85087502,"L"
143388,"2611 MILWAUKEE","HOUSTON","TX",77026,29.8095077880001,-95.344970351,388,"2611 MILWAUKEE, HOUSTON, TX, 77026","Match","Non_Exact","2611 MILWAUKEE ST, HOUSTON, TX, 77026",96352740,"L"
143389,"2611 MONTANA AV","CINCINNATI","OH",45211,39.1549906820001,-84.5823525019999,389,"2611 MONTANA AV, CINCINNATI, OH, 45211","Match","Exact","2611 MONTANA AVE, CINCINNATI, OH, 45211",103955395,"L"
143390,"2611 N BANCROFT STREET","PHILADELPHIA","PA",19132,39.99309951,-75.158627762,390,"2611 N BANCROFT STREET, PHILADELPHIA, PA, 19132","Match","Exact","2611 N BANCROFT ST, PHILADELPHIA, PA, 19132",131418090,"R"
143391,"2611 N RIVERSIDE DR - APT 1105","POMPANO BEACH","FL",33062,26.2621823380001,-80.235340213,391,"2611 N RIVERSIDE DR - APT 1105, POMPANO BEACH, FL, 33062","Match","Non_Exact","2611 RIVERSIDE DR, POMPANO BEACH, FL, 33065",114763194,"L"
143392,"2611 NEWBERRY AVE","GREEN BAY","WI",54302,44.495689128,-87.95239896,392,"2611 NEWBERRY AVE, GREEN BAY, WI, 54302","Match","Exact","2611 NEWBERRY AVE, GREEN BAY, WI, 54302",148112938,"L"
143393,"2611 NORTHPARK DR PMB 210","KINGWOOD","TX",77339,NA,NA,393,"2611 NORTHPARK DR PMB 210, KINGWOOD, TX, 77339","No_Match",NA,NA,NA,NA
143394,"2611 NW 48TH PL","GAINESVILLE","FL",32605,29.699176363,-82.361168499,394,"2611 NW 48TH PL, GAINESVILLE, FL, 32605","Match","Exact","2611 NW 48TH PL, GAINESVILLE, FL, 32605",6802696,"R"
143395,"2611 NW 56TH AVE SUITE A507","LAUFERHILL","FL",33313,26.1590795110001,-80.2269571639999,395,"2611 NW 56TH AVE SUITE A507, LAUFERHILL, FL, 33313","Match","Non_Exact","2611 NW 56TH AVE, LAUDERHILL, FL, 33313",114810759,"L"
143396,"2611 OKEMOS ROAD","MASON","MI",48854,42.657568499,-84.432914582,396,"2611 OKEMOS ROAD, MASON, MI, 48854","Match","Exact","2611 OKEMOS RD, MASON, MI, 48854",17512690,"L"
143397,"2611 PAUTONE TRACE","DECATUR","GA",30032,33.712714195,-84.28482415,397,"2611 PAUTONE TRACE, DECATUR, GA, 30032","Match","Exact","2611 PAUTONE TRCE, DECATUR, GA, 30032",23400033,"L"
143398,"2611 PETTERSEN","VERMILLION","SD",57069,42.8084948960001,-96.9204027009999,398,"2611 PETTERSEN, VERMILLION, SD, 57069","Match","Non_Exact","2611 PETTERSEN RD, VERMILLION, SD, 57069",172953353,"R"
143399,"2611 RYONS STREET","LINCOLN","NE",68502,40.790771953,-96.6844875639999,399,"2611 RYONS STREET, LINCOLN, NE, 68502","Match","Exact","2611 RYONS ST, LINCOLN, NE, 68502",28293160,"R"
143400,"2611 S 4TH STREET","STEETLON","PA",17113,40.2162829050001,-76.802222305,400,"2611 S 4TH STREET, STEETLON, PA, 17113","Match","Non_Exact","2611 S 4TH ST, STEELTON, PA, 17113",70829846,"L"
143401,"2611 S MUHLFELD STREET","PHILADELPHIA","PA",19142,39.915116675,-75.236823487,401,"2611 S MUHLFELD STREET, PHILADELPHIA, PA, 19142","Match","Exact","2611 S MUHLFELD ST, PHILADELPHIA, PA, 19142",131409276,"L"
143402,"2611 S TRAILWOOD WAY","BOISE","ID",83716,43.578610864,-116.133975635,402,"2611 S TRAILWOOD WAY, BOISE, ID, 83716","Match","Exact","2611 S TRAILWOOD WAY, BOISE, ID, 83716",641544510,"L"
143403,"2611 SACRAMENTO DR","REDDING","CA",96001,40.523215027,-122.37620403,403,"2611 SACRAMENTO DR, REDDING, CA, 96001","Match","Exact","2611 SACRAMENTO DR, REDDING, CA, 96001",126659015,"R"
143404,"2611 SPRINGDALE ROAD SW","ATLANTA","GA",30315,33.683690884,-84.4151221939999,404,"2611 SPRINGDALE ROAD SW, ATLANTA, GA, 30315","Match","Exact","2611 SPRINGDALE RD SW, ATLANTA, GA, 30315",17349357,"R"
143405,"2611 STAPLEFORD DR","CEDAR PARK","TX",78613,30.5410593180001,-97.8438684929999,405,"2611 STAPLEFORD DR, CEDAR PARK, TX, 78613","Match","Exact","2611 STAPLEFORD DR, CEDAR PARK, TX, 78613",634279596,"L"
143406,"2611 SW 17TH ST SUITE 223","TOPEKA","KS",66604,39.0369339700001,-95.709875848,406,"2611 SW 17TH ST SUITE 223, TOPEKA, KS, 66604","Match","Non_Exact","2611 SW 17TH ST, TOPEKA, KS, 66604",17887445,"L"
143407,"2611 W DEVON AVE","CHICAGO","IL",60659,41.997634465,-87.6952258159999,407,"2611 W DEVON AVE, CHICAGO, IL, 60659","Match","Exact","2611 W DEVON AVE, CHICAGO, IL, 60659",111744608,"L"
143408,"2611 W WINNEMAC","CHICAGO","VA",60625,NA,NA,408,"2611 W WINNEMAC, CHICAGO, VA, 60625","No_Match",NA,NA,NA,NA
143409,"2611 YELLOWWOOD CT","TX - KATY","TX",77494,29.753927665,-95.853390082,409,"2611 YELLOWWOOD CT, TX - KATY, TX, 77494","Match","Non_Exact","2611 YELLOWWOOD CT, KATY, TX, 77494",625668386,"L"
143410,"26110 ALIZIA CANYON DRIVE","CALABASAS","CA",91302,34.1662625500001,-118.696511019,410,"26110 ALIZIA CANYON DRIVE, CALABASAS, CA, 91302","Match","Exact","26110 ALIZIA CANYON DR, CALABASAS, CA, 91302",142786421,"R"
143411,"26110 W PRESIDENT AVE APT H","HARBOR CITY","CA",90710,33.7859182450001,-118.304279755,411,"26110 W PRESIDENT AVE APT H, HARBOR CITY, CA, 90710","Match","Exact","26110 PRESIDENT AVE, HARBOR CITY, CA, 90710",141688541,"L"
143412,"26111 OSHUA DRIVE","MORENO VALLEY","CA",92555,33.9289414900001,-117.206821372,412,"26111 OSHUA DRIVE, MORENO VALLEY, CA, 92555","Match","Exact","26111 OSHUA DR, MORENO VALLEY, CA, 92555",194790985,"R"
143413,"26112 MILL CREEK AVENUE","ALPHARETTA","GA",30022,34.0491452520001,-84.28013404,413,"26112 MILL CREEK AVENUE, ALPHARETTA, GA, 30022","Match","Exact","26112 MILL CREEK AVE, ALPHARETTA, GA, 30022",618447948,"R"
143414,"26114 APPLEYARD COURT","LANCASTER","SC",29720,34.6316802850001,-80.880369042,414,"26114 APPLEYARD COURT, LANCASTER, SC, 29720","Match","Exact","26114 APPLEYARD CT, LANCASTER, SC, 29720",40692537,"R"
143415,"26115 101ST PLACE SE","MONROE","WA",98272,47.9057372290001,-121.881164007,415,"26115 101ST PLACE SE, MONROE, WA, 98272","Match","Exact","26115 101ST PL SE, MONROE, WA, 98272",187726909,"R"
143416,"26115 65TH AVE E","MYAKKA CITY","FL",34251,27.4232535370001,-82.274460228,416,"26115 65TH AVE E, MYAKKA CITY, FL, 34251","Match","Exact","26115 65TH AVE E, MYAKKA CITY, FL, 34251",16276797,"R"
143417,"26115 CASTLEMOOR COURT","CYPRESS","TX",77433,29.9470871410001,-95.6999211519999,417,"26115 CASTLEMOOR COURT, CYPRESS, TX, 77433","Match","Exact","26115 CASTLEMOOR CT, CYPRESS, TX, 77433",635050922,"R"
143418,"26115 SW FARMINGTON ROAD","HILLSBORO","OR",97123,NA,NA,418,"26115 SW FARMINGTON ROAD, HILLSBORO, OR, 97123","No_Match",NA,NA,NA,NA
143419,"2612 1ST AVE S SUITE 1","MINNEAPOLIS","MN",55404,44.954978221,-93.2766223789999,419,"2612 1ST AVE S SUITE 1, MINNEAPOLIS, MN, 55404","Match","Non_Exact","2612 1ST AVE S, MINNEAPOLIS, MN, 55408",652846408,"R"
143420,"2612 6TH COURT","PALM HARBOR","FL",34684,28.0613813740001,-82.736905943,420,"2612 6TH COURT, PALM HARBOR, FL, 34684","Match","Exact","2612 6TH CT, PALM HARBOR, FL, 34684",124751429,"L"
143421,"2612 APAPANE ST","LIHUE","TX",96766,NA,NA,421,"2612 APAPANE ST, LIHUE, TX, 96766","No_Match",NA,NA,NA,NA
143422,"2612 BARGE ST","YAKIMA","WA",98902,46.5980623620001,-120.543777728,422,"2612 BARGE ST, YAKIMA, WA, 98902","Match","Exact","2612 BARGE ST, YAKIMA, WA, 98902",184934383,"L"
143423,"2612 BELGREEN ST","LAS VEGAS","NV",34677,36.142456307,-115.330017171,423,"2612 BELGREEN ST, LAS VEGAS, NV, 34677","Match","Non_Exact","2612 BELGREEN ST, LAS VEGAS, NV, 89135",201983618,"L"
143424,"2612 CHARTRES ST","NEW ORLEANS","LA",70117,29.963851017,-90.0515342899999,424,"2612 CHARTRES ST, NEW ORLEANS, LA, 70117","Match","Exact","2612 CHARTRES ST, NEW ORLEANS, LA, 70117",191716836,"R"
143425,"2612 CHATWOOD DRIVE","MONROE","LA",71201,32.5459796370001,-92.120114955,425,"2612 CHATWOOD DRIVE, MONROE, LA, 71201","Match","Exact","2612 CHATWOOD DR, MONROE, LA, 71201",161096061,"R"
143426,"2612 CYPRESS LAKES RD","HOPE MILLS","NC",28348,34.910274864,-78.871398713,426,"2612 CYPRESS LAKES RD, HOPE MILLS, NC, 28348","Match","Exact","2612 CYPRESS LAKES RD, HOPE MILLS, NC, 28348",64205661,"R"
143427,"2612 DEMETROPOLIS RD","MOBILE","AL",36693,30.6372818720001,-88.157075619,427,"2612 DEMETROPOLIS RD, MOBILE, AL, 36693","Match","Exact","2612 DEMETROPOLIS RD, MOBILE, AL, 36693",647816516,"R"
143428,"2612 DIVISION STREET EXTENSION","PARKERSBURG","WV",26101,NA,NA,428,"2612 DIVISION STREET EXTENSION, PARKERSBURG, WV, 26101","No_Match",NA,NA,NA,NA
143429,"2612 E MADISON ST SUITE 102","SEATTLE","WA",98112,47.6221135000001,-122.298205361,429,"2612 E MADISON ST SUITE 102, SEATTLE, WA, 98112","Match","Non_Exact","2612 E MADISON ST, SEATTLE, WA, 98112",186587993,"L"
143430,"2612 FIRLAND ST SW","OLYMPIA","WA",98512,47.0242271930001,-122.936452698,430,"2612 FIRLAND ST SW, OLYMPIA, WA, 98512","Match","Exact","2612 FIRLAND ST SW, OLYMPIA, WA, 98512",180965467,"R"
143431,"2612 GEORGIA COLEMAN BND","AUSTIN","TX",78748,30.155436889,-97.844531334,431,"2612 GEORGIA COLEMAN BND, AUSTIN, TX, 78748","Match","Exact","2612 GEORGIA COLEMAN BEND, AUSTIN, TX, 78748",624709120,"R"
143432,"2612 GRAND GLEN RD","RICHMOND","VA",23223,37.5610431900001,-77.388120837,432,"2612 GRAND GLEN RD, RICHMOND, VA, 23223","Match","Exact","2612 GRAND GLEN RD, RICHMOND, VA, 23223",106671879,"R"
143433,"2612 GRAVES COURT","RALEIGH","NC",27608,35.8114540770001,-78.6571803479999,433,"2612 GRAVES COURT, RALEIGH, NC, 27608","Match","Exact","2612 GRAVES CT, RALEIGH, NC, 27608",618994430,"R"
143434,"2612 HARWAY AVE","BROOKLYN","NY",11214,40.591206508,-73.989995369,434,"2612 HARWAY AVE, BROOKLYN, NY, 11214","Match","Exact","2612 HARWAY AVE, BROOKLYN, NY, 11214",59088898,"R"
143435,"2612 HAWK DRIVE","EVANS","CO",80624,40.371605118,-104.722467839,435,"2612 HAWK DRIVE, EVANS, CO, 80624","Match","Non_Exact","2612 HAWK DR, EVANS, CO, 80620",188734533,"R"
143436,"2612 KILCAREY CT","BAKERSFIELD","CA",93306,35.3973262320001,-118.939789029,436,"2612 KILCAREY CT, BAKERSFIELD, CA, 93306","Match","Exact","2612 KILCAREY CT, BAKERSFIELD, CA, 93306",109095769,"L"
143437,"2612 KNOXVILLE AVE","LONG BEACH","CA",90815,33.803694756,-118.104428423,437,"2612 KNOXVILLE AVE, LONG BEACH, CA, 90815","Match","Exact","2612 KNOXVILLE AVE, LONG BEACH, CA, 90815",141745890,"R"
143438,"2612 LANE PARK ROAD","BIRMINGHAM","AL",35223,33.4925492900001,-86.774476898,438,"2612 LANE PARK ROAD, BIRMINGHAM, AL, 35223","Match","Exact","2612 LANE PARK RD, BIRMINGHAM, AL, 35223",651157011,"R"
143439,"2612 LARCHMONT STREET","PASCAGOULA","MS",39567,30.361058718,-88.536435307,439,"2612 LARCHMONT STREET, PASCAGOULA, MS, 39567","Match","Exact","2612 LARCHMONT ST, PASCAGOULA, MS, 39567",89253166,"R"
143440,"2612 LAURISTON DR","NORMAN","OK",73072,35.2502997730001,-97.502543413,440,"2612 LAURISTON DR, NORMAN, OK, 73072","Match","Exact","2612 LAURISTON DR, NORMAN, OK, 73072",99951446,"L"
143441,"2612 NEZ PERCE TRAIL","TALLAHASSEE","FL",32303,30.505753063,-84.3350888849999,441,"2612 NEZ PERCE TRAIL, TALLAHASSEE, FL, 32303","Match","Exact","2612 NEZ PERCE TRL, TALLAHASSEE, FL, 32303",82847310,"R"
143442,"2612 NORTH MAIN","VIDOR","TX",77662,30.161318597,-94.017592938,442,"2612 NORTH MAIN, VIDOR, TX, 77662","Match","Non_Exact","2612 N MAIN ST, VIDOR, TX, 77662",647679480,"L"
143443,"2612 NORTHAMPTON ST NW","WASHINGTON","DC",20015,38.967472478,-77.055368496,443,"2612 NORTHAMPTON ST NW, WASHINGTON, DC, 20015","Match","Exact","2612 NORTHAMPTON ST NW, WASHINGTON, DC, 20015",76219416,"L"
143444,"2612 NW 27TH ST","OKLAHOMA CITY","OK",73107,35.4967896700001,-97.559363407,444,"2612 NW 27TH ST, OKLAHOMA CITY, OK, 73107","Match","Exact","2612 NW 27TH ST, OKLAHOMA CITY, OK, 73107",100397410,"L"
143445,"2612 NW 2ND AVENUE","MIAMI","FL",33127,25.801582721,-80.1991308839999,445,"2612 NW 2ND AVENUE, MIAMI, FL, 33127","Match","Exact","2612 NW 2ND AVE, MIAMI, FL, 33127",116017266,"L"
143446,"2612 PARK VIEW DRIVE","BILOXI","MS",39531,30.405754099,-88.990148367,446,"2612 PARK VIEW DRIVE, BILOXI, MS, 39531","Match","Exact","2612 PARK VIEW DR, BILOXI, MS, 39531",111382040,"R"
143447,"2612 POINT OF ROCKS RD","KNOXVILLE","MD",21758,39.334308348,-77.5765471569999,447,"2612 POINT OF ROCKS RD, KNOXVILLE, MD, 21758","Match","Exact","2612 POINT OF ROCKS RD, KNOXVILLE, MD, 21758",614262879,"L"
143448,"2612 Q AVE","DENISON","IA",51442,41.980398355,-95.3571881619999,448,"2612 Q AVE, DENISON, IA, 51442","Match","Exact","2612 Q AVE, DENISON, IA, 51442",82265492,"L"
143449,"2612 S GREELEY ST","MILWAUKEE","WI",53207,NA,NA,449,"2612 S GREELEY ST, MILWAUKEE, WI, 53207","No_Match",NA,NA,NA,NA
143450,"2612 S RANNEY RD","EAST JORDAN","MI",49727,45.165067456,-85.184341879,450,"2612 S RANNEY RD, EAST JORDAN, MI, 49727","Match","Exact","2612 S RANNEY RD, EAST JORDAN, MI, 49727",635590537,"R"
143451,"2612 SANTA CLARA AVE APT D","ALAMEDA","CA",94501,37.763324708,-122.238068558,451,"2612 SANTA CLARA AVE APT D, ALAMEDA, CA, 94501","Match","Exact","2612 SANTA CLARA AVE, ALAMEDA, CA, 94501",125006171,"R"
143452,"2612 SCARLETT OAK COURT","KNOXVILLE","TN",37909,35.951294401,-83.990305856,452,"2612 SCARLETT OAK COURT, KNOXVILLE, TN, 37909","Match","Exact","2612 SCARLETT OAK CT, KNOXVILLE, TN, 37909",42614282,"R"
143453,"2612 SE 39TH STREET","MOORE","OK",73160,35.302139029,-97.4478033459999,453,"2612 SE 39TH STREET, MOORE, OK, 73160","Match","Exact","2612 SE 39TH ST, MOORE, OK, 73160",624628533,"L"
143454,"2612 SE LIBERTY DR","GRIMES","IA",50111,NA,NA,454,"2612 SE LIBERTY DR, GRIMES, IA, 50111","No_Match",NA,NA,NA,NA
143455,"2612 SOUTH 17TH STREET","PHILADELPHIA","PA",19145,39.9185341520001,-75.175922167,455,"2612 SOUTH 17TH STREET, PHILADELPHIA, PA, 19145","Match","Exact","2612 S 17TH ST, PHILADELPHIA, PA, 19145",131452673,"R"
143456,"2612 SW 120TH STREET","OKLAHOMA CITY","OK",73170,35.348074943,-97.560404058,456,"2612 SW 120TH STREET, OKLAHOMA CITY, OK, 73170","Match","Exact","2612 SW 120TH ST, OKLAHOMA CITY, OK, 73170",99920326,"R"
143457,"2612 W GILA BEND HWY","CASA GRANDE","AZ",85193,32.879409593,-111.847844105,457,"2612 W GILA BEND HWY, CASA GRANDE, AZ, 85193","Match","Exact","2612 GILA BEND HWY, CASA GRANDE, AZ, 85193",129281281,"R"
143458,"2612 W KENNEDY BLVD","TAMPA","FL",33609,27.9447723650001,-82.4866821649999,458,"2612 W KENNEDY BLVD, TAMPA, FL, 33609","Match","Exact","2612 W KENNEDY BLVD, TAMPA, FL, 33609",104526610,"L"
143459,"2612 W ORGANSVILLE ROAD","CLARKSVILLE","VA",23927,36.7152805010001,-78.591032319,459,"2612 W ORGANSVILLE ROAD, CLARKSVILLE, VA, 23927","Match","Non_Exact","2612 W ORGAINSVILLE RD, CLARKSVILLE, VA, 23927",54322430,"R"
143460,"2612 WATERS EDGE DRIVE","GRANBURY","TX",76048,32.418572247,-97.7662530979999,460,"2612 WATERS EDGE DRIVE, GRANBURY, TX, 76048","Match","Exact","2612 WATERS EDGE DR, GRANBURY, TX, 76048",642834460,"L"
143461,"2612 WEST ST APT 2H","BROOKLYN","NY",11223,40.5853966130001,-73.969251877,461,"2612 WEST ST APT 2H, BROOKLYN, NY, 11223","Match","Exact","2612 WEST ST, BROOKLYN, NY, 11223",59091105,"R"
143462,"26120 FORSTER WAY","STEVENSON RANCH","CA",91381,34.386328464,-118.592280939,462,"26120 FORSTER WAY, STEVENSON RANCH, CA, 91381","Match","Exact","26120 FORSTER WAY, STEVENSON RANCH, CA, 91381",141856375,"L"
143463,"26120 HARDING STREET","OAK PARK","MI",48237,42.4836075220001,-83.199173512,463,"26120 HARDING STREET, OAK PARK, MI, 48237","Match","Exact","26120 HARDING ST, OAK PARK, MI, 48237",69740677,"R"
143464,"26120 HARDING","OAK PARK","MI",48237,42.4836075220001,-83.199173512,464,"26120 HARDING, OAK PARK, MI, 48237","Match","Non_Exact","26120 HARDING ST, OAK PARK, MI, 48237",69740677,"R"
143465,"26120 SPRINGLAND","FARMINGTON HILLS","MI",48334,42.4860811240001,-83.35107679,465,"26120 SPRINGLAND, FARMINGTON HILLS, MI, 48334","Match","Non_Exact","26120 SPRINGLAND ST, FARMINGTON HILLS, MI, 48334",652800404,"R"
143466,"26120","HAYWARD","CA",94545,NA,NA,466,"26120, HAYWARD, CA, 94545","No_Match",NA,NA,NA,NA
143467,"26123 KINGBIRD COVE","SAN ANTONIO","TX",78260,29.6878996520001,-98.469682759,467,"26123 KINGBIRD COVE, SAN ANTONIO, TX, 78260","Match","Exact","26123 KINGBIRD COVE, SAN ANTONIO, TX, 78260",634131127,"R"
143468,"26124 JANE AVE","HAYWARD","CA",94544,37.6479308830001,-122.070692207,468,"26124 JANE AVE, HAYWARD, CA, 94544","Match","Exact","26124 JANE AVE, HAYWARD, CA, 94544",125021941,"L"
143469,"26125 FIR AVE","MORENO VALLEY","CA",92555,33.9354751880001,-117.206836207,469,"26125 FIR AVE, MORENO VALLEY, CA, 92555","Match","Exact","26125 FIR AVE, MORENO VALLEY, CA, 92555",608992846,"L"
143470,"26127 NIMBLETON SQ","CHANTILLY","VA",20152,38.894181863,-77.49532478,470,"26127 NIMBLETON SQ, CHANTILLY, VA, 20152","Match","Exact","26127 NIMBLETON SQ, CHANTILLY, VA, 20152",642574932,"R"
143471,"26128 TALAMORE DRIVE","SOUTH RIDING","VA",20152,38.8920744530001,-77.502049713,471,"26128 TALAMORE DRIVE, SOUTH RIDING, VA, 20152","Match","Exact","26128 TALAMORE DR, SOUTH RIDING, VA, 20152",62348431,"L"
143472,"2612A MCALLISTER STREET","SAN FRANCISCO","CA",94118,37.775648876,-122.455192662,472,"2612A MCALLISTER STREET, SAN FRANCISCO, CA, 94118","Match","Exact","2612 MCALLISTER ST, SAN FRANCISCO, CA, 94118",192282140,"R"
143473,"2613 BENT RIDGE CT","DES MOINES","IA",50320,41.561385552,-93.56912991,473,"2613 BENT RIDGE CT, DES MOINES, IA, 50320","Match","Exact","2613 BENT RIDGE CT, DES MOINES, IA, 50320",65852773,"R"
143474,"2613 BLUE SPRING RD NW","HUNTSVILLE","AL",35810,34.758878844,-86.5990927289999,474,"2613 BLUE SPRING RD NW, HUNTSVILLE, AL, 35810","Match","Exact","2613 BLUE SPRING RD NW, HUNTSVILLE, AL, 35810",58117064,"L"
143475,"2613 BONNIE OAKS","HUNTSVILLE","AL",35803,NA,NA,475,"2613 BONNIE OAKS, HUNTSVILLE, AL, 35803","No_Match",NA,NA,NA,NA
143476,"2613 BREMONT AVENUE","CINCINNATI","OH",45237,39.187918751,-84.44120215,476,"2613 BREMONT AVENUE, CINCINNATI, OH, 45237","Match","Exact","2613 BREMONT AVE, CINCINNATI, OH, 45237",103929302,"R"
143477,"2613 E CAVETT DR","SHREVEPORT","LA",71104,32.4871791840001,-93.716312997,477,"2613 E CAVETT DR, SHREVEPORT, LA, 71104","Match","Exact","2613 E CAVETT DR, SHREVEPORT, LA, 71104",57438599,"L"
143478,"2613 E OAKLAND ST","BROKEN ARROW","OK",74014,36.0649769710001,-95.759065909,478,"2613 E OAKLAND ST, BROKEN ARROW, OK, 74014","Match","Exact","2613 E OAKLAND ST, BROKEN ARROW, OK, 74014",83149532,"R"
143479,"2613 FULTON","CORPUS CHRISTI","TX",78414,27.6831696,-97.368544693,479,"2613 FULTON, CORPUS CHRISTI, TX, 78414","Match","Non_Exact","2613 FULTON DR, CORPUS CHRISTI, TX, 78414",178522302,"R"
143480,"2613 HAMILTON AVENUE","EL CENTRO","CA",92243,32.785543666,-115.586590889,480,"2613 HAMILTON AVENUE, EL CENTRO, CA, 92243","Match","Exact","2613 HAMILTON AVE, EL CENTRO, CA, 92243",611777169,"R"
143481,"2613 JESS GUEST ROAD","DEWY ROSE","GA",30634,NA,NA,481,"2613 JESS GUEST ROAD, DEWY ROSE, GA, 30634","No_Match",NA,NA,NA,NA
143482,"2613 KONYNENBURG LN","MODESTO","CA",95356,37.692572764,-121.04345033,482,"2613 KONYNENBURG LN, MODESTO, CA, 95356","Match","Exact","2613 KONYNENBURG LN, MODESTO, CA, 95356",102599211,"R"
143483,"2613 KRAMER DRIVE","NEW IBERIA","LA",70560,29.9784202210001,-91.840456121,483,"2613 KRAMER DRIVE, NEW IBERIA, LA, 70560","Match","Exact","2613 KRAMER DR, NEW IBERIA, LA, 70560",85354306,"L"
143484,"2613 LAKELAND DRIVE","NASHVILLE","TN",37214,36.1548241830001,-86.674863004,484,"2613 LAKELAND DRIVE, NASHVILLE, TN, 37214","Match","Exact","2613 LAKELAND DR, NASHVILLE, TN, 37214",97195967,"R"
143485,"2613 LILY PARK","COLUMBUS","OH",43219,40.007450271,-82.938892699,485,"2613 LILY PARK, COLUMBUS, OH, 43219","Match","Non_Exact","2613 LILYPARK DR, COLUMBUS, OH, 43219",218577170,"R"
143486,"2613 N 21ST ST","TAMPA","FL",33605,27.9661341620001,-82.435496642,486,"2613 N 21ST ST, TAMPA, FL, 33605","Match","Exact","2613 N 21ST ST, TAMPA, FL, 33605",104524253,"R"
143487,"2613 NEWTONS CREST CIRCLE","SNELLVILLE","GA",30078,33.8404959760001,-84.0263273579999,487,"2613 NEWTONS CREST CIRCLE, SNELLVILLE, GA, 30078","Match","Non_Exact","2613 NEWTONS CREST CIR SW, SNELLVILLE, GA, 30078",639804568,"R"
143488,"2613 PICADILLY LN","DENTON","TX",76201,33.252598924,-97.113842765,488,"2613 PICADILLY LN, DENTON, TX, 76201","Match","Non_Exact","2613 PICADILLY LN, DENTON, TX, 76209",103339633,"R"
143489,"2613 ROYAL TROON DR","PLANO","TX",75025,33.1075024350001,-96.7428559639999,489,"2613 ROYAL TROON DR, PLANO, TX, 75025","Match","Exact","2613 ROYAL TROON DR, PLANO, TX, 75025",123561677,"L"
143490,"2613 S 51ST ST","MILWAUKEE","WI",53219,42.9969469600001,-87.9774227899999,490,"2613 S 51ST ST, MILWAUKEE, WI, 53219","Match","Exact","2613 S 51ST ST, MILWAUKEE, WI, 53219",77748486,"R"
143491,"2613 STATE ROUTE 81","ADA","OH",45810,NA,NA,491,"2613 STATE ROUTE 81, ADA, OH, 45810","No_Match",NA,NA,NA,NA
143492,"2613 SW 54TH PL","OKLAHOMA CITY","OK",73119,35.411497372,-97.559310903,492,"2613 SW 54TH PL, OKLAHOMA CITY, OK, 73119","Match","Exact","2613 SW 54TH PL, OKLAHOMA CITY, OK, 73119",100405376,"R"
143493,"2613 TAHOE DRIVE","SPRINGFIELD","IL",62707,39.8407310170001,-89.61546643,493,"2613 TAHOE DRIVE, SPRINGFIELD, IL, 62707","Match","Exact","2613 TAHOE DR, SPRINGFIELD, IL, 62707",97361696,"L"
143494,"2613 W 2ND ST 3","SAN BERNARDINO","CA",92410,34.10314649,-117.347341683,494,"2613 W 2ND ST 3, SAN BERNARDINO, CA, 92410","Match","Non_Exact","2613 W 2ND ST, SAN BERNARDINO, CA, 92410",145224204,"L"
143495,"2613 W 82ND ST","INGLEWOOD","CA",90305,33.964941589,-118.322351479,495,"2613 W 82ND ST, INGLEWOOD, CA, 90305","Match","Exact","2613 W 82ND ST, INGLEWOOD, CA, 90305",141655570,"R"
143496,"2613 W OLD GLORY DR","TUCSON","AZ",85741,32.3405955600001,-111.023261405,496,"2613 W OLD GLORY DR, TUCSON, AZ, 85741","Match","Exact","2613 W OLD GLORY DR, TUCSON, AZ, 85741",121159717,"R"
143497,"2613 WEBER BLVD","FORT MYERS","FL",33905,26.710638273,-81.728552096,497,"2613 WEBER BLVD, FORT MYERS, FL, 33905","Match","Exact","2613 WEBER BLVD, FORT MYERS, FL, 33905",117982306,"L"
143498,"2613 WINNEMISSETTE OAKS DR","DELAND","FL",32724,29.0297568710001,-81.246794801,498,"2613 WINNEMISSETTE OAKS DR, DELAND, FL, 32724","Match","Non_Exact","2613 WINNEMISSETT OAKS DR, DELAND, FL, 32724",612318423,"L"
143499,"26133 US HWY 19 N SUITE 310","CLEARWATER","FL",33763,NA,NA,499,"26133 US HWY 19 N SUITE 310, CLEARWATER, FL, 33763","No_Match",NA,NA,NA,NA
143500,"26135 CARMEL RANCHO BLVD E103","CARMEL","CA",93923,36.5395907230001,-121.904882536,500,"26135 CARMEL RANCHO BLVD E103, CARMEL, CA, 93923","Match","Exact","26135 CARMEL RANCHO BLVD, CARMEL, CA, 93923",196816680,"L"
