"ID","Address","City","State","Zip","lat","long","id","input_address","match_indicator","match_type","matched_address","tiger_line_id","tiger_side"
137501,"25 OLDFIELDS RD NUMBER 1","DORCHESTER","MA",2121,42.306762894,-71.0779732829999,1,"25 OLDFIELDS RD NUMBER 1, DORCHESTER, MA, 2121","Match","Exact","25 OLDFIELDS RD, DORCHESTER, MA, 02121",85725673,"R"
137502,"25 OTIS STREET","MELROSE","MA",2176,42.461264182,-71.072460456,2,"25 OTIS STREET, MELROSE, MA, 2176","Match","Exact","25 OTIS ST, MELROSE, MA, 02176",623946706,"R"
137503,"25 OVERBROOK DRIVE","AIRMONT","NY",10952,41.0953605540001,-74.0915648439999,3,"25 OVERBROOK DRIVE, AIRMONT, NY, 10952","Match","Exact","25 OVERBROOK DR, AIRMONT, NY, 10952",124592488,"R"
137504,"25 OWEN ST","BELLEVILLE","MI",48111,42.197325785,-83.483575864,4,"25 OWEN ST, BELLEVILLE, MI, 48111","Match","Exact","25 OWEN ST, BELLEVILLE, MI, 48111",632730527,"L"
137505,"25 PACIFICA APT 6436","IRVINE","CA",92618,33.6511737390001,-117.749578785,5,"25 PACIFICA APT 6436, IRVINE, CA, 92618","Match","Exact","25 PACIFICA, IRVINE, CA, 92618",650093803,"L"
137506,"25 PAMDA DRIVE","ROCHESTER","NY",14617,43.199373194,-77.589406681,6,"25 PAMDA DRIVE, ROCHESTER, NY, 14617","Match","Exact","25 PAMDA DR, ROCHESTER, NY, 14617",14538663,"R"
137507,"25 PARK DR BOX 492","BALTIC","CT",6330,41.6173471540001,-72.0863733429999,7,"25 PARK DR BOX 492, BALTIC, CT, 6330","Match","Exact","25 PARK DR, BALTIC, CT, 06330",56845174,"R"
137508,"25 PATTI LANE","YONKERS","NY",10701,40.953573922,-73.890368317,8,"25 PATTI LANE, YONKERS, NY, 10701","Match","Exact","25 PATTI LN, YONKERS, NY, 10701",139743047,"L"
137509,"25 PATTON AVE","ASHEVILLE","NC",28801,35.594802325,-82.552916264,9,"25 PATTON AVE, ASHEVILLE, NC, 28801","Match","Exact","25 PATTON AVE, ASHEVILLE, NC, 28801",36845630,"R"
137510,"25 PEBBLE BEACH CIRCLE","MADISON","WI",53717,43.0809650580001,-89.4959542619999,10,"25 PEBBLE BEACH CIRCLE, MADISON, WI, 53717","Match","Exact","25 PEBBLE BEACH CIR, MADISON, WI, 53717",49499067,"R"
137511,"25 PELHAM LANE","NEW HAVEN","CT",6511,41.325901478,-72.950096227,11,"25 PELHAM LANE, NEW HAVEN, CT, 6511","Match","Exact","25 PELHAM LN, NEW HAVEN, CT, 06511",3698853,"R"
137512,"25 PINE CREST DR","DENVER","PA",17517,40.2632792850001,-76.180566072,12,"25 PINE CREST DR, DENVER, PA, 17517","Match","Exact","25 PINE CREST DR, DENVER, PA, 17517",179646214,"R"
137513,"25 PINEWOOD AVENUE","ASHEVILLE","NC",28804,35.639224842,-82.570435606,13,"25 PINEWOOD AVENUE, ASHEVILLE, NC, 28804","Match","Non_Exact","25 PINEWOOD ST, ASHEVILLE, NC, 28804",36897024,"L"
137514,"25 PLAYERS LANE","PINE HILL","NJ",8021,39.783954663,-75.001730229,14,"25 PLAYERS LANE, PINE HILL, NJ, 8021","Match","Exact","25 PLAYERS LN, PINE HILL, NJ, 08021",647269330,"R"
137515,"25 PLAZA DRIVE","BERKELEY","CA",94705,37.854927606,-122.245288978,15,"25 PLAZA DRIVE, BERKELEY, CA, 94705","Match","Exact","25 PLAZA DR, BERKELEY, CA, 94705",124999301,"L"
137516,"25 PORTER STREET","WOBURN","MA",1801,42.4726423710001,-71.1521764089999,16,"25 PORTER STREET, WOBURN, MA, 1801","Match","Exact","25 PORTER ST, WOBURN, MA, 01801",86886322,"R"
137517,"25 POTTER LANE","HALESITE","NY",11743,40.8828452270001,-73.414651078,17,"25 POTTER LANE, HALESITE, NY, 11743","Match","Exact","25 POTTER LN, HALESITE, NY, 11743",114034034,"L"
137518,"25 PRESIDENTIAL DRIVE","SOUTHBOROUGH","MA",1772,42.3222007090001,-71.548723765,18,"25 PRESIDENTIAL DRIVE, SOUTHBOROUGH, MA, 1772","Match","Exact","25 PRESIDENTIAL DR, SOUTHBOROUGH, MA, 01772",40108138,"R"
137519,"25 PRICKLY PEAR LOOP","HOLLAND","AR",72173,35.155217685,-92.2728090419999,19,"25 PRICKLY PEAR LOOP, HOLLAND, AR, 72173","Match","Exact","25 PRICKLY PEAR LOOP, HOLLAND, AR, 72173",141067538,"R"
137520,"25 PROCTOR AVE","BUFFALO","NY",14215,42.9267420630001,-78.812659858,20,"25 PROCTOR AVE, BUFFALO, NY, 14215","Match","Exact","25 PROCTOR AVE, BUFFALO, NY, 14215",48297387,"R"
137521,"25 PROFESSIONAL PARK DR","CLARKSVILLE","AR",72830,35.4618499910001,-93.445853582,21,"25 PROFESSIONAL PARK DR, CLARKSVILLE, AR, 72830","Match","Exact","25 PROFESSIONAL PARK DR, CLARKSVILLE, AR, 72830",642531623,"L"
137522,"25 PROSPECT STREER","CHARLESTOWN","MA",2129,NA,NA,22,"25 PROSPECT STREER, CHARLESTOWN, MA, 2129","Tie",NA,NA,NA,NA
137523,"25 QUEENS CV","CANADIAN","OK",74425,35.193032413,-95.612394205,23,"25 QUEENS CV, CANADIAN, OK, 74425","Match","Exact","25 QUEENS COVE, CANADIAN, OK, 74425",106286617,"R"
137524,"25 RALLS DRIVE","CRANSTON","RI",2920,41.7691612400001,-71.469753528,24,"25 RALLS DRIVE, CRANSTON, RI, 2920","Match","Exact","25 RALLS DR, CRANSTON, RI, 02920",47494430,"R"
137525,"25 RAY MINE ROAD","BURNSVILLE","NC",28714,35.889465065,-82.281488289,25,"25 RAY MINE ROAD, BURNSVILLE, NC, 28714","Match","Exact","25 RAY MINE RD, BURNSVILLE, NC, 28714",37416554,"R"
137526,"25 REFLECTION LANE","HAMPTON","VA",23666,37.0490458240001,-76.4056294769999,26,"25 REFLECTION LANE, HAMPTON, VA, 23666","Match","Exact","25 REFLECTION LN, HAMPTON, VA, 23666",239687927,"R"
137527,"25 REGATTA ROAD NUMBER B","POLSON","MT",59860,47.6965622430001,-114.175637829,27,"25 REGATTA ROAD NUMBER B, POLSON, MT, 59860","Match","Non_Exact","25 REGETTA RD, POLSON, MT, 59860",206931618,"L"
137528,"25 RENSSELAER DRIVE","SPRING VALLEY","NY",10977,41.143332666,-74.0362059129999,28,"25 RENSSELAER DRIVE, SPRING VALLEY, NY, 10977","Match","Exact","25 RENSSELAER DR, SPRING VALLEY, NY, 10977",124593189,"R"
137529,"25 RICHARD DRIVE","SHORT HILLS","NJ",7078,40.755659931,-74.321392827,29,"25 RICHARD DRIVE, SHORT HILLS, NJ, 7078","Match","Exact","25 RICHARD DR, SHORT HILLS, NJ, 07078",63458352,"L"
137530,"25 RICKER RD NUM 2","NEWTON","MA",2458,42.3513611170001,-71.1755541909999,30,"25 RICKER RD NUM 2, NEWTON, MA, 2458","Match","Exact","25 RICKER RD, NEWTON, MA, 02458",86865502,"R"
137531,"25 RIVER OVERLOOK STREET","OMAK","WA",98841,48.4065504930001,-119.489900578,31,"25 RIVER OVERLOOK STREET, OMAK, WA, 98841","Match","Exact","25 RIVER OVERLOOK ST, OMAK, WA, 98841",157346017,"L"
137532,"25 RIVER STREET APARTMENT 326","GREENVILLE","SC",29601,34.8451310310001,-82.4043697929999,32,"25 RIVER STREET APARTMENT 326, GREENVILLE, SC, 29601","Match","Exact","25 RIVER ST, GREENVILLE, SC, 29601",38357613,"L"
137533,"25 RIVER STREET SUITE E PO BOX 278","CATHLAMET","WA",98612,46.2020941580001,-123.385218467,33,"25 RIVER STREET SUITE E PO BOX 278, CATHLAMET, WA, 98612","Match","Exact","25 RIVER ST, CATHLAMET, WA, 98612",176296355,"L"
137534,"25 RIVERCREST LANE","COVINGTON","VA",30016,NA,NA,34,"25 RIVERCREST LANE, COVINGTON, VA, 30016","No_Match",NA,NA,NA,NA
137535,"25 RIVERVIEW DR","POQUOSON","VA",23662,37.1171565160001,-76.366589521,35,"25 RIVERVIEW DR, POQUOSON, VA, 23662","Match","Exact","25 RIVERVIEW DR, POQUOSON, VA, 23662",617115338,"L"
137536,"25 ROAD 6 RT","CODY","WY",82414,44.4415674320001,-109.188556057,36,"25 ROAD 6 RT, CODY, WY, 82414","Match","Non_Exact","25 RD 6RT, CODY, WY, 82414",612519720,"L"
137537,"25 ROAD 6427","KIRTLAND","NM",87417,36.7375831480001,-108.346940533,37,"25 ROAD 6427, KIRTLAND, NM, 87417","Match","Exact","25 RD 6427, KIRTLAND, NM, 87417",643437418,"L"
137538,"25 ROBERT DRIVE","SOUTH EASTON","MA",2375,42.026732543,-71.145537355,38,"25 ROBERT DRIVE, SOUTH EASTON, MA, 2375","Match","Exact","25 ROBERT DR, SOUTH EASTON, MA, 02375",651709655,"R"
137539,"25 ROCK VISTA WAY","ARDEN","NC",28704,35.4644939780001,-82.61609299,39,"25 ROCK VISTA WAY, ARDEN, NC, 28704","Match","Exact","25 ROCK VISTA WAY, ARDEN, NC, 28704",643552329,"R"
137540,"25 ROCKY POINT DRIVE","BOW","NH",3304,43.148883917,-71.554941378,40,"25 ROCKY POINT DRIVE, BOW, NH, 3304","Match","Exact","25 ROCKY POINT DR, BOW, NH, 03304",117717277,"L"
137541,"25 ROMAINE DR","SANTA BARBARA","CA",93105,34.4284471220001,-119.730501522,41,"25 ROMAINE DR, SANTA BARBARA, CA, 93105","Match","Exact","25 ROMAINE DR, SANTA BARBARA, CA, 93105",108604347,"L"
137542,"25 ROSEMARY STREET","NEEDHAM HEIGHTS","MA",2494,42.2887907030001,-71.2324784529999,42,"25 ROSEMARY STREET, NEEDHAM HEIGHTS, MA, 2494","Match","Exact","25 ROSEMARY ST, NEEDHAM HEIGHTS, MA, 02494",87241542,"R"
137543,"25 ROSETREE TERRACE APT C9","RIDGEFIELD","NJ",7657,NA,NA,43,"25 ROSETREE TERRACE APT C9, RIDGEFIELD, NJ, 7657","No_Match",NA,NA,NA,NA
137544,"25 ROUTE 111 SUITE 370","SMITHTOWN","NY",11787,40.8543694860001,-73.18756439,44,"25 ROUTE 111 SUITE 370, SMITHTOWN, NY, 11787","Match","Non_Exact","25 STATE RTE 111, SMITHTOWN, NY, 11787",113988919,"R"
137545,"25 ROXBURY ST 122","KEENE","NH",3431,42.933732095,-72.277708148,45,"25 ROXBURY ST 122, KEENE, NH, 3431","Match","Exact","25 ROXBURY ST, KEENE, NH, 03431",124067087,"R"
137546,"25 RUDDERS XING","NEWNAN","GA",30263,33.45578877,-84.820085556,46,"25 RUDDERS XING, NEWNAN, GA, 30263","Match","Exact","25 RUDDERS CROSSING, NEWNAN, GA, 30263",618819138,"R"
137547,"25 S 1ST AVE","ARCADIA","CA",91006,34.1397680320001,-118.028341979,47,"25 S 1ST AVE, ARCADIA, CA, 91006","Match","Exact","25 S 1ST AVE, ARCADIA, CA, 91006",141645114,"R"
137548,"25 S EWING ST","INDIANAPOLIS","IN",46201,39.768125146,-86.104836744,48,"25 S EWING ST, INDIANAPOLIS, IN, 46201","Match","Exact","25 S EWING ST, INDIANAPOLIS, IN, 46201",108022330,"L"
137549,"25 S FAIRWAY DR","ALEXANDRIA","IN",46001,40.2458161980001,-85.678026938,49,"25 S FAIRWAY DR, ALEXANDRIA, IN, 46001","Match","Exact","25 FAIRWAY DR, ALEXANDRIA, IN, 46001",31109302,"L"
137550,"25 S ISLAND ROAD","RAMSEY","NJ",7446,41.058043937,-74.136624478,50,"25 S ISLAND ROAD, RAMSEY, NJ, 7446","Match","Non_Exact","25 ISLAND AVE, RAMSEY, NJ, 07446",64403197,"L"
137551,"25 S LINCOLN AVE APT 305","ORCHARD PARK","NY",14127,NA,NA,51,"25 S LINCOLN AVE APT 305, ORCHARD PARK, NY, 14127","Tie",NA,NA,NA,NA
137552,"25 SADDLEWOOD DRIVE","POTTSTOWN","PA",19465,40.1887748440001,-75.715598314,52,"25 SADDLEWOOD DRIVE, POTTSTOWN, PA, 19465","Match","Exact","25 SADDLEWOOD DR, POTTSTOWN, PA, 19465",179507872,"R"
137553,"25 SAGE ST","HOLMDEL","NJ",7733,40.4110754210001,-74.1797431219999,53,"25 SAGE ST, HOLMDEL, NJ, 7733","Match","Exact","25 SAGE ST, HOLMDEL, NJ, 07733",601548648,"R"
137554,"25 SAINT GEORGE DRIVE","BELLEVILLE","IL",62221,38.545239651,-89.938145741,54,"25 SAINT GEORGE DRIVE, BELLEVILLE, IL, 62221","Match","Exact","25 ST GEORGE DR, BELLEVILLE, IL, 62221",653855113,"R"
137555,"25 SAINT MORITZ LANE","CHERRY HILL","NJ",8003,39.8976691870001,-74.97414551,55,"25 SAINT MORITZ LANE, CHERRY HILL, NJ, 8003","Match","Exact","25 SAINT MORITZ LN, CHERRY HILL, NJ, 08003",642521008,"R"
137556,"25 SALLY ANNE PLACE","NEWPORT NEWS","VA",23602,37.151838191,-76.504756915,56,"25 SALLY ANNE PLACE, NEWPORT NEWS, VA, 23602","Match","Non_Exact","25 SALLY ANN PL, NEWPORT NEWS, VA, 23602",103767264,"L"
137557,"25 SALVATORE DRIVE","LAKEWOOD","NJ",8701,40.044730008,-74.213067495,57,"25 SALVATORE DRIVE, LAKEWOOD, NJ, 8701","Match","Exact","25 SALVATORE DR, LAKEWOOD, NJ, 08701",637318013,"L"
137558,"25 SAMOSET AVE","CENTRAL FALLS","RI",2863,41.8964409070001,-71.384939549,58,"25 SAMOSET AVE, CENTRAL FALLS, RI, 2863","Match","Exact","25 SAMOSET AVE, CENTRAL FALLS, RI, 02863",47455739,"R"
137559,"25 SAN JUAN GRADE ROAD SUITE 102","SALINAS","CA",93906,36.718074492,-121.653555784,59,"25 SAN JUAN GRADE ROAD SUITE 102, SALINAS, CA, 93906","Match","Exact","25 SAN JUAN GRADE RD, SALINAS, CA, 93906",196868914,"R"
137560,"25 SANDY SHORE TERRACE APT 101","COLCHESTER","VT",5446,44.547242043,-73.203133177,60,"25 SANDY SHORE TERRACE APT 101, COLCHESTER, VT, 5446","Match","Exact","25 SANDY SHORE TER, COLCHESTER, VT, 05446",135855853,"L"
137561,"25 SARGENT STREET","MELROSE","MA",2176,42.4684752140001,-71.062659783,61,"25 SARGENT STREET, MELROSE, MA, 2176","Match","Exact","25 SARGENT ST, MELROSE, MA, 02176",86871591,"R"
137562,"25 SATINWOOD DRIVE","CHEEKTOWAGA","NY",14225,42.9269085980001,-78.725234627,62,"25 SATINWOOD DRIVE, CHEEKTOWAGA, NY, 14225","Match","Exact","25 SATINWOOD DR, CHEEKTOWAGA, NY, 14225",639749425,"R"
137563,"25 SCHERMERHORN ST APT 3","BROOKLYN","NY",11201,40.6912611180001,-73.9926996249999,63,"25 SCHERMERHORN ST APT 3, BROOKLYN, NY, 11201","Match","Exact","25 SCHERMERHORN ST, BROOKLYN, NY, 11201",59075018,"L"
137564,"25 SCHOOL STREET","FRAMINGHAM","MA",1701,NA,NA,64,"25 SCHOOL STREET, FRAMINGHAM, MA, 1701","No_Match",NA,NA,NA,NA
137565,"25 SCOTTS DRIVE","LEBANON","TN",37087,36.251168277,-86.443038225,65,"25 SCOTTS DRIVE, LEBANON, TN, 37087","Match","Exact","25 SCOTTS DR, LEBANON, TN, 37087",617122387,"L"
137566,"25 SE 154TH AVE","PORTLAND","OR",97233,45.521746143,-122.50486873,66,"25 SE 154TH AVE, PORTLAND, OR, 97233","Match","Exact","25 SE 154TH AVE, PORTLAND, OR, 97233",648039096,"R"
137567,"25 SE 2ND AVENUE STE 1020","MIAMI","FL",33131,25.7740070340001,-80.190239818,67,"25 SE 2ND AVENUE STE 1020, MIAMI, FL, 33131","Match","Non_Exact","25 SE 2ND AVE, MIAMI, FL, 33131",116018761,"L"
137568,"25 SE 2ND AVENUE SUITE 543","MIAMI","FL",33131,25.7740070340001,-80.190239818,68,"25 SE 2ND AVENUE SUITE 543, MIAMI, FL, 33131","Match","Non_Exact","25 SE 2ND AVE, MIAMI, FL, 33131",116018761,"L"
137569,"25 SEABOLT ROAD","LOCUST GROVE","GA",30248,33.3763998420001,-84.100779092,69,"25 SEABOLT ROAD, LOCUST GROVE, GA, 30248","Match","Exact","25 SEABOLT RD, LOCUST GROVE, GA, 30248",23185257,"R"
137570,"25 SEATON ST","MASSAPEQUA","NY",11758,40.670238849,-73.448781959,70,"25 SEATON ST, MASSAPEQUA, NY, 11758","Match","Exact","25 SEATON ST, MASSAPEQUA, NY, 11758",147652197,"L"
137571,"25 SEDERHOLM PATH","PALM COAST","FL",32164,29.4305872360001,-81.170785634,71,"25 SEDERHOLM PATH, PALM COAST, FL, 32164","Match","Exact","25 SEDERHOLM PATH, PALM COAST, FL, 32164",647832138,"L"
137572,"25 SENATE PLACE","JERSEY CITY","NJ",7306,40.7375545740001,-74.067450491,72,"25 SENATE PLACE, JERSEY CITY, NJ, 7306","Match","Exact","25 SENATE PL, JERSEY CITY, NJ, 07306",59603912,"L"
137573,"25 SEVERANCE CIRCLE  NUMBER 218","CLEVELAND HEIGHTS","OH",44118,NA,NA,73,"25 SEVERANCE CIRCLE  NUMBER 218, CLEVELAND HEIGHTS, OH, 44118","No_Match",NA,NA,NA,NA
137574,"25 SHADY BROOK LANE","BELMONT","MA",2478,42.4008187050001,-71.180354617,74,"25 SHADY BROOK LANE, BELMONT, MA, 2478","Match","Exact","25 SHADY BROOK LN, BELMONT, MA, 02478",86885644,"R"
137575,"25 SHEPHERDS LANE","EPPING","NH",3042,NA,NA,75,"25 SHEPHERDS LANE, EPPING, NH, 3042","No_Match",NA,NA,NA,NA
137576,"25 SHERIDAN RD","ARNOLD","MD",21012,39.0358667260001,-76.500426607,76,"25 SHERIDAN RD, ARNOLD, MD, 21012","Match","Exact","25 SHERIDAN RD, ARNOLD, MD, 21012",68211988,"L"
137577,"25 SHERYL CRESCENT","SMITHTOWN","NY",11787,40.871512314,-73.2244091109999,77,"25 SHERYL CRESCENT, SMITHTOWN, NY, 11787","Match","Exact","25 SHERYL CRES, SMITHTOWN, NY, 11787",113980988,"R"
137578,"25 SHINNECOCK TRAIL","FRANKLIN LAKES","NJ",7417,40.992187963,-74.241456319,78,"25 SHINNECOCK TRAIL, FRANKLIN LAKES, NJ, 7417","Match","Exact","25 SHINNECOCK TRL, FRANKLIN LAKES, NJ, 07417",64414659,"R"
137579,"25 SINNOTT STREET","WEST BRIDGEWATER","MA",2379,42.0408805370001,-71.0192567839999,79,"25 SINNOTT STREET, WEST BRIDGEWATER, MA, 2379","Match","Exact","25 SINNOTT ST, W BRIDGEWATER, MA, 02379",87444526,"R"
137580,"25 SIRIUS COURT","SEWELL","NJ",8080,39.7255303260001,-75.063868107,80,"25 SIRIUS COURT, SEWELL, NJ, 8080","Match","Exact","25 SIRIUS CT, SEWELL, NJ, 08080",134593451,"R"
137581,"25 SMITH ST","UXBRIDGE","MA",1569,42.0792620230001,-71.638948791,81,"25 SMITH ST, UXBRIDGE, MA, 1569","Match","Exact","25 SMITH ST, UXBRIDGE, MA, 01569",40094299,"L"
137582,"25 SOCIETY ROAD","NIANTIC","CT",6357,41.346932801,-72.21258363,82,"25 SOCIETY ROAD, NIANTIC, CT, 6357","Match","Exact","25 SOCIETY RD, NIANTIC, CT, 06357",611681789,"R"
137583,"25 SOLOMON AVE","GIBBSTOWN","NJ",8027,39.8239792700001,-75.296171246,83,"25 SOLOMON AVE, GIBBSTOWN, NJ, 8027","Match","Exact","25 SOLOMON AVE, GIBBSTOWN, NJ, 08027",134579452,"R"
137584,"25 SOLOMON AVENUE","GIBBSTOWN","NJ",8027,39.8239792700001,-75.296171246,84,"25 SOLOMON AVENUE, GIBBSTOWN, NJ, 8027","Match","Exact","25 SOLOMON AVE, GIBBSTOWN, NJ, 08027",134579452,"R"
137585,"25 SORRELWOOD LANE","BLUFFTON","SC",29910,32.285997346,-80.892565683,85,"25 SORRELWOOD LANE, BLUFFTON, SC, 29910","Match","Exact","25 SORRELWOOD LN, BLUFFTON, SC, 29910",87646272,"L"
137586,"25 SOUTH COURT STREET","MONTGOMERY","AL",36104,32.3770213920001,-86.309029032,86,"25 SOUTH COURT STREET, MONTGOMERY, AL, 36104","Match","Exact","25 S COURT ST, MONTGOMERY, AL, 36104",1469374,"L"
137587,"25 SOUTH FOREST CIRCLE","WEST HAVEN","CT",6516,41.307846247,-72.976327241,87,"25 SOUTH FOREST CIRCLE, WEST HAVEN, CT, 6516","Match","Exact","25 S FOREST CIR, W HAVEN, CT, 06516",3697586,"L"
137588,"25 SOUTH OAK KNOLL AVE 226","PASADENA","CA",91101,34.145498263,-118.135217088,88,"25 SOUTH OAK KNOLL AVE 226, PASADENA, CA, 91101","Match","Exact","25 S OAK KNOLL AVE, PASADENA, CA, 91101",141630648,"R"
137589,"25 SOUTH ST APT D97","MARCELLUS","NY",13108,42.979383055,-76.340276852,89,"25 SOUTH ST APT D97, MARCELLUS, NY, 13108","Match","Exact","25 SOUTH ST, MARCELLUS, NY, 13108",46555134,"R"
137590,"25 SOUTHWOOD DR","ORINDA","CA",94563,37.8783490970001,-122.177615413,90,"25 SOUTHWOOD DR, ORINDA, CA, 94563","Match","Exact","25 SOUTHWOOD DR, ORINDA, CA, 94563",192050633,"L"
137591,"25 SPRINGWOOD AVE","ARDSLEY","NY",10502,41.006377802,-73.845123746,91,"25 SPRINGWOOD AVE, ARDSLEY, NY, 10502","Match","Exact","25 SPRINGWOOD AVE, ARDSLEY, NY, 10502",139777168,"R"
137592,"25 STATE HWY 121 APT 1316","EULESS","TX",76039,NA,NA,92,"25 STATE HWY 121 APT 1316, EULESS, TX, 76039","No_Match",NA,NA,NA,NA
137593,"25 STATE STREET","OSSINING","NY",10562,41.1584664050001,-73.865274378,93,"25 STATE STREET, OSSINING, NY, 10562","Match","Exact","25 STATE ST, OSSINING, NY, 10562",139839998,"R"
137594,"25 STEAMBOAT LANDING","TICONDEROGA","NY",12883,43.809224575,-73.445003194,94,"25 STEAMBOAT LANDING, TICONDEROGA, NY, 12883","Match","Exact","25 STEAMBOAT LNDG, TICONDEROGA, NY, 12883",625077823,"L"
137595,"25 STEPHENVILLE PKWY","EDISON","NJ",8820,40.566107619,-74.378017353,95,"25 STEPHENVILLE PKWY, EDISON, NJ, 8820","Match","Exact","25 STEPHENVILLE PKWY, EDISON, NJ, 08820",60262194,"L"
137596,"25 STEVENS AVE BUILDING B /SUITE 1","WEST LAWN","PA",19609,40.3260691730001,-76.007920563,96,"25 STEVENS AVE BUILDING B /SUITE 1, WEST LAWN, PA, 19609","Match","Exact","25 STEVENS AVE, WEST LAWN, PA, 19609",80412408,"L"
137597,"25 STONERIDGE","MURFREESBORO","AR",71958,34.1559438100001,-93.702377084,97,"25 STONERIDGE, MURFREESBORO, AR, 71958","Match","Non_Exact","25 STONERIDGE DR, MURFREESBORO, AR, 71958",11199796,"R"
137598,"25 STOREY AVE PMB 176","NEWBURYPORT","MA",1950,NA,NA,98,"25 STOREY AVE PMB 176, NEWBURYPORT, MA, 1950","No_Match",NA,NA,NA,NA
137599,"25 STOREY AVENUE SUITE 116","NEWBURYPORT","MA",1950,NA,NA,99,"25 STOREY AVENUE SUITE 116, NEWBURYPORT, MA, 1950","No_Match",NA,NA,NA,NA
137600,"25 SUMMER STREET","HAMPDEN","ME",4444,44.732612483,-68.8394698179999,100,"25 SUMMER STREET, HAMPDEN, ME, 4444","Match","Exact","25 SUMMER ST, HAMPDEN, ME, 04444",123626506,"R"
137601,"25 SUMMERS STREET","OYSTER BAY","NY",11771,40.8626019800001,-73.529347802,101,"25 SUMMERS STREET, OYSTER BAY, NY, 11771","Match","Exact","25 SUMMERS ST, OYSTER BAY, NY, 11771",147692011,"L"
137602,"25 SUNSET DRIVE","DOUGLAS","MA",1516,42.0652482990001,-71.720280416,102,"25 SUNSET DRIVE, DOUGLAS, MA, 1516","Match","Exact","25 SUNSET DR, DOUGLAS, MA, 01516",40057359,"R"
137603,"25 SUNSET DRIVE","WHISPERING PINES","NC",28327,35.2607751990001,-79.394928315,103,"25 SUNSET DRIVE, WHISPERING PINES, NC, 28327","Match","Exact","25 SUNSET DR, WHISPERING PINES, NC, 28327",20327111,"L"
137604,"25 SUTTON PLACE SOUTH APT 4J","NEW YORK","NY",10022,40.7565049070001,-73.96128313,104,"25 SUTTON PLACE SOUTH APT 4J, NEW YORK, NY, 10022","Match","Exact","25 SUTTON PL S, NEW YORK, NY, 10022",59657629,"R"
137605,"25 SWENSON DRIVE","WAPPINGER FALLS","NY",12590,41.610839103,-73.915749706,105,"25 SWENSON DRIVE, WAPPINGER FALLS, NY, 12590","Match","Non_Exact","25 SWENSON DR, WAPPINGERS FALLS, NY, 12590",4182329,"L"
137606,"25 TACOMA PLACE","ASHEVILLE","NC",28801,35.605241619,-82.5721116719999,106,"25 TACOMA PLACE, ASHEVILLE, NC, 28801","Match","Exact","25 TACOMA PL, ASHEVILLE, NC, 28801",36844315,"R"
137607,"25 TAHAITAN DR","ELLENTON","FL",34222,27.542390396,-82.488431652,107,"25 TAHAITAN DR, ELLENTON, FL, 34222","Match","Non_Exact","25 TAHITIAN DR, ELLENTON, FL, 34222",16230193,"L"
137608,"25 TELEGRAPH STREET","BINGHAMTON","NY",13903,42.0916028990001,-75.901523963,108,"25 TELEGRAPH STREET, BINGHAMTON, NY, 13903","Match","Exact","25 TELEGRAPH ST, BINGHAMTON, NY, 13903",46343388,"L"
137609,"25 THOMPSON CT","BUFFALO GROVE","IL",60089,42.1767009110001,-87.974579777,109,"25 THOMPSON CT, BUFFALO GROVE, IL, 60089","Match","Exact","25 THOMPSON CT, BUFFALO GROVE, IL, 60089",119649115,"L"
137610,"25 THORNAL STREET","CARTERET","NJ",7008,40.5814968460001,-74.224017004,110,"25 THORNAL STREET, CARTERET, NJ, 7008","Match","Exact","25 THORNAL ST, CARTERET, NJ, 07008",60276913,"L"
137611,"25 THORNTON WAY","BRUNSWICK","ME",4011,43.8995923680001,-69.981913068,111,"25 THORNTON WAY, BRUNSWICK, ME, 4011","Match","Exact","25 THORNTON WAY, BRUNSWICK, ME, 04011",78076325,"L"
137612,"25 THURMOND WAY PO BOX 1307","BLUFFTON","SC",29910,32.244534393,-80.8569564489999,112,"25 THURMOND WAY PO BOX 1307, BLUFFTON, SC, 29910","Match","Exact","25 THURMOND WAY, BLUFFTON, SC, 29910",87655840,"L"
137613,"25 TRIANGLE PARK DRIVE","CONCORD","NH",3301,43.217791101,-71.486030678,113,"25 TRIANGLE PARK DRIVE, CONCORD, NH, 3301","Match","Exact","25 TRIANGLE PARK DR, CONCORD, NH, 03301",117745585,"L"
137614,"25 TROLL LANE","ROCKAWAY","NJ",7866,40.9578819440001,-74.497255669,114,"25 TROLL LANE, ROCKAWAY, NJ, 7866","Match","Exact","25 TROLL LN, ROCKAWAY, NJ, 07866",629449870,"L"
137615,"25 TWIN BEAR ROAD","RAMAH","NM",87321,NA,NA,115,"25 TWIN BEAR ROAD, RAMAH, NM, 87321","No_Match",NA,NA,NA,NA
137616,"25 VADA DRIVE","IRVINE","KY",40336,NA,NA,116,"25 VADA DRIVE, IRVINE, KY, 40336","No_Match",NA,NA,NA,NA
137617,"25 VALLEY POND ROAD","KATONAH","NY",10536,41.3092921430001,-73.728283042,117,"25 VALLEY POND ROAD, KATONAH, NY, 10536","Match","Exact","25 VALLEY POND RD, KATONAH, NY, 10536",139753395,"R"
137618,"25 VAN RENSSELAER DR","RENSSELAER","NY",12144,42.6569623120001,-73.720681058,118,"25 VAN RENSSELAER DR, RENSSELAER, NY, 12144","Match","Exact","25 VAN RENSSELAER DR, RENSSELAER, NY, 12144",627484326,"R"
137619,"25 VAN ZANT STREET SUITE 14-7B","NORWALK","CT",6855,41.1012750830001,-73.407967836,119,"25 VAN ZANT STREET SUITE 14-7B, NORWALK, CT, 6855","Match","Exact","25 VAN ZANT ST, NORWALK, CT, 06855",3251394,"L"
137620,"25 VANDERVEER ROAD","FREEHOLD","NJ",7728,40.215428414,-74.232853355,120,"25 VANDERVEER ROAD, FREEHOLD, NJ, 7728","Match","Exact","25 VANDERVEER RD, FREEHOLD, NJ, 07728",90503080,"R"
137621,"25 VERONICA PL","BROOKLYN","NY",11226,40.6500114150001,-73.952898664,121,"25 VERONICA PL, BROOKLYN, NY, 11226","Match","Exact","25 VERONICA PL, BROOKLYN, NY, 11226",59081378,"L"
137622,"25 VICK PARK B","ROCHESTER","NY",14607,43.1515213650001,-77.582782724,122,"25 VICK PARK B, ROCHESTER, NY, 14607","Match","Exact","25 VICK PARK B, ROCHESTER, NY, 14607",14540889,"L"
137623,"25 VICTORIA DRIVE","SOUTH BURLINGTON","VT",5403,44.4623002230001,-73.162012596,123,"25 VICTORIA DRIVE, SOUTH BURLINGTON, VT, 5403","Match","Exact","25 VICTORIA DR, S BURLINGTON, VT, 05403",135842388,"R"
137624,"25 VILLA POINTE DRIVE","SPRINGBORO","OH",45066,39.5799338800001,-84.220896244,124,"25 VILLA POINTE DRIVE, SPRINGBORO, OH, 45066","Match","Exact","25 VILLA POINTE DR, SPRINGBORO, OH, 45066",617104387,"R"
137625,"25 VILLAGE ROAD","RAYNHAM","MA",2767,41.9089574010001,-71.062194228,125,"25 VILLAGE ROAD, RAYNHAM, MA, 2767","Match","Exact","25 VILLAGE RD, RAYNHAM, MA, 02767",636790782,"L"
137626,"25 W  39TH ST  FL 14","NEW YORK","NY",10018,40.751978996,-73.983202615,126,"25 W  39TH ST  FL 14, NEW YORK, NY, 10018","Match","Non_Exact","25 W 39TH ST, NEW YORK, NY, 10018",59658619,"R"
137627,"25 W  END AVENUE","SOMERVILLE","NJ",8876,40.570398632,-74.618807653,127,"25 W  END AVENUE, SOMERVILLE, NJ, 8876","Match","Exact","25 W END AVE, SOMERVILLE, NJ, 08876",642916486,"L"
137628,"25 W 31ST STREET 6TH FLOOR","NEW YORK","NY",10010,NA,NA,128,"25 W 31ST STREET 6TH FLOOR, NEW YORK, NY, 10010","No_Match",NA,NA,NA,NA
137629,"25 W 5TH ST","EMPORIUM","PA",15834,41.5125180520001,-78.239097989,129,"25 W 5TH ST, EMPORIUM, PA, 15834","Match","Exact","25 W 5TH ST, EMPORIUM, PA, 15834",126262640,"R"
137630,"25 W CALLE CONCORDIA","ORO VALLEY","AZ",85704,32.3736006990001,-110.97037211,130,"25 W CALLE CONCORDIA, ORO VALLEY, AZ, 85704","Match","Non_Exact","25 W CLL CONCORDIA, ORO VALLEY, AZ, 85704",633212359,"L"
137631,"25 W CALLE CONCORDOA","ORO VALLEY","AZ",85704,32.3736006990001,-110.97037211,131,"25 W CALLE CONCORDOA, ORO VALLEY, AZ, 85704","Match","Non_Exact","25 W CLL CONCORDIA, ORO VALLEY, AZ, 85704",633212359,"L"
137632,"25 W CRYSTAL LAKE ST STE 157","ORLANDO","FL",32806,28.5147458170001,-81.378184558,132,"25 W CRYSTAL LAKE ST STE 157, ORLANDO, FL, 32806","Match","Non_Exact","25 W CRYSTAL LAKE ST, ORLANDO, FL, 32806",94382465,"R"
137633,"25 W DISTRICT RD","UNIONVILLE","CT",6085,41.7442494430001,-72.885167059,133,"25 W DISTRICT RD, UNIONVILLE, CT, 6085","Match","Exact","25 W DISTRICT RD, UNIONVILLE, CT, 06085",648718111,"R"
137634,"25 W HOWARD ST UNIT C2","QUINCY","MA",2169,NA,NA,134,"25 W HOWARD ST UNIT C2, QUINCY, MA, 2169","Tie",NA,NA,NA,NA
137635,"25 W INDIANA ST","TRENTON","IL",62293,38.603101908,-89.6825978799999,135,"25 W INDIANA ST, TRENTON, IL, 62293","Match","Exact","25 W INDIANA ST, TRENTON, IL, 62293",94807232,"L"
137636,"25 W MAIN AVE SUITE 222","SPOKANE","WA",99201,47.6590775830001,-117.411509204,136,"25 W MAIN AVE SUITE 222, SPOKANE, WA, 99201","Match","Non_Exact","25 W MAIN AVE, SPOKANE, WA, 99201",189876954,"L"
137637,"25 W MAIN ST","PLATTEVILLE","WI",53818,42.7341388780001,-90.478511367,137,"25 W MAIN ST, PLATTEVILLE, WI, 53818","Match","Exact","25 W MAIN ST, PLATTEVILLE, WI, 53818",32755286,"L"
137638,"25 W MAIN STREET","HAGERSTOWN","IN",47346,39.910832629,-85.161530639,138,"25 W MAIN STREET, HAGERSTOWN, IN, 47346","Match","Exact","25 W MAIN ST, HAGERSTOWN, IN, 47346",31328854,"L"
137639,"25 W PLUMB ST","AURORA","MO",65605,36.964169681,-93.7222911489999,139,"25 W PLUMB ST, AURORA, MO, 65605","Match","Exact","25 W PLUMB ST, AURORA, MO, 65605",99873330,"R"
137640,"25 W PROSPECT AVENUE SUITE 1400","CLEVELAND","OH",44115,NA,NA,140,"25 W PROSPECT AVENUE SUITE 1400, CLEVELAND, OH, 44115","Tie",NA,NA,NA,NA
137641,"25 W TELEGRAPH STREET PO 71","WASHINGTON","UT",84780,NA,NA,141,"25 W TELEGRAPH STREET PO 71, WASHINGTON, UT, 84780","Tie",NA,NA,NA,NA
137642,"25 W64TH ST APT 7D","NEW YORK","NY",10023,NA,NA,142,"25 W64TH ST APT 7D, NEW YORK, NY, 10023","No_Match",NA,NA,NA,NA
137643,"25 WAITE STREET","LEICESTER","MA",1524,42.246019474,-71.8919555529999,143,"25 WAITE STREET, LEICESTER, MA, 1524","Match","Exact","25 WAITE ST, LEICESTER, MA, 01524",633002240,"L"
137644,"25 WALL STREET","ROCKAWAY","NJ",7866,40.9018753390001,-74.514032792,144,"25 WALL STREET, ROCKAWAY, NJ, 7866","Match","Exact","25 WALL ST, ROCKAWAY, NJ, 07866",60488562,"L"
137645,"25 WEBB DR","FORDS","NJ",8863,40.5474601010001,-74.3216460149999,145,"25 WEBB DR, FORDS, NJ, 8863","Match","Exact","25 WEBB DR, FORDS, NJ, 08863",60278703,"L"
137646,"25 WEBBS WAY","RUSTBURG","VA",24588,NA,NA,146,"25 WEBBS WAY, RUSTBURG, VA, 24588","No_Match",NA,NA,NA,NA
137647,"25 WEEKS ROAD NO 601A","NORTH BABYLON","NY",11703,40.7397639180001,-73.3190134279999,147,"25 WEEKS ROAD NO 601A, NORTH BABYLON, NY, 11703","Match","Non_Exact","25 WEEKS RD, NORTH BABYLON, NY, 11703",114243396,"L"
137648,"25 WEST 11TH STREET SUITE 210","ANNISTON","AL",36201,33.6584174700001,-85.830444872,148,"25 WEST 11TH STREET SUITE 210, ANNISTON, AL, 36201","Match","Exact","25 W 11TH ST, ANNISTON, AL, 36201",66589031,"R"
137649,"25 WEST 127TH ST APT 1","NEW YORK","NY",10027,40.8081068820001,-73.9422325159999,149,"25 WEST 127TH ST APT 1, NEW YORK, NY, 10027","Match","Exact","25 W 127TH ST, NEW YORK, NY, 10027",59656437,"R"
137650,"25 WEST 132ND STREET APT 4S","NEW YORK","NY",10037,40.8112470020001,-73.93993662,150,"25 WEST 132ND STREET APT 4S, NEW YORK, NY, 10037","Match","Exact","25 W 132ND ST, NEW YORK, NY, 10037",59656431,"R"
137651,"25 WEST 15TH ST UNIT B","CHICAGO","IL",60605,41.8619394780001,-87.628003352,151,"25 WEST 15TH ST UNIT B, CHICAGO, IL, 60605","Match","Exact","25 W 15TH ST, CHICAGO, IL, 60605",641745387,"L"
137652,"25 WEST 200 SOUTH","HYRUM","UT",84319,41.629861885,-111.856179444,152,"25 WEST 200 SOUTH, HYRUM, UT, 84319","Match","Exact","25 W 200 S, HYRUM, UT, 84319",155094746,"L"
137653,"25 WEST 43RD STREET 17TH FL","NEW YORK","NY",10036,40.754551072,-73.981312142,153,"25 WEST 43RD STREET 17TH FL, NEW YORK, NY, 10036","Match","Exact","25 W 43RD ST, NEW YORK, NY, 10036",59658624,"R"
137654,"25 WEST CENTRAL STREET SUITE 1002","BERGENFIELD","NJ",7621,40.9335666000001,-73.996292706,154,"25 WEST CENTRAL STREET SUITE 1002, BERGENFIELD, NJ, 7621","Match","Non_Exact","25 W CENTRAL AVE, BERGENFIELD, NJ, 07621",64372110,"R"
137655,"25 WEST GRADY ST","STATESBORO","GA",30458,32.44525214,-81.786258784,155,"25 WEST GRADY ST, STATESBORO, GA, 30458","Match","Exact","25 W GRADY ST, STATESBORO, GA, 30458",6115310,"R"
137656,"25 WEST HIGH STREET","UNION CITY","PA",16438,41.899402121,-79.847828407,156,"25 WEST HIGH STREET, UNION CITY, PA, 16438","Match","Exact","25 W HIGH ST, UNION CITY, PA, 16438",117483627,"L"
137657,"25 WEST NINTH STREET","INDIANAPOLIS","IN",46204,39.77923802,-86.158800044,157,"25 WEST NINTH STREET, INDIANAPOLIS, IN, 46204","Match","Exact","25 W 9TH ST, INDIANAPOLIS, IN, 46204",107991336,"L"
137658,"25 WEST POINT DRIVE","TONKA BAY","MN",55331,44.920907513,-93.58553527,158,"25 WEST POINT DRIVE, TONKA BAY, MN, 55331","Match","Non_Exact","25 W POINT DR, GREENWOOD, MN, 55331",43864879,"R"
137659,"25 WEST PROSPECT STREET","WEST HAVEN","CT",6516,41.2769801170001,-72.9608182059999,159,"25 WEST PROSPECT STREET, WEST HAVEN, CT, 6516","Match","Exact","25 W PROSPECT ST, W HAVEN, CT, 06516",3698271,"R"
137660,"25 WEST THIRD STREET SUITE 504","WILLIAMSPORT","PA",17701,41.240835329,-77.0015934859999,160,"25 WEST THIRD STREET SUITE 504, WILLIAMSPORT, PA, 17701","Match","Exact","25 W 3RD ST, WILLIAMSPORT, PA, 17701",59447850,"L"
137661,"25 WESTCLIFF RD","WESTON","MA",2493,42.326258323,-71.2954385159999,161,"25 WESTCLIFF RD, WESTON, MA, 2493","Match","Exact","25 WESTCLIFF RD, WESTON, MA, 02493",635734474,"R"
137662,"25 WESTLAKE COURT","JACKSON","NJ",8527,40.084312665,-74.2866751879999,162,"25 WESTLAKE COURT, JACKSON, NJ, 8527","Match","Exact","25 WESTLAKE CT, JACKSON, NJ, 08527",627786837,"L"
137663,"25 WEYBOSSET STREET","SHELTON","CT",6484,41.3051118810001,-73.090434553,163,"25 WEYBOSSET STREET, SHELTON, CT, 6484","Match","Exact","25 WEYBOSSET ST, SHELTON, CT, 06484",3265127,"R"
137664,"25 WHEATSTONE CT","PALMYRA","PA",17078,40.295510913,-76.595146616,164,"25 WHEATSTONE CT, PALMYRA, PA, 17078","Match","Exact","25 WHEATSTONE CT, PALMYRA, PA, 17078",80686762,"L"
137665,"25 WHITNEY DR STE 120","MILFORD","OH",45150,39.1561442060001,-84.2568222259999,165,"25 WHITNEY DR STE 120, MILFORD, OH, 45150","Match","Exact","25 WHITNEY DR, MILFORD, OH, 45150",118467888,"L"
137666,"25 WILDFLOWER LN","PLYMOUTH","MA",2360,41.844846531,-70.608800732,166,"25 WILDFLOWER LN, PLYMOUTH, MA, 2360","Match","Exact","25 WILDFLOWER LN, PLYMOUTH, MA, 02360",628228842,"R"
137667,"25 WILKINS AVE","ALBANY","NY",12206,42.6668781830001,-73.7612016539999,167,"25 WILKINS AVE, ALBANY, NY, 12206","Match","Exact","25 WILKINS AVE, ALBANY, NY, 12206",18310232,"R"
137668,"25 WILLIS LN","LANCASTER","PA",17602,40.038869398,-76.275837671,168,"25 WILLIS LN, LANCASTER, PA, 17602","Match","Exact","25 WILLIS LN, LANCASTER, PA, 17602",179665912,"R"
137669,"25 WILLIS STREET STE 8","FRAMINGHAM","MA",1702,42.281313647,-71.401839466,169,"25 WILLIS STREET STE 8, FRAMINGHAM, MA, 1702","Match","Exact","25 WILLIS ST, FRAMINGHAM, MA, 01702",87173043,"R"
137670,"25 WILMOT AVE","JERSEY CITY","NJ",7306,40.7299386620001,-74.0830348709999,170,"25 WILMOT AVE, JERSEY CITY, NJ, 7306","Match","Exact","25 WILMOT AVE, JERSEY CITY, NJ, 07306",648394685,"L"
137671,"25 WILSON AVENUE APT 1","BELMONT","MA",2478,42.3855800860001,-71.1823937409999,171,"25 WILSON AVENUE APT 1, BELMONT, MA, 2478","Match","Exact","25 WILSON AVE, BELMONT, MA, 02478",86891193,"R"
137672,"25 WILSON STREET","EAST NORTHPORT","NY",11731,40.892226979,-73.3322110409999,172,"25 WILSON STREET, EAST NORTHPORT, NY, 11731","Match","Exact","25 WILSON ST, E NORTHPORT, NY, 11731",652211847,"L"
137673,"25 WILSON STREET","GOUVERNEUR","NY",13642,44.3273418890001,-75.478963377,173,"25 WILSON STREET, GOUVERNEUR, NY, 13642","Match","Exact","25 WILSON ST, GOUVERNEUR, NY, 13642",155170542,"L"
137674,"25 WINDCHIME","IRVINE","CA",92603,33.6526402110001,-117.778925506,174,"25 WINDCHIME, IRVINE, CA, 92603","Match","Exact","25 WINDCHIME, IRVINE, CA, 92603",627440447,"L"
137675,"25 WINDCREST DRIVE","COVINGTON","GA",30016,33.614437197,-83.947406267,175,"25 WINDCREST DRIVE, COVINGTON, GA, 30016","Match","Exact","25 WINDCREST DR, COVINGTON, GA, 30016",23638751,"L"
137676,"25 WINDMERE DR","TROY","OH",45373,40.0046567360001,-84.201533,176,"25 WINDMERE DR, TROY, OH, 45373","Match","Exact","25 WINDMERE DR, TROY, OH, 45373",207644104,"R"
137677,"25 WOOD PLACE","NEW ROCHELLE","NY",10801,40.9147957530001,-73.798488146,177,"25 WOOD PLACE, NEW ROCHELLE, NY, 10801","Match","Exact","25 WOOD PL, NEW ROCHELLE, NY, 10801",139749870,"R"
137678,"25 WOODARD CIR","EAST RIDGE","TN",37412,34.991179468,-85.226387903,178,"25 WOODARD CIR, EAST RIDGE, TN, 37412","Match","Exact","25 WOODARD CIR, EAST RIDGE, TN, 37412",59315333,"L"
137679,"25 WOODLAND ROAD","JAMESBURG","NJ",8831,40.349168026,-74.443551191,179,"25 WOODLAND ROAD, JAMESBURG, NJ, 8831","Match","Exact","25 WOODLAND RD, JAMESBURG, NJ, 08831",60255774,"L"
137680,"25 WOODLAND WAY","DAYTON","NJ",8810,40.388207306,-74.518836576,180,"25 WOODLAND WAY, DAYTON, NJ, 8810","Match","Exact","25 WOODLAND WAY, DAYTON, NJ, 08810",60341154,"R"
137681,"25 WOODRUFF ROAD","RUSH","NY",14543,42.9658774370001,-77.704254556,181,"25 WOODRUFF ROAD, RUSH, NY, 14543","Match","Exact","25 WOODRUFF RD, RUSH, NY, 14543",14556946,"R"
137682,"25 WORTHMAN LANE","RENSSELAER","NY",12144,42.607181627,-73.7269709989999,182,"25 WORTHMAN LANE, RENSSELAER, NY, 12144","Match","Exact","25 WORTHMAN LN, RENSSELAER, NY, 12144",639368992,"L"
137683,"25 WRICK AVE","TITUSVILLE","NJ",8560,40.311084513,-74.881046194,183,"25 WRICK AVE, TITUSVILLE, NJ, 8560","Match","Exact","25 WRICK AVE, TITUSVILLE, NJ, 08560",60175095,"R"
137684,"25 WYNCUM VALLEY ROAD","FAIRFIELD","CT",6824,41.180459698,-73.267164603,184,"25 WYNCUM VALLEY ROAD, FAIRFIELD, CT, 6824","Match","Exact","25 WYNCUM VALLEY RD, FAIRFIELD, CT, 06824",3240285,"R"
137685,"25 YALE COURT","LIVINGSTON","NJ",7039,40.803445749,-74.285564807,185,"25 YALE COURT, LIVINGSTON, NJ, 7039","Match","Exact","25 YALE CT, LIVINGSTON, NJ, 07039",63496683,"L"
137686,"25-100 PADANARAM ROAD","DANBURY","CT",6811,41.4167281000001,-73.462042705,186,"25-100 PADANARAM ROAD, DANBURY, CT, 6811","Match","Exact","25 PADANARAM RD, DANBURY, CT, 06811",649294303,"R"
137687,"25-11 34TH STREET","QUEENS","NY",11103,40.76925694,-73.91614565,187,"25-11 34TH STREET, QUEENS, NY, 11103","Match","Non_Exact","25 34TH ST, LONG IS CITY, NY, 11103",59696996,"L"
137688,"25-11 86TH STREET","EAST ELMHURST","NY",11369,40.763143203,-73.882945136,188,"25-11 86TH STREET, EAST ELMHURST, NY, 11369","Match","Exact","25-11 86TH ST, EAST ELMHURST, NY, 11369",59697834,"L"
137689,"25-27 NORTH BROAD STREET","NORWICH","NY",13815,42.5319633870001,-75.5238387909999,189,"25-27 NORTH BROAD STREET, NORWICH, NY, 13815","Match","Exact","25 N BROAD ST, NORWICH, NY, 13815",46422086,"L"
137690,"25-27 VAN NESS PLACE","NEWARK","NJ",7108,40.7216326330001,-74.2062347089999,190,"25-27 VAN NESS PLACE, NEWARK, NJ, 7108","Match","Exact","25 VAN NESS PL, NEWARK, NJ, 07108",63496047,"R"
137691,"25-30 SKILLMAN AVE","LONG ISLAND CITY","NY",11101,40.7430442990001,-73.943778933,191,"25-30 SKILLMAN AVE, LONG ISLAND CITY, NY, 11101","Match","Exact","25-30 SKILLMAN AVE, LONG ISLAND CITY, NY, 11101",59731965,"R"
137692,"25-34 CRESCENT ST APT 1E SUITE 100","ASTORIA","NY",11102,40.7724435420001,-73.9220126179999,192,"25-34 CRESCENT ST APT 1E SUITE 100, ASTORIA, NY, 11102","Match","Exact","25-34 CRESCENT ST, ASTORIA, NY, 11102",59737316,"R"
137693,"25-39 99TH STREET","EAST ELMHURST","NY",11369,40.76369935,-73.8706664009999,193,"25-39 99TH STREET, EAST ELMHURST, NY, 11369","Match","Exact","25-39 99TH ST, EAST ELMHURST, NY, 11369",59699270,"L"
137694,"25-73 37TH STREET APT 3R","ASTORIA","NY",11103,40.7671173200001,-73.914568435,194,"25-73 37TH STREET APT 3R, ASTORIA, NY, 11103","Match","Exact","25-73 37TH ST, ASTORIA, NY, 11103",59697064,"L"
137695,"25-94 42ND STREET 23","ASTORIA","NY",11103,40.7650186710001,-73.911875515,195,"25-94 42ND STREET 23, ASTORIA, NY, 11103","Match","Exact","25-94 42ND ST, ASTORIA, NY, 11103",59697210,"R"
137696,"25","NORTH PLAINS","OR",97133,NA,NA,196,"25, NORTH PLAINS, OR, 97133","No_Match",NA,NA,NA,NA
137697,"250  SOUTH CHERRYWOOD DRIVE","LAFAYETTE","CO",80026,NA,NA,197,"250  SOUTH CHERRYWOOD DRIVE, LAFAYETTE, CO, 80026","Tie",NA,NA,NA,NA
137698,"250 20TH AVE N STE 138","CLINTON","IA",52732,41.868079385,-90.183383308,198,"250 20TH AVE N STE 138, CLINTON, IA, 52732","Match","Exact","250 20TH AVE N, CLINTON, IA, 52732",16807658,"R"
137699,"250 2ND AVE W","WOOD LAKE","MN",56297,44.6518623360001,-95.54240519,199,"250 2ND AVE W, WOOD LAKE, MN, 56297","Match","Exact","250 2ND AVE W, WOOD LAKE, MN, 56297",37054116,"R"
137700,"250 3RD ST","WEST SACRAMENTO","CA",95605,38.589217605,-121.509881223,200,"250 3RD ST, WEST SACRAMENTO, CA, 95605","Match","Exact","250 3RD ST, WEST SACRAMENTO, CA, 95605",625276573,"R"
137701,"250 5TH STREET","DELAWARE CITY","DE",19706,39.571312586,-75.592188843,201,"250 5TH STREET, DELAWARE CITY, DE, 19706","Match","Exact","250 5TH ST, DELAWARE CITY, DE, 19706",187278787,"R"
137702,"250 5TH STREET","KEYSTONE","IA",52249,42.0036344310001,-92.19856176,202,"250 5TH STREET, KEYSTONE, IA, 52249","Match","Non_Exact","250 5TH ST E, KEYSTONE, IA, 52249",94724071,"R"
137703,"250 6TH AVENUE","PATERSON","NJ",7524,40.9330909400001,-74.154735541,203,"250 6TH AVENUE, PATERSON, NJ, 7524","Match","Exact","250 6TH AVE, PATERSON, NJ, 07524",65264150,"R"
137704,"250 6TH ST E APT 410","SAINT PAUL","MN",55101,NA,NA,204,"250 6TH ST E APT 410, SAINT PAUL, MN, 55101","No_Match",NA,NA,NA,NA
137705,"250 71ST PLACE","SPRINGFIELD","OR",97478,44.046795225,-122.899246314,205,"250 71ST PLACE, SPRINGFIELD, OR, 97478","Match","Exact","250 71ST PL, SPRINGFIELD, OR, 97478",178175069,"L"
137706,"250 9TH STREET 3RD FLOOR","BROOKLYN","NY",11215,40.6704876260001,-73.989035055,206,"250 9TH STREET 3RD FLOOR, BROOKLYN, NY, 11215","Match","Exact","250 9TH ST, BROOKLYN, NY, 11215",59075630,"R"
137707,"250 9TH STREET","TROY","NY",12180,42.7405504820001,-73.68045062,207,"250 9TH STREET, TROY, NY, 12180","Match","Exact","250 9TH ST, TROY, NY, 12180",35728807,"R"
137708,"250 ALBANY STREET","SPRINGFIELD","MA",1105,42.116688186,-72.579265328,208,"250 ALBANY STREET, SPRINGFIELD, MA, 1105","Match","Exact","250 ALBANY ST, SPRINGFIELD, MA, 01105",4034769,"L"
137709,"250 ALGOMA RD","PALM BEACH","FL",33480,26.679719848,-80.0386190579999,209,"250 ALGOMA RD, PALM BEACH, FL, 33480","Match","Exact","250 ALGOMA RD, PALM BEACH, FL, 33480",115279973,"L"
137710,"250 ALLISON LOOP","EUNICE","LA",70535,30.488863828,-92.393022765,210,"250 ALLISON LOOP, EUNICE, LA, 70535","Match","Exact","250 ALLISON LOOP, EUNICE, LA, 70535",106451718,"L"
137711,"250 AMAL DRIVE APARTMENT 7005","ATLANTA","GA",30315,33.705399098,-84.395765298,211,"250 AMAL DRIVE APARTMENT 7005, ATLANTA, GA, 30315","Match","Exact","250 AMAL DR, ATLANTA, GA, 30315",619583565,"R"
137712,"250 AMERICAN WAY APT 216","OXON HILL","MD",20745,38.7836817410001,-77.0140798039999,212,"250 AMERICAN WAY APT 216, OXON HILL, MD, 20745","Match","Exact","250 AMERICAN WAY, OXON HILL, MD, 20745",635475831,"L"
137713,"250 AMERICAN WAY UNIT 634","OXON HILL","MD",20745,38.7836817410001,-77.0140798039999,213,"250 AMERICAN WAY UNIT 634, OXON HILL, MD, 20745","Match","Exact","250 AMERICAN WAY, OXON HILL, MD, 20745",635475831,"L"
137714,"250 ASHBOURNE ROAD","BEXLEY","OH",43209,39.975053669,-82.933837054,214,"250 ASHBOURNE ROAD, BEXLEY, OH, 43209","Match","Exact","250 ASHBOURNE RD, BEXLEY, OH, 43209",218651498,"R"
137715,"250 ATLANTA ROAD SUITE 200","CUMMING","GA",30040,34.203156822,-84.1356513169999,215,"250 ATLANTA ROAD SUITE 200, CUMMING, GA, 30040","Match","Exact","250 ATLANTA RD, CUMMING, GA, 30040",70177309,"R"
137716,"250 BARFIELD AVENUE","HENNING","TN",38041,35.6739468110001,-89.574276759,216,"250 BARFIELD AVENUE, HENNING, TN, 38041","Match","Exact","250 BARFIELD AVE, HENNING, TN, 38041",63781632,"R"
137717,"250 BASS RD","WINDHAM","CT",6280,41.725036862,-72.119614667,217,"250 BASS RD, WINDHAM, CT, 6280","Match","Exact","250 BASS RD, WINDHAM, CT, 06280",610957240,"L"
137718,"250 BEACON POINTE DRIVE","OCOEE","FL",34761,28.6178094050001,-81.550112889,218,"250 BEACON POINTE DRIVE, OCOEE, FL, 34761","Match","Exact","250 BEACON POINTE DR, OCOEE, FL, 34761",94413144,"L"
137719,"250 BEDFORD PARK BLVD WEST","BRONX","NY",10468,40.874715388,-73.892161575,219,"250 BEDFORD PARK BLVD WEST, BRONX, NY, 10468","Match","Exact","250 BEDFORD PARK BLVD W, BRONX, NY, 10468",80310369,"R"
137720,"250 BELLEVUE WAY NE APT 225","BELLEVUE","WA",98004,47.612446687,-122.201561018,220,"250 BELLEVUE WAY NE APT 225, BELLEVUE, WA, 98004","Match","Exact","250 BELLEVUE WAY NE, BELLEVUE, WA, 98004",186998434,"R"
137721,"250 BEVERLY BLVD  G16","UPPER DARBY","PA",19082,NA,NA,221,"250 BEVERLY BLVD  G16, UPPER DARBY, PA, 19082","No_Match",NA,NA,NA,NA
137722,"250 BEVERLY BOULEVARD C202","UPPER DARBY","PA",19082,NA,NA,222,"250 BEVERLY BOULEVARD C202, UPPER DARBY, PA, 19082","No_Match",NA,NA,NA,NA
137723,"250 BOBBY JONES EXPRESSWAY","AUGUSTA","GA",30907,33.508589343,-82.093752453,223,"250 BOBBY JONES EXPRESSWAY, AUGUSTA, GA, 30907","Match","Exact","250 BOBBY JONES EXPY, AUGUSTA, GA, 30907",55379795,"L"
137724,"250 BOBBY JONES EXPRESSWAY","MARTINEZ","GA",30907,33.508589343,-82.093752453,224,"250 BOBBY JONES EXPRESSWAY, MARTINEZ, GA, 30907","Match","Exact","250 BOBBY JONES EXPY, MARTINEZ, GA, 30907",55379795,"L"
137725,"250 BOGGS RD","LONDON","KY",40744,37.101738305,-84.1070780439999,225,"250 BOGGS RD, LONDON, KY, 40744","Match","Exact","250 BOGGS RD, LONDON, KY, 40744",98754906,"R"
137726,"250 BOGNER LANE","BOYES","MT",59316,NA,NA,226,"250 BOGNER LANE, BOYES, MT, 59316","No_Match",NA,NA,NA,NA
137727,"250 BOONE RD","BIRDSBORO","PA",19508,40.31563492,-75.787935279,227,"250 BOONE RD, BIRDSBORO, PA, 19508","Match","Exact","250 BOONE RD, BIRDSBORO, PA, 19508",639781186,"L"
137728,"250 BROOME STREET","NEW YORK","NY",10002,40.7180011930001,-73.989801873,228,"250 BROOME STREET, NEW YORK, NY, 10002","Match","Exact","250 BROOME ST, NEW YORK, NY, 10002",59654032,"R"
137729,"250 BROWNS HILL CT","MIDLOTHIAN","VA",23114,NA,NA,229,"250 BROWNS HILL CT, MIDLOTHIAN, VA, 23114","No_Match",NA,NA,NA,NA
137730,"250 BUTTONWOOD DRIVE","KEY BISCAYNE","FL",33149,25.6976344660001,-80.167513443,230,"250 BUTTONWOOD DRIVE, KEY BISCAYNE, FL, 33149","Match","Exact","250 BUTTONWOOD DR, KEY BISCAYNE, FL, 33149",116021254,"L"
137731,"250 CALLE CEBU","SALINAS","CA",93901,36.6802422120001,-121.649932063,231,"250 CALLE CEBU, SALINAS, CA, 93901","Match","Non_Exact","250 CLL CEBU, SALINAS, CA, 93901",196823513,"R"
137732,"250 CAMBRIDGE STREET","BOSTON","MA",2114,42.361123288,-71.067204476,232,"250 CAMBRIDGE STREET, BOSTON, MA, 2114","Match","Exact","250 CAMBRIDGE ST, BOSTON, MA, 02114",85734539,"R"
137733,"250 CAMBRIDGE STREET","SYRACUSE","NY",13210,43.042702757,-76.1178911759999,233,"250 CAMBRIDGE STREET, SYRACUSE, NY, 13210","Match","Exact","250 CAMBRIDGE ST, SYRACUSE, NY, 13210",46573608,"R"
137734,"250 CANDLEWOOD DRIVE","EASTHAM","MA",2642,41.8453850980001,-69.968079001,234,"250 CANDLEWOOD DRIVE, EASTHAM, MA, 2642","Match","Exact","250 CANDLEWOOD DR, EASTHAM, MA, 02642",121601167,"L"
137735,"250 CANDLEWOOD LANE","GILBERT","AZ",85233,33.339952055,-111.795459853,235,"250 CANDLEWOOD LANE, GILBERT, AZ, 85233","Match","Non_Exact","250 W CANDLEWOOD LN, GILBERT, AZ, 85233",128812451,"L"
137736,"250 CAPISCO COURT","JACKSONVILLE","FL",32220,NA,NA,236,"250 CAPISCO COURT, JACKSONVILLE, FL, 32220","No_Match",NA,NA,NA,NA
137737,"250 CATALONIA AVE STE 801","CORAL GABLES","FL",33134,25.7447353700001,-80.259476843,237,"250 CATALONIA AVE STE 801, CORAL GABLES, FL, 33134","Match","Exact","250 CATALONIA AVE, CORAL GABLES, FL, 33134",116266316,"L"
137738,"250 CENTRAL AVE","ALBANY","NY",12206,42.663376751,-73.770876819,238,"250 CENTRAL AVE, ALBANY, NY, 12206","Match","Exact","250 CENTRAL AVE, ALBANY, NY, 12206",18310061,"L"
137739,"250 CHAPEL GREEN ROAD","FREDERICKSBURG","VA",22405,38.294172159,-77.358154186,239,"250 CHAPEL GREEN ROAD, FREDERICKSBURG, VA, 22405","Match","Exact","250 CHAPEL GREEN RD, FREDERICKSBURG, VA, 22405",647906049,"L"
137740,"250 CHASE VLY RD","BROADALBIN","NY",12025,43.049929816,-74.138808847,240,"250 CHASE VLY RD, BROADALBIN, NY, 12025","Match","Exact","250 CHASE VLY RD, BROADALBIN, NY, 12025",153639506,"L"
137741,"250 CHERRY ST","BURLINGTON","CO",80807,39.302896982,-102.274582534,241,"250 CHERRY ST, BURLINGTON, CO, 80807","Match","Exact","250 CHERRY ST, BURLINGTON, CO, 80807",132236622,"R"
137742,"250 CLAIRMONT AVENUE","PITTSBURGH","PA",15229,40.518622097,-80.021903532,242,"250 CLAIRMONT AVENUE, PITTSBURGH, PA, 15229","Match","Exact","250 CLAIRMONT AVE, PITTSBURGH, PA, 15229",51624222,"R"
137743,"250 CLAY SCHOOL ROAD","EPHRATA","PA",17522,40.2196251350001,-76.238271676,243,"250 CLAY SCHOOL ROAD, EPHRATA, PA, 17522","Match","Exact","250 CLAY SCHOOL RD, EPHRATA, PA, 17522",179721208,"L"
137744,"250 CLINTON STREET APT 7C","NEW YORK","NY",10002,40.7123368310001,-73.986841585,244,"250 CLINTON STREET APT 7C, NEW YORK, NY, 10002","Match","Exact","250 CLINTON ST, NEW YORK, NY, 10002",59654308,"L"
137745,"250 CLUBHOUSE LANE","HAWESVILLE","KY",42348,37.882997898,-86.718841052,245,"250 CLUBHOUSE LANE, HAWESVILLE, KY, 42348","Match","Exact","250 CLUBHOUSE LN, HAWESVILLE, KY, 42348",8146072,"L"
137746,"250 COMMONS DRIVE PMB 207","DUBOIS","PA",15801,41.125401233,-78.7332237209999,246,"250 COMMONS DRIVE PMB 207, DUBOIS, PA, 15801","Match","Exact","250 COMMONS DR, DUBOIS, PA, 15801",50489466,"R"
137747,"250 CONNER ROAD","LONGVILLE","LA",70652,30.660430847,-93.23854217,247,"250 CONNER ROAD, LONGVILLE, LA, 70652","Match","Exact","250 CONNER RD, LONGVILLE, LA, 70652",88379169,"R"
137748,"250 CONVENTION DRIVE 711","FAIRVIEW","TX",75069,33.135575809,-96.652263937,248,"250 CONVENTION DRIVE 711, FAIRVIEW, TX, 75069","Match","Exact","250 CONVENTION DR, FAIRVIEW, TX, 75069",638566797,"R"
137749,"250 COREY AVE  NUM 67261","ST PETE BEACH","FL",33706,27.743134694,-82.7480996199999,249,"250 COREY AVE  NUM 67261, ST PETE BEACH, FL, 33706","Match","Exact","250 COREY AVE, SAINT PETE BEACH, FL, 33706",124694597,"L"
137750,"250 COUNTRY CLUB PARKWAY","SPRING CREEK","NV",89815,40.74707772,-115.59515218,250,"250 COUNTRY CLUB PARKWAY, SPRING CREEK, NV, 89815","Match","Exact","250 COUNTRY CLUB PKWY, SPRING CREEK, NV, 89815",154555362,"R"
137751,"250 CREEKSIDE OVLK","HIRAM","GA",30141,33.8313130220001,-84.815748734,251,"250 CREEKSIDE OVLK, HIRAM, GA, 30141","Match","Exact","250 CREEKSIDE OVERLOOK, HIRAM, GA, 30141",618945548,"R"
137752,"250 CUMBERLAND STREET SUITE 243","ROCHESTER","NY",14605,43.161442197,-77.605730896,252,"250 CUMBERLAND STREET SUITE 243, ROCHESTER, NY, 14605","Match","Exact","250 CUMBERLAND ST, ROCHESTER, NY, 14605",14538357,"L"
137753,"250 DEWEY STREET","WEST SPRINGFIELD","MA",1089,42.1153275360001,-72.6787074059999,253,"250 DEWEY STREET, WEST SPRINGFIELD, MA, 1089","Match","Exact","250 DEWEY ST, W SPRINGFIELD, MA, 01089",640100171,"R"
137754,"250 DIVISION AVE NE","WASHINGTON","DC",20019,38.893550202,-76.9273856039999,254,"250 DIVISION AVE NE, WASHINGTON, DC, 20019","Match","Exact","250 DIVISION AVE NE, WASHINGTON, DC, 20019",76234037,"L"
137755,"250 DOE RUN","PURLEAR","NC",28665,36.2049255270001,-81.374261212,255,"250 DOE RUN, PURLEAR, NC, 28665","Match","Exact","250 DOE RUN, PURLEAR, NC, 28665",647182817,"R"
137756,"250 DOYLE AVENUE","PROVIDENCE","RI",2906,41.838755405,-71.397319725,256,"250 DOYLE AVENUE, PROVIDENCE, RI, 2906","Match","Exact","250 DOYLE AVE, PROVIDENCE, RI, 02906",47465145,"L"
137757,"250 DUPUY ROAD","PLAUCHEVILLE","LA",71362,30.8846595150001,-91.94192327,257,"250 DUPUY ROAD, PLAUCHEVILLE, LA, 71362","Match","Exact","250 DUPUY RD, PLAUCHEVILLE, LA, 71362",636248574,"L"
137758,"250 DUTTON AVE","SAN LEANDRO","CA",94577,37.732423211,-122.156493725,258,"250 DUTTON AVE, SAN LEANDRO, CA, 94577","Match","Exact","250 DUTTON AVE, SAN LEANDRO, CA, 94577",125012021,"L"
137759,"250 E 1ST STREET ROOM 201","LOS ANGELES","CA",90012,NA,NA,259,"250 E 1ST STREET ROOM 201, LOS ANGELES, CA, 90012","Tie",NA,NA,NA,NA
137760,"250 E 40TH STREET 16F","NEW YORK CITY","NY",10016,40.74889332,-73.973988801,260,"250 E 40TH STREET 16F, NEW YORK CITY, NY, 10016","Match","Non_Exact","250 E 40TH ST, NEW YORK, NY, 10016",59654462,"R"
137761,"250 E COLONIAL DRIVE SUITE 102","ORLANDO","FL",32801,28.553128615,-81.37442923,261,"250 E COLONIAL DRIVE SUITE 102, ORLANDO, FL, 32801","Match","Non_Exact","250 E COLONIAL DR, ORLANDO, FL, 32801",94281915,"R"
137762,"250 E GERMAN RD","GILBERT","AZ",85297,NA,NA,262,"250 E GERMAN RD, GILBERT, AZ, 85297","No_Match",NA,NA,NA,NA
137763,"250 E GERMANN RD","GILBERT","AZ",85297,NA,NA,263,"250 E GERMANN RD, GILBERT, AZ, 85297","No_Match",NA,NA,NA,NA
137764,"250 E HACKETT RD","MODESTO","CA",95358,37.5876518170001,-120.991786258,264,"250 E HACKETT RD, MODESTO, CA, 95358","Match","Exact","250 E HACKETT RD, MODESTO, CA, 95358",638026651,"R"
137765,"250 E HARBORTOWN UNIT 803","DETROIT","MI",48207,NA,NA,265,"250 E HARBORTOWN UNIT 803, DETROIT, MI, 48207","No_Match",NA,NA,NA,NA
137766,"250 E MAIN STREET","SOMERTON","AZ",85350,32.5966470610001,-114.707975626,266,"250 E MAIN STREET, SOMERTON, AZ, 85350","Match","Exact","250 MAIN ST, SOMERTON, AZ, 85350",129638452,"R"
137767,"250 E PALM DRIVE STE 470","FLORIDA CITY","FL",33034,25.447818102,-80.480129097,267,"250 E PALM DRIVE STE 470, FLORIDA CITY, FL, 33034","Match","Non_Exact","250 W PALM DR, FLORIDA CITY, FL, 33034",115992384,"R"
137768,"250 E WISCONSIN AVE STE 910","MILWAUKEE","WI",53202,43.038615414,-87.908446925,268,"250 E WISCONSIN AVE STE 910, MILWAUKEE, WI, 53202","Match","Non_Exact","250 E WISCONSIN AVE, MILWAUKEE, WI, 53202",77744630,"L"
137769,"250 E WISCONSIN AVENUE SUITE 725","MILWAUKEE","WI",53202,43.038615414,-87.908446925,269,"250 E WISCONSIN AVENUE SUITE 725, MILWAUKEE, WI, 53202","Match","Non_Exact","250 E WISCONSIN AVE, MILWAUKEE, WI, 53202",77744630,"L"
137770,"250 E WOOD ST","PALATINE","IL",60067,42.1130491500001,-88.037600787,270,"250 E WOOD ST, PALATINE, IL, 60067","Match","Exact","250 E WOOD ST, PALATINE, IL, 60067",111696420,"L"
137771,"250 E WOOD STREET","PALATINE","IL",60067,42.1130491500001,-88.037600787,271,"250 E WOOD STREET, PALATINE, IL, 60067","Match","Exact","250 E WOOD ST, PALATINE, IL, 60067",111696420,"L"
137772,"250 EAGLE ROCK ROAD","ELKTON","VA",22827,NA,NA,272,"250 EAGLE ROCK ROAD, ELKTON, VA, 22827","No_Match",NA,NA,NA,NA
137773,"250 EAST 2ND  AVENUE NUMBER 205","HIALEAH","FL",33010,25.824154204,-80.277356175,273,"250 EAST 2ND  AVENUE NUMBER 205, HIALEAH, FL, 33010","Match","Exact","250 E 2ND AVE, HIALEAH, FL, 33010",115999722,"L"
137774,"250 EAST BOULEVARD P O BOX 13299","FLINT","MI",48532,NA,NA,274,"250 EAST BOULEVARD P O BOX 13299, FLINT, MI, 48532","No_Match",NA,NA,NA,NA
137775,"250 EAST FIFTH STREET 15 FLOOR","CINCINNATTI","OH",45202,39.10177199,-84.5089421819999,275,"250 EAST FIFTH STREET 15 FLOOR, CINCINNATTI, OH, 45202","Match","Non_Exact","250 E 5TH ST, CINCINNATI, OH, 45202",640627485,"L"
137776,"250 EAST PALM DRIVE SUITE 365 33034","FLORIDA CITY","FL",33034,25.4478181740001,-80.480117863,276,"250 EAST PALM DRIVE SUITE 365 33034, FLORIDA CITY, FL, 33034","Match","Non_Exact","250 W PALM DR, FLORIDA CITY, FL, 33034",115992384,"R"
137777,"250 EAST PONCE DE LEON AVE STE 301","DECATUR","GA",30030,33.7755976340001,-84.293739316,277,"250 EAST PONCE DE LEON AVE STE 301, DECATUR, GA, 30030","Match","Exact","250 E PONCE DE LEON AVE, DECATUR, GA, 30030",23367161,"L"
137778,"250 ED ENGLISH DRIVE BLD 3 UNIT C","SHENANDOAH","TX",77385,NA,NA,278,"250 ED ENGLISH DRIVE BLD 3 UNIT C, SHENANDOAH, TX, 77385","No_Match",NA,NA,NA,NA
137779,"250 EDGEWOOD DR","FILLMORE","CA",93015,NA,NA,279,"250 EDGEWOOD DR, FILLMORE, CA, 93015","No_Match",NA,NA,NA,NA
137780,"250 ELIZABETH LAKE ROAD  STE 1000W","PONTIAC","MI",48341,42.6407335640001,-83.3187424769999,280,"250 ELIZABETH LAKE ROAD  STE 1000W, PONTIAC, MI, 48341","Match","Exact","250 ELIZABETH LAKE RD, PONTIAC, MI, 48341",626927821,"R"
137781,"250 ELKINS LN","VIENNA","IL",62995,37.451325997,-88.955520061,281,"250 ELKINS LN, VIENNA, IL, 62995","Match","Exact","250 ELKINS LN, VIENNA, IL, 62995",5690909,"R"
137782,"250 ENTERPRISE ROAD","DELTONA","FL",32725,28.876761747,-81.2723419559999,282,"250 ENTERPRISE ROAD, DELTONA, FL, 32725","Match","Exact","250 ENTERPRISE RD, DELTONA, FL, 32725",94556794,"L"
137783,"250 FALLON PARKWAY","OFALLON","MO",63368,38.765336188,-90.697038183,283,"250 FALLON PARKWAY, OFALLON, MO, 63368","Match","Non_Exact","250 FALLON PKWY, O FALLON, MO, 63368",647280997,"L"
137784,"250 FORT LEE ROAD APT B","TEANECK","NJ",7666,40.871249463,-74.0162418909999,284,"250 FORT LEE ROAD APT B, TEANECK, NJ, 7666","Match","Exact","250 FORT LEE RD, TEANECK, NJ, 07666",64397743,"L"
137785,"250 FOUNDRY STREET","EASTON","MA",2375,42.010575927,-71.0800427949999,285,"250 FOUNDRY STREET, EASTON, MA, 2375","Match","Non_Exact","250 FOUNDRY ST, SOUTH EASTON, MA, 02375",647354863,"L"
137786,"250 FRENCHYS CV APT 39","CAMARILLO","CA",93012,34.163909888,-119.034957362,286,"250 FRENCHYS CV APT 39, CAMARILLO, CA, 93012","Match","Exact","250 FRENCHYS COVE, CAMARILLO, CA, 93012",110090975,"R"
137787,"250 FT WASHINGTON AVE APT 6C","NEW YORK","NY",10032,NA,NA,287,"250 FT WASHINGTON AVE APT 6C, NEW YORK, NY, 10032","No_Match",NA,NA,NA,NA
137788,"250 GALEN DRIVE","KEY BISCAYNE","FL",33149,25.6910452700001,-80.1610984609999,288,"250 GALEN DRIVE, KEY BISCAYNE, FL, 33149","Match","Exact","250 GALEN DR, KEY BISCAYNE, FL, 33149",647824565,"R"
137789,"250 GARRISON LAKE BLVD","SMYRNA","DE",19977,39.248495962,-75.60587921,289,"250 GARRISON LAKE BLVD, SMYRNA, DE, 19977","Match","Non_Exact","250 GARRISONS LAKE BLVD, SMYRNA, DE, 19977",601698478,"R"
137790,"250 GEORGIA AVE EAST NUM 142913","FAYETTEVILLE","GA",30214,33.453807419,-84.451299445,290,"250 GEORGIA AVE EAST NUM 142913, FAYETTEVILLE, GA, 30214","Match","Exact","250 GEORGIA AVE E, FAYETTEVILLE, GA, 30214",75930593,"L"
137791,"250 GEORGIA AVENUE  SUITE 208","ATLANTA","GA",30312,33.7367405750001,-84.3795020589999,291,"250 GEORGIA AVENUE  SUITE 208, ATLANTA, GA, 30312","Match","Exact","250 GEORGIA AVE, ATLANTA, GA, 30312",17346475,"L"
137792,"250 GEORGIA AVENUE EAST - 952","FAYETTEVILLE","GA",30214,33.453807419,-84.451299445,292,"250 GEORGIA AVENUE EAST - 952, FAYETTEVILLE, GA, 30214","Match","Exact","250 GEORGIA AVE E, FAYETTEVILLE, GA, 30214",75930593,"L"
137793,"250 GLENKIRK LN","LEXINGTON","SC",29072,34.0414096650001,-81.184704809,293,"250 GLENKIRK LN, LEXINGTON, SC, 29072","Match","Exact","250 GLENKIRK LN, LEXINGTON, SC, 29072",70049651,"R"
137794,"250 GODWIN AVENUE","MIDLAND PARK","NJ",7432,NA,NA,294,"250 GODWIN AVENUE, MIDLAND PARK, NJ, 7432","No_Match",NA,NA,NA,NA
137795,"250 GORGE ROAD SUITE 21 L","CLIFFSIDE PARK","NJ",7010,40.8124586230001,-73.9903829849999,295,"250 GORGE ROAD SUITE 21 L, CLIFFSIDE PARK, NJ, 7010","Match","Exact","250 GORGE RD, CLIFFSIDE PARK, NJ, 07010",64391619,"R"
137796,"250 GRAYSON HWY SUITE E","LAWRENCEVILLE","GA",30046,33.9462607470001,-83.985522418,296,"250 GRAYSON HWY SUITE E, LAWRENCEVILLE, GA, 30046","Match","Exact","250 GRAYSON HWY, LAWRENCEVILLE, GA, 30046",638063579,"L"
137797,"250 GREEN HILLS DRIVE","MILLBRAE","CA",94030,37.605891195,-122.401589489,297,"250 GREEN HILLS DRIVE, MILLBRAE, CA, 94030","Match","Exact","250 GREEN HILLS DR, MILLBRAE, CA, 94030",604860918,"R"
137798,"250 GREENE AVENUE APT1B","BROOKLYN","NY",11238,40.687257754,-73.9610476289999,298,"250 GREENE AVENUE APT1B, BROOKLYN, NY, 11238","Match","Exact","250 GREENE AVE, BROOKLYN, NY, 11238",59078034,"R"
137799,"250 HALL AVE","HUBBARD","OH",44425,41.1530152810001,-80.581282662,299,"250 HALL AVE, HUBBARD, OH, 44425","Match","Non_Exact","250 HALL AVE SE, HUBBARD, OH, 44425",117399903,"R"
137800,"250 HALL BLVD STE 310","SAN ANTONIO","TX",78243,NA,NA,300,"250 HALL BLVD STE 310, SAN ANTONIO, TX, 78243","No_Match",NA,NA,NA,NA
137801,"250 HANBURG LANE","BOLINGBROOK","IL",60440,41.6916684170001,-88.111587387,301,"250 HANBURG LANE, BOLINGBROOK, IL, 60440","Match","Exact","250 HANBURG LN, BOLINGBROOK, IL, 60440",111631482,"L"
137802,"250 HARRISON AVENUE APT 3F","MINEOLA","NY",11501,40.7426702720001,-73.6425091579999,302,"250 HARRISON AVENUE APT 3F, MINEOLA, NY, 11501","Match","Exact","250 HARRISON AVE, MINEOLA, NY, 11501",147672768,"R"
137803,"250 HAWTHORNE ST 3A","BROOKLYN","NY",11225,40.6577378870001,-73.95191256,303,"250 HAWTHORNE ST 3A, BROOKLYN, NY, 11225","Match","Exact","250 HAWTHORNE ST, BROOKLYN, NY, 11225",59079608,"R"
137804,"250 HAWTHORNE STREET APT 2F","BROOKLYN","NY",11225,40.6577378870001,-73.95191256,304,"250 HAWTHORNE STREET APT 2F, BROOKLYN, NY, 11225","Match","Exact","250 HAWTHORNE ST, BROOKLYN, NY, 11225",59079608,"R"
137805,"250 HE MCCRACKEN CIRCLE","BLUFFTON","SC",29910,32.245403294,-80.900202421,305,"250 HE MCCRACKEN CIRCLE, BLUFFTON, SC, 29910","Match","Non_Exact","250 H E MCCRACKEN CIR, BLUFFTON, SC, 29910",87656029,"R"
137806,"250 HIDDEN SPRINGS CIR","KISSIMMEE","FL",34743,28.341957289,-81.3536678789999,306,"250 HIDDEN SPRINGS CIR, KISSIMMEE, FL, 34743","Match","Exact","250 HIDDEN SPRINGS CIR, KISSIMMEE, FL, 34743",176678171,"L"
137807,"250 HIGH STREET","ORANGE","NJ",7050,40.77972457,-74.228721381,307,"250 HIGH STREET, ORANGE, NJ, 7050","Match","Exact","250 HIGH ST, ORANGE, NJ, 07050",63450043,"R"
137808,"250 HILL STREET UNIT D","SOLANA BEACH","CA",92075,32.9940361820001,-117.274024245,308,"250 HILL STREET UNIT D, SOLANA BEACH, CA, 92075","Match","Exact","250 HILL ST, SOLANA BEACH, CA, 92075",195294139,"R"
137809,"250 HILLSIDE","MILL VALLEY","CA",94941,37.908932049,-122.544348299,309,"250 HILLSIDE, MILL VALLEY, CA, 94941","Match","Non_Exact","250 HILLSIDE AVE, MILL VALLEY, CA, 94941",192766341,"R"
137810,"250 HOPE STREET","MANSFIELD","MA",2048,42.033186421,-71.2105529,310,"250 HOPE STREET, MANSFIELD, MA, 2048","Match","Exact","250 HOPE ST, MANSFIELD, MA, 02048",46765175,"L"
137811,"250 INDEPENDENCE STATION ROAD","INDEPENDENCE","KY",41051,38.9560311880001,-84.556507977,311,"250 INDEPENDENCE STATION ROAD, INDEPENDENCE, KY, 41051","Match","Exact","250 INDEPENDENCE STATION RD, INDEPENDENCE, KY, 41051",635655863,"R"
137812,"250 INVERNESS CENTER DRIVE","HOOVER","AL",35242,33.4161696800001,-86.702714274,312,"250 INVERNESS CENTER DRIVE, HOOVER, AL, 35242","Match","Exact","250 INVERNESS CENTER DR, HOOVER, AL, 35242",221524107,"R"
137813,"250 JORALEMON STREET","NEW YORK","NY",11210,NA,NA,313,"250 JORALEMON STREET, NEW YORK, NY, 11210","No_Match",NA,NA,NA,NA
137814,"250 KING STREET UNIT 1418","SAN FRANCISCO","CA",94107,37.7772887090001,-122.393044538,314,"250 KING STREET UNIT 1418, SAN FRANCISCO, CA, 94107","Match","Exact","250 KING ST, SAN FRANCISCO, CA, 94107",192289503,"R"
137815,"250 KINGS LN","CANFIELD","OH",44406,41.0178866900001,-80.751732582,315,"250 KINGS LN, CANFIELD, OH, 44406","Match","Exact","250 KINGS LN, CANFIELD, OH, 44406",64607899,"L"
137816,"250 KINVARA DR","PITTSBURGH","PA",15237,40.5412756150001,-80.000017913,316,"250 KINVARA DR, PITTSBURGH, PA, 15237","Match","Exact","250 KINVARA DR, PITTSBURGH, PA, 15237",51707408,"R"
137817,"250 LAGUNA HONDA BLVD","SAN FRANCISCO","CA",94116,37.7500981220001,-122.460747734,317,"250 LAGUNA HONDA BLVD, SAN FRANCISCO, CA, 94116","Match","Exact","250 LAGUNA HONDA BLVD, SAN FRANCISCO, CA, 94116",192299967,"R"
137818,"250 LAKE BLVD 226","BUFFALO GROVE","IL",60069,42.1365778590001,-87.956156538,318,"250 LAKE BLVD 226, BUFFALO GROVE, IL, 60069","Match","Non_Exact","250 LAKE BLVD, BUFFALO GROVE, IL, 60089",605606904,"R"
137819,"250 LAKE HILL RD","BURNT HILLS","NY",12027,42.9093444550001,-73.920849577,319,"250 LAKE HILL RD, BURNT HILLS, NY, 12027","Match","Exact","250 LAKE HILL RD, BURNT HILLS, NY, 12027",611724164,"R"
137820,"250 LAKEVIEW ROAD","EAST GALESBURG","IL",61430,40.95137677,-90.314710288,320,"250 LAKEVIEW ROAD, EAST GALESBURG, IL, 61430","Match","Exact","250 LAKEVIEW RD, E GALESBURG, IL, 61430",636912579,"R"
137821,"250 LANGE STREET","LAKEPORT","CA",95453,39.0592693670001,-122.915527771,321,"250 LANGE STREET, LAKEPORT, CA, 95453","Match","Exact","250 LANGE ST, LAKEPORT, CA, 95453",67030228,"L"
137822,"250 LANGLEY DR SUITE 1314","LAWRENCEVILLE","GA",30046,33.9567252100001,-83.997847399,322,"250 LANGLEY DR SUITE 1314, LAWRENCEVILLE, GA, 30046","Match","Exact","250 LANGLEY DR, LAWRENCEVILLE, GA, 30046",88888933,"R"
137823,"250 LENOX LN","MUNDELEIN","IL",60060,42.267573462,-87.9885144149999,323,"250 LENOX LN, MUNDELEIN, IL, 60060","Match","Exact","250 LENOX LN, MUNDELEIN, IL, 60060",119692552,"R"
137824,"250 LINCOLN AVENUE","LOCKPORT","NY",14094,43.1539241730001,-78.685326588,324,"250 LINCOLN AVENUE, LOCKPORT, NY, 14094","Match","Exact","250 LINCOLN AVE, LOCKPORT, NY, 14094",48692054,"R"
137825,"250 LINCOLN RD","BROOKLYN","NY",11225,40.66132566,-73.954554129,325,"250 LINCOLN RD, BROOKLYN, NY, 11225","Match","Exact","250 LINCOLN RD, BROOKLYN, NY, 11225",59079506,"R"
137826,"250 LINCOLN STREET","POWNAL","VT",5261,42.770915808,-73.243042261,326,"250 LINCOLN STREET, POWNAL, VT, 5261","Match","Exact","250 LINCOLN ST, POWNAL, VT, 05261",651241648,"R"
137827,"250 LIONS HEAD BLVD","BRICK","NJ",8723,40.0280135950001,-74.1527599,327,"250 LIONS HEAD BLVD, BRICK, NJ, 8723","Match","Non_Exact","250 LIONS HEAD BLVD S, BRICK, NJ, 08723",203843117,"L"
137828,"250 LOOPER LN","SMITHVILLE","TN",37166,NA,NA,328,"250 LOOPER LN, SMITHVILLE, TN, 37166","No_Match",NA,NA,NA,NA
137829,"250 LOTT AVENUE APT 3B","BROOKLYN","NY",11212,40.658464499,-73.9041887499999,329,"250 LOTT AVENUE APT 3B, BROOKLYN, NY, 11212","Match","Exact","250 LOTT AVE, BROOKLYN, NY, 11212",59084807,"R"
137830,"250 MACARTHUR BLVD","SAN LEANDRO","CA",94577,NA,NA,330,"250 MACARTHUR BLVD, SAN LEANDRO, CA, 94577","No_Match",NA,NA,NA,NA
137831,"250 MADRONA WAY NE STE 220","BAINBRIDGE ISLAND","WA",98110,47.6278294350001,-122.520099782,331,"250 MADRONA WAY NE STE 220, BAINBRIDGE ISLAND, WA, 98110","Match","Exact","250 MADRONA WAY NE, BAINBRIDGE ISLAND, WA, 98110",187679188,"L"
137832,"250 MAIN STREET 425122","CAMBRIDGE","MA",2142,42.362330764,-71.0848724809999,332,"250 MAIN STREET 425122, CAMBRIDGE, MA, 2142","Match","Exact","250 MAIN ST, CAMBRIDGE, MA, 02142",640697376,"L"
137833,"250 MAIN STREET SUITE 590","LAFAYETTE","IN",47901,40.4191248990001,-86.894601144,333,"250 MAIN STREET SUITE 590, LAFAYETTE, IN, 47901","Match","Exact","250 MAIN ST, LAFAYETTE, IN, 47901",27306012,"L"
137834,"250 MAIN STREET UNIT 353","BEN LOMOND","CA",95005,37.0914071180001,-122.089700253,334,"250 MAIN STREET UNIT 353, BEN LOMOND, CA, 95005","Match","Exact","250 MAIN ST, BEN LOMOND, CA, 95005",125502279,"R"
137835,"250 MANNING DR","WOODVILLE","AL",35776,34.786935364,-86.1295957729999,335,"250 MANNING DR, WOODVILLE, AL, 35776","Match","Exact","250 MANNING DR, WOODVILLE, AL, 35776",58022540,"R"
137836,"250 MARINER PASSAGE","OXON HILL","MD",20745,NA,NA,336,"250 MARINER PASSAGE, OXON HILL, MD, 20745","No_Match",NA,NA,NA,NA
137837,"250 MARQUETTE AVE SOUTH SUITE 800","MINNEAPOLIS","MN",55401,44.980683028,-93.267262626,337,"250 MARQUETTE AVE SOUTH SUITE 800, MINNEAPOLIS, MN, 55401","Match","Exact","250 MARQUETTE AVE S, MINNEAPOLIS, MN, 55401",645553383,"R"
137838,"250 MARTHAS CT","MT WASHINGTON","KY",40047,38.020064039,-85.605446426,338,"250 MARTHAS CT, MT WASHINGTON, KY, 40047","Match","Non_Exact","250 MARTHA'S CT, MOUNT WASHINGTON, KY, 40047",635272253,"L"
137839,"250 MERCER ST APT B1206","NEW YORK","NY",10012,40.7283460100001,-73.995453949,339,"250 MERCER ST APT B1206, NEW YORK, NY, 10012","Match","Exact","250 MERCER ST, NEW YORK, NY, 10012",59653863,"R"
137840,"250 MERRICK ROAD UNIT 1012","ROCKVILLE CENTRE","NY",11571,40.6563910450001,-73.6469448409999,340,"250 MERRICK ROAD UNIT 1012, ROCKVILLE CENTRE, NY, 11571","Match","Non_Exact","250 MERRICK RD, ROCKVILLE CTR, NY, 11570",147676499,"R"
137841,"250 MERRICK ROAD UNIT 569","ROCKVILLE CENTRE","NY",11570,40.6563910450001,-73.6469448409999,341,"250 MERRICK ROAD UNIT 569, ROCKVILLE CENTRE, NY, 11570","Match","Exact","250 MERRICK RD, ROCKVILLE CENTRE, NY, 11570",147676499,"R"
137842,"250 MILLIONAIRE RD","SAINT PAULS","NC",28384,34.8519359000001,-79.067542578,342,"250 MILLIONAIRE RD, SAINT PAULS, NC, 28384","Match","Exact","250 MILLIONAIRE RD, SAINT PAULS, NC, 28384",49162529,"R"
137843,"250 MONROE AVE NW STE 800","GRAND RAPIDS","MI",49503,42.96814877,-85.6721913919999,343,"250 MONROE AVE NW STE 800, GRAND RAPIDS, MI, 49503","Match","Exact","250 MONROE AVE NW, GRAND RAPIDS, MI, 49503",647621854,"R"
137844,"250 MONROE AVENUE","GREEN RIVER","WY",82935,41.5107183640001,-109.469896791,344,"250 MONROE AVENUE, GREEN RIVER, WY, 82935","Match","Exact","250 MONROE AVE, GREEN RIVER, WY, 82935",149514417,"L"
137845,"250 N 400 W","BRIGHAM CITY","UT",84302,41.515965721,-112.02198073,345,"250 N 400 W, BRIGHAM CITY, UT, 84302","Match","Exact","250 N 400 W, BRIGHAM CITY, UT, 84302",153904664,"L"
137846,"250 N 5TH AVE","BEECH GROVE","IN",46107,39.7262479170001,-86.087423249,346,"250 N 5TH AVE, BEECH GROVE, IN, 46107","Match","Exact","250 N 5TH AVE, BEECH GROVE, IN, 46107",108009276,"L"
137847,"250 N CAMPBELL STREET","IRON MOUNTAIN","MI",49801,45.804512345,-88.059021324,347,"250 N CAMPBELL STREET, IRON MOUNTAIN, MI, 49801","Match","Non_Exact","250 CAMPBELL ST, IRON MOUNTAIN, MI, 49802",170159282,"R"
137848,"250 N GOODMAN ST 201","ROCHESTER","NY",14607,NA,NA,348,"250 N GOODMAN ST 201, ROCHESTER, NY, 14607","Tie",NA,NA,NA,NA
137849,"250 N HALE STREET","PALATINE","IL",60067,42.1153664880001,-88.042545702,349,"250 N HALE STREET, PALATINE, IL, 60067","Match","Exact","250 N HALE ST, PALATINE, IL, 60067",111695804,"L"
137850,"250 N NEW YORK AVENUE STE 121","ATLANTIC CITY","NJ",8401,NA,NA,350,"250 N NEW YORK AVENUE STE 121, ATLANTIC CITY, NJ, 8401","Tie",NA,NA,NA,NA
137851,"250 N ROBERTSON BLVD STE 106","BEVERLY HILLS","CA",90211,NA,NA,351,"250 N ROBERTSON BLVD STE 106, BEVERLY HILLS, CA, 90211","Tie",NA,NA,NA,NA
137852,"250 N ROBERTSON BLVD SUITE 511","BEVERLY HILLS","CA",90211,NA,NA,352,"250 N ROBERTSON BLVD SUITE 511, BEVERLY HILLS, CA, 90211","Tie",NA,NA,NA,NA
137853,"250 N SENATE STREET","CHANDLER","AZ",85225,33.3091885330001,-111.820471357,353,"250 N SENATE STREET, CHANDLER, AZ, 85225","Match","Exact","250 N SENATE ST, CHANDLER, AZ, 85225",128368985,"L"
137854,"250 N STATE HIGHWAY 360 APT 4304","MANSFIELD","TX",76063,NA,NA,354,"250 N STATE HIGHWAY 360 APT 4304, MANSFIELD, TX, 76063","No_Match",NA,NA,NA,NA
137855,"250 N TRADE ST SUITE 205","MATTHEWS","NC",28105,NA,NA,355,"250 N TRADE ST SUITE 205, MATTHEWS, NC, 28105","Tie",NA,NA,NA,NA
137856,"250 NAT TURNER BLVD","NEWPORT NEWS","VA",23606,37.0868364070001,-76.488511569,356,"250 NAT TURNER BLVD, NEWPORT NEWS, VA, 23606","Match","Exact","250 NAT TURNER BLVD, NEWPORT NEWS, VA, 23606",643032482,"R"
137857,"250 NE HILLWOOD DR","HILLSBORO","OR",97124,45.5241409120001,-122.966780478,357,"250 NE HILLWOOD DR, HILLSBORO, OR, 97124","Match","Exact","250 NE HILLWOOD DR, HILLSBORO, OR, 97124",158210475,"L"
137858,"250 NEELY STORE RD","ROCK HILL","SC",29730,34.8939196970001,-80.952473842,358,"250 NEELY STORE RD, ROCK HILL, SC, 29730","Match","Exact","250 NEELY STORE RD, ROCK HILL, SC, 29730",640907101,"R"
137859,"250 NORTH 200 WEST STE 105","SALT LAKE CITY","UT",84103,NA,NA,359,"250 NORTH 200 WEST STE 105, SALT LAKE CITY, UT, 84103","No_Match",NA,NA,NA,NA
137860,"250 NORTH EAST 58 ST","MIAMI","FL",33162,NA,NA,360,"250 NORTH EAST 58 ST, MIAMI, FL, 33162","No_Match",NA,NA,NA,NA
137861,"250 NORTH PONDEROSA TRAIL","BOULDER","UT",84716,37.9034159550001,-111.404500884,361,"250 NORTH PONDEROSA TRAIL, BOULDER, UT, 84716","Match","Exact","250 N PONDEROSA TRL, BOULDER, UT, 84716",640888147,"R"
137862,"250 NORTH ROAD","CHELMSFORD","MA",1824,42.6174808760001,-71.364693426,362,"250 NORTH ROAD, CHELMSFORD, MA, 1824","Match","Exact","250 NORTH RD, CHELMSFORD, MA, 01824",87112597,"L"
137863,"250 NORTH ROBERTSON BLVD SUITE 106","BEVERLY HILLS","CA",90211,34.069460146,-118.383716797,363,"250 NORTH ROBERTSON BLVD SUITE 106, BEVERLY HILLS, CA, 90211","Match","Exact","250 N ROBERTSON BLVD, BEVERLY HILLS, CA, 90211",141572830,"R"
137864,"250 NORTH ROCK ROAD SUITE 300H","WICHITA","KS",67206,NA,NA,364,"250 NORTH ROCK ROAD SUITE 300H, WICHITA, KS, 67206","No_Match",NA,NA,NA,NA
137865,"250 NORTH ROCK ROAD SUITE 300J","WICHITA","KS",67206,NA,NA,365,"250 NORTH ROCK ROAD SUITE 300J, WICHITA, KS, 67206","No_Match",NA,NA,NA,NA
137866,"250 NUTLEY ST NW","VIENNA","VA",22180,38.896219559,-77.2756048429999,366,"250 NUTLEY ST NW, VIENNA, VA, 22180","Match","Exact","250 NUTLEY ST NW, VIENNA, VA, 22180",618600441,"L"
137867,"250 NW 140TH ST","MIAMI","FL",33168,25.902837398,-80.2042760369999,367,"250 NW 140TH ST, MIAMI, FL, 33168","Match","Exact","250 NW 140TH ST, MIAMI, FL, 33168",116252810,"L"
137868,"250 NW 182ND TERRACR","MIAMI","FL",33169,NA,NA,368,"250 NW 182ND TERRACR, MIAMI, FL, 33169","No_Match",NA,NA,NA,NA
137869,"250 NW 23RD ST UNIT 208","MIAMI","FL",33127,25.799464033,-80.199937625,369,"250 NW 23RD ST UNIT 208, MIAMI, FL, 33127","Match","Non_Exact","250 NW 23RD ST, MIAMI, FL, 33127",116017280,"L"
137870,"250 NW 23RD ST","MIAMI","FL",33127,25.799464033,-80.199937625,370,"250 NW 23RD ST, MIAMI, FL, 33127","Match","Exact","250 NW 23RD ST, MIAMI, FL, 33127",116017280,"L"
137871,"250 NW 33RD TERRACE SUITE 201","POMPANO BEACH","FL",33069,NA,NA,371,"250 NW 33RD TERRACE SUITE 201, POMPANO BEACH, FL, 33069","No_Match",NA,NA,NA,NA
137872,"250 OAKMONT DRIVE","NEW ORLEANS","LA",70128,30.041435934,-89.94440624,372,"250 OAKMONT DRIVE, NEW ORLEANS, LA, 70128","Match","Exact","250 OAKMONT DR, NEW ORLEANS, LA, 70128",191730611,"L"
137873,"250 PALM COAST PARKWAY NE 607-223","PALM COAST","FL",32137,29.559341854,-81.2016841989999,373,"250 PALM COAST PARKWAY NE 607-223, PALM COAST, FL, 32137","Match","Exact","250 PALM COAST PKWY NE, PALM COAST, FL, 32137",649907385,"L"
137874,"250 PALM COAST PARKWAY SUITE 188","PALM COAST","FL",32137,29.559341854,-81.2016841989999,374,"250 PALM COAST PARKWAY SUITE 188, PALM COAST, FL, 32137","Match","Non_Exact","250 PALM COAST PKWY NE, PALM COAST, FL, 32137",649907385,"L"
137875,"250 PALM COAST PKWY NE STE 607-104","PALM COAST","FL",32137,29.559341854,-81.2016841989999,375,"250 PALM COAST PKWY NE STE 607-104, PALM COAST, FL, 32137","Match","Exact","250 PALM COAST PKWY NE, PALM COAST, FL, 32137",649907385,"L"
137876,"250 PALM COAST PKWY NE STE 607-116","PALM COAST","FL",32137,29.559341854,-81.2016841989999,376,"250 PALM COAST PKWY NE STE 607-116, PALM COAST, FL, 32137","Match","Exact","250 PALM COAST PKWY NE, PALM COAST, FL, 32137",649907385,"L"
137877,"250 PARK AVE 7TH FLOOR","NEW YORK","NY",10177,40.755024985,-73.975562509,377,"250 PARK AVE 7TH FLOOR, NEW YORK, NY, 10177","Match","Exact","250 PARK AVE, NEW YORK, NY, 10177",59658677,"L"
137878,"250 PARKWAY DR SUITE 150","LINCOLNSHIRE","IL",60069,42.178774257,-87.9275029139999,378,"250 PARKWAY DR SUITE 150, LINCOLNSHIRE, IL, 60069","Match","Exact","250 PARKWAY DR, LINCOLNSHIRE, IL, 60069",119756960,"R"
137879,"250 PASTO RICO","RCHO STA MARG","CA",92688,33.621452409,-117.613753711,379,"250 PASTO RICO, RCHO STA MARG, CA, 92688","Match","Exact","250 PASTO RICO, RCHO STA MARG, CA, 92688",144420020,"R"
137880,"250 PEHLE AVENUE SUITE 200","SADDLE BROOK","NJ",7663,NA,NA,380,"250 PEHLE AVENUE SUITE 200, SADDLE BROOK, NJ, 7663","No_Match",NA,NA,NA,NA
137881,"250 PELTON AVENUE","STATEN ISLAND","NY",10310,40.6367716030001,-74.11062335,381,"250 PELTON AVENUE, STATEN ISLAND, NY, 10310","Match","Exact","250 PELTON AVE, STATEN ISLAND, NY, 10310",59878272,"R"
137882,"250 PETRUS CIRCLE","WEST MONROE","LA",71291,32.5376107540001,-92.229687099,382,"250 PETRUS CIRCLE, WEST MONROE, LA, 71291","Match","Exact","250 PETRUS CIR, WEST MONROE, LA, 71291",616288186,"R"
137883,"250 PHARR RD NE APT 2008","ATLANTA","GA",30305,33.8370679880001,-84.379141564,383,"250 PHARR RD NE APT 2008, ATLANTA, GA, 30305","Match","Exact","250 PHARR RD NE, ATLANTA, GA, 30305",17335417,"L"
137884,"250 PIEDMONT AVE NE UNIT 1210","ATLANTA","GA",30308,33.7611451080001,-84.382145512,384,"250 PIEDMONT AVE NE UNIT 1210, ATLANTA, GA, 30308","Match","Exact","250 PIEDMONT AVE NE, ATLANTA, GA, 30308",17414498,"L"
137885,"250 PIEDMONT AVENUE NE UNIT 1814","ATLANTA","GA",30308,33.7611451080001,-84.382145512,385,"250 PIEDMONT AVENUE NE UNIT 1814, ATLANTA, GA, 30308","Match","Exact","250 PIEDMONT AVE NE, ATLANTA, GA, 30308",17414498,"L"
137886,"250 PILOT ROAD - SUITE 300","LAS VEGAS","NV",89119,36.0697209030001,-115.160531715,386,"250 PILOT ROAD - SUITE 300, LAS VEGAS, NV, 89119","Match","Exact","250 PILOT RD, LAS VEGAS, NV, 89119",202004263,"L"
137887,"250 PINE AVE N  SUITE A","OLDSMAR","FL",34677,28.0444630580001,-82.6710341099999,387,"250 PINE AVE N  SUITE A, OLDSMAR, FL, 34677","Match","Exact","250 PINE AVE N, OLDSMAR, FL, 34677",624422892,"L"
137888,"250 PINE ST","VILLA PARK","IL",60181,41.894893703,-87.972406753,388,"250 PINE ST, VILLA PARK, IL, 60181","Match","Exact","250 PINE ST, VILLA PARK, IL, 60181",112543196,"L"
137889,"250 PRESIDENT STREET UNIT 1107","BALTIMORE","MD",21202,39.2860962130001,-76.603598597,389,"250 PRESIDENT STREET UNIT 1107, BALTIMORE, MD, 21202","Match","Exact","250 PRESIDENT ST, BALTIMORE, MD, 21202",206421509,"R"
137890,"250 RAND STREET STE 431","CENTRAL FALLS","RI",2863,41.8834593070001,-71.397442871,390,"250 RAND STREET STE 431, CENTRAL FALLS, RI, 2863","Match","Exact","250 RAND ST, CENTRAL FALLS, RI, 02863",47455520,"L"
137891,"250 RAYMOND STREET","STATESBORO","GA",30458,NA,NA,391,"250 RAYMOND STREET, STATESBORO, GA, 30458","No_Match",NA,NA,NA,NA
137892,"250 REYDNERS AVE","STEELTON","PA",17113,NA,NA,392,"250 REYDNERS AVE, STEELTON, PA, 17113","No_Match",NA,NA,NA,NA
137893,"250 RICHARD MONTGOMERY DRIVE SUITE","ROCKVILLE","MD",20852,NA,NA,393,"250 RICHARD MONTGOMERY DRIVE SUITE, ROCKVILLE, MD, 20852","No_Match",NA,NA,NA,NA
137894,"250 RIDGE UNIT 4G","EVANSTON","IL",60202,42.022690233,-87.685012285,394,"250 RIDGE UNIT 4G, EVANSTON, IL, 60202","Match","Non_Exact","250 RIDGE AVE, EVANSTON, IL, 60202",111744284,"L"
137895,"250 RIVER RD RM 355 - CHORAL STE","ATHENS","GA",30602,NA,NA,395,"250 RIVER RD RM 355 - CHORAL STE, ATHENS, GA, 30602","No_Match",NA,NA,NA,NA
137896,"250 ROSWELL DRIVE","MILPITAS","CA",95035,37.432508323,-121.877168527,396,"250 ROSWELL DRIVE, MILPITAS, CA, 95035","Match","Exact","250 ROSWELL DR, MILPITAS, CA, 95035",122961088,"L"
137897,"250 ROYAL CT","DELRAY BEACH","FL",33444,26.47199791,-80.069623448,397,"250 ROYAL CT, DELRAY BEACH, FL, 33444","Match","Exact","250 ROYAL CT, DELRAY BEACH, FL, 33444",115297786,"R"
137898,"250 RUE DE BEAUVILLE","NAPOLEONVILLE","LA",70390,NA,NA,398,"250 RUE DE BEAUVILLE, NAPOLEONVILLE, LA, 70390","No_Match",NA,NA,NA,NA
137899,"250 S 20TH STREET","NEWARK","NJ",7103,40.748210955,-74.206832242,399,"250 S 20TH STREET, NEWARK, NJ, 7103","Match","Exact","250 S 20TH ST, NEWARK, NJ, 07103",63496003,"L"
137900,"250 S 9TH ST","LEHIGHTON","PA",18235,40.829628783,-75.7214730429999,400,"250 S 9TH ST, LEHIGHTON, PA, 18235","Match","Exact","250 S 9TH ST, LEHIGHTON, PA, 18235",80620240,"L"
137901,"250 S DELLWOOD AVENUE","SAINT LOUIS","MO",63135,NA,NA,401,"250 S DELLWOOD AVENUE, SAINT LOUIS, MO, 63135","Tie",NA,NA,NA,NA
137902,"250 S DONLEE DRIVE UNIT 10","SAINT GEORGE","UT",84770,37.1096484460001,-113.597073477,402,"250 S DONLEE DRIVE UNIT 10, SAINT GEORGE, UT, 84770","Match","Exact","250 DONLEE DR, SAINT GEORGE, UT, 84770",166193347,"L"
137903,"250 S ENGLEWOOD DRIVE","BATON ROUGE","LA",70810,30.35063726,-91.07896012,403,"250 S ENGLEWOOD DRIVE, BATON ROUGE, LA, 70810","Match","Exact","250 ENGLEWOOD DR, BATON ROUGE, LA, 70810",92204681,"R"
137904,"250 S GRAND MESA DR","CEDAREDGE","CO",81413,38.898876283,-107.924456276,404,"250 S GRAND MESA DR, CEDAREDGE, CO, 81413","Match","Exact","250 S GRAND MESA DR, CEDAREDGE, CO, 81413",122356930,"L"
137905,"250 S HIGH STREET 1004","COLUMBUS","OH",43215,NA,NA,405,"250 S HIGH STREET 1004, COLUMBUS, OH, 43215","Tie",NA,NA,NA,NA
137906,"250 S KINNA DRIVE","TIPP CITY","OH",45371,NA,NA,406,"250 S KINNA DRIVE, TIPP CITY, OH, 45371","No_Match",NA,NA,NA,NA
137907,"250 S OAK STREET","MOUNT CARMEL","PA",17851,40.7941963480001,-76.412423964,407,"250 S OAK STREET, MOUNT CARMEL, PA, 17851","Match","Exact","250 S OAK ST, MOUNT CARMEL, PA, 17851",48063599,"L"
137908,"250 S STAGECOACH TRL APT 234","SAN MARCOS","TX",78666,NA,NA,408,"250 S STAGECOACH TRL APT 234, SAN MARCOS, TX, 78666","Tie",NA,NA,NA,NA
137909,"250 S TENNESSEE ST","CARTERSVILLE","GA",30120,34.163345361,-84.793559962,409,"250 S TENNESSEE ST, CARTERSVILLE, GA, 30120","Match","Exact","250 S TENNESSEE ST, CARTERSVILLE, GA, 30120",30445525,"R"
137910,"250 SANDSTONE DR","PROSPER","TX",75078,33.237755104,-96.778573684,410,"250 SANDSTONE DR, PROSPER, TX, 75078","Match","Exact","250 SANDSTONE DR, PROSPER, TX, 75078",653246877,"L"
137911,"250 SCHOOL HOUSE","NEW BRAUNFELS","TX",78132,29.828106441,-98.1102378639999,411,"250 SCHOOL HOUSE, NEW BRAUNFELS, TX, 78132","Match","Exact","250 SCHOOL HOUSE, NEW BRAUNFELS, TX, 78132",72254802,"R"
137912,"250 SCHUBERT AVENUE","RUNNEMEDE","NJ",8078,39.8498459910001,-75.0643849429999,412,"250 SCHUBERT AVENUE, RUNNEMEDE, NJ, 8078","Match","Exact","250 SCHUBERT AVE, RUNNEMEDE, NJ, 08078",134391145,"L"
137913,"250 SE 10TH AVE","HILLSBORO","OR",97123,45.520883806,-122.973867772,413,"250 SE 10TH AVE, HILLSBORO, OR, 97123","Match","Exact","250 SE 10TH AVE, HILLSBORO, OR, 97123",605314421,"L"
137914,"250 SEELEY STREET  APT 6","BROOKLYN","NY",11218,40.655438073,-73.974094427,414,"250 SEELEY STREET  APT 6, BROOKLYN, NY, 11218","Match","Exact","250 SEELEY ST, BROOKLYN, NY, 11218",59078383,"R"
137915,"250 SHARON AVE","SHARON HILL","PA",19079,39.9072089650001,-75.272619902,415,"250 SHARON AVE, SHARON HILL, PA, 19079","Match","Exact","250 SHARON AVE, SHARON HILL, PA, 19079",134885304,"R"
137916,"250 SHARON AVENUE","SHARON HILL","PA",19079,39.9072089650001,-75.272619902,416,"250 SHARON AVENUE, SHARON HILL, PA, 19079","Match","Exact","250 SHARON AVE, SHARON HILL, PA, 19079",134885304,"R"
137917,"250 SHERWOOD DR","SAN ANTONIO","TX",78201,29.4834104440001,-98.532328681,417,"250 SHERWOOD DR, SAN ANTONIO, TX, 78201","Match","Exact","250 SHERWOOD DR, SAN ANTONIO, TX, 78201",101512048,"L"
137918,"250 SHILOH CREEK DRIVE","CALERA","AL",35040,33.08357526,-86.753584975,418,"250 SHILOH CREEK DRIVE, CALERA, AL, 35040","Match","Exact","250 SHILOH CREEK DR, CALERA, AL, 35040",635488618,"L"
137919,"250 SIERRA COLLEGE BOULEVARD","GRASS VALLEY","CA",95945,39.2357226610001,-121.052855227,419,"250 SIERRA COLLEGE BOULEVARD, GRASS VALLEY, CA, 95945","Match","Non_Exact","250 SIERRA COLLEGE DR, GRASS VALLEY, CA, 95945",629695370,"R"
137920,"250 SILVER SHADOW DRIVE","ABILENE","TX",79602,32.3478651900001,-99.7045879519999,420,"250 SILVER SHADOW DRIVE, ABILENE, TX, 79602","Match","Non_Exact","250 SILVER SHADOW RD, ABILENE, TX, 79602",624718083,"L"
137921,"250 SILVER SPRINGS TRAIL","CLEVELAND","TN",37312,35.2085334450001,-84.911590024,421,"250 SILVER SPRINGS TRAIL, CLEVELAND, TN, 37312","Match","Non_Exact","250 SILVER SPRINGS TRL NW, CLEVELAND, TN, 37312",653837996,"R"
137922,"250 SOUTH 17TH STREET ROOM 1400","PHILADELPHIA","PA",19103,39.948548056,-75.169402287,422,"250 SOUTH 17TH STREET ROOM 1400, PHILADELPHIA, PA, 19103","Match","Exact","250 S 17TH ST, PHILADELPHIA, PA, 19103",131407824,"R"
137923,"250 SOUTH 300 EAST NO 2","ST GEORGE","UT",84770,NA,NA,423,"250 SOUTH 300 EAST NO 2, ST GEORGE, UT, 84770","No_Match",NA,NA,NA,NA
137924,"250 SOUTH ARIZONA AVENUE SUITE 3","CHANDLER","AZ",85225,33.2997482390001,-111.841499918,424,"250 SOUTH ARIZONA AVENUE SUITE 3, CHANDLER, AZ, 85225","Match","Exact","250 S ARIZONA AVE, CHANDLER, AZ, 85225",128243510,"R"
137925,"250 SOUTH HUMBOLDT ST","DENVER","CO",80209,39.7120077710001,-104.969850598,425,"250 SOUTH HUMBOLDT ST, DENVER, CO, 80209","Match","Exact","250 S HUMBOLDT ST, DENVER, CO, 80209",177331966,"L"
137926,"250 SOUTH LYON ST STE E529","HEMET","CA",92543,33.744840626,-116.989055257,426,"250 SOUTH LYON ST STE E529, HEMET, CA, 92543","Match","Non_Exact","250 S LYON AVE, HEMET, CA, 92543",194755626,"L"
137927,"250 SOUTH MARQUETTE AVE 11TH FLOOR","MINNEAPOLIS","MN",55401,NA,NA,427,"250 SOUTH MARQUETTE AVE 11TH FLOOR, MINNEAPOLIS, MN, 55401","No_Match",NA,NA,NA,NA
137928,"250 SOUTH STREET","WALTHAM","MA",2453,42.3671628230001,-71.2533386059999,428,"250 SOUTH STREET, WALTHAM, MA, 2453","Match","Exact","250 SOUTH ST, WALTHAM, MA, 02453",637053515,"L"
137929,"250 SPRINGRUN DRIVE","MOORESVILLE","NC",28117,35.558583974,-80.8895205269999,429,"250 SPRINGRUN DRIVE, MOORESVILLE, NC, 28117","Match","Non_Exact","250 SPRING RUN DR, MOORESVILLE, NC, 28117",46022810,"R"
137930,"250 ST JOSEPH ST UNIT 690","MOBILE","AL",36602,NA,NA,430,"250 ST JOSEPH ST UNIT 690, MOBILE, AL, 36602","No_Match",NA,NA,NA,NA
137931,"250 STEWART AVE","HEMPSTEAD","NY",11550,40.7196441780001,-73.6159321649999,431,"250 STEWART AVE, HEMPSTEAD, NY, 11550","Match","Exact","250 STEWART AVE, HEMPSTEAD, NY, 11550",147627206,"R"
137932,"250 SUGAR MAPLE LANE","MANSFIELD","OH",44903,40.750358007,-82.596305676,432,"250 SUGAR MAPLE LANE, MANSFIELD, OH, 44903","Match","Exact","250 SUGAR MAPLE LN, MANSFIELD, OH, 44903",207224072,"R"
137933,"250 SUN TEMPLE DRIVE","MADISON","AL",35758,34.7135380780001,-86.740765771,433,"250 SUN TEMPLE DRIVE, MADISON, AL, 35758","Match","Exact","250 SUN TEMPLE DR, MADISON, AL, 35758",58143341,"L"
137934,"250 SUNNY ISLES BLVD STE 602","SUNNI ISLES BEACH","FL",33160,25.929773271,-80.124715035,434,"250 SUNNY ISLES BLVD STE 602, SUNNI ISLES BEACH, FL, 33160","Match","Non_Exact","250 SUNNY ISLES BLVD, SUNNY ISLES BEACH, FL, 33160",650069370,"L"
137935,"250 THIRD AVE NO SUITE 400","MINNEAPOLIS","MN",55401,44.9839688640001,-93.27329602,435,"250 THIRD AVE NO SUITE 400, MINNEAPOLIS, MN, 55401","Match","Exact","250 3RD AVE N, MINNEAPOLIS, MN, 55401",640648233,"R"
137936,"250 TIP SEAMAN DR","TUCKERTON","NJ",8087,39.602472494,-74.332928909,436,"250 TIP SEAMAN DR, TUCKERTON, NJ, 8087","Match","Exact","250 TIP SEAMAN DR, TUCKERTON, NJ, 08087",203710815,"L"
137937,"250 TOFFEE COURT","MCDONOUGH","GA",30253,33.4429290690001,-84.1806498509999,437,"250 TOFFEE COURT, MCDONOUGH, GA, 30253","Match","Exact","250 TOFFEE CT, MCDONOUGH, GA, 30253",619916427,"R"
137938,"250 TRUMAN WAY","DOWNINGTOWN","PA",19335,40.0234911100001,-75.682533782,438,"250 TRUMAN WAY, DOWNINGTOWN, PA, 19335","Match","Exact","250 TRUMAN WAY, DOWNINGTOWN, PA, 19335",179556933,"R"
137939,"250 TWILLA TRAIL","AZLE","TX",76020,32.830007433,-97.623051706,439,"250 TWILLA TRAIL, AZLE, TX, 76020","Match","Exact","250 TWILLA TRL, AZLE, TX, 76020",103605308,"R"
137940,"250 UNION STREET APT 2","BROOKLYN","NY",11231,40.6828014490001,-73.997328368,440,"250 UNION STREET APT 2, BROOKLYN, NY, 11231","Match","Exact","250 UNION ST, BROOKLYN, NY, 11231",59074853,"R"
137941,"250 UTE AVENUE","RIFLE","CO",81650,39.531180469,-107.775982827,441,"250 UTE AVENUE, RIFLE, CO, 81650","Match","Exact","250 UTE AVE, RIFLE, CO, 81650",105814392,"L"
137942,"250 VANDENBURG ST UNIT B016","PETERSON AFB","CO",80914,NA,NA,442,"250 VANDENBURG ST UNIT B016, PETERSON AFB, CO, 80914","No_Match",NA,NA,NA,NA
137943,"250 VEREDA PRADERA","GOLETA","CA",93117,NA,NA,443,"250 VEREDA PRADERA, GOLETA, CA, 93117","No_Match",NA,NA,NA,NA
137944,"250 VOIT GILMORE LANE","SOUTHERN PINES","NC",28387,NA,NA,444,"250 VOIT GILMORE LANE, SOUTHERN PINES, NC, 28387","No_Match",NA,NA,NA,NA
137945,"250 VOIT GILMORE RD","SOUTHERN PINES","NC",28387,NA,NA,445,"250 VOIT GILMORE RD, SOUTHERN PINES, NC, 28387","No_Match",NA,NA,NA,NA
137946,"250 W 131ST ST APT 3C","NEW YORK","NY",10027,40.813405103,-73.947144048,446,"250 W 131ST ST APT 3C, NEW YORK, NY, 10027","Match","Non_Exact","250 W 131ST ST, NEW YORK, NY, 10027",609298141,"L"
137947,"250 W 15TH AVE  224","ESCONDIDO","CA",92025,NA,NA,447,"250 W 15TH AVE  224, ESCONDIDO, CA, 92025","Tie",NA,NA,NA,NA
137948,"250 W 3RD SOUTH","MOUNTAIN HOME","ID",83647,43.127613227,-115.695317859,448,"250 W 3RD SOUTH, MOUNTAIN HOME, ID, 83647","Match","Exact","250 W 3RD S, MOUNTAIN HOME, ID, 83647",117628746,"L"
137949,"250 W 57TH ST STE 615","NEW YORK","NY",10107,40.766346861,-73.981999522,449,"250 W 57TH ST STE 615, NEW YORK, NY, 10107","Match","Non_Exact","250 W 57TH ST, NEW YORK, NY, 10107",59657091,"L"
137950,"250 W 57TH STREET SUITE 1619","NEW YORK","NY",10107,40.766346861,-73.981999522,450,"250 W 57TH STREET SUITE 1619, NEW YORK, NY, 10107","Match","Non_Exact","250 W 57TH ST, NEW YORK, NY, 10107",59657091,"L"
137951,"250 W ATWATER AVE","EUSTIS","FL",32726,28.8400817560001,-81.690224052,451,"250 W ATWATER AVE, EUSTIS, FL, 32726","Match","Exact","250 W ATWATER AVE, EUSTIS, FL, 32726",640902607,"L"
137952,"250 W CENTRAL AVE APT 1302","BREA","CA",92821,33.932044843,-117.897023276,452,"250 W CENTRAL AVE APT 1302, BREA, CA, 92821","Match","Non_Exact","250 W CENTRAL AVE, BREA, CA, 92821",609048990,"L"
137953,"250 W CHERRY LANE","SOUDERTON","PA",18964,40.3014591470001,-75.319227685,453,"250 W CHERRY LANE, SOUDERTON, PA, 18964","Match","Exact","250 W CHERRY LN, SOUDERTON, PA, 18964",135072095,"R"
137954,"250 W DOUGHERTY STREET  APT 302","ATHENS","GA",30601,NA,NA,454,"250 W DOUGHERTY STREET  APT 302, ATHENS, GA, 30601","Tie",NA,NA,NA,NA
137955,"250 W EL CAMINO REAL APT 1400","SUNNYVALE","CA",94097,NA,NA,455,"250 W EL CAMINO REAL APT 1400, SUNNYVALE, CA, 94097","No_Match",NA,NA,NA,NA
137956,"250 W EL CAMINO REAL APT 4105","SUNNIVALE","CA",94087,37.368816446,-122.036092953,456,"250 W EL CAMINO REAL APT 4105, SUNNIVALE, CA, 94087","Match","Non_Exact","250 W EL CAMINO REAL, SUNNYVALE, CA, 94087",122937232,"L"
137957,"250 W LANCASTER AVE SUITE 215","PAOLI","PA",19301,NA,NA,457,"250 W LANCASTER AVE SUITE 215, PAOLI, PA, 19301","No_Match",NA,NA,NA,NA
137958,"250 W MAIN ST","BELLEVUE","OH",44811,41.274566238,-82.844025081,458,"250 W MAIN ST, BELLEVUE, OH, 44811","Match","Exact","250 W MAIN ST, BELLEVUE, OH, 44811",38673588,"R"
137959,"250 W NOTTINGHAM SUITE 400","SAN ANTONIO","TX",78209,NA,NA,459,"250 W NOTTINGHAM SUITE 400, SAN ANTONIO, TX, 78209","No_Match",NA,NA,NA,NA
137960,"250 W TASMAN DR STE 180","SAN JOSE","CA",95134,NA,NA,460,"250 W TASMAN DR STE 180, SAN JOSE, CA, 95134","Tie",NA,NA,NA,NA
137961,"250 WAGNER ROAD","WEST MILTON","OH",45383,39.960221631,-84.338693846,461,"250 WAGNER ROAD, WEST MILTON, OH, 45383","Match","Exact","250 WAGNER RD, WEST MILTON, OH, 45383",616959607,"L"
137962,"250 WASHINGTON AVENUE","GRAND HAVEN","MI",49417,43.0637218030001,-86.230219427,462,"250 WASHINGTON AVENUE, GRAND HAVEN, MI, 49417","Match","Exact","250 WASHINGTON AVE, GRAND HAVEN, MI, 49417",71084399,"L"
137963,"250 WASHINGTON STREET SUITE D","TOMS RIVER","NJ",8754,NA,NA,463,"250 WASHINGTON STREET SUITE D, TOMS RIVER, NJ, 8754","No_Match",NA,NA,NA,NA
137964,"250 WASHINGTON","GRAND HAVEN","MI",49417,43.0637218030001,-86.230219427,464,"250 WASHINGTON, GRAND HAVEN, MI, 49417","Match","Non_Exact","250 WASHINGTON AVE, GRAND HAVEN, MI, 49417",71084399,"L"
137965,"250 WEST 24TH STREET - APT 3FW","NEW YORK","NY",10011,40.7455277,-73.9970004629999,465,"250 WEST 24TH STREET - APT 3FW, NEW YORK, NY, 10011","Match","Exact","250 W 24TH ST, NEW YORK, NY, 10011",650154145,"L"
137966,"250 WEST 24TH STREET APT 5BW","NEW YORK","NY",10011,40.7455277,-73.9970004629999,466,"250 WEST 24TH STREET APT 5BW, NEW YORK, NY, 10011","Match","Exact","250 W 24TH ST, NEW YORK, NY, 10011",650154145,"L"
137967,"250 WEST 3RD STREET","EL PASO","IL",61738,40.741456242,-89.020150128,467,"250 WEST 3RD STREET, EL PASO, IL, 61738","Match","Exact","250 W 3RD ST, EL PASO, IL, 61738",8996144,"R"
137968,"250 WEST 50TH STREET APT 38C","NEW YORK","NY",10019,40.761838389,-73.985040563,468,"250 WEST 50TH STREET APT 38C, NEW YORK, NY, 10019","Match","Exact","250 W 50TH ST, NEW YORK, NY, 10019",59655258,"L"
137969,"250 WEST 57TH STREET SUITE 2223","NEW YORK","NY",10107,40.76634576,-73.981996862,469,"250 WEST 57TH STREET SUITE 2223, NEW YORK, NY, 10107","Match","Exact","250 W 57TH ST, NEW YORK, NY, 10107",59657091,"L"
137970,"250 WEST 75 STREET APT 4C","NEW YORK","NY",10023,40.7813971630001,-73.982198661,470,"250 WEST 75 STREET APT 4C, NEW YORK, NY, 10023","Match","Exact","250 W 75TH ST, NEW YORK, NY, 10023",59656640,"L"
137971,"250 WEST 87TH STREET 2ND FLOOR","NEW YORK","NY",10024,40.7892609460001,-73.9766685179999,471,"250 WEST 87TH STREET 2ND FLOOR, NEW YORK, NY, 10024","Match","Exact","250 W 87TH ST, NEW YORK, NY, 10024",59656618,"L"
137972,"250 WEST BROAD STREET","PAULSBORO","NJ",8066,39.828972418,-75.245024476,472,"250 WEST BROAD STREET, PAULSBORO, NJ, 8066","Match","Exact","250 W BROAD ST, PAULSBORO, NJ, 08066",134581443,"L"
137973,"250 WEST JACKSON CREEK ROAD","INKOM","ID",83245,42.799570239,-112.226730827,473,"250 WEST JACKSON CREEK ROAD, INKOM, ID, 83245","Match","Exact","250 W JACKSON CREEK RD, INKOM, ID, 83245",204355077,"R"
137974,"250 WEST MAIN ST","CEDAREDGE","CO",81413,38.900703412,-107.9258041,474,"250 WEST MAIN ST, CEDAREDGE, CO, 81413","Match","Exact","250 W MAIN ST, CEDAREDGE, CO, 81413",122381500,"R"
137975,"250 WEST MAIN STREET","BRANFORD","CT",6405,41.2783367100001,-72.8538224329999,475,"250 WEST MAIN STREET, BRANFORD, CT, 6405","Match","Exact","250 W MAIN ST, BRANFORD, CT, 06405",651699532,"L"
137976,"250 WEST MAIN STREET","RIDGWAY","PA",15853,41.420828568,-78.741495657,476,"250 WEST MAIN STREET, RIDGWAY, PA, 15853","Match","Exact","250 W MAIN ST, RIDGWAY, PA, 15853",157844568,"R"
137977,"250 WEST PATRICK STREET","FREDERICK","MD",21701,39.4134752640001,-77.416803316,477,"250 WEST PATRICK STREET, FREDERICK, MD, 21701","Match","Exact","250 W PATRICK ST, FREDERICK, MD, 21701",60671065,"R"
137978,"250 WIDGEON DRIVE","NEWNAN","GA",30263,33.345942619,-84.823761369,478,"250 WIDGEON DRIVE, NEWNAN, GA, 30263","Match","Exact","250 WIDGEON DR, NEWNAN, GA, 30263",9346920,"L"
137979,"250 WILDCAT ALLEY","MELBOURNE","FL",32935,28.1071771310001,-80.626229783,479,"250 WILDCAT ALLEY, MELBOURNE, FL, 32935","Match","Non_Exact","250 WILDCAT ALY DR, MELBOURNE, FL, 32935",93904217,"R"
137980,"250 WILLOW POINT CIR","SAVANNAH","GA",31407,32.1810415900001,-81.243611018,480,"250 WILLOW POINT CIR, SAVANNAH, GA, 31407","Match","Exact","250 WILLOW POINT CIR, SAVANNAH, GA, 31407",648061925,"L"
137981,"250 WINDFIELD PARKWAY","WAUKEE","IA",50263,41.611096649,-93.879546512,481,"250 WINDFIELD PARKWAY, WAUKEE, IA, 50263","Match","Exact","250 WINDFIELD PKWY, WAUKEE, IA, 50263",65636878,"R"
137982,"250 WINTON ROAD","FAIRFIELD","CT",6824,41.1512960320001,-73.260715466,482,"250 WINTON ROAD, FAIRFIELD, CT, 6824","Match","Exact","250 WINTON RD, FAIRFIELD, CT, 06824",3241088,"R"
137983,"250 WYLDEROSE COMMONS STE 206","MIDLOTHIAN","VA",23113,NA,NA,483,"250 WYLDEROSE COMMONS STE 206, MIDLOTHIAN, VA, 23113","Tie",NA,NA,NA,NA
137984,"250-14 HILLSIDE AVE","BELLEROSE","NY",11426,40.7354093280001,-73.7172576409999,484,"250-14 HILLSIDE AVE, BELLEROSE, NY, 11426","Match","Exact","250-14 HILLSIDE AVE, BELLEROSE, NY, 11426",59724425,"R"
137985,"2500 1/4 PIEDMONT AVE","MONTROSE","CA",91020,34.209741019,-118.233314646,485,"2500 1/4 PIEDMONT AVE, MONTROSE, CA, 91020","Match","Exact","2500 PIEDMONT AVE, MONTROSE, CA, 91020",141590082,"L"
137986,"2500 14TH AVE SE","MANDAN","ND",58554,46.8021509530001,-100.872828446,486,"2500 14TH AVE SE, MANDAN, ND, 58554","Match","Exact","2500 14TH AVE SE, MANDAN, ND, 58554",652443456,"R"
137987,"2500 1ST AVE NW","WAVERLY","IA",50677,42.725897698,-92.504410889,487,"2500 1ST AVE NW, WAVERLY, IA, 50677","Match","Exact","2500 1ST AVE NW, WAVERLY, IA, 50677",77350568,"R"
137988,"2500 34TH STREET SOUTH","ST PETERSBURG","FL",33711,27.745616908,-82.67929954,488,"2500 34TH STREET SOUTH, ST PETERSBURG, FL, 33711","Match","Exact","2500 34TH ST S, SAINT PETERSBURG, FL, 33711",124709835,"L"
137989,"2500 38TH STREET","DES MOINES","IA",50310,41.6169261360001,-93.668228895,489,"2500 38TH STREET, DES MOINES, IA, 50310","Match","Exact","2500 38TH ST, DES MOINES, IA, 50310",65828827,"L"
137990,"2500 47TH STREET","BOULDER","CO",80301,40.026369436,-105.244193268,490,"2500 47TH STREET, BOULDER, CO, 80301","Match","Exact","2500 47TH ST, BOULDER, CO, 80301",636168181,"R"
137991,"2500 ACTON ROAD","BIRMINGHAM","AL",35243,33.4174126300001,-86.7513794399999,491,"2500 ACTON ROAD, BIRMINGHAM, AL, 35243","Match","Exact","2500 ACTON RD, BIRMINGHAM, AL, 35243",81647897,"L"
137992,"2500 ADA ROAD","LIMA","OH",45801,40.758214616,-84.05778507,492,"2500 ADA ROAD, LIMA, OH, 45801","Match","Exact","2500 ADA RD, LIMA, OH, 45801",209537275,"R"
137993,"2500 ADOBE ROAD","PASO ROBLES","CA",93446,35.684674434,-120.647638145,493,"2500 ADOBE ROAD, PASO ROBLES, CA, 93446","Match","Exact","2500 ADOBE RD, PASO ROBLES, CA, 93446",109892748,"R"
137994,"2500 AL SIMMONS RD","DOVER","FL",33527,27.981918749,-82.223888197,494,"2500 AL SIMMONS RD, DOVER, FL, 33527","Match","Exact","2500 AL SIMMONS RD, DOVER, FL, 33527",104655780,"L"
137995,"2500 ANTHUAN MAYBANK DRIVE","GEORGETOWN","SC",29440,33.386084485,-79.2992583669999,495,"2500 ANTHUAN MAYBANK DRIVE, GEORGETOWN, SC, 29440","Match","Exact","2500 ANTHUAN MAYBANK DR, GEORGETOWN, SC, 29440",29002774,"L"
137996,"2500 ANTHUAN MAYBANK HWY","GEORGETOWN","SC",29440,33.386084485,-79.2992583669999,496,"2500 ANTHUAN MAYBANK HWY, GEORGETOWN, SC, 29440","Match","Non_Exact","2500 ANTHUAN MAYBANK DR, GEORGETOWN, SC, 29440",29002774,"L"
137997,"2500 ARROWHEAD LANE","LIBERAL","KS",67901,37.068272495,-100.932895283,497,"2500 ARROWHEAD LANE, LIBERAL, KS, 67901","Match","Exact","2500 ARROWHEAD LN, LIBERAL, KS, 67901",198162108,"R"
137998,"2500 BAYOU ROAD","NEW ORLEANS","LA",70119,29.9760357270001,-90.076182424,498,"2500 BAYOU ROAD, NEW ORLEANS, LA, 70119","Match","Exact","2500 BAYOU RD, NEW ORLEANS, LA, 70119",191709531,"L"
137999,"2500 BAYSWATER CIRCLE","GURNEE","IL",60031,42.399340583,-87.93686401,499,"2500 BAYSWATER CIRCLE, GURNEE, IL, 60031","Match","Exact","2500 BAYSWATER CIR, GURNEE, IL, 60031",119760283,"L"
138000,"2500 BOBCAT VILLAGE CENTER RD -  F","NORTH PORT","FL",34288,27.0556763160001,-82.158414541,500,"2500 BOBCAT VILLAGE CENTER RD -  F, NORTH PORT, FL, 34288","Match","Exact","2500 BOBCAT VILLAGE CENTER RD, NORTH PORT, FL, 34288",619746677,"R"
