"ID","Address","City","State","Zip","lat","long","id","input_address","match_indicator","match_type","matched_address","tiger_line_id","tiger_side"
71001,"1531 ROCKVILLE PIKE 1002","ROCKVILLE","MD",20852,39.0653943680001,-77.127055984,1,"1531 ROCKVILLE PIKE 1002, ROCKVILLE, MD, 20852","Match","Exact","1531 ROCKVILLE PIKE, ROCKVILLE, MD, 20852",641074261,"R"
71002,"1531 S CALUMET RD STE 4","CHESTERTON","IN",46304,41.597131856,-87.04761009,2,"1531 S CALUMET RD STE 4, CHESTERTON, IN, 46304","Match","Non_Exact","1531 S CALUMET RD, CHESTERTON, IN, 46304",649664845,"L"
71003,"1531 S EDGEWOOD ST STE P","BALTIMORE","MD",21227,39.260841951,-76.667544886,3,"1531 S EDGEWOOD ST STE P, BALTIMORE, MD, 21227","Match","Non_Exact","1531 S EDGEWOOD ST, BALTIMORE, MD, 21227",206452165,"R"
71004,"1531 S KENTON STREET","AURORA","CO",80012,39.688224314,-104.860873953,4,"1531 S KENTON STREET, AURORA, CO, 80012","Match","Exact","1531 S KENTON ST, AURORA, CO, 80012",177343344,"R"
71005,"1531 S KOLIN AVE","CHICAGO","IL",60623,41.859949726,-87.733537644,5,"1531 S KOLIN AVE, CHICAGO, IL, 60623","Match","Exact","1531 S KOLIN AVE, CHICAGO, IL, 60623",111797958,"L"
71006,"1531 SEVEN PINES ROAD APT B","SPRINGFIELD","IL",62704,39.760389979,-89.680102688,6,"1531 SEVEN PINES ROAD APT B, SPRINGFIELD, IL, 62704","Match","Exact","1531 SEVEN PINES RD, SPRINGFIELD, IL, 62704",97363741,"R"
71007,"1531 SIMMON HILL RD","DIXIE","GA",31629,30.8141361080001,-83.666411766,7,"1531 SIMMON HILL RD, DIXIE, GA, 31629","Match","Exact","1531 SIMMON HILL RD, DIXIE, GA, 31629",83069889,"L"
71008,"1531 SOUTH 77TH ST","LINCOLN","NE",68506,40.7975703130001,-96.615332119,8,"1531 SOUTH 77TH ST, LINCOLN, NE, 68506","Match","Exact","1531 S 77TH ST, LINCOLN, NE, 68506",28261339,"R"
71009,"1531 STONELEIGH HILL RD","LITHONIA","GA",30058,33.7471681120001,-84.155164271,9,"1531 STONELEIGH HILL RD, LITHONIA, GA, 30058","Match","Exact","1531 STONELEIGH HILL RD, LITHONIA, GA, 30058",23389656,"R"
71010,"1531 STONEY PARK","KINGWOOD","TX",77339,30.046005989,-95.2335757869999,10,"1531 STONEY PARK, KINGWOOD, TX, 77339","Match","Non_Exact","1531 STONEY PARK DR, KINGWOOD, TX, 77339",96422888,"L"
71011,"1531 THREE DEGREE RD","MARS","PA",16046,40.7169276110001,-79.979853366,11,"1531 THREE DEGREE RD, MARS, PA, 16046","Match","Exact","1531 THREE DEGREE RD, MARS, PA, 16046",52695493,"L"
71012,"1531 TRINITY CHURCH ROAD","CONCORD","NC",28027,35.436803674,-80.658394156,12,"1531 TRINITY CHURCH ROAD, CONCORD, NC, 28027","Match","Exact","1531 TRINITY CHURCH RD, CONCORD, NC, 28027",24929192,"L"
71013,"1531 W KNAPP DRIVE","VISTA","CA",92083,33.221736702,-117.250852609,13,"1531 W KNAPP DRIVE, VISTA, CA, 92083","Match","Exact","1531 W KNAPP DR, VISTA, CA, 92083",195286291,"R"
71014,"1531 WALNUT ST","WOODBRIDGE","VA",22191,38.6339510190001,-77.26128346,14,"1531 WALNUT ST, WOODBRIDGE, VA, 22191","Match","Exact","1531 WALNUT ST, WOODBRIDGE, VA, 22191",76511470,"L"
71015,"1531 WINDSTONE DRIVE","VIENNA","VA",22182,38.949765617,-77.296348479,15,"1531 WINDSTONE DRIVE, VIENNA, VA, 22182","Match","Exact","1531 WINDSTONE DR, VIENNA, VA, 22182",638676648,"L"
71016,"1531-A DOMINIS STREET","HONOLULU","HI",96822,21.3051589950001,-157.832363229,16,"1531-A DOMINIS STREET, HONOLULU, HI, 96822","Match","Exact","1531 DOMINIS ST, HONOLULU, HI, 96822",203237576,"R"
71017,"15310 BANCROFT ROAD","AUBURN","CA",95602,38.9751953100001,-121.033596836,17,"15310 BANCROFT ROAD, AUBURN, CA, 95602","Match","Exact","15310 BANCROFT RD, AUBURN, CA, 95602",629706770,"L"
71018,"15310 NEWLY DR","HOUSTON","TX",77084,29.863160652,-95.6403270979999,18,"15310 NEWLY DR, HOUSTON, TX, 77084","Match","Exact","15310 NEWLY DR, HOUSTON, TX, 77084",96645685,"L"
71019,"15310 PALOMINO MESA ROAD","SAN DIEGO","CA",92127,33.005026614,-117.110282582,19,"15310 PALOMINO MESA ROAD, SAN DIEGO, CA, 92127","Match","Exact","15310 PALOMINO MESA RD, SAN DIEGO, CA, 92127",612872960,"L"
71020,"15310 TRUSLOW POINT LN","SUGAR LAND","TX",77478,29.600287108,-95.60869458,20,"15310 TRUSLOW POINT LN, SUGAR LAND, TX, 77478","Match","Exact","15310 TRUSLOW POINT LN, SUGAR LAND, TX, 77478",78330099,"L"
71021,"15310 W EVANS DRIVE","SURPRISE","AZ",85379,33.6163033810001,-112.389943564,21,"15310 W EVANS DRIVE, SURPRISE, AZ, 85379","Match","Exact","15310 W EVANS DR, SURPRISE, AZ, 85379",128851127,"R"
71022,"15311 BRINTON WAY","BRANDYWINE","MD",20613,38.6791195850001,-76.8914334849999,22,"15311 BRINTON WAY, BRANDYWINE, MD, 20613","Match","Exact","15311 BRINTON WAY, BRANDYWINE, MD, 20613",76417449,"L"
71023,"15311 NW 32 AVE","MIAMI GARDENS","FL",33054,25.913447379,-80.2521389629999,23,"15311 NW 32 AVE, MIAMI GARDENS, FL, 33054","Match","Exact","15311 NW 32ND AVE, MIAMI GARDENS, FL, 33054",116028273,"R"
71024,"15312 MALLARD CREEK ST","FORT WORTH","TX",76262,33.005928457,-97.2584075349999,24,"15312 MALLARD CREEK ST, FORT WORTH, TX, 76262","Match","Non_Exact","15312 MALLARD CREEK ST, NORTHLAKE, TX, 76262",218064026,"L"
71025,"15312 WIRT ST","OMAHA","NE",68116,41.287235507,-96.153543661,25,"15312 WIRT ST, OMAHA, NE, 68116","Match","Exact","15312 WIRT ST, OMAHA, NE, 68116",117001053,"L"
71026,"15313 HACKETT ROAD","DALTON","OH",44618,40.7555217410001,-81.710834957,26,"15313 HACKETT ROAD, DALTON, OH, 44618","Match","Exact","15313 HACKETT RD, DALTON, OH, 44618",58760032,"L"
71027,"15313 STEPHEN DR","GULFPORT","MS",39503,30.4721327080001,-89.0962444359999,27,"15313 STEPHEN DR, GULFPORT, MS, 39503","Match","Exact","15313 STEPHEN DR, GULFPORT, MS, 39503",111375603,"R"
71028,"15313 TEWKESBURY PLACE","UPPER MARLBORO","MD",20774,38.8581193150001,-76.740144431,28,"15313 TEWKESBURY PLACE, UPPER MARLBORO, MD, 20774","Match","Exact","15313 TEWKESBURY PL, UPPER MARLBORO, MD, 20774",636818352,"R"
71029,"15314 4TH AVE SW SUITE A","BURIEN","WA",98166,47.465450483,-122.339184695,29,"15314 4TH AVE SW SUITE A, BURIEN, WA, 98166","Match","Exact","15314 4TH AVE SW, BURIEN, WA, 98166",624765572,"L"
71030,"15314 BAYBROOK DRIVE","HOUSTON","TX",77062,29.5756785350001,-95.129049661,30,"15314 BAYBROOK DRIVE, HOUSTON, TX, 77062","Match","Exact","15314 BAYBROOK DR, HOUSTON, TX, 77062",96114604,"R"
71031,"15314 FOWLER AVE","OMAHA","NE",68116,41.3016025910001,-96.1544548259999,31,"15314 FOWLER AVE, OMAHA, NE, 68116","Match","Exact","15314 FOWLER AVE, OMAHA, NE, 68116",617712337,"R"
71032,"15314 GRAND SUMMIT LANE APT 102","GRANDVIEW","MO",64030,38.846359191,-94.516775949,32,"15314 GRAND SUMMIT LANE APT 102, GRANDVIEW, MO, 64030","Match","Exact","15314 GRAND SUMMIT LN, GRANDVIEW, MO, 64030",641546635,"R"
71033,"15315 ANTLER CREEK DR","SAN ANTONIO","TX",78248,29.5865032300001,-98.523030118,33,"15315 ANTLER CREEK DR, SAN ANTONIO, TX, 78248","Match","Exact","15315 ANTLER CREEK DR, SAN ANTONIO, TX, 78248",101567079,"L"
71034,"15315 E HWY 94","ROGERS","AR",72758,36.2956196170001,-94.0427079089999,34,"15315 E HWY 94, ROGERS, AR, 72758","Match","Non_Exact","15315 STATE HWY 94, ROGERS, AR, 72758",635481307,"R"
71035,"15315 MAGNOLIA BLVD SUITE 426","SHERMAN OAKS","CA",91403,34.164855043,-118.466532323,35,"15315 MAGNOLIA BLVD SUITE 426, SHERMAN OAKS, CA, 91403","Match","Exact","15315 MAGNOLIA BLVD, SHERMAN OAKS, CA, 91403",141560436,"R"
71036,"15316 MARKHAM DR","CLERMONT","FL",34714,28.3919957800001,-81.6963898339999,36,"15316 MARKHAM DR, CLERMONT, FL, 34714","Match","Exact","15316 MARKHAM DR, CLERMONT, FL, 34714",94216375,"L"
71037,"15316 NORTH 89TH AVE","PEORIA","AZ",85381,33.623469748,-112.250634329,37,"15316 NORTH 89TH AVE, PEORIA, AZ, 85381","Match","Exact","15316 N 89TH AVE, PEORIA, AZ, 85381",128321954,"R"
71038,"15316 NORTHPORT CT","HORIZON CITY","TX",79928,31.6776193260001,-106.188293398,38,"15316 NORTHPORT CT, HORIZON CITY, TX, 79928","Match","Exact","15316 NORTHPORT CT, HORIZON CITY, TX, 79928",189360735,"R"
71039,"15316 SE BARON LOOP","HAPPY VALLEY","OR",97086,45.427455794,-122.505360826,39,"15316 SE BARON LOOP, HAPPY VALLEY, OR, 97086","Match","Exact","15316 SE BARON LOOP, HAPPY VALLEY, OR, 97086",624566703,"L"
71040,"15316 STANWOOD ST SW","DALTON","OH",44618,40.7593091750001,-81.644252748,40,"15316 STANWOOD ST SW, DALTON, OH, 44618","Match","Exact","15316 STANWOOD ST SW, DALTON, OH, 44618",64719231,"L"
71041,"15317 PEACH ORCHARD ROAD","SILVER SPRINGS","MD",20905,39.106625218,-76.9631681709999,41,"15317 PEACH ORCHARD ROAD, SILVER SPRINGS, MD, 20905","Match","Exact","15317 PEACH ORCHARD RD, SILVER SPRING, MD, 20905",62072876,"R"
71042,"15318 10 MILE RD","EASTPOINTE","MI",48021,42.4795406120001,-82.963005209,42,"15318 10 MILE RD, EASTPOINTE, MI, 48021","Match","Non_Exact","15318 E 10 MILE RD, EASTPOINTE, MI, 48021",110678708,"R"
71043,"15318 CHAD DRIVE SE","YELM","WA",98597,46.955891858,-122.614575563,43,"15318 CHAD DRIVE SE, YELM, WA, 98597","Match","Exact","15318 CHAD DR SE, YELM, WA, 98597",614104777,"R"
71044,"15318 ESPOLA ROAD","POWAY","CA",92064,32.9914261260001,-117.025002614,44,"15318 ESPOLA ROAD, POWAY, CA, 92064","Match","Exact","15318 ESPOLA RD, POWAY, CA, 92064",195317684,"L"
71045,"15318 TURNEY ROAD","MAPLE HEIGHTS","OH",44137,41.392645628,-81.573916078,45,"15318 TURNEY ROAD, MAPLE HEIGHTS, OH, 44137","Match","Exact","15318 TURNEY RD, MAPLE HEIGHTS, OH, 44137",61128638,"R"
71046,"15319 IMLAY CITY ROAD","MUSSEY","MI",48014,43.0269635940001,-82.940653488,46,"15319 IMLAY CITY ROAD, MUSSEY, MI, 48014","Match","Exact","15319 IMLAY CITY RD, MUSSEY, MI, 48014",110981701,"R"
71047,"15319 REDBUD BERRY WAY","CYPRESS","TX",77433,30.0026914430001,-95.7535253249999,47,"15319 REDBUD BERRY WAY, CYPRESS, TX, 77433","Match","Exact","15319 REDBUD BERRY WAY, CYPRESS, TX, 77433",635782145,"R"
71048,"15319 UNION LEBOEUF RD","UNION CITY","PA",16438,41.8932167720001,-79.8861034299999,48,"15319 UNION LEBOEUF RD, UNION CITY, PA, 16438","Match","Exact","15319 UNION LEBOEUF RD, UNION CITY, PA, 16438",117482629,"R"
71049,"1532 10TH ST SE APT 10B","ROCHESTER","MN",55904,44.0111359310001,-92.443390317,49,"1532 10TH ST SE APT 10B, ROCHESTER, MN, 55904","Match","Exact","1532 10TH ST SE, ROCHESTER, MN, 55904",30554328,"R"
71050,"1532 51ST ST","BROOKLYN","NY",11219,40.630773176,-73.988099393,50,"1532 51ST ST, BROOKLYN, NY, 11219","Match","Exact","1532 51ST ST, BROOKLYN, NY, 11219",59080322,"R"
71051,"1532 BERLIN TURNPIKE APT 3-F","WETHERSFIELD","CT",6109,41.7162106310001,-72.696475794,51,"1532 BERLIN TURNPIKE APT 3-F, WETHERSFIELD, CT, 6109","Match","Exact","1532 BERLIN TPKE, WETHERSFIELD, CT, 06109",640571359,"L"
71052,"1532 BOLTON RD","CATAWBA","NC",28609,35.6759204040001,-81.031392061,52,"1532 BOLTON RD, CATAWBA, NC, 28609","Match","Exact","1532 BOLTON RD, CATAWBA, NC, 28609",45899199,"R"
71053,"1532 BRUNER ROAD","DOTHAN","AL",36301,31.170528441,-85.4503389389999,53,"1532 BRUNER ROAD, DOTHAN, AL, 36301","Match","Exact","1532 BRUNER RD, DOTHAN, AL, 36301",101224505,"L"
71054,"1532 COUNTY ROAD 9","SHORTER","AL",36075,NA,NA,54,"1532 COUNTY ROAD 9, SHORTER, AL, 36075","No_Match",NA,NA,NA,NA
71055,"1532 DUMAINE STREET",NA,"LA",70116,29.9646143620001,-90.070556886,55,"1532 DUMAINE STREET, , LA, 70116","Match","Exact","1532 DUMAINE ST, NEW ORLEANS, LA, 70116",191710358,"L"
71056,"1532 E 1450 S","ST GEORGE","UT",84790,37.0842940300001,-113.551051372,56,"1532 E 1450 S, ST GEORGE, UT, 84790","Match","Exact","1532 E 1450 S, SAINT GEORGE, UT, 84790",633242018,"R"
71057,"1532 E WINSTON","PHOENIX","AZ",85042,33.3692703310001,-112.049958415,57,"1532 E WINSTON, PHOENIX, AZ, 85042","Match","Non_Exact","1532 E WINSTON DR, PHOENIX, AZ, 85042",128217969,"R"
71058,"1532 EAST BUTLER PIKE","AMBLER","PA",19002,40.171876002,-75.199573833,58,"1532 EAST BUTLER PIKE, AMBLER, PA, 19002","Match","Exact","1532 E BUTLER PIKE, AMBLER, PA, 19002",135097090,"R"
71059,"1532 GAUDET DRIVE","MARRERO","LA",70072,29.8842995800001,-90.089298693,59,"1532 GAUDET DRIVE, MARRERO, LA, 70072","Match","Exact","1532 GAUDET DR, MARRERO, LA, 70072",93508758,"R"
71060,"1532 GLENWOOD DRIVE","MOORE","OK",73160,35.3243666120001,-97.48093576,60,"1532 GLENWOOD DRIVE, MOORE, OK, 73160","Match","Exact","1532 GLENWOOD DR, MOORE, OK, 73160",99918604,"R"
71061,"1532 H STREET","LAS VEGAS","NV",89106,36.1880598600001,-115.151895959,61,"1532 H STREET, LAS VEGAS, NV, 89106","Match","Exact","1532 H ST, LAS VEGAS, NV, 89106",637396114,"R"
71062,"1532 HAVEN CREST DRIVE","POWDER SPRINGS","GA",30127,33.914628099,-84.709188752,62,"1532 HAVEN CREST DRIVE, POWDER SPRINGS, GA, 30127","Match","Exact","1532 HAVEN CREST DR, POWDER SPGS, GA, 30127",17228742,"R"
71063,"1532 JACKSON ST","BALTIMORE","MD",21230,39.2724129960001,-76.6051094269999,63,"1532 JACKSON ST, BALTIMORE, MD, 21230","Match","Exact","1532 JACKSON ST, BALTIMORE, MD, 21230",206421937,"R"
71064,"1532 KOOSER RD","SAN JOSE","CA",95118,37.2430911050001,-121.897294308,64,"1532 KOOSER RD, SAN JOSE, CA, 95118","Match","Exact","1532 KOOSER RD, SAN JOSE, CA, 95118",122946873,"L"
71065,"1532 LOST LAKE DRIVE","KELLER","TX",76248,32.920407513,-97.218998267,65,"1532 LOST LAKE DRIVE, KELLER, TX, 76248","Match","Exact","1532 LOST LAKE DR, KELLER, TX, 76248",642809159,"R"
71066,"1532 MILLS ST","SCOTT","LA",70583,30.2615854650001,-92.091122809,66,"1532 MILLS ST, SCOTT, LA, 70583","Match","Exact","1532 MILLS ST, SCOTT, LA, 70583",600665320,"R"
71067,"1532 MULLINS AVE NW","WALKER","MI",49534,42.992604208,-85.752158306,67,"1532 MULLINS AVE NW, WALKER, MI, 49534","Match","Exact","1532 MULLINS AVE NW, WALKER, MI, 49534",12507943,"R"
71068,"1532 N EVANSTON PL","TULSA","OK",74110,36.1777898280001,-95.946486253,68,"1532 N EVANSTON PL, TULSA, OK, 74110","Match","Exact","1532 N EVANSTON PL, TULSA, OK, 74110",166445238,"L"
71069,"1532 NW 54TH DRIVE","GAINESVILLE","FL",32605,29.6665285180001,-82.40076075,69,"1532 NW 54TH DRIVE, GAINESVILLE, FL, 32605","Match","Exact","1532 NW 54TH DR, GAINESVILLE, FL, 32605",627297888,"L"
71070,"1532 NW 7TH TERRACE","POMPANO BEACH","FL",33060,26.247125931,-80.13460278,70,"1532 NW 7TH TERRACE, POMPANO BEACH, FL, 33060","Match","Exact","1532 NW 7TH TER, POMPANO BEACH, FL, 33060",114788069,"R"
71071,"1532 ORCHARD DRIVE","NEWPORT BEACH","CA",92660,33.663437285,-117.884375911,71,"1532 ORCHARD DRIVE, NEWPORT BEACH, CA, 92660","Match","Exact","1532 ORCHARD DR, NEWPORT BEACH, CA, 92660",646560779,"R"
71072,"1532 ORMOND AVE","APOPKA","FL",32703,28.6807293210001,-81.48213867,72,"1532 ORMOND AVE, APOPKA, FL, 32703","Match","Exact","1532 ORMOND AVE, APOPKA, FL, 32703",94322322,"R"
71073,"1532 PENROSE AVENUE","BALTIMORE","MD",21234,39.2913709220001,-76.642054795,73,"1532 PENROSE AVENUE, BALTIMORE, MD, 21234","Match","Non_Exact","1532 PENROSE AVE, BALTIMORE, MD, 21223",206430706,"L"
71074,"1532 PONTER RIDGE PL STE I","BOWIE","MD",20716,38.909828164,-76.718957989,74,"1532 PONTER RIDGE PL STE I, BOWIE, MD, 20716","Match","Non_Exact","1532 POINTER RIDGE PL, BOWIE, MD, 20716",76400931,"L"
71075,"1532 QUINN RD","COLLIERVILLE","TN",38017,35.0021431810001,-89.661753563,75,"1532 QUINN RD, COLLIERVILLE, TN, 38017","Match","Exact","1532 QUINN RD, COLLIERVILLE, TN, 38017",652415937,"L"
71076,"1532 ROSEWOOD TERRACE","NEW BRAUNFELS","TX",78132,29.7352771830001,-98.126171057,76,"1532 ROSEWOOD TERRACE, NEW BRAUNFELS, TX, 78132","Match","Exact","1532 ROSEWOOD TER, NEW BRAUNFELS, TX, 78132",72244797,"R"
71077,"1532 S 52ND STREET","PHILADELPHIA","PA",19143,39.9389750500001,-75.2170510619999,77,"1532 S 52ND STREET, PHILADELPHIA, PA, 19143","Match","Exact","1532 S 52ND ST, PHILADELPHIA, PA, 19143",131400087,"R"
71078,"1532 SAN BERNARDINO AVE STE A2","POMONA","CA",91767,34.0758730360001,-117.720323854,78,"1532 SAN BERNARDINO AVE STE A2, POMONA, CA, 91767","Match","Exact","1532 SAN BERNARDINO AVE, POMONA, CA, 91767",141734822,"R"
71079,"1532 SCENIC WAY","AKRON","OH",44310,41.1137140590001,-81.4883208219999,79,"1532 SCENIC WAY, AKRON, OH, 44310","Match","Exact","1532 SCENIC WAY, AKRON, OH, 44310",61348380,"L"
71080,"1532 SEABRIGHT AVE","GROVER BEACH","CA",93433,35.116996054,-120.612793948,80,"1532 SEABRIGHT AVE, GROVER BEACH, CA, 93433","Match","Exact","1532 SEABRIGHT AVE, GROVER BEACH, CA, 93433",109741838,"L"
71081,"1532 SPRING VALLEY COMMON","LIVERMORE","CA",94551,37.7083021620001,-121.747315796,81,"1532 SPRING VALLEY COMMON, LIVERMORE, CA, 94551","Match","Exact","1532 SPRING VALLEY CMN, LIVERMORE, CA, 94551",125042963,"L"
71082,"1532 STARLIGHT DRIVE","FERGUSON","MO",63135,38.769125172,-90.2927080159999,82,"1532 STARLIGHT DRIVE, FERGUSON, MO, 63135","Match","Exact","1532 STARLIGHT DR, FERGUSON, MO, 63135",100173120,"R"
71083,"1532 US HWY 41 BYPASS S UNIT 155","VENICE","FL",34293,NA,NA,83,"1532 US HWY 41 BYPASS S UNIT 155, VENICE, FL, 34293","No_Match",NA,NA,NA,NA
71084,"1532 US ROUTE 6","OTTAWA","IL",61350,41.353717644,-88.8688753979999,84,"1532 US ROUTE 6, OTTAWA, IL, 61350","Match","Non_Exact","1532 US HWY 6, OTTAWA, IL, 61350",616664803,"R"
71085,"15320 CHISUM TRAIL","PENN VALLEY","CA",95946,39.2598977490001,-121.206846054,85,"15320 CHISUM TRAIL, PENN VALLEY, CA, 95946","Match","Exact","15320 CHISUM TRL, PENN VALLEY, CA, 95946",106559808,"L"
71086,"15320 CHOWNING TAVERN LANE","CHARLOTTE","NC",28262,35.3502085980001,-80.7101366759999,86,"15320 CHOWNING TAVERN LANE, CHARLOTTE, NC, 28262","Match","Exact","15320 CHOWNING TAVERN LN, CHARLOTTE, NC, 28262",70562327,"L"
71087,"15320 MILL CREEK BLVD APT X101","MILL CREEK","WA",98012,47.8577907820001,-122.214540096,87,"15320 MILL CREEK BLVD APT X101, MILL CREEK, WA, 98012","Match","Exact","15320 MILL CREEK BLVD, MILL CREEK, WA, 98012",653533386,"L"
71088,"15320 NW CENTRAL DR STE D6","PORTLAND","OR",97229,45.554533022,-122.834949026,88,"15320 NW CENTRAL DR STE D6, PORTLAND, OR, 97229","Match","Non_Exact","15320 NW CENTRAL DR, PORTLAND, OR, 97229",158224775,"R"
71089,"15320 PINE ORCHARD DRIVE  1H","SILVER SPRING","MD",20906,39.107615803,-77.06338111,89,"15320 PINE ORCHARD DRIVE  1H, SILVER SPRING, MD, 20906","Match","Exact","15320 PINE ORCHARD DR, SILVER SPRING, MD, 20906",62060283,"L"
71090,"15321 KENNETT SQUARE WAY","BRANDYWINE","MD",20613,38.6785123870001,-76.886009351,90,"15321 KENNETT SQUARE WAY, BRANDYWINE, MD, 20613","Match","Exact","15321 KENNETT SQUARE WAY, BRANDYWINE, MD, 20613",624428307,"L"
71091,"15322 BRONCO WAY","WOODBRIDGE","VA",22193,38.620542576,-77.3110593769999,91,"15322 BRONCO WAY, WOODBRIDGE, VA, 22193","Match","Exact","15322 BRONCO WAY, WOODBRIDGE, VA, 22193",640843704,"R"
71092,"15322 S HALLET","OLATHE","KS",66062,38.8504879020001,-94.749141924,92,"15322 S HALLET, OLATHE, KS, 66062","Match","Non_Exact","15322 S HALLET ST, OLATHE, KS, 66062",632556904,"L"
71093,"15323 GREENHILL RD","CLEVELAND","OH",44111,41.4466816410001,-81.805260456,93,"15323 GREENHILL RD, CLEVELAND, OH, 44111","Match","Exact","15323 GREENHILL RD, CLEVELAND, OH, 44111",61102082,"L"
71094,"15323 OLD OAK DR","STRONGSVILLE","OH",44149,41.3041170760001,-81.862150023,94,"15323 OLD OAK DR, STRONGSVILLE, OH, 44149","Match","Exact","15323 OLD OAK DR, STRONGSVILLE, OH, 44149",61160789,"L"
71095,"15323 SCOTCHTOWN RD","MONTPELIER","VA",23192,NA,NA,95,"15323 SCOTCHTOWN RD, MONTPELIER, VA, 23192","No_Match",NA,NA,NA,NA
71096,"15324 228TH ST SE","SNOHOMISH","WA",98296,47.7901894020001,-122.025594662,96,"15324 228TH ST SE, SNOHOMISH, WA, 98296","Match","Exact","15324 228TH ST SE, SNOHOMISH, WA, 98296",187767929,"R"
71097,"15324 BRANDYWINE RD","BRANDYWINE","MD",20613,38.6788986190001,-76.8106400889999,97,"15324 BRANDYWINE RD, BRANDYWINE, MD, 20613","Match","Exact","15324 BRANDYWINE RD, BRANDYWINE, MD, 20613",76384328,"R"
71098,"15324 HITCHING POST ST","MORENO VALLEY","CA",92555,NA,NA,98,"15324 HITCHING POST ST, MORENO VALLEY, CA, 92555","No_Match",NA,NA,NA,NA
71099,"15324 LAKESHORE ROAD","KENT","NY",14477,43.371424055,-78.119062137,99,"15324 LAKESHORE ROAD, KENT, NY, 14477","Match","Exact","15324 LAKESHORE RD, KENT, NY, 14477",48808915,"L"
71100,"15324 SOUTH 2ND STREET","BENNINGTON","NE",68007,41.3632505730001,-96.1546485059999,100,"15324 SOUTH 2ND STREET, BENNINGTON, NE, 68007","Match","Exact","15324 S 2ND ST, BENNINGTON, NE, 68007",116965791,"R"
71101,"15325 BELLAIRE BLVD","HOUSTON","TX",77083,29.6997279890001,-95.6574859309999,101,"15325 BELLAIRE BLVD, HOUSTON, TX, 77083","Match","Exact","15325 BELLAIRE BLVD, HOUSTON, TX, 77083",96607902,"R"
71102,"15325 BOICHOT RD","LANSING","MI",48906,42.794405775,-84.532937421,102,"15325 BOICHOT RD, LANSING, MI, 48906","Match","Exact","15325 BOICHOT RD, LANSING, MI, 48906",17299891,"L"
71103,"15325 CHICAGO RD UNIT 11","DOLTON","IL",60419,41.6167822950001,-87.60740605,103,"15325 CHICAGO RD UNIT 11, DOLTON, IL, 60419","Match","Exact","15325 CHICAGO RD, DOLTON, IL, 60419",605705483,"L"
71104,"15325 S BUTTERCUP COURT","PLAINFIELD","IL",60544,41.6034398580001,-88.232243743,104,"15325 S BUTTERCUP COURT, PLAINFIELD, IL, 60544","Match","Exact","15325 BUTTERCUP CT, PLAINFIELD, IL, 60544",111533331,"R"
71105,"15325 VINE ST","HARVEY","IL",60426,41.6112124160001,-87.654310249,105,"15325 VINE ST, HARVEY, IL, 60426","Match","Non_Exact","15325 VINE AVE, HARVEY, IL, 60426",111705695,"L"
71106,"15326 79TH COURT N","LOXAHATCHEE","FL",33470,26.7943022590001,-80.2831440859999,106,"15326 79TH COURT N, LOXAHATCHEE, FL, 33470","Match","Exact","15326 79TH CT N, LOXAHATCHEE, FL, 33470",115548533,"R"
71107,"15326 SW THAMES LN","TIGARD","OR",97224,45.4109095490001,-122.83481561,107,"15326 SW THAMES LN, TIGARD, OR, 97224","Match","Exact","15326 SW THAMES LN, TIGARD, OR, 97224",649032226,"L"
71108,"15327 BLACKSMITH TERRACE","WOODBRIDGE","VA",22191,38.618942191,-77.2722066919999,108,"15327 BLACKSMITH TERRACE, WOODBRIDGE, VA, 22191","Match","Exact","15327 BLACKSMITH TER, WOODBRIDGE, VA, 22191",207153249,"L"
71109,"15328 SE 48TH DR","BELLEVUE","WA",98006,47.5594911910001,-122.133888895,109,"15328 SE 48TH DR, BELLEVUE, WA, 98006","Match","Exact","15328 SE 48TH DR, BELLEVUE, WA, 98006",239764762,"L"
71110,"1533 13TH ST W","DICKINSON","ND",58601,46.8950637730001,-102.808605489,110,"1533 13TH ST W, DICKINSON, ND, 58601","Match","Exact","1533 13TH ST W, DICKINSON, ND, 58601",199273740,"R"
71111,"1533 73RD STREET APT 2R","BROOKLYN","NY",11228,40.6183387720001,-74.001031826,111,"1533 73RD STREET APT 2R, BROOKLYN, NY, 11228","Match","Exact","1533 73RD ST, BROOKLYN, NY, 11228",59088015,"L"
71112,"1533 73RD STREET APT 2R","BRROOKLYN","NY",11228,40.6183387720001,-74.001031826,112,"1533 73RD STREET APT 2R, BRROOKLYN, NY, 11228","Match","Non_Exact","1533 73RD ST, BROOKLYN, NY, 11228",59088015,"L"
71113,"1533 7TH STREET STE 210","SANGER","CA",93657,36.706121035,-119.55912794,113,"1533 7TH STREET STE 210, SANGER, CA, 93657","Match","Exact","1533 7TH ST, SANGER, CA, 93657",197591006,"L"
71114,"1533 CADILLIC BLVD","DETROIT","MI",48214,42.3629520150001,-82.983175987,114,"1533 CADILLIC BLVD, DETROIT, MI, 48214","Match","Non_Exact","1533 CADILLAC BLVD, DETROIT, MI, 48214",95485261,"L"
71115,"1533 CARMELA CT","FORT COLLINS","CO",80526,40.537597443,-105.104001254,115,"1533 CARMELA CT, FORT COLLINS, CO, 80526","Match","Exact","1533 CARMELA CT, FORT COLLINS, CO, 80526",188543361,"L"
71116,"1533 E 14TH STREET","NATIONAL CITY","CA",91950,32.6750761010001,-117.089181768,116,"1533 E 14TH STREET, NATIONAL CITY, CA, 91950","Match","Exact","1533 E 14TH ST, NATIONAL CITY, CA, 91950",195352524,"L"
71117,"1533 E 65TH ST 3E","CHICAGO","IL",60637,41.7769559980001,-87.5879639679999,117,"1533 E 65TH ST 3E, CHICAGO, IL, 60637","Match","Non_Exact","1533 E 65TH ST, CHICAGO, IL, 60637",637492877,"R"
71118,"1533 EAST ROYAL PALM ROAD","PHOENIX","AZ",85020,33.5560156450001,-112.049317513,118,"1533 EAST ROYAL PALM ROAD, PHOENIX, AZ, 85020","Match","Exact","1533 E ROYAL PALM RD, PHOENIX, AZ, 85020",616882583,"L"
71119,"1533 EAST STATE HWY 276 CITY HALL","WEST TAWAKONI","TX",75474,32.9037619310001,-96.1052381649999,119,"1533 EAST STATE HWY 276 CITY HALL, WEST TAWAKONI, TX, 75474","Match","Non_Exact","1533 STATE HWY 276, WEST TAWAKONI, TX, 75474",42850347,"R"
71120,"1533 FLATBUSH AVENUE 2","BROOKLYN","NY",11210,40.6334010210001,-73.9482508579999,120,"1533 FLATBUSH AVENUE 2, BROOKLYN, NY, 11210","Match","Exact","1533 FLATBUSH AVE, BROOKLYN, NY, 11210",59081721,"L"
71121,"1533 FLATBUSH AVENUE","BROOKLYN","NY",11210,40.6334010210001,-73.9482508579999,121,"1533 FLATBUSH AVENUE, BROOKLYN, NY, 11210","Match","Exact","1533 FLATBUSH AVE, BROOKLYN, NY, 11210",59081721,"L"
71122,"1533 GLENWOOD COURT","ESCALON","CA",95320,37.7864840130001,-120.993988238,122,"1533 GLENWOOD COURT, ESCALON, CA, 95320","Match","Exact","1533 GLENWOOD CT, ESCALON, CA, 95320",133870593,"R"
71123,"1533 HASSOCK STREET","FAR ROCKAWAY","NY",11691,40.608460048,-73.7528837629999,123,"1533 HASSOCK STREET, FAR ROCKAWAY, NY, 11691","Match","Exact","1533 HASSOCK ST, FAR ROCKAWAY, NY, 11691",59723073,"L"
71124,"1533 HAVEN CREST DR","POWDER SPGS","GA",30127,33.914823605,-84.708657736,124,"1533 HAVEN CREST DR, POWDER SPGS, GA, 30127","Match","Exact","1533 HAVEN CREST DR, POWDER SPGS, GA, 30127",17228752,"L"
71125,"1533 HOLLYROOD RD","PITTSBURGH","PA",15227,40.3626616170001,-79.962357809,125,"1533 HOLLYROOD RD, PITTSBURGH, PA, 15227","Match","Non_Exact","1533 HOLLYROOD DR, PITTSBURGH, PA, 15227",51651541,"L"
71126,"1533 HWY 133","CARBONDALE","CO",81623,39.3964090970001,-107.213216979,126,"1533 HWY 133, CARBONDALE, CO, 81623","Match","Non_Exact","1533 STATE HWY 133, CARBONDALE, CO, 81623",632438385,"L"
71127,"1533 JAMESTOWN DRIVE","MURRAY","UT",84121,40.6369489800001,-111.848208997,127,"1533 JAMESTOWN DRIVE, MURRAY, UT, 84121","Match","Non_Exact","1533 E JAMESTOWN DR, MURRAY, UT, 84121",176087511,"L"
71128,"1533 LAUREL WOOD WAY","FREDERICK","MD",21701,39.4492097360001,-77.381530572,128,"1533 LAUREL WOOD WAY, FREDERICK, MD, 21701","Match","Exact","1533 LAUREL WOOD WAY, FREDERICK, MD, 21701",604957554,"L"
71129,"1533 LONE OAK CT APT 108","VIRGINIA BEACH","VA",23454,NA,NA,129,"1533 LONE OAK CT APT 108, VIRGINIA BEACH, VA, 23454","No_Match",NA,NA,NA,NA
71130,"1533 MILEGROUND RD SUITE D","MORGANTOWN","WV",26505,39.6375112690001,-79.9384023379999,130,"1533 MILEGROUND RD SUITE D, MORGANTOWN, WV, 26505","Match","Exact","1533 MILEGROUND RD, MORGANTOWN, WV, 26505",50742374,"L"
71131,"1533 MINERAL SPRINGS ROAD","PELL CITY","AL",35125,33.609246705,-86.316381058,131,"1533 MINERAL SPRINGS ROAD, PELL CITY, AL, 35125","Match","Exact","1533 MINERAL SPRINGS RD, PELL CITY, AL, 35125",66897433,"L"
71132,"1533 N SANDBURG TERRACE","CHICAGO","IL",60610,NA,NA,132,"1533 N SANDBURG TERRACE, CHICAGO, IL, 60610","No_Match",NA,NA,NA,NA
71133,"1533 N WINDSOR DRIVE APT 116","ARLINGTON HEIGHTS","IL",60074,NA,NA,133,"1533 N WINDSOR DRIVE APT 116, ARLINGTON HEIGHTS, IL, 60074","No_Match",NA,NA,NA,NA
71134,"1533 NANTUCKET ROAD","VENICE","FL",34293,27.0510050190001,-82.430407045,134,"1533 NANTUCKET ROAD, VENICE, FL, 34293","Match","Exact","1533 NANTUCKET RD, VENICE, FL, 34293",16404075,"L"
71135,"1533 ORR STREET","MEMPHIS","TN",38108,35.1742634760001,-89.954708323,135,"1533 ORR STREET, MEMPHIS, TN, 38108","Match","Exact","1533 ORR ST, MEMPHIS, TN, 38108",72914266,"L"
71136,"1533 PLACER WAY","SALINAS","CA",93906,36.708046772,-121.643091373,136,"1533 PLACER WAY, SALINAS, CA, 93906","Match","Exact","1533 PLACER WAY, SALINAS, CA, 93906",196861018,"L"
71137,"1533 RAYMOND RD APT 187","JACKSON","MS",39204,32.280861982,-90.255969253,137,"1533 RAYMOND RD APT 187, JACKSON, MS, 39204","Match","Exact","1533 RAYMOND RD, JACKSON, MS, 39204",611221481,"L"
71138,"1533 S 21ST ST APT 5","LINCOLN","NE",68502,40.7974687010001,-96.690600653,138,"1533 S 21ST ST APT 5, LINCOLN, NE, 68502","Match","Non_Exact","1533 S 21ST ST, LINCOLN, NE, 68502",28255411,"R"
71139,"1533 S RIVERWOOD DRIVE","WABASH","IN",46992,40.801512931,-85.7765935479999,139,"1533 S RIVERWOOD DRIVE, WABASH, IN, 46992","Match","Exact","1533 S RIVERWOOD DR, WABASH, IN, 46992",647422174,"R"
71140,"1533 SE MAIN ST","PORTLAND","OR",97214,45.513631231,-122.65026437,140,"1533 SE MAIN ST, PORTLAND, OR, 97214","Match","Exact","1533 SE MAIN ST, PORTLAND, OR, 97214",157509084,"L"
71141,"1533 SOUTH BOUVIER ST","PHILADELPHIA","PA",19146,39.93211562,-75.174009429,141,"1533 SOUTH BOUVIER ST, PHILADELPHIA, PA, 19146","Match","Exact","1533 S BOUVIER ST, PHILADELPHIA, PA, 19146",652294908,"L"
71142,"1533 STATE STREET","SCHENECTADY","NY",12304,42.789987712,-73.9147733889999,142,"1533 STATE STREET, SCHENECTADY, NY, 12304","Match","Exact","1533 STATE ST, SCHENECTADY, NY, 12304",18030289,"L"
71143,"1533 SURRY HILL CT","CHARLOTTESVILLE","VA",22901,38.079276845,-78.461434222,143,"1533 SURRY HILL CT, CHARLOTTESVILLE, VA, 22901","Match","Exact","1533 SURRY HILL CT, CHARLOTTESVILLE, VA, 22901",83375184,"L"
71144,"1533 SW JOSHUA ST","PORTLAND","OR",97219,45.438023135,-122.693866943,144,"1533 SW JOSHUA ST, PORTLAND, OR, 97219","Match","Exact","1533 SW JOSHUA ST, PORTLAND, OR, 97219",624103538,"L"
71145,"1533 TOBOGGAN","MANASQUAN","NJ",8736,40.110408766,-74.08451676,145,"1533 TOBOGGAN, MANASQUAN, NJ, 8736","Match","Non_Exact","1533 TOBOGGAN RUN, MANASQUAN, NJ, 08736",90467131,"R"
71146,"1533 US HIGHWAY 1","VERO BEACH","FL",32960,27.6299455010001,-80.3892302259999,146,"1533 US HIGHWAY 1, VERO BEACH, FL, 32960","Match","Exact","1533 US HWY 1, VERO BEACH, FL, 32960",652245296,"L"
71147,"1533 W 12TH AVE","HUTCHINSON","KS",67501,38.066457617,-97.9601773209999,147,"1533 W 12TH AVE, HUTCHINSON, KS, 67501","Match","Exact","1533 W 12TH AVE, HUTCHINSON, KS, 67501",142934101,"R"
71148,"1533 W HIGH ST","STOWE","PA",19464,40.245584136,-75.685763299,148,"1533 W HIGH ST, STOWE, PA, 19464","Match","Exact","1533 W HIGH ST, STOWE, PA, 19464",135060817,"R"
71149,"1533 W JARVIS AVE APT 411","CHICAGO","IL",60626,42.0160070700001,-87.6694713109999,149,"1533 W JARVIS AVE APT 411, CHICAGO, IL, 60626","Match","Non_Exact","1533 W JARVIS AVE, CHICAGO, IL, 60626",111745204,"L"
71150,"1533 W OAK ST STE 140","ZIONSVILLE","IN",46077,39.9500590440001,-86.280696026,150,"1533 W OAK ST STE 140, ZIONSVILLE, IN, 46077","Match","Non_Exact","1533 W OAK ST, ZIONSVILLE, IN, 46077",610974692,"R"
71151,"1533 W STILES ST","PHILADELPHIA","PA",19121,39.9726787110001,-75.1614959199999,151,"1533 W STILES ST, PHILADELPHIA, PA, 19121","Match","Exact","1533 W STILES ST, PHILADELPHIA, PA, 19121",131406271,"R"
71152,"1533 WINGO LN","BOURBONNAIS","IL",60914,41.1671309160001,-87.8433584919999,152,"1533 WINGO LN, BOURBONNAIS, IL, 60914","Match","Exact","1533 WINGO LN, BOURBONNAIS, IL, 60914",98368662,"R"
71153,"15330 AMERICAN WAY","GAITHERSBURG","MD",20878,39.1072511350001,-77.236231916,153,"15330 AMERICAN WAY, GAITHERSBURG, MD, 20878","Match","Exact","15330 AMERICAN WAY, GAITHERSBURG, MD, 20878",62048754,"L"
71154,"15330 ELLA BLVD UNIT 901","HOUSTON","TX",77090,29.9903805020001,-95.431149493,154,"15330 ELLA BLVD UNIT 901, HOUSTON, TX, 77090","Match","Exact","15330 ELLA BLVD, HOUSTON, TX, 77090",642110812,"R"
71155,"15330 SW 49TH STREET","MIRAMAR","FL",33027,25.9636957050001,-80.3497826129999,155,"15330 SW 49TH STREET, MIRAMAR, FL, 33027","Match","Exact","15330 SW 49TH ST, MIRAMAR, FL, 33027",114778056,"L"
71156,"15330 TRUMAN STREET 8","OTTUMWA","IA",52501,NA,NA,156,"15330 TRUMAN STREET 8, OTTUMWA, IA, 52501","No_Match",NA,NA,NA,NA
71157,"15331 CAPE DR N","JACKSONVILLE","FL",32226,30.5179139860001,-81.571993753,157,"15331 CAPE DR N, JACKSONVILLE, FL, 32226","Match","Exact","15331 CAPE DR N, JACKSONVILLE, FL, 32226",636331836,"R"
71158,"15331 FORRER ST","DETROIT","MI",48227,42.4020453890001,-83.2015831429999,158,"15331 FORRER ST, DETROIT, MI, 48227","Match","Exact","15331 FORRER ST, DETROIT, MI, 48227",95423788,"L"
71159,"15331 SE EVERGREEN HWY","VANCOUVER","WA",98683,45.591587926,-122.514057233,159,"15331 SE EVERGREEN HWY, VANCOUVER, WA, 98683","Match","Exact","15331 SE EVERGREEN HWY, VANCOUVER, WA, 98683",649872193,"R"
71160,"15331 W  BELL RD 212","SURPRISE","AZ",85374,NA,NA,160,"15331 W  BELL RD 212, SURPRISE, AZ, 85374","No_Match",NA,NA,NA,NA
71161,"15332 ANTIOCH STREET - NO 303","PACIFIC PALISADES","CA",90272,34.0470089310001,-118.526336618,161,"15332 ANTIOCH STREET - NO 303, PACIFIC PALISADES, CA, 90272","Match","Exact","15332 ANTIOCH ST, PACIFIC PALISADES, CA, 90272",141558497,"L"
71162,"15332 ANTIOCH STREET SUITE 517","PACIFIC PALISADES","CA",90272,34.0470089310001,-118.526336618,162,"15332 ANTIOCH STREET SUITE 517, PACIFIC PALISADES, CA, 90272","Match","Exact","15332 ANTIOCH ST, PACIFIC PALISADES, CA, 90272",141558497,"L"
71163,"15332 BEALFRED DR","FENTON","MI",48430,42.8029320850001,-83.740784987,163,"15332 BEALFRED DR, FENTON, MI, 48430","Match","Exact","15332 BEALFRED DR, FENTON, MI, 48430",69579255,"L"
71164,"15333 CLEVELAND AVE","CAMPTONVILLE","CA",95922,39.4524730310001,-121.051229073,164,"15333 CLEVELAND AVE, CAMPTONVILLE, CA, 95922","Match","Exact","15333 CLEVELAND AVE, CAMPTONVILLE, CA, 95922",649780754,"R"
71165,"15333 CULVER DR STE 340S","IRVINE","CA",92604,NA,NA,165,"15333 CULVER DR STE 340S, IRVINE, CA, 92604","No_Match",NA,NA,NA,NA
71166,"15333 CULVER DRIVE STE 340 3D","IRVINE","CA",92604,NA,NA,166,"15333 CULVER DRIVE STE 340 3D, IRVINE, CA, 92604","No_Match",NA,NA,NA,NA
71167,"15333 CULVER DRIVE SUITE 340-2124","IRVINE","CA",92604,NA,NA,167,"15333 CULVER DRIVE SUITE 340-2124, IRVINE, CA, 92604","No_Match",NA,NA,NA,NA
71168,"15333 CULVER DRIVE SUITE 340-253","IRVINE","CA",92604,NA,NA,168,"15333 CULVER DRIVE SUITE 340-253, IRVINE, CA, 92604","No_Match",NA,NA,NA,NA
71169,"15333 N PIMA RD STE 205","SCOTTSDALE","AZ",85260,NA,NA,169,"15333 N PIMA RD STE 205, SCOTTSDALE, AZ, 85260","No_Match",NA,NA,NA,NA
71170,"15333 N PIMA RD STE 305","SCOTTSDALE","AZ",85260,NA,NA,170,"15333 N PIMA RD STE 305, SCOTTSDALE, AZ, 85260","No_Match",NA,NA,NA,NA
71171,"15334 AZRA DR","ODESSA","FL",33556,28.183151321,-82.5631316509999,171,"15334 AZRA DR, ODESSA, FL, 33556","Match","Exact","15334 AZRA DR, ODESSA, FL, 33556",625021174,"L"
71172,"15334 HERON DR","NEOSHO","MO",64850,36.8458885580001,-94.455043125,172,"15334 HERON DR, NEOSHO, MO, 64850","Match","Exact","15334 HERON DR, NEOSHO, MO, 64850",55998242,"L"
71173,"15334 TEAL PARK DR","HUJMBLE","TX",77396,29.943793027,-95.266118873,173,"15334 TEAL PARK DR, HUJMBLE, TX, 77396","Match","Non_Exact","15334 TEAL PARK DR, HUMBLE, TX, 77396",96047710,"R"
71174,"15334 TEAL PARK DR","HUMBLE","TX",43701,29.943793027,-95.266118873,174,"15334 TEAL PARK DR, HUMBLE, TX, 43701","Match","Non_Exact","15334 TEAL PARK DR, HUMBLE, TX, 77396",96047710,"R"
71175,"15334 TEAL PARK DR","HUMBLE","TX",77051,29.943793027,-95.266118873,175,"15334 TEAL PARK DR, HUMBLE, TX, 77051","Match","Non_Exact","15334 TEAL PARK DR, HUMBLE, TX, 77396",96047710,"R"
71176,"15334 TEAL PARK DR","HUMBLE","TX",77396,29.943793027,-95.266118873,176,"15334 TEAL PARK DR, HUMBLE, TX, 77396","Match","Exact","15334 TEAL PARK DR, HUMBLE, TX, 77396",96047710,"R"
71177,"15334 TEAL PARKDR","HUMBLE","TX",77396,NA,NA,177,"15334 TEAL PARKDR, HUMBLE, TX, 77396","No_Match",NA,NA,NA,NA
71178,"15334 WHITTIER BLVD 10C","WHITTIER","CA",90603,33.9467415570001,-118.000100506,178,"15334 WHITTIER BLVD 10C, WHITTIER, CA, 90603","Match","Exact","15334 WHITTIER BLVD, WHITTIER, CA, 90603",142652428,"R"
71179,"15334N 144TH AVENUE","SUPRISE","AZ",85379,33.622963156,-112.370229853,179,"15334N 144TH AVENUE, SUPRISE, AZ, 85379","Match","Non_Exact","15334 N 144 AVE, SURPRISE, AZ, 85379",617972410,"L"
71180,"15335 MERION COURT","NORTHVILLE","MI",48168,42.4005503320001,-83.500589054,180,"15335 MERION COURT, NORTHVILLE, MI, 48168","Match","Exact","15335 MERION CT, NORTHVILLE, MI, 48168",95737216,"R"
71181,"15335 MORRISON ST STE 115","SHERMAN OAKS","CA",91403,34.160281937,-118.466924218,181,"15335 MORRISON ST STE 115, SHERMAN OAKS, CA, 91403","Match","Exact","15335 MORRISON ST, SHERMAN OAKS, CA, 91403",141560580,"R"
71182,"15335 SIENNA OAK DR","CYPRESS","TX",77433,30.009441128,-95.754155532,182,"15335 SIENNA OAK DR, CYPRESS, TX, 77433","Match","Exact","15335 SIENNA OAK DR, CYPRESS, TX, 77433",624800775,"R"
71183,"15336 BILTMORE","DETROI","MI",48227,42.401952586,-83.2103856369999,183,"15336 BILTMORE, DETROI, MI, 48227","Match","Non_Exact","15336 BILTMORE ST, DETROIT, MI, 48227",95423694,"R"
71184,"15336 MESA ESTATES COURT","RAMONA","CA",92065,32.988601386,-116.783795093,184,"15336 MESA ESTATES COURT, RAMONA, CA, 92065","Match","Exact","15336 MESA ESTATES CT, RAMONA, CA, 92065",195462084,"R"
71185,"15338 FALCON CREST COURT","SAN DIEGO","CA",92127,33.0044105210001,-117.103282786,185,"15338 FALCON CREST COURT, SAN DIEGO, CA, 92127","Match","Exact","15338 FALCON CREST CT, SAN DIEGO, CA, 92127",612890754,"R"
71186,"15339 WIMBORNE LN","NAPLES","FL",34110,26.311372094,-81.8200299869999,186,"15339 WIMBORNE LN, NAPLES, FL, 34110","Match","Exact","15339 WIMBORNE LN, NAPLES, FL, 34110",115191704,"R"
71187,"1534 ARCO DE GOYA","LAS CRUCES","NM",88007,32.316496396,-106.871036278,187,"1534 ARCO DE GOYA, LAS CRUCES, NM, 88007","Match","Exact","1534 ARCO DE GOYA, LAS CRUCES, NM, 88007",627535364,"L"
71188,"1534 BATEAU LANDING","CHESAPEAKE","VA",23321,36.7991364160001,-76.4234215719999,188,"1534 BATEAU LANDING, CHESAPEAKE, VA, 23321","Match","Exact","1534 BATEAU LNDG, CHESAPEAKE, VA, 23321",121793617,"R"
71189,"1534 BRIDGET COURT","UPLAND","CA",91784,34.123693476,-117.679341304,189,"1534 BRIDGET COURT, UPLAND, CA, 91784","Match","Exact","1534 BRIDGET CT, UPLAND, CA, 91784",144669586,"L"
71190,"1534 CHAPMAN STREET","CEDAR HILL","TX",75104,32.623663939,-96.953634168,190,"1534 CHAPMAN STREET, CEDAR HILL, TX, 75104","Match","Exact","1534 CHAPMAN ST, CEDAR HILL, TX, 75104",103280280,"R"
71191,"1534 CLARK DR","YARDLEY","PA",19067,40.22635476,-74.866714862,191,"1534 CLARK DR, YARDLEY, PA, 19067","Match","Exact","1534 CLARK DR, YARDLEY, PA, 19067",134741789,"L"
71192,"1534 DEVONHURST DRIVE","COLUMBUS","OH",43232,39.946386294,-82.8519683549999,192,"1534 DEVONHURST DRIVE, COLUMBUS, OH, 43232","Match","Exact","1534 DEVONHURST DR, COLUMBUS, OH, 43232",218678912,"L"
71193,"1534 E COUNTY ROAD 800 N","SPRINGPORT","IN",47386,40.047458174,-85.3562732359999,193,"1534 E COUNTY ROAD 800 N, SPRINGPORT, IN, 47386","Match","Exact","1534 E CO RD 800 N, SPRINGPORT, IN, 47386",29998024,"L"
71194,"1534 EAST AVE","BAXTER SPRINGS","KS",66713,37.0201073760001,-94.7342867849999,194,"1534 EAST AVE, BAXTER SPRINGS, KS, 66713","Match","Exact","1534 EAST AVE, BAXTER SPGS, KS, 66713",65897942,"R"
71195,"1534 EAST AVENUE","BAXTER SPRINGS","KS",66713,37.0201073760001,-94.7342867849999,195,"1534 EAST AVENUE, BAXTER SPRINGS, KS, 66713","Match","Exact","1534 EAST AVE, BAXTER SPGS, KS, 66713",65897942,"R"
71196,"1534 GARDEN VISTA GROVE","COLORADO SPRINGS","CO",80904,38.830359866,-104.860667878,196,"1534 GARDEN VISTA GROVE, COLORADO SPRINGS, CO, 80904","Match","Exact","1534 GARDEN VISTA GROVE, COLORADO SPRINGS, CO, 80904",610730939,"L"
71197,"1534 GROVE STREET","BOULDER","CO",80302,40.015407215,-105.274452085,197,"1534 GROVE STREET, BOULDER, CO, 80302","Match","Exact","1534 GROVE ST, BOULDER, CO, 80302",188159850,"R"
71198,"1534 LAGUNA LANE","LAKEWOOD","NJ",8701,40.094021039,-74.1597232299999,198,"1534 LAGUNA LANE, LAKEWOOD, NJ, 8701","Match","Exact","1534 LAGUNA LN, LAKEWOOD, NJ, 08701",203724571,"R"
71199,"1534 LAKEVIEW DR APT 215","DARIEN","IL",60561,41.7394015940001,-87.9814640339999,199,"1534 LAKEVIEW DR APT 215, DARIEN, IL, 60561","Match","Exact","1534 LAKEVIEW DR, DARIEN, IL, 60561",112667412,"L"
71200,"1534 LANTERNS REST RD UNIT 202","MYRTLE BEACH","SC",29579,33.697202421,-78.956358238,200,"1534 LANTERNS REST RD UNIT 202, MYRTLE BEACH, SC, 29579","Match","Exact","1534 LANTERNS REST RD, MYRTLE BEACH, SC, 29579",631203824,"R"
71201,"1534 LIME LEAF LN","DUNCANVILLE","TX",75137,32.631746649,-96.896398028,201,"1534 LIME LEAF LN, DUNCANVILLE, TX, 75137","Match","Exact","1534 LIME LEAF LN, DUNCANVILLE, TX, 75137",103280199,"L"
71202,"1534 MADSON AVENUE","BRIDGEPORT","CT",6606,41.1998899930001,-73.212561678,202,"1534 MADSON AVENUE, BRIDGEPORT, CT, 6606","Match","Non_Exact","1534 MADISON AVE, BRIDGEPORT, CT, 06606",3223118,"R"
71203,"1534 N RECKER ROAD","MESA","AZ",85205,33.4433132450001,-111.701631888,203,"1534 N RECKER ROAD, MESA, AZ, 85205","Match","Exact","1534 N RECKER RD, MESA, AZ, 85205",128925805,"L"
71204,"1534 NEVADA ST UNIT B","HOUSTON","TX",77006,29.750772741,-95.3992684899999,204,"1534 NEVADA ST UNIT B, HOUSTON, TX, 77006","Match","Exact","1534 NEVADA ST, HOUSTON, TX, 77006",96062176,"R"
71205,"1534 QUADRANT AVENUE","LOUISVILLE","KY",40205,38.2292808940001,-85.7118145269999,205,"1534 QUADRANT AVENUE, LOUISVILLE, KY, 40205","Match","Exact","1534 QUADRANT AVE, LOUISVILLE, KY, 40205",96847374,"R"
71206,"1534 RAGEN APT 101","MEMPHIS","TN",38116,NA,NA,206,"1534 RAGEN APT 101, MEMPHIS, TN, 38116","No_Match",NA,NA,NA,NA
71207,"1534 RIVERWALK PARKWAY","ROCK HILL","SC",29730,34.97361454,-80.96752749,207,"1534 RIVERWALK PARKWAY, ROCK HILL, SC, 29730","Match","Exact","1534 RIVERWALK PKWY, ROCK HILL, SC, 29730",645272270,"R"
71208,"1534 RUAN STREET","PHILADELPHIA","PA",19124,40.010799578,-75.090528924,208,"1534 RUAN STREET, PHILADELPHIA, PA, 19124","Match","Exact","1534 RUAN ST, PHILADELPHIA, PA, 19124",131427782,"R"
71209,"1534 SCHARPE","HOUSTON","TX",77023,29.7252563910001,-95.329199704,209,"1534 SCHARPE, HOUSTON, TX, 77023","Match","Non_Exact","1534 SCHARPE ST, HOUSTON, TX, 77023",96081906,"R"
71210,"1534 SOUTH GREEN ROAD","SOUTH EUCLID","OH",44121,41.5181719380001,-81.519422062,210,"1534 SOUTH GREEN ROAD, SOUTH EUCLID, OH, 44121","Match","Exact","1534 S GREEN RD, SOUTH EUCLID, OH, 44121",61125718,"R"
71211,"1534 TAMARACK ST","MISSOULA","MT",59802,46.906959934,-113.958754967,211,"1534 TAMARACK ST, MISSOULA, MT, 59802","Match","Exact","1534 TAMARACK ST, MISSOULA, MT, 59802",205236203,"R"
71212,"1534 UPPER BIG CREEK","SIAS","WV",25506,NA,NA,212,"1534 UPPER BIG CREEK, SIAS, WV, 25506","No_Match",NA,NA,NA,NA
71213,"1534 WEST 2250 N RD","BOURBONNAIS","IL",60914,41.1514674740001,-87.904439926,213,"1534 WEST 2250 N RD, BOURBONNAIS, IL, 60914","Match","Non_Exact","1534 W 2250N RD, BOURBONNAIS, IL, 60914",635499947,"L"
71214,"1534 WOODLAND DRIVE","PORTAGE","MI",49024,42.211822124,-85.6073468499999,214,"1534 WOODLAND DRIVE, PORTAGE, MI, 49024","Match","Exact","1534 WOODLAND DR, PORTAGE, MI, 49024",12225679,"R"
71215,"15340 98TH TRAIL N","JUPITER","FL",33478,26.9032287790001,-80.190374274,215,"15340 98TH TRAIL N, JUPITER, FL, 33478","Match","Exact","15340 98TH TRL N, JUPITER, FL, 33478",115524240,"L"
71216,"15340 BILTMORE","DETROIT","MI",48227,42.4020146070001,-83.210388532,216,"15340 BILTMORE, DETROIT, MI, 48227","Match","Non_Exact","15340 BILTMORE ST, DETROIT, MI, 48227",95423694,"R"
71217,"15340 BLUEFISH CIRCLE","LAKEWOOD RANCH","FL",34202,27.4244654770001,-82.387720029,217,"15340 BLUEFISH CIRCLE, LAKEWOOD RANCH, FL, 34202","Match","Non_Exact","15340 BLUE FISH CIR, LAKEWOOD RCH, FL, 34202",633729756,"L"
71218,"15340 HWY 46","HEFLIN","AL",36264,33.5634596420001,-85.429036788,218,"15340 HWY 46, HEFLIN, AL, 36264","Match","Non_Exact","15340 STATE RTE 46, HEFLIN, AL, 36264",30370112,"L"
71219,"15340 JOG RD STE 215","DELRAY BEACH","FL",33446,26.4492033450001,-80.146916957,219,"15340 JOG RD STE 215, DELRAY BEACH, FL, 33446","Match","Exact","15340 JOG RD, DELRAY BEACH, FL, 33446",653197750,"L"
71220,"15340 MOSS STREET","BROOKSVILLE","FL",34604,28.506885595,-82.4716533879999,220,"15340 MOSS STREET, BROOKSVILLE, FL, 34604","Match","Exact","15340 MOSS ST, BROOKSVILLE, FL, 34604",85436264,"R"
71221,"15340 PENNY AVE","SANDY","OR",97055,45.4126980780001,-122.280230247,221,"15340 PENNY AVE, SANDY, OR, 97055","Match","Exact","15340 PENNY AVE, SANDY, OR, 97055",157989585,"R"
71222,"15340 ROSEMARY BLVD","OAK PARK","MI",48237,42.4649872840001,-83.1986738959999,222,"15340 ROSEMARY BLVD, OAK PARK, MI, 48237","Match","Exact","15340 ROSEMARY BLVD, OAK PARK, MI, 48237",69741165,"R"
71223,"15341 HAYFORD ST","LA MIRADA","CA",90638,33.8890229130001,-118.003809764,223,"15341 HAYFORD ST, LA MIRADA, CA, 90638","Match","Exact","15341 HAYFORD ST, LA MIRADA, CA, 90638",141754837,"L"
71224,"15341","BOSTON","MA",2123,NA,NA,224,"15341, BOSTON, MA, 2123","No_Match",NA,NA,NA,NA
71225,"15342  W TURNEY AVE","GOODYEAR","AZ",85395,33.49876019,-112.387606662,225,"15342  W TURNEY AVE, GOODYEAR, AZ, 85395","Match","Exact","15342 W TURNEY AVE, GOODYEAR, AZ, 85395",243960331,"L"
71226,"15342 HAWTHORNE BLVD SUITE  210","LAWNDALE","CA",90260,33.8917739190001,-118.352355492,226,"15342 HAWTHORNE BLVD SUITE  210, LAWNDALE, CA, 90260","Match","Exact","15342 HAWTHORNE BLVD, LAWNDALE, CA, 90260",241243077,"L"
71227,"15342 HOTCHKISS VALLEY ROAD EAST","LOUDON","TN",37774,35.7865729420001,-84.345032252,227,"15342 HOTCHKISS VALLEY ROAD EAST, LOUDON, TN, 37774","Match","Exact","15342 HOTCHKISS VALLEY RD E, LOUDON, TN, 37774",611312332,"L"
71228,"15344 DEERING","LIVONIA","MI",48154,42.3993803750001,-83.320175057,228,"15344 DEERING, LIVONIA, MI, 48154","Match","Exact","15344 DEERING, LIVONIA, MI, 48154",95419145,"R"
71229,"15345 WOODRUFF PLACE UNIT 8","BELLFLOWER","CA",90706,33.8938310620001,-118.117426448,229,"15345 WOODRUFF PLACE UNIT 8, BELLFLOWER, CA, 90706","Match","Exact","15345 WOODRUFF PL, BELLFLOWER, CA, 90706",142793889,"R"
71230,"15347 VIA LA GITANO","POWAY","CA",92064,32.992968153,-117.057351651,230,"15347 VIA LA GITANO, POWAY, CA, 92064","Match","Exact","15347 VIA LA GITANO, POWAY, CA, 92064",195316664,"R"
71231,"15348 SANDY CT","SPRING HILL","FL",34610,28.413134843,-82.562049724,231,"15348 SANDY CT, SPRING HILL, FL, 34610","Match","Exact","15348 SANDY CT, SPRING HILL, FL, 34610",86363327,"R"
71232,"15349 107TH LOOP SE","YELM","WA",98597,46.931225877,-122.615559935,232,"15349 107TH LOOP SE, YELM, WA, 98597","Match","Exact","15349 107TH LOOP SE, YELM, WA, 98597",180973443,"R"
71233,"1535 14TH AVE S 1","SEATTLE","WA",98144,47.589635474,-122.314861514,233,"1535 14TH AVE S 1, SEATTLE, WA, 98144","Match","Exact","1535 14TH AVE S, SEATTLE, WA, 98144",186593482,"R"
71234,"1535 5TH AVENUE C","SAN RAFAEL","CA",94901,37.9747683350001,-122.534409979,234,"1535 5TH AVENUE C, SAN RAFAEL, CA, 94901","Match","Exact","1535 5TH AVE, SAN RAFAEL, CA, 94901",192764377,"L"
71235,"1535 AIRPORT BOULEVARD","NAPA","CA",94558,NA,NA,235,"1535 AIRPORT BOULEVARD, NAPA, CA, 94558","No_Match",NA,NA,NA,NA
71236,"1535 BOULEVARD WAY","WALNUT CREEK","CA",94595,37.886537038,-122.078243709,236,"1535 BOULEVARD WAY, WALNUT CREEK, CA, 94595","Match","Exact","1535 BOULEVARD WAY, WALNUT CREEK, CA, 94595",192052402,"R"
71237,"1535 BREAKWATER TER","HOLLYWOOD","FL",33019,25.998429118,-80.1272190669999,237,"1535 BREAKWATER TER, HOLLYWOOD, FL, 33019","Match","Exact","1535 BREAKWATER TER, HOLLYWOOD, FL, 33019",114816529,"L"
71238,"1535 BROCKTON LANE SOUTH","MOBILE","AL",36695,30.658891694,-88.2164235979999,238,"1535 BROCKTON LANE SOUTH, MOBILE, AL, 36695","Match","Exact","1535 BROCKTON LN S, MOBILE, AL, 36695",61945656,"R"
71239,"1535 CABANISS LANE","WEATHERFORD","TX",76088,32.8278363380001,-97.910191131,239,"1535 CABANISS LANE, WEATHERFORD, TX, 76088","Match","Exact","1535 CABANISS LN, WEATHERFORD, TX, 76088",635378006,"L"
71240,"1535 CARALEIGH MILLS CT UNIT 109","RALEIGH","NC",27603,35.75921558,-78.652593146,240,"1535 CARALEIGH MILLS CT UNIT 109, RALEIGH, NC, 27603","Match","Exact","1535 CARALEIGH MILLS CT, RALEIGH, NC, 27603",612821505,"L"
71241,"1535 CARAVAN TRL","DALLAS","TX",75241,32.6759374110001,-96.7987109599999,241,"1535 CARAVAN TRL, DALLAS, TX, 75241","Match","Exact","1535 CARAVAN TRL, DALLAS, TX, 75241",102951887,"L"
71242,"1535 CLOUGH PIKE","BATAVIA","OH",45103,39.0643508200001,-84.2180755959999,242,"1535 CLOUGH PIKE, BATAVIA, OH, 45103","Match","Exact","1535 CLOUGH PIKE, BATAVIA, OH, 45103",118454367,"L"
71243,"1535 COLLEGE AVE","PALO ALTO","CA",94306,37.41849617,-122.153966815,243,"1535 COLLEGE AVE, PALO ALTO, CA, 94306","Match","Exact","1535 COLLEGE AVE, PALO ALTO, CA, 94306",122951765,"L"
71244,"1535 COMO AVENUE","ST PAUL","MN",55108,44.9773308250001,-93.164885953,244,"1535 COMO AVENUE, ST PAUL, MN, 55108","Match","Exact","1535 COMO AVE, SAINT PAUL, MN, 55108",97641421,"R"
71245,"1535 CRAIG PLACE","SAN PEDRO","CA",90732,33.7405901610001,-118.312023142,245,"1535 CRAIG PLACE, SAN PEDRO, CA, 90732","Match","Exact","1535 CRAIG PL, SAN PEDRO, CA, 90732",141689977,"L"
71246,"1535 CUNARD ROAD","COLUMBUS","OH",43227,39.940906898,-82.901269101,246,"1535 CUNARD ROAD, COLUMBUS, OH, 43227","Match","Exact","1535 CUNARD RD, COLUMBUS, OH, 43227",218678777,"R"
71247,"1535 CURRY RD","SEGUIN","TX",78155,29.393439234,-98.00103587,247,"1535 CURRY RD, SEGUIN, TX, 78155","Match","Exact","1535 CURRY RD, SEGUIN, TX, 78155",54852968,"L"
71248,"1535 E ARTEMIS TRL","SAN TAN VALLEY","AZ",85140,33.2176102620001,-111.549130661,248,"1535 E ARTEMIS TRL, SAN TAN VALLEY, AZ, 85140","Match","Exact","1535 E ARTEMIS TRL, SAN TAN VALLEY, AZ, 85140",625175160,"L"
71249,"1535 E HORSESHOE AVE","GILBERT","AZ",85296,33.345855204,-111.757160398,249,"1535 E HORSESHOE AVE, GILBERT, AZ, 85296","Match","Exact","1535 E HORSESHOE AVE, GILBERT, AZ, 85296",128783459,"R"
71250,"1535 EAST 74TH STREET","CHICAGO","IL",60619,41.760572569,-87.587551261,250,"1535 EAST 74TH STREET, CHICAGO, IL, 60619","Match","Exact","1535 E 74TH ST, CHICAGO, IL, 60619",605555203,"R"
71251,"1535 EAST IRENE DRIVE","CASA GRANDE","AZ",85122,32.8989855230001,-111.721205249,251,"1535 EAST IRENE DRIVE, CASA GRANDE, AZ, 85122","Match","Exact","1535 E IRENE DR, CASA GRANDE, AZ, 85122",129252005,"R"
71252,"1535 EASY RIDER LN UNIT 201","BOULDER","CO",80304,40.060530607,-105.278558878,252,"1535 EASY RIDER LN UNIT 201, BOULDER, CO, 80304","Match","Exact","1535 EASY RIDER LN, BOULDER, CO, 80304",648159692,"R"
71253,"1535 EDDY STREET 315","SOMERVILLE","MA",2143,NA,NA,253,"1535 EDDY STREET 315, SOMERVILLE, MA, 2143","No_Match",NA,NA,NA,NA
71254,"1535 ELMWOOD AVENUE","FOLCROFT","PA",19032,39.9001480040001,-75.278021598,254,"1535 ELMWOOD AVENUE, FOLCROFT, PA, 19032","Match","Exact","1535 ELMWOOD AVE, FOLCROFT, PA, 19032",134885134,"L"
71255,"1535 FARMERS LANE 129","SANTA ROSA","CA",95405,38.4335969430001,-122.688439639,255,"1535 FARMERS LANE 129, SANTA ROSA, CA, 95405","Match","Exact","1535 FARMERS LN, SANTA ROSA, CA, 95405",67470951,"R"
71256,"1535 FARMERS LANE 343","SANTA ROSA","CA",95405,38.4335969430001,-122.688439639,256,"1535 FARMERS LANE 343, SANTA ROSA, CA, 95405","Match","Exact","1535 FARMERS LN, SANTA ROSA, CA, 95405",67470951,"R"
71257,"1535 FARMERS LANE NBR 264","SANTA ROSA","CA",95405,38.4335969430001,-122.688439639,257,"1535 FARMERS LANE NBR 264, SANTA ROSA, CA, 95405","Match","Exact","1535 FARMERS LN, SANTA ROSA, CA, 95405",67470951,"R"
71258,"1535 FISCHER AVE","MCKINLEYVILLE","CA",95519,40.9323638600001,-124.120149893,258,"1535 FISCHER AVE, MCKINLEYVILLE, CA, 95519","Match","Exact","1535 FISCHER AVE, MCKINLEYVILLE, CA, 95519",113045505,"R"
71259,"1535 FM 499","CUMBY","TX",75433,33.1373890680001,-95.825966385,259,"1535 FM 499, CUMBY, TX, 75433","Match","Exact","1535 FM 499, CUMBY, TX, 75433",42791183,"L"
71260,"1535 FM 667","PURDON","TX",76679,31.9828814540001,-96.700539802,260,"1535 FM 667, PURDON, TX, 76679","Match","Exact","1535 FM 667, PURDON, TX, 76679",183909970,"L"
71261,"1535 FRANKLIN ST UNIT 4M","DENVER","CO",80218,39.7406164280001,-104.96846076,261,"1535 FRANKLIN ST UNIT 4M, DENVER, CO, 80218","Match","Exact","1535 FRANKLIN ST, DENVER, CO, 80218",177306100,"L"
71262,"1535 FRENCHMANS BEND RD","MONROE","LA",71203,32.640980665,-92.044292323,262,"1535 FRENCHMANS BEND RD, MONROE, LA, 71203","Match","Exact","1535 FRENCHMANS BEND RD, MONROE, LA, 71203",649807721,"L"
71263,"1535 GREENSMARK DRIVE","HOUSTON","TX",77067,29.942862952,-95.446677544,263,"1535 GREENSMARK DRIVE, HOUSTON, TX, 77067","Match","Exact","1535 GREENSMARK DR, HOUSTON, TX, 77067",96656071,"R"
71264,"1535 GUNDRY AVE","LONG BEACH","CA",90813,33.786565852,-118.174156101,264,"1535 GUNDRY AVE, LONG BEACH, CA, 90813","Match","Exact","1535 GUNDRY AVE, LONG BEACH, CA, 90813",141694652,"L"
71265,"1535 HOBBY STREET 300-D","NORTH CHARLESTON","SC",29405,32.867031465,-79.972999396,265,"1535 HOBBY STREET 300-D, NORTH CHARLESTON, SC, 29405","Match","Exact","1535 HOBBY ST, N CHARLESTON, SC, 29405",649404635,"L"
71266,"1535 IDLEWILD DR","RICHMOND","IN",47374,39.8521345080001,-84.8955004809999,266,"1535 IDLEWILD DR, RICHMOND, IN, 47374","Match","Exact","1535 IDLEWILD DR, RICHMOND, IN, 47374",624481424,"L"
71267,"1535 JAMESTOWN DR","CUPERTINO","CA",95014,37.296077842,-122.034229949,267,"1535 JAMESTOWN DR, CUPERTINO, CA, 95014","Match","Non_Exact","1535 JAMES TOWN DR, CUPERTINO, CA, 95014",122940891,"R"
71268,"1535 KERN ST","FRESNO","CA",93706,36.729942484,-119.79320211,268,"1535 KERN ST, FRESNO, CA, 93706","Match","Exact","1535 KERN ST, FRESNO, CA, 93706",197579679,"L"
71269,"1535 MISSION ST","SAN FRANCISCO","CA",94103,37.7737556650001,-122.417730101,269,"1535 MISSION ST, SAN FRANCISCO, CA, 94103","Match","Exact","1535 MISSION ST, SAN FRANCISCO, CA, 94103",192287228,"L"
71270,"1535 N BROADWAY","ESCONDIDO","CA",92026,33.144006459,-117.090178758,270,"1535 N BROADWAY, ESCONDIDO, CA, 92026","Match","Exact","1535 N BROADWAY, ESCONDIDO, CA, 92026",195312310,"L"
71271,"1535 N ELM STREET","PLATTEVILLE","WI",53818,42.747460806,-90.479994829,271,"1535 N ELM STREET, PLATTEVILLE, WI, 53818","Match","Exact","1535 N ELM ST, PLATTEVILLE, WI, 53818",32764372,"R"
71272,"1535 N GREENFIELD RD","GILBERT","AZ",85234,33.377615172,-111.739575229,272,"1535 N GREENFIELD RD, GILBERT, AZ, 85234","Match","Exact","1535 N GREENFIELD RD, GILBERT, AZ, 85234",640590619,"L"
71273,"1535 N ILLINOIS ST","WICHITA","KS",67203,37.712112313,-97.388547914,273,"1535 N ILLINOIS ST, WICHITA, KS, 67203","Match","Exact","1535 N ILLINOIS ST, WICHITA, KS, 67203",115630491,"L"
71274,"1535 NORTHWAY DR SUITE 202","AT CLOUD","MN",56303,45.5791321310001,-94.1820179919999,274,"1535 NORTHWAY DR SUITE 202, AT CLOUD, MN, 56303","Match","Non_Exact","1535 NORTHWAY DR, SAINT CLOUD, MN, 56303",611981586,"L"
71275,"1535 PALMER DRIVE APARTMENT 410","LARAMIE","WY",82070,41.3006209750001,-105.577806059,275,"1535 PALMER DRIVE APARTMENT 410, LARAMIE, WY, 82070","Match","Exact","1535 PALMER DR, LARAMIE, WY, 82070",168740741,"L"
71276,"1535 PARK TERRACE SW","ALBANY","OR",97321,44.6244502060001,-123.120883552,276,"1535 PARK TERRACE SW, ALBANY, OR, 97321","Match","Exact","1535 PARK TER SW, ALBANY, OR, 97321",156073383,"R"
71277,"1535 PLATT SPRINGS RD UNIT 5235","WEST COLUMBIA","SC",29171,33.9788056420001,-81.079449574,277,"1535 PLATT SPRINGS RD UNIT 5235, WEST COLUMBIA, SC, 29171","Match","Non_Exact","1535 PLATT SPRINGS RD, WEST COLUMBIA, SC, 29169",70062679,"L"
71278,"1535 PLATT SPRINGS RD UNIT 7108","WEST COLUMBIA","SC",29171,33.9788056420001,-81.079449574,278,"1535 PLATT SPRINGS RD UNIT 7108, WEST COLUMBIA, SC, 29171","Match","Non_Exact","1535 PLATT SPRINGS RD, WEST COLUMBIA, SC, 29169",70062679,"L"
71279,"1535 PRESSBURG STREET","NEW ORLEANS","LA",70122,30.017528315,-90.076487675,279,"1535 PRESSBURG STREET, NEW ORLEANS, LA, 70122","Match","Exact","1535 PRESSBURG ST, NEW ORLEANS, LA, 70122",191703526,"L"
71280,"1535 PUNAHOU ST PH-A","HONOLULU","HI",96822,21.3022636900001,-157.832960562,280,"1535 PUNAHOU ST PH-A, HONOLULU, HI, 96822","Match","Exact","1535 PUNAHOU ST, HONOLULU, HI, 96822",203237580,"R"
71281,"1535 SAPPHIRE LN","VISTA","CA",92081,33.148920779,-117.239916495,281,"1535 SAPPHIRE LN, VISTA, CA, 92081","Match","Exact","1535 SAPPHIRE LN, VISTA, CA, 92081",195431190,"L"
71282,"1535 SE SILKWOOD CIR","LEES SUMMIT","MO",64063,38.9080585310001,-94.344451364,282,"1535 SE SILKWOOD CIR, LEES SUMMIT, MO, 64063","Match","Exact","1535 SE SILKWOOD CIR, LEES SUMMIT, MO, 64063",91513171,"R"
71283,"1535 SILVER STREET","BRONX","NY",10461,40.843641448,-73.847392605,283,"1535 SILVER STREET, BRONX, NY, 10461","Match","Exact","1535 SILVER ST, BRONX, NY, 10461",80305541,"L"
71284,"1535 SO WARREN AVENUE","SAGINAW","MI",48601,43.4155640020001,-83.9336255969999,284,"1535 SO WARREN AVENUE, SAGINAW, MI, 48601","Match","Exact","1535 S WARREN AVE, SAGINAW, MI, 48601",80215934,"R"
71285,"1535 SOUTH 1900 EAST","SALT LAKE CITY","UT",84108,40.7361066890001,-111.836501464,285,"1535 SOUTH 1900 EAST, SALT LAKE CITY, UT, 84108","Match","Exact","1535 S 1900 E, SALT LAKE CITY, UT, 84108",176081650,"L"
71286,"1535 ST ANNE ST","DETROIT","MI",48216,42.3239232400001,-83.078914402,286,"1535 ST ANNE ST, DETROIT, MI, 48216","Match","Exact","1535 SAINTE ANNE ST, DETROIT, MI, 48216",95478732,"L"
71287,"1535 STURM AVEUNUE","INDIANAPOLIS","IN",46201,39.773026068,-86.132822434,287,"1535 STURM AVEUNUE, INDIANAPOLIS, IN, 46201","Match","Non_Exact","1535 STURM AVE, INDIANAPOLIS, IN, 46201",640947518,"L"
71288,"1535 SUNSET CIRCLE","MOUNT DORA","FL",32757,28.8205535060001,-81.661470362,288,"1535 SUNSET CIRCLE, MOUNT DORA, FL, 32757","Match","Exact","1535 SUNSET CIR, MOUNT DORA, FL, 32757",94155138,"L"
71289,"1535 SW 87 AVE","MIAMI","FL",33174,25.7555188160001,-80.33593432,289,"1535 SW 87 AVE, MIAMI, FL, 33174","Match","Non_Exact","1535 SW 87TH AVE, MIAMI, FL, 33174",116091281,"R"
71290,"1535 T STREET NW","WASHINGTON","DC",20009,38.9155796140001,-77.03526913,290,"1535 T STREET NW, WASHINGTON, DC, 20009","Match","Exact","1535 T ST NW, WASHINGTON, DC, 20009",76223171,"R"
71291,"1535 THORNBURY DR","MYRTLE BEACH","SC",29577,33.669974192,-78.95419729,291,"1535 THORNBURY DR, MYRTLE BEACH, SC, 29577","Match","Exact","1535 THORNBURY DR, MYRTLE BEACH, SC, 29577",631243134,"L"
71292,"1535 TIMBERDOODLE DRIVE","SAINT CLOUD","MN",56303,45.5778282890001,-94.223213124,292,"1535 TIMBERDOODLE DRIVE, SAINT CLOUD, MN, 56303","Match","Exact","1535 TIMBERDOODLE DR, SAINT CLOUD, MN, 56303",611981550,"L"
71293,"1535 TOWNE PARK LN","FRANKLIN","TN",37067,35.9258425090001,-86.784242198,293,"1535 TOWNE PARK LN, FRANKLIN, TN, 37067","Match","Exact","1535 TOWNE PARK LN, FRANKLIN, TN, 37067",73128436,"R"
71294,"1535 US 19 S SUITE 14","LEESBURG","GA",31763,NA,NA,294,"1535 US 19 S SUITE 14, LEESBURG, GA, 31763","No_Match",NA,NA,NA,NA
71295,"1535 W 15TH ST","LAWRENCE","KS",66045,38.957064786,-95.253003775,295,"1535 W 15TH ST, LAWRENCE, KS, 66045","Match","Exact","1535 W 15TH ST, LAWRENCE, KS, 66045",17684549,"L"
71296,"1535 W FRANKLIN RD","MERIDIAN","ID",83642,43.6046811190001,-116.412167021,296,"1535 W FRANKLIN RD, MERIDIAN, ID, 83642","Match","Exact","1535 W FRANKLIN RD, MERIDIAN, ID, 83642",642578043,"R"
71297,"1535 W JEFFERSON ST","PHOENIX","AZ",85007,33.4470504390001,-112.092228115,297,"1535 W JEFFERSON ST, PHOENIX, AZ, 85007","Match","Exact","1535 W JEFFERSON ST, PHOENIX, AZ, 85007",128211623,"L"
71298,"1535 W JEFFERSON STREET  BIN 42","PHOENIX","AZ",85007,33.4470504390001,-112.092228115,298,"1535 W JEFFERSON STREET  BIN 42, PHOENIX, AZ, 85007","Match","Non_Exact","1535 W JEFFERSON ST, PHOENIX, AZ, 85007",128211623,"L"
71299,"1535 WALLING LANE","NILES","MI",49120,41.854833786,-86.279177815,299,"1535 WALLING LANE, NILES, MI, 49120","Match","Exact","1535 WALLING LN, NILES, MI, 49120",119990319,"L"
71300,"1535 WARFORD STREET","MEMPHIS","TN",38108,35.1747699920001,-89.962218261,300,"1535 WARFORD STREET, MEMPHIS, TN, 38108","Match","Exact","1535 WARFORD ST, MEMPHIS, TN, 38108",72911745,"L"
71301,"1535 WEST MULBERRY AVE","SAN ANTONIO","TX",78201,29.4571829380001,-98.519668837,301,"1535 WEST MULBERRY AVE, SAN ANTONIO, TX, 78201","Match","Exact","1535 W MULBERRY AVE, SAN ANTONIO, TX, 78201",101514376,"R"
71302,"1535 WILMA LEA LANE","WALLIS","TX",77485,29.6864526250001,-96.141067086,302,"1535 WILMA LEA LANE, WALLIS, TX, 77485","Match","Exact","1535 WILMA LEA LN, WALLIS, TX, 77485",636630514,"L"
71303,"1535 WOODBRIDGE COURT","CINCINNATI","OH",45240,39.2991568090001,-84.5379822689999,303,"1535 WOODBRIDGE COURT, CINCINNATI, OH, 45240","Match","Exact","1535 WOODBRIDGE CT, CINCINNATI, OH, 45240",103960457,"R"
71304,"1535 YARDLEY STREET","SANTA ROSA","CA",95403,38.456039661,-122.767257457,304,"1535 YARDLEY STREET, SANTA ROSA, CA, 95403","Match","Exact","1535 YARDLEY ST, SANTA ROSA, CA, 95403",604974275,"R"
71305,"15350 AMBERLY DR UNIT 523","TAMPA","FL",33647,28.087914052,-82.402938437,305,"15350 AMBERLY DR UNIT 523, TAMPA, FL, 33647","Match","Exact","15350 AMBERLY DR, TAMPA, FL, 33647",635369601,"L"
71306,"15350 AMBERLY DRIVE UNIT 1821","TAMPA","FL",33647,28.087914052,-82.402938437,306,"15350 AMBERLY DRIVE UNIT 1821, TAMPA, FL, 33647","Match","Exact","15350 AMBERLY DR, TAMPA, FL, 33647",635369601,"L"
71307,"15350 N LEWIS AVE","SKIATOOK","OK",74070,36.3771119350001,-95.956000713,307,"15350 N LEWIS AVE, SKIATOOK, OK, 74070","Match","Exact","15350 N LEWIS AVE, SKIATOOK, OK, 74070",638912751,"R"
71308,"15350 ROUTE Z","PARIS","MO",65275,NA,NA,308,"15350 ROUTE Z, PARIS, MO, 65275","No_Match",NA,NA,NA,NA
71309,"15350 SOUTH BLANCHARD ROAD","BOW","WA",98232,48.5881365720001,-122.413880733,309,"15350 SOUTH BLANCHARD ROAD, BOW, WA, 98232","Match","Exact","15350 S BLANCHARD RD, BOW, WA, 98232",183675405,"L"
71310,"15350 SW SEQUOIA PKWY STE 250","PORTLAND","OR",97224,45.4091608360001,-122.747023038,310,"15350 SW SEQUOIA PKWY STE 250, PORTLAND, OR, 97224","Match","Non_Exact","15350 SW SEQUOIA PKWY, PORTLAND, OR, 97224",641433206,"R"
71311,"15350 W NATIONAL AVE SUITE 102","NEW BERLIN","WI",53151,42.978812481,-88.1051500359999,311,"15350 W NATIONAL AVE SUITE 102, NEW BERLIN, WI, 53151","Match","Non_Exact","15350 W NATIONAL AVE, NEW BERLIN, WI, 53151",53877527,"L"
71312,"15351 HAYNES ST","LOS ANGELES","CA",91406,34.188770285,-118.468415692,312,"15351 HAYNES ST, LOS ANGELES, CA, 91406","Match","Non_Exact","15351 HAYNES ST, LAKE BALBOA, CA, 91406",141560086,"R"
71313,"15351 NE 60TH ST","WILLISTON","FL",32696,29.420852999,-82.519950635,313,"15351 NE 60TH ST, WILLISTON, FL, 32696","Match","Exact","15351 NE 60TH ST, WILLISTON, FL, 32696",43321930,"R"
71314,"15351 TEWKESBURY PL","UPPER MARLBORO","MD",20774,38.8587628180001,-76.739286126,314,"15351 TEWKESBURY PL, UPPER MARLBORO, MD, 20774","Match","Exact","15351 TEWKESBURY PL, UPPER MARLBORO, MD, 20774",641486608,"R"
71315,"15352 TIMBERSPRINGS LANE","MOUNDVILLE","AL",35474,33.045876504,-87.5920320709999,315,"15352 TIMBERSPRINGS LANE, MOUNDVILLE, AL, 35474","Match","Non_Exact","15352 TIMBER SPRINGS LN, MOUNDVILLE, AL, 35474",82233863,"L"
71316,"15353 PACIFIC STREET","OMAHA","NE",68154,41.248538125,-96.1537193569999,316,"15353 PACIFIC STREET, OMAHA, NE, 68154","Match","Non_Exact","15353 PACIFIC ST, OMAHA, NE, 68118",638836990,"L"
71317,"15354 AUBURN ST","DETROIT","MI",48223,42.4014261620001,-83.234943356,317,"15354 AUBURN ST, DETROIT, MI, 48223","Match","Exact","15354 AUBURN ST, DETROIT, MI, 48223",95422401,"R"
71318,"15355 E COFAX AVE 110524","AURORA","CO",80011,NA,NA,318,"15355 E COFAX AVE 110524, AURORA, CO, 80011","No_Match",NA,NA,NA,NA
71319,"15355 NW 185TH ST","WILLISTON","FL",32696,29.4106522910001,-82.378154767,319,"15355 NW 185TH ST, WILLISTON, FL, 32696","Match","Exact","15355 NW 185TH ST, WILLISTON, FL, 32696",116701035,"R"
71320,"15355 NW 19TH AVE","MIAMI GARDENS","FL",33054,25.9146201670001,-80.232093017,320,"15355 NW 19TH AVE, MIAMI GARDENS, FL, 33054","Match","Exact","15355 NW 19TH AVE, MIAMI GARDENS, FL, 33054",116028762,"R"
71321,"15355 PIEDMONT","DETROIT","MI",48223,42.401800875,-83.230200537,321,"15355 PIEDMONT, DETROIT, MI, 48223","Match","Non_Exact","15355 PIEDMONT ST, DETROIT, MI, 48223",95422455,"L"
71322,"15355 W  VANTAGE PKWY STE 106","HOUSTON","TX",77032,NA,NA,322,"15355 W  VANTAGE PKWY STE 106, HOUSTON, TX, 77032","Tie",NA,NA,NA,NA
71323,"15356 VALLEY BLVD SUITE A","CITY OF INDUSTRY","CA",91746,34.025149248,-117.961620499,323,"15356 VALLEY BLVD SUITE A, CITY OF INDUSTRY, CA, 91746","Match","Exact","15356 VALLEY BLVD, CITY OF INDUSTRY, CA, 91746",652038390,"R"
71324,"15357 BELLFLOWER BLVD STE 39","BELLFLOWER","CA",90706,33.8943451260001,-118.125307385,324,"15357 BELLFLOWER BLVD STE 39, BELLFLOWER, CA, 90706","Match","Exact","15357 BELLFLOWER BLVD, BELLFLOWER, CA, 90706",241246464,"R"
71325,"15359 PEMBRIDGE RD","ORLAND PARK","IL",60462,41.6105546320001,-87.834111419,325,"15359 PEMBRIDGE RD, ORLAND PARK, IL, 60462","Match","Exact","15359 PEMBRIDGE RD, ORLAND PARK, IL, 60462",111701275,"R"
71326,"1536 7TH STREET SW","MINOT","ND",58701,48.2193898580001,-101.302922952,326,"1536 7TH STREET SW, MINOT, ND, 58701","Match","Exact","1536 7TH ST SW, MINOT, ND, 58701",200490193,"L"
71327,"1536 ADELINE STREET","OAKLAND","CA",94607,37.8102574850001,-122.285960621,327,"1536 ADELINE STREET, OAKLAND, CA, 94607","Match","Exact","1536 ADELINE ST, OAKLAND, CA, 94607",124995951,"R"
71328,"1536 AUTUMN DRIVE","FINDLAY","OH",45840,41.0347103490001,-83.61972709,328,"1536 AUTUMN DRIVE, FINDLAY, OH, 45840","Match","Exact","1536 AUTUMN DR, FINDLAY, OH, 45840",36476175,"L"
71329,"1536 BAYBERRY CIR","FORT COLLINS","CO",80524,NA,NA,329,"1536 BAYBERRY CIR, FORT COLLINS, CO, 80524","No_Match",NA,NA,NA,NA
71330,"1536 BEAR HOLLOW ROAD","WILSON","OK",73463,34.1002690970001,-97.452007228,330,"1536 BEAR HOLLOW ROAD, WILSON, OK, 73463","Match","Exact","1536 BEAR HOLLOW RD, WILSON, OK, 73463",14846159,"L"
71331,"1536 CAMPBELL STRRET","RAHWAY","NJ",7065,40.609433735,-74.2776392119999,331,"1536 CAMPBELL STRRET, RAHWAY, NJ, 7065","Match","Non_Exact","1536 CAMPBELL ST, RAHWAY, NJ, 07065",60562449,"L"
71332,"1536 CERULEAN DRIVE","SAINT LOUIS","MO",63146,38.6890708930001,-90.4623962589999,332,"1536 CERULEAN DRIVE, SAINT LOUIS, MO, 63146","Match","Exact","1536 CERULEAN DR, SAINT LOUIS, MO, 63146",100174060,"L"
71333,"1536 CHICAGO BLVD","DETROI","MI",48206,42.381362306,-83.0982173789999,333,"1536 CHICAGO BLVD, DETROI, MI, 48206","Match","Non_Exact","1536 W CHICAGO BLVD, DETROIT, MI, 48206",95717604,"R"
71334,"1536 CLAYTON RD","WILMINGTON","DE",19805,39.734373578,-75.577538378,334,"1536 CLAYTON RD, WILMINGTON, DE, 19805","Match","Exact","1536 CLAYTON RD, WILMINGTON, DE, 19805",187295543,"R"
71335,"1536 COLONIAL DRIVE","TALLAHASSEE","FL",32303,30.4608897800001,-84.272338502,335,"1536 COLONIAL DRIVE, TALLAHASSEE, FL, 32303","Match","Exact","1536 COLONIAL DR, TALLAHASSEE, FL, 32303",82853650,"L"
71336,"1536 DOYLE DRIVE","DOWNINGTOWN","PA",19335,39.9699509370001,-75.723070435,336,"1536 DOYLE DRIVE, DOWNINGTOWN, PA, 19335","Match","Exact","1536 DOYLE DR, DOWNINGTOWN, PA, 19335",179486497,"R"
71337,"1536 E TURMONT STREET","CARSON","CA",90746,33.8534570960001,-118.242249345,337,"1536 E TURMONT STREET, CARSON, CA, 90746","Match","Exact","1536 E TURMONT ST, CARSON, CA, 90746",141681147,"R"
71338,"1536 EAST 85TH STREET","CLEVELAND","OH",44106,41.5143770390001,-81.628530584,338,"1536 EAST 85TH STREET, CLEVELAND, OH, 44106","Match","Exact","1536 E 85TH ST, CLEVELAND, OH, 44106",652726454,"R"
71339,"1536 FRED JACKSON WAY","RICHMOND","CA",94801,37.9553061180001,-122.366922271,339,"1536 FRED JACKSON WAY, RICHMOND, CA, 94801","Match","Exact","1536 FRED JACKSON WAY, RICHMOND, CA, 94801",192038328,"R"
71340,"1536 KEW GARDEN DR","HOUSTON","TX",77047,29.627052319,-95.393610587,340,"1536 KEW GARDEN DR, HOUSTON, TX, 77047","Match","Exact","1536 KEW GARDEN DR, HOUSTON, TX, 77047",624585220,"R"
71341,"1536 LEXINGTON AVE 9A","NEW YORK","NY",10029,40.7874398120001,-73.949794617,341,"1536 LEXINGTON AVE 9A, NEW YORK, NY, 10029","Match","Exact","1536 LEXINGTON AVE, NEW YORK, NY, 10029",59657908,"L"
71342,"1536 LINCOLN AVENUE","BRIDGEPORT","WA",98813,48.00414484,-119.677662903,342,"1536 LINCOLN AVENUE, BRIDGEPORT, WA, 98813","Match","Exact","1536 LINCOLN AVE, BRIDGEPORT, WA, 98813",156903082,"L"
71343,"1536 LODGE POLE CT","ANNAPOLIS","MD",21409,39.031228394,-76.477765377,343,"1536 LODGE POLE CT, ANNAPOLIS, MD, 21409","Match","Exact","1536 LODGE POLE CT, ANNAPOLIS, MD, 21409",606934336,"R"
71344,"1536 LOGAN PATRICK COURT","GASTONIA","NC",28052,35.25096782,-81.2160381429999,344,"1536 LOGAN PATRICK COURT, GASTONIA, NC, 28052","Match","Exact","1536 LOGAN PATRICK CT, GASTONIA, NC, 28052",611182370,"R"
71345,"1536 MAXFIELD LAKE RD","HARTLAND","MI",48353,42.620447068,-83.7289892479999,345,"1536 MAXFIELD LAKE RD, HARTLAND, MI, 48353","Match","Exact","1536 MAXFIELD LAKE RD, HARTLAND, MI, 48353",23574383,"L"
71346,"1536 MINNEHAHA AVE W","SAINT PAUL","MN",55104,NA,NA,346,"1536 MINNEHAHA AVE W, SAINT PAUL, MN, 55104","No_Match",NA,NA,NA,NA
71347,"1536 MIRASSOU LANE","VIRGINIA BEACH","VA",23454,36.8854383770001,-76.046316109,347,"1536 MIRASSOU LANE, VIRGINIA BEACH, VA, 23454","Match","Exact","1536 MIRASSOU LN, VIRGINIA BCH, VA, 23454",122293057,"R"
71348,"1536 MLK BLVD","MACON","GA",31201,32.8217550460001,-83.636833676,348,"1536 MLK BLVD, MACON, GA, 31201","Match","Exact","1536 MARTIN LUTHER KING JR BLVD, MACON, GA, 31201",81062237,"L"
71349,"1536 MONO AVENUE","SAN LEANDRO","CA",94578,37.702494777,-122.119799181,349,"1536 MONO AVENUE, SAN LEANDRO, CA, 94578","Match","Exact","1536 MONO AVE, SAN LEANDRO, CA, 94578",125013950,"R"
71350,"1536 N 59TH STREET","PHILADELPHIA","PA",19151,39.975037983,-75.238374027,350,"1536 N 59TH STREET, PHILADELPHIA, PA, 19151","Match","Exact","1536 N 59TH ST, PHILADELPHIA, PA, 19151",652295656,"L"
71351,"1536 NE 61ST AVENUE","PORTLAND","OR",97213,45.53399338,-122.600584732,351,"1536 NE 61ST AVENUE, PORTLAND, OR, 97213","Match","Exact","1536 NE 61ST AVE, PORTLAND, OR, 97213",157512264,"R"
71352,"1536 OAKCREST AVE","CASPER","WY",82601,42.834264901,-106.317255529,352,"1536 OAKCREST AVE, CASPER, WY, 82601","Match","Exact","1536 OAKCREST AVE, CASPER, WY, 82601",149024129,"R"
71353,"1536 OAKHILL RD","AUBURN","GA",30011,33.997371292,-83.8424527889999,353,"1536 OAKHILL RD, AUBURN, GA, 30011","Match","Exact","1536 OAKHILL RD, AUBURN, GA, 30011",627202782,"L"
71354,"1536 S CLARK RD","DUNCANVILLE","TX",75137,32.6301936740001,-96.9432118939999,354,"1536 S CLARK RD, DUNCANVILLE, TX, 75137","Match","Exact","1536 CLARK RD, DUNCANVILLE, TX, 75137",103187973,"L"
71355,"1536 S RIDGE RD","BAILEY","CO",80421,39.408556887,-105.450550821,355,"1536 S RIDGE RD, BAILEY, CO, 80421","Match","Exact","1536 S RIDGE RD, BAILEY, CO, 80421",108457093,"L"
71356,"1536 SAINT JOHNS PLACE 2E","BROOKYLN","NY",11213,40.6703877190001,-73.9274807639999,356,"1536 SAINT JOHNS PLACE 2E, BROOKYLN, NY, 11213","Match","Non_Exact","1536 ST JOHNS PL, BROOKLYN, NY, 11213",59083352,"R"
71357,"1536 SEAGULL DR APT 307","PALM HARBOR","FL",34685,NA,NA,357,"1536 SEAGULL DR APT 307, PALM HARBOR, FL, 34685","No_Match",NA,NA,NA,NA
71358,"1536 ST CLAIR AVE NE STE S 25","CLEVELAND","OH",44114,41.5066553980001,-81.684837839,358,"1536 ST CLAIR AVE NE STE S 25, CLEVELAND, OH, 44114","Match","Exact","1536 SAINT CLAIR AVE NE, CLEVELAND, OH, 44114",61110517,"R"
71359,"1536 ST CLAIR AVE","CLEVELAND","OH",44114,41.5066553980001,-81.684837839,359,"1536 ST CLAIR AVE, CLEVELAND, OH, 44114","Match","Non_Exact","1536 SAINT CLAIR AVE NE, CLEVELAND, OH, 44114",61110517,"R"
71360,"1536 TAYNER","MEMPHIS","TN",38108,35.17402753,-89.9518352159999,360,"1536 TAYNER, MEMPHIS, TN, 38108","Match","Non_Exact","1536 TAYNER ST, MEMPHIS, TN, 38108",72914284,"R"
71361,"1536 VAN ANDEL WAY","RIPON","CA",95366,37.755484396,-121.132287828,361,"1536 VAN ANDEL WAY, RIPON, CA, 95366","Match","Exact","1536 VAN ANDEL WAY, RIPON, CA, 95366",624850919,"L"
71362,"1536 VIA LINDA","FULLERTON","CA",92833,33.8890566530001,-117.966911924,362,"1536 VIA LINDA, FULLERTON, CA, 92833","Match","Exact","1536 VIA LINDA, FULLERTON, CA, 92833",144090452,"R"
71363,"1536 VILLA MARIE DRIVE","ORLANDO","FL",32807,28.567332981,-81.314193674,363,"1536 VILLA MARIE DRIVE, ORLANDO, FL, 32807","Match","Exact","1536 VILLA MARIE DR, ORLANDO, FL, 32807",94286499,"L"
71364,"1536 W 16TH STREET","SHERIDAN","WY",82801,44.81886767,-106.976247864,364,"1536 W 16TH STREET, SHERIDAN, WY, 82801","Match","Exact","1536 W 16TH ST, SHERIDAN, WY, 82801",147418025,"R"
71365,"1536 W 25TH STREET 447","SAN PEDRO","CA",90732,33.7227115790001,-118.312490286,365,"1536 W 25TH STREET 447, SAN PEDRO, CA, 90732","Match","Non_Exact","1536 W 25TH ST, SAN PEDRO, CA, 90732",142454610,"R"
71366,"1536 W MAIN EXT","DILLON","SC",29536,34.4438273650001,-79.3866879129999,366,"1536 W MAIN EXT, DILLON, SC, 29536","Match","Non_Exact","1536 W MAIN EXD, DILLON, SC, 29536",642911124,"R"
71367,"1536 WESTHAMPTON TRACE","BELLEVILLE","IL",62220,NA,NA,367,"1536 WESTHAMPTON TRACE, BELLEVILLE, IL, 62220","No_Match",NA,NA,NA,NA
71368,"1536 WYNKOOP ST STE 912","DENVER","CO",80202,39.7513226770001,-105.001642704,368,"1536 WYNKOOP ST STE 912, DENVER, CO, 80202","Match","Exact","1536 WYNKOOP ST, DENVER, CO, 80202",177304077,"R"
71369,"1536 WYNKOOP ST","DENVER","CO",80202,39.7513226770001,-105.001642704,369,"1536 WYNKOOP ST, DENVER, CO, 80202","Match","Exact","1536 WYNKOOP ST, DENVER, CO, 80202",177304077,"R"
71370,"1536 WYNKOOP STREET SUITE 908","DENVER","CO",80202,39.7513226770001,-105.001642704,370,"1536 WYNKOOP STREET SUITE 908, DENVER, CO, 80202","Match","Exact","1536 WYNKOOP ST, DENVER, CO, 80202",177304077,"R"
71371,"15360 S BRADLEY RD","OREGON CITY","OR",97045,45.3830911640001,-122.517389692,371,"15360 S BRADLEY RD, OREGON CITY, OR, 97045","Match","Exact","15360 S BRADLEY RD, OREGON CITY, OR, 97045",157921297,"R"
71372,"15361 BROOKHURST STREET SUITE 102","WESTMINSTER","CA",92683,NA,NA,372,"15361 BROOKHURST STREET SUITE 102, WESTMINSTER, CA, 92683","No_Match",NA,NA,NA,NA
71373,"15361 DANBOROUGH ST","WESTMINSTER","CA",92683,33.740082654,-117.947875308,373,"15361 DANBOROUGH ST, WESTMINSTER, CA, 92683","Match","Exact","15361 DANBOROUGH ST, WESTMINSTER, CA, 92683",144036091,"R"
71374,"15362 ADMIRAL BAKER CIRCLE","HAYMARKET","VA",20169,38.855480368,-77.644563857,374,"15362 ADMIRAL BAKER CIRCLE, HAYMARKET, VA, 20169","Match","Exact","15362 ADMIRAL BAKER CIR, HAYMARKET, VA, 20169",638721860,"R"
71375,"15362 E23 COUNTY HOME RD","ANAMOSA","IA",52205,NA,NA,375,"15362 E23 COUNTY HOME RD, ANAMOSA, IA, 52205","No_Match",NA,NA,NA,NA
71376,"15366 11 TH STREET SUITE O","VICTORVILLE","CA",92395,34.5299238330001,-117.29249129,376,"15366 11 TH STREET SUITE O, VICTORVILLE, CA, 92395","Match","Non_Exact","15366 11TH ST, VICTORVILLE, CA, 92395",144574172,"L"
71377,"15366 E 104TH ST N","OWASSO","OK",74055,36.3039150560001,-95.8026910309999,377,"15366 E 104TH ST N, OWASSO, OK, 74055","Match","Exact","15366 E 104TH ST N, OWASSO, OK, 74055",20694780,"R"
71378,"15367 W MADISON ST","GOODYEAR","AZ",85338,33.445143086,-112.3899019,378,"15367 W MADISON ST, GOODYEAR, AZ, 85338","Match","Exact","15367 W MADISON ST, GOODYEAR, AZ, 85338",243959137,"R"
71379,"15368 COUNTY ROAD 436","COFFEEVILLE","MS",38922,33.9985076830001,-89.6770294739999,379,"15368 COUNTY ROAD 436, COFFEEVILLE, MS, 38922","Match","Exact","15368 CO RD 436, COFFEEVILLE, MS, 38922",610253728,"R"
71380,"15368 E 91ST ST N","OWASSO","OK",74055,36.286453893,-95.8025017369999,380,"15368 E 91ST ST N, OWASSO, OK, 74055","Match","Exact","15368 E 91ST ST N, OWASSO, OK, 74055",612077997,"R"
71381,"15368 WILDERNESS RD","BRISTOL","VA",24202,36.6381518150001,-82.091697977,381,"15368 WILDERNESS RD, BRISTOL, VA, 24202","Match","Exact","15368 WILDERNESS RD, BRISTOL, VA, 24202",154345733,"R"
71382,"1537 - 18TH AVE","SEATTLE","WA",98122,NA,NA,382,"1537 - 18TH AVE, SEATTLE, WA, 98122","No_Match",NA,NA,NA,NA
71383,"1537 ARBORWOODS DRIVE","BROWNSBURG","IN",46112,39.848004464,-86.423488837,383,"1537 ARBORWOODS DRIVE, BROWNSBURG, IN, 46112","Match","Exact","1537 ARBORWOODS DR, BROWNSBURG, IN, 46112",639787784,"L"
71384,"1537 BETHANY RD","ANDERSON","IN",46012,40.138709078,-85.660433258,384,"1537 BETHANY RD, ANDERSON, IN, 46012","Match","Exact","1537 BETHANY RD, ANDERSON, IN, 46012",622770954,"R"
71385,"1537 BONNIE BLUE AVE","CLARKSVILLE","TN",37042,36.635727397,-87.371016471,385,"1537 BONNIE BLUE AVE, CLARKSVILLE, TN, 37042","Match","Exact","1537 BONNIE BLUE AVE, CLARKSVILLE, TN, 37042",638736178,"L"
71386,"1537 CHAPMAN STREET","CEDAR HILL","TX",75104,32.6237895240001,-96.9537380359999,386,"1537 CHAPMAN STREET, CEDAR HILL, TX, 75104","Match","Exact","1537 CHAPMAN ST, CEDAR HILL, TX, 75104",103280280,"L"
71387,"1537 CR309","GEORGETOWN","FL",32139,29.3817803490001,-81.626919459,387,"1537 CR309, GEORGETOWN, FL, 32139","Match","Exact","1537 CO RD 309, GEORGETOWN, FL, 32139",647528375,"L"
71388,"1537 DIAMOND RD","FAYETTEVILLE","NC",28311,35.1239591250001,-78.920634089,388,"1537 DIAMOND RD, FAYETTEVILLE, NC, 28311","Match","Exact","1537 DIAMOND RD, FAYETTEVILLE, NC, 28311",64229696,"L"
71389,"1537 E 3RD STREET","BROOKLYN","NY",11230,40.6129119720001,-73.971617338,389,"1537 E 3RD STREET, BROOKLYN, NY, 11230","Match","Exact","1537 E 3RD ST, BROOKLYN, NY, 11230",59089528,"L"
71390,"1537 EAST CHAPMAN AVE","ORANGE","CA",92866,33.7878288370001,-117.83699612,390,"1537 EAST CHAPMAN AVE, ORANGE, CA, 92866","Match","Exact","1537 E CHAPMAN AVE, ORANGE, CA, 92866",144052433,"L"
71391,"1537 GALAXY COURT","MANSFIELD","OH",44903,40.721812621,-82.457141771,391,"1537 GALAXY COURT, MANSFIELD, OH, 44903","Match","Exact","1537 GALAXY CT, MANSFIELD, OH, 44903",12858900,"L"
71392,"1537 GARFIELD AVE","PASADENA","CA",91004,34.1087578240001,-118.137026952,392,"1537 GARFIELD AVE, PASADENA, CA, 91004","Match","Non_Exact","1537 GARFIELD AVE, SOUTH PASADENA, CA, 91030",142735924,"R"
71393,"1537 GREEN MOUNTAIN DR","WAKE FOREST","NC",27587,35.961617163,-78.4822079099999,393,"1537 GREEN MOUNTAIN DR, WAKE FOREST, NC, 27587","Match","Exact","1537 GREEN MOUNTAIN DR, WAKE FOREST, NC, 27587",612819606,"L"
71394,"1537 GUILFORD COURT","MOUNT PLEASANT","SC",29466,32.8504936910001,-79.7817647699999,394,"1537 GUILFORD COURT, MOUNT PLEASANT, SC, 29466","Match","Exact","1537 GUILFORD CT, MOUNT PLEASANT, SC, 29466",633657243,"L"
71395,"1537 HOWELL RD","VALLEY STREAM","NY",11580,40.681418508,-73.6996424609999,395,"1537 HOWELL RD, VALLEY STREAM, NY, 11580","Match","Exact","1537 HOWELL RD, VALLEY STREAM, NY, 11580",147669332,"L"
71396,"1537 HUMBOLD STREET","BELLINGHAM","WA",98225,NA,NA,396,"1537 HUMBOLD STREET, BELLINGHAM, WA, 98225","No_Match",NA,NA,NA,NA
71397,"1537 JENKS AVENUE","PANAMA CITY","FL",32405,30.1764528640001,-85.6623668079999,397,"1537 JENKS AVENUE, PANAMA CITY, FL, 32405","Match","Exact","1537 JENKS AVE, PANAMA CITY, FL, 32405",7029131,"L"
71398,"1537 K ST SE","WASHINGTON","DC",20003,38.878387591,-76.9830101379999,398,"1537 K ST SE, WASHINGTON, DC, 20003","Match","Exact","1537 K ST SE, WASHINGTON, DC, 20003",76231004,"R"
71399,"1537 LAKEWOOD AVENUE","LIMA","OH",45805,40.73386264,-84.128189157,399,"1537 LAKEWOOD AVENUE, LIMA, OH, 45805","Match","Exact","1537 LAKEWOOD AVE, LIMA, OH, 45805",35566205,"L"
71400,"1537 LEWIS","KINGSVILLE","TX",79701,NA,NA,400,"1537 LEWIS, KINGSVILLE, TX, 79701","No_Match",NA,NA,NA,NA
71401,"1537 LONGFELLOW AVENUE","BRONX","NY",10460,40.833504089,-73.8858619339999,401,"1537 LONGFELLOW AVENUE, BRONX, NY, 10460","Match","Exact","1537 LONGFELLOW AVE, BRONX, NY, 10460",80301907,"L"
71402,"1537 MAGNOLIA AVE","REDDING","CA",96001,40.581375699,-122.401227909,402,"1537 MAGNOLIA AVE, REDDING, CA, 96001","Match","Exact","1537 MAGNOLIA AVE, REDDING, CA, 96001",126627086,"L"
71403,"1537 N WOLFE ST","BALTIMORE","MD",21213,39.3080488690001,-76.591490188,403,"1537 N WOLFE ST, BALTIMORE, MD, 21213","Match","Exact","1537 N WOLFE ST, BALTIMORE, MD, 21213",206423599,"R"
71404,"1537 NASH AVENUE","PITTSBURGH","PW",15235,NA,NA,404,"1537 NASH AVENUE, PITTSBURGH, PW, 15235","No_Match",NA,NA,NA,NA
71405,"1537 NORTH YALE BOULEVARD","WICHITA","KS",67208,37.710833709,-97.293838326,405,"1537 NORTH YALE BOULEVARD, WICHITA, KS, 67208","Match","Exact","1537 N YALE BLVD, WICHITA, KS, 67208",115637510,"L"
71406,"1537 NW 61ST ST","SEATTLE","WA",98107,47.6730810550001,-122.37683234,406,"1537 NW 61ST ST, SEATTLE, WA, 98107","Match","Exact","1537 NW 61ST ST, SEATTLE, WA, 98107",239772172,"L"
71407,"1537 NW 8TH AVENUE","FORT LAUDERDALE","FL",33311,26.146108681,-80.153195906,407,"1537 NW 8TH AVENUE, FORT LAUDERDALE, FL, 33311","Match","Non_Exact","1537 NW 8TH AVE, FORT LAUDERDALE, FL, 33311",114720588,"L"
71408,"1537 POPTART CT","SPARKS","NV",89436,39.5723886100001,-119.71386523,408,"1537 POPTART CT, SPARKS, NV, 89436","Match","Exact","1537 POPTART CT, SPARKS, NV, 89436",618261648,"L"
71409,"1537 REBECCA DR","MARYSVILLE","OH",43040,40.2166136380001,-83.385774412,409,"1537 REBECCA DR, MARYSVILLE, OH, 43040","Match","Exact","1537 REBECCA DR, MARYSVILLE, OH, 43040",135338514,"L"
71410,"1537 S MADSION AVE","TULSA","OK",74120,36.139979543,-95.9803548799999,410,"1537 S MADSION AVE, TULSA, OK, 74120","Match","Non_Exact","1537 S MADISON AVE, TULSA, OK, 74120",166442057,"L"
71411,"1537 S PULASKI","CHICAGO","IL",60623,NA,NA,411,"1537 S PULASKI, CHICAGO, IL, 60623","No_Match",NA,NA,NA,NA
71412,"1537 S TRUMBULL AVE","CHICAGO","IL",60623,41.8601231750001,-87.7115751709999,412,"1537 S TRUMBULL AVE, CHICAGO, IL, 60623","Match","Exact","1537 S TRUMBULL AVE, CHICAGO, IL, 60623",111799038,"L"
71413,"1537 SE 8TH AVENUE","OAK HARBOR","WA",98277,48.2919655640001,-122.639388524,413,"1537 SE 8TH AVENUE, OAK HARBOR, WA, 98277","Match","Exact","1537 SE 8TH AVE, OAK HARBOR, WA, 98277",187619459,"R"
71414,"1537 SOUTH NOVATO BOULEVARD NO 530","NOVATO","CA",94947,38.097958626,-122.570037932,414,"1537 SOUTH NOVATO BOULEVARD NO 530, NOVATO, CA, 94947","Match","Non_Exact","1537 S NOVATO BLVD, NOVATO, CA, 94947",192757831,"L"
71415,"1537 WALTER GRISSOM ROAD","KITTRELL","NC",27544,36.1873816900001,-78.3837461379999,415,"1537 WALTER GRISSOM ROAD, KITTRELL, NC, 27544","Match","Exact","1537 WALTER GRISSOM RD, KITTRELL, NC, 27544",90241368,"L"
71416,"15373 INNOVATION DRIVE SUITE 385","SAN DIEGO","CA",92128,32.9936568640001,-117.078679632,416,"15373 INNOVATION DRIVE SUITE 385, SAN DIEGO, CA, 92128","Match","Exact","15373 INNOVATION DR, SAN DIEGO, CA, 92128",195316251,"R"
71417,"15373 MARTOS RD","FONTANA","CA",92337,34.0416462470001,-117.468681498,417,"15373 MARTOS RD, FONTANA, CA, 92337","Match","Exact","15373 MARTOS RD, FONTANA, CA, 92337",144969038,"R"
71418,"15375 BARRANCA PARKWAY SUITE B-209","IRVINE","CA",92618,33.6616799810001,-117.74444824,418,"15375 BARRANCA PARKWAY SUITE B-209, IRVINE, CA, 92618","Match","Exact","15375 BARRANCA PKWY, IRVINE, CA, 92618",641440052,"L"
71419,"15375 BARRANCA PKWY STE 212","IRVINE","CA",92618,33.6616799810001,-117.74444824,419,"15375 BARRANCA PKWY STE 212, IRVINE, CA, 92618","Match","Exact","15375 BARRANCA PKWY, IRVINE, CA, 92618",641440052,"L"
71420,"15375 PIEDMONT ST","DETROIT","MI",48223,42.402109603,-83.230211563,420,"15375 PIEDMONT ST, DETROIT, MI, 48223","Match","Exact","15375 PIEDMONT ST, DETROIT, MI, 48223",95422455,"L"
71421,"15375 PIEDMONT","DETROIT","MI",48223,42.402109603,-83.230211563,421,"15375 PIEDMONT, DETROIT, MI, 48223","Match","Non_Exact","15375 PIEDMONT ST, DETROIT, MI, 48223",95422455,"L"
71422,"15375 SW 93RD LN","MIAMI","FL",33196,25.679264361,-80.4446264589999,422,"15375 SW 93RD LN, MIAMI, FL, 33196","Match","Exact","15375 SW 93RD LN, MIAMI, FL, 33196",631940737,"R"
71423,"15376 NW ENERGIA ST","PORTLAND","OR",97229,45.5608308880001,-122.836416276,423,"15376 NW ENERGIA ST, PORTLAND, OR, 97229","Match","Exact","15376 NW ENERGIA ST, PORTLAND, OR, 97229",158217506,"L"
71424,"15378 ALTON PARKWAY","IRVINE","CA",92618,33.653947391,-117.73743822,424,"15378 ALTON PARKWAY, IRVINE, CA, 92618","Match","Exact","15378 ALTON PKWY, IRVINE, CA, 92618",641301478,"R"
71425,"15378 MONROVIA","OVERLAND PARK","KS",66221,38.848962638,-94.726791787,425,"15378 MONROVIA, OVERLAND PARK, KS, 66221","Match","Non_Exact","15378 MONROVIA ST, OVERLAND PARK, KS, 66221",91284888,"R"
71426,"15378 TWINBERRY COURT","FONTANA","CA",92336,34.1187755770001,-117.469817157,426,"15378 TWINBERRY COURT, FONTANA, CA, 92336","Match","Exact","15378 TWINBERRY CT, FONTANA, CA, 92336",614818993,"L"
71427,"15379 N JACKSON STREET","DURANT","MS",39063,NA,NA,427,"15379 N JACKSON STREET, DURANT, MS, 39063","No_Match",NA,NA,NA,NA
71428,"15379 NORTH JACKSON STREET","DURANT","MS",39063,NA,NA,428,"15379 NORTH JACKSON STREET, DURANT, MS, 39063","No_Match",NA,NA,NA,NA
71429,"1538 16TH AVE E","SEATTLE","WA",98112,47.6330538540001,-122.311195664,429,"1538 16TH AVE E, SEATTLE, WA, 98112","Match","Exact","1538 16TH AVE E, SEATTLE, WA, 98112",186587429,"R"
71430,"1538 ASBURY AVE","ASBURY PARK","NJ",7712,40.2229917390001,-74.0242301879999,430,"1538 ASBURY AVE, ASBURY PARK, NJ, 7712","Match","Exact","1538 ASBURY AVE, ASBURY PARK, NJ, 07712",90463089,"L"
71431,"1538 CABLE RANCH RD -APT 1206","SAN ANTONIO","TX",78245,29.43222088,-98.654192301,431,"1538 CABLE RANCH RD -APT 1206, SAN ANTONIO, TX, 78245","Match","Exact","1538 CABLE RANCH RD, SAN ANTONIO, TX, 78245",101685160,"L"
71432,"1538 CATBRIAR WAY","ODENTON","MD",21113,39.0287163950001,-76.7314638289999,432,"1538 CATBRIAR WAY, ODENTON, MD, 21113","Match","Exact","1538 CATBRIAR WAY, ODENTON, MD, 21113",649254464,"R"
71433,"1538 CEDAR CREST CIRLCE","MESQUITE","TX",75149,32.754290573,-96.619919033,433,"1538 CEDAR CREST CIRLCE, MESQUITE, TX, 75149","Match","Non_Exact","1538 CEDAR CREST CIR, MESQUITE, TX, 75149",103171542,"L"
71434,"1538 CHURCH HILL PL","RESTON","VA",20194,38.9789495680001,-77.34657693,434,"1538 CHURCH HILL PL, RESTON, VA, 20194","Match","Exact","1538 CHURCH HILL PL, RESTON, VA, 20194",76045023,"L"
71435,"1538 COVE CREEK CIRCLE","NORCROSS","GA",30093,33.9217941310001,-84.1758285189999,435,"1538 COVE CREEK CIRCLE, NORCROSS, GA, 30093","Match","Exact","1538 COVE CREEK CIR, NORCROSS, GA, 30093",634065659,"L"
71436,"1538 EMERSON STREET","ALDEN","NY",14004,42.9010534830001,-78.494403543,436,"1538 EMERSON STREET, ALDEN, NY, 14004","Match","Exact","1538 EMERSON ST, ALDEN, NY, 14004",48313975,"L"
71437,"1538 HIGHLAND AVE","WILMETTE","IL",60091,42.0748122460001,-87.715314178,437,"1538 HIGHLAND AVE, WILMETTE, IL, 60091","Match","Exact","1538 HIGHLAND AVE, WILMETTE, IL, 60091",111739677,"R"
71438,"1538 JAMESON DRIVE","VIRGINIA BEACH","VA",23464,36.7908356080001,-76.162955172,438,"1538 JAMESON DRIVE, VIRGINIA BEACH, VA, 23464","Match","Exact","1538 JAMESON DR, VA BCH, VA, 23464",122264638,"R"
71439,"1538 NORTH MARTEL AVE UNIT 310","LOS ANGELES","CA",90046,34.098741261,-118.350024418,439,"1538 NORTH MARTEL AVE UNIT 310, LOS ANGELES, CA, 90046","Match","Exact","1538 N MARTEL AVE, LOS ANGELES, CA, 90046",141594062,"R"
71440,"1538 RUAN STREET","PHILADELPHIA","PA",19124,40.0107684160001,-75.090475971,440,"1538 RUAN STREET, PHILADELPHIA, PA, 19124","Match","Exact","1538 RUAN ST, PHILADELPHIA, PA, 19124",131427783,"R"
71441,"1538 SE 71ST AVE","PORTLAND","OR",97215,45.511868538,-122.58986622,441,"1538 SE 71ST AVE, PORTLAND, OR, 97215","Match","Exact","1538 SE 71ST AVE, PORTLAND, OR, 97215",157516175,"L"
71442,"1538 SW 11TH ST","MIAMI","FL",33135,25.763328012,-80.219847547,442,"1538 SW 11TH ST, MIAMI, FL, 33135","Match","Non_Exact","1538 SW 11TH ST, MIAMI, FL, 33135",116016675,"L"
71443,"1538 W 95TH STREET","LOS ANGELES","CA",90047,33.949533715,-118.303352266,443,"1538 W 95TH STREET, LOS ANGELES, CA, 90047","Match","Exact","1538 W 95TH ST, LOS ANGELES, CA, 90047",141659117,"L"
71444,"1538 WEBBS CHAPEL ROAD","MACCLESFIELD","NC",27852,35.7428444130001,-77.6507937389999,444,"1538 WEBBS CHAPEL ROAD, MACCLESFIELD, NC, 27852","Match","Exact","1538 WEBBS CHAPEL RD, MACCLESFIELD, NC, 27852",90190042,"L"
71445,"15380 AVENIDA RAMADA","DESERT HOT SPRINGS","CA",92240,33.936850753,-116.491074669,445,"15380 AVENIDA RAMADA, DESERT HOT SPRINGS, CA, 92240","Match","Exact","15380 AVE RAMADA, DESERT HOT SPRINGS, CA, 92240",194691159,"R"
71446,"15380 BIRMINGHAM HIGHWAY","MILTON","GA",30004,34.155804403,-84.3370191669999,446,"15380 BIRMINGHAM HIGHWAY, MILTON, GA, 30004","Match","Exact","15380 BIRMINGHAM HWY, MILTON, GA, 30004",625387904,"L"
71447,"15380 CHILI COURT","ROSEMOUNT","MN",55068,44.7261325600001,-93.1350413919999,447,"15380 CHILI COURT, ROSEMOUNT, MN, 55068","Match","Exact","15380 CHILI CT, ROSEMOUNT, MN, 55068",634516173,"R"
71448,"15380 CHILI CT","ROSEMOUNT","MN",55068,44.7261325600001,-93.1350413919999,448,"15380 CHILI CT, ROSEMOUNT, MN, 55068","Match","Exact","15380 CHILI CT, ROSEMOUNT, MN, 55068",634516173,"R"
71449,"15381 331 BUSINESS","FREEPORT","FL",32439,NA,NA,449,"15381 331 BUSINESS, FREEPORT, FL, 32439","No_Match",NA,NA,NA,NA
71450,"15381 ROOSEVELT BLVD","CLEARWATER","FL",33760,27.9116448350001,-82.703437717,450,"15381 ROOSEVELT BLVD, CLEARWATER, FL, 33760","Match","Exact","15381 ROOSEVELT BLVD, CLEARWATER, FL, 33760",601428422,"R"
71451,"15383 BRADFORT CT","BASEHOR","KS",66007,39.10606999,-94.936584269,451,"15383 BRADFORT CT, BASEHOR, KS, 66007","Match","Exact","15383 BRADFORT CT, BASEHOR, KS, 66007",638631611,"R"
71452,"15383 NW 7TH AVE  SUITE B","MIAMI","FL",33169,NA,NA,452,"15383 NW 7TH AVE  SUITE B, MIAMI, FL, 33169","No_Match",NA,NA,NA,NA
71453,"15386 OTOMIAN RD","APPLE VALLEY","CA",92307,NA,NA,453,"15386 OTOMIAN RD, APPLE VALLEY, CA, 92307","No_Match",NA,NA,NA,NA
71454,"15388 US HIGHWAY 19W","GREEN MOUNTAIN","NC",28740,36.0182384720001,-82.354049818,454,"15388 US HIGHWAY 19W, GREEN MOUNTAIN, NC, 28740","Match","Exact","15388 US HWY 19W, GREEN MOUNTAIN, NC, 28740",37427322,"R"
71455,"1539  FASHION HILL DR","HOUSTON","TX",77088,29.884820979,-95.426270369,455,"1539  FASHION HILL DR, HOUSTON, TX, 77088","Match","Exact","1539 FASHION HILL DR, HOUSTON, TX, 77088",96052469,"L"
71456,"1539 9TH STREET NW","WASHINGTON","DC",20001,38.9102478780001,-77.023959632,456,"1539 9TH STREET NW, WASHINGTON, DC, 20001","Match","Exact","1539 9TH ST NW, WASHINGTON, DC, 20001",76226104,"R"
71457,"1539 ADAMS ST","NEW ORLEANS","LA",70118,29.9470666290001,-90.123859808,457,"1539 ADAMS ST, NEW ORLEANS, LA, 70118","Match","Exact","1539 ADAMS ST, NEW ORLEANS, LA, 70118",191701816,"R"
71458,"1539 APPLEFIELD ST","THOUSAND OAKS","CA",91320,34.1962836020001,-118.912902758,458,"1539 APPLEFIELD ST, THOUSAND OAKS, CA, 91320","Match","Exact","1539 APPLEFIELD ST, THOUSAND OAKS, CA, 91320",110019097,"R"
71459,"1539 ARATA COURT","SAN JOSE","CA",95125,37.306526284,-121.885469062,459,"1539 ARATA COURT, SAN JOSE, CA, 95125","Match","Exact","1539 ARATA CT, SAN JOSE, CA, 95125",122909855,"R"
71460,"1539 BANBURY RD","TROY","OH",45373,40.059559269,-84.228466618,460,"1539 BANBURY RD, TROY, OH, 45373","Match","Exact","1539 BANBURY RD, TROY, OH, 45373",135297197,"R"
71461,"1539 BLUE HILL AVE","MATTAPAN","MA",2126,42.271112659,-71.093758119,461,"1539 BLUE HILL AVE, MATTAPAN, MA, 2126","Match","Exact","1539 BLUE HILL AVE, MATTAPAN, MA, 02126",85705307,"R"
71462,"1539 BRADY CREEK LANE","RICHMOND","TX",77406,29.647469561,-95.7304351349999,462,"1539 BRADY CREEK LANE, RICHMOND, TX, 77406","Match","Exact","1539 BRADY CREEK LN, RICHMOND, TX, 77406",653240731,"R"
71463,"1539 BURRO LANE","SANTA FE","NM",87507,35.6665889500001,-106.004001063,463,"1539 BURRO LANE, SANTA FE, NM, 87507","Match","Exact","1539 BURRO LN, SANTA FE, NM, 87507",649766502,"R"
71464,"1539 CLOVERDALE DRIVE","SAVANNAH","GA",31415,32.0665579810001,-81.128046801,464,"1539 CLOVERDALE DRIVE, SAVANNAH, GA, 31415","Match","Exact","1539 CLOVERDALE DR, SAVANNAH, GA, 31415",6169864,"L"
71465,"1539 COLVER ROAD","EBENSBURG","PA",15931,40.542302976,-78.750239446,465,"1539 COLVER ROAD, EBENSBURG, PA, 15931","Match","Exact","1539 COLVER RD, EBENSBURG, PA, 15931",635547910,"R"
71466,"1539 E ANN ARBOR AVENUE","DALLAS","TX",75216,32.69400597,-96.801244504,466,"1539 E ANN ARBOR AVENUE, DALLAS, TX, 75216","Match","Exact","1539 ANN ARBOR AVE, DALLAS, TX, 75216",102951470,"L"
71467,"1539 E OAKTON ST","DES PLAINES","IL",60018,42.02419933,-87.885932543,467,"1539 E OAKTON ST, DES PLAINES, IL, 60018","Match","Exact","1539 E OAKTON ST, DES PLAINES, IL, 60018",111723532,"R"
71468,"1539 GLENROCK","ATLANTA","GA",30318,NA,NA,468,"1539 GLENROCK, ATLANTA, GA, 30318","No_Match",NA,NA,NA,NA
71469,"1539 MISSISSIPPI BLVD","BETTENDORF","IA",52722,41.5283224410001,-90.510919589,469,"1539 MISSISSIPPI BLVD, BETTENDORF, IA, 52722","Match","Exact","1539 MISSISSIPPI BLVD, BETTENDORF, IA, 52722",122711518,"R"
71470,"1539 MUSIC ST","NEW ORLEANS","LA",70117,29.9733597650001,-90.051337518,470,"1539 MUSIC ST, NEW ORLEANS, LA, 70117","Match","Exact","1539 MUSIC ST, NEW ORLEANS, LA, 70117",191716570,"R"
71471,"1539 PITKIN AVENUE","BROOKLYN","NY",11212,40.668930376,-73.9158779379999,471,"1539 PITKIN AVENUE, BROOKLYN, NY, 11212","Match","Exact","1539 PITKIN AVE, BROOKLYN, NY, 11212",59083808,"L"
71472,"1539 POTTER ROAD","PARK RIDGE","IL",60068,42.034617907,-87.860007836,472,"1539 POTTER ROAD, PARK RIDGE, IL, 60068","Match","Exact","1539 POTTER RD, PARK RIDGE, IL, 60068",111723254,"R"
71473,"1539 POWELLS TAVERN PLACE","HERNDON","VA",20170,38.9934983650001,-77.390444666,473,"1539 POWELLS TAVERN PLACE, HERNDON, VA, 20170","Match","Exact","1539 POWELLS TAVERN PL, HERNDON, VA, 20170",75956186,"L"
71474,"1539 RIVER OAKS RD E STE C","NEW ORLEANS","LA",70123,29.9621760570001,-90.200989401,474,"1539 RIVER OAKS RD E STE C, NEW ORLEANS, LA, 70123","Match","Exact","1539 RIVER OAKS RD E, NEW ORLEANS, LA, 70123",93549399,"R"
71475,"1539 S 53RD STREET","PHILADELPHIA","PA",19143,39.938758814,-75.219298739,475,"1539 S 53RD STREET, PHILADELPHIA, PA, 19143","Match","Exact","1539 S 53RD ST, PHILADELPHIA, PA, 19143",131399984,"L"
71476,"1539 S MASON RD PMB 6","KATY","TX",77450,29.7941685010001,-95.751946096,476,"1539 S MASON RD PMB 6, KATY, TX, 77450","Match","Non_Exact","1539 MASON RD, KATY, TX, 77449",645387065,"L"
71477,"1539 S PATTON STREET","PHILADELPHIA","PA",19146,39.93488388,-75.196857413,477,"1539 S PATTON STREET, PHILADELPHIA, PA, 19146","Match","Exact","1539 S PATTON ST, PHILADELPHIA, PA, 19146",131410102,"L"
71478,"1539 SUNRISE LANE","DUNCANVILLE","TX",75137,32.6320345400001,-96.904281858,478,"1539 SUNRISE LANE, DUNCANVILLE, TX, 75137","Match","Exact","1539 SUNRISE LN, DUNCANVILLE, TX, 75137",102972229,"R"
71479,"1539 W 5000 N","REXBURG","ID",83440,43.757193283,-111.809634365,479,"1539 W 5000 N, REXBURG, ID, 83440","Match","Non_Exact","1539 W 5000 S, REXBURG, ID, 83440",649892607,"L"
71480,"1539 W CARSON ST UNIT 4W","TORRANCE","CA",90501,33.8315084750001,-118.304906241,480,"1539 W CARSON ST UNIT 4W, TORRANCE, CA, 90501","Match","Non_Exact","1539 W CARSON ST, TORRANCE, CA, 90501",141668439,"R"
71481,"1539 W WINGHOCKING","PHILADELPHIA","PA",19140,40.0218466310001,-75.1513569429999,481,"1539 W WINGHOCKING, PHILADELPHIA, PA, 19140","Match","Non_Exact","1539 W WINGOHOCKING ST, PHILADELPHIA, PA, 19140",131417049,"R"
71482,"15390 TREVALLY WAY","BONITA SPRINGS","FL",34135,26.3191251970001,-81.6950444669999,482,"15390 TREVALLY WAY, BONITA SPRINGS, FL, 34135","Match","Exact","15390 TREVALLY WAY, BONITA SPGS, FL, 34135",637619583,"L"
71483,"15392 W YUCATAN DR","SURPRISE","AZ",85379,33.587333087,-112.391263709,483,"15392 W YUCATAN DR, SURPRISE, AZ, 85379","Match","Exact","15392 W YUCATAN DR, SURPRISE, AZ, 85379",243967215,"L"
71484,"15396 N 83RD AVE D-102","PEORIA","AZ",85381,NA,NA,484,"15396 N 83RD AVE D-102, PEORIA, AZ, 85381","No_Match",NA,NA,NA,NA
71485,"15397 E 118TH AVENUE","COMMERCE CITY","CO",80022,39.911089442,-104.807370578,485,"15397 E 118TH AVENUE, COMMERCE CITY, CO, 80022","Match","Exact","15397 E 118TH AVE, COMMERCE CITY, CO, 80022",177424429,"L"
71486,"15398 SEABECK HWY NW","SEABECK","WA",98380,47.640094547,-122.830176612,486,"15398 SEABECK HWY NW, SEABECK, WA, 98380","Match","Exact","15398 SEABECK HWY NW, SEABECK, WA, 98380",643056470,"L"
71487,"15399 APPALACHIAN TRAIL","CHESTERFIELD","MO",63017,38.657223548,-90.5398380779999,487,"15399 APPALACHIAN TRAIL, CHESTERFIELD, MO, 63017","Match","Exact","15399 APPALACHIAN TRL, CHESTERFIELD, MO, 63017",100110503,"R"
71488,"153A BEACH 27TH STREET","FAR ROCKAWAY","NY",11691,40.5942535040001,-73.760016149,488,"153A BEACH 27TH STREET, FAR ROCKAWAY, NY, 11691","Match","Exact","153 BEACH 27TH ST, FAR ROCKAWAY, NY, 11691",59732318,"R"
71489,"154 2ND STREET","SOMERSET","NJ",8873,NA,NA,489,"154 2ND STREET, SOMERSET, NJ, 8873","Tie",NA,NA,NA,NA
71490,"154 AIDAN COURT","PITTSBURGH","PA",15226,40.381219544,-80.010912156,490,"154 AIDAN COURT, PITTSBURGH, PA, 15226","Match","Exact","154 AIDAN CT, PITTSBURGH, PA, 15226",647526568,"L"
71491,"154 ALABAMA ROAD","DYESS AIR FORCE BASE","TX",79607,32.419987689,-99.813364301,491,"154 ALABAMA ROAD, DYESS AIR FORCE BASE, TX, 79607","Match","Exact","154 ALABAMA RD, DYESS AFB, TX, 79607",129971907,"R"
71492,"154 ALCOVE DR","SOCIAL CIRCLE","GA",30025,NA,NA,492,"154 ALCOVE DR, SOCIAL CIRCLE, GA, 30025","No_Match",NA,NA,NA,NA
71493,"154 APOORVA LANE","SMYRNA","DE",19977,39.251702827,-75.6077560109999,493,"154 APOORVA LANE, SMYRNA, DE, 19977","Match","Exact","154 APOORVA LN, SMYRNA, DE, 19977",601698475,"R"
71494,"154 ARBOR AVE","MONROE","MI",48162,41.9166270060001,-83.387952308,494,"154 ARBOR AVE, MONROE, MI, 48162","Match","Exact","154 ARBOR AVE, MONROE, MI, 48162",40478107,"R"
71495,"154 BARRY AVE","MASCOTTE","FL",34753,NA,NA,495,"154 BARRY AVE, MASCOTTE, FL, 34753","No_Match",NA,NA,NA,NA
71496,"154 BEERS STREET","PHILLIPSBURG","NJ",8865,40.704892914,-75.191906725,496,"154 BEERS STREET, PHILLIPSBURG, NJ, 8865","Match","Exact","154 BEERS ST, PHILLIPSBURG, NJ, 08865",98086377,"L"
71497,"154 BELLPORT AVENUE","BELLPORT","NY",11713,40.771486382,-72.940574413,497,"154 BELLPORT AVENUE, BELLPORT, NY, 11713","Match","Exact","154 BELLPORT AVE, BELLPORT, NY, 11713",114014591,"R"
71498,"154 BLUFF VW","ALEDO","TX",76008,32.6810584180001,-97.606491265,498,"154 BLUFF VW, ALEDO, TX, 76008","Match","Exact","154 BLUFF VW, ALEDO, TX, 76008",627946055,"R"
71499,"154 BOULEVARD","NEW MILFORD","NJ",7646,40.9476103810001,-74.015979132,499,"154 BOULEVARD, NEW MILFORD, NJ, 7646","Match","Exact","154 BOULEVARD, NEW MILFORD, NJ, 07646",64386902,"R"
71500,"154 BRECKONSHIRE DR","BOONE","NC",28606,36.1917529070001,-81.639513275,500,"154 BRECKONSHIRE DR, BOONE, NC, 28606","Match","Non_Exact","154 BRECKONSHIRE DR, BOONE, NC, 28607",52037561,"L"
