"ID","Address","City","State","Zip","lat","long","id","input_address","match_indicator","match_type","matched_address","tiger_line_id","tiger_side"
52001,"13397 PROSPECTOR RIDGE RD","MONROE","WA",98272,47.87591379,-122.006473831,1,"13397 PROSPECTOR RIDGE RD, MONROE, WA, 98272","Match","Non_Exact","13397 PROSPECTORS RIDGE RD, MONROE, WA, 98272",639687101,"R"
52002,"13398 NEWCASTLE COMMONS DR  APT 524","NEWCASTLE","WA",98059,47.5435916710001,-122.160936817,2,"13398 NEWCASTLE COMMONS DR  APT 524, NEWCASTLE, WA, 98059","Match","Exact","13398 NEWCASTLE COMMONS DR, NEWCASTLE, WA, 98059",650889044,"L"
52003,"13398 NEWCASTLE COMMONS DRIVE","NEWCASTLE","WA",98059,47.5435916710001,-122.160936817,3,"13398 NEWCASTLE COMMONS DRIVE, NEWCASTLE, WA, 98059","Match","Exact","13398 NEWCASTLE COMMONS DR, NEWCASTLE, WA, 98059",650889044,"L"
52004,"13399 LYNDHURST","FRISCO","TX",75035,33.1460961600001,-96.761486313,4,"13399 LYNDHURST, FRISCO, TX, 75035","Match","Non_Exact","13399 LYNDHURST DR, FRISCO, TX, 75035",615039429,"R"
52005,"133A EAGLE CREEK DRIVE","PORTSMOUTH","OH",45662,38.804904573,-82.977852506,5,"133A EAGLE CREEK DRIVE, PORTSMOUTH, OH, 45662","Match","Exact","133 EAGLE CREEK DR, PORTSMOUTH, OH, 45662",55121443,"L"
52006,"133A OAK RIDGE CIRCLE - BOX 92","OAK CREEK","CO",80467,40.2703992410001,-106.955936741,6,"133A OAK RIDGE CIRCLE - BOX 92, OAK CREEK, CO, 80467","Match","Exact","133 OAK RIDGE CIR, OAK CREEK, CO, 80467",640078421,"L"
52007,"133B EAST MAIN STREET","LAKE CITY","SC",29560,33.8724381010001,-79.7540354939999,7,"133B EAST MAIN STREET, LAKE CITY, SC, 29560","Match","Exact","133 E MAIN ST, LAKE CITY, SC, 29560",28871682,"L"
52008,"133B ELM STREET","SALISBURY","MA",1952,42.8443899870001,-70.883895975,8,"133B ELM STREET, SALISBURY, MA, 1952","Match","Exact","133 ELM ST, SALISBURY, MA, 01952",86708082,"R"
52009,"133S PINE STREET P O BOX 717","BURLINGTON","WI",53105,NA,NA,9,"133S PINE STREET P O BOX 717, BURLINGTON, WI, 53105","Tie",NA,NA,NA,NA
52010,"134  HANCOCK AVENUE APT134A","ATHENS","GA",30605,33.885443518,-83.310185959,10,"134  HANCOCK AVENUE APT134A, ATHENS, GA, 30605","Match","Non_Exact","134 HANCOCK LN, ATHENS, GA, 30605",4804898,"L"
52011,"134 1/2 TOPAZ AVENUE","NEWPORT BEACH","CA",92662,33.60517714,-117.896885651,11,"134 1/2 TOPAZ AVENUE, NEWPORT BEACH, CA, 92662","Match","Exact","134 TOPAZ AVE, NEWPORT BEACH, CA, 92662",144049977,"R"
52012,"134 1/2 WEST ATWOOD STREET","GALION","OH",44833,40.7310777930001,-82.790183704,12,"134 1/2 WEST ATWOOD STREET, GALION, OH, 44833","Match","Exact","134 W ATWOOD ST, GALION, OH, 44833",12076607,"R"
52013,"134 113TH ST","OROFINO","ID",83544,46.4952871350001,-116.298160207,13,"134 113TH ST, OROFINO, ID, 83544","Match","Exact","134 113TH ST, OROFINO, ID, 83544",201686993,"R"
52014,"134 15 166TH PLACE APT 7G","JAMAICA QUEENS","NY",11434,NA,NA,14,"134 15 166TH PLACE APT 7G, JAMAICA QUEENS, NY, 11434","No_Match",NA,NA,NA,NA
52015,"134 3RD AVE","GALLIPOLIS","OH",45631,38.8053085280001,-82.2116287329999,15,"134 3RD AVE, GALLIPOLIS, OH, 45631","Match","Exact","134 3RD AVE, GALLIPOLIS, OH, 45631",54944218,"L"
52016,"134 ADAMS RD","CANDIA","NH",3034,43.054166599,-71.3047243899999,16,"134 ADAMS RD, CANDIA, NH, 3034","Match","Exact","134 ADAMS RD, CANDIA, NH, 03034",113668957,"R"
52017,"134 ARGILLA ROAD","IPSWICH","MA",1938,42.666006112,-70.8013816719999,17,"134 ARGILLA ROAD, IPSWICH, MA, 1938","Match","Exact","134 ARGILLA RD, IPSWICH, MA, 01938",86663617,"R"
52018,"134 BAKER ROAD","MCDONALD","PA",15057,40.3372632100001,-80.284163002,18,"134 BAKER ROAD, MCDONALD, PA, 15057","Match","Non_Exact","134 BAKER RD, MC DONALD, PA, 15057",52791678,"R"
52019,"134 BALBOA DR","SPRINGFIELD","MA",1119,42.1107829310001,-72.507301239,19,"134 BALBOA DR, SPRINGFIELD, MA, 1119","Match","Exact","134 BALBOA DR, SPRINGFIELD, MA, 01119",4037566,"L"
52020,"134 BARNABY AVE","GLOUCESTER CITY","NJ",8030,39.889997572,-75.1134915389999,20,"134 BARNABY AVE, GLOUCESTER CITY, NJ, 8030","Match","Exact","134 BARNABY AVE, GLOUCESTER CITY, NJ, 08030",134418833,"L"
52021,"134 BARREN RD","MEDIA","PA",19063,39.9232977830001,-75.4331223199999,21,"134 BARREN RD, MEDIA, PA, 19063","Match","Exact","134 BARREN RD, MEDIA, PA, 19063",616334771,"R"
52022,"134 BARREN ROAD","MEDIA","PA",19063,39.9232977830001,-75.4331223199999,22,"134 BARREN ROAD, MEDIA, PA, 19063","Match","Exact","134 BARREN RD, MEDIA, PA, 19063",616334771,"R"
52023,"134 BARTLETT AVENUE","SHARON HILL","PA",19079,39.9127541140001,-75.266295218,23,"134 BARTLETT AVENUE, SHARON HILL, PA, 19079","Match","Exact","134 BARTLETT AVE, SHARON HILL, PA, 19079",134884937,"R"
52024,"134 BEN FRANKLIN DRIVE","YOUNGSVILLE","LA",70592,30.052388675,-91.984146868,24,"134 BEN FRANKLIN DRIVE, YOUNGSVILLE, LA, 70592","Match","Exact","134 BEN FRANKLIN DR, YOUNGSVILLE, LA, 70592",85621198,"R"
52025,"134 BERKLEY ROAD","INDIANAPOLIS","IN",46208,39.8348755000001,-86.16017075,25,"134 BERKLEY ROAD, INDIANAPOLIS, IN, 46208","Match","Exact","134 BERKLEY RD, INDIANAPOLIS, IN, 46208",107984253,"R"
52026,"134 BLUEBIRD LANE","PHENIX CITY","AL",36870,32.479328857,-85.0748113189999,26,"134 BLUEBIRD LANE, PHENIX CITY, AL, 36870","Match","Exact","134 BLUEBIRD LN, PHENIX CITY, AL, 36870",646938337,"R"
52027,"134 BOTETOURT RD","NEWPORT NEWS","VA",23601,37.039441857,-76.470683498,27,"134 BOTETOURT RD, NEWPORT NEWS, VA, 23601","Match","Exact","134 BOTETOURT RD, NEWPORT NEWS, VA, 23601",103754426,"R"
52028,"134 BOYNTON BLVD APT 6","DAYTONA BEACH","FL",32118,29.197805418,-80.995850465,28,"134 BOYNTON BLVD APT 6, DAYTONA BEACH, FL, 32118","Match","Exact","134 BOYNTON BLVD, DAYTONA BEACH, FL, 32118",94528472,"R"
52029,"134 BRANTON STREET","BROOKLYN NEW YORK","NY",11236,40.645946167,-73.919543314,29,"134 BRANTON STREET, BROOKLYN NEW YORK, NY, 11236","Match","Non_Exact","134 BRANTON ST, BROOKLYN, NY, 11236",59085921,"R"
52030,"134 BRICKYARD RD","SOUTHAMPTON","MA",1073,42.2103807140001,-72.734916707,30,"134 BRICKYARD RD, SOUTHAMPTON, MA, 1073","Match","Exact","134 BRICKYARD RD, SOUTHAMPTON, MA, 01073",39848368,"L"
52031,"134 BRIGHT WATER DRIVE","ANNAPOLIS","MD",21401,NA,NA,31,"134 BRIGHT WATER DRIVE, ANNAPOLIS, MD, 21401","No_Match",NA,NA,NA,NA
52032,"134 BROOKS ST","MEDFORD","MA",2155,42.4263262210001,-71.129938513,32,"134 BROOKS ST, MEDFORD, MA, 2155","Match","Exact","134 BROOKS ST, MEDFORD, MA, 02155",86889196,"L"
52033,"134 CARONDELET STREET","NEW ORLEANS","LA",70130,29.9533564060001,-90.070325788,33,"134 CARONDELET STREET, NEW ORLEANS, LA, 70130","Match","Exact","134 CARONDELET ST, NEW ORLEANS, LA, 70130",191710842,"L"
52034,"134 CASS STREET SUITE 3","WOODSTOCK","IL",60098,42.315237424,-88.447326705,34,"134 CASS STREET SUITE 3, WOODSTOCK, IL, 60098","Match","Exact","134 CASS ST, WOODSTOCK, IL, 60098",119816926,"L"
52035,"134 CASTLEWOOD RD","TYRONE","GA",30290,33.4632557640001,-84.621625909,35,"134 CASTLEWOOD RD, TYRONE, GA, 30290","Match","Exact","134 CASTLEWOOD RD, TYRONE, GA, 30290",75954265,"L"
52036,"134 CAYMAN WAY","ANDERSON","SC",29621,34.5402763640001,-82.658936508,36,"134 CAYMAN WAY, ANDERSON, SC, 29621","Match","Exact","134 CAYMAN WAY, ANDERSON, SC, 29621",25478141,"R"
52037,"134 CEDAR STREET","SHADY COVE","OR",97539,42.6103126510001,-122.815897951,37,"134 CEDAR STREET, SHADY COVE, OR, 97539","Match","Exact","134 CEDAR ST, SHADY COVE, OR, 97539",155608858,"R"
52038,"134 CHERRY TREE COURT","MOUNT LAUREL","NJ",8054,39.9273446380001,-74.970544103,38,"134 CHERRY TREE COURT, MOUNT LAUREL, NJ, 8054","Match","Exact","134 CHERRY TREE CT, MOUNT LAUREL, NJ, 08054",134028021,"L"
52039,"134 CHESTER AVE","YEADON","PA",19050,39.9233088720001,-75.255175208,39,"134 CHESTER AVE, YEADON, PA, 19050","Match","Exact","134 CHESTER AVE, YEADON, PA, 19050",134886359,"R"
52040,"134 CHESTNUT RIDGE DRIVE","BEAVER FALLS","PA",15010,40.7585686580001,-80.375911216,40,"134 CHESTNUT RIDGE DRIVE, BEAVER FALLS, PA, 15010","Match","Exact","134 CHESTNUT RIDGE DR, BEAVER FALLS, PA, 15010",648209687,"R"
52041,"134 CLARK STREET","FLEMINGSBURG","KY",40374,NA,NA,41,"134 CLARK STREET, FLEMINGSBURG, KY, 40374","No_Match",NA,NA,NA,NA
52042,"134 CLOISTER DR","PEACHTREE CITY","GA",30269,33.4033332290001,-84.5886181179999,42,"134 CLOISTER DR, PEACHTREE CITY, GA, 30269","Match","Exact","134 CLOISTER DR, PEACHTREE CITY, GA, 30269",640443326,"L"
52043,"134 COAL STREET","LEMONT FURNACE","PA",15456,39.919682263,-79.6828138509999,43,"134 COAL STREET, LEMONT FURNACE, PA, 15456","Match","Exact","134 COAL ST, LEMONT FURNACE, PA, 15456",51135444,"R"
52044,"134 COLONIAL CREST DRIVE","LANCASTER","PA",17601,40.0754400810001,-76.3535906829999,44,"134 COLONIAL CREST DRIVE, LANCASTER, PA, 17601","Match","Exact","134 COLONIAL CREST DR, LANCASTER, PA, 17601",650145409,"L"
52045,"134 COOLIDGE ST","GREEN BAY","WI",54301,44.4676971040001,-88.034748526,45,"134 COOLIDGE ST, GREEN BAY, WI, 54301","Match","Exact","134 COOLIDGE ST, GREEN BAY, WI, 54301",148101664,"R"
52046,"134 COPPERHEAD DR","MOORESVILLE","NC",28115,35.640584684,-80.805415338,46,"134 COPPERHEAD DR, MOORESVILLE, NC, 28115","Match","Exact","134 COPPERHEAD DR, MOORESVILLE, NC, 28115",46014044,"L"
52047,"134 COURT ST","CHARDON","OH",44024,41.5821775420001,-81.206053988,47,"134 COURT ST, CHARDON, OH, 44024","Match","Exact","134 COURT ST, CHARDON, OH, 44024",137434429,"L"
52048,"134 CYPRESS LANE","PEARISBURG","VA",24134,37.3217555250001,-80.700675147,48,"134 CYPRESS LANE, PEARISBURG, VA, 24134","Match","Exact","134 CYPRESS LN, PEARISBURG, VA, 24134",46989479,"R"
52049,"134 DAVIS LANE","GREENSBURG","PA",15601,40.313632661,-79.599362002,49,"134 DAVIS LANE, GREENSBURG, PA, 15601","Match","Exact","134 DAVIS LN, GREENSBURG, PA, 15601",629902736,"R"
52050,"134 DOVERSIDE DRIVE","COLUMBIA","SC",29212,34.092428023,-81.207501677,50,"134 DOVERSIDE DRIVE, COLUMBIA, SC, 29212","Match","Exact","134 DOVERSIDE DR, COLUMBIA, SC, 29212",70070829,"R"
52051,"134 DUTCHESS BLVD","ATLANTIC BEACH","NY",11509,40.589938294,-73.7335699349999,51,"134 DUTCHESS BLVD, ATLANTIC BEACH, NY, 11509","Match","Exact","134 DUTCHESS BLVD, ATLANTIC BEACH, NY, 11509",147657688,"R"
52052,"134 E 18TH ST","LYNN HAVEN","FL",32444,NA,NA,52,"134 E 18TH ST, LYNN HAVEN, FL, 32444","No_Match",NA,NA,NA,NA
52053,"134 E LINCOLN HWY","DEKALB","IL",60115,41.9305761800001,-88.753554068,53,"134 E LINCOLN HWY, DEKALB, IL, 60115","Match","Exact","134 E LINCOLN HWY, DEKALB, IL, 60115",52257503,"L"
52054,"134 E MAIN ST","HARRISON","MI",48625,NA,NA,54,"134 E MAIN ST, HARRISON, MI, 48625","Tie",NA,NA,NA,NA
52055,"134 EAST 135 STREET","GALLIANO","LA",70354,29.4280189770001,-90.292378702,55,"134 EAST 135 STREET, GALLIANO, LA, 70354","Match","Exact","134 E 135TH ST, GALLIANO, LA, 70354",92339639,"R"
52056,"134 ELEANOR DR","MAHOPAC","NY",10541,41.3702520620001,-73.708195788,56,"134 ELEANOR DR, MAHOPAC, NY, 10541","Match","Exact","134 ELEANOR DR, MAHOPAC, NY, 10541",139711828,"R"
52057,"134 EMDEN DR","HENDERSON","NV",89015,36.044205118,-114.957368986,57,"134 EMDEN DR, HENDERSON, NV, 89015","Match","Exact","134 EMDEN DR, HENDERSON, NV, 89015",201912672,"L"
52058,"134 ENGLEWOOD AVE","BELLWOOD","IL",60104,41.8902379290001,-87.884695671,58,"134 ENGLEWOOD AVE, BELLWOOD, IL, 60104","Match","Exact","134 ENGLEWOOD AVE, BELLWOOD, IL, 60104",605139986,"R"
52059,"134 FAIRVIEW AVENUE","PROSPECT PARK","NJ",7508,40.934250524,-74.175624708,59,"134 FAIRVIEW AVENUE, PROSPECT PARK, NJ, 7508","Match","Exact","134 FAIRVIEW AVE, PROSPECT PARK, NJ, 07508",65262308,"R"
52060,"134 FOX CREEK ANNEX","PRESTON","GA",31824,NA,NA,60,"134 FOX CREEK ANNEX, PRESTON, GA, 31824","No_Match",NA,NA,NA,NA
52061,"134 GAITANO DR","PALMDALE","CA",93550,34.6111462580001,-118.128725733,61,"134 GAITANO DR, PALMDALE, CA, 93550","Match","Exact","134 GAITANO DR, PALMDALE, CA, 93550",642867719,"R"
52062,"134 GARDEN TERRACE","RINGGOLD","GA",30736,34.9152901520001,-85.153022424,62,"134 GARDEN TERRACE, RINGGOLD, GA, 30736","Match","Exact","134 GARDEN TER, RINGGOLD, GA, 30736",651034255,"R"
52063,"134 GARNER HEIGHTS RD","GREENWOOD","SC",29649,34.2145227670001,-82.1291263269999,63,"134 GARNER HEIGHTS RD, GREENWOOD, SC, 29649","Match","Exact","134 GARNER HTS, GREENWOOD, SC, 29649",50813180,"L"
52064,"134 GOLF COURSE DRIVE","ARMSTRONG","IA",50514,43.3901092310001,-94.47586913,64,"134 GOLF COURSE DRIVE, ARMSTRONG, IA, 50514","Match","Exact","134 GOLF COURSE DR, ARMSTRONG, IA, 50514",9588890,"R"
52065,"134 GRANDVIEW AVE","NEW BRAUNFELS","TX",78130,29.711565599,-98.1480348109999,65,"134 GRANDVIEW AVE, NEW BRAUNFELS, TX, 78130","Match","Exact","134 GRANDVIEW AVE, NEW BRAUNFELS, TX, 78130",72247885,"R"
52066,"134 HABERSHAM STREET","SAVANNAH","GA",31401,32.076424547,-81.0881234669999,66,"134 HABERSHAM STREET, SAVANNAH, GA, 31401","Match","Exact","134 HABERSHAM ST, SAVANNAH, GA, 31401",6175740,"L"
52067,"134 HACKNEY STREET","WAXAHACHIE","TX",75165,32.4241494230001,-96.821434163,67,"134 HACKNEY STREET, WAXAHACHIE, TX, 75165","Match","Non_Exact","134 HACKNEY LN, WAXAHACHIE, TX, 75165",648585349,"R"
52068,"134 HADDOCK RD","MCADOO","PA",18237,40.8848289040001,-76.0058637659999,68,"134 HADDOCK RD, MCADOO, PA, 18237","Match","Exact","134 HADDOCK RD, MCADOO, PA, 18237",70959020,"L"
52069,"134 HARNETT AVE","WOOD RIVER","IL",62095,38.8684427060001,-90.102791,69,"134 HARNETT AVE, WOOD RIVER, IL, 62095","Match","Exact","134 HARNETT AVE, WOOD RIVER, IL, 62095",107684749,"L"
52070,"134 HAVEN AVENUE 6G","NEW YORK","NY",10032,40.845500638,-73.942394008,70,"134 HAVEN AVENUE 6G, NEW YORK, NY, 10032","Match","Exact","134 HAVEN AVE, NEW YORK, NY, 10032",59655488,"L"
52071,"134 HEATHER LANE","PALO ALTO","CA",94303,37.4462215990001,-122.133449639,71,"134 HEATHER LANE, PALO ALTO, CA, 94303","Match","Exact","134 HEATHER LN, PALO ALTO, CA, 94303",122951057,"R"
52072,"134 HIGHLAND AVE APT 3","SOMERVILLE","MA",2143,42.3878775920001,-71.101839125,72,"134 HIGHLAND AVE APT 3, SOMERVILLE, MA, 2143","Match","Exact","134 HIGHLAND AVE, SOMERVILLE, MA, 02143",86868967,"L"
52073,"134 HIGHLAND DRIVE","WADESBORO","NC",28770,34.9465743100001,-80.066466256,73,"134 HIGHLAND DRIVE, WADESBORO, NC, 28770","Match","Non_Exact","134 HIGHLAND DR, WADESBORO, NC, 28170",605335976,"L"
52074,"134 HINSDALE STREET","BROOKLYN","NY",11207,40.672202532,-73.900766475,74,"134 HINSDALE STREET, BROOKLYN, NY, 11207","Match","Exact","134 HINSDALE ST, BROOKLYN, NY, 11207",59084558,"R"
52075,"134 HOPE ST","PROVIDENCE","RI",2906,41.823929891,-71.397160328,75,"134 HOPE ST, PROVIDENCE, RI, 2906","Match","Exact","134 HOPE ST, PROVIDENCE, RI, 02906",637810732,"L"
52076,"134 HUNTERS POINTE","ST CHARLES","MO",63304,38.7453836080001,-90.620632395,76,"134 HUNTERS POINTE, ST CHARLES, MO, 63304","Match","Non_Exact","134 HUNTERS POINTE DR, SAINT CHARLES, MO, 63304",100029902,"L"
52077,"134 HURLBUT STREET APT 12","PASADENA","CA",91105,34.129909395,-118.152573928,77,"134 HURLBUT STREET APT 12, PASADENA, CA, 91105","Match","Exact","134 HURLBUT ST, PASADENA, CA, 91105",142674788,"L"
52078,"134 INLET AVE","MANAHAWKIN","NJ",8050,39.72327499,-74.2781654679999,78,"134 INLET AVE, MANAHAWKIN, NJ, 8050","Match","Exact","134 INLET AVE, MANAHAWKIN, NJ, 08050",203704410,"L"
52079,"134 JEFFERSON AVE SUITE 1","BROOKLYN","NY",11216,40.6830166660001,-73.9522989439999,79,"134 JEFFERSON AVE SUITE 1, BROOKLYN, NY, 11216","Match","Exact","134 JEFFERSON AVE, BROOKLYN, NY, 11216",59078902,"R"
52080,"134 KAPAHULU AVENUE UNIT 818","HONOLULU","HI",96815,21.271668886,-157.821782327,80,"134 KAPAHULU AVENUE UNIT 818, HONOLULU, HI, 96815","Match","Exact","134 KAPAHULU AVE, HONOLULU, HI, 96815",203242219,"L"
52081,"134 LA QUINTA DR","CONROE","TX",77304,30.383673496,-95.496222824,81,"134 LA QUINTA DR, CONROE, TX, 77304","Match","Exact","134 LA QUINTA DR, CONROE, TX, 77304",79274539,"L"
52082,"134 LACY LANE","MOULTRIE","GA",31768,31.0961368760001,-83.804228641,82,"134 LACY LANE, MOULTRIE, GA, 31768","Match","Non_Exact","134 LACY RD, MOULTRIE, GA, 31768",634040581,"L"
52083,"134 LARAMIE CT","CASTLE ROCK","CO",80104,39.3680475520001,-104.804015323,83,"134 LARAMIE CT, CASTLE ROCK, CO, 80104","Match","Non_Exact","134 LARIME CT, CASTLE ROCK, CO, 80104",624347790,"R"
52084,"134 LAWSON WALL DRIVE","HUNTSVILLE","AL",35806,34.7687772040001,-86.698524751,84,"134 LAWSON WALL DRIVE, HUNTSVILLE, AL, 35806","Match","Non_Exact","134 LAWSON WALL DR NW, HUNTSVILLE, AL, 35806",58136501,"L"
52085,"134 LIDO WAY","UPLAND","CA",91786,34.0933707390001,-117.677393312,85,"134 LIDO WAY, UPLAND, CA, 91786","Match","Exact","134 LIDO WAY, UPLAND, CA, 91786",144671788,"L"
52086,"134 LINCOLN AVENUE","HARRISBURG","PA",17111,40.2651053070001,-76.789070899,86,"134 LINCOLN AVENUE, HARRISBURG, PA, 17111","Match","Exact","134 LINCOLN AVE, HARRISBURG, PA, 17111",70837693,"L"
52087,"134 LOOP DRIVE","SAYVILLE","NY",11782,40.760667088,-73.075420272,87,"134 LOOP DRIVE, SAYVILLE, NY, 11782","Match","Exact","134 LOOP DR, SAYVILLE, NY, 11782",114006920,"R"
52088,"134 MADISON AVE","REXBURG","ID",83440,43.829152396,-111.770787414,88,"134 MADISON AVE, REXBURG, ID, 83440","Match","Exact","134 MADISON AVE, REXBURG, ID, 83440",119106864,"R"
52089,"134 MAGNOLIA GLEN CIRCLE","MANCHESTER","TN",37355,35.4626414300001,-86.072880282,89,"134 MAGNOLIA GLEN CIRCLE, MANCHESTER, TN, 37355","Match","Exact","134 MAGNOLIA GLEN CIR, MANCHESTER, TN, 37355",58242177,"L"
52090,"134 MAIN ST","NORTH TONAWANDA","NY",14120,43.025717506,-78.877199672,90,"134 MAIN ST, NORTH TONAWANDA, NY, 14120","Match","Exact","134 MAIN ST, N TONAWANDA, NY, 14120",48689151,"L"
52091,"134 MAPLE BOULEVARD","ORWIGSBURG","PA",17961,40.6191159680001,-76.0529553229999,91,"134 MAPLE BOULEVARD, ORWIGSBURG, PA, 17961","Match","Exact","134 MAPLE BLVD, ORWIGSBURG, PA, 17961",651936605,"R"
52092,"134 MAPLE LEAF DRIVE","AUSTINTOWN","OH",44515,41.1057861570001,-80.779441956,92,"134 MAPLE LEAF DRIVE, AUSTINTOWN, OH, 44515","Match","Exact","134 MAPLE LEAF DR, AUSTINTOWN, OH, 44515",64591166,"R"
52093,"134 MARION DRIVE","BREMERTON","WA",98312,NA,NA,93,"134 MARION DRIVE, BREMERTON, WA, 98312","No_Match",NA,NA,NA,NA
52094,"134 MARSTON STREET APT 2","LAWRENCE","MA",1841,42.71417811,-71.139929141,94,"134 MARSTON STREET APT 2, LAWRENCE, MA, 1841","Match","Exact","134 MARSTON ST, LAWRENCE, MA, 01841",86681901,"R"
52095,"134 MARWOOD ROAD","CABOT","PA",16023,40.7738240460001,-79.7858159579999,95,"134 MARWOOD ROAD, CABOT, PA, 16023","Match","Exact","134 MARWOOD RD, CABOT, PA, 16023",52691336,"R"
52096,"134 MARY RD","EAST WAKEFIELD","NH",3830,43.6099548070001,-70.9877994719999,96,"134 MARY RD, EAST WAKEFIELD, NH, 3830","Match","Exact","134 MARY RD, E WAKEFIELD, NH, 03830",145600296,"L"
52097,"134 MATTIE BURNETT CIRCLE","BRANDON","MS",39047,32.4087173460001,-90.007520249,97,"134 MATTIE BURNETT CIRCLE, BRANDON, MS, 39047","Match","Exact","134 MATTIE BURNETT CIR, BRANDON, MS, 39047",636598828,"L"
52098,"134 MCCORMICK RD","CASTLE ROCK","WA",98611,46.313959606,-122.870640604,98,"134 MCCORMICK RD, CASTLE ROCK, WA, 98611","Match","Exact","134 MCCORMICK RD, CASTLE ROCK, WA, 98611",184494716,"L"
52099,"134 MCPHAIL FARMS CIRCLE","ANDERSON","SC",29621,34.563945952,-82.645223996,99,"134 MCPHAIL FARMS CIRCLE, ANDERSON, SC, 29621","Match","Exact","134 MCPHAIL FARMS CIR, ANDERSON, SC, 29621",25499711,"R"
52100,"134 MEADOW WOOD ROAD","SUMMERVILLE","SC",29486,33.08786474,-80.195120361,100,"134 MEADOW WOOD ROAD, SUMMERVILLE, SC, 29486","Match","Exact","134 MEADOW WOOD RD, SUMMERVILLE, SC, 29486",645466428,"L"
52101,"134 MORNING DOVE LANE","STATESVILLE","NC",28625,35.846646369,-80.834480172,101,"134 MORNING DOVE LANE, STATESVILLE, NC, 28625","Match","Exact","134 MORNING DOVE LN, STATESVILLE, NC, 28625",46016564,"R"
52102,"134 MOUNT VERNON ROAD","UNION","SC",29379,34.6535718700001,-81.610286775,102,"134 MOUNT VERNON ROAD, UNION, SC, 29379","Match","Exact","134 MT VERNON RD, UNION, SC, 29379",19724159,"L"
52103,"134 N ALEXANDER CREEK ROAD","NEWNAN","GA",30263,33.4943643560001,-84.734710207,103,"134 N ALEXANDER CREEK ROAD, NEWNAN, GA, 30263","Match","Exact","134 N ALEXANDER CREEK RD, NEWNAN, GA, 30263",9331687,"R"
52104,"134 N AVENUE 61 STE 102","LOS ANGELES","CA",90042,NA,NA,104,"134 N AVENUE 61 STE 102, LOS ANGELES, CA, 90042","No_Match",NA,NA,NA,NA
52105,"134 N LEROY ST STE 1","FENTON","MI",48430,NA,NA,105,"134 N LEROY ST STE 1, FENTON, MI, 48430","Tie",NA,NA,NA,NA
52106,"134 N MAIN ST","POLAND","OH",44514,41.027129286,-80.615547538,106,"134 N MAIN ST, POLAND, OH, 44514","Match","Exact","134 N MAIN ST, POLAND, OH, 44514",64599832,"R"
52107,"134 N MAIN","CAVE SPRINGS","AR",72718,NA,NA,107,"134 N MAIN, CAVE SPRINGS, AR, 72718","No_Match",NA,NA,NA,NA
52108,"134 N PROSPECT","GRANVILLE","OH",43023,40.0683469900001,-82.518372536,108,"134 N PROSPECT, GRANVILLE, OH, 43023","Match","Non_Exact","134 N PROSPECT ST, GRANVILLE, OH, 43023",61503077,"R"
52109,"134 N YALE AVE","COLUMBUS","OH",43222,39.9612968710001,-83.03245866,109,"134 N YALE AVE, COLUMBUS, OH, 43222","Match","Exact","134 N YALE AVE, COLUMBUS, OH, 43222",218679950,"R"
52110,"134 NE NARANJA AVE","PORT ST LUCIE","FL",34983,27.3229580870001,-80.3397707509999,110,"134 NE NARANJA AVE, PORT ST LUCIE, FL, 34983","Match","Exact","134 NE NARANJA AVE, PORT ST LUCIE, FL, 34983",120151595,"R"
52111,"134 NEW LEICESTER HIGHWAY","ASHEVILLE","NC",28806,35.5924922510001,-82.6072146079999,111,"134 NEW LEICESTER HIGHWAY, ASHEVILLE, NC, 28806","Match","Exact","134 NEW LEICESTER HWY, ASHEVILLE, NC, 28806",36841881,"L"
52112,"134 NORTH HILL STREET","ITASCA","TX",76055,32.1600675510001,-97.150394955,112,"134 NORTH HILL STREET, ITASCA, TX, 76055","Match","Exact","134 N HILL ST, ITASCA, TX, 76055",160513332,"R"
52113,"134 NORTH LASALLE STREET SUITE 1430","CHICAGO","IL",60602,41.8841713360001,-87.63243467,113,"134 NORTH LASALLE STREET SUITE 1430, CHICAGO, IL, 60602","Match","Non_Exact","134 N LA SALLE ST, CHICAGO, IL, 60602",111768726,"L"
52114,"134 NORTH STREET PO BOX 1021","LITCHFIELD","CT",6759,41.751730089,-73.191103982,114,"134 NORTH STREET PO BOX 1021, LITCHFIELD, CT, 6759","Match","Exact","134 NORTH ST, LITCHFIELD, CT, 06759",647170043,"R"
52115,"134 NORTH WASHINGTON STREET","FARMERSVILLE","TX",75442,33.1644729990001,-96.361094839,115,"134 NORTH WASHINGTON STREET, FARMERSVILLE, TX, 75442","Match","Exact","134 N WASHINGTON ST, FARMERSVILLE, TX, 75442",123499020,"R"
52116,"134 NW 16TH STREET SUITE 12","BOCA RATON","FL",33432,26.3645969500001,-80.0886314049999,116,"134 NW 16TH STREET SUITE 12, BOCA RATON, FL, 33432","Match","Non_Exact","134 NW 16TH ST, BOCA RATON, FL, 33432",115492399,"L"
52117,"134 OAK STREET","ASHLAND","MA",1721,42.2739522590001,-71.493623554,117,"134 OAK STREET, ASHLAND, MA, 1721","Match","Exact","134 OAK ST, ASHLAND, MA, 01721",87121304,"L"
52118,"134 OLD WASHINGTON STREET","HANOVER","MA",2339,NA,NA,118,"134 OLD WASHINGTON STREET, HANOVER, MA, 2339","Tie",NA,NA,NA,NA
52119,"134 OWENS STREET","GILBERTSVILLE","KY",42044,37.0246066130001,-88.302822974,119,"134 OWENS STREET, GILBERTSVILLE, KY, 42044","Match","Exact","134 OWENS ST, GILBERTSVILLE, KY, 42044",99511527,"L"
52120,"134 OWL HILL ROAD","LITITZ","PA",17543,40.1413459290001,-76.296859677,120,"134 OWL HILL ROAD, LITITZ, PA, 17543","Match","Exact","134 OWL HILL RD, LITITZ, PA, 17543",626974836,"R"
52121,"134 PADDOCK PLACE DRIVE","MOUNT JULIET","TN",37122,36.2355901170001,-86.549358529,121,"134 PADDOCK PLACE DRIVE, MOUNT JULIET, TN, 37122","Match","Exact","134 PADDOCK PLACE DR, MOUNT JULIET, TN, 37122",624806443,"R"
52122,"134 PARK AVENUE","KEANSBURG","NJ",7734,40.444953271,-74.12320203,122,"134 PARK AVENUE, KEANSBURG, NJ, 7734","Match","Exact","134 PARK AVE, KEANSBURG, NJ, 07734",90468894,"R"
52123,"134 PARK ROAD","WESTBROOK","ME",4092,43.689250971,-70.3545036849999,123,"134 PARK ROAD, WESTBROOK, ME, 4092","Match","Exact","134 PARK RD, WESTBROOK, ME, 04092",78023575,"L"
52124,"134 PASTURE CROSSING DRIVE","SARVER","PA",16055,40.739235792,-79.7703002,124,"134 PASTURE CROSSING DRIVE, SARVER, PA, 16055","Match","Exact","134 PASTURE CROSSING DR, SARVER, PA, 16055",624951219,"L"
52125,"134 PERFIDIA DRIVE","HOUSTON","TX",77015,29.801046345,-95.177217518,125,"134 PERFIDIA DRIVE, HOUSTON, TX, 77015","Match","Exact","134 PERFIDIA DR, HOUSTON, TX, 77015",96426631,"L"
52126,"134 PERTH AMBOY COURT","UPPER MARLBORO","MD",20774,38.8934125390001,-76.8368666929999,126,"134 PERTH AMBOY COURT, UPPER MARLBORO, MD, 20774","Match","Exact","134 PERTH AMBOY CT, UPPER MARLBORO, MD, 20774",76351296,"L"
52127,"134 PINE CREST DR","RIVERSIDE","RI",2915,41.7630485500001,-71.353005673,127,"134 PINE CREST DR, RIVERSIDE, RI, 2915","Match","Exact","134 PINE CREST DR, RIVERSIDE, RI, 02915",47494531,"L"
52128,"134 PLYMOUTH DR APT 1B","NORWOOD","MA",2062,42.1639045910001,-71.192753274,128,"134 PLYMOUTH DR APT 1B, NORWOOD, MA, 2062","Match","Exact","134 PLYMOUTH DR, NORWOOD, MA, 02062",87255114,"R"
52129,"134 POTOMAC DRIVE","ELYRIA","OH",44035,41.3672934790001,-82.165521547,129,"134 POTOMAC DRIVE, ELYRIA, OH, 44035","Match","Exact","134 POTOMAC DR, ELYRIA, OH, 44035",55411682,"R"
52130,"134 REED FARM ROAD","BOXBOROUGH","MA",1719,42.486880242,-71.490196371,130,"134 REED FARM ROAD, BOXBOROUGH, MA, 1719","Match","Exact","134 REED FARM RD, BOXBOROUGH, MA, 01719",87156063,"L"
52131,"134 RIDGECREST DR","RED OAK","TX",75154,32.5251413230001,-96.762001334,131,"134 RIDGECREST DR, RED OAK, TX, 75154","Match","Non_Exact","134 RIDGE CREST DR, RED OAK, TX, 75154",214484318,"L"
52132,"134 RIVERWOOD DR","MISHICOT","WI",54228,44.238976473,-87.646366977,132,"134 RIVERWOOD DR, MISHICOT, WI, 54228","Match","Exact","134 RIVERWOOD DR, MISHICOT, WI, 54228",147966902,"L"
52133,"134 RIVIERA DRIVE SOUTH","MASSAPEQUA","NY",11758,NA,NA,133,"134 RIVIERA DRIVE SOUTH, MASSAPEQUA, NY, 11758","No_Match",NA,NA,NA,NA
52134,"134 ROBERTS AVE SW","WISE","VA",24293,36.9833064630001,-82.590018981,134,"134 ROBERTS AVE SW, WISE, VA, 24293","Match","Exact","134 ROBERTS AVE SW, WISE, VA, 24293",83464547,"R"
52135,"134 ROBERTSON WAY","NEWBURY PARK","CA",91320,34.1785801930001,-118.906589874,135,"134 ROBERTSON WAY, NEWBURY PARK, CA, 91320","Match","Exact","134 ROBERTSON WAY, NEWBURY PARK, CA, 91320",109999975,"R"
52136,"134 ROCK SPRINGS ROAD","OWENS CROSS ROADS","AL",35763,34.5867127220001,-86.488906344,136,"134 ROCK SPRINGS ROAD, OWENS CROSS ROADS, AL, 35763","Match","Exact","134 ROCK SPRING RD, OWENS CROSS ROADS, AL, 35763",58206609,"R"
52137,"134 RURITAN RD - 325","FALL BRANCH","TN",37656,36.4107791320001,-82.6177215659999,137,"134 RURITAN RD - 325, FALL BRANCH, TN, 37656","Match","Exact","134 RURITAN RD, FALL BRANCH, TN, 37656",127940795,"L"
52138,"134 S 13TH STREET SUITE 1200","LINCOLN","NE",68508,NA,NA,138,"134 S 13TH STREET SUITE 1200, LINCOLN, NE, 68508","No_Match",NA,NA,NA,NA
52139,"134 S AVENIDA DEL PORVENIR","TUCSON","AZ",85745,32.2167059600001,-111.024541525,139,"134 S AVENIDA DEL PORVENIR, TUCSON, AZ, 85745","Match","Exact","134 S AVE DEL PORVENIR, TUCSON, AZ, 85745",121161709,"R"
52140,"134 S LAKEVIEW BLVD","CHANDLER","AZ",85225,33.302015324,-111.814094415,140,"134 S LAKEVIEW BLVD, CHANDLER, AZ, 85225","Match","Exact","134 S LAKEVIEW BLVD, CHANDLER, AZ, 85225",649463864,"R"
52141,"134 S OCEAN AVENUE","FREEPORT","NY",11520,40.6522463150001,-73.586011834,141,"134 S OCEAN AVENUE, FREEPORT, NY, 11520","Match","Exact","134 S OCEAN AVE, FREEPORT, NY, 11520",147631660,"R"
52142,"134 S PEACE HAVEN RD","WINSTON SALEM","NC",27104,36.081958388,-80.350690291,142,"134 S PEACE HAVEN RD, WINSTON SALEM, NC, 27104","Match","Exact","134 S PEACE HAVEN RD, WINSTON SALEM, NC, 27104",634565253,"R"
52143,"134 S SPRING ST","BEAVER DAM","WI",53916,43.455828298,-88.8368992589999,143,"134 S SPRING ST, BEAVER DAM, WI, 53916","Match","Exact","134 S SPRING ST, BEAVER DAM, WI, 53916",53528095,"L"
52144,"134 SADDLE RIDGE LN","NELLYSFORD","VA",22958,37.9005238930001,-78.880291686,144,"134 SADDLE RIDGE LN, NELLYSFORD, VA, 22958","Match","Exact","134 SADDLE RIDGE LN, NELLYSFORD, VA, 22958",98902170,"R"
52145,"134 SEPTEMBER DR","BUTLER","PA",16002,40.8273201900001,-79.90247777,145,"134 SEPTEMBER DR, BUTLER, PA, 16002","Match","Exact","134 SEPTEMBER DR, BUTLER, PA, 16002",52680467,"L"
52146,"134 SHELTON ROAD","CHATSWORTH","GA",30705,NA,NA,146,"134 SHELTON ROAD, CHATSWORTH, GA, 30705","No_Match",NA,NA,NA,NA
52147,"134 SHIRLEY ROAD","WOODSTOCK","AL",35188,33.1766191090001,-87.167221281,147,"134 SHIRLEY ROAD, WOODSTOCK, AL, 35188","Match","Exact","134 SHIRLEY RD, WOODSTOCK, AL, 35188",623854802,"R"
52148,"134 SNYDER AVE","BERKELEY HEIGHTS","NJ",7822,NA,NA,148,"134 SNYDER AVE, BERKELEY HEIGHTS, NJ, 7822","No_Match",NA,NA,NA,NA
52149,"134 SOMERSET DRIVE","WARNER ROBINS","GA",31088,32.6128234550001,-83.67490176,149,"134 SOMERSET DRIVE, WARNER ROBINS, GA, 31088","Match","Exact","134 SOMERSET DR, WARNER ROBINS, GA, 31088",642836586,"L"
52150,"134 SOUTH AVON AVENUE","PHILLIPS","WI",54555,45.6881670660001,-90.396813193,150,"134 SOUTH AVON AVENUE, PHILLIPS, WI, 54555","Match","Exact","134 S AVON AVE, PHILLIPS, WI, 54555",194371327,"L"
52151,"134 SOUTH MAIN STREET","BRUNDIDGE","AL",36010,31.7194626830001,-85.8156430609999,151,"134 SOUTH MAIN STREET, BRUNDIDGE, AL, 36010","Match","Exact","134 S MAIN ST, BRUNDIDGE, AL, 36010",69217002,"L"
52152,"134 SOUTH MAIN STREET","WALTON","KY",41094,38.857980442,-84.608789142,152,"134 SOUTH MAIN STREET, WALTON, KY, 41094","Match","Exact","134 S MAIN ST, WALTON, KY, 41094",81949947,"R"
52153,"134 SOUTH PARSONS AVE  APT A","MERCED","CA",95341,37.285980614,-120.451608299,153,"134 SOUTH PARSONS AVE  APT A, MERCED, CA, 95341","Match","Exact","134 S PARSONS AVE, MERCED, CA, 95341",125313366,"R"
52154,"134 SOUTHFORK DRIVE","MACON","GA",31220,32.86278528,-83.7907653629999,154,"134 SOUTHFORK DRIVE, MACON, GA, 31220","Match","Exact","134 SOUTHFORK DR, MACON, GA, 31220",81077429,"L"
52155,"134 SPRING STREET SUITE 302","NEW YORK","NY",10012,40.723956851,-74.0007023909999,155,"134 SPRING STREET SUITE 302, NEW YORK, NY, 10012","Match","Exact","134 SPRING ST, NEW YORK, NY, 10012",59660283,"L"
52156,"134 SPRUCE SWAMP ROAD WEST","BUXTON","ME",4093,43.656845672,-70.496968903,156,"134 SPRUCE SWAMP ROAD WEST, BUXTON, ME, 4093","Match","Exact","134 SPRUCE SWAMP RD W, BUXTON, ME, 04093",92776670,"L"
52157,"134 SUNSET DR","LONGVIEW","WA",98632,46.1769483780001,-122.973783563,157,"134 SUNSET DR, LONGVIEW, WA, 98632","Match","Exact","134 SUNSET DR, LONGVIEW, WA, 98632",647256070,"R"
52158,"134 SW 62ND ST BLDG F APT 616","GAINESVILLE","FL",32607,29.651999372,-82.40887434,158,"134 SW 62ND ST BLDG F APT 616, GAINESVILLE, FL, 32607","Match","Non_Exact","134 SW 62ND ST, GAINESVILLE, FL, 32607",611118498,"L"
52159,"134 SW FOX PLACE","FORT WHITE","FL",32038,29.8558751680001,-82.6455508499999,159,"134 SW FOX PLACE, FORT WHITE, FL, 32038","Match","Exact","134 SW FOX PL, FORT WHITE, FL, 32038",5148442,"R"
52160,"134 SW RAY AVENUE","PORT SAINT LUCIE","FL",34983,27.298697814,-80.3510838239999,160,"134 SW RAY AVENUE, PORT SAINT LUCIE, FL, 34983","Match","Exact","134 SW RAY AVE, PORT ST LUCIE, FL, 34983",120151855,"L"
52161,"134 TENTH AVENUE","SOUTH CHARLESTON","WV",25303,38.3694707180001,-81.701458056,161,"134 TENTH AVENUE, SOUTH CHARLESTON, WV, 25303","Match","Exact","134 10TH AVE, S CHARLESTON, WV, 25303",639231911,"R"
52162,"134 TIBET RD","COLUMBUS","OH",43202,40.0239596490001,-83.0099283489999,162,"134 TIBET RD, COLUMBUS, OH, 43202","Match","Exact","134 TIBET RD, COLUMBUS, OH, 43202",218682882,"L"
52163,"134 VICTORIA LANE","LEWISBURG","PA",17837,40.944559085,-76.8737967759999,163,"134 VICTORIA LANE, LEWISBURG, PA, 17837","Match","Exact","134 VICTORIA LN, LEWISBURG, PA, 17837",48199281,"L"
52164,"134 VINTAGE PARK BLVD 133","HOUSTON","TX",77070,29.9941924010001,-95.5744164279999,164,"134 VINTAGE PARK BLVD 133, HOUSTON, TX, 77070","Match","Exact","134 VINTAGE PARK BLVD, HOUSTON, TX, 77070",645010056,"L"
52165,"134 VINTAGE PARK BLVD STE A BOX 522","HOUSTON","TX",77070,29.9941924010001,-95.5744164279999,165,"134 VINTAGE PARK BLVD STE A BOX 522, HOUSTON, TX, 77070","Match","Exact","134 VINTAGE PARK BLVD, HOUSTON, TX, 77070",645010056,"L"
52166,"134 W 26TH ST RM 1001","NEW YORK","NY",10001,40.7452515960001,-73.992493837,166,"134 W 26TH ST RM 1001, NEW YORK, NY, 10001","Match","Non_Exact","134 W 26TH ST, NEW YORK, NY, 10001",59653389,"L"
52167,"134 W GLOUCESTER PIKE","BARRINGTON","NJ",8007,39.868041686,-75.056837311,167,"134 W GLOUCESTER PIKE, BARRINGTON, NJ, 8007","Match","Exact","134 W GLOUCESTER PIKE, BARRINGTON, NJ, 08007",134419102,"L"
52168,"134 W MAIN STREET","LAKELAND","GA",31635,31.0391428550001,-83.0827480789999,168,"134 W MAIN STREET, LAKELAND, GA, 31635","Match","Exact","134 W MAIN ST, LAKELAND, GA, 31635",5218807,"L"
52169,"134 W MCKINLEY AVE","FRESNO","CA",93728,36.764829219,-119.814080739,169,"134 W MCKINLEY AVE, FRESNO, CA, 93728","Match","Exact","134 W MCKINLEY AVE, FRESNO, CA, 93728",652197232,"R"
52170,"134 W MILAM STREET","WHARTON","TX",77488,29.3109571190001,-96.100518613,170,"134 W MILAM STREET, WHARTON, TX, 77488","Match","Exact","134 W MILAM ST, WHARTON, TX, 77488",42488071,"R"
52171,"134 WARRENVILLE RD","MANSFIELD","CT",6250,41.7734730020001,-72.193037013,171,"134 WARRENVILLE RD, MANSFIELD, CT, 6250","Match","Non_Exact","134 WARRENVILLE RD, MANSFIELD CTR, CT, 06250",610945008,"R"
52172,"134 WATERSIDE CIRCLE","WINFIELD","WV",25213,38.5238425040001,-81.861784991,172,"134 WATERSIDE CIRCLE, WINFIELD, WV, 25213","Match","Exact","134 WATERSIDE CIR, WINFIELD, WV, 25213",130523249,"R"
52173,"134 WEST 131ST STREET   SUITE 1A","NEW YORK","NY",10037,40.81168992,-73.943022104,173,"134 WEST 131ST STREET   SUITE 1A, NEW YORK, NY, 10037","Match","Non_Exact","134 W 131ST ST, NEW YORK, NY, 10027",642471982,"L"
52174,"134 WEST 28TH STREET","BAYONNE","NJ",7002,40.670576796,-74.120277555,174,"134 WEST 28TH STREET, BAYONNE, NJ, 7002","Match","Exact","134 W 28TH ST, BAYONNE, NJ, 07002",59602506,"L"
52175,"134 WEST 86TH STREET APT 1A","NEW YORK","NY",10024,40.786930533,-73.973231872,175,"134 WEST 86TH STREET APT 1A, NEW YORK, NY, 10024","Match","Exact","134 W 86TH ST, NEW YORK, NY, 10024",59656716,"L"
52176,"134 WEST 93RD STREET APT 8B","NEW YORK","NY",10025,40.791459451,-73.9702000679999,176,"134 WEST 93RD STREET APT 8B, NEW YORK, NY, 10025","Match","Exact","134 W 93RD ST, NEW YORK, NY, 10025",611175371,"L"
52177,"134 WEST HARVARD SUITE 6","FORT COLLINS","CO",80525,40.548916805,-105.077867194,177,"134 WEST HARVARD SUITE 6, FORT COLLINS, CO, 80525","Match","Non_Exact","134 W HARVARD ST, FORT COLLINS, CO, 80525",188580002,"R"
52178,"134 WEST MAIN STREET SUITE 300","BRIGHTON","MI",48116,42.5295618500001,-83.7808344219999,178,"134 WEST MAIN STREET SUITE 300, BRIGHTON, MI, 48116","Match","Exact","134 W MAIN ST, BRIGHTON, MI, 48116",23544591,"L"
52179,"134 WEST SUNSET AVE","EPHRATA","PA",17522,40.1785403270001,-76.1836062089999,179,"134 WEST SUNSET AVE, EPHRATA, PA, 17522","Match","Exact","134 W SUNSET AVE, EPHRATA, PA, 17522",179669423,"R"
52180,"134 WILLOW SPRINGS RD","TEN MILE","TN",37880,35.753458477,-84.574558892,180,"134 WILLOW SPRINGS RD, TEN MILE, TN, 37880","Match","Exact","134 WILLOW SPRINGS RD, TEN MILE, TN, 37880",643105603,"L"
52181,"134 WUNDERLIN ST","LEWISTOWN","MT",59457,NA,NA,181,"134 WUNDERLIN ST, LEWISTOWN, MT, 59457","No_Match",NA,NA,NA,NA
52182,"134-07 SUTTER AVE","JAMAICA","NY",11420,40.672290092,-73.8043731939999,182,"134-07 SUTTER AVE, JAMAICA, NY, 11420","Match","Exact","134-7 SUTTER AVE, JAMAICA, NY, 11420",59715133,"L"
52183,"134-142 SUSSEX AVENUE SUITE 108","NEWARK","NJ",7103,40.7468037900001,-74.180750534,183,"134-142 SUSSEX AVENUE SUITE 108, NEWARK, NJ, 7103","Match","Exact","134 SUSSEX AVE, NEWARK, NJ, 07103",63466971,"L"
52184,"134-23 157 STREET","JAMAICA","NY",11434,40.6711687590001,-73.779464689,184,"134-23 157 STREET, JAMAICA, NY, 11434","Match","Exact","134-23 157TH ST, JAMAICA, NY, 11434",59715577,"L"
52185,"134-47 166TH PL SUITE 10C","JAMAICA","NY",11434,40.6725978600001,-73.773740338,185,"134-47 166TH PL SUITE 10C, JAMAICA, NY, 11434","Match","Exact","134-47 166TH PL, JAMAICA, NY, 11434",59719532,"R"
52186,"134-47 166TH PLACE STE 1A","SAINT ALBANS","NY",11412,NA,NA,186,"134-47 166TH PLACE STE 1A, SAINT ALBANS, NY, 11412","No_Match",NA,NA,NA,NA
52187,"134-54 MAPLE AVENUE APT 4N","FLUSHING","NY",11355,40.7550290780001,-73.829247322,187,"134-54 MAPLE AVENUE APT 4N, FLUSHING, NY, 11355","Match","Exact","134-54 MAPLE AVE, FLUSHING, NY, 11355",59709587,"R"
52188,"134-58 161ST STREET","JAMAICA","NY",11434,40.6721090090001,-73.775872915,188,"134-58 161ST STREET, JAMAICA, NY, 11434","Match","Exact","134-58 161ST ST, JAMAICA, NY, 11434",59719529,"R"
52189,"134-82 BEDELL STREET","SPRINGFIELD GARDENS","NY",11434,40.673985949,-73.764199777,189,"134-82 BEDELL STREET, SPRINGFIELD GARDENS, NY, 11434","Match","Non_Exact","134 BEDELL ST, ADDISLEIGH PK, NY, 11434",641263646,"R"
52190,"134","COLUMBIA","SC",29223,NA,NA,190,"134, COLUMBIA, SC, 29223","No_Match",NA,NA,NA,NA
52191,"134","HOLTON","KS",66436,NA,NA,191,"134, HOLTON, KS, 66436","No_Match",NA,NA,NA,NA
52192,"1340 23RD ST NW","CANTON","OH",44709,40.8226237750001,-81.386161207,192,"1340 23RD ST NW, CANTON, OH, 44709","Match","Exact","1340 23RD ST NW, CANTON, OH, 44709",64677978,"L"
52193,"1340 2ND STREET","ORANGE CITY","FL",32763,28.956763332,-81.320421347,193,"1340 2ND STREET, ORANGE CITY, FL, 32763","Match","Exact","1340 2ND ST, ORANGE CITY, FL, 32763",94516479,"R"
52194,"1340 32ND ST","SARASOTA FL","FL",34234,27.363892064,-82.544601525,194,"1340 32ND ST, SARASOTA FL, FL, 34234","Match","Non_Exact","1340 32ND ST, SARASOTA, FL, 34234",16346990,"R"
52195,"1340 3RD AVE SE","ROCHESTER","MN",55904,44.004620598,-92.45865602,195,"1340 3RD AVE SE, ROCHESTER, MN, 55904","Match","Exact","1340 3RD AVE SE, ROCHESTER, MN, 55904",613696280,"L"
52196,"1340 BAY RIDGE AVENUE","BROOKLYN","NY",11219,40.6231310650001,-74.0029540589999,196,"1340 BAY RIDGE AVENUE, BROOKLYN, NY, 11219","Match","Exact","1340 BAY RIDGE AVE, BROOKLYN, NY, 11219",652209381,"R"
52197,"1340 BAYOU MALLET HWY","EUNICE","LA",70535,30.43064451,-92.330395015,197,"1340 BAYOU MALLET HWY, EUNICE, LA, 70535","Match","Exact","1340 BAYOU MALLET HWY, EUNICE, LA, 70535",88295312,"R"
52198,"1340 BELRUE AVE","ST LOUIS","MO",63133,38.675715354,-90.307579694,198,"1340 BELRUE AVE, ST LOUIS, MO, 63133","Match","Exact","1340 BELRUE AVE, SAINT LOUIS, MO, 63133",100151966,"R"
52199,"1340 BENNETT DRIVE","LONGWOOD","FL",32750,28.6908268970001,-81.35438077,199,"1340 BENNETT DRIVE, LONGWOOD, FL, 32750","Match","Exact","1340 BENNETT DR, LONGWOOD, FL, 32750",93737399,"L"
52200,"1340 BLEWETT AVE","SAN JOSE","CA",95125,37.3053745220001,-121.897224105,200,"1340 BLEWETT AVE, SAN JOSE, CA, 95125","Match","Exact","1340 BLEWETT AVE, SAN JOSE, CA, 95125",122909479,"L"
52201,"1340 CALLE GRANDE","FULLERTON","CA",92835,33.9008787720001,-117.905872908,201,"1340 CALLE GRANDE, FULLERTON, CA, 92835","Match","Non_Exact","1340 CLL GRANDE, FULLERTON, CA, 92835",144007564,"R"
52202,"1340 CASTLE COURT","OSAGE BEACH","MO",65065,38.1642198660001,-92.627246908,202,"1340 CASTLE COURT, OSAGE BEACH, MO, 65065","Match","Exact","1340 CASTLE CT, OSAGE BEACH, MO, 65065",22873737,"R"
52203,"1340 CLIFFSIDE DRIVE","LOGAN","UT",84321,41.734078798,-111.801755616,203,"1340 CLIFFSIDE DRIVE, LOGAN, UT, 84321","Match","Exact","1340 CLIFFSIDE DR, LOGAN, UT, 84321",155095522,"R"
52204,"1340 COMMUNITY PARK DRIVE","COLUMBUS","OH",43229,40.100671672,-82.952823016,204,"1340 COMMUNITY PARK DRIVE, COLUMBUS, OH, 43229","Match","Exact","1340 COMMUNITY PARK DR, COLUMBUS, OH, 43229",135765074,"R"
52205,"1340 DABNEY HOUSE ROAD","VERNON HILL","VA",24597,36.80807143,-79.172391236,205,"1340 DABNEY HOUSE ROAD, VERNON HILL, VA, 24597","Match","Exact","1340 DABNEY HOUSE RD, VERNON HILL, VA, 24597",56632994,"L"
52206,"1340 DAVENTRY COURT","CHAPEL HILL","NC",27517,35.8953119880001,-78.997658267,206,"1340 DAVENTRY COURT, CHAPEL HILL, NC, 27517","Match","Exact","1340 DAVENTRY CT, CHAPEL HILL, NC, 27517",71756860,"R"
52207,"1340 E 6TH STREET SUITE 410","LOS ANGELES","CA",90021,NA,NA,207,"1340 E 6TH STREET SUITE 410, LOS ANGELES, CA, 90021","No_Match",NA,NA,NA,NA
52208,"1340 E AMITY ROAD","MERIDIAN","ID",83642,43.561165611,-116.377434927,208,"1340 E AMITY ROAD, MERIDIAN, ID, 83642","Match","Exact","1340 E AMITY RD, MERIDIAN, ID, 83642",624091236,"L"
52209,"1340 E COLFAX AVE","SOUTH BEND","IN",46617,41.677921315,-86.228808805,209,"1340 E COLFAX AVE, SOUTH BEND, IN, 46617","Match","Exact","1340 E COLFAX AVE, SOUTH BEND, IN, 46617",8088433,"R"
52210,"1340 E SHERWOOD DR APT 3","GRAND JUNCTION","CO",81501,NA,NA,210,"1340 E SHERWOOD DR APT 3, GRAND JUNCTION, CO, 81501","Tie",NA,NA,NA,NA
52211,"1340 EAGLES WAY CT","HAZELWOOD","MO",63042,38.785477852,-90.389916071,211,"1340 EAGLES WAY CT, HAZELWOOD, MO, 63042","Match","Exact","1340 EAGLES WAY CT, HAZELWOOD, MO, 63042",620054193,"R"
52212,"1340 HAL GREER BOULEVARD","HUNTINGTON","WV",25701,38.4089766500001,-82.428192858,212,"1340 HAL GREER BOULEVARD, HUNTINGTON, WV, 25701","Match","Exact","1340 HAL GREER BLVD, HUNTINGTON, WV, 25701",101335285,"L"
52213,"1340 HIGHWAY 378","LEXINGON","SC",29072,NA,NA,213,"1340 HIGHWAY 378, LEXINGON, SC, 29072","No_Match",NA,NA,NA,NA
52214,"1340 KINGS BOTTOM DRIVE","FORT MILL","SC",29715,34.9662120470001,-80.900191611,214,"1340 KINGS BOTTOM DRIVE, FORT MILL, SC, 29715","Match","Non_Exact","1340 KING'S BOTTOM DR, FORT MILL, SC, 29715",640304406,"R"
52215,"1340 LARUE ROAD","TOPPENISH","WA",98948,46.360491358,-120.328273117,215,"1340 LARUE ROAD, TOPPENISH, WA, 98948","Match","Exact","1340 LARUE RD, TOPPENISH, WA, 98948",623961327,"L"
52216,"1340 LEVIS STREET NE  UNIT 2","WASHINGTON","DC",20002,38.9045224760001,-76.9836190249999,216,"1340 LEVIS STREET NE  UNIT 2, WASHINGTON, DC, 20002","Match","Exact","1340 LEVIS ST NE, WASHINGTON, DC, 20002",76230219,"L"
52217,"1340 LEVIS STREET NE UNIT 2","WASHINGTON","DC",20002,38.9045224760001,-76.9836190249999,217,"1340 LEVIS STREET NE UNIT 2, WASHINGTON, DC, 20002","Match","Exact","1340 LEVIS ST NE, WASHINGTON, DC, 20002",76230219,"L"
52218,"1340 MAIN ST","LOUISVILLE","CO",80027,39.983081903,-105.132156921,218,"1340 MAIN ST, LOUISVILLE, CO, 80027","Match","Exact","1340 MAIN ST, LOUISVILLE, CO, 80027",188166353,"R"
52219,"1340 MAIN STREET","SPEEDWAY","IN",46224,39.7846889350001,-86.2410338989999,219,"1340 MAIN STREET, SPEEDWAY, IN, 46224","Match","Exact","1340 MAIN ST, SPEEDWAY, IN, 46224",107979105,"L"
52220,"1340 MATTESON STREET","FARIBAULT","MN",55021,44.3052455120001,-93.2500386359999,220,"1340 MATTESON STREET, FARIBAULT, MN, 55021","Match","Exact","1340 MATTESON ST, FARIBAULT, MN, 55021",647593334,"R"
52221,"1340 MEADOWBROOK DRIVE","INDIANAPOLIS","IN",46240,39.9068361610001,-86.13913794,221,"1340 MEADOWBROOK DRIVE, INDIANAPOLIS, IN, 46240","Match","Exact","1340 MEADOWBROOK DR, INDIANAPOLIS, IN, 46240",108024696,"L"
52222,"1340 MERRIE RIDGE ROAD","MCLEAN","VA",22101,38.9352209310001,-77.129588896,222,"1340 MERRIE RIDGE ROAD, MCLEAN, VA, 22101","Match","Exact","1340 MERRIE RIDGE RD, MCLEAN, VA, 22101",215923364,"L"
52223,"1340 MOSBYS REACH","CHARLOTTESVILLE","VA",22901,38.0594348060001,-78.457122484,223,"1340 MOSBYS REACH, CHARLOTTESVILLE, VA, 22901","Match","Non_Exact","1340 MOSBY REACH, CHARLOTTESVILLE, VA, 22901",83375022,"L"
52224,"1340 N BRICKYARD RD SUITE 6113","COLUMBIA","SC",29223,34.127359729,-80.941929089,224,"1340 N BRICKYARD RD SUITE 6113, COLUMBIA, SC, 29223","Match","Non_Exact","1340 N BRICKYARD RD, COLUMBIA, SC, 29223",71865706,"R"
52225,"1340 N BRICKYARD ROAD APT 8123","COLUMBIA","SC",29223,34.127359729,-80.941929089,225,"1340 N BRICKYARD ROAD APT 8123, COLUMBIA, SC, 29223","Match","Non_Exact","1340 N BRICKYARD RD, COLUMBIA, SC, 29223",71865706,"R"
52226,"1340 N DEAN ST APT1W","CHICAGO","IL",60622,41.9069399890001,-87.6704924049999,226,"1340 N DEAN ST APT1W, CHICAGO, IL, 60622","Match","Non_Exact","1340 N DEAN ST, CHICAGO, IL, 60622",605066356,"L"
52227,"1340 N EASTERN AVE","MOORE","OK",73160,NA,NA,227,"1340 N EASTERN AVE, MOORE, OK, 73160","Tie",NA,NA,NA,NA
52228,"1340 N GREAT NECK RD SUITE1272-202","VA BEACH","VA",23454,36.877813163,-76.041173311,228,"1340 N GREAT NECK RD SUITE1272-202, VA BEACH, VA, 23454","Match","Non_Exact","1340 N GREAT NECK RD, VIRGINIA BCH, VA, 23454",122304750,"L"
52229,"1340 N HOLLYWOOD BLVD","LAS VEGAS","NV",89110,36.183818339,-115.02567632,229,"1340 N HOLLYWOOD BLVD, LAS VEGAS, NV, 89110","Match","Exact","1340 N HOLLYWOOD BLVD, LAS VEGAS, NV, 89110",201876779,"R"
52230,"1340 N MARIPOSA RD","NOGALES","AZ",85621,31.3564905060001,-110.958913952,230,"1340 N MARIPOSA RD, NOGALES, AZ, 85621","Match","Exact","1340 N MARIPOSA RD, NOGALES, AZ, 85621",653134157,"R"
52231,"1340 NEW FOREST LANE","OSPREY","FL",34229,27.1880982340001,-82.472246496,231,"1340 NEW FOREST LANE, OSPREY, FL, 34229","Match","Exact","1340 NEW FOREST LN, OSPREY, FL, 34229",16449022,"L"
52232,"1340 NW 5TH AVE","FT LAUDERDALE","FL",33311,26.1427904670001,-80.1491912129999,232,"1340 NW 5TH AVE, FT LAUDERDALE, FL, 33311","Match","Non_Exact","1340 NW 5TH AVE, FORT LAUDERDALE, FL, 33311",114721810,"R"
52233,"1340 OAK ST NW","WASHINGTON","DC",20010,38.933849976,-77.031655762,233,"1340 OAK ST NW, WASHINGTON, DC, 20010","Match","Exact","1340 OAK ST NW, WASHINGTON, DC, 20010",76222967,"L"
52234,"1340 OAKLEY DRIVE","BATON ROUGE","LA",70806,30.437524667,-91.0928776439999,234,"1340 OAKLEY DRIVE, BATON ROUGE, LA, 70806","Match","Exact","1340 OAKLEY DR, BATON ROUGE, LA, 70806",92189962,"R"
52235,"1340 OCEAN AVENUE UNIT 30","SEA BRIGHT","NJ",7760,40.3530275090001,-73.973775486,235,"1340 OCEAN AVENUE UNIT 30, SEA BRIGHT, NJ, 7760","Match","Exact","1340 OCEAN AVE, SEA BRIGHT, NJ, 07760",90566341,"R"
52236,"1340 OLD CHAIN BRIDGE ROAD STE 207","MCLEAN","VA",22101,38.936988447,-77.175677034,236,"1340 OLD CHAIN BRIDGE ROAD STE 207, MCLEAN, VA, 22101","Match","Exact","1340 CHAIN BRIDGE RD, MCLEAN, VA, 22101",215923173,"R"
52237,"1340 PORT WILLIAMS RD","SEQUIM","WA",98382,48.0980138940001,-123.073913723,237,"1340 PORT WILLIAMS RD, SEQUIM, WA, 98382","Match","Exact","1340 PORT WILLIAMS RD, SEQUIM, WA, 98382",150852276,"R"
52238,"1340 POYDRAS ST SUITE 1850","NEW ORLEANS","LA",70112,29.9511202480001,-90.0769759459999,238,"1340 POYDRAS ST SUITE 1850, NEW ORLEANS, LA, 70112","Match","Non_Exact","1340 POYDRAS ST, NEW ORLEANS, LA, 70113",191713685,"L"
52239,"1340 POYDRAS STREET - 1770","NEW ORLEANS","LA",70112,29.9511202480001,-90.0769759459999,239,"1340 POYDRAS STREET - 1770, NEW ORLEANS, LA, 70112","Match","Non_Exact","1340 POYDRAS ST, NEW ORLEANS, LA, 70113",191713685,"L"
52240,"1340 REMINGTON RD STE M","SCHAUMBURG","IL",60173,42.0534485160001,-88.046459602,240,"1340 REMINGTON RD STE M, SCHAUMBURG, IL, 60173","Match","Exact","1340 REMINGTON RD, SCHAUMBURG, IL, 60173",605596305,"L"
52241,"1340 RINEYVILLE BIG SPRINGS RD","RINEYVILLE","KY",40162,37.7652658580001,-85.9346741809999,241,"1340 RINEYVILLE BIG SPRINGS RD, RINEYVILLE, KY, 40162","Match","Non_Exact","1340 RINEYVILLE-BIG SPRINGS RD, RINEYVILLE, KY, 40162",34617332,"L"
52242,"1340 ROYAL DRIVE APT 302","SOUTH PARK","PA",15129,40.2881297600001,-80.031501527,242,"1340 ROYAL DRIVE APT 302, SOUTH PARK, PA, 15129","Match","Exact","1340 ROYAL DR, SOUTH PARK, PA, 15129",642114540,"L"
52243,"1340 S 300 E","SALT LAKE CITY","UT",84115,40.740563009,-111.882487367,243,"1340 S 300 E, SALT LAKE CITY, UT, 84115","Match","Exact","1340 S 300 E, SALT LAKE CITY, UT, 84115",176078281,"R"
52244,"1340 S DE ANZA BLVD SUITE 204","SUNNYVALE","CA",95129,NA,NA,244,"1340 S DE ANZA BLVD SUITE 204, SUNNYVALE, CA, 95129","No_Match",NA,NA,NA,NA
52245,"1340 S DE ANZA BLVD","SAN JOSE","CA",95129,37.300461999,-122.032420915,245,"1340 S DE ANZA BLVD, SAN JOSE, CA, 95129","Match","Non_Exact","1342 S DE ANZA BLVD, SAN JOSE, CA, 95129",619129887,"R"
52246,"1340 S INDIANA PARKWAY PW10","CHICAGO","IL",60605,41.864698124,-87.623418671,246,"1340 S INDIANA PARKWAY PW10, CHICAGO, IL, 60605","Match","Non_Exact","1340 S INDIANA PKWY, CHICAGO, IL, 60605",618345314,"L"
52247,"1340 S INDIANA PARKWAY UNIT PW10","CHICAGO","IL",60605,41.864698124,-87.623418671,247,"1340 S INDIANA PARKWAY UNIT PW10, CHICAGO, IL, 60605","Match","Non_Exact","1340 S INDIANA PKWY, CHICAGO, IL, 60605",618345314,"L"
52248,"1340 S JOHNSVILLE ROAD","NEW LEBANON","OH",45345,NA,NA,248,"1340 S JOHNSVILLE ROAD, NEW LEBANON, OH, 45345","No_Match",NA,NA,NA,NA
52249,"1340 S SANDERSON AVE","ANAHEIM","CA",92806,33.814454927,-117.873937455,249,"1340 S SANDERSON AVE, ANAHEIM, CA, 92806","Match","Exact","1340 S SANDERSON AVE, ANAHEIM, CA, 92806",144128045,"R"
52250,"1340 S VALLEY FORGE RD","LANSDALE","PA",19446,40.2317522280001,-75.312102365,250,"1340 S VALLEY FORGE RD, LANSDALE, PA, 19446","Match","Exact","1340 S VALLEY FORGE RD, LANSDALE, PA, 19446",135113157,"R"
52251,"1340 SINGING TREES DR","MEMPHIS","TN",38116,35.051737394,-90.019011576,251,"1340 SINGING TREES DR, MEMPHIS, TN, 38116","Match","Exact","1340 SINGING TREES DR, MEMPHIS, TN, 38116",72910153,"L"
52252,"1340 SMITH AVENUE-SUITE 200","BALTIMORE","MD",21209,39.3678685960001,-76.6496058819999,252,"1340 SMITH AVENUE-SUITE 200, BALTIMORE, MD, 21209","Match","Non_Exact","1340 SMITH AVE, BALTIMORE, MD, 21209",206446971,"R"
52253,"1340 SOUTH 22ND STREET","PHILADELPHIA","PA",19146,39.934940349,-75.1808187249999,253,"1340 SOUTH 22ND STREET, PHILADELPHIA, PA, 19146","Match","Exact","1340 S 22ND ST, PHILADELPHIA, PA, 19146",131410819,"R"
52254,"1340 STRAWBERRY LANE","LEXINGTON","KY",40502,38.0107397130001,-84.489925876,254,"1340 STRAWBERRY LANE, LEXINGTON, KY, 40502","Match","Exact","1340 STRAWBERRY LN, LEXINGTON, KY, 40502",31924019,"R"
52255,"1340 W 111TH STREET 2ND FLOOR","CHICAGO","IL",60643,41.692203512,-87.655586246,255,"1340 W 111TH STREET 2ND FLOOR, CHICAGO, IL, 60643","Match","Non_Exact","1340 W 111TH ST, CHICAGO, IL, 60643",111823633,"R"
52256,"1340 W COLUMBIA AVE","KISSIMMEE","FL",34741,28.3080851060001,-81.4183438809999,256,"1340 W COLUMBIA AVE, KISSIMMEE, FL, 34741","Match","Exact","1340 W COLUMBIA AVE, KISSIMMEE, FL, 34741",639419818,"R"
52257,"1340 WEST 90TH PLACE SUITE 204-11","MERRILLVILLE","IN",46410,NA,NA,257,"1340 WEST 90TH PLACE SUITE 204-11, MERRILLVILLE, IN, 46410","No_Match",NA,NA,NA,NA
52258,"1340 WRIGHT COURT","FRANKLIN","IN",46131,39.4847785330001,-86.0824654319999,258,"1340 WRIGHT COURT, FRANKLIN, IN, 46131","Match","Exact","1340 WRIGHT CT, FRANKLIN, IN, 46131",114654169,"R"
52259,"13400 90TH STREET NE","OTSEGO","MN",55330,NA,NA,259,"13400 90TH STREET NE, OTSEGO, MN, 55330","No_Match",NA,NA,NA,NA
52260,"13400 APPLEWOOD CT","LATHROP","CA",95330,37.839481349,-121.277709754,260,"13400 APPLEWOOD CT, LATHROP, CA, 95330","Match","Exact","13400 APPLEWOOD CT, LATHROP, CA, 95330",133921394,"L"
52261,"13400 BALDWIN DRIVE","OKLAHOMA CITY","OK",73142,35.604888703,-97.628972006,261,"13400 BALDWIN DRIVE, OKLAHOMA CITY, OK, 73142","Match","Exact","13400 BALDWIN DR, OKLAHOMA CITY, OK, 73142",100434463,"L"
52262,"13400 CEDAR CREEK LANE","SILVER SPRING","MD",20904,39.0758755310001,-76.972167022,262,"13400 CEDAR CREEK LANE, SILVER SPRING, MD, 20904","Match","Exact","13400 CEDAR CREEK LN, SILVER SPRING, MD, 20904",62115199,"R"
52263,"13400 E 12 MILE ROAD","WARREN","MI",48088,NA,NA,263,"13400 E 12 MILE ROAD, WARREN, MI, 48088","No_Match",NA,NA,NA,NA
52264,"13400 ELGIN BLVD","SPRING HILL","FL",34609,28.500934359,-82.503682489,264,"13400 ELGIN BLVD, SPRING HILL, FL, 34609","Match","Exact","13400 ELGIN BLVD, SPRING HILL, FL, 34609",85463135,"L"
52265,"13400 JEFFERSON DAVIS HWY","CHESTER","VA",23831,37.3430644600001,-77.409331395,265,"13400 JEFFERSON DAVIS HWY, CHESTER, VA, 23831","Match","Exact","13400 JEFFERSON DAVIS HWY, CHESTER, VA, 23831",201552000,"R"
52266,"13400 LUICK DRIVE","CHELSEA","MI",48118,42.297006905,-83.993553381,266,"13400 LUICK DRIVE, CHELSEA, MI, 48118","Match","Exact","13400 LUICK DR, CHELSEA, MI, 48118",627085004,"R"
52267,"13400 MAPLE HILL RD","ALPENA","AR",72611,36.297483915,-93.26837762,267,"13400 MAPLE HILL RD, ALPENA, AR, 72611","Match","Non_Exact","13400 MAPLE HILL RD W, ALPENA, AR, 72611",19978862,"L"
52268,"13400 N MIAMI AVENUE","MIAMI","FL",33168,NA,NA,268,"13400 N MIAMI AVENUE, MIAMI, FL, 33168","No_Match",NA,NA,NA,NA
52269,"13400 NW 140ST APPT 2503","ALACHUA","FL",32615,NA,NA,269,"13400 NW 140ST APPT 2503, ALACHUA, FL, 32615","No_Match",NA,NA,NA,NA
52270,"13400 NW CORNELL RD APT 206","PORTLAND","OR",97229,45.5260345200001,-122.813270717,270,"13400 NW CORNELL RD APT 206, PORTLAND, OR, 97229","Match","Non_Exact","13400 NW CORNELL RD, PORTLAND, OR, 97229",158227311,"L"
52271,"13400 S ROUTE 59 SUITE 116/250","PLAINFIELD","IL",60585,NA,NA,271,"13400 S ROUTE 59 SUITE 116/250, PLAINFIELD, IL, 60585","No_Match",NA,NA,NA,NA
52272,"13400 S W 4 TERRACE","MIAMI","FL",33184,25.7631099330001,-80.4125573059999,272,"13400 S W 4 TERRACE, MIAMI, FL, 33184","Match","Non_Exact","13400 SW 4TH TER, MIAMI, FL, 33184",115962729,"L"
52273,"13400 SCHAEFER","DETROIT","MI",48227,42.385358437,-83.178429358,273,"13400 SCHAEFER, DETROIT, MI, 48227","Match","Non_Exact","13400 SCHAEFER HWY, DETROIT, MI, 48227",95441721,"R"
52274,"13400 TURAH RD","CLIN","MT",59825,46.823889433,-113.813432815,274,"13400 TURAH RD, CLIN, MT, 59825","Match","Non_Exact","13400 TURAH RD, CLINTON, MT, 59825",205297050,"R"
52275,"13401 32 CAMPGROUND RD","LANEXA","VA",23089,NA,NA,275,"13401 32 CAMPGROUND RD, LANEXA, VA, 23089","No_Match",NA,NA,NA,NA
52276,"13401 AL HWY 227","GERALDINE","AL",35974,34.355818119,-86.0039997279999,276,"13401 AL HWY 227, GERALDINE, AL, 35974","Match","Non_Exact","13401 CO RD 227, GERALDINE, AL, 35974",99142586,"L"
52277,"13401 AMBERLY RD PO BOX 462","WAVERLY","NE",68462,40.9070261050001,-96.534716805,277,"13401 AMBERLY RD PO BOX 462, WAVERLY, NE, 68462","Match","Exact","13401 AMBERLY RD, WAVERLY, NE, 68462",640633158,"L"
52278,"13401 AVEBURY DR 34","LAUREL","MD",20708,39.0745804590001,-76.855743409,278,"13401 AVEBURY DR 34, LAUREL, MD, 20708","Match","Exact","13401 AVEBURY DR, LAUREL, MD, 20708",639494740,"R"
52279,"13401 KERNS RD","NEWALLA","OK",74857,35.3355310210001,-97.276007339,279,"13401 KERNS RD, NEWALLA, OK, 74857","Match","Exact","13401 KERNS RD, NEWALLA, OK, 74857",99926653,"R"
52280,"13401 MORGAN AVENUE SOUTH 102","BURNSVILLE","MN",55337,44.7605215360001,-93.304976161,280,"13401 MORGAN AVENUE SOUTH 102, BURNSVILLE, MN, 55337","Match","Exact","13401 MORGAN AVE S, BURNSVILLE, MN, 55337",37947034,"L"
52281,"13401 RAILWAY DRIVE","OKLAHOMA CITY","OK",73114,35.606682705,-97.5036011179999,281,"13401 RAILWAY DRIVE, OKLAHOMA CITY, OK, 73114","Match","Exact","13401 RAILWAY DR, OKLAHOMA CITY, OK, 73114",100433800,"L"
52282,"13401 S SOONER RD","EDMOND","OK",73034,35.7387404470001,-97.427211293,282,"13401 S SOONER RD, EDMOND, OK, 73034","Match","Exact","13401 S SOONER RD, EDMOND, OK, 73034",606658919,"L"
52283,"13401 SILVERDUST LANE","CHESTER","VA",23836,37.3438112630001,-77.3650216,283,"13401 SILVERDUST LANE, CHESTER, VA, 23836","Match","Exact","13401 SILVERDUST LN, CHESTER, VA, 23836",637329683,"R"
52284,"13401 SW 30 STREET","MIAMI","FL",33175,25.7400179000001,-80.41210246,284,"13401 SW 30 STREET, MIAMI, FL, 33175","Match","Exact","13401 SW 30TH ST, MIAMI, FL, 33175",116066919,"R"
52285,"13401 VESSELS ROAD","LOUISVILLE","KY",40299,38.0970638040001,-85.533268016,285,"13401 VESSELS ROAD, LOUISVILLE, KY, 40299","Match","Exact","13401 VESSELS RD, LOUISVILLE, KY, 40299",641784677,"R"
52286,"13401","AUSTIN","TX",78738,NA,NA,286,"13401, AUSTIN, TX, 78738","No_Match",NA,NA,NA,NA
52287,"13402 ELLA RIDGE LN","HOUSTON","TX",77067,29.961537032,-95.427657914,287,"13402 ELLA RIDGE LN, HOUSTON, TX, 77067","Match","Exact","13402 ELLA RIDGE LN, HOUSTON, TX, 77067",642076839,"R"
52288,"13402 HONEYWAY","MADISON","AL",35757,NA,NA,288,"13402 HONEYWAY, MADISON, AL, 35757","No_Match",NA,NA,NA,NA
52289,"13402 JANUARY CT","CORONA","CA",92879,33.873153186,-117.512809313,289,"13402 JANUARY CT, CORONA, CA, 92879","Match","Exact","13402 JANUARY CT, CORONA, CA, 92879",194853071,"R"
52290,"13402 THOMASVILLE CIRCLE APT A","TAMPA","FL",33617,28.0664319210001,-82.3813555959999,290,"13402 THOMASVILLE CIRCLE APT A, TAMPA, FL, 33617","Match","Exact","13402 THOMASVILLE CIR, TAMPA, FL, 33617",104567154,"R"
52291,"13403 ALPINE COVE DRIVE","ALPINE","UT",84004,40.476298081,-111.762954624,291,"13403 ALPINE COVE DRIVE, ALPINE, UT, 84004","Match","Exact","13403 ALPINE COVE DR, ALPINE, UT, 84004",134263958,"L"
52292,"13403 COPPER HEAD DRIVE","RIVERVIEW","FL",33569,27.847479305,-82.2693322169999,292,"13403 COPPER HEAD DRIVE, RIVERVIEW, FL, 33569","Match","Exact","13403 COPPER HEAD DR, RIVERVIEW, FL, 33569",104673898,"R"
52293,"13403 SOMERSWORTH DR","HOUSTON","TX",77041,29.862518774,-95.611956747,293,"13403 SOMERSWORTH DR, HOUSTON, TX, 77041","Match","Exact","13403 SOMERSWORTH DR, HOUSTON, TX, 77041",96018524,"R"
52294,"13403 VESTAVIA COURT","HOUSTON","TX",77069,29.9847693670001,-95.520422442,294,"13403 VESTAVIA COURT, HOUSTON, TX, 77069","Match","Exact","13403 VESTAVIA CT, HOUSTON, TX, 77069",96009651,"L"
52295,"13403 W 72ND ST","SHAWNEE","KS",66216,38.9985848790001,-94.740812137,295,"13403 W 72ND ST, SHAWNEE, KS, 66216","Match","Exact","13403 W 72ND ST, SHAWNEE, KS, 66216",91312976,"L"
52296,"13404 174TH ST E","PUYALLUP","WA",98374,47.0976814100001,-122.251616252,296,"13404 174TH ST E, PUYALLUP, WA, 98374","Match","Exact","13404 174TH ST E, PUYALLUP, WA, 98374",630036755,"R"
52297,"13404 GRAY RD","ALBION","NY",14411,43.1639121110001,-78.2642039849999,297,"13404 GRAY RD, ALBION, NY, 14411","Match","Exact","13404 GRAY RD, ALBION, NY, 14411",48804498,"L"
52298,"13404 LOCUST ST","THORNTON","CO",80602,39.9438680060001,-104.913170265,298,"13404 LOCUST ST, THORNTON, CO, 80602","Match","Exact","13404 LOCUST ST, THORNTON, CO, 80602",177455203,"R"
52299,"13404 STAFFORDSHIRE PLACE","GERMANTOWN","MD",20874,39.193451376,-77.277663659,299,"13404 STAFFORDSHIRE PLACE, GERMANTOWN, MD, 20874","Match","Exact","13404 STAFFORDSHIRE PL, GERMANTOWN, MD, 20874",62094570,"L"
52300,"13404 TANGIER PLACE","ROCKVILLE","MD",20853,39.075154255,-77.085303126,300,"13404 TANGIER PLACE, ROCKVILLE, MD, 20853","Match","Exact","13404 TANGIER PL, ROCKVILLE, MD, 20853",62059968,"L"
52301,"13404 TOSSA LN","AUSTIN","TX",78729,30.454612207,-97.754392939,301,"13404 TOSSA LN, AUSTIN, TX, 78729","Match","Exact","13404 TOSSA LN, AUSTIN, TX, 78729",126457266,"R"
52302,"13404 WILD CITRUS RD","SARASOTA","FL",34240,27.322639942,-82.314428259,302,"13404 WILD CITRUS RD, SARASOTA, FL, 34240","Match","Exact","13404 WILD CITRUS RD, SARASOTA, FL, 34240",16427306,"R"
52303,"13405 CR 261C","NATHROP","CO",81236,38.678415998,-106.123839209,303,"13405 CR 261C, NATHROP, CO, 81236","Match","Exact","13405 CO RD 261C, NATHROP, CO, 81236",108248144,"L"
52304,"13405 MARINDA STREET","OMAHA","NE",68144,41.239222957,-96.122037714,304,"13405 MARINDA STREET, OMAHA, NE, 68144","Match","Exact","13405 MARINDA ST, OMAHA, NE, 68144",116970715,"L"
52305,"13405 N 8TH STREET","PHOENIX","AZ",85022,33.6077806770001,-112.062840487,305,"13405 N 8TH STREET, PHOENIX, AZ, 85022","Match","Exact","13405 N 8TH ST, PHOENIX, AZ, 85022",128183530,"R"
52306,"13405 RING DRIVE","MANOR","TX",78653,30.33994626,-97.520932159,306,"13405 RING DRIVE, MANOR, TX, 78653","Match","Exact","13405 RING DR, MANOR, TX, 78653",614184996,"R"
52307,"13406 40TH STREET NORTH","STILLWATER","MN",55082,45.0070830290001,-92.8352336299999,307,"13406 40TH STREET NORTH, STILLWATER, MN, 55082","Match","Exact","13406 40TH ST N, STILLWATER, MN, 55082",97821968,"L"
52308,"13406 HAVELOCK TRAIL","APPLE VALLEY","MN",55124,44.7540844420001,-93.2321317399999,308,"13406 HAVELOCK TRAIL, APPLE VALLEY, MN, 55124","Match","Exact","13406 HAVELOCK TRL, APPLE VALLEY, MN, 55124",37905546,"L"
52309,"13406 VIRGINIA WILLOW DRIVE","FAIRFAX","VA",22033,38.900873065,-77.411283184,309,"13406 VIRGINIA WILLOW DRIVE, FAIRFAX, VA, 22033","Match","Exact","13406 VIRGINIA WILLOW DR, FAIRFAX, VA, 22033",76010368,"L"
52310,"13407 BONITA AVE","SPRING HILL","FL",34609,28.4732997830001,-82.5007448649999,310,"13407 BONITA AVE, SPRING HILL, FL, 34609","Match","Exact","13407 BONITA AVE, SPRING HILL, FL, 34609",85431646,"L"
52311,"13407 KENT STREET","NAPLES","FL",34109,26.224041636,-81.7536886619999,311,"13407 KENT STREET, NAPLES, FL, 34109","Match","Exact","13407 KENT ST, NAPLES, FL, 34109",619118879,"R"
52312,"13408 94TH AVENUE NORTH","MAPLE GROVE","MN",55369,45.12517611,-93.4507967329999,312,"13408 94TH AVENUE NORTH, MAPLE GROVE, MN, 55369","Match","Exact","13408 94TH AVE N, MAPLE GROVE, MN, 55369",43815092,"L"
52313,"13408 ACCENT WAY","GERMANTOWN","MD",20874,39.1674538080001,-77.2773246529999,313,"13408 ACCENT WAY, GERMANTOWN, MD, 20874","Match","Exact","13408 ACCENT WAY, GERMANTOWN, MD, 20874",637462522,"L"
52314,"13408 BLACK WALNUT LANE","SPOTSYLVANIA","VA",22551,38.0826611190001,-77.797859338,314,"13408 BLACK WALNUT LANE, SPOTSYLVANIA, VA, 22551","Match","Exact","13408 BLACK WALNUT LN, SPOTSYLVANIA, VA, 22551",618669501,"L"
52315,"13408 FITZHUGH RD","AUSTIN","TX",78736,30.2323457190001,-98.00073221,315,"13408 FITZHUGH RD, AUSTIN, TX, 78736","Match","Exact","13408 FITZHUGH RD, AUSTIN, TX, 78736",651396994,"L"
52316,"13408 HERRON ST","SYLMAR","CA",91342,34.3164670200001,-118.424964967,316,"13408 HERRON ST, SYLMAR, CA, 91342","Match","Exact","13408 HERRON ST, SYLMAR, CA, 91342",141546273,"L"
52317,"13408 RIDGE DRIVE","ROCKVILLE","MD",20850,39.076106344,-77.2022033969999,317,"13408 RIDGE DRIVE, ROCKVILLE, MD, 20850","Match","Exact","13408 RIDGE DR, ROCKVILLE, MD, 20850",62052663,"L"
52318,"13408 YOUNGDALE PLACE","RIVERVIEW","FL",33579,27.7944470080001,-82.279822494,318,"13408 YOUNGDALE PLACE, RIVERVIEW, FL, 33579","Match","Exact","13408 YOUNGDALE PL, RIVERVIEW, FL, 33579",628005594,"L"
52319,"13409 CAMPESINA DRIVE","AUSTIN","TX",78727,30.428304154,-97.68766557,319,"13409 CAMPESINA DRIVE, AUSTIN, TX, 78727","Match","Exact","13409 CAMPESINA DR, AUSTIN, TX, 78727",641808245,"R"
52320,"13409 GEORGE RD","SAN ANTONIO","IL",78230,NA,NA,320,"13409 GEORGE RD, SAN ANTONIO, IL, 78230","No_Match",NA,NA,NA,NA
52321,"13409 GLENDOWER RD","MIDLOTHIAN","VA",23113,37.5332226410001,-77.64462778,321,"13409 GLENDOWER RD, MIDLOTHIAN, VA, 23113","Match","Exact","13409 GLENDOWER RD, MIDLOTHIAN, VA, 23113",201528597,"R"
52322,"13409 KEATING DR","WOODBRDIGE","VA",22193,38.6628844190001,-77.347293343,322,"13409 KEATING DR, WOODBRDIGE, VA, 22193","Match","Non_Exact","13409 KEATING DR, WOODBRIDGE, VA, 22193",76508414,"L"
52323,"13409 OUACHITA AVE","BATON ROUGE","LA",70818,30.5606365850001,-91.038889288,323,"13409 OUACHITA AVE, BATON ROUGE, LA, 70818","Match","Exact","13409 OUACHITA AVE, BATON ROUGE, LA, 70818",92187061,"L"
52324,"13409 PATTEN TRACT RD","MONROEVILLE","OH",44847,41.288936941,-82.72464525,324,"13409 PATTEN TRACT RD, MONROEVILLE, OH, 44847","Match","Exact","13409 PATTEN TRACT RD, MONROEVILLE, OH, 44847",55340759,"L"
52325,"1341 1/2 N MARIPOSA AVE","LOS ANGELES","CA",90027,34.095551281,-118.299427175,325,"1341 1/2 N MARIPOSA AVE, LOS ANGELES, CA, 90027","Match","Exact","1341 N MARIPOSA AVE, LOS ANGELES, CA, 90027",141603238,"L"
52326,"1341 17TH STREET","HOXIE","KS",67740,39.3593711070001,-100.43367683,326,"1341 17TH STREET, HOXIE, KS, 67740","Match","Exact","1341 17TH ST, HOXIE, KS, 67740",196507442,"L"
52327,"1341 ADELAIDE STREET","WESTLAKE","OH",44145,41.4673087310001,-81.9046992629999,327,"1341 ADELAIDE STREET, WESTLAKE, OH, 44145","Match","Exact","1341 ADELAIDE ST, WESTLAKE, OH, 44145",61153803,"R"
52328,"1341 ARBOR VISTA LOOP UNIT 229","HEATHROW","FL",32746,28.7546212440001,-81.369408607,328,"1341 ARBOR VISTA LOOP UNIT 229, HEATHROW, FL, 32746","Match","Exact","1341 ARBOR VIS LP, HEATHROW, FL, 32746",93794846,"R"
52329,"1341 BELMEADE DRIVE","KINGSPORT","TN",37664,36.5488876790001,-82.533821747,329,"1341 BELMEADE DRIVE, KINGSPORT, TN, 37664","Match","Exact","1341 BELMEADE DR, KINGSPORT, TN, 37664",127829840,"R"
52330,"1341 CAPITAL CIRCLE SUITE I","MARIETTA","GA",30067,33.9221278260001,-84.486991341,330,"1341 CAPITAL CIRCLE SUITE I, MARIETTA, GA, 30067","Match","Exact","1341 CAPITAL CIR, MARIETTA, GA, 30067",17253947,"L"
52331,"1341 CHESTNUT ST","DRESDEN","OH",43821,40.113568403,-82.008197624,331,"1341 CHESTNUT ST, DRESDEN, OH, 43821","Match","Exact","1341 CHESTNUT ST, DRESDEN, OH, 43821",45599888,"L"
52332,"1341 CLEMONS LANE","GILBERT","SC",29254,NA,NA,332,"1341 CLEMONS LANE, GILBERT, SC, 29254","No_Match",NA,NA,NA,NA
52333,"1341 CLOUGH PIKE","BATAVIA","OH",45103,39.064359568,-84.233285181,333,"1341 CLOUGH PIKE, BATAVIA, OH, 45103","Match","Exact","1341 CLOUGH PIKE, BATAVIA, OH, 45103",650217232,"R"
52334,"1341 COUNTY ROAD 557","FARMERSVILLE","TX",75442,33.1436081260001,-96.402727127,334,"1341 COUNTY ROAD 557, FARMERSVILLE, TX, 75442","Match","Exact","1341 CO RD 557, FARMERSVILLE, TX, 75442",642475273,"R"
52335,"1341 DORSEY ROAD","HANOVER","MD",21076,39.1583656450001,-76.709698472,335,"1341 DORSEY ROAD, HANOVER, MD, 21076","Match","Exact","1341 DORSEY RD, HANOVER, MD, 21076",639942988,"L"
52336,"1341 E ALGONQUIN RD","DES PLAINES","IL",60016,42.0313630970001,-87.890790148,336,"1341 E ALGONQUIN RD, DES PLAINES, IL, 60016","Match","Exact","1341 E ALGONQUIN RD, DES PLAINES, IL, 60016",605246451,"R"
52337,"1341 E GLADWICK ST","CARSON","CA",90746,33.8525415030001,-118.247156899,337,"1341 E GLADWICK ST, CARSON, CA, 90746","Match","Exact","1341 E GLADWICK ST, CARSON, CA, 90746",141681130,"L"
52338,"1341 E REYNOLDS DR","PALATINE","IL",60074,42.1168249190001,-88.010425794,338,"1341 E REYNOLDS DR, PALATINE, IL, 60074","Match","Exact","1341 E REYNOLDS DR, PALATINE, IL, 60074",111697012,"R"
52339,"1341 EAST 5TH STREET","BROOKLYN","NY",11230,40.618240588,-73.970735363,339,"1341 EAST 5TH STREET, BROOKLYN, NY, 11230","Match","Exact","1341 E 5TH ST, BROOKLYN, NY, 11230",59089370,"L"
52340,"1341 FINDLAY AVE","BRONX","NY",10456,40.8357727320001,-73.910593462,340,"1341 FINDLAY AVE, BRONX, NY, 10456","Match","Exact","1341 FINDLAY AVE, BRONX, NY, 10456",640815704,"L"
52341,"1341 GRAN CRIQUE DR SUITE E","ROSWELL","GA",30076,34.0301585400001,-84.320942482,341,"1341 GRAN CRIQUE DR SUITE E, ROSWELL, GA, 30076","Match","Exact","1341 GRAN CRIQUE DR, ROSWELL, GA, 30076",17418716,"L"
52342,"1341 LITTLE OSAGE LN","BENTONVILLE","AR",72713,36.3502490600001,-94.261630278,342,"1341 LITTLE OSAGE LN, BENTONVILLE, AR, 72713","Match","Exact","1341 LITTLE OSAGE LN, BENTONVILLE, AR, 72713",652031869,"L"
52343,"1341 MAIN ST","LOUISVILLE","CO",80027,39.9830818340001,-105.132171231,343,"1341 MAIN ST, LOUISVILLE, CO, 80027","Match","Exact","1341 MAIN ST, LOUISVILLE, CO, 80027",188166353,"L"
52344,"1341 MALVERN DR","MURFREESBORO","TN",37129,35.968638668,-86.388701838,344,"1341 MALVERN DR, MURFREESBORO, TN, 37129","Match","Exact","1341 MALVERN DR, MURFREESBORO, TN, 37129",59029771,"R"
52345,"1341 MATSON DRIVE","MARION","VA",24354,36.812599113,-81.5127993739999,345,"1341 MATSON DRIVE, MARION, VA, 24354","Match","Exact","1341 MATSON DR, MARION, VA, 24354",47195692,"R"
52346,"1341 MIDWAY DRIVE","ALPINE","CA",91901,32.8371979080001,-116.786259263,346,"1341 MIDWAY DRIVE, ALPINE, CA, 91901","Match","Exact","1341 MIDWAY DR, ALPINE, CA, 91901",624930167,"R"
52347,"1341 MOOKAULA STREET","HONOLULU","HI",96817,21.327061305,-157.871513843,347,"1341 MOOKAULA STREET, HONOLULU, HI, 96817","Match","Exact","1341 MOOKAULA ST, HONOLULU, HI, 96817",641969703,"L"
52348,"1341 N ASHLAND","CHICAGO","IL",60622,NA,NA,348,"1341 N ASHLAND, CHICAGO, IL, 60622","No_Match",NA,NA,NA,NA
52349,"1341 NATIONAL RD","WHEELILNG","WV",26003,NA,NA,349,"1341 NATIONAL RD, WHEELILNG, WV, 26003","No_Match",NA,NA,NA,NA
52350,"1341 NATIONAL ROAD","WHEELING","WV",26003,NA,NA,350,"1341 NATIONAL ROAD, WHEELING, WV, 26003","No_Match",NA,NA,NA,NA
52351,"1341 NW 18TH DRIVE 302","POMPANO BEACH","FL",33069,26.244003068,-80.146416269,351,"1341 NW 18TH DRIVE 302, POMPANO BEACH, FL, 33069","Match","Non_Exact","1341 NW 18TH DR, POMPANO BEACH, FL, 33069",114810186,"L"
52352,"1341 NW 40TH AVE","LAUDERHILL","FL",33313,NA,NA,352,"1341 NW 40TH AVE, LAUDERHILL, FL, 33313","No_Match",NA,NA,NA,NA
52353,"1341 OLD DINGLEDINE RD","ST CHARLES","MO",63304,NA,NA,353,"1341 OLD DINGLEDINE RD, ST CHARLES, MO, 63304","Tie",NA,NA,NA,NA
52354,"1341 OXBOW RD","MUNCY","PA",17756,41.21969682,-76.611946856,354,"1341 OXBOW RD, MUNCY, PA, 17756","Match","Exact","1341 OXBOW RD, MUNCY, PA, 17756",59458355,"L"
52355,"1341 PLUM STREET","BOOTHWYN","PA",19061,39.842680516,-75.444499333,355,"1341 PLUM STREET, BOOTHWYN, PA, 19061","Match","Exact","1341 PLUM ST, BOOTHWYN, PA, 19061",134887993,"L"
52356,"1341 PUTNAM AVE","PLAINFIELD","NJ",7060,40.6199886900001,-74.404710756,356,"1341 PUTNAM AVE, PLAINFIELD, NJ, 7060","Match","Exact","1341 PUTNAM AVE, PLAINFIELD, NJ, 07060",60602343,"L"
52357,"1341 RINGGOLD STREET","BROWNSVILLE","TX",78520,25.907314177,-97.488619469,357,"1341 RINGGOLD STREET, BROWNSVILLE, TX, 78520","Match","Non_Exact","1341 E RINGGOLD ST, BROWNSVILLE, TX, 78520",89965399,"L"
52358,"1341 S 14TH ST","LINCOLN","NE",68502,40.7998236020001,-96.7012495769999,358,"1341 S 14TH ST, LINCOLN, NE, 68502","Match","Exact","1341 S 14TH ST, LINCOLN, NE, 68502",28254711,"R"
52359,"1341 SCHLEIGER DRIVE","TRACY","CA",95376,37.742586707,-121.445615342,359,"1341 SCHLEIGER DRIVE, TRACY, CA, 95376","Match","Exact","1341 SCHLEIGER DR, TRACY, CA, 95376",133880100,"L"
52360,"1341 SOUTH BOWEN ST","LONGMONT","CO",80501,40.1430099500001,-105.112791887,360,"1341 SOUTH BOWEN ST, LONGMONT, CO, 80501","Match","Exact","1341 S BOWEN ST, LONGMONT, CO, 80501",188156550,"R"
52361,"1341 STRAWBRIDGE RD","NORTHUMBERLAND","PA",17857,40.9189546330001,-76.79435174,361,"1341 STRAWBRIDGE RD, NORTHUMBERLAND, PA, 17857","Match","Exact","1341 STRAWBRIDGE RD, NORTHUMBERLAND, PA, 17857",635611420,"L"
52362,"1341 SUMNER AVE","SPRINGFIELD","MA",1118,42.091917691,-72.5283059609999,362,"1341 SUMNER AVE, SPRINGFIELD, MA, 1118","Match","Exact","1341 SUMNER AVE, SPRINGFIELD, MA, 01118",4037130,"R"
52363,"1341 W BUS 83 LOT 103","ALAMO","TX",78516,NA,NA,363,"1341 W BUS 83 LOT 103, ALAMO, TX, 78516","No_Match",NA,NA,NA,NA
52364,"1341 W BUSINESS HIGHWAY 83 LOT 30","ALAMO","TX",78516,NA,NA,364,"1341 W BUSINESS HIGHWAY 83 LOT 30, ALAMO, TX, 78516","No_Match",NA,NA,NA,NA
52365,"1341 W FULLERTON AVE SUITE 200","CHICAGO","IL",60614,NA,NA,365,"1341 W FULLERTON AVE SUITE 200, CHICAGO, IL, 60614","No_Match",NA,NA,NA,NA
52366,"1341 W MOCKINGBIRD LANE SUITE 1000W","D","TX",75247,NA,NA,366,"1341 W MOCKINGBIRD LANE SUITE 1000W, D, TX, 75247","No_Match",NA,NA,NA,NA
52367,"1341 WESTMORELAND CT","COLUMBUS","OH",43220,40.055051437,-83.054667158,367,"1341 WESTMORELAND CT, COLUMBUS, OH, 43220","Match","Exact","1341 WESTMORELAND CT, COLUMBUS, OH, 43220",218685138,"L"
52368,"1341 WOODSIDE DR NW","CEDAR RAPIDS","IA",52405,41.9858566730001,-91.711361414,368,"1341 WOODSIDE DR NW, CEDAR RAPIDS, IA, 52405","Match","Exact","1341 WOODSIDE DR NW, CEDAR RAPIDS, IA, 52405",17018786,"R"
52369,"1341-B LEANING TREE LANE","LEXINGTON","KY",40515,37.9918128530001,-84.4644569989999,369,"1341-B LEANING TREE LANE, LEXINGTON, KY, 40515","Match","Non_Exact","1341 LEANING TREE LN, LEXINGTON, KY, 40517",31927494,"L"
52370,"13410 ELM STREET","NORWOOD","LA",70761,30.965416238,-91.105116973,370,"13410 ELM STREET, NORWOOD, LA, 70761","Match","Exact","13410 ELM ST, NORWOOD, LA, 70761",636504306,"R"
52371,"13410 HOLLY PARK","HOUSTON","TX",77015,29.7891031460001,-95.1862314529999,371,"13410 HOLLY PARK, HOUSTON, TX, 77015","Match","Non_Exact","13410 HOLLYPARK DR, HOUSTON, TX, 77015",96096959,"R"
52372,"13410 HWY 77","PANAMA CITY","FL",32409,30.3984063080001,-85.689354539,372,"13410 HWY 77, PANAMA CITY, FL, 32409","Match","Non_Exact","13410 STATE HWY 77, PANAMA CITY, FL, 32409",7049922,"R"
52373,"13410 N  29TH PL","PHOENIX","AZ",85032,33.6080466710001,-112.018622623,373,"13410 N  29TH PL, PHOENIX, AZ, 85032","Match","Exact","13410 N 29TH PL, PHOENIX, AZ, 85032",128185588,"L"
52374,"13410 N 29TH PLACE","PHOENIX","AZ",85032,33.6080466710001,-112.018622623,374,"13410 N 29TH PLACE, PHOENIX, AZ, 85032","Match","Exact","13410 N 29TH PL, PHOENIX, AZ, 85032",128185588,"L"
52375,"13410 PARDISSI CT","SAINT LOUIS","MO",63146,38.7016959260001,-90.484720502,375,"13410 PARDISSI CT, SAINT LOUIS, MO, 63146","Match","Exact","13410 PARDISSI CT, SAINT LOUIS, MO, 63146",100186244,"R"
52376,"13410 PRESTON RD STE C707","DALLAS","TX",75240,32.9311186210001,-96.803553721,376,"13410 PRESTON RD STE C707, DALLAS, TX, 75240","Match","Exact","13410 PRESTON RD, DALLAS, TX, 75240",102900201,"R"
52377,"13411 ALVO ROAD","WAVERLY","NE",68462,40.885258295,-96.539045543,377,"13411 ALVO ROAD, WAVERLY, NE, 68462","Match","Exact","13411 ALVO RD, WAVERLY, NE, 68462",28277868,"R"
52378,"13411 CREEKVIEW RD","PROSPECT","KY",40059,38.3703380860001,-85.604886923,378,"13411 CREEKVIEW RD, PROSPECT, KY, 40059","Match","Exact","13411 CREEKVIEW RD, PROSPECT, KY, 40059",130922528,"R"
52379,"13411 EUCLID ST","GARDEN GROVE","CA",92843,33.768028932,-117.937778112,379,"13411 EUCLID ST, GARDEN GROVE, CA, 92843","Match","Exact","13411 EUCLID ST, GARDEN GROVE, CA, 92843",653171191,"R"
52380,"13411 GRANNIS ROAD","GARFIELD HEIGHTS","OH",44125,41.404687079,-81.590126877,380,"13411 GRANNIS ROAD, GARFIELD HEIGHTS, OH, 44125","Match","Exact","13411 GRANNIS RD, GARFIELD HEIGHTS, OH, 44125",61128213,"L"
52381,"13411 LITTLETON ROAD","GARFIELD HEIGHTS","OH",44125,41.4023689470001,-81.5900046469999,381,"13411 LITTLETON ROAD, GARFIELD HEIGHTS, OH, 44125","Match","Exact","13411 LITTLETON RD, GARFIELD HEIGHTS, OH, 44125",61128219,"L"
52382,"13411 SHIRE LANE","FORT MYERS","FL",33912,26.550366523,-81.818798687,382,"13411 SHIRE LANE, FORT MYERS, FL, 33912","Match","Exact","13411 SHIRE LN, FORT MYERS, FL, 33912",618020551,"R"
52383,"13411 TRAIL CREEK PASS","COOPERSVILLE","MI",49404,43.011190051,-85.9997213569999,383,"13411 TRAIL CREEK PASS, COOPERSVILLE, MI, 49404","Match","Exact","13411 TRAIL CREEK PASS, COOPERSVILLE, MI, 49404",627862546,"L"
52384,"13411 W REGAN RD","MOKENA","IL",60448,NA,NA,384,"13411 W REGAN RD, MOKENA, IL, 60448","Tie",NA,NA,NA,NA
52385,"13412 CATAPULT LN","BRISTOW","VA",20136,38.764751711,-77.592015811,385,"13412 CATAPULT LN, BRISTOW, VA, 20136","Match","Exact","13412 CATAPULT LN, BRISTOW, VA, 20136",76530257,"L"
52386,"13412 CR 88","WAPAKONETA","OH",45895,NA,NA,386,"13412 CR 88, WAPAKONETA, OH, 45895","No_Match",NA,NA,NA,NA
52387,"13412 GALLERIA CIR BLDG H STE 100","AUSTIN","TX",78738,30.3103979160001,-97.940758762,387,"13412 GALLERIA CIR BLDG H STE 100, AUSTIN, TX, 78738","Match","Exact","13412 GALLERIA CIR, AUSTIN, TX, 78738",641745835,"R"
52388,"13412 HANSFIELD CIRCLE","NORTH LITTLE ROCK","AR",72117,34.7449906470001,-92.111755137,388,"13412 HANSFIELD CIRCLE, NORTH LITTLE ROCK, AR, 72117","Match","Exact","13412 HANSFIELD CIR, N LITTLE ROCK, AR, 72117",83545309,"R"
52389,"13412 N 17TH AVE","PHOENIX","AZ",85029,33.60847369,-112.095955185,389,"13412 N 17TH AVE, PHOENIX, AZ, 85029","Match","Non_Exact","13412 N 17TH AVE, PHOENIX, AZ, 85029",128181870,"L"
52390,"13412 OLD CHURCH RD","NOKESVILLE","VA",20181,38.662503439,-77.519292042,390,"13412 OLD CHURCH RD, NOKESVILLE, VA, 20181","Match","Exact","13412 OLD CHURCH RD, NOKESVILLE, VA, 20181",207155847,"R"
52391,"13412 SE PIPER DRIVE","HAPPY VALLEY","OR",97086,45.4256032010001,-122.516427286,391,"13412 SE PIPER DRIVE, HAPPY VALLEY, OR, 97086","Match","Exact","13412 SE PIPER DR, HAPPY VALLEY, OR, 97086",157983009,"L"
52392,"13412 WEST STAR DRIVE","SHELBY CHARTER TWP","MI",48315,42.6746754480001,-82.998456499,392,"13412 WEST STAR DRIVE, SHELBY CHARTER TWP, MI, 48315","Match","Non_Exact","13412 W STAR DR, SHELBY TOWNSHIP, MI, 48315",110712796,"L"
52393,"13413 STONETHWAITE LN","BAKERSFIELD","CA",93311,35.336522836,-119.150449793,393,"13413 STONETHWAITE LN, BAKERSFIELD, CA, 93311","Match","Exact","13413 STONETHWAITE LN, BAKERSFIELD, CA, 93311",648094676,"L"
52394,"13414 FM 521","ROSHARON","TX",77583,29.390311781,-95.480783839,394,"13414 FM 521, ROSHARON, TX, 77583","Match","Exact","13414 FM 521, ROSHARON, TX, 77583",116570715,"L"
52395,"13414 MALLARD LAKE RD","CHARLOTTE","NC",28262,35.347374894,-80.7287987569999,395,"13414 MALLARD LAKE RD, CHARLOTTE, NC, 28262","Match","Exact","13414 MALLARD LAKE RD, CHARLOTTE, NC, 28262",618154853,"L"
52396,"13414 S TRIPP STREET","ROBBINS","IL",60472,41.648797528,-87.7247543289999,396,"13414 S TRIPP STREET, ROBBINS, IL, 60472","Match","Non_Exact","13414 TRIPP AVE, ROBBINS, IL, 60472",605702999,"R"
52397,"13414 TARA OAK","HOUSTON","TX",77065,29.9264796350001,-95.62247558,397,"13414 TARA OAK, HOUSTON, TX, 77065","Match","Non_Exact","13414 TARA OAK DR, HOUSTON, TX, 77065",96004997,"L"
52398,"13415 RAVEN ROOST","CYPRESS","TX",77429,29.95044281,-95.624463367,398,"13415 RAVEN ROOST, CYPRESS, TX, 77429","Match","Non_Exact","13415 RAVEN ROOST DR, CYPRESS, TX, 77429",96004737,"R"
52399,"13415 S SH 19","ELKHART","TX",75839,31.6117651220001,-95.536217962,399,"13415 S SH 19, ELKHART, TX, 75839","Match","Non_Exact","13415 STATE HWY 19, ELKHART, TX, 75839",74670940,"R"
52400,"13415 SE SILVER CIRCLE","VANCOUVER","WA",98683,45.598152242,-122.534756307,400,"13415 SE SILVER CIRCLE, VANCOUVER, WA, 98683","Match","Exact","13415 SE SILVER CIR, VANCOUVER, WA, 98683",158340497,"R"
52401,"13415 SHAKER BOULEVARD 11C2","CLEVELAND","OH",44120,41.4839338800001,-81.5883455159999,401,"13415 SHAKER BOULEVARD 11C2, CLEVELAND, OH, 44120","Match","Exact","13415 SHAKER BLVD, CLEVELAND, OH, 44120",61122918,"L"
52402,"13415 SPLINTERED OAK DR","HOUSTON","TX",77065,29.9279665810001,-95.622828276,402,"13415 SPLINTERED OAK DR, HOUSTON, TX, 77065","Match","Exact","13415 SPLINTERED OAK DR, HOUSTON, TX, 77065",96004903,"R"
52403,"13415 STAIROCK STREET","SAN ANTONIO","TX",78248,29.567644827,-98.522842858,403,"13415 STAIROCK STREET, SAN ANTONIO, TX, 78248","Match","Exact","13415 STAIROCK ST, SAN ANTONIO, TX, 78248",101492663,"R"
52404,"13416 SANTA FE TRAIL DR","LENEXA","KS",66215,38.960724043,-94.7410856399999,404,"13416 SANTA FE TRAIL DR, LENEXA, KS, 66215","Match","Exact","13416 SANTA FE TRAIL DR, LENEXA, KS, 66215",91271302,"R"
52405,"13416 W MAUNA LOA LN","SURPRISE","AZ",85379,33.618354062,-112.349256487,405,"13416 W MAUNA LOA LN, SURPRISE, AZ, 85379","Match","Exact","13416 W MAUNA LOA LN, SURPRISE, AZ, 85379",128850838,"R"
52406,"13417 FUCHS GROVE ROAD","MANOR","TX",78653,30.3683535750001,-97.565698814,406,"13417 FUCHS GROVE ROAD, MANOR, TX, 78653","Match","Exact","13417 FUCHS GROVE RD, MANOR, TX, 78653",641934594,"R"
52407,"13417 RICH LYNN CT","HIGHLAND","MD",20777,39.1950786880001,-76.9792720569999,407,"13417 RICH LYNN CT, HIGHLAND, MD, 20777","Match","Exact","13417 RICH LYNN CT, HIGHLAND, MD, 20777",158958657,"L"
52408,"13417 S HARRIS RD","GREENWOOD","MO",64034,38.8745036920001,-94.285417127,408,"13417 S HARRIS RD, GREENWOOD, MO, 64034","Match","Exact","13417 HARRIS RD, GREENWOOD, MO, 64034",632606131,"R"
52409,"13418 DARVALLE STREET","CERRITOS","CA",90703,33.864014206,-118.044485418,409,"13418 DARVALLE STREET, CERRITOS, CA, 90703","Match","Exact","13418 DARVALLE ST, CERRITOS, CA, 90703",141754038,"R"
52410,"13418 LAKEWOOD BLVD","BLLFLOWER","CA",90706,33.90629088,-118.142852727,410,"13418 LAKEWOOD BLVD, BLLFLOWER, CA, 90706","Match","Non_Exact","13418 LAKEWOOD BLVD, BELLFLOWER, CA, 90706",637668617,"L"
52411,"13418 LYNNVILLE DRIVE","HOUSTON","TX",77065,29.929944559,-95.622811303,411,"13418 LYNNVILLE DRIVE, HOUSTON, TX, 77065","Match","Exact","13418 LYNNVILLE DR, HOUSTON, TX, 77065",96162535,"L"
52412,"13418 REIS STREET","WHITTIER","CA",90605,33.945639166,-118.044266842,412,"13418 REIS STREET, WHITTIER, CA, 90605","Match","Exact","13418 REIS ST, WHITTIER, CA, 90605",141747678,"R"
52413,"13418 TOMS RD","BELLVILLE","OH",44813,40.5381295170001,-82.499061258,413,"13418 TOMS RD, BELLVILLE, OH, 44813","Match","Exact","13418 TOMS RD, BELLVILLE, OH, 44813",24665715,"R"
52414,"13418 VANOWEN STREET 3","VAN NUYS","CA",91405,34.1939324640001,-118.425224612,414,"13418 VANOWEN STREET 3, VAN NUYS, CA, 91405","Match","Exact","13418 VANOWEN ST, VAN NUYS, CA, 91405",141562891,"L"
52415,"13418 W KIEM DRIVE","LITCHFIELD PARK","AZ",85340,33.5249826740001,-112.348121915,415,"13418 W KIEM DRIVE, LITCHFIELD PARK, AZ, 85340","Match","Non_Exact","13418 W KEIM DR, LITCHFIELD PARK, AZ, 85340",128858629,"R"
52416,"13419 KEDVALE","ROBBINS","IL",60472,NA,NA,416,"13419 KEDVALE, ROBBINS, IL, 60472","No_Match",NA,NA,NA,NA
52417,"13419 LAUREL RIVER DR","HOUSTON","TX",77083,29.709504107,-95.620694728,417,"13419 LAUREL RIVER DR, HOUSTON, TX, 77083","Match","Exact","13419 LAUREL RIVER DR, HOUSTON, TX, 77083",96021359,"R"
52418,"13419 PELICAN ROAD","HOT SPRINGS","SD",57747,43.2979482210001,-103.382301483,418,"13419 PELICAN ROAD, HOT SPRINGS, SD, 57747","Match","Exact","13419 PELICAN RD, HOT SPRINGS, SD, 57747",624257009,"R"
52419,"13419A SW ELECTRIC STREET","BEAVERTON","OR",97005,45.4909202910001,-122.815136986,419,"13419A SW ELECTRIC STREET, BEAVERTON, OR, 97005","Match","Exact","13419 SW ELECTRIC ST, BEAVERTON, OR, 97005",158230230,"R"
52420,"1342 ASCOT AVE","RIO LINDA","CA",95673,38.669174594,-121.435140969,420,"1342 ASCOT AVE, RIO LINDA, CA, 95673","Match","Exact","1342 ASCOT AVE, RIO LINDA, CA, 95673",652198173,"R"
52421,"1342 CALIFORNIA STREET","BERKELEY","CA",94703,37.8802046690001,-122.281294957,421,"1342 CALIFORNIA STREET, BERKELEY, CA, 94703","Match","Exact","1342 CALIFORNIA ST, BERKELEY, CA, 94703",124993503,"R"
52422,"1342 CHUCK DAWLEY BLVD","MOUNT PLEASANT","SC",29464,32.8051790540001,-79.8525172989999,422,"1342 CHUCK DAWLEY BLVD, MOUNT PLEASANT, SC, 29464","Match","Exact","1342 CHUCK DAWLEY BLVD, MOUNT PLEASANT, SC, 29464",605524310,"R"
52423,"1342 DEERWOOD DRIVE","DECATUR","GA",30030,33.755403185,-84.2863268149999,423,"1342 DEERWOOD DRIVE, DECATUR, GA, 30030","Match","Exact","1342 DEERWOOD DR, DECATUR, GA, 30030",640464993,"L"
52424,"1342 DEKALB AVENUE UNIT A","BROOKLYN","NY",11221,40.698566359,-73.924867849,424,"1342 DEKALB AVENUE UNIT A, BROOKLYN, NY, 11221","Match","Exact","1342 DEKALB AVE, BROOKLYN, NY, 11221",652207712,"R"
52425,"1342 E 275 S","LAYTON","UT",84040,41.0561151950001,-111.940951127,425,"1342 E 275 S, LAYTON, UT, 84040","Match","Exact","1342 E 275 S, LAYTON, UT, 84040",645220078,"R"
52426,"1342 E MARSHALL BLVD","SAN BERNARDINO","CA",92404,34.1494754350001,-117.257722922,426,"1342 E MARSHALL BLVD, SAN BERNARDINO, CA, 92404","Match","Exact","1342 E MARSHALL BLVD, SAN BERNARDINO, CA, 92404",650271537,"L"
52427,"1342 KEY CORNER RD","BROWNSVILLE","TN",38012,35.6052028230001,-89.282103585,427,"1342 KEY CORNER RD, BROWNSVILLE, TN, 38012","Match","Exact","1342 KEY CORNER RD, BROWNSVILLE, TN, 38012",63743430,"L"
52428,"1342 LEGENDARY BL","CLERMONT","FL",34711,28.5071213250001,-81.7350515969999,428,"1342 LEGENDARY BL, CLERMONT, FL, 34711","Match","Exact","1342 LEGENDARY BLVD, CLERMONT, FL, 34711",94215797,"L"
52429,"1342 LUCILE AVENUE SW","ATLANTA","GA",30310,33.7422874710001,-84.431745366,429,"1342 LUCILE AVENUE SW, ATLANTA, GA, 30310","Match","Exact","1342 LUCILE AVE SW, ATLANTA, GA, 30310",17340636,"L"
52430,"1342 MARSHALL ST APT A","BOULDER","CO",80302,40.0098959370001,-105.290042634,430,"1342 MARSHALL ST APT A, BOULDER, CO, 80302","Match","Exact","1342 MARSHALL ST, BOULDER, CO, 80302",642890069,"R"
52431,"1342 MASTER STREET","NORTH TONAWANDA","NY",14120,43.0595764550001,-78.868682882,431,"1342 MASTER STREET, NORTH TONAWANDA, NY, 14120","Match","Exact","1342 MASTER ST, N TONAWANDA, NY, 14120",48688670,"L"
52432,"1342 MATTHEW TALBOT RD","FOREST","VA",24551,37.3238462900001,-79.3562112229999,432,"1342 MATTHEW TALBOT RD, FOREST, VA, 24551","Match","Exact","1342 MATTHEW TALBOT RD, FOREST, VA, 24551",62680511,"L"
52433,"1342 MCANDREWS ROAD EAST","BURNSVILLE","MN",55337,44.7537855080001,-93.255714089,433,"1342 MCANDREWS ROAD EAST, BURNSVILLE, MN, 55337","Match","Exact","1342 MCANDREWS RD E, BURNSVILLE, MN, 55337",37919432,"L"
52434,"1342 N UNIVERSITY CT","ANN ARBOR","MI",48104,42.27835945,-83.732023768,434,"1342 N UNIVERSITY CT, ANN ARBOR, MI, 48104","Match","Exact","1342 N UNIVERSITY CT, ANN ARBOR, MI, 48104",26027799,"R"
52435,"1342 PARKE DR","CROWN POINT","IN",46307,41.433930629,-87.3520221909999,435,"1342 PARKE DR, CROWN POINT, IN, 46307","Match","Exact","1342 PARKE DR, CROWN POINT, IN, 46307",98452378,"L"
52436,"1342 RIDDER PARK DRIVE","SAN JOSE","CA",95131,37.3859220040001,-121.901167665,436,"1342 RIDDER PARK DRIVE, SAN JOSE, CA, 95131","Match","Exact","1342 RIDDER PARK DR, SAN JOSE, CA, 95131",123180551,"L"
52437,"1342 S 31ST ST","PHILADELPHIA","PA",19146,39.937153074,-75.19530586,437,"1342 S 31ST ST, PHILADELPHIA, PA, 19146","Match","Exact","1342 S 31ST ST, PHILADELPHIA, PA, 19146",131404547,"R"
52438,"1342 STERLING PL APT 3A","BROOKLYN","NY",11213,40.671654292,-73.934214076,438,"1342 STERLING PL APT 3A, BROOKLYN, NY, 11213","Match","Exact","1342 STERLING PL, BROOKLYN, NY, 11213",59079759,"R"
52439,"1342 STRATFORD DR","PIQUA","OH",45356,40.1616145940001,-84.269915251,439,"1342 STRATFORD DR, PIQUA, OH, 45356","Match","Exact","1342 STRATFORD DR, PIQUA, OH, 45356",135294180,"L"
52440,"1342 TRAILWOOD VILLAGE DRIVE","KINGWOOD","TX",77339,30.034778192,-95.225913916,440,"1342 TRAILWOOD VILLAGE DRIVE, KINGWOOD, TX, 77339","Match","Exact","1342 TRAILWOOD VILLAGE DR, KINGWOOD, TX, 77339",96125256,"R"
52441,"1342 W 114TH ST APT 9","CLEVELAND","OH",44102,41.4844538780001,-81.765592883,441,"1342 W 114TH ST APT 9, CLEVELAND, OH, 44102","Match","Non_Exact","1342 W 114TH ST, CLEVELAND, OH, 44102",61178410,"R"
52442,"1342 W 7TH STREET","CHESTER","PA",19013,39.843012678,-75.378843667,442,"1342 W 7TH STREET, CHESTER, PA, 19013","Match","Exact","1342 W 7TH ST, CHESTER, PA, 19013",134890303,"R"
52443,"1342 W PORTER ST","PHILADELPHIA","PA",19148,39.91931049,-75.170156417,443,"1342 W PORTER ST, PHILADELPHIA, PA, 19148","Match","Exact","1342 W PORTER ST, PHILADELPHIA, PA, 19148",131452741,"L"
52444,"1342 WEST 102ND STREET","CLEVELAND","OH",44102,41.482696698,-81.7549168799999,444,"1342 WEST 102ND STREET, CLEVELAND, OH, 44102","Match","Exact","1342 W 102ND ST, CLEVELAND, OH, 44102",61100827,"R"
52445,"13420 129TH PL NE","KIRKLAND","WA",98034,47.7208023420001,-122.167645223,445,"13420 129TH PL NE, KIRKLAND, WA, 98034","Match","Exact","13420 129TH PL NE, KIRKLAND, WA, 98034",239772499,"R"
52446,"13420 CIRBY CREEK RD","OROVILLE","CA",95965,39.7916801580001,-121.506776877,446,"13420 CIRBY CREEK RD, OROVILLE, CA, 95965","Match","Exact","13420 CIRBY CREEK RD, OROVILLE, CA, 95965",68444814,"R"
52447,"13420 DETROIT CT","THORNTON","CO",80241,39.936590842,-104.95121587,447,"13420 DETROIT CT, THORNTON, CO, 80241","Match","Exact","13420 DETROIT CT, THORNTON, CO, 80241",177411806,"R"
52448,"13420 LYNDHURST ST 103","AUSTIN","TX",78729,30.46989884,-97.783329303,448,"13420 LYNDHURST ST 103, AUSTIN, TX, 78729","Match","Exact","13420 LYNDHURST ST, AUSTIN, TX, 78729",126476084,"L"
52449,"13420 NW 7TH AVENUE","MIAMI","FL",33168,25.897597879,-80.2112329939999,449,"13420 NW 7TH AVENUE, MIAMI, FL, 33168","Match","Exact","13420 NW 7TH AVE, MIAMI, FL, 33168",116033285,"L"
52450,"13420 QUERY MILL RD","NORTH POTOMAC","MD",20878,39.075947872,-77.272444725,450,"13420 QUERY MILL RD, NORTH POTOMAC, MD, 20878","Match","Exact","13420 QUERY MILL RD, N POTOMAC, MD, 20878",62048436,"L"
52451,"13421 ARDARA RAOD","ARDARA","PA",15615,NA,NA,451,"13421 ARDARA RAOD, ARDARA, PA, 15615","No_Match",NA,NA,NA,NA
52452,"13421 BELSCHER ROAD","SPRINGVILLE","NY",14141,42.512500994,-78.69843023,452,"13421 BELSCHER ROAD, SPRINGVILLE, NY, 14141","Match","Exact","13421 BELSCHER RD, SPRINGVILLE, NY, 14141",48280561,"R"
52453,"13421 CAPADOCIA COVE","AUSTIN","TX",78727,30.429828753,-97.692874365,453,"13421 CAPADOCIA COVE, AUSTIN, TX, 78727","Match","Exact","13421 CAPADOCIA COVE, AUSTIN, TX, 78727",63982857,"R"
52454,"13421 E CENTRAL ST","PEMBROKE TOWNSHIP","IL",60658,NA,NA,454,"13421 E CENTRAL ST, PEMBROKE TOWNSHIP, IL, 60658","No_Match",NA,NA,NA,NA
52455,"13421 MORLEY DR","FRISCO","TX",75035,33.149605342,-96.761963265,455,"13421 MORLEY DR, FRISCO, TX, 75035","Match","Exact","13421 MORLEY DR, FRISCO, TX, 75035",614138537,"L"
52456,"13421 SOUTH SHORE BLVD  SUITE 205","WELLINGTON","FL",33414,NA,NA,456,"13421 SOUTH SHORE BLVD  SUITE 205, WELLINGTON, FL, 33414","No_Match",NA,NA,NA,NA
52457,"13421 TAMARACK ROAD","SILVER SPRING","MD",20904,39.0762072300001,-76.9824585599999,457,"13421 TAMARACK ROAD, SILVER SPRING, MD, 20904","Match","Exact","13421 TAMARACK RD, SILVER SPRING, MD, 20904",62072724,"R"
52458,"13421 TAMARACK ROAD","SILVERSPRING","MD",20904,39.0762072300001,-76.9824585599999,458,"13421 TAMARACK ROAD, SILVERSPRING, MD, 20904","Match","Non_Exact","13421 TAMARACK RD, SILVER SPRING, MD, 20904",62072724,"R"
52459,"13421 TWIN LAKE DRIVE","CLIFTON","VA",20124,38.817779515,-77.41002601,459,"13421 TWIN LAKE DRIVE, CLIFTON, VA, 20124","Match","Non_Exact","13421 TWIN LAKES DR, CLIFTON, VA, 20124",76032959,"R"
52460,"13421 W OAKWOOD CT","HOMER GLEN","IL",60941,NA,NA,460,"13421 W OAKWOOD CT, HOMER GLEN, IL, 60941","No_Match",NA,NA,NA,NA
52461,"13422 BALCREST DR","HOUSTON","TX",77070,29.9693225870001,-95.580424835,461,"13422 BALCREST DR, HOUSTON, TX, 77070","Match","Exact","13422 BALCREST DR, HOUSTON, TX, 77070",96005473,"R"
52462,"13422 BOLTON ROAD","POSEN","MI",49776,45.22944648,-83.593285221,462,"13422 BOLTON ROAD, POSEN, MI, 49776","Match","Exact","13422 BOLTON RD, POSEN, MI, 49776",130758869,"L"
52463,"13422 W BLUEBELL DR","BOISE","ID",83713,43.6623259940001,-116.348600629,463,"13422 W BLUEBELL DR, BOISE, ID, 83713","Match","Exact","13422 W BLUEBELL DR, BOISE, ID, 83713",117882082,"L"
52464,"13423 BAHNFYRE DR","SAINT LOUIS","MO",63128,38.483674319,-90.3935337349999,464,"13423 BAHNFYRE DR, SAINT LOUIS, MO, 63128","Match","Exact","13423 BAHNFYRE DR, SAINT LOUIS, MO, 63128",100186772,"L"
52465,"13423 BLANCO RD NO 677","SAN ANTONIO","TX",78216,29.570262928,-98.518117775,465,"13423 BLANCO RD NO 677, SAN ANTONIO, TX, 78216","Match","Non_Exact","13423 BLANCO RD, SAN ANTONIO, TX, 78216",635393906,"L"
52466,"13423 BLANCO RD SUITE 457","SAN ANTONIO","TX",78216,29.570262928,-98.518117775,466,"13423 BLANCO RD SUITE 457, SAN ANTONIO, TX, 78216","Match","Exact","13423 BLANCO RD, SAN ANTONIO, TX, 78216",635393906,"L"
52467,"13423 BLANCO ROAD STE 266","SAN ANTONIO","TX",78216,29.570262928,-98.518117775,467,"13423 BLANCO ROAD STE 266, SAN ANTONIO, TX, 78216","Match","Exact","13423 BLANCO RD, SAN ANTONIO, TX, 78216",635393906,"L"
52468,"13423 BLANCO ROAD SUITE 250","SAN ANTONIO","TX",78216,29.570262928,-98.518117775,468,"13423 BLANCO ROAD SUITE 250, SAN ANTONIO, TX, 78216","Match","Exact","13423 BLANCO RD, SAN ANTONIO, TX, 78216",635393906,"L"
52469,"13423 BURBANK BLVD NUM 11","SHERMAN OAKS","CA",91401,34.1721355400001,-118.425695954,469,"13423 BURBANK BLVD NUM 11, SHERMAN OAKS, CA, 91401","Match","Exact","13423 BURBANK BLVD, SHERMAN OAKS, CA, 91401",141563379,"R"
52470,"13423 JOBIN ST","SOUTHGATE","MI",48195,42.208170888,-83.1880452469999,470,"13423 JOBIN ST, SOUTHGATE, MI, 48195","Match","Exact","13423 JOBIN ST, SOUTHGATE, MI, 48195",95451854,"L"
52471,"13423 WOODFOREST BLVD","HOUSTON","TX",77015,29.791823676,-95.186385122,471,"13423 WOODFOREST BLVD, HOUSTON, TX, 77015","Match","Exact","13423 WOODFOREST BLVD, HOUSTON, TX, 77015",96580348,"L"
52472,"13424 12TH AVE S","BURIEN","WA",98168,47.482788966,-122.318101169,472,"13424 12TH AVE S, BURIEN, WA, 98168","Match","Exact","13424 12TH AVE S, BURIEN, WA, 98168",239765535,"L"
52473,"13424 EAST BLOOMFIELD DRIVE","SCOTTSDALE","AZ",85259,33.599180672,-111.789758142,473,"13424 EAST BLOOMFIELD DRIVE, SCOTTSDALE, AZ, 85259","Match","Exact","13424 E BLOOMFIELD DR, SCOTTSDALE, AZ, 85259",128945642,"L"
52474,"13424 KINGS VIEW LN","WILLISTON","ND",58801,NA,NA,474,"13424 KINGS VIEW LN, WILLISTON, ND, 58801","No_Match",NA,NA,NA,NA
52475,"13424 LITTLE ELM RD","FARMINGTON","AR",72730,36.047015743,-94.2850728069999,475,"13424 LITTLE ELM RD, FARMINGTON, AR, 72730","Match","Exact","13424 LITTLE ELM RD, FARMINGTON, AR, 72730",625195230,"R"
52476,"13424 NE 75TH STREET","REDMOND","WA",98052,47.671660081,-122.160547831,476,"13424 NE 75TH STREET, REDMOND, WA, 98052","Match","Exact","13424 NE 75TH ST, REDMOND, WA, 98052",186609846,"L"
52477,"13424 SEDGWICK LANE","CARMEL","IN",46074,39.982187647,-86.2137598209999,477,"13424 SEDGWICK LANE, CARMEL, IN, 46074","Match","Exact","13424 SEDGWICK LN, CARMEL, IN, 46074",29339740,"L"
52478,"13425 36TH AVE N","PLYMOUTH","MN",55441,45.022598169,-93.450876482,478,"13425 36TH AVE N, PLYMOUTH, MN, 55441","Match","Exact","13425 36TH AVE N, PLYMOUTH, MN, 55441",43839517,"R"
52479,"13425 COLVIN STREET","RIVERVIEW","MI",48193,42.179648086,-83.1880778509999,479,"13425 COLVIN STREET, RIVERVIEW, MI, 48193","Match","Exact","13425 COLVIN ST, RIVERVIEW, MI, 48193",95701869,"L"
52480,"13425 TREY LANE","CLIFTON","VA",20124,38.834160572,-77.410897641,480,"13425 TREY LANE, CLIFTON, VA, 20124","Match","Exact","13425 TREY LN, CLIFTON, VA, 20124",76026917,"R"
52481,"13425 VENTURA BLVD 200","SHERMAN OAKS","CA",91423,34.1471102140001,-118.42568246,481,"13425 VENTURA BLVD 200, SHERMAN OAKS, CA, 91423","Match","Exact","13425 VENTURA BLVD, SHERMAN OAKS, CA, 91423",141565193,"R"
52482,"13425 WINTERSPOON LN","GERMANTOWN","MD",20874,39.1831111540001,-77.280641808,482,"13425 WINTERSPOON LN, GERMANTOWN, MD, 20874","Match","Exact","13425 WINTERSPOON LN, GERMANTOWN, MD, 20874",62140554,"L"
52483,"13426 BLACK GUM CT","CHANTILLY","VA",20151,38.8713701880001,-77.413841438,483,"13426 BLACK GUM CT, CHANTILLY, VA, 20151","Match","Exact","13426 BLACK GUM CT, CHANTILLY, VA, 20151",76003584,"L"
52484,"13426 CANOPY CREEK DRIVE","TAMPA","FL",33625,28.0706068530001,-82.549686129,484,"13426 CANOPY CREEK DRIVE, TAMPA, FL, 33625","Match","Exact","13426 CANOPY CREEK DR, TAMPA, FL, 33625",104505922,"R"
52485,"13426 MAVERICK ROAD","MARION","IL",62959,37.788523991,-88.911965193,485,"13426 MAVERICK ROAD, MARION, IL, 62959","Match","Exact","13426 MAVERICK RD, MARION, IL, 62959",652184863,"L"
52486,"13426 POMANDER LOOP","WOODBRIDGE","VA",22192,NA,NA,486,"13426 POMANDER LOOP, WOODBRIDGE, VA, 22192","No_Match",NA,NA,NA,NA
52487,"13426 SCHAEFER HWY  27314","DETROIT","MI",48227,42.3854822000001,-83.178433763,487,"13426 SCHAEFER HWY  27314, DETROIT, MI, 48227","Match","Exact","13426 SCHAEFER HWY, DETROIT, MI, 48227",95441721,"R"
52488,"13426 TOWNE AVE","LOS ANGELES","CA",90061,33.9101718480001,-118.267440688,488,"13426 TOWNE AVE, LOS ANGELES, CA, 90061","Match","Non_Exact","13426 S TOWNE AVE, LOS ANGELES, CA, 90061",141673605,"L"
52489,"13427 W CITRUS CT","LITCHFIELD PARK","AZ",85340,33.528223794,-112.347830287,489,"13427 W CITRUS CT, LITCHFIELD PARK, AZ, 85340","Match","Exact","13427 W CITRUS CT, LITCHFIELD PARK, AZ, 85340",128858621,"L"
52490,"13428 BUGATTI DRIVE","FRISCO","TX",75033,33.1897242210001,-96.875185142,490,"13428 BUGATTI DRIVE, FRISCO, TX, 75033","Match","Exact","13428 BUGATTI DR, FRISCO, TX, 75033",635383071,"R"
52491,"13428 COUNTY ROAD 14","HERMAN","MN",56248,45.811875811,-96.006256174,491,"13428 COUNTY ROAD 14, HERMAN, MN, 56248","Match","Non_Exact","13428 CO HWY 14, HERMAN, MN, 56248",203194665,"R"
52492,"13428 HEREFORD RD","NEOSHO","MO",64850,36.8741673110001,-94.463471811,492,"13428 HEREFORD RD, NEOSHO, MO, 64850","Match","Exact","13428 HEREFORD RD, NEOSHO, MO, 64850",55992700,"L"
52493,"13428 MAXELLA AVE  APT 831","MARINA DEL REY","CA",90292,33.9868207420001,-118.44106916,493,"13428 MAXELLA AVE  APT 831, MARINA DEL REY, CA, 90292","Match","Exact","13428 MAXELLA AVE, MARINA DEL REY, CA, 90292",141577207,"L"
52494,"13428 MAXELLA AVE  UNIT 521","MARINA DEL REY","CA",90292,33.9868207420001,-118.44106916,494,"13428 MAXELLA AVE  UNIT 521, MARINA DEL REY, CA, 90292","Match","Exact","13428 MAXELLA AVE, MARINA DEL REY, CA, 90292",141577207,"L"
52495,"13428 MAXELLA AVE STE 799","MARINA DL REY","CA",90292,33.9868207420001,-118.44106916,495,"13428 MAXELLA AVE STE 799, MARINA DL REY, CA, 90292","Match","Exact","13428 MAXELLA AVE, MARINA DL REY, CA, 90292",141577207,"L"
52496,"13428 MAXELLA AVENUE 821","MARINA DEL REY","CA",90292,33.9868207420001,-118.44106916,496,"13428 MAXELLA AVENUE 821, MARINA DEL REY, CA, 90292","Match","Exact","13428 MAXELLA AVE, MARINA DEL REY, CA, 90292",141577207,"L"
52497,"13428 MAXELLA AVENUE SUITE 242","MARINA DEL REY","CA",90292,33.9868207420001,-118.44106916,497,"13428 MAXELLA AVENUE SUITE 242, MARINA DEL REY, CA, 90292","Match","Exact","13428 MAXELLA AVE, MARINA DEL REY, CA, 90292",141577207,"L"
52498,"13428 MAXELLA STE 144","MARINA DEL REY","CA",90292,33.9868207420001,-118.44106916,498,"13428 MAXELLA STE 144, MARINA DEL REY, CA, 90292","Match","Non_Exact","13428 MAXELLA AVE, MARINA DEL REY, CA, 90292",141577207,"L"
52499,"13428 SUPERIOR DRIVE","ROGERS","MN",55374,45.198074047,-93.584785547,499,"13428 SUPERIOR DRIVE, ROGERS, MN, 55374","Match","Exact","13428 SUPERIOR DR, ROGERS, MN, 55374",612995102,"L"
52500,"13429 48TH DR SE","SNOHOMISH","WA",98296,47.875298564,-122.166919595,500,"13429 48TH DR SE, SNOHOMISH, WA, 98296","Match","Exact","13429 48TH DR SE, SNOHOMISH, WA, 98296",187801425,"R"
