"ID","Address","City","State","Zip","lat","long","id","input_address","match_indicator","match_type","matched_address","tiger_line_id","tiger_side"
209501,"4255 CHESTNUT LAKE AVENUE","LITHONIA","GA",30038,33.639367898,-84.121192295,1,"4255 CHESTNUT LAKE AVENUE, LITHONIA, GA, 30038","Match","Exact","4255 CHESTNUT LAKE AVE, LITHONIA, GA, 30038",627759889,"L"
209502,"4255 ELBERTON HIGHWAY","HARTWELL","GA",30643,34.2971507410001,-82.90185682,2,"4255 ELBERTON HIGHWAY, HARTWELL, GA, 30643","Match","Exact","4255 ELBERTON HWY, HARTWELL, GA, 30643",22652139,"R"
209503,"4255 HARBOUR ISLAND LANE","OXNARD","CA",93035,34.1826477710001,-119.227785396,3,"4255 HARBOUR ISLAND LANE, OXNARD, CA, 93035","Match","Exact","4255 HARBOUR ISLAND LN, OXNARD, CA, 93035",110052351,"L"
209504,"4255 KITTREDGE STREET UNIT 2022","DENVER","CO",80239,39.7748079670001,-104.801636592,4,"4255 KITTREDGE STREET UNIT 2022, DENVER, CO, 80239","Match","Exact","4255 KITTREDGE ST, DENVER, CO, 80239",606031824,"L"
209505,"4255 N NELLIS BLVD APT 207","LAS VEGAS","NV",89115,36.237392492,-115.062168064,5,"4255 N NELLIS BLVD APT 207, LAS VEGAS, NV, 89115","Match","Non_Exact","4255 N NELLIS BLVD, LAS VEGAS, NV, 89115",635961374,"L"
209506,"4255 ROSEWOOD LANE NORTH","MINNEAPOLIS","MN",55442,45.033815012,-93.444679658,6,"4255 ROSEWOOD LANE NORTH, MINNEAPOLIS, MN, 55442","Match","Exact","4255 ROSEWOOD LN N, MINNEAPOLIS, MN, 55442",43848594,"R"
209507,"4255 SMOKE CREEK PARKWAY D08","SNELLVILLE","GA",30093,33.777147115,-84.052545384,7,"4255 SMOKE CREEK PARKWAY D08, SNELLVILLE, GA, 30093","Match","Non_Exact","4255 SMOKECREEK PKWY, SNELLVILLE, GA, 30039",88911602,"L"
209508,"4255 SMOKE CREEK PKWY  LOT 93A","SNELLVILLE","GA",30039,33.777147115,-84.052545384,8,"4255 SMOKE CREEK PKWY  LOT 93A, SNELLVILLE, GA, 30039","Match","Non_Exact","4255 SMOKECREEK PKWY, SNELLVILLE, GA, 30039",88911602,"L"
209509,"4255 TURNER DRIVE","CUMMING","GA",30040,34.1915066710001,-84.1696110519999,9,"4255 TURNER DRIVE, CUMMING, GA, 30040","Match","Exact","4255 TURNER DR, CUMMING, GA, 30040",649260426,"R"
209510,"4255 US HWY 1 SOUTH","SAINT AUGUSTINE","FL",32086,29.8138518370001,-81.3226905609999,10,"4255 US HWY 1 SOUTH, SAINT AUGUSTINE, FL, 32086","Match","Non_Exact","4255 US HWY 1, SAINT AUGUSTINE, FL, 32086",639355884,"R"
209511,"4255 WESTSHORE WAY APT M40","FORT COLLINS","CO",80525,40.5290161500001,-105.066687827,11,"4255 WESTSHORE WAY APT M40, FORT COLLINS, CO, 80525","Match","Exact","4255 WESTSHORE WAY, FORT COLLINS, CO, 80525",188520508,"L"
209512,"4255 WILL LEE RD","COLLEGE PARK","GA",30349,33.630869768,-84.526877944,12,"4255 WILL LEE RD, COLLEGE PARK, GA, 30349","Match","Exact","4255 WILL LEE RD, COLLEGE PARK, GA, 30349",17411462,"R"
209513,"42555 DEVANT CIRCLE","TEMECULA","CA",92592,33.502081655,-117.083351514,13,"42555 DEVANT CIRCLE, TEMECULA, CA, 92592","Match","Exact","42555 DEVANT CIR, TEMECULA, CA, 92592",618480377,"L"
209514,"42558 LUINIU LANE","AHWAHNEE","CA",93601,NA,NA,14,"42558 LUINIU LANE, AHWAHNEE, CA, 93601","No_Match",NA,NA,NA,NA
209515,"4256 3RD STREET NE","COLUMBIA HEIGHTS","MN",55421,45.0457205010001,-93.264109533,15,"4256 3RD STREET NE, COLUMBIA HEIGHTS, MN, 55421","Match","Exact","4256 3RD ST NE, COLUMBIA HEIGHTS, MN, 55421",97488007,"L"
209516,"4256 E MAHALASVILLE RD","MORGANTOWN","IN",46160,39.35380739,-86.352404221,16,"4256 E MAHALASVILLE RD, MORGANTOWN, IN, 46160","Match","Exact","4256 E MAHALASVILLE RD, MORGANTOWN, IN, 46160",641434794,"R"
209517,"4256 LA MAURICIE LOOP","DUMFRIES","VA",22025,38.5751991920001,-77.337080375,17,"4256 LA MAURICIE LOOP, DUMFRIES, VA, 22025","Match","Exact","4256 LA MAURICIE LOOP, DUMFRIES, VA, 22025",635412102,"R"
209518,"4256 MITCHELL","DETROIT","MI",48207,42.362298814,-83.033606442,18,"4256 MITCHELL, DETROIT, MI, 48207","Match","Non_Exact","4256 MITCHELL ST, DETROIT, MI, 48207",95482235,"R"
209519,"4256 N NC 903 HIGHWAY","ALBERTSON","NC",28508,NA,NA,19,"4256 N NC 903 HIGHWAY, ALBERTSON, NC, 28508","No_Match",NA,NA,NA,NA
209520,"4256 STANDING ROCK RD","JAMESTOWN","TN",38556,36.2417268500001,-84.917074271,20,"4256 STANDING ROCK RD, JAMESTOWN, TN, 38556","Match","Exact","4256 STANDING ROCK RD, JAMESTOWN, TN, 38556",25030533,"L"
209521,"4256 TEAKWOOD CT","GREENDALE","WI",53129,42.9369297380001,-87.96791809,21,"4256 TEAKWOOD CT, GREENDALE, WI, 53129","Match","Exact","4256 TEAKWOOD CT, GREENDALE, WI, 53129",77750064,"R"
209522,"4256 THORNVIEW DR","MORROW","OH",45152,39.3716967890001,-84.1315708549999,22,"4256 THORNVIEW DR, MORROW, OH, 45152","Match","Exact","4256 THORNVIEW DR, MORROW, OH, 45152",159029177,"R"
209523,"4256 W CALLE DON CLEMENTE","TUCSON","AZ",85746,NA,NA,23,"4256 W CALLE DON CLEMENTE, TUCSON, AZ, 85746","Tie",NA,NA,NA,NA
209524,"4256 YEATON GLEN CIRCLE","WINSTON SALEM","NC",27107,36.062187313,-80.138934476,24,"4256 YEATON GLEN CIRCLE, WINSTON SALEM, NC, 27107","Match","Exact","4256 YEATON GLEN CIR, WINSTON SALEM, NC, 27107",84638844,"R"
209525,"42562 W HALL DR","MARICOPA","AZ",85138,33.0821150190001,-112.022233142,25,"42562 W HALL DR, MARICOPA, AZ, 85138","Match","Exact","42562 HALL DR, MARICOPA, AZ, 85138",129253806,"L"
209526,"42563 W COLBY DR","MARICOPA","AZ",85138,33.07406337,-112.024937865,26,"42563 W COLBY DR, MARICOPA, AZ, 85138","Match","Exact","42563 COLBY DR, MARICOPA, AZ, 85138",129253219,"L"
209527,"4257 BELLE MEADE CIRCLE","BELMONT","NC",28012,35.205138918,-81.0308713869999,27,"4257 BELLE MEADE CIRCLE, BELMONT, NC, 28012","Match","Exact","4257 BELLE MEADE CIR, BELMONT, NC, 28012",70453004,"L"
209528,"4257 COUNTY ROAD 741","BERNIE","MO",63822,36.678067852,-89.881148721,28,"4257 COUNTY ROAD 741, BERNIE, MO, 63822","Match","Exact","4257 CO RD 741, BERNIE, MO, 63822",35379401,"L"
209529,"4257 N 140TH ST","OMAHA","NE",68164,41.2973571470001,-96.133325525,29,"4257 N 140TH ST, OMAHA, NE, 68164","Match","Exact","4257 N 140TH ST, OMAHA, NE, 68164",640436897,"R"
209530,"4257 PINCUSHION ST","NORTH PORT","FL",34286,27.0938406120001,-82.193019572,30,"4257 PINCUSHION ST, NORTH PORT, FL, 34286","Match","Exact","4257 PINCUSHION ST, NORTH PORT, FL, 34286",16390369,"L"
209531,"4257 S TACOMA TRAIL","GOLD CANYON","AZ",85118,NA,NA,31,"4257 S TACOMA TRAIL, GOLD CANYON, AZ, 85118","No_Match",NA,NA,NA,NA
209532,"4257 STATE ROUTE 38B","NEWARK VALLEY","NY",13811,42.1836951330001,-76.121458784,32,"4257 STATE ROUTE 38B, NEWARK VALLEY, NY, 13811","Match","Exact","4257 STATE RTE 38B, NEWARK VALLEY, NY, 13811",46716383,"L"
209533,"4257 WAYNE ROAD","GREENSBORO","NC",27407,36.0141393960001,-79.872710546,33,"4257 WAYNE ROAD, GREENSBORO, NC, 27407","Match","Exact","4257 WAYNE RD, GREENSBORO, NC, 27407",131069478,"L"
209534,"42572 SHERRY LANE","MURRIETA","CA",92562,33.559447538,-117.2339333,34,"42572 SHERRY LANE, MURRIETA, CA, 92562","Match","Exact","42572 SHERRY LN, MURRIETA, CA, 92562",608993655,"R"
209535,"42577 W CAPISTRANO DR","MARICOPA","AZ",85138,33.046433166,-112.024810088,35,"42577 W CAPISTRANO DR, MARICOPA, AZ, 85138","Match","Exact","42577 CAPISTRANO DR, MARICOPA, AZ, 85138",627564103,"R"
209536,"4258 2ND AVENUE","MARIANNA","FL",32446,30.7845415520001,-85.239195213,36,"4258 2ND AVENUE, MARIANNA, FL, 32446","Match","Exact","4258 2ND AVE, MARIANNA, FL, 32446",7204815,"R"
209537,"4258 D J DRIVE","MISSOULA","MT",59803,46.8094164090001,-114.055078116,37,"4258 D J DRIVE, MISSOULA, MT, 59803","Match","Non_Exact","4258 DJ DR, MISSOULA, MT, 59803",205279126,"L"
209538,"4258 HOLLIDAY ROAD","ATLANTA","GA",30349,33.6395179940001,-84.601721611,38,"4258 HOLLIDAY ROAD, ATLANTA, GA, 30349","Match","Exact","4258 HOLLIDAY RD, ATLANTA, GA, 30349",627062453,"R"
209539,"4258 IDLEBROOK DR","AKRON","OH",44333,41.1391923360001,-81.662773898,39,"4258 IDLEBROOK DR, AKRON, OH, 44333","Match","Exact","4258 IDLEBROOK DR, AKRON, OH, 44333",61361904,"L"
209540,"4258 KINSMAN","DETROIT","MI",48210,42.3386934920001,-83.107594351,40,"4258 KINSMAN, DETROIT, MI, 48210","Match","Non_Exact","4258 KINSMAN ST, DETROIT, MI, 48210",95474055,"R"
209541,"4258 N GREENVIEW AVE STE 1E","CHICAGO","IL",60613,41.9592773040001,-87.667681337,41,"4258 N GREENVIEW AVE STE 1E, CHICAGO, IL, 60613","Match","Non_Exact","4258 N GREENVIEW AVE, CHICAGO, IL, 60613",111761407,"L"
209542,"4258 NCHIGHWAY 49 S 494","HARRISBURG","NC",28075,NA,NA,42,"4258 NCHIGHWAY 49 S 494, HARRISBURG, NC, 28075","No_Match",NA,NA,NA,NA
209543,"4259 BOULDER HIGHWAY","LAS VEGAS","NV",89121,36.12805838,-115.081336208,43,"4259 BOULDER HIGHWAY, LAS VEGAS, NV, 89121","Match","Exact","4259 BOULDER HWY, LAS VEGAS, NV, 89121",201877542,"L"
209544,"4259 DANE  AVE","CINCINNATI","OH",45223,39.165250244,-84.532768512,44,"4259 DANE  AVE, CINCINNATI, OH, 45223","Match","Exact","4259 DANE AVE, CINCINNATI, OH, 45223",103922447,"L"
209545,"4259 LAS VIRGENES RD UNIT 1","CALABASAS","CA",91302,34.136183079,-118.702449359,45,"4259 LAS VIRGENES RD UNIT 1, CALABASAS, CA, 91302","Match","Exact","4259 LAS VIRGENES RD, CALABASAS, CA, 91302",241110969,"L"
209546,"4259 WEST HIRSCH","CHICAGO","IL",60651,41.9061890460001,-87.73331382,46,"4259 WEST HIRSCH, CHICAGO, IL, 60651","Match","Non_Exact","4259 W HIRSCH ST, CHICAGO, IL, 60651",616787238,"L"
209547,"4259 WESTERN DRIVE","FREMONT","NE",68025,41.470585129,-96.505315834,47,"4259 WESTERN DRIVE, FREMONT, NE, 68025","Match","Non_Exact","4259 WESTERN AVE, FREMONT, NE, 68025",136312612,"L"
209548,"426 22ND AVE","SEATTE","WA",98122,47.6054616120001,-122.303779504,48,"426 22ND AVE, SEATTE, WA, 98122","Match","Non_Exact","426 22ND AVE, SEATTLE, WA, 98122",186593007,"R"
209549,"426 ACER DRIVE","BLANDON","PA",19510,40.436164917,-75.87085439,49,"426 ACER DRIVE, BLANDON, PA, 19510","Match","Exact","426 ACER DR, BLANDON, PA, 19510",80410508,"R"
209550,"426 AMELIA STREET","GRETNA","LA",70053,29.9176316310001,-90.060516416,50,"426 AMELIA STREET, GRETNA, LA, 70053","Match","Exact","426 AMELIA ST, GRETNA, LA, 70053",93506829,"R"
209551,"426 BEAUMONT CIRCLE","WEST CHESTER","PA",19380,39.97882845,-75.532505897,51,"426 BEAUMONT CIRCLE, WEST CHESTER, PA, 19380","Match","Exact","426 BEAUMONT CIR, WEST CHESTER, PA, 19380",179517317,"R"
209552,"426 BOND ST","HILLSBORO","TX",76645,32.017295269,-97.1059187289999,52,"426 BOND ST, HILLSBORO, TX, 76645","Match","Exact","426 BOND ST, HILLSBORO, TX, 76645",160517658,"R"
209553,"426 BOND STREET","HILLSBORO","TX",76645,32.017295269,-97.1059187289999,53,"426 BOND STREET, HILLSBORO, TX, 76645","Match","Exact","426 BOND ST, HILLSBORO, TX, 76645",160517658,"R"
209554,"426 BRIDGE STREET","WESTBROOK","ME",4092,43.6898063670001,-70.3593192,54,"426 BRIDGE STREET, WESTBROOK, ME, 4092","Match","Exact","426 BRIDGE ST, WESTBROOK, ME, 04092",78038338,"L"
209555,"426 C ONEAWA STREET","KAILUA","HI",96734,21.4006363,-157.748193357,55,"426 C ONEAWA STREET, KAILUA, HI, 96734","Match","Exact","426 ONEAWA ST, KAILUA, HI, 96734",203333827,"R"
209556,"426 CASE BOULEVARD","FLEMINGTON","NJ",8822,40.517530191,-74.82770082,56,"426 CASE BOULEVARD, FLEMINGTON, NJ, 8822","Match","Exact","426 CASE BLVD, FLEMINGTON, NJ, 08822",639759449,"R"
209557,"426 CASTROVILLE RD STE 5","SAN ANTONIO","TX",78207,29.4187745680001,-98.544450764,57,"426 CASTROVILLE RD STE 5, SAN ANTONIO, TX, 78207","Match","Exact","426 CASTROVILLE RD, SAN ANTONIO, TX, 78207",101515603,"L"
209558,"426 COUNSELORS WAY APT 204","FORT MILL","SC",29708,NA,NA,58,"426 COUNSELORS WAY APT 204, FORT MILL, SC, 29708","No_Match",NA,NA,NA,NA
209559,"426 COUNTY ROAD 57 WEST","BELLEFONTAINE","OH",43331,NA,NA,59,"426 COUNTY ROAD 57 WEST, BELLEFONTAINE, OH, 43331","No_Match",NA,NA,NA,NA
209560,"426 CRANBROOK LN","LEAGUE CITY","TX",77573,29.478036122,-95.159801597,60,"426 CRANBROOK LN, LEAGUE CITY, TX, 77573","Match","Exact","426 CRANBROOK LN, LEAGUE CITY, TX, 77573",627389585,"R"
209561,"426 DONNER TRAIL","EDMOND","OK",73003,35.6750088630001,-97.48585537,61,"426 DONNER TRAIL, EDMOND, OK, 73003","Match","Exact","426 DONNER TRL, EDMOND, OK, 73003",617258907,"L"
209562,"426 DRUMMOND ST","MORGANTOWN","WV",26505,39.652698731,-79.9668094479999,62,"426 DRUMMOND ST, MORGANTOWN, WV, 26505","Match","Exact","426 DRUMMOND ST, MORGANTOWN, WV, 26505",50755874,"R"
209563,"426 DRUMMOND STREET","MORGANTOWN","WV",26505,39.652698731,-79.9668094479999,63,"426 DRUMMOND STREET, MORGANTOWN, WV, 26505","Match","Exact","426 DRUMMOND ST, MORGANTOWN, WV, 26505",50755874,"R"
209564,"426 DUFOUR STREET","SANTA CRUZ","CA",95060,36.9621472580001,-122.039380226,64,"426 DUFOUR STREET, SANTA CRUZ, CA, 95060","Match","Exact","426 DUFOUR ST, SANTA CRUZ, CA, 95060",125508421,"R"
209565,"426 E 4TH ST","HUNTINGBURG","IN",47542,38.296061013,-86.9544819019999,65,"426 E 4TH ST, HUNTINGBURG, IN, 47542","Match","Exact","426 E 4TH ST, HUNTINGBURG, IN, 47542",7886511,"R"
209566,"426 E 57TH STREET","BROOKLYN","NY",11203,40.6459622410001,-73.922973865,66,"426 E 57TH STREET, BROOKLYN, NY, 11203","Match","Exact","426 E 57 ST, BROOKLYN, NY, 11203",59085852,"R"
209567,"426 E FREEMAN ST","DUNCANVILLE","TX",75116,32.6509228240001,-96.9031646509999,67,"426 E FREEMAN ST, DUNCANVILLE, TX, 75116","Match","Exact","426 E FREEMAN ST, DUNCANVILLE, TX, 75116",102943285,"R"
209568,"426 E HUGHES ST","HIGHLANDS RANCH","CO",80126,39.5354088990001,-104.984170085,68,"426 E HUGHES ST, HIGHLANDS RANCH, CO, 80126","Match","Exact","426 E HUGHES ST, HIGHLANDS RANCH, CO, 80126",130817305,"L"
209569,"426 EAST LAURELTON AVE","MAPLE SHADE","NJ",8052,39.961967111,-74.999055907,69,"426 EAST LAURELTON AVE, MAPLE SHADE, NJ, 8052","Match","Exact","426 E LAURELTON AVE, MAPLE SHADE, NJ, 08052",134026849,"L"
209570,"426 ELDER ST","FAIRBURN","GA",30213,33.577257558,-84.582598435,70,"426 ELDER ST, FAIRBURN, GA, 30213","Match","Exact","426 ELDER ST, FAIRBURN, GA, 30213",17350347,"L"
209571,"426 ENID VIEW DRIVE","POPE","MS",38658,34.1646412220001,-89.911262315,71,"426 ENID VIEW DRIVE, POPE, MS, 38658","Match","Exact","426 ENID VIEW DR, POPE, MS, 38658",607790345,"L"
209572,"426 FAIRWAY DR","YONA","GU",96915,13.382235517,144.739562841,72,"426 FAIRWAY DR, YONA, GU, 96915","Match","Exact","426 FAIRWAY DR, YONA, GU, 96915",204541498,"R"
209573,"426 FERNDALE ROAD SOUTH","WAYZATA","MN",55391,44.9658963910001,-93.526075077,73,"426 FERNDALE ROAD SOUTH, WAYZATA, MN, 55391","Match","Exact","426 FERNDALE RD S, WAYZATA, MN, 55391",43848201,"L"
209574,"426 FIR RD BOX 128","CARTHAGE","MO",64836,NA,NA,74,"426 FIR RD BOX 128, CARTHAGE, MO, 64836","Tie",NA,NA,NA,NA
209575,"426 FULTON ST","ELMIRA","NY",14904,42.078095257,-76.80694404,75,"426 FULTON ST, ELMIRA, NY, 14904","Match","Exact","426 FULTON ST, ELMIRA, NY, 14904",18534825,"R"
209576,"426 GARFIELD AVE","MINEOLA","NY",11501,40.7409144800001,-73.652307591,76,"426 GARFIELD AVE, MINEOLA, NY, 11501","Match","Exact","426 GARFIELD AVE, MINEOLA, NY, 11501",147671772,"R"
209577,"426 GLENVIEW ROAD","TROTWOOD","OH",45426,39.802558446,-84.3037387649999,77,"426 GLENVIEW ROAD, TROTWOOD, OH, 45426","Match","Exact","426 GLENVIEW RD, TROTWOOD, OH, 45426",143562372,"R"
209578,"426 GREENSBURG PIKE","WEST NEWTON","PA",15089,40.2083034010001,-79.751125314,78,"426 GREENSBURG PIKE, WEST NEWTON, PA, 15089","Match","Exact","426 GREENSBURG PIKE, WEST NEWTON, PA, 15089",53012917,"L"
209579,"426 GUERRERO ST","SAN FRANCISCO","MI",94110,NA,NA,79,"426 GUERRERO ST, SAN FRANCISCO, MI, 94110","No_Match",NA,NA,NA,NA
209580,"426 HANOVER STREET 4","BOSTON","MA",2113,42.3665080700001,-71.0526974639999,80,"426 HANOVER STREET 4, BOSTON, MA, 2113","Match","Exact","426 HANOVER ST, BOSTON, MA, 02113",85725277,"L"
209581,"426 HARRISON ROAD","MONROE","GA",30655,33.7565263500001,-83.6852509,81,"426 HARRISON ROAD, MONROE, GA, 30655","Match","Exact","426 HARRISON RD, MONROE, GA, 30655",635519076,"L"
209582,"426 HARVARD AVE","SOUTH PLAINFIELD","NJ",7080,40.569961468,-74.4131795919999,82,"426 HARVARD AVE, SOUTH PLAINFIELD, NJ, 7080","Match","Exact","426 HARVARD AVE, S PLAINFIELD, NJ, 07080",60261652,"R"
209583,"426 HAYNES ST","LEWISBURG","TN",37091,35.452112141,-86.791925041,83,"426 HAYNES ST, LEWISBURG, TN, 37091","Match","Exact","426 HAYNES ST, LEWISBURG, TN, 37091",58969972,"R"
209584,"426 HIGHLAND DR","OLD HICKORY","TN",37138,36.227831333,-86.5631173789999,84,"426 HIGHLAND DR, OLD HICKORY, TN, 37138","Match","Exact","426 HIGHLAND DR, OLD HICKORY, TN, 37138",89701007,"R"
209585,"426 HUNT RD","JAMESTOWN","NY",14701,42.089730909,-79.2857512159999,85,"426 HUNT RD, JAMESTOWN, NY, 14701","Match","Exact","426 HUNT RD, JAMESTOWN, NY, 14701",120786117,"R"
209586,"426 HUNT ROAD","JAMESTOWN","NY",14701,42.089730909,-79.2857512159999,86,"426 HUNT ROAD, JAMESTOWN, NY, 14701","Match","Exact","426 HUNT RD, JAMESTOWN, NY, 14701",120786117,"R"
209587,"426 JACKSON STREET","CAMDEN","NJ",8104,39.9248374310001,-75.120556612,87,"426 JACKSON STREET, CAMDEN, NJ, 8104","Match","Exact","426 JACKSON ST, CAMDEN, NJ, 08104",647264066,"R"
209588,"426 JEFFERSON STREET NE","WASHINGTON","DC",20011,38.9549902740001,-76.999183171,88,"426 JEFFERSON STREET NE, WASHINGTON, DC, 20011","Match","Exact","426 JEFFERSON ST NE, WASHINGTON, DC, 20011",76228054,"L"
209589,"426 JORDAN STREET","NEVADA CITY","CA",95959,39.2591949010001,-121.024740308,89,"426 JORDAN STREET, NEVADA CITY, CA, 95959","Match","Exact","426 JORDAN ST, NEVADA CITY, CA, 95959",635458756,"L"
209590,"426 JUNIPERO AVE","LONG BEACH","CA",90814,33.7719708880001,-118.164280584,90,"426 JUNIPERO AVE, LONG BEACH, CA, 90814","Match","Exact","426 JUNIPERO AVE, LONG BEACH, CA, 90814",141701349,"R"
209591,"426 KENILWORTH BOULEVARD","KENILWORTH","NJ",7033,NA,NA,91,"426 KENILWORTH BOULEVARD, KENILWORTH, NJ, 7033","No_Match",NA,NA,NA,NA
209592,"426 LONGVIEW DRIVE","SUGAR LAND","TX",77478,29.6213332300001,-95.588169756,92,"426 LONGVIEW DRIVE, SUGAR LAND, TX, 77478","Match","Non_Exact","426 LONGVIEW RD, SUGAR LAND, TX, 77478",227755686,"R"
209593,"426 MADISON 5244","HUNTSVILLE","AR",72740,35.932757119,-93.79726017,93,"426 MADISON 5244, HUNTSVILLE, AR, 72740","Match","Exact","426 MADISON 5244, HUNTSVILLE, AR, 72740",48923768,"R"
209594,"426 MAIN ST NUMBER 309","SPOTSWOOD","NJ",8884,40.3940162690001,-74.386566988,94,"426 MAIN ST NUMBER 309, SPOTSWOOD, NJ, 8884","Match","Exact","426 MAIN ST, SPOTSWOOD, NJ, 08884",60330823,"R"
209595,"426 MARIETTA ST STE 100A","ATLANTA","GA",30314,33.7646011050001,-84.397307998,95,"426 MARIETTA ST STE 100A, ATLANTA, GA, 30314","Match","Non_Exact","426 MARIETTA ST, ATLANTA, GA, 30313",17343870,"L"
209596,"426 MEDIA ROAD","OXFORD","PA",19363,39.7486023820001,-75.957872145,96,"426 MEDIA ROAD, OXFORD, PA, 19363","Match","Exact","426 MEDIA RD, OXFORD, PA, 19363",179472728,"L"
209597,"426 N 500 E APT 2","LOGAN","UT",84321,NA,NA,97,"426 N 500 E APT 2, LOGAN, UT, 84321","Tie",NA,NA,NA,NA
209598,"426 N BELMONT AVENUE","WICHITA","KS",67208,37.692506194,-97.2863061419999,98,"426 N BELMONT AVENUE, WICHITA, KS, 67208","Match","Non_Exact","426 N BELMONT, WICHITA, KS, 67208",115638306,"R"
209599,"426 N DELMAR AVENUE","RULEVILLE","MS",38771,33.7283460840001,-90.547992304,99,"426 N DELMAR AVENUE, RULEVILLE, MS, 38771","Match","Exact","426 DELMAR AVE, RULEVILLE, MS, 38771",2728536,"R"
209600,"426 N RALEIGH ST","HELENA","MT",59601,46.5879975460001,-112.027918357,100,"426 N RALEIGH ST, HELENA, MT, 59601","Match","Exact","426 N RALEIGH ST, HELENA, MT, 59601",202349786,"L"
209601,"426 N SAN FELIPE AVE","SAN ANTONIO","TX",78228,29.440732928,-98.557680991,101,"426 N SAN FELIPE AVE, SAN ANTONIO, TX, 78228","Match","Exact","426 N SAN FELIPE AVE, SAN ANTONIO, TX, 78228",101512383,"R"
209602,"426 N SAN FELIPE STREET","SAN ANTONIO","TX",78228,29.440732928,-98.557680991,102,"426 N SAN FELIPE STREET, SAN ANTONIO, TX, 78228","Match","Non_Exact","426 N SAN FELIPE AVE, SAN ANTONIO, TX, 78228",101512383,"R"
209603,"426 NATALIE CR","SEARCY","AR",72143,35.255815768,-91.772189817,103,"426 NATALIE CR, SEARCY, AR, 72143","Match","Exact","426 NATALIE CIR, SEARCY, AR, 72143",653150581,"L"
209604,"426 NORTH LAFONTAIN","HUNTINGTON","IN",46750,NA,NA,104,"426 NORTH LAFONTAIN, HUNTINGTON, IN, 46750","No_Match",NA,NA,NA,NA
209605,"426 NORTH MAPLE STREET","CENTRALIA","IL",62801,38.5309823950001,-89.12861952,105,"426 NORTH MAPLE STREET, CENTRALIA, IL, 62801","Match","Exact","426 N MAPLE ST, CENTRALIA, IL, 62801",93046750,"L"
209606,"426 NORTHERN AVENUE","CINCINNATI","OH",45229,39.1437416260001,-84.49942771,106,"426 NORTHERN AVENUE, CINCINNATI, OH, 45229","Match","Exact","426 NORTHERN AVE, CINCINNATI, OH, 45229",647382336,"L"
209607,"426 NOTTINGHAM DRIVE","CABOT","AR",72023,34.953964351,-92.015324305,107,"426 NOTTINGHAM DRIVE, CABOT, AR, 72023","Match","Exact","426 NOTTINGHAM DR, CABOT, AR, 72023",79721597,"L"
209608,"426 NW 143RD ST","MIAMI","FL",33168,25.90579096,-80.206750977,108,"426 NW 143RD ST, MIAMI, FL, 33168","Match","Exact","426 NW 143RD ST, MIAMI, FL, 33168",116033334,"L"
209609,"426 OHIO STREET","NEW MARTINSVILLE","WV",26155,39.6438945730001,-80.8656365539999,109,"426 OHIO STREET, NEW MARTINSVILLE, WV, 26155","Match","Exact","426 OHIO ST, NEW MARTINSVILLE, WV, 26155",51579843,"L"
209610,"426 OLD PENLLYN PIKE","PENLLYN","PA",19422,NA,NA,110,"426 OLD PENLLYN PIKE, PENLLYN, PA, 19422","Tie",NA,NA,NA,NA
209611,"426 OSCEOLA AVENUE SOUTH","ST. PAUL","MN",55102,44.927802075,-93.1281904419999,111,"426 OSCEOLA AVENUE SOUTH, ST. PAUL, MN, 55102","Match","Non_Exact","426 OSCEOLA AVE, SAINT PAUL, MN, 55102",97647640,"L"
209612,"426 PORT REGGIO ST","LAS VEGAS","NV",89138,36.1726337470001,-115.364716689,112,"426 PORT REGGIO ST, LAS VEGAS, NV, 89138","Match","Exact","426 PORT REGGIO ST, LAS VEGAS, NV, 89138",650620815,"L"
209613,"426 RIVER MILL ROAD EXT","JERSEY SHORE","PA",17740,41.1745846170001,-77.2519871659999,113,"426 RIVER MILL ROAD EXT, JERSEY SHORE, PA, 17740","Match","Non_Exact","426 RIVER MILL RD EXD, JERSEY SHORE, PA, 17740",213690782,"L"
209614,"426 ROYAL TERN ROAD","S JACKSONVILLE BEACH","FL",32250,NA,NA,114,"426 ROYAL TERN ROAD, S JACKSONVILLE BEACH, FL, 32250","Tie",NA,NA,NA,NA
209615,"426 S CHURCH ST","JACKSONVILLE","IL",62650,39.7309634010001,-90.233997,115,"426 S CHURCH ST, JACKSONVILLE, IL, 62650","Match","Exact","426 S CHURCH ST, JACKSONVILLE, IL, 62650",81432293,"R"
209616,"426 S CURTIS STREET","MERIDEN","CT",6010,NA,NA,116,"426 S CURTIS STREET, MERIDEN, CT, 6010","No_Match",NA,NA,NA,NA
209617,"426 S FAIRFAX ST","ALEXANDRIA","VA",22314,38.8007356580001,-77.043351308,117,"426 S FAIRFAX ST, ALEXANDRIA, VA, 22314","Match","Exact","426 S FAIRFAX ST, ALEXANDRIA, VA, 22314",75991636,"L"
209618,"426 S GEORGE STREET","YORK","PA",17401,39.9562991830001,-76.7244994869999,118,"426 S GEORGE STREET, YORK, PA, 17401","Match","Exact","426 S GEORGE ST, YORK, PA, 17401",88731333,"R"
209619,"426 S PALMERS CHAPEL RD","COTTONTOWN","TN",37048,36.4469749740001,-86.619505918,119,"426 S PALMERS CHAPEL RD, COTTONTOWN, TN, 37048","Match","Exact","426 S PALMERS CHAPEL RD, COTTONTOWN, TN, 37048",645575032,"L"
209620,"426 S QUEEN ST","LANCASTER","PA",17603,40.0310032100001,-76.304410285,120,"426 S QUEEN ST, LANCASTER, PA, 17603","Match","Exact","426 S QUEEN ST, LANCASTER, PA, 17603",179664665,"R"
209621,"426 S SHERMAN ST","BOISE","ID",83702,43.6282508470001,-116.192909594,121,"426 S SHERMAN ST, BOISE, ID, 83702","Match","Exact","426 SHERMAN ST, BOISE, ID, 83702",636217578,"R"
209622,"426 S WILDWOOD AVENUE","KANKAKEE","IL",60901,41.1149873630001,-87.854912605,122,"426 S WILDWOOD AVENUE, KANKAKEE, IL, 60901","Match","Exact","426 S WILDWOOD AVE, KANKAKEE, IL, 60901",98358043,"L"
209623,"426 SAINT EMILION CT","MOUNTAIN VIEW","CA",94043,37.408897043,-122.090634766,123,"426 SAINT EMILION CT, MOUNTAIN VIEW, CA, 94043","Match","Exact","426 ST EMILION CT, MOUNTAIN VIEW, CA, 94043",629420353,"L"
209624,"426 SCHOOL ST","SEBRING","FL",33870,27.5014738580001,-81.420970628,124,"426 SCHOOL ST, SEBRING, FL, 33870","Match","Exact","426 SCHOOL ST, SEBRING, FL, 33870",4667933,"L"
209625,"426 SOUTH FLETCHER AVE","FERNANDINA BEACH","FL",32034,30.6615885800001,-81.432289369,125,"426 SOUTH FLETCHER AVE, FERNANDINA BEACH, FL, 32034","Match","Exact","426 S FLETCHER AVE, FERNANDINA BCH, FL, 32034",84120220,"L"
209626,"426 STONER AVE","SHREVEPORT","IA",71101,NA,NA,126,"426 STONER AVE, SHREVEPORT, IA, 71101","No_Match",NA,NA,NA,NA
209627,"426 STRAWBERRY HILL RD","CONCORD","MA",1742,42.482410042,-71.384365225,127,"426 STRAWBERRY HILL RD, CONCORD, MA, 1742","Match","Exact","426 STRAWBERRY HILL RD, CONCORD, MA, 01742",87121292,"L"
209628,"426 TIMBERLEAF DR","BEAVERCREEK","OH",45430,39.7039295760001,-84.075815254,128,"426 TIMBERLEAF DR, BEAVERCREEK, OH, 45430","Match","Exact","426 TIMBERLEAF DR, BEAVERCREEK, OH, 45430",143391424,"R"
209629,"426 W 10TH ST","NEWPORT","KY",41071,39.082999886,-84.496471274,129,"426 W 10TH ST, NEWPORT, KY, 41071","Match","Exact","426 W 10TH ST, NEWPORT, KY, 41071",104447472,"L"
209630,"426 W 3RD ST","WINTHROP","MN",55396,44.542074121,-94.36964617,130,"426 W 3RD ST, WINTHROP, MN, 55396","Match","Non_Exact","426 3RD ST W, WINTHROP, MN, 55396",37018099,"R"
209631,"426 W 4TH ST","HOMER","LA",71040,32.7904951900001,-93.059992833,131,"426 W 4TH ST, HOMER, LA, 71040","Match","Exact","426 W 4TH ST, HOMER, LA, 71040",73233500,"R"
209632,"426 W FRONT STREET","BURLINGTON","NC",27215,36.097009852,-79.439750927,132,"426 W FRONT STREET, BURLINGTON, NC, 27215","Match","Exact","426 W FRONT ST, BURLINGTON, NC, 27215",71662760,"L"
209633,"426 WEST MAIN STREET","MERIDEN","CT",6451,41.5398177160001,-72.817072998,133,"426 WEST MAIN STREET, MERIDEN, CT, 6451","Match","Exact","426 W MAIN ST, MERIDEN, CT, 06451",3723224,"L"
209634,"426 WHITTLE AVE SUITE C","OLNEY","IL",62450,38.727658073,-88.084864608,134,"426 WHITTLE AVE SUITE C, OLNEY, IL, 62450","Match","Non_Exact","426 S WHITTLE AVE, OLNEY, IL, 62450",29953009,"R"
209635,"4260 44TH ST 331","SAN DIEGO","CA",92115,32.753982385,-117.099770293,135,"4260 44TH ST 331, SAN DIEGO, CA, 92115","Match","Exact","4260 44TH ST, SAN DIEGO, CA, 92115",612871929,"L"
209636,"4260 APPLECREST DR","PALM BEACH GARDENS","FL",33410,26.8133423640001,-80.105237626,136,"4260 APPLECREST DR, PALM BEACH GARDENS, FL, 33410","Match","Exact","4260 APPLECREST DR, PALM BEACH GARDENS, FL, 33410",115581765,"R"
209637,"4260 COMMUNICATIONS DRIVE","NORCROSS","GA",30093,33.936955475,-84.146705762,137,"4260 COMMUNICATIONS DRIVE, NORCROSS, GA, 30093","Match","Exact","4260 COMMUNICATIONS DR, NORCROSS, GA, 30093",88904980,"R"
209638,"4260 CROSSLAND DRIVE","CUMMING","GA",30040,34.206791348,-84.19996945,138,"4260 CROSSLAND DRIVE, CUMMING, GA, 30040","Match","Exact","4260 CROSSLAND DR, CUMMING, GA, 30040",623593709,"R"
209639,"4260 E UNIVERSITY AVE","GEORGETOWN","TX",78626,NA,NA,139,"4260 E UNIVERSITY AVE, GEORGETOWN, TX, 78626","No_Match",NA,NA,NA,NA
209640,"4260 FM 967","BUDA","TX",78610,NA,NA,140,"4260 FM 967, BUDA, TX, 78610","No_Match",NA,NA,NA,NA
209641,"4260 FRANCIS WAY","LA MESA","CA",91942,32.756640545,-117.046571179,141,"4260 FRANCIS WAY, LA MESA, CA, 91942","Match","Exact","4260 FRANCIS WAY, LA MESA, CA, 91942",195351408,"L"
209642,"4260 HWY 95","FORT MOHAVE","AZ",86426,35.032723264,-114.597998978,142,"4260 HWY 95, FORT MOHAVE, AZ, 86426","Match","Non_Exact","4260 STATE RTE 95, FORT MOHAVE, AZ, 86426",647617717,"R"
209643,"4260 LITTLE YORK ROAD SUITE 280243","HOUSTON","TX",77228,29.8698090980001,-95.323312927,143,"4260 LITTLE YORK ROAD SUITE 280243, HOUSTON, TX, 77228","Match","Non_Exact","4260 LITTLE YORK RD, HOUSTON, TX, 77093",233423912,"R"
209644,"4260 LONGSHORE WAY S","NAPLES","FL",34119,26.2734852630001,-81.723081214,144,"4260 LONGSHORE WAY S, NAPLES, FL, 34119","Match","Exact","4260 LONGSHORE WAY S, NAPLES, FL, 34119",115152047,"R"
209645,"4260 NE 35TH STREET","OCALA","FL",34479,29.2229357470001,-82.077645008,145,"4260 NE 35TH STREET, OCALA, FL, 34479","Match","Exact","4260 NE 35TH ST, OCALA, FL, 34479",652699987,"R"
209646,"4260 RANCH RD 967","BUDA","TX",78610,NA,NA,146,"4260 RANCH RD 967, BUDA, TX, 78610","No_Match",NA,NA,NA,NA
209647,"4260 ROOKWOOD AVE","INDIANAPOLIS","IN",46208,39.833173419,-86.16760871,147,"4260 ROOKWOOD AVE, INDIANAPOLIS, IN, 46208","Match","Exact","4260 ROOKWOOD AVE, INDIANAPOLIS, IN, 46208",107984162,"L"
209648,"4260 WEISE ROAD","CARSON CITY","NV",89703,39.196678251,-119.809605744,148,"4260 WEISE ROAD, CARSON CITY, NV, 89703","Match","Exact","4260 WEISE RD, CARSON CITY, NV, 89703",199516355,"R"
209649,"4260 WESTBROOK DRIVE SUITE 123","AURORA","IL",60504,41.7544065720001,-88.2089813539999,149,"4260 WESTBROOK DRIVE SUITE 123, AURORA, IL, 60504","Match","Exact","4260 WESTBROOK DR, AURORA, IL, 60504",629485939,"L"
209650,"42600 CATTLE DR     48","ASH FORK","AZ",86320,NA,NA,150,"42600 CATTLE DR     48, ASH FORK, AZ, 86320","No_Match",NA,NA,NA,NA
209651,"42605 HIGHWAY 27","DAVENPORT","FL",33897,NA,NA,151,"42605 HIGHWAY 27, DAVENPORT, FL, 33897","No_Match",NA,NA,NA,NA
209652,"42607 STRINGTOWN LN","ASTORIA","OR",97103,46.1737639090001,-123.567190477,152,"42607 STRINGTOWN LN, ASTORIA, OR, 97103","Match","Non_Exact","42607 STRINGTOWN RD, ASTORIA, OR, 97103",159243122,"R"
209653,"42607 SUNY BAY COURT","CHANTILLY","VA",20152,38.90587923,-77.529815465,153,"42607 SUNY BAY COURT, CHANTILLY, VA, 20152","Match","Exact","42607 SUNY BAY CT, CHANTILLY, VA, 20152",632589520,"R"
209654,"42608 BUCKEYE ROAD","OAKHURST","CA",93644,37.3678887930001,-119.627114397,154,"42608 BUCKEYE ROAD, OAKHURST, CA, 93644","Match","Exact","42608 BUCKEYE RD, OAKHURST, CA, 93644",102372273,"L"
209655,"4261 ABBOTT AVE N","ROBBINSDALE","MN",55422,45.032564413,-93.322555322,155,"4261 ABBOTT AVE N, ROBBINSDALE, MN, 55422","Match","Exact","4261 ABBOTT AVE N, ROBBINSDALE, MN, 55422",43620709,"L"
209656,"4261 BELLE MEADE CIR","BELMONT","NC",28012,35.205563247,-81.030580685,156,"4261 BELLE MEADE CIR, BELMONT, NC, 28012","Match","Exact","4261 BELLE MEADE CIR, BELMONT, NC, 28012",70453004,"L"
209657,"4261 BEVERLY LN NE","ATLANTA","GA",30342,33.8703011860001,-84.3758283349999,157,"4261 BEVERLY LN NE, ATLANTA, GA, 30342","Match","Exact","4261 BEVERLY LN NE, ATLANTA, GA, 30342",17355364,"R"
209658,"4261 COUNTY ROAD 15","WADLEY","AL",36276,33.1910832200001,-85.585609307,158,"4261 COUNTY ROAD 15, WADLEY, AL, 36276","Match","Exact","4261 CO RD 15, WADLEY, AL, 36276",650675278,"L"
209659,"4261 DEWEY AVENUE","ROCHESTER","NY",14616,43.2493245950001,-77.646821315,159,"4261 DEWEY AVENUE, ROCHESTER, NY, 14616","Match","Exact","4261 DEWEY AVE, ROCHESTER, NY, 14616",14526814,"L"
209660,"4261 DONNA WAY","LITHONIA","GA",30038,33.6586928470001,-84.202567523,160,"4261 DONNA WAY, LITHONIA, GA, 30038","Match","Exact","4261 DONNA WAY, LITHONIA, GA, 30038",619381566,"R"
209661,"4261 E UNIVERSITY DR  STE 30-239","PROSPER","TX",75078,NA,NA,161,"4261 E UNIVERSITY DR  STE 30-239, PROSPER, TX, 75078","No_Match",NA,NA,NA,NA
209662,"4261 E UNIVERSITY DRIVE STE 30-334","PROSPER","TX",75078,NA,NA,162,"4261 E UNIVERSITY DRIVE STE 30-334, PROSPER, TX, 75078","No_Match",NA,NA,NA,NA
209663,"4261 EAST AVENUE R13","PALMDALE","CA",93552,NA,NA,163,"4261 EAST AVENUE R13, PALMDALE, CA, 93552","No_Match",NA,NA,NA,NA
209664,"4261 HAMPTON MILL PKWY","DOUGLASVILLE","GA",30135,33.689767685,-84.727305467,164,"4261 HAMPTON MILL PKWY, DOUGLASVILLE, GA, 30135","Match","Exact","4261 HAMPTON MILL PKWY, DOUGLASVILLE, GA, 30135",618469390,"R"
209665,"4261 LEIMERT BLVD","LOS ANGELES","CA",90008,34.0066970070001,-118.32816754,165,"4261 LEIMERT BLVD, LOS ANGELES, CA, 90008","Match","Non_Exact","4261 S LEIMERT BLVD, LOS ANGELES, CA, 90008",241169893,"R"
209666,"4261 LOCUST STREET","RIVERSIDE","CA",92501,33.9802357520001,-117.383289237,166,"4261 LOCUST STREET, RIVERSIDE, CA, 92501","Match","Exact","4261 LOCUST ST, RIVERSIDE, CA, 92501",194741331,"R"
209667,"4261 LUSK DRIVE","SACRAMENTO","CA",95864,38.607310876,-121.366016074,167,"4261 LUSK DRIVE, SACRAMENTO, CA, 95864","Match","Exact","4261 LUSK DR, SACRAMENTO, CA, 95864",133334225,"L"
209668,"4261 NW 115TH AVE","CORAL SPRINGS","FL",33065,26.283189383,-80.281143716,168,"4261 NW 115TH AVE, CORAL SPRINGS, FL, 33065","Match","Exact","4261 NW 115TH AVE, CORAL SPRINGS, FL, 33065",114689693,"R"
209669,"4261 S RATCLIFF RD","KINGMAN","IN",47952,39.9703174840001,-87.22366405,169,"4261 S RATCLIFF RD, KINGMAN, IN, 47952","Match","Exact","4261 S RATCLIFF RD, KINGMAN, IN, 47952",55215852,"R"
209670,"4261 TAYLOR ST","SACRAMENTO","CA",95838,38.645378243,-121.452295294,170,"4261 TAYLOR ST, SACRAMENTO, CA, 95838","Match","Exact","4261 TAYLOR ST, SACRAMENTO, CA, 95838",133320793,"L"
209671,"4261 UNION STREET","LEVANT","ME",4456,44.89472772,-68.998116457,171,"4261 UNION STREET, LEVANT, ME, 4456","Match","Exact","4261 UNION ST, LEVANT, ME, 04456",651208441,"R"
209672,"4261 W MCNAB -14","POMPANO BEACH","FL",33069,NA,NA,172,"4261 W MCNAB -14, POMPANO BEACH, FL, 33069","No_Match",NA,NA,NA,NA
209673,"4261 W WOODHAVEN LOOP","COEUR D'ALENE","ID",83814,47.7020938270001,-116.841816583,173,"4261 W WOODHAVEN LOOP, COEUR D'ALENE, ID, 83814","Match","Non_Exact","4261 W WOODHAVEN LOOP, COEUR D ALENE, ID, 83814",614142058,"L"
209674,"42615 MIDKIFF ROAD","POMEROY","OH",45769,39.1343260570001,-81.992757119,174,"42615 MIDKIFF ROAD, POMEROY, OH, 45769","Match","Exact","42615 MIDKIFF RD, POMEROY, OH, 45769",101267732,"L"
209675,"4262 6TH AVE","SAN DIEGO","CA",92103,NA,NA,175,"4262 6TH AVE, SAN DIEGO, CA, 92103","No_Match",NA,NA,NA,NA
209676,"4262 ANDERSON RIDGE WAY","AUSTELL","GA",30106,33.851203062,-84.6114816579999,176,"4262 ANDERSON RIDGE WAY, AUSTELL, GA, 30106","Match","Exact","4262 ANDERSON RIDGE WAY, AUSTELL, GA, 30106",17235425,"R"
209677,"4262 BLUE DIAMOND RD NO 102-335","LAS VEGAS","NV",89139,36.037473602,-115.197206216,177,"4262 BLUE DIAMOND RD NO 102-335, LAS VEGAS, NV, 89139","Match","Non_Exact","4262 BLUE DIAMOND RD, LAS VEGAS, NV, 89139",201925006,"R"
209678,"4262 CORINTH BLVD","DAYTON","OH",45410,39.741644077,-84.13552314,178,"4262 CORINTH BLVD, DAYTON, OH, 45410","Match","Exact","4262 CORINTH BLVD, DAYTON, OH, 45410",143576154,"R"
209679,"4262 E ALLISON RD","CAMBY","IN",46113,NA,NA,179,"4262 E ALLISON RD, CAMBY, IN, 46113","Tie",NA,NA,NA,NA
209680,"4262 MADEIRA CT","SARASOTA","FL",34233,27.291627245,-82.452345362,180,"4262 MADEIRA CT, SARASOTA, FL, 34233","Match","Exact","4262 MADEIRA CT, SARASOTA, FL, 34233",16378692,"L"
209681,"4262 REGENCY COURT NW","ATLANTA","GA",30327,33.8698592530001,-84.424749759,181,"4262 REGENCY COURT NW, ATLANTA, GA, 30327","Match","Non_Exact","4262 REGENCY CT, ATLANTA, GA, 30327",619879807,"R"
209682,"4262 REGENCY CT NW","ATLANTA","GA",30327,33.8698592530001,-84.424749759,182,"4262 REGENCY CT NW, ATLANTA, GA, 30327","Match","Non_Exact","4262 REGENCY CT, ATLANTA, GA, 30327",619879807,"R"
209683,"4262 W 38TH STREET","INDIANAPOLIS","IN",46254,39.824121017,-86.233882331,183,"4262 W 38TH STREET, INDIANAPOLIS, IN, 46254","Match","Exact","4262 W 38TH ST, INDIANAPOLIS, IN, 46254",107978854,"R"
209684,"42620 CAROLINE CT STE 103","PALM DESERT","CA",92211,33.7379916570001,-116.354265961,184,"42620 CAROLINE CT STE 103, PALM DESERT, CA, 92211","Match","Exact","42620 CAROLINE CT, PALM DESERT, CA, 92211",195045975,"R"
209685,"42621 N RIDGE RD","ELYRIA","OH",44035,41.418147409,-82.147954441,185,"42621 N RIDGE RD, ELYRIA, OH, 44035","Match","Exact","42621 N RIDGE RD, ELYRIA, OH, 44035",55422428,"R"
209686,"42622 SUNY BAY CT","CHANTILLY","VA",20152,38.9054037720001,-77.528943241,186,"42622 SUNY BAY CT, CHANTILLY, VA, 20152","Match","Exact","42622 SUNY BAY CT, CHANTILLY, VA, 20152",632589520,"L"
209687,"42624 ALBRAE STREET","FREMONT","CA",94538,37.509698373,-121.973552316,187,"42624 ALBRAE STREET, FREMONT, CA, 94538","Match","Exact","42624 ALBRAE ST, FREMONT, CA, 94538",125061048,"L"
209688,"42626 GARFIELD RD STE 101B","CLINTON TWP","MI",48038,42.6101682890001,-82.9528549359999,188,"42626 GARFIELD RD STE 101B, CLINTON TWP, MI, 48038","Match","Exact","42626 GARFIELD RD, CLINTON TOWNSHIP, MI, 48038",110661470,"L"
209689,"4263 CARATOKE HWY","BARCO","NC",27917,36.3690990920001,-75.970460094,189,"4263 CARATOKE HWY, BARCO, NC, 27917","Match","Exact","4263 CARATOKE HWY, BARCO, NC, 27917",636598005,"L"
209690,"4263 MARIETTA ST","POWDER SPRINGS","GA",30127,33.8589725680001,-84.678626084,190,"4263 MARIETTA ST, POWDER SPRINGS, GA, 30127","Match","Exact","4263 MARIETTA ST, POWDER SPGS, GA, 30127",17172629,"L"
209691,"4263 NAMBE CT","LAS CRUCES","NM",88011,32.369557421,-106.729896627,191,"4263 NAMBE CT, LAS CRUCES, NM, 88011","Match","Exact","4263 NAMBE CT, LAS CRUCES, NM, 88011",625696825,"R"
209692,"4263 SUNRISE DR","SELLERSBURG","IN",47172,38.3791931310001,-85.7997520059999,192,"4263 SUNRISE DR, SELLERSBURG, IN, 47172","Match","Exact","4263 SUNRISE DR, SELLERSBURG, IN, 47172",89552506,"R"
209693,"4263 SW 10TH COURT","DEERFIELD BEACH","FL",33442,26.3045925600001,-80.160830817,193,"4263 SW 10TH COURT, DEERFIELD BEACH, FL, 33442","Match","Exact","4263 SW 10TH CT, DEERFIELD BEACH, FL, 33442",114778538,"R"
209694,"4263 WATER OAK LN","SMITHTON","IL",62285,38.376521822,-90.011389494,194,"4263 WATER OAK LN, SMITHTON, IL, 62285","Match","Exact","4263 WATER OAK LN, SMITHTON, IL, 62285",107870667,"L"
209695,"42631 COUNTY HIGHWAY 19","SEBEKA","MN",56477,46.5817848300001,-95.239873132,195,"42631 COUNTY HIGHWAY 19, SEBEKA, MN, 56477","Match","Exact","42631 CO HWY 19, SEBEKA, MN, 56477",168327935,"L"
209696,"42633 GARFIELD ROAD STE 314","CLINTON TOWNSHIP","MI",48038,42.610028293,-82.952863349,196,"42633 GARFIELD ROAD STE 314, CLINTON TOWNSHIP, MI, 48038","Match","Exact","42633 GARFIELD RD, CLINTON TOWNSHIP, MI, 48038",110661470,"R"
209697,"42636 8TH STREET WEST","LANCASTER","CA",93534,34.658034908,-118.14554367,197,"42636 8TH STREET WEST, LANCASTER, CA, 93534","Match","Exact","42636 8TH ST W, LANCASTER, CA, 93534",241249549,"L"
209698,"42638 NW CEDAR CANYON ROAD","BANKS","OR",97106,45.6217847990001,-123.115941029,198,"42638 NW CEDAR CANYON ROAD, BANKS, OR, 97106","Match","Exact","42638 NW CEDAR CANYON RD, BANKS, OR, 97106",650784509,"R"
209699,"4264 AUSTIN HILLS DR","SUWANEE","GA",30024,34.0666940610001,-84.0425327409999,199,"4264 AUSTIN HILLS DR, SUWANEE, GA, 30024","Match","Non_Exact","4264 AUSTIN HILL DR, SUWANEE, GA, 30024",650152040,"R"
209700,"4264 E RIVER ROAD","BUCHANAN","MI",49107,41.8543641590001,-86.358388829,200,"4264 E RIVER ROAD, BUCHANAN, MI, 49107","Match","Exact","4264 E RIVER RD, BUCHANAN, MI, 49107",120005030,"L"
209701,"4264 GEMINI PATH","LIVERPOOL","NY",13090,43.1540131040001,-76.218606353,201,"4264 GEMINI PATH, LIVERPOOL, NY, 13090","Match","Exact","4264 GEMINI PATH, LIVERPOOL, NY, 13090",46562700,"R"
209702,"4264 LADY BURTON ST","LAS VEGAS","NV",89129,36.2381161070001,-115.254730186,202,"4264 LADY BURTON ST, LAS VEGAS, NV, 89129","Match","Exact","4264 LADY BURTON ST, LAS VEGAS, NV, 89129",612683996,"R"
209703,"4264 MEETING STREET RD  2","NORTH CHARLESTON","SC",29405,NA,NA,203,"4264 MEETING STREET RD  2, NORTH CHARLESTON, SC, 29405","No_Match",NA,NA,NA,NA
209704,"4264 N HIGH ST","COLUMBUS","OH",43214,40.048966906,-83.0202672949999,204,"4264 N HIGH ST, COLUMBUS, OH, 43214","Match","Exact","4264 N HIGH ST, COLUMBUS, OH, 43214",218656788,"R"
209705,"4264 OVERLAND AVENUE","CULVER CITY","CA",90230,34.0118155820001,-118.400544934,205,"4264 OVERLAND AVENUE, CULVER CITY, CA, 90230","Match","Exact","4264 OVERLAND AVE, CULVER CITY, CA, 90230",141574304,"L"
209706,"4264 PIGGOTT","CENTREVILLE","IL",62207,38.5827401770001,-90.126096774,206,"4264 PIGGOTT, CENTREVILLE, IL, 62207","Match","Non_Exact","4264 PIGGOTT AVE, CENTREVILLE, IL, 62207",107850156,"R"
209707,"4264 SANDSTONE DR","ANTIOCH","TN",37013,36.045716579,-86.6179133969999,207,"4264 SANDSTONE DR, ANTIOCH, TN, 37013","Match","Exact","4264 SANDSTONE DR, ANTIOCH, TN, 37013",624921156,"R"
209708,"4264 W PIONEER DR APT 2037","IRVING","TX",75061,32.832579654,-97.007543772,208,"4264 W PIONEER DR APT 2037, IRVING, TX, 75061","Match","Non_Exact","4264 W PIONEER DR, IRVING, TX, 75061",103234165,"L"
209709,"42640 10TH STREET W","LANCASTER","CA",93534,34.657589837,-118.147668782,209,"42640 10TH STREET W, LANCASTER, CA, 93534","Match","Exact","42640 10TH ST W, LANCASTER, CA, 93534",141527093,"L"
209710,"42643 FREEDOM ST","CHANTILLY","VA",20152,38.9122396000001,-77.5297733899999,210,"42643 FREEDOM ST, CHANTILLY, VA, 20152","Match","Exact","42643 FREEDOM ST, CHANTILLY, VA, 20152",62354344,"L"
209711,"42649 BRADFORDS TELEGRAPH CT","CHANTILLY","VA",20152,38.9065199980001,-77.5276144119999,211,"42649 BRADFORDS TELEGRAPH CT, CHANTILLY, VA, 20152","Match","Exact","42649 BRADFORDS TELEGRAPH CT, CHANTILLY, VA, 20152",632589332,"L"
209712,"4265 13TH AVE N","ST PETERSBURG","FL",33713,27.7845650140001,-82.6912405049999,212,"4265 13TH AVE N, ST PETERSBURG, FL, 33713","Match","Exact","4265 13TH AVE N, SAINT PETERSBURG, FL, 33713",124700120,"R"
209713,"4265 148TH AVENUE NE APT C208","BELLEVUE","WA",98007,47.6490133510001,-122.143196859,213,"4265 148TH AVENUE NE APT C208, BELLEVUE, WA, 98007","Match","Exact","4265 148TH AVE NE, BELLEVUE, WA, 98007",186704345,"L"
209714,"4265 ARROW CT","SARASOTA","FL",34232,27.3299161200001,-82.483535646,214,"4265 ARROW CT, SARASOTA, FL, 34232","Match","Exact","4265 ARROW CT, SARASOTA, FL, 34232",16353010,"L"
209715,"4265 BRAEMERE DR","SPRING HILL","FL",34609,28.4977151480001,-82.495419689,215,"4265 BRAEMERE DR, SPRING HILL, FL, 34609","Match","Exact","4265 BRAEMERE DR, SPRING HILL, FL, 34609",85467932,"L"
209716,"4265 DAUNTLESS DRIVE","RANCHO PALOS VERDES","CA",90275,NA,NA,216,"4265 DAUNTLESS DRIVE, RANCHO PALOS VERDES, CA, 90275","No_Match",NA,NA,NA,NA
209717,"4265 FAIRMOUNT AVE 200","SAN DIEGO","CA",92105,32.754397023,-117.100806513,217,"4265 FAIRMOUNT AVE 200, SAN DIEGO, CA, 92105","Match","Exact","4265 FAIRMOUNT AVE, SAN DIEGO, CA, 92105",195347033,"R"
209718,"4265 FAIRMOUNT AVENUE STE 140","SAN DIEGO","CA",92105,32.754397023,-117.100806513,218,"4265 FAIRMOUNT AVENUE STE 140, SAN DIEGO, CA, 92105","Match","Exact","4265 FAIRMOUNT AVE, SAN DIEGO, CA, 92105",195347033,"R"
209719,"4265 FOXGLOVE TRACE","INDIANAPOLIS","IN",46237,39.7056156300001,-86.0976543519999,219,"4265 FOXGLOVE TRACE, INDIANAPOLIS, IN, 46237","Match","Exact","4265 FOXGLOVE TRCE, INDIANAPOLIS, IN, 46237",108025803,"R"
209720,"4265 KISSENA BLVD 205","FLUSHING","NY",11355,40.7564231270001,-73.82588049,220,"4265 KISSENA BLVD 205, FLUSHING, NY, 11355","Match","Exact","4265 KISSENA BLVD, FLUSHING, NY, 11355",59701083,"L"
209721,"4265 NW 65TH RD","BOCA RATON","FL",33496,26.4068673460001,-80.169951958,221,"4265 NW 65TH RD, BOCA RATON, FL, 33496","Match","Exact","4265 NW 65TH RD, BOCA RATON, FL, 33496",115491614,"L"
209722,"4265 REDMONT AVENUE","DEER PARK","OH",45236,39.202914052,-84.392761665,222,"4265 REDMONT AVENUE, DEER PARK, OH, 45236","Match","Exact","4265 REDMONT AVE, DEER PARK, OH, 45236",103932301,"R"
209723,"4265 RICE STREET","LIHUE","HI",96766,21.9722722180001,-159.364732184,223,"4265 RICE STREET, LIHUE, HI, 96766","Match","Exact","4265 RICE ST, LIHUE, HI, 96766",203392175,"R"
209724,"4265 S WILSHIRE DR","NEW BERLIN","WI",53151,42.9671643120001,-88.083406205,224,"4265 S WILSHIRE DR, NEW BERLIN, WI, 53151","Match","Exact","4265 S WILSHIRE DR, NEW BERLIN, WI, 53151",53833131,"R"
209725,"4265 SAN FELIPE ST   STE 110","HOUSTON","TX",77027,29.746647705,-95.449332759,225,"4265 SAN FELIPE ST   STE 110, HOUSTON, TX, 77027","Match","Exact","4265 SAN FELIPE ST, HOUSTON, TX, 77027",96033819,"L"
209726,"4265 SHARP LN","COLUMBUS","IN",47201,39.1899743290001,-85.970454585,226,"4265 SHARP LN, COLUMBUS, IN, 47201","Match","Exact","4265 SHARP LN, COLUMBUS, IN, 47201",30970836,"L"
209727,"4265 SW 102 COURT","MIAMI","FL",33165,25.7279452070001,-80.360312118,227,"4265 SW 102 COURT, MIAMI, FL, 33165","Match","Exact","4265 SW 102ND CT, MIAMI, FL, 33165",115971979,"L"
209728,"4265 WETZLER ROAD","FULTS","IL",62244,38.2337259770001,-90.1825435709999,228,"4265 WETZLER ROAD, FULTS, IL, 62244","Match","Exact","4265 WETZLER RD, FULTS, IL, 62244",649618479,"L"
209729,"42657 LOBELIA PLACE","CHANTILLY","VA",20152,38.878562274,-77.527557728,229,"42657 LOBELIA PLACE, CHANTILLY, VA, 20152","Match","Exact","42657 LOBELIA PL, CHANTILLY, VA, 20152",645678743,"R"
209730,"4266 MONTICELLO BLVD","SOUTH EUCLID","OH",44121,41.5379156160001,-81.5274791149999,230,"4266 MONTICELLO BLVD, SOUTH EUCLID, OH, 44121","Match","Exact","4266 MONTICELLO BLVD, SOUTH EUCLID, OH, 44121",61124640,"R"
209731,"4266 NEWBERRY CT","PALO ALTO","CA",94306,37.4131316940001,-122.118087292,231,"4266 NEWBERRY CT, PALO ALTO, CA, 94306","Match","Exact","4266 NEWBERRY CT, PALO ALTO, CA, 94306",122952713,"R"
209732,"4266 ROSWELL ROAD NE APT H2","ATLANTA","GA",30342,33.8711068980001,-84.381063857,232,"4266 ROSWELL ROAD NE APT H2, ATLANTA, GA, 30342","Match","Non_Exact","4266 ROSWELL RD, ATLANTA, GA, 30342",609938946,"L"
209733,"4266 TULLER ROAD","DUBLIN","OH",43017,40.107601882,-83.103274577,233,"4266 TULLER ROAD, DUBLIN, OH, 43017","Match","Exact","4266 TULLER RD, DUBLIN, OH, 43017",218695996,"R"
209734,"4266 WEST 58TH PLACE","LOS ANGELES","CA",90043,33.987984677,-118.349176414,234,"4266 WEST 58TH PLACE, LOS ANGELES, CA, 90043","Match","Exact","4266 W 58TH PL, LOS ANGELES, CA, 90043",141653813,"L"
209735,"42660 NICHOLSVILLE ROAD","BAY MINETTE","AL",36507,30.846406653,-87.7680154669999,235,"42660 NICHOLSVILLE ROAD, BAY MINETTE, AL, 36507","Match","Exact","42660 NICHOLSVILLE RD, BAY MINETTE, AL, 36507",131696657,"R"
209736,"42660 PARADISE SPRING CT","ASHBURN","VA",20148,38.9647037290001,-77.527222031,236,"42660 PARADISE SPRING CT, ASHBURN, VA, 20148","Match","Exact","42660 PARADISE SPRING CT, ASHBURN, VA, 20148",642442377,"L"
209737,"4266841436781973","OWINGS MILLS","MD",21117,NA,NA,237,"4266841436781973, OWINGS MILLS, MD, 21117","No_Match",NA,NA,NA,NA
209738,"4267 CENTRAL PIKE","HERMITAGE","TN",37076,36.1736485070001,-86.57952705,238,"4267 CENTRAL PIKE, HERMITAGE, TN, 37076","Match","Exact","4267 CENTRAL PIKE, HERMITAGE, TN, 37076",650671291,"L"
209739,"4267 CORAL SPRINGS DR","CORAL SPRINGS","FL",33065,26.283073329,-80.266287464,239,"4267 CORAL SPRINGS DR, CORAL SPRINGS, FL, 33065","Match","Exact","4267 CORAL SPRINGS DR, CORAL SPRINGS, FL, 33065",640928083,"L"
209740,"4267 CORTE DE SAUSALITO","SAN DIEGO","CA",92130,32.913160346,-117.222512579,240,"4267 CORTE DE SAUSALITO, SAN DIEGO, CA, 92130","Match","Exact","4267 CORTE DE SAUSALITO, SAN DIEGO, CA, 92130",633693665,"R"
209741,"4267 EAST WYNDEMERE CIRCLE","SCHNECKSVILLE","PA",18078,40.648592421,-75.6432005469999,241,"4267 EAST WYNDEMERE CIRCLE, SCHNECKSVILLE, PA, 18078","Match","Exact","4267 E WYNDEMERE CIR, SCHNECKSVILLE, PA, 18078",624542507,"R"
209742,"4267 MARINA CITY DRIVE UNIT 514","MARINA DEL REY","CA",90292,33.984397727,-118.454111034,242,"4267 MARINA CITY DRIVE UNIT 514, MARINA DEL REY, CA, 90292","Match","Exact","4267 MARINA CITY DR, MARINA DEL REY, CA, 90292",141817288,"R"
209743,"4267 N 3150 E","LIBERTY","UT",84310,41.336734246,-111.872125651,243,"4267 N 3150 E, LIBERTY, UT, 84310","Match","Exact","4267 N 3150 E, LIBERTY, UT, 84310",640955926,"R"
209744,"4267 OLD FOREST RD","MEMPHIS","TN",38125,35.0317871510001,-89.812144183,244,"4267 OLD FOREST RD, MEMPHIS, TN, 38125","Match","Exact","4267 OLD FOREST RD, MEMPHIS, TN, 38125",72942634,"L"
209745,"4267 TYNDALL AVE BLDG 283","NELLIS AFB","NV",89191,NA,NA,245,"4267 TYNDALL AVE BLDG 283, NELLIS AFB, NV, 89191","No_Match",NA,NA,NA,NA
209746,"4267 WOOD RIDE  APT B","BOYNTON BEACH","FL",33436,26.5633185190001,-80.110235831,246,"4267 WOOD RIDE  APT B, BOYNTON BEACH, FL, 33436","Match","Non_Exact","4267 WOOD RIDE RD, BOYNTON BEACH, FL, 33436",640587326,"R"
209747,"42670 FRONTIER DRIVE","ASHBURN","VA",20148,38.9780245220001,-77.5250816819999,247,"42670 FRONTIER DRIVE, ASHBURN, VA, 20148","Match","Exact","42670 FRONTIER DR, ASHBURN, VA, 20148",628572981,"L"
209748,"4268 BASS PRO DR 302","GARLAND","TX",75043,32.865926148,-96.545240354,248,"4268 BASS PRO DR 302, GARLAND, TX, 75043","Match","Exact","4268 BASS PRO DR, GARLAND, TX, 75043",103240096,"L"
209749,"4268 BASS PRO DR APT 302","GARLAND","TX",75043,32.865926148,-96.545240354,249,"4268 BASS PRO DR APT 302, GARLAND, TX, 75043","Match","Exact","4268 BASS PRO DR, GARLAND, TX, 75043",103240096,"L"
209750,"4268 CATHEDRAL CAVERNS ROAD","WOODVILLE","AL",35776,34.5974885100001,-86.219542845,250,"4268 CATHEDRAL CAVERNS ROAD, WOODVILLE, AL, 35776","Match","Exact","4268 CATHEDRAL CAVERNS RD, WOODVILLE, AL, 35776",99248239,"R"
209751,"4268 COLERAIN AVENUE","COLUMBUS","OH",43214,40.051075589,-83.005185355,251,"4268 COLERAIN AVENUE, COLUMBUS, OH, 43214","Match","Exact","4268 COLERAIN AVE, COLUMBUS, OH, 43214",218697055,"R"
209752,"4268 LAS FELIZ CT","UNION CITY","CA",94587,37.5909377340001,-122.076141083,252,"4268 LAS FELIZ CT, UNION CITY, CA, 94587","Match","Exact","4268 LAS FELIZ CT, UNION CITY, CA, 94587",125023066,"R"
209753,"4268 LIME ST","RIVERSIDE","CA",92501,33.9758439760001,-117.373989649,253,"4268 LIME ST, RIVERSIDE, CA, 92501","Match","Exact","4268 LIME ST, RIVERSIDE, CA, 92501",194742160,"L"
209754,"4268 MOUNT  ENRON DRIVE","VIEW PARK","CA",90008,NA,NA,254,"4268 MOUNT  ENRON DRIVE, VIEW PARK, CA, 90008","No_Match",NA,NA,NA,NA
209755,"42687 SANDMAN TER","CHANTILLY","VA",20152,38.918600688,-77.52626994,255,"42687 SANDMAN TER, CHANTILLY, VA, 20152","Match","Exact","42687 SANDMAN TER, CHANTILLY, VA, 20152",62354486,"L"
209756,"4269 LIKINI ST","HONOLULU","HI",96818,21.35718674,-157.924669318,256,"4269 LIKINI ST, HONOLULU, HI, 96818","Match","Exact","4269 LIKINI ST, HONOLULU, HI, 96818",203257960,"L"
209757,"4269 NE SIMPSON COURT","PORTLAND","OR",97218,45.566022999,-122.618751607,257,"4269 NE SIMPSON COURT, PORTLAND, OR, 97218","Match","Exact","4269 NE SIMPSON CT, PORTLAND, OR, 97218",157510897,"L"
209758,"4269 THOMPSON MILL ROAD","BUFORD","GA",30519,34.115779704,-83.96248135,258,"4269 THOMPSON MILL ROAD, BUFORD, GA, 30519","Match","Exact","4269 THOMPSON MILL RD, BUFORD, GA, 30519",88941517,"R"
209759,"4269 WESLEY HALL DRIVE","DECATUR","GA",30035,33.7226224280001,-84.215069595,259,"4269 WESLEY HALL DRIVE, DECATUR, GA, 30035","Match","Exact","4269 WESLEY HALL DR, DECATUR, GA, 30035",628087828,"R"
209760,"426A BEECHER ROAD","GAHANNA","OH",43230,40.04570239,-82.864154206,260,"426A BEECHER ROAD, GAHANNA, OH, 43230","Match","Exact","426 BEECHER RD, GAHANNA, OH, 43230",135770380,"L"
209761,"427 11TH AVENUE","PLEASANT GROVE","AL",35127,33.497611233,-86.988024764,261,"427 11TH AVENUE, PLEASANT GROVE, AL, 35127","Match","Exact","427 11TH AVE, PLEASANT GROVE, AL, 35127",81545228,"L"
209762,"427 11TH STREET","WILLIAMS","CA",95987,39.15343855,-122.155212539,262,"427 11TH STREET, WILLIAMS, CA, 95987","Match","Exact","427 11TH ST, WILLIAMS, CA, 95987",67117856,"R"
209763,"427 16TH ST","PORT HURON","MI",48060,42.9793571110001,-82.4433826219999,263,"427 16TH ST, PORT HURON, MI, 48060","Match","Exact","427 16TH ST, PORT HURON, MI, 48060",110957413,"L"
209764,"427 38TH STREET","BROOKLYN","NY",11232,40.652779423,-74.0049029479999,264,"427 38TH STREET, BROOKLYN, NY, 11232","Match","Exact","427 38TH ST, BROOKLYN, NY, 11232",59093996,"L"
209765,"427 3RD AVE NE","FAYETTE","AL",35555,33.6886885270001,-87.8271452659999,265,"427 3RD AVE NE, FAYETTE, AL, 35555","Match","Exact","427 3RD AVE NE, FAYETTE, AL, 35555",120505677,"L"
209766,"427 44TH ST","WEST PALM BEACH","FL",33407,26.752015854,-80.053259351,266,"427 44TH ST, WEST PALM BEACH, FL, 33407","Match","Exact","427 44TH ST, WEST PALM BEACH, FL, 33407",115277118,"R"
209767,"427 AMERICAN BLVD","BRENTWOOD","NY",11717,40.765199395,-73.235225558,267,"427 AMERICAN BLVD, BRENTWOOD, NY, 11717","Match","Exact","427 AMERICAN BLVD, BRENTWOOD, NY, 11717",113985518,"R"
209768,"427 BRADFORD LANE","COLUMBIA","SC",29223,34.1263193510001,-80.88665974,268,"427 BRADFORD LANE, COLUMBIA, SC, 29223","Match","Exact","427 BRADFORD LN, COLUMBIA, SC, 29223",653323882,"L"
209769,"427 BRADY ST APT 4","DAVENPORT","IA",52801,41.523792686,-90.574089165,269,"427 BRADY ST APT 4, DAVENPORT, IA, 52801","Match","Exact","427 BRADY ST, DAVENPORT, IA, 52801",122707589,"R"
209770,"427 BREGANTE DR","DIAMOND BAR","CA",91765,34.022000377,-117.798956947,270,"427 BREGANTE DR, DIAMOND BAR, CA, 91765","Match","Exact","427 BREGANTE DR, DIAMOND BAR, CA, 91765",639059104,"R"
209771,"427 BRISTOL AVE","CARDIFF","CA",92007,33.0275660630001,-117.281629687,271,"427 BRISTOL AVE, CARDIFF, CA, 92007","Match","Non_Exact","427 BRISTOL RD, CARDIFF, CA, 92007",195293122,"R"
209772,"427 BROADWAY APT 4","PASSAIC","NJ",7055,40.8527384550001,-74.140564572,272,"427 BROADWAY APT 4, PASSAIC, NJ, 7055","Match","Exact","427 BROADWAY, PASSAIC, NJ, 07055",65251722,"L"
209773,"427 CADENCE HILL ROAD","SAN ANTONIO","TX",78260,29.6663570360001,-98.502767943,273,"427 CADENCE HILL ROAD, SAN ANTONIO, TX, 78260","Match","Exact","427 CADENCE HILL, SAN ANTONIO, TX, 78260",101587271,"R"
209774,"427 CARMEL HILL RD N","BETHLEHEM","CT",6751,41.646484581,-73.250798588,274,"427 CARMEL HILL RD N, BETHLEHEM, CT, 6751","Match","Exact","427 CARMEL HILL RD N, BETHLEHEM, CT, 06751",3124175,"L"
209775,"427 CASCADE DR","LILBURN","GA",30047,33.8635402360001,-84.141286887,275,"427 CASCADE DR, LILBURN, GA, 30047","Match","Non_Exact","427 CASCADE DR SW, LILBURN, GA, 30047",88915246,"R"
209776,"427 CEDAR PLACE","MAPLE LAKE","MN",55358,45.234221012,-94.017029678,276,"427 CEDAR PLACE, MAPLE LAKE, MN, 55358","Match","Exact","427 CEDAR PL, MAPLE LAKE, MN, 55358",626791788,"R"
209777,"427 CHAPLIN STREET SE","WASHINGTON","DC",20019,38.884450191,-76.942127117,277,"427 CHAPLIN STREET SE, WASHINGTON, DC, 20019","Match","Exact","427 CHAPLIN ST SE, WASHINGTON, DC, 20019",76233669,"R"
209778,"427 CHERRY STREET","HELENA","AR",72342,34.5262141690001,-90.5862269839999,278,"427 CHERRY STREET, HELENA, AR, 72342","Match","Exact","427 CHERRY ST, HELENA, AR, 72342",12307924,"L"
209779,"427 CLOVER STREET","DAYTON","OH",45410,39.75134196,-84.170209992,279,"427 CLOVER STREET, DAYTON, OH, 45410","Match","Exact","427 CLOVER ST, DAYTON, OH, 45410",143574760,"L"
209780,"427 CLUBHOUSE DRIVE","SANTA MARIA","CA",93455,34.8789469540001,-120.441553465,280,"427 CLUBHOUSE DRIVE, SANTA MARIA, CA, 93455","Match","Exact","427 CLUBHOUSE DR, SANTA MARIA, CA, 93455",108596811,"L"
209781,"427 COLLEGE ST","SPENCER","TN",38585,35.7464178810001,-85.463430592,281,"427 COLLEGE ST, SPENCER, TN, 38585","Match","Exact","427 COLLEGE ST, SPENCER, TN, 38585",616238376,"R"
209782,"427 CORONADO TERRACE UNIT 7","LOS ANGELES","CA",90026,34.0725266430001,-118.271945484,282,"427 CORONADO TERRACE UNIT 7, LOS ANGELES, CA, 90026","Match","Exact","427 CORONADO TER, LOS ANGELES, CA, 90026",141615840,"L"
209783,"427 COUNTRY COURT","MOUNT LAUREL","NJ",8054,39.923188472,-74.971857184,283,"427 COUNTRY COURT, MOUNT LAUREL, NJ, 8054","Match","Exact","427 COUNTRY CT, MOUNT LAUREL, NJ, 08054",134028031,"L"
209784,"427 CROOKS AVE  APT B3","PATERSON","NJ",7503,40.892247486,-74.1398469329999,284,"427 CROOKS AVE  APT B3, PATERSON, NJ, 7503","Match","Exact","427 CROOKS AVE, PATERSON, NJ, 07503",65266468,"L"
209785,"427 D STREET","ANCHORAGE","AK",99501,61.2180926230001,-149.88938611,285,"427 D STREET, ANCHORAGE, AK, 99501","Match","Exact","427 D ST, ANCHORAGE, AK, 99501",626999225,"L"
209786,"427 DUNMORE ROAD","FAYETTEVILLE","NC",28303,35.097254128,-78.985275996,286,"427 DUNMORE ROAD, FAYETTEVILLE, NC, 28303","Match","Exact","427 DUNMORE RD, FAYETTEVILLE, NC, 28303",64251970,"L"
209787,"427 DUSSEL DRIVE PMB 139","MAUMEE","OH",43551,41.585317375,-83.660448032,287,"427 DUSSEL DRIVE PMB 139, MAUMEE, OH, 43551","Match","Non_Exact","427 DUSSEL DR, MAUMEE, OH, 43537",33953465,"L"
209788,"427 E 4TH ST","HUNTINGBURG","IN",47542,38.2960533830001,-86.955196045,288,"427 E 4TH ST, HUNTINGBURG, IN, 47542","Match","Exact","427 E 4TH ST, HUNTINGBURG, IN, 47542",7886512,"L"
209789,"427 E 6TH STREET NUM 5EW","NEW YORK","NY",10009,40.72612844,-73.98548813,289,"427 E 6TH STREET NUM 5EW, NEW YORK, NY, 10009","Match","Non_Exact","427 E 6TH ST, NEW YORK, NY, 10009",59654072,"L"
209790,"427 E 9TH ST","MICHIGAN CITY","IN",46360,41.7141535760001,-86.89494675,290,"427 E 9TH ST, MICHIGAN CITY, IN, 46360","Match","Exact","427 E 9TH ST, MICHIGAN CITY, IN, 46360",15411061,"R"
209791,"427 E COLORADO AVENUE","COLORADO SPRINGS","CO",80903,38.8322621460001,-104.817843808,291,"427 E COLORADO AVENUE, COLORADO SPRINGS, CO, 80903","Match","Exact","427 E COLORADO AVE, COLORADO SPRINGS, CO, 80903",610797487,"R"
209792,"427 EAST 4TH STREET","BETHLEHEM","PA",18015,40.61059785,-75.372793658,292,"427 EAST 4TH STREET, BETHLEHEM, PA, 18015","Match","Exact","427 E 4TH ST, BETHLEHEM, PA, 18015",136885291,"L"
209793,"427 EAST THOMAS STREET","DANVILLE","VA",24540,36.5938523460001,-79.380325945,293,"427 EAST THOMAS STREET, DANVILLE, VA, 24540","Match","Exact","427 E THOMAS ST, DANVILLE, VA, 24540",56664657,"L"
209794,"427 EAST TYLER MALL - LSA 181","TEMPE","AZ",85287,NA,NA,294,"427 EAST TYLER MALL - LSA 181, TEMPE, AZ, 85287","No_Match",NA,NA,NA,NA
209795,"427 EVANS AVE","SAN ANTONIO","TX",78209,29.488268154,-98.471453782,295,"427 EVANS AVE, SAN ANTONIO, TX, 78209","Match","Exact","427 EVANS AVE, SAN ANTONIO, TX, 78209",101524326,"R"
209796,"427 EVANS AVE","SANANTONIO","TX",78209,29.488268154,-98.471453782,296,"427 EVANS AVE, SANANTONIO, TX, 78209","Match","Non_Exact","427 EVANS AVE, SAN ANTONIO, TX, 78209",101524326,"R"
209797,"427 FRANKLIN AVENUE","BROOKLYN","NY",11238,40.684357581,-73.9563055689999,297,"427 FRANKLIN AVENUE, BROOKLYN, NY, 11238","Match","Exact","427 FRANKLIN AVE, BROOKLYN, NY, 11238",59078813,"L"
209798,"427 HAMBRICK RD","DALLAS","TX",75218,32.855902353,-96.709760187,298,"427 HAMBRICK RD, DALLAS, TX, 75218","Match","Exact","427 HAMBRICK RD, DALLAS, TX, 75218",102922096,"R"
209799,"427 HARDING AVE","MONTEREY PARK","CA",91754,34.056556318,-118.128022295,299,"427 HARDING AVE, MONTEREY PARK, CA, 91754","Match","Exact","427 HARDING AVE, MONTEREY PARK, CA, 91754",142737533,"R"
209800,"427 HARRISON ST","ALLENTOWN","PA",18103,40.5952970020001,-75.462723292,300,"427 HARRISON ST, ALLENTOWN, PA, 18103","Match","Exact","427 HARRISON ST, ALLENTOWN, PA, 18103",80773209,"R"
209801,"427 HEATHERTON HILL DRIVE","ROSENBERG","TX",77469,29.533715629,-95.720588972,301,"427 HEATHERTON HILL DRIVE, ROSENBERG, TX, 77469","Match","Exact","427 HEATHERTON HILL DR, ROSENBERG, TX, 77469",641161147,"R"
209802,"427 HIGHLAND AVE","NEW ABLANY","IN",47150,38.279635005,-85.840392762,302,"427 HIGHLAND AVE, NEW ABLANY, IN, 47150","Match","Non_Exact","427 HIGHLAND AVE, NEW ALBANY, IN, 47150",635563493,"L"
209803,"427 HWY 315W","SLEDGE","MS",38670,NA,NA,303,"427 HWY 315W, SLEDGE, MS, 38670","No_Match",NA,NA,NA,NA
209804,"427 IRVINE TURNER BLVD","NEWARK","NJ",7108,40.7191264370001,-74.1945942949999,304,"427 IRVINE TURNER BLVD, NEWARK, NJ, 7108","Match","Exact","427 IRVINE TURNER BLVD, NEWARK, NJ, 07108",63485736,"L"
209805,"427 IRVINGTON STREET","DALY CITY","CA",94014,37.7058567760001,-122.459124952,305,"427 IRVINGTON STREET, DALY CITY, CA, 94014","Match","Exact","427 IRVINGTON ST, DALY CITY, CA, 94014",192367932,"L"
209806,"427 JACKSON AVE SUITE 301","NEW ORLEANS","LA",70130,29.923766979,-90.071639112,306,"427 JACKSON AVE SUITE 301, NEW ORLEANS, LA, 70130","Match","Exact","427 JACKSON AVE, NEW ORLEANS, LA, 70130",191715083,"R"
209807,"427 JEFFREYS DR","ELIZABETH","PA",15037,40.2663156410001,-79.8372744059999,307,"427 JEFFREYS DR, ELIZABETH, PA, 15037","Match","Exact","427 JEFFREYS DR, ELIZABETH, PA, 15037",51679410,"L"
209808,"427 KEIFFER DRIVE","RINCON","GA",31326,32.2859407290001,-81.208588616,308,"427 KEIFFER DRIVE, RINCON, GA, 31326","Match","Exact","427 KEIFFER DR, RINCON, GA, 31326",627501829,"L"
209809,"427 KING ARNOLD STREET","HAPEVILLE","GA",30354,33.6563186060001,-84.4022621949999,309,"427 KING ARNOLD STREET, HAPEVILLE, GA, 30354","Match","Exact","427 KING ARNOLD ST, HAPEVILLE, GA, 30354",17393060,"R"
209810,"427 LEDGEVIEW DRIVE","ROCHESTER","NH",3839,43.2716682430001,-70.991991711,310,"427 LEDGEVIEW DRIVE, ROCHESTER, NH, 3839","Match","Exact","427 LEDGEVIEW DR, ROCHESTER, NH, 03839",650034610,"L"
209811,"427 LINKS DR","ROSLYN","NY",11576,40.766108897,-73.68389396,311,"427 LINKS DR, ROSLYN, NY, 11576","Match","Exact","427 LINKS DR, ROSLYN, NY, 11576",147695536,"R"
209812,"427 MAIN PO BOX 154","ST PAUL","KS",66771,37.5184332440001,-95.171520505,312,"427 MAIN PO BOX 154, ST PAUL, KS, 66771","Match","Non_Exact","427 MAIN ST, SAINT PAUL, KS, 66771",18425400,"L"
209813,"427 MAIN PO BOX 154","ST. PAUL","KS",66771,37.5184332440001,-95.171520505,313,"427 MAIN PO BOX 154, ST. PAUL, KS, 66771","Match","Non_Exact","427 MAIN ST, SAINT PAUL, KS, 66771",18425400,"L"
209814,"427 MASSACHUSETTS AVENUE","BOXBOROUGH","MA",1719,NA,NA,314,"427 MASSACHUSETTS AVENUE, BOXBOROUGH, MA, 1719","No_Match",NA,NA,NA,NA
209815,"427 MEADOWBRANCH AVE","WINCHESTER","VA",22601,39.1865668250001,-78.1909427589999,315,"427 MEADOWBRANCH AVE, WINCHESTER, VA, 22601","Match","Non_Exact","427 MEADOW BRANCH AVE, WINCHESTER, VA, 22601",651943667,"R"
209816,"427 MIDDLE ST","DAYTON","OH",45402,39.76334912,-84.209742658,316,"427 MIDDLE ST, DAYTON, OH, 45402","Match","Exact","427 MIDDLE ST, DAYTON, OH, 45402",143615109,"L"
209817,"427 MONROE ST APT  B","BROOKLYN","NY",11221,40.6866585490001,-73.9403067599999,317,"427 MONROE ST APT  B, BROOKLYN, NY, 11221","Match","Exact","427 MONROE ST, BROOKLYN, NY, 11221",59079198,"L"
209818,"427 N 37TH PL","ROGERS","AR",72756,36.3394167860001,-94.170938099,318,"427 N 37TH PL, ROGERS, AR, 72756","Match","Exact","427 N 37TH PL, ROGERS, AR, 72756",635792855,"L"
209819,"427 N 6TH AVE","POCATELLO","ID",83201,42.869152527,-112.444790785,319,"427 N 6TH AVE, POCATELLO, ID, 83201","Match","Exact","427 N 6TH AVE, POCATELLO, ID, 83201",204351755,"L"
209820,"427 N MINNESOTA AVE STE 101","SIOUX FALLS","SD",57104,NA,NA,320,"427 N MINNESOTA AVE STE 101, SIOUX FALLS, SD, 57104","Tie",NA,NA,NA,NA
209821,"427 N TATNALL ST 41011","WILMINGTON","DE",19801,39.7415803210001,-75.553421607,321,"427 N TATNALL ST 41011, WILMINGTON, DE, 19801","Match","Non_Exact","427 N TATNALL ST, WILMINGTON, DE, 19801",635724933,"L"
209822,"427 N TATNALL ST 93511","WILMINGTON","DE",19801,39.7415803210001,-75.553421607,322,"427 N TATNALL ST 93511, WILMINGTON, DE, 19801","Match","Non_Exact","427 N TATNALL ST, WILMINGTON, DE, 19801",635724933,"L"
209823,"427 N TATNALL ST SUITE 23114","WILMINGTON","DE",19801,39.7415803210001,-75.553421607,323,"427 N TATNALL ST SUITE 23114, WILMINGTON, DE, 19801","Match","Non_Exact","427 N TATNALL ST, WILMINGTON, DE, 19801",635724933,"L"
209824,"427 N TATNALL ST","WILMINGTON","DE",19801,39.7415803210001,-75.553421607,324,"427 N TATNALL ST, WILMINGTON, DE, 19801","Match","Exact","427 N TATNALL ST, WILMINGTON, DE, 19801",635724933,"L"
209825,"427 N TATNALL STREET NUM 34539","WILMINTON","DE",19801,39.7415803210001,-75.553421607,325,"427 N TATNALL STREET NUM 34539, WILMINTON, DE, 19801","Match","Non_Exact","427 N TATNALL ST, WILMINGTON, DE, 19801",635724933,"L"
209826,"427 N THEARD ST SUITE 142","COVINGTON","LA",70433,30.477576159,-90.097444432,326,"427 N THEARD ST SUITE 142, COVINGTON, LA, 70433","Match","Non_Exact","427 N THEARD ST, COVINGTON, LA, 70433",111234556,"L"
209827,"427 N THEARD ST UNIT 296","COVINGTON","LA",70433,30.477576159,-90.097444432,327,"427 N THEARD ST UNIT 296, COVINGTON, LA, 70433","Match","Non_Exact","427 N THEARD ST, COVINGTON, LA, 70433",111234556,"L"
209828,"427 N UNION ST","PHILADELPHIA","PA",19104,39.961149375,-75.201056449,328,"427 N UNION ST, PHILADELPHIA, PA, 19104","Match","Exact","427 N UNION ST, PHILADELPHIA, PA, 19104",131403945,"R"
209829,"427 NAPLES RD","JACKSON","MS",39206,32.3535395980001,-90.170173893,329,"427 NAPLES RD, JACKSON, MS, 39206","Match","Exact","427 NAPLES RD, JACKSON, MS, 39206",65370595,"R"
209830,"427 NORTH HAYDEN BAY DRIVE","PORTLAND","OR",97217,45.6098904020001,-122.673107494,330,"427 NORTH HAYDEN BAY DRIVE, PORTLAND, OR, 97217","Match","Exact","427 N HAYDEN BAY DR, PORTLAND, OR, 97217",157583008,"R"
209831,"427 NORTH HERNANDEZ COURT","TAMPA","FL",33603,27.979336726,-82.456273402,331,"427 NORTH HERNANDEZ COURT, TAMPA, FL, 33603","Match","Exact","427 N HERNANDEZ CT, TAMPA, FL, 33603",104522943,"R"
209832,"427 NW 1ST TERRACE / UNIT  A","DEERFIELD BEACH","FL",33441,NA,NA,332,"427 NW 1ST TERRACE / UNIT  A, DEERFIELD BEACH, FL, 33441","Tie",NA,NA,NA,NA
209833,"427 NW 7TH ST","CORVALLIS","OR",97330,44.568669529,-123.263479604,333,"427 NW 7TH ST, CORVALLIS, OR, 97330","Match","Exact","427 NW 7TH ST, CORVALLIS, OR, 97330",155847115,"R"
209834,"427 OAKLAND AVENUE","EGG HARBOR TOWNSHIP","NJ",8234,39.384024461,-74.6019751969999,334,"427 OAKLAND AVENUE, EGG HARBOR TOWNSHIP, NJ, 8234","Match","Exact","427 OAKLAND AVE, EGG HARBOR TOWNSHIP, NJ, 08234",202481715,"R"
209835,"427 OLD HOUSE RD","ATHOL","ID",83801,NA,NA,335,"427 OLD HOUSE RD, ATHOL, ID, 83801","No_Match",NA,NA,NA,NA
209836,"427 OLD OTIS ROAD","DANBY","VT",5739,43.3630821690001,-73.060943418,336,"427 OLD OTIS ROAD, DANBY, VT, 5739","Match","Exact","427 OLD OTIS RD, DANBY, VT, 05739",641174220,"L"
209837,"427 PANOLA COURT","INDIANAPOLIS","IN",46239,39.7630381600001,-85.979617262,337,"427 PANOLA COURT, INDIANAPOLIS, IN, 46239","Match","Exact","427 PANOLA CT, INDIANAPOLIS, IN, 46239",108030368,"L"
209838,"427 PAU STREET","HONOLULU","HI",96815,21.285846586,-157.832417452,338,"427 PAU STREET, HONOLULU, HI, 96815","Match","Exact","427 PAU ST, HONOLULU, HI, 96815",203241708,"R"
209839,"427 PEARL STREET","BROWNSVILLE","PA",15417,40.015885172,-79.893329673,339,"427 PEARL STREET, BROWNSVILLE, PA, 15417","Match","Exact","427 PEARL ST, BROWNSVILLE, PA, 15417",51157026,"R"
209840,"427 PINE AVE","ALTOONA","PA",16601,40.5261893910001,-78.4029386,340,"427 PINE AVE, ALTOONA, PA, 16601","Match","Exact","427 PINE AVE, ALTOONA, PA, 16601",49710333,"L"
209841,"427 PROMENADE ESTATES LN","STAFFORD","TX",77477,NA,NA,341,"427 PROMENADE ESTATES LN, STAFFORD, TX, 77477","No_Match",NA,NA,NA,NA
209842,"427 RICE AVE","ARCOLA","TX",77583,29.4992501300001,-95.456073832,342,"427 RICE AVE, ARCOLA, TX, 77583","Match","Exact","427 RICE AVE, ARCOLA, TX, 77583",78272499,"L"
209843,"427 RIGG STREET","SANTA CRUZ","CA",95060,36.9715464280001,-122.038935186,343,"427 RIGG STREET, SANTA CRUZ, CA, 95060","Match","Exact","427 RIGG ST, SANTA CRUZ, CA, 95060",617411249,"L"
209844,"427 RT 17M","MONROE","NY",10950,41.317671686,-74.1733592589999,344,"427 RT 17M, MONROE, NY, 10950","Match","Non_Exact","427 STATE RTE 17M, MONROE, NY, 10950",124404139,"L"
209845,"427 RUNNING CREEK LN","SUMMERVILLE","SC",29435,32.9529101150001,-80.5070702049999,345,"427 RUNNING CREEK LN, SUMMERVILLE, SC, 29435","Match","Non_Exact","427 RUNNING CREEK LN, COTTAGEVILLE, SC, 29435",19166472,"R"
209846,"427 S BAIRD ST","GREEN BAY","WI",54301,44.502861126,-87.9978559589999,346,"427 S BAIRD ST, GREEN BAY, WI, 54301","Match","Exact","427 S BAIRD ST, GREEN BAY, WI, 54301",148102812,"L"
209847,"427 S MAIN ST","MECHANICVILLE","NY",12118,42.8892644970001,-73.688258021,347,"427 S MAIN ST, MECHANICVILLE, NY, 12118","Match","Exact","427 S MAIN ST, MECHANICVILLE, NY, 12118",18770800,"L"
209848,"427 SAINT CHARLES ST","ELGIN","IL",60120,42.028374322,-88.271097829,348,"427 SAINT CHARLES ST, ELGIN, IL, 60120","Match","Exact","427 ST CHARLES ST, ELGIN, IL, 60120",119504114,"L"
209849,"427 SEABREEZE DRIVE","RINCON","GA",31326,32.2959797080001,-81.211572688,349,"427 SEABREEZE DRIVE, RINCON, GA, 31326","Match","Exact","427 SEABREEZE DR, RINCON, GA, 31326",618980592,"R"
209850,"427 SHERWOOD DRIVE","SAUSALITO","CA",94965,37.8756357940001,-122.516284233,350,"427 SHERWOOD DRIVE, SAUSALITO, CA, 94965","Match","Exact","427 SHERWOOD DR, SAUSALITO, CA, 94965",192786957,"L"
209851,"427 SHERWOOD STREET","TOCCOA","GA",30577,34.541718094,-83.3500036359999,351,"427 SHERWOOD STREET, TOCCOA, GA, 30577","Match","Exact","427 SHERWOOD ST, TOCCOA, GA, 30577",642615034,"R"
209852,"427 SOUTH 14TH STREET","LA CROSSE","WI",54601,NA,NA,352,"427 SOUTH 14TH STREET, LA CROSSE, WI, 54601","No_Match",NA,NA,NA,NA
209853,"427 SOUTH FOSTER DRIVE","BATON ROUGE","LA",70806,30.445175158,-91.1387624,353,"427 SOUTH FOSTER DRIVE, BATON ROUGE, LA, 70806","Match","Exact","427 S FOSTER DR, BATON ROUGE, LA, 70806",92197243,"L"
209854,"427 SOUTHLAKE DRIVE","FORNEY","TX",75126,32.760928807,-96.4632010669999,354,"427 SOUTHLAKE DRIVE, FORNEY, TX, 75126","Match","Exact","427 SOUTHLAKE DR, FORNEY, TX, 75126",123734064,"R"
209855,"427 ST ANNS AVENUE APT 1B","BRONX","NY",10454,40.8114724970001,-73.9145817099999,355,"427 ST ANNS AVENUE APT 1B, BRONX, NY, 10454","Match","Exact","427 SAINT ANNS AVE, BRONX, NY, 10454",80300809,"L"
209856,"427 TUSCULUM AVENUE","CINCINNATI","OH",45226,39.1141983250001,-84.43436481,356,"427 TUSCULUM AVENUE, CINCINNATI, OH, 45226","Match","Exact","427 TUSCULUM AVE, CINCINNATI, OH, 45226",103947985,"L"
209857,"427 W ARMY TRAIL RD","BLOOMINGDALE","IL",60108,41.9393608180001,-88.117685565,357,"427 W ARMY TRAIL RD, BLOOMINGDALE, IL, 60108","Match","Exact","427 W ARMY TRAIL RD, BLOOMINGDALE, IL, 60108",112591366,"L"
209858,"427 W DUSSEL DR PMB 157","MAUMEE","OH",43537,41.585278712,-83.66037054,358,"427 W DUSSEL DR PMB 157, MAUMEE, OH, 43537","Match","Exact","427 DUSSEL DR, MAUMEE, OH, 43537",33953465,"L"
209859,"427 W DUSSEL DR SUITE 167","MAUMEE","OH",43537,41.585278712,-83.66037054,359,"427 W DUSSEL DR SUITE 167, MAUMEE, OH, 43537","Match","Exact","427 DUSSEL DR, MAUMEE, OH, 43537",33953465,"L"
209860,"427 W DUSSEL DRIVE NO 3808","MAUMEE","OH",43537,41.585278712,-83.66037054,360,"427 W DUSSEL DRIVE NO 3808, MAUMEE, OH, 43537","Match","Non_Exact","427 DUSSEL DR, MAUMEE, OH, 43537",33953465,"L"
209861,"427 W GOLDENGATE","HIGHLAND PARK","MI",48203,42.4289623770001,-83.108002266,361,"427 W GOLDENGATE, HIGHLAND PARK, MI, 48203","Match","Exact","427 W GOLDENGATE, HIGHLAND PARK, MI, 48203",95506302,"L"
209862,"427 W LANDIS AVENUE","VINELAND","NJ",8360,39.486278273,-75.027914615,362,"427 W LANDIS AVENUE, VINELAND, NJ, 8360","Match","Exact","427 W LANDIS AVE, VINELAND, NJ, 08360",174110824,"R"
209863,"427 WATER STREET","SUMMERSVILLE","WV",26651,38.2819658220001,-80.854980282,363,"427 WATER STREET, SUMMERSVILLE, WV, 26651","Match","Exact","427 WATER ST, SUMMERSVILLE, WV, 26651",50026484,"R"
209864,"427 WEST DUSSEL DRIVE 194","MAUMEE","OH",43537,41.585317375,-83.660448032,364,"427 WEST DUSSEL DRIVE 194, MAUMEE, OH, 43537","Match","Non_Exact","427 DUSSEL DR, MAUMEE, OH, 43537",33953465,"L"
209865,"427 WEST MAIN STREET","BRIGHTON","MI",48116,42.52946905,-83.784284357,365,"427 WEST MAIN STREET, BRIGHTON, MI, 48116","Match","Exact","427 W MAIN ST, BRIGHTON, MI, 48116",23544596,"R"
209866,"427 WESTPORT ROAD","KANSAS CITY","MO",64111,39.05316099,-94.590809043,366,"427 WESTPORT ROAD, KANSAS CITY, MO, 64111","Match","Exact","427 WESTPORT RD, KANSAS CITY, MO, 64111",91447382,"L"
209867,"427 WHITNEY STREET","CEDAR HILL","TX",75104,32.586291682,-96.9378342479999,367,"427 WHITNEY STREET, CEDAR HILL, TX, 75104","Match","Exact","427 WHITNEY ST, CEDAR HILL, TX, 75104",103185729,"R"
209868,"427","VIRGINIA BEACH","VA",23454,NA,NA,368,"427, VIRGINIA BEACH, VA, 23454","No_Match",NA,NA,NA,NA
209869,"4270 39TH AVE S","FARGO","ND",58104,46.8194948770001,-96.851912267,369,"4270 39TH AVE S, FARGO, ND, 58104","Match","Exact","4270 39TH AVE S, FARGO, ND, 58104",625754977,"R"
209870,"4270 BOURBON ST - APT 101","FRISCO","TX",75034,33.1443916160001,-96.851480604,370,"4270 BOURBON ST - APT 101, FRISCO, TX, 75034","Match","Exact","4270 BOURBON ST, FRISCO, TX, 75034",648155813,"R"
209871,"4270 CORTE FAVOR","SAN DIEGO","CA",92130,32.9523711690001,-117.222543006,371,"4270 CORTE FAVOR, SAN DIEGO, CA, 92130","Match","Exact","4270 CORTE FAVOR, SAN DIEGO, CA, 92130",195659082,"L"
209872,"4270 E MERCER LN","PHOENIX","AZ",85028,33.5855506830001,-111.988142443,372,"4270 E MERCER LN, PHOENIX, AZ, 85028","Match","Exact","4270 E MERCER LN, PHOENIX, AZ, 85028",128218648,"L"
209873,"4270 E MERCER LN","SCOTTSDALE","AZ",85258,NA,NA,373,"4270 E MERCER LN, SCOTTSDALE, AZ, 85258","No_Match",NA,NA,NA,NA
209874,"4270 GENYTH AVENUE","MEMPHIS","TN",38128,35.2306039100001,-89.921047158,374,"4270 GENYTH AVENUE, MEMPHIS, TN, 38128","Match","Exact","4270 GENYTH AVE, MEMPHIS, TN, 38128",72899063,"L"
209875,"4270 GREEN VALLEY RD","CIBOLO","TX",78108,29.6022120310001,-98.2255424429999,375,"4270 GREEN VALLEY RD, CIBOLO, TX, 78108","Match","Exact","4270 GREEN VALLEY RD, CIBOLO, TX, 78108",648716414,"R"
209876,"4270 IVY RUN","ELLENWOOD","GA",30294,33.653686527,-84.226051578,376,"4270 IVY RUN, ELLENWOOD, GA, 30294","Match","Exact","4270 IVY RUN, ELLENWOOD, GA, 30294",23399922,"L"
209877,"4270 N BLACKSTONE AVENUE SUITE 212","FRESNO","CA",93726,36.795337772,-119.790488607,377,"4270 N BLACKSTONE AVENUE SUITE 212, FRESNO, CA, 93726","Match","Non_Exact","4270 N BLACKSTONE AVE, FRESNO, CA, 93726",197574239,"R"
209878,"4270 N HAMMOCK DR","COLORADO SPRINGS","CO",80917,NA,NA,378,"4270 N HAMMOCK DR, COLORADO SPRINGS, CO, 80917","Tie",NA,NA,NA,NA
209879,"4270 NATURE TRAIL DR SE APT 3A","KENTWOOD","MI",49512,42.8857450290001,-85.6011478999999,379,"4270 NATURE TRAIL DR SE APT 3A, KENTWOOD, MI, 49512","Match","Exact","4270 NATURE TRAIL DR SE, KENTWOOD, MI, 49512",12469002,"L"
209880,"4270 NE 1ST TERRACE","OAKLAND PARK","FL",33334,26.1793448440001,-80.144784033,380,"4270 NE 1ST TERRACE, OAKLAND PARK, FL, 33334","Match","Exact","4270 NE 1ST TER, OAKLAND PARK, FL, 33334",114719370,"R"
209881,"4270 NEPAL DR","HERMITAGE","TN",37076,36.2061623380001,-86.614870662,381,"4270 NEPAL DR, HERMITAGE, TN, 37076","Match","Exact","4270 NEPAL DR, HERMITAGE, TN, 37076",97199138,"L"
209882,"4270 OAKWOOD AVE","LA CANADA FLINTRIDGE","CA",91011,34.1957262440001,-118.193715073,382,"4270 OAKWOOD AVE, LA CANADA FLINTRIDGE, CA, 91011","Match","Exact","4270 OAKWOOD AVE, LA CANADA, CA, 91011",142731652,"R"
209883,"4270 PEARL AVENUE","SAN JOSE","CA",95123,37.267544813,-121.866855099,383,"4270 PEARL AVENUE, SAN JOSE, CA, 95123","Match","Non_Exact","4270 PEARL AVE, SAN JOSE, CA, 95136",122922354,"L"
209884,"4270 S DECATUR BLVD SUITE A8","LAS VEGAS","NV",89103,36.1123435160001,-115.208025652,384,"4270 S DECATUR BLVD SUITE A8, LAS VEGAS, NV, 89103","Match","Non_Exact","4270 S DECATUR BLVD, LAS VEGAS, NV, 89103",201863355,"L"
209885,"4270 SLEEPY LAKE DRIVE","FAIRFAX","VA",22033,38.864718286,-77.3735334249999,385,"4270 SLEEPY LAKE DRIVE, FAIRFAX, VA, 22033","Match","Exact","4270 SLEEPY LAKE DR, FAIRFAX, VA, 22033",76045464,"L"
209886,"4270 SW 70 TERRACE","DAVIE","FL",33314,26.0681935740001,-80.240881152,386,"4270 SW 70 TERRACE, DAVIE, FL, 33314","Match","Exact","4270 SW 70TH TER, DAVIE, FL, 33314",114774923,"R"
209887,"4270 TAMIAMI TRAIL E SUITE 13","NAPLES","FL",34112,26.1156624560001,-81.755836328,387,"4270 TAMIAMI TRAIL E SUITE 13, NAPLES, FL, 34112","Match","Exact","4270 TAMIAMI TRL E, NAPLES, FL, 34112",642893995,"R"
209888,"4270 W 6TH ST","LOS ANGELES","CA",90020,34.0634933050001,-118.317382776,388,"4270 W 6TH ST, LOS ANGELES, CA, 90020","Match","Exact","4270 W 6TH ST, LOS ANGELES, CA, 90020",141603553,"L"
209889,"42700 ST JOHN ROAD","HOLLYWOOD","MD",20636,38.320529795,-76.598457676,389,"42700 ST JOHN ROAD, HOLLYWOOD, MD, 20636","Match","Non_Exact","42700 SAINT JOHNS RD, HOLLYWOOD, MD, 20636",647278920,"R"
209890,"42705 GRAND RIVER AVE 201","NOVI","MI",48375,42.4790067960001,-83.4674614159999,390,"42705 GRAND RIVER AVE 201, NOVI, MI, 48375","Match","Exact","42705 GRAND RIVER AVE, NOVI, MI, 48375",69782327,"L"
209891,"42709 W BRAVO","DR","AZ",85138,NA,NA,391,"42709 W BRAVO, DR, AZ, 85138","No_Match",NA,NA,NA,NA
209892,"4271 60TH STREET","HOLLAND","MI",49423,42.7310305660001,-86.136110903,392,"4271 60TH STREET, HOLLAND, MI, 49423","Match","Exact","4271 60TH ST, HOLLAND, MI, 49423",11436761,"R"
209893,"4271 ALTOONA DRIVE APT 423E","DALLAS","TX",75233,32.6922330360001,-96.887376616,393,"4271 ALTOONA DRIVE APT 423E, DALLAS, TX, 75233","Match","Exact","4271 ALTOONA DR, DALLAS, TX, 75233",103191921,"R"
209894,"4271 CHELSEA HARBOR DRIVE W","JACKSONVILLE","FL",32224,30.2679597490001,-81.480014334,394,"4271 CHELSEA HARBOR DRIVE W, JACKSONVILLE, FL, 32224","Match","Exact","4271 CHELSEA HARBOR DR W, JACKSONVILLE, FL, 32224",83949755,"R"
209895,"4271 DELOR ST","SAINT LOUIS","MO",63116,38.5810870240001,-90.2660842289999,395,"4271 DELOR ST, SAINT LOUIS, MO, 63116","Match","Exact","4271 DELOR ST, SAINT LOUIS, MO, 63116",618276573,"R"
209896,"4271 HEMPSTEAD TURNPIKE","BETHPAGE","NY",11714,40.7257842720001,-73.4792197949999,396,"4271 HEMPSTEAD TURNPIKE, BETHPAGE, NY, 11714","Match","Exact","4271 HEMPSTEAD TPKE, BETHPAGE, NY, 11714",147646401,"L"
209897,"4271 HWY 212","COVINGTON","GA",30016,33.4882523740001,-83.961166033,397,"4271 HWY 212, COVINGTON, GA, 30016","Match","Non_Exact","4271 STATE RTE 212, COVINGTON, GA, 30016",638121442,"L"
209898,"4271 MOON STATION LANE","ACWORTH","GA",30101,34.058090583,-84.618812845,398,"4271 MOON STATION LANE, ACWORTH, GA, 30101","Match","Non_Exact","4271 MOON STATION LN NW, ACWORTH, GA, 30101",17270048,"L"
209899,"4271 W 21ST STREET","CLEVELAND","OH",44109,41.4400169260001,-81.6981074999999,399,"4271 W 21ST STREET, CLEVELAND, OH, 44109","Match","Exact","4271 W 21ST ST, CLEVELAND, OH, 44109",61116275,"L"
209900,"42712 ALBRAE ST","FREMONT","CA",94538,37.5096253630001,-121.973579201,400,"42712 ALBRAE ST, FREMONT, CA, 94538","Match","Exact","42712 ALBRAE ST, FREMONT, CA, 94538",125061048,"L"
209901,"4272 BUCKSKIN WOOD DRIVE","ELLICOTT CITY","MD",21042,39.2554067,-76.9754500939999,401,"4272 BUCKSKIN WOOD DRIVE, ELLICOTT CITY, MD, 21042","Match","Exact","4272 BUCKSKIN WOOD DR, ELLICOTT CITY, MD, 21042",619839237,"R"
209902,"4272 FREMONT AVE N","SEATTLE","WA",98103,47.659092962,-122.350006902,402,"4272 FREMONT AVE N, SEATTLE, WA, 98103","Match","Exact","4272 FREMONT AVE N, SEATTLE, WA, 98103",186581542,"R"
209903,"4272 JAMESBOROUGH PLACE","NASHVILLE","TN",37215,36.0926251760001,-86.804821752,403,"4272 JAMESBOROUGH PLACE, NASHVILLE, TN, 37215","Match","Exact","4272 JAMESBOROUGH PL, NASHVILLE, TN, 37215",97202870,"L"
209904,"4272 LANGLEY CT SE","GRAND RAPIDS","MI",49508,42.8860701140001,-85.624591424,404,"4272 LANGLEY CT SE, GRAND RAPIDS, MI, 49508","Match","Exact","4272 LANGLEY CT SE, GRAND RAPIDS, MI, 49508",12524257,"L"
209905,"4272 VIOLET WAY COURT","LOGANVILLE","GA",30052,33.8186308360001,-83.953036834,405,"4272 VIOLET WAY COURT, LOGANVILLE, GA, 30052","Match","Exact","4272 VIOLET WAY CT, LOGANVILLE, GA, 30052",645868417,"R"
209906,"4272 W 1700 S","SYRACUSE","UT",84075,41.0892590390001,-112.108986051,406,"4272 W 1700 S, SYRACUSE, UT, 84075","Match","Exact","4272 W 1700 S, SYRACUSE, UT, 84075",640271884,"R"
209907,"42724 KEILLER TERRACE","ASHBURN","VA",20147,39.0465644070001,-77.523455261,407,"42724 KEILLER TERRACE, ASHBURN, VA, 20147","Match","Exact","42724 KEILLER TER, ASHBURN, VA, 20147",642446280,"R"
209908,"42726 N COURAGE TRL","ANTHEM","AZ",85086,33.8728080380001,-112.137643502,408,"42726 N COURAGE TRL, ANTHEM, AZ, 85086","Match","Exact","42726 N COURAGE TRL, ANTHEM, AZ, 85086",128856639,"L"
209909,"4273 CARTER COURT","CONCORD","CA",94521,37.9670316510001,-121.987543989,409,"4273 CARTER COURT, CONCORD, CA, 94521","Match","Exact","4273 CARTER CT, CONCORD, CA, 94521",192058111,"L"
209910,"4273 HIGHWAY E","NEW HAVEN","MO",63068,38.547186588,-91.3672869069999,410,"4273 HIGHWAY E, NEW HAVEN, MO, 63068","Match","Exact","4273 HIGHWAY E, NEW HAVEN, MO, 63068",99734330,"L"
209911,"4273 MC CLUNG DRIVE","LOS ANGELES","CA",90008,34.0065727370001,-118.333475456,411,"4273 MC CLUNG DRIVE, LOS ANGELES, CA, 90008","Match","Non_Exact","4273 MCCLUNG DR, LOS ANGELES, CA, 90008",647682075,"R"
209912,"4273 MOHAVE CT SW","GRANDVILLE","MI",49418,42.900776449,-85.768973094,412,"4273 MOHAVE CT SW, GRANDVILLE, MI, 49418","Match","Exact","4273 MOHAVE CT SW, GRANDVILLE, MI, 49418",12454444,"R"
209913,"4273 NW 5TH AVE","BOCA RATON","FL",33431,26.3889107570001,-80.091919387,413,"4273 NW 5TH AVE, BOCA RATON, FL, 33431","Match","Exact","4273 NW 5TH AVE, BOCA RATON, FL, 33431",115575425,"L"
209914,"4273 VIOLET WAY COURT","LOGANVILLE","GA",30052,33.818625964,-83.953048657,414,"4273 VIOLET WAY COURT, LOGANVILLE, GA, 30052","Match","Exact","4273 VIOLET WAY CT, LOGANVILLE, GA, 30052",645868417,"L"
209915,"4273 WAYNE AVE","AMMON","ID",83406,43.468998567,-111.948172918,415,"4273 WAYNE AVE, AMMON, ID, 83406","Match","Non_Exact","4273 E WAYNE AVE, AMMON, ID, 83406",119148823,"R"
209916,"4273 WENDELL DR SW","ATLANTA","GA",30336,33.769578,-84.526933261,416,"4273 WENDELL DR SW, ATLANTA, GA, 30336","Match","Exact","4273 WENDELL DR SW, ATLANTA, GA, 30336",17336374,"R"
209917,"42736 D ROAD","CRAWFORD","CO",81415,38.697221642,-107.562385061,417,"42736 D ROAD, CRAWFORD, CO, 81415","Match","Exact","42736 D RD, CRAWFORD, CO, 81415",122386880,"L"
209918,"427377 E 270 RD","CHELSEA","OK",74016,36.6265570530001,-95.390589389,418,"427377 E 270 RD, CHELSEA, OK, 74016","Match","Exact","427377 E 270 RD, CHELSEA, OK, 74016",20644339,"L"
209919,"4274 AUSTIN CT","LAPEER","MI",48446,43.023825534,-83.384525034,419,"4274 AUSTIN CT, LAPEER, MI, 48446","Match","Exact","4274 AUSTIN CT, LAPEER, MI, 48446",110472570,"R"
209920,"4274 COLBY ROAD","WINCHESTER","KY",40391,37.992966331,-84.249072901,420,"4274 COLBY ROAD, WINCHESTER, KY, 40391","Match","Exact","4274 COLBY RD, WINCHESTER, KY, 40391",31795235,"L"
209921,"4274 HARBOR PARK","CROWN POINT","IN",46307,41.4085812610001,-87.229042529,421,"4274 HARBOR PARK, CROWN POINT, IN, 46307","Match","Exact","4274 HARBOR PARK, CROWN POINT, IN, 46307",98438602,"R"
209922,"4274 N BLACKSTONE AVE STE 103","FRESNO","CA",93726,36.7954006630001,-119.790487127,422,"4274 N BLACKSTONE AVE STE 103, FRESNO, CA, 93726","Match","Non_Exact","4274 N BLACKSTONE AVE, FRESNO, CA, 93726",197574239,"R"
209923,"4274 N BLACKSTONE AVE SUITE 103","FRESNO","CA",93726,36.7954006630001,-119.790487127,423,"4274 N BLACKSTONE AVE SUITE 103, FRESNO, CA, 93726","Match","Non_Exact","4274 N BLACKSTONE AVE, FRESNO, CA, 93726",197574239,"R"
209924,"4274 SIR DIXON DRIVE","FAIRBURN","GA",30213,33.6406159850001,-84.633975059,424,"4274 SIR DIXON DRIVE, FAIRBURN, GA, 30213","Match","Exact","4274 SIR DIXON DR, FAIRBURN, GA, 30213",643415582,"L"
209925,"427424 E 1060 RD","CHECOTAH","OK",74426,35.478784938,-95.4080031029999,425,"427424 E 1060 RD, CHECOTAH, OK, 74426","Match","Exact","427424 E 1060 RD, CHECOTAH, OK, 74426",106244692,"L"
209926,"42743 MIRROR POND PLACE","ASHBURN","VI",20148,NA,NA,426,"42743 MIRROR POND PLACE, ASHBURN, VI, 20148","No_Match",NA,NA,NA,NA
209927,"42743 ROBERTS AVE","FREMONT","CA",94538,37.521418381,-121.954727074,427,"42743 ROBERTS AVE, FREMONT, CA, 94538","Match","Exact","42743 ROBERTS AVE, FREMONT, CA, 94538",125041038,"R"
209928,"42743 SCARLETT CIRCLE","HAMMOND","LA",70403,30.47792607,-90.530603657,428,"42743 SCARLETT CIRCLE, HAMMOND, LA, 70403","Match","Exact","42743 SCARLETT CIR, HAMMOND, LA, 70403",624502767,"R"
209929,"42743 ST LAWRENCE AVE","THOUSAND ISLAND PARK","NY",13692,NA,NA,429,"42743 ST LAWRENCE AVE, THOUSAND ISLAND PARK, NY, 13692","No_Match",NA,NA,NA,NA
209930,"427486 E 1060 RD","CHECOTAH","OK",74426,35.4787823720001,-95.4075509749999,430,"427486 E 1060 RD, CHECOTAH, OK, 74426","Match","Exact","427486 E 1060 RD, CHECOTAH, OK, 74426",106244692,"L"
209931,"4275 COUNTY ROAD LM","TEKAMAH","NE",68061,NA,NA,431,"4275 COUNTY ROAD LM, TEKAMAH, NE, 68061","No_Match",NA,NA,NA,NA
209932,"4275 D INDEPENDENCE LOOP","KAPOLEI","HI",96707,21.325609,-158.057472232,432,"4275 D INDEPENDENCE LOOP, KAPOLEI, HI, 96707","Match","Exact","4275 INDEPENDENCE LOOP, KAPOLEI, HI, 96707",203326800,"R"
209933,"4275 FM 2135","CLEBURNE","TX",76031,32.2953841290001,-97.3291727,433,"4275 FM 2135, CLEBURNE, TX, 76031","Match","Exact","4275 FM 2135, CLEBURNE, TX, 76031",649321366,"R"
209934,"4275 HARLAN ST WHEAT RIDGE","WHEAT RIDGE","CO",80033,39.7751677160001,-105.062624937,434,"4275 HARLAN ST WHEAT RIDGE, WHEAT RIDGE, CO, 80033","Match","Exact","4275 HARLAN ST, WHEAT RIDGE, CO, 80033",652263951,"L"
209935,"4275 INDIAN HILLS RD","NASHVILLE","IN",47448,39.2504517740001,-86.320919434,435,"4275 INDIAN HILLS RD, NASHVILLE, IN, 47448","Match","Non_Exact","4275 INDIAN HILL RD, NASHVILLE, IN, 47448",43530118,"R"
209936,"4275 MARTIN LUTHER KING JR","LYNWOOD","CA",90262,33.922285747,-118.190104819,436,"4275 MARTIN LUTHER KING JR, LYNWOOD, CA, 90262","Match","Non_Exact","4275 MARTIN LUTHER KING JR BLVD, LYNWOOD, CA, 90262",141679024,"L"
209937,"4275 NAPOLI CT","INDIANAPOLIS","IN",46235,39.835456563,-86.009093444,437,"4275 NAPOLI CT, INDIANAPOLIS, IN, 46235","Match","Exact","4275 NAPOLI CT, INDIANAPOLIS, IN, 46235",108011479,"R"
209938,"4275 REDSTAR CT","CALIFORNIA","CA",92505,33.9086980860001,-117.486655625,438,"4275 REDSTAR CT, CALIFORNIA, CA, 92505","Match","Non_Exact","4275 REDSTAR CT, RIVERSIDE, CA, 92505",194736876,"R"
209939,"4275 SEDWICK ROAD","MARTINSVILLE","IN",46151,39.374575894,-86.3520926259999,439,"4275 SEDWICK ROAD, MARTINSVILLE, IN, 46151","Match","Exact","4275 SEDWICK RD, MARTINSVILLE, IN, 46151",641434956,"L"
209940,"4275 YOUNGSTOWN DR","GREENSBORO","NC",27405,36.0617244250001,-79.709703356,440,"4275 YOUNGSTOWN DR, GREENSBORO, NC, 27405","Match","Exact","4275 YOUNGSTOWN DR, GREENSBORO, NC, 27405",617536921,"L"
209941,"4275","FLINT","MI",48504,NA,NA,441,"4275, FLINT, MI, 48504","No_Match",NA,NA,NA,NA
209942,"42754 HAMILTON WAY","FREMONT","CA",94538,37.5212265690001,-121.955638019,442,"42754 HAMILTON WAY, FREMONT, CA, 94538","Match","Exact","42754 HAMILTON WAY, FREMONT, CA, 94538",125033982,"L"
209943,"4276 CASCADE SKY DRIVE","ARLINGTON","TX",76005,32.803404739,-97.094466389,443,"4276 CASCADE SKY DRIVE, ARLINGTON, TX, 76005","Match","Exact","4276 CASCADE SKY DR, ARLINGTON, TX, 76005",643048900,"L"
209944,"4276 CHAMBLEE DUNWOODY RD","ATLANTA","GA",30341,33.9154180370001,-84.3150572119999,444,"4276 CHAMBLEE DUNWOODY RD, ATLANTA, GA, 30341","Match","Exact","4276 CHAMBLEE DUNWOODY RD, ATLANTA, GA, 30341",23356907,"L"
209945,"4276 GREEN AVENUE","LOS ALAMITOS","CA",90720,33.8018526480001,-118.057958072,445,"4276 GREEN AVENUE, LOS ALAMITOS, CA, 90720","Match","Exact","4276 GREEN AVE, LOS ALAMITOS, CA, 90720",143999437,"R"
209946,"4276 PINE HOLLOW CIR","GREENA","FL",33463,26.6159060460001,-80.1337861229999,446,"4276 PINE HOLLOW CIR, GREENA, FL, 33463","Match","Non_Exact","4276 PINE HOLLOW CIR, GREENACRES, FL, 33463",115495335,"L"
209947,"4276 PINE HOLLOW CIR","GREENACRES","FL",33463,26.6159060460001,-80.1337861229999,447,"4276 PINE HOLLOW CIR, GREENACRES, FL, 33463","Match","Exact","4276 PINE HOLLOW CIR, GREENACRES, FL, 33463",115495335,"L"
209948,"4276 S CENTINELA AVE APT 106","LOS ANGELES","CA",90066,33.995011252,-118.426006099,448,"4276 S CENTINELA AVE APT 106, LOS ANGELES, CA, 90066","Match","Non_Exact","4276 S CENTINELA AVE, LOS ANGELES, CA, 90066",141577354,"L"
209949,"4276 TRADEWINDS DRIVE","JACKSONVILLE BEACH","FL",32250,30.2682569080001,-81.433849542,449,"4276 TRADEWINDS DRIVE, JACKSONVILLE BEACH, FL, 32250","Match","Exact","4276 TRADEWINDS DR, JACKSONVILLE BEACH, FL, 32250",83922573,"R"
209950,"42763 CONQUEST CIRCLE","ASHBURN","VA",20148,38.9759150190001,-77.5221528449999,450,"42763 CONQUEST CIRCLE, ASHBURN, VA, 20148","Match","Exact","42763 CONQUEST CIR, ASHBURN, VA, 20148",628591887,"R"
209951,"4277 CENTERVILLE DR","COLORADO SPRINGS","CO",80922,38.8942951600001,-104.692782061,451,"4277 CENTERVILLE DR, COLORADO SPRINGS, CO, 80922","Match","Exact","4277 CENTERVILLE DR, COLORADO SPRINGS, CO, 80922",105575578,"L"
209952,"4277 E LK SAMM SHORE LN SE","SAMMAMISH","WA",98075,NA,NA,452,"4277 E LK SAMM SHORE LN SE, SAMMAMISH, WA, 98075","No_Match",NA,NA,NA,NA
209953,"4277 PINECROFT COURT","WEST BLOOMFIELD","MI",48322,42.547900601,-83.367137805,453,"4277 PINECROFT COURT, WEST BLOOMFIELD, MI, 48322","Match","Exact","4277 PINECROFT CT, W BLOOMFIELD, MI, 48322",69722239,"L"
209954,"4277 RIVER OAKS RD","CLOVER","SC",29710,35.131484421,-81.059872293,454,"4277 RIVER OAKS RD, CLOVER, SC, 29710","Match","Exact","4277 RIVER OAKS RD, CLOVER, SC, 29710",635643498,"R"
209955,"4277 ROYAL WOODS LN","BELLBROOK","OH",45305,39.6040132850001,-84.1032309679999,455,"4277 ROYAL WOODS LN, BELLBROOK, OH, 45305","Match","Exact","4277 ROYAL WOODS LN, BELLBROOK, OH, 45305",143382536,"L"
209956,"4277 W 1200 S","DALE","IN",47523,38.2032909550001,-86.989114464,456,"4277 W 1200 S, DALE, IN, 47523","Match","Exact","4277 W 1200 S, DALE, IN, 47523",7903785,"R"
209957,"42770 CALLE ORTEGA","MURRIETA","CA",92562,33.5404374130001,-117.218459608,457,"42770 CALLE ORTEGA, MURRIETA, CA, 92562","Match","Non_Exact","42770 CLL ORTEGA, MURRIETA, CA, 92562",627186223,"R"
209958,"4278 APPALACHIAN HIGHWAY","ROCK VIEW","WV",24880,NA,NA,458,"4278 APPALACHIAN HIGHWAY, ROCK VIEW, WV, 24880","No_Match",NA,NA,NA,NA
209959,"4278 CORINNE CUTOFF","CORINNE","UT",84307,NA,NA,459,"4278 CORINNE CUTOFF, CORINNE, UT, 84307","No_Match",NA,NA,NA,NA
209960,"4278 FOX HOLLOW CIRCLE","CASSELBERRY","FL",32707,28.6600051610001,-81.286942309,460,"4278 FOX HOLLOW CIRCLE, CASSELBERRY, FL, 32707","Match","Exact","4278 FOX HOLLOW CIR, CASSELBERRY, FL, 32707",93799782,"L"
209961,"4278 GRISCOM ST","PHILADLEPHIA","PA",19124,40.0110440500001,-75.090275648,461,"4278 GRISCOM ST, PHILADLEPHIA, PA, 19124","Match","Non_Exact","4278 GRISCOM ST, PHILADELPHIA, PA, 19124",131427779,"L"
209962,"4278 HAMILTON AVE","CINCINNATI","OH",45223,39.164944049,-84.540640006,462,"4278 HAMILTON AVE, CINCINNATI, OH, 45223","Match","Exact","4278 HAMILTON AVE, CINCINNATI, OH, 45223",103922245,"R"
209963,"4279 BRIDLE TRAIL","AKRON","OH",44333,41.196522874,-81.656283824,463,"4279 BRIDLE TRAIL, AKRON, OH, 44333","Match","Exact","4279 BRIDLE TRL, AKRON, OH, 44333",625830260,"L"
209964,"4279 BROWN FARM DRIVE","HAMILTON","OH",45013,39.312968518,-84.667005681,464,"4279 BROWN FARM DRIVE, HAMILTON, OH, 45013","Match","Exact","4279 BROWN FARM DR, HAMILTON, OH, 45013",604775863,"L"
209965,"4279 CEDAR HILLS RD","MEMPHIS","TN",38135,35.243443583,-89.8673631729999,465,"4279 CEDAR HILLS RD, MEMPHIS, TN, 38135","Match","Exact","4279 CEDAR HILLS RD, MEMPHIS, TN, 38135",72977340,"L"
209966,"4279 COMMERCE CIRCLE","IDAHO FALLS","ID",83401,NA,NA,466,"4279 COMMERCE CIRCLE, IDAHO FALLS, ID, 83401","No_Match",NA,NA,NA,NA
209967,"4279 CURVE RD","DELAWARE","OH",43015,40.2682770170001,-82.986513106,467,"4279 CURVE RD, DELAWARE, OH, 43015","Match","Exact","4279 CURVE RD, DELAWARE, OH, 43015",24601162,"L"
209968,"4279 HIDDEN VALLEY RD","DECATUR","GA",30035,33.746429425,-84.214330654,468,"4279 HIDDEN VALLEY RD, DECATUR, GA, 30035","Match","Exact","4279 HIDDEN VALLEY RD, DECATUR, GA, 30035",636358093,"R"
209969,"4279 LINECREST LANE","ELLENWOOD","GA",30294,33.653958329,-84.242456578,469,"4279 LINECREST LANE, ELLENWOOD, GA, 30294","Match","Exact","4279 LINECREST LN, ELLENWOOD, GA, 30294",23401014,"L"
209970,"4279 S STATE HWY 19","PALESTINE","TX",75801,NA,NA,470,"4279 S STATE HWY 19, PALESTINE, TX, 75801","No_Match",NA,NA,NA,NA
209971,"4279 W OAK AVENUE","FULLERTON","CA",92833,33.8636145070001,-117.983396371,471,"4279 W OAK AVENUE, FULLERTON, CA, 92833","Match","Exact","4279 W OAK AVE, FULLERTON, CA, 92833",144010331,"R"
209972,"42795 JOLLE COURT","TEMECULA","CA",92593,33.498955762,-117.085433892,472,"42795 JOLLE COURT, TEMECULA, CA, 92593","Match","Non_Exact","42795 JOLLE CT, TEMECULA, CA, 92592",618480408,"R"
209973,"427B LILIHA COURT LN","HONOLULU","HI",96817,21.321646365,-157.859071203,473,"427B LILIHA COURT LN, HONOLULU, HI, 96817","Match","Exact","427 LILIHA COURT LN, HONOLULU, HI, 96817",203235696,"L"
209974,"428 1ST ST PO BOX 152","MESERVEY","IA",50457,42.9116553920001,-93.4781701329999,474,"428 1ST ST PO BOX 152, MESERVEY, IA, 50457","Match","Exact","428 1ST ST, MESERVEY, IA, 50457",7295850,"R"
209975,"428 5TH STREET","COLUMBUS","IN",47201,39.2035090300001,-85.920698697,475,"428 5TH STREET, COLUMBUS, IN, 47201","Match","Exact","428 5TH ST, COLUMBUS, IN, 47201",30970461,"L"
209976,"428 ANN STREET","CARY","NC",27511,35.7787293490001,-78.790261335,476,"428 ANN STREET, CARY, NC, 27511","Match","Exact","428 ANN ST, CARY, NC, 27511",72514243,"R"
209977,"428 AVALON TRL","HEDGESVILLE","WV",25427,39.555963999,-77.986519836,477,"428 AVALON TRL, HEDGESVILLE, WV, 25427","Match","Exact","428 AVALON TRL, HEDGESVILLE, WV, 25427",650596623,"R"
209978,"428 BARBEY STREET","BROOKLYN","NY",11207,40.672682605,-73.887506991,478,"428 BARBEY STREET, BROOKLYN, NY, 11207","Match","Exact","428 BARBEY ST, BROOKLYN, NY, 11207",59085043,"R"
209979,"428 BELLISSIMO PLACE","HOWEY IN THE HILLS","FL",34737,28.70007149,-81.770484959,479,"428 BELLISSIMO PLACE, HOWEY IN THE HILLS, FL, 34737","Match","Exact","428 BELLISSIMO PL, HOWEY IN THE HILLS, FL, 34737",651179380,"R"
209980,"428 BENNETT MOUNTAIN TRACE","CHAPEL HILL","NC",27516,35.8300508190001,-79.1022920459999,480,"428 BENNETT MOUNTAIN TRACE, CHAPEL HILL, NC, 27516","Match","Non_Exact","428 BENNET MOUNTAIN TRCE, CHAPEL HILL, NC, 27516",624792147,"R"
209981,"428 BERCKMAN DR NW","LILBURN","GA",30047,NA,NA,481,"428 BERCKMAN DR NW, LILBURN, GA, 30047","No_Match",NA,NA,NA,NA
209982,"428 BREEZEWOOD DRIVE","CHARLOTTE","NC",28262,35.3553236540001,-80.747977492,482,"428 BREEZEWOOD DRIVE, CHARLOTTE, NC, 28262","Match","Exact","428 BREEZEWOOD DR, CHARLOTTE, NC, 28262",70583925,"L"
209983,"428 BRIAN AVE","VIRGINIA BEACH","VA",23462,36.8478381620001,-76.1529698529999,483,"428 BRIAN AVE, VIRGINIA BEACH, VA, 23462","Match","Exact","428 BRIAN AVE, VA BCH, VA, 23462",122263367,"R"
209984,"428 CHAROLAIS LAKE DR","BIDWELL","OH",45614,38.8796325100001,-82.250150569,484,"428 CHAROLAIS LAKE DR, BIDWELL, OH, 45614","Match","Exact","428 CHAROLAIS LAKE DR, BIDWELL, OH, 45614",634175400,"R"
209985,"428 CHEROKEE AVENUE","SAINT PAUL","MN",55107,44.929381639,-93.103843855,485,"428 CHEROKEE AVENUE, SAINT PAUL, MN, 55107","Match","Non_Exact","428 S CHEROKEE AVE, SAINT PAUL, MN, 55107",97669768,"L"
209986,"428 CHILDERS STREET","PENSACOLA","FL",32534,30.562060106,-87.271575919,486,"428 CHILDERS STREET, PENSACOLA, FL, 32534","Match","Exact","428 CHILDERS ST, PENSACOLA, FL, 32534",617456302,"R"
209987,"428 CIRCLE DRIVE","ABINGDON","VA",24210,36.7173792890001,-81.9731979599999,487,"428 CIRCLE DRIVE, ABINGDON, VA, 24210","Match","Non_Exact","428 CIRCLE DR NE, ABINGDON, VA, 24210",154364559,"R"
209988,"428 CLAIRCREST DR","ANTIOCH","TN",37013,36.058243272,-86.702486355,488,"428 CLAIRCREST DR, ANTIOCH, TN, 37013","Match","Exact","428 CLAIRCREST DR, ANTIOCH, TN, 37013",97208404,"L"
209989,"428 DENVER ST","STERLING","CO",80751,40.6205421510001,-103.217086097,489,"428 DENVER ST, STERLING, CO, 80751","Match","Exact","428 DENVER ST, STERLING, CO, 80751",136174037,"L"
209990,"428 DOROTHY AVE","VENTURA","CA",93003,34.281635694,-119.244574233,490,"428 DOROTHY AVE, VENTURA, CA, 93003","Match","Exact","428 DOROTHY AVE, VENTURA, CA, 93003",109952407,"R"
209991,"428 DOWNING DRIVE","DANVILLE","VA",24541,36.578886455,-79.439510108,491,"428 DOWNING DRIVE, DANVILLE, VA, 24541","Match","Exact","428 DOWNING DR, DANVILLE, VA, 24541",56587980,"R"
209992,"428 E 10TH STREET","NEW YORK","NY",10009,40.7252517490001,-73.976048809,492,"428 E 10TH STREET, NEW YORK, NY, 10009","Match","Exact","428 E 10TH ST, NEW YORK, NY, 10009",59654789,"R"
209993,"428 E 6TH STREET","ANNISTON","AL",36207,33.651373253,-85.8227330509999,493,"428 E 6TH STREET, ANNISTON, AL, 36207","Match","Exact","428 E 6TH ST, ANNISTON, AL, 36207",66581846,"R"
209994,"428 E FARLOW RD","RICHMOND","IN",47374,39.777614908,-84.900457263,494,"428 E FARLOW RD, RICHMOND, IN, 47374","Match","Exact","428 FARLOW RD, RICHMOND, IN, 47374",642894864,"L"
209995,"428 E MAGNOLIA AVE","ALDAN","PA",19018,39.923348978,-75.278906778,495,"428 E MAGNOLIA AVE, ALDAN, PA, 19018","Match","Exact","428 E MAGNOLIA AVE, ALDAN, PA, 19018",134884410,"R"
209996,"428 E MCKINLEY ST","TEMPE","AZ",85281,33.456235002,-111.932327821,496,"428 E MCKINLEY ST, TEMPE, AZ, 85281","Match","Exact","428 E MCKINLEY ST, TEMPE, AZ, 85281",128225971,"L"
209997,"428 E THUNDERBIRD ROAD  BOX 539","PHOENIX","AZ",85023,33.6075662210001,-112.080242298,497,"428 E THUNDERBIRD ROAD  BOX 539, PHOENIX, AZ, 85023","Match","Non_Exact","428 W THUNDERBIRD RD, PHOENIX, AZ, 85023",128930665,"R"
209998,"428 E THUNDERBIRD ROAD - UNIT 537","PHOENIX","AZ",85022,33.6076299430001,-112.067639069,498,"428 E THUNDERBIRD ROAD - UNIT 537, PHOENIX, AZ, 85022","Match","Non_Exact","428 E THUNDERBIRD RD, PHOENIX, AZ, 85022",647464181,"L"
209999,"428 E THUNDERBIRD ROAD NO 632","PHOENIX","AZ",85022,NA,NA,499,"428 E THUNDERBIRD ROAD NO 632, PHOENIX, AZ, 85022","No_Match",NA,NA,NA,NA
210000,"428 EARL SMITH ROAD","MONTICELLO","KY",42633,36.865946282,-84.933684296,500,"428 EARL SMITH ROAD, MONTICELLO, KY, 42633","Match","Exact","428 EARL SMITH RD, MONTICELLO, KY, 42633",635908430,"R"
