"ID","Address","City","State","Zip","lat","long","id","input_address","match_indicator","match_type","matched_address","tiger_line_id","tiger_side"
201001,"4048 SHERRY CT","PLEASANTON","CA",94566,37.6568070660001,-121.860189112,1,"4048 SHERRY CT, PLEASANTON, CA, 94566","Match","Exact","4048 SHERRY CT, PLEASANTON, CA, 94566",125077090,"L"
201002,"4048 TUJUNGA AVE APT N","STUDIO CITY","CA",91604,34.1415299970001,-118.37895412,2,"4048 TUJUNGA AVE APT N, STUDIO CITY, CA, 91604","Match","Exact","4048 TUJUNGA AVE, STUDIO CITY, CA, 91604",638699655,"R"
201003,"4048 WASHINGTON STREET UNIT 2","BOSTON","MA",2131,NA,NA,3,"4048 WASHINGTON STREET UNIT 2, BOSTON, MA, 2131","No_Match",NA,NA,NA,NA
201004,"40480 JOHNSTON AVE","HEMET","CA",92544,33.733126956,-116.954621485,4,"40480 JOHNSTON AVE, HEMET, CA, 92544","Match","Non_Exact","40480 E JOHNSTON AVE, HEMET, CA, 92544",194757330,"R"
201005,"40480 N FAIRVIEW ST","ANTIOCH","IL",60002,42.4512199430001,-88.133899179,5,"40480 N FAIRVIEW ST, ANTIOCH, IL, 60002","Match","Exact","40480 N FAIRVIEW ST, ANTIOCH, IL, 60002",119697018,"R"
201006,"40485 HOT SPRINGS STE B4-398","MURRIETA","CA",92563,NA,NA,6,"40485 HOT SPRINGS STE B4-398, MURRIETA, CA, 92563","No_Match",NA,NA,NA,NA
201007,"40485 MURRIETA HOT SPRINGS RD","MURRIETA","CA",92563,33.556417428,-117.178420731,7,"40485 MURRIETA HOT SPRINGS RD, MURRIETA, CA, 92563","Match","Exact","40485 MURRIETA HOT SPRINGS RD, MURRIETA, CA, 92563",194843269,"L"
201008,"40485 MURRIETA HOT SPRINGS RDB41010","MURRIETA","CA",92563,33.556417428,-117.178420731,8,"40485 MURRIETA HOT SPRINGS RDB41010, MURRIETA, CA, 92563","Match","Non_Exact","40485 MURRIETA HOT SPRINGS RD, MURRIETA, CA, 92563",194843269,"L"
201009,"4049 CRYSTAL CREEK DRIVE","CINCINNATI","OH",45245,39.0701676300001,-84.274138046,9,"4049 CRYSTAL CREEK DRIVE, CINCINNATI, OH, 45245","Match","Exact","4049 CRYSTAL CREEK DR, CINCINNATI, OH, 45245",118446905,"L"
201010,"4049 DENKER AVE","LOS ANGELES","CA",90062,34.0099983440001,-118.304550238,10,"4049 DENKER AVE, LOS ANGELES, CA, 90062","Match","Non_Exact","4049 S DENKER AVE, LOS ANGELES, CA, 90062",141606607,"R"
201011,"4049 EAST ANDERSON DR","PHOENIX","AZ",85032,33.642413682,-111.99486286,11,"4049 EAST ANDERSON DR, PHOENIX, AZ, 85032","Match","Exact","4049 E ANDERSON DR, PHOENIX, AZ, 85032",128375518,"R"
201012,"4049 HAMPSHIRE CT","INDIANAPOLIS","IN",46235,39.8300714150001,-86.006291065,12,"4049 HAMPSHIRE CT, INDIANAPOLIS, IN, 46235","Match","Exact","4049 HAMPSHIRE CT, INDIANAPOLIS, IN, 46235",108012201,"L"
201013,"4049 KINGSRIDGE ROAD","FORT WORTH","TX",76109,32.6863678760001,-97.396639573,13,"4049 KINGSRIDGE ROAD, FORT WORTH, TX, 76109","Match","Exact","4049 KINGSRIDGE RD, FORT WORTH, TX, 76109",101882200,"L"
201014,"4049 MITCHELL DR","FLINT","MI",48506,43.058239051,-83.635383959,14,"4049 MITCHELL DR, FLINT, MI, 48506","Match","Exact","4049 MITCHELL DR, FLINT, MI, 48506",69570907,"L"
201015,"4049 SAINT CHRISTIAN STREET","FORT WORTH","TX",76119,32.688204704,-97.298475067,15,"4049 SAINT CHRISTIAN STREET, FORT WORTH, TX, 76119","Match","Exact","4049 SAINT CHRISTIAN ST, FORT WORTH, TX, 76119",619874743,"L"
201016,"4049 US HIGHWAY 231  STE 1007","WETUMPKA","AL",36093,32.502461693,-86.215998627,16,"4049 US HIGHWAY 231  STE 1007, WETUMPKA, AL, 36093","Match","Non_Exact","4049 US HWY 231, WETUMPKA, AL, 36093",1412821,"L"
201017,"40495 CALLE MADERO","TEMECULA","CA",92591,33.5321906930001,-117.140855429,17,"40495 CALLE MADERO, TEMECULA, CA, 92591","Match","Non_Exact","40495 CLL MADERO, TEMECULA, CA, 92591",194714767,"L"
201018,"405 1/2 EMERALD STREET","REDONDO BEACH","CA",90277,33.8419985400001,-118.386943134,18,"405 1/2 EMERALD STREET, REDONDO BEACH, CA, 90277","Match","Exact","405 EMERALD ST, REDONDO BEACH, CA, 90277",141584042,"L"
201019,"405 102ND AVE UNIT G","BELLEVUE","WA",98004,47.606272318,-122.20408212,19,"405 102ND AVE UNIT G, BELLEVUE, WA, 98004","Match","Non_Exact","405 102ND AVE SE, BELLEVUE, WA, 98004",629179280,"R"
201020,"405 13TH AVENUE","KIRKLAND","WA",98033,47.6856444920001,-122.200102549,20,"405 13TH AVENUE, KIRKLAND, WA, 98033","Match","Exact","405 13TH AVE, KIRKLAND, WA, 98033",186681857,"R"
201021,"405 141ST STREET NE","BRADENTON","FL",34212,27.502988933,-82.400180668,21,"405 141ST STREET NE, BRADENTON, FL, 34212","Match","Non_Exact","405 141ST CT NE, BRADENTON, FL, 34212",16288596,"R"
201022,"405 14TH AVE","BARABOO","WI",53913,43.4804671860001,-89.747395319,22,"405 14TH AVE, BARABOO, WI, 53913","Match","Exact","405 14TH AVE, BARABOO, WI, 53913",86534148,"L"
201023,"405 21ST ST NE","MENOMONIE","WI",54751,NA,NA,23,"405 21ST ST NE, MENOMONIE, WI, 54751","Tie",NA,NA,NA,NA
201024,"405 3RD ST NW","SPRINGHILL","LA",71075,33.0074095780001,-93.465030988,24,"405 3RD ST NW, SPRINGHILL, LA, 71075","Match","Exact","405 3RD ST NW, SPRINGHILL, LA, 71075",73406347,"R"
201025,"405 4TH STREET NW","AUSTIN","MN",55912,NA,NA,25,"405 4TH STREET NW, AUSTIN, MN, 55912","Tie",NA,NA,NA,NA
201026,"405 6TH STREET ROOM 305","SIOUX CITY","IA",51101,42.4963342670001,-96.4063572759999,26,"405 6TH STREET ROOM 305, SIOUX CITY, IA, 51101","Match","Exact","405 6TH ST, SIOUX CITY, IA, 51101",93443408,"L"
201027,"405 7TH AVE SW","LARGO","FL",33770,27.9102878890001,-82.7923779239999,27,"405 7TH AVE SW, LARGO, FL, 33770","Match","Exact","405 7TH AVE SW, LARGO, FL, 33770",124672027,"L"
201028,"405 86TH ST","BROOKLYN","NY",11209,40.6226540270001,-74.0280981399999,28,"405 86TH ST, BROOKLYN, NY, 11209","Match","Exact","405 86TH ST, BROOKLYN, NY, 11209",59087460,"L"
201029,"405 8TH ST SE","SPRINGHILL","LA",71075,32.9995288980001,-93.452033735,29,"405 8TH ST SE, SPRINGHILL, LA, 71075","Match","Exact","405 8TH ST SE, SPRINGHILL, LA, 71075",73399468,"R"
201030,"405 AGATE AVE","MANSFIELD","OH",44907,40.7466325780001,-82.500186215,30,"405 AGATE AVE, MANSFIELD, OH, 44907","Match","Exact","405 AGATE AVE, MANSFIELD, OH, 44907",12835847,"L"
201031,"405 AGNES AVENUE","MISSOULA","MT",59801,46.8433365670001,-114.003436691,31,"405 AGNES AVENUE, MISSOULA, MT, 59801","Match","Exact","405 AGNES AVE, MISSOULA, MT, 59801",205240179,"L"
201032,"405 ALBERS ST","GOLDEN","IL",62339,40.111858032,-91.020719044,32,"405 ALBERS ST, GOLDEN, IL, 62339","Match","Exact","405 ALBERS ST, GOLDEN, IL, 62339",35075209,"R"
201033,"405 ALBERS STREET","GOLDEN","IL",62339,40.111858032,-91.020719044,33,"405 ALBERS STREET, GOLDEN, IL, 62339","Match","Exact","405 ALBERS ST, GOLDEN, IL, 62339",35075209,"R"
201034,"405 ALDERSHOT WAY","COLUMBIA","SC",29229,34.1519952940001,-80.943122896,34,"405 ALDERSHOT WAY, COLUMBIA, SC, 29229","Match","Exact","405 ALDERSHOT WAY, COLUMBIA, SC, 29229",645308715,"L"
201035,"405 ALLENDALE ROAD","KING OF PRUSSIA","PA",19406,40.095022772,-75.3896618919999,35,"405 ALLENDALE ROAD, KING OF PRUSSIA, PA, 19406","Match","Exact","405 ALLENDALE RD, KING OF PRUSSIA, PA, 19406",135104832,"L"
201036,"405 ANKENY","WATERLOO","KS",50703,NA,NA,36,"405 ANKENY, WATERLOO, KS, 50703","No_Match",NA,NA,NA,NA
201037,"405 ANN ARBOR STREET","MANCHESTER","MI",48158,42.153487942,-84.04094674,37,"405 ANN ARBOR STREET, MANCHESTER, MI, 48158","Match","Exact","405 ANN ARBOR ST, MANCHESTER, MI, 48158",26009458,"L"
201038,"405 AVE B","OAKDALE","LA",71463,30.8089220030001,-92.6586914229999,38,"405 AVE B, OAKDALE, LA, 71463","Match","Exact","405 AVE B, OAKDALE, LA, 71463",13110633,"R"
201039,"405 AVENUE F TRL 10","HUNTINGTON","TX",75949,31.2748679760001,-94.5703466049999,39,"405 AVENUE F TRL 10, HUNTINGTON, TX, 75949","Match","Non_Exact","405 AVE F, HUNTINGTON, TX, 75949",23855999,"R"
201040,"405 AVENUE OF THE STATES","CHESTER","PA",19013,39.8475942900001,-75.359536508,40,"405 AVENUE OF THE STATES, CHESTER, PA, 19013","Match","Exact","405 AVE OF THE STATES, CHESTER, PA, 19013",134881681,"R"
201041,"405 BABBIDGE RD U 1205","STORRS","CT",6269,41.807126296,-72.25160285,41,"405 BABBIDGE RD U 1205, STORRS, CT, 6269","Match","Exact","405 BABBIDGE RD, STORRS, CT, 06269",624380334,"L"
201042,"405 BALMORAL ROAD","WINTER PARK","FL",32789,28.5922734210001,-81.331540005,42,"405 BALMORAL ROAD, WINTER PARK, FL, 32789","Match","Exact","405 BALMORAL RD, WINTER PARK, FL, 32789",94279693,"R"
201043,"405 BARBOUR RD APT 187","MOREHEAD CITY","NC",28557,34.73133784,-76.74247782,43,"405 BARBOUR RD APT 187, MOREHEAD CITY, NC, 28557","Match","Exact","405 BARBOUR RD, MOREHEAD CITY, NC, 28557",33907858,"L"
201044,"405 BELMONT ROAD","BUTLER","PA",16001,40.8768281750001,-79.890895712,44,"405 BELMONT ROAD, BUTLER, PA, 16001","Match","Exact","405 BELMONT RD, BUTLER, PA, 16001",52686274,"R"
201045,"405 BENNETT ST","AUBURNDALE","FL",33823,28.0603008510001,-81.784429619,45,"405 BENNETT ST, AUBURNDALE, FL, 33823","Match","Exact","405 BENNETT ST, AUBURNDALE, FL, 33823",104817170,"L"
201046,"405 BIENVILLE ST","NATCHITOCHES","LA",71457,31.751920066,-93.081191137,46,"405 BIENVILLE ST, NATCHITOCHES, LA, 71457","Match","Exact","405 BIENVILLE ST, NATCHITOCHES, LA, 71457",13349924,"L"
201047,"405 BOCKES ROAD","PORTER CORNERS","NY",12859,43.1413257340001,-73.88004949,47,"405 BOCKES ROAD, PORTER CORNERS, NY, 12859","Match","Exact","405 BOCKES RD, PORTER CORNERS, NY, 12859",641263670,"R"
201048,"405 BOTTOM ST","PLEASANT HILL","IL",62366,39.44451888,-90.875122786,48,"405 BOTTOM ST, PLEASANT HILL, IL, 62366","Match","Exact","405 BOTTOM ST, PLEASANT HILL, IL, 62366",44712727,"L"
201049,"405 BOY SCOUT ROAD","BYRON","GA",31008,32.6624306210001,-83.758594214,49,"405 BOY SCOUT ROAD, BYRON, GA, 31008","Match","Exact","405 BOY SCOUT RD, BYRON, GA, 31008",93725411,"R"
201050,"405 BRADDOCK AVE","FREDERICK","MD",21701,39.409133308,-77.429889811,50,"405 BRADDOCK AVE, FREDERICK, MD, 21701","Match","Exact","405 BRADDOCK AVE, FREDERICK, MD, 21701",60672741,"L"
201051,"405 BREAKWATER ROAD","ERMA","NJ",8204,39.0005113140001,-74.9145595319999,51,"405 BREAKWATER ROAD, ERMA, NJ, 8204","Match","Non_Exact","405 BREAKWATER RD, CAPE MAY, NJ, 08204",174352849,"R"
201052,"405 BREESPORT","SAN ANTONIO","TX",78216,29.5521863280001,-98.4995850239999,52,"405 BREESPORT, SAN ANTONIO, TX, 78216","Match","Non_Exact","405 BREESPORT ST, SAN ANTONIO, TX, 78216",101495711,"R"
201053,"405 BUCK ISLAND ROAD","GUNTERVILLE","AL",35976,34.3950107960001,-86.268468856,53,"405 BUCK ISLAND ROAD, GUNTERVILLE, AL, 35976","Match","Non_Exact","405 BUCK ISLAND RD, GUNTERSVILLE, AL, 35976",614831593,"L"
201054,"405 BUSINESS LOOP ROAD","MARKSVILLE","LA",71351,31.1203657,-92.15204626,54,"405 BUSINESS LOOP ROAD, MARKSVILLE, LA, 71351","Match","Non_Exact","405 BUS LOOP RD, MARKSVILLE, LA, 71351",607530325,"L"
201055,"405 CAMINO DEL RIO SOUTH","SAN DIEGO","CA",92108,NA,NA,55,"405 CAMINO DEL RIO SOUTH, SAN DIEGO, CA, 92108","No_Match",NA,NA,NA,NA
201056,"405 CANTERBERRY LANE","OAK BROOK","IL",60523,41.8292807980001,-87.925846028,56,"405 CANTERBERRY LANE, OAK BROOK, IL, 60523","Match","Exact","405 CANTERBERRY LN, OAK BROOK, IL, 60523",635447038,"R"
201057,"405 CANTERBERRY LN","OAK BROOK","IL",60523,41.8292807980001,-87.925846028,57,"405 CANTERBERRY LN, OAK BROOK, IL, 60523","Match","Exact","405 CANTERBERRY LN, OAK BROOK, IL, 60523",635447038,"R"
201058,"405 CEDAR TRACE","PEARL","MS",39208,32.220051465,-90.0399518469999,58,"405 CEDAR TRACE, PEARL, MS, 39208","Match","Exact","405 CEDAR TRCE, PEARL, MS, 39208",627527316,"R"
201059,"405 CHAPELWOOD DRIVE","HANOVER","PA",17331,39.8225109840001,-76.9836584509999,59,"405 CHAPELWOOD DRIVE, HANOVER, PA, 17331","Match","Exact","405 CHAPELWOOD DR, HANOVER, PA, 17331",88754174,"R"
201060,"405 CHERRY HILL RD","AMHERST","VA",24521,37.6249521300001,-79.076046403,60,"405 CHERRY HILL RD, AMHERST, VA, 24521","Match","Exact","405 CHERRY HILL RD, AMHERST, VA, 24521",159114983,"L"
201061,"405 CLEARVIEW DRIVE","SMYRNA","TN",37167,35.96811139,-86.513883016,61,"405 CLEARVIEW DRIVE, SMYRNA, TN, 37167","Match","Exact","405 CLEARVIEW DR, SMYRNA, TN, 37167",59021313,"L"
201062,"405 CLINTON RIVER DR","MOUNT CLEMENS","MI",48043,42.5875351650001,-82.874665453,62,"405 CLINTON RIVER DR, MOUNT CLEMENS, MI, 48043","Match","Exact","405 CLINTON RIVER DR, MOUNT CLEMENS, MI, 48043",110682817,"L"
201063,"405 COBB MILL ROAD","WOODVILLE","TX",75979,NA,NA,63,"405 COBB MILL ROAD, WOODVILLE, TX, 75979","No_Match",NA,NA,NA,NA
201064,"405 COCHITUATE ROAD SUITE 302","FRAMINGHAM","MA",1701,42.3081014960001,-71.385251894,64,"405 COCHITUATE ROAD SUITE 302, FRAMINGHAM, MA, 1701","Match","Exact","405 COCHITUATE RD, FRAMINGHAM, MA, 01701",87102391,"R"
201065,"405 COCONUT ISLE DRIVE","FORT LAUDERDALE","FL",33301,26.1180315870001,-80.1216725799999,65,"405 COCONUT ISLE DRIVE, FORT LAUDERDALE, FL, 33301","Match","Exact","405 COCONUT ISLE DR, FORT LAUDERDALE, FL, 33301",114726148,"R"
201066,"405 COMMODORE DR","PLANTATION","FL",33325,26.1248378230001,-80.326952776,66,"405 COMMODORE DR, PLANTATION, FL, 33325","Match","Exact","405 COMMODORE DR, PLANTATION, FL, 33325",608972766,"L"
201067,"405 COMPTON CT","ALLEN","TX",75013,33.0962727260001,-96.6983836859999,67,"405 COMPTON CT, ALLEN, TX, 75013","Match","Exact","405 COMPTON CT, ALLEN, TX, 75013",123525530,"L"
201068,"405 COPPER FALLS DR","TEXAS","TX",77083,NA,NA,68,"405 COPPER FALLS DR, TEXAS, TX, 77083","No_Match",NA,NA,NA,NA
201069,"405 COTTAGE ST","ASHLAND","OH",44805,40.8714337330001,-82.318230511,69,"405 COTTAGE ST, ASHLAND, OH, 44805","Match","Non_Exact","405 S COTTAGE ST, ASHLAND, OH, 44805",30146424,"R"
201070,"405 COUNTRY CLUB BLVD","SLIDELL","LA",70458,30.307751292,-89.762677024,70,"405 COUNTRY CLUB BLVD, SLIDELL, LA, 70458","Match","Exact","405 COUNTRY CLUB BLVD, SLIDELL, LA, 70458",111313787,"L"
201071,"405 COUNTRY CLUB DR","REHOBOTH BEACH","DE",19971,38.7113851130001,-75.09102747,71,"405 COUNTRY CLUB DR, REHOBOTH BEACH, DE, 19971","Match","Exact","405 COUNTRY CLUB DR, REHOBOTH BCH, DE, 19971",106089560,"L"
201072,"405 COUNTY LINE ROAD APT J","BLUFFTON","OH",45817,40.892316173,-83.8803284269999,72,"405 COUNTY LINE ROAD APT J, BLUFFTON, OH, 45817","Match","Exact","405 COUNTY LINE RD, BLUFFTON, OH, 45817",35561912,"R"
201073,"405 CRANBORNE LANE","CARY","NC",27519,35.7852203680001,-78.864554945,73,"405 CRANBORNE LANE, CARY, NC, 27519","Match","Exact","405 CRANBORNE LN, CARY, NC, 27519",72589436,"L"
201074,"405 CREEKVIEW TRAIL SE","SMYRNA","GA",30082,33.8403028930001,-84.5154948159999,74,"405 CREEKVIEW TRAIL SE, SMYRNA, GA, 30082","Match","Exact","405 CREEKVIEW TRL SE, SMYRNA, GA, 30082",616576065,"R"
201075,"405 CRESTFIELD CT","SUNNYVALE","TX",75182,32.808941308,-96.5595244789999,75,"405 CRESTFIELD CT, SUNNYVALE, TX, 75182","Match","Exact","405 CRESTFIELD CT, SUNNYVALE, TX, 75182",637598942,"L"
201076,"405 CROWN RIDGE PT","WOODWAY","TX",76712,31.494390573,-97.241441417,76,"405 CROWN RIDGE PT, WOODWAY, TX, 76712","Match","Exact","405 CROWN RIDGE PT, WOODWAY, TX, 76712",146760704,"L"
201077,"405 CROWN STREET","BROOKLYN","NY",11225,40.666047205,-73.946272312,77,"405 CROWN STREET, BROOKLYN, NY, 11225","Match","Exact","405 CROWN ST, BROOKLYN, NY, 11225",652206029,"L"
201078,"405 DALEPORT DRIVE","MURPHY","TX",75094,33.0330829320001,-96.6204402229999,78,"405 DALEPORT DRIVE, MURPHY, TX, 75094","Match","Exact","405 DALEPORT DR, MURPHY, TX, 75094",210489663,"R"
201079,"405 DANBURY CT","SPARTANBURG","SC",29301,34.9156095110001,-82.0244973489999,79,"405 DANBURY CT, SPARTANBURG, SC, 29301","Match","Exact","405 DANBURY CT, SPARTANBURG, SC, 29301",624395571,"L"
201080,"405 DAVIS STREET","FOUNTAIN CITY","IN",47341,39.9568465290001,-84.921253791,80,"405 DAVIS STREET, FOUNTAIN CITY, IN, 47341","Match","Exact","405 DAVIS ST, FOUNTAIN CITY, IN, 47341",31321878,"L"
201081,"405 DIGH ST","GASTONIA","NC",28052,35.266108628,-81.225295035,81,"405 DIGH ST, GASTONIA, NC, 28052","Match","Exact","405 DIGH ST, GASTONIA, NC, 28052",70377160,"L"
201082,"405 DRYDEN RD","ITHACA","NY",14850,42.441072166,-76.4814326599999,82,"405 DRYDEN RD, ITHACA, NY, 14850","Match","Exact","405 DRYDEN RD, ITHACA, NY, 14850",18857671,"L"
201083,"405 DUBARD BOYLE ROAD","COLUMBIA","SC",29203,34.118884032,-81.0440518899999,83,"405 DUBARD BOYLE ROAD, COLUMBIA, SC, 29203","Match","Exact","405 DUBARD BOYLE RD, COLUMBIA, SC, 29203",608830752,"L"
201084,"405 E 14TH STREET","ROANOKE RAPIDS","NC",27870,36.44776941,-77.655682687,84,"405 E 14TH STREET, ROANOKE RAPIDS, NC, 27870","Match","Exact","405 E 14TH ST, ROANOKE RAPIDS, NC, 27870",56727329,"L"
201085,"405 E 21ST STREET","MARSHFIELD","WI",54449,44.648462614,-90.176230291,85,"405 E 21ST STREET, MARSHFIELD, WI, 54449","Match","Exact","405 E 21ST ST, MARSHFIELD, WI, 54449",640071706,"L"
201086,"405 E 9TH AVE","BRODHEAD","WI",53520,NA,NA,86,"405 E 9TH AVE, BRODHEAD, WI, 53520","Tie",NA,NA,NA,NA
201087,"405 E CAMBRIDGE AVE","GREENWOOD","SC",29646,34.1958882690001,-82.1705819159999,87,"405 E CAMBRIDGE AVE, GREENWOOD, SC, 29646","Match","Non_Exact","405 W CAMBRIDGE AVE, GREENWOOD, SC, 29646",640566390,"L"
201088,"405 E FRANKLIN","HUNTINGTON","IN",46750,40.882915831,-85.491049505,88,"405 E FRANKLIN, HUNTINGTON, IN, 46750","Match","Non_Exact","405 E FRANKLIN ST, HUNTINGTON, IN, 46750",6547257,"R"
201089,"405 E HOUSTON","HIGHLANDS","TX",77562,29.8231231,-95.0548355019999,89,"405 E HOUSTON, HIGHLANDS, TX, 77562","Match","Non_Exact","405 E HOUSTON ST, HIGHLANDS, TX, 77562",96100981,"R"
201090,"405 E JOHNSON","FAIRFIELD","IL",62837,38.383697741,-88.356608024,90,"405 E JOHNSON, FAIRFIELD, IL, 62837","Match","Non_Exact","405 E JOHNSON ST, FAIRFIELD, IL, 62837",39173184,"R"
201091,"405 E L ST- PO BOX 441","NOME","AK",99762,NA,NA,91,"405 E L ST- PO BOX 441, NOME, AK, 99762","No_Match",NA,NA,NA,NA
201092,"405 E LABURNUM AVENUE","RICHMOND","VA",23222,37.585462712,-77.4279275979999,92,"405 E LABURNUM AVENUE, RICHMOND, VA, 23222","Match","Exact","405 E LABURNUM AVE, RICHMOND, VA, 23222",106689204,"R"
201093,"405 E LAFAYETTE DR","WEST MONROE","LA",71291,32.563455103,-92.165146826,93,"405 E LAFAYETTE DR, WEST MONROE, LA, 71291","Match","Exact","405 E LAFAYETTE DR, WEST MONROE, LA, 71291",161101021,"R"
201094,"405 E MAGNOLIA AVE","MIDLAND","TX",79705,32.0224004940001,-102.074651059,94,"405 E MAGNOLIA AVE, MIDLAND, TX, 79705","Match","Exact","405 E MAGNOLIA AVE, MIDLAND, TX, 79705",139582226,"L"
201095,"405 E MAIN ST","LAUREL","MT",59044,45.6702341710001,-108.766955452,95,"405 E MAIN ST, LAUREL, MT, 59044","Match","Exact","405 E MAIN ST, LAUREL, MT, 59044",181460486,"L"
201096,"405 E MAPLE ST","PARKSTON","SD",57366,43.3967669680001,-97.981696031,96,"405 E MAPLE ST, PARKSTON, SD, 57366","Match","Exact","405 E MAPLE ST, PARKSTON, SD, 57366",172970365,"R"
201097,"405 E MARKET ST","LEESBURG","VA",20176,39.110464015,-77.5552526669999,97,"405 E MARKET ST, LEESBURG, VA, 20176","Match","Exact","405 E MARKET ST, LEESBURG, VA, 20176",62323549,"L"
201098,"405 E NINE MILE ROAD 438","HENRICO","VA",23075,NA,NA,98,"405 E NINE MILE ROAD 438, HENRICO, VA, 23075","Tie",NA,NA,NA,NA
201099,"405 E OMAHA ST  SUITE B","RAPID CITY","SD",57701,44.081414511,-103.204876755,99,"405 E OMAHA ST  SUITE B, RAPID CITY, SD, 57701","Match","Non_Exact","405 E OMAHA ST, RAPID CITY, SD, 57701",205510032,"R"
201100,"405 E PIONEER AVE","SHENANDOAH","IA",51601,40.754710119,-95.361634415,100,"405 E PIONEER AVE, SHENANDOAH, IA, 51601","Match","Exact","405 E PIONEER AVE, SHENANDOAH, IA, 51601",10222789,"R"
201101,"405 E PRINCE RD APT 802","TUCSON","AZ",85705,NA,NA,101,"405 E PRINCE RD APT 802, TUCSON, AZ, 85705","Tie",NA,NA,NA,NA
201102,"405 E SANTA ROSA STREET","VICTORIA","TX",77901,28.797291821,-97.003377062,102,"405 E SANTA ROSA STREET, VICTORIA, TX, 77901","Match","Exact","405 E SANTA ROSA ST, VICTORIA, TX, 77901",44559580,"R"
201103,"405 E SOUTHERN DRIVE","BLOOMINGTON","IN",47401,39.149749796,-86.530017329,103,"405 E SOUTHERN DRIVE, BLOOMINGTON, IN, 47401","Match","Exact","405 E SOUTHERN DR, BLOOMINGTON, IN, 47401",42324012,"L"
201104,"405 E VINE ST","MEXICO","MO",65265,39.181302465,-91.879467705,104,"405 E VINE ST, MEXICO, MO, 65265","Match","Exact","405 E VINE ST, MEXICO, MO, 65265",629843748,"L"
201105,"405 E WETMORE RD STE 117-224","TUCSON","AZ",85705,32.2864653350001,-110.978505307,105,"405 E WETMORE RD STE 117-224, TUCSON, AZ, 85705","Match","Non_Exact","405 W WETMORE RD, TUCSON, AZ, 85705",639449197,"L"
201106,"405 EAST 19TH AVE SUITE A2","NORTH KANSAS CITY","MO",64116,39.141656675,-94.5771399079999,106,"405 EAST 19TH AVE SUITE A2, NORTH KANSAS CITY, MO, 64116","Match","Exact","405 E 19TH AVE, N KANSAS CITY, MO, 64116",89775304,"L"
201107,"405 EAST 56 STREET SUITE 11K","NEW YORK","NY",10022,40.75759609,-73.9632942,107,"405 EAST 56 STREET SUITE 11K, NEW YORK, NY, 10022","Match","Exact","405 E 56TH ST, NEW YORK, NY, 10022",650073200,"L"
201108,"405 EAST OAKWOOD BOULEVARD  4N","CHICAGO","IL",60653,41.822649563,-87.616516439,108,"405 EAST OAKWOOD BOULEVARD  4N, CHICAGO, IL, 60653","Match","Exact","405 E OAKWOOD BLVD, CHICAGO, IL, 60653",605590614,"R"
201109,"405 EAST SECOND STREET","OIL CITY","PA",16301,41.4274288920001,-79.706156085,109,"405 EAST SECOND STREET, OIL CITY, PA, 16301","Match","Exact","405 E 2ND ST, OIL CITY, PA, 16301",70740378,"L"
201110,"405 EDGEMONT LANE","MCDONOUGH","GA",30253,33.4477784800001,-84.180387041,110,"405 EDGEMONT LANE, MCDONOUGH, GA, 30253","Match","Exact","405 EDGEMONT LN, MCDONOUGH, GA, 30253",619916393,"L"
201111,"405 EL CAMINO REAL 308","MENLO PARK","CA",94025,NA,NA,111,"405 EL CAMINO REAL 308, MENLO PARK, CA, 94025","No_Match",NA,NA,NA,NA
201112,"405 EL CAMINO REAL SUITE 345","MENLO PARK","CA",94025,NA,NA,112,"405 EL CAMINO REAL SUITE 345, MENLO PARK, CA, 94025","No_Match",NA,NA,NA,NA
201113,"405 ELARA COURT","UPPER MARLBORO","MD",20770,38.887802279,-76.761226614,113,"405 ELARA COURT, UPPER MARLBORO, MD, 20770","Match","Non_Exact","405 ELARA CT, UPPER MARLBORO, MD, 20774",624853890,"R"
201114,"405 ELARA CT","UPPER MARLBORO","MD",20774,38.887802279,-76.761226614,114,"405 ELARA CT, UPPER MARLBORO, MD, 20774","Match","Exact","405 ELARA CT, UPPER MARLBORO, MD, 20774",624853890,"R"
201115,"405 ELLERBE WAY","LAKELAND","FL",33801,28.0388809070001,-81.911567982,115,"405 ELLERBE WAY, LAKELAND, FL, 33801","Match","Exact","405 ELLERBE WAY, LAKELAND, FL, 33801",104818282,"R"
201116,"405 ELM STREET","WESTFIELD","NJ",7090,40.6548735960001,-74.353927558,116,"405 ELM STREET, WESTFIELD, NJ, 7090","Match","Exact","405 ELM ST, WESTFIELD, NJ, 07090",60566905,"L"
201117,"405 EMMAUS ROAD","EPWORTH","GA",30541,34.890073661,-84.47822115,117,"405 EMMAUS ROAD, EPWORTH, GA, 30541","Match","Exact","405 EMMAUS RD, EPWORTH, GA, 30541",57160523,"R"
201118,"405 FAST ICE DRIVE","MIDLAND","MI",48642,NA,NA,118,"405 FAST ICE DRIVE, MIDLAND, MI, 48642","No_Match",NA,NA,NA,NA
201119,"405 FIOLI CIRCLE","GRANITEVILLE","SC",29829,33.544852914,-81.8356310949999,119,"405 FIOLI CIRCLE, GRANITEVILLE, SC, 29829","Match","Exact","405 FIOLI CIR, GRANITEVILLE, SC, 29829",640726838,"R"
201120,"405 FIRST STREET","NEOLA","IA",51559,41.4528933120001,-95.6149253579999,120,"405 FIRST STREET, NEOLA, IA, 51559","Match","Exact","405 1ST ST, NEOLA, IA, 51559",43913664,"R"
201121,"405 FONTAINE PLACE STE 101","RIDGELAND","MS",39157,NA,NA,121,"405 FONTAINE PLACE STE 101, RIDGELAND, MS, 39157","No_Match",NA,NA,NA,NA
201122,"405 FOSTER SPRINGS ROAD","LAS VEGAS","NV",89148,36.0403585170001,-115.285693784,122,"405 FOSTER SPRINGS ROAD, LAS VEGAS, NV, 89148","Match","Exact","405 FOSTER SPRINGS RD, LAS VEGAS, NV, 89148",612989931,"R"
201123,"405 FOUNDERS POINTE BLVD","FRANKLIN","TN",37064,35.933335465,-86.8972765619999,123,"405 FOUNDERS POINTE BLVD, FRANKLIN, TN, 37064","Match","Exact","405 FOUNDERS POINTE BLVD, FRANKLIN, TN, 37064",607911014,"L"
201124,"405 FRANKLIN BOULEVARD","AUSTIN","TX",78751,30.3201329570001,-97.7248707109999,124,"405 FRANKLIN BOULEVARD, AUSTIN, TX, 78751","Match","Exact","405 FRANKLIN BLVD, AUSTIN, TX, 78751",63931685,"L"
201125,"405 FRIAR TUCK WAY","LAURENS","SC",29360,34.542270538,-81.98831812,125,"405 FRIAR TUCK WAY, LAURENS, SC, 29360","Match","Non_Exact","405 FRIAR TUCK WAY N, LAURENS, SC, 29360",44459023,"R"
201126,"405 GALLERIA LANE SUITE E","OXFORD","MS",38655,34.365662824,-89.561603613,126,"405 GALLERIA LANE SUITE E, OXFORD, MS, 38655","Match","Non_Exact","405 GALLERIA DR, OXFORD, MS, 38655",76975090,"R"
201127,"405 GOLFVIEW DRIVE","PLEASANT HILL","MO",64080,38.7886144780001,-94.246616043,127,"405 GOLFVIEW DRIVE, PLEASANT HILL, MO, 64080","Match","Exact","405 GOLFVIEW DR, PLEASANT HILL, MO, 64080",635854797,"L"
201128,"405 GRAND VALLEY DR","SAULSBURY","TN",38067,35.143940715,-89.011466255,128,"405 GRAND VALLEY DR, SAULSBURY, TN, 38067","Match","Exact","405 GRAND VALLEY DR, SAULSBURY, TN, 38067",21114012,"L"
201129,"405 GRANT 9","SHERIDAN","AR",72150,34.2974007490001,-92.403655822,129,"405 GRANT 9, SHERIDAN, AR, 72150","Match","Exact","405 GRANT 9, SHERIDAN, AR, 72150",2497254,"L"
201130,"405 HALEY ST","BAKERSFIELD","CA",93305,35.3691587490001,-118.983895146,130,"405 HALEY ST, BAKERSFIELD, CA, 93305","Match","Exact","405 HALEY ST, BAKERSFIELD, CA, 93305",109096029,"R"
201131,"405 HARBISON BLVD SUITE 528","COLUMBIA","SC",29212,34.0803289770001,-81.150153296,131,"405 HARBISON BLVD SUITE 528, COLUMBIA, SC, 29212","Match","Exact","405 HARBISON BLVD, COLUMBIA, SC, 29212",71857762,"R"
201132,"405 HARBISON BOULEVARD SUITE 528","COLUMBIA","SC",29212,34.0803289770001,-81.150153296,132,"405 HARBISON BOULEVARD SUITE 528, COLUMBIA, SC, 29212","Match","Exact","405 HARBISON BLVD, COLUMBIA, SC, 29212",71857762,"R"
201133,"405 HARBOR DR","NEW BERN","NC",28560,35.1284945250001,-77.053287337,133,"405 HARBOR DR, NEW BERN, NC, 28560","Match","Exact","405 HARBOR DR, NEW BERN, NC, 28560",34120791,"R"
201134,"405 HELIX WAY","OCEANSIDE","CA",92057,33.2188797790001,-117.308792298,134,"405 HELIX WAY, OCEANSIDE, CA, 92057","Match","Exact","405 HELIX WAY, OCEANSIDE, CA, 92057",195420075,"R"
201135,"405 HENRY STREET","AIKEN","SC",29803,33.529605974,-81.707501018,135,"405 HENRY STREET, AIKEN, SC, 29803","Match","Exact","405 HENRY ST, AIKEN, SC, 29803",622225797,"R"
201136,"405 HIALEAH DRIVE","CHERRY HILL","NJ",8002,39.935781815,-75.022464008,136,"405 HIALEAH DRIVE, CHERRY HILL, NJ, 8002","Match","Exact","405 HIALEAH DR, CHERRY HILL, NJ, 08002",134372750,"R"
201137,"405 HIGHRIDGE LANE","MCKINNEY","TX",75069,33.17450383,-96.555155848,137,"405 HIGHRIDGE LANE, MCKINNEY, TX, 75069","Match","Exact","405 HIGHRIDGE LN, MCKINNEY, TX, 75069",123552628,"R"
201138,"405 HILLSIDE AVE","NORRISTOWN","PA",19403,40.149946501,-75.401745648,138,"405 HILLSIDE AVE, NORRISTOWN, PA, 19403","Match","Exact","405 HILLSIDE AVE, NORRISTOWN, PA, 19403",135069058,"R"
201139,"405 HOLLAND DR","SOMERSET","NJ",8873,40.449372506,-74.524337143,139,"405 HOLLAND DR, SOMERSET, NJ, 8873","Match","Exact","405 HOLLAND DR, SOMERSET, NJ, 08873",59969499,"L"
201140,"405 HOLSTEN BANK WAY","CARY","NC",27519,35.7908763240001,-78.897299758,140,"405 HOLSTEN BANK WAY, CARY, NC, 27519","Match","Exact","405 HOLSTEN BANK WAY, CARY, NC, 27519",638347434,"L"
201141,"405 HOPE AVE","COLUMBUS","IN",47201,39.2032884820001,-85.8996477169999,141,"405 HOPE AVE, COLUMBUS, IN, 47201","Match","Exact","405 HOPE AVE, COLUMBUS, IN, 47201",606469337,"R"
201142,"405 I ST","BEDFORD","IN",47421,38.875458484,-86.482939211,142,"405 I ST, BEDFORD, IN, 47421","Match","Exact","405 I ST, BEDFORD, IN, 47421",42073534,"L"
201143,"405 I STREEY","BEDFORD","IN",47421,38.875458484,-86.482939211,143,"405 I STREEY, BEDFORD, IN, 47421","Match","Non_Exact","405 I ST, BEDFORD, IN, 47421",42073534,"L"
201144,"405 IDLEWILD AVE","GREENVILLE","SC",29605,34.7301522670001,-82.361116612,144,"405 IDLEWILD AVE, GREENVILLE, SC, 29605","Match","Exact","405 IDLEWILD AVE, GREENVILLE, SC, 29605",38306673,"L"
201145,"405 INDIGO SPRINGS","HENDERSON","NV",89014,36.056766168,-115.077889207,145,"405 INDIGO SPRINGS, HENDERSON, NV, 89014","Match","Non_Exact","405 INDIGO SPRINGS ST, HENDERSON, NV, 89014",201936993,"R"
201146,"405 JOHNSON AVE","SUFFOLK","VA",23435,36.7240870100001,-76.578823523,146,"405 JOHNSON AVE, SUFFOLK, VA, 23435","Match","Non_Exact","405 JOHNSON AVE, SUFFOLK, VA, 23434",122227171,"R"
201147,"405 JOHNSON ST","ENUMCLAW","WA",98022,47.1948498460001,-121.999469678,147,"405 JOHNSON ST, ENUMCLAW, WA, 98022","Match","Exact","405 JOHNSON ST, ENUMCLAW, WA, 98022",186925287,"L"
201148,"405 KINGSWOOD DRIVE","BURLESON","TX",76028,32.5521850650001,-97.346599118,148,"405 KINGSWOOD DRIVE, BURLESON, TX, 76028","Match","Exact","405 KINGSWOOD DR, BURLESON, TX, 76028",103533689,"R"
201149,"405 KNOTTY WOOD LANE","WELLINGTON","FL",33414,26.6746638980001,-80.264610518,149,"405 KNOTTY WOOD LANE, WELLINGTON, FL, 33414","Match","Exact","405 KNOTTY WOOD LN, WELLINGTON, FL, 33414",115579536,"R"
201150,"405 LADSON CT","DECATUR","GA",30033,33.795968848,-84.3060516309999,150,"405 LADSON CT, DECATUR, GA, 30033","Match","Exact","405 LADSON CT, DECATUR, GA, 30033",23400050,"R"
201151,"405 LAKESHORE DR","LEESBURG","FL",34748,28.7981796220001,-81.874120019,151,"405 LAKESHORE DR, LEESBURG, FL, 34748","Match","Exact","405 LAKESHORE DR, LEESBURG, FL, 34748",94097289,"L"
201152,"405 LAKESHORE DRIVE","STARKE","FL",32091,29.945593751,-82.1468541799999,152,"405 LAKESHORE DRIVE, STARKE, FL, 32091","Match","Exact","405 LAKESHORE DR, STARKE, FL, 32091",6908848,"L"
201153,"405 LANDEN PT","PEACHTREE CITY","GA",30269,33.3812511020001,-84.547755911,153,"405 LANDEN PT, PEACHTREE CITY, GA, 30269","Match","Exact","405 LANDEN PT, PEACHTREE CITY, GA, 30269",75928002,"L"
201154,"405 LANTERN RIDGE DR","MANSFIELD","TX",76063,32.592209552,-97.177322873,154,"405 LANTERN RIDGE DR, MANSFIELD, TX, 76063","Match","Exact","405 LANTERN RIDGE DR, MANSFIELD, TX, 76063",101930045,"R"
201155,"405 LUCILE STREET","FORT ATKINSON","WI",53538,42.9327378150001,-88.8512434259999,155,"405 LUCILE STREET, FORT ATKINSON, WI, 53538","Match","Exact","405 LUCILE ST, FORT ATKINSON, WI, 53538",53216203,"L"
201156,"405 MACKENZIE ST NE","WARROAD","MN",56763,48.9067551150001,-95.3160813379999,156,"405 MACKENZIE ST NE, WARROAD, MN, 56763","Match","Exact","405 MACKENZIE ST NE, WARROAD, MN, 56763",176591899,"L"
201157,"405 MAIN ST SUITE 9","PORT WASHINGTON","NY",11050,40.829472723,-73.702013444,157,"405 MAIN ST SUITE 9, PORT WASHINGTON, NY, 11050","Match","Exact","405 MAIN ST, PORT WASHINGTON, NY, 11050",147658611,"R"
201158,"405 MAIN ST","RISON","AR",71665,NA,NA,158,"405 MAIN ST, RISON, AR, 71665","No_Match",NA,NA,NA,NA
201159,"405 MAIN STREET APT 12A","NEW YORK","NY",10044,40.7577982340001,-73.95350388,159,"405 MAIN STREET APT 12A, NEW YORK, NY, 10044","Match","Exact","405 MAIN ST, NEW YORK, NY, 10044",624649873,"L"
201160,"405 MAIN STREET PO BOX 437","HILLSBORO","MO",63050,38.232089107,-90.564605092,160,"405 MAIN STREET PO BOX 437, HILLSBORO, MO, 63050","Match","Exact","405 MAIN ST, HILLSBORO, MO, 63050",62769174,"R"
201161,"405 MAIN STREET SUITE 6","MIDDLEFIELD","CT",6455,41.5159154770001,-72.7122838879999,161,"405 MAIN STREET SUITE 6, MIDDLEFIELD, CT, 6455","Match","Exact","405 MAIN ST, MIDDLEFIELD, CT, 06455",113899653,"L"
201162,"405 MAJI RD","WHITEHOUSE","TX",75791,32.2212458500001,-95.2439196349999,162,"405 MAJI RD, WHITEHOUSE, TX, 75791","Match","Exact","405 MAJI RD, WHITEHOUSE, TX, 75791",642350165,"R"
201163,"405 MARSHALL HEIGHTS DRIVE","WEXFORD","PA",15090,40.6186902260001,-80.091550937,163,"405 MARSHALL HEIGHTS DRIVE, WEXFORD, PA, 15090","Match","Exact","405 MARSHALL HEIGHTS DR, WEXFORD, PA, 15090",617313179,"L"
201164,"405 MARTEL LANE","COPPELL","TX",75019,32.9790802100001,-97.000451402,164,"405 MARTEL LANE, COPPELL, TX, 75019","Match","Exact","405 MARTEL LN, COPPELL, TX, 75019",103212133,"R"
201165,"405 MARYLAND AVENUE","CAMBRIDGE","MD",21613,38.569383713,-76.0677247679999,165,"405 MARYLAND AVENUE, CAMBRIDGE, MD, 21613","Match","Exact","405 MARYLAND AVE, CAMBRIDGE, MD, 21613",99660930,"L"
201166,"405 MCDOWELL STREET","CINCINNATI","OH",45226,39.116813216,-84.4363963659999,166,"405 MCDOWELL STREET, CINCINNATI, OH, 45226","Match","Exact","405 MCDOWELL ST, CINCINNATI, OH, 45226",103931420,"L"
201167,"405 MCGILLIS  PO BOX 107","IRON RIVER","MI",49915,NA,NA,167,"405 MCGILLIS  PO BOX 107, IRON RIVER, MI, 49915","No_Match",NA,NA,NA,NA
201168,"405 MEADOW LANE","WENDELL","NC",27591,35.7770866320001,-78.3747641749999,168,"405 MEADOW LANE, WENDELL, NC, 27591","Match","Exact","405 MEADOW LN, WENDELL, NC, 27591",208359677,"R"
201169,"405 MELISSA DRIVE","BILOXI","MS",39531,30.410109854,-88.9691697109999,169,"405 MELISSA DRIVE, BILOXI, MS, 39531","Match","Exact","405 MELISSA DR, BILOXI, MS, 39531",111383728,"L"
201170,"405 MIDDLE STREET","NEW BERN","NC",28560,35.108418742,-77.0396112339999,170,"405 MIDDLE STREET, NEW BERN, NC, 28560","Match","Exact","405 MIDDLE ST, NEW BERN, NC, 28560",34112510,"L"
201171,"405 MINERAL WELLS ST","TERRELL","TX",75160,32.732324663,-96.2887779599999,171,"405 MINERAL WELLS ST, TERRELL, TX, 75160","Match","Exact","405 MINERAL WELLS ST, TERRELL, TX, 75160",123736042,"R"
201172,"405 MUNICIPAL DRIVE","KENNEDALE","TX",76060,32.647185844,-97.2248187169999,172,"405 MUNICIPAL DRIVE, KENNEDALE, TX, 76060","Match","Exact","405 MUNICIPAL DR, KENNEDALE, TX, 76060",637994417,"L"
201173,"405 N 5TH STREET APT 508","MANKATO","MN",56001,NA,NA,173,"405 N 5TH STREET APT 508, MANKATO, MN, 56001","Tie",NA,NA,NA,NA
201174,"405 N 7TH STREET","KANSAS CITY","KS",66101,39.110181546,-94.626764925,174,"405 N 7TH STREET, KANSAS CITY, KS, 66101","Match","Exact","405 N 7TH ST, KANSAS CITY, KS, 66101",91140961,"R"
201175,"405 N BARNETT ST","LEROY","IL",61752,40.350010189,-88.7558264319999,175,"405 N BARNETT ST, LEROY, IL, 61752","Match","Non_Exact","405 N BARNETT ST, LE ROY, IL, 61752",20552728,"R"
201176,"405 N CHURCH STREET","TUPELO","MS",38804,34.2622070960001,-88.708808574,176,"405 N CHURCH STREET, TUPELO, MS, 38804","Match","Exact","405 N CHURCH ST, TUPELO, MS, 38804",90653633,"L"
201177,"405 N DIVISION ROAD STE 1","PETOSKEY","MI",49770,45.3761587060001,-84.924833797,177,"405 N DIVISION ROAD STE 1, PETOSKEY, MI, 49770","Match","Exact","405 DIVISION RD, PETOSKEY, MI, 49770",648035391,"L"
201178,"405 N DIVISION ROAD SUITE 1","PETOSKEY","MI",49770,45.3761587060001,-84.924833797,178,"405 N DIVISION ROAD SUITE 1, PETOSKEY, MI, 49770","Match","Exact","405 DIVISION RD, PETOSKEY, MI, 49770",648035391,"L"
201179,"405 N DIVISION","RITZVILLE","WA",99169,47.1289389390001,-118.382510528,179,"405 N DIVISION, RITZVILLE, WA, 99169","Match","Non_Exact","405 N DIVISION ST, RITZVILLE, WA, 99169",181840475,"R"
201180,"405 N EXETER AVE","MARGATE","NJ",8402,39.3357832460001,-74.5030024559999,180,"405 N EXETER AVE, MARGATE, NJ, 8402","Match","Non_Exact","405 N EXETER AVE, MARGATE CITY, NJ, 08402",647586791,"R"
201181,"405 N GARFIELD AVE","MONTEREY PARK","CA",91754,NA,NA,181,"405 N GARFIELD AVE, MONTEREY PARK, CA, 91754","Tie",NA,NA,NA,NA
201182,"405 N KING ST STE 100","WILMINGTON","DE",19801,39.7401557380001,-75.5503878169999,182,"405 N KING ST STE 100, WILMINGTON, DE, 19801","Match","Non_Exact","405 N KING ST, WILMINGTON, DE, 19801",187258083,"L"
201183,"405 N MARKET ST","NORTH MANCHESTER","IN",46962,41.0025988260001,-85.770246781,183,"405 N MARKET ST, NORTH MANCHESTER, IN, 46962","Match","Exact","405 N MARKET ST, N MANCHESTER, IN, 46962",15534913,"R"
201184,"405 N MCCOY BLVD","NEW BOSTON","TX",75570,33.464754376,-94.4084684599999,184,"405 N MCCOY BLVD, NEW BOSTON, TX, 75570","Match","Exact","405 N MCCOY BLVD, NEW BOSTON, TX, 75570",57660631,"L"
201185,"405 N RAYMOND ST","WOLCOTT","IN",47995,40.7616041300001,-87.038230448,185,"405 N RAYMOND ST, WOLCOTT, IN, 47995","Match","Exact","405 N RAYMOND ST, WOLCOTT, IN, 47995",27369957,"L"
201186,"405 N SPRING ST","ODON","IN",47562,38.8465909010001,-86.990399043,186,"405 N SPRING ST, ODON, IN, 47562","Match","Exact","405 N SPRING ST, ODON, IN, 47562",32072716,"R"
201187,"405 N WABASH AVE UNIT 4411","CHICAGO","IL",60611,41.8889016420001,-87.626964855,187,"405 N WABASH AVE UNIT 4411, CHICAGO, IL, 60611","Match","Exact","405 WABASH AVE, CHICAGO, IL, 60611",643187419,"L"
201188,"405 N WABASH UNIT 4903","CHICAGO","IL",60611,41.8889016420001,-87.626964855,188,"405 N WABASH UNIT 4903, CHICAGO, IL, 60611","Match","Non_Exact","405 WABASH AVE, CHICAGO, IL, 60611",643187419,"L"
201189,"405 N WASHINGTON AVE","SPRINGFIELD","MO",65803,37.211713149,-93.2859632349999,189,"405 N WASHINGTON AVE, SPRINGFIELD, MO, 65803","Match","Non_Exact","405 N WASHINGTON AVE, SPRINGFIELD, MO, 65806",76678178,"L"
201190,"405 N WASHINGTON ST","WASHINGTON","LA",70589,30.612720311,-92.059895661,190,"405 N WASHINGTON ST, WASHINGTON, LA, 70589","Match","Non_Exact","405 S WASHINGTON ST, WASHINGTON, LA, 70589",106433835,"R"
201191,"405 N WATER STREET","PAULDING","OH",45879,41.1397147370001,-84.578578269,191,"405 N WATER STREET, PAULDING, OH, 45879","Match","Exact","405 N WATER ST, PAULDING, OH, 45879",6711023,"R"
201192,"405 NEWCASTLE DRIVE","CARY","IL",60013,42.2300091230001,-88.2244069119999,192,"405 NEWCASTLE DRIVE, CARY, IL, 60013","Match","Exact","405 NEWCASTLE DR, CARY, IL, 60013",639635880,"L"
201193,"405 NORTH 1340 EAST","PROVO","UT",84606,40.239254386,-111.635629928,193,"405 NORTH 1340 EAST, PROVO, UT, 84606","Match","Exact","405 N 1340 E, PROVO, UT, 84606",618481475,"L"
201194,"405 NORTH PRINCETON AVE","WENONAH","NJ",8090,39.7975234100001,-75.1465121699999,194,"405 NORTH PRINCETON AVE, WENONAH, NJ, 8090","Match","Exact","405 N PRINCETON AVE, WENONAH, NJ, 08090",134585025,"R"
201195,"405 NW 1ST AVE","GRAND RAPIDS","MN",55744,47.2360382350001,-93.529882108,195,"405 NW 1ST AVE, GRAND RAPIDS, MN, 55744","Match","Exact","405 NW 1ST AVE, GRAND RAPIDS, MN, 55744",162932500,"R"
201196,"405 OLD TOWN CT","ALEXANDRIA","VA",22314,38.801893195,-77.0516496179999,196,"405 OLD TOWN CT, ALEXANDRIA, VA, 22314","Match","Exact","405 OLD TOWN CT, ALEXANDRIA, VA, 22314",76018609,"L"
201197,"405 OLDE COURT RD","ST. CHARLES","MO",63303,38.753330733,-90.516639831,197,"405 OLDE COURT RD, ST. CHARLES, MO, 63303","Match","Exact","405 OLDE COURT RD, SAINT CHARLES, MO, 63303",605588261,"R"
201198,"405 OUACHITA","MOUNTAIN PINE","AR",71956,34.571906718,-93.1749330659999,198,"405 OUACHITA, MOUNTAIN PINE, AR, 71956","Match","Non_Exact","405 OUACHITA AVE, MOUNTAIN PINE, AR, 71956",22741341,"R"
201199,"405 PARK AVE","FLORENCE","SC",29501,34.191075336,-79.778326828,199,"405 PARK AVE, FLORENCE, SC, 29501","Match","Exact","405 PARK AVE, FLORENCE, SC, 29501",28878232,"R"
201200,"405 PARK HAVEN LANE","TYRONE","GA",30290,33.508468943,-84.586241178,200,"405 PARK HAVEN LANE, TYRONE, GA, 30290","Match","Exact","405 PARK HAVEN LN, TYRONE, GA, 30290",642059569,"R"
201201,"405 PARK ROAD","LOOKOUT MOUNTAIN","TN",37350,34.999583736,-85.3520009269999,201,"405 PARK ROAD, LOOKOUT MOUNTAIN, TN, 37350","Match","Exact","405 PARK RD, LOOKOUT MOUNTAIN, TN, 37350",59311795,"R"
201202,"405 PARKER AVENUE","SAN FRANCISCO","CA",94118,37.7789162440001,-122.453644713,202,"405 PARKER AVENUE, SAN FRANCISCO, CA, 94118","Match","Exact","405 PARKER AVE, SAN FRANCISCO, CA, 94118",192282135,"R"
201203,"405 PAVILLION ST","LAFAYETTE","LA",70507,30.303485412,-92.0389852769999,203,"405 PAVILLION ST, LAFAYETTE, LA, 70507","Match","Non_Exact","405 PAVILION ST, LAFAYETTE, LA, 70507",631847861,"L"
201204,"405 PEACHTREE PARKWAY STE 130","CUMMING","GA",30041,34.1540524800001,-84.173991099,204,"405 PEACHTREE PARKWAY STE 130, CUMMING, GA, 30041","Match","Exact","405 PEACHTREE PKWY, CUMMING, GA, 30041",70177562,"R"
201205,"405 PENDLETON STREET","NORFOLK","VA",23523,36.8355071300001,-76.282893606,205,"405 PENDLETON STREET, NORFOLK, VA, 23523","Match","Exact","405 PENDLETON ST, NORFOLK, VA, 23523",122128454,"R"
201206,"405 PIKE RD","WEST PALM BEACH","FL",33411,26.683555546,-80.165806147,206,"405 PIKE RD, WEST PALM BEACH, FL, 33411","Match","Exact","405 PIKE RD, WEST PALM BEACH, FL, 33411",640943786,"R"
201207,"405 PIMLICO WAY","MT. LAUREL","NJ",8054,39.9245633680001,-74.8649614079999,207,"405 PIMLICO WAY, MT. LAUREL, NJ, 8054","Match","Exact","405 PIMLICO WAY, MOUNT LAUREL, NJ, 08054",134062032,"L"
201208,"405 PINE TRACT ROAD","WEST SUNBURY","PA",16061,40.9445589430001,-79.882482593,208,"405 PINE TRACT ROAD, WEST SUNBURY, PA, 16061","Match","Exact","405 PINE TRACT RD, WEST SUNBURY, PA, 16061",52680203,"L"
201209,"405 PORT LANE","COUNCE","TN",38326,35.0094392400001,-88.2162417389999,209,"405 PORT LANE, COUNCE, TN, 38326","Match","Exact","405 PORT LN, COUNCE, TN, 38326",21177402,"L"
201210,"405 PORTLAND AVENUE","SAINT PAUL","MN",55102,44.9424330890001,-93.117859385,210,"405 PORTLAND AVENUE, SAINT PAUL, MN, 55102","Match","Non_Exact","405 W PORTLAND AVE, SAINT PAUL, MN, 55102",97647800,"R"
201211,"405 PRESTWICK CT","SUMMERVILLE","SC",29483,33.038918703,-80.225045388,211,"405 PRESTWICK CT, SUMMERVILLE, SC, 29483","Match","Exact","405 PRESTWICK CT, SUMMERVILLE, SC, 29483",623850747,"L"
201212,"405 RACETRACK RD NE SUITE 103","FORT WALTON BEACH","FL",32547,30.442832959,-86.600995943,212,"405 RACETRACK RD NE SUITE 103, FORT WALTON BEACH, FL, 32547","Match","Exact","405 RACETRACK RD NE, FORT WALTON BEACH, FL, 32547",74449081,"R"
201213,"405 REDWATER ROAD","WAKE VILLAGE","TX",75501,33.4245700490001,-94.1127853039999,213,"405 REDWATER ROAD, WAKE VILLAGE, TX, 75501","Match","Exact","405 REDWATER RD, WAKE VILLAGE, TX, 75501",57667214,"L"
201214,"405 RICHARDS AVE","GILLETTE","WY",82716,44.291086131,-105.508299648,214,"405 RICHARDS AVE, GILLETTE, WY, 82716","Match","Non_Exact","405 S RICHARDS AVE, GILLETTE, WY, 82716",146322925,"R"
201215,"405 RIO CONCHO DRIVE UNIT 401","SAN ANGELO","TX",76903,NA,NA,215,"405 RIO CONCHO DRIVE UNIT 401, SAN ANGELO, TX, 76903","No_Match",NA,NA,NA,NA
201216,"405 RIO GRANDE AVE","HUTTO","TX",78634,30.5705676000001,-97.537451581,216,"405 RIO GRANDE AVE, HUTTO, TX, 78634","Match","Exact","405 RIO GRANDE AVE, HUTTO, TX, 78634",126477226,"L"
201217,"405 ROLLING ACRES DRIVE","KATHLEEN","GA",31047,32.5108215920001,-83.6388375659999,217,"405 ROLLING ACRES DRIVE, KATHLEEN, GA, 31047","Match","Exact","405 ROLLING ACRES DR, KATHLEEN, GA, 31047",646213383,"R"
201218,"405 ROOSEVELT AVE","POMONA","CA",91767,34.0729425580001,-117.743856872,218,"405 ROOSEVELT AVE, POMONA, CA, 91767","Match","Exact","405 ROOSEVELT AVE, POMONA, CA, 91767",141734022,"L"
201219,"405 ROSS AVENUE","PITTSBURGH","PA",15221,40.4443345930001,-79.889560565,219,"405 ROSS AVENUE, PITTSBURGH, PA, 15221","Match","Exact","405 ROSS AVE, PITTSBURGH, PA, 15221",51936781,"L"
201220,"405 ROSS ST","CHINA GROVE","NC",28023,NA,NA,220,"405 ROSS ST, CHINA GROVE, NC, 28023","No_Match",NA,NA,NA,NA
201221,"405 ROTHROCK ROAD SUITE 103","COPLEY","OH",44321,41.123454758,-81.648461926,221,"405 ROTHROCK ROAD SUITE 103, COPLEY, OH, 44321","Match","Exact","405 ROTHROCK RD, COPLEY, OH, 44321",648781628,"L"
201222,"405 S  DALE MABRY HGHY APT 423","TAMPA","FL",33609,NA,NA,222,"405 S  DALE MABRY HGHY APT 423, TAMPA, FL, 33609","No_Match",NA,NA,NA,NA
201223,"405 S 1ST ST","ST CHARLES","IL",60174,41.9100880240001,-88.3134325729999,223,"405 S 1ST ST, ST CHARLES, IL, 60174","Match","Exact","405 S 1ST ST, SAINT CHARLES, IL, 60174",119566536,"R"
201224,"405 S 21ST STREET","SPARKS","NV",89431,39.531217251,-119.771323209,224,"405 S 21ST STREET, SPARKS, NV, 89431","Match","Exact","405 S 21ST ST, SPARKS, NV, 89431",649133695,"R"
201225,"405 S 3RD ST","FAIRFIELD","IA",52556,41.003235278,-91.9663188599999,225,"405 S 3RD ST, FAIRFIELD, IA, 52556","Match","Exact","405 S 3RD ST, FAIRFIELD, IA, 52556",84429949,"R"
201226,"405 S 9TH ST","BROKEN ARROW","OK",74012,36.0485241760001,-95.7795096689999,226,"405 S 9TH ST, BROKEN ARROW, OK, 74012","Match","Exact","405 S 9TH ST, BROKEN ARROW, OK, 74012",166487243,"L"
201227,"405 S BRIDGE ST","BRADY","TX",76825,31.132182114,-99.3349726549999,227,"405 S BRIDGE ST, BRADY, TX, 76825","Match","Exact","405 S BRIDGE ST, BRADY, TX, 76825",129840228,"R"
201228,"405 S BUTTE ST","WILLOWS","CA",95988,39.516586202,-122.195289587,228,"405 S BUTTE ST, WILLOWS, CA, 95988","Match","Exact","405 S BUTTE ST, WILLOWS, CA, 95988",67178021,"L"
201229,"405 S CHESTER AVE","BAKERSFIELD","CA",93304,35.349906547,-119.018940606,229,"405 S CHESTER AVE, BAKERSFIELD, CA, 93304","Match","Exact","405 S CHESTER AVE, BAKERSFIELD, CA, 93304",109089648,"R"
201230,"405 S CLINTON","DALLAS","TX",75208,32.742212366,-96.842926325,230,"405 S CLINTON, DALLAS, TX, 75208","Match","Non_Exact","405 S CLINTON AVE, DALLAS, TX, 75208",102945880,"R"
201231,"405 S EUCLID AVE","OAK PARK","IL",60302,41.881350314,-87.792666696,231,"405 S EUCLID AVE, OAK PARK, IL, 60302","Match","Exact","405 S EUCLID AVE, OAK PARK, IL, 60302",605117706,"R"
201232,"405 S FARWELL ST STE 23","EAU CLAIRE","WI",54701,44.8105450830001,-91.497556665,232,"405 S FARWELL ST STE 23, EAU CLAIRE, WI, 54701","Match","Non_Exact","405 S FARWELL ST, EAU CLAIRE, WI, 54701",46066802,"L"
201233,"405 S HENRIETTA STREET","EFFINGHAM","IL",62401,39.1194864600001,-88.556198434,233,"405 S HENRIETTA STREET, EFFINGHAM, IL, 62401","Match","Exact","405 S HENRIETTA ST, EFFINGHAM, IL, 62401",94761316,"L"
201234,"405 S MAIN ST","BENTONVILLE","AR",72712,36.3681067590001,-94.208891033,234,"405 S MAIN ST, BENTONVILLE, AR, 72712","Match","Exact","405 S MAIN ST, BENTONVILLE, AR, 72712",645632037,"L"
201235,"405 S MICHIGAN ST","CONRAD","MT",59425,48.1711344070001,-111.955681441,235,"405 S MICHIGAN ST, CONRAD, MT, 59425","Match","Exact","405 S MICHIGAN ST, CONRAD, MT, 59425",204240900,"R"
201236,"405 S SUMMIT ST  STE F","CRESCENT CITY","FL",32112,29.4352890640001,-81.510527343,236,"405 S SUMMIT ST  STE F, CRESCENT CITY, FL, 32112","Match","Non_Exact","405 N SUMMIT ST, CRESCENT CITY, FL, 32112",86062975,"L"
201237,"405 S SUMMIT STREET STE   F","CRESCENT CITY","FL",32112,29.4352890640001,-81.510527343,237,"405 S SUMMIT STREET STE   F, CRESCENT CITY, FL, 32112","Match","Non_Exact","405 N SUMMIT ST, CRESCENT CITY, FL, 32112",86062975,"L"
201238,"405 SAINT MARYS STREET","BOLCKOW","MO",64427,40.1142709910001,-94.820138802,238,"405 SAINT MARYS STREET, BOLCKOW, MO, 64427","Match","Exact","405 ST MARYS ST, BOLCKOW, MO, 64427",15924890,"R"
201239,"405 SAN MARCOS AVE","SANFORD","FL",32771,28.8082426230001,-81.255991465,239,"405 SAN MARCOS AVE, SANFORD, FL, 32771","Match","Exact","405 SAN MARCOS AVE, SANFORD, FL, 32771",93750154,"L"
201240,"405 SANDBAR FERRY ROAD","AUGUSTA","GA",30901,33.461115379,-81.93740265,240,"405 SANDBAR FERRY ROAD, AUGUSTA, GA, 30901","Match","Exact","405 SANDBAR FERRY RD, AUGUSTA, GA, 30901",604927414,"L"
201241,"405 SARDINIA CIRCLE","DAVENPORT","FL",33837,28.2291571120001,-81.5775931919999,241,"405 SARDINIA CIRCLE, DAVENPORT, FL, 33837","Match","Exact","405 SARDINIA CIR, DAVENPORT, FL, 33837",648236255,"L"
201242,"405 SE 13TH ST","FORT LAUDERDALE","FL",33316,26.105780865,-80.138743328,242,"405 SE 13TH ST, FORT LAUDERDALE, FL, 33316","Match","Exact","405 SE 13TH ST, FORT LAUDERDALE, FL, 33316",636892119,"L"
201243,"405 SE GASPARILLA AVE","PORT ST LUCIE","FL",34983,27.320349643,-80.336160685,243,"405 SE GASPARILLA AVE, PORT ST LUCIE, FL, 34983","Match","Exact","405 SE GASPARILLA AVE, PORT ST LUCIE, FL, 34983",120174819,"L"
201244,"405 SEQUOYAH PL","DALTON","GA",30721,34.776420773,-84.95710446,244,"405 SEQUOYAH PL, DALTON, GA, 30721","Match","Exact","405 SEQUOYAH PL, DALTON, GA, 30721",619947509,"L"
201245,"405 SHARONDALE DRIVE","EL PASO","TX",79912,31.8342690750001,-106.512551913,245,"405 SHARONDALE DRIVE, EL PASO, TX, 79912","Match","Exact","405 SHARONDALE DR, EL PASO, TX, 79912",189395107,"R"
201246,"405 SHERIDAN STREET NW","WASHINGTON","DC",20011,38.966140636,-77.018246504,246,"405 SHERIDAN STREET NW, WASHINGTON, DC, 20011","Match","Exact","405 SHERIDAN ST NW, WASHINGTON, DC, 20011",76221992,"R"
201247,"405 SOLBERG ST NW","YELM","WA",98597,46.946957974,-122.609164116,247,"405 SOLBERG ST NW, YELM, WA, 98597","Match","Exact","405 SOLBERG ST NW, YELM, WA, 98597",647773065,"L"
201248,"405 SOLON ROAD","WAXAHACHIE","TX",75165,32.413856004,-96.851378097,248,"405 SOLON ROAD, WAXAHACHIE, TX, 75165","Match","Exact","405 SOLON RD, WAXAHACHIE, TX, 75165",103483003,"L"
201249,"405 SORENSEN WAY","MADISON","TN",37115,36.239893045,-86.6686848259999,249,"405 SORENSEN WAY, MADISON, TN, 37115","Match","Exact","405 SORENSEN WAY, MADISON, TN, 37115",97206222,"L"
201250,"405 SOUTH 56TH STREET STE A","PHILADELPHIA","PA",19143,39.954353027,-75.234235977,250,"405 SOUTH 56TH STREET STE A, PHILADELPHIA, PA, 19143","Match","Exact","405 S 56TH ST, PHILADELPHIA, PA, 19143",131399094,"L"
201251,"405 SOUTH CENTRAL AVENUE","QUINCY","WA",98848,NA,NA,251,"405 SOUTH CENTRAL AVENUE, QUINCY, WA, 98848","No_Match",NA,NA,NA,NA
201252,"405 SOUTH LINDEN AVENUE","ALLIANCE","OH",44601,40.918243295,-81.09995881,252,"405 SOUTH LINDEN AVENUE, ALLIANCE, OH, 44601","Match","Exact","405 S LINDEN AVE, ALLIANCE, OH, 44601",624888805,"R"
201253,"405 SOUTH LORRAINE","SAINT FRANCIS","KS",67756,NA,NA,253,"405 SOUTH LORRAINE, SAINT FRANCIS, KS, 67756","No_Match",NA,NA,NA,NA
201254,"405 SOUTH MAIN STREET","CAVE CITY","AR",72521,35.9463940210001,-91.5488434759999,254,"405 SOUTH MAIN STREET, CAVE CITY, AR, 72521","Match","Non_Exact","405 N MAIN ST, CAVE CITY, AR, 72521",604548257,"L"
201255,"405 SOUTH NEBRASKA","WESLACO","TX",78596,26.1579134400001,-97.99266354,255,"405 SOUTH NEBRASKA, WESLACO, TX, 78596","Match","Non_Exact","405 S NEBRASKA AVE, WESLACO, TX, 78596",71482164,"R"
201256,"405 SOUTH ORCHID DRIVE","TEXAS CITY","TX",77591,29.37990475,-94.961165745,256,"405 SOUTH ORCHID DRIVE, TEXAS CITY, TX, 77591","Match","Exact","405 S ORCHID DR, TEXAS CITY, TX, 77591",96688074,"R"
201257,"405 SOUTHBROOK PARKWAY","KEARNEY","MO",64060,39.3592629890001,-94.356810675,257,"405 SOUTHBROOK PARKWAY, KEARNEY, MO, 64060","Match","Exact","405 SOUTHBROOK PKWY, KEARNEY, MO, 64060",89766707,"R"
201258,"405 SOUTHWEST 304TH STREET","FEDERAL WAY","WA",98023,47.329628708,-122.339919071,258,"405 SOUTHWEST 304TH STREET, FEDERAL WAY, WA, 98023","Match","Exact","405 SW 304TH ST, FEDERAL WAY, WA, 98023",186648646,"L"
201259,"405 SPEARMAN DRIVE","ATLANTA","TX",75551,33.1037078270001,-94.1632038559999,259,"405 SPEARMAN DRIVE, ATLANTA, TX, 75551","Match","Exact","405 SPEARMAN DR, ATLANTA, TX, 75551",57069773,"L"
201260,"405 SPEIGHT AVE APT I-7","ROCKY MOUNT","NC",27804,NA,NA,260,"405 SPEIGHT AVE APT I-7, ROCKY MOUNT, NC, 27804","No_Match",NA,NA,NA,NA
201261,"405 STARKEY STREET","RALEIGH","NC",27603,35.739827561,-78.653542371,261,"405 STARKEY STREET, RALEIGH, NC, 27603","Match","Exact","405 STARKEY ST, RALEIGH, NC, 27603",646930280,"L"
201262,"405 STONEYBROOK","WYLIE","TX",75098,33.001666662,-96.543592578,262,"405 STONEYBROOK, WYLIE, TX, 75098","Match","Non_Exact","405 STONEYBROOK DR, WYLIE, TX, 75098",123521267,"L"
201263,"405 SW KENTWOOD ROAD","PORT ST LUCIE","FL",34953,27.250143801,-80.356922164,263,"405 SW KENTWOOD ROAD, PORT ST LUCIE, FL, 34953","Match","Exact","405 SW KENTWOOD RD, PORT ST LUCIE, FL, 34953",617429778,"R"
201264,"405 SW SHAMROCK PLACE","BLUE SPRINGS","MO",64014,38.9913301770001,-94.270031117,264,"405 SW SHAMROCK PLACE, BLUE SPRINGS, MO, 64014","Match","Exact","405 SW SHAMROCK PL, BLUE SPRINGS, MO, 64014",91475554,"R"
201265,"405 SW TUNBRIDGE DR","BENTONVILLE","AR",72712,36.369077879,-94.24041092,265,"405 SW TUNBRIDGE DR, BENTONVILLE, AR, 72712","Match","Exact","405 SW TUNBRIDGE DR, BENTONVILLE, AR, 72712",47856004,"L"
201266,"405 TAMIAMI TRAIL","PUNTA GORDA","FL",33950,26.934010071,-82.0479700829999,266,"405 TAMIAMI TRAIL, PUNTA GORDA, FL, 33950","Match","Exact","405 TAMIAMI TRL, PUNTA GORDA, FL, 33950",4306772,"L"
201267,"405 TARRYTOWN RD SUITE 1022","WHITE PLAINS","NY",10607,41.0432658,-73.8011206479999,267,"405 TARRYTOWN RD SUITE 1022, WHITE PLAINS, NY, 10607","Match","Exact","405 TARRYTOWN RD, WHITE PLAINS, NY, 10607",139841229,"L"
201268,"405 TARRYTOWN RD","WHITE PLAINS","NY",10607,41.0432658,-73.8011206479999,268,"405 TARRYTOWN RD, WHITE PLAINS, NY, 10607","Match","Exact","405 TARRYTOWN RD, WHITE PLAINS, NY, 10607",139841229,"L"
201269,"405 TICE HOLLOW CT","WALNUT CREEK","CA",94595,37.8745186510001,-122.05978524,269,"405 TICE HOLLOW CT, WALNUT CREEK, CA, 94595","Match","Exact","405 TICE HOLLOW CT, WALNUT CREEK, CA, 94595",192097908,"L"
201270,"405 TOWN RD","PALM BAY","FL",32908,27.9909240420001,-80.696684349,270,"405 TOWN RD, PALM BAY, FL, 32908","Match","Non_Exact","405 TOWN RD SW, PALM BAY, FL, 32908",93897405,"L"
201271,"405 TRADE ST STE A","TARBORO","NC",27886,35.8969921300001,-77.5358785459999,271,"405 TRADE ST STE A, TARBORO, NC, 27886","Match","Exact","405 TRADE ST, TARBORO, NC, 27886",90178873,"R"
201272,"405 TROUSSEAU LANE","MCDONOUGH","GA",30252,33.4759326760001,-84.008220491,272,"405 TROUSSEAU LANE, MCDONOUGH, GA, 30252","Match","Exact","405 TROUSSEAU LN, MCDONOUGH, GA, 30252",619914754,"L"
201273,"405 TRUXTON LANE","LANSING","MI",48911,NA,NA,273,"405 TRUXTON LANE, LANSING, MI, 48911","No_Match",NA,NA,NA,NA
201274,"405 TURRILL AVE","LAPEER","MI",48446,43.046779568,-83.310346317,274,"405 TURRILL AVE, LAPEER, MI, 48446","Match","Exact","405 TURRILL AVE, LAPEER, MI, 48446",110457734,"R"
201275,"405 TUSCULUM BLVD","GREENEVILLE","TN",37745,36.167959207,-82.822722034,275,"405 TUSCULUM BLVD, GREENEVILLE, TN, 37745","Match","Exact","405 TUSCULUM BLVD, GREENEVILLE, TN, 37745",127753725,"L"
201276,"405 UNIVERSITY DR","EAST LANSING","MI",48823,42.7377219470001,-84.495311777,276,"405 UNIVERSITY DR, EAST LANSING, MI, 48823","Match","Exact","405 UNIVERSITY DR, EAST LANSING, MI, 48823",17501725,"L"
201277,"405 US HIGHWAY 117 SOUTH","BURGAW","NC",28425,NA,NA,277,"405 US HIGHWAY 117 SOUTH, BURGAW, NC, 28425","No_Match",NA,NA,NA,NA
201278,"405 VALENCIA COURT","NORWALK","IA",50211,41.470646695,-93.689740957,278,"405 VALENCIA COURT, NORWALK, IA, 50211","Match","Exact","405 VALENCIA CT, NORWALK, IA, 50211",650154229,"L"
201279,"405 VALENCIA CT","NORWALK","IA",50211,41.470646695,-93.689740957,279,"405 VALENCIA CT, NORWALK, IA, 50211","Match","Exact","405 VALENCIA CT, NORWALK, IA, 50211",650154229,"L"
201280,"405 VALLEY ST","MANCHESTER","NH",3103,42.98132142,-71.4526979999999,280,"405 VALLEY ST, MANCHESTER, NH, 3103","Match","Exact","405 VALLEY ST, MANCHESTER, NH, 03103",113532046,"R"
201281,"405 VALLEY STREET","MANCHESTER","NH",3103,42.98132142,-71.4526979999999,281,"405 VALLEY STREET, MANCHESTER, NH, 3103","Match","Exact","405 VALLEY ST, MANCHESTER, NH, 03103",113532046,"R"
201282,"405 VISTA NOCHE DR","LEWISVILLE","TX",75067,32.994778915,-96.983367416,282,"405 VISTA NOCHE DR, LEWISVILLE, TX, 75067","Match","Exact","405 VISTA NOCHE DR, LEWISVILLE, TX, 75067",103388440,"R"
201283,"405 W 3RD ST","CANTON","SD",57013,43.3027051350001,-96.596813845,283,"405 W 3RD ST, CANTON, SD, 57013","Match","Exact","405 W 3RD ST, CANTON, SD, 57013",176312825,"L"
201284,"405 W BEARDSLEY AVENUE","ELKHART","IN",46617,41.692805347,-85.980465748,284,"405 W BEARDSLEY AVENUE, ELKHART, IN, 46617","Match","Non_Exact","405 W BEARDSLEY AVE, ELKHART, IN, 46514",7750026,"L"
201285,"405 W BEDFORD EULESS RD","HURST","TX",76053,32.8339474840001,-97.1741203889999,285,"405 W BEDFORD EULESS RD, HURST, TX, 76053","Match","Exact","405 W BEDFORD EULESS RD, HURST, TX, 76053",102142433,"L"
201286,"405 W COUNTY ROAD 714","BURLESON","TX",76028,32.510765673,-97.327322524,286,"405 W COUNTY ROAD 714, BURLESON, TX, 76028","Match","Exact","405 CO RD 714, BURLESON, TX, 76028",649375254,"R"
201287,"405 W DIAMOND AVE APPT 104","GAITHERSBURG","MD",20877,NA,NA,287,"405 W DIAMOND AVE APPT 104, GAITHERSBURG, MD, 20877","Tie",NA,NA,NA,NA
201288,"405 W DIVISION STREET","DODGEVILLE","WI",53533,42.9599947510001,-90.1363354219999,288,"405 W DIVISION STREET, DODGEVILLE, WI, 53533","Match","Exact","405 W DIVISION ST, DODGEVILLE, WI, 53533",49795299,"L"
201289,"405 W ELK ST","SILER CITY","NC",27344,35.716757198,-79.465421552,289,"405 W ELK ST, SILER CITY, NC, 27344","Match","Exact","405 W ELK ST, SILER CITY, NC, 27344",71342075,"R"
201290,"405 W FRANKLIN STREET","TUCSON","AZ",85701,32.2252552260001,-110.977588482,290,"405 W FRANKLIN STREET, TUCSON, AZ, 85701","Match","Exact","405 W FRANKLIN ST, TUCSON, AZ, 85701",121169643,"R"
201291,"405 W GRANDVIEW AVE","GERALD","MO",63037,NA,NA,291,"405 W GRANDVIEW AVE, GERALD, MO, 63037","No_Match",NA,NA,NA,NA
201292,"405 W LINCOLN AVE","STREATOR","IL",61364,41.126113339,-88.8398642399999,292,"405 W LINCOLN AVE, STREATOR, IL, 61364","Match","Exact","405 W LINCOLN AVE, STREATOR, IL, 61364",8591409,"L"
201293,"405 W LOUISA AVE","IOWA PARK","TX",76367,33.960851356,-98.671857884,293,"405 W LOUISA AVE, IOWA PARK, TX, 76367","Match","Exact","405 W LOUISA AVE, IOWA PARK, TX, 76367",169838549,"L"
201294,"405 W NORTH ST","LAGRANGE","IN",46761,41.6486116360001,-85.4237639,294,"405 W NORTH ST, LAGRANGE, IN, 46761","Match","Exact","405 W NORTH ST, LAGRANGE, IN, 46761",8185974,"L"
201295,"405 W NORTH WATER ST","BETHANY","IL",61914,39.6463963320001,-88.741597085,295,"405 W NORTH WATER ST, BETHANY, IL, 61914","Match","Exact","405 W NORTH WATER ST, BETHANY, IL, 61914",5815953,"R"
201296,"405 W SINTON","SINTON","TN",78387,NA,NA,296,"405 W SINTON, SINTON, TN, 78387","No_Match",NA,NA,NA,NA
201297,"405 W SPREADING OAKS AVE","FRIENDSWOOD","TX",77546,29.5231259890001,-95.205861154,297,"405 W SPREADING OAKS AVE, FRIENDSWOOD, TX, 77546","Match","Non_Exact","405 W SPREADING OAKS, FRIENDSWOOD, TX, 77546",96694475,"R"
201298,"405 W YELLOWHAMMER AVE","MCALLEN","TX",78504,26.271195318,-98.21232995,298,"405 W YELLOWHAMMER AVE, MCALLEN, TX, 78504","Match","Exact","405 YELLOWHAMMER AVE, MCALLEN, TX, 78504",71559211,"R"
201299,"405 W59TH ST","NEW YORK","NY",10019,NA,NA,299,"405 W59TH ST, NEW YORK, NY, 10019","No_Match",NA,NA,NA,NA
201300,"405 WADING RIVER ROAD","MANORVILLE","NY",11949,40.836268514,-72.810176672,300,"405 WADING RIVER ROAD, MANORVILLE, NY, 11949","Match","Exact","405 WADING RIVER RD, MANORVILLE, NY, 11949",114238979,"L"
201301,"405 WALNUT ST","PARSONS","WV",26287,39.099796283,-79.681840011,301,"405 WALNUT ST, PARSONS, WV, 26287","Match","Exact","405 WALNUT ST, PARSONS, WV, 26287",53420784,"L"
201302,"405 WALTHAM ST  STE 272","LEXINGTON","MA",2421,42.434775443,-71.2343387559999,302,"405 WALTHAM ST  STE 272, LEXINGTON, MA, 2421","Match","Exact","405 WALTHAM ST, LEXINGTON, MA, 02421",86882371,"R"
201303,"405 WALTHAM ST STE 399","LEXINGTON","MA",2421,42.434775443,-71.2343387559999,303,"405 WALTHAM ST STE 399, LEXINGTON, MA, 2421","Match","Exact","405 WALTHAM ST, LEXINGTON, MA, 02421",86882371,"R"
201304,"405 WASHINGTON STREET","TUSKEGEE","AL",36083,NA,NA,304,"405 WASHINGTON STREET, TUSKEGEE, AL, 36083","No_Match",NA,NA,NA,NA
201305,"405 WATERWOOD CT","MINNEOLA","FL",34715,28.5845214990001,-81.7533841699999,305,"405 WATERWOOD CT, MINNEOLA, FL, 34715","Match","Exact","405 WATERWOOD CT, MINNEOLA, FL, 34715",94165552,"R"
201306,"405 WEST CLAY STREET","DAYTON","WA",99328,46.3157306430001,-117.986847952,306,"405 WEST CLAY STREET, DAYTON, WA, 99328","Match","Exact","405 W CLAY ST, DAYTON, WA, 99328",175099856,"R"
201307,"405 WEST GRESHAM","INDIANOLA","MS",38751,33.456001284,-90.657103004,307,"405 WEST GRESHAM, INDIANOLA, MS, 38751","Match","Non_Exact","405 W GRESHAM ST, INDIANOLA, MS, 38751",2719524,"L"
201308,"405 WEST HUMPHREY STREET","TAMPA","FL",33604,28.030948236,-82.463380061,308,"405 WEST HUMPHREY STREET, TAMPA, FL, 33604","Match","Exact","405 W HUMPHREY ST, TAMPA, FL, 33604",104518059,"R"
201309,"405 WEST MADISON","MOUNT AYR","IA",50854,40.714785148,-94.241418385,309,"405 WEST MADISON, MOUNT AYR, IA, 50854","Match","Non_Exact","405 W MADISON ST, MOUNT AYR, IA, 50854",81402656,"L"
201310,"405 WEST SPRUCE STREET","SEQUIM","WA",98382,48.081473471,-123.110785342,310,"405 WEST SPRUCE STREET, SEQUIM, WA, 98382","Match","Exact","405 W SPRUCE ST, SEQUIM, WA, 98382",150852373,"R"
201311,"405 WEST WALNUT STREET","GREEN BAY","WI",54303,44.516425242,-88.0219395459999,311,"405 WEST WALNUT STREET, GREEN BAY, WI, 54303","Match","Exact","405 W WALNUT ST, GREEN BAY, WI, 54303",148100642,"L"
201312,"405 WILLIS AVE","SAN JOSE","CA",95126,37.3248849710001,-121.89628409,312,"405 WILLIS AVE, SAN JOSE, CA, 95126","Match","Exact","405 WILLIS AVE, SAN JOSE, CA, 95126",122907656,"R"
201313,"405 WINTERHAWK DRIVE","ROCK SPRINGS","WY",82901,41.6019285130001,-109.235392972,313,"405 WINTERHAWK DRIVE, ROCK SPRINGS, WY, 82901","Match","Exact","405 WINTERHAWK DR, ROCK SPRINGS, WY, 82901",149503609,"L"
201314,"405 WITMARSUM WEST DR","NORTH NEWTON","KS",67117,NA,NA,314,"405 WITMARSUM WEST DR, NORTH NEWTON, KS, 67117","No_Match",NA,NA,NA,NA
201315,"405 WOODBRIER LANE","ANNISTON","AL",36206,33.7263992920001,-85.853586016,315,"405 WOODBRIER LANE, ANNISTON, AL, 36206","Match","Exact","405 WOODBRIER LN, ANNISTON, AL, 36206",66556996,"L"
201316,"405 WOODBROOK COURT","CANTON","GA",30114,34.1859375670001,-84.5710069519999,316,"405 WOODBROOK COURT, CANTON, GA, 30114","Match","Exact","405 WOODBROOK CT, CANTON, GA, 30114",68848193,"L"
201317,"405 WYTHE HOUSE COURT","ST LOUIS","MO",63141,38.658556522,-90.4806981039999,317,"405 WYTHE HOUSE COURT, ST LOUIS, MO, 63141","Match","Exact","405 WYTHE HOUSE CT, SAINT LOUIS, MO, 63141",617838960,"L"
201318,"405 ZEZERE DR","OCEANSIDE","CA",92057,33.218669795,-117.310993205,318,"405 ZEZERE DR, OCEANSIDE, CA, 92057","Match","Exact","405 ZEZERE DR, OCEANSIDE, CA, 92057",195420053,"R"
201319,"405","CUSSETA","GA",31805,NA,NA,319,"405, CUSSETA, GA, 31805","No_Match",NA,NA,NA,NA
201320,"4050 24TH STREET","DORR","MI",49323,42.7161845850001,-85.78116929,320,"4050 24TH STREET, DORR, MI, 49323","Match","Exact","4050 24TH ST, DORR, MI, 49323",11440460,"L"
201321,"4050 APPLETON STREET","SAN DIEGO","CA",92117,32.8360942140001,-117.203953198,321,"4050 APPLETON STREET, SAN DIEGO, CA, 92117","Match","Exact","4050 APPLETON ST, SAN DIEGO, CA, 92117",195302587,"L"
201322,"4050 AVE O NW","WINTER HAVEN","FL",33880,28.0399967540001,-81.7740903229999,322,"4050 AVE O NW, WINTER HAVEN, FL, 33880","Match","Non_Exact","4050 AVE O NW, WINTER HAVEN, FL, 33881",618500683,"R"
201323,"4050 BUNKUM RD","WASHINGTON PARK","IL",62205,38.623425506,-90.107047285,323,"4050 BUNKUM RD, WASHINGTON PARK, IL, 62205","Match","Non_Exact","4050 BUNKUM RD, WASHINGTON PK, IL, 62204",107834782,"R"
201324,"4050 COTTAGE HILL ROAD","MOBILE","AL",36609,30.652538253,-88.145678086,324,"4050 COTTAGE HILL ROAD, MOBILE, AL, 36609","Match","Exact","4050 COTTAGE HILL RD, MOBILE, AL, 36609",61931862,"R"
201325,"4050 DORADO DRIVE","RIVIERA BEACH","FL",33418,26.7916192930001,-80.114277752,325,"4050 DORADO DRIVE, RIVIERA BEACH, FL, 33418","Match","Exact","4050 DORADO DR, RIVIERA BEACH, FL, 33418",115354422,"L"
201326,"4050 HAMMOND ROAD EAST","TRAVERSE CITY","IL",49696,NA,NA,326,"4050 HAMMOND ROAD EAST, TRAVERSE CITY, IL, 49696","No_Match",NA,NA,NA,NA
201327,"4050 HARTEL ST","BEAUMONT","TX",77705,30.0475304980001,-94.079996669,327,"4050 HARTEL ST, BEAUMONT, TX, 77705","Match","Exact","4050 HARTEL ST, BEAUMONT, TX, 77705",73858307,"R"
201328,"4050 HILLSDALE AVENUE","OMAHA","NE",68107,41.2167146990001,-95.974289105,328,"4050 HILLSDALE AVENUE, OMAHA, NE, 68107","Match","Exact","4050 HILLSDALE AVE, OMAHA, NE, 68107",116984092,"R"
201329,"4050 J AND S COUNTRYSIDE ROAD","CONWAY","SC",29527,33.801542011,-79.095646618,329,"4050 J AND S COUNTRYSIDE ROAD, CONWAY, SC, 29527","Match","Exact","4050 J AND S COUNTRYSIDE RD, CONWAY, SC, 29527",29041443,"R"
201330,"4050 KELDEN CT","COLLEGE PARK","GA",30349,33.6305030610001,-84.519609972,330,"4050 KELDEN CT, COLLEGE PARK, GA, 30349","Match","Non_Exact","4050 KELDEN CT SW, COLLEGE PARK, GA, 30349",17338812,"L"
201331,"4050 LINE DRIVE","CARSON CITY","NV",89701,39.1312101670001,-119.747224719,331,"4050 LINE DRIVE, CARSON CITY, NV, 89701","Match","Exact","4050 LINE DR, CARSON CITY, NV, 89701",640435742,"L"
201332,"4050 LOGGING TRAIL LN","KEWADIN","MI",49648,44.9735192030001,-85.3342751879999,332,"4050 LOGGING TRAIL LN, KEWADIN, MI, 49648","Match","Non_Exact","4050 LOGGING TRL LN, KEWADIN, MI, 49648",648269801,"R"
201333,"4050 MAHRT AVE SE","SALEM","OR",97317,44.9256263250001,-122.980765033,333,"4050 MAHRT AVE SE, SALEM, OR, 97317","Match","Exact","4050 MAHRT AVE SE, SALEM, OR, 97317",618495368,"R"
201334,"4050 MILLERSVILLE ROAD","INDIANAPOLIS","IN",46205,39.829903275,-86.121480933,334,"4050 MILLERSVILLE ROAD, INDIANAPOLIS, IN, 46205","Match","Exact","4050 MILLERSVILLE RD, INDIANAPOLIS, IN, 46205",107990263,"L"
201335,"4050 MONTICELLO BLVD","C","OH",44121,41.535224896,-81.534545528,335,"4050 MONTICELLO BLVD, C, OH, 44121","Match","Non_Exact","4050 MONTICELLO BLVD, CLEVELAND, OH, 44121",61124622,"R"
201336,"4050 MONTICELLO BLVD","CLEVELAND HTS","OH",44121,41.535224896,-81.534545528,336,"4050 MONTICELLO BLVD, CLEVELAND HTS, OH, 44121","Match","Exact","4050 MONTICELLO BLVD, CLEVELAND HEIGHTS, OH, 44121",61124622,"R"
201337,"4050 N OAKLAND AVENUE SUITE 201","SHOREWOOD","WI",53211,43.0903060540001,-87.8874588899999,337,"4050 N OAKLAND AVENUE SUITE 201, SHOREWOOD, WI, 53211","Match","Non_Exact","4050 N OAKLAND AVE, SHOREWOOD, WI, 53211",77743261,"R"
201338,"4050 NE 16TH AVENUE","OAKLAND PARK","FL",33334,26.1778365320001,-80.126095296,338,"4050 NE 16TH AVENUE, OAKLAND PARK, FL, 33334","Match","Exact","4050 NE 16TH AVE, OAKLAND PARK, FL, 33334",114724287,"R"
201339,"4050 NE 30TH AVE","LIGHTHOUSE POINT","FL",33064,26.2811845790001,-80.082660688,339,"4050 NE 30TH AVE, LIGHTHOUSE POINT, FL, 33064","Match","Exact","4050 NE 30TH AVE, LIGHTHOUSE POINT, FL, 33064",114744168,"R"
201340,"4050 NE TERRACE DRIVE","NEWBERG","OR",97132,45.3294678390001,-122.973385189,340,"4050 NE TERRACE DRIVE, NEWBERG, OR, 97132","Match","Exact","4050 NE TERRACE DR, NEWBERG, OR, 97132",637053286,"L"
201341,"4050 NORTH HIGHWAY 40","HEBER CITY","UT",84032,40.5670086060001,-111.426023455,341,"4050 NORTH HIGHWAY 40, HEBER CITY, UT, 84032","Match","Non_Exact","4050 OLD HWY 40, HEBER CITY, UT, 84032",653583347,"R"
201342,"4050 NORTHFIELD RD","HIGHLAND HLS","OH",44122,41.4491473670001,-81.533045386,342,"4050 NORTHFIELD RD, HIGHLAND HLS, OH, 44122","Match","Exact","4050 NORTHFIELD RD, HIGHLAND HILLS, OH, 44122",61129522,"R"
201343,"4050 NOSTRAND AVENUE UNIT 1D","BROOKLYN","NY",11235,40.585020876,-73.938954827,343,"4050 NOSTRAND AVENUE UNIT 1D, BROOKLYN, NY, 11235","Match","Exact","4050 NOSTRAND AVE, BROOKLYN, NY, 11235",59098419,"R"
201344,"4050 OAK HILL CT","MOBILE","AL",36609,30.6739900950001,-88.153486689,344,"4050 OAK HILL CT, MOBILE, AL, 36609","Match","Exact","4050 OAK HILL CT, MOBILE, AL, 36609",61856928,"L"
201345,"4050 OLSON MEMORIAL HIGHWAY","GOLDEN VALLEY","MN",55422,44.9843000830001,-93.330508932,345,"4050 OLSON MEMORIAL HIGHWAY, GOLDEN VALLEY, MN, 55422","Match","Exact","4050 OLSON MEMORIAL HWY, GOLDEN VALLEY, MN, 55422",647754917,"R"
201346,"4050 PENDLETON DRIVE APT 1322","BRYAN","TX",77802,30.6560683180001,-96.2972961299999,346,"4050 PENDLETON DRIVE APT 1322, BRYAN, TX, 77802","Match","Exact","4050 PENDLETON DR, BRYAN, TX, 77802",650188632,"L"
201347,"4050 RISEDORPH ST","BURTON","MI",48509,43.0383781450001,-83.633771052,347,"4050 RISEDORPH ST, BURTON, MI, 48509","Match","Non_Exact","4050 RISEDORPH AVE, BURTON, MI, 48509",69570507,"R"
201348,"4050 SELVITZ ROAD","FORT PIERCE","FL",34981,27.3929427580001,-80.3664807549999,348,"4050 SELVITZ ROAD, FORT PIERCE, FL, 34981","Match","Exact","4050 SELVITZ RD, FORT PIERCE, FL, 34981",645386054,"R"
201349,"4050 SOUTH HULEN","FT. WORTH","TX",76109,32.6892730650001,-97.393723234,349,"4050 SOUTH HULEN, FT. WORTH, TX, 76109","Match","Non_Exact","4050 S HULEN ST, FORT WORTH, TX, 76109",101882286,"R"
201350,"4050 SPRINGMIST DR","HUDSONVILLE","MI",49426,42.841544995,-85.8406748259999,350,"4050 SPRINGMIST DR, HUDSONVILLE, MI, 49426","Match","Exact","4050 SPRINGMIST DR, HUDSONVILLE, MI, 49426",648843503,"L"
201351,"4050 SUSSEX PLACE","MARIETTA","GA",30066,34.050338072,-84.533638158,351,"4050 SUSSEX PLACE, MARIETTA, GA, 30066","Match","Exact","4050 SUSSEX PL, MARIETTA, GA, 30066",17167876,"R"
201352,"4050 SW MCINTYRE ST","PORT ST LUCIE","FL",34953,27.224907047,-80.373176687,352,"4050 SW MCINTYRE ST, PORT ST LUCIE, FL, 34953","Match","Exact","4050 SW MCINTYRE ST, PORT ST LUCIE, FL, 34953",120154994,"L"
201353,"4050 TAYLOR STREET MS 221","SAN DIEGO","CA",92110,32.756322535,-117.198989477,353,"4050 TAYLOR STREET MS 221, SAN DIEGO, CA, 92110","Match","Exact","4050 TAYLOR ST, SAN DIEGO, CA, 92110",195340887,"L"
201354,"4050 WHITAKER DR","INDINAPOLIS","IN",46254,39.8287393140001,-86.2612112039999,354,"4050 WHITAKER DR, INDINAPOLIS, IN, 46254","Match","Non_Exact","4050 WHITAKER DR, INDIANAPOLIS, IN, 46254",107977948,"L"
201355,"40500 ANN ARBOR RD E STE 102","PLYMOUTH","MI",48170,NA,NA,355,"40500 ANN ARBOR RD E STE 102, PLYMOUTH, MI, 48170","No_Match",NA,NA,NA,NA
201356,"40500 REDBUD DRIVE","OAKHURST","CA",93644,NA,NA,356,"40500 REDBUD DRIVE, OAKHURST, CA, 93644","No_Match",NA,NA,NA,NA
201357,"40501 NICHOLS MELANCON RD  LOT 13","PATTERSON","LA",70769,NA,NA,357,"40501 NICHOLS MELANCON RD  LOT 13, PATTERSON, LA, 70769","Tie",NA,NA,NA,NA
201358,"40504 330TH AVENUE","DENT","MN",56528,46.550329721,-95.8018892159999,358,"40504 330TH AVENUE, DENT, MN, 56528","Match","Exact","40504 330TH AVE, DENT, MN, 56528",168308343,"R"
201359,"4051 12TH AVE NE","ST PETERSBURG","FL",33703,27.8088341980001,-82.6176561089999,359,"4051 12TH AVE NE, ST PETERSBURG, FL, 33703","Match","Non_Exact","4051 12TH ST NE, SAINT PETERSBURG, FL, 33703",124712608,"R"
201360,"4051 4TH AVENUE","SACRAMENTO","CA",95817,38.548285406,-121.459798297,360,"4051 4TH AVENUE, SACRAMENTO, CA, 95817","Match","Exact","4051 4TH AVE, SACRAMENTO, CA, 95817",133326882,"L"
201361,"4051 BARRANCAS AVE STE G  158","PENSACOLA","FL",32507,30.3881787810001,-87.275017936,361,"4051 BARRANCAS AVE STE G  158, PENSACOLA, FL, 32507","Match","Exact","4051 BARRANCAS AVE, PENSACOLA, FL, 32507",93259675,"L"
201362,"4051 BARRANCAS AVE STE G 264","PENSACOLA","FL",32507,30.3881787810001,-87.275017936,362,"4051 BARRANCAS AVE STE G 264, PENSACOLA, FL, 32507","Match","Exact","4051 BARRANCAS AVE, PENSACOLA, FL, 32507",93259675,"L"
201363,"4051 BRUNSWICK AVENUE NORTH","CRYSTAL","MN",55422,45.029125268,-93.357528456,363,"4051 BRUNSWICK AVENUE NORTH, CRYSTAL, MN, 55422","Match","Exact","4051 BRUNSWICK AVE N, CRYSTAL, MN, 55422",43831086,"L"
201364,"4051 CHUCK WAGON CT","MIDDLEBURG","FL",32068,30.1239158860001,-81.870951371,364,"4051 CHUCK WAGON CT, MIDDLEBURG, FL, 32068","Match","Exact","4051 CHUCK WAGON CT, MIDDLEBURG, FL, 32068",606216826,"R"
201365,"4051 COUNTRY CLUB DRIVE","LAKEWOOD","CA",90712,33.8384395200001,-118.145410574,365,"4051 COUNTRY CLUB DRIVE, LAKEWOOD, CA, 90712","Match","Exact","4051 COUNTRY CLUB DR, LAKEWOOD, CA, 90712",642863419,"L"
201366,"4051 DELHI AVENUE","CINCINNATI","OH",45204,39.0973164440001,-84.585580987,366,"4051 DELHI AVENUE, CINCINNATI, OH, 45204","Match","Exact","4051 DELHI AVE, CINCINNATI, OH, 45204",652708527,"L"
201367,"4051 DURHAM ROAD","OTTSVILLE","PA",18942,40.4971745400001,-75.179479896,367,"4051 DURHAM ROAD, OTTSVILLE, PA, 18942","Match","Exact","4051 DURHAM RD, OTTSVILLE, PA, 18942",134754340,"L"
201368,"4051 E COUNTY LINE RD","RIGBY","ID",83442,43.626706196,-111.888947772,368,"4051 E COUNTY LINE RD, RIGBY, ID, 83442","Match","Exact","4051 E COUNTY LINE RD, RIGBY, ID, 83442",635459195,"R"
201369,"4051 EAST CASTRO VALLEY BLVD","CASTRO VALLEY","CA",94552,37.6960121290001,-122.05048029,369,"4051 EAST CASTRO VALLEY BLVD, CASTRO VALLEY, CA, 94552","Match","Exact","4051 E CASTRO VALLEY BLVD, CASTRO VALLEY, CA, 94552",125080871,"R"
201370,"4051 HUNTERS LANE","WEBSTER","MN",55088,44.5703172680001,-93.4392263939999,370,"4051 HUNTERS LANE, WEBSTER, MN, 55088","Match","Exact","4051 HUNTERS LN, WEBSTER, MN, 55088",625166213,"L"
201371,"4051 KEE PEE TRAIL","BURLINGTON","NC",27215,35.999967509,-79.433645414,371,"4051 KEE PEE TRAIL, BURLINGTON, NC, 27215","Match","Non_Exact","4051 KEEPEE TRL, BURLINGTON, NC, 27215",71685218,"R"
201372,"4051 MARIETTA COURT","CANFIELD","OH",44406,41.039856586,-80.721443047,372,"4051 MARIETTA COURT, CANFIELD, OH, 44406","Match","Exact","4051 MARIETTA CT, CANFIELD, OH, 44406",631948484,"L"
201373,"4051 N MAPLE HOLLOW BLVD","LEHI","UT",84043,NA,NA,373,"4051 N MAPLE HOLLOW BLVD, LEHI, UT, 84043","No_Match",NA,NA,NA,NA
201374,"4051 NW 5TH STREET","COCONUT CREEK","FL",33066,26.236968097,-80.178025189,374,"4051 NW 5TH STREET, COCONUT CREEK, FL, 33066","Match","Exact","4051 NW 5TH ST, COCONUT CREEK, FL, 33066",114693791,"L"
201375,"4051 OLD SHELL ROAD","MOBILE","AL",36608,30.698517091,-88.138868165,375,"4051 OLD SHELL ROAD, MOBILE, AL, 36608","Match","Exact","4051 OLD SHELL RD, MOBILE, AL, 36608",61936935,"L"
201376,"4051 RED TALON DR","ANCHORAGE","AK",99507,61.155059545,-149.807893452,376,"4051 RED TALON DR, ANCHORAGE, AK, 99507","Match","Exact","4051 RED TALON DR, ANCHORAGE, AK, 99507",190819598,"R"
201377,"4051 S 211TH E AVE","BROKEN ARROW","OK",74014,36.1053211830001,-95.740765247,377,"4051 S 211TH E AVE, BROKEN ARROW, OK, 74014","Match","Exact","4051 S 211TH EAST AVE, BROKEN ARROW, OK, 74014",606193339,"L"
201378,"4051 SE TIBBETTS ST","PORTLAND","OR",97202,45.5005117430001,-122.621492351,378,"4051 SE TIBBETTS ST, PORTLAND, OR, 97202","Match","Exact","4051 SE TIBBETTS ST, PORTLAND, OR, 97202",157514468,"L"
201379,"4051 SWEETBRIAR LANE","FOREST PARK","GA",30297,33.6438260900001,-84.358118949,379,"4051 SWEETBRIAR LANE, FOREST PARK, GA, 30297","Match","Exact","4051 SWEETBRIAR LN, FOREST PARK, GA, 30297",23314053,"R"
201380,"4051 VILLAGE CROSSING CIR","ELLENWOOD","GA",30294,33.6402586830001,-84.3001267609999,380,"4051 VILLAGE CROSSING CIR, ELLENWOOD, GA, 30294","Match","Exact","4051 VILLAGE CROSSING CIR, ELLENWOOD, GA, 30294",633907155,"L"
201381,"4051 W VIKING RD APT 39","LAS VEGAS","NV",89103,36.119097057,-115.193747037,381,"4051 W VIKING RD APT 39, LAS VEGAS, NV, 89103","Match","Non_Exact","4051 W VIKING RD, LAS VEGAS, NV, 89103",201869578,"L"
201382,"4051 WEST 60TH STREET","LOS ANGELES","CA",90043,33.9853252410001,-118.345183393,382,"4051 WEST 60TH STREET, LOS ANGELES, CA, 90043","Match","Exact","4051 W 60TH ST, LOS ANGELES, CA, 90043",141654695,"R"
201383,"40512 CHANNEL VIEW LANE","CHASSELL","MI",49916,47.004088865,-88.456333316,383,"40512 CHANNEL VIEW LANE, CHASSELL, MI, 49916","Match","Exact","40512 CHANNEL VIEW LN, CHASSELL, MI, 49916",184118721,"R"
201384,"40515 ENCYCLOPEDIA CIR","FREMONT","CA",94538,37.515592112,-121.989394409,384,"40515 ENCYCLOPEDIA CIR, FREMONT, CA, 94538","Match","Exact","40515 ENCYCLOPEDIA CIR, FREMONT, CA, 94538",125082161,"L"
201385,"40518 GRIMMER BLVD","FREMONT","CA",94538,37.537676649,-121.964281136,385,"40518 GRIMMER BLVD, FREMONT, CA, 94538","Match","Exact","40518 GRIMMER BLVD, FREMONT, CA, 94538",606162731,"L"
201386,"4052 COUNTRY CLUB BLVD","CAPE CORAL","FL",33904,26.576241496,-81.953736061,386,"4052 COUNTRY CLUB BLVD, CAPE CORAL, FL, 33904","Match","Exact","4052 COUNTRY CLUB BLVD, CAPE CORAL, FL, 33904",118127642,"R"
201387,"4052 CTH B","COLFAX","WI",54730,NA,NA,387,"4052 CTH B, COLFAX, WI, 54730","No_Match",NA,NA,NA,NA
201388,"4052 EVERGREEN DR","NORTON SHORES","MI",49444,43.1792583820001,-86.209638927,388,"4052 EVERGREEN DR, NORTON SHORES, MI, 49444","Match","Exact","4052 EVERGREEN DR, NORTON SHORES, MI, 49444",77662960,"L"
201389,"4052 JOSHUA LANE","DOUGLASVILLE","GA",30135,33.695666676,-84.7279832679999,389,"4052 JOSHUA LANE, DOUGLASVILLE, GA, 30135","Match","Exact","4052 JOSHUA LN, DOUGLASVILLE, GA, 30135",16655665,"L"
201390,"4052 LAWRENCEVILLE HWY","TUCKER","GA",30084,33.8503526050001,-84.215698796,390,"4052 LAWRENCEVILLE HWY, TUCKER, GA, 30084","Match","Exact","4052 LAWRENCEVILLE HWY, TUCKER, GA, 30084",23386519,"L"
201391,"4052 NAPOLEON DRIVE","NORTH CHARLESTON","SC",29418,32.8602506760001,-80.033492656,391,"4052 NAPOLEON DRIVE, NORTH CHARLESTON, SC, 29418","Match","Exact","4052 NAPOLEON DR, N CHARLESTON, SC, 29418",108851465,"L"
201392,"4052 SHAWNEE LANE","BROOKHAVEN","GA",30319,33.912006379,-84.328603044,392,"4052 SHAWNEE LANE, BROOKHAVEN, GA, 30319","Match","Non_Exact","4052 SHAWNEE LN NE, BROOKHAVEN, GA, 30319",23356271,"L"
201393,"4052 SOUTH WABASH AVE","CHICAGO","IL",60653,41.8208644910001,-87.6247692649999,393,"4052 SOUTH WABASH AVE, CHICAGO, IL, 60653","Match","Exact","4052 S WABASH AVE, CHICAGO, IL, 60653",618049310,"R"
201394,"4052 TENNYSON STREET","SAN DIEGO","CA",92107,32.7409646680001,-117.23406424,394,"4052 TENNYSON STREET, SAN DIEGO, CA, 92107","Match","Exact","4052 TENNYSON ST, SAN DIEGO, CA, 92107",195340083,"R"
201395,"4052 THUNDER RIDGE ROAD","BETTENDORF","IA",52722,41.5794632450001,-90.476803809,395,"4052 THUNDER RIDGE ROAD, BETTENDORF, IA, 52722","Match","Exact","4052 THUNDER RIDGE RD, BETTENDORF, IA, 52722",631558973,"R"
201396,"4052 WILSHIRE BOULEVARD","LOS ANGELES","CA",90010,34.0616942500001,-118.315650755,396,"4052 WILSHIRE BOULEVARD, LOS ANGELES, CA, 90010","Match","Exact","4052 WILSHIRE BLVD, LOS ANGELES, CA, 90010",141603621,"L"
201397,"40522 HAYES RD ST 300","CLINTON TWP","MI",48038,42.5937951060001,-82.9719090949999,397,"40522 HAYES RD ST 300, CLINTON TWP, MI, 48038","Match","Exact","40522 HAYES RD, CLINTON TOWNSHIP, MI, 48038",642575215,"R"
201398,"40525 LA PURISSIMA WAY","FREMONT","CA",94539,37.549277519,-121.953577105,398,"40525 LA PURISSIMA WAY, FREMONT, CA, 94539","Match","Exact","40525 LA PURISSIMA WAY, FREMONT, CA, 94539",125033167,"R"
201399,"4053 183RD STREET UNIT 2006","COUNTRY CLUB HILL","IL",60478,41.5571250140001,-87.7151032469999,399,"4053 183RD STREET UNIT 2006, COUNTRY CLUB HILL, IL, 60478","Match","Non_Exact","4053 183RD ST, COUNTRY CLUB HILLS, IL, 60478",111707531,"R"
201400,"4053 183RD STREET UNIT 2211","COUNTRY CLUB HILL","IL",60478,41.5571250140001,-87.7151032469999,400,"4053 183RD STREET UNIT 2211, COUNTRY CLUB HILL, IL, 60478","Match","Non_Exact","4053 183RD ST, COUNTRY CLUB HILLS, IL, 60478",111707531,"R"
201401,"4053 BEDFORD AVENUE","BROOKLYN","NY",11229,40.603203674,-73.947246761,401,"4053 BEDFORD AVENUE, BROOKLYN, NY, 11229","Match","Exact","4053 BEDFORD AVE, BROOKLYN, NY, 11229",59090221,"L"
201402,"4053 BENNING RD NE","WASHINGTON","DC",20019,38.8936458000001,-76.9455654189999,402,"4053 BENNING RD NE, WASHINGTON, DC, 20019","Match","Exact","4053 BENNING RD NE, WASHINGTON, DC, 20019",76233162,"R"
201403,"4053 CHESTNUT STREET BUILDING B-2","RIVERSIDE","CA",92501,33.9811562250001,-117.379689572,403,"4053 CHESTNUT STREET BUILDING B-2, RIVERSIDE, CA, 92501","Match","Exact","4053 CHESTNUT ST, RIVERSIDE, CA, 92501",194741359,"R"
201404,"4053 E LOMA VISTA ST","GILBERT","AZ",85295,33.3150007830001,-111.702233878,404,"4053 E LOMA VISTA ST, GILBERT, AZ, 85295","Match","Exact","4053 E LOMA VISTA ST, GILBERT, AZ, 85295",128864250,"R"
201405,"4053 E YUCCA STREET","PHOENIX","AZ",85028,33.5892364480001,-111.993000233,405,"4053 E YUCCA STREET, PHOENIX, AZ, 85028","Match","Exact","4053 E YUCCA ST, PHOENIX, AZ, 85028",128186845,"R"
201406,"4053 KILLIAN RD","LINCOLNTON","NC",28092,35.5576215350001,-81.3077273919999,406,"4053 KILLIAN RD, LINCOLNTON, NC, 28092","Match","Exact","4053 KILLIAN RD, LINCOLNTON, NC, 28092",69529705,"L"
201407,"4053 WILSON TOWN RD","LINCOLN","CA",95648,38.990512768,-121.221877651,407,"4053 WILSON TOWN RD, LINCOLN, CA, 95648","Match","Exact","4053 WILSON TOWN RD, LINCOLN, CA, 95648",106765851,"R"
201408,"4053 WINDSOR CHASE DR","SPRING","TX",77386,30.1187427630001,-95.364876232,408,"4053 WINDSOR CHASE DR, SPRING, TX, 77386","Match","Exact","4053 WINDSOR CHASE DR, SPRING, TX, 77386",653046760,"R"
201409,"40535 HWY","FOSSIL","OR",97830,NA,NA,409,"40535 HWY, FOSSIL, OR, 97830","No_Match",NA,NA,NA,NA
201410,"40535 TESORO LN","PALMDALE","CA",93551,34.6190038010001,-118.184258694,410,"40535 TESORO LN, PALMDALE, CA, 93551","Match","Exact","40535 TESORO LN, PALMDALE, CA, 93551",141822687,"R"
201411,"4054  JOHNSON-KORAN ROAD","HAUGHTON","LA",71037,32.4379546490001,-93.4653515109999,411,"4054  JOHNSON-KORAN ROAD, HAUGHTON, LA, 71037","Match","Non_Exact","4054 JOHNSON KORAN RD, HAUGHTON, LA, 71037",618233579,"L"
201412,"4054 BLACKMOOR STREET","MT PLEASANT","SC",29466,32.85593628,-79.767436801,412,"4054 BLACKMOOR STREET, MT PLEASANT, SC, 29466","Match","Exact","4054 BLACKMOOR ST, MOUNT PLEASANT, SC, 29466",628041498,"R"
201413,"4054 CR T","KIRK","CO",80824,NA,NA,413,"4054 CR T, KIRK, CO, 80824","No_Match",NA,NA,NA,NA
201414,"4054 E 1300 NORTH","ASHTON","ID",83420,44.0710272100001,-111.340499533,414,"4054 E 1300 NORTH, ASHTON, ID, 83420","Match","Exact","4054 E 1300 N, ASHTON, ID, 83420",649939728,"R"
201415,"4054 E KNOX ROAD","PHOENIX","AZ",84055,33.326952487,-111.995272783,415,"4054 E KNOX ROAD, PHOENIX, AZ, 84055","Match","Non_Exact","4054 E KNOX RD, PHOENIX, AZ, 85044",128236557,"R"
201416,"4054 ELIZABETH LANE","FAIRFAX","VA",22032,38.835995811,-77.2572187009999,416,"4054 ELIZABETH LANE, FAIRFAX, VA, 22032","Match","Exact","4054 ELIZABETH LN, FAIRFAX, VA, 22032",75972230,"R"
201417,"4054 FARMDALE AVE","STUDIO CITY","CA",91604,34.142151934,-118.381139636,417,"4054 FARMDALE AVE, STUDIO CITY, CA, 91604","Match","Exact","4054 FARMDALE AVE, STUDIO CITY, CA, 91604",141566044,"R"
201418,"4054 GLENHURST AVE","LOUISVILLE","KY",40216,38.19040141,-85.813109391,418,"4054 GLENHURST AVE, LOUISVILLE, KY, 40216","Match","Exact","4054 GLENHURST AVE, LOUISVILLE, KY, 40216",96839136,"R"
201419,"4054 HERITAGE LANE","CLOVIS","CA",93619,36.862096987,-119.634155099,419,"4054 HERITAGE LANE, CLOVIS, CA, 93619","Match","Exact","4054 HERITAGE LN, CLOVIS, CA, 93619",632961063,"R"
201420,"4054 HUCKLEBERRY CIRCLE","DALLAS","TX",75216,32.6956167120001,-96.822184595,420,"4054 HUCKLEBERRY CIRCLE, DALLAS, TX, 75216","Match","Exact","4054 HUCKLEBERRY CIR, DALLAS, TX, 75216",102948124,"L"
201421,"4054 MCKINNEY AVENUE STE 303","DALLAS","TX",75204,32.813057288,-96.792668125,421,"4054 MCKINNEY AVENUE STE 303, DALLAS, TX, 75204","Match","Exact","4054 MCKINNEY AVE, DALLAS, TX, 75204",102910367,"R"
201422,"4054 N CATHERWOOD","INDIANAPOLIS","IN",46226,39.8307270820001,-86.062914491,422,"4054 N CATHERWOOD, INDIANAPOLIS, IN, 46226","Match","Non_Exact","4054 N CATHERWOOD AVE, INDIANAPOLIS, IN, 46226",108001971,"L"
201423,"4054 N MILWAUKEE","CHICAGO","IL",60641,NA,NA,423,"4054 N MILWAUKEE, CHICAGO, IL, 60641","No_Match",NA,NA,NA,NA
201424,"40543 COURTLAND FARM LANE","ASHBURN","VA",20105,39.0180782250001,-77.6009789239999,424,"40543 COURTLAND FARM LANE, ASHBURN, VA, 20105","Match","Non_Exact","40543 COURTLAND FARM LN, STONE RIDGE, VA, 20105",62339044,"L"
201425,"40544 SAN FRANCISQUITO CANYON ROAD","GREEN VALLEY","CA",91390,34.629326518,-118.400297068,425,"40544 SAN FRANCISQUITO CANYON ROAD, GREEN VALLEY, CA, 91390","Match","Exact","40544 SAN FRANCISQUITO CANYON RD, GREEN VALLEY, CA, 91390",141851355,"R"
201426,"4055 40TH WAY SOUTH","ST. PETERSBURG","FL",33711,27.7319773560001,-82.688283016,426,"4055 40TH WAY SOUTH, ST. PETERSBURG, FL, 33711","Match","Exact","4055 40TH WAY S, SAINT PETERSBURG, FL, 33711",124776521,"R"
201427,"4055 ALBION STREET","DENVER","CO",80216,NA,NA,427,"4055 ALBION STREET, DENVER, CO, 80216","No_Match",NA,NA,NA,NA
201428,"4055 CALDER AVE","BEAUMONT","TX",77706,30.085427941,-94.144921542,428,"4055 CALDER AVE, BEAUMONT, TX, 77706","Match","Exact","4055 CALDER AVE, BEAUMONT, TX, 77706",73852735,"L"
201429,"4055 COBURG LANE","ORANGEBURG","SC",29115,33.4910028370001,-80.968876039,429,"4055 COBURG LANE, ORANGEBURG, SC, 29115","Match","Exact","4055 COBURG LN, ORANGEBURG, SC, 29115",19236230,"R"
201430,"4055 COOKE LANE","COLORADO SPRINGS","CO",80911,38.7722991200001,-104.728332433,430,"4055 COOKE LANE, COLORADO SPRINGS, CO, 80911","Match","Exact","4055 COOKE LN, COLORADO SPRINGS, CO, 80911",105524593,"L"
201431,"4055 FLAT SHOALS PKWY","DECATUR","GA",30034,33.690570462,-84.258001559,431,"4055 FLAT SHOALS PKWY, DECATUR, GA, 30034","Match","Exact","4055 FLAT SHOALS PKWY, DECATUR, GA, 30034",23370834,"R"
201432,"4055 GARDELLA AV","RENO","NV",89512,39.5662979150001,-119.809569151,432,"4055 GARDELLA AV, RENO, NV, 89512","Match","Exact","4055 GARDELLA AVE, RENO, NV, 89512",107120632,"R"
201433,"4055 GRACEWOOD PARK DRIVE","ELLENWOOD","GA",30294,33.642425997,-84.2871989669999,433,"4055 GRACEWOOD PARK DRIVE, ELLENWOOD, GA, 30294","Match","Exact","4055 GRACEWOOD PARK DR, ELLENWOOD, GA, 30294",23328569,"L"
201434,"4055 GRAND AVENUE","WESTERN SPRINGS","IL",60558,41.816096154,-87.901387068,434,"4055 GRAND AVENUE, WESTERN SPRINGS, IL, 60558","Match","Exact","4055 GRAND AVE, WESTERN SPRINGS, IL, 60558",111789084,"L"
201435,"4055 HARDINSBURG RD","CECILIA","KY",42724,37.6684367450001,-86.010687301,435,"4055 HARDINSBURG RD, CECILIA, KY, 42724","Match","Exact","4055 HARDINSBURG RD, CECILIA, KY, 42724",34639541,"L"
201436,"4055 HOGAN DRIVE APT 206","TYLER","TX",75709,32.3147616860001,-95.358010157,436,"4055 HOGAN DRIVE APT 206, TYLER, TX, 75709","Match","Exact","4055 HOGAN DR, TYLER, TX, 75709",647362602,"L"
201437,"4055 LAWRENCEVILLE HWY NW SUITE 200","LILBURN","GA",30047,NA,NA,437,"4055 LAWRENCEVILLE HWY NW SUITE 200, LILBURN, GA, 30047","No_Match",NA,NA,NA,NA
201438,"4055 LEIGH MOUNTAIN RD","GREEN BAY","VA",23942,37.2035182400001,-78.343166487,438,"4055 LEIGH MOUNTAIN RD, GREEN BAY, VA, 23942","Match","Exact","4055 LEIGH MOUNTAIN RD, GREEN BAY, VA, 23942",73990748,"R"
201439,"4055 MANZANITA AVE UNIT 17","SOUTH LAKE TAHOE","CA",96150,38.9575378710001,-119.946194801,439,"4055 MANZANITA AVE UNIT 17, SOUTH LAKE TAHOE, CA, 96150","Match","Exact","4055 MANZANITA AVE, SOUTH LAKE TAHOE, CA, 96150",133035747,"L"
201440,"4055 N SHERWOOD FOREST DR APT 24","BATON ROUGE","LA",70814,30.4881491140001,-91.060595704,440,"4055 N SHERWOOD FOREST DR APT 24, BATON ROUGE, LA, 70814","Match","Non_Exact","4055 N SHERWOOD FOREST DR, BATON ROUGE, LA, 70814",639278529,"L"
201441,"4055 NW 17 AVENUE","MIAMI","FL",33142,25.8130112810001,-80.2240462519999,441,"4055 NW 17 AVENUE, MIAMI, FL, 33142","Match","Exact","4055 NW 17TH AVE, MIAMI, FL, 33142",116005148,"R"
201442,"4055 NW 17TH AVENUE","MIAMI","FL",33142,25.8130112810001,-80.2240462519999,442,"4055 NW 17TH AVENUE, MIAMI, FL, 33142","Match","Exact","4055 NW 17TH AVE, MIAMI, FL, 33142",116005148,"R"
201443,"4055 NW TWILIGHT TER","PORTLAND","OR",97229,45.550670815,-122.783383507,443,"4055 NW TWILIGHT TER, PORTLAND, OR, 97229","Match","Exact","4055 NW TWILIGHT TER, PORTLAND, OR, 97229",624518751,"L"
201444,"4055 OCEANSIDE BLVD STE B","OCEANSIDE","CA",92056,33.2048442550001,-117.292645043,444,"4055 OCEANSIDE BLVD STE B, OCEANSIDE, CA, 92056","Match","Exact","4055 OCEANSIDE BLVD, OCEANSIDE, CA, 92056",195723105,"R"
201445,"4055 PASADENA","DETROIT","MI",48238,42.3909124040001,-83.135500505,445,"4055 PASADENA, DETROIT, MI, 48238","Match","Non_Exact","4055 PASADENA AVE, DETROIT, MI, 48238",95470454,"L"
201446,"4055 PENROSE DR","TROY","MI",48098,42.577848127,-83.1739102449999,446,"4055 PENROSE DR, TROY, MI, 48098","Match","Exact","4055 PENROSE DR, TROY, MI, 48098",69757048,"L"
201447,"4055 PIER STATION ROAD EAST","GREEN COVE SPRINGS","FL",32043,29.980975911,-81.768733884,447,"4055 PIER STATION ROAD EAST, GREEN COVE SPRINGS, FL, 32043","Match","Exact","4055 PIER STATION RD E, GREEN COVE SPRINGS, FL, 32043",606156416,"R"
201448,"4055 RASPBERRY WAY","AUSTELL","GA",30106,33.825021673,-84.64158879,448,"4055 RASPBERRY WAY, AUSTELL, GA, 30106","Match","Exact","4055 RASPBERRY WAY, AUSTELL, GA, 30106",627687903,"R"
201449,"4055 REDWOOD AVE 103","LOS ANGELES","CA",90066,33.9918358800001,-118.441066787,449,"4055 REDWOOD AVE 103, LOS ANGELES, CA, 90066","Match","Exact","4055 REDWOOD AVE, LOS ANGELES, CA, 90066",652034740,"R"
201450,"4055 RIDGE AVE  SUITE 1308","PHILADELPHIA","PA",19129,40.0074892690001,-75.1898801569999,450,"4055 RIDGE AVE  SUITE 1308, PHILADELPHIA, PA, 19129","Match","Exact","4055 RIDGE AVE, PHILADELPHIA, PA, 19129",642012581,"R"
201451,"4055 ROSS RD","BETHLEHEM","PA",18020,40.6545350000001,-75.317268682,451,"4055 ROSS RD, BETHLEHEM, PA, 18020","Match","Exact","4055 ROSS RD, BETHLEHEM, PA, 18020",136921701,"L"
201452,"4055 ROSWELL RD NE","ATLANTA","GA",30342,33.8671577650001,-84.3810608479999,452,"4055 ROSWELL RD NE, ATLANTA, GA, 30342","Match","Non_Exact","4055 ROSWELL RD, ATLANTA, GA, 30342",17379833,"R"
201453,"4055 S  NONCHALANT CIRCLE","COLORADO SPRINGS","CO",80918,NA,NA,453,"4055 S  NONCHALANT CIRCLE, COLORADO SPRINGS, CO, 80918","No_Match",NA,NA,NA,NA
201454,"4055 SPENCER SREET STE 208","LAS VEGAS","NV",89119,36.115702093,-115.128374282,454,"4055 SPENCER SREET STE 208, LAS VEGAS, NV, 89119","Match","Non_Exact","4055 SPENCER ST, LAS VEGAS, NV, 89119",201871294,"R"
201455,"4055 SPENCER ST  STE 126","LAS VEGAS","NV",89119,36.115702093,-115.128374282,455,"4055 SPENCER ST  STE 126, LAS VEGAS, NV, 89119","Match","Exact","4055 SPENCER ST, LAS VEGAS, NV, 89119",201871294,"R"
201456,"4055 SPENCER STREET STE 208","LAS VEGAS","NV",89119,36.115702093,-115.128374282,456,"4055 SPENCER STREET STE 208, LAS VEGAS, NV, 89119","Match","Exact","4055 SPENCER ST, LAS VEGAS, NV, 89119",201871294,"R"
201457,"4055 STEMILT CREEK ROAD","WENATCHEE","WA",98801,47.3548027430001,-120.275970157,457,"4055 STEMILT CREEK ROAD, WENATCHEE, WA, 98801","Match","Exact","4055 STEMILT CREEK RD, WENATCHEE, WA, 98801",156982941,"L"
201458,"4055 W ASHCROFT AVE","FRESNO","CA",93722,36.7988869610001,-119.86326745,458,"4055 W ASHCROFT AVE, FRESNO, CA, 93722","Match","Exact","4055 W ASHCROFT AVE, FRESNO, CA, 93722",642723058,"L"
201459,"4055 WILDLIFE WAY","VERO BEACH","FL",32963,27.803796027,-80.421432532,459,"4055 WILDLIFE WAY, VERO BEACH, FL, 32963","Match","Exact","4055 WILDLIFE WAY, VERO BEACH, FL, 32963",633743590,"L"
201460,"40557 N MINENA ST","ANTIOCH","IL",60002,42.4525538600001,-88.139036735,460,"40557 N MINENA ST, ANTIOCH, IL, 60002","Match","Exact","40557 N MINENA ST, ANTIOCH, IL, 60002",119621327,"R"
201461,"4056 BRIARBEND RD","DALLAS","TX",75287,33.006487986,-96.841685163,461,"4056 BRIARBEND RD, DALLAS, TX, 75287","Match","Exact","4056 BRIARBEND RD, DALLAS, TX, 75287",123483385,"R"
201462,"4056 BRISTLECONE PINE LANE","SAN BERNARDINO","CA",92407,34.1883342720001,-117.410439745,462,"4056 BRISTLECONE PINE LANE, SAN BERNARDINO, CA, 92407","Match","Non_Exact","4056 BRISTLECONE PINE LWNE, SAN BERNARDINO, CA, 92407",650227281,"L"
201463,"4056 CANOE TRAIL NE","BREMERTON","WA",98311,NA,NA,463,"4056 CANOE TRAIL NE, BREMERTON, WA, 98311","No_Match",NA,NA,NA,NA
201464,"4056 E MERCER WAY","MERCER ISLAND","WA",98040,47.5731106590001,-122.205556787,464,"4056 E MERCER WAY, MERCER ISLAND, WA, 98040","Match","Exact","4056 E MERCER WAY, MERCER ISLAND, WA, 98040",186998553,"L"
201465,"4056 E STATE STREET","HERMITAGE","PA",16148,41.2351215800001,-80.435359591,465,"4056 E STATE STREET, HERMITAGE, PA, 16148","Match","Exact","4056 E STATE ST, HERMITAGE, PA, 16148",650570568,"R"
201466,"4056 FAWCETT AVE","TACOMA","WA",98418,47.220273605,-122.437533796,466,"4056 FAWCETT AVE, TACOMA, WA, 98418","Match","Non_Exact","4056 S FAWCETT AVE, TACOMA, WA, 98418",184625990,"R"
201467,"4056 FAWCETT AVENUE","TACOMA","WA",98418,47.220273605,-122.437533796,467,"4056 FAWCETT AVENUE, TACOMA, WA, 98418","Match","Non_Exact","4056 S FAWCETT AVE, TACOMA, WA, 98418",184625990,"R"
201468,"4056 GREENWOOD DRIVE","FORT PIERCE","FL",34982,27.4124224080001,-80.346269935,468,"4056 GREENWOOD DRIVE, FORT PIERCE, FL, 34982","Match","Exact","4056 GREENWOOD DR, FORT PIERCE, FL, 34982",120149287,"R"
201469,"4056 SHELLIE CT","SANTA MARIA","CA",93455,34.8849327360001,-120.433560453,469,"4056 SHELLIE CT, SANTA MARIA, CA, 93455","Match","Exact","4056 SHELLIE CT, SANTA MARIA, CA, 93455",108596901,"L"
201470,"4056 TAMARIND RIDGE","LAKE ELSINORE","CA",92530,33.701744691,-117.384312791,470,"4056 TAMARIND RIDGE, LAKE ELSINORE, CA, 92530","Match","Exact","4056 TAMARIND RIDGE, LAKE ELSINORE, CA, 92530",650808138,"R"
201471,"4056 WEATHERBURN WAY SUITE 101","PEACHTREE CORNERS","GA",30092,33.967808194,-84.255055219,471,"4056 WEATHERBURN WAY SUITE 101, PEACHTREE CORNERS, GA, 30092","Match","Non_Exact","4056 WETHERBURN WAY, PEACHTREE CORNERS, GA, 30092",88964220,"R"
201472,"40560 DOUGLAS DRIVE","CANTON","MI",48188,NA,NA,472,"40560 DOUGLAS DRIVE, CANTON, MI, 48188","No_Match",NA,NA,NA,NA
201473,"4057 BATTLEGROUND AVE","GREENSBORO","NC",27410,36.1526171420001,-79.8714634999999,473,"4057 BATTLEGROUND AVE, GREENSBORO, NC, 27410","Match","Exact","4057 BATTLEGROUND AVE, GREENSBORO, NC, 27410",640603147,"R"
201474,"4057 BRANTLEY DRIVE","AUSTELL","GA",30106,33.850298722,-84.5791393229999,474,"4057 BRANTLEY DRIVE, AUSTELL, GA, 30106","Match","Exact","4057 BRANTLEY DR, AUSTELL, GA, 30106",17201543,"L"
201475,"4057 CORTINA RD","BALDWINSVILLE","NY",13027,43.1480148090001,-76.303500775,475,"4057 CORTINA RD, BALDWINSVILLE, NY, 13027","Match","Exact","4057 CORTINA RD, BALDWINSVILLE, NY, 13027",46625416,"R"
201476,"4057 CROCKERS LAKE BLVD  UNIT 2513","SARASOTA","FL",34238,27.2324035870001,-82.488698429,476,"4057 CROCKERS LAKE BLVD  UNIT 2513, SARASOTA, FL, 34238","Match","Exact","4057 CROCKERS LAKE BLVD, SARASOTA, FL, 34238",16425490,"L"
201477,"4057 DEL MAR VIEW CT","WYOMING","MI",49418,NA,NA,477,"4057 DEL MAR VIEW CT, WYOMING, MI, 49418","No_Match",NA,NA,NA,NA
201478,"4057 E 640 RD","LOCUST GROVE","OK",74352,NA,NA,478,"4057 E 640 RD, LOCUST GROVE, OK, 74352","No_Match",NA,NA,NA,NA
201479,"4057 EMERALD ISLE","SAN JOSE","CA",95135,37.3135966680001,-121.768931815,479,"4057 EMERALD ISLE, SAN JOSE, CA, 95135","Match","Non_Exact","4057 EMERALD ISLE LN, SAN JOSE, CA, 95135",123171102,"R"
201480,"4057 GALLAGHER LOOP","CASSELBERRY","FL",32707,28.646091373,-81.28084596,480,"4057 GALLAGHER LOOP, CASSELBERRY, FL, 32707","Match","Exact","4057 GALLAGHER LOOP, CASSELBERRY, FL, 32707",93752960,"L"
201481,"4057 GALLIA PIKE","FRANKLIN FURNACE","OH",45629,38.6202307140001,-82.843353221,481,"4057 GALLIA PIKE, FRANKLIN FURNACE, OH, 45629","Match","Exact","4057 GALLIA PIKE, FRANKLIN FURNACE, OH, 45629",55116271,"R"
201482,"4057 MARTIN LUTHER KING JR WAY S","SEATTLE","WA",98108,NA,NA,482,"4057 MARTIN LUTHER KING JR WAY S, SEATTLE, WA, 98108","No_Match",NA,NA,NA,NA
201483,"4057 RILEY FUZZEL ROAD 500-230","SPRING","TX",77386,NA,NA,483,"4057 RILEY FUZZEL ROAD 500-230, SPRING, TX, 77386","No_Match",NA,NA,NA,NA
201484,"40573 SPECTACULAR BID PLACE","LEESBURG","VA",20176,39.155532974,-77.598593888,484,"40573 SPECTACULAR BID PLACE, LEESBURG, VA, 20176","Match","Exact","40573 SPECTACULAR BID PL, LEESBURG, VA, 20176",632528805,"L"
201485,"40577 CALLE GALACIA","MURRIETA","CA",92562,33.580197637,-117.208600431,485,"40577 CALLE GALACIA, MURRIETA, CA, 92562","Match","Non_Exact","40577 CLL GALACIA, MURRIETA, CA, 92562",194847031,"L"
201486,"4057N FRANCISCO AVE APT 1W","CHICAGO","IL",60618,41.9549982190001,-87.7007060189999,486,"4057N FRANCISCO AVE APT 1W, CHICAGO, IL, 60618","Match","Non_Exact","4057 N FRANCISCO AVE, CHICAGO, IL, 60618",111760561,"R"
201487,"4058 GLENAVON COURT","FORT WORTH","TX",76109,32.6816174910001,-97.381309496,487,"4058 GLENAVON COURT, FORT WORTH, TX, 76109","Match","Exact","4058 GLENAVON CT, FORT WORTH, TX, 76109",101886483,"L"
201488,"4058 GLENCOE STREET","CHATTANOOGA","TN",37406,35.0807418420001,-85.224388952,488,"4058 GLENCOE STREET, CHATTANOOGA, TN, 37406","Match","Exact","4058 GLENCOE ST, CHATTANOOGA, TN, 37406",59310126,"R"
201489,"4058 GREEN OAK DRIVE","DORAVILLE","GA",30340,33.91073312,-84.256123644,489,"4058 GREEN OAK DRIVE, DORAVILLE, GA, 30340","Match","Exact","4058 GREEN OAK DR, DORAVILLE, GA, 30340",23360857,"L"
201490,"4058 HICKORY FAIRWAY DR","WOODSTOCK","GA",30188,34.157350718,-84.44278611,490,"4058 HICKORY FAIRWAY DR, WOODSTOCK, GA, 30188","Match","Exact","4058 HICKORY FAIRWAY DR, WOODSTOCK, GA, 30188",68840762,"L"
201491,"4058 KENWAY AVE","LOS ANGELES","CA",90008,34.0028306940001,-118.345608301,491,"4058 KENWAY AVE, LOS ANGELES, CA, 90008","Match","Exact","4058 KENWAY AVE, LOS ANGELES, CA, 90008",142729114,"L"
201492,"4058 ROBIN CIR","COLLEGE PARK","GA",30349,33.603676423,-84.576558221,492,"4058 ROBIN CIR, COLLEGE PARK, GA, 30349","Match","Exact","4058 ROBIN CIR, COLLEGE PARK, GA, 30349",632652079,"L"
201493,"4058 STATE STREET","BLASDELL","NY",14129,42.774598649,-78.8341875579999,493,"4058 STATE STREET, BLASDELL, NY, 14129","Match","Non_Exact","4058 STATE ST, BLASDELL, NY, 14219",48309288,"R"
201494,"4058 TUJUNGA AVE  UNIT E","STUDIO CITY","CA",91604,34.141714247,-118.378954696,494,"4058 TUJUNGA AVE  UNIT E, STUDIO CITY, CA, 91604","Match","Exact","4058 TUJUNGA AVE, STUDIO CITY, CA, 91604",638699655,"R"
201495,"4058 VISTA DEL LAGO DR","WINTER HAVEN","FL",33881,28.0627488270001,-81.706488472,495,"4058 VISTA DEL LAGO DR, WINTER HAVEN, FL, 33881","Match","Exact","4058 VISTA DEL LAGO DR, WINTER HAVEN, FL, 33881",633999447,"R"
201496,"4058 W 115TH STREET  APT 108","CHICAGO","IL",60655,41.6839477340001,-87.7216936839999,496,"4058 W 115TH STREET  APT 108, CHICAGO, IL, 60655","Match","Non_Exact","4058 W 115TH ST, CHICAGO, IL, 60655",605579584,"R"
201497,"4058 WEST 271ST","LOUISBURG","KS",66053,38.63494274,-94.632255742,497,"4058 WEST 271ST, LOUISBURG, KS, 66053","Match","Non_Exact","4058 W 271ST ST, LOUISBURG, KS, 66053",85239351,"R"
201498,"4059 BREAKWOOD DRIVE","HOUSTON","TX",77025,29.680384286,-95.442361573,498,"4059 BREAKWOOD DRIVE, HOUSTON, TX, 77025","Match","Exact","4059 BREAKWOOD DR, HOUSTON, TX, 77025",96604631,"L"
201499,"4059 E CLAXTON AVENUE","GILBERT","AZ",85297,33.281237892,-111.701632991,499,"4059 E CLAXTON AVENUE, GILBERT, AZ, 85297","Match","Exact","4059 E CLAXTON AVE, GILBERT, AZ, 85297",128874150,"L"
201500,"4059 EAST CLAXTON AVENUE","GILBERT","AZ",85297,33.2812422220001,-111.701640448,500,"4059 EAST CLAXTON AVENUE, GILBERT, AZ, 85297","Match","Exact","4059 E CLAXTON AVE, GILBERT, AZ, 85297",128874150,"L"
