"ID","Address","City","State","Zip","lat","long","id","input_address","match_indicator","match_type","matched_address","tiger_line_id","tiger_side"
118501,"2165 SECOND AVENUE","DECATUR","GA",30032,33.72699527,-84.308062741,1,"2165 SECOND AVENUE, DECATUR, GA, 30032","Match","Exact","2165 2ND AVE, DECATUR, GA, 30032",23367972,"R"
118502,"2165 SOUTH 1800 EAST","GOODING","ID",83330,42.8866721480001,-114.732410548,2,"2165 SOUTH 1800 EAST, GOODING, ID, 83330","Match","Exact","2165 S 1800 E, GOODING, ID, 83330",118515086,"L"
118503,"2165 SW MAIN ST","PORTLAND","OR",97205,45.5205856530001,-122.69586609,3,"2165 SW MAIN ST, PORTLAND, OR, 97205","Match","Exact","2165 SW MAIN ST, PORTLAND, OR, 97205",157498387,"R"
118504,"21650 JILL CT","BROOKFIELD","WI",53045,43.0480082820001,-88.1805119429999,4,"21650 JILL CT, BROOKFIELD, WI, 53045","Match","Exact","21650 JILL CT, BROOKFIELD, WI, 53045",53812765,"L"
118505,"21651 220TH ST","CARROLL","IA",51401,42.0352582890001,-94.866612388,5,"21651 220TH ST, CARROLL, IA, 51401","Match","Exact","21651 220TH ST, CARROLL, IA, 51401",649285379,"R"
118506,"21651 68 AVE  1","OAKLAND GARDENS","NY",11364,NA,NA,6,"21651 68 AVE  1, OAKLAND GARDENS, NY, 11364","No_Match",NA,NA,NA,NA
118507,"21655 EAST O ST","LA HARPE","IL",61450,NA,NA,7,"21655 EAST O ST, LA HARPE, IL, 61450","No_Match",NA,NA,NA,NA
118508,"21655 LANCELOT DRIVE","BROOKFIELD","WI",53045,43.0613138900001,-88.18113427,8,"21655 LANCELOT DRIVE, BROOKFIELD, WI, 53045","Match","Exact","21655 LANCELOT DR, BROOKFIELD, WI, 53045",53812301,"L"
118509,"21655 SE 33RD PL","SAMMAMISH","WA",98075,47.5797956750001,-122.049954699,9,"21655 SE 33RD PL, SAMMAMISH, WA, 98075","Match","Exact","21655 SE 33RD PL, SAMMAMISH, WA, 98075",186618231,"R"
118510,"21659 SIOUX ROAD PO BOX 342","INDIAN HILLS","CO",80454,39.6233514480001,-105.247877928,10,"21659 SIOUX ROAD PO BOX 342, INDIAN HILLS, CO, 80454","Match","Exact","21659 SIOUX RD, INDIAN HILLS, CO, 80454",177315640,"R"
118511,"2166 32ND AVE","SAN FRANCISCO","CA",94116,37.7468288040001,-122.489916129,11,"2166 32ND AVE, SAN FRANCISCO, CA, 94116","Match","Exact","2166 32ND AVE, SAN FRANCISCO, CA, 94116",192277860,"L"
118512,"2166 BROADWAY NUM 140","ANAHEIM","CA",92804,33.8289065930001,-117.957368148,12,"2166 BROADWAY NUM 140, ANAHEIM, CA, 92804","Match","Non_Exact","2166 W BROADWAY, ANAHEIM, CA, 92804",144023317,"L"
118513,"2166 CONLYN STREET","PHILADELPHIA","PA",19138,40.0428465320001,-75.157890585,13,"2166 CONLYN STREET, PHILADELPHIA, PA, 19138","Match","Exact","2166 CONLYN ST, PHILADELPHIA, PA, 19138",131413476,"L"
118514,"2166 DEXTER ST","WILMINGTON","NC",28403,34.2293865830001,-77.919018267,14,"2166 DEXTER ST, WILMINGTON, NC, 28403","Match","Exact","2166 DEXTER ST, WILMINGTON, NC, 28403",152733011,"R"
118515,"2166 E 74TH STREET","BROOKLYN","NY",11209,NA,NA,15,"2166 E 74TH STREET, BROOKLYN, NY, 11209","Tie",NA,NA,NA,NA
118516,"2166 HWY 189N","HAMBURG","AR",71646,NA,NA,16,"2166 HWY 189N, HAMBURG, AR, 71646","No_Match",NA,NA,NA,NA
118517,"2166 LARCHWOOD RD SW","ATLANTA","GA",30310,33.747531544,-84.4587535169999,17,"2166 LARCHWOOD RD SW, ATLANTA, GA, 30310","Match","Exact","2166 LARCHWOOD RD SW, ATLANTA, GA, 30310",17339934,"L"
118518,"2166 MINERVA AVE","COLUMBUS","OH",43229,40.0717064460001,-82.9609360969999,18,"2166 MINERVA AVE, COLUMBUS, OH, 43229","Match","Exact","2166 MINERVA AVE, COLUMBUS, OH, 43229",135612713,"L"
118519,"2166 OLMADISON VIEW","COLLEGE PARK","GA",30349,33.5792514890001,-84.46743766,19,"2166 OLMADISON VIEW, COLLEGE PARK, GA, 30349","Match","Exact","2166 OLMADISON VW, COLLEGE PARK, GA, 30349",624809542,"R"
118520,"2166 PELHAM PARKWAY  SUITE 6","PELHAM","AL",35124,33.336370205,-86.7916584659999,20,"2166 PELHAM PARKWAY  SUITE 6, PELHAM, AL, 35124","Match","Exact","2166 PELHAM PKWY, PELHAM, AL, 35124",221554181,"R"
118521,"2166 RIDGE RD","FRANKFORT","KS",66427,39.740395059,-96.41361835,21,"2166 RIDGE RD, FRANKFORT, KS, 66427","Match","Exact","2166 RIDGE RD, FRANKFORT, KS, 66427",28439230,"L"
118522,"2166 S HIGHWAY 127","RUSSELL SPRINGS","KY",42642,37.099955084,-85.060546473,22,"2166 S HIGHWAY 127, RUSSELL SPRINGS, KY, 42642","Match","Non_Exact","2166 US HWY 127, RUSSELL SPRINGS, KY, 42642",38438452,"R"
118523,"2166 TERRA MAR COURT","JACKSONVILLE","FL",32224,30.3088417650001,-81.452668189,23,"2166 TERRA MAR COURT, JACKSONVILLE, FL, 32224","Match","Exact","2166 TERRA MAR CT, JACKSONVILLE, FL, 32224",83935621,"L"
118524,"2166 TRIESTE TRAIL","ADAMS","TN",37010,36.543453163,-87.129371312,24,"2166 TRIESTE TRAIL, ADAMS, TN, 37010","Match","Exact","2166 TRIESTE TRL, ADAMS, TN, 37010",630017109,"R"
118525,"2166 W BROADWAY 197","ANAHEIM","CA",92804,33.8289065930001,-117.957368148,25,"2166 W BROADWAY 197, ANAHEIM, CA, 92804","Match","Non_Exact","2166 W BROADWAY, ANAHEIM, CA, 92804",144023317,"L"
118526,"2166 WALKER SOLOMON WAY","COLUMBIA","SC",29204,34.0210143410001,-81.0206846629999,26,"2166 WALKER SOLOMON WAY, COLUMBIA, SC, 29204","Match","Exact","2166 WALKER SOLOMON WAY, COLUMBIA, SC, 29204",647338471,"R"
118527,"21660 E MILL RIVER LN","LIBERTY LAKE","WA",99019,47.6607048130001,-117.113795029,27,"21660 E MILL RIVER LN, LIBERTY LAKE, WA, 99019","Match","Exact","21660 E MILL RIVER LN, LIBERTY LAKE, WA, 99019",605658735,"R"
118528,"21660 FRAME SQ","BROADLANDS","VA",20148,39.0176081380001,-77.50723913,28,"21660 FRAME SQ, BROADLANDS, VA, 20148","Match","Exact","21660 FRAME SQ, BROADLANDS, VA, 20148",62341194,"L"
118529,"21660 MANTON SCHOOL ROAD","MANTON","CA",96059,40.4206822960001,-121.862131077,29,"21660 MANTON SCHOOL ROAD, MANTON, CA, 96059","Match","Exact","21660 MANTON SCHOOL RD, MANTON, CA, 96059",119357275,"R"
118530,"21660 ROAD 60","TULARE","CA",93274,36.1829068390001,-119.439188527,30,"21660 ROAD 60, TULARE, CA, 93274","Match","Exact","21660 RD 60, TULARE, CA, 93274",617762207,"R"
118531,"21661 BUNDY STREET","WAGRAM","NC",28396,34.8927034860001,-79.375618972,31,"21661 BUNDY STREET, WAGRAM, NC, 28396","Match","Exact","21661 BUNDY ST, WAGRAM, NC, 28396",639834698,"R"
118532,"21665 NORTH PRESTON HWY","BRUCETON MILLS","WV",26525,39.700858426,-79.533947412,32,"21665 NORTH PRESTON HWY, BRUCETON MILLS, WV, 26525","Match","Exact","21665 N PRESTON HWY, BRUCETON MILLS, WV, 26525",611585221,"L"
118533,"21667 MERIDIAN","GROSSE ILE","MI",48138,42.149348473,-83.157433461,33,"21667 MERIDIAN, GROSSE ILE, MI, 48138","Match","Non_Exact","21667 MERIDIAN RD, GROSSE ILE, MI, 48138",95686136,"L"
118534,"21668 EVERGREEN LN","PERDIDO","AL",36562,31.0482438060001,-87.653541175,34,"21668 EVERGREEN LN, PERDIDO, AL, 36562","Match","Exact","21668 EVERGREEN LN, PERDIDO, AL, 36562",648660884,"L"
118535,"2167 330TH AVE","ROTHSAY","MN",56579,46.463043869,-96.301694153,35,"2167 330TH AVE, ROTHSAY, MN, 56579","Match","Exact","2167 330TH AVE, ROTHSAY, MN, 56579",610360197,"L"
118536,"2167 CRUGER AVE","BRONX","NY",10462,40.8554665870001,-73.8666669199999,36,"2167 CRUGER AVE, BRONX, NY, 10462","Match","Exact","2167 CRUGER AVE, BRONX, NY, 10462",80304346,"L"
118537,"2167 HUNTCREST WAY","LAWRENCEVILLE","GA",30043,33.9953657770001,-84.0607458109999,37,"2167 HUNTCREST WAY, LAWRENCEVILLE, GA, 30043","Match","Exact","2167 HUNTCREST WAY, LAWRENCEVILLE, GA, 30043",623979935,"L"
118538,"2167 JOCKEY HOLLOW DRIVE NW","KENNESAW","GA",30152,34.009988972,-84.661501777,38,"2167 JOCKEY HOLLOW DRIVE NW, KENNESAW, GA, 30152","Match","Exact","2167 JOCKEY HOLLOW DR NW, KENNESAW, GA, 30152",17268003,"L"
118539,"2167 KAY AVENUE - C/O MUID-DAVIS","UNION","NJ",7083,40.7044506460001,-74.268662134,39,"2167 KAY AVENUE - C/O MUID-DAVIS, UNION, NJ, 7083","Match","Exact","2167 KAY AVE, UNION, NJ, 07083",60604294,"R"
118540,"2167 KISTLER AVENUE","BETHLEHEM","PA",18015,40.5925939900001,-75.385685066,40,"2167 KISTLER AVENUE, BETHLEHEM, PA, 18015","Match","Exact","2167 KISTLER AVE, BETHLEHEM, PA, 18015",136893789,"L"
118541,"2167 N FRANKLIN ST","PHILADELPHIA","PA",19122,39.9844345070001,-75.146205233,41,"2167 N FRANKLIN ST, PHILADELPHIA, PA, 19122","Match","Exact","2167 N FRANKLIN ST, PHILADELPHIA, PA, 19122",131422320,"R"
118542,"2167 VILLA SONOMA GLEN","ESCONDIDO","CA",92029,33.0957358540001,-117.11126436,42,"2167 VILLA SONOMA GLEN, ESCONDIDO, CA, 92029","Match","Exact","2167 VILLA SONOMA GLEN, ESCONDIDO, CA, 92029",195429961,"L"
118543,"21670 PENNSYLVANIA 29","MONTROSE","PA",18801,NA,NA,43,"21670 PENNSYLVANIA 29, MONTROSE, PA, 18801","No_Match",NA,NA,NA,NA
118544,"21671 GATEWAY CENTER DR  STE106","DIAMOND BAR","CA",91765,33.9997888550001,-117.833096996,44,"21671 GATEWAY CENTER DR  STE106, DIAMOND BAR, CA, 91765","Match","Exact","21671 GATEWAY CENTER DR, DIAMOND BAR, CA, 91765",142238884,"R"
118545,"21671 GATEWAY CENTER DRIVE SUITE 20","DIAMOND BAR","CA",91765,33.9997888550001,-117.833096996,45,"21671 GATEWAY CENTER DRIVE SUITE 20, DIAMOND BAR, CA, 91765","Match","Exact","21671 GATEWAY CENTER DR, DIAMOND BAR, CA, 91765",142238884,"R"
118546,"21671 GATEWAY CENTER DRIVE SUITE106","DIAMOND BAR","CA",91765,33.9997888550001,-117.833096996,46,"21671 GATEWAY CENTER DRIVE SUITE106, DIAMOND BAR, CA, 91765","Match","Exact","21671 GATEWAY CENTER DR, DIAMOND BAR, CA, 91765",142238884,"R"
118547,"21671 REED ROAD","WATERTOWN","NY",13601,44.0259019000001,-75.937048062,47,"21671 REED ROAD, WATERTOWN, NY, 13601","Match","Exact","21671 REED RD, WATERTOWN, NY, 13601",154271738,"L"
118548,"21672 ALVAREZ","MISSION VIEJO","CA",92691,33.6480294940001,-117.646849961,48,"21672 ALVAREZ, MISSION VIEJO, CA, 92691","Match","Exact","21672 ALVAREZ, MISSION VIEJO, CA, 92691",144066065,"L"
118549,"21672 MIDCREST DRIVE","LAKE FOREST","CA",92630,33.648136638,-117.672816091,49,"21672 MIDCREST DRIVE, LAKE FOREST, CA, 92630","Match","Exact","21672 MIDCREST DR, LAKE FOREST, CA, 92630",144115883,"R"
118550,"21675 LINDSAY LANE","WAYNESVILLE","MO",65583,37.8432425660001,-92.181500698,50,"21675 LINDSAY LANE, WAYNESVILLE, MO, 65583","Match","Exact","21675 LINDSAY LN, WAYNESVILLE, MO, 65583",650577995,"L"
118551,"21675 NORTH 53RD DRIVE","GLENDALE","AZ",85308,33.681181612,-112.176824113,51,"21675 NORTH 53RD DRIVE, GLENDALE, AZ, 85308","Match","Exact","21675 N 53RD DR, GLENDALE, AZ, 85308",128429136,"L"
118552,"21677 CHARITY CHURCH ROAD","CARLINVILLE","IL",62626,39.3161265480001,-89.956985162,52,"21677 CHARITY CHURCH ROAD, CARLINVILLE, IL, 62626","Match","Exact","21677 CHARITY CHURCH RD, CARLINVILLE, IL, 62626",97933647,"L"
118553,"2168 44TH ST","LOS ALAMOS","NM",87544,35.896519842,-106.323770157,53,"2168 44TH ST, LOS ALAMOS, NM, 87544","Match","Exact","2168 44TH ST, LOS ALAMOS, NM, 87544",143754930,"L"
118554,"2168 7TH AVE NUMBER 652","ANOKA","MN",55303,45.199286629,-93.378448492,54,"2168 7TH AVE NUMBER 652, ANOKA, MN, 55303","Match","Exact","2168 7TH AVE, ANOKA, MN, 55303",97483292,"R"
118555,"2168 83RD ST APT 1A","BROOKLYN","NY",11214,40.6041020750001,-73.9927903029999,55,"2168 83RD ST APT 1A, BROOKLYN, NY, 11214","Match","Exact","2168 83RD ST, BROOKLYN, NY, 11214",59088479,"R"
118556,"2168 E 97TH ST","CHICAGO","IL",60617,41.7188710560001,-87.571708803,56,"2168 E 97TH ST, CHICAGO, IL, 60617","Match","Exact","2168 E 97TH ST, CHICAGO, IL, 60617",605529585,"L"
118557,"2168 E MAPLEWOOD STREET","GILBERT","AZ",85297,33.2823179650001,-111.742521196,57,"2168 E MAPLEWOOD STREET, GILBERT, AZ, 85297","Match","Exact","2168 E MAPLEWOOD ST, GILBERT, AZ, 85297",128255857,"L"
118558,"2168 EAST NATIONAL PIKE","SCENERY HILL","PA",15360,40.086427444,-80.071063129,58,"2168 EAST NATIONAL PIKE, SCENERY HILL, PA, 15360","Match","Exact","2168 E NATIONAL PIKE, SCENERY HILL, PA, 15360",52811927,"R"
118559,"2168 FOUNTAIN SQUARE","SNELLVILLE","GA",30078,33.8567380490001,-84.034111039,59,"2168 FOUNTAIN SQUARE, SNELLVILLE, GA, 30078","Match","Exact","2168 FOUNTAIN SQ, SNELLVILLE, GA, 30078",88937206,"R"
118560,"2168 HIGHWAY 31","GLEN GARDNER","NJ",8826,40.6991659540001,-74.9440262689999,60,"2168 HIGHWAY 31, GLEN GARDNER, NJ, 8826","Match","Non_Exact","2168 STATE RTE 31, GLEN GARDNER, NJ, 08826",60030030,"R"
118561,"2168 LINCOLN ST","GARY","IN",46407,41.5796107910001,-87.3537919299999,61,"2168 LINCOLN ST, GARY, IN, 46407","Match","Exact","2168 LINCOLN ST, GARY, IN, 46407",606312172,"R"
118562,"2168 MARKET GARDEN LANE","LEXINGTON","KY",40509,38.0200925090001,-84.408139182,62,"2168 MARKET GARDEN LANE, LEXINGTON, KY, 40509","Match","Exact","2168 MARKET GARDEN LN, LEXINGTON, KY, 40509",31954820,"L"
118563,"2168 ROUND TOP DR","HONOLULU","HI",96822,21.3108982000001,-157.82948805,63,"2168 ROUND TOP DR, HONOLULU, HI, 96822","Match","Exact","2168 ROUND TOP DR, HONOLULU, HI, 96822",203222933,"L"
118564,"2168 S ATLANTIC BLVD SUITE 107","MONTEREY PARK","CA",91754,34.0386396230001,-118.144544715,64,"2168 S ATLANTIC BLVD SUITE 107, MONTEREY PARK, CA, 91754","Match","Non_Exact","2168 S ATLANTIC BLVD, MONTEREY PARK, CA, 91754",241240975,"L"
118565,"2168 S ATLANTIC BLVD UNIT 312","MONTEREY PARK","CA",91754,34.0386396230001,-118.144544715,65,"2168 S ATLANTIC BLVD UNIT 312, MONTEREY PARK, CA, 91754","Match","Non_Exact","2168 S ATLANTIC BLVD, MONTEREY PARK, CA, 91754",241240975,"L"
118566,"2168 S BIRCH STREET","DENVER","CO",80222,39.677248089,-104.936319794,66,"2168 S BIRCH STREET, DENVER, CO, 80222","Match","Exact","2168 S BIRCH ST, DENVER, CO, 80222",177340899,"L"
118567,"2168 S CEDAR HILL AVE","SPRINGFIELD","MO",65809,NA,NA,67,"2168 S CEDAR HILL AVE, SPRINGFIELD, MO, 65809","No_Match",NA,NA,NA,NA
118568,"2168 SOUTH ATLANTIC BLVD 338","MONTEREY PARK","CA",91754,34.0386449900001,-118.14453633,68,"2168 SOUTH ATLANTIC BLVD 338, MONTEREY PARK, CA, 91754","Match","Exact","2168 S ATLANTIC BLVD, MONTEREY PARK, CA, 91754",241240975,"L"
118569,"21680 MIDDLEBURG PLAIN CITY RD","MILFORD CENTER","OH",43045,40.1822729260001,-83.448508031,69,"21680 MIDDLEBURG PLAIN CITY RD, MILFORD CENTER, OH, 43045","Match","Non_Exact","21680 MIDDLEBURG-PLAIN CITY RD, MILFORD CENTER, OH, 43045",652482005,"R"
118570,"21684 MAIN ST PO BOX 32","RAYMOND","OH",43067,40.3349235740001,-83.46698538,70,"21684 MAIN ST PO BOX 32, RAYMOND, OH, 43067","Match","Exact","21684 MAIN ST, RAYMOND, OH, 43067",135344074,"R"
118571,"2169 AUBRY ST","NEW ORLEANS","LA",70119,29.9785036050001,-90.068511003,71,"2169 AUBRY ST, NEW ORLEANS, LA, 70119","Match","Exact","2169 AUBRY ST, NEW ORLEANS, LA, 70119",191709172,"R"
118572,"2169 BOOTMAKER DRIVE","BELOIT","WI",53511,42.530464652,-89.002093331,72,"2169 BOOTMAKER DRIVE, BELOIT, WI, 53511","Match","Exact","2169 BOOTMAKER DR, BELOIT, WI, 53511",49858053,"L"
118573,"2169 COPPERRIDGE LN","HARRAH","OK",73045,35.446712989,-97.15338974,73,"2169 COPPERRIDGE LN, HARRAH, OK, 73045","Match","Exact","2169 COPPERRIDGE LN, HARRAH, OK, 73045",653408317,"R"
118574,"2169 EAST WILSON AVENUE","SALT LAKE CITY","UT",84108,40.7315280870001,-111.828515649,74,"2169 EAST WILSON AVENUE, SALT LAKE CITY, UT, 84108","Match","Non_Exact","2169 WILSON AVE, SALT LAKE CITY, UT, 84108",176081803,"L"
118575,"2169 KIRK RD","ABINGTON","PA",19001,40.1182207160001,-75.132530394,75,"2169 KIRK RD, ABINGTON, PA, 19001","Match","Exact","2169 KIRK RD, ABINGTON, PA, 19001",135092998,"R"
118576,"2169 MARATHON AVE","NEENAH","WI",54956,44.1608448530001,-88.469912128,76,"2169 MARATHON AVE, NEENAH, WI, 54956","Match","Exact","2169 MARATHON AVE, NEENAH, WI, 54956",74493175,"R"
118577,"2169 N STONE CHAPEL LANE","FAYETTEVILLE","AR",72704,36.0928619690001,-94.226103918,77,"2169 N STONE CHAPEL LANE, FAYETTEVILLE, AR, 72704","Match","Exact","2169 N STONE CHAPEL LN, FAYETTEVILLE, AR, 72704",641123638,"R"
118578,"2169 NE 7TH ST","HOMESTEAD","FL",33033,25.4769749770001,-80.447520117,78,"2169 NE 7TH ST, HOMESTEAD, FL, 33033","Match","Exact","2169 NE 7TH ST, HOMESTEAD, FL, 33033",624731186,"R"
118579,"2169 S RICHARDS STREET","SOUTH SALT LAKE","UT",84115,40.724345434,-111.892783908,79,"2169 S RICHARDS STREET, SOUTH SALT LAKE, UT, 84115","Match","Exact","2169 S RICHARDS ST, S SALT LAKE, UT, 84115",176078464,"L"
118580,"2169 SCHAEFER RD","ABINGTON","PA",19001,40.117253453,-75.133514823,80,"2169 SCHAEFER RD, ABINGTON, PA, 19001","Match","Non_Exact","2169 SCHAEFFER RD, ABINGTON, PA, 19001",135098746,"R"
118581,"2169 SEAPORT CIRCLE APT 115","WINTER PARK","FL",32792,28.6225316800001,-81.317668596,81,"2169 SEAPORT CIRCLE APT 115, WINTER PARK, FL, 32792","Match","Exact","2169 SEAPORT CIR, WINTER PARK, FL, 32792",606892880,"L"
118582,"2169 WINTERMERE POINTE DR","WINTER GARDEN","FL",34787,28.510741297,-81.5847637969999,82,"2169 WINTERMERE POINTE DR, WINTER GARDEN, FL, 34787","Match","Exact","2169 WINTERMERE POINTE DR, WINTER GARDEN, FL, 34787",94372834,"R"
118583,"21690 KINGS CROSSING TER","ASHBURN","VA",20147,39.0169001950001,-77.4954485339999,83,"21690 KINGS CROSSING TER, ASHBURN, VA, 20147","Match","Exact","21690 KINGS CROSSING TER, ASHBURN, VA, 20147",640630679,"L"
118584,"21691 CHANNING COURT","ASHBURN","VA",20147,39.016194824,-77.488717317,84,"21691 CHANNING COURT, ASHBURN, VA, 20147","Match","Exact","21691 CHANNING CT, ASHBURN, VA, 20147",62350557,"R"
118585,"21692 COUNTY ROAD 574","GOODLAND","MN",55742,47.191921671,-93.164623261,85,"21692 COUNTY ROAD 574, GOODLAND, MN, 55742","Match","Exact","21692 CO RD 574, GOODLAND, MN, 55742",611755858,"L"
118586,"21699 COUNTY ROAD 77","WABASHA","MN",55981,44.401861743,-92.101717013,86,"21699 COUNTY ROAD 77, WABASHA, MN, 55981","Match","Exact","21699 CO RD 77, WABASHA, MN, 55981",31633796,"R"
118587,"21699 W YUMA ROAD SUITE 104","BUCKEYE","AZ",85326,NA,NA,87,"21699 W YUMA ROAD SUITE 104, BUCKEYE, AZ, 85326","No_Match",NA,NA,NA,NA
118588,"216A NANILOA DRIVE","WAILUKU","HI",96793,20.8856257250001,-156.497107164,88,"216A NANILOA DRIVE, WAILUKU, HI, 96793","Match","Exact","216 NANILOA DR, WAILUKU, HI, 96793",85088612,"L"
118589,"217 11TH STREET","SEAL BEACH","CA",90740,33.7407056120001,-118.102851177,89,"217 11TH STREET, SEAL BEACH, CA, 90740","Match","Exact","217 11TH ST, SEAL BEACH, CA, 90740",144012753,"L"
118590,"217 12TH ST SE","MASON CITY","IA",50401,43.1402682520001,-93.197877247,90,"217 12TH ST SE, MASON CITY, IA, 50401","Match","Exact","217 12TH ST SE, MASON CITY, IA, 50401",7291014,"L"
118591,"217 18TH AVENUE","INDIAN ROCKS BEACH","FL",33785,27.9002606170001,-82.845795632,91,"217 18TH AVENUE, INDIAN ROCKS BEACH, FL, 33785","Match","Non_Exact","217 18TH AVE N, INDIAN ROCKS BEACH, FL, 33785",124663226,"R"
118592,"217 1ST ST  STE A","EATON","CO",80615,40.5260315150001,-104.713175257,92,"217 1ST ST  STE A, EATON, CO, 80615","Match","Exact","217 1ST ST, EATON, CO, 80615",188674521,"R"
118593,"217 23RD AVE UNIT A","SEATTLE","WA",98122,47.603680393,-122.302440536,93,"217 23RD AVE UNIT A, SEATTLE, WA, 98122","Match","Exact","217 23RD AVE, SEATTLE, WA, 98122",186593035,"L"
118594,"217 2ND STREET NORTH WEST","AITKIN","MN",56431,NA,NA,94,"217 2ND STREET NORTH WEST, AITKIN, MN, 56431","Tie",NA,NA,NA,NA
118595,"217 38TH STREET","WEST DES MOINES","IA",50265,41.573745957,-93.7555522439999,95,"217 38TH STREET, WEST DES MOINES, IA, 50265","Match","Exact","217 38TH ST, W DES MOINES, IA, 50265",65852997,"R"
118596,"217 3RD AVE SOUTH BOX 303","MOTLEY","MN",56466,46.335551046,-94.6478953449999,96,"217 3RD AVE SOUTH BOX 303, MOTLEY, MN, 56466","Match","Exact","217 3RD AVE S, MOTLEY, MN, 56466",167386166,"L"
118597,"217 51 AVE  APT 1010","LONG ISLAND CITY","NY",11101,40.742788326,-73.9582019649999,97,"217 51 AVE  APT 1010, LONG ISLAND CITY, NY, 11101","Match","Exact","217 51ST AVE, LONG ISLAND CITY, NY, 11101",59691810,"L"
118598,"217 5TH ST","PACIFC GROVE","CA",93950,36.618599843,-121.910077123,98,"217 5TH ST, PACIFC GROVE, CA, 93950","Match","Non_Exact","217 5TH ST, PACIFIC GROVE, CA, 93950",196863966,"L"
118599,"217 86TH PLACE SOUTH","BIRMINGHAM","AL",35206,33.574680835,-86.71521024,99,"217 86TH PLACE SOUTH, BIRMINGHAM, AL, 35206","Match","Exact","217 86TH PL S, BIRMINGHAM, AL, 35206",635821953,"L"
118600,"217 AARON LANE","LANCASTER","PA",17601,40.0556055210001,-76.259609115,100,"217 AARON LANE, LANCASTER, PA, 17601","Match","Exact","217 AARON LN, LANCASTER, PA, 17601",624865830,"L"
118601,"217 ABBEYVIEW AVENUE","WILLOW GROVE","PA",19090,40.141983425,-75.108189672,101,"217 ABBEYVIEW AVENUE, WILLOW GROVE, PA, 19090","Match","Exact","217 ABBEYVIEW AVE, WILLOW GROVE, PA, 19090",135080748,"L"
118602,"217 ALEXANDER AVENUE SUITE 17F","BRONX","NY",10454,40.809680191,-73.925423253,102,"217 ALEXANDER AVENUE SUITE 17F, BRONX, NY, 10454","Match","Exact","217 ALEXANDER AVE, BRONX, NY, 10454",80308863,"L"
118603,"217 APPOQUIN DR S","MIDDLETOWN","DE",19709,39.4417083390001,-75.645136275,103,"217 APPOQUIN DR S, MIDDLETOWN, DE, 19709","Match","Exact","217 APPOQUIN DR S, MIDDLETOWN, DE, 19709",187292391,"L"
118604,"217 ARCADIA PLACE","LODI","CA",95240,38.1038462860001,-121.269134099,104,"217 ARCADIA PLACE, LODI, CA, 95240","Match","Exact","217 ARCADIA PL, LODI, CA, 95240",133891572,"R"
118605,"217 ARCHDALE DRIVE","AIKEN","SC",29803,33.4792187530001,-81.7201242249999,105,"217 ARCHDALE DRIVE, AIKEN, SC, 29803","Match","Exact","217 ARCHDALE DR, AIKEN, SC, 29803",65007515,"L"
118606,"217 ARROWHEAD BLVD BLDG A-2 STE 17","JONESBORO","GA",30236,33.5788826300001,-84.383165774,106,"217 ARROWHEAD BLVD BLDG A-2 STE 17, JONESBORO, GA, 30236","Match","Exact","217 ARROWHEAD BLVD, JONESBORO, GA, 30236",650124222,"R"
118607,"217 ASSEMBLY ST","WAYNESVILLE","NC",28786,35.4915494900001,-82.979294698,107,"217 ASSEMBLY ST, WAYNESVILLE, NC, 28786","Match","Exact","217 ASSEMBLY ST, WAYNESVILLE, NC, 28786",151813676,"R"
118608,"217 BAKER CREEK CT","LA VETA","CO",81055,37.353672696,-105.117060567,108,"217 BAKER CREEK CT, LA VETA, CO, 81055","Match","Non_Exact","217 BAKER CREEK RD, LA VETA, CO, 81055",104311844,"L"
118609,"217 BALTIMORE WAY","DALY CITY","CA",94014,37.708030143,-122.434882571,109,"217 BALTIMORE WAY, DALY CITY, CA, 94014","Match","Exact","217 BALTIMORE WAY, DALY CITY, CA, 94014",645973095,"L"
118610,"217 BAYVIEW ST","SAN RAFAEL","CA",94901,37.96772622,-122.533379798,110,"217 BAYVIEW ST, SAN RAFAEL, CA, 94901","Match","Exact","217 BAYVIEW ST, SAN RAFAEL, CA, 94901",192764618,"L"
118611,"217 BELLEVUE DR","AUMSVILLE","OR",97325,44.840485808,-122.861218396,111,"217 BELLEVUE DR, AUMSVILLE, OR, 97325","Match","Non_Exact","217 BELLEVUE DR SE, AUMSVILLE, OR, 97325",156279567,"L"
118612,"217 BIRCH RIDGE CIRCLE","SAN JOSE","CA",95123,37.249760344,-121.855413851,112,"217 BIRCH RIDGE CIRCLE, SAN JOSE, CA, 95123","Match","Exact","217 BIRCH RIDGE CIR, SAN JOSE, CA, 95123",123177567,"R"
118613,"217 BIRCH TREE CIRCLE","AIKEN","SC",29803,33.4818158310001,-81.720705067,113,"217 BIRCH TREE CIRCLE, AIKEN, SC, 29803","Match","Exact","217 BIRCH TREE CIR, AIKEN, SC, 29803",641133170,"L"
118614,"217 BLUE NEWKIRK RD","MAGNOLIA","NC",28453,34.840405606,-78.0818878869999,114,"217 BLUE NEWKIRK RD, MAGNOLIA, NC, 28453","Match","Exact","217 BLUE NEWKIRK RD, MAGNOLIA, NC, 28453",13441665,"L"
118615,"217 BOUQUET CIR","WINDSOR","CA",95492,38.5407119380001,-122.817465135,115,"217 BOUQUET CIR, WINDSOR, CA, 95492","Match","Exact","217 BOUQUET CIR, WINDSOR, CA, 95492",67533774,"R"
118616,"217 BRENTWOOD DRIVE","ALABASTER","AL",35007,33.249449558,-86.7948794869999,116,"217 BRENTWOOD DRIVE, ALABASTER, AL, 35007","Match","Exact","217 BRENTWOOD DR, ALABASTER, AL, 35007",82115584,"L"
118617,"217 BRIAR CREEK LANE","BOWIE","TX",76230,33.4849004380001,-97.873125128,117,"217 BRIAR CREEK LANE, BOWIE, TX, 76230","Match","Exact","217 BRIAR CREEK LN, BOWIE, TX, 76230",627586983,"L"
118618,"217 BUTLER RD","HODGES","SC",29653,34.235370447,-82.24372422,118,"217 BUTLER RD, HODGES, SC, 29653","Match","Exact","217 BUTLER RD, HODGES, SC, 29653",653316768,"L"
118619,"217 CAMERON DR","TOBYHANNA","PA",18466,41.161981756,-75.351766943,119,"217 CAMERON DR, TOBYHANNA, PA, 18466","Match","Exact","217 CAMERON DR, TOBYHANNA, PA, 18466",136753187,"R"
118620,"217 CAMPBELL ROAD","WEST SUNBURY","PA",16061,41.0050308100001,-79.852553974,120,"217 CAMPBELL ROAD, WEST SUNBURY, PA, 16061","Match","Exact","217 CAMPBELL RD, WEST SUNBURY, PA, 16061",52662708,"R"
118621,"217 CARLILSE AVE","WESTMONT","IL",60559,NA,NA,121,"217 CARLILSE AVE, WESTMONT, IL, 60559","No_Match",NA,NA,NA,NA
118622,"217 CASSVILLE RD","CARTERSVILLE","GA",30120,34.1782797920001,-84.81280893,122,"217 CASSVILLE RD, CARTERSVILLE, GA, 30120","Match","Exact","217 CASSVILLE RD, CARTERSVILLE, GA, 30120",30447172,"R"
118623,"217 CEDAR ST PO BOX 123","SANDPOINT","ID",83864,48.276111524,-116.549082171,123,"217 CEDAR ST PO BOX 123, SANDPOINT, ID, 83864","Match","Exact","217 CEDAR ST, SANDPOINT, ID, 83864",169476243,"L"
118624,"217 CENTRAL AVENUE","HALF MOON BAY","CA",94019,37.459894177,-122.441476265,124,"217 CENTRAL AVENUE, HALF MOON BAY, CA, 94019","Match","Exact","217 CENTRAL AVE, HALF MOON BAY, CA, 94019",604989925,"L"
118625,"217 CENTRE STREET 6TH FLOOR","NEW YORK","NY",10013,40.7194757290001,-73.998783942,125,"217 CENTRE STREET 6TH FLOOR, NEW YORK, NY, 10013","Match","Exact","217 CENTRE ST, NEW YORK, NY, 10013",59653789,"L"
118626,"217 CINNAMON WAY","MAGNOLIA","DE",19962,39.0579403260001,-75.525591001,126,"217 CINNAMON WAY, MAGNOLIA, DE, 19962","Match","Exact","217 CINNAMON WAY, MAGNOLIA, DE, 19962",617129675,"L"
118627,"217 CLEVELAND AVE","HASBROUCK HEIGHTS","NJ",7604,40.8554415290001,-74.081874896,127,"217 CLEVELAND AVE, HASBROUCK HEIGHTS, NJ, 7604","Match","Exact","217 CLEVELAND AVE, HASBROUCK HEIGHTS, NJ, 07604",64396223,"L"
118628,"217 CLIFTON AVENUE SUITE 10","COLLINGDALE","PA",19023,39.9119756220001,-75.277766807,128,"217 CLIFTON AVENUE SUITE 10, COLLINGDALE, PA, 19023","Match","Exact","217 CLIFTON AVE, COLLINGDALE, PA, 19023",134884597,"R"
118629,"217 COMMERCIAL AVE","ASPINWALL","PA",15215,40.4902289560001,-79.904471923,129,"217 COMMERCIAL AVE, ASPINWALL, PA, 15215","Match","Exact","217 COMMERCIAL AVE, ASPINWALL, PA, 15215",51646187,"L"
118630,"217 COMO AVE SUITE 2-100","ST PAUL","MN",55103,44.9616969950001,-93.110927472,130,"217 COMO AVE SUITE 2-100, ST PAUL, MN, 55103","Match","Exact","217 COMO AVE, SAINT PAUL, MN, 55103",97644231,"R"
118631,"217 COUNTRY CLUB PARK / SUITE 514","BIRMINGHAM","AL",35213,33.5029400070001,-86.757233522,131,"217 COUNTRY CLUB PARK / SUITE 514, BIRMINGHAM, AL, 35213","Match","Exact","217 COUNTRY CLUB PARK, BIRMINGHAM, AL, 35213",81746338,"L"
118632,"217 COUNTRY CLUB PARK BOX 555","BIRMINGHAM","AL",35213,33.5029400070001,-86.757233522,132,"217 COUNTRY CLUB PARK BOX 555, BIRMINGHAM, AL, 35213","Match","Exact","217 COUNTRY CLUB PARK, BIRMINGHAM, AL, 35213",81746338,"L"
118633,"217 COUNTY ROAD 2812","MICO","TX",78056,29.5450661140001,-98.836356232,133,"217 COUNTY ROAD 2812, MICO, TX, 78056","Match","Exact","217 CO RD 2812, MICO, TX, 78056",623904749,"L"
118634,"217 COUNTY ROAD 593","KIRBYVILLE","TX",75956,30.6139635480001,-93.913759994,134,"217 COUNTY ROAD 593, KIRBYVILLE, TX, 75956","Match","Exact","217 CO RD 593, KIRBYVILLE, TX, 75956",608761381,"L"
118635,"217 CRANBERRY DRIVE","STUARTS DRAFT","VA",24477,38.018146852,-79.072495271,135,"217 CRANBERRY DRIVE, STUARTS DRAFT, VA, 24477","Match","Exact","217 CRANBERRY DR, STUARTS DRAFT, VA, 24477",98839743,"R"
118636,"217 DAKOTA AVENUE","GLADSTONE","MI",49837,45.8459284940001,-87.008181502,136,"217 DAKOTA AVENUE, GLADSTONE, MI, 49837","Match","Exact","217 DAKOTA AVE, GLADSTONE, MI, 49837",181961165,"R"
118637,"217 DELL RANGE BLVD","CHEYENNE","WY",82009,41.164091204,-104.825623645,137,"217 DELL RANGE BLVD, CHEYENNE, WY, 82009","Match","Exact","217 DELL RANGE BLVD, CHEYENNE, WY, 82009",160148963,"R"
118638,"217 DONELSON HILLS DR","NASHVILLE","TN",37214,36.1697863430001,-86.7009745999999,138,"217 DONELSON HILLS DR, NASHVILLE, TN, 37214","Match","Exact","217 DONELSON HILLS DR, NASHVILLE, TN, 37214",97195228,"L"
118639,"217 DWIGHT ROAD","BURLINGAME","CA",94010,37.583292387,-122.33773032,139,"217 DWIGHT ROAD, BURLINGAME, CA, 94010","Match","Exact","217 DWIGHT RD, BURLINGAME, CA, 94010",192376508,"L"
118640,"217 E 33RD ST APT 1RW","NEW YORK","NY",10016,40.7448524490001,-73.9781039659999,140,"217 E 33RD ST APT 1RW, NEW YORK, NY, 10016","Match","Non_Exact","217 E 33RD ST, NEW YORK, NY, 10016",59654450,"L"
118641,"217 E ALAMEDA AVE SUITE 206","BURBANK","CA",91502,NA,NA,141,"217 E ALAMEDA AVE SUITE 206, BURBANK, CA, 91502","Tie",NA,NA,NA,NA
118642,"217 E BETHESDA RD","BURLESON","TX",76028,32.487734409,-97.276361278,142,"217 E BETHESDA RD, BURLESON, TX, 76028","Match","Exact","217 E BETHESDA RD, BURLESON, TX, 76028",638306215,"L"
118643,"217 E CHERRY AVE","JONESBORO","AR",72401,35.8328148090001,-90.703881872,143,"217 E CHERRY AVE, JONESBORO, AR, 72401","Match","Exact","217 E CHERRY AVE, JONESBORO, AR, 72401",46909538,"L"
118644,"217 E DICKSON STREET SUITE 102","FAYETTEVILLE","AR",72701,NA,NA,144,"217 E DICKSON STREET SUITE 102, FAYETTEVILLE, AR, 72701","Tie",NA,NA,NA,NA
118645,"217 E DIVISION ST","SPARTA","MO",65753,37.004881997,-93.083562268,145,"217 E DIVISION ST, SPARTA, MO, 65753","Match","Exact","217 DIVISION ST, SPARTA, MO, 65753",99810938,"R"
118646,"217 E JOHNSON STREET","CARY","NC",27513,35.793404347,-78.777255009,146,"217 E JOHNSON STREET, CARY, NC, 27513","Match","Exact","217 E JOHNSON ST, CARY, NC, 27513",653478795,"L"
118647,"217 E MAIN STREET","MIDLAND","MI",48640,43.612468216,-84.2445393529999,147,"217 E MAIN STREET, MIDLAND, MI, 48640","Match","Exact","217 E MAIN ST, MIDLAND, MI, 48640",81196590,"R"
118648,"217 E TUSCALOOSA ST","FLORENCE","AL",35630,34.803523096,-87.675995587,148,"217 E TUSCALOOSA ST, FLORENCE, AL, 35630","Match","Exact","217 E TUSCALOOSA ST, FLORENCE, AL, 35630",41321352,"L"
118649,"217 E WARBLER AVE","MCALLEN","TX",78504,26.2690925810001,-98.2073840319999,149,"217 E WARBLER AVE, MCALLEN, TX, 78504","Match","Exact","217 E WARBLER AVE, MCALLEN, TX, 78504",71530437,"L"
118650,"217 E WHITTIER ST","COLUMBUS","OH",43206,39.94455186,-82.99112345,150,"217 E WHITTIER ST, COLUMBUS, OH, 43206","Match","Exact","217 E WHITTIER ST, COLUMBUS, OH, 43206",218646946,"R"
118651,"217 EAST 34TH STREET","TULSA","OK",74105,36.113886157,-95.981792123,151,"217 EAST 34TH STREET, TULSA, OK, 74105","Match","Exact","217 E 34TH ST, TULSA, OK, 74105",166442383,"L"
118652,"217 EAST 96TH STREET 31C","NEW YORK","NY",10128,40.7848539570001,-73.948512153,152,"217 EAST 96TH STREET 31C, NEW YORK, NY, 10128","Match","Exact","217 E 96TH ST, NEW YORK, NY, 10128",650071629,"L"
118653,"217 EAST MAIN STREET","ROCKAWAY","NJ",7866,40.8972553040001,-74.503995286,153,"217 EAST MAIN STREET, ROCKAWAY, NJ, 7866","Match","Exact","217 E MAIN ST, ROCKAWAY, NJ, 07866",60439427,"R"
118654,"217 EFTS LANE","STEUBENVILLE","OH",43953,40.3673363130001,-80.686852163,154,"217 EFTS LANE, STEUBENVILLE, OH, 43953","Match","Exact","217 EFTS LN, STEUBENVILLE, OH, 43953",37815421,"R"
118655,"217 ELKHOUND CT","UNION CITY","GA",30291,33.5475171430001,-84.537395991,155,"217 ELKHOUND CT, UNION CITY, GA, 30291","Match","Exact","217 ELKHOUND CT, UNION CITY, GA, 30291",627314397,"L"
118656,"217 ELLSWORTH AVE","SPRINGFIELD","MA",1118,42.086429996,-72.5311778729999,156,"217 ELLSWORTH AVE, SPRINGFIELD, MA, 1118","Match","Exact","217 ELLSWORTH AVE, SPRINGFIELD, MA, 01118",4037085,"L"
118657,"217 EMAIN STREET PO BOX 017","ROYSE CITY","TX",75189,NA,NA,157,"217 EMAIN STREET PO BOX 017, ROYSE CITY, TX, 75189","No_Match",NA,NA,NA,NA
118658,"217 FELDSPAR STREET","VIRGINIA BEACH","VA",23462,36.8321063230001,-76.144736359,158,"217 FELDSPAR STREET, VIRGINIA BEACH, VA, 23462","Match","Exact","217 FELDSPAR ST, VA BCH, VA, 23462",624832695,"L"
118659,"217 FITZMAURICE STREET","MASSAPEQUA PARK","NY",11762,40.6841386720001,-73.4508293539999,159,"217 FITZMAURICE STREET, MASSAPEQUA PARK, NY, 11762","Match","Exact","217 FITZMAURICE ST, MASSAPEQUA PARK, NY, 11762",147651628,"L"
118660,"217 FORBES AVE","SAN ANSELMO","CA",94960,37.98012041,-122.551435739,160,"217 FORBES AVE, SAN ANSELMO, CA, 94960","Match","Exact","217 FORBES AVE, SAN ANSELMO, CA, 94960",651435248,"L"
118661,"217 FOREST STREET","AMERICUS","GA",31709,32.0699748430001,-84.234901398,161,"217 FOREST STREET, AMERICUS, GA, 31709","Match","Non_Exact","217 FORREST ST, AMERICUS, GA, 31709",624970817,"L"
118662,"217 FOY HALL","AUBURN","AL",36849,NA,NA,162,"217 FOY HALL, AUBURN, AL, 36849","No_Match",NA,NA,NA,NA
118663,"217 FRENCH HILL ROAD","WAYNE","NJ",7470,40.921332842,-74.2441684249999,163,"217 FRENCH HILL ROAD, WAYNE, NJ, 7470","Match","Exact","217 FRENCH HILL RD, WAYNE, NJ, 07470",65258952,"R"
118664,"217 GENERAL SOMERVELL ST NE","ALBUQUERQUE","NM",87123,35.0749272730001,-106.542412906,164,"217 GENERAL SOMERVELL ST NE, ALBUQUERQUE, NM, 87123","Match","Exact","217 GENERAL SOMERVELL ST NE, ALBUQUERQUE, NM, 87123",206719815,"L"
118665,"217 GILKEY SCHOOL RD","RUTHERFORDTON","NC",28139,35.446177533,-81.983179486,165,"217 GILKEY SCHOOL RD, RUTHERFORDTON, NC, 28139","Match","Exact","217 GILKEY SCHOOL RD, RUTHERFORDTON, NC, 28139",19384894,"L"
118666,"217 GRAND CANYON DRIVE  NO 2","MADISON","WI",53705,43.0626688360001,-89.49629791,166,"217 GRAND CANYON DRIVE  NO 2, MADISON, WI, 53705","Match","Non_Exact","217 GRAND CANYON DR, MADISON, WI, 53705",653399467,"L"
118667,"217 GREAT NECK ROAD","WATERFORD","CT",6385,41.3062160800001,-72.1268399969999,167,"217 GREAT NECK ROAD, WATERFORD, CT, 6385","Match","Exact","217 GREAT NECK RD, WATERFORD, CT, 06385",56861540,"R"
118668,"217 GUY AVE","CREWE","VA",23930,37.181585941,-78.123493934,168,"217 GUY AVE, CREWE, VA, 23930","Match","Exact","217 GUY AVE, CREWE, VA, 23930",54371086,"L"
118669,"217 HANSON STREET","FRANKLIN","LA",70538,29.7980157490001,-91.50202082,169,"217 HANSON STREET, FRANKLIN, LA, 70538","Match","Exact","217 HANSON ST, FRANKLIN, LA, 70538",85881004,"L"
118670,"217 HAYES MILL ROAD","ATCO","NJ",8004,39.7622634780001,-74.8922191299999,170,"217 HAYES MILL ROAD, ATCO, NJ, 8004","Match","Exact","217 HAYES MILL RD, ATCO, NJ, 08004",134373450,"L"
118671,"217 HERITAGE CREEK DRIVE","RHOME","TX",76078,33.1861071810001,-97.481336343,171,"217 HERITAGE CREEK DRIVE, RHOME, TX, 76078","Match","Exact","217 HERITAGE CREEK DR, RHOME, TX, 76078",103682947,"R"
118672,"217 HI VIEW RD","RIVERTON","CT",6065,41.973373732,-72.998758822,172,"217 HI VIEW RD, RIVERTON, CT, 6065","Match","Exact","217 HI VIEW RD, RIVERTON, CT, 06065",3526162,"L"
118673,"217 HIGH CREEK DR","ROSWELL","GA",30076,34.0272521680001,-84.323957676,173,"217 HIGH CREEK DR, ROSWELL, GA, 30076","Match","Exact","217 HIGH CREEK DR, ROSWELL, GA, 30076",636350495,"R"
118674,"217 HIGH RIDGE COURT","EASLEY","SC",29642,34.8086611750001,-82.6049368229999,174,"217 HIGH RIDGE COURT, EASLEY, SC, 29642","Match","Exact","217 HIGH RIDGE CT, EASLEY, SC, 29642",26221156,"L"
118675,"217 HOLLY AVE","ELK MOUND","WI",54739,NA,NA,175,"217 HOLLY AVE, ELK MOUND, WI, 54739","Tie",NA,NA,NA,NA
118676,"217 HONEY FORK ROAD","INDIAN MOUND","TN",37058,36.500000782,-87.68905983,176,"217 HONEY FORK ROAD, INDIAN MOUND, TN, 37058","Match","Non_Exact","217 HONEY FORK RD, INDIAN MOUND, TN, 37079",640145671,"R"
118677,"217 HOSTETTER LANE","LANCASTER","PA",17062,40.026791055,-76.254131918,177,"217 HOSTETTER LANE, LANCASTER, PA, 17062","Match","Non_Exact","217 HOSTETTER LN, LANCASTER, PA, 17602",179698456,"R"
118678,"217 HUNT CLUB ROAD","LAFAYETTE","LA",70507,30.2857445670001,-92.085208582,178,"217 HUNT CLUB ROAD, LAFAYETTE, LA, 70507","Match","Exact","217 HUNT CLUB RD, LAFAYETTE, LA, 70507",85610702,"R"
118679,"217 IDAHO STREET","VIRGINIA CITY","MT",59755,NA,NA,179,"217 IDAHO STREET, VIRGINIA CITY, MT, 59755","Tie",NA,NA,NA,NA
118680,"217 JOE LOUIS DRIVE NORTHWEST","ATLANTA","GA",30314,33.7600359080001,-84.460207023,180,"217 JOE LOUIS DRIVE NORTHWEST, ATLANTA, GA, 30314","Match","Exact","217 JOE LOUIS DR NW, ATLANTA, GA, 30314",17339842,"R"
118681,"217 JOE LOUIS DRIVE NW","ATLANTA","GA",30314,33.7600359080001,-84.460207023,181,"217 JOE LOUIS DRIVE NW, ATLANTA, GA, 30314","Match","Exact","217 JOE LOUIS DR NW, ATLANTA, GA, 30314",17339842,"R"
118682,"217 KINGS CREEK ROAD","GEORGETOWN","PA",15043,40.4873899990001,-80.491037249,182,"217 KINGS CREEK ROAD, GEORGETOWN, PA, 15043","Match","Exact","217 KINGS CREEK RD, GEORGETOWN, PA, 15043",52588098,"R"
118683,"217 LAFAYETTE AVENUE","BROOKLYN","NY",11238,40.6879177910001,-73.968414023,183,"217 LAFAYETTE AVENUE, BROOKLYN, NY, 11238","Match","Exact","217 LAFAYETTE AVE, BROOKLYN, NY, 11238",59077939,"L"
118684,"217 LAWSON RD","LORIS","SC",29569,34.0286841330001,-78.934855872,184,"217 LAWSON RD, LORIS, SC, 29569","Match","Exact","217 LAWSON RD, LORIS, SC, 29569",631779409,"L"
118685,"217 LEROY AVE","BUFFALO","NY",14214,42.932866345,-78.837699473,185,"217 LEROY AVE, BUFFALO, NY, 14214","Match","Exact","217 LEROY AVE, BUFFALO, NY, 14214",48296082,"R"
118686,"217 LINDSAY STREET APT 6","HIGH POINT","NC",27262,35.9578588160001,-80.012397949,186,"217 LINDSAY STREET APT 6, HIGH POINT, NC, 27262","Match","Exact","217 LINDSAY ST, HIGH POINT, NC, 27262",131039283,"L"
118687,"217 LONG DRIVE","MCDONOUGH","GA",30253,33.423225309,-84.1581814319999,187,"217 LONG DRIVE, MCDONOUGH, GA, 30253","Match","Exact","217 LONG DR, MCDONOUGH, GA, 30253",632510092,"R"
118688,"217 LORETTA WAY","CALIMESA","CA",92320,34.000893454,-117.034126373,188,"217 LORETTA WAY, CALIMESA, CA, 92320","Match","Exact","217 LORETTA WAY, CALIMESA, CA, 92320",194751541,"R"
118689,"217 MACKENZIE DR","CAMANO ISLAND","WA",98282,48.2194608,-122.466570059,189,"217 MACKENZIE DR, CAMANO ISLAND, WA, 98282","Match","Exact","217 MACKENZIE DR, CAMANO ISLAND, WA, 98282",187615695,"R"
118690,"217 MAIN STREET NUMBER 3","BOSTON","MA",2129,42.3763861400001,-71.0655915629999,190,"217 MAIN STREET NUMBER 3, BOSTON, MA, 2129","Match","Exact","217 MAIN ST, BOSTON, MA, 02129",85697395,"R"
118691,"217 MAIN STREET","HEISLERVILLE","NJ",8324,NA,NA,191,"217 MAIN STREET, HEISLERVILLE, NJ, 8324","No_Match",NA,NA,NA,NA
118692,"217 MARQUIS WAY","MORROW","GA",30260,33.555494137,-84.335593116,192,"217 MARQUIS WAY, MORROW, GA, 30260","Match","Exact","217 MARQUIS WAY, MORROW, GA, 30260",636092309,"R"
118693,"217 MAYFAIR RD","STAR","NC",27356,35.3908966560001,-79.680815642,193,"217 MAYFAIR RD, STAR, NC, 27356","Match","Exact","217 MAYFAIR RD, STAR, NC, 27356",20344604,"L"
118694,"217 MCLENNAN AVE","SYRACUSE","NY",13205,43.0280256980001,-76.149546517,194,"217 MCLENNAN AVE, SYRACUSE, NY, 13205","Match","Exact","217 MCLENNAN AVE, SYRACUSE, NY, 13205",46571631,"L"
118695,"217 MCNARY STREET","MCMURRAY","PA",15317,40.272772488,-80.123331857,195,"217 MCNARY STREET, MCMURRAY, PA, 15317","Match","Exact","217 MCNARY ST, MCMURRAY, PA, 15317",52806019,"R"
118696,"217 MECHANIC STREET","WATERVILLE","OH",43566,41.50057794,-83.718660568,196,"217 MECHANIC STREET, WATERVILLE, OH, 43566","Match","Exact","217 MECHANIC ST, WATERVILLE, OH, 43566",33940076,"R"
118697,"217 MEEHAN AVENUE","PHILADELPHIA","PA",19119,40.057711252,-75.183770715,197,"217 MEEHAN AVENUE, PHILADELPHIA, PA, 19119","Match","Non_Exact","217 E MEEHAN AVE, PHILADELPHIA, PA, 19119",131395189,"L"
118698,"217 MELROSE ROAD","TWIN BRIDGES","MT",58754,NA,NA,198,"217 MELROSE ROAD, TWIN BRIDGES, MT, 58754","No_Match",NA,NA,NA,NA
118699,"217 MOONSTONE ST","MANHATTAN BEACH","CA",90266,33.9036064000001,-118.419776946,199,"217 MOONSTONE ST, MANHATTAN BEACH, CA, 90266","Match","Exact","217 MOONSTONE ST, MANHATTAN BEACH, CA, 90266",642867629,"L"
118700,"217 MORELAND AVE W","WEST ST PAUL","MN",55118,44.9088520190001,-93.0958827279999,200,"217 MORELAND AVE W, WEST ST PAUL, MN, 55118","Match","Exact","217 MORELAND AVE W, W SAINT PAUL, MN, 55118",37915765,"R"
118701,"217 MT VERNON AVENUE","NORTHFIELD","NJ",8225,39.3730731220001,-74.548129247,201,"217 MT VERNON AVENUE, NORTHFIELD, NJ, 8225","Match","Exact","217 MOUNT VERNON AVE, NORTHFIELD, NJ, 08225",202483069,"R"
118702,"217 MURRAY ST","NEW SMYRNA BEACH","FL",32168,29.0281946100001,-80.925791906,202,"217 MURRAY ST, NEW SMYRNA BEACH, FL, 32168","Match","Exact","217 MURRAY ST, NEW SMYRNA BEACH, FL, 32168",94532280,"R"
118703,"217 N DIXON AVENUE","CARY","NC",27513,35.7882001190001,-78.788790674,203,"217 N DIXON AVENUE, CARY, NC, 27513","Match","Exact","217 N DIXON AVE, CARY, NC, 27513",72497766,"L"
118704,"217 N DODGE AVE","WICHITA","KS",67203,37.686548993,-97.3542261759999,204,"217 N DODGE AVE, WICHITA, KS, 67203","Match","Exact","217 N DODGE AVE, WICHITA, KS, 67203",115634841,"L"
118705,"217 N EAST AVE","FAYETTEVILLE","AR",72701,36.0650266380001,-94.1596015119999,205,"217 N EAST AVE, FAYETTEVILLE, AR, 72701","Match","Exact","217 N EAST AVE, FAYETTEVILLE, AR, 72701",49045647,"L"
118706,"217 N ELM PO BOX 377","CRESCO","IA",52136,NA,NA,206,"217 N ELM PO BOX 377, CRESCO, IA, 52136","No_Match",NA,NA,NA,NA
118707,"217 N ELM ST PO BOX 377","CRESCO","IA",52136,NA,NA,207,"217 N ELM ST PO BOX 377, CRESCO, IA, 52136","Tie",NA,NA,NA,NA
118708,"217 N HAMPSHIRE ST","SAGINAW","TX",76179,32.861802991,-97.367915715,208,"217 N HAMPSHIRE ST, SAGINAW, TX, 76179","Match","Exact","217 N HAMPSHIRE ST, SAGINAW, TX, 76179",101854545,"L"
118709,"217 N KIRKMAN ROAD","ORLANDO","FL",32811,28.544248797,-81.45821965,209,"217 N KIRKMAN ROAD, ORLANDO, FL, 32811","Match","Exact","217 N KIRKMAN RD, ORLANDO, FL, 32811",94272552,"R"
118710,"217 N MAIN ST","HILLSBORO","IL",62049,39.164030821,-89.493399876,210,"217 N MAIN ST, HILLSBORO, IL, 62049","Match","Exact","217 N MAIN ST, HILLSBORO, IL, 62049",652615701,"R"
118711,"217 N MAIN ST","WAUPACA","WI",54981,44.359021392,-89.0849303159999,211,"217 N MAIN ST, WAUPACA, WI, 54981","Match","Exact","217 N MAIN ST, WAUPACA, WI, 54981",74957022,"L"
118712,"217 N MAIN STREET SUITE 119","SANTA ANA","CA",92701,NA,NA,212,"217 N MAIN STREET SUITE 119, SANTA ANA, CA, 92701","Tie",NA,NA,NA,NA
118713,"217 N MIDDLESEX RD","CARLISLE","PA",17013,40.2532578920001,-77.1395353889999,213,"217 N MIDDLESEX RD, CARLISLE, PA, 17013","Match","Exact","217 N MIDDLESEX RD, CARLISLE, PA, 17013",221253960,"R"
118714,"217 N OAK STREET","ROANOKE","TX",76262,32.999822942,-97.2285916339999,214,"217 N OAK STREET, ROANOKE, TX, 76262","Match","Exact","217 N OAK ST, ROANOKE, TX, 76262",103342175,"R"
118715,"217 N PEMISCOT ST","HAYTI","MO",63851,36.2343284350001,-89.7589253519999,215,"217 N PEMISCOT ST, HAYTI, MO, 63851","Match","Exact","217 N PEMISCOT ST, HAYTI, MO, 63851",38908844,"L"
118716,"217 N SYCAMORE STREET","SOMONAUK","IL",60552,41.634996389,-88.679907645,216,"217 N SYCAMORE STREET, SOMONAUK, IL, 60552","Match","Exact","217 N SYCAMORE ST, SOMONAUK, IL, 60552",52264222,"R"
118717,"217 N VICKERY LN","MARION","IN",46952,40.5627679450001,-85.640058998,217,"217 N VICKERY LN, MARION, IN, 46952","Match","Exact","217 N VICKERY LN, MARION, IN, 46952",95008737,"L"
118718,"217 NE 4TH ST","DELRAY BEACH","FL",33444,26.4692107870001,-80.0708087739999,218,"217 NE 4TH ST, DELRAY BEACH, FL, 33444","Match","Exact","217 NE 4TH ST, DELRAY BEACH, FL, 33444",115298073,"L"
118719,"217 NOGAL PLACE","EL PASO","TX",79915,31.727558641,-106.36488374,219,"217 NOGAL PLACE, EL PASO, TX, 79915","Match","Exact","217 NOGAL PL, EL PASO, TX, 79915",189350071,"R"
118720,"217 NORTH LARAMIE AVENUE  APT 2","CHICAGO","IL",60644,41.8846074940001,-87.755210282,220,"217 NORTH LARAMIE AVENUE  APT 2, CHICAGO, IL, 60644","Match","Exact","217 N LARAMIE AVE, CHICAGO, IL, 60644",111758191,"R"
118721,"217 NW 8TH AVE SUITE 304","HALLANDALE BEACH","FL",33009,NA,NA,221,"217 NW 8TH AVE SUITE 304, HALLANDALE BEACH, FL, 33009","Tie",NA,NA,NA,NA
118722,"217 OBRIEN RD","RICHMOND","VA",23227,37.6079274190001,-77.4301455569999,222,"217 OBRIEN RD, RICHMOND, VA, 23227","Match","Non_Exact","217 O'BRIEN RD, RICHMOND, VA, 23227",609895337,"R"
118723,"217 OLD DUBLIN RD","PETERBOROUGH","NH",3458,42.87611388,-71.9745545609999,223,"217 OLD DUBLIN RD, PETERBOROUGH, NH, 3458","Match","Exact","217 DUBLIN RD, PETERBOROUGH, NH, 03458",113564478,"R"
118724,"217 OLD EVANS RD","MARTINEZ","GA",30907,33.515820207,-82.100911438,224,"217 OLD EVANS RD, MARTINEZ, GA, 30907","Match","Exact","217 OLD EVANS RD, MARTINEZ, GA, 30907",55374549,"L"
118725,"217 OLD STREET","MONROE","OH",45050,39.441063178,-84.361282987,225,"217 OLD STREET, MONROE, OH, 45050","Match","Exact","217 OLD ST, MONROE, OH, 45050",113800163,"R"
118726,"217 OLIVER AVENUE","TRENTON","NJ",8618,40.2397982780001,-74.7799281969999,226,"217 OLIVER AVENUE, TRENTON, NJ, 8618","Match","Exact","217 OLIVER AVE, TRENTON, NJ, 08618",60177900,"L"
118727,"217 ORLANDO AVE","GLOUCESTER CITY","NJ",8030,39.8901529400001,-75.106855421,227,"217 ORLANDO AVE, GLOUCESTER CITY, NJ, 8030","Match","Exact","217 ORLANDO AVE, GLOUCESTER CITY, NJ, 08030",134348728,"R"
118728,"217 PALOMINO STREET","RIO GRANDE CITY","TX",78582,26.3094806240001,-98.6374131699999,228,"217 PALOMINO STREET, RIO GRANDE CITY, TX, 78582","Match","Exact","217 PALOMINO ST, RIO GRANDE CITY, TX, 78582",72189954,"L"
118729,"217 PAQCOLET DRIVE","SIMPSONVILLE","SC",29681,34.7965574730001,-82.172333475,229,"217 PAQCOLET DRIVE, SIMPSONVILLE, SC, 29681","Match","Exact","217 PAQCOLET DR, SIMPSONVILLE, SC, 29681",637568100,"L"
118730,"217 PENNSYLVANIA","WEBSTER","TX",77598,29.534875352,-95.117101905,230,"217 PENNSYLVANIA, WEBSTER, TX, 77598","Match","Non_Exact","217 PENNSYLVANIA ST, WEBSTER, TX, 77598",96589397,"R"
118731,"217 PIAVE STREET","LAFAYETTE","LA",70501,30.231199114,-91.99838003,231,"217 PIAVE STREET, LAFAYETTE, LA, 70501","Match","Exact","217 PIAVE ST, LAFAYETTE, LA, 70501",85617350,"L"
118732,"217 PINE MEADOW DR","BELDING","MI",48809,43.107160268,-85.22967295,232,"217 PINE MEADOW DR, BELDING, MI, 48809","Match","Exact","217 PINE MEADOW DR, BELDING, MI, 48809",618229446,"R"
118733,"217 PINEHAVEN DRIVE","LAGRANGE","GA",30240,33.041647138,-85.09144889,233,"217 PINEHAVEN DRIVE, LAGRANGE, GA, 30240","Match","Exact","217 PINEHAVEN DR, LAGRANGE, GA, 30240",638952212,"L"
118734,"217 POLAR ROCK","ATLANTA","GA",30318,NA,NA,234,"217 POLAR ROCK, ATLANTA, GA, 30318","No_Match",NA,NA,NA,NA
118735,"217 PRICE ROAD","JONESBOROUGH","TN",37659,36.3521797400001,-82.476681024,235,"217 PRICE ROAD, JONESBOROUGH, TN, 37659","Match","Exact","217 PRICE RD, JONESBOROUGH, TN, 37659",127918643,"L"
118736,"217 RANSOM TRCE","GEORGETOWN","KY",40324,38.195454693,-84.5730534589999,236,"217 RANSOM TRCE, GEORGETOWN, KY, 40324","Match","Exact","217 RANSOM TRCE, GEORGETOWN, KY, 40324",631707837,"R"
118737,"217 RIDGE STREET","LOCUST GROVE","GA",30248,33.3417816790001,-84.108450417,237,"217 RIDGE STREET, LOCUST GROVE, GA, 30248","Match","Exact","217 RIDGE ST, LOCUST GROVE, GA, 30248",23211258,"R"
118738,"217 ROSEMAN WAY","WOODSTOCK","GA",30188,34.0842271770001,-84.47093403,238,"217 ROSEMAN WAY, WOODSTOCK, GA, 30188","Match","Exact","217 ROSEMAN WAY, WOODSTOCK, GA, 30188",624540195,"L"
118739,"217 ROUSE RD","DICKSON","TN",37055,36.1064313970001,-87.405826022,239,"217 ROUSE RD, DICKSON, TN, 37055","Match","Exact","217 ROUSE RD, DICKSON, TN, 37055",72761314,"L"
118740,"217 RUTHERFORD COURT NW","ROANOKE","VA",24016,37.278968026,-79.9426978609999,240,"217 RUTHERFORD COURT NW, ROANOKE, VA, 24016","Match","Exact","217 RUTHERFORD CT NW, ROANOKE, VA, 24016",62905384,"L"
118741,"217 S 3RD ST","SHARPSVILLE","PA",16150,41.2600599090001,-80.478124661,241,"217 S 3RD ST, SHARPSVILLE, PA, 16150","Match","Exact","217 S 3RD ST, SHARPSVILLE, PA, 16150",70654090,"L"
118742,"217 S 4TH ST","FESTUS","MO",63028,38.2172764060001,-90.391777696,242,"217 S 4TH ST, FESTUS, MO, 63028","Match","Exact","217 S 4TH ST, FESTUS, MO, 63028",636778328,"R"
118743,"217 S 9TH AVE","CALDWELL","ID",83605,43.664543043,-116.687439807,243,"217 S 9TH AVE, CALDWELL, ID, 83605","Match","Exact","217 S 9TH AVE, CALDWELL, ID, 83605",122780373,"R"
118744,"217 S CHURCH ST","BOWLING GREEN","OH",43402,41.372385321,-83.65205041,244,"217 S CHURCH ST, BOWLING GREEN, OH, 43402","Match","Exact","217 S CHURCH ST, BOWLING GREEN, OH, 43402",38719575,"R"
118745,"217 S ELM","FRANKLIN GROVE","IL",61031,41.838500643,-89.299516304,245,"217 S ELM, FRANKLIN GROVE, IL, 61031","Match","Non_Exact","217 S ELM ST, FRANKLIN GROVE, IL, 61031",48745280,"L"
118746,"217 S HARPER AVE","SPRINGFIELD","MO",65802,37.208315557,-93.354024957,246,"217 S HARPER AVE, SPRINGFIELD, MO, 65802","Match","Exact","217 S HARPER AVE, SPRINGFIELD, MO, 65802",76708130,"R"
118747,"217 S JEFFERSON AVE","ELK CITY","OK",73644,NA,NA,247,"217 S JEFFERSON AVE, ELK CITY, OK, 73644","Tie",NA,NA,NA,NA
118748,"217 S MAFFIT","DECATUR","IL",62521,39.840272306,-88.94499776,248,"217 S MAFFIT, DECATUR, IL, 62521","Match","Non_Exact","217 S MAFFIT ST, DECATUR, IL, 62521",20747302,"R"
118749,"217 S MAIN STREET","WINCHESTER","KY",40391,37.9900223870001,-84.1787103139999,249,"217 S MAIN STREET, WINCHESTER, KY, 40391","Match","Exact","217 S MAIN ST, WINCHESTER, KY, 40391",31793329,"R"
118750,"217 S MAPLE AVE","MARTINSBURG","WV",25401,39.4564246030001,-77.96655507,250,"217 S MAPLE AVE, MARTINSBURG, WV, 25401","Match","Exact","217 S MAPLE AVE, MARTINSBURG, WV, 25401",123379995,"L"
118751,"217 S PETERS ROAD","KNOXVILLE","TN",37923,35.9092991030001,-84.0797789229999,251,"217 S PETERS ROAD, KNOXVILLE, TN, 37923","Match","Exact","217 S PETERS RD, KNOXVILLE, TN, 37923",653291145,"R"
118752,"217 S WATER ST E APT 2","FORT ATKINSON","WI",53538,42.927424343,-88.833593572,252,"217 S WATER ST E APT 2, FORT ATKINSON, WI, 53538","Match","Non_Exact","217 S WATER ST E, FORT ATKINSON, WI, 53538",53216371,"R"
118753,"217 SADDLEBROOK AVE","PICKENS","SC",29671,34.8521583420001,-82.69542289,253,"217 SADDLEBROOK AVE, PICKENS, SC, 29671","Match","Exact","217 SADDLEBROOK AVE, PICKENS, SC, 29671",26183599,"L"
118754,"217 SCHOLL ROAD","STATE COLLEGE","PA",16801,NA,NA,254,"217 SCHOLL ROAD, STATE COLLEGE, PA, 16801","No_Match",NA,NA,NA,NA
118755,"217 SEATON PLACE NE","WASHINGTON","DC",20002,38.914818671,-77.0031850029999,255,"217 SEATON PLACE NE, WASHINGTON, DC, 20002","Match","Exact","217 SEATON PL NE, WASHINGTON, DC, 20002",76228626,"R"
118756,"217 SEBASTIAN LANE","GEORGETOWN","TX",78633,30.710575052,-97.796756273,256,"217 SEBASTIAN LANE, GEORGETOWN, TX, 78633","Match","Exact","217 SEBASTIAN LN, GEORGETOWN, TX, 78633",636381822,"R"
118757,"217 SEMINOLE DRIVE","ORMOND BEACH","FL",32174,29.265292905,-81.109198046,257,"217 SEMINOLE DRIVE, ORMOND BEACH, FL, 32174","Match","Exact","217 SEMINOLE DR, ORMOND BEACH, FL, 32174",94515954,"L"
118758,"217 SHELTON DR","HELENA","AR",72342,34.52346614,-90.616580321,258,"217 SHELTON DR, HELENA, AR, 72342","Match","Exact","217 SHELTON DR, HELENA, AR, 72342",12311753,"R"
118759,"217 SHUYER AVENUE","NEWARK","NJ",7112,NA,NA,259,"217 SHUYER AVENUE, NEWARK, NJ, 7112","No_Match",NA,NA,NA,NA
118760,"217 SIDNEY DR","GLENN HEIGHTS","TX",75154,32.563916636,-96.8538353019999,260,"217 SIDNEY DR, GLENN HEIGHTS, TX, 75154","Match","Exact","217 SIDNEY DR, GLENN HEIGHTS, TX, 75154",103184991,"L"
118761,"217 SOUTH MAIN STREET","EDWARDSVILLE","IL",62025,38.810016127,-89.955326429,261,"217 SOUTH MAIN STREET, EDWARDSVILLE, IL, 62025","Match","Exact","217 S MAIN ST, EDWARDSVILLE, IL, 62025",107689900,"R"
118762,"217 SOUTHERN WOODS DR","S CHARLESTON","WV",25309,38.3222952250001,-81.728771676,262,"217 SOUTHERN WOODS DR, S CHARLESTON, WV, 25309","Match","Exact","217 SOUTHERN WOODS DR, S CHARLESTON, WV, 25309",78620741,"R"
118763,"217 STEVENS ROAD","ST SIMONS ISLAND","GA",31522,31.216473568,-81.392448698,263,"217 STEVENS ROAD, ST SIMONS ISLAND, GA, 31522","Match","Exact","217 STEVENS RD, ST SIMONS ISLAND, GA, 31522",653449472,"L"
118764,"217 SYGAN ROAD","MCDONALD","PA",15057,40.361384947,-80.147340609,264,"217 SYGAN ROAD, MCDONALD, PA, 15057","Match","Non_Exact","217 SYGAN RD, MC DONALD, PA, 15057",652295116,"L"
118765,"217 TALAHI ROAD SE","VIENNA","VA",22180,38.8984836220001,-77.2555083509999,265,"217 TALAHI ROAD SE, VIENNA, VA, 22180","Match","Exact","217 TALAHI RD SE, VIENNA, VA, 22180",75970685,"R"
118766,"217 THOMAS STREET","HAMLET","NC",28345,34.8790168520001,-79.702735161,266,"217 THOMAS STREET, HAMLET, NC, 28345","Match","Exact","217 THOMAS ST, HAMLET, NC, 28345",13941651,"R"
118767,"217 TOWER AVENUE","HARTFORD","CT",6120,41.797980846,-72.6725917319999,267,"217 TOWER AVENUE, HARTFORD, CT, 6120","Match","Exact","217 TOWER AVE, HARTFORD, CT, 06120",3489414,"L"
118768,"217 TRIBUTARY COURT","MACON","GA",31206,32.801277597,-83.6960371499999,268,"217 TRIBUTARY COURT, MACON, GA, 31206","Match","Exact","217 TRIBUTARY CT, MACON, GA, 31206",650744314,"R"
118769,"217 TWISTED OAK DRIVE","SAVANNAH","GA",31419,32.0293381170001,-81.253001589,269,"217 TWISTED OAK DRIVE, SAVANNAH, GA, 31419","Match","Exact","217 TWISTED OAK DR, SAVANNAH, GA, 31419",641580833,"L"
118770,"217 URQUHART STREET","LAKE WORTH","FL",33461,26.615359396,-80.1110936489999,270,"217 URQUHART STREET, LAKE WORTH, FL, 33461","Match","Exact","217 URQUHART ST, LAKE WORTH, FL, 33461",115500895,"R"
118771,"217 USEPPA ISLAND","BOKEELIA","FL",33922,NA,NA,271,"217 USEPPA ISLAND, BOKEELIA, FL, 33922","No_Match",NA,NA,NA,NA
118772,"217 VIRGINIA AVENUE NE  NUMBER 14","WARROAD","MN",56763,48.9070850510001,-95.3115681419999,272,"217 VIRGINIA AVENUE NE  NUMBER 14, WARROAD, MN, 56763","Match","Exact","217 VIRGINIA AVE NE, WARROAD, MN, 56763",176591870,"R"
118773,"217 W 140TH ST","NEW YORK","NY",10030,40.8187403200001,-73.94201014,273,"217 W 140TH ST, NEW YORK, NY, 10030","Match","Exact","217 W 140TH ST, NEW YORK, NY, 10030",59656295,"R"
118774,"217 W 16TH STREET 2ND FLOOR","LINDEN","NJ",7036,40.621200351,-74.24062953,274,"217 W 16TH STREET 2ND FLOOR, LINDEN, NJ, 7036","Match","Non_Exact","217 W 16TH ST, LINDEN, NJ, 07036",60563080,"L"
118775,"217 W 19TH STREET","STUTTGART","AR",72160,34.4848335670001,-91.554710648,275,"217 W 19TH STREET, STUTTGART, AR, 72160","Match","Exact","217 W 19TH ST, STUTTGART, AR, 72160",11961375,"L"
118776,"217 W 40TH ST","READING","PA",19606,40.31140291,-75.873975171,276,"217 W 40TH ST, READING, PA, 19606","Match","Exact","217 W 40TH ST, READING, PA, 19606",80407785,"L"
118777,"217 W AVENUE D","ROSEBUD","TX",76570,31.076513451,-96.973892437,277,"217 W AVENUE D, ROSEBUD, TX, 76570","Match","Exact","217 AVE D, ROSEBUD, TX, 76570",24844203,"R"
118778,"217 W B ST","MCCOOK","NE",69001,40.1986589530001,-100.627544231,278,"217 W B ST, MCCOOK, NE, 69001","Match","Exact","217 W B ST, MCCOOK, NE, 69001",164133513,"R"
118779,"217 W CARTER AVE","BLACKSHEAR","GA",31516,31.3115281990001,-82.2476585639999,279,"217 W CARTER AVE, BLACKSHEAR, GA, 31516","Match","Exact","217 CARTER AVE, BLACKSHEAR, GA, 31516",4605101,"R"
118780,"217 W CHESTNUT ST","CHILLICOTHE","IL",61523,40.918293379,-89.485205567,280,"217 W CHESTNUT ST, CHILLICOTHE, IL, 61523","Match","Exact","217 W CHESTNUT ST, CHILLICOTHE, IL, 61523",8705469,"R"
118781,"217 W INTERSTATE 30 APT 101","GARLAND","TX",75043,NA,NA,281,"217 W INTERSTATE 30 APT 101, GARLAND, TX, 75043","No_Match",NA,NA,NA,NA
118782,"217 W KIDDER ST","VERMILLION","SD",57069,42.7783392580001,-96.935490825,282,"217 W KIDDER ST, VERMILLION, SD, 57069","Match","Exact","217 W KIDDER ST, VERMILLION, SD, 57069",172955695,"R"
118783,"217 W MAIN ST","LOUISA","VA",23093,38.02520701,-78.003543456,283,"217 W MAIN ST, LOUISA, VA, 23093","Match","Exact","217 W MAIN ST, LOUISA, VA, 23093",84919566,"R"
118784,"217 W MCCABE","PAGOSA SPRINGS","CO",81147,NA,NA,284,"217 W MCCABE, PAGOSA SPRINGS, CO, 81147","No_Match",NA,NA,NA,NA
118785,"217 W MCNEELY AVE","MOORESVILLE","NC",28115,35.5891825690001,-80.8023605229999,285,"217 W MCNEELY AVE, MOORESVILLE, NC, 28115","Match","Exact","217 W MCNEELY AVE, MOORESVILLE, NC, 28115",45993108,"R"
118786,"217 W PHILLIPS AVE","ENID","OK",73701,36.448892293,-97.8800656079999,286,"217 W PHILLIPS AVE, ENID, OK, 73701","Match","Exact","217 W PHILLIPS AVE, ENID, OK, 73701",154092341,"L"
118787,"217 W SAN PATRICIO AVENUE","MATHIS","TX",78368,28.095194314,-97.829537838,287,"217 W SAN PATRICIO AVENUE, MATHIS, TX, 78368","Match","Exact","217 W SAN PATRICIO AVE, MATHIS, TX, 78368",36319387,"L"
118788,"217 W WATER ST UNIT 2","DECORAH","IA",52101,NA,NA,288,"217 W WATER ST UNIT 2, DECORAH, IA, 52101","Tie",NA,NA,NA,NA
118789,"217 WAKELEE AVE","ANSONIA","CT",6401,41.3468392010001,-73.09084139,289,"217 WAKELEE AVE, ANSONIA, CT, 6401","Match","Exact","217 WAKELEE AVE, ANSONIA, CT, 06401",3733844,"L"
118790,"217 WALNUT HILL DRIVE","RICHMOND","KY",40475,37.723471116,-84.3313725199999,290,"217 WALNUT HILL DRIVE, RICHMOND, KY, 40475","Match","Exact","217 WALNUT HILL DR, RICHMOND, KY, 40475",31986329,"L"
118791,"217 WASHAKIE DR","EVANSTON","WY",82930,41.244802706,-110.940785408,291,"217 WASHAKIE DR, EVANSTON, WY, 82930","Match","Exact","217 WASHAKIE DR, EVANSTON, WY, 82930",160264864,"R"
118792,"217 WASHINGTON STREET","CEDAR FALLS","IA",50613,42.5366837810001,-92.446796267,292,"217 WASHINGTON STREET, CEDAR FALLS, IA, 50613","Match","Exact","217 WASHINGTON ST, CEDAR FALLS, IA, 50613",77248313,"R"
118793,"217 WATER OAK DRIVE","CEDAR PARK","TX",78613,30.513195339,-97.804198534,293,"217 WATER OAK DRIVE, CEDAR PARK, TX, 78613","Match","Exact","217 WATER OAK DR, CEDAR PARK, TX, 78613",126476900,"L"
118794,"217 WEDGEWOOD AVE","LOS GATOS","CA",95032,37.2621700170001,-121.981947531,294,"217 WEDGEWOOD AVE, LOS GATOS, CA, 95032","Match","Exact","217 WEDGEWOOD AVE, LOS GATOS, CA, 95032",122919730,"R"
118795,"217 WEST 127TH STREET APT 10H","NEW YORK","NY",10027,40.8104341050001,-73.947722235,295,"217 WEST 127TH STREET APT 10H, NEW YORK, NY, 10027","Match","Exact","217 W 127TH ST, NEW YORK, NY, 10027",609298122,"R"
118796,"217 WEST B STREET","ONTARIO","CA",91762,34.0645805290001,-117.652656214,296,"217 WEST B STREET, ONTARIO, CA, 91762","Match","Exact","217 W B ST, ONTARIO, CA, 91762",144675694,"L"
118797,"217 WEST BENTWOOD CT","ALBANY","NY",12203,42.688880538,-73.883932838,297,"217 WEST BENTWOOD CT, ALBANY, NY, 12203","Match","Exact","217 W BENTWOOD CT, ALBANY, NY, 12203",18303496,"R"
118798,"217 WEST BOBWHITE LANE","HARKER HEIGHTS","TX",76548,31.084794317,-97.672282944,298,"217 WEST BOBWHITE LANE, HARKER HEIGHTS, TX, 76548","Match","Exact","217 W BOBWHITE LN, HARKER HEIGHTS, TX, 76548",146191431,"R"
118799,"217 WEST MAIN","LAFAYETTE","LA",70502,NA,NA,299,"217 WEST MAIN, LAFAYETTE, LA, 70502","No_Match",NA,NA,NA,NA
118800,"217 WEST ORCHARD STREET","CHEBANSE","IL",60922,41.004882751,-87.911274835,300,"217 WEST ORCHARD STREET, CHEBANSE, IL, 60922","Match","Non_Exact","217 ORCHARD ST, CHEBANSE, IL, 60922",98357032,"L"
118801,"217 WILLIAMSBURG LANE","WADESBORO","NC",28170,34.956720584,-80.066800997,301,"217 WILLIAMSBURG LANE, WADESBORO, NC, 28170","Match","Exact","217 WILLIAMSBURG LN, WADESBORO, NC, 28170",12781698,"L"
118802,"217 WILLOW STREET","NASHVILLE","TN",37210,36.1547801130001,-86.753691942,302,"217 WILLOW STREET, NASHVILLE, TN, 37210","Match","Exact","217 WILLOW ST, NASHVILLE, TN, 37210",97189336,"R"
118803,"217-04 NORTHERN BLVD 12","BAYSIDE","NY",11361,40.760962174,-73.7646639339999,303,"217-04 NORTHERN BLVD 12, BAYSIDE, NY, 11361","Match","Exact","217-4 NORTHERN BLVD, BAYSIDE, NY, 11361",59703547,"R"
118804,"217-08 36 AVENUE","BAYSIDE","NY",11361,40.7690846350001,-73.766960399,304,"217-08 36 AVENUE, BAYSIDE, NY, 11361","Match","Exact","217-8 36TH AVE, BAYSIDE, NY, 11361",59703143,"R"
118805,"217-36 100TH AVENUE","QUEENS VILLAGE","NY",11429,40.7152766520001,-73.740092582,305,"217-36 100TH AVENUE, QUEENS VILLAGE, NY, 11429","Match","Exact","217-36 100TH AVE, QUEENS VILLAGE, NY, 11429",59718314,"R"
118806,"2170 12TH STREET","IDAHO FALLS","ID",83404,43.4873391460001,-111.991255244,306,"2170 12TH STREET, IDAHO FALLS, ID, 83404","Match","Exact","2170 12TH ST, IDAHO FALLS, ID, 83404",119184172,"L"
118807,"2170 ALPINE DR","WEST LINN","OR",97068,45.357129796,-122.654213747,307,"2170 ALPINE DR, WEST LINN, OR, 97068","Match","Exact","2170 ALPINE DR, WEST LINN, OR, 97068",157981869,"L"
118808,"2170 CANDICE AVENUE","ROSAMOND","CA",93560,34.855488805,-118.169739263,308,"2170 CANDICE AVENUE, ROSAMOND, CA, 93560","Match","Exact","2170 CANDICE AVE, ROSAMOND, CA, 93560",109424122,"L"
118809,"2170 CLEVELAND AVENUE","FORT MYERS","FL",33909,26.6375216210001,-81.8727179919999,309,"2170 CLEVELAND AVENUE, FORT MYERS, FL, 33909","Match","Non_Exact","2170 CLEVELAND AVE, FORT MYERS, FL, 33901",118020162,"R"
118810,"2170 COPPER TRAIL LN","BUFORD","GA",30519,34.077217896,-83.97308666,310,"2170 COPPER TRAIL LN, BUFORD, GA, 30519","Match","Exact","2170 COPPER TRAIL LN, BUFORD, GA, 30519",627273668,"L"
118811,"2170 CRESCENT STREET","ASTORIA","NY",11105,NA,NA,311,"2170 CRESCENT STREET, ASTORIA, NY, 11105","No_Match",NA,NA,NA,NA
118812,"2170 FOURTH AVENUE","SAN DIEGO","CA",92101,32.7279176500001,-117.161180826,312,"2170 FOURTH AVENUE, SAN DIEGO, CA, 92101","Match","Exact","2170 4TH AVE, SAN DIEGO, CA, 92101",195343467,"L"
118813,"2170 GILBERT AVE SUITE 300","CINCINNATI","OH",45206,39.120364464,-84.494403281,313,"2170 GILBERT AVE SUITE 300, CINCINNATI, OH, 45206","Match","Exact","2170 GILBERT AVE, CINCINNATI, OH, 45206",103926155,"R"
118814,"2170 GUS THOMASSON RD","MESQUITE","TX",75150,32.7947396280001,-96.633994915,314,"2170 GUS THOMASSON RD, MESQUITE, TX, 75150","Match","Exact","2170 GUS THOMASSON RD, MESQUITE, TX, 75150",103268073,"L"
118815,"2170 JOSHUA LN","SUFFOLK","VA",23434,36.7706582440001,-76.651334929,315,"2170 JOSHUA LN, SUFFOLK, VA, 23434","Match","Exact","2170 JOSHUA LN, SUFFOLK, VA, 23434",122221759,"R"
118816,"2170 KNIGHTSBRIDGE WAY","ALPHARETTA","GA",30004,34.0822967880001,-84.3362408529999,316,"2170 KNIGHTSBRIDGE WAY, ALPHARETTA, GA, 30004","Match","Exact","2170 KNIGHTSBRIDGE WAY, ALPHARETTA, GA, 30004",17382603,"L"
118817,"2170 KNOX MCRAE DRIVE APT 38","TITUSVILLE","FL",32780,28.571983217,-80.827702222,317,"2170 KNOX MCRAE DRIVE APT 38, TITUSVILLE, FL, 32780","Match","Exact","2170 KNOX MCRAE DR, TITUSVILLE, FL, 32780",93891009,"R"
118818,"2170 N PATRICIA LN","BOISE","ID",83704,43.6246407790001,-116.298693897,318,"2170 N PATRICIA LN, BOISE, ID, 83704","Match","Non_Exact","2170 N PATRICIA AVE, BOISE, ID, 83704",117857278,"R"
118819,"2170 NE HANCOCK UNIT 304","PORTLAND","OR",97212,NA,NA,319,"2170 NE HANCOCK UNIT 304, PORTLAND, OR, 97212","No_Match",NA,NA,NA,NA
118820,"2170 NW 85TH AVE","SUNRISE","FL",33322,26.1526822370001,-80.2628424819999,320,"2170 NW 85TH AVE, SUNRISE, FL, 33322","Match","Exact","2170 NW 85TH AVE, SUNRISE, FL, 33322",114703563,"R"
118821,"2170 PACIFIC AVE  APT B","COSTA MESA","CA",92627,33.6531577910001,-117.94682302,321,"2170 PACIFIC AVE  APT B, COSTA MESA, CA, 92627","Match","Exact","2170 PACIFIC AVE, COSTA MESA, CA, 92627",623832858,"R"
118822,"2170 PEREGRINE COURT","GRAND JUNCTION","CO",81501,39.071234395,-108.650163357,322,"2170 PEREGRINE COURT, GRAND JUNCTION, CO, 81501","Match","Non_Exact","2170 PEREGRINE CT, GRAND JCT, CO, 81507",633108951,"R"
118823,"2170 ROBINHOOD ST","SARASOTA","FL",34231,27.2947967800001,-82.528732824,323,"2170 ROBINHOOD ST, SARASOTA, FL, 34231","Match","Exact","2170 ROBINHOOD ST, SARASOTA, FL, 34231",16352012,"R"
118824,"2170 ROUTE 125","CORNWALL","VT",5753,43.998303574,-73.224747279,324,"2170 ROUTE 125, CORNWALL, VT, 5753","Match","Non_Exact","2170 STATE RTE 125, CORNWALL, VT, 05753",136456568,"L"
118825,"2170 SATELLITE BLVD SUITE 175","DULUTH","GA",30097,33.984670512,-84.0924901349999,325,"2170 SATELLITE BLVD SUITE 175, DULUTH, GA, 30097","Match","Exact","2170 SATELLITE BLVD, DULUTH, GA, 30097",644928312,"R"
118826,"2170 SHACKELFORD LANE","BILLINGS","MT",59101,45.733062719,-108.586442504,326,"2170 SHACKELFORD LANE, BILLINGS, MT, 59101","Match","Exact","2170 SHACKELFORD LN, BILLINGS, MT, 59101",181487166,"R"
118827,"2170 TRAWOOD DRIVE APT 304","EL PASO","TX",79935,31.7653385150001,-106.32628354,327,"2170 TRAWOOD DRIVE APT 304, EL PASO, TX, 79935","Match","Exact","2170 TRAWOOD DR, EL PASO, TX, 79935",189348752,"R"
118828,"2170 WHITCOMB STREET","GARY","IN",46404,41.5794235560001,-87.385161293,328,"2170 WHITCOMB STREET, GARY, IN, 46404","Match","Exact","2170 WHITCOMB ST, GARY, IN, 46404",98425318,"R"
118829,"2170 WHITEHEAD ROAD","CHOUDRANT","LA",71227,32.599860849,-92.478927835,329,"2170 WHITEHEAD ROAD, CHOUDRANT, LA, 71227","Match","Exact","2170 WHITEHEAD RD, CHOUDRANT, LA, 71227",635300335,"L"
118830,"21700 FRAZER AVE","SOUTHFIELD","MI",48075,42.454057558,-83.2554748049999,330,"21700 FRAZER AVE, SOUTHFIELD, MI, 48075","Match","Exact","21700 FRAZER AVE, SOUTHFIELD, MI, 48075",69777760,"R"
118831,"21700 GREENFIELD RD SUITE 125","OAK PARK","MI",48237,42.4543523670001,-83.200807605,331,"21700 GREENFIELD RD SUITE 125, OAK PARK, MI, 48237","Match","Exact","21700 GREENFIELD RD, OAK PARK, MI, 48237",69815725,"R"
118832,"21700 OXNARD ST STE 2030","WOODLAND HILLS","CA",91367,34.17916137,-118.60173995,332,"21700 OXNARD ST STE 2030, WOODLAND HILLS, CA, 91367","Match","Exact","21700 OXNARD ST, WOODLAND HILLS, CA, 91367",141535227,"L"
118833,"21700 OXNARD STREET SUITE 950","WOODLAND HILLS","CA",91367,34.17916137,-118.60173995,333,"21700 OXNARD STREET SUITE 950, WOODLAND HILLS, CA, 91367","Match","Exact","21700 OXNARD ST, WOODLAND HILLS, CA, 91367",141535227,"L"
118834,"21700 SPRINGFIELD ROAD","SONORA","CA",95370,38.012151811,-120.417598964,334,"21700 SPRINGFIELD ROAD, SONORA, CA, 95370","Match","Exact","21700 SPRINGFIELD RD, SONORA, CA, 95370",101383295,"L"
118835,"21700 VALLEY RANCH CROSSING DRIVE","PORTER","TX",77365,30.120698061,-95.232541582,335,"21700 VALLEY RANCH CROSSING DRIVE, PORTER, TX, 77365","Match","Exact","21700 VALLEY RANCH CROSSING DR, PORTER, TX, 77365",627676843,"L"
118836,"21701 MARTINSBURG RD","BORDEN","IN",47106,38.4590523530001,-85.977035394,336,"21701 MARTINSBURG RD, BORDEN, IN, 47106","Match","Exact","21701 MARTINSBURG RD, BORDEN, IN, 47106",64902196,"R"
118837,"21702 COMSTOCK CIRCLE","STERLING","VA",20164,39.015329073,-77.382282027,337,"21702 COMSTOCK CIRCLE, STERLING, VA, 20164","Match","Exact","21702 COMSTOCK CIR, STERLING, VA, 20164",62340000,"L"
118838,"21703 MUESCHKE ROAD","TOMBALL","TX",77377,30.0771039140001,-95.736087991,338,"21703 MUESCHKE ROAD, TOMBALL, TX, 77377","Match","Exact","21703 MUESCHKE RD, TOMBALL, TX, 77377",625392222,"L"
118839,"21704 DEVONSHIRE ST   UNIT 255","CHATSWORTH","CA",91311,34.2572255900001,-118.601926127,339,"21704 DEVONSHIRE ST   UNIT 255, CHATSWORTH, CA, 91311","Match","Exact","21704 DEVONSHIRE ST, CHATSWORTH, CA, 91311",141531971,"L"
118840,"21706 CASCADE HOLLOW LN","SPRING","TX",77379,30.082577674,-95.523204386,340,"21706 CASCADE HOLLOW LN, SPRING, TX, 77379","Match","Exact","21706 CASCADE HOLLOW LN, SPRING, TX, 77379",627642360,"L"
118841,"21706 OAKFORT AVE","CARSON","CA",90745,33.8305783870001,-118.240459717,341,"21706 OAKFORT AVE, CARSON, CA, 90745","Match","Exact","21706 OAKFORT AVE, CARSON, CA, 90745",141682196,"L"
118842,"21707 RICHMOND ROAD","MATTESON","IL",60443,41.4954522250001,-87.714906044,342,"21707 RICHMOND ROAD, MATTESON, IL, 60443","Match","Exact","21707 RICHMOND RD, MATTESON, IL, 60443",111708507,"L"
118843,"21708 BREEZY POINT BLVD","BREEZY POINT","NY",11697,NA,NA,343,"21708 BREEZY POINT BLVD, BREEZY POINT, NY, 11697","No_Match",NA,NA,NA,NA
118844,"21708 MAXHAM MEADOW WAY","WOODSTOCK","VT",5091,NA,NA,344,"21708 MAXHAM MEADOW WAY, WOODSTOCK, VT, 5091","No_Match",NA,NA,NA,NA
118845,"21709 FERRERO PARKWAY","WALNUT","CA",91789,34.026854961,-117.834703555,345,"21709 FERRERO PARKWAY, WALNUT, CA, 91789","Match","Exact","21709 FERRERO PKWY, WALNUT, CA, 91789",650275003,"R"
118846,"2171 CALLE DE CANTABRIA","NAVARRE","FL",32566,30.412622985,-86.807968009,346,"2171 CALLE DE CANTABRIA, NAVARRE, FL, 32566","Match","Non_Exact","2171 CLL DE CANTABRIA, NAVARRE, FL, 32566",74604930,"R"
118847,"2171 E MINTON DR","TEMPE","AZ",85282,33.3820674130001,-111.893464027,347,"2171 E MINTON DR, TEMPE, AZ, 85282","Match","Exact","2171 E MINTON DR, TEMPE, AZ, 85282",128239351,"R"
118848,"2171 E PARK AVE","VALDOSTA","GA",31602,30.8681894480001,-83.244251734,348,"2171 E PARK AVE, VALDOSTA, GA, 31602","Match","Exact","2171 E PARK AVE, VALDOSTA, GA, 31602",640456682,"R"
118849,"2171 FOXHOLE RD","POINT ROBERTS","WA",98281,48.9860095540001,-123.035930093,349,"2171 FOXHOLE RD, POINT ROBERTS, WA, 98281","Match","Non_Exact","2171 FOX HOLE RD, POINT ROBERTS, WA, 98281",183770424,"L"
118850,"2171 FOXWOOD DRIVE","ERIE","PA",16510,42.1462989410001,-79.9941027309999,350,"2171 FOXWOOD DRIVE, ERIE, PA, 16510","Match","Exact","2171 FOXWOOD DR, ERIE, PA, 16510",627125560,"L"
118851,"2171 HAYWOOD DRIVE","MANSFIELD","OH",44903,40.7000018890001,-82.527349441,351,"2171 HAYWOOD DRIVE, MANSFIELD, OH, 44903","Match","Exact","2171 HAYWOOD DR, MANSFIELD, OH, 44903",207221486,"L"
118852,"2171 MARTINIQUE LANE","OXNARD","CA",93035,34.1792659170001,-119.232782534,352,"2171 MARTINIQUE LANE, OXNARD, CA, 93035","Match","Exact","2171 MARTINIQUE LN, OXNARD, CA, 93035",110125388,"R"
118853,"2171 MORRIS DRIVE","SENECA FALLS","NY",13148,42.919671056,-76.756399361,353,"2171 MORRIS DRIVE, SENECA FALLS, NY, 13148","Match","Exact","2171 MORRIS DR, SENECA FALLS, NY, 13148",14671417,"L"
118854,"2171 OLD CONCORD ROAD SUITE 101","SMYRNA","GA",30080,33.901506103,-84.539969244,354,"2171 OLD CONCORD ROAD SUITE 101, SMYRNA, GA, 30080","Match","Non_Exact","2171 OLD CONCORD RD, SMYRNA, GA, 30080",17177427,"L"
118855,"2171 PATTON HILL RD","CHILLICOTHE","OH",45601,39.3052345520001,-82.97983253,355,"2171 PATTON HILL RD, CHILLICOTHE, OH, 45601","Match","Exact","2171 PATTON HILL RD, CHILLICOTHE, OH, 45601",37483519,"L"
118856,"2171 PEACHTREE RD NE STE 1406","ATLANTA","GA",30309,NA,NA,356,"2171 PEACHTREE RD NE STE 1406, ATLANTA, GA, 30309","No_Match",NA,NA,NA,NA
118857,"2171 RABBIT RUN","GILBERTSVILLE","PA",19525,40.2891032300001,-75.576982899,357,"2171 RABBIT RUN, GILBERTSVILLE, PA, 19525","Match","Exact","2171 RABBIT RUN, GILBERTSVILLE, PA, 19525",135101458,"L"
118858,"2171 S BARDELL AVE","FRESNO","CA",93706,36.720007159,-119.797549219,358,"2171 S BARDELL AVE, FRESNO, CA, 93706","Match","Exact","2171 S BARDELL AVE, FRESNO, CA, 93706",197579579,"L"
118859,"2171 S BROCKSMITH RD","FORT PIERCE","FL",34945,27.4264575930001,-80.456293369,359,"2171 S BROCKSMITH RD, FORT PIERCE, FL, 34945","Match","Exact","2171 S BROCKSMITH RD, FORT PIERCE, FL, 34945",610765344,"L"
118860,"2171 S GREEN RD","UNIVERSITY HEIGHTS","OH",44121,NA,NA,360,"2171 S GREEN RD, UNIVERSITY HEIGHTS, OH, 44121","Tie",NA,NA,NA,NA
118861,"2171 SAN JOSE AVENUE","BRENTWOOD","CA",94513,37.939865049,-121.737247595,361,"2171 SAN JOSE AVENUE, BRENTWOOD, CA, 94513","Match","Exact","2171 SAN JOSE AVE, BRENTWOOD, CA, 94513",192114730,"R"
118862,"2171 TOWNSHIP ROAD 237","JEROMESVILLE","OH",44840,NA,NA,362,"2171 TOWNSHIP ROAD 237, JEROMESVILLE, OH, 44840","No_Match",NA,NA,NA,NA
118863,"2171 US 27 N","SEBRING","FL",33870,27.5022136870001,-81.490557168,363,"2171 US 27 N, SEBRING, FL, 33870","Match","Non_Exact","2171 US HWY 27 N, SEBRING, FL, 33870",646977906,"L"
118864,"2171 W 38TH ST","ERIE","PA",16508,42.084044125,-80.115603409,364,"2171 W 38TH ST, ERIE, PA, 16508","Match","Exact","2171 W 38TH ST, ERIE, PA, 16508",117495853,"L"
118865,"21710 BEVINGTON OAKS COURT","KATY","TX",77450,NA,NA,365,"21710 BEVINGTON OAKS COURT, KATY, TX, 77450","No_Match",NA,NA,NA,NA
118866,"21710 GORMAN DRIVE","OYDS","MD",20841,39.2140783190001,-77.265480987,366,"21710 GORMAN DRIVE, OYDS, MD, 20841","Match","Non_Exact","21710 GORMAN, BOYDS, MD, 20841",618601590,"L"
118867,"21710 LOST RIVER DR","DIAMOND BAR","CA",91765,33.981137704,-117.833675333,367,"21710 LOST RIVER DR, DIAMOND BAR, CA, 91765","Match","Exact","21710 LOST RIVER DR, DIAMOND BAR, CA, 91765",141736460,"R"
118868,"21711 SW CHAPMAN ROAD","SHERWOOD","OR",97140,45.3461550530001,-122.902421083,368,"21711 SW CHAPMAN ROAD, SHERWOOD, OR, 97140","Match","Exact","21711 SW CHAPMAN RD, SHERWOOD, OR, 97140",635628082,"R"
118869,"21712 CARTAGENA DRIVE","BOCA RATON","FL",33428,26.3525771870001,-80.2091204549999,369,"21712 CARTAGENA DRIVE, BOCA RATON, FL, 33428","Match","Exact","21712 CARTAGENA DR, BOCA RATON, FL, 33428",115299820,"R"
118870,"21715 PACIFIC STREET","ELKHORN","NE",68022,41.2483926880001,-96.255346,370,"21715 PACIFIC STREET, ELKHORN, NE, 68022","Match","Exact","21715 PACIFIC ST, ELKHORN, NE, 68022",116965997,"R"
118871,"21715 S WERRINGTON WAY","HOUSTON","TX",77073,30.0287654030001,-95.3889668579999,371,"21715 S WERRINGTON WAY, HOUSTON, TX, 77073","Match","Exact","21715 S WERRINGTON WAY, HOUSTON, TX, 77073",645147814,"L"
118872,"21717 SW APSEN PLACE","TUALATIN","OR",97062,NA,NA,372,"21717 SW APSEN PLACE, TUALATIN, OR, 97062","No_Match",NA,NA,NA,NA
118873,"21718 SLIDELL RD","BOYDS","MD",20841,39.2116853380001,-77.328523218,373,"21718 SLIDELL RD, BOYDS, MD, 20841","Match","Exact","21718 SLIDELL RD, BOYDS, MD, 20841",651239937,"R"
118874,"21719 NE 18TH WAY","SAMMAMISH","WA",98074,47.6253069900001,-122.04904138,374,"21719 NE 18TH WAY, SAMMAMISH, WA, 98074","Match","Exact","21719 NE 18TH WAY, SAMMAMISH, WA, 98074",186617614,"R"
118875,"2172 BLACKVILLE DRIVE","THE VILLAGES","FL",32162,28.8810933550001,-81.9719132289999,375,"2172 BLACKVILLE DRIVE, THE VILLAGES, FL, 32162","Match","Exact","2172 BLACKVILLE DR, THE VILLAGES, FL, 32162",625642431,"R"
118876,"2172 COUNTRY COVE","LAS VEGAS","NV",89135,36.1505527480001,-115.351441252,376,"2172 COUNTRY COVE, LAS VEGAS, NV, 89135","Match","Non_Exact","2172 COUNTRY COVE CT, LAS VEGAS, NV, 89135",632839680,"L"
118877,"2172 CROSSRAIL DRIVE","COLLEGE PARK","GA",30349,33.5826804530001,-84.4646612559999,377,"2172 CROSSRAIL DRIVE, COLLEGE PARK, GA, 30349","Match","Exact","2172 CROSSRAIL DR, COLLEGE PARK, GA, 30349",652441940,"R"
118878,"2172 E CALIFORNIA AVENUE","WAHIAWA","HI",96786,21.5077847220001,-157.997487472,378,"2172 E CALIFORNIA AVENUE, WAHIAWA, HI, 96786","Match","Exact","2172 CALIFORNIA AVE, WAHIAWA, HI, 96786",203331489,"L"
118879,"2172 E CALLE DE ARCO","TEMPE","AZ",85284,33.3324262350001,-111.894208417,379,"2172 E CALLE DE ARCO, TEMPE, AZ, 85284","Match","Non_Exact","2172 E CLL DE ARCOS, TEMPE, AZ, 85284",128240107,"L"
118880,"2172 PACIFIC AVE","COSTA MESA","CA",92627,33.653275975,-117.946671069,380,"2172 PACIFIC AVE, COSTA MESA, CA, 92627","Match","Exact","2172 PACIFIC AVE, COSTA MESA, CA, 92627",623832858,"R"
118881,"2172 REGENCY DRIVE","EAST LANSING","MI",48823,42.759899664,-84.494996653,381,"2172 REGENCY DRIVE, EAST LANSING, MI, 48823","Match","Exact","2172 REGENCY DR, EAST LANSING, MI, 48823",17500643,"L"
118882,"2172 SOLANO WAY","CONCORD","CA",94520,37.989483373,-122.041953763,382,"2172 SOLANO WAY, CONCORD, CA, 94520","Match","Exact","2172 SOLANO WAY, CONCORD, CA, 94520",192053618,"R"
118883,"2172 SPRING HOLLOW LN","GERMANTOWN","TN",38139,35.089766581,-89.740906131,383,"2172 SPRING HOLLOW LN, GERMANTOWN, TN, 38139","Match","Exact","2172 SPRING HOLLOW LN, GERMANTOWN, TN, 38139",72941802,"L"
118884,"2172 W NINE MILE ROAD - NUM 380","PENSACOLA","FL",32534,30.5342397320001,-87.3122987739999,384,"2172 W NINE MILE ROAD - NUM 380, PENSACOLA, FL, 32534","Match","Non_Exact","2172 W NINE MILE RD, PENSACOLA, FL, 32534",93306412,"L"
118885,"2172 W NINE MILE ROAD UNIT 318","PENSAOCLA","FL",32514,30.5320005680001,-87.213680841,385,"2172 W NINE MILE ROAD UNIT 318, PENSAOCLA, FL, 32514","Match","Non_Exact","2172 E NINE MILE RD, PENSACOLA, FL, 32514",93260843,"L"
118886,"21720 NORTH LYON TRAIL","SOUTH LYON","MI",48178,NA,NA,386,"21720 NORTH LYON TRAIL, SOUTH LYON, MI, 48178","No_Match",NA,NA,NA,NA
118887,"21720 W LONG GROVE RD C232","DEER PARK","IL",60010,42.1629424990001,-88.057006278,387,"21720 W LONG GROVE RD C232, DEER PARK, IL, 60010","Match","Exact","21720 LONG GROVE RD, DEER PARK, IL, 60010",119750105,"L"
118888,"21720 W LONG GROVE RD SUITE C232","DEER PARK","IL",60010,42.1629424990001,-88.057006278,388,"21720 W LONG GROVE RD SUITE C232, DEER PARK, IL, 60010","Match","Exact","21720 LONG GROVE RD, DEER PARK, IL, 60010",119750105,"L"
118889,"21721 JOPLIN COURT","PLAINFIELD","IL",60544,41.6332530650001,-88.1484954859999,389,"21721 JOPLIN COURT, PLAINFIELD, IL, 60544","Match","Non_Exact","21721 W JOPLIN CT, PLAINFIELD, IL, 60544",111608488,"R"
118890,"21721 KENNISON AVENUE","EUCLID","OH",44123,41.603978656,-81.529090609,390,"21721 KENNISON AVENUE, EUCLID, OH, 44123","Match","Exact","21721 KENNISON AVE, EUCLID, OH, 44123",61108342,"L"
118891,"21721 N 61ST DR","GLENDALE","AZ",85308,33.6810977920001,-112.190765135,391,"21721 N 61ST DR, GLENDALE, AZ, 85308","Match","Exact","21721 N 61ST DR, GLENDALE, AZ, 85308",128951218,"R"
118892,"21723 INDIAN SUMMER TERRACE","STERLING","VA",20166,39.0152899600001,-77.4199566569999,392,"21723 INDIAN SUMMER TERRACE, STERLING, VA, 20166","Match","Exact","21723 INDIAN SUMMER TER, STERLING, VA, 20166",641110028,"L"
118893,"21723 VINTAGE ST","CHATSWORTH","CA",91311,34.252151397,-118.602737053,393,"21723 VINTAGE ST, CHATSWORTH, CA, 91311","Match","Exact","21723 VINTAGE ST, CHATSWORTH, CA, 91311",141532860,"L"
118894,"21729 HIGHWAY 63","AKRON","CO",80720,NA,NA,394,"21729 HIGHWAY 63, AKRON, CO, 80720","No_Match",NA,NA,NA,NA
118895,"2173 ARROBES PLACE","THE VILLAGES","FL",32162,28.882257297,-82.0074962589999,395,"2173 ARROBES PLACE, THE VILLAGES, FL, 32162","Match","Exact","2173 ARROBES PL, THE VILLAGES, FL, 32162",641357228,"R"
118896,"2173 BARROWCLIFFE DRIVE NW","CONCORD","NC",28027,35.3821499420001,-80.7291097949999,396,"2173 BARROWCLIFFE DRIVE NW, CONCORD, NC, 28027","Match","Exact","2173 BARROWCLIFFE DR NW, CONCORD, NC, 28027",618563301,"L"
118897,"2173 CALANDRIA AVE","LAS VEGAS","NV",89123,36.041028727,-115.12163869,397,"2173 CALANDRIA AVE, LAS VEGAS, NV, 89123","Match","Exact","2173 CALANDRIA AVE, LAS VEGAS, NV, 89123",201933646,"R"
118898,"2173 EAST WARNER ROAD STE 101","TEMPE","AZ",85284,33.3347630960001,-111.898317417,398,"2173 EAST WARNER ROAD STE 101, TEMPE, AZ, 85284","Match","Exact","2173 E WARNER RD, TEMPE, AZ, 85284",128270229,"L"
118899,"2173 JOHNS HOPKINS ROAD","GAMBRILLS","MD",21054,39.023743978,-76.6732065429999,399,"2173 JOHNS HOPKINS ROAD, GAMBRILLS, MD, 21054","Match","Exact","2173 JOHNS HOPKINS RD, GAMBRILLS, MD, 21054",633218617,"L"
118900,"2173 NARROW GOUGE ROAD","MONTROSE","PA",18801,NA,NA,400,"2173 NARROW GOUGE ROAD, MONTROSE, PA, 18801","No_Match",NA,NA,NA,NA
118901,"2173 PHEASANT WAY","SALT LAKE CITY","UT",84121,40.6475929580001,-111.828280145,401,"2173 PHEASANT WAY, SALT LAKE CITY, UT, 84121","Match","Exact","2173 PHEASANT WAY, SALT LAKE CITY, UT, 84121",176150176,"L"
118902,"2173 PINNACLE PARKWAY","HAMPSTEAD","NC",28443,34.4269353340001,-77.678583143,402,"2173 PINNACLE PARKWAY, HAMPSTEAD, NC, 28443","Match","Exact","2173 PINNACLE PKWY, HAMPSTEAD, NC, 28443",14135899,"R"
118903,"2173 S ORCHARD ST","BOISE","ID",83705,43.5828354010001,-116.243599167,403,"2173 S ORCHARD ST, BOISE, ID, 83705","Match","Exact","2173 S ORCHARD ST, BOISE, ID, 83705",117890336,"R"
118904,"2173 WRIGHTSVILLE AVENUE","WILMINGTON","NC",28403,34.228024303,-77.91953526,404,"2173 WRIGHTSVILLE AVENUE, WILMINGTON, NC, 28403","Match","Exact","2173 WRIGHTSVILLE AVE, WILMINGTON, NC, 28403",152733015,"L"
118905,"2173 YELLOWDOG ROAD","SENATOBIA","MS",38668,34.597535152,-89.912141272,405,"2173 YELLOWDOG ROAD, SENATOBIA, MS, 38668","Match","Exact","2173 YELLOWDOG RD, SENATOBIA, MS, 38668",608122379,"R"
118906,"21730 E ESTRELLA RD","QUEEN CREEK","AZ",85142,33.2493707510001,-111.615609834,406,"21730 E ESTRELLA RD, QUEEN CREEK, AZ, 85142","Match","Exact","21730 E ESTRELLA RD, QUEEN CREEK, AZ, 85142",244015231,"L"
118907,"21730 PICADILLY CIRCLE","NOVI","MI",48375,42.447906851,-83.4620953579999,407,"21730 PICADILLY CIRCLE, NOVI, MI, 48375","Match","Exact","21730 PICADILLY CIR, NOVI, MI, 48375",69782540,"L"
118908,"21731 95TH AVENUE WEST","EDMONDS","WA",98020,47.802048574,-122.359985555,408,"21731 95TH AVENUE WEST, EDMONDS, WA, 98020","Match","Exact","21731 95TH AVE W, EDMONDS, WA, 98020",187791155,"L"
118909,"21731 LANAR","MISSION VIEJO","CA",92692,33.6469360990001,-117.630370347,409,"21731 LANAR, MISSION VIEJO, CA, 92692","Match","Exact","21731 LANAR, MISSION VIEJO, CA, 92692",144066315,"L"
118910,"21731 VENTURA BLVD SUITE 300","WOODLAND HILLS","CA",91364,34.1683492280001,-118.601467043,410,"21731 VENTURA BLVD SUITE 300, WOODLAND HILLS, CA, 91364","Match","Exact","21731 VENTURA BLVD, WOODLAND HILLS, CA, 91364",141535443,"R"
118911,"21737 CUSHING AVE","EASTPOINTE","MI",48021,42.457945398,-82.946547924,411,"21737 CUSHING AVE, EASTPOINTE, MI, 48021","Match","Exact","21737 CUSHING AVE, EASTPOINTE, MI, 48021",110679446,"L"
118912,"21737 JEFFERY AVENUE","SAUK VILLAGE","IL",60411,41.492354601,-87.5740101809999,412,"21737 JEFFERY AVENUE, SAUK VILLAGE, IL, 60411","Match","Exact","21737 JEFFERY AVE, SAUK VILLAGE, IL, 60411",111869344,"L"
118913,"21738 PARKLANE ROAD","FARMINGTON HILLS","MI",48335,NA,NA,413,"21738 PARKLANE ROAD, FARMINGTON HILLS, MI, 48335","Tie",NA,NA,NA,NA
118914,"21739 HARDY OAK BLVD","SAN ANTONIO","TX",78258,29.6444830560001,-98.491659971,414,"21739 HARDY OAK BLVD, SAN ANTONIO, TX, 78258","Match","Exact","21739 HARDY OAK BLVD, SAN ANTONIO, TX, 78258",101565163,"R"
118915,"2174 HARRIS AVE NE SUITE 1","PALM BAY","FL",32905,28.034408195,-80.606761719,415,"2174 HARRIS AVE NE SUITE 1, PALM BAY, FL, 32905","Match","Exact","2174 HARRIS AVE NE, PALM BAY, FL, 32905",93909817,"L"
118916,"2174 HARRIS AVE STE 3","PALM BAY","FL",32905,28.034408195,-80.606761719,416,"2174 HARRIS AVE STE 3, PALM BAY, FL, 32905","Match","Non_Exact","2174 HARRIS AVE NE, PALM BAY, FL, 32905",93909817,"L"
118917,"2174 JAY PLACE","ATLANTA","GA",30315,33.6947792610001,-84.387083768,417,"2174 JAY PLACE, ATLANTA, GA, 30315","Match","Non_Exact","2174 JAY PL SE, ATLANTA, GA, 30315",17347044,"L"
118918,"2174 LONG LANE","JAMISON","PA",18929,40.246296929,-75.075886469,418,"2174 LONG LANE, JAMISON, PA, 18929","Match","Exact","2174 LONG LN, JAMISON, PA, 18929",134762548,"R"
118919,"2174 LYNN RD","KENT","OH",44240,41.111752347,-81.3155714229999,419,"2174 LYNN RD, KENT, OH, 44240","Match","Exact","2174 LYNN RD, KENT, OH, 44240",208680187,"R"
118920,"2174 MISSION WAY N","KALISPELL","MT",59901,48.2383163210001,-114.307881461,420,"2174 MISSION WAY N, KALISPELL, MT, 59901","Match","Exact","2174 MISSION WAY N, KALISPELL, MT, 59901",204088358,"L"
118921,"2174 N RANCH 187","SABINAL","TX",78881,NA,NA,421,"2174 N RANCH 187, SABINAL, TX, 78881","No_Match",NA,NA,NA,NA
118922,"2174 OSPREY POINT DR","JACKSONVILLE","FL",32224,30.308648276,-81.452620278,422,"2174 OSPREY POINT DR, JACKSONVILLE, FL, 32224","Match","Non_Exact","2174 OSPREY POINT DR W, JACKSONVILLE, FL, 32224",83935619,"R"
118923,"2174 PEAKVIEW AVE","SACRAMENTO","CA",95835,38.676179217,-121.511226714,423,"2174 PEAKVIEW AVE, SACRAMENTO, CA, 95835","Match","Exact","2174 PEAKVIEW AVE, SACRAMENTO, CA, 95835",133443348,"L"
118924,"2174 PRINCETON PIKE","LAWRENCEVILE","NH",8648,NA,NA,424,"2174 PRINCETON PIKE, LAWRENCEVILE, NH, 8648","No_Match",NA,NA,NA,NA
118925,"2174 SOUTH 2100 EAST","SALT LAKE CITY","UT",84109,40.723869022,-111.830811418,425,"2174 SOUTH 2100 EAST, SALT LAKE CITY, UT, 84109","Match","Exact","2174 S 2100 E, SALT LAKE CITY, UT, 84109",176082149,"R"
118926,"2174 SUNSHINE LANE","MARIETTA","OK",73448,NA,NA,426,"2174 SUNSHINE LANE, MARIETTA, OK, 73448","No_Match",NA,NA,NA,NA
118927,"2174-3 FROST AVE","INDEPENDENCE","IA",50644,NA,NA,427,"2174-3 FROST AVE, INDEPENDENCE, IA, 50644","Tie",NA,NA,NA,NA
118928,"21740 OLIVE AVE","CUPERTINO","CA",95014,37.319253265,-122.054633028,428,"21740 OLIVE AVE, CUPERTINO, CA, 95014","Match","Exact","21740 OLIVE AVE, CUPERTINO, CA, 95014",639669944,"L"
118929,"21740 S TAMIAMI TRL UNIT 112","ESTERO","FL",33928,NA,NA,429,"21740 S TAMIAMI TRL UNIT 112, ESTERO, FL, 33928","No_Match",NA,NA,NA,NA
118930,"21742 CANDELA DRIVE","SANTA CLARITA","CA",91350,34.415935178,-118.515847064,430,"21742 CANDELA DRIVE, SANTA CLARITA, CA, 91350","Match","Exact","21742 CANDELA DR, SANTA CLARITA, CA, 91350",648669674,"R"
118931,"21742 VERA STREET","CARSON","CA",90745,33.8305618700001,-118.248437728,431,"21742 VERA STREET, CARSON, CA, 90745","Match","Exact","21742 VERA ST, CARSON, CA, 90745",142766848,"L"
118932,"21747 FOX COURT","TEHACHAPI","CA",93561,35.136474568,-118.493162743,432,"21747 FOX COURT, TEHACHAPI, CA, 93561","Match","Exact","21747 FOX CT, TEHACHAPI, CA, 93561",108983029,"L"
118933,"21747 MARTINWOOD DR","COUNCIL BLUFFS","IA",50503,41.2709115330001,-95.769344783,433,"21747 MARTINWOOD DR, COUNCIL BLUFFS, IA, 50503","Match","Non_Exact","21747 MARTINWOOD DR, COUNCIL BLUFFS, IA, 51503",43921496,"R"
118934,"21747 RIVER CANYON ROAD","CHATTANOOGA","TN",37405,35.122834219,-85.394702148,434,"21747 RIVER CANYON ROAD, CHATTANOOGA, TN, 37405","Match","Exact","21747 RIVER CANYON RD, CHATTANOOGA, TN, 37405",607384480,"R"
118935,"21749 S 218TH ST","QUEEN CREEK","AZ",85142,33.25135878,-111.613719987,435,"21749 S 218TH ST, QUEEN CREEK, AZ, 85142","Match","Exact","21749 S 218TH ST, QUEEN CREEK, AZ, 85142",244004312,"R"
118936,"2175 ALICE STREET","SANTA CRUZ","CA",95062,36.9637173740001,-121.982758486,436,"2175 ALICE STREET, SANTA CRUZ, CA, 95062","Match","Exact","2175 ALICE ST, SANTA CRUZ, CA, 95062",605999860,"L"
118937,"2175 CHESTNUT AVE","CARLSBAD","CA",92008,33.1621821470001,-117.322899789,437,"2175 CHESTNUT AVE, CARLSBAD, CA, 92008","Match","Exact","2175 CHESTNUT AVE, CARLSBAD, CA, 92008",195425161,"R"
118938,"2175 DE LA CRUZ BLVD SUITE 12","SANTA CLARA","CA",95050,37.362218539,-121.941501668,438,"2175 DE LA CRUZ BLVD SUITE 12, SANTA CLARA, CA, 95050","Match","Non_Exact","2175 DE LA CRUZ BLVD, SANTA CLARA, CA, 95050",122902247,"R"
118939,"2175 EAST PIONEER ROAD","DULUTH","MN",55804,46.9671292130001,-91.9098869699999,439,"2175 EAST PIONEER ROAD, DULUTH, MN, 55804","Match","Exact","2175 E PIONEER RD, DULUTH, MN, 55804",163201172,"L"
118940,"2175 FISH HATCHERY ROAD","MOHAWK","TN",37810,36.129909926,-83.1274955759999,440,"2175 FISH HATCHERY ROAD, MOHAWK, TN, 37810","Match","Exact","2175 FISH HATCHERY RD, MOHAWK, TN, 37810",127763293,"L"
118941,"2175 HIGHPOINT ROAD BLDG A STE 122","SNELLVILLE","GA",30078,33.8511814770001,-84.043851183,441,"2175 HIGHPOINT ROAD BLDG A STE 122, SNELLVILLE, GA, 30078","Match","Exact","2175 HIGHPOINT RD, SNELLVILLE, GA, 30078",88900193,"R"
118942,"2175 HIGHWAY V","SAINT CHARLES","MO",63301,NA,NA,442,"2175 HIGHWAY V, SAINT CHARLES, MO, 63301","No_Match",NA,NA,NA,NA
118943,"2175 LEMOINE AVE SUITE 503","FORT LEE","NJ",7024,40.8570256190001,-73.966489253,443,"2175 LEMOINE AVE SUITE 503, FORT LEE, NJ, 7024","Match","Exact","2175 LEMOINE AVE, FORT LEE, NJ, 07024",64390380,"L"
118944,"2175 LOW CREEK CT","LAS VEGAS","NV",89123,36.033852956,-115.121696674,444,"2175 LOW CREEK CT, LAS VEGAS, NV, 89123","Match","Non_Exact","2175 E LOW CREEK CT, LAS VEGAS, NV, 89123",626483866,"L"
118945,"2175 MCAFEE CIR","MAPLEWOOD","MN",55109,45.007645197,-93.0445221429999,445,"2175 MCAFEE CIR, MAPLEWOOD, MN, 55109","Match","Exact","2175 MCAFEE CIR, MAPLEWOOD, MN, 55109",97669239,"R"
118946,"2175 N ILLINOIS ROUTE 83","ROUND LAKE BEACH","IL",60073,42.3884805480001,-88.063441959,446,"2175 N ILLINOIS ROUTE 83, ROUND LAKE BEACH, IL, 60073","Match","Non_Exact","2175 N STATE RTE 83, ROUND LAKE BEACH, IL, 60073",119697194,"L"
118947,"2175 NORTH HIGHWAY 360 APT 815","GRAND PRAIRIE","TX",75050,32.787527019,-97.059220502,447,"2175 NORTH HIGHWAY 360 APT 815, GRAND PRAIRIE, TX, 75050","Match","Exact","2175 N HWY 360, GRAND PRAIRIE, TX, 75050",624048203,"L"
118948,"2175 NORTON RD","HOWELL","MI",48843,42.5975434010001,-83.956214275,448,"2175 NORTON RD, HOWELL, MI, 48843","Match","Exact","2175 NORTON RD, HOWELL, MI, 48843",619591419,"R"
118949,"2175 NW 86TH ST STE 16","CLIVE","IA",50325,41.6129743180001,-93.736437711,449,"2175 NW 86TH ST STE 16, CLIVE, IA, 50325","Match","Exact","2175 86TH ST, CLIVE, IA, 50325",65776249,"R"
118950,"2175 NW 86TH ST SUITE6A","CLIVE","IA",50325,41.6129743180001,-93.736437711,450,"2175 NW 86TH ST SUITE6A, CLIVE, IA, 50325","Match","Exact","2175 86TH ST, CLIVE, IA, 50325",65776249,"R"
118951,"2175 RIVERSIDE DRIVE","COLUMBUS","OH",43221,40.0000114330001,-83.076588855,451,"2175 RIVERSIDE DRIVE, COLUMBUS, OH, 43221","Match","Exact","2175 RIVERSIDE DR, COLUMBUS, OH, 43221",642843019,"R"
118952,"2175 RUTH SMITH DRIVE","GRANBURY","TX",76048,NA,NA,452,"2175 RUTH SMITH DRIVE, GRANBURY, TX, 76048","No_Match",NA,NA,NA,NA
118953,"2175 SKYLINE DR","MILPITAS","CA",95035,37.4258323610001,-121.866051183,453,"2175 SKYLINE DR, MILPITAS, CA, 95035","Match","Exact","2175 SKYLINE DR, MILPITAS, CA, 95035",123158654,"R"
118954,"2175 THE ALAMEDA   SUITE 101","SAN JOSE","CA",95126,NA,NA,454,"2175 THE ALAMEDA   SUITE 101, SAN JOSE, CA, 95126","Tie",NA,NA,NA,NA
118955,"2175 W 118TH STREET","CHICAGO","IL",60643,41.6792134250001,-87.675824792,455,"2175 W 118TH STREET, CHICAGO, IL, 60643","Match","Exact","2175 W 118TH ST, CHICAGO, IL, 60643",111823385,"L"
118956,"2175 WYANDOT DRIVE","LIMA","OH",45806,40.695794692,-84.164673243,456,"2175 WYANDOT DRIVE, LIMA, OH, 45806","Match","Exact","2175 WYANDOT DR, LIMA, OH, 45806",35566427,"R"
118957,"21750 CONTADO RD","BOCA RATON","FL",33433,26.35410569,-80.1457271089999,457,"21750 CONTADO RD, BOCA RATON, FL, 33433","Match","Exact","21750 CONTADO RD, BOCA RATON, FL, 33433",642539088,"R"
118958,"21750 HARDY OAK BLVD STE 102","SAN ANTONIO","TX",78258,29.6570417990001,-98.4963217379999,458,"21750 HARDY OAK BLVD STE 102, SAN ANTONIO, TX, 78258","Match","Exact","21750 HARDY OAK BLVD, SAN ANTONIO, TX, 78258",647503975,"L"
118959,"21750 HARDY OAK BLVD STE 104-99487","SAN ANTONIO","TX",78258,29.6570417990001,-98.4963217379999,459,"21750 HARDY OAK BLVD STE 104-99487, SAN ANTONIO, TX, 78258","Match","Exact","21750 HARDY OAK BLVD, SAN ANTONIO, TX, 78258",647503975,"L"
118960,"21751 NICHOLAS AVE","EUCLID","OH",44123,41.5932870440001,-81.529303883,460,"21751 NICHOLAS AVE, EUCLID, OH, 44123","Match","Exact","21751 NICHOLAS AVE, EUCLID, OH, 44123",61108535,"L"
118961,"21753 SE FOSTER RD","DAMASCUS","OR",97089,45.4201643070001,-122.457623445,461,"21753 SE FOSTER RD, DAMASCUS, OR, 97089","Match","Exact","21753 SE FOSTER RD, DAMASCUS, OR, 97089",651033023,"L"
118962,"21754 BLACKWATER DR","BLACKWATER","MO",65322,39.0071474960001,-92.9770293449999,462,"21754 BLACKWATER DR, BLACKWATER, MO, 65322","Match","Exact","21754 BLACKWATER DR, BLACKWATER, MO, 65322",23705238,"L"
118963,"21754 FRAZER","SOUTHFIELD","MI",48075,42.45410789,-83.255955356,463,"21754 FRAZER, SOUTHFIELD, MI, 48075","Match","Non_Exact","21754 FRAZER AVE, SOUTHFIELD, MI, 48075",69777760,"R"
118964,"21755 OBSIDIAN AVE","BEND","OR",97702,44.0414267800001,-121.23627354,464,"21755 OBSIDIAN AVE, BEND, OR, 97702","Match","Exact","21755 OBSIDIAN AVE, BEND, OR, 97702",635875895,"R"
118965,"21756 SW ROELLICH AVE","SHERWOOD","OR",97140,45.3624312920001,-122.860176069,465,"21756 SW ROELLICH AVE, SHERWOOD, OR, 97140","Match","Exact","21756 SW ROELLICH AVE, SHERWOOD, OR, 97140",158217882,"R"
118966,"21758 MOUNTSFIELD DRIVE","GOLDEN","CO",80401,39.7201687240001,-105.244325838,466,"21758 MOUNTSFIELD DRIVE, GOLDEN, CO, 80401","Match","Exact","21758 MOUNTSFIELD DR, GOLDEN, CO, 80401",177390250,"L"
118967,"2176 ARLEEN WAY","SAN JOSE","CA",95130,37.2823371150001,-121.992446714,467,"2176 ARLEEN WAY, SAN JOSE, CA, 95130","Match","Exact","2176 ARLEEN WAY, SAN JOSE, CA, 95130",122997250,"L"
118968,"2176 CALEDONIA DRIVE","LAWRENCEVILLE","GA",30045,33.916933467,-83.904696073,468,"2176 CALEDONIA DRIVE, LAWRENCEVILLE, GA, 30045","Match","Exact","2176 CALEDONIA DR, LAWRENCEVILLE, GA, 30045",637615471,"L"
118969,"2176 E COLEMAN RD","GREER","SC",29650,34.8739599680001,-82.250332461,469,"2176 E COLEMAN RD, GREER, SC, 29650","Match","Exact","2176 E COLEMAN RD, GREER, SC, 29650",640588646,"L"
118970,"2176 FOWLERVILLE RD","FOWLERVILLE","MI",48836,42.630451726,-84.071886127,470,"2176 FOWLERVILLE RD, FOWLERVILLE, MI, 48836","Match","Exact","2176 FOWLERVILLE RD, FOWLERVILLE, MI, 48836",23566424,"R"
118971,"2176 HWY 63 P O BOX 185","CABOOL","MO",65689,NA,NA,471,"2176 HWY 63 P O BOX 185, CABOOL, MO, 65689","Tie",NA,NA,NA,NA
118972,"2176 N FRANKLIN ROAD SUITE 100","MERIDIAN","ID",83642,NA,NA,472,"2176 N FRANKLIN ROAD SUITE 100, MERIDIAN, ID, 83642","Tie",NA,NA,NA,NA
118973,"2176 NORTH 37TH STREET","MILWAUKEE","WI",53205,43.0587696800001,-87.959914866,473,"2176 NORTH 37TH STREET, MILWAUKEE, WI, 53205","Match","Non_Exact","2176 N 37TH ST, MILWAUKEE, WI, 53208",77738050,"R"
118974,"2176 ORIN LANE","PLEASANT HILL","CA",94523,37.963422247,-122.075858105,474,"2176 ORIN LANE, PLEASANT HILL, CA, 94523","Match","Exact","2176 ORIN LN, PLEASANT HILL, CA, 94523",192072062,"R"
118975,"2176 S 116TH ST","WEST ALLIS","WI",53227,43.0050793360001,-88.056709623,475,"2176 S 116TH ST, WEST ALLIS, WI, 53227","Match","Exact","2176 S 116TH ST, WEST ALLIS, WI, 53227",77767672,"L"
118976,"2176 SAVANNAH HIGHWAY 109","CHARLESTON","SC",29414,32.7915251540001,-80.040047984,476,"2176 SAVANNAH HIGHWAY 109, CHARLESTON, SC, 29414","Match","Exact","2176 SAVANNAH HWY, CHARLESTON, SC, 29414",605830851,"R"
118977,"2176 SHADY LN","GREEN BAY","WI",54313,44.5029131000001,-88.091001627,477,"2176 SHADY LN, GREEN BAY, WI, 54313","Match","Exact","2176 SHADY LN, GREEN BAY, WI, 54313",148118394,"R"
118978,"2176 TEASDALE DRIVE","VIRGINIA BEACH","VA",23454,36.76951089,-76.003433935,478,"2176 TEASDALE DRIVE, VIRGINIA BEACH, VA, 23454","Match","Exact","2176 TEASDALE DR, VIRGINIA BCH, VA, 23454",122277600,"R"
118979,"2176 W 9240 S","WEST JORDAN","UT",84088,40.5834139670001,-111.947980648,479,"2176 W 9240 S, WEST JORDAN, UT, 84088","Match","Exact","2176 W 9240 S, WEST JORDAN, UT, 84088",176132648,"L"
118980,"21761 OJAI RD","APPLE VALLEY","CA",92308,34.4887361850001,-117.189153122,480,"21761 OJAI RD, APPLE VALLEY, CA, 92308","Match","Exact","21761 OJAI RD, APPLE VALLEY, CA, 92308",144592352,"L"
118981,"21761 REGAL WAY","LAKE FOREST","CA",92630,33.647284665,-117.678780417,481,"21761 REGAL WAY, LAKE FOREST, CA, 92630","Match","Exact","21761 REGAL WAY, LAKE FOREST, CA, 92630",144063419,"L"
118982,"21763 SAMSON AVE","CORNING","CA",96021,39.9357077230001,-122.224928659,482,"21763 SAMSON AVE, CORNING, CA, 96021","Match","Exact","21763 SAMSON AVE, CORNING, CA, 96021",636412485,"L"
118983,"21766 POOLE COURT","ASHBURN","VA",20148,39.014410168,-77.518926183,483,"21766 POOLE COURT, ASHBURN, VA, 20148","Match","Exact","21766 POOLE CT, ASHBURN, VA, 20148",62353582,"R"
118984,"21766 SABRINA DR","MACOMB","MI",48044,42.6698816140001,-82.898502089,484,"21766 SABRINA DR, MACOMB, MI, 48044","Match","Exact","21766 SABRINA DR, MACOMB, MI, 48044",110715297,"R"
118985,"21769 NEGAUNEE ST","SOUTHFIELD","MI",48033,42.4510301500001,-83.313491305,485,"21769 NEGAUNEE ST, SOUTHFIELD, MI, 48033","Match","Exact","21769 NEGAUNEE ST, SOUTHFIELD, MI, 48033",69731681,"L"
118986,"2177 11TH CT S","BIRMINGHAM","AL",35205,33.5010429370001,-86.792318528,486,"2177 11TH CT S, BIRMINGHAM, AL, 35205","Match","Exact","2177 11TH CT S, BIRMINGHAM, AL, 35205",81720850,"R"
118987,"2177 BURNS","DETROIT","MI",48214,42.3612282240001,-82.994724608,487,"2177 BURNS, DETROIT, MI, 48214","Match","Non_Exact","2177 BURNS ST, DETROIT, MI, 48214",95484052,"L"
118988,"2177 DILLARD CROSSING","TUCKER","GA",30084,33.845723208,-84.209483351,488,"2177 DILLARD CROSSING, TUCKER, GA, 30084","Match","Exact","2177 DILLARD CROSSING, TUCKER, GA, 30084",642367833,"R"
118989,"2177 FAWN COURT","WALDORF","MD",20602,38.601582523,-76.889140259,489,"2177 FAWN COURT, WALDORF, MD, 20602","Match","Exact","2177 FAWN CT, WALDORF, MD, 20602",25379605,"L"
118990,"2177 MCKELLAR WOODS COURT APT 13","MEMPHIS","TN",38116,35.0116065490001,-89.990859896,490,"2177 MCKELLAR WOODS COURT APT 13, MEMPHIS, TN, 38116","Match","Exact","2177 MCKELLAR WOODS CT, MEMPHIS, TN, 38116",72923116,"R"
118991,"2177 N 69TH STREET","WAUWATOSA","WI",53213,43.0583815470001,-87.9986324559999,491,"2177 N 69TH STREET, WAUWATOSA, WI, 53213","Match","Exact","2177 N 69TH ST, WAUWATOSA, WI, 53213",77732754,"L"
118992,"2177 WALDO RD","PONTOTOC","MS",38863,34.2198788900001,-89.1692672459999,492,"2177 WALDO RD, PONTOTOC, MS, 38863","Match","Exact","2177 WALDO RD, PONTOTOC, MS, 38863",610308241,"R"
118993,"2177 WIND GATE COURT","LITHONIA","GA",30058,33.7229761570001,-84.153910275,493,"2177 WIND GATE COURT, LITHONIA, GA, 30058","Match","Exact","2177 WIND GATE CT, LITHONIA, GA, 30058",627176264,"R"
118994,"21771 ARENGA LANE","ESTERO","FL",33928,26.4247804450001,-81.797225468,494,"21771 ARENGA LANE, ESTERO, FL, 33928","Match","Exact","21771 ARENGA LN, ESTERO, FL, 33928",650691869,"L"
118995,"21771 TIMBERLAKE ROAD","LYNCHBURG","VA",24502,37.325694363,-79.251211838,495,"21771 TIMBERLAKE ROAD, LYNCHBURG, VA, 24502","Match","Exact","21771 TIMBERLAKE RD, LYNCHBURG, VA, 24502",644895549,"L"
118996,"21771 TOWN PLACE DRIVE","BOCA RATON","FL",33433,26.352306271,-80.13690686,496,"21771 TOWN PLACE DRIVE, BOCA RATON, FL, 33433","Match","Exact","21771 TOWN PLACE DR, BOCA RATON, FL, 33433",115575152,"L"
118997,"21779 FLOYD MOORE RD","GENTRY","AR",72734,36.2897961310001,-94.514890929,497,"21779 FLOYD MOORE RD, GENTRY, AR, 72734","Match","Exact","21779 FLOYD MOORE RD, GENTRY, AR, 72734",47825490,"L"
118998,"2178 ABNER PL NW","ATLANTA","GA",30318,33.801679188,-84.459077953,498,"2178 ABNER PL NW, ATLANTA, GA, 30318","Match","Exact","2178 ABNER PL NW, ATLANTA, GA, 30318",618349542,"L"
118999,"2178 E CAROLINE LANE","TEMPE","AZ",85284,33.328346545,-111.894397457,499,"2178 E CAROLINE LANE, TEMPE, AZ, 85284","Match","Exact","2178 E CAROLINE LN, TEMPE, AZ, 85284",128808544,"L"
119000,"2178 E SOLITUDE CT","BOISE","ID",83712,43.6076459920001,-116.165666038,500,"2178 E SOLITUDE CT, BOISE, ID, 83712","Match","Exact","2178 E SOLITUDE CT, BOISE, ID, 83712",117885018,"R"
