"ID","Address","City","State","Zip","lat","long","id","input_address","match_indicator","match_type","matched_address","tiger_line_id","tiger_side"
57001,"140 BENBOW LANE","CHARLOTTE","NC",28214,35.307006696,-80.947100528,1,"140 BENBOW LANE, CHARLOTTE, NC, 28214","Match","Exact","140 BENBOW LN, CHARLOTTE, NC, 28214",70473698,"R"
57002,"140 BENCHLEY PLACE SUITE25H","BRONX","NY",10475,40.87440322,-73.8257215309999,2,"140 BENCHLEY PLACE SUITE25H, BRONX, NY, 10475","Match","Exact","140 BENCHLEY PL, BRONX, NY, 10475",609850337,"R"
57003,"140 BENNINGTON ST UNIT 3","EAST BOSTON","MA",2128,42.3766823130001,-71.034077934,3,"140 BENNINGTON ST UNIT 3, EAST BOSTON, MA, 2128","Match","Exact","140 BENNINGTON ST, EAST BOSTON, MA, 02128",85711423,"L"
57004,"140 BENNINGTON ST","BOSTON","MA",2128,42.3766823130001,-71.034077934,4,"140 BENNINGTON ST, BOSTON, MA, 2128","Match","Exact","140 BENNINGTON ST, BOSTON, MA, 02128",85711423,"L"
57005,"140 BENTBROOK CT","FAYETTEVILLE","GA",30214,33.5256996530001,-84.477778574,5,"140 BENTBROOK CT, FAYETTEVILLE, GA, 30214","Match","Exact","140 BENTBROOK CT, FAYETTEVILLE, GA, 30214",75935841,"L"
57006,"140 BITTERCREEK DRIVE","FOLSOM","CA",95630,38.6785136710001,-121.136250918,6,"140 BITTERCREEK DRIVE, FOLSOM, CA, 95630","Match","Exact","140 BITTERCREEK DR, FOLSOM, CA, 95630",133384803,"L"
57007,"140 BOWER LANE","JERSEY SHORE","PA",17740,41.2119132970001,-77.342605098,7,"140 BOWER LANE, JERSEY SHORE, PA, 17740","Match","Exact","140 BOWER LN, JERSEY SHORE, PA, 17740",77173676,"R"
57008,"140 BOWERS LN","MCDONOUGH","GA",30252,33.4137561060001,-83.9868104129999,8,"140 BOWERS LN, MCDONOUGH, GA, 30252","Match","Exact","140 BOWERS LN, MCDONOUGH, GA, 30252",619913202,"R"
57009,"140 BRIDGE RD","TEQUESTA","FL",33469,26.957867188,-80.0865978699999,9,"140 BRIDGE RD, TEQUESTA, FL, 33469","Match","Exact","140 BRIDGE RD, TEQUESTA, FL, 33469",640824354,"R"
57010,"140 BROADWAY       PO BOX 1271","SOUTH FULTON","TN",38257,36.500152799,-88.8757350129999,10,"140 BROADWAY       PO BOX 1271, SOUTH FULTON, TN, 38257","Match","Non_Exact","140 BROADWAY ST, SOUTH FULTON, TN, 38257",637501196,"L"
57011,"140 BROADWAY","MASSAPEQUA PARK","NY",11762,40.685528231,-73.446546906,11,"140 BROADWAY, MASSAPEQUA PARK, NY, 11762","Match","Exact","140 BROADWAY, MASSAPEQUA PARK, NY, 11762",147651625,"L"
57012,"140 BROOKS RD","RICHMOND","KY",40475,37.824796754,-84.314313473,12,"140 BROOKS RD, RICHMOND, KY, 40475","Match","Exact","140 BROOKS RD, RICHMOND, KY, 40475",31991773,"L"
57013,"140 BROOKWOOD DRIVE","ATHENS","GA",30605,33.919318768,-83.339997108,13,"140 BROOKWOOD DRIVE, ATHENS, GA, 30605","Match","Exact","140 BROOKWOOD DR, ATHENS, GA, 30605",4804146,"R"
57014,"140 CABARRUS AVENUE WEST","CONCORD","NC",28025,35.4074807810001,-80.5854456339999,14,"140 CABARRUS AVENUE WEST, CONCORD, NC, 28025","Match","Exact","140 CABARRUS AVE W, CONCORD, NC, 28025",24899996,"R"
57015,"140 CABRINI BLVD   APT 88","NEW YORK","NY",10033,40.852627576,-73.939794402,15,"140 CABRINI BLVD   APT 88, NEW YORK, NY, 10033","Match","Exact","140 CABRINI BLVD, NEW YORK, NY, 10033",650071209,"L"
57016,"140 CABRINI BLVD APT 126","NEW YORK","NY",10033,40.852627576,-73.939794402,16,"140 CABRINI BLVD APT 126, NEW YORK, NY, 10033","Match","Exact","140 CABRINI BLVD, NEW YORK, NY, 10033",650071209,"L"
57017,"140 CABRINI BOULEVARD-32","NEW YORK","NY",10033,40.852627576,-73.939794402,17,"140 CABRINI BOULEVARD-32, NEW YORK, NY, 10033","Match","Non_Exact","140 CABRINI BLVD, NEW YORK, NY, 10033",650071209,"L"
57018,"140 CADMAN PLAZA WEST 10K","BROOKLYN","NY",11201,40.700440056,-73.9908016909999,18,"140 CADMAN PLAZA WEST 10K, BROOKLYN, NY, 11201","Match","Exact","140 CADMAN PLZ W, BROOKLYN, NY, 11201",638285734,"R"
57019,"140 CADMAN PLAZA WEST 7-J","BROOKLYN","NY",11202,40.700440056,-73.9908016909999,19,"140 CADMAN PLAZA WEST 7-J, BROOKLYN, NY, 11202","Match","Non_Exact","140 CADMAN PLZ W, BROOKLYN, NY, 11201",638285734,"R"
57020,"140 CAMBRIDGE AVE","SILVERTON","OR",97381,45.0080922280001,-122.767245046,20,"140 CAMBRIDGE AVE, SILVERTON, OR, 97381","Match","Exact","140 CAMBRIDGE AVE, SILVERTON, OR, 97381",613692308,"L"
57021,"140 CANTERBURY ROAD","MOUNT LAUREL","NJ",8054,NA,NA,21,"140 CANTERBURY ROAD, MOUNT LAUREL, NJ, 8054","No_Match",NA,NA,NA,NA
57022,"140 CATANIA WAY","ROYAL PALM BEACH","FL",33411,26.6900673380001,-80.2078500219999,22,"140 CATANIA WAY, ROYAL PALM BEACH, FL, 33411","Match","Exact","140 CATANIA WAY, ROYAL PALM BEACH, FL, 33411",115571960,"L"
57023,"140 CEBRA AVENUE","STATEN ISLAND","NY",10304,40.631768261,-74.0829209999999,23,"140 CEBRA AVENUE, STATEN ISLAND, NY, 10304","Match","Exact","140 CEBRA AVE, STATEN ISLAND, NY, 10304",59878987,"R"
57024,"140 CEDAR MOUNTAIN DR","STEPHENS CITY","VA",22655,39.091260446,-78.177229897,24,"140 CEDAR MOUNTAIN DR, STEPHENS CITY, VA, 22655","Match","Exact","140 CEDAR MOUNTAIN DR, STEPHENS CITY, VA, 22655",617908659,"R"
57025,"140 CENTRAL AVENUE","LAWRENCE","NY",11559,40.6121461170001,-73.7400299559999,25,"140 CENTRAL AVENUE, LAWRENCE, NY, 11559","Match","Exact","140 CENTRAL AVE, LAWRENCE, NY, 11559",147657477,"L"
57026,"140 CHERRY RUN RD","CRAIGSVILLE","WV",26205,38.3364061620001,-80.642414177,26,"140 CHERRY RUN RD, CRAIGSVILLE, WV, 26205","Match","Exact","140 CHERRY RUN RD, CRAIGSVILLE, WV, 26205",50039505,"R"
57027,"140 CHEVY CHASE STREET UNIT 306","GAITHERSBURG","MD",20878,39.1220031650001,-77.2304163749999,27,"140 CHEVY CHASE STREET UNIT 306, GAITHERSBURG, MD, 20878","Match","Exact","140 CHEVY CHASE ST, GAITHERSBURG, MD, 20878",641074696,"R"
57028,"140 CHIMNEY BLUFF CT","FOLSOM","CA",95630,38.7131775350001,-121.189934693,28,"140 CHIMNEY BLUFF CT, FOLSOM, CA, 95630","Match","Exact","140 CHIMNEY BLUFF CT, FOLSOM, CA, 95630",133408608,"R"
57029,"140 CHUCKAR DR","BEEVILLE","TX",78102,28.507726286,-97.882351711,29,"140 CHUCKAR DR, BEEVILLE, TX, 78102","Match","Exact","140 CHUCKAR DR, BEEVILLE, TX, 78102",35624457,"R"
57030,"140 CHURCH ST","FAYETTEVILLE","GA",30214,33.4502648500001,-84.452564275,30,"140 CHURCH ST, FAYETTEVILLE, GA, 30214","Match","Exact","140 CHURCH ST, FAYETTEVILLE, GA, 30214",75930598,"R"
57031,"140 CHURCH STREET  APT 1","ALEXANDRIA BAY","NY",13607,44.3286302060001,-75.912241356,31,"140 CHURCH STREET  APT 1, ALEXANDRIA BAY, NY, 13607","Match","Exact","140 CHURCH ST, ALEX BAY, NY, 13607",154231197,"L"
57032,"140 CLAIRE DRIVE","ATLANTA","GA",30315,NA,NA,32,"140 CLAIRE DRIVE, ATLANTA, GA, 30315","Tie",NA,NA,NA,NA
57033,"140 CLOUDCREST DR","DESOTO","TX",75115,32.5882705240001,-96.832032265,33,"140 CLOUDCREST DR, DESOTO, TX, 75115","Match","Exact","140 CLOUDCREST DR, DESOTO, TX, 75115",103186349,"L"
57034,"140 COLEY CT","PITTSBORO","NC",27312,35.8025007190001,-79.1308708509999,34,"140 COLEY CT, PITTSBORO, NC, 27312","Match","Exact","140 COLEY CT, PITTSBORO, NC, 27312",637550097,"R"
57035,"140 COMMONWEALTH AVE/ DEVLIN HALL","CHESTNUT HILL","MA",2467,42.338456116,-71.1706663369999,35,"140 COMMONWEALTH AVE/ DEVLIN HALL, CHESTNUT HILL, MA, 2467","Match","Non_Exact","140 COMMONWEALTH AVE, CHESTNUT HILL, MA, 02467",647976633,"L"
57036,"140 CORYDON DRIVE","MIAMI SPRINGS","FL",33166,25.8173525820001,-80.3002955279999,36,"140 CORYDON DRIVE, MIAMI SPRINGS, FL, 33166","Match","Exact","140 CORYDON DR, MIAMI SPRINGS, FL, 33166",115958913,"L"
57037,"140 COURTNEY OAK DRIVE","WEST COLUMBIA","SC",29170,33.9517101210001,-81.162877997,37,"140 COURTNEY OAK DRIVE, WEST COLUMBIA, SC, 29170","Match","Exact","140 COURTNEY OAK DR, WEST COLUMBIA, SC, 29170",70073600,"R"
57038,"140 COWLES AVENUE","BEDFORD","OH",44146,41.390087501,-81.527770075,38,"140 COWLES AVENUE, BEDFORD, OH, 44146","Match","Exact","140 COWLES AVE, BEDFORD, OH, 44146",61130492,"R"
57039,"140 CRAFORD STREET","DANVILLE","IL",61832,NA,NA,39,"140 CRAFORD STREET, DANVILLE, IL, 61832","No_Match",NA,NA,NA,NA
57040,"140 CREST AVE APT 1","REVERE","MA",2151,42.396213135,-70.9866189479999,40,"140 CREST AVE APT 1, REVERE, MA, 2151","Match","Exact","140 CREST AVE, REVERE, MA, 02151",85708876,"L"
57041,"140 CUMBERLAND VILLAGE","CARMICHAELS","PA",15320,39.883706977,-79.97819849,41,"140 CUMBERLAND VILLAGE, CARMICHAELS, PA, 15320","Match","Non_Exact","140 CUMBERLAND AVE, CARMICHAELS, PA, 15320",624398267,"L"
57042,"140 DANUBE DRIVE","PITTSBURGH","PA",15209,40.522166052,-79.9869450529999,42,"140 DANUBE DRIVE, PITTSBURGH, PA, 15209","Match","Exact","140 DANUBE DR, PITTSBURGH, PA, 15209",51624832,"R"
57043,"140 DECKER ROAD","BOONTON","NJ",7005,40.9481170540001,-74.443537433,43,"140 DECKER ROAD, BOONTON, NJ, 7005","Match","Exact","140 DECKER RD, BOONTON, NJ, 07005",636222252,"R"
57044,"140 DEER PARK AVENUE","SAN RAFAEL","CA",94901,37.9772510510001,-122.50746527,44,"140 DEER PARK AVENUE, SAN RAFAEL, CA, 94901","Match","Exact","140 DEER PARK AVE, SAN RAFAEL, CA, 94901",192785730,"R"
57045,"140 DEVOE ST","JACKSONVILLE","FL",32220,30.322885468,-81.79381811,45,"140 DEVOE ST, JACKSONVILLE, FL, 32220","Match","Exact","140 DEVOE ST, JACKSONVILLE, FL, 32220",83940246,"L"
57046,"140 DEVON LOOP APT 12","STATEN ISLAND","NY",10314,40.581109526,-74.160177548,46,"140 DEVON LOOP APT 12, STATEN ISLAND, NY, 10314","Match","Exact","140 DEVON LOOP, STATEN ISLAND, NY, 10314",59872415,"L"
57047,"140 DIAMOND CREEK PLACE","ROSEVILLE","CA",95747,38.798067615,-121.334022183,47,"140 DIAMOND CREEK PLACE, ROSEVILLE, CA, 95747","Match","Exact","140 DIAMOND CREEK PL, ROSEVILLE, CA, 95747",608083157,"L"
57048,"140 DRIFTWOOD DR","STEPHEN CITY","VA",22655,39.074811217,-78.2075396449999,48,"140 DRIFTWOOD DR, STEPHEN CITY, VA, 22655","Match","Non_Exact","140 DRIFTWOOD DR, STEPHENS CITY, VA, 22655",648083923,"R"
57049,"140 E 22ND ST SUITE A","INDIANAPOLIS","IN",46202,NA,NA,49,"140 E 22ND ST SUITE A, INDIANAPOLIS, IN, 46202","Tie",NA,NA,NA,NA
57050,"140 E 3RD ST","MT. VERNON","NY",10550,40.9081382250001,-73.829691914,50,"140 E 3RD ST, MT. VERNON, NY, 10550","Match","Exact","140 E 3RD ST, MOUNT VERNON, NY, 10550",139750442,"R"
57051,"140 E DUNN ST","EDWARDSVILLE","IL",62025,38.816577898,-89.959851713,51,"140 E DUNN ST, EDWARDSVILLE, IL, 62025","Match","Exact","140 E DUNN ST, EDWARDSVILLE, IL, 62025",107714147,"R"
57052,"140 E FAYETTE ST / PO BOX 110","PITTSFIELD","IL",62363,NA,NA,52,"140 E FAYETTE ST / PO BOX 110, PITTSFIELD, IL, 62363","Tie",NA,NA,NA,NA
57053,"140 E FOREST LAKES","BAYFIELD","CO",81122,NA,NA,53,"140 E FOREST LAKES, BAYFIELD, CO, 81122","Tie",NA,NA,NA,NA
57054,"140 E INDIANA AVE","DELAND","FL",32724,29.028978076,-81.302239126,54,"140 E INDIANA AVE, DELAND, FL, 32724","Match","Exact","140 E INDIANA AVE, DELAND, FL, 32724",94510656,"L"
57055,"140 E MARKET ST 2ND FLOOR","AKRON","OH",44308,41.0837601540001,-81.512982941,55,"140 E MARKET ST 2ND FLOOR, AKRON, OH, 44308","Match","Non_Exact","140 E MARKET ST, AKRON, OH, 44308",61341656,"R"
57056,"140 E MARKET ST","AKRON","OH",44308,41.0837601540001,-81.512982941,56,"140 E MARKET ST, AKRON, OH, 44308","Match","Exact","140 E MARKET ST, AKRON, OH, 44308",61341656,"R"
57057,"140 E MARKET STREET","AKRON","OH",44308,41.0837601540001,-81.512982941,57,"140 E MARKET STREET, AKRON, OH, 44308","Match","Exact","140 E MARKET ST, AKRON, OH, 44308",61341656,"R"
57058,"140 E MILL STREET","ELDORADO","OH",45321,NA,NA,58,"140 E MILL STREET, ELDORADO, OH, 45321","No_Match",NA,NA,NA,NA
57059,"140 EAGLE ROCK AVE","ROSELAND","NJ",7068,NA,NA,59,"140 EAGLE ROCK AVE, ROSELAND, NJ, 7068","No_Match",NA,NA,NA,NA
57060,"140 EAST BANDERA ROAD","BOERNE","TX",78006,29.7804486960001,-98.727891571,60,"140 EAST BANDERA ROAD, BOERNE, TX, 78006","Match","Exact","140 E BANDERA RD, BOERNE, TX, 78006",102757561,"R"
57061,"140 EAST LAKE COURT","SLIDELL","LA",70461,30.2126622120001,-89.753936277,61,"140 EAST LAKE COURT, SLIDELL, LA, 70461","Match","Exact","140 E LAKE CT, SLIDELL, LA, 70461",617904486,"L"
57062,"140 EAST MAIN STREET P O BOX 41","ELLISVILLE","IL",61431,40.626834654,-90.3057183239999,62,"140 EAST MAIN STREET P O BOX 41, ELLISVILLE, IL, 61431","Match","Non_Exact","140 W MAIN ST, ELLISVILLE, IL, 61431",15550641,"L"
57063,"140 EAST MOORE STREET","ROCK HILL","SC",29730,34.923063192,-81.031501568,63,"140 EAST MOORE STREET, ROCK HILL, SC, 29730","Match","Exact","140 E MOORE ST, ROCK HILL, SC, 29730",19814812,"R"
57064,"140 ELGAR PLACE 33L","BRONX","NY",10475,NA,NA,64,"140 ELGAR PLACE 33L, BRONX, NY, 10475","Tie",NA,NA,NA,NA
57065,"140 ELGAR PLACE APT 2M","BRONX","NY",10475,NA,NA,65,"140 ELGAR PLACE APT 2M, BRONX, NY, 10475","Tie",NA,NA,NA,NA
57066,"140 ENCHANTED WAY","SAN RAMON","CA",94583,37.770313941,-121.992651605,66,"140 ENCHANTED WAY, SAN RAMON, CA, 94583","Match","Exact","140 ENCHANTED WAY, SAN RAMON, CA, 94583",192100754,"L"
57067,"140 ERDMAN PLACE 10A","BRONX","NY",10475,NA,NA,67,"140 ERDMAN PLACE 10A, BRONX, NY, 10475","Tie",NA,NA,NA,NA
57068,"140 EVERETT LANE","FREDERICKSBURG","VA",22406,NA,NA,68,"140 EVERETT LANE, FREDERICKSBURG, VA, 22406","No_Match",NA,NA,NA,NA
57069,"140 FAIRVIEW DR","NAPA","CA",94559,38.296124687,-122.273791408,69,"140 FAIRVIEW DR, NAPA, CA, 94559","Match","Exact","140 FAIRVIEW DR, NAPA, CA, 94559",67417170,"R"
57070,"140 FARMINGTON AVENUE","HARTFORD","CT",6105,41.767908521,-72.692042323,70,"140 FARMINGTON AVENUE, HARTFORD, CT, 6105","Match","Exact","140 FARMINGTON AVE, HARTFORD, CT, 06105",3494628,"R"
57071,"140 FAULKNER LANE","ROSEBORO","NC",28382,34.9282783190001,-78.520179279,71,"140 FAULKNER LANE, ROSEBORO, NC, 28382","Match","Exact","140 FAULKNER LN, ROSEBORO, NC, 28382",14269239,"R"
57072,"140 FENWICK STREET","WEST HAVEN","CT",6516,41.3005411550001,-72.974609151,72,"140 FENWICK STREET, WEST HAVEN, CT, 6516","Match","Exact","140 FENWICK ST, W HAVEN, CT, 06516",3697620,"L"
57073,"140 FIR DRIVE NW","GIG HARBOR","WA",98335,47.329007319,-122.667891344,73,"140 FIR DRIVE NW, GIG HARBOR, WA, 98335","Match","Exact","140 FIR DR NW, GIG HARBOR, WA, 98335",184760472,"L"
57074,"140 FIRST STREET","BATAVIA","IL",60510,41.848899664,-88.3092300549999,74,"140 FIRST STREET, BATAVIA, IL, 60510","Match","Exact","140 1ST ST, BATAVIA, IL, 60510",119511846,"L"
57075,"140 FLETCHER ROAD","BELMONT","MA",2478,42.4043165310001,-71.181479898,75,"140 FLETCHER ROAD, BELMONT, MA, 2478","Match","Exact","140 FLETCHER RD, BELMONT, MA, 02478",624882211,"R"
57076,"140 FM 16 W","TYLER","TX",75706,32.5319683160001,-95.271876963,76,"140 FM 16 W, TYLER, TX, 75706","Match","Exact","140 FM 16 W, TYLER, TX, 75706",141262418,"L"
57077,"140 GARDEN CITY AVENUE","WYANDANCH","NY",11798,40.7486617540001,-73.378447017,77,"140 GARDEN CITY AVENUE, WYANDANCH, NY, 11798","Match","Exact","140 GARDEN CITY AVE, WYANDANCH, NY, 11798",113971365,"L"
57078,"140 GARDEN ST","LANSING","MI",48910,42.715589972,-84.551843154,78,"140 GARDEN ST, LANSING, MI, 48910","Match","Exact","140 GARDEN ST, LANSING, MI, 48910",17499761,"R"
57079,"140 GAZEBO PARK","JOHNSTOWN","PA",15901,40.3259764690001,-78.918603756,79,"140 GAZEBO PARK, JOHNSTOWN, PA, 15901","Match","Exact","140 GAZEBO PARK, JOHNSTOWN, PA, 15901",50230527,"R"
57080,"140 GENESEE STREET","LOCKPORT","NY",14094,43.1676053690001,-78.692174312,80,"140 GENESEE STREET, LOCKPORT, NY, 14094","Match","Exact","140 GENESEE ST, LOCKPORT, NY, 14094",48691584,"R"
57081,"140 GRACE COURT","HARRODSBURG","KY",40330,37.7591295600001,-84.865792787,81,"140 GRACE COURT, HARRODSBURG, KY, 40330","Match","Exact","140 GRACE CT, HARRODSBURG, KY, 40330",631256268,"R"
57082,"140 GREGLAWN DR","PARAMUS","NJ",7652,40.9490893820001,-74.0599907069999,82,"140 GREGLAWN DR, PARAMUS, NJ, 7652","Match","Non_Exact","140 GREG LAWN DR, PARAMUS, NJ, 07652",64383626,"R"
57083,"140 GREGORY LANE SUITE 195A","PLEASANT HILL","CA",94523,37.947944465,-122.067382663,83,"140 GREGORY LANE SUITE 195A, PLEASANT HILL, CA, 94523","Match","Exact","140 GREGORY LN, PLEASANT HILL, CA, 94523",192103827,"L"
57084,"140 GROVE STREET APT 3","BROOKLYN","NY",11221,40.693613435,-73.920349265,84,"140 GROVE STREET APT 3, BROOKLYN, NY, 11221","Match","Exact","140 GROVE ST, BROOKLYN, NY, 11221",59082979,"R"
57085,"140 HAIGHT ST APT 1","SAN FRANCISCO","CA",94102,37.772862606,-122.424551969,85,"140 HAIGHT ST APT 1, SAN FRANCISCO, CA, 94102","Match","Exact","140 HAIGHT ST, SAN FRANCISCO, CA, 94102",192283929,"R"
57086,"140 HARBORVIEW EAST","LAWRENCE","NY",11559,40.6074381830001,-73.7292518629999,86,"140 HARBORVIEW EAST, LAWRENCE, NY, 11559","Match","Exact","140 HARBORVIEW E, LAWRENCE, NY, 11559",147657570,"L"
57087,"140 HARRISON AVENUE","NAPA","CA",94558,38.2964937300001,-122.307731357,87,"140 HARRISON AVENUE, NAPA, CA, 94558","Match","Exact","140 HARRISON AVE, NAPA, CA, 94558",67416502,"R"
57088,"140 HEPBURN ROAD  APT 18K","CLIFTON","NJ",7012,40.8487923980001,-74.1756333879999,88,"140 HEPBURN ROAD  APT 18K, CLIFTON, NJ, 7012","Match","Exact","140 HEPBURN RD, CLIFTON, NJ, 07012",65275551,"R"
57089,"140 HEREFORD DR","RYE","CO",81069,37.872886167,-104.933905738,89,"140 HEREFORD DR, RYE, CO, 81069","Match","Exact","140 HEREFORD DR, RYE, CO, 81069",650977476,"R"
57090,"140 HERITAGE WAY","SAVANNAH","GA",31419,32.0304701920001,-81.231031934,90,"140 HERITAGE WAY, SAVANNAH, GA, 31419","Match","Exact","140 HERITAGE WAY, SAVANNAH, GA, 31419",628068711,"R"
57091,"140 HIGH STREET","MEDFIELD","MA",2052,42.1613784850001,-71.278564279,91,"140 HIGH STREET, MEDFIELD, MA, 2052","Match","Exact","140 HIGH ST, MEDFIELD, MA, 02052",87305237,"L"
57092,"140 HILLCREST DR","BUCKHANNON","WV",26201,38.9800760320001,-80.237814875,92,"140 HILLCREST DR, BUCKHANNON, WV, 26201","Match","Exact","140 HILLCREST DR, BUCKHANNON, WV, 26201",53442859,"R"
57093,"140 HOBBLE CREEK CANYON","SPRINGVILLE","UT",84663,40.1753247120001,-111.498778102,93,"140 HOBBLE CREEK CANYON, SPRINGVILLE, UT, 84663","Match","Exact","140 HOBBLE CREEK CANYON, SPRINGVILLE, UT, 84663",134196791,"L"
57094,"140 HOWARDS LANE","HAMPSTEAD","NC",28443,34.3583853170001,-77.68202554,94,"140 HOWARDS LANE, HAMPSTEAD, NC, 28443","Match","Exact","140 HOWARDS LN, HAMPSTEAD, NC, 28443",14136873,"R"
57095,"140 INGALLS STREET","SANTA CRUZ","CA",95060,36.95938297,-122.043976972,95,"140 INGALLS STREET, SANTA CRUZ, CA, 95060","Match","Exact","140 INGALLS ST, SANTA CRUZ, CA, 95060",125508353,"R"
57096,"140 INTERLACHEN RD","MELBOURNE","FL",32940,28.2299295560001,-80.698829119,96,"140 INTERLACHEN RD, MELBOURNE, FL, 32940","Match","Exact","140 INTERLACHEN RD, MELBOURNE, FL, 32940",611445028,"R"
57097,"140 JACOBS CIRCLE","RICHMOND HILL","GA",31324,31.8568771180001,-81.286877203,97,"140 JACOBS CIRCLE, RICHMOND HILL, GA, 31324","Match","Exact","140 JACOBS CIR, RICHMOND HILL, GA, 31324",652052622,"R"
57098,"140 JEFFERSON DRIVE","OCEAN","NJ",7712,40.251966021,-74.042931908,98,"140 JEFFERSON DRIVE, OCEAN, NJ, 7712","Match","Exact","140 JEFFERSON DR, OCEAN, NJ, 07712",90502234,"L"
57099,"140 JOLIE CIRCLE","BOERNE","TX",78015,29.758005634,-98.702058612,99,"140 JOLIE CIRCLE, BOERNE, TX, 78015","Match","Exact","140 JOLIE CIR, BOERNE, TX, 78015",642993694,"R"
57100,"140 KAREN AVE","CLOVIS","CA",93612,36.8282636650001,-119.71973721,100,"140 KAREN AVE, CLOVIS, CA, 93612","Match","Exact","140 KAREN AVE, CLOVIS, CA, 93612",197618929,"L"
57101,"140 KATHIE DRIVE","PONCHATOULA","LA",70454,30.4479205060001,-90.4514605369999,101,"140 KATHIE DRIVE, PONCHATOULA, LA, 70454","Match","Exact","140 KATHIE DR, PONCHATOULA, LA, 70454",627207637,"R"
57102,"140 KERN RD","FOWLERVILLE","MI",48836,42.597807157,-84.055495147,102,"140 KERN RD, FOWLERVILLE, MI, 48836","Match","Non_Exact","140 S KERN RD, FOWLERVILLE, MI, 48836",23557012,"L"
57103,"140 KNICKERBOCKER ROAD","PITTSFORD","NY",14534,43.0737875550001,-77.506416574,103,"140 KNICKERBOCKER ROAD, PITTSFORD, NY, 14534","Match","Exact","140 KNICKERBOCKER RD, PITTSFORD, NY, 14534",14573334,"L"
57104,"140 LAKESIDE AVE 345","SEATTLE","WA",98122,47.6020359620001,-122.285177622,104,"140 LAKESIDE AVE 345, SEATTLE, WA, 98122","Match","Exact","140 LAKESIDE AVE, SEATTLE, WA, 98122",186594656,"R"
57105,"140 LAKESIDE AVE STE A 2","SEATTLE","WA",98122,47.6020359620001,-122.285177622,105,"140 LAKESIDE AVE STE A 2, SEATTLE, WA, 98122","Match","Exact","140 LAKESIDE AVE, SEATTLE, WA, 98122",186594656,"R"
57106,"140 LAKEVIEW AVE","SYRACUSE","NY",13204,43.0493693070001,-76.1758606129999,106,"140 LAKEVIEW AVE, SYRACUSE, NY, 13204","Match","Exact","140 LAKEVIEW AVE, SYRACUSE, NY, 13204",46569835,"R"
57107,"140 LANDING ROAD","HAMPTON","NH",3842,42.9245438090001,-70.835166978,107,"140 LANDING ROAD, HAMPTON, NH, 3842","Match","Exact","140 LANDING RD, HAMPTON, NH, 03842",638995600,"R"
57108,"140 LAUREL MANOR LANE","NORTH WILKESBORO","NC",28659,36.2119944990001,-81.161936756,108,"140 LAUREL MANOR LANE, NORTH WILKESBORO, NC, 28659","Match","Exact","140 LAUREL MANOR LN, N WILKESBORO, NC, 28659",46132912,"R"
57109,"140 LEESWOOD CIRCL","BRUNSWICK","GA",31525,31.200232418,-81.473385609,109,"140 LEESWOOD CIRCL, BRUNSWICK, GA, 31525","Match","Exact","140 LEESWOOD CIR, BRUNSWICK, GA, 31525",619758154,"R"
57110,"140 LEGENDS CIRCLE","HOLLISTER","MO",65672,NA,NA,110,"140 LEGENDS CIRCLE, HOLLISTER, MO, 65672","No_Match",NA,NA,NA,NA
57111,"140 LENOX ROAD","WEST STOCKBRIDGE","MA",1266,42.3507124120001,-73.347555374,111,"140 LENOX ROAD, WEST STOCKBRIDGE, MA, 1266","Match","Exact","140 LENOX RD, W STOCKBRIDGE, MA, 01266",3946199,"R"
57112,"140 LINDEN AVE SUITE 291","LONG BEACH","CA",90802,33.7687699890001,-118.186353242,112,"140 LINDEN AVE SUITE 291, LONG BEACH, CA, 90802","Match","Exact","140 LINDEN AVE, LONG BEACH, CA, 90802",141694470,"R"
57113,"140 LITTLETON ROAD SUITE 101","PARSIPPANY","NJ",7054,40.8664942020001,-74.418878546,113,"140 LITTLETON ROAD SUITE 101, PARSIPPANY, NJ, 7054","Match","Exact","140 LITTLETON RD, PARSIPPANY, NJ, 07054",60513981,"R"
57114,"140 LIVE OAK AVENUE","FAIRFAX","CA",94930,37.9876457500001,-122.58497283,114,"140 LIVE OAK AVENUE, FAIRFAX, CA, 94930","Match","Exact","140 LIVE OAK AVE, FAIRFAX, CA, 94930",192760513,"R"
57115,"140 LLOYD ST","NEW HAVEN","CT",6513,41.3050791740001,-72.900475666,115,"140 LLOYD ST, NEW HAVEN, CT, 6513","Match","Exact","140 LLOYD ST, NEW HAVEN, CT, 06513",636502281,"L"
57116,"140 LOCUST AVENUE","RYE","NY",10580,40.983805531,-73.691534358,116,"140 LOCUST AVENUE, RYE, NY, 10580","Match","Exact","140 LOCUST AVE, RYE, NY, 10580",139756576,"R"
57117,"140 LOPERWOOD","LAGRANGE","OH",44050,41.245281962,-82.1229482959999,117,"140 LOPERWOOD, LAGRANGE, OH, 44050","Match","Non_Exact","140 LOPERWOOD LN, LAGRANGE, OH, 44050",55449853,"L"
57118,"140 MAIN STREET / PO BOX 385","IRWIN","PA",15642,40.3345375970001,-79.7098233729999,118,"140 MAIN STREET / PO BOX 385, IRWIN, PA, 15642","Match","Exact","140 MAIN ST, IRWIN, PA, 15642",52966952,"R"
57119,"140 MAPLE HILL RD","THETFORD CENTER","VT",5075,43.8726305960001,-72.3381595119999,119,"140 MAPLE HILL RD, THETFORD CENTER, VT, 5075","Match","Exact","140 MAPLE HILL RD, THETFORD CENTER, VT, 05075",181146757,"L"
57120,"140 MAPLE STREET","BROOKLYN","NY",11225,40.660492128,-73.956021634,120,"140 MAPLE STREET, BROOKLYN, NY, 11225","Match","Exact","140 MAPLE ST, BROOKLYN, NY, 11225",59079508,"R"
57121,"140 MARTIN LOOP SW","CARTERSVILLE","GA",30120,34.1917474040001,-84.876559008,121,"140 MARTIN LOOP SW, CARTERSVILLE, GA, 30120","Match","Exact","140 MARTIN LOOP SW, CARTERSVILLE, GA, 30120",651738794,"L"
57122,"140 MEAD ROAD","DECATUR","GA",30030,33.7651118320001,-84.306073607,122,"140 MEAD ROAD, DECATUR, GA, 30030","Match","Exact","140 MEAD RD, DECATUR, GA, 30030",23366801,"L"
57123,"140 MERIDIAN AVENUE APT 324","MIAMI BEACH","FL",33139,NA,NA,123,"140 MERIDIAN AVENUE APT 324, MIAMI BEACH, FL, 33139","No_Match",NA,NA,NA,NA
57124,"140 MERIDIAN WAY","RICHMOND","KY",40475,37.733662085,-84.3344630349999,124,"140 MERIDIAN WAY, RICHMOND, KY, 40475","Match","Exact","140 MERIDIAN WAY, RICHMOND, KY, 40475",619908639,"R"
57125,"140 MERIDIAN","RICHMOND","KY",40475,37.733662085,-84.3344630349999,125,"140 MERIDIAN, RICHMOND, KY, 40475","Match","Non_Exact","140 MERIDIAN WAY, RICHMOND, KY, 40475",619908639,"R"
57126,"140 MEYERS DRIVE","WEATHERLY","PA",18255,NA,NA,126,"140 MEYERS DRIVE, WEATHERLY, PA, 18255","No_Match",NA,NA,NA,NA
57127,"140 MIAMI AVENUE","AMSTERDAM","NY",12010,NA,NA,127,"140 MIAMI AVENUE, AMSTERDAM, NY, 12010","No_Match",NA,NA,NA,NA
57128,"140 MILL ST UNIT 15112","EAST HAVEN","CT",6512,41.3184589360001,-72.8515298849999,128,"140 MILL ST UNIT 15112, EAST HAVEN, CT, 6512","Match","Exact","140 MILL ST, EAST HAVEN, CT, 06512",645564723,"L"
57129,"140 MILLTOWN ROAD","BRIDGEWATER","NJ",8807,40.564117262,-74.674012526,129,"140 MILLTOWN ROAD, BRIDGEWATER, NJ, 8807","Match","Exact","140 MILLTOWN RD, BRIDGEWATER, NJ, 08807",640450564,"R"
57130,"140 MONROE TURNPIKE SUITE A","TRUMBULL","CT",6611,41.296608597,-73.228345025,130,"140 MONROE TURNPIKE SUITE A, TRUMBULL, CT, 6611","Match","Exact","140 MONROE TPKE, TRUMBULL, CT, 06611",3269822,"R"
57131,"140 MONTECITO AVE APT 203","OAKLAND","CA",94610,37.811732697,-122.259633338,131,"140 MONTECITO AVE APT 203, OAKLAND, CA, 94610","Match","Exact","140 MONTECITO AVE, OAKLAND, CA, 94610",125000482,"R"
57132,"140 MUSTERFIELD HEIGHTS","CLARKSBURG","MA",1247,42.7244598090001,-73.090213279,132,"140 MUSTERFIELD HEIGHTS, CLARKSBURG, MA, 1247","Match","Exact","140 MUSTERFIELD HTS, CLARKSBURG, MA, 01247",3916199,"R"
57133,"140 MYERS RAOD","NEVERSINK","NY",12765,41.834365479,-74.632520574,133,"140 MYERS RAOD, NEVERSINK, NY, 12765","Match","Non_Exact","140 MYERS RD, NEVERSINK, NY, 12765",635594845,"R"
57134,"140 MYRTLE AVE","FORT LEE","NJ",7024,40.861921153,-73.960897586,134,"140 MYRTLE AVE, FORT LEE, NJ, 7024","Match","Exact","140 MYRTLE AVE, FORT LEE, NJ, 07024",64390471,"L"
57135,"140 N 29TH ST SUITE 235","PUEBLO","CO",81007,NA,NA,135,"140 N 29TH ST SUITE 235, PUEBLO, CO, 81007","No_Match",NA,NA,NA,NA
57136,"140 N 3RD ST","CHAMBERSBURG","PA",17201,39.938920222,-77.656673747,136,"140 N 3RD ST, CHAMBERSBURG, PA, 17201","Match","Exact","140 N 3RD ST, CHAMBERSBURG, PA, 17201",640012737,"R"
57137,"140 N CANAL ST","WALNUTPORT","PA",18088,40.755869165,-75.602204381,137,"140 N CANAL ST, WALNUTPORT, PA, 18088","Match","Exact","140 N CANAL ST, WALNUTPORT, PA, 18088",639155979,"R"
57138,"140 N DAVIS ROAD","LAGRANGE","GA",30241,33.060378825,-84.9860950949999,138,"140 N DAVIS ROAD, LAGRANGE, GA, 30241","Match","Exact","140 N DAVIS RD, LAGRANGE, GA, 30241",1772230,"R"
57139,"140 N ECOLS","MONMOUTH","OR",97361,NA,NA,139,"140 N ECOLS, MONMOUTH, OR, 97361","No_Match",NA,NA,NA,NA
57140,"140 N GREENVILLE AVE","RICHARDSON","TX",75081,32.949138319,-96.729376044,140,"140 N GREENVILLE AVE, RICHARDSON, TX, 75081","Match","Exact","140 N GREENVILLE AVE, RICHARDSON, TX, 75081",103251853,"L"
57141,"140 N MONTEZUMA STREET SUITE 302","PRESCOTT","AZ",86301,34.5427354650001,-112.470112717,141,"140 N MONTEZUMA STREET SUITE 302, PRESCOTT, AZ, 86301","Match","Non_Exact","140 N MONTEZUMA ST, PRESCOTT, AZ, 86301",159457086,"L"
57142,"140 N PHILLIPS AVE 4TH FLOOR","SIOUX FALLS","SD",57104,NA,NA,142,"140 N PHILLIPS AVE 4TH FLOOR, SIOUX FALLS, SD, 57104","Tie",NA,NA,NA,NA
57143,"140 N SAN JACINTO STREET","HEMET","CA",92543,33.7484158780001,-116.958635407,143,"140 N SAN JACINTO STREET, HEMET, CA, 92543","Match","Exact","140 N SAN JACINTO ST, HEMET, CA, 92543",194756393,"L"
57144,"140 N SANDUSKY ST","D","OH",43015,40.30337038,-83.0673696919999,144,"140 N SANDUSKY ST, D, OH, 43015","Match","Non_Exact","140 N SANDUSKY ST, DELAWARE, OH, 43015",635844951,"R"
57145,"140 N VALLEY RD","X","OH",45385,39.6901940770001,-83.997885185,145,"140 N VALLEY RD, X, OH, 45385","Match","Non_Exact","140 N VALLEY RD, XENIA, OH, 45385",642934623,"L"
57146,"140 NAMAUU PLACE","KIHEI","HI",96753,20.7573344140001,-156.453118759,146,"140 NAMAUU PLACE, KIHEI, HI, 96753","Match","Exact","140 NAMAUU PL, KIHEI, HI, 96753",85067635,"L"
57147,"140 NASSAU ST 7B","NEW YORK","NY",10038,40.7112744520001,-74.006399776,147,"140 NASSAU ST 7B, NEW YORK, NY, 10038","Match","Exact","140 NASSAU ST, NEW YORK, NY, 10038",59660413,"R"
57148,"140 NE 2ND ST","GRAND RAPIDS","MN",55744,47.2338324780001,-93.526356957,148,"140 NE 2ND ST, GRAND RAPIDS, MN, 55744","Match","Exact","140 NE 2ND ST, GRAND RAPIDS, MN, 55744",611769282,"R"
57149,"140 NE 84TH STREET - 704","MIAMI","FL",33138,25.8690122200001,-80.121782858,149,"140 NE 84TH STREET - 704, MIAMI, FL, 33138","Match","Non_Exact","140 84TH ST, MIAMI, FL, 33141",116009253,"L"
57150,"140 NEWARK AV  APT 3","JERSEY CITY","NJ",7302,40.7203208870001,-74.043575915,150,"140 NEWARK AV  APT 3, JERSEY CITY, NJ, 7302","Match","Exact","140 NEWARK AVE, JERSEY CITY, NJ, 07302",59606205,"R"
57151,"140 NORFOLK CIRCLE","ANDERSON","SC",29625,NA,NA,151,"140 NORFOLK CIRCLE, ANDERSON, SC, 29625","No_Match",NA,NA,NA,NA
57152,"140 NORTH 6TH ST","BATAVIA","OH",45103,39.0750350230001,-84.172471043,152,"140 NORTH 6TH ST, BATAVIA, OH, 45103","Match","Exact","140 N 6TH ST, BATAVIA, OH, 45103",118467227,"R"
57153,"140 NORTH BROADWAY","SOUTH AMBOY","NJ",8879,NA,NA,153,"140 NORTH BROADWAY, SOUTH AMBOY, NJ, 8879","Tie",NA,NA,NA,NA
57154,"140 NORTH CHEYENNE ST APT 309","POWELL","WY",82435,44.753401916,-108.761796611,154,"140 NORTH CHEYENNE ST APT 309, POWELL, WY, 82435","Match","Exact","140 N CHEYENNE ST, POWELL, WY, 82435",149192450,"L"
57155,"140 NORTH MAIN STREET","MOUNT AIRY","NC",27030,36.4998997930001,-80.607343978,155,"140 NORTH MAIN STREET, MOUNT AIRY, NC, 27030","Match","Exact","140 N MAIN ST, MOUNT AIRY, NC, 27030",154168659,"R"
57156,"140 OAK CIRCLE","GADSDEN","AL",35901,33.9619139960001,-86.0235830519999,156,"140 OAK CIRCLE, GADSDEN, AL, 35901","Match","Exact","140 OAK CIR, GADSDEN, AL, 35901",66769712,"L"
57157,"140 OCEAN BOULEVARD","ATLANTIC HIGHLANDS","NJ",7716,40.4129984100001,-74.025849598,157,"140 OCEAN BOULEVARD, ATLANTIC HIGHLANDS, NJ, 7716","Match","Exact","140 OCEAN BLVD, ATLANTIC HIGHLANDS, NJ, 07716",90471771,"L"
57158,"140 OTTMER ROAD","SUMMERSVILLE","WV",26651,38.2759472810001,-80.8021832379999,158,"140 OTTMER ROAD, SUMMERSVILLE, WV, 26651","Match","Exact","140 OTTMER RD, SUMMERSVILLE, WV, 26651",50037117,"L"
57159,"140 PALISADES CIRCLE","STOUGHTON","MA",2072,42.084575855,-71.111077058,159,"140 PALISADES CIRCLE, STOUGHTON, MA, 2072","Match","Exact","140 PALISADES CIR, STOUGHTON, MA, 02072",87276113,"R"
57160,"140 PARK BRIDGE LN","ROSWELL","GA",30075,34.0348607500001,-84.364975462,160,"140 PARK BRIDGE LN, ROSWELL, GA, 30075","Match","Exact","140 PARK BRIDGE LN, ROSWELL, GA, 30075",17386098,"L"
57161,"140 PARK STREET","DARLINGTON","SC",29532,34.304983812,-79.873651072,161,"140 PARK STREET, DARLINGTON, SC, 29532","Match","Exact","140 PARK ST, DARLINGTON, SC, 29532",640567467,"L"
57162,"140 PARKER VILLAGE CIR","PANAMA CITY","FL",32404,30.14540185,-85.593785984,162,"140 PARKER VILLAGE CIR, PANAMA CITY, FL, 32404","Match","Exact","140 PARKER VILLAGE CIR, PANAMA CITY, FL, 32404",7038184,"R"
57163,"140 PARKWAY AVE","CINCINNATI","OH",45216,39.2098607880001,-84.4706092019999,163,"140 PARKWAY AVE, CINCINNATI, OH, 45216","Match","Exact","140 PARKWAY AVE, CINCINNATI, OH, 45216",103928034,"L"
57164,"140 PATIO RD","MIDDLETOWN","NY",10941,41.477325776,-74.374950047,164,"140 PATIO RD, MIDDLETOWN, NY, 10941","Match","Exact","140 PATIO RD, MIDDLETOWN, NY, 10941",124491126,"R"
57165,"140 PAVILION WAY","GEORGETOWN","KY",40324,38.2322714050001,-84.5441649159999,165,"140 PAVILION WAY, GEORGETOWN, KY, 40324","Match","Non_Exact","140 PAVILION DR, GEORGETOWN, KY, 40324",41240015,"R"
57166,"140 PENN ST","HATFIELD","PA",19440,40.2851768990001,-75.2979958239999,166,"140 PENN ST, HATFIELD, PA, 19440","Match","Non_Exact","140 PENN AVE, HATFIELD, PA, 19440",135072653,"L"
57167,"140 PENNSYLVANIA AVE","FLEMINGTON","NJ",8822,40.514165673,-74.844984226,167,"140 PENNSYLVANIA AVE, FLEMINGTON, NJ, 8822","Match","Exact","140 PENNSYLVANIA AVE, FLEMINGTON, NJ, 08822",60027913,"R"
57168,"140 PIN OAK DR","POPLARVILLE","MS",39470,30.737269714,-89.4984149219999,168,"140 PIN OAK DR, POPLARVILLE, MS, 39470","Match","Exact","140 PIN OAK DR, POPLARVILLE, MS, 39470",635274814,"L"
57169,"140 PINE ST","SANTA FE","NM",87501,35.689004701,-105.963208079,169,"140 PINE ST, SANTA FE, NM, 87501","Match","Exact","140 PINE ST, SANTA FE, NM, 87501",169377096,"L"
57170,"140 PINNACLE CT","SUMTER","SC",29154,33.8904405710001,-80.3747430669999,170,"140 PINNACLE CT, SUMTER, SC, 29154","Match","Exact","140 PINNACLE CT, SUMTER, SC, 29154",627169001,"L"
57171,"140 PINNACLE POINT DRIVE","HILLSBORO","IL",62049,NA,NA,171,"140 PINNACLE POINT DRIVE, HILLSBORO, IL, 62049","No_Match",NA,NA,NA,NA
57172,"140 PINTO RUN LN","NOEL","MO",64854,36.5116338220001,-94.45711421,172,"140 PINTO RUN LN, NOEL, MO, 64854","Match","Exact","140 PINTO RUN LN, NOEL, MO, 64854",49431734,"L"
57173,"140 PITTS GRIFFIN DRIVE","MADISON","AL",35756,34.602171174,-86.746710056,173,"140 PITTS GRIFFIN DRIVE, MADISON, AL, 35756","Match","Exact","140 PITTS GRIFFIN DR, MADISON, AL, 35756",642138615,"R"
57174,"140 PIZARRO AVE","RANCHO VIEJO","TX",78575,26.0307550150001,-97.553284289,174,"140 PIZARRO AVE, RANCHO VIEJO, TX, 78575","Match","Exact","140 PIZARRO AVE, RANCHO VIEJO, TX, 78575",89962100,"R"
57175,"140 PORTIA PALTING LANE","TAMUNING","GU",96913,13.4937441710001,144.79097405,175,"140 PORTIA PALTING LANE, TAMUNING, GU, 96913","Match","Exact","140 PORTIA PALTING LN, TAMUNING, GU, 96913",204563701,"L"
57176,"140 PROSPECT AVENUE SUITE G","KIRKWOOD","MO",63122,38.567685801,-90.4074373129999,176,"140 PROSPECT AVENUE SUITE G, KIRKWOOD, MO, 63122","Match","Exact","140 PROSPECT AVE, KIRKWOOD, MO, 63122",100137383,"L"
57177,"140 PROSPECT ST","NEWPORT","VT",5855,44.9328767040001,-72.211300718,177,"140 PROSPECT ST, NEWPORT, VT, 5855","Match","Exact","140 PROSPECT ST, NEWPORT, VT, 05855",196751037,"L"
57178,"140 PROSPECT STREET","HONOLULU","HI",96813,21.3148222880001,-157.849748089,178,"140 PROSPECT STREET, HONOLULU, HI, 96813","Match","Exact","140 PROSPECT ST, HONOLULU, HI, 96813",203258837,"L"
57179,"140 PROSPECTS AVENUE APT 3M","HACKENSACK","NJ",7601,NA,NA,179,"140 PROSPECTS AVENUE APT 3M, HACKENSACK, NJ, 7601","No_Match",NA,NA,NA,NA
57180,"140 QUEEN ST","BOONE","NC",28607,36.2194599040001,-81.6828743089999,180,"140 QUEEN ST, BOONE, NC, 28607","Match","Exact","140 QUEEN ST, BOONE, NC, 28607",52031115,"R"
57181,"140 QUINCY AVE UNIT 25","QUINCY","MA",2169,42.2423891500001,-70.9950235159999,181,"140 QUINCY AVE UNIT 25, QUINCY, MA, 2169","Match","Exact","140 QUINCY AVE, QUINCY, MA, 02169",87250023,"L"
57182,"140 RICEFIELD ROAD","HARTWELL","GA",30643,34.3624495780001,-82.925476041,182,"140 RICEFIELD ROAD, HARTWELL, GA, 30643","Match","Exact","140 RICEFIELD RD, HARTWELL, GA, 30643",22651824,"L"
57183,"140 RISING MIST DR","FAYETTEVILLE","GA",30215,33.4416609670001,-84.513383244,183,"140 RISING MIST DR, FAYETTEVILLE, GA, 30215","Match","Exact","140 RISING MIST DR, FAYETTEVILLE, GA, 30215",627722671,"L"
57184,"140 RIVER OAKS LANE","BASALT","CO",81621,39.3719237780001,-107.079378368,184,"140 RIVER OAKS LANE, BASALT, CO, 81621","Match","Exact","140 RIVER OAKS LN, BASALT, CO, 81621",105762910,"R"
57185,"140 RIVERCREST DRIVE","MOON TWP","PA",15108,40.5308052010001,-80.1931616799999,185,"140 RIVERCREST DRIVE, MOON TWP, PA, 15108","Match","Exact","140 RIVERCREST DR, MOON TOWNSHIP, PA, 15108",51610513,"R"
57186,"140 RIVERSIDE BLVD APT 424","NEW YORK","NY",10069,40.7770961590001,-73.9890811129999,186,"140 RIVERSIDE BLVD APT 424, NEW YORK, NY, 10069","Match","Exact","140 RIVERSIDE BLVD, NEW YORK, NY, 10069",59665039,"R"
57187,"140 RUE CHARLEMAGNE","SLIDELL","LA",70461,30.277028725,-89.728912974,187,"140 RUE CHARLEMAGNE, SLIDELL, LA, 70461","Match","Exact","140 RUE CHARLEMAGNE, SLIDELL, LA, 70461",111286654,"R"
57188,"140 S COLE ROAD","BOISE","ID",83709,43.6031330170001,-116.27418189,188,"140 S COLE ROAD, BOISE, ID, 83709","Match","Exact","140 S COLE RD, BOISE, ID, 83709",117862136,"L"
57189,"140 S ELGIN AVE","GRIFFITH","IN",46319,41.522142488,-87.44127429,189,"140 S ELGIN AVE, GRIFFITH, IN, 46319","Match","Exact","140 S ELGIN AVE, GRIFFITH, IN, 46319",98429531,"R"
57190,"140 S GILBERT RD","GILBERT","AZ",85296,33.347913234,-111.78958992,190,"140 S GILBERT RD, GILBERT, AZ, 85296","Match","Exact","140 S GILBERT RD, GILBERT, AZ, 85296",128926459,"R"
57191,"140 S HAMILTON ROAD","GAHANNA","OH",43230,40.0165451660001,-82.866724956,191,"140 S HAMILTON ROAD, GAHANNA, OH, 43230","Match","Exact","140 S HAMILTON RD, GAHANNA, OH, 43230",218692305,"R"
57192,"140 S HOLLY ST SUITE 1291","MEDFORD","OR",97501,42.3257867790001,-122.877035969,192,"140 S HOLLY ST SUITE 1291, MEDFORD, OR, 97501","Match","Non_Exact","140 N HOLLY ST, MEDFORD, OR, 97501",155514334,"R"
57193,"140 S JEWETT ST","MANCHESTER","NH",3103,NA,NA,193,"140 S JEWETT ST, MANCHESTER, NH, 3103","Tie",NA,NA,NA,NA
57194,"140 S LAKE AVENUE SUITE 348","PASADENA","CA",91101,NA,NA,194,"140 S LAKE AVENUE SUITE 348, PASADENA, CA, 91101","Tie",NA,NA,NA,NA
57195,"140 S MAIN","BUFFALO","WY",82834,44.345189514,-106.698112789,195,"140 S MAIN, BUFFALO, WY, 82834","Match","Non_Exact","140 S MAIN ST, BUFFALO, WY, 82834",147299520,"L"
57196,"140 S RIVER ST UNIT 301","AURORA","IL",60506,NA,NA,196,"140 S RIVER ST UNIT 301, AURORA, IL, 60506","Tie",NA,NA,NA,NA
57197,"140 SALIGUGI WAY","LOUDON","TN",37774,35.674930627,-84.248987375,197,"140 SALIGUGI WAY, LOUDON, TN, 37774","Match","Exact","140 SALIGUGI WAY, LOUDON, TN, 37774",99973235,"R"
57198,"140 SANDFORD AVE","NORTH PLAINFIELD","NJ",7060,40.6270703640001,-74.4244055089999,198,"140 SANDFORD AVE, NORTH PLAINFIELD, NJ, 7060","Match","Exact","140 SANDFORD AVE, N PLAINFIELD, NJ, 07060",59948989,"R"
57199,"140 SANDRA LYNN DRIVE APT 2","AURORA","IN",47001,39.0518917570001,-84.915977283,199,"140 SANDRA LYNN DRIVE APT 2, AURORA, IN, 47001","Match","Exact","140 SANDRA LYNN DR, AURORA, IN, 47001",624348242,"R"
57200,"140 SEMM  SEASE ROAD","GILBERT","SC",29054,33.9228602950001,-81.363328444,200,"140 SEMM  SEASE ROAD, GILBERT, SC, 29054","Match","Exact","140 SEMM SEASE RD, GILBERT, SC, 29054",641133939,"L"
57201,"140 SHRIKE CIRCLE","SACRAMENTO","CA",95834,38.6282886070001,-121.532036787,201,"140 SHRIKE CIRCLE, SACRAMENTO, CA, 95834","Match","Exact","140 SHRIKE CIR, SACRAMENTO, CA, 95834",133441489,"R"
57202,"140 SOUTH BEDFORD ROAD","CHAPPAQUA","NY",10514,NA,NA,202,"140 SOUTH BEDFORD ROAD, CHAPPAQUA, NY, 10514","No_Match",NA,NA,NA,NA
57203,"140 SOUTH HAWK DRIVE","RAINBOW CITY","AL",35906,33.9455444020001,-86.0535092379999,203,"140 SOUTH HAWK DRIVE, RAINBOW CITY, AL, 35906","Match","Exact","140 S HAWK DR, RAINBOW CITY, AL, 35906",66803482,"L"
57204,"140 SOUTH VAN NESS AVE NUM 1019","SAN FRANCISCO","CA",94103,37.771450482,-122.418205846,204,"140 SOUTH VAN NESS AVE NUM 1019, SAN FRANCISCO, CA, 94103","Match","Exact","140 S VAN NESS AVE, SAN FRANCISCO, CA, 94103",192298631,"R"
57205,"140 SPRINGWOOD TRAIL","ALTAMONTE SPRINGS","FL",32714,28.6429679780001,-81.3937896529999,205,"140 SPRINGWOOD TRAIL, ALTAMONTE SPRINGS, FL, 32714","Match","Non_Exact","140 SPRING WOOD TRL, ALTAMONTE SPRINGS, FL, 32714",93742523,"R"
57206,"140 STATE ROUTE 208","YERINGTON","NV",89447,38.9643562740001,-119.163345307,206,"140 STATE ROUTE 208, YERINGTON, NV, 89447","Match","Exact","140 STATE RTE 208, YERINGTON, NV, 89447",140360133,"R"
57207,"140 STOW ROAD","HARVARD","MA",1451,42.475299652,-71.5645040169999,207,"140 STOW ROAD, HARVARD, MA, 1451","Match","Exact","140 STOW RD, HARVARD, MA, 01451",40099057,"R"
57208,"140 STRATFORD STREET E PO BOX 381","AVON","MN",56310,45.6087986380001,-94.450200555,208,"140 STRATFORD STREET E PO BOX 381, AVON, MN, 56310","Match","Non_Exact","140 STRADFORD ST E, AVON, MN, 56310",107424241,"L"
57209,"140 STRODE STATION CIRCLE APT F","WINCHESTER","KY",40391,38.001066608,-84.211970467,209,"140 STRODE STATION CIRCLE APT F, WINCHESTER, KY, 40391","Match","Exact","140 STRODE STATION CIR, WINCHESTER, KY, 40391",31788675,"L"
57210,"140 SUITEA BRIDGES RD","MAULDIN","SC",29662,NA,NA,210,"140 SUITEA BRIDGES RD, MAULDIN, SC, 29662","No_Match",NA,NA,NA,NA
57211,"140 SUMMIT STREET","BURLINGTON","VT",5401,44.4722087920001,-73.202075415,211,"140 SUMMIT STREET, BURLINGTON, VT, 5401","Match","Exact","140 SUMMIT ST, BURLINGTON, VT, 05401",135828176,"L"
57212,"140 SW OAKLAND AVENUE","PORT SAINT LUCIE","FL",34953,27.245276183,-80.350746005,212,"140 SW OAKLAND AVENUE, PORT SAINT LUCIE, FL, 34953","Match","Exact","140 SW OAKLAND AVE, PORT ST LUCIE, FL, 34953",120172477,"R"
57213,"140 SYLVESTER RD","SAN DIEGO","CA",92106,32.6891304530001,-117.24024132,213,"140 SYLVESTER RD, SAN DIEGO, CA, 92106","Match","Exact","140 SYLVESTER RD, SAN DIEGO, CA, 92106",652140214,"L"
57214,"140 TANGLEWOOD PLACE","HOT SPRINGS","AR",71913,34.4378897400001,-93.1110145599999,214,"140 TANGLEWOOD PLACE, HOT SPRINGS, AR, 71913","Match","Exact","140 TANGLEWOOD PL, HOT SPRINGS, AR, 71913",22757814,"R"
57215,"140 TELEMARK LANE","BUTTE","MT",59701,45.9578630390001,-112.59190167,215,"140 TELEMARK LANE, BUTTE, MT, 59701","Match","Exact","140 TELEMARK LN, BUTTE, MT, 59701",633133232,"R"
57216,"140 THOMPSON STREET   UNIT 20B","EAST HAVEN","CT",6513,41.3264739210001,-72.8505035479999,216,"140 THOMPSON STREET   UNIT 20B, EAST HAVEN, CT, 6513","Match","Exact","140 THOMPSON ST, EAST HAVEN, CT, 06513",3705050,"L"
57217,"140 TOMAHAWK DRIVE","INDIAN HARBOUR BEACH","FL",32937,28.160405917,-80.602227122,217,"140 TOMAHAWK DRIVE, INDIAN HARBOUR BEACH, FL, 32937","Match","Exact","140 TOMAHAWK DR, INDIAN HARBOUR BEACH, FL, 32937",93901437,"L"
57218,"140 TONY DIAZ DRIVE","WOODLAND","CA",95695,NA,NA,218,"140 TONY DIAZ DRIVE, WOODLAND, CA, 95695","No_Match",NA,NA,NA,NA
57219,"140 TONY DIAZ WAY","WOODLAND","CA",95776,NA,NA,219,"140 TONY DIAZ WAY, WOODLAND, CA, 95776","No_Match",NA,NA,NA,NA
57220,"140 TOOKE DR","SHREVEPORT","LA",71106,32.3959806770001,-93.740468108,220,"140 TOOKE DR, SHREVEPORT, LA, 71106","Match","Exact","140 TOOKE DR, SHREVEPORT, LA, 71106",57442255,"L"
57221,"140 TRAIL CREEK RD","LAKE GEORGE","CO",80827,38.9928576020001,-105.329244229,221,"140 TRAIL CREEK RD, LAKE GEORGE, CO, 80827","Match","Exact","140 TRAIL CREEK RD, LAKE GEORGE, CO, 80827",130939825,"R"
57222,"140 TREMPER AVE","KINGSTON","NY",12401,41.9317068500001,-74.003132568,222,"140 TREMPER AVE, KINGSTON, NY, 12401","Match","Exact","140 TREMPER AVE, KINGSTON, NY, 12401",41929484,"R"
57223,"140 TWIN OAKS DRIVE","NASHVILLE","TN",37211,36.1038619770001,-86.716655155,223,"140 TWIN OAKS DRIVE, NASHVILLE, TN, 37211","Match","Exact","140 TWIN OAKS DR, NASHVILLE, TN, 37211",637491935,"L"
57224,"140 UNION STREET  203","LYNN","MA",1901,NA,NA,224,"140 UNION STREET  203, LYNN, MA, 1901","No_Match",NA,NA,NA,NA
57225,"140 UWAPO RD 25-104","KIHEI","HI",96753,20.781577639,-156.458233749,225,"140 UWAPO RD 25-104, KIHEI, HI, 96753","Match","Exact","140 UWAPO RD, KIHEI, HI, 96753",642234206,"R"
57226,"140 W 104TH STREET STE 12F","NEW YORK","NY",10025,40.7982255310001,-73.964569642,226,"140 W 104TH STREET STE 12F, NEW YORK, NY, 10025","Match","Non_Exact","140 W 104TH ST, NEW YORK, NY, 10025",610197770,"L"
57227,"140 W 16TH STREET","NATIONAL CITY","CA",91950,32.6684240450001,-117.105997427,227,"140 W 16TH STREET, NATIONAL CITY, CA, 91950","Match","Exact","140 W 16TH ST, NATIONAL CITY, CA, 91950",612884535,"L"
57228,"140 W 2100 S STE 134A","SALT LAKE CITY","UM",84115,NA,NA,228,"140 W 2100 S STE 134A, SALT LAKE CITY, UM, 84115","No_Match",NA,NA,NA,NA
57229,"140 W 98TH ST STE 121","BLOOMINGTON","MN",55420,NA,NA,229,"140 W 98TH ST STE 121, BLOOMINGTON, MN, 55420","No_Match",NA,NA,NA,NA
57230,"140 W 9TH STREET","FOND DU LAC","WI",54935,43.7694392510001,-88.4525020149999,230,"140 W 9TH STREET, FOND DU LAC, WI, 54935","Match","Exact","140 W 9TH ST, FOND DU LAC, WI, 54935",74811024,"L"
57231,"140 W BAYRIDGE DRIVE","WESTON","FL",33326,26.119483571,-80.393139431,231,"140 W BAYRIDGE DRIVE, WESTON, FL, 33326","Match","Exact","140 W BAYRIDGE DR, WESTON, FL, 33326",114776046,"L"
57232,"140 W MAPLE STREET","ELSIE","MI",48831,43.087641499,-84.38830906,232,"140 W MAPLE STREET, ELSIE, MI, 48831","Match","Exact","140 W MAPLE ST, ELSIE, MI, 48831",17295304,"L"
57233,"140 W SILVER MEADOW DR","MIDWEST CITY","OK",73110,35.472777632,-97.3992124489999,233,"140 W SILVER MEADOW DR, MIDWEST CITY, OK, 73110","Match","Exact","140 W SILVER MEADOW DR, MIDWEST CITY, OK, 73110",100414324,"L"
57234,"140 W UNION ST","SOMERSET","PA",15501,40.009357682,-79.079864772,234,"140 W UNION ST, SOMERSET, PA, 15501","Match","Exact","140 W UNION ST, SOMERSET, PA, 15501",70248663,"R"
57235,"140 W VIA LOLA  APT 209","PALM SPRINGS","CA",92262,33.837318221,-116.547296719,235,"140 W VIA LOLA  APT 209, PALM SPRINGS, CA, 92262","Match","Non_Exact","140 W VIA LOLA, PALM SPRINGS, CA, 92262",194761428,"L"
57236,"140 WASHINGTON STREET","MERRICK","NY",11566,40.6672147420001,-73.560132149,236,"140 WASHINGTON STREET, MERRICK, NY, 11566","Match","Exact","140 WASHINGTON ST, MERRICK, NY, 11566",147635498,"L"
57237,"140 WASHINGTON WALK APT 4D","BROOKLYN","NY",11205,40.6938709520001,-73.9744539769999,237,"140 WASHINGTON WALK APT 4D, BROOKLYN, NY, 11205","Match","Exact","140 WASHINGTON WALK, BROOKLYN, NY, 11205",59077512,"R"
57238,"140 WATERSTONE WAY","MONTEVALLO","AL",35115,33.1488311160001,-86.781013754,238,"140 WATERSTONE WAY, MONTEVALLO, AL, 35115","Match","Exact","140 WATERSTONE WAY, MONTEVALLO, AL, 35115",640747018,"R"
57239,"140 WEBBER SCHOOL ROAD","EASTOVER","SC",29044,33.8823039050001,-80.686795533,239,"140 WEBBER SCHOOL ROAD, EASTOVER, SC, 29044","Match","Exact","140 WEBBER SCHOOL RD, EASTOVER, SC, 29044",71859953,"L"
57240,"140 WEST  VALLEY BLVD SUITE 119","SAN GABRIEL","CA",91776,34.07962158,-118.101938312,240,"140 WEST  VALLEY BLVD SUITE 119, SAN GABRIEL, CA, 91776","Match","Exact","140 W VALLEY BLVD, SAN GABRIEL, CA, 91776",141640007,"L"
57241,"140 WEST 2100 SOUTH SUITE 244","SALT LAKE CITY","UT",84115,NA,NA,241,"140 WEST 2100 SOUTH SUITE 244, SALT LAKE CITY, UT, 84115","No_Match",NA,NA,NA,NA
57242,"140 WEST 3RD STREET","LOVELAND","CO",80537,40.3944475420001,-105.076893585,242,"140 WEST 3RD STREET, LOVELAND, CO, 80537","Match","Exact","140 W 3RD ST, LOVELAND, CO, 80537",188486037,"L"
57243,"140 WEST 5TH AVENUE","NAPERVILLE","IL",60563,41.780504142,-88.150473029,243,"140 WEST 5TH AVENUE, NAPERVILLE, IL, 60563","Match","Exact","140 W 5TH AVE, NAPERVILLE, IL, 60563",112698722,"L"
57244,"140 WEST 62ND STREET","NEW YORK","NY",10023,40.771646306,-73.984692555,244,"140 WEST 62ND STREET, NEW YORK, NY, 10023","Match","Exact","140 W 62ND ST, NEW YORK, NY, 10023",639456906,"L"
57245,"140 WEST 9000 SOUTH SUITE 9","SANDY","UT",84070,40.5880777790001,-111.894568224,245,"140 WEST 9000 SOUTH SUITE 9, SANDY, UT, 84070","Match","Exact","140 W 9000 S, SANDY, UT, 84070",176110904,"R"
57246,"140 WEST 98TH ST-SUITE 205","BLOOMINGTON","MN",55420,NA,NA,246,"140 WEST 98TH ST-SUITE 205, BLOOMINGTON, MN, 55420","No_Match",NA,NA,NA,NA
57247,"140 WEST CHESTNUT ST","BROCKTON","MA",2301,42.0629518260001,-71.0217963969999,247,"140 WEST CHESTNUT ST, BROCKTON, MA, 2301","Match","Exact","140 W CHESTNUT ST, BROCKTON, MA, 02301",87444237,"L"
57248,"140 WEST HILLCREST AVE SUITE 4","INGLEWOOD","CA",90301,33.956724754,-118.356801958,248,"140 WEST HILLCREST AVE SUITE 4, INGLEWOOD, CA, 90301","Match","Non_Exact","140 W HILLCREST BLVD, INGLEWOOD, CA, 90301",142750173,"L"
57249,"140 WEST HWY 246 BOX 665","BUELLTON","CA",93427,34.614973193,-120.1977982,249,"140 WEST HWY 246 BOX 665, BUELLTON, CA, 93427","Match","Exact","140 W HWY 246, BUELLTON, CA, 93427",108670182,"L"
57250,"140 WEST LIBERTY STREET","WOOSTER","OH",44691,40.7980666620001,-81.9409175439999,250,"140 WEST LIBERTY STREET, WOOSTER, OH, 44691","Match","Exact","140 W LIBERTY ST, WOOSTER, OH, 44691",58734906,"R"
57251,"140 WEST ST","LOGANVILLE","WI",53943,43.44112833,-90.038076755,251,"140 WEST ST, LOGANVILLE, WI, 53943","Match","Exact","140 WEST ST, LOGANVILLE, WI, 53943",86529618,"L"
57252,"140 WESTCHESTER RD","WILLIAMSVILLE","NY",14221,42.9726773720001,-78.7686874779999,252,"140 WESTCHESTER RD, WILLIAMSVILLE, NY, 14221","Match","Exact","140 WESTCHESTER RD, WILLIAMSVILLE, NY, 14221",636676388,"L"
57253,"140 WESTERLY PLACE","MADISON","MS",39130,32.5238525,-90.156368231,253,"140 WESTERLY PLACE, MADISON, MS, 39130","Match","Non_Exact","140 WESTERLY PL, MADISON, MS, 39110",648693700,"R"
57254,"140 WILSON STREET","MANCHESTER","NH",3104,NA,NA,254,"140 WILSON STREET, MANCHESTER, NH, 3104","No_Match",NA,NA,NA,NA
57255,"140 WINNACUNNET ROAD","HAMPTON","NH",3842,42.937287009,-70.832094459,255,"140 WINNACUNNET ROAD, HAMPTON, NH, 3842","Match","Exact","140 WINNACUNNET RD, HAMPTON, NH, 03842",113676157,"L"
57256,"140 WINONA STREET","PEABODY","MA",1960,42.541013719,-71.0114204079999,256,"140 WINONA STREET, PEABODY, MA, 1960","Match","Exact","140 WINONA ST, PEABODY, MA, 01960",86662257,"L"
57257,"140 WOODCREEK LANE","BOSTIC","NC",28018,35.344349277,-81.835056757,257,"140 WOODCREEK LANE, BOSTIC, NC, 28018","Match","Non_Exact","140 WOOD CREEK LN, BOSTIC, NC, 28018",636813348,"R"
57258,"140 WOOSTER STREET","NEW BRITAIN","CT",6052,41.664518189,-72.8167060069999,258,"140 WOOSTER STREET, NEW BRITAIN, CT, 6052","Match","Exact","140 WOOSTER ST, NEW BRITAIN, CT, 06052",3509346,"L"
57259,"140 WYNBROOKE TRACE","HENDERSONVILLE","TN",37075,36.3502454280001,-86.552143649,259,"140 WYNBROOKE TRACE, HENDERSONVILLE, TN, 37075","Match","Exact","140 WYNBROOKE TRCE, HENDERSONVILLE, TN, 37075",639841258,"R"
57260,"140 YALE LANE","SEAL BEACH","CA",90740,33.778020853,-118.093312701,260,"140 YALE LANE, SEAL BEACH, CA, 90740","Match","Exact","140 YALE LN, SEAL BEACH, CA, 90740",144002658,"R"
57261,"140 YORKSHIRE CIRCLE","EWING","NJ",8628,NA,NA,261,"140 YORKSHIRE CIRCLE, EWING, NJ, 8628","No_Match",NA,NA,NA,NA
57262,"140-04 247 ST","ROSEDALE","NY",11422,40.663699153,-73.7342074279999,262,"140-04 247 ST, ROSEDALE, NY, 11422","Match","Exact","140-4 247TH ST, ROSEDALE, NY, 11422",59721824,"R"
57263,"140-05 32ND AVE","FLUSHING","NY",11354,40.768554173,-73.82850325,263,"140-05 32ND AVE, FLUSHING, NY, 11354","Match","Exact","140-5 32ND AVE, FLUSHING, NY, 11354",59700884,"L"
57264,"140-30 BEECH AVE APT 1R","FLUSHING","NY",11355,40.7549295320001,-73.8225368289999,264,"140-30 BEECH AVE APT 1R, FLUSHING, NY, 11355","Match","Exact","140-30 BEECH AVE, FLUSHING, NY, 11355",59701173,"R"
57265,"140-38 69TH AVENUE","FLUSHING","NY",11367,40.73099318,-73.825390553,265,"140-38 69TH AVENUE, FLUSHING, NY, 11367","Match","Exact","140-38 69TH AVE, FLUSHING, NY, 11367",59709823,"R"
57266,"140-39  172 STREET","QUEENS","NY",11434,40.6704095910001,-73.768220276,266,"140-39  172 STREET, QUEENS, NY, 11434","Match","Non_Exact","140 172ND ST, JAMAICA, NY, 11434",59719658,"L"
57267,"140-42 SECOND AVENUE","NEW YORK","NY",10003,40.7289765950001,-73.987385198,267,"140-42 SECOND AVENUE, NEW YORK, NY, 10003","Match","Exact","140 2ND AVE, NEW YORK, NY, 10003",59654045,"R"
57268,"140-50 ASH AVENUE 3D","FLUSHING","NY",11355,40.7559258640001,-73.822338918,268,"140-50 ASH AVENUE 3D, FLUSHING, NY, 11355","Match","Exact","140-50 ASH AVE, FLUSHING, NY, 11355",612451922,"R"
57269,"1400  S ODELL ST","BROWNSBURG","IN",46112,39.825354127,-86.387036167,269,"1400  S ODELL ST, BROWNSBURG, IN, 46112","Match","Exact","1400 S ODELL ST, BROWNSBURG, IN, 46112",89210427,"L"
57270,"1400 112TH AVE SE SUITE 100","BELLEVUE","WA",98004,47.599057735,-122.191157217,270,"1400 112TH AVE SE SUITE 100, BELLEVUE, WA, 98004","Match","Exact","1400 112TH AVE SE, BELLEVUE, WA, 98004",640611922,"R"
57271,"1400 16TH STREET NW SUITE 101","WASHINGTON","DC",20036,38.9087745780001,-77.0365318509999,271,"1400 16TH STREET NW SUITE 101, WASHINGTON, DC, 20036","Match","Exact","1400 16TH ST NW, WASHINGTON, DC, 20036",76225679,"L"
57272,"1400 20TH NW SUITE G-4","WASHINGTON","DC",20036,38.9086599300001,-77.0448932159999,272,"1400 20TH NW SUITE G-4, WASHINGTON, DC, 20036","Match","Non_Exact","1400 20TH ST NW, WASHINGTON, DC, 20036",76225303,"L"
57273,"1400 22ND AVENUE","SAN FRANCISCO","CA",94122,37.7614105970001,-122.480188093,273,"1400 22ND AVENUE, SAN FRANCISCO, CA, 94122","Match","Exact","1400 22ND AVE, SAN FRANCISCO, CA, 94122",192277661,"L"
57274,"1400 240TH STREET","HARBOR CITY","CA",90710,33.8072848510001,-118.303415569,274,"1400 240TH STREET, HARBOR CITY, CA, 90710","Match","Non_Exact","1400 W 240TH ST, HARBOR CITY, CA, 90710",141669103,"L"
57275,"1400 25TH STREET","COLUMBUS","IN",47201,39.2229712390001,-85.9108401679999,275,"1400 25TH STREET, COLUMBUS, IN, 47201","Match","Exact","1400 25TH ST, COLUMBUS, IN, 47201",30969584,"R"
57276,"1400 32ND AVE N","FARGO","ND",58102,46.9192473000001,-96.800254788,276,"1400 32ND AVE N, FARGO, ND, 58102","Match","Exact","1400 32ND AVE N, FARGO, ND, 58102",648127299,"L"
57277,"1400 4TH ST NW APT 3","FARIBAULT","MN",55021,44.2928933810001,-93.288740073,277,"1400 4TH ST NW APT 3, FARIBAULT, MN, 55021","Match","Exact","1400 4TH ST NW, FARIBAULT, MN, 55021",647591727,"L"
57278,"1400 4TH TERRACE WEST","BIRMINGHAM","AL",35208,33.5080887230001,-86.860043992,278,"1400 4TH TERRACE WEST, BIRMINGHAM, AL, 35208","Match","Exact","1400 4TH TER W, BIRMINGHAM, AL, 35208",647562690,"R"
57279,"1400 54TH AVE S","ST PETE","FL",33705,27.7193903190001,-82.6519277689999,279,"1400 54TH AVE S, ST PETE, FL, 33705","Match","Exact","1400 54TH AVE S, SAINT PETERSBURG, FL, 33705",124792870,"L"
57280,"1400 54TH AVE S","ST PETERSBURG","FL",33705,27.7193903190001,-82.6519277689999,280,"1400 54TH AVE S, ST PETERSBURG, FL, 33705","Match","Exact","1400 54TH AVE S, SAINT PETERSBURG, FL, 33705",124792870,"L"
57281,"1400 5TH AVE NORTH 1B","NAPLES","FL",34102,NA,NA,281,"1400 5TH AVE NORTH 1B, NAPLES, FL, 34102","No_Match",NA,NA,NA,NA
57282,"1400 5TH AVE SE","ALTOONA","IA",50009,41.6384380870001,-93.4591286259999,282,"1400 5TH AVE SE, ALTOONA, IA, 50009","Match","Exact","1400 5TH AVE SE, ALTOONA, IA, 50009",65791233,"L"
57283,"1400 A O JONES BLVD","FORT MILL","SC",29715,35.056540908,-80.911676992,283,"1400 A O JONES BLVD, FORT MILL, SC, 29715","Match","Exact","1400 A O JONES BLVD, FORT MILL, SC, 29715",614165904,"L"
57284,"1400 ADAMS STREET","FRANKLIN","TN",37064,35.911848999,-86.8711702369999,284,"1400 ADAMS STREET, FRANKLIN, TN, 37064","Match","Exact","1400 ADAMS ST, FRANKLIN, TN, 37064",619112527,"L"
57285,"1400 ADELE TERR","ELGIN","OR",97827,45.569055937,-117.923744859,285,"1400 ADELE TERR, ELGIN, OR, 97827","Match","Exact","1400 ADELE TER, ELGIN, OR, 97827",138849760,"L"
57286,"1400 ALPINE CREEK DRIVE","RALEIGH","NC",27614,35.9409731170001,-78.60360658,286,"1400 ALPINE CREEK DRIVE, RALEIGH, NC, 27614","Match","Exact","1400 ALPINE CREEK DR, RALEIGH, NC, 27614",639418297,"R"
57287,"1400 AMERICAN RIVER TRAIL","COOL","CA",95614,38.8910498830001,-121.00136757,287,"1400 AMERICAN RIVER TRAIL, COOL, CA, 95614","Match","Exact","1400 AMERICAN RIVER TRL, COOL, CA, 95614",636426672,"R"
57288,"1400 AMORE LN","CENTERTON","AR",72719,36.3782297660001,-94.279125165,288,"1400 AMORE LN, CENTERTON, AR, 72719","Match","Exact","1400 AMORE LN, CENTERTON, AR, 72719",619905769,"R"
57289,"1400 ANDREWS PARKWAY APT 4052","ALLEN","TX",75002,33.1221342000001,-96.660728959,289,"1400 ANDREWS PARKWAY APT 4052, ALLEN, TX, 75002","Match","Exact","1400 ANDREWS PKWY, ALLEN, TX, 75002",643863608,"R"
57290,"1400 AO JONES BLVD","FORT MILL","SC",29715,35.056540908,-80.911676992,290,"1400 AO JONES BLVD, FORT MILL, SC, 29715","Match","Non_Exact","1400 A O JONES BLVD, FORT MILL, SC, 29715",614165904,"L"
57291,"1400 AUGUSTA BEND DR","HUTTO","TX",78634,30.499550721,-97.58469031,291,"1400 AUGUSTA BEND DR, HUTTO, TX, 78634","Match","Exact","1400 AUGUSTA BEND DR, HUTTO, TX, 78634",648402838,"R"
57292,"1400 AVENUE Z  SUITE 507","BROOKLYN","NY",11235,40.587865494,-73.9551863,292,"1400 AVENUE Z  SUITE 507, BROOKLYN, NY, 11235","Match","Exact","1400 AVE Z, BROOKLYN, NY, 11235",59091679,"R"
57293,"1400 AVERY ROAD","CANTON","GA",30115,34.2092599590001,-84.434813699,293,"1400 AVERY ROAD, CANTON, GA, 30115","Match","Exact","1400 AVERY RD, CANTON, GA, 30115",625424545,"R"
57294,"1400 AVERY STREET","MONTARA","CA",94037,37.535136014,-122.496807305,294,"1400 AVERY STREET, MONTARA, CA, 94037","Match","Exact","1400 AVERY ST, MONTARA, CA, 94037",192404632,"L"
57295,"1400 B STORY MILL ROAD","BOZEMAN","MT",59715,NA,NA,295,"1400 B STORY MILL ROAD, BOZEMAN, MT, 59715","No_Match",NA,NA,NA,NA
57296,"1400 BARTON RD 2008","REDLANDS","CA",92373,NA,NA,296,"1400 BARTON RD 2008, REDLANDS, CA, 92373","No_Match",NA,NA,NA,NA
57297,"1400 BATTLEGROUND AVE - SUITE 210E","GREENSBORO","NC",27408,36.0881287380001,-79.8088649329999,297,"1400 BATTLEGROUND AVE - SUITE 210E, GREENSBORO, NC, 27408","Match","Exact","1400 BATTLEGROUND AVE, GREENSBORO, NC, 27408",131113895,"R"
57298,"1400 BATTLEGROUND AVE SUITE 214-G","GREENSBORO","NC",27408,36.0881287380001,-79.8088649329999,298,"1400 BATTLEGROUND AVE SUITE 214-G, GREENSBORO, NC, 27408","Match","Exact","1400 BATTLEGROUND AVE, GREENSBORO, NC, 27408",131113895,"R"
57299,"1400 BATTLEGROUND AVENUE SUITE 118","GREENSBORO","NC",27408,36.0881287380001,-79.8088649329999,299,"1400 BATTLEGROUND AVENUE SUITE 118, GREENSBORO, NC, 27408","Match","Exact","1400 BATTLEGROUND AVE, GREENSBORO, NC, 27408",131113895,"R"
57300,"1400 BENTEEN AVE SE","ATLANTA","GA",30315,33.7156150000001,-84.36667633,300,"1400 BENTEEN AVE SE, ATLANTA, GA, 30315","Match","Exact","1400 BENTEEN AVE SE, ATLANTA, GA, 30315",17358320,"L"
57301,"1400 BETHLEHEM ROAD","ROCKY MOUNT","NC",27803,35.937099308,-77.8359033149999,301,"1400 BETHLEHEM ROAD, ROCKY MOUNT, NC, 27803","Match","Exact","1400 BETHLEHEM RD, ROCKY MOUNT, NC, 27803",90398827,"R"
57302,"1400 BISCAYA DR","MIAMI BEACH","FL",33154,25.873581766,-80.131647324,302,"1400 BISCAYA DR, MIAMI BEACH, FL, 33154","Match","Exact","1400 BISCAYA DR, MIAMI BEACH, FL, 33154",116324386,"L"
57303,"1400 BLACKHORSE HILL RD BLDG 39B","COATESVILLE","PA",19320,39.999173737,-75.7995725059999,303,"1400 BLACKHORSE HILL RD BLDG 39B, COATESVILLE, PA, 19320","Match","Exact","1400 BLACKHORSE HILL RD, COATESVILLE, PA, 19320",636457732,"R"
57304,"1400 BORDEN ROAD","BUMPASS",NA,23024,37.9622785110001,-77.737694743,304,"1400 BORDEN ROAD, BUMPASS, , 23024","Match","Exact","1400 BORDEN RD, BUMPASS, VA, 23024",84922996,"R"
57305,"1400 BRISTOL STREET NORTH SUITE 210","NEWPORT BEACH","CA",92660,NA,NA,305,"1400 BRISTOL STREET NORTH SUITE 210, NEWPORT BEACH, CA, 92660","No_Match",NA,NA,NA,NA
57306,"1400 BUFORD HIGHWAY   SUITE F5","SUGAR HILL","GA",30518,34.0865723270001,-84.0251136959999,306,"1400 BUFORD HIGHWAY   SUITE F5, SUGAR HILL, GA, 30518","Match","Exact","1400 BUFORD HWY, SUGAR HILL, GA, 30518",632615948,"L"
57307,"1400 BUFORD HIGHWAY SUITE K1-K2","SUGAR HILL","GA",30518,34.0865723270001,-84.0251136959999,307,"1400 BUFORD HIGHWAY SUITE K1-K2, SUGAR HILL, GA, 30518","Match","Exact","1400 BUFORD HWY, SUGAR HILL, GA, 30518",632615948,"L"
57308,"1400 BUTTONWOOD COURT","HIGH POINT","NC",27265,36.0263632420001,-80.015493496,308,"1400 BUTTONWOOD COURT, HIGH POINT, NC, 27265","Match","Exact","1400 BUTTONWOOD CT, HIGH POINT, NC, 27265",131073582,"R"
57309,"1400 CACTUS AVE","COLUMBIA","SC",29210,34.0689546720001,-81.1214865169999,309,"1400 CACTUS AVE, COLUMBIA, SC, 29210","Match","Exact","1400 CACTUS AVE, COLUMBIA, SC, 29210",71865997,"L"
57310,"1400 CANDLEWOOD DRIVE","PITTSBURGH","PA",15241,40.3135103170001,-80.102310696,310,"1400 CANDLEWOOD DRIVE, PITTSBURGH, PA, 15241","Match","Exact","1400 CANDLEWOOD DR, PITTSBURGH, PA, 15241",51618799,"R"
57311,"1400 CANOPY PASTURE DRIVE","SAINT CLOUD","FL",34771,28.305465559,-81.242829819,311,"1400 CANOPY PASTURE DRIVE, SAINT CLOUD, FL, 34771","Match","Exact","1400 CANOPY PASTURE DR, SAINT CLOUD, FL, 34771",640854457,"L"
57312,"1400 CARMICHAEL ROAD","HUDSON","WI",54016,NA,NA,312,"1400 CARMICHAEL ROAD, HUDSON, WI, 54016","No_Match",NA,NA,NA,NA
57313,"1400 CARPENTIER ST APT 215","SAN LEANDRO","CA",94577,37.722481342,-122.15896916,313,"1400 CARPENTIER ST APT 215, SAN LEANDRO, CA, 94577","Match","Exact","1400 CARPENTIER ST, SAN LEANDRO, CA, 94577",606162330,"L"
57314,"1400 CATAMARAN LN","MONUMENT","CO",80132,39.103670934,-104.852998773,314,"1400 CATAMARAN LN, MONUMENT, CO, 80132","Match","Exact","1400 CATAMARAN LN, MONUMENT, CO, 80132",105507853,"L"
57315,"1400 CENTINELA AVENUE SUITE 10","INGLEWOOD","CA",90302,33.976802918,-118.364135746,315,"1400 CENTINELA AVENUE SUITE 10, INGLEWOOD, CA, 90302","Match","Exact","1400 CENTINELA AVE, INGLEWOOD, CA, 90302",141653676,"R"
57316,"1400 CHAPEL STREET NUMBER 23","SANTA CLARA","UT",84765,NA,NA,316,"1400 CHAPEL STREET NUMBER 23, SANTA CLARA, UT, 84765","Tie",NA,NA,NA,NA
57317,"1400 CHEWS LANDING ROAD SUITE 3","LAUREL SPRINGS","NJ",8021,39.823467199,-75.045875499,317,"1400 CHEWS LANDING ROAD SUITE 3, LAUREL SPRINGS, NJ, 8021","Match","Exact","1400 CHEWS LANDING RD, LAUREL SPGS, NJ, 08021",134393061,"L"
57318,"1400 CHILDRESS ST","WELLINGTON","TX",79095,34.8500794890001,-100.217276193,318,"1400 CHILDRESS ST, WELLINGTON, TX, 79095","Match","Exact","1400 CHILDRESS ST, WELLINGTON, TX, 79095",164593237,"R"
57319,"1400 CIMARRON DRIVE UNIT C","LAFAYETTE","CO",80026,39.9861126160001,-105.117382462,319,"1400 CIMARRON DRIVE UNIT C, LAFAYETTE, CO, 80026","Match","Exact","1400 CIMARRON DR, LAFAYETTE, CO, 80026",624974846,"L"
57320,"1400 CLAREWOOD DR APT 315","SAN MARCOS","TX",78666,29.88093794,-97.9198798689999,320,"1400 CLAREWOOD DR APT 315, SAN MARCOS, TX, 78666","Match","Exact","1400 CLAREWOOD DR, SAN MARCOS, TX, 78666",63825395,"L"
57321,"1400 CLAY AVE SW","CAIRO","GA",39828,30.878191519,-84.2262202639999,321,"1400 CLAY AVE SW, CAIRO, GA, 39828","Match","Exact","1400 CLAY AVE SW, CAIRO, GA, 39828",84356138,"L"
57322,"1400 CLUB DR","TARPON SPRINGS","FL",34689,28.1640664400001,-82.745691912,322,"1400 CLUB DR, TARPON SPRINGS, FL, 34689","Match","Exact","1400 CLUB DR, TARPON SPNGS, FL, 34689",124754153,"L"
57323,"1400 COLONIAL AVE F29","BRISTOL","PA",19007,40.1165411280001,-74.855664996,323,"1400 COLONIAL AVE F29, BRISTOL, PA, 19007","Match","Exact","1400 COLONIAL AVE, BRISTOL, PA, 19007",134716976,"R"
57324,"1400 COLORADO STREET","BOULDER CITY","NV",89005,35.979672656,-114.839010126,324,"1400 COLORADO STREET, BOULDER CITY, NV, 89005","Match","Exact","1400 COLORADO ST, BOULDER CITY, NV, 89005",201830835,"R"
57325,"1400 COMMUNITY DRIVE","WACONIA","MN",55387,44.8368597310001,-93.808573912,325,"1400 COMMUNITY DRIVE, WACONIA, MN, 55387","Match","Exact","1400 COMMUNITY DR, WACONIA, MN, 55387",43517920,"L"
57326,"1400 COOK AVE","SEABROOK","TX",77586,29.5642179910001,-95.023677175,326,"1400 COOK AVE, SEABROOK, TX, 77586","Match","Non_Exact","1400 COOK ST, SEABROOK, TX, 77586",641880577,"R"
57327,"1400 COPPERFIELD COURT","LEXINGTON","KY",40514,37.9848485420001,-84.572935963,327,"1400 COPPERFIELD COURT, LEXINGTON, KY, 40514","Match","Exact","1400 COPPERFIELD CT, LEXINGTON, KY, 40514",31933993,"R"
57328,"1400 COUNTRY CLUB BLVD","CLIVE","IA",50325,41.6032345,-93.801566662,328,"1400 COUNTRY CLUB BLVD, CLIVE, IA, 50325","Match","Exact","1400 COUNTRY CLUB BLVD, CLIVE, IA, 50325",65853720,"L"
57329,"1400 COUNTRY RIDGE DRIVE","DESOTO","TX",75115,32.6166635210001,-96.882385589,329,"1400 COUNTRY RIDGE DRIVE, DESOTO, TX, 75115","Match","Exact","1400 COUNTRY RIDGE DR, DESOTO, TX, 75115",102994633,"L"
57330,"1400 CR 2005","LIBERTY","TX",77575,30.1304047470001,-94.755292495,330,"1400 CR 2005, LIBERTY, TX, 77575","Match","Exact","1400 CO RD 2005, LIBERTY, TX, 77575",24125845,"R"
57331,"1400 CREEDMOOR AVENUE","PITTSBURGH","PA",15226,40.389440834,-80.0126675829999,331,"1400 CREEDMOOR AVENUE, PITTSBURGH, PA, 15226","Match","Exact","1400 CREEDMOOR AVE, PITTSBURGH, PA, 15226",51637904,"R"
57332,"1400 CUTHBERTSON ROAD","WAXHAW","NC",28173,34.977287059,-80.7336622839999,332,"1400 CUTHBERTSON ROAD, WAXHAW, NC, 28173","Match","Exact","1400 CUTHBERTSON RD, WAXHAW, NC, 28173",642590139,"L"
57333,"1400 DALLAS ST","AURORA","CO",80010,39.7384050150001,-104.876407671,333,"1400 DALLAS ST, AURORA, CO, 80010","Match","Exact","1400 DALLAS ST, AURORA, CO, 80010",177314032,"R"
57334,"1400 DIVIDEND DR","SPRINGDALE","AR",72764,36.161507382,-94.1453006469999,334,"1400 DIVIDEND DR, SPRINGDALE, AR, 72764","Match","Exact","1400 DIVIDEND DR, SPRINGDALE, AR, 72764",239055423,"L"
57335,"1400 DORCHESTER AVENUE","GWYNN OAK","MD",21207,39.29974481,-76.725221012,335,"1400 DORCHESTER AVENUE, GWYNN OAK, MD, 21207","Match","Exact","1400 DORCHESTER AVE, GWYNN OAK, MD, 21207",191483898,"L"
57336,"1400 DOUGLAS STREET","OMAHA","NE",68179,41.258650555,-95.934623819,336,"1400 DOUGLAS STREET, OMAHA, NE, 68179","Match","Exact","1400 DOUGLAS ST, OMAHA, NE, 68179",116988519,"R"
57337,"1400 DR MLK JR WAY SUITE 101","SARASOTA","FL",34234,27.3597485120001,-82.542668498,337,"1400 DR MLK JR WAY SUITE 101, SARASOTA, FL, 34234","Match","Exact","1400 DR MARTIN LUTHER KING WAY, SARASOTA, FL, 34234",16347049,"R"
57338,"1400 DRY CREEK ROAD","SCREVEN","GA",31560,31.576170394,-82.0577216199999,338,"1400 DRY CREEK ROAD, SCREVEN, GA, 31560","Match","Exact","1400 DRY CREEK RD, SCREVEN, GA, 31560",4841758,"L"
57339,"1400 DUKE AVE","MCALLEN","TX",78504,26.2769286230001,-98.2227000729999,339,"1400 DUKE AVE, MCALLEN, TX, 78504","Match","Exact","1400 DUKE AVE, MCALLEN, TX, 78504",648840206,"L"
57340,"1400 E 8TH ST","SIOUX FALLS","SD",57103,43.548502684,-96.708796427,340,"1400 E 8TH ST, SIOUX FALLS, SD, 57103","Match","Exact","1400 E 8TH ST, SIOUX FALLS, SD, 57103",34973692,"L"
57341,"1400 E 8TH STREET","DAVIS","CA",95616,38.55311721,-121.73371068,341,"1400 E 8TH STREET, DAVIS, CA, 95616","Match","Exact","1400 E 8TH ST, DAVIS, CA, 95616",67691249,"R"
57342,"1400 E COLLEGE DR  PATHFINDER 406D","CHEYENNE","WY",82007,NA,NA,342,"1400 E COLLEGE DR  PATHFINDER 406D, CHEYENNE, WY, 82007","Tie",NA,NA,NA,NA
57343,"1400 E COLLEGE DRIVE PATHFINDER 406","CHEYENNE","WY",82007,NA,NA,343,"1400 E COLLEGE DRIVE PATHFINDER 406, CHEYENNE, WY, 82007","Tie",NA,NA,NA,NA
57344,"1400 E DOWNING","TAHLEQUAH","OK",74464,35.915352355,-94.9499332509999,344,"1400 E DOWNING, TAHLEQUAH, OK, 74464","Match","Non_Exact","1400 E DOWNING ST, TAHLEQUAH, OK, 74464",53645045,"L"
57345,"1400 E HANNA AVE","INDIANAPOLIS","IN",46227,NA,NA,345,"1400 E HANNA AVE, INDIANAPOLIS, IN, 46227","No_Match",NA,NA,NA,NA
57346,"1400 E LOOP 281","LONGVIEW","TX",75605,32.5261203360001,-94.6970874089999,346,"1400 E LOOP 281, LONGVIEW, TX, 75605","Match","Exact","1400 E LOOP 281, LONGVIEW, TX, 75605",637527180,"L"
57347,"1400 E MAIN STREET","CLARION","PA",16214,41.2073534510001,-79.3648046,347,"1400 E MAIN STREET, CLARION, PA, 16214","Match","Exact","1400 E MAIN ST, CLARION, PA, 16214",66221912,"L"
57348,"1400 E MAIN STREET","GREENVILLE","OH",45331,40.1116718550001,-84.613126262,348,"1400 E MAIN STREET, GREENVILLE, OH, 45331","Match","Exact","1400 E MAIN ST, GREENVILLE, OH, 45331",54559157,"R"
57349,"1400 E ROSS AVENUE","ALHAMBRA","CA",91801,34.0725201280001,-118.109338163,349,"1400 E ROSS AVENUE, ALHAMBRA, CA, 91801","Match","Exact","1400 E ROSS AVE, ALHAMBRA, CA, 91801",142689639,"R"
57350,"1400 E SOUTHERN AVE SUITE 400","TEMPE","AZ",85282,NA,NA,350,"1400 E SOUTHERN AVE SUITE 400, TEMPE, AZ, 85282","Tie",NA,NA,NA,NA
57351,"1400 E SOUTHERN AVE","TEMPE","AZ",85282,33.3930173750001,-111.915479899,351,"1400 E SOUTHERN AVE, TEMPE, AZ, 85282","Match","Exact","1400 E SOUTHERN AVE, TEMPE, AZ, 85282",128922906,"L"
57352,"1400 E SOUTHERN STE 400","TEMPE","AZ",85282,NA,NA,352,"1400 E SOUTHERN STE 400, TEMPE, AZ, 85282","No_Match",NA,NA,NA,NA
57353,"1400 E WEST HWY APT 304","SILVER SPRING","MD",20910,38.993716856,-77.032426044,353,"1400 E WEST HWY APT 304, SILVER SPRING, MD, 20910","Match","Non_Exact","1400 E WEST HWY, SILVER SPRING, MD, 20910",62067878,"L"
57354,"1400 E WOOLFORD ROAD","SHOW LOW","AZ",85901,NA,NA,354,"1400 E WOOLFORD ROAD, SHOW LOW, AZ, 85901","No_Match",NA,NA,NA,NA
57355,"1400 EAST FEDREAL","BALTIMORE","MD",21213,NA,NA,355,"1400 EAST FEDREAL, BALTIMORE, MD, 21213","No_Match",NA,NA,NA,NA
57356,"1400 EAST HIGHWAY 50","OFALLON","IL",62269,38.5809298280001,-89.8877649629999,356,"1400 EAST HIGHWAY 50, OFALLON, IL, 62269","Match","Non_Exact","1400 E US HWY 50, O FALLON, IL, 62269",107933981,"R"
57357,"1400 EAST MAHANOY AVE  PO BOX 257","MAHANOY CITY","PA",17948,40.8139582110001,-76.127010178,357,"1400 EAST MAHANOY AVE  PO BOX 257, MAHANOY CITY, PA, 17948","Match","Non_Exact","1400 E MAHANOY ST, MAHANOY CITY, PA, 17948",70937859,"L"
57358,"1400 EAST NEW YORK AVENUE APT 4A","BROOKLYN","NY",11212,40.6701267230001,-73.915790353,358,"1400 EAST NEW YORK AVENUE APT 4A, BROOKLYN, NY, 11212","Match","Exact","1400 E NEW YORK AVE, BROOKLYN, NY, 11212",59083806,"R"
57359,"1400 EAST TWIN LAKES DRIVE","LITTLE ROCK","AR",72205,34.740339722,-92.379190511,359,"1400 EAST TWIN LAKES DRIVE, LITTLE ROCK, AR, 72205","Match","Exact","1400 E TWIN LAKES DR, LITTLE ROCK, AR, 72205",83501283,"R"
57360,"1400 EAST WEST HIGHWAY 1420","SILVER SPRING","MD",20910,38.993716856,-77.032426044,360,"1400 EAST WEST HIGHWAY 1420, SILVER SPRING, MD, 20910","Match","Exact","1400 E WEST HWY, SILVER SPRING, MD, 20910",62067878,"L"
57361,"1400 EAST WEST HIGHWAY APT 1419","SILVER SPRINGS","MD",20910,38.993716856,-77.032426044,361,"1400 EAST WEST HIGHWAY APT 1419, SILVER SPRINGS, MD, 20910","Match","Exact","1400 E WEST HWY, SILVER SPRING, MD, 20910",62067878,"L"
57362,"1400 ECHO LAKE RD","BIGFORK","MT",59911,48.1285334200001,-114.027560157,362,"1400 ECHO LAKE RD, BIGFORK, MT, 59911","Match","Exact","1400 ECHO LAKE RD, BIGFORK, MT, 59911",204099004,"R"
57363,"1400 EL CAMINO VILLAGE DR APT 1704","HOUSTON","TX",77058,NA,NA,363,"1400 EL CAMINO VILLAGE DR APT 1704, HOUSTON, TX, 77058","No_Match",NA,NA,NA,NA
57364,"1400 EL PASEO","LAS CRUCES","NM",88001,32.296053036,-106.770045396,364,"1400 EL PASEO, LAS CRUCES, NM, 88001","Match","Non_Exact","1400 EL PASEO RD, LAS CRUCES, NM, 88001",189545439,"R"
57365,"1400 FARRELL AVENUE","SOUTH BEND","IN",46615,41.669096428,-86.2257649269999,365,"1400 FARRELL AVENUE, SOUTH BEND, IN, 46615","Match","Non_Exact","1400 FARRELL LN, SOUTH BEND, IN, 46615",8075577,"L"
57366,"1400 FIFTH AVENUE   SUITE 3N","NEW YORK","NY",10026,40.8000224630001,-73.94693755,366,"1400 FIFTH AVENUE   SUITE 3N, NEW YORK, NY, 10026","Match","Exact","1400 5TH AVE, NEW YORK, NY, 10026",59657752,"L"
57367,"1400 FIRST ST","ALAMOGORDO","NM",88310,32.890267561,-105.944099002,367,"1400 FIRST ST, ALAMOGORDO, NM, 88310","Match","Non_Exact","1400 E 1ST ST, ALAMOGORDO, NM, 88310",646589513,"R"
57368,"1400 FLAT SHOALS ROAD","COLLEGE PARK","GA",30349,33.5979752110001,-84.435329843,368,"1400 FLAT SHOALS ROAD, COLLEGE PARK, GA, 30349","Match","Exact","1400 FLAT SHOALS RD, COLLEGE PARK, GA, 30349",636086572,"L"
57369,"1400 FLORIDA AVENUE NE SUITE 101","WASHINGTON","DC",20002,38.900417572,-76.984629105,369,"1400 FLORIDA AVENUE NE SUITE 101, WASHINGTON, DC, 20002","Match","Exact","1400 FLORIDA AVE NE, WASHINGTON, DC, 20002",641473355,"L"
57370,"1400 FOREST COVE DRIVE","MOBILE","AL",36618,30.718387405,-88.1485521339999,370,"1400 FOREST COVE DRIVE, MOBILE, AL, 36618","Match","Exact","1400 FOREST COVE DR, MOBILE, AL, 36618",640527067,"R"
57371,"1400 FORTUNE DRIVE","WINCHESTER","KY",40391,38.0200092790001,-84.177645441,371,"1400 FORTUNE DRIVE, WINCHESTER, KY, 40391","Match","Exact","1400 FORTUNE DR, WINCHESTER, KY, 40391",31793128,"R"
57372,"1400 FORUM BLVD","COLUMBIA","MO",65203,38.935421858,-92.3606174499999,372,"1400 FORUM BLVD, COLUMBIA, MO, 65203","Match","Exact","1400 FORUM BLVD, COLUMBIA, MO, 65203",23492758,"R"
57373,"1400 FOULK RD","WILMINGTON","DE",19803,NA,NA,373,"1400 FOULK RD, WILMINGTON, DE, 19803","No_Match",NA,NA,NA,NA
57374,"1400 FOUNDERS WAY","HARRISONBURG","VA",22802,38.450528772,-78.839887587,374,"1400 FOUNDERS WAY, HARRISONBURG, VA, 22802","Match","Exact","1400 FOUNDERS WAY, HARRISONBURG, VA, 22802",626159832,"R"
57375,"1400 FRUIT COVE ROAD N","FRUIT COVE","FL",32259,30.121009697,-81.630213297,375,"1400 FRUIT COVE ROAD N, FRUIT COVE, FL, 32259","Match","Exact","1400 FRUIT COVE RD N, FRUIT COVE, FL, 32259",640411532,"R"
57376,"1400 FULTON AVE STE 5","SACRAMENTO","CA",95825,38.5912243550001,-121.401443032,376,"1400 FULTON AVE STE 5, SACRAMENTO, CA, 95825","Match","Exact","1400 FULTON AVE, SACRAMENTO, CA, 95825",133335639,"R"
57377,"1400 GERONIMO DR","EL PASO","TX",79925,31.787779212,-106.413444895,377,"1400 GERONIMO DR, EL PASO, TX, 79925","Match","Exact","1400 GERONIMO DR, EL PASO, TX, 79925",189378661,"R"
57378,"1400 GRAY HWY  APT 803","MACON","GA",31211,32.8613798170001,-83.6138263839999,378,"1400 GRAY HWY  APT 803, MACON, GA, 31211","Match","Exact","1400 GRAY HWY, MACON, GA, 31211",81084494,"L"
57379,"1400 GREAT NECK ROAD","COPIAGUE","NY",11726,40.678054235,-73.39854173,379,"1400 GREAT NECK ROAD, COPIAGUE, NY, 11726","Match","Exact","1400 GREAT NECK RD, COPIAGUE, NY, 11726",113973185,"R"
57380,"1400 GREEN OAKS LANE","CHARLOTTE","NC",28205,35.2129238480001,-80.794457245,380,"1400 GREEN OAKS LANE, CHARLOTTE, NC, 28205","Match","Exact","1400 GREEN OAKS LN, CHARLOTTE, NC, 28205",648307523,"R"
57381,"1400 GREENE ST","COLUMBIA","SC",29225,33.996775321,-81.02797082,381,"1400 GREENE ST, COLUMBIA, SC, 29225","Match","Exact","1400 GREENE ST, COLUMBIA, SC, 29225",71820896,"R"
57382,"1400 GREENMOUNT AVE SUITE D07","BALTIMORE","MD",21202,NA,NA,382,"1400 GREENMOUNT AVE SUITE D07, BALTIMORE, MD, 21202","No_Match",NA,NA,NA,NA
57383,"1400 GREENMOUNT AVE","BALTIMORE","MD",21202,NA,NA,383,"1400 GREENMOUNT AVE, BALTIMORE, MD, 21202","No_Match",NA,NA,NA,NA
57384,"1400 GROVE ST NE","CANTON","OH",44721,40.87264215,-81.3559939789999,384,"1400 GROVE ST NE, CANTON, OH, 44721","Match","Exact","1400 GROVE ST NE, CANTON, OH, 44721",64676748,"R"
57385,"1400 H C MATHIS DR","PADUCAH","KY",42001,NA,NA,385,"1400 H C MATHIS DR, PADUCAH, KY, 42001","No_Match",NA,NA,NA,NA
57386,"1400 HALLMAN ROAD","ABINGTON","PA",19001,40.137681495,-75.1424501339999,386,"1400 HALLMAN ROAD, ABINGTON, PA, 19001","Match","Exact","1400 HALLMAN RD, ABINGTON, PA, 19001",135092078,"L"
57387,"1400 HARMONY LANE","FULLERTON","CA",92831,33.8822698050001,-117.902976216,387,"1400 HARMONY LANE, FULLERTON, CA, 92831","Match","Exact","1400 HARMONY LN, FULLERTON, CA, 92831",144009048,"R"
57388,"1400 HELEN DRIVE UNIT 104","NEWARK","DE",19702,39.674362554,-75.660278751,388,"1400 HELEN DRIVE UNIT 104, NEWARK, DE, 19702","Match","Exact","1400 HELEN DR, NEWARK, DE, 19702",649457848,"R"
57389,"1400 HERBERT DRIVE APT B","LORAIN","OH",44053,41.4197094240001,-82.190040758,389,"1400 HERBERT DRIVE APT B, LORAIN, OH, 44053","Match","Exact","1400 HERBERT DR, LORAIN, OH, 44053",55448995,"R"
57390,"1400 HERRINGTON RD UNIT 10205","LAWRENCEVILLE","GA",30044,33.958877214,-84.0808163149999,390,"1400 HERRINGTON RD UNIT 10205, LAWRENCEVILLE, GA, 30044","Match","Exact","1400 HERRINGTON RD, LAWRENCEVILLE, GA, 30044",624502114,"R"
57391,"1400 HERRINGTON RD/ SUITE 11307","LAWRENCEVILLE","GA",30044,33.958877214,-84.0808163149999,391,"1400 HERRINGTON RD/ SUITE 11307, LAWRENCEVILLE, GA, 30044","Match","Non_Exact","1400 HERRINGTON RD, LAWRENCEVILLE, GA, 30044",624502114,"R"
57392,"1400 HI LINE DR 2216","DALLAS","TX",75207,NA,NA,392,"1400 HI LINE DR 2216, DALLAS, TX, 75207","No_Match",NA,NA,NA,NA
57393,"1400 HIGH SCHOOL DR","MAGNOLIA","AR",71753,33.27976119,-93.22350168,393,"1400 HIGH SCHOOL DR, MAGNOLIA, AR, 71753","Match","Exact","1400 HIGH SCHOOL DR, MAGNOLIA, AR, 71753",606527523,"R"
57394,"1400 HOOVER AVE","PLOVER","WI",54467,44.4795966990001,-89.528160129,394,"1400 HOOVER AVE, PLOVER, WI, 54467","Match","Non_Exact","1400 HOOVER AVE S, PLOVER, WI, 54467",126813620,"R"
57395,"1400 HW 41 NORTH SUITE 2723","IVERNESS","FL",34452,NA,NA,395,"1400 HW 41 NORTH SUITE 2723, IVERNESS, FL, 34452","No_Match",NA,NA,NA,NA
57396,"1400 ILLINOIS PLACE","UPPER MARLBORO","MD",20774,38.870196515,-76.8277090399999,396,"1400 ILLINOIS PLACE, UPPER MARLBORO, MD, 20774","Match","Exact","1400 ILLINOIS PL, UPPER MARLBORO, MD, 20774",76346506,"R"
57397,"1400 INDEPENDENCE WAY","CHARLOTTESVILLE","VA",22902,37.99857603,-78.489524508,397,"1400 INDEPENDENCE WAY, CHARLOTTESVILLE, VA, 22902","Match","Exact","1400 INDEPENDENCE WAY, CHARLOTTESVILLE, VA, 22902",83386949,"L"
57398,"1400 INGLEWOOD DR","CLEVELAND HEIGHTS","OH",44121,41.521802979,-81.54821221,398,"1400 INGLEWOOD DR, CLEVELAND HEIGHTS, OH, 44121","Match","Exact","1400 INGLEWOOD DR, CLEVELAND HEIGHTS, OH, 44121",61125043,"R"
57399,"1400 INGRAHAM ST NW","WASHINGTON","DC",20011,38.954082069,-77.0335520089999,399,"1400 INGRAHAM ST NW, WASHINGTON, DC, 20011","Match","Exact","1400 INGRAHAM ST NW, WASHINGTON, DC, 20011",641520597,"L"
57400,"1400 IRISHTOWN ROAD","NEW OXFORD","PA",17350,39.842598073,-77.0504977589999,400,"1400 IRISHTOWN ROAD, NEW OXFORD, PA, 17350","Match","Exact","1400 IRISHTOWN RD, NEW OXFORD, PA, 17350",60876805,"L"
57401,"1400 IRVING STREET STE 249","WASHINGTON","DC",20010,38.928792102,-77.032771091,401,"1400 IRVING STREET STE 249, WASHINGTON, DC, 20010","Match","Non_Exact","1400 IRVING ST NW, WASHINGTON, DC, 20010",76222990,"L"
57402,"1400 J R LYNCH STREET","JACKSON","MS",39272,32.2977540530001,-90.211168231,402,"1400 J R LYNCH STREET, JACKSON, MS, 39272","Match","Non_Exact","1400 J R LYNCH ST, JACKSON, MS, 39217",615829854,"R"
57403,"1400 JR LYNCH ST PO BOX 17569","JACKSON","MS",39217,32.2977540530001,-90.211168231,403,"1400 JR LYNCH ST PO BOX 17569, JACKSON, MS, 39217","Match","Non_Exact","1400 J R LYNCH ST, JACKSON, MS, 39217",615829854,"R"
57404,"1400 KENESAW AVE APT 31G","KNOVILLE","TN",37919,35.932690248,-83.9635345739999,404,"1400 KENESAW AVE APT 31G, KNOVILLE, TN, 37919","Match","Non_Exact","1400 KENESAW AVE, KNOXVILLE, TN, 37919",42624022,"L"
57405,"1400 KENNEDY SUITE 218","KEY WEST","FL",33040,24.5634136260001,-81.766560979,405,"1400 KENNEDY SUITE 218, KEY WEST, FL, 33040","Match","Non_Exact","1400 KENNEDY DR, KEY WEST, FL, 33040",636380972,"R"
57406,"1400 KEY BLVD  STE 100","ARLINGTON","VA",22209,38.896421973,-77.073432354,406,"1400 KEY BLVD  STE 100, ARLINGTON, VA, 22209","Match","Non_Exact","1400 N KEY BLVD, ARLINGTON, VA, 22209",76470829,"L"
57407,"1400 KING GEORGE BLVD","ANN ARBOR","MI",48104,42.245896864,-83.72480324,407,"1400 KING GEORGE BLVD, ANN ARBOR, MI, 48104","Match","Exact","1400 KING GEORGE BLVD, ANN ARBOR, MI, 48104",26015786,"R"
57408,"1400 LAMPLIGHTER LN","FORT WORTH","TX",76134,32.651094997,-97.340608393,408,"1400 LAMPLIGHTER LN, FORT WORTH, TX, 76134","Match","Exact","1400 LAMPLIGHTER LN, FORT WORTH, TX, 76134",101894435,"R"
57409,"1400 LEISURE LAKE DRIVE","LAWRENCEVILLE","GA",30044,33.902007483,-84.0064581399999,409,"1400 LEISURE LAKE DRIVE, LAWRENCEVILLE, GA, 30044","Match","Exact","1400 LEISURE LAKE DR, LAWRENCEVILLE, GA, 30044",624502324,"R"
57410,"1400 LONDON ROAD","NEW LENOX","IL",60451,41.5344321270001,-87.945983699,410,"1400 LONDON ROAD, NEW LENOX, IL, 60451","Match","Exact","1400 LONDON RD, NEW LENOX, IL, 60451",111564138,"R"
57411,"1400 MADISON AVE SUITE 208","MANKATO","MN",56001,44.166902916,-93.972126281,411,"1400 MADISON AVE SUITE 208, MANKATO, MN, 56001","Match","Exact","1400 MADISON AVE, MANKATO, MN, 56001",640616783,"R"
57412,"1400 MAIN ST","LITTLE ROCK","AR",72202,34.7352716090001,-92.272846683,412,"1400 MAIN ST, LITTLE ROCK, AR, 72202","Match","Exact","1400 MAIN ST, LITTLE ROCK, AR, 72202",83511513,"R"
57413,"1400 MAIN ST","STURGIS","SD",57785,44.414604588,-103.515643473,413,"1400 MAIN ST, STURGIS, SD, 57785","Match","Exact","1400 MAIN ST, STURGIS, SD, 57785",200907313,"L"
57414,"1400 MALONE ST","DENTON","TX",76201,33.227608651,-97.149708897,414,"1400 MALONE ST, DENTON, TX, 76201","Match","Exact","1400 MALONE ST, DENTON, TX, 76201",103338552,"L"
57415,"1400 MANDEL","WESTCHESTER","IL",60154,41.8589126480001,-87.897002576,415,"1400 MANDEL, WESTCHESTER, IL, 60154","Match","Non_Exact","1400 MANDEL AVE, WESTCHESTER, IL, 60154",111787817,"R"
57416,"1400 MAPLE ST","NORTHFIELD","MN",55057,44.444330447,-93.150990586,416,"1400 MAPLE ST, NORTHFIELD, MN, 55057","Match","Exact","1400 MAPLE ST, NORTHFIELD, MN, 55057",37330086,"L"
57417,"1400 MARIPOSA CIRCLE UNIT 101","NAPLES","FL",34105,26.2027505510001,-81.742609821,417,"1400 MARIPOSA CIRCLE UNIT 101, NAPLES, FL, 34105","Match","Exact","1400 MARIPOSA CIR, NAPLES, FL, 34105",619120432,"L"
57418,"1400 MARKAN DR NE APT 3","ATLANTA","GA",30306,33.7924844080001,-84.343281345,418,"1400 MARKAN DR NE APT 3, ATLANTA, GA, 30306","Match","Exact","1400 MARKAN DR NE, ATLANTA, GA, 30306",647049680,"L"
57419,"1400 MARKET PLACE BLVD 199","CUMMING","GA",30041,34.180152955,-84.133432246,419,"1400 MARKET PLACE BLVD 199, CUMMING, GA, 30041","Match","Exact","1400 MARKET PLACE BLVD, CUMMING, GA, 30041",648734828,"R"
57420,"1400 MARKET PLACE BLVD STE 103","CUMMING","GA",30041,34.180152955,-84.133432246,420,"1400 MARKET PLACE BLVD STE 103, CUMMING, GA, 30041","Match","Exact","1400 MARKET PLACE BLVD, CUMMING, GA, 30041",648734828,"R"
57421,"1400 MARSHALL ROAD","JACKSONVILLE","AR",72076,34.880541641,-92.12599912,421,"1400 MARSHALL ROAD, JACKSONVILLE, AR, 72076","Match","Exact","1400 MARSHALL RD, JACKSONVILLE, AR, 72076",83518705,"L"
57422,"1400 MARTIN LUTHER KING DR","JEANERETTE","LA",70544,29.910095218,-91.671287067,422,"1400 MARTIN LUTHER KING DR, JEANERETTE, LA, 70544","Match","Exact","1400 MARTIN LUTHER KING DR, JEANERETTE, LA, 70544",85356608,"R"
57423,"1400 MARTIN LUTHER KING JR DR APT C","GREENSBORO","NC",27406,36.0540019210001,-79.782940814,423,"1400 MARTIN LUTHER KING JR DR APT C, GREENSBORO, NC, 27406","Match","Exact","1400 MARTIN LUTHER KING JR DR, GREENSBORO, NC, 27406",131033724,"R"
57424,"1400 MARTIN ROAD","ROSWELL","GA",30076,NA,NA,424,"1400 MARTIN ROAD, ROSWELL, GA, 30076","No_Match",NA,NA,NA,NA
57425,"1400 MASSACHUSETTS STREET","LAWRENCE","KS",66044,38.958121132,-95.235894129,425,"1400 MASSACHUSETTS STREET, LAWRENCE, KS, 66044","Match","Exact","1400 MASSACHUSETTS ST, LAWRENCE, KS, 66044",17684842,"L"
57426,"1400 MAYHURST BLVD","MCLEAN","VA",22102,38.9389009120001,-77.2432771209999,426,"1400 MAYHURST BLVD, MCLEAN, VA, 22102","Match","Exact","1400 MAYHURST BLVD, MCLEAN, VA, 22102",215922990,"R"
57427,"1400 MAYPORT ROAD","ATLANTIC BEACH","FL",32233,30.3344733320001,-81.415290021,427,"1400 MAYPORT ROAD, ATLANTIC BEACH, FL, 32233","Match","Exact","1400 MAYPORT RD, ATLANTIC BCH, FL, 32233",83945485,"L"
57428,"1400 MCKINNEY ST SUITE 3102","HOUSTON","TX",77010,29.7548271520001,-95.361397778,428,"1400 MCKINNEY ST SUITE 3102, HOUSTON, TX, 77010","Match","Exact","1400 MCKINNEY ST, HOUSTON, TX, 77010",96067765,"R"
57429,"1400 MCKINNEY STREET  UNIT 910","HOUSTON","TX",77010,29.7548271520001,-95.361397778,429,"1400 MCKINNEY STREET  UNIT 910, HOUSTON, TX, 77010","Match","Exact","1400 MCKINNEY ST, HOUSTON, TX, 77010",96067765,"R"
57430,"1400 MELBOURNE ROAD","CHARLOTTESVILLE","VA",22901,38.052536285,-78.472757571,430,"1400 MELBOURNE ROAD, CHARLOTTESVILLE, VA, 22901","Match","Exact","1400 MELBOURNE RD, CHARLOTTESVILLE, VA, 22901",83406362,"L"
57431,"1400 MERCANTILE LANE  STE250","UPPER MARLBORO","MD",20774,38.9083891820001,-76.837221243,431,"1400 MERCANTILE LANE  STE250, UPPER MARLBORO, MD, 20774","Match","Exact","1400 MERCANTILE LN, UPPER MARLBORO, MD, 20774",76367375,"R"
57432,"1400 MERCANTILE LANE  SUITE 214","LARGO","MD",20774,38.9083891820001,-76.837221243,432,"1400 MERCANTILE LANE  SUITE 214, LARGO, MD, 20774","Match","Exact","1400 MERCANTILE LN, LARGO, MD, 20774",76367375,"R"
57433,"1400 MERCANTILE LANE","LARGO","MD",20774,38.9083891820001,-76.837221243,433,"1400 MERCANTILE LANE, LARGO, MD, 20774","Match","Exact","1400 MERCANTILE LN, LARGO, MD, 20774",76367375,"R"
57434,"1400 METHYL ST","PITTSBURGH","PA",15216,40.414213827,-80.025835993,434,"1400 METHYL ST, PITTSBURGH, PA, 15216","Match","Exact","1400 METHYL ST, PITTSBURGH, PA, 15216",51631062,"R"
57435,"1400 MILAGRO DR","AUSTIN","TX",78733,30.3170750730001,-97.8997649629999,435,"1400 MILAGRO DR, AUSTIN, TX, 78733","Match","Exact","1400 MILAGRO DR, AUSTIN, TX, 78733",624458757,"R"
57436,"1400 MONTANA AVE","BENSON","MN",56215,NA,NA,436,"1400 MONTANA AVE, BENSON, MN, 56215","No_Match",NA,NA,NA,NA
57437,"1400 MONTANA AVE","EL PASO","TX",79902,31.771446709,-106.479916477,437,"1400 MONTANA AVE, EL PASO, TX, 79902","Match","Exact","1400 MONTANA AVE, EL PASO, TX, 79902",189341299,"R"
57438,"1400 MONUMENT HILL ROAD","EL CAJON","CA",92020,32.7728939780001,-116.935980024,438,"1400 MONUMENT HILL ROAD, EL CAJON, CA, 92020","Match","Exact","1400 MONUMENT HILL RD, EL CAJON, CA, 92020",195718596,"R"
57439,"1400 MOUNT ZION RD","MORROW","GA",30260,33.571315457,-84.3423272329999,439,"1400 MOUNT ZION RD, MORROW, GA, 30260","Match","Exact","1400 MOUNT ZION RD, MORROW, GA, 30260",23316613,"L"
57440,"1400 MT JEFFERSON RD STE 7 BOX 135","WEST JEFFERSON","NC",28694,NA,NA,440,"1400 MT JEFFERSON RD STE 7 BOX 135, WEST JEFFERSON, NC, 28694","No_Match",NA,NA,NA,NA
57441,"1400 MUIRFIELD BEND DR UNIT B","HUTTO","TX",78634,NA,NA,441,"1400 MUIRFIELD BEND DR UNIT B, HUTTO, TX, 78634","No_Match",NA,NA,NA,NA
57442,"1400 N  ALBANY AVE","ATLANTIC CITY","NJ",8401,NA,NA,442,"1400 N  ALBANY AVE, ATLANTIC CITY, NJ, 8401","No_Match",NA,NA,NA,NA
57443,"1400 N 19TH STREET","CLARKSBURG","WV",26301,39.2947100970001,-80.347829438,443,"1400 N 19TH STREET, CLARKSBURG, WV, 26301","Match","Exact","1400 N 19TH ST, CLARKSBURG, WV, 26301",53315464,"L"
57444,"1400 N 2ND ST APT 2N","HARRISBURG","PA",17102,40.2696317750001,-76.892288798,444,"1400 N 2ND ST APT 2N, HARRISBURG, PA, 17102","Match","Non_Exact","1400 N 2ND ST, HARRISBURG, PA, 17102",70816962,"L"
57445,"1400 N 3RD AVE W","VIRGINIA","MN",55792,NA,NA,445,"1400 N 3RD AVE W, VIRGINIA, MN, 55792","No_Match",NA,NA,NA,NA
57446,"1400 N 6TH AVENUE SUITE B4","KNOXVILLE","TN",37917,35.9868838130001,-83.914500711,446,"1400 N 6TH AVENUE SUITE B4, KNOXVILLE, TN, 37917","Match","Exact","1400 6TH AVE, KNOXVILLE, TN, 37917",42653933,"R"
57447,"1400 N 8TH ST","QUINCY","IL",62301,39.9482547630001,-91.403398712,447,"1400 N 8TH ST, QUINCY, IL, 62301","Match","Exact","1400 N 8TH ST, QUINCY, IL, 62301",35063812,"R"
57448,"1400 N 8TH STREET","BURLINGTON","IA",52601,40.8224811850001,-91.105435885,448,"1400 N 8TH STREET, BURLINGTON, IA, 52601","Match","Exact","1400 N 8TH ST, BURLINGTON, IA, 52601",5541727,"R"
57449,"1400 N BOND STREET","BALTIMORE","MD",21213,39.306431461,-76.5967227,449,"1400 N BOND STREET, BALTIMORE, MD, 21213","Match","Exact","1400 N BOND ST, BALTIMORE, MD, 21213",636216943,"L"
57450,"1400 N EDGMONT NO 303","LOS ANGELES","CA",90027,NA,NA,450,"1400 N EDGMONT NO 303, LOS ANGELES, CA, 90027","No_Match",NA,NA,NA,NA
57451,"1400 N FOSTER DR","BATON ROUGE","LA",70806,30.4613823220001,-91.139367218,451,"1400 N FOSTER DR, BATON ROUGE, LA, 70806","Match","Exact","1400 N FOSTER DR, BATON ROUGE, LA, 70806",606166576,"R"
57452,"1400 N HACIENDA BLVD","LA PUENTE","CA",91744,34.0460342260001,-117.948755043,452,"1400 N HACIENDA BLVD, LA PUENTE, CA, 91744","Match","Exact","1400 N HACIENDA BLVD, LA PUENTE, CA, 91744",640111144,"R"
57453,"1400 N I-35 SUITE 2-230","AUSTIN","TX",78701,NA,NA,453,"1400 N I-35 SUITE 2-230, AUSTIN, TX, 78701","No_Match",NA,NA,NA,NA
57454,"1400 N KRAEMER BLVD UNIT 1092","PLACENTIA","CA",92871,NA,NA,454,"1400 N KRAEMER BLVD UNIT 1092, PLACENTIA, CA, 92871","No_Match",NA,NA,NA,NA
57455,"1400 N MCDOWELL BLVD","PETALUMA","CA",94954,38.275582754,-122.66933052,455,"1400 N MCDOWELL BLVD, PETALUMA, CA, 94954","Match","Exact","1400 N MCDOWELL BLVD, PETALUMA, CA, 94954",67500277,"R"
57456,"1400 N MONTE VISTA ST","ADA","OK",74820,34.7891466570001,-96.634734328,456,"1400 N MONTE VISTA ST, ADA, OK, 74820","Match","Exact","1400 N MONTE VISTA ST, ADA, OK, 74820",58514812,"R"
57457,"1400 N PROVIDENCE ROAD SUITE 115","MEDIA","PA",19063,39.935276172,-75.391284358,457,"1400 N PROVIDENCE ROAD SUITE 115, MEDIA, PA, 19063","Match","Non_Exact","1400 N PROVIDENCE RD, MEDIA, PA, 19063",615376805,"L"
57458,"1400 N STATE HIGHWAY 360","MANSFIELD","TX",76063,32.585468774,-97.0775402799999,458,"1400 N STATE HIGHWAY 360, MANSFIELD, TX, 76063","Match","Exact","1400 STATE HWY 360, MANSFIELD, TX, 76063",652243573,"L"
57459,"1400 NE 125 STREET","NORTH MIAMI","FL",33161,25.890872674,-80.167966784,459,"1400 NE 125 STREET, NORTH MIAMI, FL, 33161","Match","Exact","1400 NE 125TH ST, NORTH MIAMI, FL, 33161",116037446,"R"
57460,"1400 NE 136TH AVE     201","VANCOUVER","WA",98684,45.6337251850001,-122.531457589,460,"1400 NE 136TH AVE     201, VANCOUVER, WA, 98684","Match","Non_Exact","1400 NE 136TH AVE, VANCOUVER, WA, 98684",612183280,"R"
57461,"1400 NE 136TH AVE","VANCOUVER","WA",98661,45.6337251850001,-122.531457589,461,"1400 NE 136TH AVE, VANCOUVER, WA, 98661","Match","Non_Exact","1400 NE 136TH AVE, VANCOUVER, WA, 98684",612183280,"R"
57462,"1400 NEVILLE STREET","JONESBORO","AR",72401,35.82497877,-90.721356816,462,"1400 NEVILLE STREET, JONESBORO, AR, 72401","Match","Exact","1400 NEVILLE ST, JONESBORO, AR, 72401",46912993,"L"
57463,"1400 NEW GARDEN ROAD","GREENSBORO","NC",27410,36.1059876830001,-79.88613314,463,"1400 NEW GARDEN ROAD, GREENSBORO, NC, 27410","Match","Exact","1400 NEW GARDEN RD, GREENSBORO, NC, 27410",642169093,"R"
57464,"1400 NEWTON ST","ORANGE","TX",77630,30.0770421010001,-93.765135726,464,"1400 NEWTON ST, ORANGE, TX, 77630","Match","Exact","1400 NEWTON ST, ORANGE, TX, 77630",74017852,"R"
57465,"1400 NEWTON ST","WEST ORANGE","TX",77630,30.0770421010001,-93.765135726,465,"1400 NEWTON ST, WEST ORANGE, TX, 77630","Match","Exact","1400 NEWTON ST, WEST ORANGE, TX, 77630",74017852,"R"
57466,"1400 NORTH 30TH SUITE 16","QUINCY","IL",62301,39.946259727,-91.3676475299999,466,"1400 NORTH 30TH SUITE 16, QUINCY, IL, 62301","Match","Non_Exact","1400 N 30TH ST, QUINCY, IL, 62301",640437815,"R"
57467,"1400 NORTH 64 AVE","HOLLYWOOD","FL",33024,26.021866856,-80.216151612,467,"1400 NORTH 64 AVE, HOLLYWOOD, FL, 33024","Match","Exact","1400 N 64TH AVE, HOLLYWOOD, FL, 33024",114716336,"L"
57468,"1400 NORTH DIVISION STREET","PONTIAC","IL",61764,40.8901924890001,-88.6333619329999,468,"1400 NORTH DIVISION STREET, PONTIAC, IL, 61764","Match","Exact","1400 N DIVISION ST, PONTIAC, IL, 61764",22392426,"R"
57469,"1400 NORTH FEDERAL HIGHWAY","FORT LAUDERDALE","FL",33304,26.1466923080001,-80.120046504,469,"1400 NORTH FEDERAL HIGHWAY, FORT LAUDERDALE, FL, 33304","Match","Exact","1400 N FEDERAL HWY, FORT LAUDERDALE, FL, 33304",636913387,"L"
57470,"1400 NORTH LAKE SHORE DRIVE APT 10E","CHICAGO","IL",60610,NA,NA,470,"1400 NORTH LAKE SHORE DRIVE APT 10E, CHICAGO, IL, 60610","No_Match",NA,NA,NA,NA
57471,"1400 NORTH MAIN STREET","SALISBURY","NC",28145,35.678754499,-80.4550178,471,"1400 NORTH MAIN STREET, SALISBURY, NC, 28145","Match","Non_Exact","1400 N MAIN ST, SALISBURY, NC, 28144",25269495,"L"
57472,"1400 NORTH N STREET","MIDLAND","TX",79701,NA,NA,472,"1400 NORTH N STREET, MIDLAND, TX, 79701","No_Match",NA,NA,NA,NA
57473,"1400 NORTH PROVIDENCE RD BLDG 2","MEDIA","PA",19063,39.935276172,-75.391284358,473,"1400 NORTH PROVIDENCE RD BLDG 2, MEDIA, PA, 19063","Match","Exact","1400 N PROVIDENCE RD, MEDIA, PA, 19063",615376805,"L"
57474,"1400 NW 107 AVE STE 203","SWEETWATER","FL",33172,25.7862459300001,-80.3687685959999,474,"1400 NW 107 AVE STE 203, SWEETWATER, FL, 33172","Match","Non_Exact","1400 NW 107TH AVE, SWEETWATER, FL, 33172",116088645,"L"
57475,"1400 NW 107TH AVE STE 430","SWEETWATER","FL",33172,25.7862459300001,-80.3687685959999,475,"1400 NW 107TH AVE STE 430, SWEETWATER, FL, 33172","Match","Non_Exact","1400 NW 107TH AVE, SWEETWATER, FL, 33172",116088645,"L"
57476,"1400 NW 108 AVE APT 269","PLANTATION","FL",33322,26.14347188,-80.2949235409999,476,"1400 NW 108 AVE APT 269, PLANTATION, FL, 33322","Match","Non_Exact","1400 NW 108TH AVE, PLANTATION, FL, 33322",114795813,"R"
57477,"1400 NW 111 STREET","MIAMI","FL",33167,25.875982207,-80.222539978,477,"1400 NW 111 STREET, MIAMI, FL, 33167","Match","Exact","1400 NW 111TH ST, MIAMI, FL, 33167",116033720,"L"
57478,"1400 NW BUCHANAN AVE","CORVALLIS","OR",97330,44.5760816100001,-123.268143773,478,"1400 NW BUCHANAN AVE, CORVALLIS, OR, 97330","Match","Exact","1400 NW BUCHANAN AVE, CORVALLIS, OR, 97330",155846732,"R"
57479,"1400 NW MARSHALL ST UNIT 307","PORTLAND","OR",97209,45.530736765,-122.68551135,479,"1400 NW MARSHALL ST UNIT 307, PORTLAND, OR, 97209","Match","Non_Exact","1400 NW MARSHALL ST, PORTLAND, OR, 97209",157498661,"L"
57480,"1400 NW TERRE VIEW DRIVE","PULLMAN","WA",99163,NA,NA,480,"1400 NW TERRE VIEW DRIVE, PULLMAN, WA, 99163","No_Match",NA,NA,NA,NA
57481,"1400 OAK STREET","BARABOO","WI",53913,43.4785271700001,-89.742381786,481,"1400 OAK STREET, BARABOO, WI, 53913","Match","Exact","1400 OAK ST, BARABOO, WI, 53913",86534190,"R"
57482,"1400 OATMAN","LLANO","TX",78643,30.744258426,-98.674751975,482,"1400 OATMAN, LLANO, TX, 78643","Match","Non_Exact","1400 OATMAN ST, LLANO, TX, 78643",182244246,"R"
57483,"1400 OCEAN AVENUE","BRIGANTINE","NJ",8203,39.400196474,-74.371386501,483,"1400 OCEAN AVENUE, BRIGANTINE, NJ, 8203","Match","Exact","1400 OCEAN AVE, BRIGANTINE, NJ, 08203",202491796,"L"
57484,"1400 OCONOMOWOC PARKWAY","OCONOMOWOC","WI",53066,NA,NA,484,"1400 OCONOMOWOC PARKWAY, OCONOMOWOC, WI, 53066","No_Match",NA,NA,NA,NA
57485,"1400 OGLETHORPE ST NW APT 2","WASHINGTON","DC",20011,38.9610217950001,-77.0336733519999,485,"1400 OGLETHORPE ST NW APT 2, WASHINGTON, DC, 20011","Match","Exact","1400 OGLETHORPE ST NW, WASHINGTON, DC, 20011",641520510,"L"
57486,"1400 OLD COUNTRY RD STE  C-109","WESTBURY","NY",11590,NA,NA,486,"1400 OLD COUNTRY RD STE  C-109, WESTBURY, NY, 11590","No_Match",NA,NA,NA,NA
57487,"1400 OLD FORGE DR APT 2605","LITTLE ROCK","AR",72227,34.765633903,-92.3832080399999,487,"1400 OLD FORGE DR APT 2605, LITTLE ROCK, AR, 72227","Match","Non_Exact","1400 OLD FORGE DR, LITTLE ROCK, AR, 72227",83565495,"R"
57488,"1400 OLD TAMAH  ROAD","IRMO","SC",29063,NA,NA,488,"1400 OLD TAMAH  ROAD, IRMO, SC, 29063","No_Match",NA,NA,NA,NA
57489,"1400 OLD TAMAH RD","IRMO",NA,29063,NA,NA,489,"1400 OLD TAMAH RD, IRMO, , 29063","No_Match",NA,NA,NA,NA
57490,"1400 OLD TAMAH RD","IRMO","SC",29063,NA,NA,490,"1400 OLD TAMAH RD, IRMO, SC, 29063","No_Match",NA,NA,NA,NA
57491,"1400 OLD TAMAH ROAD","IRMO","SC",29063,NA,NA,491,"1400 OLD TAMAH ROAD, IRMO, SC, 29063","No_Match",NA,NA,NA,NA
57492,"1400 OPUS PLACE SUITE 100","DOWNERS GROVE","IL",60515,41.8295293830001,-88.0230411059999,492,"1400 OPUS PLACE SUITE 100, DOWNERS GROVE, IL, 60515","Match","Exact","1400 OPUS PL, DOWNERS GROVE, IL, 60515",112533350,"L"
57493,"1400 OXFORD LANE","DENTON","TX",76209,33.2459905220001,-97.111689876,493,"1400 OXFORD LANE, DENTON, TX, 76209","Match","Exact","1400 OXFORD LN, DENTON, TX, 76209",103407058,"R"
57494,"1400 PALMER STREET","CHESTER","PA",19013,39.842849174,-75.3949420659999,494,"1400 PALMER STREET, CHESTER, PA, 19013","Match","Exact","1400 PALMER ST, CHESTER, PA, 19013",134889168,"L"
57495,"1400 PERRY STREET","RICHMOND","VA",23224,37.522421804,-77.4483298119999,495,"1400 PERRY STREET, RICHMOND, VA, 23224","Match","Exact","1400 PERRY ST, RICHMOND, VA, 23224",201541799,"L"
57496,"1400 PIKE STREET","MARIETTA","OH",45750,39.3929071470001,-81.404781622,496,"1400 PIKE STREET, MARIETTA, OH, 45750","Match","Exact","1400 PIKE ST, MARIETTA, OH, 45750",634490084,"L"
57497,"1400 PINE COURT","WISCONSIN DELLS","WI",53965,43.629503089,-89.756636887,497,"1400 PINE COURT, WISCONSIN DELLS, WI, 53965","Match","Exact","1400 PINE CT, WISCONSIN DELLS, WI, 53965",73327598,"L"
57498,"1400 PINE HALL RD","PINE HALL","NC",27042,36.3292784720001,-80.047681583,498,"1400 PINE HALL RD, PINE HALL, NC, 27042","Match","Exact","1400 PINE HALL RD, PINE HALL, NC, 27042",640613614,"L"
57499,"1400 PRESTON RD SUITE 400","PLANO","TX",75093,NA,NA,499,"1400 PRESTON RD SUITE 400, PLANO, TX, 75093","No_Match",NA,NA,NA,NA
57500,"1400 PRESTON ROAD     SUITE 400","PLANO","TX",75093,NA,NA,500,"1400 PRESTON ROAD     SUITE 400, PLANO, TX, 75093","No_Match",NA,NA,NA,NA
