"ID","Address","City","State","Zip","lat","long","id","input_address","match_indicator","match_type","matched_address","tiger_line_id","tiger_side"
219501,"4606 SUMMER OAK AVENUE EAST APT 636","SARASOTA","FL",34243,27.4016182170001,-82.503792571,1,"4606 SUMMER OAK AVENUE EAST APT 636, SARASOTA, FL, 34243","Match","Exact","4606 SUMMER OAK AVE E, SARASOTA, FL, 34243",16262531,"R"
219502,"4606 SUTLEY CIRCLE","PAPILLION","NE",68133,41.1296138170001,-95.982479127,2,"4606 SUTLEY CIRCLE, PAPILLION, NE, 68133","Match","Exact","4606 SUTLEY CIR, PAPILLION, NE, 68133",28469521,"R"
219503,"4606 W ALTA VISA RD","LAVEEN","AZ",85339,NA,NA,3,"4606 W ALTA VISA RD, LAVEEN, AZ, 85339","No_Match",NA,NA,NA,NA
219504,"4606 W CALDWELL AVE","VISALIA","CA",93277,36.29824919,-119.340817112,4,"4606 W CALDWELL AVE, VISALIA, CA, 93277","Match","Exact","4606 W CALDWELL AVE, VISALIA, CA, 93277",202803668,"R"
219505,"4606 WEST BAY BLVD","ESTERO","FL",33928,NA,NA,5,"4606 WEST BAY BLVD, ESTERO, FL, 33928","No_Match",NA,NA,NA,NA
219506,"46062 C60","KINGSLEY","IA",51028,42.633364364,-95.917908794,6,"46062 C60, KINGSLEY, IA, 51028","Match","Exact","46062 C60, KINGSLEY, IA, 51028",93325801,"L"
219507,"46065 FREDERICK","NORTHVILLE","MI",48167,42.425829574,-83.498332788,7,"46065 FREDERICK, NORTHVILLE, MI, 48167","Match","Non_Exact","46065 FREDERICK ST, NORTHVILLE, MI, 48167",95499469,"L"
219508,"4607 238TH PL SW","MOUNTLAKE TERRACE","WA",98043,47.782404817,-122.295215432,8,"4607 238TH PL SW, MOUNTLAKE TERRACE, WA, 98043","Match","Exact","4607 238TH PL SW, MOUNTLAKE TERRACE, WA, 98043",187757121,"R"
219509,"4607 264TH AVENUE NE","REDMOND","WA",98053,47.6484371930001,-121.986776736,9,"4607 264TH AVENUE NE, REDMOND, WA, 98053","Match","Exact","4607 264TH AVE NE, REDMOND, WA, 98053",627794387,"L"
219510,"4607 BLUFF RUN DRIVE","GREENSBORO","NC",27455,36.143856488,-79.817968879,10,"4607 BLUFF RUN DRIVE, GREENSBORO, NC, 27455","Match","Exact","4607 BLUFF RUN DR, GREENSBORO, NC, 27455",131111238,"R"
219511,"4607 CORAL DRIVE","DURHAM","NC",27713,35.939354859,-78.9162028759999,11,"4607 CORAL DRIVE, DURHAM, NC, 27713","Match","Exact","4607 CORAL DR, DURHAM, NC, 27713",618108531,"L"
219512,"4607 COUNTY ROAD 919","CROWLEY","TX",76036,32.549872113,-97.412769333,12,"4607 COUNTY ROAD 919, CROWLEY, TX, 76036","Match","Exact","4607 CO RD 919, CROWLEY, TX, 76036",103515522,"R"
219513,"4607 E 144TH ST","CLEVELAND","OH",44128,41.433595546,-81.580660941,13,"4607 E 144TH ST, CLEVELAND, OH, 44128","Match","Exact","4607 E 144TH ST, CLEVELAND, OH, 44128",61127650,"L"
219514,"4607 FALL STREET","RICHMOND","CA",94804,37.924045139,-122.325654879,14,"4607 FALL STREET, RICHMOND, CA, 94804","Match","Non_Exact","4607 FALL AVE, RICHMOND, CA, 94804",192041662,"L"
219515,"4607 LAKEVIEW CANYON NUM 520","WESTLAKE VILLAGE","CA",91361,34.1456919190001,-118.820068183,15,"4607 LAKEVIEW CANYON NUM 520, WESTLAKE VILLAGE, CA, 91361","Match","Non_Exact","4607 LAKEVIEW CANYON RD, WESTLAKE VILLAGE, CA, 91361",640120056,"L"
219516,"4607 LAKEVIEW CANYON RD STE 433","WESTLAKE VILLAGE","CA",91361,34.1456919190001,-118.820068183,16,"4607 LAKEVIEW CANYON RD STE 433, WESTLAKE VILLAGE, CA, 91361","Match","Exact","4607 LAKEVIEW CANYON RD, WESTLAKE VILLAGE, CA, 91361",640120056,"L"
219517,"4607 LAKEVIEW CANYON ROAD SUITE 333","WESTLAKE VILLAGE","CA",91361,34.1456919190001,-118.820068183,17,"4607 LAKEVIEW CANYON ROAD SUITE 333, WESTLAKE VILLAGE, CA, 91361","Match","Exact","4607 LAKEVIEW CANYON RD, WESTLAKE VILLAGE, CA, 91361",640120056,"L"
219518,"4607 LIBRARY ROAD SUITE 220  277","BETHEL PARK","PA",15104,40.3513256520001,-80.023476725,18,"4607 LIBRARY ROAD SUITE 220  277, BETHEL PARK, PA, 15104","Match","Non_Exact","4607 LIBRARY RD, BETHEL PARK, PA, 15102",647515979,"L"
219519,"4607 LOMITA STREET UNIT 4","LOS ANGELES","CA",90019,34.0459110800001,-118.337716882,19,"4607 LOMITA STREET UNIT 4, LOS ANGELES, CA, 90019","Match","Exact","4607 LOMITA ST, LOS ANGELES, CA, 90019",141601677,"R"
219520,"4607 N SHERIDAN RD","CHICAGO","IL",60640,41.965650994,-87.654778284,20,"4607 N SHERIDAN RD, CHICAGO, IL, 60640","Match","Exact","4607 N SHERIDAN RD, CHICAGO, IL, 60640",605200556,"R"
219521,"4607 NE DEARBORN AVENUE","LAWTON","OK",73507,34.6126430670001,-98.333581104,21,"4607 NE DEARBORN AVENUE, LAWTON, OK, 73507","Match","Exact","4607 NE DEARBORN AVE, LAWTON, OK, 73507",14994028,"R"
219522,"4607 PILGRIM DR","RACINE","WI",53404,42.778813746,-87.8117198039999,22,"4607 PILGRIM DR, RACINE, WI, 53404","Match","Exact","4607 PILGRIM DR, RACINE, WI, 53404",77916353,"L"
219523,"4607 PLAZA LANE B","RIVERSIDE","CA",92509,33.991120321,-117.423369252,23,"4607 PLAZA LANE B, RIVERSIDE, CA, 92509","Match","Exact","4607 PLAZA LN, RIVERSIDE, CA, 92509",194739147,"R"
219524,"4607 PONTIAC TRL","MI","MI",48105,42.339599865,-83.715851218,24,"4607 PONTIAC TRL, MI, MI, 48105","Match","Non_Exact","4607 PONTIAC TRL, ANN ARBOR, MI, 48105",619260659,"L"
219525,"4607 PROSPECT AVENUE","LOS ANGELES","CA",90027,34.1017910030001,-118.28987252,25,"4607 PROSPECT AVENUE, LOS ANGELES, CA, 90027","Match","Exact","4607 PROSPECT AVE, LOS ANGELES, CA, 90027",141597604,"R"
219526,"4607 RAINTREE BLVD","AUSTIN","TX",78745,30.2184954430001,-97.7766459589999,26,"4607 RAINTREE BLVD, AUSTIN, TX, 78745","Match","Exact","4607 RAINTREE BLVD, AUSTIN, TX, 78745",63944367,"L"
219527,"4607 REGIMENT WAY","MANLIUS","NY",13104,42.9961087470001,-75.960993742,27,"4607 REGIMENT WAY, MANLIUS, NY, 13104","Match","Exact","4607 REGIMENT WAY, MANLIUS, NY, 13104",46579042,"R"
219528,"4607 SAND ROCK LANE","CHANTILLY","VA",20151,38.865928866,-77.407771112,28,"4607 SAND ROCK LANE, CHANTILLY, VA, 20151","Match","Exact","4607 SAND ROCK LN, CHANTILLY, VA, 20151",75964691,"L"
219529,"4607 STRUNK LANE","LAS VEGAS","NV",89115,36.244022085,-115.062720775,29,"4607 STRUNK LANE, LAS VEGAS, NV, 89115","Match","Exact","4607 STRUNK LN, LAS VEGAS, NV, 89115",638185167,"L"
219530,"4607 TIMBERGLEN ROAD APT 424","DALLAS","TX",75287,33.003565818,-96.82833651,30,"4607 TIMBERGLEN ROAD APT 424, DALLAS, TX, 75287","Match","Exact","4607 TIMBERGLEN RD, DALLAS, TX, 75287",210494126,"L"
219531,"4607 VILLAGE FAIR DR 323","DALLAS","TX",75224,32.6901407560001,-96.828838945,31,"4607 VILLAGE FAIR DR 323, DALLAS, TX, 75224","Match","Exact","4607 VILLAGE FAIR DR, DALLAS, TX, 75224",102948418,"L"
219532,"4607 VILLAGE FAIR DR SUITE 307","DALLAS","TX",75224,32.6901407560001,-96.828838945,32,"4607 VILLAGE FAIR DR SUITE 307, DALLAS, TX, 75224","Match","Exact","4607 VILLAGE FAIR DR, DALLAS, TX, 75224",102948418,"L"
219533,"4607 W ANDOVER DR","PEORIA","IL",61615,40.7599014780001,-89.665441412,33,"4607 W ANDOVER DR, PEORIA, IL, 61615","Match","Exact","4607 W ANDOVER DR, PEORIA, IL, 61615",8722440,"R"
219534,"4607 W WALNUT APT 1","PEARLAND","TX",77581,NA,NA,34,"4607 W WALNUT APT 1, PEARLAND, TX, 77581","No_Match",NA,NA,NA,NA
219535,"4607 WEDGEWOOD BOULEVARD","FREDERICK","MD",21703,39.3630095230001,-77.425152349,35,"4607 WEDGEWOOD BOULEVARD, FREDERICK, MD, 21703","Match","Exact","4607 WEDGEWOOD BLVD, FREDERICK, MD, 21703",60732322,"L"
219536,"4607 WHISPERING PARK LANE","TAMPA","FL",33614,28.0335940750001,-82.51855355,36,"4607 WHISPERING PARK LANE, TAMPA, FL, 33614","Match","Exact","4607 WHISPERING PARK LN, TAMPA, FL, 33614",104614733,"L"
219537,"4607 WOODLINE DRIVE","FAYETTEVILLE","NE",28314,NA,NA,37,"4607 WOODLINE DRIVE, FAYETTEVILLE, NE, 28314","No_Match",NA,NA,NA,NA
219538,"4608 28TH RD S APT A","ARLINGTON","VA",22206,38.8434194500001,-77.0982776879999,38,"4608 28TH RD S APT A, ARLINGTON, VA, 22206","Match","Exact","4608 28TH RD S, ARLINGTON, VA, 22206",76477869,"L"
219539,"4608 BENNINGTON AVENUE SUITE A","BATON ROUGE","LA",70808,30.419618315,-91.1371312209999,39,"4608 BENNINGTON AVENUE SUITE A, BATON ROUGE, LA, 70808","Match","Exact","4608 BENNINGTON AVE, BATON ROUGE, LA, 70808",92209049,"R"
219540,"4608 CHIPPENDALE COURT","VIRGINIA BEACH","VA",23455,36.870961127,-76.149392522,40,"4608 CHIPPENDALE COURT, VIRGINIA BEACH, VA, 23455","Match","Exact","4608 CHIPPENDALE CT, VIRGINIA BCH, VA, 23455",122278799,"L"
219541,"4608 CRESCENT AVE","JEFFERSONVILLE","IN",47130,38.339537879,-85.728947816,41,"4608 CRESCENT AVE, JEFFERSONVILLE, IN, 47130","Match","Exact","4608 CRESCENT AVE, JEFFERSONVILLE, IN, 47130",64878663,"L"
219542,"4608 HAMPTON BLVD","NORFOLK","VA",23529,36.8856296060001,-76.3023759229999,42,"4608 HAMPTON BLVD, NORFOLK, VA, 23529","Match","Non_Exact","4608 HAMPTON BLVD, NORFOLK, VA, 23508",122131888,"R"
219543,"4608 INDUSTRY LANE  SUITE C","DURHAM","NC",27713,35.9415776610001,-78.900606553,43,"4608 INDUSTRY LANE  SUITE C, DURHAM, NC, 27713","Match","Exact","4608 INDUSTRY LN, DURHAM, NC, 27713",71759568,"R"
219544,"4608 MARY AVENUE","BALTIMORE","MD",21206,39.34278226,-76.53614227,44,"4608 MARY AVENUE, BALTIMORE, MD, 21206","Match","Exact","4608 MARY AVE, BALTIMORE, MD, 21206",206412199,"L"
219545,"4608 MULBERRY CREEK DRIVE","EVANS","GA",30809,33.5391501510001,-82.1514897759999,45,"4608 MULBERRY CREEK DRIVE, EVANS, GA, 30809","Match","Exact","4608 MULBERRY CREEK DR, EVANS, GA, 30809",55382511,"R"
219546,"4608 NORCROSS ROAD APT B","CHATTANOOGA","TX",37343,NA,NA,46,"4608 NORCROSS ROAD APT B, CHATTANOOGA, TX, 37343","No_Match",NA,NA,NA,NA
219547,"4608 NORFOLK ISLAND PINE DRIVE","TAMARAC","FL",33319,26.1823138620001,-80.235166635,47,"4608 NORFOLK ISLAND PINE DRIVE, TAMARAC, FL, 33319","Match","Exact","4608 NORFOLK ISLAND PINE DR, TAMARAC, FL, 33319",114703174,"R"
219548,"4608 PLATO AVE","MEMPHIS","TN",38128,35.2160771040001,-89.909846006,48,"4608 PLATO AVE, MEMPHIS, TN, 38128","Match","Exact","4608 PLATO AVE, MEMPHIS, TN, 38128",72914698,"L"
219549,"4608 RADNOR ROAD","INDIANAPOLIS","IN",46226,39.8440306050001,-86.0896544509999,49,"4608 RADNOR ROAD, INDIANAPOLIS, IN, 46226","Match","Exact","4608 RADNOR RD, INDIANAPOLIS, IN, 46226",107996077,"L"
219550,"4608 RANDIG LN","PFLUGERVILLE","TX",78660,30.446571046,-97.565042998,50,"4608 RANDIG LN, PFLUGERVILLE, TX, 78660","Match","Exact","4608 RANDIG LN, PFLUGERVILLE, TX, 78660",601190068,"L"
219551,"4608 S CORTEZ AVE","TAMPA","FL",33611,27.8973052050001,-82.5198975979999,51,"4608 S CORTEZ AVE, TAMPA, FL, 33611","Match","Exact","4608 S CORTEZ AVE, TAMPA, FL, 33611",104527957,"L"
219552,"4608 SOUTH HAGADORN ROAD","EAST LANSING","MI",48823,42.7150921910001,-84.4620342869999,52,"4608 SOUTH HAGADORN ROAD, EAST LANSING, MI, 48823","Match","Exact","4608 S HAGADORN RD, EAST LANSING, MI, 48823",17505378,"R"
219553,"4608 STORM CAT LN","HOPE MILLS","NC",28348,34.931483497,-78.875664092,53,"4608 STORM CAT LN, HOPE MILLS, NC, 28348","Match","Exact","4608 STORM CAT LN, HOPE MILLS, NC, 28348",638728161,"R"
219554,"4608 TANGIER STREET","IRVING","TX",75062,32.843030626,-97.012551448,54,"4608 TANGIER STREET, IRVING, TX, 75062","Match","Non_Exact","4608 TANGIER DR, IRVING, TX, 75062",624155656,"R"
219555,"4608 TRAILRIDGE CIRCLE","PELHAM","AL",35124,33.339552192,-86.799010918,55,"4608 TRAILRIDGE CIRCLE, PELHAM, AL, 35124","Match","Exact","4608 TRAILRIDGE CIR, PELHAM, AL, 35124",82064628,"R"
219556,"4608 W PITTSBURGH ST","BROKEN ARROW","OK",74012,NA,NA,56,"4608 W PITTSBURGH ST, BROKEN ARROW, OK, 74012","No_Match",NA,NA,NA,NA
219557,"4608 W SAGUARO DR","GLENDALE","AZ",85304,33.583923161,-112.15857489,57,"4608 W SAGUARO DR, GLENDALE, AZ, 85304","Match","Exact","4608 W SAGUARO DR, GLENDALE, AZ, 85304",128195677,"R"
219558,"4608 WHITEHALL DRIVE","SOUTH EUCLID","OH",44121,41.5300614240001,-81.513641825,58,"4608 WHITEHALL DRIVE, SOUTH EUCLID, OH, 44121","Match","Exact","4608 WHITEHALL DR, SOUTH EUCLID, OH, 44121",61124825,"R"
219559,"4608 ZOLTAN DR","TITUSVILLE","FL",32780,28.563305164,-80.83251068,59,"4608 ZOLTAN DR, TITUSVILLE, FL, 32780","Match","Exact","4608 ZOLTAN DR, TITUSVILLE, FL, 32780",93956766,"L"
219560,"46088 BELL SCHOOL ROAD","EAST LIVERPOOL","OH",43920,40.7099798770001,-80.630477223,60,"46088 BELL SCHOOL ROAD, EAST LIVERPOOL, OH, 43920","Match","Exact","46088 BELL SCHOOL RD, EAST LIVERPOOL, OH, 43920",647814011,"R"
219561,"46089  263RD STREET","HARTFORD","SD",57033,43.572293771,-96.993218912,61,"46089  263RD STREET, HARTFORD, SD, 57033","Match","Exact","46089 263RD ST, HARTFORD, SD, 57033",34984011,"L"
219562,"4609 152ND PL SE","BOTHELL","WA",98012,47.859368391,-122.172363083,62,"4609 152ND PL SE, BOTHELL, WA, 98012","Match","Exact","4609 152ND PL SE, BOTHELL, WA, 98012",651793635,"R"
219563,"4609 ALLENBEND ROAD","GLEN ALLEN","VA",23060,37.660938726,-77.596534535,63,"4609 ALLENBEND ROAD, GLEN ALLEN, VA, 23060","Match","Exact","4609 ALLENBEND RD, GLEN ALLEN, VA, 23060",638166876,"R"
219564,"4609 AMY RD","SNELLVILLE","GA",30039,33.766330397,-84.040957582,64,"4609 AMY RD, SNELLVILLE, GA, 30039","Match","Exact","4609 AMY RD, SNELLVILLE, GA, 30039",88917016,"R"
219565,"4609 BLAISDELL AVENUE SUITE 3","MINNEAPOLIS","MN",55419,44.919356312,-93.279235483,65,"4609 BLAISDELL AVENUE SUITE 3, MINNEAPOLIS, MN, 55419","Match","Non_Exact","4609 BLAISDELL AVE S, MINNEAPOLIS, MN, 55419",43634150,"L"
219566,"4609 BROOKVIEW RD","ROCKFORD","IL",61107,42.293533177,-89.0271637179999,66,"4609 BROOKVIEW RD, ROCKFORD, IL, 61107","Match","Exact","4609 BROOKVIEW RD, ROCKFORD, IL, 61107",49257892,"R"
219567,"4609 CACTUWS AVE NW","ALBUQUERQUE","WA",87114,NA,NA,67,"4609 CACTUWS AVE NW, ALBUQUERQUE, WA, 87114","No_Match",NA,NA,NA,NA
219568,"4609 DERUSSEY","CHEVY CHASE","MD",20815,NA,NA,68,"4609 DERUSSEY, CHEVY CHASE, MD, 20815","No_Match",NA,NA,NA,NA
219569,"4609 E AUGUSTA AVE","CHANDLER","AZ",85249,33.217737883,-111.76297981,69,"4609 E AUGUSTA AVE, CHANDLER, AZ, 85249","Match","Exact","4609 E AUGUSTA AVE, CHANDLER, AZ, 85249",128854829,"R"
219570,"4609 EAST CEASAR CHAVEZ AVENUE","LOS ANGELES","CA",90022,NA,NA,70,"4609 EAST CEASAR CHAVEZ AVENUE, LOS ANGELES, CA, 90022","No_Match",NA,NA,NA,NA
219571,"4609 HEDGES AVE","KANSAS CITY","MO",64133,39.038507489,-94.453661903,71,"4609 HEDGES AVE, KANSAS CITY, MO, 64133","Match","Exact","4609 HEDGES AVE, KANSAS CITY, MO, 64133",624541038,"L"
219572,"4609 HWY 83","EVERGREEN","AL",36401,31.5027012140001,-87.0091587159999,72,"4609 HWY 83, EVERGREEN, AL, 36401","Match","Non_Exact","4609 STATE RTE 83, EVERGREEN, AL, 36401",651758632,"L"
219573,"4609 LATOUR LANE","COLLEYVILLE","TX",76034,32.876761537,-97.108961591,73,"4609 LATOUR LANE, COLLEYVILLE, TX, 76034","Match","Exact","4609 LATOUR LN, COLLEYVILLE, TX, 76034",648428884,"L"
219574,"4609 LISTER","KANSAS CITY","MO",64133,NA,NA,74,"4609 LISTER, KANSAS CITY, MO, 64133","No_Match",NA,NA,NA,NA
219575,"4609 MERIDIAN PARK DR","PEARLAND","TX",77584,29.555506521,-95.291386717,75,"4609 MERIDIAN PARK DR, PEARLAND, TX, 77584","Match","Exact","4609 MERIDIAN PARK DR, PEARLAND, TX, 77584",631999829,"L"
219576,"4609 MERIDIAN PARK DRIVE","PEARLAND","TX",77584,29.555506521,-95.291386717,76,"4609 MERIDIAN PARK DRIVE, PEARLAND, TX, 77584","Match","Exact","4609 MERIDIAN PARK DR, PEARLAND, TX, 77584",631999829,"L"
219577,"4609 ORCHARD AVE","LOS ANGELES","CA",90037,34.001608882,-118.288981218,77,"4609 ORCHARD AVE, LOS ANGELES, CA, 90037","Match","Exact","4609 ORCHARD AVE, LOS ANGELES, CA, 90037",141607851,"R"
219578,"4609 PAGE DRIVE","METAIRIE","LA",70003,30.020546903,-90.2072633929999,78,"4609 PAGE DRIVE, METAIRIE, LA, 70003","Match","Exact","4609 PAGE DR, METAIRIE, LA, 70003",93496766,"R"
219579,"4609 PARKBREEZE COURT","ORLANDO","FL",32808,28.5973580720001,-81.421675711,79,"4609 PARKBREEZE COURT, ORLANDO, FL, 32808","Match","Exact","4609 PARKBREEZE CT, ORLANDO, FL, 32808",639765034,"L"
219580,"4609 QUAIL LAKES DR STE 4","STOCKTON","CA",95207,37.987495224,-121.340182462,80,"4609 QUAIL LAKES DR STE 4, STOCKTON, CA, 95207","Match","Exact","4609 QUAIL LAKES DR, STOCKTON, CA, 95207",133932542,"R"
219581,"4609 SALOMA PLACE","AUSTIN","TX",78749,30.2095201220001,-97.851262084,81,"4609 SALOMA PLACE, AUSTIN, TX, 78749","Match","Exact","4609 SALOMA PL, AUSTIN, TX, 78749",63937693,"L"
219582,"4609 SAYBROOK DRIVE","EVANSVILLE","IN",47711,38.032928408,-87.494458666,82,"4609 SAYBROOK DRIVE, EVANSVILLE, IN, 47711","Match","Exact","4609 SAYBROOK DR, EVANSVILLE, IN, 47711",39798715,"R"
219583,"4609 SENECA ROAD","TRUMANSBURG","NY",14886,42.5476840260001,-76.6602975329999,83,"4609 SENECA ROAD, TRUMANSBURG, NY, 14886","Match","Non_Exact","4609 E SENECA RD, TRUMANSBURG, NY, 14886",14669970,"L"
219584,"4609 SHARMAN ST","HOUSTON","TX",77009,29.801842445,-95.369739355,84,"4609 SHARMAN ST, HOUSTON, TX, 77009","Match","Exact","4609 SHARMAN ST, HOUSTON, TX, 77009",96058372,"L"
219585,"4609 SPRING DRIVE","SAINT LOUIS","MO",63123,38.5447488560001,-90.304831187,85,"4609 SPRING DRIVE, SAINT LOUIS, MO, 63123","Match","Exact","4609 SPRING DR, SAINT LOUIS, MO, 63123",627117838,"R"
219586,"4609 SPRINGMAID LANE","OXON HILL","MD",20745,38.8266383050001,-76.99102586,86,"4609 SPRINGMAID LANE, OXON HILL, MD, 20745","Match","Exact","4609 SPRINGMAID LN, OXON HILL, MD, 20745",642143051,"L"
219587,"4609 VINELAND ROAD","ORLANDO","FL",32801,NA,NA,87,"4609 VINELAND ROAD, ORLANDO, FL, 32801","No_Match",NA,NA,NA,NA
219588,"4609 WESTERN HILLS DRIVE","WEST DES MOINES","IA",50265,41.5781113360001,-93.764047313,88,"4609 WESTERN HILLS DRIVE, WEST DES MOINES, IA, 50265","Match","Exact","4609 WESTERN HILLS DR, W DES MOINES, IA, 50265",65775111,"R"
219589,"4609 WHITE AVE","BALTIMORE","MD",21206,39.3417546110001,-76.536344588,89,"4609 WHITE AVE, BALTIMORE, MD, 21206","Match","Exact","4609 WHITE AVE, BALTIMORE, MD, 21206",206465364,"R"
219590,"46097 239TH STREET","WENTWORTH","SD",57075,43.92065691,-96.991090863,90,"46097 239TH STREET, WENTWORTH, SD, 57075","Match","Exact","46097 239TH ST, WENTWORTH, SD, 57075",203674845,"L"
219591,"461 5TH ST STE 2","ELKO","NV",89801,40.832990954,-115.763665764,91,"461 5TH ST STE 2, ELKO, NV, 89801","Match","Exact","461 5TH ST, ELKO, NV, 89801",154626047,"L"
219592,"461 AMELIA COURT","LOVELAND","CO",80537,40.3882369880001,-105.118608794,92,"461 AMELIA COURT, LOVELAND, CO, 80537","Match","Exact","461 AMELIA CT, LOVELAND, CO, 80537",188524509,"L"
219593,"461 BRENTWOOD DRIVE","PUEBLO","CO",81005,38.2603763270001,-104.666943279,93,"461 BRENTWOOD DRIVE, PUEBLO, CO, 81005","Match","Exact","461 BRENTWOOD DR, PUEBLO, CO, 81005",105022161,"R"
219594,"461 CANYON CREEK DRIVE","AMERICAN CANYON","CA",94503,38.1619601850001,-122.242816993,94,"461 CANYON CREEK DRIVE, AMERICAN CANYON, CA, 94503","Match","Exact","461 CANYON CREEK DR, AMERICAN CANYON, CA, 94503",67426213,"L"
219595,"461 CEDAR MOUNTAIN RD","THOMASTON","CT",6787,41.6473999250001,-73.0676761459999,95,"461 CEDAR MOUNTAIN RD, THOMASTON, CT, 6787","Match","Exact","461 CEDAR MOUNTAIN RD, THOMASTON, CT, 06787",627063475,"L"
219596,"461 CLARK STREET","461 CLARK STREET","FL",32763,28.9438228240001,-81.293676191,96,"461 CLARK STREET, 461 CLARK STREET, FL, 32763","Match","Non_Exact","461 CLARK ST, ORANGE CITY, FL, 32763",94517915,"R"
219597,"461 COCHRAN RD NUM 246","PITTSBURGH","PA",15228,40.3838346950001,-80.052784725,97,"461 COCHRAN RD NUM 246, PITTSBURGH, PA, 15228","Match","Exact","461 COCHRAN RD, PITTSBURGH, PA, 15228",51631699,"R"
219598,"461 COCHRAN ROAD SUITE 110","PITTSBURGH","PA",15228,40.3838346950001,-80.052784725,98,"461 COCHRAN ROAD SUITE 110, PITTSBURGH, PA, 15228","Match","Exact","461 COCHRAN RD, PITTSBURGH, PA, 15228",51631699,"R"
219599,"461 COOLEY ROAD","PARKSVILLE","NY",12768,41.862103163,-74.724759061,99,"461 COOLEY ROAD, PARKSVILLE, NY, 12768","Match","Exact","461 COOLEY RD, PARKSVILLE, NY, 12768",129019907,"L"
219600,"461 DEAN STREET 16F","BROOKLYN","NY",11217,40.6817567800001,-73.975402687,100,"461 DEAN STREET 16F, BROOKLYN, NY, 11217","Match","Exact","461 DEAN ST, BROOKLYN, NY, 11217",650082031,"L"
219601,"461 DEAN STREET 8G","BROOKLYN","NY",11217,40.6817567800001,-73.975402687,101,"461 DEAN STREET 8G, BROOKLYN, NY, 11217","Match","Exact","461 DEAN ST, BROOKLYN, NY, 11217",650082031,"L"
219602,"461 DEKALB AVE APT 3R","BROOKLYN","NY",11205,40.6905323570001,-73.958748171,102,"461 DEKALB AVE APT 3R, BROOKLYN, NY, 11205","Match","Exact","461 DEKALB AVE, BROOKLYN, NY, 11205",59078033,"L"
219603,"461 DOVE LN","AXSON","GA",31624,31.3007968590001,-82.7393118909999,103,"461 DOVE LN, AXSON, GA, 31624","Match","Exact","461 DOVE LN, AXSON, GA, 31624",612837829,"R"
219604,"461 E 300 S","PORTLAND","IN",47371,40.3963391680001,-84.968786168,104,"461 E 300 S, PORTLAND, IN, 47371","Match","Exact","461 E 300 S, PORTLAND, IN, 47371",45039804,"R"
219605,"461 E BROWN ST","BLAIRSVILLE","PA",15717,40.4302986430001,-79.255634196,105,"461 E BROWN ST, BLAIRSVILLE, PA, 15717","Match","Exact","461 E BROWN ST, BLAIRSVILLE, PA, 15717",66294784,"L"
219606,"461 EAST FOSTER AVE","STATE COLLEGE","PA",16801,40.7970179530001,-77.85341515,106,"461 EAST FOSTER AVE, STATE COLLEGE, PA, 16801","Match","Exact","461 E FOSTER AVE, STATE COLLEGE, PA, 16801",50370812,"L"
219607,"461 ELCINO DR","PENSACOLA","FL",32526,30.453501153,-87.33465754,107,"461 ELCINO DR, PENSACOLA, FL, 32526","Match","Exact","461 ELCINO DR, PENSACOLA, FL, 32526",93273522,"R"
219608,"461 FINCH LANE","LEXINGTON","SC",29073,33.9411811030001,-81.2121045329999,108,"461 FINCH LANE, LEXINGTON, SC, 29073","Match","Exact","461 FINCH LN, LEXINGTON, SC, 29073",650426482,"L"
219609,"461 GRAND NATIONAL LANE","ELGIN","SC",29045,34.1371173110001,-80.855327866,109,"461 GRAND NATIONAL LANE, ELGIN, SC, 29045","Match","Exact","461 GRAND NATIONAL LN, ELGIN, SC, 29045",625618653,"L"
219610,"461 GRASSY RIDGE ROAD","MOUNT STORM","WV",26739,39.2127420840001,-79.2254931379999,110,"461 GRASSY RIDGE ROAD, MOUNT STORM, WV, 26739","Match","Exact","461 GRASSY RIDGE RD, MOUNT STORM, WV, 26739",642983747,"R"
219611,"461 HARBOR BLVD","BELMONT","CA",94002,37.51978681,-122.268795792,111,"461 HARBOR BLVD, BELMONT, CA, 94002","Match","Exact","461 HARBOR BLVD, BELMONT, CA, 94002",192381956,"L"
219612,"461 HIGHWAY CC","MONTGOMERY CITY","MO",63361,NA,NA,112,"461 HIGHWAY CC, MONTGOMERY CITY, MO, 63361","No_Match",NA,NA,NA,NA
219613,"461 KAHINU ST","HONOLULU","HI",96821,21.293746345,-157.725454351,113,"461 KAHINU ST, HONOLULU, HI, 96821","Match","Exact","461 KAHINU ST, HONOLULU, HI, 96821",203243944,"R"
219614,"461 LILLY CT","MIDLOTHIAN","TX",76065,32.437676163,-96.989105251,114,"461 LILLY CT, MIDLOTHIAN, TX, 76065","Match","Exact","461 LILLY CT, MIDLOTHIAN, TX, 76065",651865174,"R"
219615,"461 LINWOOD","BUFFALO","NY",14209,42.9146310530001,-78.867048817,115,"461 LINWOOD, BUFFALO, NY, 14209","Match","Non_Exact","461 LINWOOD AVE, BUFFALO, NY, 14209",48289769,"R"
219616,"461 LONG MEADOW","SPRING BRANCH","TX",78070,29.8182669940001,-98.399947641,116,"461 LONG MEADOW, SPRING BRANCH, TX, 78070","Match","Exact","461 LONG MEADOW, SPRING BRANCH, TX, 78070",72271571,"L"
219617,"461 LORING PLACE","HORIZON CITY","TX",79928,31.696413035,-106.20752328,117,"461 LORING PLACE, HORIZON CITY, TX, 79928","Match","Exact","461 LORING PL, HORIZON CITY, TX, 79928",189357293,"L"
219618,"461 MCINTOSH AVE","ORANGE PARK","FL",32073,30.1674062810001,-81.704082843,118,"461 MCINTOSH AVE, ORANGE PARK, FL, 32073","Match","Non_Exact","461 MC INTOSH AVE, ORANGE PARK, FL, 32073",83815771,"R"
219619,"461 MEADOWOOD BLVD","CASSELBERRY","FL",32730,28.6481219820001,-81.3430497159999,119,"461 MEADOWOOD BLVD, CASSELBERRY, FL, 32730","Match","Exact","461 MEADOWOOD BLVD, CASSELBERRY, FL, 32730",639253775,"R"
219620,"461 MONTAUK AVENUE","BROOKLYN","NY",11208,40.666810635,-73.875194205,120,"461 MONTAUK AVENUE, BROOKLYN, NY, 11208","Match","Exact","461 MONTAUK AVE, BROOKLYN, NY, 11208",640860514,"L"
219621,"461 N WOLF RD","HILLSIDE","IL",60162,41.878733959,-87.902758351,121,"461 N WOLF RD, HILLSIDE, IL, 60162","Match","Exact","461 N WOLF RD, HILLSIDE, IL, 60162",605138824,"R"
219622,"461 NORTH FRESNO STREET","FRESNO","CA",93701,36.749790508,-119.781499642,122,"461 NORTH FRESNO STREET, FRESNO, CA, 93701","Match","Exact","461 N FRESNO ST, FRESNO, CA, 93701",197580102,"L"
219623,"461 OAK POINT DRIVE","LA PLACE","LA",70068,30.0969766790001,-90.47974314,123,"461 OAK POINT DRIVE, LA PLACE, LA, 70068","Match","Exact","461 OAK POINT DR, LA PLACE, LA, 70068",614108025,"R"
219624,"461 OLD DIXIE WAY APT 5007","FOREST PARK","GA",30297,33.5874210050001,-84.376674554,124,"461 OLD DIXIE WAY APT 5007, FOREST PARK, GA, 30297","Match","Non_Exact","461 OLD DIXIE WAY, FOREST PARK, GA, 30297",23326531,"R"
219625,"461 ORIOLE LN","JUPITER","FL",33458,26.9050063600001,-80.1374524779999,125,"461 ORIOLE LN, JUPITER, FL, 33458","Match","Exact","461 ORIOLE LN, JUPITER, FL, 33458",115351593,"L"
219626,"461 OTIS ROAD","NORTH BRUNSWICK","NJ",8902,40.4574168510001,-74.4582722709999,126,"461 OTIS ROAD, NORTH BRUNSWICK, NJ, 8902","Match","Exact","461 OTIS RD, N BRUNSWICK, NJ, 08902",60264356,"R"
219627,"461 OWASSO HILLS DRIVE","ROSEVILLE","MN",55113,45.0301975780001,-93.1201031159999,127,"461 OWASSO HILLS DRIVE, ROSEVILLE, MN, 55113","Match","Exact","461 OWASSO HILLS DR, ROSEVILLE, MN, 55113",97663616,"L"
219628,"461 PEEBLES STREET","PITTSBURGH","PA",15221,40.4418549640001,-79.8941443859999,128,"461 PEEBLES STREET, PITTSBURGH, PA, 15221","Match","Exact","461 PEEBLES ST, PITTSBURGH, PA, 15221",623196813,"L"
219629,"461 PITTS RD","CATAWBA","SC",29704,34.832470904,-80.946885545,129,"461 PITTS RD, CATAWBA, SC, 29704","Match","Exact","461 PITTS RD, CATAWBA, SC, 29704",618822379,"R"
219630,"461 PRIVATE ROAD 332","ATLANTA","TX",75551,NA,NA,130,"461 PRIVATE ROAD 332, ATLANTA, TX, 75551","No_Match",NA,NA,NA,NA
219631,"461 PROVIDENCE RUN WAY","LAWRENCEVILLE","GA",30046,33.963772819,-83.96679662,131,"461 PROVIDENCE RUN WAY, LAWRENCEVILLE, GA, 30046","Match","Exact","461 PROVIDENCE RUN WAY, LAWRENCEVILLE, GA, 30046",650162559,"R"
219632,"461 S BARNES DRIVE 114","GARLAND","TX",75042,NA,NA,132,"461 S BARNES DRIVE 114, GARLAND, TX, 75042","Tie",NA,NA,NA,NA
219633,"461 S BLACK BRANCH RD","CECILIA","KY",42724,37.6593483030001,-85.9750120099999,133,"461 S BLACK BRANCH RD, CECILIA, KY, 42724","Match","Exact","461 S BLACK BRANCH RD, CECILIA, KY, 42724",34620569,"L"
219634,"461 S BRYANT AVE","TUCSON","AZ",85711,32.214202759,-110.903060258,134,"461 S BRYANT AVE, TUCSON, AZ, 85711","Match","Exact","461 S BRYANT AVE, TUCSON, AZ, 85711",121175760,"L"
219635,"461 S BRYANT","TUCSON","AZ",85711,32.214202759,-110.903060258,135,"461 S BRYANT, TUCSON, AZ, 85711","Match","Non_Exact","461 S BRYANT AVE, TUCSON, AZ, 85711",121175760,"L"
219636,"461 S MAIN STREET","WILLITS","CA",95490,39.4068009220001,-123.352079108,136,"461 S MAIN STREET, WILLITS, CA, 95490","Match","Exact","461 S MAIN ST, WILLITS, CA, 95490",67312352,"R"
219637,"461 S MILPITAS BLVD SUITE 1","MILPITAS","CA",95035,37.425272212,-121.894764254,137,"461 S MILPITAS BLVD SUITE 1, MILPITAS, CA, 95035","Match","Non_Exact","461 S MILPITAS BLVD, MILPITAS, CA, 95035",650107698,"R"
219638,"461 SOUTH BEECH DALY","DEARBORN HEIGHTS","MI",48125,42.308528376,-83.2909494849999,138,"461 SOUTH BEECH DALY, DEARBORN HEIGHTS, MI, 48125","Match","Non_Exact","461 S BEECH DALY RD, DEARBORN HEIGHTS, MI, 48125",95432518,"L"
219639,"461 SOUTH BROAD STREET","GLEN ROCK","NJ",7452,40.9712136140001,-74.124830435,139,"461 SOUTH BROAD STREET, GLEN ROCK, NJ, 7452","Match","Non_Exact","461 BROAD ST, GLEN ROCK, NJ, 07452",641450539,"L"
219640,"461 TANGELO COURT","FREMONT","CA",94539,NA,NA,140,"461 TANGELO COURT, FREMONT, CA, 94539","No_Match",NA,NA,NA,NA
219641,"461 TENNESSEE STREET","MEMPHIS","TN",38103,35.1353625450001,-90.061966779,141,"461 TENNESSEE STREET, MEMPHIS, TN, 38103","Match","Exact","461 TENNESSEE ST, MEMPHIS, TN, 38103",72901600,"R"
219642,"461 UNIVERSAL STREET","MCCOMB","MS",39648,31.220347986,-90.464362621,142,"461 UNIVERSAL STREET, MCCOMB, MS, 39648","Match","Exact","461 UNIVERSAL ST, MCCOMB, MS, 39648",75858876,"R"
219643,"461 VALLEY ROAD","WAYNE","NJ",7470,40.9284079290001,-74.229733918,143,"461 VALLEY ROAD, WAYNE, NJ, 7470","Match","Exact","461 VALLEY RD, WAYNE, NJ, 07470",638547980,"R"
219644,"461 VAN KIRK ST  REAR OFFICE","PHILADELPHIA","PA",19120,40.0445708450001,-75.103685545,144,"461 VAN KIRK ST  REAR OFFICE, PHILADELPHIA, PA, 19120","Match","Exact","461 VAN KIRK ST, PHILADELPHIA, PA, 19120",131414835,"L"
219645,"461 VAN KIRK STREET - REAR OFFICE","PHILADELPHIA","PA",19120,40.0445708450001,-75.103685545,145,"461 VAN KIRK STREET - REAR OFFICE, PHILADELPHIA, PA, 19120","Match","Exact","461 VAN KIRK ST, PHILADELPHIA, PA, 19120",131414835,"L"
219646,"461 W APACHE TRAIL UNIT 330","APACHE JUNCTION","AZ",85120,NA,NA,146,"461 W APACHE TRAIL UNIT 330, APACHE JUNCTION, AZ, 85120","Tie",NA,NA,NA,NA
219647,"461 W MAPLEDALE AVE","HAZEL PARK","MI",48030,42.4723268760001,-83.1086677919999,147,"461 W MAPLEDALE AVE, HAZEL PARK, MI, 48030","Match","Exact","461 W MAPLEDALE AVE, HAZEL PARK, MI, 48030",69747480,"L"
219648,"461 W ORCHARD","ROGERS CITY","MI",49779,45.4134089680001,-83.81573129,148,"461 W ORCHARD, ROGERS CITY, MI, 49779","Match","Non_Exact","461 W ORCHARD ST, ROGERS CITY, MI, 49779",130755355,"R"
219649,"461 WEBSTER AVE","ROCHESTER","NY",14609,43.169469866,-77.572487372,149,"461 WEBSTER AVE, ROCHESTER, NY, 14609","Match","Exact","461 WEBSTER AVE, ROCHESTER, NY, 14609",14539559,"L"
219650,"461 WEST 13490 SOUTH A402","DRAPER","UT",84020,40.506209825,-111.902785523,150,"461 WEST 13490 SOUTH A402, DRAPER, UT, 84020","Match","Exact","461 W 13490 S, DRAPER, UT, 84020",645882721,"L"
219651,"461 WEST 38TH STREET APT 6","LOS ANGELES","CA",90037,34.0157609080001,-118.281662312,151,"461 WEST 38TH STREET APT 6, LOS ANGELES, CA, 90037","Match","Exact","461 W 38TH ST, LOS ANGELES, CA, 90037",639059214,"R"
219652,"461 WEST 44TH ST SUITE 6B","NEW YORK","NY",10036,40.7604492130001,-73.9933667079999,152,"461 WEST 44TH ST SUITE 6B, NEW YORK, NY, 10036","Match","Exact","461 W 44TH ST, NEW YORK, NY, 10036",59655193,"R"
219653,"461 WILDEWOOD AVENUE","GEORGETOWN","SC",29440,33.4016952970001,-79.2798001909999,153,"461 WILDEWOOD AVENUE, GEORGETOWN, SC, 29440","Match","Exact","461 WILDEWOOD AVE, GEORGETOWN, SC, 29440",29002716,"R"
219654,"461-466 E 111TH STREET","CHICAGO","IL",60628,41.6927589630001,-87.611047883,154,"461-466 E 111TH STREET, CHICAGO, IL, 60628","Match","Exact","461 E 111TH ST, CHICAGO, IL, 60628",111773954,"R"
219655,"4610 123RD AVE","LAKE STEVENS","WA",98258,48.0379159460001,-122.065156853,155,"4610 123RD AVE, LAKE STEVENS, WA, 98258","Match","Non_Exact","4610 123RD AVE NE, LAKE STEVENS, WA, 98258",647682348,"L"
219656,"4610 8TH ST S UNIT 101","WISCONSIN RAPIDS","WI",54494,44.3546051050001,-89.816996524,156,"4610 8TH ST S UNIT 101, WISCONSIN RAPIDS, WI, 54494","Match","Exact","4610 8TH ST S, WISCONSIN RAPIDS, WI, 54494",636198588,"L"
219657,"4610 ALTON PL NW","WASHINGTON","DC",20016,38.947095505,-77.09094078,157,"4610 ALTON PL NW, WASHINGTON, DC, 20016","Match","Exact","4610 ALTON PL NW, WASHINGTON, DC, 20016",76219714,"L"
219658,"4610 BETHLEHEM PIKE","TELFORD","PA",18969,40.336807177,-75.303450524,158,"4610 BETHLEHEM PIKE, TELFORD, PA, 18969","Match","Exact","4610 BETHLEHEM PIKE, TELFORD, PA, 18969",134771292,"L"
219659,"4610 CENTRAL DRIVE","STONE MOUNTAIN","GA",30083,33.8122167450001,-84.200679781,159,"4610 CENTRAL DRIVE, STONE MOUNTAIN, GA, 30083","Match","Exact","4610 CENTRAL DR, STONE MOUNTAIN, GA, 30083",23405885,"L"
219660,"4610 CHAFFIN RD","MCKINLEYVILLE","CA",95519,40.9884442580001,-124.095748532,160,"4610 CHAFFIN RD, MCKINLEYVILLE, CA, 95519","Match","Non_Exact","4610 CHAFFIN AVE, MCKINLEYVILLE, CA, 95519",113046583,"L"
219661,"4610 CHARLOTTE AVENUE SUITE 3000","NASHVILLE","TN",37209,36.152203452,-86.842433451,161,"4610 CHARLOTTE AVENUE SUITE 3000, NASHVILLE, TN, 37209","Match","Exact","4610 CHARLOTTE AVE, NASHVILLE, TN, 37209",97179294,"R"
219662,"4610 COUNTRYCROSSING DRIVE","SPRING","TX",77388,30.044755041,-95.4860551639999,162,"4610 COUNTRYCROSSING DRIVE, SPRING, TX, 77388","Match","Exact","4610 COUNTRYCROSSING DR, SPRING, TX, 77388",624860084,"L"
219663,"4610 DALLAS LN N","PLYMOUTH","MN",55446,NA,NA,163,"4610 DALLAS LN N, PLYMOUTH, MN, 55446","Tie",NA,NA,NA,NA
219664,"4610 DARTMOUTH DR","KILLEEN","TX",76542,31.071373464,-97.731955295,164,"4610 DARTMOUTH DR, KILLEEN, TX, 76542","Match","Exact","4610 DARTMOUTH DR, KILLEEN, TX, 76542",146167002,"R"
219665,"4610 DELANO STREET","HOUSTON","TX",77004,29.7235288570001,-95.368604637,165,"4610 DELANO STREET, HOUSTON, TX, 77004","Match","Exact","4610 DELANO ST, HOUSTON, TX, 77004",96071948,"R"
219666,"4610 E CROSSTIMBERS","HOUSTON","TX",77016,29.8310664960001,-95.322759205,166,"4610 E CROSSTIMBERS, HOUSTON, TX, 77016","Match","Non_Exact","4610 E CROSSTIMBERS ST, HOUSTON, TX, 77016",96159426,"L"
219667,"4610 E LAKE SAMMAMISH PKWY NE","SAMMAMISH","WA",98074,47.6497414070001,-122.08880588,167,"4610 E LAKE SAMMAMISH PKWY NE, SAMMAMISH, WA, 98074","Match","Exact","4610 E LAKE SAMMAMISH PKWY NE, SAMMAMISH, WA, 98074",636723468,"R"
219668,"4610 E OSBORN","PHOENIX","AZ",85018,NA,NA,168,"4610 E OSBORN, PHOENIX, AZ, 85018","No_Match",NA,NA,NA,NA
219669,"4610 GALAHAD DR","NEW ORLEANS","LA",70127,30.018076923,-89.985759522,169,"4610 GALAHAD DR, NEW ORLEANS, LA, 70127","Match","Exact","4610 GALAHAD DR, NEW ORLEANS, LA, 70127",191721138,"L"
219670,"4610 IRIS STREET","ROCKVILLE","MD",20853,39.075045888,-77.093184046,170,"4610 IRIS STREET, ROCKVILLE, MD, 20853","Match","Exact","4610 IRIS ST, ROCKVILLE, MD, 20853",62059880,"L"
219671,"4610 KANAWHA AVENUE SE STE 402","SOUTH CHARLESTON","WV",25309,38.356296994,-81.727108287,171,"4610 KANAWHA AVENUE SE STE 402, SOUTH CHARLESTON, WV, 25309","Match","Non_Exact","4610 KANAWHA AVE SW, S CHARLESTON, WV, 25309",78587361,"R"
219672,"4610 LIVINGSTON ROAD SE APT 302","WASHINGTON","DC",20032,38.8235968440001,-77.001990958,172,"4610 LIVINGSTON ROAD SE APT 302, WASHINGTON, DC, 20032","Match","Exact","4610 LIVINGSTON RD SE, WASHINGTON, DC, 20032",76232618,"L"
219673,"4610 MARBLEHEAD BAY DR","OCEANSIDE","CA",92057,33.2529842770001,-117.314621835,173,"4610 MARBLEHEAD BAY DR, OCEANSIDE, CA, 92057","Match","Exact","4610 MARBLEHEAD BAY DR, OCEANSIDE, CA, 92057",195420587,"L"
219674,"4610 MOONBEAM COURT","MYRTLE BEACH","SC",29579,33.7693994050001,-78.949787513,174,"4610 MOONBEAM COURT, MYRTLE BEACH, SC, 29579","Match","Exact","4610 MOONBEAM CT, MYRTLE BEACH, SC, 29579",630412938,"R"
219675,"4610 MOONBEAM DR","HARRISON","AR",72601,36.2358809670001,-93.231848434,175,"4610 MOONBEAM DR, HARRISON, AR, 72601","Match","Exact","4610 MOONBEAM DR, HARRISON, AR, 72601",20003793,"L"
219676,"4610 NICKERSON CT","COLUMBUS","GA",31907,32.431548788,-84.9179690569999,176,"4610 NICKERSON CT, COLUMBUS, GA, 31907","Match","Exact","4610 NICKERSON CT, COLUMBUS, GA, 31907",98943390,"R"
219677,"4610 NW 71ST AVE","LAUDERHILL","FL",33319,26.181941678,-80.244256145,177,"4610 NW 71ST AVE, LAUDERHILL, FL, 33319","Match","Exact","4610 NW 71ST AVE, LAUDERHILL, FL, 33319",114702974,"L"
219678,"4610 OLD COURT ROAD","PIKESVILLE","MD",21208,39.3668956110001,-76.755290384,178,"4610 OLD COURT ROAD, PIKESVILLE, MD, 21208","Match","Exact","4610 OLD COURT RD, PIKESVILLE, MD, 21208",191558389,"R"
219679,"4610 PIGEON OAKS DRIVE","VALDOSTA","GA",31601,30.690443718,-83.26504662,179,"4610 PIGEON OAKS DRIVE, VALDOSTA, GA, 31601","Match","Exact","4610 PIGEON OAKS DR, VALDOSTA, GA, 31601",87746969,"R"
219680,"4610 PINEHURST DRIVE SOUTH","AUSTIN","TX",78747,30.135992641,-97.7846705699999,180,"4610 PINEHURST DRIVE SOUTH, AUSTIN, TX, 78747","Match","Exact","4610 PINEHURST DR S, AUSTIN, TX, 78747",63998450,"L"
219681,"4610 PRESS DRIVE","NEW ORLEANS","LA",70126,30.0065220010001,-90.041454454,181,"4610 PRESS DRIVE, NEW ORLEANS, LA, 70126","Match","Exact","4610 PRESS DR, NEW ORLEANS, LA, 70126",191704776,"L"
219682,"4610 ROUTE 220","NEW ALBANY","PA",18833,41.610549516,-76.446957771,182,"4610 ROUTE 220, NEW ALBANY, PA, 18833","Match","Non_Exact","4610 US HWY 220, NEW ALBANY, PA, 18833",629455681,"R"
219683,"4610 S BIG HORN DRIVE","CHANDLER","AZ",85249,33.239299255,-111.774050224,183,"4610 S BIG HORN DRIVE, CHANDLER, AZ, 85249","Match","Exact","4610 S BIG HORN DR, CHANDLER, AZ, 85249",640949900,"L"
219684,"4610 S L ST","TACOMA","WA",98408,47.2150448370001,-122.44939668,184,"4610 S L ST, TACOMA, WA, 98408","Match","Exact","4610 S L ST, TACOMA, WA, 98408",184625259,"R"
219685,"4610 S ULSTER ST SUITE 150","DENVER","CO",80237,39.6315013810001,-104.896872935,185,"4610 S ULSTER ST SUITE 150, DENVER, CO, 80237","Match","Non_Exact","4610 S ULSTER ST, DENVER, CO, 80237",632903547,"L"
219686,"4610 S ULSTER ST","DENVER","CO",80237,39.6315013810001,-104.896872935,186,"4610 S ULSTER ST, DENVER, CO, 80237","Match","Exact","4610 S ULSTER ST, DENVER, CO, 80237",632903547,"L"
219687,"4610 SHOALWOOD","AUSTIN","TX",78756,30.3186601,-97.744124603,187,"4610 SHOALWOOD, AUSTIN, TX, 78756","Match","Non_Exact","4610 SHOALWOOD AVE, AUSTIN, TX, 78756",63929599,"L"
219688,"4610 SIERRA MADRE DRIVE","NEW ORLEANS","LA",70127,30.0208174520001,-89.9646108649999,188,"4610 SIERRA MADRE DRIVE, NEW ORLEANS, LA, 70127","Match","Non_Exact","4610 SIERRA MADRE ST, NEW ORLEANS, LA, 70127",191721877,"L"
219689,"4610 STILESBORO RD NW","KENNESAW","GA",30152,33.99799525,-84.684497154,189,"4610 STILESBORO RD NW, KENNESAW, GA, 30152","Match","Exact","4610 STILESBORO RD NW, KENNESAW, GA, 30152",643023705,"R"
219690,"4610 SW 10 STREET","MIAMI","FL",33134,25.762004878,-80.270455666,190,"4610 SW 10 STREET, MIAMI, FL, 33134","Match","Exact","4610 SW 10TH ST, MIAMI, FL, 33134",116056417,"L"
219691,"4610 SWEETWATER BLVD SUITE 200","SUGAR LAND","TX",77479,29.5826473760001,-95.630821027,191,"4610 SWEETWATER BLVD SUITE 200, SUGAR LAND, TX, 77479","Match","Exact","4610 SWEETWATER BLVD, SUGAR LAND, TX, 77479",227754620,"R"
219692,"4610 TERESA TRAIL","MIDLOTHIAN","TX",76065,32.4317708950001,-96.958553729,192,"4610 TERESA TRAIL, MIDLOTHIAN, TX, 76065","Match","Exact","4610 TERESA TRL, MIDLOTHIAN, TX, 76065",616469439,"R"
219693,"4610 VERSAILLES DR","MIDLAND","TX",79703,31.976618117,-102.13378048,193,"4610 VERSAILLES DR, MIDLAND, TX, 79703","Match","Exact","4610 VERSAILLES DR, MIDLAND, TX, 79703",139580062,"R"
219694,"4610 WEST 38TH STREET","ERIE","PA",16506,42.063948985,-80.172422352,194,"4610 WEST 38TH STREET, ERIE, PA, 16506","Match","Exact","4610 W 38TH ST, ERIE, PA, 16506",117508314,"R"
219695,"4610 WOOLCOMBER ST","LAS VEGAS","NV",89115,36.244116911,-115.060236673,195,"4610 WOOLCOMBER ST, LAS VEGAS, NV, 89115","Match","Exact","4610 WOOLCOMBER ST, LAS VEGAS, NV, 89115",641033303,"L"
219696,"46101 CREEKSIDE BLVD","MACOMB","MI",48044,42.6371058990001,-82.8858023239999,196,"46101 CREEKSIDE BLVD, MACOMB, MI, 48044","Match","Exact","46101 CREEKSIDE BLVD, MACOMB, MI, 48044",617773694,"R"
219697,"46104 W BELLE AVE","MARICOPA","AZ",85139,33.0541673020001,-112.0633923,197,"46104 W BELLE AVE, MARICOPA, AZ, 85139","Match","Exact","46104 BELLE AVE, MARICOPA, AZ, 85139",129255840,"R"
219698,"461054","AURORA","CO",80046,NA,NA,198,"461054, AURORA, CO, 80046","No_Match",NA,NA,NA,NA
219699,"4611 19TH ST NORTH","ARLINGTON","VA",22207,38.893477777,-77.1186742949999,199,"4611 19TH ST NORTH, ARLINGTON, VA, 22207","Match","Exact","4611 19TH ST N, ARLINGTON, VA, 22207",76468136,"R"
219700,"4611 62ND AVE W","UNIVERSITY PLACE","WA",98466,47.2152236110001,-122.520585366,200,"4611 62ND AVE W, UNIVERSITY PLACE, WA, 98466","Match","Exact","4611 62ND AVE W, UNIVERSITY PLACE, WA, 98466",184619822,"L"
219701,"4611 7TH ST S","ARLINGTON","VA",22204,38.8610340390001,-77.1085562759999,201,"4611 7TH ST S, ARLINGTON, VA, 22204","Match","Exact","4611 7TH ST S, ARLINGTON, VA, 22204",76469067,"R"
219702,"4611 ALABAMA AVE","NASHVILLE","TN",37209,36.153292788,-86.842470874,202,"4611 ALABAMA AVE, NASHVILLE, TN, 37209","Match","Exact","4611 ALABAMA AVE, NASHVILLE, TN, 37209",641320956,"L"
219703,"4611 ASPEN HILL RD","ROCKVILLE","MD",20853,39.0769510120001,-77.0921562409999,203,"4611 ASPEN HILL RD, ROCKVILLE, MD, 20853","Match","Exact","4611 ASPEN HILL RD, ROCKVILLE, MD, 20853",62059883,"R"
219704,"4611 ASSEMBLY DRIVE   SUITE A","LANHAM","MD",20706,38.9543522230001,-76.830780077,204,"4611 ASSEMBLY DRIVE   SUITE A, LANHAM, MD, 20706","Match","Exact","4611 ASSEMBLY DR, LANHAM, MD, 20706",76378782,"L"
219705,"4611 BETHANY GLEN DRIVE","BATAVIA","OH",45103,39.1063102860001,-84.239740269,205,"4611 BETHANY GLEN DRIVE, BATAVIA, OH, 45103","Match","Exact","4611 BETHANY GLEN DR, BATAVIA, OH, 45103",118458282,"L"
219706,"4611 CALVERT ROAD APT 9","COLLEGE PARK","MD",20740,38.9787621340001,-76.9337337439999,206,"4611 CALVERT ROAD APT 9, COLLEGE PARK, MD, 20740","Match","Exact","4611 CALVERT RD, COLLEGE PARK, MD, 20740",76305169,"R"
219707,"4611 CATALPA ST","LOS ANGELES","CA",90032,34.0634932200001,-118.184108101,207,"4611 CATALPA ST, LOS ANGELES, CA, 90032","Match","Exact","4611 CATALPA ST, LOS ANGELES, CA, 90032",141623777,"L"
219708,"4611 CATALPA STREET","LOS ANGELES","CA",90032,34.0634932200001,-118.184108101,208,"4611 CATALPA STREET, LOS ANGELES, CA, 90032","Match","Exact","4611 CATALPA ST, LOS ANGELES, CA, 90032",141623777,"L"
219709,"4611 CLARENDON AVE","HARRISBURG","PA",17109,40.288640962,-76.811956493,209,"4611 CLARENDON AVE, HARRISBURG, PA, 17109","Match","Non_Exact","4611 CLARENDON ST, HARRISBURG, PA, 17109",70822273,"R"
219710,"4611 CLEARY AVE","METAIRIE","LA",70002,30.017298833,-90.173813044,210,"4611 CLEARY AVE, METAIRIE, LA, 70002","Match","Exact","4611 CLEARY AVE, METAIRIE, LA, 70002",93497743,"R"
219711,"4611 E SHEA BLVD STE 230","PHOENIX","AZ",85028,33.5826555840001,-111.983881711,211,"4611 E SHEA BLVD STE 230, PHOENIX, AZ, 85028","Match","Non_Exact","4611 E SHEA BLVD, PHOENIX, AZ, 85028",128944012,"R"
219712,"4611 GREENE DR SUITE 311","ALBUQUERQUE","NM",87114,NA,NA,212,"4611 GREENE DR SUITE 311, ALBUQUERQUE, NM, 87114","No_Match",NA,NA,NA,NA
219713,"4611 HARD SCRABBLE RD SUITE 332","COLUMBIA","SC",29229,34.1525428090001,-80.911541928,213,"4611 HARD SCRABBLE RD SUITE 332, COLUMBIA, SC, 29229","Match","Exact","4611 HARD SCRABBLE RD, COLUMBIA, SC, 29229",640032811,"L"
219714,"4611 HARD SCRABBLE ROAD STE 109-193","COLUMBIA","SC",29229,34.1525428090001,-80.911541928,214,"4611 HARD SCRABBLE ROAD STE 109-193, COLUMBIA, SC, 29229","Match","Exact","4611 HARD SCRABBLE RD, COLUMBIA, SC, 29229",640032811,"L"
219715,"4611 LONG CLIMB CANYON","HUMBLE","TX",77396,29.9421402090001,-95.2394537329999,215,"4611 LONG CLIMB CANYON, HUMBLE, TX, 77396","Match","Exact","4611 LONG CLIMB CANYON, HUMBLE, TX, 77396",625668084,"R"
219716,"4611 LUNSFORD HOLLOW LN","FRIENDSWOOD","TX",77546,29.53819309,-95.173080048,216,"4611 LUNSFORD HOLLOW LN, FRIENDSWOOD, TX, 77546","Match","Non_Exact","4611 LUNDSFORD HOLLOW LN, FRIENDSWOOD, TX, 77546",627918608,"L"
219717,"4611 NE 46TH AVENUE","OCALA","FL",34479,29.234322993,-82.108945749,217,"4611 NE 46TH AVENUE, OCALA, FL, 34479","Match","Non_Exact","4611 NE 46TH ST, OCALA, FL, 34479",116807266,"L"
219718,"4611 OAK HILL ROAD","OAKLAND","CA",94605,37.765905581,-122.138125644,218,"4611 OAK HILL ROAD, OAKLAND, CA, 94605","Match","Exact","4611 OAK HILL RD, OAKLAND, CA, 94605",125011653,"L"
219719,"4611 OHIO STREET SUITE 27","SAN DIEGO","CA",92116,32.761335409,-117.128945169,219,"4611 OHIO STREET SUITE 27, SAN DIEGO, CA, 92116","Match","Exact","4611 OHIO ST, SAN DIEGO, CA, 92116",641369586,"R"
219720,"4611 PENDALL DRIVE","FORT WASHINGTON","MD",20744,38.7861941520001,-76.931686515,220,"4611 PENDALL DRIVE, FORT WASHINGTON, MD, 20744","Match","Exact","4611 PENDALL DR, FT WASHINGTON, MD, 20744",645469418,"R"
219721,"4611 PIN OAK CREEK LANE","KINGWOOD","TX",77345,30.0752457460001,-95.1719639579999,221,"4611 PIN OAK CREEK LANE, KINGWOOD, TX, 77345","Match","Exact","4611 PIN OAK CREEK LN, KINGWOOD, TX, 77345",627951877,"R"
219722,"4611 POINTE AUX PEAUX","NEWPORT","MI",48166,41.9522503220001,-83.28754047,222,"4611 POINTE AUX PEAUX, NEWPORT, MI, 48166","Match","Non_Exact","4611 POINTE AUX PEAUX RD, NEWPORT, MI, 48166",40480136,"R"
219723,"4611 RIME VILLAGE","BIRMINGHAM","AL",35216,33.3782884870001,-86.790899629,223,"4611 RIME VILLAGE, BIRMINGHAM, AL, 35216","Match","Non_Exact","4611 RIME VILLAGE DR, BIRMINGHAM, AL, 35216",633437203,"R"
219724,"4611 S 96TH ST - SUITE 100","OMAHA","NE",68127,41.2134630310001,-96.062207507,224,"4611 S 96TH ST - SUITE 100, OMAHA, NE, 68127","Match","Non_Exact","4611 S 96TH ST, OMAHA, NE, 68127",117022381,"L"
219725,"4611 S UNIVERSITY DR STE 190","DAVIE","FL",33328,26.0634129330001,-80.25229738,225,"4611 S UNIVERSITY DR STE 190, DAVIE, FL, 33328","Match","Non_Exact","4611 S UNIVERSITY DR, DAVIE, FL, 33328",645695680,"R"
219726,"4611 SE 84TH AVE","PORTLAND","OR",97266,45.4893485330001,-122.576779169,226,"4611 SE 84TH AVE, PORTLAND, OR, 97266","Match","Exact","4611 SE 84TH AVE, PORTLAND, OR, 97266",157517440,"R"
219727,"4611 SOUTH INDIANA AVENUE","CHICAGO","IL",60653,41.810892935,-87.621245492,227,"4611 SOUTH INDIANA AVENUE, CHICAGO, IL, 60653","Match","Exact","4611 S INDIANA AVE, CHICAGO, IL, 60653",605539638,"L"
219728,"4611 SW 26 STREET","WEST PARK","FL",33023,25.9870867860001,-80.1894617149999,228,"4611 SW 26 STREET, WEST PARK, FL, 33023","Match","Exact","4611 SW 26TH ST, WEST PARK, FL, 33023",114735307,"R"
219729,"4611 SW LAUREL OAK TERRACE","PALM CITY","FL",34990,27.117021762,-80.316402115,229,"4611 SW LAUREL OAK TERRACE, PALM CITY, FL, 34990","Match","Exact","4611 SW LAUREL OAK TER, PALM CITY, FL, 34990",120433157,"L"
219730,"4611 TEALWOOD TRL","WESLEY CHAPEL","FL",33544,28.22425521,-82.369373512,230,"4611 TEALWOOD TRL, WESLEY CHAPEL, FL, 33544","Match","Exact","4611 TEALWOOD TRL, WESLEY CHAPEL, FL, 33544",627220762,"L"
219731,"4611 THOUSAND OAKS DRIVE","ARLINGTON","TX",76017,32.673969153,-97.181568869,231,"4611 THOUSAND OAKS DRIVE, ARLINGTON, TX, 76017","Match","Exact","4611 THOUSAND OAKS DR, ARLINGTON, TX, 76017",101902697,"R"
219732,"4611 TIBBS ST","SHREVEPORT","LA",71105,32.4583991420001,-93.729784576,232,"4611 TIBBS ST, SHREVEPORT, LA, 71105","Match","Exact","4611 TIBBS ST, SHREVEPORT, LA, 71105",57441248,"L"
219733,"4611 TOBAGO COVE","AUSTIN","TX",78749,30.210580189,-97.851435909,233,"4611 TOBAGO COVE, AUSTIN, TX, 78749","Match","Exact","4611 TOBAGO COVE, AUSTIN, TX, 78749",64097369,"L"
219734,"4611 VERPLANCK PLACE NW","WASHINGTON","DC",20016,38.9439709580001,-77.090940814,234,"4611 VERPLANCK PLACE NW, WASHINGTON, DC, 20016","Match","Exact","4611 VERPLANCK PL NW, WASHINGTON, DC, 20016",76219757,"R"
219735,"4611 W BELOIT RD APT 3","WEST MILWAUKEE","WI",53214,43.018870291,-87.971578783,235,"4611 W BELOIT RD APT 3, WEST MILWAUKEE, WI, 53214","Match","Non_Exact","4611 W BELOIT RD, W MILWAUKEE, WI, 53214",77734665,"L"
219736,"4611 W LODGE DR","LAVEEN","AZ",85339,33.353713902,-112.15813033,236,"4611 W LODGE DR, LAVEEN, AZ, 85339","Match","Exact","4611 W LODGE DR, LAVEEN, AZ, 85339",244001316,"R"
219737,"4611 WESTERN STREET","NEW ORLEANS","LA",70122,30.0052872910001,-90.058976975,237,"4611 WESTERN STREET, NEW ORLEANS, LA, 70122","Match","Exact","4611 WESTERN ST, NEW ORLEANS, LA, 70122",191704418,"R"
219738,"4611 WILSON AVENUE","NEW ORLEANS","LA",70126,30.017066976,-89.999121483,238,"4611 WILSON AVENUE, NEW ORLEANS, LA, 70126","Match","Exact","4611 WILSON AVE, NEW ORLEANS, LA, 70126",191720923,"R"
219739,"46111 FONNER RD","NORTHVILLE","MI",48167,42.432961246,-83.498135839,239,"46111 FONNER RD, NORTHVILLE, MI, 48167","Match","Exact","46111 FONNER RD, NORTHVILLE, MI, 48167",95404604,"L"
219740,"461126 EAST 995 DRIVE","SALLISAW","OK",74955,35.5778356770001,-94.805730741,240,"461126 EAST 995 DRIVE, SALLISAW, OK, 74955","Match","Non_Exact","461126 E 995 RD, SALLISAW, OK, 74955",53771101,"L"
219741,"46119 240TH STREET","CHESTER","SD",57016,43.906173982,-96.985272268,241,"46119 240TH STREET, CHESTER, SD, 57016","Match","Exact","46119 240TH ST, CHESTER, SD, 57016",203669835,"L"
219742,"46119 284TH AVE SE","ENUMCLAW","WA",98022,47.1874364920001,-121.963349143,242,"46119 284TH AVE SE, ENUMCLAW, WA, 98022","Match","Exact","46119 284TH AVE SE, ENUMCLAW, WA, 98022",633071502,"L"
219743,"4612 6L WESTWOOD PARK DR","SHREVEPORT","LA",71109,32.4679007230001,-93.823662821,243,"4612 6L WESTWOOD PARK DR, SHREVEPORT, LA, 71109","Match","Exact","4612 6L WESTWOOD PARK DR, SHREVEPORT, LA, 71109",57431107,"R"
219744,"4612 B NE WHISPERING WINDS DR","LEES SUMMIT","MO",64064,38.994866777,-94.355369389,244,"4612 B NE WHISPERING WINDS DR, LEES SUMMIT, MO, 64064","Match","Exact","4612 NE WHISPERING WINDS DR, LEES SUMMIT, MO, 64064",91503212,"R"
219745,"4612 BELCOURT DRIVE","DAYTON","OH",45418,39.722118272,-84.264009161,245,"4612 BELCOURT DRIVE, DAYTON, OH, 45418","Match","Non_Exact","4612 BELCOURT DR, DAYTON, OH, 45417",143629984,"L"
219746,"4612 FINLEY DRIVE","AUSTIN","TX",78731,30.321715269,-97.75173712,246,"4612 FINLEY DRIVE, AUSTIN, TX, 78731","Match","Exact","4612 FINLEY DR, AUSTIN, TX, 78731",63929509,"L"
219747,"4612 FIRESTONE DR","FRISCO","TX",75034,33.099407279,-96.851209554,247,"4612 FIRESTONE DR, FRISCO, TX, 75034","Match","Exact","4612 FIRESTONE DR, FRISCO, TX, 75034",103372783,"L"
219748,"4612 GARY AVENUE","FAIRFIELD","AL",35064,33.4912853110001,-86.9152101939999,248,"4612 GARY AVENUE, FAIRFIELD, AL, 35064","Match","Exact","4612 GARY AVE, FAIRFIELD, AL, 35064",81551651,"R"
219749,"4612 HARRISON ST","CHEVY CHASE","MD",20815,38.9576433,-77.091408649,249,"4612 HARRISON ST, CHEVY CHASE, MD, 20815","Match","Exact","4612 HARRISON ST, CHEVY CHASE, MD, 20815",62067288,"L"
219750,"4612 HUMMINGBIRD WAY","FAIRFAX","VA",22033,38.861459005,-77.396206851,250,"4612 HUMMINGBIRD WAY, FAIRFAX, VA, 22033","Match","Exact","4612 HUMMINGBIRD WAY, FAIRFAX, VA, 22033",624463738,"R"
219751,"4612 HWY 218 E","MONROE","NC",28110,NA,NA,251,"4612 HWY 218 E, MONROE, NC, 28110","No_Match",NA,NA,NA,NA
219752,"4612 LEON DE ORO DR","LAS VEGAS","NV",89129,36.2443434960001,-115.295570748,252,"4612 LEON DE ORO DR, LAS VEGAS, NV, 89129","Match","Exact","4612 LEON DE ORO DR, LAS VEGAS, NV, 89129",647521110,"R"
219753,"4612 MAIN ST","BRUNO","MN",55712,46.2789000500001,-92.66087722,253,"4612 MAIN ST, BRUNO, MN, 55712","Match","Exact","4612 MAIN ST, BRUNO, MN, 55712",163092021,"L"
219754,"4612 NE 63RD TER","KANSAS CITY","MO",64119,39.209126747,-94.524554832,254,"4612 NE 63RD TER, KANSAS CITY, MO, 64119","Match","Exact","4612 NE 63RD TER, KANSAS CITY, MO, 64119",624252019,"L"
219755,"4612 NE STATE ROAD 47","HIGH SPRINGS","FL",32643,29.805864093,-82.7412192749999,255,"4612 NE STATE ROAD 47, HIGH SPRINGS, FL, 32643","Match","Non_Exact","4612 NE STATE RD 47, HIGH SPRINGS, FL, 32643",636952676,"R"
219756,"4612 NW 133RD AVE","PORTLAND","OR",97229,45.552749137,-122.814341567,256,"4612 NW 133RD AVE, PORTLAND, OR, 97229","Match","Exact","4612 NW 133RD AVE, PORTLAND, OR, 97229",649032392,"R"
219757,"4612 RICE MINE ROAD NE","TUSCALOOSA","AL",35606,33.259129419,-87.51484092,257,"4612 RICE MINE ROAD NE, TUSCALOOSA, AL, 35606","Match","Non_Exact","4612 RICE MINE RD NE, TUSCALOOSA, AL, 35406",641194987,"L"
219758,"4612 S MERIDIAN STREET","MARION","IN",46953,40.5139706940001,-85.6534663629999,258,"4612 S MERIDIAN STREET, MARION, IN, 46953","Match","Exact","4612 S MERIDIAN ST, MARION, IN, 46953",95015579,"R"
219759,"4612 SOUTH WABASH AVENUE","CHICAGO","IL",60653,41.8107428700001,-87.6245024249999,259,"4612 SOUTH WABASH AVENUE, CHICAGO, IL, 60653","Match","Exact","4612 S WABASH AVE, CHICAGO, IL, 60653",111770571,"R"
219760,"4612 SW WATER AVE","PORTLAND","OR",97239,45.4900965910001,-122.677027116,260,"4612 SW WATER AVE, PORTLAND, OR, 97239","Match","Exact","4612 SW WATER AVE, PORTLAND, OR, 97239",157501565,"L"
219761,"4612 TALL MAPLE CT","ELLICOTT CITY","MD",21043,39.245963428,-76.7805030389999,261,"4612 TALL MAPLE CT, ELLICOTT CITY, MD, 21043","Match","Exact","4612 TALL MAPLE CT, ELLICOTT CITY, MD, 21043",624797608,"R"
219762,"4612 VISTA DEL MONTE AVE - 6","SHERMAN OAKS","CA",91403,34.1550116330001,-118.449844394,262,"4612 VISTA DEL MONTE AVE - 6, SHERMAN OAKS, CA, 91403","Match","Exact","4612 VISTA DEL MONTE AVE, SHERMAN OAKS, CA, 91403",141561637,"R"
219763,"4612 W 99TH PL","WESTMINSTER","CO",80031,39.876648152,-105.044351518,263,"4612 W 99TH PL, WESTMINSTER, CO, 80031","Match","Exact","4612 W 99TH PL, WESTMINSTER, CO, 80031",177438491,"L"
219764,"4612 W LOOP 281","LONGVIEW","TX",75604,32.481548854,-94.7682695459999,264,"4612 W LOOP 281, LONGVIEW, TX, 75604","Match","Exact","4612 W LOOP 281, LONGVIEW, TX, 75604",141128770,"L"
219765,"4612 WILFOX AVE","READING","PA",19605,40.3984511520001,-75.9625542269999,265,"4612 WILFOX AVE, READING, PA, 19605","Match","Exact","4612 WILFOX AVE, READING, PA, 19605",80458968,"L"
219766,"4612 WOLF WAY","ANTIOCH","CA",94531,37.9697734370001,-121.769687606,266,"4612 WOLF WAY, ANTIOCH, CA, 94531","Match","Exact","4612 WOLF WAY, ANTIOCH, CA, 94531",192086163,"R"
219767,"4612 WYOMING AVE","BILLINGS","MT",59106,45.777769752,-108.634511294,267,"4612 WYOMING AVE, BILLINGS, MT, 59106","Match","Exact","4612 WYOMING AVE, BILLINGS, MT, 59106",181493829,"R"
219768,"46120 SENTINEL DR","FREMONT","CA",94539,37.500630873,-121.908045144,268,"46120 SENTINEL DR, FREMONT, CA, 94539","Match","Exact","46120 SENTINEL DR, FREMONT, CA, 94539",125034561,"L"
219769,"46120 W SONNY RD","MARICOPA","AZ",85139,33.053386436,-112.063317214,269,"46120 W SONNY RD, MARICOPA, AZ, 85139","Match","Exact","46120 SONNY RD, MARICOPA, AZ, 85139",619915554,"R"
219770,"4613 11TH AVE N","BIRMINGHAM","AL",35212,33.5445338820001,-86.767639975,270,"4613 11TH AVE N, BIRMINGHAM, AL, 35212","Match","Exact","4613 11TH AVE N, BIRMINGHAM, AL, 35212",81577926,"R"
219771,"4613 5TH STREET NW","WASHINGTON","DC",20011,38.946532178,-77.0194131489999,271,"4613 5TH STREET NW, WASHINGTON, DC, 20011","Match","Exact","4613 5TH ST NW, WASHINGTON, DC, 20011",76223606,"R"
219772,"4613 E CAMPBELL CIRCLE","EAGLE MOUNTAIN","UT",84005,40.354397421,-111.950613716,272,"4613 E CAMPBELL CIRCLE, EAGLE MOUNTAIN, UT, 84005","Match","Exact","4613 CAMPBELL CIR, EAGLE MOUNTAIN, UT, 84005",629754776,"L"
219773,"4613 E DELTA AVE","MESA","AZ",85206,33.401369464,-111.731471018,273,"4613 E DELTA AVE, MESA, AZ, 85206","Match","Exact","4613 E DELTA AVE, MESA, AZ, 85206",128250188,"R"
219774,"4613 E FIRESTONE DRIVE","CHANDLER","AZ",85249,NA,NA,274,"4613 E FIRESTONE DRIVE, CHANDLER, AZ, 85249","No_Match",NA,NA,NA,NA
219775,"4613 GLADE LINE DR","AUSTIN","TX",78744,30.1790546330001,-97.755544691,275,"4613 GLADE LINE DR, AUSTIN, TX, 78744","Match","Exact","4613 GLADE LINE DR, AUSTIN, TX, 78744",63950256,"R"
219776,"4613 GRAY ROAD","KNOXVILLE","TN",37938,36.1068313330001,-83.9225598529999,276,"4613 GRAY ROAD, KNOXVILLE, TN, 37938","Match","Exact","4613 GRAY RD, KNOXVILLE, TN, 37938",42670331,"R"
219777,"4613 LANDRUM COURT","FAYETTEVILLE","NC",28304,35.0159462440001,-78.9538630169999,277,"4613 LANDRUM COURT, FAYETTEVILLE, NC, 28304","Match","Exact","4613 LANDRUM CT, FAYETTEVILLE, NC, 28304",64203359,"L"
219778,"4613 MADRID DRIVE","GEORGETOWN","TX",78628,30.6887484440001,-97.7092019409999,278,"4613 MADRID DRIVE, GEORGETOWN, TX, 78628","Match","Exact","4613 MADRID DR, GEORGETOWN, TX, 78628",642860095,"L"
219779,"4613 N REDBUD AVENUE","BROKEN ARROW","OK",74012,36.100403068,-95.810105172,279,"4613 N REDBUD AVENUE, BROKEN ARROW, OK, 74012","Match","Exact","4613 N REDBUD AVE, BROKEN ARROW, OK, 74012",617313923,"L"
219780,"4613 N UNIVERSITY DR","CORAL SPRINGS","FL",33067,26.287295353,-80.2502592929999,280,"4613 N UNIVERSITY DR, CORAL SPRINGS, FL, 33067","Match","Exact","4613 N UNIVERSITY DR, CORAL SPRINGS, FL, 33067",648155321,"R"
219781,"4613 N UNIVERSITY DRIVE 620","CORAL SPRINGS","FL",33067,26.287295353,-80.2502592929999,281,"4613 N UNIVERSITY DRIVE 620, CORAL SPRINGS, FL, 33067","Match","Non_Exact","4613 N UNIVERSITY DR, CORAL SPRINGS, FL, 33067",648155321,"R"
219782,"4613 N UNIVERSITY DRIVE UNIT 399","CORAL SPRINGS","FL",33067,26.287295353,-80.2502592929999,282,"4613 N UNIVERSITY DRIVE UNIT 399, CORAL SPRINGS, FL, 33067","Match","Non_Exact","4613 N UNIVERSITY DR, CORAL SPRINGS, FL, 33067",648155321,"R"
219783,"4613 N UNIVERSITY DRIVE","CORAL SPRINGS","FL",33067,26.287295353,-80.2502592929999,283,"4613 N UNIVERSITY DRIVE, CORAL SPRINGS, FL, 33067","Match","Exact","4613 N UNIVERSITY DR, CORAL SPRINGS, FL, 33067",648155321,"R"
219784,"4613 PHILLIPS HWY STE 207","JACKSONVILLE","FL",32207,30.2753969120001,-81.624883225,284,"4613 PHILLIPS HWY STE 207, JACKSONVILLE, FL, 32207","Match","Non_Exact","4613 PHILIPS HWY, JACKSONVILLE, FL, 32207",83967993,"L"
219785,"4613 PINECREST OFFICE PARK DR STE G","ALEXANDRIA","VA",22312,38.8240542520001,-77.160963038,285,"4613 PINECREST OFFICE PARK DR STE G, ALEXANDRIA, VA, 22312","Match","Exact","4613 PINECREST OFFICE PARK DR, ALEXANDRIA, VA, 22312",76004685,"R"
219786,"4613 S LANGLEY AVE","CHICAGO","IL",60653,41.811084426,-87.609010288,286,"4613 S LANGLEY AVE, CHICAGO, IL, 60653","Match","Exact","4613 S LANGLEY AVE, CHICAGO, IL, 60653",605499473,"L"
219787,"4613 SONG SPARROW CT","WILMINGTON","NC",28412,34.158105306,-77.896098911,287,"4613 SONG SPARROW CT, WILMINGTON, NC, 28412","Match","Exact","4613 SONG SPARROW CT, WILMINGTON, NC, 28412",152749181,"R"
219788,"4613 TARA COVE WAY","WEST PALM BEACH","FL",33417,26.728978177,-80.110725255,288,"4613 TARA COVE WAY, WEST PALM BEACH, FL, 33417","Match","Exact","4613 TARA COVE WAY, WEST PALM BEACH, FL, 33417",651763920,"R"
219789,"4613 WESTBURY DRIVE","COLLEYVILLE","TX",76034,32.8769087690001,-97.151046236,289,"4613 WESTBURY DRIVE, COLLEYVILLE, TX, 76034","Match","Exact","4613 WESTBURY DR, COLLEYVILLE, TX, 76034",102089824,"R"
219790,"46136 SOUTH FORK DRIVE E","THREE RIVERS","CA",93271,36.375952705,-118.852874446,290,"46136 SOUTH FORK DRIVE E, THREE RIVERS, CA, 93271","Match","Non_Exact","46136 S FORK DR, THREE RIVERS, CA, 93271",202820470,"R"
219791,"46137 HUMU STREET","KANEOHE","HI",96744,NA,NA,291,"46137 HUMU STREET, KANEOHE, HI, 96744","No_Match",NA,NA,NA,NA
219792,"4614 19TH STREET COURT EAST","BRADENTON","FL",34203,27.458841992,-82.5395562639999,292,"4614 19TH STREET COURT EAST, BRADENTON, FL, 34203","Match","Exact","4614 19TH STREET CT E, BRADENTON, FL, 34203",16258725,"L"
219793,"4614 5TH AVE","LOS ANGELES","CA",90043,34.001541037,-118.322474258,293,"4614 5TH AVE, LOS ANGELES, CA, 90043","Match","Exact","4614 5TH AVE, LOS ANGELES, CA, 90043",652034829,"L"
219794,"4614 ALTA LOMA DR","AUSTIN","TX",78749,30.206644323,-97.854380183,294,"4614 ALTA LOMA DR, AUSTIN, TX, 78749","Match","Exact","4614 ALTA LOMA DR, AUSTIN, TX, 78749",63939291,"R"
219795,"4614 CALIFORNIA ST","SAN FRANCISCO","CA",94118,37.7847142270001,-122.466905021,295,"4614 CALIFORNIA ST, SAN FRANCISCO, CA, 94118","Match","Exact","4614 CALIFORNIA ST, SAN FRANCISCO, CA, 94118",192281799,"R"
219796,"4614 CENTRAL AVENUE NE","WASHINGTON","DC",20019,38.8901639320001,-76.9365991729999,296,"4614 CENTRAL AVENUE NE, WASHINGTON, DC, 20019","Match","Exact","4614 CENTRAL AVE NE, WASHINGTON, DC, 20019",76233503,"L"
219797,"4614 CONSHOHOCKEN AVE","PHILADELPHIA","PA",19131,40.0001479960001,-75.2227480669999,297,"4614 CONSHOHOCKEN AVE, PHILADELPHIA, PA, 19131","Match","Exact","4614 CONSHOHOCKEN AVE, PHILADELPHIA, PA, 19131",131396799,"L"
219798,"4614 CREEKVIEW LANE","BALCH SPRINGS","TX",75180,32.7104063560001,-96.592647899,298,"4614 CREEKVIEW LANE, BALCH SPRINGS, TX, 75180","Match","Exact","4614 CREEKVIEW LN, BALCH SPRINGS, TX, 75180",630978981,"R"
219799,"4614 DICKSON RD","INDIANAPOLIS","IN",46226,39.8454306080001,-86.090052713,299,"4614 DICKSON RD, INDIANAPOLIS, IN, 46226","Match","Exact","4614 DICKSON RD, INDIANAPOLIS, IN, 46226",107995993,"L"
219800,"4614 EVERGREEN DR","PORT ALLEN","LA",70767,30.4040995500001,-91.230563526,300,"4614 EVERGREEN DR, PORT ALLEN, LA, 70767","Match","Exact","4614 EVERGREEN DR, PORT ALLEN, LA, 70767",92297323,"L"
219801,"4614 GOODNIGHT TRAIL","GRAND PRAIRIE","TX",75052,32.6594807920001,-97.0318899929999,301,"4614 GOODNIGHT TRAIL, GRAND PRAIRIE, TX, 75052","Match","Exact","4614 GOODNIGHT TRL, GRAND PRAIRIE, TX, 75052",102938028,"R"
219802,"4614 INKER","HOUSTON","TX",77007,29.775613687,-95.407558836,302,"4614 INKER, HOUSTON, TX, 77007","Match","Non_Exact","4614 INKER ST, HOUSTON, TX, 77007",96061172,"R"
219803,"4614 JOHN STREET","SUITLAND","MD",20746,38.826567868,-76.89924043,303,"4614 JOHN STREET, SUITLAND, MD, 20746","Match","Exact","4614 JOHN ST, SUITLAND, MD, 20746",76354060,"L"
219804,"4614 LEDGEWOOD CT","ERIE","PA",16511,42.165631696,-80.009193807,304,"4614 LEDGEWOOD CT, ERIE, PA, 16511","Match","Exact","4614 LEDGEWOOD CT, ERIE, PA, 16511",612616666,"L"
219805,"4614 MANILA DRIVE","JACKSON","MS",39206,32.356263158,-90.170295116,305,"4614 MANILA DRIVE, JACKSON, MS, 39206","Match","Exact","4614 MANILA DR, JACKSON, MS, 39206",65370590,"R"
219806,"4614 MAYOR DRIVE","TORRANCE","CA",90505,33.8155338500001,-118.364459646,306,"4614 MAYOR DRIVE, TORRANCE, CA, 90505","Match","Exact","4614 MAYOR DR, TORRANCE, CA, 90505",141665191,"L"
219807,"4614 MEAD STREET","DEARBORN","MI",48126,42.319333683,-83.1898684239999,307,"4614 MEAD STREET, DEARBORN, MI, 48126","Match","Exact","4614 MEAD ST, DEARBORN, MI, 48126",95443812,"R"
219808,"4614 N DAMEN AVE","CHICAGO","IL",60625,41.965583231,-87.679100381,308,"4614 N DAMEN AVE, CHICAGO, IL, 60625","Match","Non_Exact","4614 N DAMEN AVE, CHICAGO, IL, 60625",111761284,"L"
219809,"4614 N HIATUS RD","SUNRISE","FL",33351,NA,NA,309,"4614 N HIATUS RD, SUNRISE, FL, 33351","No_Match",NA,NA,NA,NA
219810,"4614 N PAULINA ST NUM 207","CHICAGO","IL",60640,41.965557215,-87.670938685,310,"4614 N PAULINA ST NUM 207, CHICAGO, IL, 60640","Match","Non_Exact","4614 N PAULINA ST, CHICAGO, IL, 60640",111761368,"L"
219811,"4614 NANNIE HELEN BURROUGHS AVEN NE","WASHINGTON","DC",20019,38.8994277800001,-76.936131793,311,"4614 NANNIE HELEN BURROUGHS AVEN NE, WASHINGTON, DC, 20019","Match","Exact","4614 NANNIE HELEN BURROUGHS AVE NE, WASHINGTON, DC, 20019",76233306,"L"
219812,"4614 NEWMORE AVE","DALLAS","TX",75209,32.8494038440001,-96.831353581,312,"4614 NEWMORE AVE, DALLAS, TX, 75209","Match","Exact","4614 NEWMORE AVE, DALLAS, TX, 75209",102903545,"R"
219813,"4614 OLD REDWOOD HWY","SANTA ROSA","CA",95403,38.4977053490001,-122.748526978,313,"4614 OLD REDWOOD HWY, SANTA ROSA, CA, 95403","Match","Exact","4614 OLD REDWOOD HWY, SANTA ROSA, CA, 95403",67531594,"R"
219814,"4614 OLYMPIA WAY","LONGVIEW","WA",98632,46.1687616070001,-122.996515397,314,"4614 OLYMPIA WAY, LONGVIEW, WA, 98632","Match","Exact","4614 OLYMPIA WAY, LONGVIEW, WA, 98632",184488144,"R"
219815,"4614 PROSPECT AVENUE SUITE 325","CLEVELAND","OH",44103,41.502572007,-81.6548060499999,315,"4614 PROSPECT AVENUE SUITE 325, CLEVELAND, OH, 44103","Match","Exact","4614 PROSPECT AVE, CLEVELAND, OH, 44103",61112798,"R"
219816,"4614 RABALAIS LANE","ADDIS","LA",70710,NA,NA,316,"4614 RABALAIS LANE, ADDIS, LA, 70710","No_Match",NA,NA,NA,NA
219817,"4614 S 1ST","AUSTIN","TX",78745,30.21764961,-97.775016524,317,"4614 S 1ST, AUSTIN, TX, 78745","Match","Non_Exact","4614 S 1ST ST, AUSTIN, TX, 78745",63944382,"R"
219818,"4614 S 6TH ST UNIT 10","LOUISVILLE","KY",40214,38.1845227700001,-85.7706861629999,318,"4614 S 6TH ST UNIT 10, LOUISVILLE, KY, 40214","Match","Non_Exact","4614 S 6TH ST, LOUISVILLE, KY, 40214",96848810,"R"
219819,"4614 VIA COLINA UNIT 614","LOS ANGELES","CA",90042,NA,NA,319,"4614 VIA COLINA UNIT 614, LOS ANGELES, CA, 90042","No_Match",NA,NA,NA,NA
219820,"4615 28TH STREET","LUBBOCK","TX",79410,33.568805518,-101.909677953,320,"4615 28TH STREET, LUBBOCK, TX, 79410","Match","Exact","4615 28TH ST, LUBBOCK, TX, 79410",185251137,"L"
219821,"4615 47TH AVENUE","WOODSIDE","NY",11377,NA,NA,321,"4615 47TH AVENUE, WOODSIDE, NY, 11377","No_Match",NA,NA,NA,NA
219822,"4615 6TH STREET SE","WASHINGTON","DC",20032,38.823691431,-76.999693232,322,"4615 6TH STREET SE, WASHINGTON, DC, 20032","Match","Exact","4615 6TH ST SE, WASHINGTON, DC, 20032",76232629,"R"
219823,"4615 9TH AVENUE","PORT ARTHUR","TX",77642,29.9267299580001,-93.947157541,323,"4615 9TH AVENUE, PORT ARTHUR, TX, 77642","Match","Exact","4615 9TH AVE, PORT ARTHUR, TX, 77642",73862779,"L"
219824,"4615 BALDWIN BLVD","CORPUS CHRISTI","TX",78408,27.7922106190001,-97.446646971,324,"4615 BALDWIN BLVD, CORPUS CHRISTI, TX, 78408","Match","Exact","4615 BALDWIN BLVD, CORPUS CHRISTI, TX, 78408",178513282,"L"
219825,"4615 BENNING ROAD SE SUITE A","WASHINGTON","DC",20019,38.8857983030001,-76.935843733,325,"4615 BENNING ROAD SE SUITE A, WASHINGTON, DC, 20019","Match","Exact","4615 BENNING RD SE, WASHINGTON, DC, 20019",653126126,"R"
219826,"4615 CENTER BOULEVARD APT 3303","LONG ISLAND CITY","NY",11109,40.7474863040001,-73.956472436,326,"4615 CENTER BOULEVARD APT 3303, LONG ISLAND CITY, NY, 11109","Match","Exact","4615 CENTER BLVD, LONG ISLAND CITY, NY, 11109",641564173,"R"
219827,"4615 CENTER BOULEVARD STE 1908","LONG ISLAND CITY","NY",11109,40.7474863040001,-73.956472436,327,"4615 CENTER BOULEVARD STE 1908, LONG ISLAND CITY, NY, 11109","Match","Exact","4615 CENTER BLVD, LONG ISLAND CITY, NY, 11109",641564173,"R"
219828,"4615 E CALIFORNIA PARKWAY","FOREST HILL","TX",76119,32.66182909,-97.256396372,328,"4615 E CALIFORNIA PARKWAY, FOREST HILL, TX, 76119","Match","Exact","4615 E CALIFORNIA PKWY, FOREST HILL, TX, 76119",102131669,"L"
219829,"4615 E NETTLETON","JONESBORO","AR",72401,35.819521352,-90.652267339,329,"4615 E NETTLETON, JONESBORO, AR, 72401","Match","Non_Exact","4615 E NETTLETON AVE, JONESBORO, AR, 72401",46945386,"L"
219830,"4615 EAST EVANS CR RD","ROGUE RIVER","OR",97537,42.4925142720001,-123.166688951,330,"4615 EAST EVANS CR RD, ROGUE RIVER, OR, 97537","Match","Exact","4615 E EVANS CREEK RD, ROGUE RIVER, OR, 97537",155597642,"R"
219831,"4615 EAST NETTLETON AVENUE","JONESBORO","AR",72401,35.819538386,-90.6522671009999,331,"4615 EAST NETTLETON AVENUE, JONESBORO, AR, 72401","Match","Exact","4615 E NETTLETON AVE, JONESBORO, AR, 72401",46945386,"L"
219832,"4615 ELMHURST DR","BEAUMONT","TX",77706,30.104828282,-94.1520103679999,332,"4615 ELMHURST DR, BEAUMONT, TX, 77706","Match","Exact","4615 ELMHURST DR, BEAUMONT, TX, 77706",73852540,"R"
219833,"4615 FORBES AVENUE","PITTSBURGH","PA",15213,40.444489063,-79.948084595,333,"4615 FORBES AVENUE, PITTSBURGH, PA, 15213","Match","Exact","4615 FORBES AVE, PITTSBURGH, PA, 15213",51649726,"L"
219834,"4615 GARDENDALE ST NUM 906","SAN ANTONIO","TX",78240,29.5264927010001,-98.571518418,334,"4615 GARDENDALE ST NUM 906, SAN ANTONIO, TX, 78240","Match","Non_Exact","4615 GARDENDALE, SAN ANTONIO, TX, 78240",641656104,"L"
219835,"4615 HOLLOW CHASE LANE","SUGAR LAND","TX",77479,29.5595663570001,-95.5875955129999,335,"4615 HOLLOW CHASE LANE, SUGAR LAND, TX, 77479","Match","Exact","4615 HOLLOW CHASE LN, SUGAR LAND, TX, 77479",648707074,"L"
219836,"4615 LANGDRUM LANE","CHEVY CHASE","MD",20815,38.9713649510001,-77.090116176,336,"4615 LANGDRUM LANE, CHEVY CHASE, MD, 20815","Match","Exact","4615 LANGDRUM LN, CHEVY CHASE, MD, 20815",637774960,"R"
219837,"4615 LEHIGH DR","WALNUTPORT","PA",18088,40.7688681540001,-75.5735478409999,337,"4615 LEHIGH DR, WALNUTPORT, PA, 18088","Match","Exact","4615 LEHIGH DR, WALNUTPORT, PA, 18088",136866862,"L"
219838,"4615 MISSION COURT","COLUMBUS","IN",47203,39.2313445510001,-85.869152028,338,"4615 MISSION COURT, COLUMBUS, IN, 47203","Match","Non_Exact","4615 MISSION CT E, COLUMBUS, IN, 47203",30973742,"R"
219839,"4615 NE RODNEY ST","PORTLAND","OR",97211,45.5565742370001,-122.664654587,339,"4615 NE RODNEY ST, PORTLAND, OR, 97211","Match","Non_Exact","4615 NE RODNEY AVE, PORTLAND, OR, 97211",157503490,"L"
219840,"4615 NEW HOPE","PASCAGOULA","MS",39581,30.3602658620001,-88.5158893729999,340,"4615 NEW HOPE, PASCAGOULA, MS, 39581","Match","Non_Exact","4615 NEW HOPE AVE, PASCAGOULA, MS, 39581",89255229,"L"
219841,"4615 NIKKI CT UNIT 3","ORLANDO","FL",32822,28.4971845490001,-81.2948345519999,341,"4615 NIKKI CT UNIT 3, ORLANDO, FL, 32822","Match","Exact","4615 NIKKI CT, ORLANDO, FL, 32822",606113387,"L"
219842,"4615 NORTHPARK DRIVE STE 200","COLORADO SPRINGS","CO",80918,38.899093914,-104.82678681,342,"4615 NORTHPARK DRIVE STE 200, COLORADO SPRINGS, CO, 80918","Match","Exact","4615 NORTHPARK DR, COLORADO SPRINGS, CO, 80918",610706441,"R"
219843,"4615 OLD COACH LANE","SAN ANTONIO","TX",78220,29.416672002,-98.402470218,343,"4615 OLD COACH LANE, SAN ANTONIO, TX, 78220","Match","Exact","4615 OLD COACH LN, SAN ANTONIO, TX, 78220",101536831,"L"
219844,"4615 PICO ST APT 9","SAN DIEGO","CA",92109,32.8056488620001,-117.222891625,344,"4615 PICO ST APT 9, SAN DIEGO, CA, 92109","Match","Exact","4615 PICO ST, SAN DIEGO, CA, 92109",195303646,"R"
219845,"4615 PORTSMOUTH LN","CUMMING","GA",30041,34.1385598540001,-84.131948956,345,"4615 PORTSMOUTH LN, CUMMING, GA, 30041","Match","Exact","4615 PORTSMOUTH LN, CUMMING, GA, 30041",633082069,"R"
219846,"4615 RIVER ROAD NW","WASHINGTON","DC",20016,38.956060683,-77.090645265,346,"4615 RIVER ROAD NW, WASHINGTON, DC, 20016","Match","Exact","4615 RIVER RD NW, WASHINGTON, DC, 20016",76219583,"R"
219847,"4615 S 21ST ST","PHOENIX","AZ",85040,33.404283972,-112.037482505,347,"4615 S 21ST ST, PHOENIX, AZ, 85040","Match","Exact","4615 S 21ST ST, PHOENIX, AZ, 85040",128216194,"L"
219848,"4615 S 4500 W","WEST HAVEN","UT",84401,41.179498505,-112.088091771,348,"4615 S 4500 W, WEST HAVEN, UT, 84401","Match","Exact","4615 S 4500 W, WEST HAVEN, UT, 84401",605839642,"R"
219849,"4615 S TABOR WAY","MORRISON","CO",80465,39.6349624380001,-105.130748755,349,"4615 S TABOR WAY, MORRISON, CO, 80465","Match","Exact","4615 S TABOR WAY, MORRISON, CO, 80465",177754463,"L"
219850,"4615 SANDWOOD ROAD","BALTIMORE","MD",21219,39.2519035130001,-76.4533637709999,350,"4615 SANDWOOD ROAD, BALTIMORE, MD, 21219","Match","Exact","4615 SANDWOOD RD, BALTIMORE, MD, 21219",637400876,"R"
219851,"4615 SE 28TH STREET","OCALA","FL",34480,29.1600157940001,-82.072519921,351,"4615 SE 28TH STREET, OCALA, FL, 34480","Match","Exact","4615 SE 28TH ST, OCALA, FL, 34480",607457286,"L"
219852,"4615 SHARON RD","TEMPLE HILLS","MD",20748,38.8100967940001,-76.927702002,352,"4615 SHARON RD, TEMPLE HILLS, MD, 20748","Match","Exact","4615 SHARON RD, TEMPLE HILLS, MD, 20748",76314824,"R"
219853,"4615 SINGLETON BLVD","DALLAS","TX",75212,32.778475165,-96.895667827,353,"4615 SINGLETON BLVD, DALLAS, TX, 75212","Match","Exact","4615 SINGLETON BLVD, DALLAS, TX, 75212",102895101,"R"
219854,"4615 SKIDAWAY RD","SAVANNAH","GA",31404,32.0265975570001,-81.071147558,354,"4615 SKIDAWAY RD, SAVANNAH, GA, 31404","Match","Exact","4615 SKIDAWAY RD, SAVANNAH, GA, 31404",6192970,"R"
219855,"4615 SPRING CLIFF LOOP","ROGERS","AR",72756,36.3871638800001,-94.129343376,355,"4615 SPRING CLIFF LOOP, ROGERS, AR, 72756","Match","Exact","4615 SPRING CLIFF LOOP, ROGERS, AR, 72756",47899744,"L"
219856,"4615 TAYLOR BLVD","LOUISVILLE","KY",40215,38.174668357,-85.782474833,356,"4615 TAYLOR BLVD, LOUISVILLE, KY, 40215","Match","Exact","4615 TAYLOR BLVD, LOUISVILLE, KY, 40215",96848682,"L"
219857,"4615 TRAIL INN LANE","KERNERSVILLE","NC",27284,36.112154021,-80.145695566,357,"4615 TRAIL INN LANE, KERNERSVILLE, NC, 27284","Match","Exact","4615 TRAIL INN LN, KERNERSVILLE, NC, 27284",84641119,"L"
219858,"4616 100TH ST","LUBBOCK","TX",79424,33.502958365,-101.911555163,358,"4616 100TH ST, LUBBOCK, TX, 79424","Match","Exact","4616 100TH ST, LUBBOCK, TX, 79424",185331988,"L"
219859,"4616 133RD AVE SE","BELLEVUE","WA",98006,47.562691623,-122.162633826,359,"4616 133RD AVE SE, BELLEVUE, WA, 98006","Match","Exact","4616 133RD AVE SE, BELLEVUE, WA, 98006",186613810,"L"
219860,"4616 25TH AVE NE NUMBER 236","SEATTLE","WA",98105,47.664509228,-122.300890522,360,"4616 25TH AVE NE NUMBER 236, SEATTLE, WA, 98105","Match","Exact","4616 25TH AVE NE, SEATTLE, WA, 98105",653887594,"R"
219861,"4616 25TH AVENUE NE STE 382","SEATTLE","WA",98105,47.664509228,-122.300890522,361,"4616 25TH AVENUE NE STE 382, SEATTLE, WA, 98105","Match","Exact","4616 25TH AVE NE, SEATTLE, WA, 98105",653887594,"R"
219862,"4616 25TH AVENUE NE SUITE 285","SEATTLE","WA",98105,47.664509228,-122.300890522,362,"4616 25TH AVENUE NE SUITE 285, SEATTLE, WA, 98105","Match","Exact","4616 25TH AVE NE, SEATTLE, WA, 98105",653887594,"R"
219863,"4616 25TH AVENUE NE SUITE 428","SEATTLE","WA",98105,47.664509228,-122.300890522,363,"4616 25TH AVENUE NE SUITE 428, SEATTLE, WA, 98105","Match","Exact","4616 25TH AVE NE, SEATTLE, WA, 98105",653887594,"R"
219864,"4616 87TH AVE SE","MERCER ISLAND","WA",98040,47.563564587,-122.222909093,364,"4616 87TH AVE SE, MERCER ISLAND, WA, 98040","Match","Exact","4616 87TH AVE SE, MERCER ISLAND, WA, 98040",186663709,"L"
219865,"4616 BIRDSONG DRIVE","EAGLE RIVER","AK",99577,61.2621657020001,-149.474093234,365,"4616 BIRDSONG DRIVE, EAGLE RIVER, AK, 99577","Match","Exact","4616 BIRDSONG DR, EAGLE RIVER, AK, 99577",190826804,"R"
219866,"4616 CLOUD AVE","LA CRESENTA","CA",91214,34.2310649980001,-118.246423832,366,"4616 CLOUD AVE, LA CRESENTA, CA, 91214","Match","Non_Exact","4616 CLOUD AVE, LA CRESCENTA, CA, 91214",141589553,"R"
219867,"4616 COMMERCE VALLEY ROAD","EAU CLAIRE","WI",54701,44.7695978030001,-91.4564304049999,367,"4616 COMMERCE VALLEY ROAD, EAU CLAIRE, WI, 54701","Match","Exact","4616 COMMERCE VALLEY RD, EAU CLAIRE, WI, 54701",46074434,"L"
219868,"4616 EAGLE RIDGE ROAD","LINCOLN","NE",68516,40.7376476000001,-96.656178787,368,"4616 EAGLE RIDGE ROAD, LINCOLN, NE, 68516","Match","Exact","4616 EAGLE RIDGE RD, LINCOLN, NE, 68516",28284618,"L"
219869,"4616 FLATLANDS AVE","BROOKLYN","NY",11234,40.6239764160001,-73.931102848,369,"4616 FLATLANDS AVE, BROOKLYN, NY, 11234","Match","Exact","4616 FLATLANDS AVE, BROOKLYN, NY, 11234",59092303,"R"
219870,"4616 GROVE AVE","RICHMOND","VA",23226,37.566347466,-77.501290486,370,"4616 GROVE AVE, RICHMOND, VA, 23226","Match","Exact","4616 GROVE AVE, RICHMOND, VA, 23226",632941869,"L"
219871,"4616 HUTCHINSON GLEN DR","CINCINNATI","OH",45248,39.174261883,-84.65118762,371,"4616 HUTCHINSON GLEN DR, CINCINNATI, OH, 45248","Match","Exact","4616 HUTCHINSON GLEN DR, CINCINNATI, OH, 45248",103958049,"R"
219872,"4616 IRONWOOD","BAYTOWN","TX",77521,29.767823594,-94.9906735979999,372,"4616 IRONWOOD, BAYTOWN, TX, 77521","Match","Non_Exact","4616 IRONWOOD DR, BAYTOWN, TX, 77521",96566975,"L"
219873,"4616 MAYWOOD DRIVE","ARLINGTON","TX",76017,32.6719561290001,-97.180117449,373,"4616 MAYWOOD DRIVE, ARLINGTON, TX, 76017","Match","Exact","4616 MAYWOOD DR, ARLINGTON, TX, 76017",101902699,"R"
219874,"4616 N 62ND PLACE","SCOTTSDALE","AZ",85251,33.5044761880001,-111.946789921,374,"4616 N 62ND PLACE, SCOTTSDALE, AZ, 85251","Match","Exact","4616 N 62ND PL, SCOTTSDALE, AZ, 85251",128222334,"L"
219875,"4616 N RIVER RD SPC 36","OCEANSIDE","CA",92057,33.2452854050001,-117.313411028,375,"4616 N RIVER RD SPC 36, OCEANSIDE, CA, 92057","Match","Non_Exact","4616 N RIVER RD, OCEANSIDE, CA, 92057",195723742,"L"
219876,"4616 N WINGOVER CT","PEORIA","IL",61615,40.7434223660001,-89.6609865039999,376,"4616 N WINGOVER CT, PEORIA, IL, 61615","Match","Non_Exact","4616 W WINGOVER CT, PEORIA, IL, 61615",617272934,"L"
219877,"4616 PAUL REVERE RD","VIRGINIA BEACH","VA",23455,36.8802073700001,-76.135274795,377,"4616 PAUL REVERE RD, VIRGINIA BEACH, VA, 23455","Match","Exact","4616 PAUL REVERE RD, VIRGINIA BCH, VA, 23455",122259574,"R"
219878,"4616 RAY NASH DRIVE","GIG HARBOR","WA",98335,47.2994349050001,-122.669456225,378,"4616 RAY NASH DRIVE, GIG HARBOR, WA, 98335","Match","Non_Exact","4616 RAY NASH DR NW, GIG HARBOR, WA, 98335",629134724,"L"
219879,"4616 ROSEVILLE ROAD STE 109","NORTH HIGHLANDS","CA",95660,38.65221898,-121.390069812,379,"4616 ROSEVILLE ROAD STE 109, NORTH HIGHLANDS, CA, 95660","Match","Exact","4616 ROSEVILLE RD, NORTH HIGHLANDS, CA, 95660",641230073,"R"
219880,"4616 SAWYERS DRIVE","DES MOINES","IA",50310,41.6394392970001,-93.658111619,380,"4616 SAWYERS DRIVE, DES MOINES, IA, 50310","Match","Exact","4616 SAWYERS DR, DES MOINES, IA, 50310",633355888,"L"
219881,"4616 THORNWOOD CIR","LEXINGTON","KY",40515,37.952947271,-84.4960465899999,381,"4616 THORNWOOD CIR, LEXINGTON, KY, 40515","Match","Exact","4616 THORNWOOD CIR, LEXINGTON, KY, 40515",31939260,"L"
219882,"4616 TOBY LANE","METAIRIE","LA",70003,30.0212806220001,-90.222821392,382,"4616 TOBY LANE, METAIRIE, LA, 70003","Match","Exact","4616 TOBY LN, METAIRIE, LA, 70003",93494037,"L"
219883,"4616 VALERIE ST","BELLAIRE","TX",77401,29.694028926,-95.456015255,383,"4616 VALERIE ST, BELLAIRE, TX, 77401","Match","Exact","4616 VALERIE ST, BELLAIRE, TX, 77401",96039705,"R"
219884,"4616 VIA VENTURA","MESQUITE","TX",75150,32.8277043680001,-96.602642168,384,"4616 VIA VENTURA, MESQUITE, TX, 75150","Match","Exact","4616 VIA VENTURA, MESQUITE, TX, 75150",103166849,"L"
219885,"4616 W FULLERTON","CHICAGO","IL",60639,41.9243018650001,-87.742154113,385,"4616 W FULLERTON, CHICAGO, IL, 60639","Match","Non_Exact","4616 W FULLERTON AVE, CHICAGO, IL, 60639",605158149,"R"
219886,"4616 W SAHARA AVE 427","LAS VEGAS","NV",89102,36.1445908970001,-115.204741364,386,"4616 W SAHARA AVE 427, LAS VEGAS, NV, 89102","Match","Non_Exact","4616 W SAHARA AVE, LAS VEGAS, NV, 89102",201862983,"R"
219887,"4616 W SAHARA AVE NUM 579","LAS VEGAS","NV",89102,36.1445908970001,-115.204741364,387,"4616 W SAHARA AVE NUM 579, LAS VEGAS, NV, 89102","Match","Non_Exact","4616 W SAHARA AVE, LAS VEGAS, NV, 89102",201862983,"R"
219888,"4616 WEST AVE K12","QUARTZ HILL","CA",93536,34.663884034,-118.212493503,388,"4616 WEST AVE K12, QUARTZ HILL, CA, 93536","Match","Exact","4616 W AVE K12, QUARTZ HILL, CA, 93536",142703685,"L"
219889,"4616 WOODED OAK CIR","LOUISVILLE","KY",40245,38.3124753450001,-85.534716927,389,"4616 WOODED OAK CIR, LOUISVILLE, KY, 40245","Match","Exact","4616 WOODED OAK CIR, LOUISVILLE, KY, 40245",96885767,"R"
219890,"4616 YEARDLEY LOOP","WILLIAMSBURG","VA",23185,37.239172319,-76.777011499,390,"4616 YEARDLEY LOOP, WILLIAMSBURG, VA, 23185","Match","Exact","4616 YEARDLEY LOOP, WILLIAMSBURG, VA, 23185",220090259,"R"
219891,"46164 WARM SPRINGS BLVD UNIT 210","FREMONT","CA",94539,NA,NA,391,"46164 WARM SPRINGS BLVD UNIT 210, FREMONT, CA, 94539","No_Match",NA,NA,NA,NA
219892,"4617 BARRINGTON DRIVE","FORT WAYNE","IN",46806,41.0430566580001,-85.093661309,392,"4617 BARRINGTON DRIVE, FORT WAYNE, IN, 46806","Match","Exact","4617 BARRINGTON DR, FORT WAYNE, IN, 46806",6386831,"L"
219893,"4617 BUCYRUS AVE","CLEVELAND","OH",44109,41.4355691280001,-81.716954753,393,"4617 BUCYRUS AVE, CLEVELAND, OH, 44109","Match","Exact","4617 BUCYRUS AVE, CLEVELAND, OH, 44109",61180001,"L"
219894,"4617 CHATSWORTH ST","PITTSBURGH","PA",15207,40.4141373900001,-79.945077498,394,"4617 CHATSWORTH ST, PITTSBURGH, PA, 15207","Match","Non_Exact","4617 CHATSWORTH AVE, PITTSBURGH, PA, 15207",51689901,"L"
219895,"4617 COLLINWOOD AVENUE","FORT WORTH","TX",76107,32.7376590600001,-97.3880492709999,395,"4617 COLLINWOOD AVENUE, FORT WORTH, TX, 76107","Match","Exact","4617 COLLINWOOD AVE, FORT WORTH, TX, 76107",101881119,"L"
219896,"4617 E 16TH ST","INDIANAPOLIS","IN",46201,39.788812562,-86.0914136499999,396,"4617 E 16TH ST, INDIANAPOLIS, IN, 46201","Match","Exact","4617 E 16TH ST, INDIANAPOLIS, IN, 46201",107999856,"R"
219897,"4617 E DOUGLAS AVE","GILBERT","AZ",85234,33.3675116630001,-111.692078931,397,"4617 E DOUGLAS AVE, GILBERT, AZ, 85234","Match","Exact","4617 E DOUGLAS AVE, GILBERT, AZ, 85234",128325026,"L"
219898,"4617 FOOTHILL DRIVE","PROVO","UT",84604,40.294501353,-111.646823892,398,"4617 FOOTHILL DRIVE, PROVO, UT, 84604","Match","Exact","4617 FOOTHILL DR, PROVO, UT, 84604",134223426,"L"
219899,"4617 GERRILYN WAY APT 108","LIVERMORE","CA",94550,37.6812351450001,-121.738420391,399,"4617 GERRILYN WAY APT 108, LIVERMORE, CA, 94550","Match","Exact","4617 GERRILYN WAY, LIVERMORE, CA, 94550",606221902,"R"
219900,"4617 MESA DRIVE","INDIANAPOLIS","IN",46241,39.71577589,-86.242957159,400,"4617 MESA DRIVE, INDIANAPOLIS, IN, 46241","Match","Exact","4617 MESA DR, INDIANAPOLIS, IN, 46241",108005010,"L"
219901,"4617 OAK GROVE RD","NORTH LITTLE ROCK","AR",72118,34.842995466,-92.3251282909999,401,"4617 OAK GROVE RD, NORTH LITTLE ROCK, AR, 72118","Match","Exact","4617 OAK GROVE RD, N LITTLE ROCK, AR, 72118",83571485,"R"
219902,"4617 OAK PARK DRIVE","WINSTON-SALEM","NC",27101,NA,NA,402,"4617 OAK PARK DRIVE, WINSTON-SALEM, NC, 27101","No_Match",NA,NA,NA,NA
219903,"4617 S RACE ST","MARION","IN",46952,40.514358358,-85.66417268,403,"4617 S RACE ST, MARION, IN, 46952","Match","Non_Exact","4617 S RACE ST, MARION, IN, 46953",95009863,"L"
219904,"4617 SAINT NAZAIRE RD","PENSACOLA","FL",32505,30.458476805,-87.26863309,404,"4617 SAINT NAZAIRE RD, PENSACOLA, FL, 32505","Match","Exact","4617 SAINT NAZAIRE RD, PENSACOLA, FL, 32505",93214176,"L"
219905,"4617 SOUTH 3100 WEST","ROY","UT",84067,41.1794982650001,-112.054764515,405,"4617 SOUTH 3100 WEST, ROY, UT, 84067","Match","Exact","4617 S 3100 W, ROY, UT, 84067",639949314,"R"
219906,"4617 SULLIVAN RD","KNOXVILLE","TN",37921,35.989063398,-84.010844467,406,"4617 SULLIVAN RD, KNOXVILLE, TN, 37921","Match","Exact","4617 SULLIVAN RD, KNOXVILLE, TN, 37921",42613443,"L"
219907,"4617 W 146TH STREET","CLEVELAND","OH",44135,41.428988555,-81.79722852,407,"4617 W 146TH STREET, CLEVELAND, OH, 44135","Match","Exact","4617 W 146TH ST, CLEVELAND, OH, 44135",61102644,"L"
219908,"4617 W COUNTY ROAD 2","BERTHOUD","CO",80513,NA,NA,408,"4617 W COUNTY ROAD 2, BERTHOUD, CO, 80513","No_Match",NA,NA,NA,NA
219909,"4617 WEED PATCH CT","GREENWOOD","CA",95635,38.897081621,-120.893162855,409,"4617 WEED PATCH CT, GREENWOOD, CA, 95635","Match","Exact","4617 WEED PATCH CT, GREENWOOD, CA, 95635",133052271,"L"
219910,"4617 WESTRIDGE AVE","FORT WORTH","TX",76116,32.7164117180001,-97.4152123699999,410,"4617 WESTRIDGE AVE, FORT WORTH, TX, 76116","Match","Exact","4617 WESTRIDGE AVE, FORT WORTH, TX, 76116",101880264,"L"
219911,"4617 WHITE ROCK STREET","HOUSTON","TX",77051,29.671290126,-95.3573513059999,411,"4617 WHITE ROCK STREET, HOUSTON, TX, 77051","Match","Exact","4617 WHITE ROCK ST, HOUSTON, TX, 77051",96089254,"L"
219912,"46171 JANE PLACE","TEMECULA","CA",92592,33.4563828140001,-117.08007899,412,"46171 JANE PLACE, TEMECULA, CA, 92592","Match","Exact","46171 JANE PL, TEMECULA, CA, 92592",195097586,"L"
219913,"46174 AISQUITH TERRACE","POTOMAC FALLS","VA",20165,39.0387056280001,-77.402009659,413,"46174 AISQUITH TERRACE, POTOMAC FALLS, VA, 20165","Match","Exact","46174 AISQUITH TER, POTOMAC FALLS, VA, 20165",62347062,"L"
219914,"46175 WESTLAKE DR STE 410","STERLING","VA",20165,39.03483142,-77.40178509,414,"46175 WESTLAKE DR STE 410, STERLING, VA, 20165","Match","Exact","46175 WESTLAKE DR, STERLING, VA, 20165",62365902,"R"
219915,"46179 WESTLAKE DRIVE SUITE 300","POTOMAC FALLS","VA",20165,39.0348053120001,-77.4016799729999,415,"46179 WESTLAKE DRIVE SUITE 300, POTOMAC FALLS, VA, 20165","Match","Exact","46179 WESTLAKE DR, POTOMAC FALLS, VA, 20165",62365902,"R"
219916,"4618 158TH ST","FLUSHING","NY",11358,NA,NA,416,"4618 158TH ST, FLUSHING, NY, 11358","No_Match",NA,NA,NA,NA
219917,"4618 ASH TREE ST","SNEELVILLE","GA",30039,33.7603592200001,-84.014843266,417,"4618 ASH TREE ST, SNEELVILLE, GA, 30039","Match","Non_Exact","4618 ASH TREE ST, SNELLVILLE, GA, 30039",639387391,"R"
219918,"4618 CARLIN AVE","LYNWOOD","CA",90262,33.909040276,-118.189946599,418,"4618 CARLIN AVE, LYNWOOD, CA, 90262","Match","Exact","4618 CARLIN AVE, LYNWOOD, CA, 90262",141679413,"R"
219919,"4618 CARVING TREE DRIVE","MINT HILL","NC",28227,35.165125545,-80.6701695639999,419,"4618 CARVING TREE DRIVE, MINT HILL, NC, 28227","Match","Exact","4618 CARVING TREE DR, MINT HILL, NC, 28227",70496596,"R"
219920,"4618 CELIA WAY 201","BELLINGHAM","WA",98226,48.8094308510001,-122.49259835,420,"4618 CELIA WAY 201, BELLINGHAM, WA, 98226","Match","Exact","4618 CELIA WAY, BELLINGHAM, WA, 98226",627189285,"R"
219921,"4618 GREENWOOD ROAD","WOODSTOCK","IL",60098,42.3941657240001,-88.388423814,421,"4618 GREENWOOD ROAD, WOODSTOCK, IL, 60098","Match","Exact","4618 GREENWOOD RD, WOODSTOCK, IL, 60098",119844937,"R"
219922,"4618 HAVRE WAY","PENSACOLA","FL",32505,30.4600421490001,-87.268528712,422,"4618 HAVRE WAY, PENSACOLA, FL, 32505","Match","Exact","4618 HAVRE WAY, PENSACOLA, FL, 32505",93214177,"R"
219923,"4618 JOSEPH ELI DR","SNELLVILLE","GA",30039,33.7894205440001,-83.989094414,423,"4618 JOSEPH ELI DR, SNELLVILLE, GA, 30039","Match","Exact","4618 JOSEPH ELI DR, SNELLVILLE, GA, 30039",645866324,"L"
219924,"4618 NE 17TH ST","REDMOND","OR",97756,44.3179911280001,-121.148384562,424,"4618 NE 17TH ST, REDMOND, OR, 97756","Match","Exact","4618 NE 17TH ST, REDMOND, OR, 97756",152586896,"R"
219925,"4618 ROSEHILL RD","FAYETTEVILLE","NC",28311,35.121600368,-78.90997019,425,"4618 ROSEHILL RD, FAYETTEVILLE, NC, 28311","Match","Exact","4618 ROSEHILL RD, FAYETTEVILLE, NC, 28311",64198442,"R"
219926,"4618 TRENTON COURT","STOCKTON","CA",95212,38.0412377110001,-121.255583037,426,"4618 TRENTON COURT, STOCKTON, CA, 95212","Match","Exact","4618 TRENTON CT, STOCKTON, CA, 95212",133846137,"R"
219927,"4618 W 163RD STREET","LAWNDALE","CA",90260,33.882686757,-118.357851684,427,"4618 W 163RD STREET, LAWNDALE, CA, 90260","Match","Exact","4618 W 163RD ST, LAWNDALE, CA, 90260",141663035,"L"
219928,"46181 JOY RD","CANTON","MI",48187,42.350759532,-83.4969084639999,428,"46181 JOY RD, CANTON, MI, 48187","Match","Exact","46181 JOY RD, CANTON, MI, 48187",95715276,"L"
219929,"46186 BRISTLECONE COURT","PARKER","CO",80138,39.538822424,-104.641951521,429,"46186 BRISTLECONE COURT, PARKER, CO, 80138","Match","Non_Exact","46186 BRISTLE CONE CT, PARKER, CO, 80138",130880239,"L"
219930,"4619 BENTLEY DRIVE","WILMINGTON","NC",28409,34.192576161,-77.886875932,430,"4619 BENTLEY DRIVE, WILMINGTON, NC, 28409","Match","Exact","4619 BENTLEY DR, WILMINGTON, NC, 28409",152761039,"R"
219931,"4619 BUTLER SPRINGS LANE","KATY","TX",77494,29.7284642070001,-95.805096373,431,"4619 BUTLER SPRINGS LANE, KATY, TX, 77494","Match","Exact","4619 BUTLER SPRINGS LN, KATY, TX, 77494",630548433,"L"
219932,"4619 CALVERT RD","HUNTSVILLE","AL",35816,34.746426103,-86.638428233,432,"4619 CALVERT RD, HUNTSVILLE, AL, 35816","Match","Non_Exact","4619 CALVERT RD NW, HUNTSVILLE, AL, 35816",58205876,"L"
219933,"4619 CHERRY STREET","WINSTON-SALEM","NC",27105,36.153246278,-80.26405417,433,"4619 CHERRY STREET, WINSTON-SALEM, NC, 27105","Match","Non_Exact","4619 N CHERRY ST, WINSTON SALEM, NC, 27105",84683668,"R"
219934,"4619 CHESTER AVE APT B9","PHILADELPHIA","PA",19143,39.946361896,-75.21342578,434,"4619 CHESTER AVE APT B9, PHILADELPHIA, PA, 19143","Match","Exact","4619 CHESTER AVE, PHILADELPHIA, PA, 19143",131400035,"R"
219935,"4619 CUSTER AVE","LYONS","IL",60534,41.8069438790001,-87.8399678339999,435,"4619 CUSTER AVE, LYONS, IL, 60534","Match","Exact","4619 CUSTER AVE, LYONS, IL, 60534",111792858,"L"
219936,"4619 E 4TH AVE","ANCHORAGE","AK",99508,61.2187697470001,-149.794691111,436,"4619 E 4TH AVE, ANCHORAGE, AK, 99508","Match","Exact","4619 E 4TH AVE, ANCHORAGE, AK, 99508",635725084,"L"
219937,"4619 NW LINDEN RD","KANSAS CITY","MO",64151,39.2197331610001,-94.6340278929999,437,"4619 NW LINDEN RD, KANSAS CITY, MO, 64151","Match","Exact","4619 NW LINDEN RD, KANSAS CITY, MO, 64151",39695627,"L"
219938,"4619 OLIVE HIGHWAY","OROVILLE","CA",95966,39.510492594,-121.487609559,438,"4619 OLIVE HIGHWAY, OROVILLE, CA, 95966","Match","Exact","4619 OLIVE HWY, OROVILLE, CA, 95966",68423499,"L"
219939,"4619 SPLIT ROCK DRIVE","NORTH LAS VEGAS","NV",89031,36.249759854,-115.205326792,439,"4619 SPLIT ROCK DRIVE, NORTH LAS VEGAS, NV, 89031","Match","Exact","4619 SPLIT ROCK DR, N LAS VEGAS, NV, 89031",201908520,"L"
219940,"4619 W RICHLAND PLAZA","BLOOMINGTON","IN",47404,39.2145163910001,-86.593744817,440,"4619 W RICHLAND PLAZA, BLOOMINGTON, IN, 47404","Match","Exact","4619 W RICHLAND PLZ, BLOOMINGTON, IN, 47404",42320345,"L"
219941,"4619 WELLINGTON GROVE LN","KATY","TX",77494,29.727886207,-95.807568756,441,"4619 WELLINGTON GROVE LN, KATY, TX, 77494","Match","Exact","4619 WELLINGTON GROVE LN, KATY, TX, 77494",627558945,"L"
219942,"462 BROAD AVE","PALISADES PK","NJ",7650,40.8512385080001,-73.9954950699999,442,"462 BROAD AVE, PALISADES PK, NJ, 7650","Match","Exact","462 BROAD AVE, PALISADES PARK, NJ, 07650",64390710,"R"
219943,"462 CARLSTON","RIVER ROUGE","MI",48218,42.2650503740001,-83.1443213379999,443,"462 CARLSTON, RIVER ROUGE, MI, 48218","Match","Non_Exact","462 CARLSTON ST, RIVER ROUGE, MI, 48218",95695169,"R"
219944,"462 CART CT","KISSIMMEE","FL",34759,28.133596282,-81.468552618,444,"462 CART CT, KISSIMMEE, FL, 34759","Match","Exact","462 CART CT, KISSIMMEE, FL, 34759",104805875,"L"
219945,"462 CEDAR SPRINGS HOLLOW","TALKING ROCK","GA",30175,34.549050821,-84.528432676,445,"462 CEDAR SPRINGS HOLLOW, TALKING ROCK, GA, 30175","Match","Exact","462 CEDAR SPRINGS HOLW, TALKING ROCK, GA, 30175",648788097,"L"
219946,"462 COUNTY ROAD 327","GATESVILLE","TX",76528,NA,NA,446,"462 COUNTY ROAD 327, GATESVILLE, TX, 76528","Tie",NA,NA,NA,NA
219947,"462 DEWEY STREET","DELPHOS","OH",45833,40.837929,-84.330120312,447,"462 DEWEY STREET, DELPHOS, OH, 45833","Match","Exact","462 DEWEY ST, DELPHOS, OH, 45833",35560900,"R"
219948,"462 E 137TH ST APT 2","BRONX","NY",10454,40.8076829510001,-73.9216106389999,448,"462 E 137TH ST APT 2, BRONX, NY, 10454","Match","Non_Exact","462 E 137TH ST, BRONX, NY, 10454",80300402,"R"
219949,"462 E 800 NORTH","OREM","UT",84097,40.3118954990001,-111.683765134,449,"462 E 800 NORTH, OREM, UT, 84097","Match","Exact","462 E 800 N, OREM, UT, 84097",635581616,"R"
219950,"462 ELPYCO","WICHITA","KS",67218,37.680761772,-97.2779008379999,450,"462 ELPYCO, WICHITA, KS, 67218","Match","Non_Exact","462 ELPYCO ST, WICHITA, KS, 67218",115706719,"L"
219951,"462 EQUINE DRIVE","TARPON SPRINGS","FL",34688,28.140944964,-82.695243819,451,"462 EQUINE DRIVE, TARPON SPRINGS, FL, 34688","Match","Exact","462 EQUINE DR, TARPON SPNGS, FL, 34688",124754937,"L"
219952,"462 FOREST CIRCLE","S CHARLESTON","WV",25303,38.3592610900001,-81.678783446,452,"462 FOREST CIRCLE, S CHARLESTON, WV, 25303","Match","Exact","462 FOREST CIR, S CHARLESTON, WV, 25303",78590170,"R"
219953,"462 ITAWAMBA RD","COLLIERVILLE","TN",38017,35.0138315830001,-89.683415286,453,"462 ITAWAMBA RD, COLLIERVILLE, TN, 38017","Match","Exact","462 ITAWAMBA RD, COLLIERVILLE, TN, 38017",72974660,"L"
219954,"462 LANE DRIVE","FLORENCE","AL",35630,34.862181132,-87.658051412,454,"462 LANE DRIVE, FLORENCE, AL, 35630","Match","Exact","462 LANE DR, FLORENCE, AL, 35630",41328247,"L"
219955,"462 MAIN RD SOUTH","HAMPDEN","ME",4444,44.7088504180001,-68.847102746,455,"462 MAIN RD SOUTH, HAMPDEN, ME, 4444","Match","Exact","462 MAIN RD S, HAMPDEN, ME, 04444",618063511,"L"
219956,"462 MEADOW WOOD CIRCLE PO BOX 132","GREAT CACAPON","WV",25422,NA,NA,456,"462 MEADOW WOOD CIRCLE PO BOX 132, GREAT CACAPON, WV, 25422","No_Match",NA,NA,NA,NA
219957,"462 MILLBURN AVE","MILLBURN","NJ",7041,40.7220663640001,-74.314161196,457,"462 MILLBURN AVE, MILLBURN, NJ, 7041","Match","Exact","462 MILLBURN AVE, MILLBURN, NJ, 07041",63461794,"L"
219958,"462 MILLBURN AVENUE","MILLBURN","NJ",7041,40.7220663640001,-74.314161196,458,"462 MILLBURN AVENUE, MILLBURN, NJ, 7041","Match","Exact","462 MILLBURN AVE, MILLBURN, NJ, 07041",63461794,"L"
219959,"462 N SUSONG STREET","NEWPORT","TN",37821,35.981880909,-83.193315136,459,"462 N SUSONG STREET, NEWPORT, TN, 37821","Match","Exact","462 N SUSONG ST, NEWPORT, TN, 37821",132782666,"R"
219960,"462 NORTH LINDEN DRIVE SUITE 236","BEVERLY HILLS","CA",90212,34.067730892,-118.408214732,460,"462 NORTH LINDEN DRIVE SUITE 236, BEVERLY HILLS, CA, 90212","Match","Exact","462 N LINDEN DR, BEVERLY HILLS, CA, 90212",141571499,"R"
219961,"462 OXFORD STREET","CHULA VISTA","CA",91911,32.608382353,-117.074422058,461,"462 OXFORD STREET, CHULA VISTA, CA, 91911","Match","Exact","462 OXFORD ST, CHULA VISTA, CA, 91911",623841435,"R"
219962,"462 QUINCY STREET","BROOKLYN","NY",11221,40.68788964,-73.942541913,462,"462 QUINCY STREET, BROOKLYN, NY, 11221","Match","Exact","462 QUINCY ST, BROOKLYN, NY, 11221",59079186,"R"
219963,"462 RICHMOND STREET","IRVING","TX",75063,32.9212709070001,-96.951226532,463,"462 RICHMOND STREET, IRVING, TX, 75063","Match","Non_Exact","462 RICHMOND, IRVING, TX, 75063",103271861,"L"
219964,"462 ROYAL ANN CT","RICHLAND","WA",99352,46.240644006,-119.287615997,464,"462 ROYAL ANN CT, RICHLAND, WA, 99352","Match","Exact","462 ROYAL ANN CT, RICHLAND, WA, 99352",607000124,"R"
219965,"462 RUSSELL ROAD","ALBANY","NY",12203,42.666015821,-73.831338761,465,"462 RUSSELL ROAD, ALBANY, NY, 12203","Match","Exact","462 RUSSELL RD, ALBANY, NY, 12203",18359968,"R"
219966,"462 S 4TH STREET STE 2600","LOUISVILLE","KY",40202,38.2518660530001,-85.757364942,466,"462 S 4TH STREET STE 2600, LOUISVILLE, KY, 40202","Match","Non_Exact","462 S 4TH ST, LOUISVILLE, KY, 40202",96844684,"R"
219967,"462 SAND TRAIL","NEW BRAUNFELS","TX",78130,NA,NA,467,"462 SAND TRAIL, NEW BRAUNFELS, TX, 78130","No_Match",NA,NA,NA,NA
219968,"462 SANDALWOOD DR","HIXSON","TN",37343,35.1926108440001,-85.2126030209999,468,"462 SANDALWOOD DR, HIXSON, TN, 37343","Match","Non_Exact","462 SANDLEWOOD DR, HIXSON, TN, 37343",59339326,"R"
219969,"462 SCHMIDT RD","MEADVILLE","MS",39653,NA,NA,469,"462 SCHMIDT RD, MEADVILLE, MS, 39653","No_Match",NA,NA,NA,NA
219970,"462 SPRING ST","DANVILLE","PA",17821,40.963484626,-76.6091215659999,470,"462 SPRING ST, DANVILLE, PA, 17821","Match","Exact","462 SPRING ST, DANVILLE, PA, 17821",59195704,"L"
219971,"462 SW CURRY STREET","PORT SAINT LUCIE","FL",34983,27.3161533260001,-80.3563348439999,471,"462 SW CURRY STREET, PORT SAINT LUCIE, FL, 34983","Match","Exact","462 SW CURRY ST, PORT ST LUCIE, FL, 34983",120151360,"R"
219972,"462 SW HOLDEN TERRACE","PORT ST LUCIE","FL",34984,27.2860600020001,-80.360488301,472,"462 SW HOLDEN TERRACE, PORT ST LUCIE, FL, 34984","Match","Exact","462 SW HOLDEN TER, PORT ST LUCIE, FL, 34984",120152797,"L"
219973,"462 TELFAIR STREET","AUGUSTA","GA",30901,33.46959553,-81.959769755,473,"462 TELFAIR STREET, AUGUSTA, GA, 30901","Match","Exact","462 TELFAIR ST, AUGUSTA, GA, 30901",636431134,"L"
219974,"462 W FAIRVIEW CIRCLE","PALATINE","IL",60067,42.1188875820001,-88.052947524,474,"462 W FAIRVIEW CIRCLE, PALATINE, IL, 60067","Match","Non_Exact","462 N FAIRVIEW CIR, PALATINE, IL, 60067",641695084,"R"
219975,"462 WASHINGTON ST SUITE 2528","WOBURN","MA",1888,NA,NA,475,"462 WASHINGTON ST SUITE 2528, WOBURN, MA, 1888","No_Match",NA,NA,NA,NA
219976,"462 WEST BROADWAY","NEW YORK","NY",10012,40.725975141,-74.0007357109999,476,"462 WEST BROADWAY, NEW YORK, NY, 10012","Match","Exact","462 W BROADWAY, NEW YORK, NY, 10012",59660271,"L"
219977,"462 WINONA STREET","PHILADELPHIA","PA",19144,40.0263568350001,-75.179231457,477,"462 WINONA STREET, PHILADELPHIA, PA, 19144","Match","Non_Exact","462 W WINONA ST, PHILADELPHIA, PA, 19144",131401120,"L"
219978,"462 WINSOR DRIVE","ANTIOCH","IL",60002,42.484714126,-88.097913972,478,"462 WINSOR DRIVE, ANTIOCH, IL, 60002","Match","Exact","462 WINSOR DR, ANTIOCH, IL, 60002",629857590,"R"
219979,"4620 148TH AVE SE","WHEATLAND","ND",58079,46.7445720870001,-97.367287394,479,"4620 148TH AVE SE, WHEATLAND, ND, 58079","Match","Exact","4620 148TH AVE SE, WHEATLAND, ND, 58079",151465266,"R"
219980,"4620 14TH AVE SOUTH","SAINT PETERSBURG","FL",33711,27.7565139970001,-82.696139767,480,"4620 14TH AVE SOUTH, SAINT PETERSBURG, FL, 33711","Match","Exact","4620 14TH AVE S, SAINT PETERSBURG, FL, 33711",124701031,"L"
219981,"4620 AMMON ROAD","SOUTH EUCLID","OH",44143,41.5426704170001,-81.5136394049999,481,"4620 AMMON ROAD, SOUTH EUCLID, OH, 44143","Match","Non_Exact","4620 AMMON RD, EUCLID, OH, 44143",61133525,"R"
219982,"4620 ARLINGTON AVENUE","BRONX","NY",10471,40.8928730010001,-73.9099227359999,482,"4620 ARLINGTON AVENUE, BRONX, NY, 10471","Match","Exact","4620 ARLINGTON AVE, BRONX, NY, 10471",80295936,"R"
219983,"4620 BEECHNUT ST  APT 107","HOUSTON","TX",77096,29.6891499970001,-95.4560502909999,483,"4620 BEECHNUT ST  APT 107, HOUSTON, TX, 77096","Match","Exact","4620 BEECHNUT ST, HOUSTON, TX, 77096",96604394,"R"
219984,"4620 BELL ST","KANSAS CITY","MO",64112,39.0441556480001,-94.60662439,484,"4620 BELL ST, KANSAS CITY, MO, 64112","Match","Exact","4620 BELL ST, KANSAS CITY, MO, 64112",91446566,"R"
219985,"4620 BRIGHTWOOD ROAD","OLNEY","MD",20832,39.1623604390001,-77.088140531,485,"4620 BRIGHTWOOD ROAD, OLNEY, MD, 20832","Match","Exact","4620 BRIGHTWOOD RD, OLNEY, MD, 20832",62110480,"L"
219986,"4620 DELAFIELD AVENUE","BRONX","NY",10471,40.894073747,-73.9069468129999,486,"4620 DELAFIELD AVENUE, BRONX, NY, 10471","Match","Exact","4620 DELAFIELD AVE, BRONX, NY, 10471",80295949,"R"
219987,"4620 E GULL LAKE DRIVE","HICKORY CORNERS","MI",49060,42.4152686300001,-85.414776551,487,"4620 E GULL LAKE DRIVE, HICKORY CORNERS, MI, 49060","Match","Exact","4620 E GULL LAKE DR, HICKORY CORNERS, MI, 49060",12247140,"R"
219988,"4620 EAST 53RD STREET SUITE 273","DAVENPORT","IA",52807,NA,NA,488,"4620 EAST 53RD STREET SUITE 273, DAVENPORT, IA, 52807","No_Match",NA,NA,NA,NA
219989,"4620 GREEN ROAD","WARRENSVILLE HTS","OH",44128,41.4344609560001,-81.5170382599999,489,"4620 GREEN ROAD, WARRENSVILLE HTS, OH, 44128","Match","Exact","4620 GREEN RD, WARRENSVILLE HEIGHTS, OH, 44128",61167315,"R"
219990,"4620 LANSING LN","PASCO","WA",99301,46.2693777010001,-119.164910506,490,"4620 LANSING LN, PASCO, WA, 99301","Match","Exact","4620 LANSING LN, PASCO, WA, 99301",625416396,"L"
219991,"4620 N TEXAS STATE HIGHWAY 87","NEWTON","TX",75966,NA,NA,491,"4620 N TEXAS STATE HIGHWAY 87, NEWTON, TX, 75966","No_Match",NA,NA,NA,NA
219992,"4620 PATRICK","SCOTT AFB","IL",62225,NA,NA,492,"4620 PATRICK, SCOTT AFB, IL, 62225","No_Match",NA,NA,NA,NA
219993,"4620 PINE POINT ROAD - PO BOX 364","SARTELL","MN",56377,45.675900826,-94.2036700199999,493,"4620 PINE POINT ROAD - PO BOX 364, SARTELL, MN, 56377","Match","Exact","4620 PINE POINT RD, SARTELL, MN, 56377",611975729,"L"
219994,"4620 VISTA DEL MONTE AVE APT 205","SHERMAN OAKS","CA",91403,34.1550737100001,-118.44984453,494,"4620 VISTA DEL MONTE AVE APT 205, SHERMAN OAKS, CA, 91403","Match","Exact","4620 VISTA DEL MONTE AVE, SHERMAN OAKS, CA, 91403",141561637,"R"
219995,"4620 WALT CT","CUMMING","GA",30028,34.302164029,-84.087259756,495,"4620 WALT CT, CUMMING, GA, 30028","Match","Exact","4620 WALT CT, CUMMING, GA, 30028",624971348,"R"
219996,"4620 WATSON FARMS LANE","CUMMING","GA",30028,34.2544012210001,-84.230818062,496,"4620 WATSON FARMS LANE, CUMMING, GA, 30028","Match","Exact","4620 WATSON FARMS LN, CUMMING, GA, 30028",627361747,"R"
219997,"4620 WATSON FARMS LN","CUMMING","GA",30028,34.2544012210001,-84.230818062,497,"4620 WATSON FARMS LN, CUMMING, GA, 30028","Match","Exact","4620 WATSON FARMS LN, CUMMING, GA, 30028",627361747,"R"
219998,"46201 WILSON VALLEY ROAD","AGUANGA","CA",92536,33.5013366840001,-116.853593335,498,"46201 WILSON VALLEY ROAD, AGUANGA, CA, 92536","Match","Exact","46201 WILSON VALLEY RD, AGUANGA, CA, 92536",194696884,"L"
219999,"4621 AEGEAN AVE","HOLIDAY","FL",34690,28.1976575480001,-82.737465503,499,"4621 AEGEAN AVE, HOLIDAY, FL, 34690","Match","Exact","4621 AEGEAN AVE, HOLIDAY, FL, 34690",86403187,"L"
220000,"4621 BAKERS FERRY RD SW","ATLANTA","GA",30331,33.748590758,-84.5386982099999,500,"4621 BAKERS FERRY RD SW, ATLANTA, GA, 30331","Match","Exact","4621 BAKERS FERRY RD SW, ATLANTA, GA, 30331",623750484,"R"
