"ID","Address","City","State","Zip","lat","long","id","input_address","match_indicator","match_type","matched_address","tiger_line_id","tiger_side"
70001,"1520 SAND HILL ROAD  SUITE 210","PALO ALTO","CA",94304,37.43287465,-122.184487162,1,"1520 SAND HILL ROAD  SUITE 210, PALO ALTO, CA, 94304","Match","Exact","1520 SAND HILL RD, PALO ALTO, CA, 94304",123020946,"R"
70002,"1520 SAND WEDGE CIRCLE","CHESTERTON","IN",46304,41.595793111,-87.0878459589999,2,"1520 SAND WEDGE CIRCLE, CHESTERTON, IN, 46304","Match","Exact","1520 SAND WEDGE CIR, CHESTERTON, IN, 46304",606977327,"R"
70003,"1520 SANSOM STREET","PHILADELPHIA","PA",19102,39.9503622410001,-75.1661690509999,3,"1520 SANSOM STREET, PHILADELPHIA, PA, 19102","Match","Exact","1520 SANSOM ST, PHILADELPHIA, PA, 19102",131407654,"L"
70004,"1520 SEABOARD AVE","CHESAPEAKE","VA",23324,36.8111690530001,-76.2698733089999,4,"1520 SEABOARD AVE, CHESAPEAKE, VA, 23324","Match","Exact","1520 SEABOARD AVE, CHESAPEAKE, VA, 23324",121771195,"R"
70005,"1520 SIERRA DR","PETALUMA","CA",94954,38.2464913840001,-122.615120623,5,"1520 SIERRA DR, PETALUMA, CA, 94954","Match","Exact","1520 SIERRA DR, PETALUMA, CA, 94954",67478280,"R"
70006,"1520 SOUTH SHENANDOAH ST UNIT 303","LOS ANGELES","CA",90035,34.051400829,-118.38198354,6,"1520 SOUTH SHENANDOAH ST UNIT 303, LOS ANGELES, CA, 90035","Match","Exact","1520 S SHENANDOAH ST, LOS ANGELES, CA, 90035",141573047,"L"
70007,"1520 SOUTHWEST EXPY APT 434","SAN JOSE","CA",95126,37.3095098920001,-121.918712361,7,"1520 SOUTHWEST EXPY APT 434, SAN JOSE, CA, 95126","Match","Exact","1520 SOUTHWEST EXPY, SAN JOSE, CA, 95126",122905877,"L"
70008,"1520 SPRECKELS ST APT 306","HONOLULU","HI",96822,21.301672083,-157.832339452,8,"1520 SPRECKELS ST APT 306, HONOLULU, HI, 96822","Match","Exact","1520 SPRECKELS ST, HONOLULU, HI, 96822",203237581,"L"
70009,"1520 STEEPLECHASE DR","EASTON","PA",18040,40.750573891,-75.2474067109999,9,"1520 STEEPLECHASE DR, EASTON, PA, 18040","Match","Exact","1520 STEEPLECHASE DR, EASTON, PA, 18040",136907638,"L"
70010,"1520 THOMAS H DELPIT","BATON ROUGE","LA",60620,NA,NA,10,"1520 THOMAS H DELPIT, BATON ROUGE, LA, 60620","No_Match",NA,NA,NA,NA
70011,"1520 VERSAILLES ROAD","RUSSIA","OH",45363,40.2264085750001,-84.404272411,11,"1520 VERSAILLES ROAD, RUSSIA, OH, 45363","Match","Exact","1520 VERSAILLES RD, RUSSIA, OH, 45363",653632634,"R"
70012,"1520 W 8TH ST","ABERDEEN","WA",98520,46.9805061010001,-123.833997234,12,"1520 W 8TH ST, ABERDEEN, WA, 98520","Match","Exact","1520 W 8TH ST, ABERDEEN, WA, 98520",180583515,"L"
70013,"1520 W SELDON WAY","PHOENIX","AZ",85021,33.561089785,-112.091414487,13,"1520 W SELDON WAY, PHOENIX, AZ, 85021","Match","Exact","1520 W SELDON WAY, PHOENIX, AZ, 85021",128203795,"R"
70014,"1520 W WHITEROCK RD","BRAZIL","IN",47834,39.506014399,-87.136807817,14,"1520 W WHITEROCK RD, BRAZIL, IN, 47834","Match","Exact","1520 W WHITEROCK RD, BRAZIL, IN, 47834",41750893,"L"
70015,"1520 WARD AVE APT 902","HONOLULU","HI",96822,21.307617776,-157.847883866,15,"1520 WARD AVE APT 902, HONOLULU, HI, 96822","Match","Exact","1520 WARD AVE, HONOLULU, HI, 96822",203236546,"L"
70016,"1520 WELLINGTON ST","OAKLAND","CA",94602,37.806523289,-122.21951889,16,"1520 WELLINGTON ST, OAKLAND, CA, 94602","Match","Exact","1520 WELLINGTON ST, OAKLAND, CA, 94602",125002869,"L"
70017,"1520 WEST HAMPTON TRACE","BELLEVILLE","IL",62220,NA,NA,17,"1520 WEST HAMPTON TRACE, BELLEVILLE, IL, 62220","No_Match",NA,NA,NA,NA
70018,"1520 WEST MANOR LANE","RIVER HILLS","WI",52317,43.1824654260001,-87.9278735569999,18,"1520 WEST MANOR LANE, RIVER HILLS, WI, 52317","Match","Non_Exact","1520 W MANOR LN, RIVER HILLS, WI, 53217",77734944,"R"
70019,"1520 WEST MINERAL ROAD SUITE 102","TEMPE","AZ",85283,33.3564267,-111.964257881,19,"1520 WEST MINERAL ROAD SUITE 102, TEMPE, AZ, 85283","Match","Exact","1520 W MINERAL RD, TEMPE, AZ, 85283",128237120,"R"
70020,"1520 WHITNEY COURT","ST. CLOUD","MN",56303,45.576877435,-94.179121563,20,"1520 WHITNEY COURT, ST. CLOUD, MN, 56303","Match","Exact","1520 WHITNEY CT, SAINT CLOUD, MN, 56303",107429303,"R"
70021,"1520 WILLOWBROOKE MANORS COURT","SAINT LOUIS","MO",63146,NA,NA,21,"1520 WILLOWBROOKE MANORS COURT, SAINT LOUIS, MO, 63146","No_Match",NA,NA,NA,NA
70022,"15200 52ND AVE S","TUKWILA","WA",98188,47.466616528,-122.269076603,22,"15200 52ND AVE S, TUKWILA, WA, 98188","Match","Exact","15200 52ND AVE S, TUKWILA, WA, 98188",187005454,"L"
70023,"15200 ANNAPOLIS ROAD","BOWIE","MD",20715,38.9776942170001,-76.7412375759999,23,"15200 ANNAPOLIS ROAD, BOWIE, MD, 20715","Match","Exact","15200 ANNAPOLIS RD, BOWIE, MD, 20715",638666397,"L"
70024,"15200 CLINTON STREET","BRIGHTON","CO",80602,39.971598344,-104.876792953,24,"15200 CLINTON STREET, BRIGHTON, CO, 80602","Match","Exact","15200 CLINTON ST, BRIGHTON, CO, 80602",177423894,"R"
70025,"15200 DEER RUN ROAD","LOUISVILLE","KY",40299,38.168171391,-85.486795102,25,"15200 DEER RUN ROAD, LOUISVILLE, KY, 40299","Match","Exact","15200 DEER RUN RD, LOUISVILLE, KY, 40299",96884585,"L"
70026,"15200 EAST JEFFERSON SUITE 108 E","GROSSE POINTE PARK","MI",48230,42.3758871700001,-82.936868263,26,"15200 EAST JEFFERSON SUITE 108 E, GROSSE POINTE PARK, MI, 48230","Match","Non_Exact","15200 E JEFFERSON AVE, GROSSE POINTE PARK, MI, 48230",95732933,"R"
70027,"15200 MEADOW CREEK LN","OKLAHOMA CITY","OK",73165,35.3172685430001,-97.4131295019999,27,"15200 MEADOW CREEK LN, OKLAHOMA CITY, OK, 73165","Match","Exact","15200 MEADOW CREEK LN, OKLAHOMA CITY, OK, 73165",99933958,"L"
70028,"15200 MIDDLEBROOK DRIVE SUITE F","HOUSTON","TX",77058,29.585025135,-95.091236194,28,"15200 MIDDLEBROOK DRIVE SUITE F, HOUSTON, TX, 77058","Match","Exact","15200 MIDDLEBROOK DR, HOUSTON, TX, 77058",96591026,"L"
70029,"15200 WILSHIRE CIRCLE SOUTH","PEMBROKE PINES","FL",33027,25.998288517,-80.349185371,29,"15200 WILSHIRE CIRCLE SOUTH, PEMBROKE PINES, FL, 33027","Match","Exact","15200 WILSHIRE CIR S, PEMBROKE PINES, FL, 33027",114769763,"R"
70030,"15201 MASON RD  SUITE 1000-106","CYPRESS","TX",77433,29.9928095440001,-95.73890154,30,"15201 MASON RD  SUITE 1000-106, CYPRESS, TX, 77433","Match","Exact","15201 MASON RD, CYPRESS, TX, 77433",233448416,"R"
70031,"15201 MASON RD SUITE 1000-106","CYPRESS","TX",77433,29.9928095440001,-95.73890154,31,"15201 MASON RD SUITE 1000-106, CYPRESS, TX, 77433","Match","Exact","15201 MASON RD, CYPRESS, TX, 77433",233448416,"R"
70032,"15201 NE 6TH AVENUE APT C311","MIAMI","FL",33162,25.915290703,-80.1876225459999,32,"15201 NE 6TH AVENUE APT C311, MIAMI, FL, 33162","Match","Non_Exact","15201 NE 6TH AVE, MIAMI, FL, 33162",609040483,"R"
70033,"15201 RUNNING ACES BLVD","COLUMBUS","MN",55025,NA,NA,33,"15201 RUNNING ACES BLVD, COLUMBUS, MN, 55025","No_Match",NA,NA,NA,NA
70034,"15201 S LAKE RIDGE WAY","OREGON CITY","OR",97045,45.3489351010001,-122.553484492,34,"15201 S LAKE RIDGE WAY, OREGON CITY, OR, 97045","Match","Exact","15201 S LAKE RIDGE WAY, OREGON CITY, OR, 97045",633545308,"L"
70035,"15201 W WARREN AVE","DEARBORN","MI",48126,42.343698358,-83.193119004,35,"15201 W WARREN AVE, DEARBORN, MI, 48126","Match","Exact","15201 W WARREN AVE, DEARBORN, MI, 48126",95442076,"L"
70036,"15201 WYCLIFFE CT","ROCKVILLE","MD",20853,39.106437537,-77.086572519,36,"15201 WYCLIFFE CT, ROCKVILLE, MD, 20853","Match","Exact","15201 WYCLIFFE CT, ROCKVILLE, MD, 20853",62059513,"R"
70037,"15202 BENFER RD","HOUSTON","TX",77069,29.997110407,-95.518330352,37,"15202 BENFER RD, HOUSTON, TX, 77069","Match","Exact","15202 BENFER RD, HOUSTON, TX, 77069",96009571,"R"
70038,"15202 DORCHESTER AVE","DOLTON","IL",60419,41.618592495,-87.583186542,38,"15202 DORCHESTER AVE, DOLTON, IL, 60419","Match","Exact","15202 DORCHESTER AVE, DOLTON, IL, 60419",111780328,"R"
70039,"15202 NW 147TH DR - STE 1200-250","ALACHUA","FL",32615,29.7959470930001,-82.501941234,39,"15202 NW 147TH DR - STE 1200-250, ALACHUA, FL, 32615","Match","Non_Exact","15202 NW 147TH DR, ALACHUA, FL, 32615",625633715,"L"
70040,"15202 S 31ST ST","PHOENIX","AZ",85048,33.3084473700001,-112.018507499,40,"15202 S 31ST ST, PHOENIX, AZ, 85048","Match","Exact","15202 S 31ST ST, PHOENIX, AZ, 85048",128375895,"L"
70041,"15202 W AZALEA DR","ALEXANDER","AR",72002,34.6117768350001,-92.44620229,41,"15202 W AZALEA DR, ALEXANDER, AR, 72002","Match","Exact","15202 W AZALEA DR, ALEXANDER, AR, 72002",24196620,"L"
70042,"15202 WINGSTAR","SAN ANTONIO","TX",78253,29.429761662,-98.797602807,42,"15202 WINGSTAR, SAN ANTONIO, TX, 78253","Match","Exact","15202 WINGSTAR, SAN ANTONIO, TX, 78253",619946201,"R"
70043,"15203 MOCASSIN ST","LA PUENTE","CA",91744,34.031334643,-117.960508178,43,"15203 MOCASSIN ST, LA PUENTE, CA, 91744","Match","Non_Exact","15203 MOCCASIN ST, LA PUENTE, CA, 91744",141713309,"L"
70044,"15203 RED BARN CT","BOWIE","MD",20715,39.0042435230001,-76.740753823,44,"15203 RED BARN CT, BOWIE, MD, 20715","Match","Exact","15203 RED BARN CT, BOWIE, MD, 20715",76418598,"R"
70045,"15203 SW 111TH STREET","MIAMI","FL",33196,25.6632903600001,-80.441406724,45,"15203 SW 111TH STREET, MIAMI, FL, 33196","Match","Exact","15203 SW 111TH ST, MIAMI, FL, 33196",116062900,"R"
70046,"15204 OMEGA DRIVE SUITE 210","ROCKVILLE","MD",20850,39.1056862250001,-77.1964914879999,46,"15204 OMEGA DRIVE SUITE 210, ROCKVILLE, MD, 20850","Match","Exact","15204 OMEGA DR, ROCKVILLE, MD, 20850",62140812,"L"
70047,"15205 BITTERROOT WAY","ROCKVILLE","MD",20853,39.104576405,-77.094718034,47,"15205 BITTERROOT WAY, ROCKVILLE, MD, 20853","Match","Exact","15205 BITTERROOT WAY, ROCKVILLE, MD, 20853",62059365,"R"
70048,"15205 CARDINAL NEST DR","EDMOND","OK",73013,35.6248384900001,-97.557938462,48,"15205 CARDINAL NEST DR, EDMOND, OK, 73013","Match","Exact","15205 CARDINAL NEST DR, EDMOND, OK, 73013",626352806,"R"
70049,"15205 DORCHESTER AVE","DOLTON","IL",60419,41.6188009300001,-87.5831743209999,49,"15205 DORCHESTER AVE, DOLTON, IL, 60419","Match","Exact","15205 DORCHESTER AVE, DOLTON, IL, 60419",111780326,"L"
70050,"15205 TRADITIONS LAKE PARKWAY","EDMOND","OK",73013,35.625155148,-97.5226365669999,50,"15205 TRADITIONS LAKE PARKWAY, EDMOND, OK, 73013","Match","Non_Exact","15205 TRADITIONS BLVD, EDMOND, OK, 73013",624931549,"L"
70051,"15205 WACOUSTA ROAD","GRAND LEDGE","MI",48837,42.7951269160001,-84.700939557,51,"15205 WACOUSTA ROAD, GRAND LEDGE, MI, 48837","Match","Exact","15205 WACOUSTA RD, GRAND LEDGE, MI, 48837",17298873,"L"
70052,"15206 BARTLETT LANDING DR","CYPRESS","TX",77429,29.996486378,-95.72269632,52,"15206 BARTLETT LANDING DR, CYPRESS, TX, 77429","Match","Exact","15206 BARTLETT LANDING DR, CYPRESS, TX, 77429",627715264,"L"
70053,"15206 EAST END AVE","DOLTON","IL",60419,41.620367559,-87.575938094,53,"15206 EAST END AVE, DOLTON, IL, 60419","Match","Exact","15206 E END AVE, DOLTON, IL, 60419",605690377,"R"
70054,"15206 NW 89TH STREET","ALACHUA","FL",32615,29.7954584190001,-82.441389876,54,"15206 NW 89TH STREET, ALACHUA, FL, 32615","Match","Exact","15206 NW 89TH ST, ALACHUA, FL, 32615",6826461,"R"
70055,"15207 21ST AVE E","BRADENTON","FL",34212,27.478620515,-82.388257756,55,"15207 21ST AVE E, BRADENTON, FL, 34212","Match","Exact","15207 21ST AVE E, BRADENTON, FL, 34212",625743268,"R"
70056,"15207 GATHERING COURT","CHARLOTTE","NC",28278,35.0897398390001,-80.993253123,56,"15207 GATHERING COURT, CHARLOTTE, NC, 28278","Match","Exact","15207 GATHERING CT, CHARLOTTE, NC, 28278",630393589,"L"
70057,"15208 85TH DRIVE","JAMAICA","NY",11432,NA,NA,57,"15208 85TH DRIVE, JAMAICA, NY, 11432","No_Match",NA,NA,NA,NA
70058,"15208 BAILEYS LANE","SILVER SPRING","MD",20906,39.1119734800001,-77.061892186,58,"15208 BAILEYS LANE, SILVER SPRING, MD, 20906","Match","Exact","15208 BAILEYS LN, SILVER SPRING, MD, 20906",624463518,"R"
70059,"15208 MEGAN CIRCLE","OKLAHOMA CITY","OK",73170,35.3175584090001,-97.525232091,59,"15208 MEGAN CIRCLE, OKLAHOMA CITY, OK, 73170","Match","Exact","15208 MEGAN CIR, OKLAHOMA CITY, OK, 73170",99920531,"L"
70060,"15208 W COLUMBINE DR","SURPRISE","AZ",85379,33.5978339960001,-112.386629425,60,"15208 W COLUMBINE DR, SURPRISE, AZ, 85379","Match","Exact","15208 W COLUMBINE DR, SURPRISE, AZ, 85379",614552568,"L"
70061,"15208 W WEAVER RD","SAND SPRINGS","OK",74063,36.0938238520001,-96.162153921,61,"15208 W WEAVER RD, SAND SPRINGS, OK, 74063","Match","Exact","15208 W WEAVER RD, SAND SPRINGS, OK, 74063",653003142,"R"
70062,"15209 CARROLTON RD","ROCKVILLE","MD",20853,39.105150644,-77.0889428139999,62,"15209 CARROLTON RD, ROCKVILLE, MD, 20853","Match","Exact","15209 CARROLTON RD, ROCKVILLE, MD, 20853",62059501,"R"
70063,"15209 PACEY COVE DRIVE","ORLANDO","FL",32824,28.3601950500001,-81.324907622,63,"15209 PACEY COVE DRIVE, ORLANDO, FL, 32824","Match","Exact","15209 PACEY COVE DR, ORLANDO, FL, 32824",645100291,"R"
70064,"15209 SE 80TH STREET","NEWCASTLE","WA",98059,47.5309014370001,-122.136074389,64,"15209 SE 80TH STREET, NEWCASTLE, WA, 98059","Match","Exact","15209 SE 80TH ST, NEWCASTLE, WA, 98059",634326985,"R"
70065,"1521 15TH AVE UNIT R","SEATTLE","WA",98122,47.6146947990001,-122.312776403,65,"1521 15TH AVE UNIT R, SEATTLE, WA, 98122","Match","Exact","1521 15TH AVE, SEATTLE, WA, 98122",186592573,"L"
70066,"1521 16TH ST NW","WASHINGTON","DC",20036,38.9103278270001,-77.036514145,66,"1521 16TH ST NW, WASHINGTON, DC, 20036","Match","Exact","1521 16TH ST NW, WASHINGTON, DC, 20036",76225678,"R"
70067,"1521 16TH STREET","SANTA MONICA","CA",90404,34.023376222,-118.481144447,67,"1521 16TH STREET, SANTA MONICA, CA, 90404","Match","Exact","1521 16TH ST, SANTA MONICA, CA, 90404",141559404,"L"
70068,"1521 17TH ST S APT 19","BIRMINGHAM","AL",35205,33.4937992850001,-86.79860824,68,"1521 17TH ST S APT 19, BIRMINGHAM, AL, 35205","Match","Exact","1521 17TH ST S, BIRMINGHAM, AL, 35205",81576643,"L"
70069,"1521 19TH STREET","GULFPORT","MS",39501,30.374555577,-89.07848233,69,"1521 19TH STREET, GULFPORT, MS, 39501","Match","Exact","1521 19TH ST, GULFPORT, MS, 39501",111380291,"L"
70070,"1521 1ST STREET","BERTHOUD","CO",80513,NA,NA,70,"1521 1ST STREET, BERTHOUD, CO, 80513","No_Match",NA,NA,NA,NA
70071,"1521 215TH STREET FL 2","BAYSIDE","NY",11360,NA,NA,71,"1521 215TH STREET FL 2, BAYSIDE, NY, 11360","No_Match",NA,NA,NA,NA
70072,"1521 215TH STREET FL2","BAYSIDE","NY",11360,NA,NA,72,"1521 215TH STREET FL2, BAYSIDE, NY, 11360","No_Match",NA,NA,NA,NA
70073,"1521 2ND AVE APT 2200","SEATTLE","WA",98101,NA,NA,73,"1521 2ND AVE APT 2200, SEATTLE, WA, 98101","No_Match",NA,NA,NA,NA
70074,"1521 3RD AVENUE SW","ALTOONA","IA",50009,41.6360662000001,-93.467759437,74,"1521 3RD AVENUE SW, ALTOONA, IA, 50009","Match","Exact","1521 3RD AVE SW, ALTOONA, IA, 50009",65865012,"R"
70075,"1521 4TH STREET","GLENARDEN","MD",20706,38.930945347,-76.856156955,75,"1521 4TH STREET, GLENARDEN, MD, 20706","Match","Exact","1521 4TH ST, GLENARDEN, MD, 20706",76310079,"R"
70076,"1521 6TH ST E","ASHLAND","WI",54806,46.595889437,-90.862273235,76,"1521 6TH ST E, ASHLAND, WI, 54806","Match","Exact","1521 6TH ST E, ASHLAND, WI, 54806",165353103,"L"
70077,"1521 AKRON DR","SAINT LOUIS","MO",63137,38.75674023,-90.236060805,77,"1521 AKRON DR, SAINT LOUIS, MO, 63137","Match","Exact","1521 AKRON DR, SAINT LOUIS, MO, 63137",100150122,"R"
70078,"1521 ALTON RD 78","MIAMI BEACH","FL",33139,25.787705327,-80.14112254,78,"1521 ALTON RD 78, MIAMI BEACH, FL, 33139","Match","Exact","1521 ALTON RD, MIAMI BEACH, FL, 33139",116020227,"R"
70079,"1521 ALTON RD SUITE 529","MIAMI BEACH","FL",33139,25.787705327,-80.14112254,79,"1521 ALTON RD SUITE 529, MIAMI BEACH, FL, 33139","Match","Exact","1521 ALTON RD, MIAMI BEACH, FL, 33139",116020227,"R"
70080,"1521 ALTON RD SUITE 702","MIAMI BEACH","MD",33139,NA,NA,80,"1521 ALTON RD SUITE 702, MIAMI BEACH, MD, 33139","No_Match",NA,NA,NA,NA
70081,"1521 ALTON ROAD  SUITE 322","MIAMI BEACH","FL",33139,25.787705327,-80.14112254,81,"1521 ALTON ROAD  SUITE 322, MIAMI BEACH, FL, 33139","Match","Exact","1521 ALTON RD, MIAMI BEACH, FL, 33139",116020227,"R"
70082,"1521 ALTON ROAD 868","MIAMI BEACH","FL",33139,25.787705327,-80.14112254,82,"1521 ALTON ROAD 868, MIAMI BEACH, FL, 33139","Match","Exact","1521 ALTON RD, MIAMI BEACH, FL, 33139",116020227,"R"
70083,"1521 ALTON ROAD SUITE 409","MIAMI BEACH","FL",33139,25.787705327,-80.14112254,83,"1521 ALTON ROAD SUITE 409, MIAMI BEACH, FL, 33139","Match","Exact","1521 ALTON RD, MIAMI BEACH, FL, 33139",116020227,"R"
70084,"1521 AND A HALF SOUTH REDONDO BLVD","LOS ANGELES","CA",90019,NA,NA,84,"1521 AND A HALF SOUTH REDONDO BLVD, LOS ANGELES, CA, 90019","No_Match",NA,NA,NA,NA
70085,"1521 AUDUBON PARC DR","CARY","NC",27518,35.735069917,-78.77600483,85,"1521 AUDUBON PARC DR, CARY, NC, 27518","Match","Exact","1521 AUDUBON PARC DR, CARY, NC, 27518",72590523,"R"
70086,"1521 BATSON DR","MT PLEASANT","MI",48858,43.5889364980001,-84.754809071,86,"1521 BATSON DR, MT PLEASANT, MI, 48858","Match","Exact","1521 BATSON DR, MOUNT PLEASANT, MI, 48858",623947956,"L"
70087,"1521 BEELER AVENUE","JEFFERSON CITY","TN",37760,36.1135896820001,-83.486309519,87,"1521 BEELER AVENUE, JEFFERSON CITY, TN, 37760","Match","Exact","1521 BEELER AVE, JEFFERSON CITY, TN, 37760",42572086,"L"
70088,"1521 CALIFORNIA CIRCLE","MILPITAS","CA",95035,37.451622919,-121.920153781,88,"1521 CALIFORNIA CIRCLE, MILPITAS, CA, 95035","Match","Exact","1521 CALIFORNIA CIR, MILPITAS, CA, 95035",648602162,"L"
70089,"1521 CAPE COD ST","DAVIS","CA",95616,38.555706458,-121.768812461,89,"1521 CAPE COD ST, DAVIS, CA, 95616","Match","Exact","1521 CAPE COD ST, DAVIS, CA, 95616",67704433,"R"
70090,"1521 CEDAR HILL ROAD","LOWER GWYNEDD","PA",19002,40.1983310740001,-75.217759286,90,"1521 CEDAR HILL ROAD, LOWER GWYNEDD, PA, 19002","Match","Exact","1521 CEDAR HILL RD, LOWER GWYNEDD, PA, 19002",605688706,"L"
70091,"1521 CELLA","MEMPHIS","TN",38114,35.104270489,-89.97906555,91,"1521 CELLA, MEMPHIS, TN, 38114","Match","Non_Exact","1521 CELLA ST, MEMPHIS, TN, 38114",72917968,"R"
70092,"1521 CHELSEA DOWNS DRIVE","CONYERS","GA",30013,33.677121465,-83.966918473,92,"1521 CHELSEA DOWNS DRIVE, CONYERS, GA, 30013","Match","Non_Exact","1521 CHELSEA DOWNS DR NE, CONYERS, GA, 30013",23745566,"R"
70093,"1521 CIRCLE DRIVE","VINTON","IA",52349,42.1675094020001,-92.006534663,93,"1521 CIRCLE DRIVE, VINTON, IA, 52349","Match","Exact","1521 CIRCLE DR, VINTON, IA, 52349",94726815,"R"
70094,"1521 CONCORD PIKE - 303","WILMINGTON","DE",19803,39.778357472,-75.544854604,94,"1521 CONCORD PIKE - 303, WILMINGTON, DE, 19803","Match","Exact","1521 CONCORD PIKE, WILMINGTON, DE, 19803",641415065,"R"
70095,"1521 CONCORD PIKE 303","WILMINGTON","DE",19803,39.778357472,-75.544854604,95,"1521 CONCORD PIKE 303, WILMINGTON, DE, 19803","Match","Exact","1521 CONCORD PIKE, WILMINGTON, DE, 19803",641415065,"R"
70096,"1521 CONCORD PIKE STE 301","WILMINGTON","DE",19803,39.778357472,-75.544854604,96,"1521 CONCORD PIKE STE 301, WILMINGTON, DE, 19803","Match","Exact","1521 CONCORD PIKE, WILMINGTON, DE, 19803",641415065,"R"
70097,"1521 CONCORD PIKE STE 303","WILMINGTON","DE",19803,39.778357472,-75.544854604,97,"1521 CONCORD PIKE STE 303, WILMINGTON, DE, 19803","Match","Exact","1521 CONCORD PIKE, WILMINGTON, DE, 19803",641415065,"R"
70098,"1521 CONCORD PIKE STE 303","WILMINGTON","NY",19803,NA,NA,98,"1521 CONCORD PIKE STE 303, WILMINGTON, NY, 19803","No_Match",NA,NA,NA,NA
70099,"1521 CONCORD PIKE SUITE 303","WILMINGTON","DE",19803,39.778357472,-75.544854604,99,"1521 CONCORD PIKE SUITE 303, WILMINGTON, DE, 19803","Match","Exact","1521 CONCORD PIKE, WILMINGTON, DE, 19803",641415065,"R"
70100,"1521 CRESTMARK BLVD","LITHIA SPRINGS","GA",30122,33.7810439510001,-84.612943538,100,"1521 CRESTMARK BLVD, LITHIA SPRINGS, GA, 30122","Match","Exact","1521 CRESTMARK BLVD, LITHIA SPGS, GA, 30122",647051557,"L"
70101,"1521 E MCFADDEN AVE STE B","SANTA ANA","CA",92705,33.733726625,-117.846968952,101,"1521 E MCFADDEN AVE STE B, SANTA ANA, CA, 92705","Match","Non_Exact","1521 E MCFADDEN AVE, SANTA ANA, CA, 92705",616893212,"L"
70102,"1521 E STEELE ST","LARAMIE","WY",82070,41.304491184,-105.57786524,102,"1521 E STEELE ST, LARAMIE, WY, 82070","Match","Exact","1521 E STEELE ST, LARAMIE, WY, 82070",168740613,"R"
70103,"1521 EASTRIDGE CT   NE","ALBUQUERQUE","NM",87112,35.0975067680001,-106.509990265,103,"1521 EASTRIDGE CT   NE, ALBUQUERQUE, NM, 87112","Match","Exact","1521 EASTRIDGE CT NE, ALBUQUERQUE, NM, 87112",206720460,"L"
70104,"1521 GERALD AVE","MISSOULA","MT",59801,46.856847959,-113.995787123,104,"1521 GERALD AVE, MISSOULA, MT, 59801","Match","Exact","1521 GERALD AVE, MISSOULA, MT, 59801",205239633,"R"
70105,"1521 GLENWOOD DR","UKIAH","CA",95482,39.142423514,-123.175520524,105,"1521 GLENWOOD DR, UKIAH, CA, 95482","Match","Exact","1521 GLENWOOD DR, UKIAH, CA, 95482",67267346,"R"
70106,"1521 GRADUATE LANE APT 102","RALEIGH","NC",27606,35.773257533,-78.6905747439999,106,"1521 GRADUATE LANE APT 102, RALEIGH, NC, 27606","Match","Exact","1521 GRADUATE LN, RALEIGH, NC, 27606",72617698,"L"
70107,"1521 HANCOCK ROAD","CROSSETT","AR",71635,33.194877782,-91.9859521019999,107,"1521 HANCOCK ROAD, CROSSETT, AR, 71635","Match","Exact","1521 HANCOCK RD, CROSSETT, AR, 71635",31454637,"L"
70108,"1521 HYATT AVE","COLUMBIA","SC",29203,34.041582652,-81.031392506,108,"1521 HYATT AVE, COLUMBIA, SC, 29203","Match","Exact","1521 HYATT AVE, COLUMBIA, SC, 29203",71820060,"L"
70109,"1521 I STREET","SACARMENTO","CA",95814,38.579470895,-121.485734603,109,"1521 I STREET, SACARMENTO, CA, 95814","Match","Non_Exact","1521 I ST, SACRAMENTO, CA, 95814",133323466,"L"
70110,"1521 KNUDSON CT","HENDERSON","NV",89002,35.9953803760001,-114.931146664,110,"1521 KNUDSON CT, HENDERSON, NV, 89002","Match","Exact","1521 KNUDSON CT, HENDERSON, NV, 89002",612988997,"R"
70111,"1521 LATHAM ST","COLTON","CA",92324,34.083261588,-117.338191435,111,"1521 LATHAM ST, COLTON, CA, 92324","Match","Exact","1521 LATHAM ST, COLTON, CA, 92324",144656850,"L"
70112,"1521 LAURENS ROAD STE 17481","GREENVILLE","SC",29606,NA,NA,112,"1521 LAURENS ROAD STE 17481, GREENVILLE, SC, 29606","No_Match",NA,NA,NA,NA
70113,"1521 LOCUST STREET 9TH FLOOR","PHILADELPHIA","PA",19102,39.9485198770001,-75.167007503,113,"1521 LOCUST STREET 9TH FLOOR, PHILADELPHIA, PA, 19102","Match","Exact","1521 LOCUST ST, PHILADELPHIA, PA, 19102",650127890,"R"
70114,"1521 MARTIN LUTHER KING JR BLVD","BRUNSWICK","GA",31520,31.1513830980001,-81.48822021,114,"1521 MARTIN LUTHER KING JR BLVD, BRUNSWICK, GA, 31520","Match","Exact","1521 MARTIN LUTHER KING JR BLVD, BRUNSWICK, GA, 31520",9136576,"R"
70115,"1521 MARTIN LUTHER KING","BRUNSWICK","GA",31520,31.1513830980001,-81.48822021,115,"1521 MARTIN LUTHER KING, BRUNSWICK, GA, 31520","Match","Non_Exact","1521 MARTIN LUTHER KING JR BLVD, BRUNSWICK, GA, 31520",9136576,"R"
70116,"1521 MERRYVALE COURT","LEWISVILLE","TX",75067,33.0477919080001,-97.0323458139999,116,"1521 MERRYVALE COURT, LEWISVILLE, TX, 75067","Match","Exact","1521 MERRYVALE CT, LEWISVILLE, TX, 75067",614161341,"R"
70117,"1521 MORNINGSIDE AVE","DULUTH","MN",55803,46.8355903980001,-92.058429405,117,"1521 MORNINGSIDE AVE, DULUTH, MN, 55803","Match","Exact","1521 MORNINGSIDE AVE, DULUTH, MN, 55803",163212185,"L"
70118,"1521 MOUNT MITCHELL CT","ANTIOCH","TN",37013,36.0848827560001,-86.659846054,118,"1521 MOUNT MITCHELL CT, ANTIOCH, TN, 37013","Match","Exact","1521 MOUNT MITCHELL CT, ANTIOCH, TN, 37013",97216144,"L"
70119,"1521 N COOPER ST SUITE 209","ARLINGTON","TX",76011,32.757722229,-97.114370262,119,"1521 N COOPER ST SUITE 209, ARLINGTON, TX, 76011","Match","Non_Exact","1521 N COOPER ST, ARLINGTON, TX, 76011",102138665,"R"
70120,"1521 N ILLINOIS STREET","SOUTH BEND","IN",46628,41.6946774100001,-86.300805968,120,"1521 N ILLINOIS STREET, SOUTH BEND, IN, 46628","Match","Exact","1521 N ILLINOIS ST, SOUTH BEND, IN, 46628",8051949,"L"
70121,"1521 NE 124TH ST","NORTH MIAMI","FL",33161,25.890134586,-80.167838968,121,"1521 NE 124TH ST, NORTH MIAMI, FL, 33161","Match","Exact","1521 NE 124TH ST, NORTH MIAMI, FL, 33161",116318351,"R"
70122,"1521 NEW FORD RD","SEYMOUR","IN",47274,38.955949681,-85.9123511989999,122,"1521 NEW FORD RD, SEYMOUR, IN, 47274","Match","Exact","1521 NEW FORD RD, SEYMOUR, IN, 47274",31246097,"R"
70123,"1521 NW 34TH ST","GAINESVILLE","FL",32605,29.665885158,-82.372370524,123,"1521 NW 34TH ST, GAINESVILLE, FL, 32605","Match","Exact","1521 NW 34TH ST, GAINESVILLE, FL, 32605",6805094,"R"
70124,"1521 NW 34TH ST","OKLAHOMA CITY","OK",73118,35.5052558350001,-97.537287728,124,"1521 NW 34TH ST, OKLAHOMA CITY, OK, 73118","Match","Exact","1521 NW 34TH ST, OKLAHOMA CITY, OK, 73118",617859523,"R"
70125,"1521 PEARL ST","DUNCAN","OK",73533,34.523989768,-97.965233919,125,"1521 PEARL ST, DUNCAN, OK, 73533","Match","Exact","1521 PEARL ST, DUNCAN, OK, 73533",13647936,"L"
70126,"1521 RAINY BROOK","SCHERTZ","TX",78154,29.592462835,-98.264561628,126,"1521 RAINY BROOK, SCHERTZ, TX, 78154","Match","Exact","1521 RAINY BROOK, SCHERTZ, TX, 78154",54856301,"L"
70127,"1521 RIALTO ST","OXNARD","CA",93035,34.1844138800001,-119.197724685,127,"1521 RIALTO ST, OXNARD, CA, 93035","Match","Exact","1521 RIALTO ST, OXNARD, CA, 93035",110115708,"R"
70128,"1521 RITCHIE HIGHWAY PO BOX 894","ARNOLD","MD",21012,NA,NA,128,"1521 RITCHIE HIGHWAY PO BOX 894, ARNOLD, MD, 21012","No_Match",NA,NA,NA,NA
70129,"1521 S 7TH STREET","LOS BANOS","CA",93635,37.0548135070001,-120.84763303,129,"1521 S 7TH STREET, LOS BANOS, CA, 93635","Match","Exact","1521 S 7TH ST, LOS BANOS, CA, 93635",125290904,"L"
70130,"1521 SEARS ROEBUCK RD","TULLAHOMA","TN",37388,35.409531809,-86.1534367099999,130,"1521 SEARS ROEBUCK RD, TULLAHOMA, TN, 37388","Match","Exact","1521 SEARS ROEBUCK RD, TULLAHOMA, TN, 37388",58236576,"L"
70131,"1521 SEGOVIA CIR","VERO BEACH","FL",32966,27.630377606,-80.448080993,131,"1521 SEGOVIA CIR, VERO BEACH, FL, 32966","Match","Exact","1521 SEGOVIA CIR, VERO BEACH, FL, 32966",640823645,"L"
70132,"1521 SEVILLE DRIVE","NEW ORLEANS","LA",70122,30.0097845390001,-90.076116579,132,"1521 SEVILLE DRIVE, NEW ORLEANS, LA, 70122","Match","Exact","1521 SEVILLE DR, NEW ORLEANS, LA, 70122",191703615,"L"
70133,"1521 SILVER MAPLE DRIVE","DE PERE","WI",54115,44.4174441650001,-88.110894109,133,"1521 SILVER MAPLE DRIVE, DE PERE, WI, 54115","Match","Exact","1521 SILVER MAPLE DR, DE PERE, WI, 54115",148122724,"L"
70134,"1521 SOUTH 40TH STREET","KANSAS CITY","KS",66106,39.0722749180001,-94.6748075679999,134,"1521 SOUTH 40TH STREET, KANSAS CITY, KS, 66106","Match","Exact","1521 S 40TH ST, KANSAS CITY, KS, 66106",91139085,"L"
70135,"1521 SPRINGSHIRE COURT","RALEIGH","NC",27610,35.756522691,-78.5842148839999,135,"1521 SPRINGSHIRE COURT, RALEIGH, NC, 27610","Match","Exact","1521 SPRINGSHIRE CT, RALEIGH, NC, 27610",208347360,"L"
70136,"1521 SW 122ND STREET","OKLAHOMA CITY","OK",73170,35.3460039550001,-97.5436389229999,136,"1521 SW 122ND STREET, OKLAHOMA CITY, OK, 73170","Match","Exact","1521 SW 122ND ST, OKLAHOMA CITY, OK, 73170",240923367,"R"
70137,"1521 THIRD STREET","EUREKA","CA",95501,40.805529542,-124.155518296,137,"1521 THIRD STREET, EUREKA, CA, 95501","Match","Exact","1521 3RD ST, EUREKA, CA, 95501",112988941,"R"
70138,"1521 THUNDERWOOD LANE NW","MABLETON","GA",30126,33.805056602,-84.598747766,138,"1521 THUNDERWOOD LANE NW, MABLETON, GA, 30126","Match","Non_Exact","1521 THUNDERWOOD LN, MABLETON, GA, 30126",17174859,"L"
70139,"1521 TURRIFF WAY","SAN JOSE","CA",95132,37.400511624,-121.861544211,139,"1521 TURRIFF WAY, SAN JOSE, CA, 95132","Match","Exact","1521 TURRIFF WAY, SAN JOSE, CA, 95132",122963137,"L"
70140,"1521 VALLEY RUN","DURHAM","NC",27707,35.962757004,-78.951959374,140,"1521 VALLEY RUN, DURHAM, NC, 27707","Match","Exact","1521 VALLEY RUN, DURHAM, NC, 27707",71787719,"R"
70141,"1521 VRGINIA STREET","MOBILE","AL",36604,30.674218997,-88.071528524,141,"1521 VRGINIA STREET, MOBILE, AL, 36604","Match","Non_Exact","1521 VIRGINIA ST, MOBILE, AL, 36604",61861719,"L"
70142,"1521 W RIVER SHORE WAY","TAMPA","FL",33603,27.9878123190001,-82.473982854,142,"1521 W RIVER SHORE WAY, TAMPA, FL, 33603","Match","Exact","1521 W RIVER SHORE WAY, TAMPA, FL, 33603",104520518,"R"
70143,"1521 WATERWHEEL DR 7","SACRAMENTO","CA",95833,38.6106177790001,-121.493807889,143,"1521 WATERWHEEL DR 7, SACRAMENTO, CA, 95833","Match","Exact","1521 WATERWHEEL DR, SACRAMENTO, CA, 95833",133317723,"R"
70144,"15210 MESA RED CT","CYPRESS","TX",77433,30.0084820340001,-95.757490745,144,"15210 MESA RED CT, CYPRESS, TX, 77433","Match","Exact","15210 MESA RED CT, CYPRESS, TX, 77433",624801066,"R"
70145,"15211 71ST ST NW","GRENORA","ND",58845,48.4455367940001,-103.972473113,145,"15211 71ST ST NW, GRENORA, ND, 58845","Match","Exact","15211 71ST ST NW, GRENORA, ND, 58845",646908596,"R"
70146,"15211 CREVAUX DR","CHARLOTTE","NC",28278,35.0761541900001,-81.0255977419999,146,"15211 CREVAUX DR, CHARLOTTE, NC, 28278","Match","Exact","15211 CREVAUX DR, CHARLOTTE, NC, 28278",634131922,"L"
70147,"15211 N RIVER BEACH DRIVE","CHILLICOTHE","IL",61523,40.8723918700001,-89.5068712459999,147,"15211 N RIVER BEACH DRIVE, CHILLICOTHE, IL, 61523","Match","Exact","15211 N RIVER BEACH DR, CHILLICOTHE, IL, 61523",649619884,"L"
70148,"15211 VANOWEN ST SUITE 204","VAN NUYS","CA",91405,34.193927027,-118.464175135,148,"15211 VANOWEN ST SUITE 204, VAN NUYS, CA, 91405","Match","Exact","15211 VANOWEN ST, VAN NUYS, CA, 91405",141560090,"R"
70149,"15212 E MELANIE DR","SCOTTSDALE","AZ",85262,33.7531120090001,-111.751959443,149,"15212 E MELANIE DR, SCOTTSDALE, AZ, 85262","Match","Exact","15212 E MELANIE DR, SCOTTSDALE, AZ, 85262",128859590,"L"
70150,"15212 HALL RD","KING GEORGE","VA",22485,38.3081933170001,-77.080848429,150,"15212 HALL RD, KING GEORGE, VA, 22485","Match","Exact","15212 HALL RD, KING GEORGE, VA, 22485",22058959,"L"
70151,"15212 NE 16TH PL UNIT 37","BELLEVUE","WA",98007,47.624643104,-122.135929558,151,"15212 NE 16TH PL UNIT 37, BELLEVUE, WA, 98007","Match","Non_Exact","15212 NE 16TH PL, BELLEVUE, WA, 98007",629179678,"L"
70152,"15213 PIONEER BLVD","NORWALK","CA",9650,NA,NA,152,"15213 PIONEER BLVD, NORWALK, CA, 9650","No_Match",NA,NA,NA,NA
70153,"15214 80TH DR N","WEST PALM BEACH","FL",33418,26.9009360630001,-80.160677306,153,"15214 80TH DR N, WEST PALM BEACH, FL, 33418","Match","Exact","15214 80TH DR N, WEST PALM BEACH, FL, 33418",115262230,"L"
70154,"15214 DALEBROOK DRIVE","BOWIE","MD",20721,NA,NA,154,"15214 DALEBROOK DRIVE, BOWIE, MD, 20721","No_Match",NA,NA,NA,NA
70155,"15214 SUNSET GROVE","SAN ANTONIO","TX",78247,29.580467562,-98.431108378,155,"15214 SUNSET GROVE, SAN ANTONIO, TX, 78247","Match","Exact","15214 SUNSET GROVE, SAN ANTONIO, TX, 78247",101546518,"L"
70156,"15214 WAYSIDE OAKS","SAN ANTONIO","TX",78232,29.585021957,-98.4568685039999,156,"15214 WAYSIDE OAKS, SAN ANTONIO, TX, 78232","Match","Exact","15214 WAYSIDE OAKS, SAN ANTONIO, TX, 78232",101498046,"R"
70157,"15215 ADDICKS STONE DR UNIT A","HOUSTON","TX",77082,29.7228690370001,-95.6578341059999,157,"15215 ADDICKS STONE DR UNIT A, HOUSTON, TX, 77082","Match","Exact","15215 ADDICKS STONE DR, HOUSTON, TX, 77082",634981419,"L"
70158,"15215 AMBERLY DRIVE UNIT 205","TAMPA","FL",33647,28.095783103,-82.404889694,158,"15215 AMBERLY DRIVE UNIT 205, TAMPA, FL, 33647","Match","Exact","15215 AMBERLY DR, TAMPA, FL, 33647",631410964,"L"
70159,"15215 AULLCIN CT","CHARLOTTE","NC",28278,35.0701551080001,-81.0244816489999,159,"15215 AULLCIN CT, CHARLOTTE, NC, 28278","Match","Exact","15215 AULLCIN CT, CHARLOTTE, NC, 28278",648436733,"R"
70160,"15215 NEW HAMPSHIRE","SILVER SPRING","MD",20905,39.1048524240001,-77.002442947,160,"15215 NEW HAMPSHIRE, SILVER SPRING, MD, 20905","Match","Non_Exact","15215 NEW HAMPSHIRE AVE, SILVER SPRING, MD, 20905",653270292,"L"
70161,"15215 S 48TH STREET SUITE 139","PHOENIX","AZ",85044,33.3064934540001,-111.980330408,161,"15215 S 48TH STREET SUITE 139, PHOENIX, AZ, 85044","Match","Non_Exact","15215 S 48TH ST, PHOENIX, AZ, 85044",128369021,"L"
70162,"15216 85TH AVE N","WEST PALM BEACH","FL",33418,26.9005426360001,-80.167932214,162,"15216 85TH AVE N, WEST PALM BEACH, FL, 33418","Match","Exact","15216 85TH AVE N, WEST PALM BEACH, FL, 33418",115524118,"L"
70163,"15216 BAREBACK DR","JACKSONVILLE","FL",32234,30.2106729130001,-81.951432059,163,"15216 BAREBACK DR, JACKSONVILLE, FL, 32234","Match","Exact","15216 BAREBACK DR, JACKSONVILLE, FL, 32234",641024182,"R"
70164,"15216 GOLDEN RAIN DRIVE","CHESTERFIELD","MO",63017,38.6294416650001,-90.553106891,164,"15216 GOLDEN RAIN DRIVE, CHESTERFIELD, MO, 63017","Match","Exact","15216 GOLDEN RAIN DR, CHESTERFIELD, MO, 63017",100173462,"L"
70165,"15216 GROVE RD","PORT WASHINGTON","OH",43837,40.25596797,-81.426236828,165,"15216 GROVE RD, PORT WASHINGTON, OH, 43837","Match","Exact","15216 GROVE RD, PORT WASHINGTON, OH, 43837",625147966,"L"
70166,"15216 ROCKPORT DR","SILVER SPRING","MD",20905,39.105351222,-77.014341321,166,"15216 ROCKPORT DR, SILVER SPRING, MD, 20905","Match","Exact","15216 ROCKPORT DR, SILVER SPRING, MD, 20905",62063261,"R"
70167,"15217 CARLI COURT","CRITTENDEN","KY",41030,38.809097324,-84.61526596,167,"15217 CARLI COURT, CRITTENDEN, KY, 41030","Match","Exact","15217 CARLI CT, CRITTENDEN, KY, 41030",81967461,"R"
70168,"15217 GRANT ST","OVERLAND PARK","KS",66221,38.852283777,-94.69656802,168,"15217 GRANT ST, OVERLAND PARK, KS, 66221","Match","Exact","15217 GRANT ST, OVERLAND PARK, KS, 66221",645790638,"R"
70169,"15217 LAKE BREEZE CIR","LAKE ELSINORE","CA",92530,33.6830214820001,-117.390849089,169,"15217 LAKE BREEZE CIR, LAKE ELSINORE, CA, 92530","Match","Exact","15217 LAKE BREEZE CIR, LAKE ELSINORE, CA, 92530",194844384,"R"
70170,"15217 N BERWICK LN","UPPER MARLBORO","MD",20774,38.8620035690001,-76.7445234639999,170,"15217 N BERWICK LN, UPPER MARLBORO, MD, 20774","Match","Exact","15217 N BERWICK LN, UPPER MARLBORO, MD, 20774",648124566,"L"
70171,"15217 PEBBLE FALLS","SAN ANTONIO","TX",77232,29.5845705460001,-98.44768289,171,"15217 PEBBLE FALLS, SAN ANTONIO, TX, 77232","Match","Non_Exact","15217 PEBBLE FALLS, SAN ANTONIO, TX, 78232",101498088,"R"
70172,"15218 CAROL CHASE CIRCLE","MISSOURI CITY","TX",77489,29.6058348510001,-95.5025983089999,172,"15218 CAROL CHASE CIRCLE, MISSOURI CITY, TX, 77489","Match","Exact","15218 CAROL CHASE CIR, MISSOURI CITY, TX, 77489",78285975,"L"
70173,"15218 FARMINGTON ROAD","LIVONIA","MI",48154,42.3962706090001,-83.373438504,173,"15218 FARMINGTON ROAD, LIVONIA, MI, 48154","Match","Exact","15218 FARMINGTON RD, LIVONIA, MI, 48154",95740769,"R"
70174,"15218 SUMMIT AVE 300-425","FONTANA","CA",92336,34.1504066700001,-117.468889243,174,"15218 SUMMIT AVE 300-425, FONTANA, CA, 92336","Match","Exact","15218 SUMMIT AVE, FONTANA, CA, 92336",145229402,"R"
70175,"15218 SUMMIT AVENUE STE 300-723","FONTANA","CA",92336,34.1504066700001,-117.468889243,175,"15218 SUMMIT AVENUE STE 300-723, FONTANA, CA, 92336","Match","Exact","15218 SUMMIT AVE, FONTANA, CA, 92336",145229402,"R"
70176,"15218 SUMMIT AVENUE SUITE 300 SPACE","FONTANA","CA",92336,34.1504066700001,-117.468889243,176,"15218 SUMMIT AVENUE SUITE 300 SPACE, FONTANA, CA, 92336","Match","Exact","15218 SUMMIT AVE, FONTANA, CA, 92336",145229402,"R"
70177,"15218 SUMMITT AVENUE 300-532","FONTANA","CA",92336,34.1504066700001,-117.468889243,177,"15218 SUMMITT AVENUE 300-532, FONTANA, CA, 92336","Match","Non_Exact","15218 SUMMIT AVE, FONTANA, CA, 92336",145229402,"R"
70178,"15219 CARVER CT","WATERFORD","VA",20197,39.196655843,-77.58284693,178,"15219 CARVER CT, WATERFORD, VA, 20197","Match","Exact","15219 CARVER CT, WATERFORD, VA, 20197",632189977,"R"
70179,"15219 PLAZA LIBRE","HOUSTON","TX",77083,29.6927966060001,-95.655182972,179,"15219 PLAZA LIBRE, HOUSTON, TX, 77083","Match","Non_Exact","15219 PLAZA LIBRE DR, HOUSTON, TX, 77083",96607915,"R"
70180,"15219 REEDS ST","OVERLAND PARK","KS",66223,38.8529135630001,-94.652259585,180,"15219 REEDS ST, OVERLAND PARK, KS, 66223","Match","Exact","15219 REEDS ST, OVERLAND PARK, KS, 66223",91292688,"L"
70181,"1522 55TH STREET","BROOKLYN","NY",11219,40.6286481490001,-73.990623767,181,"1522 55TH STREET, BROOKLYN, NY, 11219","Match","Exact","1522 55TH ST, BROOKLYN, NY, 11219",59080272,"R"
70182,"1522 BOLLING AVENUE","NORFOLK","VA",23508,36.8913138730001,-76.311322288,182,"1522 BOLLING AVENUE, NORFOLK, VA, 23508","Match","Exact","1522 BOLLING AVE, NORFOLK, VA, 23508",122131455,"R"
70183,"1522 BOULDER AVE","ONTARIO","CA",91762,NA,NA,183,"1522 BOULDER AVE, ONTARIO, CA, 91762","Tie",NA,NA,NA,NA
70184,"1522 BRIGHTON ROAD","PITTSBURGH","PA",15212,40.4569278970001,-80.015605239,184,"1522 BRIGHTON ROAD, PITTSBURGH, PA, 15212","Match","Exact","1522 BRIGHTON RD, PITTSBURGH, PA, 15212",647524969,"R"
70185,"1522 CAMINO CERRADO","SAN JOSE","CA",95128,NA,NA,185,"1522 CAMINO CERRADO, SAN JOSE, CA, 95128","No_Match",NA,NA,NA,NA
70186,"1522 CONSTITUTION BLVD 142","SALINAS","CA",93906,36.7003507100001,-121.62031716,186,"1522 CONSTITUTION BLVD 142, SALINAS, CA, 93906","Match","Non_Exact","1522 CONSTITUTION BLVD, SALINAS, CA, 93905",196840713,"L"
70187,"1522 CONSTITUTION BLVD BOX 222","SALINAS","CA",93905,36.7003507100001,-121.62031716,187,"1522 CONSTITUTION BLVD BOX 222, SALINAS, CA, 93905","Match","Exact","1522 CONSTITUTION BLVD, SALINAS, CA, 93905",196840713,"L"
70188,"1522 CORDOVA ST","POMONA","CA",91767,34.0744420140001,-117.720339132,188,"1522 CORDOVA ST, POMONA, CA, 91767","Match","Exact","1522 CORDOVA ST, POMONA, CA, 91767",142254453,"R"
70189,"1522 E 126TH ST","COMPTON","CA",90222,33.9183570430001,-118.247248845,189,"1522 E 126TH ST, COMPTON, CA, 90222","Match","Exact","1522 E 126TH ST, COMPTON, CA, 90222",141674660,"R"
70190,"1522 E HINSDALE AVE","DECATUR","IL",62526,39.888226896,-88.9357485629999,190,"1522 E HINSDALE AVE, DECATUR, IL, 62526","Match","Exact","1522 E HINSDALE AVE, DECATUR, IL, 62526",20747509,"L"
70191,"1522 E RUTHERFORD ST","LANDRUM","SC",29356,35.1795227040001,-82.1681559579999,191,"1522 E RUTHERFORD ST, LANDRUM, SC, 29356","Match","Exact","1522 E RUTHERFORD ST, LANDRUM, SC, 29356",621877801,"R"
70192,"1522 GREEN MEADOW DR","LUTZ","FL",33549,28.118703238,-82.441474243,192,"1522 GREEN MEADOW DR, LUTZ, FL, 33549","Match","Exact","1522 GREEN MEADOW DR, LUTZ, FL, 33549",104569748,"L"
70193,"1522 H STREET","MODESTO","CA",95354,37.6423252050001,-120.992947394,193,"1522 H STREET, MODESTO, CA, 95354","Match","Exact","1522 H ST, MODESTO, CA, 95354",102604758,"R"
70194,"1522 HAVEN CREST DRIVE","POWDER SPRINGS","GA",30127,33.9154854970001,-84.7076539289999,194,"1522 HAVEN CREST DRIVE, POWDER SPRINGS, GA, 30127","Match","Exact","1522 HAVEN CREST DR, POWDER SPGS, GA, 30127",17228752,"R"
70195,"1522 HORSECREEK ROAD","GALENA","MO",65656,36.83525238,-93.436908419,195,"1522 HORSECREEK ROAD, GALENA, MO, 65656","Match","Exact","1522 HORSECREEK RD, GALENA, MO, 65656",64842461,"L"
70196,"1522 MARSHALL DR","DUNCANVILLE","TX",75137,32.632118991,-96.884110089,196,"1522 MARSHALL DR, DUNCANVILLE, TX, 75137","Match","Exact","1522 MARSHALL DR, DUNCANVILLE, TX, 75137",103279963,"R"
70197,"1522 MEDITERRANEAN AVE","ATLANTIC CITY","NJ",8401,39.365456366,-74.432822749,197,"1522 MEDITERRANEAN AVE, ATLANTIC CITY, NJ, 8401","Match","Exact","1522 MEDITERRANEAN AVE, ATLANTIC CITY, NJ, 08401",646896327,"L"
70198,"1522 NAUTILUS STREET","LA JOLLA","CA",92037,32.833258754,-117.261171926,198,"1522 NAUTILUS STREET, LA JOLLA, CA, 92037","Match","Exact","1522 NAUTILUS ST, LA JOLLA, CA, 92037",650438967,"L"
70199,"1522 OMEGA AVE","DAYTON","OH",45406,39.7790034340001,-84.249196576,199,"1522 OMEGA AVE, DAYTON, OH, 45406","Match","Exact","1522 OMEGA AVE, DAYTON, OH, 45406",143566715,"R"
70200,"1522 ORANGE ST","MOBILE","AL",36605,30.664126997,-88.073266304,200,"1522 ORANGE ST, MOBILE, AL, 36605","Match","Exact","1522 ORANGE ST, MOBILE, AL, 36605",61862940,"R"
70201,"1522 PARKMONT DRIVE","SAN JOSE","CA",95131,37.3808588320001,-121.891147871,201,"1522 PARKMONT DRIVE, SAN JOSE, CA, 95131","Match","Exact","1522 PARKMONT DR, SAN JOSE, CA, 95131",123009323,"R"
70202,"1522 POPPYBANK COURT","PLEASANTON","CA",94566,37.6795950910001,-121.867195143,202,"1522 POPPYBANK COURT, PLEASANTON, CA, 94566","Match","Exact","1522 POPPYBANK CT, PLEASANTON, CA, 94566",125079894,"L"
70203,"1522 REDBIRD DRIVE","ROCKPORT","TX",78382,28.026677003,-97.080002775,203,"1522 REDBIRD DRIVE, ROCKPORT, TX, 78382","Match","Exact","1522 REDBIRD DR, ROCKPORT, TX, 78382",83247616,"R"
70204,"1522 S 1700 E","SPANISH FORK","UT",84660,40.0904115160001,-111.62601181,204,"1522 S 1700 E, SPANISH FORK, UT, 84660","Match","Exact","1522 S 1700 E, SPANISH FORK, UT, 84660",227059688,"L"
70205,"1522 SCHAFER AVE","BOLINGBROOK","IL",60490,41.6694022720001,-88.135071336,205,"1522 SCHAFER AVE, BOLINGBROOK, IL, 60490","Match","Exact","1522 SCHAFER AVE, BOLINGBROOK, IL, 60490",111610719,"R"
70206,"1522 SOUTH 500 EAST","SALT LAKE CITY","UT",84105,40.7364220690001,-111.876775106,206,"1522 SOUTH 500 EAST, SALT LAKE CITY, UT, 84105","Match","Exact","1522 S 500 E, SALT LAKE CITY, UT, 84105",176078375,"R"
70207,"1522 SOUTH WASHINGTON STREET","NEW ULM","MN",56073,44.296290356,-94.4489621179999,207,"1522 SOUTH WASHINGTON STREET, NEW ULM, MN, 56073","Match","Exact","1522 S WASHINGTON ST, NEW ULM, MN, 56073",28569234,"L"
70208,"1522 SPENCE STREET","GREEN BAY","WI",54304,44.5074302720001,-88.057033068,208,"1522 SPENCE STREET, GREEN BAY, WI, 54304","Match","Exact","1522 SPENCE ST, GREEN BAY, WI, 54304",148099437,"R"
70209,"1522 SW 7TH CIRCLE","CAMAS","WA",98607,45.579127165,-122.426825257,209,"1522 SW 7TH CIRCLE, CAMAS, WA, 98607","Match","Exact","1522 SW 7TH CIR, CAMAS, WA, 98607",158344790,"R"
70210,"1522 TENNIS CLUB ROAD","CHARLESTON","WV",25314,38.3343170420001,-81.656262141,210,"1522 TENNIS CLUB ROAD, CHARLESTON, WV, 25314","Match","Exact","1522 TENNIS CLUB RD, CHARLESTON, WV, 25314",78647459,"R"
70211,"1522 URSULINE","NEW ORLEANS","LA",70116,NA,NA,211,"1522 URSULINE, NEW ORLEANS, LA, 70116","No_Match",NA,NA,NA,NA
70212,"1522 VISTA CLUB CIR APT 203","SANTA CLARA","CA",95054,37.402692814,-121.953670072,212,"1522 VISTA CLUB CIR APT 203, SANTA CLARA, CA, 95054","Match","Exact","1522 VISTA CLUB CIR, SANTA CLARA, CA, 95054",635858954,"R"
70213,"1522 W SUNNYSIDE AVE APT 1WS","CHICAGO","IL",60640,41.9634315910001,-87.668606858,213,"1522 W SUNNYSIDE AVE APT 1WS, CHICAGO, IL, 60640","Match","Non_Exact","1522 W SUNNYSIDE AVE, CHICAGO, IL, 60640",605188853,"R"
70214,"1522 WATERFALL WAY","ELSMERE","KY",41018,39.0000506060001,-84.592602851,214,"1522 WATERFALL WAY, ELSMERE, KY, 41018","Match","Exact","1522 WATERFALL WAY, ELSMERE, KY, 41018",103885679,"L"
70215,"15220 LEGENDARY DRIVE","MORENO VALLEY","CA",92555,33.8995805480001,-117.180721094,215,"15220 LEGENDARY DRIVE, MORENO VALLEY, CA, 92555","Match","Exact","15220 LEGENDARY DR, MORENO VALLEY, CA, 92555",608990539,"R"
70216,"15220 N 27TH ST","PHOENIX","AZ",85032,33.6252190970001,-112.024238936,216,"15220 N 27TH ST, PHOENIX, AZ, 85032","Match","Non_Exact","15220 N 27TH ST, PHOENIX, AZ, 85032",128185078,"L"
70217,"15220 NE 15TH PL APT D","BELLEVUE","WA",98007,47.6235408650001,-122.137131444,217,"15220 NE 15TH PL APT D, BELLEVUE, WA, 98007","Match","Non_Exact","15220 NE 15TH PL, BELLEVUE, WA, 98007",628029798,"R"
70218,"15220 NE 15TH PL UNIT D","BELLEVUE","WA",98007,47.6235408650001,-122.137131444,218,"15220 NE 15TH PL UNIT D, BELLEVUE, WA, 98007","Match","Non_Exact","15220 NE 15TH PL, BELLEVUE, WA, 98007",628029798,"R"
70219,"15220 OAK RIDGE WAY","LOS GATOS","CA",95030,37.247493347,-121.968830761,219,"15220 OAK RIDGE WAY, LOS GATOS, CA, 95030","Match","Exact","15220 OAK RIDGE WAY, LOS GATOS, CA, 95030",648060475,"L"
70220,"15220 SAN MORITZ DRIVE","PINE MOUNTAIN CLUB","CA",93222,NA,NA,220,"15220 SAN MORITZ DRIVE, PINE MOUNTAIN CLUB, CA, 93222","No_Match",NA,NA,NA,NA
70221,"15220 SW 139 STREET","MIAMI","FL",33196,25.637299569,-80.4408015989999,221,"15220 SW 139 STREET, MIAMI, FL, 33196","Match","Exact","15220 SW 139TH ST, MIAMI, FL, 33196",116263230,"R"
70222,"15221 COLFAX ST","LOWELL","IN",46356,41.3420038620001,-87.411900523,222,"15221 COLFAX ST, LOWELL, IN, 46356","Match","Exact","15221 COLFAX ST, LOWELL, IN, 46356",98441734,"L"
70223,"15221 MAGNOLIA BLVD UNIT E","SHERMAN OAKS","CA",91403,34.1648555240001,-118.465007339,223,"15221 MAGNOLIA BLVD UNIT E, SHERMAN OAKS, CA, 91403","Match","Exact","15221 MAGNOLIA BLVD, SHERMAN OAKS, CA, 91403",141560450,"R"
70224,"15221 S MILLER RD","LONE JACK","MO",64070,38.838128205,-94.156423205,224,"15221 S MILLER RD, LONE JACK, MO, 64070","Match","Exact","15221 S MILLER RD, LONE JACK, MO, 64070",653449311,"L"
70225,"15221 SW 46TH CT","MIRAMAR","FL",33027,25.965654608,-80.34882078,225,"15221 SW 46TH CT, MIRAMAR, FL, 33027","Match","Exact","15221 SW 46TH CT, MIRAMAR, FL, 33027",114778062,"L"
70226,"15222 1-4 DICKENS ST","SHERMAN OAKS","CA",91403,NA,NA,226,"15222 1-4 DICKENS ST, SHERMAN OAKS, CA, 91403","No_Match",NA,NA,NA,NA
70227,"15222 MILL POND RD","TAVARES","FL",32778,28.7744818670001,-81.704224957,227,"15222 MILL POND RD, TAVARES, FL, 32778","Match","Exact","15222 MILL POND RD, TAVARES, FL, 32778",94113810,"L"
70228,"15222 SE WOODLAND WY","MILWAUKIE","OR",97267,45.4130816960001,-122.635012503,228,"15222 SE WOODLAND WY, MILWAUKIE, OR, 97267","Match","Exact","15222 SE WOODLAND WAY, MILWAUKIE, OR, 97267",157975393,"L"
70229,"15222 SW FIRTREE DR","TIGARD","OR",97223,45.424652828,-122.832762038,229,"15222 SW FIRTREE DR, TIGARD, OR, 97223","Match","Exact","15222 SW FIRTREE DR, TIGARD, OR, 97223",158216891,"R"
70230,"15224 E STRATFORD ST","WICHITA","KS",67230,37.696495005,-97.1612539339999,230,"15224 E STRATFORD ST, WICHITA, KS, 67230","Match","Non_Exact","15224 STRATFORD ROW, WICHITA, KS, 67230",115682930,"R"
70231,"15224 EASTWOOD AVENUE","LAWNDALE","CA",90260,33.8929877090001,-118.34745765,231,"15224 EASTWOOD AVENUE, LAWNDALE, CA, 90260","Match","Exact","15224 EASTWOOD AVE, LAWNDALE, CA, 90260",142752653,"L"
70232,"15224 N 6TH CIRCLE","PHOENIX","AZ",85023,33.6243878450001,-112.081018389,232,"15224 N 6TH CIRCLE, PHOENIX, AZ, 85023","Match","Exact","15224 N 6TH CIR, PHOENIX, AZ, 85023",128181755,"L"
70233,"15224 SHIAWASSEE DRIVE","BYRON","MI",48418,42.808814511,-83.882886245,233,"15224 SHIAWASSEE DRIVE, BYRON, MI, 48418","Match","Exact","15224 SHIAWASSEE DR, BYRON, MI, 48418",624676515,"R"
70234,"15224 W 82ND TERRACE","LENEXA","KS",66219,38.9790889710001,-94.7626154879999,234,"15224 W 82ND TERRACE, LENEXA, KS, 66219","Match","Exact","15224 W 82ND TER, LENEXA, KS, 66219",91297736,"R"
70235,"15225 DICKENS ST 3","SHERMANOAKS","CA",91403,34.1522977710001,-118.464527664,235,"15225 DICKENS ST 3, SHERMANOAKS, CA, 91403","Match","Non_Exact","15225 DICKENS ST, SHERMAN OAKS, CA, 91403",638360886,"R"
70236,"15225 HELIUM STREET NW","RAMSEY","MN",55303,45.246701855,-93.409703306,236,"15225 HELIUM STREET NW, RAMSEY, MN, 55303","Match","Exact","15225 HELIUM ST NW, RAMSEY, MN, 55303",618065169,"R"
70237,"15225 LUCKNOW AVENUE","CLEVELAND","OH",44110,41.57158099,-81.574726351,237,"15225 LUCKNOW AVENUE, CLEVELAND, OH, 44110","Match","Exact","15225 LUCKNOW AVE, CLEVELAND, OH, 44110",61120961,"L"
70238,"15225 VILLAGE DR UNIT A","HAMMOND","LA",70403,NA,NA,238,"15225 VILLAGE DR UNIT A, HAMMOND, LA, 70403","No_Match",NA,NA,NA,NA
70239,"15226 DOBBS AVE","BAKERSFIELD","CA",93314,35.385984744,-119.171501339,239,"15226 DOBBS AVE, BAKERSFIELD, CA, 93314","Match","Exact","15226 DOBBS AVE, BAKERSFIELD, CA, 93314",109136099,"L"
70240,"15226 SUPERIOR ST","CHARLOTTE","NC",28273,35.089036508,-80.9850434749999,240,"15226 SUPERIOR ST, CHARLOTTE, NC, 28273","Match","Exact","15226 SUPERIOR ST, CHARLOTTE, NC, 28273",70626875,"L"
70241,"15226 WINCHESTER AVE","HARVEY","IL",60426,41.6129873990001,-87.6644302189999,241,"15226 WINCHESTER AVE, HARVEY, IL, 60426","Match","Exact","15226 WINCHESTER AVE, HARVEY, IL, 60426",111705512,"R"
70242,"15227 OLD RICHMOND RD","SUGAR LAND","TX",77498,29.668179384,-95.6490729779999,242,"15227 OLD RICHMOND RD, SUGAR LAND, TX, 77498","Match","Exact","15227 OLD RICHMOND RD, SUGAR LAND, TX, 77498",627293488,"R"
70243,"15229 MEMORIAL CIRCLE","PANAMA CITY","FL",32413,30.2937199790001,-85.8636294199999,243,"15229 MEMORIAL CIRCLE, PANAMA CITY, FL, 32413","Match","Exact","15229 MEMORIAL CIR, PANAMA CITY, FL, 32413",7042526,"R"
70244,"15229 RED CANOE WAY","CHARLOTTE","NC",28278,35.0553129510001,-81.029563127,244,"15229 RED CANOE WAY, CHARLOTTE, NC, 28278","Match","Exact","15229 RED CANOE WAY, CHARLOTTE, NC, 28278",648376748,"L"
70245,"1522B EUCALYPTUS HILL ROAD","SANTA BARBARA","CA",93103,34.426624234,-119.670120221,245,"1522B EUCALYPTUS HILL ROAD, SANTA BARBARA, CA, 93103","Match","Exact","1522 EUCALYPTUS HILL RD, SANTA BARBARA, CA, 93103",640554952,"R"
70246,"1523 132ND ST SE  SUITE C  NO 409","EVERETT","WA",98208,47.8786820940001,-122.211752121,246,"1523 132ND ST SE  SUITE C  NO 409, EVERETT, WA, 98208","Match","Exact","1523 132ND ST SE, EVERETT, WA, 98208",187824265,"L"
70247,"1523 132ND ST SE STE C 302","EVERETT","WA",98208,47.8786820940001,-122.211752121,247,"1523 132ND ST SE STE C 302, EVERETT, WA, 98208","Match","Exact","1523 132ND ST SE, EVERETT, WA, 98208",187824265,"L"
70248,"1523 132ND ST SE STE C 424","EVERETT","WA",98208,47.8786820940001,-122.211752121,248,"1523 132ND ST SE STE C 424, EVERETT, WA, 98208","Match","Exact","1523 132ND ST SE, EVERETT, WA, 98208",187824265,"L"
70249,"1523 132ND ST SE STE C350","EVERETT","WA",98208,47.8786820940001,-122.211752121,249,"1523 132ND ST SE STE C350, EVERETT, WA, 98208","Match","Exact","1523 132ND ST SE, EVERETT, WA, 98208",187824265,"L"
70250,"1523 132ND STREET SE - C112","EVERETT","WA",98208,47.8786820940001,-122.211752121,250,"1523 132ND STREET SE - C112, EVERETT, WA, 98208","Match","Exact","1523 132ND ST SE, EVERETT, WA, 98208",187824265,"L"
70251,"1523 29TH AVENUE NORTH","ST CLOUD","MN",56303,45.578260105,-94.193013249,251,"1523 29TH AVENUE NORTH, ST CLOUD, MN, 56303","Match","Exact","1523 29TH AVE N, SAINT CLOUD, MN, 56303",107414011,"L"
70252,"1523 4TH AVENUE","LAKE CHARLES","LA",70601,30.219975995,-93.193040664,252,"1523 4TH AVENUE, LAKE CHARLES, LA, 70601","Match","Exact","1523 4TH AVE, LAKE CHARLES, LA, 70601",88436870,"L"
70253,"1523 5TH AVENUE SOUTH","ANOKA","MN",55303,45.1951358490001,-93.383608937,253,"1523 5TH AVENUE SOUTH, ANOKA, MN, 55303","Match","Non_Exact","1523 5TH AVE, ANOKA, MN, 55303",97483321,"L"
70254,"1523 BOULEVARD PLACE","DULUTH","MN",55811,46.8059272830001,-92.107159758,254,"1523 BOULEVARD PLACE, DULUTH, MN, 55811","Match","Exact","1523 BOULEVARD PL, DULUTH, MN, 55811",163211577,"L"
70255,"1523 CHAFFEE ROAD S UNIT 15","JACKSONVILLE","FL",32221,30.2918839060001,-81.848554083,255,"1523 CHAFFEE ROAD S UNIT 15, JACKSONVILLE, FL, 32221","Match","Exact","1523 CHAFFEE RD S, JACKSONVILLE, FL, 32221",83961526,"L"
70256,"1523 CHESAPEAKE AVE 10","COLUMBUS","OH",43212,39.9928912230001,-83.048195181,256,"1523 CHESAPEAKE AVE 10, COLUMBUS, OH, 43212","Match","Exact","1523 CHESAPEAKE AVE, COLUMBUS, OH, 43212",218652589,"L"
70257,"1523 CORDGRASS WAY","LAKELAND","FL",33813,27.9520558040001,-81.9392574779999,257,"1523 CORDGRASS WAY, LAKELAND, FL, 33813","Match","Non_Exact","1523 CORD GRASS WAY, LAKELAND, FL, 33813",651870883,"L"
70258,"1523 DAVIS AVE","PITTSBURGH","PA",15212,40.48071423,-80.038353506,258,"1523 DAVIS AVE, PITTSBURGH, PA, 15212","Match","Exact","1523 DAVIS AVE, PITTSBURGH, PA, 15212",51622994,"L"
70259,"1523 E ERWIN STREET","TYLER","TX",75702,32.3511724530001,-95.282130533,259,"1523 E ERWIN STREET, TYLER, TX, 75702","Match","Exact","1523 E ERWIN ST, TYLER, TX, 75702",141273259,"R"
70260,"1523 E PARK CREEK RD","FALL CREEK","WI",54742,44.803324081,-91.359344702,260,"1523 E PARK CREEK RD, FALL CREEK, WI, 54742","Match","Exact","1523 E PARK CREEK RD, FALL CREEK, WI, 54742",639991285,"R"
70261,"1523 EAST HILLSBORO BVD APT 434","DEERFIELD BEACH","FL",33441,26.315247652,-80.0856232,261,"1523 EAST HILLSBORO BVD APT 434, DEERFIELD BEACH, FL, 33441","Match","Exact","1523 E HILLSBORO BLVD, DEERFIELD BEACH, FL, 33441",114810668,"L"
70262,"1523 ELIZABETH AVE SUITE 200","CHARLOTTE","NC",28204,35.214502232,-80.827569464,262,"1523 ELIZABETH AVE SUITE 200, CHARLOTTE, NC, 28204","Match","Exact","1523 ELIZABETH AVE, CHARLOTTE, NC, 28204",70487810,"L"
70263,"1523 ELIZABETH AVENUE SUITE 200","CHARLOTTE","NC",28204,35.214502232,-80.827569464,263,"1523 ELIZABETH AVENUE SUITE 200, CHARLOTTE, NC, 28204","Match","Exact","1523 ELIZABETH AVE, CHARLOTTE, NC, 28204",70487810,"L"
70264,"1523 FAIRWAY DR","RANTOUL","IL",61866,40.304138912,-88.131081523,264,"1523 FAIRWAY DR, RANTOUL, IL, 61866","Match","Exact","1523 FAIRWAY DR, RANTOUL, IL, 61866",8807131,"R"
70265,"1523 FINLEY STREET","CEDAR HILL","TX",75104,32.6218090350001,-96.959364366,265,"1523 FINLEY STREET, CEDAR HILL, TX, 75104","Match","Exact","1523 FINLEY ST, CEDAR HILL, TX, 75104",103174723,"L"
70266,"1523 GULF BEACH HWY LOT 13","PENSACOLA","FL",32507,30.3859299210001,-87.293120616,266,"1523 GULF BEACH HWY LOT 13, PENSACOLA, FL, 32507","Match","Exact","1523 GULF BEACH HWY, PENSACOLA, FL, 32507",93216360,"L"
70267,"1523 HIGHWAY 178 WEST","MIDWAY","AR",72651,NA,NA,267,"1523 HIGHWAY 178 WEST, MIDWAY, AR, 72651","No_Match",NA,NA,NA,NA
70268,"1523 LINDLEY AVENUE","PHILADELPHIA","PA",19141,40.0309645030001,-75.149052903,268,"1523 LINDLEY AVENUE, PHILADELPHIA, PA, 19141","Match","Exact","1523 LINDLEY AVE, PHILADELPHIA, PA, 19141",131416773,"R"
70269,"1523 MADISON ST","MADISON","WI",53711,43.066961099,-89.4122541039999,269,"1523 MADISON ST, MADISON, WI, 53711","Match","Exact","1523 MADISON ST, MADISON, WI, 53711",49469293,"L"
70270,"1523 MALCOLM AVE","LOS ANGELES","CA",90024,34.054847054,-118.438684753,270,"1523 MALCOLM AVE, LOS ANGELES, CA, 90024","Match","Exact","1523 MALCOLM AVE, LOS ANGELES, CA, 90024",141567871,"R"
70271,"1523 N SHERIDAN RD","WAUKEGAN","IL",60085,42.381463497,-87.831616256,271,"1523 N SHERIDAN RD, WAUKEGAN, IL, 60085","Match","Exact","1523 N SHERIDAN RD, WAUKEGAN, IL, 60085",119629958,"R"
70272,"1523 NICOLLET AVENUE","MINNEAPOLIS","MN",55403,44.967580055,-93.2778066239999,272,"1523 NICOLLET AVENUE, MINNEAPOLIS, MN, 55403","Match","Exact","1523 NICOLLET AVE, MINNEAPOLIS, MN, 55403",43632147,"L"
70273,"1523 NORTHAMPTON RD","KALAMAZOO","MI",49006,42.306189961,-85.64039869,273,"1523 NORTHAMPTON RD, KALAMAZOO, MI, 49006","Match","Exact","1523 NORTHAMPTON RD, KALAMAZOO, MI, 49006",12223434,"L"
70274,"1523 NORTHLAND AVE","LAKEWOOD","OH",44107,41.4829572670001,-81.810417994,274,"1523 NORTHLAND AVE, LAKEWOOD, OH, 44107","Match","Exact","1523 NORTHLAND AVE, LAKEWOOD, OH, 44107",61100034,"L"
70275,"1523 PATRICIA STREET","KEY WEST","FL",33040,24.5505496110001,-81.782082224,275,"1523 PATRICIA STREET, KEY WEST, FL, 33040","Match","Exact","1523 PATRICIA ST, KEY WEST, FL, 33040",116475359,"L"
70276,"1523 PRIPET WOOD LN","ISLESBORO","ME",4848,44.3777163770001,-68.8716786209999,276,"1523 PRIPET WOOD LN, ISLESBORO, ME, 4848","Match","Non_Exact","1523 PRIPET WOODS LN, ISLESBORO, ME, 04848",75649716,"R"
70277,"1523 ROSEDALE STREET","FLORENCE","SC",29501,34.1676224130001,-79.800660802,277,"1523 ROSEDALE STREET, FLORENCE, SC, 29501","Match","Exact","1523 ROSEDALE ST, FLORENCE, SC, 29501",28877819,"R"
70278,"1523 ROSWELL RD UNIT 324","MARIETTA","GA",30062,33.9510161760001,-84.509012652,278,"1523 ROSWELL RD UNIT 324, MARIETTA, GA, 30062","Match","Exact","1523 ROSWELL RD, MARIETTA, GA, 30062",649401444,"R"
70279,"1523 ROSWELL ROAD 229","MARIETTA","GA",30062,33.9510161760001,-84.509012652,279,"1523 ROSWELL ROAD 229, MARIETTA, GA, 30062","Match","Exact","1523 ROSWELL RD, MARIETTA, GA, 30062",649401444,"R"
70280,"1523 RUGBY BLVD NW","ROANOKE","VA",24017,37.2903524060001,-79.960062579,280,"1523 RUGBY BLVD NW, ROANOKE, VA, 24017","Match","Exact","1523 RUGBY BLVD NW, ROANOKE, VA, 24017",62904231,"R"
70281,"1523 SALISBURY DRIVE","BATON ROUGE","LA",70816,30.446325616,-91.0186609259999,281,"1523 SALISBURY DRIVE, BATON ROUGE, LA, 70816","Match","Exact","1523 SALISBURY DR, BATON ROUGE, LA, 70816",92194548,"L"
70282,"1523 SEQUOYAH ACCESS ROAD","SODDY DAISY","TN",37379,35.231433533,-85.138371628,282,"1523 SEQUOYAH ACCESS ROAD, SODDY DAISY, TN, 37379","Match","Exact","1523 SEQUOYAH ACCESS RD, SODDY DAISY, TN, 37379",59340629,"R"
70283,"1523 SR 13","FRUIT COVE","FL",32259,30.088755726,-81.630722399,283,"1523 SR 13, FRUIT COVE, FL, 32259","Match","Non_Exact","1523 STATE HWY 13, FRUIT COVE, FL, 32259",92594572,"R"
70284,"1523 STONEHEDGE BEND DRIVE","HOUSTON","TX",77073,29.9679685140001,-95.377355655,284,"1523 STONEHEDGE BEND DRIVE, HOUSTON, TX, 77073","Match","Exact","1523 STONEHEDGE BEND DR, HOUSTON, TX, 77073",623808485,"R"
70285,"1523 SUMMERSIDE DRIVE","ALLEN","TX",75002,33.082724306,-96.63074491,285,"1523 SUMMERSIDE DRIVE, ALLEN, TX, 75002","Match","Exact","1523 SUMMERSIDE DR, ALLEN, TX, 75002",123560228,"L"
70286,"1523 SW 2CT","HOMESTEAD","FL",33030,NA,NA,286,"1523 SW 2CT, HOMESTEAD, FL, 33030","No_Match",NA,NA,NA,NA
70287,"1523 TOWN CENTER DRIVE","LAKELAND","FL",33803,NA,NA,287,"1523 TOWN CENTER DRIVE, LAKELAND, FL, 33803","No_Match",NA,NA,NA,NA
70288,"1523 W EDGEWATER 1W","CHICAGO","IL",60660,NA,NA,288,"1523 W EDGEWATER 1W, CHICAGO, IL, 60660","No_Match",NA,NA,NA,NA
70289,"1523 W GALENA BLVD","AURORA","IL",60506,41.763441949,-88.353465227,289,"1523 W GALENA BLVD, AURORA, IL, 60506","Match","Exact","1523 W GALENA BLVD, AURORA, IL, 60506",119514045,"R"
70290,"1523 W LUNT","CHICAGO","IL",60626,42.009067015,-87.668832282,290,"1523 W LUNT, CHICAGO, IL, 60626","Match","Non_Exact","1523 W LUNT AVE, CHICAGO, IL, 60626",605265497,"L"
70291,"1523 W SEYBERT ST","PHILADELPHIA","PA",19121,39.9738875420001,-75.161089804,291,"1523 W SEYBERT ST, PHILADELPHIA, PA, 19121","Match","Exact","1523 W SEYBERT ST, PHILADELPHIA, PA, 19121",131406267,"R"
70292,"1523 WEBSTER AVE","ST LOUIS","MO",63106,38.647317087,-90.222437674,292,"1523 WEBSTER AVE, ST LOUIS, MO, 63106","Match","Exact","1523 WEBSTER AVE, SAINT LOUIS, MO, 63106",639790736,"L"
70293,"1523 WEST 66TH AVENUE","PHILADELPHIA","PA",19126,40.0538747730001,-75.1436079709999,293,"1523 WEST 66TH AVENUE, PHILADELPHIA, PA, 19126","Match","Non_Exact","1523 66TH AVE, PHILADELPHIA, PA, 19126",131413738,"R"
70294,"1523 YALE AVE","RICHMOND","VA",23224,37.4958054890001,-77.457863211,294,"1523 YALE AVE, RICHMOND, VA, 23224","Match","Exact","1523 YALE AVE, RICHMOND, VA, 23224",201542289,"L"
70295,"15230 BIRMINGHAM HIGHWAY","ALPHARETTA","GA",30004,34.1522106310001,-84.3428849269999,295,"15230 BIRMINGHAM HIGHWAY, ALPHARETTA, GA, 30004","Match","Exact","15230 BIRMINGHAM HWY, ALPHARETTA, GA, 30004",647364231,"L"
70296,"15230 HARROWGATE ROAD","CHESTER","VA",23831,37.3110030300001,-77.4295243999999,296,"15230 HARROWGATE ROAD, CHESTER, VA, 23831","Match","Exact","15230 HARROWGATE RD, CHESTER, VA, 23831",201574606,"R"
70297,"15230 SW 108TH AVE","MIAMI","FL",33157,25.6272252640001,-80.3681725389999,297,"15230 SW 108TH AVE, MIAMI, FL, 33157","Match","Exact","15230 SW 108TH AVE, MIAMI, FL, 33157",115982054,"R"
70298,"15230 SW 31ST LANE","MIAMI","FL",33185,25.737579414,-80.4407657689999,298,"15230 SW 31ST LANE, MIAMI, FL, 33185","Match","Exact","15230 SW 31 LN, MIAMI, FL, 33185",625093403,"L"
70299,"15231 HOLCOMB CIR","CLIVE","IA",50235,41.6158976670001,-93.827760045,299,"15231 HOLCOMB CIR, CLIVE, IA, 50235","Match","Non_Exact","15231 HOLCOMB CIR, CLIVE, IA, 50325",65639457,"R"
70300,"15231 SE SHALE DR","DAMASCUS","OR",97089,45.406345936,-122.507408899,300,"15231 SE SHALE DR, DAMASCUS, OR, 97089","Match","Exact","15231 SE SHALE DR, DAMASCUS, OR, 97089",648139424,"L"
70301,"15231 WESTERN SKIES DR","HOUSTON","TX",77086,29.9321271380001,-95.512803655,301,"15231 WESTERN SKIES DR, HOUSTON, TX, 77086","Match","Exact","15231 WESTERN SKIES DR, HOUSTON, TX, 77086",624157694,"R"
70302,"15233 CEDAR RIDGE","HOUSTON","TX",77082,29.7113472990001,-95.657083883,302,"15233 CEDAR RIDGE, HOUSTON, TX, 77082","Match","Non_Exact","15233 CEDAR RIDGE DR, HOUSTON, TX, 77082",96017436,"R"
70303,"15233 SE 57TH ST","CHOCTAW","OK",73020,35.4099148610001,-97.2614564309999,303,"15233 SE 57TH ST, CHOCTAW, OK, 73020","Match","Exact","15233 SE 57TH ST, CHOCTAW, OK, 73020",646686848,"L"
70304,"15233 VENTURA BLVD  STE 1210","SHERMAN OAKS","CA",91403,34.153588638,-118.464783927,304,"15233 VENTURA BLVD  STE 1210, SHERMAN OAKS, CA, 91403","Match","Exact","15233 VENTURA BLVD, SHERMAN OAKS, CA, 91403",141560637,"R"
70305,"15233 VENTURA BLVD STE 1004","SHERMAN OAKS","CA",91403,34.153588638,-118.464783927,305,"15233 VENTURA BLVD STE 1004, SHERMAN OAKS, CA, 91403","Match","Exact","15233 VENTURA BLVD, SHERMAN OAKS, CA, 91403",141560637,"R"
70306,"15233 VENTURA BLVD STE 1210","SHERMAN OAKS","CA",91403,34.153588638,-118.464783927,306,"15233 VENTURA BLVD STE 1210, SHERMAN OAKS, CA, 91403","Match","Exact","15233 VENTURA BLVD, SHERMAN OAKS, CA, 91403",141560637,"R"
70307,"15233 VENTURA BLVD SUITE 100","SHERMAN OAKS","CA",91403,34.153588638,-118.464783927,307,"15233 VENTURA BLVD SUITE 100, SHERMAN OAKS, CA, 91403","Match","Exact","15233 VENTURA BLVD, SHERMAN OAKS, CA, 91403",141560637,"R"
70308,"15233 VENTURA BLVD SUITE 1210","SHERMAN OAKS","CA",91403,34.153588638,-118.464783927,308,"15233 VENTURA BLVD SUITE 1210, SHERMAN OAKS, CA, 91403","Match","Exact","15233 VENTURA BLVD, SHERMAN OAKS, CA, 91403",141560637,"R"
70309,"15233 VENTURA BVLD SUITE 1210","SHERMAN OAKS","CA",91403,34.153588638,-118.464783927,309,"15233 VENTURA BVLD SUITE 1210, SHERMAN OAKS, CA, 91403","Match","Exact","15233 VENTURA BLVD, SHERMAN OAKS, CA, 91403",141560637,"R"
70310,"15234 BULL RUN DR","FRISCO","TX",75035,33.1749261050001,-96.7426642459999,310,"15234 BULL RUN DR, FRISCO, TX, 75035","Match","Exact","15234 BULL RUN DR, FRISCO, TX, 75035",619598364,"R"
70311,"15234 NORTHGATE APT 303","OAK PARK","MI",48237,42.4786806160001,-83.198403838,311,"15234 NORTHGATE APT 303, OAK PARK, MI, 48237","Match","Exact","15234 NORTHGATE, OAK PARK, MI, 48237",630371991,"R"
70312,"15234 PROSPECT ST","DEARBORN","MI",48126,42.314155462,-83.190658862,312,"15234 PROSPECT ST, DEARBORN, MI, 48126","Match","Exact","15234 PROSPECT ST, DEARBORN, MI, 48126",95504253,"R"
70313,"15234 RAYEN ST","NORTH HILLS","CA",91343,34.231877221,-118.464490605,313,"15234 RAYEN ST, NORTH HILLS, CA, 91343","Match","Exact","15234 RAYEN ST, NORTH HILLS, CA, 91343",141548975,"L"
70314,"15236 NORTH 21ST STREET","PHOENIX","AZ",85022,33.624154456,-112.037240318,314,"15236 NORTH 21ST STREET, PHOENIX, AZ, 85022","Match","Exact","15236 N 21ST ST, PHOENIX, AZ, 85022",128914885,"L"
70315,"15238 OAK SPRING ST","SAN ANTONIO","TX",78232,NA,NA,315,"15238 OAK SPRING ST, SAN ANTONIO, TX, 78232","No_Match",NA,NA,NA,NA
70316,"15238 TORBAY WAY","WOODBRIDGE","VA",22191,38.6234359090001,-77.280522445,316,"15238 TORBAY WAY, WOODBRIDGE, VA, 22191","Match","Exact","15238 TORBAY WAY, WOODBRIDGE, VA, 22191",634483840,"L"
70317,"15239 87TH STREET N","LOXAHATCHEE","FL",33470,NA,NA,317,"15239 87TH STREET N, LOXAHATCHEE, FL, 33470","No_Match",NA,NA,NA,NA
70318,"15239 S LAKE RIDGE WAY","OREGON CITY","OR",97045,45.3491102890001,-122.552984518,318,"15239 S LAKE RIDGE WAY, OREGON CITY, OR, 97045","Match","Exact","15239 S LAKE RIDGE WAY, OREGON CITY, OR, 97045",633545308,"L"
70319,"1524 ALVAR STREET","NEW ORLEANS","LA",70117,29.9701965630001,-90.035075008,319,"1524 ALVAR STREET, NEW ORLEANS, LA, 70117","Match","Exact","1524 ALVAR ST, NEW ORLEANS, LA, 70117",191717745,"L"
70320,"1524 AUDREY DR","ROYSE CITY","TX",75189,32.957995995,-96.346730545,320,"1524 AUDREY DR, ROYSE CITY, TX, 75189","Match","Exact","1524 AUDREY DR, ROYSE CITY, TX, 75189",627502202,"L"
70321,"1524 BENBOW STREET","WINSTON SALEM","NC",27106,36.1294216260001,-80.3048688439999,321,"1524 BENBOW STREET, WINSTON SALEM, NC, 27106","Match","Exact","1524 BENBOW ST, WINSTON SALEM, NC, 27106",653492753,"R"
70322,"1524 BLACK WALNUT COURT","NAPERVILLE","IL",60565,41.7206833540001,-88.102237217,322,"1524 BLACK WALNUT COURT, NAPERVILLE, IL, 60565","Match","Exact","1524 BLACK WALNUT CT, NAPERVILLE, IL, 60565",111534639,"L"
70323,"1524 BRIDGEVIEW DRIVE","SAN DIEGO","CA",92105,32.721316727,-117.115576282,323,"1524 BRIDGEVIEW DRIVE, SAN DIEGO, CA, 92105","Match","Exact","1524 BRIDGEVIEW DR, SAN DIEGO, CA, 92105",195347285,"L"
70324,"1524 COHASSETT AVE","LAKEWOOD","OH",44107,41.481227586,-81.779089061,324,"1524 COHASSETT AVE, LAKEWOOD, OH, 44107","Match","Exact","1524 COHASSETT AVE, LAKEWOOD, OH, 44107",61100608,"R"
70325,"1524 CONE AVE","APEX","NC",27502,35.743825228,-78.833836116,325,"1524 CONE AVE, APEX, NC, 27502","Match","Exact","1524 CONE AVE, APEX, NC, 27502",72497039,"R"
70326,"1524 DARIEN CLUB DR","DARIEN","IL",60561,41.761327642,-87.9831168599999,326,"1524 DARIEN CLUB DR, DARIEN, IL, 60561","Match","Exact","1524 DARIEN CLUB DR, DARIEN, IL, 60561",112679791,"R"
70327,"1524 E 23RD ST","BROOKLYN","NY",11210,40.6134132190001,-73.9511219679999,327,"1524 E 23RD ST, BROOKLYN, NY, 11210","Match","Exact","1524 E 23RD ST, BROOKLYN, NY, 11210",652212365,"R"
70328,"1524 E PRIMROSE ST STE A","SPRINGFIELD","MO",65804,37.1472842330001,-93.266567231,328,"1524 E PRIMROSE ST STE A, SPRINGFIELD, MO, 65804","Match","Non_Exact","1524 E PRIMROSE ST, SPRINGFIELD, MO, 65804",609088365,"R"
70329,"1524 EAST DRIVE","BARTLESVILLE","OK",74006,NA,NA,329,"1524 EAST DRIVE, BARTLESVILLE, OK, 74006","No_Match",NA,NA,NA,NA
70330,"1524 EDGEWOOD AVENUE","ABINGTON","PA",19001,40.134111176,-75.1311618789999,330,"1524 EDGEWOOD AVENUE, ABINGTON, PA, 19001","Match","Exact","1524 EDGEWOOD AVE, ABINGTON, PA, 19001",135092844,"L"
70331,"1524 FAIRCHILD DR","HARRISON","OH",45030,39.270522068,-84.75581185,331,"1524 FAIRCHILD DR, HARRISON, OH, 45030","Match","Exact","1524 FAIRCHILD DR, HARRISON, OH, 45030",642935548,"R"
70332,"1524 GEORGETOWN RD","BLOOMFIELD HILLS","MI",48304,42.6190346380001,-83.236293496,332,"1524 GEORGETOWN RD, BLOOMFIELD HILLS, MI, 48304","Match","Non_Exact","1524 GEORGETOWN PL, BLOOMFIELD HILLS, MI, 48304",69709555,"R"
70333,"1524 HANNAH WAY","EAST WENATCHEE","WA",98802,47.428822944,-120.280331303,333,"1524 HANNAH WAY, EAST WENATCHEE, WA, 98802","Match","Exact","1524 HANNAH WAY, EAST WENATCHEE, WA, 98802",156908266,"R"
70334,"1524 HOLLYWOOD BLVD NE","CEDAR RAPIDS","IA",52402,42.0169646530001,-91.658499064,334,"1524 HOLLYWOOD BLVD NE, CEDAR RAPIDS, IA, 52402","Match","Exact","1524 HOLLYWOOD BLVD NE, CEDAR RAPIDS, IA, 52402",17020305,"R"
70335,"1524 HOUCK ROAD","PERY","FL",32348,30.0804847320001,-83.596791475,335,"1524 HOUCK ROAD, PERY, FL, 32348","Match","Non_Exact","1524 HOUCK RD, PERRY, FL, 32348",610764231,"L"
70336,"1524 INGLESIDE AVENUE","PERRYVILLE","MD",21903,39.576341734,-76.0626709919999,336,"1524 INGLESIDE AVENUE, PERRYVILLE, MD, 21903","Match","Exact","1524 INGLESIDE AVE, PERRYVILLE, MD, 21903",653246019,"L"
70337,"1524 LAKE DRIVE WEST","OKEECHOBEE","FL",34974,27.1287284750001,-80.89317462,337,"1524 LAKE DRIVE WEST, OKEECHOBEE, FL, 34974","Match","Exact","1524 LAKE DR W, OKEECHOBEE, FL, 34974",4242145,"L"
70338,"1524 MAGNOLIA ST","NORMAN","OK",73072,35.1904327550001,-97.463142681,338,"1524 MAGNOLIA ST, NORMAN, OK, 73072","Match","Exact","1524 MAGNOLIA ST, NORMAN, OK, 73072",99910923,"L"
70339,"1524 MEMORIAL DRIVE","STURGEON BAY","WI",54235,44.8251497110001,-87.358377987,339,"1524 MEMORIAL DRIVE, STURGEON BAY, WI, 54235","Match","Exact","1524 MEMORIAL DR, STURGEON BAY, WI, 54235",167250378,"R"
70340,"1524 MORGAN AVENUE N","MINNEAPOLIS","MN",55411,44.9944586060001,-93.304442394,340,"1524 MORGAN AVENUE N, MINNEAPOLIS, MN, 55411","Match","Exact","1524 MORGAN AVE N, MINNEAPOLIS, MN, 55411",43623521,"R"
70341,"1524 MULFORD STREET","EVANSTON","IL",60202,42.0230746730001,-87.694179428,341,"1524 MULFORD STREET, EVANSTON, IL, 60202","Match","Exact","1524 MULFORD ST, EVANSTON, IL, 60202",605252868,"L"
70342,"1524 N 18TH AVENUE","PHOENIX","AZ",85007,33.465141026,-112.097731393,342,"1524 N 18TH AVENUE, PHOENIX, AZ, 85007","Match","Exact","1524 N 18TH AVE, PHOENIX, AZ, 85007",642650737,"L"
70343,"1524 N 85TH CT","KANSAS CITY","KS",66112,39.121664304,-94.7775734259999,343,"1524 N 85TH CT, KANSAS CITY, KS, 66112","Match","Exact","1524 N 85TH CT, KANSAS CITY, KS, 66112",91144209,"R"
70344,"1524 N DEARBORN PARKWAY","CHICAGO","IL",60610,41.9099662990001,-87.630174354,344,"1524 N DEARBORN PARKWAY, CHICAGO, IL, 60610","Match","Exact","1524 N DEARBORN PKWY, CHICAGO, IL, 60610",111767563,"L"
70345,"1524 NORTH LECLAIRE","CHICAGO","IL",60651,41.90842508,-87.7534686559999,345,"1524 NORTH LECLAIRE, CHICAGO, IL, 60651","Match","Non_Exact","1524 N LECLAIRE AVE, CHICAGO, IL, 60651",605045756,"L"
70346,"1524 NORTHBOURNE ROAD","BALTIMORE","MD",21239,39.3546657700001,-76.5880622729999,346,"1524 NORTHBOURNE ROAD, BALTIMORE, MD, 21239","Match","Exact","1524 NORTHBOURNE RD, BALTIMORE, MD, 21239",206462982,"L"
70347,"1524 NORTHLAND ST","DALLAS","TX",75006,32.9803388030001,-96.900179576,347,"1524 NORTHLAND ST, DALLAS, TX, 75006","Match","Non_Exact","1524 NORTHLAND ST, CARROLLTON, TX, 75006",102884188,"R"
70348,"1524 NUTHATCH LANE","SUNNYVALE","CA",94087,37.3432622120001,-122.010863732,348,"1524 NUTHATCH LANE, SUNNYVALE, CA, 94087","Match","Exact","1524 NUTHATCH LN, SUNNYVALE, CA, 94087",122939312,"L"
70349,"1524 OVERING STREET SUITE B","BRONX","NY",10461,40.841240423,-73.846157031,349,"1524 OVERING STREET SUITE B, BRONX, NY, 10461","Match","Exact","1524 OVERING ST, BRONX, NY, 10461",80305565,"R"
70350,"1524 PEARL AVE 32","JEFFERSON CITY","TN",37760,36.117777935,-83.4881449229999,350,"1524 PEARL AVE 32, JEFFERSON CITY, TN, 37760","Match","Exact","1524 PEARL AVE, JEFFERSON CITY, TN, 37760",608223126,"R"
70351,"1524 PORT STREET","NEW ORLEANS","LA",70117,29.9730438490001,-90.0479013039999,351,"1524 PORT STREET, NEW ORLEANS, LA, 70117","Match","Exact","1524 PORT ST, NEW ORLEANS, LA, 70117",191716945,"L"
70352,"1524 RIVERSIDE DRIVE","NORTH TAZEWELL","VA",24630,NA,NA,352,"1524 RIVERSIDE DRIVE, NORTH TAZEWELL, VA, 24630","No_Match",NA,NA,NA,NA
70353,"1524 S 174 CIRCLE","OMAHA","NE",68130,41.2447393370001,-96.187120942,353,"1524 S 174 CIRCLE, OMAHA, NE, 68130","Match","Exact","1524 S 174TH CIR, OMAHA, NE, 68130",117014933,"R"
70354,"1524 S GOLD ST","CENTRALIA","WA",98531,46.6987308670001,-122.957451594,354,"1524 S GOLD ST, CENTRALIA, WA, 98531","Match","Exact","1524 S GOLD ST, CENTRALIA, WA, 98531",624394592,"R"
70355,"1524 SHADES CREST ROAD","BIRMINGHAM","AL",35226,33.440114571,-86.816567359,355,"1524 SHADES CREST ROAD, BIRMINGHAM, AL, 35226","Match","Exact","1524 SHADES CREST RD, BIRMINGHAM, AL, 35226",81581393,"L"
70356,"1524 SHEEPSHEAD BAY ROAD APT 24E","BROOKLYN","NY",11235,40.5871810260001,-73.9531396849999,356,"1524 SHEEPSHEAD BAY ROAD APT 24E, BROOKLYN, NY, 11235","Match","Exact","1524 SHEEPSHEAD BAY RD, BROOKLYN, NY, 11235",59096681,"R"
70357,"1524 SOUTH LOCUST AVENUE","FREEPORT","IL",61032,42.2833604410001,-89.626712391,357,"1524 SOUTH LOCUST AVENUE, FREEPORT, IL, 61032","Match","Exact","1524 S LOCUST AVE, FREEPORT, IL, 61032",32693762,"L"
70358,"1524 THOMAS RD","CANTON","GA",30115,34.1974411640001,-84.40408689,358,"1524 THOMAS RD, CANTON, GA, 30115","Match","Exact","1524 THOMAS RD, CANTON, GA, 30115",68860708,"R"
70359,"1524 VIA OTANO","OCEANSIDE","CA",92056,33.219477587,-117.290727316,359,"1524 VIA OTANO, OCEANSIDE, CA, 92056","Match","Exact","1524 VIA OTANO, OCEANSIDE, CA, 92056",195426012,"R"
70360,"1524 VILLAGE GREEN DRIVE","LANDOVER","MD",20785,38.9114075370001,-76.8796432469999,360,"1524 VILLAGE GREEN DRIVE, LANDOVER, MD, 20785","Match","Exact","1524 VILLAGE GREEN DR, LANDOVER, MD, 20785",76357664,"L"
70361,"1524 WEST 57TH STREET","LOS ANGELES","CA",90062,33.9905792750001,-118.30297016,361,"1524 WEST 57TH STREET, LOS ANGELES, CA, 90062","Match","Exact","1524 W 57TH ST, LOS ANGELES, CA, 90062",652033284,"L"
70362,"1524 WEST AVENUE H11","LANCASTER","CA",93534,34.70830634,-118.158061054,362,"1524 WEST AVENUE H11, LANCASTER, CA, 93534","Match","Exact","1524 W AVE H11, LANCASTER, CA, 93534",141830555,"R"
70363,"1524 WESTMINSTER DRIVE","COLUMBIA","SC",29204,34.013261675,-81.007810529,363,"1524 WESTMINSTER DRIVE, COLUMBIA, SC, 29204","Match","Exact","1524 WESTMINSTER DR, COLUMBIA, SC, 29204",645495363,"R"
70364,"1524 WILLOW PL","WASCO","CA",93280,35.5846370240001,-119.348675587,364,"1524 WILLOW PL, WASCO, CA, 93280","Match","Exact","1524 WILLOW PL, WASCO, CA, 93280",109452004,"L"
70365,"1524-VIRGILS WAY","GREEN COVE SPRINGS","FL",32043,NA,NA,365,"1524-VIRGILS WAY, GREEN COVE SPRINGS, FL, 32043","No_Match",NA,NA,NA,NA
70366,"15240 LAKEVIEW AVE","CLEARLAKE","CA",95422,38.944203874,-122.62772368,366,"15240 LAKEVIEW AVE, CLEARLAKE, CA, 95422","Match","Exact","15240 LAKEVIEW AVE, CLEARLAKE, CA, 95422",67058460,"L"
70367,"15240 OLD GALVESTON ROAD APT 900","HOUSTON","TX",77034,NA,NA,367,"15240 OLD GALVESTON ROAD APT 900, HOUSTON, TX, 77034","No_Match",NA,NA,NA,NA
70368,"15240 PHEASANT RUN","SOUTHGATE","MI",48195,42.223614196,-83.209463122,368,"15240 PHEASANT RUN, SOUTHGATE, MI, 48195","Match","Exact","15240 PHEASANT RUN, SOUTHGATE, MI, 48195",95687345,"L"
70369,"15240 W KRAHN CT","NEW BERLIN","WI",53151,43.001305825,-88.100763144,369,"15240 W KRAHN CT, NEW BERLIN, WI, 53151","Match","Exact","15240 W KRAHN CT, NEW BERLIN, WI, 53151",53822863,"R"
70370,"15241 CHRISTANNA HWY","LAWRENCEVILLE","VA",23868,36.7318805850001,-77.852432585,370,"15241 CHRISTANNA HWY, LAWRENCEVILLE, VA, 23868","Match","Exact","15241 CHRISTANNA HWY, LAWRENCEVILLE, VA, 23868",54036713,"L"
70371,"15241 S 30TH ST","PHOENIX","AZ",85048,33.304756813,-112.019342178,371,"15241 S 30TH ST, PHOENIX, AZ, 85048","Match","Exact","15241 S 30TH ST, PHOENIX, AZ, 85048",128357877,"L"
70372,"15242 BLACKHAWK ST","MISSION HILLS","CA",91345,34.2582569680001,-118.464301235,372,"15242 BLACKHAWK ST, MISSION HILLS, CA, 91345","Match","Exact","15242 BLACKHAWK ST, MISSION HILLS, CA, 91345",141547141,"L"
70373,"15242 HASTINGS DR","DOLTON","IL",60419,41.6179127780001,-87.587047454,373,"15242 HASTINGS DR, DOLTON, IL, 60419","Match","Exact","15242 HASTINGS DR, DOLTON, IL, 60419",112224248,"R"
70374,"15242 LAWRENCE 2225","VERONA","MO",65769,36.948343547,-93.78371836,374,"15242 LAWRENCE 2225, VERONA, MO, 65769","Match","Exact","15242 LAWRENCE 2225, VERONA, MO, 65769",99865458,"R"
70375,"15242B 4500 S RD","PEMBROKE TOWNSHIP","IL",60958,41.0604648930001,-87.576452347,375,"15242B 4500 S RD, PEMBROKE TOWNSHIP, IL, 60958","Match","Non_Exact","15242 E 4500S RD, PEMBROKE TOWNSHIP, IL, 60958",650663313,"R"
70376,"15243 SW 157 TER","MIAMI","FL",33186,25.620675799,-80.439824067,376,"15243 SW 157 TER, MIAMI, FL, 33186","Match","Non_Exact","15243 SW 157TH TER, MIAMI, FL, 33187",115966201,"L"
70377,"15245 MILITARY TRAIL","JUPITER","FL",33458,NA,NA,377,"15245 MILITARY TRAIL, JUPITER, FL, 33458","No_Match",NA,NA,NA,NA
70378,"15247 HONORE AVE","HARVEY","IL",60426,41.6126787490001,-87.661994443,378,"15247 HONORE AVE, HARVEY, IL, 60426","Match","Exact","15247 HONORE AVE, HARVEY, IL, 60426",111705534,"L"
70379,"15247 N 36TH ST","PHOENIX","AZ",85032,33.6258909110001,-112.004658023,379,"15247 N 36TH ST, PHOENIX, AZ, 85032","Match","Non_Exact","15247 N 36TH ST, PHOENIX, AZ, 85032",128185320,"R"
70380,"15247 RIO PLAZA DR","HOUSTON","TX",77083,29.7027486380001,-95.6555774939999,380,"15247 RIO PLAZA DR, HOUSTON, TX, 77083","Match","Exact","15247 RIO PLAZA DR, HOUSTON, TX, 77083",96017625,"R"
70381,"1525 25TH ST SE","WASHINGTON","DC",20020,38.8718538840001,-76.970940302,381,"1525 25TH ST SE, WASHINGTON, DC, 20020","Match","Exact","1525 25TH ST SE, WASHINGTON, DC, 20020",76231791,"R"
70382,"1525 31ST ST N","BIRMINGHAM","AL",35234,33.5386473610001,-86.802315027,382,"1525 31ST ST N, BIRMINGHAM, AL, 35234","Match","Exact","1525 31ST ST N, BIRMINGHAM, AL, 35234",81573418,"R"
70383,"1525 3RD WEST","KEMMERER","WY",83101,41.786172235,-110.543111841,383,"1525 3RD WEST, KEMMERER, WY, 83101","Match","Non_Exact","1525 THIRD WEST AVE, KEMMERER, WY, 83101",628197370,"R"
70384,"1525 6TH STREET","WAYNESBURG","PA",15370,39.8998477310001,-80.168573413,384,"1525 6TH STREET, WAYNESBURG, PA, 15370","Match","Exact","1525 6TH ST, WAYNESBURG, PA, 15370",51362186,"L"
70385,"1525 ARKANSAS LANE","GRAND PRAIRIE","TX",75052,32.705442229,-97.027975958,385,"1525 ARKANSAS LANE, GRAND PRAIRIE, TX, 75052","Match","Exact","1525 ARKANSAS LN, GRAND PRAIRIE, TX, 75052",637933303,"L"
70386,"1525 BALLARD PARK DRIVE","BRADENTON","FL",34205,27.492276953,-82.5763301969999,386,"1525 BALLARD PARK DRIVE, BRADENTON, FL, 34205","Match","Exact","1525 BALLARD PARK DR, BRADENTON, FL, 34205",16234875,"L"
70387,"1525 BLUES LANE","NORTH LAS VEGAS","NV",89081,36.2536061650001,-115.123700285,387,"1525 BLUES LANE, NORTH LAS VEGAS, NV, 89081","Match","Exact","1525 BLUES LN, N LAS VEGAS, NV, 89081",641479207,"L"
70388,"1525 BONITA VISTA DRIVE","SAN BERNARDINO","CA",92404,34.164394332,-117.253475108,388,"1525 BONITA VISTA DRIVE, SAN BERNARDINO, CA, 92404","Match","Exact","1525 BONITA VISTA DR, SAN BERNARDINO, CA, 92404",144654414,"R"
70389,"1525 BULL ST","AUBREY","TX",76227,33.2340867140001,-96.902249266,389,"1525 BULL ST, AUBREY, TX, 76227","Match","Exact","1525 BULL ST, AUBREY, TX, 76227",646833924,"L"
70390,"1525 CELIA DR","WICHITA FALLS","TX",76302,33.855207793,-98.497510542,390,"1525 CELIA DR, WICHITA FALLS, TX, 76302","Match","Exact","1525 CELIA DR, WICHITA FALLS, TX, 76302",169846246,"L"
70391,"1525 CIRCLESTONE DRIVE","STONE MOUNTAIN","GA",30088,33.7460352960001,-84.163698626,391,"1525 CIRCLESTONE DRIVE, STONE MOUNTAIN, GA, 30088","Match","Exact","1525 CIRCLESTONE DR, STONE MOUNTAIN, GA, 30088",23374723,"R"
70392,"1525 CLAPTON DRIVE","DELAND","FL",32720,29.0544262080001,-81.331066296,392,"1525 CLAPTON DRIVE, DELAND, FL, 32720","Match","Exact","1525 CLAPTON DR, DELAND, FL, 32720",612317909,"R"
70393,"1525 CONCORD CIRCLE","COLLEGE STATION","TX",77845,30.595155608,-96.2779689549999,393,"1525 CONCORD CIRCLE, COLLEGE STATION, TX, 77845","Match","Exact","1525 CONCORD CIR, COLLEGE STATION, TX, 77845",21833861,"R"
70394,"1525 CRESPI DRIVE","SAN JOSE","CA",95129,37.2953715880001,-121.991316197,394,"1525 CRESPI DRIVE, SAN JOSE, CA, 95129","Match","Exact","1525 CRESPI DR, SAN JOSE, CA, 95129",122900254,"R"
70395,"1525 DORIS DR","MESQUITE","TX",75149,32.749284301,-96.6086075759999,395,"1525 DORIS DR, MESQUITE, TX, 75149","Match","Exact","1525 DORIS DR, MESQUITE, TX, 75149",103196070,"R"
70396,"1525 E 2ND STREET","LONG BEACH","CA",90802,33.7673398960001,-118.173036748,396,"1525 E 2ND STREET, LONG BEACH, CA, 90802","Match","Exact","1525 E 2ND ST, LONG BEACH, CA, 90802",141695063,"L"
70397,"1525 E 53RD ST","CHICAGO","IL",60615,41.799551132,-87.5879187959999,397,"1525 E 53RD ST, CHICAGO, IL, 60615","Match","Exact","1525 E 53RD ST, CHICAGO, IL, 60615",641799799,"R"
70398,"1525 E 53RD STREET    SUITE 431","CHICAGO","IL",60615,41.799551132,-87.5879187959999,398,"1525 E 53RD STREET    SUITE 431, CHICAGO, IL, 60615","Match","Non_Exact","1525 E 53RD ST, CHICAGO, IL, 60615",641799799,"R"
70399,"1525 E 53RD STREET SUITE 411","CHICAGO","IL",60615,41.799551132,-87.5879187959999,399,"1525 E 53RD STREET SUITE 411, CHICAGO, IL, 60615","Match","Non_Exact","1525 E 53RD ST, CHICAGO, IL, 60615",641799799,"R"
70400,"1525 E 53RD STREET SUITE 439","CHICAGO","IL",60615,41.799551132,-87.5879187959999,400,"1525 E 53RD STREET SUITE 439, CHICAGO, IL, 60615","Match","Non_Exact","1525 E 53RD ST, CHICAGO, IL, 60615",641799799,"R"
70401,"1525 E 53RD STREET","CHICAGO","IL",60615,41.799551132,-87.5879187959999,401,"1525 E 53RD STREET, CHICAGO, IL, 60615","Match","Exact","1525 E 53RD ST, CHICAGO, IL, 60615",641799799,"R"
70402,"1525 E NOBLE AVE 298","VISALIA","CA",93292,36.325437644,-119.275483997,402,"1525 E NOBLE AVE 298, VISALIA, CA, 93292","Match","Non_Exact","1525 E NOBLE AVE, VISALIA, CA, 93292",202782075,"R"
70403,"1525 E WHEELER RD","MOSES LAKE","WA",98837,47.1310579170001,-119.2514631,403,"1525 E WHEELER RD, MOSES LAKE, WA, 98837","Match","Exact","1525 E WHEELER RD, MOSES LAKE, WA, 98837",157111360,"L"
70404,"1525 EAST 55TH STREET 205","CHICAGO","IL",60615,41.795261113,-87.589058264,404,"1525 EAST 55TH STREET 205, CHICAGO, IL, 60615","Match","Exact","1525 E 55TH ST, CHICAGO, IL, 60615",111771951,"R"
70405,"1525 EAST GUN HILL ROAD UNIT 355","BRONX","NY",10469,40.867937926,-73.8413590649999,405,"1525 EAST GUN HILL ROAD UNIT 355, BRONX, NY, 10469","Match","Exact","1525 E GUN HILL RD, BRONX, NY, 10469",80303996,"L"
70406,"1525 ELLIS MILL RD","MONROEVILLE","NJ",8343,39.6761972050001,-75.197747047,406,"1525 ELLIS MILL RD, MONROEVILLE, NJ, 8343","Match","Exact","1525 ELLIS MILL RD, MONROEVILLE, NJ, 08343",134614499,"L"
70407,"1525 FORTUNE RETAIL COURT","KISSIMMEE","FL",34744,28.3052230540001,-81.34780363,407,"1525 FORTUNE RETAIL COURT, KISSIMMEE, FL, 34744","Match","Exact","1525 FORTUNE RETAIL CT, KISSIMMEE, FL, 34744",639425183,"R"
70408,"1525 GROVE RIDGE APT 204","MEMPHIS","TN",38138,35.1079109980001,-89.800717681,408,"1525 GROVE RIDGE APT 204, MEMPHIS, TN, 38138","Match","Exact","1525 GROVE RIDGE, MEMPHIS, TN, 38138",645536586,"R"
70409,"1525 HEECHEE NENE","TALLAHASSEE","FL",32301,30.4296377480001,-84.256521482,409,"1525 HEECHEE NENE, TALLAHASSEE, FL, 32301","Match","Exact","1525 HEECHEE NENE, TALLAHASSEE, FL, 32301",82883612,"L"
70410,"1525 KAUTZ ROAD STE 1000","WEST CHICAGO","IL",60185,NA,NA,410,"1525 KAUTZ ROAD STE 1000, WEST CHICAGO, IL, 60185","No_Match",NA,NA,NA,NA
70411,"1525 KILBURN AVENUE","ROCKFORD","IL",61101,42.288660425,-89.103123489,411,"1525 KILBURN AVENUE, ROCKFORD, IL, 61101","Match","Exact","1525 KILBURN AVE, ROCKFORD, IL, 61101",49252626,"R"
70412,"1525 LA QUINTA CIRCLE","UPLAND","CA",91784,34.1241621340001,-117.627699006,412,"1525 LA QUINTA CIRCLE, UPLAND, CA, 91784","Match","Exact","1525 LA QUINTA CIR, UPLAND, CA, 91784",145001692,"R"
70413,"1525 LLOYD STREET","SAVANNAH","GA",31405,32.049575412,-81.131028607,413,"1525 LLOYD STREET, SAVANNAH, GA, 31405","Match","Exact","1525 LLOYD ST, SAVANNAH, GA, 31405",6172326,"L"
70414,"1525 LOWER HECKMAN ROAD","MCKEESPORT","PA",15131,40.355933432,-79.807947613,414,"1525 LOWER HECKMAN ROAD, MCKEESPORT, PA, 15131","Match","Exact","1525 LOWER HECKMAN RD, MCKEESPORT, PA, 15131",51815751,"L"
70415,"1525 MONTANA AVENUE NE","WASHINGTON","DC",20018,38.92241117,-76.98265737,415,"1525 MONTANA AVENUE NE, WASHINGTON, DC, 20018","Match","Exact","1525 MONTANA AVE NE, WASHINGTON, DC, 20018",76228971,"R"
70416,"1525 N BANNING","MESA","AZ",85205,33.44345564,-111.720994043,416,"1525 N BANNING, MESA, AZ, 85205","Match","Exact","1525 N BANNING, MESA, AZ, 85205",646789974,"R"
70417,"1525 N CARLYLE AVE","TYLER","TX",75702,32.366148406,-95.295084775,417,"1525 N CARLYLE AVE, TYLER, TX, 75702","Match","Exact","1525 N CARLYLE AVE, TYLER, TX, 75702",141266669,"R"
70418,"1525 N CROSS ST","DOVER","OH",44622,40.5366613750001,-81.482769659,418,"1525 N CROSS ST, DOVER, OH, 44622","Match","Exact","1525 N CROSS ST, DOVER, OH, 44622",639136201,"R"
70419,"1525 N GOEBEL AVE","TUCSON","AZ",85715,32.2411409010001,-110.810561943,419,"1525 N GOEBEL AVE, TUCSON, AZ, 85715","Match","Exact","1525 N GOEBEL AVE, TUCSON, AZ, 85715",121183080,"L"
70420,"1525 N LIBERTY ST","JACKSONVILLE","FL",32206,30.3417874290001,-81.64971094,420,"1525 N LIBERTY ST, JACKSONVILLE, FL, 32206","Match","Exact","1525 N LIBERTY ST, JACKSONVILLE, FL, 32206",83899355,"R"
70421,"1525 N PLEASANT AVE 101","FRESNO","CA",93728,36.7632691250001,-119.83942043,421,"1525 N PLEASANT AVE 101, FRESNO, CA, 93728","Match","Non_Exact","1525 N PLEASANT AVE, FRESNO, CA, 93728",197634833,"R"
70422,"1525 NORTH FLAGLER DRIVE SUITE100","WEST PALM BEACH","FL",33401,26.7269527170001,-80.050499933,422,"1525 NORTH FLAGLER DRIVE SUITE100, WEST PALM BEACH, FL, 33401","Match","Exact","1525 N FLAGLER DR, WEST PALM BEACH, FL, 33401",115278034,"L"
70423,"1525 NORTH LARRABEE STREET","CHICAGO","IL",60610,41.909852066,-87.643386773,423,"1525 NORTH LARRABEE STREET, CHICAGO, IL, 60610","Match","Exact","1525 N LARRABEE ST, CHICAGO, IL, 60610",647614785,"R"
70424,"1525 NORTHPORT DRIVE","MADISON","WI",53704,43.1336342640001,-89.370398711,424,"1525 NORTHPORT DRIVE, MADISON, WI, 53704","Match","Exact","1525 NORTHPORT DR, MADISON, WI, 53704",49470921,"R"
70425,"1525 PARK MANNOR BLVD STE 254","PITTSBURG","PA",15205,40.4538473120001,-80.1611651549999,425,"1525 PARK MANNOR BLVD STE 254, PITTSBURG, PA, 15205","Match","Non_Exact","1525 PARK MANOR BLVD, PITTSBURGH, PA, 15205",607693954,"L"
70426,"1525 PARK MANOR BLVD - 307","PITTSBURGH","PA",15205,40.4538473120001,-80.1611651549999,426,"1525 PARK MANOR BLVD - 307, PITTSBURGH, PA, 15205","Match","Exact","1525 PARK MANOR BLVD, PITTSBURGH, PA, 15205",607693954,"L"
70427,"1525 PARK MANOR BLVD","PITTSBURGH","PA",15205,40.4538473120001,-80.1611651549999,427,"1525 PARK MANOR BLVD, PITTSBURGH, PA, 15205","Match","Exact","1525 PARK MANOR BLVD, PITTSBURGH, PA, 15205",607693954,"L"
70428,"1525 PLACENTIA AVENUE APT B2","NEWPORT BEACH","CA",92663,33.6296509090001,-117.931818157,428,"1525 PLACENTIA AVENUE APT B2, NEWPORT BEACH, CA, 92663","Match","Exact","1525 PLACENTIA AVE, NEWPORT BEACH, CA, 92663",637068777,"L"
70429,"1525 POINSETTIA DRIVE","METAIRIE","LA",70005,30.01832168,-90.1406552239999,429,"1525 POINSETTIA DRIVE, METAIRIE, LA, 70005","Match","Non_Exact","1525 POINSETTA DR, METAIRIE, LA, 70005",93533891,"R"
70430,"1525 PROSPERITY FARMS ROAD","LAKE PARK","FL",33403,NA,NA,430,"1525 PROSPERITY FARMS ROAD, LAKE PARK, FL, 33403","No_Match",NA,NA,NA,NA
70431,"1525 RAMPART WAY","BRENTWOOD","CA",94513,37.949219468,-121.732943662,431,"1525 RAMPART WAY, BRENTWOOD, CA, 94513","Match","Exact","1525 RAMPART WAY, BRENTWOOD, CA, 94513",627902691,"L"
70432,"1525 RAMSON COURT","RALEIGH","NC",27603,35.6122442660001,-78.6552263839999,432,"1525 RAMSON COURT, RALEIGH, NC, 27603","Match","Exact","1525 RAMSON CT, RALEIGH, NC, 27603",72599113,"R"
70433,"1525 RIVER REACH DR 228","ORLANDO","FL",32828,28.560686993,-81.199939878,433,"1525 RIVER REACH DR 228, ORLANDO, FL, 32828","Match","Exact","1525 RIVER REACH DR, ORLANDO, FL, 32828",650053786,"L"
70434,"1525 S HARRISON RD","HOUGHTON LAKE","MI",48629,44.3119103880001,-84.793482572,434,"1525 S HARRISON RD, HOUGHTON LAKE, MI, 48629","Match","Exact","1525 S HARRISON RD, HOUGHTON LAKE, MI, 48629",647935050,"R"
70435,"1525 S HIGLEY ROAD STE 104","GILBERT","AZ",85296,NA,NA,435,"1525 S HIGLEY ROAD STE 104, GILBERT, AZ, 85296","No_Match",NA,NA,NA,NA
70436,"1525 S MICHIGAN AVE 313","CHICAGO","IL",60605,41.8614502610001,-87.6240080379999,436,"1525 S MICHIGAN AVE 313, CHICAGO, IL, 60605","Match","Non_Exact","1525 S MICHIGAN AVE, CHICAGO, IL, 60605",111769892,"L"
70437,"1525 S SAGINAW STREET","FLINT","MI",48503,43.0068505570001,-83.6817710609999,437,"1525 S SAGINAW STREET, FLINT, MI, 48503","Match","Exact","1525 S SAGINAW ST, FLINT, MI, 48503",69575249,"L"
70438,"1525 SAINT ROSE AVENUE","BATON ROUGE","LA",70808,30.4345299550001,-91.161639631,438,"1525 SAINT ROSE AVENUE, BATON ROUGE, LA, 70808","Match","Exact","1525 SAINT ROSE AVE, BATON ROUGE, LA, 70808",92184413,"L"
70439,"1525 SEEGAR ST","DALLAS","TX",75215,32.768227993,-96.7873855829999,439,"1525 SEEGAR ST, DALLAS, TX, 75215","Match","Exact","1525 SEEGAR ST, DALLAS, TX, 75215",102912015,"L"
70440,"1525 SENECA LANE","SAN MATEO","CA",94402,37.5284456950001,-122.352979386,440,"1525 SENECA LANE, SAN MATEO, CA, 94402","Match","Exact","1525 SENECA LN, SAN MATEO, CA, 94402",192378483,"L"
70441,"1525 SHORB AVE NW","CANTON","OH",44703,40.814764843,-81.380571312,441,"1525 SHORB AVE NW, CANTON, OH, 44703","Match","Exact","1525 SHORB AVE NW, CANTON, OH, 44703",64678829,"L"
70442,"1525 SONOMA BOULEVARD","VALLEJO","CA",94590,38.0992568730001,-122.255020209,442,"1525 SONOMA BOULEVARD, VALLEJO, CA, 94590","Match","Exact","1525 SONOMA BLVD, VALLEJO, CA, 94590",192569393,"L"
70443,"1525 SOUTH KIMBROUGH AVENUE","SPRINGFIELD","MO",65807,37.1871827430001,-93.287268567,443,"1525 SOUTH KIMBROUGH AVENUE, SPRINGFIELD, MO, 65807","Match","Exact","1525 S KIMBROUGH AVE, SPRINGFIELD, MO, 65807",605880527,"R"
70444,"1525 SOUTH MISSOURI AVENUE","SPRINGFIELD","MO",65807,37.1868205330001,-93.3016507899999,444,"1525 SOUTH MISSOURI AVENUE, SPRINGFIELD, MO, 65807","Match","Exact","1525 S MISSOURI AVE, SPRINGFIELD, MO, 65807",76707113,"R"
70445,"1525 SOUTHWOOD DR","HUNTSVILLE","TX",77340,30.677598673,-95.4876033309999,445,"1525 SOUTHWOOD DR, HUNTSVILLE, TX, 77340","Match","Exact","1525 SOUTHWOOD DR, HUNTSVILLE, TX, 77340",22209062,"L"
70446,"1525 SPICED WINE AVE UNIT 5101","HENDERSON","NV",89074,NA,NA,446,"1525 SPICED WINE AVE UNIT 5101, HENDERSON, NV, 89074","No_Match",NA,NA,NA,NA
70447,"1525 SPRUCE STREET  SUITE 102","BOULDER","CO",80302,40.0198034700001,-105.276025634,447,"1525 SPRUCE STREET  SUITE 102, BOULDER, CO, 80302","Match","Exact","1525 SPRUCE ST, BOULDER, CO, 80302",188159711,"L"
70448,"1525 SUNFLOWER DR","SYCAMORE","IL",60178,42.0140859950001,-88.707307538,448,"1525 SUNFLOWER DR, SYCAMORE, IL, 60178","Match","Exact","1525 SUNFLOWER DR, SYCAMORE, IL, 60178",52272703,"R"
70449,"1525 VAN BUREN ST","STOUGHTON","WI",53589,42.9320358370001,-89.2309814229999,449,"1525 VAN BUREN ST, STOUGHTON, WI, 53589","Match","Non_Exact","1525 N VAN BUREN ST, STOUGHTON, WI, 53589",49481321,"L"
70450,"1525 W BRIDGE ST","NEW BRAUNFELS","TX",78130,29.6916188020001,-98.139062877,450,"1525 W BRIDGE ST, NEW BRAUNFELS, TX, 78130","Match","Exact","1525 W BRIDGE ST, NEW BRAUNFELS, TX, 78130",72246705,"R"
70451,"1525 W MOCKINGBIRD LN","DALLAS","TX",75235,32.8222693060001,-96.860797541,451,"1525 W MOCKINGBIRD LN, DALLAS, TX, 75235","Match","Exact","1525 W MOCKINGBIRD LN, DALLAS, TX, 75235",103200619,"L"
70452,"1525 WALNUT LEAF DRIVE UNIT 112","WALNUT","CA",91789,33.990114632,-117.861045948,452,"1525 WALNUT LEAF DRIVE UNIT 112, WALNUT, CA, 91789","Match","Exact","1525 WALNUT LEAF DR, WALNUT, CA, 91789",141736038,"R"
70453,"1525 WEST 2960 SOUTH","LOGAN","UT",84321,NA,NA,453,"1525 WEST 2960 SOUTH, LOGAN, UT, 84321","No_Match",NA,NA,NA,NA
70454,"1525 WEST OLNEY","PHILADELPHIA","PA",19141,40.0390485660001,-75.1468495509999,454,"1525 WEST OLNEY, PHILADELPHIA, PA, 19141","Match","Non_Exact","1525 W OLNEY AVE, PHILADELPHIA, PA, 19141",131413926,"R"
70455,"1525 WEST PORTER STREET","PHILADELPHIA","PA",19145,39.9197361440001,-75.1733796899999,455,"1525 WEST PORTER STREET, PHILADELPHIA, PA, 19145","Match","Exact","1525 W PORTER ST, PHILADELPHIA, PA, 19145",131412173,"R"
70456,"1525 WEST ST","OAKLAND","CA",94612,37.808453807,-122.27900723,456,"1525 WEST ST, OAKLAND, CA, 94612","Match","Exact","1525 WEST ST, OAKLAND, CA, 94612",606248857,"L"
70457,"1525 WHITE OAK COURT","FRANKIN","IN",46131,39.4936602970001,-86.074496819,457,"1525 WHITE OAK COURT, FRANKIN, IN, 46131","Match","Non_Exact","1525 WHITE OAK CT, FRANKLIN, IN, 46131",114652324,"R"
70458,"1525 WILWOOD CIRCLE","RAYMORE","MO",64083,NA,NA,458,"1525 WILWOOD CIRCLE, RAYMORE, MO, 64083","No_Match",NA,NA,NA,NA
70459,"15250 HILLCROFT AVE","MISSOURI CITY","TX",77489,NA,NA,459,"15250 HILLCROFT AVE, MISSOURI CITY, TX, 77489","No_Match",NA,NA,NA,NA
70460,"15250 LINDEN CT","BONNER SPRINGS","KS",66012,39.068588366,-94.93191888,460,"15250 LINDEN CT, BONNER SPRINGS, KS, 66012","Match","Exact","15250 LINDEN CT, BONNER SPRINGS, KS, 66012",637692902,"L"
70461,"15250 PARK ST","OAK PARK","MI",48237,42.4657464160001,-83.198591091,461,"15250 PARK ST, OAK PARK, MI, 48237","Match","Exact","15250 PARK ST, OAK PARK, MI, 48237",69741162,"R"
70462,"15250 ROLATER RD","FRISCO","TX",75035,33.1378903990001,-96.7417590649999,462,"15250 ROLATER RD, FRISCO, TX, 75035","Match","Exact","15250 ROLATER RD, FRISCO, TX, 75035",638558516,"L"
70463,"15250 ROLATER ROAD","FRISCO","TX",75035,33.1378903990001,-96.7417590649999,463,"15250 ROLATER ROAD, FRISCO, TX, 75035","Match","Exact","15250 ROLATER RD, FRISCO, TX, 75035",638558516,"L"
70464,"15250 ROLATOR ROAD","FRISCO","TX",75035,33.1378903990001,-96.7417590649999,464,"15250 ROLATOR ROAD, FRISCO, TX, 75035","Match","Non_Exact","15250 ROLATER RD, FRISCO, TX, 75035",638558516,"L"
70465,"15250 S HURON RIVER DR","ROMULUS","MI",48174,NA,NA,465,"15250 S HURON RIVER DR, ROMULUS, MI, 48174","Tie",NA,NA,NA,NA
70466,"15250 SIESTA KEY WAY APT 538","ROCKVILLE","MD",20850,39.1057758850001,-77.194346852,466,"15250 SIESTA KEY WAY APT 538, ROCKVILLE, MD, 20850","Match","Exact","15250 SIESTA KEY WAY, ROCKVILLE, MD, 20850",648083843,"L"
70467,"15250 SUGAR BOWL RD","MYAKKA CITY","FL",34251,27.266372501,-82.11868522,467,"15250 SUGAR BOWL RD, MYAKKA CITY, FL, 34251","Match","Exact","15250 SUGAR BOWL RD, MYAKKA CITY, FL, 34251",16227518,"L"
70468,"15250 SW 108 AVENUE","MIAMI","FL",33157,25.6270955530001,-80.368163274,468,"15250 SW 108 AVENUE, MIAMI, FL, 33157","Match","Exact","15250 SW 108TH AVE, MIAMI, FL, 33157",115982054,"R"
70469,"15250 SW 49 STREET","DAVIE","FL",33331,26.058367897,-80.350046597,469,"15250 SW 49 STREET, DAVIE, FL, 33331","Match","Exact","15250 SW 49TH ST, DAVIE, FL, 33331",114777367,"L"
70470,"15250 VENTURA BOULEVARD SUITE 1220","SHERMAN OAKS","CA",91403,34.153613324,-118.465001099,470,"15250 VENTURA BOULEVARD SUITE 1220, SHERMAN OAKS, CA, 91403","Match","Exact","15250 VENTURA BLVD, SHERMAN OAKS, CA, 91403",141560637,"L"
70471,"15251 NORDHOFF ST APT 207","NORTH HILLS","CA",91343,34.2355130830001,-118.464295898,471,"15251 NORDHOFF ST APT 207, NORTH HILLS, CA, 91343","Match","Exact","15251 NORDHOFF ST, NORTH HILLS, CA, 91343",141548963,"R"
70472,"15251 SIESTA KEY WAY APT 376","ROCKVILLE","MD",20850,39.1057717470001,-77.194333767,472,"15251 SIESTA KEY WAY APT 376, ROCKVILLE, MD, 20850","Match","Exact","15251 SIESTA KEY WAY, ROCKVILLE, MD, 20850",648083843,"R"
70473,"15251 SW 18TH LANE","MIAMI","FL",33185,25.749360709,-80.442229873,473,"15251 SW 18TH LANE, MIAMI, FL, 33185","Match","Non_Exact","15251 SW 18 LN, MIAMI, FL, 33185",625402709,"L"
70474,"15252 105TH ST","ALDEN","IA",50006,42.5543403020001,-93.401065785,474,"15252 105TH ST, ALDEN, IA, 50006","Match","Exact","15252 105TH ST, ALDEN, IA, 50006",77433942,"L"
70475,"15252 N 100TH ST UNIT 1146","SCOTTSDALE","AZ",85260,33.624571399,-111.872248783,475,"15252 N 100TH ST UNIT 1146, SCOTTSDALE, AZ, 85260","Match","Non_Exact","15252 N 100TH ST, SCOTTSDALE, AZ, 85260",128957544,"L"
70476,"15252 US HWY 11","TRENTON","GA",30752,34.9087676670001,-85.482695489,476,"15252 US HWY 11, TRENTON, GA, 30752","Match","Exact","15252 US HWY 11, TRENTON, GA, 30752",79404095,"R"
70477,"15253 SLEEPY RIVER WAY","VON ORMY","TX",78073,NA,NA,477,"15253 SLEEPY RIVER WAY, VON ORMY, TX, 78073","No_Match",NA,NA,NA,NA
70478,"15254 CAMPINA LANE","LA MIRADA","CA",90638,33.922637093,-118.00458969,478,"15254 CAMPINA LANE, LA MIRADA, CA, 90638","Match","Exact","15254 CAMPINA LN, LA MIRADA, CA, 90638",141751920,"R"
70479,"15255 CHINCOTEAGUE CT","WOODBRIDGE","VA",22193,38.624265548,-77.362416455,479,"15255 CHINCOTEAGUE CT, WOODBRIDGE, VA, 22193","Match","Exact","15255 CHINCOTEAGUE CT, WOODBRIDGE, VA, 22193",207143564,"R"
70480,"15255 ELM ROCK ROAD","NELSONVILLE","OH",45764,39.4273725560001,-82.191175256,480,"15255 ELM ROCK ROAD, NELSONVILLE, OH, 45764","Match","Exact","15255 ELM ROCK RD, NELSONVILLE, OH, 45764",37093744,"L"
70481,"15255 NW 137TH CT","PLATTE CITY","MO",64079,39.34249227,-94.756990516,481,"15255 NW 137TH CT, PLATTE CITY, MO, 64079","Match","Exact","15255 NW 137TH CT, PLATTE CITY, MO, 64079",39710667,"R"
70482,"15255 S 94TH STE 500","ORLAND PARK","IL",60462,NA,NA,482,"15255 S 94TH STE 500, ORLAND PARK, IL, 60462","No_Match",NA,NA,NA,NA
70483,"15255 SW SWAN CT","BEAVERTON","OR",97007,45.445755133,-122.834065801,483,"15255 SW SWAN CT, BEAVERTON, OR, 97007","Match","Exact","15255 SW SWAN CT, BEAVERTON, OR, 97007",158202586,"L"
70484,"15256 SW 176TH TER","MIAMI","FL",33187,25.603490121,-80.439326944,484,"15256 SW 176TH TER, MIAMI, FL, 33187","Match","Exact","15256 SW 176TH TER, MIAMI, FL, 33187",648129175,"R"
70485,"15257 SADDLEBACK ROAD","CANYON COUNTRY","CA",91387,NA,NA,485,"15257 SADDLEBACK ROAD, CANYON COUNTRY, CA, 91387","No_Match",NA,NA,NA,NA
70486,"15259 160TH PL SE","RENTON","WA",98058,47.466130596,-122.12620002,486,"15259 160TH PL SE, RENTON, WA, 98058","Match","Exact","15259 160TH PL SE, RENTON, WA, 98058",186920064,"L"
70487,"1526 10TH ST","WYANDOTTE","MI",48192,42.2182442760001,-83.1653826249999,487,"1526 10TH ST, WYANDOTTE, MI, 48192","Match","Exact","1526 10TH ST, WYANDOTTE, MI, 48192",95452406,"R"
70488,"1526 17TH STREET NW APT 402","WASHINGTON","DC",20036,38.9105223020001,-77.0384935559999,488,"1526 17TH STREET NW APT 402, WASHINGTON, DC, 20036","Match","Exact","1526 17TH ST NW, WASHINGTON, DC, 20036",76225608,"L"
70489,"1526 51ST ST","BROOKLYN","NY",11219,40.630841606,-73.988212685,489,"1526 51ST ST, BROOKLYN, NY, 11219","Match","Exact","1526 51ST ST, BROOKLYN, NY, 11219",59080322,"R"
70490,"1526 ADELINE STREET","OAKLAND","CA",94607,37.8102155450001,-122.285976027,490,"1526 ADELINE STREET, OAKLAND, CA, 94607","Match","Exact","1526 ADELINE ST, OAKLAND, CA, 94607",124995951,"R"
70491,"1526 BELLAIRE BLVD","LEWISVILLE","TX",75067,33.032163101,-97.034105616,491,"1526 BELLAIRE BLVD, LEWISVILLE, TX, 75067","Match","Exact","1526 BELLAIRE BLVD, LEWISVILLE, TX, 75067",622438124,"L"
70492,"1526 BEXHILL DRIVE","KNOXVILLE","TN",37922,35.8787309160001,-84.058800795,492,"1526 BEXHILL DRIVE, KNOXVILLE, TN, 37922","Match","Exact","1526 BEXHILL DR, KNOXVILLE, TN, 37922",631012355,"R"
70493,"1526 BRECON DRIVE","JACKSON","MS",39211,32.3592916000001,-90.1432755879999,493,"1526 BRECON DRIVE, JACKSON, MS, 39211","Match","Exact","1526 BRECON DR, JACKSON, MS, 39211",65360953,"L"
70494,"1526 BURNWOOD RD","BALTIMORE","MD",21239,39.3538816080001,-76.5884244389999,494,"1526 BURNWOOD RD, BALTIMORE, MD, 21239","Match","Exact","1526 BURNWOOD RD, BALTIMORE, MD, 21239",206435012,"L"
70495,"1526 BUSH ROAD","COCHRANVILLE","PA",19330,39.8877250990001,-75.978657176,495,"1526 BUSH ROAD, COCHRANVILLE, PA, 19330","Match","Exact","1526 BUSH RD, COCHRANVILLE, PA, 19330",642921178,"R"
70496,"1526 CAREY DRIVE","GROVE","OK",74344,36.5949837900001,-94.810647436,496,"1526 CAREY DRIVE, GROVE, OK, 74344","Match","Exact","1526 CAREY DR, GROVE, OK, 74344",652914701,"R"
70497,"1526 CENTRAL AVE","WILMETTE","IL",60091,42.0737439640001,-87.71507666,497,"1526 CENTRAL AVE, WILMETTE, IL, 60091","Match","Exact","1526 CENTRAL AVE, WILMETTE, IL, 60091",111739691,"R"
70498,"1526 CHANNING STREET NE","WASHINGTON","DC",20018,38.9229635450001,-76.981925324,498,"1526 CHANNING STREET NE, WASHINGTON, DC, 20018","Match","Exact","1526 CHANNING ST NE, WASHINGTON, DC, 20018",76228973,"L"
70499,"1526 CLEVELAND ST","HELENA","MT",59601,46.603539105,-112.050752991,499,"1526 CLEVELAND ST, HELENA, MT, 59601","Match","Exact","1526 CLEVELAND ST, HELENA, MT, 59601",202348964,"L"
70500,"1526 COVENTRY ROAD","CHARLOTTE","NC",28211,35.176554057,-80.8083724529999,500,"1526 COVENTRY ROAD, CHARLOTTE, NC, 28211","Match","Exact","1526 COVENTRY RD, CHARLOTTE, NC, 28211",70488906,"R"
