"ID","Address","City","State","Zip","lat","long","id","input_address","match_indicator","match_type","matched_address","tiger_line_id","tiger_side"
111001,"207 W NORTHERN AVENUE","PUEBLO","CO",81004,38.2441206300001,-104.612788779,1,"207 W NORTHERN AVENUE, PUEBLO, CO, 81004","Match","Exact","207 W NORTHERN AVE, PUEBLO, CO, 81004",105027370,"R"
111002,"207 W RANDOLPH ST","LEWISBURG","WV",24901,37.803485391,-80.446380757,2,"207 W RANDOLPH ST, LEWISBURG, WV, 24901","Match","Exact","207 W RANDOLPH ST, LEWISBURG, WV, 24901",639962774,"R"
111003,"207 W STAN SCHLUETER LOOP","KILLEEN","TX",76542,31.0762665340001,-97.751688507,3,"207 W STAN SCHLUETER LOOP, KILLEEN, TX, 76542","Match","Exact","207 W STAN SCHLUETER LOOP, KILLEEN, TX, 76542",146227142,"R"
111004,"207 W SUMMER ST  POB 278","HILLSBORO","IL",62049,NA,NA,4,"207 W SUMMER ST  POB 278, HILLSBORO, IL, 62049","Tie",NA,NA,NA,NA
111005,"207 WAKEFIELD TRACE","LOUISVILLE","KY",40245,38.243167455,-85.49015029,5,"207 WAKEFIELD TRACE, LOUISVILLE, KY, 40245","Match","Exact","207 WAKEFIELD TRCE, LOUISVILLE, KY, 40245",96877424,"L"
111006,"207 WALNUT ST SUITE 108","KANSAS CITY","MO",64106,39.110712124,-94.582359122,6,"207 WALNUT ST SUITE 108, KANSAS CITY, MO, 64106","Match","Exact","207 WALNUT ST, KANSAS CITY, MO, 64106",91444913,"L"
111007,"207 WATER OAK LANE","STARKVILLE","MS",39759,33.3794096560001,-88.80252795,7,"207 WATER OAK LANE, STARKVILLE, MS, 39759","Match","Exact","207 WATER OAK LN, STARKVILLE, MS, 39759",640762157,"L"
111008,"207 WELLINGTON ROAD","SHILLINGTON","PA",19607,40.3114509270001,-75.969678087,8,"207 WELLINGTON ROAD, SHILLINGTON, PA, 19607","Match","Exact","207 WELLINGTON RD, SHILLINGTON, PA, 19607",80431062,"R"
111009,"207 WEST 5TH AVENUE","COLLEGEVILLE","PA",19426,40.1861615030001,-75.4599276879999,9,"207 WEST 5TH AVENUE, COLLEGEVILLE, PA, 19426","Match","Exact","207 W 5TH AVE, COLLEGEVILLE, PA, 19426",135098570,"R"
111010,"207 WEST 92ND STREET","LOS ANGELES","CA",90003,33.9528239580001,-118.276156922,10,"207 WEST 92ND STREET, LOS ANGELES, CA, 90003","Match","Exact","207 W 92ND ST, LOS ANGELES, CA, 90003",141660427,"R"
111011,"207 WEST 96TH STREET LITTLE ROOM","NEW YORK","NY",10025,40.794169907,-73.970626781,11,"207 WEST 96TH STREET LITTLE ROOM, NEW YORK, NY, 10025","Match","Exact","207 W 96TH ST, NEW YORK, NY, 10025",59656596,"R"
111012,"207 WEST 98 ST APT 8B","NEW YORK","NY",10025,40.795496943,-73.9697101199999,12,"207 WEST 98 ST APT 8B, NEW YORK, NY, 10025","Match","Exact","207 W 98TH ST, NEW YORK, NY, 10025",59656594,"R"
111013,"207 WEST GEER ST","DURHAM","NC",27701,36.003812506,-78.8962670619999,13,"207 WEST GEER ST, DURHAM, NC, 27701","Match","Exact","207 W GEER ST, DURHAM, NC, 27701",71741613,"L"
111014,"207 WEST HARRISON STREET","SALISBURY","NC",28144,35.6609214690001,-80.481863956,14,"207 WEST HARRISON STREET, SALISBURY, NC, 28144","Match","Exact","207 W HARRISON ST, SALISBURY, NC, 28144",25268741,"L"
111015,"207 WEST PERSON AVE","MEMPHIS","TN",38109,35.101897266,-90.0693757399999,15,"207 WEST PERSON AVE, MEMPHIS, TN, 38109","Match","Exact","207 W PERSON AVE, MEMPHIS, TN, 38109",647241301,"L"
111016,"207 WEST SARATOGA STREET","BALTIMORE","MD",21201,39.2929418420001,-76.618393258,16,"207 WEST SARATOGA STREET, BALTIMORE, MD, 21201","Match","Exact","207 W SARATOGA ST, BALTIMORE, MD, 21201",206420463,"L"
111017,"207 WESTSIDE ROAD","NORFOLK","CT",6058,41.984541393,-73.2077118729999,17,"207 WESTSIDE ROAD, NORFOLK, CT, 6058","Match","Exact","207 WESTSIDE RD, NORFOLK, CT, 06058",3097103,"R"
111018,"207 WEXLEIGH DRIVE","HENRICO","VA",23229,37.5772000100001,-77.5988568669999,18,"207 WEXLEIGH DRIVE, HENRICO, VA, 23229","Match","Exact","207 WEXLEIGH DR, HENRICO, VA, 23229",106645651,"L"
111019,"207 WHIPPERWILL LN","ELGIN","TX",78621,30.3140874590001,-97.321100321,19,"207 WHIPPERWILL LN, ELGIN, TX, 78621","Match","Exact","207 WHIPPERWILL LN, ELGIN, TX, 78621",45489444,"L"
111020,"207 WHITE BRIDGE PIKE","NASHVILLE","TN",37209,36.138376749,-86.857618467,20,"207 WHITE BRIDGE PIKE, NASHVILLE, TN, 37209","Match","Exact","207 WHITE BRIDGE PIKE, NASHVILLE, TN, 37209",97180545,"L"
111021,"207 WHITE OAK DRIVE","GREENVILLE","NC",27858,35.557398199,-77.383993924,21,"207 WHITE OAK DRIVE, GREENVILLE, NC, 27858","Match","Exact","207 WHITE OAK DR, GREENVILLE, NC, 27858",80042213,"L"
111022,"207 WILLOW APT B3","CONWAY","AR",72032,35.09429492,-92.428452987,22,"207 WILLOW APT B3, CONWAY, AR, 72032","Match","Non_Exact","207 WILLOW ST, CONWAY, AR, 72032",141043856,"L"
111023,"207 WILMOT DR","RALEIGH","NC",27606,35.7810585560001,-78.725140771,23,"207 WILMOT DR, RALEIGH, NC, 27606","Match","Exact","207 WILMOT DR, RALEIGH, NC, 27606",72500658,"L"
111024,"207 WINDY HILL CT","CANTON","GA",30114,34.2521912830001,-84.497562261,24,"207 WINDY HILL CT, CANTON, GA, 30114","Match","Exact","207 WINDY HILL CT, CANTON, GA, 30114",68843858,"L"
111025,"207 WINHAM ST","SALINAS","CA",93901,36.669049864,-121.649897091,25,"207 WINHAM ST, SALINAS, CA, 93901","Match","Exact","207 WINHAM ST, SALINAS, CA, 93901",196823647,"L"
111026,"207 WOOD CIRCLE","CHAPEL HILL","NC",27514,NA,NA,26,"207 WOOD CIRCLE, CHAPEL HILL, NC, 27514","No_Match",NA,NA,NA,NA
111027,"207 YOUNG ST","TALLAHASSEE","FL",32301,30.4226783130001,-84.2832879159999,27,"207 YOUNG ST, TALLAHASSEE, FL, 32301","Match","Exact","207 YOUNG ST, TALLAHASSEE, FL, 32301",82851455,"L"
111028,"207 YOUNG STREET","TALLAHASSEE","FL",32301,30.4226783130001,-84.2832879159999,28,"207 YOUNG STREET, TALLAHASSEE, FL, 32301","Match","Exact","207 YOUNG ST, TALLAHASSEE, FL, 32301",82851455,"L"
111029,"207-06 33 AVENUE","BAYSIDE","NY",11361,40.769851669,-73.78223983,29,"207-06 33 AVENUE, BAYSIDE, NY, 11361","Match","Exact","207-6 33RD AVE, BAYSIDE, NY, 11361",59702639,"R"
111030,"207-07 ESTATES DRIVE","BAYSIDE","NY",11360,40.786373768,-73.785853753,30,"207-07 ESTATES DRIVE, BAYSIDE, NY, 11360","Match","Exact","207-7 ESTATES DR, BAYSIDE, NY, 11360",59701927,"R"
111031,"207-1 FIFTH AVENUE","HASTINGS","PA",16646,40.6643707420001,-78.708889297,31,"207-1 FIFTH AVENUE, HASTINGS, PA, 16646","Match","Exact","207 5TH AVE, HASTINGS, PA, 16646",605244093,"R"
111032,"207-211 BOND STREET","ELIZABETH","NJ",7206,40.6528124590001,-74.185080192,32,"207-211 BOND STREET, ELIZABETH, NJ, 7206","Match","Exact","207 BOND ST, ELIZABETH, NJ, 07206",60604981,"R"
111033,"207-3 HONEYSUCKLE LANE","BARDSTOWN","KY",40004,37.8084167370001,-85.448709965,33,"207-3 HONEYSUCKLE LANE, BARDSTOWN, KY, 40004","Match","Exact","207 HONEYSUCKLE LN, BARDSTOWN, KY, 40004",35141671,"L"
111034,"207-B SHELTON BEACH ROAD","SARALAND","AL",36571,30.8217794170001,-88.076394498,34,"207-B SHELTON BEACH ROAD, SARALAND, AL, 36571","Match","Exact","207 SHELTON BEACH RD, SARALAND, AL, 36571",61926452,"L"
111035,"207","PORTLAND","OR",97209,NA,NA,35,"207, PORTLAND, OR, 97209","No_Match",NA,NA,NA,NA
111036,"2070 33RD STREET","ASTORIA","NY",11105,NA,NA,36,"2070 33RD STREET, ASTORIA, NY, 11105","No_Match",NA,NA,NA,NA
111037,"2070 ANDERSON COVE LANE","CINCINNATI","OH",45244,39.0888328010001,-84.315018228,37,"2070 ANDERSON COVE LANE, CINCINNATI, OH, 45244","Match","Exact","2070 ANDERSON COVE LN, CINCINNATI, OH, 45244",103974211,"R"
111038,"2070 BEAL ROAD","FOREST GROVE","OR",97116,45.5355919720001,-123.110255458,38,"2070 BEAL ROAD, FOREST GROVE, OR, 97116","Match","Exact","2070 BEAL RD, FOREST GROVE, OR, 97116",158220848,"L"
111039,"2070 BRIARWOOD DRIVE","KINSTON","NC",28501,35.30535072,-77.5643793689999,39,"2070 BRIARWOOD DRIVE, KINSTON, NC, 28501","Match","Exact","2070 BRIARWOOD DR, KINSTON, NC, 28501",13892375,"R"
111040,"2070 BRONSON HILL RD","AVON","NY",14414,42.8953630070001,-77.684076111,40,"2070 BRONSON HILL RD, AVON, NY, 14414","Match","Exact","2070 BRONSON HILL RD, AVON, NY, 14414",14460374,"L"
111041,"2070 CARAVELLE COURT","LINCOLN","CA",95648,38.8601700200001,-121.264165546,41,"2070 CARAVELLE COURT, LINCOLN, CA, 95648","Match","Exact","2070 CARAVELLE CT, LINCOLN, CA, 95648",635322080,"R"
111042,"2070 CLINTON AVE APT 10N","BRONX","NY",10457,40.8473770680001,-73.8879856889999,42,"2070 CLINTON AVE APT 10N, BRONX, NY, 10457","Match","Exact","2070 CLINTON AVE, BRONX, NY, 10457",80301547,"R"
111043,"2070 DAVE CHESTER RD","LENOIR","NC",28645,35.8897540350001,-81.483054027,43,"2070 DAVE CHESTER RD, LENOIR, NC, 28645","Match","Exact","2070 DAVE CHESTER RD, LENOIR, NC, 28645",45862227,"L"
111044,"2070 DE SOTO DR","MIRAMAR","FL",33023,25.9916712610001,-80.234569311,44,"2070 DE SOTO DR, MIRAMAR, FL, 33023","Match","Exact","2070 DE SOTO DR, MIRAMAR, FL, 33023",114733939,"R"
111045,"2070 DE SOTO DRIVE","HOLLYWOOD","FL",33023,25.9916712610001,-80.234569311,45,"2070 DE SOTO DRIVE, HOLLYWOOD, FL, 33023","Match","Exact","2070 DE SOTO DR, HOLLYWOOD, FL, 33023",114733939,"R"
111046,"2070 DEANS LANDING DRIVE","LAWRENCEVILLE","GA",30043,33.998245271,-84.0520818049999,46,"2070 DEANS LANDING DRIVE, LAWRENCEVILLE, GA, 30043","Match","Exact","2070 DEANS LANDING DR, LAWRENCEVILLE, GA, 30043",88920215,"R"
111047,"2070 EAST 57 TH STREET 2 ND FLOOR","BROOKLYN","NY",11234,40.613577616,-73.9181429189999,47,"2070 EAST 57 TH STREET 2 ND FLOOR, BROOKLYN, NY, 11234","Match","Non_Exact","2070 E 57TH ST, BROOKLYN, NY, 11234",59092452,"R"
111048,"2070 EAST DEER CANYON","ARROYO GRANDE","CA",93420,35.16055866,-120.556848559,48,"2070 EAST DEER CANYON, ARROYO GRANDE, CA, 93420","Match","Non_Exact","2070 E DEER CANYON RD, ARROYO GRANDE, CA, 93420",109779940,"L"
111049,"2070 FOREST DRIVE","ANNAPOLIS","MD",21401,38.977209299,-76.5346156699999,49,"2070 FOREST DRIVE, ANNAPOLIS, MD, 21401","Match","Exact","2070 FOREST DR, ANNAPOLIS, MD, 21401",68172002,"R"
111050,"2070 H EDDY DR","LEONARD","MI",48367,42.8324824420001,-83.105335108,50,"2070 H EDDY DR, LEONARD, MI, 48367","Match","Exact","2070 H EDDY DR, LEONARD, MI, 48367",69760529,"R"
111051,"2070 N CRUZE","POST FALLS","ID",83854,47.7280304700001,-116.923760667,51,"2070 N CRUZE, POST FALLS, ID, 83854","Match","Non_Exact","2070 N CRUZE ST, POST FALLS, ID, 83854",640720163,"L"
111052,"2070 N STATE STREET","GREENFIELD","IN",46140,39.8152901610001,-85.769914548,52,"2070 N STATE STREET, GREENFIELD, IN, 46140","Match","Exact","2070 N STATE ST, GREENFIELD, IN, 46140",31085827,"L"
111053,"2070 OLD BISHOP ROAD","BISHOP","GA",30621,33.843029874,-83.420178918,53,"2070 OLD BISHOP ROAD, BISHOP, GA, 30621","Match","Exact","2070 OLD BISHOP RD, BISHOP, GA, 30621",5039596,"R"
111054,"2070 OLD MURFREESBORO RD WEST","LEBANON","TN",37090,36.1760886210001,-86.3085289099999,54,"2070 OLD MURFREESBORO RD WEST, LEBANON, TN, 37090","Match","Exact","2070 OLD MURFREESBORO RD W, LEBANON, TN, 37090",625626248,"L"
111055,"2070 OLD MURFREESBORO ROAD","LEBANON","TN",37090,36.140618128,-86.318642809,55,"2070 OLD MURFREESBORO ROAD, LEBANON, TN, 37090","Match","Exact","2070 MURFREESBORO RD, LEBANON, TN, 37090",637521295,"L"
111056,"2070 RAYMOND AVE","SIGNAL HILL","CA",90755,33.794709552,-118.164379635,56,"2070 RAYMOND AVE, SIGNAL HILL, CA, 90755","Match","Non_Exact","2070 N RAYMOND AVE, SIGNAL HILL, CA, 90755",141700277,"R"
111057,"2070 S COUNTY ROAD 700 W","GREENSBURG","IN",47240,39.304203166,-85.61248631,57,"2070 S COUNTY ROAD 700 W, GREENSBURG, IN, 47240","Match","Exact","2070 S CO RD 700 W, GREENSBURG, IN, 47240",31182094,"R"
111058,"2070 SHADOWOOD DRIVE","MARIETTA","GA",30066,34.028362159,-84.490891639,58,"2070 SHADOWOOD DRIVE, MARIETTA, GA, 30066","Match","Exact","2070 SHADOWOOD DR, MARIETTA, GA, 30066",17239293,"R"
111059,"2070 SOLA VISTA AVE","SAINT CLOUD","FL",34771,NA,NA,59,"2070 SOLA VISTA AVE, SAINT CLOUD, FL, 34771","No_Match",NA,NA,NA,NA
111060,"2070 SPRINGCREST ROAD","COLORADO SPRINGS","CO",80920,38.972561655,-104.791637676,60,"2070 SPRINGCREST ROAD, COLORADO SPRINGS, CO, 80920","Match","Exact","2070 SPRINGCREST RD, CO SPGS, CO, 80920",105548920,"L"
111061,"2070 TRENTON RD","LIBERTYVILLE","IL",60048,42.3219903470001,-87.939851092,61,"2070 TRENTON RD, LIBERTYVILLE, IL, 60048","Match","Exact","2070 TRENTON RD, LIBERTYVILLE, IL, 60048",119752606,"L"
111062,"2070 US HIGHWAY 96 SOUTH","SILSBEE","TX",77656,30.3219271360001,-94.188293336,62,"2070 US HIGHWAY 96 SOUTH, SILSBEE, TX, 77656","Match","Exact","2070 US HWY 96 S, SILSBEE, TX, 77656",23997489,"R"
111063,"2070 VT ROUTE 4A EAST","CASTLETON","VT",5735,43.6127570100001,-73.1281448679999,63,"2070 VT ROUTE 4A EAST, CASTLETON, VT, 5735","Match","Non_Exact","2070 STATE RTE 4A, CASTLETON, VT, 05735",138966322,"L"
111064,"2070 W FORT LOWELL","TUCSON","AZ",85705,32.2651238080001,-111.009247781,64,"2070 W FORT LOWELL, TUCSON, AZ, 85705","Match","Non_Exact","2070 W FORT LOWELL RD, TUCSON, AZ, 85705",121160800,"R"
111065,"20700 AVALON BLVD 11111","CARSON","CA",90749,NA,NA,65,"20700 AVALON BLVD 11111, CARSON, CA, 90749","No_Match",NA,NA,NA,NA
111066,"20700 KINGSLAND BLVD","KATY","TX",77450,29.77604038,-95.729394384,66,"20700 KINGSLAND BLVD, KATY, TX, 77450","Match","Exact","20700 KINGSLAND BLVD, KATY, TX, 77450",96628116,"R"
111067,"20700 LOUDOUN COUNTY PARKWAY","ASHBURN","VA",20147,39.0452958170001,-77.4502320079999,67,"20700 LOUDOUN COUNTY PARKWAY, ASHBURN, VA, 20147","Match","Exact","20700 LOUDOUN COUNTY PKWY, ASHBURN, VA, 20147",653489785,"L"
111068,"20700 LOUDOUN COUNTY PKWY STE 184","ASHBURN","VA",20147,39.0452958170001,-77.4502320079999,68,"20700 LOUDOUN COUNTY PKWY STE 184, ASHBURN, VA, 20147","Match","Exact","20700 LOUDOUN COUNTY PKWY, ASHBURN, VA, 20147",653489785,"L"
111069,"20700 LOUDOUN COUNTY PKWY SUITE 192","ASHBURN","VA",20147,39.0452958170001,-77.4502320079999,69,"20700 LOUDOUN COUNTY PKWY SUITE 192, ASHBURN, VA, 20147","Match","Exact","20700 LOUDOUN COUNTY PKWY, ASHBURN, VA, 20147",653489785,"L"
111070,"20700 N SHORE DR","HILLMAN","MI",49746,45.107361068,-83.966540343,70,"20700 N SHORE DR, HILLMAN, MI, 49746","Match","Exact","20700 N SHORE DR, HILLMAN, MI, 49746",135972323,"L"
111071,"20701 BEAR TRAP SPRINGS RD","NEVADA CITY","CA",95959,39.3943395530001,-120.933042444,71,"20701 BEAR TRAP SPRINGS RD, NEVADA CITY, CA, 95959","Match","Exact","20701 BEAR TRAP SPRINGS RD, NEVADA CITY, CA, 95959",610919214,"R"
111072,"20701 KESWICK STREET","WINNETKA","CA",91306,34.2104042240001,-118.584402413,72,"20701 KESWICK STREET, WINNETKA, CA, 91306","Match","Exact","20701 KESWICK ST, WINNETKA, CA, 91306",141533546,"R"
111073,"20701 KINGSLAND BLVD SUITE 105","KATY","TX",77450,29.775855376,-95.730565024,73,"20701 KINGSLAND BLVD SUITE 105, KATY, TX, 77450","Match","Exact","20701 KINGSLAND BLVD, KATY, TX, 77450",642155591,"R"
111074,"20701 N SCOTTSDALE RD 107 - 448","SCOTTSDALE","AZ",85255,NA,NA,74,"20701 N SCOTTSDALE RD 107 - 448, SCOTTSDALE, AZ, 85255","No_Match",NA,NA,NA,NA
111075,"20701 N SCOTTSDALE RD 107-260","SCOTTSDALE","AZ",85255,NA,NA,75,"20701 N SCOTTSDALE RD 107-260, SCOTTSDALE, AZ, 85255","No_Match",NA,NA,NA,NA
111076,"20701 N SCOTTSDALE ROAD  107-502","SCOTTSDALE","AZ",85255,NA,NA,76,"20701 N SCOTTSDALE ROAD  107-502, SCOTTSDALE, AZ, 85255","No_Match",NA,NA,NA,NA
111077,"20701 W 224TH STREET","SPRING HILL","KS",66083,38.721990497,-94.825259323,77,"20701 W 224TH STREET, SPRING HILL, KS, 66083","Match","Exact","20701 224TH ST, SPRING HILL, KS, 66083",646731930,"R"
111078,"20702 BENDING PINES LN","SPRING","TX",77379,NA,NA,78,"20702 BENDING PINES LN, SPRING, TX, 77379","No_Match",NA,NA,NA,NA
111079,"20702 N LAKE PLEASANT PKWY 1001","PEORIA","AZ",85382,NA,NA,79,"20702 N LAKE PLEASANT PKWY 1001, PEORIA, AZ, 85382","No_Match",NA,NA,NA,NA
111080,"20702 NE BAGGETT AVE","BLOUNTSTOWN","FL",32424,30.4530986400001,-85.04493968,80,"20702 NE BAGGETT AVE, BLOUNTSTOWN, FL, 32424","Match","Exact","20702 BAGGETT AVE, BLOUNTSTOWN, FL, 32424",6971029,"L"
111081,"20704 DAN CT","SAUGUS","CA",91350,34.460329105,-118.497521441,81,"20704 DAN CT, SAUGUS, CA, 91350","Match","Exact","20704 DAN CT, SAUGUS, CA, 91350",141519089,"R"
111082,"20706 350TH STREET","ADEL","IA",50003,41.5318936780001,-94.07587599,82,"20706 350TH STREET, ADEL, IA, 50003","Match","Exact","20706 350TH ST, ADEL, IA, 50003",635598484,"R"
111083,"20706 MEANDERING CIRCLE","SAN ANTONIO","TX",78258,29.634671875,-98.505389926,83,"20706 MEANDERING CIRCLE, SAN ANTONIO, TX, 78258","Match","Exact","20706 MEANDERING CIR, SAN ANTONIO, TX, 78258",101744152,"R"
111084,"20707 9TH ROAD","PLYMOUTH","IN",46563,41.345791433,-86.461936884,84,"20707 9TH ROAD, PLYMOUTH, IN, 46563","Match","Exact","20707 9TH RD, PLYMOUTH, IN, 46563",7652898,"R"
111085,"20707 AUTUMN TERRACE LN","KATY","TX",77450,29.753714593,-95.73126526,85,"20707 AUTUMN TERRACE LN, KATY, TX, 77450","Match","Exact","20707 AUTUMN TERRACE LN, KATY, TX, 77450",645130562,"R"
111086,"20707 MANSFIELD BAY LANE","RICHMOND","TX",77407,29.695786899,-95.74220199,86,"20707 MANSFIELD BAY LANE, RICHMOND, TX, 77407","Match","Exact","20707 MANSFIELD BAY LN, RICHMOND, TX, 77407",628066657,"R"
111087,"20709 NE 2ND ST","SAMMAMISH","WA",98074,47.6111289250001,-122.063763512,87,"20709 NE 2ND ST, SAMMAMISH, WA, 98074","Match","Exact","20709 NE 2ND ST, SAMMAMISH, WA, 98074",186615883,"R"
111088,"2071 ALEXANDER DRIVE","BATAVIA","IL",60510,41.821844749,-88.292401657,88,"2071 ALEXANDER DRIVE, BATAVIA, IL, 60510","Match","Exact","2071 ALEXANDER DR, BATAVIA, IL, 60510",119557818,"R"
111089,"2071 BLUE RIDGE DRIVE","MILPITAS","CA",95035,37.4223440320001,-121.866912732,89,"2071 BLUE RIDGE DRIVE, MILPITAS, CA, 95035","Match","Exact","2071 BLUE RIDGE DR, MILPITAS, CA, 95035",122988731,"L"
111090,"2071 ELMONT RD","MAYNARD","AR",72444,36.4416930460001,-90.781868055,90,"2071 ELMONT RD, MAYNARD, AR, 72444","Match","Exact","2071 ELMONT RD, MAYNARD, AR, 72444",52375309,"R"
111091,"2071 FAIRFIELD PLACE APT 4","O'FALLON","IL",62269,NA,NA,91,"2071 FAIRFIELD PLACE APT 4, O'FALLON, IL, 62269","No_Match",NA,NA,NA,NA
111092,"2071 FLATBUSH AVE SUITE 166","BROOKLYN","NY",11234,40.6193810770001,-73.933312691,92,"2071 FLATBUSH AVE SUITE 166, BROOKLYN, NY, 11234","Match","Exact","2071 FLATBUSH AVE, BROOKLYN, NY, 11234",59090409,"L"
111093,"2071 FLATBUSH AVENUE SUITE 2","BROOKLYN","NY",11234,40.6193810770001,-73.933312691,93,"2071 FLATBUSH AVENUE SUITE 2, BROOKLYN, NY, 11234","Match","Exact","2071 FLATBUSH AVE, BROOKLYN, NY, 11234",59090409,"L"
111094,"2071 HAYES ST","NORTH BEND","OR",97459,43.4062031770001,-124.25208072,94,"2071 HAYES ST, NORTH BEND, OR, 97459","Match","Exact","2071 HAYES ST, NORTH BEND, OR, 97459",137015615,"L"
111095,"2071 LAYTON HILLS PARKWAY","LAYTON","UT",84041,41.0814447870001,-111.978360752,95,"2071 LAYTON HILLS PARKWAY, LAYTON, UT, 84041","Match","Exact","2071 LAYTON HILLS PKWY, LAYTON, UT, 84041",155334462,"L"
111096,"2071 PROVIDENCE WAY","LODI","CA",95242,38.106432779,-121.299331907,96,"2071 PROVIDENCE WAY, LODI, CA, 95242","Match","Exact","2071 PROVIDENCE WAY, LODI, CA, 95242",133891524,"R"
111097,"2071 RIVERDALE STREET APT I6","WEST SPRINGFIELD","MA",1089,42.1580674310001,-72.632893473,97,"2071 RIVERDALE STREET APT I6, WEST SPRINGFIELD, MA, 1089","Match","Exact","2071 RIVERDALE ST, W SPRINGFIELD, MA, 01089",4071183,"R"
111098,"2071 ROUTE 130 SOUTH","FLORENCE","NJ",8518,NA,NA,98,"2071 ROUTE 130 SOUTH, FLORENCE, NJ, 8518","No_Match",NA,NA,NA,NA
111099,"2071 ROUTE 209","BRODHEADSVILLE","PA",18322,NA,NA,99,"2071 ROUTE 209, BRODHEADSVILLE, PA, 18322","No_Match",NA,NA,NA,NA
111100,"2071 ROWELLL DR","LYONS","CO",80540,40.273419113,-105.324705194,100,"2071 ROWELLL DR, LYONS, CO, 80540","Match","Non_Exact","2071 ROWELL DR, LYONS, CO, 80540",188517100,"R"
111101,"2071 S MAPLE AVE","YUMA","AZ",85364,32.6899811500001,-114.618154458,101,"2071 S MAPLE AVE, YUMA, AZ, 85364","Match","Exact","2071 S MAPLE AVE, YUMA, AZ, 85364",129625727,"L"
111102,"2071 TRAVIS LANE","POST FALLS","ID",83854,NA,NA,102,"2071 TRAVIS LANE, POST FALLS, ID, 83854","No_Match",NA,NA,NA,NA
111103,"2071 W STATE ROAD 67","PORTLAND","IN",47371,40.4290220880001,-85.020993678,103,"2071 W STATE ROAD 67, PORTLAND, IN, 47371","Match","Non_Exact","2071 W STATE RD 67, PORTLAND, IN, 47371",45042948,"R"
111104,"20710 BOGAR CR","BELTON","MO",64012,38.7513783680001,-94.5457207279999,104,"20710 BOGAR CR, BELTON, MO, 64012","Match","Non_Exact","20710 S BOGAR CIR, BELTON, MO, 64012",614097494,"R"
111105,"20710 WESTHEIMER PARKWAY SUITE B","KATY","TX",77450,29.738801473,-95.73473899,105,"20710 WESTHEIMER PARKWAY SUITE B, KATY, TX, 77450","Match","Exact","20710 WESTHEIMER PKWY, KATY, TX, 77450",96300798,"R"
111106,"20710 WOODTHRUSH CT","STERLING","VA",20165,39.0431623540001,-77.3986616179999,106,"20710 WOODTHRUSH CT, STERLING, VA, 20165","Match","Exact","20710 WOODTHRUSH CT, STERLING, VA, 20165",62335235,"L"
111107,"20711 FALLING CYPRESS CT","HUMBLE","TX",77338,30.0186316480001,-95.329266354,107,"20711 FALLING CYPRESS CT, HUMBLE, TX, 77338","Match","Exact","20711 FALLING CYPRESS CT, HUMBLE, TX, 77338",652890197,"L"
111108,"20711 FARGO DRIVE","CUPERTINO","CA",95014,37.3286676640001,-122.036657221,108,"20711 FARGO DRIVE, CUPERTINO, CA, 95014","Match","Exact","20711 FARGO DR, CUPERTINO, CA, 95014",639656543,"R"
111109,"20711 KENWOOD AVE","TORRANCE","CA",90502,33.8426558790001,-118.297366013,109,"20711 KENWOOD AVE, TORRANCE, CA, 90502","Match","Non_Exact","20711 S KENWOOD AVE, TORRANCE, CA, 90502",142659294,"R"
111110,"20711 SAPPHIRE LAKE ROAD","KATY","TX",77450,NA,NA,110,"20711 SAPPHIRE LAKE ROAD, KATY, TX, 77450","No_Match",NA,NA,NA,NA
111111,"20711 WEST MAIN STREET","BUCKEYE","AZ",85396,33.493483532,-112.50513461,111,"20711 WEST MAIN STREET, BUCKEYE, AZ, 85396","Match","Exact","20711 W MAIN ST, BUCKEYE, AZ, 85396",128894590,"L"
111112,"20712 S FM 225","DOUGLASS","TX",75943,31.6592445910001,-94.883494716,112,"20712 S FM 225, DOUGLASS, TX, 75943","Match","Exact","20712 S FM 225, DOUGLASS, TX, 75943",72451992,"R"
111113,"20713 HAGGERTY RD","BELLEVILLE","MI",48111,42.1531678160001,-83.441527477,113,"20713 HAGGERTY RD, BELLEVILLE, MI, 48111","Match","Exact","20713 HAGGERTY RD, BELLEVILLE, MI, 48111",95498954,"L"
111114,"20713 RECHER AVE","EUCLID","OH",44119,41.586744954,-81.53554773,114,"20713 RECHER AVE, EUCLID, OH, 44119","Match","Exact","20713 RECHER AVE, EUCLID, OH, 44119",61108620,"L"
111115,"20714 CENTER ST","LACOOCHEE","FL",33537,NA,NA,115,"20714 CENTER ST, LACOOCHEE, FL, 33537","No_Match",NA,NA,NA,NA
111116,"20715 N PIMA RD SUITEE 108","SCOTTSDALE","AZ",85255,NA,NA,116,"20715 N PIMA RD SUITEE 108, SCOTTSDALE, AZ, 85255","No_Match",NA,NA,NA,NA
111117,"20715 RIPTIDE SQUARE","STERLING","VA",20165,39.042266193,-77.3482386379999,117,"20715 RIPTIDE SQUARE, STERLING, VA, 20165","Match","Exact","20715 RIPTIDE SQ, STERLING, VA, 20165",62334620,"R"
111118,"20715 TORRE DEL LAGO STREET","ESTERO","FL",33928,26.436546482,-81.731591959,118,"20715 TORRE DEL LAGO STREET, ESTERO, FL, 33928","Match","Exact","20715 TORRE DEL LAGO ST, ESTERO, FL, 33928",650094164,"L"
111119,"20716 14TH STREET EAST","LAKE TAPPS","WA",98391,47.244904826,-122.1535044,119,"20716 14TH STREET EAST, LAKE TAPPS, WA, 98391","Match","Exact","20716 14TH ST E, LAKE TAPPS, WA, 98391",184688866,"R"
111120,"20716 CRYSTAL HILL CIRCLE APT F","GERMANTOWN","MD",20874,39.1980150960001,-77.276092827,120,"20716 CRYSTAL HILL CIRCLE APT F, GERMANTOWN, MD, 20874","Match","Exact","20716 CRYSTAL HILL CIR, GERMANTOWN, MD, 20874",647243806,"L"
111121,"20717 H CRYSTAL HILL CIRCLE","GERMANTOWN","MD",20874,39.1982786950001,-77.2765352819999,121,"20717 H CRYSTAL HILL CIRCLE, GERMANTOWN, MD, 20874","Match","Exact","20717 CRYSTAL HILL CIR, GERMANTOWN, MD, 20874",62105972,"R"
111122,"20717 SOUTH STREET","TEHACHAPI","CA",93561,35.120942583,-118.492631044,122,"20717 SOUTH STREET, TEHACHAPI, CA, 93561","Match","Exact","20717 SOUTH ST, TEHACHAPI, CA, 93561",108990612,"L"
111123,"20718 E  FARWOOD TERRACE","CYPRESS","TX",77433,30.0277825800001,-95.743972435,123,"20718 E  FARWOOD TERRACE, CYPRESS, TX, 77433","Match","Non_Exact","20718 E FAREWOOD TER, CYPRESS, TX, 77433",625720926,"L"
111124,"20718 E FARWOOD TERRACE","CYPRESS","TX",77433,30.0277825800001,-95.743972435,124,"20718 E FARWOOD TERRACE, CYPRESS, TX, 77433","Match","Non_Exact","20718 E FAREWOOD TER, CYPRESS, TX, 77433",625720926,"L"
111125,"20719 SAINT CHARLES ST","SARATOGA","CA",95070,37.2548884380001,-122.03593254,125,"20719 SAINT CHARLES ST, SARATOGA, CA, 95070","Match","Exact","20719 SAINT CHARLES ST, SARATOGA, CA, 95070",122942783,"R"
111126,"2072 ASHMORE DRIVE","KETTERING","OH",45420,39.7179227240001,-84.1408879379999,126,"2072 ASHMORE DRIVE, KETTERING, OH, 45420","Match","Exact","2072 ASHMORE DR, KETTERING, OH, 45420",143582582,"L"
111127,"2072 CURRY RD","SCHENECTADY","NY",12303,42.7749851030001,-73.9524545149999,127,"2072 CURRY RD, SCHENECTADY, NY, 12303","Match","Exact","2072 CURRY RD, SCHENECTADY, NY, 12303",18037358,"R"
111128,"2072 DAHLGREN EAST ROAD","DAHLGREN","IL",62828,NA,NA,128,"2072 DAHLGREN EAST ROAD, DAHLGREN, IL, 62828","No_Match",NA,NA,NA,NA
111129,"2072 E RANCH ROAD","TEMPE","AZ",85284,33.333137745,-111.898458429,129,"2072 E RANCH ROAD, TEMPE, AZ, 85284","Match","Exact","2072 E RANCH RD, TEMPE, AZ, 85284",128239316,"R"
111130,"2072 EAST 55TH STREET","BROOKLYN","NY",11234,40.612113101,-73.9202658689999,130,"2072 EAST 55TH STREET, BROOKLYN, NY, 11234","Match","Exact","2072 E 55TH ST, BROOKLYN, NY, 11234",59092544,"R"
111131,"2072 EAST LAVIEVE LANE","TEMPE","AZ",85284,33.3316165850001,-111.898336003,131,"2072 EAST LAVIEVE LANE, TEMPE, AZ, 85284","Match","Non_Exact","2072 E LA VIEVE LN, TEMPE, AZ, 85284",128239320,"L"
111132,"2072 EVERGLADE","CLOVIS","CA",93619,36.865048953,-119.677753131,132,"2072 EVERGLADE, CLOVIS, CA, 93619","Match","Non_Exact","2072 EVERGLADE AVE, CLOVIS, CA, 93619",606269990,"R"
111133,"2072 PLAINVIEW AVENUE","PITTSBURGH","PA",15226,40.40193307,-80.018445699,133,"2072 PLAINVIEW AVENUE, PITTSBURGH, PA, 15226","Match","Exact","2072 PLAINVIEW AVE, PITTSBURGH, PA, 15226",639084057,"R"
111134,"2072 SAN SEBASTIAN WAY N","CLEARWATER","FL",33763,27.9970867230001,-82.7566621999999,134,"2072 SAN SEBASTIAN WAY N, CLEARWATER, FL, 33763","Match","Exact","2072 SAN SEBASTIAN WAY N, CLEARWATER, FL, 33763",124668834,"L"
111135,"2072 SUNSET VIEW PL","SAN JOSE","CA",95116,37.3534591490001,-121.846402672,135,"2072 SUNSET VIEW PL, SAN JOSE, CA, 95116","Match","Exact","2072 SUNSET VIEW PL, SAN JOSE, CA, 95116",122998212,"R"
111136,"2072 VALLEY ROAD","LANSING","IA",52151,43.3691925950001,-91.26378264,136,"2072 VALLEY ROAD, LANSING, IA, 52151","Match","Exact","2072 VALLEY RD, LANSING, IA, 52151",48222356,"L"
111137,"20720 NE 23RD AVE","MIAMI","FL",33180,25.9671216850001,-80.155799198,137,"20720 NE 23RD AVE, MIAMI, FL, 33180","Match","Non_Exact","20720 NE 23RD AVE, MIAMI, FL, 33180",116035026,"L"
111138,"20720 STATE HWY 305 NE STE 2A","POULSBO","WA",98370,47.7495864030001,-122.642789898,138,"20720 STATE HWY 305 NE STE 2A, POULSBO, WA, 98370","Match","Exact","20720 STATE HWY 305 NE, POULSBO, WA, 98370",629073044,"R"
111139,"20720 SW 116 RD","MIAMI","FL",33189,25.5746643520001,-80.378525251,139,"20720 SW 116 RD, MIAMI, FL, 33189","Match","Non_Exact","20720 SW 116TH RD, MIAMI, FL, 33189",116056103,"R"
111140,"20720 W 7 MILE ROAD SUITE A","DETROIT","MI",48219,42.4293907480001,-83.246563205,140,"20720 W 7 MILE ROAD SUITE A, DETROIT, MI, 48219","Match","Non_Exact","20720 W 7 MILE RD, DETROIT, MI, 48219",95421597,"R"
111141,"20721 BALDWIN LANE","PORTER","TX",77365,30.114984667,-95.2558912809999,141,"20721 BALDWIN LANE, PORTER, TX, 77365","Match","Exact","20721 BALDWIN LN, PORTER, TX, 77365",79286491,"L"
111142,"20721 BALDWIN","PORTER","TX",77365,30.114984667,-95.2558912809999,142,"20721 BALDWIN, PORTER, TX, 77365","Match","Non_Exact","20721 BALDWIN LN, PORTER, TX, 77365",79286491,"L"
111143,"20721 MOOREPARK ROAD","THREE RIVERS","MI",49093,42.0155617890001,-85.5537186729999,143,"20721 MOOREPARK ROAD, THREE RIVERS, MI, 49093","Match","Exact","20721 MOOREPARK RD, THREE RIVERS, MI, 49093",15325015,"R"
111144,"20721 SABBATH COURT","GAITHERSBURG","MD",20882,39.196459808,-77.18147097,144,"20721 SABBATH COURT, GAITHERSBURG, MD, 20882","Match","Exact","20721 SABBATH CT, GAITHERSBURG, MD, 20882",62050385,"L"
111145,"20723 BANDROCK TERRACE","RICHMOND","TX",77407,29.673724038,-95.7400764499999,145,"20723 BANDROCK TERRACE, RICHMOND, TX, 77407","Match","Exact","20723 BANDROCK TER, RICHMOND, TX, 77407",642952504,"R"
111146,"20723 CYPRESS BREEZE DR","HOUSTON","TX",77433,29.8850269750001,-95.727306475,146,"20723 CYPRESS BREEZE DR, HOUSTON, TX, 77433","Match","Non_Exact","20723 CYPRESS BREEZE DR, CYPRESS, TX, 77433",626962775,"R"
111147,"20723 EGYPT ROAD","ABERDEEN","MS",39730,NA,NA,147,"20723 EGYPT ROAD, ABERDEEN, MS, 39730","No_Match",NA,NA,NA,NA
111148,"20723 SCENIC DRIVE","CHUGIAK","AK",99567,61.4075892160001,-149.487712491,148,"20723 SCENIC DRIVE, CHUGIAK, AK, 99567","Match","Exact","20723 SCENIC DR, CHUGIAK, AK, 99567",647159364,"L"
111149,"20725 CAMDEN SQUARE APT 109","SOUTHFIELD","MI",48076,42.484904951,-83.254066118,149,"20725 CAMDEN SQUARE APT 109, SOUTHFIELD, MI, 48076","Match","Exact","20725 CAMDEN SQ, SOUTHFIELD, MI, 48076",69815242,"R"
111150,"20725 NORTH 37TH WAY","PHOENIX","AZ",85050,33.675151149,-112.002251605,150,"20725 NORTH 37TH WAY, PHOENIX, AZ, 85050","Match","Exact","20725 N 37TH WAY, PHOENIX, AZ, 85050",128875372,"R"
111151,"20727 FOX HOUND LN","HUMBLE","TX",77338,30.0211610920001,-95.3135322639999,151,"20727 FOX HOUND LN, HUMBLE, TX, 77338","Match","Exact","20727 FOX HOUND LN, HUMBLE, TX, 77338",640068273,"R"
111152,"20727 S ALSAP RD","BUCKEYE","AZ",85396,33.4713694660001,-112.504649742,152,"20727 S ALSAP RD, BUCKEYE, AZ, 85396","Match","Non_Exact","20727 W ALSAP RD, BUCKEYE, AZ, 85396",627703194,"R"
111153,"20727 SE 24TH STREET","SAMMAMISH","WA",98075,47.5884493120001,-122.063197319,153,"20727 SE 24TH STREET, SAMMAMISH, WA, 98075","Match","Exact","20727 SE 24TH ST, SAMMAMISH, WA, 98075",239758278,"R"
111154,"20727 TISBURY LN","NORTH DT MYERS","FL",33917,26.761875064,-81.907630748,154,"20727 TISBURY LN, NORTH DT MYERS, FL, 33917","Match","Non_Exact","20727 TISBURY LN, N FT MYERS, FL, 33917",118123534,"L"
111155,"20728 HART ST","WINNETKA","CA",91306,34.197404976,-118.585030797,155,"20728 HART ST, WINNETKA, CA, 91306","Match","Exact","20728 HART ST, WINNETKA, CA, 91306",141535275,"L"
111156,"2073 211TH AVE NE","SAMMAMISH","WA",98074,47.628987753,-122.057645957,156,"2073 211TH AVE NE, SAMMAMISH, WA, 98074","Match","Exact","2073 211TH AVE NE, SAMMAMISH, WA, 98074",186617475,"L"
111157,"2073 COBB MEADOW LANE","CLARKSVILLE","TN",37043,36.558360361,-87.292856058,157,"2073 COBB MEADOW LANE, CLARKSVILLE, TN, 37043","Match","Exact","2073 COBB MEADOW LN, CLARKSVILLE, TN, 37043",634982352,"R"
111158,"2073 COUNTY ROAD DK","BRUSSELS","WI",54201,NA,NA,158,"2073 COUNTY ROAD DK, BRUSSELS, WI, 54201","No_Match",NA,NA,NA,NA
111159,"2073 COVE ROAD","HAYES","VA",23072,37.2680764200001,-76.4720370319999,159,"2073 COVE ROAD, HAYES, VA, 23072","Match","Exact","2073 COVE RD, HAYES, VA, 23072",168201312,"R"
111160,"2073 E 221ST ST","EUCLID","OH",44117,41.5646650790001,-81.527164372,160,"2073 E 221ST ST, EUCLID, OH, 44117","Match","Exact","2073 E 221ST ST, EUCLID, OH, 44117",61124426,"L"
111161,"2073 FOSTER CIRCLE","COOKEVILLE","TN",38501,36.2092056860001,-85.542292448,161,"2073 FOSTER CIRCLE, COOKEVILLE, TN, 38501","Match","Exact","2073 FOSTER CIR, COOKEVILLE, TN, 38501",630023241,"R"
111162,"2073 GRAND AVE 1ST FL","BRONX","NY",10453,40.854605883,-73.908851168,162,"2073 GRAND AVE 1ST FL, BRONX, NY, 10453","Match","Exact","2073 GRAND AVE, BRONX, NY, 10453",80299667,"L"
111163,"2073 LAKE PARK DRIVE SE UNIT H","SMYRNA","GA",30080,33.8953316650001,-84.488633673,163,"2073 LAKE PARK DRIVE SE UNIT H, SMYRNA, GA, 30080","Match","Exact","2073 LAKE PARK DR SE, SMYRNA, GA, 30080",17259850,"R"
111164,"2073 ROYCE DRIVE","MEBANE","NC",27302,36.0467164900001,-79.300022871,164,"2073 ROYCE DRIVE, MEBANE, NC, 27302","Match","Exact","2073 ROYCE DR, MEBANE, NC, 27302",71674321,"R"
111165,"2073 SUNNY SLOPE ROAD","MINERAL POINT","WI",53565,42.914648061,-90.2555288459999,165,"2073 SUNNY SLOPE ROAD, MINERAL POINT, WI, 53565","Match","Exact","2073 SUNNY SLOPE RD, MINERAL POINT, WI, 53565",49794559,"R"
111166,"2073 W 200 S","ROCHESTER","IN",46975,41.025500601,-86.282261467,166,"2073 W 200 S, ROCHESTER, IN, 46975","Match","Exact","2073 W 200 S, ROCHESTER, IN, 46975",7841684,"L"
111167,"20730 AUTUMN TERRACE LN","KATY","TX",77450,29.753715712,-95.731657318,167,"20730 AUTUMN TERRACE LN, KATY, TX, 77450","Match","Exact","20730 AUTUMN TERRACE LN, KATY, TX, 77450",645130562,"L"
111168,"20730 BRINSON BLVD","BEND","OR",97701,44.0837970530001,-121.28550577,168,"20730 BRINSON BLVD, BEND, OR, 97701","Match","Exact","20730 BRINSON BLVD, BEND, OR, 97701",611082966,"R"
111169,"20730 BROWN RD","MONROE","WA",98272,47.8812512120001,-121.952459039,169,"20730 BROWN RD, MONROE, WA, 98272","Match","Exact","20730 BROWN RD, MONROE, WA, 98272",187813860,"L"
111170,"20731 W 123RD STREET","OLATHE","KS",66061,38.9050474840001,-94.8256615619999,170,"20731 W 123RD STREET, OLATHE, KS, 66061","Match","Exact","20731 W 123RD ST, OLATHE, KS, 66061",639589396,"L"
111171,"20736 SW 120TH CT","MIAMI","FL",33177,25.5739910200001,-80.3865658,171,"20736 SW 120TH CT, MIAMI, FL, 33177","Match","Exact","20736 SW 120TH CT, MIAMI, FL, 33177",116056012,"L"
111172,"20738 HOLLY RAIN DRIVE","KATY","TX",77449,29.82777579,-95.730287848,172,"20738 HOLLY RAIN DRIVE, KATY, TX, 77449","Match","Non_Exact","20738 HOLLY RAIN CT, KATY, TX, 77449",624813406,"R"
111173,"20738 ORCHARD LN","ST JOSEPH","MO",64505,39.830110647,-94.859153138,173,"20738 ORCHARD LN, ST JOSEPH, MO, 64505","Match","Exact","20738 ORCHARD LN, SAINT JOSEPH, MO, 64505",15938861,"L"
111174,"2073B CENTER ST","ELKINS","AR",72727,36.0293659270001,-94.026413793,174,"2073B CENTER ST, ELKINS, AR, 72727","Match","Non_Exact","2073 N CENTER ST, ELKINS, AR, 72727",49101420,"R"
111175,"2074 CLEMENTI LN","AURORA","IL",60503,41.7175470880001,-88.259434085,175,"2074 CLEMENTI LN, AURORA, IL, 60503","Match","Exact","2074 CLEMENTI LN, AURORA, IL, 60503",111617369,"R"
111176,"2074 E 270 S","ST GEORGE","UT",84790,37.1037954120001,-113.537454379,176,"2074 E 270 S, ST GEORGE, UT, 84790","Match","Exact","2074 E 270 S, SAINT GEORGE, UT, 84790",166181419,"R"
111177,"2074 E ORANGE ST","TEMPE","AZ",85281,33.4184369920001,-111.897358574,177,"2074 E ORANGE ST, TEMPE, AZ, 85281","Match","Exact","2074 E ORANGE ST, TEMPE, AZ, 85281",128232020,"L"
111178,"2074 INDIAN SKY CIR","LAKELAND","FL",33813,27.941478347,-81.92763817,178,"2074 INDIAN SKY CIR, LAKELAND, FL, 33813","Match","Exact","2074 INDIAN SKY CIR, LAKELAND, FL, 33813",633996632,"R"
111179,"2074 MAIDSTONE FARM ROAD","ANNAPOLIS","MD",21409,38.9978086580001,-76.446029305,179,"2074 MAIDSTONE FARM ROAD, ANNAPOLIS, MD, 21409","Match","Exact","2074 MAIDSTONE FARM RD, ANNAPOLIS, MD, 21409",627004240,"R"
111180,"2074 MILAN AVE","SOUTH PASADENA","CA",91030,34.0995153810001,-118.143792872,180,"2074 MILAN AVE, SOUTH PASADENA, CA, 91030","Match","Exact","2074 MILAN AVE, SOUTH PASADENA, CA, 91030",142672724,"L"
111181,"2074 PETERSEN WAY","SUFFOLK","VA",23434,NA,NA,181,"2074 PETERSEN WAY, SUFFOLK, VA, 23434","No_Match",NA,NA,NA,NA
111182,"2074 PINECREST DRIVE","MORGANTOWN","WV",26505,39.6697253730001,-79.922365272,182,"2074 PINECREST DRIVE, MORGANTOWN, WV, 26505","Match","Exact","2074 PINECREST DR, MORGANTOWN, WV, 26505",50755399,"R"
111183,"2074 S 30 W","OREM","UT",84058,40.2593126790001,-111.69568459,183,"2074 S 30 W, OREM, UT, 84058","Match","Exact","2074 S 30 W, OREM, UT, 84058",651923531,"R"
111184,"2074 S 79 ST","MILWAUKEE","WI",53219,43.0068119220001,-88.01162422,184,"2074 S 79 ST, MILWAUKEE, WI, 53219","Match","Exact","2074 S 79TH ST, MILWAUKEE, WI, 53219",77733266,"L"
111185,"2074 SEQUOIA CREST","VISTA","CA",92081,33.153721121,-117.255510779,185,"2074 SEQUOIA CREST, VISTA, CA, 92081","Match","Exact","2074 SEQUOIA CRST, VISTA, CA, 92081",195743642,"L"
111186,"2074 W 1520 N","CLINTON","UT",84015,41.1358696340001,-112.066036679,186,"2074 W 1520 N, CLINTON, UT, 84015","Match","Exact","2074 W 1520 N, CLINTON, UT, 84015",155338460,"L"
111187,"2074 WAPPOO HALL ROAD","CHARLESTON","SC",29412,32.7666355380001,-79.992841228,187,"2074 WAPPOO HALL ROAD, CHARLESTON, SC, 29412","Match","Exact","2074 WAPPOO HALL RD, CHARLESTON, SC, 29412",108872805,"R"
111188,"2074 WENTWORTH CIRCLE","ORLANDO","FL",32703,NA,NA,188,"2074 WENTWORTH CIRCLE, ORLANDO, FL, 32703","No_Match",NA,NA,NA,NA
111189,"20740 SW 89 PATH","CUTLER BAY","FL",33189,25.574482141,-80.337233085,189,"20740 SW 89 PATH, CUTLER BAY, FL, 33189","Match","Exact","20740 SW 89TH PATH, CUTLER BAY, FL, 33189",642618971,"R"
111190,"20741 HIGHLANDER RIDGE DR","EDMOND","OK",73012,35.682974443,-97.557414966,190,"20741 HIGHLANDER RIDGE DR, EDMOND, OK, 73012","Match","Exact","20741 HIGHLANDER RIDGE DR, EDMOND, OK, 73012",618151472,"R"
111191,"20742 CHAUCER LANE","HUNTINGTON BEACH","CA",92646,33.6616001570001,-117.969706918,191,"20742 CHAUCER LANE, HUNTINGTON BEACH, CA, 92646","Match","Exact","20742 CHAUCER LN, HUNTINGTON BEACH, CA, 92646",144021340,"L"
111192,"20745 NORDHOFF ST","CHATSWORTH","CA",91311,34.2354718130001,-118.585347771,192,"20745 NORDHOFF ST, CHATSWORTH, CA, 91311","Match","Exact","20745 NORDHOFF ST, CHATSWORTH, CA, 91311",141533052,"R"
111193,"20747 STERLINGTON DR","LAND O LAKES","FL",34638,28.1944458090001,-82.4733615659999,193,"20747 STERLINGTON DR, LAND O LAKES, FL, 34638","Match","Exact","20747 STERLINGTON DR, LAND O LAKES, FL, 34638",618489608,"L"
111194,"2075 1ST AVENUE SUITE 5B","NEW YORK","NY",10029,NA,NA,194,"2075 1ST AVENUE SUITE 5B, NEW YORK, NY, 10029","No_Match",NA,NA,NA,NA
111195,"2075 86TH STREET  SUITE 203","BROOKLYN","NY",11214,40.6035457150001,-73.996484676,195,"2075 86TH STREET  SUITE 203, BROOKLYN, NY, 11214","Match","Exact","2075 86TH ST, BROOKLYN, NY, 11214",59088278,"L"
111196,"2075 AMYS RIDGE EAST CT","BEAVERCREEK","OH",45434,NA,NA,196,"2075 AMYS RIDGE EAST CT, BEAVERCREEK, OH, 45434","No_Match",NA,NA,NA,NA
111197,"2075 ASHBURY DR","CLEARWATER","FL",33764,27.920960553,-82.740425175,197,"2075 ASHBURY DR, CLEARWATER, FL, 33764","Match","Exact","2075 ASHBURY DR, CLEARWATER, FL, 33764",124798358,"L"
111198,"2075 BENT CREEK WAY SW","ATLANTA","GA",30311,33.7003021240001,-84.464979991,198,"2075 BENT CREEK WAY SW, ATLANTA, GA, 30311","Match","Exact","2075 BENT CREEK WAY SW, ATLANTA, GA, 30311",636182704,"R"
111199,"2075 BIG BRUSH CREEK ROAD","GREEN MOUNTAIN","NC",28740,35.9825974820001,-82.22877807,199,"2075 BIG BRUSH CREEK ROAD, GREEN MOUNTAIN, NC, 28740","Match","Exact","2075 BIG BRUSH CREEK RD, GREEN MOUNTAIN, NC, 28740",37427901,"L"
111200,"2075 DEANS LANDING DRIVE","LAWRENCEVILLE","GA",30043,33.998291882,-84.0520954249999,200,"2075 DEANS LANDING DRIVE, LAWRENCEVILLE, GA, 30043","Match","Exact","2075 DEANS LANDING DR, LAWRENCEVILLE, GA, 30043",88920215,"L"
111201,"2075 DEER PARK AVE","DEER PARK","NY",11729,40.771254823,-73.333174173,201,"2075 DEER PARK AVE, DEER PARK, NY, 11729","Match","Exact","2075 DEER PARK AVE, DEER PARK, NY, 11729",113969902,"R"
111202,"2075 E SUMNER AVE","FRESNO","CA",93725,36.6271059430001,-119.753315259,202,"2075 E SUMNER AVE, FRESNO, CA, 93725","Match","Exact","2075 E SUMNER AVE, FRESNO, CA, 93725",197587221,"R"
111203,"2075 EAST SEMPER FI DRIVE","RIMROCK","AZ",86335,34.66081826,-111.814185153,203,"2075 EAST SEMPER FI DRIVE, RIMROCK, AZ, 86335","Match","Non_Exact","2075 SEMPER FI DR, RIMROCK, AZ, 86335",625682793,"R"
111204,"2075 ELLIS AVENUE","SAINT PAUL","MN",55114,44.9660915170001,-93.1872282749999,204,"2075 ELLIS AVENUE, SAINT PAUL, MN, 55114","Match","Exact","2075 ELLIS AVE, SAINT PAUL, MN, 55114",97639095,"R"
111205,"2075 FIRST AVENUE 5B","NEW YORK","NY",10029,NA,NA,205,"2075 FIRST AVENUE 5B, NEW YORK, NY, 10029","No_Match",NA,NA,NA,NA
111206,"2075 FIRST AVENUE SUITE 5B","NEW YORK","NY",10029,NA,NA,206,"2075 FIRST AVENUE SUITE 5B, NEW YORK, NY, 10029","No_Match",NA,NA,NA,NA
111207,"2075 FIRST AVENUE","NEW YORK","NY",10029,40.790431072,-73.93948613,207,"2075 FIRST AVENUE, NEW YORK, NY, 10029","Match","Exact","2075 1ST AVE, NEW YORK, NY, 10029",59658187,"L"
111208,"2075 HIGHLAND STREET","SEASIDE","CA",93955,36.62093932,-121.829825194,208,"2075 HIGHLAND STREET, SEASIDE, CA, 93955","Match","Exact","2075 HIGHLAND ST, SEASIDE, CA, 93955",649933196,"L"
111209,"2075 JADE ST APT S228C1","DAVIS","CA",95616,38.541144135,-121.77462617,209,"2075 JADE ST APT S228C1, DAVIS, CA, 95616","Match","Exact","2075 JADE ST, DAVIS, CA, 95616",650709742,"L"
111210,"2075 LEE ST SW","WYOMING","MI",49519,42.923351789,-85.7168632509999,210,"2075 LEE ST SW, WYOMING, MI, 49519","Match","Exact","2075 LEE ST SW, WYOMING, MI, 49519",12454192,"R"
111211,"2075 N MARINE BLVD SUITE U PMB 240","JACKSONVILLE","NC",28546,34.7788614790001,-77.3907209449999,211,"2075 N MARINE BLVD SUITE U PMB 240, JACKSONVILLE, NC, 28546","Match","Non_Exact","2075 N MARINE BLVD, JACKSONVILLE, NC, 28546",14012329,"L"
111212,"2075 NORTH 11TH STREET","SPRINGFIELD","IL",62702,39.828628945,-89.639827257,212,"2075 NORTH 11TH STREET, SPRINGFIELD, IL, 62702","Match","Exact","2075 N 11TH ST, SPRINGFIELD, IL, 62702",97324591,"L"
111213,"2075 PLEASANT HOLLOW DR","LITHONIA","GA",30058,33.732565062,-84.0767105909999,213,"2075 PLEASANT HOLLOW DR, LITHONIA, GA, 30058","Match","Exact","2075 PLEASANT HOLLOW DR, LITHONIA, GA, 30058",619381329,"R"
111214,"2075 POPLAR STREET","OROVILLE","CA",95965,39.513136418,-121.60955557,214,"2075 POPLAR STREET, OROVILLE, CA, 95965","Match","Exact","2075 POPLAR ST, OROVILLE, CA, 95965",68457971,"L"
111215,"2075 PORTERVILLE RD","EAST AURORA","NY",14052,NA,NA,215,"2075 PORTERVILLE RD, EAST AURORA, NY, 14052","No_Match",NA,NA,NA,NA
111216,"2075 RUSH PLACE","LAKE STATION","IN",46405,41.5787949800001,-87.238323225,216,"2075 RUSH PLACE, LAKE STATION, IN, 46405","Match","Exact","2075 RUSH PL, LAKE STATION, IN, 46405",606329490,"L"
111217,"2075 SW 159 AVENUE","MIRAMAR","FL",33027,25.995425943,-80.3573232159999,217,"2075 SW 159 AVENUE, MIRAMAR, FL, 33027","Match","Exact","2075 SW 159TH AVE, MIRAMAR, FL, 33027",114792234,"R"
111218,"2075 W GARDNER LANE","TUCSON","AZ",85705,32.2816707860001,-111.011695876,218,"2075 W GARDNER LANE, TUCSON, AZ, 85705","Match","Exact","2075 W GARDNER LN, TUCSON, AZ, 85705",121396723,"L"
111219,"2075 W STADIUM BLVD UNIT 3508","ANN ARBOR","MI",48106,NA,NA,219,"2075 W STADIUM BLVD UNIT 3508, ANN ARBOR, MI, 48106","No_Match",NA,NA,NA,NA
111220,"2075 WINNEBAGO ST SUITE 1","MADISON","WI",53704,43.0937646620001,-89.353800544,220,"2075 WINNEBAGO ST SUITE 1, MADISON, WI, 53704","Match","Exact","2075 WINNEBAGO ST, MADISON, WI, 53704",49505583,"R"
111221,"20750 CIVIC CENTER DR STE 180","SOUTHFIELD","MI",48076,42.4796925950001,-83.2483807839999,221,"20750 CIVIC CENTER DR STE 180, SOUTHFIELD, MI, 48076","Match","Exact","20750 CIVIC CENTER DR, SOUTHFIELD, MI, 48076",641241147,"R"
111222,"20750 CIVIC CENTER DR","SOUTHFIELD","MI",48205,42.4796925950001,-83.2483807839999,222,"20750 CIVIC CENTER DR, SOUTHFIELD, MI, 48205","Match","Non_Exact","20750 CIVIC CENTER DR, SOUTHFIELD, MI, 48076",641241147,"R"
111223,"20750 SHERMAN WAY UNIT 314","WINNETKA","CA",91306,34.2009391280001,-118.585202716,223,"20750 SHERMAN WAY UNIT 314, WINNETKA, CA, 91306","Match","Exact","20750 SHERMAN WAY, WINNETKA, CA, 91306",141535312,"L"
111224,"20755 CLUB LANE","NORTHVILLE","MI",48167,42.438906957,-83.447049072,224,"20755 CLUB LANE, NORTHVILLE, MI, 48167","Match","Exact","20755 CLUB LN, NORTHVILLE, MI, 48167",624964371,"R"
111225,"20757 STATE ROUTE 116","SPENCERVILLE","OH",45887,40.7099254340001,-84.425528605,225,"20757 STATE ROUTE 116, SPENCERVILLE, OH, 45887","Match","Exact","20757 STATE RTE 116, SPENCERVILLE, OH, 45887",635799220,"R"
111226,"20759 PLUMMER STREET","CHATSWORTH","CA",91311,34.2427299940001,-118.58636005,226,"20759 PLUMMER STREET, CHATSWORTH, CA, 91311","Match","Exact","20759 PLUMMER ST, CHATSWORTH, CA, 91311",638620777,"R"
111227,"2076 E 900 N","SPANISH FORK","UT",84660,40.1212967640001,-111.619286303,227,"2076 E 900 N, SPANISH FORK, UT, 84660","Match","Exact","2076 E 900 N, SPANISH FORK, UT, 84660",652009121,"L"
111228,"2076 EUCALYPTUS AVE","LONG BEACH","CA",90806,33.7948207760001,-118.196967782,228,"2076 EUCALYPTUS AVE, LONG BEACH, CA, 90806","Match","Exact","2076 EUCALYPTUS AVE, LONG BEACH, CA, 90806",141685972,"R"
111229,"2076 JOHNSTON DRIVE","BETHLEHEM","PA",18017,40.659065474,-75.340802955,229,"2076 JOHNSTON DRIVE, BETHLEHEM, PA, 18017","Match","Exact","2076 JOHNSTON DR, BETHLEHEM, PA, 18017",136877553,"R"
111230,"2076 LINN BLVD SE","CEDAR RAPIDS","IA",52403,41.994483707,-91.63203179,230,"2076 LINN BLVD SE, CEDAR RAPIDS, IA, 52403","Match","Exact","2076 LINN BLVD SE, CEDAR RAPIDS, IA, 52403",17022339,"L"
111231,"2076 LONG BEACH DRIVE","BIG PINE KEY","FL",33043,24.635986266,-81.352455049,231,"2076 LONG BEACH DRIVE, BIG PINE KEY, FL, 33043","Match","Exact","2076 LONG BEACH DR, BIG PINE KEY, FL, 33043",116472042,"R"
111232,"2076 MILLSTONE DR SW","CONYERS","GA",30094,33.5992546160001,-84.0896752629999,232,"2076 MILLSTONE DR SW, CONYERS, GA, 30094","Match","Exact","2076 MILLSTONE DR SW, CONYERS, GA, 30094",614161054,"R"
111233,"2076 N JOHN RUSSELL CIRCLE - APT B","ELKINS PARK","PA",19027,NA,NA,233,"2076 N JOHN RUSSELL CIRCLE - APT B, ELKINS PARK, PA, 19027","Tie",NA,NA,NA,NA
111234,"2076 OAK AVENUE","BOULDER","CO",80304,40.044891831,-105.270686125,234,"2076 OAK AVENUE, BOULDER, CO, 80304","Match","Exact","2076 OAK AVE, BOULDER, CO, 80304",188158866,"R"
111235,"2076 REGENT WAY NUM 3","CASTRO VALLEY","CA",94546,37.6915622070001,-122.098052744,235,"2076 REGENT WAY NUM 3, CASTRO VALLEY, CA, 94546","Match","Exact","2076 REGENT WAY, CASTRO VALLEY, CA, 94546",125060151,"L"
111236,"2076 S HIGLEY RD","GILBERT","AZ",85295,NA,NA,236,"2076 S HIGLEY RD, GILBERT, AZ, 85295","No_Match",NA,NA,NA,NA
111237,"2076 SAND POINT RD","DISCOVERY BAY","CA",94505,37.9017103940001,-121.605850102,237,"2076 SAND POINT RD, DISCOVERY BAY, CA, 94505","Match","Exact","2076 SAND POINT RD, DISCOVERY BAY, CA, 94505",192105025,"R"
111238,"2076 SILO LANE","EAST GREENVILLE","PA",18041,40.4028474470001,-75.53531365,238,"2076 SILO LANE, EAST GREENVILLE, PA, 18041","Match","Exact","2076 SILO LN, E GREENVILLE, PA, 18041",135059751,"L"
111239,"20760 W WILLOW SPRINGS DR","SOULSBYVILLE","CA",95372,37.998797799,-120.255188005,239,"20760 W WILLOW SPRINGS DR, SOULSBYVILLE, CA, 95372","Match","Exact","20760 WILLOW SPRINGS DR, SOULSBYVILLE, CA, 95372",642903908,"L"
111240,"20761 W PARK MEADOWS DR","BUCKEYE","AZ",85396,33.4707145310001,-112.505296538,240,"20761 W PARK MEADOWS DR, BUCKEYE, AZ, 85396","Match","Exact","20761 W PARK MEADOWS DR, BUCKEYE, AZ, 85396",627702643,"L"
111241,"20762 WOOD QUAY DR","STERLING","VA",20166,NA,NA,241,"20762 WOOD QUAY DR, STERLING, VA, 20166","No_Match",NA,NA,NA,NA
111242,"20764 KNOB WOOD DRIVE APT 202","SOUTHFIELD","MI",48076,NA,NA,242,"20764 KNOB WOOD DRIVE APT 202, SOUTHFIELD, MI, 48076","No_Match",NA,NA,NA,NA
111243,"20764 KNOB WOODS DRIVE","SOUTHFIELD","MI",48076,42.4838473340001,-83.2506327789999,243,"20764 KNOB WOODS DRIVE, SOUTHFIELD, MI, 48076","Match","Exact","20764 KNOB WOODS DR, SOUTHFIELD, MI, 48076",69778533,"R"
111244,"20767 COUNTY ROAD 386","ST JOSEPH","MO",64505,NA,NA,244,"20767 COUNTY ROAD 386, ST JOSEPH, MO, 64505","No_Match",NA,NA,NA,NA
111245,"20767 FORTUNA DEL NORTE","ESCONDIDO","CA",92029,33.0899892300001,-117.18601973,245,"20767 FORTUNA DEL NORTE, ESCONDIDO, CA, 92029","Match","Exact","20767 FORTUNA DEL NORTE, ESCONDIDO, CA, 92029",195678898,"L"
111246,"2077 190TH STREET","CENTURIA","WI",54824,45.5091292860001,-92.548738273,246,"2077 190TH STREET, CENTURIA, WI, 54824","Match","Exact","2077 190TH ST, CENTURIA, WI, 54824",110872740,"L"
111247,"2077 ARDENCROFT DR","JACKSONVILLE","FL",32246,30.3095509180001,-81.510759853,247,"2077 ARDENCROFT DR, JACKSONVILLE, FL, 32246","Match","Exact","2077 ARDENCROFT DR, JACKSONVILLE, FL, 32246",83980530,"L"
111248,"2077 COUNTY ROAD 376","ANNA","TX",75409,33.37451623,-96.545234184,248,"2077 COUNTY ROAD 376, ANNA, TX, 75409","Match","Exact","2077 CO RD 376, ANNA, TX, 75409",649009328,"L"
111249,"2077 EAST MARYLAND CIRCLE","SALT LAKE CITY","UT",84124,40.684965,-111.830733937,249,"2077 EAST MARYLAND CIRCLE, SALT LAKE CITY, UT, 84124","Match","Non_Exact","2077 MARYLAND CIR, SALT LAKE CITY, UT, 84124",624081771,"R"
111250,"2077 FIRST STREET UNIT 207","FORT MYERS","FL",33901,26.643153505,-81.8720034,250,"2077 FIRST STREET UNIT 207, FORT MYERS, FL, 33901","Match","Exact","2077 FIRST ST, FORT MYERS, FL, 33901",118102262,"L"
111251,"2077 GOLD ST STE 128","ALVISO","CA",95002,37.421740523,-121.976080733,251,"2077 GOLD ST STE 128, ALVISO, CA, 95002","Match","Exact","2077 GOLD ST, ALVISO, CA, 95002",123176342,"R"
111252,"2077 GOLD STREET STE 206","ALVISO","CA",95002,37.421740523,-121.976080733,252,"2077 GOLD STREET STE 206, ALVISO, CA, 95002","Match","Exact","2077 GOLD ST, ALVISO, CA, 95002",123176342,"R"
111253,"2077 MILL RD","FLINT","MI",48532,43.030698993,-83.761668416,253,"2077 MILL RD, FLINT, MI, 48532","Match","Exact","2077 MILL RD, FLINT, MI, 48532",69564078,"L"
111254,"2077 N DISCOVERY LN","CASA GRANDE","AZ",85122,32.911316006,-111.758008153,254,"2077 N DISCOVERY LN, CASA GRANDE, AZ, 85122","Match","Exact","2077 N DISCOVERY LN, CASA GRANDE, AZ, 85122",129240841,"L"
111255,"2077 ROOSEVELT AVENUE","SPRINGFIELD","MA",1104,42.136577055,-72.546710074,255,"2077 ROOSEVELT AVENUE, SPRINGFIELD, MA, 1104","Match","Exact","2077 ROOSEVELT AVE, SPRINGFIELD, MA, 01104",4059305,"R"
111256,"2077 S ALISO SPRING LANE","TUCSON","AZ",85748,32.1974921610001,-110.773532575,256,"2077 S ALISO SPRING LANE, TUCSON, AZ, 85748","Match","Exact","2077 S ALISO SPRING LN, TUCSON, AZ, 85748",636143495,"L"
111257,"2077 SAWGRASS DRIVE","APOPKA","FL",32712,28.702168349,-81.544785432,257,"2077 SAWGRASS DRIVE, APOPKA, FL, 32712","Match","Exact","2077 SAWGRASS DR, APOPKA, FL, 32712",94310201,"R"
111258,"2077 SEAWIND COURT","INDIALANTIC","FL",32903,28.1187107860001,-80.576864896,258,"2077 SEAWIND COURT, INDIALANTIC, FL, 32903","Match","Exact","2077 SEAWIND CT, INDIALANTIC, FL, 32903",93941103,"L"
111259,"2077 SOUTH CLINTON AVENUE","ROCHESTER","NY",14618,NA,NA,259,"2077 SOUTH CLINTON AVENUE, ROCHESTER, NY, 14618","No_Match",NA,NA,NA,NA
111260,"20770 JUNCO CT","MINNEAPOLIS","MN",55044,44.6482746710001,-93.2747896559999,260,"20770 JUNCO CT, MINNEAPOLIS, MN, 55044","Match","Non_Exact","20770 JUNCO CT, LAKEVILLE, MN, 55044",37924844,"L"
111261,"20770 KAYA LANE NE","INDIANOLA","WA",98342,47.749881972,-122.512542615,261,"20770 KAYA LANE NE, INDIANOLA, WA, 98342","Match","Exact","20770 KAYA LN NE, INDIANOLA, WA, 98342",187676461,"L"
111262,"20770 US 281 N SUITE 108-413","SAN ANTONIO","TX",78258,29.634327415,-98.457770046,262,"20770 US 281 N SUITE 108-413, SAN ANTONIO, TX, 78258","Match","Non_Exact","20770 US HWY 281 N, SAN ANTONIO, TX, 78258",101752200,"R"
111263,"20770 US HWY 281 N STE 108 PMB 202","SAN ANTONIO","TX",78258,29.634327415,-98.457770046,263,"20770 US HWY 281 N STE 108 PMB 202, SAN ANTONIO, TX, 78258","Match","Non_Exact","20770 US HWY 281 N, SAN ANTONIO, TX, 78258",101752200,"R"
111264,"20770 WESTHEIMER PKWY STE 502","KATY","TX",77450,29.7390226910001,-95.735686081,264,"20770 WESTHEIMER PKWY STE 502, KATY, TX, 77450","Match","Exact","20770 WESTHEIMER PKWY, KATY, TX, 77450",96300798,"R"
111265,"20771 CAMINO CIELO AZUL","ESCONDIDO","CA",92029,NA,NA,265,"20771 CAMINO CIELO AZUL, ESCONDIDO, CA, 92029","No_Match",NA,NA,NA,NA
111266,"20773 RESERVE FALLS TER APT 301","STERLING","VA",20165,39.0451747810001,-77.419628549,266,"20773 RESERVE FALLS TER APT 301, STERLING, VA, 20165","Match","Exact","20773 RESERVE FALLS TER, STERLING, VA, 20165",218911382,"R"
111267,"20773 RESERVE FALLS TERRACE APT 301","STERLING","VA",20165,39.0451747810001,-77.419628549,267,"20773 RESERVE FALLS TERRACE APT 301, STERLING, VA, 20165","Match","Exact","20773 RESERVE FALLS TER, STERLING, VA, 20165",218911382,"R"
111268,"20774 EVA STREET","MONTGOMERY","TX",77356,NA,NA,268,"20774 EVA STREET, MONTGOMERY, TX, 77356","No_Match",NA,NA,NA,NA
111269,"20775 PEMBROKE AVENUE","DETROIT","MI",48075,42.436583414,-83.2472730229999,269,"20775 PEMBROKE AVENUE, DETROIT, MI, 48075","Match","Non_Exact","20775 PEMBROKE AVE, DETROIT, MI, 48219",95421467,"L"
111270,"20777 NW TRAILWALK DR APT D107","BEAVERTON","OR",97006,NA,NA,270,"20777 NW TRAILWALK DR APT D107, BEAVERTON, OR, 97006","No_Match",NA,NA,NA,NA
111271,"2078 BATHGATE AVENUE","BRONX","NY",10457,40.8505776480001,-73.895064181,271,"2078 BATHGATE AVENUE, BRONX, NY, 10457","Match","Exact","2078 BATHGATE AVE, BRONX, NY, 10457",80301171,"R"
111272,"2078 CAMDEN STREET","PORT ST LUCIE","FL",34952,27.278583333,-80.2777292379999,272,"2078 CAMDEN STREET, PORT ST LUCIE, FL, 34952","Match","Non_Exact","2078 SE CAMDEN ST, PORT ST LUCIE, FL, 34952",120155516,"L"
111273,"2078 JD CIRCLE","BEREA","KY",40403,37.6010773900001,-84.256495902,273,"2078 JD CIRCLE, BEREA, KY, 40403","Match","Exact","2078 JD CIR, BEREA, KY, 40403",31997123,"L"
111274,"2078 PARALTA AVENUE","SEASIDE","CA",93955,36.6207116210001,-121.818588921,274,"2078 PARALTA AVENUE, SEASIDE, CA, 93955","Match","Exact","2078 PARALTA AVE, SEASIDE, CA, 93955",196835790,"R"
111275,"2078 REBILD DRIVE","SOLVANG","CA",93463,34.602980082,-120.125195918,275,"2078 REBILD DRIVE, SOLVANG, CA, 93463","Match","Exact","2078 REBILD DR, SOLVANG, CA, 93463",108666056,"R"
111276,"20780 BAYSIDE AVENUE","ROCK HALL","MD",21661,39.1367070310001,-76.253262606,276,"20780 BAYSIDE AVENUE, ROCK HALL, MD, 21661","Match","Exact","20780 BAYSIDE AVE, ROCK HALL, MD, 21661",612151942,"R"
111277,"20781 AMAR RD STE 7","WALNUT","CA",91789,NA,NA,277,"20781 AMAR RD STE 7, WALNUT, CA, 91789","No_Match",NA,NA,NA,NA
111278,"20782 SW 129 PLACE","MIAMI","FL",33177,25.5752722560001,-80.402632087,278,"20782 SW 129 PLACE, MIAMI, FL, 33177","Match","Exact","20782 SW 129TH PL, MIAMI, FL, 33177",116087006,"L"
111279,"20789 N HWY 71 APT 3","MOUNTAINBURG","AR",72746,NA,NA,279,"20789 N HWY 71 APT 3, MOUNTAINBURG, AR, 72746","No_Match",NA,NA,NA,NA
111280,"20789 TRINITY AVE","SARATOGA","CA",95070,37.264835872,-122.036026079,280,"20789 TRINITY AVE, SARATOGA, CA, 95070","Match","Exact","20789 TRINITY AVE, SARATOGA, CA, 95070",122942502,"R"
111281,"2079 CHESTERFIELD LANE","AURORA","IL",60503,41.7180515680001,-88.2748023619999,281,"2079 CHESTERFIELD LANE, AURORA, IL, 60503","Match","Exact","2079 CHESTERFIELD LN, AURORA, IL, 60503",54492097,"R"
111282,"2079 CYNTHIA DRIVE","TALLAHASSEE","FL",32303,30.5149010650001,-84.327438888,282,"2079 CYNTHIA DRIVE, TALLAHASSEE, FL, 32303","Match","Exact","2079 CYNTHIA DR, TALLAHASSEE, FL, 32303",640426676,"R"
111283,"2079 FARMINGTON AVE","BOYERTOWN","PA",19512,40.3064753780001,-75.651998293,283,"2079 FARMINGTON AVE, BOYERTOWN, PA, 19512","Match","Exact","2079 FARMINGTON AVE, BOYERTOWN, PA, 19512",642038103,"R"
111284,"2079 FOREST AVENUE","STATEN ISLAND","NY",10303,40.6263302420001,-74.1586328989999,284,"2079 FOREST AVENUE, STATEN ISLAND, NY, 10303","Match","Exact","2079 FOREST AVE, STATEN ISLAND, NY, 10303",59884297,"R"
111285,"2079 HATTERAS WAY","ATLANTA","GA",30318,33.811389607,-84.477569274,285,"2079 HATTERAS WAY, ATLANTA, GA, 30318","Match","Exact","2079 HATTERAS WAY, ATLANTA, GA, 30318",619588679,"L"
111286,"2079 IVYWOOD PLACE","LOUISVILLE","KY",40218,38.186593395,-85.651051681,286,"2079 IVYWOOD PLACE, LOUISVILLE, KY, 40218","Match","Exact","2079 IVYWOOD PL, LOUISVILLE, KY, 40218",96859723,"L"
111287,"2079 MARGO ROAD","COLUMBUS","OH",43229,40.06454352,-82.962964243,287,"2079 MARGO ROAD, COLUMBUS, OH, 43229","Match","Exact","2079 MARGO RD, COLUMBUS, OH, 43229",218688129,"R"
111288,"2079 MCLAUGHLIN AVE APT 305","SAN JOSE","CA",95122,37.3188265680001,-121.840085155,288,"2079 MCLAUGHLIN AVE APT 305, SAN JOSE, CA, 95122","Match","Exact","2079 MCLAUGHLIN AVE, SAN JOSE, CA, 95122",640257306,"L"
111289,"2079 PACIFIC STREET APT 1","BROOKLYN","NY",11233,40.675952554,-73.918507475,289,"2079 PACIFIC STREET APT 1, BROOKLYN, NY, 11233","Match","Exact","2079 PACIFIC ST, BROOKLYN, NY, 11233",59083732,"L"
111290,"20791 ORTEGA STREET","ORLANDO","FL",32833,28.492352285,-81.0658862229999,290,"20791 ORTEGA STREET, ORLANDO, FL, 32833","Match","Exact","20791 ORTEGA ST, ORLANDO, FL, 32833",94298661,"L"
111291,"20794 US HWY 61","SIKESTON","MO",63801,36.9822439120001,-89.621706795,291,"20794 US HWY 61, SIKESTON, MO, 63801","Match","Exact","20794 US HWY 61, SIKESTON, MO, 63801",38957268,"R"
111292,"207B QUARTER TRAIL","NEWPORT NEWS","VA",23608,37.1699320910001,-76.568239256,292,"207B QUARTER TRAIL, NEWPORT NEWS, VA, 23608","Match","Exact","207 QUARTER TRL, NEWPORT NEWS, VA, 23608",649877428,"L"
111293,"208  OLYMPIA LANE","COPPELL","TX",75019,32.9558150410001,-96.995559005,293,"208  OLYMPIA LANE, COPPELL, TX, 75019","Match","Exact","208 OLYMPIA LN, COPPELL, TX, 75019",625001105,"R"
111294,"208 10TH ST","HONOLULU","HI",96818,21.3430204380001,-157.959757871,294,"208 10TH ST, HONOLULU, HI, 96818","Match","Exact","208 10TH ST, HONOLULU, HI, 96818",607828191,"L"
111295,"208 15TH ST SW","NEW PRAGUE","MN",56071,44.5295668140001,-93.5776504519999,295,"208 15TH ST SW, NEW PRAGUE, MN, 56071","Match","Exact","208 15TH ST SW, NEW PRAGUE, MN, 56071",647833399,"L"
111296,"208 27TH AVE","BELLWOOD","IL",60104,41.8891784680001,-87.866166547,296,"208 27TH AVE, BELLWOOD, IL, 60104","Match","Exact","208 27TH AVE, BELLWOOD, IL, 60104",605140737,"R"
111297,"208 29TH STREET EAST","PALMETTO","FL",34221,27.539610844,-82.562408326,297,"208 29TH STREET EAST, PALMETTO, FL, 34221","Match","Exact","208 29TH ST E, PALMETTO, FL, 34221",16243179,"L"
111298,"208 2ND STREET","FORT COLLINS","CO",80524,40.5908891990001,-105.066048646,298,"208 2ND STREET, FORT COLLINS, CO, 80524","Match","Exact","208 2ND ST, FORT COLLINS, CO, 80524",635775026,"R"
111299,"208 3RD ST","FAIRPORT HARBOR","OH",44077,41.7556319720001,-81.276875182,299,"208 3RD ST, FAIRPORT HARBOR, OH, 44077","Match","Exact","208 3RD ST, FAIRPORT HARBOR, OH, 44077",137464570,"R"
111300,"208 3RD STREET APT 2","JERSEY CITY","NJ",7302,40.72314985,-74.0433247079999,300,"208 3RD STREET APT 2, JERSEY CITY, NJ, 7302","Match","Exact","208 3RD ST, JERSEY CITY, NJ, 07302",59606221,"R"
111301,"208 5TH ST 103","AMES","IA",50010,42.02595461,-93.612338429,301,"208 5TH ST 103, AMES, IA, 50010","Match","Exact","208 5TH ST, AMES, IA, 50010",65947127,"L"
111302,"208 ABERDEEN LN","SPARTANBURG","SC",29307,34.9619434140001,-81.884276713,302,"208 ABERDEEN LN, SPARTANBURG, SC, 29307","Match","Exact","208 ABERDEEN LN, SPARTANBURG, SC, 29307",19471672,"R"
111303,"208 ALTER RD","DETROIT","MI",48215,42.362840841,-82.93155925,303,"208 ALTER RD, DETROIT, MI, 48215","Match","Exact","208 ALTER RD, DETROIT, MI, 48215",95508419,"R"
111304,"208 ALTON RD","PARMA","MO",63870,36.6142982270001,-89.8187541789999,304,"208 ALTON RD, PARMA, MO, 63870","Match","Non_Exact","208 ALTON AVE, PARMA, MO, 63870",30623277,"R"
111305,"208 AND A HALF APT C N LOUISE ST","GLENDALE","CA",91206,NA,NA,305,"208 AND A HALF APT C N LOUISE ST, GLENDALE, CA, 91206","No_Match",NA,NA,NA,NA
111306,"208 ANDERSON ST N3E","HACKENSACK","NJ",7601,40.8954323610001,-74.045876902,306,"208 ANDERSON ST N3E, HACKENSACK, NJ, 7601","Match","Exact","208 ANDERSON ST, HACKENSACK, NJ, 07601",64385754,"R"
111307,"208 ARBOR WAY","BRANCHBURG","NJ",8876,40.598922246,-74.717453704,307,"208 ARBOR WAY, BRANCHBURG, NJ, 8876","Match","Exact","208 ARBOR WAY, BRANCHBURG, NJ, 08876",59952411,"L"
111308,"208 ARDEN CREST COURT","CARY","NC",27513,35.7982989430001,-78.787884301,308,"208 ARDEN CREST COURT, CARY, NC, 27513","Match","Exact","208 ARDEN CREST CT, CARY, NC, 27513",208365620,"R"
111309,"208 ARGILLA ROAD","IPSWICH","MA",1938,42.676028058,-70.786252082,309,"208 ARGILLA ROAD, IPSWICH, MA, 1938","Match","Exact","208 ARGILLA RD, IPSWICH, MA, 01938",86699638,"L"
111310,"208 ASHFORD DR","DOUGLASSVILLE","PA",19518,40.280584149,-75.743115076,310,"208 ASHFORD DR, DOUGLASSVILLE, PA, 19518","Match","Exact","208 ASHFORD DR, DOUGLASSVILLE, PA, 19518",632060924,"L"
111311,"208 B WEST 10TH STREET","LAMAR","MO",64759,37.495724764,-94.276908837,311,"208 B WEST 10TH STREET, LAMAR, MO, 64759","Match","Exact","208 W 10TH ST, LAMAR, MO, 64759",99038519,"R"
111312,"208 BALDWIN ST","HUTTO","TX",78634,30.519760752,-97.563125793,312,"208 BALDWIN ST, HUTTO, TX, 78634","Match","Exact","208 BALDWIN ST, HUTTO, TX, 78634",619964152,"R"
111313,"208 BASKIN AVENUE","BISHOPVILLE","SC",29010,34.215031378,-80.2577474299999,313,"208 BASKIN AVENUE, BISHOPVILLE, SC, 29010","Match","Exact","208 BASKIN AVE, BISHOPVILLE, SC, 29010",79591915,"R"
111314,"208 BATTLES DR","GARLAND","NC",28441,NA,NA,314,"208 BATTLES DR, GARLAND, NC, 28441","No_Match",NA,NA,NA,NA
111315,"208 BAYWIND DR","NICEVILLE","FL",32578,30.471061283,-86.432079591,315,"208 BAYWIND DR, NICEVILLE, FL, 32578","Match","Exact","208 BAYWIND DR, NICEVILLE, FL, 32578",74431148,"R"
111316,"208 BEACH BREEZE PLACE","ARVERNE","NY",11692,40.588984247,-73.802783083,316,"208 BEACH BREEZE PLACE, ARVERNE, NY, 11692","Match","Exact","208 BEACH BREEZE PL, ARVERNE, NY, 11692",636026061,"R"
111317,"208 BERETTA CIR","GEORGETOWN","TX",78628,30.6906014370001,-97.7025251539999,317,"208 BERETTA CIR, GEORGETOWN, TX, 78628","Match","Exact","208 BERETTA CIR, GEORGETOWN, TX, 78628",648536158,"R"
111318,"208 BILLINGS SUITE 200","ARLINGTON","TX",76010,32.734777583,-97.057239495,318,"208 BILLINGS SUITE 200, ARLINGTON, TX, 76010","Match","Non_Exact","208 BILLINGS ST, ARLINGTON, TX, 76010",101945680,"L"
111319,"208 BIRCH FOREST DR","SOMERVILLE","TX",77879,30.316849066,-96.637560283,319,"208 BIRCH FOREST DR, SOMERVILLE, TX, 77879","Match","Exact","208 BIRCH FOREST DR, SOMERVILLE, TX, 77879",24814247,"L"
111320,"208 BISHOP FARM WAY","HUNTSVILLE","AL",35806,34.777876737,-86.700896745,320,"208 BISHOP FARM WAY, HUNTSVILLE, AL, 35806","Match","Exact","208 BISHOP FARM WAY, HUNTSVILLE, AL, 35806",58160535,"L"
111321,"208 BISHOPS GLEN DRIVE","FREDERICK","MD",21702,39.4269761470001,-77.452766971,321,"208 BISHOPS GLEN DRIVE, FREDERICK, MD, 21702","Match","Exact","208 BISHOPS GLEN DR, FREDERICK, MD, 21702",60699894,"L"
111322,"208 BITTERSWEET CIRCLE","BLOOMINGTON","IL",61704,40.4503120100001,-89.0089871759999,322,"208 BITTERSWEET CIRCLE, BLOOMINGTON, IL, 61704","Match","Exact","208 BITTERSWEET CIR, BLOOMINGTON, IL, 61704",20556848,"L"
111323,"208 BLUFF CT","JACKSON","GA",30233,33.4531717420001,-83.955935649,323,"208 BLUFF CT, JACKSON, GA, 30233","Match","Exact","208 BLUFF CT, JACKSON, GA, 30233",23214695,"R"
111324,"208 BOONE VALLEY DR","ROUND ROCK","TX",78664,30.489666207,-97.608377858,324,"208 BOONE VALLEY DR, ROUND ROCK, TX, 78664","Match","Exact","208 BOONE VALLEY DR, ROUND ROCK, TX, 78664",632681867,"R"
111325,"208 BOULEVARD","MONROE","GA",30655,33.7887551960001,-83.713070579,325,"208 BOULEVARD, MONROE, GA, 30655","Match","Exact","208 BOULEVARD, MONROE, GA, 30655",77614865,"L"
111326,"208 BRANDYWINE DR","WILLIAMSTOWN","NJ",8094,39.683499646,-74.99937002,326,"208 BRANDYWINE DR, WILLIAMSTOWN, NJ, 8094","Match","Exact","208 BRANDYWINE DR, WILLIAMSTOWN, NJ, 08094",624070769,"R"
111327,"208 BROAD ACRES ROAD","LANSDALE","PA",19446,40.2657573970001,-75.243158308,327,"208 BROAD ACRES ROAD, LANSDALE, PA, 19446","Match","Exact","208 BROAD ACRES RD, LANSDALE, PA, 19446",135112872,"R"
111328,"208 BROAD STREET SOUTH","GRINNELL","IA",50112,NA,NA,328,"208 BROAD STREET SOUTH, GRINNELL, IA, 50112","No_Match",NA,NA,NA,NA
111329,"208 BROADWAY STREET N","JORDAN","MN",55352,44.6674789260001,-93.6260437769999,329,"208 BROADWAY STREET N, JORDAN, MN, 55352","Match","Exact","208 BROADWAY ST N, JORDAN, MN, 55352",38139830,"R"
111330,"208 BROADWAY","MINDEN","LA",71055,32.6117132840001,-93.2902173479999,330,"208 BROADWAY, MINDEN, LA, 71055","Match","Non_Exact","208 BROADWAY ST, MINDEN, LA, 71055",73393923,"R"
111331,"208 BROOK LN","DARDENNE PRAIRIE","MO",63368,38.733929131,-90.7072663709999,331,"208 BROOK LN, DARDENNE PRAIRIE, MO, 63368","Match","Exact","208 BROOK LN, DARDENNE PRAIRIE, MO, 63368",100070988,"R"
111332,"208 BUCK SPRINGS RD","CAMAS VALLEY","OR",97416,43.0135991990001,-123.679233158,332,"208 BUCK SPRINGS RD, CAMAS VALLEY, OR, 97416","Match","Exact","208 BUCK SPRINGS RD, CAMAS VALLEY, OR, 97416",613878598,"R"
111333,"208 BURNETTE AVE NW","FORT WALTON BEACH","FL",32548,30.4261800620001,-86.662867488,333,"208 BURNETTE AVE NW, FORT WALTON BEACH, FL, 32548","Match","Exact","208 BURNETTE AVE NW, FORT WALTON BEACH, FL, 32548",74388664,"L"
111334,"208 CAIRN CIRCLE APT 33F","KNOXVILLE","TN",37923,NA,NA,334,"208 CAIRN CIRCLE APT 33F, KNOXVILLE, TN, 37923","Tie",NA,NA,NA,NA
111335,"208 CAMARO DRIVE","HENDERSON","KY",42420,37.868582631,-87.575456899,335,"208 CAMARO DRIVE, HENDERSON, KY, 42420","Match","Exact","208 CAMARO DR, HENDERSON, KY, 42420",57919245,"L"
111336,"208 CANNON RIDGE DRIVE","BRANDON","MS",39042,32.269522248,-89.968019772,336,"208 CANNON RIDGE DRIVE, BRANDON, MS, 39042","Match","Exact","208 CANNON RIDGE DR, BRANDON, MS, 39042",605238742,"R"
111337,"208 CAPE HARBOUR LOOP UNIT 102","BRADENTON","FL",34212,27.5043671400001,-82.472917749,337,"208 CAPE HARBOUR LOOP UNIT 102, BRADENTON, FL, 34212","Match","Exact","208 CAPE HARBOUR LOOP, BRADENTON, FL, 34212",632822409,"R"
111338,"208 CARINA CIRCLE","SANFORD","FL",32773,28.770529895,-81.261336784,338,"208 CARINA CIRCLE, SANFORD, FL, 32773","Match","Exact","208 CARINA CIR, SANFORD, FL, 32773",618452017,"R"
111339,"208 CAROL LANE","CAMERON","MO",64429,39.731195083,-94.240150128,339,"208 CAROL LANE, CAMERON, MO, 64429","Match","Exact","208 CAROL LN, CAMERON, MO, 64429",631953968,"R"
111340,"208 CEDAR CREEK DRIVE","PRINCETON","TX",75407,33.1771427410001,-96.521681239,340,"208 CEDAR CREEK DRIVE, PRINCETON, TX, 75407","Match","Exact","208 CEDAR CREEK DR, PRINCETON, TX, 75407",616929782,"R"
111341,"208 CHAIN STREET","NORRISTOWN","PA",19401,40.1170643090001,-75.352029171,341,"208 CHAIN STREET, NORRISTOWN, PA, 19401","Match","Exact","208 CHAIN ST, NORRISTOWN, PA, 19401",135081821,"R"
111342,"208 CHAMBLIN DRIVE","CEDAR HILL","TX",75104,32.5947545130001,-96.9225246239999,342,"208 CHAMBLIN DRIVE, CEDAR HILL, TX, 75104","Match","Exact","208 CHAMBLIN DR, CEDAR HILL, TX, 75104",102975945,"L"
111343,"208 CHARLANN CIRCLE","CHERRY HILL","NJ",8003,39.8794750700001,-74.972805095,343,"208 CHARLANN CIRCLE, CHERRY HILL, NJ, 8003","Match","Exact","208 CHARLANN CIR, CHERRY HILL, NJ, 08003",134359119,"R"
111344,"208 CHEROKEE RD","PONTIAC","MI",48341,42.6300418640001,-83.314956019,344,"208 CHEROKEE RD, PONTIAC, MI, 48341","Match","Exact","208 CHEROKEE RD, PONTIAC, MI, 48341",69703806,"R"
111345,"208 CHESTNUT","THAYER","MO",65791,36.524512644,-91.539524596,345,"208 CHESTNUT, THAYER, MO, 65791","Match","Non_Exact","208 CHESTNUT ST, THAYER, MO, 65791",33391328,"L"
111346,"208 CLEARWOOD LANE","SHREVEPORT","LA",71104,32.4548549130001,-93.7280553859999,346,"208 CLEARWOOD LANE, SHREVEPORT, LA, 71104","Match","Non_Exact","208 CLEARWOOD LN, SHREVEPORT, LA, 71105",624735682,"R"
111347,"208 COLUMBINE DR","HERCULES","CA",94547,38.0069680920001,-122.246734141,347,"208 COLUMBINE DR, HERCULES, CA, 94547","Match","Exact","208 COLUMBINE DR, HERCULES, CA, 94547",192035056,"R"
111348,"208 CONE LANE","EXPORT","PA",15632,40.4444345850001,-79.587039761,348,"208 CONE LANE, EXPORT, PA, 15632","Match","Exact","208 CONE LN, EXPORT, PA, 15632",613059042,"R"
111349,"208 COOKE STREET","RALEIGH","NC",27601,35.7823792620001,-78.628053055,349,"208 COOKE STREET, RALEIGH, NC, 27601","Match","Exact","208 COOKE ST, RALEIGH, NC, 27601",72508839,"R"
111350,"208 COOLEY ROAD","LAGRANGE","GA",30241,33.022773214,-85.004733849,350,"208 COOLEY ROAD, LAGRANGE, GA, 30241","Match","Exact","208 COOLEY RD, LAGRANGE, GA, 30241",1772137,"L"
111351,"208 COOPER RUN ROAD","OKATIE","SC",29909,32.260653001,-80.9763583599999,351,"208 COOPER RUN ROAD, OKATIE, SC, 29909","Match","Exact","208 COOPER RUN RD, OKATIE, SC, 29909",645291009,"R"
111352,"208 CORONA","SANTA FE","NM",87501,35.6947827010001,-105.957794406,352,"208 CORONA, SANTA FE, NM, 87501","Match","Non_Exact","208 CORONA ST, SANTA FE, NM, 87501",169377195,"L"
111353,"208 COVE COURT","CASEYVILLE","IL",62232,38.638772445,-90.021764354,353,"208 COVE COURT, CASEYVILLE, IL, 62232","Match","Exact","208 COVE CT, CASEYVILLE, IL, 62232",107836168,"R"
111354,"208 CULLEY DRIVE","JACKSON","MS",39206,32.3779481280001,-90.159587497,354,"208 CULLEY DRIVE, JACKSON, MS, 39206","Match","Exact","208 CULLEY DR, JACKSON, MS, 39206",65374249,"L"
111355,"208 CUMBERLAND DRIVE","BYRON","GA",31008,32.632233166,-83.736424869,355,"208 CUMBERLAND DRIVE, BYRON, GA, 31008","Match","Exact","208 CUMBERLAND DR, BYRON, GA, 31008",650994656,"R"
111356,"208 CYPRESS AVENUE","SOUTH SAN FRANCISCO","CA",94080,37.6539570800001,-122.409031841,356,"208 CYPRESS AVENUE, SOUTH SAN FRANCISCO, CA, 94080","Match","Exact","208 CYPRESS AVE, S SAN FRAN, CA, 94080",192373421,"R"
111357,"208 CYPRESS LANE","ST MARYS","GA",31558,30.746449377,-81.523422109,357,"208 CYPRESS LANE, ST MARYS, GA, 31558","Match","Exact","208 CYPRESS LN, SAINT MARYS, GA, 31558",636881716,"L"
111358,"208 DOGWOOD DR","MENA","AR",71953,34.5966095860001,-94.229238328,358,"208 DOGWOOD DR, MENA, AR, 71953","Match","Exact","208 DOGWOOD DR, MENA, AR, 71953",34549939,"L"
111359,"208 DORADO AVENUE","SEWELL","NJ",8080,39.7605416210001,-75.072892322,359,"208 DORADO AVENUE, SEWELL, NJ, 8080","Match","Exact","208 DORADO AVE, SEWELL, NJ, 08080",134586799,"L"
111360,"208 DUNDEE WAY","BENICIA","CA",94510,38.0691635330001,-122.162509524,360,"208 DUNDEE WAY, BENICIA, CA, 94510","Match","Exact","208 DUNDEE WAY, BENICIA, CA, 94510",192530527,"L"
111361,"208 E 2ND STREET SUITE F","KAUKAUNA","WI",54130,NA,NA,361,"208 E 2ND STREET SUITE F, KAUKAUNA, WI, 54130","Tie",NA,NA,NA,NA
111362,"208 E 51ST STREET SUITE 208","NEW YORK","NY",10022,40.756309211,-73.969977966,362,"208 E 51ST STREET SUITE 208, NEW YORK, NY, 10022","Match","Non_Exact","208 E 51ST ST, NEW YORK, NY, 10022",59657502,"R"
111363,"208 E 8TH AVENUE","ROSELLE","NJ",7203,40.6518685130001,-74.2580260949999,363,"208 E 8TH AVENUE, ROSELLE, NJ, 7203","Match","Exact","208 E 8TH AVE, ROSELLE, NJ, 07203",60575782,"R"
111364,"208 E BOURN ST","ROCKWALL","TX",75087,32.921853121,-96.459418075,364,"208 E BOURN ST, ROCKWALL, TX, 75087","Match","Exact","208 E BOURN ST, ROCKWALL, TX, 75087",123780448,"R"
111365,"208 E BRIARWOOD LN","COLUMBIA","MO",65203,38.9516347040001,-92.3696049339999,365,"208 E BRIARWOOD LN, COLUMBIA, MO, 65203","Match","Exact","208 E BRIARWOOD LN, COLUMBIA, MO, 65203",23478983,"L"
111366,"208 E BROAD STREET SUITE 108","MANSFILED","TX",75063,NA,NA,366,"208 E BROAD STREET SUITE 108, MANSFILED, TX, 75063","No_Match",NA,NA,NA,NA
111367,"208 E BROOKS STREET","OSSIAN","IA",52161,43.14378301,-91.762856061,367,"208 E BROOKS STREET, OSSIAN, IA, 52161","Match","Exact","208 E BROOKS ST, OSSIAN, IA, 52161",27522359,"L"
111368,"208 E CANNON SPUR CT","OFALLON","MO",63366,38.808887758,-90.6841925419999,368,"208 E CANNON SPUR CT, OFALLON, MO, 63366","Match","Non_Exact","208 E CANNON SPUR CT, O FALLON, MO, 63366",649113432,"R"
111369,"208 E CAROLANNE BLVD","MARSHALL","TX",75672,32.517053306,-94.361968084,369,"208 E CAROLANNE BLVD, MARSHALL, TX, 75672","Match","Exact","208 E CAROLANNE BLVD, MARSHALL, TX, 75672",141185947,"R"
111370,"208 E HEMINGWAY CIRCLE","MARGATE","FL",33063,26.2320991340001,-80.192547546,370,"208 E HEMINGWAY CIRCLE, MARGATE, FL, 33063","Match","Exact","208 E HEMINGWAY CIR, MARGATE, FL, 33063",114750949,"R"
111371,"208 E MAIN ST","TROTWOOOD","OH",45426,39.797468098,-84.307972351,371,"208 E MAIN ST, TROTWOOOD, OH, 45426","Match","Non_Exact","208 E MAIN ST, TROTWOOD, OH, 45426",143562396,"R"
111372,"208 E RESERVOIR AVE","MILWAUKEE","WI",53212,43.0551428960001,-87.909536883,372,"208 E RESERVOIR AVE, MILWAUKEE, WI, 53212","Match","Exact","208 E RESERVOIR AVE, MILWAUKEE, WI, 53212",77744357,"L"
111373,"208 EAST 14TH STREET","LUMBERTON","NC",28358,34.6267880080001,-79.007223633,373,"208 EAST 14TH STREET, LUMBERTON, NC, 28358","Match","Exact","208 E 14TH ST, LUMBERTON, NC, 28358",49137193,"L"
111374,"208 EAST BERRY STREET  POBOX 1366","MIDDLEBURY","IN",46540,41.674222167,-85.7048977539999,374,"208 EAST BERRY STREET  POBOX 1366, MIDDLEBURY, IN, 46540","Match","Exact","208 E BERRY ST, MIDDLEBURY, IN, 46540",7746182,"L"
111375,"208 EAST ELIZABETH AVE","LINDEN","NJ",7036,40.632381035,-74.250584607,375,"208 EAST ELIZABETH AVE, LINDEN, NJ, 7036","Match","Exact","208 E ELIZABETH AVE, LINDEN, NJ, 07036",60576204,"R"
111376,"208 EAST EUCLID AVENUE","PROSPECT HEIGHTS","IL",60070,42.087953111,-87.9317261429999,376,"208 EAST EUCLID AVENUE, PROSPECT HEIGHTS, IL, 60070","Match","Exact","208 E EUCLID AVE, PROSPECT HEIGHTS, IL, 60070",111718429,"L"
111377,"208 EAST GRACE STREET","RICHMOND","VA",23219,37.5436203200001,-77.4408213789999,377,"208 EAST GRACE STREET, RICHMOND, VA, 23219","Match","Exact","208 E GRACE ST, RICHMOND, VA, 23219",201539312,"L"
111378,"208 EAST MEADOW LANE","CALDWELL","WV",24925,NA,NA,378,"208 EAST MEADOW LANE, CALDWELL, WV, 24925","No_Match",NA,NA,NA,NA
111379,"208 EAST OCEAN AVENUE","LANTANA","FL",33482,26.5843790440001,-80.050721467,379,"208 EAST OCEAN AVENUE, LANTANA, FL, 33482","Match","Non_Exact","208 E OCEAN AVE, LANTANA, FL, 33462",115295060,"R"
111380,"208 EAST POPE STREET","SYLVESTER","GA",31791,31.529030633,-83.8352019019999,380,"208 EAST POPE STREET, SYLVESTER, GA, 31791","Match","Exact","208 E POPE ST, SYLVESTER, GA, 31791",84452081,"L"
111381,"208 EDMONTON COURT","LIVINGSTON","NJ",7039,40.7709180700001,-74.353491343,381,"208 EDMONTON COURT, LIVINGSTON, NJ, 7039","Match","Exact","208 EDMONTON CT, LIVINGSTON, NJ, 07039",63476975,"R"
111382,"208 EDMUNDSON COURT","ARLINGTON","TX",76002,32.6302790720001,-97.113349396,382,"208 EDMUNDSON COURT, ARLINGTON, TX, 76002","Match","Exact","208 EDMUNDSON CT, ARLINGTON, TX, 76002",101956097,"L"
111383,"208 EMBERGLOW CIR","COLLEGE STATION","TX",77840,30.6369025330001,-96.330968518,383,"208 EMBERGLOW CIR, COLLEGE STATION, TX, 77840","Match","Exact","208 EMBERGLOW CIR, COLLEGE STATION, TX, 77840",21816490,"L"
111384,"208 EUSTIS AVE SE","HUNTSVILLE","AL",35801,34.730162292,-86.584117831,384,"208 EUSTIS AVE SE, HUNTSVILLE, AL, 35801","Match","Exact","208 EUSTIS AVE SE, HUNTSVILLE, AL, 35801",58118000,"R"
111385,"208 F STREET","ABERDEEN","WA",98520,NA,NA,385,"208 F STREET, ABERDEEN, WA, 98520","Tie",NA,NA,NA,NA
111386,"208 FIELDSTONE CT","ROSEVILLE","CA",95747,38.806971338,-121.323103867,386,"208 FIELDSTONE CT, ROSEVILLE, CA, 95747","Match","Exact","208 FIELDSTONE CT, ROSEVILLE, CA, 95747",106819481,"R"
111387,"208 FILMORE STREET","MULVANE","KS",67110,37.484175808,-97.243142685,387,"208 FILMORE STREET, MULVANE, KS, 67110","Match","Exact","208 FILMORE ST, MULVANE, KS, 67110",115654271,"L"
111388,"208 FITZGERALD STREET","FRANKLIN","TN",37064,35.922525502,-86.9183658059999,388,"208 FITZGERALD STREET, FRANKLIN, TN, 37064","Match","Exact","208 FITZGERALD ST, FRANKLIN, TN, 37064",642258642,"R"
111389,"208 FOREST AVE","GLEN ELLYN","IL",60137,41.8670408790001,-88.064884709,389,"208 FOREST AVE, GLEN ELLYN, IL, 60137","Match","Exact","208 FOREST AVE, GLEN ELLYN, IL, 60137",112530196,"L"
111390,"208 FULTON AVENUE","ROCKPORT","TX",78382,28.0591150770001,-97.035511072,390,"208 FULTON AVENUE, ROCKPORT, TX, 78382","Match","Exact","208 FULTON AVE, ROCKPORT, TX, 78382",83247034,"L"
111391,"208 GEORGE WILTON DRIVE","CLAYTON","NC",27520,35.556612412,-78.5446848889999,391,"208 GEORGE WILTON DRIVE, CLAYTON, NC, 27520","Match","Exact","208 GEORGE WILTON DR, CLAYTON, NC, 27520",26545789,"R"
111392,"208 GRETA STREET APT 411","WEST HAVEN","CT",6516,41.2782244540001,-72.970126486,392,"208 GRETA STREET APT 411, WEST HAVEN, CT, 6516","Match","Exact","208 GRETA ST, W HAVEN, CT, 06516",651693097,"L"
111393,"208 GUM TREE DRIVE","ST CHARLES","MO",63301,38.7988375100001,-90.50701847,393,"208 GUM TREE DRIVE, ST CHARLES, MO, 63301","Match","Exact","208 GUM TREE DR, SAINT CHARLES, MO, 63301",100021190,"L"
111394,"208 HANSBURY AVE","NEWARK","NY",7112,NA,NA,394,"208 HANSBURY AVE, NEWARK, NY, 7112","No_Match",NA,NA,NA,NA
111395,"208 HASTINGS","BENTON HARBOR","MI",49022,42.1007423840001,-86.458823238,395,"208 HASTINGS, BENTON HARBOR, MI, 49022","Match","Non_Exact","208 HASTINGS AVE, BENTON HARBOR, MI, 49022",119972585,"L"
111396,"208 HATCHVILLE RD","EAST FALMOUTH","MA",2536,41.613575085,-70.576165612,396,"208 HATCHVILLE RD, EAST FALMOUTH, MA, 2536","Match","Exact","208 HATCHVILLE RD, EAST FALMOUTH, MA, 02536",636133677,"L"
111397,"208 HAWKSBURY PLACE","O FALLON","MO",63368,38.7411076770001,-90.7406383859999,397,"208 HAWKSBURY PLACE, O FALLON, MO, 63368","Match","Exact","208 HAWKSBURY PL, O FALLON, MO, 63368",100101466,"L"
111398,"208 HAWS LANE","FLOURTOWN","PA",19031,40.101079602,-75.20483638,398,"208 HAWS LANE, FLOURTOWN, PA, 19031","Match","Exact","208 HAWS LN, FLOURTOWN, PA, 19031",135089305,"R"
111399,"208 HAYES STREET","WARRENS","WI",54666,44.132434512,-90.498071711,399,"208 HAYES STREET, WARRENS, WI, 54666","Match","Exact","208 HAYES ST, WARRENS, WI, 54666",51063327,"L"
111400,"208 HEMLOCK DRIVE","STAFFORD","VA",22554,38.5025910480001,-77.372926585,400,"208 HEMLOCK DRIVE, STAFFORD, VA, 22554","Match","Exact","208 HEMLOCK DR, STAFFORD, VA, 22554",624917853,"R"
111401,"208 HEWES ST","BROOKLYN","NY",11211,40.7043674940001,-73.956479093,401,"208 HEWES ST, BROOKLYN, NY, 11211","Match","Exact","208 HEWES ST, BROOKLYN, NY, 11211",639409594,"R"
111402,"208 HICKORY STREET SUITE 2","WARREN","PA",16365,41.8451407910001,-79.149406918,402,"208 HICKORY STREET SUITE 2, WARREN, PA, 16365","Match","Exact","208 HICKORY ST, WARREN, PA, 16365",98678566,"R"
111403,"208 HIGH STREET STE 201","CHESTERTOWN","MD",21620,39.208182046,-76.0651233629999,403,"208 HIGH STREET STE 201, CHESTERTOWN, MD, 21620","Match","Exact","208 HIGH ST, CHESTERTOWN, MD, 21620",68338004,"R"
111404,"208 HIGH STREET","CHESTERTOWN","MD",21620,39.208182046,-76.0651233629999,404,"208 HIGH STREET, CHESTERTOWN, MD, 21620","Match","Exact","208 HIGH ST, CHESTERTOWN, MD, 21620",68338004,"R"
111405,"208 HILLCREST ROAD","WEIRTON","WV",26062,40.415373689,-80.576103076,405,"208 HILLCREST ROAD, WEIRTON, WV, 26062","Match","Exact","208 HILLCREST RD, WEIRTON, WV, 26062",65500852,"R"
111406,"208 INPERIAL COURT","LAKEWOOD","NJ",8701,40.1085821450001,-74.1833038899999,406,"208 INPERIAL COURT, LAKEWOOD, NJ, 8701","Match","Non_Exact","208 IMPERIAL CT, LAKEWOOD, NJ, 08701",617758960,"L"
111407,"208 IRON CREEK ROAD","PANORA","IA",50216,41.6929111680001,-94.37370227,407,"208 IRON CREEK ROAD, PANORA, IA, 50216","Match","Exact","208 IRON CREEK RD, PANORA, IA, 50216",68679449,"L"
111408,"208 JACS COURT","MT STERLING","KY",40353,37.9964681390001,-83.886282017,408,"208 JACS COURT, MT STERLING, KY, 40353","Match","Exact","208 JACS CT, MT STERLING, KY, 40353",614153542,"L"
111409,"208 JAY STREET","SAINT CHARLES","MI",48655,43.29371661,-84.1379619969999,409,"208 JAY STREET, SAINT CHARLES, MI, 48655","Match","Exact","208 JAY ST, SAINT CHARLES, MI, 48655",80202577,"L"
111410,"208 JOHN STREET PO BOX 316","BALDWIN","LA",70514,29.8330409050001,-91.54868793,410,"208 JOHN STREET PO BOX 316, BALDWIN, LA, 70514","Match","Exact","208 JOHN ST, BALDWIN, LA, 70514",85880841,"L"
111411,"208 KEENEY ST","PERRY","MI",48872,42.8323017440001,-84.217682155,411,"208 KEENEY ST, PERRY, MI, 48872","Match","Exact","208 KEENEY ST, PERRY, MI, 48872",23651875,"R"
111412,"208 KELSAY DRIVE","KINGSTON","TN",37763,35.8638379860001,-84.4970516239999,412,"208 KELSAY DRIVE, KINGSTON, TN, 37763","Match","Exact","208 KELSAY DR, KINGSTON, TN, 37763",88596723,"L"
111413,"208 KINGSTON TERRACE CT","SAINT CHARLES","MO",63301,38.7869583560001,-90.523426366,413,"208 KINGSTON TERRACE CT, SAINT CHARLES, MO, 63301","Match","Exact","208 KINGSTON TERRACE CT, SAINT CHARLES, MO, 63301",605560732,"L"
111414,"208 LA COSTA CIR","WESTON","FL",33326,26.120566765,-80.366578423,414,"208 LA COSTA CIR, WESTON, FL, 33326","Match","Exact","208 LA COSTA CIR, WESTON, FL, 33326",114784099,"L"
111415,"208 LAKE AVE","LACONIA","NH",3246,NA,NA,415,"208 LAKE AVE, LACONIA, NH, 3246","No_Match",NA,NA,NA,NA
111416,"208 LAKE AVE","STATEN ISLAND","NY",10303,40.631266,-74.1512971829999,416,"208 LAKE AVE, STATEN ISLAND, NY, 10303","Match","Exact","208 LAKE AVE, STATEN ISLAND, NY, 10303",59894952,"R"
111417,"208 LAKE DR","MYRTLE BEACH","SC",29572,33.787301708,-78.748952166,417,"208 LAKE DR, MYRTLE BEACH, SC, 29572","Match","Exact","208 LAKE DR, MYRTLE BEACH, SC, 29572",29054302,"L"
111418,"208 LAURA LN","CHICAGO HEIGHTS","IL",60411,41.529057521,-87.65053801,418,"208 LAURA LN, CHICAGO HEIGHTS, IL, 60411","Match","Exact","208 LAURA LN, CHICAGO HEIGHTS, IL, 60411",111713092,"L"
111419,"208 LAUREL CIRCLE","PRINCETON","NJ",8540,40.3710726560001,-74.661410689,419,"208 LAUREL CIRCLE, PRINCETON, NJ, 8540","Match","Exact","208 LAUREL CIR, PRINCETON, NJ, 08540",60170483,"L"
111420,"208 LEE STREET","LIVINGSTON","AL",35470,32.460401975,-88.1239326099999,420,"208 LEE STREET, LIVINGSTON, AL, 35470","Match","Exact","208 LEE ST, LIVINGSTON, AL, 35470",657856,"L"
111421,"208 LENOX AVE STE 135","WESTFIELD","NJ",7090,40.6509860960001,-74.34578741,421,"208 LENOX AVE STE 135, WESTFIELD, NJ, 7090","Match","Exact","208 LENOX AVE, WESTFIELD, NJ, 07090",60568314,"R"
111422,"208 LENOX AVE UNIT 151","WESTFIELD","NJ",7090,40.6509860960001,-74.34578741,422,"208 LENOX AVE UNIT 151, WESTFIELD, NJ, 7090","Match","Exact","208 LENOX AVE, WESTFIELD, NJ, 07090",60568314,"R"
111423,"208 LENOX AVENUE SUITE 355","WESTFIELD","NJ",7090,40.6509860960001,-74.34578741,423,"208 LENOX AVENUE SUITE 355, WESTFIELD, NJ, 7090","Match","Exact","208 LENOX AVE, WESTFIELD, NJ, 07090",60568314,"R"
111424,"208 LOCKMAN AVENUE  APT2D","STATEN ISLAND","NY",10303,40.6320434030001,-74.161702511,424,"208 LOCKMAN AVENUE  APT2D, STATEN ISLAND, NY, 10303","Match","Exact","208 LOCKMAN AVE, STATEN ISLAND, NY, 10303",59884980,"R"
111425,"208 LUCAS PARK DRIVE","GREENSBORO","NC",27455,36.1511075350001,-79.794870536,425,"208 LUCAS PARK DRIVE, GREENSBORO, NC, 27455","Match","Exact","208 LUCAS PARK DR, GREENSBORO, NC, 27455",131082325,"R"
111426,"208 LYON STREET","HANNIABL","MO",63401,39.7080029480001,-91.354732251,426,"208 LYON STREET, HANNIABL, MO, 63401","Match","Non_Exact","208 LYON ST, HANNIBAL, MO, 63401",35339302,"L"
111427,"208 MAIN STREET","BECKLEY","WV",25801,37.777476978,-81.1890674649999,427,"208 MAIN STREET, BECKLEY, WV, 25801","Match","Exact","208 MAIN ST, BECKLEY, WV, 25801",78817775,"L"
111428,"208 MAIN STREET","LINCOLNVILLE","ME",4849,44.294352277,-69.104977101,428,"208 MAIN STREET, LINCOLNVILLE, ME, 4849","Match","Exact","208 MAIN ST, LINCOLNVILLE, ME, 04849",75643112,"L"
111429,"208 MAIN","WOODSTON","KS",67675,39.453203902,-99.103359266,429,"208 MAIN, WOODSTON, KS, 67675","Match","Non_Exact","208 MAIN ST, WOODSTON, KS, 67675",149985608,"L"
111430,"208 MARY WIL COURT","GREENSBORO","NC",27455,36.1570539520001,-79.8198378069999,430,"208 MARY WIL COURT, GREENSBORO, NC, 27455","Match","Exact","208 MARY WIL CT, GREENSBORO, NC, 27455",131114622,"R"
111431,"208 MASTERS DRIVE","POTTSTOWN","PA",19464,40.250081923,-75.558011623,431,"208 MASTERS DRIVE, POTTSTOWN, PA, 19464","Match","Exact","208 MASTERS DR, POTTSTOWN, PA, 19464",605640528,"R"
111432,"208 MCCORMICK DR","VICTORIA","TX",77904,28.926019587,-97.07636165,432,"208 MCCORMICK DR, VICTORIA, TX, 77904","Match","Exact","208 MCCORMICK DR, VICTORIA, TX, 77904",44571867,"L"
111433,"208 MCLEOD DRIVE","OXFORD","PA",19363,39.7905726600001,-75.984999826,433,"208 MCLEOD DRIVE, OXFORD, PA, 19363","Match","Exact","208 MCLEOD DR, OXFORD, PA, 19363",179530826,"L"
111434,"208 MEADOW DR","TRAFFORD","PA",15085,40.3944238770001,-79.710261406,434,"208 MEADOW DR, TRAFFORD, PA, 15085","Match","Exact","208 MEADOW DR, TRAFFORD, PA, 15085",52964390,"R"
111435,"208 MIDWAY AVE","ORMOND BEACH","FL",32174,29.280491523,-81.0611903389999,435,"208 MIDWAY AVE, ORMOND BEACH, FL, 32174","Match","Exact","208 MIDWAY AVE, ORMOND BEACH, FL, 32174",639444711,"L"
111436,"208 MILL HOUSE LANE","PAGELAND","SC",29728,34.7569061820001,-80.4166515489999,436,"208 MILL HOUSE LANE, PAGELAND, SC, 29728","Match","Exact","208 MILL HOUSE LN, PAGELAND, SC, 29728",14342771,"R"
111437,"208 MILLER AVE","DEKALB","IL",60115,41.936702584,-88.755781108,437,"208 MILLER AVE, DEKALB, IL, 60115","Match","Exact","208 MILLER AVE, DEKALB, IL, 60115",52257327,"L"
111438,"208 MILSPRING","GODFREY","IL",62035,NA,NA,438,"208 MILSPRING, GODFREY, IL, 62035","No_Match",NA,NA,NA,NA
111439,"208 MOTLEY STREET","VALLEY STREAM","NY",11580,40.6703761420001,-73.686261238,439,"208 MOTLEY STREET, VALLEY STREAM, NY, 11580","Match","Exact","208 MOTLEY ST, VALLEY STREAM, NY, 11580",147670533,"R"
111440,"208 MYRTLE TREE ROAD","SOUTH CHARLESTON","WV",25309,NA,NA,440,"208 MYRTLE TREE ROAD, SOUTH CHARLESTON, WV, 25309","No_Match",NA,NA,NA,NA
111441,"208 N 1025 E","CELESTINE","IN",47521,38.383137801,-86.699977271,441,"208 N 1025 E, CELESTINE, IN, 47521","Match","Exact","208 N 1025 E, CELESTINE, IN, 47521",7880348,"R"
111442,"208 N 1700 W","LEHI","UT",84043,40.3851616920001,-111.876739082,442,"208 N 1700 W, LEHI, UT, 84043","Match","Non_Exact","208 S 1700 W, LEHI, UT, 84043",629750802,"L"
111443,"208 N 38TH STREET","PENNSAUKEN","NJ",8110,39.9525256430001,-75.072633168,443,"208 N 38TH STREET, PENNSAUKEN, NJ, 8110","Match","Exact","208 N 38TH ST, PENNSAUKEN, NJ, 08110",134342852,"R"
111444,"208 N 4TH AVE","HOPEWELL","VA",23860,37.3027117460001,-77.2910003059999,444,"208 N 4TH AVE, HOPEWELL, VA, 23860","Match","Exact","208 N 4TH AVE, HOPEWELL, VA, 23860",54149473,"R"
111445,"208 N 4TH STREET","COEUR DALENE","ID",83814,47.674750784,-116.781123831,445,"208 N 4TH STREET, COEUR DALENE, ID, 83814","Match","Non_Exact","208 N 4TH ST, COEUR D ALENE, ID, 83814",192948415,"R"
111446,"208 N 5TH STREET","BROOKLYN","NY",11211,40.715424446,-73.956824061,446,"208 N 5TH STREET, BROOKLYN, NY, 11211","Match","Exact","208 N 5TH ST, BROOKLYN, NY, 11211",59076609,"R"
111447,"208 N ADAMS STREET","QUINCY","FL",32351,30.5903539560001,-84.576995666,447,"208 N ADAMS STREET, QUINCY, FL, 32351","Match","Exact","208 N ADAMS ST, QUINCY, FL, 32351",87816243,"L"
111448,"208 N DELAWARE ST","BUTLER","MO",64730,38.259386024,-94.333077891,448,"208 N DELAWARE ST, BUTLER, MO, 64730","Match","Exact","208 N DELAWARE ST, BUTLER, MO, 64730",44779588,"L"
111449,"208 N EAST AVENUE","DESHLER","OH",43516,41.2075524800001,-83.898853098,449,"208 N EAST AVENUE, DESHLER, OH, 43516","Match","Exact","208 N EAST AVE, DESHLER, OH, 43516",33783866,"R"
111450,"208 N EDISON ST","FREEBURG","IL",62243,38.4285383690001,-89.907880737,450,"208 N EDISON ST, FREEBURG, IL, 62243","Match","Exact","208 N EDISON ST, FREEBURG, IL, 62243",107848577,"R"
111451,"208 N ELLIS STREET","LANCASTER","TX",75146,32.5931921270001,-96.760527202,451,"208 N ELLIS STREET, LANCASTER, TX, 75146","Match","Exact","208 N ELLIS ST, LANCASTER, TX, 75146",102959739,"R"
111452,"208 N GARRETT ST","SAN ANGELO","TX",76901,31.455407908,-100.463800903,452,"208 N GARRETT ST, SAN ANGELO, TX, 76901","Match","Exact","208 N GARRETT ST, SAN ANGELO, TX, 76901",190679489,"R"
111453,"208 N GREENWOOD AVE","PARK RIDGE","IL",60068,42.0130228790001,-87.840704022,453,"208 N GREENWOOD AVE, PARK RIDGE, IL, 60068","Match","Exact","208 N GREENWOOD AVE, PARK RIDGE, IL, 60068",111732407,"L"
111454,"208 N HARRISON ST APT 2","RICHMOND","VA",23220,NA,NA,454,"208 N HARRISON ST APT 2, RICHMOND, VA, 23220","Tie",NA,NA,NA,NA
111455,"208 N HIGH ST","LAKE HELEN","FL",32744,28.98677317,-81.23602333,455,"208 N HIGH ST, LAKE HELEN, FL, 32744","Match","Exact","208 N HIGH ST, LAKE HELEN, FL, 32744",94500643,"L"
111456,"208 N HIGH STREET","MILLVILLE","NJ",8332,39.3974542020001,-75.0384763339999,456,"208 N HIGH STREET, MILLVILLE, NJ, 8332","Match","Exact","208 N HIGH ST, MILLVILLE, NJ, 08332",174112261,"L"
111457,"208 N HILL STREET","LENOIR CITY","TN",37771,35.793542835,-84.265068102,457,"208 N HILL STREET, LENOIR CITY, TN, 37771","Match","Exact","208 N HILL ST, LENOIR CITY, TN, 37771",610244707,"L"
111458,"208 N JEFFERSON ST","KAUFMAN","TX",75142,32.589869601,-96.310759954,458,"208 N JEFFERSON ST, KAUFMAN, TX, 75142","Match","Exact","208 N JEFFERSON ST, KAUFMAN, TX, 75142",123737303,"L"
111459,"208 N KENTUCKY AVE","MADISONVILLE","KY",42431,37.331056808,-87.493200727,459,"208 N KENTUCKY AVE, MADISONVILLE, KY, 42431","Match","Exact","208 N KENTUCKY AVE, MADISONVILLE, KY, 42431",11504525,"R"
111460,"208 N MAIN STREET","MOUNT CARROLL","IL",61053,42.0996422430001,-89.978825794,460,"208 N MAIN STREET, MOUNT CARROLL, IL, 61053","Match","Exact","208 N MAIN ST, MOUNT CARROLL, IL, 61053",27679458,"L"
111461,"208 N MAIN STREET","SPRING LAKE","NC",28390,35.168461103,-78.977058437,461,"208 N MAIN STREET, SPRING LAKE, NC, 28390","Match","Exact","208 N MAIN ST, SPRING LAKE, NC, 28390",64192561,"R"
111462,"208 N OAK ST","ARLINGTON","TX",76011,32.7380491750001,-97.1094540939999,462,"208 N OAK ST, ARLINGTON, TX, 76011","Match","Exact","208 N OAK ST, ARLINGTON, TX, 76011",101907962,"L"
111463,"208 N PINE STREET","VILLA GROVE","IL",61956,39.864106819,-88.164043023,463,"208 N PINE STREET, VILLA GROVE, IL, 61956","Match","Exact","208 N PINE ST, VILLA GROVE, IL, 61956",5739525,"L"
111464,"208 N TEXAS ST","HEREFORD","TX",79045,34.826515138,-102.409162095,464,"208 N TEXAS ST, HEREFORD, TX, 79045","Match","Non_Exact","208 N TEXAS AVE, HEREFORD, TX, 79045",164005455,"R"
111465,"208 N THOMAS STREET","CHRISTOPHER","IL",62822,37.97363096,-89.055867265,465,"208 N THOMAS STREET, CHRISTOPHER, IL, 62822","Match","Exact","208 N THOMAS ST, CHRISTOPHER, IL, 62822",92934149,"R"
111466,"208 NATCHITOCHES RD","VILLE PLATTE","LA",70586,30.6970504220001,-92.2925133699999,466,"208 NATCHITOCHES RD, VILLE PLATTE, LA, 70586","Match","Non_Exact","208 NATCHITOCHES DR, VILLE PLATTE, LA, 70586",13197667,"L"
111467,"208 NC HIGHWAY 62 WEST","RANDLEMAN","NC",27317,35.9219344850001,-79.819586708,467,"208 NC HIGHWAY 62 WEST, RANDLEMAN, NC, 27317","Match","Non_Exact","208 STATE HWY 62, RANDLEMAN, NC, 27317",131046933,"L"
111468,"208 NEWLANDS ST","LAFAYETTE","LA",70506,30.20514853,-92.10395956,468,"208 NEWLANDS ST, LAFAYETTE, LA, 70506","Match","Exact","208 NEWLANDS ST, LAFAYETTE, LA, 70506",642407799,"R"
111469,"208 NEWPORT LANDING PL","ROUND ROCK","TX",78665,30.5322309590001,-97.646913479,469,"208 NEWPORT LANDING PL, ROUND ROCK, TX, 78665","Match","Exact","208 NEWPORT LANDING PL, ROUND ROCK, TX, 78665",619962790,"L"
111470,"208 NORMAN ST","KENAI","AK",99611,60.5583940180001,-151.22424854,470,"208 NORMAN ST, KENAI, AK, 99611","Match","Exact","208 NORMAN ST, KENAI, AK, 99611",191004215,"L"
111471,"208 NORTH 1150 EAST","LINDON","UT",84042,40.342453624,-111.688617829,471,"208 NORTH 1150 EAST, LINDON, UT, 84042","Match","Exact","208 N 1150 E, LINDON, UT, 84042",134295039,"R"
111472,"208 NORTH 9TH STREET- UNIT 906","SAINT LOUIS","MO",63101,38.6282137270001,-90.193703684,472,"208 NORTH 9TH STREET- UNIT 906, SAINT LOUIS, MO, 63101","Match","Non_Exact","208 N 9TH ST, SAINT LOUIS, MO, 63101",107605747,"R"
111473,"208 NORTH ADAMS STREET","QUINCY","FL",32351,30.5903526170001,-84.576995666,473,"208 NORTH ADAMS STREET, QUINCY, FL, 32351","Match","Exact","208 N ADAMS ST, QUINCY, FL, 32351",87816243,"L"
111474,"208 NORTH BIRCHWOOD AVENUE","LOUISVILLE","KY",40206,38.2579414190001,-85.692002292,474,"208 NORTH BIRCHWOOD AVENUE, LOUISVILLE, KY, 40206","Match","Exact","208 N BIRCHWOOD AVE, LOUISVILLE, KY, 40206",618507071,"L"
111475,"208 NORTH BRUCE APT C","LAS VEGAS","NV",89101,36.1652307590001,-115.125085451,475,"208 NORTH BRUCE APT C, LAS VEGAS, NV, 89101","Match","Non_Exact","208 N BRUCE ST, LAS VEGAS, NV, 89101",201867950,"R"
111476,"208 NORTH COUNTRYSIDE DRIVE","ASHLAND","OH",44805,40.8527367980001,-82.3099160209999,476,"208 NORTH COUNTRYSIDE DRIVE, ASHLAND, OH, 44805","Match","Exact","208 N COUNTRYSIDE DR, ASHLAND, OH, 44805",30167876,"L"
111477,"208 NORTH GREGORY","GREGORY","TX",78359,27.923285551,-97.289617207,477,"208 NORTH GREGORY, GREGORY, TX, 78359","Match","Exact","208 N GREGORY, GREGORY, TX, 78359",36324851,"L"
111478,"208 NORTH MAGNOLIA","ALBANY","GA",31707,31.577937805,-84.190477105,478,"208 NORTH MAGNOLIA, ALBANY, GA, 31707","Match","Non_Exact","208 N MAGNOLIA ST, ALBANY, GA, 31707",618684380,"R"
111479,"208 NORTH MAIN STREET","LOCKHART","TX",78644,29.88572609,-97.672608428,479,"208 NORTH MAIN STREET, LOCKHART, TX, 78644","Match","Exact","208 N MAIN ST, LOCKHART, TX, 78644",45530953,"R"
111480,"208 NORTH MERRIFIELD AVE","SCRANTON","PA",18504,41.421805138,-75.69579451,480,"208 NORTH MERRIFIELD AVE, SCRANTON, PA, 18504","Match","Exact","208 N MERRIFIELD AVE, SCRANTON, PA, 18504",139320888,"R"
111481,"208 NORTH OHIO AVENUE","LIVE OAK","FL",32064,NA,NA,481,"208 NORTH OHIO AVENUE, LIVE OAK, FL, 32064","No_Match",NA,NA,NA,NA
111482,"208 NORTH VIRGINIALEE ROAD","COLUMBUS","OH",43209,39.9761417300001,-82.917887229,482,"208 NORTH VIRGINIALEE ROAD, COLUMBUS, OH, 43209","Match","Exact","208 N VIRGINIALEE RD, COLUMBUS, OH, 43209",218651573,"R"
111483,"208 OAK LEAF CT APT B","CHESAPEAKE","VA",23320,36.75648353,-76.247124588,483,"208 OAK LEAF CT APT B, CHESAPEAKE, VA, 23320","Match","Exact","208 OAK LEAF CT, CHESAPEAKE, VA, 23320",644728974,"L"
111484,"208 OAKWOOD ROAD","WILMINGTON","DE",19803,39.788012574,-75.539674313,484,"208 OAKWOOD ROAD, WILMINGTON, DE, 19803","Match","Exact","208 OAKWOOD RD, WILMINGTON, DE, 19803",187256368,"R"
111485,"208 OLMSTED LANE","ROUND LAKE","IL",60073,42.306560222,-88.087297521,485,"208 OLMSTED LANE, ROUND LAKE, IL, 60073","Match","Exact","208 OLMSTED LN, ROUND LAKE, IL, 60073",119758595,"L"
111486,"208 ORLEANS DRIVE","FAIRVIEW HEIGHTS","IL",62208,38.5818308990001,-89.9778843559999,486,"208 ORLEANS DRIVE, FAIRVIEW HEIGHTS, IL, 62208","Match","Exact","208 ORLEANS DR, FAIRVIEW HTS, IL, 62208",107840657,"R"
111487,"208 PARKS AVE","SCOTTSBORO","AL",35768,34.665962339,-86.037532539,487,"208 PARKS AVE, SCOTTSBORO, AL, 35768","Match","Exact","208 PARKS AVE, SCOTTSBORO, AL, 35768",58025306,"R"
111488,"208 PARKVIEW AVE","GAITHERSBRG","MD",20878,39.1530716550001,-77.2257043719999,488,"208 PARKVIEW AVE, GAITHERSBRG, MD, 20878","Match","Non_Exact","208 PARKVIEW AVE, GAITHERSBURG, MD, 20878",638730477,"L"
111489,"208 PASEO DEL PUEBLO SUR UNIT 303","TAOS","NM",87571,36.404898729,-105.574182135,489,"208 PASEO DEL PUEBLO SUR UNIT 303, TAOS, NM, 87571","Match","Non_Exact","208 PSO DEL PUEBLO SUR, TAOS, NM, 87571",616499725,"L"
111490,"208 PATERSON PLANK RD","UNION CITY","NJ",7087,40.7541832430001,-74.042979187,490,"208 PATERSON PLANK RD, UNION CITY, NJ, 7087","Match","Exact","208 PATERSON PLANK RD, UNION CITY, NJ, 07087",59600133,"R"
111491,"208 PATON ST","CASHMERE","WA",98815,47.518766226,-120.473426553,491,"208 PATON ST, CASHMERE, WA, 98815","Match","Exact","208 PATON ST, CASHMERE, WA, 98815",156970806,"L"
111492,"208 PAULETTE DR","ELIZABETH","PA",15037,40.2765886880001,-79.820375562,492,"208 PAULETTE DR, ELIZABETH, PA, 15037","Match","Exact","208 PAULETTE DR, ELIZABETH, PA, 15037",51679921,"R"
111493,"208 PILLSBURY STREET","LANCASTER","CA",93534,34.6909269930001,-118.131504212,493,"208 PILLSBURY STREET, LANCASTER, CA, 93534","Match","Non_Exact","208 W PILLSBURY ST, LANCASTER, CA, 93534",141526658,"R"
111494,"208 PIN OAK DR","LEXINGTON","SC",29073,33.9769098510001,-81.155290155,494,"208 PIN OAK DR, LEXINGTON, SC, 29073","Match","Exact","208 OAK DR, LEXINGTON, SC, 29073",70068545,"R"
111495,"208 PMB 173 4651 WOODSTOCK RD 208","R","GA",30075,34.062403153,-84.421221084,495,"208 PMB 173 4651 WOODSTOCK RD 208, R, GA, 30075","Match","Non_Exact","4651 WOODSTOCK RD, ROSWELL, GA, 30075",643224069,"R"
111496,"208 POLISH PINES LOOP","KEYSER","WV",26726,NA,NA,496,"208 POLISH PINES LOOP, KEYSER, WV, 26726","No_Match",NA,NA,NA,NA
111497,"208 PRINCE ST","SALISBURY","MD",21804,38.3578501850001,-75.593730148,497,"208 PRINCE ST, SALISBURY, MD, 21804","Match","Exact","208 PRINCE ST, SALISBURY, MD, 21804",114452681,"L"
111498,"208 PROVIDENCE MINE RD STE 122","NEVADA CITY","CA",95959,39.2503578770001,-121.030797496,498,"208 PROVIDENCE MINE RD STE 122, NEVADA CITY, CA, 95959","Match","Exact","208 PROVIDENCE MINE RD, NEVADA CITY, CA, 95959",641407707,"R"
111499,"208 RACE STREET SUITE 301","HOLYOKE","MA",1040,42.201426579,-72.60688175,499,"208 RACE STREET SUITE 301, HOLYOKE, MA, 1040","Match","Exact","208 RACE ST, HOLYOKE, MA, 01040",4018231,"L"
111500,"208 RACETRACK DR","AUSTIN","TX",78748,30.147460494,-97.810188598,500,"208 RACETRACK DR, AUSTIN, TX, 78748","Match","Exact","208 RACETRACK DR, AUSTIN, TX, 78748",64033221,"R"
