"ID","Address","City","State","Zip","lat","long","id","input_address","match_indicator","match_type","matched_address","tiger_line_id","tiger_side"
326501,"P O BOX 30115","WASHINGTON","DC",20030,NA,NA,1,"P O BOX 30115, WASHINGTON, DC, 20030","No_Match",NA,NA,NA,NA
326502,"P O BOX 3012","GULFPORT","MS",39505,NA,NA,2,"P O BOX 3012, GULFPORT, MS, 39505","No_Match",NA,NA,NA,NA
326503,"P O BOX 3013","IOWA CITY","IA",52240,NA,NA,3,"P O BOX 3013, IOWA CITY, IA, 52240","No_Match",NA,NA,NA,NA
326504,"P O BOX 30134","STATEN ISLAND","NY",10303,NA,NA,4,"P O BOX 30134, STATEN ISLAND, NY, 10303","No_Match",NA,NA,NA,NA
326505,"P O BOX 30172","RALEIGH","NC",27610,NA,NA,5,"P O BOX 30172, RALEIGH, NC, 27610","No_Match",NA,NA,NA,NA
326506,"P O BOX 30172","TUCSON","AZ",85751,NA,NA,6,"P O BOX 30172, TUCSON, AZ, 85751","No_Match",NA,NA,NA,NA
326507,"P O BOX 3018","FREDERICK","MD",21705,NA,NA,7,"P O BOX 3018, FREDERICK, MD, 21705","No_Match",NA,NA,NA,NA
326508,"P O BOX 302","DADE CITY","FL",33526,NA,NA,8,"P O BOX 302, DADE CITY, FL, 33526","No_Match",NA,NA,NA,NA
326509,"P O BOX 302","DOWNIEVILLE","CA",95936,NA,NA,9,"P O BOX 302, DOWNIEVILLE, CA, 95936","No_Match",NA,NA,NA,NA
326510,"P O BOX 302","GYPSUM","CO",81637,NA,NA,10,"P O BOX 302, GYPSUM, CO, 81637","No_Match",NA,NA,NA,NA
326511,"P O BOX 302","RIVERTON","CT",6065,NA,NA,11,"P O BOX 302, RIVERTON, CT, 6065","No_Match",NA,NA,NA,NA
326512,"P O BOX 3021","CHATTANOOGA","TN",37404,NA,NA,12,"P O BOX 3021, CHATTANOOGA, TN, 37404","No_Match",NA,NA,NA,NA
326513,"P O BOX 3021","SPRINGFIELD","MO",65801,NA,NA,13,"P O BOX 3021, SPRINGFIELD, MO, 65801","No_Match",NA,NA,NA,NA
326514,"P O BOX 30211","STOCKTON","CA",95213,NA,NA,14,"P O BOX 30211, STOCKTON, CA, 95213","No_Match",NA,NA,NA,NA
326515,"P O BOX 3025","MACON","GA",31205,NA,NA,15,"P O BOX 3025, MACON, GA, 31205","No_Match",NA,NA,NA,NA
326516,"P O BOX 302563","ST THOMAS","VI",803,NA,NA,16,"P O BOX 302563, ST THOMAS, VI, 803","No_Match",NA,NA,NA,NA
326517,"P O BOX 30263","LITTLE ROCK","AR",72260,NA,NA,17,"P O BOX 30263, LITTLE ROCK, AR, 72260","No_Match",NA,NA,NA,NA
326518,"P O BOX 30275","MIDWEST CITY","OK",73140,NA,NA,18,"P O BOX 30275, MIDWEST CITY, OK, 73140","No_Match",NA,NA,NA,NA
326519,"P O BOX 30282","ALEXANDRIA","VA",22310,NA,NA,19,"P O BOX 30282, ALEXANDRIA, VA, 22310","No_Match",NA,NA,NA,NA
326520,"P O BOX 303","BENTON","TN",37307,NA,NA,20,"P O BOX 303, BENTON, TN, 37307","No_Match",NA,NA,NA,NA
326521,"P O BOX 303","LA GRANGE","TX",78945,NA,NA,21,"P O BOX 303, LA GRANGE, TX, 78945","No_Match",NA,NA,NA,NA
326522,"P O BOX 303","MARCELLUS","MI",49067,NA,NA,22,"P O BOX 303, MARCELLUS, MI, 49067","No_Match",NA,NA,NA,NA
326523,"P O BOX 303","THOMASVILLE","PA",17364,NA,NA,23,"P O BOX 303, THOMASVILLE, PA, 17364","No_Match",NA,NA,NA,NA
326524,"P O BOX 303132","ST THOMAS","VI",803,NA,NA,24,"P O BOX 303132, ST THOMAS, VI, 803","No_Match",NA,NA,NA,NA
326525,"P O BOX 303531","AUSTIN","TX",78703,NA,NA,25,"P O BOX 303531, AUSTIN, TX, 78703","No_Match",NA,NA,NA,NA
326526,"P O BOX 303576","ST THOMAS","VI",803,NA,NA,26,"P O BOX 303576, ST THOMAS, VI, 803","No_Match",NA,NA,NA,NA
326527,"P O BOX 304","ARLINGTON","OH",45814,NA,NA,27,"P O BOX 304, ARLINGTON, OH, 45814","No_Match",NA,NA,NA,NA
326528,"P O BOX 304","HARRISON CITY","PA",15636,NA,NA,28,"P O BOX 304, HARRISON CITY, PA, 15636","No_Match",NA,NA,NA,NA
326529,"P O BOX 304","RIDGEFIELD","CT",6877,NA,NA,29,"P O BOX 304, RIDGEFIELD, CT, 6877","No_Match",NA,NA,NA,NA
326530,"P O BOX 30423","CHARLOTTE","NC",28230,NA,NA,30,"P O BOX 30423, CHARLOTTE, NC, 28230","No_Match",NA,NA,NA,NA
326531,"P O BOX 3044","LIHUE","HI",96766,NA,NA,31,"P O BOX 3044, LIHUE, HI, 96766","No_Match",NA,NA,NA,NA
326532,"P O BOX 305","LOUISVILLE","OH",44641,NA,NA,32,"P O BOX 305, LOUISVILLE, OH, 44641","No_Match",NA,NA,NA,NA
326533,"P O BOX 305","VAN WYCK","SC",29744,NA,NA,33,"P O BOX 305, VAN WYCK, SC, 29744","No_Match",NA,NA,NA,NA
326534,"P O BOX 305028","ST THOMAS","VI",801,NA,NA,34,"P O BOX 305028, ST THOMAS, VI, 801","No_Match",NA,NA,NA,NA
326535,"P O BOX 3052","CHEYENNE","WY",82003,NA,NA,35,"P O BOX 3052, CHEYENNE, WY, 82003","No_Match",NA,NA,NA,NA
326536,"P O BOX 30527","GREENVILLE","NC",27833,NA,NA,36,"P O BOX 30527, GREENVILLE, NC, 27833","No_Match",NA,NA,NA,NA
326537,"P O BOX 3053","LAS VEGAS","NM",87701,NA,NA,37,"P O BOX 3053, LAS VEGAS, NM, 87701","No_Match",NA,NA,NA,NA
326538,"P O BOX 3053","NAPA","CA",94558,NA,NA,38,"P O BOX 3053, NAPA, CA, 94558","No_Match",NA,NA,NA,NA
326539,"P O BOX 3057","TAOS","NM",87571,NA,NA,39,"P O BOX 3057, TAOS, NM, 87571","No_Match",NA,NA,NA,NA
326540,"P O BOX 305772","ST. THOMAS","VI",803,NA,NA,40,"P O BOX 305772, ST. THOMAS, VI, 803","No_Match",NA,NA,NA,NA
326541,"P O BOX 3058","QUAIL VALLEY","CA",92587,NA,NA,41,"P O BOX 3058, QUAIL VALLEY, CA, 92587","No_Match",NA,NA,NA,NA
326542,"P O BOX 305814","ST. THOMAS","VI",803,NA,NA,42,"P O BOX 305814, ST. THOMAS, VI, 803","No_Match",NA,NA,NA,NA
326543,"P O BOX 30583","WINSTON SALEM","NC",27103,NA,NA,43,"P O BOX 30583, WINSTON SALEM, NC, 27103","No_Match",NA,NA,NA,NA
326544,"P O BOX 305964","ST. THOMAS","VI",803,NA,NA,44,"P O BOX 305964, ST. THOMAS, VI, 803","No_Match",NA,NA,NA,NA
326545,"P O BOX 306","BOLTON","MA",1740,NA,NA,45,"P O BOX 306, BOLTON, MA, 1740","No_Match",NA,NA,NA,NA
326546,"P O BOX 306","NEWBERRY SPRINGS","CA",92365,NA,NA,46,"P O BOX 306, NEWBERRY SPRINGS, CA, 92365","No_Match",NA,NA,NA,NA
326547,"P O BOX 306","PEA RIDGE","AR",72732,NA,NA,47,"P O BOX 306, PEA RIDGE, AR, 72732","No_Match",NA,NA,NA,NA
326548,"P O BOX 306","PETERSBURG","IN",47567,NA,NA,48,"P O BOX 306, PETERSBURG, IN, 47567","No_Match",NA,NA,NA,NA
326549,"P O BOX 306","WINDSOR","CT",6095,NA,NA,49,"P O BOX 306, WINDSOR, CT, 6095","No_Match",NA,NA,NA,NA
326550,"P O BOX 30642","BILLINGS","MT",59107,NA,NA,50,"P O BOX 30642, BILLINGS, MT, 59107","No_Match",NA,NA,NA,NA
326551,"P O BOX 3065","EVANS","GA",30809,NA,NA,51,"P O BOX 3065, EVANS, GA, 30809","No_Match",NA,NA,NA,NA
326552,"P O BOX 307","TALPA","TX",76882,NA,NA,52,"P O BOX 307, TALPA, TX, 76882","No_Match",NA,NA,NA,NA
326553,"P O BOX 3070","JACKSON","WY",83001,NA,NA,53,"P O BOX 3070, JACKSON, WY, 83001","No_Match",NA,NA,NA,NA
326554,"P O BOX 30700","COLUMBIA","SC",29230,NA,NA,54,"P O BOX 30700, COLUMBIA, SC, 29230","No_Match",NA,NA,NA,NA
326555,"P O BOX 30737","INDIANAPOLIS","IN",46230,NA,NA,55,"P O BOX 30737, INDIANAPOLIS, IN, 46230","No_Match",NA,NA,NA,NA
326556,"P O BOX 3074","WEST MONROE","LA",71294,NA,NA,56,"P O BOX 3074, WEST MONROE, LA, 71294","No_Match",NA,NA,NA,NA
326557,"P O BOX 307604","GAHANNA","OH",43230,NA,NA,57,"P O BOX 307604, GAHANNA, OH, 43230","No_Match",NA,NA,NA,NA
326558,"P O BOX 30784","ALEXANDRIA","TN",22310,NA,NA,58,"P O BOX 30784, ALEXANDRIA, TN, 22310","No_Match",NA,NA,NA,NA
326559,"P O BOX 308","DENDRON","VA",23839,NA,NA,59,"P O BOX 308, DENDRON, VA, 23839","No_Match",NA,NA,NA,NA
326560,"P O BOX 308","LUSK","WY",82225,NA,NA,60,"P O BOX 308, LUSK, WY, 82225","No_Match",NA,NA,NA,NA
326561,"P O BOX 308","METAIRIE","LA",70004,NA,NA,61,"P O BOX 308, METAIRIE, LA, 70004","No_Match",NA,NA,NA,NA
326562,"P O BOX 3081","ALEXANDRIA","VA",22302,NA,NA,62,"P O BOX 3081, ALEXANDRIA, VA, 22302","No_Match",NA,NA,NA,NA
326563,"P O BOX 3082","FORT LEAVENWORTH","KS",66027,NA,NA,63,"P O BOX 3082, FORT LEAVENWORTH, KS, 66027","No_Match",NA,NA,NA,NA
326564,"P O BOX 30926","AMARILLO","TX",79120,NA,NA,64,"P O BOX 30926, AMARILLO, TX, 79120","No_Match",NA,NA,NA,NA
326565,"P O BOX 30943","MIDWEST CITY","OK",73140,NA,NA,65,"P O BOX 30943, MIDWEST CITY, OK, 73140","No_Match",NA,NA,NA,NA
326566,"P O BOX 30984","LITTLE ROCK","AR",72260,NA,NA,66,"P O BOX 30984, LITTLE ROCK, AR, 72260","No_Match",NA,NA,NA,NA
326567,"P O BOX 31","BENNETTSVILLE","SC",29512,NA,NA,67,"P O BOX 31, BENNETTSVILLE, SC, 29512","No_Match",NA,NA,NA,NA
326568,"P O BOX 31","CAMPTI","LA",71411,NA,NA,68,"P O BOX 31, CAMPTI, LA, 71411","No_Match",NA,NA,NA,NA
326569,"P O BOX 31","CELESTE","TX",75423,NA,NA,69,"P O BOX 31, CELESTE, TX, 75423","No_Match",NA,NA,NA,NA
326570,"P O BOX 31","GALESBURG","KS",66740,NA,NA,70,"P O BOX 31, GALESBURG, KS, 66740","No_Match",NA,NA,NA,NA
326571,"P O BOX 31","KINGSTON","OH",45644,NA,NA,71,"P O BOX 31, KINGSTON, OH, 45644","No_Match",NA,NA,NA,NA
326572,"P O BOX 31","LOUISVILLE","GA",30434,NA,NA,72,"P O BOX 31, LOUISVILLE, GA, 30434","No_Match",NA,NA,NA,NA
326573,"P O BOX 31","STUART","VA",24171,NA,NA,73,"P O BOX 31, STUART, VA, 24171","No_Match",NA,NA,NA,NA
326574,"P O BOX 310","TALLMADGE","OH",44278,NA,NA,74,"P O BOX 310, TALLMADGE, OH, 44278","No_Match",NA,NA,NA,NA
326575,"P O BOX 310315","FLINT","MI",48531,NA,NA,75,"P O BOX 310315, FLINT, MI, 48531","No_Match",NA,NA,NA,NA
326576,"P O BOX 310553","ATLANTA","GA",31131,NA,NA,76,"P O BOX 310553, ATLANTA, GA, 31131","No_Match",NA,NA,NA,NA
326577,"P O BOX 3106","LACROSSE","WI",54602,NA,NA,77,"P O BOX 3106, LACROSSE, WI, 54602","No_Match",NA,NA,NA,NA
326578,"P O BOX 311","IRRIGON","OR",97844,NA,NA,78,"P O BOX 311, IRRIGON, OR, 97844","No_Match",NA,NA,NA,NA
326579,"P O BOX 311","KALKASKA","MI",49646,NA,NA,79,"P O BOX 311, KALKASKA, MI, 49646","No_Match",NA,NA,NA,NA
326580,"P O BOX 311","LAKE CITY","FL",32056,NA,NA,80,"P O BOX 311, LAKE CITY, FL, 32056","No_Match",NA,NA,NA,NA
326581,"P O BOX 311","SOUTH BOSTON","VA",24592,NA,NA,81,"P O BOX 311, SOUTH BOSTON, VA, 24592","No_Match",NA,NA,NA,NA
326582,"P O BOX 311","WOLFFORTH","TX",79382,NA,NA,82,"P O BOX 311, WOLFFORTH, TX, 79382","No_Match",NA,NA,NA,NA
326583,"P O BOX 311045","ATLANTA","GA",31131,NA,NA,83,"P O BOX 311045, ATLANTA, GA, 31131","No_Match",NA,NA,NA,NA
326584,"P O BOX 3111","ASHTABULA","OH",44005,NA,NA,84,"P O BOX 3111, ASHTABULA, OH, 44005","No_Match",NA,NA,NA,NA
326585,"P O BOX 3112","ESTES PARK","CO",80517,NA,NA,85,"P O BOX 3112, ESTES PARK, CO, 80517","No_Match",NA,NA,NA,NA
326586,"P O BOX 311374","BIRMINGHAM","AL",35231,NA,NA,86,"P O BOX 311374, BIRMINGHAM, AL, 35231","No_Match",NA,NA,NA,NA
326587,"P O BOX 3115","GAINESVILLE","GA",30501,NA,NA,87,"P O BOX 3115, GAINESVILLE, GA, 30501","No_Match",NA,NA,NA,NA
326588,"P O BOX 31186","SANTA BARBARA","CA",93130,NA,NA,88,"P O BOX 31186, SANTA BARBARA, CA, 93130","No_Match",NA,NA,NA,NA
326589,"P O BOX 312","FAIRBURN","GA",30213,NA,NA,89,"P O BOX 312, FAIRBURN, GA, 30213","No_Match",NA,NA,NA,NA
326590,"P O BOX 312","MEADOW VALLEY","CA",95956,NA,NA,90,"P O BOX 312, MEADOW VALLEY, CA, 95956","No_Match",NA,NA,NA,NA
326591,"P O BOX 312","MENDHAM","NJ",7945,NA,NA,91,"P O BOX 312, MENDHAM, NJ, 7945","No_Match",NA,NA,NA,NA
326592,"P O BOX 312","MORRISTOWN","AZ",85342,NA,NA,92,"P O BOX 312, MORRISTOWN, AZ, 85342","No_Match",NA,NA,NA,NA
326593,"P O BOX 312","RHINELANDER","WI",54501,NA,NA,93,"P O BOX 312, RHINELANDER, WI, 54501","No_Match",NA,NA,NA,NA
326594,"P O BOX 312013","ATLANTA","GA",31131,NA,NA,94,"P O BOX 312013, ATLANTA, GA, 31131","No_Match",NA,NA,NA,NA
326595,"P O BOX 3122","KINGMAN","AZ",86402,NA,NA,95,"P O BOX 3122, KINGMAN, AZ, 86402","No_Match",NA,NA,NA,NA
326596,"P O BOX 3122","WINDERMERE","FL",34786,NA,NA,96,"P O BOX 3122, WINDERMERE, FL, 34786","No_Match",NA,NA,NA,NA
326597,"P O BOX 3125","BELLA VISTA","AR",72715,NA,NA,97,"P O BOX 3125, BELLA VISTA, AR, 72715","No_Match",NA,NA,NA,NA
326598,"P O BOX 3125","CORRALES","NM",87048,NA,NA,98,"P O BOX 3125, CORRALES, NM, 87048","No_Match",NA,NA,NA,NA
326599,"P O BOX 31266","CONCORD","CA",94521,NA,NA,99,"P O BOX 31266, CONCORD, CA, 94521","No_Match",NA,NA,NA,NA
326600,"P O BOX 31291","BELLINGHAM","WA",98228,NA,NA,100,"P O BOX 31291, BELLINGHAM, WA, 98228","No_Match",NA,NA,NA,NA
326601,"P O BOX 313","DEVON","PA",19333,NA,NA,101,"P O BOX 313, DEVON, PA, 19333","No_Match",NA,NA,NA,NA
326602,"P O BOX 313","LYNNFIELD","MA",1940,NA,NA,102,"P O BOX 313, LYNNFIELD, MA, 1940","No_Match",NA,NA,NA,NA
326603,"P O BOX 31317","SEATTLE","WA",98103,NA,NA,103,"P O BOX 31317, SEATTLE, WA, 98103","No_Match",NA,NA,NA,NA
326604,"P O BOX 3133","PUEBLO","CO",81005,NA,NA,104,"P O BOX 3133, PUEBLO, CO, 81005","No_Match",NA,NA,NA,NA
326605,"P O BOX 314","FOSTER","OR",97345,NA,NA,105,"P O BOX 314, FOSTER, OR, 97345","No_Match",NA,NA,NA,NA
326606,"P O BOX 3142","CLEWISTON","FL",33440,NA,NA,106,"P O BOX 3142, CLEWISTON, FL, 33440","No_Match",NA,NA,NA,NA
326607,"P O BOX 315 OR 114 S KENT STREET","COMANCHE","TX",76442,NA,NA,107,"P O BOX 315 OR 114 S KENT STREET, COMANCHE, TX, 76442","No_Match",NA,NA,NA,NA
326608,"P O BOX 315","MOUNT HOREB","WI",53572,NA,NA,108,"P O BOX 315, MOUNT HOREB, WI, 53572","No_Match",NA,NA,NA,NA
326609,"P O BOX 315","OLEY","PA",19547,NA,NA,109,"P O BOX 315, OLEY, PA, 19547","No_Match",NA,NA,NA,NA
326610,"P O BOX 3152","TULSA","OK",74101,NA,NA,110,"P O BOX 3152, TULSA, OK, 74101","No_Match",NA,NA,NA,NA
326611,"P O BOX 3153","BUENA VISTA","CO",81211,NA,NA,111,"P O BOX 3153, BUENA VISTA, CO, 81211","No_Match",NA,NA,NA,NA
326612,"P O BOX 3154","LOGANVILLE","GA",30052,NA,NA,112,"P O BOX 3154, LOGANVILLE, GA, 30052","No_Match",NA,NA,NA,NA
326613,"P O BOX 316","THOMASVILLE","GA",31799,NA,NA,113,"P O BOX 316, THOMASVILLE, GA, 31799","No_Match",NA,NA,NA,NA
326614,"P O BOX 31603","TUCSON","AZ",85751,NA,NA,114,"P O BOX 31603, TUCSON, AZ, 85751","No_Match",NA,NA,NA,NA
326615,"P O BOX 3161","PLACIDA","FL",33946,NA,NA,115,"P O BOX 3161, PLACIDA, FL, 33946","No_Match",NA,NA,NA,NA
326616,"P O BOX 317","SALEM","OH",44460,NA,NA,116,"P O BOX 317, SALEM, OH, 44460","No_Match",NA,NA,NA,NA
326617,"P O BOX 3171","FORT STEWART","GA",31315,NA,NA,117,"P O BOX 3171, FORT STEWART, GA, 31315","No_Match",NA,NA,NA,NA
326618,"P O BOX 3175","WEST TISBURY","MA",2575,NA,NA,118,"P O BOX 3175, WEST TISBURY, MA, 2575","No_Match",NA,NA,NA,NA
326619,"P O BOX 318","JARRELL","TX",76537,NA,NA,119,"P O BOX 318, JARRELL, TX, 76537","No_Match",NA,NA,NA,NA
326620,"P O BOX 318","PLATTEVILLE","WI",53818,NA,NA,120,"P O BOX 318, PLATTEVILLE, WI, 53818","No_Match",NA,NA,NA,NA
326621,"P O BOX 318013","BATON ROUGE","LA",70809,NA,NA,121,"P O BOX 318013, BATON ROUGE, LA, 70809","No_Match",NA,NA,NA,NA
326622,"P O BOX 31804","EDMOND","OK",73003,NA,NA,122,"P O BOX 31804, EDMOND, OK, 73003","No_Match",NA,NA,NA,NA
326623,"P O BOX 318122","70831","LA",77493,NA,NA,123,"P O BOX 318122, 70831, LA, 77493","No_Match",NA,NA,NA,NA
326624,"P O BOX 3193","LA VALE","MD",21504,NA,NA,124,"P O BOX 3193, LA VALE, MD, 21504","No_Match",NA,NA,NA,NA
326625,"P O BOX 3195","AIKEN","SC",29802,NA,NA,125,"P O BOX 3195, AIKEN, SC, 29802","No_Match",NA,NA,NA,NA
326626,"P O BOX 32","BLYTHE","GA",30805,NA,NA,126,"P O BOX 32, BLYTHE, GA, 30805","No_Match",NA,NA,NA,NA
326627,"P O BOX 32","COOLIN","ID",83821,NA,NA,127,"P O BOX 32, COOLIN, ID, 83821","No_Match",NA,NA,NA,NA
326628,"P O BOX 32","EUSTACE","TX",75124,NA,NA,128,"P O BOX 32, EUSTACE, TX, 75124","No_Match",NA,NA,NA,NA
326629,"P O BOX 32","RANDLETT","OK",73562,NA,NA,129,"P O BOX 32, RANDLETT, OK, 73562","No_Match",NA,NA,NA,NA
326630,"P O BOX 32","RIDGELAND","MS",39158,NA,NA,130,"P O BOX 32, RIDGELAND, MS, 39158","No_Match",NA,NA,NA,NA
326631,"P O BOX 320","EAST LONGMEADOW","MA",1028,NA,NA,131,"P O BOX 320, EAST LONGMEADOW, MA, 1028","No_Match",NA,NA,NA,NA
326632,"P O BOX 3203","CHESTER","VA",23831,NA,NA,132,"P O BOX 3203, CHESTER, VA, 23831","No_Match",NA,NA,NA,NA
326633,"P O BOX 32062","EDMOND","OK",73012,NA,NA,133,"P O BOX 32062, EDMOND, OK, 73012","No_Match",NA,NA,NA,NA
326634,"P O BOX 320636","TAMPA","FL",33679,NA,NA,134,"P O BOX 320636, TAMPA, FL, 33679","No_Match",NA,NA,NA,NA
326635,"P O BOX 320642","FLOWOOD","MS",39232,NA,NA,135,"P O BOX 320642, FLOWOOD, MS, 39232","No_Match",NA,NA,NA,NA
326636,"P O BOX 320644","HARTFORD","CT",6132,NA,NA,136,"P O BOX 320644, HARTFORD, CT, 6132","No_Match",NA,NA,NA,NA
326637,"P O BOX 321","BRENTWOOD","TN",37024,NA,NA,137,"P O BOX 321, BRENTWOOD, TN, 37024","No_Match",NA,NA,NA,NA
326638,"P O BOX 321","LATHROP","MO",64465,NA,NA,138,"P O BOX 321, LATHROP, MO, 64465","No_Match",NA,NA,NA,NA
326639,"P O BOX 321","SPRINGVILLE","UT",84663,NA,NA,139,"P O BOX 321, SPRINGVILLE, UT, 84663","No_Match",NA,NA,NA,NA
326640,"P O BOX 321","WAYMART","PA",18472,NA,NA,140,"P O BOX 321, WAYMART, PA, 18472","No_Match",NA,NA,NA,NA
326641,"P O BOX 321344","COCOA BEACH","FL",32932,NA,NA,141,"P O BOX 321344, COCOA BEACH, FL, 32932","No_Match",NA,NA,NA,NA
326642,"P O BOX 32139","CINCINNATI","OH",45232,NA,NA,142,"P O BOX 32139, CINCINNATI, OH, 45232","No_Match",NA,NA,NA,NA
326643,"P O BOX 3214","ZEPHYRHILLS","FL",33539,NA,NA,143,"P O BOX 3214, ZEPHYRHILLS, FL, 33539","No_Match",NA,NA,NA,NA
326644,"P O BOX 3216","SUMMERVILLE","SC",29484,NA,NA,144,"P O BOX 3216, SUMMERVILLE, SC, 29484","No_Match",NA,NA,NA,NA
326645,"P O BOX 322","CAMDEN","NJ",8101,NA,NA,145,"P O BOX 322, CAMDEN, NJ, 8101","No_Match",NA,NA,NA,NA
326646,"P O BOX 322","CARLINVILLE","IL",62626,NA,NA,146,"P O BOX 322, CARLINVILLE, IL, 62626","No_Match",NA,NA,NA,NA
326647,"P O BOX 322","CHERRY VALLEY","AR",72324,NA,NA,147,"P O BOX 322, CHERRY VALLEY, AR, 72324","No_Match",NA,NA,NA,NA
326648,"P O BOX 322","HAYWARD","CA",94541,NA,NA,148,"P O BOX 322, HAYWARD, CA, 94541","No_Match",NA,NA,NA,NA
326649,"P O BOX 322","LAKELAND","FL",33802,NA,NA,149,"P O BOX 322, LAKELAND, FL, 33802","No_Match",NA,NA,NA,NA
326650,"P O BOX 322","SKILLMAN","NJ",8558,NA,NA,150,"P O BOX 322, SKILLMAN, NJ, 8558","No_Match",NA,NA,NA,NA
326651,"P O BOX 3222","GRETNA","LA",70054,NA,NA,151,"P O BOX 3222, GRETNA, LA, 70054","No_Match",NA,NA,NA,NA
326652,"P O BOX 3222","KINSTON","NC",28502,NA,NA,152,"P O BOX 3222, KINSTON, NC, 28502","No_Match",NA,NA,NA,NA
326653,"P O BOX 32254","PHILADELPHIA","PA",19146,NA,NA,153,"P O BOX 32254, PHILADELPHIA, PA, 19146","No_Match",NA,NA,NA,NA
326654,"P O BOX 323","HIGHTSTOWN","NJ",8520,NA,NA,154,"P O BOX 323, HIGHTSTOWN, NJ, 8520","No_Match",NA,NA,NA,NA
326655,"P O BOX 323","PINE GROVE MILLS","PA",16868,NA,NA,155,"P O BOX 323, PINE GROVE MILLS, PA, 16868","No_Match",NA,NA,NA,NA
326656,"P O BOX 3230","WAILUKU","HI",96793,NA,NA,156,"P O BOX 3230, WAILUKU, HI, 96793","No_Match",NA,NA,NA,NA
326657,"P O BOX 324","BEAUFORT","SC",29901,NA,NA,157,"P O BOX 324, BEAUFORT, SC, 29901","No_Match",NA,NA,NA,NA
326658,"P O BOX 3241","ZANESVILLE","OH",43702,NA,NA,158,"P O BOX 3241, ZANESVILLE, OH, 43702","No_Match",NA,NA,NA,NA
326659,"P O BOX 32451","CHARLOTTE","NC",28232,NA,NA,159,"P O BOX 32451, CHARLOTTE, NC, 28232","No_Match",NA,NA,NA,NA
326660,"P O BOX 325","CENTRAL BRIDGE","NY",12035,NA,NA,160,"P O BOX 325, CENTRAL BRIDGE, NY, 12035","No_Match",NA,NA,NA,NA
326661,"P O BOX 32543","EUCLID","OH",44132,NA,NA,161,"P O BOX 32543, EUCLID, OH, 44132","No_Match",NA,NA,NA,NA
326662,"P O BOX 326","APPLE SPRINGS","TX",75926,NA,NA,162,"P O BOX 326, APPLE SPRINGS, TX, 75926","No_Match",NA,NA,NA,NA
326663,"P O BOX 326","LEXINGTON","NC",27293,NA,NA,163,"P O BOX 326, LEXINGTON, NC, 27293","No_Match",NA,NA,NA,NA
326664,"P O BOX 326","ORANGE PARK","FL",32067,NA,NA,164,"P O BOX 326, ORANGE PARK, FL, 32067","No_Match",NA,NA,NA,NA
326665,"P O BOX 32633","BALTIMORE","MD",21282,NA,NA,165,"P O BOX 32633, BALTIMORE, MD, 21282","No_Match",NA,NA,NA,NA
326666,"P O BOX 3267","MEMPHIS","TN",38173,NA,NA,166,"P O BOX 3267, MEMPHIS, TN, 38173","No_Match",NA,NA,NA,NA
326667,"P O BOX 326724","HAGATNA","GU",96932,NA,NA,167,"P O BOX 326724, HAGATNA, GU, 96932","No_Match",NA,NA,NA,NA
326668,"P O BOX 327 154 1ST AV NW","VERNON","AL",35592,33.75795256,-88.110136532,168,"P O BOX 327 154 1ST AV NW, VERNON, AL, 35592","Match","Exact","154 1ST AVE NW, VERNON, AL, 35592",158977259,"R"
326669,"P O BOX 327","CHEPACHET","RI",2817,NA,NA,169,"P O BOX 327, CHEPACHET, RI, 2817","No_Match",NA,NA,NA,NA
326670,"P O BOX 327","FREDERICKTOWN","MO",63645,NA,NA,170,"P O BOX 327, FREDERICKTOWN, MO, 63645","No_Match",NA,NA,NA,NA
326671,"P O BOX 327","HIGDON","AL",35979,NA,NA,171,"P O BOX 327, HIGDON, AL, 35979","No_Match",NA,NA,NA,NA
326672,"P O BOX 327","PHILLIPS","WI",54555,NA,NA,172,"P O BOX 327, PHILLIPS, WI, 54555","No_Match",NA,NA,NA,NA
326673,"P O BOX 3272","HARLINGEN","TX",78551,NA,NA,173,"P O BOX 3272, HARLINGEN, TX, 78551","No_Match",NA,NA,NA,NA
326674,"P O BOX 328","BRONX","NY",10459,NA,NA,174,"P O BOX 328, BRONX, NY, 10459","No_Match",NA,NA,NA,NA
326675,"P O BOX 328","CUMBERLAND","VA",23027,NA,NA,175,"P O BOX 328, CUMBERLAND, VA, 23027","No_Match",NA,NA,NA,NA
326676,"P O BOX 328","HUNTINGTON","TX",75949,NA,NA,176,"P O BOX 328, HUNTINGTON, TX, 75949","No_Match",NA,NA,NA,NA
326677,"P O BOX 32824","DETROIT","MI",48232,NA,NA,177,"P O BOX 32824, DETROIT, MI, 48232","No_Match",NA,NA,NA,NA
326678,"P O BOX 3283","ZANESVILLE","OH",43702,NA,NA,178,"P O BOX 3283, ZANESVILLE, OH, 43702","No_Match",NA,NA,NA,NA
326679,"P O BOX 3286","EAST ORANGE","NJ",7065,NA,NA,179,"P O BOX 3286, EAST ORANGE, NJ, 7065","No_Match",NA,NA,NA,NA
326680,"P O BOX 3287","FREDERICK","MD",21705,NA,NA,180,"P O BOX 3287, FREDERICK, MD, 21705","No_Match",NA,NA,NA,NA
326681,"P O BOX 329","LYON","MS",38645,NA,NA,181,"P O BOX 329, LYON, MS, 38645","No_Match",NA,NA,NA,NA
326682,"P O BOX 329","RUCKERSVILLE","VA",22968,NA,NA,182,"P O BOX 329, RUCKERSVILLE, VA, 22968","No_Match",NA,NA,NA,NA
326683,"P O BOX 33","DOWNS","KS",67437,NA,NA,183,"P O BOX 33, DOWNS, KS, 67437","No_Match",NA,NA,NA,NA
326684,"P O BOX 33","HARPERS FERRY","WV",25425,NA,NA,184,"P O BOX 33, HARPERS FERRY, WV, 25425","No_Match",NA,NA,NA,NA
326685,"P O BOX 33","LE ROY","NY",14482,NA,NA,185,"P O BOX 33, LE ROY, NY, 14482","No_Match",NA,NA,NA,NA
326686,"P O BOX 33","MILWAUKEE","WI",53201,NA,NA,186,"P O BOX 33, MILWAUKEE, WI, 53201","No_Match",NA,NA,NA,NA
326687,"P O BOX 33","NORTH JUDSON","IN",46366,NA,NA,187,"P O BOX 33, NORTH JUDSON, IN, 46366","No_Match",NA,NA,NA,NA
326688,"P O BOX 33","PEARLAND","TX",77588,NA,NA,188,"P O BOX 33, PEARLAND, TX, 77588","No_Match",NA,NA,NA,NA
326689,"P O BOX 33","TRES PIEDRAS","NM",87577,NA,NA,189,"P O BOX 33, TRES PIEDRAS, NM, 87577","No_Match",NA,NA,NA,NA
326690,"P O BOX 330122","FORT WORTH","TX",76163,NA,NA,190,"P O BOX 330122, FORT WORTH, TX, 76163","No_Match",NA,NA,NA,NA
326691,"P O BOX 33013","PHILDELPHIA","PA",19142,NA,NA,191,"P O BOX 33013, PHILDELPHIA, PA, 19142","No_Match",NA,NA,NA,NA
326692,"P O BOX 330242","FORT WORTH","TX",76163,NA,NA,192,"P O BOX 330242, FORT WORTH, TX, 76163","No_Match",NA,NA,NA,NA
326693,"P O BOX 330243","TULSA","OK",74133,NA,NA,193,"P O BOX 330243, TULSA, OK, 74133","No_Match",NA,NA,NA,NA
326694,"P O BOX 330309","HOUSTON","TX",77233,NA,NA,194,"P O BOX 330309, HOUSTON, TX, 77233","No_Match",NA,NA,NA,NA
326695,"P O BOX 33037","BLOOMFIELD HILLS","MI",48303,NA,NA,195,"P O BOX 33037, BLOOMFIELD HILLS, MI, 48303","No_Match",NA,NA,NA,NA
326696,"P O BOX 3304","IDAHO SPRINGS","CO",80452,NA,NA,196,"P O BOX 3304, IDAHO SPRINGS, CO, 80452","No_Match",NA,NA,NA,NA
326697,"P O BOX 330506","NASHVILLE","TN",37203,NA,NA,197,"P O BOX 330506, NASHVILLE, TN, 37203","No_Match",NA,NA,NA,NA
326698,"P O BOX 3306","FARMINGTON HILLS","MI",48333,NA,NA,198,"P O BOX 3306, FARMINGTON HILLS, MI, 48333","No_Match",NA,NA,NA,NA
326699,"P O BOX 330948","NASHVILLE","TN",37203,NA,NA,199,"P O BOX 330948, NASHVILLE, TN, 37203","No_Match",NA,NA,NA,NA
326700,"P O BOX 331  295 N 400 E","WELLINGTON","UT",84542,39.542712626,-110.729453169,200,"P O BOX 331  295 N 400 E, WELLINGTON, UT, 84542","Match","Exact","295 N 400 E, WELLINGTON, UT, 84542",132823201,"L"
326701,"P O BOX 331","BROADALBIN","NY",12025,NA,NA,201,"P O BOX 331, BROADALBIN, NY, 12025","No_Match",NA,NA,NA,NA
326702,"P O BOX 331","BUDA","TX",78610,NA,NA,202,"P O BOX 331, BUDA, TX, 78610","No_Match",NA,NA,NA,NA
326703,"P O BOX 331","MERIDIAN","TX",76665,NA,NA,203,"P O BOX 331, MERIDIAN, TX, 76665","No_Match",NA,NA,NA,NA
326704,"P O BOX 331","MISSOURI CITY","TX",77459,NA,NA,204,"P O BOX 331, MISSOURI CITY, TX, 77459","No_Match",NA,NA,NA,NA
326705,"P O BOX 33102","PHOENIX","AZ",85067,NA,NA,205,"P O BOX 33102, PHOENIX, AZ, 85067","No_Match",NA,NA,NA,NA
326706,"P O BOX 331031","ATLANTIC BEACH","FL",32233,NA,NA,206,"P O BOX 331031, ATLANTIC BEACH, FL, 32233","No_Match",NA,NA,NA,NA
326707,"P O BOX 3312","TUSTIN","CA",92718,NA,NA,207,"P O BOX 3312, TUSTIN, CA, 92718","No_Match",NA,NA,NA,NA
326708,"P O BOX 3313","WEST HELENA","AR",72390,NA,NA,208,"P O BOX 3313, WEST HELENA, AR, 72390","No_Match",NA,NA,NA,NA
326709,"P O BOX 332","CULPEPER","VA",22701,NA,NA,209,"P O BOX 332, CULPEPER, VA, 22701","No_Match",NA,NA,NA,NA
326710,"P O BOX 332","HORSE CAVE","KY",42749,NA,NA,210,"P O BOX 332, HORSE CAVE, KY, 42749","No_Match",NA,NA,NA,NA
326711,"P O BOX 33201","BALTIMORE","MD",21218,NA,NA,211,"P O BOX 33201, BALTIMORE, MD, 21218","No_Match",NA,NA,NA,NA
326712,"P O BOX 3323","FORNEY","TX",75126,NA,NA,212,"P O BOX 3323, FORNEY, TX, 75126","No_Match",NA,NA,NA,NA
326713,"P O BOX 332483","MURFREESBORO","TN",37133,NA,NA,213,"P O BOX 332483, MURFREESBORO, TN, 37133","No_Match",NA,NA,NA,NA
326714,"P O BOX 333","DOUBLE SPRINGS","AL",35553,NA,NA,214,"P O BOX 333, DOUBLE SPRINGS, AL, 35553","No_Match",NA,NA,NA,NA
326715,"P O BOX 333","JENNINGS","LA",70546,NA,NA,215,"P O BOX 333, JENNINGS, LA, 70546","No_Match",NA,NA,NA,NA
326716,"P O BOX 333","MONROVIA","IN",46157,NA,NA,216,"P O BOX 333, MONROVIA, IN, 46157","No_Match",NA,NA,NA,NA
326717,"P O BOX 333","REYNOLDSVILLE","WV",26422,NA,NA,217,"P O BOX 333, REYNOLDSVILLE, WV, 26422","No_Match",NA,NA,NA,NA
326718,"P O BOX 333","TOPEKA","KS",66601,NA,NA,218,"P O BOX 333, TOPEKA, KS, 66601","No_Match",NA,NA,NA,NA
326719,"P O BOX 3332","ATLANTA","GA",30302,NA,NA,219,"P O BOX 3332, ATLANTA, GA, 30302","No_Match",NA,NA,NA,NA
326720,"P O BOX 33353","CHARLOTTE","NC",28233,NA,NA,220,"P O BOX 33353, CHARLOTTE, NC, 28233","No_Match",NA,NA,NA,NA
326721,"P O BOX 334","ADAMS","WI",53910,NA,NA,221,"P O BOX 334, ADAMS, WI, 53910","No_Match",NA,NA,NA,NA
326722,"P O BOX 334","HAZELHURST","WI",54531,NA,NA,222,"P O BOX 334, HAZELHURST, WI, 54531","No_Match",NA,NA,NA,NA
326723,"P O BOX 334","MANNINGTON","WV",26582,NA,NA,223,"P O BOX 334, MANNINGTON, WV, 26582","No_Match",NA,NA,NA,NA
326724,"P O BOX 334","PERRY HALL","MD",21128,NA,NA,224,"P O BOX 334, PERRY HALL, MD, 21128","No_Match",NA,NA,NA,NA
326725,"P O BOX 334","TROY","OH",45373,NA,NA,225,"P O BOX 334, TROY, OH, 45373","No_Match",NA,NA,NA,NA
326726,"P O BOX 33464","SAN ANTONIO","TX",78265,NA,NA,226,"P O BOX 33464, SAN ANTONIO, TX, 78265","No_Match",NA,NA,NA,NA
326727,"P O BOX 33467","TULSA","OK",74153,NA,NA,227,"P O BOX 33467, TULSA, OK, 74153","No_Match",NA,NA,NA,NA
326728,"P O BOX 335","CHERAW","SC",29520,NA,NA,228,"P O BOX 335, CHERAW, SC, 29520","No_Match",NA,NA,NA,NA
326729,"P O BOX 335","CONCORDIA","MO",64020,NA,NA,229,"P O BOX 335, CONCORDIA, MO, 64020","No_Match",NA,NA,NA,NA
326730,"P O BOX 335","DE KALB","TX",75559,NA,NA,230,"P O BOX 335, DE KALB, TX, 75559","No_Match",NA,NA,NA,NA
326731,"P O BOX 335163","N LAS VEGAS","NV",89033,NA,NA,231,"P O BOX 335163, N LAS VEGAS, NV, 89033","No_Match",NA,NA,NA,NA
326732,"P O BOX 336","BELTON","TX",76513,NA,NA,232,"P O BOX 336, BELTON, TX, 76513","No_Match",NA,NA,NA,NA
326733,"P O BOX 336","EVANSTON","IL",60204,NA,NA,233,"P O BOX 336, EVANSTON, IL, 60204","No_Match",NA,NA,NA,NA
326734,"P O BOX 336","FREMONT","OH",43420,NA,NA,234,"P O BOX 336, FREMONT, OH, 43420","No_Match",NA,NA,NA,NA
326735,"P O BOX 33633","PORTLAND","OR",97292,NA,NA,235,"P O BOX 33633, PORTLAND, OR, 97292","No_Match",NA,NA,NA,NA
326736,"P O BOX 337","ELK RAPIDS","MI",49690,NA,NA,236,"P O BOX 337, ELK RAPIDS, MI, 49690","No_Match",NA,NA,NA,NA
326737,"P O BOX 337","RESACA","GA",30735,NA,NA,237,"P O BOX 337, RESACA, GA, 30735","No_Match",NA,NA,NA,NA
326738,"P O BOX 3376","HUEYTOWN","AL",35023,NA,NA,238,"P O BOX 3376, HUEYTOWN, AL, 35023","No_Match",NA,NA,NA,NA
326739,"P O BOX 338","MANSFIELD CENTER","CT",6250,NA,NA,239,"P O BOX 338, MANSFIELD CENTER, CT, 6250","No_Match",NA,NA,NA,NA
326740,"P O BOX 33863","CHARLOTTE","NC",28233,NA,NA,240,"P O BOX 33863, CHARLOTTE, NC, 28233","No_Match",NA,NA,NA,NA
326741,"P O BOX 3387","HAMPTON","VA",23663,NA,NA,241,"P O BOX 3387, HAMPTON, VA, 23663","No_Match",NA,NA,NA,NA
326742,"P O BOX 33913","FORT WORTH","TX",76162,NA,NA,242,"P O BOX 33913, FORT WORTH, TX, 76162","No_Match",NA,NA,NA,NA
326743,"P O BOX 3395","AKRON","OH",44309,NA,NA,243,"P O BOX 3395, AKRON, OH, 44309","No_Match",NA,NA,NA,NA
326744,"P O BOX 34","AVONDALE","WV",24811,NA,NA,244,"P O BOX 34, AVONDALE, WV, 24811","No_Match",NA,NA,NA,NA
326745,"P O BOX 34","MACKS INN","ID",83429,NA,NA,245,"P O BOX 34, MACKS INN, ID, 83429","No_Match",NA,NA,NA,NA
326746,"P O BOX 34","WALCOTT","IA",52773,NA,NA,246,"P O BOX 34, WALCOTT, IA, 52773","No_Match",NA,NA,NA,NA
326747,"P O BOX 34","WILLARD","OH",44890,NA,NA,247,"P O BOX 34, WILLARD, OH, 44890","No_Match",NA,NA,NA,NA
326748,"P O BOX 340","OLMSTED","IL",62970,NA,NA,248,"P O BOX 340, OLMSTED, IL, 62970","No_Match",NA,NA,NA,NA
326749,"P O BOX 340153","COLUMBUS","OH",43234,NA,NA,249,"P O BOX 340153, COLUMBUS, OH, 43234","No_Match",NA,NA,NA,NA
326750,"P O BOX 3402","WEST PALM BEACH","FL",33407,NA,NA,250,"P O BOX 3402, WEST PALM BEACH, FL, 33407","No_Match",NA,NA,NA,NA
326751,"P O BOX 340204","JAMAICA","NY",11434,NA,NA,251,"P O BOX 340204, JAMAICA, NY, 11434","No_Match",NA,NA,NA,NA
326752,"P O BOX 340654","TAMPA","FL",33694,NA,NA,252,"P O BOX 340654, TAMPA, FL, 33694","No_Match",NA,NA,NA,NA
326753,"P O BOX 34069","PHILADELPHIA","PA",19101,NA,NA,253,"P O BOX 34069, PHILADELPHIA, PA, 19101","No_Match",NA,NA,NA,NA
326754,"P O BOX 340749","BROOKLYN","NY",11234,NA,NA,254,"P O BOX 340749, BROOKLYN, NY, 11234","No_Match",NA,NA,NA,NA
326755,"P O BOX 341","COLLEGE PLACE","WA",99324,NA,NA,255,"P O BOX 341, COLLEGE PLACE, WA, 99324","No_Match",NA,NA,NA,NA
326756,"P O BOX 341","LITTLE FALLS","NJ",7424,NA,NA,256,"P O BOX 341, LITTLE FALLS, NJ, 7424","No_Match",NA,NA,NA,NA
326757,"P O BOX 341","ROME","NY",13442,NA,NA,257,"P O BOX 341, ROME, NY, 13442","No_Match",NA,NA,NA,NA
326758,"P O BOX 3417","SAN JOSE","CA",95156,NA,NA,258,"P O BOX 3417, SAN JOSE, CA, 95156","No_Match",NA,NA,NA,NA
326759,"P O BOX 341966","BETHESDA","MD",20827,NA,NA,259,"P O BOX 341966, BETHESDA, MD, 20827","No_Match",NA,NA,NA,NA
326760,"P O BOX 342","BOTHELL","WA",98011,NA,NA,260,"P O BOX 342, BOTHELL, WA, 98011","No_Match",NA,NA,NA,NA
326761,"P O BOX 342","PRATTSVILLE","NY",12468,NA,NA,261,"P O BOX 342, PRATTSVILLE, NY, 12468","No_Match",NA,NA,NA,NA
326762,"P O BOX 342","RIPLEY","TN",38063,NA,NA,262,"P O BOX 342, RIPLEY, TN, 38063","No_Match",NA,NA,NA,NA
326763,"P O BOX 3422 / 401 FIFTH STREET","MORGAN CITY","LA",70381,29.6952145430001,-91.202017783,263,"P O BOX 3422 / 401 FIFTH STREET, MORGAN CITY, LA, 70381","Match","Non_Exact","401 5TH ST, MORGAN CITY, LA, 70380",85889090,"L"
326764,"P O BOX 342907","MEMPHIS","TN",38184,NA,NA,264,"P O BOX 342907, MEMPHIS, TN, 38184","No_Match",NA,NA,NA,NA
326765,"P O BOX 343","ALLENDALE","NJ",7401,NA,NA,265,"P O BOX 343, ALLENDALE, NJ, 7401","No_Match",NA,NA,NA,NA
326766,"P O BOX 343","CROCKET","TX",75835,NA,NA,266,"P O BOX 343, CROCKET, TX, 75835","No_Match",NA,NA,NA,NA
326767,"P O BOX 343","HARTSVILLE","TN",37074,NA,NA,267,"P O BOX 343, HARTSVILLE, TN, 37074","No_Match",NA,NA,NA,NA
326768,"P O BOX 343","MOULTON","AL",35650,NA,NA,268,"P O BOX 343, MOULTON, AL, 35650","No_Match",NA,NA,NA,NA
326769,"P O BOX 343","NOBLE","OK",73068,NA,NA,269,"P O BOX 343, NOBLE, OK, 73068","No_Match",NA,NA,NA,NA
326770,"P O BOX 343","VALLEY PARK","MO",63088,NA,NA,270,"P O BOX 343, VALLEY PARK, MO, 63088","No_Match",NA,NA,NA,NA
326771,"P O BOX 3432","WRIGHTWOOD","CA",92397,NA,NA,271,"P O BOX 3432, WRIGHTWOOD, CA, 92397","No_Match",NA,NA,NA,NA
326772,"P O BOX 34352","FORT BUCHANAN","PR",934,NA,NA,272,"P O BOX 34352, FORT BUCHANAN, PR, 934","No_Match",NA,NA,NA,NA
326773,"P O BOX 344","SEELEY LAKE","MT",59868,NA,NA,273,"P O BOX 344, SEELEY LAKE, MT, 59868","No_Match",NA,NA,NA,NA
326774,"P O BOX 3443","PORTSMOUTH","VA",23704,NA,NA,274,"P O BOX 3443, PORTSMOUTH, VA, 23704","No_Match",NA,NA,NA,NA
326775,"P O BOX 34446","RENO","NV",89533,NA,NA,275,"P O BOX 34446, RENO, NV, 89533","No_Match",NA,NA,NA,NA
326776,"P O BOX 3447","SAN LEANDRO","CA",94578,NA,NA,276,"P O BOX 3447, SAN LEANDRO, CA, 94578","No_Match",NA,NA,NA,NA
326777,"P O BOX 3449","LYNCHBURG","VA",24503,NA,NA,277,"P O BOX 3449, LYNCHBURG, VA, 24503","No_Match",NA,NA,NA,NA
326778,"P O BOX 345","WEST PALM BEACH","FL",33402,NA,NA,278,"P O BOX 345, WEST PALM BEACH, FL, 33402","No_Match",NA,NA,NA,NA
326779,"P O BOX 3451","PEARLAND","TX",77588,NA,NA,279,"P O BOX 3451, PEARLAND, TX, 77588","No_Match",NA,NA,NA,NA
326780,"P O BOX 3455","PLANT CITY","FL",33563,NA,NA,280,"P O BOX 3455, PLANT CITY, FL, 33563","No_Match",NA,NA,NA,NA
326781,"P O BOX 3457","WARRENTON","VA",20188,NA,NA,281,"P O BOX 3457, WARRENTON, VA, 20188","No_Match",NA,NA,NA,NA
326782,"P O BOX 346","BELLAIRE","TX",77402,NA,NA,282,"P O BOX 346, BELLAIRE, TX, 77402","No_Match",NA,NA,NA,NA
326783,"P O BOX 346","LODI","CA",95241,NA,NA,283,"P O BOX 346, LODI, CA, 95241","No_Match",NA,NA,NA,NA
326784,"P O BOX 346","MONT BELVIEU","TX",77580,NA,NA,284,"P O BOX 346, MONT BELVIEU, TX, 77580","No_Match",NA,NA,NA,NA
326785,"P O BOX 3461","OAKTON","VA",22124,NA,NA,285,"P O BOX 3461, OAKTON, VA, 22124","No_Match",NA,NA,NA,NA
326786,"P O BOX 347","REDWATER","TX",75573,NA,NA,286,"P O BOX 347, REDWATER, TX, 75573","No_Match",NA,NA,NA,NA
326787,"P O BOX 3472","COPPELL","TX",75019,NA,NA,287,"P O BOX 3472, COPPELL, TX, 75019","No_Match",NA,NA,NA,NA
326788,"P O BOX 348","KINGMAN","AZ",86402,NA,NA,288,"P O BOX 348, KINGMAN, AZ, 86402","No_Match",NA,NA,NA,NA
326789,"P O BOX 3481","RICHMOND","VA",23235,NA,NA,289,"P O BOX 3481, RICHMOND, VA, 23235","No_Match",NA,NA,NA,NA
326790,"P O BOX 3482","SUFFOLK","VA",23439,NA,NA,290,"P O BOX 3482, SUFFOLK, VA, 23439","No_Match",NA,NA,NA,NA
326791,"P O BOX 3485","TAMPA","FL",33601,NA,NA,291,"P O BOX 3485, TAMPA, FL, 33601","No_Match",NA,NA,NA,NA
326792,"P O BOX 35","ALAMOSA","CO",81101,NA,NA,292,"P O BOX 35, ALAMOSA, CO, 81101","No_Match",NA,NA,NA,NA
326793,"P O BOX 35","BRONX","NY",10470,NA,NA,293,"P O BOX 35, BRONX, NY, 10470","No_Match",NA,NA,NA,NA
326794,"P O BOX 35","CLARKSDALE","MO",64430,NA,NA,294,"P O BOX 35, CLARKSDALE, MO, 64430","No_Match",NA,NA,NA,NA
326795,"P O BOX 35","LEESPORT","PA",19533,NA,NA,295,"P O BOX 35, LEESPORT, PA, 19533","No_Match",NA,NA,NA,NA
326796,"P O BOX 35","PELICAN RAPIDS","MN",56572,NA,NA,296,"P O BOX 35, PELICAN RAPIDS, MN, 56572","No_Match",NA,NA,NA,NA
326797,"P O BOX 35","PROSPECT","OR",97536,NA,NA,297,"P O BOX 35, PROSPECT, OR, 97536","No_Match",NA,NA,NA,NA
326798,"P O BOX 350","BEDFORD","IN",47421,NA,NA,298,"P O BOX 350, BEDFORD, IN, 47421","No_Match",NA,NA,NA,NA
326799,"P O BOX 350593","FT. LAUDERDALE","FL",33335,NA,NA,299,"P O BOX 350593, FT. LAUDERDALE, FL, 33335","No_Match",NA,NA,NA,NA
326800,"P O BOX 3507","OAKLAND","CA",94609,NA,NA,300,"P O BOX 3507, OAKLAND, CA, 94609","No_Match",NA,NA,NA,NA
326801,"P O BOX 35084","ELMWOOD PARK","IL",60707,NA,NA,301,"P O BOX 35084, ELMWOOD PARK, IL, 60707","No_Match",NA,NA,NA,NA
326802,"P O BOX 351","BATESVILLE","IN",47006,NA,NA,302,"P O BOX 351, BATESVILLE, IN, 47006","No_Match",NA,NA,NA,NA
326803,"P O BOX 351","CANFIELD","OH",44406,NA,NA,303,"P O BOX 351, CANFIELD, OH, 44406","No_Match",NA,NA,NA,NA
326804,"P O BOX 351","FRANKLIN","VA",23851,NA,NA,304,"P O BOX 351, FRANKLIN, VA, 23851","No_Match",NA,NA,NA,NA
326805,"P O BOX 351","MCKENNEY","VA",23872,NA,NA,305,"P O BOX 351, MCKENNEY, VA, 23872","No_Match",NA,NA,NA,NA
326806,"P O BOX 3513","JACKSONVILLE","FL",32206,NA,NA,306,"P O BOX 3513, JACKSONVILLE, FL, 32206","No_Match",NA,NA,NA,NA
326807,"P O BOX 35154","LOUISVILLE","KY",40232,NA,NA,307,"P O BOX 35154, LOUISVILLE, KY, 40232","No_Match",NA,NA,NA,NA
326808,"P O BOX 352","MT. PLEASANT","TX",75456,NA,NA,308,"P O BOX 352, MT. PLEASANT, TX, 75456","No_Match",NA,NA,NA,NA
326809,"P O BOX 35201","NORTH CHESTERFIELD","VA",23235,NA,NA,309,"P O BOX 35201, NORTH CHESTERFIELD, VA, 23235","No_Match",NA,NA,NA,NA
326810,"P O BOX 3521","NAPA","CA",94558,NA,NA,310,"P O BOX 3521, NAPA, CA, 94558","No_Match",NA,NA,NA,NA
326811,"P O BOX 353","ATMORE","AL",36502,NA,NA,311,"P O BOX 353, ATMORE, AL, 36502","No_Match",NA,NA,NA,NA
326812,"P O BOX 353","KAMUELA","HI",96743,NA,NA,312,"P O BOX 353, KAMUELA, HI, 96743","No_Match",NA,NA,NA,NA
326813,"P O BOX 353","MONTICELLO","FL",32345,NA,NA,313,"P O BOX 353, MONTICELLO, FL, 32345","No_Match",NA,NA,NA,NA
326814,"P O BOX 3532","LANTANA","FL",33465,NA,NA,314,"P O BOX 3532, LANTANA, FL, 33465","No_Match",NA,NA,NA,NA
326815,"P O BOX 3539","WARRENTON","VA",20188,NA,NA,315,"P O BOX 3539, WARRENTON, VA, 20188","No_Match",NA,NA,NA,NA
326816,"P O BOX 354","ARLINGTON","WA",98223,NA,NA,316,"P O BOX 354, ARLINGTON, WA, 98223","No_Match",NA,NA,NA,NA
326817,"P O BOX 354","ELBERTON","GA",30635,NA,NA,317,"P O BOX 354, ELBERTON, GA, 30635","No_Match",NA,NA,NA,NA
326818,"P O BOX 354","GREELEYVILLE","SC",29056,NA,NA,318,"P O BOX 354, GREELEYVILLE, SC, 29056","No_Match",NA,NA,NA,NA
326819,"P O BOX 35404","TULSA","OK",74153,NA,NA,319,"P O BOX 35404, TULSA, OK, 74153","No_Match",NA,NA,NA,NA
326820,"P O BOX 3542","DANVILLE","CA",94526,NA,NA,320,"P O BOX 3542, DANVILLE, CA, 94526","No_Match",NA,NA,NA,NA
326821,"P O BOX 35424","TULSA","OK",74153,NA,NA,321,"P O BOX 35424, TULSA, OK, 74153","No_Match",NA,NA,NA,NA
326822,"P O BOX 3545","BURLESON","TX",76097,NA,NA,322,"P O BOX 3545, BURLESON, TX, 76097","No_Match",NA,NA,NA,NA
326823,"P O BOX 35452","CANTON","OH",44735,NA,NA,323,"P O BOX 35452, CANTON, OH, 44735","No_Match",NA,NA,NA,NA
326824,"P O BOX 355","CADDO","OK",74729,NA,NA,324,"P O BOX 355, CADDO, OK, 74729","No_Match",NA,NA,NA,NA
326825,"P O BOX 355","LARKSPUR","CO",80118,NA,NA,325,"P O BOX 355, LARKSPUR, CO, 80118","No_Match",NA,NA,NA,NA
326826,"P O BOX 3551","NORTH FORT MYERS","FL",33918,NA,NA,326,"P O BOX 3551, NORTH FORT MYERS, FL, 33918","No_Match",NA,NA,NA,NA
326827,"P O BOX 3554","BROOKHAVEN","MS",39603,NA,NA,327,"P O BOX 3554, BROOKHAVEN, MS, 39603","No_Match",NA,NA,NA,NA
326828,"P O BOX 356","ABINGDON","VA",24212,NA,NA,328,"P O BOX 356, ABINGDON, VA, 24212","No_Match",NA,NA,NA,NA
326829,"P O BOX 356","MIDWEST","WY",82643,NA,NA,329,"P O BOX 356, MIDWEST, WY, 82643","No_Match",NA,NA,NA,NA
326830,"P O BOX 3560","TALLAHASSEE","FL",32315,NA,NA,330,"P O BOX 3560, TALLAHASSEE, FL, 32315","No_Match",NA,NA,NA,NA
326831,"P O BOX 3562","PUEBLO","CO",81005,NA,NA,331,"P O BOX 3562, PUEBLO, CO, 81005","No_Match",NA,NA,NA,NA
326832,"P O BOX 35637","TUCSON","AZ",85740,NA,NA,332,"P O BOX 35637, TUCSON, AZ, 85740","No_Match",NA,NA,NA,NA
326833,"P O BOX 3564","LILBURN","GA",30048,NA,NA,333,"P O BOX 3564, LILBURN, GA, 30048","No_Match",NA,NA,NA,NA
326834,"P O BOX 35661","SCOTTSDALE","AZ",85258,NA,NA,334,"P O BOX 35661, SCOTTSDALE, AZ, 85258","No_Match",NA,NA,NA,NA
326835,"P O BOX 35694","TUCSON","AZ",85740,NA,NA,335,"P O BOX 35694, TUCSON, AZ, 85740","No_Match",NA,NA,NA,NA
326836,"P O BOX 357","PROVIDENCE","UT",84332,NA,NA,336,"P O BOX 357, PROVIDENCE, UT, 84332","No_Match",NA,NA,NA,NA
326837,"P O BOX 357","WEST MIDDLESEX","PA",16159,NA,NA,337,"P O BOX 357, WEST MIDDLESEX, PA, 16159","No_Match",NA,NA,NA,NA
326838,"P O BOX 3573","HARLINGEN","TX",78551,NA,NA,338,"P O BOX 3573, HARLINGEN, TX, 78551","No_Match",NA,NA,NA,NA
326839,"P O BOX 357633","GAINESVILLE","FL",32653,NA,NA,339,"P O BOX 357633, GAINESVILLE, FL, 32653","No_Match",NA,NA,NA,NA
326840,"P O BOX 357970","GAINESVILLE","FL",32635,NA,NA,340,"P O BOX 357970, GAINESVILLE, FL, 32635","No_Match",NA,NA,NA,NA
326841,"P O BOX 358","CHAPMANVILLE","WV",25508,NA,NA,341,"P O BOX 358, CHAPMANVILLE, WV, 25508","No_Match",NA,NA,NA,NA
326842,"P O BOX 358","RAYNHAM","MA",2768,NA,NA,342,"P O BOX 358, RAYNHAM, MA, 2768","No_Match",NA,NA,NA,NA
326843,"P O BOX 358","SIOUX FALLS","SD",57101,NA,NA,343,"P O BOX 358, SIOUX FALLS, SD, 57101","No_Match",NA,NA,NA,NA
326844,"P O BOX 358","TALLADEGA","AL",35161,NA,NA,344,"P O BOX 358, TALLADEGA, AL, 35161","No_Match",NA,NA,NA,NA
326845,"P O BOX 36-1096","GROSSE POINTE FARMS","MI",48236,NA,NA,345,"P O BOX 36-1096, GROSSE POINTE FARMS, MI, 48236","No_Match",NA,NA,NA,NA
326846,"P O BOX 36","BOZEMAN","MT",59771,NA,NA,346,"P O BOX 36, BOZEMAN, MT, 59771","No_Match",NA,NA,NA,NA
326847,"P O BOX 36","BUFFALO","NY",14223,NA,NA,347,"P O BOX 36, BUFFALO, NY, 14223","No_Match",NA,NA,NA,NA
326848,"P O BOX 36","CONCHO","AZ",85924,NA,NA,348,"P O BOX 36, CONCHO, AZ, 85924","No_Match",NA,NA,NA,NA
326849,"P O BOX 36","EASTLAKE","CO",80614,NA,NA,349,"P O BOX 36, EASTLAKE, CO, 80614","No_Match",NA,NA,NA,NA
326850,"P O BOX 36","SCOTTSDALE","AZ",85252,NA,NA,350,"P O BOX 36, SCOTTSDALE, AZ, 85252","No_Match",NA,NA,NA,NA
326851,"P O BOX 360","CLIO","MI",48420,NA,NA,351,"P O BOX 360, CLIO, MI, 48420","No_Match",NA,NA,NA,NA
326852,"P O BOX 360022","TAMPA","FL",33673,NA,NA,352,"P O BOX 360022, TAMPA, FL, 33673","No_Match",NA,NA,NA,NA
326853,"P O BOX 3603","MISSOULA","MT",59806,NA,NA,353,"P O BOX 3603, MISSOULA, MT, 59806","No_Match",NA,NA,NA,NA
326854,"P O BOX 360529","MONUMENT VALLEY","UT",85436,NA,NA,354,"P O BOX 360529, MONUMENT VALLEY, UT, 85436","No_Match",NA,NA,NA,NA
326855,"P O BOX 360743","COLUMBUS","OH",43236,NA,NA,355,"P O BOX 360743, COLUMBUS, OH, 43236","No_Match",NA,NA,NA,NA
326856,"P O BOX 360951","COLUMBUS","OH",43236,NA,NA,356,"P O BOX 360951, COLUMBUS, OH, 43236","No_Match",NA,NA,NA,NA
326857,"P O BOX 361","CARSON","WA",98610,NA,NA,357,"P O BOX 361, CARSON, WA, 98610","No_Match",NA,NA,NA,NA
326858,"P O BOX 361","FORT MEADE","FL",33841,NA,NA,358,"P O BOX 361, FORT MEADE, FL, 33841","No_Match",NA,NA,NA,NA
326859,"P O BOX 361","HERNANDO","MS",38632,NA,NA,359,"P O BOX 361, HERNANDO, MS, 38632","No_Match",NA,NA,NA,NA
326860,"P O BOX 36117","NORTH CHESTERFIELD","CA",23235,NA,NA,360,"P O BOX 36117, NORTH CHESTERFIELD, CA, 23235","No_Match",NA,NA,NA,NA
326861,"P O BOX 361631","DECATUR","GA",30036,NA,NA,361,"P O BOX 361631, DECATUR, GA, 30036","No_Match",NA,NA,NA,NA
326862,"P O BOX 362","WHARTON","TX",77488,NA,NA,362,"P O BOX 362, WHARTON, TX, 77488","No_Match",NA,NA,NA,NA
326863,"P O BOX 363","LA GRANGE","TX",78945,NA,NA,363,"P O BOX 363, LA GRANGE, TX, 78945","No_Match",NA,NA,NA,NA
326864,"P O BOX 363","LAMPASAS","TX",76550,NA,NA,364,"P O BOX 363, LAMPASAS, TX, 76550","No_Match",NA,NA,NA,NA
326865,"P O BOX 363","LINDSBORG","KS",67456,NA,NA,365,"P O BOX 363, LINDSBORG, KS, 67456","No_Match",NA,NA,NA,NA
326866,"P O BOX 36312","HOUSTON","TX",77236,NA,NA,366,"P O BOX 36312, HOUSTON, TX, 77236","No_Match",NA,NA,NA,NA
326867,"P O BOX 364","BONHAM","TX",75418,NA,NA,367,"P O BOX 364, BONHAM, TX, 75418","No_Match",NA,NA,NA,NA
326868,"P O BOX 364","DELANO","CA",93216,NA,NA,368,"P O BOX 364, DELANO, CA, 93216","No_Match",NA,NA,NA,NA
326869,"P O BOX 364","LODI","OH",44254,NA,NA,369,"P O BOX 364, LODI, OH, 44254","No_Match",NA,NA,NA,NA
326870,"P O BOX 364","MONTPELIER","VT",5601,NA,NA,370,"P O BOX 364, MONTPELIER, VT, 5601","No_Match",NA,NA,NA,NA
326871,"P O BOX 364","SALEM","MA",1970,NA,NA,371,"P O BOX 364, SALEM, MA, 1970","No_Match",NA,NA,NA,NA
326872,"P O BOX 364","SUGARLAND","TX",77487,NA,NA,372,"P O BOX 364, SUGARLAND, TX, 77487","No_Match",NA,NA,NA,NA
326873,"P O BOX 3642","RIVERSIDE","CA",92519,NA,NA,373,"P O BOX 3642, RIVERSIDE, CA, 92519","No_Match",NA,NA,NA,NA
326874,"P O BOX 3646","PHOENIX","AZ",85030,NA,NA,374,"P O BOX 3646, PHOENIX, AZ, 85030","No_Match",NA,NA,NA,NA
326875,"P O BOX 36483","PANAMA CITY","FL",32412,NA,NA,375,"P O BOX 36483, PANAMA CITY, FL, 32412","No_Match",NA,NA,NA,NA
326876,"P O BOX 365","MENDENHALL","MS",39114,NA,NA,376,"P O BOX 365, MENDENHALL, MS, 39114","No_Match",NA,NA,NA,NA
326877,"P O BOX 365","NAHUNTA","GA",31553,NA,NA,377,"P O BOX 365, NAHUNTA, GA, 31553","No_Match",NA,NA,NA,NA
326878,"P O BOX 365","SMYRNA","GA",30081,NA,NA,378,"P O BOX 365, SMYRNA, GA, 30081","No_Match",NA,NA,NA,NA
326879,"P O BOX 36566","HOUSTON","TX",77236,NA,NA,379,"P O BOX 36566, HOUSTON, TX, 77236","No_Match",NA,NA,NA,NA
326880,"P O BOX 3659","SPARKS","NV",89432,NA,NA,380,"P O BOX 3659, SPARKS, NV, 89432","No_Match",NA,NA,NA,NA
326881,"P O BOX 366","CLYDE","NC",28721,NA,NA,381,"P O BOX 366, CLYDE, NC, 28721","No_Match",NA,NA,NA,NA
326882,"P O BOX 366","EFLAND","NC",27243,NA,NA,382,"P O BOX 366, EFLAND, NC, 27243","No_Match",NA,NA,NA,NA
326883,"P O BOX 366","FAIRPLAY","CO",80440,NA,NA,383,"P O BOX 366, FAIRPLAY, CO, 80440","No_Match",NA,NA,NA,NA
326884,"P O BOX 3662","INDUSTRY","CA",91744,NA,NA,384,"P O BOX 3662, INDUSTRY, CA, 91744","No_Match",NA,NA,NA,NA
326885,"P O BOX 3665","PETERSBURG","VA",23805,NA,NA,385,"P O BOX 3665, PETERSBURG, VA, 23805","No_Match",NA,NA,NA,NA
326886,"P O BOX 36651","OKLAHOMA CITY","OK",73136,NA,NA,386,"P O BOX 36651, OKLAHOMA CITY, OK, 73136","No_Match",NA,NA,NA,NA
326887,"P O BOX 3667","SHREVEPORT","LA",71133,NA,NA,387,"P O BOX 3667, SHREVEPORT, LA, 71133","No_Match",NA,NA,NA,NA
326888,"P O BOX 3669","BIG SPRING","TX",79721,NA,NA,388,"P O BOX 3669, BIG SPRING, TX, 79721","No_Match",NA,NA,NA,NA
326889,"P O BOX 367 100 EXPANSION DRIVE","HILLSVILLE","VA",24343,36.747575926,-80.762984237,389,"P O BOX 367 100 EXPANSION DRIVE, HILLSVILLE, VA, 24343","Match","Exact","100 EXPANSION DR, HILLSVILLE, VA, 24343",153831342,"L"
326890,"P O BOX 367","COLUMBIA","CA",95310,NA,NA,390,"P O BOX 367, COLUMBIA, CA, 95310","No_Match",NA,NA,NA,NA
326891,"P O BOX 367","QUANAH","TX",79252,NA,NA,391,"P O BOX 367, QUANAH, TX, 79252","No_Match",NA,NA,NA,NA
326892,"P O BOX 3671","ABILENE","TX",79602,NA,NA,392,"P O BOX 3671, ABILENE, TX, 79602","No_Match",NA,NA,NA,NA
326893,"P O BOX 3671","JACKSON","TN",38303,NA,NA,393,"P O BOX 3671, JACKSON, TN, 38303","No_Match",NA,NA,NA,NA
326894,"P O BOX 368","DUMFRIES","VA",22026,NA,NA,394,"P O BOX 368, DUMFRIES, VA, 22026","No_Match",NA,NA,NA,NA
326895,"P O BOX 368","ST THOMAS","VI",804,NA,NA,395,"P O BOX 368, ST THOMAS, VI, 804","No_Match",NA,NA,NA,NA
326896,"P O BOX 368","WOODLAND","CA",95776,NA,NA,396,"P O BOX 368, WOODLAND, CA, 95776","No_Match",NA,NA,NA,NA
326897,"P O BOX 368246","CHICAGO","IL",60636,NA,NA,397,"P O BOX 368246, CHICAGO, IL, 60636","No_Match",NA,NA,NA,NA
326898,"P O BOX 369","IRON RIVER","MI",49935,NA,NA,398,"P O BOX 369, IRON RIVER, MI, 49935","No_Match",NA,NA,NA,NA
326899,"P O BOX 36939","GROSSE POINTE FARMS","MI",48236,NA,NA,399,"P O BOX 36939, GROSSE POINTE FARMS, MI, 48236","No_Match",NA,NA,NA,NA
326900,"P O BOX 37","ANDOVER","KS",67002,NA,NA,400,"P O BOX 37, ANDOVER, KS, 67002","No_Match",NA,NA,NA,NA
326901,"P O BOX 37","CONWAY","AR",72033,NA,NA,401,"P O BOX 37, CONWAY, AR, 72033","No_Match",NA,NA,NA,NA
326902,"P O BOX 37","LAMBERTVILLE","MI",48144,NA,NA,402,"P O BOX 37, LAMBERTVILLE, MI, 48144","No_Match",NA,NA,NA,NA
326903,"P O BOX 37","MIDDLETOWN","CA",95461,NA,NA,403,"P O BOX 37, MIDDLETOWN, CA, 95461","No_Match",NA,NA,NA,NA
326904,"P O BOX 37","ROSCOMMON","MI",48653,NA,NA,404,"P O BOX 37, ROSCOMMON, MI, 48653","No_Match",NA,NA,NA,NA
326905,"P O BOX 370066","MAPLE HEIGHTS","OH",44137,NA,NA,405,"P O BOX 370066, MAPLE HEIGHTS, OH, 44137","No_Match",NA,NA,NA,NA
326906,"P O BOX 370297","DECATUR","GA",30037,NA,NA,406,"P O BOX 370297, DECATUR, GA, 30037","No_Match",NA,NA,NA,NA
326907,"P O BOX 3705","DALLAS","TX",75208,NA,NA,407,"P O BOX 3705, DALLAS, TX, 75208","No_Match",NA,NA,NA,NA
326908,"P O BOX 37064","ST. LOUIS","MO",63141,NA,NA,408,"P O BOX 37064, ST. LOUIS, MO, 63141","No_Match",NA,NA,NA,NA
326909,"P O BOX 37087","CINCINNATI","OH",45222,NA,NA,409,"P O BOX 37087, CINCINNATI, OH, 45222","No_Match",NA,NA,NA,NA
326910,"P O BOX 371","FREDERICK","MD",21705,NA,NA,410,"P O BOX 371, FREDERICK, MD, 21705","No_Match",NA,NA,NA,NA
326911,"P O BOX 371063","EL PASO","TX",79937,NA,NA,411,"P O BOX 371063, EL PASO, TX, 79937","No_Match",NA,NA,NA,NA
326912,"P O BOX 371123","DECATUR","GA",30037,NA,NA,412,"P O BOX 371123, DECATUR, GA, 30037","No_Match",NA,NA,NA,NA
326913,"P O BOX 37133","BEDFORD","OH",44146,NA,NA,413,"P O BOX 37133, BEDFORD, OH, 44146","No_Match",NA,NA,NA,NA
326914,"P O BOX 371675","DECATUR","GA",30037,NA,NA,414,"P O BOX 371675, DECATUR, GA, 30037","No_Match",NA,NA,NA,NA
326915,"P O BOX 371787","DECATUR","GA",30037,NA,NA,415,"P O BOX 371787, DECATUR, GA, 30037","No_Match",NA,NA,NA,NA
326916,"P O BOX 372","BUENA PARK","CA",90621,NA,NA,416,"P O BOX 372, BUENA PARK, CA, 90621","No_Match",NA,NA,NA,NA
326917,"P O BOX 372","LAPEER","MI",48446,NA,NA,417,"P O BOX 372, LAPEER, MI, 48446","No_Match",NA,NA,NA,NA
326918,"P O BOX 3726","GULFPORT","MS",39505,NA,NA,418,"P O BOX 3726, GULFPORT, MS, 39505","No_Match",NA,NA,NA,NA
326919,"P O BOX 37282","CHARLOTTE","NC",28237,NA,NA,419,"P O BOX 37282, CHARLOTTE, NC, 28237","No_Match",NA,NA,NA,NA
326920,"P O BOX 373","POOLER","GA",31322,NA,NA,420,"P O BOX 373, POOLER, GA, 31322","No_Match",NA,NA,NA,NA
326921,"P O BOX 374","AMA","LA",70031,NA,NA,421,"P O BOX 374, AMA, LA, 70031","No_Match",NA,NA,NA,NA
326922,"P O BOX 374","REX","GA",30273,NA,NA,422,"P O BOX 374, REX, GA, 30273","No_Match",NA,NA,NA,NA
326923,"P O BOX 37403","SHREVEPORT","LA",71133,NA,NA,423,"P O BOX 37403, SHREVEPORT, LA, 71133","No_Match",NA,NA,NA,NA
326924,"P O BOX 37417","TALLAHASSEE","FL",32315,NA,NA,424,"P O BOX 37417, TALLAHASSEE, FL, 32315","No_Match",NA,NA,NA,NA
326925,"P O BOX 37462","JACKSONVILLE","FL",32236,NA,NA,425,"P O BOX 37462, JACKSONVILLE, FL, 32236","No_Match",NA,NA,NA,NA
326926,"P O BOX 3752","LILBURN","GA",30048,NA,NA,426,"P O BOX 3752, LILBURN, GA, 30048","No_Match",NA,NA,NA,NA
326927,"P O BOX 3755","UNION","NJ",7083,NA,NA,427,"P O BOX 3755, UNION, NJ, 7083","No_Match",NA,NA,NA,NA
326928,"P O BOX 376","ANGIE","LA",70426,NA,NA,428,"P O BOX 376, ANGIE, LA, 70426","No_Match",NA,NA,NA,NA
326929,"P O BOX 376","OTTO","NC",28763,NA,NA,429,"P O BOX 376, OTTO, NC, 28763","No_Match",NA,NA,NA,NA
326930,"P O BOX 377","FLATONIA","TX",78941,NA,NA,430,"P O BOX 377, FLATONIA, TX, 78941","No_Match",NA,NA,NA,NA
326931,"P O BOX 377287","SAN ANTONIO","TX",78237,NA,NA,431,"P O BOX 377287, SAN ANTONIO, TX, 78237","No_Match",NA,NA,NA,NA
326932,"P O BOX 378","SACRAMENTO","CA",95829,NA,NA,432,"P O BOX 378, SACRAMENTO, CA, 95829","No_Match",NA,NA,NA,NA
326933,"P O BOX 37828","OAK PARK","MI",48237,NA,NA,433,"P O BOX 37828, OAK PARK, MI, 48237","No_Match",NA,NA,NA,NA
326934,"P O BOX 37846","CINCINNATI","OH",45222,NA,NA,434,"P O BOX 37846, CINCINNATI, OH, 45222","No_Match",NA,NA,NA,NA
326935,"P O BOX 379221","CHICAGO","IL",60637,NA,NA,435,"P O BOX 379221, CHICAGO, IL, 60637","No_Match",NA,NA,NA,NA
326936,"P O BOX 3799","AMARILLO","TX",79116,NA,NA,436,"P O BOX 3799, AMARILLO, TX, 79116","No_Match",NA,NA,NA,NA
326937,"P O BOX 38","AMBER","OK",73004,NA,NA,437,"P O BOX 38, AMBER, OK, 73004","No_Match",NA,NA,NA,NA
326938,"P O BOX 38","BRIDGEVILLE","PA",15017,NA,NA,438,"P O BOX 38, BRIDGEVILLE, PA, 15017","No_Match",NA,NA,NA,NA
326939,"P O BOX 38","CORTEZ","FL",34215,NA,NA,439,"P O BOX 38, CORTEZ, FL, 34215","No_Match",NA,NA,NA,NA
326940,"P O BOX 38","CUSTER","WA",98240,NA,NA,440,"P O BOX 38, CUSTER, WA, 98240","No_Match",NA,NA,NA,NA
326941,"P O BOX 38","LOYAL","WI",54446,NA,NA,441,"P O BOX 38, LOYAL, WI, 54446","No_Match",NA,NA,NA,NA
326942,"P O BOX 38","PLAINS","TX",79355,NA,NA,442,"P O BOX 38, PLAINS, TX, 79355","No_Match",NA,NA,NA,NA
326943,"P O BOX 38","WYLLIESBURG","VA",23976,NA,NA,443,"P O BOX 38, WYLLIESBURG, VA, 23976","No_Match",NA,NA,NA,NA
326944,"P O BOX 380","GILBERT","AZ",85299,NA,NA,444,"P O BOX 380, GILBERT, AZ, 85299","No_Match",NA,NA,NA,NA
326945,"P O BOX 380","MARTIN","TN",38237,NA,NA,445,"P O BOX 380, MARTIN, TN, 38237","No_Match",NA,NA,NA,NA
326946,"P O BOX 380012","KANSAS CITY","MO",64134,NA,NA,446,"P O BOX 380012, KANSAS CITY, MO, 64134","No_Match",NA,NA,NA,NA
326947,"P O BOX 3804","HONOLULU","HI",96812,NA,NA,447,"P O BOX 3804, HONOLULU, HI, 96812","No_Match",NA,NA,NA,NA
326948,"P O BOX 38044","CHARLOTTE","NC",28278,NA,NA,448,"P O BOX 38044, CHARLOTTE, NC, 28278","No_Match",NA,NA,NA,NA
326949,"P O BOX 38077","ROCK HILL","SC",29732,NA,NA,449,"P O BOX 38077, ROCK HILL, SC, 29732","No_Match",NA,NA,NA,NA
326950,"P O BOX 381","CORDOVA","SC",29039,NA,NA,450,"P O BOX 381, CORDOVA, SC, 29039","No_Match",NA,NA,NA,NA
326951,"P O BOX 381","VALLEY STREAM","NY",11582,NA,NA,451,"P O BOX 381, VALLEY STREAM, NY, 11582","No_Match",NA,NA,NA,NA
326952,"P O BOX 38143","SHREVEPORT","LA",71133,NA,NA,452,"P O BOX 38143, SHREVEPORT, LA, 71133","No_Match",NA,NA,NA,NA
326953,"P O BOX 381812","DUNCANVILLE","TX",75137,NA,NA,453,"P O BOX 381812, DUNCANVILLE, TX, 75137","No_Match",NA,NA,NA,NA
326954,"P O BOX 382 101 E BARRISTER ST","BELMONT","OH",43718,40.0302546460001,-81.0402075169999,454,"P O BOX 382 101 E BARRISTER ST, BELMONT, OH, 43718","Match","Exact","101 E BARRISTER ST, BELMONT, OH, 43718",36211087,"L"
326955,"P O BOX 382","BELLINGHAM","MA",2019,NA,NA,455,"P O BOX 382, BELLINGHAM, MA, 2019","No_Match",NA,NA,NA,NA
326956,"P O BOX 382","LAKE TOMAHAWK","WI",54539,NA,NA,456,"P O BOX 382, LAKE TOMAHAWK, WI, 54539","No_Match",NA,NA,NA,NA
326957,"P O BOX 382","MAHWAH","NJ",7430,NA,NA,457,"P O BOX 382, MAHWAH, NJ, 7430","No_Match",NA,NA,NA,NA
326958,"P O BOX 382","SADDLE RIVER","NJ",7458,NA,NA,458,"P O BOX 382, SADDLE RIVER, NJ, 7458","No_Match",NA,NA,NA,NA
326959,"P O BOX 382","SAINT ALBANS","WV",25177,NA,NA,459,"P O BOX 382, SAINT ALBANS, WV, 25177","No_Match",NA,NA,NA,NA
326960,"P O BOX 382","STOCKBRIDGE","MI",49285,NA,NA,460,"P O BOX 382, STOCKBRIDGE, MI, 49285","No_Match",NA,NA,NA,NA
326961,"P O BOX 382421","BIRMINGHAM","AL",35238,NA,NA,461,"P O BOX 382421, BIRMINGHAM, AL, 35238","No_Match",NA,NA,NA,NA
326962,"P O BOX 382851","DUNCANVILLE","TX",75138,NA,NA,462,"P O BOX 382851, DUNCANVILLE, TX, 75138","No_Match",NA,NA,NA,NA
326963,"P O BOX 383","CONVERSE","TX",78109,NA,NA,463,"P O BOX 383, CONVERSE, TX, 78109","No_Match",NA,NA,NA,NA
326964,"P O BOX 383","GARDEN CITY","NY",11530,NA,NA,464,"P O BOX 383, GARDEN CITY, NY, 11530","No_Match",NA,NA,NA,NA
326965,"P O BOX 383","HADDONFIELD","NJ",8033,NA,NA,465,"P O BOX 383, HADDONFIELD, NJ, 8033","No_Match",NA,NA,NA,NA
326966,"P O BOX 383","WEED","CA",96094,NA,NA,466,"P O BOX 383, WEED, CA, 96094","No_Match",NA,NA,NA,NA
326967,"P O BOX 383945","WAIKOLOA","HI",96738,NA,NA,467,"P O BOX 383945, WAIKOLOA, HI, 96738","No_Match",NA,NA,NA,NA
326968,"P O BOX 384","DIBOLL","TX",75941,NA,NA,468,"P O BOX 384, DIBOLL, TX, 75941","No_Match",NA,NA,NA,NA
326969,"P O BOX 384","TRENTON","TN",38382,NA,NA,469,"P O BOX 384, TRENTON, TN, 38382","No_Match",NA,NA,NA,NA
326970,"P O BOX 385","LYONS","NY",14489,NA,NA,470,"P O BOX 385, LYONS, NY, 14489","No_Match",NA,NA,NA,NA
326971,"P O BOX 385","SPRING BRANCH","TX",78070,NA,NA,471,"P O BOX 385, SPRING BRANCH, TX, 78070","No_Match",NA,NA,NA,NA
326972,"P O BOX 38553-230","HOUSTON","TX",77238,NA,NA,472,"P O BOX 38553-230, HOUSTON, TX, 77238","No_Match",NA,NA,NA,NA
326973,"P O BOX 386","LEAGUE CITY","TX",77574,NA,NA,473,"P O BOX 386, LEAGUE CITY, TX, 77574","No_Match",NA,NA,NA,NA
326974,"P O BOX 386","SPRINGFIELD","PA",19064,NA,NA,474,"P O BOX 386, SPRINGFIELD, PA, 19064","No_Match",NA,NA,NA,NA
326975,"P O BOX 387","BLAKELY","GA",39823,NA,NA,475,"P O BOX 387, BLAKELY, GA, 39823","No_Match",NA,NA,NA,NA
326976,"P O BOX 387","VALLEJO","CA",94590,NA,NA,476,"P O BOX 387, VALLEJO, CA, 94590","No_Match",NA,NA,NA,NA
326977,"P O BOX 38703","MEMPHIS","TN",38183,NA,NA,477,"P O BOX 38703, MEMPHIS, TN, 38183","No_Match",NA,NA,NA,NA
326978,"P O BOX 38830","DETROIT","MI",48238,NA,NA,478,"P O BOX 38830, DETROIT, MI, 48238","No_Match",NA,NA,NA,NA
326979,"P O BOX 3893","LIHUE","HI",96766,NA,NA,479,"P O BOX 3893, LIHUE, HI, 96766","No_Match",NA,NA,NA,NA
326980,"P O BOX 39","LORENA","TX",76655,NA,NA,480,"P O BOX 39, LORENA, TX, 76655","No_Match",NA,NA,NA,NA
326981,"P O BOX 390","BRONX","NY",10468,NA,NA,481,"P O BOX 390, BRONX, NY, 10468","No_Match",NA,NA,NA,NA
326982,"P O BOX 390","FAYETTE","MS",39069,NA,NA,482,"P O BOX 390, FAYETTE, MS, 39069","No_Match",NA,NA,NA,NA
326983,"P O BOX 390048","ANZA","CA",92539,NA,NA,483,"P O BOX 390048, ANZA, CA, 92539","No_Match",NA,NA,NA,NA
326984,"P O BOX 3902","CEDAR HILL","TX",75104,NA,NA,484,"P O BOX 3902, CEDAR HILL, TX, 75104","No_Match",NA,NA,NA,NA
326985,"P O BOX 390487","KEAUHOU","HI",96739,NA,NA,485,"P O BOX 390487, KEAUHOU, HI, 96739","No_Match",NA,NA,NA,NA
326986,"P O BOX 39052","DENVER","CO",80239,NA,NA,486,"P O BOX 39052, DENVER, CO, 80239","No_Match",NA,NA,NA,NA
326987,"P O BOX 390546","ANZA","CA",92539,NA,NA,487,"P O BOX 390546, ANZA, CA, 92539","No_Match",NA,NA,NA,NA
326988,"P O BOX 390907","DELTONA","FL",32739,NA,NA,488,"P O BOX 390907, DELTONA, FL, 32739","No_Match",NA,NA,NA,NA
326989,"P O BOX 391","AUSTIN","IN",47102,NA,NA,489,"P O BOX 391, AUSTIN, IN, 47102","No_Match",NA,NA,NA,NA
326990,"P O BOX 391","ELIZABETH","IL",61028,NA,NA,490,"P O BOX 391, ELIZABETH, IL, 61028","No_Match",NA,NA,NA,NA
326991,"P O BOX 391","HURLEY","MS",39555,NA,NA,491,"P O BOX 391, HURLEY, MS, 39555","No_Match",NA,NA,NA,NA
326992,"P O BOX 392","JUPITER","FL",33468,NA,NA,492,"P O BOX 392, JUPITER, FL, 33468","No_Match",NA,NA,NA,NA
326993,"P O BOX 392","TULLAHOMA","TN",37388,NA,NA,493,"P O BOX 392, TULLAHOMA, TN, 37388","No_Match",NA,NA,NA,NA
326994,"P O BOX 392","WAKEFIELD","VA",23888,NA,NA,494,"P O BOX 392, WAKEFIELD, VA, 23888","No_Match",NA,NA,NA,NA
326995,"P O BOX 392","WYLIE","TX",75098,NA,NA,495,"P O BOX 392, WYLIE, TX, 75098","No_Match",NA,NA,NA,NA
326996,"P O BOX 393","GRAND HAVEN","MI",49417,NA,NA,496,"P O BOX 393, GRAND HAVEN, MI, 49417","No_Match",NA,NA,NA,NA
326997,"P O BOX 393","HILLSBORO","WI",54634,NA,NA,497,"P O BOX 393, HILLSBORO, WI, 54634","No_Match",NA,NA,NA,NA
326998,"P O BOX 394","BENNETTSVILLE","SC",29512,NA,NA,498,"P O BOX 394, BENNETTSVILLE, SC, 29512","No_Match",NA,NA,NA,NA
326999,"P O BOX 394","ENGLE","OH",45322,NA,NA,499,"P O BOX 394, ENGLE, OH, 45322","No_Match",NA,NA,NA,NA
327000,"P O BOX 394","LENORE","WV",25676,NA,NA,500,"P O BOX 394, LENORE, WV, 25676","No_Match",NA,NA,NA,NA
