"ID","Address","City","State","Zip","lat","long","id","input_address","match_indicator","match_type","matched_address","tiger_line_id","tiger_side"
282501,"731 DUVAL STATION ROAD SUITE 107-5","JACKSONVILLE","FL",32218,30.4838587450001,-81.6051575179999,1,"731 DUVAL STATION ROAD SUITE 107-5, JACKSONVILLE, FL, 32218","Match","Exact","731 DUVAL STATION RD, JACKSONVILLE, FL, 32218",641003111,"L"
282502,"731 E ARROW HIGHWAY","GLENDORA","CA",91740,34.1066234360001,-117.851894979,2,"731 E ARROW HIGHWAY, GLENDORA, CA, 91740","Match","Exact","731 E ARROW HWY, GLENDORA, CA, 91740",142844577,"L"
282503,"731 E GRAND CANYON DR","CHANDLER","AZ",85249,33.2451377020001,-111.829747459,3,"731 E GRAND CANYON DR, CHANDLER, AZ, 85249","Match","Exact","731 E GRAND CANYON DR, CHANDLER, AZ, 85249",128872674,"L"
282504,"731 E SPRAGUE STREET","WINSTON-SALEM","NC",27107,36.0682687820001,-80.223546439,4,"731 E SPRAGUE STREET, WINSTON-SALEM, NC, 27107","Match","Exact","731 E SPRAGUE ST, WINSTON SALEM, NC, 27107",84613737,"L"
282505,"731 E YOSEMITE AVE STE B 146","MERCED","CA",95340,NA,NA,5,"731 E YOSEMITE AVE STE B 146, MERCED, CA, 95340","Tie",NA,NA,NA,NA
282506,"731 E YOSEMITE AVE STE B 425","MERCED","CA",95340,NA,NA,6,"731 E YOSEMITE AVE STE B 425, MERCED, CA, 95340","Tie",NA,NA,NA,NA
282507,"731 EAST 2ND STREET","HOPKINSVILLE","KY",42240,36.8659301390001,-87.47930574,7,"731 EAST 2ND STREET, HOPKINSVILLE, KY, 42240","Match","Exact","731 E 2ND ST, HOPKINSVILLE, KY, 42240",11272416,"R"
282508,"731 EAST BETHALTO DRIVE","BETHALTO","IL",62010,38.899984798,-90.0334315109999,8,"731 EAST BETHALTO DRIVE, BETHALTO, IL, 62010","Match","Non_Exact","731 E BETHALTO BLVD, BETHALTO, IL, 62010",107687135,"L"
282509,"731 EAST CHURCH STREET","SANTA MARIA","CA",93454,34.952053388,-120.425594455,9,"731 EAST CHURCH STREET, SANTA MARIA, CA, 93454","Match","Exact","731 E CHURCH ST, SANTA MARIA, CA, 93454",108595277,"L"
282510,"731 EL TORO DRIVE GRANNY UNIT","HOLLISTER","CA",95023,NA,NA,10,"731 EL TORO DRIVE GRANNY UNIT, HOLLISTER, CA, 95023","No_Match",NA,NA,NA,NA
282511,"731 ELLSWORTH PLACE","PALO ALTO","CA",94306,37.431896114,-122.125916873,11,"731 ELLSWORTH PLACE, PALO ALTO, CA, 94306","Match","Exact","731 ELLSWORTH PL, PALO ALTO, CA, 94306",122951525,"L"
282512,"731 ELM STREET APT 304","WINNETKA","IL",60093,42.105886572,-87.731704043,12,"731 ELM STREET APT 304, WINNETKA, IL, 60093","Match","Exact","731 ELM ST, WINNETKA, IL, 60093",111737882,"R"
282513,"731 EVENING SKY DRIVE","OVIEDO","FL",32765,28.661758123,-81.174140478,13,"731 EVENING SKY DRIVE, OVIEDO, FL, 32765","Match","Exact","731 EVENING SKY DR, OVIEDO, FL, 32765",617968391,"L"
282514,"731 FAIR HABOR DRIVE","LITHONIA","GA",30058,33.775750643,-84.0927389079999,14,"731 FAIR HABOR DRIVE, LITHONIA, GA, 30058","Match","Non_Exact","731 FAIR HARBOR DR, LITHONIA, GA, 30058",23385360,"R"
282515,"731 GERRY LN","PORTERVILLE","CA",93257,36.085449952,-119.034018613,15,"731 GERRY LN, PORTERVILLE, CA, 93257","Match","Non_Exact","731 W GERRY LN, PORTERVILLE, CA, 93257",202786346,"L"
282516,"731 GROVE AVE","BIRD ISLAND","MN",55310,44.7602647100001,-94.8954509389999,16,"731 GROVE AVE, BIRD ISLAND, MN, 55310","Match","Exact","731 GROVE AVE, BIRD ISLAND, MN, 55310",34055389,"L"
282517,"731 HAMMONDVILLE ROAD    SUITE A","POMPANO BEACH","FL",33060,26.234234671,-80.13258624,17,"731 HAMMONDVILLE ROAD    SUITE A, POMPANO BEACH, FL, 33060","Match","Non_Exact","731 HAMMONDVILLE RD, POMPANO BEACH, FL, 33069",114694601,"R"
282518,"731 HAMMONDVILLE ROAD 102B","POMPANO BEACH","FL",33060,26.234234671,-80.13258624,18,"731 HAMMONDVILLE ROAD 102B, POMPANO BEACH, FL, 33060","Match","Non_Exact","731 HAMMONDVILLE RD, POMPANO BEACH, FL, 33069",114694601,"R"
282519,"731 HAWTHORN GREEN DR","RIDGELAND","MS",39157,32.4062588640001,-90.098012625,19,"731 HAWTHORN GREEN DR, RIDGELAND, MS, 39157","Match","Exact","731 HAWTHORN GREEN DR, RIDGELAND, MS, 39157",152487526,"R"
282520,"731 HOOPER ROAD","ENDWELL","NY",13760,42.1263033640001,-76.0250690359999,20,"731 HOOPER ROAD, ENDWELL, NY, 13760","Match","Exact","731 HOOPER RD, ENDWELL, NY, 13760",46364443,"L"
282521,"731 HUNTINGTON STREET","BOWLING GREEN","KY",42103,36.9809786050001,-86.4222236909999,21,"731 HUNTINGTON STREET, BOWLING GREEN, KY, 42103","Match","Exact","731 HUNTINGTON ST, BOWLING GREEN, KY, 42103",28011556,"L"
282522,"731 JAMES STREET SUITE 223","SYRACUSE","NY",13203,NA,NA,22,"731 JAMES STREET SUITE 223, SYRACUSE, NY, 13203","No_Match",NA,NA,NA,NA
282523,"731 JEFFERSON STREET NW","WASHINGTON","DC",20011,38.955298064,-77.022842601,23,"731 JEFFERSON STREET NW, WASHINGTON, DC, 20011","Match","Exact","731 JEFFERSON ST NW, WASHINGTON, DC, 20011",76223302,"R"
282524,"731 KERRS CHAPEL ROAD","BURLINGTON","NC",27217,36.25974051,-79.3724246419999,24,"731 KERRS CHAPEL ROAD, BURLINGTON, NC, 27217","Match","Exact","731 KERRS CHAPEL RD, BURLINGTON, NC, 27217",96780684,"L"
282525,"731 MAIN STREET","MINDEN","LA",71055,32.6160179460001,-93.286213015,25,"731 MAIN STREET, MINDEN, LA, 71055","Match","Exact","731 MAIN ST, MINDEN, LA, 71055",73395725,"R"
282526,"731 MAYO RD","EDGEWATER","MD",21037,38.906477329,-76.533634919,26,"731 MAYO RD, EDGEWATER, MD, 21037","Match","Exact","731 MAYO RD, EDGEWATER, MD, 21037",68177404,"R"
282527,"731 N 17TH STREET  UNIT 7","ST CHARLES","IL",60174,NA,NA,27,"731 N 17TH STREET  UNIT 7, ST CHARLES, IL, 60174","No_Match",NA,NA,NA,NA
282528,"731 N JACKSON ST SUITE 900","MILWAUKEE","WI",53202,43.039661036,-87.904097565,28,"731 N JACKSON ST SUITE 900, MILWAUKEE, WI, 53202","Match","Non_Exact","731 N JACKSON ST, MILWAUKEE, WI, 53202",77744611,"L"
282529,"731 N MILWAUKEE AVE","LIBERTYVILLE","IL",60048,42.290453278,-87.954868606,29,"731 N MILWAUKEE AVE, LIBERTYVILLE, IL, 60048","Match","Exact","731 N MILWAUKEE AVE, LIBERTYVILLE, IL, 60048",636326626,"R"
282530,"731 N PINE ISLAND RD  205","PLANTATION","FL",33324,26.1293288210001,-80.263613909,30,"731 N PINE ISLAND RD  205, PLANTATION, FL, 33324","Match","Non_Exact","731 N PINE ISLAND RD, PLANTATION, FL, 33324",640926210,"L"
282531,"731 NJ57 349","STEWARTSVILLE","NJ",8866,NA,NA,31,"731 NJ57 349, STEWARTSVILLE, NJ, 8866","No_Match",NA,NA,NA,NA
282532,"731 NORTH MENTOR AVENUE","PASADENA","CA",91104,34.158450413,-118.130981,32,"731 NORTH MENTOR AVENUE, PASADENA, CA, 91104","Match","Exact","731 N MENTOR AVE, PASADENA, CA, 91104",141628959,"L"
282533,"731 NW 5TH ST","PENDLETON","OR",97801,45.679036081,-118.792512879,33,"731 NW 5TH ST, PENDLETON, OR, 97801","Match","Exact","731 NW 5TH ST, PENDLETON, OR, 97801",170404195,"L"
282534,"731 ODER LN","HOUSTON","TX",77090,30.027134119,-95.446434832,34,"731 ODER LN, HOUSTON, TX, 77090","Match","Exact","731 ODER LN, HOUSTON, TX, 77090",96009315,"R"
282535,"731 PARK ST","BURLINGTON JUNCTION","MO",64428,40.444379944,-95.057046408,35,"731 PARK ST, BURLINGTON JUNCTION, MO, 64428","Match","Exact","731 PARK ST, BURLINGTON JUNCTION, MO, 64428",38555574,"L"
282536,"731 PARK STREET","LIVERMORE FALLS","ME",4254,44.4331171110001,-70.1469094189999,36,"731 PARK STREET, LIVERMORE FALLS, ME, 4254","Match","Exact","731 PARK ST, LIVERMORE FALLS, ME, 04254",626650932,"L"
282537,"731 PEACHTREE ST NE","ATLANTA","GA",30308,33.7746441040001,-84.384666571,37,"731 PEACHTREE ST NE, ATLANTA, GA, 30308","Match","Non_Exact","731 PEACHTREE ST, ATLANTA, GA, 30308",17343615,"R"
282538,"731 PETERSON RD S","IOWA PARK","TX",76367,33.9442121230001,-98.630038626,38,"731 PETERSON RD S, IOWA PARK, TX, 76367","Match","Exact","731 PETERSON RD S, IOWA PARK, TX, 76367",169839203,"R"
282539,"731 PORTOFINO PLACE","SAN JOSE","CA",95136,37.2808083940001,-121.868225883,39,"731 PORTOFINO PLACE, SAN JOSE, CA, 95136","Match","Exact","731 PORTOFINO PL, SAN JOSE, CA, 95136",618191609,"R"
282540,"731 QUEEN ST","PORTSMOUTH","VA",23704,36.8360284280001,-76.3058947379999,40,"731 QUEEN ST, PORTSMOUTH, VA, 23704","Match","Exact","731 QUEEN ST, PORTSMOUTH, VA, 23704",122194810,"L"
282541,"731 ROYAL GLEN DRIVE","CARY","IL",60013,42.1989756680001,-88.263988344,41,"731 ROYAL GLEN DRIVE, CARY, IL, 60013","Match","Exact","731 ROYAL GLEN DR, CARY, IL, 60013",606263976,"L"
282542,"731 S COUNTY ROAD 305","ORANGE GROVE","TX",78372,27.947373654,-97.96043543,42,"731 S COUNTY ROAD 305, ORANGE GROVE, TX, 78372","Match","Exact","731 CO RD 305, ORANGE GROVE, TX, 78372",635865491,"L"
282543,"731 S HWY 101 STE 2K","SOLANA BEACH","CA",92075,32.9826475020001,-117.269519856,43,"731 S HWY 101 STE 2K, SOLANA BEACH, CA, 92075","Match","Exact","731 HWY 101, SOLANA BEACH, CA, 92075",195704044,"R"
282544,"731 S LARCH AVENUE","RIALTO","CA",92376,34.0883725900001,-117.392137224,44,"731 S LARCH AVENUE, RIALTO, CA, 92376","Match","Exact","731 S LARCH AVE, RIALTO, CA, 92376",144646275,"L"
282545,"731 SHOTGUN ROAD","SUNRISE","FL",33326,NA,NA,45,"731 SHOTGUN ROAD, SUNRISE, FL, 33326","No_Match",NA,NA,NA,NA
282546,"731 SKYLANE ROAD","SAINT SIMONS ISLAND","GA",31522,NA,NA,46,"731 SKYLANE ROAD, SAINT SIMONS ISLAND, GA, 31522","No_Match",NA,NA,NA,NA
282547,"731 SLOAN CT","MATAWAN","NJ",7747,40.3994120080001,-74.2345677659999,47,"731 SLOAN CT, MATAWAN, NJ, 7747","Match","Exact","731 SLOAN CT, MATAWAN, NJ, 07747",650449801,"L"
282548,"731 SOUTH 59TH STREET","PHILADELPHIA","PA",19143,39.949718955,-75.2412807389999,48,"731 SOUTH 59TH STREET, PHILADELPHIA, PA, 19143","Match","Exact","731 S 59TH ST, PHILADELPHIA, PA, 19143",131397790,"L"
282549,"731 SOUTH CC DUSON","EUNICE","LA",70535,30.488230442,-92.415166784,49,"731 SOUTH CC DUSON, EUNICE, LA, 70535","Match","Non_Exact","731 S C C DUSON ST, EUNICE, LA, 70535",106438039,"L"
282550,"731 SUNDANCE DRIVE","VERONA","WI",53593,43.043677555,-89.538418763,50,"731 SUNDANCE DRIVE, VERONA, WI, 53593","Match","Exact","731 SUNDANCE DR, VERONA, WI, 53593",647221298,"R"
282551,"731 SW 14TH ST","MOORE","OK",73160,35.324157649,-97.5004912699999,51,"731 SW 14TH ST, MOORE, OK, 73160","Match","Exact","731 SW 14TH ST, MOORE, OK, 73160",99906451,"R"
282552,"731 SW 5TH AVE","HALLANDALE BEACH","FL",33009,25.977444776,-80.1532734629999,52,"731 SW 5TH AVE, HALLANDALE BEACH, FL, 33009","Match","Exact","731 SW 5TH AVE, HALLANDALE BEACH, FL, 33009",114736402,"L"
282553,"731 SW SALMON ST UNIT 206","PORTLAND","OR",97205,45.5174387800001,-122.681030727,53,"731 SW SALMON ST UNIT 206, PORTLAND, OR, 97205","Match","Non_Exact","731 SW SALMON ST, PORTLAND, OR, 97205",157499192,"R"
282554,"731 TETREAU","THIBODAUX","LA",70301,29.789220433,-90.814901431,54,"731 TETREAU, THIBODAUX, LA, 70301","Match","Non_Exact","731 TETREAU ST, THIBODAUX, LA, 70301",92329015,"R"
282555,"731 THOMPSON SPRINGS ROAD SOUTHEAST","CLEVELAND","TN",37323,35.0951749170001,-84.790818315,55,"731 THOMPSON SPRINGS ROAD SOUTHEAST, CLEVELAND, TN, 37323","Match","Exact","731 THOMPSON SPRINGS RD SE, CLEVELAND, TN, 37323",57584985,"R"
282556,"731 TUMBLEWEED TRAIL APT C","PENSACOLA","FL",32534,30.5257598750001,-87.2825783869999,56,"731 TUMBLEWEED TRAIL APT C, PENSACOLA, FL, 32534","Match","Exact","731 TUMBLEWEED TRL, PENSACOLA, FL, 32534",613509728,"R"
282557,"731 W 117TH STREET","LOS ANGELES","CA",90044,33.927345766,-118.287745558,57,"731 W 117TH STREET, LOS ANGELES, CA, 90044","Match","Exact","731 W 117TH ST, LOS ANGELES, CA, 90044",141661682,"R"
282558,"731 W 17TH ST","COQUILLE","OR",97423,43.189419302,-124.196570233,58,"731 W 17TH ST, COQUILLE, OR, 97423","Match","Exact","731 W 17TH ST, COQUILLE, OR, 97423",137008139,"L"
282559,"731 WOLFE CREEK ROAD","GIVEN","WV",25245,38.721178401,-81.730547902,59,"731 WOLFE CREEK ROAD, GIVEN, WV, 25245","Match","Exact","731 WOLFE CREEK RD, GIVEN, WV, 25245",130500799,"R"
282560,"731 WOOD HOLLOW DR","MARIETTA","GA",30067,33.9088963680001,-84.4685320359999,60,"731 WOOD HOLLOW DR, MARIETTA, GA, 30067","Match","Exact","731 WOOD HOLLOW DR, MARIETTA, GA, 30067",17187058,"R"
282561,"731 WOOD LANE","DUNCANVILLE","TX",75116,32.652667153,-96.925107705,61,"731 WOOD LANE, DUNCANVILLE, TX, 75116","Match","Exact","731 WOOD LN, DUNCANVILLE, TX, 75116",103190274,"R"
282562,"7310 12TH AVE EAST","TACOMA","WA",98404,47.189935785,-122.41297822,62,"7310 12TH AVE EAST, TACOMA, WA, 98404","Match","Exact","7310 12TH AVE E, TACOMA, WA, 98404",184676786,"R"
282563,"7310 ALDWYCH LANE","DENVER","NC",28037,35.4648752190001,-81.023688329,63,"7310 ALDWYCH LANE, DENVER, NC, 28037","Match","Exact","7310 ALDWYCH LN, DENVER, NC, 28037",69540766,"R"
282564,"7310 BASIE PARK COURT","CHARLOTTE","NC",28277,35.040074992,-80.815483232,64,"7310 BASIE PARK COURT, CHARLOTTE, NC, 28277","Match","Exact","7310 BASIE PARK CT, CHARLOTTE, NC, 28277",648377960,"R"
282565,"7310 BUCKCREEK DR","FAIRBURN","GA",30213,33.557873107,-84.493365411,65,"7310 BUCKCREEK DR, FAIRBURN, GA, 30213","Match","Non_Exact","7310 BUCK CREEK DR, FAIRBURN, GA, 30213",17351488,"L"
282566,"7310 CARACAS DR","HOUSTON","TX",77083,29.6970221460001,-95.6795305369999,66,"7310 CARACAS DR, HOUSTON, TX, 77083","Match","Exact","7310 CARACAS DR, HOUSTON, TX, 77083",78261998,"L"
282567,"7310 COUNTY ROAD 42 NE","ALEXANDRIA","MN",56308,45.9675110840001,-95.332303033,67,"7310 COUNTY ROAD 42 NE, ALEXANDRIA, MN, 56308","Match","Exact","7310 CO RD 42 NE, ALEXANDRIA, MN, 56308",650212241,"L"
282568,"7310 ELDERBERRY CIR","DALLAS","TX",75249,32.645483465,-96.948243458,68,"7310 ELDERBERRY CIR, DALLAS, TX, 75249","Match","Exact","7310 ELDERBERRY CIR, DALLAS, TX, 75249",102941554,"R"
282569,"7310 GLENWOOD NEWS CT","ALEXANDRIA","VA",22315,38.758541489,-77.1359029779999,69,"7310 GLENWOOD NEWS CT, ALEXANDRIA, VA, 22315","Match","Non_Exact","7310 GLENWOOD MEWS, ALEXANDRIA, VA, 22315",76055405,"R"
282570,"7310 GOSLING PLACE","BOWIE","MD",20720,38.988922519,-76.7770300459999,70,"7310 GOSLING PLACE, BOWIE, MD, 20720","Match","Exact","7310 GOSLING PL, BOWIE, MD, 20720",631996247,"L"
282571,"7310 HARLOW WAY UNIT B","HANOVER","MD",21076,39.184279411,-76.739679882,71,"7310 HARLOW WAY UNIT B, HANOVER, MD, 21076","Match","Exact","7310 HARLOW WAY, HANOVER, MD, 21076",651700845,"R"
282572,"7310 HERITAGE VILLAGE PLZ UNIT 102","GAINESVILLE","VA",20155,38.8029842710001,-77.603986646,72,"7310 HERITAGE VILLAGE PLZ UNIT 102, GAINESVILLE, VA, 20155","Match","Exact","7310 HERITAGE VILLAGE PLZ, GAINESVILLE, VA, 20155",634594058,"R"
282573,"7310 LUDWIG DRESBACK RD","CIRCLEVILLE","OH",43113,39.550809132,-82.905795494,73,"7310 LUDWIG DRESBACK RD, CIRCLEVILLE, OH, 43113","Match","Exact","7310 LUDWIG DRESBACK RD, CIRCLEVILLE, OH, 43113",636563188,"R"
282574,"7310 MANCHACA RD SUITE 150893","AUSTIN","TX",78745,30.198956686,-97.80801217,74,"7310 MANCHACA RD SUITE 150893, AUSTIN, TX, 78745","Match","Exact","7310 MANCHACA RD, AUSTIN, TX, 78745",64013882,"R"
282575,"7310 MIDDLE BURRY PLACE","CHARLOTTE","NC",28212,35.1925645360001,-80.7388026679999,75,"7310 MIDDLE BURRY PLACE, CHARLOTTE, NC, 28212","Match","Non_Exact","7310 MIDDLEBURY PL, CHARLOTTE, NC, 28212",70493964,"R"
282576,"7310 MIRAMAR RD SUITE 500","SAN DIEGO","CA",92126,32.8823951110001,-117.155521421,76,"7310 MIRAMAR RD SUITE 500, SAN DIEGO, CA, 92126","Match","Exact","7310 MIRAMAR RD, SAN DIEGO, CA, 92126",195301232,"L"
282577,"7310 NORTHMOOR DR","SAINT LOUIS","MO",63105,38.6473546570001,-90.3257688739999,77,"7310 NORTHMOOR DR, SAINT LOUIS, MO, 63105","Match","Exact","7310 NORTHMOOR DR, SAINT LOUIS, MO, 63105",100135823,"L"
282578,"7310 NUTMEG LN","PLACERVILLE","CA",95667,38.6444327520001,-120.702299293,78,"7310 NUTMEG LN, PLACERVILLE, CA, 95667","Match","Exact","7310 NUTMEG LN, PLACERVILLE, CA, 95667",133069345,"R"
282579,"7310 PARKRIDGE BLVD APT 98","IRVING","TX",75063,32.9069471170001,-96.962677675,79,"7310 PARKRIDGE BLVD APT 98, IRVING, TX, 75063","Match","Exact","7310 PARKRIDGE BLVD, IRVING, TX, 75063",103270851,"R"
282580,"7310 RITCHIE HWY STE 704","GLEN BERNIE","MD",21061,39.1709588520001,-76.620080058,80,"7310 RITCHIE HWY STE 704, GLEN BERNIE, MD, 21061","Match","Non_Exact","7310 RITCHIE HWY, GLEN BURNIE, MD, 21061",633436543,"R"
282581,"7310 ROSEMONT","DETROIT","MI",48228,42.3444928640001,-83.2184031209999,81,"7310 ROSEMONT, DETROIT, MI, 48228","Match","Non_Exact","7310 ROSEMONT AVE, DETROIT, MI, 48228",95440085,"R"
282582,"7310 S CONGRESS AVE SUITE A","AUSTIN","TX",78745,30.1856895980001,-97.781265563,82,"7310 S CONGRESS AVE SUITE A, AUSTIN, TX, 78745","Match","Non_Exact","7310 CONGRESS AVE S, AUSTIN, TX, 78745",649108016,"R"
282583,"7310 SE LAMBERT ST","PORTLAND","OR",97233,45.4668325690001,-122.587056035,83,"7310 SE LAMBERT ST, PORTLAND, OR, 97233","Match","Non_Exact","7310 SE LAMBERT ST, PORTLAND, OR, 97206",157566080,"R"
282584,"7310 STANDIFER GAP RD APT 314","CHATTANOOGA","TN",37421,35.052102985,-85.149492892,84,"7310 STANDIFER GAP RD APT 314, CHATTANOOGA, TN, 37421","Match","Exact","7310 STANDIFER GAP RD, CHATTANOOGA, TN, 37421",59317343,"R"
282585,"7310 WABASH AVE","KANSAS CITY","MO",64132,38.9941657590001,-94.5582720259999,85,"7310 WABASH AVE, KANSAS CITY, MO, 64132","Match","Exact","7310 WABASH AVE, KANSAS CITY, MO, 64132",91456720,"R"
282586,"7310 WALNUT AVE / PO BOX 1648","WINTON","CA",95388,37.3893608820001,-120.620540992,86,"7310 WALNUT AVE / PO BOX 1648, WINTON, CA, 95388","Match","Exact","7310 WALNUT AVE, WINTON, CA, 95388",125275225,"L"
282587,"7310 WHITE DRIVE","CHARLOTTE","AR",72522,35.823946606,-91.441156792,87,"7310 WHITE DRIVE, CHARLOTTE, AR, 72522","Match","Exact","7310 WHITE DR, CHARLOTTE, AR, 72522",41645111,"R"
282588,"7310 WOODWARD AVE STE 705","DETROIT","MI",48202,42.3704682270001,-83.073455861,88,"7310 WOODWARD AVE STE 705, DETROIT, MI, 48202","Match","Exact","7310 WOODWARD AVE, DETROIT, MI, 48202",95717710,"R"
282589,"7311 ALBRIGHT AVENUE","ST. LOUIS","MO",63136,38.7162394640001,-90.2715717849999,89,"7311 ALBRIGHT AVENUE, ST. LOUIS, MO, 63136","Match","Exact","7311 ALBRIGHT AVE, SAINT LOUIS, MO, 63136",100147633,"R"
282590,"7311 AUBURNWOOD LANE","WINDERMERE","FL",34786,28.458317638,-81.576950863,90,"7311 AUBURNWOOD LANE, WINDERMERE, FL, 34786","Match","Exact","7311 AUBURNWOOD LN, WINDERMERE, FL, 34786",645099423,"L"
282591,"7311 BAHIA LANE","MISSOURI CITY","TX",77489,29.6021581200001,-95.496150557,91,"7311 BAHIA LANE, MISSOURI CITY, TX, 77489","Match","Exact","7311 BAHIA LN, MISSOURI CITY, TX, 77489",78270448,"R"
282592,"7311 BELLERIVE DRIVE","HOUSTON","TX",77036,29.713082641,-95.5114215739999,92,"7311 BELLERIVE DRIVE, HOUSTON, TX, 77036","Match","Exact","7311 BELLERIVE DR, HOUSTON, TX, 77036",96614208,"L"
282593,"7311 CHAUCER PL","DALLAS","TX",75237,32.6597804410001,-96.8673643719999,93,"7311 CHAUCER PL, DALLAS, TX, 75237","Match","Exact","7311 CHAUCER PL, DALLAS, TX, 75237",650071815,"R"
282594,"7311 E MINGUS TRAIL","PRESCOTT VALLEY","AZ",86315,34.6473877810001,-112.336128476,94,"7311 E MINGUS TRAIL, PRESCOTT VALLEY, AZ, 86315","Match","Exact","7311 E MINGUS TRL, PRESCOTT VALLEY, AZ, 86315",159537580,"R"
282595,"7311 EAGLE CREST DRIVE","DES MOINES","IA",50131,41.730369045,-93.7196604,95,"7311 EAGLE CREST DRIVE, DES MOINES, IA, 50131","Match","Non_Exact","7311 EAGLE CREST DR, URBANDALE, IA, 50131",65864056,"L"
282596,"7311 GAVIN STREET","NEW CARROLLTON","MD",20784,38.968742424,-76.889137482,96,"7311 GAVIN STREET, NEW CARROLLTON, MD, 20784","Match","Exact","7311 GAVIN ST, NEW CARROLLTON, MD, 20784",76308051,"R"
282597,"7311 GREAT LAUREL DR","RALEIGH","NC",27616,35.8889758230001,-78.5162779359999,97,"7311 GREAT LAUREL DR, RALEIGH, NC, 27616","Match","Exact","7311 GREAT LAUREL DR, RALEIGH, NC, 27616",647327437,"L"
282598,"7311 HERITAGE CT","INDIANAPOLIS","IN",46256,39.8878622780001,-86.009999283,98,"7311 HERITAGE CT, INDIANAPOLIS, IN, 46256","Match","Exact","7311 HERITAGE CT, INDIANAPOLIS, IN, 46256",108011012,"R"
282599,"7311 JACKSON STREET NE","FRIDLEY","MN",55432,45.1010211770001,-93.2514528459999,99,"7311 JACKSON STREET NE, FRIDLEY, MN, 55432","Match","Exact","7311 JACKSON ST NE, FRIDLEY, MN, 55432",97487643,"R"
282600,"7311 LAKE BARRINGTON DRIVE","NEW ORLEANS","LA",70128,30.046145145,-89.969900604,100,"7311 LAKE BARRINGTON DRIVE, NEW ORLEANS, LA, 70128","Match","Exact","7311 LAKE BARRINGTON DR, NEW ORLEANS, LA, 70128",191721492,"R"
282601,"7311 LONGBRANCH DRIVE","NEW CARROLLTON","MD",20784,38.9680333840001,-76.889549871,101,"7311 LONGBRANCH DRIVE, NEW CARROLLTON, MD, 20784","Match","Exact","7311 LONGBRANCH DR, NEW CARROLLTON, MD, 20784",76308056,"R"
282602,"7311 LOWER ROAD","SOBIESKI","WI",54171,44.7347923400001,-88.131906325,102,"7311 LOWER ROAD, SOBIESKI, WI, 54171","Match","Exact","7311 LOWER RD, SOBIESKI, WI, 54171",170325736,"R"
282603,"7311 MILL GROVE ROAD","INDIAN TRAIL","NC",28079,35.123791232,-80.606391278,103,"7311 MILL GROVE ROAD, INDIAN TRAIL, NC, 28079","Match","Exact","7311 MILL GROVE RD, INDIAN TRAIL, NC, 28079",639746338,"L"
282604,"7311 PETTITT STREET","AMARILLO","TX",79108,35.28371622,-101.771700333,104,"7311 PETTITT STREET, AMARILLO, TX, 79108","Match","Exact","7311 PETTITT ST, AMARILLO, TX, 79108",182467268,"L"
282605,"7311 PIONEERS BLVD APT 418","LINCOLN","NE",68506,40.7696735860001,-96.618174735,105,"7311 PIONEERS BLVD APT 418, LINCOLN, NE, 68506","Match","Non_Exact","7311 PIONEERS BLVD, LINCOLN, NE, 68516",28281372,"L"
282606,"7311 S KENWOOD AVE","CHICAGO","IL",60619,41.761895214,-87.592095571,106,"7311 S KENWOOD AVE, CHICAGO, IL, 60619","Match","Exact","7311 S KENWOOD AVE, CHICAGO, IL, 60619",605591623,"L"
282607,"7311 SAN PABLO DR","HOUSTON","TX",77083,29.696989456,-95.675739871,107,"7311 SAN PABLO DR, HOUSTON, TX, 77083","Match","Exact","7311 SAN PABLO DR, HOUSTON, TX, 77083",78262018,"R"
282608,"7311 WHERNSIDE COURT","LORTON","VA",22079,38.7124468050001,-77.194063144,108,"7311 WHERNSIDE COURT, LORTON, VA, 22079","Match","Exact","7311 WHERNSIDE CT, LORTON, VA, 22079",76047858,"L"
282609,"7311 WOLFHOUND COURT","WILMINGTON","NC",28411,34.29776538,-77.8320516109999,109,"7311 WOLFHOUND COURT, WILMINGTON, NC, 28411","Match","Exact","7311 WOLFHOUND CT, WILMINGTON, NC, 28411",648016589,"R"
282610,"7312 122ND AVENUE NE","KIRKLAND","WA",98033,47.670209313,-122.177443166,110,"7312 122ND AVENUE NE, KIRKLAND, WA, 98033","Match","Exact","7312 122ND AVE NE, KIRKLAND, WA, 98033",186604286,"R"
282611,"7312 194TH AVE E UNIT J","BONNEY LAKE","WA",98391,47.189832811,-122.169510293,111,"7312 194TH AVE E UNIT J, BONNEY LAKE, WA, 98391","Match","Exact","7312 194TH AVE E, BONNEY LAKE, WA, 98391",184700126,"R"
282612,"7312 CASSIMIR PLACE","WILMINGTON","NC",28412,34.075604991,-77.8954373719999,112,"7312 CASSIMIR PLACE, WILMINGTON, NC, 28412","Match","Exact","7312 CASSIMIR PL, WILMINGTON, NC, 28412",152752644,"R"
282613,"7312 E BANK DR","TAMPA","FL",33617,28.0147160760001,-82.410915824,113,"7312 E BANK DR, TAMPA, FL, 33617","Match","Exact","7312 E BANK DR, TAMPA, FL, 33617",104555553,"R"
282614,"7312 FAIRWAY DRIVE","MONTGOMERY","AL",36116,32.243731611,-86.179634804,114,"7312 FAIRWAY DRIVE, MONTGOMERY, AL, 36116","Match","Exact","7312 FAIRWAY DR, MONTGOMERY, AL, 36116",1490110,"R"
282615,"7312 LAKE WORTH RD","LAKE WORTH","FL",33467,26.6175570240001,-80.162696168,115,"7312 LAKE WORTH RD, LAKE WORTH, FL, 33467","Match","Exact","7312 LAKE WORTH RD, LAKE WORTH, FL, 33467",115282837,"L"
282616,"7312 LAKE WORTH ROAD","LAKE WORTH","FL",33467,26.6175570240001,-80.162696168,116,"7312 LAKE WORTH ROAD, LAKE WORTH, FL, 33467","Match","Exact","7312 LAKE WORTH RD, LAKE WORTH, FL, 33467",115282837,"L"
282617,"7312 LOUETTA AVE SUITE B118-1154","SPRING","TX",77379,30.020950493,-95.5239064949999,117,"7312 LOUETTA AVE SUITE B118-1154, SPRING, TX, 77379","Match","Non_Exact","7312 LOUETTA RD, SPRING, TX, 77379",96664773,"L"
282618,"7312 LOUETTA RD B118-405","SPRING","TX",77379,30.020950493,-95.5239064949999,118,"7312 LOUETTA RD B118-405, SPRING, TX, 77379","Match","Exact","7312 LOUETTA RD, SPRING, TX, 77379",96664773,"L"
282619,"7312 LOUETTA RD STE B118424","SPRING","TX",77379,30.020950493,-95.5239064949999,119,"7312 LOUETTA RD STE B118424, SPRING, TX, 77379","Match","Exact","7312 LOUETTA RD, SPRING, TX, 77379",96664773,"L"
282620,"7312 LOUETTA ROAD SUITE B118515","SPRING","TX",77379,30.020950493,-95.5239064949999,120,"7312 LOUETTA ROAD SUITE B118515, SPRING, TX, 77379","Match","Exact","7312 LOUETTA RD, SPRING, TX, 77379",96664773,"L"
282621,"7312 OLD MILL TRL","TRUSSVILLE","AL",35173,33.6537937480001,-86.55970121,121,"7312 OLD MILL TRL, TRUSSVILLE, AL, 35173","Match","Exact","7312 OLD MILL TRL, TRUSSVILLE, AL, 35173",633437230,"L"
282622,"7312 PLANTATION LANE","AVON","IN",46123,39.7746675760001,-86.394392307,122,"7312 PLANTATION LANE, AVON, IN, 46123","Match","Exact","7312 PLANTATION LN, AVON, IN, 46123",89208790,"L"
282623,"7312 STONE HEARTH DR","FRISCO","TX",75035,33.139145188,-96.7874976799999,123,"7312 STONE HEARTH DR, FRISCO, TX, 75035","Match","Exact","7312 STONE HEARTH DR, FRISCO, TX, 75035",210476794,"L"
282624,"7313 260TH ST","WYOMING","MN",55092,45.326289226,-92.957149489,124,"7313 260TH ST, WYOMING, MN, 55092","Match","Exact","7313 260TH ST, WYOMING, MN, 55092",97592766,"R"
282625,"7313 ARDMORE RD  APT 1351","HOUSTON","TX",77054,29.6909288410001,-95.380390425,125,"7313 ARDMORE RD  APT 1351, HOUSTON, TX, 77054","Match","Non_Exact","7313 ARDMORE ST, HOUSTON, TX, 77054",642864136,"L"
282626,"7313 BAY HILL CT","RALEIGH","NC",27615,35.882162996,-78.607196017,126,"7313 BAY HILL CT, RALEIGH, NC, 27615","Match","Non_Exact","7313 BAYHILL CT, RALEIGH, NC, 27615",72563255,"L"
282627,"7313 BLANNIE FARMS LANE","WILLOW SPRING","NC",27592,35.591182776,-78.682920866,127,"7313 BLANNIE FARMS LANE, WILLOW SPRING, NC, 27592","Match","Exact","7313 BLANNIE FARMS LN, WILLOW SPRING, NC, 27592",612817535,"L"
282628,"7313 CITRONELL AVENUE","PICO RIVERA","CA",90660,33.9758843180001,-118.095657231,128,"7313 CITRONELL AVENUE, PICO RIVERA, CA, 90660","Match","Exact","7313 CITRONELL AVE, PICO RIVERA, CA, 90660",653240387,"R"
282629,"7313 CORNELIA DRIVE","EDINA","MN",55435,44.8711598940001,-93.335966367,129,"7313 CORNELIA DRIVE, EDINA, MN, 55435","Match","Exact","7313 CORNELIA DR, EDINA, MN, 55435",43841333,"L"
282630,"7313 GREENBRIAR PARKWAY","ORLANDO","FL",32819,28.4554997810001,-81.455395768,130,"7313 GREENBRIAR PARKWAY, ORLANDO, FL, 32819","Match","Exact","7313 GREENBRIAR PKWY, ORLANDO, FL, 32819",94289475,"L"
282631,"7313 HARRIET AVENUE","RICHFIELD","MN",55423,44.870558784,-93.285836558,131,"7313 HARRIET AVENUE, RICHFIELD, MN, 55423","Match","Non_Exact","7313 HARRIET AVE S, RICHFIELD, MN, 55423",43592946,"L"
282632,"7313 INTERNATIONAL PL  SUITE 90","SARASOTA","FL",34240,27.380177517,-82.423692564,132,"7313 INTERNATIONAL PL  SUITE 90, SARASOTA, FL, 34240","Match","Exact","7313 INTERNATIONAL PL, SARASOTA, FL, 34240",16435383,"L"
282633,"7313 INTERNATIONAL PLACE SUITE 110","SARASOTA","FL",34230,27.380177517,-82.423692564,133,"7313 INTERNATIONAL PLACE SUITE 110, SARASOTA, FL, 34230","Match","Non_Exact","7313 INTERNATIONAL PL, SARASOTA, FL, 34240",16435383,"L"
282634,"7313 LATTICE DR","INDIANAPOLIS","IN",46217,39.6593793910001,-86.1828005689999,134,"7313 LATTICE DR, INDIANAPOLIS, IN, 46217","Match","Exact","7313 LATTICE DR, INDIANAPOLIS, IN, 46217",108046321,"R"
282635,"7313 PAGO ST","ORLANDO","FL",32822,28.4900689890001,-81.291954969,135,"7313 PAGO ST, ORLANDO, FL, 32822","Match","Exact","7313 PAGO ST, ORLANDO, FL, 32822",94295417,"L"
282636,"7313 RAINTREE CIRCLE","CULVER CITY","CA",90230,34.008345589,-118.391083277,136,"7313 RAINTREE CIRCLE, CULVER CITY, CA, 90230","Match","Exact","7313 RAINTREE CIR, CULVER CITY, CA, 90230",241114121,"L"
282637,"7313 ROSEWOOD MANOR LANE","LAYTONSVILLE","MD",20882,39.191570691,-77.1482537969999,137,"7313 ROSEWOOD MANOR LANE, LAYTONSVILLE, MD, 20882","Match","Exact","7313 ROSEWOOD MANOR LN, LAYTONSVILLE, MD, 20882",62092559,"L"
282638,"7313 SANDY CREEK RD","WAUSAU","WI",54401,NA,NA,138,"7313 SANDY CREEK RD, WAUSAU, WI, 54401","No_Match",NA,NA,NA,NA
282639,"7313 TARRAGON COURT","WEST CHESTER","OH",45069,39.370487536,-84.4342088239999,139,"7313 TARRAGON COURT, WEST CHESTER, OH, 45069","Match","Exact","7313 TARRAGON CT, WEST CHESTER, OH, 45069",113804745,"R"
282640,"7313 ZAPATA DR","JACKSONVILLE","FL",32210,30.260302127,-81.7665355089999,140,"7313 ZAPATA DR, JACKSONVILLE, FL, 32210","Match","Exact","7313 ZAPATA DR, JACKSONVILLE, FL, 32210",83910497,"R"
282641,"731397 HIOLANI","KAILUA KONA","HI",96740,NA,NA,141,"731397 HIOLANI, KAILUA KONA, HI, 96740","No_Match",NA,NA,NA,NA
282642,"7314 44TH AVE NE","MARYSVILLE","WA",98270,48.062393538,-122.171709576,142,"7314 44TH AVE NE, MARYSVILLE, WA, 98270","Match","Exact","7314 44TH AVE NE, MARYSVILLE, WA, 98270",187821998,"L"
282643,"7314 46TH AVE S","SEATTLE","WA",98118,47.5367866570001,-122.275330382,143,"7314 46TH AVE S, SEATTLE, WA, 98118","Match","Exact","7314 46TH AVE S, SEATTLE, WA, 98118",186596901,"L"
282644,"7314 AMBER LN SW","LAKEWOOD","WA",98498,47.191046419,-122.550308236,144,"7314 AMBER LN SW, LAKEWOOD, WA, 98498","Match","Exact","7314 AMBER LN SW, LAKEWOOD, WA, 98498",184620897,"R"
282645,"7314 BIG VALLEY","HOUSTON","TX",77095,29.8841153820001,-95.641030976,145,"7314 BIG VALLEY, HOUSTON, TX, 77095","Match","Non_Exact","7314 BIG VALLEY DR, HOUSTON, TX, 77095",96292327,"R"
282646,"7314 BRIARCLIFF DR","SPRINGFIELD","VA",22153,38.756466591,-77.240774968,146,"7314 BRIARCLIFF DR, SPRINGFIELD, VA, 22153","Match","Exact","7314 BRIARCLIFF DR, SPRINGFIELD, VA, 22153",76006104,"R"
282647,"7314 CAMBRIDGE AVE","RANCHO CUCAMONGA","CA",91730,34.121218023,-117.586172258,147,"7314 CAMBRIDGE AVE, RANCHO CUCAMONGA, CA, 91730","Match","Exact","7314 CAMBRIDGE AVE, RANCHO CUCAMONGA, CA, 91730",144683541,"L"
282648,"7314 CANTERFIELD ROAD","SAN ANTONIO","TX",78240,29.5041496750001,-98.6160423219999,148,"7314 CANTERFIELD ROAD, SAN ANTONIO, TX, 78240","Match","Exact","7314 CANTERFIELD RD, SAN ANTONIO, TX, 78240",101490035,"R"
282649,"7314 N LOWELL AVE","LINCOLNWOOD","IL",60712,42.013930196,-87.736973823,149,"7314 N LOWELL AVE, LINCOLNWOOD, IL, 60712","Match","Exact","7314 LOWELL AVE, LINCOLNWOOD, IL, 60712",111741149,"L"
282650,"7314 SAUNDERS RD","HOUSTON","TX",77016,29.864776921,-95.297421265,150,"7314 SAUNDERS RD, HOUSTON, TX, 77016","Match","Exact","7314 SAUNDERS RD, HOUSTON, TX, 77016",96075533,"R"
282651,"7314 WESTHAVEN DR","ROWLETT","TX",75089,32.9236455820001,-96.514849673,151,"7314 WESTHAVEN DR, ROWLETT, TX, 75089","Match","Exact","7314 WESTHAVEN DR, ROWLETT, TX, 75089",123784497,"L"
282652,"73140 HWY 111 SUITE 1","PALM DESERT","CA",92260,33.7214910530001,-116.388880698,152,"73140 HWY 111 SUITE 1, PALM DESERT, CA, 92260","Match","Non_Exact","73140 STATE RTE 111, PALM DESERT, CA, 92260",608983821,"L"
282653,"7315 BALLA DRIVE","NORTH TONAWANDA","NY",14120,43.072364715,-78.870788583,153,"7315 BALLA DRIVE, NORTH TONAWANDA, NY, 14120","Match","Exact","7315 BALLA DR, N TONAWANDA, NY, 14120",618551818,"L"
282654,"7315 CONNELL ROAD","FAIRBURN","GA",30213,33.557991755,-84.495966901,154,"7315 CONNELL ROAD, FAIRBURN, GA, 30213","Match","Exact","7315 CONNELL RD, FAIRBURN, GA, 30213",17367606,"R"
282655,"7315 FLORAL RIDGE DRIVE","JACKSONVILLE","FL",32277,30.3561513130001,-81.576477451,155,"7315 FLORAL RIDGE DRIVE, JACKSONVILLE, FL, 32277","Match","Exact","7315 FLORAL RIDGE DR, JACKSONVILLE, FL, 32277",83903920,"L"
282656,"7315 FOSSIL HILL DRIVE","ARLINGTON","TX",76002,32.6238298490001,-97.099488344,156,"7315 FOSSIL HILL DRIVE, ARLINGTON, TX, 76002","Match","Exact","7315 FOSSIL HILL DR, ARLINGTON, TX, 76002",101961061,"L"
282657,"7315 GEORGIA AVE NW","WASHINGTON","DC",20012,38.9785213710001,-77.026421225,157,"7315 GEORGIA AVE NW, WASHINGTON, DC, 20012","Match","Exact","7315 GEORGIA AVE NW, WASHINGTON, DC, 20012",76221726,"R"
282658,"7315 HARRIS RD","BAKERSFIELD","CA",93313,35.3050260950001,-119.083553357,158,"7315 HARRIS RD, BAKERSFIELD, CA, 93313","Match","Exact","7315 HARRIS RD, BAKERSFIELD, CA, 93313",109450610,"R"
282659,"7315 HUDSON OAKS DR","HOUSTON","TX",77095,NA,NA,159,"7315 HUDSON OAKS DR, HOUSTON, TX, 77095","No_Match",NA,NA,NA,NA
282660,"7315 LITTLE CREEK WAY","PACE","FL",32571,30.683111664,-87.1893276,160,"7315 LITTLE CREEK WAY, PACE, FL, 32571","Match","Exact","7315 LITTLE CREEK WAY, PACE, FL, 32571",650830839,"L"
282661,"7315 N KENNETH AVE","LINCOLNWOOD","IL",60712,42.013934872,-87.739387053,161,"7315 N KENNETH AVE, LINCOLNWOOD, IL, 60712","Match","Exact","7315 KENNETH AVE, LINCOLNWOOD, IL, 60712",111741085,"R"
282662,"7315 OAK AVE","MELROSE PARK","PA",19027,40.0570209740001,-75.126620546,162,"7315 OAK AVE, MELROSE PARK, PA, 19027","Match","Exact","7315 OAK AVE, MELROSE PARK, PA, 19027",135094742,"R"
282663,"7315 STOCKTON BLVD STE 1","SACRAMENTO","CA",95823,38.4920807400001,-121.427220838,163,"7315 STOCKTON BLVD STE 1, SACRAMENTO, CA, 95823","Match","Exact","7315 STOCKTON BLVD, SACRAMENTO, CA, 95823",634220124,"L"
282664,"7315 STOCKTON BLVD","SACRAMENTO","CA",95823,38.4920807400001,-121.427220838,164,"7315 STOCKTON BLVD, SACRAMENTO, CA, 95823","Match","Exact","7315 STOCKTON BLVD, SACRAMENTO, CA, 95823",634220124,"L"
282665,"7315 TARA DRIVE","RICHMOND","TX",77469,29.539424717,-95.6862982279999,165,"7315 TARA DRIVE, RICHMOND, TX, 77469","Match","Exact","7315 TARA DR, RICHMOND, TX, 77469",78289921,"L"
282666,"7315 WALLA WALLA DRIVE","SAN ANTONIO","TX",78250,29.509279038,-98.658661627,166,"7315 WALLA WALLA DRIVE, SAN ANTONIO, TX, 78250","Match","Exact","7315 WALLA WALLA DR, SAN ANTONIO, TX, 78250",101553885,"R"
282667,"7315 WINCHESTER DRIVE","ST LOUIS","MO",63121,38.7072083890001,-90.29318026,167,"7315 WINCHESTER DRIVE, ST LOUIS, MO, 63121","Match","Exact","7315 WINCHESTER DR, SAINT LOUIS, MO, 63121",100146790,"R"
282668,"7315 WOOD HOLLOW TER","FT WASHINGTON","MD",20744,38.7906527050001,-76.9580865189999,168,"7315 WOOD HOLLOW TER, FT WASHINGTON, MD, 20744","Match","Exact","7315 WOOD HOLLOW TER, FT WASHINGTON, MD, 20744",76332326,"R"
282669,"7316 BELINDA RD","POWELL","TN",37849,36.0307208670001,-84.0141454719999,169,"7316 BELINDA RD, POWELL, TN, 37849","Match","Exact","7316 BELINDA RD, POWELL, TN, 37849",42612729,"R"
282670,"7316 DAN JEAN DR UNIT B","AUSTIN","TX",78745,NA,NA,170,"7316 DAN JEAN DR UNIT B, AUSTIN, TX, 78745","No_Match",NA,NA,NA,NA
282671,"7316 DERBY DOWNS DR","AUSTIN","TX",78747,30.147948059,-97.73782554,171,"7316 DERBY DOWNS DR, AUSTIN, TX, 78747","Match","Exact","7316 DERBY DOWNS DR, AUSTIN, TX, 78747",624864339,"L"
282672,"7316 ECHO HILL DRIVE","WATAUGA","TX",76148,32.877749088,-97.249805634,172,"7316 ECHO HILL DRIVE, WATAUGA, TX, 76148","Match","Exact","7316 ECHO HILL DR, WATAUGA, TX, 76148",101860416,"R"
282673,"7316 FABION DR","AUSTIN","TX",78759,30.4121961640001,-97.7768580379999,173,"7316 FABION DR, AUSTIN, TX, 78759","Match","Exact","7316 FABION DR, AUSTIN, TX, 78759",64002029,"L"
282674,"7316 HARTFORD ROAD","DOWNERS GROVE","IL",60516,41.7530075020001,-88.002628537,174,"7316 HARTFORD ROAD, DOWNERS GROVE, IL, 60516","Match","Exact","7316 HARTFORD RD, DOWNERS GROVE, IL, 60516",112556065,"R"
282675,"7316 PEBBLEFORD RD","FORT WORTH","TX",76134,32.6409530230001,-97.336813756,175,"7316 PEBBLEFORD RD, FORT WORTH, TX, 76134","Match","Exact","7316 PEBBLEFORD RD, FORT WORTH, TX, 76134",101894480,"R"
282676,"7316 S LANCASTER RD","DALLAS","TX",72541,32.6601176030001,-96.783528259,176,"7316 S LANCASTER RD, DALLAS, TX, 72541","Match","Non_Exact","7316 S LANCASTER RD, DALLAS, TX, 75241",103219501,"L"
282677,"7316 WELLBAUM ROAD","BROOKVILLE","OH",45309,39.8503903590001,-84.3878494579999,177,"7316 WELLBAUM ROAD, BROOKVILLE, OH, 45309","Match","Exact","7316 WELLBAUM RD, BROOKVILLE, OH, 45309",143559628,"R"
282678,"7316 WOOD HOLLOW TER","FT WASHINGTON","MD",20744,38.790577705,-76.9579739289999,178,"7316 WOOD HOLLOW TER, FT WASHINGTON, MD, 20744","Match","Exact","7316 WOOD HOLLOW TER, FT WASHINGTON, MD, 20744",76332326,"L"
282679,"7317 AVENUE P","SANTA FE","TX",77510,29.337483924,-95.098015451,179,"7317 AVENUE P, SANTA FE, TX, 77510","Match","Exact","7317 AVE P, SANTA FE, TX, 77510",96707159,"R"
282680,"7317 BRENNANS DRIVE","DALLAS","TX",75214,32.83936765,-96.735231611,180,"7317 BRENNANS DRIVE, DALLAS, TX, 75214","Match","Exact","7317 BRENNANS DR, DALLAS, TX, 75214",102919386,"L"
282681,"7317 CENTURY DRIVE","N RICHLAND HILLS","TX",76182,32.880700346,-97.215868971,181,"7317 CENTURY DRIVE, N RICHLAND HILLS, TX, 76182","Match","Exact","7317 CENTURY DR, NORTH RICHLAND HILLS, TX, 76182",101861223,"L"
282682,"7317 E MORNINGLORY WAY","ORANGE","CA",92869,33.7895001840001,-117.77547046,182,"7317 E MORNINGLORY WAY, ORANGE, CA, 92869","Match","Exact","7317 E MORNINGLORY WAY, ORANGE, CA, 92869",144100334,"R"
282683,"7317 EL CAJON BLVD  NO 234","LA MESA","CA",91942,NA,NA,183,"7317 EL CAJON BLVD  NO 234, LA MESA, CA, 91942","No_Match",NA,NA,NA,NA
282684,"7317 EL CAJON BLVD STE 143","LA MESA","CA",91942,NA,NA,184,"7317 EL CAJON BLVD STE 143, LA MESA, CA, 91942","No_Match",NA,NA,NA,NA
282685,"7317 FIELDLARK DR","SACHSE","TX",75048,32.9881568910001,-96.599335375,185,"7317 FIELDLARK DR, SACHSE, TX, 75048","Match","Exact","7317 FIELDLARK DR, SACHSE, TX, 75048",648368428,"R"
282686,"7317 FISHERMANS CREEK DRIVE","WILMINGTON","NC",28405,34.2573657790001,-77.819098815,186,"7317 FISHERMANS CREEK DRIVE, WILMINGTON, NC, 28405","Match","Non_Exact","7317 FISHERMAN CREEK DR, WILMINGTON, NC, 28405",642169919,"L"
282687,"7317 FREMONT PLACE","LARKSPUR","CO",80118,39.2561875480001,-104.905739714,187,"7317 FREMONT PLACE, LARKSPUR, CO, 80118","Match","Exact","7317 FREMONT PL, LARKSPUR, CO, 80118",130829307,"R"
282688,"7317 KENNEDY BLVD","NORTH BERGEN","NJ",7047,40.800050911,-74.0142397549999,188,"7317 KENNEDY BLVD, NORTH BERGEN, NJ, 7047","Match","Exact","7317 KENNEDY BLVD, NORTH BERGEN, NJ, 07047",624124948,"L"
282689,"7317 LARWILL LN","CHARLOTTE","NC",28216,35.303904222,-80.91122282,189,"7317 LARWILL LN, CHARLOTTE, NC, 28216","Match","Exact","7317 LARWILL LN, CHARLOTTE, NC, 28216",70600772,"L"
282690,"7317 LITTLE MOHICAN DRIVE","FORT WORTH","TX",76179,32.8696493840001,-97.419478962,190,"7317 LITTLE MOHICAN DRIVE, FORT WORTH, TX, 76179","Match","Exact","7317 LITTLE MOHICAN DR, FORT WORTH, TX, 76179",638656014,"L"
282691,"7317 LOUISBURG RD","RALEIGH","NC",27616,35.874227707,-78.54214998,191,"7317 LOUISBURG RD, RALEIGH, NC, 27616","Match","Exact","7317 LOUISBURG RD, RALEIGH, NC, 27616",208377086,"L"
282692,"7317 NW 57 DRIVE","TAMARAC","FL",33321,26.19587506,-80.2480456339999,192,"7317 NW 57 DRIVE, TAMARAC, FL, 33321","Match","Exact","7317 NW 57TH DR, TAMARAC, FL, 33321",114702564,"R"
282693,"7317 ONEIL DRIVE","HARAHAN","LA",70123,29.93088111,-90.202462587,193,"7317 ONEIL DRIVE, HARAHAN, LA, 70123","Match","Exact","7317 ONEIL DR, HARAHAN, LA, 70123",93532546,"R"
282694,"7317 S PRAIRIE","CHICAGO","IL",60619,41.7616015730001,-87.6183755439999,194,"7317 S PRAIRIE, CHICAGO, IL, 60619","Match","Non_Exact","7317 S PRAIRIE AVE, CHICAGO, IL, 60619",111772322,"L"
282695,"7317 WOODRIDGE PARK DR","ORLANDO","FL",32818,28.5545605450001,-81.487972081,195,"7317 WOODRIDGE PARK DR, ORLANDO, FL, 32818","Match","Exact","7317 WOODRIDGE PARK DR, ORLANDO, FL, 32818",640415800,"R"
282696,"7317 WRIGHT AVENUE","OAKWOOD","OH",44146,41.368599155,-81.521511518,196,"7317 WRIGHT AVENUE, OAKWOOD, OH, 44146","Match","Non_Exact","7317 WRIGHT AVE, OAKWOOD VILLAGE, OH, 44146",61140728,"L"
282697,"73171 20 ROAD","AXTELL","NE",68924,NA,NA,197,"73171 20 ROAD, AXTELL, NE, 68924","No_Match",NA,NA,NA,NA
282698,"7318 ADMIRALS PARK DRIVE","JONESTOWN","TX",78645,30.4498769590001,-97.943772628,198,"7318 ADMIRALS PARK DRIVE, JONESTOWN, TX, 78645","Match","Non_Exact","7318 ADMIRAL'S PARK DR, JONESTOWN, TX, 78645",641731093,"R"
282699,"7318 CRANE RD","OAKDALE","CA",95361,37.745749738,-120.881516677,199,"7318 CRANE RD, OAKDALE, CA, 95361","Match","Exact","7318 CRANE RD, OAKDALE, CA, 95361",627131660,"R"
282700,"7318 DRAPER AVENUE","LA JOLLA","CA",92037,32.8373135100001,-117.27576112,200,"7318 DRAPER AVENUE, LA JOLLA, CA, 92037","Match","Exact","7318 DRAPER AVE, LA JOLLA, CA, 92037",612883370,"L"
282701,"7318 E PALO VERDE DRIVE NO 7","SCOTTSDALE","AZ",85250,NA,NA,201,"7318 E PALO VERDE DRIVE NO 7, SCOTTSDALE, AZ, 85250","No_Match",NA,NA,NA,NA
282702,"7318 S RIDGEVIEW DR","LITTLETON","CO",80120,39.584858007,-105.017078654,202,"7318 S RIDGEVIEW DR, LITTLETON, CO, 80120","Match","Exact","7318 S RIDGEVIEW DR, LITTLETON, CO, 80120",177335831,"L"
282703,"7318 W MOHAWK LANE","GLENDALE","AZ",85308,33.6717068880001,-112.218430669,203,"7318 W MOHAWK LANE, GLENDALE, AZ, 85308","Match","Exact","7318 W MOHAWK LN, GLENDALE, AZ, 85308",128388774,"L"
282704,"7318 WOODLETT DRIVE","CITY OF CENTRAL","LA",70818,30.517492675,-91.035072079,204,"7318 WOODLETT DRIVE, CITY OF CENTRAL, LA, 70818","Match","Non_Exact","7318 WOODLETT DR, BATON ROUGE, LA, 70818",92187133,"L"
282705,"7319 60TH AVE  SOUTH","HORACE","ND",58047,46.7949992550001,-96.9104001329999,205,"7319 60TH AVE  SOUTH, HORACE, ND, 58047","Match","Exact","7319 60TH AVE S, HORACE, ND, 58047",649816154,"R"
282706,"7319 CAMELOT COURT","RIVERDALE","GA",30296,33.5559978140001,-84.418770464,206,"7319 CAMELOT COURT, RIVERDALE, GA, 30296","Match","Exact","7319 CAMELOT CT, RIVERDALE, GA, 30296",23319275,"R"
282707,"7319 JESSMAN ROAD SOUTH DRIVE APT C","INDIANAPOLIS","IN",46256,39.885044432,-86.0382174539999,207,"7319 JESSMAN ROAD SOUTH DRIVE APT C, INDIANAPOLIS, IN, 46256","Match","Exact","7319 JESSMAN ROAD S DR, INDIANAPOLIS, IN, 46256",108068266,"L"
282708,"7319 MATTHEWS MINT HILL RD STE I","MINT HILL","CA",28227,NA,NA,208,"7319 MATTHEWS MINT HILL RD STE I, MINT HILL, CA, 28227","No_Match",NA,NA,NA,NA
282709,"7319 ROSELAND AVENUE","CHARLOTTE","NC",28277,35.062755026,-80.80446302,209,"7319 ROSELAND AVENUE, CHARLOTTE, NC, 28277","Match","Exact","7319 ROSELAND AVE, CHARLOTTE, NC, 28277",70543575,"R"
282710,"7319 S MAY","CHICAGO","IL",60621,NA,NA,210,"7319 S MAY, CHICAGO, IL, 60621","No_Match",NA,NA,NA,NA
282711,"7319 SIX FORKS RD","RALEIGH","NC",27615,35.8795045690001,-78.645847854,211,"7319 SIX FORKS RD, RALEIGH, NC, 27615","Match","Exact","7319 SIX FORKS RD, RALEIGH, NC, 27615",72496185,"L"
282712,"7319 SOMERSET SHORES CT","ORLANDO","FL",32819,28.455222324,-81.488510531,212,"7319 SOMERSET SHORES CT, ORLANDO, FL, 32819","Match","Exact","7319 SOMERSET SHORES CT, ORLANDO, FL, 32819",606124654,"L"
282713,"7319 SONNET GLEN LANE","HOUSTON","TX",77095,29.88494051,-95.664431927,213,"7319 SONNET GLEN LANE, HOUSTON, TX, 77095","Match","Exact","7319 SONNET GLEN LN, HOUSTON, TX, 77095",96015200,"L"
282714,"7319 TITTABAWASSEE ROAD","SAGINAW","MI",48603,43.480908158,-84.0588284309999,214,"7319 TITTABAWASSEE ROAD, SAGINAW, MI, 48603","Match","Exact","7319 TITTABAWASSEE RD, SAGINAW, MI, 48603",80207578,"R"
282715,"7319 WEST ATLANTIC AVE","DELRAY BEACH","FL",33446,26.453744881,-80.160617881,215,"7319 WEST ATLANTIC AVE, DELRAY BEACH, FL, 33446","Match","Exact","7319 W ATLANTIC AVE, DELRAY BEACH, FL, 33446",651263413,"L"
282716,"73192 MILITARY RD","COVINGTON","LA",70435,30.4938899220001,-90.069405481,216,"73192 MILITARY RD, COVINGTON, LA, 70435","Match","Exact","73192 MILITARY RD, COVINGTON, LA, 70435",111321954,"R"
282717,"732 12TH TER 1","BOYNTON BEACH","FL",33435,NA,NA,217,"732 12TH TER 1, BOYNTON BEACH, FL, 33435","No_Match",NA,NA,NA,NA
282718,"732 13TH STREET","BERTHOUD","CO",80513,40.3072814940001,-105.095466723,218,"732 13TH STREET, BERTHOUD, CO, 80513","Match","Exact","732 13TH ST, BERTHOUD, CO, 80513",627437462,"L"
282719,"732 3RD STREET SUITE A","DAVIS","CA",95616,38.544741613,-121.740168364,219,"732 3RD STREET SUITE A, DAVIS, CA, 95616","Match","Exact","732 3RD ST, DAVIS, CA, 95616",604974514,"R"
282720,"732 71ST STREET SOUTH","BIRMINGHAM","AL",35206,33.549027774,-86.725272827,220,"732 71ST STREET SOUTH, BIRMINGHAM, AL, 35206","Match","Exact","732 71ST ST S, BIRMINGHAM, AL, 35206",635557641,"L"
282721,"732 AVENUE E","BAYONNE","NJ",7002,40.6791187260001,-74.102102636,221,"732 AVENUE E, BAYONNE, NJ, 7002","Match","Exact","732 AVENUE E, BAYONNE, NJ, 07002",59603142,"R"
282722,"732 BRYANT STREET","SAN FRANCISCO","CA",94107,37.7772628550001,-122.400986911,222,"732 BRYANT STREET, SAN FRANCISCO, CA, 94107","Match","Exact","732 BRYANT ST, SAN FRANCISCO, CA, 94107",636408431,"R"
282723,"732 BURTON STREET","ROCKY MOUNT","NC",27803,35.939576647,-77.813825034,223,"732 BURTON STREET, ROCKY MOUNT, NC, 27803","Match","Exact","732 BURTON ST, ROCKY MOUNT, NC, 27803",90383142,"L"
282724,"732 CALVERT ST","ROME","NY",13440,43.2170811350001,-75.4729293629999,224,"732 CALVERT ST, ROME, NY, 13440","Match","Exact","732 CALVERT ST, ROME, NY, 13440",171521207,"R"
282725,"732 CENTRAL AVE 3","ALAMEDA","CA",94501,37.7713582470001,-122.275582539,225,"732 CENTRAL AVE 3, ALAMEDA, CA, 94501","Match","Exact","732 CENTRAL AVE, ALAMEDA, CA, 94501",635727097,"R"
282726,"732 DEEPDENE ROAD NUM 5636","BALTIMORE","MD",21210,39.356577848,-76.6332298089999,226,"732 DEEPDENE ROAD NUM 5636, BALTIMORE, MD, 21210","Match","Exact","732 DEEPDENE RD, BALTIMORE, MD, 21210",206439666,"R"
282727,"732 DILL RD","SEVERNA PARK","MD",21146,39.0696648320001,-76.5316665,227,"732 DILL RD, SEVERNA PARK, MD, 21146","Match","Exact","732 DILL RD, SEVERNA PARK, MD, 21146",68169122,"R"
282728,"732 E 74TH ST","LOS ANGELES","CA",90001,33.97298225,-118.26217752,228,"732 E 74TH ST, LOS ANGELES, CA, 90001","Match","Exact","732 E 74TH ST, LOS ANGELES, CA, 90001",141670506,"R"
282729,"732 EAST SAGAMORE AVENUE","CLEWISTON","FL",33440,26.75337124,-80.927400373,229,"732 EAST SAGAMORE AVENUE, CLEWISTON, FL, 33440","Match","Exact","732 E SAGAMORE AVE, CLEWISTON, FL, 33440",4493615,"R"
282730,"732 EDEN WAY N   SUITE E","CHESAPEAKE","VA",23320,36.7717256170001,-76.2434234959999,230,"732 EDEN WAY N   SUITE E, CHESAPEAKE, VA, 23320","Match","Exact","732 EDEN WAY N, CHESAPEAKE, VA, 23320",121772983,"L"
282731,"732 EDEN WAY N STE E-132","CHESAPEAKE","VA",23320,36.7717256170001,-76.2434234959999,231,"732 EDEN WAY N STE E-132, CHESAPEAKE, VA, 23320","Match","Exact","732 EDEN WAY N, CHESAPEAKE, VA, 23320",121772983,"L"
282732,"732 EDEN WAY N SUITE E542","CHESAPEAKE","VA",23320,36.7717256170001,-76.2434234959999,232,"732 EDEN WAY N SUITE E542, CHESAPEAKE, VA, 23320","Match","Exact","732 EDEN WAY N, CHESAPEAKE, VA, 23320",121772983,"L"
282733,"732 FM 2824","BEEVILLE","TX",78102,28.4609136620001,-97.7830590999999,233,"732 FM 2824, BEEVILLE, TX, 78102","Match","Exact","732 FM 2824, BEEVILLE, TX, 78102",35612632,"L"
282734,"732 FOXGLOVE STREET","ENCINITAS","CA",92024,33.0539135820001,-117.274877343,234,"732 FOXGLOVE STREET, ENCINITAS, CA, 92024","Match","Exact","732 FOXGLOVE ST, ENCINITAS, CA, 92024",195292796,"L"
282735,"732 GLOVER PLACE","BALDWIN","NY",11510,40.65085794,-73.615258022,235,"732 GLOVER PLACE, BALDWIN, NY, 11510","Match","Exact","732 GLOVER PL, BALDWIN, NY, 11510",147637496,"R"
282736,"732 GORDON DRIVE","CHARLESTON","WV",25303,38.352826991,-81.6701456499999,236,"732 GORDON DRIVE, CHARLESTON, WV, 25303","Match","Exact","732 GORDON DR, CHARLESTON, WV, 25303",78618609,"R"
282737,"732 GUINN STREET","CLOVER","SC",29710,35.125541114,-81.2275883839999,237,"732 GUINN STREET, CLOVER, SC, 29710","Match","Exact","732 GUINN ST, CLOVER, SC, 29710",621808100,"R"
282738,"732 HARDYS CT","WHITES CREEK","TN",37189,36.2629700890001,-86.831671482,238,"732 HARDYS CT, WHITES CREEK, TN, 37189","Match","Exact","732 HARDYS CT, WHITES CREEK, TN, 37189",638106468,"R"
282739,"732 HARRISON DRIVE","BIG LAKE","MN",55309,45.3239595320001,-93.7532432149999,239,"732 HARRISON DRIVE, BIG LAKE, MN, 55309","Match","Exact","732 HARRISON DR, BIG LAKE, MN, 55309",97784774,"R"
282740,"732 HERON DRIVE","DELRAY BEACH","FL",33444,26.4308101450001,-80.0809760179999,240,"732 HERON DRIVE, DELRAY BEACH, FL, 33444","Match","Exact","732 HERON DR, DELRAY BEACH, FL, 33444",115576266,"R"
282741,"732 HEWITT LN","NEW WINDSOR","NY",12553,41.4688637180001,-74.0146571559999,241,"732 HEWITT LN, NEW WINDSOR, NY, 12553","Match","Exact","732 HEWITT LN, NEW WINDSOR, NY, 12553",124497046,"L"
282742,"732 HIGHLAND AVE NE","ATLANTA","GA",30312,33.7613447860001,-84.363207566,242,"732 HIGHLAND AVE NE, ATLANTA, GA, 30312","Match","Exact","732 HIGHLAND AVE NE, ATLANTA, GA, 30312",610197756,"L"
282743,"732 LAKESHORE VILLAGE DRIVE","SLIDELL","LA",70461,30.2176379160001,-89.751714077,243,"732 LAKESHORE VILLAGE DRIVE, SLIDELL, LA, 70461","Match","Exact","732 LAKESHORE VILLAGE DR, SLIDELL, LA, 70461",617904909,"R"
282744,"732 LALTON DR","CONWAY","SC",29526,33.816814444,-78.925975985,244,"732 LALTON DR, CONWAY, SC, 29526","Match","Exact","732 LALTON DR, CONWAY, SC, 29526",631450967,"R"
282745,"732 LAUREL AVENUE","ALDAN","PA",19018,39.9247916460001,-75.2750123279999,245,"732 LAUREL AVENUE, ALDAN, PA, 19018","Match","Exact","732 LAUREL AVE, ALDAN, PA, 19018",134899058,"R"
282746,"732 LEXINGTON COURT","NORTHBROOK","IL",60062,42.1370485530001,-87.798398971,246,"732 LEXINGTON COURT, NORTHBROOK, IL, 60062","Match","Exact","732 LEXINGTON CT, NORTHBROOK, IL, 60062",111840212,"R"
282747,"732 LEXINGTON CT","NORTHBROOK","IL",60062,42.1370485530001,-87.798398971,247,"732 LEXINGTON CT, NORTHBROOK, IL, 60062","Match","Exact","732 LEXINGTON CT, NORTHBROOK, IL, 60062",111840212,"R"
282748,"732 LIBERTY VILLAGE DRIVE","FLORISSANT","MO",63031,38.8256907460001,-90.31707209,248,"732 LIBERTY VILLAGE DRIVE, FLORISSANT, MO, 63031","Match","Exact","732 LIBERTY VILLAGE DR, FLORISSANT, MO, 63031",100183000,"R"
282749,"732 LINCOLN AVENUE","MINOT","ND",58703,48.243223346,-101.303723129,249,"732 LINCOLN AVENUE, MINOT, ND, 58703","Match","Exact","732 LINCOLN AVE, MINOT, ND, 58703",200489288,"L"
282750,"732 LYONS RD","BERNARD","IA",52032,42.3143172100001,-90.763103431,250,"732 LYONS RD, BERNARD, IA, 52032","Match","Exact","732 LYONS RD, BERNARD, IA, 52032",16904938,"R"
282751,"732 MAIN ST","RAINELLE","WV",25962,37.9946564900001,-80.747219312,251,"732 MAIN ST, RAINELLE, WV, 25962","Match","Exact","732 MAIN ST, RAINELLE, WV, 25962",74763864,"R"
282752,"732 MAIN STREET SUITE 1","RAINELLE","WV",25962,37.9946564900001,-80.747219312,252,"732 MAIN STREET SUITE 1, RAINELLE, WV, 25962","Match","Exact","732 MAIN ST, RAINELLE, WV, 25962",74763864,"R"
282753,"732 MAIN STREET SUITE 4","RAINELLE","WV",25962,37.9946564900001,-80.747219312,253,"732 MAIN STREET SUITE 4, RAINELLE, WV, 25962","Match","Exact","732 MAIN ST, RAINELLE, WV, 25962",74763864,"R"
282754,"732 MT GALLANT RD","ROCK HILL","SC",29732,34.9571432380001,-80.997275325,254,"732 MT GALLANT RD, ROCK HILL, SC, 29732","Match","Non_Exact","732 MOUNT GALLANT RD, ROCK HILL, SC, 29730",19793521,"R"
282755,"732 N 11TH STREET","KLAMATH FALLS","OR",97601,42.2314364370001,-121.784387748,255,"732 N 11TH STREET, KLAMATH FALLS, OR, 97601","Match","Exact","732 N 11TH ST, KLAMATH FALLS, OR, 97601",156659068,"L"
282756,"732 N DAWSON STREET","UHRICHSVILLE","OH",44683,40.396130806,-81.343105033,256,"732 N DAWSON STREET, UHRICHSVILLE, OH, 44683","Match","Exact","732 N DAWSON ST, UHRICHSVILLE, OH, 44683",44228390,"L"
282757,"732 NINTH ST 596","DURHAM","NC",27705,36.008895012,-78.922095064,257,"732 NINTH ST 596, DURHAM, NC, 27705","Match","Exact","732 9TH ST, DURHAM, NC, 27705",635317638,"R"
282758,"732 NORTH LA BREA AVENUE","INGLEWOOD","CA",90302,33.9724277450001,-118.357520165,258,"732 NORTH LA BREA AVENUE, INGLEWOOD, CA, 90302","Match","Exact","732 N LA BREA AVE, INGLEWOOD, CA, 90302",142749670,"R"
282759,"732 NOTRE DAME DR","MATTESON","IL",60443,41.5124901080001,-87.74938787,259,"732 NOTRE DAME DR, MATTESON, IL, 60443","Match","Exact","732 NOTRE DAME DR, MATTESON, IL, 60443",111707874,"R"
282760,"732 OLD MILL LN","LEXINGTON","KY",40514,37.976467782,-84.550569012,260,"732 OLD MILL LN, LEXINGTON, KY, 40514","Match","Exact","732 OLD MILL LN, LEXINGTON, KY, 40514",31938374,"L"
282761,"732 PAT THOMAS PARKWAY","QUINCY","FL",32351,30.576662307,-84.59247207,261,"732 PAT THOMAS PARKWAY, QUINCY, FL, 32351","Match","Exact","732 PAT THOMAS PKWY, QUINCY, FL, 32351",610795888,"L"
282762,"732 PEACHTREE ST EAST","LAKELAND","FL",33801,NA,NA,262,"732 PEACHTREE ST EAST, LAKELAND, FL, 33801","No_Match",NA,NA,NA,NA
282763,"732 PIRATES WAY","CEDARVILLE","AR",72932,35.5717034100001,-94.367282506,263,"732 PIRATES WAY, CEDARVILLE, AR, 72932","Match","Exact","732 PIRATES WAY, CEDARVILLE, AR, 72932",53493764,"R"
282764,"732 PLACER CIRCLE","VACAVILLE","CA",95687,38.324945492,-121.953989662,264,"732 PLACER CIRCLE, VACAVILLE, CA, 95687","Match","Exact","732 PLACER CIR, VACAVILLE, CA, 95687",624538659,"L"
282765,"732 PURITAN STREET","BALTIMORE","MD",21211,39.323344718,-76.629324163,265,"732 PURITAN STREET, BALTIMORE, MD, 21211","Match","Exact","732 PURITAN ST, BALTIMORE, MD, 21211",206407801,"R"
282766,"732 RESERVOIR STREET","BALTIMORE","MD",21217,39.3127970740001,-76.629816895,266,"732 RESERVOIR STREET, BALTIMORE, MD, 21217","Match","Exact","732 RESERVOIR ST, BALTIMORE, MD, 21217",206416827,"R"
282767,"732 ROBINSON PLACE","SHREVEPORT","LA",71104,32.4865548770001,-93.744636339,267,"732 ROBINSON PLACE, SHREVEPORT, LA, 71104","Match","Exact","732 ROBINSON PL, SHREVEPORT, LA, 71104",57438038,"R"
282768,"732 RUSTIC OAKS DR","ANGLETON","TX",77515,29.171646067,-95.446250026,268,"732 RUSTIC OAKS DR, ANGLETON, TX, 77515","Match","Exact","732 RUSTIC OAKS DR, ANGLETON, TX, 77515",651843999,"R"
282769,"732 S 11TH STREET SUITE 119","NILES","MI",49120,NA,NA,269,"732 S 11TH STREET SUITE 119, NILES, MI, 49120","Tie",NA,NA,NA,NA
282770,"732 S CHESTNUT ST","ELIZABETH","CO",80107,39.3560342060001,-104.599972634,270,"732 S CHESTNUT ST, ELIZABETH, CO, 80107","Match","Exact","732 S CHESTNUT ST, ELIZABETH, CO, 80107",130870305,"R"
282771,"732 S CHESTNUT ST","KEWANEE","IL",61443,41.235488966,-89.927896737,271,"732 S CHESTNUT ST, KEWANEE, IL, 61443","Match","Exact","732 S CHESTNUT ST, KEWANEE, IL, 61443",8924273,"R"
282772,"732 S FINANCIAL PL APT 301","CHICAGO","IL",60605,41.8727798080001,-87.632580661,272,"732 S FINANCIAL PL APT 301, CHICAGO, IL, 60605","Match","Non_Exact","732 S FINANCIAL PL, CHICAGO, IL, 60605",111827694,"R"
282773,"732 S STONEMAN AVE","ALHAMBRA","CA",91801,34.088391218,-118.121396966,273,"732 S STONEMAN AVE, ALHAMBRA, CA, 91801","Match","Exact","732 S STONEMAN AVE, ALHAMBRA, CA, 91801",141636583,"L"
282774,"732 SATSOP ROAD WEST","MONTESANO","WA",98563,47.057001832,-123.537982788,274,"732 SATSOP ROAD WEST, MONTESANO, WA, 98563","Match","Exact","732 SATSOP RD W, MONTESANO, WA, 98563",627378509,"R"
282775,"732 SCHUYLKILL AVENUE","READING","PA",19601,40.3471431500001,-75.941294999,275,"732 SCHUYLKILL AVENUE, READING, PA, 19601","Match","Exact","732 SCHUYLKILL AVE, READING, PA, 19601",80444333,"L"
282776,"732 SE RIVER CT","PORT SAINT LUCIE","FM",34983,NA,NA,276,"732 SE RIVER CT, PORT SAINT LUCIE, FM, 34983","No_Match",NA,NA,NA,NA
282777,"732 SOLOMON ROAD","LEASBURG","NC",27291,36.340576437,-79.1612913389999,277,"732 SOLOMON ROAD, LEASBURG, NC, 27291","Match","Exact","732 SOLOMON RD, LEASBURG, NC, 27291",627147203,"R"
282778,"732 SOMMERSBY","DUNDEE","MI",48131,41.968735199,-83.655984417,278,"732 SOMMERSBY, DUNDEE, MI, 48131","Match","Non_Exact","732 SOMMERSBY ST, DUNDEE, MI, 48131",40507758,"R"
282779,"732 SOUTH ST","LOCKPORT","IL",60441,41.5808520900001,-88.047675542,279,"732 SOUTH ST, LOCKPORT, IL, 60441","Match","Exact","732 SOUTH ST, LOCKPORT, IL, 60441",111545268,"L"
282780,"732 SOUTH WALTON AVENUE","YUBA CITY","CA",95993,39.116773401,-121.643870721,280,"732 SOUTH WALTON AVENUE, YUBA CITY, CA, 95993","Match","Exact","732 S WALTON AVE, YUBA CITY, CA, 95993",639022348,"L"
282781,"732 STEPHENS FERRY ROAD","SAMSON","AL",36477,31.028147743,-85.954617838,281,"732 STEPHENS FERRY ROAD, SAMSON, AL, 36477","Match","Exact","732 STEPHENS FERRY RD, SAMSON, AL, 36477",32921056,"L"
282782,"732 STONE FORT DRIVE","MANCHESTER","TN",37355,35.486000502,-86.1020288239999,282,"732 STONE FORT DRIVE, MANCHESTER, TN, 37355","Match","Exact","732 STONE FORT DR, MANCHESTER, TN, 37355",635423695,"L"
282783,"732 STRUTHERS LIBERTY RD","CAMPBELL","OH",44405,41.0825167900001,-80.577214221,283,"732 STRUTHERS LIBERTY RD, CAMPBELL, OH, 44405","Match","Exact","732 STRUTHERS LIBERTY RD, CAMPBELL, OH, 44405",64600957,"L"
282784,"732 SUNCREST LOOP APT 100","CASSELBERRY","FL",32707,28.693235008,-81.3197921029999,284,"732 SUNCREST LOOP APT 100, CASSELBERRY, FL, 32707","Match","Exact","732 SUNCREST LOOP, CASSELBERRY, FL, 32707",632912450,"L"
282785,"732 TAYLOR AVENUE","PITTSBURGH","PA",15202,40.5000799590001,-80.0674064949999,285,"732 TAYLOR AVENUE, PITTSBURGH, PA, 15202","Match","Exact","732 TAYLOR AVE, PITTSBURGH, PA, 15202",51619538,"R"
282786,"732 VOLLMAR RD","CHILLICOTHE","OH",45601,39.42596229,-83.115772281,286,"732 VOLLMAR RD, CHILLICOTHE, OH, 45601","Match","Exact","732 VOLLMAR RD, CHILLICOTHE, OH, 45601",37488357,"R"
282787,"732 W KENNEDALE PARKWAY","KENNEDALE","TX",76060,32.656368458,-97.2316520109999,287,"732 W KENNEDALE PARKWAY, KENNEDALE, TX, 76060","Match","Exact","732 W KENNEDALE PKWY, KENNEDALE, TX, 76060",635830915,"L"
282788,"732 WEST COLLINS DR","CASPER","WY",82601,42.8427133800001,-106.333741683,288,"732 WEST COLLINS DR, CASPER, WY, 82601","Match","Exact","732 W COLLINS DR, CASPER, WY, 82601",647304050,"R"
282789,"732 WEST PHILLIPS STREET UNIT 19","ONTARIO","CA",91762,34.0496406880001,-117.661519762,289,"732 WEST PHILLIPS STREET UNIT 19, ONTARIO, CA, 91762","Match","Exact","732 W PHILLIPS ST, ONTARIO, CA, 91762",640040490,"R"
282790,"732 WOODCOTT DRIVE","CHESAPEAKE","VA",23322,36.685710984,-76.208822245,290,"732 WOODCOTT DRIVE, CHESAPEAKE, VA, 23322","Match","Exact","732 WOODCOTT DR, CHESAPEAKE, VA, 23322",121781118,"L"
282791,"732 YASHA CT","ALPHARETTA","GA",30005,NA,NA,291,"732 YASHA CT, ALPHARETTA, GA, 30005","No_Match",NA,NA,NA,NA
282792,"732-E EDEN WAY NORTH -230","CHESAPEAKE","VA",23320,36.7717256170001,-76.2434234959999,292,"732-E EDEN WAY NORTH -230, CHESAPEAKE, VA, 23320","Match","Exact","732 EDEN WAY N, CHESAPEAKE, VA, 23320",121772983,"L"
282793,"732","LANSING","MI",48915,NA,NA,293,"732, LANSING, MI, 48915","No_Match",NA,NA,NA,NA
282794,"7320 BETHSAIDA DR","RIVERDALE","GA",30296,33.556002345,-84.458568897,294,"7320 BETHSAIDA DR, RIVERDALE, GA, 30296","Match","Exact","7320 BETHSAIDA DR, RIVERDALE, GA, 30296",17351633,"L"
282795,"7320 BOUNTY DR","SARASOTA","FL",34231,27.250603965,-82.5032562,295,"7320 BOUNTY DR, SARASOTA, FL, 34231","Match","Exact","7320 BOUNTY DR, SARASOTA, FL, 34231",16425621,"R"
282796,"7320 BROAD RIVER RD STE K-242","IRMO","SC",29063,34.0960030460001,-81.1595668969999,296,"7320 BROAD RIVER RD STE K-242, IRMO, SC, 29063","Match","Exact","7320 BROAD RIVER RD, IRMO, SC, 29063",640029066,"R"
282797,"7320 BROAD RIVER ROAD STE K222","IRMO","SC",29045,34.0960030460001,-81.1595668969999,297,"7320 BROAD RIVER ROAD STE K222, IRMO, SC, 29045","Match","Non_Exact","7320 BROAD RIVER RD, IRMO, SC, 29063",640029066,"R"
282798,"7320 EAST FLETCHER AVENUE 1ST FLOOR","TAMPA","FL",33637,NA,NA,298,"7320 EAST FLETCHER AVENUE 1ST FLOOR, TAMPA, FL, 33637","No_Match",NA,NA,NA,NA
282799,"7320 EAST FLETCHER AVENUE","TAMPA","FL",33637,NA,NA,299,"7320 EAST FLETCHER AVENUE, TAMPA, FL, 33637","No_Match",NA,NA,NA,NA
282800,"7320 FAIRMOUNT HIGHWAY","CALHOUN","GA",30701,34.448264818,-84.8336038039999,300,"7320 FAIRMOUNT HIGHWAY, CALHOUN, GA, 30701","Match","Non_Exact","7320 FAIRMOUNT HWY SE, CALHOUN, GA, 30701",612308825,"R"
282801,"7320 FARINGTON COURT","ORLANDO","FL",32819,28.4684808960001,-81.481883575,301,"7320 FARINGTON COURT, ORLANDO, FL, 32819","Match","Exact","7320 FARINGTON CT, ORLANDO, FL, 32819",94359061,"L"
282802,"7320 GLENROIE AVE UNIT 4G","NORFOLK","VA",23505,36.910431483,-76.300188368,302,"7320 GLENROIE AVE UNIT 4G, NORFOLK, VA, 23505","Match","Exact","7320 GLENROIE AVE, NORFOLK, VA, 23505",649882234,"R"
282803,"7320 HARRISON ST","RALSTON","NE",68128,41.19065356,-96.0250215739999,303,"7320 HARRISON ST, RALSTON, NE, 68128","Match","Exact","7320 HARRISON ST, RALSTON, NE, 68128",28501675,"R"
282804,"7320 HIGHLAND DRIVE","EVERETT","WA",98203,47.932219995,-122.214634097,304,"7320 HIGHLAND DRIVE, EVERETT, WA, 98203","Match","Exact","7320 HIGHLAND DR, EVERETT, WA, 98203",187746750,"R"
282805,"7320 HUNTERBROOK DRIVE","MECHANICSVILLE","VA",23111,37.606409268,-77.350533403,305,"7320 HUNTERBROOK DRIVE, MECHANICSVILLE, VA, 23111","Match","Exact","7320 HUNTERBROOK DR, MECHANICSVILLE, VA, 23111",84962569,"R"
282806,"7320 LOBAUGH ST UNIT C","FORT MEADE","MD",20755,39.116414116,-76.762625156,306,"7320 LOBAUGH ST UNIT C, FORT MEADE, MD, 20755","Match","Exact","7320 LOBAUGH ST, FORT MEADE, MD, 20755",68153398,"L"
282807,"7320 MCWHORTER PL","ANNANDALE","VA",22003,38.8287810580001,-77.198831384,307,"7320 MCWHORTER PL, ANNANDALE, VA, 22003","Match","Exact","7320 MCWHORTER PL, ANNANDALE, VA, 22003",75980386,"R"
282808,"7320 N LA CHOLLA BLVD STE 154 183","TUCSON","AZ",85741,32.340030174,-111.012719901,308,"7320 N LA CHOLLA BLVD STE 154 183, TUCSON, AZ, 85741","Match","Non_Exact","7320 N LA CHOLLA BLVD, TUCSON, AZ, 85741",652597068,"R"
282809,"7320 N SHERIDAN RD APARTMENT 511","CHICAGO","IL",60626,42.0145951200001,-87.66445254,309,"7320 N SHERIDAN RD APARTMENT 511, CHICAGO, IL, 60626","Match","Non_Exact","7320 N SHERIDAN RD, CHICAGO, IL, 60626",111745296,"L"
282810,"7320 N SPUR ROAD","PRESCOTT","AZ",86305,34.647872969,-112.50452418,310,"7320 N SPUR ROAD, PRESCOTT, AZ, 86305","Match","Exact","7320 N SPUR RD, PRESCOTT, AZ, 86305",159450439,"L"
282811,"7320 NW 16TH STREET","PLANTATION","FL",33313,26.1445524850001,-80.247022107,311,"7320 NW 16TH STREET, PLANTATION, FL, 33313","Match","Exact","7320 NW 16TH ST, PLANTATION, FL, 33313",114704241,"L"
282812,"7320 REMCON CIRCLE","EL PASO","TX",79912,31.8399771410001,-106.565032451,312,"7320 REMCON CIRCLE, EL PASO, TX, 79912","Match","Exact","7320 REMCON CIR, EL PASO, TX, 79912",189412368,"R"
282813,"7320 RESEDA BLVD UNIT 371422","RESEDA","CA",91337,34.203402356,-118.536043319,313,"7320 RESEDA BLVD UNIT 371422, RESEDA, CA, 91337","Match","Non_Exact","7320 RESEDA BLVD, RESEDA, CA, 91335",141541717,"R"
282814,"7320 ROOSEVELT BOULEVARD","ELKRIDGE","MD",21075,39.1843448280001,-76.765257001,314,"7320 ROOSEVELT BOULEVARD, ELKRIDGE, MD, 21075","Match","Exact","7320 ROOSEVELT BLVD, ELKRIDGE, MD, 21075",158963291,"R"
282815,"7320 SIX FORKS RD STE 100","RALEIGH","NC",27615,35.879533166,-78.645837806,315,"7320 SIX FORKS RD STE 100, RALEIGH, NC, 27615","Match","Exact","7320 SIX FORKS RD, RALEIGH, NC, 27615",72496185,"R"
282816,"7320 SMITH STATION ROAD","FREDERICKSBURG","VA",22407,38.252524238,-77.5789065339999,316,"7320 SMITH STATION ROAD, FREDERICKSBURG, VA, 22407","Match","Exact","7320 SMITH STATION RD, FREDERICKSBURG, VA, 22407",228797767,"L"
282817,"7320 SOUTH STONY ISLAND AVENUE","CHICAGO","IL",60649,41.7617951230001,-87.586219232,317,"7320 SOUTH STONY ISLAND AVENUE, CHICAGO, IL, 60649","Match","Exact","7320 S STONY ISLAND AVE, CHICAGO, IL, 60649",111774675,"R"
282818,"7320 STAR GREIG DRIVE","ALMA","AR",72921,35.4536299370001,-94.250936149,318,"7320 STAR GREIG DRIVE, ALMA, AR, 72921","Match","Exact","7320 STAR GREIG DR, ALMA, AR, 72921",53493373,"L"
282819,"7320 TRICIA ROAD NE","ALBUQUERQUE","NM",87113,35.1811354640001,-106.563579622,319,"7320 TRICIA ROAD NE, ALBUQUERQUE, NM, 87113","Match","Exact","7320 TRICIA RD NE, ALBUQUERQUE, NM, 87113",206757185,"R"
282820,"7320 TUSCANY WAY","FARMINGTON","NM",87402,NA,NA,320,"7320 TUSCANY WAY, FARMINGTON, NM, 87402","No_Match",NA,NA,NA,NA
282821,"7320 W BENTON DR","FRANKFORT","IL",60423,41.531367431,-87.7945768549999,321,"7320 W BENTON DR, FRANKFORT, IL, 60423","Match","Exact","7320 W BENTON DR, FRANKFORT, IL, 60423",111551338,"L"
282822,"7320 WINONA AVE N 103","SEATTLE","WA",98103,47.6820209380001,-122.346071489,322,"7320 WINONA AVE N 103, SEATTLE, WA, 98103","Match","Exact","7320 WINONA AVE N, SEATTLE, WA, 98103",186579446,"R"
282823,"7321 ALBA ST","HOUSTON","TX",77088,29.866200662,-95.421994227,323,"7321 ALBA ST, HOUSTON, TX, 77088","Match","Exact","7321 ALBA ST, HOUSTON, TX, 77088",96155527,"L"
282824,"7321 CANTERBURY ST","NEW ORLEANS","LA",70126,30.0311007710001,-90.0120837589999,324,"7321 CANTERBURY ST, NEW ORLEANS, LA, 70126","Match","Exact","7321 CANTERBURY ST, NEW ORLEANS, LA, 70126",191705076,"R"
282825,"7321 DOGWOOD RD","EXCELSIOR","MN",55331,44.8718717140001,-93.606353578,325,"7321 DOGWOOD RD, EXCELSIOR, MN, 55331","Match","Exact","7321 DOGWOOD RD, EXCELSIOR, MN, 55331",43502126,"L"
282826,"7321 FINNS LANE","LANHAM","MD",20706,38.9595024330001,-76.886591801,326,"7321 FINNS LANE, LANHAM, MD, 20706","Match","Exact","7321 FINNS LN, LANHAM, MD, 20706",76308886,"R"
282827,"7321 GREENHILL RD FL 2","PHILADELPHIA","PA",19151,39.979041034,-75.266659739,327,"7321 GREENHILL RD FL 2, PHILADELPHIA, PA, 19151","Match","Exact","7321 GREENHILL RD, PHILADELPHIA, PA, 19151",131392977,"R"
282828,"7321 N TAMERA AVE","FRESNO","CA",93711,36.842070295,-119.854840966,328,"7321 N TAMERA AVE, FRESNO, CA, 93711","Match","Exact","7321 N TAMERA AVE, FRESNO, CA, 93711",197646091,"L"
282829,"7321 PARKWAY DR","HANOVER","MD",21076,39.1744925720001,-76.732645411,329,"7321 PARKWAY DR, HANOVER, MD, 21076","Match","Exact","7321 PARKWAY DR, HANOVER, MD, 21076",68210503,"L"
282830,"7321 PASSYUNK AVENUE","PHILADELPHIA","PA",19142,39.9133543950001,-75.241376869,330,"7321 PASSYUNK AVENUE, PHILADELPHIA, PA, 19142","Match","Exact","7321 PASSYUNK AVE, PHILADELPHIA, PA, 19142",131408599,"R"
282831,"7321 RAGING RIDGE RD","HARRISBURG","NC",28075,35.3080764470001,-80.637091149,331,"7321 RAGING RIDGE RD, HARRISBURG, NC, 28075","Match","Exact","7321 RAGING RIDGE RD, HARRISBURG, NC, 28075",648811297,"R"
282832,"7321 RAGING RIDGE ROAD","HARRISBURG","NC",28075,35.3080764470001,-80.637091149,332,"7321 RAGING RIDGE ROAD, HARRISBURG, NC, 28075","Match","Exact","7321 RAGING RIDGE RD, HARRISBURG, NC, 28075",648811297,"R"
282833,"7321 S 4270 ROAD","SOUTH COFFEYVILLE","OK",74072,NA,NA,333,"7321 S 4270 ROAD, SOUTH COFFEYVILLE, OK, 74072","No_Match",NA,NA,NA,NA
282834,"7321 SOUTH ABERDEEN STREET","CHICAGO","IL",60621,41.7609985230001,-87.65157434,334,"7321 SOUTH ABERDEEN STREET, CHICAGO, IL, 60621","Match","Exact","7321 S ABERDEEN ST, CHICAGO, IL, 60621",111830925,"L"
282835,"7321 SPOLETO LOOP","FAIRBURN","GA",30213,33.579525244,-84.6294078399999,335,"7321 SPOLETO LOOP, FAIRBURN, GA, 30213","Match","Exact","7321 SPOLETO LOOP, FAIRBURN, GA, 30213",629549064,"L"
282836,"7321 TIMBER TRAIL RD","EVERGREEN","CO",80439,39.58326356,-105.377456353,336,"7321 TIMBER TRAIL RD, EVERGREEN, CO, 80439","Match","Exact","7321 TIMBER TRAIL RD, EVERGREEN, CO, 80439",177758599,"R"
282837,"7321 VERDUGO CRESTLINE DR","TUJUNGA","CA",91042,34.2455531030001,-118.293163371,337,"7321 VERDUGO CRESTLINE DR, TUJUNGA, CA, 91042","Match","Exact","7321 VERDUGO CRESTLINE DR, TUJUNGA, CA, 91042",141803885,"R"
282838,"7321 W  MARINE DRIVE","MILWAUKEE","WI",53223,43.1818216930001,-88.0013896469999,338,"7321 W  MARINE DRIVE, MILWAUKEE, WI, 53223","Match","Exact","7321 W MARINE DR, MILWAUKEE, WI, 53223",632158961,"L"
282839,"7321 WATERSTON","NEW ALBANY","OH",43054,40.0647398900001,-82.825536368,339,"7321 WATERSTON, NEW ALBANY, OH, 43054","Match","Exact","7321 WATERSTON, NEW ALBANY, OH, 43054",619522798,"L"
282840,"7322 CLAVIN STREET","JACKSONVILLE","FL",32205,NA,NA,340,"7322 CLAVIN STREET, JACKSONVILLE, FL, 32205","No_Match",NA,NA,NA,NA
282841,"7322 CYPRESS PRAIRIE DR","HOUSTON","TX",77433,29.8855831500001,-95.722760438,341,"7322 CYPRESS PRAIRIE DR, HOUSTON, TX, 77433","Match","Non_Exact","7322 CYPRESS PRAIRIE DR, CYPRESS, TX, 77433",637078684,"R"
282842,"7322 GILA CT","PALMDALE","CA",93551,34.6432032770001,-118.260797746,342,"7322 GILA CT, PALMDALE, CA, 93551","Match","Exact","7322 GILA CT, PALMDALE, CA, 93551",141832956,"R"
282843,"7322 N 73RD DR","GLENDALE","AZ",85303,33.5423818140001,-112.21561295,343,"7322 N 73RD DR, GLENDALE, AZ, 85303","Match","Exact","7322 N 73RD DR, GLENDALE, AZ, 85303",243918806,"L"
282844,"7322 OLD TUCKALEECHEE ROAD","TOWNSEND","TN",37882,35.6723154220001,-83.77634633,344,"7322 OLD TUCKALEECHEE ROAD, TOWNSEND, TN, 37882","Match","Exact","7322 OLD TUCKALEECHEE RD, TOWNSEND, TN, 37882",607466117,"L"
282845,"7322 PARELL ROAD","AUBURN","NY",13021,NA,NA,345,"7322 PARELL ROAD, AUBURN, NY, 13021","No_Match",NA,NA,NA,NA
282846,"7322 SOUTHWEST FREEWAY STE 420","HOUSTON","TX",77074,NA,NA,346,"7322 SOUTHWEST FREEWAY STE 420, HOUSTON, TX, 77074","No_Match",NA,NA,NA,NA
282847,"7322 SOUTHWEST FREEWAY SUITE 2010","HOUSTON","TX",77074,NA,NA,347,"7322 SOUTHWEST FREEWAY SUITE 2010, HOUSTON, TX, 77074","No_Match",NA,NA,NA,NA
282848,"7322 SOUTHWEST FREEWAY SUITE 722","HOUSTON","TX",77074,NA,NA,348,"7322 SOUTHWEST FREEWAY SUITE 722, HOUSTON, TX, 77074","No_Match",NA,NA,NA,NA
282849,"7322 SOUTHWEST FREEWAY","HOUSTON","TX",77074,NA,NA,349,"7322 SOUTHWEST FREEWAY, HOUSTON, TX, 77074","No_Match",NA,NA,NA,NA
282850,"7322 SOUTHWEST FRWY - SUITE 800","HOUSTON","TX",77074,NA,NA,350,"7322 SOUTHWEST FRWY - SUITE 800, HOUSTON, TX, 77074","No_Match",NA,NA,NA,NA
282851,"7322 TICONDEROGA ROAD","DOWNERS GROVE","IL",60516,41.754161078,-88.023422863,351,"7322 TICONDEROGA ROAD, DOWNERS GROVE, IL, 60516","Match","Exact","7322 TICONDEROGA RD, DOWNERS GROVE, IL, 60516",639893118,"L"
282852,"7322 TIMBERLAKE DRIVE","SUGAR LAND","TX",77479,29.5536123570001,-95.6783760119999,352,"7322 TIMBERLAKE DRIVE, SUGAR LAND, TX, 77479","Match","Exact","7322 TIMBERLAKE DR, SUGAR LAND, TX, 77479",642468343,"R"
282853,"7322 TULANE AVENUE","UNIVERSITY CITY","MO",63130,38.6623957090001,-90.325560337,353,"7322 TULANE AVENUE, UNIVERSITY CITY, MO, 63130","Match","Exact","7322 TULANE AVE, UNIVERSITY CITY, MO, 63130",100134291,"L"
282854,"7322 W ST CHARLES AVE","LAVEEN","AZ",85339,33.385595134,-112.216432093,354,"7322 W ST CHARLES AVE, LAVEEN, AZ, 85339","Match","Exact","7322 W ST CHARLES AVE, LAVEEN, AZ, 85339",608156015,"R"
282855,"7322 WELLFORD LN","GLOUCESTER","VA",23061,37.413835476,-76.4870138429999,355,"7322 WELLFORD LN, GLOUCESTER, VA, 23061","Match","Exact","7322 WELLFORD LN, GLOUCESTER, VA, 23061",168198948,"L"
282856,"7323 179TH STREET","FRESH MEADOWS","NY",11366,NA,NA,356,"7323 179TH STREET, FRESH MEADOWS, NY, 11366","No_Match",NA,NA,NA,NA
282857,"7323 25TH AVE NW","SEATTLE","WA",98117,47.6816235370001,-122.388701456,357,"7323 25TH AVE NW, SEATTLE, WA, 98117","Match","Exact","7323 25TH AVE NW, SEATTLE, WA, 98117",239768770,"L"
282858,"7323 25TH AVENUE NW","SEATTLE","WA",98117,47.6816235370001,-122.388701456,358,"7323 25TH AVENUE NW, SEATTLE, WA, 98117","Match","Exact","7323 25TH AVE NW, SEATTLE, WA, 98117",239768770,"L"
282859,"7323 BRUNSWICK RD","ARLINGTON","TN",38002,35.3264813690001,-89.760514358,359,"7323 BRUNSWICK RD, ARLINGTON, TN, 38002","Match","Exact","7323 BRUNSWICK RD, ARLINGTON, TN, 38002",617844006,"L"
282860,"7323 CONVOY CT STE B107","SAN DIEGO","CA",92111,32.8346875560001,-117.160605872,360,"7323 CONVOY CT STE B107, SAN DIEGO, CA, 92111","Match","Exact","7323 CONVOY CT, SAN DIEGO, CA, 92111",195305100,"R"
282861,"7323 E NEWBYS CROSSING DRIVE","CHESTERFIELD","VA",23235,37.4645746030001,-77.532493514,361,"7323 E NEWBYS CROSSING DRIVE, CHESTERFIELD, VA, 23235","Match","Non_Exact","7323 NEWBYS CROSSING DR, NORTH CHESTERFIELD, VA, 23235",223163911,"L"
282862,"7323 FAIRWAY VISTA DRIVE","CHARLOTTE","NC",28226,35.1101599830001,-80.810303961,362,"7323 FAIRWAY VISTA DRIVE, CHARLOTTE, NC, 28226","Match","Exact","7323 FAIRWAY VISTA DR, CHARLOTTE, NC, 28226",70563757,"L"
282863,"7323 MARLBORO PIKE","DISTRICT HEIGHTS","MD",20747,38.8483786050001,-76.879530197,363,"7323 MARLBORO PIKE, DISTRICT HEIGHTS, MD, 20747","Match","Exact","7323 MARLBORO PIKE, DISTRICT HEIGHTS, MD, 20747",76318817,"R"
282864,"7323 SOMERSET HILL LANE","RICHMOND","TX",77407,29.6972754,-95.7394652419999,364,"7323 SOMERSET HILL LANE, RICHMOND, TX, 77407","Match","Exact","7323 SOMERSET HILL LN, RICHMOND, TX, 77407",628067157,"L"
282865,"7323 TANGLE BEND DR","GIBSONTON","FL",33534,27.831556258,-82.37608713,365,"7323 TANGLE BEND DR, GIBSONTON, FL, 33534","Match","Non_Exact","7323 TANGLE POND WAY, GIBSONTON, FL, 33534",624515835,"L"
282866,"7323 ZANCADA CT","RANCHO MURIETA","CA",95683,38.492601628,-121.077591001,366,"7323 ZANCADA CT, RANCHO MURIETA, CA, 95683","Match","Exact","7323 ZANCADA CT, RANCHO MURIETA, CA, 95683",133418239,"R"
282867,"7323-C 20TH AVENUE","BROOKLYN","NY",11204,40.611853265,-73.9907065629999,367,"7323-C 20TH AVENUE, BROOKLYN, NY, 11204","Match","Exact","7323 20TH AVE, BROOKLYN, NY, 11204",59088460,"L"
282868,"7324 BRAMBLEWOOD RD","FORTH WORTH","TX",76133,32.6393139520001,-97.383119763,368,"7324 BRAMBLEWOOD RD, FORTH WORTH, TX, 76133","Match","Exact","7324 BRAMBLEWOOD RD, FORT WORTH, TX, 76133",101883312,"R"
282869,"7324 FRANKLIN PARKE LANE","INDIANAPOLIS","IN",46259,39.665995718,-86.0383351469999,369,"7324 FRANKLIN PARKE LANE, INDIANAPOLIS, IN, 46259","Match","Exact","7324 FRANKLIN PARKE LN, INDIANAPOLIS, IN, 46259",108065827,"L"
282870,"7324 GASTON AVE 124 STE 173","DALLAS","TX",75214,32.8118259,-96.73071645,370,"7324 GASTON AVE 124 STE 173, DALLAS, TX, 75214","Match","Exact","7324 GASTON AVE, DALLAS, TX, 75214",103200892,"R"
282871,"7324 GASTON AVE SUITE 124-139","DALLAS","TX",75214,32.8118259,-96.73071645,371,"7324 GASTON AVE SUITE 124-139, DALLAS, TX, 75214","Match","Exact","7324 GASTON AVE, DALLAS, TX, 75214",103200892,"R"
282872,"7324 GASTON AVENUE SUITE 124-191","DALLAS","TX",75214,32.8118259,-96.73071645,372,"7324 GASTON AVENUE SUITE 124-191, DALLAS, TX, 75214","Match","Exact","7324 GASTON AVE, DALLAS, TX, 75214",103200892,"R"
282873,"7324 GREENWAY DRIVE","JACKSONVILLE","FL",32244,30.215769929,-81.707905604,373,"7324 GREENWAY DRIVE, JACKSONVILLE, FL, 32244","Match","Exact","7324 GREENWAY DR, JACKSONVILLE, FL, 32244",83914437,"R"
282874,"7324 KELLY DRIVE","NORRISTOWN","PA",19401,40.11058838,-75.3282131889999,374,"7324 KELLY DRIVE, NORRISTOWN, PA, 19401","Match","Exact","7324 KELLY DR, NORRISTOWN, PA, 19401",635653586,"R"
282875,"7324 N CRAWFORD AVENUE","LINCOLNWOOD","IL",60712,42.0140203170001,-87.72852355,375,"7324 N CRAWFORD AVENUE, LINCOLNWOOD, IL, 60712","Match","Exact","7324 N CRAWFORD AVE, LINCOLNWOOD, IL, 60712",111741934,"L"
282876,"7324 REYNARD LN","CHARLOTTE","NC",28215,35.2507655860001,-80.6463800019999,376,"7324 REYNARD LN, CHARLOTTE, NC, 28215","Match","Exact","7324 REYNARD LN, CHARLOTTE, NC, 28215",70518218,"R"
282877,"7324 RISING RD","KNOXVILLE","TN",37924,36.043061433,-83.82104235,377,"7324 RISING RD, KNOXVILLE, TN, 37924","Match","Exact","7324 RISING RD, KNOXVILLE, TN, 37924",653289685,"R"
282878,"7324 S  SOUTH SHORE DR","CHICAGO","IL",60649,41.7635176570001,-87.560081917,378,"7324 S  SOUTH SHORE DR, CHICAGO, IL, 60649","Match","Exact","7324 S SOUTH SHORE DR, CHICAGO, IL, 60649",111775780,"R"
282879,"7324 SOUTHWEST FWY STE 1478","HOUSTON","TX",77074,29.703923827,-95.514134871,379,"7324 SOUTHWEST FWY STE 1478, HOUSTON, TX, 77074","Match","Exact","7324 SOUTHWEST FWY, HOUSTON, TX, 77074",96608982,"R"
282880,"7324 W SAN BRUNO AVE","FRESNO","CA",93723,36.812531946,-119.922445963,380,"7324 W SAN BRUNO AVE, FRESNO, CA, 93723","Match","Exact","7324 W SAN BRUNO AVE, FRESNO, CA, 93723",642194039,"R"
282881,"7324 WIMBERLY LANE","MONTGOMERY","AL",36117,32.3622567350001,-86.142441521,381,"7324 WIMBERLY LANE, MONTGOMERY, AL, 36117","Match","Exact","7324 WIMBERLY LN, MONTGOMERY, AL, 36117",1546910,"R"
282882,"73240 ROMEO PLANK ROAD","ARMADA","MI",48005,42.8366214280001,-82.9638798399999,382,"73240 ROMEO PLANK ROAD, ARMADA, MI, 48005","Match","Exact","73240 ROMEO PLANK RD, ARMADA, MI, 48005",110694689,"L"
282883,"7325 8TH AVE SE","LINTON","ND",58552,46.353603692,-100.252842775,383,"7325 8TH AVE SE, LINTON, ND, 58552","Match","Exact","7325 8TH AVE SE, LINTON, ND, 58552",198078867,"L"
282884,"7325 90TH TRAIL N","BROOKLYN PARK","MN",55445,45.117891625,-93.373328234,384,"7325 90TH TRAIL N, BROOKLYN PARK, MN, 55445","Match","Exact","7325 90TH TRL N, BROOKLYN PARK, MN, 55445",43858205,"R"
282885,"7325 BALSON AVENUE 2W","UNIVERSITY CITY","MO",63130,38.6640058620001,-90.326603163,385,"7325 BALSON AVENUE 2W, UNIVERSITY CITY, MO, 63130","Match","Exact","7325 BALSON AVE, UNIVERSITY CITY, MO, 63130",100134289,"R"
282886,"7325 BERNICE SUITE 4","CENTER LINE","MI",48015,42.4881518070001,-83.031508907,386,"7325 BERNICE SUITE 4, CENTER LINE, MI, 48015","Match","Non_Exact","7325 BERNICE ST, CENTER LINE, MI, 48015",110676506,"L"
282887,"7325 CENTENNIAL ROAD","DERWOOD","MD",20855,39.125579702,-77.149877277,387,"7325 CENTENNIAL ROAD, DERWOOD, MD, 20855","Match","Exact","7325 CENTENNIAL RD, DERWOOD, MD, 20855",62052271,"R"
282888,"7325 E CLAREMONT ST","SCOTTSDALE","AZ",85250,33.528016418,-111.923023225,388,"7325 E CLAREMONT ST, SCOTTSDALE, AZ, 85250","Match","Exact","7325 E CLAREMONT ST, SCOTTSDALE, AZ, 85250",128228904,"R"
282889,"7325 GLENBURN DR","FOUNTAIN","CO",80817,38.708850393,-104.693632626,389,"7325 GLENBURN DR, FOUNTAIN, CO, 80817","Match","Exact","7325 GLENBURN DR, FOUNTAIN, CO, 80817",647964650,"L"
282890,"7325 GLENWICK BLVD","INDPLS","IN",46217,39.662296774,-86.178310467,390,"7325 GLENWICK BLVD, INDPLS, IN, 46217","Match","Exact","7325 GLENWICK BLVD, INDIANAPOLIS, IN, 46217",108046223,"R"
282891,"7325 GREAT NORTHERN TRAIL","UNION","IL",60180,42.221549259,-88.543718879,391,"7325 GREAT NORTHERN TRAIL, UNION, IL, 60180","Match","Exact","7325 GREAT NORTHERN TRL, UNION, IL, 60180",623816756,"L"
282892,"7325 HICKORYCREEK","NOBLE","OK",73068,NA,NA,392,"7325 HICKORYCREEK, NOBLE, OK, 73068","No_Match",NA,NA,NA,NA
282893,"7325 KERMIT","FORT WORTH","TX",76116,32.714067211,-97.44223071,393,"7325 KERMIT, FORT WORTH, TX, 76116","Match","Non_Exact","7325 KERMIT AVE, FORT WORTH, TX, 76116",101878914,"L"
282894,"7325 N LEONARD ST","PORTLAND","OR",97203,45.58848433,-122.741861422,394,"7325 N LEONARD ST, PORTLAND, OR, 97203","Match","Exact","7325 N LEONARD ST, PORTLAND, OR, 97203",157493814,"R"
282895,"7325 NE IMBRIE DRIVE  SUITE 171","HILLSBORO","OR",97124,45.550197504,-122.904507466,395,"7325 NE IMBRIE DRIVE  SUITE 171, HILLSBORO, OR, 97124","Match","Non_Exact","7325 NW IMBRIE DR, HILLSBORO, OR, 97124",158225085,"R"
282896,"7325 S INDIANA AVE","CHICAGO","IL",60619,41.7614416490001,-87.619981421,396,"7325 S INDIANA AVE, CHICAGO, IL, 60619","Match","Exact","7325 S INDIANA AVE, CHICAGO, IL, 60619",111772310,"L"
282897,"7325 SCIOTO PARKWAY","POWELL","OH",43065,40.201980301,-83.130355532,397,"7325 SCIOTO PARKWAY, POWELL, OH, 43065","Match","Exact","7325 SCIOTO PKWY, POWELL, OH, 43065",212999983,"R"
282898,"7325 SOUTHWEST FRWY STE 560","HOUSTON","TX",77074,NA,NA,398,"7325 SOUTHWEST FRWY STE 560, HOUSTON, TX, 77074","No_Match",NA,NA,NA,NA
282899,"7325 W MICHELANGELO DRIVE","SPRINGFIELD","MO",65803,37.266079457,-93.4342866439999,399,"7325 W MICHELANGELO DRIVE, SPRINGFIELD, MO, 65803","Match","Exact","7325 W MICHELANGELO DR, SPRINGFIELD, MO, 65803",76693456,"R"
282900,"7326 BYRON STREET NE","OLYMPIA","WA",98506,47.1378917760001,-122.895851963,400,"7326 BYRON STREET NE, OLYMPIA, WA, 98506","Match","Exact","7326 BYRON ST NE, OLYMPIA, WA, 98506",180971533,"R"
282901,"7326 E 71ST","INDIANAPOLIS","IN",46256,NA,NA,401,"7326 E 71ST, INDIANAPOLIS, IN, 46256","No_Match",NA,NA,NA,NA
282902,"7326 EAST BANK DRIVE","TAMPA","FL",33617,28.014742444,-82.4109088279999,402,"7326 EAST BANK DRIVE, TAMPA, FL, 33617","Match","Exact","7326 E BANK DR, TAMPA, FL, 33617",104555553,"R"
282903,"7326 ETHANS WAY","BURLINGTON","NC",27215,36.070221173,-79.544512776,403,"7326 ETHANS WAY, BURLINGTON, NC, 27215","Match","Exact","7326 ETHANS WAY, BURLINGTON, NC, 27215",617534868,"L"
282904,"7326 GERMANTOWN AVE APT G1","PHILADELPHIA","PA",19119,40.061686067,-75.19219164,404,"7326 GERMANTOWN AVE APT G1, PHILADELPHIA, PA, 19119","Match","Exact","7326 GERMANTOWN AVE, PHILADELPHIA, PA, 19119",613243583,"L"
282905,"7326 JORDAN AVENUE","CANOGA PARK","CA",91303,34.2033950970001,-118.602854053,405,"7326 JORDAN AVENUE, CANOGA PARK, CA, 91303","Match","Exact","7326 JORDAN AVE, CANOGA PARK, CA, 91303",141533212,"R"
282906,"7326 KINGSLAND DR","MEMPHIS","TN",38125,35.03924534,-89.8192821009999,406,"7326 KINGSLAND DR, MEMPHIS, TN, 38125","Match","Exact","7326 KINGSLAND DR, MEMPHIS, TN, 38125",72942929,"L"
282907,"7326 ROYAL PALM BLVD","MARGATE","FL",33063,26.2531533000001,-80.224450104,407,"7326 ROYAL PALM BLVD, MARGATE, FL, 33063","Match","Exact","7326 ROYAL PALM BLVD, MARGATE, FL, 33063",639363318,"R"
282908,"7326 SOUTH HALSTED STREET","CHICAGO","IL",60621,41.761014464,-87.644311253,408,"7326 SOUTH HALSTED STREET, CHICAGO, IL, 60621","Match","Exact","7326 S HALSTED ST, CHICAGO, IL, 60621",111831012,"R"
282909,"7326 SOUTH HALSTED","CHICAGO","IL",60621,41.761014464,-87.644311253,409,"7326 SOUTH HALSTED, CHICAGO, IL, 60621","Match","Non_Exact","7326 S HALSTED ST, CHICAGO, IL, 60621",111831012,"R"
282910,"7326 SPRING VALLEY ROAD","DALLAS","TX",75254,32.9399059240001,-96.777738668,410,"7326 SPRING VALLEY ROAD, DALLAS, TX, 75254","Match","Exact","7326 SPRING VALLEY RD, DALLAS, TX, 75254",102900916,"R"
282911,"7326 W 151ST ST S","KIEFER","OK",74041,35.9420445330001,-96.073658358,411,"7326 W 151ST ST S, KIEFER, OK, 74041","Match","Exact","7326 W 151ST ST S, KIEFER, OK, 74041",653019424,"R"
282912,"7327 BLUE OAK RD","RIVERSIDE","CA",92507,34.014625127,-117.303686077,412,"7327 BLUE OAK RD, RIVERSIDE, CA, 92507","Match","Exact","7327 BLUE OAK RD, RIVERSIDE, CA, 92507",646299114,"L"
282913,"7327 HOVINGHAM","SAN ANTONIO","TX",78257,29.6717687450001,-98.6284686769999,413,"7327 HOVINGHAM, SAN ANTONIO, TX, 78257","Match","Exact","7327 HOVINGHAM, SAN ANTONIO, TX, 78257",627894811,"R"
282914,"7327 PASEO CAPUCHINA","CARLSBAD","CA",92009,33.087195104,-117.22803433,414,"7327 PASEO CAPUCHINA, CARLSBAD, CA, 92009","Match","Non_Exact","7327 PSO CAPUCHINA, CARLSBAD, CA, 92009",195767731,"L"
282915,"7327 SW BARNES ROAD APT 505","PORTLAND","OR",97225,45.5160619270001,-122.751975198,415,"7327 SW BARNES ROAD APT 505, PORTLAND, OR, 97225","Match","Non_Exact","7327 SW BARNES RD, PORTLAND, OR, 97225",158188027,"R"
282916,"7327 WINDSOR MILL RD","BALTIMORE","MD",21244,39.339687634,-76.758704299,416,"7327 WINDSOR MILL RD, BALTIMORE, MD, 21244","Match","Exact","7327 WINDSOR MILL RD, BALTIMORE, MD, 21244",191467396,"L"
282917,"7328 BROOK LOOP","BISMARCK","ND",58503,46.8843250680001,-100.706887768,417,"7328 BROOK LOOP, BISMARCK, ND, 58503","Match","Exact","7328 BROOK LOOP, BISMARCK, ND, 58503",624945138,"L"
282918,"7328 EAST 1450 NORTH","HUNTSVILLE","UT",84317,41.2851583510001,-111.772645614,418,"7328 EAST 1450 NORTH, HUNTSVILLE, UT, 84317","Match","Exact","7328 E 1450 N, HUNTSVILLE, UT, 84317",637209923,"L"
282919,"7328 FORBES AVE","LAKE BALBOA","CA",91406,34.20356027,-118.498934728,419,"7328 FORBES AVE, LAKE BALBOA, CA, 91406","Match","Exact","7328 FORBES AVE, LAKE BALBOA, CA, 91406",141544959,"R"
282920,"7328 SIMSBURY DRIVE","WEST BLOOMFIELD","MI",48322,42.532025703,-83.3773407799999,420,"7328 SIMSBURY DRIVE, WEST BLOOMFIELD, MI, 48322","Match","Non_Exact","7328 SIMSBURY CT, W BLOOMFIELD, MI, 48322",69799507,"L"
282921,"7328 SPARKHAWK ROAD","WAKE FOREST","NC",27587,NA,NA,421,"7328 SPARKHAWK ROAD, WAKE FOREST, NC, 27587","No_Match",NA,NA,NA,NA
282922,"7328 STEEP HOLLOW ROAD","BRYAN","TX",77808,NA,NA,422,"7328 STEEP HOLLOW ROAD, BRYAN, TX, 77808","No_Match",NA,NA,NA,NA
282923,"7328 VALLEY PIKE","MIDDLETOWN","VA",22645,39.0382016940001,-78.267706087,423,"7328 VALLEY PIKE, MIDDLETOWN, VA, 22645","Match","Exact","7328 VALLEY PIKE, MIDDLETOWN, VA, 22645",650235649,"L"
282924,"7328 W CRABAPPLE DR","PEORIA","AZ",85383,33.7114312840001,-112.217310844,424,"7328 W CRABAPPLE DR, PEORIA, AZ, 85383","Match","Exact","7328 W CRABAPPLE DR, PEORIA, AZ, 85383",128417233,"L"
282925,"73288 LONDON ROAD","COTTAGE GROVE","OR",97424,43.6523896680001,-123.081760813,425,"73288 LONDON ROAD, COTTAGE GROVE, OR, 97424","Match","Exact","73288 LONDON RD, COTTAGE GROVE, OR, 97424",178150056,"L"
282926,"7329 MONTICELLO STREET","PITTSBURGH","PA",15208,40.4588761860001,-79.892590883,426,"7329 MONTICELLO STREET, PITTSBURGH, PA, 15208","Match","Exact","7329 MONTICELLO ST, PITTSBURGH, PA, 15208",51647866,"L"
282927,"7329 N KEYSTONE AVE","LINCOLNWOOD","IL",60712,42.0141356350001,-87.72971697,427,"7329 N KEYSTONE AVE, LINCOLNWOOD, IL, 60712","Match","Exact","7329 KEYSTONE AVE, LINCOLNWOOD, IL, 60712",111741927,"R"
282928,"7329 NW 21ST STREET","BETHANY","OK",73008,35.4913048430001,-97.642663548,428,"7329 NW 21ST STREET, BETHANY, OK, 73008","Match","Exact","7329 NW 21ST ST, BETHANY, OK, 73008",100389597,"R"
282929,"7329 NW MIAMI COURT","MIAMI","FL",33150,25.8424172360001,-80.1971936909999,429,"7329 NW MIAMI COURT, MIAMI, FL, 33150","Match","Exact","7329 NW MIAMI CT, MIAMI, FL, 33150",116288647,"R"
282930,"7329 SOUTH BROADWAY AVENUE","LOS ANGELES","CA",90003,33.9733983850001,-118.278303104,430,"7329 SOUTH BROADWAY AVENUE, LOS ANGELES, CA, 90003","Match","Non_Exact","7329 S BROADWAY, LOS ANGELES, CA, 90003",141659844,"R"
282931,"733 3RD AVE FL 16","NEW YORK","NY",10017,40.753092397,-73.972743951,431,"733 3RD AVE FL 16, NEW YORK, NY, 10017","Match","Exact","733 3RD AVE, NEW YORK, NY, 10017",59658698,"R"
282932,"733 BLOUNT RD","HEPHZIBAH","GA",30815,33.2466119470001,-82.191038281,432,"733 BLOUNT RD, HEPHZIBAH, GA, 30815","Match","Exact","733 BLOUNT RD, HEPHZIBAH, GA, 30815",648060997,"R"
282933,"733 BLUE SEAS CT","PONTE VEDRA BEACH","FL",32082,29.982101481,-81.313810125,433,"733 BLUE SEAS CT, PONTE VEDRA BEACH, FL, 32082","Match","Exact","733 BLUE SEAS CT, PONTE VEDRA BEACH, FL, 32082",92601250,"L"
282934,"733 BRAMBLE LANE","ORANGEBURG","SC",29115,33.5198968180001,-80.821216093,434,"733 BRAMBLE LANE, ORANGEBURG, SC, 29115","Match","Non_Exact","733 BRAMBLE LN NE, ORANGEBURG, SC, 29115",19228833,"L"
282935,"733 CARDENAS DRIVE SOUTHEAST","ALBUQUERQUE","NM",87108,35.0685405080001,-106.579755524,435,"733 CARDENAS DRIVE SOUTHEAST, ALBUQUERQUE, NM, 87108","Match","Exact","733 CARDENAS DR SE, ALBUQUERQUE, NM, 87108",206718335,"R"
282936,"733 COPPERFIELD COURT","BRENTWOOD","CA",94513,37.937215221,-121.749597821,436,"733 COPPERFIELD COURT, BRENTWOOD, CA, 94513","Match","Exact","733 COPPERFIELD CT, BRENTWOOD, CA, 94513",192114935,"R"
282937,"733 COTTONWOOD COURT","VIRGINIA BEACH","VA",23462,36.8144531340001,-76.116838156,437,"733 COTTONWOOD COURT, VIRGINIA BEACH, VA, 23462","Match","Exact","733 COTTONWOOD CT, VA BCH, VA, 23462",122296675,"L"
282938,"733 CRESTING OAK CIRCLE","ORLANDO","FL",32824,28.3627539330001,-81.379529522,438,"733 CRESTING OAK CIRCLE, ORLANDO, FL, 32824","Match","Non_Exact","733 CRESTING OAK, ORLANDO, FL, 32824",625733643,"L"
282939,"733 DEVONSHIRE DIRVE","STATE COLLEGE","PA",16803,40.800421687,-77.903028933,439,"733 DEVONSHIRE DIRVE, STATE COLLEGE, PA, 16803","Match","Non_Exact","733 DEVONSHIRE DR, STATE COLLEGE, PA, 16803",50369756,"R"
282940,"733 E BOULDER STREET B","COLORADO SPRINGS","CO",80903,38.8391629400001,-104.811410126,440,"733 E BOULDER STREET B, COLORADO SPRINGS, CO, 80903","Match","Non_Exact","733 E BOULDER ST, COLORADO SPRINGS, CO, 80903",105514515,"R"
282941,"733 EAST 116TH STREET","LOS ANGELES","CA",90059,33.929184424,-118.261379107,441,"733 EAST 116TH STREET, LOS ANGELES, CA, 90059","Match","Exact","733 E 116TH ST, LOS ANGELES, CA, 90059",141673395,"L"
282942,"733 GREENWAY ROAD","HENDERSON","NV",89002,36.006407757,-114.976662484,442,"733 GREENWAY ROAD, HENDERSON, NV, 89002","Match","Exact","733 GREENWAY RD, HENDERSON, NV, 89002",201883230,"L"
282943,"733 HOWARD STREET","NEW MARTINSVILLE","WV",26155,39.6838295810001,-80.858053995,443,"733 HOWARD STREET, NEW MARTINSVILLE, WV, 26155","Match","Exact","733 HOWARD ST, NEW MARTINSVILLE, WV, 26155",51572599,"R"
282944,"733 MARQUETTE AVE S 243","MINNEAPOLIS","MN",55402,44.9759384870001,-93.271155015,444,"733 MARQUETTE AVE S 243, MINNEAPOLIS, MN, 55402","Match","Exact","733 MARQUETTE AVE S, MINNEAPOLIS, MN, 55402",43632333,"L"
282945,"733 MCDUFF AVENUE S","JACKSONVILLE","FL",32205,NA,NA,445,"733 MCDUFF AVENUE S, JACKSONVILLE, FL, 32205","No_Match",NA,NA,NA,NA
282946,"733 N CLAY","JACKSONVILLE","IL",62651,NA,NA,446,"733 N CLAY, JACKSONVILLE, IL, 62651","No_Match",NA,NA,NA,NA
282947,"733 N LONGMORE","MESA","AZ",85201,33.4289476530001,-111.865151749,447,"733 N LONGMORE, MESA, AZ, 85201","Match","Exact","733 N LONGMORE, MESA, AZ, 85201",128234083,"R"
282948,"733 N W LONGMORE","MESA","AZ",85201,33.4289476530001,-111.865151749,448,"733 N W LONGMORE, MESA, AZ, 85201","Match","Non_Exact","733 N LONGMORE, MESA, AZ, 85201",128234083,"R"
282949,"733 NANTASKET AVE","HULL","MA",2045,42.2966105610001,-70.8812699389999,449,"733 NANTASKET AVE, HULL, MA, 2045","Match","Exact","733 NANTASKET AVE, HULL, MA, 02045",87429207,"L"
282950,"733 NE 18TH STREET","OKLAHOMA CITY","OK",73105,35.48836313,-97.5000139059999,450,"733 NE 18TH STREET, OKLAHOMA CITY, OK, 73105","Match","Non_Exact","733 NE 18TH ST, OKLAHOMA CITY, OK, 73105",606086194,"L"
282951,"733 NEWBERRY CT","DESOTO","TX",75115,32.5774540890001,-96.889468167,451,"733 NEWBERRY CT, DESOTO, TX, 75115","Match","Exact","733 NEWBERRY CT, DESOTO, TX, 75115",103277876,"R"
282952,"733 NORTH ORANGE GROVE","PASADENA","CA",91109,NA,NA,452,"733 NORTH ORANGE GROVE, PASADENA, CA, 91109","No_Match",NA,NA,NA,NA
282953,"733 NORTHWOOD DR","FLOWER MOUND","TX",75022,32.99455971,-97.06614157,453,"733 NORTHWOOD DR, FLOWER MOUND, TX, 75022","Match","Exact","733 NORTHWOOD DR, FLOWER MOUND, TX, 75022",646764540,"R"
282954,"733 NW 30 COURT / 6","WILTON MANORS","FL",33311,26.1654156490001,-80.152303893,454,"733 NW 30 COURT / 6, WILTON MANORS, FL, 33311","Match","Non_Exact","733 NW 30TH CT, WILTON MANORS, FL, 33311",114719461,"R"
282955,"733 NW HEINZWOOD CIR","LAWTON","OK",73505,34.6150727780001,-98.445235382,455,"733 NW HEINZWOOD CIR, LAWTON, OK, 73505","Match","Exact","733 NW HEINZWOOD CIR, LAWTON, OK, 73505",15017067,"R"
282956,"733 PRINCETON CIRCLE","CLARKSVILLE","TN",37042,36.6280849190001,-87.396772212,456,"733 PRINCETON CIRCLE, CLARKSVILLE, TN, 37042","Match","Exact","733 PRINCETON CIR, CLARKSVILLE, TN, 37042",31826600,"R"
282957,"733 REINOEHL STREET","LEBANON","PA",17046,40.3546297620001,-76.4254136879999,457,"733 REINOEHL STREET, LEBANON, PA, 17046","Match","Exact","733 REINOEHL ST, LEBANON, PA, 17046",639692599,"L"
282958,"733 RICHARD I HARRISON JR PKWY E","TUSCALOOSA","AL",35405,NA,NA,458,"733 RICHARD I HARRISON JR PKWY E, TUSCALOOSA, AL, 35405","No_Match",NA,NA,NA,NA
282959,"733 ROUTE 271","LIGONIER","PA",15658,40.26200707,-79.1402137489999,459,"733 ROUTE 271, LIGONIER, PA, 15658","Match","Non_Exact","733 STATE RTE 271, LIGONIER, PA, 15658",639135507,"L"
282960,"733 RUE SAINT CHARLES ST","FLORISSANT","MO",63031,38.7973516710001,-90.331553957,460,"733 RUE SAINT CHARLES ST, FLORISSANT, MO, 63031","Match","Exact","733 SAINT CHARLES ST, FLORISSANT, MO, 63031",100119407,"L"
282961,"733 RUSTLING LEAF COURT","ELDERSBURG","MD",21784,39.403547437,-76.9681291219999,461,"733 RUSTLING LEAF COURT, ELDERSBURG, MD, 21784","Match","Exact","733 RUSTLING LEAF CT, ELDERSBURG, MD, 21784",608455177,"R"
282962,"733 S TEJON AVE","PUEBLO WEST","CO",81007,38.319842259,-104.837889895,462,"733 S TEJON AVE, PUEBLO WEST, CO, 81007","Match","Exact","733 S TEJON AVE, PUEBLO WEST, CO, 81007",105034459,"L"
282963,"733 SANTA FE DR","DENVER","CO",80204,39.727880848,-104.998609127,463,"733 SANTA FE DR, DENVER, CO, 80204","Match","Exact","733 SANTA FE DR, DENVER, CO, 80204",177330552,"L"
282964,"733 SOUTH COLLEGE ST","GRENADA","MS",38901,33.7781554360001,-89.8058327159999,464,"733 SOUTH COLLEGE ST, GRENADA, MS, 38901","Match","Exact","733 S COLLEGE ST, GRENADA, MS, 38901",7555479,"L"
282965,"733 SUMMERFIELD ABBEY COURT","MARTINEZ","GA",30907,33.5519918960001,-82.076535902,465,"733 SUMMERFIELD ABBEY COURT, MARTINEZ, GA, 30907","Match","Exact","733 SUMMERFIELD ABBEY CT, MARTINEZ, GA, 30907",55379543,"L"
282966,"733 SW 2ND ST","MOORE","OK",73160,35.3364744180001,-97.499872241,466,"733 SW 2ND ST, MOORE, OK, 73160","Match","Exact","733 SW 2ND ST, MOORE, OK, 73160",99905895,"R"
282967,"733 TEJAS TRAIL","BANDERA","TX",78003,29.6464549990001,-98.999288528,467,"733 TEJAS TRAIL, BANDERA, TX, 78003","Match","Exact","733 TEJAS TRL, BANDERA, TX, 78003",634957590,"R"
282968,"733 THIMBLE SHOALS BLVD SUITE 102","NEWPORT NEWS","VA",23606,37.0836742720001,-76.46754335,468,"733 THIMBLE SHOALS BLVD SUITE 102, NEWPORT NEWS, VA, 23606","Match","Exact","733 THIMBLE SHOALS BLVD, NEWPORT NEWS, VA, 23606",103822232,"L"
282969,"733 VOLVO PARKWAY SUITE 150","CHESAPEAKE","VA",23320,36.767544108,-76.2348315469999,469,"733 VOLVO PARKWAY SUITE 150, CHESAPEAKE, VA, 23320","Match","Exact","733 VOLVO PKWY, CHESAPEAKE, VA, 23320",121792363,"R"
282970,"733 VOSE RD","ALCOA","TN",37701,35.794206284,-83.975575468,470,"733 VOSE RD, ALCOA, TN, 37701","Match","Exact","733 VOSE RD, ALCOA, TN, 37701",89830620,"L"
282971,"733 W 123RD STREET","LOS ANGELES","CA",90044,33.9211396910001,-118.28793633,471,"733 W 123RD STREET, LOS ANGELES, CA, 90044","Match","Exact","733 W 123RD ST, LOS ANGELES, CA, 90044",141661740,"R"
282972,"733 W MARKET ST SUITE 104","AKRON","OH",44303,41.0954056100001,-81.540772392,472,"733 W MARKET ST SUITE 104, AKRON, OH, 44303","Match","Non_Exact","733 W MARKET ST, AKRON, OH, 44303",61339829,"R"
282973,"733 W WASHINGTON AVE","LAKE HELEN","FL",32744,28.979168944,-81.245075636,473,"733 W WASHINGTON AVE, LAKE HELEN, FL, 32744","Match","Exact","733 W WASHINGTON AVE, LAKE HELEN, FL, 32744",94500744,"L"
282974,"733 WASHINGTON ROAD SUITE 312","PITTSBURGH","PA",15228,40.3793515400001,-80.0452366169999,474,"733 WASHINGTON ROAD SUITE 312, PITTSBURGH, PA, 15228","Match","Exact","733 WASHINGTON RD, PITTSBURGH, PA, 15228",51930474,"L"
282975,"733 WEST MARKET STREET 907","AKRON","OH",44303,41.0953905870001,-81.540736249,475,"733 WEST MARKET STREET 907, AKRON, OH, 44303","Match","Exact","733 W MARKET ST, AKRON, OH, 44303",61339829,"R"
282976,"733 WESTMINISTER RD","BROOKLYN","NY",11230,40.631199619,-73.965361184,476,"733 WESTMINISTER RD, BROOKLYN, NY, 11230","Match","Non_Exact","733 WESTMINSTER RD, BROOKLYN, NY, 11230",59081132,"L"
282977,"733 YARO CT","FREMONT","CA",94539,37.5423725530001,-121.935593904,477,"733 YARO CT, FREMONT, CA, 94539","Match","Exact","733 YARO CT, FREMONT, CA, 94539",125033527,"R"
282978,"733","HEMLOCK","MI",48626,NA,NA,478,"733, HEMLOCK, MI, 48626","No_Match",NA,NA,NA,NA
282979,"733","MARYVILLE","IL",62062,NA,NA,479,"733, MARYVILLE, IL, 62062","No_Match",NA,NA,NA,NA
282980,"7330 BLUFF SPRINGS ROAD APT 5313","AUSTIN","TX",78744,30.180100956,-97.769848081,480,"7330 BLUFF SPRINGS ROAD APT 5313, AUSTIN, TX, 78744","Match","Exact","7330 BLUFF SPRINGS RD, AUSTIN, TX, 78744",646490441,"R"
282981,"7330 CLICK DR","BEAUMONT","TX",77708,30.1651896880001,-94.1893970899999,481,"7330 CLICK DR, BEAUMONT, TX, 77708","Match","Exact","7330 CLICK DR, BEAUMONT, TX, 77708",73873811,"R"
282982,"7330 COLONY ROAD","LA MESA","CA",91942,32.765910607,-117.039676799,482,"7330 COLONY ROAD, LA MESA, CA, 91942","Match","Exact","7330 COLONY RD, LA MESA, CA, 91942",195359033,"L"
282983,"7330 COUNTY RD S","SOBIESKI","WI",54171,NA,NA,483,"7330 COUNTY RD S, SOBIESKI, WI, 54171","No_Match",NA,NA,NA,NA
282984,"7330 COUNTY ROAD 170","CELINA","TX",75009,33.310176181,-96.705534856,484,"7330 COUNTY ROAD 170, CELINA, TX, 75009","Match","Exact","7330 CO RD 170, CELINA, TX, 75009",649040732,"L"
282985,"7330 GLEN MANOR DRIVE","HOUSTON","TX",77028,29.841527634,-95.2973439369999,485,"7330 GLEN MANOR DRIVE, HOUSTON, TX, 77028","Match","Exact","7330 GLEN MANOR DR, HOUSTON, TX, 77028",96076884,"R"
282986,"7330 HIGHLAND LAKE DRIVE","SAN ANTONIO","TX",78244,29.4755966970001,-98.344771556,486,"7330 HIGHLAND LAKE DRIVE, SAN ANTONIO, TX, 78244","Match","Exact","7330 HIGHLAND LAKE DR, SAN ANTONIO, TX, 78244",101580682,"L"
282987,"7330 KHRISTOPHER CT","CONCORD TWP","OH",44077,41.671239062,-81.270402036,487,"7330 KHRISTOPHER CT, CONCORD TWP, OH, 44077","Match","Exact","7330 KHRISTOPHER CT, CONCORD TWP, OH, 44077",137466885,"R"
282988,"7330 ORCHARD DRIVE","GILROY","CA",95020,37.0022822180001,-121.578949375,488,"7330 ORCHARD DRIVE, GILROY, CA, 95020","Match","Exact","7330 ORCHARD DR, GILROY, CA, 95020",123175182,"R"
282989,"7330 S UNIVERSITY AVE","CHICAGO","IL",60619,41.7616993930001,-87.5969665489999,489,"7330 S UNIVERSITY AVE, CHICAGO, IL, 60619","Match","Exact","7330 S UNIVERSITY AVE, CHICAGO, IL, 60619",111774325,"R"
282990,"7330 SAN PEDRO AVENUE  SUITE 610","SAN ANTONIO","TX",78216,29.5158737040001,-98.499253121,490,"7330 SAN PEDRO AVENUE  SUITE 610, SAN ANTONIO, TX, 78216","Match","Exact","7330 SAN PEDRO AVE, SAN ANTONIO, TX, 78216",101496795,"R"
282991,"7330 SOUTH CANTON AVENUE","TULSA","OK",74136,36.057608298,-95.919272183,491,"7330 SOUTH CANTON AVENUE, TULSA, OK, 74136","Match","Exact","7330 S CANTON AVE, TULSA, OK, 74136",166452421,"R"
282992,"7330 STAPLES MILL RD PMB 182","RICHMOND","VA",23228,37.615941111,-77.498094555,492,"7330 STAPLES MILL RD PMB 182, RICHMOND, VA, 23228","Match","Exact","7330 STAPLES MILL RD, RICHMOND, VA, 23228",106688479,"L"
282993,"7330 STAPLES MILL ROAD STE 266","RICHMOND","VA",23228,37.615941111,-77.498094555,493,"7330 STAPLES MILL ROAD STE 266, RICHMOND, VA, 23228","Match","Exact","7330 STAPLES MILL RD, RICHMOND, VA, 23228",106688479,"L"
282994,"7330 VOGEL ROAD","HOUSTON","TX",77088,29.8681932370001,-95.464574511,494,"7330 VOGEL ROAD, HOUSTON, TX, 77088","Match","Exact","7330 VOGEL RD, HOUSTON, TX, 77088",96027116,"R"
282995,"7330 WATERCREST RD","CHARLOTTE","SC",28210,NA,NA,495,"7330 WATERCREST RD, CHARLOTTE, SC, 28210","No_Match",NA,NA,NA,NA
282996,"7330 YARMOUTH AVE","RESEDA","CA",91335,34.203571158,-118.519673327,496,"7330 YARMOUTH AVE, RESEDA, CA, 91335","Match","Exact","7330 YARMOUTH AVE, RESEDA, CA, 91335",141544053,"R"
282997,"7331 HANOVER PARKWAY SUITE C AND D","GREENBELT","MD",20770,38.9931251310001,-76.874875625,497,"7331 HANOVER PARKWAY SUITE C AND D, GREENBELT, MD, 20770","Match","Exact","7331 HANOVER PKWY, GREENBELT, MD, 20770",76379848,"R"
282998,"7331 HOLLORN LN","MEMPHIS","TN",38125,35.0432920010001,-89.81942911,498,"7331 HOLLORN LN, MEMPHIS, TN, 38125","Match","Exact","7331 HOLLORN LN, MEMPHIS, TN, 38125",72930904,"R"
282999,"7331 JUSTINO TRAIL","SAN ANTONIO","TX",78244,29.498284771,-98.329936829,499,"7331 JUSTINO TRAIL, SAN ANTONIO, TX, 78244","Match","Exact","7331 JUSTINO TRL, SAN ANTONIO, TX, 78244",101570717,"L"
283000,"7331 N LEWIS AVE","KANSAS CITY","MO",64158,39.2262344060001,-94.475407196,500,"7331 N LEWIS AVE, KANSAS CITY, MO, 64158","Match","Exact","7331 N LEWIS AVE, KANSAS CITY, MO, 64158",89778373,"R"
