"ID","Address","City","State","Zip","lat","long","id","input_address","match_indicator","match_type","matched_address","tiger_line_id","tiger_side"
61001,"1427 MORRIS ROAD SE","WASHINGTON","DC",20020,38.8596132380001,-76.987122058,1,"1427 MORRIS ROAD SE, WASHINGTON, DC, 20020","Match","Exact","1427 MORRIS RD SE, WASHINGTON, DC, 20020",76232399,"R"
61002,"1427 NORTH 3RD STREET SUITE 215-B","PHOENIX","AZ",85004,33.464277512,-112.06935352,2,"1427 NORTH 3RD STREET SUITE 215-B, PHOENIX, AZ, 85004","Match","Exact","1427 N 3RD ST, PHOENIX, AZ, 85004",128213060,"R"
61003,"1427 NORTH HIAHIA PLACE","WAILUKU","HI",96793,20.9227309610001,-156.494559704,3,"1427 NORTH HIAHIA PLACE, WAILUKU, HI, 96793","Match","Exact","1427 N HIAHIA PL, WAILUKU, HI, 96793",85081221,"R"
61004,"1427 NW MURPHY CT","PRINEVILLE","OR",97754,44.3155922080001,-120.864933263,4,"1427 NW MURPHY CT, PRINEVILLE, OR, 97754","Match","Exact","1427 NW MURPHY CT, PRINEVILLE, OR, 97754",152405099,"L"
61005,"1427 RAINER ROAD","BROOKHAVEN","PA",19015,39.852667167,-75.391691408,5,"1427 RAINER ROAD, BROOKHAVEN, PA, 19015","Match","Exact","1427 RAINER RD, BROOKHAVEN, PA, 19015",134889624,"R"
61006,"1427 RIVER WALK DR APT B","ATLANTA","GA",30349,33.611485644,-84.438016034,6,"1427 RIVER WALK DR APT B, ATLANTA, GA, 30349","Match","Exact","1427 RIVER WALK DR, ATLANTA, GA, 30349",636099299,"R"
61007,"1427 S 58TH STREET","TACOMA","WA",98408,47.204668455,-122.453081896,7,"1427 S 58TH STREET, TACOMA, WA, 98408","Match","Exact","1427 S 58TH ST, TACOMA, WA, 98408",184627803,"R"
61008,"1427 S GLADYS AVE","SAN GABRIEL","CA",91776,34.082575402,-118.08944449,8,"1427 S GLADYS AVE, SAN GABRIEL, CA, 91776","Match","Exact","1427 S GLADYS AVE, SAN GABRIEL, CA, 91776",142739519,"R"
61009,"1427 SALISBURY ST","SAINT LOUIS","MO",63107,38.6612819010001,-90.199229357,9,"1427 SALISBURY ST, SAINT LOUIS, MO, 63107","Match","Exact","1427 SALISBURY ST, SAINT LOUIS, MO, 63107",107603900,"R"
61010,"1427 SEMINOLE AVENUE","METAIRIE","LA",70005,30.0167820780001,-90.125786714,10,"1427 SEMINOLE AVENUE, METAIRIE, LA, 70005","Match","Exact","1427 SEMINOLE AVE, METAIRIE, LA, 70005",93498613,"R"
61011,"1427 SEYBURN ST","DETROIT","MI",48214,42.3544342210001,-82.9996051269999,11,"1427 SEYBURN ST, DETROIT, MI, 48214","Match","Exact","1427 SEYBURN ST, DETROIT, MI, 48214",95484072,"L"
61012,"1427 THOMAS AVENUE WEST","SAINT PAUL","MN",55104,NA,NA,12,"1427 THOMAS AVENUE WEST, SAINT PAUL, MN, 55104","No_Match",NA,NA,NA,NA
61013,"1427 UMBRELLA TREE DR","EDGEWATER","FL",32132,28.973964842,-80.91776244,13,"1427 UMBRELLA TREE DR, EDGEWATER, FL, 32132","Match","Exact","1427 UMBRELLA TREE DR, EDGEWATER, FL, 32132",647930585,"L"
61014,"1427 W 7TH ST","TEMPE","AZ",85281,33.423789979,-111.961727197,14,"1427 W 7TH ST, TEMPE, AZ, 85281","Match","Exact","1427 W 7TH ST, TEMPE, AZ, 85281",128889217,"L"
61015,"1427 W 86TH ST  STE 615","INDIANAPOLIS","IN",46260,39.912209756,-86.184674305,15,"1427 W 86TH ST  STE 615, INDIANAPOLIS, IN, 46260","Match","Non_Exact","1427 W 86TH ST, INDIANAPOLIS, IN, 46260",107981320,"L"
61016,"1427 W 86TH STREET STE 540","INDIANAPOLIS","IN",46260,39.912209756,-86.184674305,16,"1427 W 86TH STREET STE 540, INDIANAPOLIS, IN, 46260","Match","Non_Exact","1427 W 86TH ST, INDIANAPOLIS, IN, 46260",107981320,"L"
61017,"1427 W 9TH STREET STUDIO 304","KANSAS CITY","MO",64101,39.1042771150001,-94.601822356,17,"1427 W 9TH STREET STUDIO 304, KANSAS CITY, MO, 64101","Match","Non_Exact","1427 W 9TH ST, KANSAS CITY, MO, 64101",91505241,"L"
61018,"1427 W 9TH STREET SUITE 1","KANSAS CITY","MO",64101,39.1042771150001,-94.601822356,18,"1427 W 9TH STREET SUITE 1, KANSAS CITY, MO, 64101","Match","Non_Exact","1427 W 9TH ST, KANSAS CITY, MO, 64101",91505241,"L"
61019,"1427 W ROCKLAND STREET","PHILADELPHIA","PA",19141,40.0277872030001,-75.1483207059999,19,"1427 W ROCKLAND STREET, PHILADELPHIA, PA, 19141","Match","Exact","1427 W ROCKLAND ST, PHILADELPHIA, PA, 19141",131416804,"R"
61020,"1427 WEST VANDALIA RD","GREENSBURG","IN",47240,39.3509937310001,-85.510837297,20,"1427 WEST VANDALIA RD, GREENSBURG, IN, 47240","Match","Exact","1427 W VANDALIA RD, GREENSBURG, IN, 47240",31188784,"R"
61021,"1427 WINDMILL HILL LANE","CEDAR HILL","TX",75104,32.6140037220001,-96.910267367,21,"1427 WINDMILL HILL LANE, CEDAR HILL, TX, 75104","Match","Exact","1427 WINDMILL HILL LN, CEDAR HILL, TX, 75104",616744187,"R"
61022,"1427 WYNNE AVE","SAINT PAUL","MN",55108,44.9755578850001,-93.16051749,22,"1427 WYNNE AVE, SAINT PAUL, MN, 55108","Match","Exact","1427 WYNNE AVE, SAINT PAUL, MN, 55108",97641441,"R"
61023,"1427-1515 SE 122ND AVE SUITE 1441 H","PORTLAND","OR",97233,45.513330092,-122.537675564,23,"1427-1515 SE 122ND AVE SUITE 1441 H, PORTLAND, OR, 97233","Match","Non_Exact","1427 SE 122ND AVE, PORTLAND, OR, 97233",157561272,"R"
61024,"1427","SEWICKLEY","PA",15143,NA,NA,24,"1427, SEWICKLEY, PA, 15143","No_Match",NA,NA,NA,NA
61025,"14270 IRVING AVE S NO 208","BURNSVILLE","MN",55306,44.7435788600001,-93.2980699079999,25,"14270 IRVING AVE S NO 208, BURNSVILLE, MN, 55306","Match","Exact","14270 IRVING AVE S, BURNSVILLE, MN, 55306",642173413,"R"
61026,"14270 SW 43 TERRACE","MIAMI","FL",33175,25.7271985740001,-80.425260585,26,"14270 SW 43 TERRACE, MIAMI, FL, 33175","Match","Exact","14270 SW 43RD TER, MIAMI, FL, 33175",115963764,"L"
61027,"14270 TUNGSTEN","RAMSEY","MN",55303,NA,NA,27,"14270 TUNGSTEN, RAMSEY, MN, 55303","No_Match",NA,NA,NA,NA
61028,"14271 JEFFREY RD 119","IRVINE","CA",92620,NA,NA,28,"14271 JEFFREY RD 119, IRVINE, CA, 92620","No_Match",NA,NA,NA,NA
61029,"14271 JEFFREY RD STE 403","IRVINE","CA",92620,NA,NA,29,"14271 JEFFREY RD STE 403, IRVINE, CA, 92620","No_Match",NA,NA,NA,NA
61030,"14271 JEFFREY RD SUITE 245","IRVINE","CA",92620,NA,NA,30,"14271 JEFFREY RD SUITE 245, IRVINE, CA, 92620","No_Match",NA,NA,NA,NA
61031,"14271 JEFFREY ROAD 167","IRVINE","CA",92620,NA,NA,31,"14271 JEFFREY ROAD 167, IRVINE, CA, 92620","No_Match",NA,NA,NA,NA
61032,"14271 JEFFREY ROAD SUITE 136","IRVINE","CA",92620,NA,NA,32,"14271 JEFFREY ROAD SUITE 136, IRVINE, CA, 92620","No_Match",NA,NA,NA,NA
61033,"14272 N HWY 238","LITTLE FALLS","MN",56435,NA,NA,33,"14272 N HWY 238, LITTLE FALLS, MN, 56435","No_Match",NA,NA,NA,NA
61034,"14272 OLD HWY 13","WASECA","MN",56093,NA,NA,34,"14272 OLD HWY 13, WASECA, MN, 56093","No_Match",NA,NA,NA,NA
61035,"14273 KEYESPORT LNDG","FISHERS","IN",46040,39.94273694,-85.910039825,35,"14273 KEYESPORT LNDG, FISHERS, IN, 46040","Match","Exact","14273 KEYESPORT LNDG, FISHERS, IN, 46040",629845434,"L"
61036,"14273 NW 23 ST","PEMBROKE PINES","FL",33028,26.028116492,-80.334860292,36,"14273 NW 23 ST, PEMBROKE PINES, FL, 33028","Match","Exact","14273 NW 23RD ST, PEMBROKE PINES, FL, 33028",114801391,"L"
61037,"14274 FILMORE STREET","ARLETA","CA",91331,34.2553448740001,-118.444055124,37,"14274 FILMORE STREET, ARLETA, CA, 91331","Match","Exact","14274 FILMORE ST, ARLETA, CA, 91331",141548460,"L"
61038,"14274 NW 17TH AVENUE","OPA LOCKA","FL",33054,25.9044141310001,-80.2276767019999,38,"14274 NW 17TH AVENUE, OPA LOCKA, FL, 33054","Match","Exact","14274 NW 17TH AVE, OPA LOCKA, FL, 33054",116047493,"L"
61039,"14275 CANDLER AVENUE","SAN JOSE","CA",95127,37.354144155,-121.810870681,39,"14275 CANDLER AVENUE, SAN JOSE, CA, 95127","Match","Exact","14275 CANDLER AVE, SAN JOSE, CA, 95127",648960958,"L"
61040,"14275 NW 142ND ST","WILLISTON","FL",32696,29.347026262,-82.359536701,40,"14275 NW 142ND ST, WILLISTON, FL, 32696","Match","Exact","14275 NW 142ND ST, WILLISTON, FL, 32696",608598419,"L"
61041,"14275 SW 73RD AVE","PALMETTO BAY","FL",33158,25.6379550980001,-80.311447129,41,"14275 SW 73RD AVE, PALMETTO BAY, FL, 33158","Match","Exact","14275 SW 73RD AVE, PALMETTO BAY, FL, 33158",115986725,"L"
61042,"14277 GLADE SPRING DRIVE","CENTREVILLE","VA",20121,38.8297084650001,-77.4461863929999,42,"14277 GLADE SPRING DRIVE, CENTREVILLE, VA, 20121","Match","Exact","14277 GLADE SPRING DR, CENTREVILLE, VA, 20121",76034709,"L"
61043,"14278 BLAIR RD","SHERWOOD","OH",43556,41.268282706,-84.5489767399999,43,"14278 BLAIR RD, SHERWOOD, OH, 43556","Match","Exact","14278 BLAIR RD, SHERWOOD, OH, 43556",647728636,"R"
61044,"1428 131ST ST","EVERETT","WA",98208,47.879372819,-122.212719767,44,"1428 131ST ST, EVERETT, WA, 98208","Match","Non_Exact","1428 131ST ST SE, EVERETT, WA, 98208",187824228,"R"
61045,"1428 5TH AVE STE 601","NEW YORK","NY",10035,40.8008862990001,-73.9463108159999,45,"1428 5TH AVE STE 601, NEW YORK, NY, 10035","Match","Exact","1428 5TH AVE, NEW YORK, NY, 10035",642471569,"L"
61046,"1428 ALICE STREET SUITE 601","OAKLAND","CA",94612,37.8030125440001,-122.266118677,46,"1428 ALICE STREET SUITE 601, OAKLAND, CA, 94612","Match","Exact","1428 ALICE ST, OAKLAND, CA, 94612",650096554,"R"
61047,"1428 ALICE STREET SUITE 604","OAKLAND","CA",94612,37.8030125440001,-122.266118677,47,"1428 ALICE STREET SUITE 604, OAKLAND, CA, 94612","Match","Exact","1428 ALICE ST, OAKLAND, CA, 94612",650096554,"R"
61048,"1428 BAHIA DRIVE","TALLAHASSEE","FL",32305,30.3816401600001,-84.3011089509999,48,"1428 BAHIA DRIVE, TALLAHASSEE, FL, 32305","Match","Exact","1428 BAHIA DR, TALLAHASSEE, FL, 32305",82852394,"R"
61049,"1428 BOAT ROCK ROAD","ATLANTA","GA",30331,33.7166628200001,-84.559475428,49,"1428 BOAT ROCK ROAD, ATLANTA, GA, 30331","Match","Non_Exact","1428 BOAT ROCK RD SW, ATLANTA, GA, 30331",17336072,"L"
61050,"1428 CALKINS RD PO BOX 71","MILANVILLE","PA",18443,41.6685516530001,-75.074817375,50,"1428 CALKINS RD PO BOX 71, MILANVILLE, PA, 18443","Match","Exact","1428 CALKINS RD, MILANVILLE, PA, 18443",140149871,"L"
61051,"1428 E 110TH STREET","CLEVELAND","OH",44106,41.518636928,-81.6093506409999,51,"1428 E 110TH STREET, CLEVELAND, OH, 44106","Match","Exact","1428 E 110TH ST, CLEVELAND, OH, 44106",61121976,"R"
61052,"1428 E 16TH STREET","DES MOINES","IA",50316,41.6055141690001,-93.595147568,52,"1428 E 16TH STREET, DES MOINES, IA, 50316","Match","Exact","1428 E 16TH ST, DES MOINES, IA, 50316",65783664,"L"
61053,"1428 EGRET LANE","BIRMINGHAM","AL",35214,33.566851947,-86.87551904,53,"1428 EGRET LANE, BIRMINGHAM, AL, 35214","Match","Exact","1428 EGRET LN, BIRMINGHAM, AL, 35214",81553041,"L"
61054,"1428 HILLCREST DRIVE","ANCHORAGE","AK",99503,61.2004988990001,-149.910636223,54,"1428 HILLCREST DRIVE, ANCHORAGE, AK, 99503","Match","Exact","1428 HILLCREST DR, ANCHORAGE, AK, 99503",190796805,"L"
61055,"1428 HOLLINS ST","BALTIMORE","MD",21223,39.2874791260001,-76.640343109,55,"1428 HOLLINS ST, BALTIMORE, MD, 21223","Match","Exact","1428 HOLLINS ST, BALTIMORE, MD, 21223",206417601,"R"
61056,"1428 IRIS DR","LODI","CA",95242,38.125013326,-121.290255832,56,"1428 IRIS DR, LODI, CA, 95242","Match","Exact","1428 IRIS DR, LODI, CA, 95242",133903213,"L"
61057,"1428 IVERSON STREET","ATLANTA","GA",30307,33.7637160370001,-84.340480358,57,"1428 IVERSON STREET, ATLANTA, GA, 30307","Match","Non_Exact","1428 IVERSON ST NE, ATLANTA, GA, 30307",23365171,"L"
61058,"1428 JEAN TERRACE","PLAINFIELD","NJ",7062,40.632055576,-74.392824245,58,"1428 JEAN TERRACE, PLAINFIELD, NJ, 7062","Match","Exact","1428 JEAN TER, PLAINFIELD, NJ, 07062",60567625,"R"
61059,"1428 LAMANTO AVE E","JACKSONVILLE","FL",32211,NA,NA,59,"1428 LAMANTO AVE E, JACKSONVILLE, FL, 32211","No_Match",NA,NA,NA,NA
61060,"1428 MILTON RD","ALTON","IL",62002,38.8989099180001,-90.136828839,60,"1428 MILTON RD, ALTON, IL, 62002","Match","Exact","1428 MILTON RD, ALTON, IL, 62002",649282645,"L"
61061,"1428 MINDEN DRIVE","SAN DIEGO","CA",92111,32.7728469510001,-117.163199417,61,"1428 MINDEN DRIVE, SAN DIEGO, CA, 92111","Match","Exact","1428 MINDEN DR, SAN DIEGO, CA, 92111",195306703,"L"
61062,"1428 MITCHELL ST","OAKLAND","CA",94601,37.7806892,-122.230478568,62,"1428 MITCHELL ST, OAKLAND, CA, 94601","Match","Exact","1428 MITCHELL ST, OAKLAND, CA, 94601",125006018,"R"
61063,"1428 N LAURA STREET","JACKSONVILLE","FL",32206,30.3409979940001,-81.6560782449999,63,"1428 N LAURA STREET, JACKSONVILLE, FL, 32206","Match","Exact","1428 N LAURA ST, JACKSONVILLE, FL, 32206",83898972,"L"
61064,"1428 NW 63 STREET","MIAMI","FL",33147,25.8332389510001,-80.2218796939999,64,"1428 NW 63 STREET, MIAMI, FL, 33147","Match","Exact","1428 NW 63RD ST, MIAMI, FL, 33147",640560482,"L"
61065,"1428 OLIVE ST","LEAVENWORTH","KS",66048,39.3112315970001,-94.937862625,65,"1428 OLIVE ST, LEAVENWORTH, KS, 66048","Match","Exact","1428 OLIVE ST, LEAVENWORTH, KS, 66048",91400877,"R"
61066,"1428 PULASKI RD","EAST NORTHPORT","NY",11731,40.8811814640001,-73.298793683,66,"1428 PULASKI RD, EAST NORTHPORT, NY, 11731","Match","Exact","1428 PULASKI RD, E NORTHPORT, NY, 11731",113979444,"R"
61067,"1428 S BLAINE","MOSCOW","ID",83843,NA,NA,67,"1428 S BLAINE, MOSCOW, ID, 83843","Tie",NA,NA,NA,NA
61068,"1428 S BURGANDY TRL","JACKSONVILLE","FL",32259,30.09520717,-81.607419554,68,"1428 S BURGANDY TRL, JACKSONVILLE, FL, 32259","Match","Exact","1428 S BURGANDY TRL, JACKSONVILLE, FL, 32259",92623797,"L"
61069,"1428 S CROSSBOW CT","CHANDLER","AZ",85286,33.2851044760001,-111.829734137,69,"1428 S CROSSBOW CT, CHANDLER, AZ, 85286","Match","Exact","1428 S CROSSBOW CT, CHANDLER, AZ, 85286",128892869,"R"
61070,"1428 SALISBURY ST","SAINT LOUIS","MO",63137,38.6612639300001,-90.199247988,70,"1428 SALISBURY ST, SAINT LOUIS, MO, 63137","Match","Non_Exact","1428 SALISBURY ST, SAINT LOUIS, MO, 63107",107603900,"L"
61071,"1428 SIOUX TRAIL","NILES","MI",49120,41.8195969400001,-86.275615505,71,"1428 SIOUX TRAIL, NILES, MI, 49120","Match","Exact","1428 SIOUX TRL, NILES, MI, 49120",119978597,"R"
61072,"1428 STANDFORD ST APT F","SANTA MONICA","CA",90404,NA,NA,72,"1428 STANDFORD ST APT F, SANTA MONICA, CA, 90404","No_Match",NA,NA,NA,NA
61073,"1428 SUNSET ROAD","MAYFIELD HEIGHTS","OH",44124,41.521850425,-81.4616982169999,73,"1428 SUNSET ROAD, MAYFIELD HEIGHTS, OH, 44124","Match","Exact","1428 SUNSET RD, MAYFIELD HEIGHTS, OH, 44124",61133991,"R"
61074,"1428 SW 28TH TER","DEERFIELD BEACH","FL",33442,26.2976937,-80.143572428,74,"1428 SW 28TH TER, DEERFIELD BEACH, FL, 33442","Match","Exact","1428 SW 28TH TER, DEERFIELD BEACH, FL, 33442",114740477,"L"
61075,"1428 TERPSICHORE ST C","NEW ORLEANS","LA",70130,29.93710887,-90.073832561,75,"1428 TERPSICHORE ST C, NEW ORLEANS, LA, 70130","Match","Exact","1428 TERPSICHORE ST, NEW ORLEANS, LA, 70130",191714135,"L"
61076,"1428 TERRI DR","ALEDO","TX",76008,32.721840582,-97.6258473679999,76,"1428 TERRI DR, ALEDO, TX, 76008","Match","Non_Exact","1428 TERRY DR, ALEDO, TX, 76008",103593773,"L"
61077,"1428 THOMASNELL WAY","CERES","CA",95307,37.588278551,-120.97218272,77,"1428 THOMASNELL WAY, CERES, CA, 95307","Match","Exact","1428 THOMASNELL WAY, CERES, CA, 95307",102634809,"L"
61078,"1428 W 61ST STREET","LOS ANGELES","CA",90044,33.9841479090001,-118.300942725,78,"1428 W 61ST STREET, LOS ANGELES, CA, 90044","Match","Non_Exact","1428 W 61ST ST, LOS ANGELES, CA, 90047",141658294,"L"
61079,"1428 W 84TH PLACE APT B","LOS ANGELES","CA",90047,33.961829595,-118.301175126,79,"1428 W 84TH PLACE APT B, LOS ANGELES, CA, 90047","Match","Non_Exact","1428 W 84TH PL, LOS ANGELES, CA, 90047",652037537,"L"
61080,"1428 WARM SPRINGS DR","DUBOIS","WY",82513,43.547244752,-109.665134393,80,"1428 WARM SPRINGS DR, DUBOIS, WY, 82513","Match","Exact","1428 WARM SPRINGS DR, DUBOIS, WY, 82513",148497169,"L"
61081,"1428 WEBSTER AVE APT 20C","BRONX","NY",10456,40.836960365,-73.9069364119999,81,"1428 WEBSTER AVE APT 20C, BRONX, NY, 10456","Match","Exact","1428 WEBSTER AVE, BRONX, NY, 10456",612224003,"R"
61082,"1428 WEST CUMBERLAND STREET","PHILADELPHIA","PA",19132,39.9909985910001,-75.1563673539999,82,"1428 WEST CUMBERLAND STREET, PHILADELPHIA, PA, 19132","Match","Exact","1428 W CUMBERLAND ST, PHILADELPHIA, PA, 19132",131418234,"L"
61083,"1428 WHIRLAWAY COURT","HELENA","AL",35080,33.2819980730001,-86.8256994119999,83,"1428 WHIRLAWAY COURT, HELENA, AL, 35080","Match","Exact","1428 WHIRLAWAY CT, HELENA, AL, 35080",82117986,"L"
61084,"1428 WICHITA ST","HOUSTON","TX",77004,29.7274404350001,-95.382790765,84,"1428 WICHITA ST, HOUSTON, TX, 77004","Match","Exact","1428 WICHITA ST, HOUSTON, TX, 77004",96071201,"R"
61085,"1428 ZEREGA AVENUE","BRONX","NY",10462,40.837577428,-73.8478193129999,85,"1428 ZEREGA AVENUE, BRONX, NY, 10462","Match","Exact","1428 ZEREGA AVE, BRONX, NY, 10462",80305616,"R"
61086,"14280 LINCOLN HWY","EVERETT","PA",15537,40.0076408740001,-78.3089535459999,86,"14280 LINCOLN HWY, EVERETT, PA, 15537","Match","Exact","14280 LINCOLN HWY, EVERETT, PA, 15537",50156176,"L"
61087,"14280 MILITARY TRAIL UNIT 7501","DELRAY BEACH","FL",33482,26.465682572,-80.122543938,87,"14280 MILITARY TRAIL UNIT 7501, DELRAY BEACH, FL, 33482","Match","Non_Exact","14280 MILITARY TRL, DELRAY BEACH, FL, 33484",646935313,"L"
61088,"14280 S MILITARY TRAIL SUITE 8161","DELRAY BEAH","FL",33482,NA,NA,88,"14280 S MILITARY TRAIL SUITE 8161, DELRAY BEAH, FL, 33482","No_Match",NA,NA,NA,NA
61089,"14280 SOUTH MILITARY TRAIL STE 8273","DELRAY BEACH","FL",33482,NA,NA,89,"14280 SOUTH MILITARY TRAIL STE 8273, DELRAY BEACH, FL, 33482","No_Match",NA,NA,NA,NA
61090,"14281 CHAMBERS ROAD","TUSTIN","CA",92780,33.720411212,-117.806445535,90,"14281 CHAMBERS ROAD, TUSTIN, CA, 92780","Match","Exact","14281 CHAMBERS RD, TUSTIN, CA, 92780",144117952,"R"
61091,"14282 ASTER AVE","WELLINGTON","FL",33414,NA,NA,91,"14282 ASTER AVE, WELLINGTON, FL, 33414","No_Match",NA,NA,NA,NA
61092,"14283 ALLEE LANE","LEWES","DE",19958,38.7494867070001,-75.133824625,92,"14283 ALLEE LANE, LEWES, DE, 19958","Match","Exact","14283 ALLEE LN, LEWES, DE, 19958",645709912,"R"
61093,"14286 BEACH BLVD 19-182","JACKSONVILLE","FL",32250,30.2879145580001,-81.4384592229999,93,"14286 BEACH BLVD 19-182, JACKSONVILLE, FL, 32250","Match","Exact","14286 BEACH BLVD, JACKSONVILLE, FL, 32250",629624368,"R"
61094,"14286 BEACH BLVD STE 19-121","JACKSONVILLE BEACH","FL",32250,30.2879145580001,-81.4384592229999,94,"14286 BEACH BLVD STE 19-121, JACKSONVILLE BEACH, FL, 32250","Match","Exact","14286 BEACH BLVD, JACKSONVILLE BEACH, FL, 32250",629624368,"R"
61095,"14286 BEACH BLVD STE 19-338","JACKSONVILLE","FL",32250,30.2879145580001,-81.4384592229999,95,"14286 BEACH BLVD STE 19-338, JACKSONVILLE, FL, 32250","Match","Exact","14286 BEACH BLVD, JACKSONVILLE, FL, 32250",629624368,"R"
61096,"14286 BEACH BOULEVARD SUITE 19-121","JACKSONVILLE","FL",32250,30.2879145580001,-81.4384592229999,96,"14286 BEACH BOULEVARD SUITE 19-121, JACKSONVILLE, FL, 32250","Match","Exact","14286 BEACH BLVD, JACKSONVILLE, FL, 32250",629624368,"R"
61097,"14286 CALIFORNIA AVE SUITE 102","VICTORVILLE","CA",92392,34.5108898930001,-117.328618764,97,"14286 CALIFORNIA AVE SUITE 102, VICTORVILLE, CA, 92392","Match","Exact","14286 CALIFORNIA AVE, VICTORVILLE, CA, 92392",640043904,"L"
61098,"14286 W INDIANOLA AVE","GOODYEAR","AZ",85395,33.4904090360001,-112.366447234,98,"14286 W INDIANOLA AVE, GOODYEAR, AZ, 85395","Match","Exact","14286 W INDIANOLA AVE, GOODYEAR, AZ, 85395",128431672,"R"
61099,"14286-19 BEACH BLVD BOX 120","JACKSONVILLE","FL",32250,30.2879145580001,-81.4384592229999,99,"14286-19 BEACH BLVD BOX 120, JACKSONVILLE, FL, 32250","Match","Exact","14286 BEACH BLVD, JACKSONVILLE, FL, 32250",629624368,"R"
61100,"14287 MANGO DRIVE","DEL MAR","CA",92014,32.957680985,-117.248361079,100,"14287 MANGO DRIVE, DEL MAR, CA, 92014","Match","Exact","14287 MANGO DR, DEL MAR, CA, 92014",195299993,"R"
61101,"14289 FELTY PLACE","WOODBRIDGE","VA",22193,38.6437793060001,-77.3515886229999,101,"14289 FELTY PLACE, WOODBRIDGE, VA, 22193","Match","Exact","14289 FELTY PL, WOODBRIDGE, VA, 22193",76517818,"R"
61102,"14289 W 69TH PL","ARVADA","CO",80004,39.823011751,-105.159929032,102,"14289 W 69TH PL, ARVADA, CO, 80004","Match","Exact","14289 W 69TH PL, ARVADA, CO, 80004",177395866,"L"
61103,"14289-19 BEACH BLVD SUITE 202","JACKSONVILLE","FL",32224,30.2879049520001,-81.439603726,103,"14289-19 BEACH BLVD SUITE 202, JACKSONVILLE, FL, 32224","Match","Non_Exact","14289 BEACH BLVD, JACKSONVILLE, FL, 32250",629624368,"L"
61104,"1429 1/2 BENNETT AVE","DALLAS","TX",75206,32.804996009,-96.772801505,104,"1429 1/2 BENNETT AVE, DALLAS, TX, 75206","Match","Exact","1429 BENNETT AVE, DALLAS, TX, 75206",102911119,"L"
61105,"1429 45TH ST","NORTH BERGEN","NJ",7047,40.7826806900001,-74.029544237,105,"1429 45TH ST, NORTH BERGEN, NJ, 7047","Match","Exact","1429 45TH ST, NORTH BERGEN, NJ, 07047",59598328,"L"
61106,"1429 ALMA DR","ALMA","AR",72921,35.412351185,-94.223130646,106,"1429 ALMA DR, ALMA, AR, 72921","Match","Exact","1429 ALMA DR, ALMA, AR, 72921",625556789,"R"
61107,"1429 AVE D PMB 213","SNOHOMISH","WA",98290,47.9292561170001,-122.099751894,107,"1429 AVE D PMB 213, SNOHOMISH, WA, 98290","Match","Exact","1429 AVE D, SNOHOMISH, WA, 98290",187750351,"R"
61108,"1429 AVENUE D 172","SNOHOMISH","WA",98290,47.9292561170001,-122.099751894,108,"1429 AVENUE D 172, SNOHOMISH, WA, 98290","Match","Exact","1429 AVE D, SNOHOMISH, WA, 98290",187750351,"R"
61109,"1429 BEAUMONT WAY","MYRTLE BEACH","SC",29577,33.663454991,-78.9601910329999,109,"1429 BEAUMONT WAY, MYRTLE BEACH, SC, 29577","Match","Exact","1429 BEAUMONT WAY, MYRTLE BEACH, SC, 29577",630132249,"R"
61110,"1429 BOOMERS LOOP E","SANTA CLARA","UT",84765,37.1327132210001,-113.66821313,110,"1429 BOOMERS LOOP E, SANTA CLARA, UT, 84765","Match","Exact","1429 BOOMERS LOOP E, SANTA CLARA, UT, 84765",645611518,"R"
61111,"1429 BURFORD STREET LOT 4","GREENVILLE","NC",27834,35.6651962780001,-77.318860677,111,"1429 BURFORD STREET LOT 4, GREENVILLE, NC, 27834","Match","Exact","1429 BURFORD ST, GREENVILLE, NC, 27834",80026304,"R"
61112,"1429 BUSINESS CENTER DR","CONYERS","GA",30094,NA,NA,112,"1429 BUSINESS CENTER DR, CONYERS, GA, 30094","No_Match",NA,NA,NA,NA
61113,"1429 CAROUSEL ROAD","CHATTANOOGA","TN",37411,35.0510007170001,-85.246839256,113,"1429 CAROUSEL ROAD, CHATTANOOGA, TN, 37411","Match","Exact","1429 CAROUSEL RD, CHATTANOOGA, TN, 37411",59310660,"R"
61114,"1429 CARROLL STREET APT 4F","BROOKLYN","NY",11213,40.6666213230001,-73.94034842,114,"1429 CARROLL STREET APT 4F, BROOKLYN, NY, 11213","Match","Exact","1429 CARROLL ST, BROOKLYN, NY, 11213",59079702,"L"
61115,"1429 DARTMOUTH DRIVE","SOUTHLAKE","TX",76092,32.932741477,-97.171862668,115,"1429 DARTMOUTH DRIVE, SOUTHLAKE, TX, 76092","Match","Exact","1429 DARTMOUTH DR, SOUTHLAKE, TX, 76092",102088624,"R"
61116,"1429 DUKE STREET","ALEXANDRIA","VA",22314,38.8038432370001,-77.0557930529999,116,"1429 DUKE STREET, ALEXANDRIA, VA, 22314","Match","Exact","1429 DUKE ST, ALEXANDRIA, VA, 22314",76064699,"R"
61117,"1429 E 3RD STREET","OKMULGEE","OK",74447,35.6253566140001,-95.951559694,117,"1429 E 3RD STREET, OKMULGEE, OK, 74447","Match","Exact","1429 E 3RD ST, OKMULGEE, OK, 74447",166246212,"L"
61118,"1429 E 3RD","OKMULGEE","OK",74447,35.6253566140001,-95.951559694,118,"1429 E 3RD, OKMULGEE, OK, 74447","Match","Non_Exact","1429 E 3RD ST, OKMULGEE, OK, 74447",166246212,"L"
61119,"1429 E 4300 N","BUHL","ID",83316,42.6225039990001,-114.765968481,119,"1429 E 4300 N, BUHL, ID, 83316","Match","Exact","1429 E 4300 N, BUHL, ID, 83316",649900840,"R"
61120,"1429 E DESERT STARLING LN","TUCSON","AZ",85737,32.397896889,-110.950573672,120,"1429 E DESERT STARLING LN, TUCSON, AZ, 85737","Match","Exact","1429 E DESERT STARLING LN, TUCSON, AZ, 85737",647286502,"L"
61121,"1429 E MAXLOW AVE","HAZEL PARK","MI",48030,NA,NA,121,"1429 E MAXLOW AVE, HAZEL PARK, MI, 48030","Tie",NA,NA,NA,NA
61122,"1429 HARRINGTON DRIVE","PLANO","TX",75075,33.031664318,-96.720681688,122,"1429 HARRINGTON DRIVE, PLANO, TX, 75075","Match","Exact","1429 HARRINGTON DR, PLANO, TX, 75075",123557137,"L"
61123,"1429 HILLSPRING ROAD","EMINENCE","KY",40019,38.3555890960001,-85.141001052,123,"1429 HILLSPRING ROAD, EMINENCE, KY, 40019","Match","Exact","1429 HILLSPRING RD, EMINENCE, KY, 40019",649789502,"L"
61124,"1429 KECK RIDGE DR","OFALLON","IL",62269,38.6152879300001,-89.878211119,124,"1429 KECK RIDGE DR, OFALLON, IL, 62269","Match","Non_Exact","1429 KECK RIDGE DR, O FALLON, IL, 62269",635624112,"L"
61125,"1429 KINGS PARK CT NW","KENNESAW","GA",30152,NA,NA,125,"1429 KINGS PARK CT NW, KENNESAW, GA, 30152","No_Match",NA,NA,NA,NA
61126,"1429 LAIRD AVENUE","SALT LAKE CITY","UT",84105,NA,NA,126,"1429 LAIRD AVENUE, SALT LAKE CITY, UT, 84105","Tie",NA,NA,NA,NA
61127,"1429 MIKON STREET","WEST SACRAMENTO","CA",95605,38.5893818530001,-121.535766164,127,"1429 MIKON STREET, WEST SACRAMENTO, CA, 95605","Match","Exact","1429 MIKON ST, WEST SACRAMENTO, CA, 95605",67692734,"L"
61128,"1429 N RIVERFRONT DRIVE","MANKATO6","MN",56001,44.18027806,-93.990312547,128,"1429 N RIVERFRONT DRIVE, MANKATO6, MN, 56001","Match","Non_Exact","1429 N RIVERFRONT DR, MANKATO, MN, 56001",28104659,"R"
61129,"1429 NE 2ND ST","MINNEAPOLIS","MN",55413,45.0023372730001,-93.266104727,129,"1429 NE 2ND ST, MINNEAPOLIS, MN, 55413","Match","Non_Exact","1429 2ND ST NE, MINNEAPOLIS, MN, 55413",43835700,"R"
61130,"1429 NORTH PALM AVENUE","UPLAND","CA",91786,34.1147222440001,-117.6533799,130,"1429 NORTH PALM AVENUE, UPLAND, CA, 91786","Match","Exact","1429 N PALM AVE, UPLAND, CA, 91786",144983498,"R"
61131,"1429 PALESTINE DR","PROSPER","TX",75078,33.23285235,-96.852684225,131,"1429 PALESTINE DR, PROSPER, TX, 75078","Match","Exact","1429 PALESTINE DR, PROSPER, TX, 75078",614147640,"L"
61132,"1429 PINON SHADOW DR","PRESCOTT","AZ",86305,34.595975922,-112.485510648,132,"1429 PINON SHADOW DR, PRESCOTT, AZ, 86305","Match","Non_Exact","1429 PINION SHADOW DR, PRESCOTT, AZ, 86305",608209056,"L"
61133,"1429 PLYMOUTH AVE","SAN FRANCISCO","CA",94112,37.7282308170001,-122.456498372,133,"1429 PLYMOUTH AVE, SAN FRANCISCO, CA, 94112","Match","Exact","1429 PLYMOUTH AVE, SAN FRANCISCO, CA, 94112",192285753,"L"
61134,"1429 RADCLIFF LANE","MANTECA","CA",95336,37.8185676680001,-121.237156335,134,"1429 RADCLIFF LANE, MANTECA, CA, 95336","Match","Exact","1429 RADCLIFF LN, MANTECA, CA, 95336",133857856,"L"
61135,"1429 S GRAND","BOZEMAN","MT",59715,45.664779395,-111.040290718,135,"1429 S GRAND, BOZEMAN, MT, 59715","Match","Non_Exact","1429 S GRAND AVE, BOZEMAN, MT, 59715",163498602,"L"
61136,"1429 SUMMERLAND AVENUE","SAN PEDRO","CA",90732,33.746972574,-118.307360115,136,"1429 SUMMERLAND AVENUE, SAN PEDRO, CA, 90732","Match","Non_Exact","1429 W SUMMERLAND AVE, SAN PEDRO, CA, 90732",141689063,"L"
61137,"1429 SUNSET","CHICO","CA",95926,39.745706028,-121.837695209,137,"1429 SUNSET, CHICO, CA, 95926","Match","Non_Exact","1429 SUNSET AVE, CHICO, CA, 95926",640585774,"L"
61138,"1429 TUSCAN DRIVE","FUQUAY VARINA","NC",27526,35.6039044570001,-78.755634281,138,"1429 TUSCAN DRIVE, FUQUAY VARINA, NC, 27526","Match","Exact","1429 TUSCAN DR, FUQUAY VARINA, NC, 27526",632101917,"L"
61139,"1429 W BELMONT ST","BOISE","ID",83706,43.599683699,-116.198987699,139,"1429 W BELMONT ST, BOISE, ID, 83706","Match","Exact","1429 BELMONT ST, BOISE, ID, 83706",117864984,"L"
61140,"1429 W CHICAGO AVENUE","CHICAGO","IL",60642,41.8961266850001,-87.663481307,140,"1429 W CHICAGO AVENUE, CHICAGO, IL, 60642","Match","Exact","1429 W CHICAGO AVE, CHICAGO, IL, 60642",111765231,"L"
61141,"1429 W RUNNING BROOK RD","NASHVILLE","TN",37209,36.119428312,-86.932645173,141,"1429 W RUNNING BROOK RD, NASHVILLE, TN, 37209","Match","Exact","1429 W RUNNING BROOK RD, NASHVILLE, TN, 37209",631774154,"L"
61142,"1429 W VICTORIA STREET APT 2","CHICAGO","IL",60660,41.9871901010001,-87.666209608,142,"1429 W VICTORIA STREET APT 2, CHICAGO, IL, 60660","Match","Non_Exact","1429 W VICTORIA ST, CHICAGO, IL, 60660",605178607,"L"
61143,"1429 WALNUT STREET SUITE 300","PHILADELPHIA","PA",19102,39.9494196370001,-75.164846691,143,"1429 WALNUT STREET SUITE 300, PHILADELPHIA, PA, 19102","Match","Exact","1429 WALNUT ST, PHILADELPHIA, PA, 19102",131407674,"R"
61144,"1429 WATERLAWN AVENUE","CHESAPEAKE","VA",23323,36.7689939950001,-76.318194375,144,"1429 WATERLAWN AVENUE, CHESAPEAKE, VA, 23323","Match","Exact","1429 WATERLAWN AVE, CHESAPEAKE, VA, 23323",121769438,"R"
61145,"1429 WEST 15TH ST","JACKSONVILLE","FL",32209,30.352761362,-81.678335767,145,"1429 WEST 15TH ST, JACKSONVILLE, FL, 32209","Match","Exact","1429 W 15TH ST, JACKSONVILLE, FL, 32209",83895306,"R"
61146,"1429","JACKSONVILLE","FL",32207,NA,NA,146,"1429, JACKSONVILLE, FL, 32207","No_Match",NA,NA,NA,NA
61147,"14290 SW 167TH TERRACE","MIAMI","FL",33177,25.611770123,-80.4242746529999,147,"14290 SW 167TH TERRACE, MIAMI, FL, 33177","Match","Exact","14290 SW 167TH TER, MIAMI, FL, 33177",116080602,"R"
61148,"14290 W 147TH COURT","OLATHE","KS",66062,38.8607737770001,-94.75102601,148,"14290 W 147TH COURT, OLATHE, KS, 66062","Match","Exact","14290 W 147TH CT, OLATHE, KS, 66062",91321146,"R"
61149,"14293 BAKERWOOD PLACE","HAYMARKET","VA",20169,38.827522426,-77.6168934029999,149,"14293 BAKERWOOD PLACE, HAYMARKET, VA, 20169","Match","Exact","14293 BAKERWOOD PL, HAYMARKET, VA, 20169",207142270,"R"
61150,"14295 ARBOLITOS COURT","POWAY","CA",92064,32.9767020740001,-117.053157704,150,"14295 ARBOLITOS COURT, POWAY, CA, 92064","Match","Exact","14295 ARBOLITOS CT, POWAY, CA, 92064",195374185,"R"
61151,"14296 HWY R63","INDIANOLA","IA",50125,NA,NA,151,"14296 HWY R63, INDIANOLA, IA, 50125","No_Match",NA,NA,NA,NA
61152,"14296 S 3600 W","BLUFFDALE","UT",84065,40.4916135030001,-111.976744773,152,"14296 S 3600 W, BLUFFDALE, UT, 84065","Match","Exact","14296 S 3600 W, BLUFFDALE, UT, 84065",639882146,"L"
61153,"14297 ANACAPA CT","FONTANA","CA",92336,34.1132708150001,-117.493008396,153,"14297 ANACAPA CT, FONTANA, CA, 92336","Match","Exact","14297 ANACAPA CT, FONTANA, CA, 92336",144707961,"L"
61154,"14297 ZILLA ST NW","ANDOVER","MN",55304,45.2304379070001,-93.299088381,154,"14297 ZILLA ST NW, ANDOVER, MN, 55304","Match","Exact","14297 ZILLA ST NW, ANDOVER, MN, 55304",97503413,"L"
61155,"14298 MINNEHAHA ST","MISSION HILLS","CA",91345,34.2620094800001,-118.445278559,155,"14298 MINNEHAHA ST, MISSION HILLS, CA, 91345","Match","Exact","14298 MINNEHAHA ST, MISSION HILLS, CA, 91345",141548397,"L"
61156,"143 19 QUINCE AVE","FLUSHING","NY",11355,NA,NA,156,"143 19 QUINCE AVE, FLUSHING, NY, 11355","No_Match",NA,NA,NA,NA
61157,"143 2ND AVE","ROYERSFORD","PA",19468,40.1813717650001,-75.5409556339999,157,"143 2ND AVE, ROYERSFORD, PA, 19468","Match","Exact","143 2ND AVE, ROYERSFORD, PA, 19468",135065643,"R"
61158,"143 4TH AVE","ALBANY","NY",12202,42.6396195630001,-73.7602514819999,158,"143 4TH AVE, ALBANY, NY, 12202","Match","Exact","143 4TH AVE, ALBANY, NY, 12202",18311494,"R"
61159,"143 4TH AVE","HUNTINGTON STATION","NY",11746,40.8421615290001,-73.4149785069999,159,"143 4TH AVE, HUNTINGTON STATION, NY, 11746","Match","Exact","143 4TH AVE, HUNTINGTON STATION, NY, 11746",113965741,"R"
61160,"143 89TH STREET","BROOKLYN","NY",11209,40.6223640440001,-74.036096905,160,"143 89TH STREET, BROOKLYN, NY, 11209","Match","Exact","143 89TH ST, BROOKLYN, NY, 11209",59087358,"L"
61161,"143 ACRES RD UNIT 3001","MONROE","NY",10950,41.343268058,-74.161222018,161,"143 ACRES RD UNIT 3001, MONROE, NY, 10950","Match","Exact","143 ACRES RD, MONROE, NY, 10950",124462910,"L"
61162,"143 ALEXIS COURT","VACHERIE","LA",70090,30.043332424,-90.6647586079999,162,"143 ALEXIS COURT, VACHERIE, LA, 70090","Match","Exact","143 ALEXIS CT, VACHERIE, LA, 70090",93693298,"R"
61163,"143 ALTA ST UNIT A","ARCADIA","CA",91006,34.139007486,-118.027190966,163,"143 ALTA ST UNIT A, ARCADIA, CA, 91006","Match","Exact","143 ALTA ST, ARCADIA, CA, 91006",142742291,"L"
61164,"143 AVENIDA DE LA PAZ","SAN CLEMENTE","CA",92672,33.432101962,-117.613016949,164,"143 AVENIDA DE LA PAZ, SAN CLEMENTE, CA, 92672","Match","Exact","143 AVE DE LA PAZ, SAN CLEMENTE, CA, 92672",609047825,"L"
61165,"143 BARANOF WEST","WESTERVILLE","OH",43081,40.1289884880001,-82.957965278,165,"143 BARANOF WEST, WESTERVILLE, OH, 43081","Match","Exact","143 BARANOF W, WESTERVILLE, OH, 43081",218687679,"L"
61166,"143 BAYLOR LANE","CHARLOTTESVILLE","VA",22902,38.018880472,-78.491040883,166,"143 BAYLOR LANE, CHARLOTTESVILLE, VA, 22902","Match","Exact","143 BAYLOR LN, CHARLOTTESVILLE, VA, 22902",632725436,"L"
61167,"143 BELLEMEADE TRACE","CLINTON","MS",39056,32.334478544,-90.3558277879999,167,"143 BELLEMEADE TRACE, CLINTON, MS, 39056","Match","Exact","143 BELLEMEADE TRCE, CLINTON, MS, 39056",65386951,"L"
61168,"143 BENNETT STREET","BRIDGEPORT","CT",6605,41.1576324690001,-73.229480484,168,"143 BENNETT STREET, BRIDGEPORT, CT, 6605","Match","Exact","143 BENNETT ST, BRIDGEPORT, CT, 06605",3228588,"L"
61169,"143 BIGHAM STREET","PITTSBURGH","PA",15211,40.434584817,-80.0148592799999,169,"143 BIGHAM STREET, PITTSBURGH, PA, 15211","Match","Exact","143 BIGHAM ST, PITTSBURGH, PA, 15211",51633385,"L"
61170,"143 BOARDMAN CANFIELD RD STE 321","BOARDMAN","OH",44512,41.0244031760001,-80.6670383169999,170,"143 BOARDMAN CANFIELD RD STE 321, BOARDMAN, OH, 44512","Match","Exact","143 BOARDMAN CANFIELD RD, BOARDMAN, OH, 44512",64611960,"L"
61171,"143 BOWMAN RD","HANOVER","PA",17331,39.7895560700001,-76.9617736609999,171,"143 BOWMAN RD, HANOVER, PA, 17331","Match","Exact","143 BOWMAN RD, HANOVER, PA, 17331",637568382,"L"
61172,"143 BROAD ST UNIT 2","HUDSON","MA",1749,42.382688198,-71.5643715799999,172,"143 BROAD ST UNIT 2, HUDSON, MA, 1749","Match","Exact","143 BROAD ST, HUDSON, MA, 01749",87139433,"R"
61173,"143 BRUCE STREET 5H","YONKERS","NY",10705,40.913022643,-73.895795117,173,"143 BRUCE STREET 5H, YONKERS, NY, 10705","Match","Non_Exact","143 BRUCE AVE, YONKERS, NY, 10705",139743744,"R"
61174,"143 CADY CENTER SUITE 165","NORTHVILLE","MI",48167,42.4304219900001,-83.483157752,174,"143 CADY CENTER SUITE 165, NORTHVILLE, MI, 48167","Match","Exact","143 CADY CENTER, NORTHVILLE, MI, 48167",95695788,"L"
61175,"143 CADY CENTRE SUITE 266","NORTHVILLE","MI",48167,42.4304219900001,-83.483157752,175,"143 CADY CENTRE SUITE 266, NORTHVILLE, MI, 48167","Match","Exact","143 CADY CENTER, NORTHVILLE, MI, 48167",95695788,"L"
61176,"143 CADY CENTRE","NORTHVILLE","MI",48167,42.4304219900001,-83.483157752,176,"143 CADY CENTRE, NORTHVILLE, MI, 48167","Match","Exact","143 CADY CENTER, NORTHVILLE, MI, 48167",95695788,"L"
61177,"143 CADYCENTRE 122","NORTHVILLE","MI",48167,NA,NA,177,"143 CADYCENTRE 122, NORTHVILLE, MI, 48167","No_Match",NA,NA,NA,NA
61178,"143 CANTON RD","ADVANCE","NC",27006,35.9623762840001,-80.4573017819999,178,"143 CANTON RD, ADVANCE, NC, 27006","Match","Exact","143 CANTON RD, ADVANCE, NC, 27006",640642845,"L"
61179,"143 CAPSTONE COURT","NAPA","CA",94559,38.288042628,-122.264018671,179,"143 CAPSTONE COURT, NAPA, CA, 94559","Match","Exact","143 CAPSTONE CT, NAPA, CA, 94559",67428465,"R"
61180,"143 CEDAR STREET","LEXINGTON","MA",2421,42.4543224060001,-71.247667228,180,"143 CEDAR STREET, LEXINGTON, MA, 2421","Match","Exact","143 CEDAR ST, LEXINGTON, MA, 02421",86881597,"R"
61181,"143 CEDAR VALLEY ROAD - 203","HUDSON","NC",28638,35.845048691,-81.4900459419999,181,"143 CEDAR VALLEY ROAD - 203, HUDSON, NC, 28638","Match","Exact","143 CEDAR VALLEY RD, HUDSON, NC, 28638",45847905,"R"
61182,"143 CENTRAL AVENUE","BROOKLYN","NY",11221,40.6994582450001,-73.927548507,182,"143 CENTRAL AVENUE, BROOKLYN, NY, 11221","Match","Exact","143 CENTRAL AVE, BROOKLYN, NY, 11221",59099425,"L"
61183,"143 CLAUDETTE CT LOWER","CHEEKTOWAGA","NY",14225,42.920996555,-78.741168617,183,"143 CLAUDETTE CT LOWER, CHEEKTOWAGA, NY, 14225","Match","Exact","143 CLAUDETTE CT, CHEEKTOWAGA, NY, 14225",48305809,"R"
61184,"143 COLFAX ROAD","HAVERTOWN","PA",19083,39.987558129,-75.317197361,184,"143 COLFAX ROAD, HAVERTOWN, PA, 19083","Match","Exact","143 COLFAX RD, HAVERTOWN, PA, 19083",134873116,"L"
61185,"143 COLLINSDALE RD","GALLAGHER","WV",25083,38.0357823890001,-81.3631601179999,185,"143 COLLINSDALE RD, GALLAGHER, WV, 25083","Match","Exact","143 COLLINSDALE RD, GALLAGHER, WV, 25083",75069147,"L"
61186,"143 COUNTRY CLUB BLVD","WORCESTER","MA",1605,42.3006566940001,-71.7770166719999,186,"143 COUNTRY CLUB BLVD, WORCESTER, MA, 1605","Match","Exact","143 COUNTRY CLUB BLVD, WORCESTER, MA, 01605",40012972,"L"
61187,"143 COUNTRY CLUB DR","PURYEAR","TN",38251,NA,NA,187,"143 COUNTRY CLUB DR, PURYEAR, TN, 38251","No_Match",NA,NA,NA,NA
61188,"143 CRANE DR UNIT E","PAWLEYS ISLAND","SC",29585,33.4324564730001,-79.133126795,188,"143 CRANE DR UNIT E, PAWLEYS ISLAND, SC, 29585","Match","Exact","143 CRANE DR, PAWLEYS ISLAND, SC, 29585",631906961,"L"
61189,"143 CREEKSIDE DRIVE","DAGSBORO","DE",19939,38.5612952980001,-75.203303633,189,"143 CREEKSIDE DRIVE, DAGSBORO, DE, 19939","Match","Exact","143 CREEKSIDE DR, DAGSBORO, DE, 19939",639980047,"R"
61190,"143 CRESTVIEW DR","NORTH LITTLE ROCK","AR",72116,34.7822842310001,-92.262945745,190,"143 CRESTVIEW DR, NORTH LITTLE ROCK, AR, 72116","Match","Exact","143 CRESTVIEW DR, N LITTLE ROCK, AR, 72116",83568757,"R"
61191,"143 DENNY ROAD","VALENCIA","PA",16059,40.683543463,-79.9433213189999,191,"143 DENNY ROAD, VALENCIA, PA, 16059","Match","Exact","143 DENNY RD, VALENCIA, PA, 16059",52673181,"L"
61192,"143 DESERT WILLOW WAY","AUSTIN","TX",78737,30.168658953,-98.002445998,192,"143 DESERT WILLOW WAY, AUSTIN, TX, 78737","Match","Exact","143 DESERT WILLOW WAY, AUSTIN, TX, 78737",627715528,"R"
61193,"143 DIVISION STREET","FREEPORT","MI",49325,42.765998133,-85.315560324,193,"143 DIVISION STREET, FREEPORT, MI, 49325","Match","Exact","143 DIVISION ST, FREEPORT, MI, 49325",10503446,"R"
61194,"143 E 109TH STREET","LOS ANGELES","CA",90061,33.9374073230001,-118.272734906,194,"143 E 109TH STREET, LOS ANGELES, CA, 90061","Match","Exact","143 E 109TH ST, LOS ANGELES, CA, 90061",141672999,"L"
61195,"143 E BURRELL STREET","BLAIRSVILLE","PA",15717,40.4372577090001,-79.263315453,195,"143 E BURRELL STREET, BLAIRSVILLE, PA, 15717","Match","Exact","143 E BURRELL ST, BLAIRSVILLE, PA, 15717",66294716,"L"
61196,"143 E MAIN ST","GALESBURG","IL",61401,40.9474707530001,-90.3689796739999,196,"143 E MAIN ST, GALESBURG, IL, 61401","Match","Exact","143 E MAIN ST, GALESBURG, IL, 61401",608275905,"R"
61197,"143 E PLYMOUTH ST NO 1","LONG BEACH","CA",90805,NA,NA,197,"143 E PLYMOUTH ST NO 1, LONG BEACH, CA, 90805","No_Match",NA,NA,NA,NA
61198,"143 EARL ST","PLAINVILLE","GA",30733,34.4053909880001,-85.0379238419999,198,"143 EARL ST, PLAINVILLE, GA, 30733","Match","Exact","143 EARL ST, PLAINVILLE, GA, 30733",57329084,"R"
61199,"143 EAST MONMOUTH AVENUE","TONAWANDA","NY",14150,42.9817372890001,-78.8478832439999,199,"143 EAST MONMOUTH AVENUE, TONAWANDA, NY, 14150","Match","Exact","143 E MONMOUTH AVE, TONAWANDA, NY, 14150",48288138,"R"
61200,"143 EAST ROBBINS AVE","NEWINGTON","CT",6111,41.687230082,-72.7153265599999,200,"143 EAST ROBBINS AVE, NEWINGTON, CT, 6111","Match","Exact","143 E ROBBINS AVE, NEWINGTON, CT, 06111",3515210,"R"
61201,"143 EDGEWOOD STREET","HARTFORD","CT",6112,41.781756235,-72.690638548,201,"143 EDGEWOOD STREET, HARTFORD, CT, 6112","Match","Exact","143 EDGEWOOD ST, HARTFORD, CT, 06112",3489059,"L"
61202,"143 ELIZABETH ST","EUFAULA","AL",36027,31.841288337,-85.1590059549999,202,"143 ELIZABETH ST, EUFAULA, AL, 36027","Match","Exact","143 ELIZABETH ST, EUFAULA, AL, 36027",69085465,"L"
61203,"143 ELLISEN RD","WATCHUNG","NJ",7069,40.649627083,-74.425745435,203,"143 ELLISEN RD, WATCHUNG, NJ, 7069","Match","Exact","143 ELLISEN RD, WATCHUNG, NJ, 07069",59948695,"L"
61204,"143 ELMHURST ST","HIGHLAND PARK","MI",48203,42.392551596,-83.0943674009999,204,"143 ELMHURST ST, HIGHLAND PARK, MI, 48203","Match","Exact","143 ELMHURST ST, HIGHLAND PARK, MI, 48203",95475069,"L"
61205,"143 ENCHANTED COVE","AUSTIN","TX",78737,30.1725626790001,-97.999166862,205,"143 ENCHANTED COVE, AUSTIN, TX, 78737","Match","Exact","143 ENCHANTED COVE, AUSTIN, TX, 78737",627974731,"L"
61206,"143 EVANS TRAIL","TIPTON","MI",49287,42.054635288,-84.121307551,206,"143 EVANS TRAIL, TIPTON, MI, 49287","Match","Exact","143 EVANS TRL, TIPTON, MI, 49287",25954981,"R"
61207,"143 FARMINGTON AVE","NEW BRITAIN","CT",6053,41.681196544,-72.7878118,207,"143 FARMINGTON AVE, NEW BRITAIN, CT, 6053","Match","Exact","143 FARMINGTON AVE, NEW BRITAIN, CT, 06053",3509857,"R"
61208,"143 FARNUM DRIVE","HOLYOKE","MA",1040,42.1798110340001,-72.636699471,208,"143 FARNUM DRIVE, HOLYOKE, MA, 1040","Match","Exact","143 FARNUM DR, HOLYOKE, MA, 01040",4058127,"L"
61209,"143 FIELDS STREET","LANCASTER","KY",40444,37.6678568670001,-84.6687195499999,209,"143 FIELDS STREET, LANCASTER, KY, 40444","Match","Exact","143 FIELDS ST, LANCASTER, KY, 40444",32535082,"L"
61210,"143 FIFTH STREET","BANGOR","ME",4401,44.7972809870001,-68.7831072229999,210,"143 FIFTH STREET, BANGOR, ME, 4401","Match","Exact","143 5TH ST, BANGOR, ME, 04401",123628944,"R"
61211,"143 GLEN AVE","MIDLAND PARK","NJ",7432,40.9952285680001,-74.1341968519999,211,"143 GLEN AVE, MIDLAND PARK, NJ, 7432","Match","Exact","143 GLEN AVE, MIDLAND PARK, NJ, 07432",64405014,"L"
61212,"143 GLEN AVENUE","MIDLAND PARK","NJ",7432,40.9952285680001,-74.1341968519999,212,"143 GLEN AVENUE, MIDLAND PARK, NJ, 7432","Match","Exact","143 GLEN AVE, MIDLAND PARK, NJ, 07432",64405014,"L"
61213,"143 GLOUCESTER COURT","NEWINGTON","CT",6111,41.662152765,-72.723958049,213,"143 GLOUCESTER COURT, NEWINGTON, CT, 6111","Match","Exact","143 GLOUCESTER CT, NEWINGTON, CT, 06111",3515520,"R"
61214,"143 GOOD HOPE ROAD","BLUFFTON","SC",29909,32.3086691180001,-80.911388986,214,"143 GOOD HOPE ROAD, BLUFFTON, SC, 29909","Match","Exact","143 GOOD HOPE RD, BLUFFTON, SC, 29909",612416376,"R"
61215,"143 GRAND AVE","SARATOGA SPRINGS","NY",12866,43.079627165,-73.793019132,215,"143 GRAND AVE, SARATOGA SPRINGS, NY, 12866","Match","Exact","143 GRAND AVE, SARATOGA SPGS, NY, 12866",18786120,"L"
61216,"143 GUNTER HOLLOW RD","ROSELAND","VA",22967,37.7507679440001,-78.970982373,216,"143 GUNTER HOLLOW RD, ROSELAND, VA, 22967","Match","Non_Exact","143 GUNTER HOLLOW LN, ROSELAND, VA, 22967",98910261,"L"
61217,"143 HADLEY ROAD","TUPELO","MS",38804,NA,NA,217,"143 HADLEY ROAD, TUPELO, MS, 38804","No_Match",NA,NA,NA,NA
61218,"143 HALLS HEIGHTS AVE","YOUNGSTOWN","OH",44509,41.0991999490001,-80.679012067,218,"143 HALLS HEIGHTS AVE, YOUNGSTOWN, OH, 44509","Match","Exact","143 HALLS HEIGHTS AVE, YOUNGSTOWN, OH, 44509",64594471,"L"
61219,"143 HARBET AVE NW","CEDAR RAPIDS","IA",52405,41.970108866,-91.7349427619999,219,"143 HARBET AVE NW, CEDAR RAPIDS, IA, 52405","Match","Exact","143 HARBET AVE NW, CEDAR RAPIDS, IA, 52405",17024067,"R"
61220,"143 HARTWICK LANE","FOUNTAIN INN","SC",29644,34.672615905,-82.247888168,220,"143 HARTWICK LANE, FOUNTAIN INN, SC, 29644","Match","Exact","143 HARTWICK LN, FOUNTAIN INN, SC, 29644",637568322,"L"
61221,"143 HATTON FERRY RD","SCOTTSVILLE","VA",24590,37.750474641,-78.509961314,221,"143 HATTON FERRY RD, SCOTTSVILLE, VA, 24590","Match","Exact","143 HATTON FERRY RD, SCOTTSVILLE, VA, 24590",73763266,"R"
61222,"143 HIGHLAND AVE","BRIDGEPORT","CT",6604,41.183341087,-73.1964825759999,222,"143 HIGHLAND AVE, BRIDGEPORT, CT, 6604","Match","Exact","143 HIGHLAND AVE, BRIDGEPORT, CT, 06604",3224077,"L"
61223,"143 HONEYSUCKLE LN","SAN ANTONIO","TX",78213,29.515933412,-98.51654837,223,"143 HONEYSUCKLE LN, SAN ANTONIO, TX, 78213","Match","Exact","143 HONEYSUCKLE LN, SAN ANTONIO, TX, 78213",101494378,"L"
61224,"143 HUNTINGTON ST APT 2","BROOKLYN","NY",11231,40.676205688,-74.000316363,224,"143 HUNTINGTON ST APT 2, BROOKLYN, NY, 11231","Match","Exact","143 HUNTINGTON ST, BROOKLYN, NY, 11231",59097997,"L"
61225,"143 JORDAN DRIVE","BRYAN","OH",43506,41.459624465,-84.5406769269999,225,"143 JORDAN DRIVE, BRYAN, OH, 43506","Match","Non_Exact","143 JORDON DR, BRYAN, OH, 43506",8335345,"R"
61226,"143 KENNEDY DR","ORANGE","CT",6477,41.2847769960001,-72.9975056219999,226,"143 KENNEDY DR, ORANGE, CT, 6477","Match","Exact","143 KENNEDY DR, ORANGE, CT, 06477",3697513,"R"
61227,"143 KING PINE RD","SHERWOOD","AR",72120,34.839319312,-92.204928649,227,"143 KING PINE RD, SHERWOOD, AR, 72120","Match","Exact","143 KING PINE RD, SHERWOOD, AR, 72120",647732548,"L"
61228,"143 KING STREET","REDWOOD CITY","CA",94062,37.4812672790001,-122.245773811,228,"143 KING STREET, REDWOOD CITY, CA, 94062","Match","Exact","143 KING ST, REDWOOD CITY, CA, 94062",192360869,"L"
61229,"143 KODIAK LANE","CHEHALIS","WA",98532,46.6676919880001,-122.916855,229,"143 KODIAK LANE, CHEHALIS, WA, 98532","Match","Exact","143 KODIAK LN, CHEHALIS, WA, 98532",633961008,"R"
61230,"143 KONTIKI PL","SAN ANTONIO","TX",78242,29.3705073140001,-98.616489164,230,"143 KONTIKI PL, SAN ANTONIO, TX, 78242","Match","Exact","143 KONTIKI PL, SAN ANTONIO, TX, 78242",101508266,"R"
61231,"143 LAKESIDE DR","COLUMBIA","TN",38474,35.5793528400001,-87.1558752829999,231,"143 LAKESIDE DR, COLUMBIA, TN, 38474","Match","Non_Exact","143 LAKESIDE DR, COLUMBIA, TN, 38401",26892392,"R"
61232,"143 LANDFORD DRIVE","ELMONT","NY",11003,40.6907593510001,-73.7145031049999,232,"143 LANDFORD DRIVE, ELMONT, NY, 11003","Match","Exact","143 LANDFORD DR, ELMONT, NY, 11003",147667770,"L"
61233,"143 LANDING CIRCLE","HAZEL GREEN","AL",35750,34.9411077600001,-86.596844144,233,"143 LANDING CIRCLE, HAZEL GREEN, AL, 35750","Match","Exact","143 LANDING CIR, HAZEL GREEN, AL, 35750",58199961,"R"
61234,"143 LAUREL AVE","ARCADIA","CA",91006,34.1501435390001,-118.026295162,234,"143 LAUREL AVE, ARCADIA, CA, 91006","Match","Exact","143 LAUREL AVE, ARCADIA, CA, 91006",141645079,"L"
61235,"143 LETA LANE","HOT SPRINGS","AR",71913,34.403130553,-93.06850378,235,"143 LETA LANE, HOT SPRINGS, AR, 71913","Match","Exact","143 LETA LN, HOT SPRINGS, AR, 71913",22753436,"L"
61236,"143 LIBERTY RD","ENGLEWOOD","NJ",7631,40.898224283,-73.979929075,236,"143 LIBERTY RD, ENGLEWOOD, NJ, 7631","Match","Exact","143 LIBERTY RD, ENGLEWOOD, NJ, 07631",64375089,"R"
61237,"143 LIBERTY ROAD","ENGLEWOOD","NJ",7631,40.898224283,-73.979929075,237,"143 LIBERTY ROAD, ENGLEWOOD, NJ, 7631","Match","Exact","143 LIBERTY RD, ENGLEWOOD, NJ, 07631",64375089,"R"
61238,"143 M AND M HOLLOW ROAD","PENNSBORO","WV",26415,39.273652848,-80.843087509,238,"143 M AND M HOLLOW ROAD, PENNSBORO, WV, 26415","Match","Exact","143 M AND M HOLW, PENNSBORO, WV, 26415",55188731,"L"
61239,"143 M ST","EUREKA","CA",95501,40.805595311,-124.158950486,239,"143 M ST, EUREKA, CA, 95501","Match","Exact","143 M ST, EUREKA, CA, 95501",112991804,"R"
61240,"143 MAIN STREET NORTH","BRIDGEWATER","CT",6752,41.5406444480001,-73.367545417,240,"143 MAIN STREET NORTH, BRIDGEWATER, CT, 6752","Match","Exact","143 MAIN ST N, BRIDGEWATER, CT, 06752",3118486,"L"
61241,"143 MAIN STREET","ASHLAND","PA",17921,40.763187891,-76.402018208,241,"143 MAIN STREET, ASHLAND, PA, 17921","Match","Exact","143 MAIN ST, ASHLAND, PA, 17921",70973611,"L"
61242,"143 MARLIN COURT","SAN FRANCISCO","CA",94124,37.727312413,-122.372289521,242,"143 MARLIN COURT, SAN FRANCISCO, CA, 94124","Match","Exact","143 MARLIN CT, SAN FRANCISCO, CA, 94124",192293589,"L"
61243,"143 MASSACHUSETTS AVENUE 4","BOSTON","MA",2115,42.3468958,-71.087582386,243,"143 MASSACHUSETTS AVENUE 4, BOSTON, MA, 2115","Match","Exact","143 MASSACHUSETTS AVE, BOSTON, MA, 02115",85728012,"R"
61244,"143 MCDONALD AVE 3C","BROOKLYN","NY",11218,40.651212064,-73.9810281539999,244,"143 MCDONALD AVE 3C, BROOKLYN, NY, 11218","Match","Exact","143 MCDONALD AVE, BROOKLYN, NY, 11218",59080417,"L"
61245,"143 MELROSE LANDING DRIVE","HAWTHORNE","FL",32640,29.664599202,-81.959952909,245,"143 MELROSE LANDING DRIVE, HAWTHORNE, FL, 32640","Match","Exact","143 MELROSE LANDING DR, HAWTHORNE, FL, 32640",638630596,"R"
61246,"143 MEMORIAL DRIVE UNIT 1E","CALUMET CITY","IL",60409,41.619140853,-87.529497406,246,"143 MEMORIAL DRIVE UNIT 1E, CALUMET CITY, IL, 60409","Match","Exact","143 MEMORIAL DR, CALUMET CITY, IL, 60409",605701496,"L"
61247,"143 MOHICAN ROAD","BLAIRSTOWN","NJ",7825,41.0232011900001,-74.985276019,247,"143 MOHICAN ROAD, BLAIRSTOWN, NJ, 7825","Match","Exact","143 MOHICAN RD, BLAIRSTOWN, NJ, 07825",98086109,"L"
61248,"143 MONTGOMERY ST APT 1","POUGHKEEPSIE","NY",12601,41.6986128820001,-73.9241290699999,248,"143 MONTGOMERY ST APT 1, POUGHKEEPSIE, NY, 12601","Match","Exact","143 MONTGOMERY ST, POUGHKEEPSIE, NY, 12601",4226889,"R"
61249,"143 MOSSY LANE","MARTINSBURG","WV",25404,39.491902957,-77.9618897079999,249,"143 MOSSY LANE, MARTINSBURG, WV, 25404","Match","Exact","143 MOSSY LN, MARTINSBURG, WV, 25404",618011209,"L"
61250,"143 MULBERRY ST","STAMFORD","CT",6907,41.095827473,-73.5251327129999,250,"143 MULBERRY ST, STAMFORD, CT, 6907","Match","Exact","143 MULBERRY ST, STAMFORD, CT, 06907",3274891,"R"
61251,"143 NEEDHAM STREET","DEDHAM","MA",2026,42.269717008,-71.1810788499999,251,"143 NEEDHAM STREET, DEDHAM, MA, 2026","Match","Exact","143 NEEDHAM ST, DEDHAM, MA, 02026",640761394,"R"
61252,"143 NEW FREEDOM ROAD","BERLIN","NJ",8009,39.7800904370001,-74.928899842,252,"143 NEW FREEDOM ROAD, BERLIN, NJ, 8009","Match","Exact","143 NEW FREEDOM RD, BERLIN, NJ, 08009",637146872,"L"
61253,"143 NORTH 5TH AVE","LONG BRANCH","NJ",7740,40.308726951,-73.991679338,253,"143 NORTH 5TH AVE, LONG BRANCH, NJ, 7740","Match","Exact","143 N 5TH AVE, LONG BRANCH, NJ, 07740",90460556,"R"
61254,"143 NORTH SUNSET SUITE 2","PIQUA","OH",45356,40.1460373780001,-84.269110373,254,"143 NORTH SUNSET SUITE 2, PIQUA, OH, 45356","Match","Non_Exact","143 N SUNSET DR, PIQUA, OH, 45356",135294232,"R"
61255,"143 NORTHAMPTON DRIVE","HOLMDEL","NJ",7733,NA,NA,255,"143 NORTHAMPTON DRIVE, HOLMDEL, NJ, 7733","No_Match",NA,NA,NA,NA
61256,"143 NORWAY LOOP ROAD","FAIRMONT","WV",26554,39.464193811,-80.184036557,256,"143 NORWAY LOOP ROAD, FAIRMONT, WV, 26554","Match","Exact","143 NORWAY LOOP RD, FAIRMONT, WV, 26554",652445276,"L"
61257,"143 OLD QUARRY ROAD","SHOHOLA","PA",18458,NA,NA,257,"143 OLD QUARRY ROAD, SHOHOLA, PA, 18458","No_Match",NA,NA,NA,NA
61258,"143 OLD STUDIO ROAD","NEW CANAAN","CT",6840,41.13328168,-73.497419034,258,"143 OLD STUDIO ROAD, NEW CANAAN, CT, 6840","Match","Exact","143 OLD STUDIO RD, NEW CANAAN, CT, 06840",639765113,"L"
61259,"143 PALERMO DR","ISLAMORADA","FL",33036,24.954894257,-80.584417023,259,"143 PALERMO DR, ISLAMORADA, FL, 33036","Match","Exact","143 PALERMO DR, ISLAMORADA, FL, 33036",116467265,"R"
61260,"143 PARISH ROAD","NEW CANAAN","CT",6840,41.1370705260001,-73.5103256089999,260,"143 PARISH ROAD, NEW CANAAN, CT, 6840","Match","Exact","143 PARISH RD, NEW CANAAN, CT, 06840",3258409,"R"
61261,"143 PARKS ROAD","SAINT JOHNSBURY","VT",5819,44.4357167480001,-71.981296421,261,"143 PARKS ROAD, SAINT JOHNSBURY, VT, 5819","Match","Exact","143 PARKS RD, SAINT JOHNSBURY, VT, 05819",181078355,"L"
61262,"143 PARKWAY DRIVE","HAMPTON","VA",23669,37.0463470770001,-76.353379009,262,"143 PARKWAY DRIVE, HAMPTON, VA, 23669","Match","Exact","143 PARKWAY DR, HAMPTON, VA, 23669",103806832,"L"
61263,"143 PATTON LANE","EDINBURG","PA",16116,41.05974803,-80.4345220819999,263,"143 PATTON LANE, EDINBURG, PA, 16116","Match","Exact","143 PATTON LN, EDINBURG, PA, 16116",65192824,"L"
61264,"143 PINE COVE DR","SEAFORD","DE",19973,38.6476801420001,-75.5984667009999,264,"143 PINE COVE DR, SEAFORD, DE, 19973","Match","Exact","143 PINE COVE DR, SEAFORD, DE, 19973",106133270,"R"
61265,"143 PINTAIL WAY","LOCUST GROVE","GA",30248,33.3677622370001,-84.167408248,265,"143 PINTAIL WAY, LOCUST GROVE, GA, 30248","Match","Exact","143 PINTAIL WAY, LOCUST GROVE, GA, 30248",210410907,"L"
61266,"143 PLYMOUTH STREET","EAST BRIDGEWATER","MA",2333,42.025934335,-70.952127273,266,"143 PLYMOUTH STREET, EAST BRIDGEWATER, MA, 2333","Match","Exact","143 PLYMOUTH ST, E BRIDGEWATER, MA, 02333",87483748,"R"
61267,"143 POCAHONTAS PLACE","HAMPTON","VA",23661,37.0028120810001,-76.377292327,267,"143 POCAHONTAS PLACE, HAMPTON, VA, 23661","Match","Exact","143 POCAHONTAS PL, HAMPTON, VA, 23661",103805867,"L"
61268,"143 POKUKALA ST","KAPAA","HI",96746,22.0541371670001,-159.375603646,268,"143 POKUKALA ST, KAPAA, HI, 96746","Match","Exact","143 POKUKALA ST, KAPAA, HI, 96746",203397658,"R"
61269,"143 POPS LN","LEWISBURG","PA",17837,41.016979873,-76.982941806,269,"143 POPS LN, LEWISBURG, PA, 17837","Match","Exact","143 POPS LN, LEWISBURG, PA, 17837",48196748,"L"
61270,"143 POST FARM ROAD","LOST CREEK","WV",26385,NA,NA,270,"143 POST FARM ROAD, LOST CREEK, WV, 26385","No_Match",NA,NA,NA,NA
61271,"143 PRAIRIE AVENUE 1ST FLOOR","PROVIDENCE","RI",2905,41.8105132680001,-71.4155607399999,271,"143 PRAIRIE AVENUE 1ST FLOOR, PROVIDENCE, RI, 2905","Match","Exact","143 PRAIRIE AVE, PROVIDENCE, RI, 02905",47466168,"R"
61272,"143 QUITMAN STREET RM1-B","NEWARK","NJ",7108,40.7256454550001,-74.1851154719999,272,"143 QUITMAN STREET RM1-B, NEWARK, NJ, 7108","Match","Exact","143 QUITMAN ST, NEWARK, NJ, 07108",63496178,"R"
61273,"143 RED FOX RUN","HERTFORD","NC",27944,36.0957050860001,-76.3885377679999,273,"143 RED FOX RUN, HERTFORD, NC, 27944","Match","Exact","143 RED FOX RUN, HERTFORD, NC, 27944",18405913,"L"
61274,"143 RIDGECREST DRIVE","WARRENTON","NC",27589,36.3949969660001,-78.149308049,274,"143 RIDGECREST DRIVE, WARRENTON, NC, 27589","Match","Exact","143 RIDGECREST DR, WARRENTON, NC, 27589",54116647,"R"
61275,"143 RIDGEWAY DR","LAFAYETTE","LA",70503,30.1990022260001,-92.0417855269999,275,"143 RIDGEWAY DR, LAFAYETTE, LA, 70503","Match","Exact","143 RIDGEWAY DR, LAFAYETTE, LA, 70503",85632963,"L"
61276,"143 ROCKY REST ROAD","SHELTON","CT",6484,41.2861983120001,-73.092439736,276,"143 ROCKY REST ROAD, SHELTON, CT, 6484","Match","Exact","143 ROCKY REST RD, SHELTON, CT, 06484",635728682,"R"
61277,"143 ROSEDALE DRIVE","ELIZABETH CITY","NC",27909,36.3222748490001,-76.216065046,277,"143 ROSEDALE DRIVE, ELIZABETH CITY, NC, 27909","Match","Exact","143 ROSEDALE DR, ELIZABETH CITY, NC, 27909",18592240,"R"
61278,"143 S 7600 E","HUNTSVILLE","UT",84317,41.261702331,-111.765579388,278,"143 S 7600 E, HUNTSVILLE, UT, 84317","Match","Exact","143 S 7600 E, HUNTSVILLE, UT, 84317",155687743,"L"
61279,"143 S OAR LOOP SW","OCEAN SHORES","WA",98569,46.982941608,-124.160660055,279,"143 S OAR LOOP SW, OCEAN SHORES, WA, 98569","Match","Exact","143 S OAR LOOP SW, OCEAN SHORES, WA, 98569",180605999,"R"
61280,"143 SADDLE SPUR TRAIL","TIJERAS","NM",87059,35.0701698500001,-106.268191126,280,"143 SADDLE SPUR TRAIL, TIJERAS, NM, 87059","Match","Exact","143 SADDLE SPUR TRL, TIJERAS, NM, 87059",642655713,"R"
61281,"143 SAINT MARKS AVE","BROOKLYN","NY",11238,40.679118154,-73.971256389,281,"143 SAINT MARKS AVE, BROOKLYN, NY, 11238","Match","Exact","143 ST MARKS AVE, BROOKLYN, NY, 11238",59077746,"L"
61282,"143 SANDHILL ROAD","GREENFIELD","NY",12833,43.0998436090001,-73.903046774,282,"143 SANDHILL ROAD, GREENFIELD, NY, 12833","Match","Non_Exact","143 SAND HILL RD, GREENFIELD CENTER, NY, 12833",641157289,"R"
61283,"143 SCHOOL ST","DANIELSON","CT",6239,41.8055878870001,-71.881858987,283,"143 SCHOOL ST, DANIELSON, CT, 6239","Match","Exact","143 SCHOOL ST, DANIELSON, CT, 06239",56447073,"L"
61284,"143 SEAMAN NECK ROAD","DIX HILLS","NY",11746,40.785983666,-73.334669079,284,"143 SEAMAN NECK ROAD, DIX HILLS, NY, 11746","Match","Exact","143 SEAMAN NECK RD, DIX HILLS, NY, 11746",113969597,"L"
61285,"143 SEMINARY AVE","BINGHAMTON","NY",13905,42.097439278,-75.9356633259999,285,"143 SEMINARY AVE, BINGHAMTON, NY, 13905","Match","Exact","143 SEMINARY AVE, BINGHAMTON, NY, 13905",46341407,"L"
61286,"143 SHADY OAKS DRIVE","RICHMOND","KY",40475,37.747313326,-84.190144254,286,"143 SHADY OAKS DRIVE, RICHMOND, KY, 40475","Match","Exact","143 SHADY OAKS DR, RICHMOND, KY, 40475",32005036,"L"
61287,"143 SHAKER RD","EAST LONGMEADOW","MA",1028,NA,NA,287,"143 SHAKER RD, EAST LONGMEADOW, MA, 1028","No_Match",NA,NA,NA,NA
61288,"143 SILVER MAPLE DR","JONESBOROUGH","TN",37659,36.295571823,-82.4256984909999,288,"143 SILVER MAPLE DR, JONESBOROUGH, TN, 37659","Match","Exact","143 SILVER MAPLE DR, JONESBOROUGH, TN, 37659",127936793,"R"
61289,"143 SOUTH JEFFERSON RD","SOUTH BURLINGTON","VT",5403,44.4212865320001,-73.1911820879999,289,"143 SOUTH JEFFERSON RD, SOUTH BURLINGTON, VT, 5403","Match","Non_Exact","143 N JEFFERSON RD, S BURLINGTON, VT, 05403",613233868,"L"
61290,"143 SOUTH PASADENA","MESA","AZ",85210,33.411947297,-111.827572997,290,"143 SOUTH PASADENA, MESA, AZ, 85210","Match","Exact","143 S PASADENA, MESA, AZ, 85210",128235194,"L"
61291,"143 SOUTH SHORE DRIVE","FOREST LAKE","MN",55025,45.273639083,-92.981999517,291,"143 SOUTH SHORE DRIVE, FOREST LAKE, MN, 55025","Match","Exact","143 S SHORE DR, FOREST LAKE, MN, 55025",97787905,"L"
61292,"143 SOUTH ST","ROCKPORT","MA",1966,NA,NA,292,"143 SOUTH ST, ROCKPORT, MA, 1966","No_Match",NA,NA,NA,NA
61293,"143 SPRING STREET","PASSAIC","NJ",7055,40.841724974,-74.127160099,293,"143 SPRING STREET, PASSAIC, NJ, 7055","Match","Exact","143 SPRING ST, PASSAIC, NJ, 07055",65252574,"L"
61294,"143 STOCKS CIRCLE","WEST POINT","GA",31833,32.869215619,-85.143542509,294,"143 STOCKS CIRCLE, WEST POINT, GA, 31833","Match","Exact","143 STOCKS CIR, WEST POINT, GA, 31833",649692161,"L"
61295,"143 STONEY POINTE DR","CHAPIN","SC",29036,34.132410172,-81.34587967,295,"143 STONEY POINTE DR, CHAPIN, SC, 29036","Match","Exact","143 STONEY POINTE DR, CHAPIN, SC, 29036",70077982,"L"
61296,"143 SUMMER GLEN TRL","DALLAS","GA",30157,33.960204214,-84.747161096,296,"143 SUMMER GLEN TRL, DALLAS, GA, 30157","Match","Exact","143 SUMMER GLEN TRL, DALLAS, GA, 30157",207992401,"L"
61297,"143 T STREET NW","WASHINGTON","DC",20001,38.91557843,-77.013443619,297,"143 T STREET NW, WASHINGTON, DC, 20001","Match","Exact","143 T ST NW, WASHINGTON, DC, 20001",638296487,"R"
61298,"143 VELIE ROAD","LAGRANGEVILLE","NY",12540,41.675476675,-73.785180732,298,"143 VELIE ROAD, LAGRANGEVILLE, NY, 12540","Match","Exact","143 VELIE RD, LAGRANGEVILLE, NY, 12540",4170802,"R"
61299,"143 W DARTMOUTH AVE","ENGLEWOOD","CO",80110,39.660467639,-104.989358138,299,"143 W DARTMOUTH AVE, ENGLEWOOD, CO, 80110","Match","Exact","143 W DARTMOUTH AVE, ENGLEWOOD, CO, 80110",177333065,"R"
61300,"143 W FARRELL APT A7","EWING","NJ",8618,NA,NA,300,"143 W FARRELL APT A7, EWING, NJ, 8618","No_Match",NA,NA,NA,NA
61301,"143 W MARIPOSA DR","SAN ANTONIO","TX",78212,29.4803418980001,-98.49380223,301,"143 W MARIPOSA DR, SAN ANTONIO, TX, 78212","Match","Exact","143 W MARIPOSA DR, SAN ANTONIO, TX, 78212",101523040,"R"
61302,"143 W PALO ALTO AVE","FRESNO","CA",93704,36.833330129,-119.793356622,302,"143 W PALO ALTO AVE, FRESNO, CA, 93704","Match","Exact","143 W PALO ALTO AVE, FRESNO, CA, 93704",197572512,"L"
61303,"143 W SUNSET STE 200","SAN ANTONIO","TX",78209,NA,NA,303,"143 W SUNSET STE 200, SAN ANTONIO, TX, 78209","No_Match",NA,NA,NA,NA
61304,"143 WALNUT STREET NW","ATLANTA","GA",30314,33.7587887190001,-84.406384883,304,"143 WALNUT STREET NW, ATLANTA, GA, 30314","Match","Exact","143 WALNUT ST NW, ATLANTA, GA, 30314",17342918,"R"
61305,"143 WALNUT STREET","COSTA MESA","CA",92627,33.643720278,-117.913709188,305,"143 WALNUT STREET, COSTA MESA, CA, 92627","Match","Exact","143 WALNUT ST, COSTA MESA, CA, 92627",144048324,"R"
61306,"143 WANDLE AVE","BEDFORD","OH",44146,41.400489958,-81.543209143,306,"143 WANDLE AVE, BEDFORD, OH, 44146","Match","Exact","143 WANDLE AVE, BEDFORD, OH, 44146",61130024,"R"
61307,"143 WEST 30TH ST 3B","NEW YORK","NY",10001,40.7478090160001,-73.9908637789999,307,"143 WEST 30TH ST 3B, NEW YORK, NY, 10001","Match","Exact","143 W 30TH ST, NEW YORK, NY, 10001",59653403,"R"
61308,"143 WILCOX DRIVE","EDDY","TX",76524,NA,NA,308,"143 WILCOX DRIVE, EDDY, TX, 76524","No_Match",NA,NA,NA,NA
61309,"143 WILKERSON STREET","MONTGOMERY","AL",36104,NA,NA,309,"143 WILKERSON STREET, MONTGOMERY, AL, 36104","No_Match",NA,NA,NA,NA
61310,"143 WINDING VIEW TRAIL","GEORGETOWN","KY",40324,38.2285520200001,-84.683630907,310,"143 WINDING VIEW TRAIL, GEORGETOWN, KY, 40324","Match","Exact","143 WINDING VIEW TRL, GEORGETOWN, KY, 40324",41241910,"L"
61311,"143 WISE AVE SE","NORTH CANTON","OH",44720,40.875268186,-81.394128559,311,"143 WISE AVE SE, NORTH CANTON, OH, 44720","Match","Exact","143 WISE AVE SE, NORTH CANTON, OH, 44720",64704460,"R"
61312,"143 WOODWIND WAY","JONESBORO","GA",30238,33.5008706840001,-84.3982136119999,312,"143 WOODWIND WAY, JONESBORO, GA, 30238","Match","Exact","143 WOODWIND WAY, JONESBORO, GA, 30238",624153093,"L"
61313,"143 YAZOO AVENUE","CLARKSDALE","MS",38614,34.2039284840001,-90.574090088,313,"143 YAZOO AVENUE, CLARKSDALE, MS, 38614","Match","Exact","143 YAZOO AVE, CLARKSDALE, MS, 38614",963231,"L"
61314,"143-20 232 ST","SPRINGFIELD GARDENS","NY",11413,40.6642295870001,-73.744618241,314,"143-20 232 ST, SPRINGFIELD GARDENS, NY, 11413","Match","Exact","143-20 232ND ST, SPRINGFIELD GARDENS, NY, 11413",59735754,"R"
61315,"143-33 SANFORD AVE APT A6","FLUSHING","NY",11355,40.75842099,-73.822344024,315,"143-33 SANFORD AVE APT A6, FLUSHING, NY, 11355","Match","Exact","143-33 SANFORD AVE, FLUSHING, NY, 11355",59701160,"L"
61316,"143-34 232 STREET","LAURELTON","NY",11413,40.663793169,-73.7448921659999,316,"143-34 232 STREET, LAURELTON, NY, 11413","Match","Exact","143-34 232ND ST, LAURELTON, NY, 11413",59735755,"R"
61317,"143","RIVERDALE","IL",60827,NA,NA,317,"143, RIVERDALE, IL, 60827","No_Match",NA,NA,NA,NA
61318,"1430 2ND STREET NORTH","WISCONSIN RAPIDS","WI",54494,44.3997446290001,-89.815155218,318,"1430 2ND STREET NORTH, WISCONSIN RAPIDS, WI, 54494","Match","Exact","1430 2ND ST N, WISCONSIN RAPIDS, WI, 54494",51299330,"R"
61319,"1430 2ND STREET","WILSON","WY",83014,43.5008537680001,-110.868703957,319,"1430 2ND STREET, WILSON, WY, 83014","Match","Exact","1430 2ND ST, WILSON, WY, 83014",130427963,"R"
61320,"1430 34TH ST S SUITE 204","FARGO","IA",58103,NA,NA,320,"1430 34TH ST S SUITE 204, FARGO, IA, 58103","No_Match",NA,NA,NA,NA
61321,"1430 7TH ST","SANGER","CA",93657,36.706308549,-119.55770023,321,"1430 7TH ST, SANGER, CA, 93657","Match","Exact","1430 7TH ST, SANGER, CA, 93657",634685458,"R"
61322,"1430 ALLEGHANY STREET","CHARLOTTE","NC",28208,35.238402916,-80.8930982529999,322,"1430 ALLEGHANY STREET, CHARLOTTE, NC, 28208","Match","Exact","1430 ALLEGHANY ST, CHARLOTTE, NC, 28208",70580082,"R"
61323,"1430 AUDUBON AVENUE","GRAFTON","WI",53024,43.317385243,-87.966658815,323,"1430 AUDUBON AVENUE, GRAFTON, WI, 53024","Match","Exact","1430 AUDUBON AVE, GRAFTON, WI, 53024",95899749,"L"
61324,"1430 AUSTIN ROAD SW","ATLANTA","GA",30331,33.71523727,-84.510452931,324,"1430 AUSTIN ROAD SW, ATLANTA, GA, 30331","Match","Exact","1430 AUSTIN RD SW, ATLANTA, GA, 30331",17337206,"L"
61325,"1430 BEAL ROAD","MANSFIELD","OH",44903,40.797200289,-82.46868697,325,"1430 BEAL ROAD, MANSFIELD, OH, 44903","Match","Exact","1430 BEAL RD, MANSFIELD, OH, 44903",207220586,"R"
61326,"1430 BELL ROAD APT 528","NASHVILLE","TN",37211,36.044751465,-86.686597643,326,"1430 BELL ROAD APT 528, NASHVILLE, TN, 37211","Match","Exact","1430 BELL RD, NASHVILLE, TN, 37211",97216118,"L"
61327,"1430 BELL ROAD SUITE 605","NASHVILLE","TN",37211,36.044751465,-86.686597643,327,"1430 BELL ROAD SUITE 605, NASHVILLE, TN, 37211","Match","Exact","1430 BELL RD, NASHVILLE, TN, 37211",97216118,"L"
61328,"1430 BERGAMOT LOOP APT B","HIGH POINT","NC",27262,NA,NA,328,"1430 BERGAMOT LOOP APT B, HIGH POINT, NC, 27262","No_Match",NA,NA,NA,NA
61329,"1430 BRIGHTON CIRCLE","OLD HICKORY","TN",37138,36.209211807,-86.569928945,329,"1430 BRIGHTON CIRCLE, OLD HICKORY, TN, 37138","Match","Exact","1430 BRIGHTON CIR, OLD HICKORY, TN, 37138",89699222,"R"
61330,"1430 BROADWAY RM 1615","NEW YORK","NY",10018,40.7542037760001,-73.986891267,330,"1430 BROADWAY RM 1615, NEW YORK, NY, 10018","Match","Exact","1430 BROADWAY, NEW YORK, NY, 10018",59658600,"R"
61331,"1430 BROADWAY SUITE 1509","NEW YORK","NY",10018,40.7542037760001,-73.986891267,331,"1430 BROADWAY SUITE 1509, NEW YORK, NY, 10018","Match","Exact","1430 BROADWAY, NEW YORK, NY, 10018",59658600,"R"
61332,"1430 BROADWAY SUITE 1802","NEW YORK","NY",10018,40.7542037760001,-73.986891267,332,"1430 BROADWAY SUITE 1802, NEW YORK, NY, 10018","Match","Exact","1430 BROADWAY, NEW YORK, NY, 10018",59658600,"R"
61333,"1430 BROOKFIELD CT","NEWCASTLE","OK",73065,35.26004593,-97.659380353,333,"1430 BROOKFIELD CT, NEWCASTLE, OK, 73065","Match","Exact","1430 BROOKFIELD CT, NEWCASTLE, OK, 73065",624526004,"L"
61334,"1430 BRYAN AVE","SAN JOSE","CA",95118,37.266059183,-121.888133657,334,"1430 BRYAN AVE, SAN JOSE, CA, 95118","Match","Exact","1430 BRYAN AVE, SAN JOSE, CA, 95118",615526950,"L"
61335,"1430 BUENA VISTA DRIVE","VISTA","CA",92081,33.1719760980001,-117.245697092,335,"1430 BUENA VISTA DRIVE, VISTA, CA, 92081","Match","Exact","1430 BUENA VISTA DR, VISTA, CA, 92081",195376608,"L"
61336,"1430 CHERRY DR","BOZEMAN","MT",59715,45.6607764460001,-111.01459226,336,"1430 CHERRY DR, BOZEMAN, MT, 59715","Match","Exact","1430 CHERRY DR, BOZEMAN, MT, 59715",163498628,"R"
61337,"1430 COTTAGE COVE CIRCLE","NORTH MYRTLE BEACH","SC",29582,33.8423844660001,-78.650729731,337,"1430 COTTAGE COVE CIRCLE, NORTH MYRTLE BEACH, SC, 29582","Match","Exact","1430 COTTAGE COVE CIR, N MYRTLE BCH, SC, 29582",618026109,"R"
61338,"1430 COUNTY ROAD 2150 E","SAINT JOSEPH","IL",61873,40.086918402,-88.0553303569999,338,"1430 COUNTY ROAD 2150 E, SAINT JOSEPH, IL, 61873","Match","Exact","1430 CO RD 2150 E, SAINT JOSEPH, IL, 61873",635570556,"R"
61339,"1430 CRUTCHFIELD ST","ROANOKE","VA",24019,37.3477566930001,-79.926174851,339,"1430 CRUTCHFIELD ST, ROANOKE, VA, 24019","Match","Exact","1430 CRUTCHFIELD ST, ROANOKE, VA, 24019",212557366,"L"
61340,"1430 E COOLEY DR STE 215","COLTON","CA",92324,34.0603580380001,-117.303218507,340,"1430 E COOLEY DR STE 215, COLTON, CA, 92324","Match","Non_Exact","1430 E COOLEY DR, COLTON, CA, 92324",647991620,"R"
61341,"1430 E FLETCHER AVE","TAMPA","FL",33612,28.069239754,-82.4435366439999,341,"1430 E FLETCHER AVE, TAMPA, FL, 33612","Match","Exact","1430 E FLETCHER AVE, TAMPA, FL, 33612",104555973,"L"
61342,"1430 E MORELAND","WAUKESHA","WI",53186,43.023955684,-88.210404833,342,"1430 E MORELAND, WAUKESHA, WI, 53186","Match","Non_Exact","1430 E MORELAND BLVD, WAUKESHA, WI, 53186",53867052,"L"
61343,"1430 E SUNNYSIDE DRIVE","PHOENIX","AZ",85020,33.5926676330001,-112.050759828,343,"1430 E SUNNYSIDE DRIVE, PHOENIX, AZ, 85020","Match","Exact","1430 E SUNNYSIDE DR, PHOENIX, AZ, 85020",128914916,"L"
61344,"1430 EAST 68TH STREET COURT","TACOMA","WA",98404,47.195274596,-122.408970726,344,"1430 EAST 68TH STREET COURT, TACOMA, WA, 98404","Match","Exact","1430 E 68TH ST CT, TACOMA, WA, 98404",649055623,"R"
61345,"1430 EDGERTON ST","SAINT PAUL","MN",55130,44.9842800850001,-93.07613014,345,"1430 EDGERTON ST, SAINT PAUL, MN, 55130","Match","Exact","1430 EDGERTON ST, SAINT PAUL, MN, 55130",97650049,"R"
61346,"1430 EVENING STAR LANE","GARDNERVILLE","NV",89460,38.907544928,-119.729636587,346,"1430 EVENING STAR LANE, GARDNERVILLE, NV, 89460","Match","Exact","1430 EVENING STAR LN, GARDNERVILLE, NV, 89460",173746602,"R"
61347,"1430 FAIRFAX COURT","ROCKY MOUNT","NC",27801,35.946177257,-77.772953574,347,"1430 FAIRFAX COURT, ROCKY MOUNT, NC, 27801","Match","Exact","1430 FAIRFAX CT, ROCKY MOUNT, NC, 27801",651987062,"L"
61348,"1430 FULTON ST","GRAND HAVEN","MI",49417,43.0629979220001,-86.207539051,348,"1430 FULTON ST, GRAND HAVEN, MI, 49417","Match","Exact","1430 FULTON ST, GRAND HAVEN, MI, 49417",71085305,"L"
61349,"1430 GODELL ST","TEMPLETON","CA",93465,35.55292194,-120.725737482,349,"1430 GODELL ST, TEMPLETON, CA, 93465","Match","Exact","1430 GODELL ST, TEMPLETON, CA, 93465",109769345,"L"
61350,"1430 HAINES AVE SUITE 108277","RAPID CITY","SD",57701,44.0988018480001,-103.221820351,350,"1430 HAINES AVE SUITE 108277, RAPID CITY, SD, 57701","Match","Exact","1430 HAINES AVE, RAPID CITY, SD, 57701",205507655,"R"
61351,"1430 HARBOR DRIVE","SARASOTA","FL",34239,27.320117467,-82.540218707,351,"1430 HARBOR DRIVE, SARASOTA, FL, 34239","Match","Exact","1430 HARBOR DR, SARASOTA, FL, 34239",16348172,"R"
61352,"1430 HEARTWOOD DR","BLANCHARD","OK",73010,35.135591726,-97.674314274,352,"1430 HEARTWOOD DR, BLANCHARD, OK, 73010","Match","Exact","1430 HEARTWOOD DR, BLANCHARD, OK, 73010",626973014,"R"
61353,"1430 HICKS AVE","SAN JOSE","CA",95125,37.3001680720001,-121.905589632,353,"1430 HICKS AVE, SAN JOSE, CA, 95125","Match","Exact","1430 HICKS AVE, SAN JOSE, CA, 95125",122909460,"L"
61354,"1430 HIGH THICKET CT","SPRING","TX",77373,30.0395019430001,-95.409660752,354,"1430 HIGH THICKET CT, SPRING, TX, 77373","Match","Exact","1430 HIGH THICKET CT, SPRING, TX, 77373",627935660,"L"
61355,"1430 LEE STREET","EAU CLAIRE","WI",54701,44.802633857,-91.479527193,355,"1430 LEE STREET, EAU CLAIRE, WI, 54701","Match","Exact","1430 LEE ST, EAU CLAIRE, WI, 54701",46068141,"R"
61356,"1430 LOVELAND AVENUE","SPRINGFIELD","IL",62703,39.7868394330001,-89.6387692549999,356,"1430 LOVELAND AVENUE, SPRINGFIELD, IL, 62703","Match","Non_Exact","1430 S LOVELAND AVE, SPRINGFIELD, IL, 62703",97325490,"L"
61357,"1430 LUCILE AVE APT 9","LOS ANGELES","CA",90026,34.089521125,-118.279664543,357,"1430 LUCILE AVE APT 9, LOS ANGELES, CA, 90026","Match","Exact","1430 LUCILE AVE, LOS ANGELES, CA, 90026",141604631,"R"
61358,"1430 LYNFORD DR SW","ATLANTA","GA",30310,33.7233475200001,-84.434374464,358,"1430 LYNFORD DR SW, ATLANTA, GA, 30310","Match","Exact","1430 LYNFORD DR SW, ATLANTA, GA, 30310",17341361,"L"
61359,"1430 MACARTHUR BLVD","MUNSTER","IN",46321,41.5500615060001,-87.494337516,359,"1430 MACARTHUR BLVD, MUNSTER, IN, 46321","Match","Exact","1430 MACARTHUR BLVD, MUNSTER, IN, 46321",98421250,"R"
61360,"1430 MADISON STREET","SAINT LOUIS","MO",63106,38.6454866450001,-90.195776102,360,"1430 MADISON STREET, SAINT LOUIS, MO, 63106","Match","Exact","1430 MADISON ST, SAINT LOUIS, MO, 63106",107604817,"L"
61361,"1430 MARY AVE","NORFOLK","VA",23502,36.8729153400001,-76.2081486709999,361,"1430 MARY AVE, NORFOLK, VA, 23502","Match","Exact","1430 MARY AVE, NORFOLK, VA, 23502",122142158,"R"
61362,"1430 MARYLAND AVENUE NE","WASHINGTON","DC",20002,38.899603046,-76.984865241,362,"1430 MARYLAND AVENUE NE, WASHINGTON, DC, 20002","Match","Exact","1430 MARYLAND AVE NE, WASHINGTON, DC, 20002",641473552,"R"
61363,"1430 MARYLAND AVENUE","CHARLOTTE","NC",28209,35.1933494460001,-80.838426742,363,"1430 MARYLAND AVENUE, CHARLOTTE, NC, 28209","Match","Exact","1430 MARYLAND AVE, CHARLOTTE, NC, 28209",70488046,"R"
61364,"1430 N JORDAN AVE","BLOOMINGTON","IN",47406,39.1802158260001,-86.510940601,364,"1430 N JORDAN AVE, BLOOMINGTON, IN, 47406","Match","Exact","1430 N JORDAN AVE, BLOOMINGTON, IN, 47406",42323540,"R"
61365,"1430 N VALLEY AVE","VINELAND","NJ",8360,39.5064926420001,-75.005570271,365,"1430 N VALLEY AVE, VINELAND, NJ, 8360","Match","Exact","1430 N VALLEY AVE, VINELAND, NJ, 08360",636221151,"L"
61366,"1430 N WILDWOOD DR","MT ZION","IL",62549,39.785553931,-88.887232227,366,"1430 N WILDWOOD DR, MT ZION, IL, 62549","Match","Exact","1430 WILDWOOD DR, MT ZION, IL, 62549",20750480,"L"
61367,"1430 NE PINE ISLAND LN","CAPE CORAL","FL",33909,26.6633091460001,-81.945770479,367,"1430 NE PINE ISLAND LN, CAPE CORAL, FL, 33909","Match","Exact","1430 NE PINE ISLAND LN, CAPE CORAL, FL, 33909",118009266,"R"
61368,"1430 NORTH HANCOCK AVE","COLORADO SPRINGS","CO",80903,38.854301831,-104.802665778,368,"1430 NORTH HANCOCK AVE, COLORADO SPRINGS, CO, 80903","Match","Exact","1430 N HANCOCK AVE, COLORADO SPRINGS, CO, 80903",610720038,"L"
61369,"1430 OXFORD AVE","RICHLAND","WA",99352,46.2353418750001,-119.262025791,369,"1430 OXFORD AVE, RICHLAND, WA, 99352","Match","Exact","1430 OXFORD AVE, RICHLAND, WA, 99352",636501221,"L"
61370,"1430 PEBBLE BEACH ROAD","BLACKSBURG","VA",24060,37.2213060010001,-80.362561778,370,"1430 PEBBLE BEACH ROAD, BLACKSBURG, VA, 24060","Match","Exact","1430 PEBBLE BEACH RD, BLACKSBURG, VA, 24060",636652497,"R"
61371,"1430 PINE ST","SILVERTON","OR",97381,45.0114346650001,-122.797818396,371,"1430 PINE ST, SILVERTON, OR, 97381","Match","Exact","1430 PINE ST, SILVERTON, OR, 97381",631982549,"R"
61372,"1430 RIDGE AVENUE","EVANSTON","IL",60201,42.043613543,-87.688505299,372,"1430 RIDGE AVENUE, EVANSTON, IL, 60201","Match","Exact","1430 RIDGE AVE, EVANSTON, IL, 60201",111743573,"L"
61373,"1430 ROCK SPRINGS ROAD","PARKERS CROSSROADS","TN",38388,35.795384563,-88.41671887,373,"1430 ROCK SPRINGS ROAD, PARKERS CROSSROADS, TN, 38388","Match","Non_Exact","1430 ROCK SPRINGS RD, PARKER CROSSROADS, TN, 38388",21222775,"R"
61374,"1430 ROCKCLIFF RD","AUSTIN","TX",78746,30.3359820700001,-97.786105393,374,"1430 ROCKCLIFF RD, AUSTIN, TX, 78746","Match","Exact","1430 ROCKCLIFF RD, AUSTIN, TX, 78746",64020185,"R"
61375,"1430 ROLLING WOOD DR","CHARLOTTE","NC",28217,35.2012048980001,-80.8959294429999,375,"1430 ROLLING WOOD DR, CHARLOTTE, NC, 28217","Match","Non_Exact","1430 ROLLINGWOOD DR, CHARLOTTE, NC, 28217",70484584,"R"
61376,"1430 S 12TH STREET","OMAHA","NE",68108,41.24514013,-95.931918099,376,"1430 S 12TH STREET, OMAHA, NE, 68108","Match","Exact","1430 S 12TH ST, OMAHA, NE, 68108",116988742,"R"
61377,"1430 S 34TH STREET","WEST DES MOINES","IA",50265,41.5492510760001,-93.747450486,377,"1430 S 34TH STREET, WEST DES MOINES, IA, 50265","Match","Exact","1430 S 34TH ST, W DES MOINES, IA, 50265",65851847,"L"
61378,"1430 S 62ND ST NUM NO1","WEST ALLIS","WI",53214,43.0163983260001,-87.989904273,378,"1430 S 62ND ST NUM NO1, WEST ALLIS, WI, 53214","Match","Non_Exact","1430 S 62ND ST, WEST ALLIS, WI, 53214",77733686,"L"
61379,"1430 S HIGHWAY 29 UNIT 885","CANTONMENT","FL",32533,30.6311538680001,-87.3337863899999,379,"1430 S HIGHWAY 29 UNIT 885, CANTONMENT, FL, 32533","Match","Non_Exact","1430 N HWY 29, CANTONMENT, FL, 32533",93283204,"R"
61380,"1430 SAND BEACH ROAD","HUMMELSTOWN","PA",17036,40.327043233,-76.6696852489999,380,"1430 SAND BEACH ROAD, HUMMELSTOWN, PA, 17036","Match","Exact","1430 SAND BEACH RD, HUMMELSTOWN, PA, 17036",70826680,"R"
61381,"1430 SARNO ROAD","MELBOURNE","FL",32935,28.121604523,-80.6435934789999,381,"1430 SARNO ROAD, MELBOURNE, FL, 32935","Match","Exact","1430 SARNO RD, MELBOURNE, FL, 32935",93943497,"R"
61382,"1430 SE DEER CREEK DRIVE","CEDAREDGE","CO",81413,38.885097242,-107.922884772,382,"1430 SE DEER CREEK DRIVE, CEDAREDGE, CO, 81413","Match","Exact","1430 SE DEER CREEK DR, CEDAREDGE, CO, 81413",122388742,"R"
61383,"1430 SOUTH PROSPECT STREET","SHAWANO","WI",54166,44.763386832,-88.5933299329999,383,"1430 SOUTH PROSPECT STREET, SHAWANO, WI, 54166","Match","Exact","1430 S PROSPECT ST, SHAWANO, WI, 54166",126877840,"R"
61384,"1430 SPENCE CHAPEL ROAD","MAYFIELD","KY",42066,36.7872091940001,-88.577387039,384,"1430 SPENCE CHAPEL ROAD, MAYFIELD, KY, 42066","Match","Exact","1430 SPENCE CHAPEL RD, MAYFIELD, KY, 42066",27884907,"L"
61385,"1430 SUSQUEHANNA STREET","HARRISBURG","PA",17102,40.2710537290001,-76.890761036,385,"1430 SUSQUEHANNA STREET, HARRISBURG, PA, 17102","Match","Exact","1430 SUSQUEHANNA ST, HARRISBURG, PA, 17102",70817014,"L"
61386,"1430 SW 87 TERRACE","MIRAMAR","FL",33025,25.9969398750001,-80.260173497,386,"1430 SW 87 TERRACE, MIRAMAR, FL, 33025","Match","Exact","1430 SW 87TH TER, MIRAMAR, FL, 33025",114770259,"R"
61387,"1430 THIERIOT AVE 6A","BRONX","NY",10460,40.8361306900001,-73.865197845,387,"1430 THIERIOT AVE 6A, BRONX, NY, 10460","Match","Exact","1430 THIERIOT AVE, BRONX, NY, 10460",80308503,"L"
61388,"1430 TROPICAL AVE","PASADENA","CA",91107,34.1701366130001,-118.069164884,388,"1430 TROPICAL AVE, PASADENA, CA, 91107","Match","Exact","1430 TROPICAL AVE, PASADENA, CA, 91107",141632830,"R"
61389,"1430 TRUXTUN AVE 5TH FLOOR","BAKERSFIELD","CA",93301,35.373339533,-119.018005792,389,"1430 TRUXTUN AVE 5TH FLOOR, BAKERSFIELD, CA, 93301","Match","Exact","1430 TRUXTUN AVE, BAKERSFIELD, CA, 93301",109088905,"R"
61390,"1430 TULANE AVENUE","NEW ORLEANS","LA",70112,29.9553425550001,-90.0765644099999,390,"1430 TULANE AVENUE, NEW ORLEANS, LA, 70112","Match","Exact","1430 TULANE AVE, NEW ORLEANS, LA, 70112",191710131,"L"
61391,"1430 W 29TH ST","LOS ANGELES","CA",90007,34.0286693260001,-118.292541425,391,"1430 W 29TH ST, LOS ANGELES, CA, 90007","Match","Exact","1430 W 29TH ST, LOS ANGELES, CA, 90007",141607047,"L"
61392,"1430 W BANCROFT","TOLEDO","OH",43606,41.663569244,-83.577747261,392,"1430 W BANCROFT, TOLEDO, OH, 43606","Match","Non_Exact","1430 W BANCROFT ST, TOLEDO, OH, 43606",33954651,"R"
61393,"1430 WARD ROAD","DECATUR","TN",37322,35.5595217700001,-84.738610407,393,"1430 WARD ROAD, DECATUR, TN, 37322","Match","Exact","1430 WARD RD, DECATUR, TN, 37322",610818293,"R"
61394,"1430 WATERFORD LN","MONROE","GA",30656,33.8211652520001,-83.783320368,394,"1430 WATERFORD LN, MONROE, GA, 30656","Match","Exact","1430 WATERFORD LN, MONROE, GA, 30656",77625678,"R"
61395,"1430 WAVERLY GLEN DR","ALPHARETTA","GA",30004,34.124492006,-84.2357308159999,395,"1430 WAVERLY GLEN DR, ALPHARETTA, GA, 30004","Match","Exact","1430 WAVERLY GLEN DR, ALPHARETTA, GA, 30004",647933904,"R"
61396,"1430 WEST 254TH STREET","HARBOR CITY","CA",90710,33.7937741330001,-118.301674043,396,"1430 WEST 254TH STREET, HARBOR CITY, CA, 90710","Match","Exact","1430 W 254TH ST, HARBOR CITY, CA, 90710",141669273,"L"
61397,"1430 WHIRLAWAY CT","HELEN","AL",35080,33.2819675420001,-86.825734763,397,"1430 WHIRLAWAY CT, HELEN, AL, 35080","Match","Non_Exact","1430 WHIRLAWAY CT, HELENA, AL, 35080",82117986,"L"
61398,"1430 WILLAMETTE ST  136","EUGENE","OR",97401,44.0440044220001,-123.092752833,398,"1430 WILLAMETTE ST  136, EUGENE, OR, 97401","Match","Exact","1430 WILLAMETTE ST, EUGENE, OR, 97401",178167206,"R"
61399,"1430 WILLAMETTE ST 398","EUGENE","OR",97401,44.0440044220001,-123.092752833,399,"1430 WILLAMETTE ST 398, EUGENE, OR, 97401","Match","Exact","1430 WILLAMETTE ST, EUGENE, OR, 97401",178167206,"R"
61400,"1430 WILLAMETTE STREET PMB 521","EUGENE","OR",97401,44.0440044220001,-123.092752833,400,"1430 WILLAMETTE STREET PMB 521, EUGENE, OR, 97401","Match","Exact","1430 WILLAMETTE ST, EUGENE, OR, 97401",178167206,"R"
61401,"1430 WINFRED ROAD","RAYNE","LA",70578,30.1314278070001,-92.209114042,401,"1430 WINFRED ROAD, RAYNE, LA, 70578","Match","Exact","1430 WINFRED RD, RAYNE, LA, 70578",85982383,"L"
61402,"1430 WINNEBAGO ST","LA CROSSE","WI",54601,43.803612957,-91.2354053339999,402,"1430 WINNEBAGO ST, LA CROSSE, WI, 54601","Match","Exact","1430 WINNEBAGO ST, LA CROSSE, WI, 54601",51012831,"R"
61403,"1430 WINTER PINE TRAIL","SEVERN","MD",21144,39.1101660050001,-76.676749861,403,"1430 WINTER PINE TRAIL, SEVERN, MD, 21144","Match","Exact","1430 WINTER PINE TRL, SEVERN, MD, 21144",649061465,"L"
61404,"14300 BEN NEVIS AVE","NORWALK","CA",90650,33.9019048530001,-118.056938866,404,"14300 BEN NEVIS AVE, NORWALK, CA, 90650","Match","Exact","14300 BEN NEVIS AVE, NORWALK, CA, 90650",141749184,"L"
61405,"14300 CHERRY LANE COURT SUITE 109","LAUREL","MD",20707,39.0884935510001,-76.854973898,405,"14300 CHERRY LANE COURT SUITE 109, LAUREL, MD, 20707","Match","Exact","14300 CHERRY LANE CT, LAUREL, MD, 20707",76402604,"R"
61406,"14300 CHESTNUT STREET APT 231","WESTMINSTER","CA",92683,33.7553666270001,-118.002739968,406,"14300 CHESTNUT STREET APT 231, WESTMINSTER, CA, 92683","Match","Exact","14300 CHESTNUT ST, WESTMINSTER, CA, 92683",144004708,"L"
61407,"14300 COIL PLUS DRIVE","PLAINFIELD","IL",60544,41.6220076440001,-88.2171015549999,407,"14300 COIL PLUS DRIVE, PLAINFIELD, IL, 60544","Match","Exact","14300 COIL PLUS DR, PLAINFIELD, IL, 60544",649924507,"R"
61408,"14300 LAKE PATH DRIVE","PRAIRIEVILLE","LA",70769,30.27473479,-90.989846072,408,"14300 LAKE PATH DRIVE, PRAIRIEVILLE, LA, 70769","Match","Exact","14300 LAKE PATH DR, PRAIRIEVILLE, LA, 70769",648961942,"L"
61409,"14300 N NORTHSIGHT BLVD SUITE 129","SCOTTSDALE","AZ",85260,33.6148214520001,-111.897780833,409,"14300 N NORTHSIGHT BLVD SUITE 129, SCOTTSDALE, AZ, 85260","Match","Non_Exact","14300 N NORTHSIGHT BLVD, SCOTTSDALE, AZ, 85260",653183637,"R"
61410,"14300 N NORTHSIGHT BLVD SUITE 204","SCOTTSDALE","AZ",85260,33.6148214520001,-111.897780833,410,"14300 N NORTHSIGHT BLVD SUITE 204, SCOTTSDALE, AZ, 85260","Match","Non_Exact","14300 N NORTHSIGHT BLVD, SCOTTSDALE, AZ, 85260",653183637,"R"
61411,"14300 NE 10TH ST","CHOCTAW","OK",73020,35.478612405,-97.279514235,411,"14300 NE 10TH ST, CHOCTAW, OK, 73020","Match","Exact","14300 NE 10TH ST, CHOCTAW, OK, 73020",606165632,"R"
61412,"14300 NEWPORT AVE 101","TUSTIN","CA",92780,33.734808668,-117.825446784,412,"14300 NEWPORT AVE 101, TUSTIN, CA, 92780","Match","Exact","14300 NEWPORT AVE, TUSTIN, CA, 92780",144054570,"L"
61413,"14300 NEWPORT AVE SUITE 101","TUSTIN","CA",92781,33.734808668,-117.825446784,413,"14300 NEWPORT AVE SUITE 101, TUSTIN, CA, 92781","Match","Non_Exact","14300 NEWPORT AVE, TUSTIN, CA, 92780",144054570,"L"
61414,"14300 NORTH NORTHSIGHT  SUITE 204","SCOTTSDALE","AZ",85260,33.614817481,-111.897780885,414,"14300 NORTH NORTHSIGHT  SUITE 204, SCOTTSDALE, AZ, 85260","Match","Non_Exact","14300 N NORTHSIGHT BLVD, SCOTTSDALE, AZ, 85260",653183637,"R"
61415,"14300 NORTHWEST 12 AVENUE","MIAMI","FL",33167,25.905520331,-80.219455189,415,"14300 NORTHWEST 12 AVENUE, MIAMI, FL, 33167","Match","Non_Exact","14300 NW 12TH AVE, MIAMI, FL, 33168",652511904,"L"
61416,"14300 NW 98TH ST","RAYMOND","NE",68428,40.953042936,-96.853128781,416,"14300 NW 98TH ST, RAYMOND, NE, 68428","Match","Exact","14300 NW 98TH ST, RAYMOND, NE, 68428",640631999,"R"
61417,"14300 OVERHILL AVE","GRANDVIEW","MO",64030,38.863233845,-94.5060703249999,417,"14300 OVERHILL AVE, GRANDVIEW, MO, 64030","Match","Exact","14300 OVERHILL AVE, GRANDVIEW, MO, 64030",624997182,"R"
61418,"14300 S BRENT DRIVE","OKLAHOMA CITY","OK",73170,35.3262220280001,-97.512779076,418,"14300 S BRENT DRIVE, OKLAHOMA CITY, OK, 73170","Match","Exact","14300 S BRENT DR, OKLAHOMA CITY, OK, 73170",99913874,"L"
61419,"14300 S PADRE ISLAND DR APT 203","CORPUS CHRISTI","TX",78418,NA,NA,419,"14300 S PADRE ISLAND DR APT 203, CORPUS CHRISTI, TX, 78418","No_Match",NA,NA,NA,NA
61420,"14300 SAMOA ST","FISHERS","IN",46038,39.99679007,-86.012290155,420,"14300 SAMOA ST, FISHERS, IN, 46038","Match","Exact","14300 SAMOA ST, FISHERS, IN, 46038",29331986,"R"
61421,"14300 SW SPRING HILL ROAD","GASTON","OR",97119,45.417452392,-123.104777559,421,"14300 SW SPRING HILL ROAD, GASTON, OR, 97119","Match","Exact","14300 SW SPRING HILL RD, GASTON, OR, 97119",158174905,"R"
61422,"14300 TETON PLACE","ANCHORAGE","AK",99516,61.0916526510001,-149.796793039,422,"14300 TETON PLACE, ANCHORAGE, AK, 99516","Match","Exact","14300 TETON PL, ANCHORAGE, AK, 99516",190803926,"R"
61423,"14300 TURNER WOOTTON PKWY","UPPER MARLBORO","MD",20774,38.884271535,-76.75854694,423,"14300 TURNER WOOTTON PKWY, UPPER MARLBORO, MD, 20774","Match","Exact","14300 TURNER WOOTTON PKWY, UPPER MARLBORO, MD, 20774",624853607,"L"
61424,"14300 W SECOND ST","DALEVILLE","IN",47334,40.119667948,-85.555487488,424,"14300 W SECOND ST, DALEVILLE, IN, 47334","Match","Exact","14300 W 2ND ST, DALEVILLE, IN, 47334",30842289,"L"
61425,"14301 125TH AVE","WADENA","MN",56482,46.432088675,-95.103233937,425,"14301 125TH AVE, WADENA, MN, 56482","Match","Exact","14301 125TH AVE, WADENA, MN, 56482",607219865,"L"
61426,"14301 3RD CIRCLE NE","DUVALL","WA",98019,47.7306498620001,-121.980363335,426,"14301 3RD CIRCLE NE, DUVALL, WA, 98019","Match","Exact","14301 3RD CIR NE, DUVALL, WA, 98019",650691073,"L"
61427,"14301 CR 3502","ADA","OK",74820,34.7778387600001,-96.7711714929999,427,"14301 CR 3502, ADA, OK, 74820","Match","Exact","14301 CO RD 3502, ADA, OK, 74820",58499556,"L"
61428,"14301 CREVE COEUR ARPT RD HANGAR D8","MARYLAND HEIGHTS","MO",63146,NA,NA,428,"14301 CREVE COEUR ARPT RD HANGAR D8, MARYLAND HEIGHTS, MO, 63146","No_Match",NA,NA,NA,NA
61429,"14301 LAYHILL ROAD STE 104","SILVER SPRING","MD",20906,39.090702164,-77.044720387,429,"14301 LAYHILL ROAD STE 104, SILVER SPRING, MD, 20906","Match","Exact","14301 LAYHILL RD, SILVER SPRING, MD, 20906",638125393,"L"
61430,"14301 MIDDLEBERRY RD","EDMOND","OK",73013,35.6153164470001,-97.4557041369999,430,"14301 MIDDLEBERRY RD, EDMOND, OK, 73013","Match","Exact","14301 MIDDLEBERRY RD, EDMOND, OK, 73013",100435488,"L"
61431,"14301 N 87TH STREET SUITE 208","SCOTTSDALE","AZ",85260,33.6152159550001,-111.893365168,431,"14301 N 87TH STREET SUITE 208, SCOTTSDALE, AZ, 85260","Match","Non_Exact","14301 N 87TH ST, SCOTTSDALE, AZ, 85260",128928932,"L"
61432,"14301 N 8TH ST STE 301","SCOTTSDALE","AZ",85260,NA,NA,432,"14301 N 8TH ST STE 301, SCOTTSDALE, AZ, 85260","No_Match",NA,NA,NA,NA
61433,"14301 S DAVIS AVE","DIXMOOR","IL",60406,41.629824581,-87.674273007,433,"14301 S DAVIS AVE, DIXMOOR, IL, 60406","Match","Non_Exact","14301 DAVIS AVE, BLUE ISLAND, IL, 60406",605697884,"L"
61434,"14301 STATE RD 60","BORDEN","IN",47106,38.4446101560001,-85.84164678,434,"14301 STATE RD 60, BORDEN, IN, 47106","Match","Exact","14301 STATE RD 60, BORDEN, IN, 47106",64893984,"R"
61435,"14301 W SPAD ST","LUKE AFB","AZ",85309,33.532223323,-112.367785041,435,"14301 W SPAD ST, LUKE AFB, AZ, 85309","Match","Exact","14301 SPAD ST, LUKE AIR FORCE BASE, AZ, 85309",128385390,"R"
61436,"14302 BARON CREEK LANE","HOUSTON","TX",77044,29.9212056540001,-95.1648901199999,436,"14302 BARON CREEK LANE, HOUSTON, TX, 77044","Match","Exact","14302 BARON CREEK LN, HOUSTON, TX, 77044",629826149,"L"
61437,"14302 CARYN CIRCLE","FONTANA","CA",92336,34.117183912,-117.493293667,437,"14302 CARYN CIRCLE, FONTANA, CA, 92336","Match","Exact","14302 CARYN CIR, FONTANA, CA, 92336",145225912,"R"
61438,"14302 S STATE ST","RIVERDALE","IL",60827,41.635200915,-87.62206532,438,"14302 S STATE ST, RIVERDALE, IL, 60827","Match","Exact","14302 S STATE ST, RIVERDALE, IL, 60827",604990286,"R"
61439,"14303 HADDON MIST DR","WIMAUMA","FL",33598,27.767247625,-82.3211846999999,439,"14303 HADDON MIST DR, WIMAUMA, FL, 33598","Match","Exact","14303 HADDON MIST DR, WIMAUMA, FL, 33598",646571989,"R"
61440,"14303 LEGEND GLEN COURT","GAINESVILLE","VA",20155,38.809763565,-77.618419574,440,"14303 LEGEND GLEN COURT, GAINESVILLE, VA, 20155","Match","Exact","14303 LEGEND GLEN CT, GAINESVILLE, VA, 20155",207145025,"L"
61441,"14303 TIMBER BRIGHT CT","HOUSTON","TX",77044,29.923812868,-95.162245067,441,"14303 TIMBER BRIGHT CT, HOUSTON, TX, 77044","Match","Non_Exact","14303 TIMBER BRIGHT LN, HOUSTON, TX, 77044",627727368,"R"
61442,"14304 EAST FOUR MILE ROAD","CHEYENNE","WY",82009,41.1882976100001,-104.639425803,442,"14304 EAST FOUR MILE ROAD, CHEYENNE, WY, 82009","Match","Exact","14304 E FOUR MILE RD, CHEYENNE, WY, 82009",160153154,"L"
61443,"14304 TEEL RD","ATWATER","OH",44201,40.9787101050001,-81.11046098,443,"14304 TEEL RD, ATWATER, OH, 44201","Match","Exact","14304 TEEL RD, ATWATER, OH, 44201",64723757,"R"
61444,"14305 DRIFTWOOD ROAD","BOWIE","MD",20721,38.919786393,-76.757435852,444,"14305 DRIFTWOOD ROAD, BOWIE, MD, 20721","Match","Exact","14305 DRIFTWOOD RD, BOWIE, MD, 20721",639595773,"L"
61445,"14305 HUNTERS TRACE LANE","CLERMONT","FL",34715,28.6248099680001,-81.717246952,445,"14305 HUNTERS TRACE LANE, CLERMONT, FL, 34715","Match","Exact","14305 HUNTERS TRACE LN, CLERMONT, FL, 34715",635552015,"L"
61446,"14305 NW 145TH AVE","ALACHUA","FL",32615,29.7881064110001,-82.497195538,446,"14305 NW 145TH AVE, ALACHUA, FL, 32615","Match","Exact","14305 NW 145TH AVE, ALACHUA, FL, 32615",6801415,"L"
61447,"14305 NW EAGLERIDGE LANE","PORTLAND","OR",97229,45.5520519090001,-122.823755517,447,"14305 NW EAGLERIDGE LANE, PORTLAND, OR, 97229","Match","Exact","14305 NW EAGLERIDGE LN, PORTLAND, OR, 97229",158231397,"L"
61448,"14305 PINE CREEK DR","HOLLAND","MI",49424,42.8371696450001,-86.135765179,448,"14305 PINE CREEK DR, HOLLAND, MI, 49424","Match","Exact","14305 PINE CREEK DR, HOLLAND, MI, 49424",71094677,"L"
61449,"14305 POTOMAC EAST CLEVELAND","EAST CLEVELAND","OH",44112,NA,NA,449,"14305 POTOMAC EAST CLEVELAND, EAST CLEVELAND, OH, 44112","No_Match",NA,NA,NA,NA
61450,"14305 SHADY TRAIL","MALAKOFF","TX",75148,32.2305078800001,-96.020270898,450,"14305 SHADY TRAIL, MALAKOFF, TX, 75148","Match","Exact","14305 SHADY TRL, MALAKOFF, TX, 75148",125814161,"R"
61451,"14305 SHORE OAKS COVE","FORT WAYNE","IN",46814,41.061483733,-85.325845283,451,"14305 SHORE OAKS COVE, FORT WAYNE, IN, 46814","Match","Exact","14305 SHORE OAKS COVE, FORT WAYNE, IN, 46814",6405865,"R"
61452,"14306 EAGLE VILLA GROVE","COLORADO SPRINGS","CO",80921,39.0405919740001,-104.818820005,452,"14306 EAGLE VILLA GROVE, COLORADO SPRINGS, CO, 80921","Match","Exact","14306 EAGLE VILLA GROVE, COLORADO SPRINGS, CO, 80921",647971919,"R"
61453,"14306 LA CUARTA ST","WHITTIER","CA",90602,33.9632457970001,-118.017687205,453,"14306 LA CUARTA ST, WHITTIER, CA, 90602","Match","Exact","14306 LA CUARTA ST, WHITTIER, CA, 90602",634247090,"R"
61454,"14306 WEDGEWOOD CRT APT 202","TAMPA","FL",33613,28.0775105330001,-82.410826379,454,"14306 WEDGEWOOD CRT APT 202, TAMPA, FL, 33613","Match","Exact","14306 WEDGEWOOD CT, TAMPA, FL, 33613",104513037,"L"
61455,"14307 LARKHALL LN","HOUSTON","TX",77014,29.9950779860001,-95.473677852,455,"14307 LARKHALL LN, HOUSTON, TX, 77014","Match","Exact","14307 LARKHALL LN, HOUSTON, TX, 77014",624631569,"R"
61456,"14307 ROBCASTE ROAD","PHOENIX","MD",21131,39.51953847,-76.563218147,456,"14307 ROBCASTE ROAD, PHOENIX, MD, 21131","Match","Exact","14307 ROBCASTE RD, PHOENIX, MD, 21131",191474462,"R"
61457,"14308 BROADWAY AVE SE","SNOHOMISH","WA",98296,47.8672545480001,-122.099140999,457,"14308 BROADWAY AVE SE, SNOHOMISH, WA, 98296","Match","Non_Exact","14308 BROADWAY AVE, SNOHOMISH, WA, 98296",608934717,"L"
61458,"14308 E 1ST DR B2","AURORA","CO",80011,39.717468915,-104.822295181,458,"14308 E 1ST DR B2, AURORA, CO, 80011","Match","Non_Exact","14308 E 1ST DR, AURORA, CO, 80011",611236588,"L"
61459,"14308 E BUFFALO ST","GILBERT","AZ",85295,33.305182017,-111.775208836,459,"14308 E BUFFALO ST, GILBERT, AZ, 85295","Match","Exact","14308 E BUFFALO ST, GILBERT, AZ, 85295",616773445,"L"
61460,"14308 EAST WHITAKER PL","AURORA","CO",80249,39.6273971210001,-104.821049941,460,"14308 EAST WHITAKER PL, AURORA, CO, 80249","Match","Non_Exact","14308 E WHITAKER PL, AURORA, CO, 80015",177372244,"L"
61461,"14308 NEW GEORGES CREEK RD SW","FROSTBURG","MD",21532,39.5972200690001,-78.932808885,461,"14308 NEW GEORGES CREEK RD SW, FROSTBURG, MD, 21532","Match","Exact","14308 NEW GEORGES CREEK RD SW, FROSTBURG, MD, 21532",625097524,"R"
61462,"14308 RICH BRANCH DRIVE","NORTH POTOMAC","MD",20878,39.0927593010001,-77.238697227,462,"14308 RICH BRANCH DRIVE, NORTH POTOMAC, MD, 20878","Match","Exact","14308 RICH BRANCH DR, N POTOMAC, MD, 20878",62093005,"R"
61463,"14308 S GOSS RD","CHENEY","WA",99004,47.524283677,-117.487117723,463,"14308 S GOSS RD, CHENEY, WA, 99004","Match","Exact","14308 S GOSS RD, CHENEY, WA, 99004",629066193,"L"
61464,"14308 SE 285TH PL","KENT","WA",98042,47.3457462160001,-122.150572385,464,"14308 SE 285TH PL, KENT, WA, 98042","Match","Exact","14308 SE 285TH PL, KENT, WA, 98042",624772612,"L"
61465,"14309 OXFORD DRIVE","LAUREL","MD",20707,39.0891852890001,-76.866273468,465,"14309 OXFORD DRIVE, LAUREL, MD, 20707","Match","Exact","14309 OXFORD DR, LAUREL, MD, 20707",76335431,"L"
61466,"14309 STRAWBRIDGE COURT","CHESTERFIELD","MO",63017,38.6752374340001,-90.516592727,466,"14309 STRAWBRIDGE COURT, CHESTERFIELD, MO, 63017","Match","Exact","14309 STRAWBRIDGE CT, CHESTERFIELD, MO, 63017",100122497,"L"
61467,"1431 13TH AVE","GRAFTON","WI",53024,43.317208329,-87.9504463709999,467,"1431 13TH AVE, GRAFTON, WI, 53024","Match","Exact","1431 13TH AVE, GRAFTON, WI, 53024",95901655,"R"
61468,"1431 13TH AVENUE NORTH","BESSEMER","AL",35020,33.403989213,-86.970596777,468,"1431 13TH AVENUE NORTH, BESSEMER, AL, 35020","Match","Exact","1431 13TH AVE N, BESSEMER, AL, 35020",81548492,"R"
61469,"1431 15TH STREET","HUNTINGTON","WV",25701,38.4071842660001,-82.429049543,469,"1431 15TH STREET, HUNTINGTON, WV, 25701","Match","Exact","1431 15TH ST, HUNTINGTON, WV, 25701",101318478,"R"
61470,"1431 16TH STREET - UNIT B","SANTA MONICA","CA",90404,34.0251759510001,-118.48325013,470,"1431 16TH STREET - UNIT B, SANTA MONICA, CA, 90404","Match","Exact","1431 16TH ST, SANTA MONICA, CA, 90404",141559396,"L"
61471,"1431 ADAIR HILL COURT","DACULA","GA",30019,34.0363218410001,-83.9212670379999,471,"1431 ADAIR HILL COURT, DACULA, GA, 30019","Match","Non_Exact","1431 ADAIR HILL CT NE, DACULA, GA, 30019",88933023,"R"
61472,"1431 ALLSTON WAY","BERKELEY","CA",94702,37.8672116490001,-122.283208992,472,"1431 ALLSTON WAY, BERKELEY, CA, 94702","Match","Exact","1431 ALLSTON WAY, BERKELEY, CA, 94702",124993712,"L"
61473,"1431 BIRCH AVE","CLOVIS","CA",93611,36.8417631340001,-119.692231132,473,"1431 BIRCH AVE, CLOVIS, CA, 93611","Match","Exact","1431 BIRCH AVE, CLOVIS, CA, 93611",197619094,"L"
61474,"1431 BIRKSHIRE LANE","CEDAR HILL","TX",75104,32.610879309,-96.910015839,474,"1431 BIRKSHIRE LANE, CEDAR HILL, TX, 75104","Match","Exact","1431 BIRKSHIRE LN, CEDAR HILL, TX, 75104",616743701,"R"
61475,"1431 BRITTANY WAY","ROCKWALL","TX",75087,32.948513668,-96.4571665459999,475,"1431 BRITTANY WAY, ROCKWALL, TX, 75087","Match","Exact","1431 BRITTANY WAY, ROCKWALL, TX, 75087",213565525,"L"
61476,"1431 BRITTMOORE RD","HOUSTON","TX",77043,29.797901725,-95.569836645,476,"1431 BRITTMOORE RD, HOUSTON, TX, 77043","Match","Exact","1431 BRITTMOORE RD, HOUSTON, TX, 77043",96635178,"L"
61477,"1431 BROAD ST","SELMA","AL",36701,32.4190680250001,-87.0241920999999,477,"1431 BROAD ST, SELMA, AL, 36701","Match","Exact","1431 BROAD ST, SELMA, AL, 36701",1283545,"L"
61478,"1431 CAPRI LN APT 5215","WESTON","FL",33326,26.102291768,-80.382270314,478,"1431 CAPRI LN APT 5215, WESTON, FL, 33326","Match","Exact","1431 CAPRI LN, WESTON, FL, 33326",114782576,"R"
61479,"1431 CLAYTONIA TERRACE","RICHMOND HEIGHTS","MO",63117,38.6266850650001,-90.323367468,479,"1431 CLAYTONIA TERRACE, RICHMOND HEIGHTS, MO, 63117","Match","Exact","1431 CLAYTONIA TER, RICHMOND HTS, MO, 63117",100136465,"R"
61480,"1431 DEEPWELL","STOCKTON","CA",95209,38.0476234590001,-121.331116745,480,"1431 DEEPWELL, STOCKTON, CA, 95209","Match","Non_Exact","1431 DEEPWELL DR, STOCKTON, CA, 95209",600248008,"L"
61481,"1431 EAST 40TH STREET","TACOMA","WA",98404,47.2208924330001,-122.410190846,481,"1431 EAST 40TH STREET, TACOMA, WA, 98404","Match","Exact","1431 E 40TH ST, TACOMA, WA, 98404",647941574,"L"
61482,"1431 EAST SOLEDAD PASS ROAD","PALMDALE","CA",93550,34.49112074,-118.094061559,482,"1431 EAST SOLEDAD PASS ROAD, PALMDALE, CA, 93550","Match","Exact","1431 E SOLEDAD PASS RD, PALMDALE, CA, 93550",142824231,"L"
61483,"1431 ECHO GLEN ROAD","CHARLOTTE","NC",28213,35.276800505,-80.782719089,483,"1431 ECHO GLEN ROAD, CHARLOTTE, NC, 28213","Match","Exact","1431 ECHO GLEN RD, CHARLOTTE, NC, 28213",70534297,"L"
61484,"1431 EMERALD HILL WAY","VALRICO","FL",33594,27.9611500290001,-82.2327098539999,484,"1431 EMERALD HILL WAY, VALRICO, FL, 33594","Match","Exact","1431 EMERALD HILL WAY, VALRICO, FL, 33594",635368524,"L"
61485,"1431 FOREST KNOLL CT","EAU CLAIRE","WI",54701,44.7773789230001,-91.524081671,485,"1431 FOREST KNOLL CT, EAU CLAIRE, WI, 54701","Match","Exact","1431 FOREST KNOLL CT, EAU CLAIRE, WI, 54701",46074618,"L"
61486,"1431 GABBARDTOWN ROAD","BEREA","KY",40403,37.546988189,-84.267250159,486,"1431 GABBARDTOWN ROAD, BEREA, KY, 40403","Match","Exact","1431 GABBARDTOWN RD, BEREA, KY, 40403",635639047,"L"
61487,"1431 GARY WAY","CARMICHAEL","CA",95608,38.5915872520001,-121.338556202,487,"1431 GARY WAY, CARMICHAEL, CA, 95608","Match","Exact","1431 GARY WAY, CARMICHAEL, CA, 95608",133347336,"L"
61488,"1431 GREENWAY DR STE 800","IRVING","TX",75038,32.8895963150001,-96.972401968,488,"1431 GREENWAY DR STE 800, IRVING, TX, 75038","Match","Exact","1431 GREENWAY DR, IRVING, TX, 75038",102887963,"L"
61489,"1431 HARBOR MIST COURT","CHARLESTON","SC",29492,32.9268255150001,-79.8463454449999,489,"1431 HARBOR MIST COURT, CHARLESTON, SC, 29492","Match","Exact","1431 HARBOR MIST CT, CHARLESTON, SC, 29492",605129296,"R"
61490,"1431 HONOR DRIVE","DESOTO","TX",75115,32.616320608,-96.846682985,490,"1431 HONOR DRIVE, DESOTO, TX, 75115","Match","Exact","1431 HONOR DR, DESOTO, TX, 75115",103188422,"L"
61491,"1431 JACKSON STREET APT 808","OAKLAND","CA",94612,37.802317515,-122.265079501,491,"1431 JACKSON STREET APT 808, OAKLAND, CA, 94612","Match","Exact","1431 JACKSON ST, OAKLAND, CA, 94612",125000925,"L"
61492,"1431 LONG LEAF CT","MATTHEWS","NC",28104,35.03516706,-80.7168196009999,492,"1431 LONG LEAF CT, MATTHEWS, NC, 28104","Match","Non_Exact","1431 LONGLEAF CT, MATTHEWS, NC, 28104",14189937,"L"
61493,"1431 LONGLEAF CT","MATTHEWS","NC",28104,35.03516706,-80.7168196009999,493,"1431 LONGLEAF CT, MATTHEWS, NC, 28104","Match","Exact","1431 LONGLEAF CT, MATTHEWS, NC, 28104",14189937,"L"
61494,"1431 MAIN STREET UNIT D","CINCINNATI","OH",45202,39.1122477930001,-84.512439312,494,"1431 MAIN STREET UNIT D, CINCINNATI, OH, 45202","Match","Exact","1431 MAIN ST, CINCINNATI, OH, 45202",103935917,"L"
61495,"1431 N PEPPER ST","BURBANK","CA",91505,34.1757233170001,-118.350442148,495,"1431 N PEPPER ST, BURBANK, CA, 91505","Match","Exact","1431 N PEPPER ST, BURBANK, CA, 91505",142725334,"L"
61496,"1431 NORTH 52ND STREET","PHILADELPHIA","PA",19131,39.975196129,-75.22653743,496,"1431 NORTH 52ND STREET, PHILADELPHIA, PA, 19131","Match","Exact","1431 N 52ND ST, PHILADELPHIA, PA, 19131",131398178,"R"
61497,"1431 NORTH LAKE AVE","PASADENA","CA",91104,34.1703797820001,-118.132179755,497,"1431 NORTH LAKE AVE, PASADENA, CA, 91104","Match","Exact","1431 N LAKE AVE, PASADENA, CA, 91104",141628603,"L"
61498,"1431 OCEAN AVENUE  801","SANTA MONICA","CA",90401,34.0136269340001,-118.497486433,498,"1431 OCEAN AVENUE  801, SANTA MONICA, CA, 90401","Match","Exact","1431 OCEAN AVE, SANTA MONICA, CA, 90401",141559467,"L"
61499,"1431 OCEAN AVENUE SUITE 909","SANTA MONICA","CA",90401,34.0136269340001,-118.497486433,499,"1431 OCEAN AVENUE SUITE 909, SANTA MONICA, CA, 90401","Match","Exact","1431 OCEAN AVE, SANTA MONICA, CA, 90401",141559467,"L"
61500,"1431 OPUS PLACE SUITE 110","DOWNERS GROVE","IL",60515,41.8292101070001,-88.0229728039999,500,"1431 OPUS PLACE SUITE 110, DOWNERS GROVE, IL, 60515","Match","Exact","1431 OPUS PL, DOWNERS GROVE, IL, 60515",112533350,"R"
