"ID","Address","City","State","Zip","lat","long","id","input_address","match_indicator","match_type","matched_address","tiger_line_id","tiger_side"
160501,"301 N MATTIE AVE","SYCAMORE","GA",31790,NA,NA,1,"301 N MATTIE AVE, SYCAMORE, GA, 31790","No_Match",NA,NA,NA,NA
160502,"301 N PINE MEADOW DR SUITE F","DEBARY","FL",32713,28.897071613,-81.3030174739999,2,"301 N PINE MEADOW DR SUITE F, DEBARY, FL, 32713","Match","Non_Exact","301 N PINE MEADOW DR, DEBARY, FL, 32713",94518463,"R"
160503,"301 N PINE MEADOW DRIVE","DEBARY","FL",32713,28.897071613,-81.3030174739999,3,"301 N PINE MEADOW DRIVE, DEBARY, FL, 32713","Match","Exact","301 N PINE MEADOW DR, DEBARY, FL, 32713",94518463,"R"
160504,"301 N STAGECOACH ROAD","SALADO","TX",76571,NA,NA,4,"301 N STAGECOACH ROAD, SALADO, TX, 76571","No_Match",NA,NA,NA,NA
160505,"301 N US 27 SUITE E","CLERMONT","FL",34711,NA,NA,5,"301 N US 27 SUITE E, CLERMONT, FL, 34711","No_Match",NA,NA,NA,NA
160506,"301 N WASHINGTON STREET UNIT D","SNOW HILL","MD",21863,38.1779545310001,-75.3936490579999,6,"301 N WASHINGTON STREET UNIT D, SNOW HILL, MD, 21863","Match","Non_Exact","301 N WASHINGTON ST, SNOW HILL, MD, 21863",114554982,"L"
160507,"301 NANTASKET AVENUE PH","HULL","MA",2045,42.2747046100001,-70.862102364,7,"301 NANTASKET AVENUE PH, HULL, MA, 2045","Match","Exact","301 NANTASKET AVE, HULL, MA, 02045",87429976,"L"
160508,"301 NE 125 STREET","N. MIAMI","FL",33161,25.890012599,-80.1923463379999,8,"301 NE 125 STREET, N. MIAMI, FL, 33161","Match","Non_Exact","301 NE 125TH ST, NORTH MIAMI, FL, 33161",116034401,"L"
160509,"301 NE DIVISION","RED OAK","OK",74563,34.951806037,-95.077142399,9,"301 NE DIVISION, RED OAK, OK, 74563","Match","Non_Exact","301 NE DIVISION ST, RED OAK, OK, 74563",80580690,"R"
160510,"301 NE GRANDUER AVENUE","PORT ST LUCIE","FL",34983,27.3335192590001,-80.342964202,10,"301 NE GRANDUER AVENUE, PORT ST LUCIE, FL, 34983","Match","Exact","301 NE GRANDUER AVE, PORT ST LUCIE, FL, 34983",120151476,"L"
160511,"301 NE LINCOLN CT","LEE'S SUMMIT","MO",64064,38.9801740730001,-94.370516906,11,"301 NE LINCOLN CT, LEE'S SUMMIT, MO, 64064","Match","Non_Exact","301 NE LINCOLN ST, LEES SUMMIT, MO, 64064",91472036,"L"
160512,"301 NELSON ST","CAMBRIDGE","NE",69022,NA,NA,12,"301 NELSON ST, CAMBRIDGE, NE, 69022","No_Match",NA,NA,NA,NA
160513,"301 NEWBURY ST","DANVERS","MA",1923,42.5866878250001,-70.9659823599999,13,"301 NEWBURY ST, DANVERS, MA, 1923","Match","Exact","301 NEWBURY ST, DANVERS, MA, 01923",647430546,"L"
160514,"301 NOBLE OAKS DR UNIT 2101","SAVANNAH","GA",31406,32.0080940190001,-81.104402877,14,"301 NOBLE OAKS DR UNIT 2101, SAVANNAH, GA, 31406","Match","Exact","301 NOBLE OAKS DR, SAVANNAH, GA, 31406",6173528,"L"
160515,"301 NORRIS STREET","WILLIAMSTON","NC",27892,NA,NA,15,"301 NORRIS STREET, WILLIAMSTON, NC, 27892","No_Match",NA,NA,NA,NA
160516,"301 NORTH 200 EAST SUITE 3A","ST GEORGE","UT",84770,NA,NA,16,"301 NORTH 200 EAST SUITE 3A, ST GEORGE, UT, 84770","No_Match",NA,NA,NA,NA
160517,"301 NORTH 36TH STREET","PHILADELPHIA","PA",19104,39.959934724,-75.1937905889999,17,"301 NORTH 36TH STREET, PHILADELPHIA, PA, 19104","Match","Exact","301 N 36TH ST, PHILADELPHIA, PA, 19104",131404280,"R"
160518,"301 NORTH 41ST STREET - APT B","PHILADELPHIA","PA",19104,39.959018343,-75.205187565,18,"301 NORTH 41ST STREET - APT B, PHILADELPHIA, PA, 19104","Match","Exact","301 N 41ST ST, PHILADELPHIA, PA, 19104",131403895,"R"
160519,"301 NORTH CANON DRIVE STE 205","BEVERLY HILLS","CA",90210,34.0693199310001,-118.39958693,19,"301 NORTH CANON DRIVE STE 205, BEVERLY HILLS, CA, 90210","Match","Exact","301 N CANON DR, BEVERLY HILLS, CA, 90210",141571581,"L"
160520,"301 NORTH CHURCH STREET","MOORESTOWN","NJ",8057,39.9643007120001,-74.9524369869999,20,"301 NORTH CHURCH STREET, MOORESTOWN, NJ, 8057","Match","Exact","301 N CHURCH ST, MOORESTOWN, NJ, 08057",642543113,"R"
160521,"301 NORTH COTNER SUITE 200","LINCOLN","NE",68505,40.815959187,-96.6414827849999,21,"301 NORTH COTNER SUITE 200, LINCOLN, NE, 68505","Match","Non_Exact","301 N COTNER BLVD, LINCOLN, NE, 68505",28293602,"L"
160522,"301 NORTH DAHLIA DRIVE","ANAHEIM","CA",92801,33.8349448290001,-117.951670099,22,"301 NORTH DAHLIA DRIVE, ANAHEIM, CA, 92801","Match","Exact","301 N DAHLIA DR, ANAHEIM, CA, 92801",144023462,"L"
160523,"301 NORTH GRACE STREET","LOMBARD","IL",60148,41.89325446,-88.008344108,23,"301 NORTH GRACE STREET, LOMBARD, IL, 60148","Match","Exact","301 N GRACE ST, LOMBARD, IL, 60148",112524547,"R"
160524,"301 NORTH JADE COVE DRIVE","LONG BEACH","CA",90803,33.7669953430001,-118.11376012,24,"301 NORTH JADE COVE DRIVE, LONG BEACH, CA, 90803","Match","Exact","301 N JADE COVE DR, LONG BEACH, CA, 90803",141755354,"L"
160525,"301 NORTH MACON","BEMENT","IL",61813,39.923985079,-88.572812405,25,"301 NORTH MACON, BEMENT, IL, 61813","Match","Non_Exact","301 N MACON ST, BEMENT, IL, 61813",8549616,"L"
160526,"301 NORTH MAIN STREET SUITE 2300","WINSTON-SALEM","NC",27101,36.0978603140001,-80.24389839,26,"301 NORTH MAIN STREET SUITE 2300, WINSTON-SALEM, NC, 27101","Match","Exact","301 N MAIN ST, WINSTON SALEM, NC, 27101",84609246,"R"
160527,"301 NORTH MONROE STREET","BALTIMORE","MD",21223,39.2920358100001,-76.6471610849999,27,"301 NORTH MONROE STREET, BALTIMORE, MD, 21223","Match","Exact","301 N MONROE ST, BALTIMORE, MD, 21223",206415282,"R"
160528,"301 NORTH NEVADA AVE","COLORADO SPRINGS","CO",80903,38.8381599200001,-104.821351097,28,"301 NORTH NEVADA AVE, COLORADO SPRINGS, CO, 80903","Match","Exact","301 N NEVADA AVE, COLORADO SPRINGS, CO, 80903",105514197,"R"
160529,"301 NORTH WASHINGTON STREET","ROME","NY",13440,43.214167338,-75.4573893899999,29,"301 NORTH WASHINGTON STREET, ROME, NY, 13440","Match","Exact","301 N WASHINGTON ST, ROME, NY, 13440",171521933,"L"
160530,"301 NORTH WHITE HORSE PIKE","HAMMONTON","NJ",8037,39.655061108,-74.8002604719999,30,"301 NORTH WHITE HORSE PIKE, HAMMONTON, NJ, 8037","Match","Exact","301 N WHITE HORSE PIKE, HAMMONTON, NJ, 08037",202477481,"L"
160531,"301 NORTHCLIFF RIDGE","FRIENDSWOOD","TX",77546,29.495175794,-95.170934534,31,"301 NORTHCLIFF RIDGE, FRIENDSWOOD, TX, 77546","Match","Non_Exact","301 NORTHCLIFF RIDGE LN, FRIENDSWOOD, TX, 77546",627381948,"L"
160532,"301 NORTHGLEN DR","HURST","TX",76054,32.8559886940001,-97.174334462,32,"301 NORTHGLEN DR, HURST, TX, 76054","Match","Exact","301 NORTHGLEN DR, HURST, TX, 76054",101869373,"L"
160533,"301 NORTHGLEN DRIVE","HURST","TX",76054,32.8559886940001,-97.174334462,33,"301 NORTHGLEN DRIVE, HURST, TX, 76054","Match","Exact","301 NORTHGLEN DR, HURST, TX, 76054",101869373,"L"
160534,"301 NW 5TH AVE","ALEDO","IL",61231,41.2035785030001,-90.753909666,34,"301 NW 5TH AVE, ALEDO, IL, 61231","Match","Exact","301 NW 5TH AVE, ALEDO, IL, 61231",5467778,"L"
160535,"301 NW 84TH AVE STE 205","PLANTATION","FL",33324,26.1244840260001,-80.260804322,35,"301 NW 84TH AVE STE 205, PLANTATION, FL, 33324","Match","Non_Exact","301 NW 84TH AVE, PLANTATION, FL, 33324",114794855,"R"
160536,"301 OAKDALE STREET","MARTINSVILLE","VA",24112,36.6828329310001,-79.864821771,36,"301 OAKDALE STREET, MARTINSVILLE, VA, 24112","Match","Exact","301 OAKDALE ST, MARTINSVILLE, VA, 24112",55516304,"R"
160537,"301 OLD BELL RD","CHARLOTTE","NC",27280,35.1348727750001,-80.769259139,37,"301 OLD BELL RD, CHARLOTTE, NC, 27280","Match","Non_Exact","301 OLD BELL RD, CHARLOTTE, NC, 28270",70573639,"L"
160538,"301 OLD COURTHOUSE RD NE","VIENNA","VA",22180,38.91717656,-77.2447697869999,38,"301 OLD COURTHOUSE RD NE, VIENNA, VA, 22180","Match","Exact","301 OLD COURTHOUSE RD NE, VIENNA, VA, 22180",75961824,"R"
160539,"301 OLD DUPONT ROAD - SUITE C","WILMINGTON","DE",19804,NA,NA,39,"301 OLD DUPONT ROAD - SUITE C, WILMINGTON, DE, 19804","Tie",NA,NA,NA,NA
160540,"301 OLD DUPONT ROAD STE C","WILMINGTON","DE",19804,NA,NA,40,"301 OLD DUPONT ROAD STE C, WILMINGTON, DE, 19804","Tie",NA,NA,NA,NA
160541,"301 OLD HAMILTON ROAD","DUNN","NC",28334,35.3101922480001,-78.650693844,41,"301 OLD HAMILTON ROAD, DUNN, NC, 28334","Match","Exact","301 OLD HAMILTON RD, DUNN, NC, 28334",71962199,"R"
160542,"301 ONEIDA STREET NE","WASHINGTON","DC",20011,38.9620052670001,-77.002472177,42,"301 ONEIDA STREET NE, WASHINGTON, DC, 20011","Match","Exact","301 ONEIDA ST NE, WASHINGTON, DC, 20011",76228008,"R"
160543,"301 OPPORTUNITY DR","CORBIN","KY",40701,NA,NA,43,"301 OPPORTUNITY DR, CORBIN, KY, 40701","No_Match",NA,NA,NA,NA
160544,"301 ORANGE TREE DRIVE","ATLANTIS","FL",33462,26.5955769380001,-80.097472709,44,"301 ORANGE TREE DRIVE, ATLANTIS, FL, 33462","Match","Exact","301 ORANGE TREE DR, ATLANTIS, FL, 33462",115285204,"R"
160545,"301 OSCELOA STREET","WETUMPKA","AL",36092,NA,NA,45,"301 OSCELOA STREET, WETUMPKA, AL, 36092","Tie",NA,NA,NA,NA
160546,"301 OXFORD VALLEY ROAD SUITE 1801","YARDLEY","PA",19067,NA,NA,46,"301 OXFORD VALLEY ROAD SUITE 1801, YARDLEY, PA, 19067","No_Match",NA,NA,NA,NA
160547,"301 OXFORD VALLEY ROAD SUITE 702","YARDLEY","PA",19067,NA,NA,47,"301 OXFORD VALLEY ROAD SUITE 702, YARDLEY, PA, 19067","No_Match",NA,NA,NA,NA
160548,"301 PARK AVE S","LAKEWOOD","NJ",8701,40.0936065860001,-74.208089795,48,"301 PARK AVE S, LAKEWOOD, NJ, 8701","Match","Non_Exact","301 PARK AVE, LAKEWOOD, NJ, 08701",624746488,"R"
160549,"301 PARK PLACE","NATCHEZ","MS",39120,31.5479625080001,-91.394570742,49,"301 PARK PLACE, NATCHEZ, MS, 39120","Match","Exact","301 PARK PL, NATCHEZ, MS, 39120",79845449,"R"
160550,"301 PARKVIEW DR","NEW CASTLE","IN",47362,39.914070442,-85.3832535939999,50,"301 PARKVIEW DR, NEW CASTLE, IN, 47362","Match","Exact","301 PARKVIEW DR, NEW CASTLE, IN, 47362",29982590,"L"
160551,"301 PEARCE STREET","PRINCETON","NC",27569,35.461560768,-78.156880123,51,"301 PEARCE STREET, PRINCETON, NC, 27569","Match","Exact","301 PEARCE ST, PRINCETON, NC, 27569",26531356,"R"
160552,"301 PECAN ST","HONEY GROVE","TX",75446,33.584714251,-95.9083638179999,52,"301 PECAN ST, HONEY GROVE, TX, 75446","Match","Exact","301 PECAN ST, HONEY GROVE, TX, 75446",63265349,"R"
160553,"301 PENNSLYVANIA AVE","CLE ELUM","WA",98922,47.196344621,-120.938040004,53,"301 PENNSLYVANIA AVE, CLE ELUM, WA, 98922","Match","Non_Exact","301 N PENNSYLVANIA AVE, CLE ELUM, WA, 98922",624471865,"R"
160554,"301 PENNSYLVANIA AVE","KUTZTOWN","PA",19530,40.511826254,-75.776917611,54,"301 PENNSYLVANIA AVE, KUTZTOWN, PA, 19530","Match","Exact","301 PENNSYLVANIA AVE, KUTZTOWN, PA, 19530",80366753,"L"
160555,"301 PEYTON RD SW","ATLANTA","GA",30311,33.7481551280001,-84.474352278,55,"301 PEYTON RD SW, ATLANTA, GA, 30311","Match","Exact","301 PEYTON RD SW, ATLANTA, GA, 30311",17339767,"R"
160556,"301 PHARMACY LN KERR HALL CB 7574","CHAPEL HILL","NC",27599,35.907668947,-79.0538215129999,56,"301 PHARMACY LN KERR HALL CB 7574, CHAPEL HILL, NC, 27599","Match","Exact","301 PHARMACY LN, CHAPEL HILL, NC, 27599",72378969,"R"
160557,"301 PHARMACY LN","CHAPEL HILL","NC",27599,35.907668947,-79.0538215129999,57,"301 PHARMACY LN, CHAPEL HILL, NC, 27599","Match","Exact","301 PHARMACY LN, CHAPEL HILL, NC, 27599",72378969,"R"
160558,"301 PHELPS LANE","READSBORO","VT",5350,42.771626897,-72.9413311879999,58,"301 PHELPS LANE, READSBORO, VT, 5350","Match","Exact","301 PHELPS LN, READSBORO, VT, 05350",139215664,"R"
160559,"301 PINE AVE N","OLDSMAR","FL",34677,28.045820163,-82.669949319,59,"301 PINE AVE N, OLDSMAR, FL, 34677","Match","Exact","301 PINE AVE N, OLDSMAR, FL, 34677",124774533,"L"
160560,"301 PINE HILLS DR","CALHOUN","LA",71225,32.5195761050001,-92.308657277,60,"301 PINE HILLS DR, CALHOUN, LA, 71225","Match","Exact","301 PINE HILLS DR, CALHOUN, LA, 71225",612366528,"R"
160561,"301 PINE WOOD DRIVE","GREENVILLE","SC",29607,34.7380393620001,-82.307033255,61,"301 PINE WOOD DRIVE, GREENVILLE, SC, 29607","Match","Exact","301 PINE WOOD DR, GREENVILLE, SC, 29607",38312084,"L"
160562,"301 PINEBROOK DRIVE","NEWPORT","PA",17074,40.48184467,-77.24498177,62,"301 PINEBROOK DRIVE, NEWPORT, PA, 17074","Match","Non_Exact","301 PINE BROOK DR, NEWPORT, PA, 17074",61084641,"R"
160563,"301 PINTAIL LANE","COLUMBIA","SC",29229,34.138472135,-80.877829451,63,"301 PINTAIL LANE, COLUMBIA, SC, 29229","Match","Exact","301 PINTAIL LN, COLUMBIA, SC, 29229",71841362,"R"
160564,"301 PLACITAS RD NW","ALBUQUERQUE","NM",87107,35.1423434880001,-106.638409185,64,"301 PLACITAS RD NW, ALBUQUERQUE, NM, 87107","Match","Exact","301 PLACITAS RD NW, ALBUQUERQUE, NM, 87107",206703689,"R"
160565,"301 POINTE DRIVE","BREA","CA",92821,33.9271219350001,-117.879220606,65,"301 POINTE DRIVE, BREA, CA, 92821","Match","Exact","301 POINTE DR, BREA, CA, 92821",647277885,"R"
160566,"301 PONTIAC CT","BUCHANAN","MI",49107,41.830061911,-86.375850886,66,"301 PONTIAC CT, BUCHANAN, MI, 49107","Match","Exact","301 PONTIAC CT, BUCHANAN, MI, 49107",119993354,"L"
160567,"301 PONY PARKWAY","GRAPEVINE","TX",76051,32.942839781,-97.0843488359999,67,"301 PONY PARKWAY, GRAPEVINE, TX, 76051","Match","Exact","301 PONY PKWY, GRAPEVINE, TX, 76051",102121867,"L"
160568,"301 PONY PKWY","GRAPEVINE","TX",76051,32.942839781,-97.0843488359999,68,"301 PONY PKWY, GRAPEVINE, TX, 76051","Match","Exact","301 PONY PKWY, GRAPEVINE, TX, 76051",102121867,"L"
160569,"301 PROMENADE STREET","PROVIDENCE","RI",2908,41.829294793,-71.423567218,69,"301 PROMENADE STREET, PROVIDENCE, RI, 2908","Match","Exact","301 PROMENADE ST, PROVIDENCE, RI, 02908",47465466,"R"
160570,"301 PRUITT DRIVE STE 1414","SPRING","TX",77380,30.119345443,-95.443957117,70,"301 PRUITT DRIVE STE 1414, SPRING, TX, 77380","Match","Non_Exact","301 PRUITT RD, SPRING, TX, 77380",650587453,"L"
160571,"301 PRUITT RD APT 631","SPRING","TX",77380,30.119345443,-95.443957117,71,"301 PRUITT RD APT 631, SPRING, TX, 77380","Match","Exact","301 PRUITT RD, SPRING, TX, 77380",650587453,"L"
160572,"301 QUAIL RUN","MARTINDALE","TX",78655,NA,NA,72,"301 QUAIL RUN, MARTINDALE, TX, 78655","No_Match",NA,NA,NA,NA
160573,"301 QUARTERHORSE DRIVE","LIBERTY HILL","TX",78642,30.7044336290001,-97.9145279209999,73,"301 QUARTERHORSE DRIVE, LIBERTY HILL, TX, 78642","Match","Exact","301 QUARTERHORSE DR, LIBERTY HILL, TX, 78642",640538881,"L"
160574,"301 RED OAK DR","DICKINSON","TX",77539,NA,NA,74,"301 RED OAK DR, DICKINSON, TX, 77539","No_Match",NA,NA,NA,NA
160575,"301 REDLANDS STREET","PLAYA DEL REY","CA",90293,33.9536435810001,-118.444031913,75,"301 REDLANDS STREET, PLAYA DEL REY, CA, 90293","Match","Exact","301 REDLANDS ST, PLAYA DEL REY, CA, 90293",141577641,"L"
160576,"301 REGAL DRIVE","LAWRENCEVILLE","GA",30046,33.9513613840001,-84.0084590339999,76,"301 REGAL DRIVE, LAWRENCEVILLE, GA, 30046","Match","Non_Exact","301 REGAL DR NW, LAWRENCEVILLE, GA, 30046",88940605,"R"
160577,"301 REGATTA LANE","STANSBURY PARK","UT",84074,40.634584998,-112.311373829,77,"301 REGATTA LANE, STANSBURY PARK, UT, 84074","Match","Non_Exact","301 W REGATTA LN, STANSBURY PARK, UT, 84074",647291925,"L"
160578,"301 RICE VALLEY RD NE","TUSCALOOSA","AL",35406,33.2411827550001,-87.531076845,78,"301 RICE VALLEY RD NE, TUSCALOOSA, AL, 35406","Match","Exact","301 RICE VALLEY RD NE, TUSCALOOSA, AL, 35406",82220667,"R"
160579,"301 RIVER RUN RD","ROCKY MOUNT","NC",27801,35.940312265,-77.6976539359999,79,"301 RIVER RUN RD, ROCKY MOUNT, NC, 27801","Match","Exact","301 RIVER RUN RD, ROCKY MOUNT, NC, 27801",90194222,"L"
160580,"301 RIVERSIDE DR","MELBOURNE BEACH","FL",32951,28.076848178,-80.570856312,80,"301 RIVERSIDE DR, MELBOURNE BEACH, FL, 32951","Match","Exact","301 RIVERSIDE DR, MELBOURNE BCH, FL, 32951",93906399,"L"
160581,"301 ROARDING BROOK","CHAPPAQUA","NY",10514,NA,NA,81,"301 ROARDING BROOK, CHAPPAQUA, NY, 10514","No_Match",NA,NA,NA,NA
160582,"301 ROARING BROOK RD","CHAPPAQUA","NY",10514,41.1804778590001,-73.763113103,82,"301 ROARING BROOK RD, CHAPPAQUA, NY, 10514","Match","Exact","301 ROARING BROOK RD, CHAPPAQUA, NY, 10514",139817720,"L"
160583,"301 ROBINSON ROAD","NEWPORT","PA",17074,40.4535652210001,-77.235471478,83,"301 ROBINSON ROAD, NEWPORT, PA, 17074","Match","Exact","301 ROBINSON RD, NEWPORT, PA, 17074",634150723,"L"
160584,"301 ROCK CHURCH HWY","TOLAR","TX",76476,32.383591127,-97.933048718,84,"301 ROCK CHURCH HWY, TOLAR, TX, 76476","Match","Exact","301 ROCK CHURCH HWY, TOLAR, TX, 76476",158808631,"R"
160585,"301 ROUTE 17 NORTH SUITE 800 12 40","ORANGE","NJ",7050,NA,NA,85,"301 ROUTE 17 NORTH SUITE 800 12 40, ORANGE, NJ, 7050","No_Match",NA,NA,NA,NA
160586,"301 ROUTE 17 SUITE 800","RUTHERFORD","NJ",7070,NA,NA,86,"301 ROUTE 17 SUITE 800, RUTHERFORD, NJ, 7070","No_Match",NA,NA,NA,NA
160587,"301 ROUTE 50","MAYSLANDING","NJ",8330,NA,NA,87,"301 ROUTE 50, MAYSLANDING, NJ, 8330","No_Match",NA,NA,NA,NA
160588,"301 ROYA LANE SUITE 4","BRYANT","AR",72022,34.6142127960001,-92.499670313,88,"301 ROYA LANE SUITE 4, BRYANT, AR, 72022","Match","Exact","301 ROYA LN, BRYANT, AR, 72022",24205340,"R"
160589,"301 ROYAL AVENUE","SAINT LOUIS","MO",63135,38.7501190180001,-90.302342239,89,"301 ROYAL AVENUE, SAINT LOUIS, MO, 63135","Match","Exact","301 ROYAL AVE, SAINT LOUIS, MO, 63135",100146100,"L"
160590,"301 S 17TH ST","NEW CASTLE","IN",47362,39.9292840030001,-85.3639898929999,90,"301 S 17TH ST, NEW CASTLE, IN, 47362","Match","Exact","301 S 17TH ST, NEW CASTLE, IN, 47362",29995587,"L"
160591,"301 S 3RD ST","RENTON","WA",98057,47.4797241520001,-122.213175806,91,"301 S 3RD ST, RENTON, WA, 98057","Match","Exact","301 S 3RD ST, RENTON, WA, 98057",186631784,"R"
160592,"301 S 3RD STREET","ALSEA","OR",97324,44.381142287,-123.595509066,92,"301 S 3RD STREET, ALSEA, OR, 97324","Match","Exact","301 S 3RD ST, ALSEA, OR, 97324",155873504,"R"
160593,"301 S 4TH","MOUNT OLIVE","MS",39428,NA,NA,93,"301 S 4TH, MOUNT OLIVE, MS, 39428","No_Match",NA,NA,NA,NA
160594,"301 S 5TH ST","INDEPENDENCE","KS",67301,37.2209440190001,-95.703941406,94,"301 S 5TH ST, INDEPENDENCE, KS, 67301","Match","Exact","301 S 5TH ST, INDEPENDENCE, KS, 67301",13783828,"L"
160595,"301 S 5TH STREET","MENNO","SD",57045,43.2381848090001,-97.577991485,95,"301 S 5TH STREET, MENNO, SD, 57045","Match","Exact","301 S 5TH ST, MENNO, SD, 57045",172976017,"L"
160596,"301 S 70TH ST STE 303","LINCOLN","NE",68510,40.811196124,-96.625176532,96,"301 S 70TH ST STE 303, LINCOLN, NE, 68510","Match","Non_Exact","301 S 70TH ST, LINCOLN, NE, 68510",636292034,"R"
160597,"301 S 7TH","FAIRVIEW","OK",73737,36.2667960740001,-98.4773429259999,97,"301 S 7TH, FAIRVIEW, OK, 73737","Match","Non_Exact","301 S 7TH AVE, FAIRVIEW, OK, 73737",154941334,"R"
160598,"301 S 9TH AVE STE 210A","RICHMOND","TX",77469,NA,NA,98,"301 S 9TH AVE STE 210A, RICHMOND, TX, 77469","No_Match",NA,NA,NA,NA
160599,"301 S ADAMS ST","MARION","IN",46952,40.558739609,-85.6585445109999,99,"301 S ADAMS ST, MARION, IN, 46952","Match","Exact","301 S ADAMS ST, MARION, IN, 46952",95008203,"L"
160600,"301 S B ST APR 32","MADERS","CA",93638,NA,NA,100,"301 S B ST APR 32, MADERS, CA, 93638","Tie",NA,NA,NA,NA
160601,"301 S CANYONWOOD DRIVE","DRIPPING SPRINGS","TX",78620,30.19088571,-98.0294754179999,101,"301 S CANYONWOOD DRIVE, DRIPPING SPRINGS, TX, 78620","Match","Exact","301 S CANYONWOOD DR, DRIPPING SPRINGS, TX, 78620",63829837,"L"
160602,"301 S CENTER STREET SUITE 124","ARLINGTON","TX",76010,32.734834619,-97.107155764,102,"301 S CENTER STREET SUITE 124, ARLINGTON, TX, 76010","Match","Non_Exact","301 S CENTER ST, ARLINGTON, TX, 76010",101908079,"L"
160603,"301 S CHESTNUT STREET","GAINESVILLE","TX",76240,33.622793717,-97.147055632,103,"301 S CHESTNUT STREET, GAINESVILLE, TX, 76240","Match","Exact","301 S CHESTNUT ST, GAINESVILLE, TX, 76240",151322545,"L"
160604,"301 S CHICAGO ST","MILFORD","IL",60953,40.624984141,-87.6977413549999,104,"301 S CHICAGO ST, MILFORD, IL, 60953","Match","Exact","301 S CHICAGO ST, MILFORD, IL, 60953",90759099,"R"
160605,"301 S CHURCH ST SUITE 10","ROCKY MOUNT","NC",27804,35.9400438210001,-77.7980908659999,105,"301 S CHURCH ST SUITE 10, ROCKY MOUNT, NC, 27804","Match","Exact","301 CHURCH ST, ROCKY MOUNT, NC, 27804",636705718,"R"
160606,"301 S CHURCH STREET STE 226","ROCKY MOUNT","NC",27804,35.9400438210001,-77.7980908659999,106,"301 S CHURCH STREET STE 226, ROCKY MOUNT, NC, 27804","Match","Exact","301 CHURCH ST, ROCKY MOUNT, NC, 27804",636705718,"R"
160607,"301 S COLUMBIA","WEST COLUMBIA","TX",77486,29.141826915,-95.6552330119999,107,"301 S COLUMBIA, WEST COLUMBIA, TX, 77486","Match","Non_Exact","301 S COLUMBIA DR, WEST COLUMBIA, TX, 77486",116570192,"R"
160608,"301 S CURRAN AVE","PICAYUNE","MS",39466,30.523245624,-89.679384507,108,"301 S CURRAN AVE, PICAYUNE, MS, 39466","Match","Exact","301 S CURRAN AVE, PICAYUNE, MS, 39466",111471930,"R"
160609,"301 S DETAR ST","WINSLOW","IN",47598,38.379024115,-87.210009952,109,"301 S DETAR ST, WINSLOW, IN, 47598","Match","Exact","301 S DETAR ST, WINSLOW, IN, 47598",32173766,"R"
160610,"301 S DETMAR STREET","WINSLOW","IN",47598,NA,NA,110,"301 S DETMAR STREET, WINSLOW, IN, 47598","No_Match",NA,NA,NA,NA
160611,"301 S DOBSON ST","BURLESON","TX",76028,32.5393386480001,-97.318811903,111,"301 S DOBSON ST, BURLESON, TX, 76028","Match","Exact","301 S DOBSON ST, BURLESON, TX, 76028",103517420,"R"
160612,"301 S ELM STREET SUITE 316","GREENSBORO","NC",27401,NA,NA,112,"301 S ELM STREET SUITE 316, GREENSBORO, NC, 27401","Tie",NA,NA,NA,NA
160613,"301 S FINNEY","CHARLESTON","MO",63801,NA,NA,113,"301 S FINNEY, CHARLESTON, MO, 63801","No_Match",NA,NA,NA,NA
160614,"301 S GARLAND AVENUE","GARLAND","TX",75040,32.9108905620001,-96.648166815,114,"301 S GARLAND AVENUE, GARLAND, TX, 75040","Match","Exact","301 S GARLAND AVE, GARLAND, TX, 75040",102926833,"R"
160615,"301 S GROVE","STANDISH","MI",48658,43.9797683990001,-83.9570306319999,115,"301 S GROVE, STANDISH, MI, 48658","Match","Non_Exact","301 S GROVE ST, STANDISH, MI, 48658",160919782,"R"
160616,"301 S HEATHERWILDE BLVD STE 2753","PFLUGERVILLE","TX",78660,30.450063712,-97.638402914,116,"301 S HEATHERWILDE BLVD STE 2753, PFLUGERVILLE, TX, 78660","Match","Non_Exact","301 S HEATHERWILDE BLVD, PFLUGERVILLE, TX, 78660",641803680,"R"
160617,"301 S JOHNSON ST","ADA","OH",45810,40.768439958,-83.821627544,117,"301 S JOHNSON ST, ADA, OH, 45810","Match","Exact","301 S JOHNSON ST, ADA, OH, 45810",36519828,"L"
160618,"301 S JUPITER RD","ALLEN","TX",75002,33.097613396,-96.659438573,118,"301 S JUPITER RD, ALLEN, TX, 75002","Match","Exact","301 S JUPITER RD, ALLEN, TX, 75002",652124579,"R"
160619,"301 S KIESEL ST","BAY CITY","MI",48706,43.599906006,-83.9109931629999,119,"301 S KIESEL ST, BAY CITY, MI, 48706","Match","Exact","301 S KIESEL ST, BAY CITY, MI, 48706",81139549,"L"
160620,"301 S MAIN ST  POBOX 128","ELROY","WI",53929,43.739391676,-90.271049967,120,"301 S MAIN ST  POBOX 128, ELROY, WI, 53929","Match","Exact","301 MAIN ST, ELROY, WI, 53929",50962578,"L"
160621,"301 S MAIN ST","NIXA","MO",65714,37.04176533,-93.29481057,121,"301 S MAIN ST, NIXA, MO, 65714","Match","Exact","301 S MAIN ST, NIXA, MO, 65714",99813001,"R"
160622,"301 S MAIN STREET","IRONTON","MO",63650,37.597357248,-90.627549283,122,"301 S MAIN STREET, IRONTON, MO, 63650","Match","Exact","301 S MAIN ST, IRONTON, MO, 63650",62600228,"R"
160623,"301 S MAIN STREET","MANSFIELD","TX",76063,32.567577683,-97.141940945,123,"301 S MAIN STREET, MANSFIELD, TX, 76063","Match","Non_Exact","301 N MAIN ST, MANSFIELD, TX, 76063",102176172,"L"
160624,"301 S MAPLE AVE","SANFORD","FL",32771,28.809812315,-81.274176887,124,"301 S MAPLE AVE, SANFORD, FL, 32771","Match","Exact","301 S MAPLE AVE, SANFORD, FL, 32771",93749666,"L"
160625,"301 S MAYES STREET","PRYOR","OK",74361,36.304403135,-95.3243817439999,125,"301 S MAYES STREET, PRYOR, OK, 74361","Match","Exact","301 S MAYES ST, PRYOR, OK, 74361",58798685,"R"
160626,"301 S PERIMETER PARK DR SUITE 100","NASHVILLE","TN",37211,36.0844311980001,-86.697049315,126,"301 S PERIMETER PARK DR SUITE 100, NASHVILLE, TN, 37211","Match","Non_Exact","301 S PERIMETER PARK DR, NASHVILLE, TN, 37211",97197767,"L"
160627,"301 S QUINCY ST","CLINTON","IL",61727,40.1507783600001,-88.9616839179999,127,"301 S QUINCY ST, CLINTON, IL, 61727","Match","Exact","301 S QUINCY ST, CLINTON, IL, 61727",20511498,"L"
160628,"301 S W BROAD STREET","WALHALLA","SC",29691,NA,NA,128,"301 S W BROAD STREET, WALHALLA, SC, 29691","No_Match",NA,NA,NA,NA
160629,"301 S WASHINGTON","LA MONTE","MO",65337,38.7723573740001,-93.419423691,129,"301 S WASHINGTON, LA MONTE, MO, 65337","Match","Non_Exact","301 S WASHINGTON ST, LA MONTE, MO, 65337",54739693,"R"
160630,"301 SADDLE COURT","FLEMINGTON","NJ",8822,40.4965298700001,-74.846281312,130,"301 SADDLE COURT, FLEMINGTON, NJ, 8822","Match","Exact","301 SADDLE CT, FLEMINGTON, NJ, 08822",60021799,"L"
160631,"301 SADDLE CT","FLEMINGTON","NJ",8822,40.4965298700001,-74.846281312,131,"301 SADDLE CT, FLEMINGTON, NJ, 8822","Match","Exact","301 SADDLE CT, FLEMINGTON, NJ, 08822",60021799,"L"
160632,"301 SAN MARCOS AVE","SANFORD","FL",32771,28.8091791790001,-81.255901222,132,"301 SAN MARCOS AVE, SANFORD, FL, 32771","Match","Exact","301 SAN MARCOS AVE, SANFORD, FL, 32771",93750149,"L"
160633,"301 SAUCER WAY","CHAPIN","SC",29036,34.127151391,-81.299925117,133,"301 SAUCER WAY, CHAPIN, SC, 29036","Match","Exact","301 SAUCER WAY, CHAPIN, SC, 29036",652099410,"L"
160634,"301 SE HIBISCUS AVENUE","STUART","FL",34996,27.1981473920001,-80.234902456,134,"301 SE HIBISCUS AVENUE, STUART, FL, 34996","Match","Exact","301 HIBISCUS AVE, STUART, FL, 34996",120401401,"R"
160635,"301 SHAMROCK TRAIL","ADAMSVILLE","AL",35005,NA,NA,135,"301 SHAMROCK TRAIL, ADAMSVILLE, AL, 35005","No_Match",NA,NA,NA,NA
160636,"301 SHARONWOOD DRIVE","GIBSONVILLE","NC",27249,36.078420905,-79.6162377269999,136,"301 SHARONWOOD DRIVE, GIBSONVILLE, NC, 27249","Match","Exact","301 SHARONWOOD DR, GIBSONVILLE, NC, 27249",131087271,"L"
160637,"301 SHEFFIELD AVENUE","BROOKLYN","NY",11207,40.6696461980001,-73.8962951829999,137,"301 SHEFFIELD AVENUE, BROOKLYN, NY, 11207","Match","Exact","301 SHEFFIELD AVE, BROOKLYN, NY, 11207",59084724,"L"
160638,"301 SHOUP AVENUE SUITE 202","IDAHO FALLS","ID",83402,43.491392583,-112.040251807,138,"301 SHOUP AVENUE SUITE 202, IDAHO FALLS, ID, 83402","Match","Exact","301 SHOUP AVE, IDAHO FALLS, ID, 83402",119118762,"L"
160639,"301 SKEET CLUB ROAD","PALATKA","FL",32177,29.6522990080001,-81.683655379,139,"301 SKEET CLUB ROAD, PALATKA, FL, 32177","Match","Exact","301 SKEET CLUB RD, PALATKA, FL, 32177",86092555,"R"
160640,"301 SOUTH 18TH STREET","FERNANDINA BEACH","FL",32034,30.6660979070001,-81.447027819,140,"301 SOUTH 18TH STREET, FERNANDINA BEACH, FL, 32034","Match","Exact","301 S 18TH ST, FERNANDINA BCH, FL, 32034",84105303,"L"
160641,"301 SOUTH BROADWAY AVENUE","SYLACAUGA","AL",35150,33.1613649870001,-86.250870569,141,"301 SOUTH BROADWAY AVENUE, SYLACAUGA, AL, 35150","Match","Non_Exact","301 BROADWAY AVE, SYLACAUGA, AL, 35150",66925152,"L"
160642,"301 SOUTH CHURCH STREET  STE 153","ROCKY MOUNT","NC",27804,NA,NA,142,"301 SOUTH CHURCH STREET  STE 153, ROCKY MOUNT, NC, 27804","Tie",NA,NA,NA,NA
160643,"301 SOUTH CHURCH STREET SUITE 292","ROCKY MOUNT","NC",27804,NA,NA,143,"301 SOUTH CHURCH STREET SUITE 292, ROCKY MOUNT, NC, 27804","Tie",NA,NA,NA,NA
160644,"301 SOUTH GENEVA STREET APT 2 F","ITHACA","NY",14850,42.436673496,-76.500586394,144,"301 SOUTH GENEVA STREET APT 2 F, ITHACA, NY, 14850","Match","Exact","301 S GENEVA ST, ITHACA, NY, 14850",18855489,"R"
160645,"301 SOUTH LIESER ROAD","VANCOUVER","WA",98664,45.6198696870001,-122.585552616,145,"301 SOUTH LIESER ROAD, VANCOUVER, WA, 98664","Match","Exact","301 S LIESER RD, VANCOUVER, WA, 98664",158328107,"L"
160646,"301 SOUTH MAIN STREET PO BOX 500","LUCK","WI",54853,45.5737318170001,-92.4823923,146,"301 SOUTH MAIN STREET PO BOX 500, LUCK, WI, 54853","Match","Exact","301 S MAIN ST, LUCK, WI, 54853",110835811,"L"
160647,"301 SOUTH MARKET STREET","NEW ATHENS","IL",62264,38.322562571,-89.8764492349999,147,"301 SOUTH MARKET STREET, NEW ATHENS, IL, 62264","Match","Exact","301 S MARKET ST, NEW ATHENS, IL, 62264",107824544,"R"
160648,"301 SOUTH OAK FOREST","DRIPPING SPRINGS","TX",78620,30.276286844,-98.113645565,148,"301 SOUTH OAK FOREST, DRIPPING SPRINGS, TX, 78620","Match","Non_Exact","301 S OAK FOREST DR, DRIPPING SPRINGS, TX, 78620",63846511,"L"
160649,"301 SOUTH OSO DORADO DRIVE","PAYSON","AZ",85541,34.237132264,-111.335377095,149,"301 SOUTH OSO DORADO DRIVE, PAYSON, AZ, 85541","Match","Exact","301 S OSO DORADO DR, PAYSON, AZ, 85541",633325975,"L"
160650,"301 SOUTH PERSON STREET","RALEIGH","NC",27601,35.7766625290001,-78.6349924739999,150,"301 SOUTH PERSON STREET, RALEIGH, NC, 27601","Match","Exact","301 S PERSON ST, RALEIGH, NC, 27601",72508595,"L"
160651,"301 SOUTH ROAD","FARMINGTON","CT",6032,41.7256074470001,-72.766810375,151,"301 SOUTH ROAD, FARMINGTON, CT, 6032","Match","Exact","301 SOUTH RD, FARMINGTON, CT, 06032",623768179,"L"
160652,"301 SOUTH RT 59","FOX LAKE","IL",60020,42.3893461230001,-88.1579100499999,152,"301 SOUTH RT 59, FOX LAKE, IL, 60020","Match","Non_Exact","301 S STATE RTE 59, FOX LAKE, IL, 60020",613798299,"R"
160653,"301 SOUTH STREET PO BOX 112","NORWAY","IA",52318,41.901496009,-91.9218140309999,153,"301 SOUTH STREET PO BOX 112, NORWAY, IA, 52318","Match","Exact","301 SOUTH ST, NORWAY, IA, 52318",94715311,"R"
160654,"301 SOUTHWEST KENNYBROOK DRIVE","GRIMES","IA",50111,41.6869125330001,-93.799914621,154,"301 SOUTHWEST KENNYBROOK DRIVE, GRIMES, IA, 50111","Match","Exact","301 SW KENNYBROOK DR, GRIMES, IA, 50111",65863048,"R"
160655,"301 SPARKMAN DR NW","HUNTSVILLE","AL",35805,NA,NA,155,"301 SPARKMAN DR NW, HUNTSVILLE, AL, 35805","No_Match",NA,NA,NA,NA
160656,"301 SPARTAN DR  APT 13101","SLIDELL","LA",70458,30.247255035,-89.791695137,156,"301 SPARTAN DR  APT 13101, SLIDELL, LA, 70458","Match","Exact","301 SPARTAN DR, SLIDELL, LA, 70458",111316781,"R"
160657,"301 STATE HWY 224","COMMERCE","TX",75248,NA,NA,157,"301 STATE HWY 224, COMMERCE, TX, 75248","No_Match",NA,NA,NA,NA
160658,"301 STATE ROUTE 32 S","NEW PALTZ","NY",12561,41.77507143,-74.074757426,158,"301 STATE ROUTE 32 S, NEW PALTZ, NY, 12561","Match","Non_Exact","301 STATE RTE 32, NEW PALTZ, NY, 12561",41870568,"L"
160659,"301 STATE STREET SUITE 200","SOUTHLAKE","TX",76092,NA,NA,159,"301 STATE STREET SUITE 200, SOUTHLAKE, TX, 76092","No_Match",NA,NA,NA,NA
160660,"301 STONEYBROOK LANE","DAWSON","PA",15428,40.0751953980001,-79.686164662,160,"301 STONEYBROOK LANE, DAWSON, PA, 15428","Match","Exact","301 STONEYBROOK LN, DAWSON, PA, 15428",613502923,"R"
160661,"301 STORCK RD","FREDERICKSBURG","VA",22406,38.4336752770001,-77.60214675,161,"301 STORCK RD, FREDERICKSBURG, VA, 22406","Match","Exact","301 STORCK RD, FREDERICKSBURG, VA, 22406",647894528,"L"
160662,"301 SW PRAIRIE TRAIL PARKWAY","ANKENY","IA",50023,NA,NA,162,"301 SW PRAIRIE TRAIL PARKWAY, ANKENY, IA, 50023","No_Match",NA,NA,NA,NA
160663,"301 TALA WAY","NICEVILLE","FL",32578,30.4879383030001,-86.463142617,163,"301 TALA WAY, NICEVILLE, FL, 32578","Match","Exact","301 TALA WAY, NICEVILLE, FL, 32578",74419216,"R"
160664,"301 TALLAHASSEE STREET  PO BOX 602","CARRABELLE","FL",32322,29.8539402330001,-84.664742507,164,"301 TALLAHASSEE STREET  PO BOX 602, CARRABELLE, FL, 32322","Match","Exact","301 TALLAHASSEE ST, CARRABELLE, FL, 32322",74341275,"L"
160665,"301 TELLURIDE TRAIL","CHAPEL HILL","NC",27514,35.962266841,-79.025601981,165,"301 TELLURIDE TRAIL, CHAPEL HILL, NC, 27514","Match","Exact","301 TELLURIDE TRL, CHAPEL HILL, NC, 27514",72409433,"L"
160666,"301 TEXAS LOOP","SPRINGFIELD","KY",40069,37.6567270800001,-85.113644498,166,"301 TEXAS LOOP, SPRINGFIELD, KY, 40069","Match","Non_Exact","301 TEXAS LOOP RD, SPRINGFIELD, KY, 40069",32632652,"L"
160667,"301 THELMA DR 102 SMB 7797","CASPER","WY",82609,42.8477532970001,-106.274197472,167,"301 THELMA DR 102 SMB 7797, CASPER, WY, 82609","Match","Exact","301 THELMA DR, CASPER, WY, 82609",607729278,"R"
160668,"301 THELMA DR PMB 196","CASPER","WY",82609,42.8477532970001,-106.274197472,168,"301 THELMA DR PMB 196, CASPER, WY, 82609","Match","Exact","301 THELMA DR, CASPER, WY, 82609",607729278,"R"
160669,"301 TIFFANY CIRCLE","GARNER","NC",27529,35.689568294,-78.639698067,169,"301 TIFFANY CIRCLE, GARNER, NC, 27529","Match","Exact","301 TIFFANY CIR, GARNER, NC, 27529",208361027,"R"
160670,"301 TINGEY ST SE APT 109","WASHINGTON","DC",20003,NA,NA,170,"301 TINGEY ST SE APT 109, WASHINGTON, DC, 20003","No_Match",NA,NA,NA,NA
160671,"301 TINGEY ST SE SUITE 234","WASHINGTON","DC",20003,NA,NA,171,"301 TINGEY ST SE SUITE 234, WASHINGTON, DC, 20003","No_Match",NA,NA,NA,NA
160672,"301 TRIUMPH CT","COLLEGE STATION","TX",77845,30.563364753,-96.290745186,172,"301 TRIUMPH CT, COLLEGE STATION, TX, 77845","Match","Exact","301 TRIUMPH CT, COLLEGE STATION, TX, 77845",650184953,"L"
160673,"301 TROUTMAN FARM ROAD","STATESVILLE","NC",28677,35.7161973980001,-80.931574589,173,"301 TROUTMAN FARM ROAD, STATESVILLE, NC, 28677","Match","Exact","301 TROUTMAN FARM RD, STATESVILLE, NC, 28677",652950968,"R"
160674,"301 TWIN LAKES AVENUE","OPELIKA","AL",36801,32.663241984,-85.37657405,174,"301 TWIN LAKES AVENUE, OPELIKA, AL, 36801","Match","Exact","301 TWIN LAKES AVE, OPELIKA, AL, 36801",1571575,"L"
160675,"301 UCB","BOULDER","CO",80309,NA,NA,175,"301 UCB, BOULDER, CO, 80309","No_Match",NA,NA,NA,NA
160676,"301 UNION ST 21867 SMB 11090","SEATTLE","WA",98111,47.608750813,-122.336872592,176,"301 UNION ST 21867 SMB 11090, SEATTLE, WA, 98111","Match","Non_Exact","301 UNION ST, SEATTLE, WA, 98101",186992166,"R"
160677,"301 UNION STREET  NUMBER 2803","SEATTLE","WA",98111,47.608750813,-122.336872592,177,"301 UNION STREET  NUMBER 2803, SEATTLE, WA, 98111","Match","Non_Exact","301 UNION ST, SEATTLE, WA, 98101",186992166,"R"
160678,"301 UNION STREET 21867 SMB 6544","SEATTLE","WA",98111,47.608750813,-122.336872592,178,"301 UNION STREET 21867 SMB 6544, SEATTLE, WA, 98111","Match","Non_Exact","301 UNION ST, SEATTLE, WA, 98101",186992166,"R"
160679,"301 UNIVERSITY BLVD MRB","GALVESTON","TX",77555,29.3114006870001,-94.7758561109999,179,"301 UNIVERSITY BLVD MRB, GALVESTON, TX, 77555","Match","Exact","301 UNIVERSITY BLVD, GALVESTON, TX, 77555",96729245,"R"
160680,"301 UNIVERSITY BLVD ROUTE 1150","GALVESTON","TX",77555,29.3114006870001,-94.7758561109999,180,"301 UNIVERSITY BLVD ROUTE 1150, GALVESTON, TX, 77555","Match","Exact","301 UNIVERSITY BLVD, GALVESTON, TX, 77555",96729245,"R"
160681,"301 UNIVERSITY BLVD","GALVESTON","TX",77550,29.3103947750001,-94.77447308,181,"301 UNIVERSITY BLVD, GALVESTON, TX, 77550","Match","Exact","301 UNIVERSITY BLVD, GALVESTON, TX, 77550",96680547,"R"
160682,"301 UPPER BROADWAY ST","DECORAH","IA",52101,43.3020780410001,-91.794606597,182,"301 UPPER BROADWAY ST, DECORAH, IA, 52101","Match","Exact","301 UPPER BROADWAY ST, DECORAH, IA, 52101",27509767,"L"
160683,"301 VERMONT STREET","BROOKLYN","NY",11207,40.6727416780001,-73.89409098,183,"301 VERMONT STREET, BROOKLYN, NY, 11207","Match","Exact","301 VERMONT ST, BROOKLYN, NY, 11207",59084688,"L"
160684,"301 VICTOR AVE","VICTOR","CO",80860,38.710217336,-105.140677015,184,"301 VICTOR AVE, VICTOR, CO, 80860","Match","Exact","301 VICTOR AVE, VICTOR, CO, 80860",130944419,"R"
160685,"301 VIKING COURT DR","HUMBOLDT","TN",38343,NA,NA,185,"301 VIKING COURT DR, HUMBOLDT, TN, 38343","No_Match",NA,NA,NA,NA
160686,"301 VIRGINIA STREET EAST","CHARLESTON","WV",25301,38.352381759,-81.639784434,186,"301 VIRGINIA STREET EAST, CHARLESTON, WV, 25301","Match","Exact","301 VIRGINIA ST E, CHARLESTON, WV, 25301",78592253,"R"
160687,"301 VZCR 3501","WILLS POINT","TX",75169,NA,NA,187,"301 VZCR 3501, WILLS POINT, TX, 75169","No_Match",NA,NA,NA,NA
160688,"301 W 1100 N","WHEATFIELD","IN",46392,41.172630359,-87.044540909,188,"301 W 1100 N, WHEATFIELD, IN, 46392","Match","Non_Exact","301 E 1100 N, WHEATFIELD, IN, 46392",15375889,"L"
160689,"301 W 130THS ST 3D","NEW YORK","NY",10027,NA,NA,189,"301 W 130THS ST 3D, NEW YORK, NY, 10027","No_Match",NA,NA,NA,NA
160690,"301 W 1ST AVE","BARRINGTON","NJ",8007,39.868296521,-75.062781216,190,"301 W 1ST AVE, BARRINGTON, NJ, 8007","Match","Exact","301 W 1ST AVE, BARRINGTON, NJ, 08007",629313315,"L"
160691,"301 W 29TH STREET SUITE 2003","BALTIMORE","MD",21211,39.3221494140001,-76.6222338749999,191,"301 W 29TH STREET SUITE 2003, BALTIMORE, MD, 21211","Match","Non_Exact","301 W 29TH ST, BALTIMORE, MD, 21211",206407886,"L"
160692,"301 W 2ND ST","HUMMELSTOWN","PA",17036,40.265969892,-76.715267908,192,"301 W 2ND ST, HUMMELSTOWN, PA, 17036","Match","Exact","301 W 2ND ST, HUMMELSTOWN, PA, 17036",70825114,"L"
160693,"301 W 2ND STREET STE 238","SANTA ANA","CA",92701,33.746302051,-117.869824395,193,"301 W 2ND STREET STE 238, SANTA ANA, CA, 92701","Match","Non_Exact","301 W 2ND ST, SANTA ANA, CA, 92701",651717198,"R"
160694,"301 W 3RD ST C","STERLING","IL",61081,NA,NA,194,"301 W 3RD ST C, STERLING, IL, 61081","Tie",NA,NA,NA,NA
160695,"301 W 6TH STREET SUITE 211","BORGER","TX",79007,NA,NA,195,"301 W 6TH STREET SUITE 211, BORGER, TX, 79007","Tie",NA,NA,NA,NA
160696,"301 W ATLANTIC AVE STE 0-5","DELRAY BEACH","FL",33444,26.4616298120001,-80.076220511,196,"301 W ATLANTIC AVE STE 0-5, DELRAY BEACH, FL, 33444","Match","Non_Exact","301 W ATLANTIC AVE, DELRAY BEACH, FL, 33444",115298090,"R"
160697,"301 W ATLANTIC AVE SUITE O8","DELRAY BEACH","FL",33444,26.4616298120001,-80.076220511,197,"301 W ATLANTIC AVE SUITE O8, DELRAY BEACH, FL, 33444","Match","Non_Exact","301 W ATLANTIC AVE, DELRAY BEACH, FL, 33444",115298090,"R"
160698,"301 W BROOME STREET SUITE 101","LAGRANGE","GA",30240,33.037377915,-85.032127639,198,"301 W BROOME STREET SUITE 101, LAGRANGE, GA, 30240","Match","Non_Exact","301 E BROOME ST, LAGRANGE, GA, 30240",1770586,"L"
160699,"301 W CORNELIUS HARNETT BLVD","LILLINGTON","NC",27546,35.4215608820001,-78.809733028,199,"301 W CORNELIUS HARNETT BLVD, LILLINGTON, NC, 27546","Match","Exact","301 W CORNELIUS HARNETT BLVD, LILLINGTON, NC, 27546",635647931,"L"
160700,"301 W DALLAS STREET","PLEASANTVILLE","IA",50225,41.3877480950001,-93.270781428,200,"301 W DALLAS STREET, PLEASANTVILLE, IA, 50225","Match","Exact","301 W DALLAS ST, PLEASANTVILLE, IA, 50225",89475315,"R"
160701,"301 W ELM ST","E ROCHESTER","NY",14445,43.113893164,-77.491650223,201,"301 W ELM ST, E ROCHESTER, NY, 14445","Match","Exact","301 W ELM ST, E ROCHESTER, NY, 14445",14545739,"R"
160702,"301 W F ST","NORTH PLATTE","NE",69101,41.1289086900001,-100.766545426,202,"301 W F ST, NORTH PLATTE, NE, 69101","Match","Exact","301 W F ST, NORTH PLATTE, NE, 69101",151260447,"R"
160703,"301 W FOURTH STREET LL100","ROYAL OAK","MI",48067,NA,NA,203,"301 W FOURTH STREET LL100, ROYAL OAK, MI, 48067","Tie",NA,NA,NA,NA
160704,"301 W FOURTH STREET SUITE LL-150","ROYAL OAK","MI",48067,NA,NA,204,"301 W FOURTH STREET SUITE LL-150, ROYAL OAK, MI, 48067","Tie",NA,NA,NA,NA
160705,"301 W FRANKLIN ST","TAYLORVILLE","IL",62568,39.547388208,-89.297479659,205,"301 W FRANKLIN ST, TAYLORVILLE, IL, 62568","Match","Exact","301 W FRANKLIN ST, TAYLORVILLE, IL, 62568",637870818,"R"
160706,"301 W GREEN ST","URBANA","IL",61801,40.110704238,-88.210450425,206,"301 W GREEN ST, URBANA, IL, 61801","Match","Exact","301 W GREEN ST, URBANA, IL, 61801",8813136,"L"
160707,"301 W JEFFERSON BLVD STE 200","FORT WAYNE","IN",46802,NA,NA,207,"301 W JEFFERSON BLVD STE 200, FORT WAYNE, IN, 46802","Tie",NA,NA,NA,NA
160708,"301 W LINCOLN TRAIL BLVD","RADCLIFF","KY",40160,37.837417875,-85.9459518739999,208,"301 W LINCOLN TRAIL BLVD, RADCLIFF, KY, 40160","Match","Exact","301 W LINCOLN TRAIL BLVD, RADCLIFF, KY, 40160",34641437,"L"
160709,"301 W MADISON AVE EXT","JOHNSTOWN","NY",12095,42.9987461750001,-74.383355007,209,"301 W MADISON AVE EXT, JOHNSTOWN, NY, 12095","Match","Non_Exact","301 W MADISON AVE EXD, JOHNSTOWN, NY, 12095",153640775,"R"
160710,"301 W MAIN ST","YATES CITY","IL",61572,40.77874883,-90.017635259,210,"301 W MAIN ST, YATES CITY, IL, 61572","Match","Exact","301 W MAIN ST, YATES CITY, IL, 61572",9045668,"R"
160711,"301 W MAIN STREET","JENKS","OK",74037,36.0226050840001,-95.9732752209999,211,"301 W MAIN STREET, JENKS, OK, 74037","Match","Exact","301 W MAIN ST, JENKS, OK, 74037",166460129,"L"
160712,"301 W MARKET ST","YORK","PA",17401,39.9603143730001,-76.734705806,212,"301 W MARKET ST, YORK, PA, 17401","Match","Exact","301 W MARKET ST, YORK, PA, 17401",638977286,"R"
160713,"301 W MARTIN","CAIRO","MO",65239,39.511778968,-92.441733757,213,"301 W MARTIN, CAIRO, MO, 65239","Match","Non_Exact","301 W MARTIN ST, CAIRO, MO, 65239",23792144,"R"
160714,"301 W MASON AVE","KINGSLAND","GA",31548,30.8085618210001,-81.694732888,214,"301 W MASON AVE, KINGSLAND, GA, 31548","Match","Exact","301 MASON AVE, KINGSLAND, GA, 31548",125707656,"L"
160715,"301 W MISSOURI","MIDLAND","TX",79701,31.9964105560001,-102.07689127,215,"301 W MISSOURI, MIDLAND, TX, 79701","Match","Non_Exact","301 W MISSOURI AVE, MIDLAND, TX, 79701",139583457,"L"
160716,"301 W MITCHELL STREET","PETOSKEY","MI",49770,NA,NA,216,"301 W MITCHELL STREET, PETOSKEY, MI, 49770","Tie",NA,NA,NA,NA
160717,"301 W PLATT ST 700","TAMPA","FL",33606,27.9416692030001,-82.4628801109999,217,"301 W PLATT ST 700, TAMPA, FL, 33606","Match","Non_Exact","301 W PLATT ST, TAMPA, FL, 33606",104530266,"R"
160718,"301 W PLATT ST STE 214","TAMPA","FL",33606,27.9416692030001,-82.4628801109999,218,"301 W PLATT ST STE 214, TAMPA, FL, 33606","Match","Non_Exact","301 W PLATT ST, TAMPA, FL, 33606",104530266,"R"
160719,"301 W PLATT STREET - SUITE 156","TAMPA","GA",33606,NA,NA,219,"301 W PLATT STREET - SUITE 156, TAMPA, GA, 33606","No_Match",NA,NA,NA,NA
160720,"301 W PLATT STREET SUITE 201","TAMPA","FL",33606,27.9416692030001,-82.4628801109999,220,"301 W PLATT STREET SUITE 201, TAMPA, FL, 33606","Match","Non_Exact","301 W PLATT ST, TAMPA, FL, 33606",104530266,"R"
160721,"301 W SEARCY ST","HEBER SPRINGS","AR",72543,35.4905624130001,-92.0316279799999,221,"301 W SEARCY ST, HEBER SPRINGS, AR, 72543","Match","Exact","301 W SEARCY ST, HEBER SPRINGS, AR, 72543",43167641,"L"
160722,"301 W SEVENTH STREET","TRAVERSE CITY","MI",49684,44.7604679780001,-85.626274302,222,"301 W SEVENTH STREET, TRAVERSE CITY, MI, 49684","Match","Exact","301 7TH ST, TRAVERSE CITY, MI, 49684",145514272,"L"
160723,"301 W WARRIOR TRL","GRAND PRAIRIE","TX",75052,32.6980141780001,-97.003432123,223,"301 W WARRIOR TRL, GRAND PRAIRIE, TX, 75052","Match","Exact","301 W WARRIOR TRL, GRAND PRAIRIE, TX, 75052",102937284,"L"
160724,"301 W WASHINGTON BLVD","CRESCENT CITY","CA",95531,41.7727547210001,-124.206103136,224,"301 W WASHINGTON BLVD, CRESCENT CITY, CA, 95531","Match","Exact","301 W WASHINGTON BLVD, CRESCENT CITY, CA, 95531",113173162,"R"
160725,"301 W WASHINGTON STREET","RIVERSIDE","NJ",8075,NA,NA,225,"301 W WASHINGTON STREET, RIVERSIDE, NJ, 8075","Tie",NA,NA,NA,NA
160726,"301 WALKER RD","MORGANTON","NC",28655,35.7112054730001,-81.68963288,226,"301 WALKER RD, MORGANTON, NC, 28655","Match","Exact","301 WALKER RD, MORGANTON, NC, 28655",37161702,"L"
160727,"301 WALNUT RUN ST","JASPER","TX",75951,30.9174600710001,-93.967824405,227,"301 WALNUT RUN ST, JASPER, TX, 75951","Match","Exact","301 WALNUT RUN ST, JASPER, TX, 75951",32400825,"L"
160728,"301 WALNUT ST","BOWIE","TX",76230,33.561435041,-97.850053976,228,"301 WALNUT ST, BOWIE, TX, 76230","Match","Exact","301 WALNUT ST, BOWIE, TX, 76230",636335237,"R"
160729,"301 WANDO RIVER WAY","MOUNT PLEASANT","SC",29464,NA,NA,229,"301 WANDO RIVER WAY, MOUNT PLEASANT, SC, 29464","No_Match",NA,NA,NA,NA
160730,"301 WASHINGTON AVENUE","DUNBAR","WV",25064,38.380372478,-81.7636216989999,230,"301 WASHINGTON AVENUE, DUNBAR, WV, 25064","Match","Exact","301 WASHINGTON AVE, DUNBAR, WV, 25064",636959713,"R"
160731,"301 WASHINGTON ST","OCONTO","WI",54153,44.8890466780001,-87.866710559,231,"301 WASHINGTON ST, OCONTO, WI, 54153","Match","Exact","301 WASHINGTON ST, OCONTO, WI, 54153",170313731,"R"
160732,"301 WATSON ST","RIPON","WI",54971,43.844084691,-88.838809322,232,"301 WATSON ST, RIPON, WI, 54971","Match","Exact","301 WATSON ST, RIPON, WI, 54971",74813629,"R"
160733,"301 WAYFIELD LN","CARY","NC",27518,35.6955707880001,-78.800500181,233,"301 WAYFIELD LN, CARY, NC, 27518","Match","Exact","301 WAYFIELD LN, CARY, NC, 27518",208345652,"R"
160734,"301 WEIDMAN STREET","LEBANON","PA",17046,40.3449731650001,-76.416869413,234,"301 WEIDMAN STREET, LEBANON, PA, 17046","Match","Exact","301 WEIDMAN ST, LEBANON, PA, 17046",80677022,"L"
160735,"301 WEST 108TH STREET APT 8A","NEW YORK","NY",10025,40.8029895490001,-73.967701399,235,"301 WEST 108TH STREET APT 8A, NEW YORK, NY, 10025","Match","Exact","301 W 108TH ST, NEW YORK, NY, 10025",59656773,"R"
160736,"301 WEST 130TH STREET APT 4D","NEW YORK","NY",10027,40.8134130980001,-73.948908058,236,"301 WEST 130TH STREET APT 4D, NEW YORK, NY, 10027","Match","Exact","301 W 130TH ST, NEW YORK, NY, 10027",59656131,"R"
160737,"301 WEST 45TH STREET APT 7J","NEW YORK","NY",10036,40.7591994490001,-73.9884545849999,237,"301 WEST 45TH STREET APT 7J, NEW YORK, NY, 10036","Match","Exact","301 W 45TH ST, NEW YORK, NY, 10036",650078434,"R"
160738,"301 WEST 7TH STREET","NORTHFIELD","MN",55057,NA,NA,238,"301 WEST 7TH STREET, NORTHFIELD, MN, 55057","No_Match",NA,NA,NA,NA
160739,"301 WEST BAY STREET STE 14510","JACKSONVILLE","FL",32202,30.327124086,-81.661918213,239,"301 WEST BAY STREET STE 14510, JACKSONVILLE, FL, 32202","Match","Exact","301 W BAY ST, JACKSONVILLE, FL, 32202",83899674,"R"
160740,"301 WEST BAY STREET SUITE 1400","JACKSONVILLE","FL",32202,30.327124086,-81.661918213,240,"301 WEST BAY STREET SUITE 1400, JACKSONVILLE, FL, 32202","Match","Exact","301 W BAY ST, JACKSONVILLE, FL, 32202",83899674,"R"
160741,"301 WEST CONGRESS STREET","SAVANNAH","GA",31412,32.0805288810001,-81.095112113,241,"301 WEST CONGRESS STREET, SAVANNAH, GA, 31412","Match","Non_Exact","301 W CONGRESS ST, SAVANNAH, GA, 31401",6174897,"L"
160742,"301 WEST COURT ST","WOODSTOCK","VA",22664,38.883008698,-78.507738698,242,"301 WEST COURT ST, WOODSTOCK, VA, 22664","Match","Exact","301 W COURT ST, WOODSTOCK, VA, 22664",55941061,"L"
160743,"301 WEST CT","GLENN HEIGHTS","TX",75154,32.553733234,-96.8519375819999,243,"301 WEST CT, GLENN HEIGHTS, TX, 75154","Match","Exact","301 WEST CT, GLENN HEIGHTS, TX, 75154",102961035,"L"
160744,"301 WEST DILIN STREET","LINCOLN","NE",68521,40.8609325850001,-96.7268850199999,244,"301 WEST DILIN STREET, LINCOLN, NE, 68521","Match","Exact","301 W DILIN ST, LINCOLN, NE, 68521",28276425,"L"
160745,"301 WEST DOBBS","TYLER","TX",75701,32.3391235080001,-95.302774851,245,"301 WEST DOBBS, TYLER, TX, 75701","Match","Non_Exact","301 W DOBBS ST, TYLER, TX, 75701",141293959,"R"
160746,"301 WEST DUKE STREET","DUNN","NC",28334,35.303176254,-78.618079807,246,"301 WEST DUKE STREET, DUNN, NC, 28334","Match","Exact","301 W DUKE ST, DUNN, NC, 28334",71964118,"L"
160747,"301 WEST EASTON","RIALTO","CA",92376,34.1345410210001,-117.374954275,247,"301 WEST EASTON, RIALTO, CA, 92376","Match","Non_Exact","301 W EASTON ST, RIALTO, CA, 92376",144644281,"L"
160748,"301 WEST KINNEY STREET","NEWARK","NJ",7103,40.732643701,-74.19152937,248,"301 WEST KINNEY STREET, NEWARK, NJ, 7103","Match","Exact","301 W KINNEY ST, NEWARK, NJ, 07103",618467749,"R"
160749,"301 WEST MADISON ST","FRANKLIN","KY",42134,36.721565819,-86.580532837,249,"301 WEST MADISON ST, FRANKLIN, KY, 42134","Match","Exact","301 W MADISON ST, FRANKLIN, KY, 42134",29603706,"L"
160750,"301 WEST MADISON STREET","CLARKSVILLE","TX",75426,33.613339296,-95.04853926,250,"301 WEST MADISON STREET, CLARKSVILLE, TX, 75426","Match","Non_Exact","301 E MADISON ST, CLARKSVILLE, TX, 75426",68952071,"L"
160751,"301 WEST MAIN STREET","WAYNESBORO","VA",22980,38.068292602,-78.8873088249999,251,"301 WEST MAIN STREET, WAYNESBORO, VA, 22980","Match","Exact","301 W MAIN ST, WAYNESBORO, VA, 22980",98806946,"R"
160752,"301 WEST MAIN","LLANO","TX",78643,30.750298054,-98.6783637789999,252,"301 WEST MAIN, LLANO, TX, 78643","Match","Non_Exact","301 W MAIN ST, LLANO, TX, 78643",182241547,"L"
160753,"301 WEST MAPLE STREET","LITITZ","PA",17543,40.156500457,-76.317440131,253,"301 WEST MAPLE STREET, LITITZ, PA, 17543","Match","Non_Exact","301 MAPLE ST, LITITZ, PA, 17543",648474563,"L"
160754,"301 WEST MARKET STREET","LIMA","OH",45801,40.739957545,-84.107830227,254,"301 WEST MARKET STREET, LIMA, OH, 45801","Match","Exact","301 W MARKET ST, LIMA, OH, 45801",209548230,"R"
160755,"301 WEST MORTON","SIERRA BLANCA","TX",79851,NA,NA,255,"301 WEST MORTON, SIERRA BLANCA, TX, 79851","No_Match",NA,NA,NA,NA
160756,"301 WEST MOSS MILL ROAD","EGG HARBOR CITY","NJ",8215,39.515599438,-74.539509047,256,"301 WEST MOSS MILL ROAD, EGG HARBOR CITY, NJ, 8215","Match","Exact","301 W MOSS MILL RD, EGG HARBOR CITY, NJ, 08215",202499829,"R"
160757,"301 WEST PLATT STREET STE 209","TAMPA","FL",33606,27.9416692030001,-82.4628801109999,257,"301 WEST PLATT STREET STE 209, TAMPA, FL, 33606","Match","Exact","301 W PLATT ST, TAMPA, FL, 33606",104530266,"R"
160758,"301 WEST PLATT STREET SUITE 657","TAMPA","FL",33606,27.9416692030001,-82.4628801109999,258,"301 WEST PLATT STREET SUITE 657, TAMPA, FL, 33606","Match","Exact","301 W PLATT ST, TAMPA, FL, 33606",104530266,"R"
160759,"301 WEST POINT TER","WEST HARTFORD","CT",6107,41.7346375400001,-72.755904689,259,"301 WEST POINT TER, WEST HARTFORD, CT, 6107","Match","Exact","301 W POINT TER, WEST HARTFORD, CT, 06107",3513574,"L"
160760,"301 WEST RUSSELL","WEST HELENA","AR",72390,34.5379319130001,-90.650979722,260,"301 WEST RUSSELL, WEST HELENA, AR, 72390","Match","Non_Exact","301 W RUSSELL AVE, WEST HELENA, AR, 72390",12306156,"L"
160761,"301 WEST SAINT MARIE STREET","DULUTH","MN",55803,46.8221260870001,-92.0793948849999,261,"301 WEST SAINT MARIE STREET, DULUTH, MN, 55803","Match","Exact","301 W SAINT MARIE ST, DULUTH, MN, 55803",163251779,"R"
160762,"301 WEST WABASH AVE","CRAWFORDSVILLE","IN",47933,40.039443614,-86.904447152,262,"301 WEST WABASH AVE, CRAWFORDSVILLE, IN, 47933","Match","Exact","301 W WABASH AVE, CRAWFORDSVILLE, IN, 47933",29351839,"L"
160763,"301 WEST WALNUT STREET","PARIS","AR",72855,35.2921445270001,-93.731998731,263,"301 WEST WALNUT STREET, PARIS, AR, 72855","Match","Exact","301 W WALNUT ST, PARIS, AR, 72855",81481267,"R"
160764,"301 WESTPPOINT TERRACE","WEST HARTFORD","CT",6107,NA,NA,264,"301 WESTPPOINT TERRACE, WEST HARTFORD, CT, 6107","No_Match",NA,NA,NA,NA
160765,"301 WHITEBRIDGE ROAD","HAMPSTEAD","NC",28443,34.349167876,-77.730826693,265,"301 WHITEBRIDGE ROAD, HAMPSTEAD, NC, 28443","Match","Exact","301 WHITEBRIDGE RD, HAMPSTEAD, NC, 28443",638202782,"R"
160766,"301 WHITEHEAD ST","WENTZVILLE","MO",63385,38.810418821,-90.851022814,266,"301 WHITEHEAD ST, WENTZVILLE, MO, 63385","Match","Exact","301 WHITEHEAD ST, WENTZVILLE, MO, 63385",100011740,"R"
160767,"301 WILMINGTON STREET","MAXTON","NC",28364,34.7359719180001,-79.344229651,267,"301 WILMINGTON STREET, MAXTON, NC, 28364","Match","Non_Exact","301 E WILMINGTON ST, MAXTON, NC, 28364",49133157,"R"
160768,"301 WINDCREST DR","SAN ANTONIO","TX",78239,29.516940166,-98.3887050069999,268,"301 WINDCREST DR, SAN ANTONIO, TX, 78239","Match","Exact","301 WINDCREST DR, SAN ANTONIO, TX, 78239",101502314,"L"
160769,"301 WINDING RIDGE DR","DAYTON","OH",45415,39.824440355,-84.252120873,269,"301 WINDING RIDGE DR, DAYTON, OH, 45415","Match","Exact","301 WINDING RIDGE DR, DAYTON, OH, 45415",143564657,"R"
160770,"301 WINTER PINE DRIVE","FINDLAY","OH",45840,41.039738732,-83.591936773,270,"301 WINTER PINE DRIVE, FINDLAY, OH, 45840","Match","Exact","301 WINTER PINE DR, FINDLAY, OH, 45840",635525801,"L"
160771,"301 WOOD STREET","NEW BETHLEHEM","PA",16242,41.0027183010001,-79.3314576189999,271,"301 WOOD STREET, NEW BETHLEHEM, PA, 16242","Match","Exact","301 WOOD ST, NEW BETHLEHEM, PA, 16242",66229143,"L"
160772,"301 WULF CREEK DR","CENTER","TX",75935,NA,NA,272,"301 WULF CREEK DR, CENTER, TX, 75935","No_Match",NA,NA,NA,NA
160773,"301 YAMATO RD STE 1240","BOCA RATON","FL",33431,NA,NA,273,"301 YAMATO RD STE 1240, BOCA RATON, FL, 33431","No_Match",NA,NA,NA,NA
160774,"301 YAMATO ROAD SUITE 2200","BOCA RATON","FL",33431,NA,NA,274,"301 YAMATO ROAD SUITE 2200, BOCA RATON, FL, 33431","No_Match",NA,NA,NA,NA
160775,"301 YAMATO ROAD SUITE 4130","BOCA RATON","FL",33431,NA,NA,275,"301 YAMATO ROAD SUITE 4130, BOCA RATON, FL, 33431","No_Match",NA,NA,NA,NA
160776,"301 YORK AVE","ST PAUL","MN",55130,44.9681011390001,-93.087401397,276,"301 YORK AVE, ST PAUL, MN, 55130","Match","Exact","301 YORK AVE, SAINT PAUL, MN, 55130",97662557,"L"
160777,"301 YORK DALE DRIVE","RUSKIN","FL",33570,27.7229324210001,-82.4571244649999,277,"301 YORK DALE DRIVE, RUSKIN, FL, 33570","Match","Exact","301 YORK DALE DR, RUSKIN, FL, 33570",628032021,"L"
160778,"301 ZEBRA PKWY","GRANDVIEW","TX",76050,32.258359698,-97.180826426,278,"301 ZEBRA PKWY, GRANDVIEW, TX, 76050","Match","Exact","301 ZEBRA PKWY, GRANDVIEW, TX, 76050",636531295,"R"
160779,"301","FRANKLIN","OH",45005,NA,NA,279,"301, FRANKLIN, OH, 45005","No_Match",NA,NA,NA,NA
160780,"301","NORFOLK","VA",23502,NA,NA,280,"301, NORFOLK, VA, 23502","No_Match",NA,NA,NA,NA
160781,"3010 41ST STREET","VERO BEACH","FL",32967,27.667716614,-80.4161804089999,281,"3010 41ST STREET, VERO BEACH, FL, 32967","Match","Exact","3010 41ST ST, VERO BEACH, FL, 32967",120304152,"R"
160782,"3010 ANTRIM CIRCLE","DUMFRIES","VA",22026,38.574544422,-77.30536341,282,"3010 ANTRIM CIRCLE, DUMFRIES, VA, 22026","Match","Exact","3010 ANTRIM CIR, DUMFRIES, VA, 22026",76521381,"L"
160783,"3010 BEE CAVE ROAD","AUSTIN","TX",78746,NA,NA,283,"3010 BEE CAVE ROAD, AUSTIN, TX, 78746","No_Match",NA,NA,NA,NA
160784,"3010 BLAIR OAK DR","ROWLETT","TX",75089,32.927665281,-96.576435115,284,"3010 BLAIR OAK DR, ROWLETT, TX, 75089","Match","Exact","3010 BLAIR OAK DR, ROWLETT, TX, 75089",103170789,"R"
160785,"3010 BRANDON MANOR LANE","CHARLOTTE","NC",28211,35.1785121030001,-80.826620218,285,"3010 BRANDON MANOR LANE, CHARLOTTE, NC, 28211","Match","Exact","3010 BRANDON MANOR LN, CHARLOTTE, NC, 28211",608984095,"L"
160786,"3010 CHILI AVE","ROCHESTER","NY",14624,43.1132466440001,-77.7336541619999,286,"3010 CHILI AVE, ROCHESTER, NY, 14624","Match","Exact","3010 CHILI AVE, ROCHESTER, NY, 14624",14528899,"R"
160787,"3010 CLOUDCREST RD","LA CRESCENTA","CA",91214,34.243939476,-118.24363309,287,"3010 CLOUDCREST RD, LA CRESCENTA, CA, 91214","Match","Exact","3010 CLOUDCREST RD, LA CRESCENTA, CA, 91214",141589440,"L"
160788,"3010 COBB PARKWAY NW","KENNESAW","GA",30152,34.0270599730001,-84.6380556669999,288,"3010 COBB PARKWAY NW, KENNESAW, GA, 30152","Match","Exact","3010 COBB PKWY NW, KENNESAW, GA, 30152",17194663,"R"
160789,"3010 DEL PRADO","ALAMOGORDO","NM",88310,32.9075721830001,-105.923220914,289,"3010 DEL PRADO, ALAMOGORDO, NM, 88310","Match","Exact","3010 DEL PRADO, ALAMOGORDO, NM, 88310",639932414,"R"
160790,"3010 DIXIE HIGHWAY","EDGEWOOD","KY",41017,39.0233548510001,-84.584662334,290,"3010 DIXIE HIGHWAY, EDGEWOOD, KY, 41017","Match","Exact","3010 DIXIE HWY, EDGEWOOD, KY, 41017",103873446,"R"
160791,"3010 E BATTLEFIELD ST","SPRINGFIELD","MO",65804,NA,NA,291,"3010 E BATTLEFIELD ST, SPRINGFIELD, MO, 65804","No_Match",NA,NA,NA,NA
160792,"3010 FEATHER GREEN TRAIL","FRESNO","TX",77545,29.5421689080001,-95.487549552,292,"3010 FEATHER GREEN TRAIL, FRESNO, TX, 77545","Match","Exact","3010 FEATHER GREEN TRL, FRESNO, TX, 77545",624576747,"R"
160793,"3010 FM 1409","DAYTON","TX",77535,NA,NA,293,"3010 FM 1409, DAYTON, TX, 77535","No_Match",NA,NA,NA,NA
160794,"3010 FOREST HILLS DR","REDDING","CA",96002,40.557261458,-122.314247479,294,"3010 FOREST HILLS DR, REDDING, CA, 96002","Match","Exact","3010 FOREST HILLS DR, REDDING, CA, 96002",629158105,"R"
160795,"3010 GRANDE RUE","GREEN BAY","WI",54301,44.4631663380001,-88.0237168789999,295,"3010 GRANDE RUE, GREEN BAY, WI, 54301","Match","Exact","3010 GRANDE RUE, GREEN BAY, WI, 54301",148102047,"R"
160796,"3010 GRIFFIS COURT","AUGUSTA","GA",30906,33.4148645880001,-82.081019075,296,"3010 GRIFFIS COURT, AUGUSTA, GA, 30906","Match","Exact","3010 GRIFFIS CT, AUGUSTA, GA, 30906",55635014,"L"
160797,"3010 GULL RD","KALAMAZOO","MI",49048,42.3137233890001,-85.542319586,297,"3010 GULL RD, KALAMAZOO, MI, 49048","Match","Exact","3010 GULL RD, KALAMAZOO, MI, 49048",12228383,"R"
160798,"3010 HEY RD","RICHMOND","VA",23224,37.47011537,-77.501500672,298,"3010 HEY RD, RICHMOND, VA, 23224","Match","Exact","3010 HEY RD, RICHMOND, VA, 23224",201545100,"R"
160799,"3010 HIGH PINE CHURCH RD","ASHEBORO","NC",27205,35.6114493850001,-79.868198396,299,"3010 HIGH PINE CHURCH RD, ASHEBORO, NC, 27205","Match","Exact","3010 HIGH PINE CHURCH RD, ASHEBORO, NC, 27205",20412540,"L"
160800,"3010 JAMES AVE","MANHATTAN","KS",66502,39.2068247220001,-96.6119970139999,300,"3010 JAMES AVE, MANHATTAN, KS, 66502","Match","Exact","3010 JAMES AVE, MANHATTAN, KS, 66502",27793689,"L"
160801,"3010 JONES ST APT 411","RAINBOW CITY","AL",35906,33.962660962,-86.028154779,301,"3010 JONES ST APT 411, RAINBOW CITY, AL, 35906","Match","Exact","3010 JONES ST, RAINBOW CITY, AL, 35906",66769662,"R"
160802,"3010 LBJ FREEWAY SUITE 1200","DALLAS","TX",75234,NA,NA,302,"3010 LBJ FREEWAY SUITE 1200, DALLAS, TX, 75234","No_Match",NA,NA,NA,NA
160803,"3010 LBJ FWY STE 130","DALLAS","TX",75234,NA,NA,303,"3010 LBJ FWY STE 130, DALLAS, TX, 75234","No_Match",NA,NA,NA,NA
160804,"3010 MAIN ST C/O EUGENE CURRY - ESQ","BARNSTABLE","MA",2630,41.704746652,-70.3098806899999,304,"3010 MAIN ST C/O EUGENE CURRY - ESQ, BARNSTABLE, MA, 2630","Match","Exact","3010 MAIN ST, BARNSTABLE, MA, 02630",636132860,"R"
160805,"3010 MAIN STREET","BARNSTABLE","MA",2630,41.704746652,-70.3098806899999,305,"3010 MAIN STREET, BARNSTABLE, MA, 2630","Match","Exact","3010 MAIN ST, BARNSTABLE, MA, 02630",636132860,"R"
160806,"3010 MARLAN WOODS CT","SPRING","TX",77386,30.140676678,-95.3948073879999,306,"3010 MARLAN WOODS CT, SPRING, TX, 77386","Match","Exact","3010 MARLAN WOODS CT, SPRING, TX, 77386",627734553,"R"
160807,"3010 MONROE RD   108A","CHARLOTTE","NC",28205,35.2042576920001,-80.804688587,307,"3010 MONROE RD   108A, CHARLOTTE, NC, 28205","Match","Exact","3010 MONROE RD, CHARLOTTE, NC, 28205",70488723,"R"
160808,"3010 MOUNT HERMON ROAD","MOSELEY","VA",23120,37.458539568,-77.7435755669999,308,"3010 MOUNT HERMON ROAD, MOSELEY, VA, 23120","Match","Exact","3010 MT HERMON RD, MOSELEY, VA, 23120",223163676,"R"
160809,"3010 MOUNTAIN ASH COURT","GARLAND","TX",75044,32.9801563080001,-96.674824997,309,"3010 MOUNTAIN ASH COURT, GARLAND, TX, 75044","Match","Exact","3010 MOUNTAIN ASH CT, GARLAND, TX, 75044",103213075,"L"
160810,"3010 N MONROE ST","WILMINGTON","DE",19802,39.7616448430001,-75.535738126,310,"3010 N MONROE ST, WILMINGTON, DE, 19802","Match","Exact","3010 N MONROE ST, WILMINGTON, DE, 19802",187258428,"R"
160811,"3010 N WASHTENAW","CHICAGO","IL",60618,NA,NA,311,"3010 N WASHTENAW, CHICAGO, IL, 60618","No_Match",NA,NA,NA,NA
160812,"3010 NORTH HIGHLAND ST APT 7","TACOMA","WA",98407,47.274335405,-122.513775127,312,"3010 NORTH HIGHLAND ST APT 7, TACOMA, WA, 98407","Match","Exact","3010 N HIGHLAND ST, TACOMA, WA, 98407",184643980,"L"
160813,"3010 NW 101 STREET","MIAMI","FL",33147,25.8665235550001,-80.2468920109999,313,"3010 NW 101 STREET, MIAMI, FL, 33147","Match","Non_Exact","3010 NW 101ST ST, MIAMI, FL, 33147",115998454,"L"
160814,"3010 NW 165TH STREET","MIAMI GARDENS","FL",33054,25.924630897,-80.2508857079999,314,"3010 NW 165TH STREET, MIAMI GARDENS, FL, 33054","Match","Exact","3010 NW 165TH ST, MIAMI GARDENS, FL, 33054",116028121,"L"
160815,"3010 NW 96 STREET","MIAMI","FL",33147,25.8619190650001,-80.2467040779999,315,"3010 NW 96 STREET, MIAMI, FL, 33147","Match","Non_Exact","3010 NW 96TH ST, MIAMI, FL, 33147",115998523,"L"
160816,"3010 OAKLAND DR","SUGAR LAND","TX",77479,29.572150962,-95.63182151,316,"3010 OAKLAND DR, SUGAR LAND, TX, 77479","Match","Exact","3010 OAKLAND DR, SUGAR LAND, TX, 77479",78288394,"R"
160817,"3010 OLD RANCH PARKWAY SUITE 450","SEAL BEACH","CA",90740,33.7764770380001,-118.074256001,317,"3010 OLD RANCH PARKWAY SUITE 450, SEAL BEACH, CA, 90740","Match","Non_Exact","3010 OLD RANCH PKWY, SEAL BEACH, CA, 90740",144259825,"L"
160818,"3010 PACES MILL ROAD","ATLANTA","GA",30339,33.870469729,-84.457590921,318,"3010 PACES MILL ROAD, ATLANTA, GA, 30339","Match","Non_Exact","3010 PACES MILL RD SE, ATLANTA, GA, 30339",17184581,"R"
160819,"3010 RIO VERDE DRIVE","CEDAR PARK","TX",78641,30.5540513240001,-97.815280501,319,"3010 RIO VERDE DRIVE, CEDAR PARK, TX, 78641","Match","Exact","3010 RIO VERDE DR, CEDAR PARK, TX, 78641",648883123,"R"
160820,"3010 RIVERSIDE DR","RIVERTON","WY",82501,43.0148953880001,-108.430288304,320,"3010 RIVERSIDE DR, RIVERTON, WY, 82501","Match","Exact","3010 RIVERSIDE DR, RIVERTON, WY, 82501",628694585,"R"
160821,"3010 ROSE DRIVE","ALLEGAN","MI",49010,42.5490492110001,-85.8398154339999,321,"3010 ROSE DRIVE, ALLEGAN, MI, 49010","Match","Exact","3010 ROSE DR, ALLEGAN, MI, 49010",11448141,"R"
160822,"3010 ROUTE 10 WEST","DENVILLE","NJ",7834,NA,NA,322,"3010 ROUTE 10 WEST, DENVILLE, NJ, 7834","No_Match",NA,NA,NA,NA
160823,"3010 RUSHING BROOK DR","KINGWOOD","TX",77345,30.063601906,-95.171517407,323,"3010 RUSHING BROOK DR, KINGWOOD, TX, 77345","Match","Exact","3010 RUSHING BROOK DR, KINGWOOD, TX, 77345",96417585,"L"
160824,"3010 S PARNELL AVE","CHICAGO","IL",60616,41.839579067,-87.640235149,324,"3010 S PARNELL AVE, CHICAGO, IL, 60616","Match","Exact","3010 S PARNELL AVE, CHICAGO, IL, 60616",605507352,"R"
160825,"3010 SANDIA CIRCLE","SANTA FE","NM",87507,35.6261691930001,-105.989288222,325,"3010 SANDIA CIRCLE, SANTA FE, NM, 87507","Match","Exact","3010 SANDIA CIR, SANTA FE, NM, 87507",169397421,"L"
160826,"3010 SEA PINES PLACE","LEAGUE CITY","TX",77573,29.5302068010001,-95.0545923609999,326,"3010 SEA PINES PLACE, LEAGUE CITY, TX, 77573","Match","Exact","3010 SEA PINES PL, LEAGUE CITY, TX, 77573",96682868,"L"
160827,"3010 SHARPSBURG CIRCLE","BIRMINGHAM","AL",35213,33.515529932,-86.7207140679999,327,"3010 SHARPSBURG CIRCLE, BIRMINGHAM, AL, 35213","Match","Exact","3010 SHARPSBURG CIR, BIRMINGHAM, AL, 35213",633437465,"L"
160828,"3010 SOUTH LAKESHORE DRIVE","SAINT JOSEPH","MI",49085,42.0587103870001,-86.514652197,328,"3010 SOUTH LAKESHORE DRIVE, SAINT JOSEPH, MI, 49085","Match","Exact","3010 S LAKESHORE DR, SAINT JOSEPH, MI, 49085",120002967,"R"
160829,"3010 VALKY DR","DICKINSON","TX",77539,29.4477265240001,-95.0925712599999,329,"3010 VALKY DR, DICKINSON, TX, 77539","Match","Exact","3010 VALKY DR, DICKINSON, TX, 77539",96709197,"L"
160830,"3010 VISTA PLACE","HONOLULU","HI",96822,21.3146987390001,-157.811319305,330,"3010 VISTA PLACE, HONOLULU, HI, 96822","Match","Exact","3010 VISTA PL, HONOLULU, HI, 96822",203237970,"L"
160831,"3010 W BOSTON CT","BROKEN ARROW","OK",74012,36.027067334,-95.82795314,331,"3010 W BOSTON CT, BROKEN ARROW, OK, 74012","Match","Exact","3010 W BOSTON CT, BROKEN ARROW, OK, 74012",166463712,"L"
160832,"3010 W DIVERSEY AVE","CHICAGO","IL",60647,41.932061762,-87.7030029059999,332,"3010 W DIVERSEY AVE, CHICAGO, IL, 60647","Match","Non_Exact","3010 W DIVERSEY AVE, CHICAGO, IL, 60647",605194349,"R"
160833,"3010 WALSH STREET","HIGH POINT","NC",27107,36.0732516890001,-80.178724668,333,"3010 WALSH STREET, HIGH POINT, NC, 27107","Match","Non_Exact","3010 WALSH ST, WINSTON SALEM, NC, 27107",84614466,"R"
160834,"3010 WALSH STREET","WINSTON-SALEM","NC",27107,36.0732516890001,-80.178724668,334,"3010 WALSH STREET, WINSTON-SALEM, NC, 27107","Match","Exact","3010 WALSH ST, WINSTON SALEM, NC, 27107",84614466,"R"
160835,"3010 WELLS TERRACE","STATE COLLEGE","PA",16801,40.7722681910001,-77.867678149,335,"3010 WELLS TERRACE, STATE COLLEGE, PA, 16801","Match","Exact","3010 WELLS TER, STATE COLLEGE, PA, 16801",50378746,"L"
160836,"3010 WILLAMETTE STREET -  APT 1","EUGENE","OR",97405,44.023781829,-123.090717565,336,"3010 WILLAMETTE STREET -  APT 1, EUGENE, OR, 97405","Match","Exact","3010 WILLAMETTE ST, EUGENE, OR, 97405",178169016,"R"
160837,"3010 WILSHIRE BL","LOS ANGELES","CA",90010,34.0618164540001,-118.286743517,337,"3010 WILSHIRE BL, LOS ANGELES, CA, 90010","Match","Exact","3010 WILSHIRE BLVD, LOS ANGELES, CA, 90010",141605030,"L"
160838,"3010 WILSHIRE BLVD BOX 343","LOS ANGELES","CA",90010,34.0618164540001,-118.286743517,338,"3010 WILSHIRE BLVD BOX 343, LOS ANGELES, CA, 90010","Match","Exact","3010 WILSHIRE BLVD, LOS ANGELES, CA, 90010",141605030,"L"
160839,"3010 YATES AVENUE APT 4H","BRONX","NY",10469,40.8696949870001,-73.854598451,339,"3010 YATES AVENUE APT 4H, BRONX, NY, 10469","Match","Exact","3010 YATES AVE, BRONX, NY, 10469",80303627,"R"
160840,"3010","LOS ANGELES","CA",90010,NA,NA,340,"3010, LOS ANGELES, CA, 90010","No_Match",NA,NA,NA,NA
160841,"30100 ARMADA RIDGE","RICHMOND","MI",48062,42.8281451280001,-82.813701956,341,"30100 ARMADA RIDGE, RICHMOND, MI, 48062","Match","Non_Exact","30100 ARMADA RIDGE RD, RICHMOND, MI, 48062",110662037,"R"
160842,"30100 ARNOLD DR","WILLOWICK","OH",44095,41.6288267890001,-81.4672822109999,342,"30100 ARNOLD DR, WILLOWICK, OH, 44095","Match","Exact","30100 ARNOLD DR, WILLOWICK, OH, 44095",137459237,"R"
160843,"30100 TELEGRAPH RD STE 411","BINGHAM FARMS","MI",48025,NA,NA,343,"30100 TELEGRAPH RD STE 411, BINGHAM FARMS, MI, 48025","No_Match",NA,NA,NA,NA
160844,"30100 TOWN CENTER DR SUITE O-431","LAGUNA NIGUEL","CA",92677,33.52572309,-117.714166021,344,"30100 TOWN CENTER DR SUITE O-431, LAGUNA NIGUEL, CA, 92677","Match","Exact","30100 TOWN CENTER DR, LAGUNA NIGUEL, CA, 92677",630454322,"L"
160845,"30101 PROVIDENCE DRIVE","SALISBURY","MD",21804,38.314458018,-75.5718092609999,345,"30101 PROVIDENCE DRIVE, SALISBURY, MD, 21804","Match","Exact","30101 PROVIDENCE DR, SALISBURY, MD, 21804",114462656,"R"
160846,"30101 ROAD V6","DOLORES","CO",81323,37.4798828900001,-108.512449861,346,"30101 ROAD V6, DOLORES, CO, 81323","Match","Non_Exact","30101 RD V.6, DOLORES, CO, 81323",653309353,"L"
160847,"30102 CORTE SAN LUIS","TEMECULA","CA",92591,33.5151401840001,-117.134706525,347,"30102 CORTE SAN LUIS, TEMECULA, CA, 92591","Match","Exact","30102 CORTE SAN LUIS, TEMECULA, CA, 92591",194825554,"R"
160848,"30103 HUCKSTER DR","CHATFIELD","MN",55923,43.779392801,-92.048888392,348,"30103 HUCKSTER DR, CHATFIELD, MN, 55923","Match","Exact","30103 HUCKSTER DR, CHATFIELD, MN, 55923",653521422,"L"
160849,"301071","HOUSTON","TX",77230,NA,NA,349,"301071, HOUSTON, TX, 77230","No_Match",NA,NA,NA,NA
160850,"3011 183RD ST STE 248","HOMEWOOD","IL",60430,41.557172183,-87.689996847,350,"3011 183RD ST STE 248, HOMEWOOD, IL, 60430","Match","Exact","3011 183RD ST, HOMEWOOD, IL, 60430",111708834,"L"
160851,"3011 BRATTON STREET","COLUMBIA","SC",29205,34.005329675,-80.9984201249999,351,"3011 BRATTON STREET, COLUMBIA, SC, 29205","Match","Exact","3011 BRATTON ST, COLUMBIA, SC, 29205",71822147,"L"
160852,"3011 BROADGATE LANE","SOUTHLAKE","TX",76092,32.980637578,-97.151489843,352,"3011 BROADGATE LANE, SOUTHLAKE, TX, 76092","Match","Exact","3011 BROADGATE LN, SOUTHLAKE, TX, 76092",631955270,"R"
160853,"3011 BROOKE STREET","FOREST GROVE","OR",97116,45.531471767,-123.123786373,353,"3011 BROOKE STREET, FOREST GROVE, OR, 97116","Match","Exact","3011 BROOKE ST, FOREST GROVE, OR, 97116",158220831,"L"
160854,"3011 CANOPY DR","INDIAN TRAIL","NC",28078,35.036336793,-80.668150155,354,"3011 CANOPY DR, INDIAN TRAIL, NC, 28078","Match","Non_Exact","3011 CANOPY DR, INDIAN TRAIL, NC, 28079",618500591,"L"
160855,"3011 CANOPY DR","INDIAN TRAIL","NC",28079,35.036336793,-80.668150155,355,"3011 CANOPY DR, INDIAN TRAIL, NC, 28079","Match","Exact","3011 CANOPY DR, INDIAN TRAIL, NC, 28079",618500591,"L"
160856,"3011 CANYON COURT","MISSOURI CITY","TX",77459,29.582043012,-95.549770487,356,"3011 CANYON COURT, MISSOURI CITY, TX, 77459","Match","Exact","3011 CANYON CT, MISSOURI CITY, TX, 77459",78269427,"R"
160857,"3011 CHANCE CT","PEARLAND","TX",77584,29.5403008700001,-95.365333237,357,"3011 CHANCE CT, PEARLAND, TX, 77584","Match","Exact","3011 CHANCE CT, PEARLAND, TX, 77584",116642320,"L"
160858,"3011 COMMODORE DRIVE 240","GRAND PRAIRIE","TX",75052,32.6886527990001,-97.05906987,358,"3011 COMMODORE DRIVE 240, GRAND PRAIRIE, TX, 75052","Match","Exact","3011 COMMODORE DR, GRAND PRAIRIE, TX, 75052",101930809,"L"
160859,"3011 DARBY BROOK DRIVE","FRESNO","TX",77545,29.542410617,-95.489276543,359,"3011 DARBY BROOK DRIVE, FRESNO, TX, 77545","Match","Exact","3011 DARBY BROOK DR, FRESNO, TX, 77545",630304270,"L"
160860,"3011 DOOKS CT","MYRTLE BEACH","SC",29579,33.752104063,-79.00570599,360,"3011 DOOKS CT, MYRTLE BEACH, SC, 29579","Match","Exact","3011 DOOKS CT, MYRTLE BEACH, SC, 29579",607423038,"L"
160861,"3011 E YANDELL DR 3584","EL PASO","TX",79903,31.7817122000001,-106.459672235,361,"3011 E YANDELL DR 3584, EL PASO, TX, 79903","Match","Non_Exact","3011 E YANDELL DR, EL PASO, TX, 79903",189342867,"L"
160862,"3011 EAST FORD ROAD","CHARLOTTE","NC",28205,35.2339990880001,-80.7944022899999,362,"3011 EAST FORD ROAD, CHARLOTTE, NC, 28205","Match","Exact","3011 E FORD RD, CHARLOTTE, NC, 28205",70480407,"L"
160863,"3011 EAST WALNUT AVE","DALTON","GA",30721,34.7758225050001,-84.918710006,363,"3011 EAST WALNUT AVE, DALTON, GA, 30721","Match","Exact","3011 E WALNUT AVE, DALTON, GA, 30721",57375752,"L"
160864,"3011 FAIRCHILD ST","POPLAR GROVE","IL",61065,42.3166517230001,-88.832261692,364,"3011 FAIRCHILD ST, POPLAR GROVE, IL, 61065","Match","Exact","3011 FAIRCHILD ST, POPLAR GROVE, IL, 61065",92161607,"L"
160865,"3011 FAIRVIEW AVE","DALLAS","TX",75223,32.789383603,-96.742751754,365,"3011 FAIRVIEW AVE, DALLAS, TX, 75223","Match","Exact","3011 FAIRVIEW AVE, DALLAS, TX, 75223",102921520,"L"
160866,"3011 GEDDES AVENUE","ANN ARBOR","MI",48104,42.272931908,-83.7087667339999,366,"3011 GEDDES AVENUE, ANN ARBOR, MI, 48104","Match","Exact","3011 GEDDES AVE, ANN ARBOR, MI, 48104",621207809,"L"
160867,"3011 GERANIUM WAY","CORONA","CA",92881,33.837095145,-117.551203792,367,"3011 GERANIUM WAY, CORONA, CA, 92881","Match","Exact","3011 GERANIUM WAY, CORONA, CA, 92881",194860760,"L"
160868,"3011 GLENWOOD ST","EUREKA","CA",95501,40.7867919340001,-124.13383151,368,"3011 GLENWOOD ST, EUREKA, CA, 95501","Match","Exact","3011 GLENWOOD ST, EUREKA, CA, 95501",113008944,"L"
160869,"3011 GROTTO WALK","ELLICOTT CITY","MD",21042,39.286131965,-76.891394406,369,"3011 GROTTO WALK, ELLICOTT CITY, MD, 21042","Match","Exact","3011 GROTTO WALK, ELLICOTT CITY, MD, 21042",158935679,"R"
160870,"3011 HIGHLANDS CIRCLE","OXFORD","MS",38655,NA,NA,370,"3011 HIGHLANDS CIRCLE, OXFORD, MS, 38655","No_Match",NA,NA,NA,NA
160871,"3011 HUNTERS CREEK COURT","CHARLOTTE","NC",28269,35.37042223,-80.750571334,371,"3011 HUNTERS CREEK COURT, CHARLOTTE, NC, 28269","Match","Exact","3011 HUNTERS CREEK CT, CHARLOTTE, NC, 28269",70553460,"L"
160872,"3011 HWY 30 WEST SUITE 101 BOX 127","HUNTSVILLE","TX",77320,NA,NA,372,"3011 HWY 30 WEST SUITE 101 BOX 127, HUNTSVILLE, TX, 77320","No_Match",NA,NA,NA,NA
160873,"3011 LEAF VINES LANE","SPRING","TX",77386,30.127022002,-95.395028307,373,"3011 LEAF VINES LANE, SPRING, TX, 77386","Match","Exact","3011 LEAF VINES LN, SPRING, TX, 77386",630565283,"L"
160874,"3011 LEEFIELD DRIVE","HERNDON","MD",20171,NA,NA,374,"3011 LEEFIELD DRIVE, HERNDON, MD, 20171","No_Match",NA,NA,NA,NA
160875,"3011 LENORA SPRINGS DR","SPRING","TX",77386,30.1301651210001,-95.3961177899999,375,"3011 LENORA SPRINGS DR, SPRING, TX, 77386","Match","Exact","3011 LENORA SPRINGS DR, SPRING, TX, 77386",627734433,"R"
160876,"3011 MICHIGAN UNION 530 S STATE ST","ANN ARBOR","MI",48109,NA,NA,376,"3011 MICHIGAN UNION 530 S STATE ST, ANN ARBOR, MI, 48109","No_Match",NA,NA,NA,NA
160877,"3011 N 63RD ST","FAIRMONT CITY","IL",62201,38.655616223,-90.082663171,377,"3011 N 63RD ST, FAIRMONT CITY, IL, 62201","Match","Exact","3011 N 63RD ST, FAIRMONT CITY, IL, 62201",107930053,"L"
160878,"3011 NC HIGHWAY 42 WEST SUITE 128","WILSON","NC",27893,35.71993102,-77.953707708,378,"3011 NC HIGHWAY 42 WEST SUITE 128, WILSON, NC, 27893","Match","Non_Exact","3011 STATE HWY 42 W, WILSON, NC, 27893",640631617,"L"
160879,"3011 NC HWY 42 SUITE 138","WILSON","NC",27893,35.7318909840001,-77.8526093949999,379,"3011 NC HWY 42 SUITE 138, WILSON, NC, 27893","Match","Non_Exact","3011 STATE HWY 42, WILSON, NC, 27893",26730478,"R"
160880,"3011 NE 157TH CT","VANCOUVER","WA",98682,45.6436714530001,-122.511875492,380,"3011 NE 157TH CT, VANCOUVER, WA, 98682","Match","Exact","3011 NE 157TH CT, VANCOUVER, WA, 98682",158346180,"L"
160881,"3011 NORWICH STREET","PEARLAND","TX",77584,29.571274622,-95.375331046,381,"3011 NORWICH STREET, PEARLAND, TX, 77584","Match","Exact","3011 NORWICH ST, PEARLAND, TX, 77584",116567743,"L"
160882,"3011 NW 154 TERRACE","OPA-LOCKA","FL",33054,25.914696716,-80.250077505,382,"3011 NW 154 TERRACE, OPA-LOCKA, FL, 33054","Match","Exact","3011 NW 154TH TER, OPA LOCKA, FL, 33054",116028287,"R"
160883,"3011 OLD CHANNEL RD","LAUREL","MD",20724,39.116494215,-76.80522353,383,"3011 OLD CHANNEL RD, LAUREL, MD, 20724","Match","Exact","3011 OLD CHANNEL RD, LAUREL, MD, 20724",68196378,"R"
160884,"3011 ORIENT RD","TAMPA","FL",33619,27.9711125200001,-82.373023572,384,"3011 ORIENT RD, TAMPA, FL, 33619","Match","Exact","3011 ORIENT RD, TAMPA, FL, 33619",104536982,"R"
160885,"3011 OVERLOOK DR","VALLEJO","CA",94591,38.163114598,-122.182317189,385,"3011 OVERLOOK DR, VALLEJO, CA, 94591","Match","Exact","3011 OVERLOOK DR, VALLEJO, CA, 94591",192558622,"L"
160886,"3011 RIGEL AVENUE","LAS VEGAS","NV",89102,36.135970603,-115.181261882,386,"3011 RIGEL AVENUE, LAS VEGAS, NV, 89102","Match","Exact","3011 RIGEL AVE, LAS VEGAS, NV, 89102",641548132,"L"
160887,"3011 ROCKY CANYON DR","PEARLAND","TX",77584,29.553820091,-95.3523731399999,387,"3011 ROCKY CANYON DR, PEARLAND, TX, 77584","Match","Exact","3011 ROCKY CANYON DR, PEARLAND, TX, 77584",641869218,"L"
160888,"3011 RUTGER ST","ST LOUIS","MO",63104,38.621427829,-90.227444946,388,"3011 RUTGER ST, ST LOUIS, MO, 63104","Match","Exact","3011 RUTGER ST, SAINT LOUIS, MO, 63104",107598306,"R"
160889,"3011 S LINDSAY RD SUITE 120","GILBERT","AZ",85295,33.2950590360001,-111.774017783,389,"3011 S LINDSAY RD SUITE 120, GILBERT, AZ, 85295","Match","Non_Exact","3011 S LINDSAY RD, GILBERT, AZ, 85295",128877337,"L"
160890,"3011 S SHANNON STREET","SANTA ANA","CA",92704,33.7073161770001,-117.923104563,390,"3011 S SHANNON STREET, SANTA ANA, CA, 92704","Match","Exact","3011 S SHANNON ST, SANTA ANA, CA, 92704",647278104,"L"
160891,"3011 SOUTH FISKE BLVD","ROCKLEDGE","FL",32955,28.310294512,-80.742794811,391,"3011 SOUTH FISKE BLVD, ROCKLEDGE, FL, 32955","Match","Exact","3011 S FISKE BLVD, ROCKLEDGE, FL, 32955",647548530,"R"
160892,"3011 SW GRAHAM STREET","SEATTLE","WA",98126,NA,NA,392,"3011 SW GRAHAM STREET, SEATTLE, WA, 98126","No_Match",NA,NA,NA,NA
160893,"3011 TOWN AND COUNTRY RD","DONALSONVILLE","GA",39845,31.023274701,-84.8802471499999,393,"3011 TOWN AND COUNTRY RD, DONALSONVILLE, GA, 39845","Match","Exact","3011 TOWN AND COUNTRY RD, DONALSONVILLE, GA, 39845",87870858,"L"
160894,"3011 VETERAN AVE","LOS ANGELES","CA",90034,34.028735264,-118.423072954,394,"3011 VETERAN AVE, LOS ANGELES, CA, 90034","Match","Exact","3011 VETERAN AVE, LOS ANGELES, CA, 90034",652036483,"R"
160895,"3011 W 183RD STREET","HOMEWOOD","IL",60430,41.557172183,-87.689996847,395,"3011 W 183RD STREET, HOMEWOOD, IL, 60430","Match","Exact","3011 183RD ST, HOMEWOOD, IL, 60430",111708834,"L"
160896,"3011 W FULTON STREET","CHICAGO","IL",60612,41.8864709060001,-87.701891319,396,"3011 W FULTON STREET, CHICAGO, IL, 60612","Match","Exact","3011 W FULTON ST, CHICAGO, IL, 60612",111763541,"L"
160897,"3011 W GRAND BOULEVARD   SUITE 1800","DETROIT","MI",48202,NA,NA,397,"3011 W GRAND BOULEVARD   SUITE 1800, DETROIT, MI, 48202","Tie",NA,NA,NA,NA
160898,"3011 W STOLLEY PARK RD APT 61","GRAND ISLAND","NE",68801,40.901317041,-98.306389315,398,"3011 W STOLLEY PARK RD APT 61, GRAND ISLAND, NE, 68801","Match","Non_Exact","3011 E STOLLEY PARK RD, GRAND ISLAND, NE, 68801",649962380,"R"
160899,"3011 WASHINGTON ST","BOULDER","CO",80304,40.030379511,-105.278412087,399,"3011 WASHINGTON ST, BOULDER, CO, 80304","Match","Exact","3011 WASHINGTON ST, BOULDER, CO, 80304",188159556,"L"
160900,"3011 WEST 183RD STREET APT 210","HOMEWOOD","IL",60430,41.557172183,-87.689996847,400,"3011 WEST 183RD STREET APT 210, HOMEWOOD, IL, 60430","Match","Non_Exact","3011 183RD ST, HOMEWOOD, IL, 60430",111708834,"L"
160901,"3011 WEST 183RD STREET SUITE 193","HOMEWOOD","IL",60430,41.557172183,-87.689996847,401,"3011 WEST 183RD STREET SUITE 193, HOMEWOOD, IL, 60430","Match","Non_Exact","3011 183RD ST, HOMEWOOD, IL, 60430",111708834,"L"
160902,"3011 WEST GRAND BLVD STE 432","DETROIT","MI",48202,42.3687534270001,-83.077666337,402,"3011 WEST GRAND BLVD STE 432, DETROIT, MI, 48202","Match","Exact","3011 W GRAND BLVD, DETROIT, MI, 48202",95730540,"L"
160903,"3011 WEST GRAND BLVD SUITE 2500","DETROIT","MI",48202,42.3687534270001,-83.077666337,403,"3011 WEST GRAND BLVD SUITE 2500, DETROIT, MI, 48202","Match","Exact","3011 W GRAND BLVD, DETROIT, MI, 48202",95730540,"L"
160904,"3011 WHITMORE STREET","OMAHA","NE",68112,41.3220851510001,-95.9568632419999,404,"3011 WHITMORE STREET, OMAHA, NE, 68112","Match","Exact","3011 WHITMORE ST, OMAHA, NE, 68112",116977557,"L"
160905,"30110 HWY 99E","SHEDD","OR",97377,44.4619191200001,-123.110321129,405,"30110 HWY 99E, SHEDD, OR, 97377","Match","Non_Exact","30110 STATE HWY 99E, SHEDD, OR, 97377",630825642,"L"
160906,"30111 HART OAKS DR","KEENE","CA",93531,35.2552353930001,-118.619017238,406,"30111 HART OAKS DR, KEENE, CA, 93531","Match","Exact","30111 HART OAKS DR, KEENE, CA, 93531",109119825,"L"
160907,"30111 SADDLERIDGE DRIVE","SAN JUAN CAPISTRANO","CA",92675,33.525606419,-117.650234129,407,"30111 SADDLERIDGE DRIVE, SAN JUAN CAPISTRANO, CA, 92675","Match","Exact","30111 SADDLERIDGE DR, SAN JUAN CAPISTRANO, CA, 92675",144113801,"R"
160908,"30111 SILVER SPUR RD","SAN JUAN CAPISTRANO","CA",92675,33.5256346800001,-117.658760677,408,"30111 SILVER SPUR RD, SAN JUAN CAPISTRANO, CA, 92675","Match","Exact","30111 SILVER SPUR RD, SAN JUAN CAPISTRANO, CA, 92675",144071983,"R"
160909,"30118 SAWGRASS TRAIL","GEORGETOWN","TX",78628,30.7078299610001,-97.67578851,409,"30118 SAWGRASS TRAIL, GEORGETOWN, TX, 78628","Match","Non_Exact","30118 SAW GRASS TRL, GEORGETOWN, TX, 78628",126458220,"R"
160910,"3011B MOUNT PINOS WAY","FRAZIER PARK","CA",93225,34.820327981,-118.93748636,410,"3011B MOUNT PINOS WAY, FRAZIER PARK, CA, 93225","Match","Exact","3011 MOUNT PINOS WAY, FRAZIER PARK, CA, 93225",109099515,"L"
160911,"3012 11TH STREET NW","WASHINGTON","DC",20001,38.9280874400001,-77.0273633369999,411,"3012 11TH STREET NW, WASHINGTON, DC, 20001","Match","Exact","3012 11TH ST NW, WASHINGTON, DC, 20001",632575793,"L"
160912,"3012 171ST STREET APT 2E","HAZEL CREST","IL",60429,41.579177675,-87.6902098959999,412,"3012 171ST STREET APT 2E, HAZEL CREST, IL, 60429","Match","Exact","3012 171ST ST, HAZEL CREST, IL, 60429",111705097,"R"
160913,"3012 63RD STREET SOUTH WEST","NAPLES","FL",34105,26.1722200310001,-81.739411731,413,"3012 63RD STREET SOUTH WEST, NAPLES, FL, 34105","Match","Non_Exact","3012 63RD ST SW, NAPLES, FL, 34105",619141118,"L"
160914,"3012 A MONTEZUMA STREET","BARSTOW","CA",92311,34.8675610130001,-116.964437918,414,"3012 A MONTEZUMA STREET, BARSTOW, CA, 92311","Match","Exact","3012 MONTEZUMA ST, BARSTOW, CA, 92311",145222365,"R"
160915,"3012 APACHE STREET","FORT MYERS","FL",33916,26.646741756,-81.8519815939999,415,"3012 APACHE STREET, FORT MYERS, FL, 33916","Match","Exact","3012 APACHE ST, FORT MYERS, FL, 33916",118021755,"R"
160916,"3012 BEATTIES FORD RD APT 14","CHARLOTTE","NC",28216,35.2754558140001,-80.8549149099999,416,"3012 BEATTIES FORD RD APT 14, CHARLOTTE, NC, 28216","Match","Exact","3012 BEATTIES FORD RD, CHARLOTTE, NC, 28216",647255236,"R"
160917,"3012 CENTER ST","FLORA","MS",39071,32.594862678,-90.3210285649999,417,"3012 CENTER ST, FLORA, MS, 39071","Match","Exact","3012 CENTER ST, FLORA, MS, 39071",152474233,"R"
160918,"3012 CLAIRTON ROAD","WEST MIFFLIN","PA",15122,40.3381314860001,-79.9376390319999,418,"3012 CLAIRTON ROAD, WEST MIFFLIN, PA, 15122","Match","Exact","3012 CLAIRTON RD, WEST MIFFLIN, PA, 15122",51659349,"R"
160919,"3012 CLINTON AVE S - 1B","MINNEAPOLIS","MN",55408,44.9480403700001,-93.271599678,419,"3012 CLINTON AVE S - 1B, MINNEAPOLIS, MN, 55408","Match","Exact","3012 CLINTON AVE S, MINNEAPOLIS, MN, 55408",43633763,"R"
160920,"3012 COLONIAL SPRINGS COURT","ALEXANDRIA","VA",22306,38.7448910090001,-77.082728603,420,"3012 COLONIAL SPRINGS COURT, ALEXANDRIA, VA, 22306","Match","Exact","3012 COLONIAL SPRINGS CT, ALEXANDRIA, VA, 22306",635444992,"L"
160921,"3012 CR 255 N","LEE","FL",32059,NA,NA,421,"3012 CR 255 N, LEE, FL, 32059","No_Match",NA,NA,NA,NA
160922,"3012 DORSEY DRIVE","BELLE","WV",25015,38.2049795730001,-81.472234675,422,"3012 DORSEY DRIVE, BELLE, WV, 25015","Match","Exact","3012 DORSEY DR, BELLE, WV, 25015",636687183,"L"
160923,"3012 EAST 2ND PLACE","LUBBOCK","TX",79403,33.5951823030001,-101.804057509,423,"3012 EAST 2ND PLACE, LUBBOCK, TX, 79403","Match","Exact","3012 E 2ND PL, LUBBOCK, TX, 79403",185248610,"R"
160924,"3012 ERIE AVENUE","CINCINNATI","OH",45208,39.1383602450001,-84.4305777279999,424,"3012 ERIE AVENUE, CINCINNATI, OH, 45208","Match","Exact","3012 ERIE AVE, CINCINNATI, OH, 45208",103931317,"L"
160925,"3012 HALLWELL DR","PLANO","TX",75093,33.0410950790001,-96.836896865,425,"3012 HALLWELL DR, PLANO, TX, 75093","Match","Exact","3012 HALLWELL DR, PLANO, TX, 75093",123531304,"L"
160926,"3012 LA MIRAGE DRIVE","LAUDERHILL","FL",33319,26.1670970910001,-80.242894318,426,"3012 LA MIRAGE DRIVE, LAUDERHILL, FL, 33319","Match","Exact","3012 LA MIRAGE DR, LAUDERHILL, FL, 33319",114766628,"R"
160927,"3012 MALLOW RD","COVINGTON","VA",24426,37.7725385030001,-79.971810978,427,"3012 MALLOW RD, COVINGTON, VA, 24426","Match","Exact","3012 MALLOW RD, COVINGTON, VA, 24426",62548753,"R"
160928,"3012 MARTINS DAIRY ROAD","WINSTON SALEM","NC",27107,36.0455783370001,-80.184703589,428,"3012 MARTINS DAIRY ROAD, WINSTON SALEM, NC, 27107","Match","Exact","3012 MARTINS DAIRY RD, WINSTON SALEM, NC, 27107",84669127,"L"
160929,"3012 MASSANUTTEN DR","MCGAHEYSVILLE","VA",22840,38.4069628300001,-78.738724861,429,"3012 MASSANUTTEN DR, MCGAHEYSVILLE, VA, 22840","Match","Exact","3012 MASSANUTTEN DR, MCGAHEYSVILLE, VA, 22840",55733787,"L"
160930,"3012 MISTYMORN TRACE","POWDER SPRINGS","GA",30127,33.8504482930001,-84.674641094,430,"3012 MISTYMORN TRACE, POWDER SPRINGS, GA, 30127","Match","Exact","3012 MISTYMORN TRCE, POWDER SPGS, GA, 30127",17225742,"R"
160931,"3012 MYRTLE AVE","SAN DIEGO","CA",92104,32.74214743,-117.12970881,431,"3012 MYRTLE AVE, SAN DIEGO, CA, 92104","Match","Exact","3012 MYRTLE AVE, SAN DIEGO, CA, 92104",195346032,"L"
160932,"3012 N 113TH AVE","AVONDALE","AZ",85392,NA,NA,432,"3012 N 113TH AVE, AVONDALE, AZ, 85392","Tie",NA,NA,NA,NA
160933,"3012 N LINDSEY AVENUE","OKLAHOMA CITY","OK",73105,35.4997566530001,-97.5010892289999,433,"3012 N LINDSEY AVENUE, OKLAHOMA CITY, OK, 73105","Match","Non_Exact","3012 N LINDSAY AVE, OKLAHOMA CITY, OK, 73105",100401309,"R"
160934,"3012 N TRIPLE CREEK RD","DERBY","KS",67037,NA,NA,434,"3012 N TRIPLE CREEK RD, DERBY, KS, 67037","No_Match",NA,NA,NA,NA
160935,"3012 OLD PITTSBURGH ROAD","NEW CASTLE","PA",16101,40.957469379,-80.3152860549999,435,"3012 OLD PITTSBURGH ROAD, NEW CASTLE, PA, 16101","Match","Exact","3012 OLD PITTSBURGH RD, NEW CASTLE, PA, 16101",65200060,"L"
160936,"3012 PAYNE RANCH ROADE","CHINO HILLS","CA",91709,33.9992521520001,-117.740193345,436,"3012 PAYNE RANCH ROADE, CHINO HILLS, CA, 91709","Match","Non_Exact","3012 PAYNE RANCH RD, CHINO HILLS, CA, 91709",144998490,"R"
160937,"3012 PEARL HARBOR DR","LAS VEGAS","NV",89117,36.135808942,-115.313475336,437,"3012 PEARL HARBOR DR, LAS VEGAS, NV, 89117","Match","Exact","3012 PEARL HARBOR DR, LAS VEGAS, NV, 89117",201935988,"R"
160938,"3012 PHOENIX DRIVE","FORT COLLINS","CO",80525,40.5467988680001,-105.073165695,438,"3012 PHOENIX DRIVE, FORT COLLINS, CO, 80525","Match","Exact","3012 PHOENIX DR, FORT COLLINS, CO, 80525",188493982,"L"
160939,"3012 RADCLIFF AVE","BRONX","NY",10469,40.8698146680001,-73.860405235,439,"3012 RADCLIFF AVE, BRONX, NY, 10469","Match","Exact","3012 RADCLIFF AVE, BRONX, NY, 10469",80303353,"R"
160940,"3012 RAMPART ROAD","SUMMERVILLE","SC",29483,NA,NA,440,"3012 RAMPART ROAD, SUMMERVILLE, SC, 29483","No_Match",NA,NA,NA,NA
160941,"3012 RIVERSIDE DRIVE","LOS ANGELES","CA",90039,34.111777891,-118.266397778,441,"3012 RIVERSIDE DRIVE, LOS ANGELES, CA, 90039","Match","Exact","3012 RIVERSIDE DR, LOS ANGELES, CA, 90039",141610397,"L"
160942,"3012 RUNNING DEER CIRCLE","LOUISVILLE","KY",40241,38.2965913640001,-85.621986099,442,"3012 RUNNING DEER CIRCLE, LOUISVILLE, KY, 40241","Match","Exact","3012 RUNNING DEER CIR, LOUISVILLE, KY, 40241",611258367,"L"
160943,"3012 RUSTIC CT","FORT COLLINS","CO",80526,40.547191324,-105.094267494,443,"3012 RUSTIC CT, FORT COLLINS, CO, 80526","Match","Exact","3012 RUSTIC CT, FORT COLLINS, CO, 80526",188493487,"L"
160944,"3012 S ELLEN ST","MILWAUKEE","WI",53207,42.988955549,-87.887141962,444,"3012 S ELLEN ST, MILWAUKEE, WI, 53207","Match","Exact","3012 S ELLEN ST, MILWAUKEE, WI, 53207",77753877,"L"
160945,"3012 S HOLLY ST","SEATTLE","WA",98108,47.5426514390001,-122.293490862,445,"3012 S HOLLY ST, SEATTLE, WA, 98108","Match","Exact","3012 S HOLLY ST, SEATTLE, WA, 98108",186719567,"L"
160946,"3012 SE BALFOUR STREET","MILWAUKIE","OR",97222,45.451756291,-122.631499425,446,"3012 SE BALFOUR STREET, MILWAUKIE, OR, 97222","Match","Exact","3012 SE BALFOUR ST, MILWAUKIE, OR, 97222",157912845,"R"
160947,"3012 SHERIDAN ROAD","ZION","IL",60099,42.4405493290001,-87.82560584,447,"3012 SHERIDAN ROAD, ZION, IL, 60099","Match","Exact","3012 SHERIDAN RD, ZION, IL, 60099",119629107,"R"
160948,"3012 SHERRY LANE","BALCH SPRINGS","TX",75180,32.728429234,-96.618143495,448,"3012 SHERRY LANE, BALCH SPRINGS, TX, 75180","Match","Exact","3012 SHERRY LN, BALCH SPRINGS, TX, 75180",102962490,"L"
160949,"3012 SHERWOOD LANE","HOPEWELL","VA",23860,37.2846347330001,-77.3123999699999,449,"3012 SHERWOOD LANE, HOPEWELL, VA, 23860","Match","Exact","3012 SHERWOOD LN, HOPEWELL, VA, 23860",54149105,"R"
160950,"3012 SPRUCE ST","BAKERSFIELD","CA",93301,35.3890567920001,-119.027185331,450,"3012 SPRUCE ST, BAKERSFIELD, CA, 93301","Match","Exact","3012 SPRUCE ST, BAKERSFIELD, CA, 93301",109087314,"R"
160951,"3012 SW 148TH PL","MIAMI","FL",33185,25.738951618,-80.4352112189999,451,"3012 SW 148TH PL, MIAMI, FL, 33185","Match","Non_Exact","3012 SW 148TH PL, MIAMI, FL, 33185",642105709,"L"
160952,"3012 VIA DELORES","BALDWIN PARK","CA",91706,34.0696120630001,-117.98149015,452,"3012 VIA DELORES, BALDWIN PARK, CA, 91706","Match","Exact","3012 VIA DELORES, BALDWIN PARK, CA, 91706",141785022,"R"
160953,"3012 W DELEON STREET APT 23","TAMPA","FL",33609,27.9386610920001,-82.491626098,453,"3012 W DELEON STREET APT 23, TAMPA, FL, 33609","Match","Non_Exact","3012 W DE LEON ST, TAMPA, FL, 33609",104526673,"L"
160954,"3012 W HARBOR VIEW AVE","TAMPA","FL",33611,27.9023006480001,-82.4918060959999,454,"3012 W HARBOR VIEW AVE, TAMPA, FL, 33611","Match","Exact","3012 W HARBOR VIEW AVE, TAMPA, FL, 33611",104608666,"L"
160955,"3012 WEATHERTON CIRCE","BIRMINGHAM","AL",35223,NA,NA,455,"3012 WEATHERTON CIRCE, BIRMINGHAM, AL, 35223","Tie",NA,NA,NA,NA
160956,"3012 WILSHIRE AVE","WEST LAFAYETTE","IN",47906,40.4608091960001,-86.9128404849999,456,"3012 WILSHIRE AVE, WEST LAFAYETTE, IN, 47906","Match","Exact","3012 WILSHIRE AVE, W LAFAYETTE, IN, 47906",27304245,"L"
160957,"3012 WOODLEY PARK DRIVE","MONTGOMERY","AL",36116,32.320658236,-86.250842947,457,"3012 WOODLEY PARK DRIVE, MONTGOMERY, AL, 36116","Match","Exact","3012 WOODLEY PARK DR, MONTGOMERY, AL, 36116",1544700,"R"
160958,"30120 BRASSIE COURT","TEHACHAPI","CA",93561,35.160750298,-118.665665195,458,"30120 BRASSIE COURT, TEHACHAPI, CA, 93561","Match","Exact","30120 BRASSIE CT, TEHACHAPI, CA, 93561",108981319,"R"
160959,"30126 BOLINGBROOK RD","PEPPER PIKE","OH",44124,41.4684240980001,-81.465672985,459,"30126 BOLINGBROOK RD, PEPPER PIKE, OH, 44124","Match","Exact","30126 BOLINGBROOK RD, PEPPER PIKE, OH, 44124",61167808,"R"
160960,"30127 OAK DR","CAMPO","CA",91906,32.6837613810001,-116.498185956,460,"30127 OAK DR, CAMPO, CA, 91906","Match","Exact","30127 OAK DR, CAMPO, CA, 91906",651664308,"R"
160961,"30128 CHERRY HILL RD","GARDEN CITY","MI",48135,42.311042496,-83.337940857,461,"30128 CHERRY HILL RD, GARDEN CITY, MI, 48135","Match","Exact","30128 CHERRY HILL RD, GARDEN CITY, MI, 48135",95699915,"R"
160962,"3013 15TH AVE S","ST CLOUD","MN",56301,45.520426985,-94.1690413599999,462,"3013 15TH AVE S, ST CLOUD, MN, 56301","Match","Exact","3013 15TH AVE S, SAINT CLOUD, MN, 56301",107443241,"R"
160963,"3013 27TH AVE S","MINNEAPOLIS","MN",55406,44.948145981,-93.23317586,463,"3013 27TH AVE S, MINNEAPOLIS, MN, 55406","Match","Exact","3013 27TH AVE S, MINNEAPOLIS, MN, 55406",43639694,"L"
160964,"3013 62ND STREET","DES MOINES","IA",50322,41.6223228110001,-93.702564416,464,"3013 62ND STREET, DES MOINES, IA, 50322","Match","Exact","3013 62ND ST, DES MOINES, IA, 50322",65777042,"R"
160965,"3013 ANNITA DRIVE","GLENDALE","CA",91206,34.1710143700001,-118.209797672,465,"3013 ANNITA DRIVE, GLENDALE, CA, 91206","Match","Exact","3013 ANNITA DR, GLENDALE, CA, 91206",142043355,"R"
160966,"3013 ASPLUND CIRCLE","SALT LAKE CITY","UT",84119,40.7061239550001,-111.971905835,466,"3013 ASPLUND CIRCLE, SALT LAKE CITY, UT, 84119","Match","Exact","3013 ASPLUND CIR, SALT LAKE CITY, UT, 84119",176140864,"L"
160967,"3013 AVENUE F","BIRMINGHAM","AL",35218,33.503146757,-86.903171242,467,"3013 AVENUE F, BIRMINGHAM, AL, 35218","Match","Exact","3013 AVE F, BIRMINGHAM, AL, 35218",81552222,"L"
160968,"3013 BERYTON PLACE","SNELLVILLE","GA",30039,33.819568604,-84.0516140289999,468,"3013 BERYTON PLACE, SNELLVILLE, GA, 30039","Match","Exact","3013 BERYTON PL, SNELLVILLE, GA, 30039",636147703,"R"
160969,"3013 BLUE HERON DRIVE","MESQUITE","TX",73105,32.7177131390001,-96.5395370639999,469,"3013 BLUE HERON DRIVE, MESQUITE, TX, 73105","Match","Non_Exact","3013 BLUE HERON DR, MESQUITE, TX, 75181",632278941,"R"
160970,"3013 CANTURA DRIVE","MESQUITE","TX",75181,32.74076569,-96.569335581,470,"3013 CANTURA DRIVE, MESQUITE, TX, 75181","Match","Exact","3013 CANTURA DR, MESQUITE, TX, 75181",103172224,"L"
160971,"3013 CANYON DRIVE","BILLINGS","MT",59103,45.760566295,-108.592175471,471,"3013 CANYON DRIVE, BILLINGS, MT, 59103","Match","Non_Exact","3013 CANYON DR, BILLINGS, MT, 59102",181475545,"L"
160972,"3013 CLAYTON RD","CONCORD","CA",94519,37.973802678,-122.022716186,472,"3013 CLAYTON RD, CONCORD, CA, 94519","Match","Exact","3013 CLAYTON RD, CONCORD, CA, 94519",624327205,"L"
160973,"3013 DEL PRADO BLVD  SUITE 6","CAPE CORAL","FL",33904,NA,NA,473,"3013 DEL PRADO BLVD  SUITE 6, CAPE CORAL, FL, 33904","No_Match",NA,NA,NA,NA
160974,"3013 E VALENCIA DR","PHOENIX","AZ",85042,33.37709154,-112.018248464,474,"3013 E VALENCIA DR, PHOENIX, AZ, 85042","Match","Exact","3013 E VALENCIA DR, PHOENIX, AZ, 85042",640971499,"L"
160975,"3013 EILEEN","DEER PARK","TX",77536,29.6841781140001,-95.117118588,475,"3013 EILEEN, DEER PARK, TX, 77536","Match","Non_Exact","3013 EILEEN ST, DEER PARK, TX, 77536",96106307,"L"
160976,"3013 GARRISON RD","ALTUS","OK",73521,34.6699466090001,-99.323149691,476,"3013 GARRISON RD, ALTUS, OK, 73521","Match","Exact","3013 GARRISON RD, ALTUS, OK, 73521",171829643,"R"
160977,"3013 GEORGIA AVE NW","WASHINGTON","DC",20001,38.9285782740001,-77.0231534439999,477,"3013 GEORGIA AVE NW, WASHINGTON, DC, 20001","Match","Exact","3013 GEORGIA AVE NW, WASHINGTON, DC, 20001",634243423,"R"
160978,"3013 GRAYLAND AVENUE","RICHMOND","VA",23221,37.5510326630001,-77.479977108,478,"3013 GRAYLAND AVENUE, RICHMOND, VA, 23221","Match","Exact","3013 GRAYLAND AVE, RICHMOND, VA, 23221",201535898,"L"
160979,"3013 HARBORVIEW BLVD","ROWLETT","TX",75088,32.8889283670001,-96.553737258,479,"3013 HARBORVIEW BLVD, ROWLETT, TX, 75088","Match","Exact","3013 HARBORVIEW BLVD, ROWLETT, TX, 75088",103173928,"R"
160980,"3013 ILLINOIS ROAD","WILMETTE","IL",60091,42.0850944210001,-87.7491455209999,480,"3013 ILLINOIS ROAD, WILMETTE, IL, 60091","Match","Exact","3013 ILLINOIS RD, WILMETTE, IL, 60091",111738466,"R"
160981,"3013 LAKE VISTA DR","WYLIE","TX",75098,32.979460154,-96.514961821,481,"3013 LAKE VISTA DR, WYLIE, TX, 75098","Match","Exact","3013 LAKE VISTA DR, WYLIE, TX, 75098",629640139,"R"
160982,"3013 LEE AVE","FORT WORTH","TX",76106,32.7996690050001,-97.356309047,482,"3013 LEE AVE, FORT WORTH, TX, 76106","Match","Exact","3013 LEE AVE, FORT WORTH, TX, 76106",101856051,"L"
160983,"3013 MOTHERLODE DR","RAPID CITY","SD",57702,44.02439099,-103.269159436,483,"3013 MOTHERLODE DR, RAPID CITY, SD, 57702","Match","Exact","3013 MOTHERLODE DR, RAPID CITY, SD, 57702",636616078,"R"
160984,"3013 NW 4TH COURT","POMPANO BEACH","FL",33069,26.235387207,-80.163888771,484,"3013 NW 4TH COURT, POMPANO BEACH, FL, 33069","Match","Exact","3013 NW 4TH CT, POMPANO BEACH, FL, 33069",114693996,"R"
160985,"3013 NW DAHLIA DRIVE","CAMAS","WA",98607,45.6015957970001,-122.439584464,485,"3013 NW DAHLIA DRIVE, CAMAS, WA, 98607","Match","Exact","3013 NW DAHLIA DR, CAMAS, WA, 98607",158369153,"R"
160986,"3013 PARK WAY","CHEVERLY","MD",20785,38.926095939,-76.910932536,486,"3013 PARK WAY, CHEVERLY, MD, 20785","Match","Non_Exact","3013 PARKWAY, CHEVERLY, MD, 20785",76307716,"R"
160987,"3013 RAINBOW DRIVE SUITE 200G","DECATUR","GA",30034,33.7097356630001,-84.2672306599999,487,"3013 RAINBOW DRIVE SUITE 200G, DECATUR, GA, 30034","Match","Exact","3013 RAINBOW DR, DECATUR, GA, 30034",23370727,"R"
160988,"3013 SANCTUARY LANE","FREDERICK","MD",21701,39.460424647,-77.3876892489999,488,"3013 SANCTUARY LANE, FREDERICK, MD, 21701","Match","Exact","3013 SANCTUARY LN, FREDERICK, MD, 21701",604675265,"R"
160989,"3013 TAVISTOCK DRIVE","DURHAM","NC",27712,36.08728474,-78.970116822,489,"3013 TAVISTOCK DRIVE, DURHAM, NC, 27712","Match","Exact","3013 TAVISTOCK DR, DURHAM, NC, 27712",71749226,"R"
160990,"3013 VERMONT ST NE","ALBUQUERQUE","NM",87110,35.120190306,-106.554971229,490,"3013 VERMONT ST NE, ALBUQUERQUE, NM, 87110","Match","Exact","3013 VERMONT ST NE, ALBUQUERQUE, NM, 87110",206717203,"L"
160991,"3013 W AVENIDA ISABEL","TUCSON","AZ",85746,32.1215840580001,-111.031393493,491,"3013 W AVENIDA ISABEL, TUCSON, AZ, 85746","Match","Exact","3013 W AVE ISABEL, TUCSON, AZ, 85746",121163180,"R"
160992,"3013 WALKER STREET","LITTLE ROCK","AR",72204,34.725486178,-92.366296642,492,"3013 WALKER STREET, LITTLE ROCK, AR, 72204","Match","Exact","3013 WALKER ST, LITTLE ROCK, AR, 72204",83560929,"L"
160993,"3013 WALNOAKS ROAD","KNOXVILLE","TN",37921,35.9907207140001,-84.006836538,493,"3013 WALNOAKS ROAD, KNOXVILLE, TN, 37921","Match","Exact","3013 WALNOAKS RD, KNOXVILLE, TN, 37921",42613575,"R"
160994,"3013 WHISPER OAK WAY","BAKERSFIELD","CA",93311,35.3272253640001,-119.108894827,494,"3013 WHISPER OAK WAY, BAKERSFIELD, CA, 93311","Match","Exact","3013 WHISPER OAK WAY, BAKERSFIELD, CA, 93311",109083313,"R"
160995,"3013 WHISPERING BROOK","ROWLETT","TX",75088,32.887746511,-96.56174662,495,"3013 WHISPERING BROOK, ROWLETT, TX, 75088","Match","Exact","3013 WHISPERING BROOK, ROWLETT, TX, 75088",103277459,"R"
160996,"30130 MULHOLLAND HWY","AGOURA HILLS","CA",91301,34.113822747,-118.783162358,496,"30130 MULHOLLAND HWY, AGOURA HILLS, CA, 91301","Match","Exact","30130 MULHOLLAND HWY, AGOURA HILLS, CA, 91301",142786129,"L"
160997,"30130 WCR 49","GREELEY","CO",80631,40.4375460420001,-104.601688972,497,"30130 WCR 49, GREELEY, CO, 80631","Match","Non_Exact","30130 CO RD 49, GREELEY, CO, 80631",188700453,"R"
160998,"30137 S MEADOWRIDGE","FARMINGTON HILLS","MI",48334,42.4935102860001,-83.342872643,498,"30137 S MEADOWRIDGE, FARMINGTON HILLS, MI, 48334","Match","Non_Exact","30137 MEADOWRIDGE N, FARMINGTON HILLS, MI, 48334",69780785,"L"
160999,"30139 WEST 13 MILE ROAD","FARMINGTON HILLS","MI",48334,42.5140249410001,-83.349663049,499,"30139 WEST 13 MILE ROAD, FARMINGTON HILLS, MI, 48334","Match","Exact","30139 W 13 MILE RD, FARMINGTON HILLS, MI, 48334",69727484,"L"
161000,"3014 23RD STREET","DETROIT","MI",48216,42.332557179,-83.091215575,500,"3014 23RD STREET, DETROIT, MI, 48216","Match","Exact","3014 23RD ST, DETROIT, MI, 48216",95478098,"R"
