"ID","Address","City","State","Zip","lat","long","id","input_address","match_indicator","match_type","matched_address","tiger_line_id","tiger_side"
37001,"1211 MATT MOORE COURT","LITHIA  SPRINGS","GA",30122,33.772776553,-84.662378199,1,"1211 MATT MOORE COURT, LITHIA  SPRINGS, GA, 30122","Match","Exact","1211 MATT MOORE CT, LITHIA SPGS, GA, 30122",619879202,"L"
37002,"1211 MAYNARD STREET","MACON","GA",31217,32.8570217710001,-83.6108644999999,2,"1211 MAYNARD STREET, MACON, GA, 31217","Match","Exact","1211 MAYNARD ST, MACON, GA, 31217",81062453,"R"
37003,"1211 MICHIGAN ST","SANDPOINT","ID",83864,48.2694202960001,-116.564361994,3,"1211 MICHIGAN ST, SANDPOINT, ID, 83864","Match","Exact","1211 MICHIGAN ST, SANDPOINT, ID, 83864",169503585,"L"
37004,"1211 MISS ALLISONS WAY","PFLUGERVILLE","TX",78660,30.447352718,-97.655843811,4,"1211 MISS ALLISONS WAY, PFLUGERVILLE, TX, 78660","Match","Non_Exact","1211 MISS ALLISON'S WAY, PFLUGERVILLE, TX, 78660",63995348,"R"
37005,"1211 N 220 E","PLEASANT GROVE","UT",84062,40.376681074,-111.737580133,5,"1211 N 220 E, PLEASANT GROVE, UT, 84062","Match","Exact","1211 220 E, PLEASANT GROVE, UT, 84062",630412255,"R"
37006,"1211 N 2ND ST","PHILADELPHIA","PA",19122,39.9700409870001,-75.1394261629999,6,"1211 N 2ND ST, PHILADELPHIA, PA, 19122","Match","Exact","1211 N 2ND ST, PHILADELPHIA, PA, 19122",131423013,"R"
37007,"1211 N FIFTH ST STE 104","STROUDSBURG","PA",18360,41.0001559180001,-75.196800636,7,"1211 N FIFTH ST STE 104, STROUDSBURG, PA, 18360","Match","Non_Exact","1211 N 5TH ST, STROUDSBURG, PA, 18360",136768297,"L"
37008,"1211 N MAIN STREET","LIBERTY","TX",77575,30.0672712840001,-94.79439086,8,"1211 N MAIN STREET, LIBERTY, TX, 77575","Match","Exact","1211 N MAIN ST, LIBERTY, TX, 77575",636289189,"L"
37009,"1211 N TEAL ESTATES CIR","FRESNO","TX",77545,29.530023413,-95.47232099,9,"1211 N TEAL ESTATES CIR, FRESNO, TX, 77545","Match","Exact","1211 N TEAL ESTATES CIR, FRESNO, TX, 77545",645482137,"R"
37010,"1211 N VICTOR WAY","MERIDIAN","ID",83642,43.6161540310001,-116.432069687,10,"1211 N VICTOR WAY, MERIDIAN, ID, 83642","Match","Exact","1211 N VICTOR WAY, MERIDIAN, ID, 83642",617936173,"L"
37011,"1211 N YELLOW JACKET WAY","TOMBSTONE","AZ",85638,31.7158974210001,-110.057291581,11,"1211 N YELLOW JACKET WAY, TOMBSTONE, AZ, 85638","Match","Non_Exact","1211 NORTH ST, TOMBSTONE, AZ, 85638",120923629,"L"
37012,"1211 NEW LAREDO HWY","SAN ANTONIO","TX",78211,29.3601271690001,-98.556761662,12,"1211 NEW LAREDO HWY, SAN ANTONIO, TX, 78211","Match","Exact","1211 NEW LAREDO HWY, SAN ANTONIO, TX, 78211",637823267,"R"
37013,"1211 NORTH MAIN STREET","ANDERSON","SC",29621,34.5149932480001,-82.653678116,13,"1211 NORTH MAIN STREET, ANDERSON, SC, 29621","Match","Exact","1211 N MAIN ST, ANDERSON, SC, 29621",25451190,"L"
37014,"1211 NORTH WEST RENFRO","BURLESON","TX",76028,NA,NA,14,"1211 NORTH WEST RENFRO, BURLESON, TX, 76028","No_Match",NA,NA,NA,NA
37015,"1211 OGLETHORPE DRIVE NE","ATLANTA","GA",30319,33.8779153090001,-84.3286021279999,15,"1211 OGLETHORPE DRIVE NE, ATLANTA, GA, 30319","Match","Exact","1211 OGLETHORPE DR NE, ATLANTA, GA, 30319",23392323,"R"
37016,"1211 OLD LAKE COVE","OXFORD","MS",38655,34.3435104160001,-89.499625964,16,"1211 OLD LAKE COVE, OXFORD, MS, 38655","Match","Exact","1211 OLD LAKE COVE, OXFORD, MS, 38655",76972409,"L"
37017,"1211 OLIVETTE DRIVE","ST LOUIS","MO",63132,38.677958136,-90.3665305389999,17,"1211 OLIVETTE DRIVE, ST LOUIS, MO, 63132","Match","Exact","1211 OLIVETTE DR, SAINT LOUIS, MO, 63132",628737764,"L"
37018,"1211 OSPREY POINT CIRCLE","POOLER","GA",31322,32.137996194,-81.2491950959999,18,"1211 OSPREY POINT CIRCLE, POOLER, GA, 31322","Match","Exact","1211 OSPREY POINT CIR, POOLER, GA, 31322",636155399,"R"
37019,"1211 OTTO ROAD","MACHESNEY PARK","IL",61115,42.385743318,-89.0247658229999,19,"1211 OTTO ROAD, MACHESNEY PARK, IL, 61115","Match","Exact","1211 OTTO RD, MACHESNEY PARK, IL, 61115",49257173,"R"
37020,"1211 PARK LANE","PELLA","IA",50219,41.4233662120001,-92.927147998,20,"1211 PARK LANE, PELLA, IA, 50219","Match","Exact","1211 PARK LN, PELLA, IA, 50219",89473314,"L"
37021,"1211 PHIPPS AVENUE","GREENSBORO","NC",27405,36.1265934360001,-79.776889733,21,"1211 PHIPPS AVENUE, GREENSBORO, NC, 27405","Match","Non_Exact","1211 PHIPPS ST, GREENSBORO, NC, 27405",131030869,"L"
37022,"1211 QUAKER RIDGE DR","AUSTIN","TX",78746,30.285015888,-97.833330457,22,"1211 QUAKER RIDGE DR, AUSTIN, TX, 78746","Match","Exact","1211 QUAKER RIDGE DR, AUSTIN, TX, 78746",63937839,"L"
37023,"1211 QUEENSWAY COURT","BEL AIR","MD",21014,39.550363974,-76.3213203339999,23,"1211 QUEENSWAY COURT, BEL AIR, MD, 21014","Match","Exact","1211 QUEENSWAY CT, BEL AIR, MD, 21014",191651157,"R"
37024,"1211 RESEDA DRIVE","ARLINGTON","TX",76015,32.698998423,-97.126839812,24,"1211 RESEDA DRIVE, ARLINGTON, TX, 76015","Match","Exact","1211 RESEDA DR, ARLINGTON, TX, 76015",624762119,"R"
37025,"1211 RIVER CHASE TRAIL","DULUTH","GA",30096,34.0092469030001,-84.1761174809999,25,"1211 RIVER CHASE TRAIL, DULUTH, GA, 30096","Match","Exact","1211 RIVER CHASE TRL, DULUTH, GA, 30096",647920986,"R"
37026,"1211 ROBERT STREET 1ST FL","UNION","NJ",7083,40.6953834720001,-74.2482294019999,26,"1211 ROBERT STREET 1ST FL, UNION, NJ, 7083","Match","Exact","1211 ROBERT ST, UNION, NJ, 07083",60576390,"R"
37027,"1211 S KILGORE","PORTALES","NM",88130,34.1792955070001,-103.317663884,27,"1211 S KILGORE, PORTALES, NM, 88130","Match","Non_Exact","1211 S KILGORE AVE, PORTALES, NM, 88130",163916169,"R"
37028,"1211 S MAIN STREET","FORT BRAGG","CA",95437,39.422827376,-123.807689034,28,"1211 S MAIN STREET, FORT BRAGG, CA, 95437","Match","Exact","1211 S MAIN ST, FORT BRAGG, CA, 95437",67327955,"R"
37029,"1211 SALUDA STREET","ROCK HILL","SC",29730,34.904583405,-81.030904751,29,"1211 SALUDA STREET, ROCK HILL, SC, 29730","Match","Exact","1211 SALUDA ST, ROCK HILL, SC, 29730",19792760,"L"
37030,"1211 SANTA FE CIRCLE","PENSACOLA","FL",32505,30.4509000730001,-87.255336121,30,"1211 SANTA FE CIRCLE, PENSACOLA, FL, 32505","Match","Exact","1211 SANTA FE CIR, PENSACOLA, FL, 32505",93214483,"L"
37031,"1211 SOUTH GUNBY AVE","TAMPA","FL",33606,27.9318543860001,-82.479935091,31,"1211 SOUTH GUNBY AVE, TAMPA, FL, 33606","Match","Exact","1211 S GUNBY AVE, TAMPA, FL, 33606",104529746,"R"
37032,"1211 STATE AVE NE","OLYMPIA","WA",98506,47.0467463620001,-122.886977925,32,"1211 STATE AVE NE, OLYMPIA, WA, 98506","Match","Exact","1211 STATE AVE NE, OLYMPIA, WA, 98506",180944563,"R"
37033,"1211 SUMMIT CREEK","SAN ANTONIO","TX",78258,29.649226749,-98.495537525,33,"1211 SUMMIT CREEK, SAN ANTONIO, TX, 78258","Match","Non_Exact","1211 SUMMIT CRST, SAN ANTONIO, TX, 78258",101555701,"R"
37034,"1211 THISTLE DR","MESQUITE","TX",75149,32.772280063,-96.5821054049999,34,"1211 THISTLE DR, MESQUITE, TX, 75149","Match","Exact","1211 THISTLE DR, MESQUITE, TX, 75149",102934129,"L"
37035,"1211 THOMAS L PARKWAY","LANSING","MI",48917,NA,NA,35,"1211 THOMAS L PARKWAY, LANSING, MI, 48917","Tie",NA,NA,NA,NA
37036,"1211 THOROUGHBRED LANE","NORCO","CA",92860,33.900487565,-117.550342704,36,"1211 THOROUGHBRED LANE, NORCO, CA, 92860","Match","Exact","1211 THOROUGHBRED LN, NORCO, CA, 92860",629382624,"L"
37037,"1211 VIENNA HWY","HAWKINSVILLE","GA",31036,32.210312565,-83.531262565,37,"1211 VIENNA HWY, HAWKINSVILLE, GA, 31036","Match","Exact","1211 VIENNA HWY, HAWKINSVILLE, GA, 31036",15734194,"R"
37038,"1211 W 21ST ST","MERCED","CA",95340,37.3093915970001,-120.491830398,38,"1211 W 21ST ST, MERCED, CA, 95340","Match","Exact","1211 W 21ST ST, MERCED, CA, 95340",125281971,"R"
37039,"1211 W 22ND STREET  SUITE 102","OAK BROOK","IL",60523,NA,NA,39,"1211 W 22ND STREET  SUITE 102, OAK BROOK, IL, 60523","No_Match",NA,NA,NA,NA
37040,"1211 W LINCOLN AVE","YAKIMA","WA",98902,46.6034549280001,-120.522101326,40,"1211 W LINCOLN AVE, YAKIMA, WA, 98902","Match","Exact","1211 W LINCOLN AVE, YAKIMA, WA, 98902",184936609,"R"
37041,"1211 W MAIN ST","PRINCETON","WI",54968,43.852197501,-89.141660531,41,"1211 W MAIN ST, PRINCETON, WI, 54968","Match","Exact","1211 W MAIN ST, PRINCETON, WI, 54968",73450121,"L"
37042,"1211 W MYRTLE ST  SUITE 100","BOISE","ID",83702,43.615641279,-116.210665971,42,"1211 W MYRTLE ST  SUITE 100, BOISE, ID, 83702","Match","Non_Exact","1211 W MYRTLE ST, BOISE, ID, 83702",117864598,"L"
37043,"1211 WALNUT GROVE ROAD","PAULINE","SC",29374,NA,NA,43,"1211 WALNUT GROVE ROAD, PAULINE, SC, 29374","No_Match",NA,NA,NA,NA
37044,"1211 WATERWORKS ROAD","WINCHESTER","KY",40391,37.9526681080001,-84.238197282,44,"1211 WATERWORKS ROAD, WINCHESTER, KY, 40391","Match","Exact","1211 WATERWORKS RD, WINCHESTER, KY, 40391",31792887,"R"
37045,"1211 WEST GENTRY PARKWAY","TYLER","TX",75702,32.3596715830001,-95.314174968,45,"1211 WEST GENTRY PARKWAY, TYLER, TX, 75702","Match","Exact","1211 W GENTRY PKWY, TYLER, TX, 75702",141292029,"R"
37046,"1211 WESTSIDE LANE","MONETA","VA",24121,37.224811979,-79.649134494,46,"1211 WESTSIDE LANE, MONETA, VA, 24121","Match","Exact","1211 WESTSIDE LN, MONETA, VA, 24121",635296343,"R"
37047,"1211 WHITE CREEK DR","GLENN HEIGHTS","TX",75154,32.556804051,-96.826825968,47,"1211 WHITE CREEK DR, GLENN HEIGHTS, TX, 75154","Match","Non_Exact","1211 WHITECREEK DR, GLENN HEIGHTS, TX, 75154",103278628,"R"
37048,"1211-C SCALEYBARK RD","CHARLOTTE","NC",28209,35.1739115300001,-80.85994593,48,"1211-C SCALEYBARK RD, CHARLOTTE, NC, 28209","Match","Exact","1211 SCALEYBARK RD, CHARLOTTE, NC, 28209",650103165,"L"
37049,"12110 ARROWHEAD GLEN DR","HOUSTON","TX",77071,29.6463717390001,-95.528463986,49,"12110 ARROWHEAD GLEN DR, HOUSTON, TX, 77071","Match","Exact","12110 ARROWHEAD GLEN DR, HOUSTON, TX, 77071",96037284,"L"
37050,"12110 DOE RUN COURT","CINCINNATI","OH",45240,39.305074609,-84.559068463,50,"12110 DOE RUN COURT, CINCINNATI, OH, 45240","Match","Exact","12110 DOE RUN CT, CINCINNATI, OH, 45240",103959264,"L"
37051,"12110 DONNYBROOK DRIVE","FORT WASHINGTON","MD",20744,38.7253572490001,-77.023336695,51,"12110 DONNYBROOK DRIVE, FORT WASHINGTON, MD, 20744","Match","Exact","12110 DONNYBROOK DR, FT WASHINGTON, MD, 20744",76350789,"R"
37052,"12110 DUNLEIGH COURT","DUNKIRK","MD",20754,38.748541604,-76.6604222029999,52,"12110 DUNLEIGH COURT, DUNKIRK, MD, 20754","Match","Exact","12110 DUNLEIGH CT, DUNKIRK, MD, 20754",78188745,"R"
37053,"12110 FENIMORE DRIVE","MORENO VALLEY","CA",92555,33.945651099,-117.170545258,53,"12110 FENIMORE DRIVE, MORENO VALLEY, CA, 92555","Match","Exact","12110 FENIMORE DR, MORENO VALLEY, CA, 92555",194776281,"R"
37054,"12110 FREIGHT LN SUITE C","EL PASO","TX",79936,31.72454114,-106.2889296,54,"12110 FREIGHT LN SUITE C, EL PASO, TX, 79936","Match","Exact","12110 FREIGHT LN, EL PASO, TX, 79936",189377786,"R"
37055,"12110 HELLERI HOLLOW","JOHNS CREEK","GA",30005,34.076150269,-84.184616165,55,"12110 HELLERI HOLLOW, JOHNS CREEK, GA, 30005","Match","Exact","12110 HELLERI HOLLOW, JOHNS CREEK, GA, 30005",17384212,"R"
37056,"12110 LARIMORE ROAD","SAINT LOUIS","MO",63138,38.7908180690001,-90.192194829,56,"12110 LARIMORE ROAD, SAINT LOUIS, MO, 63138","Match","Exact","12110 LARIMORE RD, SAINT LOUIS, MO, 63138",617838597,"R"
37057,"12110 PORT GRACE BLVD STE 100","LA VISTA","NE",68128,41.1853930130001,-96.100680864,57,"12110 PORT GRACE BLVD STE 100, LA VISTA, NE, 68128","Match","Exact","12110 PORT GRACE BLVD, LA VISTA, NE, 68128",217527311,"R"
37058,"12110 S 194TH ST","GRETNA","NE",68028,41.1282414570001,-96.218740446,58,"12110 S 194TH ST, GRETNA, NE, 68028","Match","Exact","12110 S 194TH ST, GRETNA, NE, 68028",28495698,"R"
37059,"12110 SCOTCH HOLLOW DR","BATH","MI",48808,NA,NA,59,"12110 SCOTCH HOLLOW DR, BATH, MI, 48808","No_Match",NA,NA,NA,NA
37060,"12110 STONEY ASH","SAN ANTONIO","TX",78247,29.556620916,-98.435820666,60,"12110 STONEY ASH, SAN ANTONIO, TX, 78247","Match","Exact","12110 STONEY ASH, SAN ANTONIO, TX, 78247",101498443,"R"
37061,"12110 SW 187 ST","MIAMI","FL",33177,25.594492002,-80.387754504,61,"12110 SW 187 ST, MIAMI, FL, 33177","Match","Exact","12110 SW 187TH ST, MIAMI, FL, 33177",115989272,"L"
37062,"12111 104TH AVE E B304","PUYALLUP","WA",98374,47.1471291600001,-122.290915076,62,"12111 104TH AVE E B304, PUYALLUP, WA, 98374","Match","Exact","12111 104TH AVE E, PUYALLUP, WA, 98374",184694422,"L"
37063,"12111 AUDELIA RD APT 1007","DALLAS","TX",75243,32.913547513,-96.717867382,63,"12111 AUDELIA RD APT 1007, DALLAS, TX, 75243","Match","Exact","12111 AUDELIA RD, DALLAS, TX, 75243",631026751,"L"
37064,"12111 AUDELIA ROAD APT 1607","DALLAS","TX",75243,32.913547513,-96.717867382,64,"12111 AUDELIA ROAD APT 1607, DALLAS, TX, 75243","Match","Exact","12111 AUDELIA RD, DALLAS, TX, 75243",631026751,"L"
37065,"12111 CHANDLER BLVD APT 140","VALLEY VILLAGE","CA",91607,34.1686663770001,-118.396936253,65,"12111 CHANDLER BLVD APT 140, VALLEY VILLAGE, CA, 91607","Match","Non_Exact","12111 W CHANDLER BLVD, VALLEY VLG, CA, 91607",141564543,"R"
37066,"12111 CHANDLER BLVD APT 140","VALLEY VLG","CA",91607,34.1686663770001,-118.396936253,66,"12111 CHANDLER BLVD APT 140, VALLEY VLG, CA, 91607","Match","Non_Exact","12111 W CHANDLER BLVD, VALLEY VLG, CA, 91607",141564543,"R"
37067,"12111 FM 514","EMORY","TX",75440,32.950151153,-95.689293601,67,"12111 FM 514, EMORY, TX, 75440","Match","Non_Exact","12111 CO RD 514, EMORY, TX, 75440",42773385,"R"
37068,"12111 JERRIES LANE","FLORISSANT","MO",63033,38.7947456310001,-90.2496408809999,68,"12111 JERRIES LANE, FLORISSANT, MO, 63033","Match","Exact","12111 JERRIES LN, FLORISSANT, MO, 63033",100147943,"L"
37069,"12111 LONGVIEW DRIVE","NORTH HUNTINGDON","PA",15642,40.3237326240001,-79.743790546,69,"12111 LONGVIEW DRIVE, NORTH HUNTINGDON, PA, 15642","Match","Exact","12111 LONGVIEW DR, N HUNTINGDON, PA, 15642",635889409,"R"
37070,"12111 N 127TH WAY","SCOTTSDALE","AZ",85259,33.5958115180001,-111.805480647,70,"12111 N 127TH WAY, SCOTTSDALE, AZ, 85259","Match","Exact","12111 N 127TH WAY, SCOTTSDALE, AZ, 85259",128363744,"R"
37071,"12111 NE 165TH PL","BOTHELL","WA",98011,47.747661012,-122.179779214,71,"12111 NE 165TH PL, BOTHELL, WA, 98011","Match","Exact","12111 NE 165TH PL, BOTHELL, WA, 98011",239778338,"R"
37072,"12111 PINE STREET APT A","NORWALK","CA",90650,33.905323518,-118.075396958,72,"12111 PINE STREET APT A, NORWALK, CA, 90650","Match","Exact","12111 PINE ST, NORWALK, CA, 90650",141741899,"L"
37073,"12111 RR 12 SUITE 111","WIMBERLEY","TX",78676,NA,NA,73,"12111 RR 12 SUITE 111, WIMBERLEY, TX, 78676","No_Match",NA,NA,NA,NA
37074,"12111 TESSON FERRY RD","SAINT LOUIS","MO",63128,38.5167044140001,-90.366840772,74,"12111 TESSON FERRY RD, SAINT LOUIS, MO, 63128","Match","Exact","12111 TESSON FERRY RD, SAINT LOUIS, MO, 63128",615047681,"R"
37075,"12111 W BELLFORT ST","STAFFORD","TX",77477,29.6579604610001,-95.588770726,75,"12111 W BELLFORT ST, STAFFORD, TX, 77477","Match","Exact","12111 W BELLFORT ST, STAFFORD, TX, 77477",96036191,"L"
37076,"12112 CLAYTON ROAD","TOWN  COUNTRY","MO",63131,38.6320719450001,-90.442041268,76,"12112 CLAYTON ROAD, TOWN  COUNTRY, MO, 63131","Match","Non_Exact","12112 CLAYTON RD, SAINT LOUIS, MO, 63131",100189464,"L"
37077,"12112 E 62ND STREET","KANSAS CITY","MO",64133,39.0089873470001,-94.4389401029999,77,"12112 E 62ND STREET, KANSAS CITY, MO, 64133","Match","Exact","12112 E 62ND ST, KANSAS CITY, MO, 64133",91466989,"L"
37078,"12112 FISHERVILLE RD","CATO","WI",54230,44.2402719520001,-87.8328792189999,78,"12112 FISHERVILLE RD, CATO, WI, 54230","Match","Exact","12112 FISHERVILLE RD, CATO, WI, 54230",147956811,"R"
37079,"12112 GREENBRIAR BLVD","SELLERSBURG","IN",47172,38.4348198120001,-85.798385538,79,"12112 GREENBRIAR BLVD, SELLERSBURG, IN, 47172","Match","Exact","12112 GREENBRIAR BLVD, SELLERSBURG, IN, 47172",64916810,"R"
37080,"12112 WOODWORTH ROAD","NORTH LIMA","OH",44452,40.94281082,-80.634501507,80,"12112 WOODWORTH ROAD, NORTH LIMA, OH, 44452","Match","Exact","12112 WOODWORTH RD, NORTH LIMA, OH, 44452",64602775,"R"
37081,"12113 BERMUDA DR NE","ALBUQUERQUE","NM",87111,35.1349730960001,-106.503290697,81,"12113 BERMUDA DR NE, ALBUQUERQUE, NM, 87111","Match","Exact","12113 BERMUDA DR NE, ALBUQUERQUE, NM, 87111",206715420,"L"
37082,"12113 CROSBY LYNCHBURG","CROSBY","TX",77532,29.868995618,-95.062089339,82,"12113 CROSBY LYNCHBURG, CROSBY, TX, 77532","Match","Non_Exact","12113 CROSBY LYNCHBURG RD, CROSBY, TX, 77532",96100562,"L"
37083,"12113 DONNYBROOK DRIVE","FORT WASHINGTON","MD",20744,38.7254124040001,-77.02335771,83,"12113 DONNYBROOK DRIVE, FORT WASHINGTON, MD, 20744","Match","Exact","12113 DONNYBROOK DR, FT WASHINGTON, MD, 20744",76350789,"L"
37084,"12113 FLAT IRON CT","BAKERSFIELD","CA",93312,35.4003092240001,-119.137486139,84,"12113 FLAT IRON CT, BAKERSFIELD, CA, 93312","Match","Exact","12113 FLAT IRON CT, BAKERSFIELD, CA, 93312",109449366,"R"
37085,"12113 SE 175TH LN APT DD202","RENTON","WA",98058,47.446254262,-122.181328217,85,"12113 SE 175TH LN APT DD202, RENTON, WA, 98058","Match","Non_Exact","12113 SE 175TH LN, RENTON, WA, 98058",186966527,"R"
37086,"12113 SLATER AVE","LOS ANGELES","CA",90059,33.9225818030001,-118.249625708,86,"12113 SLATER AVE, LOS ANGELES, CA, 90059","Match","Non_Exact","12113 S SLATER AVE, LOS ANGELES, CA, 90059",141673558,"R"
37087,"12113 VALE ROAD","OAKTON","VA",22124,38.883078982,-77.365373157,87,"12113 VALE ROAD, OAKTON, VA, 22124","Match","Exact","12113 VALE RD, OAKTON, VA, 22124",642596685,"L"
37088,"12114 CEDARVALE STREET","NORWALK","CA",90650,33.8815679210001,-118.074479025,88,"12114 CEDARVALE STREET, NORWALK, CA, 90650","Match","Exact","12114 CEDARVALE ST, NORWALK, CA, 90650",141744184,"R"
37089,"12114 QUICK FOX LANE","BOWIE","MD",20720,38.989128968,-76.7952832889999,89,"12114 QUICK FOX LANE, BOWIE, MD, 20720","Match","Exact","12114 QUICK FOX LN, BOWIE, MD, 20720",76340534,"L"
37090,"12114 SOUTH EDBROOKE","CHICAGO","IL",60628,41.673918024,-87.619058787,90,"12114 SOUTH EDBROOKE, CHICAGO, IL, 60628","Match","Non_Exact","12114 S EDBROOKE AVE, CHICAGO, IL, 60628",111777667,"R"
37091,"12114 WEDGEWAY PLACE","FAIRFAX","VA",22033,38.8765046880001,-77.366479446,91,"12114 WEDGEWAY PLACE, FAIRFAX, VA, 22033","Match","Exact","12114 WEDGEWAY PL, FAIRFAX, VA, 22033",76017932,"L"
37092,"12115 BELSTEAD DRIVE","GLEN ALLEN","VA",23059,37.6907673520001,-77.614245355,92,"12115 BELSTEAD DRIVE, GLEN ALLEN, VA, 23059","Match","Exact","12115 BELSTEAD DR, GLEN ALLEN, VA, 23059",106668025,"L"
37093,"12115 GLADEWICK DR","HOUSTON","TX",77077,29.7550900910001,-95.594134087,93,"12115 GLADEWICK DR, HOUSTON, TX, 77077","Match","Exact","12115 GLADEWICK DR, HOUSTON, TX, 77077",96157107,"R"
37094,"12115 GREEN GLADE DRIVE","HOUSTON","TX",77099,29.668988341,-95.595284873,94,"12115 GREEN GLADE DRIVE, HOUSTON, TX, 77099","Match","Exact","12115 GREEN GLADE DR, HOUSTON, TX, 77099",96035610,"L"
37095,"12115 GREENWAY CT UNIT 301","FAIRFAX","VA",22033,38.8754572290001,-77.366140964,95,"12115 GREENWAY CT UNIT 301, FAIRFAX, VA, 22033","Match","Exact","12115 GREENWAY CT, FAIRFAX, VA, 22033",76017936,"R"
37096,"12115 MAGNOLIA BLVD UNIT 241","VALLEY VILLAGE","CA",91607,34.1648728700001,-118.397058355,96,"12115 MAGNOLIA BLVD UNIT 241, VALLEY VILLAGE, CA, 91607","Match","Exact","12115 MAGNOLIA BLVD, VALLEY VLG, CA, 91607",141564552,"R"
37097,"12115 SUNSET AVE","GRASS VALLEY","CA",95945,39.2281600060001,-121.098052896,97,"12115 SUNSET AVE, GRASS VALLEY, CA, 95945","Match","Exact","12115 SUNSET AVE, GRASS VALLEY, CA, 95945",106533582,"L"
37098,"12115 SWEET CLOVER DRIVE","SILVER SPRING","MD",20904,39.05305173,-76.9519446689999,98,"12115 SWEET CLOVER DRIVE, SILVER SPRING, MD, 20904","Match","Exact","12115 SWEET CLOVER DR, SILVER SPRING, MD, 20904",62109736,"L"
37099,"12117 237TH STREET","ROSEDALE","NY",11422,NA,NA,99,"12117 237TH STREET, ROSEDALE, NY, 11422","No_Match",NA,NA,NA,NA
37100,"12117 HAMPTON PLACE DRIVE","CHARLOTTE","NC",28269,35.3590813970001,-80.792913185,100,"12117 HAMPTON PLACE DRIVE, CHARLOTTE, NC, 28269","Match","Exact","12117 HAMPTON PLACE DR, CHARLOTTE, NC, 28269",70560689,"L"
37101,"12117 IDALIA STREET","BRIGHTON","CO",80603,39.916545555,-104.805669427,101,"12117 IDALIA STREET, BRIGHTON, CO, 80603","Match","Exact","12117 IDALIA ST, BRIGHTON, CO, 80603",177424273,"L"
37102,"12117 WHEELING AVENUE","UPPER MARLBORO","MD",20772,38.769719669,-76.795948956,102,"12117 WHEELING AVENUE, UPPER MARLBORO, MD, 20772","Match","Exact","12117 WHEELING AVE, UPPER MARLBORO, MD, 20772",76322860,"R"
37103,"12118 HIGHWAY 99 APTS202","EVERETT","WA",98204,47.8881920740001,-122.259554757,103,"12118 HIGHWAY 99 APTS202, EVERETT, WA, 98204","Match","Non_Exact","12118 STATE RTE 99, EVERETT, WA, 98204",608919952,"R"
37104,"12118 ROSWELL AVENUE","CHINO","CA",91710,34.0330678930001,-117.719957456,104,"12118 ROSWELL AVENUE, CHINO, CA, 91710","Match","Exact","12118 ROSWELL AVE, CHINO, CA, 91710",144670551,"R"
37105,"12118 SW 114 PLACE","MIAMI","FL",33176,25.6556661830001,-80.381377828,105,"12118 SW 114 PLACE, MIAMI, FL, 33176","Match","Exact","12118 SW 114TH PL, MIAMI, FL, 33176",116080973,"R"
37106,"12118 WALNUT PARK XING  412","AUSTIN","TX",78753,30.392803057,-97.6762573779999,106,"12118 WALNUT PARK XING  412, AUSTIN, TX, 78753","Match","Exact","12118 WALNUT PARK CROSSING, AUSTIN, TX, 78753",64026348,"L"
37107,"12119 DANBY ROAD","PINEVILLE","NC",28134,35.054787736,-80.875371792,107,"12119 DANBY ROAD, PINEVILLE, NC, 28134","Match","Exact","12119 DANBY RD, PINEVILLE, NC, 28134",70519174,"L"
37108,"12119 EDGEWOOD HAVEN DRIVE","CYPRESS","TX",77433,29.9540494250001,-95.74540061,108,"12119 EDGEWOOD HAVEN DRIVE, CYPRESS, TX, 77433","Match","Exact","12119 EDGEWOOD HAVEN DR, CYPRESS, TX, 77433",652798816,"R"
37109,"12119 TRIPLE CROWN ROAD","NORTH POTOMAC","MD",20878,39.101750012,-77.2575656619999,109,"12119 TRIPLE CROWN ROAD, NORTH POTOMAC, MD, 20878","Match","Exact","12119 TRIPLE CROWN RD, N POTOMAC, MD, 20878",62048648,"R"
37110,"1212 10TH STREET NE","MASSILLON","OH",44646,40.811167964,-81.513325368,110,"1212 10TH STREET NE, MASSILLON, OH, 44646","Match","Exact","1212 10TH ST NE, MASSILLON, OH, 44646",64668744,"R"
37111,"1212 3RD ST W","THIEF RIVER FALLS","MN",56701,48.119086177,-96.1645420419999,111,"1212 3RD ST W, THIEF RIVER FALLS, MN, 56701","Match","Non_Exact","1212 3RD ST E, THIEF RIVER FALLS, MN, 56701",607181528,"L"
37112,"1212 66TH ST N","ST PETERSBURG","FL",33710,27.783544379,-82.7284386219999,112,"1212 66TH ST N, ST PETERSBURG, FL, 33710","Match","Exact","1212 66TH ST N, SAINT PETERSBURG, FL, 33710",124698160,"L"
37113,"1212 6TH STREET","PLEASANT GROVE","AL",35127,33.4940722750001,-86.993229134,113,"1212 6TH STREET, PLEASANT GROVE, AL, 35127","Match","Exact","1212 6TH ST, PLEASANT GROVE, AL, 35127",81594443,"R"
37114,"1212 ADANAC WAY","MADERA","CA",93638,36.982532636,-120.05135464,114,"1212 ADANAC WAY, MADERA, CA, 93638","Match","Exact","1212 ADANAC WAY, MADERA, CA, 93638",102340318,"L"
37115,"1212 ALLENTOWN ST","CORDOVA","TN",38016,35.1580756610001,-89.776188647,115,"1212 ALLENTOWN ST, CORDOVA, TN, 38016","Match","Exact","1212 ALLENTOWN ST, CORDOVA, TN, 38016",72968982,"L"
37116,"1212 AMERICANA LN APT 307","MESQUITE","TX",75150,32.8050734440001,-96.618319677,116,"1212 AMERICANA LN APT 307, MESQUITE, TX, 75150","Match","Exact","1212 AMERICANA LN, MESQUITE, TX, 75150",103232328,"R"
37117,"1212 ANDERSON RD","TRAVERSE CITY","MI",49686,44.7654521740001,-85.592358154,117,"1212 ANDERSON RD, TRAVERSE CITY, MI, 49686","Match","Exact","1212 ANDERSON RD, TRAVERSE CITY, MI, 49686",145514846,"R"
37118,"1212 AUGUSTA DRIVE","SHELBYVILLE","KY",40065,38.228203482,-85.2349535009999,118,"1212 AUGUSTA DRIVE, SHELBYVILLE, KY, 40065","Match","Exact","1212 AUGUSTA DR, SHELBYVILLE, KY, 40065",97079424,"R"
37119,"1212 BANK ST NW","WASHINGTON","DC",20007,38.9054785330001,-77.0670656839999,119,"1212 BANK ST NW, WASHINGTON, DC, 20007","Match","Non_Exact","1212 BANK ALY NW, WASHINGTON, DC, 20007",76224912,"L"
37120,"1212 BENNETT ROAD","POWDER SPRINGS","GA",30127,33.8475168480001,-84.730740735,120,"1212 BENNETT ROAD, POWDER SPRINGS, GA, 30127","Match","Exact","1212 BENNETT RD, POWDER SPGS, GA, 30127",618921212,"R"
37121,"1212 BETHPAGE DRIVE","HUTTO","TX",78634,30.498590908,-97.586050265,121,"1212 BETHPAGE DRIVE, HUTTO, TX, 78634","Match","Non_Exact","1212 BETHPAGE COVE, HUTTO, TX, 78634",648015005,"L"
37122,"1212 BLAKE AVENUE","UNIONTOWN","ID",83844,NA,NA,122,"1212 BLAKE AVENUE, UNIONTOWN, ID, 83844","No_Match",NA,NA,NA,NA
37123,"1212 BRIXTON ROAD","BALTIMORE","MD",21239,39.3826703610001,-76.586745342,123,"1212 BRIXTON ROAD, BALTIMORE, MD, 21239","Match","Exact","1212 BRIXTON RD, BALTIMORE, MD, 21239",191475489,"L"
37124,"1212 CAPERTON WAY","CHARLESTON","SC",29412,32.70624337,-79.950252588,124,"1212 CAPERTON WAY, CHARLESTON, SC, 29412","Match","Exact","1212 CAPERTON WAY, CHARLESTON, SC, 29412",108852475,"L"
37125,"1212 CARRIAGE PARK DR","VALRICO","FL",33594,27.919900812,-82.241889252,125,"1212 CARRIAGE PARK DR, VALRICO, FL, 33594","Match","Exact","1212 CARRIAGE PARK DR, VALRICO, FL, 33594",627202444,"R"
37126,"1212 CHOKE CHERRY ROAD","LINO LAKES","MN",55038,45.144585917,-93.080647205,126,"1212 CHOKE CHERRY ROAD, LINO LAKES, MN, 55038","Match","Exact","1212 CHOKE CHERRY RD, LINO LAKES, MN, 55038",618237607,"L"
37127,"1212 DUNBAR ST APARTMENT 3","MYRTLE BEACH","SC",29577,33.7019779890001,-78.881734341,127,"1212 DUNBAR ST APARTMENT 3, MYRTLE BEACH, SC, 29577","Match","Exact","1212 DUNBAR ST, MYRTLE BEACH, SC, 29577",29056996,"R"
37128,"1212 E 166TH PL","SOUTH HOLLAND","IL",60473,41.5927789470001,-87.587504356,128,"1212 E 166TH PL, SOUTH HOLLAND, IL, 60473","Match","Exact","1212 E 166TH PL, SOUTH HOLLAND, IL, 60473",111780787,"L"
37129,"1212 E 25TH STREET","BALTIMORE","MD",21218,39.316900574,-76.5963926209999,129,"1212 E 25TH STREET, BALTIMORE, MD, 21218","Match","Exact","1212 E 25TH ST, BALTIMORE, MD, 21218",206419856,"L"
37130,"1212 E 91ST ST","BROOKLYN","NY",11236,40.639501454,-73.903838794,130,"1212 E 91ST ST, BROOKLYN, NY, 11236","Match","Exact","1212 E 91ST ST, BROOKLYN, NY, 11236",59086641,"R"
37131,"1212 E PARK CIR","TAMPA","FL",33604,28.0174806790001,-82.4458844549999,131,"1212 E PARK CIR, TAMPA, FL, 33604","Match","Exact","1212 E PARK CIR, TAMPA, FL, 33604",104569890,"L"
37132,"1212 E SUSQUEHANNA AVE APT A","PHILADELPHIA","PA",19125,39.9725351980001,-75.125028686,132,"1212 E SUSQUEHANNA AVE APT A, PHILADELPHIA, PA, 19125","Match","Non_Exact","1212 E SUSQUEHANNA AVE, PHILADELPHIA, PA, 19125",131425779,"L"
37133,"1212 EAST DIAMONDALE DRIVE","CARSON","CA",90746,33.848772851,-118.250561492,133,"1212 EAST DIAMONDALE DRIVE, CARSON, CA, 90746","Match","Non_Exact","1212 DIMONDALE DR, CARSON, CA, 90746",141680706,"R"
37134,"1212 EAST SPRUCE STREET","PETERSBURG","IN",47567,38.4963644370001,-87.278607157,134,"1212 EAST SPRUCE STREET, PETERSBURG, IN, 47567","Match","Non_Exact","1212 SPRUCE ST, PETERSBURG, IN, 47567",32173013,"L"
37135,"1212 EL CAMINO REAL UNIT 353","SAN BRUNO","CA",94066,NA,NA,135,"1212 EL CAMINO REAL UNIT 353, SAN BRUNO, CA, 94066","No_Match",NA,NA,NA,NA
37136,"1212 ELLA CIRCLE","BOSSIER CITY","LA",71112,32.482755599,-93.6781226959999,136,"1212 ELLA CIRCLE, BOSSIER CITY, LA, 71112","Match","Exact","1212 ELLA CIR, BOSSIER CITY, LA, 71112",108520605,"R"
37137,"1212 FOX GROVE COURT","ORLANDO","FL",32828,28.5255767940001,-81.139306225,137,"1212 FOX GROVE COURT, ORLANDO, FL, 32828","Match","Exact","1212 FOX GROVE CT, ORLANDO, FL, 32828",646390082,"R"
37138,"1212 FRAN MAR COURT","CLERMONT","FL",34711,28.5616664680001,-81.776488671,138,"1212 FRAN MAR COURT, CLERMONT, FL, 34711","Match","Exact","1212 FRAN MAR CT, CLERMONT, FL, 34711",94161516,"L"
37139,"1212 GRIMSWORTH LANE","ALLEN","TX",75002,33.0903435560001,-96.641829937,139,"1212 GRIMSWORTH LANE, ALLEN, TX, 75002","Match","Exact","1212 GRIMSWORTH LN, ALLEN, TX, 75002",123525227,"R"
37140,"1212 GUADALUPE SUITE 305","AUSTIN","TX",78701,30.2750535750001,-97.7440821499999,140,"1212 GUADALUPE SUITE 305, AUSTIN, TX, 78701","Match","Non_Exact","1212 GUADALUPE ST, AUSTIN, TX, 78701",63943293,"L"
37141,"1212 H STREET","ANCHORAGE","AK",99501,61.210492141,-149.897581311,141,"1212 H STREET, ANCHORAGE, AK, 99501","Match","Exact","1212 H ST, ANCHORAGE, AK, 99501",190796697,"R"
37142,"1212 HANCOCK STREET LL10","QUINCY","MA",2169,42.25265998,-71.004415416,142,"1212 HANCOCK STREET LL10, QUINCY, MA, 2169","Match","Exact","1212 HANCOCK ST, QUINCY, MA, 02169",87249813,"L"
37143,"1212 HARMON ST","DANVILLE","IL",61832,40.144202191,-87.6385017859999,143,"1212 HARMON ST, DANVILLE, IL, 61832","Match","Exact","1212 HARMON ST, DANVILLE, IL, 61832",65997851,"L"
37144,"1212 HMNSS BLDG 900 UNIVERSITY AVE","RIVERSIDE","CA",92507,33.9756831880001,-117.331179517,144,"1212 HMNSS BLDG 900 UNIVERSITY AVE, RIVERSIDE, CA, 92507","Match","Exact","900 UNIVERSITY AVE, RIVERSIDE, CA, 92507",194860983,"L"
37145,"1212 HORIZON BLVD","LEBANON","PA",17046,40.3673704190001,-76.435760294,145,"1212 HORIZON BLVD, LEBANON, PA, 17046","Match","Exact","1212 HORIZON BLVD, LEBANON, PA, 17046",80686372,"R"
37146,"1212 HORSEGUARDS CT","NAPERVILLE","IL",60540,41.7536071820001,-88.109644427,146,"1212 HORSEGUARDS CT, NAPERVILLE, IL, 60540","Match","Exact","1212 HORSEGUARDS CT, NAPERVILLE, IL, 60540",617658385,"R"
37147,"1212 JAMES JACKSON PKWY 512","ATLANTA","GA",30318,33.7889823520001,-84.476414762,147,"1212 JAMES JACKSON PKWY 512, ATLANTA, GA, 30318","Match","Non_Exact","1212 JAMES JACKSON PKWY NW, ATLANTA, GA, 30318",647326587,"L"
37148,"1212 JAMES JACKSON PKWY APT 312","ATLANTA","GA",30318,33.7889823520001,-84.476414762,148,"1212 JAMES JACKSON PKWY APT 312, ATLANTA, GA, 30318","Match","Non_Exact","1212 JAMES JACKSON PKWY NW, ATLANTA, GA, 30318",647326587,"L"
37149,"1212 KARSTEN RIDGE PASS","GUNTER","TX",75058,33.4322324190001,-96.718373298,149,"1212 KARSTEN RIDGE PASS, GUNTER, TX, 75058","Match","Exact","1212 KARSTEN RIDGE PASS, GUNTER, TX, 75058",634618321,"L"
37150,"1212 KIPLING AVE","LOS ANGELES","CA",90041,34.139631659,-118.192571986,150,"1212 KIPLING AVE, LOS ANGELES, CA, 90041","Match","Exact","1212 KIPLING AVE, LOS ANGELES, CA, 90041",142732004,"L"
37151,"1212 LINCOLN PL APT 2A","BROOKLYN","FL",11213,NA,NA,151,"1212 LINCOLN PL APT 2A, BROOKLYN, FL, 11213","No_Match",NA,NA,NA,NA
37152,"1212 LINCOLN PL APT 2A","BROOKLYN","NY",11213,40.670011405,-73.936061904,152,"1212 LINCOLN PL APT 2A, BROOKLYN, NY, 11213","Match","Exact","1212 LINCOLN PL, BROOKLYN, NY, 11213",59079761,"R"
37153,"1212 LINCOLN PL","BROOKLYN","NY",11213,40.670011405,-73.936061904,153,"1212 LINCOLN PL, BROOKLYN, NY, 11213","Match","Exact","1212 LINCOLN PL, BROOKLYN, NY, 11213",59079761,"R"
37154,"1212 LINCOLN PLACE APT 2A","BROOKLYN","NY",11213,40.670011405,-73.936061904,154,"1212 LINCOLN PLACE APT 2A, BROOKLYN, NY, 11213","Match","Exact","1212 LINCOLN PL, BROOKLYN, NY, 11213",59079761,"R"
37155,"1212 LONE INDIAN TRAIL","SOUTH LAKE TAHOE","CA",96150,38.9047964050001,-119.973784979,155,"1212 LONE INDIAN TRAIL, SOUTH LAKE TAHOE, CA, 96150","Match","Exact","1212 LONE INDIAN TRL, SOUTH LAKE TAHOE, CA, 96150",133036970,"R"
37156,"1212 LONGHORN DRIVE","LEWISVILLE","TX",75067,33.0098237890001,-97.024143016,156,"1212 LONGHORN DRIVE, LEWISVILLE, TX, 75067","Match","Exact","1212 LONGHORN DR, LEWISVILLE, TX, 75067",103388604,"R"
37157,"1212 MADELYN AVE","MACOMB","IL",61455,40.4458880030001,-90.6611629179999,157,"1212 MADELYN AVE, MACOMB, IL, 61455","Match","Exact","1212 MADELYN AVE, MACOMB, IL, 61455",5369500,"L"
37158,"1212 MAGNOLIA DRIVE","INDIALANTIC","FL",32903,NA,NA,158,"1212 MAGNOLIA DRIVE, INDIALANTIC, FL, 32903","No_Match",NA,NA,NA,NA
37159,"1212 MAGNOLIA VILLAGE WAY","LELAND","NC",28451,34.212305127,-78.0294308749999,159,"1212 MAGNOLIA VILLAGE WAY, LELAND, NC, 28451","Match","Exact","1212 MAGNOLIA VILLAGE WAY, LELAND, NC, 28451",651407374,"L"
37160,"1212 MAPLE STREET  APT 2","NAMPA","ID",83686,43.5570799340001,-116.570082962,160,"1212 MAPLE STREET  APT 2, NAMPA, ID, 83686","Match","Exact","1212 MAPLE ST, NAMPA, ID, 83686",122789496,"L"
37161,"1212 MARICOPA HIGHWAY","OJAI","CA",93023,34.4420750670001,-119.262900427,161,"1212 MARICOPA HIGHWAY, OJAI, CA, 93023","Match","Exact","1212 MARICOPA HWY, OJAI, CA, 93023",110096296,"L"
37162,"1212 MOUNT VERNON STREET","ORLANDO","FL",32803,28.550380454,-81.3640837149999,162,"1212 MOUNT VERNON STREET, ORLANDO, FL, 32803","Match","Exact","1212 MOUNT VERNON ST, ORLANDO, FL, 32803",94418923,"R"
37163,"1212 N 39TH ST SUITE 323","TAMPA","FL",33605,27.9560850720001,-82.415530856,163,"1212 N 39TH ST SUITE 323, TAMPA, FL, 33605","Match","Non_Exact","1212 N 39TH ST, TAMPA, FL, 33605",104534864,"L"
37164,"1212 N DRAKE STEET","EDNA","TX",77957,28.986379384,-96.656969448,164,"1212 N DRAKE STEET, EDNA, TX, 77957","Match","Exact","1212 N DRAKE ST, EDNA, TX, 77957",42117218,"L"
37165,"1212 N GARFIELD","MARION","IL",62959,37.7396254990001,-88.921158906,165,"1212 N GARFIELD, MARION, IL, 62959","Match","Non_Exact","1212 N GARFIELD ST, MARION, IL, 62959",6011537,"L"
37166,"1212 N HOWARD ST","SPOKANE","WA",99201,47.668382104,-117.421076801,166,"1212 N HOWARD ST, SPOKANE, WA, 99201","Match","Exact","1212 N HOWARD ST, SPOKANE, WA, 99201",189875054,"R"
37167,"1212 N WASHINGTON AVE","LANSING","MI",48906,42.7476659930001,-84.552133421,167,"1212 N WASHINGTON AVE, LANSING, MI, 48906","Match","Exact","1212 N WASHINGTON AVE, LANSING, MI, 48906",17499055,"R"
37168,"1212 NORTHRUP RD","PENFIELD","NY",14526,43.1728558570001,-77.438244606,168,"1212 NORTHRUP RD, PENFIELD, NY, 14526","Match","Exact","1212 NORTHRUP RD, PENFIELD, NY, 14526",14546157,"L"
37169,"1212 NUUANU AVENUE","HONOLULU","HI",96817,21.312229498,-157.859984309,169,"1212 NUUANU AVENUE, HONOLULU, HI, 96817","Match","Exact","1212 NUUANU AVE, HONOLULU, HI, 96817",630558942,"L"
37170,"1212 PENNSYLVANIA AVENUE","STEUBENVILLE","OH",43952,40.368903506,-80.6229617509999,170,"1212 PENNSYLVANIA AVENUE, STEUBENVILLE, OH, 43952","Match","Exact","1212 PENNSYLVANIA AVE, STEUBENVILLE, OH, 43952",37801381,"L"
37171,"1212 PHOENIXVILLE PIKE","WEST CHESTER","PA",19380,40.0005784460001,-75.5934680299999,171,"1212 PHOENIXVILLE PIKE, WEST CHESTER, PA, 19380","Match","Exact","1212 PHOENIXVILLE PIKE, WEST CHESTER, PA, 19380",179489755,"L"
37172,"1212 PLAINFIELD AVE","JANESVILLE","WI",53545,42.718725546,-89.0087567479999,172,"1212 PLAINFIELD AVE, JANESVILLE, WI, 53545","Match","Exact","1212 PLAINFIELD AVE, JANESVILLE, WI, 53545",49852155,"R"
37173,"1212 PUNAHOU STREET APT 3606","HONOLULU","HI",96826,21.2990058680001,-157.835182312,173,"1212 PUNAHOU STREET APT 3606, HONOLULU, HI, 96826","Match","Exact","1212 PUNAHOU ST, HONOLULU, HI, 96826",203237607,"L"
37174,"1212 QUEEN PEGGY LANE","LEWISVILLE","TX",75056,33.0303598260001,-96.903825521,174,"1212 QUEEN PEGGY LANE, LEWISVILLE, TX, 75056","Match","Exact","1212 QUEEN PEGGY LN, LEWISVILLE, TX, 75056",103401287,"L"
37175,"1212 QUINCY CANYON ROAD","LAKESIDE","CA",92040,32.9274723890001,-116.859493654,175,"1212 QUINCY CANYON ROAD, LAKESIDE, CA, 92040","Match","Exact","1212 QUINCY CANYON RD, LAKESIDE, CA, 92040",195332245,"R"
37176,"1212 RED BANKS ROAD APT A1","GREENVILLE","NC",27858,35.584608824,-77.35759079,176,"1212 RED BANKS ROAD APT A1, GREENVILLE, NC, 27858","Match","Exact","1212 RED BANKS RD, GREENVILLE, NC, 27858",80012073,"R"
37177,"1212 RIBBON RD","ST JOHNS","FL",32259,30.1202848240001,-81.59524428,177,"1212 RIBBON RD, ST JOHNS, FL, 32259","Match","Exact","1212 RIBBON RD, SAINT JOHNS, FL, 32259",92637509,"R"
37178,"1212 RIVERS CREEK LN","LITTLE ELM","TX",75068,33.2108820890001,-96.9190923899999,178,"1212 RIVERS CREEK LN, LITTLE ELM, TX, 75068","Match","Exact","1212 RIVERS CREEK LN, LITTLE ELM, TX, 75068",646967228,"L"
37179,"1212 S BIRCH STREET","PINE BLUFF","AR",71603,34.2173945380001,-92.034398692,179,"1212 S BIRCH STREET, PINE BLUFF, AR, 71603","Match","Exact","1212 S BIRCH ST, PINE BLUFF, AR, 71603",2549751,"R"
37180,"1212 S DURANT","ALVIN","TX",77511,29.413666087,-95.252747998,180,"1212 S DURANT, ALVIN, TX, 77511","Match","Non_Exact","1212 S DURANT ST, ALVIN, TX, 77511",116576940,"L"
37181,"1212 S FARRELL RD","LOCKPORT","IL",60441,NA,NA,181,"1212 S FARRELL RD, LOCKPORT, IL, 60441","No_Match",NA,NA,NA,NA
37182,"1212 S MADISON AVENUE","MONROE","GA",30655,33.779507042,-83.702058992,182,"1212 S MADISON AVENUE, MONROE, GA, 30655","Match","Exact","1212 S MADISON AVE, MONROE, GA, 30655",77614972,"L"
37183,"1212 S WASHINGTON AVE","WELLINGTON","KS",67152,37.25442386,-97.397560396,183,"1212 S WASHINGTON AVE, WELLINGTON, KS, 67152","Match","Exact","1212 S WASHINGTON AVE, WELLINGTON, KS, 67152",115810232,"L"
37184,"1212 SANDPIPER DRIVE","AUBREY","TX",76227,33.2245740070001,-96.94037385,184,"1212 SANDPIPER DRIVE, AUBREY, TX, 76227","Match","Exact","1212 SANDPIPER DR, AUBREY, TX, 76227",218074632,"R"
37185,"1212 SE HAMPDEN RD","BARTLESVILLE","OK",74006,36.706762951,-95.96480873,185,"1212 SE HAMPDEN RD, BARTLESVILLE, OK, 74006","Match","Exact","1212 SE HAMPDEN RD, BARTLESVILLE, OK, 74006",18708817,"L"
37186,"1212 SEDEEVA CIRCLE SOUTH","CLEARWATER","FL",33755,27.992372607,-82.78735703,186,"1212 SEDEEVA CIRCLE SOUTH, CLEARWATER, FL, 33755","Match","Exact","1212 SEDEEVA CIR S, CLEARWATER, FL, 33755",647877292,"L"
37187,"1212 SINGLETON BLVD","DALLAS","TX",75212,32.7785308630001,-96.841102615,187,"1212 SINGLETON BLVD, DALLAS, TX, 75212","Match","Exact","1212 SINGLETON BLVD, DALLAS, TX, 75212",102905339,"L"
37188,"1212 THORNBURY LANE","SAN JOSE","CA",95138,37.290115434,-121.806775275,188,"1212 THORNBURY LANE, SAN JOSE, CA, 95138","Match","Exact","1212 THORNBURY LN, SAN JOSE, CA, 95138",618191652,"R"
37189,"1212 TRADITION LANE","UPLAD","CA",91786,34.0892294760001,-117.63531248,189,"1212 TRADITION LANE, UPLAD, CA, 91786","Match","Non_Exact","1212 TRADITION LN, UPLAND, CA, 91786",144990528,"L"
37190,"1212 TRAILWATER STREET","RUSKIN","FL",33570,27.7291598900001,-82.406948087,190,"1212 TRAILWATER STREET, RUSKIN, FL, 33570","Match","Exact","1212 TRAILWATER ST, RUSKIN, FL, 33570",646593427,"R"
37191,"1212 UTOY SPRINGS RD  11","ATLANTA","GA",30331,33.721912032,-84.507168275,191,"1212 UTOY SPRINGS RD  11, ATLANTA, GA, 30331","Match","Non_Exact","1212 UTOY SPRINGS RD SW, ATLANTA, GA, 30331",643273998,"L"
37192,"1212 W 107TH STREET    SUITE 13","LOS ANGELES","CA",90044,33.938835237,-118.296714441,192,"1212 W 107TH STREET    SUITE 13, LOS ANGELES, CA, 90044","Match","Non_Exact","1212 W 107TH ST, LOS ANGELES, CA, 90044",142753847,"L"
37193,"1212 W 400 N","LEHI","UT",84043,40.392550369,-111.868357083,193,"1212 W 400 N, LEHI, UT, 84043","Match","Exact","1212 W 400 N, LEHI, UT, 84043",227059072,"L"
37194,"1212 W ASH","JUNCTION CITY","KS",66441,39.0154214450001,-96.850000413,194,"1212 W ASH, JUNCTION CITY, KS, 66441","Match","Non_Exact","1212 W ASH ST, JUNCTION CITY, KS, 66441",28397072,"R"
37195,"1212 W BELT LINE RD","CEDAR HILL","TX",75104,32.5902655100001,-96.966654644,195,"1212 W BELT LINE RD, CEDAR HILL, TX, 75104","Match","Exact","1212 W BELT LINE RD, CEDAR HILL, TX, 75104",103185620,"L"
37196,"1212 W GARDENA BLVD STE F","GARDENA","CA",90247,33.881460744,-118.295825231,196,"1212 W GARDENA BLVD STE F, GARDENA, CA, 90247","Match","Non_Exact","1212 W GARDENA BLVD, GARDENA, CA, 90247",142758031,"L"
37197,"1212 W KIRKWOOD AVE","BLOOMINGTON","IN",47404,39.1667086300001,-86.54863987,197,"1212 W KIRKWOOD AVE, BLOOMINGTON, IN, 47404","Match","Exact","1212 W KIRKWOOD AVE, BLOOMINGTON, IN, 47404",42322422,"R"
37198,"1212 WELLER AVE","LOUISVILLE","KY",40208,38.210497649,-85.775794746,198,"1212 WELLER AVE, LOUISVILLE, KY, 40208","Match","Exact","1212 WELLER AVE, LOUISVILLE, KY, 40208",96844213,"L"
37199,"1212 WHISPERWOOD DRIVE","MONTGOMERY","AL",36117,32.406988975,-86.1988991759999,199,"1212 WHISPERWOOD DRIVE, MONTGOMERY, AL, 36117","Match","Exact","1212 WHISPERWOOD DR, MONTGOMERY, AL, 36117",1546878,"L"
37200,"1212 WILMUTH ST","BOGALUSA","LA",70427,30.800003174,-89.8725935749999,200,"1212 WILMUTH ST, BOGALUSA, LA, 70427","Match","Exact","1212 WILMUTH ST, BOGALUSA, LA, 70427",82461687,"R"
37201,"1212 WINDING WAY DRIVE","FRIENDSWOOD","TX",77546,29.517126929,-95.192260651,201,"1212 WINDING WAY DRIVE, FRIENDSWOOD, TX, 77546","Match","Non_Exact","1212 W WINDING WAY DR, FRIENDSWOOD, TX, 77546",96702133,"L"
37202,"1212","MAYS LANDING","NJ",8330,NA,NA,202,"1212, MAYS LANDING, NJ, 8330","No_Match",NA,NA,NA,NA
37203,"1212","NAPLES","FL",34102,NA,NA,203,"1212, NAPLES, FL, 34102","No_Match",NA,NA,NA,NA
37204,"12120 ARCOLA ST","LIVONIA","MI",48150,42.373507175,-83.3148816409999,204,"12120 ARCOLA ST, LIVONIA, MI, 48150","Match","Exact","12120 ARCOLA ST, LIVONIA, MI, 48150",95427427,"R"
37205,"12120 CANDELARIA RD NE","ALBUQUERQUE","NM",87112,35.116125347,-106.504082706,205,"12120 CANDELARIA RD NE, ALBUQUERQUE, NM, 87112","Match","Exact","12120 CANDELARIA RD NE, ALBUQUERQUE, NM, 87112",635787718,"R"
37206,"12120 CHANCERY STATION CIRCLE","RESTON","VA",20190,38.9600003400001,-77.364250649,206,"12120 CHANCERY STATION CIRCLE, RESTON, VA, 20190","Match","Exact","12120 CHANCERY STATION CIR, RESTON, VA, 20190",635444809,"L"
37207,"12120 MIDDLEFORK RD","AMANDA","OH",43102,39.5665017000001,-82.712804332,207,"12120 MIDDLEFORK RD, AMANDA, OH, 43102","Match","Exact","12120 MIDDLEFORK RD, AMANDA, OH, 43102",642795390,"R"
37208,"12120 NORINO DRIVE","WHITTIER","CA",90601,33.9955532330001,-118.047287007,208,"12120 NORINO DRIVE, WHITTIER, CA, 90601","Match","Exact","12120 NORINO DR, WHITTIER, CA, 90601",141747160,"R"
37209,"12120 SW 80 STREET","MIAMI","FL",33183,25.693461961,-80.389615613,209,"12120 SW 80 STREET, MIAMI, FL, 33183","Match","Exact","12120 SW 80TH ST, MIAMI, FL, 33183",647898705,"L"
37210,"12121 BLUE RIDGE BLVD STE X","GRANDVIEW","MO",64030,NA,NA,210,"12121 BLUE RIDGE BLVD STE X, GRANDVIEW, MO, 64030","No_Match",NA,NA,NA,NA
37211,"12121 PINE ST","NORWALK","CA",90650,33.905182439,-118.075133958,211,"12121 PINE ST, NORWALK, CA, 90650","Match","Exact","12121 PINE ST, NORWALK, CA, 90650",141741899,"L"
37212,"12121 SKIMMER AVENUE","WEEKI WACHEE","FL",34614,28.6527796820001,-82.527087837,212,"12121 SKIMMER AVENUE, WEEKI WACHEE, FL, 34614","Match","Exact","12121 SKIMMER AVE, WEEKI WACHEE, FL, 34614",85450658,"L"
37213,"12121 WILSHIRE BLVD STE 525","LOS ANGELES","CA",90025,34.0439377980001,-118.467685519,213,"12121 WILSHIRE BLVD STE 525, LOS ANGELES, CA, 90025","Match","Exact","12121 WILSHIRE BLVD, LOS ANGELES, CA, 90025",141568131,"R"
37214,"12122 BAY OAKS COURT","PARKER","CO",80138,39.496460981,-104.722321334,214,"12122 BAY OAKS COURT, PARKER, CO, 80138","Match","Exact","12122 BAY OAKS CT, PARKER, CO, 80138",634199647,"L"
37215,"12122 BUTTONWOOD LN","MIDDLE RIVER","MD",21220,39.3623790550001,-76.432975095,215,"12122 BUTTONWOOD LN, MIDDLE RIVER, MD, 21220","Match","Exact","12122 BUTTONWOOD LN, MIDDLE RIVER, MD, 21220",191481545,"L"
37216,"12122 S BISHOP STREET","CHICAGO","IL",60643,41.673475624,-87.657608812,216,"12122 S BISHOP STREET, CHICAGO, IL, 60643","Match","Exact","12122 S BISHOP ST, CHICAGO, IL, 60643",111826663,"R"
37217,"12122 S PLAYER DR","SPOKANE","WA",99223,47.5435154130001,-117.373574565,217,"12122 S PLAYER DR, SPOKANE, WA, 99223","Match","Exact","12122 S PLAYER DR, SPOKANE, WA, 99223",189859140,"R"
37218,"12122 SAPHIRE RIVER","SAN ANTONIO","TX",78245,NA,NA,218,"12122 SAPHIRE RIVER, SAN ANTONIO, TX, 78245","No_Match",NA,NA,NA,NA
37219,"12122 TREE HAVEN AVE","GIBSONTON","FL",33534,27.8240800520001,-82.373563089,219,"12122 TREE HAVEN AVE, GIBSONTON, FL, 33534","Match","Exact","12122 TREE HAVEN AVE, GIBSONTON, FL, 33534",640028248,"R"
37220,"12123 41V ST NW","WATFORD CITY","ND",58854,48.0214384160001,-103.18476299,220,"12123 41V ST NW, WATFORD CITY, ND, 58854","Match","Non_Exact","12123 41 V ST NW, WATFORD CITY, ND, 58854",649010910,"R"
37221,"12123 MONTICETO LN","MEADOWS PLACE","TX",77477,29.656449867,-95.590781422,221,"12123 MONTICETO LN, MEADOWS PLACE, TX, 77477","Match","Exact","12123 MONTICETO LN, MEADOWS PLACE, TX, 77477",78276016,"R"
37222,"12123 NE 173RD DR","BOTHELL","WA",98011,47.753886972,-122.178142425,222,"12123 NE 173RD DR, BOTHELL, WA, 98011","Match","Exact","12123 NE 173RD DR, BOTHELL, WA, 98011",650842929,"L"
37223,"12123 S WENTWORTH AVE","CHICAGO","IL",60628,41.6737688330001,-87.627333005,223,"12123 S WENTWORTH AVE, CHICAGO, IL, 60628","Match","Exact","12123 S WENTWORTH AVE, CHICAGO, IL, 60628",111834834,"L"
37224,"12123 SHELBYVILLE RD STE 100 - 140","LOUISVILLE","KY",40243,38.247246316,-85.528182763,224,"12123 SHELBYVILLE RD STE 100 - 140, LOUISVILLE, KY, 40243","Match","Exact","12123 SHELBYVILLE RD, LOUISVILLE, KY, 40243",96885615,"L"
37225,"12123 SHELBYVILLE RD STE 100-117","LOUISVILLE","KY",40243,38.247246316,-85.528182763,225,"12123 SHELBYVILLE RD STE 100-117, LOUISVILLE, KY, 40243","Match","Exact","12123 SHELBYVILLE RD, LOUISVILLE, KY, 40243",96885615,"L"
37226,"12123 SHELBYVILLE ROAD BOX 100","LOUISVILLE","KY",40243,38.247246316,-85.528182763,226,"12123 SHELBYVILLE ROAD BOX 100, LOUISVILLE, KY, 40243","Match","Exact","12123 SHELBYVILLE RD, LOUISVILLE, KY, 40243",96885615,"L"
37227,"12123 TAYLORCREST RD","HOUSTON","TX",77024,29.7732623900001,-95.540739921,227,"12123 TAYLORCREST RD, HOUSTON, TX, 77024","Match","Exact","12123 TAYLORCREST RD, HOUSTON, TX, 77024",96023098,"L"
37228,"12124 CHANNEL POINT DRIVE","KNOXVILLE","TN",37922,35.8107895150001,-84.145605388,228,"12124 CHANNEL POINT DRIVE, KNOXVILLE, TN, 37922","Match","Exact","12124 CHANNEL POINT DR, KNOXVILLE, TN, 37922",42634233,"R"
37229,"12124 COUNTY ROAD 3650","ADA","OK",74820,NA,NA,229,"12124 COUNTY ROAD 3650, ADA, OK, 74820","No_Match",NA,NA,NA,NA
37230,"12124 FM 391","HEARNE","TX",77859,30.882963601,-96.5757709969999,230,"12124 FM 391, HEARNE, TX, 77859","Match","Exact","12124 FM 391, HEARNE, TX, 77859",649895194,"L"
37231,"12124 N OAK HILLS PKWY","BATON ROUGE","LA",70810,30.363937767,-91.087745709,231,"12124 N OAK HILLS PKWY, BATON ROUGE, LA, 70810","Match","Exact","12124 N OAK HILLS PKWY, BATON ROUGE, LA, 70810",92202807,"R"
37232,"12124 ROESTA LANE NW","BALTIMORE","OH",43105,39.9072466040001,-82.6921955669999,232,"12124 ROESTA LANE NW, BALTIMORE, OH, 43105","Match","Exact","12124 ROESTA LN NW, BALTIMORE, OH, 43105",37215493,"R"
37233,"12124 WILDBROOK DRIVE","RIVERVIEW","FL",33569,27.8505318150001,-82.2936107039999,233,"12124 WILDBROOK DRIVE, RIVERVIEW, FL, 33569","Match","Exact","12124 WILDBROOK DR, RIVERVIEW, FL, 33569",104565204,"L"
37234,"12125 145TH LANE","LARGO","FL",33774,27.883031913,-82.840034739,234,"12125 145TH LANE, LARGO, FL, 33774","Match","Non_Exact","12125 145TH LN N, LARGO, FL, 33774",124672149,"R"
37235,"12125 BROOKWAY DR","CINCINNATI","OH",45240,NA,NA,235,"12125 BROOKWAY DR, CINCINNATI, OH, 45240","No_Match",NA,NA,NA,NA
37236,"12125 DAY STREET SUITE T-103","MORENO VALLEY","CA",92557,33.9454923000001,-117.278964318,236,"12125 DAY STREET SUITE T-103, MORENO VALLEY, CA, 92557","Match","Exact","12125 DAY ST, MORENO VALLEY, CA, 92557",194747095,"R"
37237,"12125 DAY STREET SUITE U101","MORENO VALLEY","CA",92557,33.9454923000001,-117.278964318,237,"12125 DAY STREET SUITE U101, MORENO VALLEY, CA, 92557","Match","Exact","12125 DAY ST, MORENO VALLEY, CA, 92557",194747095,"R"
37238,"12125 E 65TH ST SUITE 36907","INDIANAPOLIS","IN",46236,NA,NA,238,"12125 E 65TH ST SUITE 36907, INDIANAPOLIS, IN, 46236","No_Match",NA,NA,NA,NA
37239,"12125 E VIA LINDA","SCOTTSDALE","AZ",85259,33.5896878460001,-111.829178836,239,"12125 E VIA LINDA, SCOTTSDALE, AZ, 85259","Match","Exact","12125 E VIA LINDA, SCOTTSDALE, AZ, 85259",128958259,"R"
37240,"12125 EAST 65TH STREET - 36105","INDIANAPOLIS","IN",46236,39.8769118550001,-85.951093419,240,"12125 EAST 65TH STREET - 36105, INDIANAPOLIS, IN, 46236","Match","Non_Exact","12125 E 65TH ST, INDIANAPOLIS, IN, 46235",108031632,"R"
37241,"12125 KALLGREN RD","BAINBRIDGE ISLAND","WA",98110,47.673071888,-122.515686962,241,"12125 KALLGREN RD, BAINBRIDGE ISLAND, WA, 98110","Match","Non_Exact","12125 KALLGREN RD NE, BAINBRIDGE ISLAND, WA, 98110",187651302,"L"
37242,"12125 LAKE MEADE CT","SAINT LOUIS","MO",63146,38.6847868950001,-90.4454728699999,242,"12125 LAKE MEADE CT, SAINT LOUIS, MO, 63146","Match","Exact","12125 LAKE MEADE CT, SAINT LOUIS, MO, 63146",100124321,"L"
37243,"12125 MONTCLAIR BEND","AUSTIN","TX",78732,30.3422816930001,-97.907757261,243,"12125 MONTCLAIR BEND, AUSTIN, TX, 78732","Match","Exact","12125 MONTCLAIR BEND, AUSTIN, TX, 78732",624864077,"R"
37244,"12125 NEW BERLIN ROAD","JACKSONVILLE","FL",32226,30.4577323140001,-81.5587439719999,244,"12125 NEW BERLIN ROAD, JACKSONVILLE, FL, 32226","Match","Exact","12125 NEW BERLIN RD, JACKSONVILLE, FL, 32226",641069494,"R"
37245,"12125 PINECREST ROAD","RESTON","VA",20191,38.9420336580001,-77.366069092,245,"12125 PINECREST ROAD, RESTON, VA, 20191","Match","Exact","12125 PINECREST RD, RESTON, VA, 20191",75957553,"L"
37246,"12125 SAN JOSE BLVD","JACKSONVILLE","FL",32223,30.149302909,-81.632605115,246,"12125 SAN JOSE BLVD, JACKSONVILLE, FL, 32223","Match","Exact","12125 SAN JOSE BLVD, JACKSONVILLE, FL, 32223",83918300,"L"
37247,"12125 SE 38TH AVE","PORTLAND","OR",97222,45.4353020130001,-122.623750388,247,"12125 SE 38TH AVE, PORTLAND, OR, 97222","Match","Exact","12125 SE 38TH AVE, PORTLAND, OR, 97222",157915007,"R"
37248,"12125 WINDSOR HALL WAY","HERNDON","VA",20170,39.0097456130001,-77.365568191,248,"12125 WINDSOR HALL WAY, HERNDON, VA, 20170","Match","Exact","12125 WINDSOR HALL WAY, HERNDON, VA, 20170",215924865,"R"
37249,"12126 MORGAN ROAD","REEDSVILLE","WI",54230,44.1047089890001,-87.833752281,249,"12126 MORGAN ROAD, REEDSVILLE, WI, 54230","Match","Exact","12126 MORGAN RD, REEDSVILLE, WI, 54230",147973685,"R"
37250,"12127 LONGVIEW STREET","DETROIT","MI",48213,42.4051084070001,-82.986278689,250,"12127 LONGVIEW STREET, DETROIT, MI, 48213","Match","Exact","12127 LONGVIEW ST, DETROIT, MI, 48213",95468459,"L"
37251,"12127 MALL BLVD A454","VICTORVILLE","CA",92392,34.471980032,-117.351003788,251,"12127 MALL BLVD A454, VICTORVILLE, CA, 92392","Match","Exact","12127 MALL BLVD, VICTORVILLE, CA, 92392",614841421,"R"
37252,"12127 MALL BLVD STE A 405","VICTORVILLE","CA",92392,34.471980032,-117.351003788,252,"12127 MALL BLVD STE A 405, VICTORVILLE, CA, 92392","Match","Exact","12127 MALL BLVD, VICTORVILLE, CA, 92392",614841421,"R"
37253,"12127 MALL BLVD SUITE A","VICTORVILLE","CA",92392,34.471980032,-117.351003788,253,"12127 MALL BLVD SUITE A, VICTORVILLE, CA, 92392","Match","Exact","12127 MALL BLVD, VICTORVILLE, CA, 92392",614841421,"R"
37254,"12127 RAGWEED STREET","SAN DIEGO","CA",92129,32.940657888,-117.145152284,254,"12127 RAGWEED STREET, SAN DIEGO, CA, 92129","Match","Exact","12127 RAGWEED ST, SAN DIEGO, CA, 92129",195391068,"L"
37255,"12128 SE DEERFIELD DR","HAPPY VALLEY","OR",97086,45.43544596,-122.531195328,255,"12128 SE DEERFIELD DR, HAPPY VALLEY, OR, 97086","Match","Exact","12128 SE DEERFIELD DR, HAPPY VALLEY, OR, 97086",157944393,"R"
37256,"12129 ARAGON AVE","ST.LOUIS","MO",63138,38.79001363,-90.189876107,256,"12129 ARAGON AVE, ST.LOUIS, MO, 63138","Match","Exact","12129 ARAGON AVE, SAINT LOUIS, MO, 63138",100150912,"L"
37257,"12129 GLEN GARY CIRCLE","HENRICO","VA",23233,37.639133413,-77.626544342,257,"12129 GLEN GARY CIRCLE, HENRICO, VA, 23233","Match","Exact","12129 GLEN GARY CIR, HENRICO, VA, 23233",106683165,"L"
37258,"12129 THICKRTGREEN LN 948","HOUSTON","TX",77035,NA,NA,258,"12129 THICKRTGREEN LN 948, HOUSTON, TX, 77035","No_Match",NA,NA,NA,NA
37259,"12129 VIEWCREST RD","STUDIO CITY","CA",91604,34.1389902510001,-118.396684333,259,"12129 VIEWCREST RD, STUDIO CITY, CA, 91604","Match","Exact","12129 VIEWCREST RD, STUDIO CITY, CA, 91604",141565794,"R"
37260,"1212H EL CAMINO REAL SUITE 642","SAN BRUNO","CA",94066,37.6372306380001,-122.421458487,260,"1212H EL CAMINO REAL SUITE 642, SAN BRUNO, CA, 94066","Match","Non_Exact","1212 S EL CAMINO REAL, SAN BRUNO, CA, 94066",192372460,"R"
37261,"1213 14TH STREET LOT 9","KEY WEST","FL",33040,24.5673341,-81.76628393,261,"1213 14TH STREET LOT 9, KEY WEST, FL, 33040","Match","Exact","1213 14TH ST, KEY WEST, FL, 33040",612452592,"L"
37262,"1213 23RD ST","MANDAN","ND",58554,46.8035374250001,-100.875530392,262,"1213 23RD ST, MANDAN, ND, 58554","Match","Non_Exact","1213 23RD ST SE, MANDAN, ND, 58554",199014961,"R"
37263,"1213 23RD STREET","MANISTEE","MI",49660,44.224333545,-86.306179594,263,"1213 23RD STREET, MANISTEE, MI, 49660","Match","Exact","1213 23RD ST, MANISTEE, MI, 49660",146023434,"L"
37264,"1213 24TH ST","AMES","IA",50010,42.045659759,-93.626391408,264,"1213 24TH ST, AMES, IA, 50010","Match","Exact","1213 24TH ST, AMES, IA, 50010",647644988,"R"
37265,"1213 ALHAMBRA WAY S","ST. PETERSBURG","FL",33705,27.7232562720001,-82.650820053,265,"1213 ALHAMBRA WAY S, ST. PETERSBURG, FL, 33705","Match","Exact","1213 ALHAMBRA WAY S, SAINT PETERSBURG, FL, 33705",124711490,"R"
37266,"1213 ANGUS TRAIL","LEXINGTON","KY",40509,38.0031392970001,-84.395560281,266,"1213 ANGUS TRAIL, LEXINGTON, KY, 40509","Match","Exact","1213 ANGUS TRL, LEXINGTON, KY, 40509",618013008,"L"
37267,"1213 AVE STE F41","BROOKLYN","NY",11235,NA,NA,267,"1213 AVE STE F41, BROOKLYN, NY, 11235","No_Match",NA,NA,NA,NA
37268,"1213 BELLEHAVEN ST","SALINAS","CA",93905,36.680891882,-121.614248072,268,"1213 BELLEHAVEN ST, SALINAS, CA, 93905","Match","Exact","1213 BELLEHAVEN ST, SALINAS, CA, 93905",196824273,"L"
37269,"1213 BRIAR HOLLOW LN","GARLAND","TX",75043,32.872048939,-96.609754401,269,"1213 BRIAR HOLLOW LN, GARLAND, TX, 75043","Match","Exact","1213 BRIAR HOLLOW LN, GARLAND, TX, 75043",103206033,"L"
37270,"1213 BROOKSTONE WAY","AUGUSTA","GA",30909,33.4721191260001,-82.0926786539999,270,"1213 BROOKSTONE WAY, AUGUSTA, GA, 30909","Match","Exact","1213 BROOKSTONE WAY, AUGUSTA, GA, 30909",619884663,"L"
37271,"1213 CANDLENUT","DESOTO","TX",75115,32.570283219,-96.871144106,271,"1213 CANDLENUT, DESOTO, TX, 75115","Match","Non_Exact","1213 CANDLENUT CT, DESOTO, TX, 75115",102995228,"L"
37272,"1213 CLOVER HILL LANE","DESOTO","TX",75115,32.576686124,-96.889379592,272,"1213 CLOVER HILL LANE, DESOTO, TX, 75115","Match","Non_Exact","1213 CLOVERHILL LN, DESOTO, TX, 75115",103277878,"L"
37273,"1213 COPPERSMITH DR","HARTSVILLE","SC",29550,34.405840294,-80.035576082,273,"1213 COPPERSMITH DR, HARTSVILLE, SC, 29550","Match","Exact","1213 COPPERSMITH DR, HARTSVILLE, SC, 29550",78391030,"R"
37274,"1213 COUNTY RD 28","SHORTSVILLE","NY",14548,42.9743484040001,-77.276984564,274,"1213 COUNTY RD 28, SHORTSVILLE, NY, 14548","Match","Exact","1213 CO RD 28, SHORTSVILLE, NY, 14548",13472249,"R"
37275,"1213 COVENTRY STREET","AKRON","OH",44306,41.048005677,-81.504839671,275,"1213 COVENTRY STREET, AKRON, OH, 44306","Match","Exact","1213 COVENTRY ST, AKRON, OH, 44306",61353236,"L"
37276,"1213 CRESCENT DR","SMITHFIELD","VA",23430,36.9717109630001,-76.613502706,276,"1213 CRESCENT DR, SMITHFIELD, VA, 23430","Match","Exact","1213 CRESCENT DR, SMITHFIELD, VA, 23430",198635224,"R"
37277,"1213 DAVIDSON ROAD","CLEWISTON","FL",33440,26.7398735940001,-80.915364256,277,"1213 DAVIDSON ROAD, CLEWISTON, FL, 33440","Match","Exact","1213 DAVIDSON RD, CLEWISTON, FL, 33440",4514125,"L"
37278,"1213 DHU VARREN ROAD","ANN ARBOR","MI",48105,42.3161178490001,-83.7350901469999,278,"1213 DHU VARREN ROAD, ANN ARBOR, MI, 48105","Match","Exact","1213 DHU VARREN RD, ANN ARBOR, MI, 48105",26013441,"L"
37279,"1213 DOLSONTOWN RD","MIDDLETOWN","NY",10940,41.4245579700001,-74.4090652249999,279,"1213 DOLSONTOWN RD, MIDDLETOWN, NY, 10940","Match","Exact","1213 DOLSONTOWN RD, MIDDLETOWN, NY, 10940",124388972,"L"
37280,"1213 E  HOUSTON  2224","CLEVELAND","TX",77327,NA,NA,280,"1213 E  HOUSTON  2224, CLEVELAND, TX, 77327","No_Match",NA,NA,NA,NA
37281,"1213 E ATLANTIC BLVD","POMPANO BEACH","FL",33060,26.231748248,-80.111445524,281,"1213 E ATLANTIC BLVD, POMPANO BEACH, FL, 33060","Match","Exact","1213 E ATLANTIC BLVD, POMPANO BEACH, FL, 33060",114695466,"L"
37282,"1213 E OVERLAND","EL PASO","TX",79901,31.760295754,-106.476717057,282,"1213 E OVERLAND, EL PASO, TX, 79901","Match","Non_Exact","1213 E OVERLAND AVE, EL PASO, TX, 79901",189342193,"L"
37283,"1213 ERICSSON AVE","AKRON","OH",44306,41.0346436020001,-81.4859480819999,283,"1213 ERICSSON AVE, AKRON, OH, 44306","Match","Exact","1213 ERICSSON AVE, AKRON, OH, 44306",61354009,"L"
37284,"1213 ERIE AVENUE","NORMAN","OK",73071,35.233004566,-97.418234937,284,"1213 ERIE AVENUE, NORMAN, OK, 73071","Match","Exact","1213 ERIE AVE, NORMAN, OK, 73071",99909284,"R"
37285,"1213 GILMORE AVE SUITE B-10","GOODVIEW","MN",55987,44.0486545090001,-91.671705795,285,"1213 GILMORE AVE SUITE B-10, GOODVIEW, MN, 55987","Match","Exact","1213 GILMORE AVE, GOODVIEW, MN, 55987",31663989,"L"
37286,"1213 GREEN ISLAND DRIVE NE","PALM BAY","FL",32905,NA,NA,286,"1213 GREEN ISLAND DRIVE NE, PALM BAY, FL, 32905","No_Match",NA,NA,NA,NA
37287,"1213 GREENSBORO RD","HIGH POINT","NC",27260,35.988763068,-79.961890302,287,"1213 GREENSBORO RD, HIGH POINT, NC, 27260","Match","Exact","1213 GREENSBORO RD, HIGH POINT, NC, 27260",131042760,"L"
37288,"1213 HAZEL STREET","CHARLOTTESVILLE","VA",22902,38.034119393,-78.465739183,288,"1213 HAZEL STREET, CHARLOTTESVILLE, VA, 22902","Match","Exact","1213 HAZEL ST, CHARLOTTESVILLE, VA, 22902",83371120,"L"
37289,"1213 HIGHLAND DRIVE","FAIRFIELD","AL",35064,33.4604930720001,-86.930775932,289,"1213 HIGHLAND DRIVE, FAIRFIELD, AL, 35064","Match","Exact","1213 HIGHLAND DR, FAIRFIELD, AL, 35064",81556050,"R"
37290,"1213 JASMINE ST","CALEXICO","CA",92231,32.6819840410001,-115.476094813,290,"1213 JASMINE ST, CALEXICO, CA, 92231","Match","Exact","1213 JASMINE ST, CALEXICO, CA, 92231",194530182,"L"
37291,"1213 JOLIET ST SUITE A","WEST CHICAGO","IL",60185,41.8665459220001,-88.204606129,291,"1213 JOLIET ST SUITE A, WEST CHICAGO, IL, 60185","Match","Exact","1213 JOLIET ST, WEST CHICAGO, IL, 60185",112525504,"L"
37292,"1213 LIBERTY RD STE 186","CARROLL","MD",21784,39.405327119,-76.9550900949999,292,"1213 LIBERTY RD STE 186, CARROLL, MD, 21784","Match","Non_Exact","1213 LIBERTY RD, SYKESVILLE, MD, 21784",640540025,"R"
37293,"1213 LILLIAN DRIVE","MODESTO","CA",95355,37.660747821,-120.932522428,293,"1213 LILLIAN DRIVE, MODESTO, CA, 95355","Match","Exact","1213 LILLIAN DR, MODESTO, CA, 95355",102606889,"L"
37294,"1213 LING WAY","AUSTELL","GA",30168,33.783349211,-84.594435673,294,"1213 LING WAY, AUSTELL, GA, 30168","Match","Exact","1213 LING WAY, AUSTELL, GA, 30168",17267293,"R"
37295,"1213 LITTLE RIVER DRIVE","ELIZABETH CITY","NC",27909,36.164797944,-76.229722694,295,"1213 LITTLE RIVER DRIVE, ELIZABETH CITY, NC, 27909","Match","Exact","1213 LITTLE RIVER DR, ELIZABETH CITY, NC, 27909",18596625,"L"
37296,"1213 MARIGOLD DR NE","ALBUQUERQUE","NM",87122,35.1631219930001,-106.492721823,296,"1213 MARIGOLD DR NE, ALBUQUERQUE, NM, 87122","Match","Exact","1213 MARIGOLD DR NE, ALBUQUERQUE, NM, 87122",206759149,"R"
37297,"1213 MEADOW CREEK APARTMENT H","IRVING","TX",75038,32.882139991,-96.9690742349999,297,"1213 MEADOW CREEK APARTMENT H, IRVING, TX, 75038","Match","Non_Exact","1213 MEADOW CREEK DR, IRVING, TX, 75038",651642351,"L"
37298,"1213 MOHLER ST","PITTSBURGH","PA",15208,40.4593933420001,-79.8868329919999,298,"1213 MOHLER ST, PITTSBURGH, PA, 15208","Match","Exact","1213 MOHLER ST, PITTSBURGH, PA, 15208",641871642,"L"
37299,"1213 MONROE DRIVE","GASTONIA","NC",28054,35.2477220810001,-81.16661644,299,"1213 MONROE DRIVE, GASTONIA, NC, 28054","Match","Exact","1213 MONROE DR, GASTONIA, NC, 28054",70380494,"R"
37300,"1213 N APPLETON ST","APPLETON","WI",54911,44.272263826,-88.407264098,300,"1213 N APPLETON ST, APPLETON, WI, 54911","Match","Exact","1213 N APPLETON ST, APPLETON, WI, 54911",74920395,"L"
37301,"1213 N HARDIN RD","ADA","OH",45810,40.757116382,-83.879919929,301,"1213 N HARDIN RD, ADA, OH, 45810","Match","Exact","1213 N HARDIN RD, ADA, OH, 45810",36532150,"R"
37302,"1213 NEPTUNE DR","CEDAR HILL","TX",75104,32.565231856,-96.944384425,302,"1213 NEPTUNE DR, CEDAR HILL, TX, 75104","Match","Exact","1213 NEPTUNE DR, CEDAR HILL, TX, 75104",102942807,"L"
37303,"1213 NERMANN DR  SUITE 140","HOUSTON","TX",77004,NA,NA,303,"1213 NERMANN DR  SUITE 140, HOUSTON, TX, 77004","No_Match",NA,NA,NA,NA
37304,"1213 OAK LEAF COURT","CRETE","IL",60417,41.44903951,-87.618690556,304,"1213 OAK LEAF COURT, CRETE, IL, 60417","Match","Exact","1213 OAK LEAF CT, CRETE, IL, 60417",111589206,"R"
37305,"1213 OAKHURST DR","JACKSONVILLE","AR",72076,34.8778592,-92.120904093,305,"1213 OAKHURST DR, JACKSONVILLE, AR, 72076","Match","Exact","1213 OAKHURST DR, JACKSONVILLE, AR, 72076",83518883,"L"
37306,"1213 OLD HARSHMAN RD","RIVERSIDE","OH",45431,NA,NA,306,"1213 OLD HARSHMAN RD, RIVERSIDE, OH, 45431","Tie",NA,NA,NA,NA
37307,"1213 PETTIGREW CT","CEDAR HILL","TX",75104,32.5660962320001,-96.953214861,307,"1213 PETTIGREW CT, CEDAR HILL, TX, 75104","Match","Exact","1213 PETTIGREW CT, CEDAR HILL, TX, 75104",102998893,"R"
37308,"1213 PURCHASE ST STE 231B","NEW BEDFORD","MA",2740,41.6422009720001,-70.9272128919999,308,"1213 PURCHASE ST STE 231B, NEW BEDFORD, MA, 2740","Match","Exact","1213 PURCHASE ST, NEW BEDFORD, MA, 02740",46753225,"L"
37309,"1213 RAILROAD DRIVE","MCKINLEYVILLE","CA",95519,40.9443180910001,-124.110062478,309,"1213 RAILROAD DRIVE, MCKINLEYVILLE, CA, 95519","Match","Exact","1213 RAILROAD DR, MCKINLEYVILLE, CA, 95519",113045826,"L"
37310,"1213 RED BANKS D4","GREENVILLE","NC",27858,35.584592109,-77.357703535,310,"1213 RED BANKS D4, GREENVILLE, NC, 27858","Match","Non_Exact","1213 RED BANKS RD, GREENVILLE, NC, 27858",80012073,"L"
37311,"1213 ROBIN ST","KNOXVILLE","IA",50138,41.3286363070001,-93.1136469319999,311,"1213 ROBIN ST, KNOXVILLE, IA, 50138","Match","Exact","1213 ROBIN ST, KNOXVILLE, IA, 50138",89479253,"L"
37312,"1213 ROLLING CREEK DR NE","CEDAR RAPIDS","IA",52402,42.0448706830001,-91.65275474,312,"1213 ROLLING CREEK DR NE, CEDAR RAPIDS, IA, 52402","Match","Exact","1213 ROLLING CREEK DR NE, CEDAR RAPIDS, IA, 52402",17044939,"L"
37313,"1213 S 17TH AVENUE","MAYWOOD","IL",60153,41.8760330790001,-87.8535158339999,313,"1213 S 17TH AVENUE, MAYWOOD, IL, 60153","Match","Exact","1213 S 17TH AVE, MAYWOOD, IL, 60153",111754329,"L"
37314,"1213 S DAKOTA ST","MILBANK","SD",57252,45.2081285360001,-96.640726977,314,"1213 S DAKOTA ST, MILBANK, SD, 57252","Match","Exact","1213 SOUTH DAKOTA ST, MILBANK, SD, 57252",173697295,"R"
37315,"1213 SCOTT DRIVE","HURST","TX",76053,32.832582872,-97.188302522,315,"1213 SCOTT DRIVE, HURST, TX, 76053","Match","Exact","1213 SCOTT DR, HURST, TX, 76053",642828422,"L"
37316,"1213 SE 36TH STREET","TOPEKA","KS",66605,39.0029243430001,-95.663071929,316,"1213 SE 36TH STREET, TOPEKA, KS, 66605","Match","Exact","1213 SE 36TH ST, TOPEKA, KS, 66605",17892442,"R"
37317,"1213 SHEPHERD AVE","WAVERLY","IA",50677,42.7368644040001,-92.487363429,317,"1213 SHEPHERD AVE, WAVERLY, IA, 50677","Match","Exact","1213 SHEPHERD AVE, WAVERLY, IA, 50677",77362866,"R"
37318,"1213 SOUTH 12TH STREET","PHILADELPHIA","PA",19147,39.9346207660001,-75.163639378,318,"1213 SOUTH 12TH STREET, PHILADELPHIA, PA, 19147","Match","Exact","1213 S 12TH ST, PHILADELPHIA, PA, 19147",131411929,"L"
37319,"1213 SOUTH 1ST STREET","CABOT","AR",72023,34.9641043770001,-92.026525377,319,"1213 SOUTH 1ST STREET, CABOT, AR, 72023","Match","Exact","1213 S 1ST ST, CABOT, AR, 72023",651413214,"R"
37320,"1213 SUMMERSIDE DRIVE","DESOTO","TX",75115,32.582921314,-96.887994,320,"1213 SUMMERSIDE DRIVE, DESOTO, TX, 75115","Match","Exact","1213 SUMMERSIDE DR, DESOTO, TX, 75115",103277730,"R"
37321,"1213 W 85TH CIR","MERRILLVILLE","IN",46410,41.4632320900001,-87.34825132,321,"1213 W 85TH CIR, MERRILLVILLE, IN, 46410","Match","Exact","1213 W 85TH CIR, MERRILLVILLE, IN, 46410",98447070,"L"
37322,"1213 WALTER JETTON BLVD","PADUCAH","KY",42003,37.0718342800001,-88.5982389329999,322,"1213 WALTER JETTON BLVD, PADUCAH, KY, 42003","Match","Exact","1213 WALTER JETTON BLVD, PADUCAH, KY, 42003",8397257,"L"
37323,"1213 WEST 4TH AVENUE","CORSICANA","TX",75110,32.0897245730001,-96.476314083,323,"1213 WEST 4TH AVENUE, CORSICANA, TX, 75110","Match","Exact","1213 W 4TH AVE, CORSICANA, TX, 75110",183883652,"R"
37324,"1213 WOODWARD AVE","GULFPORT","MS",39501,30.364675117,-89.119077126,324,"1213 WOODWARD AVE, GULFPORT, MS, 39501","Match","Exact","1213 WOODWARD AVE, GULFPORT, MS, 39501",111377243,"L"
37325,"1213 YUKON DR","GLENN HEIGHTS","TX",75154,32.5502736650001,-96.829430641,325,"1213 YUKON DR, GLENN HEIGHTS, TX, 75154","Match","Exact","1213 YUKON DR, GLENN HEIGHTS, TX, 75154",103278665,"L"
37326,"1213-55TH STREET","KENOSHA","WI",53140,NA,NA,326,"1213-55TH STREET, KENOSHA, WI, 53140","No_Match",NA,NA,NA,NA
37327,"12130 AUGUSTA WOOD CIR","ORLANDO","FL",32824,28.3875587650001,-81.3697481469999,327,"12130 AUGUSTA WOOD CIR, ORLANDO, FL, 32824","Match","Non_Exact","12130 AUGUSTA WOODS CIR, ORLANDO, FL, 32824",94321716,"R"
37328,"12130 CATALINA AVENUE","BATON ROUGE","LA",70814,30.4856032170001,-91.049357258,328,"12130 CATALINA AVENUE, BATON ROUGE, LA, 70814","Match","Exact","12130 CATALINA AVE, BATON ROUGE, LA, 70814",92190717,"R"
37329,"12130 DANCLIFF TRACE","ALPHARETTA","GA",30009,34.0738844570001,-84.2845238849999,329,"12130 DANCLIFF TRACE, ALPHARETTA, GA, 30009","Match","Exact","12130 DANCLIFF TRCE, ALPHARETTA, GA, 30009",618449428,"L"
37330,"12130 E 136TH ST S","BROKEN ARROW","OK",74011,35.966554984,-95.848209459,330,"12130 E 136TH ST S, BROKEN ARROW, OK, 74011","Match","Exact","12130 E 136TH ST S, BROKEN ARROW, OK, 74011",166505949,"R"
37331,"12130 JERSEY AVE","NORWALK","CA",90650,33.921381797,-118.086144578,331,"12130 JERSEY AVE, NORWALK, CA, 90650","Match","Exact","12130 JERSEY AVE, NORWALK, CA, 90650",141741193,"L"
37332,"12130 MIRROR LAKE DRIVE","SAINT LOUIS","MO",63146,38.6821384840001,-90.445752301,332,"12130 MIRROR LAKE DRIVE, SAINT LOUIS, MO, 63146","Match","Exact","12130 MIRROR LAKE DR, SAINT LOUIS, MO, 63146",100124327,"L"
37333,"12130 OLD RIVER SCHOOL APT 8","DOWNEY","CA",90242,NA,NA,333,"12130 OLD RIVER SCHOOL APT 8, DOWNEY, CA, 90242","No_Match",NA,NA,NA,NA
37334,"12131 BRITTANY LANE","STANTON","CA",90680,33.7866145850001,-117.987689256,334,"12131 BRITTANY LANE, STANTON, CA, 90680","Match","Exact","12131 BRITTANY LN, STANTON, CA, 90680",144015547,"R"
37335,"12131 FLORIDA BLVD D","BATON ROUGE","LA",70815,30.4608958110001,-91.046627394,335,"12131 FLORIDA BLVD D, BATON ROUGE, LA, 70815","Match","Exact","12131 FLORIDA BLVD, BATON ROUGE, LA, 70815",606165916,"L"
37336,"12131 FRANCIS","GRASS VALLEY","CA",95949,39.144884328,-121.047475013,336,"12131 FRANCIS, GRASS VALLEY, CA, 95949","Match","Non_Exact","12131 FRANCIS DR, GRASS VALLEY, CA, 95949",651443063,"R"
37337,"12131 MEREWOOD LANE","HOUSTON","TX",77071,29.64581608,-95.52931947,337,"12131 MEREWOOD LANE, HOUSTON, TX, 77071","Match","Exact","12131 MEREWOOD LN, HOUSTON, TX, 77071",96037283,"R"
37338,"12131 NE 75TH ST","KIRKLAND","WA",98033,47.6717718420001,-122.17786388,338,"12131 NE 75TH ST, KIRKLAND, WA, 98033","Match","Exact","12131 NE 75TH ST, KIRKLAND, WA, 98033",186997437,"R"
37339,"12131 S FM 219","DUBLIN","TX",76446,32.003520286,-98.270657569,339,"12131 S FM 219, DUBLIN, TX, 76446","Match","Exact","12131 FM 219, DUBLIN, TX, 76446",653203110,"R"
37340,"12131 W ROSEWOOD DRIVE","EL MIRAGE","AZ",85335,33.5991972670001,-112.321671115,340,"12131 W ROSEWOOD DRIVE, EL MIRAGE, AZ, 85335","Match","Exact","12131 W ROSEWOOD DR, EL MIRAGE, AZ, 85335",637440205,"L"
37341,"12132 AQUEDUCT RD","ST MARYS","OH",45885,40.526332827,-84.375540524,341,"12132 AQUEDUCT RD, ST MARYS, OH, 45885","Match","Exact","12132 AQUEDUCT RD, SAINT MARYS, OH, 45885",36452517,"R"
37342,"12132 CONANT","DETROIT","MI",48212,42.4078564380001,-83.056305086,342,"12132 CONANT, DETROIT, MI, 48212","Match","Non_Exact","12132 CONANT AVE, DETROIT, MI, 48212",95465092,"R"
37343,"12132 COUNTRY SIDE DRIVE","HARTLAND","MI",48353,42.640455135,-83.717883967,343,"12132 COUNTRY SIDE DRIVE, HARTLAND, MI, 48353","Match","Exact","12132 COUNTRY SIDE DR, HARTLAND, MI, 48353",23558796,"R"
37344,"12132 DOWNEY AVE 201","DOWNEY","CA",90242,33.928557713,-118.141347255,344,"12132 DOWNEY AVE 201, DOWNEY, CA, 90242","Match","Exact","12132 DOWNEY AVE, DOWNEY, CA, 90242",640121364,"L"
37345,"12132 FARNDON AVE","CHINO","CA",91710,34.0327322520001,-117.718891367,345,"12132 FARNDON AVE, CHINO, CA, 91710","Match","Exact","12132 FARNDON AVE, CHINO, CA, 91710",144670559,"R"
37346,"12132 MANOR WALK DR","GLEN ALLEN","VA",23059,37.663690219,-77.6158194129999,346,"12132 MANOR WALK DR, GLEN ALLEN, VA, 23059","Match","Exact","12132 MANOR WALK DR, GLEN ALLEN, VA, 23059",643021881,"L"
37347,"12133 BALSAM CIRCLE","GRANGER","IN",46530,41.738100967,-86.103118711,347,"12133 BALSAM CIRCLE, GRANGER, IN, 46530","Match","Exact","12133 BALSAM CIR, GRANGER, IN, 46530",8064338,"R"
37348,"12133 KIRKBROOK DRIVE","SARATOGA","CA",95070,37.2923476920001,-122.02701444,348,"12133 KIRKBROOK DRIVE, SARATOGA, CA, 95070","Match","Exact","12133 KIRKBROOK DR, SARATOGA, CA, 95070",122941018,"R"
37349,"12133 W IRONWOOD STREET","EL MIRAGE","AZ",85335,33.626986319,-112.321650277,349,"12133 W IRONWOOD STREET, EL MIRAGE, AZ, 85335","Match","Exact","12133 W IRONWOOD ST, EL MIRAGE, AZ, 85335",128877867,"R"
37350,"12133 W JESSIE CT","SUN CITY","AZ",85373,33.693151873,-112.322200544,350,"12133 W JESSIE CT, SUN CITY, AZ, 85373","Match","Exact","12133 W JESSIE CT, SUN CITY, AZ, 85373",244002085,"R"
37351,"12134 HUNTINGTON DRIVE","HOUSTON","TX",77099,NA,NA,351,"12134 HUNTINGTON DRIVE, HOUSTON, TX, 77099","No_Match",NA,NA,NA,NA
37352,"12134 LEMON CREST DR  UNIT 1","LAKESIDE","CA",92040,32.849623686,-116.930069803,352,"12134 LEMON CREST DR  UNIT 1, LAKESIDE, CA, 92040","Match","Exact","12134 LEMON CREST DR, LAKESIDE, CA, 92040",195332490,"L"
37353,"12134 N FRONTAGE RD","YUMA","AZ",85367,NA,NA,353,"12134 N FRONTAGE RD, YUMA, AZ, 85367","No_Match",NA,NA,NA,NA
37354,"12134 W BELVEDERE ROAD","BEATRICE","NE",68310,40.248315866,-96.88562688,354,"12134 W BELVEDERE ROAD, BEATRICE, NE, 68310","Match","Exact","12134 W BELVEDERE RD, BEATRICE, NE, 68310",11633710,"L"
37355,"12135 CALIFORNIA ST","YUCAIPA","CA",92399,34.03330865,-117.03880942,355,"12135 CALIFORNIA ST, YUCAIPA, CA, 92399","Match","Exact","12135 CALIFORNIA ST, YUCAIPA, CA, 92399",145001051,"L"
37356,"12135 CASTILON AVE","ST LOUIS","MT",63138,NA,NA,356,"12135 CASTILON AVE, ST LOUIS, MT, 63138","No_Match",NA,NA,NA,NA
37357,"12135 COLLIER BLVD","NAPLES","FL",34116,26.1920253710001,-81.687124351,357,"12135 COLLIER BLVD, NAPLES, FL, 34116","Match","Exact","12135 COLLIER BLVD, NAPLES, FL, 34116",115134855,"L"
37358,"12135 FERN HAVEN AVENUE","GIBSONTON","FL",33534,27.8238287520001,-82.372766946,358,"12135 FERN HAVEN AVENUE, GIBSONTON, FL, 33534","Match","Exact","12135 FERN HAVEN AVE, GIBSONTON, FL, 33534",624515987,"R"
37359,"12135 LANDING BLVD UNIT 301","BERLIN","MD",21811,NA,NA,359,"12135 LANDING BLVD UNIT 301, BERLIN, MD, 21811","No_Match",NA,NA,NA,NA
37360,"12135 MIGHTY OAK DRIVE","HOUSTON","TX",77066,29.970806264,-95.501437525,360,"12135 MIGHTY OAK DRIVE, HOUSTON, TX, 77066","Match","Exact","12135 MIGHTY OAK DR, HOUSTON, TX, 77066",96010219,"L"
37361,"12135 NORTH MIAMI AVENUE","NORTH MIAMI","FL",33168,25.886804494,-80.198527798,361,"12135 NORTH MIAMI AVENUE, NORTH MIAMI, FL, 33168","Match","Exact","12135 N MIAMI AVE, NORTH MIAMI, FL, 33168",116034047,"R"
37362,"12135 ROYAL RD APT 217","EL CAJON","CA",92021,32.8240915310001,-116.93065903,362,"12135 ROYAL RD APT 217, EL CAJON, CA, 92021","Match","Exact","12135 ROYAL RD, EL CAJON, CA, 92021",195723978,"R"
37363,"12136 APPLEWOOD COURT","BROOMFIELD","CO",80020,39.917931298,-105.038562511,363,"12136 APPLEWOOD COURT, BROOMFIELD, CO, 80020","Match","Exact","12136 APPLEWOOD CT, BROOMFIELD, CO, 80020",177391225,"L"
37364,"12137 HILL STREET","DARLINGTON","WI",53530,42.67069436,-90.117352619,364,"12137 HILL STREET, DARLINGTON, WI, 53530","Match","Exact","12137 HILL ST, DARLINGTON, WI, 53530",32881794,"L"
37365,"12137 S LASALLE","CHICAGO","IL",60628,41.673568689,-87.6261149489999,365,"12137 S LASALLE, CHICAGO, IL, 60628","Match","Non_Exact","12137 S LA SALLE ST, CHICAGO, IL, 60628",111834837,"L"
37366,"12137 WILD ACRES RD","LARGO","FL",33773,27.882573183,-82.753535469,366,"12137 WILD ACRES RD, LARGO, FL, 33773","Match","Exact","12137 WILD ACRES RD, LARGO, FL, 33773",648809267,"L"
37367,"12138 CENTRAL AVE  STE 280","MITCHELLVILLE","MD",20721,38.8995993180001,-76.7953308909999,367,"12138 CENTRAL AVE  STE 280, MITCHELLVILLE, MD, 20721","Match","Exact","12138 CENTRAL AVE, MITCHELLVILLE, MD, 20721",638327617,"L"
37368,"12138 CENTRAL AVE ST 520","BOWIE","MD",20721,38.8995993180001,-76.7953308909999,368,"12138 CENTRAL AVE ST 520, BOWIE, MD, 20721","Match","Exact","12138 CENTRAL AVE, BOWIE, MD, 20721",638327617,"L"
37369,"12138 CENTRAL AVE SUITE 215","MITCHELLVILLE","MD",20721,38.8995993180001,-76.7953308909999,369,"12138 CENTRAL AVE SUITE 215, MITCHELLVILLE, MD, 20721","Match","Exact","12138 CENTRAL AVE, MITCHELLVILLE, MD, 20721",638327617,"L"
37370,"12138 CENTRAL AVE UNIT 661","MITCHELLVILLE","MD",20721,38.8995993180001,-76.7953308909999,370,"12138 CENTRAL AVE UNIT 661, MITCHELLVILLE, MD, 20721","Match","Exact","12138 CENTRAL AVE, MITCHELLVILLE, MD, 20721",638327617,"L"
37371,"12138 CENTRAL AVENUE 664","MITCHELLVILE","MD",20721,38.8995993180001,-76.7953308909999,371,"12138 CENTRAL AVENUE 664, MITCHELLVILE, MD, 20721","Match","Non_Exact","12138 CENTRAL AVE, MITCHELLVILLE, MD, 20721",638327617,"L"
37372,"12138 CENTRAL AVENUE 664","UPPER MARLBORO","MD",20721,38.8995993180001,-76.7953308909999,372,"12138 CENTRAL AVENUE 664, UPPER MARLBORO, MD, 20721","Match","Non_Exact","12138 CENTRAL AVE, MITCHELLVILLE, MD, 20721",638327617,"L"
37373,"12138 CENTRAL AVENUE STE 418","MITCHELLVILLE","MD",20721,38.8995993180001,-76.7953308909999,373,"12138 CENTRAL AVENUE STE 418, MITCHELLVILLE, MD, 20721","Match","Exact","12138 CENTRAL AVE, MITCHELLVILLE, MD, 20721",638327617,"L"
37374,"12138 CENTRAL AVENUE SUITE 102","MITCHELLVILLE","MD",20721,38.8995993180001,-76.7953308909999,374,"12138 CENTRAL AVENUE SUITE 102, MITCHELLVILLE, MD, 20721","Match","Exact","12138 CENTRAL AVE, MITCHELLVILLE, MD, 20721",638327617,"L"
37375,"12138 CENTRAL AVENUE SUITE 160","MITCHELLVILLE","MD",20721,38.8995993180001,-76.7953308909999,375,"12138 CENTRAL AVENUE SUITE 160, MITCHELLVILLE, MD, 20721","Match","Exact","12138 CENTRAL AVE, MITCHELLVILLE, MD, 20721",638327617,"L"
37376,"12138 CENTRAL AVENUE SUITE 251","MITCHELLVILLE","MD",20721,38.8995993180001,-76.7953308909999,376,"12138 CENTRAL AVENUE SUITE 251, MITCHELLVILLE, MD, 20721","Match","Exact","12138 CENTRAL AVE, MITCHELLVILLE, MD, 20721",638327617,"L"
37377,"12138 CENTRAL AVENUE SUITE 498","MITCHELLVILLE","MD",20721,38.8995993180001,-76.7953308909999,377,"12138 CENTRAL AVENUE SUITE 498, MITCHELLVILLE, MD, 20721","Match","Exact","12138 CENTRAL AVE, MITCHELLVILLE, MD, 20721",638327617,"L"
37378,"12138 CENTRAL AVENUE SUITE 653","MITCHELLVILLE","MD",20721,38.8995993180001,-76.7953308909999,378,"12138 CENTRAL AVENUE SUITE 653, MITCHELLVILLE, MD, 20721","Match","Exact","12138 CENTRAL AVE, MITCHELLVILLE, MD, 20721",638327617,"L"
37379,"12138 CENTRAL AVENUE SUITE 663","MITCHELLVILLE","MD",20721,38.8995993180001,-76.7953308909999,379,"12138 CENTRAL AVENUE SUITE 663, MITCHELLVILLE, MD, 20721","Match","Exact","12138 CENTRAL AVE, MITCHELLVILLE, MD, 20721",638327617,"L"
37380,"12138 CENTRAL AVENUE SUITE 678","BOWIE","MD",20721,38.8995993180001,-76.7953308909999,380,"12138 CENTRAL AVENUE SUITE 678, BOWIE, MD, 20721","Match","Exact","12138 CENTRAL AVE, BOWIE, MD, 20721",638327617,"L"
37381,"12138 CENTRAL AVENUE SUITE 855","MITCHELLVILLE","MD",20721,38.8995993180001,-76.7953308909999,381,"12138 CENTRAL AVENUE SUITE 855, MITCHELLVILLE, MD, 20721","Match","Exact","12138 CENTRAL AVE, MITCHELLVILLE, MD, 20721",638327617,"L"
37382,"12138 CENTRAL AVENUE","BOWIE","MD",20721,38.8995993180001,-76.7953308909999,382,"12138 CENTRAL AVENUE, BOWIE, MD, 20721","Match","Exact","12138 CENTRAL AVE, BOWIE, MD, 20721",638327617,"L"
37383,"12138 CENTRAL AVENUE","MITCHELLVILLE","MD",20721,38.8995993180001,-76.7953308909999,383,"12138 CENTRAL AVENUE, MITCHELLVILLE, MD, 20721","Match","Exact","12138 CENTRAL AVE, MITCHELLVILLE, MD, 20721",638327617,"L"
37384,"12138 COUNTY ROAD 350","SIDNEY","MT",59270,47.6613319640001,-104.153089225,384,"12138 COUNTY ROAD 350, SIDNEY, MT, 59270","Match","Exact","12138 CO RD 350, SIDNEY, MT, 59270",161878424,"R"
37385,"12138 PECAN STREET","AUSTIN","TX",78727,30.433751767,-97.763557244,385,"12138 PECAN STREET, AUSTIN, TX, 78727","Match","Exact","12138 PECAN ST, AUSTIN, TX, 78727",126432280,"L"
37386,"12138 SAINT AUBIN STREET","HAMTRAMCK","MI",48212,42.403087779,-83.070684902,386,"12138 SAINT AUBIN STREET, HAMTRAMCK, MI, 48212","Match","Exact","12138 ST AUBIN ST, HAMTRAMCK, MI, 48212",95464870,"R"
37387,"12138 TROTWOOD DRIVE","AUSTIN","TX",78753,30.389508785,-97.662332411,387,"12138 TROTWOOD DRIVE, AUSTIN, TX, 78753","Match","Exact","12138 TROTWOOD DR, AUSTIN, TX, 78753",63934516,"L"
37388,"12139 LANDINGS BLVD","BERLIN","MD",21811,38.299310645,-75.136369695,388,"12139 LANDINGS BLVD, BERLIN, MD, 21811","Match","Exact","12139 LANDINGS BLVD, BERLIN, MD, 21811",626958187,"L"
37389,"12139 STONE EAST DRIVE","HOUSTON","TX",77035,29.6456059070001,-95.479069049,389,"12139 STONE EAST DRIVE, HOUSTON, TX, 77035","Match","Exact","12139 STONE EAST DR, HOUSTON, TX, 77035",96155143,"L"
37390,"12139 WOLF RUN RD","NOBLESVILLE","IN",46060,40.0131393500001,-85.950238311,390,"12139 WOLF RUN RD, NOBLESVILLE, IN, 46060","Match","Exact","12139 WOLF RUN RD, NOBLESVILLE, IN, 46060",636067083,"L"
37391,"1213D CHEMIN AGREABLE","YOUNGSVILLE","LA",70592,30.065605039,-92.025320209,391,"1213D CHEMIN AGREABLE, YOUNGSVILLE, LA, 70592","Match","Non_Exact","1213 CHEMIN AGREABLE ST, YOUNGSVILLE, LA, 70592",85644493,"R"
37392,"1214 - 43 STREET","BROOKLYN","NY",11219,NA,NA,392,"1214 - 43 STREET, BROOKLYN, NY, 11219","No_Match",NA,NA,NA,NA
37393,"1214 11TH AVE","LEWISTOTN","ID",83501,46.40933513,-117.014475249,393,"1214 11TH AVE, LEWISTOTN, ID, 83501","Match","Non_Exact","1214 11TH AVE, LEWISTON, ID, 83501",173130690,"L"
37394,"1214 12TH STREET","HUNTSVILLE","TX",77340,30.7229829520001,-95.551731207,394,"1214 12TH STREET, HUNTSVILLE, TX, 77340","Match","Exact","1214 12TH ST, HUNTSVILLE, TX, 77340",22196465,"R"
37395,"1214 13TH STREET","BENTON CITY","WA",99320,46.2785887480001,-119.492422473,395,"1214 13TH STREET, BENTON CITY, WA, 99320","Match","Exact","1214 13TH ST, BENTON CITY, WA, 99320",174987406,"R"
37396,"1214 2ND AVE SE","CEDAR RAPIDS","IA",52403,41.984328012,-91.656518695,396,"1214 2ND AVE SE, CEDAR RAPIDS, IA, 52403","Match","Exact","1214 2ND AVE SE, CEDAR RAPIDS, IA, 52403",17020836,"L"
37397,"1214 4TH STREET","CATASAUQUA","PA",18032,40.661122977,-75.478645967,397,"1214 4TH STREET, CATASAUQUA, PA, 18032","Match","Exact","1214 4TH ST, CATASAUQUA, PA, 18032",136911240,"L"
37398,"1214 80TH AVENUE","OAKLAND","CA",94621,37.7549433520001,-122.184400938,398,"1214 80TH AVENUE, OAKLAND, CA, 94621","Match","Exact","1214 80TH AVE, OAKLAND, CA, 94621",125009119,"R"
37399,"1214 8TH STREET","SEWARD","PA",15954,40.415914485,-79.0232918999999,399,"1214 8TH STREET, SEWARD, PA, 15954","Match","Exact","1214 8TH ST, SEWARD, PA, 15954",633805344,"L"
37400,"1214 ACANTHUS AVENUE","BRANDON","FL",33510,27.952615499,-82.300344841,400,"1214 ACANTHUS AVENUE, BRANDON, FL, 33510","Match","Exact","1214 ACANTHUS AVE, BRANDON, FL, 33510",104576620,"L"
37401,"1214 ALICE ST","RAMONA","CA",92065,33.056916448,-116.884056043,401,"1214 ALICE ST, RAMONA, CA, 92065","Match","Exact","1214 ALICE ST, RAMONA, CA, 92065",195330219,"L"
37402,"1214 BAMMEL AVE","MEMPHIS","TN",38107,35.177397065,-90.016964543,402,"1214 BAMMEL AVE, MEMPHIS, TN, 38107","Match","Exact","1214 BAMMEL AVE, MEMPHIS, TN, 38107",72902530,"L"
37403,"1214 BAYTHORNE DR","FLOSSMOOR","IL",60422,41.5389553690001,-87.692793506,403,"1214 BAYTHORNE DR, FLOSSMOOR, IL, 60422","Match","Exact","1214 BAYTHORNE DR, FLOSSMOOR, IL, 60422",624795693,"R"
37404,"1214 CLOVER LANE","DENTON","TX",76209,33.240342228,-97.116707386,404,"1214 CLOVER LANE, DENTON, TX, 76209","Match","Exact","1214 CLOVER LN, DENTON, TX, 76209",103339739,"L"
37405,"1214 CR 621","BAY","AR",72411,35.765139554,-90.607822606,405,"1214 CR 621, BAY, AR, 72411","Match","Exact","1214 CO RD 621, BAY, AR, 72411",46913905,"L"
37406,"1214 DEANWOOD RAOD","PARKVILLE","MD",21234,39.378959695,-76.571601866,406,"1214 DEANWOOD RAOD, PARKVILLE, MD, 21234","Match","Non_Exact","1214 DEANWOOD RD, PARKVILLE, MD, 21234",191519615,"L"
37407,"1214 DRAKE ST","MADISON","WI",53715,43.0620668390001,-89.406285086,407,"1214 DRAKE ST, MADISON, WI, 53715","Match","Exact","1214 DRAKE ST, MADISON, WI, 53715",49469525,"R"
37408,"1214 E 27TH STREET","HAYS","KS",67601,38.885453254,-99.3138388629999,408,"1214 E 27TH STREET, HAYS, KS, 67601","Match","Exact","1214 E 27TH ST, HAYS, KS, 67601",149816718,"L"
37409,"1214 E 3RD ST","MARYVILLE","MO",64468,40.3476482130001,-94.859581627,409,"1214 E 3RD ST, MARYVILLE, MO, 64468","Match","Exact","1214 E 3RD ST, MARYVILLE, MO, 64468",38560859,"L"
37410,"1214 E 88TH STREET","BROOKLYN","NY",11236,40.634022212,-73.901615023,410,"1214 E 88TH STREET, BROOKLYN, NY, 11236","Match","Exact","1214 E 88TH ST, BROOKLYN, NY, 11236",59086817,"R"
37411,"1214 E CHAMPLAIN DR APT 201","FRESNO","CA",93720,36.8702598200001,-119.760531416,411,"1214 E CHAMPLAIN DR APT 201, FRESNO, CA, 93720","Match","Non_Exact","1214 E CHAMPLAIN DR, FRESNO, CA, 93720",197616712,"R"
37412,"1214 E GALILEE WAY","WASHINGTON","UT",84780,37.0857915030001,-113.488399869,412,"1214 E GALILEE WAY, WASHINGTON, UT, 84780","Match","Exact","1214 GALILEE WAY, WASHINGTON, UT, 84780",627748485,"R"
37413,"1214 E ROYAL PALM RD","PHOENIX","AZ",85020,33.555815313,-112.056436966,413,"1214 E ROYAL PALM RD, PHOENIX, AZ, 85020","Match","Exact","1214 E ROYAL PALM RD, PHOENIX, AZ, 85020",128207280,"L"
37414,"1214 E SAN MIGUEL ST APT 1","COLORADO SPRINGS","CO",80909,38.8512754760001,-104.801704676,414,"1214 E SAN MIGUEL ST APT 1, COLORADO SPRINGS, CO, 80909","Match","Non_Exact","1214 E SAN MIGUEL ST, COLORADO SPRINGS, CO, 80909",610721151,"L"
37415,"1214 E WASHINGTON STREET","BLOOMINGTON","IL",61701,40.479969914,-88.973573619,415,"1214 E WASHINGTON STREET, BLOOMINGTON, IL, 61701","Match","Exact","1214 E WASHINGTON ST, BLOOMINGTON, IL, 61701",20582020,"L"
37416,"1214 ELM AVENUE 4B","BROOKLYN","NY",11230,40.6153287110001,-73.962174235,416,"1214 ELM AVENUE 4B, BROOKLYN, NY, 11230","Match","Non_Exact","1214 AVENUE N, BROOKLYN, NY, 11230",59089709,"R"
37417,"1214 GREGORY CT","ODENTON","MD",21113,39.078784108,-76.707845025,417,"1214 GREGORY CT, ODENTON, MD, 21113","Match","Exact","1214 GREGORY CT, ODENTON, MD, 21113",650573028,"L"
37418,"1214 GRIFFIN AVE","ENUMCLAW","WA",98022,47.2036966900001,-121.989977772,418,"1214 GRIFFIN AVE, ENUMCLAW, WA, 98022","Match","Exact","1214 GRIFFIN AVE, ENUMCLAW, WA, 98022",187012044,"R"
37419,"1214 GROVE STREET","GREENSBORO","NC",27403,36.053413876,-79.811319478,419,"1214 GROVE STREET, GREENSBORO, NC, 27403","Match","Exact","1214 GROVE ST, GREENSBORO, NC, 27403",131032271,"R"
37420,"1214 HALSEY STREET  3RD FLOOR","BROOKLYN","NY",11207,40.691791874,-73.9092576529999,420,"1214 HALSEY STREET  3RD FLOOR, BROOKLYN, NY, 11207","Match","Exact","1214 HALSEY ST, BROOKLYN, NY, 11207",59083098,"R"
37421,"1214 HEARTWOOD AVE","MCDONOUGH","GA",30253,33.4138930330001,-84.1844007619999,421,"1214 HEARTWOOD AVE, MCDONOUGH, GA, 30253","Match","Exact","1214 HEARTWOOD AVE, MCDONOUGH, GA, 30253",619922826,"R"
37422,"1214 HENDERSON ST","COLUMBIA","SC",29201,34.0040154480001,-81.025623911,422,"1214 HENDERSON ST, COLUMBIA, SC, 29201","Match","Exact","1214 HENDERSON ST, COLUMBIA, SC, 29201",71820869,"R"
37423,"1214 HUGHMONT DR","PFLUGERVILLE","TX",78660,30.4585070100001,-97.631588788,423,"1214 HUGHMONT DR, PFLUGERVILLE, TX, 78660","Match","Exact","1214 HUGHMONT DR, PFLUGERVILLE, TX, 78660",63986518,"L"
37424,"1214 HUNTERS POINT PIKE","LEBANON","TN",37087,36.227522042,-86.290103868,424,"1214 HUNTERS POINT PIKE, LEBANON, TN, 37087","Match","Exact","1214 HUNTERS POINT PIKE, LEBANON, TN, 37087",617122265,"L"
37425,"1214 IRON GLEN DR","TEMPLE","TX",76502,31.1335596820001,-97.42797816,425,"1214 IRON GLEN DR, TEMPLE, TX, 76502","Match","Exact","1214 IRON GLEN DR, TEMPLE, TX, 76502",648875393,"R"
37426,"1214 JASON LANE","SCHENECTADY","NY",12309,42.7796190240001,-73.877427407,426,"1214 JASON LANE, SCHENECTADY, NY, 12309","Match","Exact","1214 JASON LN, SCHENECTADY, NY, 12309",18033644,"L"
37427,"1214 KENT AVE","GWYNN OAK","MD",21207,39.299176523,-76.7300789449999,427,"1214 KENT AVE, GWYNN OAK, MD, 21207","Match","Exact","1214 KENT AVE, GWYNN OAK, MD, 21207",191483830,"L"
37428,"1214 KIMBERLY DRIVE","JENNINGS","LA",70546,30.236200248,-92.672115666,428,"1214 KIMBERLY DRIVE, JENNINGS, LA, 70546","Match","Exact","1214 KIMBERLY DR, JENNINGS, LA, 70546",88214611,"L"
37429,"1214 LAKE ROAD","WEBSTER","NY",14580,43.261983738,-77.4391511119999,429,"1214 LAKE ROAD, WEBSTER, NY, 14580","Match","Exact","1214 LAKE RD, WEBSTER, NY, 14580",14578608,"L"
37430,"1214 MADSEN AVE","KODIAK","AK",99615,57.7986918720001,-152.393515084,430,"1214 MADSEN AVE, KODIAK, AK, 99615","Match","Exact","1214 MADSEN AVE, KODIAK, AK, 99615",193550211,"R"
37431,"1214 MEADOW AVE","ALLIANCE","OH",44601,40.9093310120001,-81.088588119,431,"1214 MEADOW AVE, ALLIANCE, OH, 44601","Match","Exact","1214 MEADOW AVE, ALLIANCE, OH, 44601",64696930,"L"
37432,"1214 N CHARLES ST APT 212","BALTIMORE","MD",21201,39.3036672910001,-76.61609048,432,"1214 N CHARLES ST APT 212, BALTIMORE, MD, 21201","Match","Non_Exact","1214 N CHARLES ST, BALTIMORE, MD, 21201",206419269,"L"
37433,"1214 NORTH DAMEN AVENUE SUITE 2","CHICAGO","IL",60622,41.9039010270001,-87.677282524,433,"1214 NORTH DAMEN AVENUE SUITE 2, CHICAGO, IL, 60622","Match","Exact","1214 N DAMEN AVE, CHICAGO, IL, 60622",605036945,"L"
37434,"1214 NW GREENWOOD ST","ANKENY","IA",50023,41.7419118,-93.633544451,434,"1214 NW GREENWOOD ST, ANKENY, IA, 50023","Match","Exact","1214 NW GREENWOOD ST, ANKENY, IA, 50023",65778107,"L"
37435,"1214 OAKRIDGE ROAD","MCDONALD","PA",15057,40.376671881,-80.157599467,435,"1214 OAKRIDGE ROAD, MCDONALD, PA, 15057","Match","Non_Exact","1214 OAKRIDGE RD, MC DONALD, PA, 15057",607687498,"R"
37436,"1214 PACKARD DRIVE","AKRON","OH",44320,41.071693602,-81.559674082,436,"1214 PACKARD DRIVE, AKRON, OH, 44320","Match","Exact","1214 PACKARD DR, AKRON, OH, 44320",61340050,"R"
37437,"1214 PICARDIE DR","SAN ANTONIO","TX",78219,29.44019611,-98.422426394,437,"1214 PICARDIE DR, SAN ANTONIO, TX, 78219","Match","Exact","1214 PICARDIE DR, SAN ANTONIO, TX, 78219",101530457,"R"
37438,"1214 PIKE LAKE DRIVE","NEW BRIGHTON","MN",55112,45.0682346150001,-93.211562332,438,"1214 PIKE LAKE DRIVE, NEW BRIGHTON, MN, 55112","Match","Exact","1214 PIKE LAKE DR, NEW BRIGHTON, MN, 55112",97633976,"L"
37439,"1214 PINNACLE DRIVE","JACKSONVILLE","AR",72076,34.8543428840001,-92.124076389,439,"1214 PINNACLE DRIVE, JACKSONVILLE, AR, 72076","Match","Exact","1214 PINNACLE DR, JACKSONVILLE, AR, 72076",640164046,"R"
37440,"1214 PLAYMOORE DRIVE","PALM HARBOR","FL",34683,28.1050810310001,-82.7634502939999,440,"1214 PLAYMOORE DRIVE, PALM HARBOR, FL, 34683","Match","Non_Exact","1214 PLAYMOOR DR, PALM HARBOR, FL, 34683",124801331,"R"
37441,"1214 PUTNAM STREET","ANTIOCH","CA",94509,37.989641922,-121.825664079,441,"1214 PUTNAM STREET, ANTIOCH, CA, 94509","Match","Exact","1214 PUTNAM ST, ANTIOCH, CA, 94509",192067638,"R"
37442,"1214 ROOSEVELT BLVD","PORTSMOUTH","VA",23701,36.7931583710001,-76.368663668,442,"1214 ROOSEVELT BLVD, PORTSMOUTH, VA, 23701","Match","Exact","1214 ROOSEVELT BLVD, PORTSMOUTH, VA, 23701",122192976,"R"
37443,"1214 ROSSNER AVE","DUQUESNE","PA",15110,NA,NA,443,"1214 ROSSNER AVE, DUQUESNE, PA, 15110","No_Match",NA,NA,NA,NA
37444,"1214 RUTLEDGE PL APT 1B","FREDERICK","MD",21703,39.4147427300001,-77.449040563,444,"1214 RUTLEDGE PL APT 1B, FREDERICK, MD, 21703","Match","Exact","1214 RUTLEDGE PL, FREDERICK, MD, 21703",60727373,"R"
37445,"1214 S 8TH AVE","YUMA","AZ",85364,32.705402136,-114.629518296,445,"1214 S 8TH AVE, YUMA, AZ, 85364","Match","Exact","1214 S 8TH AVE, YUMA, AZ, 85364",129625338,"R"
37446,"1214 SHERBROOKE CT","MACON","GA",31204,32.835737221,-83.693420175,446,"1214 SHERBROOKE CT, MACON, GA, 31204","Match","Exact","1214 SHERBROOKE CT, MACON, GA, 31204",81058588,"L"
37447,"1214 SILK TREE CIRCLE","ST GEORGE","UT",84790,37.0586301290001,-113.556993299,447,"1214 SILK TREE CIRCLE, ST GEORGE, UT, 84790","Match","Exact","1214 SILK TREE CIR, SAINT GEORGE, UT, 84790",166168696,"L"
37448,"1214 SOUTH WASHINGTON AVE","ELDORADO","AR",71730,33.198375368,-92.6635785779999,448,"1214 SOUTH WASHINGTON AVE, ELDORADO, AR, 71730","Match","Non_Exact","1214 S WASHINGTON AVE, EL DORADO, AR, 71730",28160708,"L"
37449,"1214 SPEARPOINT DR","HENDERSONVILLE","TN",37075,NA,NA,449,"1214 SPEARPOINT DR, HENDERSONVILLE, TN, 37075","No_Match",NA,NA,NA,NA
37450,"1214 STONE LANE","OTTERVILLE","MO",65348,38.732173285,-93.039049602,450,"1214 STONE LANE, OTTERVILLE, MO, 65348","Match","Exact","1214 STONE LN, OTTERVILLE, MO, 65348",23705872,"R"
37451,"1214 SUMMIT AVENUE","MONESSEN","PA",15062,40.1549793120001,-79.8933928389999,451,"1214 SUMMIT AVENUE, MONESSEN, PA, 15062","Match","Exact","1214 SUMMIT AVE, MONESSEN, PA, 15062",52958800,"L"
37452,"1214 SUMMIT WAY","MECHANICSBURG","PA",17050,40.258200732,-76.9945403469999,452,"1214 SUMMIT WAY, MECHANICSBURG, PA, 17050","Match","Exact","1214 SUMMIT WAY, MECHANICSBURG, PA, 17050",632409753,"R"
37453,"1214 SW 17TH ST","TOPEKA","KS",66604,39.0369308530001,-95.693088917,453,"1214 SW 17TH ST, TOPEKA, KS, 66604","Match","Exact","1214 SW 17TH ST, TOPEKA, KS, 66604",17887679,"R"
37454,"1214 THOMAS CT","CINCINNATI","OH",45215,39.2455762660001,-84.4531545249999,454,"1214 THOMAS CT, CINCINNATI, OH, 45215","Match","Exact","1214 THOMAS CT, CINCINNATI, OH, 45215",103927016,"L"
37455,"1214 TURNPIKE RD","AUBURN","NY",13021,NA,NA,455,"1214 TURNPIKE RD, AUBURN, NY, 13021","Tie",NA,NA,NA,NA
37456,"1214 US 17 SOUTH","ELIZABETH CITY","NC",27909,36.2759334,-76.284145471,456,"1214 US 17 SOUTH, ELIZABETH CITY, NC, 27909","Match","Non_Exact","1214 US HWY 17 S, ELIZABETH CITY, NC, 27909",640456966,"L"
37457,"1214 W DAVIS ST","DALLAS","TX",75208,32.749481659,-96.8418063079999,457,"1214 W DAVIS ST, DALLAS, TX, 75208","Match","Exact","1214 W DAVIS ST, DALLAS, TX, 75208",102945818,"L"
37458,"1214 W REMINGTON DR","CHANDLER","AZ",85286,33.2850216370001,-111.864439258,458,"1214 W REMINGTON DR, CHANDLER, AZ, 85286","Match","Exact","1214 W REMINGTON DR, CHANDLER, AZ, 85286",128797261,"L"
37459,"1214 WALNUT ST","CARTHAGE","IL",62321,40.414899544,-91.123987561,459,"1214 WALNUT ST, CARTHAGE, IL, 62321","Match","Exact","1214 WALNUT ST, CARTHAGE, IL, 62321",5315203,"L"
37460,"1214 WEDGEWOOD DR","FORNEY","TX",75126,32.7748072480001,-96.425859384,460,"1214 WEDGEWOOD DR, FORNEY, TX, 75126","Match","Exact","1214 WEDGEWOOD DR, FORNEY, TX, 75126",635272473,"R"
37461,"1214 WEST BOSTON POST ROAD PMB 418","MAMARONECK","NY",10543,40.9401111380001,-73.743399908,461,"1214 WEST BOSTON POST ROAD PMB 418, MAMARONECK, NY, 10543","Match","Exact","1214 W BOSTON POST RD, MAMARONECK, NY, 10543",139843454,"R"
37462,"1214 WHISPERING PINES ROAD","ALBANY","GA",31707,NA,NA,462,"1214 WHISPERING PINES ROAD, ALBANY, GA, 31707","No_Match",NA,NA,NA,NA
37463,"1214 WOODBOROUGH RD","LAFAYETTE","CA",94549,37.9075317960001,-122.091041401,463,"1214 WOODBOROUGH RD, LAFAYETTE, CA, 94549","Match","Exact","1214 WOODBOROUGH RD, LAFAYETTE, CA, 94549",192111150,"R"
37464,"1214 WYNNES RIDGE CIRCLE","MARIETTA","GA",30067,33.9149811140001,-84.468639953,464,"1214 WYNNES RIDGE CIRCLE, MARIETTA, GA, 30067","Match","Exact","1214 WYNNES RIDGE CIR, MARIETTA, GA, 30067",17253780,"R"
37465,"12140 KALKMAN DRIVE","GRAND HAVEN","MI",49417,42.988249534,-86.088383069,465,"12140 KALKMAN DRIVE, GRAND HAVEN, MI, 49417","Match","Exact","12140 KALKMAN DR, GRAND HAVEN, MI, 49417",627684272,"R"
37466,"12140 SE 133RD TERRACE","OCKLAWAHA","FL",32179,29.0465671220001,-81.931330131,466,"12140 SE 133RD TERRACE, OCKLAWAHA, FL, 32179","Match","Exact","12140 SE 133RD TER, OCKLAWAHA, FL, 32179",116709767,"L"
37467,"12141 FAULKNER DRIVE","OWINGS MILLS","MD",21117,39.456324137,-76.7787057849999,467,"12141 FAULKNER DRIVE, OWINGS MILLS, MD, 21117","Match","Exact","12141 FAULKNER DR, OWINGS MILLS, MD, 21117",191562151,"L"
37468,"12141 PEBBLEBROOKE CT","INDIANAPOLIS","IN",46236,39.890289802,-85.950589152,468,"12141 PEBBLEBROOKE CT, INDIANAPOLIS, IN, 46236","Match","Exact","12141 PEBBLEBROOKE CT, INDIANAPOLIS, IN, 46236",108033325,"R"
37469,"12142 CHILBERG RD","LA CONNER","WA",98257,NA,NA,469,"12142 CHILBERG RD, LA CONNER, WA, 98257","No_Match",NA,NA,NA,NA
37470,"12142 N RANCHO VISTOSO BLVD B-150","ORO VALLEY","AZ",85755,32.426521961,-110.961873056,470,"12142 N RANCHO VISTOSO BLVD B-150, ORO VALLEY, AZ, 85755","Match","Non_Exact","12142 N RANCHO VISTOSO BLVD, ORO VALLEY, AZ, 85755",121407124,"R"
37471,"12143 CENTER DRIVE","VERNON","TX",76384,34.0848781180001,-99.3040148219999,471,"12143 CENTER DRIVE, VERNON, TX, 76384","Match","Exact","12143 CENTER DR, VERNON, TX, 76384",183242992,"R"
37472,"12144 BEECHNUT ST","HOUSTON","TX",77072,29.6889512560001,-95.593176381,472,"12144 BEECHNUT ST, HOUSTON, TX, 77072","Match","Exact","12144 BEECHNUT ST, HOUSTON, TX, 77072",96602960,"R"
37473,"12144 CRITERION","ST LOUIS","MO",63138,38.7947515110001,-90.206109881,473,"12144 CRITERION, ST LOUIS, MO, 63138","Match","Non_Exact","12144 CRITERION AVE, SAINT LOUIS, MO, 63138",100150785,"R"
37474,"12144 DAIRY ASHFORD","SUGAR LAND","TX",77478,29.6443229770001,-95.597799702,474,"12144 DAIRY ASHFORD, SUGAR LAND, TX, 77478","Match","Non_Exact","12144 DAIRY ASHFORD RD, SUGAR LAND, TX, 77478",78340790,"L"
37475,"12144 N EDGEWATER DRIVE","PALM BEACH GARDENS","FL",33410,26.854314543,-80.06827048,475,"12144 N EDGEWATER DRIVE, PALM BEACH GARDENS, FL, 33410","Match","Exact","12144 N EDGEWATER DR, PALM BEACH GARDENS, FL, 33410",115274705,"R"
37476,"12144 NORTH QUAIL FEATHER BLVD","MARANA","AZ",85658,NA,NA,476,"12144 NORTH QUAIL FEATHER BLVD, MARANA, AZ, 85658","No_Match",NA,NA,NA,NA
37477,"12144 PECAN GROVE COURT","BATON ROUGE","LA",70810,30.355004643,-91.0925863699999,477,"12144 PECAN GROVE COURT, BATON ROUGE, LA, 70810","Match","Exact","12144 PECAN GROVE CT, BATON ROUGE, LA, 70810",92193161,"R"
37478,"12145 NW 27 AVE","MIAMI","FL",33167,25.8846418370001,-80.2431021309999,478,"12145 NW 27 AVE, MIAMI, FL, 33167","Match","Exact","12145 NW 27TH AVE, MIAMI, FL, 33167",116043718,"R"
37479,"12145 NW 27TH AVE","MIAMI","FL",33167,25.8846418370001,-80.2431021309999,479,"12145 NW 27TH AVE, MIAMI, FL, 33167","Match","Exact","12145 NW 27TH AVE, MIAMI, FL, 33167",116043718,"R"
37480,"12145 SAPPHIRE DRIVE","CLERMONT","FL",34711,28.5226621090001,-81.740602297,480,"12145 SAPPHIRE DRIVE, CLERMONT, FL, 34711","Match","Exact","12145 SAPPHIRE DR, CLERMONT, FL, 34711",94128685,"R"
37481,"12145 SE 133RD TERRACE","OCKLAWAHA","FL",32179,29.0459119450001,-81.931316371,481,"12145 SE 133RD TERRACE, OCKLAWAHA, FL, 32179","Match","Exact","12145 SE 133RD TER, OCKLAWAHA, FL, 32179",116709767,"R"
37482,"12145 SHANNON AVE","BATON ROUGE","LA",70815,30.46480796,-91.047557232,482,"12145 SHANNON AVE, BATON ROUGE, LA, 70815","Match","Exact","12145 SHANNON AVE, BATON ROUGE, LA, 70815",92190798,"L"
37483,"12146 PLUMAS DRIVE","SARATOGA","CA",95070,37.29304791,-122.023621478,483,"12146 PLUMAS DRIVE, SARATOGA, CA, 95070","Match","Exact","12146 PLUMAS DR, SARATOGA, CA, 95070",122941014,"L"
37484,"12147 GANTRY LANE","APPLE VALLEY","MN",55124,44.772196201,-93.2113526589999,484,"12147 GANTRY LANE, APPLE VALLEY, MN, 55124","Match","Exact","12147 GANTRY LN, APPLE VALLEY, MN, 55124",37921131,"L"
37485,"12147 WARDTOWN RD","PERRYSBURG","NY",14129,42.51167959,-79.010292163,485,"12147 WARDTOWN RD, PERRYSBURG, NY, 14129","Match","Exact","12147 WARDTOWN RD, PERRYSBURG, NY, 14129",648935712,"L"
37486,"12148 NW OLD QUARRY RD","PORTLAND","OR",97229,45.5351884090001,-122.801836931,486,"12148 NW OLD QUARRY RD, PORTLAND, OR, 97229","Match","Exact","12148 NW OLD QUARRY RD, PORTLAND, OR, 97229",158184821,"L"
37487,"12149 LAGINESS","LA SALLE","MI",48145,41.8376366800001,-83.4588641839999,487,"12149 LAGINESS, LA SALLE, MI, 48145","Match","Non_Exact","12149 LAGINESS RD, LA SALLE, MI, 48145",40484816,"L"
37488,"1215  75TH STREET","NEWPORT NEWS","VA",23605,37.020134225,-76.4255108839999,488,"1215  75TH STREET, NEWPORT NEWS, VA, 23605","Match","Exact","1215 75TH ST, NEWPORT NEWS, VA, 23605",103755660,"L"
37489,"1215 1ST STREET NE - 7E","WASHINGTON","DC",20002,38.905905182,-77.005874159,489,"1215 1ST STREET NE - 7E, WASHINGTON, DC, 20002","Match","Exact","1215 1ST ST NE, WASHINGTON, DC, 20002",76226622,"R"
37490,"1215 24TH STREET WEST SUITE 125","BILLINGS","MT",59102,45.7823230330001,-108.576337668,490,"1215 24TH STREET WEST SUITE 125, BILLINGS, MT, 59102","Match","Exact","1215 24TH ST W, BILLINGS, MT, 59102",639776873,"R"
37491,"1215 29TH STREET","HOOD RIVER","OR",97031,45.7014568490001,-121.542969108,491,"1215 29TH STREET, HOOD RIVER, OR, 97031","Match","Exact","1215 29TH ST, HOOD RIVER, OR, 97031",635188122,"L"
37492,"1215 2ND STREET SUITE A","SAN RAFAEL","CA",94901,37.9713281900001,-122.53004504,492,"1215 2ND STREET SUITE A, SAN RAFAEL, CA, 94901","Match","Exact","1215 2ND ST, SAN RAFAEL, CA, 94901",192785641,"L"
37493,"1215 30TH ST","ANACORTES","WA",98221,48.4980302640001,-122.616538451,493,"1215 30TH ST, ANACORTES, WA, 98221","Match","Exact","1215 30TH ST, ANACORTES, WA, 98221",183648252,"R"
37494,"1215 31ST ST NW UNIT 25104","WASHINGTON","DC",20027,38.9056227520001,-77.061179024,494,"1215 31ST ST NW UNIT 25104, WASHINGTON, DC, 20027","Match","Non_Exact","1215 31ST ST NW, WASHINGTON, DC, 20007",76235787,"R"
37495,"1215 31ST STREET NW UNIT 25037","WASHINGTON","DC",20007,38.9056227520001,-77.061179024,495,"1215 31ST STREET NW UNIT 25037, WASHINGTON, DC, 20007","Match","Exact","1215 31ST ST NW, WASHINGTON, DC, 20007",76235787,"R"
37496,"1215 5TH AVE NW","ROCHESTER","MN",55901,44.0352520340001,-92.469977397,496,"1215 5TH AVE NW, ROCHESTER, MN, 55901","Match","Exact","1215 5TH AVE NW, ROCHESTER, MN, 55901",30551192,"L"
37497,"1215 62ND AVENUE","OAKLAND","CA",94621,37.7615241400001,-122.200738623,497,"1215 62ND AVENUE, OAKLAND, CA, 94621","Match","Exact","1215 62ND AVE, OAKLAND, CA, 94621",125007971,"L"
37498,"1215 9TH AVE NORTH SUITE 208","NASHVILLE","TN",37208,36.1741221400001,-86.793218566,498,"1215 9TH AVE NORTH SUITE 208, NASHVILLE, TN, 37208","Match","Exact","1215 9TH AVE N, NASHVILLE, TN, 37208",97185577,"L"
37499,"1215 AARON DR","RICHLAND","WA",99352,46.2603205870001,-119.282967533,499,"1215 AARON DR, RICHLAND, WA, 99352","Match","Exact","1215 AARON DR, RICHLAND, WA, 99352",636501018,"R"
37500,"1215 ANTHONY AVE","COLUMBIA","SC",29201,34.022237304,-81.042247602,500,"1215 ANTHONY AVE, COLUMBIA, SC, 29201","Match","Exact","1215 ANTHONY AVE, COLUMBIA, SC, 29201",71819997,"L"
