"ID","Address","City","State","Zip","lat","long","id","input_address","match_indicator","match_type","matched_address","tiger_line_id","tiger_side"
132501,"240 PEACHTREE STREET","ATLANTA","GA",30303,33.7601263330001,-84.38758029,1,"240 PEACHTREE STREET, ATLANTA, GA, 30303","Match","Exact","240 PEACHTREE ST, ATLANTA, GA, 30303",17344484,"L"
132502,"240 PENNSYLVANIA AVE","MOUNT VERNON","NY",10552,40.9252940370001,-73.818264981,2,"240 PENNSYLVANIA AVE, MOUNT VERNON, NY, 10552","Match","Exact","240 PENNSYLVANIA AVE, MOUNT VERNON, NY, 10552",139748612,"L"
132503,"240 PLEASANT GROVE ROAD","PROSPERITY","PA",15329,40.0756396560001,-80.334808267,3,"240 PLEASANT GROVE ROAD, PROSPERITY, PA, 15329","Match","Exact","240 PLEASANT GROVE RD, PROSPERITY, PA, 15329",52824682,"R"
132504,"240 PLEASANT HILL DRIVE","CAMDEN WYOMING","DE",19934,39.1037896710001,-75.518089582,4,"240 PLEASANT HILL DRIVE, CAMDEN WYOMING, DE, 19934","Match","Exact","240 PLEASANT HILL DR, CAMDEN WYOMING, DE, 19934",68107846,"L"
132505,"240 PONTE VEDRA PARK DR  201","PONTE VEDRA BEACH","FL",32082,30.2465176170001,-81.3882417739999,5,"240 PONTE VEDRA PARK DR  201, PONTE VEDRA BEACH, FL, 32082","Match","Exact","240 PONTE VEDRA PARK DR, PONTE VEDRA BEACH, FL, 32082",92618133,"R"
132506,"240 PROSPECT AVE APT 485","HACKENSACK","NJ",7601,40.8909984680001,-74.054409413,6,"240 PROSPECT AVE APT 485, HACKENSACK, NJ, 7601","Match","Exact","240 PROSPECT AVE, HACKENSACK, NJ, 07601",649130578,"R"
132507,"240 PROSPECT AVENUE APT 418","HACKENSACK","NJ",7601,40.8909984680001,-74.054409413,7,"240 PROSPECT AVENUE APT 418, HACKENSACK, NJ, 7601","Match","Exact","240 PROSPECT AVE, HACKENSACK, NJ, 07601",649130578,"R"
132508,"240 REVERE BEACH PARKWAY","CHELSEA","MA",2150,42.4040841930001,-71.032519146,8,"240 REVERE BEACH PARKWAY, CHELSEA, MA, 2150","Match","Exact","240 REVERE BEACH PKWY, CHELSEA, MA, 02150",85729673,"L"
132509,"240 RICHMOND AVE APT A","BUFFALO","NY",14222,42.9091272520001,-78.881995291,9,"240 RICHMOND AVE APT A, BUFFALO, NY, 14222","Match","Exact","240 RICHMOND AVE, BUFFALO, NY, 14222",48289245,"L"
132510,"240 RIDGE AVE","LAKEWOOD","NJ",8701,40.0966692850001,-74.2022789229999,10,"240 RIDGE AVE, LAKEWOOD, NJ, 8701","Match","Exact","240 RIDGE AVE, LAKEWOOD, NJ, 08701",627799967,"R"
132511,"240 RIDGEWOOD DR","FAYETTEVILLE","GA",30215,33.424569626,-84.478347779,11,"240 RIDGEWOOD DR, FAYETTEVILLE, GA, 30215","Match","Exact","240 RIDGEWOOD DR, FAYETTEVILLE, GA, 30215",75946446,"R"
132512,"240 RIVER RD","MARSTONS MILLS","MA",2648,41.659358452,-70.41772445,12,"240 RIVER RD, MARSTONS MILLS, MA, 2648","Match","Exact","240 RIVER RD, MARSTONS MILLS, MA, 02648",121553403,"R"
132513,"240 RIVER ROAD","MARSTONS MILLS","MA",2648,41.659358452,-70.41772445,13,"240 RIVER ROAD, MARSTONS MILLS, MA, 2648","Match","Exact","240 RIVER RD, MARSTONS MILLS, MA, 02648",121553403,"R"
132514,"240 ROCHESTER AVE BROOKLYN NY11213","BROOKLYN","NY",11213,40.6706899070001,-73.928161799,14,"240 ROCHESTER AVE BROOKLYN NY11213, BROOKLYN, NY, 11213","Match","Exact","240 ROCHESTER AVE, BROOKLYN, NY, 11213",59083349,"R"
132515,"240 ROSEDALE BLVD","AMHERST","NY",14226,42.970937801,-78.811142366,15,"240 ROSEDALE BLVD, AMHERST, NY, 14226","Match","Exact","240 ROSEDALE BLVD, AMHERST, NY, 14226",48295515,"L"
132516,"240 ROYAL VISTA DR","CEDAR HILL","TX",75104,32.587489283,-96.987043515,16,"240 ROYAL VISTA DR, CEDAR HILL, TX, 75104","Match","Exact","240 ROYAL VISTA DR, CEDAR HILL, TX, 75104",103214244,"L"
132517,"240 S 18TH ST","CAMP HILL","PA",17011,40.237070492,-76.911401208,17,"240 S 18TH ST, CAMP HILL, PA, 17011","Match","Exact","240 S 18TH ST, CAMP HILL, PA, 17011",221286381,"R"
132518,"240 S 1ST STREET","TURLOCK","CA",95380,37.492161864,-120.844730208,18,"240 S 1ST STREET, TURLOCK, CA, 95380","Match","Exact","240 S 1ST ST, TURLOCK, CA, 95380",102645182,"R"
132519,"240 S 8TH ST","PHILADELPHIA","PA",19107,39.94657655,-75.1545813929999,19,"240 S 8TH ST, PHILADELPHIA, PA, 19107","Match","Exact","240 S 8TH ST, PHILADELPHIA, PA, 19107",131424098,"R"
132520,"240 S MEYERS ST","DETROIT","OR",97342,NA,NA,20,"240 S MEYERS ST, DETROIT, OR, 97342","No_Match",NA,NA,NA,NA
132521,"240 S SEPULVEDA BLVD 201-B","MANHATTAN BEACH","CA",90266,NA,NA,21,"240 S SEPULVEDA BLVD 201-B, MANHATTAN BEACH, CA, 90266","Tie",NA,NA,NA,NA
132522,"240 S SHOWHORSE DR","LIBERTY HILL","TX",78642,30.688945765,-97.918982757,22,"240 S SHOWHORSE DR, LIBERTY HILL, TX, 78642","Match","Exact","240 S SHOWHORSE DR, LIBERTY HILL, TX, 78642",640536811,"R"
132523,"240 S TRONTERA CIRCLE","LITCHFIELD PARK","AZ",85340,33.4894583060001,-112.353314838,23,"240 S TRONTERA CIRCLE, LITCHFIELD PARK, AZ, 85340","Match","Exact","240 TRONTERA CIR, LITCHFIELD PARK, AZ, 85340",128167380,"R"
132524,"240 S WASHINGTON BLVD","SARASOTA","FL",34236,27.334467777,-82.530977325,24,"240 S WASHINGTON BLVD, SARASOTA, FL, 34236","Match","Exact","240 S WASHINGTON BLVD, SARASOTA, FL, 34236",16350950,"R"
132525,"240 S WESLAKE AVE NO 404","LOS ANGELES","CA",90057,NA,NA,25,"240 S WESLAKE AVE NO 404, LOS ANGELES, CA, 90057","No_Match",NA,NA,NA,NA
132526,"240 S WHISMAN ROAD","MOUNTAIN VIEW","CA",94041,37.3923329560001,-122.061549652,26,"240 S WHISMAN ROAD, MOUNTAIN VIEW, CA, 94041","Match","Non_Exact","240 WHISMAN RD, MOUNTAIN VIEW, CA, 94043",624379168,"L"
132527,"240 SCOUT WAY","DE PERE","WI",54115,44.445333105,-88.0458809519999,27,"240 SCOUT WAY, DE PERE, WI, 54115","Match","Exact","240 SCOUT WAY, DE PERE, WI, 54115",148101548,"R"
132528,"240 SE 25TH LANE","CAMBRIDGE","MN",55008,45.5500510150001,-93.2229641769999,28,"240 SE 25TH LANE, CAMBRIDGE, MN, 55008","Match","Non_Exact","240 25TH LN SE, CAMBRIDGE, MN, 55008",234894297,"R"
132529,"240 SEARS AVE","LOUISVILLE","KY",40207,38.2560303650001,-85.646059816,29,"240 SEARS AVE, LOUISVILLE, KY, 40207","Match","Exact","240 SEARS AVE, LOUISVILLE, KY, 40207",96854874,"L"
132530,"240 SERPA PL APT 139","FALLON","NV",89406,39.4821845710001,-118.772724773,30,"240 SERPA PL APT 139, FALLON, NV, 89406","Match","Exact","240 SERPA PL, FALLON, NV, 89406",606200222,"L"
132531,"240 SERPA PLACE SUITE 129","FALLON","NV",89406,39.4821845710001,-118.772724773,31,"240 SERPA PLACE SUITE 129, FALLON, NV, 89406","Match","Exact","240 SERPA PL, FALLON, NV, 89406",606200222,"L"
132532,"240 SHAW COURT","VERSAILLES","KY",40383,38.055859336,-84.736802836,32,"240 SHAW COURT, VERSAILLES, KY, 40383","Match","Exact","240 SHAW CT, VERSAILLES, KY, 40383",38497750,"L"
132533,"240 SHYREWOOD DR","LAWRENCEVILLE","GA",30043,33.991082713,-83.9964163829999,33,"240 SHYREWOOD DR, LAWRENCEVILLE, GA, 30043","Match","Exact","240 SHYREWOOD DR, LAWRENCEVILLE, GA, 30043",88920678,"R"
132534,"240 SKYLAND DR","SYLVA","NC",28779,35.3813119500001,-83.214026281,34,"240 SKYLAND DR, SYLVA, NC, 28779","Match","Exact","240 SKYLAND DR, SYLVA, NC, 28779",638675241,"R"
132535,"240 SO HARRISON STREET APT 502","EAST ORANGE","NJ",7018,40.760983454,-74.2265793939999,35,"240 SO HARRISON STREET APT 502, EAST ORANGE, NJ, 7018","Match","Non_Exact","240 S HARRISON ST, EAST ORANGE, NJ, 07018",63494441,"L"
132536,"240 SOUTH MAIN ST APT 1A","FREEPORT","NY",11520,40.651955752,-73.5763595559999,36,"240 SOUTH MAIN ST APT 1A, FREEPORT, NY, 11520","Match","Exact","240 S MAIN ST, FREEPORT, NY, 11520",147631788,"R"
132537,"240 SOUTH MAIN ST","BARRE","VT",5641,44.1832067610001,-72.499613761,37,"240 SOUTH MAIN ST, BARRE, VT, 5641","Match","Exact","240 S MAIN ST, BARRE, VT, 05641",136668837,"R"
132538,"240 SOUTH MAIN STREET","BUTLER","PA",16001,40.859020259,-79.895322574,38,"240 SOUTH MAIN STREET, BUTLER, PA, 16001","Match","Exact","240 S MAIN ST, BUTLER, PA, 16001",52653840,"L"
132539,"240 SOUTH MAIN STREET","FREEPORT","NY",11520,40.651955752,-73.5763595559999,39,"240 SOUTH MAIN STREET, FREEPORT, NY, 11520","Match","Exact","240 S MAIN ST, FREEPORT, NY, 11520",147631788,"R"
132540,"240 SOUTH ORCHARD RD","VINELAND","NJ",8360,39.483624547,-75.052727152,40,"240 SOUTH ORCHARD RD, VINELAND, NJ, 8360","Match","Exact","240 S ORCHARD RD, VINELAND, NJ, 08360",174110441,"R"
132541,"240 SOUTH ST","MINERAL POINT","WI",53565,42.8594563360001,-90.181411118,41,"240 SOUTH ST, MINERAL POINT, WI, 53565","Match","Exact","240 SOUTH ST, MINERAL POINT, WI, 53565",49798032,"L"
132542,"240 SOUTH STREET","YEOMAN","IN",47997,40.6665520930001,-86.72355307,42,"240 SOUTH STREET, YEOMAN, IN, 47997","Match","Exact","240 SOUTH ST, YEOMAN, IN, 47997",27040952,"L"
132543,"240 SOUTHLAND RD","PALM BEACH","FL",33480,26.736395058,-80.0381245149999,43,"240 SOUTHLAND RD, PALM BEACH, FL, 33480","Match","Exact","240 SOUTHLAND RD, PALM BEACH, FL, 33480",115278092,"L"
132544,"240 SPRING VALLEY RD","DARBY","PA",19023,39.924775928,-75.2619695509999,44,"240 SPRING VALLEY RD, DARBY, PA, 19023","Match","Exact","240 SPRING VALLEY RD, DARBY, PA, 19023",134900096,"L"
132545,"240 STATE HIGHWAY 16 UNIT 1","PLYMOUTH","CA",95669,NA,NA,45,"240 STATE HIGHWAY 16 UNIT 1, PLYMOUTH, CA, 95669","No_Match",NA,NA,NA,NA
132546,"240 SWANSEA  ROAD","SWANSEA","SC",29160,33.730746815,-81.1199071789999,46,"240 SWANSEA  ROAD, SWANSEA, SC, 29160","Match","Exact","240 SWANSEA RD, SWANSEA, SC, 29160",636701581,"L"
132547,"240 TAURUS AVE","OAKLAND","CA",94611,37.8389999510001,-122.217154132,47,"240 TAURUS AVE, OAKLAND, CA, 94611","Match","Exact","240 TAURUS AVE, OAKLAND, CA, 94611",629239820,"L"
132548,"240 TIMBERLAKE DR","HARDY","VA",24101,37.129355656,-79.773078843,48,"240 TIMBERLAKE DR, HARDY, VA, 24101","Match","Exact","240 TIMBERLAKE DR, HARDY, VA, 24101",56395324,"R"
132549,"240 TOD LANE","YOUNGSTOWN","OH",44504,41.1251628420001,-80.648727123,49,"240 TOD LANE, YOUNGSTOWN, OH, 44504","Match","Exact","240 TOD LN, YOUNGSTOWN, OH, 44504",64594177,"R"
132550,"240 TOWNE SQUARE PARK","LEXINGTON","KY",40511,38.065824542,-84.5307134079999,50,"240 TOWNE SQUARE PARK, LEXINGTON, KY, 40511","Match","Exact","240 TOWNE SQUARE PARK, LEXINGTON, KY, 40511",618011245,"L"
132551,"240 US HIGHWAY 206 UNIT 20","FLANDERS","NJ",7836,40.839623827,-74.707545734,51,"240 US HIGHWAY 206 UNIT 20, FLANDERS, NJ, 7836","Match","Non_Exact","240 US HWY 206, FLANDERS, NJ, 07836",60490619,"R"
132552,"240 VAN NESS AVENUE","ASHLAND","OR",97520,42.202560084,-122.717755979,52,"240 VAN NESS AVENUE, ASHLAND, OR, 97520","Match","Exact","240 VAN NESS AVE, ASHLAND, OR, 97520",155521603,"R"
132553,"240 VIEWPOINT LANE","NORTHUMBERLAND","PA",17857,40.9364991890001,-76.842743599,53,"240 VIEWPOINT LANE, NORTHUMBERLAND, PA, 17857","Match","Exact","240 VIEWPOINT LN, NORTHUMBERLAND, PA, 17857",639909092,"R"
132554,"240 W  WINTERGREEN RD STE 303","LANCASTER","TX",75134,32.6186200830001,-96.768527722,54,"240 W  WINTERGREEN RD STE 303, LANCASTER, TX, 75134","Match","Non_Exact","240 W WINTERGREEN RD, LANCASTER, TX, 75134",102954965,"L"
132555,"240 W 102ND ST APT 31","NEW YORK","NY",10025,40.7985189830001,-73.969114352,55,"240 W 102ND ST APT 31, NEW YORK, NY, 10025","Match","Non_Exact","240 W 102ND ST, NEW YORK, NY, 10025",59656826,"L"
132556,"240 W 104TH APT 3C","NEW YORK","NY",10025,NA,NA,56,"240 W 104TH APT 3C, NEW YORK, NY, 10025","No_Match",NA,NA,NA,NA
132557,"240 W 18TH ST","HORTON","KS",66439,39.672787213,-95.529839575,57,"240 W 18TH ST, HORTON, KS, 66439","Match","Exact","240 W 18TH ST, HORTON, KS, 66439",9771278,"R"
132558,"240 W 6TH STREET","WRAY","CO",80758,40.075960271,-102.224005442,58,"240 W 6TH STREET, WRAY, CO, 80758","Match","Exact","240 W 6TH ST, WRAY, CO, 80758",161458865,"R"
132559,"240 W 9TH AV","OSHKOSH","WI",54902,NA,NA,59,"240 W 9TH AV, OSHKOSH, WI, 54902","No_Match",NA,NA,NA,NA
132560,"240 W GALVESTON ST PO BOX 1066","LEAGUE CITY","TX",77574,NA,NA,60,"240 W GALVESTON ST PO BOX 1066, LEAGUE CITY, TX, 77574","No_Match",NA,NA,NA,NA
132561,"240 W GALVESTON ST UNIT 1555","LEAGUE CITY","TX",77574,NA,NA,61,"240 W GALVESTON ST UNIT 1555, LEAGUE CITY, TX, 77574","No_Match",NA,NA,NA,NA
132562,"240 W HIGHTOWER TRAIL","SOCIAL CIRCLE","GA",30025,33.6574637800001,-83.72079367,62,"240 W HIGHTOWER TRAIL, SOCIAL CIRCLE, GA, 30025","Match","Exact","240 W HIGHTOWER TRL, SOCIAL CIRCLE, GA, 30025",77617033,"R"
132563,"240 W MAIN PO BOX 23","ANTHONY","KS",67003,NA,NA,63,"240 W MAIN PO BOX 23, ANTHONY, KS, 67003","No_Match",NA,NA,NA,NA
132564,"240 W MAIN SUITE 100","MIDLAND","MI",48640,NA,NA,64,"240 W MAIN SUITE 100, MIDLAND, MI, 48640","No_Match",NA,NA,NA,NA
132565,"240 W OSBORN RD 5002","PHOENIX","AZ",85013,33.4875562010001,-112.077220803,65,"240 W OSBORN RD 5002, PHOENIX, AZ, 85013","Match","Non_Exact","240 W OSBORN RD, PHOENIX, AZ, 85013",128206363,"R"
132566,"240 W THOMAS RD SUITE 400","PHOENIX","AZ",85013,33.4802960430001,-112.077189708,66,"240 W THOMAS RD SUITE 400, PHOENIX, AZ, 85013","Match","Non_Exact","240 W THOMAS RD, PHOENIX, AZ, 85013",128211272,"R"
132567,"240 WAGON WHEEL CURVE RD","HARDINSBURG","KY",40143,37.804201119,-86.507756141,67,"240 WAGON WHEEL CURVE RD, HARDINSBURG, KY, 40143","Match","Non_Exact","240 WAGONWHEEL CURVE RD, HARDINSBURG, KY, 40143",8041534,"L"
132568,"240 WARNER STREET","HORTONVILLE","WI",54944,44.33892597,-88.6302631029999,68,"240 WARNER STREET, HORTONVILLE, WI, 54944","Match","Exact","240 WARNER ST, HORTONVILLE, WI, 54944",74879796,"R"
132569,"240 WEST  WINTERGREEN RD  SUIT 303","LANCASTER","TX",75134,32.618620046,-96.768509889,69,"240 WEST  WINTERGREEN RD  SUIT 303, LANCASTER, TX, 75134","Match","Exact","240 W WINTERGREEN RD, LANCASTER, TX, 75134",102954965,"L"
132570,"240 WEST 104TH STREET","LOS ANGELES","CA",90003,33.9419223260001,-118.277015128,70,"240 WEST 104TH STREET, LOS ANGELES, CA, 90003","Match","Exact","240 W 104TH ST, LOS ANGELES, CA, 90003",141661902,"L"
132571,"240 WEST 75TH STREET","NEW YORK","NY",10023,40.7813344520001,-73.982049466,71,"240 WEST 75TH STREET, NEW YORK, NY, 10023","Match","Exact","240 W 75TH ST, NEW YORK, NY, 10023",59656640,"L"
132572,"240 WEST GALVESTON STREET STE 3053","LEAGUE CITY","TX",77574,29.5049306290001,-95.0973094289999,72,"240 WEST GALVESTON STREET STE 3053, LEAGUE CITY, TX, 77574","Match","Non_Exact","240 W GALVESTON ST, LEAGUE CITY, TX, 77573",96682424,"R"
132573,"240 WEST MAIN STREET STE 1000","MIDLAND","MI",48640,43.6140329570001,-84.246697209,73,"240 WEST MAIN STREET STE 1000, MIDLAND, MI, 48640","Match","Exact","240 W MAIN ST, MIDLAND, MI, 48640",81196488,"R"
132574,"240 WEST PALMETTO PARK ROAD STE 320","BOCA RATON","FL",33432,26.350456444,-80.0906618339999,74,"240 WEST PALMETTO PARK ROAD STE 320, BOCA RATON, FL, 33432","Match","Exact","240 W PALMETTO PARK RD, BOCA RATON, FL, 33432",115303124,"L"
132575,"240 WEST WRIGHT STREET","WEST BRANCH","MI",48661,44.2749185320001,-84.237584695,75,"240 WEST WRIGHT STREET, WEST BRANCH, MI, 48661","Match","Non_Exact","240 WRIGHT ST, WEST BRANCH, MI, 48661",161345759,"L"
132576,"240 WITHERS LN","LADSON","SC",29456,32.9806155790001,-80.1410810309999,76,"240 WITHERS LN, LADSON, SC, 29456","Match","Exact","240 WITHERS LN, LADSON, SC, 29456",640592501,"R"
132577,"240 WOODBRIDGE CIRCLE","MOUNT HOLLY","NC",28120,35.327530779,-81.018370341,77,"240 WOODBRIDGE CIRCLE, MOUNT HOLLY, NC, 28120","Match","Exact","240 WOODBRIDGE CIR, MOUNT HOLLY, NC, 28120",633795911,"L"
132578,"240-19 141ST AVENUE","ROSEDALE","NY",11422,40.6645933630001,-73.739645248,78,"240-19 141ST AVENUE, ROSEDALE, NY, 11422","Match","Exact","240-19 141ST AVE, ROSEDALE, NY, 11422",59721773,"L"
132579,"2400 24TH RD S 35","ARLINGTON","VA",22206,38.849160957,-77.0794325849999,79,"2400 24TH RD S 35, ARLINGTON, VA, 22206","Match","Exact","2400 24TH RD S, ARLINGTON, VA, 22206",76477770,"R"
132580,"2400 2ND STREET","MOUNDSVILLE","WV",26041,39.9258107680001,-80.7276716709999,80,"2400 2ND STREET, MOUNDSVILLE, WV, 26041","Match","Exact","2400 2ND ST, MOUNDSVILLE, WV, 26041",38062834,"R"
132581,"2400 34TH ST","DES MOINES","IA",50310,41.615877418,-93.663375491,81,"2400 34TH ST, DES MOINES, IA, 50310","Match","Exact","2400 34TH ST, DES MOINES, IA, 50310",65855164,"L"
132582,"2400 42ND STREET SOUTH","ST PETERSBURG","FL",33711,27.7468332880001,-82.6899716029999,82,"2400 42ND STREET SOUTH, ST PETERSBURG, FL, 33711","Match","Exact","2400 42ND ST S, SAINT PETERSBURG, FL, 33711",124709307,"L"
132583,"2400 4TH AVE / STE 542","SEATTLE","WA",98121,47.6162145580001,-122.345358931,83,"2400 4TH AVE / STE 542, SEATTLE, WA, 98121","Match","Exact","2400 4TH AVE, SEATTLE, WA, 98121",186990237,"R"
132584,"2400 71ST STREET","PHILADELPHIA","PA",19142,39.9168462440001,-75.239880912,84,"2400 71ST STREET, PHILADELPHIA, PA, 19142","Match","Non_Exact","2400 S 71ST ST, PHILADELPHIA, PA, 19142",131408585,"R"
132585,"2400 86TH STREET  SUITE 20","URBANDALE","IA",50322,41.61700223,-93.736574091,85,"2400 86TH STREET  SUITE 20, URBANDALE, IA, 50322","Match","Exact","2400 86TH ST, URBANDALE, IA, 50322",640784487,"L"
132586,"2400 86TH STREET SUITE 6","DES MOINES","IA",50322,41.61700223,-93.736574091,86,"2400 86TH STREET SUITE 6, DES MOINES, IA, 50322","Match","Exact","2400 86TH ST, DES MOINES, IA, 50322",640784487,"L"
132587,"2400 ADAMS ROAD","CINCINNATI","OH",45231,39.243168536,-84.567345124,87,"2400 ADAMS ROAD, CINCINNATI, OH, 45231","Match","Exact","2400 ADAMS RD, CINCINNATI, OH, 45231",103919454,"R"
132588,"2400 ALTA VISTA DR","DENTON","TX",76210,33.1560055900001,-97.107153414,88,"2400 ALTA VISTA DR, DENTON, TX, 76210","Match","Exact","2400 ALTA VISTA DR, DENTON, TX, 76210",634085356,"R"
132589,"2400 ANSYS DRIVE SUITE 102","CANONSBURG","PA",15317,NA,NA,89,"2400 ANSYS DRIVE SUITE 102, CANONSBURG, PA, 15317","No_Match",NA,NA,NA,NA
132590,"2400 BAILEYS CROSSROADS RD","COATS","NC",27521,35.401357784,-78.597664489,90,"2400 BAILEYS CROSSROADS RD, COATS, NC, 27521","Match","Exact","2400 BAILEYS CROSSROADS RD, COATS, NC, 27521",635886165,"R"
132591,"2400 BARNETTS ROAD","PROVIDENCE FORGE","VA",23140,37.457803443,-77.129779358,91,"2400 BARNETTS ROAD, PROVIDENCE FORGE, VA, 23140","Match","Exact","2400 BARNETTS RD, PROVIDENCE FORGE, VA, 23140",199507153,"L"
132592,"2400 BATTERSEA PL APT 103","WINDSORMILL","MD",21244,39.324143355,-76.760196627,92,"2400 BATTERSEA PL APT 103, WINDSORMILL, MD, 21244","Match","Non_Exact","2400 BATTERSEA PL, WINDSOR MILL, MD, 21244",191508993,"L"
132593,"2400 BEAUMONT AVENUE","LIBERTY","TX",77575,NA,NA,93,"2400 BEAUMONT AVENUE, LIBERTY, TX, 77575","No_Match",NA,NA,NA,NA
132594,"2400 BEDFORD AVE","BELLMORE","NY",11710,40.6649703580001,-73.526091628,94,"2400 BEDFORD AVE, BELLMORE, NY, 11710","Match","Exact","2400 BEDFORD AVE, BELLMORE, NY, 11710",147637303,"R"
132595,"2400 BEECHVIEW CT","RALEIGH","NC",27615,35.9093935120001,-78.677933267,95,"2400 BEECHVIEW CT, RALEIGH, NC, 27615","Match","Exact","2400 BEECHVIEW CT, RALEIGH, NC, 27615",72495189,"L"
132596,"2400 BLAISDELL AVE S SUITE 205","MINNEAPOLIS","MN",55404,44.9589690920001,-93.279632034,96,"2400 BLAISDELL AVE S SUITE 205, MINNEAPOLIS, MN, 55404","Match","Exact","2400 BLAISDELL AVE S, MINNEAPOLIS, MN, 55404",43632289,"R"
132597,"2400 BLAISDELL AVENUE SUITE 105","MINNEAPOLIS","MN",55404,44.9589690920001,-93.279632034,97,"2400 BLAISDELL AVENUE SUITE 105, MINNEAPOLIS, MN, 55404","Match","Non_Exact","2400 BLAISDELL AVE S, MINNEAPOLIS, MN, 55404",43632289,"R"
132598,"2400 BOB WALLACE AVENUE SUITE 204","HUNTSVILLE","AL",35805,34.711283795,-86.595992541,98,"2400 BOB WALLACE AVENUE SUITE 204, HUNTSVILLE, AL, 35805","Match","Non_Exact","2400 BOB WALLACE AVE SW, HUNTSVILLE, AL, 35805",58211649,"R"
132599,"2400 BOLTON BOONE DR 4213","DESOTO","TX",75115,32.633581189,-96.8784487899999,99,"2400 BOLTON BOONE DR 4213, DESOTO, TX, 75115","Match","Exact","2400 BOLTON BOONE DR, DESOTO, TX, 75115",649831327,"R"
132600,"2400 BRADFORD BAY RD SW","ALEXANDRIA","MN",56308,NA,NA,100,"2400 BRADFORD BAY RD SW, ALEXANDRIA, MN, 56308","No_Match",NA,NA,NA,NA
132601,"2400 BRIARWEST BLVD  SUITE 2101","HOUSTON","TX",77077,29.739521741,-95.61411126,101,"2400 BRIARWEST BLVD  SUITE 2101, HOUSTON, TX, 77077","Match","Exact","2400 BRIARWEST BLVD, HOUSTON, TX, 77077",96618748,"R"
132602,"2400 BUSINESS CENTER APT 419","PEARLAND","TX",77584,NA,NA,102,"2400 BUSINESS CENTER APT 419, PEARLAND, TX, 77584","No_Match",NA,NA,NA,NA
132603,"2400 BUSINESS CENTER DRIVE APT 637","PEARLAND","TX",77584,29.5697191520001,-95.390502926,103,"2400 BUSINESS CENTER DRIVE APT 637, PEARLAND, TX, 77584","Match","Non_Exact","2400 BUS CENTER DR, PEARLAND, TX, 77584",614108411,"R"
132604,"2400 CALLIE STILL RD","LAWRENCEVILLE","GA",30045,33.9131448580001,-83.895154041,104,"2400 CALLIE STILL RD, LAWRENCEVILLE, GA, 30045","Match","Exact","2400 CALLIE STILL RD, LAWRENCEVILLE, GA, 30045",642534741,"R"
132605,"2400 CHEVARON DR","CONCORD","NC",28025,35.383492205,-80.475583768,105,"2400 CHEVARON DR, CONCORD, NC, 28025","Match","Exact","2400 CHEVARON DR, CONCORD, NC, 28025",24891207,"L"
132606,"2400 CHEW ST","ALLENTOWN","PA",18104,40.5966973880001,-75.5090363859999,106,"2400 CHEW ST, ALLENTOWN, PA, 18104","Match","Non_Exact","2400 W CHEW ST, ALLENTOWN, PA, 18104",629176023,"L"
132607,"2400 CLAY STREET","SAN FRANCISCO","CA",94115,37.79091428,-122.4326595,107,"2400 CLAY STREET, SAN FRANCISCO, CA, 94115","Match","Exact","2400 CLAY ST, SAN FRANCISCO, CA, 94115",192298961,"R"
132608,"2400 CLOVELLY COURT","GREENSBORO","NC",27406,36.037389938,-79.6991128829999,108,"2400 CLOVELLY COURT, GREENSBORO, NC, 27406","Match","Exact","2400 CLOVELLY CT, GREENSBORO, NC, 27406",131087974,"R"
132609,"2400 COLD RIVER DRIVE","HUMBLE","TX",77396,29.971690526,-95.242828518,109,"2400 COLD RIVER DRIVE, HUMBLE, TX, 77396","Match","Exact","2400 COLD RIVER DR, HUMBLE, TX, 77396",627949250,"R"
132610,"2400 COLD SPRINGS","FORT WORTH","TX",76106,32.788530489,-97.324455326,110,"2400 COLD SPRINGS, FORT WORTH, TX, 76106","Match","Non_Exact","2400 COLD SPRINGS RD, FORT WORTH, TX, 76106",101858020,"R"
132611,"2400 COLONIAL AVE","WACO","TX",76707,31.5495407220001,-97.1584313399999,111,"2400 COLONIAL AVE, WACO, TX, 76707","Match","Exact","2400 COLONIAL AVE, WACO, TX, 76707",146735155,"L"
132612,"2400 COLONY RD","CHARLOTTE","NC",28209,35.172937787,-80.8315629689999,112,"2400 COLONY RD, CHARLOTTE, NC, 28209","Match","Exact","2400 COLONY RD, CHARLOTTE, NC, 28209",653473342,"R"
132613,"2400 COLONY ROAD","CHARLOTTE","NC",28209,35.172937787,-80.8315629689999,113,"2400 COLONY ROAD, CHARLOTTE, NC, 28209","Match","Exact","2400 COLONY RD, CHARLOTTE, NC, 28209",653473342,"R"
132614,"2400 COMPUTER DRIVE","WESTBOROUGH","MA",1581,NA,NA,114,"2400 COMPUTER DRIVE, WESTBOROUGH, MA, 1581","No_Match",NA,NA,NA,NA
132615,"2400 CRESTA DR","DECATUR","GA",30032,33.7292915940001,-84.294102809,115,"2400 CRESTA DR, DECATUR, GA, 30032","Match","Exact","2400 CRESTA DR, DECATUR, GA, 30032",23368276,"L"
132616,"2400 DAMSEL EVE DR","LEWISVILLE","TX",75056,33.0267306760001,-96.898387159,116,"2400 DAMSEL EVE DR, LEWISVILLE, TX, 75056","Match","Exact","2400 DAMSEL EVE DR, LEWISVILLE, TX, 75056",650712035,"L"
132617,"2400 DAVIDSON AVENUE APT A18","BRONX","NY",10468,40.8615926850001,-73.903048164,117,"2400 DAVIDSON AVENUE APT A18, BRONX, NY, 10468","Match","Exact","2400 DAVIDSON AVE, BRONX, NY, 10468",80298658,"R"
132618,"2400 DE CARLIN DRIVE","BROOKFIELD","WI",53045,43.0626612930001,-88.18480054,118,"2400 DE CARLIN DRIVE, BROOKFIELD, WI, 53045","Match","Exact","2400 DE CARLIN DR, BROOKFIELD, WI, 53045",53812252,"R"
132619,"2400 DILWYN COURT","MATTHEWS","NC",28104,35.134416425,-80.634385622,119,"2400 DILWYN COURT, MATTHEWS, NC, 28104","Match","Exact","2400 DILWYN CT, MATTHEWS, NC, 28104",14198093,"R"
132620,"2400 DISTRICT AVENUE  STE 216","BURLINGTON","MA",1803,NA,NA,120,"2400 DISTRICT AVENUE  STE 216, BURLINGTON, MA, 1803","No_Match",NA,NA,NA,NA
132621,"2400 DOVERCOURT DRIVE","MIDLOTHIAN","VA",23113,37.5246930820001,-77.6639255429999,121,"2400 DOVERCOURT DRIVE, MIDLOTHIAN, VA, 23113","Match","Exact","2400 DOVERCOURT DR, MIDLOTHIAN, VA, 23113",201528696,"R"
132622,"2400 E COMMERCIAL BLVD STE 718","FT LAUDERDALE","FL",33308,26.189576189,-80.112857605,122,"2400 E COMMERCIAL BLVD STE 718, FT LAUDERDALE, FL, 33308","Match","Non_Exact","2400 E COMMERCIAL BLVD, FORT LAUDERDALE, FL, 33308",114724082,"R"
132623,"2400 E HARTFORD AVE ROOM 309","MILWAUKEE","WI",53211,43.0776690650001,-87.878917077,123,"2400 E HARTFORD AVE ROOM 309, MILWAUKEE, WI, 53211","Match","Non_Exact","2400 E HARTFORD AVE, MILWAUKEE, WI, 53211",77744110,"L"
132624,"2400 E KENWOOD BLVD RM203","MILWAUKEE","WI",53211,43.0746447990001,-87.8803407459999,124,"2400 E KENWOOD BLVD RM203, MILWAUKEE, WI, 53211","Match","Non_Exact","2400 E KENWOOD BLVD, MILWAUKEE, WI, 53211",77744074,"L"
132625,"2400 E MCNICHOLS","DETROIT","MI",48212,42.4184791980001,-83.080152976,125,"2400 E MCNICHOLS, DETROIT, MI, 48212","Match","Non_Exact","2400 E MCNICHOLS RD, DETROIT, MI, 48212",95463773,"R"
132626,"2400 E MILLBROOK ROAD","RALEIGH","NC",27604,NA,NA,126,"2400 E MILLBROOK ROAD, RALEIGH, NC, 27604","Tie",NA,NA,NA,NA
132627,"2400 E SHAW MOUNTAIN RD","BOISE","ID",83712,43.6164493160001,-116.163490123,127,"2400 E SHAW MOUNTAIN RD, BOISE, ID, 83712","Match","Exact","2400 SHAW MOUNTAIN RD, BOISE, ID, 83712",643271786,"L"
132628,"2400 E VALLEY RD","RENTON","WA",98057,47.458559129,-122.218080196,128,"2400 E VALLEY RD, RENTON, WA, 98057","Match","Exact","2400 E VALLEY RD, RENTON, WA, 98057",239766300,"R"
132629,"2400 E WALNUT STREET","SEGUIN","TX",78155,29.5762844490001,-97.924474162,129,"2400 E WALNUT STREET, SEGUIN, TX, 78155","Match","Exact","2400 E WALNUT ST, SEGUIN, TX, 78155",54850277,"L"
132630,"2400 EAST DEVON AVENUE SUITE 281","DES PLAINES","IL",60018,NA,NA,130,"2400 EAST DEVON AVENUE SUITE 281, DES PLAINES, IL, 60018","No_Match",NA,NA,NA,NA
132631,"2400 EAST KATELLA AVENUE SUITE 330","ANAHEIM","CA",92806,33.804972938,-117.884046827,131,"2400 EAST KATELLA AVENUE SUITE 330, ANAHEIM, CA, 92806","Match","Exact","2400 E KATELLA AVE, ANAHEIM, CA, 92806",648685982,"R"
132632,"2400 EAST MILLBROOK ROAD","RALEIGH","NC",27604,35.848535767,-78.5991472329999,132,"2400 EAST MILLBROOK ROAD, RALEIGH, NC, 27604","Match","Exact","2400 E MILLBROOK RD, RALEIGH, NC, 27604",72533222,"R"
132633,"2400 EASTERN SE","GRAND RAPIDS","MI",49507,42.919909594,-85.647520753,133,"2400 EASTERN SE, GRAND RAPIDS, MI, 49507","Match","Non_Exact","2400 EASTERN AVE SE, GRAND RAPIDS, MI, 49507",12462060,"L"
132634,"2400 EDDYSTONE RD","RALEIGH","NC",27612,35.8681870230001,-78.681962974,134,"2400 EDDYSTONE RD, RALEIGH, NC, 27612","Match","Exact","2400 EDDYSTONE RD, RALEIGH, NC, 27612",72495538,"L"
132635,"2400 EDINGAL DRIVE","BAKERSFIELD","CA",93311,35.333346073,-119.140723908,135,"2400 EDINGAL DRIVE, BAKERSFIELD, CA, 93311","Match","Exact","2400 EDINGAL DR, BAKERSFIELD, CA, 93311",109529325,"L"
132636,"2400 EILERS LN APT 1902","LODI","CA",95242,38.148056066,-121.305489107,136,"2400 EILERS LN APT 1902, LODI, CA, 95242","Match","Exact","2400 EILERS LN, LODI, CA, 95242",133870351,"R"
132637,"2400 EMOGENE STREET","MOBILE","AL",36606,30.6819935340001,-88.0960544,137,"2400 EMOGENE STREET, MOBILE, AL, 36606","Match","Exact","2400 EMOGENE ST, MOBILE, AL, 36606",61932368,"R"
132638,"2400 ENVOY CIRCLE SUITE 2406","LOUISVILLE","KY",40299,38.2162656520001,-85.577519454,138,"2400 ENVOY CIRCLE SUITE 2406, LOUISVILLE, KY, 40299","Match","Exact","2400 ENVOY CIR, LOUISVILLE, KY, 40299",647927841,"L"
132639,"2400 EPPERLY DR","DEL CITY","OK",73115,35.440859458,-97.436964786,139,"2400 EPPERLY DR, DEL CITY, OK, 73115","Match","Exact","2400 EPPERLY DR, DEL CITY, OK, 73115",100413447,"L"
132640,"2400 EUCLID AVENUE","NATIONAL CITY","CA",91950,32.6684237440001,-117.07678467,140,"2400 EUCLID AVENUE, NATIONAL CITY, CA, 91950","Match","Exact","2400 EUCLID AVE, NATIONAL CITY, CA, 91950",195674377,"R"
132641,"2400 FLETCHER PL","EL PASO","TX",79936,31.7776701770001,-106.288103549,141,"2400 FLETCHER PL, EL PASO, TX, 79936","Match","Exact","2400 FLETCHER PL, EL PASO, TX, 79936",189378385,"L"
132642,"2400 FREEMAN ROAD SUITE 200","GREENSBORO","NC",27106,NA,NA,142,"2400 FREEMAN ROAD SUITE 200, GREENSBORO, NC, 27106","No_Match",NA,NA,NA,NA
132643,"2400 GLENDALE LANE SUITE C","SACRAMENTO","CA",95825,38.5980303600001,-121.404139979,143,"2400 GLENDALE LANE SUITE C, SACRAMENTO, CA, 95825","Match","Exact","2400 GLENDALE LN, SACRAMENTO, CA, 95825",133412961,"R"
132644,"2400 GRANT BLVD","SYRACUSE","NY",13208,43.073535027,-76.1473753449999,144,"2400 GRANT BLVD, SYRACUSE, NY, 13208","Match","Exact","2400 GRANT BLVD, SYRACUSE, NY, 13208",46622638,"R"
132645,"2400 GREENSBURG CIRCLE","RENO","NV",89509,39.4915075600001,-119.859313498,145,"2400 GREENSBURG CIRCLE, RENO, NV, 89509","Match","Exact","2400 GREENSBURG CIR, RENO, NV, 89509",107072410,"L"
132646,"2400 GRETTER PLACE","ALEXANDRIA","VA",22311,38.8324087680001,-77.110055127,146,"2400 GRETTER PLACE, ALEXANDRIA, VA, 22311","Match","Exact","2400 GRETTER PL, ALEXANDRIA, VA, 22311",76063422,"R"
132647,"2400 HERODIAN WAY SE 220","SMYRNA","GA",30080,33.8922494440001,-84.47455611,147,"2400 HERODIAN WAY SE 220, SMYRNA, GA, 30080","Match","Non_Exact","2400 HERODIAN WAY, SMYRNA, GA, 30080",647806683,"L"
132648,"2400 HERODIAN WAY SE STE 220","SMYRNA","GA",30080,33.8922494440001,-84.47455611,148,"2400 HERODIAN WAY SE STE 220, SMYRNA, GA, 30080","Match","Non_Exact","2400 HERODIAN WAY, SMYRNA, GA, 30080",647806683,"L"
132649,"2400 HERODIAN WAY SE SUITE 220","SMYRNA","GA",30080,33.8922494440001,-84.47455611,149,"2400 HERODIAN WAY SE SUITE 220, SMYRNA, GA, 30080","Match","Non_Exact","2400 HERODIAN WAY, SMYRNA, GA, 30080",647806683,"L"
132650,"2400 HERODIAN WAY SE","SMYRNA","GA",30080,33.8922494440001,-84.47455611,150,"2400 HERODIAN WAY SE, SMYRNA, GA, 30080","Match","Non_Exact","2400 HERODIAN WAY, SMYRNA, GA, 30080",647806683,"L"
132651,"2400 HERODIAN WAY SUITE 390","SMYRNA","GA",30080,33.8922494440001,-84.47455611,151,"2400 HERODIAN WAY SUITE 390, SMYRNA, GA, 30080","Match","Exact","2400 HERODIAN WAY, SMYRNA, GA, 30080",647806683,"L"
132652,"2400 HIGHWAY 64","PULASKI","TN",38478,35.20600223,-87.0653681969999,152,"2400 HIGHWAY 64, PULASKI, TN, 38478","Match","Non_Exact","2400 US HWY 64, PULASKI, TN, 38478",638957601,"R"
132653,"2400 HOLLINS FERRY ROAD","BALTIMORE","MD",21230,39.263098993,-76.642120156,153,"2400 HOLLINS FERRY ROAD, BALTIMORE, MD, 21230","Match","Exact","2400 HOLLINS FERRY RD, BALTIMORE, MD, 21230",206422126,"R"
132654,"2400 HOMEDALE CIRCLE","AUSTIN","TX",78704,30.2527754270001,-97.781552581,154,"2400 HOMEDALE CIRCLE, AUSTIN, TX, 78704","Match","Exact","2400 HOMEDALE CIR, AUSTIN, TX, 78704",63943568,"R"
132655,"2400 HWY 12","VIDOR","TX",77662,30.14335779,-93.989838085,155,"2400 HWY 12, VIDOR, TX, 77662","Match","Non_Exact","2400 STATE HWY 12, VIDOR, TX, 77662",74030784,"L"
132656,"2400 INDUSTRIAL LANE STE 2600","BROOMFIELD","CO",80020,39.9206177880001,-105.095893736,156,"2400 INDUSTRIAL LANE STE 2600, BROOMFIELD, CO, 80020","Match","Exact","2400 INDUSTRIAL LN, BROOMFIELD, CO, 80020",210039886,"L"
132657,"2400 INTERLACHEN ROAD APT 217","SPRING PARK","MN",55384,44.9344365760001,-93.631797965,157,"2400 INTERLACHEN ROAD APT 217, SPRING PARK, MN, 55384","Match","Exact","2400 INTERLACHEN RD, SPRING PARK, MN, 55384",43603040,"R"
132658,"2400 JOHNSTOWN RD","CHESAPEAKE","VA",23322,36.6428145360001,-76.2713217,158,"2400 JOHNSTOWN RD, CHESAPEAKE, VA, 23322","Match","Exact","2400 JOHNSTOWN RD, CHESAPEAKE, VA, 23322",121793861,"R"
132659,"2400 JOHNSTOWN RD","HUNTINGTON","WV",25701,38.397249688,-82.4587609609999,159,"2400 JOHNSTOWN RD, HUNTINGTON, WV, 25701","Match","Exact","2400 JOHNSTOWN RD, HUNTINGTON, WV, 25701",616588748,"L"
132660,"2400 JONI LANE","STEVENSVILLE","MI",49127,42.007686748,-86.511292974,160,"2400 JONI LANE, STEVENSVILLE, MI, 49127","Match","Exact","2400 JONI LN, STEVENSVILLE, MI, 49127",119974485,"L"
132661,"2400 KEYSTONE DRIVE","WALDORF","MD",20601,38.6483558510001,-76.876597609,161,"2400 KEYSTONE DRIVE, WALDORF, MD, 20601","Match","Exact","2400 KEYSTONE DR, WALDORF, MD, 20601",25389614,"L"
132662,"2400 KNEECE RD APT 2107","COLUMBIA","SC",29223,34.057638303,-80.9464768409999,162,"2400 KNEECE RD APT 2107, COLUMBIA, SC, 29223","Match","Exact","2400 KNEECE RD, COLUMBIA, SC, 29223",612214180,"L"
132663,"2400 LAKESIDE ROAD","ERIE","MI",48133,41.809611397,-83.492221441,163,"2400 LAKESIDE ROAD, ERIE, MI, 48133","Match","Exact","2400 LAKESIDE RD, ERIE, MI, 48133",40502517,"L"
132664,"2400 LAS GALINAS AVENUE STE 130","SAN RAFAEL","CA",94903,NA,NA,164,"2400 LAS GALINAS AVENUE STE 130, SAN RAFAEL, CA, 94903","No_Match",NA,NA,NA,NA
132665,"2400 LINDBERGH DRIVE","MINNETONKA","MN",55305,44.958255287,-93.41018946,165,"2400 LINDBERGH DRIVE, MINNETONKA, MN, 55305","Match","Exact","2400 LINDBERGH DR, MINNETONKA, MN, 55305",43858357,"R"
132666,"2400 LLOYD CT","COLUMBIA","MO",65203,38.9250665590001,-92.375754714,166,"2400 LLOYD CT, COLUMBIA, MO, 65203","Match","Exact","2400 LLOYD CT, COLUMBIA, MO, 65203",23487471,"L"
132667,"2400 LONGLEAF DR","PENSACOLA","FL",32526,30.4863885190001,-87.2928355779999,167,"2400 LONGLEAF DR, PENSACOLA, FL, 32526","Match","Exact","2400 LONGLEAF DR, PENSACOLA, FL, 32526",645830198,"L"
132668,"2400 MAIN ST SUITE 202","IRVINE","CA",92614,33.683833178,-117.846595754,168,"2400 MAIN ST SUITE 202, IRVINE, CA, 92614","Match","Exact","2400 MAIN ST, IRVINE, CA, 92614",144058337,"R"
132669,"2400 MAIN STREET","PORTERDALE","GA",30014,NA,NA,169,"2400 MAIN STREET, PORTERDALE, GA, 30014","No_Match",NA,NA,NA,NA
132670,"2400 MANOR WAY","LOGANVILLE","GA",30052,33.7988323440001,-83.9616667189999,170,"2400 MANOR WAY, LOGANVILLE, GA, 30052","Match","Exact","2400 MANOR WAY, LOGANVILLE, GA, 30052",632096009,"L"
132671,"2400 MARIE DRIVE","TURLOCK","CA",95380,37.504104361,-120.821367796,171,"2400 MARIE DRIVE, TURLOCK, CA, 95380","Match","Exact","2400 MARIE DR, TURLOCK, CA, 95380",102597428,"R"
132672,"2400 MARKET STREET C04","HARRISBURG","PA",17103,NA,NA,172,"2400 MARKET STREET C04, HARRISBURG, PA, 17103","No_Match",NA,NA,NA,NA
132673,"2400 MAYFLOWER DR","GREENBACKVILLE","VA",23356,38.0069939590001,-75.423816479,173,"2400 MAYFLOWER DR, GREENBACKVILLE, VA, 23356","Match","Exact","2400 MAYFLOWER DR, GREENBACKVILLE, VA, 23356",114569570,"L"
132674,"2400 MCCUE ROAD APT 452","HOUSTON","TX",77056,29.7427689720001,-95.464235694,174,"2400 MCCUE ROAD APT 452, HOUSTON, TX, 77056","Match","Exact","2400 MCCUE RD, HOUSTON, TX, 77056",96584624,"R"
132675,"2400 MEMORIAL PARKWAY","PORTLAND","TX",78374,NA,NA,175,"2400 MEMORIAL PARKWAY, PORTLAND, TX, 78374","No_Match",NA,NA,NA,NA
132676,"2400 MERK RD SW","ATLANTA","GA",30331,NA,NA,176,"2400 MERK RD SW, ATLANTA, GA, 30331","No_Match",NA,NA,NA,NA
132677,"2400 MINNEHAHA AVENUE","MINNEAPOLIS","MN",55404,44.959063153,-93.241886125,177,"2400 MINNEHAHA AVENUE, MINNEAPOLIS, MN, 55404","Match","Exact","2400 MINNEHAHA AVE, MINNEAPOLIS, MN, 55404",43637159,"R"
132678,"2400 MOLLY BROWN DRIVE","CORYDON","IN",47112,38.231736116,-86.162123912,178,"2400 MOLLY BROWN DRIVE, CORYDON, IN, 47112","Match","Non_Exact","2400 MOLLY BROWN DR NW, CORYDON, IN, 47112",34813049,"L"
132679,"2400 N 20TH STREET","KANSAS CITY","KS",66104,39.13343874,-94.65228739,179,"2400 N 20TH STREET, KANSAS CITY, KS, 66104","Match","Exact","2400 N 20TH ST, KANSAS CITY, KS, 66104",91135385,"L"
132680,"2400 N FORSYTH RD STE 103","ORLANDO","FL",32807,28.579282882,-81.294531961,180,"2400 N FORSYTH RD STE 103, ORLANDO, FL, 32807","Match","Non_Exact","2400 N FORSYTH RD, ORLANDO, FL, 32807",611261660,"L"
132681,"2400 N HOWARD ST","BALTIMORE","MD",21218,39.3163296870001,-76.619639489,181,"2400 N HOWARD ST, BALTIMORE, MD, 21218","Match","Exact","2400 N HOWARD ST, BALTIMORE, MD, 21218",206418802,"L"
132682,"2400 N SAGINAW PO BOX 2167","MIDLAND","MI",48640,NA,NA,182,"2400 N SAGINAW PO BOX 2167, MIDLAND, MI, 48640","No_Match",NA,NA,NA,NA
132683,"2400 N SECOND ST SUITE NUMBER 401","MINNEAPOLIS","MN",55411,45.0038681660001,-93.2801950749999,183,"2400 N SECOND ST SUITE NUMBER 401, MINNEAPOLIS, MN, 55411","Match","Non_Exact","2400 N 2ND ST, MINNEAPOLIS, MN, 55411",43630632,"R"
132684,"2400 N WILMINGTON AVE","COMPTON","CA",90222,33.914556073,-118.239056324,184,"2400 N WILMINGTON AVE, COMPTON, CA, 90222","Match","Exact","2400 N WILMINGTON AVE, COMPTON, CA, 90222",642860994,"R"
132685,"2400 NASA PARKWAY","HOUSTON","TX",77058,29.5532805030001,-95.0833388789999,185,"2400 NASA PARKWAY, HOUSTON, TX, 77058","Match","Non_Exact","2400 E NASA PKWY, HOUSTON, TX, 77058",233350877,"R"
132686,"2400 NE BROADWAY ST","PORTLAND","OR",97232,45.535097561,-122.641074801,186,"2400 NE BROADWAY ST, PORTLAND, OR, 97232","Match","Exact","2400 NE BROADWAY ST, PORTLAND, OR, 97232",157506768,"R"
132687,"2400 NE WOODBURN DR","CAMAS","WA",98607,NA,NA,187,"2400 NE WOODBURN DR, CAMAS, WA, 98607","No_Match",NA,NA,NA,NA
132688,"2400 NEW HAVEN PLACE","OXNARD","CA",93035,34.1942587180001,-119.203728664,188,"2400 NEW HAVEN PLACE, OXNARD, CA, 93035","Match","Exact","2400 NEW HAVEN PL, OXNARD, CA, 93035",110021221,"L"
132689,"2400 NEW MACLAND RD","POWDER SPRINGS","GA",30127,33.8958833940001,-84.6762471919999,189,"2400 NEW MACLAND RD, POWDER SPRINGS, GA, 30127","Match","Exact","2400 NEW MACLAND RD, POWDER SPGS, GA, 30127",17252403,"R"
132690,"2400 NEW MACLAND ROAD","POWDER SPRINGS","GA",30127,33.8958833940001,-84.6762471919999,190,"2400 NEW MACLAND ROAD, POWDER SPRINGS, GA, 30127","Match","Exact","2400 NEW MACLAND RD, POWDER SPGS, GA, 30127",17252403,"R"
132691,"2400 NEW YORK AVENUE","WHITING","IN",46394,41.6707876040001,-87.4929657179999,191,"2400 NEW YORK AVENUE, WHITING, IN, 46394","Match","Exact","2400 NEW YORK AVE, WHITING, IN, 46394",98446704,"R"
132692,"2400 NORTH CARROLL AVENUE","SOUTHLAKE","TX",76092,32.9720870100001,-97.134024124,192,"2400 NORTH CARROLL AVENUE, SOUTHLAKE, TX, 76092","Match","Exact","2400 N CARROLL AVE, SOUTHLAKE, TX, 76092",102089772,"L"
132693,"2400 NORTHERN VISIONS DRIVE SUITE B","TRAVERSE CITY","MI",49684,NA,NA,193,"2400 NORTHERN VISIONS DRIVE SUITE B, TRAVERSE CITY, MI, 49684","No_Match",NA,NA,NA,NA
132694,"2400 NW 26TH STREET","FORT LAUDERDALE","FL",33311,26.158171103,-80.175253777,194,"2400 NW 26TH STREET, FORT LAUDERDALE, FL, 33311","Match","Non_Exact","2400 NW 26TH ST, FORT LAUDERDALE, FL, 33311",647885203,"R"
132695,"2400 NW 54TH STREET","MIAMI","FL",33142,25.8240356110001,-80.2367935239999,195,"2400 NW 54TH STREET, MIAMI, FL, 33142","Match","Exact","2400 NW 54TH ST, MIAMI, FL, 33142",116002234,"L"
132696,"2400 NW 68TH STREET","MIAMI","FL",33147,25.8363834210001,-80.237366991,196,"2400 NW 68TH STREET, MIAMI, FL, 33147","Match","Exact","2400 NW 68TH ST, MIAMI, FL, 33147",116001429,"L"
132697,"2400 NW 6TH STREET","GAINESVILLE","FL",32609,29.6748492680001,-82.330782732,197,"2400 NW 6TH STREET, GAINESVILLE, FL, 32609","Match","Exact","2400 NW 6TH ST, GAINESVILLE, FL, 32609",6805961,"L"
132698,"2400 NW 80TH STREET APT 339","SEATTLE","WA",98117,47.686803212,-122.387681255,198,"2400 NW 80TH STREET APT 339, SEATTLE, WA, 98117","Match","Non_Exact","2400 NW 80TH ST, SEATTLE, WA, 98117",186658569,"R"
132699,"2400 NW 86TH STREET - SUITE 25","DES MOINES","IA",50322,41.61700223,-93.736574091,199,"2400 NW 86TH STREET - SUITE 25, DES MOINES, IA, 50322","Match","Exact","2400 86TH ST, DES MOINES, IA, 50322",640784487,"L"
132700,"2400 NW SOUTH OUTER ROAD","BLUE SPRINGS","MO",64015,39.031672427,-94.2930148789999,200,"2400 NW SOUTH OUTER ROAD, BLUE SPRINGS, MO, 64015","Match","Exact","2400 NW SOUTH OUTER RD, BLUE SPRINGS, MO, 64015",91519038,"L"
132701,"2400 OKLAHOMA DR","MARRERO","LA",70072,29.8460587760001,-90.103961017,201,"2400 OKLAHOMA DR, MARRERO, LA, 70072","Match","Exact","2400 OKLAHOMA DR, MARRERO, LA, 70072",93531292,"L"
132702,"2400 OLCOTT AVE","ARDMORE","PA",19003,39.9955875520001,-75.2955875609999,202,"2400 OLCOTT AVE, ARDMORE, PA, 19003","Match","Exact","2400 OLCOTT AVE, ARDMORE, PA, 19003",134875081,"L"
132703,"2400 OLD GLENVIEW ROAD","WILMETTE","IL",60091,42.0685924860001,-87.733791654,203,"2400 OLD GLENVIEW ROAD, WILMETTE, IL, 60091","Match","Exact","2400 OLD GLENVIEW RD, WILMETTE, IL, 60091",605011471,"R"
132704,"2400 OLD MILTON PARKWAY UNIT 763","ALPHARETTA","GA",30009,34.070588641,-84.289174966,204,"2400 OLD MILTON PARKWAY UNIT 763, ALPHARETTA, GA, 30009","Match","Non_Exact","2400 OLD MILTON PKWY, ALPHARETTA, GA, 30009",642888542,"L"
132705,"2400 OLD MILTON PARKWAY UNIT 977","ALPHARETTA","GA",30009,34.070588641,-84.289174966,205,"2400 OLD MILTON PARKWAY UNIT 977, ALPHARETTA, GA, 30009","Match","Non_Exact","2400 OLD MILTON PKWY, ALPHARETTA, GA, 30009",642888542,"L"
132706,"2400 OLD MILTON PKWY STE 1345","ALPHARETTA","GA",30009,34.070588641,-84.289174966,206,"2400 OLD MILTON PKWY STE 1345, ALPHARETTA, GA, 30009","Match","Non_Exact","2400 OLD MILTON PKWY, ALPHARETTA, GA, 30009",642888542,"L"
132707,"2400 ORANGE AVENUE - UNIT 93146","CLEVELAND","OH",44101,41.491011794,-81.6717741909999,207,"2400 ORANGE AVENUE - UNIT 93146, CLEVELAND, OH, 44101","Match","Exact","2400 ORANGE AVE, CLEVELAND, OH, 44101",647777268,"R"
132708,"2400 ORO PLACE","APEX","NC",27502,35.7080591650001,-78.902331063,208,"2400 ORO PLACE, APEX, NC, 27502","Match","Exact","2400 ORO PL, APEX, NC, 27502",648036920,"L"
132709,"2400 PAFFORD DR","NASHVILLE","TN",37206,36.18940516,-86.7174851999999,209,"2400 PAFFORD DR, NASHVILLE, TN, 37206","Match","Exact","2400 PAFFORD DR, NASHVILLE, TN, 37206",97194910,"R"
132710,"2400 PARK AVE S","MINNEAPOLIS","MN",55404,44.958968101,-93.2651112359999,210,"2400 PARK AVE S, MINNEAPOLIS, MN, 55404","Match","Exact","2400 PARK AVE S, MINNEAPOLIS, MN, 55404",43632723,"R"
132711,"2400 PARK AVENUE SOUTH","MINNEAPOLIS","MN",55407,44.958968101,-93.2651112359999,211,"2400 PARK AVENUE SOUTH, MINNEAPOLIS, MN, 55407","Match","Non_Exact","2400 PARK AVE S, MINNEAPOLIS, MN, 55404",43632723,"R"
132712,"2400 PARKLAND DR STE 361","ATLANTA","GA",30324,NA,NA,212,"2400 PARKLAND DR STE 361, ATLANTA, GA, 30324","No_Match",NA,NA,NA,NA
132713,"2400 PEARL ST","AUSTIN","TX",78705,30.288196907,-97.746770467,213,"2400 PEARL ST, AUSTIN, TX, 78705","Match","Exact","2400 PEARL ST, AUSTIN, TX, 78705",63942670,"L"
132714,"2400 PORTAGE ST","KALAMAZOO","MI",49001,42.2667579540001,-85.5700605329999,214,"2400 PORTAGE ST, KALAMAZOO, MI, 49001","Match","Exact","2400 PORTAGE ST, KALAMAZOO, MI, 49001",12230008,"R"
132715,"2400 QUEENS CHAPEL ROAD APT 112","HYATTSVILLE","MD",20782,38.947498565,-76.9731132759999,215,"2400 QUEENS CHAPEL ROAD APT 112, HYATTSVILLE, MD, 20782","Match","Exact","2400 QUEENS CHAPEL RD, HYATTSVILLE, MD, 20782",76304236,"L"
132716,"2400 REEVESTON ROAD","RICHMOND","IN",47374,39.8239523980001,-84.8694609729999,216,"2400 REEVESTON ROAD, RICHMOND, IN, 47374","Match","Exact","2400 REEVESTON RD, RICHMOND, IN, 47374",31327292,"L"
132717,"2400 RIVERSTONE BLVD SUITE  5663","CANTON","GA",30114,34.255044008,-84.475011901,217,"2400 RIVERSTONE BLVD SUITE  5663, CANTON, GA, 30114","Match","Exact","2400 RIVERSTONE BLVD, CANTON, GA, 30114",68866313,"L"
132718,"2400 RUE CT","DAYTON","OH",45458,39.6131848250001,-84.1179888779999,218,"2400 RUE CT, DAYTON, OH, 45458","Match","Exact","2400 RUE CT, DAYTON, OH, 45458",625148147,"R"
132719,"2400 S 170TH ST","SEATAC","WA",98158,47.4506575980001,-122.302225922,219,"2400 S 170TH ST, SEATAC, WA, 98158","Match","Exact","2400 S 170TH ST, SEATAC, WA, 98158",187022802,"L"
132720,"2400 S 4TH ST","LOUISVILLE","KY",40208,38.2137919470001,-85.76405367,220,"2400 S 4TH ST, LOUISVILLE, KY, 40208","Match","Exact","2400 S 4TH ST, LOUISVILLE, KY, 40208",96844490,"R"
132721,"2400 S ARLINGTON HEIGHTS ROAD","ARLINGTON HEIGHTS","IL",60005,42.0437157280001,-87.983266476,221,"2400 S ARLINGTON HEIGHTS ROAD, ARLINGTON HEIGHTS, IL, 60005","Match","Exact","2400 S ARLINGTON HEIGHTS RD, ARLINGTON HEIGHTS, IL, 60005",637492946,"R"
132722,"2400 S COUNTY ROAD 450 W","FRANKFORT","IN",46041,40.251590171,-86.590360346,222,"2400 S COUNTY ROAD 450 W, FRANKFORT, IN, 46041","Match","Exact","2400 S CO RD 450 W, FRANKFORT, IN, 46041",27230337,"L"
132723,"2400 S ERVAY ST 208","DALLAS","TX",75215,32.7666987690001,-96.782730643,223,"2400 S ERVAY ST 208, DALLAS, TX, 75215","Match","Non_Exact","2400 S ERVAY ST, DALLAS, TX, 75215",102950219,"L"
132724,"2400 S MEMORIAL DR","NEW CASTLE","IN",47362,39.908586976,-85.3853055069999,224,"2400 S MEMORIAL DR, NEW CASTLE, IN, 47362","Match","Exact","2400 S MEMORIAL DR, NEW CASTLE, IN, 47362",29983349,"R"
132725,"2400 S RIDGEWOOD AVENUE SUITE 63D","SOUTH DAYTONA","FL",32119,29.167402601,-80.999688895,225,"2400 S RIDGEWOOD AVENUE SUITE 63D, SOUTH DAYTONA, FL, 32119","Match","Non_Exact","2400 S RIDGEWOOD AVE, S DAYTONA, FL, 32119",94527338,"R"
132726,"2400 S SCENIC AVENUE","SPRINGFIELD","MO",65607,37.171411984,-93.331959566,226,"2400 S SCENIC AVENUE, SPRINGFIELD, MO, 65607","Match","Non_Exact","2400 S SCENIC AVE, SPRINGFIELD, MO, 65807",653470570,"L"
132727,"2400 SAN DIMAS CANYON RD NO 134","LA VERNE","CA",91750,NA,NA,227,"2400 SAN DIMAS CANYON RD NO 134, LA VERNE, CA, 91750","No_Match",NA,NA,NA,NA
132728,"2400 SANDBURG LANE","GOLDEN VALLEY","MN",55427,45.006141729,-93.3669838019999,228,"2400 SANDBURG LANE, GOLDEN VALLEY, MN, 55427","Match","Exact","2400 SANDBURG LN, GOLDEN VALLEY, MN, 55427",616936785,"R"
132729,"2400 SE 36TH AVE STE 104","OCALA","FL",34471,NA,NA,229,"2400 SE 36TH AVE STE 104, OCALA, FL, 34471","No_Match",NA,NA,NA,NA
132730,"2400 SE C STREET SUITE 6","BENTONVILLE","AR",72712,36.3428459900001,-94.206443259,230,"2400 SE C STREET SUITE 6, BENTONVILLE, AR, 72712","Match","Non_Exact","2400 SE C ST, BENTONVILLE, AR, 72712",618552485,"L"
132731,"2400 SE FEDERAL HIGHWAY 4TH FLOOR","STUART","FL",34994,NA,NA,231,"2400 SE FEDERAL HIGHWAY 4TH FLOOR, STUART, FL, 34994","Tie",NA,NA,NA,NA
132732,"2400 SHARPE ROAD","GREENSBORO","NC",27406,36.048259074,-79.719720262,232,"2400 SHARPE ROAD, GREENSBORO, NC, 27406","Match","Exact","2400 SHARPE RD, GREENSBORO, NC, 27406",131036769,"R"
132733,"2400 SHOEMAKER STREET","BIRMINGHAM","AL",35235,33.653057388,-86.630841943,233,"2400 SHOEMAKER STREET, BIRMINGHAM, AL, 35235","Match","Exact","2400 SHOEMAKER ST, BIRMINGHAM, AL, 35235",81569102,"R"
132734,"2400 SILVAN RD","WESTTERRE HAUTE","IN",47885,39.4876296580001,-87.454278873,234,"2400 SILVAN RD, WESTTERRE HAUTE, IN, 47885","Match","Non_Exact","2400 SILVAN RD, W TERRE HAUTE, IN, 47885",27110751,"L"
132735,"2400 SOUTH 18TH AVE","BROADVIEW","IL",60155,41.8603269480001,-87.8541193999999,235,"2400 SOUTH 18TH AVE, BROADVIEW, IL, 60155","Match","Exact","2400 S 18TH AVE, BROADVIEW, IL, 60155",112207833,"R"
132736,"2400 SOUTH 22ND STREET","LINCOLN","NE",68502,40.788912516,-96.689618825,236,"2400 SOUTH 22ND STREET, LINCOLN, NE, 68502","Match","Exact","2400 S 22ND ST, LINCOLN, NE, 68502",28255594,"L"
132737,"2400 SOUTH HIGHWAY 27","CLERMONT","FL",34711,NA,NA,237,"2400 SOUTH HIGHWAY 27, CLERMONT, FL, 34711","No_Match",NA,NA,NA,NA
132738,"2400 SOUTH HOPKINS AVE STE J","TITUSVILLE","FL",32780,28.5868751300001,-80.806241671,238,"2400 SOUTH HOPKINS AVE STE J, TITUSVILLE, FL, 32780","Match","Exact","2400 S HOPKINS AVE, TITUSVILLE, FL, 32780",93891609,"R"
132739,"2400 SPRINGCREEK HWY","CRAWFORDVILLE","FL",32327,30.150528969,-84.3131834929999,239,"2400 SPRINGCREEK HWY, CRAWFORDVILLE, FL, 32327","Match","Non_Exact","2400 SPRING CREEK HWY, CRAWFORDVILLE, FL, 32327",610440524,"L"
132740,"2400 STANISLAUS STREET","RIVERBANK","CA",95367,37.7350113530001,-120.953984631,240,"2400 STANISLAUS STREET, RIVERBANK, CA, 95367","Match","Exact","2400 STANISLAUS ST, RIVERBANK, CA, 95367",102621185,"R"
132741,"2400 STATE HWY 121 NO 1004","EULESS","TX",76039,NA,NA,241,"2400 STATE HWY 121 NO 1004, EULESS, TX, 76039","No_Match",NA,NA,NA,NA
132742,"2400 SUMMIT DRIVE","ESCONDIDO","CA",92025,33.0984137930001,-117.043963527,242,"2400 SUMMIT DRIVE, ESCONDIDO, CA, 92025","Match","Exact","2400 SUMMIT DR, ESCONDIDO, CA, 92025",195710015,"L"
132743,"2400 SYCAMORE DRIVE","ANTIOCH","CA",94509,38.0059797820001,-121.832336949,243,"2400 SYCAMORE DRIVE, ANTIOCH, CA, 94509","Match","Exact","2400 SYCAMORE DR, ANTIOCH, CA, 94509",607731823,"R"
132744,"2400 THURROCK DRIVE","APEX","NC",27539,35.6463741650001,-78.731328278,244,"2400 THURROCK DRIVE, APEX, NC, 27539","Match","Exact","2400 THURROCK DR, APEX, NC, 27539",612815836,"R"
132745,"2400 TIMBERLINE DR APT 231","GRAPEVINE","TX",76051,32.9091869580001,-97.1023799879999,245,"2400 TIMBERLINE DR APT 231, GRAPEVINE, TX, 76051","Match","Exact","2400 TIMBERLINE DR, GRAPEVINE, TX, 76051",102145168,"L"
132746,"2400 TOM L WILSON BLVD","GALESBURG","IL",61401,NA,NA,246,"2400 TOM L WILSON BLVD, GALESBURG, IL, 61401","No_Match",NA,NA,NA,NA
132747,"2400 TRUXTON AVE","BAKERSFIELD","CA",93301,35.373383362,-119.029535572,247,"2400 TRUXTON AVE, BAKERSFIELD, CA, 93301","Match","Non_Exact","2400 TRUXTUN AVE, BAKERSFIELD, CA, 93301",109088511,"R"
132748,"2400 UNION RD SW","ATLANTA","GA",30331,33.682864813,-84.580151046,248,"2400 UNION RD SW, ATLANTA, GA, 30331","Match","Exact","2400 UNION RD SW, ATLANTA, GA, 30331",628079317,"L"
132749,"2400 UNION ROAD SW","ATLANTA","GA",30331,33.682864813,-84.580151046,249,"2400 UNION ROAD SW, ATLANTA, GA, 30331","Match","Exact","2400 UNION RD SW, ATLANTA, GA, 30331",628079317,"L"
132750,"2400 VIRGINIA AVE NW  -  C1115","WASHINGTON DC","DC",20037,38.897170745,-77.050244471,250,"2400 VIRGINIA AVE NW  -  C1115, WASHINGTON DC, DC, 20037","Match","Exact","2400 VIRGINIA AVE NW, WASHINGTON, DC, 20037",638314547,"R"
132751,"2400 W 17TH STREET CLASHWING RM1 LL","WILMINGTON","DE",19806,39.762125896,-75.571288061,251,"2400 W 17TH STREET CLASHWING RM1 LL, WILMINGTON, DE, 19806","Match","Non_Exact","2400 W 17TH ST, WILMINGTON, DE, 19806",187254648,"L"
132752,"2400 W 64TH PL","MERRILLVILLE","IN",46410,41.501718311,-87.367350265,252,"2400 W 64TH PL, MERRILLVILLE, IN, 46410","Match","Exact","2400 W 64TH PL, MERRILLVILLE, IN, 46410",98431208,"R"
132753,"2400 W COUNTY RD D SUITE 130","ROSEVILLE","MN",55112,NA,NA,253,"2400 W COUNTY RD D SUITE 130, ROSEVILLE, MN, 55112","No_Match",NA,NA,NA,NA
132754,"2400 W CR 1000 N","MUNCIE","IN",47303,40.3351869460001,-85.415652899,254,"2400 W CR 1000 N, MUNCIE, IN, 47303","Match","Exact","2400 W CO RD 1000 N, MUNCIE, IN, 47303",30852574,"R"
132755,"2400 W EL CAMINO REAL 111","MOUNTAIN VIEW","CA",94040,37.397843993,-122.106427558,255,"2400 W EL CAMINO REAL 111, MOUNTAIN VIEW, CA, 94040","Match","Non_Exact","2400 W EL CAMINO REAL, MOUNTAIN VIEW, CA, 94040",618164144,"R"
132756,"2400 W MAPLE AVE","MCALLEN","TX",78501,26.2175422660001,-98.244726497,256,"2400 W MAPLE AVE, MCALLEN, TX, 78501","Match","Exact","2400 W MAPLE AVE, MCALLEN, TX, 78501",71494084,"R"
132757,"2400 WASHINGTON STREET","PADUCAH","KY",42001,37.073583496,-88.624314751,257,"2400 WASHINGTON STREET, PADUCAH, KY, 42001","Match","Non_Exact","2400 WASHINGTON ST, PADUCAH, KY, 42003",8394045,"R"
132758,"2400 WASHINGTON STREET","PADUCAH","KY",42003,37.073583496,-88.624314751,258,"2400 WASHINGTON STREET, PADUCAH, KY, 42003","Match","Exact","2400 WASHINGTON ST, PADUCAH, KY, 42003",8394045,"R"
132759,"2400 WELLS STREET","BUSHLAND","TX",79012,NA,NA,259,"2400 WELLS STREET, BUSHLAND, TX, 79012","No_Match",NA,NA,NA,NA
132760,"2400 WEST 7TH STREET","RENO","NV",89503,39.530339843,-119.84659128,260,"2400 WEST 7TH STREET, RENO, NV, 89503","Match","Exact","2400 W 7TH ST, RENO, NV, 89503",107041938,"L"
132761,"2400 WESTBOROUGH BLVD STE 205","SOUTH SAN FRANCISCO","CA",94080,37.642701688,-122.454435344,261,"2400 WESTBOROUGH BLVD STE 205, SOUTH SAN FRANCISCO, CA, 94080","Match","Exact","2400 WESTBOROUGH BLVD, S SAN FRAN, CA, 94080",192371599,"R"
132762,"2400 WHITEHORSE MERCERVILLE ROAD","TRENTON","NJ",8619,40.2321359320001,-74.6872093219999,262,"2400 WHITEHORSE MERCERVILLE ROAD, TRENTON, NJ, 8619","Match","Exact","2400 WHITEHORSE MERCERVILLE RD, TRENTON, NJ, 08619",60184074,"L"
132763,"2400 WHITMORE STREET","FORT WORTH","TX",76107,32.7580472510001,-97.349317658,263,"2400 WHITMORE STREET, FORT WORTH, TX, 76107","Match","Exact","2400 WHITMORE ST, FORT WORTH, TX, 76107",101884452,"R"
132764,"2400 WRIGHT STREET ROOM 151","MADISON","WI",53704,43.1305279010001,-89.329943866,264,"2400 WRIGHT STREET ROOM 151, MADISON, WI, 53704","Match","Exact","2400 WRIGHT ST, MADISON, WI, 53704",646999870,"L"
132765,"2400 YORKTOWN ST","HOUSTON","TX",77056,29.7442406490001,-95.4707607289999,265,"2400 YORKTOWN ST, HOUSTON, TX, 77056","Match","Exact","2400 YORKTOWN ST, HOUSTON, TX, 77056",96033138,"R"
132766,"2400-A DISTRIBUTION ST","CHARLOTTE","NC",28203,35.2064679690001,-80.866815115,266,"2400-A DISTRIBUTION ST, CHARLOTTE, NC, 28203","Match","Exact","2400 DISTRIBUTION ST, CHARLOTTE, NC, 28203",70485333,"R"
132767,"2400-A JOHNSBURG RD","JOHNSBURG","IL",60051,42.380173965,-88.244098519,267,"2400-A JOHNSBURG RD, JOHNSBURG, IL, 60051","Match","Exact","2400 JOHNSBURG RD, JOHNSBURG, IL, 60051",119814544,"L"
132768,"2400","TRINITY","FL",34655,NA,NA,268,"2400, TRINITY, FL, 34655","No_Match",NA,NA,NA,NA
132769,"24000 ALICIA PARKWAY STE 17 NO 257","MISSION VIEJO","CA",92691,33.612737822,-117.682555853,269,"24000 ALICIA PARKWAY STE 17 NO 257, MISSION VIEJO, CA, 92691","Match","Exact","24000 ALICIA PKWY, MISSION VIEJO, CA, 92691",639049725,"L"
132770,"24000 ALICIA PKWY SUITE 17-318","MISSION VIEJO","CA",92691,33.612737822,-117.682555853,270,"24000 ALICIA PKWY SUITE 17-318, MISSION VIEJO, CA, 92691","Match","Exact","24000 ALICIA PKWY, MISSION VIEJO, CA, 92691",639049725,"L"
132771,"24000 MARLOW","OAK PARK","MI",48237,NA,NA,271,"24000 MARLOW, OAK PARK, MI, 48237","Tie",NA,NA,NA,NA
132772,"24000 S STATE ROUTE D","CLEVELAND","MO",64734,38.6919664590001,-94.587102825,272,"24000 S STATE ROUTE D, CLEVELAND, MO, 64734","Match","Exact","24000 STATE RTE D, CLEVELAND, MO, 64734",100940152,"L"
132773,"24005 WILDERNESS OAK","SAN ANTONIO","TX",78258,NA,NA,273,"24005 WILDERNESS OAK, SAN ANTONIO, TX, 78258","No_Match",NA,NA,NA,NA
132774,"24006 SW ASPEN LAKES DR","SHERWOOD","OR",97140,45.346349676,-122.865850301,274,"24006 SW ASPEN LAKES DR, SHERWOOD, OR, 97140","Match","Exact","24006 SW ASPEN LAKES DR, SHERWOOD, OR, 97140",641231842,"R"
132775,"24006 VIENTO OAKS","SAN ANTONIO","TX",78260,29.664916421,-98.505355579,275,"24006 VIENTO OAKS, SAN ANTONIO, TX, 78260","Match","Exact","24006 VIENTO OAKS, SAN ANTONIO, TX, 78260",645209086,"R"
132776,"24006 W 124TH TERRACE","OLATHE","KS",66061,38.9029749060001,-94.8634861,276,"24006 W 124TH TERRACE, OLATHE, KS, 66061","Match","Exact","24006 W 124TH TER, OLATHE, KS, 66061",634904650,"R"
132777,"2401 69TH ST","KENOSHA","WI",53143,42.5710464800001,-87.839199094,277,"2401 69TH ST, KENOSHA, WI, 53143","Match","Exact","2401 69TH ST, KENOSHA, WI, 53143",79800137,"L"
132778,"2401 82ND STREET","BROOKLYN","NY",11214,40.601495877,-73.986940523,278,"2401 82ND STREET, BROOKLYN, NY, 11214","Match","Exact","2401 82ND ST, BROOKLYN, NY, 11214",59088917,"L"
132779,"2401 ADAM AVE","ABILENE","TX",79602,32.419803922,-99.6996808709999,279,"2401 ADAM AVE, ABILENE, TX, 79602","Match","Exact","2401 ADAM AVE, ABILENE, TX, 79602",129971712,"L"
132780,"2401 ALCOTT ST","DENVER","CO",80211,39.752123442,-105.017558666,280,"2401 ALCOTT ST, DENVER, CO, 80211","Match","Exact","2401 ALCOTT ST, DENVER, CO, 80211",177301829,"L"
132781,"2401 ALDRICH STREET UNIT 457","AUSTIN","TX",78723,30.3016731320001,-97.702780031,281,"2401 ALDRICH STREET UNIT 457, AUSTIN, TX, 78723","Match","Exact","2401 ALDRICH ST, AUSTIN, TX, 78723",652137184,"R"
132782,"2401 ANDY TAYLOR RD","PLAINVIEW","TX",79072,NA,NA,282,"2401 ANDY TAYLOR RD, PLAINVIEW, TX, 79072","No_Match",NA,NA,NA,NA
132783,"2401 ASHTON STREET UNIT 4473","BALTIMORE","MD",21223,39.2808835450001,-76.65425549,283,"2401 ASHTON STREET UNIT 4473, BALTIMORE, MD, 21223","Match","Exact","2401 ASHTON ST, BALTIMORE, MD, 21223",206451513,"L"
132784,"2401 BAMBOO ST","NEWPORT BEACH","CA",92660,33.6380850240001,-117.875517055,284,"2401 BAMBOO ST, NEWPORT BEACH, CA, 92660","Match","Exact","2401 BAMBOO ST, NEWPORT BEACH, CA, 92660",144049311,"L"
132785,"2401 BLACK PINE COURT","FLORISSANT","MO",63031,38.8218804040001,-90.341680954,285,"2401 BLACK PINE COURT, FLORISSANT, MO, 63031","Match","Exact","2401 BLACK PINE CT, FLORISSANT, MO, 63031",100192343,"R"
132786,"2401 BOCA RATON BLVD","BOCA RATON","FL",33431,NA,NA,286,"2401 BOCA RATON BLVD, BOCA RATON, FL, 33431","No_Match",NA,NA,NA,NA
132787,"2401 BONITA LANE","HENDERSON","NV",89014,36.0668798790001,-115.083901079,287,"2401 BONITA LANE, HENDERSON, NV, 89014","Match","Exact","2401 BONITA LN, HENDERSON, NV, 89014",201879488,"R"
132788,"2401 BRIENSBURG TATUMSVILLE HWY","BENTON","KY",42025,36.9248811620001,-88.3062612859999,288,"2401 BRIENSBURG TATUMSVILLE HWY, BENTON, KY, 42025","Match","Non_Exact","2401 BRIENSBURG TATUMSVILLE RD, BENTON, KY, 42025",99518092,"L"
132789,"2401 BROADWAY ST","BOULDER","CO",80304,40.022259816,-105.281464538,289,"2401 BROADWAY ST, BOULDER, CO, 80304","Match","Exact","2401 BROADWAY ST, BOULDER, CO, 80304",188159468,"L"
132790,"2401 BROOK CANYON DR","CHARLOTTE","NC",28212,35.1703903600001,-80.738983237,290,"2401 BROOK CANYON DR, CHARLOTTE, NC, 28212","Match","Exact","2401 BROOK CANYON DR, CHARLOTTE, NC, 28212",70544307,"L"
132791,"2401 BROOK CREST DRIVE","GARLAND","TX",75040,NA,NA,291,"2401 BROOK CREST DRIVE, GARLAND, TX, 75040","No_Match",NA,NA,NA,NA
132792,"2401 CABIN HILL RD","NASHVILLE","TN",37214,36.196362379,-86.6758556839999,292,"2401 CABIN HILL RD, NASHVILLE, TN, 37214","Match","Exact","2401 CABIN HILL RD, NASHVILLE, TN, 37214",97195782,"R"
132793,"2401 CALYPSO ROAD APT 2","MADISON","WI",53704,43.124429825,-89.3660504109999,293,"2401 CALYPSO ROAD APT 2, MADISON, WI, 53704","Match","Exact","2401 CALYPSO RD, MADISON, WI, 53704",49471106,"R"
132794,"2401 CAMELOT COURT SE STE A","GRAND RAPIDS","MI",49546,42.918064789,-85.575276103,294,"2401 CAMELOT COURT SE STE A, GRAND RAPIDS, MI, 49546","Match","Exact","2401 CAMELOT CT SE, GRAND RAPIDS, MI, 49546",12498532,"R"
132795,"2401 CAMP AVENUE","BELLMORE","NY",11710,40.6744674340001,-73.543150822,295,"2401 CAMP AVENUE, BELLMORE, NY, 11710","Match","Exact","2401 CAMP AVE, BELLMORE, NY, 11710",147636741,"L"
132796,"2401 CAMP AVENUE","N BELLMORE","NY",11710,40.6744674340001,-73.543150822,296,"2401 CAMP AVENUE, N BELLMORE, NY, 11710","Match","Exact","2401 CAMP AVE, N BELLMORE, NY, 11710",147636741,"L"
132797,"2401 CAMP AVENUE","NORTH BELLMORE","NY",11710,40.6744674340001,-73.543150822,297,"2401 CAMP AVENUE, NORTH BELLMORE, NY, 11710","Match","Exact","2401 CAMP AVE, N BELLMORE, NY, 11710",147636741,"L"
132798,"2401 CARRIAGE LAMP LN","CONROE","TX",77384,30.25900978,-95.4960809839999,298,"2401 CARRIAGE LAMP LN, CONROE, TX, 77384","Match","Exact","2401 CARRIAGE LAMP LN, CONROE, TX, 77384",79280574,"R"
132799,"2401 CENTRAL AVE LOT 10","CANON CITY","CA",81212,NA,NA,299,"2401 CENTRAL AVE LOT 10, CANON CITY, CA, 81212","No_Match",NA,NA,NA,NA
132800,"2401 CLEARBROOK WAY","HAUGHTON","LA",71037,32.551164794,-93.572237201,300,"2401 CLEARBROOK WAY, HAUGHTON, LA, 71037","Match","Exact","2401 CLEARBROOK WAY, HAUGHTON, LA, 71037",618231607,"R"
132801,"2401 COLLEGE AVENUE","FORT WORTH","TX",76110,32.71640555,-97.335147211,301,"2401 COLLEGE AVENUE, FORT WORTH, TX, 76110","Match","Exact","2401 COLLEGE AVE, FORT WORTH, TX, 76110",101887488,"L"
132802,"2401 COLLINS AVE APT 1011","MIAMI BEACH","FL",33140,25.8001831930001,-80.127201552,302,"2401 COLLINS AVE APT 1011, MIAMI BEACH, FL, 33140","Match","Exact","2401 COLLINS AVE, MIAMI BEACH, FL, 33140",638099825,"R"
132803,"2401 COUNTY ROAD 3 SW","BYRON","MN",55920,43.9924224050001,-92.608261695,303,"2401 COUNTY ROAD 3 SW, BYRON, MN, 55920","Match","Exact","2401 CO RD 3 SW, BYRON, MN, 55920",612127392,"L"
132804,"2401 E 192ND ST","BELTON","MO",64012,38.778442743,-94.574272448,304,"2401 E 192ND ST, BELTON, MO, 64012","Match","Non_Exact","2403 E 192ND ST, BELTON, MO, 64012",100932287,"L"
132805,"2401 E 32ND ST SUITE 10 BOX 235","JOPLIN","MO",64804,NA,NA,305,"2401 E 32ND ST SUITE 10 BOX 235, JOPLIN, MO, 64804","Tie",NA,NA,NA,NA
132806,"2401 E 68TH APT 1","ANCHORAGE","AK",99507,NA,NA,306,"2401 E 68TH APT 1, ANCHORAGE, AK, 99507","No_Match",NA,NA,NA,NA
132807,"2401 E ASH STREET","GOLDSBORO","NC",27534,35.3752716590001,-77.9588086049999,307,"2401 E ASH STREET, GOLDSBORO, NC, 27534","Match","Exact","2401 E ASH ST, GOLDSBORO, NC, 27534",14405369,"L"
132808,"2401 E BARISTO RD","PALM SPRINGS","CA",92262,33.819561482,-116.52076618,308,"2401 E BARISTO RD, PALM SPRINGS, CA, 92262","Match","Exact","2401 E BARISTO RD, PALM SPRINGS, CA, 92262",195069730,"R"
132809,"2401 E HWY 83","WESLACO","TX",78596,26.15548298,-97.947576015,309,"2401 E HWY 83, WESLACO, TX, 78596","Match","Non_Exact","2401 EXPY 83, WESLACO, TX, 78596",638354097,"L"
132810,"2401 E MALL ST","WILMINGTON","DE",19810,39.8080407160001,-75.480749541,310,"2401 E MALL ST, WILMINGTON, DE, 19810","Match","Exact","2401 E MALL ST, WILMINGTON, DE, 19810",187302499,"L"
132811,"2401 E ORANGEBURG AVE SUITE 675-356","MODESTO","CA",95355,37.663552419,-120.954414128,311,"2401 E ORANGEBURG AVE SUITE 675-356, MODESTO, CA, 95355","Match","Non_Exact","2401 E ORANGEBURG AVE, MODESTO, CA, 95355",640538947,"L"
132812,"2401 EAST 32ND STREET","JOPLIN","MO",64804,37.0548166830001,-94.489999809,312,"2401 EAST 32ND STREET, JOPLIN, MO, 64804","Match","Exact","2401 E 32ND ST, JOPLIN, MO, 64804",642884775,"L"
132813,"2401 EAST BASELINE ROAD","GILBERT","AZ",85234,33.3790370140001,-111.781189408,313,"2401 EAST BASELINE ROAD, GILBERT, AZ, 85234","Match","Exact","2401 E BASELINE RD, GILBERT, AZ, 85234",128800425,"R"
132814,"2401 FOREST CREEK DR","FORT WORTH","TX",76123,32.63004749,-97.356285708,314,"2401 FOREST CREEK DR, FORT WORTH, TX, 76123","Match","Exact","2401 FOREST CREEK DR, FORT WORTH, TX, 76123",619865035,"L"
132815,"2401 FOUNTAIN VIEW DR 402","HOUSTON","TX",77057,29.74209935,-95.485408369,315,"2401 FOUNTAIN VIEW DR 402, HOUSTON, TX, 77057","Match","Exact","2401 FOUNTAIN VIEW DR, HOUSTON, TX, 77057",96620272,"L"
132816,"2401 FOUNTAIN VIEW DRIVE STE 224","HOUSTON","TX",77057,29.74209935,-95.485408369,316,"2401 FOUNTAIN VIEW DRIVE STE 224, HOUSTON, TX, 77057","Match","Exact","2401 FOUNTAIN VIEW DR, HOUSTON, TX, 77057",96620272,"L"
132817,"2401 FOUNTAIN VIEW SUITE 350","HOUSTON","TX",77057,29.74209935,-95.485408369,317,"2401 FOUNTAIN VIEW SUITE 350, HOUSTON, TX, 77057","Match","Non_Exact","2401 FOUNTAIN VIEW DR, HOUSTON, TX, 77057",96620272,"L"
132818,"2401 FOUNTAIN VIEW SUITE 462","HOUSTON","TX",77057,29.74209935,-95.485408369,318,"2401 FOUNTAIN VIEW SUITE 462, HOUSTON, TX, 77057","Match","Non_Exact","2401 FOUNTAIN VIEW DR, HOUSTON, TX, 77057",96620272,"L"
132819,"2401 FULLING MILL ROAD","MIDDLETOWN","PA",17057,40.2266846090001,-76.774951255,319,"2401 FULLING MILL ROAD, MIDDLETOWN, PA, 17057","Match","Exact","2401 FULLING MILL RD, MIDDLETOWN, PA, 17057",70836386,"R"
132820,"2401 G ST","BRUNSWICK","GA",31520,31.1549703330001,-81.4812824639999,320,"2401 G ST, BRUNSWICK, GA, 31520","Match","Exact","2401 G ST, BRUNSWICK, GA, 31520",9134605,"R"
132821,"2401 GWENDOLYN DR","DARLINGTON","SC",29532,34.257691757,-79.7923368309999,321,"2401 GWENDOLYN DR, DARLINGTON, SC, 29532","Match","Exact","2401 GWENDOLYN DR, DARLINGTON, SC, 29532",78399921,"L"
132822,"2401 HASKELL AVE","COLUMBIA","SC",29204,34.014323394,-81.017454887,322,"2401 HASKELL AVE, COLUMBIA, SC, 29204","Match","Exact","2401 HASKELL AVE, COLUMBIA, SC, 29204",71821577,"L"
132823,"2401 HIGHWAY 6 BUILDING 8 SUITE 203","IOWA CITY","IA",52240,41.6371448950001,-91.500508437,323,"2401 HIGHWAY 6 BUILDING 8 SUITE 203, IOWA CITY, IA, 52240","Match","Non_Exact","2401 US HWY 6, IOWA CITY, IA, 52240",648885417,"R"
132824,"2401 INTERNET BLVD STE 109","FRISCO","TX",75034,33.100128807,-96.8284370109999,324,"2401 INTERNET BLVD STE 109, FRISCO, TX, 75034","Match","Exact","2401 INTERNET BLVD, FRISCO, TX, 75034",615049302,"R"
132825,"2401 KINGS DR","EDINBURG","TX",78539,26.281071669,-98.18714512,325,"2401 KINGS DR, EDINBURG, TX, 78539","Match","Exact","2401 KINGS DR, EDINBURG, TX, 78539",71542372,"L"
132826,"2401 KY RT 469","REDBUSH","KY",41219,37.9611830060001,-82.9619238399999,326,"2401 KY RT 469, REDBUSH, KY, 41219","Match","Non_Exact","2401 STATE HWY 469, REDBUSH, KY, 41219",33667461,"L"
132827,"2401 LAKE PARK DRIVE SE","SMYRNA","GA",30080,33.896358578,-84.482374814,327,"2401 LAKE PARK DRIVE SE, SMYRNA, GA, 30080","Match","Exact","2401 LAKE PARK DR SE, SMYRNA, GA, 30080",17267770,"R"
132828,"2401 LE CONTE AVE","BERKELEY","CA",94709,37.8763233830001,-122.262371848,328,"2401 LE CONTE AVE, BERKELEY, CA, 94709","Match","Exact","2401 LE CONTE AVE, BERKELEY, CA, 94709",637735662,"L"
132829,"2401 LIBERTY HEIGHTS AVE","BALTIMORE","MD",21215,39.3184974170001,-76.653295036,329,"2401 LIBERTY HEIGHTS AVE, BALTIMORE, MD, 21215","Match","Exact","2401 LIBERTY HEIGHTS AVE, BALTIMORE, MD, 21215",640533921,"R"
132830,"2401 LIBERTY HEIGHTS AVENUE","BALTIMORE","MD",21215,39.3184974170001,-76.653295036,330,"2401 LIBERTY HEIGHTS AVENUE, BALTIMORE, MD, 21215","Match","Exact","2401 LIBERTY HEIGHTS AVE, BALTIMORE, MD, 21215",640533921,"R"
132831,"2401 MCKINNEY RANCH PKWY  APT 8205","MCKINNEY","TX",75070,33.159016164,-96.650272144,331,"2401 MCKINNEY RANCH PKWY  APT 8205, MCKINNEY, TX, 75070","Match","Exact","2401 MCKINNEY RANCH PKWY, MCKINNEY, TX, 75070",650327060,"L"
132832,"2401 MORNING DRIVE","BAYTOWN","TX",77520,29.7460041790001,-94.937050311,332,"2401 MORNING DRIVE, BAYTOWN, TX, 77520","Match","Exact","2401 MORNING DR, BAYTOWN, TX, 77520",96111448,"R"
132833,"2401 N 18TH ST","PHILADELPHIA","PA",19132,39.9903047330001,-75.16191307,333,"2401 N 18TH ST, PHILADELPHIA, PA, 19132","Match","Exact","2401 N 18TH ST, PHILADELPHIA, PA, 19132",131402883,"R"
132834,"2401 N 67TH STREET","KANSAS CITY","KY",66104,NA,NA,334,"2401 N 67TH STREET, KANSAS CITY, KY, 66104","No_Match",NA,NA,NA,NA
132835,"2401 N HIGHWAY 118 E17","ALPINE","TX",79830,30.380781545,-103.670265297,335,"2401 N HIGHWAY 118 E17, ALPINE, TX, 79830","Match","Non_Exact","2401 STATE HWY 118, ALPINE, TX, 79830",184047555,"L"
132836,"2401 N LOGAN ST STE L","TEXAS CITY","TX",77590,29.4067816410001,-94.9307139269999,336,"2401 N LOGAN ST STE L, TEXAS CITY, TX, 77590","Match","Non_Exact","2401 N LOGAN ST, TEXAS CITY, TX, 77590",96731278,"L"
132837,"2401 N ST HWY 1","FLAT ROCK","IL",62427,38.886540661,-87.6844687779999,337,"2401 N ST HWY 1, FLAT ROCK, IL, 62427","Match","Exact","2401 STATE HWY 1, FLAT ROCK, IL, 62427",26963734,"R"
132838,"2401 NATIONAL PARK BLVD","AUSTIN","TX",78747,30.152759474,-97.785182425,338,"2401 NATIONAL PARK BLVD, AUSTIN, TX, 78747","Match","Exact","2401 NATIONAL PARK, AUSTIN, TX, 78747",633200728,"L"
132839,"2401 NE MLK JR BLVD","PORTLAND","OR",97212,45.5399032070001,-122.661619425,339,"2401 NE MLK JR BLVD, PORTLAND, OR, 97212","Match","Exact","2401 NE M L KING BLVD, PORTLAND, OR, 97212",157504888,"L"
132840,"2401 NEWCASTLE BEND","IRVING","TX",75063,32.9239712190001,-96.976682166,340,"2401 NEWCASTLE BEND, IRVING, TX, 75063","Match","Exact","2401 NEWCASTLE BEND, IRVING, TX, 75063",643174384,"L"
132841,"2401 NORTH AIR DEPOT BLVD","OKLAHOMA CITY","OK",73141,35.493615537,-97.4063383389999,341,"2401 NORTH AIR DEPOT BLVD, OKLAHOMA CITY, OK, 73141","Match","Exact","2401 N AIR DEPOT BLVD, OKLAHOMA CITY, OK, 73141",652108898,"L"
132842,"2401 NW BOCA RATON BLVD SUITE 100","BOCA RATON","FL",33431,NA,NA,342,"2401 NW BOCA RATON BLVD SUITE 100, BOCA RATON, FL, 33431","No_Match",NA,NA,NA,NA
132843,"2401 NW BOCA RATON BLVD","BOCA RATON","FL",33431,NA,NA,343,"2401 NW BOCA RATON BLVD, BOCA RATON, FL, 33431","No_Match",NA,NA,NA,NA
132844,"2401 NW BOCA RATON BOULEVARD","BOCA RATON","FL",33431,NA,NA,344,"2401 NW BOCA RATON BOULEVARD, BOCA RATON, FL, 33431","No_Match",NA,NA,NA,NA
132845,"2401 PARKVIEW AVE","KNOXVILLE","TN",37917,35.9820264620001,-83.89635221,345,"2401 PARKVIEW AVE, KNOXVILLE, TN, 37917","Match","Exact","2401 PARKVIEW AVE, KNOXVILLE, TN, 37917",42622611,"L"
132846,"2401 PARTRIDGE WOODS COURT","BURLINGTON","WI",53105,42.6166621830001,-88.3349554179999,346,"2401 PARTRIDGE WOODS COURT, BURLINGTON, WI, 53105","Match","Exact","2401 PARTRIDGE WOODS CT, BURLINGTON, WI, 53105",651274838,"R"
132847,"2401 PENNSYLVANIA AVENUE SUITE 1A10","PHILADELPHIA","PA",19130,NA,NA,347,"2401 PENNSYLVANIA AVENUE SUITE 1A10, PHILADELPHIA, PA, 19130","No_Match",NA,NA,NA,NA
132848,"2401 PIEDMONT LAKES BLVD","APOPKA","FL",32703,28.6662550880001,-81.4660087779999,348,"2401 PIEDMONT LAKES BLVD, APOPKA, FL, 32703","Match","Exact","2401 PIEDMONT LAKES BLVD, APOPKA, FL, 32703",94323179,"L"
132849,"2401 READING RD  NO 318","CINCINNATI","OH",45202,39.1252712620001,-84.501935777,349,"2401 READING RD  NO 318, CINCINNATI, OH, 45202","Match","Non_Exact","2401 READING RD, CINCINNATI, OH, 45202",103925909,"L"
132850,"2401 RHEAMOUNT AVE","LANSING","MI",48906,42.7580796560001,-84.536495491,350,"2401 RHEAMOUNT AVE, LANSING, MI, 48906","Match","Exact","2401 RHEAMOUNT AVE, LANSING, MI, 48906",17497804,"L"
132851,"2401 S HIGH ST","KIRKSVILLE","MO",63501,40.1763800700001,-92.581420474,351,"2401 S HIGH ST, KIRKSVILLE, MO, 63501","Match","Exact","2401 S HIGH ST, KIRKSVILLE, MO, 63501",639590911,"R"
132852,"2401 S JOHNSON ST APT 704","ALVIN","TX",77511,NA,NA,352,"2401 S JOHNSON ST APT 704, ALVIN, TX, 77511","No_Match",NA,NA,NA,NA
132853,"2401 S LINCOLN MEMORIAL DRIVE","MILWAUKEE","WI",53207,43.0020097550001,-87.889761277,353,"2401 S LINCOLN MEMORIAL DRIVE, MILWAUKEE, WI, 53207","Match","Exact","2401 S LINCOLN MEMORIAL DR, MILWAUKEE, WI, 53207",649552940,"R"
132854,"2401 S TARRYALL WAY","FRANKTOWN","CO",80116,39.3274826410001,-104.688408669,354,"2401 S TARRYALL WAY, FRANKTOWN, CO, 80116","Match","Exact","2401 S TARRYALL WAY, FRANKTOWN, CO, 80116",130797527,"L"
132855,"2401 SE 12TH TER","GAINESVILLE","FL",32641,29.630151218,-82.309446065,355,"2401 SE 12TH TER, GAINESVILLE, FL, 32641","Match","Exact","2401 SE 12 TER, GAINESVILLE, FL, 32641",6878943,"L"
132856,"2401 SE TONES DRIVE STE 17","ANKENY","IA",50021,41.7081510370001,-93.5741452569999,356,"2401 SE TONES DRIVE STE 17, ANKENY, IA, 50021","Match","Non_Exact","2401 SE TONES DR, ANKENY, IA, 50021",65842495,"R"
132857,"2401 SECOND STREET NW APT 43","WINTER HAVEN","FL",33881,28.046871486,-81.728400089,357,"2401 SECOND STREET NW APT 43, WINTER HAVEN, FL, 33881","Match","Exact","2401 2ND ST NW, WINTER HAVEN, FL, 33881",104914381,"L"
132858,"2401 SHORELINE DRIVE","NORMAN","OK",73026,35.1894088560001,-97.377682245,358,"2401 SHORELINE DRIVE, NORMAN, OK, 73026","Match","Exact","2401 SHORELINE DR, NORMAN, OK, 73026",99952533,"L"
132859,"2401 SIDNEY PORTER DR","GREENSBORO","NC",27405,36.1444026980001,-79.770678109,359,"2401 SIDNEY PORTER DR, GREENSBORO, NC, 27405","Match","Exact","2401 SIDNEY PORTER DR, GREENSBORO, NC, 27405",627146852,"L"
132860,"2401 SO 73RD ST SUITE 200","OMAHA","NE",68124,41.236252058,-96.02598699,360,"2401 SO 73RD ST SUITE 200, OMAHA, NE, 68124","Match","Non_Exact","2401 S 73RD ST, OMAHA, NE, 68124",117016438,"L"
132861,"2401 SOUTH DEL NORTE PLACE","ONTARIO","CA",91761,34.0295244700001,-117.625966588,361,"2401 SOUTH DEL NORTE PLACE, ONTARIO, CA, 91761","Match","Exact","2401 S DEL NORTE PL, ONTARIO, CA, 91761",144636872,"R"
132862,"2401 SOUTH GESSNER ROAD APT 337","HOUSTON","TX",77063,29.740929195,-95.538356951,362,"2401 SOUTH GESSNER ROAD APT 337, HOUSTON, TX, 77063","Match","Exact","2401 S GESSNER RD, HOUSTON, TX, 77063",96619758,"L"
132863,"2401 SOUTH HACIENDA BOULEVARD 23","HACIENDA HEIGHTS","CA",91745,33.991930817,-117.968769941,363,"2401 SOUTH HACIENDA BOULEVARD 23, HACIENDA HEIGHTS, CA, 91745","Match","Exact","2401 S HACIENDA BLVD, HACIENDA HTS, CA, 91745",241123442,"R"
132864,"2401 STONEGATE STREET","ARLINGTON","TX",76104,32.7263391170001,-97.067447927,364,"2401 STONEGATE STREET, ARLINGTON, TX, 76104","Match","Non_Exact","2401 STONEGATE ST, ARLINGTON, TX, 76010",101913106,"L"
132865,"2401 SW BARBER LANE","PORT SAINT LUCIE","FL",34984,27.268331491,-80.354862102,365,"2401 SW BARBER LANE, PORT SAINT LUCIE, FL, 34984","Match","Exact","2401 SW BARBER LN, PORT ST LUCIE, FL, 34984",120152962,"L"
132866,"2401 TOWERY TRAIL","LUTZ","FL",33549,28.0955687920001,-82.433526112,366,"2401 TOWERY TRAIL, LUTZ, FL, 33549","Match","Exact","2401 TOWERY TRL, LUTZ, FL, 33549",104512706,"R"
132867,"2401 TROOST AVE APT 530A","KANSAS CITY","MO",64108,39.0835296180001,-94.570647629,367,"2401 TROOST AVE APT 530A, KANSAS CITY, MO, 64108","Match","Exact","2401 TROOST AVE, KANSAS CITY, MO, 64108",624238964,"L"
132868,"2401 VANDENBERG AVE","JB MDL","NJ",8641,NA,NA,368,"2401 VANDENBERG AVE, JB MDL, NJ, 8641","No_Match",NA,NA,NA,NA
132869,"2401 W 102ND STREET","INGLEWOOD","CA",90303,33.944019111,-118.319836626,369,"2401 W 102ND STREET, INGLEWOOD, CA, 90303","Match","Exact","2401 W 102ND ST, INGLEWOOD, CA, 90303",141660482,"R"
132870,"2401 W 8TH ST","ODESSA","TX",79763,31.8402890840001,-102.395977203,370,"2401 W 8TH ST, ODESSA, TX, 79763","Match","Exact","2401 W 8TH ST, ODESSA, TX, 79763",139428548,"L"
132871,"2401 W HELLMAN AVE","ALHAMBRA","CA",91803,34.069649156,-118.149698445,371,"2401 W HELLMAN AVE, ALHAMBRA, CA, 91803","Match","Exact","2401 W HELLMAN AVE, ALHAMBRA, CA, 91803",141636049,"R"
132872,"2401 W OMAHA ST APT 2524","BROKEN ARROW","OK",74012,NA,NA,372,"2401 W OMAHA ST APT 2524, BROKEN ARROW, OK, 74012","No_Match",NA,NA,NA,NA
132873,"2401 W PARADISE LN","PHOENIX","AZ",85023,33.6326157770001,-112.111972234,373,"2401 W PARADISE LN, PHOENIX, AZ, 85023","Match","Exact","2401 W PARADISE LN, PHOENIX, AZ, 85023",128180864,"L"
132874,"2401 W SOUTHERN AVE  259","TEMPE","AZ",85282,NA,NA,374,"2401 W SOUTHERN AVE  259, TEMPE, AZ, 85282","Tie",NA,NA,NA,NA
132875,"2401 W SOUTHERN AVE  LOT 30","TEMPE","AZ",85282,NA,NA,375,"2401 W SOUTHERN AVE  LOT 30, TEMPE, AZ, 85282","Tie",NA,NA,NA,NA
132876,"2401 WALNUT STREET SUITE 102","PHILADELPHIA","PA",19103,39.9512583360001,-75.17960002,376,"2401 WALNUT STREET SUITE 102, PHILADELPHIA, PA, 19103","Match","Exact","2401 WALNUT ST, PHILADELPHIA, PA, 19103",131406686,"R"
132877,"2401 WATERMAN BLVD STE A315","FAIRFIELD","CA",94534,38.2727549030001,-122.053631117,377,"2401 WATERMAN BLVD STE A315, FAIRFIELD, CA, 94534","Match","Exact","2401 WATERMAN BLVD, FAIRFIELD, CA, 94534",192579497,"L"
132878,"2401 WEATHERSTONE CIRCLE","CONYERS","GA",30094,33.6284873610001,-84.028089418,378,"2401 WEATHERSTONE CIRCLE, CONYERS, GA, 30094","Match","Non_Exact","2401 WEATHERSTONE CIR SE, CONYERS, GA, 30094",23746189,"R"
132879,"2401 WEST CENTRE AVE","PORTAGE","MI",49024,42.201087052,-85.617871394,379,"2401 WEST CENTRE AVE, PORTAGE, MI, 49024","Match","Exact","2401 W CENTRE AVE, PORTAGE, MI, 49024",651776495,"L"
132880,"2401 WEST PARK DRIVE","GAUTIER","MS",39553,30.380513679,-88.648953325,380,"2401 WEST PARK DRIVE, GAUTIER, MS, 39553","Match","Exact","2401 W PARK DR, GAUTIER, MS, 39553",642489001,"L"
132881,"2401 WESTRIDGE ST APT 2516","HOUSTON","TX",77054,29.68212234,-95.415250628,381,"2401 WESTRIDGE ST APT 2516, HOUSTON, TX, 77054","Match","Exact","2401 WESTRIDGE ST, HOUSTON, TX, 77054",641840936,"R"
132882,"2401 WESTWOOD DR","ANACORTES","WA",98221,48.485240349,-122.634676198,382,"2401 WESTWOOD DR, ANACORTES, WA, 98221","Match","Exact","2401 WESTWOOD DR, ANACORTES, WA, 98221",183672661,"R"
132883,"2401 WINDY HILL RD APT 1752A","MARIETTA","GA",30067,33.9033947620001,-84.481937123,383,"2401 WINDY HILL RD APT 1752A, MARIETTA, GA, 30067","Match","Non_Exact","2401 WINDY HILL RD SE, MARIETTA, GA, 30067",649985946,"L"
132884,"2401 WINDY HILL ROAD 2415B","MARIETTA","GA",30067,33.9033947620001,-84.481937123,384,"2401 WINDY HILL ROAD 2415B, MARIETTA, GA, 30067","Match","Non_Exact","2401 WINDY HILL RD SE, MARIETTA, GA, 30067",649985946,"L"
132885,"2401-B HARLEM STREET","COLUMBIA","SC",29209,33.9428391970001,-80.9704998299999,385,"2401-B HARLEM STREET, COLUMBIA, SC, 29209","Match","Exact","2401 HARLEM ST, COLUMBIA, SC, 29209",618556472,"R"
132886,"24010  SUMMIT ROAD","LOS GATOS","CA",95033,37.1244696680001,-121.937060032,386,"24010  SUMMIT ROAD, LOS GATOS, CA, 95033","Match","Exact","24010 SUMMIT RD, LOS GATOS, CA, 95033",636416794,"R"
132887,"24010 23RD AVE S","DES MOINES","WA",98198,47.386447264,-122.303710448,387,"24010 23RD AVE S, DES MOINES, WA, 98198","Match","Exact","24010 23RD AVE S, DES MOINES, WA, 98198",186628857,"L"
132888,"24010 ITHACA STREET","OAK PARK","MI",48237,42.4678661820001,-83.163750094,388,"24010 ITHACA STREET, OAK PARK, MI, 48237","Match","Exact","24010 ITHACA ST, OAK PARK, MI, 48237",630377235,"R"
132889,"24011 HOOVER","WARREN","MI",48089,42.4710395540001,-83.006005307,389,"24011 HOOVER, WARREN, MI, 48089","Match","Non_Exact","24011 HOOVER RD, WARREN, MI, 48089",110677438,"L"
132890,"24012 NORTH LAKE SHORE DRIVE","GLENWOOD","MN",56334,45.646880057,-95.429963635,390,"24012 NORTH LAKE SHORE DRIVE, GLENWOOD, MN, 56334","Match","Non_Exact","24012 N LAKESHORE DR, GLENWOOD, MN, 56334",607193367,"L"
132891,"24014 E BIDDLE ST","BROKEN ARROW","OK",74014,36.0542052710001,-95.708904836,391,"24014 E BIDDLE ST, BROKEN ARROW, OK, 74014","Match","Exact","24014 E BIDDLE ST, BROKEN ARROW, OK, 74014",652930486,"R"
132892,"24014 KNICKERBOCKER RD","BAY VILLAGE","OH",44140,41.4775984500001,-81.885328106,392,"24014 KNICKERBOCKER RD, BAY VILLAGE, OH, 44140","Match","Exact","24014 KNICKERBOCKER RD, BAY VILLAGE, OH, 44140",61138902,"R"
132893,"24014 OLD VAUGHAN RD","DINWIDDIE","VA",23841,37.0934639380001,-77.489672882,393,"24014 OLD VAUGHAN RD, DINWIDDIE, VA, 23841","Match","Exact","24014 OLD VAUGHAN RD, DINWIDDIE, VA, 23841",54167041,"L"
132894,"24014 RAIN CREEK DR","TOMBALL","TX",77379,30.110212877,-95.556011671,394,"24014 RAIN CREEK DR, TOMBALL, TX, 77379","Match","Non_Exact","24014 RAIN CREEK DR, TOMBALL, TX, 77375",96559510,"R"
132895,"24015 221ST LN SE","MAPLE VALLEY","WA",98038,47.3866990750001,-122.04689092,395,"24015 221ST LN SE, MAPLE VALLEY, WA, 98038","Match","Exact","24015 221ST LN SE, MAPLE VALLEY, WA, 98038",624519064,"R"
132896,"24015 ASOLEADO","SAN ANTONIO","TX",78261,29.6643328860001,-98.4213842199999,396,"24015 ASOLEADO, SAN ANTONIO, TX, 78261","Match","Exact","24015 ASOLEADO, SAN ANTONIO, TX, 78261",619981215,"R"
132897,"24015 NEWCOMER ROAD","IOWA","LA",70647,30.3063235830001,-93.020900346,397,"24015 NEWCOMER ROAD, IOWA, LA, 70647","Match","Exact","24015 NEWCOMER RD, IOWA, LA, 70647",88219093,"R"
132898,"24017 MEADOWLARK","OAK PARK","MI",48237,42.467910268,-83.1601607489999,398,"24017 MEADOWLARK, OAK PARK, MI, 48237","Match","Non_Exact","24017 MEADOWLARK ST, OAK PARK, MI, 48237",630377404,"L"
132899,"24019 STATE ROAD 46","SORRENTO","FL",32776,28.807735371,-81.5598519439999,399,"24019 STATE ROAD 46, SORRENTO, FL, 32776","Match","Exact","24019 STATE RD 46, SORRENTO, FL, 32776",94205568,"L"
132900,"2402 ARBOR ST","HOUSTON","TX",77004,29.7235792390001,-95.37339855,400,"2402 ARBOR ST, HOUSTON, TX, 77004","Match","Exact","2402 ARBOR ST, HOUSTON, TX, 77004",96071424,"R"
132901,"2402 AVE A TERR NW","WINTER HAVEN","FL",33880,28.024033102,-81.756058415,401,"2402 AVE A TERR NW, WINTER HAVEN, FL, 33880","Match","Exact","2402 AVENUE A TER NW, WINTER HAVEN, FL, 33880",104823036,"R"
132902,"2402 BELMONT BOULEVARD","NASHVILLE","TN",37212,36.126527417,-86.793997421,402,"2402 BELMONT BOULEVARD, NASHVILLE, TN, 37212","Match","Exact","2402 BELMONT BLVD, NASHVILLE, TN, 37212",97190742,"L"
132903,"2402 BRIARGATE AVENUE","LOUISVILLE","KY",40216,38.172921393,-85.8370824039999,403,"2402 BRIARGATE AVENUE, LOUISVILLE, KY, 40216","Match","Exact","2402 BRIARGATE AVE, LOUISVILLE, KY, 40216",96838514,"L"
132904,"2402 BROADWAY","PEARLAND","TX",77581,NA,NA,404,"2402 BROADWAY, PEARLAND, TX, 77581","No_Match",NA,NA,NA,NA
132905,"2402 CARLISLE RD - PO BOX 395","SERGEANT BLUFF","IA",51054,42.40272779,-96.343484055,405,"2402 CARLISLE RD - PO BOX 395, SERGEANT BLUFF, IA, 51054","Match","Exact","2402 CARLISLE RD, SERGEANT BLUFF, IA, 51054",93426412,"R"
132906,"2402 CHELTENHAM ROAD","TOLEDO","OH",43606,41.666986836,-83.612082979,406,"2402 CHELTENHAM ROAD, TOLEDO, OH, 43606","Match","Exact","2402 CHELTENHAM RD, TOLEDO, OH, 43606",33935402,"R"
132907,"2402 CHILHAM COURT","NORTH CHESTERFIELD","VA",23235,37.5219259130001,-77.586319023,407,"2402 CHILHAM COURT, NORTH CHESTERFIELD, VA, 23235","Match","Exact","2402 CHILHAM CT, NORTH CHESTERFIELD, VA, 23235",201531310,"L"
132908,"2402 DEL PASO ROAD SUITE 100","SACRAMENTO","CA",95834,38.6559769940001,-121.514028259,408,"2402 DEL PASO ROAD SUITE 100, SACRAMENTO, CA, 95834","Match","Non_Exact","2402 DEL PASO RD, SACRAMENTO, CA, 95834",133319037,"L"
132909,"2402 DUNWOODY XING APT I","ATLANTA","GA",30338,33.921324477,-84.2908412789999,409,"2402 DUNWOODY XING APT I, ATLANTA, GA, 30338","Match","Exact","2402 DUNWOODY CROSSING, ATLANTA, GA, 30338",23412881,"L"
132910,"2402 E MARMORA ST","PHOENIX","AZ",85032,33.599725236,-112.030287346,410,"2402 E MARMORA ST, PHOENIX, AZ, 85032","Match","Exact","2402 E MARMORA ST, PHOENIX, AZ, 85032",128184130,"L"
132911,"2402 EMBASSY DRIVE","WEST PALM BEACH","FL",33401,26.7363697430001,-80.077838447,411,"2402 EMBASSY DRIVE, WEST PALM BEACH, FL, 33401","Match","Exact","2402 EMBASSY DR, WEST PALM BEACH, FL, 33401",645514642,"R"
132912,"2402 ENNIS JOSLIN RD","CORPUS CHRISTI","TX",78414,NA,NA,412,"2402 ENNIS JOSLIN RD, CORPUS CHRISTI, TX, 78414","No_Match",NA,NA,NA,NA
132913,"2402 ESTRELLA AVE","LOVELAND","CO",80538,40.4163443,-105.107647678,413,"2402 ESTRELLA AVE, LOVELAND, CO, 80538","Match","Non_Exact","2402 N ESTRELLA AVE, LOVELAND, CO, 80538",188485321,"R"
132914,"2402 EXTON STREET","BAKERSFIELD","CA",93311,35.332882496,-119.142275872,414,"2402 EXTON STREET, BAKERSFIELD, CA, 93311","Match","Exact","2402 EXTON ST, BAKERSFIELD, CA, 93311",109529324,"L"
132915,"2402 FAYETTE STREET","BALTIMORE","MD",21228,NA,NA,415,"2402 FAYETTE STREET, BALTIMORE, MD, 21228","No_Match",NA,NA,NA,NA
132916,"2402 GREEN GINGER CIR","ACCOKEEK","MD",20607,38.6941896430001,-76.967637611,416,"2402 GREEN GINGER CIR, ACCOKEEK, MD, 20607","Match","Exact","2402 GREEN GINGER CIR, ACCOKEEK, MD, 20607",76418300,"L"
132917,"2402 GREEN GINGER CIRCLE","ACCOKEEK","MD",20607,38.6941896430001,-76.967637611,417,"2402 GREEN GINGER CIRCLE, ACCOKEEK, MD, 20607","Match","Exact","2402 GREEN GINGER CIR, ACCOKEEK, MD, 20607",76418300,"L"
132918,"2402 HAMILTON BRANCH COURT","KISSIMMEE","FL",34758,28.231082416,-81.476753203,418,"2402 HAMILTON BRANCH COURT, KISSIMMEE, FL, 34758","Match","Exact","2402 HAMILTON BRANCH CT, KISSIMMEE, FL, 34758",650143993,"R"
132919,"2402 HARRISON AVENUE","PARKERSBURG","WV",26104,39.271453702,-81.5170412589999,419,"2402 HARRISON AVENUE, PARKERSBURG, WV, 26104","Match","Exact","2402 HARRISON AVE, PARKERSBURG, WV, 26104",632562047,"R"
132920,"2402 HIGHLAND","SHREVEPORT","LA",71104,32.4884603840001,-93.739588961,420,"2402 HIGHLAND, SHREVEPORT, LA, 71104","Match","Non_Exact","2402 HIGHLAND AVE, SHREVEPORT, LA, 71104",57437729,"R"
132921,"2402 KINGS FOREST DR","KINGWOOD","TX",77339,30.0488309240001,-95.212226153,421,"2402 KINGS FOREST DR, KINGWOOD, TX, 77339","Match","Exact","2402 KINGS FOREST DR, KINGWOOD, TX, 77339",96141636,"R"
132922,"2402 LAKECREST TERRACE CT","KATY","TX",77493,29.808021954,-95.7962364699999,422,"2402 LAKECREST TERRACE CT, KATY, TX, 77493","Match","Exact","2402 LAKECREST TERRACE CT, KATY, TX, 77493",627701157,"L"
132923,"2402 LAKEVIEW AVE","PUEBLO","CO",81004,38.2349974410001,-104.639247956,423,"2402 LAKEVIEW AVE, PUEBLO, CO, 81004","Match","Exact","2402 LAKEVIEW AVE, PUEBLO, CO, 81004",105026774,"L"
132924,"2402 LANNIGAN DRIVE","GREENSBORO","NC",27406,36.0391429860001,-79.714475738,424,"2402 LANNIGAN DRIVE, GREENSBORO, NC, 27406","Match","Exact","2402 LANNIGAN DR, GREENSBORO, NC, 27406",131098886,"R"
132925,"2402 MAIN STREET","CADDO MILLS","TX",75135,33.0657375390001,-96.2277475719999,425,"2402 MAIN STREET, CADDO MILLS, TX, 75135","Match","Exact","2402 MAIN ST, CADDO MILLS, TX, 75135",42834938,"L"
132926,"2402 MARBOURNE AVENUE 2B","BALTIMORE","MD",21230,39.2544262970001,-76.651990234,426,"2402 MARBOURNE AVENUE 2B, BALTIMORE, MD, 21230","Match","Exact","2402 MARBOURNE AVE, BALTIMORE, MD, 21230",206462596,"L"
132927,"2402 MONTEBELLO TERRACE","BALTIMORE","MD",21214,39.3472890670001,-76.5792575299999,427,"2402 MONTEBELLO TERRACE, BALTIMORE, MD, 21214","Match","Exact","2402 MONTEBELLO TER, BALTIMORE, MD, 21214",206409876,"L"
132928,"2402 MONTERREY ST","HIDALGO","TX",78557,26.103690032,-98.232690635,428,"2402 MONTERREY ST, HIDALGO, TX, 78557","Match","Exact","2402 MONTERREY ST, HIDALGO, TX, 78557",71519877,"L"
132929,"2402 MOZINGO ROAD","GREENVILLE","NC",27834,35.6114752510001,-77.496695796,429,"2402 MOZINGO ROAD, GREENVILLE, NC, 27834","Match","Exact","2402 MOZINGO RD, GREENVILLE, NC, 27834",605069853,"R"
132930,"2402 N ANDERSON AVE","GLENDIVE","MT",59330,47.1232238310001,-104.689901075,430,"2402 N ANDERSON AVE, GLENDIVE, MT, 59330","Match","Exact","2402 N ANDERSON AVE, GLENDIVE, MT, 59330",641873034,"R"
132931,"2402 N E 8TH AVENUE","WILTON MANORS","FL",33305,26.157674523,-80.1362779039999,431,"2402 N E 8TH AVENUE, WILTON MANORS, FL, 33305","Match","Exact","2402 NE 8TH AVE, WILTON MANORS, FL, 33305",114721992,"R"
132932,"2402 N SURREY CT","CHICAGO","IL",60614,41.9253745190001,-87.660521927,432,"2402 N SURREY CT, CHICAGO, IL, 60614","Match","Exact","2402 N SURREY CT, CHICAGO, IL, 60614",605234586,"L"
132933,"2402 NORTH GOODLET AVENUE","INDIANAPOLIS","IN",46222,39.8007677100001,-86.213162305,433,"2402 NORTH GOODLET AVENUE, INDIANAPOLIS, IN, 46222","Match","Exact","2402 N GOODLET AVE, INDIANAPOLIS, IN, 46222",107985800,"L"
132934,"2402 OLIVE AVENUE","FREMONT","CA",94539,37.5343318390001,-121.943655428,434,"2402 OLIVE AVENUE, FREMONT, CA, 94539","Match","Exact","2402 OLIVE AVE, FREMONT, CA, 94539",125033589,"L"
132935,"2402 PALMETTO ST","MONTGOMERY","AL",36107,32.373460483,-86.276971277,435,"2402 PALMETTO ST, MONTGOMERY, AL, 36107","Match","Exact","2402 PALMETTO ST, MONTGOMERY, AL, 36107",1505305,"R"
132936,"2402 S 280TH PL","FEDERAL WAY","WA",98003,47.3502618530001,-122.301932398,436,"2402 S 280TH PL, FEDERAL WAY, WA, 98003","Match","Exact","2402 S 280TH PL, FEDERAL WAY, WA, 98003",239776024,"R"
132937,"2402 SAND PEARL TRAIL","MIDDLETON","WI",53562,43.102373949,-89.545591458,437,"2402 SAND PEARL TRAIL, MIDDLETON, WI, 53562","Match","Exact","2402 SAND PEARL TRL, MIDDLETON, WI, 53562",619767739,"R"
132938,"2402 SE GARDEN TERRACE","PORT ST LUCIE","FL",34952,27.268993559,-80.276925391,438,"2402 SE GARDEN TERRACE, PORT ST LUCIE, FL, 34952","Match","Exact","2402 SE GARDEN TER, PORT ST LUCIE, FL, 34952",647723983,"L"
132939,"2402 SEMMES AVE","RICHMOND","VA",23225,37.5204777490001,-77.4577559699999,439,"2402 SEMMES AVE, RICHMOND, VA, 23225","Match","Exact","2402 SEMMES AVE, RICHMOND, VA, 23225",201541436,"L"
132940,"2402 SHADOW CLIFF ST","SAN ANTONIO","TX",78232,29.579407309,-98.454743086,440,"2402 SHADOW CLIFF ST, SAN ANTONIO, TX, 78232","Match","Exact","2402 SHADOW CLIFF, SAN ANTONIO, TX, 78232",101498103,"R"
132941,"2402 W FLUKER AVE","PINE BLUFF","AR",71601,34.239401709,-92.0263810819999,441,"2402 W FLUKER AVE, PINE BLUFF, AR, 71601","Match","Exact","2402 W FLUKER AVE, PINE BLUFF, AR, 71601",2550078,"L"
132942,"2402 WALKER CT","PEARLAND","TX",77581,29.5639142210001,-95.305184804,442,"2402 WALKER CT, PEARLAND, TX, 77581","Match","Exact","2402 WALKER CT, PEARLAND, TX, 77581",116649741,"L"
132943,"2402 WINBURN AVE","DURHAM","NC",27704,36.0121399220001,-78.856097313,443,"2402 WINBURN AVE, DURHAM, NC, 27704","Match","Exact","2402 WINBURN AVE, DURHAM, NC, 27704",640628278,"R"
132944,"24020 TURTLEROCK COURT","LUTZ","FL",33559,28.1810613440001,-82.4187249669999,444,"24020 TURTLEROCK COURT, LUTZ, FL, 33559","Match","Exact","24020 TURTLEROCK CT, LUTZ, FL, 33559",86370363,"L"
132945,"24021 WILKINS BRANCH RD","PRESTON","MD",21655,38.7941421250001,-75.872929456,445,"24021 WILKINS BRANCH RD, PRESTON, MD, 21655","Match","Exact","24021 WILKINS BRANCH RD, PRESTON, MD, 21655",68305672,"L"
132946,"24022 BRIDGEPORT LN UNIT 24","VALENCIA","CA",91355,34.4269501690001,-118.559029028,446,"24022 BRIDGEPORT LN UNIT 24, VALENCIA, CA, 91355","Match","Exact","24022 BRIDGEPORT LN, VALENCIA, CA, 91355",241113926,"L"
132947,"24023 LYON RIDGE DR","SOUTH LYON","MI",48178,42.462681425,-83.56758458,447,"24023 LYON RIDGE DR, SOUTH LYON, MI, 48178","Match","Exact","24023 LYON RIDGE DR, SOUTH LYON, MI, 48178",633683436,"R"
132948,"24023 NE SHEA LN UNIT 105","WOOD VILLAGE","OR",97060,45.5388289860001,-122.415387858,448,"24023 NE SHEA LN UNIT 105, WOOD VILLAGE, OR, 97060","Match","Non_Exact","24023 NE SHEA LN, WOOD VILLAGE, OR, 97060",157554388,"L"
132949,"240245 COUNTY ROAD R","GERING","NE",69341,NA,NA,449,"240245 COUNTY ROAD R, GERING, NE, 69341","No_Match",NA,NA,NA,NA
132950,"24025 231ST PL SE","MAPLE VALLEY","WA",98038,47.3860778480001,-122.032557039,450,"24025 231ST PL SE, MAPLE VALLEY, WA, 98038","Match","Exact","24025 231ST PL SE, MAPLE VALLEY, WA, 98038",186957046,"R"
132951,"24025 PARK SORRENTO SUITE 280","CALABASAS","CA",91302,34.152100622,-118.648903795,451,"24025 PARK SORRENTO SUITE 280, CALABASAS, CA, 91302","Match","Exact","24025 PARK SORRENTO, CALABASAS, CA, 91302",241249639,"R"
132952,"24025 PARK SORRENTO SUITE 410","CALABASAS","CA",91302,34.152100622,-118.648903795,452,"24025 PARK SORRENTO SUITE 410, CALABASAS, CA, 91302","Match","Exact","24025 PARK SORRENTO, CALABASAS, CA, 91302",241249639,"R"
132953,"24028 111TH PL  SE  APT F103","KENT","WA",98030,47.3856946860001,-122.192632822,453,"24028 111TH PL  SE  APT F103, KENT, WA, 98030","Match","Exact","24028 111TH PL SE, KENT, WA, 98030",187081657,"L"
132954,"24029 AVENIDA CRASIENTA","VALENCIA","CA",91355,NA,NA,454,"24029 AVENIDA CRASIENTA, VALENCIA, CA, 91355","No_Match",NA,NA,NA,NA
132955,"2402A ST CLAUDE AVE","NEW ORLEANS","LA",70117,29.968853408,-90.0520138699999,455,"2402A ST CLAUDE AVE, NEW ORLEANS, LA, 70117","Match","Exact","2402 SAINT CLAUDE AVE, NEW ORLEANS, LA, 70117",191716685,"R"
132956,"2403 15TH STREET","BETHLEHEM","PA",18020,40.6508984230001,-75.3188333579999,456,"2403 15TH STREET, BETHLEHEM, PA, 18020","Match","Exact","2403 15TH ST, BETHLEHEM, PA, 18020",136895805,"L"
132957,"2403 BONITA DRIVE","HUNTSVILLE","AL",35801,34.712530062,-86.578163633,457,"2403 BONITA DRIVE, HUNTSVILLE, AL, 35801","Match","Non_Exact","2403 BONITA DR SW, HUNTSVILLE, AL, 35801",58121012,"L"
132958,"2403 BRAMBLETON ROAD","BALTIMORE","MD",21209,39.361241928,-76.667441477,458,"2403 BRAMBLETON ROAD, BALTIMORE, MD, 21209","Match","Exact","2403 BRAMBLETON RD, BALTIMORE, MD, 21209",206405770,"L"
132959,"2403 BYRON AVENUE","PEARLAND","TX",77581,29.5632714450001,-95.274951971,459,"2403 BYRON AVENUE, PEARLAND, TX, 77581","Match","Exact","2403 BYRON AVE, PEARLAND, TX, 77581",116599991,"L"
132960,"2403 CABRILLO LN","MANSFIELD","TX",75054,32.5999019650001,-97.153524472,460,"2403 CABRILLO LN, MANSFIELD, TX, 75054","Match","Non_Exact","2403 CABRILLO LN, MANSFIELD, TX, 76063",643046001,"R"
132961,"2403 CARL DURHAM ROAD","CHAPEL HILL","NC",27516,35.9097251260001,-79.164035698,461,"2403 CARL DURHAM ROAD, CHAPEL HILL, NC, 27516","Match","Exact","2403 CARL DURHAM RD, CHAPEL HILL, NC, 27516",72408498,"R"
132962,"2403 CLIFFS EDGE DRIVE","AUSTIN","TX",78733,30.3001170700001,-97.889895208,462,"2403 CLIFFS EDGE DRIVE, AUSTIN, TX, 78733","Match","Exact","2403 CLIFFS EDGE DR, AUSTIN, TX, 78733",63966898,"R"
132963,"2403 COPPER CREEK RD","CHESTER SPRINGS","PA",19425,40.0839430720001,-75.671030005,463,"2403 COPPER CREEK RD, CHESTER SPRINGS, PA, 19425","Match","Exact","2403 COPPER CREEK RD, CHESTER SPRINGS, PA, 19425",617733713,"L"
132964,"2403 FALL MEADOW DRIVE","MISSOURI CITY","TX",77459,29.5761630490001,-95.5391259789999,464,"2403 FALL MEADOW DRIVE, MISSOURI CITY, TX, 77459","Match","Exact","2403 FALL MEADOW DR, MISSOURI CITY, TX, 77459",78269567,"L"
132965,"2403 FREDERICKSBURG ROAD","SAN ANTONIO","TX",78201,29.4670962660001,-98.528664205,465,"2403 FREDERICKSBURG ROAD, SAN ANTONIO, TX, 78201","Match","Exact","2403 FREDERICKSBURG RD, SAN ANTONIO, TX, 78201",101733359,"L"
132966,"2403 HARRIS STREET","ALEXANDRIA","LA",71301,31.29287988,-92.4486579429999,466,"2403 HARRIS STREET, ALEXANDRIA, LA, 71301","Match","Exact","2403 HARRIS ST, ALEXANDRIA, LA, 71301",11782585,"L"
132967,"2403 HIDDEN LN","SNELLVILLE","GA",30078,33.8353804070001,-83.99832524,467,"2403 HIDDEN LN, SNELLVILLE, GA, 30078","Match","Exact","2403 HIDDEN LN, SNELLVILLE, GA, 30078",88890898,"R"
132968,"2403 LEVANTE STREET","CARLSBAD","CA",92009,33.0845775720001,-117.256919935,468,"2403 LEVANTE STREET, CARLSBAD, CA, 92009","Match","Exact","2403 LEVANTE ST, CARLSBAD, CA, 92009",195292420,"R"
132969,"2403 NW ROBINHOOD DR","LAWTON","OK",73505,34.633049891,-98.460877282,469,"2403 NW ROBINHOOD DR, LAWTON, OK, 73505","Match","Exact","2403 NW ROBINHOOD DR, LAWTON, OK, 73505",14990371,"R"
132970,"2403 PALMER STREET","EMMETSBURG","IA",50536,43.098376569,-94.681457616,470,"2403 PALMER STREET, EMMETSBURG, IA, 50536","Match","Exact","2403 PALMER ST, EMMETSBURG, IA, 50536",9880156,"L"
132971,"2403 PINE TREE RD LOT 107","LONGVIEW","TX",75604,32.533249701,-94.807774028,471,"2403 PINE TREE RD LOT 107, LONGVIEW, TX, 75604","Match","Exact","2403 PINE TREE RD, LONGVIEW, TX, 75604",141107330,"L"
132972,"2403 PINEHURST DR","MONROE","LA",71201,32.548602246,-92.119402399,472,"2403 PINEHURST DR, MONROE, LA, 71201","Match","Exact","2403 PINEHURST DR, MONROE, LA, 71201",161083207,"L"
132973,"2403 PROFESSOR AVE","CLEVELAND","OH",44113,41.4797505880001,-81.684809892,473,"2403 PROFESSOR AVE, CLEVELAND, OH, 44113","Match","Exact","2403 PROFESSOR AVE, CLEVELAND, OH, 44113",61111449,"L"
132974,"2403 RAIBLE AVE","ANDERSON","IN",46011,40.0914865880001,-85.711106792,474,"2403 RAIBLE AVE, ANDERSON, IN, 46011","Match","Exact","2403 RAIBLE AVE, ANDERSON, IN, 46011",31111562,"R"
132975,"2403 RED PINE COURT","PORTAGE","WI",53901,43.555744428,-89.458885569,475,"2403 RED PINE COURT, PORTAGE, WI, 53901","Match","Exact","2403 RED PINE CT, PORTAGE, WI, 53901",73329323,"R"
132976,"2403 REPTON COURT","BALTIMORE","MD",21244,39.3276444840001,-76.767981178,476,"2403 REPTON COURT, BALTIMORE, MD, 21244","Match","Exact","2403 REPTON CT, BALTIMORE, MD, 21244",191508884,"L"
132977,"2403 S DIVISION SUITE B","GUTHRIE","OK",73044,NA,NA,477,"2403 S DIVISION SUITE B, GUTHRIE, OK, 73044","No_Match",NA,NA,NA,NA
132978,"2403 SE MONROE ST SUITE E","MILWAUKIE","OR",97222,45.4445070840001,-122.637676026,478,"2403 SE MONROE ST SUITE E, MILWAUKIE, OR, 97222","Match","Non_Exact","2403 SE MONROE ST, MILWAUKIE, OR, 97222",157912815,"L"
132979,"2403 SE MONROE STREET SUITE E","MILWAUKIE","OR",97222,45.4445070840001,-122.637676026,479,"2403 SE MONROE STREET SUITE E, MILWAUKIE, OR, 97222","Match","Non_Exact","2403 SE MONROE ST, MILWAUKIE, OR, 97222",157912815,"L"
132980,"2403 SOUTH STATE STREET","DOVER","DE",19901,39.1069310890001,-75.51425531,480,"2403 SOUTH STATE STREET, DOVER, DE, 19901","Match","Exact","2403 S STATE ST, DOVER, DE, 19901",68107831,"R"
132981,"2403 SW 20TH ST","BENTONVILLE","AR",72713,36.350885374,-94.237634204,481,"2403 SW 20TH ST, BENTONVILLE, AR, 72713","Match","Exact","2403 SW 20TH ST, BENTONVILLE, AR, 72713",47879981,"R"
132982,"2403 VENTURA DR","PLAINFIELD","ID",60586,NA,NA,482,"2403 VENTURA DR, PLAINFIELD, ID, 60586","No_Match",NA,NA,NA,NA
132983,"2403 VENTURA DRIVE","PLAINFIELD","IL",60586,41.5654648400001,-88.238109148,483,"2403 VENTURA DRIVE, PLAINFIELD, IL, 60586","Match","Exact","2403 VENTURA DR, PLAINFIELD, IL, 60586",111627185,"R"
132984,"2403 VERSAILLES COURT","MCKINNEY","TX",75070,33.1692941540001,-96.6528943609999,484,"2403 VERSAILLES COURT, MCKINNEY, TX, 75070","Match","Exact","2403 VERSAILLES CT, MCKINNEY, TX, 75070",123526503,"R"
132985,"2403 VIKING DRIVE NW","ROCHESTER","MN",55901,44.0486384490001,-92.464919434,485,"2403 VIKING DRIVE NW, ROCHESTER, MN, 55901","Match","Exact","2403 VIKING DR NW, ROCHESTER, MN, 55901",30551525,"L"
132986,"2403 W 10TH AVE","INDIANOLA","IA",50125,41.3469148630001,-93.59319492,486,"2403 W 10TH AVE, INDIANOLA, IA, 50125","Match","Exact","2403 W 10TH AVE, INDIANOLA, IA, 50125",627104033,"R"
132987,"2403 WALTERS","AMARILLO","TX",79106,35.186757705,-101.885234678,487,"2403 WALTERS, AMARILLO, TX, 79106","Match","Non_Exact","2403 WALTERS ST, AMARILLO, TX, 79106",182470214,"L"
132988,"2403 WEST MASTER STREET","PHILADELPHIA","PA",19121,39.9765953400001,-75.175156471,488,"2403 WEST MASTER STREET, PHILADELPHIA, PA, 19121","Match","Exact","2403 W MASTER ST, PHILADELPHIA, PA, 19121",131405196,"R"
132989,"2403 WEST PALM DRIVE","TAMPA","FL",33629,27.925673508,-82.4845225879999,489,"2403 WEST PALM DRIVE, TAMPA, FL, 33629","Match","Exact","2403 W PALM DR, TAMPA, FL, 33629",104527546,"R"
132990,"2403 WOODBINE ROAD","ALIQUIPPA","PA",15001,40.6002616220001,-80.277739937,490,"2403 WOODBINE ROAD, ALIQUIPPA, PA, 15001","Match","Exact","2403 WOODBINE RD, ALIQUIPPA, PA, 15001",629020898,"L"
132991,"24033 LIV 377","HALE","MO",64643,39.6283237820001,-93.366507075,491,"24033 LIV 377, HALE, MO, 64643","Match","Exact","24033 LIV 377, HALE, MO, 64643",18112630,"L"
132992,"24033 WCR 17","JOHNSTOWN","CO",80534,40.349696883,-104.906674728,492,"24033 WCR 17, JOHNSTOWN, CO, 80534","Match","Non_Exact","24033 CO RD 17, JOHNSTOWN, CO, 80534",188700532,"L"
132993,"24035 NE 30TH PLACE","SAMMAMISH","WA",98074,47.6370251760001,-122.018818933,493,"24035 NE 30TH PLACE, SAMMAMISH, WA, 98074","Match","Exact","24035 NE 30TH PL, SAMMAMISH, WA, 98074",186920730,"L"
132994,"24036 PLYMOUTH HOLLOW CIRCLE","SORRENTO","FL",32776,28.7955413240001,-81.558021821,494,"24036 PLYMOUTH HOLLOW CIRCLE, SORRENTO, FL, 32776","Match","Exact","24036 PLYMOUTH HOLLOW CR, SORRENTO, FL, 32776",633905817,"R"
132995,"24039 FM 1301","DANCINGER","TX",77431,NA,NA,495,"24039 FM 1301, DANCINGER, TX, 77431","No_Match",NA,NA,NA,NA
132996,"2404 6TH WAY NW","FAYETTE","AL",35555,33.720624188,-87.824015545,496,"2404 6TH WAY NW, FAYETTE, AL, 35555","Match","Exact","2404 6TH WAY NW, FAYETTE, AL, 35555",120505378,"R"
132997,"2404 AILSA AVE","BALTIMORE","MD",21214,39.350569423,-76.5730933679999,497,"2404 AILSA AVE, BALTIMORE, MD, 21214","Match","Exact","2404 AILSA AVE, BALTIMORE, MD, 21214",206409944,"L"
132998,"2404 CALLAWAY CT","WENTZVILLE","MO",63385,38.816689265,-90.8962487159999,498,"2404 CALLAWAY CT, WENTZVILLE, MO, 63385","Match","Exact","2404 CALLAWAY CT, WENTZVILLE, MO, 63385",100067030,"L"
132999,"2404 CEDAR LINKS COURT","MEDFORD","OR",97504,42.352933432,-122.839503782,499,"2404 CEDAR LINKS COURT, MEDFORD, OR, 97504","Match","Exact","2404 CEDAR LINKS CT, MEDFORD, OR, 97504",155514078,"R"
133000,"2404 COCKATIEL DR","N LAS VEGAS","NV",89084,36.2772382000001,-115.175248117,500,"2404 COCKATIEL DR, N LAS VEGAS, NV, 89084","Match","Exact","2404 COCKATIEL DR, N LAS VEGAS, NV, 89084",612986416,"R"
