"ID","Address","City","State","Zip","lat","long","id","input_address","match_indicator","match_type","matched_address","tiger_line_id","tiger_side"
64001,"1460 CLOVIS AVE","CLOVIS","CA",93612,36.813268238,-119.700234441,1,"1460 CLOVIS AVE, CLOVIS, CA, 93612","Match","Exact","1460 CLOVIS AVE, CLOVIS, CA, 93612",197620483,"R"
64002,"1460 CR 770","NACOGDOCHES","TX",75964,31.570463359,-94.835799062,2,"1460 CR 770, NACOGDOCHES, TX, 75964","Match","Exact","1460 CO RD 770, NACOGDOCHES, TX, 75964",624345234,"L"
64003,"1460 CREE RD","FREMONT","CA",94539,37.508111453,-121.929510228,3,"1460 CREE RD, FREMONT, CA, 94539","Match","Exact","1460 CREE RD, FREMONT, CA, 94539",125067341,"R"
64004,"1460 CYPRESS CT","GILROY","CA",95020,37.0108118680001,-121.599192335,4,"1460 CYPRESS CT, GILROY, CA, 95020","Match","Exact","1460 CYPRESS CT, GILROY, CA, 95020",123172579,"L"
64005,"1460 DOUGLAS CT","MARION","IA",52302,42.0395462210001,-91.590774606,5,"1460 DOUGLAS CT, MARION, IA, 52302","Match","Exact","1460 DOUGLAS CT, MARION, IA, 52302",17052960,"L"
64006,"1460 DOUGLAS LANE","CRETE","IL",60417,41.4408844340001,-87.622644162,6,"1460 DOUGLAS LANE, CRETE, IL, 60417","Match","Exact","1460 DOUGLAS LN, CRETE, IL, 60417",111553631,"L"
64007,"1460 DUET DRIVE","DALLAS","TX",75241,32.66578316,-96.799524156,7,"1460 DUET DRIVE, DALLAS, TX, 75241","Match","Exact","1460 DUET DR, DALLAS, TX, 75241",102954568,"R"
64008,"1460 E LEAFLAND AVE","DECATUR","IL",62521,39.854241099,-88.936714565,8,"1460 E LEAFLAND AVE, DECATUR, IL, 62521","Match","Exact","1460 E LEAFLAND AVE, DECATUR, IL, 62521",20747244,"L"
64009,"1460 EAST CLEVELAND AVE","EAST POINT","GA",30344,33.679478826,-84.4366905749999,9,"1460 EAST CLEVELAND AVE, EAST POINT, GA, 30344","Match","Exact","1460 E CLEVELAND AVE, EAST POINT, GA, 30344",17348123,"L"
64010,"1460 EAST HOLT AVENUE","POMONA","CA",91767,34.0630731740001,-117.721971791,10,"1460 EAST HOLT AVENUE, POMONA, CA, 91767","Match","Exact","1460 E HOLT AVE, POMONA, CA, 91767",142791634,"R"
64011,"1460 FAIRINGTON DRIVE NW   101","CONCORD","NC",28027,NA,NA,11,"1460 FAIRINGTON DRIVE NW   101, CONCORD, NC, 28027","No_Match",NA,NA,NA,NA
64012,"1460 GLENPEAK DRIVE","MARYLAND HEIGHTS","MO",63043,38.7067867000001,-90.457448012,12,"1460 GLENPEAK DRIVE, MARYLAND HEIGHTS, MO, 63043","Match","Exact","1460 GLENPEAK DR, MARYLAND HEIGHTS, MO, 63043",100193603,"R"
64013,"1460 HEATH LN","NORTH PORT","FL",34286,27.0421540770001,-82.173315846,13,"1460 HEATH LN, NORTH PORT, FL, 34286","Match","Exact","1460 HEATH LN, NORTH PORT, FL, 34286",651727591,"R"
64014,"1460 HOOLAULEA STREET","PEARL CITY","HI",96782,NA,NA,14,"1460 HOOLAULEA STREET, PEARL CITY, HI, 96782","No_Match",NA,NA,NA,NA
64015,"1460 HOWELLS GROVE RD","GREENSBORO","GA",30642,33.4086736,-83.191933051,15,"1460 HOWELLS GROVE RD, GREENSBORO, GA, 30642","Match","Exact","1460 HOWELLS GROVE RD, GREENSBORO, GA, 30642",645830135,"L"
64016,"1460 HWY 78 W","OKEECHOBEE","FL",34974,NA,NA,16,"1460 HWY 78 W, OKEECHOBEE, FL, 34974","No_Match",NA,NA,NA,NA
64017,"1460 JANS PLACE","PAHRUMP","NV",89048,36.1378465930001,-115.984502114,17,"1460 JANS PLACE, PAHRUMP, NV, 89048","Match","Non_Exact","1460 JAN'S PL, PAHRUMP, NV, 89048",140665497,"R"
64018,"1460 JOY STREET","ALGER","MI",48610,44.1259297300001,-84.1206175999999,18,"1460 JOY STREET, ALGER, MI, 48610","Match","Exact","1460 JOY ST, ALGER, MI, 48610",160920172,"R"
64019,"1460 KEY PKWY APT 202","FREDERICK","MD",21702,39.4248576360001,-77.465671621,19,"1460 KEY PKWY APT 202, FREDERICK, MD, 21702","Match","Exact","1460 KEY PKWY, FREDERICK, MD, 21702",60674274,"L"
64020,"1460 KEYSVILLE BRUCEVILLE RD","KEYMAR","MD",21757,39.615628246,-77.2454256629999,20,"1460 KEYSVILLE BRUCEVILLE RD, KEYMAR, MD, 21757","Match","Exact","1460 KEYSVILLE BRUCEVILLE RD, KEYMAR, MD, 21757",61795196,"L"
64021,"1460 MARBLE AVENUE","SANDY VALLEY","NV",89019,NA,NA,21,"1460 MARBLE AVENUE, SANDY VALLEY, NV, 89019","No_Match",NA,NA,NA,NA
64022,"1460 MARTINEZ LOSOYA ROAD","SAN ANTONIO","TX",78221,NA,NA,22,"1460 MARTINEZ LOSOYA ROAD, SAN ANTONIO, TX, 78221","No_Match",NA,NA,NA,NA
64023,"1460 MCGAVOCK PIKE","NASHVILLE","TN",37216,36.2069953910001,-86.7192348519999,23,"1460 MCGAVOCK PIKE, NASHVILLE, TN, 37216","Match","Exact","1460 MCGAVOCK PIKE, NASHVILLE, TN, 37216",97203472,"R"
64024,"1460 MEMORIAL DRIVE SE APT B7","ATLANTA","GA",30317,33.7475463550001,-84.3396058879999,24,"1460 MEMORIAL DRIVE SE APT B7, ATLANTA, GA, 30317","Match","Exact","1460 MEMORIAL DR SE, ATLANTA, GA, 30317",23365528,"L"
64025,"1460 MONROE 1","MEMPHIS","TN",38104,NA,NA,25,"1460 MONROE 1, MEMPHIS, TN, 38104","No_Match",NA,NA,NA,NA
64026,"1460 MOUNT ZION ROAD","WEEDVILLE","PA",15868,41.3104121390001,-78.469976731,26,"1460 MOUNT ZION ROAD, WEEDVILLE, PA, 15868","Match","Exact","1460 MT ZION RD, WEEDVILLE, PA, 15868",157851408,"R"
64027,"1460 NOE BIXBY RD","COLUMBUS","OH",43232,39.9479754220001,-82.852710196,27,"1460 NOE BIXBY RD, COLUMBUS, OH, 43232","Match","Exact","1460 NOE BIXBY RD, COLUMBUS, OH, 43232",218647753,"L"
64028,"1460 NORTH AVE NE","ATLANTA","GA",30307,NA,NA,28,"1460 NORTH AVE NE, ATLANTA, GA, 30307","No_Match",NA,NA,NA,NA
64029,"1460 NW 107 AVE SUITE Q","MIAMI","FL",33172,25.7872525130001,-80.368773639,29,"1460 NW 107 AVE SUITE Q, MIAMI, FL, 33172","Match","Non_Exact","1460 NW 107TH AVE, MIAMI, FL, 33172",116088646,"L"
64030,"1460 NW 183RD STREET","MIAMI GARDENS","FL",33169,NA,NA,30,"1460 NW 183RD STREET, MIAMI GARDENS, FL, 33169","No_Match",NA,NA,NA,NA
64031,"1460 NW 32ND TERRACE","LAUDERHILL","FL",33311,26.1434973230001,-80.1894768499999,31,"1460 NW 32ND TERRACE, LAUDERHILL, FL, 33311","Match","Exact","1460 NW 32ND TER, LAUDERHILL, FL, 33311",114709414,"R"
64032,"1460 PIONEER ROAD NO 3","CREST HILL","IL",60403,41.548593985,-88.137043008,32,"1460 PIONEER ROAD NO 3, CREST HILL, IL, 60403","Match","Non_Exact","1460 PIONEER RD, CREST HILL, IL, 60403",111579906,"R"
64033,"1460 PRAIRIE STREET","BEAUMONT","TX",77701,30.059091434,-94.099163398,33,"1460 PRAIRIE STREET, BEAUMONT, TX, 77701","Match","Non_Exact","1460 PRAIRIE AVE, BEAUMONT, TX, 77701",73856895,"R"
64034,"1460 S MAIN STREET","WALNUT CREEK","CA",94596,37.89138732,-122.057825906,34,"1460 S MAIN STREET, WALNUT CREEK, CA, 94596","Match","Exact","1460 S MAIN ST, WALNUT CREEK, CA, 94596",192056470,"L"
64035,"1460 SIMPSON ST","ST PAUL","MN",55108,44.9851932540001,-93.163080465,35,"1460 SIMPSON ST, ST PAUL, MN, 55108","Match","Exact","1460 SIMPSON ST, SAINT PAUL, MN, 55108",97641056,"R"
64036,"1460 UNIVERSITY DRIVE","WINCHESTER","VA",22601,39.16608395,-78.1596179589999,36,"1460 UNIVERSITY DRIVE, WINCHESTER, VA, 22601","Match","Exact","1460 UNIVERSITY DR, WINCHESTER, VA, 22601",55580119,"R"
64037,"1460 US HWY 76","HIAWASSEE","GA",30546,34.9261018610001,-83.731771465,37,"1460 US HWY 76, HIAWASSEE, GA, 30546","Match","Exact","1460 US HWY 76, HIAWASSEE, GA, 30546",41989763,"L"
64038,"1460 W BOROS CT","LA HABRA","CA",90631,33.910512091,-117.962554318,38,"1460 W BOROS CT, LA HABRA, CA, 90631","Match","Exact","1460 W BOROS CT, LA HABRA, CA, 90631",144133746,"L"
64039,"1460 W CORBETT AVE","SWANSBORO","NC",28584,34.706571877,-77.1599158129999,39,"1460 W CORBETT AVE, SWANSBORO, NC, 28584","Match","Exact","1460 W CORBETT AVE, SWANSBORO, NC, 28584",650555830,"L"
64040,"1460 WEST MCNAB ROAD","FORT LAUDERDALE","FL",33309,NA,NA,40,"1460 WEST MCNAB ROAD, FORT LAUDERDALE, FL, 33309","No_Match",NA,NA,NA,NA
64041,"1460 WEST TYSON ROAD","PORTLAND","IN",47371,NA,NA,41,"1460 WEST TYSON ROAD, PORTLAND, IN, 47371","No_Match",NA,NA,NA,NA
64042,"14600 34TH AVE UNIT 132","PLYMOUTH","MN",55447,45.0204029820001,-93.4658067239999,42,"14600 34TH AVE UNIT 132, PLYMOUTH, MN, 55447","Match","Non_Exact","14600 34TH AVE N, PLYMOUTH, MN, 55447",43836787,"L"
64043,"14600 BANKS ODEE ROAD","NEWBURG","MD",20664,38.3163836160001,-76.917276807,43,"14600 BANKS ODEE ROAD, NEWBURG, MD, 20664","Match","Exact","14600 BANKS ODEE RD, NEWBURG, MD, 20664",25403964,"R"
64044,"14600 BURT RD","HUDSON","MI",49247,41.767830594,-84.369196739,44,"14600 BURT RD, HUDSON, MI, 49247","Match","Exact","14600 BURT RD, HUDSON, MI, 49247",8291136,"L"
64045,"14600 CEMETERY ROAD","NOBLE","OK",73068,35.116536534,-97.2257407609999,45,"14600 CEMETERY ROAD, NOBLE, OK, 73068","Match","Exact","14600 CEMETERY RD, NOBLE, OK, 73068",99903341,"L"
64046,"14600 DEERWOOD COURT","PERRYSBURG","OH",43551,41.5278446630001,-83.68593512,46,"14600 DEERWOOD COURT, PERRYSBURG, OH, 43551","Match","Exact","14600 DEERWOOD CT, PERRYSBURG, OH, 43551",38749307,"R"
64047,"14600 DIX TOLEDO ROAD","SOUTHGATE","MI",48195,42.2031677260001,-83.206342994,47,"14600 DIX TOLEDO ROAD, SOUTHGATE, MI, 48195","Match","Exact","14600 DIX TOLEDO RD, SOUTHGATE, MI, 48195",95448483,"R"
64048,"14600 DONEGAL COURT","BOWIE","MD",20721,38.909460575,-76.751571382,48,"14600 DONEGAL COURT, BOWIE, MD, 20721","Match","Exact","14600 DONEGAL CT, BOWIE, MD, 20721",76342263,"R"
64049,"14600 E 127TH STREET","LEMONT","IL",60439,41.6570157400001,-87.979010671,49,"14600 E 127TH STREET, LEMONT, IL, 60439","Match","Exact","14600 127TH ST, LEMONT, IL, 60439",652716054,"R"
64050,"14600 E 34TH ST S","INDEPENDENCE","MO",64055,39.058608539,-94.407416739,50,"14600 E 34TH ST S, INDEPENDENCE, MO, 64055","Match","Exact","14600 E 34TH ST S, INDEPENDENCE, MO, 64055",91470196,"L"
64051,"14600 E COLOSSAL CAVE ROAD","VAIL","AZ",85641,32.0542598230001,-110.682329048,51,"14600 E COLOSSAL CAVE ROAD, VAIL, AZ, 85641","Match","Exact","14600 E COLOSSAL CAVE RD, VAIL, AZ, 85641",647280634,"R"
64052,"14600 FM 2904","TEMPLE","TX",76501,31.079817812,-97.172706486,52,"14600 FM 2904, TEMPLE, TX, 76501","Match","Exact","14600 FM 2904, TEMPLE, TX, 76501",653524607,"R"
64053,"14600 HUFFMEISTER RD APT 10108","CYPRESS","TX",77429,29.977254745,-95.650677526,53,"14600 HUFFMEISTER RD APT 10108, CYPRESS, TX, 77429","Match","Exact","14600 HUFFMEISTER RD, CYPRESS, TX, 77429",644967106,"R"
64054,"14600 INGLEWOOD UNIT 30","LAWNDALE","CA",90260,33.8995647450001,-118.361255219,54,"14600 INGLEWOOD UNIT 30, LAWNDALE, CA, 90260","Match","Non_Exact","14600 INGLEWOOD AVE, LAWNDALE, CA, 90260",141656715,"L"
64055,"14600 LARCH AVE","LAWNDALE","CA",90260,33.9000862710001,-118.350255198,55,"14600 LARCH AVE, LAWNDALE, CA, 90260","Match","Exact","14600 LARCH AVE, LAWNDALE, CA, 90260",142751683,"L"
64056,"14600 TALLEYWOOD CT","CHESTER","VA",23831,37.317002046,-77.423967309,56,"14600 TALLEYWOOD CT, CHESTER, VA, 23831","Match","Exact","14600 TALLEYWOOD CT, CHESTER, VA, 23831",201563589,"R"
64057,"14600 WOODSON PARK DRIVE","HOUSTON","TX",77004,29.9297585240001,-95.200261726,57,"14600 WOODSON PARK DRIVE, HOUSTON, TX, 77004","Match","Non_Exact","14600 WOODSON PARK DR, HOUSTON, TX, 77044",627679892,"L"
64058,"14601 46TH AVE NE","MARYSVILLE","WA",98271,48.1286544010001,-122.16794102,58,"14601 46TH AVE NE, MARYSVILLE, WA, 98271","Match","Exact","14601 46TH AVE NE, MARYSVILLE, WA, 98271",648622870,"R"
64059,"14601 BARNEY DR","MINT HILL","NC",28227,35.13301757,-80.663442069,59,"14601 BARNEY DR, MINT HILL, NC, 28227","Match","Exact","14601 BARNEY DR, MINT HILL, NC, 28227",70559577,"R"
64060,"14601 BELLAIRE BLVD 228","HOUSTON","TX",77083,29.703960452,-95.6438315779999,60,"14601 BELLAIRE BLVD 228, HOUSTON, TX, 77083","Match","Exact","14601 BELLAIRE BLVD, HOUSTON, TX, 77083",96607995,"L"
64061,"14601 BELLAIRE BLVD UNIT 271","HOUSTON","TX",77083,29.703960452,-95.6438315779999,61,"14601 BELLAIRE BLVD UNIT 271, HOUSTON, TX, 77083","Match","Exact","14601 BELLAIRE BLVD, HOUSTON, TX, 77083",96607995,"L"
64062,"14601 COOPER ROAD","PHOENIX","MD",21131,39.523033438,-76.592756293,62,"14601 COOPER ROAD, PHOENIX, MD, 21131","Match","Exact","14601 COOPER RD, PHOENIX, MD, 21131",191543580,"R"
64063,"14601 DAWN COURT","BOWIE","MD",20721,38.9220504100001,-76.752085804,63,"14601 DAWN COURT, BOWIE, MD, 20721","Match","Exact","14601 DAWN CT, BOWIE, MD, 20721",76416932,"R"
64064,"14601 HONEYCOMB DR","LEANDER","TX",78641,30.570410042,-97.9377614699999,64,"14601 HONEYCOMB DR, LEANDER, TX, 78641","Match","Exact","14601 HONEYCOMB DR, LEANDER, TX, 78641",64030023,"R"
64065,"14601 HOTEL ROAD SUITE 101","MIRAMAR","FL",33027,NA,NA,65,"14601 HOTEL ROAD SUITE 101, MIRAMAR, FL, 33027","No_Match",NA,NA,NA,NA
64066,"14601 LIMA ROAD SUITE 100","FORT WAYNE","IN",46818,41.2179551200001,-85.171875418,66,"14601 LIMA ROAD SUITE 100, FORT WAYNE, IN, 46818","Match","Exact","14601 LIMA RD, FORT WAYNE, IN, 46818",6410352,"L"
64067,"14601 SOUTH YODER RD","HAVEN","KS",67543,37.8879544390001,-97.86658364,67,"14601 SOUTH YODER RD, HAVEN, KS, 67543","Match","Exact","14601 S YODER RD, HAVEN, KS, 67543",142946700,"L"
64068,"14601 SW 168TH AVE","INDIANTOWN","FL",34956,27.027738325,-80.4824702079999,68,"14601 SW 168TH AVE, INDIANTOWN, FL, 34956","Match","Exact","14601 SW 168TH AVE, INDIANTOWN, FL, 34956",120406997,"R"
64069,"14602 FRISCO CT","WOODBRIDGE","VA",22193,38.6363944340001,-77.320178862,69,"14602 FRISCO CT, WOODBRIDGE, VA, 22193","Match","Exact","14602 FRISCO CT, WOODBRIDGE, VA, 22193",76509237,"R"
64070,"14602 LORCA DR","LA MIRADA","CA",90638,33.899821198,-118.006082263,70,"14602 LORCA DR, LA MIRADA, CA, 90638","Match","Non_Exact","14602 LORCA RD, LA MIRADA, CA, 90638",141752290,"L"
64071,"14602 MINNIEVILLE ROAD","DALE CITY","VA",22193,38.632203663,-77.383087104,71,"14602 MINNIEVILLE ROAD, DALE CITY, VA, 22193","Match","Exact","14602 MINNIEVILLE RD, DALE CITY, VA, 22193",207142593,"R"
64072,"14602 MISSION HILLS DR","HOUSTON","TX",77083,29.692658448,-95.646251542,72,"14602 MISSION HILLS DR, HOUSTON, TX, 77083","Match","Exact","14602 MISSION HILLS DR, HOUSTON, TX, 77083",96293531,"L"
64073,"14602 PARKWAY CIRCLE","ALEXANDER","AR",72002,34.61778092,-92.440436389,73,"14602 PARKWAY CIRCLE, ALEXANDER, AR, 72002","Match","Exact","14602 PARKWAY CIR, ALEXANDER, AR, 72002",637580477,"R"
64074,"14602 PRESIDIO SQUARE BLVD","HOUSTON","TX",77083,NA,NA,74,"14602 PRESIDIO SQUARE BLVD, HOUSTON, TX, 77083","No_Match",NA,NA,NA,NA
64075,"14602 THORNLAKE AVENUE","NORWALK","CA",90650,33.8984319680001,-118.071887359,75,"14602 THORNLAKE AVENUE, NORWALK, CA, 90650","Match","Non_Exact","14602 S THORNLAKE AVE, NORWALK, CA, 90650",141741998,"L"
64076,"14603 HUEBNER RD STE 2403SAN ANTONI","SAN ANTONIO","TX",78230,29.573100062,-98.5472975329999,76,"14603 HUEBNER RD STE 2403SAN ANTONI, SAN ANTONIO, TX, 78230","Match","Exact","14603 HUEBNER RD, SAN ANTONIO, TX, 78230",101726526,"R"
64077,"14603 WHITE PINE DRIVE","BAXTER","MN",56425,46.3629568470001,-94.248851486,77,"14603 WHITE PINE DRIVE, BAXTER, MN, 56425","Match","Non_Exact","14603 WHITE PINE DR N, BAXTER, MN, 56425",162828468,"R"
64078,"14604 TOKAY AVE","MAPLE HTS","OH",44137,41.405850641,-81.579422485,78,"14604 TOKAY AVE, MAPLE HTS, OH, 44137","Match","Exact","14604 TOKAY AVE, MAPLE HEIGHTS, OH, 44137",61128435,"R"
64079,"14605 DIXIE HWY","LOUISVILLE","KY",40272,38.0463613220001,-85.8997318959999,79,"14605 DIXIE HWY, LOUISVILLE, KY, 40272","Match","Exact","14605 DIXIE HWY, LOUISVILLE, KY, 40272",96987424,"R"
64080,"14605 EAGLEMONT DR","LITTLE ELM","TX",75068,33.202088148,-96.8831940059999,80,"14605 EAGLEMONT DR, LITTLE ELM, TX, 75068","Match","Exact","14605 EAGLEMONT DR, LITTLE ELM, TX, 75068",637612504,"L"
64081,"14605 ELM STREET  774","UPPER MARLBORO","MD",20774,38.8171402740001,-76.7526598269999,81,"14605 ELM STREET  774, UPPER MARLBORO, MD, 20774","Match","Non_Exact","14605 ELM ST, UPPER MARLBORO, MD, 20772",76394297,"R"
64082,"14605 ELM STREET  STE 365","UPPER MARLBORO","MD",20773,38.8171402740001,-76.7526598269999,82,"14605 ELM STREET  STE 365, UPPER MARLBORO, MD, 20773","Match","Non_Exact","14605 ELM ST, UPPER MARLBORO, MD, 20772",76394297,"R"
64083,"14605 ELM STREET BOX 2489","UPPER MARLBORO","MD",20773,38.8171402740001,-76.7526598269999,83,"14605 ELM STREET BOX 2489, UPPER MARLBORO, MD, 20773","Match","Non_Exact","14605 ELM ST, UPPER MARLBORO, MD, 20772",76394297,"R"
64084,"14606 DEACON COURT","SPRING HILL","FL",34609,28.4991852840001,-82.4954400789999,84,"14606 DEACON COURT, SPRING HILL, FL, 34609","Match","Exact","14606 DEACON CT, SPRING HILL, FL, 34609",85468184,"R"
64085,"14606 HEARTHSTONE MEADOWS DR","HOUSTON","TX",77095,29.8807091730001,-95.6273782279999,85,"14606 HEARTHSTONE MEADOWS DR, HOUSTON, TX, 77095","Match","Exact","14606 HEARTHSTONE MEADOWS DR, HOUSTON, TX, 77095",636854374,"L"
64086,"14607 318TH ST E","GRAHAM","WA",98338,46.967736304,-122.23950868,86,"14607 318TH ST E, GRAHAM, WA, 98338","Match","Exact","14607 318TH ST E, GRAHAM, WA, 98338",184696171,"L"
64087,"14607 6 MILE CYPRESS PARKWAY","FORT MYERS","FL",33912,NA,NA,87,"14607 6 MILE CYPRESS PARKWAY, FORT MYERS, FL, 33912","No_Match",NA,NA,NA,NA
64088,"14607 GREENBELT CIRCLE","URBANDALE","IA",50323,41.642241342,-93.8213334009999,88,"14607 GREENBELT CIRCLE, URBANDALE, IA, 50323","Match","Exact","14607 GREENBELT CIR, URBANDALE, IA, 50323",65647720,"L"
64089,"14607 NE 375TH STREET","LA CENTER","WA",98629,45.8928475000001,-122.523199898,89,"14607 NE 375TH STREET, LA CENTER, WA, 98629","Match","Exact","14607 NE 375TH ST, LA CENTER, WA, 98629",158358630,"R"
64090,"14607 SHAKER BLVD","SHAKER HEIGHTS","OH",44120,41.482829764,-81.5799814659999,90,"14607 SHAKER BLVD, SHAKER HEIGHTS, OH, 44120","Match","Exact","14607 SHAKER BLVD, SHAKER HEIGHTS, OH, 44120",61123449,"L"
64091,"14608 VAN NESS AVE","GARDENA","CA",90249,33.899116238,-118.317810687,91,"14608 VAN NESS AVE, GARDENA, CA, 90249","Match","Exact","14608 VAN NESS AVE, GARDENA, CA, 90249",141661142,"L"
64092,"14609 EAST 24TH AVENUE","AURORA","CO",80011,39.751921876,-104.817981198,92,"14609 EAST 24TH AVENUE, AURORA, CO, 80011","Match","Exact","14609 E 24TH AVE, AURORA, CO, 80011",177351480,"L"
64093,"14609 S OAK ST","GLENPOOL","OK",74033,35.953217696,-95.988818435,93,"14609 S OAK ST, GLENPOOL, OK, 74033","Match","Exact","14609 OAK ST, GLENPOOL, OK, 74033",613644241,"L"
64094,"14609 WESTBURY RD","ROCKVILLE","MD",20853,39.095033712,-77.0959334199999,94,"14609 WESTBURY RD, ROCKVILLE, MD, 20853","Match","Exact","14609 WESTBURY RD, ROCKVILLE, MD, 20853",62059464,"R"
64095,"1461 AARONWOOD DR","OLD HICKORY","TN",37138,36.215577824,-86.626521576,95,"1461 AARONWOOD DR, OLD HICKORY, TN, 37138","Match","Exact","1461 AARONWOOD DR, OLD HICKORY, TN, 37138",97214195,"L"
64096,"1461 BATTLEGROUND DR","MURFREESBORO","TN",37129,35.8663541440001,-86.409126451,96,"1461 BATTLEGROUND DR, MURFREESBORO, TN, 37129","Match","Exact","1461 BATTLEGROUND DR, MURFREESBORO, TN, 37129",636647709,"L"
64097,"1461 BEAVERTON TRAIL","WINSTON SALEM","NC",27103,36.0542760120001,-80.349475374,97,"1461 BEAVERTON TRAIL, WINSTON SALEM, NC, 27103","Match","Exact","1461 BEAVERTON TRL, WINSTON SALEM, NC, 27103",84663351,"R"
64098,"1461 BLOOD BROOK ROAD","FAIRLEE","VT",5045,43.920935226,-72.209808557,98,"1461 BLOOD BROOK ROAD, FAIRLEE, VT, 5045","Match","Exact","1461 BLOOD BROOK RD, FAIRLEE, VT, 05045",181128963,"L"
64099,"1461 CARON COURT","PERRIS","CA",92571,33.79885857,-117.209232084,99,"1461 CARON COURT, PERRIS, CA, 92571","Match","Exact","1461 CARON CT, PERRIS, CA, 92571",194802057,"L"
64100,"1461 COOK STREET","DE PERE","WI",54115,44.4364241700001,-88.052012341,100,"1461 COOK STREET, DE PERE, WI, 54115","Match","Exact","1461 COOK ST, DE PERE, WI, 54115",148105228,"L"
64101,"1461 DEWEY STREET","JASPER","IN",47546,38.399568421,-86.9274163869999,101,"1461 DEWEY STREET, JASPER, IN, 47546","Match","Exact","1461 DEWEY ST, JASPER, IN, 47546",7888644,"L"
64102,"1461 DUDLEY AVE","MUSKEGON","MI",49442,43.2396370210001,-86.207821118,102,"1461 DUDLEY AVE, MUSKEGON, MI, 49442","Match","Exact","1461 DUDLEY AVE, MUSKEGON, MI, 49442",77654963,"R"
64103,"1461 LANTANA DRIVE","WESTON","FL",33326,26.100872813,-80.390684675,103,"1461 LANTANA DRIVE, WESTON, FL, 33326","Match","Exact","1461 LANTANA DR, WESTON, FL, 33326",638638352,"L"
64104,"1461 LARKIN WILLIAMS ROAD","FENTON","MO",63026,38.532444103,-90.450274628,104,"1461 LARKIN WILLIAMS ROAD, FENTON, MO, 63026","Match","Exact","1461 LARKIN WILLIAMS RD, FENTON, MO, 63026",100129403,"L"
64105,"1461 LEEGATE ROAD NW","WASHINGTON","DC",20012,38.98682239,-77.034410861,105,"1461 LEEGATE ROAD NW, WASHINGTON, DC, 20012","Match","Exact","1461 LEEGATE RD NW, WASHINGTON, DC, 20012",76221487,"R"
64106,"1461 LESCHI PL","FOX ISLAND","WA",98333,NA,NA,106,"1461 LESCHI PL, FOX ISLAND, WA, 98333","No_Match",NA,NA,NA,NA
64107,"1461 MEADE ST","DENVER","CO",80204,39.739586188,-105.035820413,107,"1461 MEADE ST, DENVER, CO, 80204","Match","Exact","1461 MEADE ST, DENVER, CO, 80204",177301573,"L"
64108,"1461 MILLICENT ROGERS ROAD","EL PRADO","NM",87529,36.442530586,-105.59343662,108,"1461 MILLICENT ROGERS ROAD, EL PRADO, NM, 87529","Match","Exact","1461 MILLICENT ROGERS RD, EL PRADO, NM, 87529",650022798,"R"
64109,"1461 MONTEREY RD 28E","SEAL BEACH","CA",90740,33.7598960920001,-118.086748623,109,"1461 MONTEREY RD 28E, SEAL BEACH, CA, 90740","Match","Exact","1461 MONTEREY RD, SEAL BEACH, CA, 90740",609078348,"L"
64110,"1461 N 1ST ST","HARRAH","OK",73045,35.4827050820001,-97.164919031,110,"1461 N 1ST ST, HARRAH, OK, 73045","Match","Exact","1461 N 1ST ST, HARRAH, OK, 73045",100420426,"L"
64111,"1461 N SCHOO STREET","HONOLULU","HI",96817,NA,NA,111,"1461 N SCHOO STREET, HONOLULU, HI, 96817","No_Match",NA,NA,NA,NA
64112,"1461 NORTH MANGONIA DRIVE","WEST PALM BEACH","FL",33401,26.7286170890001,-80.074980173,112,"1461 NORTH MANGONIA DRIVE, WEST PALM BEACH, FL, 33401","Match","Exact","1461 N MANGONIA DR, WEST PALM BEACH, FL, 33401",115579883,"R"
64113,"1461 NW 20TH ST SUITE C","FT LAUDERDALE","FL",33311,26.152870545,-80.161834243,113,"1461 NW 20TH ST SUITE C, FT LAUDERDALE, FL, 33311","Match","Non_Exact","1461 NW 20TH ST, FORT LAUDERDALE, FL, 33311",114720363,"R"
64114,"1461 OLD ANDERSON MILL ROAD","MOORE","SC",29369,34.8965033000001,-81.994038543,114,"1461 OLD ANDERSON MILL ROAD, MOORE, SC, 29369","Match","Exact","1461 OLD ANDERSON MILL RD, MOORE, SC, 29369",19513375,"L"
64115,"1461 REAM ROAD","INDIANA","PA",15701,40.55706071,-79.242204606,115,"1461 REAM ROAD, INDIANA, PA, 15701","Match","Exact","1461 REAM RD, INDIANA, PA, 15701",66306223,"R"
64116,"1461 S PALMETTO AVE","ONTARIO","CA",91762,34.0470414340001,-117.667772948,116,"1461 S PALMETTO AVE, ONTARIO, CA, 91762","Match","Exact","1461 S PALMETTO AVE, ONTARIO, CA, 91762",144673557,"L"
64117,"1461 SCHOOL ST","HONOLULU","HI",96817,21.333128247,-157.867130332,117,"1461 SCHOOL ST, HONOLULU, HI, 96817","Match","Non_Exact","1461 N SCHOOL ST, HONOLULU, HI, 96817",203235291,"L"
64118,"1461 STRINGTOWN ROAD","HICO","WV",25854,38.1453785360001,-81.000165974,118,"1461 STRINGTOWN ROAD, HICO, WV, 25854","Match","Exact","1461 STRINGTOWN RD, HICO, WV, 25854",75103985,"L"
64119,"1461 SW 12TH AVENUE UNIT A","POMPANO BEACH","FL",33069,26.212984939,-80.1395151999999,119,"1461 SW 12TH AVENUE UNIT A, POMPANO BEACH, FL, 33069","Match","Non_Exact","1461 SW 12TH AVE, POMPANO BEACH, FL, 33069",114718884,"R"
64120,"1461 VERNAL ROAD","MART","TX",76664,31.587205887,-96.875282456,120,"1461 VERNAL ROAD, MART, TX, 76664","Match","Exact","1461 VERNAL RD, MART, TX, 76664",146769876,"R"
64121,"1461 W RIVERSIDE AVE","SUNNYSIDE","WA",98944,46.3130245290001,-120.045701391,121,"1461 W RIVERSIDE AVE, SUNNYSIDE, WA, 98944","Match","Exact","1461 W RIVERSIDE AVE, SUNNYSIDE, WA, 98944",184970157,"R"
64122,"1461 W SEPULVEDA ST","SAN PEDRO","CA",90732,33.745157104,-118.307787541,122,"1461 W SEPULVEDA ST, SAN PEDRO, CA, 90732","Match","Exact","1461 W SEPULVEDA ST, SAN PEDRO, CA, 90732",141689067,"L"
64123,"1461 WEST MAIN STREET","SALEM","VA",24153,37.289481885,-80.0812112369999,123,"1461 WEST MAIN STREET, SALEM, VA, 24153","Match","Exact","1461 W MAIN ST, SALEM, VA, 24153",62957044,"R"
64124,"1461 WINDORAH WAY APT F","ROYAL PALM BEACH","FL",33411,26.701160594,-80.1735807219999,124,"1461 WINDORAH WAY APT F, ROYAL PALM BEACH, FL, 33411","Match","Exact","1461 WINDORAH WAY, ROYAL PALM BEACH, FL, 33411",115344618,"R"
64125,"14610 330TH ST","STRAWBERRY POINT","IA",50674,42.7443178680001,-91.5130861659999,125,"14610 330TH ST, STRAWBERRY POINT, IA, 50674","Match","Non_Exact","14610 330TH ST, STRAWBERRY PT, IA, 52076",641176166,"L"
64126,"14610 APRIL ST","ACCOKEEK","MD",20607,38.68903268,-76.988127601,126,"14610 APRIL ST, ACCOKEEK, MD, 20607","Match","Exact","14610 APRIL ST, ACCOKEEK, MD, 20607",638665883,"L"
64127,"14610 RIVER ROAD","NOBLESVILLE","IN",46062,40.0003983730001,-86.033798507,127,"14610 RIVER ROAD, NOBLESVILLE, IN, 46062","Match","Exact","14610 RIVER RD, NOBLESVILLE, IN, 46062",231602438,"R"
64128,"14610 SW 99 AVENUE","MIAMI","FL",33176,25.63394027,-80.354101574,128,"14610 SW 99 AVENUE, MIAMI, FL, 33176","Match","Non_Exact","14610 SW 99TH AVE, MIAMI, FL, 33176",640555979,"R"
64129,"14610 TURNING POINT CT","HOUSTON","TX",77015,29.7971698530001,-95.164813214,129,"14610 TURNING POINT CT, HOUSTON, TX, 77015","Match","Exact","14610 TURNING POINT CT, HOUSTON, TX, 77015",96424120,"R"
64130,"14610 W LINCOLN RD","SPOKANE","WA",99224,47.7298643340001,-117.60981941,130,"14610 W LINCOLN RD, SPOKANE, WA, 99224","Match","Non_Exact","14610 W LINCOLN RD, SPOKANE, WA, 99224",189866429,"R"
64131,"14611 ARPENT LN","FLORISSANT","MO",63034,38.819702046,-90.2940694069999,131,"14611 ARPENT LN, FLORISSANT, MO, 63034","Match","Exact","14611 ARPENT LN, FLORISSANT, MO, 63034",100143794,"L"
64132,"14611 BEN C PRATT/ SIX MILE CYPRESS","FORT MYERS","FL",33912,NA,NA,132,"14611 BEN C PRATT/ SIX MILE CYPRESS, FORT MYERS, FL, 33912","No_Match",NA,NA,NA,NA
64133,"14611 LOGAN FALLS LANE","HUMBLE","TX",77396,29.9269077770001,-95.262072976,133,"14611 LOGAN FALLS LANE, HUMBLE, TX, 77396","Match","Exact","14611 LOGAN FALLS LN, HUMBLE, TX, 77396",624603856,"R"
64134,"14611 PEARL LAKE DRIVE","DETROIT LAKES","MN",56501,46.781422793,-95.9264956,134,"14611 PEARL LAKE DRIVE, DETROIT LAKES, MN, 56501","Match","Exact","14611 PEARL LAKE DR, DETROIT LAKES, MN, 56501",167969927,"R"
64135,"14611 SE 279TH PLACE","KENT","WA",98042,47.351175847,-122.146044209,135,"14611 SE 279TH PLACE, KENT, WA, 98042","Match","Exact","14611 SE 279TH PL, KENT, WA, 98042",186945517,"R"
64136,"14611 SOUTERN BLVD STE 454","LOXAHATCHEE","FL",33470,NA,NA,136,"14611 SOUTERN BLVD STE 454, LOXAHATCHEE, FL, 33470","No_Match",NA,NA,NA,NA
64137,"14611 SOUTHERN BLVD  412","LOXAHATCHEE","FL",33414,26.6827402700001,-80.277164881,137,"14611 SOUTHERN BLVD  412, LOXAHATCHEE, FL, 33414","Match","Non_Exact","14611 SOUTHERN BLVD, LOXAHATCHEE, FL, 33470",647689655,"R"
64138,"14611 SOUTHERN BLVD UNIT 692","LOXAHATCHEE","FL",33470,26.6827402700001,-80.277164881,138,"14611 SOUTHERN BLVD UNIT 692, LOXAHATCHEE, FL, 33470","Match","Exact","14611 SOUTHERN BLVD, LOXAHATCHEE, FL, 33470",647689655,"R"
64139,"14612 BELLA COURTE","WHITTIER","CA",90604,33.9364550290001,-118.021662851,139,"14612 BELLA COURTE, WHITTIER, CA, 90604","Match","Exact","14612 BELLA COURTE, WHITTIER, CA, 90604",141775345,"L"
64140,"14612 FM 514","YANTIS","TX",75497,32.9295112630001,-95.662457345,140,"14612 FM 514, YANTIS, TX, 75497","Match","Non_Exact","14612 CO RD 514, YANTIS, TX, 75497",42768909,"R"
64141,"14612 MAIN STREET","UPPER MARLBORO","MD",20772,38.816069075,-76.752548706,141,"14612 MAIN STREET, UPPER MARLBORO, MD, 20772","Match","Exact","14612 MAIN ST, UPPER MARLBORO, MD, 20772",639247835,"R"
64142,"14612 WASHINGTON ST","HAYMARKET","VA",20169,38.809416427,-77.6305751049999,142,"14612 WASHINGTON ST, HAYMARKET, VA, 20169","Match","Exact","14612 WASHINGTON ST, HAYMARKET, VA, 20169",207157184,"R"
64143,"14613 CHADWICK STREET","LEAWOOD","KS",66224,38.8640689550001,-94.6218910279999,143,"14613 CHADWICK STREET, LEAWOOD, KS, 66224","Match","Exact","14613 CHADWICK ST, LEAWOOD, KS, 66224",627784300,"R"
64144,"14613 N KELLY AVE","EDMOND","OK",73013,NA,NA,144,"14613 N KELLY AVE, EDMOND, OK, 73013","No_Match",NA,NA,NA,NA
64145,"14614 FRISCO CT","WOODBRIDGE","VA",22193,38.636022258,-77.320526822,145,"14614 FRISCO CT, WOODBRIDGE, VA, 22193","Match","Exact","14614 FRISCO CT, WOODBRIDGE, VA, 22193",76509236,"R"
64146,"14614 STONEBRIAR WAY","ORLANDO","FL",32826,28.596590667,-81.1664991,146,"14614 STONEBRIAR WAY, ORLANDO, FL, 32826","Match","Exact","14614 STONEBRIAR WAY, ORLANDO, FL, 32826",631717545,"R"
64147,"14614 VANCE JACKSON RD 3207","SAN ANTONIO","TX",78249,29.580707165,-98.588282862,147,"14614 VANCE JACKSON RD 3207, SAN ANTONIO, TX, 78249","Match","Exact","14614 VANCE JACKSON RD, SAN ANTONIO, TX, 78249",650069663,"L"
64148,"14614 VANCE JACKSON ROAD 9203","SAN ANTONIO","TX",78249,29.580707165,-98.588282862,148,"14614 VANCE JACKSON ROAD 9203, SAN ANTONIO, TX, 78249","Match","Exact","14614 VANCE JACKSON RD, SAN ANTONIO, TX, 78249",650069663,"L"
64149,"14615 CREEK CLUB DR","MILTON","GA",30004,34.138441776,-84.268270681,149,"14615 CREEK CLUB DR, MILTON, GA, 30004","Match","Exact","14615 CREEK CLUB DR, MILTON, GA, 30004",17394475,"L"
64150,"14615 EMERALD CYPRESS LANE","CYPRESS","TX",77429,29.983790653,-95.691272962,150,"14615 EMERALD CYPRESS LANE, CYPRESS, TX, 77429","Match","Exact","14615 EMERALD CYPRESS LN, CYPRESS, TX, 77429",640073797,"R"
64151,"14615 NORTH MIAMI AVE","MIAMI","FL",33168,25.909467336,-80.199975547,151,"14615 NORTH MIAMI AVE, MIAMI, FL, 33168","Match","Exact","14615 N MIAMI AVE, MIAMI, FL, 33168",116290712,"R"
64152,"14615 PALM ST","ADELANTO","CA",92301,NA,NA,152,"14615 PALM ST, ADELANTO, CA, 92301","No_Match",NA,NA,NA,NA
64153,"14615 RIALTO DR","CHESTERFIELD","MO",63017,38.675043943,-90.5303663509999,153,"14615 RIALTO DR, CHESTERFIELD, MO, 63017","Match","Exact","14615 RIALTO DR, CHESTERFIELD, MO, 63017",645521184,"L"
64154,"14615 ST RT PP","KOSHKONONG","MO",65692,NA,NA,154,"14615 ST RT PP, KOSHKONONG, MO, 65692","No_Match",NA,NA,NA,NA
64155,"14615 WOOD ROAD","RIVERSIDE","CA",92508,NA,NA,155,"14615 WOOD ROAD, RIVERSIDE, CA, 92508","No_Match",NA,NA,NA,NA
64156,"14616 AFTON BLVD SOUTH","AFTON","MN",55001,44.893069311,-92.809279851,156,"14616 AFTON BLVD SOUTH, AFTON, MN, 55001","Match","Non_Exact","14616 AFTON BLVD, AFTON, MN, 55001",97822919,"L"
64157,"14616 BLACKBURN ROAD","BURTONSVILLE","MD",20866,39.0981078730001,-76.9287948689999,157,"14616 BLACKBURN ROAD, BURTONSVILLE, MD, 20866","Match","Exact","14616 BLACKBURN RD, BURTONSVILLE, MD, 20866",640174203,"L"
64158,"14616 MAGNOLIA BLVD APT 1","SHERMAN OAKS","CA",91403,34.1648505490001,-118.451490516,158,"14616 MAGNOLIA BLVD APT 1, SHERMAN OAKS, CA, 91403","Match","Exact","14616 MAGNOLIA BLVD, SHERMAN OAKS, CA, 91403",141560789,"L"
64159,"14618 MONET DRIVE","EASTVALE","CA",92880,33.9554578230001,-117.601629034,159,"14618 MONET DRIVE, EASTVALE, CA, 92880","Match","Exact","14618 MONET DR, EASTVALE, CA, 92880",646298614,"R"
64160,"14618 MOSS CREEK LN","CYPRESS","TX",77429,29.958684245,-95.643923248,160,"14618 MOSS CREEK LN, CYPRESS, TX, 77429","Match","Exact","14618 MOSS CREEK LN, CYPRESS, TX, 77429",96000995,"R"
64161,"14618 TYLER FOOTE RD SUITE 210","NEVADA CITY","CA",95959,39.36761045,-121.045999128,161,"14618 TYLER FOOTE RD SUITE 210, NEVADA CITY, CA, 95959","Match","Exact","14618 TYLER FOOTE RD, NEVADA CITY, CA, 95959",106554516,"L"
64162,"14619 31ST DR SE","MILL CREEK","WA",98012,47.865569624,-122.190226459,162,"14619 31ST DR SE, MILL CREEK, WA, 98012","Match","Exact","14619 31ST DR SE, MILL CREEK, WA, 98012",187805375,"R"
64163,"14619 MEREDITH GATE CIRCLE","HOUSTON","TX",77044,29.9333728,-95.17913234,163,"14619 MEREDITH GATE CIRCLE, HOUSTON, TX, 77044","Match","Exact","14619 MEREDITH GATE CIR, HOUSTON, TX, 77044",96427675,"L"
64164,"14619 SW 154 CT","MIAMI","FL",33196,25.631263856,-80.443562189,164,"14619 SW 154 CT, MIAMI, FL, 33196","Match","Exact","14619 SW 154TH CT, MIAMI, FL, 33196",116077719,"L"
64165,"14619 TAYMOUTH DRIVE","HOUSTON","TX",77084,29.868999591,-95.62584938,165,"14619 TAYMOUTH DRIVE, HOUSTON, TX, 77084","Match","Exact","14619 TAYMOUTH DR, HOUSTON, TX, 77084",96645837,"L"
64166,"14619 VALLEY VIEW ROAD","MOUNT HOPE","WI",53816,43.0373531990001,-90.837185833,166,"14619 VALLEY VIEW ROAD, MOUNT HOPE, WI, 53816","Match","Exact","14619 VALLEY VIEW RD, MOUNT HOPE, WI, 53816",32743627,"L"
64167,"1462 76TH AVE","OAKLAND","CA",94621,37.759043912,-122.18375746,167,"1462 76TH AVE, OAKLAND, CA, 94621","Match","Exact","1462 76TH AVE, OAKLAND, CA, 94621",125009150,"R"
64168,"1462 ARAPAHOE WAY","SAINT CHARLES","MO",63304,38.7349085330001,-90.615965425,168,"1462 ARAPAHOE WAY, SAINT CHARLES, MO, 63304","Match","Exact","1462 ARAPAHOE WAY, SAINT CHARLES, MO, 63304",100017842,"R"
64169,"1462 COMMERCIAL ST NE","SALEM","OR",97301,44.954215676,-123.033932966,169,"1462 COMMERCIAL ST NE, SALEM, OR, 97301","Match","Exact","1462 COMMERCIAL ST NE, SALEM, OR, 97301",156246658,"R"
64170,"1462 COW CAMP ROAD","NEWLAND","NC",28657,36.075646083,-81.950786449,170,"1462 COW CAMP ROAD, NEWLAND, NC, 28657","Match","Exact","1462 COW CAMP RD, NEWLAND, NC, 28657",36769105,"L"
64171,"1462 EVERGLADES BLVD N","NAPLES","FL",34120,26.2583608360001,-81.5449201879999,171,"1462 EVERGLADES BLVD N, NAPLES, FL, 34120","Match","Exact","1462 EVERGLADES BLVD N, NAPLES, FL, 34120",115128965,"R"
64172,"1462 FIDDLERS MARSH DR","MT PLEASANT","SC",29464,32.7937842580001,-79.844785657,172,"1462 FIDDLERS MARSH DR, MT PLEASANT, SC, 29464","Match","Exact","1462 FIDDLERS MARSH DR, MOUNT PLEASANT, SC, 29464",635601732,"R"
64173,"1462 HIGHWAY 15","SPEARSVILLE","LA",71277,32.9338997300001,-92.601702523,173,"1462 HIGHWAY 15, SPEARSVILLE, LA, 71277","Match","Non_Exact","1462 STATE RTE 15, SPEARSVILLE, LA, 71277",150038690,"L"
64174,"1462 N SCOTTSDALE RD","TEMPE","AZ",85281,NA,NA,174,"1462 N SCOTTSDALE RD, TEMPE, AZ, 85281","No_Match",NA,NA,NA,NA
64175,"1462 OLSON RD","MANISTEE","MI",49660,44.251417905,-86.274854933,175,"1462 OLSON RD, MANISTEE, MI, 49660","Match","Exact","1462 OLSON RD, MANISTEE, MI, 49660",146020422,"R"
64176,"1462 SHADY OAK ROAD","PINCKNEYVILLE","IL",62274,37.9928110980001,-89.354267014,176,"1462 SHADY OAK ROAD, PINCKNEYVILLE, IL, 62274","Match","Exact","1462 SHADY OAK RD, PINCKNEYVILLE, IL, 62274",93119319,"R"
64177,"1462 SNYDER GULCH RD","EVERGREEN","CO",80439,39.6896124420001,-105.395358991,177,"1462 SNYDER GULCH RD, EVERGREEN, CO, 80439","Match","Exact","1462 SNYDER GULCH RD, EVERGREEN, CO, 80439",650725217,"L"
64178,"1462 SW 17TH ST","MIAMI","FL",33145,25.7572375250001,-80.2188855489999,178,"1462 SW 17TH ST, MIAMI, FL, 33145","Match","Exact","1462 SW 17TH ST, MIAMI, FL, 33145",116016755,"L"
64179,"1462 TWIXT TOWN ROAD","MARION","IA",52302,42.0277332490001,-91.617873034,179,"1462 TWIXT TOWN ROAD, MARION, IA, 52302","Match","Exact","1462 TWIXT TOWN RD, MARION, IA, 52302",17022444,"R"
64180,"14620 BATAVIA DRIVE","CENTREVILLE","VA",20120,38.8621863290001,-77.453422761,180,"14620 BATAVIA DRIVE, CENTREVILLE, VA, 20120","Match","Exact","14620 BATAVIA DR, CENTREVILLE, VA, 20120",75955093,"R"
64181,"14620 KRISTENRIGHT LN","ORLANDO","FL",32826,28.6001526850001,-81.165877372,181,"14620 KRISTENRIGHT LN, ORLANDO, FL, 32826","Match","Exact","14620 KRISTENRIGHT LN, ORLANDO, FL, 32826",94402695,"R"
64182,"14620 S JUSTINE ST","HARVEY","IL",60426,41.624077555,-87.6547751529999,182,"14620 S JUSTINE ST, HARVEY, IL, 60426","Match","Exact","14620 JUSTINE ST, HARVEY, IL, 60426",605697494,"R"
64183,"14620 SW 173 STREET","MIAMI","FL",33177,25.606255952,-80.4284504949999,183,"14620 SW 173 STREET, MIAMI, FL, 33177","Match","Exact","14620 SW 173RD ST, MIAMI, FL, 33177",116079654,"L"
64184,"14621 PENNSYLVANIA AVE","HAGERSTOWN","MD",21742,39.716777075,-77.7237161859999,184,"14621 PENNSYLVANIA AVE, HAGERSTOWN, MD, 21742","Match","Exact","14621 PENNSYLVANIA AVE, HAGERSTOWN, MD, 21742",635467074,"R"
64185,"14621 RIO RANCHO","SAN DIEGO","CA",92127,32.988644155,-117.168263631,185,"14621 RIO RANCHO, SAN DIEGO, CA, 92127","Match","Exact","14621 RIO RANCHO, SAN DIEGO, CA, 92127",612865204,"R"
64186,"14622 BROCKWOOD DRIVE","HOUSTON","TX",77047,29.5952844,-95.356948287,186,"14622 BROCKWOOD DRIVE, HOUSTON, TX, 77047","Match","Exact","14622 BROCKWOOD DR, HOUSTON, TX, 77047",96146494,"R"
64187,"14622 UNDERWOOD CREEK WAY","HOUSTON","TX",77062,29.579959832,-95.144640336,187,"14622 UNDERWOOD CREEK WAY, HOUSTON, TX, 77062","Match","Exact","14622 UNDERWOOD CREEK WAY, HOUSTON, TX, 77062",96545338,"R"
64188,"14622 VENTURA BL STE 2135","SHERMAN OAKS","CA",91403,34.151415914,-118.451735806,188,"14622 VENTURA BL STE 2135, SHERMAN OAKS, CA, 91403","Match","Exact","14622 VENTURA BLVD, SHERMAN OAKS, CA, 91403",142042203,"L"
64189,"14622 VENTURA BLVD STE 1001","SHERMAN OAKS","CA",91403,34.151415914,-118.451735806,189,"14622 VENTURA BLVD STE 1001, SHERMAN OAKS, CA, 91403","Match","Exact","14622 VENTURA BLVD, SHERMAN OAKS, CA, 91403",142042203,"L"
64190,"14622 VENTURA BLVD STE 102-373","SHERMAN OAKS","CA",91403,34.151415914,-118.451735806,190,"14622 VENTURA BLVD STE 102-373, SHERMAN OAKS, CA, 91403","Match","Exact","14622 VENTURA BLVD, SHERMAN OAKS, CA, 91403",142042203,"L"
64191,"14622 VENTURA BLVD STE 102","SHERMAN OAKS","CA",91403,34.151415914,-118.451735806,191,"14622 VENTURA BLVD STE 102, SHERMAN OAKS, CA, 91403","Match","Exact","14622 VENTURA BLVD, SHERMAN OAKS, CA, 91403",142042203,"L"
64192,"14622 VENTURA BLVD STE 736","SHERMAN OAKS","CA",91403,34.151415914,-118.451735806,192,"14622 VENTURA BLVD STE 736, SHERMAN OAKS, CA, 91403","Match","Exact","14622 VENTURA BLVD, SHERMAN OAKS, CA, 91403",142042203,"L"
64193,"14622 VENTURA BLVD STE 777","SHERMAN OAKS","CA",91403,34.151415914,-118.451735806,193,"14622 VENTURA BLVD STE 777, SHERMAN OAKS, CA, 91403","Match","Exact","14622 VENTURA BLVD, SHERMAN OAKS, CA, 91403",142042203,"L"
64194,"14622 VENTURA BLVD SUITE 102-814","SHERMAN OAKS","CA",91403,34.151415914,-118.451735806,194,"14622 VENTURA BLVD SUITE 102-814, SHERMAN OAKS, CA, 91403","Match","Exact","14622 VENTURA BLVD, SHERMAN OAKS, CA, 91403",142042203,"L"
64195,"14622 VENTURA BLVD SUITE 2022","SHERMAN OAKS","CA",91403,34.151415914,-118.451735806,195,"14622 VENTURA BLVD SUITE 2022, SHERMAN OAKS, CA, 91403","Match","Exact","14622 VENTURA BLVD, SHERMAN OAKS, CA, 91403",142042203,"L"
64196,"14622 VENTURA BLVD SUITE 2047","SHERMAN OAKS","CA",91403,34.151415914,-118.451735806,196,"14622 VENTURA BLVD SUITE 2047, SHERMAN OAKS, CA, 91403","Match","Exact","14622 VENTURA BLVD, SHERMAN OAKS, CA, 91403",142042203,"L"
64197,"14623 ARGOS PLACE","UPPER MARLBORO","MD",20774,38.8863590600001,-76.752953642,197,"14623 ARGOS PLACE, UPPER MARLBORO, MD, 20774","Match","Exact","14623 ARGOS PL, UPPER MARLBORO, MD, 20774",639595704,"R"
64198,"14623 FELLRATH ST","TAYLOR","MI",48180,42.199034355,-83.2910006719999,198,"14623 FELLRATH ST, TAYLOR, MI, 48180","Match","Exact","14623 FELLRATH ST, TAYLOR, MI, 48180",95437756,"L"
64199,"14624 HARVESTER DRIVE","GRANGER","IN",46530,41.7451949800001,-86.150739701,199,"14624 HARVESTER DRIVE, GRANGER, IN, 46530","Match","Exact","14624 HARVESTER DR, GRANGER, IN, 46530",8074666,"R"
64200,"14624 PURITAS AVENUE 301","CLEVELAND","OH",44135,41.433637215,-81.798202456,200,"14624 PURITAS AVENUE 301, CLEVELAND, OH, 44135","Match","Exact","14624 PURITAS AVE, CLEVELAND, OH, 44135",61102612,"R"
64201,"14624 RAVENWOOD RD SE","MONROE","WA",98272,47.864779361,-121.962870697,201,"14624 RAVENWOOD RD SE, MONROE, WA, 98272","Match","Exact","14624 RAVENWOOD RD SE, MONROE, WA, 98272",187824090,"R"
64202,"14625 BALTIMORE AVE NUM 856","LAUREL","MD",20707,39.09050927,-76.8582300859999,202,"14625 BALTIMORE AVE NUM 856, LAUREL, MD, 20707","Match","Exact","14625 BALTIMORE AVE, LAUREL, MD, 20707",76377181,"R"
64203,"14625 BALTIMORE AVENUE  STE 256","LAUREL","MD",20707,39.09050927,-76.8582300859999,203,"14625 BALTIMORE AVENUE  STE 256, LAUREL, MD, 20707","Match","Exact","14625 BALTIMORE AVE, LAUREL, MD, 20707",76377181,"R"
64204,"14625 BALTIMORE AVENUE SUITE 333","LAUREL","MD",20707,39.09050927,-76.8582300859999,204,"14625 BALTIMORE AVENUE SUITE 333, LAUREL, MD, 20707","Match","Exact","14625 BALTIMORE AVE, LAUREL, MD, 20707",76377181,"R"
64205,"14625 CALIFORNIA STREET","OMAHA","NE",68154,41.264693219,-96.1429326099999,205,"14625 CALIFORNIA STREET, OMAHA, NE, 68154","Match","Exact","14625 CALIFORNIA ST, OMAHA, NE, 68154",117024217,"R"
64206,"14625 NE 4TH AVE","MIAMI","FL",33161,25.909315454,-80.191265443,206,"14625 NE 4TH AVE, MIAMI, FL, 33161","Match","Exact","14625 NE 4TH AVE, MIAMI, FL, 33161",116031534,"R"
64207,"14625 SE 63RD STREET","BELLEVUE","WA",98006,47.5456546460001,-122.146166331,207,"14625 SE 63RD STREET, BELLEVUE, WA, 98006","Match","Exact","14625 SE 63RD ST, BELLEVUE, WA, 98006",186615306,"R"
64208,"14625 SW 75TH AVE","PALMETTO BAY","FL",33158,25.6355593690001,-80.3154637069999,208,"14625 SW 75TH AVE, PALMETTO BAY, FL, 33158","Match","Exact","14625 SW 75TH AVE, PALMETTO BAY, FL, 33158",115986699,"L"
64209,"14625 WATERTOWN PLANK ROAD","ELM GROVE","WI",53122,43.039546628,-88.0940059019999,209,"14625 WATERTOWN PLANK ROAD, ELM GROVE, WI, 53122","Match","Exact","14625 WATERTOWN PLANK RD, ELM GROVE, WI, 53122",53817078,"L"
64210,"14626 COUNTY ROAD 234","TERRELL","TX",75160,32.7750498410001,-96.327174612,210,"14626 COUNTY ROAD 234, TERRELL, TX, 75160","Match","Exact","14626 CO RD 234, TERRELL, TX, 75160",123767437,"R"
64211,"14626 HOUSTON WHITTIER ST","DETROIT","MI",48205,42.420688754,-82.9719699039999,211,"14626 HOUSTON WHITTIER ST, DETROIT, MI, 48205","Match","Exact","14626 HOUSTON WHITTIER ST, DETROIT, MI, 48205",95468230,"R"
64212,"14627 ALMANAC DR","BUTRONSVILLE","MD",20866,39.094063383,-76.929588257,212,"14627 ALMANAC DR, BUTRONSVILLE, MD, 20866","Match","Non_Exact","14627 ALMANAC DR, BURTONSVILLE, MD, 20866",62078195,"R"
64213,"14627 BATAVIA DR","CENTREVILLE","VA",20120,38.862304959,-77.453583551,213,"14627 BATAVIA DR, CENTREVILLE, VA, 20120","Match","Exact","14627 BATAVIA DR, CENTREVILLE, VA, 20120",75955093,"L"
64214,"14627 DAVIS TRACE DRIVE","CHARLOTTE","NC",28227,35.132228582,-80.66049946,214,"14627 DAVIS TRACE DRIVE, CHARLOTTE, NC, 28227","Match","Exact","14627 DAVIS TRACE DR, CHARLOTTE, NC, 28227",70629121,"L"
64215,"14627 E PARADISE DR","SCOTTSDALE","AZ",85268,33.595942403,-111.763181846,215,"14627 E PARADISE DR, SCOTTSDALE, AZ, 85268","Match","Exact","14627 E PARADISE DR, SCOTTSDALE, AZ, 85268",616536742,"L"
64216,"14628 LAKETOWN DR","BATON ROUGE","LA",70810,30.3643120470001,-91.056142442,216,"14628 LAKETOWN DR, BATON ROUGE, LA, 70810","Match","Non_Exact","14628 LAKE TOWN DR, BATON ROUGE, LA, 70810",639185721,"R"
64217,"14628 PINTO LN","ROCKVILLE","MD",20850,39.0974260940001,-77.21093515,217,"14628 PINTO LN, ROCKVILLE, MD, 20850","Match","Exact","14628 PINTO LN, ROCKVILLE, MD, 20850",62049155,"L"
64218,"14629 LAQUINTA DR","GRANDVIEW","MO",64030,38.8607962990001,-94.5133440659999,218,"14629 LAQUINTA DR, GRANDVIEW, MO, 64030","Match","Exact","14629 LAQUINTA DR, GRANDVIEW, MO, 64030",640637679,"R"
64219,"14629 SAN PABLO AVE","SAN PABLO","CA",94806,37.9693317360001,-122.343705541,219,"14629 SAN PABLO AVE, SAN PABLO, CA, 94806","Match","Exact","14629 SAN PABLO AVE, SAN PABLO, CA, 94806",617628346,"L"
64220,"14629 SW 104 ST  APT 101","MIAMI","FL",33186,25.670307227,-80.431627195,220,"14629 SW 104 ST  APT 101, MIAMI, FL, 33186","Match","Non_Exact","14629 SW 104TH ST, MIAMI, FL, 33186",635560354,"L"
64221,"14629 SW 104 ST APT 101","MIAMI","FL",33186,25.670307227,-80.431627195,221,"14629 SW 104 ST APT 101, MIAMI, FL, 33186","Match","Non_Exact","14629 SW 104TH ST, MIAMI, FL, 33186",635560354,"L"
64222,"14629 SW 104 STREET  SUITE 215","MIAMI","FL",33186,25.670307227,-80.431627195,222,"14629 SW 104 STREET  SUITE 215, MIAMI, FL, 33186","Match","Non_Exact","14629 SW 104TH ST, MIAMI, FL, 33186",635560354,"L"
64223,"14629 SW 104 STREET SUITE 141","MIAMI","FL",33186,25.670307227,-80.431627195,223,"14629 SW 104 STREET SUITE 141, MIAMI, FL, 33186","Match","Non_Exact","14629 SW 104TH ST, MIAMI, FL, 33186",635560354,"L"
64224,"14629 SW 104 STREET SUITE 466","MIAMI","FL",33186,25.670307227,-80.431627195,224,"14629 SW 104 STREET SUITE 466, MIAMI, FL, 33186","Match","Non_Exact","14629 SW 104TH ST, MIAMI, FL, 33186",635560354,"L"
64225,"14629 TYNEWICK TERRACE","SILVER SPRING","MD",20906,39.096084036,-77.077960103,225,"14629 TYNEWICK TERRACE, SILVER SPRING, MD, 20906","Match","Exact","14629 TYNEWICK TER, SILVER SPRING, MD, 20906",62060175,"R"
64226,"1463 162ND AVENUE NW","ANDOVER","MN",55304,45.2646516250001,-93.295692942,226,"1463 162ND AVENUE NW, ANDOVER, MN, 55304","Match","Exact","1463 162ND AVE NW, ANDOVER, MN, 55304",614143870,"R"
64227,"1463 28TH AVENUE","SAN FRANCISCO","CA",94122,37.7601352290001,-122.486565721,227,"1463 28TH AVENUE, SAN FRANCISCO, CA, 94122","Match","Exact","1463 28TH AVE, SAN FRANCISCO, CA, 94122",192277436,"R"
64228,"1463 BEACONSFIELD AVE APT 2N","GROSSE POINTE PARK","MI",48230,42.3877879510001,-82.942566947,228,"1463 BEACONSFIELD AVE APT 2N, GROSSE POINTE PARK, MI, 48230","Match","Non_Exact","1463 BEACONSFIELD, GROSSE POINTE PARK, MI, 48230",645864266,"L"
64229,"1463 BROOKSTONE RD","HEPHZIBAH","GA",30815,33.3668867050001,-82.09695881,229,"1463 BROOKSTONE RD, HEPHZIBAH, GA, 30815","Match","Exact","1463 BROOKSTONE RD, HEPHZIBAH, GA, 30815",645394356,"L"
64230,"1463 DE LA VINA STREET","CHULA VISTA","CA",91913,32.620487026,-116.984778468,230,"1463 DE LA VINA STREET, CHULA VISTA, CA, 91913","Match","Exact","1463 DE LA VINA ST, CHULA VISTA, CA, 91913",645146676,"R"
64231,"1463 DEL MAR DRIVE","IRVING","TX",75060,32.8002555570001,-96.991079278,231,"1463 DEL MAR DRIVE, IRVING, TX, 75060","Match","Exact","1463 DEL MAR DR, IRVING, TX, 75060",617054896,"L"
64232,"1463 E VINE STREET","MURRAY","UT",84121,40.640295936,-111.84987246,232,"1463 E VINE STREET, MURRAY, UT, 84121","Match","Exact","1463 E VINE ST, MURRAY, UT, 84121",630295145,"L"
64233,"1463 MARION DR","LAS VEGAS","NV",89110,36.1860375540001,-115.070942357,233,"1463 MARION DR, LAS VEGAS, NV, 89110","Match","Exact","1463 MARION DR, LAS VEGAS, NV, 89110",201875266,"L"
64234,"1463 MCCLURE ROAD","AURORA","IL",60505,41.7875248170001,-88.27789383,234,"1463 MCCLURE ROAD, AURORA, IL, 60505","Match","Exact","1463 MCCLURE RD, AURORA, IL, 60505",119589716,"R"
64235,"1463 MOFFAT BLVD STE 9","MANTECA","CA",95336,37.7874978730001,-121.202658473,235,"1463 MOFFAT BLVD STE 9, MANTECA, CA, 95336","Match","Exact","1463 MOFFAT BLVD, MANTECA, CA, 95336",639644926,"L"
64236,"1463 MOFFAT BLVD STE 9F","MANTECA","CA",95336,37.7874978730001,-121.202658473,236,"1463 MOFFAT BLVD STE 9F, MANTECA, CA, 95336","Match","Exact","1463 MOFFAT BLVD, MANTECA, CA, 95336",639644926,"L"
64237,"1463 MULBERY LANE","ST. JOSEPH","MI",49085,42.032104039,-86.488468971,237,"1463 MULBERY LANE, ST. JOSEPH, MI, 49085","Match","Non_Exact","1463 MULBERRY LN, SAINT JOSEPH, MI, 49085",119974625,"R"
64238,"1463 STURBRIDGE COURT","DUNEDIN","FL",34698,28.0471651830001,-82.7667036189999,238,"1463 STURBRIDGE COURT, DUNEDIN, FL, 34698","Match","Exact","1463 STURBRIDGE CT, DUNEDIN, FL, 34698",124664976,"R"
64239,"1463 TAMPA PARK PLAZA","TAMPA","FL",33605,27.957003093,-82.450660678,239,"1463 TAMPA PARK PLAZA, TAMPA, FL, 33605","Match","Exact","1463 TAMPA PARK PLZ, TAMPA, FL, 33605",104646326,"R"
64240,"1463 W PRESTON VILLA COVE","WEST JORDAN","UT",84088,40.5963628280001,-111.932858738,240,"1463 W PRESTON VILLA COVE, WEST JORDAN, UT, 84088","Match","Exact","1463 W PRESTON VILLA COVE, WEST JORDAN, UT, 84088",645878397,"L"
64241,"1463 W UNCAS ROAD","PORT TOWNSEND","WA",98368,47.9700295870001,-122.887243816,241,"1463 W UNCAS ROAD, PORT TOWNSEND, WA, 98368","Match","Exact","1463 W UNCAS RD, PORT TOWNSEND, WA, 98368",152024446,"R"
64242,"14630 NOBLE AVENUE","SAN JOSE","CA",95132,37.3945655270001,-121.836613926,242,"14630 NOBLE AVENUE, SAN JOSE, CA, 95132","Match","Exact","14630 NOBLE AVE, SAN JOSE, CA, 95132",123003309,"R"
64243,"14631 CARNELIAN GLEN CT","SARATOGA","CA",95070,37.2562895770001,-122.026348505,243,"14631 CARNELIAN GLEN CT, SARATOGA, CA, 95070","Match","Exact","14631 CARNELIAN GLEN CT, SARATOGA, CA, 95070",614054548,"R"
64244,"14631 CORKWOOD DRIVE","TAMPA","FL",33626,28.0832754570001,-82.640994725,244,"14631 CORKWOOD DRIVE, TAMPA, FL, 33626","Match","Exact","14631 CORKWOOD DR, TAMPA, FL, 33626",104613921,"R"
64245,"14631 S PRINCETON AVE","DOLTON","IL",60419,41.628987695,-87.629417055,245,"14631 S PRINCETON AVE, DOLTON, IL, 60419","Match","Exact","14631 PRINCETON AVE, DOLTON, IL, 60419",616786042,"L"
64246,"14633 BEACHVIEW TERRACE","DOLTON","IL",60419,41.628914519,-87.608732907,246,"14633 BEACHVIEW TERRACE, DOLTON, IL, 60419","Match","Exact","14633 BEACHVIEW TER, DOLTON, IL, 60419",635234301,"L"
64247,"14633 BROHL DR","WARREN","MI",48088,42.5175134500001,-82.974022224,247,"14633 BROHL DR, WARREN, MI, 48088","Match","Exact","14633 BROHL DR, WARREN, MI, 48088",110675502,"L"
64248,"14633 S UNIVERSITY","DOLTON","IL",60419,41.6288762460001,-87.589344911,248,"14633 S UNIVERSITY, DOLTON, IL, 60419","Match","Non_Exact","14633 UNIVERSITY AVE, DOLTON, IL, 60419",605705150,"L"
64249,"14635 229TH STREET","SPRINGFIELD GARDENS","NY",11413,NA,NA,249,"14635 229TH STREET, SPRINGFIELD GARDENS, NY, 11413","No_Match",NA,NA,NA,NA
64250,"14635 BLUE SKY ROAD","HACIENDA HEIGHTS","CA",91745,33.9956445080001,-117.996230063,250,"14635 BLUE SKY ROAD, HACIENDA HEIGHTS, CA, 91745","Match","Exact","14635 BLUE SKY RD, HACIENDA HTS, CA, 91745",142811274,"R"
64251,"14635 GOLDEN APPALOOSA CIRCLE","HOUSTON","TX",77044,29.938655064,-95.1829834329999,251,"14635 GOLDEN APPALOOSA CIRCLE, HOUSTON, TX, 77044","Match","Exact","14635 GOLDEN APPALOOSA CIR, HOUSTON, TX, 77044",627680037,"R"
64252,"14635 LAKE MEADOWS DRIVE","PERRYSBURG","OH",43551,41.5122727830001,-83.677879,252,"14635 LAKE MEADOWS DRIVE, PERRYSBURG, OH, 43551","Match","Exact","14635 LAKE MEADOWS DR, PERRYSBURG, OH, 43551",38743453,"L"
64253,"14635 PENROD","DETROIT","MI",48223,42.3948755330001,-83.2214318439999,253,"14635 PENROD, DETROIT, MI, 48223","Match","Non_Exact","14635 PENROD ST, DETROIT, MI, 48223",95423423,"L"
64254,"14635 S HARRELLS FERRY RD STE 1A","BATON ROUGE","LA",70816,30.4293356370001,-91.022770833,254,"14635 S HARRELLS FERRY RD STE 1A, BATON ROUGE, LA, 70816","Match","Non_Exact","14635 S HARRELLS FERRY RD, BATON ROUGE, LA, 70816",92194643,"L"
64255,"14636 150TH STREET","BONNER SPRINGS","KS",66012,39.0397175940001,-94.927392208,255,"14636 150TH STREET, BONNER SPRINGS, KS, 66012","Match","Exact","14636 150TH ST, BONNER SPRINGS, KS, 66012",637387583,"L"
64256,"14636 417TH AVE","MABEL","MN",55954,NA,NA,256,"14636 417TH AVE, MABEL, MN, 55954","No_Match",NA,NA,NA,NA
64257,"14636 GIDDYUP LANE","HUDSON","FL",34669,28.3719574840001,-82.6211521239999,257,"14636 GIDDYUP LANE, HUDSON, FL, 34669","Match","Exact","14636 GIDDYUP LN, HUDSON, FL, 34669",641400030,"R"
64258,"14636 NE 38TH STREET APT 1035","BELLEVUE","WA",98007,47.6442965410001,-122.145423654,258,"14636 NE 38TH STREET APT 1035, BELLEVUE, WA, 98007","Match","Non_Exact","14636 NE 38TH ST, BELLEVUE, WA, 98007",239778173,"L"
64259,"14636 STATE ROUTE 698","FINDLAY","OH",45840,40.9605226260001,-83.7272920779999,259,"14636 STATE ROUTE 698, FINDLAY, OH, 45840","Match","Exact","14636 STATE RTE 698, FINDLAY, OH, 45840",36462518,"L"
64260,"14636 SW 99 ST","MIAMI","FL",33186,25.674649521,-80.431410618,260,"14636 SW 99 ST, MIAMI, FL, 33186","Match","Exact","14636 SW 99TH ST, MIAMI, FL, 33186",116090734,"R"
64261,"14637 KIMBARK AVENUE","DOLTON","IL",60419,41.629169093,-87.585711089,261,"14637 KIMBARK AVENUE, DOLTON, IL, 60419","Match","Exact","14637 KIMBARK AVE, DOLTON, IL, 60419",111779389,"L"
64262,"14637 N 43RD PL","PHOENIX","AZ",85032,33.620396074,-111.987572964,262,"14637 N 43RD PL, PHOENIX, AZ, 85032","Match","Exact","14637 N 43RD PL, PHOENIX, AZ, 85032",128281503,"R"
64263,"14638 BRIARLY PLACE","UPPER MARLBORO","MD",20774,38.8862801430001,-76.751904869,263,"14638 BRIARLY PLACE, UPPER MARLBORO, MD, 20774","Match","Non_Exact","14638 BRIARLEY PL, UPPER MARLBORO, MD, 20774",633421761,"L"
64264,"14638 INDIAN PAINTBRUSH RD","ADELANTO","CA",92301,34.5163564960001,-117.411674441,264,"14638 INDIAN PAINTBRUSH RD, ADELANTO, CA, 92301","Match","Exact","14638 INDIAN PAINTBRUSH RD, ADELANTO, CA, 92301",614829714,"L"
64265,"14639 HAMETOWN RD","DOYLESTOWN","OH",44230,40.976966933,-81.666687741,265,"14639 HAMETOWN RD, DOYLESTOWN, OH, 44230","Match","Exact","14639 HAMETOWN RD, DOYLESTOWN, OH, 44230",58738481,"L"
64266,"14639 PAINTED PONY CT","VICTORVILLE","CA",92394,34.5163114960001,-117.358210003,266,"14639 PAINTED PONY CT, VICTORVILLE, CA, 92394","Match","Exact","14639 PAINTED PONY CT, VICTORVILLE, CA, 92394",144743296,"L"
64267,"14639 WOODMONT","DETROIT","MI",48227,42.395930417,-83.2091956359999,267,"14639 WOODMONT, DETROIT, MI, 48227","Match","Non_Exact","14639 WOODMONT AVE, DETROIT, MI, 48227",95423757,"L"
64268,"1464 A HOPEWELL RD","HAYS","KS",67601,38.9723886360001,-99.342740764,268,"1464 A HOPEWELL RD, HAYS, KS, 67601","Match","Exact","1464 HOPEWELL RD, HAYS, KS, 67601",149804706,"L"
64269,"1464 BLACKWING WAY","GILROY","CA",95020,37.0289057590001,-121.608864357,269,"1464 BLACKWING WAY, GILROY, CA, 95020","Match","Exact","1464 BLACKWING WAY, GILROY, CA, 95020",122993303,"R"
64270,"1464 BROOKE VALLEY CT","BROADVIEW HEIGHTS","OH",44147,NA,NA,270,"1464 BROOKE VALLEY CT, BROADVIEW HEIGHTS, OH, 44147","No_Match",NA,NA,NA,NA
64271,"1464 BUSHWICK AVE APT 2R","BROOKLYN","NY",11207,40.6835611590001,-73.907713596,271,"1464 BUSHWICK AVE APT 2R, BROOKLYN, NY, 11207","Match","Exact","1464 BUSHWICK AVE, BROOKLYN, NY, 11207",59099264,"R"
64272,"1464 CAROLINA AVENUE","ORANGEBURG","SC",29115,33.5012377990001,-80.868493949,272,"1464 CAROLINA AVENUE, ORANGEBURG, SC, 29115","Match","Exact","1464 CAROLINA AVE, ORANGEBURG, SC, 29115",19249182,"R"
64273,"1464 CONCORD RD","COLUMBUS","MS",39702,33.397959744,-88.352530671,273,"1464 CONCORD RD, COLUMBUS, MS, 39702","Match","Exact","1464 CONCORD RD, COLUMBUS, MS, 39702",610611931,"R"
64274,"1464 CULPEPPER AVE","CHESAPEAKE","VA",23323,36.768819894,-76.314615956,274,"1464 CULPEPPER AVE, CHESAPEAKE, VA, 23323","Match","Exact","1464 CULPEPPER AVE, CHESAPEAKE, VA, 23323",121799558,"L"
64275,"1464 E WHITESTONE BLVD STE 1101","CEDAR PARK","TX",78613,NA,NA,275,"1464 E WHITESTONE BLVD STE 1101, CEDAR PARK, TX, 78613","Tie",NA,NA,NA,NA
64276,"1464 EAST 95TH STREET","BROOKLYN","NY",11236,40.6365294400001,-73.8956142929999,276,"1464 EAST 95TH STREET, BROOKLYN, NY, 11236","Match","Exact","1464 E 95TH ST, BROOKLYN, NY, 11236",59086905,"R"
64277,"1464 EAST WHITESTONE BLVD SUITE 401","CEDAR PARK","TX",78613,30.5272915190001,-97.8092002399999,277,"1464 EAST WHITESTONE BLVD SUITE 401, CEDAR PARK, TX, 78613","Match","Exact","1464 E WHITESTONE BLVD, CEDAR PARK, TX, 78613",630298168,"R"
64278,"1464 GRENADIER CT SW","WYOMING","MI",49509,42.8756912430001,-85.701218635,278,"1464 GRENADIER CT SW, WYOMING, MI, 49509","Match","Exact","1464 GRENADIER CT SW, WYOMING, MI, 49509",12463561,"R"
64279,"1464 HALEKOA DRIVE","HONOLULU","HI",96821,21.2823392220001,-157.780940401,279,"1464 HALEKOA DRIVE, HONOLULU, HI, 96821","Match","Exact","1464 HALEKOA DR, HONOLULU, HI, 96821",624620827,"L"
64280,"1464 HERMINIE WEST NEWTON RD","HERMINIE","PA",15637,40.2588286920001,-79.720387723,280,"1464 HERMINIE WEST NEWTON RD, HERMINIE, PA, 15637","Match","Exact","1464 HERMINIE WEST NEWTON RD, HERMINIE, PA, 15637",52982803,"L"
64281,"1464 KERR AVE","MEMPHIS","TN",38106,35.1066594430001,-90.013654163,281,"1464 KERR AVE, MEMPHIS, TN, 38106","Match","Exact","1464 KERR AVE, MEMPHIS, TN, 38106",607511626,"L"
64282,"1464 KINGSTOWN RD","WAKEFIELD","RI",2879,41.4543328770001,-71.505466682,282,"1464 KINGSTOWN RD, WAKEFIELD, RI, 2879","Match","Exact","1464 KINGSTOWN RD, WAKEFIELD, RI, 02879",647191685,"R"
64283,"1464 MADERA RD N132","SIMI VALLEY","CA",93065,34.265551719,-118.796215284,283,"1464 MADERA RD N132, SIMI VALLEY, CA, 93065","Match","Exact","1464 MADERA RD, SIMI VALLEY, CA, 93065",109967844,"R"
64284,"1464 MADERA RD UNIT N343","SIMI VALLEY","CA",93065,34.265551719,-118.796215284,284,"1464 MADERA RD UNIT N343, SIMI VALLEY, CA, 93065","Match","Exact","1464 MADERA RD, SIMI VALLEY, CA, 93065",109967844,"R"
64285,"1464 MADERA ROAD STE N131","SIMI VALLEY","CA",93063,34.265551719,-118.796215284,285,"1464 MADERA ROAD STE N131, SIMI VALLEY, CA, 93063","Match","Non_Exact","1464 MADERA RD, SIMI VALLEY, CA, 93065",109967844,"R"
64286,"1464 MISSOURI ST","SAN DIEGO","CA",92109,32.8029629380001,-117.244523911,286,"1464 MISSOURI ST, SAN DIEGO, CA, 92109","Match","Exact","1464 MISSOURI ST, SAN DIEGO, CA, 92109",195302912,"L"
64287,"1464 OAKLEY STREET","BRONX","NY",10469,40.880053418,-73.84985588,287,"1464 OAKLEY STREET, BRONX, NY, 10469","Match","Exact","1464 OAKLEY ST, BRONX, NY, 10469",80297985,"R"
64288,"1464 ROXANNA ROAD NW","WASHINGTON","DC",20012,38.988643004,-77.0335108089999,288,"1464 ROXANNA ROAD NW, WASHINGTON, DC, 20012","Match","Exact","1464 ROXANNA RD NW, WASHINGTON, DC, 20012",76221491,"L"
64289,"1464 RUSTYS LN","CLARKSVILLE","TN",37042,36.52742031,-87.422650728,289,"1464 RUSTYS LN, CLARKSVILLE, TN, 37042","Match","Exact","1464 RUSTYS LN, CLARKSVILLE, TN, 37042",643557183,"R"
64290,"1464 S MICHIGAN AVE  SUITE 1010","CHICAGO","IL",60605,41.8625568210001,-87.624048242,290,"1464 S MICHIGAN AVE  SUITE 1010, CHICAGO, IL, 60605","Match","Non_Exact","1464 S MICHIGAN AVE, CHICAGO, IL, 60605",111769892,"R"
64291,"1464 S MICHIGAN AVE APT 1407","CHICAGO","IL",60605,41.8625568210001,-87.624048242,291,"1464 S MICHIGAN AVE APT 1407, CHICAGO, IL, 60605","Match","Non_Exact","1464 S MICHIGAN AVE, CHICAGO, IL, 60605",111769892,"R"
64292,"1464 SARDIS LAKE DRIVE","BATESVILLE","MS",38606,34.363758841,-89.734311319,292,"1464 SARDIS LAKE DRIVE, BATESVILLE, MS, 38606","Match","Exact","1464 SARDIS LAKE DR, BATESVILLE, MS, 38606",607760969,"R"
64293,"1464 SE 37TH AVE","HILLSBORO","OR",97123,45.50817891,-122.944619877,293,"1464 SE 37TH AVE, HILLSBORO, OR, 97123","Match","Exact","1464 SE 37TH AVE, HILLSBORO, OR, 97123",158179964,"L"
64294,"1464 SOUTH HILL ROAD","LUDLOW","VT",5149,43.3547978570001,-72.696637843,294,"1464 SOUTH HILL ROAD, LUDLOW, VT, 5149","Match","Exact","1464 S HILL RD, LUDLOW, VT, 05149",139275929,"L"
64295,"1464 SWEET BOTTOM CIR SW","MARIETTA","GA",30064,33.9209460800001,-84.593265048,295,"1464 SWEET BOTTOM CIR SW, MARIETTA, GA, 30064","Match","Non_Exact","1464 SWEET BOTTOM CIR, MARIETTA, GA, 30064",17196454,"R"
64296,"1464 TREVOR LANE","LAWRENCEVILLE","GA",30043,33.99182068,-84.01508526,296,"1464 TREVOR LANE, LAWRENCEVILLE, GA, 30043","Match","Exact","1464 TREVOR LN, LAWRENCEVILLE, GA, 30043",88928344,"L"
64297,"1464 WEST 3400 NORTH","PLEASANT GROVE","UT",84062,40.4003238860001,-111.761717112,297,"1464 WEST 3400 NORTH, PLEASANT GROVE, UT, 84062","Match","Exact","1464 W 3400 N, PLEASANT GROVE, UT, 84062",630344634,"R"
64298,"14640 ENDSLEY TURN","WOODBRIDGE","VA",22193,38.635291223,-77.337100858,298,"14640 ENDSLEY TURN, WOODBRIDGE, VA, 22193","Match","Exact","14640 ENDSLEY TURN, WOODBRIDGE, VA, 22193",76508812,"R"
64299,"14640 GROTE RD","SPRINGVILLE","NY",14141,42.4819480670001,-78.7604640599999,299,"14640 GROTE RD, SPRINGVILLE, NY, 14141","Match","Exact","14640 GROTE RD, SPRINGVILLE, NY, 14141",635609461,"L"
64300,"14640 NW 17 DRIVE","MIAMI","FL",33167,25.9104491750001,-80.2248266189999,300,"14640 NW 17 DRIVE, MIAMI, FL, 33167","Match","Exact","14640 NW 17TH DR, MIAMI, FL, 33167",116030054,"L"
64301,"14640 SHADY VALLEY WAY","MORENO VALLEY","CA",92555,33.907768563,-117.174778138,301,"14640 SHADY VALLEY WAY, MORENO VALLEY, CA, 92555","Match","Exact","14640 SHADY VALLEY WAY, MORENO VALLEY, CA, 92555",608993043,"L"
64302,"14640 TOLL RD","RENO","NV",89521,39.3955766620001,-119.734735958,302,"14640 TOLL RD, RENO, NV, 89521","Match","Exact","14640 TOLL RD, RENO, NV, 89521",107107632,"L"
64303,"14641 LEE HWY SUITE 106","CENTREVILLE","VA",20121,38.8354188270001,-77.453808775,303,"14641 LEE HWY SUITE 106, CENTREVILLE, VA, 20121","Match","Exact","14641 LEE HWY, CENTREVILLE, VA, 20121",641078036,"L"
64304,"14641 PRIVATE ROAD 2193","CASSVILLE","MO",65625,NA,NA,304,"14641 PRIVATE ROAD 2193, CASSVILLE, MO, 65625","No_Match",NA,NA,NA,NA
64305,"14641 SW 94 TERRACE","MIAMI","FL",33186,25.6792832,-80.4309649209999,305,"14641 SW 94 TERRACE, MIAMI, FL, 33186","Match","Exact","14641 SW 94TH TER, MIAMI, FL, 33186",116069032,"L"
64306,"14641-B GOLD CREEK CT","GRASS VALLEY","CA",95949,39.145504126,-121.061901206,306,"14641-B GOLD CREEK CT, GRASS VALLEY, CA, 95949","Match","Exact","14641 GOLD CREEK CT, GRASS VALLEY, CA, 95949",106543323,"L"
64307,"14642 KRYPTON ST NW","RAMSEY","MN",55303,45.236638145,-93.413196926,307,"14642 KRYPTON ST NW, RAMSEY, MN, 55303","Match","Exact","14642 KRYPTON ST NW, RAMSEY, MN, 55303",97504413,"R"
64308,"14642 LAKESIDE STREET","SYLMAR","CA",91342,34.307862969,-118.452659067,308,"14642 LAKESIDE STREET, SYLMAR, CA, 91342","Match","Exact","14642 LAKESIDE ST, SYLMAR, CA, 91342",141545665,"L"
64309,"14642 NEWPORT AVENUE / SUITE 110","TUSTIN","CA",92780,33.731026252,-117.829219971,309,"14642 NEWPORT AVENUE / SUITE 110, TUSTIN, CA, 92780","Match","Exact","14642 NEWPORT AVE, TUSTIN, CA, 92780",609057320,"L"
64310,"14644 CHANNING ST","BALDWIN PARK","CA",91706,34.077158809,-117.956857045,310,"14644 CHANNING ST, BALDWIN PARK, CA, 91706","Match","Exact","14644 CHANNING ST, BALDWIN PARK, CA, 91706",141711078,"R"
64311,"14645 DIXIE HIGHWAY","HOLLY","MI",48442,42.813814479,-83.5441004959999,311,"14645 DIXIE HIGHWAY, HOLLY, MI, 48442","Match","Exact","14645 DIXIE HWY, HOLLY, MI, 48442",69751978,"L"
64312,"14645 ESSEX CT","CHARDON","OH",44024,41.5656336600001,-81.117771497,312,"14645 ESSEX CT, CHARDON, OH, 44024","Match","Exact","14645 ESSEX CT, CHARDON, OH, 44024",137440756,"L"
64313,"14645 LA PLATA","SAN DIEGO","CA",92127,32.989015352,-117.166990056,313,"14645 LA PLATA, SAN DIEGO, CA, 92127","Match","Exact","14645 LA PLATA, SAN DIEGO, CA, 92127",612865210,"R"
64314,"14646 BIOLA AVE","LA MIRADA","CA",90638,33.8978940430001,-118.021176017,314,"14646 BIOLA AVE, LA MIRADA, CA, 90638","Match","Exact","14646 BIOLA AVE, LA MIRADA, CA, 90638",141750371,"L"
64315,"14646 HIDDENSPRING CIRCLE","CHINO HILLS","CA",91709,33.9867025240001,-117.736863043,315,"14646 HIDDENSPRING CIRCLE, CHINO HILLS, CA, 91709","Match","Exact","14646 HIDDENSPRING CIR, CHINO HILLS, CA, 91709",144968353,"R"
64316,"14646 LYNNDALE DRIVE","PEQUOT LAKES","MN",56425,NA,NA,316,"14646 LYNNDALE DRIVE, PEQUOT LAKES, MN, 56425","No_Match",NA,NA,NA,NA
64317,"14646 N KIERLAND BLVD STE 120","SCOTTSDALE","AZ",85254,33.619421292,-111.930917668,317,"14646 N KIERLAND BLVD STE 120, SCOTTSDALE, AZ, 85254","Match","Non_Exact","14646 N KIERLAND BLVD, SCOTTSDALE, AZ, 85254",128603873,"L"
64318,"14646 NORTH KIERLAND BLVD SUITE 12","SCOTTSDALE","AZ",85254,33.6194203110001,-111.930917178,318,"14646 NORTH KIERLAND BLVD SUITE 12, SCOTTSDALE, AZ, 85254","Match","Exact","14646 N KIERLAND BLVD, SCOTTSDALE, AZ, 85254",128603873,"L"
64319,"14647 18TH AVE SW","BURIEN","WA",98166,47.470700149,-122.357130456,319,"14647 18TH AVE SW, BURIEN, WA, 98166","Match","Exact","14647 18TH AVE SW, BURIEN, WA, 98166",653751616,"R"
64320,"14648 CELESTE COURT","HAYMARKET","VA",20169,38.819584585,-77.626637795,320,"14648 CELESTE COURT, HAYMARKET, VA, 20169","Match","Exact","14648 CELESTE CT, HAYMARKET, VA, 20169",207144677,"L"
64321,"14649 CHRISTIE LANE","TRUCKEE","CA",96161,39.3420730340001,-120.252531602,321,"14649 CHRISTIE LANE, TRUCKEE, CA, 96161","Match","Exact","14649 CHRISTIE LN, TRUCKEE, CA, 96161",106524839,"R"
64322,"14649 LAUDER","DETROIT","MI",48227,42.3956929920001,-83.190667934,322,"14649 LAUDER, DETROIT, MI, 48227","Match","Non_Exact","14649 LAUDER ST, DETROIT, MI, 48227",95424768,"L"
64323,"14649 SUMMER BLOSSOM LANE","CHESTERFIELD","MO",63017,38.6331835240001,-90.53107111,323,"14649 SUMMER BLOSSOM LANE, CHESTERFIELD, MO, 63017","Match","Exact","14649 SUMMER BLOSSOM LN, CHESTERFIELD, MO, 63017",100165913,"L"
64324,"1465 54TH STREET","COLUMBUS","GA",31901,32.520711949,-84.966955082,324,"1465 54TH STREET, COLUMBUS, GA, 31901","Match","Non_Exact","1465 54TH ST, COLUMBUS, GA, 31904",98936506,"L"
64325,"1465 BERKSHIRE ROAD","COLUMBUS","OH",43221,40.005083772,-83.0495187879999,325,"1465 BERKSHIRE ROAD, COLUMBUS, OH, 43221","Match","Exact","1465 BERKSHIRE RD, COLUMBUS, OH, 43221",218690130,"L"
64326,"1465 CHESTNUT AVE","CARLSBAD","CA",92008,33.1603388400001,-117.332838161,326,"1465 CHESTNUT AVE, CARLSBAD, CA, 92008","Match","Exact","1465 CHESTNUT AVE, CARLSBAD, CA, 92008",195290677,"R"
64327,"1465 E PARK AVE","CHANDLER","AZ",85225,33.322581928,-111.818106295,327,"1465 E PARK AVE, CHANDLER, AZ, 85225","Match","Exact","1465 E PARK AVE, CHANDLER, AZ, 85225",128787197,"L"
64328,"1465 EAST PUTNAM AVENUE 317","OLD GREENWICH","CT",6870,41.0469321830001,-73.569242512,328,"1465 EAST PUTNAM AVENUE 317, OLD GREENWICH, CT, 6870","Match","Exact","1465 E PUTNAM AVE, OLD GREENWICH, CT, 06870",602935546,"L"
64329,"1465 EVERETT SPRINGS RD","CALHOUN","GA",30701,34.475865868,-85.118492617,329,"1465 EVERETT SPRINGS RD, CALHOUN, GA, 30701","Match","Exact","1465 EVERETT SPRINGS RD, CALHOUN, GA, 30701",30694414,"L"
64330,"1465 GOLD CLIFF COURT","RENO","NV",89521,39.4335486190001,-119.747796271,330,"1465 GOLD CLIFF COURT, RENO, NV, 89521","Match","Exact","1465 GOLD CLIFF CT, RENO, NV, 89521",107102534,"L"
64331,"1465 GRAND SUMMIT DR","RENO","NV",89523,39.525674113,-119.86660855,331,"1465 GRAND SUMMIT DR, RENO, NV, 89523","Match","Exact","1465 GRAND SUMMIT DR, RENO, NV, 89523",107109195,"R"
64332,"1465 HARMONY HILL DR","HENDERSON","NV",89014,36.068339634,-115.050700644,332,"1465 HARMONY HILL DR, HENDERSON, NV, 89014","Match","Exact","1465 HARMONY HILL DR, HENDERSON, NV, 89014",201915593,"R"
64333,"1465 HIGHWAY A1A 301","SATELLITE BEACH","FL",32937,NA,NA,333,"1465 HIGHWAY A1A 301, SATELLITE BEACH, FL, 32937","No_Match",NA,NA,NA,NA
64334,"1465 JOHNSON RD","CONYERS","GA",30094,33.6512661720001,-84.039977736,334,"1465 JOHNSON RD, CONYERS, GA, 30094","Match","Non_Exact","1465 JOHNSON RD SW, CONYERS, GA, 30094",622114933,"L"
64335,"1465 LEXINGTON PL","ELIZABETH","NJ",7208,40.6881762990001,-74.214297352,335,"1465 LEXINGTON PL, ELIZABETH, NJ, 7208","Match","Exact","1465 LEXINGTON PL, ELIZABETH, NJ, 07208",642744290,"R"
64336,"1465 MALCOLM DIXON RD","ELDORADO HILLS","CA",95762,38.715416019,-121.0601894,336,"1465 MALCOLM DIXON RD, ELDORADO HILLS, CA, 95762","Match","Non_Exact","1465 MALCOLM DIXON RD, EL DORADO HILLS, CA, 95762",650846697,"L"
64337,"1465 N 4TH STREET  STE 110","LARAMIE","WY",82072,41.3256723470001,-105.590699858,337,"1465 N 4TH STREET  STE 110, LARAMIE, WY, 82072","Match","Non_Exact","1465 N 4TH ST, LARAMIE, WY, 82072",168739656,"R"
64338,"1465 PAUL THOMPSON RD","MONTICELLO","FL",32344,30.437195618,-84.0396912319999,338,"1465 PAUL THOMPSON RD, MONTICELLO, FL, 32344","Match","Exact","1465 PAUL THOMPSON RD, MONTICELLO, FL, 32344",610849533,"L"
64339,"1465 S FT HARRISON AVE STE 201","CLEARWATER","FL",33756,27.943892668,-82.7999516899999,339,"1465 S FT HARRISON AVE STE 201, CLEARWATER, FL, 33756","Match","Non_Exact","1465 S FT HARRISON AVE, CLEARWATER, FL, 33756",124670773,"L"
64340,"1465 S GRAND BLVD ROOM B-824","ST. LOUIS","MO",63104,38.6210753760001,-90.238443918,340,"1465 S GRAND BLVD ROOM B-824, ST. LOUIS, MO, 63104","Match","Non_Exact","1465 S GRAND BLVD, SAINT LOUIS, MO, 63104",107598198,"R"
64341,"1465 SUMMIT OAKS DR WEST","JACKSONVILLE","FL",32221,30.297687076,-81.819383584,341,"1465 SUMMIT OAKS DR WEST, JACKSONVILLE, FL, 32221","Match","Exact","1465 SUMMIT OAKS DR W, JACKSONVILLE, FL, 32221",83961967,"L"
64342,"1465 ULUPII STREET","KAILUA","HI",96734,21.377602505,-157.752585565,342,"1465 ULUPII STREET, KAILUA, HI, 96734","Match","Exact","1465 ULUPII ST, KAILUA, HI, 96734",203239743,"L"
64343,"1465 VINEWOOD ST","DETROIT","MI",48216,42.3196381930001,-83.0886064059999,343,"1465 VINEWOOD ST, DETROIT, MI, 48216","Match","Exact","1465 VINEWOOD ST, DETROIT, MI, 48216",95478343,"L"
64344,"1465 W MAIN ST","SUN PRAIRIE","WI",53590,43.178625266,-89.238268553,344,"1465 W MAIN ST, SUN PRAIRIE, WI, 53590","Match","Exact","1465 W MAIN ST, SUN PRAIRIE, WI, 53590",647226865,"L"
64345,"1465 WATERTOWER PL","OWATONNA","MN",55060,44.109147611,-93.197607036,345,"1465 WATERTOWER PL, OWATONNA, MN, 55060","Match","Non_Exact","1465 WATER TOWER PL NE, OWATONNA, MN, 55060",38178857,"R"
64346,"1465 WEHRLE DRIVE","WILLIAMSVILLE","NY",14221,42.9550324320001,-78.7378735189999,346,"1465 WEHRLE DRIVE, WILLIAMSVILLE, NY, 14221","Match","Exact","1465 WEHRLE DR, WILLIAMSVILLE, NY, 14221",48305681,"R"
64347,"1465 WEST TEXAS AVE","WASKOM","TX",75692,32.4789023500001,-94.081382742,347,"1465 WEST TEXAS AVE, WASKOM, TX, 75692","Match","Exact","1465 W TEXAS AVE, WASKOM, TX, 75692",141191034,"L"
64348,"1465 WILLIAMSON RD","GOODLETTSVILLE","TN",37072,36.3831769500001,-86.721919559,348,"1465 WILLIAMSON RD, GOODLETTSVILLE, TN, 37072","Match","Exact","1465 WILLIAMSON RD, GOODLETTSVILLE, TN, 37072",29788582,"L"
64349,"14650 NW HWY 464B","MORRISTON","FL",32668,29.242158848,-82.363455833,349,"14650 NW HWY 464B, MORRISTON, FL, 32668","Match","Exact","14650 NW HWY 464B, MORRISTON, FL, 32668",652505482,"R"
64350,"14650 SW 104 AVE","MIAMI","FL",33176,25.633012482,-80.362531227,350,"14650 SW 104 AVE, MIAMI, FL, 33176","Match","Exact","14650 SW 104TH AVE, MIAMI, FL, 33176",115982103,"R"
64351,"14650 SW 15TH STREET","PEMBROKE PINES","FL",33027,25.996429172,-80.342002153,351,"14650 SW 15TH STREET, PEMBROKE PINES, FL, 33027","Match","Exact","14650 SW 15TH ST, PEMBROKE PINES, FL, 33027",650379118,"R"
64352,"14650 SW 160TH STREET","MIAMI","FL",33177,25.618343055,-80.429531472,352,"14650 SW 160TH STREET, MIAMI, FL, 33177","Match","Exact","14650 SW 160TH ST, MIAMI, FL, 33177",116094605,"L"
64353,"14651 BISCAYNE BLVD 247","NORTH MIAMI BEACH","FL",33181,NA,NA,353,"14651 BISCAYNE BLVD 247, NORTH MIAMI BEACH, FL, 33181","No_Match",NA,NA,NA,NA
64354,"14651 BISCAYNE BLVD 256","NORTH MIAMI BEACH","FL",33181,NA,NA,354,"14651 BISCAYNE BLVD 256, NORTH MIAMI BEACH, FL, 33181","No_Match",NA,NA,NA,NA
64355,"14651 BISCAYNE BLVD SUITE 172","NORTH MIAMI BEACH","FL",33181,NA,NA,355,"14651 BISCAYNE BLVD SUITE 172, NORTH MIAMI BEACH, FL, 33181","No_Match",NA,NA,NA,NA
64356,"14651 CANOPY DRIVE","TAMPA","FL",33626,28.078321928,-82.60898012,356,"14651 CANOPY DRIVE, TAMPA, FL, 33626","Match","Exact","14651 CANOPY DR, TAMPA, FL, 33626",636811767,"L"
64357,"14651 RAINTREE LANE","TUSTIN","CA",92780,33.718435051,-117.812275925,357,"14651 RAINTREE LANE, TUSTIN, CA, 92780","Match","Exact","14651 RAINTREE LN, TUSTIN, CA, 92780",144056946,"R"
64358,"14652 COTTINGHAM CT","BATON ROUGE","LA",70817,30.396787325,-91.021092858,358,"14652 COTTINGHAM CT, BATON ROUGE, LA, 70817","Match","Exact","14652 COTTINGHAM CT, BATON ROUGE, LA, 70817",92195001,"R"
64359,"14652 ROLLING GREEN WAY","NORTH POTOMAC","MD",20878,39.094505858,-77.229204366,359,"14652 ROLLING GREEN WAY, NORTH POTOMAC, MD, 20878","Match","Exact","14652 ROLLING GREEN WAY, N POTOMAC, MD, 20878",62049061,"R"
64360,"14652 WOLF RD","GRASS VALLEY","CA",95949,39.0803664200001,-121.126571571,360,"14652 WOLF RD, GRASS VALLEY, CA, 95949","Match","Exact","14652 WOLF RD, GRASS VALLEY, CA, 95949",610922532,"R"
64361,"14653 CLAYTON ROAD","BALLWIN","MO",63011,38.620487617,-90.535109082,361,"14653 CLAYTON ROAD, BALLWIN, MO, 63011","Match","Exact","14653 CLAYTON RD, BALLWIN, MO, 63011",100111607,"R"
64362,"14653 CORONELS CHOICE","UPPER MARLBOROR","MD",20772,NA,NA,362,"14653 CORONELS CHOICE, UPPER MARLBOROR, MD, 20772","No_Match",NA,NA,NA,NA
64363,"14655 CHAMPION FOREST DR  UNIT1003","HOUSTON","TX",77069,29.9952864370001,-95.5280941679999,363,"14655 CHAMPION FOREST DR  UNIT1003, HOUSTON, TX, 77069","Match","Exact","14655 CHAMPION FOREST DR, HOUSTON, TX, 77069",644664584,"L"
64364,"14655 CHARLES STREET","CHARLOTTE HALL","MD",20622,38.472592208,-76.801946597,364,"14655 CHARLES STREET, CHARLOTTE HALL, MD, 20622","Match","Exact","14655 CHARLES ST, CHARLOTTE HALL, MD, 20622",647421224,"R"
64365,"14655 MORRISON ST","SHERMAN OAKS","CA",91403,34.160326373,-118.452193946,365,"14655 MORRISON ST, SHERMAN OAKS, CA, 91403","Match","Exact","14655 MORRISON ST, SHERMAN OAKS, CA, 91403",141560905,"R"
64366,"14655 N 300 E","COVINGTON","IN",47932,40.0990076480001,-87.414828512,366,"14655 N 300 E, COVINGTON, IN, 47932","Match","Non_Exact","14655 N CO RD 300 E, COVINGTON, IN, 47932",66505180,"L"
64367,"14655 SILVER GLEN DR E","JACKSONVILLE","FL",32258,NA,NA,367,"14655 SILVER GLEN DR E, JACKSONVILLE, FL, 32258","No_Match",NA,NA,NA,NA
64368,"14655 TOLEDO LANE","SAINT ROBERT","MO",65584,37.8199310410001,-92.109955578,368,"14655 TOLEDO LANE, SAINT ROBERT, MO, 65584","Match","Exact","14655 TOLEDO LN, SAINT ROBERT, MO, 65584",26388511,"L"
64369,"14656 JUNIPER ST","WESTMINSTER","CA",92683,33.7499269100001,-117.975312277,369,"14656 JUNIPER ST, WESTMINSTER, CA, 92683","Match","Exact","14656 JUNIPER ST, WESTMINSTER, CA, 92683",144256861,"R"
64370,"14657 SNEIDER","HOUSTON","TX",77034,NA,NA,370,"14657 SNEIDER, HOUSTON, TX, 77034","No_Match",NA,NA,NA,NA
64371,"14657 SW GRANDVIEW LN","TIGARD","OR",97224,45.417212776,-122.827217661,371,"14657 SW GRANDVIEW LN, TIGARD, OR, 97224","Match","Exact","14657 SW GRANDVIEW LN, TIGARD, OR, 97224",158212999,"L"
64372,"14657 WHISPERING WIND WAY","SOUTH BELOIT","IL",61080,42.4720435150001,-89.042083751,372,"14657 WHISPERING WIND WAY, SOUTH BELOIT, IL, 61080","Match","Exact","14657 WHISPERING WIND WAY, SOUTH BELOIT, IL, 61080",49285976,"R"
64373,"14658 NW JEWELL LANE","PORTLAND","OR",97229,45.5582964280001,-122.827754445,373,"14658 NW JEWELL LANE, PORTLAND, OR, 97229","Match","Exact","14658 NW JEWELL LN, PORTLAND, OR, 97229",158218705,"R"
64374,"14659 ZACHARY DR E","JACKSONVILLE","FL",32218,30.5033346770001,-81.622148044,374,"14659 ZACHARY DR E, JACKSONVILLE, FL, 32218","Match","Non_Exact","14659 ZACHARY DR, JACKSONVILLE, FL, 32218",640918726,"L"
64375,"1465O NW HWY 464B MORRISTON FL 32","MORRISTON","FL",32668,NA,NA,375,"1465O NW HWY 464B MORRISTON FL 32, MORRISTON, FL, 32668","No_Match",NA,NA,NA,NA
64376,"1466 13TH ST","OAKLAND","CA",94607,37.8104831480001,-122.293653806,376,"1466 13TH ST, OAKLAND, CA, 94607","Match","Exact","1466 13TH ST, OAKLAND, CA, 94607",606149910,"R"
64377,"1466 73RD STREET","BROOKLYN","NY",11228,40.619274438,-74.0026003199999,377,"1466 73RD STREET, BROOKLYN, NY, 11228","Match","Exact","1466 73RD ST, BROOKLYN, NY, 11228",59087956,"R"
64378,"1466 BOULDERCREST RD SE APT C4","ATLANTA","GA",30316,33.715688189,-84.329790997,378,"1466 BOULDERCREST RD SE APT C4, ATLANTA, GA, 30316","Match","Exact","1466 BOULDERCREST RD SE, ATLANTA, GA, 30316",645265011,"L"
64379,"1466 BRADLEY","CAMDEN","NJ",8103,39.931688412,-75.0974942509999,379,"1466 BRADLEY, CAMDEN, NJ, 8103","Match","Non_Exact","1466 BRADLEY AVE, CAMDEN, NJ, 08103",134348110,"R"
64380,"1466 COUNTY ROUTE 29","OLMSTEDVILLE","NY",12857,43.7712359340001,-73.93383797,380,"1466 COUNTY ROUTE 29, OLMSTEDVILLE, NY, 12857","Match","Exact","1466 CO RTE 29, OLMSTEDVILLE, NY, 12857",651751876,"L"
64381,"1466 ELECTRIC AVE","BELLINGHAM","WA",98229,48.7499203250001,-122.425361449,381,"1466 ELECTRIC AVE, BELLINGHAM, WA, 98229","Match","Exact","1466 ELECTRIC AVE, BELLINGHAM, WA, 98229",183773254,"R"
64382,"1466 ESTACADA WAY","CORDOVA","TN",38018,35.166135426,-89.829049713,382,"1466 ESTACADA WAY, CORDOVA, TN, 38018","Match","Exact","1466 ESTACADA WAY, CORDOVA, TN, 38018",72976246,"L"
64383,"1466 FINCH LANE","GREEN BAY","WI",54313,44.47691217,-88.10404785,383,"1466 FINCH LANE, GREEN BAY, WI, 54313","Match","Exact","1466 FINCH LN, GREEN BAY, WI, 54313",148129039,"R"
64384,"1466 LAKE SIDE AVE","DAVENPORT","FL",33837,28.2231184710001,-81.555404389,384,"1466 LAKE SIDE AVE, DAVENPORT, FL, 33837","Match","Exact","1466 LAKE SIDE AVE, DAVENPORT, FL, 33837",649828118,"R"
64385,"1466 MAIN STREET SUITE 200","GARDNERVILLE","NV",89410,38.942795253,-119.751213367,385,"1466 MAIN STREET SUITE 200, GARDNERVILLE, NV, 89410","Match","Exact","1466 MAIN ST, GARDNERVILLE, NV, 89410",636422643,"L"
64386,"1466 MEADOWLARK DRIVE","BOULDER","CO",80303,40.0128177180001,-105.195646516,386,"1466 MEADOWLARK DRIVE, BOULDER, CO, 80303","Match","Non_Exact","1466 MEADOW LARK DR, BOULDER, CO, 80303",188173800,"R"
64387,"1466 S HALEYVILLE CIR","AURORA","CO",80018,39.690276758,-104.699763814,387,"1466 S HALEYVILLE CIR, AURORA, CO, 80018","Match","Exact","1466 S HALEYVILLE CIR, AURORA, CO, 80018",177537722,"L"
64388,"1466 SARATOGA DR","MILPITAS","CA",95035,37.424624001,-121.876399751,388,"1466 SARATOGA DR, MILPITAS, CA, 95035","Match","Exact","1466 SARATOGA DR, MILPITAS, CA, 95035",123172174,"R"
64389,"1466 TEMPLECLIFF DR","DALLAS","TX",75217,32.737991236,-96.702923857,389,"1466 TEMPLECLIFF DR, DALLAS, TX, 75217","Match","Exact","1466 TEMPLECLIFF DR, DALLAS, TX, 75217",102957747,"R"
64390,"1466 WEST REID ROAD","FLINT","MI",48507,42.9296113130001,-83.708213034,390,"1466 WEST REID ROAD, FLINT, MI, 48507","Match","Exact","1466 W REID RD, FLINT, MI, 48507",650524688,"R"
64391,"14660 S FRONTAGE RD","MANTECA","CA",95336,37.829783331,-121.217129533,391,"14660 S FRONTAGE RD, MANTECA, CA, 95336","Match","Exact","14660 S FRONTAGE RD, MANTECA, CA, 95336",647342215,"L"
64392,"14660 S ROBBIE FORBIS RD","ASHLAND","MO",65010,38.7756493580001,-92.233200586,392,"14660 S ROBBIE FORBIS RD, ASHLAND, MO, 65010","Match","Exact","14660 S ROBBIE FORBIS RD, ASHLAND, MO, 65010",605004979,"R"
64393,"14660 SCHAEFER HWY","DETROIT","MI",48227,42.39611117,-83.178848449,393,"14660 SCHAEFER HWY, DETROIT, MI, 48227","Match","Exact","14660 SCHAEFER HWY, DETROIT, MI, 48227",95425046,"R"
64394,"14660 STATE ROUTE DD","SAVANNAH","MO",64485,NA,NA,394,"14660 STATE ROUTE DD, SAVANNAH, MO, 64485","No_Match",NA,NA,NA,NA
64395,"14662 CHERRY TRAIL","WINTER GARDEN","FL",34787,NA,NA,395,"14662 CHERRY TRAIL, WINTER GARDEN, FL, 34787","No_Match",NA,NA,NA,NA
64396,"14662 W 575 N","JASONVILLE","IN",47438,39.109126437,-87.215135527,396,"14662 W 575 N, JASONVILLE, IN, 47438","Match","Non_Exact","14662 CO RD 575 N, JASONVILLE, IN, 47438",39302446,"R"
64397,"14663 BRADDOCK OAK DR","ORLANDO","FL",32837,28.34976153,-81.449475741,397,"14663 BRADDOCK OAK DR, ORLANDO, FL, 32837","Match","Exact","14663 BRADDOCK OAK DR, ORLANDO, FL, 32837",94394296,"L"
64398,"14664 TAYLOR PLAZA","OMAHA","NE",68116,41.2981252050001,-96.1427604899999,398,"14664 TAYLOR PLAZA, OMAHA, NE, 68116","Match","Non_Exact","14664 TAYLOR CT, OMAHA, NE, 68116",632485132,"R"
64399,"14665 APALACHEE ST","NAPLES","FL",34114,26.036153971,-81.6615953309999,399,"14665 APALACHEE ST, NAPLES, FL, 34114","Match","Exact","14665 APALACHEE ST, NAPLES, FL, 34114",649932162,"L"
64400,"14665 KENNARD ST PO DRAWER B","WALDO","FL",32694,NA,NA,400,"14665 KENNARD ST PO DRAWER B, WALDO, FL, 32694","No_Match",NA,NA,NA,NA
64401,"14665 POLO RD","VICTORVILLE","CA",92394,34.5168248590001,-117.354119961,401,"14665 POLO RD, VICTORVILLE, CA, 92394","Match","Exact","14665 POLO RD, VICTORVILLE, CA, 92394",145227993,"R"
64402,"14665 SAINT GEORGES HILL DR","ORLANDO","FL",32828,28.5254209010001,-81.166739407,402,"14665 SAINT GEORGES HILL DR, ORLANDO, FL, 32828","Match","Non_Exact","14665 SAINT GEORGE'S HILL DR, ORLANDO, FL, 32828",647502905,"R"
64403,"14665 SHIRE COURT","RUSSELL","OH",44072,41.4687483010001,-81.319030116,403,"14665 SHIRE COURT, RUSSELL, OH, 44072","Match","Exact","14665 SHIRE CT, RUSSELL, OH, 44072",137433801,"L"
64404,"14668 NORDHOFF ST APT 120","NORTH HILLS","CA",91402,34.23542337,-118.452538964,404,"14668 NORDHOFF ST APT 120, NORTH HILLS, CA, 91402","Match","Non_Exact","14668 NORDHOFF ST, VAN NUYS, CA, 91402",141549135,"L"
64405,"14669 FITZGERALD AVE N","HUGO","MN",55038,45.162309453,-92.994214136,405,"14669 FITZGERALD AVE N, HUGO, MN, 55038","Match","Exact","14669 FITZGERALD AVE N, HUGO, MN, 55038",97788083,"L"
64406,"14669 MARIGOLD DR","FRISCO","TX",75035,33.1802962450001,-96.748340339,406,"14669 MARIGOLD DR, FRISCO, TX, 75035","Match","Exact","14669 MARIGOLD DR, FRISCO, TX, 75035",642948383,"R"
64407,"14669 S RENE ST","OLATHE","KS",66062,38.864412143,-94.744703073,407,"14669 S RENE ST, OLATHE, KS, 66062","Match","Exact","14669 S RENE ST, OLATHE, KS, 66062",91325942,"L"
64408,"1467 BLAKELEY ROAD","EAST AURORA","NY",14052,42.7268289460001,-78.625373162,408,"1467 BLAKELEY ROAD, EAST AURORA, NY, 14052","Match","Exact","1467 BLAKELEY RD, EAST AURORA, NY, 14052",48343479,"R"
64409,"1467 CARROLL ST","BROOKLYN","NY",11213,40.666531396,-73.938701141,409,"1467 CARROLL ST, BROOKLYN, NY, 11213","Match","Exact","1467 CARROLL ST, BROOKLYN, NY, 11213",59079721,"L"
64410,"1467 CLOUGH PIKE","BATAVIA","OH",45103,39.0613607560001,-84.222483961,410,"1467 CLOUGH PIKE, BATAVIA, OH, 45103","Match","Exact","1467 CLOUGH PIKE, BATAVIA, OH, 45103",118456468,"L"
64411,"1467 COLLINS DRIVE","BATON ROUGE","LA",70815,30.463625544,-91.055811921,411,"1467 COLLINS DRIVE, BATON ROUGE, LA, 70815","Match","Exact","1467 COLLINS DR, BATON ROUGE, LA, 70815",92197078,"R"
64412,"1467 COUNTY ROAD 303","DURANGO","CO",81303,37.1838914210001,-107.830946574,412,"1467 COUNTY ROAD 303, DURANGO, CO, 81303","Match","Exact","1467 CO RD 303, DURANGO, CO, 81303",635829105,"R"
64413,"1467 E DEL AMO BOULEVARD","CARSON","CA",90746,33.8467457580001,-118.246706608,413,"1467 E DEL AMO BOULEVARD, CARSON, CA, 90746","Match","Exact","1467 E DEL AMO BLVD, CARSON, CA, 90746",141681170,"L"
64414,"1467 E JEFFERSON WAY UNIT 310","SIMI VALLEY","CA",93065,34.285256605,-118.770175121,414,"1467 E JEFFERSON WAY UNIT 310, SIMI VALLEY, CA, 93065","Match","Non_Exact","1467 E JEFFERSON WAY, SIMI VALLEY, CA, 93065",635189489,"R"
64415,"1467 E WALNUT","DES PLAINES","IL",60017,NA,NA,415,"1467 E WALNUT, DES PLAINES, IL, 60017","No_Match",NA,NA,NA,NA
64416,"1467 LEGEND CIRCLE","VALLEJO","CA",94591,38.12915114,-122.215958635,416,"1467 LEGEND CIRCLE, VALLEJO, CA, 94591","Match","Exact","1467 LEGEND CIR, VALLEJO, CA, 94591",192554994,"L"
64417,"1467 MILLER RD","BEULAH","MI",49617,NA,NA,417,"1467 MILLER RD, BEULAH, MI, 49617","No_Match",NA,NA,NA,NA
64418,"1467 MILLSTREAM ROAD","TALLAHASSEE","FL",32312,30.498850422,-84.258153334,418,"1467 MILLSTREAM ROAD, TALLAHASSEE, FL, 32312","Match","Exact","1467 MILLSTREAM RD, TALLAHASSEE, FL, 32312",82869678,"R"
64419,"1467 N WILLAMETTE DR","POST FALLS","ID",83854,47.7224390440001,-116.961238493,419,"1467 N WILLAMETTE DR, POST FALLS, ID, 83854","Match","Exact","1467 N WILLAMETTE DR, POST FALLS, ID, 83854",192952467,"L"
64420,"1467 NORTH 725 WEST","BRIGHAM CITY","UT",84302,41.5355758850001,-112.027118212,420,"1467 NORTH 725 WEST, BRIGHAM CITY, UT, 84302","Match","Exact","1467 N 725 W, BRIGHAM CITY, UT, 84302",611158826,"L"
64421,"1467 PUEO ST","HONOLULU","HI",96816,21.275808059,-157.78757754,421,"1467 PUEO ST, HONOLULU, HI, 96816","Match","Exact","1467 PUEO ST, HONOLULU, HI, 96816",203243167,"R"
64422,"1467 RED CANYON RD","CANON CITY","CO",81212,38.4874583640001,-105.213282997,422,"1467 RED CANYON RD, CANON CITY, CO, 81212","Match","Exact","1467 RED CANYON RD, CANON CITY, CO, 81212",612608113,"L"
64423,"1467 RED OAK LANE NE","BELMONT","MI",49306,43.0934227440001,-85.6317701689999,423,"1467 RED OAK LANE NE, BELMONT, MI, 49306","Match","Exact","1467 RED OAK LN NE, BELMONT, MI, 49306",12495877,"R"
64424,"1467 REEVES ST STE 4","LOS ANGELES","CA",90035,34.0532678110001,-118.396444491,424,"1467 REEVES ST STE 4, LOS ANGELES, CA, 90035","Match","Exact","1467 REEVES ST, LOS ANGELES, CA, 90035",141572682,"R"
64425,"1467 SISKIYOU BLVD STE 313","ASHLAND","OR",97520,42.1843110180001,-122.689519947,425,"1467 SISKIYOU BLVD STE 313, ASHLAND, OR, 97520","Match","Exact","1467 SISKIYOU BLVD, ASHLAND, OR, 97520",649918364,"R"
64426,"1467 SISKIYOU BOULEVARD - 280","ASHLAND","OR",97520,42.1843110180001,-122.689519947,426,"1467 SISKIYOU BOULEVARD - 280, ASHLAND, OR, 97520","Match","Exact","1467 SISKIYOU BLVD, ASHLAND, OR, 97520",649918364,"R"
64427,"1467 SUTTER  AVENUE","NORTH BRUNSWICK","NJ",8902,40.4413162610001,-74.525317758,427,"1467 SUTTER  AVENUE, NORTH BRUNSWICK, NJ, 8902","Match","Exact","1467 SUTTER AVE, N BRUNSWICK, NJ, 08902",641746548,"R"
64428,"1467 TAMPA PARK PLAZA","TAMPA","FL",33605,27.9570025410001,-82.450637386,428,"1467 TAMPA PARK PLAZA, TAMPA, FL, 33605","Match","Exact","1467 TAMPA PARK PLZ, TAMPA, FL, 33605",104646326,"R"
64429,"1467 TERESA AVENUE","COLTON","CA",92324,34.0828626420001,-117.342453613,429,"1467 TERESA AVENUE, COLTON, CA, 92324","Match","Non_Exact","1467 N TERESA AVE, COLTON, CA, 92324",144979204,"R"
64430,"14670 BLACK ANKLE RD","MOUNT AIRY","MD",21771,39.4555291510001,-77.157216338,430,"14670 BLACK ANKLE RD, MOUNT AIRY, MD, 21771","Match","Exact","14670 BLACK ANKLE RD, MOUNT AIRY, MD, 21771",60722680,"L"
64431,"14670 DEMMLER RD","COLORADO SPRINGS","CO",80928,38.6175372820001,-104.441660238,431,"14670 DEMMLER RD, COLORADO SPRINGS, CO, 80928","Match","Exact","14670 DEMMLER RD, COLORADO SPRINGS, CO, 80928",647971402,"L"
64432,"14670 DEMMLER ROAD","COLORADO SPRINGS","CO",80928,38.6175372820001,-104.441660238,432,"14670 DEMMLER ROAD, COLORADO SPRINGS, CO, 80928","Match","Exact","14670 DEMMLER RD, COLORADO SPRINGS, CO, 80928",647971402,"L"
64433,"14670 E CIELO VISTA LN","DEWEY","AZ",86327,34.5380582780001,-112.20921162,433,"14670 E CIELO VISTA LN, DEWEY, AZ, 86327","Match","Exact","14670 E CIELO VISTA LN, DEWEY, AZ, 86327",650800889,"L"
64434,"14671 CAGNEY COURT","MORENO VALLEY","CA",92553,33.9081693140001,-117.242341268,434,"14671 CAGNEY COURT, MORENO VALLEY, CA, 92553","Match","Exact","14671 CAGNEY CT, MORENO VALLEY, CA, 92553",194819257,"L"
64435,"14671 FARMINGTON STREET","HESPERIA","CA",92345,34.3759153390001,-117.343000192,435,"14671 FARMINGTON STREET, HESPERIA, CA, 92345","Match","Exact","14671 FARMINGTON ST, HESPERIA, CA, 92345",144747425,"R"
64436,"14671 HWY 23","BOOKER","TX",79005,NA,NA,436,"14671 HWY 23, BOOKER, TX, 79005","Tie",NA,NA,NA,NA
64437,"14672 LE CLERC RD N","CUSICK","WA",98119,48.5055005290001,-117.262153631,437,"14672 LE CLERC RD N, CUSICK, WA, 98119","Match","Non_Exact","14672 LE CLERC RD N, CUSICK, WA, 99119",169924766,"R"
64438,"14675 COUNTY RD 3","FRAZEYSBURG","OH",43822,40.1760210470001,-82.149472503,438,"14675 COUNTY RD 3, FRAZEYSBURG, OH, 43822","Match","Exact","14675 CO RD 3, FRAZEYSBURG, OH, 43822",52112568,"L"
64439,"14675 N 90TH LN","PEORIA","AZ",85381,33.616499726,-112.252617901,439,"14675 N 90TH LN, PEORIA, AZ, 85381","Match","Exact","14675 N 90TH LN, PEORIA, AZ, 85381",128383725,"L"
64440,"14677 LONG SHADOW AVE","EL PASO","TX",79938,31.78552842,-106.209464357,440,"14677 LONG SHADOW AVE, EL PASO, TX, 79938","Match","Exact","14677 LONG SHADOW AVE, EL PASO, TX, 79938",649168544,"L"
64441,"14678 MAIN STREET","GRETNA","FL",32332,NA,NA,441,"14678 MAIN STREET, GRETNA, FL, 32332","No_Match",NA,NA,NA,NA
64442,"14679 BRADDOCK OAK DRIVE","ORLANDO","FL",32837,28.350483339,-81.4494463939999,442,"14679 BRADDOCK OAK DRIVE, ORLANDO, FL, 32837","Match","Exact","14679 BRADDOCK OAK DR, ORLANDO, FL, 32837",94394296,"L"
64443,"14679 CARMEL RIDGE ROAD","SAN DIEGO","CA",92128,32.981028763,-117.067358378,443,"14679 CARMEL RIDGE ROAD, SAN DIEGO, CA, 92128","Match","Exact","14679 CARMEL RIDGE RD, SAN DIEGO, CA, 92128",195660152,"R"
64444,"14679 E RADCLIFF PLACE","AURORA","CO",80015,39.6369214800001,-104.817105655,444,"14679 E RADCLIFF PLACE, AURORA, CO, 80015","Match","Exact","14679 E RADCLIFF PL, AURORA, CO, 80015",177355738,"L"
64445,"14679 MESA DRIVE","VICTORVILLE","CA",92395,NA,NA,445,"14679 MESA DRIVE, VICTORVILLE, CA, 92395","No_Match",NA,NA,NA,NA
64446,"1468 10TH STREET","BERKELEY","CA",94710,37.8767486610001,-122.295901911,446,"1468 10TH STREET, BERKELEY, CA, 94710","Match","Exact","1468 10TH ST, BERKELEY, CA, 94710",124992897,"R"
64447,"1468 25TH ST","SAN FRANCISCO","CA",94107,37.752531393,-122.392999305,447,"1468 25TH ST, SAN FRANCISCO, CA, 94107","Match","Exact","1468 25TH ST, SAN FRANCISCO, CA, 94107",192289732,"R"
64448,"1468 5TH AVENUE SUITE 2A","NEW YORK","NY",10029,40.802390976,-73.945210634,448,"1468 5TH AVENUE SUITE 2A, NEW YORK, NY, 10029","Match","Non_Exact","1468 5TH AVE, NEW YORK, NY, 10035",59657991,"L"
64449,"1468 ALGER STREET","FREMONT","OH",43420,41.362392716,-83.1288592659999,449,"1468 ALGER STREET, FREMONT, OH, 43420","Match","Exact","1468 ALGER ST, FREMONT, OH, 43420",38668272,"L"
64450,"1468 ALMONT DRIVE","ATLANTA","GA",30310,33.7259731020001,-84.435735681,450,"1468 ALMONT DRIVE, ATLANTA, GA, 30310","Match","Non_Exact","1468 ALMONT DR SW, ATLANTA, GA, 30310",17341354,"L"
64451,"1468 BELMONT AVE","EAST ST. LOUIS","IL",62205,38.6224183690001,-90.141869769,451,"1468 BELMONT AVE, EAST ST. LOUIS, IL, 62205","Match","Exact","1468 BELMONT AVE, E SAINT LOUIS, IL, 62205",107830237,"R"
64452,"1468 BERRY ROAD","BIRMINGHAM","AL",35226,33.4383016800001,-86.8221501259999,452,"1468 BERRY ROAD, BIRMINGHAM, AL, 35226","Match","Exact","1468 BERRY RD, BIRMINGHAM, AL, 35226",653031112,"L"
64453,"1468 BORACAY DRIVE","CHULA VISTA","CA",91915,NA,NA,453,"1468 BORACAY DRIVE, CHULA VISTA, CA, 91915","No_Match",NA,NA,NA,NA
64454,"1468 E FERNROCK ST","CARSON","CA",90746,33.851119596,-118.244384236,454,"1468 E FERNROCK ST, CARSON, CA, 90746","Match","Exact","1468 E FERNROCK ST, CARSON, CA, 90746",141681142,"R"
64455,"1468 EAST 8 ST","BROOKLYN","NY",11230,40.613128551,-73.965882632,455,"1468 EAST 8 ST, BROOKLYN, NY, 11230","Match","Exact","1468 E 8TH ST, BROOKLYN, NY, 11230",59089638,"R"
64456,"1468 FISH HATCHERY RD","HUNTSVILLE","TX",77320,30.745881142,-95.505671019,456,"1468 FISH HATCHERY RD, HUNTSVILLE, TX, 77320","Match","Exact","1468 FISH HATCHERY RD, HUNTSVILLE, TX, 77320",22214880,"L"
64457,"1468 FOX POINTE CIR","ANN ARBOR","MI",48108,42.2364516750001,-83.757204394,457,"1468 FOX POINTE CIR, ANN ARBOR, MI, 48108","Match","Exact","1468 FOX POINTE CIR, ANN ARBOR, MI, 48108",647605835,"R"
64458,"1468 GRAND AVE 9","SAN LEANDRO","CA",94577,37.727916647,-122.139402003,458,"1468 GRAND AVE 9, SAN LEANDRO, CA, 94577","Match","Exact","1468 GRAND AVE, SAN LEANDRO, CA, 94577",125012408,"L"
64459,"1468 HARDY PLACE","FREMONT","CA",94536,37.5654301390001,-121.982459344,459,"1468 HARDY PLACE, FREMONT, CA, 94536","Match","Exact","1468 HARDY PL, FREMONT, CA, 94536",125029971,"L"
64460,"1468 MARCASITE DRIVE","BRENTWOOD","TN",37027,35.972405877,-86.7088320079999,460,"1468 MARCASITE DRIVE, BRENTWOOD, TN, 37027","Match","Exact","1468 MARCASITE DR, BRENTWOOD, TN, 37027",625627825,"R"
64461,"1468 PIERRE ROAD","WALNUT","CA",91789,34.0316885340001,-117.864045705,461,"1468 PIERRE ROAD, WALNUT, CA, 91789","Match","Exact","1468 PIERRE RD, WALNUT, CA, 91789",142240446,"R"
64462,"1468 REEVES STREET","LOS ANGELES","CA",90035,34.0532436780001,-118.39643115,462,"1468 REEVES STREET, LOS ANGELES, CA, 90035","Match","Exact","1468 REEVES ST, LOS ANGELES, CA, 90035",141572682,"L"
64463,"1468 S CREEKSIDE DR","CHULA VISTA","CA",91915,32.6334662510001,-116.947300832,463,"1468 S CREEKSIDE DR, CHULA VISTA, CA, 91915","Match","Exact","1468 S CREEKSIDE DR, CHULA VISTA, CA, 91915",195750088,"L"
64464,"1468 SARDINE CREEK ROAD","GOLD HILL","OR",97525,42.456355461,-123.077763595,464,"1468 SARDINE CREEK ROAD, GOLD HILL, OR, 97525","Match","Exact","1468 SARDINE CREEK RD, GOLD HILL, OR, 97525",155496746,"L"
64465,"1468 STATE STREET","EAST ST LOUIS","IL",62202,38.6216236750001,-90.142319849,465,"1468 STATE STREET, EAST ST LOUIS, IL, 62202","Match","Non_Exact","1468 STATE ST, E SAINT LOUIS, IL, 62205",107830240,"R"
64466,"1468 SW MAIN BLVD STE 105","LAKE CITY","FL",32025,NA,NA,466,"1468 SW MAIN BLVD STE 105, LAKE CITY, FL, 32025","No_Match",NA,NA,NA,NA
64467,"1468 WEST AIRLINE AVENUE","GASTONIA","NC",28052,35.2625642690001,-81.207838728,467,"1468 WEST AIRLINE AVENUE, GASTONIA, NC, 28052","Match","Exact","1468 W AIRLINE AVE, GASTONIA, NC, 28052",642910066,"R"
64468,"1468 WEST NINTH STREET","CLEVELAND","OH",44113,41.4973457780001,-81.6990856469999,468,"1468 WEST NINTH STREET, CLEVELAND, OH, 44113","Match","Exact","1468 W 9TH ST, CLEVELAND, OH, 44113",61108943,"R"
64469,"1468 WESTPARK DRIVE","GREENVILLE","NC",27834,35.6017151780001,-77.433292981,469,"1468 WESTPARK DRIVE, GREENVILLE, NC, 27834","Match","Exact","1468 WESTPARK DR, GREENVILLE, NC, 27834",624341368,"R"
64470,"14680 COUNTY RD 22","GOSHEN","IN",46528,41.6472573720001,-85.749666229,470,"14680 COUNTY RD 22, GOSHEN, IN, 46528","Match","Exact","14680 CO RD 22, GOSHEN, IN, 46528",604675765,"R"
64471,"14682 CALVARY RD","WILLIS","TX",77318,30.4813798280001,-95.572739263,471,"14682 CALVARY RD, WILLIS, TX, 77318","Match","Exact","14682 CALVARY RD, WILLIS, TX, 77318",79272241,"L"
64472,"14682 MOON CREST LN UNIT B","CHINO HILLS","CA",91709,33.986549874,-117.751639921,472,"14682 MOON CREST LN UNIT B, CHINO HILLS, CA, 91709","Match","Exact","14682 MOON CREST LN, CHINO HILLS, CA, 91709",144968188,"R"
64473,"14682 PEPPER TREE CIRCLE","TUSTIN","CA",92780,33.718614745,-117.813120573,473,"14682 PEPPER TREE CIRCLE, TUSTIN, CA, 92780","Match","Exact","14682 PEPPER TREE CIR, TUSTIN, CA, 92780",144056943,"L"
64474,"14683 OLD GARNER ROAD","WEATHERFORD","TX",76088,32.832025075,-97.979385137,474,"14683 OLD GARNER ROAD, WEATHERFORD, TX, 76088","Match","Exact","14683 OLD GARNER RD, WEATHERFORD, TX, 76088",651915159,"L"
64475,"14684 NW 232 ST","HIGH SPRINGS","FL",32643,29.7901047840001,-82.590102518,475,"14684 NW 232 ST, HIGH SPRINGS, FL, 32643","Match","Exact","14684 NW 232 ST, HIGH SPRINGS, FL, 32643",6865127,"L"
64476,"14685 MEADOWOOD DR","SAVAGE","MN",55378,44.737007282,-93.354419729,476,"14685 MEADOWOOD DR, SAVAGE, MN, 55378","Match","Exact","14685 MEADOWOOD DR, SAVAGE, MN, 55378",38148802,"R"
64477,"14685 SHIPE RD","GRAVETTE","AR",72736,36.363162071,-94.354979278,477,"14685 SHIPE RD, GRAVETTE, AR, 72736","Match","Exact","14685 SHIPE RD, GRAVETTE, AR, 72736",635478993,"L"
64478,"14688 PODUNK AVE","GOWEN","MI",49326,43.2332077400001,-85.361938896,478,"14688 PODUNK AVE, GOWEN, MI, 49326","Match","Exact","14688 PODUNK AVE, GOWEN, MI, 49326",12448272,"R"
64479,"14689 LEE HIGHWAY 747","GAINESVILLE","VA",20156,38.791119833,-77.6306340089999,479,"14689 LEE HIGHWAY 747, GAINESVILLE, VA, 20156","Match","Non_Exact","14689 LEE HWY, GAINESVILLE, VA, 20155",207156613,"L"
64480,"14689 LEE HWY 921","GAINESVILLE","VA",20155,38.791119833,-77.6306340089999,480,"14689 LEE HWY 921, GAINESVILLE, VA, 20155","Match","Exact","14689 LEE HWY, GAINESVILLE, VA, 20155",207156613,"L"
64481,"1469 10TH COURT NE","WINTER HAVEN","FL",33881,28.036635017,-81.711645007,481,"1469 10TH COURT NE, WINTER HAVEN, FL, 33881","Match","Exact","1469 10TH CT NE, WINTER HAVEN, FL, 33881",104852286,"R"
64482,"1469 BENTEEN AVENUE SE","ATLANTA","GA",30315,33.7139208240001,-84.366703069,482,"1469 BENTEEN AVENUE SE, ATLANTA, GA, 30315","Match","Exact","1469 BENTEEN AVE SE, ATLANTA, GA, 30315",17358539,"R"
64483,"1469 BLYTHE AVENUE","HIGHLAND","CA",92346,34.1258513500001,-117.231441191,483,"1469 BLYTHE AVENUE, HIGHLAND, CA, 92346","Match","Exact","1469 BLYTHE AVE, HIGHLAND, CA, 92346",144661172,"L"
64484,"1469 BOND STREET","HILLSIDE","NJ",7205,40.7001937750001,-74.220649145,484,"1469 BOND STREET, HILLSIDE, NJ, 7205","Match","Exact","1469 BOND ST, HILLSIDE, NJ, 07205",60577588,"R"
64485,"1469 FARROW HILL RD","DAVISVILLE","WV",26142,39.218240087,-81.4267335169999,485,"1469 FARROW HILL RD, DAVISVILLE, WV, 26142","Match","Exact","1469 FARROW HILL RD, DAVISVILLE, WV, 26142",90901109,"R"
64486,"1469 FT WASHINGTON AVE","AMBLER","PA",19002,40.1606442470001,-75.1883218309999,486,"1469 FT WASHINGTON AVE, AMBLER, PA, 19002","Match","Exact","1469 FORT WASHINGTON AVE, AMBLER, PA, 19002",135078390,"R"
64487,"1469 FULMER RD","BLYTHEWOOD","SC",29016,34.166278194,-81.003644655,487,"1469 FULMER RD, BLYTHEWOOD, SC, 29016","Match","Exact","1469 FULMER RD, BLYTHEWOOD, SC, 29016",71871266,"L"
64488,"1469 GOLDEN HARVEST LANE","EL CAJON","CA",92019,32.774041095,-116.888304683,488,"1469 GOLDEN HARVEST LANE, EL CAJON, CA, 92019","Match","Exact","1469 GOLDEN HARVEST LN, EL CAJON, CA, 92019",195663672,"L"
64489,"1469 HWY 42 APT E-29","JACKSON","GA",30233,NA,NA,489,"1469 HWY 42 APT E-29, JACKSON, GA, 30233","No_Match",NA,NA,NA,NA
64490,"1469 LINCOLN AVENUE","PASADENA","CA",91103,34.1716215640001,-118.159592952,490,"1469 LINCOLN AVENUE, PASADENA, CA, 91103","Match","Exact","1469 LINCOLN AVE, PASADENA, CA, 91103",141627550,"L"
64491,"1469 MCALLISTER ST","SAN FRANCISCO","CA",94115,37.7780729130001,-122.43613898,491,"1469 MCALLISTER ST, SAN FRANCISCO, CA, 94115","Match","Exact","1469 MCALLISTER ST, SAN FRANCISCO, CA, 94115",192283407,"L"
64492,"1469 N 718 RD","LAWRENCE","KS",66046,38.8432256360001,-95.23018093,492,"1469 N 718 RD, LAWRENCE, KS, 66046","Match","Exact","1469 N 718 RD, LAWRENCE, KS, 66046",17691707,"L"
64493,"1469 N HILLTOP DR","AZUSA","CA",91702,34.1480575460001,-117.907078439,493,"1469 N HILLTOP DR, AZUSA, CA, 91702","Match","Exact","1469 N HILLTOP DR, AZUSA, CA, 91702",649816243,"L"
64494,"1469 N MAGNOLIA AVE UNIT D","OCALA","FL",34475,29.2025829790001,-82.13638881,494,"1469 N MAGNOLIA AVE UNIT D, OCALA, FL, 34475","Match","Non_Exact","1469 N MAGNOLIA AVE, OCALA, FL, 34475",116725360,"R"
64495,"1469 PRESIDENT ST SUITE 30","BROOKLYN","NY",11213,40.6675080960001,-73.9401441429999,495,"1469 PRESIDENT ST SUITE 30, BROOKLYN, NY, 11213","Match","Exact","1469 PRESIDENT ST, BROOKLYN, NY, 11213",59079700,"L"
64496,"1469 SE LEGACY COVE CIRCLE","STUART","FL",34997,27.1255886430001,-80.231505937,496,"1469 SE LEGACY COVE CIRCLE, STUART, FL, 34997","Match","Exact","1469 SE LEGACY COVE CIR, STUART, FL, 34997",616493990,"L"
64497,"1469 STEAM ENGINE WAY","CONYERS","GA",30013,33.6370153550001,-83.965189304,497,"1469 STEAM ENGINE WAY, CONYERS, GA, 30013","Match","Non_Exact","1469 STEAM ENGINE WAY NE, CONYERS, GA, 30013",634099121,"L"
64498,"1469 WINFRED DRIVE EAST","ORANGE PARK","FL",32073,30.171018609,-81.708453822,498,"1469 WINFRED DRIVE EAST, ORANGE PARK, FL, 32073","Match","Exact","1469 WINFRED DR E, ORANGE PARK, FL, 32073",83815680,"R"
64499,"14691 SW 37TH STREET","MIRAMAR","FL",33027,25.9744929300001,-80.3424456449999,499,"14691 SW 37TH STREET, MIRAMAR, FL, 33027","Match","Exact","14691 SW 37TH ST, MIRAMAR, FL, 33027",114778162,"R"
64500,"14693 HIGHWAY 15 NORTH","PHILADELPHIA","MS",39350,32.8804671070001,-89.0997707129999,500,"14693 HIGHWAY 15 NORTH, PHILADELPHIA, MS, 39350","Match","Exact","14693 HWY 15 N, PHILADELPHIA, MS, 39350",610537876,"L"
