"ID","Address","City","State","Zip","lat","long","id","input_address","match_indicator","match_type","matched_address","tiger_line_id","tiger_side"
257501,"610 3RD ST SE UNIT 11","WASHINGTON","DC",20003,38.8821331350001,-77.002027557,1,"610 3RD ST SE UNIT 11, WASHINGTON, DC, 20003","Match","Exact","610 3RD ST SE, WASHINGTON, DC, 20003",76230560,"L"
257502,"610 4TH AVE","ASBURY PARK","NJ",7712,40.2240651880001,-74.0077493539999,2,"610 4TH AVE, ASBURY PARK, NJ, 7712","Match","Exact","610 4TH AVE, ASBURY PARK, NJ, 07712",90464787,"L"
257503,"610 4TH STREEET SW","HICKORY","NC",28602,NA,NA,3,"610 4TH STREEET SW, HICKORY, NC, 28602","No_Match",NA,NA,NA,NA
257504,"610 4TH STREET","CENTURY","FL",32535,30.9684100630001,-87.255438308,4,"610 4TH STREET, CENTURY, FL, 32535","Match","Exact","610 4TH ST, CENTURY, FL, 32535",93265555,"R"
257505,"610 5TH AVENUE  BOX NUMBER  3953","NEW YORK","NY",10020,40.7579680200001,-73.977621821,5,"610 5TH AVENUE  BOX NUMBER  3953, NEW YORK, NY, 10020","Match","Exact","610 5TH AVE, NEW YORK, NY, 10020",59657168,"L"
257506,"610 5TH AVENUE BOX 3852","NEW YORK","NY",10020,40.7579680200001,-73.977621821,6,"610 5TH AVENUE BOX 3852, NEW YORK, NY, 10020","Match","Exact","610 5TH AVE, NEW YORK, NY, 10020",59657168,"L"
257507,"610 ABBOT ROAD","EAST LANSING","MI",48823,42.740017186,-84.4837432589999,7,"610 ABBOT ROAD, EAST LANSING, MI, 48823","Match","Exact","610 ABBOT RD, EAST LANSING, MI, 48823",17501920,"R"
257508,"610 ARIZONA AVENUE","FORT LAUDERDALE","FL",33312,26.1136871470001,-80.1879517849999,8,"610 ARIZONA AVENUE, FORT LAUDERDALE, FL, 33312","Match","Exact","610 ARIZONA AVE, FORT LAUDERDALE, FL, 33312",114710155,"L"
257509,"610 AVENUE F","WEST POINT","IA",52656,40.716656861,-91.4508391749999,9,"610 AVENUE F, WEST POINT, IA, 52656","Match","Non_Exact","610 AVE D, WEST POINT, IA, 52656",5591867,"R"
257510,"610 BANCROFT AVENUE","RICHMOND","VA",23222,37.5757993870001,-77.423847848,10,"610 BANCROFT AVENUE, RICHMOND, VA, 23222","Match","Exact","610 BANCROFT AVE, RICHMOND, VA, 23222",201539913,"L"
257511,"610 BARRET AVE","LOUISVILLE","KY",40204,38.2461229410001,-85.7320077319999,11,"610 BARRET AVE, LOUISVILLE, KY, 40204","Match","Exact","610 BARRET AVE, LOUISVILLE, KY, 40204",618512168,"R"
257512,"610 BEERS STREET","HAZLET","NJ",7730,40.414114527,-74.1970841419999,12,"610 BEERS STREET, HAZLET, NJ, 7730","Match","Exact","610 BEERS ST, HAZLET, NJ, 07730",90490658,"R"
257513,"610 BERKSHIRE RD","DAYTONA BEACH","FL",32114,29.211800243,-81.05553778,13,"610 BERKSHIRE RD, DAYTONA BEACH, FL, 32114","Match","Exact","610 BERKSHIRE RD, DAYTONA BEACH, FL, 32114",94522822,"L"
257514,"610 BETHUNE DRIVIE","PLANT CITY","FL",33563,28.0109734480001,-82.105539262,14,"610 BETHUNE DRIVIE, PLANT CITY, FL, 33563","Match","Non_Exact","610 BETHUNE DR, PLANT CITY, FL, 33563",104503907,"R"
257515,"610 BOX BUTTE AVE","ALLIANCE","NE",69301,42.10033171,-102.870825962,15,"610 BOX BUTTE AVE, ALLIANCE, NE, 69301","Match","Exact","610 BOX BUTTE AVE, ALLIANCE, NE, 69301",162351123,"L"
257516,"610 BRAND LN","STAFFORD","TX",77477,29.6188919740001,-95.57796909,16,"610 BRAND LN, STAFFORD, TX, 77477","Match","Exact","610 BRAND LN, STAFFORD, TX, 77477",642468829,"L"
257517,"610 BROADWAY SUITE 147","NEWBURGH","NY",12550,NA,NA,17,"610 BROADWAY SUITE 147, NEWBURGH, NY, 12550","No_Match",NA,NA,NA,NA
257518,"610 CAMPBELL ROAD","WEST BRANCH","MI",48661,44.3174899380001,-84.145814349,18,"610 CAMPBELL ROAD, WEST BRANCH, MI, 48661","Match","Non_Exact","610 S CAMPBELL RD, WEST BRANCH, MI, 48661",161345595,"L"
257519,"610 CARLISLE AVE","SAN ANTONIO","TX",78225,29.380432806,-98.519776031,19,"610 CARLISLE AVE, SAN ANTONIO, TX, 78225","Match","Exact","610 CARLISLE AVE, SAN ANTONIO, TX, 78225",101520885,"R"
257520,"610 CEDAR PARK CIR","ANCHORAGE","AK",99515,61.109933067,-149.890687345,20,"610 CEDAR PARK CIR, ANCHORAGE, AK, 99515","Match","Exact","610 CEDAR PARK CIR, ANCHORAGE, AK, 99515",190800620,"R"
257521,"610 CHERRYWOOD DRIVE","NORTH AURORA","IL",60542,41.8101652220001,-88.340345832,21,"610 CHERRYWOOD DRIVE, NORTH AURORA, IL, 60542","Match","Exact","610 CHERRYWOOD DR, NORTH AURORA, IL, 60542",119510875,"R"
257522,"610 CLEAR SPRING CT","MONONA","WI",53716,43.070263287,-89.335147977,22,"610 CLEAR SPRING CT, MONONA, WI, 53716","Match","Exact","610 CLEAR SPRING CT, MONONA, WI, 53716",49517295,"L"
257523,"610 COOLIDGE STREET","WESTFIELD","NJ",7090,40.656061332,-74.3336998739999,23,"610 COOLIDGE STREET, WESTFIELD, NJ, 7090","Match","Exact","610 COOLIDGE ST, WESTFIELD, NJ, 07090",60569542,"R"
257524,"610 CORDOVA STREET","DALLAS","TX",75223,32.8044990540001,-96.7443566919999,24,"610 CORDOVA STREET, DALLAS, TX, 75223","Match","Exact","610 CORDOVA ST, DALLAS, TX, 75223",102920244,"L"
257525,"610 COTTONWOOD CREEK RD","DRIPPING SPRINGS","TX",78620,30.2149456380001,-98.025992568,25,"610 COTTONWOOD CREEK RD, DRIPPING SPRINGS, TX, 78620","Match","Exact","610 COTTONWOOD CREEK RD, DRIPPING SPRINGS, TX, 78620",63823866,"L"
257526,"610 COUNTY ROAD 2421","COMO","TX",75431,33.0358377210001,-95.444422746,26,"610 COUNTY ROAD 2421, COMO, TX, 75431","Match","Exact","610 CO RD 2421, COMO, TX, 75431",42794662,"L"
257527,"610 CROOKED PINE CT","APOPKA","FL",32712,28.689593286,-81.468763619,27,"610 CROOKED PINE CT, APOPKA, FL, 32712","Match","Exact","610 CROOKED PINE CT, APOPKA, FL, 32712",94262381,"L"
257528,"610 D STREET SUITE D","SAN RAFAEL","CA",94901,37.9701817440001,-122.532519413,28,"610 D STREET SUITE D, SAN RAFAEL, CA, 94901","Match","Exact","610 D ST, SAN RAFAEL, CA, 94901",192764610,"R"
257529,"610 DAWES STREET","LIBERTYVILLE","IL",60048,42.2758811040001,-87.965449453,29,"610 DAWES STREET, LIBERTYVILLE, IL, 60048","Match","Exact","610 DAWES ST, LIBERTYVILLE, IL, 60048",119638870,"L"
257530,"610 DAYTON ROAD","MANSFIELD","TX",76063,32.556208229,-97.133041982,30,"610 DAYTON ROAD, MANSFIELD, TX, 76063","Match","Exact","610 DAYTON RD, MANSFIELD, TX, 76063",101912597,"L"
257531,"610 DEERHEAD CT","SILVER SPRING","MD",20904,39.066926519,-76.998771066,31,"610 DEERHEAD CT, SILVER SPRING, MD, 20904","Match","Exact","610 DEERHEAD CT, SILVER SPRING, MD, 20904",62072588,"L"
257532,"610 DUTCHMAN DRIVE APT 4","CHIPPEWA FALLS","WI",54729,44.941578339,-91.3786732789999,32,"610 DUTCHMAN DRIVE APT 4, CHIPPEWA FALLS, WI, 54729","Match","Exact","610 DUTCHMAN DR, CHIPPEWA FALLS, WI, 54729",78932657,"R"
257533,"610 E 43RD ST","BROOKLYN","NY",11203,40.6401342610001,-73.9359419529999,33,"610 E 43RD ST, BROOKLYN, NY, 11203","Match","Exact","610 E 43RD ST, BROOKLYN, NY, 11203",59081941,"R"
257534,"610 E 7TH ST SUITE 110","CHARLOTTE","NC",28202,NA,NA,34,"610 E 7TH ST SUITE 110, CHARLOTTE, NC, 28202","Tie",NA,NA,NA,NA
257535,"610 E 7TH STREET SUITE 116","CHARLOTTE","NC",28202,NA,NA,35,"610 E 7TH STREET SUITE 116, CHARLOTTE, NC, 28202","Tie",NA,NA,NA,NA
257536,"610 E BASELINE RD","LAFAYETTE","CO",80026,NA,NA,36,"610 E BASELINE RD, LAFAYETTE, CO, 80026","Tie",NA,NA,NA,NA
257537,"610 E BELL RD STE 2 - 105","PHOENIX","AZ",85022,33.6402971300001,-112.066082665,37,"610 E BELL RD STE 2 - 105, PHOENIX, AZ, 85022","Match","Non_Exact","610 E BELL RD, PHOENIX, AZ, 85022",128914594,"R"
257538,"610 E BELL ROAD PO BOX 2-211","PHOENIX","AZ",85022,33.6402971300001,-112.066082665,38,"610 E BELL ROAD PO BOX 2-211, PHOENIX, AZ, 85022","Match","Non_Exact","610 E BELL RD, PHOENIX, AZ, 85022",128914594,"R"
257539,"610 E HOWARD ST","PASADENA","CA",91724,34.1722297790001,-118.137970296,39,"610 E HOWARD ST, PASADENA, CA, 91724","Match","Non_Exact","610 E HOWARD ST, PASADENA, CA, 91104",141628579,"R"
257540,"610 E MAIN ST","LEESBURG","FL",34748,28.8109185220001,-81.869384506,40,"610 E MAIN ST, LEESBURG, FL, 34748","Match","Exact","610 E MAIN ST, LEESBURG, FL, 34748",94099378,"R"
257541,"610 E MAIN ST","SOUTH ELGIN","IL",60177,41.9968681340001,-88.2867436559999,41,"610 E MAIN ST, SOUTH ELGIN, IL, 60177","Match","Exact","610 E MAIN ST, SOUTH ELGIN, IL, 60177",653192680,"L"
257542,"610 E ORANGE STREET","SHIPPENSBURG","PA",17257,40.0560322210001,-77.50742536,42,"610 E ORANGE STREET, SHIPPENSBURG, PA, 17257","Match","Exact","610 E ORANGE ST, SHIPPENSBURG, PA, 17257",60935489,"R"
257543,"610 E ROOSEVELT ST 233","PHOENIX","AZ",85004,33.4586850960001,-112.066056108,43,"610 E ROOSEVELT ST 233, PHOENIX, AZ, 85004","Match","Non_Exact","610 E ROOSEVELT ST, PHOENIX, AZ, 85004",128213526,"L"
257544,"610 E WASHINGTON","CARRIER MILLS","IL",62917,37.6857900740001,-88.62027835,44,"610 E WASHINGTON, CARRIER MILLS, IL, 62917","Match","Non_Exact","610 E WASHINGTON ST, CARRIER MILLS, IL, 62917",104099724,"L"
257545,"610 EAST 23RD STREET","CHESTER","PA",19013,39.868752703,-75.360457062,45,"610 EAST 23RD STREET, CHESTER, PA, 19013","Match","Exact","610 E 23RD ST, CHESTER, PA, 19013",647651449,"L"
257546,"610 EAST 7TH STREET SUITE 1A","CHARLOTTE","NC",28202,35.225105953,-80.834602101,46,"610 EAST 7TH STREET SUITE 1A, CHARLOTTE, NC, 28202","Match","Exact","610 E 7TH ST, CHARLOTTE, NC, 28202",70487489,"R"
257547,"610 EAST 9TH STREET","PITTSBURG","KS",66762,37.4160329700001,-94.697435546,47,"610 EAST 9TH STREET, PITTSBURG, KS, 66762","Match","Exact","610 E 9TH ST, PITTSBURG, KS, 66762",33423081,"L"
257548,"610 EAST ANN STREET","VALDOSTA","GA",31601,30.8450997240001,-83.277523821,48,"610 EAST ANN STREET, VALDOSTA, GA, 31601","Match","Exact","610 E ANN ST, VALDOSTA, GA, 31601",87717618,"L"
257549,"610 EAST CROSS STREET","YPSILANTI","MI",48198,42.246089598,-83.6009514309999,49,"610 EAST CROSS STREET, YPSILANTI, MI, 48198","Match","Exact","610 E CROSS ST, YPSILANTI, MI, 48198",26021298,"R"
257550,"610 EAST DENTON","GAINESVILLE","TX",76240,NA,NA,50,"610 EAST DENTON, GAINESVILLE, TX, 76240","No_Match",NA,NA,NA,NA
257551,"610 EAST MOHAVE ROAD APARTMENT 205","TUCSON","AZ",85705,32.2684137640001,-110.962054312,51,"610 EAST MOHAVE ROAD APARTMENT 205, TUCSON, AZ, 85705","Match","Exact","610 E MOHAVE RD, TUCSON, AZ, 85705",121167301,"R"
257552,"610 EAST VICTORIA STREET","SANTA BARBARA","CA",93103,34.4309852970001,-119.698583326,52,"610 EAST VICTORIA STREET, SANTA BARBARA, CA, 93103","Match","Exact","610 E VICTORIA ST, SANTA BARBARA, CA, 93103",108605305,"R"
257553,"610 EDEN AVENUE","COLDWATER","OH",45828,40.485071643,-84.621952651,53,"610 EDEN AVENUE, COLDWATER, OH, 45828","Match","Exact","610 EDEN AVE, COLDWATER, OH, 45828",43087933,"R"
257554,"610 EVERGREEN ST SE","FERTILE","MN",56540,47.5284578810001,-96.273382247,54,"610 EVERGREEN ST SE, FERTILE, MN, 56540","Match","Non_Exact","610 EVERGREEN ST, FERTILE, MN, 56540",171439259,"R"
257555,"610 FALCON ST  APT 2","PARK HILLS","MO",63601,37.8438075230001,-90.505179658,55,"610 FALCON ST  APT 2, PARK HILLS, MO, 63601","Match","Exact","610 FALCON ST, PARK HILLS, MO, 63601",618312854,"R"
257556,"610 FERN WAY","SYKESVILLE","MD",21784,39.4098027920001,-76.975037572,56,"610 FERN WAY, SYKESVILLE, MD, 21784","Match","Exact","610 FERN WAY, SYKESVILLE, MD, 21784",61764996,"L"
257557,"610 FIFTH AVENUE    PO BOX 2925","NEW YORK","NY",10185,40.7579680200001,-73.977621821,57,"610 FIFTH AVENUE    PO BOX 2925, NEW YORK, NY, 10185","Match","Non_Exact","610 5TH AVE, NEW YORK, NY, 10020",59657168,"L"
257558,"610 FOX STREET","DENVER","CO",80204,39.7259606430001,-104.995183927,58,"610 FOX STREET, DENVER, CO, 80204","Match","Exact","610 FOX ST, DENVER, CO, 80204",177330581,"R"
257559,"610 FULTON GREEN ROAD","LAKELAND","FL",33809,28.1409552600001,-81.96553038,59,"610 FULTON GREEN ROAD, LAKELAND, FL, 33809","Match","Exact","610 FULTON GREEN RD, LAKELAND, FL, 33809",104887915,"L"
257560,"610 GABRIEL STREET","PANAMA CITY","FL",32405,30.1937983870001,-85.665421807,60,"610 GABRIEL STREET, PANAMA CITY, FL, 32405","Match","Exact","610 GABRIEL ST, PANAMA CITY, FL, 32405",7028888,"R"
257561,"610 GAYLORD AVE","PUEBLO","CO",81004,38.2563481220001,-104.642755887,61,"610 GAYLORD AVE, PUEBLO, CO, 81004","Match","Exact","610 GAYLORD AVE, PUEBLO, CO, 81004",105024642,"L"
257562,"610 GRANDVIEW ST","SHERWOOD","AR",72120,34.838255664,-92.200811565,62,"610 GRANDVIEW ST, SHERWOOD, AR, 72120","Match","Exact","610 GRANDVIEW ST, SHERWOOD, AR, 72120",83550707,"L"
257563,"610 GREEN ST","PARKERSBURG","WV",26101,39.2644969200001,-81.557543036,63,"610 GREEN ST, PARKERSBURG, WV, 26101","Match","Exact","610 GREEN ST, PARKERSBURG, WV, 26101",90894195,"R"
257564,"610 HALLELUJAH LANE","MONTICELLO","FL",32344,30.4111704270001,-83.943742922,64,"610 HALLELUJAH LANE, MONTICELLO, FL, 32344","Match","Exact","610 HALLELUJAH LN, MONTICELLO, FL, 32344",627386584,"R"
257565,"610 HANGAR ROAD/BLDG 4214","KEESLER AFB","MS",39531,NA,NA,65,"610 HANGAR ROAD/BLDG 4214, KEESLER AFB, MS, 39531","No_Match",NA,NA,NA,NA
257566,"610 HEATHER LANE","FRIENDSWOOD","TX",77546,29.514599387,-95.197307546,66,"610 HEATHER LANE, FRIENDSWOOD, TX, 77546","Match","Exact","610 HEATHER LN, FRIENDSWOOD, TX, 77546",96711420,"R"
257567,"610 HICKORY ROAD","HUDSON","WI",54016,44.9772502320001,-92.739740803,67,"610 HICKORY ROAD, HUDSON, WI, 54016","Match","Non_Exact","610 HICKORY DR, HUDSON, WI, 54016",110918693,"R"
257568,"610 HILLIARD ROAD","TEMPLE","TX",76502,31.1235261370001,-97.414162891,68,"610 HILLIARD ROAD, TEMPLE, TX, 76502","Match","Exact","610 HILLIARD RD, TEMPLE, TX, 76502",651674785,"L"
257569,"610 HOLLINGTON WAY","SUGAR LAND","TX",77479,29.599963303,-95.65560049,69,"610 HOLLINGTON WAY, SUGAR LAND, TX, 77479","Match","Exact","610 HOLLINGTON WAY, SUGAR LAND, TX, 77479",647984262,"L"
257570,"610 HUNTERS RUN ST APT F110","WATFORD CITY","ND",58854,47.8075474170001,-103.226945624,70,"610 HUNTERS RUN ST APT F110, WATFORD CITY, ND, 58854","Match","Exact","610 HUNTERS RUN ST, WATFORD CITY, ND, 58854",648579464,"R"
257571,"610 HYDE STREET UNIT 305","SAN FRANCISCO","CA",94109,37.786466353,-122.416470655,71,"610 HYDE STREET UNIT 305, SAN FRANCISCO, CA, 94109","Match","Exact","610 HYDE ST, SAN FRANCISCO, CA, 94109",192280712,"R"
257572,"610 INCA PKWY","BOULDER","CO",80303,39.9989882450001,-105.240064319,72,"610 INCA PKWY, BOULDER, CO, 80303","Match","Exact","610 INCA PKWY, BOULDER, CO, 80303",188213225,"R"
257573,"610 JACKSON STREET","VIDALIA","GA",30474,32.212159581,-82.414608401,73,"610 JACKSON STREET, VIDALIA, GA, 30474","Match","Exact","610 JACKSON ST, VIDALIA, GA, 30474",4769706,"R"
257574,"610 JETTON STREET SUITE 120-121","DAVDISON","NC",28036,35.501003391,-80.861067933,74,"610 JETTON STREET SUITE 120-121, DAVDISON, NC, 28036","Match","Non_Exact","610 JETTON ST, DAVIDSON, NC, 28036",618154211,"R"
257575,"610 KENTIA AVENUE SUITE 4","SANTA BARBARA","CA",93101,34.4255931500001,-119.725005339,75,"610 KENTIA AVENUE SUITE 4, SANTA BARBARA, CA, 93101","Match","Exact","610 KENTIA AVE, SANTA BARBARA, CA, 93101",108604439,"R"
257576,"610 KENTUCKY AVENUE","CRYSTAL BEACH","FL",34682,28.0878986930001,-82.780607219,76,"610 KENTUCKY AVENUE, CRYSTAL BEACH, FL, 34682","Match","Non_Exact","610 KENTUCKY AVE, CRYSTAL BEACH, FL, 34681",124661629,"R"
257577,"610 KERN STREET","TAFT","CA",93268,35.1432470240001,-119.459843305,77,"610 KERN STREET, TAFT, CA, 93268","Match","Exact","610 KERN ST, TAFT, CA, 93268",109054149,"R"
257578,"610 KEW STREET UNIT 1","INGLEWOOD","CA",90302,33.971552881,-118.369387974,78,"610 KEW STREET UNIT 1, INGLEWOOD, CA, 90302","Match","Exact","610 KEW ST, INGLEWOOD, CA, 90302",141653609,"L"
257579,"610 LACEY ROAD UNIT 665","FORKED RIVER","NJ",8731,39.8534826440001,-74.20080753,79,"610 LACEY ROAD UNIT 665, FORKED RIVER, NJ, 8731","Match","Exact","610 LACEY RD, FORKED RIVER, NJ, 08731",203702978,"R"
257580,"610 LAFAYETTE BLVD","OLDSMAR","FL",34677,28.030253982,-82.6617170489999,80,"610 LAFAYETTE BLVD, OLDSMAR, FL, 34677","Match","Exact","610 LAFAYETTE BLVD, OLDSMAR, FL, 34677",645918920,"L"
257581,"610 LAKE BLVD S","BUFFALO","MN",55313,45.165631622,-93.8698952519999,81,"610 LAKE BLVD S, BUFFALO, MN, 55313","Match","Exact","610 LAKE BLVD S, BUFFALO, MN, 55313",631756143,"R"
257582,"610 LAKE FLOYD CIR","BRISTOL","WV",26426,39.2859016630001,-80.507348582,82,"610 LAKE FLOYD CIR, BRISTOL, WV, 26426","Match","Exact","610 LAKE FLOYD CIR, BRISTOL, WV, 26426",652137028,"L"
257583,"610 LAUREL AVE","WILMETTE","IL",60091,42.0726606600001,-87.69583785,83,"610 LAUREL AVE, WILMETTE, IL, 60091","Match","Exact","610 LAUREL AVE, WILMETTE, IL, 60091",111742844,"R"
257584,"610 LIDO DRIVE","FORT LAUDERDALE","FL",33301,26.116468535,-80.120512361,84,"610 LIDO DRIVE, FORT LAUDERDALE, FL, 33301","Match","Exact","610 LIDO DR, FORT LAUDERDALE, FL, 33301",114726186,"L"
257585,"610 LINDEN STREET","DALLAS CENTER","IA",50063,41.680273276,-93.950613222,85,"610 LINDEN STREET, DALLAS CENTER, IA, 50063","Match","Exact","610 LINDEN ST, DALLAS CENTER, IA, 50063",613472015,"L"
257586,"610 LOMBARD RD","CHICOPEE","MA",1020,42.1673542130001,-72.525496136,86,"610 LOMBARD RD, CHICOPEE, MA, 1020","Match","Exact","610 LOMBARD RD, CHICOPEE, MA, 01020",642343600,"L"
257587,"610 LOUDER WAY","FATE","TX",75087,32.9414259330001,-96.389271342,87,"610 LOUDER WAY, FATE, TX, 75087","Match","Exact","610 LOUDER WAY, FATE, TX, 75087",627402398,"L"
257588,"610 LUCERNE STREET","GREENSBORO","NC",27406,36.052280861,-79.784797172,88,"610 LUCERNE STREET, GREENSBORO, NC, 27406","Match","Exact","610 LUCERNE ST, GREENSBORO, NC, 27406",131033719,"R"
257589,"610 LUCKNEY ROAD","BRANDON","MS",39042,NA,NA,89,"610 LUCKNEY ROAD, BRANDON, MS, 39042","No_Match",NA,NA,NA,NA
257590,"610 MAIN STREET","BERLIN","PA",15530,39.920529351,-78.956284247,90,"610 MAIN STREET, BERLIN, PA, 15530","Match","Exact","610 MAIN ST, BERLIN, PA, 15530",70251644,"L"
257591,"610 MAIN STREET","HUNTINGTON BEACH","CA",92648,33.662957846,-117.998921956,91,"610 MAIN STREET, HUNTINGTON BEACH, CA, 92648","Match","Exact","610 MAIN ST, HUNTINGTON BEACH, CA, 92648",609063412,"R"
257592,"610 MARVIEW TERRACE","CINCINNATI","OH",45231,39.2338287920001,-84.5021294969999,92,"610 MARVIEW TERRACE, CINCINNATI, OH, 45231","Match","Exact","610 MARVIEW TER, CINCINNATI, OH, 45231",103920291,"R"
257593,"610 MARYLAND AVE","HAGERSTOWN","MD",21740,39.631223719,-77.726744824,93,"610 MARYLAND AVE, HAGERSTOWN, MD, 21740","Match","Exact","610 MARYLAND AVE, HAGERSTOWN, MD, 21740",60786079,"L"
257594,"610 MCKOWN DR","MANSFIELD","TX",76063,32.556584921,-97.128954643,94,"610 MCKOWN DR, MANSFIELD, TX, 76063","Match","Exact","610 MCKOWN DR, MANSFIELD, TX, 76063",101912600,"R"
257595,"610 METHODIST ENCAMPMENT ROAD","KERRVILLE","TX",78028,30.072689057,-99.163228664,95,"610 METHODIST ENCAMPMENT ROAD, KERRVILLE, TX, 78028","Match","Exact","610 METHODIST ENCAMPMENT RD, KERRVILLE, TX, 78028",176909209,"L"
257596,"610 MICHAEL STIHL RD","MOUNTAIN VIEW","MO",65548,36.9884737790001,-91.691469274,96,"610 MICHAEL STIHL RD, MOUNTAIN VIEW, MO, 65548","Match","Exact","610 MICHAEL STIHL RD, MOUNTAIN VIEW, MO, 65548",33346088,"R"
257597,"610 MISSION TERRACE","ANADARKO","OK",73005,35.063260599,-98.251673209,97,"610 MISSION TERRACE, ANADARKO, OK, 73005","Match","Exact","610 MISSION TER, ANADARKO, OK, 73005",92440377,"L"
257598,"610 MOONEY AVENUE","HAMMOND","LA",70403,30.495931684,-90.474201936,98,"610 MOONEY AVENUE, HAMMOND, LA, 70403","Match","Exact","610 MOONEY AVE, HAMMOND, LA, 70403",75770036,"L"
257599,"610 MORNING DR","ATLANTA","GA",30349,33.587897469,-84.479152493,99,"610 MORNING DR, ATLANTA, GA, 30349","Match","Exact","610 MORNING DR, ATLANTA, GA, 30349",628082828,"R"
257600,"610 MORNING DRIVE","ATLANTA","GA",30349,33.587897469,-84.479152493,100,"610 MORNING DRIVE, ATLANTA, GA, 30349","Match","Exact","610 MORNING DR, ATLANTA, GA, 30349",628082828,"R"
257601,"610 MOSS WAY","HAYWARD","CA",94541,37.6613619140001,-122.093554281,101,"610 MOSS WAY, HAYWARD, CA, 94541","Match","Exact","610 MOSS WAY, HAYWARD, CA, 94541",606195628,"L"
257602,"610 N ALSTON AVE","DURHAM","NC",27701,35.9906536060001,-78.886143046,102,"610 N ALSTON AVE, DURHAM, NC, 27701","Match","Exact","610 N ALSTON AVE, DURHAM, NC, 27701",71742808,"R"
257603,"610 N BRAGG AVENUE","LOOKOUT MOUNTAIN","TN",37350,35.003046485,-85.344969243,103,"610 N BRAGG AVENUE, LOOKOUT MOUNTAIN, TN, 37350","Match","Exact","610 N BRAGG AVE, LOOKOUT MOUNTAIN, TN, 37350",59311959,"L"
257604,"610 N BROADWAY","BLYTHE","CA",92225,33.6203002820001,-114.596989616,104,"610 N BROADWAY, BLYTHE, CA, 92225","Match","Exact","610 N BROADWAY, BLYTHE, CA, 92225",194682693,"R"
257605,"610 N KAYS DR STE 107","KAYSVILLE","UT",84037,41.037801331,-111.956787686,105,"610 N KAYS DR STE 107, KAYSVILLE, UT, 84037","Match","Non_Exact","610 N KAYS DR, KAYSVILLE, UT, 84037",155326598,"L"
257606,"610 N LOGAN STREET","MISHAWAKA","IN",46545,NA,NA,106,"610 N LOGAN STREET, MISHAWAKA, IN, 46545","No_Match",NA,NA,NA,NA
257607,"610 N LOOP 336 E STE 125","CONROE","TX",76301,NA,NA,107,"610 N LOOP 336 E STE 125, CONROE, TX, 76301","No_Match",NA,NA,NA,NA
257608,"610 N MAIN","BROOKFIELD","MO",64628,39.7906792050001,-93.076180525,108,"610 N MAIN, BROOKFIELD, MO, 64628","Match","Non_Exact","610 N MAIN ST, BROOKFIELD, MO, 64628",25594849,"R"
257609,"610 N MANTLE AVE","ELIZABETHTOWN","KY",42701,37.7087423790001,-85.858092164,109,"610 N MANTLE AVE, ELIZABETHTOWN, KY, 42701","Match","Exact","610 N MANTLE AVE, ELIZABETHTOWN, KY, 42701",34622142,"L"
257610,"610 NELLIE B AVENUE","ATHENS","GA",30601,33.955537867,-83.346182272,110,"610 NELLIE B AVENUE, ATHENS, GA, 30601","Match","Exact","610 NELLIE B AVE, ATHENS, GA, 30601",652433375,"R"
257611,"610 NEWPORT CENTER DRIVE SUITE 700","NEWPORT BEACH","CA",92660,33.617559795,-117.872593699,111,"610 NEWPORT CENTER DRIVE SUITE 700, NEWPORT BEACH, CA, 92660","Match","Exact","610 NEWPORT CENTER DR, NEWPORT BEACH, CA, 92660",609073147,"R"
257612,"610 NORTH BLACK HORSE PIKE","RUNNEMEDE","NJ",8078,NA,NA,112,"610 NORTH BLACK HORSE PIKE, RUNNEMEDE, NJ, 8078","No_Match",NA,NA,NA,NA
257613,"610 NORTH DAVIS","JEROME","ID",83338,42.7294646760001,-114.511797209,113,"610 NORTH DAVIS, JEROME, ID, 83338","Match","Non_Exact","610 N DAVIS ST, JEROME, ID, 83338",105467932,"R"
257614,"610 NORTH PIERCE STREET","DELPHOS","OH",45833,40.8483670110001,-84.335827452,114,"610 NORTH PIERCE STREET, DELPHOS, OH, 45833","Match","Exact","610 N PIERCE ST, DELPHOS, OH, 45833",209553686,"R"
257615,"610 NORTHFIELD CIRCLE","GARRETSON","SD",57030,43.708155864,-96.502510434,115,"610 NORTHFIELD CIRCLE, GARRETSON, SD, 57030","Match","Exact","610 NORTHFIELD CIR, GARRETSON, SD, 57030",34982002,"L"
257616,"610 NW 103RD AVE","PLANTATION","FL",33324,26.128863014,-80.288499616,116,"610 NW 103RD AVE, PLANTATION, FL, 33324","Match","Exact","610 NW 103RD AVE, PLANTATION, FL, 33324",114698327,"L"
257617,"610 OAK TERRACE","POINT PLEASANT","NJ",8742,40.083628934,-74.0858227479999,117,"610 OAK TERRACE, POINT PLEASANT, NJ, 8742","Match","Exact","610 OAK TER, PT PLEASANT, NJ, 08742",203733819,"R"
257618,"610 OAKWOOD TER","MOUNT JULIET","TN",37122,36.2772828700001,-86.53710632,118,"610 OAKWOOD TER, MOUNT JULIET, TN, 37122","Match","Exact","610 OAKWOOD TER, MOUNT JULIET, TN, 37122",89694351,"R"
257619,"610 OLD BOERNE ROAD","BULVERDE","TX",78163,29.7933679130001,-98.4269092659999,119,"610 OLD BOERNE ROAD, BULVERDE, TX, 78163","Match","Exact","610 OLD BOERNE RD, BULVERDE, TX, 78163",72261225,"L"
257620,"610 OLD YORK ROAD","JENKINTOWN","PA",19046,40.099800228,-75.1259023109999,120,"610 OLD YORK ROAD, JENKINTOWN, PA, 19046","Match","Exact","610 YORK RD, JENKINTOWN, PA, 19046",135093575,"L"
257621,"610 OREGON TRAIL","MONROE","LA",71202,32.4892602630001,-92.074086329,121,"610 OREGON TRAIL, MONROE, LA, 71202","Match","Exact","610 OREGON TRL, MONROE, LA, 71202",161104292,"R"
257622,"610 ORRVILLE STREET NW","MASSILLON","OH",44647,40.814522545,-81.5332577089999,122,"610 ORRVILLE STREET NW, MASSILLON, OH, 44647","Match","Exact","610 ORRVILLE ST NW, MASSILLON, OH, 44647",64668400,"R"
257623,"610 PINE HILL RD","ELIZABETHTON","TN",37643,36.337637386,-82.241628681,123,"610 PINE HILL RD, ELIZABETHTON, TN, 37643","Match","Exact","610 PINE HILL RD, ELIZABETHTON, TN, 37643",43049121,"R"
257624,"610 PLYMOUTH MINE RD","WAKEFIELD","MI",49968,46.472028714,-89.980429139,124,"610 PLYMOUTH MINE RD, WAKEFIELD, MI, 49968","Match","Exact","610 PLYMOUTH MINE RD, WAKEFIELD, MI, 49968",646890234,"L"
257625,"610 REDGATE AVE APT 3","NORFOLK","VA",23507,36.8621772910001,-76.29731541,125,"610 REDGATE AVE APT 3, NORFOLK, VA, 23507","Match","Exact","610 REDGATE AVE, NORFOLK, VA, 23507",122127122,"R"
257626,"610 RENTON AVE S","RENTON","WA",98057,47.475396276,-122.200470817,126,"610 RENTON AVE S, RENTON, WA, 98057","Match","Exact","610 RENTON AVE S, RENTON, WA, 98057",186632085,"L"
257627,"610 ROUTE 61 SOUTH","ORWIGSBURG","PA",17961,NA,NA,127,"610 ROUTE 61 SOUTH, ORWIGSBURG, PA, 17961","No_Match",NA,NA,NA,NA
257628,"610 ROYAL EMPRESS DRIVE","RUSKIN","FM",33570,NA,NA,128,"610 ROYAL EMPRESS DRIVE, RUSKIN, FM, 33570","No_Match",NA,NA,NA,NA
257629,"610 RUTLAND STREET","CARLISLE","MA",1741,42.5543835170001,-71.325718636,129,"610 RUTLAND STREET, CARLISLE, MA, 1741","Match","Exact","610 RUTLAND ST, CARLISLE, MA, 01741",87118705,"R"
257630,"610 S CAROLINA ST","SAGINAW","MI",48602,43.4214705110001,-83.9796499839999,130,"610 S CAROLINA ST, SAGINAW, MI, 48602","Match","Exact","610 SOUTH CAROLINA ST, SAGINAW, MI, 48602",80209664,"L"
257631,"610 S CLYMAR AVE","COMPTON","CA",90220,33.8895725690001,-118.258267692,131,"610 S CLYMAR AVE, COMPTON, CA, 90220","Match","Exact","610 S CLYMAR AVE, COMPTON, CA, 90220",141680145,"L"
257632,"610 S MAIN ST","BIG SPRING","TX",79720,32.2494131380001,-101.475115809,132,"610 S MAIN ST, BIG SPRING, TX, 79720","Match","Exact","610 S MAIN ST, BIG SPRING, TX, 79720",182877324,"L"
257633,"610 S MAIN STREET UNIT 735","LOS ANGELES","CA",90014,34.0450472960001,-118.250156796,133,"610 S MAIN STREET UNIT 735, LOS ANGELES, CA, 90014","Match","Non_Exact","610 S MAIN ST, LOS ANGELES, CA, 90014",141619351,"L"
257634,"610 S MAIN STREET","LOS ANGELES","CA",90014,34.0450472960001,-118.250156796,134,"610 S MAIN STREET, LOS ANGELES, CA, 90014","Match","Exact","610 S MAIN ST, LOS ANGELES, CA, 90014",141619351,"L"
257635,"610 S MIRICK","DENISON","TX",75020,33.7505284420001,-96.543296867,135,"610 S MIRICK, DENISON, TX, 75020","Match","Non_Exact","610 S MIRICK AVE, DENISON, TX, 75020",63357596,"L"
257636,"610 S PARK","TUCSON","AZ",85719,32.2145501950001,-110.95636158,136,"610 S PARK, TUCSON, AZ, 85719","Match","Non_Exact","610 S PARK AVE, TUCSON, AZ, 85719",121171547,"R"
257637,"610 S PINCKNEY ST","ELK POINT","SD",57025,42.679934727,-96.683429444,137,"610 S PINCKNEY ST, ELK POINT, SD, 57025","Match","Exact","610 PINCKNEY ST, ELK POINT, SD, 57025",176353506,"L"
257638,"610 S WAKE VILLAGE RD","WAKE VILLAGE","TX",75501,33.415769509,-94.099971723,138,"610 S WAKE VILLAGE RD, WAKE VILLAGE, TX, 75501","Match","Exact","610 S WAKE VILLAGE RD, WAKE VILLAGE, TX, 75501",57669070,"L"
257639,"610 S WASHINGTON BOX 210","STILLWATER","OK",74074,NA,NA,139,"610 S WASHINGTON BOX 210, STILLWATER, OK, 74074","No_Match",NA,NA,NA,NA
257640,"610 SCHELTER RD","LINCOLNSHIRE","IL",60069,42.186919238,-87.940832389,140,"610 SCHELTER RD, LINCOLNSHIRE, IL, 60069","Match","Exact","610 SCHELTER RD, LINCOLNSHIRE, IL, 60069",119695098,"R"
257641,"610 SCOOTER WAY","STOCKTON","CA",95209,38.0533852570001,-121.320429755,141,"610 SCOOTER WAY, STOCKTON, CA, 95209","Match","Exact","610 SCOOTER WAY, STOCKTON, CA, 95209",630318769,"L"
257642,"610 SE 13TH STREET APT 101","DANIA BEACH","FL",33004,26.036094673,-80.13194605,142,"610 SE 13TH STREET APT 101, DANIA BEACH, FL, 33004","Match","Non_Exact","610 SE 13TH ST, DANIA BEACH, FL, 33004",114766112,"R"
257643,"610 SHAY DRIVE","MARIETTA","GA",30060,33.8849632000001,-84.5659719,143,"610 SHAY DRIVE, MARIETTA, GA, 30060","Match","Exact","610 SHAY DR, MARIETTA, GA, 30060",17212436,"R"
257644,"610 SHERMAN STREET","MAUSTON","WI",53948,43.8035254330001,-90.0647857439999,144,"610 SHERMAN STREET, MAUSTON, WI, 53948","Match","Exact","610 SHERMAN ST, MAUSTON, WI, 53948",50963366,"L"
257645,"610 SHIPLEY ROAD","WILMINGTON","DE",19809,39.772156045,-75.5173382739999,145,"610 SHIPLEY ROAD, WILMINGTON, DE, 19809","Match","Exact","610 SHIPLEY RD, WILMINGTON, DE, 19809",187261307,"L"
257646,"610 SOMBRERO LANE","HENDERSON","NC",27537,36.246469248,-78.343100968,146,"610 SOMBRERO LANE, HENDERSON, NC, 27537","Match","Exact","610 SOMBRERO LN, HENDERSON, NC, 27537",90281250,"L"
257647,"610 SON DRIVE","GOOSE CREEK","SC",29445,32.992611249,-80.0157767279999,147,"610 SON DRIVE, GOOSE CREEK, SC, 29445","Match","Exact","610 SON DR, GOOSE CREEK, SC, 29445",100772624,"R"
257648,"610 SOUTH 3RD ST","MONROE","LA",71202,32.4936653070001,-92.1073824119999,148,"610 SOUTH 3RD ST, MONROE, LA, 71202","Match","Exact","610 S 3RD ST, MONROE, LA, 71202",161087288,"R"
257649,"610 SOUTH FIFTH STREET","PERKASIE","PA",18944,40.36682375,-75.303505846,149,"610 SOUTH FIFTH STREET, PERKASIE, PA, 18944","Match","Exact","610 S 5TH ST, PERKASIE, PA, 18944",134698054,"R"
257650,"610 SOUTH MAIN STREET","GREENSBORO","GA",30642,33.5690319350001,-83.1833816119999,150,"610 SOUTH MAIN STREET, GREENSBORO, GA, 30642","Match","Exact","610 S MAIN ST, GREENSBORO, GA, 30642",16624116,"R"
257651,"610 SOUTHLAKE CIRCLE","YOUNGSVILLE","LA",70592,30.1061818220001,-92.028198377,151,"610 SOUTHLAKE CIRCLE, YOUNGSVILLE, LA, 70592","Match","Exact","610 SOUTHLAKE CIR, YOUNGSVILLE, LA, 70592",85641733,"R"
257652,"610 SPRING STREET","JAMESTOWN","NY",14701,42.0996131690001,-79.2397582629999,152,"610 SPRING STREET, JAMESTOWN, NY, 14701","Match","Exact","610 SPRING ST, JAMESTOWN, NY, 14701",120752673,"R"
257653,"610 SPRUCE ST","MANISTEE","MI",49660,44.240960844,-86.329176053,153,"610 SPRUCE ST, MANISTEE, MI, 49660","Match","Exact","610 SPRUCE ST, MANISTEE, MI, 49660",146023195,"L"
257654,"610 SQUIRE COURT","ALLEN","TX",75002,33.1171999690001,-96.650979094,154,"610 SQUIRE COURT, ALLEN, TX, 75002","Match","Exact","610 SQUIRE CT, ALLEN, TX, 75002",123525260,"L"
257655,"610 STANDING SPRINGS RD","GREENVILLE","SC",29605,NA,NA,155,"610 STANDING SPRINGS RD, GREENVILLE, SC, 29605","Tie",NA,NA,NA,NA
257656,"610 SUMMER STREET","UNION CITY","TN",38261,36.421204387,-89.051505048,156,"610 SUMMER STREET, UNION CITY, TN, 38261","Match","Exact","610 SUMMER ST, UNION CITY, TN, 38261",30894425,"R"
257657,"610 SUNSHINE DRIVE","RICHMOND","MO",64085,39.271904014,-93.947485533,157,"610 SUNSHINE DRIVE, RICHMOND, MO, 64085","Match","Exact","610 SUNSHINE DR, RICHMOND, MO, 64085",20989172,"L"
257658,"610 SUSQUEHANNA AVENUE","CURWENSVILLE","PA",16833,40.9659324030001,-78.522466003,158,"610 SUSQUEHANNA AVENUE, CURWENSVILLE, PA, 16833","Match","Exact","610 SUSQUEHANNA AVE, CURWENSVILLE, PA, 16833",50511634,"R"
257659,"610 SW 14TH COURT","DEERFIELD BEACH","FL",33441,26.298757822,-80.111841762,159,"610 SW 14TH COURT, DEERFIELD BEACH, FL, 33441","Match","Exact","610 SW 14TH CT, DEERFIELD BEACH, FL, 33441",114741960,"L"
257660,"610 SYLVAN HEIGHTS WAY APT 147","NASHVILLE","TN",37209,36.152242232,-86.834816006,160,"610 SYLVAN HEIGHTS WAY APT 147, NASHVILLE, TN, 37209","Match","Non_Exact","610 SYLVAN HIGHTS WAY, NASHVILLE, TN, 37209",651830725,"L"
257661,"610 SYLVAN HEIGHTS WAY APT 454","NASHVILLE","TN",37209,36.152242232,-86.834816006,161,"610 SYLVAN HEIGHTS WAY APT 454, NASHVILLE, TN, 37209","Match","Non_Exact","610 SYLVAN HIGHTS WAY, NASHVILLE, TN, 37209",651830725,"L"
257662,"610 TARTAN WAY","ENTERPRISE","AL",36330,NA,NA,162,"610 TARTAN WAY, ENTERPRISE, AL, 36330","No_Match",NA,NA,NA,NA
257663,"610 TERRACE DR","GRAND FORKS","ND",58201,47.886554753,-97.0341738829999,163,"610 TERRACE DR, GRAND FORKS, ND, 58201","Match","Exact","610 TERRACE DR, GRAND FORKS, ND, 58201",171277239,"R"
257664,"610 THIMBLE SHOALS BLVD SUITE 202B","NEWPORT NEWS","VA",23606,37.084671427,-76.4783208659999,164,"610 THIMBLE SHOALS BLVD SUITE 202B, NEWPORT NEWS, VA, 23606","Match","Exact","610 THIMBLE SHOALS BLVD, NEWPORT NEWS, VA, 23606",225655683,"L"
257665,"610 THIRD ST E","NORTHFIELD","MN",55057,44.4573842290001,-93.152054333,165,"610 THIRD ST E, NORTHFIELD, MN, 55057","Match","Exact","610 3RD ST E, NORTHFIELD, MN, 55057",37314598,"L"
257666,"610 TIMBER RIDGE RD","HELENA","MT",59602,46.7305936220001,-112.097050909,166,"610 TIMBER RIDGE RD, HELENA, MT, 59602","Match","Exact","610 TIMBER RIDGE RD, HELENA, MT, 59602",202362864,"L"
257667,"610 TIPPERARY RD","HAMPTON","GA",30228,33.3652890330001,-84.351482168,167,"610 TIPPERARY RD, HAMPTON, GA, 30228","Match","Exact","610 TIPPERARY RD, HAMPTON, GA, 30228",619934647,"R"
257668,"610 TULIFINNY RD","YEMASSEE","SC",29945,32.672636192,-80.877800899,168,"610 TULIFINNY RD, YEMASSEE, SC, 29945","Match","Exact","610 TULIFINNY RD, YEMASSEE, SC, 29945",636717304,"L"
257669,"610 TURF LANE","CONSHOHOCKEN","PA",19428,40.093915323,-75.299121892,169,"610 TURF LANE, CONSHOHOCKEN, PA, 19428","Match","Exact","610 TURF LN, CONSHOHOCKEN, PA, 19428",135084957,"L"
257670,"610 UPTOWN BLVD STE 2000","CEDAR HILL","TX",75104,NA,NA,170,"610 UPTOWN BLVD STE 2000, CEDAR HILL, TX, 75104","No_Match",NA,NA,NA,NA
257671,"610 UPTOWN BLVD SUITE 2000","CEDAR HILL","TX",75104,NA,NA,171,"610 UPTOWN BLVD SUITE 2000, CEDAR HILL, TX, 75104","No_Match",NA,NA,NA,NA
257672,"610 UPTOWN BLVD- 2ND FLOOR","CEDAR HILL","TX",75104,NA,NA,172,"610 UPTOWN BLVD- 2ND FLOOR, CEDAR HILL, TX, 75104","No_Match",NA,NA,NA,NA
257673,"610 UPTOWN BOULEVARD 2ND FLOOR","CEDAR HILL","TX",75104,NA,NA,173,"610 UPTOWN BOULEVARD 2ND FLOOR, CEDAR HILL, TX, 75104","No_Match",NA,NA,NA,NA
257674,"610 VENICE WAY UNIT 205","INGLEWOOD","CA",90302,33.9706796300001,-118.365233155,174,"610 VENICE WAY UNIT 205, INGLEWOOD, CA, 90302","Match","Exact","610 VENICE WAY, INGLEWOOD, CA, 90302",650071823,"L"
257675,"610 VICTORY BLVD APT 4J","STATEN ISLAND","NY",10301,40.628243615,-74.090359419,175,"610 VICTORY BLVD APT 4J, STATEN ISLAND, NY, 10301","Match","Exact","610 VICTORY BLVD, STATEN ISLAND, NY, 10301",59878736,"L"
257676,"610 VICTORY BLVD SUITE 4A","STATEN ISLAND","NY",10301,40.628243615,-74.090359419,176,"610 VICTORY BLVD SUITE 4A, STATEN ISLAND, NY, 10301","Match","Exact","610 VICTORY BLVD, STATEN ISLAND, NY, 10301",59878736,"L"
257677,"610 VIRGINIA DRIVE","MULLINS","SC",29574,34.1695921740001,-79.2344213,177,"610 VIRGINIA DRIVE, MULLINS, SC, 29574","Match","Exact","610 VIRGINIA DR, MULLINS, SC, 29574",28776952,"R"
257678,"610 W 139TH STREET APT 6C","NEW YORK","NY",10031,40.8227884300001,-73.953575972,178,"610 W 139TH STREET APT 6C, NEW YORK, NY, 10031","Match","Non_Exact","610 W 139TH ST, NEW YORK, NY, 10031",59655865,"L"
257679,"610 W 142ND STREET  - 4B","NEW YORK","NY",10031,40.824642243,-73.952162179,179,"610 W 142ND STREET  - 4B, NEW YORK, NY, 10031","Match","Non_Exact","610 W 142ND ST, NEW YORK, NY, 10031",59655879,"L"
257680,"610 W 42ND ST","NEW YORK","NY",10036,40.760960052,-73.99864895,180,"610 W 42ND ST, NEW YORK, NY, 10036","Match","Exact","610 W 42ND ST, NEW YORK, NY, 10036",650070700,"L"
257681,"610 W 42ND STREET  APT N59C","NEW YORK","NY",10036,40.760960052,-73.99864895,181,"610 W 42ND STREET  APT N59C, NEW YORK, NY, 10036","Match","Non_Exact","610 W 42ND ST, NEW YORK, NY, 10036",650070700,"L"
257682,"610 W 4TH STREET","STORM LAKE","IA",50588,42.6425212820001,-95.2080977849999,182,"610 W 4TH STREET, STORM LAKE, IA, 50588","Match","Exact","610 W 4TH ST, STORM LAKE, IA, 50588",77378663,"R"
257683,"610 W 84TH STREET","LOS ANGELES","CA",90044,33.962146784,-118.284411527,183,"610 W 84TH STREET, LOS ANGELES, CA, 90044","Match","Exact","610 W 84TH ST, LOS ANGELES, CA, 90044",141660195,"L"
257684,"610 W ASH STREET SUITE 701","SAN DIEGO","CA",92101,32.7198996280001,-117.159138805,184,"610 W ASH STREET SUITE 701, SAN DIEGO, CA, 92101","Match","Exact","610 ASH ST, SAN DIEGO, CA, 92101",195343695,"L"
257685,"610 W COLLEGE ST","MURFREESBORO","TN",37130,35.848862071,-86.397277115,185,"610 W COLLEGE ST, MURFREESBORO, TN, 37130","Match","Exact","610 W COLLEGE ST, MURFREESBORO, TN, 37130",636647936,"R"
257686,"610 W FIG ST","FALLBROOK","CA",92028,33.3812021860001,-117.257049438,186,"610 W FIG ST, FALLBROOK, CA, 92028","Match","Exact","610 W FIG ST, FALLBROOK, CA, 92028",195444783,"L"
257687,"610 W HUNT ROAD","ALCOA","TN",37701,35.792161089,-84.00075271,187,"610 W HUNT ROAD, ALCOA, TN, 37701","Match","Exact","610 W HUNT RD, ALCOA, TN, 37701",89826066,"L"
257688,"610 W MORGAN ST APT 317","DURHAM","NC",27701,35.9992127620001,-78.905862983,188,"610 W MORGAN ST APT 317, DURHAM, NC, 27701","Match","Non_Exact","610 W MORGAN ST, DURHAM, NC, 27701",71739534,"R"
257689,"610 WEST 142ND STE2K","NEW YORK","NY",10031,40.8246408140001,-73.9521589129999,189,"610 WEST 142ND STE2K, NEW YORK, NY, 10031","Match","Non_Exact","610 W 142ND ST, NEW YORK, NY, 10031",59655879,"L"
257690,"610 WEST 42ND STREET SUITE N29","NEW YORK","NY",10036,40.7609532980001,-73.99863284,190,"610 WEST 42ND STREET SUITE N29, NEW YORK, NY, 10036","Match","Exact","610 W 42ND ST, NEW YORK, NY, 10036",650070700,"L"
257691,"610 WEST 43RD STREET ROOM 917","KANSAS CITY","MO",64111,39.0495378580001,-94.593634256,191,"610 WEST 43RD STREET ROOM 917, KANSAS CITY, MO, 64111","Match","Exact","610 W 43RD ST, KANSAS CITY, MO, 64111",624319678,"R"
257692,"610 WEST 7TH STREET","CHEYENNE","WY",82001,41.123192755,-104.815705056,192,"610 WEST 7TH STREET, CHEYENNE, WY, 82001","Match","Non_Exact","610 W 7TH ST, CHEYENNE, WY, 82007",160150048,"R"
257693,"610 WEST 7TH STREET","CHEYENNE","WY",82007,41.123192755,-104.815705056,193,"610 WEST 7TH STREET, CHEYENNE, WY, 82007","Match","Exact","610 W 7TH ST, CHEYENNE, WY, 82007",160150048,"R"
257694,"610 WEST COLLEGE ST","FLORENCE","AL",35630,34.7959717370001,-87.683075425,194,"610 WEST COLLEGE ST, FLORENCE, AL, 35630","Match","Exact","610 W COLLEGE ST, FLORENCE, AL, 35630",640317228,"R"
257695,"610 WEST RAVENWOOD","YOUNGSTOWN","OH",44511,41.0644348960001,-80.6732081769999,195,"610 WEST RAVENWOOD, YOUNGSTOWN, OH, 44511","Match","Non_Exact","610 W RAVENWOOD AVE, YOUNGSTOWN, OH, 44511",64595072,"R"
257696,"610 WEST ROOT STREET","CHICAGO","IL",60609,41.8189941970001,-87.641198206,196,"610 WEST ROOT STREET, CHICAGO, IL, 60609","Match","Exact","610 W ROOT ST, CHICAGO, IL, 60609",605444652,"R"
257697,"610 WHISPERING PINES DRIVE","GIBSONIA","PA",15044,40.630501135,-79.912859619,197,"610 WHISPERING PINES DRIVE, GIBSONIA, PA, 15044","Match","Exact","610 WHISPERING PINES DR, GIBSONIA, PA, 15044",627645915,"L"
257698,"610 WHITE OWL FOREST DRIVE","AUGUSTA","GA",30909,33.4872699200001,-82.045139696,198,"610 WHITE OWL FOREST DRIVE, AUGUSTA, GA, 30909","Match","Exact","610 WHITE OWL FOREST DR, AUGUSTA, GA, 30909",55634003,"R"
257699,"610 WILSON CT","DUNCANVILLE","TX",75137,32.6453030210001,-96.897609007,199,"610 WILSON CT, DUNCANVILLE, TX, 75137","Match","Exact","610 WILSON CT, DUNCANVILLE, TX, 75137",102943330,"R"
257700,"610 WINESAP COURT","JOOPA","MD",21085,39.4192208100001,-76.3557767519999,200,"610 WINESAP COURT, JOOPA, MD, 21085","Match","Non_Exact","610 WINESAP CT, JOPPA, MD, 21085",191657703,"L"
257701,"610 WINNERS CIRCLE PLACE","THOMPSONS STATION","TN",37179,35.7807816850001,-86.902651178,201,"610 WINNERS CIRCLE PLACE, THOMPSONS STATION, TN, 37179","Match","Exact","610 WINNERS CIRCLE PL, THOMPSONS STATION, TN, 37179",73122886,"L"
257702,"610 WOODDUCK LANE","GEORGETOWN","KY",40324,38.3239158380001,-84.575304145,202,"610 WOODDUCK LANE, GEORGETOWN, KY, 40324","Match","Exact","610 WOODDUCK LN, GEORGETOWN, KY, 40324",41233666,"L"
257703,"610 WOODLAND DR","CLINTON","TN",37716,36.0881434030001,-84.1417302679999,203,"610 WOODLAND DR, CLINTON, TN, 37716","Match","Exact","610 WOODLAND DR, CLINTON, TN, 37716",90135360,"L"
257704,"6100 11TH AVE APT 1","LOS ANGELES","CA",90043,33.984514184,-118.329344082,204,"6100 11TH AVE APT 1, LOS ANGELES, CA, 90043","Match","Exact","6100 11TH AVE, LOS ANGELES, CA, 90043",141655054,"L"
257705,"6100 11TH AVE SE","MINOT","ND",58701,48.225589423,-101.202657768,205,"6100 11TH AVE SE, MINOT, ND, 58701","Match","Exact","6100 11TH AVE SE, MINOT, ND, 58701",646603274,"R"
257706,"6100 14TH STREET","DETROIT","MI",48208,42.3594866280001,-83.092547623,206,"6100 14TH STREET, DETROIT, MI, 48208","Match","Exact","6100 14TH ST, DETROIT, MI, 48208",95475688,"R"
257707,"6100 219TH ST SW SUITE 480","MOUNTLAKE TERRACE","WA",98043,47.8007957770001,-122.317522438,207,"6100 219TH ST SW SUITE 480, MOUNTLAKE TERRACE, WA, 98043","Match","Exact","6100 219TH ST SW, MOUNTLAKE TERRACE, WA, 98043",187816873,"L"
257708,"6100 APPLE RD","SHOREWOOD","MN",55331,44.892176696,-93.558861032,208,"6100 APPLE RD, SHOREWOOD, MN, 55331","Match","Exact","6100 APPLE RD, SHOREWOOD, MN, 55331",651089099,"R"
257709,"6100 APPOLINE","DEARBORN","MI",48126,42.3342076760001,-83.167796629,209,"6100 APPOLINE, DEARBORN, MI, 48126","Match","Exact","6100 APPOLINE, DEARBORN, MI, 48126",95444506,"R"
257710,"6100 BLUE LAGOON DR STE 305","MIAMI","FL",33126,25.7831248260001,-80.294193782,210,"6100 BLUE LAGOON DR STE 305, MIAMI, FL, 33126","Match","Exact","6100 BLUE LAGOON DR, MIAMI, FL, 33126",650006963,"R"
257711,"6100 BRADLEY LANE","CLINTON","MD",20735,NA,NA,211,"6100 BRADLEY LANE, CLINTON, MD, 20735","No_Match",NA,NA,NA,NA
257712,"6100 CHANNING WAY SUITE 200","COLUMBUS","OH",43232,39.9384902670001,-82.831132842,212,"6100 CHANNING WAY SUITE 200, COLUMBUS, OH, 43232","Match","Non_Exact","6100 CHANNINGWAY BLVD, COLUMBUS, OH, 43232",218514054,"L"
257713,"6100 CORPORATE DR STE 350","HOUSTON","TX",77036,29.7118066250001,-95.551548721,213,"6100 CORPORATE DR STE 350, HOUSTON, TX, 77036","Match","Exact","6100 CORPORATE DR, HOUSTON, TX, 77036",96608536,"R"
257714,"6100 E 32ND ST","INDIANAPOLIS","IN",46226,39.8146906170001,-86.062368868,214,"6100 E 32ND ST, INDIANAPOLIS, IN, 46226","Match","Exact","6100 E 32ND ST, INDIANAPOLIS, IN, 46226",108002037,"L"
257715,"6100 E PALISADES BLVD","FOUNTAIN HILLS","AZ",85268,NA,NA,215,"6100 E PALISADES BLVD, FOUNTAIN HILLS, AZ, 85268","No_Match",NA,NA,NA,NA
257716,"6100 EDLYNNE RD","BALTIMORE","MD",21239,39.367500094,-76.5943311349999,216,"6100 EDLYNNE RD, BALTIMORE, MD, 21239","Match","Exact","6100 EDLYNNE RD, BALTIMORE, MD, 21239",206439639,"L"
257717,"6100 ELTON AVENUE SUITE 1000","LAS VEGAS","NV",89107,36.1719610920001,-115.225175938,217,"6100 ELTON AVENUE SUITE 1000, LAS VEGAS, NV, 89107","Match","Exact","6100 ELTON AVE, LAS VEGAS, NV, 89107",201861020,"R"
257718,"6100 ENTERPRISE DRIVE SUITE D","DIAMOND SPRINGS","CA",95619,38.694009201,-120.833055905,218,"6100 ENTERPRISE DRIVE SUITE D, DIAMOND SPRINGS, CA, 95619","Match","Exact","6100 ENTERPRISE DR, DIAMOND SPRINGS, CA, 95619",652197306,"R"
257719,"6100 FAIR RIDGE ROAD","HILLSBORO","OH",45133,39.070130867,-83.661368209,219,"6100 FAIR RIDGE ROAD, HILLSBORO, OH, 45133","Match","Exact","6100 FAIR RIDGE RD, HILLSBORO, OH, 45133",101066284,"L"
257720,"6100 FOREST GROVE DR","BETTENDORF","IA",52722,NA,NA,220,"6100 FOREST GROVE DR, BETTENDORF, IA, 52722","No_Match",NA,NA,NA,NA
257721,"6100 FROST PLACE","LAUREL","MD",20707,39.0902553550001,-76.9016495449999,221,"6100 FROST PLACE, LAUREL, MD, 20707","Match","Exact","6100 FROST PL, LAUREL, MD, 20707",76348915,"L"
257722,"6100 GLADES ROAD SUITE 205","BOCA RATON","FL",33434,26.3687764960001,-80.138535013,222,"6100 GLADES ROAD SUITE 205, BOCA RATON, FL, 33434","Match","Non_Exact","6100 GLADES RD, BOCA RATON, FL, 33432",614288449,"R"
257723,"6100 GLEN CIR","JOHNSTON","IA",50131,41.682381992,-93.701744845,223,"6100 GLEN CIR, JOHNSTON, IA, 50131","Match","Exact","6100 GLEN CIR, JOHNSTON, IA, 50131",617120880,"L"
257724,"6100 HADLEY AVE S","COTTAGE GROVE","MN",55016,44.860814841,-92.964183288,224,"6100 HADLEY AVE S, COTTAGE GROVE, MN, 55016","Match","Exact","6100 HADLEY AVE S, COTTAGE GROVE, MN, 55016",638915808,"L"
257725,"6100 HOLLYTREE DRIVE 155","TYLER","TX",75703,32.282175072,-95.315729252,225,"6100 HOLLYTREE DRIVE 155, TYLER, TX, 75703","Match","Exact","6100 HOLLYTREE DR, TYLER, TX, 75703",141284313,"L"
257726,"6100 HORSESHOE BAR ROAD A102","LOOMIS","CA",95650,38.8182985490001,-121.190659347,226,"6100 HORSESHOE BAR ROAD A102, LOOMIS, CA, 95650","Match","Exact","6100 HORSESHOE BAR RD, LOOMIS, CA, 95650",636418096,"L"
257727,"6100 JOST STREET","FAIRMOUNT HEIGHTS","MD",20743,38.9009379600001,-76.911867248,227,"6100 JOST STREET, FAIRMOUNT HEIGHTS, MD, 20743","Match","Exact","6100 JOST ST, FAIRMOUNT HEIGHTS, MD, 20743",76367509,"L"
257728,"6100 KELSTON GREEN DRIVE","GLEN ALLEN","VA",23059,37.7040400390001,-77.6120952369999,228,"6100 KELSTON GREEN DRIVE, GLEN ALLEN, VA, 23059","Match","Exact","6100 KELSTON GREEN DR, GLEN ALLEN, VA, 23059",106668696,"L"
257729,"6100 LABATH AVE","ROHNERT PARK","CA",94928,38.3503953970001,-122.721190885,229,"6100 LABATH AVE, ROHNERT PARK, CA, 94928","Match","Exact","6100 LABATH AVE, ROHNERT PARK, CA, 94928",605023909,"R"
257730,"6100 LABATH AVENUE","ROHNERT PARK","CA",94928,38.3503953970001,-122.721190885,230,"6100 LABATH AVENUE, ROHNERT PARK, CA, 94928","Match","Exact","6100 LABATH AVE, ROHNERT PARK, CA, 94928",605023909,"R"
257731,"6100 MAIN ST MS-20","HOUSTON","TX",77005,29.7204708250001,-95.393794221,231,"6100 MAIN ST MS-20, HOUSTON, TX, 77005","Match","Exact","6100 MAIN ST, HOUSTON, TX, 77005",96615632,"R"
257732,"6100 MALPAIS PARK AVE","ALBUQUERQUE","NM",87114,35.2165541540001,-106.707208823,232,"6100 MALPAIS PARK AVE, ALBUQUERQUE, NM, 87114","Match","Non_Exact","6100 MALPAIS PARK AVE NW, ALBUQUERQUE, NM, 87114",627715855,"R"
257733,"6100 MARINETTE DR APT  1308B","HOUSTON","TX",77036,29.712934712,-95.518062419,233,"6100 MARINETTE DR APT  1308B, HOUSTON, TX, 77036","Match","Exact","6100 MARINETTE DR, HOUSTON, TX, 77036",96614112,"R"
257734,"6100 MASON MONTGOMERY ROAD","MASON","OH",45040,39.350530227,-84.309908789,234,"6100 MASON MONTGOMERY ROAD, MASON, OH, 45040","Match","Non_Exact","6100 S MASON MONTGOMERY RD, MASON, OH, 45040",159042972,"L"
257735,"6100 N 14TH STREET","KALAMAZOO","MI",49009,42.3493152180001,-85.629572589,235,"6100 N 14TH STREET, KALAMAZOO, MI, 49009","Match","Exact","6100 N 14TH ST, KALAMAZOO, MI, 49009",12241246,"R"
257736,"6100 N 42ND STREET LOWER","MILWAUKEE","WI",53209,43.1283446240001,-87.9647569799999,236,"6100 N 42ND STREET LOWER, MILWAUKEE, WI, 53209","Match","Non_Exact","6100 N 42ND ST, MILWAUKEE, WI, 53209",641665028,"R"
257737,"6100 N CHICKASAW TRL","ORLANDO","FL",32825,NA,NA,237,"6100 N CHICKASAW TRL, ORLANDO, FL, 32825","No_Match",NA,NA,NA,NA
257738,"6100 NEIL RD STE 500","RENO","NV",89511,39.471772512,-119.779154102,238,"6100 NEIL RD STE 500, RENO, NV, 89511","Match","Non_Exact","6100 NEIL RD, RENO, NV, 89502",608620337,"L"
257739,"6100 OHIO DR","PLANO","TX",75024,33.056608081,-96.789287969,239,"6100 OHIO DR, PLANO, TX, 75024","Match","Exact","6100 OHIO DR, PLANO, TX, 75024",210487939,"R"
257740,"6100 OLD HARFORD RD","BALTIMORE","MD",21214,NA,NA,240,"6100 OLD HARFORD RD, BALTIMORE, MD, 21214","Tie",NA,NA,NA,NA
257741,"6100 OLD LEEDS ROAD","IRONDALE","AL",35210,33.5350666780001,-86.673990684,241,"6100 OLD LEEDS ROAD, IRONDALE, AL, 35210","Match","Exact","6100 OLD LEEDS RD, IRONDALE, AL, 35210",81689884,"L"
257742,"6100 PIERCE LANE","GODFREY","IL",62035,38.9544546380001,-90.214859609,242,"6100 PIERCE LANE, GODFREY, IL, 62035","Match","Exact","6100 PIERCE LN, GODFREY, IL, 62035",107760917,"L"
257743,"6100 PRAISE AVENUE","SEBRING","FL",33876,27.4443577490001,-81.402269368,243,"6100 PRAISE AVENUE, SEBRING, FL, 33876","Match","Exact","6100 PRAISE AVE, SEBRING, FL, 33876",647632802,"R"
257744,"6100 PRIMACY PARKWAY","MEMPHIS","TN",38119,35.0950805300001,-89.860552094,244,"6100 PRIMACY PARKWAY, MEMPHIS, TN, 38119","Match","Exact","6100 PRIMACY PKWY, MEMPHIS, TN, 38119",72957852,"L"
257745,"6100 ROCKSIDE WOODS BLVD SUITE 100","INDEPENDENCE","OH",44131,41.3994916820001,-81.6456322,245,"6100 ROCKSIDE WOODS BLVD SUITE 100, INDEPENDENCE, OH, 44131","Match","Non_Exact","6100 ROCKSIDE WOODS BLVD N, INDEPENDENCE, OH, 44131",61170877,"R"
257746,"6100 RUGBY AVE 112","HUNTINGTON PARK","CA",90255,33.985458013,-118.226514056,246,"6100 RUGBY AVE 112, HUNTINGTON PARK, CA, 90255","Match","Exact","6100 RUGBY AVE, HUNTINGTON PARK, CA, 90255",142760927,"L"
257747,"6100 S COUNTY ROAD 25 E","CLOVERDALE","IN",46120,39.5727115990001,-86.845832636,247,"6100 S COUNTY ROAD 25 E, CLOVERDALE, IN, 46120","Match","Exact","6100 S CO RD 25 E, CLOVERDALE, IN, 46120",50110170,"L"
257748,"6100 S DIXIE HWY","S MIAMI","FL",33143,25.7022403600001,-80.2921657799999,248,"6100 S DIXIE HWY, S MIAMI, FL, 33143","Match","Exact","6100 S DIXIE HWY, SOUTH MIAMI, FL, 33143",115985532,"L"
257749,"6100 S FAIRFAX RD","BLOOMINGTON","IN",47401,39.089722883,-86.517025663,249,"6100 S FAIRFAX RD, BLOOMINGTON, IN, 47401","Match","Exact","6100 S FAIRFAX RD, BLOOMINGTON, IN, 47401",606910419,"R"
257750,"6100 S FALLS CIRCLE DR APT 305","LAUDERHILL","FL",33319,NA,NA,250,"6100 S FALLS CIRCLE DR APT 305, LAUDERHILL, FL, 33319","Tie",NA,NA,NA,NA
257751,"6100 S MASON MONTGOMERY RD","MASON","OH",45040,39.350530227,-84.309908789,251,"6100 S MASON MONTGOMERY RD, MASON, OH, 45040","Match","Exact","6100 S MASON MONTGOMERY RD, MASON, OH, 45040",159042972,"L"
257752,"6100 S MASON MONTGOMERY ROAD","MASON","OH",45040,39.350530227,-84.309908789,252,"6100 S MASON MONTGOMERY ROAD, MASON, OH, 45040","Match","Exact","6100 S MASON MONTGOMERY RD, MASON, OH, 45040",159042972,"L"
257753,"6100 S ORANGE AVE SUITE 190A","ORLANDO","FL",32809,28.470546196,-81.3685824789999,253,"6100 S ORANGE AVE SUITE 190A, ORLANDO, FL, 32809","Match","Non_Exact","6100 S ORANGE AVE, ORLANDO, FL, 32809",639776202,"R"
257754,"6100 S PENNSYLVANIA AVENUE","OKLAHOMA CITY","OK",73159,35.4045241260001,-97.547920925,254,"6100 S PENNSYLVANIA AVENUE, OKLAHOMA CITY, OK, 73159","Match","Exact","6100 S PENNSYLVANIA AVE, OKLAHOMA CITY, OK, 73159",100406016,"L"
257755,"6100 SHADBURN FERRY RD","BUFORD","GA",30518,34.1561623600001,-84.00779541,255,"6100 SHADBURN FERRY RD, BUFORD, GA, 30518","Match","Exact","6100 SHADBURN FERRY RD, BUFORD, GA, 30518",98256891,"L"
257756,"6100 SOUTH MASON MONTGOMERY RD","MASON","OH",45040,39.350530227,-84.309908789,256,"6100 SOUTH MASON MONTGOMERY RD, MASON, OH, 45040","Match","Exact","6100 S MASON MONTGOMERY RD, MASON, OH, 45040",159042972,"L"
257757,"6100 SOUTH MASON-MONTGOMERY ROAD","MASON","OH",45040,39.350530227,-84.309908789,257,"6100 SOUTH MASON-MONTGOMERY ROAD, MASON, OH, 45040","Match","Non_Exact","6100 S MASON MONTGOMERY RD, MASON, OH, 45040",159042972,"L"
257758,"6100 SUMMIT DR N APT 311","BROOKLYN CENTER","MN",55430,45.065489406,-93.3044872089999,258,"6100 SUMMIT DR N APT 311, BROOKLYN CENTER, MN, 55430","Match","Exact","6100 SUMMIT DR N, BROOKLYN CENTER, MN, 55430",43855762,"R"
257759,"6100 SUNSTONE DRIVE","CHARLOTTE","NC",28269,35.298898987,-80.8440019619999,259,"6100 SUNSTONE DRIVE, CHARLOTTE, NC, 28269","Match","Exact","6100 SUNSTONE DR, CHARLOTTE, NC, 28269",70512709,"L"
257760,"6100 SW 135 STREET","MIRAMAR","FL",33023,NA,NA,260,"6100 SW 135 STREET, MIRAMAR, FL, 33023","No_Match",NA,NA,NA,NA
257761,"6100 UPTOWN BLVD NE STE 400","ALBUQUERQUE","NM",87110,35.1053193320001,-106.576130541,261,"6100 UPTOWN BLVD NE STE 400, ALBUQUERQUE, NM, 87110","Match","Exact","6100 UPTOWN BLVD NE, ALBUQUERQUE, NM, 87110",206716092,"R"
257762,"6100 VERANDAS CIRCLE APT  837","FORT WORTH","TX",76132,32.660186267,-97.419033857,262,"6100 VERANDAS CIRCLE APT  837, FORT WORTH, TX, 76132","Match","Exact","6100 VERANDAS CIR, FORT WORTH, TX, 76132",619866718,"R"
257763,"6100 W AVENUE K6","LANCASTER","CA",93536,34.6694971970001,-118.239097692,263,"6100 W AVENUE K6, LANCASTER, CA, 93536","Match","Exact","6100 W AVE K6, LANCASTER, CA, 93536",627280255,"L"
257764,"6100 W GRANTLINE RD","TRACY","CA",95304,NA,NA,264,"6100 W GRANTLINE RD, TRACY, CA, 95304","No_Match",NA,NA,NA,NA
257765,"6100 W JEFFERSON STREET","PHILADELPHIA","PA",19151,39.9786991550001,-75.24242263,265,"6100 W JEFFERSON STREET, PHILADELPHIA, PA, 19151","Match","Exact","6100 W JEFFERSON ST, PHILADELPHIA, PA, 19151",131397238,"L"
257766,"6100 WESTERN PLACE SUITE 1000","FORT WORTH","TX",76107,32.734950097,-97.416449991,266,"6100 WESTERN PLACE SUITE 1000, FORT WORTH, TX, 76107","Match","Exact","6100 WESTERN PL, FORT WORTH, TX, 76107",102136180,"R"
257767,"6100 WINDCOM COURT SUITE 101","PLANO","TX",75093,33.0536249630001,-96.832020493,267,"6100 WINDCOM COURT SUITE 101, PLANO, TX, 75093","Match","Exact","6100 WINDCOM CT, PLANO, TX, 75093",123567683,"R"
257768,"6101 16TH STREET NW APT 722","WASHINGTON","DC",20011,38.9648840040001,-77.036409217,268,"6101 16TH STREET NW APT 722, WASHINGTON, DC, 20011","Match","Exact","6101 16TH ST NW, WASHINGTON, DC, 20011",76221637,"R"
257769,"6101 48TH ST NE","MARYSVILLE","WA",98270,48.039434543,-122.148998132,269,"6101 48TH ST NE, MARYSVILLE, WA, 98270","Match","Exact","6101 48TH ST NE, MARYSVILLE, WA, 98270",606939777,"L"
257770,"6101 ALCOTT STREET","LOS ANGELES","CA",90035,34.0520288860001,-118.374197791,270,"6101 ALCOTT STREET, LOS ANGELES, CA, 90035","Match","Exact","6101 ALCOTT ST, LOS ANGELES, CA, 90035",141573122,"R"
257771,"6101 ANTOINE DR APT 6222","HOUSTON","TX",77091,29.854531508,-95.473309608,271,"6101 ANTOINE DR APT 6222, HOUSTON, TX, 77091","Match","Exact","6101 ANTOINE DR, HOUSTON, TX, 77091",96646940,"L"
257772,"6101 ARDREY KELL RD APT 1317","CHARLOTTE","NC",28277,35.0509424100001,-80.765362345,272,"6101 ARDREY KELL RD APT 1317, CHARLOTTE, NC, 28277","Match","Exact","6101 ARDREY KELL RD, CHARLOTTE, NC, 28277",648378010,"L"
257773,"6101 BRANIFF DR","OKLAHOMA CITY","OK",73105,35.534814657,-97.5092848049999,273,"6101 BRANIFF DR, OKLAHOMA CITY, OK, 73105","Match","Exact","6101 BRANIFF DR, OKLAHOMA CITY, OK, 73105",100395582,"L"
257774,"6101 BRTTCHER AVE","INDIANAPOLIS","IN",46228,NA,NA,274,"6101 BRTTCHER AVE, INDIANAPOLIS, IN, 46228","No_Match",NA,NA,NA,NA
257775,"6101 CANE GAP RD","DUFFIELD","VA",24244,NA,NA,275,"6101 CANE GAP RD, DUFFIELD, VA, 24244","No_Match",NA,NA,NA,NA
257776,"6101 CRESCENT CHASE","JOHNSTON","IA",50131,41.6705812450001,-93.734743833,276,"6101 CRESCENT CHASE, JOHNSTON, IA, 50131","Match","Exact","6101 CRESCENT CHASE, JOHNSTON, IA, 50131",636229530,"R"
257777,"6101 DELMAR BLVD","ST LOUIS","MO",63112,38.655085484,-90.296143055,277,"6101 DELMAR BLVD, ST LOUIS, MO, 63112","Match","Exact","6101 DELMAR BLVD, SAINT LOUIS, MO, 63112",605104868,"R"
257778,"6101 EDSALL ROAD APT 1601","ALEXANDRIA","VA",22304,38.8077668610001,-77.138552191,278,"6101 EDSALL ROAD APT 1601, ALEXANDRIA, VA, 22304","Match","Exact","6101 EDSALL RD, ALEXANDRIA, VA, 22304",611508098,"R"
257779,"6101 EDSALL ROAD UNIT 1006","ALEXANDRIA","VA",22034,38.8077668610001,-77.138552191,279,"6101 EDSALL ROAD UNIT 1006, ALEXANDRIA, VA, 22034","Match","Non_Exact","6101 EDSALL RD, ALEXANDRIA, VA, 22304",611508098,"R"
257780,"6101 EQUESTRIAN COURT","COLLEYVILLE","TX",76034,32.897870116,-97.174725641,280,"6101 EQUESTRIAN COURT, COLLEYVILLE, TX, 76034","Match","Exact","6101 EQUESTRIAN CT, COLLEYVILLE, TX, 76034",623905300,"R"
257781,"6101 GARDENBROOK PLACE","SUFFOLK","VA",23434,36.740986424,-76.6242371769999,281,"6101 GARDENBROOK PLACE, SUFFOLK, VA, 23434","Match","Exact","6101 GARDENBROOK PL, SUFFOLK, VA, 23434",624730237,"L"
257782,"6101 GRAYSON DRIVE","DENISON","TX",75020,33.703097535,-96.6317053559999,282,"6101 GRAYSON DRIVE, DENISON, TX, 75020","Match","Exact","6101 GRAYSON DR, DENISON, TX, 75020",606374715,"L"
257783,"6101 GREENWALT DR","SPRINGFIELD","IL",62711,39.76793817,-89.767431372,283,"6101 GREENWALT DR, SPRINGFIELD, IL, 62711","Match","Exact","6101 GREENWALT DR, SPRINGFIELD, IL, 62711",606959967,"L"
257784,"6101 HARROGATE DR","AUSTIN","TX",78759,30.416975817,-97.7596196809999,284,"6101 HARROGATE DR, AUSTIN, TX, 78759","Match","Exact","6101 HARROGATE DR, AUSTIN, TX, 78759",63991736,"R"
257785,"6101 HERMANN  RD","HOUSTON","TX",77050,29.895268851,-95.298988271,285,"6101 HERMANN  RD, HOUSTON, TX, 77050","Match","Exact","6101 HERMANN RD, HOUSTON, TX, 77050",645669064,"L"
257786,"6101 IRON HORSE DRIVE","NORTH RICHLAND HILLS","TX",76148,32.847265931,-97.252381008,286,"6101 IRON HORSE DRIVE, NORTH RICHLAND HILLS, TX, 76148","Match","Exact","6101 IRON HORSE DR, NORTH RICHLAND HILLS, TX, 76148",102099617,"L"
257787,"6101 JESSE OWENS AVE","BIRMINGHAM","AL",35228,33.4396181440001,-86.9325060959999,287,"6101 JESSE OWENS AVE, BIRMINGHAM, AL, 35228","Match","Exact","6101 JESSE OWENS AVE, BIRMINGHAM, AL, 35228",647606370,"R"
257788,"6101 LAURA KOPPE RD","HOUSTON","TX",77016,29.8406840860001,-95.3095859859999,288,"6101 LAURA KOPPE RD, HOUSTON, TX, 77016","Match","Exact","6101 LAURA KOPPE RD, HOUSTON, TX, 77016",96076693,"L"
257789,"6101 LIMEKILN PIKE","PHILADELPHIA","PA",19141,40.046384129,-75.148759135,289,"6101 LIMEKILN PIKE, PHILADELPHIA, PA, 19141","Match","Exact","6101 LIMEKILN PIKE, PHILADELPHIA, PA, 19141",131413581,"R"
257790,"6101 LOCH RAVEN BLVD APT 606","BALTIMORE","MD",21239,39.3685840520001,-76.584007583,290,"6101 LOCH RAVEN BLVD APT 606, BALTIMORE, MD, 21239","Match","Exact","6101 LOCH RAVEN BLVD, BALTIMORE, MD, 21239",206409556,"R"
257791,"6101 LONG PRAIRIE RD SUITE 744","FLOWER MOUND","TX",75028,33.066909153,-97.0811238109999,291,"6101 LONG PRAIRIE RD SUITE 744, FLOWER MOUND, TX, 75028","Match","Exact","6101 LONG PRAIRIE RD, FLOWER MOUND, TX, 75028",103387234,"R"
257792,"6101 MAYLANE DRIVE","BALTIMORE","MD",21212,39.367262494,-76.6015400329999,292,"6101 MAYLANE DRIVE, BALTIMORE, MD, 21212","Match","Exact","6101 MAYLANE DR, BALTIMORE, MD, 21212",206408280,"R"
257793,"6101 MCCART AVE","FORT WORTH","TX",76133,NA,NA,293,"6101 MCCART AVE, FORT WORTH, TX, 76133","No_Match",NA,NA,NA,NA
257794,"6101 MERION WAY","SCHERTZ","TX",78108,29.628059056,-98.222204048,294,"6101 MERION WAY, SCHERTZ, TX, 78108","Match","Exact","6101 MERION WAY, SCHERTZ, TX, 78108",54856442,"L"
257795,"6101 MIDWAY CT","INDIANAPOLIS","IN",46224,39.81213008,-86.267428384,295,"6101 MIDWAY CT, INDIANAPOLIS, IN, 46224","Match","Exact","6101 MIDWAY CT, INDIANAPOLIS, IN, 46224",107978037,"L"
257796,"6101 MORRISS ROAD","FLOWER MOUND","TX",75028,33.067485753,-97.061840724,296,"6101 MORRISS ROAD, FLOWER MOUND, TX, 75028","Match","Exact","6101 MORRISS RD, FLOWER MOUND, TX, 75028",103427671,"R"
257797,"6101 MOUNTAINVIEW MANOR","MORGANTOWN","WV",26501,39.6079588530001,-79.946706897,297,"6101 MOUNTAINVIEW MANOR, MORGANTOWN, WV, 26501","Match","Non_Exact","6101 MOUNTAIN VIEW MNR, MORGANTOWN, WV, 26501",50779854,"L"
257798,"6101 N ROAD 52","PASCO","WA",99301,NA,NA,298,"6101 N ROAD 52, PASCO, WA, 99301","No_Match",NA,NA,NA,NA
257799,"6101 NORTH MAIN STREET","COLUMBIA","SC",29203,34.059342928,-81.0106259949999,299,"6101 NORTH MAIN STREET, COLUMBIA, SC, 29203","Match","Exact","6101 N MAIN ST, COLUMBIA, SC, 29203",638935330,"L"
257800,"6101 NW 31 STREET","MARGATE","FL",33063,26.268311195,-80.205817187,300,"6101 NW 31 STREET, MARGATE, FL, 33063","Match","Exact","6101 NW 31ST ST, MARGATE, FL, 33063",649349923,"L"
257801,"6101 NW LINCOLN AVE","VANCOUVER","WA",98663,45.6666430270001,-122.682417606,301,"6101 NW LINCOLN AVE, VANCOUVER, WA, 98663","Match","Exact","6101 NW LINCOLN AVE, VANCOUVER, WA, 98663",624091335,"R"
257802,"6101 OLD STILESBORO ROAD NW","ACWORTH","GA",30101,34.0256083520001,-84.7278045259999,302,"6101 OLD STILESBORO ROAD NW, ACWORTH, GA, 30101","Match","Exact","6101 OLD STILESBORO RD NW, ACWORTH, GA, 30101",17166056,"L"
257803,"6101 OWENSMOUTH AVE UNIT 6151","WOODLAND HILLS","CA",91365,34.18125309,-118.601516053,303,"6101 OWENSMOUTH AVE UNIT 6151, WOODLAND HILLS, CA, 91365","Match","Non_Exact","6101 OWENSMOUTH AVE, WOODLAND HLS, CA, 91367",142046028,"L"
257804,"6101 PADUCAH DRIVE","RALEIGH","NC",27610,35.737354468,-78.5350911419999,304,"6101 PADUCAH DRIVE, RALEIGH, NC, 27610","Match","Exact","6101 PADUCAH DR, RALEIGH, NC, 27610",619534373,"L"
257805,"6101 RAMSEY ROAD","COEUR D ALENE","ID",83815,47.7274785970001,-116.808316794,305,"6101 RAMSEY ROAD, COEUR D ALENE, ID, 83815","Match","Non_Exact","6101 N RAMSEY RD, COEUR D ALENE, ID, 83815",192923019,"L"
257806,"6101 REED STREET","HYATTSVILLE","MD",20785,38.912367111,-76.912379491,306,"6101 REED STREET, HYATTSVILLE, MD, 20785","Match","Exact","6101 REED ST, HYATTSVILLE, MD, 20785",76307820,"R"
257807,"6101 RISING SUN AVENUE","PHILADELPHIA","PA",19111,40.0460891340001,-75.099507165,307,"6101 RISING SUN AVENUE, PHILADELPHIA, PA, 19111","Match","Exact","6101 RISING SUN AVE, PHILADELPHIA, PA, 19111",131414933,"R"
257808,"6101 S COLLINS ST","ARLINGTON","TX",76018,NA,NA,308,"6101 S COLLINS ST, ARLINGTON, TX, 76018","No_Match",NA,NA,NA,NA
257809,"6101 SAINTSBURY DR APT 923","THE COLONY","TX",75056,33.0586147020001,-96.8488225579999,309,"6101 SAINTSBURY DR APT 923, THE COLONY, TX, 75056","Match","Exact","6101 SAINTSBURY DR, THE COLONY, TX, 75056",103409478,"R"
257810,"6101 SANDY BANK TERRACE","RIVIERA BEACH","FL",33407,26.7757529450001,-80.112107392,310,"6101 SANDY BANK TERRACE, RIVIERA BEACH, FL, 33407","Match","Exact","6101 SANDY BANK TER, RIVIERA BEACH, FL, 33407",624760900,"L"
257811,"6101 SCANDIA TRAIL N","FOREST LAKE","MN",55025,NA,NA,311,"6101 SCANDIA TRAIL N, FOREST LAKE, MN, 55025","No_Match",NA,NA,NA,NA
257812,"6101 SCANDIA TRAIL NORTH","FOREST LAKE","MN",55025,NA,NA,312,"6101 SCANDIA TRAIL NORTH, FOREST LAKE, MN, 55025","No_Match",NA,NA,NA,NA
257813,"6101 SCANDIA TRAIL","FOREST LAKE","MN",55025,NA,NA,313,"6101 SCANDIA TRAIL, FOREST LAKE, MN, 55025","No_Match",NA,NA,NA,NA
257814,"6101 SCOTT STREET","ROSEMONT","IL",60018,41.989674612,-87.8758582569999,314,"6101 SCOTT STREET, ROSEMONT, IL, 60018","Match","Exact","6101 SCOTT ST, ROSEMONT, IL, 60018",111724265,"R"
257815,"6101 SEQUOIA RD NW B12","ALBUQUERQUE","NM",87120,35.121492855,-106.707174054,315,"6101 SEQUOIA RD NW B12, ALBUQUERQUE, NM, 87120","Match","Exact","6101 SEQUOIA RD NW, ALBUQUERQUE, NM, 87120",609082952,"R"
257816,"6101 SIR JACK","CORPUS CHRISTI","TX",78414,27.6628522450001,-97.385646664,316,"6101 SIR JACK, CORPUS CHRISTI, TX, 78414","Match","Non_Exact","6101 SIR JACK ST, CORPUS CHRISTI, TX, 78414",627227528,"R"
257817,"6101 SR 105 SOUTH","ATKINS","AR",72823,NA,NA,317,"6101 SR 105 SOUTH, ATKINS, AR, 72823","No_Match",NA,NA,NA,NA
257818,"6101 SW 20 STREET","MIAMI","FL",33155,25.752166721,-80.2946516649999,318,"6101 SW 20 STREET, MIAMI, FL, 33155","Match","Exact","6101 SW 20TH ST, MIAMI, FL, 33155",116260158,"R"
257819,"6101 SYLVESTER WAY","CARMICHAEL","CA",95608,38.6704048180001,-121.321836085,319,"6101 SYLVESTER WAY, CARMICHAEL, CA, 95608","Match","Exact","6101 SYLVESTER WAY, CARMICHAEL, CA, 95608",133341359,"L"
257820,"6101 TRINITY DR NE","FRIDLEY","MN",55432,45.0791637040001,-93.268407199,320,"6101 TRINITY DR NE, FRIDLEY, MN, 55432","Match","Exact","6101 TRINITY DR NE, FRIDLEY, MN, 55432",97487415,"R"
257821,"6101 W ARIZONA PAVILIONS DR 11207","MARANA","AZ",85743,NA,NA,321,"6101 W ARIZONA PAVILIONS DR 11207, MARANA, AZ, 85743","No_Match",NA,NA,NA,NA
257822,"6101 W GROSSPOINT RD","NILES","IL",60714,42.0176958530001,-87.7792727889999,322,"6101 W GROSSPOINT RD, NILES, IL, 60714","Match","Non_Exact","6101 W GROSS POINT RD, NILES, IL, 60714",605004960,"L"
257823,"6101 WATAUGA ROAD SUITE C","WATAUGA","TX",76148,32.8605176900001,-97.250861737,323,"6101 WATAUGA ROAD SUITE C, WATAUGA, TX, 76148","Match","Exact","6101 WATAUGA RD, WATAUGA, TX, 76148",101862523,"L"
257824,"6101 WEST 149TH STREET","OVERLAND PARK","KS",66223,38.8585063670001,-94.658766357,324,"6101 WEST 149TH STREET, OVERLAND PARK, KS, 66223","Match","Exact","6101 W 149TH ST, OVERLAND PARK, KS, 66223",91333532,"L"
257825,"6101 WILLIAM COURT","ROCKY MOUNT","NC",27803,35.8767308560001,-77.885336729,325,"6101 WILLIAM COURT, ROCKY MOUNT, NC, 27803","Match","Exact","6101 WILLIAM CT, ROCKY MOUNT, NC, 27803",90399604,"R"
257826,"6102 51ST ST NW","ROCHESTER","MN",55901,44.075403185,-92.561110449,326,"6102 51ST ST NW, ROCHESTER, MN, 55901","Match","Exact","6102 51ST ST NW, ROCHESTER, MN, 55901",600397739,"L"
257827,"6102 COLONIAL DRIVE","MARGATE","FL",33063,26.2613420540001,-80.206356359,327,"6102 COLONIAL DRIVE, MARGATE, FL, 33063","Match","Exact","6102 COLONIAL DR, MARGATE, FL, 33063",114803331,"R"
257828,"6102 E FM 40","LUBBOCK","TX",79403,33.592889331,-101.740723496,328,"6102 E FM 40, LUBBOCK, TX, 79403","Match","Exact","6102 E FM 40, LUBBOCK, TX, 79403",643047461,"R"
257829,"6102 E HILLERY DR","SCOTTSDALE","AZ",85254,33.6215266990001,-111.950560047,329,"6102 E HILLERY DR, SCOTTSDALE, AZ, 85254","Match","Exact","6102 E HILLERY DR, SCOTTSDALE, AZ, 85254",128321562,"L"
257830,"6102 EAST ADAMO DRIVE","TAMPA","FL",33619,27.952250479,-82.38445612,330,"6102 EAST ADAMO DRIVE, TAMPA, FL, 33619","Match","Non_Exact","6102 ADAMO DR, TAMPA, FL, 33619",104538460,"L"
257831,"6102 FAIRWOOD AVE","BALTIMORE","MD",21206,39.3490863010001,-76.543107188,331,"6102 FAIRWOOD AVE, BALTIMORE, MD, 21206","Match","Exact","6102 FAIRWOOD AVE, BALTIMORE, MD, 21206",206411942,"L"
257832,"6102 HANSON ROAD","AMARILLO","TX",79106,35.1866237990001,-101.90590874,332,"6102 HANSON ROAD, AMARILLO, TX, 79106","Match","Exact","6102 HANSON RD, AMARILLO, TX, 79106",182468851,"R"
257833,"6102 LAURA KOPPE STE3","HOUSTON","TX",77016,29.840673399,-95.3095676409999,333,"6102 LAURA KOPPE STE3, HOUSTON, TX, 77016","Match","Non_Exact","6102 LAURA KOPPE RD, HOUSTON, TX, 77016",96076693,"R"
257834,"6102 MAGNOLIA ST","PHILADELPHIA","PA",19144,40.0458751530001,-75.1738128539999,334,"6102 MAGNOLIA ST, PHILADELPHIA, PA, 19144","Match","Exact","6102 MAGNOLIA ST, PHILADELPHIA, PA, 19144",131395507,"L"
257835,"6102 MASTER STREET","PHILADELPHIA","PA",19151,39.972582432,-75.241334953,335,"6102 MASTER STREET, PHILADELPHIA, PA, 19151","Match","Exact","6102 MASTER ST, PHILADELPHIA, PA, 19151",131397453,"L"
257836,"6102 MEADOW CREEK CIR","GOODLETTSVILLE","TN",37072,36.3033498230001,-86.720726707,336,"6102 MEADOW CREEK CIR, GOODLETTSVILLE, TN, 37072","Match","Non_Exact","6102 MEADOWCREEK CIR, GOODLETTSVILLE, TN, 37072",97232083,"L"
257837,"6102 NORTH 77TH PLACE","SCOTTSDALE","AZ",85250,33.5260903970001,-111.914463635,337,"6102 NORTH 77TH PLACE, SCOTTSDALE, AZ, 85250","Match","Exact","6102 N 77TH PL, SCOTTSDALE, AZ, 85250",128228977,"L"
257838,"6102 NW 30TH AVE","MIAMI","FL",33142,25.830271284,-80.24515299,338,"6102 NW 30TH AVE, MIAMI, FL, 33142","Match","Exact","6102 NW 30TH AVE, MIAMI, FL, 33142",116001030,"L"
257839,"6102 PINETREE DRIVE","FORT MEADE","FL",33841,27.7975742460001,-81.7503643059999,339,"6102 PINETREE DRIVE, FORT MEADE, FL, 33841","Match","Exact","6102 PINETREE DR, FORT MEADE, FL, 33841",104847303,"R"
257840,"6102 PINTO RUN","COLLEGE STATION","TX",77845,30.55028428,-96.364589256,340,"6102 PINTO RUN, COLLEGE STATION, TX, 77845","Match","Exact","6102 PINTO RUN, COLLEGE STATION, TX, 77845",21830640,"R"
257841,"6102 PROCTOR RD","SARASOTA","FL",34241,27.2838401760001,-82.448027064,341,"6102 PROCTOR RD, SARASOTA, FL, 34241","Match","Exact","6102 PROCTOR RD, SARASOTA, FL, 34241",16393047,"R"
257842,"6102 RIVER VIEW COURT","FREDERICK","MD",21704,39.3976709660001,-77.374422411,342,"6102 RIVER VIEW COURT, FREDERICK, MD, 21704","Match","Exact","6102 RIVER VIEW CT, FREDERICK, MD, 21704",60748209,"R"
257843,"6102 SE 145TH ST","SUMMERFIELD","FL",34491,29.011317176,-82.050828745,343,"6102 SE 145TH ST, SUMMERFIELD, FL, 34491","Match","Exact","6102 SE 145TH ST, SUMMERFIELD, FL, 34491",116805749,"R"
257844,"6102 THORNRIDGE DRIVE","GRAND BLANC","MI",48439,42.9220182870001,-83.689971724,344,"6102 THORNRIDGE DRIVE, GRAND BLANC, MI, 48439","Match","Exact","6102 THORNRIDGE DR, GRAND BLANC, MI, 48439",69595193,"R"
257845,"6102 UNION CHURCH RD","MAGNOLIA","MS",39652,31.1419389430001,-90.3542194199999,345,"6102 UNION CHURCH RD, MAGNOLIA, MS, 39652","Match","Exact","6102 UNION CHURCH RD, MAGNOLIA, MS, 39652",75872879,"L"
257846,"6102 VACQUERO DR","CASTLE PINES","CO",80108,39.4859971810001,-104.917595611,346,"6102 VACQUERO DR, CASTLE PINES, CO, 80108","Match","Exact","6102 VACQUERO DR, CASTLE PINES, CO, 80108",130841574,"R"
257847,"6102 WINSOME LN APT 63","HOUSTON","TX",77057,29.735376552,-95.487791583,347,"6102 WINSOME LN APT 63, HOUSTON, TX, 77057","Match","Exact","6102 WINSOME LN, HOUSTON, TX, 77057",96620212,"R"
257848,"61026 GEARY DRIVE","BEND","OR",97702,44.01611325,-121.315428552,348,"61026 GEARY DRIVE, BEND, OR, 97702","Match","Exact","61026 GEARY DR, BEND, OR, 97702",617830410,"L"
257849,"6103 93RD ST","LUBBOCK","TX",79424,33.508991898,-101.947366734,349,"6103 93RD ST, LUBBOCK, TX, 79424","Match","Exact","6103 93RD ST, LUBBOCK, TX, 79424",185273279,"L"
257850,"6103 ALTERSGATE LANE APT 6208","ARLINGTON","TX",76001,32.6472435320001,-97.1312640949999,350,"6103 ALTERSGATE LANE APT 6208, ARLINGTON, TX, 76001","Match","Exact","6103 ALTERSGATE LN, ARLINGTON, TX, 76001",638655584,"L"
257851,"6103 CROMWELL DRIVE","BETHESDA","MD",20816,38.970317788,-77.120620484,351,"6103 CROMWELL DRIVE, BETHESDA, MD, 20816","Match","Exact","6103 CROMWELL DR, BETHESDA, MD, 20816",62058730,"R"
257852,"6103 ERIKA PLACE","GLENN DALE","MD",20769,38.973204486,-76.8123698479999,352,"6103 ERIKA PLACE, GLENN DALE, MD, 20769","Match","Exact","6103 ERIKA PL, GLENN DALE, MD, 20769",76418742,"R"
257853,"6103 FOUR WOOD DRIVE","MATTHEWS","NC",28104,35.1431941500001,-80.606859035,353,"6103 FOUR WOOD DRIVE, MATTHEWS, NC, 28104","Match","Exact","6103 FOUR WOOD DR, MATTHEWS, NC, 28104",635574429,"L"
257854,"6103 KELVIN DRIVE","DURHAM","NC",27712,36.094576251,-78.957380891,354,"6103 KELVIN DRIVE, DURHAM, NC, 27712","Match","Exact","6103 KELVIN DR, DURHAM, NC, 27712",71776923,"L"
257855,"6103 LUCERO DRIVE","SACRAMENTO","CA",95824,38.515598294,-121.443143674,355,"6103 LUCERO DRIVE, SACRAMENTO, CA, 95824","Match","Exact","6103 LUCERO DR, SACRAMENTO, CA, 95824",133364339,"R"
257856,"6103 MEADOW BLUFF COURT","RICHMOND","TX",77407,29.6813283180001,-95.7456361069999,356,"6103 MEADOW BLUFF COURT, RICHMOND, TX, 77407","Match","Exact","6103 MEADOW BLUFF CT, RICHMOND, TX, 77407",648706820,"L"
257857,"6103 MORNING VIEW LANE","WESTON","WI",54476,44.913846849,-89.5453933209999,357,"6103 MORNING VIEW LANE, WESTON, WI, 54476","Match","Exact","6103 MORNING VIEW LN, WESTON, WI, 54476",117150211,"R"
257858,"6103 NE 1ST STREET","RENTON","WA",98059,47.4828703740001,-122.136726113,358,"6103 NE 1ST STREET, RENTON, WA, 98059","Match","Exact","6103 NE 1ST ST, RENTON, WA, 98059",627332197,"L"
257859,"6103 NOLAND RD","KANSAS CITY","MO",64133,39.0093185800001,-94.4165120339999,359,"6103 NOLAND RD, KANSAS CITY, MO, 64133","Match","Exact","6103 NOLAND RD, KANSAS CITY, MO, 64133",91515379,"L"
257860,"6103 ROCKBY COURT","ARLINGTON","TX",76001,32.645727026,-97.1344815749999,360,"6103 ROCKBY COURT, ARLINGTON, TX, 76001","Match","Exact","6103 ROCKBY CT, ARLINGTON, TX, 76001",101948632,"L"
257861,"6103 SCHAUMBURG DR","SPRING","TX",77388,30.082297505,-95.51310879,361,"6103 SCHAUMBURG DR, SPRING, TX, 77388","Match","Exact","6103 SCHAUMBURG DR, SPRING, TX, 77388",624531690,"L"
257862,"6103 SHELBOURNE PARK LANE","HOUSTON","TX",77084,29.8652383030001,-95.651141233,362,"6103 SHELBOURNE PARK LANE, HOUSTON, TX, 77084","Match","Exact","6103 SHELBOURNE PARK LN, HOUSTON, TX, 77084",624593623,"R"
257863,"6103 SPRINGWOOD COURT","BALTIMORE","MD",21206,39.3476967820001,-76.528365225,363,"6103 SPRINGWOOD COURT, BALTIMORE, MD, 21206","Match","Exact","6103 SPRINGWOOD CT, BALTIMORE, MD, 21206",191477821,"R"
257864,"6103 TONTO COURT ALEXANDRIA VA","ALEXANDRIA","VA",22312,38.83347429,-77.1382796089999,364,"6103 TONTO COURT ALEXANDRIA VA, ALEXANDRIA, VA, 22312","Match","Exact","6103 TONTO CT, ALEXANDRIA, VA, 22312",75982144,"L"
257865,"6103 WALDEN BROOK DRIVE","LITHONIA","GA",30038,33.7016197660001,-84.1586491579999,365,"6103 WALDEN BROOK DRIVE, LITHONIA, GA, 30038","Match","Exact","6103 WALDEN BROOK DR, LITHONIA, GA, 30038",624990726,"L"
257866,"6103 WEST CAPITAL DRIVE","MILWAUKEE","WI",53216,43.0898989510001,-87.988373064,366,"6103 WEST CAPITAL DRIVE, MILWAUKEE, WI, 53216","Match","Non_Exact","6103 W CAPITOL DR, MILWAUKEE, WI, 53216",648239194,"R"
257867,"61033 220TH AVENUE","MANTORVILLE","MN",55955,44.0659533790001,-92.793278331,367,"61033 220TH AVENUE, MANTORVILLE, MN, 55955","Match","Exact","61033 220TH AVE, MANTORVILLE, MN, 55955",31422427,"R"
257868,"61038 NIAGARA RD","MONTROSE","CO",81403,38.467542334,-107.948062923,368,"61038 NIAGARA RD, MONTROSE, CO, 81403","Match","Exact","61038 NIAGARA RD, MONTROSE, CO, 81403",625289722,"R"
257869,"6104  E PHELPS RD","SCOTTSDALE","AZ",85254,33.6382528890001,-111.944777426,369,"6104  E PHELPS RD, SCOTTSDALE, AZ, 85254","Match","Exact","6104 E PHELPS RD, SCOTTSDALE, AZ, 85254",128260327,"R"
257870,"6104 BREEZEWOOD DRIVE APT 102","GREENBELT","MD",20770,39.0011072990001,-76.907126579,370,"6104 BREEZEWOOD DRIVE APT 102, GREENBELT, MD, 20770","Match","Exact","6104 BREEZEWOOD DR, GREENBELT, MD, 20770",76365028,"L"
257871,"6104 DONOHO STREET","HOUSTON","TX",77033,29.678096452,-95.3249921889999,371,"6104 DONOHO STREET, HOUSTON, TX, 77033","Match","Exact","6104 DONOHO ST, HOUSTON, TX, 77033",96605744,"R"
257872,"6104 E MASTERS DR APT 311","FORT WORTH","TX",76137,32.856690622,-97.290739405,372,"6104 E MASTERS DR APT 311, FORT WORTH, TX, 76137","Match","Non_Exact","6104 MASTERS DR E, FORT WORTH, TX, 76137",102168209,"R"
257873,"6104 FAYETTEVILLE ROAD SUITE 104","DURHAM","NC",27713,35.9161786230001,-78.931860608,373,"6104 FAYETTEVILLE ROAD SUITE 104, DURHAM, NC, 27713","Match","Exact","6104 FAYETTEVILLE RD, DURHAM, NC, 27713",71756674,"R"
257874,"6104 KNOBLE RD E","SPANAWAY","WA",98387,47.073820272,-122.348645564,374,"6104 KNOBLE RD E, SPANAWAY, WA, 98387","Match","Exact","6104 KNOBLE RD E, SPANAWAY, WA, 98387",647953198,"L"
257875,"6104 LITTLE FOXES RUN","COLUMBIA","MD",21045,39.2034213680001,-76.806013955,375,"6104 LITTLE FOXES RUN, COLUMBIA, MD, 21045","Match","Exact","6104 LITTLE FOXES RUN, COLUMBIA, MD, 21045",158934489,"R"
257876,"6104 MCNEELY ROAD","CORRYTON","TN",37721,36.0969001060001,-83.834829686,376,"6104 MCNEELY ROAD, CORRYTON, TN, 37721","Match","Exact","6104 MCNEELY RD, CORRYTON, TN, 37721",42608526,"R"
257877,"6104 OLD FREDERICKSBURG RD 91711","AUSTIN","TX",78709,NA,NA,377,"6104 OLD FREDERICKSBURG RD 91711, AUSTIN, TX, 78709","No_Match",NA,NA,NA,NA
257878,"6104 OLD HWY 48","CUNNINGHAM","TN",37051,36.32197783,-87.3726129409999,378,"6104 OLD HWY 48, CUNNINGHAM, TN, 37051","Match","Non_Exact","6104 HWY 48, CUMBERLAND FURNACE, TN, 37051",31823535,"L"
257879,"6104 POPES CREEK PLACE","HAYMARKET","VA",20169,38.8264829250001,-77.6328894979999,379,"6104 POPES CREEK PLACE, HAYMARKET, VA, 20169","Match","Exact","6104 POPES CREEK PL, HAYMARKET, VA, 20169",619902564,"R"
257880,"6104 RIDGEBURY BOULEVARD","MAYFIELD HEIGHTS","OH",44124,41.5307092640001,-81.458838897,380,"6104 RIDGEBURY BOULEVARD, MAYFIELD HEIGHTS, OH, 44124","Match","Exact","6104 RIDGEBURY BLVD, MAYFIELD HEIGHTS, OH, 44124",61134708,"R"
257881,"6104 S 4TH STREET","TAMPA","FL",33611,27.8790312670001,-82.492847599,381,"6104 S 4TH STREET, TAMPA, FL, 33611","Match","Exact","6104 S 4TH ST, TAMPA, FL, 33611",104529127,"L"
257882,"6104 SAN JUAN AVE 1","CITRUS HEIGHTS","CA",95610,38.676664363,-121.292430323,382,"6104 SAN JUAN AVE 1, CITRUS HEIGHTS, CA, 95610","Match","Exact","6104 SAN JUAN AVE, CITRUS HEIGHTS, CA, 95610",133344468,"R"
257883,"6104 STAFFORDSHIRE CT","RALEIGH","NC",27609,35.8627600630001,-78.635735229,383,"6104 STAFFORDSHIRE CT, RALEIGH, NC, 27609","Match","Exact","6104 STAFFORDSHIRE CT, RALEIGH, NC, 27609",72595865,"R"
257884,"6104 STANDARD MILL RD","RAYNE","LA",70578,30.2150857770001,-92.26598595,384,"6104 STANDARD MILL RD, RAYNE, LA, 70578","Match","Exact","6104 STANDARD MILL RD, RAYNE, LA, 70578",88313066,"R"
257885,"6104 W LINCOLN AVE","WEST ALLIS","WI",53219,43.0029293150001,-87.988968702,385,"6104 W LINCOLN AVE, WEST ALLIS, WI, 53219","Match","Exact","6104 W LINCOLN AVE, WEST ALLIS, WI, 53219",77747688,"R"
257886,"6104 ZEIGLER BLVD","MOBILE","AL",36608,30.7084313570001,-88.182510188,386,"6104 ZEIGLER BLVD, MOBILE, AL, 36608","Match","Exact","6104 ZEIGLER BLVD, MOBILE, AL, 36608",61943750,"R"
257887,"61040 S QUEENS DR UNIT 38","BEND","OR",97702,44.0154530610001,-121.329690505,387,"61040 S QUEENS DR UNIT 38, BEND, OR, 97702","Match","Non_Exact","61040 S QUEENS DR, BEND, OR, 97702",152587178,"L"
257888,"6104A W WALNUT ST","YAKIMA","WA",98908,46.5946153630001,-120.589972021,388,"6104A W WALNUT ST, YAKIMA, WA, 98908","Match","Exact","6104 W WALNUT ST, YAKIMA, WA, 98908",184932871,"L"
257889,"6105 BELWOOD STREET","DISTRICT HEIGHTS","MD",20747,38.8589625590001,-76.901783564,389,"6105 BELWOOD STREET, DISTRICT HEIGHTS, MD, 20747","Match","Exact","6105 BELWOOD ST, DISTRICT HEIGHTS, MD, 20747",76318469,"R"
257890,"6105 BREMEN ROAD SE","LANCASTER","OH",43130,39.7033017110001,-82.4848984289999,390,"6105 BREMEN ROAD SE, LANCASTER, OH, 43130","Match","Exact","6105 BREMEN RD SE, LANCASTER, OH, 43130",37242086,"L"
257891,"6105 CAROUSAL NW","ALBUQUERQUE","NM",87102,NA,NA,391,"6105 CAROUSAL NW, ALBUQUERQUE, NM, 87102","No_Match",NA,NA,NA,NA
257892,"6105 CATCHALL RD","DALZELL","SC",29040,34.01681417,-80.505206027,392,"6105 CATCHALL RD, DALZELL, SC, 29040","Match","Exact","6105 CATCHALL RD, DALZELL, SC, 29040",647241894,"L"
257893,"6105 CR 203","LIVERPOOL","TX",77577,29.2545625010001,-95.237397626,393,"6105 CR 203, LIVERPOOL, TX, 77577","Match","Exact","6105 CO RD 203, LIVERPOOL, TX, 77577",651957305,"R"
257894,"6105 DEEPDALE WAY","ELK GROVE","CA",95758,38.4408010600001,-121.437020862,394,"6105 DEEPDALE WAY, ELK GROVE, CA, 95758","Match","Exact","6105 DEEPDALE WAY, ELK GROVE, CA, 95758",133407203,"L"
257895,"6105 E MT SPOKANE PARK DR","MEAD","WA",99021,47.787384439,-117.323606666,395,"6105 E MT SPOKANE PARK DR, MEAD, WA, 99021","Match","Exact","6105 E MOUNT SPOKANE PARK DR, MEAD, WA, 99021",630733990,"L"
257896,"6105 LINCOLN HIGHWAY","CRESTLINE","OH",44827,40.8081468840001,-82.824632182,396,"6105 LINCOLN HIGHWAY, CRESTLINE, OH, 44827","Match","Exact","6105 LINCOLN HWY, CRESTLINE, OH, 44827",12092450,"L"
257897,"6105 MABLETON PKWY","MABLETON","GA",30126,33.8047272490001,-84.568823488,397,"6105 MABLETON PKWY, MABLETON, GA, 30126","Match","Exact","6105 MABLETON PKWY, MABLETON, GA, 30126",17258257,"L"
257898,"6105 MEMORIAL HWY - STE D","TAMPA","FL",33635,27.9878804260001,-82.5727026929999,398,"6105 MEMORIAL HWY - STE D, TAMPA, FL, 33635","Match","Non_Exact","6105 MEMORIAL HWY, TAMPA, FL, 33615",652548299,"R"
257899,"6105 MORNING VIEW LANE","WESTON","WI",54476,44.913846918,-89.545386981,399,"6105 MORNING VIEW LANE, WESTON, WI, 54476","Match","Exact","6105 MORNING VIEW LN, WESTON, WI, 54476",117150211,"R"
257900,"6105 POLO CLUB DR","CUMMING","GA",30040,34.180687311,-84.208858275,400,"6105 POLO CLUB DR, CUMMING, GA, 30040","Match","Exact","6105 POLO CLUB DR, CUMMING, GA, 30040",70182466,"L"
257901,"6105 POLO DRIVE","CUMMING","GA",30040,34.1822771600001,-84.2091958399999,401,"6105 POLO DRIVE, CUMMING, GA, 30040","Match","Exact","6105 POLO DR, CUMMING, GA, 30040",70184488,"L"
257902,"6105 RICHMANOR TERRACE","UPPER MARLBORO","MD",20772,38.806329878,-76.827589858,402,"6105 RICHMANOR TERRACE, UPPER MARLBORO, MD, 20772","Match","Exact","6105 RICHMANOR TER, UPPER MARLBORO, MD, 20772",76345014,"L"
257903,"6105 S ESTES ST","LITTLETON","CO",80123,39.6055539640001,-105.095982509,403,"6105 S ESTES ST, LITTLETON, CO, 80123","Match","Exact","6105 S ESTES ST, LITTLETON, CO, 80123",177323581,"R"
257904,"6105 S PARKER RD UNIT 1104","AURORA","CO",80016,NA,NA,404,"6105 S PARKER RD UNIT 1104, AURORA, CO, 80016","No_Match",NA,NA,NA,NA
257905,"6105 SPIRIT STREET APT 538","PITTSBURGH","PA",15206,40.459503268,-79.9237884679999,405,"6105 SPIRIT STREET APT 538, PITTSBURGH, PA, 15206","Match","Exact","6105 SPIRIT ST, PITTSBURGH, PA, 15206",646569665,"L"
257906,"6105 STATE ROAD 62","GEORGETOWN","IN",47122,38.2711044650001,-85.923905405,406,"6105 STATE ROAD 62, GEORGETOWN, IN, 47122","Match","Exact","6105 STATE RD 62, GEORGETOWN, IN, 47122",616710919,"R"
257907,"6105 TERRA VISTA COURT","BAKERSFIELD","CA",93308,35.4032194860001,-119.070633515,407,"6105 TERRA VISTA COURT, BAKERSFIELD, CA, 93308","Match","Exact","6105 TERRA VISTA CT, BAKERSFIELD, CA, 93308",109139705,"R"
257908,"6106 112TH PLACE","LIVE OAK","FL",32060,30.248254005,-82.869731803,408,"6106 112TH PLACE, LIVE OAK, FL, 32060","Match","Exact","6106 112TH PL, LIVE OAK, FL, 32060",610558988,"R"
257909,"6106 68TH DRIVE EAST","PALMETTO","FL",34221,27.5682558550001,-82.497008981,409,"6106 68TH DRIVE EAST, PALMETTO, FL, 34221","Match","Exact","6106 68TH DR E, PALMETTO, FL, 34221",640857835,"L"
257910,"6106 BLACK TIE CT","LOUISVILLE","KY",40258,38.1492641240001,-85.865316558,410,"6106 BLACK TIE CT, LOUISVILLE, KY, 40258","Match","Exact","6106 BLACK TIE CT, LOUISVILLE, KY, 40258",96919242,"L"
257911,"6106 CHICAGO ROAD","WARREN","MI",48092,42.5258331320001,-83.044622321,411,"6106 CHICAGO ROAD, WARREN, MI, 48092","Match","Exact","6106 CHICAGO RD, WARREN, MI, 48092",110672088,"R"
257912,"6106 DANVILLE AVENUE","BALTIMORE","MD",21224,39.274637146,-76.5433401609999,412,"6106 DANVILLE AVENUE, BALTIMORE, MD, 21224","Match","Exact","6106 DANVILLE AVE, BALTIMORE, MD, 21224",206458561,"L"
257913,"6106 EASTON RD","PIPERSVILLE","PA",18947,40.392050193,-75.147657744,413,"6106 EASTON RD, PIPERSVILLE, PA, 18947","Match","Exact","6106 EASTON RD, PIPERSVILLE, PA, 18947",636358884,"L"
257914,"6106 GOTHIC LANE","BOWIE","MD",20720,38.9736503010001,-76.769452601,414,"6106 GOTHIC LANE, BOWIE, MD, 20720","Match","Exact","6106 GOTHIC LN, BOWIE, MD, 20720",76398409,"L"
257915,"6106 HANN AVE NW","CANAL FULTON","OH",44614,40.8699472550001,-81.541241471,415,"6106 HANN AVE NW, CANAL FULTON, OH, 44614","Match","Exact","6106 HANN AVE NW, CANAL FULTON, OH, 44614",64667653,"R"
257916,"6106 HAVENVIEW DRIVE","MECHANICSVILLE","VA",23111,37.618008838,-77.3089165809999,416,"6106 HAVENVIEW DRIVE, MECHANICSVILLE, VA, 23111","Match","Exact","6106 HAVENVIEW DR, MECHANICSVILLE, VA, 23111",220555759,"L"
257917,"6106 HIGHWAY 205","MARSHVILLE","NC",28103,35.1293231080001,-80.372252492,417,"6106 HIGHWAY 205, MARSHVILLE, NC, 28103","Match","Non_Exact","6106 STATE HWY 205, MARSHVILLE, NC, 28103",14181874,"R"
257918,"6106 HOLIDAY HILL LANE","ORLANDO","FL",32808,28.575694996,-81.466264262,418,"6106 HOLIDAY HILL LANE, ORLANDO, FL, 32808","Match","Exact","6106 HOLIDAY HILL LN, ORLANDO, FL, 32808",94268977,"L"
257919,"6106 N 7TH STREET","PHILADELPHIA","PA",19120,40.044756729,-75.1324296879999,419,"6106 N 7TH STREET, PHILADELPHIA, PA, 19120","Match","Exact","6106 N 7TH ST, PHILADELPHIA, PA, 19120",131414228,"L"
257920,"6106 OAK STREET","KANSAS CITY","MO",64113,39.016694697,-94.583637545,420,"6106 OAK STREET, KANSAS CITY, MO, 64113","Match","Exact","6106 OAK ST, KANSAS CITY, MO, 64113",91448390,"R"
257921,"6106 PEBBLESHIRE DR","GRAND BLANC","MI",48439,42.941314984,-83.68448877,421,"6106 PEBBLESHIRE DR, GRAND BLANC, MI, 48439","Match","Exact","6106 PEBBLESHIRE DR, GRAND BLANC, MI, 48439",69576365,"R"
257922,"6106 STAGE RD APT 3","BARTLETT","TN",38134,35.2047388060001,-89.859954094,422,"6106 STAGE RD APT 3, BARTLETT, TN, 38134","Match","Exact","6106 STAGE RD, BARTLETT, TN, 38134",613868395,"L"
257923,"6106 SYMPHONY LANE","DALLAS","TX",75227,32.786115426,-96.697342055,423,"6106 SYMPHONY LANE, DALLAS, TX, 75227","Match","Exact","6106 SYMPHONY LN, DALLAS, TX, 75227",102924389,"R"
257924,"6106 W CAMBIATA CT","LAS VEGAS","NV",89139,36.0353533260001,-115.226095613,424,"6106 W CAMBIATA CT, LAS VEGAS, NV, 89139","Match","Exact","6106 W CAMBIATA CT, LAS VEGAS, NV, 89139",627345997,"L"
257925,"6106 WEST 146TH TERRACE","OVERLAND PARK","KS",66223,38.8631380480001,-94.657419832,425,"6106 WEST 146TH TERRACE, OVERLAND PARK, KS, 66223","Match","Exact","6106 W 146TH TER, OVERLAND PARK, KS, 66223",91324441,"L"
257926,"6106 WEST KNIGHTS GRIFFIN ROAD","PLANT CITY","FL",33565,28.0762295480001,-82.203838181,426,"6106 WEST KNIGHTS GRIFFIN ROAD, PLANT CITY, FL, 33565","Match","Exact","6106 W KNIGHTS GRIFFIN RD, PLANT CITY, FL, 33565",104623501,"L"
257927,"6106 WHITEWAY DRIVE","TAMPA","FL",33617,28.0470150130001,-82.387173543,427,"6106 WHITEWAY DRIVE, TAMPA, FL, 33617","Match","Exact","6106 WHITEWAY DR, TAMPA, FL, 33617",104532475,"L"
257928,"6107 ASCOT DR","OAKLAND","CA",94611,37.820592382,-122.196037504,428,"6107 ASCOT DR, OAKLAND, CA, 94611","Match","Exact","6107 ASCOT DR, OAKLAND, CA, 94611",125003828,"L"
257929,"6107 ASPEN RIDGE DRIVE","EAU CLAIRE","WI",54703,44.8575885660001,-91.5252525779999,429,"6107 ASPEN RIDGE DRIVE, EAU CLAIRE, WI, 54703","Match","Exact","6107 ASPEN RIDGE DR, EAU CLAIRE, WI, 54703",650423497,"R"
257930,"6107 COOKS LANE","TEXARKANA","TX",75503,33.479462804,-94.082739918,430,"6107 COOKS LANE, TEXARKANA, TX, 75503","Match","Exact","6107 COOKS LN, TEXARKANA, TX, 75503",57667707,"L"
257931,"6107 DADO DR","NOBLESVILLE","IN",46062,40.0609119270001,-86.065669503,431,"6107 DADO DR, NOBLESVILLE, IN, 46062","Match","Exact","6107 DADO DR, NOBLESVILLE, IN, 46062",29331773,"R"
257932,"6107 DESMOND STREET","CINCINNATI","OH",45227,39.162393819,-84.390349237,432,"6107 DESMOND STREET, CINCINNATI, OH, 45227","Match","Exact","6107 DESMOND ST, CINCINNATI, OH, 45227",103933818,"R"
257933,"6107 DRAWBRIDGE LANE","INDIANAPOLIS","IN",46250,39.922186036,-86.061760159,433,"6107 DRAWBRIDGE LANE, INDIANAPOLIS, IN, 46250","Match","Exact","6107 DRAWBRIDGE LN, INDIANAPOLIS, IN, 46250",107996365,"R"
257934,"6107 DRAWBRIDGE LN","INDIANAPOLIS","IN",46250,39.922186036,-86.061760159,434,"6107 DRAWBRIDGE LN, INDIANAPOLIS, IN, 46250","Match","Exact","6107 DRAWBRIDGE LN, INDIANAPOLIS, IN, 46250",107996365,"R"
257935,"6107 DRYAD DR","HOUSTON","TX",77035,29.6469653670001,-95.498429713,435,"6107 DRYAD DR, HOUSTON, TX, 77035","Match","Exact","6107 DRYAD DR, HOUSTON, TX, 77035",96595506,"L"
257936,"6107 DUCLAY FOREST DRIVE S","JACKSONVILLE","FL",32244,30.212047108,-81.740367291,436,"6107 DUCLAY FOREST DRIVE S, JACKSONVILLE, FL, 32244","Match","Exact","6107 DUCLAY FOREST DR S, JACKSONVILLE, FL, 32244",83912823,"R"
257937,"6107 JOHN CHAPMAN","SAN ANTONIO","TX",78240,29.510723065,-98.602038283,437,"6107 JOHN CHAPMAN, SAN ANTONIO, TX, 78240","Match","Exact","6107 JOHN CHAPMAN, SAN ANTONIO, TX, 78240",101564974,"R"
257938,"6107 MALLOWAY CT","CUMMING","GA",30041,34.13598489,-84.125896412,438,"6107 MALLOWAY CT, CUMMING, GA, 30041","Match","Exact","6107 MALLOWAY CT, CUMMING, GA, 30041",624609199,"L"
257939,"6107 MEADOW ROSE LANE","CHARLOTTE","NC",28215,35.236889311,-80.735538576,439,"6107 MEADOW ROSE LANE, CHARLOTTE, NC, 28215","Match","Exact","6107 MEADOW ROSE LN, CHARLOTTE, NC, 28215",70507877,"L"
257940,"6107 MEADOW ROSE LN","CHARLOTTE","NC",28215,35.236889311,-80.735538576,440,"6107 MEADOW ROSE LN, CHARLOTTE, NC, 28215","Match","Exact","6107 MEADOW ROSE LN, CHARLOTTE, NC, 28215",70507877,"L"
257941,"6107 N SPRINKLE RD","KALAMAZOO","MI",49004,NA,NA,441,"6107 N SPRINKLE RD, KALAMAZOO, MI, 49004","No_Match",NA,NA,NA,NA
257942,"6107 RICHEY RD","CHARLESTOWN","IN",47111,38.512898852,-85.4866493169999,442,"6107 RICHEY RD, CHARLESTOWN, IN, 47111","Match","Exact","6107 RICHEY RD, CHARLESTOWN, IN, 47111",64896330,"L"
257943,"6107 SOUTH 67TH DRIVE","LAVEEN","AZ",85339,33.3907589130001,-112.203830871,443,"6107 SOUTH 67TH DRIVE, LAVEEN, AZ, 85339","Match","Exact","6107 S 67TH DR, LAVEEN, AZ, 85339",244002627,"R"
257944,"6107 SOUTH COURT","MCFARLAND","WI",53558,NA,NA,444,"6107 SOUTH COURT, MCFARLAND, WI, 53558","No_Match",NA,NA,NA,NA
257945,"6107 SOUTHGATE BLVD","MARGATE","FL",33068,26.228186914,-80.2067459909999,445,"6107 SOUTHGATE BLVD, MARGATE, FL, 33068","Match","Exact","6107 SOUTHGATE BLVD, MARGATE, FL, 33068",114692814,"R"
257946,"6107 SPRINGER DRIVE","PORT RICHEY","FL",34668,28.283284892,-82.713741984,446,"6107 SPRINGER DRIVE, PORT RICHEY, FL, 34668","Match","Exact","6107 SPRINGER DR, PORT RICHEY, FL, 34668",86339502,"R"
257947,"6107 SW MURRAY BLVD NO 320","BEAVERTON","OR",97008,NA,NA,447,"6107 SW MURRAY BLVD NO 320, BEAVERTON, OR, 97008","No_Match",NA,NA,NA,NA
257948,"6107 SW MURRAY BLVD PMB 261","BEAVERTON","OR",97008,45.4757086320001,-122.826094929,448,"6107 SW MURRAY BLVD PMB 261, BEAVERTON, OR, 97008","Match","Non_Exact","6107 SW MURRAY BLVD, BEAVERTON, OR, 97008",627138158,"R"
257949,"6107 SW MURRAY BLVD STE 516","BEAVERTON","OR",97008,45.4757086320001,-122.826094929,449,"6107 SW MURRAY BLVD STE 516, BEAVERTON, OR, 97008","Match","Non_Exact","6107 SW MURRAY BLVD, BEAVERTON, OR, 97008",627138158,"R"
257950,"6107 TWILIGHT DRIVE","ZEPHYRHILLS","FL",33540,28.2463171900001,-82.138073587,450,"6107 TWILIGHT DRIVE, ZEPHYRHILLS, FL, 33540","Match","Exact","6107 TWILIGHT DR, ZEPHYRHILLS, FL, 33540",636390375,"R"
257951,"6108 13TH STREET NW","WASHINGTON","DC",20011,38.9648153310001,-77.029912209,451,"6108 13TH STREET NW, WASHINGTON, DC, 20011","Match","Exact","6108 13TH ST NW, WASHINGTON, DC, 20011",76221855,"L"
257952,"6108 3RD AVE","BROOKLYN","NY",11220,40.6415430500001,-74.021288716,452,"6108 3RD AVE, BROOKLYN, NY, 11220","Match","Exact","6108 3RD AVE, BROOKLYN, NY, 11220",59101026,"R"
257953,"6108 61ST DRIVE EAST","PALMETTO","FL",34221,27.569084839,-82.5011313859999,453,"6108 61ST DRIVE EAST, PALMETTO, FL, 34221","Match","Exact","6108 61ST DR E, PALMETTO, FL, 34221",16260978,"R"
257954,"6108 AUGUSTA DR","SPRINGFIELD","VA",22150,38.785632037,-77.180000546,454,"6108 AUGUSTA DR, SPRINGFIELD, VA, 22150","Match","Exact","6108 AUGUSTA DR, SPRINGFIELD, VA, 22150",75983854,"R"
257955,"6108 BICKERSTAFF PL","RICHMOND","VA",23231,37.500171649,-77.385531107,455,"6108 BICKERSTAFF PL, RICHMOND, VA, 23231","Match","Exact","6108 BICKERSTAFF PL, RICHMOND, VA, 23231",106665721,"R"
257956,"6108 BULLARD DRIVE UNIT A","AUSTIN","TX",78757,30.3408808660001,-97.748551471,456,"6108 BULLARD DRIVE UNIT A, AUSTIN, TX, 78757","Match","Exact","6108 BULLARD DR, AUSTIN, TX, 78757",63929163,"L"
257957,"6108 CABIN CREEK ROAD","HOPKINS","SC",29061,33.9110550460001,-80.873314949,457,"6108 CABIN CREEK ROAD, HOPKINS, SC, 29061","Match","Exact","6108 CABIN CREEK RD, HOPKINS, SC, 29061",71833527,"R"
257958,"6108 CHUMUCKLA HWY","PACE","FL",32571,30.6598022100001,-87.1809402109999,458,"6108 CHUMUCKLA HWY, PACE, FL, 32571","Match","Exact","6108 CHUMUCKLA HWY, PACE, FL, 32571",74596072,"R"
257959,"6108 CROOM STATION ROAD","UPPER MARLBORO","MD",20772,38.8056814060001,-76.763804253,459,"6108 CROOM STATION ROAD, UPPER MARLBORO, MD, 20772","Match","Exact","6108 CROOM STATION RD, UPPER MARLBORO, MD, 20772",76355268,"L"
257960,"6108 GATE POST ROAD","CHARLOTTE","NC",28211,35.163525426,-80.7731960739999,460,"6108 GATE POST ROAD, CHARLOTTE, NC, 28211","Match","Exact","6108 GATE POST RD, CHARLOTTE, NC, 28211",70492787,"R"
257961,"6108 GATEWAY DR","GIBSONVILLE","NC",27249,36.0789781290001,-79.628837947,461,"6108 GATEWAY DR, GIBSONVILLE, NC, 27249","Match","Exact","6108 GATEWAY DR, GIBSONVILLE, NC, 27249",131087259,"L"
257962,"6108 HEDGE AVENUE","CINCINNATI","OH",45213,39.1817143550001,-84.4059440029999,462,"6108 HEDGE AVENUE, CINCINNATI, OH, 45213","Match","Exact","6108 HEDGE AVE, CINCINNATI, OH, 45213",103968134,"R"
257963,"6108 N COLLEGE AVE SUITE 200","INDIANAPOLIS","IN",46220,39.8659327400001,-86.146068349,463,"6108 N COLLEGE AVE SUITE 200, INDIANAPOLIS, IN, 46220","Match","Non_Exact","6108 N COLLEGE AVE, INDIANAPOLIS, IN, 46220",107983996,"L"
257964,"6108 ORMSKIRK DR","FAYETTEVILLE","NC",28304,35.031522791,-78.979133885,464,"6108 ORMSKIRK DR, FAYETTEVILLE, NC, 28304","Match","Exact","6108 ORMSKIRK DR, FAYETTEVILLE, NC, 28304",64195797,"L"
257965,"6108 PAPER FLOWER PLACE NE","ALBUQUERQUE","NM",87111,35.1504268370001,-106.483381294,465,"6108 PAPER FLOWER PLACE NE, ALBUQUERQUE, NM, 87111","Match","Exact","6108 PAPER FLOWER PL NE, ALBUQUERQUE, NM, 87111",615117205,"R"
257966,"6108 S UNIVERSITY AVE","CHICAGO","IL",60637,41.7838787260001,-87.597907837,466,"6108 S UNIVERSITY AVE, CHICAGO, IL, 60637","Match","Exact","6108 S UNIVERSITY AVE, CHICAGO, IL, 60637",111771812,"R"
257967,"6108 SHANIA COURT","ATWATER","CA",95301,37.321096052,-120.599007375,467,"6108 SHANIA COURT, ATWATER, CA, 95301","Match","Exact","6108 SHANIA CT, ATWATER, CA, 95301",125343887,"L"
257968,"6108 STATE HIGHWAY 304","ROSANKY","TX",78953,29.8219605200001,-97.3965566539999,468,"6108 STATE HIGHWAY 304, ROSANKY, TX, 78953","Match","Exact","6108 STATE HWY 304, ROSANKY, TX, 78953",45536242,"R"
257969,"6108 STEVENS FOREST ROAD","COLUMBIA","MD",21045,39.2025919010001,-76.846183685,469,"6108 STEVENS FOREST ROAD, COLUMBIA, MD, 21045","Match","Exact","6108 STEVENS FOREST RD, COLUMBIA, MD, 21045",158948653,"R"
257970,"6108 VARINA POINT LANE","HENRICO","VA",23231,37.496715468,-77.4016048889999,470,"6108 VARINA POINT LANE, HENRICO, VA, 23231","Match","Exact","6108 VARINA POINT LN, HENRICO, VA, 23231",106672038,"R"
257971,"6109 10 MILE ROAD NE","ROCKFORD","MI",49341,43.1192933520001,-85.518054201,471,"6109 10 MILE ROAD NE, ROCKFORD, MI, 49341","Match","Exact","6109 10 MILE RD NE, ROCKFORD, MI, 49341",12510735,"L"
257972,"6109 10TH AVE APT 3","LOS ANGELES","CA",90043,33.9844704550001,-118.327907943,472,"6109 10TH AVE APT 3, LOS ANGELES, CA, 90043","Match","Exact","6109 10TH AVE, LOS ANGELES, CA, 90043",141655062,"R"
257973,"6109 32ND PLACE NW","WASHINGTON","DC",20015,38.969989099,-77.065099865,473,"6109 32ND PLACE NW, WASHINGTON, DC, 20015","Match","Exact","6109 32ND PL NW, WASHINGTON, DC, 20015",76219297,"R"
257974,"6109 55TH TERRACE EAST","BRADENTON","FL",34203,27.443004251,-82.4836780209999,474,"6109 55TH TERRACE EAST, BRADENTON, FL, 34203","Match","Exact","6109 55TH TER E, BRADENTON, FL, 34203",16254103,"L"
257975,"6109 BELLONA AVE APT 1D","BALTIMORE","MD",21212,39.36691318,-76.61751084,475,"6109 BELLONA AVE APT 1D, BALTIMORE, MD, 21212","Match","Exact","6109 BELLONA AVE, BALTIMORE, MD, 21212",206465293,"R"
257976,"6109 BROOKWOOD DR APT A","SUFFOLK","VA",23435,36.8747059820001,-76.425868349,476,"6109 BROOKWOOD DR APT A, SUFFOLK, VA, 23435","Match","Exact","6109 BROOKWOOD DR, SUFFOLK, VA, 23435",122232011,"L"
257977,"6109 CALABOOSE LANE","FORT MILL","SC",29707,35.0028096300001,-80.868377035,477,"6109 CALABOOSE LANE, FORT MILL, SC, 29707","Match","Exact","6109 CALABOOSE LN, FORT MILL, SC, 29707",633774762,"L"
257978,"6109 CRAYFORD DR","RALEIGH","NC",27604,35.8418544310001,-78.539361221,478,"6109 CRAYFORD DR, RALEIGH, NC, 27604","Match","Exact","6109 CRAYFORD DR, RALEIGH, NC, 27604",72664750,"L"
257979,"6109 CREOLA RD","CHARLOTTE","NC",28270,35.151076243,-80.789251844,479,"6109 CREOLA RD, CHARLOTTE, NC, 28270","Match","Exact","6109 CREOLA RD, CHARLOTTE, NC, 28270",70574918,"L"
257980,"6109 E HEATHER MOUNTAIN WAY","PALMER","AK",99645,NA,NA,480,"6109 E HEATHER MOUNTAIN WAY, PALMER, AK, 99645","No_Match",NA,NA,NA,NA
257981,"6109 ELLSWORTH AVE","DALLAS","TX",75214,32.8341181280001,-96.7610028939999,481,"6109 ELLSWORTH AVE, DALLAS, TX, 75214","Match","Exact","6109 ELLSWORTH AVE, DALLAS, TX, 75214",102918444,"L"
257982,"6109 FITZGIBBON DRIVE","COLUMBIA","SC",29209,33.986274612,-80.940204928,482,"6109 FITZGIBBON DRIVE, COLUMBIA, SC, 29209","Match","Exact","6109 FITZGIBBON DR, COLUMBIA, SC, 29209",71830132,"R"
257983,"6109 GALLEON DR","MECHANICSBURG","PA",17050,NA,NA,483,"6109 GALLEON DR, MECHANICSBURG, PA, 17050","No_Match",NA,NA,NA,NA
257984,"6109 HIDDEN SPRINGS LANE","GARLAND","TX",75044,32.971281262,-96.681285648,484,"6109 HIDDEN SPRINGS LANE, GARLAND, TX, 75044","Match","Exact","6109 HIDDEN SPRINGS LN, GARLAND, TX, 75044",103168665,"R"
257985,"6109 MULBERRY PARK DRIVE","BRASELTON","GA",30517,34.123584325,-83.826938926,485,"6109 MULBERRY PARK DRIVE, BRASELTON, GA, 30517","Match","Exact","6109 MULBERRY PARK DR, BRASELTON, GA, 30517",618457217,"L"
257986,"6109 N LAMBERT ST","PHILADELPHIA","PA",19138,40.0475709890001,-75.1548765219999,486,"6109 N LAMBERT ST, PHILADELPHIA, PA, 19138","Match","Exact","6109 N LAMBERT ST, PHILADELPHIA, PA, 19138",131413440,"R"
257987,"6109 NEW PEMBROOK LN","FREDERICKSBURG","VA",22407,38.228684829,-77.54574228,487,"6109 NEW PEMBROOK LN, FREDERICKSBURG, VA, 22407","Match","Exact","6109 NEW PEMBROOK LN, FREDERICKSBURG, VA, 22407",85020102,"L"
257988,"6109 S TARREGA LN","MERIDIAN","ID",83646,43.549344815,-116.388360625,488,"6109 S TARREGA LN, MERIDIAN, ID, 83646","Match","Non_Exact","6109 S TARREGA LN, MERIDIAN, ID, 83642",641538669,"L"
257989,"6109 SOARING AVE","TEMPLE TERRACE","FL",33617,28.0603786830001,-82.3877962999999,489,"6109 SOARING AVE, TEMPLE TERRACE, FL, 33617","Match","Exact","6109 SOARING AVE, TEMPLE TER, FL, 33617",104640440,"R"
257990,"6109 STEPHENSON LEVY RD","FORT WORTH","TX",76140,32.5932648940001,-97.259182054,490,"6109 STEPHENSON LEVY RD, FORT WORTH, TX, 76140","Match","Exact","6109 STEPHENSON LEVY RD, FORT WORTH, TX, 76140",642860321,"R"
257991,"6109 W KNIGHTS GRIFFIN RD","PLANT CITY","FL",33565,28.076194937,-82.200493474,491,"6109 W KNIGHTS GRIFFIN RD, PLANT CITY, FL, 33565","Match","Exact","6109 W KNIGHTS GRIFFIN RD, PLANT CITY, FL, 33565",104623501,"R"
257992,"6109 WEST MAUI LANE","GLENDALE","AZ",85306,33.621023607,-112.191293662,492,"6109 WEST MAUI LANE, GLENDALE, AZ, 85306","Match","Exact","6109 W MAUI LN, GLENDALE, AZ, 85306",128174463,"R"
257993,"6109 WHITE PINE WAY","FITCHBURG","WI",53719,43.0159048840001,-89.458995298,493,"6109 WHITE PINE WAY, FITCHBURG, WI, 53719","Match","Exact","6109 WHITE PINE WAY, FITCHBURG, WI, 53719",49509393,"L"
257994,"6109 WUNDERLIN AVENUE","SAN DIEGO","CA",92114,32.7145156340001,-117.065863045,494,"6109 WUNDERLIN AVENUE, SAN DIEGO, CA, 92114","Match","Exact","6109 WUNDERLIN AVE, SAN DIEGO, CA, 92114",195352943,"R"
257995,"61098 BENNETT ROAD","AMITE","LA",70422,30.7399162940001,-90.537177349,495,"61098 BENNETT ROAD, AMITE, LA, 70422","Match","Exact","61098 BENNETT RD, AMITE, LA, 70422",75761138,"R"
257996,"610A WOODDUCK DRIVE","WOODBURY","MN",55125,44.939969504,-92.943328328,496,"610A WOODDUCK DRIVE, WOODBURY, MN, 55125","Match","Exact","610 WOODDUCK DR, WOODBURY, MN, 55125",97830285,"L"
257997,"611 1/2 MAIN STREET","RAPID CITY","SD",57701,44.0811089540001,-103.227289866,497,"611 1/2 MAIN STREET, RAPID CITY, SD, 57701","Match","Exact","611 MAIN ST, RAPID CITY, SD, 57701",205508487,"L"
257998,"611 1/2 PENNSYLVANIA AVENUE SE","WASHINGTON","DC",20003,38.885343864,-76.998074005,498,"611 1/2 PENNSYLVANIA AVENUE SE, WASHINGTON, DC, 20003","Match","Exact","611 PENNSYLVANIA AVE SE, WASHINGTON, DC, 20003",641474058,"R"
257999,"611 10TH ST WEST","ALTOONA","WI",54770,44.803428501,-91.4478293079999,499,"611 10TH ST WEST, ALTOONA, WI, 54770","Match","Non_Exact","611 10TH ST W, ALTOONA, WI, 54720",46068661,"L"
258000,"611 10TH STREET","FORT COLLINS","CO",80524,NA,NA,500,"611 10TH STREET, FORT COLLINS, CO, 80524","Tie",NA,NA,NA,NA
