"ID","Address","City","State","Zip","lat","long","id","input_address","match_indicator","match_type","matched_address","tiger_line_id","tiger_side"
44501,"1275 US HIGHWAY 1","VERO BEACH","FL",32960,27.625800773,-80.3892988379999,1,"1275 US HIGHWAY 1, VERO BEACH, FL, 32960","Match","Exact","1275 US HWY 1, VERO BEACH, FL, 32960",120310447,"L"
44502,"1275 WALNUT PL","ELKINS","AR",72727,36.025571357,-94.028811812,2,"1275 WALNUT PL, ELKINS, AR, 72727","Match","Exact","1275 WALNUT PL, ELKINS, AR, 72727",49089332,"L"
44503,"1275 WOODCREST TERRACE","WOODLYN","PA",19094,39.877271411,-75.343431063,3,"1275 WOODCREST TERRACE, WOODLYN, PA, 19094","Match","Non_Exact","1275 WOODCREST RD, WOODLYN, PA, 19094",134881205,"L"
44504,"12750 ATKINSON ROAD","LODI","CA",95240,38.0910978570001,-121.157275747,4,"12750 ATKINSON ROAD, LODI, CA, 95240","Match","Exact","12750 ATKINSON RD, LODI, CA, 95240",600306060,"R"
44505,"12750 CADMUS RD","CLAYTON","MI",49235,41.8710570920001,-84.269656486,5,"12750 CADMUS RD, CLAYTON, MI, 49235","Match","Exact","12750 CADMUS RD, CLAYTON, MI, 49235",25962546,"L"
44506,"12750 CARNATION ST","EASTVALE","CA",92880,33.968604623,-117.56096711,6,"12750 CARNATION ST, EASTVALE, CA, 92880","Match","Exact","12750 CARNATION ST, EASTVALE, CA, 92880",633955836,"R"
44507,"12750 COUNTY ROAD 7","MEAD","CO",80504,40.1863926510001,-104.998243515,7,"12750 COUNTY ROAD 7, MEAD, CO, 80504","Match","Exact","12750 CO RD 7, MEAD, CO, 80504",188746416,"R"
44508,"12750 JEFFERSON DAVIS HGHWY 145","CHESTER","VA",23831,37.35256314,-77.412398187,8,"12750 JEFFERSON DAVIS HGHWY 145, CHESTER, VA, 23831","Match","Exact","12750 JEFFERSON DAVIS HWY, CHESTER, VA, 23831",201579175,"R"
44509,"12750 JEFFERSON DAVIS HWY 110","CHESTER","VA",23831,37.35256314,-77.412398187,9,"12750 JEFFERSON DAVIS HWY 110, CHESTER, VA, 23831","Match","Exact","12750 JEFFERSON DAVIS HWY, CHESTER, VA, 23831",201579175,"R"
44510,"12750 JEFFERSON DAVIS HWY STE 344","CHESTER","VA",23831,37.35256314,-77.412398187,10,"12750 JEFFERSON DAVIS HWY STE 344, CHESTER, VA, 23831","Match","Exact","12750 JEFFERSON DAVIS HWY, CHESTER, VA, 23831",201579175,"R"
44511,"12750 JEFFERSON DAVIS HWY SUITE 12","CHESTER","VA",23834,37.35256314,-77.412398187,11,"12750 JEFFERSON DAVIS HWY SUITE 12, CHESTER, VA, 23834","Match","Non_Exact","12750 JEFFERSON DAVIS HWY, CHESTER, VA, 23831",201579175,"R"
44512,"12750 LARCHWOOD DR","LA PINE","OR",97739,43.5306426430001,-121.468392528,12,"12750 LARCHWOOD DR, LA PINE, OR, 97739","Match","Exact","12750 LARCHWOOD DR, LA PINE, OR, 97739",614469556,"R"
44513,"12750 SW 119 ST","MIAMI","FL",33186,25.6582978110001,-80.400599072,13,"12750 SW 119 ST, MIAMI, FL, 33186","Match","Non_Exact","12750 SW 119TH ST, MIAMI, FL, 33186",115968141,"R"
44514,"12750 SW 218 TERR","MIAMI","FL",33170,25.563889235,-80.398327508,14,"12750 SW 218 TERR, MIAMI, FL, 33170","Match","Exact","12750 SW 218TH TER, MIAMI, FL, 33170",116065558,"L"
44515,"12750 VERNON AVE","HUNTINGTON WOODS","MI",48070,42.4812194200001,-83.174429488,15,"12750 VERNON AVE, HUNTINGTON WOODS, MI, 48070","Match","Exact","12750 VERNON AVE, HUNTINGTON WOODS, MI, 48070",69741654,"R"
44516,"12751 ABERDEEN ST APT B","BLAIN","MN",55449,45.2017663920001,-93.232471715,16,"12751 ABERDEEN ST APT B, BLAIN, MN, 55449","Match","Non_Exact","12751 ABERDEEN ST NE, BLAINE, MN, 55449",97518656,"R"
44517,"12751 FINCHLEY STREET","BALDWIN PARK","CA",91706,34.0740602230001,-117.995676017,17,"12751 FINCHLEY STREET, BALDWIN PARK, CA, 91706","Match","Exact","12751 FINCHLEY ST, BALDWIN PARK, CA, 91706",141650977,"L"
44518,"12752 CHASE ST","GARDEN GROVE","CA",92845,33.7775292790001,-118.028939582,18,"12752 CHASE ST, GARDEN GROVE, CA, 92845","Match","Exact","12752 CHASE ST, GARDEN GROVE, CA, 92845",144003673,"L"
44519,"12752 KINGSTON PIKE SUITE 103","KNOXVILLE","TN",37934,35.867395055,-84.209420273,19,"12752 KINGSTON PIKE SUITE 103, KNOXVILLE, TN, 37934","Match","Exact","12752 KINGSTON PIKE, KNOXVILLE, TN, 37934",645585284,"R"
44520,"12752 PATRICIA AVE","GRANT","MI",49327,43.32351285,-85.7081738529999,20,"12752 PATRICIA AVE, GRANT, MI, 49327","Match","Exact","12752 PATRICIA AVE, GRANT, MI, 49327",150223402,"R"
44521,"12753 TALL OAK LN","HAYWARD","WI",54843,NA,NA,21,"12753 TALL OAK LN, HAYWARD, WI, 54843","No_Match",NA,NA,NA,NA
44522,"12754 ALDER WOODS DR","FAIRFAX","VA",22033,38.8838343370001,-77.387897104,22,"12754 ALDER WOODS DR, FAIRFAX, VA, 22033","Match","Exact","12754 ALDER WOODS DR, FAIRFAX, VA, 22033",636739021,"R"
44523,"12754 ALDERWOOD DR","LA PINE","OR",97739,43.534270689,-121.468969387,23,"12754 ALDERWOOD DR, LA PINE, OR, 97739","Match","Exact","12754 ALDERWOOD DR, LA PINE, OR, 97739",156669924,"L"
44524,"12754 CORIANDER CT","RANCHO CUCAMONGA","CA",91739,34.1352530730001,-117.526732629,24,"12754 CORIANDER CT, RANCHO CUCAMONGA, CA, 91739","Match","Exact","12754 CORIANDER CT, ETIWANDA, CA, 91739",144693725,"L"
44525,"12754 E 2300 NORTH RD","HUDSON","IL",61748,40.620743755,-89.027329278,25,"12754 E 2300 NORTH RD, HUDSON, IL, 61748","Match","Exact","12754 E 2300 NORTH RD, HUDSON, IL, 61748",20590351,"R"
44526,"12755 BROOKHURST ST STE 115","GARDEN GROVE","CA",92840,33.7773972470001,-117.957371932,26,"12755 BROOKHURST ST STE 115, GARDEN GROVE, CA, 92840","Match","Exact","12755 BROOKHURST ST, GARDEN GROVE, CA, 92840",630942367,"R"
44527,"12755 CENTURY DR STE C","ALPHARETTA","GA",30009,34.0913460570001,-84.294168703,27,"12755 CENTURY DR STE C, ALPHARETTA, GA, 30009","Match","Exact","12755 CENTURY DR, ALPHARETTA, GA, 30009",618448995,"R"
44528,"12755 EAST 1410 ROAD","STOCKTON","MO",65785,37.6944023620001,-93.8399065,28,"12755 EAST 1410 ROAD, STOCKTON, MO, 65785","Match","Exact","12755 E 1410 RD, STOCKTON, MO, 65785",625246744,"R"
44529,"12755 NORTH 8500 EAST BX 471","SPRING CITY","UT",84662,NA,NA,29,"12755 NORTH 8500 EAST BX 471, SPRING CITY, UT, 84662","No_Match",NA,NA,NA,NA
44530,"12755 S MUR-LEN RD","OLATHE","KS",66062,38.8958231980001,-94.779555074,30,"12755 S MUR-LEN RD, OLATHE, KS, 66062","Match","Exact","12755 S MUR-LEN RD, OLATHE, KS, 66062",91295199,"R"
44531,"12755 STRAWBERRY CIRCLE","LONGMONT","CO",80503,40.205613344,-105.134486795,31,"12755 STRAWBERRY CIRCLE, LONGMONT, CO, 80503","Match","Exact","12755 STRAWBERRY CIR, LONGMONT, CO, 80503",641433485,"R"
44532,"12755 SW 25TH TER","MIAMI","FL",33175,25.744465099,-80.401611181,32,"12755 SW 25TH TER, MIAMI, FL, 33175","Match","Non_Exact","12755 SW 25TH TER, MIAMI, FL, 33175",115964526,"R"
44533,"12756 FM 69 S","COMO","TX",75431,NA,NA,33,"12756 FM 69 S, COMO, TX, 75431","No_Match",NA,NA,NA,NA
44534,"12757 BASE LINE RD","KINGSTON","IL",60145,42.0664404570001,-88.704509574,34,"12757 BASE LINE RD, KINGSTON, IL, 60145","Match","Exact","12757 BASE LINE RD, KINGSTON, IL, 60145",52266436,"R"
44535,"12758 FREMANTLE PL APT 202D","TAMPA","FL",33612,28.0649572140001,-82.439147825,35,"12758 FREMANTLE PL APT 202D, TAMPA, FL, 33612","Match","Non_Exact","12758 FREEMANTLE PL, TAMPA, FL, 33612",625709994,"R"
44536,"12759 BIGGS ST / BLDG 121","HOMESTEAD","FL",33039,NA,NA,36,"12759 BIGGS ST / BLDG 121, HOMESTEAD, FL, 33039","No_Match",NA,NA,NA,NA
44537,"12759 CALLE DE LAS ROSAS","SAN DIEGO","CA",92129,32.9514009430001,-117.117523446,37,"12759 CALLE DE LAS ROSAS, SAN DIEGO, CA, 92129","Match","Non_Exact","12759 CLL DE LAS ROSAS, SAN DIEGO, CA, 92129",195318530,"R"
44538,"12759 W REDONDO DR","LITCHFIELD PARK","AZ",85340,33.495904324,-112.333911878,38,"12759 W REDONDO DR, LITCHFIELD PARK, AZ, 85340","Match","Exact","12759 W REDONDO DR, LITCHFIELD PARK, AZ, 85340",128858440,"L"
44539,"1275A RUCKMAN AVENUE","SAN FRANCISCO","CA",94129,37.802026004,-122.470964685,39,"1275A RUCKMAN AVENUE, SAN FRANCISCO, CA, 94129","Match","Exact","1275 RUCKMAN AVE, SAN FRANCISCO, CA, 94129",192278842,"L"
44540,"1276  20TH AVE","GARY","IN",46407,NA,NA,40,"1276  20TH AVE, GARY, IN, 46407","Tie",NA,NA,NA,NA
44541,"1276 41ST AVE","VERO BEACH","FL",32960,27.625092524,-80.4276295619999,41,"1276 41ST AVE, VERO BEACH, FL, 32960","Match","Exact","1276 41ST AVE, VERO BEACH, FL, 32960",120316818,"R"
44542,"1276 E CHICAGO AVE STE 100","NAPERVILLE","IL",60540,41.7765883500001,-88.120234825,42,"1276 E CHICAGO AVE STE 100, NAPERVILLE, IL, 60540","Match","Non_Exact","1276 E CHICAGO AVE, NAPERVILLE, IL, 60540",112677833,"R"
44543,"1276 EDMUND AVE","ST. PAUL","MN",55104,44.9584134770001,-93.153465098,43,"1276 EDMUND AVE, ST. PAUL, MN, 55104","Match","Non_Exact","1276 W EDMUND AVE, SAINT PAUL, MN, 55104",97642180,"L"
44544,"1276 FAXON AVE","MEMPHIS","TN",38104,35.155311625,-90.016285657,44,"1276 FAXON AVE, MEMPHIS, TN, 38104","Match","Exact","1276 FAXON AVE, MEMPHIS, TN, 38104",72904649,"L"
44545,"1276 HARMON AVE","AKRON","OH",44307,41.0692463010001,-81.5580597269999,45,"1276 HARMON AVE, AKRON, OH, 44307","Match","Exact","1276 HARMON AVE, AKRON, OH, 44307",61340073,"R"
44546,"1276 INDUSTRIAL BLVD SUITE 2","GAINESVILLE","GA",30501,34.2735124710001,-83.8374437909999,46,"1276 INDUSTRIAL BLVD SUITE 2, GAINESVILLE, GA, 30501","Match","Exact","1276 INDUSTRIAL BLVD, GAINESVILLE, GA, 30501",98252369,"L"
44547,"1276 JEFFERSON AVE","EAST POINT","GA",30344,33.684883223,-84.4308329959999,47,"1276 JEFFERSON AVE, EAST POINT, GA, 30344","Match","Exact","1276 JEFFERSON AVE, EAST POINT, GA, 30344",17348149,"L"
44548,"1276 NEEDHAM CIRCLE","HATFIELD","PA",19440,40.2857121420001,-75.26627759,48,"1276 NEEDHAM CIRCLE, HATFIELD, PA, 19440","Match","Exact","1276 NEEDHAM CIR, HATFIELD, PA, 19440",135101621,"R"
44549,"1276 QUINCY CIRCLE","SHAKOPEE","MN",55379,44.7812564010001,-93.5418726249999,49,"1276 QUINCY CIRCLE, SHAKOPEE, MN, 55379","Match","Exact","1276 QUINCY CIR, SHAKOPEE, MN, 55379",38152485,"L"
44550,"1276 ROTHWELL DR","TROY","MI",48084,42.5751583480001,-83.172702289,50,"1276 ROTHWELL DR, TROY, MI, 48084","Match","Exact","1276 ROTHWELL DR, TROY, MI, 48084",69819458,"L"
44551,"1276 SANGRIA CIRCLE","ROCKLEDGE","FL",32955,28.3443828360001,-80.7539352809999,51,"1276 SANGRIA CIRCLE, ROCKLEDGE, FL, 32955","Match","Exact","1276 SANGRIA CIR, ROCKLEDGE, FL, 32955",633847849,"L"
44552,"1276 SCHEFFER AVE","SAINT PAUL","MN",55116,44.921503467,-93.154005559,52,"1276 SCHEFFER AVE, SAINT PAUL, MN, 55116","Match","Non_Exact","1276 W SCHEFFER AVE, SAINT PAUL, MN, 55116",97646958,"L"
44553,"1276 TERRA NOVA BLVD","PACIFICA","CA",94044,37.5882010390001,-122.477292038,53,"1276 TERRA NOVA BLVD, PACIFICA, CA, 94044","Match","Exact","1276 TERRA NOVA BLVD, PACIFICA, CA, 94044",192370039,"L"
44554,"1276 WILSON AVE APT 323","ST PAUL","MN",55106,44.954075796,-93.046630065,54,"1276 WILSON AVE APT 323, ST PAUL, MN, 55106","Match","Exact","1276 WILSON AVE, SAINT PAUL, MN, 55106",97666956,"R"
44555,"1276 WINDSOR GLEN DRIVE","DOUGLASVILLE","GA",30134,33.7702611770001,-84.6985340909999,55,"1276 WINDSOR GLEN DRIVE, DOUGLASVILLE, GA, 30134","Match","Exact","1276 WINDSOR GLEN DR, DOUGLASVILLE, GA, 30134",642633127,"R"
44556,"12760 N 1ST AVE PO BOX 598","LINDSTROM","MN",55045,45.3902864040001,-92.848594474,56,"12760 N 1ST AVE PO BOX 598, LINDSTROM, MN, 55045","Match","Non_Exact","12760 1ST AVE N, LINDSTROM, MN, 55045",97566892,"R"
44557,"12760 ROAN AVE","BATON ROUGE","LA",70810,30.3547961690001,-91.083160261,57,"12760 ROAN AVE, BATON ROUGE, LA, 70810","Match","Exact","12760 ROAN AVE, BATON ROUGE, LA, 70810",92204712,"R"
44558,"12761 COTTONWOOD LANE","NORTH ROYALTON","OH",44133,41.282791337,-81.7807706849999,58,"12761 COTTONWOOD LANE, NORTH ROYALTON, OH, 44133","Match","Exact","12761 COTTONWOOD LN, N ROYALTON, OH, 44133",61147247,"R"
44559,"12761 DARBY BROOKE COURT - STE 101","WOODBRIDGE","VA",22192,38.6755934780001,-77.2645810229999,59,"12761 DARBY BROOKE COURT - STE 101, WOODBRIDGE, VA, 22192","Match","Non_Exact","12761 DARBY BROOK CT, WOODBRIDGE, VA, 22192",207157833,"R"
44560,"12762 FLAT WOOD CREEK","GIBSONTON","FL",33534,27.8089935960001,-82.349226185,60,"12762 FLAT WOOD CREEK, GIBSONTON, FL, 33534","Match","Non_Exact","12762 FLATWOOD CREEK DR, GIBSONTON, FL, 33534",646619188,"L"
44561,"12764 HWY 2","BERNICE","LA",71222,32.793295159,-92.586955328,61,"12764 HWY 2, BERNICE, LA, 71222","Match","Non_Exact","12764 STATE RTE 2, BERNICE, LA, 71222",150050749,"R"
44562,"12765 NEW HALLS FERRY RD","FLORISSANT","MO",63033,38.790968741,-90.2846844969999,62,"12765 NEW HALLS FERRY RD, FLORISSANT, MO, 63033","Match","Exact","12765 NEW HALLS FERRY RD, FLORISSANT, MO, 63033",100194768,"L"
44563,"12765 W FOREST HILL BLVD SUITE 1312","WELLINGTON","FL",33414,26.671552309,-80.247174872,63,"12765 W FOREST HILL BLVD SUITE 1312, WELLINGTON, FL, 33414","Match","Exact","12765 FOREST HILL BLVD, WELLINGTON, FL, 33414",647653442,"R"
44564,"12768 BOMBAY WAY","WOODBRIDGE","VA",22192,38.67665785,-77.331037587,64,"12768 BOMBAY WAY, WOODBRIDGE, VA, 22192","Match","Exact","12768 BOMBAY WAY, WOODBRIDGE, VA, 22192",76532018,"L"
44565,"12768 S CLOVERDALE RD","KUNA","ID",83634,43.4867052980001,-116.334431503,65,"12768 S CLOVERDALE RD, KUNA, ID, 83634","Match","Exact","12768 S CLOVERDALE RD, KUNA, ID, 83634",117844660,"R"
44566,"12768 SWEET HILL RD","POLK CITY","FL",33868,28.2125107250001,-81.721065396,66,"12768 SWEET HILL RD, POLK CITY, FL, 33868","Match","Exact","12768 SWEET HILL RD, POLK CITY, FL, 33868",628982900,"L"
44567,"1276A EAST 4100 NORTH","BUHL","ID",83316,42.5933395050001,-114.796261047,67,"1276A EAST 4100 NORTH, BUHL, ID, 83316","Match","Exact","1276 E 4100 N, BUHL, ID, 83316",118787357,"R"
44568,"1277 ANDOVER CIRCLE","AURORA","IL",60504,41.733241551,-88.2357042199999,68,"1277 ANDOVER CIRCLE, AURORA, IL, 60504","Match","Exact","1277 ANDOVER CIR, AURORA, IL, 60504",639888276,"R"
44569,"1277 ASHLAND DR","COLUMBIA","SC",29229,34.189405133,-80.899622407,69,"1277 ASHLAND DR, COLUMBIA, SC, 29229","Match","Exact","1277 ASHLAND DR, COLUMBIA, SC, 29229",627499264,"R"
44570,"1277 BARTONSHIRE WAY","ROCKVILLE","MD",20854,39.0601253150001,-77.1695728079999,70,"1277 BARTONSHIRE WAY, ROCKVILLE, MD, 20854","Match","Exact","1277 BARTONSHIRE WAY, ROCKVILLE, MD, 20854",62054098,"R"
44571,"1277 BELMONT ROAD","LEBANON JUNCTION","KY",40150,37.8945891700001,-85.7213037719999,71,"1277 BELMONT ROAD, LEBANON JUNCTION, KY, 40150","Match","Non_Exact","1277 BELMONT DR, LEBANON JCT, KY, 40150",47746264,"R"
44572,"1277 BRENTWOOD ROAD NE 5","WASHINGTON","DC",20018,38.9230172800001,-76.9883839349999,72,"1277 BRENTWOOD ROAD NE 5, WASHINGTON, DC, 20018","Match","Exact","1277 BRENTWOOD RD NE, WASHINGTON, DC, 20018",76228916,"R"
44573,"1277 BRIDGES AVENUE","ATLANTA","GA",30310,33.726493652,-84.429689949,73,"1277 BRIDGES AVENUE, ATLANTA, GA, 30310","Match","Non_Exact","1277 BRIDGES AVE SW, ATLANTA, GA, 30310",17341392,"R"
44574,"1277 CHERRY ST","MADERA","CA",93638,36.947598982,-120.042358973,74,"1277 CHERRY ST, MADERA, CA, 93638","Match","Exact","1277 CHERRY ST, MADERA, CA, 93638",650896657,"L"
44575,"1277 CHESTNUT STREET","MANCHESTER","NH",3104,43.023110203,-71.4661706109999,75,"1277 CHESTNUT STREET, MANCHESTER, NH, 3104","Match","Exact","1277 CHESTNUT ST, MANCHESTER, NH, 03104",113545920,"R"
44576,"1277 DECATUR","MEMPHIS","TN",38107,35.1751941950001,-90.0232154669999,76,"1277 DECATUR, MEMPHIS, TN, 38107","Match","Non_Exact","1277 DECATUR ST, MEMPHIS, TN, 38107",72902402,"L"
44577,"1277 E GRANDVIEW BOULEVARD","ERIE","PA",16504,42.106359061,-80.033560269,77,"1277 E GRANDVIEW BOULEVARD, ERIE, PA, 16504","Match","Exact","1277 E GRANDVIEW BLVD, ERIE, PA, 16504",634307388,"R"
44578,"1277 ESSEX DRIVE","DESOTO","TX",75115,32.6143832980001,-96.8353119879999,78,"1277 ESSEX DRIVE, DESOTO, TX, 75115","Match","Exact","1277 ESSEX DR, DESOTO, TX, 75115",103188559,"L"
44579,"1277 GREEN HOLLY DRIVE","ANNAPOLIS","MD",21409,39.03734919,-76.4567088049999,79,"1277 GREEN HOLLY DRIVE, ANNAPOLIS, MD, 21409","Match","Exact","1277 GREEN HOLLY DR, ANNAPOLIS, MD, 21409",68174912,"L"
44580,"1277 JAMACHA ROAD","EL CAJON","CA",92019,32.774987679,-116.927864138,80,"1277 JAMACHA ROAD, EL CAJON, CA, 92019","Match","Exact","1277 JAMACHA RD, EL CAJON, CA, 92019",195333969,"L"
44581,"1277 LAKE SHORE DRIVE","IOWA CITY","IA",52246,41.647462214,-91.605896155,81,"1277 LAKE SHORE DRIVE, IOWA CITY, IA, 52246","Match","Exact","1277 LAKE SHORE DR, IOWA CITY, IA, 52246",84510232,"L"
44582,"1277 PACIFIC OAKS PL STE 101","ESCONDIDO","CA",92029,33.1082537250001,-117.116660189,82,"1277 PACIFIC OAKS PL STE 101, ESCONDIDO, CA, 92029","Match","Exact","1277 PACIFIC OAKS PL, ESCONDIDO, CA, 92029",612871511,"R"
44583,"1277 PROMINENT DR","BRENTWOOD","CA",94513,37.965622834,-121.717361926,83,"1277 PROMINENT DR, BRENTWOOD, CA, 94513","Match","Exact","1277 PROMINENT DR, BRENTWOOD, CA, 94513",627124964,"R"
44584,"1277 ROZAR GOOLSBY RD","EASTMAN","GA",31023,32.221905914,-83.259725354,84,"1277 ROZAR GOOLSBY RD, EASTMAN, GA, 31023","Match","Non_Exact","1277 ROZAR-GOOLSBY RD, EASTMAN, GA, 31023",9525946,"L"
44585,"1277 S COUNTY ROAD 800 E","GREENSBURG","IN",47240,39.3188926180001,-85.335225662,85,"1277 S COUNTY ROAD 800 E, GREENSBURG, IN, 47240","Match","Exact","1277 S CO RD 800 E, GREENSBURG, IN, 47240",31184250,"L"
44586,"1277 TOMICH AVENUE","RICHLAND","WA",99352,46.2501976940001,-119.330784871,86,"1277 TOMICH AVENUE, RICHLAND, WA, 99352","Match","Exact","1277 TOMICH AVE, RICHLAND, WA, 99352",607001774,"R"
44587,"1277 WISTERIA DRIVE","ANN ARBOR","MI",48104,42.258569858,-83.734033821,87,"1277 WISTERIA DRIVE, ANN ARBOR, MI, 48104","Match","Exact","1277 WISTERIA DR, ANN ARBOR, MI, 48104",653875505,"L"
44588,"1277 WOODLAND CHURCH RD","WAKE FOREST","NC",27587,36.0935117560001,-78.572527275,88,"1277 WOODLAND CHURCH RD, WAKE FOREST, NC, 27587","Match","Exact","1277 WOODLAND CHURCH RD, WAKE FOREST, NC, 27587",611857239,"L"
44589,"12770 TADWORTH PL APT 302","WOODBRIDGE","VA",22193,38.6769306080001,-77.3628708259999,89,"12770 TADWORTH PL APT 302, WOODBRIDGE, VA, 22193","Match","Exact","12770 TADWORTH PL, WOODBRIDGE, VA, 22193",76523428,"L"
44590,"12770 TERREVERDE COURT 2","FORT MYERS","FL",33908,NA,NA,90,"12770 TERREVERDE COURT 2, FORT MYERS, FL, 33908","No_Match",NA,NA,NA,NA
44591,"12771 CASITY LANE","GALT","CA",95632,38.2918421050001,-121.308708903,91,"12771 CASITY LANE, GALT, CA, 95632","Match","Exact","12771 CASITY LN, GALT, CA, 95632",627044042,"L"
44592,"12771 SPRING MOUNTAIN DRIVE","RANCHO CUCAMONGA","CA",91739,34.1158512980001,-117.526533421,92,"12771 SPRING MOUNTAIN DRIVE, RANCHO CUCAMONGA, CA, 91739","Match","Exact","12771 SPRING MOUNTAIN DR, ETIWANDA, CA, 91739",614815046,"R"
44593,"12771 SW 49TH COURT","MIRAMAR","FL",33027,25.963473214,-80.315528733,93,"12771 SW 49TH COURT, MIRAMAR, FL, 33027","Match","Exact","12771 SW 49TH CT, MIRAMAR, FL, 33027",114817851,"L"
44594,"12771 SW TOOZE ROAD","SHERWOOD","OR",97140,45.324516207,-122.80975237,94,"12771 SW TOOZE ROAD, SHERWOOD, OR, 97140","Match","Exact","12771 SW TOOZE RD, SHERWOOD, OR, 97140",157928629,"L"
44595,"12771 W BURNSIDE TRL","PEORIA","AZ",85383,33.7751976600001,-112.336631758,95,"12771 W BURNSIDE TRL, PEORIA, AZ, 85383","Match","Exact","12771 W BURNSIDE TRL, PEORIA, AZ, 85383",649263958,"R"
44596,"12772 SHAPELL COURT","JACKSONVILLE","FL",32223,30.136896983,-81.597906807,96,"12772 SHAPELL COURT, JACKSONVILLE, FL, 32223","Match","Exact","12772 SHAPELL CT, JACKSONVILLE, FL, 32223",83921514,"R"
44597,"12773 BIRWOOD ST","DETROIT","MI",48238,42.3817045550001,-83.163131597,97,"12773 BIRWOOD ST, DETROIT, MI, 48238","Match","Exact","12773 BIRWOOD ST, DETROIT, MI, 48238",95442520,"L"
44598,"12774 CLAWSON LANE","MANASSAS","VA",20112,38.677445542,-77.392389619,98,"12774 CLAWSON LANE, MANASSAS, VA, 20112","Match","Exact","12774 CLAWSON LN, MANASSAS, VA, 20112",207157938,"L"
44599,"12774 WISTERIA DR","GERMANTOWN","MD",20875,39.1754431620001,-77.267477356,99,"12774 WISTERIA DR, GERMANTOWN, MD, 20875","Match","Non_Exact","12774 WISTERIA DR, GERMANTOWN, MD, 20874",62046013,"R"
44600,"12774 WISTERIA DRIVE PO BOX 2482","GERMANTOWN","MD",20874,39.1754431620001,-77.267477356,100,"12774 WISTERIA DRIVE PO BOX 2482, GERMANTOWN, MD, 20874","Match","Exact","12774 WISTERIA DR, GERMANTOWN, MD, 20874",62046013,"R"
44601,"12775 MEDFIELD DR SUITE F","HOUSTON","TX",77082,29.717447344,-95.609519314,101,"12775 MEDFIELD DR SUITE F, HOUSTON, TX, 77082","Match","Exact","12775 MEDFIELD DR, HOUSTON, TX, 77082",96612662,"R"
44602,"12775 N AVONDALE LOOP","HAYDEN","ID",83835,47.7828990420001,-116.753957083,102,"12775 N AVONDALE LOOP, HAYDEN, ID, 83835","Match","Exact","12775 N AVONDALE LOOP, HAYDEN, ID, 83835",192955360,"L"
44603,"12775 PHILLIP DR","CALEDONIA","MN",55921,43.621090688,-91.505191773,103,"12775 PHILLIP DR, CALEDONIA, MN, 55921","Match","Exact","12775 PHILLIP DR, CALEDONIA, MN, 55921",55818401,"L"
44604,"12775 SW FAIRCREST ST","PORTLAND","OR",97225,45.50514794,-122.808271339,104,"12775 SW FAIRCREST ST, PORTLAND, OR, 97225","Match","Exact","12775 SW FAIRCREST ST, PORTLAND, OR, 97225",158185311,"R"
44605,"12777 ASHFORD POINT DRIVE APT 717","HOUSTON","TX",77082,29.71957273,-95.608719843,105,"12777 ASHFORD POINT DRIVE APT 717, HOUSTON, TX, 77082","Match","Exact","12777 ASHFORD POINT DR, HOUSTON, TX, 77082",96612870,"R"
44606,"12777 ASHFORD POINT DRIVE UNIT 1419","HOUSTON","MN",77082,NA,NA,106,"12777 ASHFORD POINT DRIVE UNIT 1419, HOUSTON, MN, 77082","No_Match",NA,NA,NA,NA
44607,"12777 JONES RD STE 400","HOUSTON","TX",77070,29.9586900050001,-95.5850289699999,107,"12777 JONES RD STE 400, HOUSTON, TX, 77070","Match","Exact","12777 JONES RD, HOUSTON, TX, 77070",642109024,"R"
44608,"12777 JONES ROAD SUITE 400","HOUSTON","TX",77070,29.9586900050001,-95.5850289699999,108,"12777 JONES ROAD SUITE 400, HOUSTON, TX, 77070","Match","Exact","12777 JONES RD, HOUSTON, TX, 77070",642109024,"R"
44609,"12777 W JEFFERSON BLVD BLDG D 3RDFL","LOS ANGELES","CA",90066,33.977453503,-118.418071735,109,"12777 W JEFFERSON BLVD BLDG D 3RDFL, LOS ANGELES, CA, 90066","Match","Non_Exact","12777 W JEFFERSON BLVD, LOS ANGELES, CA, 90066",241169859,"R"
44610,"12778 COMMONWEALTH STREET","SOUTHGATE","MI",48195,42.2058555520001,-83.181361044,110,"12778 COMMONWEALTH STREET, SOUTHGATE, MI, 48195","Match","Exact","12778 COMMONWEALTH ST, SOUTHGATE, MI, 48195",95451954,"R"
44611,"12778 ZOOK SPUR RD","MADRID","IA",50156,41.8549118330001,-93.8322350779999,111,"12778 ZOOK SPUR RD, MADRID, IA, 50156","Match","Exact","12778 ZOOK SPUR RD, MADRID, IA, 50156",65631714,"R"
44612,"12779 DONNYBROOK LN","CARTHAGE","MO",64836,NA,NA,112,"12779 DONNYBROOK LN, CARTHAGE, MO, 64836","No_Match",NA,NA,NA,NA
44613,"12779 E HANNAH TRAIL","VAIL","AZ",85641,32.060276254,-110.721582159,113,"12779 E HANNAH TRAIL, VAIL, AZ, 85641","Match","Exact","12779 E HANNAH TRL, VAIL, AZ, 85641",606823016,"L"
44614,"12779 RIDING TRAIL DR","WILTON","CA",95692,38.411974818,-121.195490819,114,"12779 RIDING TRAIL DR, WILTON, CA, 95692","Match","Non_Exact","12779 RIDING TRAIL DR, WILTON, CA, 95693",133442835,"L"
44615,"12779 W FOREST HILL BLVD","WELLINGTON","FL",33414,26.6712163890001,-80.247029384,115,"12779 W FOREST HILL BLVD, WELLINGTON, FL, 33414","Match","Exact","12779 FOREST HILL BLVD, WELLINGTON, FL, 33414",647653442,"R"
44616,"1278 APACHE STREET","NEVADA","IA",50201,42.0216007490001,-93.475679597,116,"1278 APACHE STREET, NEVADA, IA, 50201","Match","Exact","1278 APACHE ST, NEVADA, IA, 50201",648101133,"L"
44617,"1278 ARCADIA DRIVE","EUGENE","OR",97401,44.0764320480001,-123.052914551,117,"1278 ARCADIA DRIVE, EUGENE, OR, 97401","Match","Exact","1278 ARCADIA DR, EUGENE, OR, 97401",178211992,"L"
44618,"1278 CENTER COURT DR","COVINA","CA",91724,34.0727400530001,-117.86334528,118,"1278 CENTER COURT DR, COVINA, CA, 91724","Match","Exact","1278 CENTER COURT DR, COVINA, CA, 91724",142839172,"R"
44619,"1278 GENESEE AVE","MAYFIELD HEIGHTS","OH",44124,41.5257368370001,-81.455761632,119,"1278 GENESEE AVE, MAYFIELD HEIGHTS, OH, 44124","Match","Exact","1278 GENESEE AVE, MAYFIELD HEIGHTS, OH, 44124",61134740,"R"
44620,"1278 GLADYS AVE DOWN","LAKEWOOD","OH",44107,41.4883964650001,-81.801499516,120,"1278 GLADYS AVE DOWN, LAKEWOOD, OH, 44107","Match","Exact","1278 GLADYS AVE, LAKEWOOD, OH, 44107",61100147,"R"
44621,"1278 GLENNEYRE ST       UNIT 126","LAGUNA BEACH","CA",92651,33.5331853710001,-117.775148173,121,"1278 GLENNEYRE ST       UNIT 126, LAGUNA BEACH, CA, 92651","Match","Exact","1278 GLENNEYRE ST, LAGUNA BEACH, CA, 92651",144068802,"L"
44622,"1278 GLENNEYRE STREET  198","LAGUNA BEACH","CA",92651,33.5331853710001,-117.775148173,122,"1278 GLENNEYRE STREET  198, LAGUNA BEACH, CA, 92651","Match","Exact","1278 GLENNEYRE ST, LAGUNA BEACH, CA, 92651",144068802,"L"
44623,"1278 GLENNEYRE STREET UNIT 174","LAGUNA BEACH","CA",92651,33.5331853710001,-117.775148173,123,"1278 GLENNEYRE STREET UNIT 174, LAGUNA BEACH, CA, 92651","Match","Exact","1278 GLENNEYRE ST, LAGUNA BEACH, CA, 92651",144068802,"L"
44624,"1278 JUSTIN RD STE 109-21","LEWISVILLE","TX",75077,NA,NA,124,"1278 JUSTIN RD STE 109-21, LEWISVILLE, TX, 75077","No_Match",NA,NA,NA,NA
44625,"1278 JUSTIN ROAD STE 109-A","LEWISVILLE","TX",75077,NA,NA,125,"1278 JUSTIN ROAD STE 109-A, LEWISVILLE, TX, 75077","No_Match",NA,NA,NA,NA
44626,"1278 JUSTIN ROAD STE 109-B4","LEWISVILLE","TX",75077,NA,NA,126,"1278 JUSTIN ROAD STE 109-B4, LEWISVILLE, TX, 75077","No_Match",NA,NA,NA,NA
44627,"1278 LIONS HEALTH CAMP ROAD","INDIANA","PA",15701,40.6303800950001,-79.227281224,127,"1278 LIONS HEALTH CAMP ROAD, INDIANA, PA, 15701","Match","Exact","1278 LIONS HEALTH CAMP RD, INDIANA, PA, 15701",66322753,"L"
44628,"1278 LONGFELLOW AVE","TEANECK","NJ",7666,40.8962664380001,-74.002410507,128,"1278 LONGFELLOW AVE, TEANECK, NJ, 7666","Match","Exact","1278 LONGFELLOW AVE, TEANECK, NJ, 07666",64389452,"L"
44629,"1278 OAK CIRCLE DR","GLENDALE","CA",91208,34.207221512,-118.238568197,129,"1278 OAK CIRCLE DR, GLENDALE, CA, 91208","Match","Exact","1278 OAK CIRCLE DR, GLENDALE, CA, 91208",241239977,"R"
44630,"1278 ROCKY POINT DRIVE","OCEANSIDE","CA",92056,33.2150487010001,-117.289368995,130,"1278 ROCKY POINT DRIVE, OCEANSIDE, CA, 92056","Match","Exact","1278 ROCKY POINT DR, OCEANSIDE, CA, 92056",645318322,"L"
44631,"1278 SABLE BLVD","AURORA","CO",80041,39.735467107,-104.819381727,131,"1278 SABLE BLVD, AURORA, CO, 80041","Match","Non_Exact","1278 SABLE BLVD, AURORA, CO, 80011",177363208,"R"
44632,"1278 SPRINGFIELD RD","UNION POINT","GA",30669,33.627395289,-82.9476880139999,132,"1278 SPRINGFIELD RD, UNION POINT, GA, 30669","Match","Exact","1278 SPRINGFIELD RD, UNION POINT, GA, 30669",16691163,"L"
44633,"1278 TRUMBLE CREEK RD","KALISPELL","MT",59901,48.268787623,-114.276359015,133,"1278 TRUMBLE CREEK RD, KALISPELL, MT, 59901","Match","Exact","1278 TRUMBLE CREEK RD, KALISPELL, MT, 59901",629759605,"L"
44634,"1278 US 127","SIGNAL MOUNTAIN","TN",37377,35.2031408400001,-85.366931714,134,"1278 US 127, SIGNAL MOUNTAIN, TN, 37377","Match","Non_Exact","1278 US HWY 127, SIGNAL MOUNTAIN, TN, 37377",59564560,"R"
44635,"1278 WALKER AVE","BALTIMORE","MD",21239,39.3710996630001,-76.591242843,135,"1278 WALKER AVE, BALTIMORE, MD, 21239","Match","Exact","1278 WALKER AVE, BALTIMORE, MD, 21239",206446131,"L"
44636,"12780 BRADWELL RD","HERNDON","VA",20171,38.925683818,-77.387105612,136,"12780 BRADWELL RD, HERNDON, VA, 20171","Match","Exact","12780 BRADWELL RD, HERNDON, VA, 20171",215947871,"R"
44637,"12780 HIGH BLUFF DRIVE SUITE 130","SAN DIEGO","CA",92130,32.950807114,-117.239047386,137,"12780 HIGH BLUFF DRIVE SUITE 130, SAN DIEGO, CA, 92130","Match","Exact","12780 HIGH BLUFF DR, SAN DIEGO, CA, 92130",195689433,"L"
44638,"12780 HWY 355","WORTHVILLE","KY",41098,38.5503402300001,-84.998746506,138,"12780 HWY 355, WORTHVILLE, KY, 41098","Match","Non_Exact","12780 STATE HWY 355, WORTHVILLE, KY, 41098",95322229,"R"
44639,"12781 MIRAMAR PKWY STE 203","MIRAMAR","FL",33027,25.979129545,-80.3214627039999,139,"12781 MIRAMAR PKWY STE 203, MIRAMAR, FL, 33027","Match","Exact","12781 MIRAMAR PKWY, MIRAMAR, FL, 33027",614069467,"L"
44640,"12781 MIRAMAR PKWY SUITE 203","MIRAMAR","FL",33027,25.979129545,-80.3214627039999,140,"12781 MIRAMAR PKWY SUITE 203, MIRAMAR, FL, 33027","Match","Exact","12781 MIRAMAR PKWY, MIRAMAR, FL, 33027",614069467,"L"
44641,"12781 SW 115TH AVE","MIAMI","FL",33176,25.648581945,-80.380947036,141,"12781 SW 115TH AVE, MIAMI, FL, 33176","Match","Exact","12781 SW 115TH AVE, MIAMI, FL, 33176",115981450,"R"
44642,"12781 YATES CIRCLE","BROOMFIELD","CO",80020,39.92693274,-105.052363069,142,"12781 YATES CIRCLE, BROOMFIELD, CO, 80020","Match","Exact","12781 YATES CIR, BROOMFIELD, CO, 80020",210034994,"L"
44643,"12782 N BRADBURY DRIVE","HAYDEN","ID",83835,47.7867888420001,-116.758318714,143,"12782 N BRADBURY DRIVE, HAYDEN, ID, 83835","Match","Exact","12782 N BRADBURY DR, HAYDEN, ID, 83835",192954704,"R"
44644,"12783 DEL VINO CT","SAN DIEGO","CA",92130,32.9464729700001,-117.1826208,144,"12783 DEL VINO CT, SAN DIEGO, CA, 92130","Match","Exact","12783 DEL VINO CT, SAN DIEGO, CA, 92130",612864738,"R"
44645,"12784 MANDALAY CIRCLE UNIT 11","UTICA","MI",48315,NA,NA,145,"12784 MANDALAY CIRCLE UNIT 11, UTICA, MI, 48315","No_Match",NA,NA,NA,NA
44646,"12785 WESTPORT CIRCLE","WELLINGTON","FL",33414,26.66292538,-80.24704063,146,"12785 WESTPORT CIRCLE, WELLINGTON, FL, 33414","Match","Exact","12785 WESTPORT CIR, WELLINGTON, FL, 33414",115579243,"R"
44647,"1278A 20TH AVE","SAN FRANCISCO","CA",94122,37.7639531730001,-122.478211273,147,"1278A 20TH AVE, SAN FRANCISCO, CA, 94122","Match","Exact","1278 20TH AVE, SAN FRANCISCO, CA, 94122",640954282,"L"
44648,"1279 142ND AVE NW","ANDOVER","MN",55304,45.229028928,-93.298112028,148,"1279 142ND AVE NW, ANDOVER, MN, 55304","Match","Exact","1279 142ND AVE NW, ANDOVER, MN, 55304",97503415,"R"
44649,"1279 50TH STREET","BROOKLYN","NY",11219,40.634798544,-73.99323349,149,"1279 50TH STREET, BROOKLYN, NY, 11219","Match","Exact","1279 50TH ST, BROOKLYN, NY, 11219",59080200,"L"
44650,"1279 73RD ST","BROOKLYN","NY",11228,40.621804309,-74.00676651,150,"1279 73RD ST, BROOKLYN, NY, 11228","Match","Exact","1279 73RD ST, BROOKLYN, NY, 11228",59087906,"L"
44651,"1279 CANYON SHORES","CANYON LAKE","TX",78133,29.926007903,-98.287859477,151,"1279 CANYON SHORES, CANYON LAKE, TX, 78133","Match","Exact","1279 CANYON SHORES, CANYON LAKE, TX, 78133",72236963,"R"
44652,"1279 E 17TH ST","BROOKLYN","NY",11230,40.6186016780001,-73.958204649,152,"1279 E 17TH ST, BROOKLYN, NY, 11230","Match","Exact","1279 E 17TH ST, BROOKLYN, NY, 11230",59099185,"L"
44653,"1279 FARRIS ROAD","BOURBON","MO",65441,38.1638511640001,-91.168465407,153,"1279 FARRIS ROAD, BOURBON, MO, 65441","Match","Exact","1279 FARRIS RD, BOURBON, MO, 65441",45145700,"L"
44654,"1279 HIGHWAY 79","DOVER","TN",37058,36.535055641,-87.7799324279999,154,"1279 HIGHWAY 79, DOVER, TN, 37058","Match","Non_Exact","1279 OLD HWY 79, DOVER, TN, 37058",636648530,"L"
44655,"1279 KINGSLEY AVENUE","ORANGE PARK","FL",32073,30.165447355,-81.7194198399999,155,"1279 KINGSLEY AVENUE, ORANGE PARK, FL, 32073","Match","Exact","1279 KINGSLEY AVE, ORANGE PARK, FL, 32073",641432240,"R"
44656,"1279 LOMITA RD","SAN BERNARDINO","CA",92405,34.14766926,-117.312882378,156,"1279 LOMITA RD, SAN BERNARDINO, CA, 92405","Match","Exact","1279 LOMITA RD, SAN BERNARDINO, CA, 92405",144652455,"L"
44657,"1279 LYNX COURT","HAMPTON","GA",30228,33.4567573850001,-84.3498211,157,"1279 LYNX COURT, HAMPTON, GA, 30228","Match","Exact","1279 LYNX CT, HAMPTON, GA, 30228",23324827,"L"
44658,"1279 NORTH TUSTIN AVENUE","ANAHEIM","CA",92807,33.8621525840001,-117.841844959,158,"1279 NORTH TUSTIN AVENUE, ANAHEIM, CA, 92807","Match","Exact","1279 N TUSTIN AVE, ANAHEIM, CA, 92807",144130323,"L"
44659,"1279 ROUTE 46 SUITE 22","PARSIPPANY","NJ",7054,40.863389576,-74.391801077,159,"1279 ROUTE 46 SUITE 22, PARSIPPANY, NJ, 7054","Match","Non_Exact","1279 US HWY 46, PARSIPPANY, NJ, 07054",643778234,"R"
44660,"1279 SUNNYVALE SARATOGA RD","SUNNYVALE","CA",94087,37.352748719,-122.032404642,160,"1279 SUNNYVALE SARATOGA RD, SUNNYVALE, CA, 94087","Match","Exact","1279 SUNNYVALE SARATOGA RD, SUNNYVALE, CA, 94087",618171092,"R"
44661,"1279 VIEWMONT DR","CLARKSVILLE","TN",37042,36.6043154500001,-87.315827559,161,"1279 VIEWMONT DR, CLARKSVILLE, TN, 37042","Match","Non_Exact","1279 VIEWMONT DR, CLARKSVILLE, TN, 37040",633801924,"R"
44662,"1279 W FRONTAGE RD SUITE  H","RIO RICO","AZ",85648,31.4870354600001,-111.007367236,162,"1279 W FRONTAGE RD SUITE  H, RIO RICO, AZ, 85648","Match","Non_Exact","1279 W FRONTAGE RD, RIO RICO, AZ, 85648",120891787,"R"
44663,"1279 W HENDERSON AVE PMB 251","PORTERVILLE","CA",93257,NA,NA,163,"1279 W HENDERSON AVE PMB 251, PORTERVILLE, CA, 93257","No_Match",NA,NA,NA,NA
44664,"1279 W PALMETTO PARK STE 3604","BOCA RATON","FL",33427,NA,NA,164,"1279 W PALMETTO PARK STE 3604, BOCA RATON, FL, 33427","No_Match",NA,NA,NA,NA
44665,"1279 WEST  HWY 97","JOURDANTON","TX",78026,NA,NA,165,"1279 WEST  HWY 97, JOURDANTON, TX, 78026","No_Match",NA,NA,NA,NA
44666,"1279 WEST 24TH STREET SUITE 2","SAN PEDRO","CA",90731,33.7224840260001,-118.304891582,166,"1279 WEST 24TH STREET SUITE 2, SAN PEDRO, CA, 90731","Match","Exact","1279 W 24TH ST, SAN PEDRO, CA, 90731",652037980,"L"
44667,"1279 WEST FRONTAGE ROAD UNIT G","RIO RICO","AZ",85648,31.4870354600001,-111.007367236,167,"1279 WEST FRONTAGE ROAD UNIT G, RIO RICO, AZ, 85648","Match","Exact","1279 W FRONTAGE RD, RIO RICO, AZ, 85648",120891787,"R"
44668,"12790 FM 1560 N PO BOX 233","HELOTES","TX",78023,NA,NA,168,"12790 FM 1560 N PO BOX 233, HELOTES, TX, 78023","No_Match",NA,NA,NA,NA
44669,"12790 FM1560 N 417","HELOTES","TX",78023,NA,NA,169,"12790 FM1560 N 417, HELOTES, TX, 78023","No_Match",NA,NA,NA,NA
44670,"12790 S AVENUE B","YUMA","AZ",85365,32.642114366,-114.650082605,170,"12790 S AVENUE B, YUMA, AZ, 85365","Match","Exact","12790 S AVE B, YUMA, AZ, 85365",129669384,"L"
44671,"12790 STONEY POINT RD","ROGERS","AR",72758,36.2869821630001,-94.095157233,171,"12790 STONEY POINT RD, ROGERS, AR, 72758","Match","Exact","12790 STONEY POINT RD, ROGERS, AR, 72758",635481305,"R"
44672,"12790 THORNE RD","LACHINE","MI",49753,45.146905561,-83.71548405,172,"12790 THORNE RD, LACHINE, MI, 49753","Match","Exact","12790 THORNE RD, LACHINE, MI, 49753",135788124,"R"
44673,"12792 FORD DR","FISHERS","IN",46038,39.9726804840001,-86.00636829,173,"12792 FORD DR, FISHERS, IN, 46038","Match","Exact","12792 FORD DR, FISHERS, IN, 46038",29305070,"R"
44674,"12793 MOSAIC DRIVE","RANCHO CUCAMONGA","CA",91739,34.119415514,-117.526832765,174,"12793 MOSAIC DRIVE, RANCHO CUCAMONGA, CA, 91739","Match","Exact","12793 MOSAIC DR, ETIWANDA, CA, 91739",614811632,"R"
44675,"12794 COBB ROAD","OMAHA","AR",72662,36.427356434,-93.1592811209999,175,"12794 COBB ROAD, OMAHA, AR, 72662","Match","Non_Exact","12794 COBB RD N, OMAHA, AR, 72662",20002306,"R"
44676,"12794 COMMONWEALTH","SOUTHGATE","MI",48195,42.205854564,-83.181452962,176,"12794 COMMONWEALTH, SOUTHGATE, MI, 48195","Match","Non_Exact","12794 COMMONWEALTH ST, SOUTHGATE, MI, 48195",95451954,"R"
44677,"12794 HWY 45 N","FINGER","TN",38334,35.3470746080001,-88.6403327899999,177,"12794 HWY 45 N, FINGER, TN, 38334","Match","Exact","12794 HWY 45 N, FINGER, TN, 38334",633635730,"L"
44678,"12795 COLONNADE DRIVE","RANCHO CUCAMONGA","CA",91739,34.1202850290001,-117.525649036,178,"12795 COLONNADE DRIVE, RANCHO CUCAMONGA, CA, 91739","Match","Exact","12795 COLONNADE DR, ETIWANDA, CA, 91739",637400252,"R"
44679,"12795 OWLSLEY WAY","OAK HILL","VA",20171,38.9173652380001,-77.3878153909999,179,"12795 OWLSLEY WAY, OAK HILL, VA, 20171","Match","Exact","12795 OWLSLEY WAY, OAK HILL, VA, 20171",614152014,"R"
44680,"12796 AQUARIS AGORA DR BLDG 123","ORLANDO","FL",32816,28.6021816890001,-81.201368481,180,"12796 AQUARIS AGORA DR BLDG 123, ORLANDO, FL, 32816","Match","Non_Exact","12796 AQUARIUS AGORA DR, ORLANDO, FL, 32816",640907775,"L"
44681,"12797 VIA TERCETS","SAN DIEGO","CA",92130,NA,NA,181,"12797 VIA TERCETS, SAN DIEGO, CA, 92130","No_Match",NA,NA,NA,NA
44682,"12799 E EXPOSITION DR","AURORA","CO",80012,39.7023265770001,-104.840024659,182,"12799 E EXPOSITION DR, AURORA, CO, 80012","Match","Exact","12799 E EXPOSITION DR, AURORA, CO, 80012",177550280,"L"
44683,"12799 KERRYDALE RD","WOODBRIDGE","VA",22193,38.675459404,-77.3473304199999,183,"12799 KERRYDALE RD, WOODBRIDGE, VA, 22193","Match","Exact","12799 KERRYDALE RD, WOODBRIDGE, VA, 22193",207147171,"L"
44684,"12799 N 116TH STREET","SCOTTSDALE","AZ",85259,33.6023092190001,-111.831521715,184,"12799 N 116TH STREET, SCOTTSDALE, AZ, 85259","Match","Exact","12799 N 116TH ST, SCOTTSDALE, AZ, 85259",243915636,"R"
44685,"12799 TWIN PINES LN","CHOCTAW","OK",73020,35.4741087140001,-97.302946369,185,"12799 TWIN PINES LN, CHOCTAW, OK, 73020","Match","Exact","12799 TWIN PINES LN, CHOCTAW, OK, 73020",100438682,"R"
44686,"127A DWIGHT STREET","JERSEY CITY","NJ",7305,40.70355858,-74.083773696,186,"127A DWIGHT STREET, JERSEY CITY, NJ, 7305","Match","Exact","127 DWIGHT ST, JERSEY CITY, NJ, 07305",59604339,"L"
44687,"127A NEW ROSE ST","TRENTON","NJ",8618,40.2306408480001,-74.7653653629999,187,"127A NEW ROSE ST, TRENTON, NJ, 8618","Match","Exact","127 NEW ROSE ST, TRENTON, NJ, 08618",60178360,"L"
44688,"128  52ND STREET SE","CANTON","OH",44707,40.7384167720001,-81.37027991,188,"128  52ND STREET SE, CANTON, OH, 44707","Match","Exact","128 52ND ST SE, CANTON, OH, 44707",64687121,"R"
44689,"128 1/2 NORTH MATTESON STREET","BRONSON","MI",49028,41.8724509740001,-85.194663611,189,"128 1/2 NORTH MATTESON STREET, BRONSON, MI, 49028","Match","Exact","128 N MATTESON ST, BRONSON, MI, 49028",8222479,"R"
44690,"128 10TH ST NORTH","LA CROSSE","WI",54601,43.8120118590001,-91.242431698,190,"128 10TH ST NORTH, LA CROSSE, WI, 54601","Match","Exact","128 10TH ST N, LA CROSSE, WI, 54601",51012390,"R"
44691,"128 18TH STREET SE UNIT 1","WASHINGTON","DC",20003,38.8883258930001,-76.978985134,191,"128 18TH STREET SE UNIT 1, WASHINGTON, DC, 20003","Match","Exact","128 18TH ST SE, WASHINGTON, DC, 20003",76230529,"L"
44692,"128 53RD AVE","GREELEY","CO",80634,40.434381414,-104.766975693,192,"128 53RD AVE, GREELEY, CO, 80634","Match","Exact","128 53RD AVE, GREELEY, CO, 80634",188719987,"L"
44693,"128 ABERDEEN DR","SLIDELL","LA",70461,30.2950744090001,-89.729958843,193,"128 ABERDEEN DR, SLIDELL, LA, 70461","Match","Exact","128 ABERDEEN DR, SLIDELL, LA, 70461",111270592,"R"
44694,"128 ADDIS AVE","BEAVER FALLS","PA",15010,40.7752986630001,-80.385496485,194,"128 ADDIS AVE, BEAVER FALLS, PA, 15010","Match","Exact","128 ADDIS AVE, BEAVER FALLS, PA, 15010",52555258,"R"
44695,"128 ADOQUIN TRAIL","BUDA","TX",78610,30.0658796120001,-97.826826485,195,"128 ADOQUIN TRAIL, BUDA, TX, 78610","Match","Exact","128 ADOQUIN TRL, BUDA, TX, 78610",650625495,"R"
44696,"128 AGUA AVE","LAWRENCEVILLE","GA",30044,33.925228867,-84.053426493,196,"128 AGUA AVE, LAWRENCEVILLE, GA, 30044","Match","Exact","128 AGUA AVE, LAWRENCEVILLE, GA, 30044",637864518,"L"
44697,"128 ALCAN DRIVE","PITTSBURGH","PA",15239,40.4757995520001,-79.7148705239999,197,"128 ALCAN DRIVE, PITTSBURGH, PA, 15239","Match","Exact","128 ALCAN DR, PITTSBURGH, PA, 15239",51676631,"L"
44698,"128 ALDER STREET NORTH","YONKERS","NY",10705,40.926526998,-73.887185003,198,"128 ALDER STREET NORTH, YONKERS, NY, 10705","Match","Non_Exact","128 ALDER ST, YONKERS, NY, 10705",139743912,"L"
44699,"128 AMELIA DRIVE","BYRON","GA",31008,32.645088872,-83.7118577429999,199,"128 AMELIA DRIVE, BYRON, GA, 31008","Match","Exact","128 AMELIA DR, BYRON, GA, 31008",627598470,"R"
44700,"128 AQUA VIEW RD","CEDARBURG","WI",53012,43.2805029250001,-87.9496601769999,200,"128 AQUA VIEW RD, CEDARBURG, WI, 53012","Match","Exact","128 AQUA VIEW RD, CEDARBURG, WI, 53012",95902767,"R"
44701,"128 ARCHERS WAY","WEATHERFORD","TX",76088,32.730305581,-97.862179617,201,"128 ARCHERS WAY, WEATHERFORD, TX, 76088","Match","Exact","128 ARCHERS WAY, WEATHERFORD, TX, 76088",648353046,"R"
44702,"128 ASHTON DRIVE","MCDONOUGH","GA",30253,33.4366542000001,-84.187577155,202,"128 ASHTON DRIVE, MCDONOUGH, GA, 30253","Match","Exact","128 ASHTON DR, MCDONOUGH, GA, 30253",23201382,"L"
44703,"128 ATLANTIS LANE","LAKE FREDERICK","VA",22630,39.0488874590001,-78.15081514,203,"128 ATLANTIS LANE, LAKE FREDERICK, VA, 22630","Match","Exact","128 ATLANTIS LN, LAKE FREDERICK, VA, 22630",648062814,"R"
44704,"128 BAYOU DRIVE","NICEVILLE","FL",32578,30.507227673,-86.434481703,204,"128 BAYOU DRIVE, NICEVILLE, FL, 32578","Match","Exact","128 BAYOU DR, NICEVILLE, FL, 32578",74394388,"R"
44705,"128 BENT OAK DRIVE","LOUISA","KY",41230,38.101214091,-82.665405225,205,"128 BENT OAK DRIVE, LOUISA, KY, 41230","Match","Exact","128 BENT OAK DR, LOUISA, KY, 41230",623805202,"R"
44706,"128 BERWICK COURT","EASLEY","SC",29642,34.7691938040001,-82.523619466,206,"128 BERWICK COURT, EASLEY, SC, 29642","Match","Exact","128 BERWICK CT, EASLEY, SC, 29642",624464661,"L"
44707,"128 BETTY ROAD","EAST MEADOW","NY",11554,40.7183622320001,-73.5704936189999,207,"128 BETTY ROAD, EAST MEADOW, NY, 11554","Match","Exact","128 BETTY RD, EAST MEADOW, NY, 11554",147632312,"R"
44708,"128 BEVERLY AVENUE","WISE","VA",24293,36.987767499,-82.5894815899999,208,"128 BEVERLY AVENUE, WISE, VA, 24293","Match","Non_Exact","128 BEVERLY AVE SW, WISE, VA, 24293",83465020,"L"
44709,"128 BIG HORN DR","LUMBERTON","NC",28360,34.668695083,-79.108609939,209,"128 BIG HORN DR, LUMBERTON, NC, 28360","Match","Non_Exact","128 BIGHORN DR, LUMBERTON, NC, 28360",636752390,"R"
44710,"128 BILLINGSLEY HTS","CEDAR CREEK","TX",78612,30.1004117420001,-97.4840939379999,210,"128 BILLINGSLEY HTS, CEDAR CREEK, TX, 78612","Match","Exact","128 BILLINGSLEY HTS, CEDAR CREEK, TX, 78612",647730358,"R"
44711,"128 BLEDSOE STREET","HOPE MILLS","NC",28348,34.915811063,-78.876794306,211,"128 BLEDSOE STREET, HOPE MILLS, NC, 28348","Match","Exact","128 BLEDSOE ST, HOPE MILLS, NC, 28348",64232967,"L"
44712,"128 BLODGETT ROAD","PITTSTON","ME",4345,44.1578334320001,-69.700203094,212,"128 BLODGETT ROAD, PITTSTON, ME, 4345","Match","Exact","128 BLODGETT RD, PITTSTON, ME, 04345",632908716,"R"
44713,"128 BOULEVARD UNIT - 18","PASSAIC","NJ",7055,40.8535049760001,-74.128664718,213,"128 BOULEVARD UNIT - 18, PASSAIC, NJ, 7055","Match","Exact","128 BOULEVARD, PASSAIC, NJ, 07055",65252407,"R"
44714,"128 BRAHMA WAY","CIBOLO","TX",78108,29.579617684,-98.220599683,214,"128 BRAHMA WAY, CIBOLO, TX, 78108","Match","Exact","128 BRAHMA WAY, CIBOLO, TX, 78108",54861258,"L"
44715,"128 BROOKSHIRE LANE","PELHAM","AL",35124,33.285166469,-86.790803223,215,"128 BROOKSHIRE LANE, PELHAM, AL, 35124","Match","Exact","128 BROOKSHIRE LN, PELHAM, AL, 35124",82133950,"R"
44716,"128 BURGIS CREEK RD","ROCK HILL","SC",29730,34.9325699820001,-80.927888708,216,"128 BURGIS CREEK RD, ROCK HILL, SC, 29730","Match","Exact","128 BURGIS CREEK RD, ROCK HILL, SC, 29730",19819643,"R"
44717,"128 BURKWOOD PLACE","AIKEN","SC",29801,33.551049891,-81.724082757,217,"128 BURKWOOD PLACE, AIKEN, SC, 29801","Match","Exact","128 BURKWOOD PL, AIKEN, SC, 29801",65002460,"R"
44718,"128 BURNEY LANE","FORT THOMAS","KY",41075,39.0684777070001,-84.455843987,218,"128 BURNEY LANE, FORT THOMAS, KY, 41075","Match","Exact","128 BURNEY LN, FORT THOMAS, KY, 41075",104448751,"L"
44719,"128 CAPEWELL AVENUE","OAKVILLE","CT",6779,41.578994621,-73.0883737519999,219,"128 CAPEWELL AVENUE, OAKVILLE, CT, 6779","Match","Exact","128 CAPEWELL AVE, OAKVILLE, CT, 06779",611468717,"R"
44720,"128 CASCADILLA ST","CRESTED BUTTE","CO",81224,38.8084633120001,-106.886922002,220,"128 CASCADILLA ST, CRESTED BUTTE, CO, 81224","Match","Exact","128 CASCADILLA ST, CRESTED BUTTE, CO, 81224",108361476,"R"
44721,"128 CASTILIAN DRIVE","VIRGINIA BEACH","VA",32462,36.8385149850001,-76.129151599,221,"128 CASTILIAN DRIVE, VIRGINIA BEACH, VA, 32462","Match","Non_Exact","128 CASTILIAN DR, VA BCH, VA, 23462",122292821,"R"
44722,"128 CEDARWOOD DR","SLIDELL","LA",70461,30.2858699270001,-89.7228874689999,222,"128 CEDARWOOD DR, SLIDELL, LA, 70461","Match","Exact","128 CEDARWOOD DR, SLIDELL, LA, 70461",111268409,"R"
44723,"128 CENTRAL PARK SOUTH APT 9B","NEW YORK","NY",10019,40.7660577610001,-73.977145793,223,"128 CENTRAL PARK SOUTH APT 9B, NEW YORK, NY, 10019","Match","Exact","128 CENTRAL PARK S, NEW YORK, NY, 10019",59657120,"L"
44724,"128 CENTURY OAKS","MANDEVILLE","LA",70471,30.3967504440001,-90.0785901629999,224,"128 CENTURY OAKS, MANDEVILLE, LA, 70471","Match","Non_Exact","128 CENTURY OAKS LN, MANDEVILLE, LA, 70471",111308675,"L"
44725,"128 CITY STREET","SAN ANTONIO","TX",78204,29.4155912420001,-98.495212404,225,"128 CITY STREET, SAN ANTONIO, TX, 78204","Match","Exact","128 CITY ST, SAN ANTONIO, TX, 78204",101526457,"L"
44726,"128 CITY VIEW AVE","WESTMINSTER","MD",21157,39.5697630920001,-76.999882664,226,"128 CITY VIEW AVE, WESTMINSTER, MD, 21157","Match","Exact","128 CITY VIEW AVE, WESTMINSTER, MD, 21157",61752836,"R"
44727,"128 CLAIBORNE STREET","MADISON","MS",39110,32.5395170460001,-90.17764472,227,"128 CLAIBORNE STREET, MADISON, MS, 39110","Match","Exact","128 CLAIBORNE ST, MADISON, MS, 39110",648697667,"L"
44728,"128 CLARENDON CRESCENT","RALEIGH","NC",27610,35.7810279390001,-78.602830604,228,"128 CLARENDON CRESCENT, RALEIGH, NC, 27610","Match","Exact","128 CLARENDON CRES, RALEIGH, NC, 27610",208347485,"R"
44729,"128 COLUMBUS AVENUE","GRAND HAVEN","MI",49417,43.065164682,-86.23164036,229,"128 COLUMBUS AVENUE, GRAND HAVEN, MI, 49417","Match","Non_Exact","128 COLUMBUS ST, GRAND HAVEN, MI, 49417",71084391,"L"
44730,"128 COMPO ROAD N","WESTPORT","CT",6880,41.15334883,-73.355979491,230,"128 COMPO ROAD N, WESTPORT, CT, 6880","Match","Exact","128 COMPO RD N, WESTPORT, CT, 06880",3238329,"R"
44731,"128 COOPER ROAD","PELAHATCHIE","MS",39145,32.3214874550001,-89.764566735,231,"128 COOPER ROAD, PELAHATCHIE, MS, 39145","Match","Exact","128 COOPER RD, PELAHATCHIE, MS, 39145",116912448,"R"
44732,"128 COUNTRYBROOK LOOP","SAN RAMON","CA",94583,37.7588581750001,-121.944200664,232,"128 COUNTRYBROOK LOOP, SAN RAMON, CA, 94583","Match","Exact","128 COUNTRYBROOK LOOP, SAN RAMON, CA, 94583",635441608,"R"
44733,"128 COUNTY LINE RD W STE B","WESTERVILLE","OH",43082,40.136588024,-82.933649847,233,"128 COUNTY LINE RD W STE B, WESTERVILLE, OH, 43082","Match","Exact","128 COUNTY LINE RD W, WESTERVILLE, OH, 43082",635656083,"L"
44734,"128 CUMPSTONE DRIVE","HAMDEN","CT",6518,41.40083465,-72.907006504,234,"128 CUMPSTONE DRIVE, HAMDEN, CT, 6518","Match","Exact","128 CUMPSTONE DR, HAMDEN, CT, 06518",3711818,"L"
44735,"128 CURTIS FORD TRACE","NICHOLASVILLE","KY",40356,37.8690803370001,-84.56097983,235,"128 CURTIS FORD TRACE, NICHOLASVILLE, KY, 40356","Match","Non_Exact","128 CURTIS-FORD TRCE, NICHOLASVILLE, KY, 40356",634137040,"L"
44736,"128 DALE ST NE","GRAND RAPIDS","MI",49505,42.9927493690001,-85.666447695,236,"128 DALE ST NE, GRAND RAPIDS, MI, 49505","Match","Exact","128 DALE ST NE, GRAND RAPIDS, MI, 49505",12456800,"R"
44737,"128 DORCHESTER STE F","WEST PALM BEACH","FL",33417,NA,NA,237,"128 DORCHESTER STE F, WEST PALM BEACH, FL, 33417","No_Match",NA,NA,NA,NA
44738,"128 DOUGLAS ROAD","NEW CANAAN","CT",6840,41.133388101,-73.492939833,238,"128 DOUGLAS ROAD, NEW CANAAN, CT, 6840","Match","Exact","128 DOUGLAS RD, NEW CANAAN, CT, 06840",3258768,"L"
44739,"128 E CLARKE PL 7E/RM2","UNIVERSITY HEIGHTS","NY",10452,NA,NA,239,"128 E CLARKE PL 7E/RM2, UNIVERSITY HEIGHTS, NY, 10452","No_Match",NA,NA,NA,NA
44740,"128 E GRANT","WILLIAMS","AZ",86046,35.25002363,-112.186480005,240,"128 E GRANT, WILLIAMS, AZ, 86046","Match","Non_Exact","128 E GRANT AVE, WILLIAMS, AZ, 86046",188899896,"R"
44741,"128 E HIGH ST","GLENFORD","OH",43739,39.887531498,-82.316861505,241,"128 E HIGH ST, GLENFORD, OH, 43739","Match","Exact","128 E HIGH ST, GLENFORD, OH, 43739",640629932,"R"
44742,"128 E KATELLA AVE STE 110","ORANGE","CA",92867,NA,NA,242,"128 E KATELLA AVE STE 110, ORANGE, CA, 92867","Tie",NA,NA,NA,NA
44743,"128 E PALM AVENUE","MONROVIA","CA",91016,34.149154939,-118.000162458,243,"128 E PALM AVENUE, MONROVIA, CA, 91016","Match","Exact","128 E PALM AVE, MONROVIA, CA, 91016",241241730,"R"
44744,"128 E PENN ST","LONG BEACH","NY",11561,40.5855129510001,-73.6601489829999,244,"128 E PENN ST, LONG BEACH, NY, 11561","Match","Exact","128 E PENN ST, LONG BEACH, NY, 11561",147682431,"R"
44745,"128 E PINE ST -  POB 297","MAHANOY CITY","PA",17948,NA,NA,245,"128 E PINE ST -  POB 297, MAHANOY CITY, PA, 17948","Tie",NA,NA,NA,NA
44746,"128 E SAGINAW ST","BRECKENRIDGE","MI",48615,43.407973844,-84.4788076409999,246,"128 E SAGINAW ST, BRECKENRIDGE, MI, 48615","Match","Exact","128 E SAGINAW ST, BRECKENRIDGE, MI, 48615",80162198,"R"
44747,"128 EAGLESMERE CIR APT 28","EAST STROUDSBURG","PA",18301,40.989428026,-75.170970357,247,"128 EAGLESMERE CIR APT 28, EAST STROUDSBURG, PA, 18301","Match","Exact","128 EAGLESMERE CIR, E STROUDSBURG, PA, 18301",624544669,"R"
44748,"128 EAST 31ST STREET","NEW YORK","NY",10016,40.744622797,-73.981411414,248,"128 EAST 31ST STREET, NEW YORK, NY, 10016","Match","Exact","128 E 31ST ST, NEW YORK, NY, 10016",59654410,"R"
44749,"128 EAST 4TH ST","ALLEN","KS",66833,38.6548589940001,-96.16749938,249,"128 EAST 4TH ST, ALLEN, KS, 66833","Match","Exact","128 E 4TH ST, ALLEN, KS, 66833",10964864,"R"
44750,"128 EAST CANDLESTICK DRIVE","LUMBERTON","TX",77657,30.2561023150001,-94.193068304,250,"128 EAST CANDLESTICK DRIVE, LUMBERTON, TX, 77657","Match","Exact","128 E CANDLESTICK DR, LUMBERTON, TX, 77657",636329443,"R"
44751,"128 EAST LIBERTY STREET UNIT H","DANBURY","CT",6810,41.396155069,-73.443236284,251,"128 EAST LIBERTY STREET UNIT H, DANBURY, CT, 6810","Match","Exact","128 E LIBERTY ST, DANBURY, CT, 06810",3232157,"R"
44752,"128 EAST SECOND STREET","IRVING","TX",75060,32.8128252340001,-96.945783145,252,"128 EAST SECOND STREET, IRVING, TX, 75060","Match","Exact","128 E 2ND ST, IRVING, TX, 75060",102893024,"R"
44753,"128 EDGEPINE DR","HOLLY SPRINGS","NC",27540,35.6626010780001,-78.7766015449999,253,"128 EDGEPINE DR, HOLLY SPRINGS, NC, 27540","Match","Exact","128 EDGEPINE DR, HOLLY SPRINGS, NC, 27540",612821910,"R"
44754,"128 EVA HILL LANE","HOLLY HILL","SC",29059,33.256783996,-80.3318655479999,254,"128 EVA HILL LANE, HOLLY HILL, SC, 29059","Match","Exact","128 EVA HILL LN, HOLLY HILL, SC, 29059",100734546,"L"
44755,"128 FERN FOREST DRIVE","RALEIGH","NC",27603,35.6518857020001,-78.636269936,255,"128 FERN FOREST DRIVE, RALEIGH, NC, 27603","Match","Exact","128 FERN FOREST DR, RALEIGH, NC, 27603",72512101,"L"
44756,"128 FIELDBROOK DRIVE","MAGNOLIA","DE",19962,39.069840534,-75.4956740659999,256,"128 FIELDBROOK DRIVE, MAGNOLIA, DE, 19962","Match","Exact","128 FIELDBROOK DR, MAGNOLIA, DE, 19962",68106116,"R"
44757,"128 FLATVIEW WAY","SPARTANBURG","SC",29303,35.0185300700001,-81.940204044,257,"128 FLATVIEW WAY, SPARTANBURG, SC, 29303","Match","Exact","128 FLATVIEW WAY, SPARTANBURG, SC, 29303",624104773,"L"
44758,"128 FOREST LAWN DRIVE","CADILLAC","MI",49601,44.229951348,-85.474848993,258,"128 FOREST LAWN DRIVE, CADILLAC, MI, 49601","Match","Exact","128 FOREST LAWN DR, CADILLAC, MI, 49601",146104616,"R"
44759,"128 FORT WASHINGTON AVE SUITE 10J","NEW YORK","NY",10032,40.8395624610001,-73.9433045059999,259,"128 FORT WASHINGTON AVE SUITE 10J, NEW YORK, NY, 10032","Match","Exact","128 FORT WASHINGTON AVE, NEW YORK, NY, 10032",59655681,"R"
44760,"128 FORT WASHINGTON AVENUE SUITE A","NEW YORK","NY",10032,40.8395624610001,-73.9433045059999,260,"128 FORT WASHINGTON AVENUE SUITE A, NEW YORK, NY, 10032","Match","Exact","128 FORT WASHINGTON AVE, NEW YORK, NY, 10032",59655681,"R"
44761,"128 FOUR SEASONS WAY","MOORESVILLE","NC",28117,35.560827165,-80.8412745269999,261,"128 FOUR SEASONS WAY, MOORESVILLE, NC, 28117","Match","Exact","128 FOUR SEASONS WAY, MOORESVILLE, NC, 28117",635651963,"L"
44762,"128 FOXHUNT LANE","EAST AMHERST","NY",14051,43.007530919,-78.705374095,262,"128 FOXHUNT LANE, EAST AMHERST, NY, 14051","Match","Exact","128 FOXHUNT LN, EAST AMHERST, NY, 14051",48305460,"L"
44763,"128 FRANCIS AVENUE","PAWTUCKET","RI",2860,41.8749005130001,-71.416772823,263,"128 FRANCIS AVENUE, PAWTUCKET, RI, 2860","Match","Exact","128 FRANCIS AVE, PAWTUCKET, RI, 02860",47462321,"L"
44764,"128 FRANK HARRIS ROAD","DILLWYN","VA",23936,37.5536217330001,-78.484934311,264,"128 FRANK HARRIS ROAD, DILLWYN, VA, 23936","Match","Exact","128 FRANK HARRIS RD, DILLWYN, VA, 23936",73745204,"L"
44765,"128 FRANKIE LANE","MADISON","AL",35757,34.7683841910001,-86.782966366,265,"128 FRANKIE LANE, MADISON, AL, 35757","Match","Exact","128 FRANKIE LN, MADISON, AL, 35757",649149811,"R"
44766,"128 GLYNNDALE AVENUE","LAFAYETTE","LA",70506,30.20714108,-92.0475353209999,266,"128 GLYNNDALE AVENUE, LAFAYETTE, LA, 70506","Match","Exact","128 GLYNNDALE AVE, LAFAYETTE, LA, 70506",85617902,"R"
44767,"128 GOLDEN PHEASANT DR","SLIDELL","LA",70461,30.273279153,-89.701211851,267,"128 GOLDEN PHEASANT DR, SLIDELL, LA, 70461","Match","Exact","128 GOLDEN PHEASANT DR, SLIDELL, LA, 70461",635839145,"L"
44768,"128 GOOSE CREEK BAPTIST CHURCH RD","CHEROKEE","NC",28719,35.4680508660001,-83.366981244,268,"128 GOOSE CREEK BAPTIST CHURCH RD, CHEROKEE, NC, 28719","Match","Exact","128 GOOSE CREEK BAPTIST CHURCH RD, CHEROKEE, NC, 28719",649749850,"R"
44769,"128 GRANDE MAISON BOULEVARD","MANDEVILLE","LA",70471,30.4023614270001,-90.038823011,269,"128 GRANDE MAISON BOULEVARD, MANDEVILLE, LA, 70471","Match","Exact","128 GRANDE MAISON BLVD, MANDEVILLE, LA, 70471",611484100,"R"
44770,"128 GRAYLYN DR","CHAPEL HILL","NC",27516,35.8814298780001,-79.072045082,270,"128 GRAYLYN DR, CHAPEL HILL, NC, 27516","Match","Exact","128 GRAYLYN DR, CHAPEL HILL, NC, 27516",72408396,"L"
44771,"128 GREENWOODS ROAD EAST","NORFOLK","CT",6058,41.9883582780001,-73.188431899,271,"128 GREENWOODS ROAD EAST, NORFOLK, CT, 6058","Match","Exact","128 GREENWOODS RD E, NORFOLK, CT, 06058",3097253,"L"
44772,"128 GUNSTON HALL CT","CHESTERFIELD","MO",63017,38.6664372180001,-90.5213106799999,272,"128 GUNSTON HALL CT, CHESTERFIELD, MO, 63017","Match","Exact","128 GUNSTON HALL CT, CHESTERFIELD, MO, 63017",100110609,"R"
44773,"128 HAMILTON TRAIL","TOTOWA","NJ",7512,NA,NA,273,"128 HAMILTON TRAIL, TOTOWA, NJ, 7512","No_Match",NA,NA,NA,NA
44774,"128 HARLEM AVE","GLENVIEW","IL",60025,42.0581729830001,-87.805985386,274,"128 HARLEM AVE, GLENVIEW, IL, 60025","Match","Exact","128 HARLEM AVE, GLENVIEW, IL, 60025",605001103,"L"
44775,"128 HARVARD AVENUE SUITE 2","BOSTON","MA",2134,42.3524874620001,-71.131946321,275,"128 HARVARD AVENUE SUITE 2, BOSTON, MA, 2134","Match","Exact","128 HARVARD AVE, BOSTON, MA, 02134",85727171,"L"
44776,"128 HAWTHORNE ROAD","ST. AUGUSTINE","FL",32086,29.84318662,-81.311343951,276,"128 HAWTHORNE ROAD, ST. AUGUSTINE, FL, 32086","Match","Exact","128 HAWTHORNE RD, SAINT AUGUSTINE, FL, 32086",629657051,"L"
44777,"128 HEDGEAPPLE COURT","STAFFORD","VA",22554,38.4659346510001,-77.445978111,277,"128 HEDGEAPPLE COURT, STAFFORD, VA, 22554","Match","Exact","128 HEDGEAPPLE CT, STAFFORD, VA, 22554",25566961,"R"
44778,"128 HILLSIDE DRIVE","LAFAYETTE","LA",70503,30.2014918960001,-92.025479795,278,"128 HILLSIDE DRIVE, LAFAYETTE, LA, 70503","Match","Exact","128 HILLSIDE DR, LAFAYETTE, LA, 70503",85618495,"R"
44779,"128 HILLSIDE ROAD","SPARTA","NJ",7871,41.010668303,-74.658059097,279,"128 HILLSIDE ROAD, SPARTA, NJ, 7871","Match","Exact","128 HILLSIDE RD, SPARTA, NJ, 07871",98029847,"L"
44780,"128 HOBART STREET","OWATONNA","MN",55060,44.071166185,-93.225243598,280,"128 HOBART STREET, OWATONNA, MN, 55060","Match","Non_Exact","128 HOBART ST SE, OWATONNA, MN, 55060",38171821,"R"
44781,"128 HOLLY HILLS DR","MT STERLING","KY",40353,38.049690996,-83.96986297,281,"128 HOLLY HILLS DR, MT STERLING, KY, 40353","Match","Exact","128 HOLLY HILLS DR, MT STERLING, KY, 40353",32035827,"R"
44782,"128 HOMESTEAD STREET","DORCHESTER","MA",2121,42.3113069980001,-71.089134556,282,"128 HOMESTEAD STREET, DORCHESTER, MA, 2121","Match","Exact","128 HOMESTEAD ST, DORCHESTER, MA, 02121",85701377,"L"
44783,"128 HORACE FITZPATRICK DR","CLEVELAND","GA",30528,NA,NA,283,"128 HORACE FITZPATRICK DR, CLEVELAND, GA, 30528","No_Match",NA,NA,NA,NA
44784,"128 HOWLAND CIRCLE","BREWSTER","MA",2631,41.7585878520001,-70.045051869,284,"128 HOWLAND CIRCLE, BREWSTER, MA, 2631","Match","Exact","128 HOWLAND CIR, BREWSTER, MA, 02631",121634739,"R"
44785,"128 HUMMINGBIRD WAY","WEST HENRIETTA","NY",14586,43.0342484080001,-77.712482289,285,"128 HUMMINGBIRD WAY, WEST HENRIETTA, NY, 14586","Match","Exact","128 HUMMINGBIRD WAY, W HENRIETTA, NY, 14586",14581191,"L"
44786,"128 HWY 61 NORTH","POTOSI","WI",53820,NA,NA,286,"128 HWY 61 NORTH, POTOSI, WI, 53820","No_Match",NA,NA,NA,NA
44787,"128 INVERNESS DRIVE","PITTSBURGH","PA",15237,40.565852519,-80.0421861739999,287,"128 INVERNESS DRIVE, PITTSBURGH, PA, 15237","Match","Exact","128 INVERNESS DR, PITTSBURGH, PA, 15237",51692739,"L"
44788,"128 JET BOTTOM ROAD","WELCH","WV",24801,NA,NA,288,"128 JET BOTTOM ROAD, WELCH, WV, 24801","No_Match",NA,NA,NA,NA
44789,"128 JOSEPH ST NORTH","LAPWAI","ID",83540,46.4073529200001,-116.80671327,289,"128 JOSEPH ST NORTH, LAPWAI, ID, 83540","Match","Exact","128 JOSEPH ST N, LAPWAI, ID, 83540",173150886,"R"
44790,"128 KENT TERRACE","ALABASTER","AL",35007,NA,NA,290,"128 KENT TERRACE, ALABASTER, AL, 35007","No_Match",NA,NA,NA,NA
44791,"128 KEY HEIGHTS DRIVE","TAVERNIER","FL",33070,24.9791998750001,-80.553128289,291,"128 KEY HEIGHTS DRIVE, TAVERNIER, FL, 33070","Match","Exact","128 KEY HEIGHTS DR, TAVERNIER, FL, 33070",116467158,"L"
44792,"128 KING STREET","NUTLEY","NJ",7110,40.807578807,-74.151432213,292,"128 KING STREET, NUTLEY, NJ, 7110","Match","Exact","128 KING ST, NUTLEY, NJ, 07110",646925312,"R"
44793,"128 KINGS RIVER RD","OROVADA","NV",89425,41.699610631,-118.163723556,293,"128 KINGS RIVER RD, OROVADA, NV, 89425","Match","Exact","128 KINGS RIVER RD, OROVADA, NV, 89425",170902729,"L"
44794,"128 LAKE WASHINGTON DR","WASHINGTON","MO",63090,38.533362299,-90.993168344,294,"128 LAKE WASHINGTON DR, WASHINGTON, MO, 63090","Match","Exact","128 LAKE WASHINGTON DR, WASHINGTON, MO, 63090",605153638,"R"
44795,"128 LAKESHORE DR","WAXAHACHIE","TX",75165,32.344719206,-96.816881645,295,"128 LAKESHORE DR, WAXAHACHIE, TX, 75165","Match","Exact","128 LAKESHORE DR, WAXAHACHIE, TX, 75165",103482844,"L"
44796,"128 LARIAT DRIVE","HARVEST","AL",35749,34.8186371560001,-86.683115572,296,"128 LARIAT DRIVE, HARVEST, AL, 35749","Match","Exact","128 LARIAT DR, HARVEST, AL, 35749",58135393,"L"
44797,"128 LAW PLANTATION RD","DARLINGTON","SC",29540,34.3449168240001,-79.903821012,297,"128 LAW PLANTATION RD, DARLINGTON, SC, 29540","Match","Exact","128 LAW PLANTATION RD, DARLINGTON, SC, 29540",78414454,"L"
44798,"128 LAYTON AVE","DANVILLE","VA",24540,36.6212122320001,-79.3901640669999,298,"128 LAYTON AVE, DANVILLE, VA, 24540","Match","Exact","128 LAYTON AVE, DANVILLE, VA, 24540",56589035,"R"
44799,"128 LEHANE TERRACE APT 103","N PALM BEACH","FL",33408,26.804292726,-80.052673483,299,"128 LEHANE TERRACE APT 103, N PALM BEACH, FL, 33408","Match","Exact","128 LEHANE TER, NORTH PALM BEACH, FL, 33408",115538102,"L"
44800,"128 LEONARD STREET","LEWISVILLE","TX",75057,33.0453524160001,-96.9892661759999,300,"128 LEONARD STREET, LEWISVILLE, TX, 75057","Match","Exact","128 LEONARD ST, LEWISVILLE, TX, 75057",616849927,"L"
44801,"128 LITCHFIELD AVENUE","BABYLON","NY",11702,40.7000011320001,-73.3358752189999,301,"128 LITCHFIELD AVENUE, BABYLON, NY, 11702","Match","Exact","128 LITCHFIELD AVE, BABYLON, NY, 11702",113978210,"L"
44802,"128 LITTLE JOHN RD","WILLIAMSBURG","VA",23185,37.28433217,-76.662283766,302,"128 LITTLE JOHN RD, WILLIAMSBURG, VA, 23185","Match","Exact","128 LITTLE JOHN RD, WILLIAMSBURG, VA, 23185",103797638,"L"
44803,"128 LIVINGSTON STREET LOWER APT","BUFFALO","NY",14213,42.919196518,-78.883308697,303,"128 LIVINGSTON STREET LOWER APT, BUFFALO, NY, 14213","Match","Exact","128 LIVINGSTON ST, BUFFALO, NY, 14213",48289069,"L"
44804,"128 LONE OAK RD","LONGVIEW","WA",98632,46.1785567210001,-122.986207022,304,"128 LONE OAK RD, LONGVIEW, WA, 98632","Match","Exact","128 LONE OAK RD, LONGVIEW, WA, 98632",649596804,"R"
44805,"128 LOST TREE DR","COLUMBIA","SC",29223,34.1212905990001,-80.912304265,305,"128 LOST TREE DR, COLUMBIA, SC, 29223","Match","Exact","128 LOST TREE DR, COLUMBIA, SC, 29223",71852540,"R"
44806,"128 LYNN DR","LAFAYETTE","LA",70508,30.15516295,-91.9884906779999,306,"128 LYNN DR, LAFAYETTE, LA, 70508","Match","Exact","128 LYNN DR, LAFAYETTE, LA, 70508",85623020,"R"
44807,"128 MAIN ST WEST","SLEEPY EYE","MN",56085,44.2972629810001,-94.723312979,307,"128 MAIN ST WEST, SLEEPY EYE, MN, 56085","Match","Exact","128 MAIN ST W, SLEEPY EYE, MN, 56085",28567168,"R"
44808,"128 MAIN ST","NEW MARTINSVILLE","WV",26155,39.638290727,-80.86619223,308,"128 MAIN ST, NEW MARTINSVILLE, WV, 26155","Match","Exact","128 MAIN ST, NEW MARTINSVILLE, WV, 26155",51572944,"L"
44809,"128 MALLORY AVE","JERSEY CITY","NJ",7304,40.7185238160001,-74.0890480699999,309,"128 MALLORY AVE, JERSEY CITY, NJ, 7304","Match","Exact","128 MALLORY AVE, JERSEY CITY, NJ, 07304",59602046,"R"
44810,"128 MAPLE STREET","EAST LONGMEADOW","MA",1028,42.0615234090001,-72.5214324249999,310,"128 MAPLE STREET, EAST LONGMEADOW, MA, 1028","Match","Exact","128 MAPLE ST, E LONGMEADOW, MA, 01028",4064055,"L"
44811,"128 MARINE AVE 4C","BROOKLYN","NY",11209,40.617025416,-74.0359109999999,311,"128 MARINE AVE 4C, BROOKLYN, NY, 11209","Match","Exact","128 MARINE AVE, BROOKLYN, NY, 11209",59087403,"R"
44812,"128 MARKET STREET","LEECHBURG","PA",15656,40.626999089,-79.606865435,312,"128 MARKET STREET, LEECHBURG, PA, 15656","Match","Exact","128 MARKET ST, LEECHBURG, PA, 15656",52482137,"R"
44813,"128 MARY JAY DRIVE","WARNER ROBINS","GA",31088,32.6047370050001,-83.647385562,313,"128 MARY JAY DRIVE, WARNER ROBINS, GA, 31088","Match","Non_Exact","128 MARY LN, WARNER ROBINS, GA, 31088",91218810,"R"
44814,"128 MCCRACKEN STREET","FORT KNOX","KY",40121,NA,NA,314,"128 MCCRACKEN STREET, FORT KNOX, KY, 40121","No_Match",NA,NA,NA,NA
44815,"128 MCDANIEL STREET","DAYTON","OH",45405,39.767504396,-84.195805031,315,"128 MCDANIEL STREET, DAYTON, OH, 45405","Match","Exact","128 MCDANIEL ST, DAYTON, OH, 45405",143571285,"R"
44816,"128 MELBOURNE LANE","MECHANICSBURG","PA",17055,40.2074453660001,-76.9837444089999,316,"128 MELBOURNE LANE, MECHANICSBURG, PA, 17055","Match","Exact","128 MELBOURNE LN, MECHANICSBURG, PA, 17055",627856842,"R"
44817,"128 MILL STREET PO BOX 389","HILLSBORO","WI",54634,43.6510585300001,-90.3400619879999,317,"128 MILL STREET PO BOX 389, HILLSBORO, WI, 54634","Match","Exact","128 MILL ST, HILLSBORO, WI, 54634",48627673,"R"
44818,"128 MOORE DRIVE","ROCKVILLE","MD",20850,39.0958428050001,-77.146527444,318,"128 MOORE DRIVE, ROCKVILLE, MD, 20850","Match","Exact","128 MOORE DR, ROCKVILLE, MD, 20850",62054648,"L"
44819,"128 MOTT STREET SUITE 207","NEW YORK","NY",10013,40.7183507660001,-73.996802568,319,"128 MOTT STREET SUITE 207, NEW YORK, NY, 10013","Match","Exact","128 MOTT ST, NEW YORK, NY, 10013",59653801,"R"
44820,"128 MOUNT VIEW DRIVE","WHEELING","WV",26003,40.01053376,-80.6864239339999,320,"128 MOUNT VIEW DRIVE, WHEELING, WV, 26003","Match","Exact","128 MT VIEW DR, WHEELING, WV, 26003",38063102,"L"
44821,"128 N  CRESTVIEW DR","GWINN","MI",49841,46.2798833680001,-87.460482403,321,"128 N  CRESTVIEW DR, GWINN, MI, 49841","Match","Exact","128 CRESTVIEW DR, GWINN, MI, 49841",627591828,"R"
44822,"128 N 5TH STREET","READING","PA",19601,40.3374478000001,-75.927826162,322,"128 N 5TH STREET, READING, PA, 19601","Match","Exact","128 5TH ST, READING, PA, 19601",80382919,"L"
44823,"128 N HOFF AVE 1","TUCSON","AZ",85705,32.223131612,-110.964774874,323,"128 N HOFF AVE 1, TUCSON, AZ, 85705","Match","Non_Exact","128 N HOFF AVE, TUCSON, AZ, 85705",121170914,"R"
44824,"128 N MAIN ST","EUREKA","IL",61530,40.721732419,-89.272859674,324,"128 N MAIN ST, EUREKA, IL, 61530","Match","Exact","128 N MAIN ST, EUREKA, IL, 61530",8998742,"R"
44825,"128 N MAPLE AVE","BASKING RIDGE","NJ",7920,40.7146890130001,-74.543243677,325,"128 N MAPLE AVE, BASKING RIDGE, NJ, 7920","Match","Exact","128 N MAPLE AVE, BASKING RIDGE, NJ, 07920",60002610,"L"
44826,"128 N MAPLE AVENUE","CO VINGTON","VA",24426,37.7898338150001,-79.9952443349999,326,"128 N MAPLE AVENUE, CO VINGTON, VA, 24426","Match","Non_Exact","128 N MAPLE AVE, COVINGTON, VA, 24426",62548466,"L"
44827,"128 N MARKET ST","MINERVA","OH",44657,40.7282619850001,-81.1034977749999,327,"128 N MARKET ST, MINERVA, OH, 44657","Match","Exact","128 N MARKET ST, MINERVA, OH, 44657",642486858,"L"
44828,"128 N N ST","LOMPOC","CA",93436,34.6399671030001,-120.465502449,328,"128 N N ST, LOMPOC, CA, 93436","Match","Exact","128 N N ST, LOMPOC, CA, 93436",108658062,"L"
44829,"128 N ROBERTS RD","CEDAR HILL","TX",75104,32.5908457630001,-96.958534254,329,"128 N ROBERTS RD, CEDAR HILL, TX, 75104","Match","Exact","128 N ROBERTS RD, CEDAR HILL, TX, 75104",102942310,"L"
44830,"128 N SECOND STREET SUITE 106","CLARKSVILLE","TN",37040,NA,NA,330,"128 N SECOND STREET SUITE 106, CLARKSVILLE, TN, 37040","Tie",NA,NA,NA,NA
44831,"128 NORTH ADAMS","MEMPHIS","MO",63555,40.4592734720001,-92.168228755,331,"128 NORTH ADAMS, MEMPHIS, MO, 63555","Match","Non_Exact","128 N ADAMS ST, MEMPHIS, MO, 63555",13231819,"R"
44832,"128 NORTH COUNTY STREET","WAUKEGAN","IL",60085,42.3613756940001,-87.832579346,332,"128 NORTH COUNTY STREET, WAUKEGAN, IL, 60085","Match","Exact","128 N COUNTY ST, WAUKEGAN, IL, 60085",119645463,"L"
44833,"128 NORTH MAIN ST","PROVIDENCE","RI",2903,41.828503846,-71.409594311,333,"128 NORTH MAIN ST, PROVIDENCE, RI, 2903","Match","Exact","128 N MAIN ST, PROVIDENCE, RI, 02903",47493852,"R"
44834,"128 NORTH MAIN ST","ROBBINSVILLE","NC",28771,35.3246893990001,-83.807351059,334,"128 NORTH MAIN ST, ROBBINSVILLE, NC, 28771","Match","Exact","128 N MAIN ST, ROBBINSVILLE, NC, 28771",639869742,"R"
44835,"128 NORTH MAPLE AVE","BASKING RIDGE","NJ",7920,40.714646557,-74.5432837939999,335,"128 NORTH MAPLE AVE, BASKING RIDGE, NJ, 7920","Match","Exact","128 N MAPLE AVE, BASKING RIDGE, NJ, 07920",60002610,"L"
44836,"128 NW 4TH AVE","HALLANDALE BEACH","FL",33009,NA,NA,336,"128 NW 4TH AVE, HALLANDALE BEACH, FL, 33009","Tie",NA,NA,NA,NA
44837,"128 OAK VIEW DR","BOERNE","TX",78006,29.761455104,-98.744989141,337,"128 OAK VIEW DR, BOERNE, TX, 78006","Match","Exact","128 OAK VIEW DR, BOERNE, TX, 78006",102757681,"L"
44838,"128 OAKLAND ST","RAPID CITY","SD",57701,44.0603750400001,-103.220374756,338,"128 OAKLAND ST, RAPID CITY, SD, 57701","Match","Exact","128 OAKLAND ST, RAPID CITY, SD, 57701",205508764,"R"
44839,"128 OLDE FIELD ROAD","NEWTON","MA",2459,42.315130659,-71.191602831,339,"128 OLDE FIELD ROAD, NEWTON, MA, 2459","Match","Exact","128 OLDE FIELD RD, NEWTON, MA, 02459",86867015,"L"
44840,"128 OXFORD ROAD","GREENWOOD","SC",29649,34.231488035,-82.184317817,340,"128 OXFORD ROAD, GREENWOOD, SC, 29649","Match","Exact","128 OXFORD RD, GREENWOOD, SC, 29649",50819089,"R"
44841,"128 OXFORD STREET","CAMBRIDGE","MA",2140,42.384872785,-71.1161041569999,341,"128 OXFORD STREET, CAMBRIDGE, MA, 2140","Match","Exact","128 OXFORD ST, CAMBRIDGE, MA, 02140",86868374,"R"
44842,"128 PARKWAY N","BREWER","ME",4412,44.7950955200001,-68.7496009559999,342,"128 PARKWAY N, BREWER, ME, 4412","Match","Exact","128 PARKWAY N, BREWER, ME, 04412",123629758,"L"
44843,"128 PATTERSON ROAD","WILLOW CREEK","CA",95573,40.947192197,-123.628529001,343,"128 PATTERSON ROAD, WILLOW CREEK, CA, 95573","Match","Exact","128 PATTERSON RD, WILLOW CREEK, CA, 95573",627325711,"L"
44844,"128 PERSINGER STREET","BECKLEY","WV",25801,37.747497391,-81.236651589,344,"128 PERSINGER STREET, BECKLEY, WV, 25801","Match","Exact","128 PERSINGER ST, BECKLEY, WV, 25801",652539607,"R"
44845,"128 PLUMMER ROAD","SIDMAN","PA",15955,40.332621304,-78.745523534,345,"128 PLUMMER ROAD, SIDMAN, PA, 15955","Match","Exact","128 PLUMMER RD, SIDMAN, PA, 15955",50264018,"L"
44846,"128 POPLAR STREET","WEST HEMPSTEAD","NY",11552,40.7016306630001,-73.650471481,346,"128 POPLAR STREET, WEST HEMPSTEAD, NY, 11552","Match","Exact","128 POPLAR ST, W HEMPSTEAD, NY, 11552",147675776,"R"
44847,"128 PORT AVE","ROCKPORT","TX",78382,27.969784759,-97.092393374,347,"128 PORT AVE, ROCKPORT, TX, 78382","Match","Exact","128 PORT AVE, ROCKPORT, TX, 78382",638829056,"R"
44848,"128 POSITANO CT","PURCELLVILLE","VA",20132,39.135070763,-77.709831363,348,"128 POSITANO CT, PURCELLVILLE, VA, 20132","Match","Exact","128 POSITANO CT, PURCELLVILLE, VA, 20132",218930341,"L"
44849,"128 PROSPECT AVE","DOUGLASTON","NY",11363,40.7715049010001,-73.7478797489999,349,"128 PROSPECT AVE, DOUGLASTON, NY, 11363","Match","Exact","128 PROSPECT AVE, DOUGLASTON, NY, 11363",59703758,"L"
44850,"128 PROSPECT AVENUE","DOUGLASTON","NY",11363,40.7715049010001,-73.7478797489999,350,"128 PROSPECT AVENUE, DOUGLASTON, NY, 11363","Match","Exact","128 PROSPECT AVE, DOUGLASTON, NY, 11363",59703758,"L"
44851,"128 QUAKER RD","HAMPTON","VA",23669,37.0534129270001,-76.3350729799999,351,"128 QUAKER RD, HAMPTON, VA, 23669","Match","Exact","128 QUAKER RD, HAMPTON, VA, 23669",103803087,"R"
44852,"128 RACE STREET","GRASS VALLEY","CA",95945,39.213067783,-121.060270081,352,"128 RACE STREET, GRASS VALLEY, CA, 95945","Match","Exact","128 RACE ST, GRASS VALLEY, CA, 95945",106534071,"R"
44853,"128 RALSTON AVENUE","KENMORE","NY",14217,42.9755452150001,-78.883224275,353,"128 RALSTON AVENUE, KENMORE, NY, 14217","Match","Exact","128 RALSTON AVE, KENMORE, NY, 14217",48287335,"L"
44854,"128 READER CT","PATASKALA","OH",43062,39.967168546,-82.678778231,354,"128 READER CT, PATASKALA, OH, 43062","Match","Exact","128 READER CT, PATASKALA, OH, 43062",612025239,"R"
44855,"128 RIERCLIFF ROAD","SAINT ALBANS","WV",25177,38.363745796,-81.843046709,355,"128 RIERCLIFF ROAD, SAINT ALBANS, WV, 25177","Match","Exact","128 RIERCLIFF RD, SAINT ALBANS, WV, 25177",637499942,"R"
44856,"128 RIPPLING BROOK LANE","SPRINGBORO","OH",45066,NA,NA,356,"128 RIPPLING BROOK LANE, SPRINGBORO, OH, 45066","No_Match",NA,NA,NA,NA
44857,"128 RIVERSIDE DRIVE","RIVERHEAD","NY",11901,40.919234111,-72.651693801,357,"128 RIVERSIDE DRIVE, RIVERHEAD, NY, 11901","Match","Exact","128 RIVERSIDE DR, RIVERHEAD, NY, 11901",114024271,"L"
44858,"128 RIVINGTON STREET APT 4F","NEW YORK","NY",10002,40.71969936,-73.9870755699999,358,"128 RIVINGTON STREET APT 4F, NEW YORK, NY, 10002","Match","Exact","128 RIVINGTON ST, NEW YORK, NY, 10002",59654122,"L"
44859,"128 ROBERTSON RD","BALL","LA",71405,31.4317005890001,-92.413060953,359,"128 ROBERTSON RD, BALL, LA, 71405","Match","Exact","128 ROBERTSON RD, BALL, LA, 71405",612137438,"L"
44860,"128 ROCK ISLAND ST","SPRING VALLEY","IL",61362,41.3231086110001,-89.220267367,360,"128 ROCK ISLAND ST, SPRING VALLEY, IL, 61362","Match","Exact","128 ROCK ISLAND ST, SPRING VALLEY, IL, 61362",8485442,"L"
44861,"128 S AUSTIN BLVD","OAK PARK","IL",60304,41.8780907350001,-87.7745879139999,361,"128 S AUSTIN BLVD, OAK PARK, IL, 60304","Match","Exact","128 S AUSTIN BLVD, OAK PARK, IL, 60304",112226264,"R"
44862,"128 S CROWDER ST","SULLIVAN","IN",47882,39.0935140190001,-87.411425419,362,"128 S CROWDER ST, SULLIVAN, IN, 47882","Match","Exact","128 S CROWDER ST, SULLIVAN, IN, 47882",27074842,"L"
44863,"128 S EAST ST UNIT 1202","CROWN POINT","IN",46308,NA,NA,363,"128 S EAST ST UNIT 1202, CROWN POINT, IN, 46308","No_Match",NA,NA,NA,NA
44864,"128 S JACKSON STREET","WOODBURY","NJ",8096,39.8378398900001,-75.159768819,364,"128 S JACKSON STREET, WOODBURY, NJ, 8096","Match","Exact","128 S JACKSON ST, WOODBURY, NJ, 08096",134583195,"L"
44865,"128 S JANE DRIVE","ELGIN","IL",60123,42.0308869470001,-88.316083798,365,"128 S JANE DRIVE, ELGIN, IL, 60123","Match","Exact","128 S JANE DR, ELGIN, IL, 60123",119503089,"R"
44866,"128 S MAIN STREET","HINESVILLE","GA",31313,31.847857902,-81.596164522,366,"128 S MAIN STREET, HINESVILLE, GA, 31313","Match","Non_Exact","128 N MAIN ST, HINESVILLE, GA, 31313",6327432,"R"
44867,"128 S PARLIAMENT WAY","CLAYTON","NC",27520,NA,NA,367,"128 S PARLIAMENT WAY, CLAYTON, NC, 27520","No_Match",NA,NA,NA,NA
44868,"128 SADDLENOTCH DR","HORSESHOE BEND","ID",83629,43.9141427390001,-116.19414872,368,"128 SADDLENOTCH DR, HORSESHOE BEND, ID, 83629","Match","Exact","128 SADDLENOTCH DR, HORSESHOE BEND, ID, 83629",637478283,"L"
44869,"128 SANDY LANE","WEST PALM BCH","FL",33411,26.718146625,-80.22795445,369,"128 SANDY LANE, WEST PALM BCH, FL, 33411","Match","Exact","128 SANDY LN, WEST PALM BEACH, FL, 33411",115569449,"R"
44870,"128 SARATOGA CIRCLE","RICHMOND","KY",40475,37.7817545400001,-84.324650756,370,"128 SARATOGA CIRCLE, RICHMOND, KY, 40475","Match","Exact","128 SARATOGA CIR, RICHMOND, KY, 40475",31999474,"R"
44871,"128 SEARS AVE","ATLANTIC HEIGHT","NJ",7716,NA,NA,371,"128 SEARS AVE, ATLANTIC HEIGHT, NJ, 7716","No_Match",NA,NA,NA,NA
44872,"128 SENATE DRIVE","ROCKFORD","IL",61109,42.23499481,-89.0633209329999,372,"128 SENATE DRIVE, ROCKFORD, IL, 61109","Match","Exact","128 SENATE DR, ROCKFORD, IL, 61109",640226858,"L"
44873,"128 SEWANEE AVENUE","ATLANTA","GA",30314,33.757596612,-84.465143218,373,"128 SEWANEE AVENUE, ATLANTA, GA, 30314","Match","Non_Exact","128 SEWANEE AVE NW, ATLANTA, GA, 30314",649756194,"L"
44874,"128 SHANANDOAH LANE","MURPHY","TX",75094,33.0256245640001,-96.614625484,374,"128 SHANANDOAH LANE, MURPHY, TX, 75094","Match","Exact","128 SHANANDOAH LN, MURPHY, TX, 75094",123565233,"L"
44875,"128 SHEFFIELD RD","ALAMEDA","CA",94502,37.7461566850001,-122.250963169,375,"128 SHEFFIELD RD, ALAMEDA, CA, 94502","Match","Exact","128 SHEFFIELD RD, ALAMEDA, CA, 94502",125005650,"R"
44876,"128 SHELDON DRIVE","MOORE","SC",29369,34.894072432,-81.975954272,376,"128 SHELDON DRIVE, MOORE, SC, 29369","Match","Exact","128 SHELDON DR, MOORE, SC, 29369",19496045,"R"
44877,"128 SHIVEL DR","HENDERSONVILLE","TN",37075,36.302363418,-86.6232467849999,377,"128 SHIVEL DR, HENDERSONVILLE, TN, 37075","Match","Exact","128 SHIVEL DR, HENDERSONVILLE, TN, 37075",29783218,"R"
44878,"128 SIXTH AVE","PELHAM","NY",10803,40.91320921,-73.8077743819999,378,"128 SIXTH AVE, PELHAM, NY, 10803","Match","Exact","128 6TH AVE, PELHAM, NY, 10803",624481884,"R"
44879,"128 SOUTH BARTLETT STREET","SHAWANO","WI",54166,44.781442843,-88.6156705499999,379,"128 SOUTH BARTLETT STREET, SHAWANO, WI, 54166","Match","Exact","128 S BARTLETT ST, SHAWANO, WI, 54166",126864246,"R"
44880,"128 SOUTH BROADWAY","BLYTHE","CA",92225,33.6093409590001,-114.596770865,380,"128 SOUTH BROADWAY, BLYTHE, CA, 92225","Match","Exact","128 S BROADWAY, BLYTHE, CA, 92225",608978490,"R"
44881,"128 SOUTH CADILLAC DRIVE","YOUNGSTOWN","OH",44512,41.0359326430001,-80.666781962,381,"128 SOUTH CADILLAC DRIVE, YOUNGSTOWN, OH, 44512","Match","Exact","128 S CADILLAC DR, YOUNGSTOWN, OH, 44512",64616461,"R"
44882,"128 SOUTH MAIN STREET","ALBURGH","VT",5440,44.970236114,-73.3024097059999,382,"128 SOUTH MAIN STREET, ALBURGH, VT, 5440","Match","Exact","128 S MAIN ST, ALBURGH, VT, 05440",640410536,"L"
44883,"128 SOUTH RAILROAD AVENUE","STATEN ISLAND","NY",10305,40.5925145090001,-74.0902134519999,383,"128 SOUTH RAILROAD AVENUE, STATEN ISLAND, NY, 10305","Match","Exact","128 S RAILROAD AVE, STATEN ISLAND, NY, 10305",59892922,"R"
44884,"128 SOUTH STARR RD","APACHE JUNCTION","AZ",85119,33.4139392650001,-111.515780515,384,"128 SOUTH STARR RD, APACHE JUNCTION, AZ, 85119","Match","Exact","128 S STARR RD, APACHE JUNCTION, AZ, 85119",648010432,"L"
44885,"128 SPRINGLAKES DRIVE","MARTINEZ","GA",30907,33.5038780360001,-82.116342109,385,"128 SPRINGLAKES DRIVE, MARTINEZ, GA, 30907","Match","Exact","128 SPRINGLAKES DR, MARTINEZ, GA, 30907",55374607,"R"
44886,"128 STONE RUN LANE","IDAHO FALLS","ID",83404,43.4670382210001,-112.032729807,386,"128 STONE RUN LANE, IDAHO FALLS, ID, 83404","Match","Exact","128 STONE RUN LN, IDAHO FALLS, ID, 83404",119138263,"R"
44887,"128 STONEHEDGE BLVD","GEORGETOWN","TX",78626,30.636532647,-97.641146745,387,"128 STONEHEDGE BLVD, GEORGETOWN, TX, 78626","Match","Exact","128 STONEHEDGE BLVD, GEORGETOWN, TX, 78626",636384077,"L"
44888,"128 SUNSET HILLS DRIVE","FLORENCE","MS",39073,32.153177805,-90.148335346,388,"128 SUNSET HILLS DRIVE, FLORENCE, MS, 39073","Match","Exact","128 SUNSET HILLS DR, FLORENCE, MS, 39073",116918874,"R"
44889,"128 SWEETMANS LANE","MANALAPAN","NJ",7726,40.238801762,-74.3639043599999,389,"128 SWEETMANS LANE, MANALAPAN, NJ, 7726","Match","Exact","128 SWEETMANS LN, MANALAPAN, NJ, 07726",90447319,"R"
44890,"128 SYCAMORE ST","HOLYOKE","MA",1040,42.2034606240001,-72.624670941,390,"128 SYCAMORE ST, HOLYOKE, MA, 1040","Match","Exact","128 SYCAMORE ST, HOLYOKE, MA, 01040",4017546,"L"
44891,"128 TEMPLE RD","MARYVILLE","TN",37804,35.8089329740001,-83.838208343,391,"128 TEMPLE RD, MARYVILLE, TN, 37804","Match","Exact","128 TEMPLE RD, MARYVILLE, TN, 37804",89835192,"L"
44892,"128 TRILLIUM DRIVE","ANDERSON","TN",37705,36.1962189110001,-84.0313438479999,392,"128 TRILLIUM DRIVE, ANDERSON, TN, 37705","Match","Non_Exact","128 TRILLIUM DR, ANDERSONVILLE, TN, 37705",635787146,"R"
44893,"128 TURNPIKE ROAD","NORWICH","VT",5055,43.724569677,-72.313490574,393,"128 TURNPIKE ROAD, NORWICH, VT, 5055","Match","Exact","128 TURNPIKE RD, NORWICH, VT, 05055",139237918,"R"
44894,"128 VANDIVER DR","MADISON","TN",37115,36.2647871520001,-86.679008788,394,"128 VANDIVER DR, MADISON, TN, 37115","Match","Exact","128 VANDIVER DR, MADISON, TN, 37115",639902221,"R"
44895,"128 VILLAGE GREEN TRAIL","GARNER","NC",27529,35.6922433180001,-78.6179845789999,395,"128 VILLAGE GREEN TRAIL, GARNER, NC, 27529","Match","Exact","128 VILLAGE GREEN TRL, GARNER, NC, 27529",72650135,"R"
44896,"128 VINE ST","LOCKPORT","NY",14094,43.175879148,-78.677870963,396,"128 VINE ST, LOCKPORT, NY, 14094","Match","Exact","128 VINE ST, LOCKPORT, NY, 14094",48691762,"L"
44897,"128 VINTAGE CIR","LAKEWOOD","NJ",8701,40.0950615940001,-74.197074952,397,"128 VINTAGE CIR, LAKEWOOD, NJ, 8701","Match","Exact","128 VINTAGE CIR, LAKEWOOD, NJ, 08701",641910077,"L"
44898,"128 VIRGINIA CIRCLE","CAIRO","GA",39828,30.869943074,-84.121414382,398,"128 VIRGINIA CIRCLE, CAIRO, GA, 39828","Match","Exact","128 VIRGINIA CIR, CAIRO, GA, 39828",628040592,"L"
44899,"128 W  132ND ST","NEW YORK","NY",10027,40.812614953,-73.943252269,399,"128 W  132ND ST, NEW YORK, NY, 10027","Match","Exact","128 W 132ND ST, NEW YORK, NY, 10027",642471676,"L"
44900,"128 W 100 N","KAYSVILLE","UT",84037,41.0365032180001,-111.94055675,400,"128 W 100 N, KAYSVILLE, UT, 84037","Match","Exact","128 W 100 N, KAYSVILLE, UT, 84037",155308080,"R"
44901,"128 W GODDARD AVE","MARYVILLE","TN",37803,35.75245578,-83.968020968,401,"128 W GODDARD AVE, MARYVILLE, TN, 37803","Match","Exact","128 W GODDARD AVE, MARYVILLE, TN, 37803",89831703,"R"
44902,"128 W HIGH ST","WOODSTOCK","VA",22664,38.8805815060001,-78.5069485339999,402,"128 W HIGH ST, WOODSTOCK, VA, 22664","Match","Exact","128 W HIGH ST, WOODSTOCK, VA, 22664",55926134,"R"
44903,"128 W MAIN ST","CAMPBELSPORT","WI",53010,43.59814608,-88.2862360029999,403,"128 W MAIN ST, CAMPBELSPORT, WI, 53010","Match","Non_Exact","128 W MAIN ST, CAMPBELLSPORT, WI, 53010",74820885,"R"
44904,"128 W OAK STREET","ARCADIA","FL",34266,27.216264573,-81.862707096,404,"128 W OAK STREET, ARCADIA, FL, 34266","Match","Exact","128 W OAK ST, ARCADIA, FL, 34266",16161826,"R"
44905,"128 W VICTORIA CT APT B","GREENVILLE","NC",27834,35.5669801450001,-77.38458624,405,"128 W VICTORIA CT APT B, GREENVILLE, NC, 27834","Match","Non_Exact","128 W VICTORIA CT, GREENVILLE, NC, 27834",80017209,"R"
44906,"128 WAINWRIGHT MANOR","SUMMERVILLE","SC",29485,32.9709431740001,-80.177867099,406,"128 WAINWRIGHT MANOR, SUMMERVILLE, SC, 29485","Match","Exact","128 WAINWRIGHT MANOR, SUMMERVILLE, SC, 29485",178465530,"L"
44907,"128 WATERSTONE WAY","MONTEVALLO","AL",35115,33.1486220640001,-86.7813672409999,407,"128 WATERSTONE WAY, MONTEVALLO, AL, 35115","Match","Exact","128 WATERSTONE WAY, MONTEVALLO, AL, 35115",640747018,"R"
44908,"128 WEATHERSPOON LN","SMITHFIELD","NC",27577,35.56253502,-78.373141233,408,"128 WEATHERSPOON LN, SMITHFIELD, NC, 27577","Match","Exact","128 WEATHERSPOON LN, SMITHFIELD, NC, 27577",26560164,"R"
44909,"128 WESLEY DR","MECHANICSBURG","PA",17055,40.2160250260001,-76.974407315,409,"128 WESLEY DR, MECHANICSBURG, PA, 17055","Match","Exact","128 WESLEY DR, MECHANICSBURG, PA, 17055",60943286,"R"
44910,"128 WEST COUNCIL ST","BISHOPVILLE","SC",29010,34.219278097,-80.2478752009999,410,"128 WEST COUNCIL ST, BISHOPVILLE, SC, 29010","Match","Exact","128 W COUNCIL ST, BISHOPVILLE, SC, 29010",79593222,"R"
44911,"128 WEST CUNNINGHAM STREET","BUTLER","PA",16001,40.8598267570001,-79.8955618379999,411,"128 WEST CUNNINGHAM STREET, BUTLER, PA, 16001","Match","Exact","128 W CUNNINGHAM ST, BUTLER, PA, 16001",52653780,"R"
44912,"128 WEST FIFTH AVENUE","GARNETT","KS",66032,38.279853056,-95.2427856749999,412,"128 WEST FIFTH AVENUE, GARNETT, KS, 66032","Match","Exact","128 W 5TH AVE, GARNETT, KS, 66032",10462643,"R"
44913,"128 WEST GRAND RIVER AVENUE","WILLIAMSTON","MI",48895,42.6890695170001,-84.283948701,413,"128 WEST GRAND RIVER AVENUE, WILLIAMSTON, MI, 48895","Match","Exact","128 W GRAND RIVER AVE, WILLIAMSTON, MI, 48895",17507314,"R"
44914,"128 WEST HAMILTON ST","SUMMERVILLE / LINCOL","SC",29485,33.008813106,-80.156513041,414,"128 WEST HAMILTON ST, SUMMERVILLE / LINCOL, SC, 29485","Match","Non_Exact","128 W HAMILTON ST, SUMMERVILLE, SC, 29485",108795854,"R"
44915,"128 WEST LAS FLORES AVE","ARCADIA","CA",91007,34.116018689,-118.035329918,415,"128 WEST LAS FLORES AVE, ARCADIA, CA, 91007","Match","Exact","128 W LAS FLORES AVE, ARCADIA, CA, 91007",642862613,"L"
44916,"128 WEST MAIN ST","CONWAY","NH",3818,43.9762231780001,-71.130621627,416,"128 WEST MAIN ST, CONWAY, NH, 3818","Match","Exact","128 W MAIN ST, CONWAY, NH, 03818",145609111,"L"
44917,"128 WEST OXFORD LANE","GILBERT","AZ",85233,33.318938282,-111.792992749,417,"128 WEST OXFORD LANE, GILBERT, AZ, 85233","Match","Exact","128 W OXFORD LN, GILBERT, AZ, 85233",128826733,"R"
44918,"128 WEST SOUTH STREET","ST. MARYS","OH",45885,40.5421490910001,-84.387162906,418,"128 WEST SOUTH STREET, ST. MARYS, OH, 45885","Match","Exact","128 W SOUTH ST, SAINT MARYS, OH, 45885",209202506,"L"
44919,"128 WEST STATE STREET","TRENTON","NJ",8608,40.2208454990001,-74.769362692,419,"128 WEST STATE STREET, TRENTON, NJ, 8608","Match","Exact","128 W STATE ST, TRENTON, NJ, 08608",648478364,"R"
44920,"128 WEST WOODROW SCHOOL ROAD","MURFREESBORO","NC",27855,36.4068636330001,-77.085712708,420,"128 WEST WOODROW SCHOOL ROAD, MURFREESBORO, NC, 27855","Match","Exact","128 W WOODROW SCHOOL RD, MURFREESBORO, NC, 27855",636070875,"R"
44921,"128 WHITE STREET","SHREWSBURY","NJ",7702,40.3299297130001,-74.056398197,421,"128 WHITE STREET, SHREWSBURY, NJ, 7702","Match","Exact","128 WHITE ST, SHREWSBURY, NJ, 07702",90454810,"R"
44922,"128 WILLIAM ST","OLD FORGE","PA",18518,41.3744433300001,-75.7384229799999,422,"128 WILLIAM ST, OLD FORGE, PA, 18518","Match","Exact","128 WILLIAM ST, OLD FORGE, PA, 18518",139320489,"R"
44923,"128 WILLIAMS DR","WOODLAND PARK","NJ",7424,40.8861266910001,-74.1989094159999,423,"128 WILLIAMS DR, WOODLAND PARK, NJ, 7424","Match","Exact","128 WILLIAMS DR, WOODLAND PARK, NJ, 07424",65261836,"R"
44924,"128 WILLOW POND LANE","PONTE VEDRA BEACH","FL",32082,30.1902637740001,-81.3791003549999,424,"128 WILLOW POND LANE, PONTE VEDRA BEACH, FL, 32082","Match","Exact","128 WILLOW POND LN, PONTE VEDRA BEACH, FL, 32082",92617364,"R"
44925,"128 WIND CHIME CT","RALEIGH","NC",27615,35.8742719190001,-78.643073439,425,"128 WIND CHIME CT, RALEIGH, NC, 27615","Match","Exact","128 WIND CHIME CT, RALEIGH, NC, 27615",72663530,"R"
44926,"128 WOODSTREAM ROAD","BOOTHWYN","PA",19061,39.8453341320001,-75.4512616489999,426,"128 WOODSTREAM ROAD, BOOTHWYN, PA, 19061","Match","Exact","128 WOODSTREAM RD, BOOTHWYN, PA, 19061",134899200,"R"
44927,"128 WYNCHURCH CIRCLE","PITTSTON","PA",18640,41.301139941,-75.788799465,427,"128 WYNCHURCH CIRCLE, PITTSTON, PA, 18640","Match","Exact","128 WYNCHURCH CIR, PITTSTON, PA, 18640",651757215,"R"
44928,"128-07 PEARL ROAD","COLLEGE POINT","NY",11356,40.7924607240001,-73.839705586,428,"128-07 PEARL ROAD, COLLEGE POINT, NY, 11356","Match","Exact","128-7 PEARL RD, COLLEGE POINT, NY, 11356",59728068,"L"
44929,"128-26 FRANCIS LEWIS BLVD","LAURELTON","NY",11413,40.6827001730001,-73.735116149,429,"128-26 FRANCIS LEWIS BLVD, LAURELTON, NY, 11413","Match","Exact","128-26 FRANCIS LEWIS BLVD, LAURELTON, NY, 11413",59720960,"R"
44930,"128-32 234TH ST","ROSEDALE","NY",11422,40.682107569,-73.732440966,430,"128-32 234TH ST, ROSEDALE, NY, 11422","Match","Exact","128-32 234TH ST, ROSEDALE, NY, 11422",59721036,"R"
44931,"1280 5TH AVENUE 20C","NEW YORK","NY",10029,40.7962823490001,-73.949639641,431,"1280 5TH AVENUE 20C, NEW YORK, NY, 10029","Match","Exact","1280 5TH AVE, NEW YORK, NY, 10029",59657773,"R"
44932,"1280 AMETHYST WAY","CALEXICO","CA",92231,32.685319485,-115.477861805,432,"1280 AMETHYST WAY, CALEXICO, CA, 92231","Match","Exact","1280 AMETHYST WAY, CALEXICO, CA, 92231",611780798,"L"
44933,"1280 BEECHWOOD BLVD","PITTSBURGH","PA",15206,40.4466037890001,-79.9184688029999,433,"1280 BEECHWOOD BLVD, PITTSBURGH, PA, 15206","Match","Exact","1280 BEECHWOOD BLVD, PITTSBURGH, PA, 15206",51652104,"R"
44934,"1280 BRANDL DRIVE","MARIETTA","GA",30008,33.921404201,-84.565689,434,"1280 BRANDL DRIVE, MARIETTA, GA, 30008","Match","Exact","1280 BRANDL DR, MARIETTA, GA, 30008",17260712,"L"
44935,"1280 BRANGWYN WAY","LAGUNA BEACH","CA",92651,33.5349425410001,-117.772267568,435,"1280 BRANGWYN WAY, LAGUNA BEACH, CA, 92651","Match","Exact","1280 BRANGWYN WAY, LAGUNA BEACH, CA, 92651",144068830,"L"
44936,"1280 CARRIAGE HOUSE LANE APT G","CHARLOTTE","NC",28054,35.2452437480001,-81.1340508219999,436,"1280 CARRIAGE HOUSE LANE APT G, CHARLOTTE, NC, 28054","Match","Non_Exact","1280 CARRIAGE HOUSE LN, GASTONIA, NC, 28054",70381709,"L"
44937,"1280 CLOVER LANE","HARRISBURG","PA",17113,40.2443347110001,-76.8096686119999,437,"1280 CLOVER LANE, HARRISBURG, PA, 17113","Match","Exact","1280 CLOVER LN, HARRISBURG, PA, 17113",70841056,"L"
44938,"1280 COLONIAL DRIVE","MORGANTOWN","WV",26505,39.660761017,-79.964891887,438,"1280 COLONIAL DRIVE, MORGANTOWN, WV, 26505","Match","Exact","1280 COLONIAL DR, MORGANTOWN, WV, 26505",50776745,"R"
44939,"1280 COUNTY LINE RD E","LAKEWOOD","NJ",8701,40.1000804330001,-74.159294529,439,"1280 COUNTY LINE RD E, LAKEWOOD, NJ, 8701","Match","Exact","1280 COUNTY LINE RD E, LAKEWOOD, NJ, 08701",203724602,"R"
44940,"1280 COUNTY ROAD 405","HOUSTON","MS",38851,33.9293374530001,-89.072359336,440,"1280 COUNTY ROAD 405, HOUSTON, MS, 38851","Match","Exact","1280 CO RD 405, HOUSTON, MS, 38851",607202521,"R"
44941,"1280 COUNTY ROAD 42","TUSKEGEE","AL",36083,32.442655347,-85.768777422,441,"1280 COUNTY ROAD 42, TUSKEGEE, AL, 36083","Match","Exact","1280 CO RD 42, TUSKEGEE, AL, 36083",69147884,"R"
44942,"1280 ELIZABETH ST","DENVER","CO",80228,39.736419825,-104.956271636,442,"1280 ELIZABETH ST, DENVER, CO, 80228","Match","Non_Exact","1280 ELIZABETH ST, DENVER, CO, 80206",177310990,"R"
44943,"1280 ESSEX STREET","SAN DIEGO","CA",92103,32.747459324,-117.152513198,443,"1280 ESSEX STREET, SAN DIEGO, CA, 92103","Match","Exact","1280 ESSEX ST, SAN DIEGO, CA, 92103",195342846,"L"
44944,"1280 FLATBUSH AVE","BROOKLYN","NY",11226,40.639057317,-73.9542236899999,444,"1280 FLATBUSH AVE, BROOKLYN, NY, 11226","Match","Exact","1280 FLATBUSH AVE, BROOKLYN, NY, 11226",59099633,"R"
44945,"1280 HARMON AVE","AKRON","OH",44307,41.069211812,-81.558058016,445,"1280 HARMON AVE, AKRON, OH, 44307","Match","Exact","1280 HARMON AVE, AKRON, OH, 44307",61340073,"R"
44946,"1280 HARRISON STREET APT 653","SEATTLE","WA",98109,47.6219735450001,-122.33093521,446,"1280 HARRISON STREET APT 653, SEATTLE, WA, 98109","Match","Exact","1280 HARRISON ST, SEATTLE, WA, 98109",186584140,"L"
44947,"1280 HENLEY STREET APT 1606","NAPLES","FL",34105,26.1984317060001,-81.738742604,447,"1280 HENLEY STREET APT 1606, NAPLES, FL, 34105","Match","Exact","1280 HENLEY ST, NAPLES, FL, 34105",619742436,"L"
44948,"1280 INTERSTATE 10 ACCESS ROAD","BEAUMONT","TX",77707,NA,NA,448,"1280 INTERSTATE 10 ACCESS ROAD, BEAUMONT, TX, 77707","No_Match",NA,NA,NA,NA
44949,"1280 LONG RIDGE RD","STAMFORD","CT",6903,41.111999434,-73.57088241,449,"1280 LONG RIDGE RD, STAMFORD, CT, 6903","Match","Exact","1280 LONG RIDGE RD, STAMFORD, CT, 06903",649724832,"L"
44950,"1280 LOWDEN GARDENA ROAD","TOUCHET","WA",99360,NA,NA,450,"1280 LOWDEN GARDENA ROAD, TOUCHET, WA, 99360","Tie",NA,NA,NA,NA
44951,"1280 MIDDLE TN BLVD C8","MURFREESBORO","TN",37130,35.8293215950001,-86.3814282339999,451,"1280 MIDDLE TN BLVD C8, MURFREESBORO, TN, 37130","Match","Exact","1280 MIDDLE TENNESSEE BLVD, MURFREESBORO, TN, 37130",59014316,"R"
44952,"1280 MIDLAND WAY","LAWRENCEVILLE","GA",30043,33.9962764540001,-84.057924842,452,"1280 MIDLAND WAY, LAWRENCEVILLE, GA, 30043","Match","Exact","1280 MIDLAND WAY, LAWRENCEVILLE, GA, 30043",88920306,"L"
44953,"1280 MORAGA WAY","MORAGA","CA",94556,NA,NA,453,"1280 MORAGA WAY, MORAGA, CA, 94556","No_Match",NA,NA,NA,NA
44954,"1280 N ARIZONA BLVD","COOLIDGE","AZ",85128,32.9909586960001,-111.523985958,454,"1280 N ARIZONA BLVD, COOLIDGE, AZ, 85128","Match","Exact","1280 N ARIZONA BLVD, COOLIDGE, AZ, 85128",129224368,"L"
44955,"1280 NE 131ST ST","NORTH MIAMI","FL",33161,25.896321576,-80.173077674,455,"1280 NE 131ST ST, NORTH MIAMI, FL, 33161","Match","Non_Exact","1280 NE 131ST ST, NORTH MIAMI, FL, 33161",116037180,"R"
44956,"1280 NE 33RD STREET UNIT A","OAKLAND PARK","FL",33334,26.16869632,-80.129887101,456,"1280 NE 33RD STREET UNIT A, OAKLAND PARK, FL, 33334","Match","Non_Exact","1280 NE 33RD ST, OAKLAND PARK, FL, 33334",114822085,"R"
44957,"1280 NEWELL AVENUE SUITE D","WALNUT CREEK","CA",94596,37.893654994,-122.054488299,457,"1280 NEWELL AVENUE SUITE D, WALNUT CREEK, CA, 94596","Match","Non_Exact","1280 NEWELL AVE, WALNUT CREEK, CA, 94595",192056514,"R"
44958,"1280 NORTH RD","NORTH YARMOUTH","ME",4097,43.8580905090001,-70.2171233179999,458,"1280 NORTH RD, NORTH YARMOUTH, ME, 4097","Match","Exact","1280 NORTH RD, NORTH YARMOUTH, ME, 04097",78021551,"R"
44959,"1280 NW 181ST STREET","MIAMI","FL",33169,25.940213677,-80.222999925,459,"1280 NW 181ST STREET, MIAMI, FL, 33169","Match","Non_Exact","1280 NW 181ST ST, MIAMI, FL, 33169",116029429,"L"
44960,"1280 OCEAN AVENUE APT 1A","BROOKLYN","NY",11230,40.6310728230001,-73.957408689,460,"1280 OCEAN AVENUE APT 1A, BROOKLYN, NY, 11230","Match","Exact","1280 OCEAN AVE, BROOKLYN, NY, 11230",59081637,"R"
44961,"1280 OLD OAK CIRCLE","BIRMINGHAM","AL",35235,33.6122527800001,-86.667138774,461,"1280 OLD OAK CIRCLE, BIRMINGHAM, AL, 35235","Match","Exact","1280 OLD OAK CIR, BIRMINGHAM, AL, 35235",81569653,"L"
44962,"1280 OLD WINDMILL CIR","HARRISONBURG","VA",22802,38.4862171610001,-78.871513167,462,"1280 OLD WINDMILL CIR, HARRISONBURG, VA, 22802","Match","Exact","1280 OLD WINDMILL CIR, HARRISONBURG, VA, 22802",55762124,"R"
44963,"1280 PLAZA BLVD","LANCASTER","PA",17601,NA,NA,463,"1280 PLAZA BLVD, LANCASTER, PA, 17601","No_Match",NA,NA,NA,NA
44964,"1280 RITCHIE ROAD","CAPITOL HEIGHTS","MD",20743,38.8713304790001,-76.856158764,464,"1280 RITCHIE ROAD, CAPITOL HEIGHTS, MD, 20743","Match","Exact","1280 RITCHIE RD, CAPITOL HEIGHTS, MD, 20743",638230937,"L"
44965,"1280 RIVERCITY CROSSING","OFALLON","MO",63366,38.8155150640001,-90.6670320599999,465,"1280 RIVERCITY CROSSING, OFALLON, MO, 63366","Match","Non_Exact","1280 RIVERCITY CROSSING, O FALLON, MO, 63366",605534421,"R"
44966,"1280 ROUTE 46 WEST SUITE 11","PARSIPPANY","NJ",7054,NA,NA,466,"1280 ROUTE 46 WEST SUITE 11, PARSIPPANY, NJ, 7054","No_Match",NA,NA,NA,NA
44967,"1280 S MARION ST","TULARE","CA",93274,36.19425224,-119.326151002,467,"1280 S MARION ST, TULARE, CA, 93274","Match","Exact","1280 MARION ST, TULARE, CA, 93274",202784529,"L"
44968,"1280 SANTA ANITA CT","WOODLAND","CA",95776,38.69634475,-121.757574124,468,"1280 SANTA ANITA CT, WOODLAND, CA, 95776","Match","Exact","1280 SANTA ANITA CT, WOODLAND, CA, 95776",67690114,"L"
44969,"1280 SETTLERS LOOP","GENEVA","FL",32732,28.7694859310001,-81.084857966,469,"1280 SETTLERS LOOP, GENEVA, FL, 32732","Match","Exact","1280 SETTLERS LOOP, GENEVA, FL, 32732",605422241,"R"
44970,"1280 SOUTH BEVERLY GLEN BLVD","LOS ANGELES","CA",90024,34.0645073790001,-118.427486617,470,"1280 SOUTH BEVERLY GLEN BLVD, LOS ANGELES, CA, 90024","Match","Exact","1280 S BEVERLY GLEN BLVD, LOS ANGELES, CA, 90024",141567834,"L"
44971,"1280 STOCKTON DRIVE","ERIE","CO",80516,40.0377383800001,-105.060740137,471,"1280 STOCKTON DRIVE, ERIE, CO, 80516","Match","Exact","1280 STOCKTON DR, ERIE, CO, 80516",642890139,"R"
44972,"1280 TIGERWOOD BEND","MARIETTA","GA",30067,NA,NA,472,"1280 TIGERWOOD BEND, MARIETTA, GA, 30067","No_Match",NA,NA,NA,NA
44973,"1280 US HIGHWAY 1","MALABAR","FL",32950,28.0051971070001,-80.5644057969999,473,"1280 US HIGHWAY 1, MALABAR, FL, 32950","Match","Exact","1280 US HWY 1, MALABAR, FL, 32950",93911911,"R"
44974,"1280 UTAH RD","IOLA","KS",66749,38.009455927,-95.4201815869999,474,"1280 UTAH RD, IOLA, KS, 66749","Match","Exact","1280 UTAH RD, IOLA, KS, 66749",27447848,"L"
44975,"1280 UTE AVENUE STE 21","ASPEN","CO",81611,39.1809669570001,-106.811142214,475,"1280 UTE AVENUE STE 21, ASPEN, CO, 81611","Match","Exact","1280 UTE AVE, ASPEN, CO, 81611",605908051,"R"
44976,"1280 VAUGHAN DRIVE","SAINT LOUIS","MO",63130,38.6765235440001,-90.34667433,476,"1280 VAUGHAN DRIVE, SAINT LOUIS, MO, 63130","Match","Exact","1280 VAUGHAN DR, SAINT LOUIS, MO, 63130",100133123,"R"
44977,"1280 W LAMBERT RD SUITE B-2","BREA","CA",92821,NA,NA,477,"1280 W LAMBERT RD SUITE B-2, BREA, CA, 92821","No_Match",NA,NA,NA,NA
44978,"1280 W LONG APT 8","STEPHENVILLE","TX",76401,NA,NA,478,"1280 W LONG APT 8, STEPHENVILLE, TX, 76401","No_Match",NA,NA,NA,NA
44979,"1280 WARDENSVILLE GRADE","WINCHESTER","VA",22602,39.1784484840001,-78.2813875699999,479,"1280 WARDENSVILLE GRADE, WINCHESTER, VA, 22602","Match","Exact","1280 WARDENSVILLE GRADE, WINCHESTER, VA, 22602",648642170,"L"
44980,"1280 WESTMINSTER STREET SUITE  304","SAINT PAUL","MN",55130,44.9781614550001,-93.0862067319999,480,"1280 WESTMINSTER STREET SUITE  304, SAINT PAUL, MN, 55130","Match","Non_Exact","1280 N WESTMINSTER ST, SAINT PAUL, MN, 55130",635778007,"R"
44981,"1280 WHITEWING PLACE","CHULA VISTA","CA",91913,32.6236458720001,-117.009894252,481,"1280 WHITEWING PLACE, CHULA VISTA, CA, 91913","Match","Exact","1280 WHITEWING PL, CHULA VISTA, CA, 91913",195764150,"L"
44982,"12800 ABRAMS ROAD","DALLAS","TX",75243,NA,NA,482,"12800 ABRAMS ROAD, DALLAS, TX, 75243","No_Match",NA,NA,NA,NA
44983,"12800 ARBOR LAKES PKWY  PO BOX 1180","MAPLE GROVE","MN",55369,45.0983139730001,-93.4427116589999,483,"12800 ARBOR LAKES PKWY  PO BOX 1180, MAPLE GROVE, MN, 55369","Match","Non_Exact","12800 ARBOR LAKES PKWY N, MAPLE GROVE, MN, 55369",43855362,"L"
44984,"12800 BRIAR FOREST DRIVE UNIT 167","HOUSTON","TX",77077,29.754510887,-95.615102727,484,"12800 BRIAR FOREST DRIVE UNIT 167, HOUSTON, TX, 77077","Match","Exact","12800 BRIAR FOREST DR, HOUSTON, TX, 77077",96623835,"R"
44985,"12800 COMANCHE RD NE APT 20","ABQ","NM",87111,35.123373567,-106.495229556,485,"12800 COMANCHE RD NE APT 20, ABQ, NM, 87111","Match","Non_Exact","12800 COMANCHE RD NE, ALBUQUERQUE, NM, 87111",206726681,"R"
44986,"12800 E 19TH AVE","AURORA","CO",80045,39.745708203,-104.839299237,486,"12800 E 19TH AVE, AURORA, CO, 80045","Match","Exact","12800 E 19TH AVE, AURORA, CO, 80045",647745497,"R"
44987,"12800 MERMILL RD","PORTAGE","OH",43451,41.2975547030001,-83.6461504,487,"12800 MERMILL RD, PORTAGE, OH, 43451","Match","Exact","12800 MERMILL RD, PORTAGE, OH, 43451",38720650,"R"
44988,"12800 NORTH 129TH EAST AVENUE","COLLINSVILLE","OK",74021,36.340081406,-95.830141442,488,"12800 NORTH 129TH EAST AVENUE, COLLINSVILLE, OK, 74021","Match","Exact","12800 N 129TH EAST AVE, COLLINSVILLE, OK, 74021",166496883,"L"
44989,"12800 RIVERSIDE DR SUITE 200","VALLEY VILLAGE","CA",91607,34.157610579,-118.411625653,489,"12800 RIVERSIDE DR SUITE 200, VALLEY VILLAGE, CA, 91607","Match","Exact","12800 RIVERSIDE DR, VALLEY VLG, CA, 91607",642861628,"L"
44990,"12800 RIVERSIDE DR","VALLEY VILLAGE","CA",91607,34.157610579,-118.411625653,490,"12800 RIVERSIDE DR, VALLEY VILLAGE, CA, 91607","Match","Exact","12800 RIVERSIDE DR, VALLEY VLG, CA, 91607",642861628,"L"
44991,"12800 SW 80 AVENUE","PINECREST","FL",33156,25.6514599240001,-80.32415495,491,"12800 SW 80 AVENUE, PINECREST, FL, 33156","Match","Non_Exact","12800 SW 80TH AVE, PINECREST, FL, 33156",115986259,"R"
44992,"12800 TAFT STREET","PEMBROKE PINES","FL",33028,26.0232206520001,-80.322097652,492,"12800 TAFT STREET, PEMBROKE PINES, FL, 33028","Match","Exact","12800 TAFT ST, PEMBROKE PINES, FL, 33028",114784238,"L"
44993,"12800 TIMBERLAND DR","FORT WORTH","TX",76244,32.9555456260001,-97.272190168,493,"12800 TIMBERLAND DR, FORT WORTH, TX, 76244","Match","Exact","12800 TIMBERLAND DR, FORT WORTH, TX, 76244",101859683,"L"
44994,"12801 86TH AVE E","PUYALLUP","WA",98373,47.138302271,-122.314843524,494,"12801 86TH AVE E, PUYALLUP, WA, 98373","Match","Exact","12801 86TH AVE E, PUYALLUP, WA, 98373",624287811,"R"
44995,"12801 CLASSIC SPRINGS DRIVE","MANASSAS","VA",20112,38.6765519370001,-77.450506288,495,"12801 CLASSIC SPRINGS DRIVE, MANASSAS, VA, 20112","Match","Exact","12801 CLASSIC SPRINGS DR, MANASSAS, VA, 20112",650735182,"R"
44996,"12801 DEER CREEK DRIVE","OMAHA","NE",68142,41.3275269860001,-96.112686219,496,"12801 DEER CREEK DRIVE, OMAHA, NE, 68142","Match","Exact","12801 DEER CREEK DR, OMAHA, NE, 68142",117032882,"L"
44997,"12801 FOX HOLE ROAD","EDMOND","OK",73034,35.7449016800001,-97.387699347,497,"12801 FOX HOLE ROAD, EDMOND, OK, 73034","Match","Non_Exact","12801 FOX HOLE, EDMOND, OK, 73034",606652290,"R"
44998,"12801 N CENTRAL EXPY STE 750","DALLAS","TX",75243,NA,NA,498,"12801 N CENTRAL EXPY STE 750, DALLAS, TX, 75243","No_Match",NA,NA,NA,NA
44999,"12801 POINT PLEASANT DRIVE","FAIRFAX","VA",22033,38.8735288080001,-77.38815784,499,"12801 POINT PLEASANT DRIVE, FAIRFAX, VA, 22033","Match","Exact","12801 POINT PLEASANT DR, FAIRFAX, VA, 22033",75964791,"L"
45000,"12801 ROSECRANS APT 384","NORWALK","CA",90605,NA,NA,500,"12801 ROSECRANS APT 384, NORWALK, CA, 90605","No_Match",NA,NA,NA,NA
