"ID","Address","City","State","Zip","lat","long","id","input_address","match_indicator","match_type","matched_address","tiger_line_id","tiger_side"
161001,"3014 ABBEY LN","FARMERS BRANCH","TX",75234,32.915461963,-96.8751103019999,1,"3014 ABBEY LN, FARMERS BRANCH, TX, 75234","Match","Exact","3014 ABBEY LN, FARMERS BRANCH, TX, 75234",102996724,"L"
161002,"3014 CLARKMILL ROAD","NORTON","OH",44203,41.045667269,-81.614596736,2,"3014 CLARKMILL ROAD, NORTON, OH, 44203","Match","Non_Exact","3014 CLARK MILL RD, NORTON, OH, 44203",61392040,"R"
161003,"3014 COLORADO COVE","SAN ANTONIO","TX",78253,29.4643637670001,-98.735840659,3,"3014 COLORADO COVE, SAN ANTONIO, TX, 78253","Match","Exact","3014 COLORADO COVE, SAN ANTONIO, TX, 78253",645128725,"R"
161004,"3014 DAUPHINE ST SUITE A NUM 76608","NEW ORLEANS","LA",70117,29.964780397,-90.046587861,4,"3014 DAUPHINE ST SUITE A NUM 76608, NEW ORLEANS, LA, 70117","Match","Exact","3014 DAUPHINE ST, NEW ORLEANS, LA, 70117",191717268,"R"
161005,"3014 DOGWOOD AVE","NEWBERG","OR",97132,45.3141026700001,-122.948551368,5,"3014 DOGWOOD AVE, NEWBERG, OR, 97132","Match","Exact","3014 DOGWOOD AVE, NEWBERG, OR, 97132",156501127,"R"
161006,"3014 EAST PEPPERIDGE DR","LANCASTER","TX",75134,NA,NA,6,"3014 EAST PEPPERIDGE DR, LANCASTER, TX, 75134","No_Match",NA,NA,NA,NA
161007,"3014 FALLBROOK COURT","PEARLAND","TX",77584,29.540105655,-95.373443331,7,"3014 FALLBROOK COURT, PEARLAND, TX, 77584","Match","Exact","3014 FALLBROOK CT, PEARLAND, TX, 77584",116643371,"L"
161008,"3014 FLORIDA ST  SUITE A","HOUSTON","TX",77026,29.787771445,-95.3388905849999,8,"3014 FLORIDA ST  SUITE A, HOUSTON, TX, 77026","Match","Exact","3014 FLORIDA ST, HOUSTON, TX, 77026",96068711,"R"
161009,"3014 FOUNTAINHEAD CIR 146","MELBOURNE","FL",32934,28.1182683910001,-80.675308666,9,"3014 FOUNTAINHEAD CIR 146, MELBOURNE, FL, 32934","Match","Exact","3014 FOUNTAINHEAD CIR, MELBOURNE, FL, 32934",633631600,"R"
161010,"3014 FOX POINTE DRIVE","COLUMBUS","IN",47203,39.2286664420001,-85.86951241,10,"3014 FOX POINTE DRIVE, COLUMBUS, IN, 47203","Match","Non_Exact","3014 FOXPOINTE DR, COLUMBUS, IN, 47203",30974256,"L"
161011,"3014 FRENCH AVENUE","LAKE WORTH","FL",33461,26.624202263,-80.084707459,11,"3014 FRENCH AVENUE, LAKE WORTH, FL, 33461","Match","Exact","3014 FRENCH AVE, LAKE WORTH, FL, 33461",115285055,"R"
161012,"3014 GRANADA DRIVE","MESQUITE","TX",75181,32.7549750470001,-96.5521725569999,12,"3014 GRANADA DRIVE, MESQUITE, TX, 75181","Match","Exact","3014 GRANADA DR, MESQUITE, TX, 75181",102965351,"R"
161013,"3014 HAMPTON RIDGE ROAD","FAYETTEVILLE","NC",28311,35.1444120370001,-78.8966401069999,13,"3014 HAMPTON RIDGE ROAD, FAYETTEVILLE, NC, 28311","Match","Exact","3014 HAMPTON RIDGE RD, FAYETTEVILLE, NC, 28311",649599654,"L"
161014,"3014 HAVERLING DR","PEARLAND","TX",77584,29.543775629,-95.383150648,14,"3014 HAVERLING DR, PEARLAND, TX, 77584","Match","Exact","3014 HAVERLING DR, PEARLAND, TX, 77584",116617221,"R"
161015,"3014 HERITAGE FARM CT","HERNDON","VA",20171,38.9119523350001,-77.3840685819999,15,"3014 HERITAGE FARM CT, HERNDON, VA, 20171","Match","Exact","3014 HERITAGE FARM CT, HERNDON, VA, 20171",75957694,"L"
161016,"3014 HILLTOP CT","PROSPECT","KY",40059,38.3750796630001,-85.5919775949999,16,"3014 HILLTOP CT, PROSPECT, KY, 40059","Match","Exact","3014 HILLTOP CT, PROSPECT, KY, 40059",130922434,"R"
161017,"3014 IVINS AVE","EGG HARBOR TOWNSHIP","NJ",8234,39.4280028910001,-74.604989271,17,"3014 IVINS AVE, EGG HARBOR TOWNSHIP, NJ, 8234","Match","Exact","3014 IVINS AVE, EGG HARBOR TOWNSHIP, NJ, 08234",202539044,"L"
161018,"3014 JASMINE PARKWAY","ALPHARETTA","GA",30022,NA,NA,18,"3014 JASMINE PARKWAY, ALPHARETTA, GA, 30022","No_Match",NA,NA,NA,NA
161019,"3014 KILDEER LANE","HUMBLE","TX",77396,29.9581598240001,-95.274831341,19,"3014 KILDEER LANE, HUMBLE, TX, 77396","Match","Non_Exact","3014 KILLDEER DR, HUMBLE, TX, 77396",96047366,"R"
161020,"3014 MCCLOUD CIRCLE","SARASOTA","FL",34234,27.362799512,-82.525753599,20,"3014 MCCLOUD CIRCLE, SARASOTA, FL, 34234","Match","Non_Exact","3014 MC CLOUD CIR, SARASOTA, FL, 34234",16349434,"R"
161021,"3014 MORNING DOVE","MCKINNEY","TX",75070,NA,NA,21,"3014 MORNING DOVE, MCKINNEY, TX, 75070","No_Match",NA,NA,NA,NA
161022,"3014 N 12TH AVE","MILTON","FL",32583,NA,NA,22,"3014 N 12TH AVE, MILTON, FL, 32583","Tie",NA,NA,NA,NA
161023,"3014 N 21ST ST","PHILADELPHIA","PA",19132,40.000420406,-75.1648834539999,23,"3014 N 21ST ST, PHILADELPHIA, PA, 19132","Match","Non_Exact","3014 N 21ST ST, PHILADELPHIA, PA, 19132",131402488,"L"
161024,"3014 N 52ND AVE E","DULUTH","MN",55804,46.85049531,-92.019997062,24,"3014 N 52ND AVE E, DULUTH, MN, 55804","Match","Exact","3014 N 52ND AVE E, DULUTH, MN, 55804",612820530,"R"
161025,"3014 N STATE RD 57","WASHINGTON","IN",47501,NA,NA,25,"3014 N STATE RD 57, WASHINGTON, IN, 47501","No_Match",NA,NA,NA,NA
161026,"3014 NORTH 24TH ST","OMAHA","NE",68110,41.286221982,-95.94700677,26,"3014 NORTH 24TH ST, OMAHA, NE, 68110","Match","Exact","3014 N 24TH ST, OMAHA, NE, 68110",116987267,"L"
161027,"3014 ORANGE CENTER BLVD APT 79","ORLANDO","FL",32805,28.531784196,-81.4148778539999,27,"3014 ORANGE CENTER BLVD APT 79, ORLANDO, FL, 32805","Match","Exact","3014 ORANGE CENTER BLVD, ORLANDO, FL, 32805",619007987,"L"
161028,"3014 REDROCK RIDGE LOOP","RICHLAND","WA",99354,46.3260979660001,-119.335009368,28,"3014 REDROCK RIDGE LOOP, RICHLAND, WA, 99354","Match","Exact","3014 REDROCK RIDGE LOOP, RICHLAND, WA, 99354",607000373,"R"
161029,"3014 S OLIVE AVENUE","WEST PALM BEACH","FL",33405,26.685378714,-80.0525259839999,29,"3014 S OLIVE AVENUE, WEST PALM BEACH, FL, 33405","Match","Non_Exact","3014 S OLIVE AVE, WEST PALM BEACH, FL, 33405",115279524,"L"
161030,"3014 SHADY TRACE","CRESTWOOD","KY",40014,38.323772321,-85.400966836,30,"3014 SHADY TRACE, CRESTWOOD, KY, 40014","Match","Exact","3014 SHADY TRCE, CRESTWOOD, KY, 40014",130921712,"R"
161031,"3014 V PLACE SE","WASHINGTON","DC",20020,38.864585699,-76.964486721,31,"3014 V PLACE SE, WASHINGTON, DC, 20020","Match","Exact","3014 V PL SE, WASHINGTON, DC, 20020",76232063,"L"
161032,"3014 W JACKSON BLVD 2E","CHICAGO","IL",60612,41.8773725570001,-87.701762103,32,"3014 W JACKSON BLVD 2E, CHICAGO, IL, 60612","Match","Non_Exact","3014 W JACKSON BLVD, CHICAGO, IL, 60612",111765977,"R"
161033,"3014 WALESBY DRIVE","FAYETTEVILLE","NC",28306,34.998854474,-78.9454389589999,33,"3014 WALESBY DRIVE, FAYETTEVILLE, NC, 28306","Match","Exact","3014 WALESBY DR, FAYETTEVILLE, NC, 28306",64266022,"R"
161034,"3014 WARM SPRINGS LN","RICHARDSON","TX",75082,32.9909514120001,-96.670088766,34,"3014 WARM SPRINGS LN, RICHARDSON, TX, 75082","Match","Exact","3014 WARM SPRINGS LN, RICHARDSON, TX, 75082",123508684,"L"
161035,"3014 WEST WEILE AVENUE","SPOKANE","WA",99208,47.7217572380001,-117.456234656,35,"3014 WEST WEILE AVENUE, SPOKANE, WA, 99208","Match","Exact","3014 W WEILE AVE, SPOKANE, WA, 99208",189867773,"R"
161036,"30141 ANTELOPE RD D674","MENIFEE","CA",92584,33.68370758,-117.167223616,36,"30141 ANTELOPE RD D674, MENIFEE, CA, 92584","Match","Exact","30141 ANTELOPE RD, MENIFEE, CA, 92584",194833196,"L"
161037,"30141 ANTELOPE RD SUITE D 664","MENIFEE","CA",92584,33.68370758,-117.167223616,37,"30141 ANTELOPE RD SUITE D 664, MENIFEE, CA, 92584","Match","Exact","30141 ANTELOPE RD, MENIFEE, CA, 92584",194833196,"L"
161038,"30141 ANTELOPE ROAD STE D-136","MENIFEE","CA",92584,33.68370758,-117.167223616,38,"30141 ANTELOPE ROAD STE D-136, MENIFEE, CA, 92584","Match","Exact","30141 ANTELOPE RD, MENIFEE, CA, 92584",194833196,"L"
161039,"30141 BECK RD","BULVERDE","TX",78163,29.7398676980001,-98.359821671,39,"30141 BECK RD, BULVERDE, TX, 78163","Match","Exact","30141 BECK RD, BULVERDE, TX, 78163",651879456,"L"
161040,"30141 CHEVELEY PARK STREET","MENIFEE","CA",92584,33.6465805880001,-117.134988279,40,"30141 CHEVELEY PARK STREET, MENIFEE, CA, 92584","Match","Exact","30141 CHEVELEY PARK ST, MENIFEE, CA, 92584",608999983,"R"
161041,"30143 12TH AVE SW","FEDERAL WAY","WA",98023,47.331505264,-122.350560199,41,"30143 12TH AVE SW, FEDERAL WAY, WA, 98023","Match","Exact","30143 12TH AVE SW, FEDERAL WAY, WA, 98023",648727306,"R"
161042,"3015 140TH PLACE SE","MILL CREEK","WA",98012,47.8702676030001,-122.192253263,42,"3015 140TH PLACE SE, MILL CREEK, WA, 98012","Match","Exact","3015 140TH PL SE, MILL CREEK, WA, 98012",187805477,"L"
161043,"3015 ANABELLA","SAN CLEMENTE","CA",92673,33.4719714570001,-117.635057733,43,"3015 ANABELLA, SAN CLEMENTE, CA, 92673","Match","Exact","3015 ANABELLA, SAN CLEMENTE, CA, 92673",144091852,"L"
161044,"3015 AUTUMN AVE","ALBANY","GA",31721,31.569172887,-84.2428456929999,44,"3015 AUTUMN AVE, ALBANY, GA, 31721","Match","Exact","3015 AUTUMN AVE, ALBANY, GA, 31721",84312232,"R"
161045,"3015 BOBCAT BEND","MISSOURI CITY","TX",77459,29.489015458,-95.5069863269999,45,"3015 BOBCAT BEND, MISSOURI CITY, TX, 77459","Match","Exact","3015 BOBCAT BEND, MISSOURI CITY, TX, 77459",635249572,"L"
161046,"3015 CO RD 715","HENAGAR","AL",35978,34.627117087,-85.680166737,46,"3015 CO RD 715, HENAGAR, AL, 35978","Match","Exact","3015 CO RD 715, HENAGAR, AL, 35978",99136135,"R"
161047,"3015 COUNTRY CLUB DRIVE","JEFFERSON CITY","MO",65109,38.583640636,-92.233102603,47,"3015 COUNTRY CLUB DRIVE, JEFFERSON CITY, MO, 65109","Match","Exact","3015 COUNTRY CLUB DR, JEFFERSON CITY, MO, 65109",639207161,"L"
161048,"3015 DARBY BROOK DRIVE","FRESNO","TX",77545,29.542376441,-95.489273541,48,"3015 DARBY BROOK DRIVE, FRESNO, TX, 77545","Match","Exact","3015 DARBY BROOK DR, FRESNO, TX, 77545",630304270,"L"
161049,"3015 DELAWARE AVENUE APARTMENT 517","KENMORE","NY",14217,42.966417994,-78.870468339,49,"3015 DELAWARE AVENUE APARTMENT 517, KENMORE, NY, 14217","Match","Exact","3015 DELAWARE AVE, KENMORE, NY, 14217",48287945,"R"
161050,"3015 DIMMICK AVE","TERRE HAUTE","IN",47802,39.4402513740001,-87.37279703,50,"3015 DIMMICK AVE, TERRE HAUTE, IN, 47802","Match","Exact","3015 DIMMICK AVE, TERRE HAUTE, IN, 47802",27122475,"R"
161051,"3015 E CAIRO STREET","SPRINGFIELD","MO",65802,37.2083198770001,-93.234079675,51,"3015 E CAIRO STREET, SPRINGFIELD, MO, 65802","Match","Exact","3015 E CAIRO ST, SPRINGFIELD, MO, 65802",76700408,"L"
161052,"3015 E WARNER ROAD","GILBERT","AZ",85296,NA,NA,52,"3015 E WARNER ROAD, GILBERT, AZ, 85296","No_Match",NA,NA,NA,NA
161053,"3015 EAST NEW YORK ST  SUITE A2 273","AURORA","IL",60504,41.7593035620001,-88.242742182,53,"3015 EAST NEW YORK ST  SUITE A2 273, AURORA, IL, 60504","Match","Exact","3015 E NEW YORK ST, AURORA, IL, 60504",112589918,"R"
161054,"3015 ELGIN AVENUE","BALTIMORE","MD",21216,39.3133554870001,-76.668150053,54,"3015 ELGIN AVENUE, BALTIMORE, MD, 21216","Match","Exact","3015 ELGIN AVE, BALTIMORE, MD, 21216",206413934,"L"
161055,"3015 FERNBROOK LANE","NASHVILLE","TN",37214,36.184631951,-86.670553425,55,"3015 FERNBROOK LANE, NASHVILLE, TN, 37214","Match","Exact","3015 FERNBROOK LN, NASHVILLE, TN, 37214",97195879,"R"
161056,"3015 FERNBROOK LN","NASHVILLE","TN",37214,36.184631951,-86.670553425,56,"3015 FERNBROOK LN, NASHVILLE, TN, 37214","Match","Exact","3015 FERNBROOK LN, NASHVILLE, TN, 37214",97195879,"R"
161057,"3015 GLENSHIRE DR","WINSTON SALEM","NC",27127,NA,NA,57,"3015 GLENSHIRE DR, WINSTON SALEM, NC, 27127","No_Match",NA,NA,NA,NA
161058,"3015 HEGGS ROAD","AURORA","IL",60503,41.6961588870001,-88.253905097,58,"3015 HEGGS ROAD, AURORA, IL, 60503","Match","Exact","3015 HEGGS RD, AURORA, IL, 60503",600603626,"R"
161059,"3015 INDIAN SPRINGS DR","CASPER","WY",82604,42.8187235400001,-106.422182379,59,"3015 INDIAN SPRINGS DR, CASPER, WY, 82604","Match","Exact","3015 INDIAN SPRINGS DR, CASPER, WY, 82604",645249475,"L"
161060,"3015 KALAKAUA AVENUE 201","HONOLULU","HI",96815,21.259641221,-157.818983124,60,"3015 KALAKAUA AVENUE 201, HONOLULU, HI, 96815","Match","Exact","3015 KALAKAUA AVE, HONOLULU, HI, 96815",203242787,"R"
161061,"3015 KASHIWA STREET","TORRANCE","CA",90505,33.81458573,-118.338468019,61,"3015 KASHIWA STREET, TORRANCE, CA, 90505","Match","Exact","3015 KASHIWA ST, TORRANCE, CA, 90505",241250437,"R"
161062,"3015 KENWOOD AVE","LOS ANGELES","CA",90007,34.0270631600001,-118.299136572,62,"3015 KENWOOD AVE, LOS ANGELES, CA, 90007","Match","Exact","3015 KENWOOD AVE, LOS ANGELES, CA, 90007",141606149,"R"
161063,"3015 LEILANI WAY","SAN DIEGO","CA",92154,32.584248949,-117.068486351,63,"3015 LEILANI WAY, SAN DIEGO, CA, 92154","Match","Exact","3015 LEILANI WAY, SAN DIEGO, CA, 92154",195373760,"L"
161064,"3015 LIBRA LANE","CINCINNATI","OH",45251,39.2412317380001,-84.581406746,64,"3015 LIBRA LANE, CINCINNATI, OH, 45251","Match","Exact","3015 LIBRA LN, CINCINNATI, OH, 45251",103915393,"L"
161065,"3015 MAYHEW COURT","WALNUT CREEK","CA",94597,37.9365069340001,-122.053593995,65,"3015 MAYHEW COURT, WALNUT CREEK, CA, 94597","Match","Exact","3015 MAYHEW CT, WALNUT CREEK, CA, 94597",192075392,"R"
161066,"3015 N FLORENCE ST","EL PASO","TX",79902,31.781938015,-106.501112325,66,"3015 N FLORENCE ST, EL PASO, TX, 79902","Match","Exact","3015 N FLORENCE ST, EL PASO, TX, 79902",189336822,"L"
161067,"3015 N GILBERT RD","MESA","AZ",85203,33.470543299,-111.787330865,67,"3015 N GILBERT RD, MESA, AZ, 85203","Match","Exact","3015 N GILBERT RD, MESA, AZ, 85203",128799820,"R"
161068,"3015 N MACGREGOR WAY","HOUSTON","TX",77004,29.7143397130001,-95.3721040999999,68,"3015 N MACGREGOR WAY, HOUSTON, TX, 77004","Match","Exact","3015 N MACGREGOR WAY, HOUSTON, TX, 77004",96072237,"L"
161069,"3015 N PENNSYLVANIA STREET APT 12","INDIANAPOLIS","IN",46205,39.810736058,-86.15533988,69,"3015 N PENNSYLVANIA STREET APT 12, INDIANAPOLIS, IN, 46205","Match","Non_Exact","3015 N PENNSYLVANIA ST, INDIANAPOLIS, IN, 46205",107989103,"R"
161070,"3015 NE 13TH DR","GAINESVILLE","FL",32609,29.680185995,-82.3085759529999,70,"3015 NE 13TH DR, GAINESVILLE, FL, 32609","Match","Exact","3015 NE 13TH DR, GAINESVILLE, FL, 32609",6845436,"R"
161071,"3015 NE 18TH WAY","GAINESVILLE","FL",32609,29.6807360770001,-82.300315574,71,"3015 NE 18TH WAY, GAINESVILLE, FL, 32609","Match","Exact","3015 NE 18TH WAY, GAINESVILLE, FL, 32609",6845411,"R"
161072,"3015 NW SPENCER STREET","PORTLAND","OR",97229,45.5449654380001,-122.775849624,72,"3015 NW SPENCER STREET, PORTLAND, OR, 97229","Match","Exact","3015 NW SPENCER ST, PORTLAND, OR, 97229",157556879,"L"
161073,"3015 O STREET","SACRAMENTO","CA",95816,38.5675315770001,-121.468668042,73,"3015 O STREET, SACRAMENTO, CA, 95816","Match","Exact","3015 O ST, SACRAMENTO, CA, 95816",133325008,"L"
161074,"3015 OKEECHOBEE ROAD","FORT PIERCE","FL",34947,NA,NA,74,"3015 OKEECHOBEE ROAD, FORT PIERCE, FL, 34947","No_Match",NA,NA,NA,NA
161075,"3015 OREGON KNOLLS DRIVE NW","WASHINGTON","DC",20015,38.9759245600001,-77.054527459,75,"3015 OREGON KNOLLS DRIVE NW, WASHINGTON, DC, 20015","Match","Exact","3015 OREGON KNOLLS DR NW, WASHINGTON, DC, 20015",76236413,"R"
161076,"3015 PULLMAN CAR DR APT","VALRICO","FL",33594,27.9366224190001,-82.232170523,76,"3015 PULLMAN CAR DR APT, VALRICO, FL, 33594","Match","Exact","3015 PULLMAN CAR DR, VALRICO, FL, 33594",650834625,"L"
161077,"3015 RN MARTIN ST","EAST POINT","GA",30344,33.6726210580001,-84.4367289639999,77,"3015 RN MARTIN ST, EAST POINT, GA, 30344","Match","Non_Exact","3015 R N MARTIN ST, EAST POINT, GA, 30344",653516433,"R"
161078,"3015 ROSE MARIE DRIVE","WONDER LAKE","IL",60097,42.369784914,-88.356490509,78,"3015 ROSE MARIE DRIVE, WONDER LAKE, IL, 60097","Match","Exact","3015 ROSE MARIE DR, WONDER LAKE, IL, 60097",600873355,"L"
161079,"3015 RUNNING BROOK DRIVE","JOSHUA","TX",76058,32.4490698230001,-97.363715411,79,"3015 RUNNING BROOK DRIVE, JOSHUA, TX, 76058","Match","Exact","3015 RUNNING BROOK DR, JOSHUA, TX, 76058",640260025,"L"
161080,"3015 S 82ND AVENUE","OMAHA","NE",68124,41.2314465270001,-96.040663278,80,"3015 S 82ND AVENUE, OMAHA, NE, 68124","Match","Exact","3015 S 82ND AVE, OMAHA, NE, 68124",117000359,"L"
161081,"3015 S FORT SUITE B","SPRINGFIELD","MO",65807,NA,NA,81,"3015 S FORT SUITE B, SPRINGFIELD, MO, 65807","No_Match",NA,NA,NA,NA
161082,"3015 SAN MARTIN DR","ARLINGTON","TX",76010,32.722331008,-97.056650786,82,"3015 SAN MARTIN DR, ARLINGTON, TX, 76010","Match","Exact","3015 SAN MARTIN DR, ARLINGTON, TX, 76010",102188490,"L"
161083,"3015 SAN PABLO AVE 205","BERKELEY","CA",94702,37.8514110830001,-122.286402804,83,"3015 SAN PABLO AVE 205, BERKELEY, CA, 94702","Match","Exact","3015 SAN PABLO AVE, BERKELEY, CA, 94702",633927759,"L"
161084,"3015 SAN PABLO AVE SUITE 416","BERKELEY","CA",94702,37.8514110830001,-122.286402804,84,"3015 SAN PABLO AVE SUITE 416, BERKELEY, CA, 94702","Match","Exact","3015 SAN PABLO AVE, BERKELEY, CA, 94702",633927759,"L"
161085,"3015 ST PAUL BLVD","ROCHESTER","NY",14617,43.2116357960001,-77.611439176,85,"3015 ST PAUL BLVD, ROCHESTER, NY, 14617","Match","Exact","3015 SAINT PAUL BLVD, ROCHESTER, NY, 14617",14537406,"L"
161086,"3015 SYMPHONY WOODS DR","CHARLOTTE","NC",28269,35.33086518,-80.779639518,86,"3015 SYMPHONY WOODS DR, CHARLOTTE, NC, 28269","Match","Exact","3015 SYMPHONY WOODS DR, CHARLOTTE, NC, 28269",70520709,"R"
161087,"3015 TRIMBLE CIRCLE NW","CONCORD","NC",28027,35.4086054090001,-80.6285709049999,87,"3015 TRIMBLE CIRCLE NW, CONCORD, NC, 28027","Match","Exact","3015 TRIMBLE CIR NW, CONCORD, NC, 28027",636629392,"L"
161088,"3015 TYLER AVE","OGDEN","UT",84403,41.2094875340001,-111.945224953,88,"3015 TYLER AVE, OGDEN, UT, 84403","Match","Exact","3015 TYLER AVE, OGDEN, UT, 84403",155698986,"R"
161089,"3015 WEST 43RD AVENUE","MINNEAPOLIS","MN",55410,44.924967958,-93.317735579,89,"3015 WEST 43RD AVENUE, MINNEAPOLIS, MN, 55410","Match","Non_Exact","3015 W 43RD ST, MINNEAPOLIS, MN, 55410",43628139,"L"
161090,"30150 COUNTRY ROAD 60","ORLANDO","OK",73073,36.171104583,-97.371680958,90,"30150 COUNTRY ROAD 60, ORLANDO, OK, 73073","Match","Non_Exact","30150 CO RD 60, ORLANDO, OK, 73073",154999359,"R"
161091,"30151 W FLOWER ST","BUCKEYE","AZ",85396,33.484328008,-112.700652582,91,"30151 W FLOWER ST, BUCKEYE, AZ, 85396","Match","Exact","30151 W FLOWER ST, BUCKEYE, AZ, 85396",637346871,"R"
161092,"30152 VIA AMANTE","MENIFEE","CA",92584,33.683679167,-117.159618379,92,"30152 VIA AMANTE, MENIFEE, CA, 92584","Match","Exact","30152 VIA AMANTE, MENIFEE, CA, 92584",194833263,"L"
161093,"30155 VIA LAS PALMAS","THOUSAND PALMS","CA",92276,33.8303199750001,-116.37344056,93,"30155 VIA LAS PALMAS, THOUSAND PALMS, CA, 92276","Match","Exact","30155 VIA LAS PALMAS, THOUSAND PALMS, CA, 92276",195047677,"L"
161094,"3016 20TH PLACE","NORTH CHICAGO","IL",60064,42.322282885,-87.87111226,94,"3016 20TH PLACE, NORTH CHICAGO, IL, 60064","Match","Exact","3016 20TH PL, NORTH CHICAGO, IL, 60064",119641889,"R"
161095,"3016 50TH STREET","WOODSIDE","NY",11377,NA,NA,95,"3016 50TH STREET, WOODSIDE, NY, 11377","No_Match",NA,NA,NA,NA
161096,"3016 ALLEGHENY LOOP RD","MARYVILLE","TN",37803,35.598129461,-84.042109825,96,"3016 ALLEGHENY LOOP RD, MARYVILLE, TN, 37803","Match","Exact","3016 ALLEGHENY LOOP RD, MARYVILLE, TN, 37803",607470210,"R"
161097,"3016 AMELLIA DR","JACKSONVILLE","FL",32257,30.200423444,-81.631261866,97,"3016 AMELLIA DR, JACKSONVILLE, FL, 32257","Match","Exact","3016 AMELLIA DR, JACKSONVILLE, FL, 32257",83917679,"R"
161098,"3016 ASHCROFT DRIVE","FORT WAYNE","IN",46806,41.0364563140001,-85.098176598,98,"3016 ASHCROFT DRIVE, FORT WAYNE, IN, 46806","Match","Exact","3016 ASHCROFT DR, FORT WAYNE, IN, 46806",6383872,"R"
161099,"3016 AVENUE H","BIRMINGHAM","AL",35218,33.502018935,-86.9011907189999,99,"3016 AVENUE H, BIRMINGHAM, AL, 35218","Match","Exact","3016 AVE H, BIRMINGHAM, AL, 35218",81552253,"R"
161100,"3016 BARONNE STREET","NEW ORLEANS","LA",70115,29.931341192,-90.0895598129999,100,"3016 BARONNE STREET, NEW ORLEANS, LA, 70115","Match","Exact","3016 BARONNE ST, NEW ORLEANS, LA, 70115",191712720,"L"
161101,"3016 CENTRAL AVE","ALAMEDA","CA",94501,37.7591582410001,-122.233335856,101,"3016 CENTRAL AVE, ALAMEDA, CA, 94501","Match","Exact","3016 CENTRAL AVE, ALAMEDA, CA, 94501",125006902,"R"
161102,"3016 E COLORADO BLVD 70883","PASADENA","CA",91107,34.146194935,-118.088001467,102,"3016 E COLORADO BLVD 70883, PASADENA, CA, 91107","Match","Non_Exact","3016 E COLORADO BLVD, PASADENA, CA, 91107",141817999,"R"
161103,"3016 E COLORADO BLVD NO 5064","PASADENA","CA",91107,NA,NA,103,"3016 E COLORADO BLVD NO 5064, PASADENA, CA, 91107","No_Match",NA,NA,NA,NA
161104,"3016 EAST COLORADO BOULEVARD 5772","PASADENA","CA",91107,34.1461949010001,-118.088005315,104,"3016 EAST COLORADO BOULEVARD 5772, PASADENA, CA, 91107","Match","Exact","3016 E COLORADO BLVD, PASADENA, CA, 91107",141817999,"R"
161105,"3016 EL CAMINO","PONCA CITY","OK",74604,NA,NA,105,"3016 EL CAMINO, PONCA CITY, OK, 74604","No_Match",NA,NA,NA,NA
161106,"3016 HAYWICK","THE COLONY","TX",75056,33.106604657,-96.921082846,106,"3016 HAYWICK, THE COLONY, TX, 75056","Match","Exact","3016 HAYWICK, THE COLONY, TX, 75056",629584970,"L"
161107,"3016 HICKORY RIDGE CIRCLE","BRYAN","TX",77807,30.6112625120001,-96.3952203699999,107,"3016 HICKORY RIDGE CIRCLE, BRYAN, TX, 77807","Match","Exact","3016 HICKORY RIDGE CIR, BRYAN, TX, 77807",632047167,"L"
161108,"3016 HIGHWAY 236 E","LONOKE","AR",72086,NA,NA,108,"3016 HIGHWAY 236 E, LONOKE, AR, 72086","No_Match",NA,NA,NA,NA
161109,"3016 JAP TUCKER RD","PLANT CITY","FL",33566,27.9770899110001,-82.100762591,109,"3016 JAP TUCKER RD, PLANT CITY, FL, 33566","Match","Exact","3016 JAP TUCKER RD, PLANT CITY, FL, 33566",653576515,"L"
161110,"3016 JAP TUCKER RD","PLANT CITY","FM",33566,NA,NA,110,"3016 JAP TUCKER RD, PLANT CITY, FM, 33566","No_Match",NA,NA,NA,NA
161111,"3016 MONTCLAIR CIR","SMYRNA","GA",30080,33.8779488930001,-84.507258103,111,"3016 MONTCLAIR CIR, SMYRNA, GA, 30080","Match","Exact","3016 MONTCLAIR CIR, SMYRNA, GA, 30080",625205356,"L"
161112,"3016 N INTERSTATE 35 E","LANCASTER","TX",75134,NA,NA,112,"3016 N INTERSTATE 35 E, LANCASTER, TX, 75134","No_Match",NA,NA,NA,NA
161113,"3016 NW 106TH CIRCLE","VANCOUVER","WA",98685,45.698218555,-122.702427149,113,"3016 NW 106TH CIRCLE, VANCOUVER, WA, 98685","Match","Exact","3016 NW 106TH CIR, VANCOUVER, WA, 98685",158347915,"L"
161114,"3016 PICKET ROAD APT 401","DURHAM","NC",27705,35.9747531580001,-78.9626193779999,114,"3016 PICKET ROAD APT 401, DURHAM, NC, 27705","Match","Non_Exact","3016 PICKETT RD, DURHAM, NC, 27705",71774057,"R"
161115,"3016 RYCLIFF AVE","RICHMOND","VA",23237,37.417857676,-77.445519427,115,"3016 RYCLIFF AVE, RICHMOND, VA, 23237","Match","Exact","3016 RYCLIFF AVE, RICHMOND, VA, 23237",636672718,"R"
161116,"3016 SLIPPERY CREEK CT","RALEIGH","NC",27616,35.8558689870001,-78.483202858,116,"3016 SLIPPERY CREEK CT, RALEIGH, NC, 27616","Match","Exact","3016 SLIPPERY CREEK CT, RALEIGH, NC, 27616",619711386,"R"
161117,"3016 SOMERTON ROAD","CLEVELAND HEIGHTS","OH",44118,41.5099383510001,-81.572091391,117,"3016 SOMERTON ROAD, CLEVELAND HEIGHTS, OH, 44118","Match","Exact","3016 SOMERTON RD, CLEVELAND HEIGHTS, OH, 44118",61123168,"R"
161118,"3016 W MCLELLAN BLVD","PHOENIX","AZ",85017,33.5327488190001,-112.123917438,118,"3016 W MCLELLAN BLVD, PHOENIX, AZ, 85017","Match","Exact","3016 W MCLELLAN BLVD, PHOENIX, AZ, 85017",128204268,"R"
161119,"3016 WAKECREST DR","FORT WORTH","TX",76108,32.7301233740001,-97.51031706,119,"3016 WAKECREST DR, FORT WORTH, TX, 76108","Match","Exact","3016 WAKECREST DR, FORT WORTH, TX, 76108",643333286,"R"
161120,"30161 THE HALL RD","BRANCHVILLE","VA",24828,36.6103464540001,-77.2867020209999,120,"30161 THE HALL RD, BRANCHVILLE, VA, 24828","Match","Non_Exact","30161 THE HALL RD, BRANCHVILLE, VA, 23828",82712116,"R"
161121,"30162 MARLA DRIVE","NEW HAVEN","MI",48048,42.737730368,-82.810161642,121,"30162 MARLA DRIVE, NEW HAVEN, MI, 48048","Match","Non_Exact","30162 MARLA, NEW HAVEN, MI, 48048",110664870,"L"
161122,"30168 VIEWCREST DR","NOVI","MI",48377,42.517694282,-83.447689455,122,"30168 VIEWCREST DR, NOVI, MI, 48377","Match","Exact","30168 VIEWCREST DR, NOVI, MI, 48377",624751433,"L"
161123,"3017 1/2 GRAY STREET","HOUSTON","TX",77004,29.7394112280001,-95.3557166799999,123,"3017 1/2 GRAY STREET, HOUSTON, TX, 77004","Match","Exact","3017 GRAY ST, HOUSTON, TX, 77004",96072843,"L"
161124,"3017 3RD STREET SE","CANTON","OH",44707,40.7890806830001,-81.335076452,124,"3017 3RD STREET SE, CANTON, OH, 44707","Match","Exact","3017 3RD ST SE, CANTON, OH, 44707",64686064,"L"
161125,"3017 ANSLEY MANOR CT","SNELLVILLE","GA",30078,33.839350445,-84.028669104,125,"3017 ANSLEY MANOR CT, SNELLVILLE, GA, 30078","Match","Exact","3017 ANSLEY MANOR CT, SNELLVILLE, GA, 30078",88901230,"L"
161126,"3017 AVENUE S","RIVIERA BEACH","FL",33404,26.787544181,-80.080601482,126,"3017 AVENUE S, RIVIERA BEACH, FL, 33404","Match","Exact","3017 AVENUE S, RIVIERA BEACH, FL, 33404",115267714,"L"
161127,"3017 BEADEN DRIVE","VIRGINIA BEACH","VA",23456,36.7336955920001,-76.07475312,127,"3017 BEADEN DRIVE, VIRGINIA BEACH, VA, 23456","Match","Exact","3017 BEADEN DR, VA BCH, VA, 23456",122290164,"L"
161128,"3017 CHANNING STREET NE","WASHINGTON","DC",20018,38.9223623670001,-76.965916125,128,"3017 CHANNING STREET NE, WASHINGTON, DC, 20018","Match","Exact","3017 CHANNING ST NE, WASHINGTON, DC, 20018",76229541,"R"
161129,"3017 DA VINCI CT","MODESTO","CA",95355,37.669181134,-120.938596196,129,"3017 DA VINCI CT, MODESTO, CA, 95355","Match","Exact","3017 DA VINCI CT, MODESTO, CA, 95355",102634256,"L"
161130,"3017 DOUGLAS BLVD SUITE 100","ROSEVILLE","CA",95661,38.7442816380001,-121.244434392,130,"3017 DOUGLAS BLVD SUITE 100, ROSEVILLE, CA, 95661","Match","Exact","3017 DOUGLAS BLVD, ROSEVILLE, CA, 95661",639851323,"L"
161131,"3017 E YALE STREET","PHOENIX","AZ",85008,33.47584635,-112.016764215,131,"3017 E YALE STREET, PHOENIX, AZ, 85008","Match","Exact","3017 E YALE ST, PHOENIX, AZ, 85008",128222906,"R"
161132,"3017 FEDERAL HILL DRIVE","FALLS CHURCH","VA",22044,38.8672412280001,-77.139538482,132,"3017 FEDERAL HILL DRIVE, FALLS CHURCH, VA, 22044","Match","Exact","3017 FEDERAL HILL DR, FALLS CHURCH, VA, 22044",75981515,"R"
161133,"3017 GALVEZ AVENUE","FORT WORTH","TX",76111,32.7622704950001,-97.303805984,133,"3017 GALVEZ AVENUE, FORT WORTH, TX, 76111","Match","Exact","3017 GALVEZ AVE, FORT WORTH, TX, 76111",101890790,"L"
161134,"3017 HARTMAN STREET","TOLEDO","OH",43608,41.6783606430001,-83.5381962,134,"3017 HARTMAN STREET, TOLEDO, OH, 43608","Match","Exact","3017 HARTMAN ST, TOLEDO, OH, 43608",33941493,"L"
161135,"3017 HIGHLAND HOUSE VILLAS CT","ARNOLD","MO",63010,38.4163757310001,-90.406244004,135,"3017 HIGHLAND HOUSE VILLAS CT, ARNOLD, MO, 63010","Match","Exact","3017 HIGHLAND HOUSE VILLAS CT, ARNOLD, MO, 63010",62811148,"R"
161136,"3017 LANDMARK COURT","ATLANTIC CITY","NJ",8401,NA,NA,136,"3017 LANDMARK COURT, ATLANTIC CITY, NJ, 8401","No_Match",NA,NA,NA,NA
161137,"3017 LIPIZZAN DR","DENTON","TX",76010,33.1524506480001,-97.101786944,137,"3017 LIPIZZAN DR, DENTON, TX, 76010","Match","Non_Exact","3017 LIPIZZAN DR, DENTON, TX, 76210",625664065,"R"
161138,"3017 LONGFELLOW AVE","HAZEL CREST","IL",60429,41.5751239520001,-87.688925301,138,"3017 LONGFELLOW AVE, HAZEL CREST, IL, 60429","Match","Exact","3017 LONGFELLOW AVE, HAZEL CREST, IL, 60429",641707769,"L"
161139,"3017 MAPLE VALLEY DR APT 304","MADISON","WI",53719,43.017995591,-89.497552264,139,"3017 MAPLE VALLEY DR APT 304, MADISON, WI, 53719","Match","Exact","3017 MAPLE VALLEY DR, MADISON, WI, 53719",49537852,"R"
161140,"3017 N CHARLEVILLE ROAD APT 210","POST FALLS","ID",83854,47.7318169820001,-116.899487486,140,"3017 N CHARLEVILLE ROAD APT 210, POST FALLS, ID, 83854","Match","Non_Exact","3017 N CHARLEVILLE RD, POST FALLS, ID, 83854",650238381,"L"
161141,"3017 N CHRISTIAN WAY","MERIDIAN","ID",83646,43.632658602,-116.46005881,141,"3017 N CHRISTIAN WAY, MERIDIAN, ID, 83646","Match","Exact","3017 N CHRISTIAN WAY, MERIDIAN, ID, 83646",641914365,"R"
161142,"3017 N MONROE","SPOKANE","WA",99205,NA,NA,142,"3017 N MONROE, SPOKANE, WA, 99205","No_Match",NA,NA,NA,NA
161143,"3017 N OAKLAND FOREST DRIVE 105","OAKLAND PARK","FL",33309,26.171721615,-80.1841331219999,143,"3017 N OAKLAND FOREST DRIVE 105, OAKLAND PARK, FL, 33309","Match","Non_Exact","3017 N OAKLAND FOREST DR, OAKLAND PARK, FL, 33309",114751710,"R"
161144,"3017 N PRISCILLA AVENUE","INDIANAPOLIS","IN",46218,39.8120906710001,-86.068322795,144,"3017 N PRISCILLA AVENUE, INDIANAPOLIS, IN, 46218","Match","Exact","3017 PRISCILLA AVE, INDIANAPOLIS, IN, 46218",107999719,"R"
161145,"3017 PLATT SPRING ROAD","WEST COLUMBIA","SC",29170,33.959510665,-81.10756142,145,"3017 PLATT SPRING ROAD, WEST COLUMBIA, SC, 29170","Match","Exact","3017 PLATT SPRINGS RD, WEST COLUMBIA, SC, 29170",70053714,"L"
161146,"3017 ROY PACE DR","EL PASO","TX",79936,31.7821356370001,-106.320398938,146,"3017 ROY PACE DR, EL PASO, TX, 79936","Match","Exact","3017 ROY PACE DR, EL PASO, TX, 79936",189401064,"L"
161147,"3017 S HOLDEN ROAD UNIT D","GREENSBORO","NC",27407,36.025823915,-79.847051833,147,"3017 S HOLDEN ROAD UNIT D, GREENSBORO, NC, 27407","Match","Non_Exact","3017 S HOLDEN RD, GREENSBORO, NC, 27407",131124102,"L"
161148,"3017 SEAVIEW AVENUE","MILLVILLE","NJ",8332,39.368796113,-75.134541368,148,"3017 SEAVIEW AVENUE, MILLVILLE, NJ, 8332","Match","Exact","3017 SEAVIEW AVE, MILLVILLE, NJ, 08332",174120920,"L"
161149,"3017 TARIAN WAY","DECATUR","GA",30034,33.6972544320001,-84.292226451,149,"3017 TARIAN WAY, DECATUR, GA, 30034","Match","Exact","3017 TARIAN WAY, DECATUR, GA, 30034",23368699,"R"
161150,"3017 TRAILRIDGE BLVD","ELKHORN","NE",68022,41.2309300100001,-96.257158224,150,"3017 TRAILRIDGE BLVD, ELKHORN, NE, 68022","Match","Exact","3017 TRAILRIDGE BLVD, ELKHORN, NE, 68022",636296067,"R"
161151,"3017 W CHARLESTON BLVD STE 70","LAS VEGAS","NV",89102,36.1588780930001,-115.182004138,151,"3017 W CHARLESTON BLVD STE 70, LAS VEGAS, NV, 89102","Match","Non_Exact","3017 W CHARLESTON BLVD, LAS VEGAS, NV, 89102",639384817,"R"
161152,"3017 W WEST VIEW ST","LOS ANGELES","CA",90016,34.0265056420001,-118.353019227,152,"3017 W WEST VIEW ST, LOS ANGELES, CA, 90016","Match","Exact","3017 W VIEW ST, LOS ANGELES, CA, 90016",141601288,"R"
161153,"3017 WALNUT AVE","CARMICHAEL","CA",95608,38.61975411,-121.346012938,153,"3017 WALNUT AVE, CARMICHAEL, CA, 95608","Match","Exact","3017 WALNUT AVE, CARMICHAEL, CA, 95608",133364924,"L"
161154,"3017 WAVERLY DR","LOS ANGELES","CA",90039,34.1107789750001,-118.268038212,154,"3017 WAVERLY DR, LOS ANGELES, CA, 90039","Match","Exact","3017 WAVERLY DR, LOS ANGELES, CA, 90039",142731019,"R"
161155,"3017 WOODLAND RIDGE","WESTBLOOM FIELD","MI",48323,NA,NA,155,"3017 WOODLAND RIDGE, WESTBLOOM FIELD, MI, 48323","No_Match",NA,NA,NA,NA
161156,"30179 LORRAINE AVE UNIT 4","WARREN","MI",48093,42.515435848,-83.018089619,156,"30179 LORRAINE AVE UNIT 4, WARREN, MI, 48093","Match","Exact","30179 LORRAINE AVE, WARREN, MI, 48093",110672955,"L"
161157,"3018 37TH AVE SW","SEATTLE","WA",98126,47.5771360910001,-122.378104175,157,"3018 37TH AVE SW, SEATTLE, WA, 98126","Match","Exact","3018 37TH AVE SW, SEATTLE, WA, 98126",186661120,"L"
161158,"3018 43RD STREET","LUBBOCK","TX",79413,33.5551220880001,-101.879601682,158,"3018 43RD STREET, LUBBOCK, TX, 79413","Match","Exact","3018 43RD ST, LUBBOCK, TX, 79413",185253829,"R"
161159,"3018 BUTTERFIELD AVE","MURFREESBORO","TN",37128,35.8032464880001,-86.465717937,159,"3018 BUTTERFIELD AVE, MURFREESBORO, TN, 37128","Match","Exact","3018 BUTTERFIELD AVE, MURFREESBORO, TN, 37128",651828729,"R"
161160,"3018 CEDAR VALLEY COURT","JEFFERSON CITY","MO",65109,38.5530809200001,-92.242432129,160,"3018 CEDAR VALLEY COURT, JEFFERSON CITY, MO, 65109","Match","Exact","3018 CEDAR VALLEY CT, JEFFERSON CITY, MO, 65109",627115592,"R"
161161,"3018 CROSSFIELD ROAD","RICHMOND","VA",23233,37.6400632560001,-77.618472045,161,"3018 CROSSFIELD ROAD, RICHMOND, VA, 23233","Match","Exact","3018 CROSSFIELD RD, RICHMOND, VA, 23233",106683177,"L"
161162,"3018 E PINE  ST","TULSA","OK",74110,36.1771325830001,-95.9450861619999,162,"3018 E PINE  ST, TULSA, OK, 74110","Match","Exact","3018 E PINE ST, TULSA, OK, 74110",166445252,"R"
161163,"3018 E PINE ST","TULS","OK",74110,36.1771325190001,-95.945089857,163,"3018 E PINE ST, TULS, OK, 74110","Match","Non_Exact","3018 E PINE ST, TULSA, OK, 74110",166445252,"R"
161164,"3018 GLENBROOK DR","MIDLOTHIAN","TX",76065,32.452167821,-96.996837951,164,"3018 GLENBROOK DR, MIDLOTHIAN, TX, 76065","Match","Exact","3018 GLENBROOK DR, MIDLOTHIAN, TX, 76065",625664484,"R"
161165,"3018 HOBART STREET","WOODSIDE","NY",11377,NA,NA,165,"3018 HOBART STREET, WOODSIDE, NY, 11377","No_Match",NA,NA,NA,NA
161166,"3018 HUMBOLDT AVE N","MINNEAPOLIS","MN",55411,45.0116513730001,-93.298096247,166,"3018 HUMBOLDT AVE N, MINNEAPOLIS, MN, 55411","Match","Exact","3018 HUMBOLDT AVE N, MINNEAPOLIS, MN, 55411",43622406,"R"
161167,"3018 ISLAND VIEW DRIVE","MOUND","MN",55364,44.9237122320001,-93.637326151,167,"3018 ISLAND VIEW DRIVE, MOUND, MN, 55364","Match","Exact","3018 ISLAND VIEW DR, MOUND, MN, 55364",43818243,"L"
161168,"3018 JARRARD STREET","HOUSTON","TX",77005,29.7166187710001,-95.4251233099999,168,"3018 JARRARD STREET, HOUSTON, TX, 77005","Match","Exact","3018 JARRARD ST, HOUSTON, TX, 77005",96063476,"R"
161169,"3018 LAUREL RIDGE","RIVIERA BEACH","FL",33404,26.7889135940001,-80.0884684919999,169,"3018 LAUREL RIDGE, RIVIERA BEACH, FL, 33404","Match","Non_Exact","3018 LAUREL RIDGE CIR, RIVIERA BEACH, FL, 33404",624443226,"L"
161170,"3018 MELROSE AVE NW P O BOX 6266","ROANOKE","VA",24017,37.289106523,-79.984800395,170,"3018 MELROSE AVE NW P O BOX 6266, ROANOKE, VA, 24017","Match","Exact","3018 MELROSE AVE NW, ROANOKE, VA, 24017",62944019,"R"
161171,"3018 N LOMA VISTA DR","FLAGSTAFF","AZ",86004,35.214079858,-111.600970195,171,"3018 N LOMA VISTA DR, FLAGSTAFF, AZ, 86004","Match","Exact","3018 N LOMA VISTA DR, FLAGSTAFF, AZ, 86004",189063542,"R"
161172,"3018 N NATOMA AVE","CHICAGO","IL",60634,41.9352515570001,-87.791946977,172,"3018 N NATOMA AVE, CHICAGO, IL, 60634","Match","Exact","3018 N NATOMA AVE, CHICAGO, IL, 60634",635912457,"L"
161173,"3018 OAKWOOD DRIVE","PLYMOUTH MEETING","PA",19462,40.1396790360001,-75.299509595,173,"3018 OAKWOOD DRIVE, PLYMOUTH MEETING, PA, 19462","Match","Exact","3018 OAKWOOD DR, PLYMOUTH MEETING, PA, 19462",135084666,"R"
161174,"3018 PARSIFAL LANE","CHARLOTTE","NC",28213,35.3002101390001,-80.710131436,174,"3018 PARSIFAL LANE, CHARLOTTE, NC, 28213","Match","Exact","3018 PARSIFAL LN, CHARLOTTE, NC, 28213",641619133,"R"
161175,"3018 PILLSBURY AVENUE SOUTH  APT203","MINNEAPOLIS","MN",55408,44.9479430920001,-93.281366465,175,"3018 PILLSBURY AVENUE SOUTH  APT203, MINNEAPOLIS, MN, 55408","Match","Exact","3018 PILLSBURY AVE S, MINNEAPOLIS, MN, 55408",43633471,"R"
161176,"3018 PRESCOTT ST","HOUSTON","TX",77025,29.6922915120001,-95.42406478,176,"3018 PRESCOTT ST, HOUSTON, TX, 77025","Match","Exact","3018 PRESCOTT ST, HOUSTON, TX, 77025",96087089,"R"
161177,"3018 RUSSELL WAY","LYNNWOOD","WA",98087,47.879852226,-122.275437373,177,"3018 RUSSELL WAY, LYNNWOOD, WA, 98087","Match","Exact","3018 RUSSELL WAY, LYNNWOOD, WA, 98087",187816866,"L"
161178,"3018 S 87TH ST","OMAHA","NE",68124,41.231596605,-96.048454185,178,"3018 S 87TH ST, OMAHA, NE, 68124","Match","Exact","3018 S 87TH ST, OMAHA, NE, 68124",116981054,"R"
161179,"3018 S 87TH STREET","OMAHA","NE",68124,41.231596605,-96.048454185,179,"3018 S 87TH STREET, OMAHA, NE, 68124","Match","Exact","3018 S 87TH ST, OMAHA, NE, 68124",116981054,"R"
161180,"3018 S BRONSON AVE","LOS ANGELES","CA",90018,34.027386302,-118.33378571,180,"3018 S BRONSON AVE, LOS ANGELES, CA, 90018","Match","Exact","3018 S BRONSON AVE, LOS ANGELES, CA, 90018",141602148,"L"
161181,"3018 S CAMINO KINO","GREEN VALLEY","AZ",85622,NA,NA,181,"3018 S CAMINO KINO, GREEN VALLEY, AZ, 85622","No_Match",NA,NA,NA,NA
161182,"3018 SAN ANGELO AVE","SIMI VALLEY","CA",93063,34.2901868000001,-118.698125265,182,"3018 SAN ANGELO AVE, SIMI VALLEY, CA, 93063","Match","Exact","3018 SAN ANGELO AVE, SIMI VALLEY, CA, 93063",109998513,"R"
161183,"3018 SE 34TH AVE","OKEECHOBEE","FL",34974,27.216245099,-80.79378035,183,"3018 SE 34TH AVE, OKEECHOBEE, FL, 34974","Match","Exact","3018 SE 34TH AVE, OKEECHOBEE, FL, 34974",4972387,"R"
161184,"3018 SHORE PARKWAY","BROOKLYN","NY",11235,40.5843756960001,-73.961103209,184,"3018 SHORE PARKWAY, BROOKLYN, NY, 11235","Match","Exact","3018 SHORE PKWY, BROOKLYN, NY, 11235",59095894,"R"
161185,"3018 STAGG AVENUE","BASILE","LA",70515,30.485655685,-92.595674919,185,"3018 STAGG AVENUE, BASILE, LA, 70515","Match","Exact","3018 STAGG AVE, BASILE, LA, 70515",13200578,"R"
161186,"3018 STOCKER ST APT 6","LOS ANGELES","CA",90008,34.0074267910001,-118.326449482,186,"3018 STOCKER ST APT 6, LOS ANGELES, CA, 90008","Match","Exact","3018 STOCKER ST, LOS ANGELES, CA, 90008",141602779,"L"
161187,"3018 W CLAY ST  SUITE 200","RICHMOND","VA",23230,37.5660185130001,-77.471157878,187,"3018 W CLAY ST  SUITE 200, RICHMOND, VA, 23230","Match","Non_Exact","3018 W CLAY ST, RICHMOND, VA, 23230",201535583,"R"
161188,"3018 W MARTINEZ WAY","RIVERTON","UT",84065,40.5214154350001,-111.963918384,188,"3018 W MARTINEZ WAY, RIVERTON, UT, 84065","Match","Exact","3018 MARTINEZ WAY, RIVERTON, UT, 84065",647277322,"L"
161189,"3018 WOODRUFF AVE  6","LANSING","MI",48912,42.746585687,-84.509211443,189,"3018 WOODRUFF AVE  6, LANSING, MI, 48912","Match","Exact","3018 WOODRUFF AVE, LANSING, MI, 48912",17501064,"R"
161190,"3018 WOODRUFF AVE APT6","LANSING","MI",48912,42.746585687,-84.509211443,190,"3018 WOODRUFF AVE APT6, LANSING, MI, 48912","Match","Exact","3018 WOODRUFF AVE, LANSING, MI, 48912",17501064,"R"
161191,"30181 KENT LAKE ROAD","SOUTH LYON","MI",48178,42.512368571,-83.659172656,191,"30181 KENT LAKE ROAD, SOUTH LYON, MI, 48178","Match","Exact","30181 KENT LAKE RD, SOUTH LYON, MI, 48178",653387211,"R"
161192,"30189 LOS ANGELES ST","SHAFTER","CA",93263,35.492611352,-119.290981346,192,"30189 LOS ANGELES ST, SHAFTER, CA, 93263","Match","Non_Exact","30189 W LOS ANGELES ST, SHAFTER, CA, 93263",624037490,"L"
161193,"3019  ARROWHEAD DR","SUGAR LAND","TX",77479,29.584120974,-95.6029534469999,193,"3019  ARROWHEAD DR, SUGAR LAND, TX, 77479","Match","Exact","3019 ARROWHEAD DR, SUGAR LAND, TX, 77479",78268804,"R"
161194,"3019  N COVINGTON CT","WICHITA","KS",67205,37.737782801,-97.47576191,194,"3019  N COVINGTON CT, WICHITA, KS, 67205","Match","Exact","3019 N COVINGTON CT, WICHITA, KS, 67205",627620834,"R"
161195,"3019 7TH ST N","FARGO","ND",58102,46.9160862270001,-96.788584198,195,"3019 7TH ST N, FARGO, ND, 58102","Match","Exact","3019 7TH ST N, FARGO, ND, 58102",151445820,"R"
161196,"3019 ALTUS DRIVE","HOUSTON","TX",77051,29.6374710920001,-95.379606418,196,"3019 ALTUS DRIVE, HOUSTON, TX, 77051","Match","Exact","3019 ALTUS DR, HOUSTON, TX, 77051",96090168,"L"
161197,"3019 AVENUE W APT 6B","BROOKLYN","NY",11229,NA,NA,197,"3019 AVENUE W APT 6B, BROOKLYN, NY, 11229","No_Match",NA,NA,NA,NA
161198,"3019 BEDEVERE CIR","DECATUR","GA",30035,33.7338976300001,-84.2257273879999,198,"3019 BEDEVERE CIR, DECATUR, GA, 30035","Match","Exact","3019 BEDEVERE CIR, DECATUR, GA, 30035",642647101,"R"
161199,"3019 BRADFORD CIR","PALM HARBOR","FL",34685,28.0946723870001,-82.6792489709999,199,"3019 BRADFORD CIR, PALM HARBOR, FL, 34685","Match","Exact","3019 BRADFORD CIR, PALM HARBOR, FL, 34685",124730766,"L"
161200,"3019 BRADFORD CIRCLE","PALM HARBOR","FL",34685,28.0946723870001,-82.6792489709999,200,"3019 BRADFORD CIRCLE, PALM HARBOR, FL, 34685","Match","Exact","3019 BRADFORD CIR, PALM HARBOR, FL, 34685",124730766,"L"
161201,"3019 BUCKLEIGH DR","CHARLOTTE","NC",28215,35.275519074,-80.713709259,201,"3019 BUCKLEIGH DR, CHARLOTTE, NC, 28215","Match","Exact","3019 BUCKLEIGH DR, CHARLOTTE, NC, 28215",70627584,"R"
161202,"3019 CASHIN ST","FLINT","MI",48506,43.0481284090001,-83.622038301,202,"3019 CASHIN ST, FLINT, MI, 48506","Match","Non_Exact","3019 CASHIN DR, FLINT, MI, 48506",69570991,"L"
161203,"3019 CHRIS CIRCLE","VILLA RICA","GA",30180,NA,NA,203,"3019 CHRIS CIRCLE, VILLA RICA, GA, 30180","No_Match",NA,NA,NA,NA
161204,"3019 CONCHAS ST NE","ALBUQUERQUE","NM",87111,35.1165278300001,-106.535644934,204,"3019 CONCHAS ST NE, ALBUQUERQUE, NM, 87111","Match","Exact","3019 CONCHAS ST NE, ALBUQUERQUE, NM, 87111",206719120,"L"
161205,"3019 DEARBORN ST","YOUNGSTOWN","OH",44510,41.130910054,-80.682292493,205,"3019 DEARBORN ST, YOUNGSTOWN, OH, 44510","Match","Exact","3019 DEARBORN ST, YOUNGSTOWN, OH, 44510",64593648,"L"
161206,"3019 DECKER DRIVE","SOUTH PARK","PA",15129,40.2971198700001,-79.977079213,206,"3019 DECKER DRIVE, SOUTH PARK, PA, 15129","Match","Exact","3019 DECKER DR, SOUTH PARK, PA, 15129",642114683,"L"
161207,"3019 DUPORTAIL ST PO BOX 241","RICHLAND","WA",99352,46.255255171,-119.317014931,207,"3019 DUPORTAIL ST PO BOX 241, RICHLAND, WA, 99352","Match","Exact","3019 DUPORTAIL ST, RICHLAND, WA, 99352",628970258,"L"
161208,"3019 DUPORTAIL STREET 202","RICHLAND","WA",99352,46.255255171,-119.317014931,208,"3019 DUPORTAIL STREET 202, RICHLAND, WA, 99352","Match","Exact","3019 DUPORTAIL ST, RICHLAND, WA, 99352",628970258,"L"
161209,"3019 EAST 9TH STREET","TEXARKANA","AR",71854,33.4307056010001,-94.011291896,209,"3019 EAST 9TH STREET, TEXARKANA, AR, 71854","Match","Exact","3019 E 9TH ST, TEXARKANA, AR, 71854",57291503,"L"
161210,"3019 FALL SOLSTICE CT","LAS VEGAS","NV",89138,36.2147560130001,-115.339872926,210,"3019 FALL SOLSTICE CT, LAS VEGAS, NV, 89138","Match","Exact","3019 FALL SOLSTICE CT, LAS VEGAS, NV, 89138",650985900,"R"
161211,"3019 FOREST GALE DR","FOEST GROVE","OR",97116,45.531710751,-123.142486019,211,"3019 FOREST GALE DR, FOEST GROVE, OR, 97116","Match","Non_Exact","3019 FOREST GALE DR, FOREST GROVE, OR, 97116",158173240,"R"
161212,"3019 GENE FIELD ROAD","SAINT JOSEPH","MO",64506,39.7920387770001,-94.8190922319999,212,"3019 GENE FIELD ROAD, SAINT JOSEPH, MO, 64506","Match","Exact","3019 GENE FIELD RD, SAINT JOSEPH, MO, 64506",15954545,"L"
161213,"3019 HASTINGS WAY","SAN RAMON","CA",94582,37.7522470070001,-121.903951974,213,"3019 HASTINGS WAY, SAN RAMON, CA, 94582","Match","Exact","3019 HASTINGS WAY, SAN RAMON, CA, 94582",192117638,"L"
161214,"3019 KAHALOA DRIVE","HONOLULU","HI",96822,21.31142234,-157.803568067,214,"3019 KAHALOA DRIVE, HONOLULU, HI, 96822","Match","Exact","3019 KAHALOA DR, HONOLULU, HI, 96822",203238193,"R"
161215,"3019 MARBLE MOUNTAIN WAY","GREEN BAY","WI",54313,44.5868341820001,-88.0997287819999,215,"3019 MARBLE MOUNTAIN WAY, GREEN BAY, WI, 54313","Match","Exact","3019 MARBLE MOUNTAIN WAY, GREEN BAY, WI, 54313",648528373,"L"
161216,"3019 N 52ND STREET","MILWAUKEE","WI",53210,43.0738958520001,-87.978567459,216,"3019 N 52ND STREET, MILWAUKEE, WI, 53210","Match","Exact","3019 N 52ND ST, MILWAUKEE, WI, 53210",77731855,"L"
161217,"3019 N HIGHLAND AVE","JOPLIN","MO",64801,37.1088722740001,-94.49045813,217,"3019 N HIGHLAND AVE, JOPLIN, MO, 64801","Match","Exact","3019 N HIGHLAND AVE, JOPLIN, MO, 64801",66148310,"R"
161218,"3019 N KY 501","KINGS MTN","KY",40442,37.343897692,-84.769551753,218,"3019 N KY 501, KINGS MTN, KY, 40442","Match","Non_Exact","3019 N KY 501, KINGS MOUNTAIN, KY, 40442",636271803,"R"
161219,"3019 OCEAN PARK BLVD SUITE 240","SANTA MONICA","CA",90405,34.019421182,-118.454724737,219,"3019 OCEAN PARK BLVD SUITE 240, SANTA MONICA, CA, 90405","Match","Exact","3019 OCEAN PARK BLVD, SANTA MONICA, CA, 90405",640115028,"L"
161220,"3019 OLD FERRY RD SW","SUPPLY","NC",28462,33.927481195,-78.265329392,220,"3019 OLD FERRY RD SW, SUPPLY, NC, 28462","Match","Exact","3019 OLD FERRY RD SW, SUPPLY, NC, 28462",153160927,"L"
161221,"3019 RUSTICWOOD DR","SNELLVILLE","GA",30078,33.83256548,-84.0363024759999,221,"3019 RUSTICWOOD DR, SNELLVILLE, GA, 30078","Match","Exact","3019 RUSTICWOOD DR, SNELLVILLE, GA, 30078",636305796,"L"
161222,"3019 SAINT PHILIP ST","NEW ORLEANS","LA",70119,29.9754785310001,-90.084305468,222,"3019 SAINT PHILIP ST, NEW ORLEANS, LA, 70119","Match","Exact","3019 SAINT PHILIP ST, NEW ORLEANS, LA, 70119",191709369,"R"
161223,"3019 SCURRY STREET","COLUMBIA","SC",29204,34.038042008,-81.0058037809999,223,"3019 SCURRY STREET, COLUMBIA, SC, 29204","Match","Exact","3019 SCURRY ST, COLUMBIA, SC, 29204",71821248,"R"
161224,"3019 SE 21ST AVENUE","PORTLAND","OR",97202,45.5011695640001,-122.644635825,224,"3019 SE 21ST AVENUE, PORTLAND, OR, 97202","Match","Non_Exact","3019 SE 21ST AVE, PORTLAND, OR, 97202",157509551,"R"
161225,"3019 TYLER CT","MONTGOMERY","AL",36110,32.428773102,-86.284292513,225,"3019 TYLER CT, MONTGOMERY, AL, 36110","Match","Exact","3019 TYLER CT, MONTGOMERY, AL, 36110",1468327,"L"
161226,"3019 W BOSTON BLVD","DETROIT","MI",48206,42.37674286,-83.1158387959999,226,"3019 W BOSTON BLVD, DETROIT, MI, 48206","Match","Exact","3019 W BOSTON BLVD, DETROIT, MI, 48206",95471572,"L"
161227,"3019 W MARIGOLD DR","FAYETTEVILLE","AR",72704,36.088780634,-94.202158277,227,"3019 W MARIGOLD DR, FAYETTEVILLE, AR, 72704","Match","Exact","3019 W MARIGOLD DR, FAYETTEVILLE, AR, 72704",49079741,"L"
161228,"30192 N DESERT WILLOW BLVD","SAN TAN VALLEY","AZ",85143,33.1538840330001,-111.559618053,228,"30192 N DESERT WILLOW BLVD, SAN TAN VALLEY, AZ, 85143","Match","Exact","30192 N DESERT WILLOW BLVD, SAN TAN VALLEY, AZ, 85143",129242843,"R"
161229,"30195 CHAGRIN BLVD   110","PEPPER PIKE","OH",44124,41.461062371,-81.461224096,229,"30195 CHAGRIN BLVD   110, PEPPER PIKE, OH, 44124","Match","Exact","30195 CHAGRIN BLVD, PEPPER PIKE, OH, 44124",61135634,"L"
161230,"30195 CURTISS ROAD","MECHANICSVILLE","MD",20659,38.4967616390001,-76.719574477,230,"30195 CURTISS ROAD, MECHANICSVILLE, MD, 20659","Match","Exact","30195 CURTISS RD, MECHANICSVILLE, MD, 20659",36619640,"R"
161231,"30195 DESERT ROCK ROAD","DESERT HOT SPRINGS","CA",92240,33.830260319,-116.21818849,231,"30195 DESERT ROCK ROAD, DESERT HOT SPRINGS, CA, 92240","Match","Non_Exact","30195 DESERT ROCK RD, DESERT HOT SPRINGS, CA, 92241",638571156,"L"
161232,"30197 SAVOIE STREET","MURRIETA","CA",92563,33.6037888820001,-117.132319332,232,"30197 SAVOIE STREET, MURRIETA, CA, 92563","Match","Exact","30197 SAVOIE ST, MURRIETA, CA, 92563",633956996,"R"
161233,"301C MATH SCIENCE BUILDING","STILLWATER","OK",74075,NA,NA,233,"301C MATH SCIENCE BUILDING, STILLWATER, OK, 74075","No_Match",NA,NA,NA,NA
161234,"301WEST JEFFERSON BLVD - SUITE 200","FORT WAYNE","IN",46802,NA,NA,234,"301WEST JEFFERSON BLVD - SUITE 200, FORT WAYNE, IN, 46802","No_Match",NA,NA,NA,NA
161235,"302 17TH STREET NE","ROCHESTER","MN",55906,44.0413218690001,-92.458192148,235,"302 17TH STREET NE, ROCHESTER, MN, 55906","Match","Exact","302 17TH ST NE, ROCHESTER, MN, 55906",30577089,"R"
161236,"302 2ND ST SE","CUT BANK","MT",59427,48.6320486230001,-112.331755197,236,"302 2ND ST SE, CUT BANK, MT, 59427","Match","Exact","302 2ND ST SE, CUT BANK, MT, 59427",607265082,"L"
161237,"302 2ND STREET APT 11K","BROOKLYN","NY",11215,40.67386758,-73.983761613,237,"302 2ND STREET APT 11K, BROOKLYN, NY, 11215","Match","Exact","302 2ND ST, BROOKLYN, NY, 11215",59075684,"R"
161238,"302 3RD ST NW","INDEPENDENCE","IA",50644,42.4701312920001,-91.8965254669999,238,"302 3RD ST NW, INDEPENDENCE, IA, 50644","Match","Exact","302 3RD ST NW, INDEPENDENCE, IA, 50644",101137597,"R"
161239,"302 3RD STREET SW","HINCKLEY","MN",55037,46.0130065130001,-92.9488435119999,239,"302 3RD STREET SW, HINCKLEY, MN, 55037","Match","Exact","302 3RD ST SW, HINCKLEY, MN, 55037",163094998,"L"
161240,"302 45TH STREET","VIRGINIA BEACH","VA",23451,36.8728945760001,-75.9838151719999,240,"302 45TH STREET, VIRGINIA BEACH, VA, 23451","Match","Exact","302 45TH ST, VA BCH, VA, 23451",122294428,"L"
161241,"302 4TH AVENUE NE","BRAINERD","MN",56401,46.3620067360001,-94.184152545,241,"302 4TH AVENUE NE, BRAINERD, MN, 56401","Match","Exact","302 4TH AVE NE, BRAINERD, MN, 56401",162827401,"R"
161242,"302 5TH AVENUE SW","EPWORTH","IA",52045,42.4432235680001,-90.94162603,242,"302 5TH AVENUE SW, EPWORTH, IA, 52045","Match","Exact","302 5TH AVE SW, EPWORTH, IA, 52045",16913495,"L"
161243,"302 5TH ST","RACINE","OH",45771,38.970295025,-81.914814499,243,"302 5TH ST, RACINE, OH, 45771","Match","Exact","302 5TH ST, RACINE, OH, 45771",101266630,"L"
161244,"302 8TH AVE N","LEWISTOWN","MT",59457,47.0630311580001,-109.432947376,244,"302 8TH AVE N, LEWISTOWN, MT, 59457","Match","Exact","302 8TH AVE N, LEWISTOWN, MT, 59457",170591729,"R"
161245,"302 8TH ST","RIVERDALE","ND",58565,47.497566319,-101.365961608,245,"302 8TH ST, RIVERDALE, ND, 58565","Match","Exact","302 8TH ST, RIVERDALE, ND, 58565",198910007,"L"
161246,"302 AMERICAN PARKWAY","PAPILLION","NE",68046,41.159418712,-96.028956369,246,"302 AMERICAN PARKWAY, PAPILLION, NE, 68046","Match","Exact","302 AMERICAN PKWY, PAPILLION, NE, 68046",28499166,"R"
161247,"302 ANTIETAM DRIVE","DOUGLASSVILLE","PA",19518,40.272525015,-75.751144949,247,"302 ANTIETAM DRIVE, DOUGLASSVILLE, PA, 19518","Match","Exact","302 ANTIETAM DR, DOUGLASSVILLE, PA, 19518",80435256,"R"
161248,"302 AUDREY LN","SMYRNA","DE",19977,39.2473526200001,-75.5948604719999,248,"302 AUDREY LN, SMYRNA, DE, 19977","Match","Exact","302 AUDREY LN, SMYRNA, DE, 19977",68100305,"L"
161249,"302 AZALEA AVENUE","RICHMOND","VA",23227,37.602584387,-77.433419439,249,"302 AZALEA AVENUE, RICHMOND, VA, 23227","Match","Exact","302 AZALEA AVE, RICHMOND, VA, 23227",106649052,"R"
161250,"302 B N BERNIS ST","BROOKLAND","AR",72417,35.904570361,-90.581689345,250,"302 B N BERNIS ST, BROOKLAND, AR, 72417","Match","Non_Exact","302 N BERNIS ST, BROOKLAND, AR, 72417",46924124,"R"
161251,"302 BANK STREET","SUFFOLK","VA",23434,36.728677196,-76.5790807779999,251,"302 BANK STREET, SUFFOLK, VA, 23434","Match","Exact","302 BANK ST, SUFFOLK, VA, 23434",122227140,"L"
161252,"302 BAY ST","BERLIN","MD",21811,38.324626628,-75.214725387,252,"302 BAY ST, BERLIN, MD, 21811","Match","Exact","302 BAY ST, BERLIN, MD, 21811",114540457,"L"
161253,"302 BELLEFONTAINE","WATERLOO","IL",62298,38.340985647,-90.1486793349999,253,"302 BELLEFONTAINE, WATERLOO, IL, 62298","Match","Non_Exact","302 BELLEFONTAINE DR, WATERLOO, IL, 62298",640069028,"R"
161254,"302 BEVERLY ST","LONGVIEW","TX",75601,32.518754819,-94.745284996,254,"302 BEVERLY ST, LONGVIEW, TX, 75601","Match","Exact","302 BEVERLY ST, LONGVIEW, TX, 75601",141109151,"L"
161255,"302 BIBB STREET","MARION","AL",35756,32.631428896,-87.3167213999999,255,"302 BIBB STREET, MARION, AL, 35756","Match","Non_Exact","302 BIBB ST, MARION, AL, 36756",28057495,"R"
161256,"302 BIG ELM STREET","HIGHLAND VILLAGE","TX",75077,33.085541101,-97.037584956,256,"302 BIG ELM STREET, HIGHLAND VILLAGE, TX, 75077","Match","Exact","302 BIG ELM ST, HIGHLAND VILLAGE, TX, 75077",103346971,"L"
161257,"302 BIRCH AVENUE","SELMA","AL",36701,32.433108014,-87.038232679,257,"302 BIRCH AVENUE, SELMA, AL, 36701","Match","Exact","302 BIRCH AVE, SELMA, AL, 36701",1283023,"R"
161258,"302 BLAISE STREET","CHAUVIN","LA",70344,29.4987492070001,-90.580175168,258,"302 BLAISE STREET, CHAUVIN, LA, 70344","Match","Exact","302 BLAISE ST, CHAUVIN, LA, 70344",92038212,"R"
161259,"302 BLANCHARD AVE","OREGON CITY","OR",97045,45.3457382130001,-122.624621592,259,"302 BLANCHARD AVE, OREGON CITY, OR, 97045","Match","Non_Exact","302 BLANCHARD ST, OREGON CITY, OR, 97045",157985564,"R"
161260,"302 BOB G HUGHES BLVD","HARVEST","AL",35749,34.7928329640001,-86.783815515,260,"302 BOB G HUGHES BLVD, HARVEST, AL, 35749","Match","Exact","302 BOB G HUGHES BLVD, HARVEST, AL, 35749",58173145,"L"
161261,"302 BOB LEE WILLIAMS LANE","NATCHEZ","MS",39120,NA,NA,261,"302 BOB LEE WILLIAMS LANE, NATCHEZ, MS, 39120","No_Match",NA,NA,NA,NA
161262,"302 BOSTON POST RD","WAYLAND","MA",1778,42.3631258360001,-71.3650071879999,262,"302 BOSTON POST RD, WAYLAND, MA, 1778","Match","Exact","302 BOSTON POST RD, WAYLAND, MA, 01778",647976738,"L"
161263,"302 BROAD STREET","BUTLER","PA",16001,40.863542953,-79.902180557,263,"302 BROAD STREET, BUTLER, PA, 16001","Match","Exact","302 BROAD ST, BUTLER, PA, 16001",52653566,"L"
161264,"302 BUFFALO ST","HAMBURG","NY",14075,42.723366529,-78.8258233889999,264,"302 BUFFALO ST, HAMBURG, NY, 14075","Match","Exact","302 BUFFALO ST, HAMBURG, NY, 14075",48309969,"L"
161265,"302 BURKWOOD LANE","ACWORTH","GA",30102,34.0926323510001,-84.5798179889999,265,"302 BURKWOOD LANE, ACWORTH, GA, 30102","Match","Exact","302 BURKWOOD LN, ACWORTH, GA, 30102",625730844,"R"
161266,"302 CALIFORNIA AVE","LIBBY","MT",59923,48.393280496,-115.552291456,266,"302 CALIFORNIA AVE, LIBBY, MT, 59923","Match","Exact","302 CALIFORNIA AVE, LIBBY, MT, 59923",169658375,"L"
161267,"302 CAMPUSVIEW DRIVE SUITE 108","COLUMBIA","MO",65201,38.9223169200001,-92.335440333,267,"302 CAMPUSVIEW DRIVE SUITE 108, COLUMBIA, MO, 65201","Match","Exact","302 CAMPUSVIEW DR, COLUMBIA, MO, 65201",604991770,"L"
161268,"302 CANTERBURY DRIVE","CORAOPOLIS","PA",15108,40.515318995,-80.190473959,268,"302 CANTERBURY DRIVE, CORAOPOLIS, PA, 15108","Match","Exact","302 CANTERBURY DR, CORAOPOLIS, PA, 15108",51923669,"R"
161269,"302 CASON STREET","ALBANY","FL",31705,NA,NA,269,"302 CASON STREET, ALBANY, FL, 31705","No_Match",NA,NA,NA,NA
161270,"302 CENTER PARK WAY","APEX","NC",27502,35.7304287970001,-78.8443676959999,270,"302 CENTER PARK WAY, APEX, NC, 27502","Match","Exact","302 CENTER PARK WAY, APEX, NC, 27502",72596858,"R"
161271,"302 CENTRE DRIVE","ALBANY","NY",12203,NA,NA,271,"302 CENTRE DRIVE, ALBANY, NY, 12203","No_Match",NA,NA,NA,NA
161272,"302 CHRISSA LN","LEBANON","TN",37087,36.1896752700001,-86.303230116,272,"302 CHRISSA LN, LEBANON, TN, 37087","Match","Exact","302 CHRISSA LN, LEBANON, TN, 37087",627297332,"L"
161273,"302 CHURCH COURT","HOLLY SPRINGS","MS",38635,NA,NA,273,"302 CHURCH COURT, HOLLY SPRINGS, MS, 38635","No_Match",NA,NA,NA,NA
161274,"302 CLARK AVENUE EXT","SAINT CLAIRSVILLE","OH",43950,40.07436324,-80.8887775749999,274,"302 CLARK AVENUE EXT, SAINT CLAIRSVILLE, OH, 43950","Match","Non_Exact","302 CLARK AVE EXD, SAINT CLAIRSVILLE, OH, 43950",36270981,"L"
161275,"302 COBIA DR","KATY","TX",77494,29.778015225,-95.78247577,275,"302 COBIA DR, KATY, TX, 77494","Match","Exact","302 COBIA DR, KATY, TX, 77494",646711420,"L"
161276,"302 COLUMBIA AVE","STRATFORD","NJ",8084,39.8348359570001,-75.0158805739999,276,"302 COLUMBIA AVE, STRATFORD, NJ, 8084","Match","Exact","302 COLUMBIA AVE, STRATFORD, NJ, 08084",134357215,"L"
161277,"302 COLUMBUS AVE APT 1B","NEW YORK","NY",10023,40.778843237,-73.977754911,277,"302 COLUMBUS AVE APT 1B, NEW YORK, NY, 10023","Match","Exact","302 COLUMBUS AVE, NEW YORK, NY, 10023",59657018,"L"
161278,"302 CORONATION DR","O FALLON","MO",63366,38.814267445,-90.710122862,278,"302 CORONATION DR, O FALLON, MO, 63366","Match","Exact","302 CORONATION DR, O FALLON, MO, 63366",605532519,"R"
161279,"302 COTTONWOOD DRIVE","CASSELTON","ND",58012,46.8917129480001,-97.2174006119999,279,"302 COTTONWOOD DRIVE, CASSELTON, ND, 58012","Match","Exact","302 COTTONWOOD DR, CASSELTON, ND, 58012",151472810,"R"
161280,"302 COUNTRY CLUB DRIVE","JONESBORO","GA",30238,33.500768297,-84.4015419419999,280,"302 COUNTRY CLUB DRIVE, JONESBORO, GA, 30238","Match","Exact","302 COUNTRY CLUB DR, JONESBORO, GA, 30238",23329134,"L"
161281,"302 COUNTY ROAD 1307","BARDWELL","KY",42023,36.90554502,-89.065245783,281,"302 COUNTY ROAD 1307, BARDWELL, KY, 42023","Match","Exact","302 CO RD 1307, BARDWELL, KY, 42023",636240656,"R"
161282,"302 COURT STREET","BEDFORD","VA",24523,37.3348516630001,-79.521767279,282,"302 COURT STREET, BEDFORD, VA, 24523","Match","Exact","302 COURT ST, BEDFORD, VA, 24523",62708891,"L"
161283,"302 CUMBERLAND WAY SE","SMYRNA","GA",30080,NA,NA,283,"302 CUMBERLAND WAY SE, SMYRNA, GA, 30080","Tie",NA,NA,NA,NA
161284,"302 CURACAO WAY","NICEVILLE","FL",32578,30.472331695,-86.422145044,284,"302 CURACAO WAY, NICEVILLE, FL, 32578","Match","Exact","302 CURACAO WAY, NICEVILLE, FL, 32578",74400530,"L"
161285,"302 DAWN DR","GREENVILLE","KY",42345,37.210706165,-87.161171999,285,"302 DAWN DR, GREENVILLE, KY, 42345","Match","Exact","302 DAWN DR, GREENVILLE, KY, 42345",206962607,"R"
161286,"302 DELAWARE AVENUE","CHARLESTON","WV",25302,38.362408271,-81.647730614,286,"302 DELAWARE AVENUE, CHARLESTON, WV, 25302","Match","Exact","302 DELAWARE AVE, CHARLESTON, WV, 25302",78646773,"R"
161287,"302 DELAWARE STREET","IRONTON","OH",45638,38.5516111410001,-82.706020721,287,"302 DELAWARE STREET, IRONTON, OH, 45638","Match","Exact","302 DELAWARE ST, IRONTON, OH, 45638",55015023,"L"
161288,"302 DEPOT ROAD","THERESA","WI",53091,NA,NA,288,"302 DEPOT ROAD, THERESA, WI, 53091","No_Match",NA,NA,NA,NA
161289,"302 DIXIE AVENUE","NORTH PLATTE","NE",69101,41.131741892,-100.80379445,289,"302 DIXIE AVENUE, NORTH PLATTE, NE, 69101","Match","Exact","302 DIXIE AVE, NORTH PLATTE, NE, 69101",151234991,"L"
161290,"302 DOVE COURT","FOREST HILL","MD",21050,39.569496353,-76.3606905249999,290,"302 DOVE COURT, FOREST HILL, MD, 21050","Match","Exact","302 DOVE CT, FOREST HILL, MD, 21050",606805966,"R"
161291,"302 E 32ND ST UNIT A","AUSTIN","TX",78705,NA,NA,291,"302 E 32ND ST UNIT A, AUSTIN, TX, 78705","Tie",NA,NA,NA,NA
161292,"302 E 5TH STREET SUITE A","OWASSO","OK",74055,36.2722986420001,-95.857771935,292,"302 E 5TH STREET SUITE A, OWASSO, OK, 74055","Match","Non_Exact","302 W 5TH ST, OWASSO, OK, 74055",640451369,"L"
161293,"302 E CARY STREET","PAPILLION","NE",68046,41.172569906,-96.040019834,293,"302 E CARY STREET, PAPILLION, NE, 68046","Match","Exact","302 E CARY ST, PAPILLION, NE, 68046",28500920,"L"
161294,"302 E COLE STREET","HEYWORTH","IL",61745,40.313140569,-88.9745492869999,294,"302 E COLE STREET, HEYWORTH, IL, 61745","Match","Exact","302 E COLE ST, HEYWORTH, IL, 61745",20551955,"R"
161295,"302 E COLLEGE AVE","KOUTS","IN",46347,41.3146028670001,-87.023718236,295,"302 E COLLEGE AVE, KOUTS, IN, 46347","Match","Exact","302 E COLLEGE AVE, KOUTS, IN, 46347",119906673,"R"
161296,"302 E DEAN ST","BURRTON","KS",67020,38.028710946,-97.6687590349999,296,"302 E DEAN ST, BURRTON, KS, 67020","Match","Exact","302 DEAN ST, BURRTON, KS, 67020",120638851,"L"
161297,"302 E ELM","VILLA GROVE","IL",61956,39.867091814,-88.156929,297,"302 E ELM, VILLA GROVE, IL, 61956","Match","Non_Exact","302 E ELM ST, VILLA GROVE, IL, 61956",5739453,"L"
161298,"302 E FREEMAN ST","DUNCANVILLE","TX",75116,32.6509539530001,-96.9058917999999,298,"302 E FREEMAN ST, DUNCANVILLE, TX, 75116","Match","Exact","302 E FREEMAN ST, DUNCANVILLE, TX, 75116",102943243,"R"
161299,"302 E FRONT ST","STATESVILLE","NC",28677,35.7843810690001,-80.88252353,299,"302 E FRONT ST, STATESVILLE, NC, 28677","Match","Exact","302 E FRONT ST, STATESVILLE, NC, 28677",45984944,"R"
161300,"302 E HERSEY ST SUITE 8","ASHLAND","OR",97520,NA,NA,300,"302 E HERSEY ST SUITE 8, ASHLAND, OR, 97520","Tie",NA,NA,NA,NA
161301,"302 E HERSEY STREET 8","ASHLAND","OR",97520,NA,NA,301,"302 E HERSEY STREET 8, ASHLAND, OR, 97520","Tie",NA,NA,NA,NA
161302,"302 E JOSEPHINE SUITE 1201","SAN ANTONIO","TX",78215,NA,NA,302,"302 E JOSEPHINE SUITE 1201, SAN ANTONIO, TX, 78215","No_Match",NA,NA,NA,NA
161303,"302 E SALMON ST","HAGERMAN","ID",83332,42.8155416390001,-114.894891948,303,"302 E SALMON ST, HAGERMAN, ID, 83332","Match","Exact","302 E SALMON ST, HAGERMAN, ID, 83332",118501656,"L"
161304,"302 E WASHINGTON ST APT 1229","MONROE","GA",30655,33.793786691,-83.710887307,304,"302 E WASHINGTON ST APT 1229, MONROE, GA, 30655","Match","Non_Exact","302 E WASHINGTON ST, MONROE, GA, 30655",77614662,"R"
161305,"302 E WASHINGTON STREET PO BOX 1561","MONROE","GA",30655,33.793786691,-83.710887307,305,"302 E WASHINGTON STREET PO BOX 1561, MONROE, GA, 30655","Match","Non_Exact","302 E WASHINGTON ST, MONROE, GA, 30655",77614662,"R"
161306,"302 E YELM AVE","YELM","WA",98597,46.939732969,-122.602485035,306,"302 E YELM AVE, YELM, WA, 98597","Match","Exact","302 E YELM AVE, YELM, WA, 98597",629075195,"R"
161307,"302 EAGLE HEIGHTS APT C","MADISON","WI",53705,43.0861869560001,-89.435042735,307,"302 EAGLE HEIGHTS APT C, MADISON, WI, 53705","Match","Exact","302 EAGLE HTS, MADISON, WI, 53705",49539449,"R"
161308,"302 EAST 19TH STREET APT 2C","NEW YORK CITY","NY",10003,40.7353283150001,-73.9824612,308,"302 EAST 19TH STREET APT 2C, NEW YORK CITY, NY, 10003","Match","Exact","302 E 19TH ST, NEW YORK, NY, 10003",59654584,"R"
161309,"302 EAST BRECKENRIDGE STREET","LOUISVILLE","KY",40203,38.2409392640001,-85.750323495,309,"302 EAST BRECKENRIDGE STREET, LOUISVILLE, KY, 40203","Match","Non_Exact","302 E BRECKINRIDGE ST, LOUISVILLE, KY, 40203",618510118,"R"
161310,"302 EAST LAFAYETTE STREET","MARION","AL",36756,32.631521633,-87.31661809,310,"302 EAST LAFAYETTE STREET, MARION, AL, 36756","Match","Exact","302 E LAFAYETTE ST, MARION, AL, 36756",28057479,"L"
161311,"302 EAST MADISON ST","INWOOD","IA",51240,43.3051850090001,-96.429199619,311,"302 EAST MADISON ST, INWOOD, IA, 51240","Match","Exact","302 E MADISON ST, INWOOD, IA, 51240",30200072,"R"
161312,"302 EAST OHIO","MIDLAND","TX",79701,32.00070035,-102.071890118,312,"302 EAST OHIO, MIDLAND, TX, 79701","Match","Non_Exact","302 E OHIO AVE, MIDLAND, TX, 79701",139582521,"R"
161313,"302 ELLISON DRIVE","NORTH WALES","PA",19454,40.217350691,-75.2206346839999,313,"302 ELLISON DRIVE, NORTH WALES, PA, 19454","Match","Exact","302 ELLISON DR, NORTH WALES, PA, 19454",647903950,"R"
161314,"302 ELM STREET","RIDGEWAY","MO",64481,40.382785321,-93.939156273,314,"302 ELM STREET, RIDGEWAY, MO, 64481","Match","Exact","302 ELM ST, RIDGEWAY, MO, 64481",17985134,"R"
161315,"302 ENGLEWOOD DR","LUFKIN","TX",75901,31.3270122590001,-94.706811024,315,"302 ENGLEWOOD DR, LUFKIN, TX, 75901","Match","Exact","302 ENGLEWOOD DR, LUFKIN, TX, 75901",23872582,"R"
161316,"302 ENSENADA PLZ","DALLAS","TX",75211,32.718075739,-96.900875657,316,"302 ENSENADA PLZ, DALLAS, TX, 75211","Match","Exact","302 ENSENADA PLZ, DALLAS, TX, 75211",103222973,"R"
161317,"302 FAIRFIELD DR","THIBODAUX","LA",70301,29.785096105,-90.790443528,317,"302 FAIRFIELD DR, THIBODAUX, LA, 70301","Match","Exact","302 FAIRFIELD DR, THIBODAUX, LA, 70301",92329174,"R"
161318,"302 FARRIS STREET","CLARKSVILLE","AR",72830,35.4725633300001,-93.4783922139999,318,"302 FARRIS STREET, CLARKSVILLE, AR, 72830","Match","Exact","302 FARRIS ST, CLARKSVILLE, AR, 72830",73518067,"R"
161319,"302 FISH HATCHERY LANE","MAMMOTH SPRING","AR",72554,NA,NA,319,"302 FISH HATCHERY LANE, MAMMOTH SPRING, AR, 72554","No_Match",NA,NA,NA,NA
161320,"302 FLAG LAKE DR","LAKE JACKSON","TX",77566,29.013978315,-95.421649379,320,"302 FLAG LAKE DR, LAKE JACKSON, TX, 77566","Match","Exact","302 FLAG LAKE DR, LAKE JACKSON, TX, 77566",648850447,"R"
161321,"302 FRANKLIN","WEST PLAINS","MO",65775,36.7304052650001,-91.858394107,321,"302 FRANKLIN, WEST PLAINS, MO, 65775","Match","Non_Exact","302 FRANKLIN AVE, WEST PLAINS, MO, 65775",33313715,"R"
161322,"302 FREDERICK STREET","SARDIS","MS",38666,34.4321016550001,-89.9200540579999,322,"302 FREDERICK STREET, SARDIS, MS, 38666","Match","Exact","302 FREDERICK ST, SARDIS, MS, 38666",80073877,"L"
161323,"302 FRONT PORCH DRIVE","FOUNTAIN INN","SC",29644,NA,NA,323,"302 FRONT PORCH DRIVE, FOUNTAIN INN, SC, 29644","No_Match",NA,NA,NA,NA
161324,"302 G STREET","DAVIS","CA",95616,38.5450494140001,-121.739289287,324,"302 G STREET, DAVIS, CA, 95616","Match","Exact","302 G ST, DAVIS, CA, 95616",67691603,"R"
161325,"302 GARRISON CIRCLE","PORT BARRINGTON","IL",60010,42.249446683,-88.197960887,325,"302 GARRISON CIRCLE, PORT BARRINGTON, IL, 60010","Match","Exact","302 GARRISON CIR, PORT BARRINGTON, IL, 60010",638515505,"L"
161326,"302 GENERAL AS JOHNSTON STREET","STANLEY","NC",28164,35.345944382,-81.087690948,326,"302 GENERAL AS JOHNSTON STREET, STANLEY, NC, 28164","Match","Exact","302 GENERAL AS JOHNSTON ST, STANLEY, NC, 28164",636540697,"R"
161327,"302 GENERAL SMITH DRIVE","RICHMOND","KY",40477,37.666453222,-84.262570921,327,"302 GENERAL SMITH DRIVE, RICHMOND, KY, 40477","Match","Non_Exact","302 GENERAL SMITH DR, RICHMOND, KY, 40475",31999159,"R"
161328,"302 GENERAL STEWART WAY 112B","HINESVILLE","GA",31313,NA,NA,328,"302 GENERAL STEWART WAY 112B, HINESVILLE, GA, 31313","Tie",NA,NA,NA,NA
161329,"302 GEORGIA HIGHWAY 30 WEST","AMERICUS","GA",31719,NA,NA,329,"302 GEORGIA HIGHWAY 30 WEST, AMERICUS, GA, 31719","No_Match",NA,NA,NA,NA
161330,"302 GILLEY ROAD","PILOT MOUNTAIN","NC",27041,36.454347232,-80.508987431,330,"302 GILLEY ROAD, PILOT MOUNTAIN, NC, 27041","Match","Exact","302 GILLEY RD, PILOT MOUNTAIN, NC, 27041",154160590,"R"
161331,"302 GLENNEYRE STREET","LAGUNA BEACH","CA",92651,33.54303478,-117.782581363,331,"302 GLENNEYRE STREET, LAGUNA BEACH, CA, 92651","Match","Exact","302 GLENNEYRE ST, LAGUNA BEACH, CA, 92651",144068417,"L"
161332,"302 GLENSHANE PASS","BEAR","DE",19701,39.5590986660001,-75.6662844109999,332,"302 GLENSHANE PASS, BEAR, DE, 19701","Match","Exact","302 GLENSHANE PASS, BEAR, DE, 19701",605787903,"R"
161333,"302 GLENWOOD DR","HOUSTON","TX",77007,29.7645127260001,-95.4223573099999,333,"302 GLENWOOD DR, HOUSTON, TX, 77007","Match","Exact","302 GLENWOOD DR, HOUSTON, TX, 77007",96060554,"R"
161334,"302 GRANT AVENUE","CLIFFSIDE PARK","NJ",7010,40.827459457,-73.9850052529999,334,"302 GRANT AVENUE, CLIFFSIDE PARK, NJ, 7010","Match","Exact","302 GRANT AVE, CLIFFSIDE PARK, NJ, 07010",64391464,"L"
161335,"302 GRASSMERE STREET","KINGSLAND","GA",31548,30.8097515600001,-81.708452795,335,"302 GRASSMERE STREET, KINGSLAND, GA, 31548","Match","Exact","302 GRASSMERE ST, KINGSLAND, GA, 31548",627195527,"L"
161336,"302 GREAT ROAD","STOW","MA",1775,42.43550192,-71.4989690959999,336,"302 GREAT ROAD, STOW, MA, 1775","Match","Exact","302 GREAT RD, STOW, MA, 01775",86927313,"R"
161337,"302 GREEN HILLS DRIVE","HATTIESBURG","MS",39402,31.2816878240001,-89.3612646719999,337,"302 GREEN HILLS DRIVE, HATTIESBURG, MS, 39402","Match","Exact","302 GREEN HILLS DR, HATTIESBURG, MS, 39402",493534,"R"
161338,"302 GREENFIELD DR","WINCHESTER","VA",22602,39.2251219930001,-78.1698015539999,338,"302 GREENFIELD DR, WINCHESTER, VA, 22602","Match","Non_Exact","302 GREENFIELD DR, WINCHESTER, VA, 22603",55601977,"R"
161339,"302 GREGG STREET","HOUSTON","TX",77020,29.76545545,-95.335626135,339,"302 GREGG STREET, HOUSTON, TX, 77020","Match","Exact","302 GREGG ST, HOUSTON, TX, 77020",96070323,"R"
161340,"302 HALER ST","KENAI","AK",99611,60.563774342,-151.288648829,340,"302 HALER ST, KENAI, AK, 99611","Match","Non_Exact","302 HALLER ST, KENAI, AK, 99611",190995373,"L"
161341,"302 HAMBLETONIAN DR","OAK BROOK","IL",60523,41.8231005750001,-87.986986644,341,"302 HAMBLETONIAN DR, OAK BROOK, IL, 60523","Match","Exact","302 HAMBLETONIAN DR, OAK BROOK, IL, 60523",112669076,"L"
161342,"302 HARDEE ST","DALLAS","GA",30132,33.9204817680001,-84.836853015,342,"302 HARDEE ST, DALLAS, GA, 30132","Match","Exact","302 HARDEE ST, DALLAS, GA, 30132",207990837,"R"
161343,"302 HARTCOURT AVENUE","JERSEYVILLE","IL",62052,39.1120412080001,-90.337578446,343,"302 HARTCOURT AVENUE, JERSEYVILLE, IL, 62052","Match","Exact","302 HARTCOURT AVE, JERSEYVILLE, IL, 62052",628624131,"L"
161344,"302 HAYWOOD DRIVE","KATHLEEN","GA",31047,32.532257422,-83.6713142409999,344,"302 HAYWOOD DRIVE, KATHLEEN, GA, 31047","Match","Exact","302 HAYWOOD DR, KATHLEEN, GA, 31047",642633425,"L"
161345,"302 HEARNES CENTER","COLUMBIA","MO",65211,NA,NA,345,"302 HEARNES CENTER, COLUMBIA, MO, 65211","No_Match",NA,NA,NA,NA
161346,"302 HIGHWAY 25 EAST","CENTER","ND",58530,NA,NA,346,"302 HIGHWAY 25 EAST, CENTER, ND, 58530","No_Match",NA,NA,NA,NA
161347,"302 HILLCREST AVE","HOBART","IN",46342,41.5414407120001,-87.2290480509999,347,"302 HILLCREST AVE, HOBART, IN, 46342","Match","Non_Exact","302 HILLCREST LN, HOBART, IN, 46342",98449879,"L"
161348,"302 HOPKINS PLACE","EASTON","MD",21601,38.7742299780001,-76.081627292,348,"302 HOPKINS PLACE, EASTON, MD, 21601","Match","Exact","302 HOPKINS PL, EASTON, MD, 21601",68370197,"L"
161349,"302 INDIAN SUMMER LANE","BOILING SPRINGS","SC",29316,35.0459386040001,-81.997332533,349,"302 INDIAN SUMMER LANE, BOILING SPRINGS, SC, 29316","Match","Exact","302 INDIAN SUMMER LN, BOILING SPRINGS, SC, 29316",19496927,"R"
161350,"302 INGLESIDE DRIVE","MONROE","LA",71203,32.5318629010001,-92.0548842009999,350,"302 INGLESIDE DRIVE, MONROE, LA, 71203","Match","Exact","302 INGLESIDE DR, MONROE, LA, 71203",161089336,"R"
161351,"302 JACOBS HIGHWAY SUITE A","CLINTON","SC",29325,34.4518316780001,-81.875129209,351,"302 JACOBS HIGHWAY SUITE A, CLINTON, SC, 29325","Match","Exact","302 JACOBS HWY, CLINTON, SC, 29325",644054587,"L"
161352,"302 JEFFERSON ST 190","RALEIGH","NC",27605,35.795196699,-78.6441340219999,352,"302 JEFFERSON ST 190, RALEIGH, NC, 27605","Match","Exact","302 JEFFERSON ST, RALEIGH, NC, 27605",72576516,"R"
161353,"302 JEFFREY PLACE APT 304","DOVER","DE",19904,39.149574063,-75.567646473,353,"302 JEFFREY PLACE APT 304, DOVER, DE, 19904","Match","Exact","302 JEFFREY PL, DOVER, DE, 19904",635724538,"L"
161354,"302 KERH BOULEVARD","VICTORIA","TX",77904,NA,NA,354,"302 KERH BOULEVARD, VICTORIA, TX, 77904","No_Match",NA,NA,NA,NA
161355,"302 KERMODI ST","BOZEMAN","MT",59715,45.660083296,-110.984369155,355,"302 KERMODI ST, BOZEMAN, MT, 59715","Match","Non_Exact","302 KERMODI, BOZEMAN, MT, 59715",615078519,"L"
161356,"302 KING STREET SUITE 103","ATLANTA","GA",30312,33.74675225,-84.382676547,356,"302 KING STREET SUITE 103, ATLANTA, GA, 30312","Match","Exact","302 KING ST, ATLANTA, GA, 30312",624273696,"L"
161357,"302 KLEINPETER DRIVE","THIBODAUZ","LA",70301,29.773439873,-90.781552001,357,"302 KLEINPETER DRIVE, THIBODAUZ, LA, 70301","Match","Non_Exact","302 KLEINPETER DR, THIBODAUX, LA, 70301",617834395,"R"
161358,"302 LA SALLE AVE","HAMPTON","VA",23661,37.0122898540001,-76.3601063199999,358,"302 LA SALLE AVE, HAMPTON, VA, 23661","Match","Non_Exact","302 LASALLE AVE, HAMPTON, VA, 23661",103805892,"R"
161359,"302 LADYFERN WAY","GARLAND","TX",75040,32.952156507,-96.624967106,359,"302 LADYFERN WAY, GARLAND, TX, 75040","Match","Exact","302 LADYFERN WAY, GARLAND, TX, 75040",624059956,"R"
161360,"302 LAKEVIEW DR","LAKEHILLS","TX",78063,29.629322202,-98.930628046,360,"302 LAKEVIEW DR, LAKEHILLS, TX, 78063","Match","Non_Exact","302 LAKE VIEW DR, LAKEHILLS, TX, 78063",102724392,"L"
161361,"302 LAUREL ROAD E 636","LAUREL","FL",34272,NA,NA,361,"302 LAUREL ROAD E 636, LAUREL, FL, 34272","No_Match",NA,NA,NA,NA
161362,"302 LIBERTY RD NE","ROANOKE","VA",24012,37.2968396270001,-79.9344676489999,362,"302 LIBERTY RD NE, ROANOKE, VA, 24012","Match","Exact","302 LIBERTY RD NE, ROANOKE, VA, 24012",62905506,"L"
161363,"302 LISMORE TERRACE","WOODSTOCK","GA",30189,34.1320896840001,-84.591701622,363,"302 LISMORE TERRACE, WOODSTOCK, GA, 30189","Match","Exact","302 LISMORE TER, WOODSTOCK, GA, 30189",68842645,"R"
161364,"302 LONG TRAIL TER","ROCKVILLE","MD",20850,39.0923004860001,-77.18631313,364,"302 LONG TRAIL TER, ROCKVILLE, MD, 20850","Match","Exact","302 LONG TRAIL TER, ROCKVILLE, MD, 20850",617450276,"L"
161365,"302 LOOP ROAD NORTH","KANNAPOLOS","NC",28081,35.505697931,-80.621658152,365,"302 LOOP ROAD NORTH, KANNAPOLOS, NC, 28081","Match","Non_Exact","302 LOOP RD N, KANNAPOLIS, NC, 28081",25272353,"R"
161366,"302 LORI DRIVE","HARRISBURG","PA",17112,40.3173060880001,-76.778312876,366,"302 LORI DRIVE, HARRISBURG, PA, 17112","Match","Exact","302 LORI DR, HARRISBURG, PA, 17112",70832504,"R"
161367,"302 LUELLA PLACE NE","STEWARTVILLE","MN",55976,43.872313745,-92.483771513,367,"302 LUELLA PLACE NE, STEWARTVILLE, MN, 55976","Match","Exact","302 LUELLA PL NE, STEWARTVILLE, MN, 55976",632549054,"R"
161368,"302 MAIN STREET","ZORTMAN","MT",59546,NA,NA,368,"302 MAIN STREET, ZORTMAN, MT, 59546","No_Match",NA,NA,NA,NA
161369,"302 MARCH LANE","MORGANTOWN","WV",26508,39.6409687080001,-79.8779407759999,369,"302 MARCH LANE, MORGANTOWN, WV, 26508","Match","Exact","302 MARCH LN, MORGANTOWN, WV, 26508",630261118,"R"
161370,"302 MARTIN LUTHER KING DR","BUNKIE","LA",71322,NA,NA,370,"302 MARTIN LUTHER KING DR, BUNKIE, LA, 71322","No_Match",NA,NA,NA,NA
161371,"302 MASHELL AVENUE NORTH","EATONVILLE","WA",98328,46.8704708340001,-122.266730656,371,"302 MASHELL AVENUE NORTH, EATONVILLE, WA, 98328","Match","Exact","302 MASHELL AVE N, EATONVILLE, WA, 98328",184760421,"L"
161372,"302 MAYFLOWER DR","LAURENS","SC",29360,34.5531843140001,-81.951599148,372,"302 MAYFLOWER DR, LAURENS, SC, 29360","Match","Exact","302 MAYFLOWER DR, LAURENS, SC, 29360",44447294,"L"
161373,"302 MCCLURE STREET","RED BOILING SPRINGS","TN",37150,36.534076316,-85.854270674,373,"302 MCCLURE STREET, RED BOILING SPRINGS, TN, 37150","Match","Exact","302 MCCLURE ST, RED BOILING SPRINGS, TN, 37150",646394418,"R"
161374,"302 MICHELANGELO WAY","CARY","NC",27518,35.7264389380001,-78.802926406,374,"302 MICHELANGELO WAY, CARY, NC, 27518","Match","Exact","302 MICHELANGELO WAY, CARY, NC, 27518",637587494,"R"
161375,"302 MIDWEST CLUB PKWY","OAK BROOK","IL",60523,41.8300256380001,-87.981539093,375,"302 MIDWEST CLUB PKWY, OAK BROOK, IL, 60523","Match","Exact","302 MIDWEST CLUB PKWY, OAK BROOK, IL, 60523",112547439,"R"
161376,"302 MILL STREET","IONIA","MI",48846,42.980397247,-85.0519460149999,376,"302 MILL STREET, IONIA, MI, 48846","Match","Exact","302 MILL ST, IONIA, MI, 48846",12146112,"R"
161377,"302 MINUS STREET","GREENVILLE","SC",29601,34.836999027,-82.421157637,377,"302 MINUS STREET, GREENVILLE, SC, 29601","Match","Exact","302 MINUS ST, GREENVILLE, SC, 29601",38300125,"R"
161378,"302 MOONLIGHT BAY DR","PANAMA CITY BEACH","FL",32407,30.2279876870001,-85.8432256249999,378,"302 MOONLIGHT BAY DR, PANAMA CITY BEACH, FL, 32407","Match","Exact","302 MOONLIGHT BAY DR, PANAMA CITY BEACH, FL, 32407",7058670,"R"
161379,"302 MOORE STREET","FAYETTEVILLE","NC",28301,35.0607006590001,-78.8802793999999,379,"302 MOORE STREET, FAYETTEVILLE, NC, 28301","Match","Exact","302 MOORE ST, FAYETTEVILLE, NC, 28301",64201696,"R"
161380,"302 MORRILL HALL","LINCOLN","NE",68508,NA,NA,380,"302 MORRILL HALL, LINCOLN, NE, 68508","No_Match",NA,NA,NA,NA
161381,"302 N 15 ST","KERKHOVEN","MN",56252,NA,NA,381,"302 N 15 ST, KERKHOVEN, MN, 56252","Tie",NA,NA,NA,NA
161382,"302 N 15TH STREET","KERKHOVEN","MN",56271,NA,NA,382,"302 N 15TH STREET, KERKHOVEN, MN, 56271","Tie",NA,NA,NA,NA
161383,"302 N 2ND ST","BRIDGEWATER","VA",22812,38.3825274230001,-78.971074444,383,"302 N 2ND ST, BRIDGEWATER, VA, 22812","Match","Exact","302 N 2ND ST, BRIDGEWATER, VA, 22812",638679006,"R"
161384,"302 N BOULEVARD AVENUE","VICKSBURG","MI",49097,42.1244296680001,-85.539766202,384,"302 N BOULEVARD AVENUE, VICKSBURG, MI, 49097","Match","Non_Exact","302 N BOULEVARD ST, VICKSBURG, MI, 49097",12243537,"R"
161385,"302 N BURLINGTON AVE","HENSEL","ND",58241,48.689149833,-97.668194482,385,"302 N BURLINGTON AVE, HENSEL, ND, 58241","Match","Exact","302 BURLINGTON AVE, HENSEL, ND, 58241",196157284,"L"
161386,"302 N CALDWELL STREET","PARIS","TN",38242,36.3036937460001,-88.328361054,386,"302 N CALDWELL STREET, PARIS, TN, 38242","Match","Exact","302 N CALDWELL ST, PARIS, TN, 38242",19672089,"L"
161387,"302 N CHICAGO ST","JOLIET","IL",60432,41.5298471070001,-88.081690924,387,"302 N CHICAGO ST, JOLIET, IL, 60432","Match","Exact","302 N CHICAGO ST, JOLIET, IL, 60432",111541572,"R"
161388,"302 N DEFIANCE ST","ARCHBOLD","OH",43502,41.5237081880001,-84.3063075919999,388,"302 N DEFIANCE ST, ARCHBOLD, OH, 43502","Match","Exact","302 N DEFIANCE ST, ARCHBOLD, OH, 43502",32837210,"R"
161389,"302 N FM 1660","HUTTO","TX",78634,30.5452296890001,-97.546037795,389,"302 N FM 1660, HUTTO, TX, 78634","Match","Exact","302 FM 1660, HUTTO, TX, 78634",126425979,"R"
161390,"302 N GONZALES ST","CUERO","TX",77954,29.0916615030001,-97.289415037,390,"302 N GONZALES ST, CUERO, TX, 77954","Match","Exact","302 N GONZALES ST, CUERO, TX, 77954",44115645,"L"
161391,"302 N HAWTHORNE ROAD","WINSTONSALEM","NC",27104,36.100906702,-80.2666504429999,391,"302 N HAWTHORNE ROAD, WINSTONSALEM, NC, 27104","Match","Non_Exact","302 HAWTHORNE RD N, WINSTON SALEM, NC, 27104",636641247,"L"
161392,"302 N LAMPASAS STREET","ROUND ROCK","TX",78664,30.510760458,-97.678460488,392,"302 N LAMPASAS STREET, ROUND ROCK, TX, 78664","Match","Exact","302 N LAMPASAS ST, ROUND ROCK, TX, 78664",126423587,"L"
161393,"302 N MARKET BOX 125","LEWISVILLE","IN",47352,39.8079907050001,-85.354542114,393,"302 N MARKET BOX 125, LEWISVILLE, IN, 47352","Match","Non_Exact","302 MARKET ST, LEWISVILLE, IN, 47352",29991836,"R"
161394,"302 N PECAN ST","BELLS","TX",75414,33.611978074,-96.410326863,394,"302 N PECAN ST, BELLS, TX, 75414","Match","Exact","302 N PECAN ST, BELLS, TX, 75414",634112753,"R"
161395,"302 N PLEASANT HILL AVENUE","NEW HAMPTON","IA",50659,43.0622807240001,-92.308682913,395,"302 N PLEASANT HILL AVENUE, NEW HAMPTON, IA, 50659","Match","Exact","302 N PLEASANT HILL AVE, NEW HAMPTON, IA, 50659",9741572,"L"
161396,"302 N ROBERTS","HELENA","MT",59620,NA,NA,396,"302 N ROBERTS, HELENA, MT, 59620","No_Match",NA,NA,NA,NA
161397,"302 N TAMARIND AVENUE  216","COMPTON","CA",90220,NA,NA,397,"302 N TAMARIND AVENUE  216, COMPTON, CA, 90220","Tie",NA,NA,NA,NA
161398,"302 N WASHINGTON ST","BONDUEL","WI",54107,44.7431945110001,-88.4404891309999,398,"302 N WASHINGTON ST, BONDUEL, WI, 54107","Match","Exact","302 WASHINGTON ST, BONDUEL, WI, 54107",126868018,"R"
161399,"302 NEWMAN STREET","EAST TAWAS","MI",49730,44.2818648420001,-83.491062405,399,"302 NEWMAN STREET, EAST TAWAS, MI, 49730","Match","Non_Exact","302 NEWMAN ST, EAST TAWAS, MI, 48730",161304947,"R"
161400,"302 NO 14TH ST","KERKHOVE","MN",56252,NA,NA,400,"302 NO 14TH ST, KERKHOVE, MN, 56252","Tie",NA,NA,NA,NA
161401,"302 NO 15TH ST","KERKHOVEN","MN",56252,45.191180952,-95.324317112,401,"302 NO 15TH ST, KERKHOVEN, MN, 56252","Match","Exact","302 15TH ST, KERKHOVEN, MN, 56252",648777314,"L"
161402,"302 NORTH 17TH STREET","ALLENTOWN","PA",18104,40.6009191250001,-75.4942967169999,402,"302 NORTH 17TH STREET, ALLENTOWN, PA, 18104","Match","Exact","302 N 17TH ST, ALLENTOWN, PA, 18104",80767090,"L"
161403,"302 NORTH BROAD STREET","MONROE","GA",60655,33.797612616,-83.713790213,403,"302 NORTH BROAD STREET, MONROE, GA, 60655","Match","Non_Exact","302 N BROAD ST, MONROE, GA, 30655",77614559,"R"
161404,"302 NORTH CHARLTON STREET","WOODVILLE","TX",75979,30.7764553170001,-94.416083314,404,"302 NORTH CHARLTON STREET, WOODVILLE, TX, 75979","Match","Exact","302 N CHARLTON ST, WOODVILLE, TX, 75979",652393326,"R"
161405,"302 NORTH CHERRY STREET","HAMBURG","AR",71646,33.2270806990001,-91.794979913,405,"302 NORTH CHERRY STREET, HAMBURG, AR, 71646","Match","Exact","302 N CHERRY ST, HAMBURG, AR, 71646",31447053,"R"
161406,"302 NORTH COTTONWOOD ST","WINTHROP","MN",55396,NA,NA,406,"302 NORTH COTTONWOOD ST, WINTHROP, MN, 55396","No_Match",NA,NA,NA,NA
161407,"302 NORTH COURT ST","FLORENCE","AL",35630,34.802023676,-87.6770915769999,407,"302 NORTH COURT ST, FLORENCE, AL, 35630","Match","Exact","302 N COURT ST, FLORENCE, AL, 35630",41321460,"R"
161408,"302 NORTH LITTLE STREET","WALTHILL","NE",68067,42.1504071480001,-96.49388921,408,"302 NORTH LITTLE STREET, WALTHILL, NE, 68067","Match","Exact","302 N LITTLE ST, WALTHILL, NE, 68067",193834521,"R"
161409,"302 NOTTINGHAM RD","LITTLEROCK","AR",72205,34.7495678610001,-92.346433872,409,"302 NOTTINGHAM RD, LITTLEROCK, AR, 72205","Match","Non_Exact","302 NOTTINGHAM RD, LITTLE ROCK, AR, 72205",83504683,"L"
161410,"302 NW 100 TERRACE","MIAMI","FL",33150,25.867175983,-80.203942002,410,"302 NW 100 TERRACE, MIAMI, FL, 33150","Match","Non_Exact","302 NW 100TH TER, MIAMI, FL, 33150",116003297,"L"
161411,"302 OLD FORD RD","SALE CREEK","TN",37373,35.3854031120001,-85.114233031,411,"302 OLD FORD RD, SALE CREEK, TN, 37373","Match","Exact","302 OLD FORD RD, SALE CREEK, TN, 37373",627513643,"L"
161412,"302 ONSET AVE","ONSET","MA",2558,41.7489838970001,-70.6668288069999,412,"302 ONSET AVE, ONSET, MA, 2558","Match","Exact","302 ONSET AVE, ONSET, MA, 02558",87456653,"L"
161413,"302 OTERO AVENUE","ORDWAY","CO",81063,38.2177718180001,-103.760604142,413,"302 OTERO AVENUE, ORDWAY, CO, 81063","Match","Exact","302 OTERO AVE, ORDWAY, CO, 81063",105397460,"L"
161414,"302 PARKVILLE AVENUE","BROOKLYN","NY",11230,40.632189688,-73.9687053329999,414,"302 PARKVILLE AVENUE, BROOKLYN, NY, 11230","Match","Exact","302 PARKVILLE AVE, BROOKLYN, NY, 11230",59096583,"L"
161415,"302 PARKWAY DRIVE","TRUSSVILLE","AL",35173,33.6279622690001,-86.605774353,415,"302 PARKWAY DRIVE, TRUSSVILLE, AL, 35173","Match","Exact","302 PARKWAY DR, TRUSSVILLE, AL, 35173",81757635,"R"
161416,"302 PEARL STREET","COLUMBIA","LA",71418,32.105075775,-92.073247817,416,"302 PEARL STREET, COLUMBIA, LA, 71418","Match","Exact","302 PEARL ST, COLUMBIA, LA, 71418",118939823,"R"
161417,"302 PLANTATION DR","CLARKSVILLE","TN",37042,36.561091124,-87.387316004,417,"302 PLANTATION DR, CLARKSVILLE, TN, 37042","Match","Exact","302 PLANTATION DR, CLARKSVILLE, TN, 37042",31824993,"R"
161418,"302 POWELL ROAD","WYNNEWOOD","PA",19096,40.010850944,-75.278708711,418,"302 POWELL ROAD, WYNNEWOOD, PA, 19096","Match","Exact","302 POWELL RD, WYNNEWOOD, PA, 19096",135087505,"R"
161419,"302 QUAIL RUN RD","RED OAK","TX",75154,32.5234134520001,-96.800244279,419,"302 QUAIL RUN RD, RED OAK, TX, 75154","Match","Exact","302 QUAIL RUN RD, RED OAK, TX, 75154",616175874,"L"
161420,"302 RANDALL STREET","GREENVILLE","SC",29609,34.866069639,-82.401277862,420,"302 RANDALL STREET, GREENVILLE, SC, 29609","Match","Exact","302 RANDALL ST, GREENVILLE, SC, 29609",38300710,"R"
161421,"302 RANDOLPH ST","EDGERTON","WI",53534,42.839411844,-89.070952141,421,"302 RANDOLPH ST, EDGERTON, WI, 53534","Match","Exact","302 RANDOLPH ST, EDGERTON, WI, 53534",49844952,"L"
161422,"302 RAYMOND DRIVE","MONROE","LA",71203,32.5716738610001,-92.0426753689999,422,"302 RAYMOND DRIVE, MONROE, LA, 71203","Match","Exact","302 RAYMOND DR, MONROE, LA, 71203",642337340,"R"
161423,"302 RED PINE DR","ALPINE","UT",84004,40.4482060240001,-111.772107964,423,"302 RED PINE DR, ALPINE, UT, 84004","Match","Exact","302 RED PINE DR, ALPINE, UT, 84004",227055361,"L"
161424,"302 RILEY AVE","LOCKPORT","IL",60441,41.5595719250001,-88.065034843,424,"302 RILEY AVE, LOCKPORT, IL, 60441","Match","Exact","302 RILEY AVE, LOCKPORT, IL, 60441",111545692,"R"
161425,"302 ROANOKE ST","CHRISTIANSBURG","VA",24073,37.1301767200001,-80.4015101109999,425,"302 ROANOKE ST, CHRISTIANSBURG, VA, 24073","Match","Exact","302 ROANOKE ST, CHRISTIANSBURG, VA, 24073",73617287,"L"
161426,"302 ROYAL SUNSET DRIVE","DALLAS","GA",30157,34.0130993940001,-84.747931197,426,"302 ROYAL SUNSET DRIVE, DALLAS, GA, 30157","Match","Exact","302 ROYAL SUNSET DR, DALLAS, GA, 30157",618922028,"R"
161427,"302 RT 46 EAST","FAIRFIELD","NJ",7004,NA,NA,427,"302 RT 46 EAST, FAIRFIELD, NJ, 7004","No_Match",NA,NA,NA,NA
161428,"302 S 35TH ST","TACOMA","WA",98418,47.2290809460001,-122.434850644,428,"302 S 35TH ST, TACOMA, WA, 98418","Match","Exact","302 S 35TH ST, TACOMA, WA, 98418",184625966,"L"
161429,"302 S 7TH STREET","FERNANDINA BEACH","FL",32034,30.666890795,-81.460216252,429,"302 S 7TH STREET, FERNANDINA BEACH, FL, 32034","Match","Exact","302 S 7TH ST, FERNANDINA BCH, FL, 32034",84105285,"R"
161430,"302 S BROADWAY AVE","TYLER","TX",75702,32.3481319840001,-95.3005610709999,430,"302 S BROADWAY AVE, TYLER, TX, 75702","Match","Exact","302 BROADWAY AVE, TYLER, TX, 75702",141339723,"R"
161431,"302 S GREENE STREET","GREENVILLE","NC",27834,35.6134679840001,-77.374631452,431,"302 S GREENE STREET, GREENVILLE, NC, 27834","Match","Exact","302 S GREENE ST, GREENVILLE, NC, 27834",80011311,"L"
161432,"302 S HASTINGS ST","LA PLATA","MO",63549,40.019959299,-92.4980134479999,432,"302 S HASTINGS ST, LA PLATA, MO, 63549","Match","Exact","302 S HASTINGS ST, LA PLATA, MO, 63549",24974164,"R"
161433,"302 S MAIN ST PO BOX","GAINESBORO","TN",38562,36.3566178950001,-85.658585488,433,"302 S MAIN ST PO BOX, GAINESBORO, TN, 38562","Match","Non_Exact","302 N MAIN ST, GAINESBORO, TN, 38562",25102304,"R"
161434,"302 S MILLIKEN AVE SUITE E2","ONTARIO","CA",91761,34.0606730480001,-117.558295122,434,"302 S MILLIKEN AVE SUITE E2, ONTARIO, CA, 91761","Match","Non_Exact","302 S MILLIKEN AVE, ONTARIO, CA, 91761",144735002,"R"
161435,"302 S PUBLIC STREET","CENTER","MO",63436,39.5075161400001,-91.529125349,435,"302 S PUBLIC STREET, CENTER, MO, 63436","Match","Exact","302 S PUBLIC ST, CENTER, MO, 63436",37997331,"L"
161436,"302 SALMON ST EAST","HAGERMAN","ID",83332,42.8155408580001,-114.895231978,436,"302 SALMON ST EAST, HAGERMAN, ID, 83332","Match","Exact","302 SALMON ST E, HAGERMAN, ID, 83332",118501654,"L"
161437,"302 SAN BERNARDINO ST","LOS BANOS","CA",93635,37.0715537300001,-120.830457323,437,"302 SAN BERNARDINO ST, LOS BANOS, CA, 93635","Match","Exact","302 SAN BERNARDINO ST, LOS BANOS, CA, 93635",125325034,"R"
161438,"302 SANDRA LANE","BELTON","MO",64012,38.819940698,-94.552622012,438,"302 SANDRA LANE, BELTON, MO, 64012","Match","Exact","302 SANDRA LN, BELTON, MO, 64012",100928055,"R"
161439,"302 SANDSTONE CIRCLE","BRIDGEWATER","VA",22812,38.3934282710001,-78.971265524,439,"302 SANDSTONE CIRCLE, BRIDGEWATER, VA, 22812","Match","Exact","302 SANDSTONE CIR, BRIDGEWATER, VA, 22812",55731442,"L"
161440,"302 SATELLITE BLVD  C-230","SUWANEE","GA",30024,34.0312690050001,-84.06678814,440,"302 SATELLITE BLVD  C-230, SUWANEE, GA, 30024","Match","Exact","302 SATELLITE BLVD, SUWANEE, GA, 30024",647928292,"R"
161441,"302 SATELLITE BLVD SUITE 121","SUWANEE","GA",30024,34.0312690050001,-84.06678814,441,"302 SATELLITE BLVD SUITE 121, SUWANEE, GA, 30024","Match","Exact","302 SATELLITE BLVD, SUWANEE, GA, 30024",647928292,"R"
161442,"302 SE C AVE","GILMORE CITY","IA",50541,42.729188992,-94.4401499259999,442,"302 SE C AVE, GILMORE CITY, IA, 50541","Match","Exact","302 SE C AVE, GILMORE CITY, IA, 50541",97026578,"L"
161443,"302 SE HUNTINGTON CIRCLE","PORT ST LUCIE","FL",34984,27.212100594,-80.31932332,443,"302 SE HUNTINGTON CIRCLE, PORT ST LUCIE, FL, 34984","Match","Exact","302 SE HUNTINGTON CIR, PORT ST LUCIE, FL, 34984",649661834,"R"
161444,"302 SE OSAGE AVE","BARTLESVILLE","OK",74003,36.750751377,-95.97464075,444,"302 SE OSAGE AVE, BARTLESVILLE, OK, 74003","Match","Non_Exact","302 S OSAGE AVE, BARTLESVILLE, OK, 74003",18706607,"R"
161445,"302 SEASHELL CT","KISSIMMEE","FL",34743,28.3458931440001,-81.369871043,445,"302 SEASHELL CT, KISSIMMEE, FL, 34743","Match","Exact","302 SEASHELL CT, KISSIMMEE, FL, 34743",176677944,"L"
161446,"302 SENATE STREET","COLUMBIA","SC",29201,33.9954795790001,-81.0473157769999,446,"302 SENATE STREET, COLUMBIA, SC, 29201","Match","Exact","302 SENATE ST, COLUMBIA, SC, 29201",71827479,"R"
161447,"302 SHERRI LANE","CARL JUNCTION","MO",64834,37.1599295290001,-94.5248639449999,447,"302 SHERRI LANE, CARL JUNCTION, MO, 64834","Match","Exact","302 SHERRI LN, CARL JUNCTION, MO, 64834",66157646,"L"
161448,"302 SMOKERISE BLVD","LONGWOOD","FL",32779,28.702740485,-81.4424369019999,448,"302 SMOKERISE BLVD, LONGWOOD, FL, 32779","Match","Exact","302 SMOKERISE BLVD, LONGWOOD, FL, 32779",605417164,"R"
161449,"302 SOUTH 7TH ST","FAIRFIELD","IA",52556,41.0040809390001,-91.972589969,449,"302 SOUTH 7TH ST, FAIRFIELD, IA, 52556","Match","Exact","302 S 7TH ST, FAIRFIELD, IA, 52556",648979193,"L"
161450,"302 SPRADLEY DRIVE","TROY","AL",36079,31.7721569490001,-85.963734936,450,"302 SPRADLEY DRIVE, TROY, AL, 36079","Match","Exact","302 SPRADLEY DR, TROY, AL, 36079",69214456,"R"
161451,"302 SPRINGBROOK TRAIL","SMYRNA","GA",30082,33.8672207000001,-84.545082008,451,"302 SPRINGBROOK TRAIL, SMYRNA, GA, 30082","Match","Exact","302 SPRINGBROOK TRL, SMYRNA, GA, 30082",17187555,"L"
161452,"302 SPYGLASS DR","COPPELL","TX",75019,32.9750666420001,-96.964349509,452,"302 SPYGLASS DR, COPPELL, TX, 75019","Match","Exact","302 SPYGLASS DR, COPPELL, TX, 75019",102993029,"L"
161453,"302 STATE ROUTE 348 E","SYMSONIA","KY",42082,36.9176304280001,-88.513683374,453,"302 STATE ROUTE 348 E, SYMSONIA, KY, 42082","Match","Exact","302 STATE RTE 348 E, SYMSONIA, KY, 42082",27877272,"R"
161454,"302 SUNRISE RIDGE RD","FRIDAY HARBOR","WA",98250,48.586847177,-123.101531097,454,"302 SUNRISE RIDGE RD, FRIDAY HARBOR, WA, 98250","Match","Exact","302 SUNRISE RIDGE RD, FRIDAY HARBOR, WA, 98250",152179676,"L"
161455,"302 SW HAYES AVENUE","BEND","OR",97702,NA,NA,455,"302 SW HAYES AVENUE, BEND, OR, 97702","No_Match",NA,NA,NA,NA
161456,"302 TAURUS DRIVE","FORT WASHINGTON","MD",20744,38.734475311,-77.000386555,456,"302 TAURUS DRIVE, FORT WASHINGTON, MD, 20744","Match","Exact","302 TAURUS DR, FT WASHINGTON, MD, 20744",76331961,"L"
161457,"302 TERRACE TRAIL WEST","LAKE QUIVIRA","KS",66217,39.0367174830001,-94.775858284,457,"302 TERRACE TRAIL WEST, LAKE QUIVIRA, KS, 66217","Match","Exact","302 TERRACE TRL W, LAKE QUIVIRA, KS, 66217",91326812,"R"
161458,"302 THAMES AVE","LILLIINGTON","NC",27546,35.410145018,-78.852499784,458,"302 THAMES AVE, LILLIINGTON, NC, 27546","Match","Non_Exact","302 THAMES AVE, LILLINGTON, NC, 27546",71997633,"L"
161459,"302 THIRD STREET","EASTLAKE","MI",49626,44.2442172820001,-86.294505135,459,"302 THIRD STREET, EASTLAKE, MI, 49626","Match","Exact","302 3RD ST, EASTLAKE, MI, 49626",146023051,"L"
161460,"302 TOYON RD STE 119","SAN JOSE","CA",95127,37.3824038810001,-121.827229706,460,"302 TOYON RD STE 119, SAN JOSE, CA, 95127","Match","Non_Exact","302 TOYON AVE, SAN JOSE, CA, 95127",618191552,"R"
161461,"302 TURNIPSEED ROAD","WENDELL","NC",27591,35.737060495,-78.397658397,461,"302 TURNIPSEED ROAD, WENDELL, NC, 27591","Match","Exact","302 TURNIPSEED RD, WENDELL, NC, 27591",26537549,"L"
161462,"302 VERLIN DRIVE","GREENVILLE","SC",29607,34.8295065990001,-82.336614664,462,"302 VERLIN DRIVE, GREENVILLE, SC, 29607","Match","Exact","302 VERLIN DR, GREENVILLE, SC, 29607",646629411,"R"
161463,"302 VICTORY LANE","CRESTVIEW","FL",32539,30.759720515,-86.557117083,463,"302 VICTORY LANE, CRESTVIEW, FL, 32539","Match","Exact","302 VICTORY LN, CRESTVIEW, FL, 32539",74402110,"L"
161464,"302 VILLAGE PLACE","PITTSBURGH","PA",15090,40.6344537270001,-80.054641781,464,"302 VILLAGE PLACE, PITTSBURGH, PA, 15090","Match","Non_Exact","302 VILLAGE PL, WEXFORD, PA, 15090",629838045,"R"
161465,"302 W 1ST ST","TESCOTT","KS",67484,NA,NA,465,"302 W 1ST ST, TESCOTT, KS, 67484","Tie",NA,NA,NA,NA
161466,"302 W 4TH ST","TATUM","NM",88267,33.2526031740001,-103.321925438,466,"302 W 4TH ST, TATUM, NM, 88267","Match","Exact","302 W 4TH ST, TATUM, NM, 88267",132051645,"L"
161467,"302 W 5TH ST STE 102 RM 2","SAN PEDRO","CA",90731,33.7396563770001,-118.283640446,467,"302 W 5TH ST STE 102 RM 2, SAN PEDRO, CA, 90731","Match","Non_Exact","302 W 5TH ST, SAN PEDRO, CA, 90731",141690877,"R"
161468,"302 W 6TH STREET","JASPER","IN",47546,38.3914304200001,-86.932854759,468,"302 W 6TH STREET, JASPER, IN, 47546","Match","Exact","302 W 6TH ST, JASPER, IN, 47546",7870864,"R"
161469,"302 W BOSCAWEN STREET","WINCHESTER","VA",22601,39.185172009,-78.1703981759999,469,"302 W BOSCAWEN STREET, WINCHESTER, VA, 22601","Match","Exact","302 W BOSCAWEN ST, WINCHESTER, VA, 22601",647382705,"R"
161470,"302 W BRAZOSWOOD DR","CLUTE","TX",77531,29.0283575820001,-95.409096907,470,"302 W BRAZOSWOOD DR, CLUTE, TX, 77531","Match","Exact","302 BRAZOSWOOD DR, CLUTE, TX, 77531",648900657,"L"
161471,"302 W BUFFALO ST","ITHACA","NY",14850,42.441228548,-76.5020584649999,471,"302 W BUFFALO ST, ITHACA, NY, 14850","Match","Exact","302 W BUFFALO ST, ITHACA, NY, 14850",18855366,"L"
161472,"302 W COTTON ST","LONGVIEW","TX",75601,32.495096845,-94.743931629,472,"302 W COTTON ST, LONGVIEW, TX, 75601","Match","Exact","302 W COTTON ST, LONGVIEW, TX, 75601",141128286,"L"
161473,"302 W GROVE ST","PONTIAC","IL",64764,40.8764341290001,-88.630954453,473,"302 W GROVE ST, PONTIAC, IL, 64764","Match","Non_Exact","302 W GROVE ST, PONTIAC, IL, 61764",22373012,"R"
161474,"302 W HASTINGS RD","SPOKANE","WA",99208,47.769128472,-117.416610137,474,"302 W HASTINGS RD, SPOKANE, WA, 99208","Match","Non_Exact","302 W HASTINGS RD, SPOKANE, WA, 99218",630036855,"R"
161475,"302 W JACKSON SUITE E","BOLIVAR","MO",65613,NA,NA,475,"302 W JACKSON SUITE E, BOLIVAR, MO, 65613","No_Match",NA,NA,NA,NA
161476,"302 W KENNEDY BLVD","TAMPA","FL",33606,27.9457529700001,-82.4633185719999,476,"302 W KENNEDY BLVD, TAMPA, FL, 33606","Match","Exact","302 W KENNEDY BLVD, TAMPA, FL, 33606",104530115,"L"
161477,"302 W LEE AVE","WEATHERFORD","TX",76086,32.7546991410001,-97.8007472099999,477,"302 W LEE AVE, WEATHERFORD, TX, 76086","Match","Exact","302 W LEE AVE, WEATHERFORD, TX, 76086",103576159,"R"
161478,"302 W MAIN ST","MONTPELIER","OH",43543,41.586463936,-84.610140423,478,"302 W MAIN ST, MONTPELIER, OH, 43543","Match","Exact","302 W MAIN ST, MONTPELIER, OH, 43543",625003909,"R"
161479,"302 W MEYERS AVENUE /PO BOX 26","HOLYROOD","KS",67450,38.5907938240001,-98.414576956,479,"302 W MEYERS AVENUE /PO BOX 26, HOLYROOD, KS, 67450","Match","Exact","302 MEYERS AVE, HOLYROOD, KS, 67450",132879264,"R"
161480,"302 W MONROE ST","ALEXANDRIA","IN",46001,40.267683683,-85.677783172,480,"302 W MONROE ST, ALEXANDRIA, IN, 46001","Match","Exact","302 W MONROE ST, ALEXANDRIA, IN, 46001",647360284,"L"
161481,"302 W MOWRY ST","CHESTER","PA",19013,39.8613016910001,-75.373425405,481,"302 W MOWRY ST, CHESTER, PA, 19013","Match","Exact","302 W MOWRY ST, CHESTER, PA, 19013",134871657,"R"
161482,"302 W OLD COUNTRY RD","HICKSVILLE","NY",11801,40.7679380490001,-73.506462181,482,"302 W OLD COUNTRY RD, HICKSVILLE, NY, 11801","Match","Non_Exact","302 E OLD COUNTRY RD, HICKSVILLE, NY, 11801",147641686,"L"
161483,"302 W RAILROAD ST","CLAXTON","GA",30417,32.160914876,-81.9104244339999,483,"302 W RAILROAD ST, CLAXTON, GA, 30417","Match","Exact","302 W RAILROAD ST, CLAXTON, GA, 30417",6299358,"L"
161484,"302 W ROBERTSON STREET","BRANDON","FL",33511,27.9358016210001,-82.2885471439999,484,"302 W ROBERTSON STREET, BRANDON, FL, 33511","Match","Exact","302 W ROBERTSON ST, BRANDON, FL, 33511",104644623,"R"
161485,"302 W VAN BUREN","GOULD","AR",71643,33.98151412,-91.5635734379999,485,"302 W VAN BUREN, GOULD, AR, 71643","Match","Non_Exact","302 W VAN BUREN AVE, GOULD, AR, 71643",2646131,"L"
161486,"302 WASHINGTON ST 512","SAN DIEGO","CA",92103,32.749919495,-117.162702705,486,"302 WASHINGTON ST 512, SAN DIEGO, CA, 92103","Match","Exact","302 WASHINGTON ST, SAN DIEGO, CA, 92103",612865322,"L"
161487,"302 WASHINGTON ST NUM 404","SAN DIEGO","CA",92103,32.749919495,-117.162702705,487,"302 WASHINGTON ST NUM 404, SAN DIEGO, CA, 92103","Match","Exact","302 WASHINGTON ST, SAN DIEGO, CA, 92103",612865322,"L"
161488,"302 WASHINGTON STREET SUITE 133","SAN DIEGO","CA",92103,32.749919495,-117.162702705,488,"302 WASHINGTON STREET SUITE 133, SAN DIEGO, CA, 92103","Match","Exact","302 WASHINGTON ST, SAN DIEGO, CA, 92103",612865322,"L"
161489,"302 WASHINGTON STREET SUITE 306","SAN DIEGO","CA",92103,32.749919495,-117.162702705,489,"302 WASHINGTON STREET SUITE 306, SAN DIEGO, CA, 92103","Match","Exact","302 WASHINGTON ST, SAN DIEGO, CA, 92103",612865322,"L"
161490,"302 WASHINGTON STREET SUITE 431","SAN DIEGO","CA",92103,32.749919495,-117.162702705,490,"302 WASHINGTON STREET SUITE 431, SAN DIEGO, CA, 92103","Match","Exact","302 WASHINGTON ST, SAN DIEGO, CA, 92103",612865322,"L"
161491,"302 WASHINGTON STREET UNIT 217","SAN DIEGO","CA",92103,32.749919495,-117.162702705,491,"302 WASHINGTON STREET UNIT 217, SAN DIEGO, CA, 92103","Match","Exact","302 WASHINGTON ST, SAN DIEGO, CA, 92103",612865322,"L"
161492,"302 WESSON STREET","COMO","MS",38619,34.513981933,-89.9358555429999,492,"302 WESSON STREET, COMO, MS, 38619","Match","Exact","302 WESSON ST, COMO, MS, 38619",80083015,"R"
161493,"302 WEST BOSCAWEN STREET","WINCHESTER","VA",22601,39.1851717590001,-78.17039708,493,"302 WEST BOSCAWEN STREET, WINCHESTER, VA, 22601","Match","Exact","302 W BOSCAWEN ST, WINCHESTER, VA, 22601",647382705,"R"
161494,"302 WEST HUNTINGTON STREET","MONTPELIER","IN",47359,40.553358018,-85.274274717,494,"302 WEST HUNTINGTON STREET, MONTPELIER, IN, 47359","Match","Non_Exact","302 E HUNTINGTON ST, MONTPELIER, IN, 47359",94930972,"L"
161495,"302 WEST MAIN","RITZVILLE","WA",99169,47.126158558,-118.381662459,495,"302 WEST MAIN, RITZVILLE, WA, 99169","Match","Non_Exact","302 W MAIN AVE, RITZVILLE, WA, 99169",181840520,"R"
161496,"302 WEST NORTH AVENUE","PITTSBURGH","PA",15212,40.454890327,-80.009688248,496,"302 WEST NORTH AVENUE, PITTSBURGH, PA, 15212","Match","Exact","302 W NORTH AVE, PITTSBURGH, PA, 15212",51626667,"R"
161497,"302 WEST ORANGE STREET","GROVELAND","FL",34736,28.5606819240001,-81.857654676,497,"302 WEST ORANGE STREET, GROVELAND, FL, 34736","Match","Non_Exact","302 ORANGE ST, GROVELAND, FL, 34736",94174535,"L"
161498,"302 WEST SCHOOLHOUSE LANE","PHILADELPHIA","PA",19144,40.0289949240001,-75.178207873,498,"302 WEST SCHOOLHOUSE LANE, PHILADELPHIA, PA, 19144","Match","Non_Exact","302 W SCHOOL HOUSE LN, PHILADELPHIA, PA, 19144",131401117,"L"
161499,"302 WEST SUPERIOR STREET","DULUTH","MN",55802,46.783989353,-92.101985263,499,"302 WEST SUPERIOR STREET, DULUTH, MN, 55802","Match","Exact","302 W SUPERIOR ST, DULUTH, MN, 55802",163214526,"L"
161500,"302 WEST WELSH DRIVE","DOUGLASSVILLE","PA",19518,40.268242039,-75.746698565,500,"302 WEST WELSH DRIVE, DOUGLASSVILLE, PA, 19518","Match","Exact","302 W WELSH DR, DOUGLASSVILLE, PA, 19518",80413369,"R"
