"ID","Address","City","State","Zip","lat","long","id","input_address","match_indicator","match_type","matched_address","tiger_line_id","tiger_side"
80001,"1645 STRATHMORE WAY","ROCKLIN","CA",95765,38.817008564,-121.276235908,1,"1645 STRATHMORE WAY, ROCKLIN, CA, 95765","Match","Exact","1645 STRATHMORE WAY, ROCKLIN, CA, 95765",648500060,"L"
80002,"1645 SWIFT RD","FABIUS","NY",13063,42.849018954,-76.022639661,2,"1645 SWIFT RD, FABIUS, NY, 13063","Match","Exact","1645 SWIFT RD, FABIUS, NY, 13063",46557419,"L"
80003,"1645 TREUTLAND PLACE","NASHVILLE","TN",37207,NA,NA,3,"1645 TREUTLAND PLACE, NASHVILLE, TN, 37207","No_Match",NA,NA,NA,NA
80004,"1645 U STREET SE","WASHINGTON","DC",20020,38.8651250660001,-76.981089308,4,"1645 U STREET SE, WASHINGTON, DC, 20020","Match","Exact","1645 U ST SE, WASHINGTON, DC, 20020",76231191,"R"
80005,"1645 W LAUREL ST","SPRINGFIELD","IL",62704,39.782311904,-89.681846239,5,"1645 W LAUREL ST, SPRINGFIELD, IL, 62704","Match","Exact","1645 W LAUREL ST, SPRINGFIELD, IL, 62704",640471725,"R"
80006,"1645 W VALENCIA DR","FULLERTON","CA",92833,33.8665276240001,-117.956893107,6,"1645 W VALENCIA DR, FULLERTON, CA, 92833","Match","Exact","1645 W VALENCIA DR, FULLERTON, CA, 92833",144021727,"R"
80007,"1645 W VALENCIA RD STE 109-433","TUCSON","AZ",85746,32.1338022740001,-111.000872837,7,"1645 W VALENCIA RD STE 109-433, TUCSON, AZ, 85746","Match","Non_Exact","1645 W VALENCIA RD, TUCSON, AZ, 85746",121185284,"L"
80008,"1645 W VALENCIA RD SUITE 109    223","TUCSON","AZ",85746,32.1338022740001,-111.000872837,8,"1645 W VALENCIA RD SUITE 109    223, TUCSON, AZ, 85746","Match","Non_Exact","1645 W VALENCIA RD, TUCSON, AZ, 85746",121185284,"L"
80009,"1645 WEST GREENLEAF APT 1 E","CHICAGO","IL",60626,42.0102513950001,-87.6711042159999,9,"1645 WEST GREENLEAF APT 1 E, CHICAGO, IL, 60626","Match","Non_Exact","1645 W GREENLEAF AVE, CHICAGO, IL, 60626",111745242,"L"
80010,"1645 WEST ST","BRENTWOOD","CA",94513,NA,NA,10,"1645 WEST ST, BRENTWOOD, CA, 94513","No_Match",NA,NA,NA,NA
80011,"1645 WEST STREET","CONCORD","CA",94521,37.9727223450001,-121.996681891,11,"1645 WEST STREET, CONCORD, CA, 94521","Match","Exact","1645 WEST ST, CONCORD, CA, 94521",192092621,"L"
80012,"1645 WILSON AVENUE","CHICAGO HEIGHTS","IL",60411,41.501152936,-87.659471739,12,"1645 WILSON AVENUE, CHICAGO HEIGHTS, IL, 60411","Match","Exact","1645 WILSON AVE, CHICAGO HEIGHTS, IL, 60411",111711252,"L"
80013,"16450 ASPEN MEADOW CT","DUBUQUE","IA",52001,42.5371118520001,-90.719284681,13,"16450 ASPEN MEADOW CT, DUBUQUE, IA, 52001","Match","Exact","16450 ASPEN MEADOW CT, DUBUQUE, IA, 52001",16916054,"L"
80014,"16450 CO RD 73 NE","OSAKIS","MN",56360,45.918366205,-95.15548426,14,"16450 CO RD 73 NE, OSAKIS, MN, 56360","Match","Exact","16450 CO RD 73 NE, OSAKIS, MN, 56360",204653082,"R"
80015,"16450 REEHL PL","ROCA","NE",68430,40.648358886,-96.684432902,15,"16450 REEHL PL, ROCA, NE, 68430","Match","Exact","16450 REEHL PL, ROCA, NE, 68430",645238798,"L"
80016,"16450 VIA ESPRILLO","SAN DIEGO","CA",92127,33.013788822,-117.092477343,16,"16450 VIA ESPRILLO, SAN DIEGO, CA, 92127","Match","Exact","16450 VIA ESPRILLO, SAN DIEGO, CA, 92127",195315905,"L"
80017,"16451 BRINGARD","DETROIT","MI",48205,42.4465675020001,-82.950481167,17,"16451 BRINGARD, DETROIT, MI, 48205","Match","Non_Exact","16451 BRINGARD DR, DETROIT, MI, 48205",95467587,"L"
80018,"16451 STATE HWY B","KIRKSVILLE","MO",63501,40.2491210760001,-92.639207826,18,"16451 STATE HWY B, KIRKSVILLE, MO, 63501","Match","Exact","16451 STATE HWY B, KIRKSVILLE, MO, 63501",607739528,"L"
80019,"16451 WESTMINISTER DR","NORTHVILLE TWN","MI",48168,42.4006267140001,-83.5405544659999,19,"16451 WESTMINISTER DR, NORTHVILLE TWN, MI, 48168","Match","Non_Exact","16451 WESTMINISTER DR, NORTHVILLE, MI, 48168",617695254,"L"
80020,"16452 LORENE DRIVE","VICTORVILLE","CA",92395,34.5135827280001,-117.305057744,20,"16452 LORENE DRIVE, VICTORVILLE, CA, 92395","Match","Exact","16452 LORENE DR, VICTORVILLE, CA, 92395",144571914,"L"
80021,"16453 CLARK RD","PALMER","AK",99645,61.628382715,-149.044970911,21,"16453 CLARK RD, PALMER, AK, 99645","Match","Exact","16453 CLARK RD, PALMER, AK, 99645",191049668,"L"
80022,"16454 CALLAHAN RANCH TRAIL","RENO","NV",89511,NA,NA,22,"16454 CALLAHAN RANCH TRAIL, RENO, NV, 89511","No_Match",NA,NA,NA,NA
80023,"16454 SW 61 WAY","MIAMI","FL",33193,25.707803525,-80.459853513,23,"16454 SW 61 WAY, MIAMI, FL, 33193","Match","Exact","16454 SW 61ST WAY, MIAMI, FL, 33193",628002295,"L"
80024,"16455 20TH STREET SOUTH","LAKE ST CROIX BEACH","MN",55043,44.9201843290001,-92.771853245,24,"16455 20TH STREET SOUTH, LAKE ST CROIX BEACH, MN, 55043","Match","Exact","16455 20TH ST S, LAKE SAINT CROIX BEACH, MN, 55043",97795559,"R"
80025,"16456 OAKBROOK","ROMULUS","MI",48174,42.1844210530001,-83.337078358,25,"16456 OAKBROOK, ROMULUS, MI, 48174","Match","Non_Exact","16456 OAKBROOK ST, ROMULUS, MI, 48174",95454605,"R"
80026,"16457 ANDERSON WAY","NOBLESVILLE","IN",46062,40.027213138,-86.066684085,26,"16457 ANDERSON WAY, NOBLESVILLE, IN, 46062","Match","Exact","16457 ANDERSON WAY, NOBLESVILLE, IN, 46062",649905472,"L"
80027,"16458 BOLSA CHICA ST 162","HUNTINGTON BEACH","CA",92649,33.723241408,-118.041450044,27,"16458 BOLSA CHICA ST 162, HUNTINGTON BEACH, CA, 92649","Match","Exact","16458 BOLSA CHICA ST, HUNTINGTON BEACH, CA, 92649",609059321,"R"
80028,"16458 BOLSA CHICA UNIT 297","HUNTINGTON BEACH","CA",92649,33.723241408,-118.041450044,28,"16458 BOLSA CHICA UNIT 297, HUNTINGTON BEACH, CA, 92649","Match","Non_Exact","16458 BOLSA CHICA ST, HUNTINGTON BEACH, CA, 92649",609059321,"R"
80029,"1646 280TH ST","MADRID","IA",50156,41.950045253,-93.845316815,29,"1646 280TH ST, MADRID, IA, 50156","Match","Exact","1646 280TH ST, MADRID, IA, 50156",645558845,"L"
80030,"1646 ALAMEDA STREET","POMONA","CA",91768,34.077349398,-117.75622386,30,"1646 ALAMEDA STREET, POMONA, CA, 91768","Match","Exact","1646 ALAMEDA ST, POMONA, CA, 91768",141733230,"R"
80031,"1646 BENTON RD","BOSSIER CITY","LA",71111,32.533841812,-93.7202949639999,31,"1646 BENTON RD, BOSSIER CITY, LA, 71111","Match","Exact","1646 BENTON RD, BOSSIER CITY, LA, 71111",618237991,"R"
80032,"1646 CAMARA COURT","GRAND PRAIRIE","TX",75051,32.7232353320001,-97.0024320749999,32,"1646 CAMARA COURT, GRAND PRAIRIE, TX, 75051","Match","Exact","1646 CAMARA CT, GRAND PRAIRIE, TX, 75051",102936347,"R"
80033,"1646 CLARK STREET APT 301","HONOLULU","HI",96822,21.3008372640001,-157.832858979,33,"1646 CLARK STREET APT 301, HONOLULU, HI, 96822","Match","Exact","1646 CLARK ST, HONOLULU, HI, 96822",203237603,"L"
80034,"1646 CREVE COEUR MILL ROAD","ST LOUIS","MO",63146,38.6893386770001,-90.4938229049999,34,"1646 CREVE COEUR MILL ROAD, ST LOUIS, MO, 63146","Match","Exact","1646 CREVE COEUR MILL RD, SAINT LOUIS, MO, 63146",629170312,"R"
80035,"1646 EAST BATEMAN WAY","SOUTH WEBER","UT",84405,41.1307360180001,-111.937355778,35,"1646 EAST BATEMAN WAY, SOUTH WEBER, UT, 84405","Match","Exact","1646 E BATEMAN WAY, SOUTH WEBER, UT, 84405",229358517,"R"
80036,"1646 EVERETTS SCHOOL RD","ROANOKE RAPIDS","NC",27870,36.429447644,-77.774359797,36,"1646 EVERETTS SCHOOL RD, ROANOKE RAPIDS, NC, 27870","Match","Exact","1646 EVERETTS SCHOOL RD, ROANOKE RAPIDS, NC, 27870",56711581,"L"
80037,"1646 FEDERSPIEL STREET","FORT LEE","NJ",7024,40.8493410610001,-73.966438689,37,"1646 FEDERSPIEL STREET, FORT LEE, NJ, 7024","Match","Exact","1646 FEDERSPIEL ST, FORT LEE, NJ, 07024",64392240,"R"
80038,"1646 FOXHAVEN DRIVE UNIT 3","RICHMOND","KY",40475,37.7639669600001,-84.3164834089999,38,"1646 FOXHAVEN DRIVE UNIT 3, RICHMOND, KY, 40475","Match","Non_Exact","1646 FOXHAVEN CT, RICHMOND, KY, 40475",31997881,"R"
80039,"1646 GOOLD STREET","RACINE","WI",53404,42.747740917,-87.8014713649999,39,"1646 GOOLD STREET, RACINE, WI, 53404","Match","Exact","1646 GOOLD ST, RACINE, WI, 53404",77909758,"R"
80040,"1646 GRAND AVENUE","BALDWIN","NY",11510,40.6697999840001,-73.609870079,40,"1646 GRAND AVENUE, BALDWIN, NY, 11510","Match","Exact","1646 GRAND AVE, BALDWIN, NY, 11510",147629898,"R"
80041,"1646 MACHINE SHOP RD","HICKORY","NC",28602,35.6678569160001,-81.4068227129999,41,"1646 MACHINE SHOP RD, HICKORY, NC, 28602","Match","Exact","1646 MACHINE SHOP RD, HICKORY, NC, 28602",45950987,"L"
80042,"1646 MANATUCK BLVD","BAYSHORE","NY",11706,40.760712374,-73.272255141,42,"1646 MANATUCK BLVD, BAYSHORE, NY, 11706","Match","Non_Exact","1646 MANATUCK BLVD, BAY SHORE, NY, 11706",113983231,"R"
80043,"1646 ORCHID LANE","GREEN BAY","WI",54313,44.489124657,-88.105672892,43,"1646 ORCHID LANE, GREEN BAY, WI, 54313","Match","Exact","1646 ORCHID LN, GREEN BAY, WI, 54313",148114061,"R"
80044,"1646 PANGOLA DR","N FT MYERS","FL",33903,26.656452782,-81.911739477,44,"1646 PANGOLA DR, N FT MYERS, FL, 33903","Match","Exact","1646 PANGOLA DR, N FORT MYERS, FL, 33903",637508782,"R"
80045,"1646 POWELL ROAD","BROOKHAVEN","PA",19015,39.851470057,-75.395645406,45,"1646 POWELL ROAD, BROOKHAVEN, PA, 19015","Match","Exact","1646 POWELL RD, BROOKHAVEN, PA, 19015",134899296,"R"
80046,"1646 RELATIVE DRIVE","VERONA","PA",15147,40.513388987,-79.802623285,46,"1646 RELATIVE DRIVE, VERONA, PA, 15147","Match","Exact","1646 RELATIVE DR, VERONA, PA, 15147",51690705,"L"
80047,"1646 SOUTH 1700 EAST","SPANISH FORK","UT",84660,40.0885004100001,-111.625998026,47,"1646 SOUTH 1700 EAST, SPANISH FORK, UT, 84660","Match","Exact","1646 S 1700 E, SPANISH FORK, UT, 84660",227059671,"L"
80048,"1646 STRAW VALLEY RD","LAWRENCEVILLE","GA",30043,34.019983285,-83.9726026929999,48,"1646 STRAW VALLEY RD, LAWRENCEVILLE, GA, 30043","Match","Non_Exact","1646 STRAWVALLEY RD, LAWRENCEVILLE, GA, 30043",88879473,"L"
80049,"1646 W 127TH ST","LOS ANGELES","CA",90047,33.917404413,-118.305598351,49,"1646 W 127TH ST, LOS ANGELES, CA, 90047","Match","Exact","1646 W 127TH ST, LOS ANGELES, CA, 90047",141661238,"L"
80050,"1646 WELLINGTON PL","WESTLAKE VILLAGE","CA",91361,34.1443493350001,-118.852049559,50,"1646 WELLINGTON PL, WESTLAKE VILLAGE, CA, 91361","Match","Exact","1646 WELLINGTON PL, WESTLAKE VILLAGE, CA, 91361",109977313,"L"
80051,"16460 KENWOOD AVENUE","SOUTH HOLLAND","IL",60473,41.595812338,-87.58514265,51,"16460 KENWOOD AVENUE, SOUTH HOLLAND, IL, 60473","Match","Exact","16460 KENWOOD AVE, SOUTH HOLLAND, IL, 60473",112382820,"R"
80052,"16460 OLD FREDERICK RD","MOUNT AIRY","MD",21771,39.351860914,-77.088567779,52,"16460 OLD FREDERICK RD, MOUNT AIRY, MD, 21771","Match","Exact","16460 OLD FREDERICK RD, MOUNT AIRY, MD, 21771",158952067,"R"
80053,"16460 SW BLACK BIRD ST","BEAVERTON","OR",97007,45.434235997,-122.8456939,53,"16460 SW BLACK BIRD ST, BEAVERTON, OR, 97007","Match","Non_Exact","16460 SW BLACKBIRD DR, BEAVERTON, OR, 97007",605208063,"L"
80054,"16460 TREE HAVEN ST","HUDSON","CO",80642,39.994764882,-104.612440101,54,"16460 TREE HAVEN ST, HUDSON, CO, 80642","Match","Exact","16460 TREE HAVEN ST, HUDSON, CO, 80642",627997984,"R"
80055,"16461 CTY HWY 18","STAMFORD","NY",12167,42.378666824,-74.639965471,55,"16461 CTY HWY 18, STAMFORD, NY, 12167","Match","Non_Exact","16461 CO RD 18, STAMFORD, NY, 12167",41600401,"L"
80056,"16464 SPLIT RAIL DRIVE","LOCKPORT","IL",60441,41.589658506,-88.018964146,56,"16464 SPLIT RAIL DRIVE, LOCKPORT, IL, 60441","Match","Exact","16464 SPLIT RAIL DR, LOCKPORT, IL, 60441",623847273,"L"
80057,"16466 MADISON DRIVE","CLIVE","IA",50325,41.6300815980001,-93.844204796,57,"16466 MADISON DRIVE, CLIVE, IA, 50325","Match","Exact","16466 MADISON DR, CLIVE, IA, 50325",640764622,"R"
80058,"16466 TABLE TOP / P O BOX 1261","YARNELL","AZ",85362,NA,NA,58,"16466 TABLE TOP / P O BOX 1261, YARNELL, AZ, 85362","No_Match",NA,NA,NA,NA
80059,"16468 CAMP AVENUE W NO 487","WHITE SPRINGS","FL",32096,NA,NA,59,"16468 CAMP AVENUE W NO 487, WHITE SPRINGS, FL, 32096","No_Match",NA,NA,NA,NA
80060,"16468 LANES END RD","PRAIRIEVILLE","LA",70769,30.3114694010001,-90.9603213619999,60,"16468 LANES END RD, PRAIRIEVILLE, LA, 70769","Match","Exact","16468 LANES END RD, PRAIRIEVILLE, LA, 70769",115036566,"L"
80061,"1647 BEAL AVE APT 24","ANN ARBOR","MI",48105,42.296569774,-83.7121823539999,61,"1647 BEAL AVE APT 24, ANN ARBOR, MI, 48105","Match","Exact","1647 BEAL AVE, ANN ARBOR, MI, 48105",26013668,"L"
80062,"1647 BEECHWOOD AVENUE","LOUISVILLE","KY",40204,38.2353515930001,-85.719055006,62,"1647 BEECHWOOD AVENUE, LOUISVILLE, KY, 40204","Match","Exact","1647 BEECHWOOD AVE, LOUISVILLE, KY, 40204",618512760,"L"
80063,"1647 COLE MILL RD","DURHAM","NC",27705,36.0397558440001,-78.956685351,63,"1647 COLE MILL RD, DURHAM, NC, 27705","Match","Exact","1647 COLE MILL RD, DURHAM, NC, 27705",71755271,"L"
80064,"1647 COTTAGE GROVE","FORD HEIGHTS","IL",60411,41.503233186,-87.59689823,64,"1647 COTTAGE GROVE, FORD HEIGHTS, IL, 60411","Match","Non_Exact","1647 COTTAGE GROVE AVE, FORD HEIGHTS, IL, 60411",111785578,"L"
80065,"1647 E CARSON STREET","CARSON","CA",90745,33.831659121,-118.243194397,65,"1647 E CARSON STREET, CARSON, CA, 90745","Match","Exact","1647 E CARSON ST, CARSON, CA, 90745",142767123,"L"
80066,"1647 EAST 48TH STREET","BROOKLYN","NY",11234,40.6201188900001,-73.928948315,66,"1647 EAST 48TH STREET, BROOKLYN, NY, 11234","Match","Exact","1647 E 48TH ST, BROOKLYN, NY, 11234",59092324,"L"
80067,"1647 ERIC CIR","LAWRENCEVILLE","GA",30043,33.9692214930001,-84.08368848,67,"1647 ERIC CIR, LAWRENCEVILLE, GA, 30043","Match","Exact","1647 ERIC CIR, LAWRENCEVILLE, GA, 30043",88921165,"L"
80068,"1647 HIGHWAY T","STEELVILLE","MO",65565,NA,NA,68,"1647 HIGHWAY T, STEELVILLE, MO, 65565","No_Match",NA,NA,NA,NA
80069,"1647 HWY J","WRIGHT CITY","MO",63390,NA,NA,69,"1647 HWY J, WRIGHT CITY, MO, 63390","No_Match",NA,NA,NA,NA
80070,"1647 MOUNT VERNON ROAD","ATLANTA","GA",30338,33.9465160710001,-84.333054019,70,"1647 MOUNT VERNON ROAD, ATLANTA, GA, 30338","Match","Exact","1647 MOUNT VERNON RD, ATLANTA, GA, 30338",23387147,"R"
80071,"1647 OAK RIDGE CIRCLE","STONE MOUNTAIN","GA",30087,33.834703823,-84.111780097,71,"1647 OAK RIDGE CIRCLE, STONE MOUNTAIN, GA, 30087","Match","Exact","1647 OAK RIDGE CIR, STONE MOUNTAIN, GA, 30087",644928294,"R"
80072,"1647 OAKFOREST DRIVE","ROCKFORD","IL",61107,42.2869961280001,-88.975926709,72,"1647 OAKFOREST DRIVE, ROCKFORD, IL, 61107","Match","Exact","1647 OAKFOREST DR, ROCKFORD, IL, 61107",49280053,"L"
80073,"1647 PASEO CARINA UNIT 2","CHULA VISTA","CA",91915,32.6308435330001,-116.935298677,73,"1647 PASEO CARINA UNIT 2, CHULA VISTA, CA, 91915","Match","Non_Exact","1647 PSO CARINA, CHULA VISTA, CA, 91915",645155939,"R"
80074,"1647 POST ROAD APT 2203","SAN MARCOS","TX",78666,29.9030741830001,-97.914330598,74,"1647 POST ROAD APT 2203, SAN MARCOS, TX, 78666","Match","Exact","1647 POST RD, SAN MARCOS, TX, 78666",63810479,"L"
80075,"1647 RUBY ROAD","HARTSVILLE","SC",29550,34.4173582830001,-80.0841661169999,75,"1647 RUBY ROAD, HARTSVILLE, SC, 29550","Match","Exact","1647 RUBY RD, HARTSVILLE, SC, 29550",618369377,"R"
80076,"1647 SAVANNE RD","HOUMA","LA",70360,29.6116777400001,-90.805491602,76,"1647 SAVANNE RD, HOUMA, LA, 70360","Match","Exact","1647 SAVANNE RD, HOUMA, LA, 70360",92069301,"R"
80077,"1647 W GARVEY AVE NORTH","WEST COVINA","CA",91790,34.072667858,-117.941028875,77,"1647 W GARVEY AVE NORTH, WEST COVINA, CA, 91790","Match","Exact","1647 W GARVEY AVE N, WEST COVINA, CA, 91790",141711742,"R"
80078,"1647 WILSON ROAD","ROBBINS","NC",27325,35.49943977,-79.509625871,78,"1647 WILSON ROAD, ROBBINS, NC, 27325","Match","Exact","1647 WILSON RD, ROBBINS, NC, 27325",20344679,"R"
80079,"16470 COUNTY ROAD 20","MAYER","MN",55360,44.963876881,-93.9429249949999,79,"16470 COUNTY ROAD 20, MAYER, MN, 55360","Match","Exact","16470 CO RD 20, MAYER, MN, 55360",43513702,"L"
80080,"16470 HICKORY DR","SILOAM SPGS","AR",72761,36.1779607440001,-94.4799954109999,80,"16470 HICKORY DR, SILOAM SPGS, AR, 72761","Match","Exact","16470 HICKORY DR, SILOAM SPRINGS, AR, 72761",47876417,"R"
80081,"16470 WESTBROOK ROAD","MILTON","GA",30004,34.181477564,-84.284704749,81,"16470 WESTBROOK ROAD, MILTON, GA, 30004","Match","Exact","16470 WESTBROOK RD, MILTON, GA, 30004",17330184,"L"
80082,"16471 LIMA ROAD","HUNTERTOWN","IN",46748,41.235691085,-85.1733274649999,82,"16471 LIMA ROAD, HUNTERTOWN, IN, 46748","Match","Exact","16471 LIMA RD, HUNTERTOWN, IN, 46748",6402295,"L"
80083,"16471 SOUTH HAWKINS ROAD","ASHLAND","MO",65010,38.752944142,-92.214356718,83,"16471 SOUTH HAWKINS ROAD, ASHLAND, MO, 65010","Match","Exact","16471 S HAWKINS RD, ASHLAND, MO, 65010",648296807,"L"
80084,"16472 78TH AVENUE NORTH","MAPLE GROVE","MN",55311,45.0969125870001,-93.489188128,84,"16472 78TH AVENUE NORTH, MAPLE GROVE, MN, 55311","Match","Exact","16472 78TH AVE N, MAPLE GROVE, MN, 55311",43852380,"L"
80085,"16473 E POWERS AVE","CENTENNIAL","CO",80015,39.6147444060001,-104.797624797,85,"16473 E POWERS AVE, CENTENNIAL, CO, 80015","Match","Exact","16473 E POWERS AVE, CENTENNIAL, CO, 80015",177359468,"L"
80086,"16473 NW 141ST STREET","ALACHUA","FL",32615,29.806063878,-82.495763648,86,"16473 NW 141ST STREET, ALACHUA, FL, 32615","Match","Exact","16473 NW 141 ST, ALACHUA, FL, 32615",600639172,"L"
80087,"16475 DALLAS PARKWAY","ADDISON","TX",75001,32.9736319940001,-96.822050399,87,"16475 DALLAS PARKWAY, ADDISON, TX, 75001","Match","Exact","16475 DALLAS PKWY, ADDISON, TX, 75001",103211167,"L"
80088,"16475 HILLSIDE CT","LAKEVILLE","MN",55044,44.7110057310001,-93.2392417999999,88,"16475 HILLSIDE CT, LAKEVILLE, MN, 55044","Match","Exact","16475 HILLSIDE CT, LAKEVILLE, MN, 55044",37957638,"R"
80089,"16477 CONSTANCE AVENUE","DETROIT","MI",48228,42.354320554,-83.207444983,89,"16477 CONSTANCE AVENUE, DETROIT, MI, 48228","Match","Exact","16477 CONSTANCE AVE, DETROIT, MI, 48228",95440197,"L"
80090,"16478 BEACH BLVD  SUITE 276","WESTMINSTER","CA",92683,33.729164606,-117.98916392,90,"16478 BEACH BLVD  SUITE 276, WESTMINSTER, CA, 92683","Match","Exact","16478 BEACH BLVD, WESTMINSTER, CA, 92683",631805201,"L"
80091,"16478 BEACH BLVD SUITE 120","WESTMINSTER","CA",92683,33.729164606,-117.98916392,91,"16478 BEACH BLVD SUITE 120, WESTMINSTER, CA, 92683","Match","Exact","16478 BEACH BLVD, WESTMINSTER, CA, 92683",631805201,"L"
80092,"1648 61ST ST FL 2","BROOKLYN","NY",11204,40.6235411230001,-73.9913470019999,92,"1648 61ST ST FL 2, BROOKLYN, NY, 11204","Match","Exact","1648 61ST ST, BROOKLYN, NY, 11204",59088300,"R"
80093,"1648 640TH AVENUE","ALBIA","IA",52531,41.06678386,-92.831429266,93,"1648 640TH AVENUE, ALBIA, IA, 52531","Match","Exact","1648 640TH AVE, ALBIA, IA, 52531",89518292,"R"
80094,"1648 7TH ST NW","BUFFALO","MN",55313,45.162924397,-93.923631596,94,"1648 7TH ST NW, BUFFALO, MN, 55313","Match","Exact","1648 7TH ST NW, BUFFALO, MN, 55313",624383955,"R"
80095,"1648 ALBANY CT","CLAREMONT","CA",91711,34.1133892080001,-117.700664052,95,"1648 ALBANY CT, CLAREMONT, CA, 91711","Match","Exact","1648 ALBANY CT, CLAREMONT, CA, 91711",616707150,"L"
80096,"1648 CRESCENT CENTRE BLVD","TUCKER","GA",30084,33.8292347190001,-84.250879298,96,"1648 CRESCENT CENTRE BLVD, TUCKER, GA, 30084","Match","Exact","1648 CRESCENT CENTRE BLVD, TUCKER, GA, 30084",23409840,"L"
80097,"1648 CYPRESS CREEK PKWY","HOUSTON","TX",77090,NA,NA,97,"1648 CYPRESS CREEK PKWY, HOUSTON, TX, 77090","No_Match",NA,NA,NA,NA
80098,"1648 E CROWN AVE","SPOKANE","WA",99207,47.7047879310001,-117.385786397,98,"1648 E CROWN AVE, SPOKANE, WA, 99207","Match","Exact","1648 E CROWN AVE, SPOKANE, WA, 99207",189878259,"R"
80099,"1648 EAST 87TH PLACE","CHICAGO","IL",60617,41.736061051,-87.583348643,99,"1648 EAST 87TH PLACE, CHICAGO, IL, 60617","Match","Exact","1648 E 87TH PL, CHICAGO, IL, 60617",605550014,"L"
80100,"1648 EAST CHAROULEAU PLACE","ORO VALLEY","AZ",85737,32.3974861450001,-110.94834349,100,"1648 EAST CHAROULEAU PLACE, ORO VALLEY, AZ, 85737","Match","Exact","1648 E CHAROULEAU PL, ORO VALLEY, AZ, 85737",121225216,"L"
80101,"1648 ERIN HILL","STOUGHTON","WI",53589,42.9249914070001,-89.240325761,101,"1648 ERIN HILL, STOUGHTON, WI, 53589","Match","Exact","1648 ERIN HILL, STOUGHTON, WI, 53589",49501231,"L"
80102,"1648 FISHBONE DRIVE","JOHNS ISLAND","SC",29455,32.7346091310001,-80.0679364329999,102,"1648 FISHBONE DRIVE, JOHNS ISLAND, SC, 29455","Match","Exact","1648 FISHBONE DR, JOHNS ISLAND, SC, 29455",648562583,"R"
80103,"1648 HIGHVIEW CIRCLE","FRANKFORT","KY",40601,38.167374302,-84.916687896,103,"1648 HIGHVIEW CIRCLE, FRANKFORT, KY, 40601","Match","Exact","1648 HIGHVIEW CIR, FRANKFORT, KY, 40601",97050990,"R"
80104,"1648 JONESBERRY DRIVE","ROCK HILL","SC",29732,34.952001232,-81.0541914519999,104,"1648 JONESBERRY DRIVE, ROCK HILL, SC, 29732","Match","Exact","1648 JONESBERRY DR, ROCK HILL, SC, 29732",19825271,"L"
80105,"1648 LAKEWOOD RD","JACKSONVILLE","FL",32207,30.285544729,-81.648585694,105,"1648 LAKEWOOD RD, JACKSONVILLE, FL, 32207","Match","Exact","1648 LAKEWOOD RD, JACKSONVILLE, FL, 32207",83915291,"R"
80106,"1648 LITTLE ROCK CIR","SUISUN CITY","CA",94585,38.256973111,-121.98378107,106,"1648 LITTLE ROCK CIR, SUISUN CITY, CA, 94585","Match","Exact","1648 LITTLE ROCK CIR, SUISUN CITY, CA, 94585",192615464,"L"
80107,"1648 MELROSE AVE","EAST LANSING","MI",48823,42.7372081390001,-84.458455699,107,"1648 MELROSE AVE, EAST LANSING, MI, 48823","Match","Exact","1648 MELROSE AVE, EAST LANSING, MI, 48823",17505261,"R"
80108,"1648 N VINE STREET SUITE 101","CHICAGO","IL",60614,41.9118160360001,-87.6443871119999,108,"1648 N VINE STREET SUITE 101, CHICAGO, IL, 60614","Match","Non_Exact","1648 N VINE ST, CHICAGO, IL, 60614",111767229,"L"
80109,"1648 SHELDON STREET","INDIANAPOLIS","IN",46218,39.789716211,-86.132757695,109,"1648 SHELDON STREET, INDIANAPOLIS, IN, 46218","Match","Exact","1648 SHELDON ST, INDIANAPOLIS, IN, 46218",107990713,"L"
80110,"1648 SKYVIEW DRIVE","BRANSON","MO",65616,36.6207405690001,-93.293786375,110,"1648 SKYVIEW DRIVE, BRANSON, MO, 65616","Match","Exact","1648 SKYVIEW DR, BRANSON, MO, 65616",20156493,"R"
80111,"1648 STATELINE ROAD","WALLA WALLA","WA",99362,46.000664242,-118.351928031,111,"1648 STATELINE ROAD, WALLA WALLA, WA, 99362","Match","Exact","1648 STATELINE RD, WALLA WALLA, WA, 99362",170439598,"R"
80112,"1648 SW BENT LOOP","POWELL BUTTE","OR",97753,NA,NA,112,"1648 SW BENT LOOP, POWELL BUTTE, OR, 97753","Tie",NA,NA,NA,NA
80113,"1648 TAYLOR ROAD SUITE 126","PORT ORANGE","FL",32128,29.101302435,-81.0399984749999,113,"1648 TAYLOR ROAD SUITE 126, PORT ORANGE, FL, 32128","Match","Exact","1648 TAYLOR RD, PORT ORANGE, FL, 32128",94564055,"R"
80114,"1648 W 20TH ST","LOS ANGELES","CA",90007,34.038138858,-118.29288591,114,"1648 W 20TH ST, LOS ANGELES, CA, 90007","Match","Exact","1648 W 20TH ST, LOS ANGELES, CA, 90007",141606836,"L"
80115,"1648 WEST 20TH STREET","LOS ANGELES","CA",90007,34.0381389090001,-118.292876204,115,"1648 WEST 20TH STREET, LOS ANGELES, CA, 90007","Match","Exact","1648 W 20TH ST, LOS ANGELES, CA, 90007",141606836,"L"
80116,"1648 WEST 38TH STREET","DAVENPORT","IA",52806,41.558192139,-90.59925347,116,"1648 WEST 38TH STREET, DAVENPORT, IA, 52806","Match","Exact","1648 W 38TH ST, DAVENPORT, IA, 52806",122728634,"R"
80117,"16480 VALLEY RANCH ROAD","CANYON COUNTRY","CA",91387,NA,NA,117,"16480 VALLEY RANCH ROAD, CANYON COUNTRY, CA, 91387","No_Match",NA,NA,NA,NA
80118,"16481 KINCHEN ROAD","LIVINGSTON","LA",70754,30.302407368,-90.791171601,118,"16481 KINCHEN ROAD, LIVINGSTON, LA, 70754","Match","Exact","16481 KINCHEN RD, LIVINGSTON, LA, 70754",115076615,"L"
80119,"16485 COLLINS AVENUE 2034","SUNNY ISLES BEACH","FL",33160,25.9291648170001,-80.1220792519999,119,"16485 COLLINS AVENUE 2034, SUNNY ISLES BEACH, FL, 33160","Match","Exact","16485 COLLINS AVE, SUNNY ISLES BEACH, FL, 33160",609039939,"R"
80120,"16485 E 8 MILE RD","EASTPOINTE","MI",48021,42.450448786,-82.950847127,120,"16485 E 8 MILE RD, EASTPOINTE, MI, 48021","Match","Exact","16485 E 8 MILE RD, EASTPOINTE, MI, 48021",645859506,"R"
80121,"16485 JULIANA","EASTPOINTE","MI",48021,42.4520748630001,-82.951713276,121,"16485 JULIANA, EASTPOINTE, MI, 48021","Match","Non_Exact","16485 JULIANA AVE, EASTPOINTE, MI, 48021",110679502,"L"
80122,"16485 TABLE TOP","YARNELL","AZ",85632,NA,NA,122,"16485 TABLE TOP, YARNELL, AZ, 85632","No_Match",NA,NA,NA,NA
80123,"16486 TRUWOOD STREET","WOODHAVEN","MI",48183,42.1499856470001,-83.220976854,123,"16486 TRUWOOD STREET, WOODHAVEN, MI, 48183","Match","Exact","16486 TRUWOOD ST, WOODHAVEN, MI, 48183",95707908,"R"
80124,"16488 LANES END ROAD","PRAIRIEVILLE","LA",70769,30.3116667200001,-90.9601009,124,"16488 LANES END ROAD, PRAIRIEVILLE, LA, 70769","Match","Exact","16488 LANES END RD, PRAIRIEVILLE, LA, 70769",115036566,"L"
80125,"16489 124TH AVENUE","NUNICA","MI",49448,43.0684498620001,-86.096938775,125,"16489 124TH AVENUE, NUNICA, MI, 49448","Match","Exact","16489 124TH AVE, NUNICA, MI, 49448",71079264,"L"
80126,"16489 LANDMARK DR","FONTANA","CA",92336,34.143540919,-117.445344228,126,"16489 LANDMARK DR, FONTANA, CA, 92336","Match","Exact","16489 LANDMARK DR, FONTANA, CA, 92336",640045069,"R"
80127,"1649 23RD STREET","OGDEN","UM",84401,NA,NA,127,"1649 23RD STREET, OGDEN, UM, 84401","No_Match",NA,NA,NA,NA
80128,"1649 ADALIA AVE","HACIENDA HEIGHTS","CA",91745,34.008477278,-117.990198231,128,"1649 ADALIA AVE, HACIENDA HEIGHTS, CA, 91745","Match","Exact","1649 ADALIA AVE, HACIENDA HTS, CA, 91745",141653209,"R"
80129,"1649 APPIAN WAY SUITE 210","SANTA MONICA","CA",90401,34.009752002,-118.494427747,129,"1649 APPIAN WAY SUITE 210, SANTA MONICA, CA, 90401","Match","Exact","1649 APPIAN WAY, SANTA MONICA, CA, 90401",647625254,"L"
80130,"1649 ATKAMIRE DR","TALLAHASSEE","FL",32304,30.4335730610001,-84.3091971709999,130,"1649 ATKAMIRE DR, TALLAHASSEE, FL, 32304","Match","Exact","1649 ATKAMIRE DR, TALLAHASSEE, FL, 32304",82849875,"L"
80131,"1649 COLONY RD","PASADENA","MD",21122,39.144838769,-76.487197049,131,"1649 COLONY RD, PASADENA, MD, 21122","Match","Exact","1649 COLONY RD, PASADENA, MD, 21122",68166399,"R"
80132,"1649 COMANCHE RUN","MADISON","TN",37115,36.236727919,-86.6544385349999,132,"1649 COMANCHE RUN, MADISON, TN, 37115","Match","Exact","1649 COMANCHE RUN, MADISON, TN, 37115",645518889,"L"
80133,"1649 DEER CROSSING TER","JONESBORO","GA",30236,33.4968459840001,-84.336799743,133,"1649 DEER CROSSING TER, JONESBORO, GA, 30236","Match","Exact","1649 DEER CROSSING TER, JONESBORO, GA, 30236",640499803,"L"
80134,"1649 FIELDGREEN OVERLOOK","STONE MTN","GA",30088,33.7536352340001,-84.1839417959999,134,"1649 FIELDGREEN OVERLOOK, STONE MTN, GA, 30088","Match","Exact","1649 FIELDGREEN OVERLOOK, STONE MOUNTAIN, GA, 30088",645523840,"L"
80135,"1649 FILLMORE AVE","BUFFALO","NC",14211,NA,NA,135,"1649 FILLMORE AVE, BUFFALO, NC, 14211","No_Match",NA,NA,NA,NA
80136,"1649 FOUNDERS HL N","WILLIAMSBURG","VA",23185,37.248777036,-76.860694694,136,"1649 FOUNDERS HL N, WILLIAMSBURG, VA, 23185","Match","Exact","1649 FOUNDERS HILL N, WILLIAMSBURG, VA, 23185",103774581,"L"
80137,"1649 HIGH SHOALS DR","FRISCO","TX",75034,33.14352173,-96.877509592,137,"1649 HIGH SHOALS DR, FRISCO, TX, 75034","Match","Non_Exact","1649 HIGH SHOALS DR, FRISCO, TX, 75036",635395083,"R"
80138,"1649 HIGH SHOALS DRIVE","FRISCO","TX",75034,33.14352173,-96.877509592,138,"1649 HIGH SHOALS DRIVE, FRISCO, TX, 75034","Match","Non_Exact","1649 HIGH SHOALS DR, FRISCO, TX, 75036",635395083,"R"
80139,"1649 JACOB DR","BINFORD","ND",58416,47.649195014,-98.368800902,139,"1649 JACOB DR, BINFORD, ND, 58416","Match","Exact","1649 JACOB DR, BINFORD, ND, 58416",647450013,"L"
80140,"1649 LAUDERDALE MANOR DRIVE","FORT LAUDERDALE","FL",33311,26.1386124810001,-80.167844934,140,"1649 LAUDERDALE MANOR DRIVE, FORT LAUDERDALE, FL, 33311","Match","Exact","1649 LAUDERDALE MANOR DR, FORT LAUDERDALE, FL, 33311",114776918,"R"
80141,"1649 LONGWOOD DR","LANCASTER","OH",43130,39.747515037,-82.5757175539999,141,"1649 LONGWOOD DR, LANCASTER, OH, 43130","Match","Non_Exact","1649 LONGWOOD DR NE, LANCASTER, OH, 43130",37221815,"R"
80142,"1649 OAK HILL ROAD","GERMANTOWN","TN",38183,35.103906357,-89.835361367,142,"1649 OAK HILL ROAD, GERMANTOWN, TN, 38183","Match","Non_Exact","1649 OAK HILL RD, GERMANTOWN, TN, 38138",72929298,"R"
80143,"1649 ROCKAWAY PARKWAY 2","BROOKLYN","NY",11236,40.6408844580001,-73.8975676809999,143,"1649 ROCKAWAY PARKWAY 2, BROOKLYN, NY, 11236","Match","Exact","1649 ROCKAWAY PKWY, BROOKLYN, NY, 11236",59086745,"L"
80144,"1649 SPRING BRANCH DR E","JACKSONVILLE","FL",32221,30.290538913,-81.772396951,144,"1649 SPRING BRANCH DR E, JACKSONVILLE, FL, 32221","Match","Exact","1649 SPRING BRANCH DR E, JACKSONVILLE, FL, 32221",83950781,"L"
80145,"1649 TAYLOR LANDING DRIVE","BARTOW","FL",33830,27.9102158420001,-81.834768529,145,"1649 TAYLOR LANDING DRIVE, BARTOW, FL, 33830","Match","Exact","1649 TAYLOR LANDING DR, BARTOW, FL, 33830",647889997,"R"
80146,"1649 VILLA COURT","MARCO ISLAND","FL",34145,25.932222219,-81.704991327,146,"1649 VILLA COURT, MARCO ISLAND, FL, 34145","Match","Exact","1649 VILLA CT, MARCO ISLAND, FL, 34145",115123348,"R"
80147,"1649 W 146TH ST STE 4","GARDENA","CA",90247,33.8990002740001,-118.306441548,147,"1649 W 146TH ST STE 4, GARDENA, CA, 90247","Match","Non_Exact","1649 W 146TH ST, GARDENA, CA, 90247",142754377,"R"
80148,"1649 W GREENLEAF AVE APT 2E","CHICAGO","IL",60626,42.010249668,-87.671196903,148,"1649 W GREENLEAF AVE APT 2E, CHICAGO, IL, 60626","Match","Non_Exact","1649 W GREENLEAF AVE, CHICAGO, IL, 60626",111745242,"L"
80149,"1649 YALE PLACE","ROCKVILLE","MD",20850,39.103722539,-77.162149286,149,"1649 YALE PLACE, ROCKVILLE, MD, 20850","Match","Exact","1649 YALE PL, ROCKVILLE, MD, 20850",639326911,"R"
80150,"16490 SILVERADO DRIVE","SOUTHGATE","MI",48195,42.188235472,-83.221398893,150,"16490 SILVERADO DRIVE, SOUTHGATE, MI, 48195","Match","Exact","16490 SILVERADO DR, SOUTHGATE, MI, 48195",95683826,"L"
80151,"16491 AIRLINE HWY","PRAIRIEVILLE","LA",70769,30.305637484,-90.974515522,151,"16491 AIRLINE HWY, PRAIRIEVILLE, LA, 70769","Match","Exact","16491 AIRLINE HWY, PRAIRIEVILLE, LA, 70769",642510490,"L"
80152,"16491 OCEAN VIEW DRIVE","JUNEAU","AK",99801,58.3872220540001,-134.755696724,152,"16491 OCEAN VIEW DRIVE, JUNEAU, AK, 99801","Match","Exact","16491 OCEAN VIEW DR, JUNEAU, AK, 99801",649701643,"L"
80153,"16494 TANGERINE BLVD","LOXAHATCHEE","FL",33470,26.7725191330001,-80.304504301,153,"16494 TANGERINE BLVD, LOXAHATCHEE, FL, 33470","Match","Exact","16494 TANGERINE BLVD, LOXAHATCHEE, FL, 33470",115325509,"R"
80154,"16495 E 17TH PL","AURORA","CO",80011,NA,NA,154,"16495 E 17TH PL, AURORA, CO, 80011","Tie",NA,NA,NA,NA
80155,"16497 JEFFERSON OAKS DRIVE","PRAIRIEVILLE","LA",70769,30.311064102,-90.9735762559999,155,"16497 JEFFERSON OAKS DRIVE, PRAIRIEVILLE, LA, 70769","Match","Exact","16497 JEFFERSON OAKS DR, PRAIRIEVILLE, LA, 70769",115036370,"L"
80156,"16498 GRENELL ISLAND","CLAYTON","NY",13624,44.282762792,-76.042706079,156,"16498 GRENELL ISLAND, CLAYTON, NY, 13624","Match","Exact","16498 GRENELL IS, CLAYTON, NY, 13624",154277886,"R"
80157,"1649B BLUEBIRD DR","YARDLEY","PA",19067,40.215609489,-74.870927673,157,"1649B BLUEBIRD DR, YARDLEY, PA, 19067","Match","Exact","1649 BLUEBIRD DR, YARDLEY, PA, 19067",134744679,"R"
80158,"165  WALNUT STREET SOUTH PO BOX 577","MEADVILLE","MS",39653,31.4742197940001,-90.893604969,158,"165  WALNUT STREET SOUTH PO BOX 577, MEADVILLE, MS, 39653","Match","Non_Exact","165 WALNUT ST, MEADVILLE, MS, 39653",636557194,"R"
80159,"165 1/2 POULTON STREET","BALTIMORE","MD",21227,39.2477874900001,-76.66085906,159,"165 1/2 POULTON STREET, BALTIMORE, MD, 21227","Match","Exact","165 POULTON ST, BALTIMORE, MD, 21227",191486553,"R"
80160,"165 3RD ST W","TIERRA VERDE","FL",33715,27.6914412130001,-82.722773343,160,"165 3RD ST W, TIERRA VERDE, FL, 33715","Match","Exact","165 3RD ST W, TIERRA VERDE, FL, 33715",124709633,"R"
80161,"165 6TH ST SW","LARGO","FL",33770,27.915605896,-82.794302605,161,"165 6TH ST SW, LARGO, FL, 33770","Match","Exact","165 6TH ST SW, LARGO, FL, 33770",124671948,"R"
80162,"165 AIRPORT ROAD","WASHINGTON","PA",15301,NA,NA,162,"165 AIRPORT ROAD, WASHINGTON, PA, 15301","No_Match",NA,NA,NA,NA
80163,"165 ALLISON DRIVE","CLAYSBURG","PA",16625,40.2828098480001,-78.496072994,163,"165 ALLISON DRIVE, CLAYSBURG, PA, 16625","Match","Exact","165 ALLISON DR, CLAYSBURG, PA, 16625",49719223,"L"
80164,"165 ALPHA PARK DRIVE","HIGHLAND HEIGHTS","OH",44143,41.5533342040001,-81.4512931309999,164,"165 ALPHA PARK DRIVE, HIGHLAND HEIGHTS, OH, 44143","Match","Non_Exact","165 ALPHA DR, HIGHLAND HEIGHTS, OH, 44143",649549295,"R"
80165,"165 ARCH ST","REDWOOD CITY","CA",94062,37.4871685250001,-122.237569718,165,"165 ARCH ST, REDWOOD CITY, CA, 94062","Match","Exact","165 ARCH ST, REDWOOD CITY, CA, 94062",192361012,"L"
80166,"165 ARNOLD AVE","SAINT PETERS","MO",63376,38.7594878630001,-90.660401383,166,"165 ARNOLD AVE, SAINT PETERS, MO, 63376","Match","Exact","165 ARNOLD AVE, SAINT PETERS, MO, 63376",651371459,"R"
80167,"165 AUDUBON PKWY","STOCKBRIDGE","GA",30281,33.5883536220001,-84.208010797,167,"165 AUDUBON PKWY, STOCKBRIDGE, GA, 30281","Match","Exact","165 AUDUBON PKWY, STOCKBRIDGE, GA, 30281",23191638,"L"
80168,"165 BAGDAD AVE","OPA LOCKA","FL",33054,25.904418938,-80.254546058,168,"165 BAGDAD AVE, OPA LOCKA, FL, 33054","Match","Exact","165 BAGDAD AVE, OPA LOCKA, FL, 33054",116032083,"L"
80169,"165 BELLE MARSH RD","SOUTH BERWICK","ME",3908,43.227551949,-70.719147656,169,"165 BELLE MARSH RD, SOUTH BERWICK, ME, 3908","Match","Exact","165 BELLE MARSH RD, SOUTH BERWICK, ME, 03908",642007271,"R"
80170,"165 BEST GINN STREET","GIFFORD","SC",29923,32.859327159,-81.237066985,170,"165 BEST GINN STREET, GIFFORD, SC, 29923","Match","Non_Exact","165 BEST-GINN ST, GIFFORD, SC, 29923",33107569,"R"
80171,"165 BOOKOUT LN","COWAN","TN",37318,35.1563800500001,-86.011570268,171,"165 BOOKOUT LN, COWAN, TN, 37318","Match","Exact","165 BOOKOUT LN, COWAN, TN, 37318",57982792,"L"
80172,"165 BOUGANVILLA DRIVE","PONTE VEDRA BEACH","FL",32082,30.1764261210001,-81.383718586,172,"165 BOUGANVILLA DRIVE, PONTE VEDRA BEACH, FL, 32082","Match","Exact","165 BOUGANVILLA DR, PONTE VEDRA BEACH, FL, 32082",92601289,"L"
80173,"165 BOWER ROAD","POUGHKEEPSIE","NY",12603,41.730642183,-73.8465822539999,173,"165 BOWER ROAD, POUGHKEEPSIE, NY, 12603","Match","Exact","165 BOWER RD, POUGHKEEPSIE, NY, 12603",4168983,"R"
80174,"165 BROAD STREET","CLAREMONT","NH",3743,43.3685916490001,-72.3364588699999,174,"165 BROAD STREET, CLAREMONT, NH, 3743","Match","Exact","165 BROAD ST, CLAREMONT, NH, 03743",124336316,"L"
80175,"165 BURKE STREET SUITE 109","STOCKBRIDGE","GA",30281,33.5476240990001,-84.2343994839999,175,"165 BURKE STREET SUITE 109, STOCKBRIDGE, GA, 30281","Match","Exact","165 BURKE ST, STOCKBRIDGE, GA, 30281",23188799,"R"
80176,"165 CAIN DRIVE","ORCUTT","CA",93455,34.869225656,-120.437717401,176,"165 CAIN DRIVE, ORCUTT, CA, 93455","Match","Exact","165 CAIN DR, ORCUTT, CA, 93455",108666082,"L"
80177,"165 CALIFORNIA ROAD PO BOX 436","QUAKERTOWN","PA",18951,40.447818565,-75.3530535199999,177,"165 CALIFORNIA ROAD PO BOX 436, QUAKERTOWN, PA, 18951","Match","Exact","165 CALIFORNIA RD, QUAKERTOWN, PA, 18951",639896203,"L"
80178,"165 CAPITOL AVENUE","HARTFORD","CT",6106,41.762661952,-72.6814995669999,178,"165 CAPITOL AVENUE, HARTFORD, CT, 6106","Match","Exact","165 CAPITOL AVE, HARTFORD, CT, 06106",604939124,"L"
80179,"165 CARRIAGE HILLS BLVD 737","CONROE","TX",77384,30.2328430480001,-95.501887424,179,"165 CARRIAGE HILLS BLVD 737, CONROE, TX, 77384","Match","Exact","165 CARRIAGE HILLS BLVD, CONROE, TX, 77384",642283426,"R"
80180,"165 CHEROKEE WAY","PORTOLA VALLEY","CA",94028,37.381444738,-122.213491285,180,"165 CHEROKEE WAY, PORTOLA VALLEY, CA, 94028","Match","Exact","165 CHEROKEE WAY, PORTOLA VALLEY, CA, 94028",192390369,"R"
80181,"165 CLEARVIEW PL","SOUTH BEND","IN",46619,41.6741936330001,-86.321393058,181,"165 CLEARVIEW PL, SOUTH BEND, IN, 46619","Match","Exact","165 CLEARVIEW PL, SOUTH BEND, IN, 46619",8054998,"L"
80182,"165 CLEVELAND AVENUE","BUFFALO","NY",14222,42.917508684,-78.875035942,182,"165 CLEVELAND AVENUE, BUFFALO, NY, 14222","Match","Exact","165 CLEVELAND AVE, BUFFALO, NY, 14222",48337912,"L"
80183,"165 COLSER DRIVE","COVINGTON","GA",30016,33.6028813390001,-83.9672299009999,183,"165 COLSER DRIVE, COVINGTON, GA, 30016","Match","Exact","165 COLSER DR, COVINGTON, GA, 30016",618467312,"L"
80184,"165 COMMODORE DR","NORFOLK","VA",23503,36.939696773,-76.268027019,184,"165 COMMODORE DR, NORFOLK, VA, 23503","Match","Exact","165 COMMODORE DR, NORFOLK, VA, 23503",122137600,"R"
80185,"165 CONOVER STREET 4B","BROOKLYN","NY",11231,40.678649507,-74.013569747,185,"165 CONOVER STREET 4B, BROOKLYN, NY, 11231","Match","Exact","165 CONOVER ST, BROOKLYN, NY, 11231",59093463,"L"
80186,"165 CORNELL STREET  APT 123","KINGSTON","NY",12401,41.9340779140001,-73.9983564089999,186,"165 CORNELL STREET  APT 123, KINGSTON, NY, 12401","Match","Exact","165 CORNELL ST, KINGSTON, NY, 12401",41909692,"R"
80187,"165 COUNTRY CLUB BLVD UNIT 427","WORCESTER","MA",1605,42.3012201060001,-71.776856391,187,"165 COUNTRY CLUB BLVD UNIT 427, WORCESTER, MA, 1605","Match","Exact","165 COUNTRY CLUB BLVD, WORCESTER, MA, 01605",40012973,"L"
80188,"165 COURT STREET - SUITE 166","BROOKLYN","NY",11201,40.6886283950001,-73.992869792,188,"165 COURT STREET - SUITE 166, BROOKLYN, NY, 11201","Match","Exact","165 COURT ST, BROOKLYN, NY, 11201",59075244,"L"
80189,"165 COURTLAND STREET NE A229","ATLANTA","GA",30303,33.7588396030001,-84.384204613,189,"165 COURTLAND STREET NE A229, ATLANTA, GA, 30303","Match","Exact","165 COURTLAND ST NE, ATLANTA, GA, 30303",17344566,"R"
80190,"165 COURTLAND STREET SUITE A-217","ATLANTA","GA",30303,NA,NA,190,"165 COURTLAND STREET SUITE A-217, ATLANTA, GA, 30303","Tie",NA,NA,NA,NA
80191,"165 DEER TRACK ROAD","DUNCANSVILLE","PA",16635,40.445703602,-78.402700626,191,"165 DEER TRACK ROAD, DUNCANSVILLE, PA, 16635","Match","Exact","165 DEER TRACK RD, DUNCANSVILLE, PA, 16635",651597199,"R"
80192,"165 DOGWOOD AVE","ROSLYN HARBOR","NY",11576,40.815078154,-73.62950375,192,"165 DOGWOOD AVE, ROSLYN HARBOR, NY, 11576","Match","Non_Exact","165 DOGWOOD AVE, ROSLYN, NY, 11576",147662333,"L"
80193,"165 DUANE STREET","NEW YORK","NY",10013,40.717277304,-74.009107762,193,"165 DUANE STREET, NEW YORK, NY, 10013","Match","Exact","165 DUANE ST, NEW YORK, NY, 10013",59659473,"R"
80194,"165 E 112TH ST APT 1F","NEW YORK","NY",10029,40.7959947640001,-73.9432712129999,194,"165 E 112TH ST APT 1F, NEW YORK, NY, 10029","Match","Non_Exact","165 E 112TH ST, NEW YORK, NY, 10029",59658053,"L"
80195,"165 E BUNNELL AVE SUITE D","HOMER","AK",99603,NA,NA,195,"165 E BUNNELL AVE SUITE D, HOMER, AK, 99603","Tie",NA,NA,NA,NA
80196,"165 E DINKINS STREET","CANTON","MS",39046,32.6040473940001,-90.033088832,196,"165 E DINKINS STREET, CANTON, MS, 39046","Match","Exact","165 E DINKINS ST, CANTON, MS, 39046",647643651,"R"
80197,"165 E HIGHLAND AVE","SAN BERNARDINO","CA",92404,34.1359455890001,-117.283127672,197,"165 E HIGHLAND AVE, SAN BERNARDINO, CA, 92404","Match","Exact","165 E HIGHLAND AVE, SAN BERNARDINO, CA, 92404",144655105,"R"
80198,"165 E KAWILI STREET","HILO","HI",96720,19.705803706,-155.069739975,198,"165 E KAWILI STREET, HILO, HI, 96720","Match","Exact","165 E KAWILI ST, HILO, HI, 96720",614313646,"R"
80199,"165 E WASHINGTON ROW","SANDUSKY","OH",44870,41.4556175380001,-82.710125508,199,"165 E WASHINGTON ROW, SANDUSKY, OH, 44870","Match","Exact","165 E WASHINGTON ROW, SANDUSKY, OH, 44870",55324244,"L"
80200,"165 EAST 100 SOUTH","SMITHFIELD","UT",84335,41.834385318,-111.82809445,200,"165 EAST 100 SOUTH, SMITHFIELD, UT, 84335","Match","Exact","165 E 100 S, SMITHFIELD, UT, 84335",155090645,"R"
80201,"165 EAST 58TH STREET - SUITE 3A","BROOKLYN","NY",11203,40.651098088,-73.9225675339999,201,"165 EAST 58TH STREET - SUITE 3A, BROOKLYN, NY, 11203","Match","Exact","165 E 58TH ST, BROOKLYN, NY, 11203",59085856,"L"
80202,"165 EAST BAGLEY ROAD","BEREA","OH",44017,41.3724773590001,-81.8453026879999,202,"165 EAST BAGLEY ROAD, BEREA, OH, 44017","Match","Exact","165 E BAGLEY RD, BEREA, OH, 44017",61099649,"L"
80203,"165 ECHO AVE","EDISON","NJ",8837,40.5378871870001,-74.3366018729999,203,"165 ECHO AVE, EDISON, NJ, 8837","Match","Exact","165 ECHO AVE, EDISON, NJ, 08837",60362323,"L"
80204,"165 ELEMENTARY WAY","BLAIRSVILLE","GA",30512,NA,NA,204,"165 ELEMENTARY WAY, BLAIRSVILLE, GA, 30512","No_Match",NA,NA,NA,NA
80205,"165 FAIRMONT AVENUE","WORCESTER","MA",1604,42.25427018,-71.7793833659999,205,"165 FAIRMONT AVENUE, WORCESTER, MA, 1604","Match","Exact","165 FAIRMONT AVE, WORCESTER, MA, 01604",40014376,"L"
80206,"165 FAIRVIEW RD","DICKSON","TN",37055,36.106437531,-87.339136437,206,"165 FAIRVIEW RD, DICKSON, TN, 37055","Match","Exact","165 FAIRVIEW RD, DICKSON, TN, 37055",72757508,"L"
80207,"165 FENDALE RD","WILLIAMSVILLE","NY",14221,NA,NA,207,"165 FENDALE RD, WILLIAMSVILLE, NY, 14221","No_Match",NA,NA,NA,NA
80208,"165 FILLOW STREET","NORWALK","CT",6850,41.1190161910001,-73.4452199,208,"165 FILLOW STREET, NORWALK, CT, 6850","Match","Exact","165 FILLOW ST, NORWALK, CT, 06850",602550545,"L"
80209,"165 FOGGY BOTTOM DRIVE","CARROLLTON","GA",30116,33.5574749690001,-85.019681986,209,"165 FOGGY BOTTOM DRIVE, CARROLLTON, GA, 30116","Match","Exact","165 FOGGY BOTTOM DR, CARROLLTON, GA, 30116",17128215,"R"
80210,"165 FOREST HEIGHTS LANE","LIVINGSTON","TN",38570,36.296690402,-85.3540871499999,210,"165 FOREST HEIGHTS LANE, LIVINGSTON, TN, 38570","Match","Exact","165 FOREST HEIGHTS LN, LIVINGSTON, TN, 38570",24739380,"L"
80211,"165 FOX MEADOW LANE","HOPKINS","SC",29061,33.942649809,-80.838714513,211,"165 FOX MEADOW LANE, HOPKINS, SC, 29061","Match","Exact","165 FOX MEADOW LN, HOPKINS, SC, 29061",71831967,"L"
80212,"165 FREMONT ST S","LEWISTON","MN",55952,43.9799351890001,-91.8691442049999,212,"165 FREMONT ST S, LEWISTON, MN, 55952","Match","Non_Exact","165 FREMONT ST, LEWISTON, MN, 55952",31671424,"L"
80213,"165 GATES SCHOOL ROAD","GATES","NC",27937,36.497988945,-76.797905841,213,"165 GATES SCHOOL ROAD, GATES, NC, 27937","Match","Exact","165 GATES SCHOOL RD, GATES, NC, 27937",18580428,"L"
80214,"165 GEORGE HAMMOND RD","WEST LIBERTY","KY",41472,37.9087291650001,-83.299631037,214,"165 GEORGE HAMMOND RD, WEST LIBERTY, KY, 41472","Match","Non_Exact","165 GEORGE HAMMONDS RD, WEST LIBERTY, KY, 41472",33727066,"L"
80215,"165 GRANITE STREET","MEDFIELD","MA",2052,42.151406668,-71.286871235,215,"165 GRANITE STREET, MEDFIELD, MA, 2052","Match","Exact","165 GRANITE ST, MEDFIELD, MA, 02052",631988096,"R"
80216,"165 GREEN HILLS LANE","ANDERSONVILLE","TN",37705,NA,NA,216,"165 GREEN HILLS LANE, ANDERSONVILLE, TN, 37705","No_Match",NA,NA,NA,NA
80217,"165 H BRITTON STREET","SAN FRANCISCO","CA",94134,37.712249376,-122.412708403,217,"165 H BRITTON STREET, SAN FRANCISCO, CA, 94134","Match","Exact","165 BRITTON ST, SAN FRANCISCO, CA, 94134",192290360,"L"
80218,"165 HARDING AVENUE UNIT 1C","WHITE PLAINS","NY",10606,41.03171754,-73.779407326,218,"165 HARDING AVENUE UNIT 1C, WHITE PLAINS, NY, 10606","Match","Exact","165 HARDING AVE, WHITE PLAINS, NY, 10606",139841331,"R"
80219,"165 HAWKINS CIR","WHEATON","IL",60189,41.8361493830001,-88.09546305,219,"165 HAWKINS CIR, WHEATON, IL, 60189","Match","Exact","165 HAWKINS CIR, WHEATON, IL, 60189",112593509,"L"
80220,"165 HENRY STREET APT 202","NEW YORK","NY",10002,40.713460696,-73.989269135,220,"165 HENRY STREET APT 202, NEW YORK, NY, 10002","Match","Exact","165 HENRY ST, NEW YORK, NY, 10002",59654297,"L"
80221,"165 HIDDEN LAKE LANE","EMPIRE","AL",35063,33.8213927410001,-86.9506811159999,221,"165 HIDDEN LAKE LANE, EMPIRE, AL, 35063","Match","Exact","165 HIDDEN LAKE LN, EMPIRE, AL, 35063",99090581,"L"
80222,"165 HIETT COURT","FAYETTEVILLE","GA",30214,33.4817944640001,-84.524652497,222,"165 HIETT COURT, FAYETTEVILLE, GA, 30214","Match","Exact","165 HIETT CT, FAYETTEVILLE, GA, 30214",617096246,"R"
80223,"165 HIGHLAND DRIVE NORTH","SEDONA","AZ",86351,34.801775122,-111.78831291,223,"165 HIGHLAND DRIVE NORTH, SEDONA, AZ, 86351","Match","Exact","165 HIGHLAND DR N, SEDONA, AZ, 86351",159507119,"L"
80224,"165 HOLMES AVE","DARIEN","CT",6820,41.0758623880001,-73.51288019,224,"165 HOLMES AVE, DARIEN, CT, 6820","Match","Exact","165 HOLMES AVE, DARIEN, CT, 06820",618526255,"R"
80225,"165 HOPE ST","CUMBERLAND","RI",2864,41.9221239880001,-71.390817773,225,"165 HOPE ST, CUMBERLAND, RI, 2864","Match","Exact","165 HOPE ST, CUMBERLAND, RI, 02864",638996784,"L"
80226,"165 JASTRAM STREET","PROVIDENCE","RI",2908,41.83982983,-71.443093604,226,"165 JASTRAM STREET, PROVIDENCE, RI, 2908","Match","Exact","165 JASTRAM ST, PROVIDENCE, RI, 02908",47458040,"R"
80227,"165 JORDAN DRIVE APT 19","GRANITE FALLS","MN",56241,44.8124206800001,-95.522769345,227,"165 JORDAN DRIVE APT 19, GRANITE FALLS, MN, 56241","Match","Exact","165 JORDAN DR, GRANITE FALLS, MN, 56241",613778192,"R"
80228,"165 JULIA CT","FAYETTEVILLE","GA",30214,NA,NA,228,"165 JULIA CT, FAYETTEVILLE, GA, 30214","No_Match",NA,NA,NA,NA
80229,"165 JUNIPER DRIVE","SOUTH BURLINGTON","VT",5403,44.4725484140001,-73.174515917,229,"165 JUNIPER DRIVE, SOUTH BURLINGTON, VT, 5403","Match","Exact","165 JUNIPER DR, S BURLINGTON, VT, 05403",135856755,"R"
80230,"165 KEAWE STREET SUITE 102B","HILO","HI",96720,19.7239669000001,-155.086721442,230,"165 KEAWE STREET SUITE 102B, HILO, HI, 96720","Match","Exact","165 KEAWE ST, HILO, HI, 96720",203000637,"R"
80231,"165 KILMARLIC CLUB DR","POWELLS POINT","NC",27966,36.1128313350001,-75.84600703,231,"165 KILMARLIC CLUB DR, POWELLS POINT, NC, 27966","Match","Exact","165 KILMARLIC CLUB DR, POWELLS POINT, NC, 27966",81389310,"R"
80232,"165 LAKE ARBOR DRIVE","PALM SPRINGS","FL",33461,26.6381518000001,-80.0840971169999,232,"165 LAKE ARBOR DRIVE, PALM SPRINGS, FL, 33461","Match","Exact","165 LAKE ARBOR DR, PALM SPRINGS, FL, 33461",640924418,"L"
80233,"165 LAPALOMA DRIVE","RAWLINS","WY",82301,NA,NA,233,"165 LAPALOMA DRIVE, RAWLINS, WY, 82301","No_Match",NA,NA,NA,NA
80234,"165 LAUREL DRIVE","SEWANEE","TN",37375,NA,NA,234,"165 LAUREL DRIVE, SEWANEE, TN, 37375","No_Match",NA,NA,NA,NA
80235,"165 LENOX STREET","NORWOOD","MA",2062,42.18951925,-71.198536068,235,"165 LENOX STREET, NORWOOD, MA, 2062","Match","Exact","165 LENOX ST, NORWOOD, MA, 02062",87243737,"R"
80236,"165 LEWIS LANE","FAIR HAVEN","NJ",7704,40.3651443470001,-74.044819871,236,"165 LEWIS LANE, FAIR HAVEN, NJ, 7704","Match","Exact","165 LEWIS LN, FAIR HAVEN, NJ, 07704",90452499,"R"
80237,"165 LINCOLN DRIVE","SHINNSTON","WV",26431,NA,NA,237,"165 LINCOLN DRIVE, SHINNSTON, WV, 26431","No_Match",NA,NA,NA,NA
80238,"165 LINWOOD AVENUE","RIDGEWOOD","NJ",7450,40.984048144,-74.113353832,238,"165 LINWOOD AVENUE, RIDGEWOOD, NJ, 7450","Match","Exact","165 LINWOOD AVE, RIDGEWOOD, NJ, 07450",64376523,"L"
80239,"165 LIVERMORE AVENUE","STATEN ISLAND","NY",10314,40.6200841620001,-74.137962342,239,"165 LIVERMORE AVENUE, STATEN ISLAND, NY, 10314","Match","Exact","165 LIVERMORE AVE, STATEN ISLAND, NY, 10314",59871479,"L"
80240,"165 LOCKE STREET C","TALLAHASSEE","FL",32303,30.471363496,-84.278419263,240,"165 LOCKE STREET C, TALLAHASSEE, FL, 32303","Match","Exact","165 LOCKE ST, TALLAHASSEE, FL, 32303",82887427,"R"
80241,"165 LOCUST STREET","ATTLEBORO","MA",2703,41.9193035380001,-71.285449034,241,"165 LOCUST STREET, ATTLEBORO, MA, 2703","Match","Exact","165 LOCUST ST, ATTLEBORO, MA, 02703",46748498,"R"
80242,"165 LONGMEADOW AVE","WARWICK","RI",2889,41.705226184,-71.371481976,242,"165 LONGMEADOW AVE, WARWICK, RI, 2889","Match","Exact","165 LONGMEADOW AVE, WARWICK, RI, 02889",159151889,"R"
80243,"165 M L KING AVE","ST AUGUSTINE","FL",32084,29.8812936730001,-81.3131525329999,243,"165 M L KING AVE, ST AUGUSTINE, FL, 32084","Match","Exact","165 M L KING AVE, SAINT AUGUSTINE, FL, 32084",92582815,"R"
80244,"165 MAIN ST","BOONVILLE","NY",13309,43.4830927040001,-75.333000176,244,"165 MAIN ST, BOONVILLE, NY, 13309","Match","Exact","165 MAIN ST, BOONVILLE, NY, 13309",171567016,"L"
80245,"165 MAIN ST","WINDSOR","VT",5089,43.4767931010001,-72.387772028,245,"165 MAIN ST, WINDSOR, VT, 5089","Match","Exact","165 MAIN ST, WINDSOR, VT, 05089",139257115,"R"
80246,"165 MAIN STREET","NORTH CREEK","NY",12853,43.6953512630001,-73.984700934,246,"165 MAIN STREET, NORTH CREEK, NY, 12853","Match","Exact","165 MAIN ST, NORTH CREEK, NY, 12853",173924105,"L"
80247,"165 MAIN STREET","ROCKPORT","MA",1966,42.6522086480001,-70.624667303,247,"165 MAIN STREET, ROCKPORT, MA, 1966","Match","Exact","165 MAIN ST, ROCKPORT, MA, 01966",86702996,"R"
80248,"165 MARKS DRIVE","HOLLISTER","CA",95023,36.8108278060001,-121.368739263,248,"165 MARKS DRIVE, HOLLISTER, CA, 95023","Match","Exact","165 MARKS DR, HOLLISTER, CA, 95023",651349820,"R"
80249,"165 MCPHERSON RD","HALLSVILLE","TX",75650,32.4621087800001,-94.580173047,249,"165 MCPHERSON RD, HALLSVILLE, TX, 75650","Match","Exact","165 MCPHERSON RD, HALLSVILLE, TX, 75650",635865778,"L"
80250,"165 MEADOW LANE","LONG LAKE","MN",55356,44.9811428360001,-93.5641279289999,250,"165 MEADOW LANE, LONG LAKE, MN, 55356","Match","Exact","165 MEADOW LN, LONG LAKE, MN, 55356",43818776,"R"
80251,"165 MINUTEMEN CAUSEWAY","COCOA BEACH","FL",32931,28.318455429,-80.6096537129999,251,"165 MINUTEMEN CAUSEWAY, COCOA BEACH, FL, 32931","Match","Exact","165 MINUTEMEN CSWY, COCOA BEACH, FL, 32931",93899508,"R"
80252,"165 MYERS RD","BOSSIER CITY","LA",71111,32.6144831140001,-93.701432758,252,"165 MYERS RD, BOSSIER CITY, LA, 71111","Match","Exact","165 MYERS RD, BOSSIER CITY, LA, 71111",604718768,"L"
80253,"165 N 1650 W APT E302","PLEASANT GROVE","UT",84062,40.3678361940001,-111.764298092,253,"165 N 1650 W APT E302, PLEASANT GROVE, UT, 84062","Match","Non_Exact","165 N 1650 W, PLEASANT GROVE, UT, 84062",651131302,"L"
80254,"165 N ALMONT DRIVE UNIT 302","BEVERLY HILLS","CA",90211,NA,NA,254,"165 N ALMONT DRIVE UNIT 302, BEVERLY HILLS, CA, 90211","Tie",NA,NA,NA,NA
80255,"165 N CANAL ST SUITE 609","CHICAGO","IL",60606,41.884982941,-87.6398124519999,255,"165 N CANAL ST SUITE 609, CHICAGO, IL, 60606","Match","Non_Exact","165 N CANAL ST, CHICAGO, IL, 60606",111768561,"R"
80256,"165 N KIRK STREET","LYONS","IN",47443,38.990419783,-87.08676273,256,"165 N KIRK STREET, LYONS, IN, 47443","Match","Exact","165 N KIRK ST, LYONS, IN, 47443",39297285,"L"
80257,"165 N MERAMEC AVE STE 110","ST LOUIS","MO",63105,NA,NA,257,"165 N MERAMEC AVE STE 110, ST LOUIS, MO, 63105","Tie",NA,NA,NA,NA
80258,"165 N MERAMEC AVE SUITE 110","ST LOUIS","MO",63105,NA,NA,258,"165 N MERAMEC AVE SUITE 110, ST LOUIS, MO, 63105","Tie",NA,NA,NA,NA
80259,"165 N TOUSSAINT ST","OAK HARBOR","OH",43449,41.509413846,-83.151684226,259,"165 N TOUSSAINT ST, OAK HARBOR, OH, 43449","Match","Exact","165 TOUSSAINT ST, OAK HARBOR, OH, 43449",44064611,"L"
80260,"165 N WOLF STREET","MANHEIM","PA",17545,40.1673796750001,-76.3976029089999,260,"165 N WOLF STREET, MANHEIM, PA, 17545","Match","Exact","165 N WOLF ST, MANHEIM, PA, 17545",179654399,"L"
80261,"165 NORMAN CIRCLE","ABERDEEN","NC",28315,35.0980075040001,-79.423183035,261,"165 NORMAN CIRCLE, ABERDEEN, NC, 28315","Match","Exact","165 NORMAN CIR, ABERDEEN, NC, 28315",617918675,"L"
80262,"165 NORTH 5TH ST APT 109","PORT HUENEME","CA",93041,34.148780392,-119.193907599,262,"165 NORTH 5TH ST APT 109, PORT HUENEME, CA, 93041","Match","Exact","165 N 5TH ST, PORT HUENEME, CA, 93041",651147569,"L"
80263,"165 NORTH COLUMBUS AVENUE","MOUNT VERNON","NY",10553,40.9171801160001,-73.824997348,263,"165 NORTH COLUMBUS AVENUE, MOUNT VERNON, NY, 10553","Match","Exact","165 N COLUMBUS AVE, MOUNT VERNON, NY, 10553",652208220,"R"
80264,"165 NORTH WILKES-BARRE BLVD","WILKES-BARRE","PA",18702,41.2450558620001,-75.871926027,264,"165 NORTH WILKES-BARRE BLVD, WILKES-BARRE, PA, 18702","Match","Non_Exact","165 WILKES-BARRE BLVD, WILKES BARRE, PA, 18702",649646519,"L"
80265,"165 NUTT ROAD SUITE D","PHOENIXVILLE","PA",19460,40.124458786,-75.514999582,265,"165 NUTT ROAD SUITE D, PHOENIXVILLE, PA, 19460","Match","Exact","165 NUTT RD, PHOENIXVILLE, PA, 19460",179529116,"R"
80266,"165 OLIVER AVE UNIT 3","YONKERS","NY",10701,40.932079061,-73.8846392089999,266,"165 OLIVER AVE UNIT 3, YONKERS, NY, 10701","Match","Exact","165 OLIVER AVE, YONKERS, NY, 10701",139743887,"L"
80267,"165 OLIVER ST","RIVERHEAD","NY",11901,40.9338744680001,-72.663323364,267,"165 OLIVER ST, RIVERHEAD, NY, 11901","Match","Exact","165 OLIVER ST, RIVERHEAD, NY, 11901",114023927,"R"
80268,"165 ORINOCO DR","BRIGHTWATERS","NY",11718,40.7210092560001,-73.265180404,268,"165 ORINOCO DR, BRIGHTWATERS, NY, 11718","Match","Exact","165 ORINOCO DR, BRIGHTWATERS, NY, 11718",113996123,"R"
80269,"165 PALM COURT DRIVE","SANTA MARIA","CA",93454,34.940376816,-120.435396869,269,"165 PALM COURT DRIVE, SANTA MARIA, CA, 93454","Match","Exact","165 PALM COURT DR, SANTA MARIA, CA, 93454",108633669,"L"
80270,"165 PARK AVE","CAYUCOS","CA",93430,35.4471103560001,-120.898413196,270,"165 PARK AVE, CAYUCOS, CA, 93430","Match","Exact","165 PARK AVE, CAYUCOS, CA, 93430",109722979,"L"
80271,"165 PARK DRIVE","REEDSVILLE","PA",17084,40.69068608,-77.60036736,271,"165 PARK DRIVE, REEDSVILLE, PA, 17084","Match","Exact","165 PARK DR, REEDSVILLE, PA, 17084",48026606,"L"
80272,"165 PENNY LANE","ROBERT LEE","TX",76945,31.9115139460001,-100.606773104,272,"165 PENNY LANE, ROBERT LEE, TX, 76945","Match","Exact","165 PENNY LN, ROBERT LEE, TX, 76945",187488893,"R"
80273,"165 PIDGEON HILL ROAD","HUNTINGTON STATION","NY",11746,40.822232136,-73.389245332,273,"165 PIDGEON HILL ROAD, HUNTINGTON STATION, NY, 11746","Match","Exact","165 PIDGEON HILL RD, HUNTINGTON STATION, NY, 11746",113967132,"R"
80274,"165 PIER AVENUE","FAIRHOPE","AL",36532,30.5152935690001,-87.910782539,274,"165 PIER AVENUE, FAIRHOPE, AL, 36532","Match","Exact","165 PIER AVE, FAIRHOPE, AL, 36532",131697492,"L"
80275,"165 PIN OAK LANE","TANNERSVILLE","PA",18372,41.0540162550001,-75.290521859,275,"165 PIN OAK LANE, TANNERSVILLE, PA, 18372","Match","Exact","165 PIN OAK LN, TANNERSVILLE, PA, 18372",136757957,"L"
80276,"165 PLEASANT STREET UNIT 110","CAMBRIDGE","MA",2139,42.359245704,-71.113764222,276,"165 PLEASANT STREET UNIT 110, CAMBRIDGE, MA, 2139","Match","Exact","165 PLEASANT ST, CAMBRIDGE, MA, 02139",86869752,"R"
80277,"165 PONCE DE LEON AVE STE 201","SAN JUAN","PR",917,NA,NA,277,"165 PONCE DE LEON AVE STE 201, SAN JUAN, PR, 917","No_Match",NA,NA,NA,NA
80278,"165 POPLAR RIDGE ROAD","PITTSBURGH","PA",15235,40.4646084280001,-79.816317941,278,"165 POPLAR RIDGE ROAD, PITTSBURGH, PA, 15235","Match","Exact","165 POPLAR RIDGE RD, PITTSBURGH, PA, 15235",51668369,"L"
80279,"165 POWELL LN","UPPER DARBY","PA",19082,39.958797797,-75.252605004,279,"165 POWELL LN, UPPER DARBY, PA, 19082","Match","Exact","165 POWELL LN, UPPER DARBY, PA, 19082",134878395,"L"
80280,"165 PR 5972","YANTIS","TX",75497,NA,NA,280,"165 PR 5972, YANTIS, TX, 75497","No_Match",NA,NA,NA,NA
80281,"165 PROSPECT ST","NORWOOD","MA",2062,42.2018918360001,-71.204835965,281,"165 PROSPECT ST, NORWOOD, MA, 2062","Match","Exact","165 PROSPECT ST, NORWOOD, MA, 02062",87243532,"R"
80282,"165 QUINCY ST APT 2A","BROOKLYN","NY",11216,40.686553471,-73.954245912,282,"165 QUINCY ST APT 2A, BROOKLYN, NY, 11216","Match","Exact","165 QUINCY ST, BROOKLYN, NY, 11216",59078874,"L"
80283,"165 RAMONA STREET","PITTSBURG","CA",94565,38.0011319440001,-121.896283885,283,"165 RAMONA STREET, PITTSBURG, CA, 94565","Match","Exact","165 RAMONA ST, PITTSBURG, CA, 94565",192061004,"L"
80284,"165 REARICKS FORDING ROAD","FORD CITY","PA",16226,40.643041188,-79.46614568,284,"165 REARICKS FORDING ROAD, FORD CITY, PA, 16226","Match","Exact","165 REARICKS FORDING RD, FORD CITY, PA, 16226",52483697,"L"
80285,"165 RED CEDAR RD","MOORESVILLE","NC",28115,35.5823148490001,-80.72054564,285,"165 RED CEDAR RD, MOORESVILLE, NC, 28115","Match","Exact","165 RED CEDAR RD, MOORESVILLE, NC, 28115",651426113,"L"
80286,"165 REGENCY PARK DR","MCDONOUGH","GA",30253,33.430041895,-84.172756809,286,"165 REGENCY PARK DR, MCDONOUGH, GA, 30253","Match","Exact","165 REGENCY PARK DR, MCDONOUGH, GA, 30253",23201518,"R"
80287,"165 RESERVOIR DRIVE 1017","CANTON","GA",30114,NA,NA,287,"165 RESERVOIR DRIVE 1017, CANTON, GA, 30114","No_Match",NA,NA,NA,NA
80288,"165 RIVER VIEW DR","SCOTT CITY","MO",63780,37.178718067,-89.4582673099999,288,"165 RIVER VIEW DR, SCOTT CITY, MO, 63780","Match","Exact","165 RIVER VIEW DR, SCOTT CITY, MO, 63780",38951577,"L"
80289,"165 RIVER WATCH DR","COVINGTON","GA",30014,33.623413934,-83.914708904,289,"165 RIVER WATCH DR, COVINGTON, GA, 30014","Match","Exact","165 RIVER WATCH DR, COVINGTON, GA, 30014",606449302,"L"
80290,"165 RODNEY AVE","BUFFALO","NY",14214,42.9360891640001,-78.836249036,290,"165 RODNEY AVE, BUFFALO, NY, 14214","Match","Exact","165 RODNEY AVE, BUFFALO, NY, 14214",48296250,"R"
80291,"165 S GREAT RD","LINCOLN","MA",1773,42.411790878,-71.336213581,291,"165 S GREAT RD, LINCOLN, MA, 1773","Match","Exact","165 S GREAT RD, LINCOLN, MA, 01773",87100640,"R"
80292,"165 SANTA ROSA AVE","OAKLAND","CA",94610,37.8198191870001,-122.250766983,292,"165 SANTA ROSA AVE, OAKLAND, CA, 94610","Match","Exact","165 SANTA ROSA AVE, OAKLAND, CA, 94610",652205382,"R"
80293,"165 SAVANNAH TRAIL","EUBANK","KY",42567,37.2361983960001,-84.5455426029999,293,"165 SAVANNAH TRAIL, EUBANK, KY, 42567","Match","Exact","165 SAVANNAH TRL, EUBANK, KY, 42567",650968878,"R"
80294,"165 SCHOFIELD STREET","BRONX","NY",10464,40.8453166240001,-73.7848216959999,294,"165 SCHOFIELD STREET, BRONX, NY, 10464","Match","Exact","165 SCHOFIELD ST, BRONX, NY, 10464",648088129,"L"
80295,"165 SHAW AVENUE","CRANSTON","RI",2905,41.775095709,-71.396680777,295,"165 SHAW AVENUE, CRANSTON, RI, 2905","Match","Exact","165 SHAW AVE, CRANSTON, RI, 02905",47484990,"R"
80296,"165 SOUTH 4TH STREET","STE GENEVIEVE","MO",63670,37.978182372,-90.047376964,296,"165 SOUTH 4TH STREET, STE GENEVIEVE, MO, 63670","Match","Exact","165 S 4TH ST, STE GENEVIEVE, MO, 63670",62977977,"L"
80297,"165 SPICEWOOD DR","BOONE","NC",28607,36.235709409,-81.6689673129999,297,"165 SPICEWOOD DR, BOONE, NC, 28607","Match","Exact","165 SPICEWOOD DR, BOONE, NC, 28607",651120305,"R"
80298,"165 SPRINGVIEW ST","SODA SPRINGS","ID",83276,NA,NA,298,"165 SPRINGVIEW ST, SODA SPRINGS, ID, 83276","No_Match",NA,NA,NA,NA
80299,"165 STONE ROAD","BLAINE","TN",37709,36.1677783230001,-83.607835482,299,"165 STONE ROAD, BLAINE, TN, 37709","Match","Exact","165 STONE RD, BLAINE, TN, 37709",645586886,"R"
80300,"165 STONECREST DR","SAN FRANCISCO","CA",94132,37.7275150780001,-122.474142588,300,"165 STONECREST DR, SAN FRANCISCO, CA, 94132","Match","Exact","165 STONECREST DR, SAN FRANCISCO, CA, 94132",192278640,"L"
80301,"165 SYCAMORE TRACE ROAD","ELIZABETHTOWN","KY",42701,37.8015842950001,-85.848737731,301,"165 SYCAMORE TRACE ROAD, ELIZABETHTOWN, KY, 42701","Match","Exact","165 SYCAMORE TRACE RD, ELIZABETHTOWN, KY, 42701",34630592,"L"
80302,"165 TALBERT ST","SAN FRANCISCO","CA",94134,37.709934246,-122.406550991,302,"165 TALBERT ST, SAN FRANCISCO, CA, 94134","Match","Exact","165 TALBERT ST, SAN FRANCISCO, CA, 94134",192290750,"L"
80303,"165 TALL TREE LN","FOLEY","MO",63347,39.0666557280001,-90.845851264,303,"165 TALL TREE LN, FOLEY, MO, 63347","Match","Exact","165 TALL TREE LN, FOLEY, MO, 63347",44875291,"L"
80304,"165 TOM HANCOCK ROAD","BEAR CREEK","NC",27207,35.5812220830001,-79.429941775,304,"165 TOM HANCOCK ROAD, BEAR CREEK, NC, 27207","Match","Exact","165 TOM HANCOCK RD, BEAR CREEK, NC, 27207",636573280,"R"
80305,"165 UPAND RD","CAMBRIDGE","MA",2140,NA,NA,305,"165 UPAND RD, CAMBRIDGE, MA, 2140","No_Match",NA,NA,NA,NA
80306,"165 W ANGUS RD","SAN TAN VALLEY","AZ",85143,33.198621729,-111.567467459,306,"165 W ANGUS RD, SAN TAN VALLEY, AZ, 85143","Match","Exact","165 W ANGUS RD, SAN TAN VALLEY, AZ, 85143",627631733,"R"
80307,"165 W FAYETTE ST","HILLSDALE","MI",49242,NA,NA,307,"165 W FAYETTE ST, HILLSDALE, MI, 49242","Tie",NA,NA,NA,NA
80308,"165 W FRANKLIN STREET","MONTEREY","CA",93940,36.599872852,-121.893745188,308,"165 W FRANKLIN STREET, MONTEREY, CA, 93940","Match","Non_Exact","165 E FRANKLIN ST, MONTEREY, CA, 93940",196815076,"R"
80309,"165 W SAGINAW RD / PO BOX 98","SANFORD","MI",48657,NA,NA,309,"165 W SAGINAW RD / PO BOX 98, SANFORD, MI, 48657","Tie",NA,NA,NA,NA
80310,"165 W WASHINGTON ST","BURLINGTON","WI",53105,42.6779041660001,-88.279726909,310,"165 W WASHINGTON ST, BURLINGTON, WI, 53105","Match","Exact","165 W WASHINGTON ST, BURLINGTON, WI, 53105",77902086,"R"
80311,"165 W WIEUCA RD NE SUITE 211","ATLANTA","GA",30342,33.8773489450001,-84.380881801,311,"165 W WIEUCA RD NE SUITE 211, ATLANTA, GA, 30342","Match","Non_Exact","165 W WIEUCA RD NE, ATLANTA, GA, 30342",648716295,"R"
80312,"165 WEBB DRIVE","BOWLING GREEN","KY",42101,NA,NA,312,"165 WEBB DRIVE, BOWLING GREEN, KY, 42101","No_Match",NA,NA,NA,NA
80313,"165 WEBSTER STREET","EAST BOSTON","MA",2128,42.365749459,-71.034829386,313,"165 WEBSTER STREET, EAST BOSTON, MA, 2128","Match","Exact","165 WEBSTER ST, EAST BOSTON, MA, 02128",85722209,"R"
80314,"165 WELLS ROAD SUITE 304","ORANGE PARK","FL",32073,30.1854383730001,-81.698641478,314,"165 WELLS ROAD SUITE 304, ORANGE PARK, FL, 32073","Match","Exact","165 WELLS RD, ORANGE PARK, FL, 32073",606233445,"R"
80315,"165 WEST EAGLE STREET","PAINESVILLE","OH",44077,41.7176820660001,-81.260394869,315,"165 WEST EAGLE STREET, PAINESVILLE, OH, 44077","Match","Exact","165 W EAGLE ST, PAINESVILLE, OH, 44077",635645934,"L"
80316,"165 WEST END AVENUE APT 21P","NEW YORK","NY",10023,40.7768645450001,-73.98662846,316,"165 WEST END AVENUE APT 21P, NEW YORK, NY, 10023","Match","Exact","165 W END AVE, NEW YORK, NY, 10023",650066893,"L"
80317,"165 WEST ROBERTSON STREET","BRANDON","FL",33511,27.93578531,-82.286733894,317,"165 WEST ROBERTSON STREET, BRANDON, FL, 33511","Match","Exact","165 W ROBERTSON ST, BRANDON, FL, 33511",104634797,"L"
80318,"165 WEST WIEUCA RD SUITE 314","ATLANTA","GA",30342,NA,NA,318,"165 WEST WIEUCA RD SUITE 314, ATLANTA, GA, 30342","Tie",NA,NA,NA,NA
80319,"165 WEYMOUTH RD","ENFIELD","CT",6082,41.9486770230001,-72.5727458969999,319,"165 WEYMOUTH RD, ENFIELD, CT, 6082","Match","Exact","165 WEYMOUTH RD, ENFIELD, CT, 06082",3481961,"L"
80320,"165 WHIPPANY ROAD","WHIPPANY","NJ",7981,40.816472279,-74.423936844,320,"165 WHIPPANY ROAD, WHIPPANY, NJ, 7981","Match","Exact","165 WHIPPANY RD, WHIPPANY, NJ, 07981",60514028,"L"
80321,"165 WILLIAM STREET 8TH FLOOR","NEW YORK","NY",10038,40.7100628760001,-74.0059475529999,321,"165 WILLIAM STREET 8TH FLOOR, NEW YORK, NY, 10038","Match","Exact","165 WILLIAM ST, NEW YORK, NY, 10038",59660516,"L"
80322,"165 WOODLAND AVE","VERONA","NJ",7044,40.8361266420001,-74.2392372419999,322,"165 WOODLAND AVE, VERONA, NJ, 7044","Match","Exact","165 WOODLAND AVE, VERONA, NJ, 07044",63446871,"L"
80323,"165-01 BAISLEY BOULEVARD","JAMAICA","NY",11434,40.6790876310001,-73.778327084,323,"165-01 BAISLEY BOULEVARD, JAMAICA, NY, 11434","Match","Exact","165-01 BAISLEY BLVD, JAMAICA, NY, 11434",59718878,"L"
80324,"165-100 BAISLEY BOULEVARD 340355","JAMAICA","NY",11434,40.6793429470001,-73.777814069,324,"165-100 BAISLEY BOULEVARD 340355, JAMAICA, NY, 11434","Match","Exact","165-100 BAISLEY BLVD, JAMAICA, NY, 11434",59718878,"R"
80325,"165-12 CROCHERON AVE","FLUSHING","NY",11358,40.7629129860001,-73.800632793,325,"165-12 CROCHERON AVE, FLUSHING, NY, 11358","Match","Exact","165-12 CROCHERON AVE, FLUSHING, NY, 11358",59702278,"R"
80326,"165-12 CROCHERON AVENUE","FLUSHING","NY",11358,40.7629129860001,-73.800632793,326,"165-12 CROCHERON AVENUE, FLUSHING, NY, 11358","Match","Exact","165-12 CROCHERON AVE, FLUSHING, NY, 11358",59702278,"R"
80327,"165","SAN ANTONIO","TX",78251,NA,NA,327,"165, SAN ANTONIO, TX, 78251","No_Match",NA,NA,NA,NA
80328,"1650 46TH PL SE","SALEM","OR",97317,44.910738365,-122.967212518,328,"1650 46TH PL SE, SALEM, OR, 97317","Match","Exact","1650 46TH PL SE, SALEM, OR, 97317",613682635,"L"
80329,"1650 8TH AVE STE 2","HUNTINGTON","WV",25703,38.41747329,-82.428216832,329,"1650 8TH AVE STE 2, HUNTINGTON, WV, 25703","Match","Exact","1650 8TH AVE, HUNTINGTON, WV, 25703",636129136,"L"
80330,"1650 8TH AVE","HUNTINGTON","WV",25701,38.41747329,-82.428216832,330,"1650 8TH AVE, HUNTINGTON, WV, 25701","Match","Non_Exact","1650 8TH AVE, HUNTINGTON, WV, 25703",636129136,"L"
80331,"1650 8TH AVENUE","HUNTINGTON","WV",25703,38.41747329,-82.428216832,331,"1650 8TH AVENUE, HUNTINGTON, WV, 25703","Match","Exact","1650 8TH AVE, HUNTINGTON, WV, 25703",636129136,"L"
80332,"1650 AIRPORT DR","CLEBURNE","TX",76033,32.3598945100001,-97.431936949,332,"1650 AIRPORT DR, CLEBURNE, TX, 76033","Match","Exact","1650 AIRPORT DR, CLEBURNE, TX, 76033",103516042,"L"
80333,"1650 ALA MOANA BLVD SUITE 2107","HONOLULU","HI",96815,NA,NA,333,"1650 ALA MOANA BLVD SUITE 2107, HONOLULU, HI, 96815","No_Match",NA,NA,NA,NA
80334,"1650 ANDERSON MILL ROAD","AUSTELL","GA",30106,33.848043316,-84.602356711,334,"1650 ANDERSON MILL ROAD, AUSTELL, GA, 30106","Match","Exact","1650 ANDERSON MILL RD, AUSTELL, GA, 30106",614186204,"R"
80335,"1650 BANEBERRY LANE","GOLDEN","CO",80401,39.6868287140001,-105.269575787,335,"1650 BANEBERRY LANE, GOLDEN, CO, 80401","Match","Exact","1650 BANEBERRY LN, GOLDEN, CO, 80401",177394950,"L"
80336,"1650 BARNES MILLS RD 633","MARIETTA","GA",30062,33.9718927920001,-84.5042604829999,336,"1650 BARNES MILLS RD 633, MARIETTA, GA, 30062","Match","Non_Exact","1650 BARNES MILL RD, MARIETTA, GA, 30062",17200850,"R"
80337,"1650 BIARRITZ DRIVE","MIAMI BEACH","FL",33141,25.8510252890001,-80.1361555729999,337,"1650 BIARRITZ DRIVE, MIAMI BEACH, FL, 33141","Match","Exact","1650 BIARRITZ DR, MIAMI BEACH, FL, 33141",116008673,"L"
80338,"1650 BROADWAY - SUITE 510","NEW YORK","NY",10019,40.7620141720001,-73.983652663,338,"1650 BROADWAY - SUITE 510, NEW YORK, NY, 10019","Match","Exact","1650 BROADWAY, NEW YORK, NY, 10019",59657105,"R"
80339,"1650 BROADWAY STE 1104","NEW YORK","NY",10019,40.7620141720001,-73.983652663,339,"1650 BROADWAY STE 1104, NEW YORK, NY, 10019","Match","Exact","1650 BROADWAY, NEW YORK, NY, 10019",59657105,"R"
80340,"1650 BYPASS SOUTH","LAWRENCEBURG","KY",40342,NA,NA,340,"1650 BYPASS SOUTH, LAWRENCEBURG, KY, 40342","No_Match",NA,NA,NA,NA
80341,"1650 CAVALIER DR","JEFFERSON CITY","MO",65109,NA,NA,341,"1650 CAVALIER DR, JEFFERSON CITY, MO, 65109","No_Match",NA,NA,NA,NA
80342,"1650 CHAMPAIGN RD","LINCOLN PARK","MI",48146,42.246935201,-83.18912139,342,"1650 CHAMPAIGN RD, LINCOLN PARK, MI, 48146","Match","Exact","1650 CHAMPAIGN RD, LINCOLN PARK, MI, 48146",95449453,"R"
80343,"1650 CIRCLE DR","RENO","NV",89509,39.507525656,-119.823693857,343,"1650 CIRCLE DR, RENO, NV, 89509","Match","Exact","1650 CIRCLE DR, RENO, NV, 89509",107044953,"L"
80344,"1650 COLONELS DRIVE","BUCKNER","KY",40010,NA,NA,344,"1650 COLONELS DRIVE, BUCKNER, KY, 40010","No_Match",NA,NA,NA,NA
80345,"1650 COUNTY ROAD 122","FORT RIPLEY","MN",56449,46.1803228530001,-94.230121788,345,"1650 COUNTY ROAD 122, FORT RIPLEY, MN, 56449","Match","Exact","1650 CO RD 122, FORT RIPLEY, MN, 56449",611825945,"R"
80346,"1650 DALE DOUGLAS","EL PASO","TX",79936,31.757518525,-106.308113014,346,"1650 DALE DOUGLAS, EL PASO, TX, 79936","Match","Non_Exact","1650 DALE DOUGLAS DR, EL PASO, TX, 79936",189349390,"R"
80347,"1650 DIAGONAL ROAD","AKRON","OH",44320,41.0676341990001,-81.571052626,347,"1650 DIAGONAL ROAD, AKRON, OH, 44320","Match","Exact","1650 DIAGONAL RD, AKRON, OH, 44320",61338698,"R"
80348,"1650 E 4TH ST","BROOKLYN","NY",11230,40.610382423,-73.9702077809999,348,"1650 E 4TH ST, BROOKLYN, NY, 11230","Match","Exact","1650 E 4TH ST, BROOKLYN, NY, 11230",59089772,"R"
80349,"1650 E HAYMARKET WAY","HUDSON","OH",44236,NA,NA,349,"1650 E HAYMARKET WAY, HUDSON, OH, 44236","Tie",NA,NA,NA,NA
80350,"1650 E SAHARA AVE SUITE 2","LAS VEGAS","NV",89104,36.1444296930001,-115.129532812,350,"1650 E SAHARA AVE SUITE 2, LAS VEGAS, NV, 89104","Match","Non_Exact","1650 E SAHARA AVE, LAS VEGAS, NV, 89104",201870897,"L"
80351,"1650 E STOREY RD","COOLIDGE","AZ",85128,NA,NA,351,"1650 E STOREY RD, COOLIDGE, AZ, 85128","No_Match",NA,NA,NA,NA
80352,"1650 EAST 11TH ST","WEISER","ID",83672,44.2582031760001,-116.949225259,352,"1650 EAST 11TH ST, WEISER, ID, 83672","Match","Exact","1650 E 11TH ST, WEISER, ID, 83672",138428670,"R"
80353,"1650 FARNAM STREET","OMAHA","NE",68102,41.2576111270001,-95.937695807,353,"1650 FARNAM STREET, OMAHA, NE, 68102","Match","Exact","1650 FARNAM ST, OMAHA, NE, 68102",117010536,"R"
80354,"1650 FURNACE ROAD","BROGUE","CA",17309,NA,NA,354,"1650 FURNACE ROAD, BROGUE, CA, 17309","No_Match",NA,NA,NA,NA
80355,"1650 HIGHWAY 6 SUITE 350","SUGAR LAND","TX",77478,29.600390496,-95.628218664,355,"1650 HIGHWAY 6 SUITE 350, SUGAR LAND, TX, 77478","Match","Non_Exact","1650 STATE HWY 6, SUGAR LAND, TX, 77478",227756907,"L"
80356,"1650 HILL FARM ROAD","KINSTON","NC",28504,35.2780240370001,-77.648314038,356,"1650 HILL FARM ROAD, KINSTON, NC, 28504","Match","Exact","1650 HILL FARM RD, KINSTON, NC, 28504",13874064,"L"
80357,"1650 INDY DRIVE","N CHARLESTON","SC",29405,32.8742930550001,-79.9950137019999,357,"1650 INDY DRIVE, N CHARLESTON, SC, 29405","Match","Exact","1650 INDY DR, N CHARLESTON, SC, 29405",651838637,"R"
80358,"1650 KEELY LANE","SARASOTA","FL",34232,27.318238896,-82.471881938,358,"1650 KEELY LANE, SARASOTA, FL, 34232","Match","Exact","1650 KEELY LN, SARASOTA, FL, 34232",16383366,"R"
80359,"1650 MAIN STREET","SARASOTA","FL",34236,27.336456035,-82.537379675,359,"1650 MAIN STREET, SARASOTA, FL, 34236","Match","Exact","1650 MAIN ST, SARASOTA, FL, 34236",16427410,"R"
80360,"1650 MARGARET STREET SUITE 302","JACKSONVILLE","FL",32204,30.312025654,-81.6808138339999,360,"1650 MARGARET STREET SUITE 302, JACKSONVILLE, FL, 32204","Match","Exact","1650 MARGARET ST, JACKSONVILLE, FL, 32204",83896801,"R"
80361,"1650 MARKET ST STE 2800","PHILADELPHIA","PA",19103,39.952875089,-75.1676637799999,361,"1650 MARKET ST STE 2800, PHILADELPHIA, PA, 19103","Match","Exact","1650 MARKET ST, PHILADELPHIA, PA, 19103",131407493,"L"
80362,"1650 MARKET ST SUITE 3600 - 00138","PHILADELPHIA","PA",19103,39.952875089,-75.1676637799999,362,"1650 MARKET ST SUITE 3600 - 00138, PHILADELPHIA, PA, 19103","Match","Exact","1650 MARKET ST, PHILADELPHIA, PA, 19103",131407493,"L"
80363,"1650 MAUREEN DR","HOFFMAN ESTATES","IL",60192,42.0561579870001,-88.241284865,363,"1650 MAUREEN DR, HOFFMAN ESTATES, IL, 60192","Match","Exact","1650 MAUREEN DR, HOFFMAN EST, IL, 60192",112378222,"R"
80364,"1650 MICHIGAN ST","MEMPHIS","TN",38106,35.1023323860001,-90.057361092,364,"1650 MICHIGAN ST, MEMPHIS, TN, 38106","Match","Exact","1650 MICHIGAN ST, MEMPHIS, TN, 38106",72907446,"L"
80365,"1650 MILITARY CUT OFF RD SUITE 100","WILMINGTON","NC",28403,34.2206895580001,-77.831932243,365,"1650 MILITARY CUT OFF RD SUITE 100, WILMINGTON, NC, 28403","Match","Non_Exact","1650 MILITARY CUTOFF RD, WILMINGTON, NC, 28403",152748583,"L"
80366,"1650 N DALLAS AVE","LANCASTER","TX",75134,32.617617309,-96.7669945219999,366,"1650 N DALLAS AVE, LANCASTER, TX, 75134","Match","Exact","1650 N DALLAS AVE, LANCASTER, TX, 75134",102959241,"R"
80367,"1650 N GLASSELL ST UNIT K","ORANGE","CA",92867,33.8147745860001,-117.852935683,367,"1650 N GLASSELL ST UNIT K, ORANGE, CA, 92867","Match","Non_Exact","1650 N GLASSELL ST, ORANGE, CA, 92867",652040771,"L"
80368,"1650 N MILLS AVE APT 448","ORLANDO","FL",32803,28.566197018,-81.3644583449999,368,"1650 N MILLS AVE APT 448, ORLANDO, FL, 32803","Match","Non_Exact","1650 N MILLS AVE, ORLANDO, FL, 32803",94282006,"L"
80369,"1650 NADEAU STREET","LOS ANGELES","CA",90001,33.9674154530001,-118.244317852,369,"1650 NADEAU STREET, LOS ANGELES, CA, 90001","Match","Exact","1650 NADEAU ST, LOS ANGELES, CA, 90001",241243810,"R"
80370,"1650 NE KILLINGSWORTH ST  APT 310","PORTLAND","OR",97211,45.562706491,-122.648369989,370,"1650 NE KILLINGSWORTH ST  APT 310, PORTLAND, OR, 97211","Match","Non_Exact","1650 NE KILLINGSWORTH ST, PORTLAND, OR, 97211",157505623,"R"
80371,"1650 NEW YORK AVENUE","HUNTINGTON STATION","NY",11746,40.841748226,-73.412040492,371,"1650 NEW YORK AVENUE, HUNTINGTON STATION, NY, 11746","Match","Exact","1650 NEW YORK AVE, HUNTINGTON STATION, NY, 11746",113965786,"L"
80372,"1650 NORTH MORRELL LANE","VANDALIA","IL",62471,NA,NA,372,"1650 NORTH MORRELL LANE, VANDALIA, IL, 62471","No_Match",NA,NA,NA,NA
80373,"1650 NORTHFIELD ROAD","FAIRBANKS","AK",99709,64.9314449180001,-147.946767696,373,"1650 NORTHFIELD ROAD, FAIRBANKS, AK, 99709","Match","Exact","1650 NORTHFIELD RD, FAIRBANKS, AK, 99709",635205965,"R"
80374,"1650 NW 13TH AVE APT 612","PORTLAND","OR",97209,45.5346303680001,-122.684571131,374,"1650 NW 13TH AVE APT 612, PORTLAND, OR, 97209","Match","Non_Exact","1650 NW 13TH AVE, PORTLAND, OR, 97209",652134958,"R"
80375,"1650 PARK CIRCLE","COLUMBIA","SC",29201,33.994937534,-81.022570942,375,"1650 PARK CIRCLE, COLUMBIA, SC, 29201","Match","Exact","1650 PARK CIR, COLUMBIA, SC, 29201",71834826,"R"
80376,"1650 PINEHURST ROAD","DUNEDIN","FL",34698,28.0284970110001,-82.7716660679999,376,"1650 PINEHURST ROAD, DUNEDIN, FL, 34698","Match","Exact","1650 PINEHURST RD, DUNEDIN, FL, 34698",647925432,"L"
80377,"1650 PRESIDENT STREET 4G","BROOKLYN","NY",11213,40.6670984610001,-73.932849828,377,"1650 PRESIDENT STREET 4G, BROOKLYN, NY, 11213","Match","Exact","1650 PRESIDENT ST, BROOKLYN, NY, 11213",59079780,"R"
80378,"1650 PRESIDENTIAL WAY A406","WEST PALM BEACH","FL",33401,26.7279457240001,-80.083929046,378,"1650 PRESIDENTIAL WAY A406, WEST PALM BEACH, FL, 33401","Match","Exact","1650 PRESIDENTIAL WAY, WEST PALM BEACH, FL, 33401",647654693,"R"
80379,"1650 PRINCE WILLIAM PARKWAY","WOODBRIDGE","VA",22191,38.6512628880001,-77.2639769589999,379,"1650 PRINCE WILLIAM PARKWAY, WOODBRIDGE, VA, 22191","Match","Exact","1650 PRINCE WILLIAM PKWY, WOODBRIDGE, VA, 22191",638898843,"R"
80380,"1650 RIDGEVIEW ROAD","UPPER ARLINGTON","OH",43220,40.0143769480001,-83.056009382,380,"1650 RIDGEVIEW ROAD, UPPER ARLINGTON, OH, 43220","Match","Non_Exact","1650 RIDGEVIEW RD, UPPER ARLINGTON, OH, 43221",135565435,"R"
80381,"1650 ROUTE 206","SOUTHAMPTON","NJ",8088,39.8726474520001,-74.7340628709999,381,"1650 ROUTE 206, SOUTHAMPTON, NJ, 8088","Match","Non_Exact","1650 US HWY 206, SOUTHAMPTON, NJ, 08088",653273933,"L"
80382,"1650 S AMPHLETT BLVD SUITE 201","SAN MATEO","CA",94402,37.5587298300001,-122.301796236,382,"1650 S AMPHLETT BLVD SUITE 201, SAN MATEO, CA, 94402","Match","Non_Exact","1650 S AMPHLETT BLVD, SAN MATEO, CA, 94402",192379441,"R"
80383,"1650 S ESTATE AVE","SPRINGFIELD","MO",65804,37.1826578340001,-93.234339344,383,"1650 S ESTATE AVE, SPRINGFIELD, MO, 65804","Match","Exact","1650 S ESTATE AVE, SPRINGFIELD, MO, 65804",76680250,"L"
80384,"1650 S FOX RUN PKWY APT 421","OPELIKA","AL",36801,32.636870419,-85.366201129,384,"1650 S FOX RUN PKWY APT 421, OPELIKA, AL, 36801","Match","Exact","1650 FOX RUN PKWY, OPELIKA, AL, 36801",645811155,"L"
80385,"1650 SAND LAKE RD STE 135","ORLANDO","FL",32809,28.4501947740001,-81.39936527,385,"1650 SAND LAKE RD STE 135, ORLANDO, FL, 32809","Match","Exact","1650 SAND LAKE RD, ORLANDO, FL, 32809",639240951,"R"
80386,"1650 SAND LAKE RD","ORLANDO","FL",32809,28.4501947740001,-81.39936527,386,"1650 SAND LAKE RD, ORLANDO, FL, 32809","Match","Exact","1650 SAND LAKE RD, ORLANDO, FL, 32809",639240951,"R"
80387,"1650 SE 17TH STREET SUITE 406","FORT LAUDERDALE","FL",33316,26.100419157,-80.125603548,387,"1650 SE 17TH STREET SUITE 406, FORT LAUDERDALE, FL, 33316","Match","Non_Exact","1650 SE 17TH ST, FORT LAUDERDALE, FL, 33316",638074319,"L"
80388,"1650 SHACKELFORD ROAD - 1056","FLORISSANT","MO",63031,38.8179502310001,-90.3434490349999,388,"1650 SHACKELFORD ROAD - 1056, FLORISSANT, MO, 63031","Match","Exact","1650 SHACKELFORD RD, FLORISSANT, MO, 63031",100168372,"R"
80389,"1650 SHACKELFORD ROAD 1525","SAINT LOUIS","MO",63031,38.8179502310001,-90.3434490349999,389,"1650 SHACKELFORD ROAD 1525, SAINT LOUIS, MO, 63031","Match","Non_Exact","1650 SHACKELFORD RD, FLORISSANT, MO, 63031",100168372,"R"
80390,"1650 SOUTH AVENUE STE 200","ROCHESTER","NY",14620,NA,NA,390,"1650 SOUTH AVENUE STE 200, ROCHESTER, NY, 14620","No_Match",NA,NA,NA,NA
80391,"1650 TROY AVE","BROOKLYN","NJ",11234,NA,NA,391,"1650 TROY AVE, BROOKLYN, NJ, 11234","No_Match",NA,NA,NA,NA
80392,"1650 VAN DYK RD","LYNDEN","WA",98264,48.9098011670001,-122.400352174,392,"1650 VAN DYK RD, LYNDEN, WA, 98264","Match","Exact","1650 VAN DYK RD, LYNDEN, WA, 98264",625719180,"R"
80393,"1650 W 79TH STREET","CHICAGO","IL",60620,41.7503400190001,-87.665054974,393,"1650 W 79TH STREET, CHICAGO, IL, 60620","Match","Exact","1650 W 79TH ST, CHICAGO, IL, 60620",111821295,"R"
80394,"1650 W 82ND ST STE 600","BLOOMINGTON","MN",55431,44.855263103,-93.3002492589999,394,"1650 W 82ND ST STE 600, BLOOMINGTON, MN, 55431","Match","Non_Exact","1650 W 82ND ST, BLOOMINGTON, MN, 55431",43592651,"R"
80395,"1650 W ADAMS ST","CHICAGO","IL",60612,41.878880393,-87.668229508,395,"1650 W ADAMS ST, CHICAGO, IL, 60612","Match","Exact","1650 W ADAMS ST, CHICAGO, IL, 60612",642122947,"R"
80396,"1650 WHITE OAK ROAD","STAMPING GROUND","KY",40379,38.2161303760001,-84.695410598,396,"1650 WHITE OAK ROAD, STAMPING GROUND, KY, 40379","Match","Exact","1650 WHITE OAK RD, STAMPING GROUND, KY, 40379",41236746,"R"
80397,"1650 WHITE OAK VISTA DRIVE","SILVER SPRING","MD",20904,39.046346876,-76.9808507229999,397,"1650 WHITE OAK VISTA DRIVE, SILVER SPRING, MD, 20904","Match","Exact","1650 WHITE OAK VISTA DR, SILVER SPRING, MD, 20904",618598363,"L"
80398,"1650 YACHT CLUB DR","OSAGE BEACH","MO",65065,38.143943248,-92.702639339,398,"1650 YACHT CLUB DR, OSAGE BEACH, MO, 65065","Match","Exact","1650 YACHT CLUB DR, OSAGE BEACH, MO, 65065",22857237,"R"
80399,"1650 ZANKER RD SURE - 238","SAN JOSE","CA",95112,37.3725213820001,-121.910131972,399,"1650 ZANKER RD SURE - 238, SAN JOSE, CA, 95112","Match","Exact","1650 ZANKER RD, SAN JOSE, CA, 95112",123176586,"R"
80400,"16500  67TH COURT","TINLEY PARK","IL",60477,41.5914984820001,-87.7841720929999,400,"16500  67TH COURT, TINLEY PARK, IL, 60477","Match","Exact","16500 67TH CT, TINLEY PARK, IL, 60477",111702365,"R"
80401,"16500 HANNA DRIVE","SUTHERLAND","VA",23885,37.180052012,-77.616777728,401,"16500 HANNA DRIVE, SUTHERLAND, VA, 23885","Match","Exact","16500 HANNA DR, SUTHERLAND, VA, 23885",624545198,"L"
80402,"16500 JOY ROAD 28249","DETROIT","MI",48228,42.357978824,-83.207178399,402,"16500 JOY ROAD 28249, DETROIT, MI, 48228","Match","Exact","16500 JOY RD, DETROIT, MI, 48228",95440190,"R"
80403,"16500 MCCANN","SOUTHGATE","MI",48195,42.187646822,-83.208852314,403,"16500 MCCANN, SOUTHGATE, MI, 48195","Match","Non_Exact","16500 MCCANN ST, SOUTHGATE, MI, 48195",95456724,"R"
80404,"16500 STATE ROUTE 29","LIBERTY HILL","TX",78642,NA,NA,404,"16500 STATE ROUTE 29, LIBERTY HILL, TX, 78642","No_Match",NA,NA,NA,NA
80405,"16500 SW 39TH STREET","MIRAMAR","FL",33027,25.9722426230001,-80.3663895939999,405,"16500 SW 39TH STREET, MIRAMAR, FL, 33027","Match","Exact","16500 SW 39TH ST, MIRAMAR, FL, 33027",114797523,"R"
80406,"16500 W STATE HIGHWAY 29","LIBERTY HILL","TX",78642,30.6800376940001,-97.952382913,406,"16500 W STATE HIGHWAY 29, LIBERTY HILL, TX, 78642","Match","Exact","16500 STATE HWY 29, LIBERTY HILL, TX, 78642",126490033,"R"
80407,"16501 ALYSE COURT","ENCINO","CA",91436,34.156008162,-118.492376772,407,"16501 ALYSE COURT, ENCINO, CA, 91436","Match","Non_Exact","16501 W ALYSE CT, ENCINO, CA, 91436",241188996,"R"
80408,"16501 JERSEY VILLAGE DR","JERSEY VILLAGE","TX",77040,29.884633896,-95.5713775849999,408,"16501 JERSEY VILLAGE DR, JERSEY VILLAGE, TX, 77040","Match","Non_Exact","16501 JERSEY DR, JERSEY VILLAGE, TX, 77040",96228107,"R"
80409,"16501 KILBY COURT","UPPER MARLBORO","MD",20774,38.8787028890001,-76.719417823,409,"16501 KILBY COURT, UPPER MARLBORO, MD, 20774","Match","Exact","16501 KILBY CT, UPPER MARLBORO, MD, 20774",76344809,"R"
80410,"16501 S HARRIS AVE","COMPTON","CA",90221,33.882316379,-118.197315866,410,"16501 S HARRIS AVE, COMPTON, CA, 90221","Match","Exact","16501 S HARRIS AVE, COMPTON, CA, 90221",647561291,"R"
80411,"16502 REDDING PARK LANE","CORNELIUS","NC",28031,35.4570685100001,-80.8871556079999,411,"16502 REDDING PARK LANE, CORNELIUS, NC, 28031","Match","Exact","16502 REDDING PARK LN, CORNELIUS, NC, 28031",641595836,"R"
80412,"16503 CYPRESS THICKET DR","CYPRESS","TX",77429,29.990100426,-95.6788673089999,412,"16503 CYPRESS THICKET DR, CYPRESS, TX, 77429","Match","Exact","16503 CYPRESS THICKET DR, CYPRESS, TX, 77429",630849210,"R"
80413,"16503 FOX DEN","SAN ANTONIO","TX",78247,29.5876163180001,-98.3623466449999,413,"16503 FOX DEN, SAN ANTONIO, TX, 78247","Match","Exact","16503 FOX DEN, SAN ANTONIO, TX, 78247",101501415,"R"
80414,"16503 GREENWALD CT","BELTON","MO",64012,38.823924515,-94.5000085789999,414,"16503 GREENWALD CT, BELTON, MO, 64012","Match","Exact","16503 GREENWALD CT, BELTON, MO, 64012",100907778,"R"
80415,"16503 JONES ROAD","HENDERSON","MD",21640,39.060231206,-75.830752778,415,"16503 JONES ROAD, HENDERSON, MD, 21640","Match","Exact","16503 JONES RD, HENDERSON, MD, 21640",68309438,"R"
80416,"16503 MONTE CARLO","HOUSTON","TX",77052,NA,NA,416,"16503 MONTE CARLO, HOUSTON, TX, 77052","No_Match",NA,NA,NA,NA
80417,"16503 SEGARS LANE","HUNTERSVILLE","NC",28078,35.438241486,-80.851548892,417,"16503 SEGARS LANE, HUNTERSVILLE, NC, 28078","Match","Exact","16503 SEGARS LN, HUNTERSVILLE, NC, 28078",70551457,"L"
80418,"16504 E HEATHER DR","FOUNTAIN HILLS","AZ",85268,33.618649444,-111.724236723,418,"16504 E HEATHER DR, FOUNTAIN HILLS, AZ, 85268","Match","Exact","16504 E HEATHER DR, FOUNTAIN HILLS, AZ, 85268",128190590,"L"
80419,"16505 E 13 MILE RD","FRASER","MI",48026,42.524013569,-82.9514355599999,419,"16505 E 13 MILE RD, FRASER, MI, 48026","Match","Exact","16505 E 13 MILE RD, FRASER, MI, 48026",110675955,"L"
80420,"16505 KILBY CT","UPPER MARLBORO","MD",20774,38.878718312,-76.719293624,420,"16505 KILBY CT, UPPER MARLBORO, MD, 20774","Match","Exact","16505 KILBY CT, UPPER MARLBORO, MD, 20774",76344809,"R"
80421,"16505 TARANO LANE","MORENO VALLE","CA",92551,33.880917283,-117.230515743,421,"16505 TARANO LANE, MORENO VALLE, CA, 92551","Match","Non_Exact","16505 TARANO LN, MORENO VALLEY, CA, 92551",645539318,"L"
80422,"16505 VIRGINIA AVE UNIT 1045","WILLIAMSPORT","MD",21795,39.607881815,-77.796860366,422,"16505 VIRGINIA AVE UNIT 1045, WILLIAMSPORT, MD, 21795","Match","Exact","16505 VIRGINIA AVE, WILLIAMSPORT, MD, 21795",60786490,"L"
80423,"16505 WARWICK STREET","DETROIT","MI",48219,42.410100089,-83.2290424349999,423,"16505 WARWICK STREET, DETROIT, MI, 48219","Match","Exact","16505 WARWICK ST, DETROIT, MI, 48219",95422365,"L"
80424,"16506 ELLIS AVE","BATON ROUGE","LA",70816,30.4331590130001,-91.003130034,424,"16506 ELLIS AVE, BATON ROUGE, LA, 70816","Match","Exact","16506 ELLIS AVE, BATON ROUGE, LA, 70816",92194853,"R"
80425,"16506 OAKVILLE ST","FONTANA","CA",92336,NA,NA,425,"16506 OAKVILLE ST, FONTANA, CA, 92336","No_Match",NA,NA,NA,NA
80426,"16507 4TH AVE S","BURIEN","WA",98148,47.454918069,-122.32872112,426,"16507 4TH AVE S, BURIEN, WA, 98148","Match","Exact","16507 4TH AVE S, BURIEN, WA, 98148",239765597,"R"
80427,"16507 DARBY HOUSE STREET","CYPRESS","TX",77429,29.970704567,-95.668887623,427,"16507 DARBY HOUSE STREET, CYPRESS, TX, 77429","Match","Exact","16507 DARBY HOUSE ST, CYPRESS, TX, 77429",637094494,"R"
80428,"16507 QUAIL PRAIRIE DRIVE","MISSOURI CITY","TX",77489,29.5864013030001,-95.514035311,428,"16507 QUAIL PRAIRIE DRIVE, MISSOURI CITY, TX, 77489","Match","Exact","16507 QUAIL PRAIRIE DR, MISSOURI CITY, TX, 77489",78271151,"L"
80429,"16508 MICHIGAN AVENUE","SOUTH HOLLAND","IL",60473,41.595313505,-87.614013481,429,"16508 MICHIGAN AVENUE, SOUTH HOLLAND, IL, 60473","Match","Exact","16508 MICHIGAN AVE, SOUTH HOLLAND, IL, 60473",111778787,"R"
80430,"16509 LONESOME PINE ST","MAGNOLIA","TX",77355,30.1111382830001,-95.724739993,430,"16509 LONESOME PINE ST, MAGNOLIA, TX, 77355","Match","Exact","16509 LONESOME PINE ST, MAGNOLIA, TX, 77355",79316883,"R"
80431,"1651 BENNETT AVE","ST LOUIS","MO",63122,38.6084983330001,-90.389838116,431,"1651 BENNETT AVE, ST LOUIS, MO, 63122","Match","Exact","1651 BENNETT AVE, SAINT LOUIS, MO, 63122",100132065,"L"
80432,"1651 BRANDEMERE LANE","AUSTELL","GA",30168,33.794828061,-84.607377685,432,"1651 BRANDEMERE LANE, AUSTELL, GA, 30168","Match","Exact","1651 BRANDEMERE LN, AUSTELL, GA, 30168",634050682,"L"
80433,"1651 COUNTY ROAD 2200 N","CISNE","IL",62823,38.5735110150001,-88.390182426,433,"1651 COUNTY ROAD 2200 N, CISNE, IL, 62823","Match","Non_Exact","1651 CO RD 2200N, CISNE, IL, 62823",39180111,"R"
80434,"1651 DUFFELL MARTIN RD","COMER","GA",30629,34.146564761,-83.11950791,434,"1651 DUFFELL MARTIN RD, COMER, GA, 30629","Match","Exact","1651 DUFFELL MARTIN RD, COMER, GA, 30629",5014912,"L"
80435,"1651 E 70TH STREET SUITE 314","SHREVEPORT","LA",71105,32.4433639800001,-93.7197244549999,435,"1651 E 70TH STREET SUITE 314, SHREVEPORT, LA, 71105","Match","Non_Exact","1651 E 70TH ST, SHREVEPORT, LA, 71105",57488677,"L"
80436,"1651 E SUNSET RD SUITE A111 BOX 3","LAS VEGAS","NV",89119,NA,NA,436,"1651 E SUNSET RD SUITE A111 BOX 3, LAS VEGAS, NV, 89119","Tie",NA,NA,NA,NA
80437,"1651 E SUNSET RD SUITE A111","LAS VEGAS","NV",89119,NA,NA,437,"1651 E SUNSET RD SUITE A111, LAS VEGAS, NV, 89119","Tie",NA,NA,NA,NA
80438,"1651 EAST 70TH STREET  NUM 194","SHREVEPORT","LA",71105,32.4433639800001,-93.719742251,438,"1651 EAST 70TH STREET  NUM 194, SHREVEPORT, LA, 71105","Match","Exact","1651 E 70TH ST, SHREVEPORT, LA, 71105",57488677,"L"
80439,"1651 EAST 70TH STREET SUITE 310","SHREVEPORT","LA",71105,32.4433639800001,-93.719742251,439,"1651 EAST 70TH STREET SUITE 310, SHREVEPORT, LA, 71105","Match","Exact","1651 E 70TH ST, SHREVEPORT, LA, 71105",57488677,"L"
80440,"1651 EAST DEUCE OF CLUBS APT 106","SHOW LOW","AZ",85901,34.2551640300001,-110.025527608,440,"1651 EAST DEUCE OF CLUBS APT 106, SHOW LOW, AZ, 85901","Match","Exact","1651 E DEUCE OF CLUBS, SHOW LOW, AZ, 85901",635832643,"L"
80441,"1651 FRANZ AVENUE","GREEN BAY","WI",54302,44.5033200680001,-87.985012425,441,"1651 FRANZ AVENUE, GREEN BAY, WI, 54302","Match","Exact","1651 FRANZ AVE, GREEN BAY, WI, 54302",148102891,"L"
80442,"1651 FRENCHS AVE","ESSEX","MD",21221,39.3108733350001,-76.4450840219999,442,"1651 FRENCHS AVE, ESSEX, MD, 21221","Match","Exact","1651 FRENCHS AVE, ESSEX, MD, 21221",191489977,"R"
80443,"1651 GARSTLAND DRIVE","ROANOKE","VA",24017,37.305013468,-79.9984696829999,443,"1651 GARSTLAND DRIVE, ROANOKE, VA, 24017","Match","Non_Exact","1651 GARSTLAND DR NW, ROANOKE, VA, 24017",62902706,"R"
80444,"1651 GLASSBORO ROAD","WILLIAMSTOWN","NJ",8094,39.6981430880001,-75.070842328,444,"1651 GLASSBORO ROAD, WILLIAMSTOWN, NJ, 8094","Match","Exact","1651 GLASSBORO RD, WILLIAMSTOWN, NJ, 08094",639691191,"L"
80445,"1651 GRAEBER STREET SUITE 8C","MARCH ARB","CA",92518,33.893609643,-117.252863436,445,"1651 GRAEBER STREET SUITE 8C, MARCH ARB, CA, 92518","Match","Exact","1651 GRAEBER ST, MARCH AIR RESERVE BASE, CA, 92518",194747908,"L"
80446,"1651 GROVE PARK DR","WATKINSVILLE","GA",30677,33.865133396,-83.460617697,446,"1651 GROVE PARK DR, WATKINSVILLE, GA, 30677","Match","Exact","1651 GROVE PARK DR, WATKINSVILLE, GA, 30677",648532860,"L"
80447,"1651 HEARTWELL WAY","KNOXVILLE","TN",37932,35.9079598970001,-84.202737188,447,"1651 HEARTWELL WAY, KNOXVILLE, TN, 37932","Match","Exact","1651 HEARTWELL WAY, KNOXVILLE, TN, 37932",604623985,"L"
80448,"1651 HIGH GROUND CT","KEWASKUM","WI",53040,43.5086204040001,-88.118954533,448,"1651 HIGH GROUND CT, KEWASKUM, WI, 53040","Match","Exact","1651 HIGH GROUND CT, KEWASKUM, WI, 53040",605343672,"R"
80449,"1651 HUNT AVE APT 2F","BRONX","NY",10462,40.843452078,-73.864494121,449,"1651 HUNT AVE APT 2F, BRONX, NY, 10462","Match","Exact","1651 HUNT AVE, BRONX, NY, 10462",80304633,"L"
80450,"1651 JOHN Q HAMMONS DRIVE SUITE 201","MIDDLETON","WI",53562,NA,NA,450,"1651 JOHN Q HAMMONS DRIVE SUITE 201, MIDDLETON, WI, 53562","No_Match",NA,NA,NA,NA
80451,"1651 LEXINGTON AVE BOX 8F","ASTORIA","OR",97103,46.1832736310001,-123.824053274,451,"1651 LEXINGTON AVE BOX 8F, ASTORIA, OR, 97103","Match","Exact","1651 LEXINGTON AVE, ASTORIA, OR, 97103",159221723,"R"
80452,"1651 LINKS OVERLOOK","STONE MOUNTAIN","GA",30088,33.7435574,-84.188731137,452,"1651 LINKS OVERLOOK, STONE MOUNTAIN, GA, 30088","Match","Exact","1651 LINKS OVERLOOK, STONE MOUNTAIN, GA, 30088",23389420,"L"
80453,"1651 MAHANI LOOP","HONOLULU","HI",96819,21.3505469450001,-157.856084916,453,"1651 MAHANI LOOP, HONOLULU, HI, 96819","Match","Exact","1651 MAHANI LOOP, HONOLULU, HI, 96819",203333568,"L"
80454,"1651 MEADOWLARK ROAD","FREDONIA","WI",53021,43.4554820710001,-87.947400075,454,"1651 MEADOWLARK ROAD, FREDONIA, WI, 53021","Match","Exact","1651 MEADOWLARK RD, FREDONIA, WI, 53021",624341469,"L"
80455,"1651 N MOBILE AVE APT 2","CHICAGO","IL",60639,41.9103134060001,-87.78336969,455,"1651 N MOBILE AVE APT 2, CHICAGO, IL, 60639","Match","Non_Exact","1651 N MOBILE AVE, CHICAGO, IL, 60639",605053841,"R"
80456,"1651 N VALENCIA AVE","YORBA LINDA","CA",92886,NA,NA,456,"1651 N VALENCIA AVE, YORBA LINDA, CA, 92886","No_Match",NA,NA,NA,NA
80457,"1651 N VALENCIA AVENUE","YORBA LINDA","CA",92870,33.891897553,-117.854892989,457,"1651 N VALENCIA AVENUE, YORBA LINDA, CA, 92870","Match","Non_Exact","1651 VALENCIA AVE, PLACENTIA, CA, 92870",609050657,"L"
80458,"1651 NE MIAMI GARDENS DR STE 101","N MIAMI BEACH","FL",33179,25.9459025360001,-80.167683924,458,"1651 NE MIAMI GARDENS DR STE 101, N MIAMI BEACH, FL, 33179","Match","Exact","1651 MIAMI GARDENS DR, N MIAMI BEACH, FL, 33179",610859097,"R"
80459,"1651 NORTH VALENCIA AVE","PLACENTIA","CA",92870,33.891897553,-117.854892989,459,"1651 NORTH VALENCIA AVE, PLACENTIA, CA, 92870","Match","Non_Exact","1651 VALENCIA AVE, PLACENTIA, CA, 92870",609050657,"L"
80460,"1651 NW 15 AVENUE","POMPANO BEACH","FL",33060,26.246970628,-80.143385521,460,"1651 NW 15 AVENUE, POMPANO BEACH, FL, 33060","Match","Non_Exact","1651 NW 15TH AVE, POMPANO BEACH, FL, 33069",114694191,"L"
80461,"1651 NW 15TH AV","POMPANO BEACH","FL",33069,26.246970628,-80.143385521,461,"1651 NW 15TH AV, POMPANO BEACH, FL, 33069","Match","Exact","1651 NW 15TH AVE, POMPANO BEACH, FL, 33069",114694191,"L"
80462,"1651 NW 51ST AVE","LAUDERHILL","FL",33313,26.1460474460001,-80.2179073579999,462,"1651 NW 51ST AVE, LAUDERHILL, FL, 33313","Match","Exact","1651 NW 51ST AVE, LAUDERHILL, FL, 33313",114707817,"L"
80463,"1651 PERRYVILLE ROAD","DANVILLE","KY",40422,37.6478428280001,-84.794198638,463,"1651 PERRYVILLE ROAD, DANVILLE, KY, 40422","Match","Exact","1651 PERRYVILLE RD, DANVILLE, KY, 40422",634128798,"R"
80464,"1651 PINEHURST ROAD","DUNEDIN","FL",34698,28.027734476,-82.771634998,464,"1651 PINEHURST ROAD, DUNEDIN, FL, 34698","Match","Exact","1651 PINEHURST RD, DUNEDIN, FL, 34698",647925432,"R"
80465,"1651 RAVINE LANE","CARPENTERSVILLE","IL",60110,42.112223467,-88.2587348119999,465,"1651 RAVINE LANE, CARPENTERSVILLE, IL, 60110","Match","Exact","1651 RAVINE LN, CARPENTERSVILLE, IL, 60110",119579166,"L"
80466,"1651 RENINGER STREET B101","JUNEAU","AK",99801,58.363192795,-134.51305712,466,"1651 RENINGER STREET B101, JUNEAU, AK, 99801","Match","Non_Exact","1651 RENNINGER ST, JUNEAU, AK, 99801",190969785,"L"
80467,"1651 ROBISON RD W","ERIE","PA",16509,42.046972457,-80.06769739,467,"1651 ROBISON RD W, ERIE, PA, 16509","Match","Exact","1651 ROBISON RD W, ERIE, PA, 16509",117508042,"L"
80468,"1651 S DUPONT HWY","DOVER","DE",19901,39.1299675700001,-75.5293810969999,468,"1651 S DUPONT HWY, DOVER, DE, 19901","Match","Exact","1651 S DUPONT HWY, DOVER, DE, 19901",68112643,"R"
80469,"1651 SANDPIPER DRIVE","ROCK HILL","SC",29732,34.961301006,-81.012597683,469,"1651 SANDPIPER DRIVE, ROCK HILL, SC, 29732","Match","Exact","1651 SANDPIPER DR, ROCK HILL, SC, 29732",19837750,"L"
80470,"1651 SARALYNN","SAN JOSE","CA",95121,37.3149862010001,-121.821146536,470,"1651 SARALYNN, SAN JOSE, CA, 95121","Match","Non_Exact","1651 SARALYNN DR, SAN JOSE, CA, 95121",122915258,"L"
80471,"1651 SARATOGA LN","GLENVIEW","IL",60026,42.0850628860001,-87.835165363,471,"1651 SARATOGA LN, GLENVIEW, IL, 60026","Match","Exact","1651 SARATOGA LN, GLENVIEW, IL, 60026",635485177,"L"
80472,"1651 SISKIYOU BOULEVARD","ASHLAND","OR",97520,42.1826224010001,-122.686143883,472,"1651 SISKIYOU BOULEVARD, ASHLAND, OR, 97520","Match","Exact","1651 SISKIYOU BLVD, ASHLAND, OR, 97520",649908320,"R"
80473,"1651 SWEDE RD","BLUE BELL","PA",19422,40.1517852530001,-75.305983597,473,"1651 SWEDE RD, BLUE BELL, PA, 19422","Match","Exact","1651 SWEDE RD, BLUE BELL, PA, 19422",135075924,"R"
80474,"1651 TIBBITS AVE","TROY","NY",12180,42.7249884570001,-73.671121005,474,"1651 TIBBITS AVE, TROY, NY, 12180","Match","Exact","1651 TIBBITS AVE, TROY, NY, 12180",35730705,"R"
80475,"1651 TUCASA DR APT 256","IRVING","TX",75061,32.8325935330001,-96.917741437,475,"1651 TUCASA DR APT 256, IRVING, TX, 75061","Match","Exact","1651 TUCASA DR, IRVING, TX, 75061",648238541,"L"
80476,"1651 W 37 ST  308","HIALEAH","FL",33012,25.8552808810001,-80.3157268419999,476,"1651 W 37 ST  308, HIALEAH, FL, 33012","Match","Non_Exact","1651 W 37TH ST, HIALEAH, FL, 33012",115957100,"R"
80477,"1651 W BEACON LIGHT RD","EAGLE","ID",83616,43.720799325,-116.375443276,477,"1651 W BEACON LIGHT RD, EAGLE, ID, 83616","Match","Exact","1651 W BEACON LIGHT RD, EAGLE, ID, 83616",624041822,"L"
80478,"1651 WILKINSON WAY","SMYRNA","GA",30080,33.8744441740001,-84.50471935,478,"1651 WILKINSON WAY, SMYRNA, GA, 30080","Match","Exact","1651 WILKINSON WAY, SMYRNA, GA, 30080",17244162,"L"
80479,"1651 YALE PL","ROCKVILLE","MD",20850,39.1036943130001,-77.16215128,479,"1651 YALE PL, ROCKVILLE, MD, 20850","Match","Exact","1651 YALE PL, ROCKVILLE, MD, 20850",639326911,"R"
80480,"165100 BAISLEY BLVD SUITE 340355","JAMAICA","NY",11434,NA,NA,480,"165100 BAISLEY BLVD SUITE 340355, JAMAICA, NY, 11434","No_Match",NA,NA,NA,NA
80481,"16511 MORGAN RUN","MISSOURI CITY","TX",77489,29.6369878570001,-95.534341518,481,"16511 MORGAN RUN, MISSOURI CITY, TX, 77489","Match","Exact","16511 MORGAN RUN, MISSOURI CITY, TX, 77489",233356443,"L"
80482,"16511 SHELBY LANE","NORTH FORT MYERS","FM",33917,NA,NA,482,"16511 SHELBY LANE, NORTH FORT MYERS, FM, 33917","No_Match",NA,NA,NA,NA
80483,"16511 WILTON PLACE SUITE B","TORRANCE","CA",90504,33.8809579730001,-118.315842842,483,"16511 WILTON PLACE SUITE B, TORRANCE, CA, 90504","Match","Exact","16511 WILTON PL, TORRANCE, CA, 90504",141666463,"R"
80484,"16512 PELICAN POINT LANE","CORNELIUS","NC",28031,35.4737744710001,-80.935341761,484,"16512 PELICAN POINT LANE, CORNELIUS, NC, 28031","Match","Exact","16512 PELICAN POINT LN, CORNELIUS, NC, 28031",70530070,"R"
80485,"16513 GOVERNORS BRIDGE RD   APT 206","BOWIE","MD",20716,NA,NA,485,"16513 GOVERNORS BRIDGE RD   APT 206, BOWIE, MD, 20716","No_Match",NA,NA,NA,NA
80486,"16514 EL REVINO DRIVE","FONTANA","CA",92336,34.1389157190001,-117.444908029,486,"16514 EL REVINO DRIVE, FONTANA, CA, 92336","Match","Exact","16514 EL REVINO DR, FONTANA, CA, 92336",614814740,"L"
80487,"16514 INVERNESS STREET","DETROIT","MI",48221,42.4129377580001,-83.1228788929999,487,"16514 INVERNESS STREET, DETROIT, MI, 48221","Match","Exact","16514 INVERNESS ST, DETROIT, MI, 48221",95462121,"R"
80488,"16514 INVERNESS","DETROIT","MI",48221,42.4129377580001,-83.1228788929999,488,"16514 INVERNESS, DETROIT, MI, 48221","Match","Non_Exact","16514 INVERNESS AVE, DETROIT, MI, 48221",95462121,"R"
80489,"16514 RODEO GROUNDS ROAD","EAGLE BUTTE","SD",57625,NA,NA,489,"16514 RODEO GROUNDS ROAD, EAGLE BUTTE, SD, 57625","No_Match",NA,NA,NA,NA
80490,"16515 CENTERFIELD DRIVE    SUITE 20","EAGLE RIVER","AK",99577,61.3228255820001,-149.574716401,490,"16515 CENTERFIELD DRIVE    SUITE 20, EAGLE RIVER, AK, 99577","Match","Exact","16515 CENTERFIELD DR, EAGLE RIVER, AK, 99577",605335238,"R"
80491,"16515 JACKSON ST","VOLENTE","TX",78641,30.449284318,-97.9139173519999,491,"16515 JACKSON ST, VOLENTE, TX, 78641","Match","Exact","16515 JACKSON ST, VOLENTE, TX, 78641",63973680,"L"
80492,"16515 KRAMER ESTATE DR","WOODBRIDGE","VA",22191,38.5979926270001,-77.305105896,492,"16515 KRAMER ESTATE DR, WOODBRIDGE, VA, 22191","Match","Exact","16515 KRAMER ESTATE DR, WOODBRIDGE, VA, 22191",619941599,"L"
80493,"16516 EL CAMINO REAL - 414","HOUSTON","TX",77062,NA,NA,493,"16516 EL CAMINO REAL - 414, HOUSTON, TX, 77062","No_Match",NA,NA,NA,NA
80494,"16516 EL CAMINO REAL STE 185","HOUSTON","TX",77062,NA,NA,494,"16516 EL CAMINO REAL STE 185, HOUSTON, TX, 77062","No_Match",NA,NA,NA,NA
80495,"16516 MOORGATE LANE","EDMOND","OK",73012,35.6391664060001,-97.545282532,495,"16516 MOORGATE LANE, EDMOND, OK, 73012","Match","Exact","16516 MOORGATE LN, EDMOND, OK, 73012",606225235,"R"
80496,"16516 SE MILL PLAIN BLVD APT 208","VANCOUVER","WA",98684,45.6155484550001,-122.502732571,496,"16516 SE MILL PLAIN BLVD APT 208, VANCOUVER, WA, 98684","Match","Non_Exact","16516 SE MILL PLAIN BLVD, VANCOUVER, WA, 98684",158365386,"L"
80497,"16517 CABARRUS RD","CHARLOTTE","NC",28227,35.2123280960001,-80.583934996,497,"16517 CABARRUS RD, CHARLOTTE, NC, 28227","Match","Exact","16517 CABARRUS RD, CHARLOTTE, NC, 28227",70553851,"R"
80498,"16517 FOWLER MILL CV","AUSTIN","TX",78717,30.5064473210001,-97.746451323,498,"16517 FOWLER MILL CV, AUSTIN, TX, 78717","Match","Exact","16517 FOWLER MILL COVE, AUSTIN, TX, 78717",126477703,"L"
80499,"16517 GALLION DRIVE","PRAIRIEVILLE","LA",70769,30.315231655,-90.981915358,499,"16517 GALLION DRIVE, PRAIRIEVILLE, LA, 70769","Match","Exact","16517 GALLION DR, PRAIRIEVILLE, LA, 70769",646629033,"R"
80500,"16517 HIGHLAND SUMMIT DR","WILDWOOD","MO",63011,38.6192962370001,-90.620454399,500,"16517 HIGHLAND SUMMIT DR, WILDWOOD, MO, 63011","Match","Exact","16517 HIGHLAND SUMMIT DR, WILDWOOD, MO, 63011",100179800,"R"
