"ID","Address","City","State","Zip","lat","long","id","input_address","match_indicator","match_type","matched_address","tiger_line_id","tiger_side"
21001,"11024 LAKE ARBOR WAY","MITCHELLVILLE","MD",20721,38.903400876,-76.814535886,1,"11024 LAKE ARBOR WAY, MITCHELLVILLE, MD, 20721","Match","Exact","11024 LAKE ARBOR WAY, MITCHELLVILLE, MD, 20721",76408293,"L"
21002,"11024 MONTGOMERY BLVD NE SUITE 242","ALBUQUERQUE","NM",87111,35.1306636630001,-106.516788371,2,"11024 MONTGOMERY BLVD NE SUITE 242, ALBUQUERQUE, NM, 87111","Match","Exact","11024 MONTGOMERY BLVD NE, ALBUQUERQUE, NM, 87111",206715192,"R"
21003,"11024 N 28TH DR  SUITE 180","PHOENIX","AZ",85029,NA,NA,3,"11024 N 28TH DR  SUITE 180, PHOENIX, AZ, 85029","No_Match",NA,NA,NA,NA
21004,"11024 NAPA RIDGE DR","LAS VEGAS","NV",89144,36.1772042310001,-115.336869339,4,"11024 NAPA RIDGE DR, LAS VEGAS, NV, 89144","Match","Exact","11024 NAPA RIDGE DR, LAS VEGAS, NV, 89144",201990644,"R"
21005,"11024 NORTH 35TH STREET","PHOENIX","AZ",85028,33.587492667,-112.00589059,5,"11024 NORTH 35TH STREET, PHOENIX, AZ, 85028","Match","Exact","11024 N 35TH ST, PHOENIX, AZ, 85028",128186096,"L"
21006,"11024 S KEELER","OAK LAWN","IL",60453,41.6921175850001,-87.7246432859999,6,"11024 S KEELER, OAK LAWN, IL, 60453","Match","Non_Exact","11024 KEELER AVE, OAK LAWN, IL, 60453",111819041,"R"
21007,"11024 SOUTH BELL AVE","CHICAGO","IL",60643,41.693545301,-87.677092262,7,"11024 SOUTH BELL AVE, CHICAGO, IL, 60643","Match","Exact","11024 S BELL AVE, CHICAGO, IL, 60643",111823244,"R"
21008,"11024 WARWICK BLVD","NEWPORT NEWS","VA",23601,37.0455724,-76.473521895,8,"11024 WARWICK BLVD, NEWPORT NEWS, VA, 23601","Match","Exact","11024 WARWICK BLVD, NEWPORT NEWS, VA, 23601",103824106,"R"
21009,"11025 GRESHAM PLACE","NOBLESVILLE","IN",46060,40.0708722540001,-85.974732591,9,"11025 GRESHAM PLACE, NOBLESVILLE, IN, 46060","Match","Exact","11025 GRESHAM PL, NOBLESVILLE, IN, 46060",29331218,"L"
21010,"11025 REDBUD WOODS LN","ORLANDO","FL",32832,28.418197596,-81.189760473,10,"11025 REDBUD WOODS LN, ORLANDO, FL, 32832","Match","Exact","11025 REDBUD WOODS LN, ORLANDO, FL, 32832",649052196,"L"
21011,"11025 SHADOW GROVE CIRCLE APT 322","CHARLOTTE","NC",28277,35.0624421860001,-80.778302364,11,"11025 SHADOW GROVE CIRCLE APT 322, CHARLOTTE, NC, 28277","Match","Exact","11025 SHADOW GROVE CIR, CHARLOTTE, NC, 28277",70561480,"R"
21012,"11025 SOUTH KENNEDY STREET","JENKS","OK",74037,36.0059294180001,-96.0166992869999,12,"11025 SOUTH KENNEDY STREET, JENKS, OK, 74037","Match","Exact","11025 S KENNEDY ST, JENKS, OK, 74037",627272130,"L"
21013,"11025 SW 223RD ST","MIAMI","FM",33170,NA,NA,13,"11025 SW 223RD ST, MIAMI, FM, 33170","No_Match",NA,NA,NA,NA
21014,"11026 CLEAR SKIES DR APT E","ST LOUIS","MO",63114,38.702178888,-90.4052418109999,14,"11026 CLEAR SKIES DR APT E, ST LOUIS, MO, 63114","Match","Exact","11026 CLEAR SKIES DR, SAINT LOUIS, MO, 63114",100129953,"L"
21015,"11026 KURTISS","BRIGHTON","MI",48114,42.5422160630001,-83.730394136,15,"11026 KURTISS, BRIGHTON, MI, 48114","Match","Non_Exact","11026 KURTISS DR, BRIGHTON, MI, 48114",23550384,"R"
21016,"11026 MARCLIFF RD","ROCKVILLE","MD",20852,39.037087973,-77.132306036,16,"11026 MARCLIFF RD, ROCKVILLE, MD, 20852","Match","Exact","11026 MARCLIFF RD, ROCKVILLE, MD, 20852",62056485,"L"
21017,"11026 STANFORD AVE","LOS ANGELES","CA",90059,33.9349174700001,-118.262955302,17,"11026 STANFORD AVE, LOS ANGELES, CA, 90059","Match","Exact","11026 STANFORD AVE, LOS ANGELES, CA, 90059",141673099,"L"
21018,"11026 SW 133 PLACE","MIAMI","FL",33186,25.6649277070001,-80.412018054,18,"11026 SW 133 PLACE, MIAMI, FL, 33186","Match","Exact","11026 SW 133RD PL, MIAMI, FL, 33186",116046005,"L"
21019,"11026 WEST BELLFORT AVE","HOUSTON","TX",77099,29.6566097640001,-95.574321058,19,"11026 WEST BELLFORT AVE, HOUSTON, TX, 77099","Match","Non_Exact","11026 W BELLFORT ST, HOUSTON, TX, 77099",616780762,"R"
21020,"11027 10TH AVENUE EAST","BRADENTON","FL",34212,27.489323343,-82.430823295,20,"11027 10TH AVENUE EAST, BRADENTON, FL, 34212","Match","Exact","11027 10TH AVE E, BRADENTON, FL, 34212",16278874,"L"
21021,"11027 BELLBROOK DRIVE","HOUSTON","TX",77096,29.659897229,-95.503552455,21,"11027 BELLBROOK DRIVE, HOUSTON, TX, 77096","Match","Exact","11027 BELLBROOK DR, HOUSTON, TX, 77096",96124750,"L"
21022,"11027 ELLISTON WAY NE","REDMOND","WA",98053,47.695861306,-122.025389576,22,"11027 ELLISTON WAY NE, REDMOND, WA, 98053","Match","Exact","11027 ELLISTON WAY NE, REDMOND, WA, 98053",627632870,"R"
21023,"11027 LE FLOSS AVENUE","DOWNEY","CA",90241,33.9328662610001,-118.100270925,23,"11027 LE FLOSS AVENUE, DOWNEY, CA, 90241","Match","Non_Exact","11027 LEFLOSS AVE, DOWNEY, CA, 90241",141740076,"R"
21024,"11029 ARCOLA ROAD","ARCOLA","IN",46704,41.103738127,-85.289095499,24,"11029 ARCOLA ROAD, ARCOLA, IN, 46704","Match","Exact","11029 ARCOLA RD, ARCOLA, IN, 46704",6372792,"L"
21025,"11029 CORNELL AVE SOUTH","SEATTLE","WA",98178,47.5043042880001,-122.241687017,25,"11029 CORNELL AVE SOUTH, SEATTLE, WA, 98178","Match","Exact","11029 CORNELL AVE S, SEATTLE, WA, 98178",186629771,"R"
21026,"11029 CORNELL AVENUE SOUTH","SEATTLE","WA",98178,47.5043042880001,-122.241687017,26,"11029 CORNELL AVENUE SOUTH, SEATTLE, WA, 98178","Match","Exact","11029 CORNELL AVE S, SEATTLE, WA, 98178",186629771,"R"
21027,"11029 PALMER ROAD","DALRLINGTON","WI",53530,42.653469251,-90.073198588,27,"11029 PALMER ROAD, DALRLINGTON, WI, 53530","Match","Non_Exact","11029 PALMER RD, DARLINGTON, WI, 53530",32875767,"L"
21028,"11029 SALIDA ST","COMMERCE CITY","CO",80022,39.8952845740001,-104.783133927,28,"11029 SALIDA ST, COMMERCE CITY, CO, 80022","Match","Exact","11029 SALIDA ST, COMMERCE CITY, CO, 80022",645996589,"L"
21029,"1102A HWY 56 NORTH","WAYNESBORO","GA",30830,33.116397803,-81.965554474,29,"1102A HWY 56 NORTH, WAYNESBORO, GA, 30830","Match","Non_Exact","1102 STATE RTE 56 N, WAYNESBORO, GA, 30830",648051627,"R"
21030,"1103  SOUTH HARBOR BLVD  STE  C","SANTA  ANA","CA",92704,NA,NA,30,"1103  SOUTH HARBOR BLVD  STE  C, SANTA  ANA, CA, 92704","No_Match",NA,NA,NA,NA
21031,"1103 18TH AVE  E","SEATTLE","WA",98112,47.628860278,-122.308622827,31,"1103 18TH AVE  E, SEATTLE, WA, 98112","Match","Exact","1103 18TH AVE E, SEATTLE, WA, 98112",239762262,"L"
21032,"1103 38TH AVE W","SPENCER","IA",51301,43.1505466260001,-95.198946733,32,"1103 38TH AVE W, SPENCER, IA, 51301","Match","Exact","1103 38TH AVE W, SPENCER, IA, 51301",82790804,"L"
21033,"1103 6TH ST NE","CANTON","OH",44704,40.8000993960001,-81.364410415,33,"1103 6TH ST NE, CANTON, OH, 44704","Match","Exact","1103 6TH ST NE, CANTON, OH, 44704",64682923,"L"
21034,"1103 ABBINGTON WOODS DRIVE","BRUNSWICK","GA",31523,31.1347797220001,-81.595481924,34,"1103 ABBINGTON WOODS DRIVE, BRUNSWICK, GA, 31523","Match","Exact","1103 ABBINGTON WOODS DR, BRUNSWICK, GA, 31523",651268478,"R"
21035,"1103 ALLENA","SAN ANTONIO","TX",78213,29.49751933,-98.5140302999999,35,"1103 ALLENA, SAN ANTONIO, TX, 78213","Match","Non_Exact","1103 ALLENA DR, SAN ANTONIO, TX, 78213",101494560,"L"
21036,"1103 ANDERSON  SUITE 101","COLLEGE STATION","TX",77840,30.6079058020001,-96.3192174069999,36,"1103 ANDERSON  SUITE 101, COLLEGE STATION, TX, 77840","Match","Non_Exact","1103 ANDERSON ST, COLLEGE STATION, TX, 77840",21817736,"L"
21037,"1103 APPLESEED D","ST LOUIS","MO",63132,38.6741729460001,-90.374129077,37,"1103 APPLESEED D, ST LOUIS, MO, 63132","Match","Non_Exact","1103 APPLESEED LN, SAINT LOUIS, MO, 63132",604466049,"L"
21038,"1103 AUSTIN DRIVE","URBANA","IL",61802,40.1035832110001,-88.187531967,38,"1103 AUSTIN DRIVE, URBANA, IL, 61802","Match","Exact","1103 AUSTIN DR, URBANA, IL, 61802",8814090,"R"
21039,"1103 BADBURY LN","GRAND PRAIRIE","TX",75052,32.6604204930001,-97.021191669,39,"1103 BADBURY LN, GRAND PRAIRIE, TX, 75052","Match","Exact","1103 BADBURY LN, GRAND PRAIRIE, TX, 75052",103277281,"L"
21040,"1103 BLOCK AVENUE","CLEVELAND","MS",38732,33.7346035030001,-90.7047790679999,40,"1103 BLOCK AVENUE, CLEVELAND, MS, 38732","Match","Exact","1103 BLOCK AVE, CLEVELAND, MS, 38732",843495,"R"
21041,"1103 BLOSSOM OAK WAY","WHITSETT","NC",27377,NA,NA,41,"1103 BLOSSOM OAK WAY, WHITSETT, NC, 27377","No_Match",NA,NA,NA,NA
21042,"1103 BROAD PLUM LANE","INDIAN TRAIL","NC",28079,35.041510256,-80.6603895389999,42,"1103 BROAD PLUM LANE, INDIAN TRAIL, NC, 28079","Match","Exact","1103 BROAD PLUM LN, INDIAN TRAIL, NC, 28079",618498038,"L"
21043,"1103 BUFORD CT","CHESAPEAKE","VA",23320,36.770189015,-76.2176479199999,43,"1103 BUFORD CT, CHESAPEAKE, VA, 23320","Match","Exact","1103 BUFORD CT, CHESAPEAKE, VA, 23320",121782658,"L"
21044,"1103 CAMBRIDGE RD","COSHOCTON","OH",43812,40.262162124,-81.8457233089999,44,"1103 CAMBRIDGE RD, COSHOCTON, OH, 43812","Match","Exact","1103 CAMBRIDGE RD, COSHOCTON, OH, 43812",52105429,"L"
21045,"1103 CANYON DRIVE","CASTLE ROCK","CO",80104,39.381157882,-104.849870761,45,"1103 CANYON DRIVE, CASTLE ROCK, CO, 80104","Match","Exact","1103 CANYON DR, CASTLE ROCK, CO, 80104",639581369,"L"
21046,"1103 CHURCH STREET UNIT A","STOCKTON","CA",95203,37.9450321370001,-121.304899255,46,"1103 CHURCH STREET UNIT A, STOCKTON, CA, 95203","Match","Exact","1103 CHURCH ST, STOCKTON, CA, 95203",133849348,"R"
21047,"1103 CLAIRMONT","SAN ANGELO","TX",76905,31.449261232,-100.406972383,47,"1103 CLAIRMONT, SAN ANGELO, TX, 76905","Match","Non_Exact","1103 CLAIRMONT ST, SAN ANGELO, TX, 76905",190684046,"R"
21048,"1103 COUNTY ROAD 1194","VINEMONT","AL",35179,34.23429873,-86.917341306,48,"1103 COUNTY ROAD 1194, VINEMONT, AL, 35179","Match","Exact","1103 CO RD 1194, VINEMONT, AL, 35179",130239333,"L"
21049,"1103 CRYSTAL","BENTON","AR",72015,34.5760167070001,-92.575517285,49,"1103 CRYSTAL, BENTON, AR, 72015","Match","Non_Exact","1103 CRYSTAL DR, BENTON, AR, 72015",24194330,"L"
21050,"1103 CYRMRY DRIVE","BERWYN","PA",19312,NA,NA,50,"1103 CYRMRY DRIVE, BERWYN, PA, 19312","No_Match",NA,NA,NA,NA
21051,"1103 DARLING AVE  APT 7A","WAYCROSS","GA",31501,31.2284674810001,-82.3492662049999,51,"1103 DARLING AVE  APT 7A, WAYCROSS, GA, 31501","Match","Exact","1103 DARLING AVE, WAYCROSS, GA, 31501",5252492,"L"
21052,"1103 DAVENTRY DRIVE","GLENN HEIGHTS","TX",75154,32.567646267,-96.883376579,52,"1103 DAVENTRY DRIVE, GLENN HEIGHTS, TX, 75154","Match","Exact","1103 DAVENTRY DR, GLENN HEIGHTS, TX, 75154",646817017,"L"
21053,"1103 DEER SPRINGS RD","PORT ORANGE","FL",32129,29.1428364280001,-81.014853993,53,"1103 DEER SPRINGS RD, PORT ORANGE, FL, 32129","Match","Exact","1103 DEER SPRINGS RD, PORT ORANGE, FL, 32129",635505920,"L"
21054,"1103 E 93RD ST","CHICAGO","IL",60619,41.725810477,-87.5971239,54,"1103 E 93RD ST, CHICAGO, IL, 60619","Match","Exact","1103 E 93RD ST, CHICAGO, IL, 60619",111776601,"R"
21055,"1103 EAST MAIN STREET","CASEY","IL",62420,39.3032530950001,-87.980056153,55,"1103 EAST MAIN STREET, CASEY, IL, 62420","Match","Exact","1103 E MAIN ST, CASEY, IL, 62420",5644961,"R"
21056,"1103 EAST RITTENHOUSE STREET","PHILADELPHIA","PA",19138,40.050983482,-75.162283862,56,"1103 EAST RITTENHOUSE STREET, PHILADELPHIA, PA, 19138","Match","Exact","1103 E RITTENHOUSE ST, PHILADELPHIA, PA, 19138",131413171,"L"
21057,"1103 EDGEWATER POINT DRIVE","LAKE ST LOUIS","MO",63367,38.801096253,-90.762140444,57,"1103 EDGEWATER POINT DRIVE, LAKE ST LOUIS, MO, 63367","Match","Exact","1103 EDGEWATER PT, LAKE SAINT LOUIS, MO, 63367",605546900,"L"
21058,"1103 ELM STREET","CROSSETT","AR",71635,33.1214006760001,-91.9556137389999,58,"1103 ELM STREET, CROSSETT, AR, 71635","Match","Exact","1103 ELM ST, CROSSETT, AR, 71635",31449661,"R"
21059,"1103 EMERSON STREET","SHERIDAN","WY",82801,44.786373209,-106.95140451,59,"1103 EMERSON STREET, SHERIDAN, WY, 82801","Match","Exact","1103 EMERSON ST, SHERIDAN, WY, 82801",605377774,"R"
21060,"1103 FREMONT ST","DES MOINES","IA",50316,41.598755672,-93.605039712,60,"1103 FREMONT ST, DES MOINES, IA, 50316","Match","Exact","1103 FREMONT ST, DES MOINES, IA, 50316",65784146,"R"
21061,"1103 GRAY FOX LANE","FRANKLIN","TN",37069,35.9488410170001,-86.861978855,61,"1103 GRAY FOX LANE, FRANKLIN, TN, 37069","Match","Exact","1103 GRAY FOX LN, FRANKLIN, TN, 37069",647241703,"L"
21062,"1103 GREENE ACRES RD N","STANARDSVILLE","VA",22973,38.327710182,-78.4631755899999,62,"1103 GREENE ACRES RD N, STANARDSVILLE, VA, 22973","Match","Exact","1103 GREENE ACRES RD N, STANARDSVILLE, VA, 22973",29872787,"L"
21063,"1103 GREY STREET","APLINGTON","IA",50604,42.578878811,-92.887078803,63,"1103 GREY STREET, APLINGTON, IA, 50604","Match","Non_Exact","1103 GRAY ST, APLINGTON, IA, 50604",640104685,"L"
21064,"1103 HALLAM DR","LAKELAND","FL",33813,27.9820475240001,-81.945888205,64,"1103 HALLAM DR, LAKELAND, FL, 33813","Match","Exact","1103 HALLAM DR, LAKELAND, FL, 33813",104812627,"R"
21065,"1103 HALSTEAD ROAD","CORTLAND","NY",13045,42.5847951060001,-76.203168166,65,"1103 HALSTEAD ROAD, CORTLAND, NY, 13045","Match","Exact","1103 HALSTEAD RD, CORTLAND, NY, 13045",45821446,"L"
21066,"1103 HARVARD LANE","ALLEN","TX",75002,33.079729491,-96.653989485,66,"1103 HARVARD LANE, ALLEN, TX, 75002","Match","Exact","1103 HARVARD LN, ALLEN, TX, 75002",123525094,"L"
21067,"1103 HAYS STREET","TALLAHASSEE","FL",32301,30.4427008370001,-84.264473261,67,"1103 HAYS STREET, TALLAHASSEE, FL, 32301","Match","Exact","1103 HAYS ST, TALLAHASSEE, FL, 32301",82853936,"R"
21068,"1103 HOLIDAY LN APT 13","DES PLAINES","IL",60016,42.0330105950001,-87.938667397,68,"1103 HOLIDAY LN APT 13, DES PLAINES, IL, 60016","Match","Exact","1103 HOLIDAY LN, DES PLAINES, IL, 60016",111721451,"R"
21069,"1103 HUNTERS LANE","ORELAND","PA",19075,40.106023115,-75.186223164,69,"1103 HUNTERS LANE, ORELAND, PA, 19075","Match","Exact","1103 HUNTERS LN, ORELAND, PA, 19075",135089449,"R"
21070,"1103 ICEMORLEE STREET","MONROE","NC",28110,34.989871098,-80.558743106,70,"1103 ICEMORLEE STREET, MONROE, NC, 28110","Match","Exact","1103 ICEMORLEE ST, MONROE, NC, 28110",14173731,"L"
21071,"1103 IVYWOOD LANE APT 304","TOWSON","MD",21286,39.3956299970001,-76.586167441,71,"1103 IVYWOOD LANE APT 304, TOWSON, MD, 21286","Match","Exact","1103 IVYWOOD LN, TOWSON, MD, 21286",191475410,"R"
21072,"1103 JAKE CIRCLE","KENNEDALE","TX",76060,32.6366337950001,-97.203962517,72,"1103 JAKE CIRCLE, KENNEDALE, TX, 76060","Match","Exact","1103 JAKE CIR, KENNEDALE, TX, 76060",635386405,"L"
21073,"1103 KENWOOD STREET","ALEXANDRIA","MN",56308,45.8799471460001,-95.371319611,73,"1103 KENWOOD STREET, ALEXANDRIA, MN, 56308","Match","Exact","1103 KENWOOD ST, ALEXANDRIA, MN, 56308",204652259,"R"
21074,"1103 KIPP AVENUE","KEMAH","TX",77565,29.5381361710001,-95.0156321759999,74,"1103 KIPP AVENUE, KEMAH, TX, 77565","Match","Exact","1103 KIPP AVE, KEMAH, TX, 77565",653225091,"L"
21075,"1103 LA GRANGE PKWY","NEWARK","DE",19702,39.6079633680001,-75.7579307359999,75,"1103 LA GRANGE PKWY, NEWARK, DE, 19702","Match","Exact","1103 LA GRANGE PKWY, NEWARK, DE, 19702",640726097,"L"
21076,"1103 LAUREL OAK ROAD SUITE 105B","VOORHEES","NJ",8043,39.846340148,-74.9730589229999,76,"1103 LAUREL OAK ROAD SUITE 105B, VOORHEES, NJ, 8043","Match","Exact","1103 LAUREL OAK RD, VOORHEES, NJ, 08043",617883956,"L"
21077,"1103 MAIN ST","OSAGE","IA",50461,43.284132738,-92.804014249,77,"1103 MAIN ST, OSAGE, IA, 50461","Match","Exact","1103 MAIN ST, OSAGE, IA, 50461",7470642,"L"
21078,"1103 MAIN STREET","HINGHAM","MA",2043,42.1820214360001,-70.884102,78,"1103 MAIN STREET, HINGHAM, MA, 2043","Match","Exact","1103 MAIN ST, HINGHAM, MA, 02043",87431625,"R"
21079,"1103 MARSH COURT","HAMPTON","GA",30228,33.3953982680001,-84.2837793529999,79,"1103 MARSH COURT, HAMPTON, GA, 30228","Match","Exact","1103 MARSH CT, HAMPTON, GA, 30228",619933376,"L"
21080,"1103 MASSEY DRIVE","KINSTON","NC",28504,35.269138938,-77.643117477,80,"1103 MASSEY DRIVE, KINSTON, NC, 28504","Match","Exact","1103 MASSEY DR, KINSTON, NC, 28504",13874734,"R"
21081,"1103 MICHIGAN AVE","NAPLES","FL",34103,26.1934270100001,-81.797225962,81,"1103 MICHIGAN AVE, NAPLES, FL, 34103","Match","Exact","1103 MICHIGAN AVE, NAPLES, FL, 34103",115187987,"L"
21082,"1103 N HAWTHORNE ST","CHATTANOOGA","TN",37406,35.05100815,-85.267688461,82,"1103 N HAWTHORNE ST, CHATTANOOGA, TN, 37406","Match","Exact","1103 N HAWTHORNE ST, CHATTANOOGA, TN, 37406",59308686,"L"
21083,"1103 N MACEDONIA AVE","MUNCIE","IN",47303,40.202800332,-85.368095936,83,"1103 N MACEDONIA AVE, MUNCIE, IN, 47303","Match","Exact","1103 N MACEDONIA AVE, MUNCIE, IN, 47303",30836987,"L"
21084,"1103 N OAKRIDGE CIR","LANATANA","FL",33462,26.5694725610001,-80.059084474,84,"1103 N OAKRIDGE CIR, LANATANA, FL, 33462","Match","Non_Exact","1103 N OAKRIDGE CIR, LANTANA, FL, 33462",115295507,"L"
21085,"1103 N RAVINE PKWY","TOLEDO","OH",43605,41.6485577660001,-83.514619432,85,"1103 N RAVINE PKWY, TOLEDO, OH, 43605","Match","Exact","1103 N RAVINE PKWY, TOLEDO, OH, 43605",33945418,"L"
21086,"1103 NORTH ELM STREET SUITE 300","GREENSBORO","NC",27401,36.0882205660001,-79.7890243859999,86,"1103 NORTH ELM STREET SUITE 300, GREENSBORO, NC, 27401","Match","Exact","1103 N ELM ST, GREENSBORO, NC, 27401",131032740,"L"
21087,"1103 NORTH GRAY STREET","KILLEEN","TX",76541,31.126693097,-97.725754718,87,"1103 NORTH GRAY STREET, KILLEEN, TX, 76541","Match","Exact","1103 N GRAY ST, KILLEEN, TX, 76541",146140105,"L"
21088,"1103 PINE BLUFF SQUARE","MANNING","SC",29102,33.6836136540001,-80.2585986409999,88,"1103 PINE BLUFF SQUARE, MANNING, SC, 29102","Match","Exact","1103 PINE BLUFF SQ, MANNING, SC, 29102",71441995,"L"
21089,"1103 POLK BLVD","DES MOINES","IA",50311,41.59849675,-93.6815639009999,89,"1103 POLK BLVD, DES MOINES, IA, 50311","Match","Exact","1103 POLK BLVD, DES MOINES, IA, 50311",65859020,"R"
21090,"1103 POTATO SHED ROAD","BREAUX BRIDGE","LA",70517,30.3430202700001,-91.794045839,90,"1103 POTATO SHED ROAD, BREAUX BRIDGE, LA, 70517","Match","Exact","1103 POTATO SHED RD, BREAUX BRIDGE, LA, 70517",85818165,"L"
21091,"1103 RIDGE WAY DRIVE","ROCHESTER","MI",48307,42.6902913070001,-83.1152491239999,91,"1103 RIDGE WAY DRIVE, ROCHESTER, MI, 48307","Match","Non_Exact","1103 RIDGEWAY DR, ROCHESTER, MI, 48307",69781232,"R"
21092,"1103 ROCK HARBOR AVE","ORLANDO","FL",32828,28.5410231770001,-81.1569940649999,92,"1103 ROCK HARBOR AVE, ORLANDO, FL, 32828","Match","Exact","1103 ROCK HARBOR AVE, ORLANDO, FL, 32828",630991633,"L"
21093,"1103 S EAST AVENUE","WAUKESHA","WI",53186,42.9924818980001,-88.227061969,93,"1103 S EAST AVENUE, WAUKESHA, WI, 53186","Match","Exact","1103 S EAST AVE, WAUKESHA, WI, 53186",648169119,"L"
21094,"1103 S HAYWORTH AVENUE","LOS ANGELES","CA",90035,34.055660329,-118.366117356,94,"1103 S HAYWORTH AVENUE, LOS ANGELES, CA, 90035","Match","Exact","1103 S HAYWORTH AVE, LOS ANGELES, CA, 90035",141598940,"R"
21095,"1103 S MAIN ST","GOSHEN","IN",46526,41.572797044,-85.830529929,95,"1103 S MAIN ST, GOSHEN, IN, 46526","Match","Exact","1103 S MAIN ST, GOSHEN, IN, 46526",604687327,"R"
21096,"1103 SEARCY DRIVE","KILLEEN","TX",76543,31.103204964,-97.717749887,96,"1103 SEARCY DRIVE, KILLEEN, TX, 76543","Match","Exact","1103 SEARCY DR, KILLEEN, TX, 76543",146140760,"R"
21097,"1103 SILVERBROOKE DRIVE","POWDER SPRINGS","GA",30127,33.881822562,-84.7173341,97,"1103 SILVERBROOKE DRIVE, POWDER SPRINGS, GA, 30127","Match","Non_Exact","1103 SILVERBROOK DR, POWDER SPGS, GA, 30127",627696390,"L"
21098,"1103 SOMERSET PLACE","LUTHERVILLE","MD",21093,39.437665608,-76.683965579,98,"1103 SOMERSET PLACE, LUTHERVILLE, MD, 21093","Match","Exact","1103 SOMERSET PL, LUTHERVILLE, MD, 21093",191575915,"L"
21099,"1103 STEWART AVENUE","GARDEN CITY","NY",11530,NA,NA,99,"1103 STEWART AVENUE, GARDEN CITY, NY, 11530","No_Match",NA,NA,NA,NA
21100,"1103 SUMMIT POINT DRIVE","FRONT ROYAL","VA",22630,38.87633006,-78.123714832,100,"1103 SUMMIT POINT DRIVE, FRONT ROYAL, VA, 22630","Match","Exact","1103 SUMMIT POINT DR, FRONT ROYAL, VA, 22630",647880608,"L"
21101,"1103 TIGER BLVD STE 4","CLEMS","SC",29631,34.690879911,-82.833229449,101,"1103 TIGER BLVD STE 4, CLEMS, SC, 29631","Match","Non_Exact","1103 TIGER BLVD, CLEMSON, SC, 29631",26224498,"L"
21102,"1103 VISTA POINTE BLVD","OCEANSIDE","CA",92057,33.2686665580001,-117.293683839,102,"1103 VISTA POINTE BLVD, OCEANSIDE, CA, 92057","Match","Exact","1103 VISTA POINTE BLVD, OCEANSIDE, CA, 92057",645318587,"R"
21103,"1103 W 129TH PL","COMPTON","CA",90222,33.9150055440001,-118.24378623,103,"1103 W 129TH PL, COMPTON, CA, 90222","Match","Exact","1103 W 129TH PL, COMPTON, CA, 90222",141674678,"R"
21104,"1103 W 4800 S","SALT LAKE CITY","UT",84123,40.664777923,-111.922537342,104,"1103 W 4800 S, SALT LAKE CITY, UT, 84123","Match","Exact","1103 W 4800 S, SALT LAKE CITY, UT, 84123",176103921,"L"
21105,"1103 W 5TH AVE","GASTONIA","NC",28052,35.2567817190001,-81.199167199,105,"1103 W 5TH AVE, GASTONIA, NC, 28052","Match","Exact","1103 W 5TH AVE, GASTONIA, NC, 28052",70378873,"L"
21106,"1103 W MORRIS BLVD","MORRISTOWN","TN",37814,36.2065650280001,-83.3028651079999,106,"1103 W MORRIS BLVD, MORRISTOWN, TN, 37814","Match","Non_Exact","1103 W MORRIS BLVD, MORRISTOWN, TN, 37813",639354060,"R"
21107,"1103 W PECAN","ROGERS","AR",72756,36.329044712,-94.13038815,107,"1103 W PECAN, ROGERS, AR, 72756","Match","Non_Exact","1103 W PECAN ST, ROGERS, AR, 72756",47834370,"R"
21108,"1103 WAVERLY PLACE","JOLIET","IL",60435,41.543309552,-88.103832611,108,"1103 WAVERLY PLACE, JOLIET, IL, 60435","Match","Exact","1103 WAVERLY PL, JOLIET, IL, 60435",111540614,"L"
21109,"1103 WEST AVE","CHARLESTON","WV",25302,38.3701542430001,-81.650522289,109,"1103 WEST AVE, CHARLESTON, WV, 25302","Match","Exact","1103 WEST AVE, CHARLESTON, WV, 25302",78591801,"L"
21110,"1103 WESTMINISTER CIRCLE","LAYTON","UT",84040,NA,NA,110,"1103 WESTMINISTER CIRCLE, LAYTON, UT, 84040","No_Match",NA,NA,NA,NA
21111,"1103 WESTPORT ROAD","KANSAS CITY","MO",64111,39.0498594100001,-94.5993702979999,111,"1103 WESTPORT ROAD, KANSAS CITY, MO, 64111","Match","Exact","1103 WESTPORT RD, KANSAS CITY, MO, 64111",91446787,"L"
21112,"1103 WILDWOOD AVE","COLUMBIA","SC",29203,34.0435734230001,-81.0374676389999,112,"1103 WILDWOOD AVE, COLUMBIA, SC, 29203","Match","Exact","1103 WILDWOOD AVE, COLUMBIA, SC, 29203",71820017,"L"
21113,"1103 WILLOW DRIVE","ROBINSON","IL",62454,38.9981522740001,-87.7448160929999,113,"1103 WILLOW DRIVE, ROBINSON, IL, 62454","Match","Non_Exact","1103 S WILLOW DR, ROBINSON, IL, 62454",26963473,"L"
21114,"1103 WOODSMAN CT","CHESAPEAKE","VA",23320,NA,NA,114,"1103 WOODSMAN CT, CHESAPEAKE, VA, 23320","No_Match",NA,NA,NA,NA
21115,"11030 AQUA VISTA ST APT 9","NORTH HOLLYWOOD","CA",91602,34.1449630290001,-118.371410745,115,"11030 AQUA VISTA ST APT 9, NORTH HOLLYWOOD, CA, 91602","Match","Exact","11030 AQUA VISTA ST, N HOLLYWOOD, CA, 91602",141593295,"L"
21116,"11030 AQUA VISTA ST NUM 42","NORTH HOLLYWOOD","CA",91602,34.1449630290001,-118.371410745,116,"11030 AQUA VISTA ST NUM 42, NORTH HOLLYWOOD, CA, 91602","Match","Exact","11030 AQUA VISTA ST, N HOLLYWOOD, CA, 91602",141593295,"L"
21117,"11030 EVANSTON AVE NORTH","SEATTLE","WA",98133,47.7090753890001,-122.351474462,117,"11030 EVANSTON AVE NORTH, SEATTLE, WA, 98133","Match","Exact","11030 EVANSTON AVE N, SEATTLE, WA, 98133",186578640,"R"
21118,"11030 GENOVA TERRACE","HAMPTON","GA",30228,33.449022615,-84.354146902,118,"11030 GENOVA TERRACE, HAMPTON, GA, 30228","Match","Exact","11030 GENOVA TER, HAMPTON, GA, 30228",627671222,"R"
21119,"11030 HARTSOOK ST APT 118","NORTH HOLLYWOOD","CA",91601,34.163935231,-118.371338794,119,"11030 HARTSOOK ST APT 118, NORTH HOLLYWOOD, CA, 91601","Match","Exact","11030 HARTSOOK ST, N HOLLYWOOD, CA, 91601",141591653,"L"
21120,"11030 LEAVENWORTH ST","OMAHA","NE",68154,41.252700039,-96.085367006,120,"11030 LEAVENWORTH ST, OMAHA, NE, 68154","Match","Exact","11030 LEAVENWORTH ST, OMAHA, NE, 68154",116999242,"R"
21121,"11030 NW 21ST COURT","MIAMI","FL",33167,25.874895714,-80.233488141,121,"11030 NW 21ST COURT, MIAMI, FL, 33167","Match","Exact","11030 NW 21ST CT, MIAMI, FL, 33167",116056195,"L"
21122,"11030 RICHARDSON ROAD SUITE B25","ASHLAND","VA",23005,37.701841856,-77.439556264,122,"11030 RICHARDSON ROAD SUITE B25, ASHLAND, VA, 23005","Match","Exact","11030 RICHARDSON RD, ASHLAND, VA, 23005",84983950,"L"
21123,"11030 S LONGWOOD DR","CHICAGO","IL",60643,41.6934929240001,-87.671553756,123,"11030 S LONGWOOD DR, CHICAGO, IL, 60643","Match","Exact","11030 S LONGWOOD DR, CHICAGO, IL, 60643",111823283,"R"
21124,"11031 COTTONWOOD STREET","COON RAPIDS","MN",55448,45.170233425,-93.2701845509999,124,"11031 COTTONWOOD STREET, COON RAPIDS, MN, 55448","Match","Non_Exact","11031 COTTONWOOD ST NW, COON RAPIDS, MN, 55448",97486003,"L"
21125,"11032 ASHBURN ROAD","NORTH CHESTERFIELD","VA",23235,37.527783239,-77.5967342009999,125,"11032 ASHBURN ROAD, NORTH CHESTERFIELD, VA, 23235","Match","Exact","11032 ASHBURN RD, NORTH CHESTERFIELD, VA, 23235",201530943,"R"
21126,"11032 MCINTOSH COURT","WALDORF","MD",20602,38.5889895780001,-76.896462747,126,"11032 MCINTOSH COURT, WALDORF, MD, 20602","Match","Non_Exact","11032 MCINTOSCH CT, WALDORF, MD, 20602",648213377,"L"
21127,"11032 N HUNTERS TRAIL CT","DUNLAP","IL",61525,40.8222777280001,-89.644934403,127,"11032 N HUNTERS TRAIL CT, DUNLAP, IL, 61525","Match","Exact","11032 HUNTERS TRAIL CT, DUNLAP, IL, 61525",617273528,"R"
21128,"11033 66TH ST N","STILLWATER","MN",55082,45.0446288300001,-92.881889141,128,"11033 66TH ST N, STILLWATER, MN, 55082","Match","Exact","11033 66TH ST N, STILLWATER, MN, 55082",97831337,"R"
21129,"11033 ARROYO BCH PL SW","SEATTLE","WA",98146,47.503831215,-122.387002128,129,"11033 ARROYO BCH PL SW, SEATTLE, WA, 98146","Match","Exact","11033 ARROYO BEACH PL SW, SEATTLE, WA, 98146",239769238,"R"
21130,"11033 MCGREGOR RD","PINCKNEY","MI",48169,42.4393005920001,-83.900736364,130,"11033 MCGREGOR RD, PINCKNEY, MI, 48169","Match","Non_Exact","11033 MC GREGOR RD, PINCKNEY, MI, 48169",23548217,"L"
21131,"11033 S LANGLEY AVE","CHICAGO","IL",60628,41.6941846980001,-87.605575702,131,"11033 S LANGLEY AVE, CHICAGO, IL, 60628","Match","Exact","11033 S LANGLEY AVE, CHICAGO, IL, 60628",111774018,"L"
21132,"11033 S MACKINAW","CHICAGO","IL",60617,41.689738192,-87.541914278,132,"11033 S MACKINAW, CHICAGO, IL, 60617","Match","Non_Exact","11033 S MACKINAW AVE, CHICAGO, IL, 60617",111847548,"L"
21133,"11034 73RD ROAD APT 3C","FOREST HILLS","NY",11375,NA,NA,133,"11034 73RD ROAD APT 3C, FOREST HILLS, NY, 11375","No_Match",NA,NA,NA,NA
21134,"11034 FURNESS PARKWAY","MEDINA","NY",14103,43.2048595040001,-78.4097603549999,134,"11034 FURNESS PARKWAY, MEDINA, NY, 14103","Match","Exact","11034 FURNESS PKWY, MEDINA, NY, 14103",48803726,"R"
21135,"11034 LONGWING DRIVE","FORT MYERS","FL",33912,26.585991753,-81.8051859189999,135,"11034 LONGWING DRIVE, FORT MYERS, FL, 33912","Match","Exact","11034 LONGWING DR, FORT MYERS, FL, 33912",646585077,"R"
21136,"11034 S GREEN BAY AVENUE","CHICAGO","IL",60617,41.6948147370001,-87.5413287279999,136,"11034 S GREEN BAY AVENUE, CHICAGO, IL, 60617","Match","Exact","11034 S GREEN BAY AVE, CHICAGO, IL, 60617",111782365,"R"
21137,"11035 CABRILLO STREET","WHITTIER","CA",90603,33.9329750800001,-117.97860405,137,"11035 CABRILLO STREET, WHITTIER, CA, 90603","Match","Exact","11035 CABRILLO ST, WHITTIER, CA, 90603",142652411,"R"
21138,"11035 FM 470","TARPLEY","TX",78883,NA,NA,138,"11035 FM 470, TARPLEY, TX, 78883","No_Match",NA,NA,NA,NA
21139,"11035 GOLF LINKS DRIVE 77907","CHARLOTTE","NC",28277,35.054302982,-80.769997685,139,"11035 GOLF LINKS DRIVE 77907, CHARLOTTE, NC, 28277","Match","Exact","11035 GOLF LINKS DR, CHARLOTTE, NC, 28277",641595105,"L"
21140,"11035 INDEPENDENCE CIR E","PARKER","CO",80134,39.516441925,-104.794329408,140,"11035 INDEPENDENCE CIR E, PARKER, CO, 80134","Match","Exact","11035 INDEPENDENCE CIR E, PARKER, CO, 80134",130832810,"R"
21141,"11035 LAVENDER HILL DR","LAS VEGAS","NV",89135,NA,NA,141,"11035 LAVENDER HILL DR, LAS VEGAS, NV, 89135","No_Match",NA,NA,NA,NA
21142,"11035 LEGACY BLVD 104","PALM BEACH GARDENS","FL",33410,26.8397006160001,-80.090029239,142,"11035 LEGACY BLVD 104, PALM BEACH GARDENS, FL, 33410","Match","Exact","11035 LEGACY BLVD, PALM BEACH GARDENS, FL, 33410",115544836,"R"
21143,"11035 SE NEVADA RD","KINCAID","KS",66039,38.057742342,-95.224564701,143,"11035 SE NEVADA RD, KINCAID, KS, 66039","Match","Exact","11035 NEVADA RD, KINCAID, KS, 66039",10468301,"L"
21144,"11035 TALON RUN","SAN ANTONIO","TX",78254,29.513464851,-98.708310648,144,"11035 TALON RUN, SAN ANTONIO, TX, 78254","Match","Exact","11035 TALON RUN, SAN ANTONIO, TX, 78254",101703528,"R"
21145,"11035 WAR ADMIRAL DR","UNION","KY",41091,38.9210190840001,-84.662302617,145,"11035 WAR ADMIRAL DR, UNION, KY, 41091","Match","Exact","11035 WAR ADMIRAL DR, UNION, KY, 41091",81959330,"R"
21146,"11036 1ST AVE S","SEATTLE","WA",98168,47.50425403,-122.333642323,146,"11036 1ST AVE S, SEATTLE, WA, 98168","Match","Exact","11036 1ST AVE S, SEATTLE, WA, 98168",186624084,"L"
21147,"11036 8TH AVE NE NUMBER 75141","SEATTLE","WA",98125,47.709086138,-122.320563556,147,"11036 8TH AVE NE NUMBER 75141, SEATTLE, WA, 98125","Match","Exact","11036 8TH AVE NE, SEATTLE, WA, 98125",186579990,"R"
21148,"11036 CIRCLE DRIVE","GOLDEN","CO",80403,39.8958656140001,-105.355121511,148,"11036 CIRCLE DRIVE, GOLDEN, CO, 80403","Match","Exact","11036 CIRCLE DR, GOLDEN, CO, 80403",177274046,"R"
21149,"11036 GLEN WILDING LN","BLOOMINGTON","MN",55431,44.8035079590001,-93.300977668,149,"11036 GLEN WILDING LN, BLOOMINGTON, MN, 55431","Match","Exact","11036 GLEN WILDING LN, BLOOMINGTON, MN, 55431",43854357,"R"
21150,"11036 PATSY DRIVE","ST LOUIS","MO",63123,38.522197336,-90.337477333,150,"11036 PATSY DRIVE, ST LOUIS, MO, 63123","Match","Exact","11036 PATSY DR, SAINT LOUIS, MO, 63123",628738937,"L"
21151,"11036 SAFFOLD WAY","RESTON","VA",20190,38.9724266760001,-77.327948221,151,"11036 SAFFOLD WAY, RESTON, VA, 20190","Match","Exact","11036 SAFFOLD WAY, RESTON, VA, 20190",76035533,"R"
21152,"11037 WARNER AVE 268","FOUNTAIN VALLEY","CA",92708,NA,NA,152,"11037 WARNER AVE 268, FOUNTAIN VALLEY, CA, 92708","No_Match",NA,NA,NA,NA
21153,"11037 WARNER AVENUE","FOUNTAIN VALLEY","CA",92708,NA,NA,153,"11037 WARNER AVENUE, FOUNTAIN VALLEY, CA, 92708","No_Match",NA,NA,NA,NA
21154,"11038 E WASHINGTON BLVD STE A","WHITTIER","CA",90606,33.9725713490001,-118.074206103,154,"11038 E WASHINGTON BLVD STE A, WHITTIER, CA, 90606","Match","Exact","11038 WASHINGTON BLVD, WHITTIER, CA, 90606",141739102,"R"
21155,"11038 RESERVOIR PLACE DRIVE","CLEVELAND","OH",44104,41.4719737980001,-81.60804623,155,"11038 RESERVOIR PLACE DRIVE, CLEVELAND, OH, 44104","Match","Exact","11038 RESERVOIR PLACE DR, CLEVELAND, OH, 44104",633549758,"R"
21156,"11039 N 87TH AVE UNIT 1140","PEORIA","AZ",85345,33.5848319,-112.246283743,156,"11039 N 87TH AVE UNIT 1140, PEORIA, AZ, 85345","Match","Non_Exact","11039 N 87TH AVE, PEORIA, AZ, 85345",612992111,"L"
21157,"1104 1/2 E 7TH ST APT 232","LOS ANGELES","CA",90021,NA,NA,157,"1104 1/2 E 7TH ST APT 232, LOS ANGELES, CA, 90021","No_Match",NA,NA,NA,NA
21158,"1104 1/2 IRVING STREET NW","WASHINGTON","DC",20010,38.928681543,-77.027720127,158,"1104 1/2 IRVING STREET NW, WASHINGTON, DC, 20010","Match","Exact","1104 IRVING ST NW, WASHINGTON, DC, 20010",76224098,"L"
21159,"1104 16TH STREET","LYNCHBURG","VA",24504,37.4044719600001,-79.145559518,159,"1104 16TH STREET, LYNCHBURG, VA, 24504","Match","Exact","1104 16TH ST, LYNCHBURG, VA, 24504",62626971,"L"
21160,"1104 20TH ST","HUNTINGTON","WV",25703,38.414495501,-82.4201546639999,160,"1104 20TH ST, HUNTINGTON, WV, 25703","Match","Exact","1104 20TH ST, HUNTINGTON, WV, 25703",101336215,"L"
21161,"1104 2ND AVE S STE 319","FARGO","ND",58103,46.872765133,-96.796086303,161,"1104 2ND AVE S STE 319, FARGO, ND, 58103","Match","Exact","1104 2 AVE S, FARGO, ND, 58103",151447716,"L"
21162,"1104 ACKER LANE","VERONA","WI",53593,42.9713778330001,-89.535466562,162,"1104 ACKER LANE, VERONA, WI, 53593","Match","Exact","1104 ACKER LN, VERONA, WI, 53593",648110725,"L"
21163,"1104 ADELAIDE AVENUE","BAKERSFIELD","CA",93307,35.299086839,-119.013838641,163,"1104 ADELAIDE AVENUE, BAKERSFIELD, CA, 93307","Match","Exact","1104 ADELAIDE AVE, BAKERSFIELD, CA, 93307",109109531,"L"
21164,"1104 ALBER STREET","WABASH","IN",46992,40.812306133,-85.829479136,164,"1104 ALBER STREET, WABASH, IN, 46992","Match","Exact","1104 ALBER ST, WABASH, IN, 46992",636630350,"L"
21165,"1104 APPLE STREET","FORT PIERCE","FL",34950,27.4361865930001,-80.347974256,165,"1104 APPLE STREET, FORT PIERCE, FL, 34950","Match","Exact","1104 APPLE ST, FORT PIERCE, FL, 34950",120148841,"L"
21166,"1104 ASHTON AVENUE SUITE 212","SALT LAKE CITY","UT",84106,40.7205291080001,-111.859393457,166,"1104 ASHTON AVENUE SUITE 212, SALT LAKE CITY, UT, 84106","Match","Exact","1104 ASHTON AVE, SALT LAKE CITY, UT, 84106",176155413,"R"
21167,"1104 BELLA VISTA CIRCLE","LONGWOOD","FL",32779,28.6794300650001,-81.442988665,167,"1104 BELLA VISTA CIRCLE, LONGWOOD, FL, 32779","Match","Exact","1104 BELLA VISTA CIR, LONGWOOD, FL, 32779",642152933,"R"
21168,"1104 BERGEN ST","BROOKLYN","NY",11216,40.6760627370001,-73.949361186,168,"1104 BERGEN ST, BROOKLYN, NY, 11216","Match","Exact","1104 BERGEN ST, BROOKLYN, NY, 11216",59079411,"R"
21169,"1104 BLAKE AVE","GLENWOOD SPRINGS","CO",81601,39.5425973970001,-107.32275098,169,"1104 BLAKE AVE, GLENWOOD SPRINGS, CO, 81601","Match","Exact","1104 BLAKE AVE, GLENWOOD SPGS, CO, 81601",105793653,"R"
21170,"1104 BLUFFVIEW DRIVE","HUTCHINS","TX",75141,32.6443787370001,-96.694773463,170,"1104 BLUFFVIEW DRIVE, HUTCHINS, TX, 75141","Match","Exact","1104 BLUFFVIEW DR, HUTCHINS, TX, 75141",102960287,"L"
21171,"1104 BONITA DRIVE","COLTON","CA",92324,34.077816785,-117.330978301,171,"1104 BONITA DRIVE, COLTON, CA, 92324","Match","Non_Exact","1104 N BONITA DR, COLTON, CA, 92324",145220535,"R"
21172,"1104 BOYTE DR SE","BROOKHAVEN","MS",39601,31.4958382070001,-90.303188312,172,"1104 BOYTE DR SE, BROOKHAVEN, MS, 39601","Match","Exact","1104 BOYTE DR SE, BROOKHAVEN, MS, 39601",612482903,"L"
21173,"1104 BUCKINGHAM ROAD","GARNER","NC",27529,35.6905316510001,-78.622558579,173,"1104 BUCKINGHAM ROAD, GARNER, NC, 27529","Match","Exact","1104 BUCKINGHAM RD, GARNER, NC, 27529",72511581,"L"
21174,"1104 BUSH STREET","SAN DIEGO","CA",92103,32.747353092,-117.173262033,174,"1104 BUSH STREET, SAN DIEGO, CA, 92103","Match","Exact","1104 BUSH ST, SAN DIEGO, CA, 92103",195342027,"R"
21175,"1104 BUTTERCUP LANE","WAKE FOREST","NC",27587,35.951897741,-78.469561949,175,"1104 BUTTERCUP LANE, WAKE FOREST, NC, 27587","Match","Exact","1104 BUTTERCUP LN, WAKE FOREST, NC, 27587",639850393,"R"
21176,"1104 CEDAR PARK DRIVE","CEDAR PARK","TX",78613,30.50963626,-97.840280559,176,"1104 CEDAR PARK DRIVE, CEDAR PARK, TX, 78613","Match","Exact","1104 CEDAR PARK DR, CEDAR PARK, TX, 78613",126475719,"R"
21177,"1104 CHEYENNE AVE","ALLIANCE","NE",69301,42.1056359820001,-102.873866894,177,"1104 CHEYENNE AVE, ALLIANCE, NE, 69301","Match","Exact","1104 CHEYENNE AVE, ALLIANCE, NE, 69301",162350968,"L"
21178,"1104 CHISWELL LANE","SILVER SPRING","MD",20901,39.033950729,-77.018540033,178,"1104 CHISWELL LANE, SILVER SPRING, MD, 20901","Match","Exact","1104 CHISWELL LN, SILVER SPRING, MD, 20901",62064810,"L"
21179,"1104 CHURCHILL LANE","GREENVILLE","TX",75402,33.0651148420001,-96.09499034,179,"1104 CHURCHILL LANE, GREENVILLE, TX, 75402","Match","Exact","1104 CHURCHILL LN, GREENVILLE, TX, 75402",42836395,"R"
21180,"1104 COLUMBIA ST","CORNING","AR",72422,36.407677704,-90.5894687969999,180,"1104 COLUMBIA ST, CORNING, AR, 72422","Match","Exact","1104 COLUMBIA ST, CORNING, AR, 72422",41032447,"R"
21181,"1104 CORPORATE WAY SUITE 101","SACRAMENTO","CA",95831,38.4899403850001,-121.516820932,181,"1104 CORPORATE WAY SUITE 101, SACRAMENTO, CA, 95831","Match","Exact","1104 CORPORATE WAY, SACRAMENTO, CA, 95831",133392588,"L"
21182,"1104 CORPORATE WAY","SACRAMENTO","CA",95831,38.4899403850001,-121.516820932,182,"1104 CORPORATE WAY, SACRAMENTO, CA, 95831","Match","Exact","1104 CORPORATE WAY, SACRAMENTO, CA, 95831",133392588,"L"
21183,"1104 CORTE PRIMAVERA","CHULA VISTA","CA",91910,32.6273034220001,-117.01042463,183,"1104 CORTE PRIMAVERA, CHULA VISTA, CA, 91910","Match","Exact","1104 CORTE PRIMAVERA, CHULA VISTA, CA, 91910",195666050,"L"
21184,"1104 CORTEZ ROAD","LAKE ARIEL","PA",18436,41.477848571,-75.446452107,184,"1104 CORTEZ ROAD, LAKE ARIEL, PA, 18436","Match","Exact","1104 CORTEZ RD, LAKE ARIEL, PA, 18436",140149525,"L"
21185,"1104 COTTMAN AVE","PHILADELPHIA","PA",19111,40.0604175280001,-75.082063698,185,"1104 COTTMAN AVE, PHILADELPHIA, PA, 19111","Match","Exact","1104 COTTMAN AVE, PHILADELPHIA, PA, 19111",131415767,"R"
21186,"1104 DEVONSHIRE RD","LANCASTER","PA",17601,40.075489175,-76.393995135,186,"1104 DEVONSHIRE RD, LANCASTER, PA, 17601","Match","Exact","1104 DEVONSHIRE RD, LANCASTER, PA, 17601",179659024,"R"
21187,"1104 DONOVAN AVENUE","BELLINGHAM","WA",98225,48.7176461920001,-122.503052627,187,"1104 DONOVAN AVENUE, BELLINGHAM, WA, 98225","Match","Exact","1104 DONOVAN AVE, BELLINGHAM, WA, 98225",636499953,"L"
21188,"1104 E 21ST STREET","IDAHO FALLS","ID",83404,43.4788352730001,-112.011688931,188,"1104 E 21ST STREET, IDAHO FALLS, ID, 83404","Match","Exact","1104 E 21ST ST, IDAHO FALLS, ID, 83404",119119267,"L"
21189,"1104 E FORT WAYNE ST","WARSAW","IN",46580,41.2400149280001,-85.8416220989999,189,"1104 E FORT WAYNE ST, WARSAW, IN, 46580","Match","Exact","1104 E FT WAYNE ST, WARSAW, IN, 46580",7920191,"L"
21190,"1104 E LIZZIE LANE","SAINT GEORGE","UT",84790,37.080894318,-113.560407981,190,"1104 E LIZZIE LANE, SAINT GEORGE, UT, 84790","Match","Exact","1104 E LIZZIE LN, SAINT GEORGE, UT, 84790",166198393,"L"
21191,"1104 E NORTHSIDE DRIVE","CLINTON","MS",39056,32.350036511,-90.3092002769999,191,"1104 E NORTHSIDE DRIVE, CLINTON, MS, 39056","Match","Exact","1104 E NORTHSIDE DR, CLINTON, MS, 39056",639745823,"L"
21192,"1104 E RENFRO ST","PLANT CITY","FL",33563,28.01329829,-82.115063681,192,"1104 E RENFRO ST, PLANT CITY, FL, 33563","Match","Exact","1104 E RENFRO ST, PLANT CITY, FL, 33563",104627303,"R"
21193,"1104 EAST 21ST STREET","IDAHO FALLS","ID",83404,43.4788356880001,-112.011721194,193,"1104 EAST 21ST STREET, IDAHO FALLS, ID, 83404","Match","Exact","1104 E 21ST ST, IDAHO FALLS, ID, 83404",119119267,"L"
21194,"1104 EASTEND ROAD","MANCHESTER","TN",37355,35.4555442660001,-86.090002855,194,"1104 EASTEND ROAD, MANCHESTER, TN, 37355","Match","Exact","1104 EASTEND RD, MANCHESTER, TN, 37355",58235749,"R"
21195,"1104 EDBURY DRIVE","KNOXVILLE","TN",37922,35.895481042,-84.039653127,195,"1104 EDBURY DRIVE, KNOXVILLE, TN, 37922","Match","Exact","1104 EDBURY DR, KNOXVILLE, TN, 37922",42634013,"L"
21196,"1104 EDINBURGH DRIVE","JAMESTOWN","NC",27282,35.9701534640001,-79.939156538,196,"1104 EDINBURGH DRIVE, JAMESTOWN, NC, 27282","Match","Exact","1104 EDINBURGH DR, JAMESTOWN, NC, 27282",131062029,"R"
21197,"1104 ELDER AVE","BRONX","NY",10472,40.826325195,-73.8786345199999,197,"1104 ELDER AVE, BRONX, NY, 10472","Match","Exact","1104 ELDER AVE, BRONX, NY, 10472",80303097,"R"
21198,"1104 EVANS AVE","FORT WORTH","TX",76104,32.7328612480001,-97.318305171,198,"1104 EVANS AVE, FORT WORTH, TX, 76104","Match","Exact","1104 EVANS AVE, FORT WORTH, TX, 76104",101890365,"R"
21199,"1104 GARDEN VIEW ROAD","ENCINITAS","CA",92024,33.060920272,-117.266646102,199,"1104 GARDEN VIEW ROAD, ENCINITAS, CA, 92024","Match","Exact","1104 GARDEN VIEW RD, ENCINITAS, CA, 92024",195670123,"R"
21200,"1104 GILBERT DRIVE","BOSSIER CITY","LA",71112,32.51007524,-93.7061853659999,200,"1104 GILBERT DRIVE, BOSSIER CITY, LA, 71112","Match","Exact","1104 GILBERT DR, BOSSIER CITY, LA, 71112",108508791,"R"
21201,"1104 GLORIA LANE","YARDLEY","PA",19067,40.2109030490001,-74.832864495,201,"1104 GLORIA LANE, YARDLEY, PA, 19067","Match","Exact","1104 GLORIA LN, YARDLEY, PA, 19067",134720970,"R"
21202,"1104 HARVARD TERRACE","EVANSTON","IL",60202,42.0225791,-87.687246923,202,"1104 HARVARD TERRACE, EVANSTON, IL, 60202","Match","Exact","1104 HARVARD TER, EVANSTON, IL, 60202",605253025,"L"
21203,"1104 HIGHLAND DRIVE","ROLLA","MO",65401,37.9490306390001,-91.755932853,203,"1104 HIGHLAND DRIVE, ROLLA, MO, 65401","Match","Exact","1104 HIGHLAND DR, ROLLA, MO, 65401",45091714,"L"
21204,"1104 HILLSIDE LN","LOUISVILLE","CO",80027,39.9713336460001,-105.166604991,204,"1104 HILLSIDE LN, LOUISVILLE, CO, 80027","Match","Exact","1104 HILLSIDE LN, LOUISVILLE, CO, 80027",220749046,"R"
21205,"1104 HILTON STREET","MONROE","LA",71201,32.523953476,-92.121130993,205,"1104 HILTON STREET, MONROE, LA, 71201","Match","Exact","1104 HILTON ST, MONROE, LA, 71201",161083621,"R"
21206,"1104 JANE SOWERS RD","STATESVILLE","NC",28625,35.843348522,-80.8309327219999,206,"1104 JANE SOWERS RD, STATESVILLE, NC, 28625","Match","Exact","1104 JANE SOWERS RD, STATESVILLE, NC, 28625",46015628,"R"
21207,"1104 JOHN MCCAIN RD","COLLEYVILLE","TX",76034,32.911400497,-97.151226897,207,"1104 JOHN MCCAIN RD, COLLEYVILLE, TX, 76034","Match","Exact","1104 JOHN MCCAIN RD, COLLEYVILLE, TX, 76034",617845165,"L"
21208,"1104 JOHN MCCAIN ROAD","COLLEYVILLE","TX",76034,32.911400497,-97.151226897,208,"1104 JOHN MCCAIN ROAD, COLLEYVILLE, TX, 76034","Match","Exact","1104 JOHN MCCAIN RD, COLLEYVILLE, TX, 76034",617845165,"L"
21209,"1104 JOHNSTON ST","AKRON","OH",44305,41.067469541,-81.490420577,209,"1104 JOHNSTON ST, AKRON, OH, 44305","Match","Exact","1104 JOHNSTON ST, AKRON, OH, 44305",61350506,"R"
21210,"1104 JOHNSTON STREET","AKRON","OH",44305,41.067469541,-81.490420577,210,"1104 JOHNSTON STREET, AKRON, OH, 44305","Match","Exact","1104 JOHNSTON ST, AKRON, OH, 44305",61350506,"R"
21211,"1104 KENILWORTH DR  SUITE 300","BALTIMORE","MD",21204,39.413660049,-76.627280039,211,"1104 KENILWORTH DR  SUITE 300, BALTIMORE, MD, 21204","Match","Exact","1104 KENILWORTH DR, BALTIMORE, MD, 21204",191539307,"R"
21212,"1104 LAKE RISE PLACE","GALLATIN","TN",37066,36.303921551,-86.5256923969999,212,"1104 LAKE RISE PLACE, GALLATIN, TN, 37066","Match","Exact","1104 LAKE RISE PL, GALLATIN, TN, 37066",29785743,"R"
21213,"1104 LIZZIE LANE","SAINT GEORGE","UT",84790,37.080892803,-113.560422086,213,"1104 LIZZIE LANE, SAINT GEORGE, UT, 84790","Match","Non_Exact","1104 E LIZZIE LN, SAINT GEORGE, UT, 84790",166198393,"L"
21214,"1104 LORAIN ROAD","SAN MARINO","CA",91108,34.1101460850001,-118.120587633,214,"1104 LORAIN ROAD, SAN MARINO, CA, 91108","Match","Exact","1104 LORAIN RD, SAN MARINO, CA, 91108",141631520,"R"
21215,"1104 MAIN STREET","LADY LAKE","FL",32159,28.94078008,-81.9499038929999,215,"1104 MAIN STREET, LADY LAKE, FL, 32159","Match","Exact","1104 MAIN ST, LADY LAKE, FL, 32159",94190299,"R"
21216,"1104 MANDELLA RD","ST STEPHEN","SC",29479,33.348183815,-79.951404522,216,"1104 MANDELLA RD, ST STEPHEN, SC, 29479","Match","Exact","1104 MANDELLA RD, SAINT STEPHEN, SC, 29479",100739368,"R"
21217,"1104 MARCY STREET","IOWA CITY","IA",52240,41.6482759530001,-91.521907841,217,"1104 MARCY STREET, IOWA CITY, IA, 52240","Match","Exact","1104 MARCY ST, IOWA CITY, IA, 52240",84495835,"L"
21218,"1104 MARY LEE COURT","RIVERDALE","GA",30296,33.57849839,-84.425821286,218,"1104 MARY LEE COURT, RIVERDALE, GA, 30296","Match","Exact","1104 MARY LEE CT, RIVERDALE, GA, 30296",23331342,"R"
21219,"1104 MEADOWBROOK ROAD WEST","IOLA","KS",66749,37.9298848610001,-95.397550715,219,"1104 MEADOWBROOK ROAD WEST, IOLA, KS, 66749","Match","Non_Exact","1104 MEADOWBROOK RD, IOLA, KS, 66749",27425631,"L"
21220,"1104 N 1500 E","VERNAL","UT",84078,40.4720086880001,-109.500200174,220,"1104 N 1500 E, VERNAL, UT, 84078","Match","Exact","1104 N 1500 E, VERNAL, UT, 84078",126118576,"R"
21221,"1104 N LAPHAM STREET","OCONOMOWOC","WI",53066,43.1228339080001,-88.485555814,221,"1104 N LAPHAM STREET, OCONOMOWOC, WI, 53066","Match","Exact","1104 N LAPHAM ST, OCONOMOWOC, WI, 53066",53838581,"L"
21222,"1104 N MARTIN LUTHER KING JR AVE","LAKELAND","FL",33805,28.056977471,-81.961392046,222,"1104 N MARTIN LUTHER KING JR AVE, LAKELAND, FL, 33805","Match","Exact","1104 MARTIN L KING JR AVE, LAKELAND, FL, 33805",647909359,"L"
21223,"1104 N PARKWAY APT 9","JACKSON","TN",38305,35.6487861520001,-88.820552418,223,"1104 N PARKWAY APT 9, JACKSON, TN, 38305","Match","Non_Exact","1104 NORTH PKWY, JACKSON, TN, 38305",637276595,"R"
21224,"1104 N PROVIDENCE RD","COLUMBIA","MO",65203,38.9639638290001,-92.333846985,224,"1104 N PROVIDENCE RD, COLUMBIA, MO, 65203","Match","Non_Exact","1104 N PROVIDENCE RD, COLUMBIA, MO, 65201",23480103,"R"
21225,"1104 N SHELLBARK RD","MUNCIE","IN",47304,40.203112575,-85.4304992089999,225,"1104 N SHELLBARK RD, MUNCIE, IN, 47304","Match","Exact","1104 N SHELLBARK RD, MUNCIE, IN, 47304",30833625,"R"
21226,"1104 NAJAC LANE","KISSIMMEE","FL",34859,28.1172479910001,-81.4421983839999,226,"1104 NAJAC LANE, KISSIMMEE, FL, 34859","Match","Non_Exact","1104 NAJAC LN, KISSIMMEE, FL, 34759",176690228,"R"
21227,"1104 NE 4TH AVENUE","WILLISTON","FL",32696,29.393394309,-82.43200941,227,"1104 NE 4TH AVENUE, WILLISTON, FL, 32696","Match","Exact","1104 NE 4TH AVE, WILLISTON, FL, 32696",43321465,"R"
21228,"1104 NORTH EMBREE ERIC GOGGINS","PRINCETON","IN",47670,38.365728301,-87.582255203,228,"1104 NORTH EMBREE ERIC GOGGINS, PRINCETON, IN, 47670","Match","Non_Exact","1104 N EMBREE ST, PRINCETON, IN, 47670",36390778,"R"
21229,"1104 NORTH MAIN","MONTICELLO","KY",42633,36.8417264070001,-84.839500113,229,"1104 NORTH MAIN, MONTICELLO, KY, 42633","Match","Non_Exact","1104 N MAIN ST, MONTICELLO, KY, 42633",648900856,"R"
21230,"1104 NW 103RD ST","VANCOUVER","WA",98685,45.696160514,-122.683159221,230,"1104 NW 103RD ST, VANCOUVER, WA, 98685","Match","Exact","1104 NW 103RD ST, VANCOUVER, WA, 98685",158321146,"R"
21231,"1104 NW 43RD AVE","CAPE CORAL","FL",33993,26.673505408,-82.061497112,231,"1104 NW 43RD AVE, CAPE CORAL, FL, 33993","Match","Exact","1104 NW 43RD AVE, CAPE CORAL, FL, 33993",117997248,"R"
21232,"1104 OLIVE AVE","LONG BEACH","CA",90813,33.7809243830001,-118.182838959,232,"1104 OLIVE AVE, LONG BEACH, CA, 90813","Match","Non_Exact","1104 N OLIVE AVE, LONG BEACH, CA, 90813",141694582,"R"
21233,"1104 OSPREY LANE","DENTON","MD",21629,38.884583069,-75.809169902,233,"1104 OSPREY LANE, DENTON, MD, 21629","Match","Exact","1104 OSPREY LN, DENTON, MD, 21629",68316557,"L"
21234,"1104 PARK MANOR BLVD","ENDWELL","NY",13760,42.126715221,-76.0312281069999,234,"1104 PARK MANOR BLVD, ENDWELL, NY, 13760","Match","Exact","1104 PARK MANOR BLVD, ENDWELL, NY, 13760",46338316,"R"
21235,"1104 PARKERS CREEK LANE","FRIENDSWOOD","TX",77546,29.4873835600001,-95.1828432839999,235,"1104 PARKERS CREEK LANE, FRIENDSWOOD, TX, 77546","Match","Exact","1104 PARKERS CREEK LN, FRIENDSWOOD, TX, 77546",640848372,"L"
21236,"1104 RESTERTOWN RD","POPLARVILLE","MS",39470,30.7504800400001,-89.433096479,236,"1104 RESTERTOWN RD, POPLARVILLE, MS, 39470","Match","Exact","1104 RESTERTOWN RD, POPLARVILLE, MS, 39470",635274535,"L"
21237,"1104 RIVER BEND DR","GEORGETOWN","TX",78628,30.6581346420001,-97.695744943,237,"1104 RIVER BEND DR, GEORGETOWN, TX, 78628","Match","Exact","1104 RIVER BEND DR, GEORGETOWN, TX, 78628",126416068,"R"
21238,"1104 S 5TH STREET","EFFINGHAM","IL",62401,39.1126332160001,-88.5433519489999,238,"1104 S 5TH STREET, EFFINGHAM, IL, 62401","Match","Exact","1104 S 5TH ST, EFFINGHAM, IL, 62401",94761480,"R"
21239,"1104 S MAIN ST","PINCKNEYVILLE","IL",62274,38.0711443330001,-89.381656434,239,"1104 S MAIN ST, PINCKNEYVILLE, IL, 62274","Match","Exact","1104 S MAIN ST, PINCKNEYVILLE, IL, 62274",93119583,"R"
21240,"1104 S MAIN ST","TRIPOLI","IA",50676,42.799923468,-92.2581393309999,240,"1104 S MAIN ST, TRIPOLI, IA, 50676","Match","Exact","1104 S MAIN ST, TRIPOLI, IA, 50676",77364082,"L"
21241,"1104 S MONTANA AVE APT G12","BOZEMAN","MT",59715,NA,NA,241,"1104 S MONTANA AVE APT G12, BOZEMAN, MT, 59715","No_Match",NA,NA,NA,NA
21242,"1104 SCHOOL RD","TOMAHAWK","WI",54487,45.4729113880001,-89.713021163,242,"1104 SCHOOL RD, TOMAHAWK, WI, 54487","Match","Exact","1104 SCHOOL RD, TOMAHAWK, WI, 54487",201777802,"R"
21243,"1104 SEMINOLE DR","INDIAN HARBOR BEACH","FL",32937,28.151354907,-80.592819834,243,"1104 SEMINOLE DR, INDIAN HARBOR BEACH, FL, 32937","Match","Exact","1104 SEMINOLE DR, INDIAN HARBOUR BEACH, FL, 32937",93904028,"R"
21244,"1104 SHADES CIRCLE SE","HUNTSVILLE","AL",35803,34.6301207560001,-86.543962474,244,"1104 SHADES CIRCLE SE, HUNTSVILLE, AL, 35803","Match","Exact","1104 SHADES CIR SE, HUNTSVILLE, AL, 35803",58153811,"L"
21245,"1104 SPARROW LANE","BOWLING GREEN","OH",43402,41.388477434,-83.6716628249999,245,"1104 SPARROW LANE, BOWLING GREEN, OH, 43402","Match","Exact","1104 SPARROW LN, BOWLING GREEN, OH, 43402",38740209,"R"
21246,"1104 SPRUCE CT","PRYOR","OK",74361,36.290794213,-95.320352288,246,"1104 SPRUCE CT, PRYOR, OK, 74361","Match","Exact","1104 SPRUCE CT, PRYOR, OK, 74361",58798898,"L"
21247,"1104 STANTON STREET","MONONGAHELA","MD",15063,NA,NA,247,"1104 STANTON STREET, MONONGAHELA, MD, 15063","No_Match",NA,NA,NA,NA
21248,"1104 STATE ROUTE 37","AKWESASNE","NY",13655,44.9675596600001,-74.619760538,248,"1104 STATE ROUTE 37, AKWESASNE, NY, 13655","Match","Exact","1104 STATE RTE 37, AKWESASNE, NY, 13655",614342213,"R"
21249,"1104 STOCKTON AVE","SOUTH LAKE TAHOE","CA",96150,38.9218513980001,-119.984704644,249,"1104 STOCKTON AVE, SOUTH LAKE TAHOE, CA, 96150","Match","Exact","1104 STOCKTON AVE, SOUTH LAKE TAHOE, CA, 96150",133036722,"L"
21250,"1104 SUMMERWOOD CIRCLE","WELLINGTON","FL",33414,26.66503119,-80.222711483,250,"1104 SUMMERWOOD CIRCLE, WELLINGTON, FL, 33414","Match","Exact","1104 SUMMERWOOD CIR, WELLINGTON, FL, 33414",115579321,"R"
21251,"1104 SUTTER AVENUE","BROOKLYN","NY",11208,40.671945328,-73.8777419639999,251,"1104 SUTTER AVENUE, BROOKLYN, NY, 11208","Match","Exact","1104 SUTTER AVE, BROOKLYN, NY, 11208",59085592,"R"
21252,"1104 SW 15TH STREET","BOCA RATON","FL",33486,26.334756831,-80.1075620989999,252,"1104 SW 15TH STREET, BOCA RATON, FL, 33486","Match","Exact","1104 SW 15TH ST, BOCA RATON, FL, 33486",115302807,"L"
21253,"1104 SW 33RD STREET","REDMOND","OR",97756,44.266216586,-121.207008182,253,"1104 SW 33RD STREET, REDMOND, OR, 97756","Match","Exact","1104 SW 33RD ST, REDMOND, OR, 97756",611081546,"L"
21254,"1104 SW 71ST TER","N LAUDERDALE","FL",33068,26.213413309,-80.2208825979999,254,"1104 SW 71ST TER, N LAUDERDALE, FL, 33068","Match","Exact","1104 SW 71ST TER, N LAUDERDALE, FL, 33068",114751150,"L"
21255,"1104 SW B AVENUE","LAWTON","OK",73501,34.6063291470001,-98.404943423,255,"1104 SW B AVENUE, LAWTON, OK, 73501","Match","Exact","1104 SW B AVE, LAWTON, OK, 73501",14995351,"L"
21256,"1104 TERRACE DRIVE","ST LOUIS","MO",63114,38.634117915,-90.3397244079999,256,"1104 TERRACE DRIVE, ST LOUIS, MO, 63114","Match","Non_Exact","1104 TERRACE DR, SAINT LOUIS, MO, 63117",100135683,"L"
21257,"1104 TYLER LN","GREENWOOD","MO",64034,38.842636849,-94.355276316,257,"1104 TYLER LN, GREENWOOD, MO, 64034","Match","Exact","1104 TYLER LN, GREENWOOD, MO, 64034",91493944,"R"
21258,"1104 VILLA LANE","BOYNTON BEACH","FL",33435,26.5006184120001,-80.062937118,258,"1104 VILLA LANE, BOYNTON BEACH, FL, 33435","Match","Non_Exact","1104 VILLA CIR, BOYNTON BEACH, FL, 33435",640983309,"R"
21259,"1104 W EUREKA","KINGMAN","KS",67068,37.659061815,-98.127665051,259,"1104 W EUREKA, KINGMAN, KS, 67068","Match","Non_Exact","1104 EUREKA ST, KINGMAN, KS, 67068",160963723,"L"
21260,"1104 WEST 7TH STREET","AUSTIN","TX",78703,30.273287026,-97.754581353,260,"1104 WEST 7TH STREET, AUSTIN, TX, 78703","Match","Exact","1104 W 7TH ST, AUSTIN, TX, 78703",63942943,"R"
21261,"1104 WEST GAMBIER STREET","MOUNT VERNON","OH",43050,40.3925662670001,-82.5021496379999,261,"1104 WEST GAMBIER STREET, MOUNT VERNON, OH, 43050","Match","Exact","1104 W GAMBIER ST, MOUNT VERNON, OH, 43050",24638720,"L"
21262,"1104 WHITWORT CT","HERNDON","VA",20170,NA,NA,262,"1104 WHITWORT CT, HERNDON, VA, 20170","No_Match",NA,NA,NA,NA
21263,"1104 WHITWORTH CT","HERNDON","VA",20170,38.9798562650001,-77.391790455,263,"1104 WHITWORTH CT, HERNDON, VA, 20170","Match","Exact","1104 WHITWORTH CT, HERNDON, VA, 20170",215980067,"R"
21264,"1104 WICKLOW DRIVE","CARY","NC",27511,35.771460188,-78.7903377599999,264,"1104 WICKLOW DRIVE, CARY, NC, 27511","Match","Exact","1104 WICKLOW DR, CARY, NC, 27511",72498426,"L"
21265,"1104 WILMA LOIS AVE","PASADENA","TX",77502,29.6815544730001,-95.1975086639999,265,"1104 WILMA LOIS AVE, PASADENA, TX, 77502","Match","Exact","1104 WILMA LOIS AVE, PASADENA, TX, 77502",96104039,"R"
21266,"1104 WINDSONG TRL","RICHARDSON","TX",75081,32.9423143930001,-96.709467715,266,"1104 WINDSONG TRL, RICHARDSON, TX, 75081","Match","Exact","1104 WINDSONG TRL, RICHARDSON, TX, 75081",102915706,"R"
21267,"1104 WRIGHT ST","LLANO","TX",78643,30.7467540580001,-98.678276637,267,"1104 WRIGHT ST, LLANO, TX, 78643","Match","Exact","1104 WRIGHT ST, LLANO, TX, 78643",182244130,"R"
21268,"1104 ZODO AVE","ERIE","CO",80516,40.0310044350001,-105.046337822,268,"1104 ZODO AVE, ERIE, CO, 80516","Match","Exact","1104 ZODO AVE, ERIE, CO, 80516",653868452,"R"
21269,"11040 183RD CIRCLE NW SUITE A","ELK RIVER","MN",55330,NA,NA,269,"11040 183RD CIRCLE NW SUITE A, ELK RIVER, MN, 55330","No_Match",NA,NA,NA,NA
21270,"11040 BOLLINGER CANYON RD STE E-126","SAN RAMON","AR",94582,NA,NA,270,"11040 BOLLINGER CANYON RD STE E-126, SAN RAMON, AR, 94582","No_Match",NA,NA,NA,NA
21271,"11040 BOLLINGER CANYON RD STE E170","SAN RAMON","CA",94582,37.773583999,-121.923297571,271,"11040 BOLLINGER CANYON RD STE E170, SAN RAMON, CA, 94582","Match","Exact","11040 BOLLINGER CANYON RD, SAN RAMON, CA, 94582",634209679,"L"
21272,"11040 BRINK ROAD","GERMANTOWN","MD",20875,39.2075042170001,-77.228295838,272,"11040 BRINK ROAD, GERMANTOWN, MD, 20875","Match","Non_Exact","11040 BRINK RD, GERMANTOWN, MD, 20876",630445394,"R"
21273,"11040 MANCHESTER ROAD","KIRKWOOD","MO",63122,38.599213191,-90.41255617,273,"11040 MANCHESTER ROAD, KIRKWOOD, MO, 63122","Match","Exact","11040 MANCHESTER RD, KIRKWOOD, MO, 63122",100136791,"L"
21274,"11040 OLINDA STREET","SUN VALLEY","CA",91352,34.224138037,-118.371090692,274,"11040 OLINDA STREET, SUN VALLEY, CA, 91352","Match","Exact","11040 OLINDA ST, SUN VALLEY, CA, 91352",142042927,"L"
21275,"11040 PERWINKLE LANE","LOUISVILLE","KY",40291,38.0933460300001,-85.5606056139999,275,"11040 PERWINKLE LANE, LOUISVILLE, KY, 40291","Match","Exact","11040 PERWINKLE LN, LOUISVILLE, KY, 40291",96868153,"L"
21276,"11040 PROSPECT HILL RD","GLEN DALE","MD",20769,38.9831187360001,-76.814116207,276,"11040 PROSPECT HILL RD, GLEN DALE, MD, 20769","Match","Non_Exact","11040 PROSPECT HILL RD, GLENN DALE, MD, 20769",76384729,"L"
21277,"11040 PROSPECT HILL RD","GLENN DALE","MD",20769,38.9831187360001,-76.814116207,277,"11040 PROSPECT HILL RD, GLENN DALE, MD, 20769","Match","Exact","11040 PROSPECT HILL RD, GLENN DALE, MD, 20769",76384729,"L"
21278,"11040 PROSPECT HILL ROAD","GLENN DALE","MD",20769,38.9831187360001,-76.814116207,278,"11040 PROSPECT HILL ROAD, GLENN DALE, MD, 20769","Match","Exact","11040 PROSPECT HILL RD, GLENN DALE, MD, 20769",76384729,"L"
21279,"11040 SW 225TH TERR","MIAMI","FL",33170,25.5575277830001,-80.3709367719999,279,"11040 SW 225TH TERR, MIAMI, FL, 33170","Match","Exact","11040 SW 225TH TER, MIAMI, FL, 33170",632013756,"R"
21280,"11040 SW GREENBURG RD STE 206","PORTLAND","OR",97223,NA,NA,280,"11040 SW GREENBURG RD STE 206, PORTLAND, OR, 97223","No_Match",NA,NA,NA,NA
21281,"11041 5800 ROAD","MONTROSE","CO",81403,38.5323413090001,-108.004693756,281,"11041 5800 ROAD, MONTROSE, CO, 81403","Match","Exact","11041 5800 RD, MONTROSE, CO, 81403",122554679,"L"
21282,"11041 CARMENET WAY","RANCHO CORDOVA","CA",95670,38.5752812810001,-121.27268277,282,"11041 CARMENET WAY, RANCHO CORDOVA, CA, 95670","Match","Exact","11041 CARMENET WAY, RANCHO CORDOVA, CA, 95670",614152314,"L"
21283,"11041 MILLPOND","NEVADA CITY","CA",95959,39.260845633,-121.005117413,283,"11041 MILLPOND, NEVADA CITY, CA, 95959","Match","Non_Exact","11041 MILLPOND LN, NEVADA CITY, CA, 95959",106551178,"R"
21284,"11041 SANTA MONICA BLVD STE 715","LOS ANGELES","CA",90025,34.048231478,-118.442654376,284,"11041 SANTA MONICA BLVD STE 715, LOS ANGELES, CA, 90025","Match","Exact","11041 SANTA MONICA BLVD, LOS ANGELES, CA, 90025",141567698,"R"
21285,"11041 SHADOW CREEK PKWY 121-55","PEARLAND","TX",77584,29.581137287,-95.390449576,285,"11041 SHADOW CREEK PKWY 121-55, PEARLAND, TX, 77584","Match","Exact","11041 SHADOW CREEK PKWY, PEARLAND, TX, 77584",641628457,"R"
21286,"11041 SHADOW CREEK PKWY STE 121-202","PEARLAND","TX",77584,29.581137287,-95.390449576,286,"11041 SHADOW CREEK PKWY STE 121-202, PEARLAND, TX, 77584","Match","Exact","11041 SHADOW CREEK PKWY, PEARLAND, TX, 77584",641628457,"R"
21287,"11041 WALSINGHAM ROAD SUITE 32","LARGO","FL",33774,27.880107018,-82.791968122,287,"11041 WALSINGHAM ROAD SUITE 32, LARGO, FL, 33774","Match","Non_Exact","11041 WALSINGHAM RD, LARGO, FL, 33778",124673815,"R"
21288,"11042 166TH STREET","JAMAICA","NY",11433,NA,NA,288,"11042 166TH STREET, JAMAICA, NY, 11433","No_Match",NA,NA,NA,NA
21289,"11042 ALPHARETTA HIGHWAY APT 1221","ROSWELL","GA",30075,34.0492481570001,-84.338403065,289,"11042 ALPHARETTA HIGHWAY APT 1221, ROSWELL, GA, 30075","Match","Non_Exact","11042 ALPHARETTA HWY, ROSWELL, GA, 30076",17434130,"L"
21290,"11042 BELMAR AVENUE","PORTER RANCH","CA",91326,34.2704905910001,-118.557796444,290,"11042 BELMAR AVENUE, PORTER RANCH, CA, 91326","Match","Exact","11042 BELMAR AVE, PORTER RANCH, CA, 91326",141538877,"R"
21291,"11042 CLOVERLAWN STREET","DETROIT","MI",48238,42.3741912180001,-83.1515040209999,291,"11042 CLOVERLAWN STREET, DETROIT, MI, 48238","Match","Non_Exact","11042 CLOVERLAWN ST, DETROIT, MI, 48204",95442962,"R"
21292,"11042 CYPRESS TRAIL DR","ORLANDO","FL",32825,28.5391120680001,-81.223344845,292,"11042 CYPRESS TRAIL DR, ORLANDO, FL, 32825","Match","Exact","11042 CYPRESS TRAIL DR, ORLANDO, FL, 32825",94421661,"R"
21293,"11042 MAIN STREET","STOUTSVILLE","OH",43154,39.6047301150001,-82.823958628,293,"11042 MAIN STREET, STOUTSVILLE, OH, 43154","Match","Exact","11042 MAIN ST, STOUTSVILLE, OH, 43154",37226319,"R"
21294,"11042 MANCHESTER ROAD","KIRKWOOD","MO",63122,38.5992095870001,-90.412580038,294,"11042 MANCHESTER ROAD, KIRKWOOD, MO, 63122","Match","Exact","11042 MANCHESTER RD, KIRKWOOD, MO, 63122",100136791,"L"
21295,"11042 N 24TH AVE SUITE 103","PHOENIX","AZ",85029,33.5868910880001,-112.111695513,295,"11042 N 24TH AVE SUITE 103, PHOENIX, AZ, 85029","Match","Non_Exact","11042 N 24TH AVE, PHOENIX, AZ, 85029",128262081,"L"
21296,"11042 NW 53RD LN","DORAL","FL",33178,25.822497673,-80.3771125709999,296,"11042 NW 53RD LN, DORAL, FL, 33178","Match","Exact","11042 NW 53RD LN, DORAL, FL, 33178",116259143,"R"
21297,"11042 S STRONGS RD","ECKERMAN","MI",49728,46.3456482,-84.969004594,297,"11042 S STRONGS RD, ECKERMAN, MI, 49728","Match","Exact","11042 S STRONGS RD, ECKERMAN, MI, 49728",130550573,"L"
21298,"11042 SR 525 STE 128","CLINTON","WA",98236,47.984195508,-122.388939964,298,"11042 SR 525 STE 128, CLINTON, WA, 98236","Match","Non_Exact","11042 STATE RTE 525, CLINTON, WA, 98236",187618387,"R"
21299,"11043 PACKARD AVENUE","WARREN","MI",48089,42.458940619,-83.01486376,299,"11043 PACKARD AVENUE, WARREN, MI, 48089","Match","Exact","11043 PACKARD AVE, WARREN, MI, 48089",110677588,"L"
21300,"11043 SANANDREW DRIVE","NEW MARKET","MD",21774,39.4275805130001,-77.2719510969999,300,"11043 SANANDREW DRIVE, NEW MARKET, MD, 21774","Match","Exact","11043 SANANDREW DR, NEW MARKET, MD, 21774",636224125,"R"
21301,"11043 SIMMS RD","BAILEY","NC",27807,35.795278379,-78.0407874809999,301,"11043 SIMMS RD, BAILEY, NC, 27807","Match","Exact","11043 SIMMS RD, BAILEY, NC, 27807",647214690,"R"
21302,"11044 OAKRIDGE DRIVE","FISHERS","IN",46038,39.946779495,-86.0468597459999,302,"11044 OAKRIDGE DRIVE, FISHERS, IN, 46038","Match","Exact","11044 OAKRIDGE DR, FISHERS, IN, 46038",29334119,"R"
21303,"11044 SR 674","WIMAUMA","FL",33598,27.704714509,-82.1921776679999,303,"11044 SR 674, WIMAUMA, FL, 33598","Match","Non_Exact","11044 STATE HWY 674, WIMAUMA, FL, 33598",104500333,"R"
21304,"11044 US HIGHWAY 10","MARSHFIELD","WI",54449,44.5988818170001,-90.2652301699999,304,"11044 US HIGHWAY 10, MARSHFIELD, WI, 54449","Match","Exact","11044 US HWY 10, MARSHFIELD, WI, 54449",642077584,"R"
21305,"11045 BLUE DIAMOND RD","LAS VEGAS","NV",89161,36.031196073,-115.335683476,305,"11045 BLUE DIAMOND RD, LAS VEGAS, NV, 89161","Match","Exact","11045 BLUE DIAMOND RD, LAS VEGAS, NV, 89161",647508768,"R"
21306,"11045 CYNTHIA CIRCLE NO8","GARDEN GROVE","CA",92843,33.7621162610001,-117.937445791,306,"11045 CYNTHIA CIRCLE NO8, GARDEN GROVE, CA, 92843","Match","Exact","11045 CYNTHIA CIR, GARDEN GROVE, CA, 92843",144036820,"L"
21307,"11045 DOXBERRY CIRCLE","WOODSTOCK","MD",21163,39.3140095480001,-76.892701695,307,"11045 DOXBERRY CIRCLE, WOODSTOCK, MD, 21163","Match","Exact","11045 DOXBERRY CIR, WOODSTOCK, MD, 21163",619882412,"R"
21308,"11045 NORTHRIDGE DR","KANSAS CITY","KS",66109,39.1663095100001,-94.833442046,308,"11045 NORTHRIDGE DR, KANSAS CITY, KS, 66109","Match","Exact","11045 NORTHRIDGE DR, KANSAS CITY, KS, 66109",619587193,"L"
21309,"11045 PRESTWICK DR","BENTON","IL",62812,38.02337605,-88.892978323,309,"11045 PRESTWICK DR, BENTON, IL, 62812","Match","Exact","11045 PRESTWICK DR, BENTON, IL, 62812",92960269,"L"
21310,"11045 RUTHELEN ST","LOS ANGELES","CA",90047,33.934383504,-118.311612189,310,"11045 RUTHELEN ST, LOS ANGELES, CA, 90047","Match","Exact","11045 RUTHELEN ST, LOS ANGELES, CA, 90047",141660779,"R"
21311,"11046 E TUPELO AVE","MESA","AZ",85212,33.3147264020001,-111.595301813,311,"11046 E TUPELO AVE, MESA, AZ, 85212","Match","Exact","11046 E TUPELO AVE, MESA, AZ, 85212",648903270,"L"
21312,"11046 QUEENSLAND ST","LOS ANGELES","CA",90034,34.025375862,-118.42396964,312,"11046 QUEENSLAND ST, LOS ANGELES, CA, 90034","Match","Exact","11046 QUEENSLAND ST, LOS ANGELES, CA, 90034",637366813,"L"
21313,"11046 STONE BRANCH DRIVE","RIVERVIEW","FL",33569,27.8297969430001,-82.323219959,313,"11046 STONE BRANCH DRIVE, RIVERVIEW, FL, 33569","Match","Exact","11046 STONE BRANCH DR, RIVERVIEW, FL, 33569",104641421,"R"
21314,"11048 CAMARILLO ST APT 7","NORTH HOLLYWOOD","CA",91602,34.1576409210001,-118.371887993,314,"11048 CAMARILLO ST APT 7, NORTH HOLLYWOOD, CA, 91602","Match","Exact","11048 CAMARILLO ST, N HOLLYWOOD, CA, 91602",638626105,"L"
21315,"11048 NORTH CLOUD VIEW PLACE","ORO VALLEY","AZ",85737,32.4068815910001,-111.003849457,315,"11048 NORTH CLOUD VIEW PLACE, ORO VALLEY, AZ, 85737","Match","Exact","11048 N CLOUD VIEW PL, ORO VALLEY, AZ, 85737",121224477,"L"
21316,"11048 SARATOGA DR","ORLAND","IL",60467,41.592145513,-87.887399323,316,"11048 SARATOGA DR, ORLAND, IL, 60467","Match","Non_Exact","11048 SARATOGA DR, ORLAND PARK, IL, 60467",112380788,"R"
21317,"11049 N 34TH AVE","PHOENIX","AZ",85029,33.5868474100001,-112.132342249,317,"11049 N 34TH AVE, PHOENIX, AZ, 85029","Match","Exact","11049 N 34TH AVE, PHOENIX, AZ, 85029",243917072,"R"
21318,"1105 1/2 CHINO STREET","SANTA BARBARA","CA",93101,34.4140882880001,-119.712325685,318,"1105 1/2 CHINO STREET, SANTA BARBARA, CA, 93101","Match","Exact","1105 CHINO ST, SANTA BARBARA, CA, 93101",108604877,"L"
21319,"1105 15TH AVENUE SUITE D508","LONGVIEW","WA",98632,46.1344022530001,-122.938280948,319,"1105 15TH AVENUE SUITE D508, LONGVIEW, WA, 98632","Match","Exact","1105 15TH AVE, LONGVIEW, WA, 98632",184489257,"L"
21320,"1105 2ND ST","KIEL","WI",53042,43.9181744050001,-88.0312657169999,320,"1105 2ND ST, KIEL, WI, 53042","Match","Exact","1105 2ND ST, KIEL, WI, 53042",147952200,"L"
21321,"1105 8TH STREET","CATASAUQUA","PA",18032,40.6632674160001,-75.473516278,321,"1105 8TH STREET, CATASAUQUA, PA, 18032","Match","Exact","1105 8TH ST, CATASAUQUA, PA, 18032",136874627,"R"
21322,"1105 AFTERNOON SUN ROAD","MATTHEWS","NC",28104,35.1119652880001,-80.65247077,322,"1105 AFTERNOON SUN ROAD, MATTHEWS, NC, 28104","Match","Exact","1105 AFTERNOON SUN RD, MATTHEWS, NC, 28104",634087192,"R"
21323,"1105 ARIZONA COURT","DIXON","CA",95620,NA,NA,323,"1105 ARIZONA COURT, DIXON, CA, 95620","No_Match",NA,NA,NA,NA
21324,"1105 ATTICA ST","BURLINGTON","NC",27217,36.1060682040001,-79.449020171,324,"1105 ATTICA ST, BURLINGTON, NC, 27217","Match","Exact","1105 ATTICA ST, BURLINGTON, NC, 27217",71662490,"R"
21325,"1105 BEALL LANDING COURT","HOUSTON","TX",77008,29.8104784920001,-95.418953954,325,"1105 BEALL LANDING COURT, HOUSTON, TX, 77008","Match","Exact","1105 BEALL LANDING CT, HOUSTON, TX, 77008",645140763,"L"
21326,"1105 BEAR CREEK RD","BLYTHEWOOD","SC",29016,34.2440005770001,-80.8896158589999,326,"1105 BEAR CREEK RD, BLYTHEWOOD, SC, 29016","Match","Exact","1105 BEAR CREEK RD, BLYTHEWOOD, SC, 29016",71844507,"L"
21327,"1105 BEECHWOOD DRIVE","BREA","CA",92821,33.936235492,-117.907557739,327,"1105 BEECHWOOD DRIVE, BREA, CA, 92821","Match","Exact","1105 BEECHWOOD DR, BREA, CA, 92821",144006958,"L"
21328,"1105 BETHUNE DRIVE","ORLANDO","FL",32805,28.5280499460001,-81.420077889,328,"1105 BETHUNE DRIVE, ORLANDO, FL, 32805","Match","Exact","1105 BETHUNE DR, ORLANDO, FL, 32805",94273918,"L"
21329,"1105 BRAZOS DRIVE","SOUTHLAKE","TX",76092,32.946726246,-97.165386256,329,"1105 BRAZOS DRIVE, SOUTHLAKE, TX, 76092","Match","Exact","1105 BRAZOS DR, SOUTHLAKE, TX, 76092",102087674,"R"
21330,"1105 BRICE","MERIDIAN","TX",76665,31.935927857,-97.6621002109999,330,"1105 BRICE, MERIDIAN, TX, 76665","Match","Non_Exact","1105 BRICE ST, MERIDIAN, TX, 76665",158593904,"L"
21331,"1105 CAMERON AVE","CHESTER","VA",23836,37.332890965,-77.336441706,331,"1105 CAMERON AVE, CHESTER, VA, 23836","Match","Exact","1105 CAMERON AVE, CHESTER, VA, 23836",201565233,"L"
21332,"1105 CERRITOS DRIVE","FULLERTON","CA",92835,33.8840319550001,-117.934227585,332,"1105 CERRITOS DRIVE, FULLERTON, CA, 92835","Match","Exact","1105 CERRITOS DR, FULLERTON, CA, 92835",144008596,"L"
21333,"1105 CHESTNUT ST UNIT 373","MURRAY","KY",42071,36.61708265,-88.3138332139999,333,"1105 CHESTNUT ST UNIT 373, MURRAY, KY, 42071","Match","Exact","1105 CHESTNUT ST, MURRAY, KY, 42071",31708831,"R"
21334,"1105 CHURCH STREET","BARLING","AR",72923,35.324322613,-94.307897767,334,"1105 CHURCH STREET, BARLING, AR, 72923","Match","Exact","1105 CHURCH ST, BARLING, AR, 72923",56167329,"L"
21335,"1105 CLAIRE AVE","AUSTIN","TX",78703,30.2939279550001,-97.749186798,335,"1105 CLAIRE AVE, AUSTIN, TX, 78703","Match","Exact","1105 CLAIRE AVE, AUSTIN, TX, 78703",63942529,"L"
21336,"1105 CLARA AVE  3107","PANAMA CITY BEACH","FL",32407,NA,NA,336,"1105 CLARA AVE  3107, PANAMA CITY BEACH, FL, 32407","No_Match",NA,NA,NA,NA
21337,"1105 CLASSIC ROAD","APEX","NC",27539,35.7171851150001,-78.82935743,337,"1105 CLASSIC ROAD, APEX, NC, 27539","Match","Exact","1105 CLASSIC RD, APEX, NC, 27539",208369337,"R"
21338,"1105 COLUMBINE ST","WENATCHEE","WA",98801,47.416594446,-120.327460683,338,"1105 COLUMBINE ST, WENATCHEE, WA, 98801","Match","Exact","1105 COLUMBINE ST, WENATCHEE, WA, 98801",156974211,"L"
21339,"1105 COLUMNS DR","LITHIA SPRINGS","GA",30122,33.7695307450001,-84.6327513809999,339,"1105 COLUMNS DR, LITHIA SPRINGS, GA, 30122","Match","Exact","1105 COLUMNS DR, LITHIA SPGS, GA, 30122",632433791,"R"
21340,"1105 CONLEY ST","HAMMON","OK",73650,NA,NA,340,"1105 CONLEY ST, HAMMON, OK, 73650","No_Match",NA,NA,NA,NA
21341,"1105 DALELAND DR","RALEIGH","NC",27612,35.8230374730001,-78.678969579,341,"1105 DALELAND DR, RALEIGH, NC, 27612","Match","Exact","1105 DALELAND DR, RALEIGH, NC, 27612",72501570,"L"
21342,"1105 DAVIS SOUND LANE","WILMINGTON","NC",28409,34.1862686860001,-77.871916286,342,"1105 DAVIS SOUND LANE, WILMINGTON, NC, 28409","Match","Exact","1105 DAVIS SOUND LN, WILMINGTON, NC, 28409",152766668,"L"
21343,"1105 DEER ST SUITE 14","CONWAY","AR",72034,35.087496657,-92.4381553329999,343,"1105 DEER ST SUITE 14, CONWAY, AR, 72034","Match","Non_Exact","1105 DEER ST, CONWAY, AR, 72032",141044153,"R"
21344,"1105 E 12TH","FORT SCOTT","KS",66701,37.826868382,-94.695515818,344,"1105 E 12TH, FORT SCOTT, KS, 66701","Match","Non_Exact","1105 E 12TH ST, FORT SCOTT, KS, 66701",27475224,"R"
21345,"1105 E CONCORD STREET","ORLANDO","FL",32803,28.5513119730001,-81.3653422789999,345,"1105 E CONCORD STREET, ORLANDO, FL, 32803","Match","Exact","1105 E CONCORD ST, ORLANDO, FL, 32803",94282213,"L"
21346,"1105 E ISAACS AVE","WALLA WALLA","WA",99362,46.0736181010001,-118.323519433,346,"1105 E ISAACS AVE, WALLA WALLA, WA, 99362","Match","Exact","1105 E ISAACS AVE, WALLA WALLA, WA, 99362",174673291,"L"
21347,"1105 EAST PARK AVENUE","SAVANNAH","GA",31404,32.060467084,-81.080741046,347,"1105 EAST PARK AVENUE, SAVANNAH, GA, 31404","Match","Exact","1105 E PARK AVE, SAVANNAH, GA, 31404",6177031,"R"
21348,"1105 ELK STREET","YUKON","OK",73099,35.5187221800001,-97.72395468,348,"1105 ELK STREET, YUKON, OK, 73099","Match","Exact","1105 ELK ST, YUKON, OK, 73099",92528417,"L"
21349,"1105 FARRAR RD","PALMER","TX",75152,32.452737923,-96.742444443,349,"1105 FARRAR RD, PALMER, TX, 75152","Match","Exact","1105 FARRAR RD, PALMER, TX, 75152",103496723,"L"
21350,"1105 FARRAR ROAD","PALMER","TX",75152,32.452737923,-96.742444443,350,"1105 FARRAR ROAD, PALMER, TX, 75152","Match","Exact","1105 FARRAR RD, PALMER, TX, 75152",103496723,"L"
21351,"1105 FRANCES ST","NORTH AUGUSTA","SC",29841,33.4947383050001,-81.9536426499999,351,"1105 FRANCES ST, NORTH AUGUSTA, SC, 29841","Match","Exact","1105 FRANCES ST, NORTH AUGUSTA, SC, 29841",64985430,"R"
21352,"1105 FT CLARKE BLVD 1503","GAINESVILLE","FL",32606,29.66072904,-82.433568323,352,"1105 FT CLARKE BLVD 1503, GAINESVILLE, FL, 32606","Match","Exact","1105 FORT CLARKE BLVD, GAINESVILLE, FL, 32606",6855012,"R"
21353,"1105 GARTLAND AVENUE","NASHVILLE","TN",37206,36.1795363780001,-86.749286974,353,"1105 GARTLAND AVENUE, NASHVILLE, TN, 37206","Match","Exact","1105 GARTLAND AVE, NASHVILLE, TN, 37206",606372870,"L"
21354,"1105 HASTY TRAIL","CANTON","GA",30115,34.2326586890001,-84.397894621,354,"1105 HASTY TRAIL, CANTON, GA, 30115","Match","Exact","1105 HASTY TRL, CANTON, GA, 30115",68837137,"L"
21355,"1105 HAYES AVE","NORFOLK","NE",68701,42.027983572,-97.421822752,355,"1105 HAYES AVE, NORFOLK, NE, 68701","Match","Exact","1105 HAYES AVE, NORFOLK, NE, 68701",161564872,"L"
21356,"1105 HERMITAGE AVE SE","HUNTSVILLE","AL",35801,34.7273334450001,-86.571788168,356,"1105 HERMITAGE AVE SE, HUNTSVILLE, AL, 35801","Match","Exact","1105 HERMITAGE AVE SE, HUNTSVILLE, AL, 35801",58119203,"L"
21357,"1105 HIGHLANDS DRIVE","HAMPSTEAD","NC",28443,34.4026551800001,-77.700089426,357,"1105 HIGHLANDS DRIVE, HAMPSTEAD, NC, 28443","Match","Exact","1105 HIGHLANDS DR, HAMPSTEAD, NC, 28443",614156017,"R"
21358,"1105 ISLAND DRIVE","BAYVILLE","NJ",8721,39.8988680320001,-74.132288215,358,"1105 ISLAND DRIVE, BAYVILLE, NJ, 8721","Match","Exact","1105 ISLAND DR, BAYVILLE, NJ, 08721",203842324,"R"
21359,"1105 KELLY DR","SANFORD","NC",27330,35.47052552,-79.143670421,359,"1105 KELLY DR, SANFORD, NC, 27330","Match","Exact","1105 KELLY DR, SANFORD, NC, 27330",72076735,"L"
21360,"1105 LEON ST","KEY WEST","FL",33040,24.5561683230001,-81.7866589499999,360,"1105 LEON ST, KEY WEST, FL, 33040","Match","Exact","1105 LEON ST, KEY WEST, FL, 33040",116489321,"L"
21361,"1105 LINDEN STREET","WOODBRIDGE","VA",22191,38.631711566,-77.249149759,361,"1105 LINDEN STREET, WOODBRIDGE, VA, 22191","Match","Exact","1105 LINDEN ST, WOODBRIDGE, VA, 22191",76511978,"L"
21362,"1105 LONG STREET","INGLEWOOD","CA",90302,33.980178247,-118.338340009,362,"1105 LONG STREET, INGLEWOOD, CA, 90302","Match","Non_Exact","1105 N LONG ST, INGLEWOOD, CA, 90302",141654899,"L"
21363,"1105 LOVE STREET","ALBEMARLE","NC",28001,35.3618110240001,-80.210916098,363,"1105 LOVE STREET, ALBEMARLE, NC, 28001","Match","Exact","1105 LOVE ST, ALBEMARLE, NC, 28001",14079737,"L"
21364,"1105 MAIN ST","ROCK VALLEY","IA",51247,43.2012633520001,-96.294884026,364,"1105 MAIN ST, ROCK VALLEY, IA, 51247","Match","Exact","1105 MAIN ST, ROCK VALLEY, IA, 51247",93369072,"L"
21365,"1105 MAIN STREET","HIGHLAND","IL",62249,38.7404771390001,-89.6776050409999,365,"1105 MAIN STREET, HIGHLAND, IL, 62249","Match","Exact","1105 MAIN ST, HIGHLAND, IL, 62249",107674857,"L"
21366,"1105 MARY T MEAGHER DRIVE","ELIZABETHTOWN","KY",42701,37.7181055040001,-85.8394304989999,366,"1105 MARY T MEAGHER DRIVE, ELIZABETHTOWN, KY, 42701","Match","Exact","1105 MARY T MEAGHER DR, ELIZABETHTOWN, KY, 42701",34633017,"L"
21367,"1105 MEADOWS PLACE","JEFFERSON CITY","MO",65101,38.551035917,-92.1590483539999,367,"1105 MEADOWS PLACE, JEFFERSON CITY, MO, 65101","Match","Exact","1105 MEADOWS PL, JEFFERSON CITY, MO, 65101",34416653,"L"
21368,"1105 METROPOLITAN AVE","LEAVENWORTH","KS",66048,39.3278773480001,-94.930696482,368,"1105 METROPOLITAN AVE, LEAVENWORTH, KS, 66048","Match","Non_Exact","1105 METROPOLITAN ST, LEAVENWORTH, KS, 66048",91400056,"L"
21369,"1105 MILLAR STREET","KETCHIKAN","AK",99901,55.346592946,-131.65803498,369,"1105 MILLAR STREET, KETCHIKAN, AK, 99901","Match","Exact","1105 MILLAR ST, KETCHIKAN, AK, 99901",190768897,"R"
21370,"1105 MOUNT OLIVE AVE","SAINT LOUIS","MO",63130,38.669428075,-90.3384933679999,370,"1105 MOUNT OLIVE AVE, SAINT LOUIS, MO, 63130","Match","Exact","1105 MOUNT OLIVE AVE, SAINT LOUIS, MO, 63130",100133847,"L"
21371,"1105 N CYPRESS AVENUE","BROKEN ARROW","OK",74012,36.061666561,-95.8459910989999,371,"1105 N CYPRESS AVENUE, BROKEN ARROW, OK, 74012","Match","Exact","1105 N CYPRESS AVE, BROKEN ARROW, OK, 74012",166457985,"L"
21372,"1105 N EVERGREEN ST","SPOKANE","WA",99201,47.666896578,-117.460841177,372,"1105 N EVERGREEN ST, SPOKANE, WA, 99201","Match","Exact","1105 N EVERGREEN ST, SPOKANE, WA, 99201",189905769,"L"
21373,"1105 N MARKET STREET SUITE 1700","WILMINGTON","DE",19801,39.746551534,-75.547124138,373,"1105 N MARKET STREET SUITE 1700, WILMINGTON, DE, 19801","Match","Non_Exact","1105 N MARKET ST, WILMINGTON, DE, 19801",187257888,"L"
21374,"1105 N VULCAN AVE","ENCINITAS","CA",92024,33.06872822,-117.303155075,374,"1105 N VULCAN AVE, ENCINITAS, CA, 92024","Match","Exact","1105 N VULCAN AVE, ENCINITAS, CA, 92024",195689246,"R"
21375,"1105 NEW DOVER ROAD","EDISON","NJ",8820,40.578609208,-74.373055289,375,"1105 NEW DOVER ROAD, EDISON, NJ, 8820","Match","Exact","1105 NEW DOVER RD, EDISON, NJ, 08820",60363595,"L"
21376,"1105 NEWFIELD ROAD","GWYNN OAK","MD",21207,39.2933893310001,-76.722395289,376,"1105 NEWFIELD ROAD, GWYNN OAK, MD, 21207","Match","Exact","1105 NEWFIELD RD, GWYNN OAK, MD, 21207",191484703,"R"
21377,"1105 NEWMANS TRL","HENDERSONVILLE","TN",37075,36.3807629470001,-86.594484897,377,"1105 NEWMANS TRL, HENDERSONVILLE, TN, 37075","Match","Exact","1105 NEWMANS TRL, HENDERSONVILLE, TN, 37075",29795084,"L"
21378,"1105 NORTH 19TH STREET","ELWOOD","IN",46036,40.2879076030001,-85.836811815,378,"1105 NORTH 19TH STREET, ELWOOD, IN, 46036","Match","Exact","1105 N 19TH ST, ELWOOD, IN, 46036",647360372,"R"
21379,"1105 NORTH DOLTON COURT","WILMINGTON","DE",19810,39.8175389030001,-75.4745686749999,379,"1105 NORTH DOLTON COURT, WILMINGTON, DE, 19810","Match","Exact","1105 N DOLTON CT, WILMINGTON, DE, 19810",187260626,"R"
21380,"1105 NORTH GRANT STREET","WEST LAFAYETTE","IN",47906,40.436270323,-86.9106319589999,380,"1105 NORTH GRANT STREET, WEST LAFAYETTE, IN, 47906","Match","Exact","1105 N GRANT ST, W LAFAYETTE, IN, 47906",624764168,"L"
21381,"1105 NW 155TH LANE APT 101","MIAMI","FL",33169,25.9174967280001,-80.21634482,381,"1105 NW 155TH LANE APT 101, MIAMI, FL, 33169","Match","Non_Exact","1105 NW 155TH LN, MIAMI, FL, 33169",641972668,"R"
21382,"1105 NW 91ST TERRACE","KANSAS CITY","MO",64155,39.260253457,-94.594830528,382,"1105 NW 91ST TERRACE, KANSAS CITY, MO, 64155","Match","Exact","1105 NW 91 TER, KANSAS CITY, MO, 64155",624644923,"R"
21383,"1105 OTTAWA AVE","GRAND HAVEN","MI",49417,43.0500792080001,-86.215212153,383,"1105 OTTAWA AVE, GRAND HAVEN, MI, 49417","Match","Exact","1105 OTTAWA AVE, GRAND HAVEN, MI, 49417",71085946,"R"
21384,"1105 PFEIFFER RD","BATESVILLE","AR",72501,35.8346569020001,-91.556277763,384,"1105 PFEIFFER RD, BATESVILLE, AR, 72501","Match","Exact","1105 PFEIFFER RD, BATESVILLE, AR, 72501",41656988,"R"
21385,"1105 POINDEXTER STREET","CHESAPEAKE","VA",23324,36.817209452,-76.2759473519999,385,"1105 POINDEXTER STREET, CHESAPEAKE, VA, 23324","Match","Exact","1105 POINDEXTER ST, CHESAPEAKE, VA, 23324",121789975,"L"
21386,"1105 POPLAR STREET","PHILADELPHIA","PA",19123,39.969145203,-75.1553843459999,386,"1105 POPLAR STREET, PHILADELPHIA, PA, 19123","Match","Exact","1105 POPLAR ST, PHILADELPHIA, PA, 19123",642007120,"R"
21387,"1105 PRINCETON LANE STE B","WALDORF","MD",20602,38.5970041320001,-76.91570138,387,"1105 PRINCETON LANE STE B, WALDORF, MD, 20602","Match","Exact","1105 PRINCETON LN, WALDORF, MD, 20602",25369529,"R"
21388,"1105 RANCH ROAD","WARSAW","IN",46580,41.2259952480001,-85.857987451,388,"1105 RANCH ROAD, WARSAW, IN, 46580","Match","Exact","1105 RANCH RD, WARSAW, IN, 46580",7920679,"R"
21389,"1105 RONLIN STREET","HAINES CITY","FL",33844,28.122820726,-81.66138761,389,"1105 RONLIN STREET, HAINES CITY, FL, 33844","Match","Exact","1105 RONLIN ST, HAINES CITY, FL, 33844",616485454,"R"
21390,"1105 ROUTE 32","STILLWATER","NY",12170,42.972484169,-73.633568182,390,"1105 ROUTE 32, STILLWATER, NY, 12170","Match","Non_Exact","1105 STATE HWY 32, STILLWATER, NY, 12170",18807682,"L"
21391,"1105 RUE DES ETOILES","CARENCRO","LA",70520,30.3318697400001,-92.0100314859999,391,"1105 RUE DES ETOILES, CARENCRO, LA, 70520","Match","Exact","1105 RUE DES ETOILES, CARENCRO, LA, 70520",85644056,"L"
21392,"1105 S EUCLID ST STE D322","FULLERTON","CA",91436,NA,NA,392,"1105 S EUCLID ST STE D322, FULLERTON, CA, 91436","No_Match",NA,NA,NA,NA
21393,"1105 S EUCLID ST SUITE D201","FULLERTON","CA",92832,33.8609317360001,-117.941849144,393,"1105 S EUCLID ST SUITE D201, FULLERTON, CA, 92832","Match","Non_Exact","1105 S EUCLID ST, FULLERTON, CA, 92832",630123995,"R"
21394,"1105 S MAYFIELD AVENUE","CHICAGO","IL",60644,41.867166522,-87.771721914,394,"1105 S MAYFIELD AVENUE, CHICAGO, IL, 60644","Match","Exact","1105 S MAYFIELD AVE, CHICAGO, IL, 60644",605077131,"L"
21395,"1105 SE LOWELL DR","ANKENY","IA",50021,41.720125646,-93.583731015,395,"1105 SE LOWELL DR, ANKENY, IA, 50021","Match","Exact","1105 SE LOWELL DR, ANKENY, IA, 50021",65805890,"R"
21396,"1105 SIOUX STREET","JUPITER","FL",33458,26.9296438920001,-80.1131249169999,396,"1105 SIOUX STREET, JUPITER, FL, 33458","Match","Exact","1105 SIOUX ST, JUPITER, FL, 33458",115580668,"R"
21397,"1105 SLAYDEN CT","APOPKA","FL",32712,28.7604730150001,-81.530392015,397,"1105 SLAYDEN CT, APOPKA, FL, 32712","Match","Exact","1105 SLAYDEN CT, APOPKA, FL, 32712",94404336,"L"
21398,"1105 SO MEIGS ST","VALLEY","NE",68022,NA,NA,398,"1105 SO MEIGS ST, VALLEY, NE, 68022","No_Match",NA,NA,NA,NA
21399,"1105 SOUTH DOUGLAS AVENUE","NASHVILLE","TN",37204,36.1306959020001,-86.787558323,399,"1105 SOUTH DOUGLAS AVENUE, NASHVILLE, TN, 37204","Match","Non_Exact","1105 DOUGLAS AVE, NASHVILLE, TN, 37204",97190779,"L"
21400,"1105 SOUTH TRACY AVE","BOZEMAN","MT",59715,45.668102451,-111.037318505,400,"1105 SOUTH TRACY AVE, BOZEMAN, MT, 59715","Match","Exact","1105 S TRACY AVE, BOZEMAN, MT, 59715",163498508,"L"
21401,"1105 STRATWOOD AVE","OXON HILL","MD",20745,38.799080152,-76.989170588,401,"1105 STRATWOOD AVE, OXON HILL, MD, 20745","Match","Exact","1105 STRATWOOD AVE, OXON HILL, MD, 20745",76315178,"R"
21402,"1105 SW 30TH COURT","MOORE","OK",73160,NA,NA,402,"1105 SW 30TH COURT, MOORE, OK, 73160","No_Match",NA,NA,NA,NA
21403,"1105 TRUDEAU DRIVE","METAIRIE","LA",70003,29.988508192,-90.219251422,403,"1105 TRUDEAU DRIVE, METAIRIE, LA, 70003","Match","Exact","1105 TRUDEAU DR, METAIRIE, LA, 70003",93495958,"R"
21404,"1105 VALLEY STREET","MCKEES ROCKS","PA",15136,40.4706826510001,-80.074652897,404,"1105 VALLEY STREET, MCKEES ROCKS, PA, 15136","Match","Non_Exact","1105 VALLEY ST, MC KEES ROCKS, PA, 15136",51621108,"L"
21405,"1105 VENIDO DR","KNOXVILLE","TN",37932,35.9233915940001,-84.146508871,405,"1105 VENIDO DR, KNOXVILLE, TN, 37932","Match","Exact","1105 VENIDO DR, KNOXVILLE, TN, 37932",42610447,"R"
21406,"1105 W 9TH STREET","WILMINGTON","DE",19806,39.7490456580001,-75.559140842,406,"1105 W 9TH STREET, WILMINGTON, DE, 19806","Match","Exact","1105 W 9TH ST, WILMINGTON, DE, 19806",187257160,"R"
21407,"1105 W ANDERSON STREET","SELMA","NC",27576,35.541840392,-78.294616278,407,"1105 W ANDERSON STREET, SELMA, NC, 27576","Match","Exact","1105 W ANDERSON ST, SELMA, NC, 27576",26523697,"L"
21408,"1105 W DICKERSON","BOZEMAN","MT",59715,45.6733178150001,-111.052248598,408,"1105 W DICKERSON, BOZEMAN, MT, 59715","Match","Non_Exact","1105 W DICKERSON ST, BOZEMAN, MT, 59715",163549884,"L"
21409,"1105 W FRANKLIN ST","TYLER","TX",75702,32.3664619840001,-95.311150292,409,"1105 W FRANKLIN ST, TYLER, TX, 75702","Match","Exact","1105 W FRANKLIN ST, TYLER, TX, 75702",141266047,"R"
21410,"1105 W MAIN ST UNIT 703","DURHAM","NC",27701,NA,NA,410,"1105 W MAIN ST UNIT 703, DURHAM, NC, 27701","Tie",NA,NA,NA,NA
21411,"1105 W MAIN STREET","PAYNESVILLE","MN",56362,45.3765613460001,-94.731000863,411,"1105 W MAIN STREET, PAYNESVILLE, MN, 56362","Match","Exact","1105 MAIN ST, PAYNESVILLE, MN, 56362",107441377,"R"
21412,"1105 WALTHAM STREET","METAIRIE","LA",70001,29.9832683590001,-90.165242585,412,"1105 WALTHAM STREET, METAIRIE, LA, 70001","Match","Exact","1105 WALTHAM ST, METAIRIE, LA, 70001",93500898,"R"
21413,"1105 WEDDEL AVE","BALTIMORE","MD",21227,39.2649338080001,-76.6814935909999,413,"1105 WEDDEL AVE, BALTIMORE, MD, 21227","Match","Exact","1105 WEDDEL AVE, BALTIMORE, MD, 21227",191486052,"R"
21414,"1105 WEST CORPUS CHRISTI","BEEVILLE","TX",78102,28.3976191080001,-97.757777873,414,"1105 WEST CORPUS CHRISTI, BEEVILLE, TX, 78102","Match","Non_Exact","1105 W CORPUS CHRISTI ST, BEEVILLE, TX, 78102",35613273,"R"
21415,"1105 WEST ESSEX AVENUE","KIRKWOOD","MO",63122,38.589144183,-90.426413441,415,"1105 WEST ESSEX AVENUE, KIRKWOOD, MO, 63122","Match","Exact","1105 W ESSEX AVE, KIRKWOOD, MO, 63122",637446810,"R"
21416,"1105 WESTWOOD AVE","KINGSFORD","MI",49802,45.82103133,-88.098693355,416,"1105 WESTWOOD AVE, KINGSFORD, MI, 49802","Match","Exact","1105 WESTWOOD AVE, KINGSFORD, MI, 49802",170168615,"L"
21417,"1105 WHISPERING PINES RD","UNICOI","TN",37692,NA,NA,417,"1105 WHISPERING PINES RD, UNICOI, TN, 37692","No_Match",NA,NA,NA,NA
21418,"1105 WHITTENBURG DRIVE","FORT WORTH","TX",76134,32.6444606470001,-97.335165882,418,"1105 WHITTENBURG DRIVE, FORT WORTH, TX, 76134","Match","Exact","1105 WHITTENBURG DR, FORT WORTH, TX, 76134",619872415,"L"
21419,"1105 WILLOWWICK CIRCLE","PFLUGERVILLE","TX",78660,30.4496800420001,-97.618496305,419,"1105 WILLOWWICK CIRCLE, PFLUGERVILLE, TX, 78660","Match","Exact","1105 WILLOWWICK CIR, PFLUGERVILLE, TX, 78660",63933641,"R"
21420,"1105 WOODSIDE AVE","GREENVILLE","SC",29611,34.8607098430001,-82.427102995,420,"1105 WOODSIDE AVE, GREENVILLE, SC, 29611","Match","Exact","1105 WOODSIDE AVE, GREENVILLE, SC, 29611",38299236,"L"
21421,"1105 WYNDHAM HILLS DR","LEXINGTON","KY",40514,37.978340814,-84.564284394,421,"1105 WYNDHAM HILLS DR, LEXINGTON, KY, 40514","Match","Exact","1105 WYNDHAM HILLS DR, LEXINGTON, KY, 40514",31938572,"R"
21422,"1105 YORKSHIRE PL","DAYTON","OH",45419,39.7181382260001,-84.15546911,422,"1105 YORKSHIRE PL, DAYTON, OH, 45419","Match","Exact","1105 YORKSHIRE PL, DAYTON, OH, 45419",143581826,"R"
21423,"1105-B CHURCHILL DR","GASTONIA","NC",28054,35.2476063280001,-81.15833416,423,"1105-B CHURCHILL DR, GASTONIA, NC, 28054","Match","Exact","1105 CHURCHILL DR, GASTONIA, NC, 28054",70380581,"R"
21424,"11050 ARLINGTON AVE","RIVERSIDE","CA",92505,33.9448232340001,-117.499936947,424,"11050 ARLINGTON AVE, RIVERSIDE, CA, 92505","Match","Exact","11050 ARLINGTON AVE, RIVERSIDE, CA, 92505",194736400,"L"
21425,"11050 ARTESIA BLVD STE B","CERRITOS","CA",90703,33.8729428990001,-118.098591721,425,"11050 ARTESIA BLVD STE B, CERRITOS, CA, 90703","Match","Exact","11050 ARTESIA BLVD, CERRITOS, CA, 90703",142662519,"R"
21426,"11050 E RENFIELD AVE","MESA","AZ",85212,33.338328335,-111.595172276,426,"11050 E RENFIELD AVE, MESA, AZ, 85212","Match","Exact","11050 E RENFIELD AVE, MESA, AZ, 85212",616712541,"L"
21427,"11050 FANCHER ROAD LOT 270","WESTERVILLE","OH",43082,40.133455451,-82.835949523,427,"11050 FANCHER ROAD LOT 270, WESTERVILLE, OH, 43082","Match","Exact","11050 FANCHER RD, WESTERVILLE, OH, 43082",637667272,"L"
21428,"11050 HARTS RD APT 208","JACKSONVILLE","FL",32218,30.4351282320001,-81.660257067,428,"11050 HARTS RD APT 208, JACKSONVILLE, FL, 32218","Match","Exact","11050 HARTS RD, JACKSONVILLE, FL, 32218",648217172,"L"
21429,"11050 N 96TH STREET","SCOTTSDALE","AZ",85260,33.5865875740001,-111.874043941,429,"11050 N 96TH STREET, SCOTTSDALE, AZ, 85260","Match","Exact","11050 N 96TH ST, SCOTTSDALE, AZ, 85260",128189875,"L"
21430,"11050 PINEHIGH DRIVE","ALPHARETTA","GA",30022,34.0504161530001,-84.233237378,430,"11050 PINEHIGH DRIVE, ALPHARETTA, GA, 30022","Match","Exact","11050 PINEHIGH DR, ALPHARETTA, GA, 30022",17376085,"R"
21431,"11050 W WHYMAN AVENUE","AVONDALE","AZ",85323,33.4246415320001,-112.299194227,431,"11050 W WHYMAN AVENUE, AVONDALE, AZ, 85323","Match","Exact","11050 W WHYMAN AVE, AVONDALE, AZ, 85323",128867224,"R"
21432,"11051 COURSEY BOULEVARD","BATON ROUGE","LA",70816,30.415005152,-91.058469967,432,"11051 COURSEY BOULEVARD, BATON ROUGE, LA, 70816","Match","Exact","11051 COURSEY BLVD, BATON ROUGE, LA, 70816",92208038,"L"
21433,"11052 CAMINITO VISITA PACIFICA","SAN DIEGO","CA",92131,NA,NA,433,"11052 CAMINITO VISITA PACIFICA, SAN DIEGO, CA, 92131","No_Match",NA,NA,NA,NA
21434,"11053 N BOYER RD","SANDPOINT","ID",83864,48.3248706520001,-116.557128501,434,"11053 N BOYER RD, SANDPOINT, ID, 83864","Match","Exact","11053 N BOYER RD, SANDPOINT, ID, 83864",169501085,"R"
21435,"11054 LYNN LAKE CIRCLE","TAMPA","FL",33625,28.047754185,-82.542162869,435,"11054 LYNN LAKE CIRCLE, TAMPA, FL, 33625","Match","Exact","11054 LYNN LAKE CIR, TAMPA, FL, 33625",104658840,"L"
21436,"11054 S MARY DRIVE","SANDY","UT",84092,40.550060199,-111.840044601,436,"11054 S MARY DRIVE, SANDY, UT, 84092","Match","Exact","11054 S MARY DR, SANDY, UT, 84092",176090618,"L"
21437,"11054 VENTURA BLVD STE 258","STUDIO CITY","CA",91604,34.1409341460001,-118.371502328,437,"11054 VENTURA BLVD STE 258, STUDIO CITY, CA, 91604","Match","Exact","11054 VENTURA BLVD, STUDIO CITY, CA, 91604",141593332,"L"
21438,"11054 VENTURA BLVD SUITE 211","STUDIO CITY","CA",91604,34.1409341460001,-118.371502328,438,"11054 VENTURA BLVD SUITE 211, STUDIO CITY, CA, 91604","Match","Exact","11054 VENTURA BLVD, STUDIO CITY, CA, 91604",141593332,"L"
21439,"11054 VENTURA BLVD SUITE 239","STUDIO CITY","CA",91604,34.1409341460001,-118.371502328,439,"11054 VENTURA BLVD SUITE 239, STUDIO CITY, CA, 91604","Match","Exact","11054 VENTURA BLVD, STUDIO CITY, CA, 91604",141593332,"L"
21440,"11054 VENTURA BLVD SUITE 239","STUDIO ITY","CA",91604,34.1409341460001,-118.371502328,440,"11054 VENTURA BLVD SUITE 239, STUDIO ITY, CA, 91604","Match","Non_Exact","11054 VENTURA BLVD, STUDIO CITY, CA, 91604",141593332,"L"
21441,"11054 VENTURA BLVD SUITE 309","STUDIO CITY","CA",91604,34.1409341460001,-118.371502328,441,"11054 VENTURA BLVD SUITE 309, STUDIO CITY, CA, 91604","Match","Exact","11054 VENTURA BLVD, STUDIO CITY, CA, 91604",141593332,"L"
21442,"11055 BIRCHTREE LANE","LAUREL","MD",20723,39.142106961,-76.899147163,442,"11055 BIRCHTREE LANE, LAUREL, MD, 20723","Match","Exact","11055 BIRCHTREE LN, LAUREL, MD, 20723",614340164,"R"
21443,"11055 CUMPSTON STREET APT 503","NORTH HOLLYWOOD","CA",91601,34.16999696,-118.372058436,443,"11055 CUMPSTON STREET APT 503, NORTH HOLLYWOOD, CA, 91601","Match","Exact","11055 CUMPSTON ST, N HOLLYWOOD, CA, 91601",141591600,"R"
21444,"11055 E 75TH STREET","INDIANAPOLIS","IN",46236,39.8910554720001,-85.973613857,444,"11055 E 75TH STREET, INDIANAPOLIS, IN, 46236","Match","Exact","11055 E 75TH ST, INDIANAPOLIS, IN, 46236",108035464,"R"
21445,"11055 KINSTON RIDGE PLACE","CHARLOTTE","NC",28273,35.1099839570001,-80.979722764,445,"11055 KINSTON RIDGE PLACE, CHARLOTTE, NC, 28273","Match","Exact","11055 KINSTON RIDGE PL, CHARLOTTE, NC, 28273",70629100,"R"
21446,"11055 N CAMINO DE LA TIERRA","TUCSON","AZ",85742,NA,NA,446,"11055 N CAMINO DE LA TIERRA, TUCSON, AZ, 85742","No_Match",NA,NA,NA,NA
21447,"11055 PENINSULA LN","FT WORTH","TX",76244,32.9361200640001,-97.297743421,447,"11055 PENINSULA LN, FT WORTH, TX, 76244","Match","Non_Exact","11055 PENINSULA, FORT WORTH, TX, 76244",641667803,"R"
21448,"11055 SW 15TH ST","PEMBROKE PINES","FL",33025,25.9947068750001,-80.294934374,448,"11055 SW 15TH ST, PEMBROKE PINES, FL, 33025","Match","Exact","11055 SW 15TH ST, PEMBROKE PINES, FL, 33025",114782950,"R"
21449,"11055 WHISPERING PINES LANE","BOCA RATON","FL",33428,26.344033709,-80.224749032,449,"11055 WHISPERING PINES LANE, BOCA RATON, FL, 33428","Match","Exact","11055 WHISPERING PINES LN, BOCA RATON, FL, 33428",115299707,"R"
21450,"11056 SPRINGTREE PLACE","INDIANAPOLIS","IN",46239,39.766248965,-85.9693577359999,450,"11056 SPRINGTREE PLACE, INDIANAPOLIS, IN, 46239","Match","Exact","11056 SPRINGTREE PL, INDIANAPOLIS, IN, 46239",108039031,"L"
21451,"11057 MCINTOSH COURT","WALDORF","MD",20602,38.5881888160001,-76.894967391,451,"11057 MCINTOSH COURT, WALDORF, MD, 20602","Match","Non_Exact","11057 MCINTOSCH CT, WALDORF, MD, 20602",648213367,"R"
21452,"11057 MT RUN LAKE RD","CULPEPER","VA",22701,38.459942509,-78.046371683,452,"11057 MT RUN LAKE RD, CULPEPER, VA, 22701","Match","Exact","11057 MOUNTAIN RUN LAKE RD, CULPEPER, VA, 22701",29847163,"R"
21453,"11057 W PRAIRIE WILLOW DR","MARANA","AZ",85653,32.4362463680001,-111.201308232,453,"11057 W PRAIRIE WILLOW DR, MARANA, AZ, 85653","Match","Exact","11057 W PRAIRIE WILLOW DR, MARANA, AZ, 85653",606798499,"L"
21454,"11058 WASHINGTON HIGHWAY - 3","GLEN ALLEN","VA",23059,37.7025381220001,-77.4647214079999,454,"11058 WASHINGTON HIGHWAY - 3, GLEN ALLEN, VA, 23059","Match","Exact","11058 WASHINGTON HWY, GLEN ALLEN, VA, 23059",84983836,"L"
21455,"11059 E RUNNING DEER TRAIL","SCOTTSDALE","AZ",85262,33.740743761,-111.841820845,455,"11059 E RUNNING DEER TRAIL, SCOTTSDALE, AZ, 85262","Match","Non_Exact","11059 E RUNNING DEER TRL, SCOTTSDALE, AZ, 85255",128591190,"R"
21456,"11059 LAMEY BRIDGE RD 811","DIBERVILLE","MS",39540,30.444517756,-88.891405838,456,"11059 LAMEY BRIDGE RD 811, DIBERVILLE, MS, 39540","Match","Exact","11059 LAMEY BRIDGE RD, DIBERVILLE, MS, 39540",634442721,"R"
21457,"1105D 15TH AVE","LONGVIEW","WA",98632,46.1344035000001,-122.938280455,457,"1105D 15TH AVE, LONGVIEW, WA, 98632","Match","Exact","1105 15TH AVE, LONGVIEW, WA, 98632",184489257,"L"
21458,"1106 1/2 POLY DR","BILLINGS","MT",59102,45.7949213470001,-108.543590646,458,"1106 1/2 POLY DR, BILLINGS, MT, 59102","Match","Exact","1106 POLY DR, BILLINGS, MT, 59102",181475094,"L"
21459,"1106 2ND STREET 866","ENCINITAS","CA",92024,33.0378529290001,-117.293701625,459,"1106 2ND STREET 866, ENCINITAS, CA, 92024","Match","Exact","1106 2ND ST, ENCINITAS, CA, 92024",195292893,"R"
21460,"1106 2ND STREET SUITE 186","ENCINITAS","CA",92024,33.0378529290001,-117.293701625,460,"1106 2ND STREET SUITE 186, ENCINITAS, CA, 92024","Match","Exact","1106 2ND ST, ENCINITAS, CA, 92024",195292893,"R"
21461,"1106 2ND STREET UNIT 127","ENCINITAS","CA",92024,33.0378529290001,-117.293701625,461,"1106 2ND STREET UNIT 127, ENCINITAS, CA, 92024","Match","Exact","1106 2ND ST, ENCINITAS, CA, 92024",195292893,"R"
21462,"1106 2ND STREET UNIT 290","ENCINITAS","CA",92024,33.0378529290001,-117.293701625,462,"1106 2ND STREET UNIT 290, ENCINITAS, CA, 92024","Match","Exact","1106 2ND ST, ENCINITAS, CA, 92024",195292893,"R"
21463,"1106 4TH AVENUE NW","DILWORTH","MN",56529,46.8816877150001,-96.717031091,463,"1106 4TH AVENUE NW, DILWORTH, MN, 56529","Match","Exact","1106 4TH AVE NW, DILWORTH, MN, 56529",608245680,"L"
21464,"1106 5TH AVENUE","VENICE","CA",90291,33.9927201300001,-118.469644732,464,"1106 5TH AVENUE, VENICE, CA, 90291","Match","Exact","1106 5TH AVE, VENICE, CA, 90291",141576059,"L"
21465,"1106 7TH AVE SOUTH","ESCANABA","MI",49829,45.737307227,-87.062837905,465,"1106 7TH AVE SOUTH, ESCANABA, MI, 49829","Match","Exact","1106 7TH AVE S, ESCANABA, MI, 49829",181950364,"R"
21466,"1106 9TH AVE NE","WATERTOWN","SD",57201,44.9108953260001,-97.096372473,466,"1106 9TH AVE NE, WATERTOWN, SD, 57201","Match","Exact","1106 9TH AVE NE, WATERTOWN, SD, 57201",200735615,"L"
21467,"1106 ALDER AVE","LEWISTON","ID",83501,46.3712387460001,-116.974983691,467,"1106 ALDER AVE, LEWISTON, ID, 83501","Match","Exact","1106 ALDER AVE, LEWISTON, ID, 83501",173136004,"L"
21468,"1106 ARKANSAS ST","TALLAHASSEE","FL",32304,30.4547274770001,-84.3104052419999,468,"1106 ARKANSAS ST, TALLAHASSEE, FL, 32304","Match","Exact","1106 ARKANSAS ST, TALLAHASSEE, FL, 32304",82849472,"L"
21469,"1106 AUDREY TRAILS","TOMBALL","TX",77375,30.1038822830001,-95.626634855,469,"1106 AUDREY TRAILS, TOMBALL, TX, 77375","Match","Exact","1106 AUDREY TRL, TOMBALL, TX, 77375",652179020,"L"
21470,"1106 AUDUBON BLVD","WILMINGTON","NC",28403,34.2178518700001,-77.894176901,470,"1106 AUDUBON BLVD, WILMINGTON, NC, 28403","Match","Exact","1106 AUDUBON BLVD, WILMINGTON, NC, 28403",152733749,"R"
21471,"1106 BARBARA ST UNIT C","REDONDO BEACH","CA",90277,33.830989204,-118.375816114,471,"1106 BARBARA ST UNIT C, REDONDO BEACH, CA, 90277","Match","Exact","1106 BARBARA ST, REDONDO BEACH, CA, 90277",141818474,"R"
21472,"1106 BAY RIDGE ROAD","MADISON","WI",53716,43.083017161,-89.288521808,472,"1106 BAY RIDGE ROAD, MADISON, WI, 53716","Match","Exact","1106 BAY RIDGE RD, MADISON, WI, 53716",49557326,"R"
21473,"1106 BRANDYWINE COURT APARTMENT B","SHELBYVILLE","IN",46176,39.5109286110001,-85.7636140399999,473,"1106 BRANDYWINE COURT APARTMENT B, SHELBYVILLE, IN, 46176","Match","Exact","1106 BRANDYWINE CT, SHELBYVILLE, IN, 46176",33222645,"L"
21474,"1106 BRITISH BLVD","GRAND PRAIRIE","TX",75050,32.7614295490001,-97.0208223179999,474,"1106 BRITISH BLVD, GRAND PRAIRIE, TX, 75050","Match","Exact","1106 BRITISH BLVD, GRAND PRAIRIE, TX, 75050",102989395,"R"
21475,"1106 BUFFALO COURT","MIDLAND","TX",79705,32.078079363,-102.088622281,475,"1106 BUFFALO COURT, MIDLAND, TX, 79705","Match","Exact","1106 BUFFALO CT, MIDLAND, TX, 79705",643478229,"R"
21476,"1106 BUSH STREET APT 604","SAN FRANCISCO","CA",94109,37.789316297,-122.415453988,476,"1106 BUSH STREET APT 604, SAN FRANCISCO, CA, 94109","Match","Exact","1106 BUSH ST, SAN FRANCISCO, CA, 94109",637770441,"R"
21477,"1106 CHESTNUT ST","WESTERN SPRINGS","IL",60558,41.81234821,-87.902752569,477,"1106 CHESTNUT ST, WESTERN SPRINGS, IL, 60558","Match","Exact","1106 CHESTNUT ST, WESTERN SPRINGS, IL, 60558",111789086,"R"
21478,"1106 CHITTOCK AVE","JACKSON","MI",49203,42.2352859760001,-84.4051599749999,478,"1106 CHITTOCK AVE, JACKSON, MI, 49203","Match","Exact","1106 CHITTOCK AVE, JACKSON, MI, 49203",17617996,"R"
21479,"1106 CLEVELAND AVE","GROVER","NC",28073,35.1941952060001,-81.480758625,479,"1106 CLEVELAND AVE, GROVER, NC, 28073","Match","Exact","1106 CLEVELAND AVE, GROVER, NC, 28073",19324235,"R"
21480,"1106 COOLIDGE SUITE 135","LAFAYETTE","LA",70503,30.204616801,-92.0167345689999,480,"1106 COOLIDGE SUITE 135, LAFAYETTE, LA, 70503","Match","Non_Exact","1106 COOLIDGE ST, LAFAYETTE, LA, 70503",85640767,"R"
21481,"1106 E 4500 S","SALT LAKE CITY","UT",84117,40.6742963840001,-111.859695321,481,"1106 E 4500 S, SALT LAKE CITY, UT, 84117","Match","Exact","1106 E 4500 S, SALT LAKE CITY, UT, 84117",639867803,"R"
21482,"1106 E 73RD ST","CHICAGO","IL",60619,41.7623231160001,-87.5976687309999,482,"1106 E 73RD ST, CHICAGO, IL, 60619","Match","Exact","1106 E 73RD ST, CHICAGO, IL, 60619",111774323,"L"
21483,"1106 E CHAMBERS ST","CLEBURNE","TX",76031,32.350418147,-97.37282957,483,"1106 E CHAMBERS ST, CLEBURNE, TX, 76031","Match","Exact","1106 E CHAMBERS ST, CLEBURNE, TX, 76031",103522493,"R"
21484,"1106 E GROVERS AVE C/O PHOENIX CEN","PHOENIX","AZ",85022,NA,NA,484,"1106 E GROVERS AVE C/O PHOENIX CEN, PHOENIX, AZ, 85022","Tie",NA,NA,NA,NA
21485,"1106 E MAIN ST","LAEKAND","FL",33801,28.0441670050001,-81.9423736589999,485,"1106 E MAIN ST, LAEKAND, FL, 33801","Match","Non_Exact","1106 E MAIN ST, LAKELAND, FL, 33801",647883567,"L"
21486,"1106 E MOMBASHA ROAD","MONROE","NY",10950,41.2810840230001,-74.196608182,486,"1106 E MOMBASHA ROAD, MONROE, NY, 10950","Match","Exact","1106 E MOMBASHA RD, MONROE, NY, 10950",124499418,"R"
21487,"1106 E MONROE ST","RIO GRANDE CITY","TX",78582,26.3835792200001,-98.808318093,487,"1106 E MONROE ST, RIO GRANDE CITY, TX, 78582","Match","Exact","1106 E MONROE ST, RIO GRANDE CITY, TX, 78582",72177309,"L"
21488,"1106 E WARRINGTON AVE","PITTSBURGH","PA",15210,40.422126054,-79.98643265,488,"1106 E WARRINGTON AVE, PITTSBURGH, PA, 15210","Match","Exact","1106 E WARRINGTON AVE, PITTSBURGH, PA, 15210",51637163,"L"
21489,"1106 E85TH STREET","BROOKLYN","NY",11236,NA,NA,489,"1106 E85TH STREET, BROOKLYN, NY, 11236","No_Match",NA,NA,NA,NA
21490,"1106 EAGLE DR","EMMAUS","PA",18049,40.5277248960001,-75.511945899,490,"1106 EAGLE DR, EMMAUS, PA, 18049","Match","Exact","1106 EAGLE DR, EMMAUS, PA, 18049",80787806,"L"
21491,"1106 ESTELLE STREET","SWEENY","TX",77480,29.051136349,-95.697326099,491,"1106 ESTELLE STREET, SWEENY, TX, 77480","Match","Exact","1106 ESTELLE ST, SWEENY, TX, 77480",116572741,"R"
21492,"1106 FORDNEY STREET","ABERDEEN","WA",98520,46.962849109,-123.807841464,492,"1106 FORDNEY STREET, ABERDEEN, WA, 98520","Match","Exact","1106 FORDNEY ST, ABERDEEN, WA, 98520",180583733,"R"
21493,"1106 FRANKLIN STREET","DURHAM","NC",27701,35.989786946,-78.8878822349999,493,"1106 FRANKLIN STREET, DURHAM, NC, 27701","Match","Exact","1106 FRANKLIN ST, DURHAM, NC, 27701",71742573,"R"
21494,"1106 GREENBANKS DR","MT. PLEASANT","MI",48858,43.593832191,-84.788381133,494,"1106 GREENBANKS DR, MT. PLEASANT, MI, 48858","Match","Exact","1106 GREENBANKS DR, MOUNT PLEASANT, MI, 48858",110218177,"R"
21495,"1106 GREGORY AVENUE","DOTHAN","AL",36301,31.211554118,-85.377414738,495,"1106 GREGORY AVENUE, DOTHAN, AL, 36301","Match","Exact","1106 GREGORY AVE, DOTHAN, AL, 36301",101215866,"R"
21496,"1106 HALCYON AVE","NASHVILLE","TN",37204,36.1225243270001,-86.7884320809999,496,"1106 HALCYON AVE, NASHVILLE, TN, 37204","Match","Exact","1106 HALCYON AVE, NASHVILLE, TN, 37204",97190810,"R"
21497,"1106 HALSEY ST APT 2","BROOKLYN","NY",11207,40.6888473650001,-73.9121459839999,497,"1106 HALSEY ST APT 2, BROOKLYN, NY, 11207","Match","Exact","1106 HALSEY ST, BROOKLYN, NY, 11207",59083207,"R"
21498,"1106 HAWTHORNE LN","FORT WASHINGTON","PA",19034,40.1504307000001,-75.1934747619999,498,"1106 HAWTHORNE LN, FORT WASHINGTON, PA, 19034","Match","Exact","1106 HAWTHORNE LN, FORT WASHINGTON, PA, 19034",135078414,"L"
21499,"1106 HOBSON AVE","HOT SPRINGS","AR",71913,34.4982690000001,-93.071869828,499,"1106 HOBSON AVE, HOT SPRINGS, AR, 71913","Match","Exact","1106 HOBSON AVE, HOT SPRINGS, AR, 71913",22732677,"R"
21500,"1106 HOLLIS STREET APT A","ARLINGTON","TX",76013,32.725893107,-97.1225861889999,500,"1106 HOLLIS STREET APT A, ARLINGTON, TX, 76013","Match","Exact","1106 HOLLIS ST, ARLINGTON, TX, 76013",101907829,"R"
