"ID","Address","City","State","Zip","lat","long","id","input_address","match_indicator","match_type","matched_address","tiger_line_id","tiger_side"
232001,"5066 E BUTLER ROAD","AVON PARK","FL",33825,27.6248635360001,-81.414033782,1,"5066 E BUTLER ROAD, AVON PARK, FL, 33825","Match","Exact","5066 E BUTLER RD, AVON PARK, FL, 33825",4629508,"L"
232002,"5066 ROLLING MEADOWS ROAD","ROLLING HILLS ESTATE","CA",90274,33.7936101120001,-118.367046336,2,"5066 ROLLING MEADOWS ROAD, ROLLING HILLS ESTATE, CA, 90274","Match","Non_Exact","5066 ROLLING MEADOWS RD, ROLLING HILLS, CA, 90274",624216949,"R"
232003,"5066 SUNSET KNOLL","BERLIN","OH",44610,40.5600781250001,-81.804510362,3,"5066 SUNSET KNOLL, BERLIN, OH, 44610","Match","Exact","5066 SUNSET KNOLL, BERLIN, OH, 44610",58642969,"L"
232004,"5067 BLUESTEM DRIVE","COLORADO SPRINGS","CO",80917,38.8994497840001,-104.733478012,4,"5067 BLUESTEM DRIVE, COLORADO SPRINGS, CO, 80917","Match","Exact","5067 BLUESTEM DR, COLORADO SPRINGS, CO, 80917",610706979,"R"
232005,"5067 CAPE MAY AVE","SAN DIEGO","CA",92107,32.7500701120001,-117.250006823,5,"5067 CAPE MAY AVE, SAN DIEGO, CA, 92107","Match","Exact","5067 CAPE MAY AVE, SAN DIEGO, CA, 92107",195339056,"L"
232006,"5067 JAY ST NE","WASHINGTON","DC",20019,38.901831574,-76.9274875839999,6,"5067 JAY ST NE, WASHINGTON, DC, 20019","Match","Exact","5067 JAY ST NE, WASHINGTON, DC, 20019",76233969,"R"
232007,"5067 LA CUENTA","SAN DIEGO","CA",92124,32.8231266770001,-117.096162832,7,"5067 LA CUENTA, SAN DIEGO, CA, 92124","Match","Non_Exact","5067 LA CUENTA DR, SAN DIEGO, CA, 92124",195321147,"R"
232008,"5067 MADRE MESA DR 2017","LAS VEGAS","NV",89108,36.2082899750001,-115.209884063,8,"5067 MADRE MESA DR 2017, LAS VEGAS, NV, 89108","Match","Exact","5067 MADRE MESA DR, LAS VEGAS, NV, 89108",201973948,"L"
232009,"5067 W CHAPEL HILL RD","DOUGLASVILLE","CA",30135,NA,NA,9,"5067 W CHAPEL HILL RD, DOUGLASVILLE, CA, 30135","Tie",NA,NA,NA,NA
232010,"50673 DRAKES BAY DR","NOVI","MI",48374,42.473459947,-83.54824107,10,"50673 DRAKES BAY DR, NOVI, MI, 48374","Match","Exact","50673 DRAKES BAY DR, NOVI, MI, 48374",653390707,"R"
232011,"50674","SPARKS","NV",89435,NA,NA,11,"50674, SPARKS, NV, 89435","No_Match",NA,NA,NA,NA
232012,"50678 BAROTT DRIVE","ASHLAND","WI",54806,46.5549299960001,-90.812068827,12,"50678 BAROTT DRIVE, ASHLAND, WI, 54806","Match","Exact","50678 BAROTT DR, ASHLAND, WI, 54806",607932862,"L"
232013,"5068 AIRLINE HIGHWAY","BATON ROUGE","LA",70805,30.5076855610001,-91.1383966989999,13,"5068 AIRLINE HIGHWAY, BATON ROUGE, LA, 70805","Match","Exact","5068 AIRLINE HWY, BATON ROUGE, LA, 70805",606198781,"R"
232014,"5068 BRYCE AVENUE","INVER GROVE HEIGHTS","MN",55076,44.875536664,-93.046183723,14,"5068 BRYCE AVENUE, INVER GROVE HEIGHTS, MN, 55076","Match","Non_Exact","5068 BRYCE AVE E, INVER GROVE HEIGHTS, MN, 55076",37917423,"L"
232015,"5068 CHERRY STREET","FOREST PARK","GA",30297,33.6158695930001,-84.365894984,15,"5068 CHERRY STREET, FOREST PARK, GA, 30297","Match","Exact","5068 CHERRY ST, FOREST PARK, GA, 30297",23314427,"L"
232016,"5068 MCKEAN AVE","PHILADELPHIA","PA",19144,40.022733499,-75.1713005189999,16,"5068 MCKEAN AVE, PHILADELPHIA, PA, 19144","Match","Exact","5068 MCKEAN AVE, PHILADELPHIA, PA, 19144",131401492,"L"
232017,"50685 FOX TRAIL","GRANGER","IN",46530,41.7578051300001,-86.132798727,17,"50685 FOX TRAIL, GRANGER, IN, 46530","Match","Exact","50685 FOX TRL, GRANGER, IN, 46530",8071076,"L"
232018,"5069 DUBLIN AVE","OAKLAND","CA",94602,37.8135749420001,-122.198316282,18,"5069 DUBLIN AVE, OAKLAND, CA, 94602","Match","Exact","5069 DUBLIN AVE, OAKLAND, CA, 94602",606105520,"L"
232019,"5069 STREAMFIELD PASS","ANTIOCH","TN",37013,36.0671492610001,-86.6577627029999,19,"5069 STREAMFIELD PASS, ANTIOCH, TN, 37013","Match","Exact","5069 STREAMFIELD PASS, ANTIOCH, TN, 37013",97218331,"L"
232020,"50698 STATE ROUTE 933","SOUTH BEND","IN",46637,NA,NA,20,"50698 STATE ROUTE 933, SOUTH BEND, IN, 46637","No_Match",NA,NA,NA,NA
232021,"506A ST E","WASHINGTON","DC",20003,NA,NA,21,"506A ST E, WASHINGTON, DC, 20003","No_Match",NA,NA,NA,NA
232022,"507 - 12TH AVE","SAN FRANCISCO","NV",94118,NA,NA,22,"507 - 12TH AVE, SAN FRANCISCO, NV, 94118","No_Match",NA,NA,NA,NA
232023,"507 10TH ST NW","CANTON","OH",44703,40.807553533,-81.37629996,23,"507 10TH ST NW, CANTON, OH, 44703","Match","Exact","507 10TH ST NW, CANTON, OH, 44703",647939864,"R"
232024,"507 17 STREET NW","ROCHESTER","MN",55901,44.038283092,-92.47019026,24,"507 17 STREET NW, ROCHESTER, MN, 55901","Match","Exact","507 17TH ST NW, ROCHESTER, MN, 55901",611718134,"R"
232025,"507 17TH AVENUE","SAN FRANCISCO","CA",94121,37.778173608,-122.476000998,25,"507 17TH AVENUE, SAN FRANCISCO, CA, 94121","Match","Exact","507 17TH AVE, SAN FRANCISCO, CA, 94121",652199022,"R"
232026,"507 18TH STREET W","JASPER","AL",35501,33.833504073,-87.2692441789999,26,"507 18TH STREET W, JASPER, AL, 35501","Match","Non_Exact","507 18TH ST E, JASPER, AL, 35501",120546673,"R"
232027,"507 210TH AVE","PELLA","IA",50219,41.4494710870001,-92.947926267,27,"507 210TH AVE, PELLA, IA, 50219","Match","Exact","507 210TH AVE, PELLA, IA, 50219",89472424,"L"
232028,"507 2ND ST","PECKVILLE","PA",18452,41.479258976,-75.6026537019999,28,"507 2ND ST, PECKVILLE, PA, 18452","Match","Exact","507 2ND ST, PECKVILLE, PA, 18452",139324125,"L"
232029,"507 30TH ST","OCEAN CITY","NJ",8226,39.255417901,-74.6051452039999,29,"507 30TH ST, OCEAN CITY, NJ, 8226","Match","Exact","507 30TH ST, OCEAN CITY, NJ, 08226",174359581,"L"
232030,"507 3RD STREET","KALONA","IA",52247,41.486025881,-91.709425174,30,"507 3RD STREET, KALONA, IA, 52247","Match","Exact","507 3RD ST, KALONA, IA, 52247",84179803,"L"
232031,"507 4TH STREET","NODAWAY","IA",50857,40.9350467200001,-94.8935555799999,31,"507 4TH STREET, NODAWAY, IA, 50857","Match","Exact","507 4TH ST, NODAWAY, IA, 50857",61700837,"L"
232032,"507 58TH STREET NE","WASHINGTON","DC",20019,38.8959906700001,-76.917770289,32,"507 58TH STREET NE, WASHINGTON, DC, 20019","Match","Exact","507 58TH ST NE, WASHINGTON, DC, 20019",76234130,"R"
232033,"507 5TH AVE SE","JAMESTOWN","ND",58401,46.904102003,-98.702242339,33,"507 5TH AVE SE, JAMESTOWN, ND, 58401","Match","Exact","507 5TH AVE SE, JAMESTOWN, ND, 58401",151864179,"R"
232034,"507 5TH AVENUE N","MYRTLE BEACH","SC",29577,33.6899256510001,-78.8869350799999,34,"507 5TH AVENUE N, MYRTLE BEACH, SC, 29577","Match","Exact","507 5TH AVE N, MYRTLE BEACH, SC, 29577",29057331,"L"
232035,"507 5TH ST STE 4","FAIRBURY","NE",68352,40.1361851280001,-97.179753032,35,"507 5TH ST STE 4, FAIRBURY, NE, 68352","Match","Exact","507 5TH ST, FAIRBURY, NE, 68352",11134435,"R"
232036,"507 6TH STREET","GRANITE","OK",73547,NA,NA,36,"507 6TH STREET, GRANITE, OK, 73547","No_Match",NA,NA,NA,NA
232037,"507 7TH STREET - APARTMENT B","PORT SAINT JOE","FL",32456,29.810388862,-85.299711975,37,"507 7TH STREET - APARTMENT B, PORT SAINT JOE, FL, 32456","Match","Exact","507 SEVENTH ST, PORT SAINT JOE, FL, 32456",7141271,"L"
232038,"507 ALOKEE CT","LAKE MARY","FL",32746,28.765011488,-81.337511029,38,"507 ALOKEE CT, LAKE MARY, FL, 32746","Match","Exact","507 ALOKEE CT, LAKE MARY, FL, 32746",93769719,"L"
232039,"507 ARTHUR AVE","WOLFFORTH","TX",79382,33.5248897550001,-102.003881889,39,"507 ARTHUR AVE, WOLFFORTH, TX, 79382","Match","Exact","507 ARTHUR AVE, WOLFFORTH, TX, 79382",617911358,"L"
232040,"507 ASHFORD AVE","ARDSLEY","NY",10502,41.011165933,-73.845678161,40,"507 ASHFORD AVE, ARDSLEY, NY, 10502","Match","Exact","507 ASHFORD AVE, ARDSLEY, NY, 10502",139799828,"L"
232041,"507 AVENUE A NE","WINTER HAVEN","FL",33881,28.0231551690001,-81.7203087,41,"507 AVENUE A NE, WINTER HAVEN, FL, 33881","Match","Exact","507 AVE A NE, WINTER HAVEN, FL, 33881",104824160,"R"
232042,"507 BISHOP STREET NW SUITE 1403","ATLANTA","GA",30318,33.7922677670001,-84.404744608,42,"507 BISHOP STREET NW SUITE 1403, ATLANTA, GA, 30318","Match","Exact","507 BISHOP ST NW, ATLANTA, GA, 30318",642629940,"R"
232043,"507 BRETTS WAU","WHITESBORO","NY",13492,43.120493783,-75.311877967,43,"507 BRETTS WAU, WHITESBORO, NY, 13492","Match","Non_Exact","507 BRETTS WAY, WHITESBORO, NY, 13492",171584004,"R"
232044,"507 BROADWAY UNIT C","EL CAJON","CA",92021,32.80767953,-116.956473772,44,"507 BROADWAY UNIT C, EL CAJON, CA, 92021","Match","Exact","507 BROADWAY, EL CAJON, CA, 92021",195690116,"R"
232045,"507 BROADWAY","ROCK SPRINGS","WY",82901,41.586297034,-109.219351379,45,"507 BROADWAY, ROCK SPRINGS, WY, 82901","Match","Non_Exact","507 BROADWAY ST, ROCK SPRINGS, WY, 82901",149502583,"L"
232046,"507 CAIN AVE","MORRISTOWN","TN",37813,36.2091755920001,-83.283837467,46,"507 CAIN AVE, MORRISTOWN, TN, 37813","Match","Exact","507 CAIN AVE, MORRISTOWN, TN, 37813",42215434,"L"
232047,"507 CAMBRIDGE DR","HOPKINSVILLE","KY",42240,36.850686028,-87.531184137,47,"507 CAMBRIDGE DR, HOPKINSVILLE, KY, 42240","Match","Exact","507 CAMBRIDGE DR, HOPKINSVILLE, KY, 42240",11288494,"R"
232048,"507 CANYON OAK DRIVE","VACAVILLE","CA",95688,38.3936656180001,-121.979177889,48,"507 CANYON OAK DRIVE, VACAVILLE, CA, 95688","Match","Exact","507 CANYON OAK DR, VACAVILLE, CA, 95688",192553022,"L"
232049,"507 CEDAR STREET","GREENWOOD","MS",38930,33.5128870840001,-90.20052077,49,"507 CEDAR STREET, GREENWOOD, MS, 38930","Match","Exact","507 CEDAR ST, GREENWOOD, MS, 38930",1048820,"R"
232050,"507 CHANCELLOR BLVD","REDDING","CA",96003,40.6064274840001,-122.331805147,50,"507 CHANCELLOR BLVD, REDDING, CA, 96003","Match","Exact","507 CHANCELLOR BLVD, REDDING, CA, 96003",126660127,"R"
232051,"507 CHERRY STREET NW","MAGEE","MS",39111,31.8796207780001,-89.738182452,51,"507 CHERRY STREET NW, MAGEE, MS, 39111","Match","Exact","507 CHERRY ST NW, MAGEE, MS, 39111",532327,"R"
232052,"507 CHESTER PLACE","POMONA","CA",91768,34.06597592,-117.759469047,52,"507 CHESTER PLACE, POMONA, CA, 91768","Match","Non_Exact","507 W CHESTER PL, POMONA, CA, 91768",141733615,"R"
232053,"507 CHIRPING SPARROW COURT","PINEHURST","TX",77362,30.1582945050001,-95.675547583,53,"507 CHIRPING SPARROW COURT, PINEHURST, TX, 77362","Match","Non_Exact","507 CHIRPING CT, PINEHURST, TX, 77362",79340823,"L"
232054,"507 COLUMBIA AVENUE","UNION BEACH","NJ",7735,40.443041722,-74.169005328,54,"507 COLUMBIA AVENUE, UNION BEACH, NJ, 7735","Match","Exact","507 COLUMBIA AVE, UNION BEACH, NJ, 07735",601271555,"L"
232055,"507 COLVIN ROAD","STROUDSBURG","PA",18360,41.0011219310001,-75.2305104179999,55,"507 COLVIN ROAD, STROUDSBURG, PA, 18360","Match","Exact","507 COLVIN RD, STROUDSBURG, PA, 18360",136761453,"L"
232056,"507 CONEJO COURT","DANVILLE","CA",94506,37.801819763,-121.915093167,56,"507 CONEJO COURT, DANVILLE, CA, 94506","Match","Exact","507 CONEJO CT, DANVILLE, CA, 94506",192096704,"L"
232057,"507 COURSEY RD","ORELAND","PA",19075,40.1163433140001,-75.199168694,57,"507 COURSEY RD, ORELAND, PA, 19075","Match","Exact","507 COURSEY RD, ORELAND, PA, 19075",135089039,"R"
232058,"507 COURT LANE   PO BOX 1083","CAMBRIDGE","MD",21613,38.571933786,-76.075243723,58,"507 COURT LANE   PO BOX 1083, CAMBRIDGE, MD, 21613","Match","Exact","507 COURT LN, CAMBRIDGE, MD, 21613",99674014,"R"
232059,"507 CRUISE ST","CORINTH","MS",38834,34.9343012460001,-88.5205624659999,59,"507 CRUISE ST, CORINTH, MS, 38834","Match","Exact","507 CRUISE ST, CORINTH, MS, 38834",91048942,"R"
232060,"507 CYPRESS COURT","RED OAK","TX",75154,32.5271358950001,-96.814031707,60,"507 CYPRESS COURT, RED OAK, TX, 75154","Match","Exact","507 CYPRESS CT, RED OAK, TX, 75154",616172109,"R"
232061,"507 DENMARK ROAD","DENMARK","ME",4022,43.999089027,-70.841607643,61,"507 DENMARK ROAD, DENMARK, ME, 4022","Match","Exact","507 DENMARK RD, DENMARK, ME, 04022",632907825,"R"
232062,"507 DUTCH HILL ROAD","FRANKFORT","NY",13340,43.0573997600001,-75.132661362,62,"507 DUTCH HILL ROAD, FRANKFORT, NY, 13340","Match","Exact","507 DUTCH HILL RD, FRANKFORT, NY, 13340",153762248,"L"
232063,"507 E 176TH ST APT 406","BRONX","NY",10457,40.8456132960001,-73.897582904,63,"507 E 176TH ST APT 406, BRONX, NY, 10457","Match","Non_Exact","507 E 176TH ST, BRONX, NY, 10457",80301163,"L"
232064,"507 E 4TH ST","BIG SPRING","TX",79720,NA,NA,64,"507 E 4TH ST, BIG SPRING, TX, 79720","Tie",NA,NA,NA,NA
232065,"507 E ARMSTRONG","PEORIA","IL",61603,40.704305833,-89.58879704,65,"507 E ARMSTRONG, PEORIA, IL, 61603","Match","Non_Exact","507 E ARMSTRONG AVE, PEORIA, IL, 61603",637891637,"L"
232066,"507 E BRIAN ST","TEA","SD",57064,43.4537165250001,-96.829936301,66,"507 E BRIAN ST, TEA, SD, 57064","Match","Exact","507 E BRIAN ST, TEA, SD, 57064",633086351,"R"
232067,"507 E BRINTON STREET","PHILADELPHIA","PA",19144,40.0504423180001,-75.1765250779999,67,"507 E BRINTON STREET, PHILADELPHIA, PA, 19144","Match","Exact","507 E BRINTON ST, PHILADELPHIA, PA, 19144",131395368,"R"
232068,"507 E CHEYENNE ST","GARDNER","KS",66030,38.8013554180001,-94.917248269,68,"507 E CHEYENNE ST, GARDNER, KS, 66030","Match","Exact","507 E CHEYENNE ST, GARDNER, KS, 66030",637607217,"R"
232069,"507 E MAIN ST","DODGE CENTER","MN",55927,44.0280813630001,-92.847455971,69,"507 E MAIN ST, DODGE CENTER, MN, 55927","Match","Exact","507 E MAIN ST, DODGE CENTER, MN, 55927",636251740,"L"
232070,"507 E QUINCE STREET","VINELAND","NJ",8360,39.4810935130001,-75.0258936829999,70,"507 E QUINCE STREET, VINELAND, NJ, 8360","Match","Exact","507 E QUINCE ST, VINELAND, NJ, 08360",174127086,"L"
232071,"507 E ROSELAWN","DANVILLE","IL",61832,40.151958934,-87.6220120409999,71,"507 E ROSELAWN, DANVILLE, IL, 61832","Match","Non_Exact","507 E ROSELAWN ST, DANVILLE, IL, 61832",65998169,"L"
232072,"507 E SHENANDOAH","SPOKANE","WA",99208,47.730756607,-117.402589197,72,"507 E SHENANDOAH, SPOKANE, WA, 99208","Match","Non_Exact","507 E SHENANDOAH DR, SPOKANE, WA, 99208",189869446,"L"
232073,"507 E TOUGHNUT STREET","TOMBSTONE","AZ",85638,31.7112997080001,-110.065603532,73,"507 E TOUGHNUT STREET, TOMBSTONE, AZ, 85638","Match","Exact","507 E TOUGHNUT ST, TOMBSTONE, AZ, 85638",120923761,"R"
232074,"507 E TUSKEENA STREET","HAYNVILLE","AL",36040,NA,NA,74,"507 E TUSKEENA STREET, HAYNVILLE, AL, 36040","No_Match",NA,NA,NA,NA
232075,"507 EAGLE LANE","UNDERWOOD","IA",51576,41.3846154880001,-95.679336129,75,"507 EAGLE LANE, UNDERWOOD, IA, 51576","Match","Exact","507 EAGLE LN, UNDERWOOD, IA, 51576",43938414,"L"
232076,"507 EAST TUSKEENA STREET","HAYNEVILLE","AL",36040,NA,NA,76,"507 EAST TUSKEENA STREET, HAYNEVILLE, AL, 36040","No_Match",NA,NA,NA,NA
232077,"507 EDGEWOOD DR","WHITE HALL","IL",62092,39.450524779,-90.39505981,77,"507 EDGEWOOD DR, WHITE HALL, IL, 62092","Match","Exact","507 EDGEWOOD DR, WHITE HALL, IL, 62092",89157233,"L"
232078,"507 ELIZABETH STREET","MARSHALL","MN",56258,44.4317116450001,-95.7982752089999,78,"507 ELIZABETH STREET, MARSHALL, MN, 56258","Match","Exact","507 ELIZABETH ST, MARSHALL, MN, 56258",605203655,"R"
232079,"507 F STREET","SALT LAKE CITY","UT",84103,40.780981576,-111.876059571,79,"507 F STREET, SALT LAKE CITY, UT, 84103","Match","Exact","507 F ST, SALT LAKE CITY, UT, 84103",176067196,"L"
232080,"507 FOREST PARK RD","LOUISVILLE","KY",40223,38.24862404,-85.561825573,80,"507 FOREST PARK RD, LOUISVILLE, KY, 40223","Match","Exact","507 FOREST PARK RD, LOUISVILLE, KY, 40223",612438939,"R"
232081,"507 GARDEN STREET","MOUNT HOLLY","NJ",8060,39.9986026120001,-74.7802294809999,81,"507 GARDEN STREET, MOUNT HOLLY, NJ, 8060","Match","Exact","507 GARDEN ST, MOUNT HOLLY, NJ, 08060",134079918,"L"
232082,"507 GEORGE F SIMMONS STREET","EDNA","TX",77957,28.9669339710001,-96.65441456,82,"507 GEORGE F SIMMONS STREET, EDNA, TX, 77957","Match","Non_Exact","507 GEORGE F SIMONS ST, EDNA, TX, 77957",42116589,"R"
232083,"507 GIRARD AVENUE","CROYDON","PA",19021,40.0931080070001,-74.889136192,83,"507 GIRARD AVENUE, CROYDON, PA, 19021","Match","Exact","507 GIRARD AVE, CROYDON, PA, 19021",647693678,"L"
232084,"507 GRANT AVENUE","MAUPIN","OR",97037,45.175867327,-121.081462618,84,"507 GRANT AVENUE, MAUPIN, OR, 97037","Match","Exact","507 GRANT AVE, MAUPIN, OR, 97037",175542101,"R"
232085,"507 HALF HOLLOW RD","DEER PARK","NY",11729,40.766759553,-73.34820094,85,"507 HALF HOLLOW RD, DEER PARK, NY, 11729","Match","Exact","507 HALF HOLLOW RD, DEER PARK, NY, 11729",113969455,"R"
232086,"507 HARVEST DRIVE","RIDGELAND","MS",39157,32.4098279090001,-90.13587395,86,"507 HARVEST DRIVE, RIDGELAND, MS, 39157","Match","Exact","507 HARVEST DR, RIDGELAND, MS, 39157",152479042,"R"
232087,"507 HEGGE DRIVE","SIERRA VISTA","AZ",85635,31.5644132890001,-110.293063675,87,"507 HEGGE DRIVE, SIERRA VISTA, AZ, 85635","Match","Exact","507 HEGGE DR, SIERRA VISTA, AZ, 85635",120925390,"R"
232088,"507 HOBOKEN ROAD","CARLSTADT","NJ",7072,40.838089762,-74.096749583,88,"507 HOBOKEN ROAD, CARLSTADT, NJ, 7072","Match","Exact","507 HOBOKEN RD, CARLSTADT, NJ, 07072",64395189,"R"
232089,"507 HOSPITAL WAY","BREWSTER","WA",98812,48.1074662450001,-119.78155613,89,"507 HOSPITAL WAY, BREWSTER, WA, 98812","Match","Exact","507 HOSPITAL WAY, BREWSTER, WA, 98812",636496479,"R"
232090,"507 JERSEY AVE APT 2","JERSEY CITY","NJ",7302,40.7201764770001,-74.046957603,90,"507 JERSEY AVE APT 2, JERSEY CITY, NJ, 7302","Match","Exact","507 JERSEY AVE, JERSEY CITY, NJ, 07302",59612995,"L"
232091,"507 KAIMAKE LOOP","KAILUA","HI",96734,21.4087307630001,-157.752332191,91,"507 KAIMAKE LOOP, KAILUA, HI, 96734","Match","Exact","507 KAIMAKE LOOP, KAILUA, HI, 96734",203239109,"L"
232092,"507 KATHRYN STREET","SANTA FE","NM",87501,35.6820288260001,-105.957639149,92,"507 KATHRYN STREET, SANTA FE, NM, 87501","Match","Non_Exact","507 KATHRYN AVE, SANTA FE, NM, 87501",652664815,"R"
232093,"507 KEN MAR CT","LONGMONT","CO",80501,40.169491937,-105.129055167,93,"507 KEN MAR CT, LONGMONT, CO, 80501","Match","Exact","507 KEN MAR CT, LONGMONT, CO, 80501",188155052,"L"
232094,"507 KISSIMMEE OAKS CT 4","KISSIMMEE","FL",34741,28.315642057,-81.409196464,94,"507 KISSIMMEE OAKS CT 4, KISSIMMEE, FL, 34741","Match","Exact","507 KISSIMMEE OAKS CT, KISSIMMEE, FL, 34741",176699286,"R"
232095,"507 LAKEVIEW","BIRMINGHAM","MI",48009,42.5500427750001,-83.224933785,95,"507 LAKEVIEW, BIRMINGHAM, MI, 48009","Match","Non_Exact","507 LAKEVIEW AVE, BIRMINGHAM, MI, 48009",69733959,"L"
232096,"507 LINDEN ST","LEESPORT","PA",19533,40.437976995,-75.969819043,96,"507 LINDEN ST, LEESPORT, PA, 19533","Match","Exact","507 LINDEN ST, LEESPORT, PA, 19533",80461279,"R"
232097,"507 MAIN ST","JACKSBORO","TN",37757,36.3305921480001,-84.1816009789999,97,"507 MAIN ST, JACKSBORO, TN, 37757","Match","Exact","507 MAIN ST, JACKSBORO, TN, 37757",638422854,"R"
232098,"507 MAIN STREET","JEFFERSON","SD",57038,42.6048902520001,-96.561874788,98,"507 MAIN STREET, JEFFERSON, SD, 57038","Match","Exact","507 MAIN ST, JEFFERSON, SD, 57038",638626969,"R"
232099,"507 MAIN STREET","NORTH JUDSON","IN",46366,41.218465688,-86.7700611769999,99,"507 MAIN STREET, NORTH JUDSON, IN, 46366","Match","Exact","507 MAIN ST, NORTH JUDSON, IN, 46366",8252105,"R"
232100,"507 MAPLE STREET","SOUTH FORK","PA",15956,40.365561905,-78.7917325879999,100,"507 MAPLE STREET, SOUTH FORK, PA, 15956","Match","Exact","507 MAPLE ST, SOUTH FORK, PA, 15956",50254914,"R"
232101,"507 MARCH HILL ROAD","WALPOLE","NH",3608,43.0821833700001,-72.363337868,101,"507 MARCH HILL ROAD, WALPOLE, NH, 3608","Match","Exact","507 MARCH HILL RD, WALPOLE, NH, 03608",124073281,"L"
232102,"507 MARKET STREET","FAIRMONT","NC",28340,34.503620927,-79.113383438,102,"507 MARKET STREET, FAIRMONT, NC, 28340","Match","Exact","507 MARKET ST, FAIRMONT, NC, 28340",49141400,"L"
232103,"507 MEADOWMONT LANE","CHAPEL HILL","NC",27517,35.9077738730001,-79.008855607,103,"507 MEADOWMONT LANE, CHAPEL HILL, NC, 27517","Match","Exact","507 MEADOWMONT LN, CHAPEL HILL, NC, 27517",640317071,"L"
232104,"507 MIDSHIP DRIVE","TOMS RIVER","NJ",8753,39.9713471640001,-74.169453789,104,"507 MIDSHIP DRIVE, TOMS RIVER, NJ, 8753","Match","Exact","507 MIDSHIP DR, TOMS RIVER, NJ, 08753",203728365,"L"
232105,"507 MILLBROOK AVENUE","RANDOLPH","NJ",7869,40.846622632,-74.5638395679999,105,"507 MILLBROOK AVENUE, RANDOLPH, NJ, 7869","Match","Exact","507 MILLBROOK AVE, RANDOLPH, NJ, 07869",60513438,"L"
232106,"507 N 2ND STREET","ROSEBUD","TX",76570,31.0782591500001,-96.978303059,106,"507 N 2ND STREET, ROSEBUD, TX, 76570","Match","Exact","507 N 2ND ST, ROSEBUD, TX, 76570",24844191,"L"
232107,"507 N 9 MILE","SANFORD","MI",48657,43.6261344810001,-84.428887558,107,"507 N 9 MILE, SANFORD, MI, 48657","Match","Non_Exact","507 N 9 MILE RD, SANFORD, MI, 48657",81190799,"L"
232108,"507 N JEFFERSON ST","OSSIAN","IN",46777,40.883946726,-85.166606341,108,"507 N JEFFERSON ST, OSSIAN, IN, 46777","Match","Exact","507 N JEFFERSON ST, OSSIAN, IN, 46777",6619804,"R"
232109,"507 N JEFFUS STREET","DEPORT","TX",75435,33.5348277360001,-95.322198016,109,"507 N JEFFUS STREET, DEPORT, TX, 75435","Match","Exact","507 JEFFUS ST, DEPORT, TX, 75435",63589600,"L"
232110,"507 N SAM HOUSTON PKWY E SUITE 165","HOUSTON","TX",77060,29.938979755,-95.3927226279999,110,"507 N SAM HOUSTON PKWY E SUITE 165, HOUSTON, TX, 77060","Match","Non_Exact","507 SAM HOUSTON PKWY, HOUSTON, TX, 77060",96656614,"L"
232111,"507 N SAM HOUSTON PRKWY E STE 600 R","HOUSTON","TX",77060,29.938979755,-95.3927226279999,111,"507 N SAM HOUSTON PRKWY E STE 600 R, HOUSTON, TX, 77060","Match","Non_Exact","507 SAM HOUSTON PKWY, HOUSTON, TX, 77060",96656614,"L"
232112,"507 NE MASON ST","PORTLAND","OR",97211,45.5533084150001,-122.660417386,112,"507 NE MASON ST, PORTLAND, OR, 97211","Match","Exact","507 NE MASON ST, PORTLAND, OR, 97211",157504103,"L"
232113,"507 NEW HIGHWAY 96 WEST","FRANKLIN","TN",37064,NA,NA,113,"507 NEW HIGHWAY 96 WEST, FRANKLIN, TN, 37064","No_Match",NA,NA,NA,NA
232114,"507 NORTH ATE WAY UNIT 442","SEATTLE","WA",98125,NA,NA,114,"507 NORTH ATE WAY UNIT 442, SEATTLE, WA, 98125","No_Match",NA,NA,NA,NA
232115,"507 NORTH SAM HOUSTON PARKWAY EAST","HOUSTON","TX",77060,NA,NA,115,"507 NORTH SAM HOUSTON PARKWAY EAST, HOUSTON, TX, 77060","No_Match",NA,NA,NA,NA
232116,"507 NORTHLAKE DRIVE","ANDERSON","SC",29625,34.564369965,-82.704993137,116,"507 NORTHLAKE DRIVE, ANDERSON, SC, 29625","Match","Exact","507 NORTHLAKE DR, ANDERSON, SC, 29625",25489446,"L"
232117,"507 OAK HILL AVE","YOUNGSTOWN","OH",44502,41.0944097460001,-80.6595551469999,117,"507 OAK HILL AVE, YOUNGSTOWN, OH, 44502","Match","Non_Exact","507 OAKHILL AVE NE, YOUNGSTOWN, OH, 44502",64595376,"L"
232118,"507 OLD SCHOOL HOUSE DR","SPRINGFIELD","PA",19064,39.931646012,-75.35570712,118,"507 OLD SCHOOL HOUSE DR, SPRINGFIELD, PA, 19064","Match","Non_Exact","507 OLD SCHOOLHOUSE LN, SPRINGFIELD, PA, 19064",134878815,"L"
232119,"507 OSCAR LOOP APT 302E","NEWPORT NEWS","VA",23606,37.079843709,-76.4816291779999,119,"507 OSCAR LOOP APT 302E, NEWPORT NEWS, VA, 23606","Match","Exact","507 OSCAR LOOP, NEWPORT NEWS, VA, 23606",103815106,"R"
232120,"507 PADDOCK LN","CELINA","TX",75009,33.28107476,-96.7775159449999,120,"507 PADDOCK LN, CELINA, TX, 75009","Match","Exact","507 PADDOCK LN, CELINA, TX, 75009",614132024,"R"
232121,"507 PARK PLACE APARTMENT 1","BROOKLYN","NY",11238,40.6751131600001,-73.961154784,121,"507 PARK PLACE APARTMENT 1, BROOKLYN, NY, 11238","Match","Exact","507 PARK PL, BROOKLYN, NY, 11238",59078435,"L"
232122,"507 PINE STREET","BRISTOL","CT",6010,41.668186131,-72.905497613,122,"507 PINE STREET, BRISTOL, CT, 6010","Match","Exact","507 PINE ST, BRISTOL, CT, 06010",635489074,"L"
232123,"507 POPLAR LN","IRVING","TX",75063,32.9188910070001,-96.951001546,123,"507 POPLAR LN, IRVING, TX, 75063","Match","Exact","507 POPLAR LN, IRVING, TX, 75063",103005000,"R"
232124,"507 POPPY HILL RD","WATSONVILLE","CA",95076,36.983441854,-121.796358893,124,"507 POPPY HILL RD, WATSONVILLE, CA, 95076","Match","Exact","507 POPPY HILL RD, WATSONVILLE, CA, 95076",125530543,"L"
232125,"507 PORTER ANDREWS RD","OZARK","AL",36360,31.416393525,-85.6172015239999,125,"507 PORTER ANDREWS RD, OZARK, AL, 36360","Match","Exact","507 PORTER ANDREWS RD, OZARK, AL, 36360",99615434,"L"
232126,"507 PURDUE STREET","ORLANDO","FL",32806,28.525790633,-81.370209678,126,"507 PURDUE STREET, ORLANDO, FL, 32806","Match","Exact","507 PURDUE ST, ORLANDO, FL, 32806",94283029,"L"
232127,"507 QUAIL CT","MECHANICSBURG","PA",17050,40.255712741,-76.9881090439999,127,"507 QUAIL CT, MECHANICSBURG, PA, 17050","Match","Exact","507 QUAIL CT, MECHANICSBURG, PA, 17050",60940834,"R"
232128,"507 REDWING COURT","GRAYSLAKE","IL",60030,42.332638908,-88.03150945,128,"507 REDWING COURT, GRAYSLAKE, IL, 60030","Match","Exact","507 REDWING CT, GRAYSLAKE, IL, 60030",119748913,"R"
232129,"507 ROGERS STREET","ANDERSON","SC",29625,34.5120724240001,-82.6734501299999,129,"507 ROGERS STREET, ANDERSON, SC, 29625","Match","Exact","507 ROGERS ST, ANDERSON, SC, 29625",25450561,"L"
232130,"507 ROSWELL NE","MARIETTA","GA",30060,NA,NA,130,"507 ROSWELL NE, MARIETTA, GA, 30060","No_Match",NA,NA,NA,NA
232131,"507 ROUTE 9 SOUTH","MARMORA","NJ",8223,NA,NA,131,"507 ROUTE 9 SOUTH, MARMORA, NJ, 8223","No_Match",NA,NA,NA,NA
232132,"507 S 8TH AVE","BOZEMAN","MT",59715,45.674155947,-111.048097278,132,"507 S 8TH AVE, BOZEMAN, MT, 59715","Match","Exact","507 S 8TH AVE, BOZEMAN, MT, 59715",649795896,"L"
232133,"507 S CATALINA ST APT 8","LOS ANGELES","CA",90020,34.065169542,-118.295403859,133,"507 S CATALINA ST APT 8, LOS ANGELES, CA, 90020","Match","Non_Exact","507 S CATALINA ST, LOS ANGELES, CA, 90020",141604932,"R"
232134,"507 S CHESTER","PARK RIDGE","IL",60068,42.004591093,-87.839144609,134,"507 S CHESTER, PARK RIDGE, IL, 60068","Match","Non_Exact","507 S CHESTER AVE, PARK RIDGE, IL, 60068",111732669,"L"
232135,"507 S DITTMAN","FRONTENAC","KS",66763,37.4444981820001,-94.6977676669999,135,"507 S DITTMAN, FRONTENAC, KS, 66763","Match","Non_Exact","507 DITTMAN ST, FRONTENAC, KS, 66763",33432080,"R"
232136,"507 S HELBERTA AVE","REDONDO BEACH","CA",90277,33.833915921,-118.382201858,136,"507 S HELBERTA AVE, REDONDO BEACH, CA, 90277","Match","Exact","507 S HELBERTA AVE, REDONDO BEACH, CA, 90277",141584123,"R"
232137,"507 S HELBERTA AVENUE","REDONDO BEACH","CA",90277,33.833915921,-118.382201858,137,"507 S HELBERTA AVENUE, REDONDO BEACH, CA, 90277","Match","Exact","507 S HELBERTA AVE, REDONDO BEACH, CA, 90277",141584123,"R"
232138,"507 S WILLOMET AVE","DALLAS","TX",75208,32.7410362640001,-96.840470827,138,"507 S WILLOMET AVE, DALLAS, TX, 75208","Match","Exact","507 S WILLOMET AVE, DALLAS, TX, 75208",103195309,"R"
232139,"507 SABINE ST","AUSTIN","TX",78701,30.2653597090001,-97.7364174429999,139,"507 SABINE ST, AUSTIN, TX, 78701","Match","Exact","507 SABINE ST, AUSTIN, TX, 78701",63946548,"R"
232140,"507 SANTA FE COURT","BALDWIN CITY","KS",66006,38.778025229,-95.169251818,140,"507 SANTA FE COURT, BALDWIN CITY, KS, 66006","Match","Exact","507 SANTA FE CT, BALDWIN CITY, KS, 66006",17699937,"R"
232141,"507 SAUK PATH","OAK  BROOK","IL",60523,41.828542111,-87.94872852,141,"507 SAUK PATH, OAK  BROOK, IL, 60523","Match","Exact","507 SAUK PATH, OAK BROOK, IL, 60523",112549186,"L"
232142,"507 SAUK PATH","OAK BROOK","IL",60523,41.828542111,-87.94872852,142,"507 SAUK PATH, OAK BROOK, IL, 60523","Match","Exact","507 SAUK PATH, OAK BROOK, IL, 60523",112549186,"L"
232143,"507 SEDGWICK DRIVE","SYRACUSE","NY",13203,43.067914015,-76.133050278,143,"507 SEDGWICK DRIVE, SYRACUSE, NY, 13203","Match","Exact","507 SEDGWICK DR, SYRACUSE, NY, 13203",46572306,"L"
232144,"507 SOUTH 4TH ST","GADSDEN","AL",35901,34.00628213,-86.0052995619999,144,"507 SOUTH 4TH ST, GADSDEN, AL, 35901","Match","Exact","507 S 4TH ST, GADSDEN, AL, 35901",66771587,"R"
232145,"507 SOUTH CHURCH STREET","SWANSEA","SC",29160,33.734427714,-81.101306817,145,"507 SOUTH CHURCH STREET, SWANSEA, SC, 29160","Match","Exact","507 S CHURCH ST, SWANSEA, SC, 29160",70045047,"R"
232146,"507 SOUTH CUNNINGHAM STREET","RAYNE","LA",70578,30.2318030590001,-92.265898871,146,"507 SOUTH CUNNINGHAM STREET, RAYNE, LA, 70578","Match","Exact","507 S CUNNINGHAM ST, RAYNE, LA, 70578",88303589,"R"
232147,"507 SOUTH PROSPECT AVENUE","CLEARWATER","FL",33756,27.960707359,-82.794337266,147,"507 SOUTH PROSPECT AVENUE, CLEARWATER, FL, 33756","Match","Exact","507 S PROSPECT AVE, CLEARWATER, FL, 33756",124664603,"L"
232148,"507 SOUTH SUNNY LANE","MONMOUTH","IL",61462,40.907661682,-90.660534403,148,"507 SOUTH SUNNY LANE, MONMOUTH, IL, 61462","Match","Exact","507 S SUNNY LN, MONMOUTH, IL, 61462",5508575,"R"
232149,"507 SPRUCE STREET","HOLLIDAYSBURG","PA",16648,40.432249379,-78.3931480049999,149,"507 SPRUCE STREET, HOLLIDAYSBURG, PA, 16648","Match","Exact","507 SPRUCE ST, HOLLIDAYSBURG, PA, 16648",49714838,"L"
232150,"507 STANTON TERRACE","POUGHKEEPSIE","NY",12603,41.7173527300001,-73.857928854,150,"507 STANTON TERRACE, POUGHKEEPSIE, NY, 12603","Match","Exact","507 STANTON TER, POUGHKEEPSIE, NY, 12603",637968467,"L"
232151,"507 STONE AVENUE     PO BOX 80","MATTOON","WI",54450,NA,NA,151,"507 STONE AVENUE     PO BOX 80, MATTOON, WI, 54450","No_Match",NA,NA,NA,NA
232152,"507 SUNSET DRIVE","PONTE VEDRA","FL",32082,30.2269576900001,-81.384114465,152,"507 SUNSET DRIVE, PONTE VEDRA, FL, 32082","Match","Exact","507 SUNSET DR, PONTE VEDRA, FL, 32082",92591441,"R"
232153,"507 SUNSET VIEW TERR SE 105","LEESBURG","VA",20175,39.0969807220001,-77.561210355,153,"507 SUNSET VIEW TERR SE 105, LEESBURG, VA, 20175","Match","Exact","507 SUNSET VIEW TER SE, LEESBURG, VA, 20175",218938570,"L"
232154,"507 TELESCOPE VIEW UNIT 104","WILDER","KY",41076,39.0358676920001,-84.4771441199999,154,"507 TELESCOPE VIEW UNIT 104, WILDER, KY, 41076","Match","Exact","507 TELESCOPE VW, WILDER, KY, 41076",104454829,"R"
232155,"507 TILTON LANE","MOUNT OLIVET","KY",41064,38.54488759,-84.067848786,155,"507 TILTON LANE, MOUNT OLIVET, KY, 41064","Match","Exact","507 TILTON LN, MOUNT OLIVET, KY, 41064",58626605,"L"
232156,"507 UPPER CHURCH ROAD","PERKASIE","PA",18944,40.3422792550001,-75.218411461,156,"507 UPPER CHURCH ROAD, PERKASIE, PA, 18944","Match","Exact","507 UPPER CHURCH RD, PERKASIE, PA, 18944",134771062,"L"
232157,"507 VALLEY AVE","BURLINGTON","ND",58722,48.2800465340001,-101.42521166,157,"507 VALLEY AVE, BURLINGTON, ND, 58722","Match","Exact","507 VALLEY AVE, BURLINGTON, ND, 58722",200510663,"L"
232158,"507 VERONICA DR","PASO ROBLES","CA",93446,35.6193481540001,-120.668036914,158,"507 VERONICA DR, PASO ROBLES, CA, 93446","Match","Exact","507 VERONICA DR, PASO ROBLES, CA, 93446",109720012,"L"
232159,"507 W 34TH STREET","CONNERSVILLE","IN",47331,39.6752920120001,-85.135359831,159,"507 W 34TH STREET, CONNERSVILLE, IN, 47331","Match","Exact","507 W 34TH ST, CONNERSVILLE, IN, 47331",31020752,"L"
232160,"507 W 7TH ST","JONESBORO","IN",46938,40.479279589,-85.634027803,160,"507 W 7TH ST, JONESBORO, IN, 46938","Match","Exact","507 W 7TH ST, JONESBORO, IN, 46938",95016879,"L"
232161,"507 W DEARBORN","PLANO","IL",60545,41.658969443,-88.541582687,161,"507 W DEARBORN, PLANO, IL, 60545","Match","Non_Exact","507 W DEARBORN ST, PLANO, IL, 60545",54480765,"R"
232162,"507 W EUGENIA ST","LOMBARD","IL",60148,41.8880304990001,-88.03049829,162,"507 W EUGENIA ST, LOMBARD, IL, 60148","Match","Exact","507 W EUGENIA ST, LOMBARD, IL, 60148",112523557,"R"
232163,"507 W JOHNSON ST","STAUNTON","VA",24401,38.148119691,-79.077231847,163,"507 W JOHNSON ST, STAUNTON, VA, 24401","Match","Exact","507 W JOHNSON ST, STAUNTON, VA, 24401",98814288,"R"
232164,"507 W MARKET ST","BOLIVAR","TN",38008,35.2563029190001,-88.993735332,164,"507 W MARKET ST, BOLIVAR, TN, 38008","Match","Exact","507 W MARKET ST, BOLIVAR, TN, 38008",21103705,"L"
232165,"507 W MILLER AVE","MUNHALL","PA",15120,40.388247764,-79.907050656,165,"507 W MILLER AVE, MUNHALL, PA, 15120","Match","Exact","507 W MILLER AVE, MUNHALL, PA, 15120",51655097,"L"
232166,"507 W WASHINGTON STRET","LAGRANGE","NC",28551,NA,NA,166,"507 W WASHINGTON STRET, LAGRANGE, NC, 28551","No_Match",NA,NA,NA,NA
232167,"507 WALNUT STREET","KANSAS CITY","MO",64106,39.108419622,-94.581609209,167,"507 WALNUT STREET, KANSAS CITY, MO, 64106","Match","Exact","507 WALNUT ST, KANSAS CITY, MO, 64106",91444985,"L"
232168,"507 WARREN AVE","COLORADO SPRINGS","CO",80905,38.810009549,-104.816884197,168,"507 WARREN AVE, COLORADO SPRINGS, CO, 80905","Match","Exact","507 WARREN AVE, COLORADO SPRINGS, CO, 80905",105515132,"R"
232169,"507 WEBSTER STREET","HARRISONVILLE","MO",64701,38.648181091,-94.3524469449999,169,"507 WEBSTER STREET, HARRISONVILLE, MO, 64701","Match","Exact","507 WEBSTER ST, HARRISONVILLE, MO, 64701",100901287,"L"
232170,"507 WEST 147TH STREET APARTMENT 19","NEW YORK","NY",10031,40.8266932130001,-73.947029028,170,"507 WEST 147TH STREET APARTMENT 19, NEW YORK, NY, 10031","Match","Exact","507 W 147TH ST, NEW YORK, NY, 10031",59655922,"R"
232171,"507 WEST 1ST STREET","NOOKSACK","WA",98276,48.9262138,-122.323258321,171,"507 WEST 1ST STREET, NOOKSACK, WA, 98276","Match","Exact","507 W 1ST ST, NOOKSACK, WA, 98276",183761346,"L"
232172,"507 WEST 28TH STREET UNIT 1119","NEW YORK","NY",10004,40.751154682,-74.0026397839999,172,"507 WEST 28TH STREET UNIT 1119, NEW YORK, NY, 10004","Match","Non_Exact","507 W 28TH ST, NEW YORK, NY, 10001",650081347,"R"
232173,"507 WEST 7TH STREET","AUSTIN","TX",78701,30.2702951160001,-97.74714259,173,"507 WEST 7TH STREET, AUSTIN, TX, 78701","Match","Exact","507 W 7TH ST, AUSTIN, TX, 78701",63943355,"L"
232174,"507 WEST BROADWAY","TIPP CITY","OH",45371,39.9593789950001,-84.178242575,174,"507 WEST BROADWAY, TIPP CITY, OH, 45371","Match","Non_Exact","507 W BROADWAY AVE, TIPP CITY, OH, 45371",135299271,"R"
232175,"507 WEST SPRING STREET","FREMONT","IN",46737,NA,NA,175,"507 WEST SPRING STREET, FREMONT, IN, 46737","No_Match",NA,NA,NA,NA
232176,"507 WESTWOOD AVE","BRUNSWICK","OH",44212,41.262400267,-81.8188639809999,176,"507 WESTWOOD AVE, BRUNSWICK, OH, 44212","Match","Exact","507 WESTWOOD AVE, BRUNSWICK, OH, 44212",58674625,"R"
232177,"507 WILLARD AVE","SPUR","TX",79370,33.4783023370001,-100.855982763,177,"507 WILLARD AVE, SPUR, TX, 79370","Match","Exact","507 WILLARD AVE, SPUR, TX, 79370",186137435,"L"
232178,"507 WILLOW GROVE RD","CENTERVILLE","IN",47330,39.8134772820001,-85.001263385,178,"507 WILLOW GROVE RD, CENTERVILLE, IN, 47330","Match","Exact","507 WILLOW GROVE RD, CENTERVILLE, IN, 47330",31332072,"R"
232179,"507 WINNEBAGO AVE","FAIRMONT","MN",56031,43.6666471730001,-94.455126193,179,"507 WINNEBAGO AVE, FAIRMONT, MN, 56031","Match","Exact","507 WINNEBAGO AVE, FAIRMONT, MN, 56031",9976879,"R"
232180,"507 WINSLOW DRIVE","RAYMORE","MO",64083,38.8182225890001,-94.486129563,180,"507 WINSLOW DRIVE, RAYMORE, MO, 64083","Match","Exact","507 WINSLOW DR, RAYMORE, MO, 64083",100926468,"R"
232181,"507 WOODSIDE RD","PITTSBURGH","PA",15221,40.4333618000001,-79.858614011,181,"507 WOODSIDE RD, PITTSBURGH, PA, 15221","Match","Exact","507 WOODSIDE RD, PITTSBURGH, PA, 15221",51669334,"L"
232182,"507","LINDEN","TX",75563,NA,NA,182,"507, LINDEN, TX, 75563","No_Match",NA,NA,NA,NA
232183,"5070 ASHLEY LAKE DR APT 835","BOYNTON BEACH","FL",33437,26.521960533,-80.123897374,183,"5070 ASHLEY LAKE DR APT 835, BOYNTON BEACH, FL, 33437","Match","Exact","5070 ASHLEY LAKE DR, BOYNTON BEACH, FL, 33437",115483119,"R"
232184,"5070 DEER BROOK TRAIL","AUSTELL","GA",30106,33.811183774,-84.6712436179999,184,"5070 DEER BROOK TRAIL, AUSTELL, GA, 30106","Match","Exact","5070 DEER BROOK TRL, AUSTELL, GA, 30106",614179498,"R"
232185,"5070 FALLEN OAK DRIVE","MORGAN HILL","CA",95037,37.108892601,-121.742665543,185,"5070 FALLEN OAK DRIVE, MORGAN HILL, CA, 95037","Match","Exact","5070 FALLEN OAK DR, MORGAN HILL, CA, 95037",122947824,"R"
232186,"5070 GARY DR","EMMAUS","PA",18049,40.4956817820001,-75.536875595,186,"5070 GARY DR, EMMAUS, PA, 18049","Match","Exact","5070 GARY DR, EMMAUS, PA, 18049",80776767,"L"
232187,"5070 HALEILIO RD","KAPAA","HI",96746,22.05897973,-159.342695823,187,"5070 HALEILIO RD, KAPAA, HI, 96746","Match","Exact","5070 HALEILIO RD, KAPAA, HI, 96746",635495337,"R"
232188,"5070 INDUSTRY DRIVE","MELBOURNE","FL",32940,28.1929703330001,-80.663527222,188,"5070 INDUSTRY DRIVE, MELBOURNE, FL, 32940","Match","Exact","5070 INDUSTRY DR, MELBOURNE, FL, 32940",93933943,"R"
232189,"5070 MINERAL SPRINGS ROAD","SUFFOLK","VA",23438,NA,NA,189,"5070 MINERAL SPRINGS ROAD, SUFFOLK, VA, 23438","No_Match",NA,NA,NA,NA
232190,"5070 N STONEY CREEK ROAD","MONROE","MI",48162,41.9520686720001,-83.3122550589999,190,"5070 N STONEY CREEK ROAD, MONROE, MI, 48162","Match","Exact","5070 N STONEY CREEK RD, MONROE, MI, 48162",40494772,"R"
232191,"5070 PARKSIDE AVE SUITE 6100","PHILADELPHIA","PW",19131,NA,NA,191,"5070 PARKSIDE AVE SUITE 6100, PHILADELPHIA, PW, 19131","No_Match",NA,NA,NA,NA
232192,"5070 PARKSIDE AVENUE SUITE 2400","PHILADELPHIA","PA",19131,39.9804859170001,-75.220748655,192,"5070 PARKSIDE AVENUE SUITE 2400, PHILADELPHIA, PA, 19131","Match","Exact","5070 PARKSIDE AVE, PHILADELPHIA, PA, 19131",131442559,"L"
232193,"5070 PEACHTREE BLVD UNIT 1124","CHAMBLEE","GA",30341,33.8858002810001,-84.3112899289999,193,"5070 PEACHTREE BLVD UNIT 1124, CHAMBLEE, GA, 30341","Match","Non_Exact","5070 PEACHTREE RD, CHAMBLEE, GA, 30341",645526486,"L"
232194,"5070 PEBBLE BROOK DRIVE","ENGLEWOOD","OH",45322,39.8415444340001,-84.299845163,194,"5070 PEBBLE BROOK DRIVE, ENGLEWOOD, OH, 45322","Match","Exact","5070 PEBBLE BROOK DR, ENGLEWOOD, OH, 45322",642837079,"R"
232195,"5070 PINEY GROVE DR","CUMMING","GA",30040,34.1949221250001,-84.174729546,195,"5070 PINEY GROVE DR, CUMMING, GA, 30040","Match","Exact","5070 PINEY GROVE DR, CUMMING, GA, 30040",637352329,"L"
232196,"5070 REDWOOD COURT","WEST BLOOMFIELD","MI",48323,42.5637599790001,-83.366114577,196,"5070 REDWOOD COURT, WEST BLOOMFIELD, MI, 48323","Match","Exact","5070 REDWOOD CT, W BLOOMFIELD, MI, 48323",69760234,"L"
232197,"5070 VIA SERENA","RANCHO CUCAMONGA","CA",91701,34.162450139,-117.622878656,197,"5070 VIA SERENA, RANCHO CUCAMONGA, CA, 91701","Match","Exact","5070 VIA SERENA, RANCHO CUCAMONGA, CA, 91701",144633692,"R"
232198,"5070 YUCCA PLACE","EL PASO","TX",79932,31.843123308,-106.585863887,198,"5070 YUCCA PLACE, EL PASO, TX, 79932","Match","Exact","5070 YUCCA PL, EL PASO, TX, 79932",189335237,"R"
232199,"5071 AUSTELL POWDER SPRINGS 745","CLARKDALE","GA",30111,NA,NA,199,"5071 AUSTELL POWDER SPRINGS 745, CLARKDALE, GA, 30111","No_Match",NA,NA,NA,NA
232200,"5071 ELAINE DRIVE","WEST VALLEY CITY","UT",84120,40.6860585740001,-112.011876174,200,"5071 ELAINE DRIVE, WEST VALLEY CITY, UT, 84120","Match","Exact","5071 ELAINE DR, WEST VALLEY CITY, UT, 84120",176099133,"L"
232201,"5071 LAKEWOOD DR","COOPER CITY","FL",33024,26.055573268,-80.327414886,201,"5071 LAKEWOOD DR, COOPER CITY, FL, 33024","Match","Non_Exact","5071 LAKEWOOD DR, COOPER CITY, FL, 33330",114778757,"L"
232202,"5071 NORTH SALEM CHURCH ROAD","DOVER","PA",17315,39.993415376,-76.862439432,202,"5071 NORTH SALEM CHURCH ROAD, DOVER, PA, 17315","Match","Exact","5071 N SALEM CHURCH RD, DOVER, PA, 17315",648905175,"R"
232203,"5071 POWDER SPRINGS ROAD UNIT 561","CLARKDALE","GA",30111,NA,NA,203,"5071 POWDER SPRINGS ROAD UNIT 561, CLARKDALE, GA, 30111","No_Match",NA,NA,NA,NA
232204,"50718 SORREL DRIVE","GRANGER","IN",46530,41.7580542680001,-86.213250225,204,"50718 SORREL DRIVE, GRANGER, IN, 46530","Match","Exact","50718 SORREL DR, GRANGER, IN, 46530",8059203,"R"
232205,"5072 ANDOVER DRIVE","MEMPHIS","TN",38109,35.0099993270001,-90.125838829,205,"5072 ANDOVER DRIVE, MEMPHIS, TN, 38109","Match","Exact","5072 ANDOVER DR, MEMPHIS, TN, 38109",72896805,"L"
232206,"5072 DORSEY HALL DRIVE SUITE 202C","ELLICOTT CITY","MD",21042,39.2431671530001,-76.835178981,206,"5072 DORSEY HALL DRIVE SUITE 202C, ELLICOTT CITY, MD, 21042","Match","Exact","5072 DORSEY HALL DR, ELLICOTT CITY, MD, 21042",614149203,"L"
232207,"5072 ERWIN STREET","MAPLE HEIGHTS","OH",44137,41.422424576,-81.551674458,207,"5072 ERWIN STREET, MAPLE HEIGHTS, OH, 44137","Match","Exact","5072 ERWIN ST, MAPLE HEIGHTS, OH, 44137",61129294,"R"
232208,"5072 XANADU ST","DENVER","CO",80239,39.7889733210001,-104.831288832,208,"5072 XANADU ST, DENVER, CO, 80239","Match","Exact","5072 XANADU ST, DENVER, CO, 80239",606026987,"R"
232209,"50726 260TH AVENUE","POCAHONTAS","IA",50574,42.7525001610001,-94.5998748059999,209,"50726 260TH AVENUE, POCAHONTAS, IA, 50574","Match","Exact","50726 260TH AVE, POCAHONTAS, IA, 50574",77481423,"R"
232210,"5073 IRVINE DRIVE","DOUGLASVILLE","GA",30135,33.7277300480001,-84.705183887,210,"5073 IRVINE DRIVE, DOUGLASVILLE, GA, 30135","Match","Exact","5073 IRVINE DR, DOUGLASVILLE, GA, 30135",618477288,"R"
232211,"5073 PECAN RIDGE DR STE 100","SAN ANGELO","TX",76904,31.4082045380001,-100.445238836,211,"5073 PECAN RIDGE DR STE 100, SAN ANGELO, TX, 76904","Match","Exact","5073 PECAN RIDGE DR, SAN ANGELO, TX, 76904",639934612,"L"
232212,"5073 SLOAN WAY","UNION CITY","CA",94587,37.5668625700001,-122.071664784,212,"5073 SLOAN WAY, UNION CITY, CA, 94587","Match","Exact","5073 SLOAN WAY, UNION CITY, CA, 94587",606069773,"L"
232213,"5073 STATE ROUTE 46","CORTLAND","OH",44410,41.358760305,-80.7367569639999,213,"5073 STATE ROUTE 46, CORTLAND, OH, 44410","Match","Exact","5073 STATE RTE 46, CORTLAND, OH, 44410",626991760,"L"
232214,"50730 SW HEBO RD","GRAND RONDE","OR",97347,45.0811355660001,-123.634959389,214,"50730 SW HEBO RD, GRAND RONDE, OR, 97347","Match","Exact","50730 HEBO RD, GRAND RONDE, OR, 97347",605497126,"R"
232215,"50731 GRANITE BUTTE WAY","OAKHURST","CA",93644,37.3242116220001,-119.622948452,215,"50731 GRANITE BUTTE WAY, OAKHURST, CA, 93644","Match","Exact","50731 GRANITE BUTTE WAY, OAKHURST, CA, 93644",102328790,"L"
232216,"5074 COTTONWOOD DRIVE","BOULDER","CO",80301,40.067587405,-105.192983814,216,"5074 COTTONWOOD DRIVE, BOULDER, CO, 80301","Match","Exact","5074 COTTONWOOD DR, BOULDER, CO, 80301",220759275,"R"
232217,"5074 FAIRVIEW","DETROIT","MI",48213,42.386728132,-82.987703309,217,"5074 FAIRVIEW, DETROIT, MI, 48213","Match","Non_Exact","5074 FAIRVIEW AVE, DETROIT, MI, 48213",95484761,"R"
232218,"5074 LANES POND RD","VALDOSTA","GA",31601,NA,NA,218,"5074 LANES POND RD, VALDOSTA, GA, 31601","No_Match",NA,NA,NA,NA
232219,"5074 LIST DRIVE","COLORADO SPRINGS","CO",80919,38.903215087,-104.855482117,219,"5074 LIST DRIVE, COLORADO SPRINGS, CO, 80919","Match","Exact","5074 LIST DR, COLORADO SPRINGS, CO, 80919",610705972,"L"
232220,"5074 MASCARO DRIVE","LAS VEGAS","NV",89122,36.0972784000001,-115.025260044,220,"5074 MASCARO DRIVE, LAS VEGAS, NV, 89122","Match","Exact","5074 MASCARO DR, LAS VEGAS, NV, 89122",201961585,"R"
232221,"5074 MT HELENA AVE","LOS ANGELES","CA",90041,34.139160105,-118.195355712,221,"5074 MT HELENA AVE, LOS ANGELES, CA, 90041","Match","Exact","5074 MT HELENA AVE, LOS ANGELES, CA, 90041",141614336,"R"
232222,"5074 NILES CORTLAND RD","CORTLAND","OH",44410,NA,NA,222,"5074 NILES CORTLAND RD, CORTLAND, OH, 44410","No_Match",NA,NA,NA,NA
232223,"5074 VILLAGE RD","SALINE","MI",48176,42.210848889,-83.7912798739999,223,"5074 VILLAGE RD, SALINE, MI, 48176","Match","Exact","5074 VILLAGE RD, SALINE, MI, 48176",26012833,"R"
232224,"5074 WICKFORD WAY","DUNWOODY","GA",30338,33.9463634250001,-84.32731284,224,"5074 WICKFORD WAY, DUNWOODY, GA, 30338","Match","Exact","5074 WICKFORD WAY, DUNWOODY, GA, 30338",23355997,"L"
232225,"5075 100TH AVE SE","MAYNARD","MN",56260,44.9373810640001,-95.3913479459999,225,"5075 100TH AVE SE, MAYNARD, MN, 56260","Match","Exact","5075 100TH AVE SE, MAYNARD, MN, 56260",36682465,"L"
232226,"5075 ALEGRIA","LOS ALAMOS","NM",87544,35.890895056,-106.330757414,226,"5075 ALEGRIA, LOS ALAMOS, NM, 87544","Match","Exact","5075 ALEGRIA, LOS ALAMOS, NM, 87544",625210826,"R"
232227,"5075 DEWBURY COURT","STERLING HEIGHTS","MI",48310,42.588949316,-83.05936375,227,"5075 DEWBURY COURT, STERLING HEIGHTS, MI, 48310","Match","Exact","5075 DEWBURY CT, STERLING HEIGHTS, MI, 48310",642575602,"R"
232228,"5075 GREAT FOSTERS DR","ROCHESTER HILLS","MI",48306,42.7229450090001,-83.167321676,228,"5075 GREAT FOSTERS DR, ROCHESTER HILLS, MI, 48306","Match","Non_Exact","5075 GREAT FOSTER DR, ROCHESTER HILLS, MI, 48306",627681650,"R"
232229,"5075 HALEVILLE ROAD","MEMPHIS","TN",38116,35.009725845,-90.01145758,229,"5075 HALEVILLE ROAD, MEMPHIS, TN, 38116","Match","Exact","5075 HALEVILLE RD, MEMPHIS, TN, 38116",72922710,"R"
232230,"5075 HIGHPOINT RD","PLEASANT VIEW","TN",37146,36.387542683,-87.054877908,230,"5075 HIGHPOINT RD, PLEASANT VIEW, TN, 37146","Match","Exact","5075 HIGHPOINT RD, PLEASANT VIEW, TN, 37146",72880778,"L"
232231,"5075 IRISH LN","FITCHBURG","WI",53711,42.986740227,-89.3909689399999,231,"5075 IRISH LN, FITCHBURG, WI, 53711","Match","Exact","5075 IRISH LN, FITCHBURG, WI, 53711",49477359,"R"
232232,"5075 LONG BEACH BLVD","LONG BEACH","CA",90805,33.848318605,-118.194413863,232,"5075 LONG BEACH BLVD, LONG BEACH, CA, 90805","Match","Non_Exact","5075 N LONG BEACH BLVD, LONG BEACH, CA, 90805",141684324,"L"
232233,"5075 MEMORIAL DRIVE ROOM 317","STONE MOUNTAIN","GA",30038,33.7938072320001,-84.2271100689999,233,"5075 MEMORIAL DRIVE ROOM 317, STONE MOUNTAIN, GA, 30038","Match","Non_Exact","5075 MEMORIAL DR, STONE MOUNTAIN, GA, 30083",23409663,"R"
232234,"5075 N CAPRICE DRIVE","PALMER","AK",99645,61.6390186620001,-149.136217235,234,"5075 N CAPRICE DRIVE, PALMER, AK, 99645","Match","Exact","5075 N CAPRICE DR, PALMER, AK, 99645",653206997,"L"
232235,"5075 N RACEWAY RD","INDIANAPOLIS","IN",46234,NA,NA,235,"5075 N RACEWAY RD, INDIANAPOLIS, IN, 46234","Tie",NA,NA,NA,NA
232236,"5075 SOUTH HAMILTON ROAD","GROVEPORT","OH",43125,39.8730430260001,-82.885153784,236,"5075 SOUTH HAMILTON ROAD, GROVEPORT, OH, 43125","Match","Exact","5075 S HAMILTON RD, GROVEPORT, OH, 43125",218642808,"R"
232237,"5075 WESTHEIMER RD  SUITE 985 WEST","HOUSTON","TX",77056,29.740661312,-95.4633101219999,237,"5075 WESTHEIMER RD  SUITE 985 WEST, HOUSTON, TX, 77056","Match","Exact","5075 WESTHEIMER RD, HOUSTON, TX, 77056",649110418,"L"
232238,"50750 AMESBURG DR","NOVI","MI",48374,42.4698308050001,-83.548098796,238,"50750 AMESBURG DR, NOVI, MI, 48374","Match","Exact","50750 AMESBURG DR, NOVI, MI, 48374",646568379,"R"
232239,"50750 KELLEY CT","GRANGER","IN",46530,41.7562849350001,-86.143562717,239,"50750 KELLEY CT, GRANGER, IN, 46530","Match","Exact","50750 KELLEY CT, GRANGER, IN, 46530",8071001,"R"
232240,"50759 RUSSELL DRIVE","MACOMB","MI",48044,42.670172919,-82.934683471,240,"50759 RUSSELL DRIVE, MACOMB, MI, 48044","Match","Exact","50759 RUSSELL DR, MACOMB, MI, 48044",110704200,"R"
232241,"5076 CAPE MAY AVENUE","SAN DIEGO","CA",92107,32.7501703230001,-117.250147948,241,"5076 CAPE MAY AVENUE, SAN DIEGO, CA, 92107","Match","Exact","5076 CAPE MAY AVE, SAN DIEGO, CA, 92107",195339056,"R"
232242,"5076 CITATION DRIVE","MOUNT JULIET","TN",37122,36.180168628,-86.5358459349999,242,"5076 CITATION DRIVE, MOUNT JULIET, TN, 37122","Match","Exact","5076 CITATION DR, MOUNT JULIET, TN, 37122",627383160,"R"
232243,"5076 EDWARDSVILLE RD","HARDY","VA",24101,37.1738708870001,-79.8234029929999,243,"5076 EDWARDSVILLE RD, HARDY, VA, 24101","Match","Exact","5076 EDWARDSVILLE RD, HARDY, VA, 24101",647348325,"R"
232244,"5076 LEIKE ROAD","PARKESBURG","PA",19365,39.9721788690001,-75.952902219,244,"5076 LEIKE ROAD, PARKESBURG, PA, 19365","Match","Exact","5076 LEIKE RD, PARKESBURG, PA, 19365",179538222,"L"
232245,"5076 PELLEY ROAD","ROCKFORD","IL",61102,42.212172627,-89.136399024,245,"5076 PELLEY ROAD, ROCKFORD, IL, 61102","Match","Exact","5076 PELLEY RD, ROCKFORD, IL, 61102",653532142,"L"
232246,"5077 MT OLIVET ROAD","KALAMAZOO","MI",49004,42.3339310980001,-85.545844946,246,"5077 MT OLIVET ROAD, KALAMAZOO, MI, 49004","Match","Exact","5077 MOUNT OLIVET RD, KALAMAZOO, MI, 49004",12228022,"L"
232247,"5077 NW 7TH STREET APT 1208","MIAMI","FL",33126,NA,NA,247,"5077 NW 7TH STREET APT 1208, MIAMI, FL, 33126","No_Match",NA,NA,NA,NA
232248,"5077 S MALAY CT","AURORA","CO",80015,NA,NA,248,"5077 S MALAY CT, AURORA, CO, 80015","No_Match",NA,NA,NA,NA
232249,"5077 STRATEMEYER DR","ORLANDO","FL",32839,28.484253004,-81.375197811,249,"5077 STRATEMEYER DR, ORLANDO, FL, 32839","Match","Exact","5077 STRATEMEYER DR, ORLANDO, FL, 32839",94408625,"L"
232250,"5077 TIWANAKU DR SW","ATLANTA","GA",30331,33.659305542,-84.552384508,250,"5077 TIWANAKU DR SW, ATLANTA, GA, 30331","Match","Non_Exact","5077 TIWANAKU DR, ATLANTA, GA, 30331",624703397,"L"
232251,"5077-109 FRUITVILLE RD SUITE 421","SARASOTA","FL",34232,27.337861817,-82.468367171,251,"5077-109 FRUITVILLE RD SUITE 421, SARASOTA, FL, 34232","Match","Exact","5077 FRUITVILLE RD, SARASOTA, FL, 34232",16412825,"L"
232252,"5078 ASHBERRY ROAD","CARLSBAD","CA",92008,33.1458461350001,-117.30030033,252,"5078 ASHBERRY ROAD, CARLSBAD, CA, 92008","Match","Exact","5078 ASHBERRY RD, CARLSBAD, CA, 92008",195460808,"R"
232253,"5078 BLARNEY ST","FREDERICKSBRG","VA",22407,38.283392921,-77.5513115859999,253,"5078 BLARNEY ST, FREDERICKSBRG, VA, 22407","Match","Exact","5078 BLARNEY ST, FREDERICKSBRG, VA, 22407",85017995,"L"
232254,"5078 JONES ROAD","FOREST PARK","GA",30297,33.6146000970001,-84.3785972539999,254,"5078 JONES ROAD, FOREST PARK, GA, 30297","Match","Exact","5078 JONES RD, FOREST PARK, GA, 30297",23312040,"L"
232255,"5078 KENSINGTON AVE","DETROIT","MI",48224,42.40478441,-82.93568437,255,"5078 KENSINGTON AVE, DETROIT, MI, 48224","Match","Non_Exact","5078 KENSINGTON, DETROIT, MI, 48224",95487259,"R"
232256,"5078 LEMON BAY DRIVE","VENICE","FL",34293,27.036379697,-82.421654852,256,"5078 LEMON BAY DRIVE, VENICE, FL, 34293","Match","Exact","5078 LEMON BAY DR, VENICE, FL, 34293",16362991,"R"
232257,"5078 MEADOW LAKE CREST","BESSEMER","AL",35020,NA,NA,257,"5078 MEADOW LAKE CREST, BESSEMER, AL, 35020","No_Match",NA,NA,NA,NA
232258,"5078 OLD MOUNTAIN TRAIL","POWDER SPRINGS","GA",30127,33.9520419790001,-84.700564555,258,"5078 OLD MOUNTAIN TRAIL, POWDER SPRINGS, GA, 30127","Match","Exact","5078 OLD MOUNTAIN TRL, POWDER SPGS, GA, 30127",17200298,"L"
232259,"5078 RED OAK DRIVE","ROYSE CITY","TX",75189,32.940886613,-96.249258788,259,"5078 RED OAK DRIVE, ROYSE CITY, TX, 75189","Match","Exact","5078 RED OAK DR, ROYSE CITY, TX, 75189",632923068,"L"
232260,"5078 S WANDER LANE","HOLLADAY","UT",84117,NA,NA,260,"5078 S WANDER LANE, HOLLADAY, UT, 84117","Tie",NA,NA,NA,NA
232261,"5078 WEST BALDWIN ROAD","SWARTZ CREEK","MI",48473,42.884741117,-83.7719651359999,261,"5078 WEST BALDWIN ROAD, SWARTZ CREEK, MI, 48473","Match","Exact","5078 W BALDWIN RD, SWARTZ CREEK, MI, 48473",69586182,"L"
232262,"5079 N DIXIE HIGHWAY SUITE 269","OAKLAND PARK","FL",33334,26.1907377850001,-80.132949696,262,"5079 N DIXIE HIGHWAY SUITE 269, OAKLAND PARK, FL, 33334","Match","Non_Exact","5079 N DIXIE HWY, OAKLAND PARK, FL, 33334",650096632,"L"
232263,"5079 N DIXIE HWY 201","OAKLAND PARK","FL",33334,26.1907377850001,-80.132949696,263,"5079 N DIXIE HWY 201, OAKLAND PARK, FL, 33334","Match","Non_Exact","5079 N DIXIE HWY, OAKLAND PARK, FL, 33334",650096632,"L"
232264,"5079 N DIXIE HWY STE 269","OAKLAND PARK","FL",33334,26.1907377850001,-80.132949696,264,"5079 N DIXIE HWY STE 269, OAKLAND PARK, FL, 33334","Match","Non_Exact","5079 N DIXIE HWY, OAKLAND PARK, FL, 33334",650096632,"L"
232265,"5079 NW DIXIE HWY UNIT 132","OAKLAND PARK","FL",33334,26.1907354210001,-80.132950638,265,"5079 NW DIXIE HWY UNIT 132, OAKLAND PARK, FL, 33334","Match","Non_Exact","5079 N DIXIE HWY, OAKLAND PARK, FL, 33334",650096632,"L"
232266,"5079 S COLONIAL DR","TRAVERSE CITY","MI",49685,44.7325897370001,-85.679907381,266,"5079 S COLONIAL DR, TRAVERSE CITY, MI, 49685","Match","Exact","5079 S COLONIAL DR, TRAVERSE CITY, MI, 49685",633642990,"R"
232267,"5079 S RED PADGETT RD","PERRY","FL",32348,30.053405587,-83.516011981,267,"5079 S RED PADGETT RD, PERRY, FL, 32348","Match","Exact","5079 S RED PADGETT RD, PERRY, FL, 32348",636379090,"L"
232268,"5079 THEODORE ROAD","CATAWBA","SC",29704,34.82031791,-80.9400743039999,268,"5079 THEODORE ROAD, CATAWBA, SC, 29704","Match","Exact","5079 THEODORE RD, CATAWBA, SC, 29704",640123801,"L"
232269,"50794 RAINTREE CIRCLE","CHESTERFIELD","MI",48047,42.6703423230001,-82.806398889,269,"50794 RAINTREE CIRCLE, CHESTERFIELD, MI, 48047","Match","Non_Exact","50794 RAINTREE CT, CHESTERFIELD, MI, 48047",617070941,"L"
232270,"508 12TH ST","SANTA MONICA","CA",90402,34.03350791,-118.500399462,270,"508 12TH ST, SANTA MONICA, CA, 90402","Match","Exact","508 12TH ST, SANTA MONICA, CA, 90402",141559023,"R"
232271,"508 17TH AVE","MONROE","WI",53566,42.607499062,-89.63848231,271,"508 17TH AVE, MONROE, WI, 53566","Match","Exact","508 17TH AVE, MONROE, WI, 53566",48532027,"R"
232272,"508 19TH AVENUE WEST   UNIT G","WEST FARGO","ND",58078,46.8539299880001,-96.908199652,272,"508 19TH AVENUE WEST   UNIT G, WEST FARGO, ND, 58078","Match","Exact","508 19TH AVE W, WEST FARGO, ND, 58078",625727115,"R"
232273,"508 23RD PLACE NE","WASHINGTON","DC",20002,38.8964278240001,-76.9736111729999,273,"508 23RD PLACE NE, WASHINGTON, DC, 20002","Match","Exact","508 23RD PL NE, WASHINGTON, DC, 20002",641472998,"L"
232274,"508 4TH STREET","TYRONE","PA",16686,40.666376235,-78.251908525,274,"508 4TH STREET, TYRONE, PA, 16686","Match","Exact","508 4TH ST, TYRONE, PA, 16686",49720427,"R"
232275,"508 5TH AVENUE","DEARY","ID",83823,46.8018291270001,-116.558444655,275,"508 5TH AVENUE, DEARY, ID, 83823","Match","Exact","508 5TH AVE, DEARY, ID, 83823",193876860,"L"
232276,"508 5TH STREET","PALMERTON","PA",18071,40.8028416280001,-75.603932898,276,"508 5TH STREET, PALMERTON, PA, 18071","Match","Exact","508 5TH ST, PALMERTON, PA, 18071",80627366,"R"
232277,"508 60TH STREET NE","WASHINGTON","DC",20019,38.896127946,-76.915043032,277,"508 60TH STREET NE, WASHINGTON, DC, 20019","Match","Exact","508 60TH ST NE, WASHINGTON, DC, 20019",639501025,"L"
232278,"508 82ND STREET NORTH","BIRMINGHAM","AL",35206,33.572246955,-86.729400762,278,"508 82ND STREET NORTH, BIRMINGHAM, AL, 35206","Match","Exact","508 82ND ST N, BIRMINGHAM, AL, 35206",81585881,"L"
232279,"508 ALEXANDER CT NW","ORTING","WA",98360,47.0993978170001,-122.214631082,279,"508 ALEXANDER CT NW, ORTING, WA, 98360","Match","Exact","508 ALEXANDER CT NW, ORTING, WA, 98360",184689589,"L"
232280,"508 AVENUE OF THE STATES","CHESTER","PA",19013,39.8483283240001,-75.360157654,280,"508 AVENUE OF THE STATES, CHESTER, PA, 19013","Match","Exact","508 AVE OF THE STATES, CHESTER, PA, 19013",134881678,"L"
232281,"508 B STREET","CARBON","IA",50839,41.049798638,-94.8215434699999,281,"508 B STREET, CARBON, IA, 50839","Match","Exact","508 B ST, CARBON, IA, 50839",61698646,"L"
232282,"508 BARRINGTON DRIVE","FRANKLIN","TN",37067,35.9070067330001,-86.792140929,282,"508 BARRINGTON DRIVE, FRANKLIN, TN, 37067","Match","Exact","508 BARRINGTON DR, FRANKLIN, TN, 37067",73123342,"R"
232283,"508 BEATTIES FORD ROAD","CHARLOTTE","NC",28216,35.247211625,-80.856736788,283,"508 BEATTIES FORD ROAD, CHARLOTTE, NC, 28216","Match","Exact","508 BEATTIES FORD RD, CHARLOTTE, NC, 28216",70477746,"R"
232284,"508 BERRYBETH CIRCLE","CHINA GROVE","NC",28023,35.577443412,-80.5921969459999,284,"508 BERRYBETH CIRCLE, CHINA GROVE, NC, 28023","Match","Exact","508 BERRYBETH CIR, CHINA GROVE, NC, 28023",624412948,"L"
232285,"508 BETHEL STREET","CLOVER","SC",29710,35.1092709800001,-81.218370603,285,"508 BETHEL STREET, CLOVER, SC, 29710","Match","Exact","508 BETHEL ST, CLOVER, SC, 29710",19786730,"L"
232286,"508 BOSTON AV","ORLANDO","FL",32805,28.5363536310001,-81.39445166,286,"508 BOSTON AV, ORLANDO, FL, 32805","Match","Exact","508 BOSTON AVE, ORLANDO, FL, 32805",94281178,"R"
232287,"508 BRANDING IRON TRAIL","FORT WORTH","TX",76131,32.887167683,-97.3715030979999,287,"508 BRANDING IRON TRAIL, FORT WORTH, TX, 76131","Match","Exact","508 BRANDING IRON TRL, FORT WORTH, TX, 76131",619873238,"R"
232288,"508 BROADWOOD DRIVE","ROCKVILLE","MD",20851,39.082057053,-77.120136148,288,"508 BROADWOOD DRIVE, ROCKVILLE, MD, 20851","Match","Exact","508 BROADWOOD DR, ROCKVILLE, MD, 20851",642988403,"L"
232289,"508 CAMPUS ST   STE 101","MILTON","WI",53563,42.772592671,-88.94321094,289,"508 CAMPUS ST   STE 101, MILTON, WI, 53563","Match","Exact","508 CAMPUS ST, MILTON, WI, 53563",49849584,"R"
232290,"508 CAMPUS ST STE 101","MILTON","WI",53563,42.772592671,-88.94321094,290,"508 CAMPUS ST STE 101, MILTON, WI, 53563","Match","Exact","508 CAMPUS ST, MILTON, WI, 53563",49849584,"R"
232291,"508 CANAL STREET","NEW SMYRNA BEACH","FL",32168,29.023685707,-80.9261370199999,291,"508 CANAL STREET, NEW SMYRNA BEACH, FL, 32168","Match","Exact","508 CANAL ST, NEW SMYRNA BEACH, FL, 32168",639408874,"L"
232292,"508 CAUBLE STREET","SALEM","IN",47167,38.609774314,-86.111335584,292,"508 CAUBLE STREET, SALEM, IN, 47167","Match","Exact","508 CAUBLE ST, SALEM, IN, 47167",77536516,"L"
232293,"508 CENTRAL AVENUE","NEWARK","NJ",7107,40.7484712240001,-74.194580876,293,"508 CENTRAL AVENUE, NEWARK, NJ, 7107","Match","Exact","508 CENTRAL AVE, NEWARK, NJ, 07107",63465648,"L"
232294,"508 CENTRAL DR STE 105","VIRGINIA BEACH","VA",23464,36.8242452710001,-76.0541291929999,294,"508 CENTRAL DR STE 105, VIRGINIA BEACH, VA, 23464","Match","Non_Exact","508 CENTRAL DR, VIRGINIA BCH, VA, 23454",122283394,"R"
232295,"508 CHARTER OAKS DRIVE","NEWPORT NEWS","VA",23608,37.1491603010001,-76.5320275399999,295,"508 CHARTER OAKS DRIVE, NEWPORT NEWS, VA, 23608","Match","Non_Exact","508 CHARTER OAK DR, NEWPORT NEWS, VA, 23608",103814564,"L"
232296,"508 CHELSEA LANE","LEBANON","TN",37090,36.2002378670001,-86.4042544179999,296,"508 CHELSEA LANE, LEBANON, TN, 37090","Match","Exact","508 CHELSEA LN, LEBANON, TN, 37090",89701903,"R"
232297,"508 CHIEF STREET","BENKELMAN","NE",69021,40.0482913770001,-101.532861492,297,"508 CHIEF STREET, BENKELMAN, NE, 69021","Match","Exact","508 CHIEF ST, BENKELMAN, NE, 69021",161539808,"L"
232298,"508 CHRISTIE DR","SOUTH LAKE TAHOE","CA",96150,38.92992037,-120.013348366,298,"508 CHRISTIE DR, SOUTH LAKE TAHOE, CA, 96150","Match","Exact","508 CHRISTIE DR, SOUTH LAKE TAHOE, CA, 96150",133014949,"L"
232299,"508 CLEVELAND AVENUE","ELGIN","IL",60120,42.026378853,-88.262108836,299,"508 CLEVELAND AVENUE, ELGIN, IL, 60120","Match","Exact","508 CLEVELAND AVE, ELGIN, IL, 60120",111687776,"R"
232300,"508 CONTINENTIAL DRIVE","MADISON","AL",35758,34.69370194,-86.782632271,300,"508 CONTINENTIAL DRIVE, MADISON, AL, 35758","Match","Non_Exact","508 CONTINENTAL DR, MADISON, AL, 35758",648280125,"L"
232301,"508 COREY ROAD","SYRACUSE","NY",13219,43.039336717,-76.200721879,301,"508 COREY ROAD, SYRACUSE, NY, 13219","Match","Non_Exact","508 COREY RD E, SYRACUSE, NY, 13219",46602237,"R"
232302,"508 COVINGTON COVE","BYRON","GA",31008,32.624066429,-83.712831625,302,"508 COVINGTON COVE, BYRON, GA, 31008","Match","Exact","508 COVINGTON COVE, BYRON, GA, 31008",629424263,"L"
232303,"508 DOLPHIN AVE","CAMDEN","AR",71701,33.5896337350001,-92.8422541,303,"508 DOLPHIN AVE, CAMDEN, AR, 71701","Match","Non_Exact","508 DOLPHIN AVE NW, CAMDEN, AR, 71701",11073071,"L"
232304,"508 DOUGLAS MACARTHUR NW","ALBUQUERQUE","NM",87107,35.1360433890001,-106.643291279,304,"508 DOUGLAS MACARTHUR NW, ALBUQUERQUE, NM, 87107","Match","Non_Exact","508 DOUGLAS MACARTHUR RD NW, ALBUQUERQUE, NM, 87107",206703659,"L"
232305,"508 E 169TH ST","CARSON","CA",90746,33.879057808,-118.267175491,305,"508 E 169TH ST, CARSON, CA, 90746","Match","Exact","508 E 169TH ST, CARSON, CA, 90746",141680098,"R"
232306,"508 E 48TH STREET APT  2","CHICAGO","IL",60615,41.8076179990001,-87.6136149559999,306,"508 E 48TH STREET APT  2, CHICAGO, IL, 60615","Match","Non_Exact","508 E 48TH ST, CHICAGO, IL, 60615",605537439,"L"
232307,"508 E 8TH ST","LEADVILLE","CO",80461,39.2519561440001,-106.285383813,307,"508 E 8TH ST, LEADVILLE, CO, 80461","Match","Exact","508 E 8TH ST, LEADVILLE, CO, 80461",105935475,"L"
232308,"508 E HARRISON ST APT A","SEATTLE","WA",98102,47.622071206,-122.347388571,308,"508 E HARRISON ST APT A, SEATTLE, WA, 98102","Match","Non_Exact","508 HARRISON ST, SEATTLE, WA, 98109",186589630,"L"
232309,"508 E LOCUST UNIT A","BLOOMINGTON","IL",61701,NA,NA,309,"508 E LOCUST UNIT A, BLOOMINGTON, IL, 61701","No_Match",NA,NA,NA,NA
232310,"508 E MAIN ST","ROARING SPRING","PA",16673,40.333383741,-78.40272292,310,"508 E MAIN ST, ROARING SPRING, PA, 16673","Match","Exact","508 MAIN ST, ROARING SPRING, PA, 16673",49718023,"L"
232311,"508 E MAIN","NILES","MI",49120,41.8296658470001,-86.252677757,311,"508 E MAIN, NILES, MI, 49120","Match","Non_Exact","508 E MAIN ST, NILES, MI, 49120",119979458,"L"
232312,"508 E NORTH STREET","ISHPEMING","MI",49849,46.4941183890001,-87.665117588,312,"508 E NORTH STREET, ISHPEMING, MI, 49849","Match","Exact","508 E NORTH ST, ISHPEMING, MI, 49849",182037794,"L"
232313,"508 E SHERMAN AV","HARRISON","AR",72601,36.240817383,-93.101603303,313,"508 E SHERMAN AV, HARRISON, AR, 72601","Match","Exact","508 E SHERMAN AVE, HARRISON, AR, 72601",19982233,"L"
232314,"508 EAST 11TH STREET","DEL RIO","TX",78840,29.3759630800001,-100.902329601,314,"508 EAST 11TH STREET, DEL RIO, TX, 78840","Match","Exact","508 E 11TH ST, DEL RIO, TX, 78840",173573285,"L"
232315,"508 EAST 810 NORTH","TOOELE","UT",84074,40.547205046,-112.285181368,315,"508 EAST 810 NORTH, TOOELE, UT, 84074","Match","Non_Exact","508 810 N, TOOELE, UT, 84074",155400642,"R"
232316,"508 EAST MAIN STREET","THURMONT","MD",21788,39.620847935,-77.403284373,316,"508 EAST MAIN STREET, THURMONT, MD, 21788","Match","Exact","508 E MAIN ST, THURMONT, MD, 21788",60749208,"L"
232317,"508 EAST ST","LUDLOW","MA",1056,42.1618728350001,-72.467708006,317,"508 EAST ST, LUDLOW, MA, 1056","Match","Exact","508 EAST ST, LUDLOW, MA, 01056",4026590,"R"
232318,"508 ELM CREEK DR","MCKINNEY","TX",75071,33.2002028950001,-96.667709224,318,"508 ELM CREEK DR, MCKINNEY, TX, 75071","Match","Exact","508 ELM CREEK DR, MCKINNEY, TX, 75071",623940221,"L"
232319,"508 FAIRCHILD AVE","KENT","OH",44240,41.159375852,-81.362723403,319,"508 FAIRCHILD AVE, KENT, OH, 44240","Match","Exact","508 FAIRCHILD AVE, KENT, OH, 44240",137515700,"L"
232320,"508 FORESTWOOD DRIVE","PEORIA","IL",61615,NA,NA,320,"508 FORESTWOOD DRIVE, PEORIA, IL, 61615","No_Match",NA,NA,NA,NA
232321,"508 FULTON ST - BLDG 15/RM 206","DURHAM","NC",27705,36.008918957,-78.937280369,321,"508 FULTON ST - BLDG 15/RM 206, DURHAM, NC, 27705","Match","Exact","508 FULTON ST, DURHAM, NC, 27705",71738415,"R"
232322,"508 GENTRY CIRCLE EAST","RICHMOND HEIGHTS","OH",44143,NA,NA,322,"508 GENTRY CIRCLE EAST, RICHMOND HEIGHTS, OH, 44143","No_Match",NA,NA,NA,NA
232323,"508 GLEN OAK CIRCLE","HURLCOK","MD",21643,38.64075747,-75.8645310379999,323,"508 GLEN OAK CIRCLE, HURLCOK, MD, 21643","Match","Non_Exact","508 GLEN OAK CIR, HURLOCK, MD, 21643",99656772,"L"
232324,"508 GLEN OAK CIRCLE","HURLOCK","MD",21643,38.64075747,-75.8645310379999,324,"508 GLEN OAK CIRCLE, HURLOCK, MD, 21643","Match","Exact","508 GLEN OAK CIR, HURLOCK, MD, 21643",99656772,"L"
232325,"508 GLENDALE LN","ORANGE PARK","FL",32065,30.1816102350001,-81.8547820159999,325,"508 GLENDALE LN, ORANGE PARK, FL, 32065","Match","Exact","508 GLENDALE LN, ORANGE PARK, FL, 32065",640724368,"L"
232326,"508 GRACE STREET","ALBERT LEA","MN",56007,43.6526829800001,-93.374486372,326,"508 GRACE STREET, ALBERT LEA, MN, 56007","Match","Exact","508 GRACE ST, ALBERT LEA, MN, 56007",39540950,"R"
232327,"508 GREEN POND ROAD","ROCKAWAY","NJ",7866,40.961494025,-74.49576834,327,"508 GREEN POND ROAD, ROCKAWAY, NJ, 7866","Match","Exact","508 GREEN POND RD, ROCKAWAY, NJ, 07866",60430470,"R"
232328,"508 GREENBRIAR DRIVE","SENECA","SC",29678,34.6389935030001,-82.90960867,328,"508 GREENBRIAR DRIVE, SENECA, SC, 29678","Match","Exact","508 GREENBRIAR DR, SENECA, SC, 29678",25645619,"R"
232329,"508 HALDEMAN BLVD","NEW CUMBERLAND","PA",17070,40.236276328,-76.885312738,329,"508 HALDEMAN BLVD, NEW CUMBERLAND, PA, 17070","Match","Exact","508 HALDEMAN BLVD, NEW CUMBERLAND, PA, 17070",60988953,"L"
232330,"508 HARLEM ST","SWEENY","TX",77480,29.035788665,-95.701613192,330,"508 HARLEM ST, SWEENY, TX, 77480","Match","Exact","508 HARLEM ST, SWEENY, TX, 77480",116572870,"L"
232331,"508 HART LANE","LUCAS","TX",75002,33.0918346760001,-96.585274066,331,"508 HART LANE, LUCAS, TX, 75002","Match","Exact","508 HART LN, LUCAS, TX, 75002",618114747,"R"
232332,"508 HARTLEY STREET","BATESBURG","SC",29006,33.905040538,-81.546457688,332,"508 HARTLEY STREET, BATESBURG, SC, 29006","Match","Exact","508 HARTLEY ST, BATESBURG, SC, 29006",70035351,"R"
232333,"508 HAVERHILL CIRCLE","WARNER ROBINS","GA",31088,32.565654496,-83.672718123,333,"508 HAVERHILL CIRCLE, WARNER ROBINS, GA, 31088","Match","Exact","508 HAVERHILL CIR, WARNER ROBINS, GA, 31088",618740085,"R"
232334,"508 HEMISPHERE DRIVE","FAYETTEVILLE","NC",28306,34.9684117310001,-78.8998870889999,334,"508 HEMISPHERE DRIVE, FAYETTEVILLE, NC, 28306","Match","Exact","508 HEMISPHERE DR, FAYETTEVILLE, NC, 28306",646523725,"L"
232335,"508 HILLSIDE DRIVE","WEST CHESTER","PA",19380,39.968678094,-75.603854385,335,"508 HILLSIDE DRIVE, WEST CHESTER, PA, 19380","Match","Exact","508 HILLSIDE DR, WEST CHESTER, PA, 19380",179512784,"L"
232336,"508 HILLTOP DRIVE","RALEIGH","NC",27610,35.741591385,-78.633240159,336,"508 HILLTOP DRIVE, RALEIGH, NC, 27610","Match","Exact","508 HILLTOP DR, RALEIGH, NC, 27610",72509373,"R"
232337,"508 HOPE STREET","DAYTON","TX",77535,30.043480737,-94.88154812,337,"508 HOPE STREET, DAYTON, TX, 77535","Match","Exact","508 HOPE ST, DAYTON, TX, 77535",24114519,"L"
232338,"508 HUGHES DRIVE","HAMILTON SQUARE","NJ",8690,40.2461905590001,-74.660257999,338,"508 HUGHES DRIVE, HAMILTON SQUARE, NJ, 8690","Match","Exact","508 HUGHES DR, HAMILTON SQUARE, NJ, 08690",639933960,"R"
232339,"508 HUMBERT RD","CRIMORA","VA",24431,38.194721149,-78.886052595,339,"508 HUMBERT RD, CRIMORA, VA, 24431","Match","Exact","508 HUMBERT RD, CRIMORA, VA, 24431",98805059,"L"
232340,"508 HUMBERT ROAD","CRIMORA","VA",24431,38.194721149,-78.886052595,340,"508 HUMBERT ROAD, CRIMORA, VA, 24431","Match","Exact","508 HUMBERT RD, CRIMORA, VA, 24431",98805059,"L"
232341,"508 HUNTGATE ROAD","WOODSTOCK","GA",30189,34.146718063,-84.586364111,341,"508 HUNTGATE ROAD, WOODSTOCK, GA, 30189","Match","Exact","508 HUNTGATE RD, WOODSTOCK, GA, 30189",68846470,"L"
232342,"508 I STREET NW","WASHINGTON","DC",20001,38.900860062,-77.019071541,342,"508 I STREET NW, WASHINGTON, DC, 20001","Match","Exact","508 I ST NW, WASHINGTON, DC, 20001",76226292,"L"
232343,"508 JAGUAR COURT","MARSHALL","MN",56258,44.426782034,-95.782079642,343,"508 JAGUAR COURT, MARSHALL, MN, 56258","Match","Exact","508 JAGUAR CT, MARSHALL, MN, 56258",618059656,"R"
232344,"508 KING ARTHUR DRIVE","VIRGINIA BEACH","VA",23464,36.82322213,-76.193780911,344,"508 KING ARTHUR DRIVE, VIRGINIA BEACH, VA, 23464","Match","Exact","508 KING ARTHUR DR, VA BCH, VA, 23464",122257717,"L"
232345,"508 KING STREET","EDINBURGH","IN",46124,39.3567108500001,-85.959777977,345,"508 KING STREET, EDINBURGH, IN, 46124","Match","Exact","508 KING ST, EDINBURGH, IN, 46124",606943441,"R"
232346,"508 LITTLE CATAWBA CREEK RD","TROUTVILLE","VA",24175,37.449564691,-80.024532215,346,"508 LITTLE CATAWBA CREEK RD, TROUTVILLE, VA, 24175","Match","Exact","508 LITTLE CATAWBA CREEK RD, TROUTVILLE, VA, 24175",62469621,"L"
232347,"508 LONGTOWN ROAD APARTMENT 931","COLUMBIA","SC",29229,34.144571698,-80.935091832,347,"508 LONGTOWN ROAD APARTMENT 931, COLUMBIA, SC, 29229","Match","Exact","508 LONGTOWN RD, COLUMBIA, SC, 29229",71807517,"R"
232348,"508 LUNT AVE","SCHAUMBURG","IL",60193,42.0016927990001,-88.094291466,348,"508 LUNT AVE, SCHAUMBURG, IL, 60193","Match","Exact","508 LUNT AVE, SCHAUMBURG, IL, 60193",111694783,"R"
232349,"508 MAGNOLIA TRL","DESOTO","TX",75115,32.5817496390001,-96.88872577,349,"508 MAGNOLIA TRL, DESOTO, TX, 75115","Match","Exact","508 MAGNOLIA TRL, DESOTO, TX, 75115",103277808,"L"
232350,"508 MAIN ST NE APT 3130","ATLANTA","GA",30324,33.8225216720001,-84.371191843,350,"508 MAIN ST NE APT 3130, ATLANTA, GA, 30324","Match","Non_Exact","508 MAIN ST, ATLANTA, GA, 30324",637300897,"L"
232351,"508 MAIN STREET   P O BOX 309","CORWITH","IA",50430,NA,NA,351,"508 MAIN STREET   P O BOX 309, CORWITH, IA, 50430","No_Match",NA,NA,NA,NA
232352,"508 MAIN STREET BOX 144","WALDEN","CO",80480,40.729496221,-106.282099872,352,"508 MAIN STREET BOX 144, WALDEN, CO, 80480","Match","Exact","508 MAIN ST, WALDEN, CO, 80480",168670300,"L"
232353,"508 MAIN STREET NE APT 3472","ATLANTA","GA",30324,33.8225216720001,-84.371191843,353,"508 MAIN STREET NE APT 3472, ATLANTA, GA, 30324","Match","Non_Exact","508 MAIN ST, ATLANTA, GA, 30324",637300897,"L"
232354,"508 MAN O WAR CT","EDMOND","OK",73025,35.7005532220001,-97.4880564329999,354,"508 MAN O WAR CT, EDMOND, OK, 73025","Match","Exact","508 MAN O WAR CT, EDMOND, OK, 73025",617259848,"L"
232355,"508 MCKIBBEN RD","BUCHANAN","GA",30113,33.9106442780001,-85.228761907,355,"508 MCKIBBEN RD, BUCHANAN, GA, 30113","Match","Exact","508 MCKIBBEN RD, BUCHANAN, GA, 30113",627205031,"L"
232356,"508 MIDDLESHARE DRIVE","MAULDIN","SC",29662,34.7531892430001,-82.3160188259999,356,"508 MIDDLESHARE DRIVE, MAULDIN, SC, 29662","Match","Exact","508 MIDDLESHARE DR, MAULDIN, SC, 29662",624849119,"R"
232357,"508 MISTY CREEK DRIVE","NEW LENOX","IL",60451,41.508492618,-87.976199744,357,"508 MISTY CREEK DRIVE, NEW LENOX, IL, 60451","Match","Exact","508 MISTY CREEK DR, NEW LENOX, IL, 60451",636324236,"R"
232358,"508 MISTY LANE","COPLEY","OH",44321,41.122431502,-81.676655786,358,"508 MISTY LANE, COPLEY, OH, 44321","Match","Exact","508 MISTY LN, COPLEY, OH, 44321",640190356,"R"
232359,"508 MONROE AVENUE","CAROLINA BEACH","NC",28428,34.0366796170001,-77.8993964489999,359,"508 MONROE AVENUE, CAROLINA BEACH, NC, 28428","Match","Exact","508 MONROE AVE, CAROLINA BCH, NC, 28428",152728948,"R"
232360,"508 N 23RD STREET","RICMOND","VA",23223,37.5349847630001,-77.418473322,360,"508 N 23RD STREET, RICMOND, VA, 23223","Match","Non_Exact","508 N 23RD ST, RICHMOND, VA, 23223",201541273,"L"
232361,"508 N ACADIA ROAD","THIBODAUX","LA",70301,29.7774966740001,-90.803645037,361,"508 N ACADIA ROAD, THIBODAUX, LA, 70301","Match","Exact","508 N ACADIA RD, THIBODAUX, LA, 70301",637842497,"L"
232362,"508 N CENTER ST","SAN ANTONIO","TX",78202,29.422454067,-98.474513719,362,"508 N CENTER ST, SAN ANTONIO, TX, 78202","Match","Non_Exact","508 N CENTER, SAN ANTONIO, TX, 78202",101528017,"R"
232363,"508 N MAIN ST","NICHOLASVILLE","KY",40356,37.88561722,-84.570815177,363,"508 N MAIN ST, NICHOLASVILLE, KY, 40356","Match","Exact","508 N MAIN ST, NICHOLASVILLE, KY, 40356",38460225,"L"
232364,"508 N PINE STREET","GRAMERCY","LA",70052,30.057250878,-90.6985532849999,364,"508 N PINE STREET, GRAMERCY, LA, 70052","Match","Exact","508 N PINE ST, GRAMERCY, LA, 70052",93665508,"L"
232365,"508 N PLAZA   PO BOX 247","BIG LAKE","TX",76932,NA,NA,365,"508 N PLAZA   PO BOX 247, BIG LAKE, TX, 76932","No_Match",NA,NA,NA,NA
232366,"508 N TAYLOR ST","AMARILLO","TX",79015,35.218347276,-101.833599667,366,"508 N TAYLOR ST, AMARILLO, TX, 79015","Match","Non_Exact","508 N TAYLOR ST, AMARILLO, TX, 79107",182472048,"R"
232367,"508 N WATER ST","SALEM","IN",47167,38.6101480470001,-86.10214426,367,"508 N WATER ST, SALEM, IN, 47167","Match","Exact","508 N WATER ST, SALEM, IN, 47167",646591847,"L"
232368,"508 NECTAR COURT","ODENTON","MD",21113,39.0807103070001,-76.70427646,368,"508 NECTAR COURT, ODENTON, MD, 21113","Match","Exact","508 NECTAR CT, ODENTON, MD, 21113",68198652,"R"
232369,"508 NORMANDY ST","AUSTIN","TX",78745,30.224476145,-97.76941898,369,"508 NORMANDY ST, AUSTIN, TX, 78745","Match","Exact","508 NORMANDY ST, AUSTIN, TX, 78745",63944342,"R"
232370,"508 NORTH COURT STREET","QUITMAN","GA",31643,30.7888597250001,-83.5598249509999,370,"508 NORTH COURT STREET, QUITMAN, GA, 31643","Match","Exact","508 N COURT ST, QUITMAN, GA, 31643",83065044,"L"
232371,"508 NORTH ROSEVERE","DEARBORN","MI",48128,42.314966967,-83.268190342,371,"508 NORTH ROSEVERE, DEARBORN, MI, 48128","Match","Non_Exact","508 N ROSEVERE ST, DEARBORN, MI, 48128",95433554,"R"
232372,"508 NORTH ROSS MADDOX","PEARCY","AR",71964,34.455674329,-93.1931421049999,372,"508 NORTH ROSS MADDOX, PEARCY, AR, 71964","Match","Non_Exact","508 N ROSS MADDOX RD, PEARCY, AR, 71964",22732087,"R"
232373,"508 NW 36TH DRIVE","GAINESVILLE","FL",32607,29.655516059,-82.378236165,373,"508 NW 36TH DRIVE, GAINESVILLE, FL, 32607","Match","Exact","508 NW 36TH DR, GAINESVILLE, FL, 32607",6843832,"L"
232374,"508 OAKRIDGE TRAIL","COPPER CANYON","TX",75077,33.0963295610001,-97.093870737,374,"508 OAKRIDGE TRAIL, COPPER CANYON, TX, 75077","Match","Exact","508 OAKRIDGE TRL, COPPER CANYON, TX, 75077",103343528,"R"
232375,"508 OLD HARBOR COURT","DAYTON","OH",45458,39.607658545,-84.178235592,375,"508 OLD HARBOR COURT, DAYTON, OH, 45458","Match","Exact","508 OLD HARBOR CT, DAYTON, OH, 45458",627370411,"R"
232376,"508 OPATRNY DR","FOX RIVER GROVE","IL",60021,42.1991722600001,-88.2159294749999,376,"508 OPATRNY DR, FOX RIVER GROVE, IL, 60021","Match","Exact","508 OPATRNY DR, FOX RIVER GROVE, IL, 60021",119824802,"L"
232377,"508 OSCAR RAYMER RD","BROWNSVILLE","KY",42210,37.2393518430001,-86.3743730589999,377,"508 OSCAR RAYMER RD, BROWNSVILLE, KY, 42210","Match","Exact","508 OSCAR RAYMER RD, BROWNSVILLE, KY, 42210",15751936,"R"
232378,"508 PLUMWOOD DR","ROSE HILL","KS",67133,37.56021309,-97.1271573079999,378,"508 PLUMWOOD DR, ROSE HILL, KS, 67133","Match","Exact","508 PLUMWOOD DR, ROSE HILL, KS, 67133",32268069,"L"
232379,"508 POMPANO ST","BAYOU VISTA","TX",77563,29.3260379050001,-94.940417157,379,"508 POMPANO ST, BAYOU VISTA, TX, 77563","Match","Exact","508 POMPANO ST, BAYOU VISTA, TX, 77563",96678233,"R"
232380,"508 PRESTON DR","HUXLEY","IA",50124,41.896951576,-93.603583606,380,"508 PRESTON DR, HUXLEY, IA, 50124","Match","Exact","508 PRESTON DR, HUXLEY, IA, 50124",65948520,"R"
232381,"508 RHODES DRIVE","PALO ALTO","CA",94303,37.452334417,-122.130529688,381,"508 RHODES DRIVE, PALO ALTO, CA, 94303","Match","Exact","508 RHODES DR, PALO ALTO, CA, 94303",122951099,"R"
232382,"508 RIDGE AVE","LONGMONT","CO",80501,40.1418604410001,-105.100577325,382,"508 RIDGE AVE, LONGMONT, CO, 80501","Match","Exact","508 RIDGE AVE, LONGMONT, CO, 80501",188191880,"L"
232383,"508 RIMROCK RD","AMARILLO","TX",79118,35.04358898,-101.826070234,383,"508 RIMROCK RD, AMARILLO, TX, 79118","Match","Exact","508 RIMROCK RD, AMARILLO, TX, 79118",634454396,"R"
232384,"508 RIVES STREET","CHARLOTTESVILLE","VA",22902,38.021372645,-78.4675564039999,384,"508 RIVES STREET, CHARLOTTESVILLE, VA, 22902","Match","Exact","508 RIVES ST, CHARLOTTESVILLE, VA, 22902",83371276,"L"
232385,"508 ROSSITER AVE","BALTIMORE","MD",21212,39.348982903,-76.609070397,385,"508 ROSSITER AVE, BALTIMORE, MD, 21212","Match","Exact","508 ROSSITER AVE, BALTIMORE, MD, 21212",206467204,"L"
232386,"508 S CHARDON DRIVE","MUSTANG","OK",73064,35.3881552830001,-97.776210201,386,"508 S CHARDON DRIVE, MUSTANG, OK, 73064","Match","Exact","508 S CHARDON DR, MUSTANG, OK, 73064",646291188,"L"
232387,"508 S FORT DR","CHARLESTO","WV",25314,38.3509392940001,-81.657681532,387,"508 S FORT DR, CHARLESTO, WV, 25314","Match","Non_Exact","508 S FORT DR, CHARLESTON, WV, 25314",78591688,"R"
232388,"508 S HARRISON STREET","PHILO","IL",61864,40.002290455,-88.157927892,388,"508 S HARRISON STREET, PHILO, IL, 61864","Match","Exact","508 S HARRISON ST, PHILO, IL, 61864",8833238,"L"
232389,"508 S HIGH STREET","MOUNT ORAB","OH",45154,39.0190246870001,-83.924061057,389,"508 S HIGH STREET, MOUNT ORAB, OH, 45154","Match","Exact","508 S HIGH ST, MOUNT ORAB, OH, 45154",100982417,"L"
232390,"508 S HIGH STREET","UVALDE","TX",78801,29.203590838,-99.7859562579999,390,"508 S HIGH STREET, UVALDE, TX, 78801","Match","Exact","508 S HIGH ST, UVALDE, TX, 78801",183445139,"R"
232391,"508 S JUANITA AVENUE","REDONDO BEACH","CA",90277,33.834823547,-118.379066732,391,"508 S JUANITA AVENUE, REDONDO BEACH, CA, 90277","Match","Exact","508 S JUANITA AVE, REDONDO BEACH, CA, 90277",141584183,"L"
232392,"508 S MULBERRY STREET","PINE BLUFF","AR",71601,34.224804201,-92.016089112,392,"508 S MULBERRY STREET, PINE BLUFF, AR, 71601","Match","Exact","508 S MULBERRY ST, PINE BLUFF, AR, 71601",2550890,"R"
232393,"508 S PARK CIRCLE","CROOKS","SD",57020,43.6568612250001,-96.806241589,393,"508 S PARK CIRCLE, CROOKS, SD, 57020","Match","Non_Exact","508 PARK DR, CROOKS, SD, 57020",34987504,"L"
232394,"508 S VAN BUREN ST","HENDERSON","TX",75654,32.149405749,-94.8009313049999,394,"508 S VAN BUREN ST, HENDERSON, TX, 75654","Match","Exact","508 S VAN BUREN ST, HENDERSON, TX, 75654",79650653,"L"
232395,"508 SACCO STREET","BELMONT","NC",28012,35.2494838220001,-81.04615039,395,"508 SACCO STREET, BELMONT, NC, 28012","Match","Exact","508 SACCO ST, BELMONT, NC, 28012",70397425,"R"
232396,"508 SAGE MEADOW CT","HOPE MILLS","NC",28348,34.910254665,-78.9453063509999,396,"508 SAGE MEADOW CT, HOPE MILLS, NC, 28348","Match","Exact","508 SAGE MEADOW CT, HOPE MILLS, NC, 28348",646711014,"R"
232397,"508 SAINT NICHOLAS DRIVE","EAST SAINT LOUIS","IL",62206,38.569082,-90.185253738,397,"508 SAINT NICHOLAS DRIVE, EAST SAINT LOUIS, IL, 62206","Match","Exact","508 SAINT NICHOLAS DR, E SAINT LOUIS, IL, 62206",107831611,"R"
232398,"508 SEASIDE DRIVE","DALLAS","TX",75232,32.6508952820001,-96.8300696489999,398,"508 SEASIDE DRIVE, DALLAS, TX, 75232","Match","Exact","508 SEASIDE DR, DALLAS, TX, 75232",102953180,"L"
232399,"508 SHELBOURNE ROAD","HAVERTOWN","PA",19083,39.9781717320001,-75.314193304,399,"508 SHELBOURNE ROAD, HAVERTOWN, PA, 19083","Match","Exact","508 SHELBOURNE RD, HAVERTOWN, PA, 19083",134875258,"L"
232400,"508 SHERMAN AVE","ROSELLE PARK","NJ",7204,40.6678633180001,-74.2568899089999,400,"508 SHERMAN AVE, ROSELLE PARK, NJ, 7204","Match","Exact","508 SHERMAN AVE, ROSELLE PARK, NJ, 07204",60573395,"L"
232401,"508 SHUGART RD","DALTON","GA",30720,34.7793794460001,-84.995916761,401,"508 SHUGART RD, DALTON, GA, 30720","Match","Exact","508 SHUGART RD, DALTON, GA, 30720",57365440,"R"
232402,"508 SOMERSET STREET SUITE A","JOHNSTOWN","PA",15901,40.321573416,-78.9172476419999,402,"508 SOMERSET STREET SUITE A, JOHNSTOWN, PA, 15901","Match","Exact","508 SOMERSET ST, JOHNSTOWN, PA, 15901",50230566,"R"
232403,"508 SOMMERS STREET N","HUDSON","WI",54016,45.0013285260001,-92.7567516889999,403,"508 SOMMERS STREET N, HUDSON, WI, 54016","Match","Exact","508 SOMMERS ST N, HUDSON, WI, 54016",110908002,"R"
232404,"508 SOUTH 10TH STREET","PETERSBURG","IN",47567,38.4898490750001,-87.27501375,404,"508 SOUTH 10TH STREET, PETERSBURG, IN, 47567","Match","Exact","508 S 10TH ST, PETERSBURG, IN, 47567",32171998,"R"
232405,"508 SOUTH 18TH STREET F2","LOUISVILLE","KY",40203,38.2533375850001,-85.780733379,405,"508 SOUTH 18TH STREET F2, LOUISVILLE, KY, 40203","Match","Exact","508 S 18TH ST, LOUISVILLE, KY, 40203",96842110,"R"
232406,"508 SOUTH BALTIMORE STREET","DILLSBURG","PA",17019,40.100557144,-77.0310309609999,406,"508 SOUTH BALTIMORE STREET, DILLSBURG, PA, 17019","Match","Exact","508 S BALTIMORE ST, DILLSBURG, PA, 17019",647589990,"L"
232407,"508 SOUTH PACIFIC COAST HIGHWAY","REDONDO BEACH","CA",90277,33.8344139880001,-118.385091813,407,"508 SOUTH PACIFIC COAST HIGHWAY, REDONDO BEACH, CA, 90277","Match","Exact","508 S PACIFIC COAST HWY, REDONDO BEACH, CA, 90277",141584098,"L"
232408,"508 SOUTH ROCK STREET","GEORGETOWN","TX",78627,NA,NA,408,"508 SOUTH ROCK STREET, GEORGETOWN, TX, 78627","No_Match",NA,NA,NA,NA
232409,"508 SOUTH SUSAN AVENUE","WAGONER","OK",74467,35.954676772,-95.404085698,409,"508 SOUTH SUSAN AVENUE, WAGONER, OK, 74467","Match","Exact","508 S SUSAN AVE, WAGONER, OK, 74467",618297873,"L"
232410,"508 SOUTH YEARLING ROAD","WHITEHALL","OH",43213,39.963975293,-82.885600091,410,"508 SOUTH YEARLING ROAD, WHITEHALL, OH, 43213","Match","Exact","508 S YEARLING RD, WHITEHALL, OH, 43213",135592933,"L"
232411,"508 STADIUM DR","GLEN ROSE","TX",76043,32.232587783,-97.760916159,411,"508 STADIUM DR, GLEN ROSE, TX, 76043","Match","Exact","508 STADIUM DR, GLEN ROSE, TX, 76043",158909457,"L"
232412,"508 SUTTER STREET 637","SAN FRANCISCO","CA",94102,37.789190391,-122.40893728,412,"508 SUTTER STREET 637, SAN FRANCISCO, CA, 94102","Match","Exact","508 SUTTER ST, SAN FRANCISCO, CA, 94102",192280955,"R"
232413,"508 TULSA STREET","WICHITA FALLS","TX",76301,33.915994067,-98.480222773,413,"508 TULSA STREET, WICHITA FALLS, TX, 76301","Match","Exact","508 TULSA ST, WICHITA FALLS, TX, 76301",169844811,"L"
232414,"508 TUNNEL ST","CEDAR HILL","TX",75104,32.5643090680001,-96.9507817149999,414,"508 TUNNEL ST, CEDAR HILL, TX, 75104","Match","Exact","508 TUNNEL ST, CEDAR HILL, TX, 75104",646789189,"L"
232415,"508 UNION AVE SUITE 203","KNOXVILLE","TN",37902,35.96420828,-83.920478736,415,"508 UNION AVE SUITE 203, KNOXVILLE, TN, 37902","Match","Exact","508 UNION AVE, KNOXVILLE, TN, 37902",42620595,"L"
232416,"508 VIDAL DRIVE","SAN FRANCISCO","CA",94132,37.7154786790001,-122.483065422,416,"508 VIDAL DRIVE, SAN FRANCISCO, CA, 94132","Match","Exact","508 VIDAL DR, SAN FRANCISCO, CA, 94132",192278697,"R"
232417,"508 W ENGLEWOOD AVE","CHICAGO","IL",60621,41.7808034550001,-87.6378780649999,417,"508 W ENGLEWOOD AVE, CHICAGO, IL, 60621","Match","Exact","508 W ENGLEWOOD AVE, CHICAGO, IL, 60621",111830310,"R"
232418,"508 W MAIN ST","ARCADIA","IN",46030,40.175809158,-86.016522788,418,"508 W MAIN ST, ARCADIA, IN, 46030","Match","Exact","508 MAIN ST, ARCADIA, IN, 46030",29288966,"R"
232419,"508 W MITCHELL ST","ELLSWORTH","WI",54011,44.751838498,-92.4878265249999,419,"508 W MITCHELL ST, ELLSWORTH, WI, 54011","Match","Exact","508 W MITCHELL ST, ELLSWORTH, WI, 54011",95857413,"L"
232420,"508 W RUSK ST","TYLER","TX",75701,32.3409149010001,-95.305457809,420,"508 W RUSK ST, TYLER, TX, 75701","Match","Exact","508 RUSK ST, TYLER, TX, 75701",141271086,"L"
232421,"508 W SAGINAW RD","SANFORD","MI",48657,43.6757374150001,-84.389165711,421,"508 W SAGINAW RD, SANFORD, MI, 48657","Match","Exact","508 W SAGINAW RD, SANFORD, MI, 48657",81190713,"R"
232422,"508 W STOUGHTON ST APT 5","URBANA","IL",61801,40.1129417340001,-88.2135168249999,422,"508 W STOUGHTON ST APT 5, URBANA, IL, 61801","Match","Non_Exact","508 W STOUGHTON ST, URBANA, IL, 61801",8813070,"R"
232423,"508 W WASHINGTON STREET PO BOX 236","EXIRA","IA",50076,NA,NA,423,"508 W WASHINGTON STREET PO BOX 236, EXIRA, IA, 50076","Tie",NA,NA,NA,NA
232424,"508 WALKER STREET","AUGUSTA","GA",30901,33.468990107,-81.961427954,424,"508 WALKER STREET, AUGUSTA, GA, 30901","Match","Exact","508 WALKER ST, AUGUSTA, GA, 30901",645570880,"L"
232425,"508 WATERFORD PLACE","TUSCALOOSA","AL",35406,33.223749474,-87.5500862499999,425,"508 WATERFORD PLACE, TUSCALOOSA, AL, 35406","Match","Exact","508 WATERFORD PL, TUSCALOOSA, AL, 35406",82185541,"R"
232426,"508 WEST 5TH AVE","ROSELLE","NJ",7203,NA,NA,426,"508 WEST 5TH AVE, ROSELLE, NJ, 7203","Tie",NA,NA,NA,NA
232427,"508 WEST ALLENS LANE","PHILADELPHIA","PA",19119,40.053130826,-75.2005712229999,427,"508 WEST ALLENS LANE, PHILADELPHIA, PA, 19119","Match","Exact","508 W ALLENS LN, PHILADELPHIA, PA, 19119",131394250,"L"
232428,"508 WEST DONOVAN STREET UNIT I","HOUSTON","TX",77091,29.8441881420001,-95.4076363889999,428,"508 WEST DONOVAN STREET UNIT I, HOUSTON, TX, 77091","Match","Exact","508 W DONOVAN ST, HOUSTON, TX, 77091",96643750,"R"
232429,"508 WEST YOUNG STREET","MURRAY","NE",68409,40.9170848890001,-95.934920754,429,"508 WEST YOUNG STREET, MURRAY, NE, 68409","Match","Exact","508 W YOUNG ST, MURRAY, NE, 68409",10348307,"R"
232430,"508 WILD PLUM DR","DEFOREST","WI",53532,43.241363682,-89.3502318179999,430,"508 WILD PLUM DR, DEFOREST, WI, 53532","Match","Exact","508 WILD PLUM DR, DEFOREST, WI, 53532",49465349,"L"
232431,"508 WILDERNESS RD","PELHAM","AL",35124,33.3162901260001,-86.81066097,431,"508 WILDERNESS RD, PELHAM, AL, 35124","Match","Exact","508 WILDERNESS RD, PELHAM, AL, 35124",82064823,"R"
232432,"508 WILL PKWY","VERSAILLES","KY",40383,38.0345936190001,-84.705858365,432,"508 WILL PKWY, VERSAILLES, KY, 40383","Match","Exact","508 WILL PKWY, VERSAILLES, KY, 40383",38508074,"R"
232433,"508 WILSHIRE DRIVE","BELLEVUE","NE",68005,41.1442210500001,-95.914296931,433,"508 WILSHIRE DRIVE, BELLEVUE, NE, 68005","Match","Exact","508 WILSHIRE DR, BELLEVUE, NE, 68005",28498046,"L"
232434,"508 WINTERS PARK DR","ATLANTA","GA",30360,33.920902346,-84.265986885,434,"508 WINTERS PARK DR, ATLANTA, GA, 30360","Match","Exact","508 WINTERS PARK DR, ATLANTA, GA, 30360",23378324,"L"
232435,"508 WINTHROP PLACE","HAINES CITY","FL",33844,28.1101318840001,-81.654510809,435,"508 WINTHROP PLACE, HAINES CITY, FL, 33844","Match","Exact","508 WINTHROP PL, HAINES CITY, FL, 33844",614468120,"L"
232436,"5080 ANN ARBOR SALINE RD","ANN ARBOR","MI",48103,42.211949684,-83.797251586,436,"5080 ANN ARBOR SALINE RD, ANN ARBOR, MI, 48103","Match","Non_Exact","5080 ANN ARBOR-SALINE RD, ANN ARBOR, MI, 48103",642556391,"R"
232437,"5080 AULTMAN ROAD","NORTH CANTON","OH",44720,40.9150835130001,-81.4214281279999,437,"5080 AULTMAN ROAD, NORTH CANTON, OH, 44720","Match","Exact","5080 AULTMAN RD, NORTH CANTON, OH, 44720",61376173,"R"
232438,"5080 DEQUINCEY DR","FAIRFAX","VA",22032,38.8156898170001,-77.288096615,438,"5080 DEQUINCEY DR, FAIRFAX, VA, 22032","Match","Exact","5080 DEQUINCEY DR, FAIRFAX, VA, 22032",75969968,"L"
232439,"5080 ELK RUN DRIVE","HAMILTON","OH",45011,39.426240136,-84.461536092,439,"5080 ELK RUN DRIVE, HAMILTON, OH, 45011","Match","Exact","5080 ELK RUN DR, HAMILTON, OH, 45011",636554915,"R"
232440,"5080 ELMHURST STREET","VENTURA","CA",93003,34.272463632,-119.226321164,440,"5080 ELMHURST STREET, VENTURA, CA, 93003","Match","Exact","5080 ELMHURST ST, VENTURA, CA, 93003",109952921,"R"
232441,"5080 GRIBBLE LANE","LANCASTER","SC",29720,34.9205140620001,-80.8034718659999,441,"5080 GRIBBLE LANE, LANCASTER, SC, 29720","Match","Exact","5080 GRIBBLE LN, LANCASTER, SC, 29720",646681675,"L"
232442,"5080 KINGSBURY ST","JACKSONVILLE","FL",32205,30.306847497,-81.7327855619999,442,"5080 KINGSBURY ST, JACKSONVILLE, FL, 32205","Match","Exact","5080 KINGSBURY ST, JACKSONVILLE, FL, 32205",83910917,"L"
232443,"5080 KINGSLEY AVENUE","MONTCLAIR","CA",91763,34.066774292,-117.694774794,443,"5080 KINGSLEY AVENUE, MONTCLAIR, CA, 91763","Match","Non_Exact","5080 KINGSLEY ST, MONTCLAIR, CA, 91763",144671585,"L"
232444,"5080 LIKINI ST APT 417","HONOLULU","HI",96818,21.348178219,-157.911283662,444,"5080 LIKINI ST APT 417, HONOLULU, HI, 96818","Match","Exact","5080 LIKINI ST, HONOLULU, HI, 96818",650078834,"R"
232445,"5080 MARK DABLING BLVD","COLORADO SPRINGS","CO",80918,38.9049134690001,-104.824260621,445,"5080 MARK DABLING BLVD, COLORADO SPRINGS, CO, 80918","Match","Exact","5080 MARK DABLING BLVD, COLORADO SPRINGS, CO, 80918",610797871,"L"
232446,"5080 MURPHY ROAD","ORCHARD PARK","NY",14127,42.745825231,-78.768896992,446,"5080 MURPHY ROAD, ORCHARD PARK, NY, 14127","Match","Exact","5080 MURPHY RD, ORCHARD PARK, NY, 14127",648740527,"R"
232447,"5080 N KALIGA DRIVE","SAINT CLOUD","FL",34771,28.3246052010001,-81.235044214,447,"5080 N KALIGA DRIVE, SAINT CLOUD, FL, 34771","Match","Exact","5080 N KALIGA DR, SAINT CLOUD, FL, 34771",176658637,"R"
232448,"5080 S 975 EAST","ZIONSVILLE","IN",46077,39.965321746,-86.283128135,448,"5080 S 975 EAST, ZIONSVILLE, IN, 46077","Match","Exact","5080 S 975 E, ZIONSVILLE, IN, 46077",29257055,"R"
232449,"5080 SHADY AVE","SAN JOSE","CA",94129,37.301530343,-121.99066976,449,"5080 SHADY AVE, SAN JOSE, CA, 94129","Match","Non_Exact","5080 SHADY AVE, SAN JOSE, CA, 95129",122900107,"L"
232450,"5080 SPECTRUM DR SUITE 1000E","ADDISON","TX",75001,32.955644326,-96.823431082,450,"5080 SPECTRUM DR SUITE 1000E, ADDISON, TX, 75001","Match","Exact","5080 SPECTRUM DR, ADDISON, TX, 75001",103005240,"R"
232451,"5080 SPECTRUM DRIVE SUITE 1000E","ADDISON","TX",75001,32.955644326,-96.823431082,451,"5080 SPECTRUM DRIVE SUITE 1000E, ADDISON, TX, 75001","Match","Exact","5080 SPECTRUM DR, ADDISON, TX, 75001",103005240,"R"
232452,"5080 WEST PICO BLVD","LOS ANGELES","CA",90019,34.0479380730001,-118.348727738,452,"5080 WEST PICO BLVD, LOS ANGELES, CA, 90019","Match","Exact","5080 W PICO BLVD, LOS ANGELES, CA, 90019",141601565,"L"
232453,"5081 BINGS WAY","HOUSE SPRINGS","MO",63051,38.397810571,-90.591640759,453,"5081 BINGS WAY, HOUSE SPRINGS, MO, 63051","Match","Exact","5081 BINGS WAY, HOUSE SPRINGS, MO, 63051",649560197,"L"
232454,"5081 HAMPTON ROAD","CLEMMONS","NC",27012,35.9810305500001,-80.3679030919999,454,"5081 HAMPTON ROAD, CLEMMONS, NC, 27012","Match","Exact","5081 HAMPTON RD, CLEMMONS, NC, 27012",653462591,"L"
232455,"5081 KEARSARGE AVE","LOS ALAMITOS","CA",90720,33.8011617020001,-118.043942638,455,"5081 KEARSARGE AVE, LOS ALAMITOS, CA, 90720","Match","Exact","5081 KEARSARGE AVE, LOS ALAMITOS, CA, 90720",144000198,"L"
232456,"5081 SW 9TH CT","PLANTATION","FL",33317,26.108717094,-80.216758456,456,"5081 SW 9TH CT, PLANTATION, FL, 33317","Match","Exact","5081 SW 9TH CT, PLANTATION, FL, 33317",114713533,"R"
232457,"5081 VERBANA DR","ACWORTH","GA",30102,34.068286422,-84.5683134989999,457,"5081 VERBANA DR, ACWORTH, GA, 30102","Match","Non_Exact","5081 VERBENA DR, ACWORTH, GA, 30102",17225890,"R"
232458,"5082 BARRINGTON CIRCLE","SARASOTA","FL",34234,27.3766455260001,-82.551969754,458,"5082 BARRINGTON CIRCLE, SARASOTA, FL, 34234","Match","Exact","5082 BARRINGTON CIR, SARASOTA, FL, 34234",16428258,"R"
232459,"5082 CR 132","WILDWOOD","FL",34785,28.880065879,-82.018814764,459,"5082 CR 132, WILDWOOD, FL, 34785","Match","Exact","5082 CO RD 132, WILDWOOD, FL, 34785",652544910,"L"
232460,"5082 E HAMPDEN AVENUE SUITE 201","DENVER","CO",80222,NA,NA,460,"5082 E HAMPDEN AVENUE SUITE 201, DENVER, CO, 80222","No_Match",NA,NA,NA,NA
232461,"5082 EAST HAMPDEN AVE SUITE 286","DENVER","CO",80222,NA,NA,461,"5082 EAST HAMPDEN AVE SUITE 286, DENVER, CO, 80222","No_Match",NA,NA,NA,NA
232462,"5082 GOULD CIR","CASTLE ROCK","CO",80109,39.3875886170001,-104.915443404,462,"5082 GOULD CIR, CASTLE ROCK, CO, 80109","Match","Exact","5082 GOULD CIR, CASTLE ROCK, CO, 80109",641116457,"R"
232463,"5082 HAPPY VALLEY ROAD","SEQUIM","WA",98382,48.054198797,-123.124640104,463,"5082 HAPPY VALLEY ROAD, SEQUIM, WA, 98382","Match","Exact","5082 HAPPY VALLEY RD, SEQUIM, WA, 98382",150852837,"L"
232464,"5082 PONDEROSA FARM RD","GAINESVILLE","GA",30507,34.18194106,-83.824410627,464,"5082 PONDEROSA FARM RD, GAINESVILLE, GA, 30507","Match","Exact","5082 PONDEROSA FARM RD, GAINESVILLE, GA, 30507",98255855,"L"
232465,"5082 RENMILL DRIVE","HILLIARD","OH",43026,40.0040661100001,-83.144664076,465,"5082 RENMILL DRIVE, HILLIARD, OH, 43026","Match","Exact","5082 RENMILL DR, HILLIARD, OH, 43026",135629984,"R"
232466,"50826 NORTHSTAR WAY","NORTHVILLE","MI",48168,42.4127857400001,-83.545194814,466,"50826 NORTHSTAR WAY, NORTHVILLE, MI, 48168","Match","Exact","50826 NORTHSTAR WAY, NORTHVILLE, MI, 48168",617695139,"R"
232467,"5083 BEDFORD","DETROIT","MI",48224,42.4027091890001,-82.941431704,467,"5083 BEDFORD, DETROIT, MI, 48224","Match","Exact","5083 BEDFORD, DETROIT, MI, 48224",95487185,"L"
232468,"5083 FOREST RD","MENTOR","OH",44060,41.7335554520001,-81.320047588,468,"5083 FOREST RD, MENTOR, OH, 44060","Match","Exact","5083 FOREST RD, MENTOR, OH, 44060",137461997,"L"
232469,"5083 MIDDLE FORK RD SUITE B","SALYERSVILLE","KY",41465,NA,NA,469,"5083 MIDDLE FORK RD SUITE B, SALYERSVILLE, KY, 41465","No_Match",NA,NA,NA,NA
232470,"5083 MIDDLECREEK RD","BURLINGTON","KY",41005,38.992814304,-84.788589126,470,"5083 MIDDLECREEK RD, BURLINGTON, KY, 41005","Match","Non_Exact","5083 MIDDLE CREEK RD, BURLINGTON, KY, 41005",640554648,"R"
232471,"5083 S WANDA GRAY AVE","SPRINGFIELD","MO",65810,37.122704062,-93.3234413069999,471,"5083 S WANDA GRAY AVE, SPRINGFIELD, MO, 65810","Match","Exact","5083 S WANDA GRAY AVE, SPRINGFIELD, MO, 65810",76693792,"R"
232472,"5083","LACEY","WA",98509,NA,NA,472,"5083, LACEY, WA, 98509","No_Match",NA,NA,NA,NA
232473,"5084 DORSEY HALL DR STE 104","ELLICOTT CITY","MD",21042,39.2431802520001,-76.8350636879999,473,"5084 DORSEY HALL DR STE 104, ELLICOTT CITY, MD, 21042","Match","Exact","5084 DORSEY HALL DR, ELLICOTT CITY, MD, 21042",614149203,"L"
232474,"5084 KENSINGTON AVE","DETROIT","MI",48224,42.4048271820001,-82.935712612,474,"5084 KENSINGTON AVE, DETROIT, MI, 48224","Match","Non_Exact","5084 KENSINGTON, DETROIT, MI, 48224",95487259,"R"
232475,"50840 PARSONS DR","SHELBY TWP","MI",48317,42.6668768120001,-83.0714907299999,475,"50840 PARSONS DR, SHELBY TWP, MI, 48317","Match","Exact","50840 PARSONS DR, SHELBY TOWNSHIP, MI, 48317",110732104,"R"
232476,"5085 ASHBURY PARK APT 103","LAKELAND","FL",33805,NA,NA,476,"5085 ASHBURY PARK APT 103, LAKELAND, FL, 33805","No_Match",NA,NA,NA,NA
232477,"5085 BAYSHORE DR","NAPLES","FL",34112,26.106564023,-81.7702858659999,477,"5085 BAYSHORE DR, NAPLES, FL, 34112","Match","Exact","5085 BAYSHORE DR, NAPLES, FL, 34112",115140335,"L"
232478,"5085 CAMEO TERRACE","PERRY HALL","MD",21128,39.4037044610001,-76.442046193,478,"5085 CAMEO TERRACE, PERRY HALL, MD, 21128","Match","Exact","5085 CAMEO TER, PERRY HALL, MD, 21128",637503434,"R"
232479,"5085 CASCADE HILLS DRIVE","ATLANTA","GA",30331,33.723589771,-84.562899419,479,"5085 CASCADE HILLS DRIVE, ATLANTA, GA, 30331","Match","Non_Exact","5085 CASCADE HILLS DR SW, ATLANTA, GA, 30331",643353354,"R"
232480,"5085 MAIN ST","HAINES FALLS","NY",12436,NA,NA,480,"5085 MAIN ST, HAINES FALLS, NY, 12436","No_Match",NA,NA,NA,NA
232481,"5086 CANAL STREET","MILTON","FL",32570,30.6168114270001,-87.0393058289999,481,"5086 CANAL STREET, MILTON, FL, 32570","Match","Exact","5086 CANAL ST, MILTON, FL, 32570",74590198,"R"
232482,"5086 CANNON BLUFF DRIVE","WOODBRIDGE","VA",22192,38.70634576,-77.366107488,482,"5086 CANNON BLUFF DRIVE, WOODBRIDGE, VA, 22192","Match","Exact","5086 CANNON BLUFF DR, WOODBRIDGE, VA, 22192",207159348,"L"
232483,"5086 CHESNUT MTN RD","PALO PINTO","TX",76484,32.6532721950001,-98.2264178779999,483,"5086 CHESNUT MTN RD, PALO PINTO, TX, 76484","Match","Exact","5086 CHESNUT MOUNTAIN RD, PALO PINTO, TX, 76484",158859706,"L"
232484,"5086 SILVER HILL ROAD","DISTRICT HEIGHTS","MD",20747,38.8532075570001,-76.9138867309999,484,"5086 SILVER HILL ROAD, DISTRICT HEIGHTS, MD, 20747","Match","Non_Exact","5086 SILVER HILL CT, DISTRICT HEIGHTS, MD, 20747",76314504,"L"
232485,"5087 ECHO SHIRE AVENUE","LAS VEGAS","NV",89141,35.984695801,-115.210479756,485,"5087 ECHO SHIRE AVENUE, LAS VEGAS, NV, 89141","Match","Exact","5087 ECHO SHIRE AVE, LAS VEGAS, NV, 89141",632842232,"L"
232486,"5087 EDGEWATER DRIVE","ORLANDO","FL",32810,28.6050804160001,-81.4087783259999,486,"5087 EDGEWATER DRIVE, ORLANDO, FL, 32810","Match","Exact","5087 EDGEWATER DR, ORLANDO, FL, 32810",637904961,"R"
232487,"5087 PENRYN CT","LAS VEGAS","NV",89139,36.041261107,-115.210961024,487,"5087 PENRYN CT, LAS VEGAS, NV, 89139","Match","Non_Exact","5087 W PENRYN CT, LAS VEGAS, NV, 89139",624793673,"L"
232488,"5088 ABBINGTON WAY","BELMONT","NC",28012,35.282286883,-81.054123176,488,"5088 ABBINGTON WAY, BELMONT, NC, 28012","Match","Exact","5088 ABBINGTON WAY, BELMONT, NC, 28012",627771452,"R"
232489,"5088 CAMINO PLAYA ACAPULCO","SAN DIEGO","CA",92124,NA,NA,489,"5088 CAMINO PLAYA ACAPULCO, SAN DIEGO, CA, 92124","No_Match",NA,NA,NA,NA
232490,"5088 JULIANA STREET","SIMI VALLEY","CA",93063,34.277500172,-118.693423388,490,"5088 JULIANA STREET, SIMI VALLEY, CA, 93063","Match","Exact","5088 JULIANA ST, SIMI VALLEY, CA, 93063",110044691,"R"
232491,"5088 ORCHARD HILL DR","ROANOKE","VA",24019,37.3251982530001,-79.8759959339999,491,"5088 ORCHARD HILL DR, ROANOKE, VA, 24019","Match","Exact","5088 ORCHARD HILL DR, ROANOKE, VA, 24019",62917547,"R"
232492,"5088 OVALO","LAGUNA WOODS","CA",92637,33.6159051490001,-117.746709148,492,"5088 OVALO, LAGUNA WOODS, CA, 92637","Match","Exact","5088 OVALO, LAGUNA WOODS, CA, 92637",144061815,"R"
232493,"5088 PURDY CREEK RD","HORNELL","NY",14843,42.2467336380001,-77.6939671969999,493,"5088 PURDY CREEK RD, HORNELL, NY, 14843","Match","Exact","5088 PURDY CREEK RD, HORNELL, NY, 14843",14714640,"R"
232494,"5088 WEST 16TH STREET","SPEEDWAY","IN",46224,39.7873298100001,-86.2471587799999,494,"5088 WEST 16TH STREET, SPEEDWAY, IN, 46224","Match","Exact","5088 W 16TH ST, SPEEDWAY, IN, 46224",107978644,"R"
232495,"50880 SEADEN","CHESTERFIELD","MI",48047,42.672919404,-82.8014676779999,495,"50880 SEADEN, CHESTERFIELD, MI, 48047","Match","Non_Exact","50880 SEADEN DR, CHESTERFIELD, MI, 48047",110665919,"R"
232496,"5089 GOVERNMENT BLVD APT 725","MOBILE","AL",36693,30.6112376090001,-88.161070119,496,"5089 GOVERNMENT BLVD APT 725, MOBILE, AL, 36693","Match","Exact","5089 GOVERNMENT BLVD, MOBILE, AL, 36693",61933579,"R"
232497,"5089 S 175TH CIR","OMAHA","NE",68135,41.2062000110001,-96.187757012,497,"5089 S 175TH CIR, OMAHA, NE, 68135","Match","Exact","5089 S 175TH CIR, OMAHA, NE, 68135",117002260,"L"
232498,"5089 UPPER FALLS CT","LAS VEGAS","NV",89141,36.000325483,-115.209949496,498,"5089 UPPER FALLS CT, LAS VEGAS, NV, 89141","Match","Non_Exact","5089 W UPPER FALLS CT, LAS VEGAS, NV, 89141",626606800,"L"
232499,"50890 PINE MEADOWS CT","GRANGER","IN",46530,41.754912103,-86.077342742,499,"50890 PINE MEADOWS CT, GRANGER, IN, 46530","Match","Exact","50890 PINE MEADOWS CT, GRANGER, IN, 46530",8071399,"R"
232500,"508A CEASAR STREET","GRANITE","NC",28072,NA,NA,500,"508A CEASAR STREET, GRANITE, NC, 28072","No_Match",NA,NA,NA,NA
