"ID","Address","City","State","Zip","lat","long","id","input_address","match_indicator","match_type","matched_address","tiger_line_id","tiger_side"
355001,"PO BOX 647","LIBBY","MT",59923,NA,NA,1,"PO BOX 647, LIBBY, MT, 59923","No_Match",NA,NA,NA,NA
355002,"PO BOX 647","NENANA","AK",99760,NA,NA,2,"PO BOX 647, NENANA, AK, 99760","No_Match",NA,NA,NA,NA
355003,"PO BOX 647","PORT TOWNSEND","WA",98368,NA,NA,3,"PO BOX 647, PORT TOWNSEND, WA, 98368","No_Match",NA,NA,NA,NA
355004,"PO BOX 647","ROUND O","SC",29474,NA,NA,4,"PO BOX 647, ROUND O, SC, 29474","No_Match",NA,NA,NA,NA
355005,"PO BOX 647","SALINE","MI",48176,NA,NA,5,"PO BOX 647, SALINE, MI, 48176","No_Match",NA,NA,NA,NA
355006,"PO BOX 647","SIDNEY","NE",69162,NA,NA,6,"PO BOX 647, SIDNEY, NE, 69162","No_Match",NA,NA,NA,NA
355007,"PO BOX 647","ST MARIES","ID",83861,NA,NA,7,"PO BOX 647, ST MARIES, ID, 83861","No_Match",NA,NA,NA,NA
355008,"PO BOX 6471","KENT","WA",98064,NA,NA,8,"PO BOX 6471, KENT, WA, 98064","No_Match",NA,NA,NA,NA
355009,"PO BOX 6472","COLUMBIA","MD",21045,NA,NA,9,"PO BOX 6472, COLUMBIA, MD, 21045","No_Match",NA,NA,NA,NA
355010,"PO BOX 6472","SPRINGFIELD","VA",22150,NA,NA,10,"PO BOX 6472, SPRINGFIELD, VA, 22150","No_Match",NA,NA,NA,NA
355011,"PO BOX 64727","TUCSON","AZ",85728,NA,NA,11,"PO BOX 64727, TUCSON, AZ, 85728","No_Match",NA,NA,NA,NA
355012,"PO BOX 6473","LUBBOCK","TX",79493,NA,NA,12,"PO BOX 6473, LUBBOCK, TX, 79493","No_Match",NA,NA,NA,NA
355013,"PO BOX 6475","BRECKENRIDGE","CO",80424,NA,NA,13,"PO BOX 6475, BRECKENRIDGE, CO, 80424","No_Match",NA,NA,NA,NA
355014,"PO BOX 6475","PHILADELPHIA","PA",19145,NA,NA,14,"PO BOX 6475, PHILADELPHIA, PA, 19145","No_Match",NA,NA,NA,NA
355015,"PO BOX 64781","FORT WORTH","TX",76164,NA,NA,15,"PO BOX 64781, FORT WORTH, TX, 76164","No_Match",NA,NA,NA,NA
355016,"PO BOX 648","AU GRES","MI",48703,NA,NA,16,"PO BOX 648, AU GRES, MI, 48703","No_Match",NA,NA,NA,NA
355017,"PO BOX 648","BELLVILLE","OH",44813,NA,NA,17,"PO BOX 648, BELLVILLE, OH, 44813","No_Match",NA,NA,NA,NA
355018,"PO BOX 648","COAHOMA","TX",79511,NA,NA,18,"PO BOX 648, COAHOMA, TX, 79511","No_Match",NA,NA,NA,NA
355019,"PO BOX 648","POPLAR BLUFF","MO",63902,NA,NA,19,"PO BOX 648, POPLAR BLUFF, MO, 63902","No_Match",NA,NA,NA,NA
355020,"PO BOX 648","RED LODGE","MT",59068,NA,NA,20,"PO BOX 648, RED LODGE, MT, 59068","No_Match",NA,NA,NA,NA
355021,"PO BOX 648","RIVERHEAD","NY",11901,NA,NA,21,"PO BOX 648, RIVERHEAD, NY, 11901","No_Match",NA,NA,NA,NA
355022,"PO BOX 648","VALRICO","FL",33595,NA,NA,22,"PO BOX 648, VALRICO, FL, 33595","No_Match",NA,NA,NA,NA
355023,"PO BOX 6480","GLEN ALLEN","VA",23058,NA,NA,23,"PO BOX 6480, GLEN ALLEN, VA, 23058","No_Match",NA,NA,NA,NA
355024,"PO BOX 6482","HAMDEN","CT",6517,NA,NA,24,"PO BOX 6482, HAMDEN, CT, 6517","No_Match",NA,NA,NA,NA
355025,"PO BOX 6486","ANAHEIM","CA",92816,NA,NA,25,"PO BOX 6486, ANAHEIM, CA, 92816","No_Match",NA,NA,NA,NA
355026,"PO BOX 649 7751 WATERS EDGE LANE","GLOUCESTER POINT","VA",23062,37.2612649380001,-76.4917376619999,26,"PO BOX 649 7751 WATERS EDGE LANE, GLOUCESTER POINT, VA, 23062","Match","Exact","7751 WATERS EDGE LN, GLOUCESTER POINT, VA, 23062",168207458,"L"
355027,"PO BOX 649","BRENTWWOD","NY",11717,NA,NA,27,"PO BOX 649, BRENTWWOD, NY, 11717","No_Match",NA,NA,NA,NA
355028,"PO BOX 649","CHESTERFIELD","MO",63006,NA,NA,28,"PO BOX 649, CHESTERFIELD, MO, 63006","No_Match",NA,NA,NA,NA
355029,"PO BOX 649","CORNWALL","NY",12518,NA,NA,29,"PO BOX 649, CORNWALL, NY, 12518","No_Match",NA,NA,NA,NA
355030,"PO BOX 649","HUBERT","NC",28539,NA,NA,30,"PO BOX 649, HUBERT, NC, 28539","No_Match",NA,NA,NA,NA
355031,"PO BOX 649","SAN MATEO","CA",94401,NA,NA,31,"PO BOX 649, SAN MATEO, CA, 94401","No_Match",NA,NA,NA,NA
355032,"PO BOX 649","TERRE HILL","PA",17581,NA,NA,32,"PO BOX 649, TERRE HILL, PA, 17581","No_Match",NA,NA,NA,NA
355033,"PO BOX 64905","VIRGINIA BEACH","VA",23646,NA,NA,33,"PO BOX 64905, VIRGINIA BEACH, VA, 23646","No_Match",NA,NA,NA,NA
355034,"PO BOX 6492","LINCOLN","NE",68506,NA,NA,34,"PO BOX 6492, LINCOLN, NE, 68506","No_Match",NA,NA,NA,NA
355035,"PO BOX 6492","SAN JOSE","CA",95150,NA,NA,35,"PO BOX 6492, SAN JOSE, CA, 95150","No_Match",NA,NA,NA,NA
355036,"PO BOX 6494","ANAHEIM","CA",92816,NA,NA,36,"PO BOX 6494, ANAHEIM, CA, 92816","No_Match",NA,NA,NA,NA
355037,"PO BOX 64979","GARY","IN",46401,NA,NA,37,"PO BOX 64979, GARY, IN, 46401","No_Match",NA,NA,NA,NA
355038,"PO BOX 65 /138 COLD STREAM FARM RD","MADISONVILLE","TN",37354,NA,NA,38,"PO BOX 65 /138 COLD STREAM FARM RD, MADISONVILLE, TN, 37354","No_Match",NA,NA,NA,NA
355039,"PO BOX 65","BALDWIN","MD",21013,NA,NA,39,"PO BOX 65, BALDWIN, MD, 21013","No_Match",NA,NA,NA,NA
355040,"PO BOX 65","BODEGA","CA",94922,NA,NA,40,"PO BOX 65, BODEGA, CA, 94922","No_Match",NA,NA,NA,NA
355041,"PO BOX 65","CALIFORNIA","MO",65018,NA,NA,41,"PO BOX 65, CALIFORNIA, MO, 65018","No_Match",NA,NA,NA,NA
355042,"PO BOX 65","CAMPBELLTON","TX",78008,NA,NA,42,"PO BOX 65, CAMPBELLTON, TX, 78008","No_Match",NA,NA,NA,NA
355043,"PO BOX 65","CENTERVILLE","MA",2632,NA,NA,43,"PO BOX 65, CENTERVILLE, MA, 2632","No_Match",NA,NA,NA,NA
355044,"PO BOX 65","COGGON","IA",52218,NA,NA,44,"PO BOX 65, COGGON, IA, 52218","No_Match",NA,NA,NA,NA
355045,"PO BOX 65","COLUMBIANA","OH",44408,NA,NA,45,"PO BOX 65, COLUMBIANA, OH, 44408","No_Match",NA,NA,NA,NA
355046,"PO BOX 65","DARLINGTON","WI",53530,NA,NA,46,"PO BOX 65, DARLINGTON, WI, 53530","No_Match",NA,NA,NA,NA
355047,"PO BOX 65","DUNDEE","NY",14837,NA,NA,47,"PO BOX 65, DUNDEE, NY, 14837","No_Match",NA,NA,NA,NA
355048,"PO BOX 65","FARSON","WY",82932,NA,NA,48,"PO BOX 65, FARSON, WY, 82932","No_Match",NA,NA,NA,NA
355049,"PO BOX 65","FAYETTEVILLE","AR",72702,NA,NA,49,"PO BOX 65, FAYETTEVILLE, AR, 72702","No_Match",NA,NA,NA,NA
355050,"PO BOX 65","GETZVILLE","NY",14068,NA,NA,50,"PO BOX 65, GETZVILLE, NY, 14068","No_Match",NA,NA,NA,NA
355051,"PO BOX 65","GOWRIE","IA",50543,NA,NA,51,"PO BOX 65, GOWRIE, IA, 50543","No_Match",NA,NA,NA,NA
355052,"PO BOX 65","GUYTON","SC",31312,NA,NA,52,"PO BOX 65, GUYTON, SC, 31312","No_Match",NA,NA,NA,NA
355053,"PO BOX 65","JEFFERSONVILLE","GA",31044,NA,NA,53,"PO BOX 65, JEFFERSONVILLE, GA, 31044","No_Match",NA,NA,NA,NA
355054,"PO BOX 65","LAMPETER","PA",17537,NA,NA,54,"PO BOX 65, LAMPETER, PA, 17537","No_Match",NA,NA,NA,NA
355055,"PO BOX 65","LARGO","FL",33779,NA,NA,55,"PO BOX 65, LARGO, FL, 33779","No_Match",NA,NA,NA,NA
355056,"PO BOX 65","LITTLE FALLS","NY",13365,NA,NA,56,"PO BOX 65, LITTLE FALLS, NY, 13365","No_Match",NA,NA,NA,NA
355057,"PO BOX 65","MAGDALENA","NM",87825,NA,NA,57,"PO BOX 65, MAGDALENA, NM, 87825","No_Match",NA,NA,NA,NA
355058,"PO BOX 65","MARLBORO","NJ",7746,NA,NA,58,"PO BOX 65, MARLBORO, NJ, 7746","No_Match",NA,NA,NA,NA
355059,"PO BOX 65","MONTCLAIR","NJ",7042,NA,NA,59,"PO BOX 65, MONTCLAIR, NJ, 7042","No_Match",NA,NA,NA,NA
355060,"PO BOX 65","OLNEY","TX",76374,NA,NA,60,"PO BOX 65, OLNEY, TX, 76374","No_Match",NA,NA,NA,NA
355061,"PO BOX 65","OWEGO","NY",13827,NA,NA,61,"PO BOX 65, OWEGO, NY, 13827","No_Match",NA,NA,NA,NA
355062,"PO BOX 65","PHENIX CITY","AL",36868,NA,NA,62,"PO BOX 65, PHENIX CITY, AL, 36868","No_Match",NA,NA,NA,NA
355063,"PO BOX 65","PINSON","TN",38366,NA,NA,63,"PO BOX 65, PINSON, TN, 38366","No_Match",NA,NA,NA,NA
355064,"PO BOX 65","PORTLAND","TN",37148,NA,NA,64,"PO BOX 65, PORTLAND, TN, 37148","No_Match",NA,NA,NA,NA
355065,"PO BOX 65","RENVILLE","MN",56284,NA,NA,65,"PO BOX 65, RENVILLE, MN, 56284","No_Match",NA,NA,NA,NA
355066,"PO BOX 65","ROSEDALE","MS",38769,NA,NA,66,"PO BOX 65, ROSEDALE, MS, 38769","No_Match",NA,NA,NA,NA
355067,"PO BOX 65","SOUTH HERO","VT",5486,NA,NA,67,"PO BOX 65, SOUTH HERO, VT, 5486","No_Match",NA,NA,NA,NA
355068,"PO BOX 65","SPOTSWOOD","NJ",8884,NA,NA,68,"PO BOX 65, SPOTSWOOD, NJ, 8884","No_Match",NA,NA,NA,NA
355069,"PO BOX 65","THOROFARE","NJ",8086,NA,NA,69,"PO BOX 65, THOROFARE, NJ, 8086","No_Match",NA,NA,NA,NA
355070,"PO BOX 65","TROY","IN",47588,NA,NA,70,"PO BOX 65, TROY, IN, 47588","No_Match",NA,NA,NA,NA
355071,"PO BOX 65","VAN BUREN","IN",46991,NA,NA,71,"PO BOX 65, VAN BUREN, IN, 46991","No_Match",NA,NA,NA,NA
355072,"PO BOX 650","DIXON","MO",65459,NA,NA,72,"PO BOX 650, DIXON, MO, 65459","No_Match",NA,NA,NA,NA
355073,"PO BOX 650","GRAND COULEE","WA",99133,NA,NA,73,"PO BOX 650, GRAND COULEE, WA, 99133","No_Match",NA,NA,NA,NA
355074,"PO BOX 650","JAMESTOWN","KY",42629,NA,NA,74,"PO BOX 650, JAMESTOWN, KY, 42629","No_Match",NA,NA,NA,NA
355075,"PO BOX 650","KAPAA","HI",96746,NA,NA,75,"PO BOX 650, KAPAA, HI, 96746","No_Match",NA,NA,NA,NA
355076,"PO BOX 650","OXFORD","GA",30054,NA,NA,76,"PO BOX 650, OXFORD, GA, 30054","No_Match",NA,NA,NA,NA
355077,"PO BOX 650","RIDGETOP","TN",37152,NA,NA,77,"PO BOX 650, RIDGETOP, TN, 37152","No_Match",NA,NA,NA,NA
355078,"PO BOX 650","SPENCER","IN",47460,NA,NA,78,"PO BOX 650, SPENCER, IN, 47460","No_Match",NA,NA,NA,NA
355079,"PO BOX 650047","AUSTIN","TX",78765,NA,NA,79,"PO BOX 650047, AUSTIN, TX, 78765","No_Match",NA,NA,NA,NA
355080,"PO BOX 650075","AUSTIN","TX",78765,NA,NA,80,"PO BOX 650075, AUSTIN, TX, 78765","No_Match",NA,NA,NA,NA
355081,"PO BOX 650164","VERO BEACH","FL",32965,NA,NA,81,"PO BOX 650164, VERO BEACH, FL, 32965","No_Match",NA,NA,NA,NA
355082,"PO BOX 6502","LACONIA","NH",3247,NA,NA,82,"PO BOX 6502, LACONIA, NH, 3247","No_Match",NA,NA,NA,NA
355083,"PO BOX 65046","WASHINGTON","DC",20035,NA,NA,83,"PO BOX 65046, WASHINGTON, DC, 20035","No_Match",NA,NA,NA,NA
355084,"PO BOX 650593","STERLING","VA",20165,NA,NA,84,"PO BOX 650593, STERLING, VA, 20165","No_Match",NA,NA,NA,NA
355085,"PO BOX 650655","STERLING","VA",20165,NA,NA,85,"PO BOX 650655, STERLING, VA, 20165","No_Match",NA,NA,NA,NA
355086,"PO BOX 650663","POTOMAC FALLS","VA",20165,NA,NA,86,"PO BOX 650663, POTOMAC FALLS, VA, 20165","No_Match",NA,NA,NA,NA
355087,"PO BOX 650795","VERO BEACH","FL",32965,NA,NA,87,"PO BOX 650795, VERO BEACH, FL, 32965","No_Match",NA,NA,NA,NA
355088,"PO BOX 65096","PORT LUDLOW","WA",98365,NA,NA,88,"PO BOX 65096, PORT LUDLOW, WA, 98365","No_Match",NA,NA,NA,NA
355089,"PO BOX 651","CHALMETTE","LA",70044,NA,NA,89,"PO BOX 651, CHALMETTE, LA, 70044","No_Match",NA,NA,NA,NA
355090,"PO BOX 651","DEVON","PA",19333,NA,NA,90,"PO BOX 651, DEVON, PA, 19333","No_Match",NA,NA,NA,NA
355091,"PO BOX 651","LISBON","MD",21797,NA,NA,91,"PO BOX 651, LISBON, MD, 21797","No_Match",NA,NA,NA,NA
355092,"PO BOX 651","MANCHACA","TX",78652,NA,NA,92,"PO BOX 651, MANCHACA, TX, 78652","No_Match",NA,NA,NA,NA
355093,"PO BOX 651","MILFORD","MA",1757,NA,NA,93,"PO BOX 651, MILFORD, MA, 1757","No_Match",NA,NA,NA,NA
355094,"PO BOX 651","OCEANVILLE","NJ",8231,NA,NA,94,"PO BOX 651, OCEANVILLE, NJ, 8231","No_Match",NA,NA,NA,NA
355095,"PO BOX 651","SOUTHERN PINES","NC",28388,NA,NA,95,"PO BOX 651, SOUTHERN PINES, NC, 28388","No_Match",NA,NA,NA,NA
355096,"PO BOX 651","WADESBORO","NC",28170,NA,NA,96,"PO BOX 651, WADESBORO, NC, 28170","No_Match",NA,NA,NA,NA
355097,"PO BOX 651","WINNSBORO","TX",75494,NA,NA,97,"PO BOX 651, WINNSBORO, TX, 75494","No_Match",NA,NA,NA,NA
355098,"PO BOX 65100","ORANGE PARK","FL",32065,NA,NA,98,"PO BOX 65100, ORANGE PARK, FL, 32065","No_Match",NA,NA,NA,NA
355099,"PO BOX 651022","MIAMI","FL",33265,NA,NA,99,"PO BOX 651022, MIAMI, FL, 33265","No_Match",NA,NA,NA,NA
355100,"PO BOX 651055","STERLING","VA",20164,NA,NA,100,"PO BOX 651055, STERLING, VA, 20164","No_Match",NA,NA,NA,NA
355101,"PO BOX 6511","RICHMOND","VA",23230,NA,NA,101,"PO BOX 6511, RICHMOND, VA, 23230","No_Match",NA,NA,NA,NA
355102,"PO BOX 65122","VANCOUVER","WA",98665,NA,NA,102,"PO BOX 65122, VANCOUVER, WA, 98665","No_Match",NA,NA,NA,NA
355103,"PO BOX 651252","STERLING","VA",20165,NA,NA,103,"PO BOX 651252, STERLING, VA, 20165","No_Match",NA,NA,NA,NA
355104,"PO BOX 65126","UNIVERSITY PLACE","WA",98464,NA,NA,104,"PO BOX 65126, UNIVERSITY PLACE, WA, 98464","No_Match",NA,NA,NA,NA
355105,"PO BOX 651483","VERO BEACH","FL",32965,NA,NA,105,"PO BOX 651483, VERO BEACH, FL, 32965","No_Match",NA,NA,NA,NA
355106,"PO BOX 6515","ATLANTA","GA",30315,NA,NA,106,"PO BOX 6515, ATLANTA, GA, 30315","No_Match",NA,NA,NA,NA
355107,"PO BOX 65151","BALTIMORE","MD",21209,NA,NA,107,"PO BOX 65151, BALTIMORE, MD, 21209","No_Match",NA,NA,NA,NA
355108,"PO BOX 65157","WASHINGTON","DC",20036,NA,NA,108,"PO BOX 65157, WASHINGTON, DC, 20036","No_Match",NA,NA,NA,NA
355109,"PO BOX 65158","VANCOUVER","WA",98665,NA,NA,109,"PO BOX 65158, VANCOUVER, WA, 98665","No_Match",NA,NA,NA,NA
355110,"PO BOX 6516","GREAT FALLS","MT",59406,NA,NA,110,"PO BOX 6516, GREAT FALLS, MT, 59406","No_Match",NA,NA,NA,NA
355111,"PO BOX 6518","BRANDON","FL",33508,NA,NA,111,"PO BOX 6518, BRANDON, FL, 33508","No_Match",NA,NA,NA,NA
355112,"PO BOX 652","ADELANTO","CA",92301,NA,NA,112,"PO BOX 652, ADELANTO, CA, 92301","No_Match",NA,NA,NA,NA
355113,"PO BOX 652","ATOKA","TN",38004,NA,NA,113,"PO BOX 652, ATOKA, TN, 38004","No_Match",NA,NA,NA,NA
355114,"PO BOX 652","BEDFORD HILLS","NY",10507,NA,NA,114,"PO BOX 652, BEDFORD HILLS, NY, 10507","No_Match",NA,NA,NA,NA
355115,"PO BOX 652","BURLINGTON","WI",53105,NA,NA,115,"PO BOX 652, BURLINGTON, WI, 53105","No_Match",NA,NA,NA,NA
355116,"PO BOX 652","COLUMBIA CITY","IN",46725,NA,NA,116,"PO BOX 652, COLUMBIA CITY, IN, 46725","No_Match",NA,NA,NA,NA
355117,"PO BOX 652","COPPERAS COVE","TX",76522,NA,NA,117,"PO BOX 652, COPPERAS COVE, TX, 76522","No_Match",NA,NA,NA,NA
355118,"PO BOX 652","CRANE","TX",79731,NA,NA,118,"PO BOX 652, CRANE, TX, 79731","No_Match",NA,NA,NA,NA
355119,"PO BOX 652","DORRIS","CA",96023,NA,NA,119,"PO BOX 652, DORRIS, CA, 96023","No_Match",NA,NA,NA,NA
355120,"PO BOX 652","MADISON","NJ",7940,NA,NA,120,"PO BOX 652, MADISON, NJ, 7940","No_Match",NA,NA,NA,NA
355121,"PO BOX 652","MANASSAS","VA",20013,NA,NA,121,"PO BOX 652, MANASSAS, VA, 20013","No_Match",NA,NA,NA,NA
355122,"PO BOX 652","ROYSE CITY","TX",75189,NA,NA,122,"PO BOX 652, ROYSE CITY, TX, 75189","No_Match",NA,NA,NA,NA
355123,"PO BOX 652","WILSONVILLE","OR",97070,NA,NA,123,"PO BOX 652, WILSONVILLE, OR, 97070","No_Match",NA,NA,NA,NA
355124,"PO BOX 652","WYALUSING","PA",18853,NA,NA,124,"PO BOX 652, WYALUSING, PA, 18853","No_Match",NA,NA,NA,NA
355125,"PO BOX 65205","TUCSON","AZ",85728,NA,NA,125,"PO BOX 65205, TUCSON, AZ, 85728","No_Match",NA,NA,NA,NA
355126,"PO BOX 652102","MIAMI","FL",33265,NA,NA,126,"PO BOX 652102, MIAMI, FL, 33265","No_Match",NA,NA,NA,NA
355127,"PO BOX 65214","WEST DES MOINES","IA",50265,NA,NA,127,"PO BOX 65214, WEST DES MOINES, IA, 50265","No_Match",NA,NA,NA,NA
355128,"PO BOX 65217","TACOMA","WA",98464,NA,NA,128,"PO BOX 65217, TACOMA, WA, 98464","No_Match",NA,NA,NA,NA
355129,"PO BOX 65217","VIRGINIA BEACH","VA",23467,NA,NA,129,"PO BOX 65217, VIRGINIA BEACH, VA, 23467","No_Match",NA,NA,NA,NA
355130,"PO BOX 65220 1050 CONNECTICUT AVE","WASHINGTON DC","DC",20036,38.903153038,-77.039677942,130,"PO BOX 65220 1050 CONNECTICUT AVE, WASHINGTON DC, DC, 20036","Match","Non_Exact","1050 CONNECTICUT AVE NW, WASHINGTON, DC, 20036",76225642,"L"
355131,"PO BOX 65220-1050 CONNECTICUT AVE","WASHINGTON","DC",20036,NA,NA,131,"PO BOX 65220-1050 CONNECTICUT AVE, WASHINGTON, DC, 20036","No_Match",NA,NA,NA,NA
355132,"PO BOX 65222","VIRGINIA BEACH","VA",23467,NA,NA,132,"PO BOX 65222, VIRGINIA BEACH, VA, 23467","No_Match",NA,NA,NA,NA
355133,"PO BOX 65223","WEST DES MOINES","IA",50265,NA,NA,133,"PO BOX 65223, WEST DES MOINES, IA, 50265","No_Match",NA,NA,NA,NA
355134,"PO BOX 6526","LA QUINTA","CA",92248,NA,NA,134,"PO BOX 6526, LA QUINTA, CA, 92248","No_Match",NA,NA,NA,NA
355135,"PO BOX 6527","LEAWOOD","KS",66206,NA,NA,135,"PO BOX 6527, LEAWOOD, KS, 66206","No_Match",NA,NA,NA,NA
355136,"PO BOX 65284","LUBBOCK","TX",79464,NA,NA,136,"PO BOX 65284, LUBBOCK, TX, 79464","No_Match",NA,NA,NA,NA
355137,"PO BOX 653","BEATTYVILLE","KY",41311,NA,NA,137,"PO BOX 653, BEATTYVILLE, KY, 41311","No_Match",NA,NA,NA,NA
355138,"PO BOX 653","BELLINGHAM","WA",98227,NA,NA,138,"PO BOX 653, BELLINGHAM, WA, 98227","No_Match",NA,NA,NA,NA
355139,"PO BOX 653","BLACK RIVER FALLS","WI",54615,NA,NA,139,"PO BOX 653, BLACK RIVER FALLS, WI, 54615","No_Match",NA,NA,NA,NA
355140,"PO BOX 653","BOZEMAN","MT",59771,NA,NA,140,"PO BOX 653, BOZEMAN, MT, 59771","No_Match",NA,NA,NA,NA
355141,"PO BOX 653","BRIDGTON","ME",4009,NA,NA,141,"PO BOX 653, BRIDGTON, ME, 4009","No_Match",NA,NA,NA,NA
355142,"PO BOX 653","EDMONDS","WA",98020,NA,NA,142,"PO BOX 653, EDMONDS, WA, 98020","No_Match",NA,NA,NA,NA
355143,"PO BOX 653","FARMERSBURG","IN",47850,NA,NA,143,"PO BOX 653, FARMERSBURG, IN, 47850","No_Match",NA,NA,NA,NA
355144,"PO BOX 653","GARDEN CITY","MI",48135,NA,NA,144,"PO BOX 653, GARDEN CITY, MI, 48135","No_Match",NA,NA,NA,NA
355145,"PO BOX 653","GARDEN CITY","MI",48136,NA,NA,145,"PO BOX 653, GARDEN CITY, MI, 48136","No_Match",NA,NA,NA,NA
355146,"PO BOX 653","HERSHEY","PA",17033,NA,NA,146,"PO BOX 653, HERSHEY, PA, 17033","No_Match",NA,NA,NA,NA
355147,"PO BOX 653","MARIETTA","OH",45750,NA,NA,147,"PO BOX 653, MARIETTA, OH, 45750","No_Match",NA,NA,NA,NA
355148,"PO BOX 653","METROPOLIS","IL",62960,NA,NA,148,"PO BOX 653, METROPOLIS, IL, 62960","No_Match",NA,NA,NA,NA
355149,"PO BOX 653","MOUNT DESERT","ME",4660,NA,NA,149,"PO BOX 653, MOUNT DESERT, ME, 4660","No_Match",NA,NA,NA,NA
355150,"PO BOX 653","NINE MILE FALLS","WA",99026,NA,NA,150,"PO BOX 653, NINE MILE FALLS, WA, 99026","No_Match",NA,NA,NA,NA
355151,"PO BOX 653","OZONA","FL",34660,NA,NA,151,"PO BOX 653, OZONA, FL, 34660","No_Match",NA,NA,NA,NA
355152,"PO BOX 653","PENDLETON","OR",97801,NA,NA,152,"PO BOX 653, PENDLETON, OR, 97801","No_Match",NA,NA,NA,NA
355153,"PO BOX 653","RAWLINS","WY",82301,NA,NA,153,"PO BOX 653, RAWLINS, WY, 82301","No_Match",NA,NA,NA,NA
355154,"PO BOX 653","SAINT PAULS","NC",28384,NA,NA,154,"PO BOX 653, SAINT PAULS, NC, 28384","No_Match",NA,NA,NA,NA
355155,"PO BOX 653","SOUTH PRAIRIE","WA",98385,NA,NA,155,"PO BOX 653, SOUTH PRAIRIE, WA, 98385","No_Match",NA,NA,NA,NA
355156,"PO BOX 653","SUFFOLK","VA",23439,NA,NA,156,"PO BOX 653, SUFFOLK, VA, 23439","No_Match",NA,NA,NA,NA
355157,"PO BOX 653","TOMAHAWK","WI",54487,NA,NA,157,"PO BOX 653, TOMAHAWK, WI, 54487","No_Match",NA,NA,NA,NA
355158,"PO BOX 65307","BALTIMORE","MD",21209,NA,NA,158,"PO BOX 65307, BALTIMORE, MD, 21209","No_Match",NA,NA,NA,NA
355159,"PO BOX 6531","ROUND ROCK","TX",78683,NA,NA,159,"PO BOX 6531, ROUND ROCK, TX, 78683","No_Match",NA,NA,NA,NA
355160,"PO BOX 6532","VENTURA","CA",93006,NA,NA,160,"PO BOX 6532, VENTURA, CA, 93006","No_Match",NA,NA,NA,NA
355161,"PO BOX 6534","COLORADO SPRINGS","CO",80904,NA,NA,161,"PO BOX 6534, COLORADO SPRINGS, CO, 80904","No_Match",NA,NA,NA,NA
355162,"PO BOX 6535","LOUISVILLE","KY",40207,NA,NA,162,"PO BOX 6535, LOUISVILLE, KY, 40207","No_Match",NA,NA,NA,NA
355163,"PO BOX 65357","ALBUQUERQUE","NM",87193,NA,NA,163,"PO BOX 65357, ALBUQUERQUE, NM, 87193","No_Match",NA,NA,NA,NA
355164,"PO BOX 65385","VANCOUVER","WA",98665,NA,NA,164,"PO BOX 65385, VANCOUVER, WA, 98665","No_Match",NA,NA,NA,NA
355165,"PO BOX 65395","BATON ROUGE","LA",70896,NA,NA,165,"PO BOX 65395, BATON ROUGE, LA, 70896","No_Match",NA,NA,NA,NA
355166,"PO BOX 654","CHIPPEWA FALLS","WI",54729,NA,NA,166,"PO BOX 654, CHIPPEWA FALLS, WI, 54729","No_Match",NA,NA,NA,NA
355167,"PO BOX 654","ELYRIA","OH",44036,NA,NA,167,"PO BOX 654, ELYRIA, OH, 44036","No_Match",NA,NA,NA,NA
355168,"PO BOX 654","FARMINGTON","NH",3835,NA,NA,168,"PO BOX 654, FARMINGTON, NH, 3835","No_Match",NA,NA,NA,NA
355169,"PO BOX 654","GARRETSON","SD",57030,NA,NA,169,"PO BOX 654, GARRETSON, SD, 57030","No_Match",NA,NA,NA,NA
355170,"PO BOX 654","HILO","HI",96720,NA,NA,170,"PO BOX 654, HILO, HI, 96720","No_Match",NA,NA,NA,NA
355171,"PO BOX 654","HUDSON","WI",54016,NA,NA,171,"PO BOX 654, HUDSON, WI, 54016","No_Match",NA,NA,NA,NA
355172,"PO BOX 654","HURTSBORO","AL",36860,NA,NA,172,"PO BOX 654, HURTSBORO, AL, 36860","No_Match",NA,NA,NA,NA
355173,"PO BOX 654","LAWRENCE","KS",66044,NA,NA,173,"PO BOX 654, LAWRENCE, KS, 66044","No_Match",NA,NA,NA,NA
355174,"PO BOX 654","MINERAL","VA",23117,NA,NA,174,"PO BOX 654, MINERAL, VA, 23117","No_Match",NA,NA,NA,NA
355175,"PO BOX 654","MOORESVILLE","NC",28115,NA,NA,175,"PO BOX 654, MOORESVILLE, NC, 28115","No_Match",NA,NA,NA,NA
355176,"PO BOX 654","PAINESVILLE","OH",44077,NA,NA,176,"PO BOX 654, PAINESVILLE, OH, 44077","No_Match",NA,NA,NA,NA
355177,"PO BOX 654","POYNETTE","WI",53955,NA,NA,177,"PO BOX 654, POYNETTE, WI, 53955","No_Match",NA,NA,NA,NA
355178,"PO BOX 6541","CONCORD","CA",94524,NA,NA,178,"PO BOX 6541, CONCORD, CA, 94524","No_Match",NA,NA,NA,NA
355179,"PO BOX 6541","PAGO PAGO","AS",96799,NA,NA,179,"PO BOX 6541, PAGO PAGO, AS, 96799","No_Match",NA,NA,NA,NA
355180,"PO BOX 6542","LACONIA","NH",3247,NA,NA,180,"PO BOX 6542, LACONIA, NH, 3247","No_Match",NA,NA,NA,NA
355181,"PO BOX 6542","WHEELING","WV",26003,NA,NA,181,"PO BOX 6542, WHEELING, WV, 26003","No_Match",NA,NA,NA,NA
355182,"PO BOX 65428","LUBBOCK","TX",79646,NA,NA,182,"PO BOX 65428, LUBBOCK, TX, 79646","No_Match",NA,NA,NA,NA
355183,"PO BOX 6543","ELGIN","IL",60121,NA,NA,183,"PO BOX 6543, ELGIN, IL, 60121","No_Match",NA,NA,NA,NA
355184,"PO BOX 65453","LANGLEY AFB","VA",23665,NA,NA,184,"PO BOX 65453, LANGLEY AFB, VA, 23665","No_Match",NA,NA,NA,NA
355185,"PO BOX 65473","ORANGE PARK","FL",32065,NA,NA,185,"PO BOX 65473, ORANGE PARK, FL, 32065","No_Match",NA,NA,NA,NA
355186,"PO BOX 655","CONCORD","MA",1742,NA,NA,186,"PO BOX 655, CONCORD, MA, 1742","No_Match",NA,NA,NA,NA
355187,"PO BOX 655","CONNEAUT","OH",44030,NA,NA,187,"PO BOX 655, CONNEAUT, OH, 44030","No_Match",NA,NA,NA,NA
355188,"PO BOX 655","CROMPOND","NY",10517,NA,NA,188,"PO BOX 655, CROMPOND, NY, 10517","No_Match",NA,NA,NA,NA
355189,"PO BOX 655","DIERKS","AR",71833,NA,NA,189,"PO BOX 655, DIERKS, AR, 71833","No_Match",NA,NA,NA,NA
355190,"PO BOX 655","EAST ORANGE","NJ",7019,NA,NA,190,"PO BOX 655, EAST ORANGE, NJ, 7019","No_Match",NA,NA,NA,NA
355191,"PO BOX 655","GWINN","MI",49841,NA,NA,191,"PO BOX 655, GWINN, MI, 49841","No_Match",NA,NA,NA,NA
355192,"PO BOX 655","HEMPHILL","TX",75948,NA,NA,192,"PO BOX 655, HEMPHILL, TX, 75948","No_Match",NA,NA,NA,NA
355193,"PO BOX 655","JEFFERSONVILLE","IN",47131,NA,NA,193,"PO BOX 655, JEFFERSONVILLE, IN, 47131","No_Match",NA,NA,NA,NA
355194,"PO BOX 655","KANSASVILLE","WI",53139,NA,NA,194,"PO BOX 655, KANSASVILLE, WI, 53139","No_Match",NA,NA,NA,NA
355195,"PO BOX 655","MONROE","NC",28111,NA,NA,195,"PO BOX 655, MONROE, NC, 28111","No_Match",NA,NA,NA,NA
355196,"PO BOX 655","MONTICELLO","GA",31064,NA,NA,196,"PO BOX 655, MONTICELLO, GA, 31064","No_Match",NA,NA,NA,NA
355197,"PO BOX 655","NORTHFORK","WV",24868,NA,NA,197,"PO BOX 655, NORTHFORK, WV, 24868","No_Match",NA,NA,NA,NA
355198,"PO BOX 655","SEWELL","NJ",8080,NA,NA,198,"PO BOX 655, SEWELL, NJ, 8080","No_Match",NA,NA,NA,NA
355199,"PO BOX 655","ST IGNATIUS","MT",59865,NA,NA,199,"PO BOX 655, ST IGNATIUS, MT, 59865","No_Match",NA,NA,NA,NA
355200,"PO BOX 655","WINCHESTER","CA",92596,NA,NA,200,"PO BOX 655, WINCHESTER, CA, 92596","No_Match",NA,NA,NA,NA
355201,"PO BOX 6550","CHARLOTTESVILLE","VA",22906,NA,NA,201,"PO BOX 6550, CHARLOTTESVILLE, VA, 22906","No_Match",NA,NA,NA,NA
355202,"PO BOX 6553","SAINT LOUIS","MO",63125,NA,NA,202,"PO BOX 6553, SAINT LOUIS, MO, 63125","No_Match",NA,NA,NA,NA
355203,"PO BOX 655352","MIAMI","FL",33265,NA,NA,203,"PO BOX 655352, MIAMI, FL, 33265","No_Match",NA,NA,NA,NA
355204,"PO BOX 6554","FARGO","ND",58109,NA,NA,204,"PO BOX 6554, FARGO, ND, 58109","No_Match",NA,NA,NA,NA
355205,"PO BOX 65543","VIRGINIA BEACH","VA",23467,NA,NA,205,"PO BOX 65543, VIRGINIA BEACH, VA, 23467","No_Match",NA,NA,NA,NA
355206,"PO BOX 6557","KINGWOOD","TX",77325,NA,NA,206,"PO BOX 6557, KINGWOOD, TX, 77325","No_Match",NA,NA,NA,NA
355207,"PO BOX 656","BELLEVUE","NE",68005,NA,NA,207,"PO BOX 656, BELLEVUE, NE, 68005","No_Match",NA,NA,NA,NA
355208,"PO BOX 656","CIRCLE PINES","MN",55014,NA,NA,208,"PO BOX 656, CIRCLE PINES, MN, 55014","No_Match",NA,NA,NA,NA
355209,"PO BOX 656","COLLEGEVILLE","PA",19426,NA,NA,209,"PO BOX 656, COLLEGEVILLE, PA, 19426","No_Match",NA,NA,NA,NA
355210,"PO BOX 656","CONDON","OR",97823,NA,NA,210,"PO BOX 656, CONDON, OR, 97823","No_Match",NA,NA,NA,NA
355211,"PO BOX 656","DAMASCUS","VA",24236,NA,NA,211,"PO BOX 656, DAMASCUS, VA, 24236","No_Match",NA,NA,NA,NA
355212,"PO BOX 656","FARMERVILLE","LA",71241,NA,NA,212,"PO BOX 656, FARMERVILLE, LA, 71241","No_Match",NA,NA,NA,NA
355213,"PO BOX 656","HINESVILLE","GA",31310,NA,NA,213,"PO BOX 656, HINESVILLE, GA, 31310","No_Match",NA,NA,NA,NA
355214,"PO BOX 656","HYDESVILLE","CA",95547,NA,NA,214,"PO BOX 656, HYDESVILLE, CA, 95547","No_Match",NA,NA,NA,NA
355215,"PO BOX 656","KEENE","TX",76059,NA,NA,215,"PO BOX 656, KEENE, TX, 76059","No_Match",NA,NA,NA,NA
355216,"PO BOX 656","MANGO","FL",33550,NA,NA,216,"PO BOX 656, MANGO, FL, 33550","No_Match",NA,NA,NA,NA
355217,"PO BOX 656","MORRISVILLE","NY",13408,NA,NA,217,"PO BOX 656, MORRISVILLE, NY, 13408","No_Match",NA,NA,NA,NA
355218,"PO BOX 656","NORWALK","OH",44857,NA,NA,218,"PO BOX 656, NORWALK, OH, 44857","No_Match",NA,NA,NA,NA
355219,"PO BOX 656","STOCKTON","CA",95201,NA,NA,219,"PO BOX 656, STOCKTON, CA, 95201","No_Match",NA,NA,NA,NA
355220,"PO BOX 656","SUGAR GROVE","IL",60554,NA,NA,220,"PO BOX 656, SUGAR GROVE, IL, 60554","No_Match",NA,NA,NA,NA
355221,"PO BOX 65601","LUBBOCK","TX",79464,NA,NA,221,"PO BOX 65601, LUBBOCK, TX, 79464","No_Match",NA,NA,NA,NA
355222,"PO BOX 6562","MILWAUKEE","WI",53206,NA,NA,222,"PO BOX 6562, MILWAUKEE, WI, 53206","No_Match",NA,NA,NA,NA
355223,"PO BOX 6564","ASHEVILLE","NC",28816,NA,NA,223,"PO BOX 6564, ASHEVILLE, NC, 28816","No_Match",NA,NA,NA,NA
355224,"PO BOX 6564","JACKSONVILLE","FL",32236,NA,NA,224,"PO BOX 6564, JACKSONVILLE, FL, 32236","No_Match",NA,NA,NA,NA
355225,"PO BOX 6565","SAN ANTONIO","TX",78209,NA,NA,225,"PO BOX 6565, SAN ANTONIO, TX, 78209","No_Match",NA,NA,NA,NA
355226,"PO BOX 6566","BOSSIER CITY","LA",71171,NA,NA,226,"PO BOX 6566, BOSSIER CITY, LA, 71171","No_Match",NA,NA,NA,NA
355227,"PO BOX 6566","PORTLAND","OR",97228,NA,NA,227,"PO BOX 6566, PORTLAND, OR, 97228","No_Match",NA,NA,NA,NA
355228,"PO BOX 6568","PEORIA","AZ",85385,NA,NA,228,"PO BOX 6568, PEORIA, AZ, 85385","No_Match",NA,NA,NA,NA
355229,"PO BOX 6569","CONCORD","NC",28027,NA,NA,229,"PO BOX 6569, CONCORD, NC, 28027","No_Match",NA,NA,NA,NA
355230,"PO BOX 657","AUBERRY","CA",93602,NA,NA,230,"PO BOX 657, AUBERRY, CA, 93602","No_Match",NA,NA,NA,NA
355231,"PO BOX 657","ELLENSBURG","WA",98926,NA,NA,231,"PO BOX 657, ELLENSBURG, WA, 98926","No_Match",NA,NA,NA,NA
355232,"PO BOX 657","HINCKLEY","IL",60520,NA,NA,232,"PO BOX 657, HINCKLEY, IL, 60520","No_Match",NA,NA,NA,NA
355233,"PO BOX 657","KINGSHILL","VI",851,NA,NA,233,"PO BOX 657, KINGSHILL, VI, 851","No_Match",NA,NA,NA,NA
355234,"PO BOX 657","NATALBANY","LA",70451,NA,NA,234,"PO BOX 657, NATALBANY, LA, 70451","No_Match",NA,NA,NA,NA
355235,"PO BOX 657","SCOTTSMOOR","FL",32775,NA,NA,235,"PO BOX 657, SCOTTSMOOR, FL, 32775","No_Match",NA,NA,NA,NA
355236,"PO BOX 657","WEST JEFFERSON","NC",28694,NA,NA,236,"PO BOX 657, WEST JEFFERSON, NC, 28694","No_Match",NA,NA,NA,NA
355237,"PO BOX 6571","GLENDALE","AZ",85312,NA,NA,237,"PO BOX 6571, GLENDALE, AZ, 85312","No_Match",NA,NA,NA,NA
355238,"PO BOX 6572","LAKELAND","FL",33807,NA,NA,238,"PO BOX 6572, LAKELAND, FL, 33807","No_Match",NA,NA,NA,NA
355239,"PO BOX 65727","LUBBOCK","TX",79464,NA,NA,239,"PO BOX 65727, LUBBOCK, TX, 79464","No_Match",NA,NA,NA,NA
355240,"PO BOX 65752","WEST DES MOINES","IA",50265,NA,NA,240,"PO BOX 65752, WEST DES MOINES, IA, 50265","No_Match",NA,NA,NA,NA
355241,"PO BOX 65763","LUBBOCK","TX",79464,NA,NA,241,"PO BOX 65763, LUBBOCK, TX, 79464","No_Match",NA,NA,NA,NA
355242,"PO BOX 6577","KATY","TX",77491,NA,NA,242,"PO BOX 6577, KATY, TX, 77491","No_Match",NA,NA,NA,NA
355243,"PO BOX 658","BRISTOW","OK",74010,NA,NA,243,"PO BOX 658, BRISTOW, OK, 74010","No_Match",NA,NA,NA,NA
355244,"PO BOX 658","EDISTO ISLAND","SC",29438,NA,NA,244,"PO BOX 658, EDISTO ISLAND, SC, 29438","No_Match",NA,NA,NA,NA
355245,"PO BOX 658","KINGFISHER","OK",73750,NA,NA,245,"PO BOX 658, KINGFISHER, OK, 73750","No_Match",NA,NA,NA,NA
355246,"PO BOX 658","MAYFLOWER","AR",72106,NA,NA,246,"PO BOX 658, MAYFLOWER, AR, 72106","No_Match",NA,NA,NA,NA
355247,"PO BOX 658","MOKENA","IL",60448,NA,NA,247,"PO BOX 658, MOKENA, IL, 60448","No_Match",NA,NA,NA,NA
355248,"PO BOX 658","SEVERN","MD",21144,NA,NA,248,"PO BOX 658, SEVERN, MD, 21144","No_Match",NA,NA,NA,NA
355249,"PO BOX 658","TELLICO PLAINS","TN",37385,NA,NA,249,"PO BOX 658, TELLICO PLAINS, TN, 37385","No_Match",NA,NA,NA,NA
355250,"PO BOX 65816","LUBBOCK","TX",79464,NA,NA,250,"PO BOX 65816, LUBBOCK, TX, 79464","No_Match",NA,NA,NA,NA
355251,"PO BOX 65817","ORANGE PARK","FL",32065,NA,NA,251,"PO BOX 65817, ORANGE PARK, FL, 32065","No_Match",NA,NA,NA,NA
355252,"PO BOX 65838","TUCSON","AZ",85728,NA,NA,252,"PO BOX 65838, TUCSON, AZ, 85728","No_Match",NA,NA,NA,NA
355253,"PO BOX 6584","EVANSVILLE","IN",47719,NA,NA,253,"PO BOX 6584, EVANSVILLE, IN, 47719","No_Match",NA,NA,NA,NA
355254,"PO BOX 6584","SAN PEDRO","CA",90734,NA,NA,254,"PO BOX 6584, SAN PEDRO, CA, 90734","No_Match",NA,NA,NA,NA
355255,"PO BOX 6584","TAMPA","FL",33608,NA,NA,255,"PO BOX 6584, TAMPA, FL, 33608","No_Match",NA,NA,NA,NA
355256,"PO BOX 65853","VANCOUVER","WA",98665,NA,NA,256,"PO BOX 65853, VANCOUVER, WA, 98665","No_Match",NA,NA,NA,NA
355257,"PO BOX 65882","ORANGE PARK","FL",32065,NA,NA,257,"PO BOX 65882, ORANGE PARK, FL, 32065","No_Match",NA,NA,NA,NA
355258,"PO BOX 659","BRUNSWICK","ME",4011,NA,NA,258,"PO BOX 659, BRUNSWICK, ME, 4011","No_Match",NA,NA,NA,NA
355259,"PO BOX 659","CHESTERFIELD","MO",63017,NA,NA,259,"PO BOX 659, CHESTERFIELD, MO, 63017","No_Match",NA,NA,NA,NA
355260,"PO BOX 659","ELKHART","KS",67950,NA,NA,260,"PO BOX 659, ELKHART, KS, 67950","No_Match",NA,NA,NA,NA
355261,"PO BOX 659","GODLEY","TX",76044,NA,NA,261,"PO BOX 659, GODLEY, TX, 76044","No_Match",NA,NA,NA,NA
355262,"PO BOX 659","GRANBURY","TX",76048,NA,NA,262,"PO BOX 659, GRANBURY, TX, 76048","No_Match",NA,NA,NA,NA
355263,"PO BOX 659","LONDONDERRY","VT",5148,NA,NA,263,"PO BOX 659, LONDONDERRY, VT, 5148","No_Match",NA,NA,NA,NA
355264,"PO BOX 659","SEMMES","AL",36575,NA,NA,264,"PO BOX 659, SEMMES, AL, 36575","No_Match",NA,NA,NA,NA
355265,"PO BOX 659","SHASTA","CA",96087,NA,NA,265,"PO BOX 659, SHASTA, CA, 96087","No_Match",NA,NA,NA,NA
355266,"PO BOX 6591","EUREKA","CA",95502,NA,NA,266,"PO BOX 6591, EUREKA, CA, 95502","No_Match",NA,NA,NA,NA
355267,"PO BOX 6593","SAINT LOUIS","MO",63125,NA,NA,267,"PO BOX 6593, SAINT LOUIS, MO, 63125","No_Match",NA,NA,NA,NA
355268,"PO BOX 6595","IRVINE","CA",92616,NA,NA,268,"PO BOX 6595, IRVINE, CA, 92616","No_Match",NA,NA,NA,NA
355269,"PO BOX 6595","LAFAYETTE","IN",47903,NA,NA,269,"PO BOX 6595, LAFAYETTE, IN, 47903","No_Match",NA,NA,NA,NA
355270,"PO BOX 65957","TUCSON","AZ",85728,NA,NA,270,"PO BOX 65957, TUCSON, AZ, 85728","No_Match",NA,NA,NA,NA
355271,"PO BOX 6598","CHARLESTON","WV",25362,NA,NA,271,"PO BOX 6598, CHARLESTON, WV, 25362","No_Match",NA,NA,NA,NA
355272,"PO BOX 66 12950 OATMAN HIGHWAY","TOPOCK","AZ",86436,NA,NA,272,"PO BOX 66 12950 OATMAN HIGHWAY, TOPOCK, AZ, 86436","No_Match",NA,NA,NA,NA
355273,"PO BOX 66","ALANSON","MI",49706,NA,NA,273,"PO BOX 66, ALANSON, MI, 49706","No_Match",NA,NA,NA,NA
355274,"PO BOX 66","ANDOVER","NY",14806,NA,NA,274,"PO BOX 66, ANDOVER, NY, 14806","No_Match",NA,NA,NA,NA
355275,"PO BOX 66","ARKANSAS CITY","AR",71630,NA,NA,275,"PO BOX 66, ARKANSAS CITY, AR, 71630","No_Match",NA,NA,NA,NA
355276,"PO BOX 66","BAKER CITY","OR",97814,NA,NA,276,"PO BOX 66, BAKER CITY, OR, 97814","No_Match",NA,NA,NA,NA
355277,"PO BOX 66","BOLTON","MA",1740,NA,NA,277,"PO BOX 66, BOLTON, MA, 1740","No_Match",NA,NA,NA,NA
355278,"PO BOX 66","CHESWOLD","DE",19934,NA,NA,278,"PO BOX 66, CHESWOLD, DE, 19934","No_Match",NA,NA,NA,NA
355279,"PO BOX 66","COLOGNE","MN",55322,NA,NA,279,"PO BOX 66, COLOGNE, MN, 55322","No_Match",NA,NA,NA,NA
355280,"PO BOX 66","COLONY","OK",73021,NA,NA,280,"PO BOX 66, COLONY, OK, 73021","No_Match",NA,NA,NA,NA
355281,"PO BOX 66","CONVERSE","TX",78109,NA,NA,281,"PO BOX 66, CONVERSE, TX, 78109","No_Match",NA,NA,NA,NA
355282,"PO BOX 66","CRESTONE","CO",81131,NA,NA,282,"PO BOX 66, CRESTONE, CO, 81131","No_Match",NA,NA,NA,NA
355283,"PO BOX 66","EL PRADO","NM",87529,NA,NA,283,"PO BOX 66, EL PRADO, NM, 87529","No_Match",NA,NA,NA,NA
355284,"PO BOX 66","ELLOREE","SC",29047,NA,NA,284,"PO BOX 66, ELLOREE, SC, 29047","No_Match",NA,NA,NA,NA
355285,"PO BOX 66","ENTERPRISE","OR",97828,NA,NA,285,"PO BOX 66, ENTERPRISE, OR, 97828","No_Match",NA,NA,NA,NA
355286,"PO BOX 66","FLORENCE","MT",59833,NA,NA,286,"PO BOX 66, FLORENCE, MT, 59833","No_Match",NA,NA,NA,NA
355287,"PO BOX 66","GENEVA","NY",14456,NA,NA,287,"PO BOX 66, GENEVA, NY, 14456","No_Match",NA,NA,NA,NA
355288,"PO BOX 66","GEORGETOWN","IL",61846,NA,NA,288,"PO BOX 66, GEORGETOWN, IL, 61846","No_Match",NA,NA,NA,NA
355289,"PO BOX 66","HAMBURG","PA",19526,NA,NA,289,"PO BOX 66, HAMBURG, PA, 19526","No_Match",NA,NA,NA,NA
355290,"PO BOX 66","KINGSVILLE","TX",78363,NA,NA,290,"PO BOX 66, KINGSVILLE, TX, 78363","No_Match",NA,NA,NA,NA
355291,"PO BOX 66","LAFAYETTE","IN",47902,NA,NA,291,"PO BOX 66, LAFAYETTE, IN, 47902","No_Match",NA,NA,NA,NA
355292,"PO BOX 66","LEBANON","MO",65536,NA,NA,292,"PO BOX 66, LEBANON, MO, 65536","No_Match",NA,NA,NA,NA
355293,"PO BOX 66","LEMONT","PA",16851,NA,NA,293,"PO BOX 66, LEMONT, PA, 16851","No_Match",NA,NA,NA,NA
355294,"PO BOX 66","LUDINGTON","MI",49431,NA,NA,294,"PO BOX 66, LUDINGTON, MI, 49431","No_Match",NA,NA,NA,NA
355295,"PO BOX 66","MIDDLE RIVER","MN",56737,NA,NA,295,"PO BOX 66, MIDDLE RIVER, MN, 56737","No_Match",NA,NA,NA,NA
355296,"PO BOX 66","MOSCOW","PA",18444,NA,NA,296,"PO BOX 66, MOSCOW, PA, 18444","No_Match",NA,NA,NA,NA
355297,"PO BOX 66","OGLESBY","TX",76561,NA,NA,297,"PO BOX 66, OGLESBY, TX, 76561","No_Match",NA,NA,NA,NA
355298,"PO BOX 66","PLYMOUTH","CA",95669,NA,NA,298,"PO BOX 66, PLYMOUTH, CA, 95669","No_Match",NA,NA,NA,NA
355299,"PO BOX 66","PORTAGE","PA",15946,NA,NA,299,"PO BOX 66, PORTAGE, PA, 15946","No_Match",NA,NA,NA,NA
355300,"PO BOX 66","SAN JACINTO","CA",92581,NA,NA,300,"PO BOX 66, SAN JACINTO, CA, 92581","No_Match",NA,NA,NA,NA
355301,"PO BOX 66","SEAL BEACH","CA",90740,NA,NA,301,"PO BOX 66, SEAL BEACH, CA, 90740","No_Match",NA,NA,NA,NA
355302,"PO BOX 66","SHEPHERD","MT",59079,NA,NA,302,"PO BOX 66, SHEPHERD, MT, 59079","No_Match",NA,NA,NA,NA
355303,"PO BOX 66","STATE PARK","SC",29147,NA,NA,303,"PO BOX 66, STATE PARK, SC, 29147","No_Match",NA,NA,NA,NA
355304,"PO BOX 66","STURGIS","SD",57785,NA,NA,304,"PO BOX 66, STURGIS, SD, 57785","No_Match",NA,NA,NA,NA
355305,"PO BOX 66","SWEDESBORO","NJ",8085,NA,NA,305,"PO BOX 66, SWEDESBORO, NJ, 8085","No_Match",NA,NA,NA,NA
355306,"PO BOX 66","TUCUMCARI","NM",88401,NA,NA,306,"PO BOX 66, TUCUMCARI, NM, 88401","No_Match",NA,NA,NA,NA
355307,"PO BOX 66","WAPPAPELLO","MO",63966,NA,NA,307,"PO BOX 66, WAPPAPELLO, MO, 63966","No_Match",NA,NA,NA,NA
355308,"PO BOX 66","WELLSVILLE","NY",14895,NA,NA,308,"PO BOX 66, WELLSVILLE, NY, 14895","No_Match",NA,NA,NA,NA
355309,"PO BOX 66","WHITE MARSH","MD",21162,NA,NA,309,"PO BOX 66, WHITE MARSH, MD, 21162","No_Match",NA,NA,NA,NA
355310,"PO BOX 66","WILLOW RIVER","MN",55795,NA,NA,310,"PO BOX 66, WILLOW RIVER, MN, 55795","No_Match",NA,NA,NA,NA
355311,"PO BOX 660","ASHLAND","NH",3217,NA,NA,311,"PO BOX 660, ASHLAND, NH, 3217","No_Match",NA,NA,NA,NA
355312,"PO BOX 660","AZLE","TX",76020,NA,NA,312,"PO BOX 660, AZLE, TX, 76020","No_Match",NA,NA,NA,NA
355313,"PO BOX 660","BELLEVUE","ID",83313,NA,NA,313,"PO BOX 660, BELLEVUE, ID, 83313","No_Match",NA,NA,NA,NA
355314,"PO BOX 660","CLINTON","CT",6413,NA,NA,314,"PO BOX 660, CLINTON, CT, 6413","No_Match",NA,NA,NA,NA
355315,"PO BOX 660","CUERO","TX",77954,NA,NA,315,"PO BOX 660, CUERO, TX, 77954","No_Match",NA,NA,NA,NA
355316,"PO BOX 660","CUYAHOGA FALLS","OH",44222,NA,NA,316,"PO BOX 660, CUYAHOGA FALLS, OH, 44222","No_Match",NA,NA,NA,NA
355317,"PO BOX 660","NAPA","CA",94559,NA,NA,317,"PO BOX 660, NAPA, CA, 94559","No_Match",NA,NA,NA,NA
355318,"PO BOX 660","WALDPORT","OR",97394,NA,NA,318,"PO BOX 660, WALDPORT, OR, 97394","No_Match",NA,NA,NA,NA
355319,"PO BOX 660012","AUSTIN","TX",78766,NA,NA,319,"PO BOX 660012, AUSTIN, TX, 78766","No_Match",NA,NA,NA,NA
355320,"PO BOX 66002","VIRGINIA BEACH","VA",23466,NA,NA,320,"PO BOX 66002, VIRGINIA BEACH, VA, 23466","No_Match",NA,NA,NA,NA
355321,"PO BOX 660038","FLUSHING","NY",11366,NA,NA,321,"PO BOX 660038, FLUSHING, NY, 11366","No_Match",NA,NA,NA,NA
355322,"PO BOX 6601","HUNTSVILLE","AL",35813,NA,NA,322,"PO BOX 6601, HUNTSVILLE, AL, 35813","No_Match",NA,NA,NA,NA
355323,"PO BOX 660186","BIRMINGHAM","AL",35266,NA,NA,323,"PO BOX 660186, BIRMINGHAM, AL, 35266","No_Match",NA,NA,NA,NA
355324,"PO BOX 66026","WEST DES MOINES","IA",50265,NA,NA,324,"PO BOX 66026, WEST DES MOINES, IA, 50265","No_Match",NA,NA,NA,NA
355325,"PO BOX 66028","ALBANY","NY",12206,NA,NA,325,"PO BOX 66028, ALBANY, NY, 12206","No_Match",NA,NA,NA,NA
355326,"PO BOX 66036","VIRGINIA BEACH","VA",23466,NA,NA,326,"PO BOX 66036, VIRGINIA BEACH, VA, 23466","No_Match",NA,NA,NA,NA
355327,"PO BOX 660362","VESTAVIA HILLS","AL",35266,NA,NA,327,"PO BOX 660362, VESTAVIA HILLS, AL, 35266","No_Match",NA,NA,NA,NA
355328,"PO BOX 660384","AUSTIN","TX",78766,NA,NA,328,"PO BOX 660384, AUSTIN, TX, 78766","No_Match",NA,NA,NA,NA
355329,"PO BOX 6604","MARIETTA","GA",30065,NA,NA,329,"PO BOX 6604, MARIETTA, GA, 30065","No_Match",NA,NA,NA,NA
355330,"PO BOX 660421","CHAMBLEE","GA",30366,NA,NA,330,"PO BOX 660421, CHAMBLEE, GA, 30366","No_Match",NA,NA,NA,NA
355331,"PO BOX 660512","ATLANTA","GA",30366,NA,NA,331,"PO BOX 660512, ATLANTA, GA, 30366","No_Match",NA,NA,NA,NA
355332,"PO BOX 660574 - WAKEFIELD STATION","BRONX","NY",10466,NA,NA,332,"PO BOX 660574 - WAKEFIELD STATION, BRONX, NY, 10466","No_Match",NA,NA,NA,NA
355333,"PO BOX 6606","MARYVILLE","TN",37802,NA,NA,333,"PO BOX 6606, MARYVILLE, TN, 37802","No_Match",NA,NA,NA,NA
355334,"PO BOX 66071","BALTIMORE","MD",21239,NA,NA,334,"PO BOX 66071, BALTIMORE, MD, 21239","No_Match",NA,NA,NA,NA
355335,"PO BOX 660802","SACRAMENTO","CA",95866,NA,NA,335,"PO BOX 660802, SACRAMENTO, CA, 95866","No_Match",NA,NA,NA,NA
355336,"PO BOX 6609- 540 2ND AVE N STE 202","KETCHUM","ID",83340,NA,NA,336,"PO BOX 6609- 540 2ND AVE N STE 202, KETCHUM, ID, 83340","No_Match",NA,NA,NA,NA
355337,"PO BOX 661","BLOCK ISLAND","RI",2807,NA,NA,337,"PO BOX 661, BLOCK ISLAND, RI, 2807","No_Match",NA,NA,NA,NA
355338,"PO BOX 661","BRONX","NY",10451,NA,NA,338,"PO BOX 661, BRONX, NY, 10451","No_Match",NA,NA,NA,NA
355339,"PO BOX 661","COPPELL","TX",75019,NA,NA,339,"PO BOX 661, COPPELL, TX, 75019","No_Match",NA,NA,NA,NA
355340,"PO BOX 661","LAME DEER","MT",59043,NA,NA,340,"PO BOX 661, LAME DEER, MT, 59043","No_Match",NA,NA,NA,NA
355341,"PO BOX 661","RICHMOND","MN",56368,NA,NA,341,"PO BOX 661, RICHMOND, MN, 56368","No_Match",NA,NA,NA,NA
355342,"PO BOX 661","RUPERT","ID",83350,NA,NA,342,"PO BOX 661, RUPERT, ID, 83350","No_Match",NA,NA,NA,NA
355343,"PO BOX 661","STIGLER","OK",74462,NA,NA,343,"PO BOX 661, STIGLER, OK, 74462","No_Match",NA,NA,NA,NA
355344,"PO BOX 661","STURGIS","SD",57785,NA,NA,344,"PO BOX 661, STURGIS, SD, 57785","No_Match",NA,NA,NA,NA
355345,"PO BOX 661","SYOSSET","NY",11791,NA,NA,345,"PO BOX 661, SYOSSET, NY, 11791","No_Match",NA,NA,NA,NA
355346,"PO BOX 661","TALENT","OR",97540,NA,NA,346,"PO BOX 661, TALENT, OR, 97540","No_Match",NA,NA,NA,NA
355347,"PO BOX 661","TOK","AK",99780,NA,NA,347,"PO BOX 661, TOK, AK, 99780","No_Match",NA,NA,NA,NA
355348,"PO BOX 661","WAVERLY","NY",14892,NA,NA,348,"PO BOX 661, WAVERLY, NY, 14892","No_Match",NA,NA,NA,NA
355349,"PO BOX 661","WEST TISBURY","MA",2575,NA,NA,349,"PO BOX 661, WEST TISBURY, MA, 2575","No_Match",NA,NA,NA,NA
355350,"PO BOX 661","WHEAT RIDGE","CO",80034,NA,NA,350,"PO BOX 661, WHEAT RIDGE, CO, 80034","No_Match",NA,NA,NA,NA
355351,"PO BOX 661063","MIAMI SRPINGS","FL",33266,NA,NA,351,"PO BOX 661063, MIAMI SRPINGS, FL, 33266","No_Match",NA,NA,NA,NA
355352,"PO BOX 6611","HOUSTON","TX",77265,NA,NA,352,"PO BOX 6611, HOUSTON, TX, 77265","No_Match",NA,NA,NA,NA
355353,"PO BOX 6611","SCOTTSDALE","AZ",85261,NA,NA,353,"PO BOX 6611, SCOTTSDALE, AZ, 85261","No_Match",NA,NA,NA,NA
355354,"PO BOX 66122","PORTLAND","OR",97290,NA,NA,354,"PO BOX 66122, PORTLAND, OR, 97290","No_Match",NA,NA,NA,NA
355355,"PO BOX 661272","VESTAVIA","AL",35266,NA,NA,355,"PO BOX 661272, VESTAVIA, AL, 35266","No_Match",NA,NA,NA,NA
355356,"PO BOX 6613","ASHEVILLE","NC",28816,NA,NA,356,"PO BOX 6613, ASHEVILLE, NC, 28816","No_Match",NA,NA,NA,NA
355357,"PO BOX 6613","EVANSVILLE","IN",47719,NA,NA,357,"PO BOX 6613, EVANSVILLE, IN, 47719","No_Match",NA,NA,NA,NA
355358,"PO BOX 661438","MIAMI","FL",33266,NA,NA,358,"PO BOX 661438, MIAMI, FL, 33266","No_Match",NA,NA,NA,NA
355359,"PO BOX 66146","HOUSTON","TX",77266,NA,NA,359,"PO BOX 66146, HOUSTON, TX, 77266","No_Match",NA,NA,NA,NA
355360,"PO BOX 661473","SACRAMENTO","CA",95866,NA,NA,360,"PO BOX 661473, SACRAMENTO, CA, 95866","No_Match",NA,NA,NA,NA
355361,"PO BOX 6615","SAN ANTONIO","TX",78209,NA,NA,361,"PO BOX 6615, SAN ANTONIO, TX, 78209","No_Match",NA,NA,NA,NA
355362,"PO BOX 661533","ARCADIA","CA",91066,NA,NA,362,"PO BOX 661533, ARCADIA, CA, 91066","No_Match",NA,NA,NA,NA
355363,"PO BOX 66154","MOBILE","AL",36606,NA,NA,363,"PO BOX 66154, MOBILE, AL, 36606","No_Match",NA,NA,NA,NA
355364,"PO BOX 66185","BURIEN","WA",98166,NA,NA,364,"PO BOX 66185, BURIEN, WA, 98166","No_Match",NA,NA,NA,NA
355365,"PO BOX 662","ARKANSAS CITY","KS",67005,NA,NA,365,"PO BOX 662, ARKANSAS CITY, KS, 67005","No_Match",NA,NA,NA,NA
355366,"PO BOX 662","HAMSHIRE","TX",77622,NA,NA,366,"PO BOX 662, HAMSHIRE, TX, 77622","No_Match",NA,NA,NA,NA
355367,"PO BOX 662","KALONA","IA",52247,NA,NA,367,"PO BOX 662, KALONA, IA, 52247","No_Match",NA,NA,NA,NA
355368,"PO BOX 662","LAKE GENEVA","WI",53125,NA,NA,368,"PO BOX 662, LAKE GENEVA, WI, 53125","No_Match",NA,NA,NA,NA
355369,"PO BOX 662","MARSHALLTOWN","IA",50158,NA,NA,369,"PO BOX 662, MARSHALLTOWN, IA, 50158","No_Match",NA,NA,NA,NA
355370,"PO BOX 662","MIRANDA","CA",95553,NA,NA,370,"PO BOX 662, MIRANDA, CA, 95553","No_Match",NA,NA,NA,NA
355371,"PO BOX 662","MUKILTEO","WA",98275,NA,NA,371,"PO BOX 662, MUKILTEO, WA, 98275","No_Match",NA,NA,NA,NA
355372,"PO BOX 662","ROCKY HILL","CT",6067,NA,NA,372,"PO BOX 662, ROCKY HILL, CT, 6067","No_Match",NA,NA,NA,NA
355373,"PO BOX 662","SAN ANDREAS","CA",95249,NA,NA,373,"PO BOX 662, SAN ANDREAS, CA, 95249","No_Match",NA,NA,NA,NA
355374,"PO BOX 6622","KATY","TX",77491,NA,NA,374,"PO BOX 6622, KATY, TX, 77491","No_Match",NA,NA,NA,NA
355375,"PO BOX 6623","CHAMPAIGN","IL",61826,NA,NA,375,"PO BOX 6623, CHAMPAIGN, IL, 61826","No_Match",NA,NA,NA,NA
355376,"PO BOX 6623","EVANSVILLE","IN",47719,NA,NA,376,"PO BOX 6623, EVANSVILLE, IN, 47719","No_Match",NA,NA,NA,NA
355377,"PO BOX 6623","SOUTH BEND","IN",46660,NA,NA,377,"PO BOX 6623, SOUTH BEND, IN, 46660","No_Match",NA,NA,NA,NA
355378,"PO BOX 66234","HOUSTON","TX",77266,NA,NA,378,"PO BOX 66234, HOUSTON, TX, 77266","No_Match",NA,NA,NA,NA
355379,"PO BOX 6624","CHRISTIANSBURG","VA",24068,NA,NA,379,"PO BOX 6624, CHRISTIANSBURG, VA, 24068","No_Match",NA,NA,NA,NA
355380,"PO BOX 6628","LARGO","MD",20792,NA,NA,380,"PO BOX 6628, LARGO, MD, 20792","No_Match",NA,NA,NA,NA
355381,"PO BOX 66284","VIRGINIA BEACH","VA",23466,NA,NA,381,"PO BOX 66284, VIRGINIA BEACH, VA, 23466","No_Match",NA,NA,NA,NA
355382,"PO BOX 663","AUSTIN","TX",78767,NA,NA,382,"PO BOX 663, AUSTIN, TX, 78767","No_Match",NA,NA,NA,NA
355383,"PO BOX 663","BERKELEY","CA",94701,NA,NA,383,"PO BOX 663, BERKELEY, CA, 94701","No_Match",NA,NA,NA,NA
355384,"PO BOX 663","COTTONDALE","FL",32431,NA,NA,384,"PO BOX 663, COTTONDALE, FL, 32431","No_Match",NA,NA,NA,NA
355385,"PO BOX 663","COVINGTON","LA",70434,NA,NA,385,"PO BOX 663, COVINGTON, LA, 70434","No_Match",NA,NA,NA,NA
355386,"PO BOX 663","EXCELSIOR","MN",55331,NA,NA,386,"PO BOX 663, EXCELSIOR, MN, 55331","No_Match",NA,NA,NA,NA
355387,"PO BOX 663","FORRESTON","IL",61030,NA,NA,387,"PO BOX 663, FORRESTON, IL, 61030","No_Match",NA,NA,NA,NA
355388,"PO BOX 663","GOLD BAR","WV",98251,NA,NA,388,"PO BOX 663, GOLD BAR, WV, 98251","No_Match",NA,NA,NA,NA
355389,"PO BOX 663","HOCKLEY","TX",77447,NA,NA,389,"PO BOX 663, HOCKLEY, TX, 77447","No_Match",NA,NA,NA,NA
355390,"PO BOX 663","JACKSON","AL",36545,NA,NA,390,"PO BOX 663, JACKSON, AL, 36545","No_Match",NA,NA,NA,NA
355391,"PO BOX 663","LAVEEN","AZ",85339,NA,NA,391,"PO BOX 663, LAVEEN, AZ, 85339","No_Match",NA,NA,NA,NA
355392,"PO BOX 663","MANCHESTER","KY",40962,NA,NA,392,"PO BOX 663, MANCHESTER, KY, 40962","No_Match",NA,NA,NA,NA
355393,"PO BOX 663","MARS","PA",16046,NA,NA,393,"PO BOX 663, MARS, PA, 16046","No_Match",NA,NA,NA,NA
355394,"PO BOX 663","RAVENSWOOD","WV",26164,NA,NA,394,"PO BOX 663, RAVENSWOOD, WV, 26164","No_Match",NA,NA,NA,NA
355395,"PO BOX 663","ROCHESTER","MN",55903,NA,NA,395,"PO BOX 663, ROCHESTER, MN, 55903","No_Match",NA,NA,NA,NA
355396,"PO BOX 663","SHAFTER","CA",93263,NA,NA,396,"PO BOX 663, SHAFTER, CA, 93263","No_Match",NA,NA,NA,NA
355397,"PO BOX 663","YARMOUTH","ME",4096,NA,NA,397,"PO BOX 663, YARMOUTH, ME, 4096","No_Match",NA,NA,NA,NA
355398,"PO BOX 66304","BALTIMORE","MD",21239,NA,NA,398,"PO BOX 66304, BALTIMORE, MD, 21239","No_Match",NA,NA,NA,NA
355399,"PO BOX 6631","FOLSOM","CA",95763,NA,NA,399,"PO BOX 6631, FOLSOM, CA, 95763","No_Match",NA,NA,NA,NA
355400,"PO BOX 6631","PORTSMOUTH","NH",3802,NA,NA,400,"PO BOX 6631, PORTSMOUTH, NH, 3802","No_Match",NA,NA,NA,NA
355401,"PO BOX 66311","MOBILE","AL",36660,NA,NA,401,"PO BOX 66311, MOBILE, AL, 36660","No_Match",NA,NA,NA,NA
355402,"PO BOX 6632","BEND","OR",97708,NA,NA,402,"PO BOX 6632, BEND, OR, 97708","No_Match",NA,NA,NA,NA
355403,"PO BOX 6633","SAN ANTONIO","TX",78209,NA,NA,403,"PO BOX 6633, SAN ANTONIO, TX, 78209","No_Match",NA,NA,NA,NA
355404,"PO BOX 66351","ORANGE PARK","FL",32065,NA,NA,404,"PO BOX 66351, ORANGE PARK, FL, 32065","No_Match",NA,NA,NA,NA
355405,"PO BOX 664","BANKS","OR",97106,NA,NA,405,"PO BOX 664, BANKS, OR, 97106","No_Match",NA,NA,NA,NA
355406,"PO BOX 664","BRIGHTON","IL",62012,NA,NA,406,"PO BOX 664, BRIGHTON, IL, 62012","No_Match",NA,NA,NA,NA
355407,"PO BOX 664","EAGLE BUTTE","SD",57625,NA,NA,407,"PO BOX 664, EAGLE BUTTE, SD, 57625","No_Match",NA,NA,NA,NA
355408,"PO BOX 664","ENUMCLAW","WA",98022,NA,NA,408,"PO BOX 664, ENUMCLAW, WA, 98022","No_Match",NA,NA,NA,NA
355409,"PO BOX 664","HADLEY","MA",1035,NA,NA,409,"PO BOX 664, HADLEY, MA, 1035","No_Match",NA,NA,NA,NA
355410,"PO BOX 664","HEMPSTEAD","TX",77445,NA,NA,410,"PO BOX 664, HEMPSTEAD, TX, 77445","No_Match",NA,NA,NA,NA
355411,"PO BOX 664","LOGANSPORT","IN",46947,NA,NA,411,"PO BOX 664, LOGANSPORT, IN, 46947","No_Match",NA,NA,NA,NA
355412,"PO BOX 664","NACHES","WA",98937,NA,NA,412,"PO BOX 664, NACHES, WA, 98937","No_Match",NA,NA,NA,NA
355413,"PO BOX 664","OKANOGAN","WA",98840,NA,NA,413,"PO BOX 664, OKANOGAN, WA, 98840","No_Match",NA,NA,NA,NA
355414,"PO BOX 664","REIDSVILLE","GA",30453,NA,NA,414,"PO BOX 664, REIDSVILLE, GA, 30453","No_Match",NA,NA,NA,NA
355415,"PO BOX 664","ROCKLAND","ME",4841,NA,NA,415,"PO BOX 664, ROCKLAND, ME, 4841","No_Match",NA,NA,NA,NA
355416,"PO BOX 664","ROSEVILLE","CA",95661,NA,NA,416,"PO BOX 664, ROSEVILLE, CA, 95661","No_Match",NA,NA,NA,NA
355417,"PO BOX 664","SICKLERVILLE","NJ",8081,NA,NA,417,"PO BOX 664, SICKLERVILLE, NJ, 8081","No_Match",NA,NA,NA,NA
355418,"PO BOX 664","SOLEDAD","CA",93960,NA,NA,418,"PO BOX 664, SOLEDAD, CA, 93960","No_Match",NA,NA,NA,NA
355419,"PO BOX 664","ST CLAIR SHORES","MI",48080,NA,NA,419,"PO BOX 664, ST CLAIR SHORES, MI, 48080","No_Match",NA,NA,NA,NA
355420,"PO BOX 664","WEST MEMPHIS","AR",72303,NA,NA,420,"PO BOX 664, WEST MEMPHIS, AR, 72303","No_Match",NA,NA,NA,NA
355421,"PO BOX 6645","FLORENCE","SC",29502,NA,NA,421,"PO BOX 6645, FLORENCE, SC, 29502","No_Match",NA,NA,NA,NA
355422,"PO BOX 6647","KATY","TX",77491,NA,NA,422,"PO BOX 6647, KATY, TX, 77491","No_Match",NA,NA,NA,NA
355423,"PO BOX 6649","ALBUQUERQUE","NM",87197,NA,NA,423,"PO BOX 6649, ALBUQUERQUE, NM, 87197","No_Match",NA,NA,NA,NA
355424,"PO BOX 665","ANDOVER","KS",67002,NA,NA,424,"PO BOX 665, ANDOVER, KS, 67002","No_Match",NA,NA,NA,NA
355425,"PO BOX 665","BUFFALO GAP","TX",79508,NA,NA,425,"PO BOX 665, BUFFALO GAP, TX, 79508","No_Match",NA,NA,NA,NA
355426,"PO BOX 665","CARIBOU","ME",4736,NA,NA,426,"PO BOX 665, CARIBOU, ME, 4736","No_Match",NA,NA,NA,NA
355427,"PO BOX 665","DOVER","AR",72837,NA,NA,427,"PO BOX 665, DOVER, AR, 72837","No_Match",NA,NA,NA,NA
355428,"PO BOX 665","GLADSTONE","OR",97027,NA,NA,428,"PO BOX 665, GLADSTONE, OR, 97027","No_Match",NA,NA,NA,NA
355429,"PO BOX 665","HAWTHORNE","FL",32640,NA,NA,429,"PO BOX 665, HAWTHORNE, FL, 32640","No_Match",NA,NA,NA,NA
355430,"PO BOX 665","MANORVILLE","NY",11949,NA,NA,430,"PO BOX 665, MANORVILLE, NY, 11949","No_Match",NA,NA,NA,NA
355431,"PO BOX 665","MONROE","GA",30655,NA,NA,431,"PO BOX 665, MONROE, GA, 30655","No_Match",NA,NA,NA,NA
355432,"PO BOX 665","NEW ALBANY","IN",47151,NA,NA,432,"PO BOX 665, NEW ALBANY, IN, 47151","No_Match",NA,NA,NA,NA
355433,"PO BOX 665","PALMER","AK",99645,NA,NA,433,"PO BOX 665, PALMER, AK, 99645","No_Match",NA,NA,NA,NA
355434,"PO BOX 665","PLEASANT GARDEN","NC",27313,NA,NA,434,"PO BOX 665, PLEASANT GARDEN, NC, 27313","No_Match",NA,NA,NA,NA
355435,"PO BOX 665","RUCKERSVILLE","VA",22968,NA,NA,435,"PO BOX 665, RUCKERSVILLE, VA, 22968","No_Match",NA,NA,NA,NA
355436,"PO BOX 6652","TYLER","TX",75711,NA,NA,436,"PO BOX 6652, TYLER, TX, 75711","No_Match",NA,NA,NA,NA
355437,"PO BOX 66539","BURIEN","WA",98166,NA,NA,437,"PO BOX 66539, BURIEN, WA, 98166","No_Match",NA,NA,NA,NA
355438,"PO BOX 6655","CHESAPEAKE","VA",23323,NA,NA,438,"PO BOX 6655, CHESAPEAKE, VA, 23323","No_Match",NA,NA,NA,NA
355439,"PO BOX 6655","HILTON HEAD ISLAND","SC",29938,NA,NA,439,"PO BOX 6655, HILTON HEAD ISLAND, SC, 29938","No_Match",NA,NA,NA,NA
355440,"PO BOX 6655","KINGWOOD","TX",77325,NA,NA,440,"PO BOX 6655, KINGWOOD, TX, 77325","No_Match",NA,NA,NA,NA
355441,"PO BOX 6655","PEORIA","AZ",85385,NA,NA,441,"PO BOX 6655, PEORIA, AZ, 85385","No_Match",NA,NA,NA,NA
355442,"PO BOX 6656","HIGH POINT","NC",27262,NA,NA,442,"PO BOX 6656, HIGH POINT, NC, 27262","No_Match",NA,NA,NA,NA
355443,"PO BOX 6657","CLEVELAND","OH",44101,NA,NA,443,"PO BOX 6657, CLEVELAND, OH, 44101","No_Match",NA,NA,NA,NA
355444,"PO BOX 66573","CHICAGO","IL",60666,NA,NA,444,"PO BOX 66573, CHICAGO, IL, 60666","No_Match",NA,NA,NA,NA
355445,"PO BOX 666","BRISTOL","VA",24203,NA,NA,445,"PO BOX 666, BRISTOL, VA, 24203","No_Match",NA,NA,NA,NA
355446,"PO BOX 666","CHILOQUIN","OR",97624,NA,NA,446,"PO BOX 666, CHILOQUIN, OR, 97624","No_Match",NA,NA,NA,NA
355447,"PO BOX 666","ENKA","NC",28728,NA,NA,447,"PO BOX 666, ENKA, NC, 28728","No_Match",NA,NA,NA,NA
355448,"PO BOX 666","HURT","VA",24563,NA,NA,448,"PO BOX 666, HURT, VA, 24563","No_Match",NA,NA,NA,NA
355449,"PO BOX 666","NEW CITY","NY",10956,NA,NA,449,"PO BOX 666, NEW CITY, NY, 10956","No_Match",NA,NA,NA,NA
355450,"PO BOX 6660","KANSAS CITY","MO",64123,NA,NA,450,"PO BOX 6660, KANSAS CITY, MO, 64123","No_Match",NA,NA,NA,NA
355451,"PO BOX 6661","MACON","GA",31208,NA,NA,451,"PO BOX 6661, MACON, GA, 31208","No_Match",NA,NA,NA,NA
355452,"PO BOX 6666","ITHACA","NY",14851,NA,NA,452,"PO BOX 6666, ITHACA, NY, 14851","No_Match",NA,NA,NA,NA
355453,"PO BOX 66674","HOUSTON","TX",77266,NA,NA,453,"PO BOX 66674, HOUSTON, TX, 77266","No_Match",NA,NA,NA,NA
355454,"PO BOX 667","DOVE CREEK","CO",81324,NA,NA,454,"PO BOX 667, DOVE CREEK, CO, 81324","No_Match",NA,NA,NA,NA
355455,"PO BOX 667","JERICHO","NY",11753,NA,NA,455,"PO BOX 667, JERICHO, NY, 11753","No_Match",NA,NA,NA,NA
355456,"PO BOX 667","MEADVIEW","AZ",86444,NA,NA,456,"PO BOX 667, MEADVIEW, AZ, 86444","No_Match",NA,NA,NA,NA
355457,"PO BOX 667","MERIDIANVILLE","AL",35759,NA,NA,457,"PO BOX 667, MERIDIANVILLE, AL, 35759","No_Match",NA,NA,NA,NA
355458,"PO BOX 667","WEST LIBERTY","OH",43357,NA,NA,458,"PO BOX 667, WEST LIBERTY, OH, 43357","No_Match",NA,NA,NA,NA
355459,"PO BOX 667019","HOUSTON","TX",77266,NA,NA,459,"PO BOX 667019, HOUSTON, TX, 77266","No_Match",NA,NA,NA,NA
355460,"PO BOX 667041","HOUSTON","TX",77266,NA,NA,460,"PO BOX 667041, HOUSTON, TX, 77266","No_Match",NA,NA,NA,NA
355461,"PO BOX 667062","POMPANO BEACH","FL",33066,NA,NA,461,"PO BOX 667062, POMPANO BEACH, FL, 33066","No_Match",NA,NA,NA,NA
355462,"PO BOX 667114","HOUSTON","TX",77266,NA,NA,462,"PO BOX 667114, HOUSTON, TX, 77266","No_Match",NA,NA,NA,NA
355463,"PO BOX 667133","HOUSTON","TX",77266,NA,NA,463,"PO BOX 667133, HOUSTON, TX, 77266","No_Match",NA,NA,NA,NA
355464,"PO BOX 667136","POMPANO BEACH","FL",33066,NA,NA,464,"PO BOX 667136, POMPANO BEACH, FL, 33066","No_Match",NA,NA,NA,NA
355465,"PO BOX 6672","CHESAPEAKE","VA",23323,NA,NA,465,"PO BOX 6672, CHESAPEAKE, VA, 23323","No_Match",NA,NA,NA,NA
355466,"PO BOX 6673","CLEVELAND","OH",44101,NA,NA,466,"PO BOX 6673, CLEVELAND, OH, 44101","No_Match",NA,NA,NA,NA
355467,"PO BOX 667341","HOUSTON","TX",77266,NA,NA,467,"PO BOX 667341, HOUSTON, TX, 77266","No_Match",NA,NA,NA,NA
355468,"PO BOX 6674","PARIS","TX",75461,NA,NA,468,"PO BOX 6674, PARIS, TX, 75461","No_Match",NA,NA,NA,NA
355469,"PO BOX 667452","HOUSTON","TX",77266,NA,NA,469,"PO BOX 667452, HOUSTON, TX, 77266","No_Match",NA,NA,NA,NA
355470,"PO BOX 6675","TYLER","TX",75711,NA,NA,470,"PO BOX 6675, TYLER, TX, 75711","No_Match",NA,NA,NA,NA
355471,"PO BOX 66761","WASHINGTON","DC",20035,NA,NA,471,"PO BOX 66761, WASHINGTON, DC, 20035","No_Match",NA,NA,NA,NA
355472,"PO BOX 66765","ALBUQUERQUE","NM",87193,NA,NA,472,"PO BOX 66765, ALBUQUERQUE, NM, 87193","No_Match",NA,NA,NA,NA
355473,"PO BOX 66775","BURIEN","WA",98166,NA,NA,473,"PO BOX 66775, BURIEN, WA, 98166","No_Match",NA,NA,NA,NA
355474,"PO BOX 6678","ATLANTA","GA",30315,NA,NA,474,"PO BOX 6678, ATLANTA, GA, 30315","No_Match",NA,NA,NA,NA
355475,"PO BOX 667812","CHARLOTTE","NC",28266,NA,NA,475,"PO BOX 667812, CHARLOTTE, NC, 28266","No_Match",NA,NA,NA,NA
355476,"PO BOX 66790","LOS ANGELES","CA",90066,NA,NA,476,"PO BOX 66790, LOS ANGELES, CA, 90066","No_Match",NA,NA,NA,NA
355477,"PO BOX 66792","SEATTLE","WA",98166,NA,NA,477,"PO BOX 66792, SEATTLE, WA, 98166","No_Match",NA,NA,NA,NA
355478,"PO BOX 668","HUTCHINSON","MN",55350,NA,NA,478,"PO BOX 668, HUTCHINSON, MN, 55350","No_Match",NA,NA,NA,NA
355479,"PO BOX 668","KASILOF","AK",99610,NA,NA,479,"PO BOX 668, KASILOF, AK, 99610","No_Match",NA,NA,NA,NA
355480,"PO BOX 668","LAKE CRYSTAL","MN",56055,NA,NA,480,"PO BOX 668, LAKE CRYSTAL, MN, 56055","No_Match",NA,NA,NA,NA
355481,"PO BOX 668","LOCKHART","TX",78644,NA,NA,481,"PO BOX 668, LOCKHART, TX, 78644","No_Match",NA,NA,NA,NA
355482,"PO BOX 668","MARYSVILLE","WA",98270,NA,NA,482,"PO BOX 668, MARYSVILLE, WA, 98270","No_Match",NA,NA,NA,NA
355483,"PO BOX 668","MORRIS","IL",60450,NA,NA,483,"PO BOX 668, MORRIS, IL, 60450","No_Match",NA,NA,NA,NA
355484,"PO BOX 668","SOMERS POINT","NJ",8244,NA,NA,484,"PO BOX 668, SOMERS POINT, NJ, 8244","No_Match",NA,NA,NA,NA
355485,"PO BOX 668","TAOS","NM",87571,NA,NA,485,"PO BOX 668, TAOS, NM, 87571","No_Match",NA,NA,NA,NA
355486,"PO BOX 668","WAKE FOREST","NC",27588,NA,NA,486,"PO BOX 668, WAKE FOREST, NC, 27588","No_Match",NA,NA,NA,NA
355487,"PO BOX 668175","POMPANO BEACH","FL",33066,NA,NA,487,"PO BOX 668175, POMPANO BEACH, FL, 33066","No_Match",NA,NA,NA,NA
355488,"PO BOX 6682","JACKSON","MS",39282,NA,NA,488,"PO BOX 6682, JACKSON, MS, 39282","No_Match",NA,NA,NA,NA
355489,"PO BOX 6682","VIRGINIA BEACH","VA",23456,NA,NA,489,"PO BOX 6682, VIRGINIA BEACH, VA, 23456","No_Match",NA,NA,NA,NA
355490,"PO BOX 668421","POMPANO BEACH","FL",33066,NA,NA,490,"PO BOX 668421, POMPANO BEACH, FL, 33066","No_Match",NA,NA,NA,NA
355491,"PO BOX 6687","KINGWOOD","TX",77325,NA,NA,491,"PO BOX 6687, KINGWOOD, TX, 77325","No_Match",NA,NA,NA,NA
355492,"PO BOX 66872","SCOTTS VALLEY","CA",95067,NA,NA,492,"PO BOX 66872, SCOTTS VALLEY, CA, 95067","No_Match",NA,NA,NA,NA
355493,"PO BOX 668847","CHARLOTTE","NC",28266,NA,NA,493,"PO BOX 668847, CHARLOTTE, NC, 28266","No_Match",NA,NA,NA,NA
355494,"PO BOX 669 - 30 TWIN PINES ROAD","MILLINOCKET","ME",4462,NA,NA,494,"PO BOX 669 - 30 TWIN PINES ROAD, MILLINOCKET, ME, 4462","No_Match",NA,NA,NA,NA
355495,"PO BOX 669 - 417 WYOMING AVE","CRESTON","IA",50801,41.0509505650001,-94.367856402,495,"PO BOX 669 - 417 WYOMING AVE, CRESTON, IA, 50801","Match","Exact","669 WYOMING AVE, CRESTON, IA, 50801",75241296,"R"
355496,"PO BOX 669","AUSTIN","TX",78701,NA,NA,496,"PO BOX 669, AUSTIN, TX, 78701","No_Match",NA,NA,NA,NA
355497,"PO BOX 669","HINDMAN","KY",41822,NA,NA,497,"PO BOX 669, HINDMAN, KY, 41822","No_Match",NA,NA,NA,NA
355498,"PO BOX 669","HUMBOLDT","IA",50548,NA,NA,498,"PO BOX 669, HUMBOLDT, IA, 50548","No_Match",NA,NA,NA,NA
355499,"PO BOX 669","JACKSON","WY",83001,NA,NA,499,"PO BOX 669, JACKSON, WY, 83001","No_Match",NA,NA,NA,NA
355500,"PO BOX 669","LEESBURG","GA",31763,NA,NA,500,"PO BOX 669, LEESBURG, GA, 31763","No_Match",NA,NA,NA,NA
