"ID","Address","City","State","Zip","lat","long","id","input_address","match_indicator","match_type","matched_address","tiger_line_id","tiger_side"
129501,"2332 RIDGEVIEW AVENUE","LOS ANGELES","CA",90041,34.130976096,-118.217477215,1,"2332 RIDGEVIEW AVENUE, LOS ANGELES, CA, 90041","Match","Exact","2332 RIDGEVIEW AVE, LOS ANGELES, CA, 90041",624107821,"L"
129502,"2332 S 19TH AVE","BROADVIEW","IL",60155,NA,NA,2,"2332 S 19TH AVE, BROADVIEW, IL, 60155","Tie",NA,NA,NA,NA
129503,"2332 SILVER RIDGE AVE","LOS ANGELES","CA",90039,34.0986636650001,-118.255281095,3,"2332 SILVER RIDGE AVE, LOS ANGELES, CA, 90039","Match","Exact","2332 SILVER RIDGE AVE, LOS ANGELES, CA, 90039",642867508,"R"
129504,"2332 SUMMERWIND PLACE","CARLSBAD","CA",92008,33.1489934040001,-117.302951143,4,"2332 SUMMERWIND PLACE, CARLSBAD, CA, 92008","Match","Exact","2332 SUMMERWIND PL, CARLSBAD, CA, 92008",195459707,"R"
129505,"2332 TYRRHENIAN CIR","LONGMONT","CO",80504,40.199363868,-105.060799141,5,"2332 TYRRHENIAN CIR, LONGMONT, CO, 80504","Match","Exact","2332 TYRRHENIAN CIR, LONGMONT, CO, 80504",651400006,"L"
129506,"2332 VENNIE CT","SANTA ROSA","CA",95401,38.448433596,-122.762029061,6,"2332 VENNIE CT, SANTA ROSA, CA, 95401","Match","Exact","2332 VENNIE CT, SANTA ROSA, CA, 95401",67467535,"L"
129507,"2332 WATERSIDE LN SW","VERO BEACH","FL",32962,27.582669265,-80.4097435469999,7,"2332 WATERSIDE LN SW, VERO BEACH, FL, 32962","Match","Exact","2332 WATERSIDE LN SW, VERO BEACH, FL, 32962",649949817,"R"
129508,"23321 LA GLORIETA APT C","MISSION VIEJO","CA",92691,33.6243379420001,-117.670964576,8,"23321 LA GLORIETA APT C, MISSION VIEJO, CA, 92691","Match","Non_Exact","23321 LA GLORIETA, MISSION VIEJO, CA, 92691",144064862,"L"
129509,"23321 POWELL AVE","HAZEL PARK","MI",48030,42.4636257710001,-83.1092707879999,9,"23321 POWELL AVE, HAZEL PARK, MI, 48030","Match","Exact","23321 POWELL AVE, HAZEL PARK, MI, 48030",69747835,"L"
129510,"23322 NUEVO MUNDO RD","RAMONA","CA",92065,33.0262471510001,-116.822317284,10,"23322 NUEVO MUNDO RD, RAMONA, CA, 92065","Match","Exact","23322 NUEVO MUNDO RD, RAMONA, CA, 92065",195729368,"R"
129511,"23322 RAINBOW ARCH DRIVE","CLARKSBURG","MD",20871,39.2413381210001,-77.262061621,11,"23322 RAINBOW ARCH DRIVE, CLARKSBURG, MD, 20871","Match","Exact","23322 RAINBOW ARCH DR, CLARKSBURG, MD, 20871",618604723,"L"
129512,"23324 ROBBINS ROAD","ASTATULA","FL",34705,28.6855573770001,-81.712068184,12,"23324 ROBBINS ROAD, ASTATULA, FL, 34705","Match","Exact","23324 ROBBINS RD, ASTATULA, FL, 34705",94149728,"L"
129513,"23324 STATE HWY 38","MARSHFIELD","MO",65706,37.3060997090001,-92.803069839,13,"23324 STATE HWY 38, MARSHFIELD, MO, 65706","Match","Exact","23324 STATE HWY 38, MARSHFIELD, MO, 65706",26633328,"L"
129514,"23325 VAN BORN RD PMB 30","TAYLOR","MI",48180,42.269232059,-83.2631434749999,14,"23325 VAN BORN RD PMB 30, TAYLOR, MI, 48180","Match","Exact","23325 VAN BORN RD, TAYLOR, MI, 48180",95436850,"L"
129515,"23327 BEAUMONT STREET","VALENCIA","CA",91354,34.4391124310001,-118.543648994,15,"23327 BEAUMONT STREET, VALENCIA, CA, 91354","Match","Exact","23327 BEAUMONT ST, VALENCIA, CA, 91354",141855633,"R"
129516,"23328 OLIVEWOOD PLAZA DR","MORENO VALLEY","CA",92553,33.9401216800001,-117.25519377,16,"23328 OLIVEWOOD PLAZA DR, MORENO VALLEY, CA, 92553","Match","Non_Exact","23328 OLIVE WOOD PLAZA DR, MORENO VALLEY, CA, 92553",194747510,"L"
129517,"23329 ALMAROSA AVE","TORRANCE","CA",90505,33.8144129610001,-118.331764608,17,"23329 ALMAROSA AVE, TORRANCE, CA, 90505","Match","Exact","23329 ALMAROSA AVE, TORRANCE, CA, 90505",141666169,"R"
129518,"2333 11TH ST SO","ST PETERSBURG","FL",33705,27.747125764,-82.6501213769999,18,"2333 11TH ST SO, ST PETERSBURG, FL, 33705","Match","Exact","2333 11TH ST S, SAINT PETERSBURG, FL, 33705",124710709,"R"
129519,"2333 21ST AVE UNIT B","FOREST GROVE","OR",97116,45.5209287500001,-123.105211948,19,"2333 21ST AVE UNIT B, FOREST GROVE, OR, 97116","Match","Exact","2333 21ST AVE, FOREST GROVE, OR, 97116",158175935,"L"
129520,"2333 99TH AVE SE","WIMBLEDON","ND",58492,47.074212668,-98.4042795079999,20,"2333 99TH AVE SE, WIMBLEDON, ND, 58492","Match","Exact","2333 99TH AVE SE, WIMBLEDON, ND, 58492",640040058,"L"
129521,"2333 AMHERST AVE","LOS ANGELES","CA",90064,34.029733058,-118.452060635,21,"2333 AMHERST AVE, LOS ANGELES, CA, 90064","Match","Exact","2333 AMHERST AVE, LOS ANGELES, CA, 90064",141568616,"R"
129522,"2333 ANDERSON RD","CRESCENT SPRINGS","KY",41017,39.053969872,-84.5736974389999,22,"2333 ANDERSON RD, CRESCENT SPRINGS, KY, 41017","Match","Exact","2333 ANDERSON RD, CRESCENT SPGS, KY, 41017",103874755,"L"
129523,"2333 APPLETON DR","DALLAS","TX",75216,32.6894717340001,-96.784608113,23,"2333 APPLETON DR, DALLAS, TX, 75216","Match","Exact","2333 APPLETON DR, DALLAS, TX, 75216",103180570,"L"
129524,"2333 CAMINO DEL RIO S 140","SAN DIEGO","CA",92018,NA,NA,24,"2333 CAMINO DEL RIO S 140, SAN DIEGO, CA, 92018","No_Match",NA,NA,NA,NA
129525,"2333 CAMINO DEL RIO S SUITE 140","SAN DIEGO","CA",92108,NA,NA,25,"2333 CAMINO DEL RIO S SUITE 140, SAN DIEGO, CA, 92108","No_Match",NA,NA,NA,NA
129526,"2333 CANYON OAKS DRIVE 1205","ARLINGTON","TX",76011,32.7736567650001,-97.101015821,26,"2333 CANYON OAKS DRIVE 1205, ARLINGTON, TX, 76011","Match","Exact","2333 CANYON OAKS DR, ARLINGTON, TX, 76011",101873565,"R"
129527,"2333 CAPELLA CIRCLE","ATLANTA","GA",30331,33.6887525340001,-84.619395307,27,"2333 CAPELLA CIRCLE, ATLANTA, GA, 30331","Match","Exact","2333 CAPELLA CIR, ATLANTA, GA, 30331",637300680,"R"
129528,"2333 DESOTA DRIVE","FORT LAUDERDALE","FL",33301,26.1267496620001,-80.1144850489999,28,"2333 DESOTA DRIVE, FORT LAUDERDALE, FL, 33301","Match","Exact","2333 DESOTA DR, FORT LAUDERDALE, FL, 33301",114726279,"L"
129529,"2333 E PICO","FRESNO","CA",93726,36.80211666,-119.783222978,29,"2333 E PICO, FRESNO, CA, 93726","Match","Non_Exact","2333 E PICO AVE, FRESNO, CA, 93726",197612257,"L"
129530,"2333 EL DORADO DR SE","E GRAND RAPIDS","MI",49506,42.943832657,-85.61120124,30,"2333 EL DORADO DR SE, E GRAND RAPIDS, MI, 49506","Match","Exact","2333 EL DORADO DR SE, EAST GRAND RAPIDS, MI, 49506",12462730,"R"
129531,"2333 FEATHER SOUND DR UNIT A604","CLEARWATER","FL",33762,NA,NA,31,"2333 FEATHER SOUND DR UNIT A604, CLEARWATER, FL, 33762","No_Match",NA,NA,NA,NA
129532,"2333 FEATHER SOUND DRIVE","CLEARWATER","FL",33762,NA,NA,32,"2333 FEATHER SOUND DRIVE, CLEARWATER, FL, 33762","No_Match",NA,NA,NA,NA
129533,"2333 FIRST AVENUE UNIT 204","SAN DIEGO","CA",92101,32.729655677,-117.163919234,33,"2333 FIRST AVENUE UNIT 204, SAN DIEGO, CA, 92101","Match","Exact","2333 1ST AVE, SAN DIEGO, CA, 92101",195343174,"R"
129534,"2333 GREEN LEAF RD","DORCHESTER","IA",52140,43.4033255840001,-91.484248763,34,"2333 GREEN LEAF RD, DORCHESTER, IA, 52140","Match","Exact","2333 GREEN LEAF RD, DORCHESTER, IA, 52140",48230969,"R"
129535,"2333 HARRISON STREET","OAKLAND","CA",94612,37.811901408,-122.262052364,35,"2333 HARRISON STREET, OAKLAND, CA, 94612","Match","Exact","2333 HARRISON ST, OAKLAND, CA, 94612",125065756,"L"
129536,"2333 KAPIOLANI BLVD UNIT 817","HONOLULU","HI",96826,21.28804389,-157.828504551,36,"2333 KAPIOLANI BLVD UNIT 817, HONOLULU, HI, 96826","Match","Exact","2333 KAPIOLANI BLVD, HONOLULU, HI, 96826",651714443,"R"
129537,"2333 MERRILY CIRCLE S","SEFFNER","FL",33584,27.976675868,-82.2715142819999,37,"2333 MERRILY CIRCLE S, SEFFNER, FL, 33584","Match","Exact","2333 MERRILY CIR S, SEFFNER, FL, 33584",104601776,"L"
129538,"2333 N RAMSEY AVE","SPRINGFIELD","MO",65803,37.239393636,-93.273582144,38,"2333 N RAMSEY AVE, SPRINGFIELD, MO, 65803","Match","Exact","2333 N RAMSEY AVE, SPRINGFIELD, MO, 65803",76677630,"L"
129539,"2333 NW 158TH ST","EDMOND","OK",73013,35.631105415,-97.554691844,39,"2333 NW 158TH ST, EDMOND, OK, 73013","Match","Exact","2333 NW 158TH ST, EDMOND, OK, 73013",626348805,"L"
129540,"2333 SHELLFISH COURT","RICHMOND","VA",23294,37.630630382,-77.5534516119999,40,"2333 SHELLFISH COURT, RICHMOND, VA, 23294","Match","Exact","2333 SHELLFISH CT, RICHMOND, VA, 23294",106658780,"L"
129541,"2333 SOUTH 5TH STREET","SPRINGFIELD","IL",62703,39.7749348620001,-89.650022768,41,"2333 SOUTH 5TH STREET, SPRINGFIELD, IL, 62703","Match","Exact","2333 S 5TH ST, SPRINGFIELD, IL, 62703",638105974,"R"
129542,"2333 SOUTH HOYNE AVENUE","CHICAGO","IL",60608,41.8493817020001,-87.678211453,42,"2333 SOUTH HOYNE AVENUE, CHICAGO, IL, 60608","Match","Exact","2333 S HOYNE AVE, CHICAGO, IL, 60608",616886212,"L"
129543,"2333 SOUTH PATTERSON STREET","VALDOSTA","GA",31605,30.8028339850001,-83.250425627,43,"2333 SOUTH PATTERSON STREET, VALDOSTA, GA, 31605","Match","Non_Exact","2333 S PATTERSON ST, VALDOSTA, GA, 31601",622037006,"R"
129544,"2333 ST ANDREWS BLVD","PANAMA CITY","FL",32405,NA,NA,44,"2333 ST ANDREWS BLVD, PANAMA CITY, FL, 32405","No_Match",NA,NA,NA,NA
129545,"2333 STERLING POINTE","CHESTERFIELD","MO",63005,38.626102809,-90.587780972,45,"2333 STERLING POINTE, CHESTERFIELD, MO, 63005","Match","Non_Exact","2333 STERLING POINTE DR, CHESTERFIELD, MO, 63005",100170092,"L"
129546,"2333 SYCAMORE AVENUE SIDE 3","LOUISVILLE","KY",40206,38.2551677380001,-85.701804682,46,"2333 SYCAMORE AVENUE SIDE 3, LOUISVILLE, KY, 40206","Match","Exact","2333 SYCAMORE AVE, LOUISVILLE, KY, 40206",618498120,"L"
129547,"2333 TINSLEY","LAS VEGAS","NV",89134,36.203398362,-115.30188784,47,"2333 TINSLEY, LAS VEGAS, NV, 89134","Match","Non_Exact","2333 TINSLEY CT, LAS VEGAS, NV, 89134",201904503,"L"
129548,"2333 US HWY 641 S","MURRAY","KY",42071,36.6448047060001,-88.308392225,48,"2333 US HWY 641 S, MURRAY, KY, 42071","Match","Non_Exact","2333 US HWY 641, MURRAY, KY, 42071",642223643,"R"
129549,"2333 W DEVON AVE","CHICAGO","IL",60659,41.9977457050001,-87.688788195,49,"2333 W DEVON AVE, CHICAGO, IL, 60659","Match","Exact","2333 W DEVON AVE, CHICAGO, IL, 60659",111744823,"L"
129550,"2333 WISDOMS COURT","AVON","IN",46123,39.797062345,-86.370390212,50,"2333 WISDOMS COURT, AVON, IN, 46123","Match","Exact","2333 WISDOMS CT, AVON, IN, 46123",627838974,"R"
129551,"23331 DEL ROSSO ST","RICHMOND","TX",77406,29.6955695460001,-95.781109402,51,"23331 DEL ROSSO ST, RICHMOND, TX, 77406","Match","Exact","23331 DEL ROSSO ST, RICHMOND, TX, 77406",642953199,"R"
129552,"23331 N STATE ROAD 235","BROOKER","FL",32622,NA,NA,52,"23331 N STATE ROAD 235, BROOKER, FL, 32622","No_Match",NA,NA,NA,NA
129553,"23332 HAWTHORNE BLVD SUITE 102","TORRANCE","CA",90505,33.814428439,-118.350987194,53,"23332 HAWTHORNE BLVD SUITE 102, TORRANCE, CA, 90505","Match","Exact","23332 HAWTHORNE BLVD, TORRANCE, CA, 90505",241243198,"L"
129554,"23332 ROBIN SONG DRIVE","CLARKSBURG","MD",20871,39.241904172,-77.264248343,54,"23332 ROBIN SONG DRIVE, CLARKSBURG, MD, 20871","Match","Exact","23332 ROBIN SONG DR, CLARKSBURG, MD, 20871",618603976,"L"
129555,"23333 WILLOWBROOK","NOVI","MI",48375,42.460963931,-83.4446513619999,55,"23333 WILLOWBROOK, NOVI, MI, 48375","Match","Exact","23333 WILLOWBROOK, NOVI, MI, 48375",69723719,"L"
129556,"23334 HAYNES STREET","FARMINGTON HILLS","MI",48336,42.4634869180001,-83.349846172,56,"23334 HAYNES STREET, FARMINGTON HILLS, MI, 48336","Match","Exact","23334 HAYNES ST, FARMINGTON HILLS, MI, 48336",69730776,"R"
129557,"23335 DUNHILL CT","KATY","TX",77494,29.7393628360001,-95.7710011349999,57,"23335 DUNHILL CT, KATY, TX, 77494","Match","Exact","23335 DUNHILL CT, KATY, TX, 77494",78323001,"L"
129558,"23335 N 18TH DRIVE  SUITE 136","PHOENIX","AZ",85027,33.697499608,-112.098173642,58,"23335 N 18TH DRIVE  SUITE 136, PHOENIX, AZ, 85027","Match","Non_Exact","23335 N 18TH DR, PHOENIX, AZ, 85027",646789770,"R"
129559,"23336 N 120TH LANE","SUN CITY","AZ",85373,33.6963750630001,-112.320445407,59,"23336 N 120TH LANE, SUN CITY, AZ, 85373","Match","Exact","23336 N 120TH LN, SUN CITY, AZ, 85373",243993419,"L"
129560,"23339 HWY 14","RICHLAND CENTER","WI",53581,NA,NA,60,"23339 HWY 14, RICHLAND CENTER, WI, 53581","No_Match",NA,NA,NA,NA
129561,"23339 STATE HIGHWAY B","WESTBORO","MO",64498,NA,NA,61,"23339 STATE HIGHWAY B, WESTBORO, MO, 64498","No_Match",NA,NA,NA,NA
129562,"2334 BELLEVIEW AVE","CHEVERLY","MD",20785,38.9202913080001,-76.9158156519999,62,"2334 BELLEVIEW AVE, CHEVERLY, MD, 20785","Match","Exact","2334 BELLEVIEW AVE, CHEVERLY, MD, 20785",76307600,"L"
129563,"2334 BELT RD","KNOXVILLE","TN",37920,35.9135868870001,-83.9463117459999,63,"2334 BELT RD, KNOXVILLE, TN, 37920","Match","Exact","2334 BELT RD, KNOXVILLE, TN, 37920",42624232,"L"
129564,"2334 BURDETTE ROAD","GRANDVIEW","TN",37337,35.7596507650001,-84.868748392,64,"2334 BURDETTE ROAD, GRANDVIEW, TN, 37337","Match","Exact","2334 BURDETTE RD, GRANDVIEW, TN, 37337",612095853,"R"
129565,"2334 E EL SEGUNDO BLVD","COMPTON","CA",90222,33.916211182,-118.23003391,65,"2334 E EL SEGUNDO BLVD, COMPTON, CA, 90222","Match","Exact","2334 E EL SEGUNDO BLVD, COMPTON, CA, 90222",142762699,"R"
129566,"2334 HERMAN STREET","NASHVILLE","TN",37208,36.162197076,-86.811285964,66,"2334 HERMAN STREET, NASHVILLE, TN, 37208","Match","Exact","2334 HERMAN ST, NASHVILLE, TN, 37208",97185109,"R"
129567,"2334 HOSP WAY UNIT 110","CARLSBAD","CA",92008,33.1752046390001,-117.327657351,67,"2334 HOSP WAY UNIT 110, CARLSBAD, CA, 92008","Match","Exact","2334 HOSP WAY, CARLSBAD, CA, 92008",195723030,"L"
129568,"2334 LOCKPORT ROAD","SANBORN","NY",14132,43.121389584,-78.921474234,68,"2334 LOCKPORT ROAD, SANBORN, NY, 14132","Match","Exact","2334 LOCKPORT RD, SANBORN, NY, 14132",605134713,"R"
129569,"2334 MALAYA CT","PUNTA GORDA","FL",33983,26.993026727,-82.018205564,69,"2334 MALAYA CT, PUNTA GORDA, FL, 33983","Match","Exact","2334 MALAYA CT, PUNTA GORDA, FL, 33983",4309214,"L"
129570,"2334 OAKLAND AVENUE","INDIANA","PA",15701,40.6069818030001,-79.181573379,70,"2334 OAKLAND AVENUE, INDIANA, PA, 15701","Match","Exact","2334 OAKLAND AVE, INDIANA, PA, 15701",636375284,"L"
129571,"2334 PATTERSON ST","PITTSBURGH","PA",15203,40.419419498,-79.973563425,71,"2334 PATTERSON ST, PITTSBURGH, PA, 15203","Match","Exact","2334 PATTERSON ST, PITTSBURGH, PA, 15203",51649351,"R"
129572,"2334 PLEASANT DRIVE","DALLAS","TX",75227,32.7523847780001,-96.678548135,72,"2334 PLEASANT DRIVE, DALLAS, TX, 75227","Match","Exact","2334 PLEASANT DR, DALLAS, TX, 75227",103195845,"R"
129573,"2334 S OAKLEY AVE APT3","CHICAGO","IL",60608,41.8491794280001,-87.683119778,73,"2334 S OAKLEY AVE APT3, CHICAGO, IL, 60608","Match","Non_Exact","2334 S OAKLEY AVE, CHICAGO, IL, 60608",605041748,"R"
129574,"2334 S RICHMAN CIRCLE","NEW PALESTINE","IN",46163,39.751945597,-85.9163505349999,74,"2334 S RICHMAN CIRCLE, NEW PALESTINE, IN, 46163","Match","Exact","2334 S RICHMAN CIR, NEW PALESTINE, IN, 46163",31089255,"R"
129575,"2334 SW 67TH AVE","MIAMI","FL",33165,NA,NA,75,"2334 SW 67TH AVE, MIAMI, FL, 33165","No_Match",NA,NA,NA,NA
129576,"2334 WESTON ROAD SUITE 109","WESTON","FL",33326,26.0888796830001,-80.371807458,76,"2334 WESTON ROAD SUITE 109, WESTON, FL, 33326","Match","Exact","2334 WESTON RD, WESTON, FL, 33326",114698488,"R"
129577,"2334-56 WILDER STREET","PHILADELPHIA","PA",19145,39.934103803,-75.183321383,77,"2334-56 WILDER STREET, PHILADELPHIA, PA, 19145","Match","Non_Exact","2334 WILDER ST, PHILADELPHIA, PA, 19146",131410756,"L"
129578,"23340 BREWERS TAVERN WAY","CLARKSBURG","MD",20871,39.2388017500001,-77.27474928,78,"23340 BREWERS TAVERN WAY, CLARKSBURG, MD, 20871","Match","Exact","23340 BREWERS TAVERN WAY, CLARKSBURG, MD, 20871",624636150,"L"
129579,"23343 SW 54TH WAY APT A","BOCA RATON","FL",33433,26.3306243550001,-80.184223796,79,"23343 SW 54TH WAY APT A, BOCA RATON, FL, 33433","Match","Non_Exact","23343 SW 54TH WAY, BOCA RATON, FL, 33433",115502311,"R"
129580,"23343 W  ASHLEIGH MARIE DR","BUCKEYE","AZ",85326,33.4303775880001,-112.552963685,80,"23343 W  ASHLEIGH MARIE DR, BUCKEYE, AZ, 85326","Match","Exact","23343 W ASHLEIGH MARIE DR, BUCKEYE, AZ, 85326",627277514,"R"
129581,"23343 WELBY WAY","WEST HILLS","CA",91307,34.1926446580001,-118.635892061,81,"23343 WELBY WAY, WEST HILLS, CA, 91307","Match","Exact","23343 WELBY WAY, WEST HILLS, CA, 91307",141723060,"R"
129582,"23345 CAMINITO LAZARO","LAGUNA HILLS","CA",92653,NA,NA,82,"23345 CAMINITO LAZARO, LAGUNA HILLS, CA, 92653","No_Match",NA,NA,NA,NA
129583,"23345 GREENWOOD TRAIL","BULLARD","TX",75757,32.141860267,-95.442791755,83,"23345 GREENWOOD TRAIL, BULLARD, TX, 75757","Match","Exact","23345 GREENWOOD TRL, BULLARD, TX, 75757",141290411,"R"
129584,"23347 CLAY ROAD","KATY","TX",77493,NA,NA,84,"23347 CLAY ROAD, KATY, TX, 77493","No_Match",NA,NA,NA,NA
129585,"23347 DODD RD","LE CENTER","MN",56057,44.341407304,-93.7329324299999,85,"23347 DODD RD, LE CENTER, MN, 56057","Match","Exact","23347 DODD RD, LE CENTER, MN, 56057",28652055,"L"
129586,"23347 DODD ROAD","LE CENTER","MN",56057,44.341407304,-93.7329324299999,86,"23347 DODD ROAD, LE CENTER, MN, 56057","Match","Exact","23347 DODD RD, LE CENTER, MN, 56057",28652055,"L"
129587,"23348 W WATKINS RD","BUCKEYE","AZ",85326,33.425702244,-112.552796714,87,"23348 W WATKINS RD, BUCKEYE, AZ, 85326","Match","Non_Exact","23348 W WATKINS ST, BUCKEYE, AZ, 85326",640591690,"R"
129588,"2335 19TH STREET","MOLINE","IL",61265,41.489733717,-90.5045570409999,88,"2335 19TH STREET, MOLINE, IL, 61265","Match","Exact","2335 19TH ST, MOLINE, IL, 61265",9213184,"R"
129589,"2335 BROKEN OAK ROAD","FORT WAYNE","IN",46818,41.1797449590001,-85.173735811,89,"2335 BROKEN OAK ROAD, FORT WAYNE, IN, 46818","Match","Exact","2335 BROKEN OAK RD, FORT WAYNE, IN, 46818",6398314,"L"
129590,"2335 BUTTERMILK CROSSING SUITE 199","CRESCENT SPRINGS","KY",41011,NA,NA,90,"2335 BUTTERMILK CROSSING SUITE 199, CRESCENT SPRINGS, KY, 41011","No_Match",NA,NA,NA,NA
129591,"2335 CHESHIRE BRIDGE RD NE","ATLANTA","GA",30324,33.8189000150001,-84.35146775,91,"2335 CHESHIRE BRIDGE RD NE, ATLANTA, GA, 30324","Match","Non_Exact","2335 CHESHIRE BRIDGE RD, ATLANTA, GA, 30324",17356455,"R"
129592,"2335 COLLIN DRIVE","GRAND PRAIRIE","TX",75052,32.644904449,-97.039153497,92,"2335 COLLIN DRIVE, GRAND PRAIRIE, TX, 75052","Match","Exact","2335 COLLIN DR, GRAND PRAIRIE, TX, 75052",617671240,"L"
129593,"2335 COUNTY ROAD 23","WATERLOO","IN",46793,41.445350251,-85.079321584,93,"2335 COUNTY ROAD 23, WATERLOO, IN, 46793","Match","Exact","2335 CO RD 23, WATERLOO, IN, 46793",6513165,"R"
129594,"2335 COUNTY ROUTE 41","ROXBURY","NY",12474,42.2838990450001,-74.566209321,94,"2335 COUNTY ROUTE 41, ROXBURY, NY, 12474","Match","Non_Exact","2335 CO RD 41, ROXBURY, NY, 12474",41565725,"R"
129595,"2335 CROTONA AVE NUM 5F","BRONX","NY",10458,40.852669796,-73.884260533,95,"2335 CROTONA AVE NUM 5F, BRONX, NY, 10458","Match","Exact","2335 CROTONA AVE, BRONX, NY, 10458",80301614,"L"
129596,"2335 E COLORADO BLVD SUITE 115","PASADENA","CA",91107,34.146092158,-118.10218561,96,"2335 E COLORADO BLVD SUITE 115, PASADENA, CA, 91107","Match","Non_Exact","2335 E COLORADO BLVD, PASADENA, CA, 91107",141633179,"L"
129597,"2335 GAYLORD DRIVE","SUITLAND","MD",20746,38.8592582310001,-76.9301971949999,97,"2335 GAYLORD DRIVE, SUITLAND, MD, 20746","Match","Exact","2335 GAYLORD DR, SUITLAND, MD, 20746",76313999,"R"
129598,"2335 HOLLAND AVE","BRONX","NY",10467,40.860233727,-73.865569222,98,"2335 HOLLAND AVE, BRONX, NY, 10467","Match","Exact","2335 HOLLAND AVE, BRONX, NY, 10467",80303466,"L"
129599,"2335 JENNAS WAY SE","CONYERS","GA",30013,33.623957789,-83.985206899,99,"2335 JENNAS WAY SE, CONYERS, GA, 30013","Match","Exact","2335 JENNAS WAY SE, CONYERS, GA, 30013",23748388,"L"
129600,"2335 KALAKAUA AVE SUITE 110-234","HONOLULU","HI",96815,21.2775995440001,-157.827252068,100,"2335 KALAKAUA AVE SUITE 110-234, HONOLULU, HI, 96815","Match","Exact","2335 KALAKAUA AVE, HONOLULU, HI, 96815",203241910,"R"
129601,"2335 KALAKAUA AVE","HONOLULU","HI",96815,21.2775995440001,-157.827252068,101,"2335 KALAKAUA AVE, HONOLULU, HI, 96815","Match","Exact","2335 KALAKAUA AVE, HONOLULU, HI, 96815",203241910,"R"
129602,"2335 LAUGHLIN DR","DALLAS","TX",75228,32.7979658100001,-96.716963327,102,"2335 LAUGHLIN DR, DALLAS, TX, 75228","Match","Exact","2335 LAUGHLIN DR, DALLAS, TX, 75228",103199787,"L"
129603,"2335 LYDE PLACE","SCOTCH PLAINS","NJ",7076,40.6598380470001,-74.38902806,103,"2335 LYDE PLACE, SCOTCH PLAINS, NJ, 7076","Match","Exact","2335 LYDE PL, SCOTCH PLAINS, NJ, 07076",60565956,"L"
129604,"2335 MAPLE ST","HOLLISTER","MO",65672,36.6106487770001,-93.2197427739999,104,"2335 MAPLE ST, HOLLISTER, MO, 65672","Match","Exact","2335 MAPLE ST, HOLLISTER, MO, 65672",20175090,"L"
129605,"2335 MISTLETOE AVE","FORT WORTH","TX",76110,32.728832504,-97.3532862549999,105,"2335 MISTLETOE AVE, FORT WORTH, TX, 76110","Match","Exact","2335 MISTLETOE AVE, FORT WORTH, TX, 76110",101885317,"L"
129606,"2335 N CLARK STREET","PORTLAND","OR",97227,45.5397599720001,-122.676503576,106,"2335 N CLARK STREET, PORTLAND, OR, 97227","Match","Non_Exact","2335 N CLARK AVE, PORTLAND, OR, 97227",157603222,"L"
129607,"2335 N LINCOLN AVE APT 501","CHICAGO","IL",60614,41.924018974,-87.6467500799999,107,"2335 N LINCOLN AVE APT 501, CHICAGO, IL, 60614","Match","Non_Exact","2335 N LINCOLN AVE, CHICAGO, IL, 60614",111888458,"R"
129608,"2335 NORTH CLARK AVE","PORTLAND","OR",97227,45.5397656170001,-122.676497445,108,"2335 NORTH CLARK AVE, PORTLAND, OR, 97227","Match","Exact","2335 N CLARK AVE, PORTLAND, OR, 97227",157603222,"L"
129609,"2335 NORTH M STREET","TULARE","CA",93274,36.2356158960001,-119.345363759,109,"2335 NORTH M STREET, TULARE, CA, 93274","Match","Exact","2335 N M ST, TULARE, CA, 93274",607539114,"L"
129610,"2335 NORTH MAIN STREET","GIDDINGS","TX",78942,30.2015538970001,-96.929927681,110,"2335 NORTH MAIN STREET, GIDDINGS, TX, 78942","Match","Exact","2335 N MAIN ST, GIDDINGS, TX, 78942",39138686,"L"
129611,"2335 NW 107 AVE BOX 100","MIAMI","FL",33172,25.7955764810001,-80.369052535,111,"2335 NW 107 AVE BOX 100, MIAMI, FL, 33172","Match","Non_Exact","2335 NW 107TH AVE, MIAMI, FL, 33172",115969522,"R"
129612,"2335 OXBOW CT","CASTLE ROCK","CO",80104,39.310486917,-104.842624379,112,"2335 OXBOW CT, CASTLE ROCK, CO, 80104","Match","Exact","2335 OXBOW CT, CASTLE ROCK, CO, 80104",130842092,"R"
129613,"2335 PARK AVE APT 6","CINCINNATI","OH",45206,39.1237016640001,-84.486438898,113,"2335 PARK AVE APT 6, CINCINNATI, OH, 45206","Match","Exact","2335 PARK AVE, CINCINNATI, OH, 45206",103926443,"L"
129614,"2335 PEPPER TREE LN","MANTECA","CA",95336,37.829963155,-121.240189851,114,"2335 PEPPER TREE LN, MANTECA, CA, 95336","Match","Exact","2335 PEPPER TREE LN, MANTECA, CA, 95336",624473551,"L"
129615,"2335 S BERKELEY STREET","SALT LAKE CITY","UT",84109,40.7201446970001,-111.827014085,115,"2335 S BERKELEY STREET, SALT LAKE CITY, UT, 84109","Match","Non_Exact","2335 E BERKELEY ST, SALT LAKE CITY, UT, 84109",176082227,"L"
129616,"2335 SAINT FRANCIS WAY","SAN CARLOS","CA",94070,37.4859704200001,-122.257432455,116,"2335 SAINT FRANCIS WAY, SAN CARLOS, CA, 94070","Match","Exact","2335 SAINT FRANCIS WAY, SAN CARLOS, CA, 94070",192385525,"L"
129617,"2335 SCOTTWOOD AVENUE","TOLEDO","OH",43620,41.6672298500001,-83.559224672,117,"2335 SCOTTWOOD AVENUE, TOLEDO, OH, 43620","Match","Exact","2335 SCOTTWOOD AVE, TOLEDO, OH, 43620",33938489,"L"
129618,"2335 SECOND STREET","CUYAHOGA FALLS","OH",44221,41.13913161,-81.48307219,118,"2335 SECOND STREET, CUYAHOGA FALLS, OH, 44221","Match","Exact","2335 2ND ST, CUYAHOGA FALLS, OH, 44221",638833505,"R"
129619,"2335 SHIPROCK WAY","COLORADO SPRINGS","CO",80919,38.9508178900001,-104.861709522,119,"2335 SHIPROCK WAY, COLORADO SPRINGS, CO, 80919","Match","Exact","2335 SHIPROCK WAY, COLORADO SPRINGS, CO, 80919",105549303,"R"
129620,"2335 SW 35 PLACE APT 31","GAINESVILLE","FL",32608,NA,NA,120,"2335 SW 35 PLACE APT 31, GAINESVILLE, FL, 32608","No_Match",NA,NA,NA,NA
129621,"2335 VIRGINIA PL NE","ATLANTA","GA",30305,33.818485229,-84.3805238749999,121,"2335 VIRGINIA PL NE, ATLANTA, GA, 30305","Match","Exact","2335 VIRGINIA PL NE, ATLANTA, GA, 30305",653484936,"R"
129622,"2335 W ALTGELD STREET","CHICAGO","IL",60647,41.9264332590001,-87.686610806,122,"2335 W ALTGELD STREET, CHICAGO, IL, 60647","Match","Exact","2335 W ALTGELD ST, CHICAGO, IL, 60647",616797852,"L"
129623,"2335 W APPLEWOOD LN","MILWAUKEE","WI",53209,43.1540349690001,-87.938472669,123,"2335 W APPLEWOOD LN, MILWAUKEE, WI, 53209","Match","Exact","2335 W APPLEWOOD LN, MILWAUKEE, WI, 53209",77735295,"L"
129624,"2335 WEST CASE RD","COLUMBUS","OH",43235,40.0731573890001,-83.079438711,124,"2335 WEST CASE RD, COLUMBUS, OH, 43235","Match","Exact","2335 W CASE RD, COLUMBUS, OH, 43235",641700841,"L"
129625,"23350 HOOVER BAULT RD","RAYMOND","OH",43067,40.3572819730001,-83.500457032,125,"23350 HOOVER BAULT RD, RAYMOND, OH, 43067","Match","Exact","23350 HOOVER BAULT RD, RAYMOND, OH, 43067",135332663,"R"
129626,"23350 LAKE MANOR DR","CHATSWORTH","CA",91311,34.238182443,-118.635568353,126,"23350 LAKE MANOR DR, CHATSWORTH, CA, 91311","Match","Exact","23350 LAKE MANOR DR, CHATSWORTH, CA, 91311",141720685,"R"
129627,"23350 LOCUST GROVE RD","CREOLA","OH",45622,39.38402245,-82.511574254,127,"23350 LOCUST GROVE RD, CREOLA, OH, 45622","Match","Exact","23350 LOCUST GROVE RD, CREOLA, OH, 45622",37614131,"R"
129628,"23350 STANFORD RD","BEACHWOOD","OH",44122,41.4803666490001,-81.514668007,128,"23350 STANFORD RD, BEACHWOOD, OH, 44122","Match","Exact","23350 STANFORD RD, BEACHWOOD, OH, 44122",61134203,"R"
129629,"23355 GOLDEN SPRINGS DRIVE","DIAMOND BAR","CA",91765,34.017077875,-117.811104038,129,"23355 GOLDEN SPRINGS DRIVE, DIAMOND BAR, CA, 91765","Match","Exact","23355 GOLDEN SPRINGS DR, DIAMOND BAR, CA, 91765",142790329,"L"
129630,"23356 MIRABELLA CIRCLE S","BOCA RATON","FL",33433,26.3292670490001,-80.162253898,130,"23356 MIRABELLA CIRCLE S, BOCA RATON, FL, 33433","Match","Exact","23356 MIRABELLA CIR S, BOCA RATON, FL, 33433",648315933,"R"
129631,"23357 PICO AVENUE","NUEVO","CA",92567,33.7824836550001,-117.165077768,131,"23357 PICO AVENUE, NUEVO, CA, 92567","Match","Exact","23357 PICO AVE, NUEVO, CA, 92567",194801884,"L"
129632,"2336 15TH AVE S","SEATTLE","WA",98144,47.5825192350001,-122.313387979,132,"2336 15TH AVE S, SEATTLE, WA, 98144","Match","Exact","2336 15TH AVE S, SEATTLE, WA, 98144",186593556,"L"
129633,"2336 ASH GROVE TRL","FORT WORTH","TX",76112,32.7447643530001,-97.183014051,133,"2336 ASH GROVE TRL, FORT WORTH, TX, 76112","Match","Exact","2336 ASH GROVE TRL, FORT WORTH, TX, 76112",619871880,"R"
129634,"2336 CRENSHAW BLVD APT 202","LOS ANGELES","CA",90016,34.036289633,-118.333033111,134,"2336 CRENSHAW BLVD APT 202, LOS ANGELES, CA, 90016","Match","Exact","2336 CRENSHAW BLVD, LOS ANGELES, CA, 90016",638619177,"L"
129635,"2336 HACKAMORE DRIVE","COLLEGE PARK","GA",30349,33.5808594440001,-84.467463778,135,"2336 HACKAMORE DRIVE, COLLEGE PARK, GA, 30349","Match","Exact","2336 HACKAMORE DR, COLLEGE PARK, GA, 30349",624809884,"L"
129636,"2336 HOLT AVENUE","COLUMBUS","OH",43219,39.9998243220001,-82.944263098,136,"2336 HOLT AVENUE, COLUMBUS, OH, 43219","Match","Exact","2336 HOLT AVE, COLUMBUS, OH, 43219",218653171,"L"
129637,"2336 JACKSON ST","HOUSTON","TX",77004,29.7428763940001,-95.3671758569999,137,"2336 JACKSON ST, HOUSTON, TX, 77004","Match","Exact","2336 JACKSON ST, HOUSTON, TX, 77004",96071511,"R"
129638,"2336 JOHN MCMILLIAN ROAD","HOPE MILLS","NC",28348,34.8983628010001,-78.895709283,138,"2336 JOHN MCMILLIAN ROAD, HOPE MILLS, NC, 28348","Match","Non_Exact","2336 JOHN MCMILLAN RD, HOPE MILLS, NC, 28348",64259375,"R"
129639,"2336 LIBERTY STREET","JACKSONVILLE","FL",32206,30.3514926060001,-81.6490616689999,139,"2336 LIBERTY STREET, JACKSONVILLE, FL, 32206","Match","Non_Exact","2336 N LIBERTY ST, JACKSONVILLE, FL, 32206",645471326,"L"
129640,"2336 LINDEN HILL RD","BLOOMINGTON","IN",47401,NA,NA,140,"2336 LINDEN HILL RD, BLOOMINGTON, IN, 47401","No_Match",NA,NA,NA,NA
129641,"2336 MIRACLE LANE","MISHAWAKA","IN",46565,41.6827706400001,-86.195515418,141,"2336 MIRACLE LANE, MISHAWAKA, IN, 46565","Match","Non_Exact","2336 MIRACLE LN, MISHAWAKA, IN, 46545",8072618,"L"
129642,"2336 NE 11TH AVE","PORTLAND","OR",97212,45.5393540270001,-122.654505351,142,"2336 NE 11TH AVE, PORTLAND, OR, 97212","Match","Non_Exact","2336 NE 11TH AVE, PORTLAND, OR, 97212",157505057,"R"
129643,"2336 NE RUSTIC PL","JENSEN BEACH","FL",34957,27.2283170800001,-80.2218623489999,143,"2336 NE RUSTIC PL, JENSEN BEACH, FL, 34957","Match","Exact","2336 NE RUSTIC PL, JENSEN BEACH, FL, 34957",120435711,"L"
129644,"2336 NW 16TH STREET","FORT LAUDERDALE","FL",33311,26.146043804,-80.172515182,144,"2336 NW 16TH STREET, FORT LAUDERDALE, FL, 33311","Match","Non_Exact","2336 NW 16TH ST, FORT LAUDERDALE, FL, 33311",114720277,"L"
129645,"2336 ORCHID HILL PLACE","NEWPORT BEACH","CA",92660,33.654185533,-117.875099709,145,"2336 ORCHID HILL PLACE, NEWPORT BEACH, CA, 92660","Match","Exact","2336 ORCHID HILL PL, NEWPORT BEACH, CA, 92660",144049245,"R"
129646,"2336 SW FEATHER RIDGE RD","LEES SUMMIT","MO",64082,38.878657923,-94.424491009,146,"2336 SW FEATHER RIDGE RD, LEES SUMMIT, MO, 64082","Match","Exact","2336 SW FEATHER RIDGE RD, LEES SUMMIT, MO, 64082",91520133,"L"
129647,"2336 TURNBERRY LANE","FORT WAYNE","IN",46814,41.065010064,-85.28961893,147,"2336 TURNBERRY LANE, FORT WAYNE, IN, 46814","Match","Exact","2336 TURNBERRY LN, FORT WAYNE, IN, 46814",6392736,"R"
129648,"23360 PRESCOTT","MORENO VALLEY","CA",92557,33.9750767570001,-117.255665866,148,"23360 PRESCOTT, MORENO VALLEY, CA, 92557","Match","Exact","23360 PRESCOTT, MORENO VALLEY, CA, 92557",194820116,"L"
129649,"23360 VANCE AVE","HAZEL PARK","MI",48030,42.4647110340001,-83.0874408559999,149,"23360 VANCE AVE, HAZEL PARK, MI, 48030","Match","Exact","23360 VANCE AVE, HAZEL PARK, MI, 48030",69748480,"R"
129650,"23361 EL TORO ROAD STE 215","LAKE FOREST","CA",92630,NA,NA,150,"23361 EL TORO ROAD STE 215, LAKE FOREST, CA, 92630","No_Match",NA,NA,NA,NA
129651,"23363","PROVIDENCE","RI",2903,NA,NA,151,"23363, PROVIDENCE, RI, 2903","No_Match",NA,NA,NA,NA
129652,"23367 290TH ST","DEDHAM","IA",51440,41.934769923,-94.829285818,152,"23367 290TH ST, DEDHAM, IA, 51440","Match","Exact","23367 290TH ST, DEDHAM, IA, 51440",68633087,"L"
129653,"2337 BELLEAIR ROAD STE B","CLEARWATER","FL",33764,NA,NA,153,"2337 BELLEAIR ROAD STE B, CLEARWATER, FL, 33764","No_Match",NA,NA,NA,NA
129654,"2337 BELLEVUE STREET","SAGINAW","MI",48601,43.3985729460001,-83.910242658,154,"2337 BELLEVUE STREET, SAGINAW, MI, 48601","Match","Exact","2337 BELLEVUE ST, SAGINAW, MI, 48601",80216637,"L"
129655,"2337 E HOQUIAM ROAD","HOQUIAM","WA",98550,47.074040569,-123.818350743,155,"2337 E HOQUIAM ROAD, HOQUIAM, WA, 98550","Match","Exact","2337 E HOQUIAM RD, HOQUIAM, WA, 98550",180638891,"L"
129656,"2337 FULLERTON RD","ROWLAND HEIGHTS","CA",91748,33.9775559120001,-117.909119577,156,"2337 FULLERTON RD, ROWLAND HEIGHTS, CA, 91748","Match","Exact","2337 FULLERTON RD, ROWLAND HEIGHTS, CA, 91748",653209773,"R"
129657,"2337 GILPIN AVENUE","COLORADO SPRINGS","CO",80910,38.8093955470001,-104.783876397,157,"2337 GILPIN AVENUE, COLORADO SPRINGS, CO, 80910","Match","Exact","2337 GILPIN AVE, COLORADO SPRINGS, CO, 80910",610740863,"L"
129658,"2337 GREEN STREET SE APT 2","WASHINGTON","DC",20020,38.8614862920001,-76.9812637859999,158,"2337 GREEN STREET SE APT 2, WASHINGTON, DC, 20020","Match","Exact","2337 GREEN ST SE, WASHINGTON, DC, 20020",76231223,"R"
129659,"2337 HICKORY CT","AUBURN","MI",48611,43.6107965840001,-84.142092694,159,"2337 HICKORY CT, AUBURN, MI, 48611","Match","Exact","2337 HICKORY CT, AUBURN, MI, 48611",648845699,"R"
129660,"2337 HIGH COUNTRY WAY","PLANO","TX",75025,33.093742251,-96.735987175,160,"2337 HIGH COUNTRY WAY, PLANO, TX, 75025","Match","Exact","2337 HIGH COUNTRY WAY, PLANO, TX, 75025",123547976,"L"
129661,"2337 HUDSON TERRACE APT C10","FORT LEE","NJ",7024,40.8606837580001,-73.959730018,161,"2337 HUDSON TERRACE APT C10, FORT LEE, NJ, 7024","Match","Exact","2337 HUDSON TER, FORT LEE, NJ, 07024",64390495,"L"
129662,"2337 N CLEVELAND STREET","PHILADELPHIA","PA",19132,39.989361704,-75.162693195,162,"2337 N CLEVELAND STREET, PHILADELPHIA, PA, 19132","Match","Exact","2337 N CLEVELAND ST, PHILADELPHIA, PA, 19132",131402901,"R"
129663,"2337 OAKMONT DR","BEDFORD","TX",76022,32.8276168850001,-97.129051867,163,"2337 OAKMONT DR, BEDFORD, TX, 76022","Match","Exact","2337 OAKMONT DR, BEDFORD, TX, 76022",101871295,"L"
129664,"2337 POLE AVE","LORAIN","OH",44052,41.448905477,-82.1934850919999,164,"2337 POLE AVE, LORAIN, OH, 44052","Match","Exact","2337 POLE AVE, LORAIN, OH, 44052",55426990,"L"
129665,"2337 ROOKERY DRIVE SW","BRAINERD","MN",56401,46.3827407960001,-94.404237853,165,"2337 ROOKERY DRIVE SW, BRAINERD, MN, 56401","Match","Exact","2337 ROOKERY DR SW, BRAINERD, MN, 56401",612349060,"L"
129666,"2337 SE GRAND DR","PORT ST LUCIE","FL",34952,27.286902432,-80.279857626,166,"2337 SE GRAND DR, PORT ST LUCIE, FL, 34952","Match","Exact","2337 SE GRAND DR, PORT ST LUCIE, FL, 34952",120155488,"L"
129667,"2337 STONEFIELD DR","FLUSHING","MI",48433,43.0390234830001,-83.8038891159999,167,"2337 STONEFIELD DR, FLUSHING, MI, 48433","Match","Non_Exact","2337 STONE FIELD DR, FLUSHING, MI, 48433",617946701,"R"
129668,"2337 SW ARCHER RD APT 3012","GAINESVILLE","FL",32608,29.6343184150001,-82.356702276,168,"2337 SW ARCHER RD APT 3012, GAINESVILLE, FL, 32608","Match","Exact","2337 ARCHER RD, GAINESVILLE, FL, 32608",638468095,"L"
129669,"2337 WATSON MARSHALL ROAD","MCDONALD","OH",44437,41.1544991530001,-80.735347903,169,"2337 WATSON MARSHALL ROAD, MCDONALD, OH, 44437","Match","Non_Exact","2337 WATSON MARSHALL RD, MC DONALD, OH, 44437",636567611,"R"
129670,"23371 MULHOLLAND DR 367","WOODLAND HILLS","CA",91364,34.157591758,-118.635370083,170,"23371 MULHOLLAND DR 367, WOODLAND HILLS, CA, 91364","Match","Exact","23371 MULHOLLAND DR, WOODLAND HILLS, CA, 91364",638406454,"R"
129671,"23371 MULHOLLAND DR STE 260","WOODLAND HILLS","CA",91364,34.157591758,-118.635370083,171,"23371 MULHOLLAND DR STE 260, WOODLAND HILLS, CA, 91364","Match","Exact","23371 MULHOLLAND DR, WOODLAND HILLS, CA, 91364",638406454,"R"
129672,"23371 MULHOLLAND DRIVE  SUITE 270","WOODLAND HILLS","CA",91364,34.157591758,-118.635370083,172,"23371 MULHOLLAND DRIVE  SUITE 270, WOODLAND HILLS, CA, 91364","Match","Exact","23371 MULHOLLAND DR, WOODLAND HILLS, CA, 91364",638406454,"R"
129673,"23371 MULHOLLAND DRIVE STE 367","WOODLAND HILLS","CA",91364,34.157591758,-118.635370083,173,"23371 MULHOLLAND DRIVE STE 367, WOODLAND HILLS, CA, 91364","Match","Exact","23371 MULHOLLAND DR, WOODLAND HILLS, CA, 91364",638406454,"R"
129674,"23371 MULHOLLAND DRIVE UNIT 359","WOODLAND HILLS","CA",91364,34.157591758,-118.635370083,174,"23371 MULHOLLAND DRIVE UNIT 359, WOODLAND HILLS, CA, 91364","Match","Exact","23371 MULHOLLAND DR, WOODLAND HILLS, CA, 91364",638406454,"R"
129675,"23372 VIA CHIRIPA","MISSION VIEJO","CA",92691,33.622988978,-117.653167077,175,"23372 VIA CHIRIPA, MISSION VIEJO, CA, 92691","Match","Exact","23372 VIA CHIRIPA, MISSION VIEJO, CA, 92691",144066507,"L"
129676,"23374 BALMORAL LANE","WEST HILLS","CA",91307,34.19972933,-118.635586949,176,"23374 BALMORAL LANE, WEST HILLS, CA, 91307","Match","Exact","23374 BALMORAL LN, WEST HILLS, CA, 91307",142049831,"L"
129677,"23374 W YUMA RD 102","BUCKEYE","AZ",85326,33.43559972,-112.553414114,177,"23374 W YUMA RD 102, BUCKEYE, AZ, 85326","Match","Non_Exact","23374 W YUMA RD, BUCKEYE, AZ, 85326",128894586,"L"
129678,"23376 E 5TH PL UNIT 204","AURORA","CO",80018,39.7245278340001,-104.71525185,178,"23376 E 5TH PL UNIT 204, AURORA, CO, 80018","Match","Non_Exact","23376 E 5TH PL, AURORA, CO, 80018",633260554,"R"
129679,"23376 NEW MOUNTAIN ROAD","ALDIE","VA",20105,38.97145677,-77.635784219,179,"23376 NEW MOUNTAIN ROAD, ALDIE, VA, 20105","Match","Exact","23376 NEW MOUNTAIN RD, ALDIE, VA, 20105",62361651,"R"
129680,"23377 W CHARDON RD","GRAYSLAKE","IL",60030,42.3040950480001,-88.086809558,180,"23377 W CHARDON RD, GRAYSLAKE, IL, 60030","Match","Exact","23377 W CHARDON RD, GRAYSLAKE, IL, 60030",119725718,"R"
129681,"2338 19TH AVENUE","OAKLAND","CA",94606,37.793270815,-122.23444712,181,"2338 19TH AVENUE, OAKLAND, CA, 94606","Match","Exact","2338 19TH AVE, OAKLAND, CA, 94606",125002654,"R"
129682,"2338 330TH AVE","WHITE CLOUD","KS",66094,39.9871397530001,-95.371730433,182,"2338 330TH AVE, WHITE CLOUD, KS, 66094","Match","Non_Exact","2338 330TH ST, WHITE CLOUD, KS, 66094",9773846,"L"
129683,"2338 CANYONBACK ROAD","LOS ANGELES","CA",90049,34.110173848,-118.494843121,183,"2338 CANYONBACK ROAD, LOS ANGELES, CA, 90049","Match","Exact","2338 CANYONBACK RD, LOS ANGELES, CA, 90049",142665133,"R"
129684,"2338 CRYSTAL MILE CT","TOMS RIVER","NJ",8755,40.041233091,-74.213538907,184,"2338 CRYSTAL MILE CT, TOMS RIVER, NJ, 8755","Match","Exact","2338 CRYSTAL MILE CT, TOMS RIVER, NJ, 08755",648130101,"R"
129685,"2338 DISTINCTIVE DR","COLORADO SPRINGS","CO",80920,38.9456860880001,-104.781586662,185,"2338 DISTINCTIVE DR, COLORADO SPRINGS, CO, 80920","Match","Exact","2338 DISTINCTIVE DR, CO SPGS, CO, 80920",105510240,"R"
129686,"2338 E 99TH STREET","CHICAGO","IL",60617,41.71530969,-87.567744797,186,"2338 E 99TH STREET, CHICAGO, IL, 60617","Match","Exact","2338 E 99TH ST, CHICAGO, IL, 60617",111777182,"L"
129687,"2338 E VAN BUREN ST","BROWNSVILLE","TX",78520,25.8977879720001,-97.484321898,187,"2338 E VAN BUREN ST, BROWNSVILLE, TX, 78520","Match","Exact","2338 E VAN BUREN ST, BROWNSVILLE, TX, 78520",89999060,"R"
129688,"2338 IMMOKALEE RD SUITE 408","NAPLES","FL",34110,26.272272033,-81.789057105,188,"2338 IMMOKALEE RD SUITE 408, NAPLES, FL, 34110","Match","Exact","2338 IMMOKALEE RD, NAPLES, FL, 34110",115230497,"R"
129689,"2338 INDEPENDENCE STREET","TWIN FALLS","ID",83301,42.6050912160001,-114.497877698,189,"2338 INDEPENDENCE STREET, TWIN FALLS, ID, 83301","Match","Exact","2338 INDEPENDENCE ST, TWIN FALLS, ID, 83301",637456555,"R"
129690,"2338 LARK SPARROW ST","MYRTLE BEACH","SC",29577,33.6653570870001,-78.965165493,190,"2338 LARK SPARROW ST, MYRTLE BEACH, SC, 29577","Match","Exact","2338 LARK SPARROW ST, MYRTLE BEACH, SC, 29577",648910976,"R"
129691,"2338 LOMA VISA PLACE","LOS ANGELES","CA",90039,34.0956310830001,-118.257786289,191,"2338 LOMA VISA PLACE, LOS ANGELES, CA, 90039","Match","Non_Exact","2338 LOMA VISTA PL, LOS ANGELES, CA, 90039",640418294,"L"
129692,"2338 LOOP 1604 SUITE 120","SAN ANTONIO","TX",78248,NA,NA,192,"2338 LOOP 1604 SUITE 120, SAN ANTONIO, TX, 78248","No_Match",NA,NA,NA,NA
129693,"2338 MOREMEN RD","SAINT JOHNS","FL",32259,30.069182293,-81.659389615,193,"2338 MOREMEN RD, SAINT JOHNS, FL, 32259","Match","Exact","2338 MOREMEN RD, SAINT JOHNS, FL, 32259",92616375,"R"
129694,"2338 N GREEN VALLEY PKWY 212 BL 2","HENDERSON","NV",89014,36.059102882,-115.084924921,194,"2338 N GREEN VALLEY PKWY 212 BL 2, HENDERSON, NV, 89014","Match","Non_Exact","2338 N GREEN VALLEY PKWY, HENDERSON, NV, 89014",624657473,"R"
129695,"2338 N LOOP 1604 W STE 120","SAN ANTONIO","TX",78248,NA,NA,195,"2338 N LOOP 1604 W STE 120, SAN ANTONIO, TX, 78248","No_Match",NA,NA,NA,NA
129696,"2338 NORTH DECATUR ROAD","DECATUR","GA",30033,33.792420303,-84.296904822,196,"2338 NORTH DECATUR ROAD, DECATUR, GA, 30033","Match","Exact","2338 N DECATUR RD, DECATUR, GA, 30033",23360452,"L"
129697,"2338 OSPREY LAKE DR","JACKSONVILLE","FL",32224,30.3040798270001,-81.452487269,197,"2338 OSPREY LAKE DR, JACKSONVILLE, FL, 32224","Match","Exact","2338 OSPREY LAKE DR, JACKSONVILLE, FL, 32224",83946780,"L"
129698,"2338 PALMETTO","COMMERCE TOWNSHIP","MI",48382,42.555163513,-83.537333568,198,"2338 PALMETTO, COMMERCE TOWNSHIP, MI, 48382","Match","Exact","2338 PALMETTO, COMMERCE TOWNSHIP, MI, 48382",624866563,"L"
129699,"2338 SERVANDO AVE APT 71","SAN DIEGO","CA",92154,32.556989537,-117.064076292,199,"2338 SERVANDO AVE APT 71, SAN DIEGO, CA, 92154","Match","Exact","2338 SERVANDO AVE, SAN DIEGO, CA, 92154",640045254,"L"
129700,"2338 SWEET FLAG CT","CHARLOTTE","NC",28262,35.297953466,-80.788542953,200,"2338 SWEET FLAG CT, CHARLOTTE, NC, 28262","Match","Exact","2338 SWEET FLAG CT, CHARLOTTE, NC, 28262",635657078,"L"
129701,"2338 TELEGRAPH AVE STE 332","BERKELEY","CA",94704,37.8680532280001,-122.259037692,201,"2338 TELEGRAPH AVE STE 332, BERKELEY, CA, 94704","Match","Exact","2338 TELEGRAPH AVE, BERKELEY, CA, 94704",124998396,"R"
129702,"2338 W MORSE AVE 1C","CHICAGO","IL",60645,42.0071763710001,-87.6895570789999,202,"2338 W MORSE AVE 1C, CHICAGO, IL, 60645","Match","Non_Exact","2338 W MORSE AVE, CHICAGO, IL, 60645",605247106,"R"
129703,"2338 WEST CHESTNUT STREET","TAMPA","FL",33607,27.9586226760001,-82.48339372,203,"2338 WEST CHESTNUT STREET, TAMPA, FL, 33607","Match","Exact","2338 W CHESTNUT ST, TAMPA, FL, 33607",104517143,"L"
129704,"2338 WEST FARRAGUT","CHICAGO","IL",60625,41.976831426,-87.687501909,204,"2338 WEST FARRAGUT, CHICAGO, IL, 60625","Match","Non_Exact","2338 W FARRAGUT AVE, CHICAGO, IL, 60625",605185323,"R"
129705,"23382 3RD AVE","MANKATO","MN",56001,44.213063364,-93.992550997,205,"23382 3RD AVE, MANKATO, MN, 56001","Match","Exact","23382 3RD AVE, MANKATO, MN, 56001",28126276,"L"
129706,"23387 BOATMANS CT","LEWES","DE",19958,38.6670730770001,-75.157064975,206,"23387 BOATMANS CT, LEWES, DE, 19958","Match","Exact","23387 BOATMANS CT, LEWES, DE, 19958",623977228,"L"
129707,"23389 SCOTT DR","FARMINGTON HILLS","MI",48336,42.4646851250001,-83.3295821569999,207,"23389 SCOTT DR, FARMINGTON HILLS, MI, 48336","Match","Exact","23389 SCOTT DR, FARMINGTON HILLS, MI, 48336",69731036,"L"
129708,"2339 CITICO DRIVE STE 206","CORDOVA","TN",38016,35.1897198710001,-89.728300301,208,"2339 CITICO DRIVE STE 206, CORDOVA, TN, 38016","Match","Exact","2339 CITICO DR, CORDOVA, TN, 38016",624550962,"L"
129709,"2339 COMET ST","NEW ORLEANS","LA",70131,29.929848131,-90.009384513,209,"2339 COMET ST, NEW ORLEANS, LA, 70131","Match","Exact","2339 COMET ST, NEW ORLEANS, LA, 70131",191723167,"R"
129710,"2339 COUNTY RD 1217","BLANCHARD","OK",73010,35.2518696500001,-97.695023662,210,"2339 COUNTY RD 1217, BLANCHARD, OK, 73010","Match","Exact","2339 CO RD 1217, BLANCHARD, OK, 73010",15224114,"L"
129711,"2339 COVEY LANE","SANTA CLARA","UT",84765,37.1216136640001,-113.632796241,211,"2339 COVEY LANE, SANTA CLARA, UT, 84765","Match","Non_Exact","2339 W COVEY LN, SANTA CLARA, UT, 84765",607592025,"L"
129712,"2339 FAIROAKS ROAD","DECATUR","GA",30033,33.8324660120001,-84.293154417,212,"2339 FAIROAKS ROAD, DECATUR, GA, 30033","Match","Exact","2339 FAIROAKS RD, DECATUR, GA, 30033",23360156,"R"
129713,"2339 FLAGSTAFF DR","LONGMONT","CO",80504,40.201447036,-105.081285817,213,"2339 FLAGSTAFF DR, LONGMONT, CO, 80504","Match","Exact","2339 FLAGSTAFF DR, LONGMONT, CO, 80504",188201181,"L"
129714,"2339 GOLD MEADOW WAY STE 100","RANCHO CORDOVA","CA",95670,38.6231978170001,-121.262428239,214,"2339 GOLD MEADOW WAY STE 100, RANCHO CORDOVA, CA, 95670","Match","Exact","2339 GOLD MEADOW WAY, RANCHO CORDOVA, CA, 95670",133347045,"R"
129715,"2339 HARDING AVENUE","LANSING","MI",48910,42.707666186,-84.5339255819999,215,"2339 HARDING AVENUE, LANSING, MI, 48910","Match","Exact","2339 HARDING AVE, LANSING, MI, 48910",17500390,"L"
129716,"2339 JUSTIN LANE","HARVEY","LA",70058,29.880894934,-90.047822004,216,"2339 JUSTIN LANE, HARVEY, LA, 70058","Match","Exact","2339 JUSTIN LN, HARVEY, LA, 70058",93510346,"R"
129717,"2339 MAPLEWOOD DR","LEXINGTON","KY",40503,38.0134120050001,-84.5291305969999,217,"2339 MAPLEWOOD DR, LEXINGTON, KY, 40503","Match","Exact","2339 MAPLEWOOD DR, LEXINGTON, KY, 40503",31922888,"R"
129718,"2339 MERLE RD","SALEM","OH",44460,40.891289853,-80.829986837,218,"2339 MERLE RD, SALEM, OH, 44460","Match","Exact","2339 MERLE RD, SALEM, OH, 44460",63663268,"R"
129719,"2339 N LEXINGTON AVENUE","SPRINGFIELD","MO",65803,37.2398720100001,-93.313419692,219,"2339 N LEXINGTON AVENUE, SPRINGFIELD, MO, 65803","Match","Exact","2339 N LEXINGTON AVE, SPRINGFIELD, MO, 65803",76672821,"L"
129720,"2339 S 3RD ST","JBLM","WA",98433,47.086940428,-122.613240801,220,"2339 S 3RD ST, JBLM, WA, 98433","Match","Non_Exact","2339 S 3RD ST, JOINT BASE LEWIS MCCHORD, WA, 98433",184691830,"L"
129721,"2339 SANDRINGHAM CIRCLE","INDIANAPOLIS","IN",46214,39.7973616800001,-86.302791025,221,"2339 SANDRINGHAM CIRCLE, INDIANAPOLIS, IN, 46214","Match","Non_Exact","2339 N SANDRINGHAM CIR, INDIANAPOLIS, IN, 46214",108026394,"R"
129722,"2339 TAPIA BLVD SW","ALBUQUERQUE","NM",87105,35.0408957940001,-106.691775535,222,"2339 TAPIA BLVD SW, ALBUQUERQUE, NM, 87105","Match","Exact","2339 TAPIA BLVD SW, ALBUQUERQUE, NM, 87105",206707221,"R"
129723,"2339 WEST HAMMER LANE","STOCKTON","CA",95209,38.021262898,-121.342912367,223,"2339 WEST HAMMER LANE, STOCKTON, CA, 95209","Match","Exact","2339 W HAMMER LN, STOCKTON, CA, 95209",640552275,"R"
129724,"2339 YEAGER ROAD 8","WEST LAFAYETTE","IN",47906,40.4511617160001,-86.924506197,224,"2339 YEAGER ROAD 8, WEST LAFAYETTE, IN, 47906","Match","Exact","2339 YEAGER RD, W LAFAYETTE, IN, 47906",645937952,"L"
129725,"23390 CTY RD 74","EATON","CO",80615,40.522323693,-104.611240666,225,"23390 CTY RD 74, EATON, CO, 80615","Match","Exact","23390 CO RD 74, EATON, CO, 80615",188716781,"L"
129726,"23395 MIDDLEBELT ROAD","FARMINGTON HILLS","MI",48336,42.4643053710001,-83.337419208,226,"23395 MIDDLEBELT ROAD, FARMINGTON HILLS, MI, 48336","Match","Exact","23395 MIDDLEBELT RD, FARMINGTON HILLS, MI, 48336",69730983,"L"
129727,"23396 THOMPSON ROAD","SHELL LAKE","WI",54871,45.7610454950001,-92.129263877,227,"23396 THOMPSON ROAD, SHELL LAKE, WI, 54871","Match","Exact","23396 THOMPSON RD, SHELL LAKE, WI, 54871",167469658,"R"
129728,"233A ROCK RD 350","GLEN ROCK","NJ",7452,40.9624742290001,-74.130490719,228,"233A ROCK RD 350, GLEN ROCK, NJ, 7452","Match","Exact","233 ROCK RD, GLEN ROCK, NJ, 07452",64405351,"L"
129729,"233B S PETERS RD","KNOXVILLE","TN",37923,35.90891133,-84.0794716519999,229,"233B S PETERS RD, KNOXVILLE, TN, 37923","Match","Exact","233 S PETERS RD, KNOXVILLE, TN, 37923",653291145,"R"
129730,"233E WHEELER AVE","GARDEN CITY","NY",11530,40.731514394,-73.600176531,230,"233E WHEELER AVE, GARDEN CITY, NY, 11530","Match","Exact","233 WHEELER AVE, GARDEN CITY, NY, 11530",147627071,"R"
129731,"234  86 STREET","BROOKLYN","NY",11209,40.6238603690001,-74.03274607,231,"234  86 STREET, BROOKLYN, NY, 11209","Match","Exact","234 86TH ST, BROOKLYN, NY, 11209",59087444,"R"
129732,"234  W MOUNT PLEASANT AVENUE","PHILADELPHIA","PA",19119,40.0560120330001,-75.1921355059999,232,"234  W MOUNT PLEASANT AVENUE, PHILADELPHIA, PA, 19119","Match","Exact","234 W MOUNT PLEASANT AVE, PHILADELPHIA, PA, 19119",131394466,"L"
129733,"234 14TH AVE W","BRANDENTON","FL",34205,27.4872246040001,-82.564771295,233,"234 14TH AVE W, BRANDENTON, FL, 34205","Match","Non_Exact","234 14TH AVE W, BRADENTON, FL, 34205",16272457,"L"
129734,"234 68TH ST N","ST PETERSBURG","FL",33710,27.773898463,-82.7325309399999,234,"234 68TH ST N, ST PETERSBURG, FL, 33710","Match","Exact","234 68TH ST N, SAINT PETERSBURG, FL, 33710",124698679,"L"
129735,"234 86TH ST","BROOKLYN","NY",11209,40.6238603690001,-74.03274607,235,"234 86TH ST, BROOKLYN, NY, 11209","Match","Exact","234 86TH ST, BROOKLYN, NY, 11209",59087444,"R"
129736,"234 ALBANY DRIVE","HAMPTON","VA",23666,37.0368701690001,-76.421333794,236,"234 ALBANY DRIVE, HAMPTON, VA, 23666","Match","Exact","234 ALBANY DR, HAMPTON, VA, 23666",636074824,"L"
129737,"234 ANGUS DR","LULING","LA",70070,29.9219361940001,-90.369428978,237,"234 ANGUS DR, LULING, LA, 70070","Match","Exact","234 ANGUS DR, LULING, LA, 70070",93617878,"L"
129738,"234 ARCADIA RD","GOSHEN","NY",10924,41.359773461,-74.3116381099999,238,"234 ARCADIA RD, GOSHEN, NY, 10924","Match","Exact","234 ARCADIA RD, GOSHEN, NY, 10924",124448640,"L"
129739,"234 ARTIFACT AVE","WINCHESTER","VA",22603,39.1959396990001,-78.129301751,239,"234 ARTIFACT AVE, WINCHESTER, VA, 22603","Match","Exact","234 ARTIFACT AVE, WINCHESTER, VA, 22603",647714213,"R"
129740,"234 ATLANTIC AVE","BOOTHBAY HARBOR","ME",4538,43.8368178950001,-69.6267370909999,240,"234 ATLANTIC AVE, BOOTHBAY HARBOR, ME, 4538","Match","Exact","234 ATLANTIC AVE, BOOTHBAY HARBOR, ME, 04538",75320846,"R"
129741,"234 BAYRIDGE DR","CORPUS CHRISTI","TX",78411,27.744611633,-97.373948743,241,"234 BAYRIDGE DR, CORPUS CHRISTI, TX, 78411","Match","Exact","234 BAYRIDGE DR, CORPUS CHRISTI, TX, 78411",178539326,"R"
129742,"234 BETTY DRIVE","MONTZ","LA",70068,30.0243583810001,-90.46712905,242,"234 BETTY DRIVE, MONTZ, LA, 70068","Match","Exact","234 BETTY DR, MONTZ, LA, 70068",627292354,"R"
129743,"234 BRENTWOOD DRIVE","BUSHKILL","PA",18324,41.104620599,-75.037180591,243,"234 BRENTWOOD DRIVE, BUSHKILL, PA, 18324","Match","Exact","234 BRENTWOOD DR, BUSHKILL, PA, 18324",191437312,"R"
129744,"234 BRIDGEWATER PL","BREAUX BRIDGE","LA",70517,30.2862948970001,-91.914770238,244,"234 BRIDGEWATER PL, BREAUX BRIDGE, LA, 70517","Match","Exact","234 BRIDGEWATER PL, BREAUX BRIDGE, LA, 70517",631590006,"L"
129745,"234 BROOKFIELD DRIVE","GREENWOOD","SC",29646,34.1751050500001,-82.205317223,245,"234 BROOKFIELD DRIVE, GREENWOOD, SC, 29646","Match","Exact","234 BROOKFIELD DR, GREENWOOD, SC, 29646",50821480,"R"
129746,"234 CENTER RD","BEDFORD","OH",44146,41.399585168,-81.537093824,246,"234 CENTER RD, BEDFORD, OH, 44146","Match","Exact","234 CENTER RD, BEDFORD, OH, 44146",61130077,"R"
129747,"234 CENTRAL AVE","HATBORO","PA",19040,40.1753548560001,-75.1000287479999,247,"234 CENTRAL AVE, HATBORO, PA, 19040","Match","Exact","234 CENTRAL AVE, HATBORO, PA, 19040",135080500,"R"
129748,"234 CHURCH STREET FLOOR 7","NEW HAVEN","CT",6510,41.309804463,-72.922963948,248,"234 CHURCH STREET FLOOR 7, NEW HAVEN, CT, 6510","Match","Exact","234 CHURCH ST, NEW HAVEN, CT, 06510",3701209,"L"
129749,"234 COMMONWEALTH AVENUE","DUQUESNE","PA",15110,40.3814995770001,-79.859843939,249,"234 COMMONWEALTH AVENUE, DUQUESNE, PA, 15110","Match","Exact","234 COMMONWEALTH AVE, DUQUESNE, PA, 15110",51671477,"R"
129750,"234 COMMUNIPAW AVE SUITE 300","`","NJ",7304,40.709672878,-74.060438631,250,"234 COMMUNIPAW AVE SUITE 300, `, NJ, 7304","Match","Non_Exact","234 COMMUNIPAW AVE, JERSEY CITY, NJ, 07304",59604869,"R"
129751,"234 CORIELL AVENUE","FANWOOD","NJ",7023,40.6373075990001,-74.379009733,251,"234 CORIELL AVENUE, FANWOOD, NJ, 7023","Match","Exact","234 CORIELL AVE, FANWOOD, NJ, 07023",60567868,"R"
129752,"234 COUNTY ROAD 430","STOCKDALE","TX",78160,29.315231871,-97.955023575,252,"234 COUNTY ROAD 430, STOCKDALE, TX, 78160","Match","Exact","234 CO RD 430, STOCKDALE, TX, 78160",54900061,"L"
129753,"234 CR 725","NACOGDOCHES","TX",75964,31.568713879,-94.7521108459999,253,"234 CR 725, NACOGDOCHES, TX, 75964","Match","Exact","234 CO RD 725, NACOGDOCHES, TX, 75964",72445549,"R"
129754,"234 CRITTENDEN WAY","ROCHESTER","NY",14623,43.103103909,-77.632627245,254,"234 CRITTENDEN WAY, ROCHESTER, NY, 14623","Match","Exact","234 CRITTENDEN WAY, ROCHESTER, NY, 14623",14535050,"R"
129755,"234 DAVIS AVENUE","CLIFTON HEIGHTS","PA",19018,39.928964669,-75.301816506,255,"234 DAVIS AVENUE, CLIFTON HEIGHTS, PA, 19018","Match","Exact","234 DAVIS AVE, CLIFTON HEIGHTS, PA, 19018",134883174,"L"
129756,"234 DEGRAW STREETE","BROOKLYN","NY",11231,40.6844268460001,-73.997695503,256,"234 DEGRAW STREETE, BROOKLYN, NY, 11231","Match","Non_Exact","234 DEGRAW ST, BROOKLYN, NY, 11231",59074845,"R"
129757,"234 DEVONWOOD DR","SANDY SPRINGS","GA",30328,33.947485451,-84.3788782829999,257,"234 DEVONWOOD DR, SANDY SPRINGS, GA, 30328","Match","Non_Exact","234 DEVONWOOD DR NE, SANDY SPRINGS, GA, 30328",17417477,"L"
129758,"234 DINSMORE AVENUE","THOUSAND OAKS","CA",91362,34.1788510370001,-118.845188782,258,"234 DINSMORE AVENUE, THOUSAND OAKS, CA, 91362","Match","Exact","234 DINSMORE AVE, THOUSAND OAKS, CA, 91362",109977012,"R"
129759,"234 E 4TH ST","WINNER","SD",57580,43.3744191960001,-99.85481892,259,"234 E 4TH ST, WINNER, SD, 57580","Match","Exact","234 E 4TH ST, WINNER, SD, 57580",200358388,"R"
129760,"234 E EDISON AVENUE","DES MOINES","IA",50315,41.572524614,-93.6123405979999,260,"234 E EDISON AVENUE, DES MOINES, IA, 50315","Match","Exact","234 EDISON AVE, DES MOINES, IA, 50315",65786536,"L"
129761,"234 E GUAVA ST","OXNARD","CA",93033,34.1810616550001,-119.175406107,261,"234 E GUAVA ST, OXNARD, CA, 93033","Match","Exact","234 E GUAVA ST, OXNARD, CA, 93033",110116372,"R"
129762,"234 E SEVENTH AVE","TALLAHASSEE","FL",32303,30.457849163,-84.279835781,262,"234 E SEVENTH AVE, TALLAHASSEE, FL, 32303","Match","Exact","234 E 7TH AVE, TALLAHASSEE, FL, 32303",82850553,"L"
129763,"234 EAST 149TH STREET SUITE 8-20","BRONX","NY",10451,40.817652708,-73.9237967669999,263,"234 EAST 149TH STREET SUITE 8-20, BRONX, NY, 10451","Match","Exact","234 E 149TH ST, BRONX, NY, 10451",80309048,"R"
129764,"234 EAST 15TH  STREET","APOPKA","FL",32703,28.660171618,-81.506264405,264,"234 EAST 15TH  STREET, APOPKA, FL, 32703","Match","Exact","234 E 15TH ST, APOPKA, FL, 32703",647545987,"R"
129765,"234 EAST 7TH AVENUE","TALLAHASSEE","FL",32303,30.4578490760001,-84.27985045,265,"234 EAST 7TH AVENUE, TALLAHASSEE, FL, 32303","Match","Exact","234 E 7TH AVE, TALLAHASSEE, FL, 32303",82850553,"L"
129766,"234 EAST CAMPHOR STREET","AVON PARK","FL",33825,27.5928553470001,-81.497338208,266,"234 EAST CAMPHOR STREET, AVON PARK, FL, 33825","Match","Exact","234 E CAMPHOR ST, AVON PARK, FL, 33825",4629669,"L"
129767,"234 EAST SEVENTH AVENUE","TALLAHASSEE","FL",32303,30.4578490760001,-84.27985045,267,"234 EAST SEVENTH AVENUE, TALLAHASSEE, FL, 32303","Match","Exact","234 E 7TH AVE, TALLAHASSEE, FL, 32303",82850553,"L"
129768,"234 EAST STEARNS RD","BARTLETT","IL",60103,41.972849984,-88.177329521,268,"234 EAST STEARNS RD, BARTLETT, IL, 60103","Match","Exact","234 E STEARNS RD, BARTLETT, IL, 60103",112736322,"L"
129769,"234 EASTERLY PARKWAY","STATE COLLEGE","PA",16801,40.7888516620001,-77.84831166,269,"234 EASTERLY PARKWAY, STATE COLLEGE, PA, 16801","Match","Exact","234 EASTERLY PKWY, STATE COLLEGE, PA, 16801",50371152,"R"
129770,"234 ELDRED ROAD","OAKDALE","LA",71463,30.773421103,-92.6882732029999,270,"234 ELDRED ROAD, OAKDALE, LA, 71463","Match","Exact","234 ELDRED RD, OAKDALE, LA, 71463",13117153,"R"
129771,"234 ELM STREET APT 3W","YONKERS","NY",10701,40.931664546,-73.886222689,271,"234 ELM STREET APT 3W, YONKERS, NY, 10701","Match","Exact","234 ELM ST, YONKERS, NY, 10701",139743881,"R"
129772,"234 ESCUELA AVE APT 96","MOUNTAIN VIEW","CA",94040,37.3987399330001,-122.092842172,272,"234 ESCUELA AVE APT 96, MOUNTAIN VIEW, CA, 94040","Match","Exact","234 ESCUELA AVE, MOUNTAIN VIEW, CA, 94040",618164022,"R"
129773,"234 EVERGREEN WAY","STOCKBRIDGE","GA",30281,33.549740091,-84.258308676,273,"234 EVERGREEN WAY, STOCKBRIDGE, GA, 30281","Match","Exact","234 EVERGREEN WAY, STOCKBRIDGE, GA, 30281",619944084,"R"
129774,"234 EVERIT STREET","NEW HAVEN","CT",6511,41.3299461670001,-72.9120525549999,274,"234 EVERIT STREET, NEW HAVEN, CT, 6511","Match","Exact","234 EVERIT ST, NEW HAVEN, CT, 06511",3700012,"L"
129775,"234 FIREWHEEL CT","SUMMERVILLE","SC",29486,33.123299343,-80.127085317,275,"234 FIREWHEEL CT, SUMMERVILLE, SC, 29486","Match","Exact","234 FIREWHEEL CT, SUMMERVILLE, SC, 29486",652101090,"R"
129776,"234 FISHER AVENUE","BROOKLINE","MA",2445,42.334236414,-71.14562492,276,"234 FISHER AVENUE, BROOKLINE, MA, 2445","Match","Exact","234 FISHER AVE, BROOKLINE, MA, 02445",87244628,"L"
129777,"234 FITZPATRICK STREET","HILLSIDE","NJ",7205,40.693315925,-74.2336082529999,277,"234 FITZPATRICK STREET, HILLSIDE, NJ, 7205","Match","Exact","234 FITZPATRICK ST, HILLSIDE, NJ, 07205",60577363,"L"
129778,"234 FLATWOOD ACRES RD","CHILHOWIE","VA",24319,36.775253907,-81.677623024,278,"234 FLATWOOD ACRES RD, CHILHOWIE, VA, 24319","Match","Exact","234 FLATWOOD ACRES RD, CHILHOWIE, VA, 24319",47189601,"R"
129779,"234 G C AND P ROAD","WHEELING","WV",26003,NA,NA,279,"234 G C AND P ROAD, WHEELING, WV, 26003","No_Match",NA,NA,NA,NA
129780,"234 GLENMORE AVE","BROOKLYN","NY",11207,40.6722775540001,-73.9020863109999,280,"234 GLENMORE AVE, BROOKLYN, NY, 11207","Match","Exact","234 GLENMORE AVE, BROOKLYN, NY, 11207",59084551,"R"
129781,"234 GLENWOOD ROAD","ELKINS PARK","PA",19027,40.0644280610001,-75.1189919139999,281,"234 GLENWOOD ROAD, ELKINS PARK, PA, 19027","Match","Exact","234 GLENWOOD RD, ELKINS PARK, PA, 19027",135094631,"L"
129782,"234 GRATTAN STREET","FALL RIVER","MA",2721,41.675945331,-71.150590915,282,"234 GRATTAN STREET, FALL RIVER, MA, 2721","Match","Exact","234 GRATTAN ST, FALL RIVER, MA, 02721",46772143,"L"
129783,"234 GREEN MEADOW DRIVE","INDIANAPOLIS","IN",46229,39.7689928460001,-85.974786845,283,"234 GREEN MEADOW DRIVE, INDIANAPOLIS, IN, 46229","Match","Exact","234 GREEN MEADOW DR, INDIANAPOLIS, IN, 46229",108061804,"R"
129784,"234 GREENGLADE AVE","WORTHINGTON","OH",43085,40.1064647960001,-83.023245773,284,"234 GREENGLADE AVE, WORTHINGTON, OH, 43085","Match","Exact","234 GREENGLADE AVE, WORTHINGTON, OH, 43085",218686857,"R"
129785,"234 GREENGLADE","WORTHINGTON","OH",43085,40.1064647960001,-83.023245773,285,"234 GREENGLADE, WORTHINGTON, OH, 43085","Match","Non_Exact","234 GREENGLADE AVE, WORTHINGTON, OH, 43085",218686857,"R"
129786,"234 HAMILTONIAN DR","RED BANK","NJ",7701,40.381808387,-74.105359719,286,"234 HAMILTONIAN DR, RED BANK, NJ, 7701","Match","Exact","234 HAMILTONIAN DR, RED BANK, NJ, 07701",90470411,"L"
129787,"234 HOSACK RD","JACKSON CENTER","PA",16133,41.2864617070001,-80.150495397,287,"234 HOSACK RD, JACKSON CENTER, PA, 16133","Match","Exact","234 HOSACK RD, JACKSON CENTER, PA, 16133",605361483,"R"
129788,"234 JACKSON ROAD","SHAVERTOWN","PA",18708,41.295617513,-76.001469818,288,"234 JACKSON ROAD, SHAVERTOWN, PA, 18708","Match","Exact","234 JACKSON RD, SHAVERTOWN, PA, 18708",604522972,"L"
129789,"234 JEFFERSON ST","OREGON","WI",53575,42.9271926540001,-89.387122249,289,"234 JEFFERSON ST, OREGON, WI, 53575","Match","Exact","234 JEFFERSON ST, OREGON, WI, 53575",49477632,"L"
129790,"234 JOHNSON STREET","SALEM","NJ",8079,39.568721178,-75.461678962,290,"234 JOHNSON STREET, SALEM, NJ, 8079","Match","Exact","234 JOHNSON ST, SALEM, NJ, 08079",174412829,"R"
129791,"234 JUDD ROAD","SOUTHBURY","CT",6488,41.500101789,-73.162993824,291,"234 JUDD ROAD, SOUTHBURY, CT, 6488","Match","Exact","234 JUDD RD, SOUTHBURY, CT, 06488",3696699,"L"
129792,"234 KATIE SIMPSON AVENUE","GOODRICH","TX",77335,30.6066141270001,-94.945549294,292,"234 KATIE SIMPSON AVENUE, GOODRICH, TX, 77335","Match","Exact","234 KATIE SIMPSON AVE, GOODRICH, TX, 77335",23223911,"L"
129793,"234 LAWSON FARMS DRIVE","MIDLOTHIAN","TX",76065,32.4522584480001,-96.994968005,293,"234 LAWSON FARMS DRIVE, MIDLOTHIAN, TX, 76065","Match","Exact","234 LAWSON FARMS DR, MIDLOTHIAN, TX, 76065",625664486,"L"
129794,"234 LOYOLA DRIVE","ELYRIA","OH",44035,41.418103537,-82.08176636,294,"234 LOYOLA DRIVE, ELYRIA, OH, 44035","Match","Exact","234 LOYOLA DR, ELYRIA, OH, 44035",55417886,"R"
129795,"234 MACKENZIE LANE","STEPHENSON","VA",22656,39.1898158710001,-78.1025436959999,295,"234 MACKENZIE LANE, STEPHENSON, VA, 22656","Match","Exact","234 MACKENZIE LN, STEPHENSON, VA, 22656",617909493,"R"
129796,"234 MAIN AVENUE NORTH","GREENBUSH","MN",56726,48.7010731490001,-96.18170837,296,"234 MAIN AVENUE NORTH, GREENBUSH, MN, 56726","Match","Non_Exact","234 MAIN ST N, GREENBUSH, MN, 56726",176605636,"R"
129797,"234 MAIN STREET ROUTE 109","MEDFIELD","MA",2052,42.193220765,-71.291408229,297,"234 MAIN STREET ROUTE 109, MEDFIELD, MA, 2052","Match","Exact","234 MAIN ST, MEDFIELD, MA, 02052",87291767,"R"
129798,"234 MAIN STREET","RIDGEFIELD","NJ",7660,40.858030996,-74.0247794859999,298,"234 MAIN STREET, RIDGEFIELD, NJ, 7660","Match","Non_Exact","234 MAIN ST, RIDGEFIELD PK, NJ, 07660",64397702,"L"
129799,"234 MARKET ST FLOOR 4","PHILADELPHIA","PA",19106,39.9500888260001,-75.1449454519999,299,"234 MARKET ST FLOOR 4, PHILADELPHIA, PA, 19106","Match","Exact","234 MARKET ST, PHILADELPHIA, PA, 19106",131424581,"L"
129800,"234 MCALWAY ROAD","CHARLOTTE","NC",28211,35.1824643750001,-80.801311352,300,"234 MCALWAY ROAD, CHARLOTTE, NC, 28211","Match","Exact","234 MCALWAY RD, CHARLOTTE, NC, 28211",70538015,"R"
129801,"234 MEMORY LANE","HARKER HEIGHTS","TX",76548,31.0682585390001,-97.681374332,301,"234 MEMORY LANE, HARKER HEIGHTS, TX, 76548","Match","Exact","234 MEMORY LN, HARKER HEIGHTS, TX, 76548",635068387,"L"
129802,"234 N 37TH STREET","MILWAUKEE","WI",53208,43.033078812,-87.960174083,302,"234 N 37TH STREET, MILWAUKEE, WI, 53208","Match","Exact","234 N 37TH ST, MILWAUKEE, WI, 53208",77739968,"R"
129803,"234 N 5TH ST","SUFFOLK","VA",23434,36.728088384,-76.566463873,303,"234 N 5TH ST, SUFFOLK, VA, 23434","Match","Exact","234 N 5TH ST, SUFFOLK, VA, 23434",122227582,"L"
129804,"234 N LEXINGTON PKWY","DEFOREST","WI",53532,43.248789984,-89.357661374,304,"234 N LEXINGTON PKWY, DEFOREST, WI, 53532","Match","Exact","234 N LEXINGTON PKWY, DEFOREST, WI, 53532",49502117,"L"
129805,"234 N MARCLIFFE DR","VALPARAISO","IN",46385,NA,NA,305,"234 N MARCLIFFE DR, VALPARAISO, IN, 46385","Tie",NA,NA,NA,NA
129806,"234 NASSAU STREET","PRINCETON","NJ",8542,40.3518664870001,-74.652482951,306,"234 NASSAU STREET, PRINCETON, NJ, 8542","Match","Exact","234 NASSAU ST, PRINCETON, NJ, 08542",60170867,"L"
129807,"234 NEFF STREET","SAN ANTONIO","TX",78207,29.443347654,-98.537240243,307,"234 NEFF STREET, SAN ANTONIO, TX, 78207","Match","Non_Exact","234 NEFF, SAN ANTONIO, TX, 78207",101512931,"R"
129808,"234 NORTH MAIN STREET","RUTHERFORDTON","NC",28139,35.3698836390001,-81.9566237069999,308,"234 NORTH MAIN STREET, RUTHERFORDTON, NC, 28139","Match","Exact","234 N MAIN ST, RUTHERFORDTON, NC, 28139",19386682,"R"
129809,"234 NORTH OAK AVE","BARTLETT","IL",60103,41.9974738670001,-88.1855700199999,309,"234 NORTH OAK AVE, BARTLETT, IL, 60103","Match","Exact","234 N OAK AVE, BARTLETT, IL, 60103",111689065,"L"
129810,"234 NORTH TATNALL STREET NUM 93428","WILMINGTON","NY",19801,NA,NA,310,"234 NORTH TATNALL STREET NUM 93428, WILMINGTON, NY, 19801","No_Match",NA,NA,NA,NA
129811,"234 NW PLEASANT GROVE WAY","PORT ST LUCIE","FL",34986,27.3353264740001,-80.3780673649999,311,"234 NW PLEASANT GROVE WAY, PORT ST LUCIE, FL, 34986","Match","Exact","234 NW PLEASANT GROVE WAY, PORT ST LUCIE, FL, 34986",647725729,"R"
129812,"234 OAKWOOD","MANDEVILLE","LA",70448,30.3714894610001,-90.0740328379999,312,"234 OAKWOOD, MANDEVILLE, LA, 70448","Match","Non_Exact","234 OAKWOOD DR, MANDEVILLE, LA, 70448",111238191,"L"
129813,"234 OKEECHOBEE W","SANTA ROSA BEACH","FL",32459,30.350661643,-86.2157677769999,313,"234 OKEECHOBEE W, SANTA ROSA BEACH, FL, 32459","Match","Exact","234 OKEECHOBEE W, SANTA ROSA BEACH, FL, 32459",624859006,"L"
129814,"234 ORANGE GROVE ST","HILLSBOROUGH","NC",27278,36.065511902,-79.099444201,314,"234 ORANGE GROVE ST, HILLSBOROUGH, NC, 27278","Match","Exact","234 ORANGE GROVE ST, HILLSBOROUGH, NC, 27278",72394453,"R"
129815,"234 OSCEOLA STREET","AUBURNDALE","FL",33823,28.0910479250001,-81.7974985449999,315,"234 OSCEOLA STREET, AUBURNDALE, FL, 33823","Match","Exact","234 OSCEOLA ST, AUBURNDALE, FL, 33823",618496279,"R"
129816,"234 PARK AVENUE","PARK RIDGE","NJ",7656,41.028653035,-74.0273957649999,316,"234 PARK AVENUE, PARK RIDGE, NJ, 7656","Match","Exact","234 PARK AVE, PARK RIDGE, NJ, 07656",64368741,"R"
129817,"234 PERCY DR","OPELOUSAS","LA",70570,30.565878282,-92.0837042859999,317,"234 PERCY DR, OPELOUSAS, LA, 70570","Match","Exact","234 PERCY DR, OPELOUSAS, LA, 70570",106453402,"R"
129818,"234 PIRATE DR","SAINT ROSE","LA",70087,29.9570727710001,-90.308438582,318,"234 PIRATE DR, SAINT ROSE, LA, 70087","Match","Exact","234 PIRATE DR, SAINT ROSE, LA, 70087",93624812,"L"
129819,"234 PLEASANT VALLEY ROAD","EAST EARL","PA",17519,40.184277594,-76.025259552,319,"234 PLEASANT VALLEY ROAD, EAST EARL, PA, 17519","Match","Exact","234 PLEASANT VALLEY RD, EAST EARL, PA, 17519",179679651,"L"
129820,"234 RED TAIL DR","DOVER","DE",19904,39.1444164000001,-75.5873905139999,320,"234 RED TAIL DR, DOVER, DE, 19904","Match","Exact","234 RED TAIL DR, DOVER, DE, 19904",633239111,"R"
129821,"234 REGISTER ROAD","CALHOUN","LA",71225,32.5549158540001,-92.27063902,321,"234 REGISTER ROAD, CALHOUN, LA, 71225","Match","Exact","234 REGISTER RD, CALHOUN, LA, 71225",612361765,"L"
129822,"234 RICHELIEU ROAD","WILMINGTON","NC",28412,34.1411316030001,-77.9033823789999,322,"234 RICHELIEU ROAD, WILMINGTON, NC, 28412","Match","Exact","234 RICHELIEU RD, WILMINGTON, NC, 28412",152736012,"R"
129823,"234 RIDGE CREST DR","MACON","GA",31210,32.9636559100001,-83.740713904,323,"234 RIDGE CREST DR, MACON, GA, 31210","Match","Exact","234 RIDGE CREST DR, MACON, GA, 31210",66673064,"L"
129824,"234 RIDGECREST DRIVE","KLAMATH FALLS","OR",97601,NA,NA,324,"234 RIDGECREST DRIVE, KLAMATH FALLS, OR, 97601","No_Match",NA,NA,NA,NA
129825,"234 RIVER MEADOW DR","LAGRANGE","GA",30241,33.050404417,-84.993463025,325,"234 RIVER MEADOW DR, LAGRANGE, GA, 30241","Match","Exact","234 RIVER MEADOW DR, LAGRANGE, GA, 30241",650830331,"L"
129826,"234 ROYALTON RD","MOORESVILLE","NC",28115,35.5352922430001,-80.788390362,326,"234 ROYALTON RD, MOORESVILLE, NC, 28115","Match","Exact","234 ROYALTON RD, MOORESVILLE, NC, 28115",46020992,"R"
129827,"234 S 22ND ST","DECATUR","IL",62521,39.840758738,-88.926191648,327,"234 S 22ND ST, DECATUR, IL, 62521","Match","Exact","234 S 22ND ST, DECATUR, IL, 62521",20748087,"L"
129828,"234 S ARCOLA ST","ANGLETON","TX",77515,29.1631415860001,-95.429001042,328,"234 S ARCOLA ST, ANGLETON, TX, 77515","Match","Exact","234 S ARCOLA ST, ANGLETON, TX, 77515",116578403,"L"
129829,"234 S ARCOLA","ANGLETON","TX",77515,29.1631415860001,-95.429001042,329,"234 S ARCOLA, ANGLETON, TX, 77515","Match","Non_Exact","234 S ARCOLA ST, ANGLETON, TX, 77515",116578403,"L"
129830,"234 S FIGUEROA ST 231","LOS ANGELES","CA",90012,34.056008164,-118.253624377,330,"234 S FIGUEROA ST 231, LOS ANGELES, CA, 90012","Match","Non_Exact","234 S FIGUEROA ST, LOS ANGELES, CA, 90012",141617229,"L"
129831,"234 S SPRING STREET","PAXTON","IL",60957,40.457377627,-88.085266878,331,"234 S SPRING STREET, PAXTON, IL, 60957","Match","Exact","234 S SPRING ST, PAXTON, IL, 60957",22344868,"L"
129832,"234 SANTILLANE AVE APT 1","CORAL GABLES","FL",33134,25.762048077,-80.2596971569999,332,"234 SANTILLANE AVE APT 1, CORAL GABLES, FL, 33134","Match","Exact","234 SANTILLANE AVE, CORAL GABLES, FL, 33134",116010697,"L"
129833,"234 SCOTT DR","ENGLEWOOD","OH",45322,39.879886291,-84.3184246279999,333,"234 SCOTT DR, ENGLEWOOD, OH, 45322","Match","Exact","234 SCOTT DR, ENGLEWOOD, OH, 45322",143561114,"R"
129834,"234 SMITHSTONE PATH","FAYETTEVILLE","GA",30214,NA,NA,334,"234 SMITHSTONE PATH, FAYETTEVILLE, GA, 30214","No_Match",NA,NA,NA,NA
129835,"234 SON WATTS DR","NEWTON","MS",39345,32.325329013,-89.141679897,335,"234 SON WATTS DR, NEWTON, MS, 39345","Match","Exact","234 SON WATTS DR, NEWTON, MS, 39345",4883247,"L"
129836,"234 SOUTH BROADWAY STREET","MEDINA","OH",44256,41.1373746180001,-81.862602817,336,"234 SOUTH BROADWAY STREET, MEDINA, OH, 44256","Match","Exact","234 S BROADWAY ST, MEDINA, OH, 44256",58676328,"L"
129837,"234 SOUTH LEHIGH AVE","SAYRE","PA",18840,41.9798482040001,-76.51443785,337,"234 SOUTH LEHIGH AVE, SAYRE, PA, 18840","Match","Exact","234 S LEHIGH AVE, SAYRE, PA, 18840",176956836,"L"
129838,"234 SPRINGMONT DRIVE","WYOMISSING","PA",19610,40.347223221,-76.003294083,338,"234 SPRINGMONT DRIVE, WYOMISSING, PA, 19610","Match","Exact","234 SPRINGMONT DR, WYOMISSING, PA, 19610",646767713,"R"
129839,"234 ST JOSEPH DRIVE","STEUBENVILLE","OH",43952,40.4326031030001,-80.67066942,339,"234 ST JOSEPH DRIVE, STEUBENVILLE, OH, 43952","Match","Exact","234 SAINT JOSEPH DR, STEUBENVILLE, OH, 43952",37814131,"R"
129840,"234 STACY WEAVER DR","FAYETTEVILLE","NC",28311,35.130902791,-78.882013088,340,"234 STACY WEAVER DR, FAYETTEVILLE, NC, 28311","Match","Exact","234 STACY WEAVER DR, FAYETTEVILLE, NC, 28311",64197397,"R"
129841,"234 STONEHEDGE LN","GUILFORD","CT",6437,41.3158552530001,-72.640136265,341,"234 STONEHEDGE LN, GUILFORD, CT, 6437","Match","Exact","234 STONEHEDGE LN, GUILFORD, CT, 06437",3746618,"L"
129842,"234 TEAL WAY","ELKO","NV",89801,40.84268438,-115.789807949,342,"234 TEAL WAY, ELKO, NV, 89801","Match","Exact","234 TEAL WAY, ELKO, NV, 89801",154621811,"L"
129843,"234 VALLEY STREET NW","ABINGDON","VA",24210,36.7103311560001,-81.979437791,343,"234 VALLEY STREET NW, ABINGDON, VA, 24210","Match","Exact","234 VALLEY ST NW, ABINGDON, VA, 24210",154365565,"R"
129844,"234 VILLAGE WALK","COLUMBIA","SC",29209,33.9770862870001,-80.939826378,344,"234 VILLAGE WALK, COLUMBIA, SC, 29209","Match","Exact","234 VILLAGE WALK, COLUMBIA, SC, 29209",71835055,"L"
129845,"234 W 18TH AVENUE PO BOX 3782","COLUMBUS","OH",43210,40.0018147960001,-83.014140212,345,"234 W 18TH AVENUE PO BOX 3782, COLUMBUS, OH, 43210","Match","Non_Exact","234 W 18TH AVE, COLUMBUS, OH, 43210",641100400,"R"
129846,"234 W 20TH STREET","LONG BEACH","CA",90806,33.7934793260001,-118.194128544,346,"234 W 20TH STREET, LONG BEACH, CA, 90806","Match","Exact","234 W 20TH ST, LONG BEACH, CA, 90806",141686839,"L"
129847,"234 W CORINTH RD","CORINTH","ME",4427,44.9746427690001,-69.022314783,347,"234 W CORINTH RD, CORINTH, ME, 4427","Match","Exact","234 W CORINTH RD, CORINTH, ME, 04427",123641033,"R"
129848,"234 W MILL ST","COLORADO SPRINGS","CO",80903,38.8200701230001,-104.83074571,348,"234 W MILL ST, COLORADO SPRINGS, CO, 80903","Match","Exact","234 W MILL ST, COLORADO SPRINGS, CO, 80903",105514743,"R"
129849,"234 WALNUT STREET","WESTVILLE","IL",61883,40.0399890250001,-87.635097378,349,"234 WALNUT STREET, WESTVILLE, IL, 61883","Match","Non_Exact","234 S WALNUT ST, WESTVILLE, IL, 61883",612006093,"R"
129850,"234 WATCHUNG AVENUE","ORANGE","NJ",7050,40.779614952,-74.232970644,350,"234 WATCHUNG AVENUE, ORANGE, NJ, 7050","Match","Exact","234 WATCHUNG AVE, ORANGE, NJ, 07050",63494389,"R"
129851,"234 WEST 114TH STREET","NEW YORK","NY",10026,40.802357364,-73.9545353679999,351,"234 WEST 114TH STREET, NEW YORK, NY, 10026","Match","Exact","234 W 114TH ST, NEW YORK, NY, 10026",59657667,"L"
129852,"234 WEST 8TH ST","LOVELL","WY",82431,44.8315785360001,-108.398053006,352,"234 WEST 8TH ST, LOVELL, WY, 82431","Match","Exact","234 W 8TH ST, LOVELL, WY, 82431",640075133,"L"
129853,"234 WESTCOTT ST","HOUSTON","TX",77007,29.7639413320001,-95.421614818,353,"234 WESTCOTT ST, HOUSTON, TX, 77007","Match","Exact","234 WESTCOTT ST, HOUSTON, TX, 77007",96060549,"R"
129854,"234 WHITE OAK STREET","JACKSON","MS",39213,32.3933105,-90.14983781,354,"234 WHITE OAK STREET, JACKSON, MS, 39213","Match","Non_Exact","234 WHITE OAK CT, JACKSON, MS, 39213",65360560,"L"
129855,"234 WILDERNESS TRAIL","MESQUITE","TX",75149,32.7821323320001,-96.598340233,355,"234 WILDERNESS TRAIL, MESQUITE, TX, 75149","Match","Exact","234 WILDERNESS TRL, MESQUITE, TX, 75149",102933938,"R"
129856,"234 WINDER","DETROIT","MI",48201,42.3419101100001,-83.0505641,356,"234 WINDER, DETROIT, MI, 48201","Match","Non_Exact","234 WINDER ST, DETROIT, MI, 48201",95478007,"R"
129857,"234-27 135TH AVE","ROSEDALE","NY",11422,40.6728543450001,-73.736836524,357,"234-27 135TH AVE, ROSEDALE, NY, 11422","Match","Exact","234-27 135TH AVE, ROSEDALE, NY, 11422",59721555,"L"
129858,"2340 130TH AVE NE STE D202","BELLEVUE","WA",98005,47.6297601040001,-122.166994248,358,"2340 130TH AVE NE STE D202, BELLEVUE, WA, 98005","Match","Exact","2340 130TH AVE NE, BELLEVUE, WA, 98005",187032111,"R"
129859,"2340 225TH STREET","MILFORD","IA",51351,43.320624002,-95.1238090799999,359,"2340 225TH STREET, MILFORD, IA, 51351","Match","Exact","2340 225TH ST, MILFORD, IA, 51351",9807044,"L"
129860,"2340 ALAMO SE SUITE 112","ALB","NM",87106,NA,NA,360,"2340 ALAMO SE SUITE 112, ALB, NM, 87106","No_Match",NA,NA,NA,NA
129861,"2340 ALEXANDER TER","HOMEWOOD","IL",60430,41.5539496550001,-87.673977333,361,"2340 ALEXANDER TER, HOMEWOOD, IL, 60430","Match","Exact","2340 ALEXANDER TER, HOMEWOOD, IL, 60430",111709491,"R"
129862,"2340 AMPHIBIOUS DR","VIRGINIA BEACH","VA",23459,NA,NA,362,"2340 AMPHIBIOUS DR, VIRGINIA BEACH, VA, 23459","No_Match",NA,NA,NA,NA
129863,"2340 ASHTON DRIVE","ROSWELL","GA",30076,34.075186338,-84.358369877,363,"2340 ASHTON DRIVE, ROSWELL, GA, 30076","Match","Exact","2340 ASHTON DR, ROSWELL, GA, 30076",17373530,"L"
129864,"2340 CAROL VIEW DRIVE E-111","CARDIFF-BY-THE-SEA","CA",92007,33.0206451,-117.273799765,364,"2340 CAROL VIEW DRIVE E-111, CARDIFF-BY-THE-SEA, CA, 92007","Match","Non_Exact","2340 CAROL VIEW DR, CARDIFF BY THE SEA, CA, 92007",635767964,"R"
129865,"2340 CARTA WAY APT 5057","HERNDON","VA",20171,NA,NA,365,"2340 CARTA WAY APT 5057, HERNDON, VA, 20171","No_Match",NA,NA,NA,NA
129866,"2340 CORONADO AVE","YOUNGSTOWN","OH",44504,41.132090738,-80.654434376,366,"2340 CORONADO AVE, YOUNGSTOWN, OH, 44504","Match","Exact","2340 CORONADO AVE, YOUNGSTOWN, OH, 44504",64593926,"L"
129867,"2340 DECLARATION DRIVE","RALEIGH","NC",27615,35.880869665,-78.595915595,367,"2340 DECLARATION DRIVE, RALEIGH, NC, 27615","Match","Exact","2340 DECLARATION DR, RALEIGH, NC, 27615",72563305,"R"
129868,"2340 DES PLAINES RIVER RD SUITE 414","DES PLAINES","IL",60018,NA,NA,368,"2340 DES PLAINES RIVER RD SUITE 414, DES PLAINES, IL, 60018","No_Match",NA,NA,NA,NA
129869,"2340 E 99TH ST","CARMEL","IN",46280,39.9342120250001,-86.1215152949999,369,"2340 E 99TH ST, CARMEL, IN, 46280","Match","Exact","2340 E 99TH ST, CARMEL, IN, 46280",29310305,"L"
129870,"2340 E CROSBY RD","MOORESVILLE","IN",46158,NA,NA,370,"2340 E CROSBY RD, MOORESVILLE, IN, 46158","Tie",NA,NA,NA,NA
129871,"2340 E TRINITY MILLS RD SUITE 300","CARROLLTON","TX",75006,32.9851363980001,-96.874754147,371,"2340 E TRINITY MILLS RD SUITE 300, CARROLLTON, TX, 75006","Match","Exact","2340 TRINITY MILLS RD, CARROLLTON, TX, 75006",102884382,"R"
129872,"2340 E TRINITY MILLS ROAD SUITE 300","CARROLLTON","TX",75006,32.9851363980001,-96.874754147,372,"2340 E TRINITY MILLS ROAD SUITE 300, CARROLLTON, TX, 75006","Match","Exact","2340 TRINITY MILLS RD, CARROLLTON, TX, 75006",102884382,"R"
129873,"2340 E TRINITY MILLS STE 300","CARROLLTON","TX",75006,32.9851363980001,-96.874754147,373,"2340 E TRINITY MILLS STE 300, CARROLLTON, TX, 75006","Match","Non_Exact","2340 TRINITY MILLS RD, CARROLLTON, TX, 75006",102884382,"R"
129874,"2340 ERIN PLACE","SOUTH SAN FRANCISCO","CA",94080,37.6413706610001,-122.455057124,374,"2340 ERIN PLACE, SOUTH SAN FRANCISCO, CA, 94080","Match","Exact","2340 ERIN PL, S SAN FRAN, CA, 94080",192371598,"R"
129875,"2340 FM 2729","WHI","TX",75491,33.5114315650001,-96.485517339,375,"2340 FM 2729, WHI, TX, 75491","Match","Non_Exact","2340 FM 2729, TOM BEAN, TX, 75491",63362823,"L"
129876,"2340 GREYHOUND DRIVE","AUGUSTA","KS",67010,37.6991837260001,-96.965126031,376,"2340 GREYHOUND DRIVE, AUGUSTA, KS, 67010","Match","Non_Exact","2340 GRAYHOUND DR, AUGUSTA, KS, 67010",32282022,"R"
129877,"2340 HOWEY RD","COLUMBUS","OH",43211,40.0130247640001,-82.9847435629999,377,"2340 HOWEY RD, COLUMBUS, OH, 43211","Match","Exact","2340 HOWEY RD, COLUMBUS, OH, 43211",135577231,"R"
129878,"2340 HUBER RD","SEGUIN","TX",78155,29.5965229490001,-97.9869552439999,378,"2340 HUBER RD, SEGUIN, TX, 78155","Match","Exact","2340 HUBER RD, SEGUIN, TX, 78155",650427273,"R"
129879,"2340 HWY 180 NUMBER 280","SILVER CITY","NM",88061,32.7869493380001,-108.255728804,379,"2340 HWY 180 NUMBER 280, SILVER CITY, NM, 88061","Match","Non_Exact","2340 US HWY 180, SILVER CITY, NM, 88061",642624615,"R"
129880,"2340 HWY 22 E","OWENTON","KY",40359,NA,NA,380,"2340 HWY 22 E, OWENTON, KY, 40359","No_Match",NA,NA,NA,NA
129881,"2340 JACKSON STREET","SAN FRANCISCO","CA",94115,37.792598819,-122.433610313,381,"2340 JACKSON STREET, SAN FRANCISCO, CA, 94115","Match","Exact","2340 JACKSON ST, SAN FRANCISCO, CA, 94115",192279952,"R"
129882,"2340 LEXINGTON LN","NAPERVILLE","IL",60540,41.7537800920001,-88.193043781,382,"2340 LEXINGTON LN, NAPERVILLE, IL, 60540","Match","Exact","2340 LEXINGTON LN, NAPERVILLE, IL, 60540",112591095,"R"
129883,"2340 MARKLAND ST","IRVING","TX",75060,32.7908602860001,-96.949268949,383,"2340 MARKLAND ST, IRVING, TX, 75060","Match","Exact","2340 MARKLAND ST, IRVING, TX, 75060",102893424,"R"
129884,"2340 MOLLY LN","PLANO","TX",75074,33.0324719810001,-96.645164283,384,"2340 MOLLY LN, PLANO, TX, 75074","Match","Exact","2340 MOLLY LN, PLANO, TX, 75074",651645128,"L"
129885,"2340 MULLAN ROAD","MISSOULA","MT",59808,46.883979907,-114.034787696,385,"2340 MULLAN ROAD, MISSOULA, MT, 59808","Match","Exact","2340 MULLAN RD, MISSOULA, MT, 59808",623792654,"R"
129886,"2340 MYERLEE DR","MYRTLE BEACH","SC",29588,33.65320289,-79.041956634,386,"2340 MYERLEE DR, MYRTLE BEACH, SC, 29588","Match","Exact","2340 MYERLEE DR, MYRTLE BEACH, SC, 29588",652122117,"R"
129887,"2340 N GRAHAM ST  B","CHARLOTTE","NC",28206,35.2502364650001,-80.827755566,387,"2340 N GRAHAM ST  B, CHARLOTTE, NC, 28206","Match","Non_Exact","2340 N GRAHAM ST, CHARLOTTE, NC, 28206",70479321,"R"
129888,"2340 N ROBINHOOD PL","ORANGE","CA",92867,33.828788264,-117.832216295,388,"2340 N ROBINHOOD PL, ORANGE, CA, 92867","Match","Exact","2340 N ROBINHOOD PL, ORANGE, CA, 92867",144031296,"L"
129889,"2340 NORTH AVENUE 3B","BRIDGEPORT","CT",6604,41.178731564,-73.215417093,389,"2340 NORTH AVENUE 3B, BRIDGEPORT, CT, 6604","Match","Exact","2340 NORTH AVE, BRIDGEPORT, CT, 06604",3223676,"R"
129890,"2340 NORTHDALE BLVD NW","COON RAPIDS","MN",55433,45.1830138380001,-93.32604824,390,"2340 NORTHDALE BLVD NW, COON RAPIDS, MN, 55433","Match","Exact","2340 NORTHDALE BLVD NW, COON RAPIDS, MN, 55433",97516701,"L"
129891,"2340 NORTHDALE BLVD","COON RAPIDS","MN",55433,45.1830138380001,-93.32604824,391,"2340 NORTHDALE BLVD, COON RAPIDS, MN, 55433","Match","Non_Exact","2340 NORTHDALE BLVD NW, COON RAPIDS, MN, 55433",97516701,"L"
129892,"2340 PARK PLACE DRIVE","GULFPORT","MS",39507,30.3951744600001,-89.0146905399999,392,"2340 PARK PLACE DRIVE, GULFPORT, MS, 39507","Match","Exact","2340 PARK PLACE DR, GULFPORT, MS, 39507",111386872,"R"
129893,"2340 POWELL ST - SUITE 108","EMERYVILLE","CA",94608,37.8372292870001,-122.301030769,393,"2340 POWELL ST - SUITE 108, EMERYVILLE, CA, 94608","Match","Exact","2340 POWELL ST, EMERYVILLE, CA, 94608",647879958,"R"
129894,"2340 POWELL ST 372","EMERYVILLE","CA",94608,37.8372292870001,-122.301030769,394,"2340 POWELL ST 372, EMERYVILLE, CA, 94608","Match","Exact","2340 POWELL ST, EMERYVILLE, CA, 94608",647879958,"R"
129895,"2340 POWELL STREET SUITE 263","EMERYVILLE","CA",94608,37.8372292870001,-122.301030769,395,"2340 POWELL STREET SUITE 263, EMERYVILLE, CA, 94608","Match","Exact","2340 POWELL ST, EMERYVILLE, CA, 94608",647879958,"R"
129896,"2340 S 16TH STREET","PHILADELPHIA","PA",19145,39.9217745990001,-75.173603307,396,"2340 S 16TH STREET, PHILADELPHIA, PA, 19145","Match","Exact","2340 S 16TH ST, PHILADELPHIA, PA, 19145",131412139,"R"
129897,"2340 S ANDREA","BOLIVAR","MO",65613,37.59307311,-93.4114724519999,397,"2340 S ANDREA, BOLIVAR, MO, 65613","Match","Non_Exact","2340 S ANDREA DR, BOLIVAR, MO, 65613",623944508,"R"
129898,"2340 S PARC GREEN ST","HARVEY","LA",70058,29.853826929,-90.0560873159999,398,"2340 S PARC GREEN ST, HARVEY, LA, 70058","Match","Exact","2340 S PARC GREEN ST, HARVEY, LA, 70058",627383541,"L"
129899,"2340 SANTA RITA ROAD SUITE 5","PLEASANTON","CA",94566,NA,NA,399,"2340 SANTA RITA ROAD SUITE 5, PLEASANTON, CA, 94566","No_Match",NA,NA,NA,NA
129900,"2340 SLEEPY HOLLOW DR","SHINGLE SPRINGS","CA",95682,38.714782429,-120.929367973,400,"2340 SLEEPY HOLLOW DR, SHINGLE SPRINGS, CA, 95682","Match","Exact","2340 SLEEPY HOLLOW DR, SHINGLE SPRINGS, CA, 95682",133050522,"L"
129901,"2340 SUNSET DRIVE","NEW SMYNRA BEACH","FL",32168,29.0537374460001,-80.9564765549999,401,"2340 SUNSET DRIVE, NEW SMYNRA BEACH, FL, 32168","Match","Non_Exact","2340 SUNSET DR, NEW SMYRNA BEACH, FL, 32168",94579764,"L"
129902,"2340 SYLVAN ROAD","EAST POINT","GA",30344,33.690672851,-84.4184400509999,402,"2340 SYLVAN ROAD, EAST POINT, GA, 30344","Match","Exact","2340 SYLVAN RD, EAST POINT, GA, 30344",17345739,"L"
129903,"2340 VICKERS DR","COLORADO SPRINGS","CO",80918,NA,NA,403,"2340 VICKERS DR, COLORADO SPRINGS, CO, 80918","No_Match",NA,NA,NA,NA
129904,"2340 WALNUT TREE COURT","BUFORD","GA",30519,NA,NA,404,"2340 WALNUT TREE COURT, BUFORD, GA, 30519","No_Match",NA,NA,NA,NA
129905,"2340 WEST CHESTER PIKE","BROOMALL","PA",19008,39.980377704,-75.351958291,405,"2340 WEST CHESTER PIKE, BROOMALL, PA, 19008","Match","Exact","2340 W CHESTER PIKE, BROOMALL, PA, 19008",134873396,"L"
129906,"23400 HEGAR ROAD","HOCKLEY","TX",77447,30.120455018,-95.843402106,406,"23400 HEGAR ROAD, HOCKLEY, TX, 77447","Match","Exact","23400 HEGAR RD, HOCKLEY, TX, 77447",78358452,"R"
129907,"23400 HUGHES AVENUE","HAZEL PARK","MI",48030,42.4648940110001,-83.091621286,407,"23400 HUGHES AVENUE, HAZEL PARK, MI, 48030","Match","Exact","23400 HUGHES AVE, HAZEL PARK, MI, 48030",69748417,"R"
129908,"23400 HUGHES","HAZEL PARK","MI",48030,42.4648940110001,-83.091621286,408,"23400 HUGHES, HAZEL PARK, MI, 48030","Match","Non_Exact","23400 HUGHES AVE, HAZEL PARK, MI, 48030",69748417,"R"
129909,"23400 MERCANTILE ROAD SUITE 3","BEACHWOOD","OH",44122,41.4586237290001,-81.510880157,409,"23400 MERCANTILE ROAD SUITE 3, BEACHWOOD, OH, 44122","Match","Exact","23400 MERCANTILE RD, BEACHWOOD, OH, 44122",61180033,"R"
129910,"23401 HANSON ROAD","UNION GROVE","WI",53182,42.7860339810001,-88.117370417,410,"23401 HANSON ROAD, UNION GROVE, WI, 53182","Match","Exact","23401 HANSON RD, UNION GROVE, WI, 53182",77933669,"R"
129911,"23401 SE BLUE RIDGE DR","DAMASCUS","OR",97089,45.4134157120001,-122.422247369,411,"23401 SE BLUE RIDGE DR, DAMASCUS, OR, 97089","Match","Exact","23401 SE BLUE RIDGE DR, DAMASCUS, OR, 97089",157977636,"L"
129912,"23402 CLARK ARBOR LN","KATY","TX",77493,29.835826737,-95.780781323,412,"23402 CLARK ARBOR LN, KATY, TX, 77493","Match","Exact","23402 CLARK ARBOR LN, KATY, TX, 77493",641967695,"L"
129913,"23402 FAIRFALLA LN","RICHMOND","TX",77406,29.693604404,-95.7820411499999,413,"23402 FAIRFALLA LN, RICHMOND, TX, 77406","Match","Non_Exact","23402 FARFALLA LN, RICHMOND, TX, 77406",642953006,"R"
129914,"23402 HIGHWAY 65","COLO","IA",50056,42.0124943020001,-93.3094005999999,414,"23402 HIGHWAY 65, COLO, IA, 50056","Match","Non_Exact","23402 US HWY 65, COLO, IA, 50056",620612410,"R"
129915,"23403 E MISSION AVE SUITE 203","LIBERTY LAKE","WA",99019,47.671298886,-117.090953973,415,"23403 E MISSION AVE SUITE 203, LIBERTY LAKE, WA, 99019","Match","Non_Exact","23403 E MISSION AVE, LIBERTY LAKE, WA, 99019",189910068,"L"
129916,"23405 MILLVILLE WAY","MILLVILLE","CA",96062,40.5416027210001,-122.18168357,416,"23405 MILLVILLE WAY, MILLVILLE, CA, 96062","Match","Exact","23405 MILLVILLE WAY, MILLVILLE, CA, 96062",652198475,"L"
129917,"23405 SW SCHOLLS FERRY RD","HILLSBORO","OR",97123,45.419806592,-122.918579341,417,"23405 SW SCHOLLS FERRY RD, HILLSBORO, OR, 97123","Match","Exact","23405 SW SCHOLLS FERRY RD, HILLSBORO, OR, 97123",158181742,"L"
129918,"23406 117TH PL SE","KENT","WA",98031,47.392187731,-122.184584357,418,"23406 117TH PL SE, KENT, WA, 98031","Match","Exact","23406 117TH PL SE, KENT, WA, 98031",640611330,"L"
129919,"23407 BUNDY CANYON ROAD","WILDOMAR","CA",92595,33.62610805,-117.251046238,419,"23407 BUNDY CANYON ROAD, WILDOMAR, CA, 92595","Match","Exact","23407 BUNDY CANYON RD, WILDOMAR, CA, 92595",648076461,"R"
129920,"23407 MAGIC MOUNTAIN PARKWAY 407","VALENCIA","CA",91355,34.4150956460001,-118.546759276,420,"23407 MAGIC MOUNTAIN PARKWAY 407, VALENCIA, CA, 91355","Match","Exact","23407 MAGIC MOUNTAIN PKWY, VALENCIA, CA, 91355",142830643,"L"
129921,"23407 SUNSET VIEW","SORRENTO","FL",32776,28.79975782,-81.564907762,421,"23407 SUNSET VIEW, SORRENTO, FL, 32776","Match","Exact","23407 SUNSET VW, SORRENTO, FL, 32776",94151074,"R"
129922,"23408 VIA BARRA","VALENCIA","CA",91355,34.393165454,-118.54533552,422,"23408 VIA BARRA, VALENCIA, CA, 91355","Match","Exact","23408 VIA BARRA, VALENCIA, CA, 91355",141537427,"L"
129923,"23409 34TH AVE CT E","SPANAWAY","WA",98387,47.043880012,-122.383813594,423,"23409 34TH AVE CT E, SPANAWAY, WA, 98387","Match","Exact","23409 34TH AVENUE CT E, SPANAWAY, WA, 98387",184742173,"L"
129924,"23409 80TH AVE N","PORT BYRON","IL",61275,41.598360751,-90.298022443,424,"23409 80TH AVE N, PORT BYRON, IL, 61275","Match","Exact","23409 80TH AVE N, PORT BYRON, IL, 61275",9218518,"L"
129925,"23409 HAMILTON AVE","GERBER","CA",96035,40.0144752320001,-122.162585066,425,"23409 HAMILTON AVE, GERBER, CA, 96035","Match","Exact","23409 HAMILTON AVE, GERBER, CA, 96035",119401016,"R"
129926,"2341 5TH AVE","GREELEY","CO",80631,40.4002925190001,-104.685906845,426,"2341 5TH AVE, GREELEY, CO, 80631","Match","Exact","2341 5TH AVE, GREELEY, CO, 80631",188731806,"R"
129927,"2341 ALEXANDER TOP PL","GRAYSON","GA",30017,33.8842408990001,-83.956782145,427,"2341 ALEXANDER TOP PL, GRAYSON, GA, 30017","Match","Exact","2341 ALEXANDER TOP PL, GRAYSON, GA, 30017",627551564,"R"
129928,"2341 BEDFORDSHIRE CIR","RESTON","VA",20191,38.9403479760001,-77.3806010449999,428,"2341 BEDFORDSHIRE CIR, RESTON, VA, 20191","Match","Exact","2341 BEDFORDSHIRE CIR, RESTON, VA, 20191",75957417,"L"
129929,"2341 BROOKWOOD COURT","AURORA","IL",60502,41.775120868,-88.2603983509999,429,"2341 BROOKWOOD COURT, AURORA, IL, 60502","Match","Exact","2341 BROOKWOOD CT, AURORA, IL, 60502",112590405,"L"
129930,"2341 CHESTERFIELD AVENUE","CHARLOTTE","NC",28205,35.2134823530001,-80.8090239479999,430,"2341 CHESTERFIELD AVENUE, CHARLOTTE, NC, 28205","Match","Exact","2341 CHESTERFIELD AVE, CHARLOTTE, NC, 28205",70488434,"L"
129931,"2341 COUNTY ROAD 1215","BLANCHARD","OK",73010,35.2534608930001,-97.695098641,431,"2341 COUNTY ROAD 1215, BLANCHARD, OK, 73010","Match","Exact","2341 CO RD 1215, BLANCHARD, OK, 73010",15222311,"L"
129932,"2341 DAVIS MILL ROAD","FREMONT","NC",27830,35.5691357600001,-77.89068331,432,"2341 DAVIS MILL ROAD, FREMONT, NC, 27830","Match","Exact","2341 DAVIS MILL RD, FREMONT, NC, 27830",14411576,"L"
129933,"2341 ELBERRY RD","LATTA","SC",29565,34.328189782,-79.527908402,433,"2341 ELBERRY RD, LATTA, SC, 29565","Match","Exact","2341 ELBERRY RD, LATTA, SC, 29565",28834560,"L"
129934,"2341 ENTRADA DEL SOL","LAS CRUCES","NM",88001,NA,NA,434,"2341 ENTRADA DEL SOL, LAS CRUCES, NM, 88001","No_Match",NA,NA,NA,NA
129935,"2341 FRENCH ALPS AVE","HENDERSON","NV",89044,35.9270561650001,-115.088079721,435,"2341 FRENCH ALPS AVE, HENDERSON, NV, 89044","Match","Exact","2341 FRENCH ALPS AVE, HENDERSON, NV, 89044",624595578,"R"
129936,"2341 GREEN ST SE SUITE 3","WASHINGTON","DC",20020,38.8614596400001,-76.981238793,436,"2341 GREEN ST SE SUITE 3, WASHINGTON, DC, 20020","Match","Exact","2341 GREEN ST SE, WASHINGTON, DC, 20020",76231223,"R"
129937,"2341 KEYSTONE BOULEVARD","NORTH MIAMI","FL",33181,25.893248542,-80.150701826,437,"2341 KEYSTONE BOULEVARD, NORTH MIAMI, FL, 33181","Match","Exact","2341 KEYSTONE BLVD, NORTH MIAMI, FL, 33181",116038031,"L"
129938,"2341 N 48TH STREET","LINCOLN","NE",68504,40.835847202,-96.6538063679999,438,"2341 N 48TH STREET, LINCOLN, NE, 68504","Match","Exact","2341 N 48TH ST, LINCOLN, NE, 68504",28302304,"L"
129939,"2341 NW 11TH ST","OKLAHOMA CITY","OK",73107,35.480748996,-97.553355054,439,"2341 NW 11TH ST, OKLAHOMA CITY, OK, 73107","Match","Exact","2341 NW 11TH ST, OKLAHOMA CITY, OK, 73107",100398662,"R"
129940,"2341 RESTON LANE","COLUMBUS","IN",47203,39.233318925,-85.898518619,440,"2341 RESTON LANE, COLUMBUS, IN, 47203","Match","Exact","2341 RESTON LN, COLUMBUS, IN, 47203",30979876,"L"
129941,"2341 SE LADD AVE","PORTLAND","OR",97214,45.5058742090001,-122.646318623,441,"2341 SE LADD AVE, PORTLAND, OR, 97214","Match","Exact","2341 SE LADD AVE, PORTLAND, OR, 97214",157509213,"R"
129942,"2341 SHERBROOK ST","PITTSBURGH","PA",15217,40.4305910040001,-79.9215560549999,442,"2341 SHERBROOK ST, PITTSBURGH, PA, 15217","Match","Exact","2341 SHERBROOK ST, PITTSBURGH, PA, 15217",51652227,"L"
129943,"2341 TOWLES ST","FORT MYERS","FL",33916,26.635461548,-81.8350192359999,443,"2341 TOWLES ST, FORT MYERS, FL, 33916","Match","Exact","2341 TOWLES ST, FORT MYERS, FL, 33916",118082157,"L"
129944,"2341 W MALDONADO RD","PHOENIX","AZ",85041,33.383440813,-112.109219812,444,"2341 W MALDONADO RD, PHOENIX, AZ, 85041","Match","Exact","2341 W MALDONADO RD, PHOENIX, AZ, 85041",128861474,"L"
129945,"2341 WEST HEDDING STREET","SAN JOSE","CA",95128,37.330244953,-121.945033598,445,"2341 WEST HEDDING STREET, SAN JOSE, CA, 95128","Match","Exact","2341 W HEDDING ST, SAN JOSE, CA, 95128",122902668,"R"
129946,"2341","NORTH LAS VEGAS","NV",89032,NA,NA,446,"2341, NORTH LAS VEGAS, NV, 89032","No_Match",NA,NA,NA,NA
129947,"23410 18TH AVE S STE E-301","DES MOINES","WA",98198,47.392319426,-122.310424569,447,"23410 18TH AVE S STE E-301, DES MOINES, WA, 98198","Match","Exact","23410 18TH AVE S, DES MOINES, WA, 98198",239771113,"L"
129948,"23410 CATSKILL AVENUE","CARSON","CA",90745,33.8139249870001,-118.27126189,448,"23410 CATSKILL AVENUE, CARSON, CA, 90745","Match","Exact","23410 CATSKILL AVE, CARSON, CA, 90745",141681670,"L"
129949,"23410 WHITE MAGNOLIA PLACE APT 204","LUTZ","FL",33549,28.1818966000001,-82.4301884499999,449,"23410 WHITE MAGNOLIA PLACE APT 204, LUTZ, FL, 33549","Match","Exact","23410 WHITE MAGNOLIA PL, LUTZ, FL, 33549",641447776,"R"
129950,"23411 CIVIC CENTER DRIVE","SOUTHFIELD","MI",48033,42.4790448960001,-83.272757455,450,"23411 CIVIC CENTER DRIVE, SOUTHFIELD, MI, 48033","Match","Exact","23411 CIVIC CENTER DR, SOUTHFIELD, MI, 48033",639608581,"L"
129951,"23411 SOUTHEAST BORGES ROAD","DAMASCUS","OR",97089,45.4470249280001,-122.422023945,451,"23411 SOUTHEAST BORGES ROAD, DAMASCUS, OR, 97089","Match","Exact","23411 SE BORGES RD, DAMASCUS, OR, 97089",157929575,"L"
129952,"23411 SPRAGUE RIVER ROAD","SPRAGUE RIVER","OR",97639,42.455145762,-121.504128083,452,"23411 SPRAGUE RIVER ROAD, SPRAGUE RIVER, OR, 97639","Match","Exact","23411 SPRAGUE RIVER RD, SPRAGUE RIVER, OR, 97639",156652120,"R"
129953,"23412 MOULTON PKWY STE 120","LAGUNA HILLS","CA",92653,33.6209690090001,-117.731330799,453,"23412 MOULTON PKWY STE 120, LAGUNA HILLS, CA, 92653","Match","Exact","23412 MOULTON PKWY, LAGUNA HILLS, CA, 92653",144062252,"L"
129954,"23415 THREE NOTCH RD SUITE 2008-113","CALIFORNIA","MD",20619,38.3096673430001,-76.5317342769999,454,"23415 THREE NOTCH RD SUITE 2008-113, CALIFORNIA, MD, 20619","Match","Exact","23415 THREE NOTCH RD, CALIFORNIA, MD, 20619",638669100,"L"
129955,"23418 DUKES RUN DR","SPRING","TX",77373,30.0605330540001,-95.375212908,455,"23418 DUKES RUN DR, SPRING, TX, 77373","Match","Exact","23418 DUKES RUN DR, SPRING, TX, 77373",645001922,"R"
129956,"2342 BISSONNET ST","HOUSTON","TX",77005,29.725543096,-95.4137761539999,456,"2342 BISSONNET ST, HOUSTON, TX, 77005","Match","Exact","2342 BISSONNET ST, HOUSTON, TX, 77005",96063351,"R"
129957,"2342 BUFFALO AVE","VENTURA","CA",93003,34.254352861,-119.192830758,457,"2342 BUFFALO AVE, VENTURA, CA, 93003","Match","Exact","2342 BUFFALO AVE, VENTURA, CA, 93003",109956912,"L"
129958,"2342 E SHELL POINT ROAD","RUSKIN","FL",33570,27.720441457,-82.405418375,458,"2342 E SHELL POINT ROAD, RUSKIN, FL, 33570","Match","Exact","2342 E SHELL POINT RD, RUSKIN, FL, 33570",625714050,"L"
129959,"2342 EAST SHELL POINT ROAD","RUSKIN","FL",33570,27.720441457,-82.405437045,459,"2342 EAST SHELL POINT ROAD, RUSKIN, FL, 33570","Match","Exact","2342 E SHELL POINT RD, RUSKIN, FL, 33570",625714050,"L"
129960,"2342 GRANTS HILL CHURCH ROAD","MONTROSS","VA",22520,38.13628098,-76.9539041959999,460,"2342 GRANTS HILL CHURCH ROAD, MONTROSS, VA, 22520","Match","Exact","2342 GRANTS HILL CHURCH RD, MONTROSS, VA, 22520",22168954,"L"
129961,"2342 HAYSTACK CIRCLE","PINEY FLATS","TN",37686,NA,NA,461,"2342 HAYSTACK CIRCLE, PINEY FLATS, TN, 37686","No_Match",NA,NA,NA,NA
129962,"2342 MAJESTIC PRINCE DR","INDIANAPOLIS","IN",46234,39.7982362380001,-86.337908087,462,"2342 MAJESTIC PRINCE DR, INDIANAPOLIS, IN, 46234","Match","Exact","2342 MAJESTIC PRINCE DR, INDIANAPOLIS, IN, 46234",609088912,"R"
129963,"2342 MESSICK SOUTH ROAD","NORTH BLOOMFIELD","OH",44450,41.4218791000001,-80.880820829,463,"2342 MESSICK SOUTH ROAD, NORTH BLOOMFIELD, OH, 44450","Match","Exact","2342 MESSICK S RD, N BLOOMFIELD, OH, 44450",117400726,"L"
129964,"2342 N SAN ANTONIO AVENUE","POMONA","CA",91797,34.0854532020001,-117.736761164,464,"2342 N SAN ANTONIO AVENUE, POMONA, CA, 91797","Match","Non_Exact","2342 N SAN ANTONIO AVE, POMONA, CA, 91767",642869696,"R"
129965,"2342 OAK TRACE ST","YOUNGSTOWN","OH",44515,41.0762717150001,-80.751254789,465,"2342 OAK TRACE ST, YOUNGSTOWN, OH, 44515","Match","Exact","2342 OAK TRACE ST, YOUNGSTOWN, OH, 44515",64606857,"R"
129966,"2342 SHATTUCK AVE 155","BERKELEY","CA",94704,37.8668924410001,-122.267791168,466,"2342 SHATTUCK AVE 155, BERKELEY, CA, 94704","Match","Exact","2342 SHATTUCK AVE, BERKELEY, CA, 94704",124994075,"R"
129967,"2342 SHATTUCK AVE APT 102","BERKELEY","CA",94704,37.8668924410001,-122.267791168,467,"2342 SHATTUCK AVE APT 102, BERKELEY, CA, 94704","Match","Exact","2342 SHATTUCK AVE, BERKELEY, CA, 94704",124994075,"R"
129968,"2342 SHATTUCK AVENUE 225","BERKELEY","CA",94704,37.8668924410001,-122.267791168,468,"2342 SHATTUCK AVENUE 225, BERKELEY, CA, 94704","Match","Exact","2342 SHATTUCK AVE, BERKELEY, CA, 94704",124994075,"R"
129969,"2342 TURNPIKE","STOCKTON","CA",95206,NA,NA,469,"2342 TURNPIKE, STOCKTON, CA, 95206","No_Match",NA,NA,NA,NA
129970,"23420 62ND AVE SOUTH J102","KENT","WA",98032,47.3917138080001,-122.257723811,470,"23420 62ND AVE SOUTH J102, KENT, WA, 98032","Match","Exact","23420 62ND AVE S, KENT, WA, 98032",239776190,"R"
129971,"23420 ADAGIO TER","BRAMBLETON","VA",20148,38.9693302590001,-77.540808512,471,"23420 ADAGIO TER, BRAMBLETON, VA, 20148","Match","Exact","23420 ADAGIO TER, BRAMBLETON, VA, 20148",648240663,"R"
129972,"23420 ONEIDA","OAK PARK","MI",48069,NA,NA,472,"23420 ONEIDA, OAK PARK, MI, 48069","No_Match",NA,NA,NA,NA
129973,"23422 E 79TH ST S","BROKEN ARROW","OK",74014,36.0473784550001,-95.715535239,473,"23422 E 79TH ST S, BROKEN ARROW, OK, 74014","Match","Non_Exact","23422 E 79TH ST, BROKEN ARROW, OK, 74014",83149999,"R"
129974,"23423 HIGHWAY 59 NORTH  APT 3005","KINGWOOD","TX",77339,NA,NA,474,"23423 HIGHWAY 59 NORTH  APT 3005, KINGWOOD, TX, 77339","No_Match",NA,NA,NA,NA
129975,"23425 MARGARETA ST","DETROIT","MI",48219,42.425083435,-83.270131121,475,"23425 MARGARETA ST, DETROIT, MI, 48219","Match","Exact","23425 MARGARETA ST, DETROIT, MI, 48219",95420553,"L"
129976,"23425 SPICE BUSH TERRACE","ASHBURN","VA",20148,38.9693215780001,-77.524770948,476,"23425 SPICE BUSH TERRACE, ASHBURN, VA, 20148","Match","Exact","23425 SPICE BUSH TER, ASHBURN, VA, 20148",628622354,"R"
129977,"2343 15TH AVE S","SEATTLE","WA",98144,47.5821118540001,-122.313407566,477,"2343 15TH AVE S, SEATTLE, WA, 98144","Match","Exact","2343 15TH AVE S, SEATTLE, WA, 98144",186593556,"R"
129978,"2343 ATRIUM CIRCLE","ORLANDO","FL",32808,28.575005189,-81.4535563539999,478,"2343 ATRIUM CIRCLE, ORLANDO, FL, 32808","Match","Exact","2343 ATRIUM CIR, ORLANDO, FL, 32808",639243659,"L"
129979,"2343 BLACKFOOT AVE","PLACENTIA","CA",92870,33.904772225,-117.852359589,479,"2343 BLACKFOOT AVE, PLACENTIA, CA, 92870","Match","Exact","2343 BLACKFOOT AVE, PLACENTIA, CA, 92870",143994299,"L"
129980,"2343 CASCADE ST","MILPITAS","CA",95035,37.4232396640001,-121.863278743,480,"2343 CASCADE ST, MILPITAS, CA, 95035","Match","Exact","2343 CASCADE ST, MILPITAS, CA, 95035",122988752,"R"
129981,"2343 DEER MEADOW DR","MISSOURI CITY","TX",77489,29.588179016,-95.539550086,481,"2343 DEER MEADOW DR, MISSOURI CITY, TX, 77489","Match","Exact","2343 DEER MEADOW DR, MISSOURI CITY, TX, 77489",78270891,"R"
129982,"2343 DEER MEADOW DRIVE","MISSOURI CITY","TX",77489,29.588179016,-95.539550086,482,"2343 DEER MEADOW DRIVE, MISSOURI CITY, TX, 77489","Match","Exact","2343 DEER MEADOW DR, MISSOURI CITY, TX, 77489",78270891,"R"
129983,"2343 GATETREE LANE SE","GRAND RAPIDS","MI",49546,42.9208502700001,-85.561215697,483,"2343 GATETREE LANE SE, GRAND RAPIDS, MI, 49546","Match","Exact","2343 GATETREE LN SE, GRAND RAPIDS, MI, 49546",12483360,"R"
129984,"2343 GOLD HILL ROAD","BROOKSVILLE","FL",34604,28.465302539,-82.380032989,484,"2343 GOLD HILL ROAD, BROOKSVILLE, FL, 34604","Match","Exact","2343 GOLD HILL RD, BROOKSVILLE, FL, 34604",85463799,"L"
129985,"2343 MAGNOLIA BRIDGE DR","SAN RAMON","CA",94582,37.7711768730001,-121.913622853,485,"2343 MAGNOLIA BRIDGE DR, SAN RAMON, CA, 94582","Match","Exact","2343 MAGNOLIA BRIDGE DR, SAN RAMON, CA, 94582",192117975,"L"
129986,"2343 N OAKLAND AVENUE","MILWAUKEE","WI",53211,43.0606549820001,-87.888078219,486,"2343 N OAKLAND AVENUE, MILWAUKEE, WI, 53211","Match","Exact","2343 N OAKLAND AVE, MILWAUKEE, WI, 53211",77743862,"L"
129987,"2343 N SAN ANTONIO AVEUNE","POMONA","CA",91767,NA,NA,487,"2343 N SAN ANTONIO AVEUNE, POMONA, CA, 91767","No_Match",NA,NA,NA,NA
129988,"2343 PENNSYLANNIA AVENUE","RIVERSIDE","CA",92507,33.968240372,-117.360320197,488,"2343 PENNSYLANNIA AVENUE, RIVERSIDE, CA, 92507","Match","Non_Exact","2343 PENNSYLVANIA AVE, RIVERSIDE, CA, 92507",194742916,"R"
129989,"2343 RIVERSIDE DRIVE","GAINESVILLE","GA",30501,34.3386568490001,-83.833878801,489,"2343 RIVERSIDE DRIVE, GAINESVILLE, GA, 30501","Match","Exact","2343 RIVERSIDE DR, GAINESVILLE, GA, 30501",98285595,"L"
129990,"2343 S 9TH AVE","NORTH RIVERSIDE","IL",60546,41.847053121,-87.842576765,490,"2343 S 9TH AVE, NORTH RIVERSIDE, IL, 60546","Match","Exact","2343 S 9TH AVE, N RIVERSIDE, IL, 60546",111791665,"L"
129991,"2343 SHERIDAN AVE N","MINNEAPOLIS","MN",55411,45.0035393950001,-93.312048281,491,"2343 SHERIDAN AVE N, MINNEAPOLIS, MN, 55411","Match","Exact","2343 SHERIDAN AVE N, MINNEAPOLIS, MN, 55411",43644168,"L"
129992,"2343 VENETIAN DRIVE SW","ATLANTA","GA",30311,33.719155592,-84.4654745349999,492,"2343 VENETIAN DRIVE SW, ATLANTA, GA, 30311","Match","Exact","2343 VENETIAN DR SW, ATLANTA, GA, 30311",17340785,"R"
129993,"2343 W MAIN ST UNIT 1072","MESA","AZ",85201,33.4148191350001,-111.882404864,493,"2343 W MAIN ST UNIT 1072, MESA, AZ, 85201","Match","Non_Exact","2343 W MAIN ST, MESA, AZ, 85201",647596181,"L"
129994,"2343 WINDING COVE","OVIEDO","FL",32765,28.6355826590001,-81.202216998,494,"2343 WINDING COVE, OVIEDO, FL, 32765","Match","Exact","2343 WINDING COVE, OVIEDO, FL, 32765",623949829,"R"
129995,"23430 HAWTHORNE BLVD STE 290","TORRANCE","CA",90505,33.8132219930001,-118.350986847,495,"23430 HAWTHORNE BLVD STE 290, TORRANCE, CA, 90505","Match","Exact","23430 HAWTHORNE BLVD, TORRANCE, CA, 90505",142756553,"L"
129996,"23431 STARBRIDGE LAKE LANE","RICHMOND","TX",77407,29.6979943630001,-95.768470271,496,"23431 STARBRIDGE LAKE LANE, RICHMOND, TX, 77407","Match","Exact","23431 STARBRIDGE LAKE LN, RICHMOND, TX, 77407",629615702,"L"
129997,"23432 SOUTH FRONTENAC DRIVE","WARRENSVILLE HEIGHTS","OH",44128,41.43700569,-81.5137622569999,497,"23432 SOUTH FRONTENAC DRIVE, WARRENSVILLE HEIGHTS, OH, 44128","Match","Exact","23432 S FRONTENAC DR, WARRENSVILLE HEIGHTS, OH, 44128",61129695,"R"
129998,"23433 DE ANZA","TEMECULA","CA",92590,33.4626077290001,-117.253059848,498,"23433 DE ANZA, TEMECULA, CA, 92590","Match","Non_Exact","23433 DE ANZA RD, TEMECULA, CA, 92590",638579499,"R"
129999,"23436 MADERO STE 140","MISSION VIEJO","CA",92691,33.6233802620001,-117.678134167,499,"23436 MADERO STE 140, MISSION VIEJO, CA, 92691","Match","Exact","23436 MADERO, MISSION VIEJO, CA, 92691",609043329,"L"
130000,"23438 STARGAZER PT","SPRING","TX",77373,30.047347523,-95.400445605,500,"23438 STARGAZER PT, SPRING, TX, 77373","Match","Exact","23438 STARGAZER PT, SPRING, TX, 77373",641942499,"L"
