"ID","Address","City","State","Zip","lat","long","id","input_address","match_indicator","match_type","matched_address","tiger_line_id","tiger_side"
40001,"12315 CAMILLA ST","WHITTIER","CA",90601,33.984541946,-118.045587234,1,"12315 CAMILLA ST, WHITTIER, CA, 90601","Match","Exact","12315 CAMILLA ST, WHITTIER, CA, 90601",141747223,"L"
40002,"12315 MAY LAUREL DR","HOUSTON","TX",77014,29.9679138720001,-95.4493156079999,2,"12315 MAY LAUREL DR, HOUSTON, TX, 77014","Match","Exact","12315 MAY LAUREL DR, HOUSTON, TX, 77014",96129963,"R"
40003,"12315 PEARSON CT","ALPHARETTA","GA",30004,34.0822093940001,-84.332986778,3,"12315 PEARSON CT, ALPHARETTA, GA, 30004","Match","Exact","12315 PEARSON CT, ALPHARETTA, GA, 30004",618448705,"L"
40004,"12315 RYE ST","STUDIO CITY","CA",91604,34.1512956400001,-118.401886827,4,"12315 RYE ST, STUDIO CITY, CA, 91604","Match","Exact","12315 RYE ST, STUDIO CITY, CA, 91604",141563972,"R"
40005,"12316 FLYNNWOOD RD","JACKSONVILLE","FL",32223,30.1475471700001,-81.639519493,5,"12316 FLYNNWOOD RD, JACKSONVILLE, FL, 32223","Match","Non_Exact","12316 FLYNN WOODS RD, JACKSONVILLE, FL, 32223",83937882,"R"
40006,"12316 MEDITERRA PL","AUSTIN","TX",78732,30.3410733800001,-97.9101524709999,6,"12316 MEDITERRA PL, AUSTIN, TX, 78732","Match","Exact","12316 MEDITERRA PL, AUSTIN, TX, 78732",641787485,"L"
40007,"12316 WASHINGTON STREET","PEMBROKE PINES","FL",33025,26.00048551,-80.3092942,7,"12316 WASHINGTON STREET, PEMBROKE PINES, FL, 33025","Match","Exact","12316 WASHINGTON ST, PEMBROKE PINES, FL, 33025",649332155,"R"
40008,"12317 40TH AVE NE","SEATTLE","WA",98125,47.717600766,-122.285309847,8,"12317 40TH AVE NE, SEATTLE, WA, 98125","Match","Exact","12317 40TH AVE NE, SEATTLE, WA, 98125",239761213,"L"
40009,"12317 6TH AVE NE","TULALIP","WA",98271,48.107375334,-122.223105511,9,"12317 6TH AVE NE, TULALIP, WA, 98271","Match","Exact","12317 6TH AVE NE, TULALIP, WA, 98271",629053893,"R"
40010,"12317 DOWNY BIRCH ROAD","CHARLOTTE","NC",28277,35.2272261270001,-80.659129143,10,"12317 DOWNY BIRCH ROAD, CHARLOTTE, NC, 28277","Match","Non_Exact","12317 DOWNY BIRCH RD, CHARLOTTE, NC, 28227",618149219,"L"
40011,"12317 EDISON DR","OKLAHOMA CITY","OK",73120,35.5953667950001,-97.5415750179999,11,"12317 EDISON DR, OKLAHOMA CITY, OK, 73120","Match","Exact","12317 EDISON DR, OKLAHOMA CITY, OK, 73120",646804418,"L"
40012,"12318 DANDRIDGE DRIVE","DALLAS","TX",75243,32.9154470670001,-96.757700477,12,"12318 DANDRIDGE DRIVE, DALLAS, TX, 75243","Match","Exact","12318 DANDRIDGE DR, DALLAS, TX, 75243",102914181,"R"
40013,"12318 GLADE DR","FREDERICKSBURG","VA",22407,38.2956756230001,-77.611998039,13,"12318 GLADE DR, FREDERICKSBURG, VA, 22407","Match","Exact","12318 GLADE DR, FREDERICKSBURG, VA, 22407",228784665,"R"
40014,"12318 MADISON","CENTER JUNCTION","IA",52212,42.0784505890001,-91.118990042,14,"12318 MADISON, CENTER JUNCTION, IA, 52212","Match","Non_Exact","12318 MADISON RD, CENTER JUNCTION, IA, 52212",16521065,"R"
40015,"12318 SANLUCIA RIVER DR","HOUSTON","TX",77050,29.901501157,-95.288183483,15,"12318 SANLUCIA RIVER DR, HOUSTON, TX, 77050","Match","Non_Exact","12318 SAN LUCIA RIVER DR, HOUSTON, TX, 77050",96047016,"R"
40016,"12318 W PALO VERDE DR","LITCHFIELD PARK","AZ",85340,33.5215150710001,-112.324848441,16,"12318 W PALO VERDE DR, LITCHFIELD PARK, AZ, 85340","Match","Exact","12318 W PALO VERDE DR, LITCHFIELD PARK, AZ, 85340",647720755,"R"
40017,"12319 BELLAIRE BLVD STE 700-1000","HOUSTON","TX",77072,29.7036053160001,-95.5964870189999,17,"12319 BELLAIRE BLVD STE 700-1000, HOUSTON, TX, 77072","Match","Exact","12319 BELLAIRE BLVD, HOUSTON, TX, 77072",96608210,"L"
40018,"12319 BOWSMAN DRIVE","TOMBALL","TX",77377,30.0309522630001,-95.616402667,18,"12319 BOWSMAN DRIVE, TOMBALL, TX, 77377","Match","Exact","12319 BOWSMAN DR, TOMBALL, TX, 77377",96002696,"R"
40019,"12319 CHAIN LAKE RD","SNOHOMISH","WA",98290,47.8853434820001,-121.96935821,19,"12319 CHAIN LAKE RD, SNOHOMISH, WA, 98290","Match","Exact","12319 CHAIN LAKE RD, SNOHOMISH, WA, 98290",606938115,"R"
40020,"12319 DUCK RIVER ROAD","MIDLOTHAIN","VA",23112,37.447350015,-77.621071887,20,"12319 DUCK RIVER ROAD, MIDLOTHAIN, VA, 23112","Match","Non_Exact","12319 DUCK RIVER RD, MIDLOTHIAN, VA, 23112",636672522,"R"
40021,"12319 SUMMER AVE","NORWALK","CA",90650,33.91969485,-118.089641384,21,"12319 SUMMER AVE, NORWALK, CA, 90650","Match","Exact","12319 SUMMER AVE, NORWALK, CA, 90650",141741107,"R"
40022,"12319 YALE AVENUE","CHICAGO","IL",60628,41.6702506130001,-87.628424009,22,"12319 YALE AVENUE, CHICAGO, IL, 60628","Match","Non_Exact","12319 S YALE AVE, CHICAGO, IL, 60628",111834843,"L"
40023,"1232  EAST WALDBURG ST","SAVANNAH","GA",31404,32.0609595920001,-81.078050387,23,"1232  EAST WALDBURG ST, SAVANNAH, GA, 31404","Match","Exact","1232 E WALDBURG ST, SAVANNAH, GA, 31404",6177027,"L"
40024,"1232 15TH ST  APT D","SANTA MONICA","CA",90404,34.027069354,-118.487330697,24,"1232 15TH ST  APT D, SANTA MONICA, CA, 90404","Match","Exact","1232 15TH ST, SANTA MONICA, CA, 90404",241239306,"R"
40025,"1232 46TH ST","BROOKLYN","NY",11219,40.637560169,-73.991795091,25,"1232 46TH ST, BROOKLYN, NY, 11219","Match","Exact","1232 46TH ST, BROOKLYN, NY, 11219",59080206,"R"
40026,"1232 48TH STREET","WASHOUGAL","WA",98671,45.5849932300001,-122.317105477,26,"1232 48TH STREET, WASHOUGAL, WA, 98671","Match","Exact","1232 48TH ST, WASHOUGAL, WA, 98671",648928306,"R"
40027,"1232 ALLEN ST","BURTON","MI",48529,42.980740177,-83.684359286,27,"1232 ALLEN ST, BURTON, MI, 48529","Match","Exact","1232 ALLEN ST, BURTON, MI, 48529",69575771,"R"
40028,"1232 AVOCADO SUMMIT DRIVE","EL CAJON","CA",92019,32.776090507,-116.920282944,28,"1232 AVOCADO SUMMIT DRIVE, EL CAJON, CA, 92019","Match","Exact","1232 AVOCADO SUMMIT DR, EL CAJON, CA, 92019",195379221,"L"
40029,"1232 BRANDT DR","BREINIGSVILLE","PA",18031,40.537480685,-75.6365777029999,29,"1232 BRANDT DR, BREINIGSVILLE, PA, 18031","Match","Exact","1232 BRANDT DR, BREINIGSVILLE, PA, 18031",80753923,"L"
40030,"1232 BRENHAM DR","ALLEN","TX",75013,33.110279538,-96.6967766179999,30,"1232 BRENHAM DR, ALLEN, TX, 75013","Match","Exact","1232 BRENHAM DR, ALLEN, TX, 75013",123548756,"L"
40031,"1232 BROADWAY","TOLEDO","OH",43609,41.6340849790001,-83.5518940169999,31,"1232 BROADWAY, TOLEDO, OH, 43609","Match","Non_Exact","1232 BROADWAY ST, TOLEDO, OH, 43609",33944210,"R"
40032,"1232 CLEMENTINE RD","HOWARD","WI",54313,NA,NA,32,"1232 CLEMENTINE RD, HOWARD, WI, 54313","No_Match",NA,NA,NA,NA
40033,"1232 CORNERSTONE BLVD APT 268","DOWNINGTOWN","PA",19335,40.0200770330001,-75.665084399,33,"1232 CORNERSTONE BLVD APT 268, DOWNINGTOWN, PA, 19335","Match","Exact","1232 CORNERSTONE BLVD, DOWNINGTOWN, PA, 19335",653374299,"R"
40034,"1232 DOVER PLACE SE","CONYERS","GA",30013,33.568208618,-84.008117625,34,"1232 DOVER PLACE SE, CONYERS, GA, 30013","Match","Exact","1232 DOVER PL SE, CONYERS, GA, 30013",640433145,"R"
40035,"1232 DUNNAVANT ST RM 1","MEMPHIS","TN",38106,35.1128084630001,-90.015668271,35,"1232 DUNNAVANT ST RM 1, MEMPHIS, TN, 38106","Match","Exact","1232 DUNNAVANT ST, MEMPHIS, TN, 38106",72908751,"L"
40036,"1232 EISENHOWER RD","ROCK HILL","SC",29730,34.9517540850001,-81.015572198,36,"1232 EISENHOWER RD, ROCK HILL, SC, 29730","Match","Exact","1232 EISENHOWER RD, ROCK HILL, SC, 29730",636586512,"R"
40037,"1232 FARRAGUT DRIVE","SPARTANBURG","SC",29302,34.9356249000001,-81.863730999,37,"1232 FARRAGUT DRIVE, SPARTANBURG, SC, 29302","Match","Exact","1232 FARRAGUT DR, SPARTANBURG, SC, 29302",19472817,"R"
40038,"1232 HANCOCK STREET","BROOKLYN","NY",11221,40.6921316830001,-73.911264498,38,"1232 HANCOCK STREET, BROOKLYN, NY, 11221","Match","Exact","1232 HANCOCK ST, BROOKLYN, NY, 11221",59083073,"R"
40039,"1232 HICKMAN ROAD","AUGUSTA","GA",30904,33.469385521,-82.012118657,39,"1232 HICKMAN ROAD, AUGUSTA, GA, 30904","Match","Exact","1232 HICKMAN RD, AUGUSTA, GA, 30904",647304585,"L"
40040,"1232 KEWSWICK VILLAGE","CONYERS","GA",30013,NA,NA,40,"1232 KEWSWICK VILLAGE, CONYERS, GA, 30013","No_Match",NA,NA,NA,NA
40041,"1232 KINGSTON RD","UNIONTOWN","OH",44685,40.941073396,-81.491474356,41,"1232 KINGSTON RD, UNIONTOWN, OH, 44685","Match","Exact","1232 KINGSTON RD, UNIONTOWN, OH, 44685",61383077,"R"
40042,"1232 LAS PALMAS CIRCLE","ALICE","TX",78332,27.775884852,-98.062075818,42,"1232 LAS PALMAS CIRCLE, ALICE, TX, 78332","Match","Exact","1232 LAS PALMAS CIR, ALICE, TX, 78332",21513432,"R"
40043,"1232 LAUREL HILL ROAD","VERONA","VA",24482,38.1881957420001,-78.967051673,43,"1232 LAUREL HILL ROAD, VERONA, VA, 24482","Match","Exact","1232 LAUREL HILL RD, VERONA, VA, 24482",213480826,"L"
40044,"1232 MADRID AVE","TORRANCE","CA",90501,33.8355623100001,-118.324838118,44,"1232 MADRID AVE, TORRANCE, CA, 90501","Match","Exact","1232 MADRID AVE, TORRANCE, CA, 90501",142756894,"L"
40045,"1232 MEL AVE","LANSING","MI",48911,42.677932083,-84.570272817,45,"1232 MEL AVE, LANSING, MI, 48911","Match","Exact","1232 MEL AVE, LANSING, MI, 48911",17502407,"R"
40046,"1232 MONTOMERY ST","SAN FRANCISCO","CA",94133,37.800622511,-122.404337101,46,"1232 MONTOMERY ST, SAN FRANCISCO, CA, 94133","Match","Non_Exact","1232 MONTGOMERY ST, SAN FRANCISCO, CA, 94133",192281063,"R"
40047,"1232 MOUNTAIN CREEK RD","CROSSVILLE","TN",38572,35.7379650010001,-85.1626273109999,47,"1232 MOUNTAIN CREEK RD, CROSSVILLE, TN, 38572","Match","Exact","1232 MOUNTAIN CREEK RD, CROSSVILLE, TN, 38572",612055648,"R"
40048,"1232 N 15TH SUITE 2","BOZEMAN","MT",59715,NA,NA,48,"1232 N 15TH SUITE 2, BOZEMAN, MT, 59715","No_Match",NA,NA,NA,NA
40049,"1232 N IRON CREEK PLACE","MERIDIAN","ID",83642,43.6163124930001,-116.436650144,49,"1232 N IRON CREEK PLACE, MERIDIAN, ID, 83642","Match","Exact","1232 N IRON CREEK PL, MERIDIAN, ID, 83642",117881361,"L"
40050,"1232 N LAURA ST","JACKSONVILLE","FL",32206,30.33840687,-81.6563550719999,50,"1232 N LAURA ST, JACKSONVILLE, FL, 32206","Match","Exact","1232 N LAURA ST, JACKSONVILLE, FL, 32206",83898979,"L"
40051,"1232 NASHVILLE DRIVE","WESLEY CHAPEL","FL",33544,28.1736995050001,-82.3872609649999,51,"1232 NASHVILLE DRIVE, WESLEY CHAPEL, FL, 33544","Match","Exact","1232 NASHVILLE DR, WESLEY CHAPEL, FL, 33544",635535447,"R"
40052,"1232 NORTH 22ND STREET","MILWAUKEE","WI",53205,43.046353169,-87.940273694,52,"1232 NORTH 22ND STREET, MILWAUKEE, WI, 53205","Match","Exact","1232 N 22ND ST, MILWAUKEE, WI, 53205",77740252,"R"
40053,"1232 NW 14TH STREET","BOCA RATON","FL",33486,26.3629276390001,-80.111513411,53,"1232 NW 14TH STREET, BOCA RATON, FL, 33486","Match","Exact","1232 NW 14TH ST, BOCA RATON, FL, 33486",115302303,"R"
40054,"1232 OAK ST","WATERLOO","WI",53594,43.1845276560001,-88.97470083,54,"1232 OAK ST, WATERLOO, WI, 53594","Match","Exact","1232 OAK ST, WATERLOO, WI, 53594",53209221,"R"
40055,"1232 PESCOS WAY","SUNNYVALE","CA",94089,NA,NA,55,"1232 PESCOS WAY, SUNNYVALE, CA, 94089","No_Match",NA,NA,NA,NA
40056,"1232 S COLUMBIA PL","TULSA","OK",74104,36.14534138,-95.9504210759999,56,"1232 S COLUMBIA PL, TULSA, OK, 74104","Match","Exact","1232 S COLUMBIA PL, TULSA, OK, 74104",166443014,"R"
40057,"1232 SW 158TH STREET","OKLAHOMA CITY","OK",73170,35.3120397380001,-97.53598484,57,"1232 SW 158TH STREET, OKLAHOMA CITY, OK, 73170","Match","Exact","1232 SW 158TH ST, OKLAHOMA CITY, OK, 73170",649816547,"L"
40058,"1232 SW GOODMAN AVENUE","PORT ST LUCIE","FL",34953,27.2875248030001,-80.385187752,58,"1232 SW GOODMAN AVENUE, PORT ST LUCIE, FL, 34953","Match","Exact","1232 SW GOODMAN AVE, PORT ST LUCIE, FL, 34953",120137879,"L"
40059,"1232 THOMAS DRIVE","KAYSVILLE","UT",84037,41.0197478490001,-111.96340404,59,"1232 THOMAS DRIVE, KAYSVILLE, UT, 84037","Match","Exact","1232 THOMAS DR, KAYSVILLE, UT, 84037",155326787,"R"
40060,"1232 VILLA DRIVE","MERCED","CA",95340,37.3051012700001,-120.457900889,60,"1232 VILLA DRIVE, MERCED, CA, 95340","Match","Exact","1232 VILLA DR, MERCED, CA, 95340",125282172,"L"
40061,"1232 W ROSAL AVE","APACHE JUNCTION","AZ",85120,33.410616453,-111.559039088,61,"1232 W ROSAL AVE, APACHE JUNCTION, AZ, 85120","Match","Exact","1232 W ROSAL AVE, APACHE JUNCTION, AZ, 85120",129241187,"R"
40062,"1232 W STATE HIGHWAY M28","MUNISING","MI",49862,NA,NA,62,"1232 W STATE HIGHWAY M28, MUNISING, MI, 49862","No_Match",NA,NA,NA,NA
40063,"1232 WELLINGTON TERRACE","MAITLAND","FL",32751,28.641668558,-81.3465567819999,63,"1232 WELLINGTON TERRACE, MAITLAND, FL, 32751","Match","Exact","1232 WELLINGTON TER, MAITLAND, FL, 32751",93743836,"R"
40064,"1232 WEST RIVER ROAD","BRATTLEBORO","VT",5301,42.895733234,-72.594741735,64,"1232 WEST RIVER ROAD, BRATTLEBORO, VT, 5301","Match","Exact","1232 W RIVER RD, BRATTLEBORO, VT, 05301",171091013,"L"
40065,"1232 YUMA RIDGE DR SW","BYRON CENTER","MI",49315,42.831408287,-85.696407892,65,"1232 YUMA RIDGE DR SW, BYRON CENTER, MI, 49315","Match","Exact","1232 YUMA RIDGE DR SW, BYRON CENTER, MI, 49315",628711858,"L"
40066,"12320 BARKER CYPRESS STE 600 BOX 11","CYPRESS","TX",77429,29.959751828,-95.6721952299999,66,"12320 BARKER CYPRESS STE 600 BOX 11, CYPRESS, TX, 77429","Match","Non_Exact","12320 BARKER CYPRESS RD, CYPRESS, TX, 77429",642158482,"R"
40067,"12320 BEECHUT ST","HOUSTON","TX",77072,NA,NA,67,"12320 BEECHUT ST, HOUSTON, TX, 77072","No_Match",NA,NA,NA,NA
40068,"12320 CLEGHORN ROAD","COCKEYSVILLE","MD",21030,39.465589719,-76.6705725149999,68,"12320 CLEGHORN ROAD, COCKEYSVILLE, MD, 21030","Match","Exact","12320 CLEGHORN RD, COCKEYSVILLE, MD, 21030",647285755,"R"
40069,"12320 EAST 138 STREET SOUTH","BROKEN ARROW","OK",74011,35.963902891,-95.839733107,69,"12320 EAST 138 STREET SOUTH, BROKEN ARROW, OK, 74011","Match","Exact","12320 E 138TH ST S, BROKEN ARROW, OK, 74011",636291407,"R"
40070,"12320 FM 93","BELTON","TX",76513,31.0781081970001,-97.5350106,70,"12320 FM 93, BELTON, TX, 76513","Match","Exact","12320 FM 93, BELTON, TX, 76513",146172027,"R"
40071,"12320 HWY 44 BLDG 3D","GONZALES","LA",70737,30.2490792990001,-90.920877057,71,"12320 HWY 44 BLDG 3D, GONZALES, LA, 70737","Match","Non_Exact","12320 STATE RTE 44, GONZALES, LA, 70737",115026233,"R"
40072,"12320 N 32ND STREET SUITE 2","PHOENIX","AZ",85032,33.5983223550001,-112.013162216,72,"12320 N 32ND STREET SUITE 2, PHOENIX, AZ, 85032","Match","Non_Exact","12320 N 32ND ST, PHOENIX, AZ, 85032",128185962,"L"
40073,"12320 NW 48DR","POMPANO BEACH","FL",33076,NA,NA,73,"12320 NW 48DR, POMPANO BEACH, FL, 33076","No_Match",NA,NA,NA,NA
40074,"12320 PARKLAWN DRIVE","ROCKVILLE","MD",20852,39.059391428,-77.111066868,74,"12320 PARKLAWN DRIVE, ROCKVILLE, MD, 20852","Match","Exact","12320 PARKLAWN DR, ROCKVILLE, MD, 20852",62056413,"L"
40075,"12320 PINECREST ROAD","RESTON","VA",20191,38.9347784610001,-77.37465084,75,"12320 PINECREST ROAD, RESTON, VA, 20191","Match","Exact","12320 PINECREST RD, RESTON, VA, 20191",642591176,"R"
40076,"12320 WEP HAVEN DRIVE","ROCKVILLE","VA",23146,37.743951,-77.715137069,76,"12320 WEP HAVEN DRIVE, ROCKVILLE, VA, 23146","Match","Exact","12320 WEP HAVEN DR, ROCKVILLE, VA, 23146",84960307,"L"
40077,"12320 WEST COWDEN STREET NO 3","ODESSA","TX",79764,31.8611252320001,-102.525159087,77,"12320 WEST COWDEN STREET NO 3, ODESSA, TX, 79764","Match","Non_Exact","12320 W COWDEN ST, ODESSA, TX, 79764",139423512,"R"
40078,"12321 HARDIN DRIVE","OKLAHOMA CITY","OK",73111,NA,NA,78,"12321 HARDIN DRIVE, OKLAHOMA CITY, OK, 73111","No_Match",NA,NA,NA,NA
40079,"12321 HATCHERVILLE ROAD","BAYTOWN","TX",77521,29.8788620240001,-94.925815485,79,"12321 HATCHERVILLE ROAD, BAYTOWN, TX, 77521","Match","Exact","12321 HATCHERVILLE RD, BAYTOWN, TX, 77521",652902978,"R"
40080,"12321 JESSICA PLACE","CHARLOTTE","NC",28269,35.3648849530001,-80.791970836,80,"12321 JESSICA PLACE, CHARLOTTE, NC, 28269","Match","Exact","12321 JESSICA PL, CHARLOTTE, NC, 28269",625179661,"R"
40081,"12321 LAKESIDE PKWY","FAYETTEVILLE","GA",30215,33.4192058670001,-84.3920883919999,81,"12321 LAKESIDE PKWY, FAYETTEVILLE, GA, 30215","Match","Exact","12321 LAKESIDE PKWY, FAYETTEVILLE, GA, 30215",23327149,"R"
40082,"12321 SATICOY STREET","NORTH HOLLYWOOD","CA",91605,34.208483361,-118.401816705,82,"12321 SATICOY STREET, NORTH HOLLYWOOD, CA, 91605","Match","Exact","12321 SATICOY ST, N HOLLYWOOD, CA, 91605",141552663,"R"
40083,"12322 TALL PINES WAY","LAKEWOOD RANCH","FL",34202,27.429939619,-82.418858567,83,"12322 TALL PINES WAY, LAKEWOOD RANCH, FL, 34202","Match","Exact","12322 TALL PINES WAY, LAKEWOOD RCH, FL, 34202",16262474,"R"
40084,"12322 WEST QUINN DRIVE","MORRISON","CO",80465,39.6378386750001,-105.137143809,84,"12322 WEST QUINN DRIVE, MORRISON, CO, 80465","Match","Exact","12322 W QUINN DR, MORRISON, CO, 80465",177318514,"L"
40085,"12323 ALONDRA BLVD","NORWALK","CA",90650,33.8877591890001,-118.070088341,85,"12323 ALONDRA BLVD, NORWALK, CA, 90650","Match","Exact","12323 ALONDRA BLVD, NORWALK, CA, 90650",241144599,"L"
40086,"12323 FRANCES ST","BURLINGTON","WA",98233,48.467140494,-122.347117738,86,"12323 FRANCES ST, BURLINGTON, WA, 98233","Match","Exact","12323 FRANCES ST, BURLINGTON, WA, 98233",183651746,"R"
40087,"12323 IMPERIAL HWY","NORWALK","CA",90650,NA,NA,87,"12323 IMPERIAL HWY, NORWALK, CA, 90650","No_Match",NA,NA,NA,NA
40088,"12323 MONTARA DR","LARGO","FL",33773,27.884340669,-82.749072541,88,"12323 MONTARA DR, LARGO, FL, 33773","Match","Exact","12323 MONTARA DR, LARGO, FL, 33773",124750967,"L"
40089,"12323 SOUTH YALE","CHICAGO","IL",60628,41.670188453,-87.628421707,89,"12323 SOUTH YALE, CHICAGO, IL, 60628","Match","Non_Exact","12323 S YALE AVE, CHICAGO, IL, 60628",111834843,"L"
40090,"12323 SW 132ND CT","MIAMI","FL",33186,25.6534954890001,-80.408468165,90,"12323 SW 132ND CT, MIAMI, FL, 33186","Match","Exact","12323 SW 132ND CT, MIAMI, FL, 33186",640558997,"R"
40091,"12324 BEDFORD DR","SOUTHGATE","MI",48195,42.217746784,-83.20451088,91,"12324 BEDFORD DR, SOUTHGATE, MI, 48195","Match","Exact","12324 BEDFORD DR, SOUTHGATE, MI, 48195",95448192,"R"
40092,"12324 CHARLES STREET","OMAHA","NE",68154,41.273626533,-96.107615734,92,"12324 CHARLES STREET, OMAHA, NE, 68154","Match","Exact","12324 CHARLES ST, OMAHA, NE, 68154",116967913,"R"
40093,"12324 E 86ST NORTH 461","OWASSO","OK",74055,NA,NA,93,"12324 E 86ST NORTH 461, OWASSO, OK, 74055","No_Match",NA,NA,NA,NA
40094,"12324 GAYTON BLUFFS LN","HENRICO","VA",23233,37.653697197,-77.640149096,94,"12324 GAYTON BLUFFS LN, HENRICO, VA, 23233","Match","Exact","12324 GAYTON BLUFFS LN, HENRICO, VA, 23233",106665489,"R"
40095,"12324 S MASON VIEW CIR","RIVERTON","UT",84065,NA,NA,95,"12324 S MASON VIEW CIR, RIVERTON, UT, 84065","Tie",NA,NA,NA,NA
40096,"12324 SW SUSSEX ST","BEAVERTON","OR",97008,45.4716361070001,-122.803491781,96,"12324 SW SUSSEX ST, BEAVERTON, OR, 97008","Match","Exact","12324 SW SUSSEX ST, BEAVERTON, OR, 97008",158186781,"R"
40097,"12325 HYMEADOW DR SUITE 2-100","AUSTIN","TX",78750,30.455128362,-97.796685366,97,"12325 HYMEADOW DR SUITE 2-100, AUSTIN, TX, 78750","Match","Exact","12325 HYMEADOW DR, AUSTIN, TX, 78750",647866791,"R"
40098,"12325 IMPERIAL HWY 295","NORWAL","CA",90650,NA,NA,98,"12325 IMPERIAL HWY 295, NORWAL, CA, 90650","No_Match",NA,NA,NA,NA
40099,"12325 NW 26TH CT","CORAL SPRINGS","FL",33065,26.264158594,-80.290872787,99,"12325 NW 26TH CT, CORAL SPRINGS, FL, 33065","Match","Exact","12325 NW 26TH CT, CORAL SPRINGS, FL, 33065",114772605,"R"
40100,"12325 SW THORNWOOD DRIVE","TIGARD","OR",97224,45.412326013,-122.803803029,100,"12325 SW THORNWOOD DRIVE, TIGARD, OR, 97224","Match","Exact","12325 SW THORNWOOD DR, TIGARD, OR, 97224",627419388,"R"
40101,"12326 BELLINGHAM BLVD","FISHERS","IN",46037,39.9679177300001,-85.9070862199999,101,"12326 BELLINGHAM BLVD, FISHERS, IN, 46037","Match","Exact","12326 BELLINGHAM BLVD, FISHERS, IN, 46037",624371191,"R"
40102,"12326 OAK DRIVE","ORIENT","OH",43146,39.7718276860001,-83.170287631,102,"12326 OAK DRIVE, ORIENT, OH, 43146","Match","Exact","12326 OAK DR, ORIENT, OH, 43146",37449789,"R"
40103,"12327 15TH AVE NE","SEATTLE","WA",98125,47.7179482330001,-122.312636147,103,"12327 15TH AVE NE, SEATTLE, WA, 98125","Match","Exact","12327 15TH AVE NE, SEATTLE, WA, 98125",186576277,"L"
40104,"12327 MERRICK BLVD APT 48","JAMAICA","NY",11434,NA,NA,104,"12327 MERRICK BLVD APT 48, JAMAICA, NY, 11434","No_Match",NA,NA,NA,NA
40105,"12328 GREENBRIAR BRANCH DRIVE","POTOMAC","MD",20854,39.0574620580001,-77.236052006,105,"12328 GREENBRIAR BRANCH DRIVE, POTOMAC, MD, 20854","Match","Exact","12328 GREENBRIAR BRANCH, POTOMAC, MD, 20854",618601227,"L"
40106,"12329 CULBERTSON DRIVE","EDINBORO","PA",16412,41.8792062520001,-80.150982552,106,"12329 CULBERTSON DRIVE, EDINBORO, PA, 16412","Match","Exact","12329 CULBERTSON DR, EDINBORO, PA, 16412",117515030,"R"
40107,"12329 HIGHWAY 5","CAVALIER","ND",58220,48.7609619070001,-97.988364041,107,"12329 HIGHWAY 5, CAVALIER, ND, 58220","Match","Exact","12329 HWY 5, CAVALIER, ND, 58220",181375693,"L"
40108,"12329 KOSICH PLACE","SARATOGA","CA",95070,37.288425024,-121.997082471,108,"12329 KOSICH PLACE, SARATOGA, CA, 95070","Match","Exact","12329 KOSICH PL, SARATOGA, CA, 95070",618174465,"L"
40109,"12329 ROSSRIDGE CT","ST LOUIS","MO",63146,38.6844242670001,-90.451758,109,"12329 ROSSRIDGE CT, ST LOUIS, MO, 63146","Match","Exact","12329 ROSSRIDGE CT, SAINT LOUIS, MO, 63146",100124279,"R"
40110,"1233  17TH AVE S","NASHVILLE","TN",37212,36.1427512120001,-86.7945943249999,110,"1233  17TH AVE S, NASHVILLE, TN, 37212","Match","Exact","1233 17TH AVE S, NASHVILLE, TN, 37212",638898443,"R"
40111,"1233 7TH ST S APT E 302","WAITE PARK","MN",56387,NA,NA,111,"1233 7TH ST S APT E 302, WAITE PARK, MN, 56387","No_Match",NA,NA,NA,NA
40112,"1233 A BRADEN RD","ALLEYTON","TX",78935,29.798010209,-96.444548019,112,"1233 A BRADEN RD, ALLEYTON, TX, 78935","Match","Exact","1233 A BRADEN RD, ALLEYTON, TX, 78935",41165015,"L"
40113,"1233 BAINBRIDGE ST PH3","PHILADELPHIA","PA",19147,39.9423940180001,-75.1625241409999,113,"1233 BAINBRIDGE ST PH3, PHILADELPHIA, PA, 19147","Match","Exact","1233 BAINBRIDGE ST, PHILADELPHIA, PA, 19147",639163230,"R"
40114,"1233 BALTIMORE ST","SANDUSKY","OH",44870,41.445962061,-82.701850608,114,"1233 BALTIMORE ST, SANDUSKY, OH, 44870","Match","Exact","1233 BALTIMORE ST, SANDUSKY, OH, 44870",55335740,"L"
40115,"1233 BARRETT RD","CLOVER","SC",29710,35.131967435,-81.236221384,115,"1233 BARRETT RD, CLOVER, SC, 29710","Match","Exact","1233 BARRETT RD, CLOVER, SC, 29710",19797925,"R"
40116,"1233 BEECH STREET  NUMBER 11","ATLANTIC BEACH","NY",11509,40.5867728010001,-73.70668096,116,"1233 BEECH STREET  NUMBER 11, ATLANTIC BEACH, NY, 11509","Match","Exact","1233 BEECH ST, ATLANTIC BEACH, NY, 11509",634259082,"L"
40117,"1233 BEECH STREET  UNIT 11","ATLANTIC BEACH","NY",11509,40.5867728010001,-73.70668096,117,"1233 BEECH STREET  UNIT 11, ATLANTIC BEACH, NY, 11509","Match","Exact","1233 BEECH ST, ATLANTIC BEACH, NY, 11509",634259082,"L"
40118,"1233 BENEFIT ROAD","CHESAPEAKE","VA",23322,36.6296194500001,-76.259772267,118,"1233 BENEFIT ROAD, CHESAPEAKE, VA, 23322","Match","Exact","1233 BENEFIT RD, CHESAPEAKE, VA, 23322",121793848,"L"
40119,"1233 BOTELHO ST","ANTIOCH","CA",94509,38.0093013040001,-121.789180036,119,"1233 BOTELHO ST, ANTIOCH, CA, 94509","Match","Exact","1233 BOTELHO ST, ANTIOCH, CA, 94509",192032768,"L"
40120,"1233 BOWER STREET","HOWELL","MI",48843,42.6183366430001,-83.93161288,120,"1233 BOWER STREET, HOWELL, MI, 48843","Match","Exact","1233 BOWER ST, HOWELL, MI, 48843",642528045,"R"
40121,"1233 BROOKSIDE AVE SUITE B","REDLANDS","CA",92373,34.0478493570001,-117.199320106,121,"1233 BROOKSIDE AVE SUITE B, REDLANDS, CA, 92373","Match","Exact","1233 BROOKSIDE AVE, REDLANDS, CA, 92373",648195215,"L"
40122,"1233 BULLRUSH DRIVE","BATON ROUGE","LA",70810,30.355500826,-91.072577678,122,"1233 BULLRUSH DRIVE, BATON ROUGE, LA, 70810","Match","Exact","1233 BULLRUSH DR, BATON ROUGE, LA, 70810",92193937,"R"
40123,"1233 CANYON RIM CIRCLE","WESTLAKE VILLAGE","CA",91362,34.1861054330001,-118.790826395,123,"1233 CANYON RIM CIRCLE, WESTLAKE VILLAGE, CA, 91362","Match","Exact","1233 CANYON RIM CIR, WESTLAKE VILLAGE, CA, 91362",110003747,"L"
40124,"1233 CHAWEE RD LOT 23","BREAUX BRIDGE","LA",70517,30.246003187,-91.832518298,124,"1233 CHAWEE RD LOT 23, BREAUX BRIDGE, LA, 70517","Match","Exact","1233 CHAWEE RD, BREAUX BRIDGE, LA, 70517",85828052,"L"
40125,"1233 COUNTY ROAD 6628","BANKS","AL",36005,31.868375058,-85.6993898699999,125,"1233 COUNTY ROAD 6628, BANKS, AL, 36005","Match","Exact","1233 CO RD 6628, BANKS, AL, 36005",634417889,"R"
40126,"1233 CREASE","PHILADELPHIA","PA",19125,39.9699193710001,-75.132808724,126,"1233 CREASE, PHILADELPHIA, PA, 19125","Match","Non_Exact","1233 CREASE ST, PHILADELPHIA, PA, 19125",131425566,"R"
40127,"1233 FOX CHAPEL DRIVE","LUTZ","FL",33549,28.173787287,-82.44346273,127,"1233 FOX CHAPEL DRIVE, LUTZ, FL, 33549","Match","Exact","1233 FOX CHAPEL DR, LUTZ, FL, 33549",86387780,"L"
40128,"1233 HEATHCOT PL","EL DORADO HILLS","CA",95762,38.7268529310001,-121.079979513,128,"1233 HEATHCOT PL, EL DORADO HILLS, CA, 95762","Match","Exact","1233 HEATHCOT PL, EL DORADO HILLS, CA, 95762",133048065,"R"
40129,"1233 LAWRENCE","ALICE","TX",78332,27.7408484270001,-98.059467548,129,"1233 LAWRENCE, ALICE, TX, 78332","Match","Non_Exact","1233 LAWRENCE TRL, ALICE, TX, 78332",21528201,"L"
40130,"1233 LUZERNE STREET EXT","JOHNSTOWN","PA",15905,NA,NA,130,"1233 LUZERNE STREET EXT, JOHNSTOWN, PA, 15905","No_Match",NA,NA,NA,NA
40131,"1233 MUSCOGEE TRAIL","CARROLLTON","TX",75010,33.028063769,-96.9255859799999,131,"1233 MUSCOGEE TRAIL, CARROLLTON, TX, 75010","Match","Exact","1233 MUSCOGEE TRL, CARROLLTON, TX, 75010",627714164,"L"
40132,"1233 N GULFSTREAM AVE 304","SARASOTA","FL",34236,27.335686208,-82.545660465,132,"1233 N GULFSTREAM AVE 304, SARASOTA, FL, 34236","Match","Non_Exact","1233 N GULFSTREAM AVE, SARASOTA, FL, 34236",16347875,"L"
40133,"1233 OAK STREET","ALTAMONTE SPRINGS","FL",32701,28.666765033,-81.34849694,133,"1233 OAK STREET, ALTAMONTE SPRINGS, FL, 32701","Match","Exact","1233 OAK ST, ALTAMONTE SPRINGS, FL, 32701",93743334,"R"
40134,"1233 OAKCREST DR","PLEASANTON","TX",78064,28.9584810370001,-98.498900201,134,"1233 OAKCREST DR, PLEASANTON, TX, 78064","Match","Exact","1233 OAKCREST DR, PLEASANTON, TX, 78064",24459552,"R"
40135,"1233 PENNY ROAD","HIGH POINT","NC",27265,36.0020962,-79.954709513,135,"1233 PENNY ROAD, HIGH POINT, NC, 27265","Match","Exact","1233 PENNY RD, HIGH POINT, NC, 27265",617901130,"L"
40136,"1233 POPLAR CIRCLE UNIT 102","HARRISONBURG","VA",22802,38.4825861,-78.872571383,136,"1233 POPLAR CIRCLE UNIT 102, HARRISONBURG, VA, 22802","Match","Exact","1233 POPLAR CIR, HARRISONBURG, VA, 22802",55762110,"L"
40137,"1233 RED ABBOTT RD","CLIFFORD TWP","PA",18470,41.6923431870001,-75.585275192,137,"1233 RED ABBOTT RD, CLIFFORD TWP, PA, 18470","Match","Exact","1233 ABBOTT RD, CLIFFORD TWP, PA, 18470",612260495,"L"
40138,"1233 REGATTA ST 204","FAYETTEVILLE","NC",28301,35.086448869,-78.918412323,138,"1233 REGATTA ST 204, FAYETTEVILLE, NC, 28301","Match","Exact","1233 REGATTA ST, FAYETTEVILLE, NC, 28301",647175305,"R"
40139,"1233 REVELL ST","ROCKFORD","IL",61107,NA,NA,139,"1233 REVELL ST, ROCKFORD, IL, 61107","Tie",NA,NA,NA,NA
40140,"1233 ROUTE 390","MOUNTAINHOME","PA",18342,NA,NA,140,"1233 ROUTE 390, MOUNTAINHOME, PA, 18342","No_Match",NA,NA,NA,NA
40141,"1233 SANDERSON RD","CHESAPEAKE","VA",23322,36.614413927,-76.162796718,141,"1233 SANDERSON RD, CHESAPEAKE, VA, 23322","Match","Exact","1233 SANDERSON RD, CHESAPEAKE, VA, 23322",642143302,"R"
40142,"1233 SAVANAH PLACE SE","WASHINGTON","DC",20032,38.8437675480001,-76.989222774,142,"1233 SAVANAH PLACE SE, WASHINGTON, DC, 20032","Match","Non_Exact","1233 SAVANNAH PL SE, WASHINGTON, DC, 20032",76232509,"R"
40143,"1233 SE 174TH AVE","PORTLAND","OR",97233,45.5140590760001,-122.484733293,143,"1233 SE 174TH AVE, PORTLAND, OR, 97233","Match","Exact","1233 SE 174TH AVE, PORTLAND, OR, 97233",157523970,"R"
40144,"1233 SEIDERSVILLE RD","BETHLEHEM","PA",18015,40.5898727740001,-75.374736673,144,"1233 SEIDERSVILLE RD, BETHLEHEM, PA, 18015","Match","Exact","1233 SEIDERSVILLE RD, BETHLEHEM, PA, 18015",136907107,"L"
40145,"1233 SHELBURNE RD SUITE C-4","SOUTH BURLINGTON","VT",5403,44.4368213440001,-73.210444708,145,"1233 SHELBURNE RD SUITE C-4, SOUTH BURLINGTON, VT, 5403","Match","Exact","1233 SHELBURNE RD, S BURLINGTON, VT, 05403",135829593,"R"
40146,"1233 SHELBY STREET","INDIANAPOLIS","IN",46203,39.75068444,-86.139773672,146,"1233 SHELBY STREET, INDIANAPOLIS, IN, 46203","Match","Exact","1233 SHELBY ST, INDIANAPOLIS, IN, 46203",107993799,"L"
40147,"1233 SOUTH 52ND STREET","PHILADELPHIA","PA",19143,39.9422679990001,-75.22093788,147,"1233 SOUTH 52ND STREET, PHILADELPHIA, PA, 19143","Match","Exact","1233 S 52ND ST, PHILADELPHIA, PA, 19143",131399951,"L"
40148,"1233 SPECULATOR CT","LEXINGTON","KY",40514,37.9828604210001,-84.565298167,148,"1233 SPECULATOR CT, LEXINGTON, KY, 40514","Match","Exact","1233 SPECULATOR CT, LEXINGTON, KY, 40514",31938283,"R"
40149,"1233 SYCAMORE ST","CLARKSTON","WA",99403,46.412667291,-117.055153446,149,"1233 SYCAMORE ST, CLARKSTON, WA, 99403","Match","Exact","1233 SYCAMORE ST, CLARKSTON, WA, 99403",607256974,"L"
40150,"1233 TAKEAWAY PLACE","MORRISVILLE","NC",27560,35.8131383910001,-78.82990563,150,"1233 TAKEAWAY PLACE, MORRISVILLE, NC, 27560","Match","Exact","1233 TAKEAWAY PL, MORRISVILLE, NC, 27560",639847706,"L"
40151,"1233 UPLAND HILLS DR N","UPLAND","CA",91784,34.124184085,-117.635057827,151,"1233 UPLAND HILLS DR N, UPLAND, CA, 91784","Match","Exact","1233 UPLAND HILLS DR N, UPLAND, CA, 91784",144718078,"L"
40152,"1233 W JACKSON ST","ORLANDO","FL",32805,28.539179683,-81.396122582,152,"1233 W JACKSON ST, ORLANDO, FL, 32805","Match","Exact","1233 W JACKSON ST, ORLANDO, FL, 32805",94280917,"R"
40153,"1233 WAREHAM CIRCLE","AKRON","OH",44312,40.979719894,-81.481146397,153,"1233 WAREHAM CIRCLE, AKRON, OH, 44312","Match","Exact","1233 WAREHAM CIR, AKRON, OH, 44312",61381790,"L"
40154,"1233 WEST LOOP SOUTH SUITE 1300","HOUSTON","TX",77027,NA,NA,154,"1233 WEST LOOP SOUTH SUITE 1300, HOUSTON, TX, 77027","No_Match",NA,NA,NA,NA
40155,"1233 WILSHIRE BLVD SUITE 400","SANTA MONICA","CA",90402,34.0255412880001,-118.490392478,155,"1233 WILSHIRE BLVD SUITE 400, SANTA MONICA, CA, 90402","Match","Non_Exact","1233 WILSHIRE BLVD, SANTA MONICA, CA, 90403",142715757,"L"
40156,"12330 CLAY ROAD","NEWTON","WV",25266,38.5918966310001,-81.179471446,156,"12330 CLAY ROAD, NEWTON, WV, 25266","Match","Exact","12330 CLAY RD, NEWTON, WV, 25266",649274227,"L"
40157,"12330 DEERHURST DR","MIDLOTHIAN","VA",23113,37.5149485430001,-77.633685327,157,"12330 DEERHURST DR, MIDLOTHIAN, VA, 23113","Match","Exact","12330 DEERHURST DR, MIDLOTHIAN, VA, 23113",201567637,"L"
40158,"12330 E SHADOW LAKE LANE","CYPRESS","TX",77429,NA,NA,158,"12330 E SHADOW LAKE LANE, CYPRESS, TX, 77429","Tie",NA,NA,NA,NA
40159,"12330 GARBER ST","PACOIMA","CA",91331,34.2690396690001,-118.402258362,159,"12330 GARBER ST, PACOIMA, CA, 91331","Match","Exact","12330 GARBER ST, PACOIMA, CA, 91331",141551248,"L"
40160,"12330 METRIC BLVD APT 7206","AUSTIN","TX",78758,30.410344025,-97.696131054,160,"12330 METRIC BLVD APT 7206, AUSTIN, TX, 78758","Match","Exact","12330 METRIC BLVD, AUSTIN, TX, 78758",641676381,"L"
40161,"12330 OSBORNE ST UNIT 26","1.   PACOIMA","CA",91331,34.260845363,-118.402631609,161,"12330 OSBORNE ST UNIT 26, 1.   PACOIMA, CA, 91331","Match","Non_Exact","12330 OSBORNE ST, PACOIMA, CA, 91331",141551303,"L"
40162,"12330 PAINESVILLE WARREN ROAD","CONCORD TWP.","OH",44077,41.6917700710001,-81.195435591,162,"12330 PAINESVILLE WARREN ROAD, CONCORD TWP., OH, 44077","Match","Exact","12330 PAINESVILLE WARREN RD, CONCORD TWP, OH, 44077",137467518,"L"
40163,"12330 RIDGE COVE CIRCLE","CHARLOTTE","NC",28273,35.1191611950001,-80.972420449,163,"12330 RIDGE COVE CIRCLE, CHARLOTTE, NC, 28273","Match","Exact","12330 RIDGE COVE CIR, CHARLOTTE, NC, 28273",70530335,"R"
40164,"12330 SHADETREE LANE","LAUREL","MD",20708,39.055006517,-76.846878352,164,"12330 SHADETREE LANE, LAUREL, MD, 20708","Match","Exact","12330 SHADETREE LN, LAUREL, MD, 20708",76326541,"L"
40165,"12330 STRATFIELD PLACE CIRCLE","PINEVILLE","NC",28134,35.074194063,-80.887166586,165,"12330 STRATFIELD PLACE CIRCLE, PINEVILLE, NC, 28134","Match","Exact","12330 STRATFIELD PLACE CIR, PINEVILLE, NC, 28134",70586683,"R"
40166,"12330 SW 121ST AVENUE","TIGARD","OR",97223,45.4307298150001,-122.799871892,166,"12330 SW 121ST AVENUE, TIGARD, OR, 97223","Match","Exact","12330 SW 121ST AVE, TIGARD, OR, 97223",639782361,"L"
40167,"12330 SW 53RD STREET S-707","COOPER CITY","FL",33330,NA,NA,167,"12330 SW 53RD STREET S-707, COOPER CITY, FL, 33330","No_Match",NA,NA,NA,NA
40168,"12330 VANCE JACKSON APT 10105","SAN ANTONIO","TX",78230,29.557877487,-98.574632354,168,"12330 VANCE JACKSON APT 10105, SAN ANTONIO, TX, 78230","Match","Non_Exact","12330 VANCE JACKSON RD, SAN ANTONIO, TX, 78230",641655128,"L"
40169,"12331 MURPHY RD","STAFFORD","TX",77477,29.642192317,-95.5651664279999,169,"12331 MURPHY RD, STAFFORD, TX, 77477","Match","Exact","12331 MURPHY RD, STAFFORD, TX, 77477",78341113,"R"
40170,"12331 N GESSNER DR  APT 127","HOUSTON","TX",77064,NA,NA,170,"12331 N GESSNER DR  APT 127, HOUSTON, TX, 77064","Tie",NA,NA,NA,NA
40171,"12331 PACIFIC HWY SW 76","LAKEWOOD","WA",98498,47.145206816,-122.511355108,171,"12331 PACIFIC HWY SW 76, LAKEWOOD, WA, 98498","Match","Non_Exact","12331 PACIFIC HWY SW, LAKEWOOD, WA, 98499",184623899,"L"
40172,"12332 71ST AVENUE","BLUE GRASS","IA",52726,41.4828024110001,-90.762901721,172,"12332 71ST AVENUE, BLUE GRASS, IA, 52726","Match","Exact","12332 71ST AVE, BLUE GRASS, IA, 52726",122719597,"L"
40173,"12332 JASPER ST","BRIGHTON","CO",80603,39.9157322770001,-104.804233421,173,"12332 JASPER ST, BRIGHTON, CO, 80603","Match","Exact","12332 JASPER ST, BRIGHTON, CO, 80603",617967409,"L"
40174,"12332 PERRY RD","HOUSTON","TX",77070,29.956620743,-95.563819281,174,"12332 PERRY RD, HOUSTON, TX, 77070","Match","Exact","12332 PERRY RD, HOUSTON, TX, 77070",644546801,"R"
40175,"12332 SALISBURY ROAD","OCEAN CITY","MD",21842,NA,NA,175,"12332 SALISBURY ROAD, OCEAN CITY, MD, 21842","No_Match",NA,NA,NA,NA
40176,"12332 SLEEPY LAKE COURT","FAIRFAX","VA",22033,38.8647530920001,-77.372760423,176,"12332 SLEEPY LAKE COURT, FAIRFAX, VA, 22033","Match","Exact","12332 SLEEPY LAKE CT, FAIRFAX, VA, 22033",76012511,"L"
40177,"12333 195TH STREET","ARTESIA","CA",90701,33.8534261670001,-118.069436872,177,"12333 195TH STREET, ARTESIA, CA, 90701","Match","Exact","12333 195TH ST, ARTESIA, CA, 90701",142676909,"L"
40178,"12333 83RD AVENUE","KEW GARDENS","NY",11415,NA,NA,178,"12333 83RD AVENUE, KEW GARDENS, NY, 11415","No_Match",NA,NA,NA,NA
40179,"12333 NE RUSSELL STREET","PORTLAND","OR",97230,45.541248927,-122.535858261,179,"12333 NE RUSSELL STREET, PORTLAND, OR, 97230","Match","Exact","12333 NE RUSSELL ST, PORTLAND, OR, 97230",157519522,"L"
40180,"12333 SOWDEN RD PMB 19434 STE B","HOUSTON","TX",77080,29.8281376800001,-95.497835047,180,"12333 SOWDEN RD PMB 19434 STE B, HOUSTON, TX, 77080","Match","Exact","12333 SOWDEN RD, HOUSTON, TX, 77080",96026134,"L"
40181,"12334 CROSS CUT","HELOTES","TX",78023,29.613422251,-98.7373985359999,181,"12334 CROSS CUT, HELOTES, TX, 78023","Match","Exact","12334 CROSS CUT, HELOTES, TX, 78023",627921565,"L"
40182,"12334 OTSEGO ST","VALLEY VILLAGE","CA",91607,34.1630529220001,-118.401870092,182,"12334 OTSEGO ST, VALLEY VILLAGE, CA, 91607","Match","Exact","12334 OTSEGO ST, VALLEY VLG, CA, 91607",141563893,"L"
40183,"12334 PANTHERSVILLE DRIVE","CHARLOTTE","NC",28269,35.361628904,-80.787048382,183,"12334 PANTHERSVILLE DRIVE, CHARLOTTE, NC, 28269","Match","Exact","12334 PANTHERSVILLE DR, CHARLOTTE, NC, 28269",70531732,"R"
40184,"12334 S KEELER AVE","ALSIP","IL",60803,41.6682954880001,-87.725089493,184,"12334 S KEELER AVE, ALSIP, IL, 60803","Match","Exact","12334 S KEELER AVE, ALSIP, IL, 60803",111824576,"R"
40185,"12335 82ND RD APT 4","KEW GARDENS","NY",11415,NA,NA,185,"12335 82ND RD APT 4, KEW GARDENS, NY, 11415","No_Match",NA,NA,NA,NA
40186,"12335 ACCIPITER DR","ORLANDO","FL",32837,28.3658325320001,-81.3954811999999,186,"12335 ACCIPITER DR, ORLANDO, FL, 32837","Match","Exact","12335 ACCIPITER DR, ORLANDO, FL, 32837",617827387,"L"
40187,"12335 E BARBARY COAST RD","TUCSON","AZ",85749,32.242386783,-110.728709498,187,"12335 E BARBARY COAST RD, TUCSON, AZ, 85749","Match","Exact","12335 E BARBARY COAST RD, TUCSON, AZ, 85749",121189495,"L"
40188,"12335 GRIFFING BLVD","MIAMI","FL",33161,25.888630957,-80.1916339759999,188,"12335 GRIFFING BLVD, MIAMI, FL, 33161","Match","Exact","12335 GRIFFING BLVD, MIAMI, FL, 33161",116290041,"R"
40189,"12335 KINGSRIDE LANE 320","HOUSTON","TX",77024,29.779095812,-95.5467135979999,189,"12335 KINGSRIDE LANE 320, HOUSTON, TX, 77024","Match","Exact","12335 KINGSRIDE LN, HOUSTON, TX, 77024",642476088,"L"
40190,"12335 KINGSRIDE LN 245","HOUSTON","TX",77024,29.779095812,-95.5467135979999,190,"12335 KINGSRIDE LN 245, HOUSTON, TX, 77024","Match","Exact","12335 KINGSRIDE LN, HOUSTON, TX, 77024",642476088,"L"
40191,"12335 UNIVERSITY MALL CRT 2ND FLOOR","TAMPA","FL",33612,28.0576131490001,-82.4342837309999,191,"12335 UNIVERSITY MALL CRT 2ND FLOOR, TAMPA, FL, 33612","Match","Exact","12335 UNIVERSITY MALL CT, TAMPA, FL, 33612",104683331,"R"
40192,"12336 E MICHIGAN AVE","GRASS LAKE","MI",49240,42.2552370170001,-84.183072001,192,"12336 E MICHIGAN AVE, GRASS LAKE, MI, 49240","Match","Exact","12336 E MICHIGAN AVE, GRASS LAKE, MI, 49240",17612564,"L"
40193,"12336 GREAT COMMISSION WAY","ORLANDO","FL",32832,28.419186316,-81.200147946,193,"12336 GREAT COMMISSION WAY, ORLANDO, FL, 32832","Match","Exact","12336 GREAT COMMISSION WAY, ORLANDO, FL, 32832",649053336,"R"
40194,"12336 HUNTING BIRDS LANE","CHARLOTTE","NC",28278,35.076063956,-80.9908645209999,194,"12336 HUNTING BIRDS LANE, CHARLOTTE, NC, 28278","Match","Exact","12336 HUNTING BIRDS LN, CHARLOTTE, NC, 28278",616588906,"R"
40195,"12336 TIERRA MADRE","EL PASO","TX",79938,31.7813302170001,-106.261046604,195,"12336 TIERRA MADRE, EL PASO, TX, 79938","Match","Non_Exact","12336 TIERRA MADRE RD, EL PASO, TX, 79938",189398380,"L"
40196,"12337  FRANCES ROAD","OTISVILLE","MI",48463,43.1369267110001,-83.468702623,196,"12337  FRANCES ROAD, OTISVILLE, MI, 48463","Match","Exact","12337 FRANCES RD, OTISVILLE, MI, 48463",652799353,"L"
40197,"12337 GRIER PLACE","MATTHEWS","NC",28105,35.1445755510001,-80.693263029,197,"12337 GRIER PLACE, MATTHEWS, NC, 28105","Match","Exact","12337 GRIER PL, MATTHEWS, NC, 28105",70495004,"L"
40198,"12337 W VILLA HERMOSA CT","SUN CITY","AZ",85375,33.6953466640001,-112.326153882,198,"12337 W VILLA HERMOSA CT, SUN CITY, AZ, 85375","Match","Exact","12337 W VILLA HERMOSA CT, SUN CITY, AZ, 85375",636099378,"R"
40199,"12338 CROWN CT","CERRITOS","CA",90703,33.853078499,-118.069175998,199,"12338 CROWN CT, CERRITOS, CA, 90703","Match","Exact","12338 CROWN CT, CERRITOS, CA, 90703",142676914,"R"
40200,"12338 LUSTIANO COURT","RANCHO CUCAMONGA","CA",91739,34.142638124,-117.535800051,200,"12338 LUSTIANO COURT, RANCHO CUCAMONGA, CA, 91739","Match","Non_Exact","12338 LUSITANO CT, ETIWANDA, CA, 91739",614821833,"L"
40201,"12338 MCCOURTNEY ROAD","GRASS VALLEY","CA",95949,39.2003131650001,-121.091970411,201,"12338 MCCOURTNEY ROAD, GRASS VALLEY, CA, 95949","Match","Exact","12338 MCCOURTNEY RD, GRASS VALLEY, CA, 95949",106534411,"L"
40202,"12338 RT 37","MARION","IL",62959,NA,NA,202,"12338 RT 37, MARION, IL, 62959","No_Match",NA,NA,NA,NA
40203,"12339 CAMERON CT","CALEDONIA","IL",61011,42.329583782,-88.9031689179999,203,"12339 CAMERON CT, CALEDONIA, IL, 61011","Match","Exact","12339 CAMERON CT, CALEDONIA, IL, 61011",92164778,"R"
40204,"12339 GREEN RIDGE DRIVE","WILLIS","TX",77318,30.42140283,-95.557442765,204,"12339 GREEN RIDGE DRIVE, WILLIS, TX, 77318","Match","Non_Exact","12339 GREENRIDGE DR, WILLIS, TX, 77318",79336426,"L"
40205,"12339 SHUMARD LANE","FRISCO","TX",75035,33.1800291770001,-96.766132157,205,"12339 SHUMARD LANE, FRISCO, TX, 75035","Match","Exact","12339 SHUMARD LN, FRISCO, TX, 75035",615036002,"L"
40206,"12339 SHUMARD LN","FRISCO","TX",75035,33.1800291770001,-96.766132157,206,"12339 SHUMARD LN, FRISCO, TX, 75035","Match","Exact","12339 SHUMARD LN, FRISCO, TX, 75035",615036002,"L"
40207,"12339 WAKE UNION CHURCH RD STE 108","WAKE FOREST","NC",27587,35.981842729,-78.5425207489999,207,"12339 WAKE UNION CHURCH RD STE 108, WAKE FOREST, NC, 27587","Match","Exact","12339 WAKE UNION CHURCH RD, WAKE FOREST, NC, 27587",639845219,"L"
40208,"1234 23RD STREET","PORTSMOUTH","OH",45662,38.750807384,-82.987753443,208,"1234 23RD STREET, PORTSMOUTH, OH, 45662","Match","Exact","1234 23RD ST, PORTSMOUTH, OH, 45662",647405764,"L"
40209,"1234 29TH ST NW","WASHINGTON","DC",20007,38.906159819,-77.0581274359999,209,"1234 29TH ST NW, WASHINGTON, DC, 20007","Match","Exact","1234 29TH ST NW, WASHINGTON, DC, 20007",76224997,"L"
40210,"1234 AVENUE D","FORT PIERCE","FL",34950,27.452538884,-80.336682448,210,"1234 AVENUE D, FORT PIERCE, FL, 34950","Match","Exact","1234 AVE D, FORT PIERCE, FL, 34950",120147719,"R"
40211,"1234 BARCELONA DRIVE","LIVINGSTON","CA",95334,37.379180053,-120.739718679,211,"1234 BARCELONA DRIVE, LIVINGSTON, CA, 95334","Match","Exact","1234 BARCELONA DR, LIVINGSTON, CA, 95334",638565209,"R"
40212,"1234 BARNEY RD","TOUCHET","WA",99360,46.0421835230001,-118.611712269,212,"1234 BARNEY RD, TOUCHET, WA, 99360","Match","Exact","1234 BARNEY RD, TOUCHET, WA, 99360",636496659,"L"
40213,"1234 BEACON HILL CT","NORMAL","IL",61761,40.5206364430001,-88.967261567,213,"1234 BEACON HILL CT, NORMAL, IL, 61761","Match","Exact","1234 BEACON HILL CT, NORMAL, IL, 61761",20578290,"L"
40214,"1234 BOSTON POST ROAD","BRONX","NY",10456,40.8302692660001,-73.901445014,214,"1234 BOSTON POST ROAD, BRONX, NY, 10456","Match","Non_Exact","1234 BOSTON RD, BRONX, NY, 10456",625142254,"R"
40215,"1234 CEDAR GROVE ROAD","CLOVER","SC",29710,35.0110154860001,-81.337423657,215,"1234 CEDAR GROVE ROAD, CLOVER, SC, 29710","Match","Exact","1234 CEDAR GROVE RD, CLOVER, SC, 29710",19784960,"R"
40216,"1234 CEDAR LN","CHARLOTTE","NC",28226,35.15058208,-80.793546862,216,"1234 CEDAR LN, CHARLOTTE, NC, 28226","Match","Exact","1234 CEDAR LN, CHARLOTTE, NC, 28226",70492692,"R"
40217,"1234 CHALET DR APT 102","NAPERVILLE","IL",60563,41.7801185160001,-88.1763930829999,217,"1234 CHALET DR APT 102, NAPERVILLE, IL, 60563","Match","Non_Exact","1234 CHALET RD, NAPERVILLE, IL, 60563",112526938,"R"
40218,"1234 CHESTER AVENUE STE 102","BAKERSFIELD","CA",93301,35.368856034,-119.018818625,218,"1234 CHESTER AVENUE STE 102, BAKERSFIELD, CA, 93301","Match","Exact","1234 CHESTER AVE, BAKERSFIELD, CA, 93301",109088992,"R"
40219,"1234 CRITTENDEN ST NW","WASHINGTON","DC",20011,38.947191794,-77.027864552,219,"1234 CRITTENDEN ST NW, WASHINGTON, DC, 20011","Match","Exact","1234 CRITTENDEN ST NW, WASHINGTON, DC, 20011",76223461,"L"
40220,"1234 DEL ESTE  STE 503","DENHAM SPRINGS","LA",70726,NA,NA,220,"1234 DEL ESTE  STE 503, DENHAM SPRINGS, LA, 70726","No_Match",NA,NA,NA,NA
40221,"1234 E 73RD STREET APT 2","BROOKLYN","NY",11234,40.622290972,-74.007592954,221,"1234 E 73RD STREET APT 2, BROOKLYN, NY, 11234","Match","Non_Exact","1234 73RD ST, BROOKLYN, NY, 11228",59087906,"R"
40222,"1234 E CLIVEDEN ST","PHILADELPHIA","PA",19119,40.059173129,-75.1709015879999,222,"1234 E CLIVEDEN ST, PHILADELPHIA, PA, 19119","Match","Exact","1234 E CLIVEDEN ST, PHILADELPHIA, PA, 19119",131395596,"R"
40223,"1234 EAST 31ST STREET","NEW YORK","NY",10016,NA,NA,223,"1234 EAST 31ST STREET, NEW YORK, NY, 10016","No_Match",NA,NA,NA,NA
40224,"1234 EAST PONT DES MOUTON","LAFAYETTE","LA",70501,NA,NA,224,"1234 EAST PONT DES MOUTON, LAFAYETTE, LA, 70501","No_Match",NA,NA,NA,NA
40225,"1234 FAIRACRES ROAD","RYDAL","PA",19046,40.096044288,-75.1157279459999,225,"1234 FAIRACRES ROAD, RYDAL, PA, 19046","Match","Exact","1234 FAIRACRES RD, RYDAL, PA, 19046",629035519,"L"
40226,"1234 FOLSOM STREET","SAN FRANCISCO","CA",94103,37.774544265,-122.410640874,226,"1234 FOLSOM STREET, SAN FRANCISCO, CA, 94103","Match","Exact","1234 FOLSOM ST, SAN FRANCISCO, CA, 94103",192294088,"R"
40227,"1234 GREENWOOD ST","MEMPHIS","TN",38106,35.1131592350001,-90.024195492,227,"1234 GREENWOOD ST, MEMPHIS, TN, 38106","Match","Exact","1234 GREENWOOD ST, MEMPHIS, TN, 38106",72908443,"L"
40228,"1234 HAVENHURST DRIVE SUITE 11","WEST HOLLYWOOD","CA",90046,34.092737519,-118.367401496,228,"1234 HAVENHURST DRIVE SUITE 11, WEST HOLLYWOOD, CA, 90046","Match","Non_Exact","1234 N HAVENHURST DR, W HOLLYWOOD, CA, 90046",141598066,"R"
40229,"1234 JACKS CREEK","RICHMOND","KY",40475,37.8036451200001,-84.365692032,229,"1234 JACKS CREEK, RICHMOND, KY, 40475","Match","Non_Exact","1234 JACKS CREEK RD, RICHMOND, KY, 40475",635639272,"L"
40230,"1234 LAGUNA SHORES RD","CORPUS CHRISTI","TX",78418,27.662958546,-97.276800938,230,"1234 LAGUNA SHORES RD, CORPUS CHRISTI, TX, 78418","Match","Exact","1234 LAGUNA SHORES RD, CORPUS CHRISTI, TX, 78418",178524339,"R"
40231,"1234 LANDS END","ORANGEBURG","SC",29118,33.526467821,-80.8545717649999,231,"1234 LANDS END, ORANGEBURG, SC, 29118","Match","Exact","1234 LANDS END, ORANGEBURG, SC, 29118",19242944,"R"
40232,"1234 MARKET ST 40839 SMB 12937","PHILADELPHIA","PA",19107,39.9519793150001,-75.16046205,232,"1234 MARKET ST 40839 SMB 12937, PHILADELPHIA, PA, 19107","Match","Exact","1234 MARKET ST, PHILADELPHIA, PA, 19107",131423425,"L"
40233,"1234 MARKET ST 40839 SMB 13547","PHILADELPHIE","PA",19107,39.9519793150001,-75.16046205,233,"1234 MARKET ST 40839 SMB 13547, PHILADELPHIE, PA, 19107","Match","Non_Exact","1234 MARKET ST, PHILADELPHIA, PA, 19107",131423425,"L"
40234,"1234 MARKET STREET 16TH FLOOR","PHILADELPHIA","PA",19107,39.9519793150001,-75.16046205,234,"1234 MARKET STREET 16TH FLOOR, PHILADELPHIA, PA, 19107","Match","Exact","1234 MARKET ST, PHILADELPHIA, PA, 19107",131423425,"L"
40235,"1234 MASSACHUSETTS AVENUE NW 723","WASHINGTOJN","DC",20005,38.9045001010001,-77.0286536629999,235,"1234 MASSACHUSETTS AVENUE NW 723, WASHINGTOJN, DC, 20005","Match","Non_Exact","1234 MASSACHUSETTS AVE NW, WASHINGTON, DC, 20005",76226123,"L"
40236,"1234 MELVILLE AVE","LAKELAND","FL",33805,28.059398571,-81.999771828,236,"1234 MELVILLE AVE, LAKELAND, FL, 33805","Match","Exact","1234 MELVILLE AVE, LAKELAND, FL, 33805",104888651,"L"
40237,"1234 MUNFORD AVENUE","MUNFORD","TN",38058,35.4470768960001,-89.810662925,237,"1234 MUNFORD AVENUE, MUNFORD, TN, 38058","Match","Exact","1234 MUNFORD AVE, MUNFORD, TN, 38058",73173645,"R"
40238,"1234 MYSTIC PARKWAY","SPRING BRANCH","TX",78070,29.90538603,-98.306112512,238,"1234 MYSTIC PARKWAY, SPRING BRANCH, TX, 78070","Match","Exact","1234 MYSTIC PKWY, SPRING BRANCH, TX, 78070",72278818,"R"
40239,"1234 N CEDAR ROAD SUITE F","NEW LENOX","IL",60451,41.5280253720001,-87.966318472,239,"1234 N CEDAR ROAD SUITE F, NEW LENOX, IL, 60451","Match","Non_Exact","1234 N CEDAR RD, NEW LENOX, IL, 60451",111577991,"L"
40240,"1234 N EDGEMONT ST APT 310","LOS ANGELES","CA",90029,34.094162752,-118.296099793,240,"1234 N EDGEMONT ST APT 310, LOS ANGELES, CA, 90029","Match","Non_Exact","1234 N EDGEMONT ST, LOS ANGELES, CA, 90029",141604118,"R"
40241,"1234 N MAIN ST","BOWLING GREEN","OH",43402,41.397834914,-83.6506241169999,241,"1234 N MAIN ST, BOWLING GREEN, OH, 43402","Match","Exact","1234 N MAIN ST, BOWLING GREEN, OH, 43402",38729083,"R"
40242,"1234 NICKEL CRK","NEW BRAUNFELS","TX",78130,29.665516413,-98.1176868109999,242,"1234 NICKEL CRK, NEW BRAUNFELS, TX, 78130","Match","Exact","1234 NICKEL CREEK, NEW BRAUNFELS, TX, 78130",54844961,"L"
40243,"1234 NORTH MAIN STREET","BOWLING GREEN","OH",43402,41.3978043610001,-83.650623744,243,"1234 NORTH MAIN STREET, BOWLING GREEN, OH, 43402","Match","Exact","1234 N MAIN ST, BOWLING GREEN, OH, 43402",38729083,"R"
40244,"1234 NORTH STREET","JESUP","IA",50648,42.4826616500001,-92.053609289,244,"1234 NORTH STREET, JESUP, IA, 50648","Match","Exact","1234 NORTH ST, JESUP, IA, 50648",650487033,"L"
40245,"1234 NORWAY AVE","HUNTINGTON","WV",25705,38.4106468040001,-82.3638430839999,245,"1234 NORWAY AVE, HUNTINGTON, WV, 25705","Match","Exact","1234 NORWAY AVE, HUNTINGTON, WV, 25705",101336560,"R"
40246,"1234 OLD HENDERSON RD SUITE B","COLUMBUS","OH",43220,NA,NA,246,"1234 OLD HENDERSON RD SUITE B, COLUMBUS, OH, 43220","Tie",NA,NA,NA,NA
40247,"1234 PALMINA COVE","CORDOVA","TN",38108,NA,NA,247,"1234 PALMINA COVE, CORDOVA, TN, 38108","No_Match",NA,NA,NA,NA
40248,"1234 PARK HILL CIR","KNOXVILLE","TN",37909,35.949060719,-84.041584803,248,"1234 PARK HILL CIR, KNOXVILLE, TN, 37909","Match","Non_Exact","1234 PARK HILL CIR NW, KNOXVILLE, TN, 37909",42612604,"R"
40249,"1234 RIDGE AVENUE","STEUBENVILLE","OH",43952,40.3676153420001,-80.6244096199999,249,"1234 RIDGE AVENUE, STEUBENVILLE, OH, 43952","Match","Exact","1234 RIDGE AVE, STEUBENVILLE, OH, 43952",37801387,"L"
40250,"1234 ROAN DRIVE","LANCASTER","TX",75134,32.6183420890001,-96.7800057649999,250,"1234 ROAN DRIVE, LANCASTER, TX, 75134","Match","Exact","1234 ROAN DR, LANCASTER, TX, 75134",102990574,"L"
40251,"1234 RUTH DRIVE","ST LOUIS","MO",63122,38.601478607,-90.421297613,251,"1234 RUTH DRIVE, ST LOUIS, MO, 63122","Match","Exact","1234 RUTH DR, SAINT LOUIS, MO, 63122",100128884,"R"
40252,"1234 S DIXIE HIGHWAY STE 1113","MIRAMAR","FL",33023,NA,NA,252,"1234 S DIXIE HIGHWAY STE 1113, MIRAMAR, FL, 33023","No_Match",NA,NA,NA,NA
40253,"1234 S JUNIPER STREET","PHILADELPHIA","PA",19147,39.934590153,-75.166241793,253,"1234 S JUNIPER STREET, PHILADELPHIA, PA, 19147","Match","Exact","1234 S JUNIPER ST, PHILADELPHIA, PA, 19147",131411869,"R"
40254,"1234 S POWER RD SUITE 101","MESA","AZ",85206,33.3931728810001,-111.68474242,254,"1234 S POWER RD SUITE 101, MESA, AZ, 85206","Match","Non_Exact","1234 S POWER RD, MESA, AZ, 85206",128366997,"R"
40255,"1234 S UNIVERSITY","FAYETTEVILLE","AR",72701,36.0510688520001,-94.168732986,255,"1234 S UNIVERSITY, FAYETTEVILLE, AR, 72701","Match","Non_Exact","1234 S UNIVERSITY AVE, FAYETTEVILLE, AR, 72701",49045726,"L"
40256,"1234 SAN LUIS REY DR","GLENDALE","CA",91208,34.181408161,-118.239700229,256,"1234 SAN LUIS REY DR, GLENDALE, CA, 91208","Match","Exact","1234 SAN LUIS REY DR, GLENDALE, CA, 91208",141608969,"R"
40257,"1234 SEMINARY AVE","SAINT PAUL","MN",55104,44.964761825,-93.152435098,257,"1234 SEMINARY AVE, SAINT PAUL, MN, 55104","Match","Non_Exact","1234 W SEMINARY AVE, SAINT PAUL, MN, 55104",97642100,"L"
40258,"1234 SNEE DRIVE","PITTSBURGH","PA",15236,40.3347731050001,-79.996498023,258,"1234 SNEE DRIVE, PITTSBURGH, PA, 15236","Match","Exact","1234 SNEE DR, PITTSBURGH, PA, 15236",647507768,"L"
40259,"1234 SONNY GRANGER RD","DEQUINCY","LA",70633,30.477868637,-93.44841249,259,"1234 SONNY GRANGER RD, DEQUINCY, LA, 70633","Match","Exact","1234 SONNY GRANGER RD, DEQUINCY, LA, 70633",88447210,"R"
40260,"1234 SOUTHPOINT CROSSING DRIVE","DURHAM","NC",27713,35.9134095160001,-78.939097187,260,"1234 SOUTHPOINT CROSSING DRIVE, DURHAM, NC, 27713","Match","Exact","1234 SOUTHPOINT CROSSING DR, DURHAM, NC, 27713",71790688,"R"
40261,"1234 TEXAS AVENUE","SHREVEPORT","LA",71101,32.5012088030001,-93.754527864,261,"1234 TEXAS AVENUE, SHREVEPORT, LA, 71101","Match","Exact","1234 TEXAS AVE, SHREVEPORT, LA, 71101",637838926,"R"
40262,"1234 W LA PASADITA PLACE","TUCSON","AZ",85705,32.280268016,-110.990995526,262,"1234 W LA PASADITA PLACE, TUCSON, AZ, 85705","Match","Exact","1234 W LA PASADITA PL, TUCSON, AZ, 85705",121166363,"R"
40263,"1234 WEISENBERGER MILL ROAD","MIDWAY","KY",40347,38.1339714490001,-84.657207496,263,"1234 WEISENBERGER MILL ROAD, MIDWAY, KY, 40347","Match","Exact","1234 WEISENBERGER MILL RD, MIDWAY, KY, 40347",649798576,"R"
40264,"1234 WENATCHEE DR","KRUM","TX",76249,33.25743737,-97.2214339669999,264,"1234 WENATCHEE DR, KRUM, TX, 76249","Match","Exact","1234 WENATCHEE DR, KRUM, TX, 76249",613291747,"L"
40265,"1234 WILLIAM MOSS BLVD","STOCKTON","CA",95206,37.905763628,-121.302100618,265,"1234 WILLIAM MOSS BLVD, STOCKTON, CA, 95206","Match","Exact","1234 WILLIAM MOSS BLVD, STOCKTON, CA, 95206",133877308,"L"
40266,"1234 WILLISTON ROAD","SOUTH BURLINGTON","VT",5403,NA,NA,266,"1234 WILLISTON ROAD, SOUTH BURLINGTON, VT, 5403","No_Match",NA,NA,NA,NA
40267,"1234 WOOD STREET","PHILADELPHIA","PA",19107,39.958438539,-75.159054281,267,"1234 WOOD STREET, PHILADELPHIA, PA, 19107","Match","Exact","1234 WOOD ST, PHILADELPHIA, PA, 19107",131423256,"L"
40268,"1234","FLORIDA CITY","FL",33034,NA,NA,268,"1234, FLORIDA CITY, FL, 33034","No_Match",NA,NA,NA,NA
40269,"12340 FLINTLOCK LANE","FORT MYERS","FL",33912,26.564467424,-81.816786257,269,"12340 FLINTLOCK LANE, FORT MYERS, FL, 33912","Match","Exact","12340 FLINTLOCK LN, FORT MYERS, FL, 33912",118043015,"R"
40270,"12340 FLYNN RD","SAWYER","MI",49125,41.8965627310001,-86.589836135,270,"12340 FLYNN RD, SAWYER, MI, 49125","Match","Exact","12340 FLYNN RD, SAWYER, MI, 49125",642490619,"L"
40271,"12340 NE 115TH PL APT 228","KIRKLAND","WA",98033,47.7028521120001,-122.176473848,271,"12340 NE 115TH PL APT 228, KIRKLAND, WA, 98033","Match","Non_Exact","12340 NE 115TH PL, KIRKLAND, WA, 98033",186603948,"L"
40272,"12340 PINECREST ROAD SUITE 100","RESTON","VA",20191,38.934715284,-77.374792934,272,"12340 PINECREST ROAD SUITE 100, RESTON, VA, 20191","Match","Exact","12340 PINECREST RD, RESTON, VA, 20191",642591176,"R"
40273,"12340 S 200 W","KOKOMO","IN",46901,40.5910181300001,-86.108514816,273,"12340 S 200 W, KOKOMO, IN, 46901","Match","Exact","12340 S 200 W, KOKOMO, IN, 46901",106397288,"L"
40274,"12340 SANTA MONICA BLVD  231","WEST LOS ANGELES","CA",90025,NA,NA,274,"12340 SANTA MONICA BLVD  231, WEST LOS ANGELES, CA, 90025","No_Match",NA,NA,NA,NA
40275,"12340 SARATOGA SUNNYVALE ROAD","SARATOGA","CA",95070,NA,NA,275,"12340 SARATOGA SUNNYVALE ROAD, SARATOGA, CA, 95070","No_Match",NA,NA,NA,NA
40276,"12340 SEAL BEACH BLVD B-B423","SEAL BEACH","CA",90740,NA,NA,276,"12340 SEAL BEACH BLVD B-B423, SEAL BEACH, CA, 90740","No_Match",NA,NA,NA,NA
40277,"12340 SEAL BEACH BLVD B353","SEAL BEACH","CA",90740,NA,NA,277,"12340 SEAL BEACH BLVD B353, SEAL BEACH, CA, 90740","No_Match",NA,NA,NA,NA
40278,"12340 SEAL BEACH BLVD B402","SEAL BEACH","CA",90740,NA,NA,278,"12340 SEAL BEACH BLVD B402, SEAL BEACH, CA, 90740","No_Match",NA,NA,NA,NA
40279,"12340 SEAL BEACH BLVD STE B330","SEAL BEACH","CA",90740,NA,NA,279,"12340 SEAL BEACH BLVD STE B330, SEAL BEACH, CA, 90740","No_Match",NA,NA,NA,NA
40280,"12340 SEAL BEACH BLVD","SEAL BEACH","CA",90740,NA,NA,280,"12340 SEAL BEACH BLVD, SEAL BEACH, CA, 90740","No_Match",NA,NA,NA,NA
40281,"12340 SOUTH STREET","CERRITOS","CA",90703,33.858551445,-118.068777457,281,"12340 SOUTH STREET, CERRITOS, CA, 90703","Match","Non_Exact","12340 SOUTH ST, CERRITOS, CA, 90701",141753676,"R"
40282,"12341 - 35TH AVE NE  305","SEATTLE","WA",98125,NA,NA,282,"12341 - 35TH AVE NE  305, SEATTLE, WA, 98125","No_Match",NA,NA,NA,NA
40283,"12341 FELSON PLACE","CERRITOS","CA",90703,33.869115811,-118.069181806,283,"12341 FELSON PLACE, CERRITOS, CA, 90703","Match","Exact","12341 FELSON PL, CERRITOS, CA, 90703",141744268,"L"
40284,"12341 GLADSTONE AVE","SYLMAR","CA",91342,34.29376326,-118.410894997,284,"12341 GLADSTONE AVE, SYLMAR, CA, 91342","Match","Exact","12341 GLADSTONE AVE, SYLMAR, CA, 91342",141550759,"L"
40285,"12341 SW 39TH TERRACE","MIAMI","FL",33175,25.7319324260001,-80.3944070219999,285,"12341 SW 39TH TERRACE, MIAMI, FL, 33175","Match","Exact","12341 SW 39TH TER, MIAMI, FL, 33175",115964880,"R"
40286,"12341 WOODWALK TERRACE","BOWIE","MD",20721,38.9166318310001,-76.7895217,286,"12341 WOODWALK TERRACE, BOWIE, MD, 20721","Match","Exact","12341 WOODWALK TER, BOWIE, MD, 20721",635750334,"R"
40287,"12342 207TH ST","LAKEWOOD","CA",90715,33.8423281130001,-118.068710544,287,"12342 207TH ST, LAKEWOOD, CA, 90715","Match","Exact","12342 207TH ST, LAKEWOOD, CA, 90715",141746347,"R"
40288,"12342 CARL STREET","PACOIMA","CA",91331,34.278938958,-118.401507915,288,"12342 CARL STREET, PACOIMA, CA, 91331","Match","Exact","12342 CARL ST, PACOIMA, CA, 91331",141824936,"R"
40289,"12344 PREAKNESS CIRCLE LN","CLARKSVILLE","MD",21029,39.2286026030001,-76.943089135,289,"12344 PREAKNESS CIRCLE LN, CLARKSVILLE, MD, 21029","Match","Exact","12344 PREAKNESS CIRCLE LN, CLARKSVILLE, MD, 21029",619693679,"R"
40290,"12345 COYOTE DRIVE","ETIWANDA","CA",91739,NA,NA,290,"12345 COYOTE DRIVE, ETIWANDA, CA, 91739","No_Match",NA,NA,NA,NA
40291,"12345 HWY 260","MANNING","SC",29102,33.534219471,-80.1959678429999,291,"12345 HWY 260, MANNING, SC, 29102","Match","Non_Exact","12345 STATE HWY 260, MANNING, SC, 29102",71439104,"R"
40292,"12345 LAKE CITY WAY NE NUMBER 2094","SEATTLE","CA",98125,NA,NA,292,"12345 LAKE CITY WAY NE NUMBER 2094, SEATTLE, CA, 98125","No_Match",NA,NA,NA,NA
40293,"12345 LAKE CITY WAY NE STE 162","SEATTLE","WA",98125,47.718076997,-122.295949874,293,"12345 LAKE CITY WAY NE STE 162, SEATTLE, WA, 98125","Match","Exact","12345 LAKE CITY WAY NE, SEATTLE, WA, 98125",186576594,"L"
40294,"12345 LAKE CITY WAY NE SUITE 162","SEATTLE","WA",98125,47.718076997,-122.295949874,294,"12345 LAKE CITY WAY NE SUITE 162, SEATTLE, WA, 98125","Match","Exact","12345 LAKE CITY WAY NE, SEATTLE, WA, 98125",186576594,"L"
40295,"12345 LAKE CITY WAY NE SUITE 255","SEATTLE","WA",98125,47.718076997,-122.295949874,295,"12345 LAKE CITY WAY NE SUITE 255, SEATTLE, WA, 98125","Match","Exact","12345 LAKE CITY WAY NE, SEATTLE, WA, 98125",186576594,"L"
40296,"12345 LAKE VISTA DRIVE","WILLIS","TX",77318,30.421611345,-95.575868514,296,"12345 LAKE VISTA DRIVE, WILLIS, TX, 77318","Match","Exact","12345 LAKE VISTA DR, WILLIS, TX, 77318",79328137,"L"
40297,"12345 LAMPLIGHT VILLAGE AVE APT 815","AUSTIN","TX",78758,30.4135241010001,-97.6968375439999,297,"12345 LAMPLIGHT VILLAGE AVE APT 815, AUSTIN, TX, 78758","Match","Exact","12345 LAMPLIGHT VILLAGE AVE, AUSTIN, TX, 78758",63927100,"R"
40298,"12345 MOUNTAIN AVE STE N 270","CHINO","CA",91710,34.0290542920001,-117.66762089,298,"12345 MOUNTAIN AVE STE N 270, CHINO, CA, 91710","Match","Exact","12345 MOUNTAIN AVE, CHINO, CA, 91710",144673716,"L"
40299,"12345 SILTON PEACE DR","RIVERVIEW","FM",33579,NA,NA,299,"12345 SILTON PEACE DR, RIVERVIEW, FM, 33579","No_Match",NA,NA,NA,NA
40300,"12345 SUNNYGLEN DR","MOORPARK","CA",93021,34.27081643,-118.88968917,300,"12345 SUNNYGLEN DR, MOORPARK, CA, 93021","Match","Exact","12345 SUNNYGLEN DR, MOORPARK, CA, 93021",110121386,"L"
40301,"12345 W 95TH STREET","LENEXA","KS",66215,38.956523971,-94.7295024639999,301,"12345 W 95TH STREET, LENEXA, KS, 66215","Match","Exact","12345 W 95TH ST, LENEXA, KS, 66215",91336640,"L"
40302,"12345 W MERCEDES STREET","BOISE","ID",83713,43.647161275,-116.335961034,302,"12345 W MERCEDES STREET, BOISE, ID, 83713","Match","Exact","12345 W MERCEDES ST, BOISE, ID, 83713",117896290,"R"
40303,"12346 CIRCULA PANORAMA","NORTH TUSTIN","CA",92705,33.784680456,-117.800320423,303,"12346 CIRCULA PANORAMA, NORTH TUSTIN, CA, 92705","Match","Exact","12346 CIRCULA PANORAMA, NORTH TUSTIN, CA, 92705",651665818,"L"
40304,"12346 S 2240 W","RIVERTON","UT",84065,NA,NA,304,"12346 S 2240 W, RIVERTON, UT, 84065","No_Match",NA,NA,NA,NA
40305,"12346 SMITH STREET APT B","BEAR LAKE","MI",49614,44.4217711210001,-86.144873637,305,"12346 SMITH STREET APT B, BEAR LAKE, MI, 49614","Match","Exact","12346 SMITH ST, BEAR LAKE, MI, 49614",146019083,"L"
40306,"12348 JASMINE ST","BRIGHTON","CO",80602,39.919247484,-104.917786311,306,"12348 JASMINE ST, BRIGHTON, CO, 80602","Match","Exact","12348 JASMINE ST, BRIGHTON, CO, 80602",177397543,"L"
40307,"12349 2 HOUR ROAD","CUSTER","SD",57730,43.7798707960001,-103.592688988,307,"12349 2 HOUR ROAD, CUSTER, SD, 57730","Match","Exact","12349 2 HOUR RD, CUSTER, SD, 57730",639208875,"L"
40308,"12349 PENZANCE LN","BRISTOW","VA",20136,38.766564278,-77.5619411609999,308,"12349 PENZANCE LN, BRISTOW, VA, 20136","Match","Exact","12349 PENZANCE LN, BRISTOW, VA, 20136",207142756,"R"
40309,"12349 RAILROAD RD","CLIO","MI",48420,43.18623303,-83.742401456,309,"12349 RAILROAD RD, CLIO, MI, 48420","Match","Exact","12349 RAILROAD RD, CLIO, MI, 48420",69598526,"L"
40310,"12349 ROOSEVELT WAY NE SUITE 101","SEATTLE","WA",98125,47.7181490390001,-122.318099642,310,"12349 ROOSEVELT WAY NE SUITE 101, SEATTLE, WA, 98125","Match","Exact","12349 ROOSEVELT WAY NE, SEATTLE, WA, 98125",186576260,"L"
40311,"12349 SOUTH FRONTAGE ROAD","YUCCA","AZ",86438,NA,NA,311,"12349 SOUTH FRONTAGE ROAD, YUCCA, AZ, 86438","No_Match",NA,NA,NA,NA
40312,"1235  37TH AVE","ROCK ISLAND","IL",61201,41.4737854420001,-90.581523109,312,"1235  37TH AVE, ROCK ISLAND, IL, 61201","Match","Exact","1235 37TH AVE, ROCK ISLAND, IL, 61201",9208207,"L"
40313,"1235 3RD ST","SEDRO WOOLLEY","WA",98284,48.50034737,-122.237462555,313,"1235 3RD ST, SEDRO WOOLLEY, WA, 98284","Match","Exact","1235 3RD ST, SEDRO WOOLLEY, WA, 98284",183675026,"R"
40314,"1235 8TH AVENUE NORTH","CLINTON","IA",52732,41.8528881,-90.2146691149999,314,"1235 8TH AVENUE NORTH, CLINTON, IA, 52732","Match","Exact","1235 8TH AVE N, CLINTON, IA, 52732",16809593,"R"
40315,"1235 BOONE HILL ROAD SUITE 3","SUMMERVILLE","SC",29483,33.0042215990001,-80.19690191,315,"1235 BOONE HILL ROAD SUITE 3, SUMMERVILLE, SC, 29483","Match","Exact","1235 BOONE HILL RD, SUMMERVILLE, SC, 29483",178459233,"R"
40316,"1235 BROAD AVE","WILMINGTON","CA",90744,33.787581211,-118.261378571,316,"1235 BROAD AVE, WILMINGTON, CA, 90744","Match","Exact","1235 BROAD AVE, WILMINGTON, CA, 90744",141691257,"L"
40317,"1235 BROWNSWOOD ROAD","JOHNS ISLAND","SC",29455,32.7402907040001,-80.0716174839999,317,"1235 BROWNSWOOD ROAD, JOHNS ISLAND, SC, 29455","Match","Exact","1235 BROWNSWOOD RD, JOHNS ISLAND, SC, 29455",605819578,"R"
40318,"1235 CEDAR LANE ROAD","MIDDLETOWN","DE",19709,39.5009788780001,-75.68580572,318,"1235 CEDAR LANE ROAD, MIDDLETOWN, DE, 19709","Match","Exact","1235 CEDAR LANE RD, MIDDLETOWN, DE, 19709",187294395,"L"
40319,"1235 CENTRAL AVENUE","HILLSIDE","NJ",7205,40.6942093330001,-74.2257862279999,319,"1235 CENTRAL AVENUE, HILLSIDE, NJ, 7205","Match","Exact","1235 CENTRAL AVE, HILLSIDE, NJ, 07205",60577606,"R"
40320,"1235 CHANDLER RIDGE DR","LAWRENCEVILLE","GA",30045,33.9300011770001,-83.956080747,320,"1235 CHANDLER RIDGE DR, LAWRENCEVILLE, GA, 30045","Match","Exact","1235 CHANDLER RIDGE DR, LAWRENCEVILLE, GA, 30045",636179309,"L"
40321,"1235 COVE LAKE ROAD","NORTH LAUDERDALE","FL",33068,26.203416765,-80.195921963,321,"1235 COVE LAKE ROAD, NORTH LAUDERDALE, FL, 33068","Match","Exact","1235 COVE LAKE RD, N LAUDERDALE, FL, 33068",637091009,"R"
40322,"1235 DEESE RD","OZARK","AL",36360,31.439772095,-85.649010113,322,"1235 DEESE RD, OZARK, AL, 36360","Match","Exact","1235 DEESE RD, OZARK, AL, 36360",99598255,"L"
40323,"1235 E DORE STREET","WEST COVINA","CA",91792,34.0366522090001,-117.920438735,323,"1235 E DORE STREET, WEST COVINA, CA, 91792","Match","Exact","1235 DORE ST, WEST COVINA, CA, 91792",141714380,"L"
40324,"1235 E FOWLER AVE","TAMPA","FL",33612,28.0545122550001,-82.4462208209999,324,"1235 E FOWLER AVE, TAMPA, FL, 33612","Match","Exact","1235 E FOWLER AVE, TAMPA, FL, 33612",104612144,"R"
40325,"1235 E JAMES ROGERS WAY","TUCSON","AZ",85721,NA,NA,325,"1235 E JAMES ROGERS WAY, TUCSON, AZ, 85721","No_Match",NA,NA,NA,NA
40326,"1235 EUDORA STREET","DENVER","CO",80220,39.7353557590001,-104.93038554,326,"1235 EUDORA STREET, DENVER, CO, 80220","Match","Exact","1235 EUDORA ST, DENVER, CO, 80220",177312137,"L"
40327,"1235 FEATHERSTONE RD","WOODBRIDGE","VA",22191,38.630660328,-77.254526524,327,"1235 FEATHERSTONE RD, WOODBRIDGE, VA, 22191","Match","Exact","1235 FEATHERSTONE RD, WOODBRIDGE, VA, 22191",76525222,"L"
40328,"1235 FILER AVE E","TWIN FALLS","ID",83301,42.5704207800001,-114.458540366,328,"1235 FILER AVE E, TWIN FALLS, ID, 83301","Match","Exact","1235 FILER AVE E, TWIN FALLS, ID, 83301",118793367,"R"
40329,"1235 GLENHAVEN CT SUITE 250","EL DORADO","CA",95762,38.622332826,-121.061437509,329,"1235 GLENHAVEN CT SUITE 250, EL DORADO, CA, 95762","Match","Non_Exact","1235 GLENHAVEN CT, EL DORADO HLS, CA, 95762",133061097,"R"
40330,"1235 GRAND CONCOURSE - APT 601","BRONX","NY",10452,40.8354629240001,-73.9170467819999,330,"1235 GRAND CONCOURSE - APT 601, BRONX, NY, 10452","Match","Exact","1235 GRAND CONCOURSE, BRONX, NY, 10452",640809985,"L"
40331,"1235 HAMBURG ROAD SW","LANCASTER","OH",43130,39.683389015,-82.6259381689999,331,"1235 HAMBURG ROAD SW, LANCASTER, OH, 43130","Match","Exact","1235 HAMBURG RD SW, LANCASTER, OH, 43130",37220381,"R"
40332,"1235 HANCOCK STREET - NUMBER 1","BROOKLYN","NY",11221,40.6922090410001,-73.911206637,332,"1235 HANCOCK STREET - NUMBER 1, BROOKLYN, NY, 11221","Match","Exact","1235 HANCOCK ST, BROOKLYN, NY, 11221",59083073,"L"
40333,"1235 INDIANA CT UNIT 105","REDLANDS","CA",92374,34.0688383830001,-117.20580821,333,"1235 INDIANA CT UNIT 105, REDLANDS, CA, 92374","Match","Exact","1235 INDIANA CT, REDLANDS, CA, 92374",144663301,"R"
40334,"1235 JOSEY STREET APT 200","HUNTSVILLE","TX",77340,30.7078218,-95.551511528,334,"1235 JOSEY STREET APT 200, HUNTSVILLE, TX, 77340","Match","Exact","1235 JOSEY ST, HUNTSVILLE, TX, 77340",22214467,"L"
40335,"1235 JUNIPERO SERRA DRIVE","SAINT GEORGE","UT",84790,37.061449801,-113.609970038,335,"1235 JUNIPERO SERRA DRIVE, SAINT GEORGE, UT, 84790","Match","Exact","1235 JUNIPERO SERRA DR, SAINT GEORGE, UT, 84790",166167282,"R"
40336,"1235 KIMBEL DRIVE","FRANKFORT","KY",40601,38.208339752,-84.825173815,336,"1235 KIMBEL DRIVE, FRANKFORT, KY, 40601","Match","Exact","1235 KIMBEL DR, FRANKFORT, KY, 40601",97051043,"R"
40337,"1235 LAKE PLAZA DRIVE STE 230","COLORADO SPRINGS","CO",80906,38.7944371090001,-104.807367138,337,"1235 LAKE PLAZA DRIVE STE 230, COLORADO SPRINGS, CO, 80906","Match","Exact","1235 LAKE PLAZA DR, COLORADO SPRINGS, CO, 80906",610747283,"L"
40338,"1235 LAMMERS PIKE","BATESVILLE","IN",47006,39.29401255,-85.206699207,338,"1235 LAMMERS PIKE, BATESVILLE, IN, 47006","Match","Exact","1235 LAMMERS PIKE, BATESVILLE, IN, 47006",31510696,"L"
40339,"1235 MAIN STREET","AKRON","PA",17501,40.1560178660001,-76.194148727,339,"1235 MAIN STREET, AKRON, PA, 17501","Match","Exact","1235 MAIN ST, AKRON, PA, 17501",640640756,"L"
40340,"1235 MENDOCINO AVENUE","SANTA ROSA","CA",95401,38.4518560990001,-122.717465393,340,"1235 MENDOCINO AVENUE, SANTA ROSA, CA, 95401","Match","Exact","1235 MENDOCINO AVE, SANTA ROSA, CA, 95401",634213740,"L"
40341,"1235 MISTY LANE","DUNCANVILLE","TX",75116,32.6686374220001,-96.902018393,341,"1235 MISTY LANE, DUNCANVILLE, TX, 75116","Match","Exact","1235 MISTY LN, DUNCANVILLE, TX, 75116",102941004,"R"
40342,"1235 MOUNT VERNON ST","ORLANDO","FL",32803,28.5503914190001,-81.363749416,342,"1235 MOUNT VERNON ST, ORLANDO, FL, 32803","Match","Exact","1235 MOUNT VERNON ST, ORLANDO, FL, 32803",94418923,"L"
40343,"1235 MT VERNON ST","ORLANDO","FL",32803,28.5503914190001,-81.363749416,343,"1235 MT VERNON ST, ORLANDO, FL, 32803","Match","Exact","1235 MOUNT VERNON ST, ORLANDO, FL, 32803",94418923,"L"
40344,"1235 N CLYBOURN AVE SUITE 143","CHICAGO","IL",60610,41.904427834,-87.640461309,344,"1235 N CLYBOURN AVE SUITE 143, CHICAGO, IL, 60610","Match","Non_Exact","1235 N CLYBOURN AVE, CHICAGO, IL, 60610",111768204,"R"
40345,"1235 NE 6TH STREET","GRANTS PASS","OR",97526,42.450326256,-123.322535729,345,"1235 NE 6TH STREET, GRANTS PASS, OR, 97526","Match","Exact","1235 NE 6TH ST, GRANTS PASS, OR, 97526",156572100,"L"
40346,"1235 NE KELLAM AVE","TOPEKA","KS",66616,39.074132709,-95.632421978,346,"1235 NE KELLAM AVE, TOPEKA, KS, 66616","Match","Exact","1235 NE KELLAM AVE, TOPEKA, KS, 66616",17893213,"L"
40347,"1235 NORTH  MOCKINGBIRD","ABILENE","TX",79603,32.4636509160001,-99.757826842,347,"1235 NORTH  MOCKINGBIRD, ABILENE, TX, 79603","Match","Non_Exact","1235 N MOCKINGBIRD LN, ABILENE, TX, 79603",129957263,"R"
40348,"1235 NORTH LOOP W SUITE 502","HOUSTON","TX",77008,29.8144075280001,-95.3831596969999,348,"1235 NORTH LOOP W SUITE 502, HOUSTON, TX, 77008","Match","Non_Exact","1235 NORTH LOOP W, HOUSTON, TX, 77022",96057682,"L"
40349,"1235 NORTH LOOP WEST SUITE 706","HOUSTON","TX",77008,29.8144075280001,-95.3831596969999,349,"1235 NORTH LOOP WEST SUITE 706, HOUSTON, TX, 77008","Match","Non_Exact","1235 NORTH LOOP W, HOUSTON, TX, 77022",96057682,"L"
40350,"1235 NORTHWOODS LAKE CT","DULUTH","GA",30096,33.992191733,-84.165783287,350,"1235 NORTHWOODS LAKE CT, DULUTH, GA, 30096","Match","Exact","1235 NORTHWOODS LAKE CT, DULUTH, GA, 30096",642059737,"L"
40351,"1235 PIPPIN STREET","JACKSONVILLE","FL",32206,30.3321325200001,-81.638824707,351,"1235 PIPPIN STREET, JACKSONVILLE, FL, 32206","Match","Exact","1235 PIPPIN ST, JACKSONVILLE, FL, 32206",83901066,"L"
40352,"1235 PRINCESS AVENUE","CAMDEN","NJ",8103,39.932835111,-75.102427967,352,"1235 PRINCESS AVENUE, CAMDEN, NJ, 8103","Match","Exact","1235 PRINCESS AVE, CAMDEN, NJ, 08103",134347820,"R"
40353,"1235 RAMSEY STREET","FAYETTEVILLE","NC",28301,35.0733933870001,-78.880469754,353,"1235 RAMSEY STREET, FAYETTEVILLE, NC, 28301","Match","Exact","1235 RAMSEY ST, FAYETTEVILLE, NC, 28301",64201068,"L"
40354,"1235 RAWSON AVENUE","SANGER","CA",93657,36.6995608990001,-119.564369871,354,"1235 RAWSON AVENUE, SANGER, CA, 93657","Match","Exact","1235 RAWSON AVE, SANGER, CA, 93657",197590972,"R"
40355,"1235 RICHLAND OAKS DR","RICHARDSON","TX",75801,32.9260776450001,-96.7311243999999,355,"1235 RICHLAND OAKS DR, RICHARDSON, TX, 75801","Match","Non_Exact","1235 RICHLAND OAKS DR, RICHARDSON, TX, 75081",102988997,"L"
40356,"1235 RING BILL LOOP","UPPER MARLBORO","MD",20774,38.872439473,-76.7648823659999,356,"1235 RING BILL LOOP, UPPER MARLBORO, MD, 20774","Match","Exact","1235 RING BILL LOOP, UPPER MARLBORO, MD, 20774",639248975,"R"
40357,"1235 ROCKSPRINGS RD","RISING SUN","MD",21911,NA,NA,357,"1235 ROCKSPRINGS RD, RISING SUN, MD, 21911","No_Match",NA,NA,NA,NA
40358,"1235 S MAGNOLIA AVE","ANAHEIM","CA",92804,33.816543908,-117.975826391,358,"1235 S MAGNOLIA AVE, ANAHEIM, CA, 92804","Match","Exact","1235 S MAGNOLIA AVE, ANAHEIM, CA, 92804",144089634,"R"
40359,"1235 S MAGNOLIA AVENUE","ANAHEIM","CA",92804,33.816543908,-117.975826391,359,"1235 S MAGNOLIA AVENUE, ANAHEIM, CA, 92804","Match","Exact","1235 S MAGNOLIA AVE, ANAHEIM, CA, 92804",144089634,"R"
40360,"1235 SAGEBRUSH COURT","FLINT","MI",48532,43.022864917,-83.80218222,360,"1235 SAGEBRUSH COURT, FLINT, MI, 48532","Match","Exact","1235 SAGEBRUSH CT, FLINT, MI, 48532",69561755,"L"
40361,"1235 SALEM ROAD","CONWAY","AR",72034,35.09705046,-92.471227861,361,"1235 SALEM ROAD, CONWAY, AR, 72034","Match","Exact","1235 SALEM RD, CONWAY, AR, 72034",141043746,"L"
40362,"1235 SAN ANDRES ST","SANTA BARBARA","CA",93101,34.416281279,-119.712771654,362,"1235 SAN ANDRES ST, SANTA BARBARA, CA, 93101","Match","Exact","1235 SAN ANDRES ST, SANTA BARBARA, CA, 93101",651565734,"L"
40363,"1235 SE HARNEY ST","PORTLAND","OR",97202,45.4621875500001,-122.653695905,363,"1235 SE HARNEY ST, PORTLAND, OR, 97202","Match","Exact","1235 SE HARNEY ST, PORTLAND, OR, 97202",157526331,"L"
40364,"1235 SOUTH 2200 WEST","SYRACUSE","UT",84075,41.0957097850001,-112.067865884,364,"1235 SOUTH 2200 WEST, SYRACUSE, UT, 84075","Match","Exact","1235 S 2200 W, SYRACUSE, UT, 84075",653243961,"L"
40365,"1235 STORRS ROAD","STORRS","CT",6268,41.8035077210001,-72.243040966,365,"1235 STORRS ROAD, STORRS, CT, 6268","Match","Exact","1235 STORRS RD, STORRS, CT, 06268",56993199,"L"
40366,"1235 SWARTHMORE AVE","FOLSOM","PA",19033,39.8999286420001,-75.331663855,366,"1235 SWARTHMORE AVE, FOLSOM, PA, 19033","Match","Exact","1235 SWARTHMORE AVE, FOLSOM, PA, 19033",134880152,"R"
40367,"1235 SWIFT SHORE CIRCLE","WEST LINN","OR",97068,45.3425067850001,-122.663886582,367,"1235 SWIFT SHORE CIRCLE, WEST LINN, OR, 97068","Match","Non_Exact","1235 SWIFTSHORE CIR, WEST LINN, OR, 97068",157917696,"R"
40368,"1235 U RD","WISNER","NE",68791,42.0324233650001,-96.798439983,368,"1235 U RD, WISNER, NE, 68791","Match","Exact","1235 U RD, WISNER, NE, 68791",136147613,"L"
40369,"1235 UPPER FRONT STREET 303","BINGHAMTON","NY",13905,42.155542864,-75.8964804669999,369,"1235 UPPER FRONT STREET 303, BINGHAMTON, NY, 13905","Match","Exact","1235 UPPER FRONT ST, BINGHAMTON, NY, 13905",46372749,"L"
40370,"1235 VALENCIA AVE APT A","HEMET","CA",92543,33.7538120940001,-116.98401797,370,"1235 VALENCIA AVE APT A, HEMET, CA, 92543","Match","Exact","1235 VALENCIA AVE, HEMET, CA, 92543",194755592,"R"
40371,"1235 WESTLAKES DRIVE   SUITE 160","BERWYN","PA",19312,40.061705272,-75.472370299,371,"1235 WESTLAKES DRIVE   SUITE 160, BERWYN, PA, 19312","Match","Exact","1235 WESTLAKES DR, BERWYN, PA, 19312",179556545,"R"
40372,"1235 WINDING OAKS CIRCLE","VERO BEACH","FL",32963,27.7542416470001,-80.393589753,372,"1235 WINDING OAKS CIRCLE, VERO BEACH, FL, 32963","Match","Non_Exact","1235 WINDING OAKS CIR E, VERO BEACH, FL, 32963",120324765,"R"
40373,"1235 WINSLEY COURT SW","MARIETTA","GA",30064,NA,NA,373,"1235 WINSLEY COURT SW, MARIETTA, GA, 30064","Tie",NA,NA,NA,NA
40374,"1235-E EAST BLVD  STE-278","CHARLOTTE","NC",28203,35.2024651680001,-80.845353584,374,"1235-E EAST BLVD  STE-278, CHARLOTTE, NC, 28203","Match","Exact","1235 EAST BLVD, CHARLOTTE, NC, 28203",70485809,"L"
40375,"1235","CULPEPER","VA",22701,NA,NA,375,"1235, CULPEPER, VA, 22701","No_Match",NA,NA,NA,NA
40376,"12350 CLARIDON TROY ROAD","CHARDON","OH",44024,41.5349097690001,-81.144159372,376,"12350 CLARIDON TROY ROAD, CHARDON, OH, 44024","Match","Exact","12350 CLARIDON TROY RD, CHARDON, OH, 44024",137440067,"R"
40377,"12350 DEL AMO BLVD","LAKEWOOD","CA",90715,33.8461043610001,-118.068970816,377,"12350 DEL AMO BLVD, LAKEWOOD, CA, 90715","Match","Exact","12350 DEL AMO BLVD, LAKEWOOD, CA, 90715",640413442,"R"
40378,"12350 IMPERIAL HWY","NORWALK","CA",90650,33.917070763,-118.069274746,378,"12350 IMPERIAL HWY, NORWALK, CA, 90650","Match","Exact","12350 IMPERIAL HWY, NORWALK, CA, 90650",142658844,"R"
40379,"12350 JEFFERSON AVE STE 140","NEWPORT NEWS","VA",23602,37.1130210640001,-76.499858284,379,"12350 JEFFERSON AVE STE 140, NEWPORT NEWS, VA, 23602","Match","Exact","12350 JEFFERSON AVE, NEWPORT NEWS, VA, 23602",225656639,"L"
40380,"12350 JEFFERSON AVENUE","NEWPORT NEWS","VA",23602,37.1130210640001,-76.499858284,380,"12350 JEFFERSON AVENUE, NEWPORT NEWS, VA, 23602","Match","Exact","12350 JEFFERSON AVE, NEWPORT NEWS, VA, 23602",225656639,"L"
40381,"12350 MARSHALL AVE UNIT 133","CHINO","CA",91710,34.0287047,-117.691595749,381,"12350 MARSHALL AVE UNIT 133, CHINO, CA, 91710","Match","Exact","12350 MARSHALL AVE, CHINO, CA, 91710",144672959,"R"
40382,"12350 MIDSUMMER LANE A201","WOODBRIDGE","VA",22192,38.6848519770001,-77.323678941,382,"12350 MIDSUMMER LANE A201, WOODBRIDGE, VA, 22192","Match","Exact","12350 MIDSUMMER LN, WOODBRIDGE, VA, 22192",76517954,"R"
40383,"12350 MOHICAN ROAD","WOODBRIDGE","VA",22192,38.684754336,-77.30416798,383,"12350 MOHICAN ROAD, WOODBRIDGE, VA, 22192","Match","Exact","12350 MOHICAN RD, WOODBRIDGE, VA, 22192",76510444,"R"
40384,"12350 NW 27TH PLACE","CORAL SPRINGS","FL",33065,26.26528353,-80.2924473579999,384,"12350 NW 27TH PLACE, CORAL SPRINGS, FL, 33065","Match","Exact","12350 NW 27TH PL, CORAL SPRINGS, FL, 33065",114772608,"L"
40385,"12350 OLD HALLS FERRY ROAD","FLORISSANT","MO",63033,38.792761023,-90.2684700949999,385,"12350 OLD HALLS FERRY ROAD, FLORISSANT, MO, 63033","Match","Exact","12350 OLD HALLS FERRY RD, FLORISSANT, MO, 63033",604320548,"R"
40386,"12350 PARK RD","ORIENT","OH",43146,39.7710994940001,-83.1714212529999,386,"12350 PARK RD, ORIENT, OH, 43146","Match","Exact","12350 PARK RD, ORIENT, OH, 43146",37449786,"L"
40387,"12350 TIMBERLAND BLVD","FORT WORTH","TX",76244,32.9537072790001,-97.282145891,387,"12350 TIMBERLAND BLVD, FORT WORTH, TX, 76244","Match","Exact","12350 TIMBERLAND BLVD, FORT WORTH, TX, 76244",643342669,"R"
40388,"12351 CRAVEN AVE","SHELBY TOWNSHIP","MI",48315,42.650625656,-83.005805809,388,"12351 CRAVEN AVE, SHELBY TOWNSHIP, MI, 48315","Match","Exact","12351 CRAVEN AVE, SHELBY TOWNSHIP, MI, 48315",110658990,"L"
40389,"12351 MANCHESTER WAY","WOODBRIDGE","VA",22192,38.6877513860001,-77.331527976,389,"12351 MANCHESTER WAY, WOODBRIDGE, VA, 22192","Match","Exact","12351 MANCHESTER WAY, WOODBRIDGE, VA, 22192",207183209,"R"
40390,"12351 N GRANVILLE RD","MEQUON","WI",53097,43.2417993110001,-88.048378584,390,"12351 N GRANVILLE RD, MEQUON, WI, 53097","Match","Exact","12351 N GRANVILLE RD, MEQUON, WI, 53097",612752402,"L"
40391,"12351 NW 80TH PL","PARKLAND","FL",33076,26.329926243,-80.290255399,391,"12351 NW 80TH PL, PARKLAND, FL, 33076","Match","Exact","12351 NW 80 PL, PARKLAND, FL, 33076",625179382,"L"
40392,"12352 INDIANA","DETROIT","MI",48204,42.3794111010001,-83.1567792019999,392,"12352 INDIANA, DETROIT, MI, 48204","Match","Non_Exact","12352 INDIANA AVE, DETROIT, MI, 48204",95442784,"R"
40393,"12352 RUTHERFORD DRIVE","RANCHO CUCAMONGA","CA",91739,34.116989609,-117.535527508,393,"12352 RUTHERFORD DRIVE, RANCHO CUCAMONGA, CA, 91739","Match","Exact","12352 RUTHERFORD DR, ETIWANDA, CA, 91739",614820367,"L"
40394,"12353 BEAMER RD","HOUSTON","TX",77089,29.58790062,-95.216939523,394,"12353 BEAMER RD, HOUSTON, TX, 77089","Match","Exact","12353 BEAMER RD, HOUSTON, TX, 77089",96590580,"R"
40395,"12353 E EASTER AVE STE 200","CENTENNIAL","CO",80112,39.5881503630001,-104.845248338,395,"12353 E EASTER AVE STE 200, CENTENNIAL, CO, 80112","Match","Non_Exact","12353 E EASTER AVE, CENTENNIAL, CO, 80112",177359116,"L"
40396,"12353 W JOS R CHAFER RD","COUDERAY","WI",54828,45.7902219260001,-91.312179418,396,"12353 W JOS R CHAFER RD, COUDERAY, WI, 54828","Match","Exact","12353 W JOS R CHAFER RD, COUDERAY, WI, 54828",194442720,"R"
40397,"12353 WASHINGTON SQUARE","WALDORF","MD",20601,38.6458958860001,-76.885946393,397,"12353 WASHINGTON SQUARE, WALDORF, MD, 20601","Match","Exact","12353 WASHINGTON SQ, WALDORF, MD, 20601",25391895,"R"
40398,"12354 DEL SUR ST","VICTORVILLE","CA",92392,34.450717753,-117.395937793,398,"12354 DEL SUR ST, VICTORVILLE, CA, 92392","Match","Exact","12354 DEL SUR ST, VICTORVILLE, CA, 92392",640469002,"L"
40399,"12354 WEST HAZELWOOD STREET","AVONDALE","AZ",85392,NA,NA,399,"12354 WEST HAZELWOOD STREET, AVONDALE, AZ, 85392","No_Match",NA,NA,NA,NA
40400,"12355 AZALEAS DR","SANTA FE SPRINGS","CA",90670,33.940196079,-118.068934,400,"12355 AZALEAS DR, SANTA FE SPRINGS, CA, 90670","Match","Exact","12355 AZALEAS DR, SANTA FE SPRINGS, CA, 90670",651760189,"L"
40401,"12355 JEWEL STONE LANE","FORT MYERS","FL",33913,26.5968171920001,-81.754900987,401,"12355 JEWEL STONE LANE, FORT MYERS, FL, 33913","Match","Exact","12355 JEWEL STONE LN, FORT MYERS, FL, 33913",618799368,"R"
40402,"12355 S JOHN YOUNG PARKWAY","ORLANDO","FL",32837,28.382838647,-81.425087455,402,"12355 S JOHN YOUNG PARKWAY, ORLANDO, FL, 32837","Match","Exact","12355 S JOHN YOUNG PKWY, ORLANDO, FL, 32837",637296392,"R"
40403,"12355 STATE HIGHWAY CC","ROLLA","MO",65401,NA,NA,403,"12355 STATE HIGHWAY CC, ROLLA, MO, 65401","No_Match",NA,NA,NA,NA
40404,"12355 STATE HWY CC","ROLLA","MO",65401,37.922218823,-91.7930778419999,404,"12355 STATE HWY CC, ROLLA, MO, 65401","Match","Exact","12355 STATE HWY CC, ROLLA, MO, 65401",45102857,"L"
40405,"12355 SW 18 TH STREET","MIAMI","FL",33175,NA,NA,405,"12355 SW 18 TH STREET, MIAMI, FL, 33175","No_Match",NA,NA,NA,NA
40406,"12356 GREENSPRING AVE","OWINGS MILLS","MD",21117,39.4604032990001,-76.73883626,406,"12356 GREENSPRING AVE, OWINGS MILLS, MD, 21117","Match","Exact","12356 GREENSPRING AVE, OWINGS MILLS, MD, 21117",191465782,"L"
40407,"12356 S PERRY AVE","CHICAGO","MI",60628,NA,NA,407,"12356 S PERRY AVE, CHICAGO, MI, 60628","No_Match",NA,NA,NA,NA
40408,"12357 MACKINAC RD","HOMER GLEN","IL",60491,41.5881062390001,-87.920226585,408,"12357 MACKINAC RD, HOMER GLEN, IL, 60491","Match","Exact","12357 MACKINAC RD, HOMER GLEN, IL, 60491",111547881,"R"
40409,"12357 RHEA DRIVE","PLAINFIELD","IL",60585,41.6584299360001,-88.201933937,409,"12357 RHEA DRIVE, PLAINFIELD, IL, 60585","Match","Exact","12357 RHEA DR, PLAINFIELD, IL, 60585",642280271,"L"
40410,"12357 WENDOVER DR","PLYMOUTH","MI",48170,42.3709337670001,-83.544330157,410,"12357 WENDOVER DR, PLYMOUTH, MI, 48170","Match","Exact","12357 WENDOVER DR, PLYMOUTH, MI, 48170",647854614,"L"
40411,"12358 EPSTEIN VALLEY","SELMA","TX",78154,NA,NA,411,"12358 EPSTEIN VALLEY, SELMA, TX, 78154","No_Match",NA,NA,NA,NA
40412,"12358 HONEY HILL LANE","CHARLOTTE","NC",28273,35.1087616040001,-80.979206835,412,"12358 HONEY HILL LANE, CHARLOTTE, NC, 28273","Match","Exact","12358 HONEY HILL LN, CHARLOTTE, NC, 28273",70613844,"R"
40413,"12359 FOLKS RD","HANOVER","MI",49241,42.114733614,-84.639072781,413,"12359 FOLKS RD, HANOVER, MI, 49241","Match","Exact","12359 FOLKS RD, HANOVER, MI, 49241",631746677,"R"
40414,"12359 W ORANGE DRIVE","LITCHFIELD PARK","AZ",85340,33.5112239370001,-112.325469,414,"12359 W ORANGE DRIVE, LITCHFIELD PARK, AZ, 85340","Match","Exact","12359 W ORANGE DR, LITCHFIELD PARK, AZ, 85340",642658258,"L"
40415,"1235A NORTH CLYBOURN 369","CHICAGO","IL",60610,41.904427834,-87.640461309,415,"1235A NORTH CLYBOURN 369, CHICAGO, IL, 60610","Match","Non_Exact","1235 N CLYBOURN AVE, CHICAGO, IL, 60610",111768204,"R"
40416,"1236 1ST STREET N APT 301","JACKSONVILLE BEACH","FL",32250,30.3000281220001,-81.3918484599999,416,"1236 1ST STREET N APT 301, JACKSONVILLE BEACH, FL, 32250","Match","Exact","1236 1ST ST N, JACKSONVILLE BEACH, FL, 32250",83923451,"L"
40417,"1236 23RD AVENUE","OAKLAND","CA",94606,37.782783045,-122.236493366,417,"1236 23RD AVENUE, OAKLAND, CA, 94606","Match","Exact","1236 23RD AVE, OAKLAND, CA, 94606",606182839,"R"
40418,"1236 5TH AVE","HUNTINGTON","WV",25701,38.4205048170001,-82.437143702,418,"1236 5TH AVE, HUNTINGTON, WV, 25701","Match","Exact","1236 5TH AVE, HUNTINGTON, WV, 25701",636881622,"L"
40419,"1236 AIRPORT PULLING RD N","NAPLES","FL",34104,26.16470243,-81.7669829229999,419,"1236 AIRPORT PULLING RD N, NAPLES, FL, 34104","Match","Exact","1236 AIRPORT PULLING RD N, NAPLES, FL, 34104",115138272,"L"
40420,"1236 ANDUIN AVE","ANTIOCH","TN",37013,36.0340446820001,-86.6698082139999,420,"1236 ANDUIN AVE, ANTIOCH, TN, 37013","Match","Exact","1236 ANDUIN AVE, ANTIOCH, TN, 37013",627474498,"L"
40421,"1236 BARNES UNIT A","ATLANTA","GA",30318,33.7891394210001,-84.394523004,421,"1236 BARNES UNIT A, ATLANTA, GA, 30318","Match","Non_Exact","1236 BARNES ST, ATLANTA, GA, 30318",624510886,"L"
40422,"1236 BEAVERDAM FARM RD","CANON","GA",30520,34.333035652,-83.066653285,422,"1236 BEAVERDAM FARM RD, CANON, GA, 30520","Match","Exact","1236 BEAVERDAM FARM RD, CANON, GA, 30520",617848593,"L"
40423,"1236 BRACE ROAD STE B","CHERRY HILL","NJ",8034,39.901258898,-75.0139154999999,423,"1236 BRACE ROAD STE B, CHERRY HILL, NJ, 8034","Match","Exact","1236 BRACE RD, CHERRY HILL, NJ, 08034",134355142,"R"
40424,"1236 C ST SE","WASHINGTON","DC",20003,NA,NA,424,"1236 C ST SE, WASHINGTON, DC, 20003","No_Match",NA,NA,NA,NA
40425,"1236 CARROLL STREET","NEW YORK","NY",11225,40.667071574,-73.94878476,425,"1236 CARROLL STREET, NEW YORK, NY, 11225","Match","Non_Exact","1236 CARROLL ST, BROOKLYN, NY, 11225",59079453,"R"
40426,"1236 CENTRAL AVENUE   SUITE A","SARASOTA","FL",34243,27.349007403,-82.5426796,426,"1236 CENTRAL AVENUE   SUITE A, SARASOTA, FL, 34243","Match","Non_Exact","1236 CENTRAL AVE, SARASOTA, FL, 34236",648600250,"R"
40427,"1236 COBB DR SE APT 3A","GRAND RAIDS","MI",49508,42.8507725790001,-85.6320453119999,427,"1236 COBB DR SE APT 3A, GRAND RAIDS, MI, 49508","Match","Non_Exact","1236 COBB DR SE, GRAND RAPIDS, MI, 49508",12504912,"R"
40428,"1236 CONNER STREET SUITE 200","NOBLESVILLE","IN",46060,40.0456090260001,-86.009419784,428,"1236 CONNER STREET SUITE 200, NOBLESVILLE, IN, 46060","Match","Exact","1236 CONNER ST, NOBLESVILLE, IN, 46060",29291297,"R"
40429,"1236 DARLING ST","NAPA","CA",94558,38.3409860250001,-122.309994671,429,"1236 DARLING ST, NAPA, CA, 94558","Match","Exact","1236 DARLING ST, NAPA, CA, 94558",67424451,"R"
40430,"1236 DUBLIN ST","BILLINGS","MT",59105,45.821545502,-108.45450762,430,"1236 DUBLIN ST, BILLINGS, MT, 59105","Match","Exact","1236 DUBLIN ST, BILLINGS, MT, 59105",181479041,"R"
40431,"1236 EAST 88TH STREET","BROOKLYN","NY",11236,40.6337185300001,-73.901276933,431,"1236 EAST 88TH STREET, BROOKLYN, NY, 11236","Match","Exact","1236 E 88TH ST, BROOKLYN, NY, 11236",59086817,"R"
40432,"1236 EAST DENWALL DRIVE","CARSON","CA",90746,33.8472784160001,-118.251456562,432,"1236 EAST DENWALL DRIVE, CARSON, CA, 90746","Match","Exact","1236 E DENWALL DR, CARSON, CA, 90746",141680709,"R"
40433,"1236 ELLINGTON ROAD","SOUTH WINDSOR","CT",6074,41.825665051,-72.57871941,433,"1236 ELLINGTON ROAD, SOUTH WINDSOR, CT, 6074","Match","Exact","1236 ELLINGTON RD, SOUTH WINDSOR, CT, 06074",3526389,"L"
40434,"1236 GOSS AVE","LOUISVILLE","KY",40217,38.2252225980001,-85.732069866,434,"1236 GOSS AVE, LOUISVILLE, KY, 40217","Match","Exact","1236 GOSS AVE, LOUISVILLE, KY, 40217",647909101,"R"
40435,"1236 HALF MOON RD","EL PRADO","NM",87529,36.4289756740001,-105.596133707,435,"1236 HALF MOON RD, EL PRADO, NM, 87529","Match","Exact","1236 HALF MOON RD, EL PRADO, NM, 87529",650017892,"L"
40436,"1236 HALF ST SW","WASHINGTON","DC",20024,38.8757519050001,-77.010645768,436,"1236 HALF ST SW, WASHINGTON, DC, 20024","Match","Exact","1236 HALF ST SW, WASHINGTON, DC, 20024",76227183,"L"
40437,"1236 HIBISCUS WAY","LIVERMORE","CA",94551,37.710755713,-121.738008585,437,"1236 HIBISCUS WAY, LIVERMORE, CA, 94551","Match","Exact","1236 HIBISCUS WAY, LIVERMORE, CA, 94551",627881606,"L"
40438,"1236 HWY 24 EAST","LOUISVILLE","GA",30434,NA,NA,438,"1236 HWY 24 EAST, LOUISVILLE, GA, 30434","No_Match",NA,NA,NA,NA
40439,"1236 INTERNATIONAL BLVD","OAKLAND","CA",94606,37.7903524060001,-122.247684534,439,"1236 INTERNATIONAL BLVD, OAKLAND, CA, 94606","Match","Exact","1236 INTERNATIONAL BLVD, OAKLAND, CA, 94606",125001501,"L"
40440,"1236 ISLAND PLACE E","MEMPHIS","TN",38103,35.173887849,-90.050389933,440,"1236 ISLAND PLACE E, MEMPHIS, TN, 38103","Match","Exact","1236 ISLAND PL E, MEMPHIS, TN, 38103",610384243,"R"
40441,"1236 LARK AVE","BRIGHTON","CO",80601,39.9672639500001,-104.835528264,441,"1236 LARK AVE, BRIGHTON, CO, 80601","Match","Exact","1236 LARK AVE, BRIGHTON, CO, 80601",177415979,"L"
40442,"1236 LUAKALAI ST","KAPOLEI","HI",96707,NA,NA,442,"1236 LUAKALAI ST, KAPOLEI, HI, 96707","No_Match",NA,NA,NA,NA
40443,"1236 MAMARONECK AVE","WHITE PLAINS","NY",10605,40.991022458,-73.7460467229999,443,"1236 MAMARONECK AVE, WHITE PLAINS, NY, 10605","Match","Exact","1236 MAMARONECK AVE, WHITE PLAINS, NY, 10605",139843343,"R"
40444,"1236 MARQUETTE DR","DETROIT","MI",48214,42.3618635330001,-82.978025374,444,"1236 MARQUETTE DR, DETROIT, MI, 48214","Match","Exact","1236 MARQUETTE DR, DETROIT, MI, 48214",95485340,"R"
40445,"1236 MOURFIELD","KNOXVILLE","TN",37922,35.8764410540001,-84.087029301,445,"1236 MOURFIELD, KNOXVILLE, TN, 37922","Match","Non_Exact","1236 MOURFIELD RD, KNOXVILLE, TN, 37922",651702041,"R"
40446,"1236 N RURAL ST","INDIANAPOLIS","IN",46201,39.784909601,-86.116493654,446,"1236 N RURAL ST, INDIANAPOLIS, IN, 46201","Match","Exact","1236 N RURAL ST, INDIANAPOLIS, IN, 46201",107998918,"L"
40447,"1236 NORTHBROOK LANE","TROY","OH",45373,40.053615343,-84.183935076,447,"1236 NORTHBROOK LANE, TROY, OH, 45373","Match","Exact","1236 NORTHBROOK LN, TROY, OH, 45373",135297907,"R"
40448,"1236 SOUTH ALFRED STREET SUITE 4","LOS ANGELES","CA",90035,34.054332248,-118.374962515,448,"1236 SOUTH ALFRED STREET SUITE 4, LOS ANGELES, CA, 90035","Match","Exact","1236 S ALFRED ST, LOS ANGELES, CA, 90035",642867166,"L"
40449,"1236 TAMU SLOT 605","COLLEGE STATION","TX",77843,NA,NA,449,"1236 TAMU SLOT 605, COLLEGE STATION, TX, 77843","No_Match",NA,NA,NA,NA
40450,"1236 TEXAS AVENUE","LOUISVILLE","KY",40204,38.226603793,-85.7326642519999,450,"1236 TEXAS AVENUE, LOUISVILLE, KY, 40204","Match","Exact","1236 TEXAS AVE, LOUISVILLE, KY, 40204",618511563,"R"
40451,"1236 VIRGINIA AVENUE APT 5K","BRONX","NY",10472,40.8314557950001,-73.8609248609999,451,"1236 VIRGINIA AVENUE APT 5K, BRONX, NY, 10472","Match","Exact","1236 VIRGINIA AVE, BRONX, NY, 10472",80304995,"R"
40452,"1236 W 200 N","ROCHESTER","IN",46975,41.084419456,-86.2646675029999,452,"1236 W 200 N, ROCHESTER, IN, 46975","Match","Exact","1236 W 200 N, ROCHESTER, IN, 46975",7848993,"R"
40453,"1236 WEST 23RD STREET","RIVIERA BEACH","FL",33404,NA,NA,453,"1236 WEST 23RD STREET, RIVIERA BEACH, FL, 33404","No_Match",NA,NA,NA,NA
40454,"1236 WEST MULBERRY LANE","HIGHLANDS RANCH","CO",80129,39.5385736900001,-105.00226366,454,"1236 WEST MULBERRY LANE, HIGHLANDS RANCH, CO, 80129","Match","Exact","1236 W MULBERRY LN, HIGHLANDS RANCH, CO, 80129",130816607,"R"
40455,"1236 WEST WALNUT STREET","STOCKTON","CA",95203,37.9657885390001,-121.312416807,455,"1236 WEST WALNUT STREET, STOCKTON, CA, 95203","Match","Exact","1236 W WALNUT ST, STOCKTON, CA, 95203",133848155,"L"
40456,"1236","CHRISTIANSTED","VI",820,NA,NA,456,"1236, CHRISTIANSTED, VI, 820","No_Match",NA,NA,NA,NA
40457,"12360 66TH ST H4","LARGO","FL",33773,27.8841474970001,-82.729113583,457,"12360 66TH ST H4, LARGO, FL, 33773","Match","Exact","12360 66TH ST, LARGO, FL, 33773",600384659,"L"
40458,"12360 66TH STREET  STE A2","LARGO","FL",33773,27.8841474970001,-82.729113583,458,"12360 66TH STREET  STE A2, LARGO, FL, 33773","Match","Exact","12360 66TH ST, LARGO, FL, 33773",600384659,"L"
40459,"12360 66TH STREET N STE 700","LARGO","FL",33773,27.8841474970001,-82.729113583,459,"12360 66TH STREET N STE 700, LARGO, FL, 33773","Match","Non_Exact","12360 66TH ST, LARGO, FL, 33773",600384659,"L"
40460,"12360 PRESERVE LANE","JOHNS CREEK","GA",30005,34.0802214510001,-84.189918797,460,"12360 PRESERVE LANE, JOHNS CREEK, GA, 30005","Match","Exact","12360 PRESERVE LN, JOHNS CREEK, GA, 30005",17365566,"L"
40461,"12360 SE DIXIE HIGHWAY","HOBE SOUND","FL",33455,27.0536873660001,-80.123425965,461,"12360 SE DIXIE HIGHWAY, HOBE SOUND, FL, 33455","Match","Non_Exact","12360 OLD DIXIE HWY, HOBE SOUND, FL, 33455",120433943,"L"
40462,"12361 MAGNOLIA","GARDEN GROVE","CA",92841,33.783005931,-117.975373705,462,"12361 MAGNOLIA, GARDEN GROVE, CA, 92841","Match","Non_Exact","12361 MAGNOLIA ST, GARDEN GROVE, CA, 92841",144015929,"R"
40463,"12361 PALM STREET","CERRITOS","CA",90703,33.875799756,-118.068664839,463,"12361 PALM STREET, CERRITOS, CA, 90703","Match","Exact","12361 PALM ST, CERRITOS, CA, 90703",141744226,"L"
40464,"12362 STATE HIGHWAY F","POTOSI","MO",63664,NA,NA,464,"12362 STATE HIGHWAY F, POTOSI, MO, 63664","No_Match",NA,NA,NA,NA
40465,"12363 STATE ROUTE 21","DE SOTO","MO",63020,NA,NA,465,"12363 STATE ROUTE 21, DE SOTO, MO, 63020","No_Match",NA,NA,NA,NA
40466,"12365 HURON ST SUITE 1800","WESTMINSTER","CO",80234,39.9209893870001,-104.996820747,466,"12365 HURON ST SUITE 1800, WESTMINSTER, CO, 80234","Match","Exact","12365 HURON ST, WESTMINSTER, CO, 80234",177452640,"L"
40467,"12365 N OAKLAWN LN","BILOXI","MS",39532,30.46120209,-88.9746606149999,467,"12365 N OAKLAWN LN, BILOXI, MS, 39532","Match","Exact","12365 N OAKLAWN LN, BILOXI, MS, 39532",111403262,"L"
40468,"12365 ROAD 36 1/2","MADERA","CA",93636,36.9279554080001,-119.894194302,468,"12365 ROAD 36 1/2, MADERA, CA, 93636","Match","Exact","12365 RD 36, MADERA, CA, 93636",102334927,"R"
40469,"12365 SW 18TH STREET UNIT 201","MIAMI","FL",33175,NA,NA,469,"12365 SW 18TH STREET UNIT 201, MIAMI, FL, 33175","No_Match",NA,NA,NA,NA
40470,"12365 W DIXIE HWY","N MIAMI","FL",33161,25.8889309670001,-80.188652213,470,"12365 W DIXIE HWY, N MIAMI, FL, 33161","Match","Exact","12365 W DIXIE HWY, NORTH MIAMI, FL, 33161",116034423,"R"
40471,"12366 POWAY RD STE B1","POWAY","CA",92064,32.9518183370001,-117.063632122,471,"12366 POWAY RD STE B1, POWAY, CA, 92064","Match","Exact","12366 POWAY RD, POWAY, CA, 92064",195319824,"L"
40472,"12366 RIVERHILL ROAD","FRISCO","TX",75033,33.180026361,-96.852547213,472,"12366 RIVERHILL ROAD, FRISCO, TX, 75033","Match","Exact","12366 RIVERHILL RD, FRISCO, TX, 75033",615054841,"R"
40473,"12367 SHEARWATER RUN","FORT WAYNE","IN",46845,41.197004672,-85.158520478,473,"12367 SHEARWATER RUN, FORT WAYNE, IN, 46845","Match","Exact","12367 SHEARWATER RUN, FORT WAYNE, IN, 46845",617294255,"L"
40474,"12368 MARKET DRIVE","OKLAHOMA CITY","OK",73114,35.596707012,-97.500258539,474,"12368 MARKET DRIVE, OKLAHOMA CITY, OK, 73114","Match","Exact","12368 MARKET DR, OKLAHOMA CITY, OK, 73114",641691200,"R"
40475,"12368 TRIPLE TREE TERR","VICTORVILLE","CA",92392,34.475545932,-117.356915856,475,"12368 TRIPLE TREE TERR, VICTORVILLE, CA, 92392","Match","Exact","12368 TRIPLE TREE TER, VICTORVILLE, CA, 92392",144591830,"R"
40476,"12368 W FOXHAVEN ST","STAR","ID",83669,43.7034625650001,-116.509883345,476,"12368 W FOXHAVEN ST, STAR, ID, 83669","Match","Exact","12368 W FOXHAVEN ST, STAR, ID, 83669",636192728,"L"
40477,"12369 BERKELEY SQUARE DRIVE","TAMPA","FL",33626,28.054740904,-82.6254307729999,477,"12369 BERKELEY SQUARE DRIVE, TAMPA, FL, 33626","Match","Exact","12369 BERKELEY SQUARE DR, TAMPA, FL, 33626",104585128,"R"
40478,"1237 16TH STREET SE","MASSILLON","OH",44646,40.7832966060001,-81.505279088,478,"1237 16TH STREET SE, MASSILLON, OH, 44646","Match","Exact","1237 16TH ST SE, MASSILLON, OH, 44646",64719649,"R"
40479,"1237 ALLEN STREET","CHARLOTTE","NC",28205,35.228399365,-80.818949289,479,"1237 ALLEN STREET, CHARLOTTE, NC, 28205","Match","Exact","1237 ALLEN ST, CHARLOTTE, NC, 28205",70480025,"L"
40480,"1237 AMORETTI ST","THERMOPOLIS","WY",82443,43.64183124,-108.22331088,480,"1237 AMORETTI ST, THERMOPOLIS, WY, 82443","Match","Exact","1237 AMORETTI ST, THERMOPOLIS, WY, 82443",148933899,"L"
40481,"1237 BARN OWL ROAD","EFFINGHAM","SC",29541,34.144295884,-79.793722378,481,"1237 BARN OWL ROAD, EFFINGHAM, SC, 29541","Match","Exact","1237 BARN OWL RD, EFFINGHAM, SC, 29541",648994759,"L"
40482,"1237 BELLEVUE DRIVE","GADSDEN","AL",35904,34.0377515610001,-86.000819065,482,"1237 BELLEVUE DRIVE, GADSDEN, AL, 35904","Match","Exact","1237 BELLEVUE DR, GADSDEN, AL, 35904",66771258,"R"
40483,"1237 BROWNSVILLE ROAD","MORGANTOWN","KY",42261,37.2642027110001,-86.6690017769999,483,"1237 BROWNSVILLE ROAD, MORGANTOWN, KY, 42261","Match","Exact","1237 BROWNSVILLE RD, MORGANTOWN, KY, 42261",649674950,"L"
40484,"1237 CANYON CREEK CIRCLE","COLLEGE STATION","TX",77840,30.5874859300001,-96.343579845,484,"1237 CANYON CREEK CIRCLE, COLLEGE STATION, TX, 77840","Match","Exact","1237 CANYON CREEK CIR, COLLEGE STATION, TX, 77840",21846596,"L"
40485,"1237 CHINKAPIN PL","FLOWER MOUND","TX",75028,33.0165523420001,-97.0472218419999,485,"1237 CHINKAPIN PL, FLOWER MOUND, TX, 75028","Match","Exact","1237 CHINKAPIN PL, FLOWER MOUND, TX, 75028",103377152,"L"
40486,"1237 CROSBY AVE - APT 1","BRONX","NY",10461,40.8369178830001,-73.82800993,486,"1237 CROSBY AVE - APT 1, BRONX, NY, 10461","Match","Exact","1237 CROSBY AVE, BRONX, NY, 10461",80306870,"L"
40487,"1237 CROSS KEYS RD","LEXINGTON","KY",40504,38.0414358640001,-84.554865223,487,"1237 CROSS KEYS RD, LEXINGTON, KY, 40504","Match","Exact","1237 CROSS KEYS RD, LEXINGTON, KY, 40504",31933467,"R"
40488,"1237 DICKERSON RD","NORTH WALES","PA",19454,40.224886064,-75.273166305,488,"1237 DICKERSON RD, NORTH WALES, PA, 19454","Match","Exact","1237 DICKERSON RD, NORTH WALES, PA, 19454",135075350,"R"
40489,"1237 E DIANA AVE","ANAHEIM","CA",92805,33.8289244860001,-117.898048789,489,"1237 E DIANA AVE, ANAHEIM, CA, 92805","Match","Exact","1237 E DIANA AVE, ANAHEIM, CA, 92805",144027466,"L"
40490,"1237 E WEISGARBER RD UNIT 53136","KNOXVILIE","TN",37950,NA,NA,490,"1237 E WEISGARBER RD UNIT 53136, KNOXVILIE, TN, 37950","No_Match",NA,NA,NA,NA
40491,"1237 FAIRLANE DR","CAPE GIRARDEAU","MO",63701,37.325303408,-89.554470292,491,"1237 FAIRLANE DR, CAPE GIRARDEAU, MO, 63701","Match","Exact","1237 FAIRLANE DR, CAPE GIRARDEAU, MO, 63701",35181957,"L"
40492,"1237 FR","CONWAY","AR",72032,NA,NA,492,"1237 FR, CONWAY, AR, 72032","No_Match",NA,NA,NA,NA
40493,"1237 GARDEN VILLAGE DR","FLORISSANT","MO",63031,38.824774575,-90.328338418,493,"1237 GARDEN VILLAGE DR, FLORISSANT, MO, 63031","Match","Exact","1237 GARDEN VILLAGE DR, FLORISSANT, MO, 63031",100193666,"R"
40494,"1237 GRANDVIEW AVE","GLENDALE","CA",91201,34.166311077,-118.281003424,494,"1237 GRANDVIEW AVE, GLENDALE, CA, 91201","Match","Exact","1237 GRANDVIEW AVE, GLENDALE, CA, 91201",142727958,"L"
40495,"1237 GREENRIDGE AVENUE","LITHONIA","GA",30058,33.7580729310001,-84.153448501,495,"1237 GREENRIDGE AVENUE, LITHONIA, GA, 30058","Match","Exact","1237 GREENRIDGE AVE, LITHONIA, GA, 30058",624900434,"L"
40496,"1237 HEBDEN COVE","VIRGINIA BEACH","VA",23452,36.8716601450001,-76.102709889,496,"1237 HEBDEN COVE, VIRGINIA BEACH, VA, 23452","Match","Exact","1237 HEBDEN COVE, VA BCH, VA, 23452",122295419,"L"
40497,"1237 LAURA LANE","NORTH WALES","PA",19454,40.2057862880001,-75.24602737,497,"1237 LAURA LANE, NORTH WALES, PA, 19454","Match","Exact","1237 LAURA LN, NORTH WALES, PA, 19454",135112343,"L"
40498,"1237 LAUREL RD","CLINTON","TN",37716,36.075489078,-84.2010702589999,498,"1237 LAUREL RD, CLINTON, TN, 37716","Match","Exact","1237 LAUREL RD, CLINTON, TN, 37716",636667806,"R"
40499,"1237 MARTINIQUE CT","MARCO ISLAND","FL",34145,25.960873593,-81.715937246,499,"1237 MARTINIQUE CT, MARCO ISLAND, FL, 34145","Match","Exact","1237 MARTINIQUE CT, MARCO ISLAND, FL, 34145",115122195,"R"
40500,"1237 MARVIN AVENUE","CHARLESTON","SC",29407,32.8042066240001,-79.998727636,500,"1237 MARVIN AVENUE, CHARLESTON, SC, 29407","Match","Exact","1237 MARVIN AVE, CHARLESTON, SC, 29407",108803605,"L"
