"ID","Address","City","State","Zip","lat","long","id","input_address","match_indicator","match_type","matched_address","tiger_line_id","tiger_side"
226501,"4920 STORY ROCK STREET NW","ALBUQUERQUE","NM",87120,35.139444048,-106.707327536,1,"4920 STORY ROCK STREET NW, ALBUQUERQUE, NM, 87120","Match","Exact","4920 STORY ROCK ST NW, ALBUQUERQUE, NM, 87120",206796958,"R"
226502,"4920 SW 165TH AVENUE","MIRAMAR","FL",33027,25.9661269280001,-80.365945368,2,"4920 SW 165TH AVENUE, MIRAMAR, FL, 33027","Match","Exact","4920 SW 165TH AVE, MIRAMAR, FL, 33027",114806810,"L"
226503,"4920 TALLOWWOOD DRIVE","DUMFRIES","VA",22025,38.6250363020001,-77.3571006079999,3,"4920 TALLOWWOOD DRIVE, DUMFRIES, VA, 22025","Match","Exact","4920 TALLOWWOOD DR, DUMFRIES, VA, 22025",207155120,"R"
226504,"4920 TALLWOOD DRIVE","RALEIGH","NC",27613,35.9579792150001,-78.714039401,4,"4920 TALLWOOD DRIVE, RALEIGH, NC, 27613","Match","Exact","4920 TALLWOOD DR, RALEIGH, NC, 27613",72484480,"L"
226505,"4920 TRINITY CROSSING","CONWAY","AR",72034,35.081752662,-92.5104133469999,5,"4920 TRINITY CROSSING, CONWAY, AR, 72034","Match","Non_Exact","4920 TRINITY CROSSING DR, CONWAY, AR, 72034",617915492,"R"
226506,"4920 VICKI ANN  2","PAHRUMP","NV",89048,36.1480115690001,-115.974989137,6,"4920 VICKI ANN  2, PAHRUMP, NV, 89048","Match","Non_Exact","4920 VICKI ANN RD, PAHRUMP, NV, 89048",647394795,"L"
226507,"4920 WILSON DRIVE NW","CLEVELAND","TN",37312,35.231808298,-84.894263994,7,"4920 WILSON DRIVE NW, CLEVELAND, TN, 37312","Match","Non_Exact","4920 WILSON DR, CLEVELAND, TN, 37312",57573359,"R"
226508,"4921 48TH STREET","SACRAMENTO","CA",95820,38.5309267010001,-121.449789448,8,"4921 48TH STREET, SACRAMENTO, CA, 95820","Match","Exact","4921 48TH ST, SACRAMENTO, CA, 95820",133327476,"L"
226509,"4921 AVIEMORE DR","NASHVILLE","TN",37210,36.057780302,-86.7502104549999,9,"4921 AVIEMORE DR, NASHVILLE, TN, 37210","Match","Non_Exact","4921 AVIEMORE DR, NASHVILLE, TN, 37220",97221239,"L"
226510,"4921 AVIEMORE DR","NASHVILLE","TN",37220,36.057780302,-86.7502104549999,10,"4921 AVIEMORE DR, NASHVILLE, TN, 37220","Match","Exact","4921 AVIEMORE DR, NASHVILLE, TN, 37220",97221239,"L"
226511,"4921 BEL AIR RD","BALTIMORE","MD",21206,39.335087279,-76.556018143,11,"4921 BEL AIR RD, BALTIMORE, MD, 21206","Match","Non_Exact","4921 BELAIR RD, BALTIMORE, MD, 21206",206411576,"R"
226512,"4921 CEDAR AVE","EL MONTE","CA",91732,34.093659529,-118.020505623,12,"4921 CEDAR AVE, EL MONTE, CA, 91732","Match","Exact","4921 CEDAR AVE, EL MONTE, CA, 91732",141649107,"L"
226513,"4921 COLDWATER CANYON AVE APT 7","SHERMAN OAKS","CA",91423,34.1599707830001,-118.413782649,13,"4921 COLDWATER CANYON AVE APT 7, SHERMAN OAKS, CA, 91423","Match","Exact","4921 COLDWATER CANYON AVE, SHERMAN OAKS, CA, 91423",141563610,"L"
226514,"4921 DEESON RD","LAKELAND","FL",33810,28.113330643,-82.046764262,14,"4921 DEESON RD, LAKELAND, FL, 33810","Match","Exact","4921 DEESON RD, LAKELAND, FL, 33810",104837337,"R"
226515,"4921 EASTRIDGE DRIVE","OMAHA","NE",68134,41.3033099450001,-96.0724297519999,15,"4921 EASTRIDGE DRIVE, OMAHA, NE, 68134","Match","Exact","4921 EASTRIDGE DR, OMAHA, NE, 68134",116968992,"R"
226516,"4921 FRANCE AVE S","MINNEAPOLIS","MN",55410,44.913587014,-93.329041353,16,"4921 FRANCE AVE S, MINNEAPOLIS, MN, 55410","Match","Exact","4921 FRANCE AVE S, MINNEAPOLIS, MN, 55410",43628051,"L"
226517,"4921 N ASHFORD WAY","YPSILANTI","MI",48197,42.206053603,-83.661682667,17,"4921 N ASHFORD WAY, YPSILANTI, MI, 48197","Match","Exact","4921 N ASHFORD WAY, YPSILANTI, MI, 48197",612679764,"L"
226518,"4921 N CR 1147","MIDLAND","TX",79705,32.0630340320001,-102.022162185,18,"4921 N CR 1147, MIDLAND, TX, 79705","Match","Exact","4921 N CO RD 1147, MIDLAND, TX, 79705",139597964,"L"
226519,"4921 N MAIN STREET","COLUMBIA","SC",29203,34.048947394,-81.029073367,19,"4921 N MAIN STREET, COLUMBIA, SC, 29203","Match","Exact","4921 N MAIN ST, COLUMBIA, SC, 29203",71818973,"L"
226520,"4921 ORA ST","LANSING","MI",48910,42.6846439890001,-84.555203815,20,"4921 ORA ST, LANSING, MI, 48910","Match","Exact","4921 ORA ST, LANSING, MI, 48910",17502831,"L"
226521,"4921 PRETTY LAKE AVENUE APT 415","NORFOLK","VA",23518,36.924572347,-76.184847183,21,"4921 PRETTY LAKE AVENUE APT 415, NORFOLK, VA, 23518","Match","Exact","4921 PRETTY LAKE AVE, NORFOLK, VA, 23518",641113802,"R"
226522,"4921 S 5TH AVE","PHOENIX","AZ",85041,33.4007971350001,-112.078559168,22,"4921 S 5TH AVE, PHOENIX, AZ, 85041","Match","Non_Exact","4921 S 5TH AVE, PHOENIX, AZ, 85041",128212812,"L"
226523,"4921 SAMMELMAN RD","WELDON SPRING","MO",63304,38.7283752980001,-90.632109998,23,"4921 SAMMELMAN RD, WELDON SPRING, MO, 63304","Match","Non_Exact","4921 SAMMELMANN RD, WELDON SPRING, MO, 63304",648252537,"R"
226524,"4921 SE 73RD ST","HAMPTON","FL",32044,29.82529663,-82.127866593,24,"4921 SE 73RD ST, HAMPTON, FL, 32044","Match","Exact","4921 SE 73RD ST, HAMPTON, FL, 32044",6902685,"R"
226525,"4921 TILDEN RD BOX 386","BLADENSBURG","MD",20710,38.9421495780001,-76.9331559359999,25,"4921 TILDEN RD BOX 386, BLADENSBURG, MD, 20710","Match","Exact","4921 TILDEN RD, BLADENSBURG, MD, 20710",76306459,"R"
226526,"49216 GARLAND STREET","INDIO","CA",92201,33.6911347500001,-116.232161973,26,"49216 GARLAND STREET, INDIO, CA, 92201","Match","Exact","49216 GARLAND ST, INDIO, CA, 92201",194774035,"R"
226527,"4922  9TH STREET NW","WASHINGTON","DC",20011,38.9500651450001,-77.0254685519999,27,"4922  9TH STREET NW, WASHINGTON, DC, 20011","Match","Exact","4922 9TH ST NW, WASHINGTON, DC, 20011",76223469,"L"
226528,"4922 1/2 MCCONNELL AVENUE","LOS ANGELES","CA",90066,33.9837346250001,-118.424062391,28,"4922 1/2 MCCONNELL AVENUE, LOS ANGELES, CA, 90066","Match","Exact","4922 MCCONNELL AVE, LOS ANGELES, CA, 90066",141578026,"L"
226529,"4922 BILL GARDNER PKWY 109","LOCUST GROVE","GA",30248,33.3534341610001,-84.114884973,29,"4922 BILL GARDNER PKWY 109, LOCUST GROVE, GA, 30248","Match","Exact","4922 BILL GARDNER PKWY, LOCUST GROVE, GA, 30248",637445830,"R"
226530,"4922 CAPE VISTA","CORPUS CHRISTI","TX",78414,27.645596176,-97.408349796,30,"4922 CAPE VISTA, CORPUS CHRISTI, TX, 78414","Match","Non_Exact","4922 CAPE VISTA CT, CORPUS CHRISTI, TX, 78414",633963640,"R"
226531,"4922 DIVISION AVE ST STE4","KENTWOOD","MI",49548,42.8738025100001,-85.664356202,31,"4922 DIVISION AVE ST STE4, KENTWOOD, MI, 49548","Match","Non_Exact","4922 S DIVISION AVE, KENTWOOD, MI, 49548",12464077,"L"
226532,"4922 FLORENCE AVENUE","DOWNERS GROVE","IL",60515,41.7983284210001,-87.9917629559999,32,"4922 FLORENCE AVENUE, DOWNERS GROVE, IL, 60515","Match","Exact","4922 FLORENCE AVE, DOWNERS GROVE, IL, 60515",112547253,"R"
226533,"4922 IDAHO","HOUSTON","TX",77021,29.6862305400001,-95.3470037069999,33,"4922 IDAHO, HOUSTON, TX, 77021","Match","Non_Exact","4922 IDAHO ST, HOUSTON, TX, 77021",96089201,"R"
226534,"4922 MEADOW PLACE","LA PORTE","TX",77571,29.667517791,-95.071472606,34,"4922 MEADOW PLACE, LA PORTE, TX, 77571","Match","Non_Exact","4922 MEADOW PLACE DR, LA PORTE, TX, 77571",96107176,"L"
226535,"4922 N KEDVALE","CHICAGO","IL",60630,NA,NA,35,"4922 N KEDVALE, CHICAGO, IL, 60630","No_Match",NA,NA,NA,NA
226536,"4922 N KRUGER AVE","CHICAGO","IL",60630,41.96897678,-87.746779185,36,"4922 N KRUGER AVE, CHICAGO, IL, 60630","Match","Exact","4922 N KRUGER AVE, CHICAGO, IL, 60630",605183441,"L"
226537,"4922 N MCCOY CT","PORTLAND","OR",97203,45.5871854980001,-122.71700086,37,"4922 N MCCOY CT, PORTLAND, OR, 97203","Match","Exact","4922 N MCCOY CT, PORTLAND, OR, 97203",627706153,"R"
226538,"4922 NORTH 40TH STREET","MILWAUKEE","WI",53209,43.106933715,-87.9626813199999,38,"4922 NORTH 40TH STREET, MILWAUKEE, WI, 53209","Match","Exact","4922 N 40TH ST, MILWAUKEE, WI, 53209",77731479,"R"
226539,"4922 NORTH 56TH STREET","MILWAUKEE","WI",53218,43.1068842880001,-87.982552733,39,"4922 NORTH 56TH STREET, MILWAUKEE, WI, 53218","Match","Exact","4922 N 56TH ST, MILWAUKEE, WI, 53218",77731179,"R"
226540,"4922 ROSELAWN CIRCLE","NASHVILLE","TN",37215,36.0801776690001,-86.8079167079999,40,"4922 ROSELAWN CIRCLE, NASHVILLE, TN, 37215","Match","Exact","4922 ROSELAWN CIR, NASHVILLE, TN, 37215",97191425,"L"
226541,"4922 SANDY BEACH DR","CROWN POINT","IN",46307,41.400248198,-87.2197122109999,41,"4922 SANDY BEACH DR, CROWN POINT, IN, 46307","Match","Exact","4922 SANDY BEACH DR, CROWN POINT, IN, 46307",646569246,"R"
226542,"4922 SILVERWEED DRIVE","MCKINNEY","TX",75070,33.1597502490001,-96.676093157,42,"4922 SILVERWEED DRIVE, MCKINNEY, TX, 75070","Match","Exact","4922 SILVERWEED DR, MCKINNEY, TX, 75070",123547019,"R"
226543,"4922 TANBARK DR","WILMINGTON","NC",28412,34.1445771940001,-77.918228012,43,"4922 TANBARK DR, WILMINGTON, NC, 28412","Match","Exact","4922 TANBARK DR, WILMINGTON, NC, 28412",152735923,"R"
226544,"4922 TRUITT LANE","DECATUR","GA",30035,33.7181736810001,-84.188359355,44,"4922 TRUITT LANE, DECATUR, GA, 30035","Match","Exact","4922 TRUITT LN, DECATUR, GA, 30035",628092837,"R"
226545,"4922 TUDOR AVE","CENTREVILLE","IL",62207,38.576920898,-90.120625998,45,"4922 TUDOR AVE, CENTREVILLE, IL, 62207","Match","Exact","4922 TUDOR AVE, CENTREVILLE, IL, 62207",107850161,"R"
226546,"4922 WOOD DUCK CIRCLE","VERO BEACH","FL",32967,27.6824115050001,-80.393362684,46,"4922 WOOD DUCK CIRCLE, VERO BEACH, FL, 32967","Match","Exact","4922 WOOD DUCK CIR, VERO BEACH, FL, 32967",641069677,"R"
226547,"4922","SOUTH JORDAN","UT",84009,NA,NA,47,"4922, SOUTH JORDAN, UT, 84009","No_Match",NA,NA,NA,NA
226548,"49225 903RD ROAD","SPENCER","NE",68777,42.9151726740001,-98.661541444,48,"49225 903RD ROAD, SPENCER, NE, 68777","Match","Exact","49225 903RD RD, SPENCER, NE, 68777",168523914,"R"
226549,"4923 67TH ST NE","MARYSVILLE","WA",98270,48.056708928,-122.164115574,49,"4923 67TH ST NE, MARYSVILLE, WA, 98270","Match","Exact","4923 67TH ST NE, MARYSVILLE, WA, 98270",187747850,"L"
226550,"4923 EAGLE RIDGE CT","LEBANON","OH",45036,39.461165174,-84.298253229,50,"4923 EAGLE RIDGE CT, LEBANON, OH, 45036","Match","Exact","4923 EAGLE RIDGE CT, LEBANON, OH, 45036",617730831,"R"
226551,"4923 HILL DRIVE","GODFREY","IL",62035,38.9332776420001,-90.224196449,51,"4923 HILL DRIVE, GODFREY, IL, 62035","Match","Exact","4923 HILL DR, GODFREY, IL, 62035",107677113,"R"
226552,"4923 JONES VALLEY RD","WILLIAMSPORT","TN",38487,35.7449255340001,-87.209401758,52,"4923 JONES VALLEY RD, WILLIAMSPORT, TN, 38487","Match","Exact","4923 JONES VALLEY RD, WILLIAMSPORT, TN, 38487",26896728,"L"
226553,"4923 JONES VALLEY ROAD","WILLIAMSPORT","TN",38487,35.7449255340001,-87.209401758,53,"4923 JONES VALLEY ROAD, WILLIAMSPORT, TN, 38487","Match","Exact","4923 JONES VALLEY RD, WILLIAMSPORT, TN, 38487",26896728,"L"
226554,"4923 LAGOS AZUL CT","SPRING","UT",77389,NA,NA,54,"4923 LAGOS AZUL CT, SPRING, UT, 77389","No_Match",NA,NA,NA,NA
226555,"4923 PATAGONIA PLACE","LAND O LAKES","FL",34638,28.2292421110001,-82.4657678419999,55,"4923 PATAGONIA PLACE, LAND O LAKES, FL, 34638","Match","Exact","4923 PATAGONIA PL, LAND O LAKES, FL, 34638",618492612,"L"
226556,"4923 S WHITAKER RD","AMARILLO","TX",79118,35.153078635,-101.760163824,56,"4923 S WHITAKER RD, AMARILLO, TX, 79118","Match","Exact","4923 WHITAKER RD, AMARILLO, TX, 79118",182656904,"R"
226557,"4923 SOUTH VINCENNES   APT 3","CHICAGO","IL",60615,41.805294492,-87.613858568,57,"4923 SOUTH VINCENNES   APT 3, CHICAGO, IL, 60615","Match","Non_Exact","4923 S VINCENNES AVE, CHICAGO, IL, 60615",111770887,"L"
226558,"4923 W CYPRESS ST","TAMPA","FL",33607,27.9523118440001,-82.526408658,58,"4923 W CYPRESS ST, TAMPA, FL, 33607","Match","Exact","4923 W CYPRESS ST, TAMPA, FL, 33607",104654330,"R"
226559,"4923 WEST 12TH STREET","LITTLE ROCK","AR",72204,34.740969663,-92.3296760869999,59,"4923 WEST 12TH STREET, LITTLE ROCK, AR, 72204","Match","Exact","4923 W 12TH ST, LITTLE ROCK, AR, 72204",83505539,"L"
226560,"4923 WINDSOR DOWNS DR","DECATUR","GA",30035,33.7173158260001,-84.188280154,60,"4923 WINDSOR DOWNS DR, DECATUR, GA, 30035","Match","Exact","4923 WINDSOR DOWNS DR, DECATUR, GA, 30035",23391599,"L"
226561,"49230 S RIVER RD","GORDON","WI",54838,NA,NA,61,"49230 S RIVER RD, GORDON, WI, 54838","No_Match",NA,NA,NA,NA
226562,"492373 SHENANDOAH DRIVE","MACOMB","MI",48044,NA,NA,62,"492373 SHENANDOAH DRIVE, MACOMB, MI, 48044","No_Match",NA,NA,NA,NA
226563,"49238 MONMOUTH DR","CHESTERFIELD","MI",48047,42.6485668490001,-82.826004553,63,"49238 MONMOUTH DR, CHESTERFIELD, MI, 48047","Match","Exact","49238 MONMOUTH DR, CHESTERFIELD, MI, 48047",110717532,"L"
226564,"4924  TRENT DRIVE","SAN JOSE","CA",95124,37.2487141020001,-121.924036471,64,"4924  TRENT DRIVE, SAN JOSE, CA, 95124","Match","Exact","4924 TRENT DR, SAN JOSE, CA, 95124",123013595,"L"
226565,"4924 7TH AVENUE SOUTH","BIRMINGHAM","AL",35222,33.5293592510001,-86.756314969,65,"4924 7TH AVENUE SOUTH, BIRMINGHAM, AL, 35222","Match","Exact","4924 7TH AVE S, BIRMINGHAM, AL, 35222",81580148,"L"
226566,"4924 BALBOA BLVD STE 277","ENCINO","CA",91316,34.1599859780001,-118.501069292,66,"4924 BALBOA BLVD STE 277, ENCINO, CA, 91316","Match","Exact","4924 BALBOA BLVD, ENCINO, CA, 91316",141556518,"R"
226567,"4924 BALBOA BLVD STE 556","ENCINO","CA",91316,34.1599859780001,-118.501069292,67,"4924 BALBOA BLVD STE 556, ENCINO, CA, 91316","Match","Exact","4924 BALBOA BLVD, ENCINO, CA, 91316",141556518,"R"
226568,"4924 BALBOA BLVD UNIT 285","ENCINO","CA",91316,34.1599859780001,-118.501069292,68,"4924 BALBOA BLVD UNIT 285, ENCINO, CA, 91316","Match","Exact","4924 BALBOA BLVD, ENCINO, CA, 91316",141556518,"R"
226569,"4924 BREWSTER DRIVE","COLUMBUS","OH",43232,39.9004340980001,-82.8714763199999,69,"4924 BREWSTER DRIVE, COLUMBUS, OH, 43232","Match","Exact","4924 BREWSTER DR, COLUMBUS, OH, 43232",218643851,"L"
226570,"4924 CHAPS CT","ANTIOCH","CA",94531,37.9751175150001,-121.761267089,70,"4924 CHAPS CT, ANTIOCH, CA, 94531","Match","Exact","4924 CHAPS CT, ANTIOCH, CA, 94531",192100201,"R"
226571,"4924 CHESTNUT ST APT A","PHILADELPHIA","PA",19139,39.9578055150001,-75.219828594,71,"4924 CHESTNUT ST APT A, PHILADELPHIA, PA, 19139","Match","Exact","4924 CHESTNUT ST, PHILADELPHIA, PA, 19139",131399654,"L"
226572,"4924 DEWEY DRIVE","FAIR OAKS","CA",95628,38.6545900200001,-121.308293231,72,"4924 DEWEY DRIVE, FAIR OAKS, CA, 95628","Match","Exact","4924 DEWEY DR, FAIR OAKS, CA, 95628",133343496,"R"
226573,"4924 E BRENNAN DR","SIOUX FALLS","SD",57110,43.5541820890001,-96.665670676,73,"4924 E BRENNAN DR, SIOUX FALLS, SD, 57110","Match","Exact","4924 E BRENNAN DR, SIOUX FALLS, SD, 57110",34991005,"L"
226574,"4924 GLACIER LN","EVERETT","WA",98203,47.952598756,-122.214907319,74,"4924 GLACIER LN, EVERETT, WA, 98203","Match","Exact","4924 GLACIER LN, EVERETT, WA, 98203",187746310,"R"
226575,"4924 HARRINGTON PLACE","POWDER SPRINGS","GA",30127,33.8323993500001,-84.6965074029999,75,"4924 HARRINGTON PLACE, POWDER SPRINGS, GA, 30127","Match","Exact","4924 HARRINGTON PL, POWDER SPGS, GA, 30127",17217761,"L"
226576,"4924 HINE DR","SHADY SIDE","MD",20764,38.8376555790001,-76.527478366,76,"4924 HINE DR, SHADY SIDE, MD, 20764","Match","Exact","4924 HINE DR, SHADY SIDE, MD, 20764",68178050,"R"
226577,"4924 KRAMER COURT","COTTAGE GROVE","WI",53527,43.117042842,-89.181479382,77,"4924 KRAMER COURT, COTTAGE GROVE, WI, 53527","Match","Exact","4924 KRAMER CT, COTTAGE GROVE, WI, 53527",49480567,"R"
226578,"4924 PERSHING AVE SE","ALBUQUERQUE","NM",87108,35.070071623,-106.58990406,78,"4924 PERSHING AVE SE, ALBUQUERQUE, NM, 87108","Match","Exact","4924 PERSHING AVE SE, ALBUQUERQUE, NM, 87108",206718177,"R"
226579,"4924 S COUNTRY CLUB WAY","TEMPE","AZ",85282,33.380525477,-111.900625324,79,"4924 S COUNTRY CLUB WAY, TEMPE, AZ, 85282","Match","Exact","4924 S COUNTRY CLUB WAY, TEMPE, AZ, 85282",128238817,"R"
226580,"4924 WEST BAY WAY DR","TAMPA","FL",33629,27.93463265,-82.5295767389999,80,"4924 WEST BAY WAY DR, TAMPA, FL, 33629","Match","Exact","4924 W BAY WAY DR, TAMPA, FL, 33629",104524647,"L"
226581,"4924 WEST WING DR NE","LELAND","NC",28451,34.3383502400001,-78.107820228,81,"4924 WEST WING DR NE, LELAND, NC, 28451","Match","Exact","4924 W WING DR NE, LELAND, NC, 28451",627150036,"L"
226582,"49245 HWY 160","BAYFIELD","CO",81122,37.2896506370001,-107.509014615,82,"49245 HWY 160, BAYFIELD, CO, 81122","Match","Non_Exact","49245 US HWY 160, BAYFIELD, CO, 81122",91725385,"R"
226583,"4925 BRIDLE POINT PARKWAY","SNELLVILLE","GA",30039,33.772267802,-84.0253597339999,83,"4925 BRIDLE POINT PARKWAY, SNELLVILLE, GA, 30039","Match","Non_Exact","4925 BRIDLE POINT PKWY SW, SNELLVILLE, GA, 30039",634065236,"R"
226584,"4925 CEDAR ST","BELLAIRE","TX",77401,29.7070168990001,-95.465091872,84,"4925 CEDAR ST, BELLAIRE, TX, 77401","Match","Exact","4925 CEDAR ST, BELLAIRE, TX, 77401",96033662,"L"
226585,"4925 COLLETT ROAD","SHORTSVILLE","NY",14548,42.9763181070001,-77.285326985,85,"4925 COLLETT ROAD, SHORTSVILLE, NY, 14548","Match","Exact","4925 COLLETT RD, SHORTSVILLE, NY, 14548",13471376,"L"
226586,"4925 COLLINS AVE 3F","MIAMI BEACH","FL",33140,25.825232704,-80.122061296,86,"4925 COLLINS AVE 3F, MIAMI BEACH, FL, 33140","Match","Exact","4925 COLLINS AVE, MIAMI BEACH, FL, 33140",650065943,"R"
226587,"4925 COUNTRY CLUB WAY","BOULDER","CO",80301,40.0640812820001,-105.191740699,87,"4925 COUNTRY CLUB WAY, BOULDER, CO, 80301","Match","Exact","4925 COUNTRY CLUB WAY, BOULDER, CO, 80301",188161627,"L"
226588,"4925 E BONNE FEMME CHURCH ROAD","COLUMBIA","MO",65201,38.8759237850001,-92.268451246,88,"4925 E BONNE FEMME CHURCH ROAD, COLUMBIA, MO, 65201","Match","Exact","4925 E BONNE FEMME CHURCH RD, COLUMBIA, MO, 65201",648183605,"L"
226589,"4925 EAST DESERT COVE AVE UNIT 255","SCOTTSDALE","AZ",85254,33.5864111490001,-111.975706531,89,"4925 EAST DESERT COVE AVE UNIT 255, SCOTTSDALE, AZ, 85254","Match","Exact","4925 E DESERT COVE AVE, SCOTTSDALE, AZ, 85254",128321747,"R"
226590,"4925 ERIN RD SW","ATLANTA","GA",30331,33.689265037,-84.549182424,90,"4925 ERIN RD SW, ATLANTA, GA, 30331","Match","Exact","4925 ERIN RD SW, ATLANTA, GA, 30331",642888949,"R"
226591,"4925 FORT CROCKETT BLVD  APT 411","GALVESTON","TX",77551,29.2737253170001,-94.817056015,91,"4925 FORT CROCKETT BLVD  APT 411, GALVESTON, TX, 77551","Match","Exact","4925 FORT CROCKETT BLVD, GALVESTON, TX, 77551",96734892,"L"
226592,"4925 GLENCROSS DRIVE","DAYTON","OH",45406,39.795221719,-84.271909477,92,"4925 GLENCROSS DRIVE, DAYTON, OH, 45406","Match","Exact","4925 GLENCROSS DR, DAYTON, OH, 45406",143564759,"R"
226593,"4925 GREENBRIAR INC","CORPUS CHRISTI","TX",78413,27.694695,-97.394128332,93,"4925 GREENBRIAR INC, CORPUS CHRISTI, TX, 78413","Match","Non_Exact","4925 GREENBRIAR DR, CORPUS CHRISTI, TX, 78413",178539313,"L"
226594,"4925 GREENVILLE AVE SUITE 200","DALLAS","TX",75206,32.847008701,-96.7701439749999,94,"4925 GREENVILLE AVE SUITE 200, DALLAS, TX, 75206","Match","Exact","4925 GREENVILLE AVE, DALLAS, TX, 75206",103201908,"L"
226595,"4925 HIGHWAY 92","DOUGLASVILLE","GA",30135,33.6730068150001,-84.664076914,95,"4925 HIGHWAY 92, DOUGLASVILLE, GA, 30135","Match","Non_Exact","4925 STATE RTE 92, DOUGLASVILLE, GA, 30135",618466234,"R"
226596,"4925 HWY 92/166","DOUGLASVILLE","GA",30135,NA,NA,96,"4925 HWY 92/166, DOUGLASVILLE, GA, 30135","No_Match",NA,NA,NA,NA
226597,"4925 HWY92/166","DOUGLASVILLE","GA",30135,NA,NA,97,"4925 HWY92/166, DOUGLASVILLE, GA, 30135","No_Match",NA,NA,NA,NA
226598,"4925 LOGAN AVENUE S","MINNEAPOLIS","MN",55419,44.9136392520001,-93.303583845,98,"4925 LOGAN AVENUE S, MINNEAPOLIS, MN, 55419","Match","Exact","4925 LOGAN AVE S, MINNEAPOLIS, MN, 55419",43628917,"L"
226599,"4925 LUNT AVE","SKOKIE","IL",60077,42.008177118,-87.751151606,99,"4925 LUNT AVE, SKOKIE, IL, 60077","Match","Exact","4925 LUNT AVE, SKOKIE, IL, 60077",111741197,"L"
226600,"4925 MADISON AVENUE","SAN DIEGO","CA",92115,32.7609358720001,-117.088143899,100,"4925 MADISON AVENUE, SAN DIEGO, CA, 92115","Match","Exact","4925 MADISON AVE, SAN DIEGO, CA, 92115",612874293,"R"
226601,"4925 N COUNTY ROAD 27","LOVELAND","CO",80538,40.4419008610001,-105.200156556,101,"4925 N COUNTY ROAD 27, LOVELAND, CO, 80538","Match","Exact","4925 N CO RD 27, LOVELAND, CO, 80538",188590827,"L"
226602,"4925 N MAGNOLIA AVE","CHICAGO","IL",60640,41.972224264,-87.661117211,102,"4925 N MAGNOLIA AVE, CHICAGO, IL, 60640","Match","Exact","4925 N MAGNOLIA AVE, CHICAGO, IL, 60640",605185725,"R"
226603,"4925 NORTH 12 TH STREET","PHILADELPHIA","PA",19141,40.027580302,-75.143355824,103,"4925 NORTH 12 TH STREET, PHILADELPHIA, PA, 19141","Match","Non_Exact","4925 N 12TH ST, PHILADELPHIA, PA, 19141",131417292,"R"
226604,"4925 ORCHARD LAKE RD","WEST BLOOMFIELD","MI",48323,42.5672407820001,-83.361837152,104,"4925 ORCHARD LAKE RD, WEST BLOOMFIELD, MI, 48323","Match","Exact","4925 ORCHARD LAKE RD, W BLOOMFIELD, MI, 48323",69722184,"L"
226605,"4925 PANAMA PLACE","SAN DIEGO","CA",92116,32.768364332,-117.122063748,105,"4925 PANAMA PLACE, SAN DIEGO, CA, 92116","Match","Exact","4925 PANAMA PL, SAN DIEGO, CA, 92116",195321723,"R"
226606,"4925 POPLAR SPRINGS DR","MERIDIAN","MS",39305,32.4108408010001,-88.7014068679999,106,"4925 POPLAR SPRINGS DR, MERIDIAN, MS, 39305","Match","Exact","4925 POPLAR SPRINGS DR, MERIDIAN, MS, 39305",607991161,"L"
226607,"4925 S BROADWAY UNIT 1064","WICHITA","KS",67216,NA,NA,107,"4925 S BROADWAY UNIT 1064, WICHITA, KS, 67216","No_Match",NA,NA,NA,NA
226608,"4925 S COACHMAN DRIVE","INDEPENDENCE","MO",64055,NA,NA,108,"4925 S COACHMAN DRIVE, INDEPENDENCE, MO, 64055","Tie",NA,NA,NA,NA
226609,"4925 STONE GATE TRL","MCKINNEY","TX",75070,33.172051766,-96.683524442,109,"4925 STONE GATE TRL, MCKINNEY, TX, 75070","Match","Exact","4925 STONE GATE TRL, MCKINNEY, TX, 75070",619922346,"L"
226610,"4925 TERRITORIAL RD","BENTON HARBOR","MI",49022,42.1219874650001,-86.33941451,110,"4925 TERRITORIAL RD, BENTON HARBOR, MI, 49022","Match","Exact","4925 TERRITORIAL RD, BENTON HARBOR, MI, 49022",623827684,"R"
226611,"4925 TIOGA WAY","CENTRAL POINT","OR",97502,42.39958971,-122.979700012,111,"4925 TIOGA WAY, CENTRAL POINT, OR, 97502","Match","Exact","4925 TIOGA WAY, CENTRAL POINT, OR, 97502",155606027,"R"
226612,"4925 VANCE ROAD","NORTH RICHLAND HILLS","TX",76180,32.836991842,-97.233106261,112,"4925 VANCE ROAD, NORTH RICHLAND HILLS, TX, 76180","Match","Exact","4925 VANCE RD, NORTH RICHLAND HILLS, TX, 76180",101863136,"L"
226613,"4925 VILLA POINT DRIVE","ABERDEEN","MD",21001,39.4974349920001,-76.217091234,113,"4925 VILLA POINT DRIVE, ABERDEEN, MD, 21001","Match","Exact","4925 VILLA POINT DR, ABERDEEN, MD, 21001",633877669,"R"
226614,"4925 WATER WAY COURT APT 435","ORLANDO","FL",32839,28.4882529000001,-81.399037681,114,"4925 WATER WAY COURT APT 435, ORLANDO, FL, 32839","Match","Non_Exact","4925 WATERWAY CT, ORLANDO, FL, 32839",606121096,"R"
226615,"4925 WEBBER COURT","MERCED","CA",95348,37.360225917,-120.470494462,115,"4925 WEBBER COURT, MERCED, CA, 95348","Match","Exact","4925 WEBBER CT, MERCED, CA, 95348",614113746,"L"
226616,"4925 WILSHIRE BLVD SUITE 303","LOS ANGELES","CA",90010,34.062113633,-118.337961733,116,"4925 WILSHIRE BLVD SUITE 303, LOS ANGELES, CA, 90010","Match","Exact","4925 WILSHIRE BLVD, LOS ANGELES, CA, 90010",634243332,"R"
226617,"4926 370TH AVE","CURLEW","IA",50527,42.934264796,-94.855784307,117,"4926 370TH AVE, CURLEW, IA, 50527","Match","Exact","4926 370TH AVE, CURLEW, IA, 50527",9883500,"R"
226618,"4926 CHEENA DRIVE","HOUSTON","TX",77096,29.672099401,-95.4625662349999,118,"4926 CHEENA DRIVE, HOUSTON, TX, 77096","Match","Exact","4926 CHEENA DR, HOUSTON, TX, 77096",96039862,"R"
226619,"4926 CHORUS LN","KIMONTI MCSWAIN","OH",43615,NA,NA,119,"4926 CHORUS LN, KIMONTI MCSWAIN, OH, 43615","No_Match",NA,NA,NA,NA
226620,"4926 F NORTH SHERMAN AVE","MADISON","WI",53704,43.1485752230001,-89.362832538,120,"4926 F NORTH SHERMAN AVE, MADISON, WI, 53704","Match","Exact","4926 N SHERMAN AVE, MADISON, WI, 53704",49537265,"L"
226621,"4926 FOUR OAKS COURT","DUNWOODY","GA",30360,33.941494576,-84.275610816,121,"4926 FOUR OAKS COURT, DUNWOODY, GA, 30360","Match","Exact","4926 FOUR OAKS CT, DUNWOODY, GA, 30360",23378284,"L"
226622,"4926 GALILEO DR","COLORADO SPRINGS","CO",80917,38.9077346940001,-104.734838235,122,"4926 GALILEO DR, COLORADO SPRINGS, CO, 80917","Match","Exact","4926 GALILEO DR, COLORADO SPRINGS, CO, 80917",105546574,"R"
226623,"4926 GALLIER DRIVE","NEW ORLEANS","LA",70126,30.0119564560001,-90.03460346,123,"4926 GALLIER DRIVE, NEW ORLEANS, LA, 70126","Match","Exact","4926 GALLIER DR, NEW ORLEANS, LA, 70126",191704816,"L"
226624,"4926 MILLER AVE","GARY","IN",46403,41.5971051060001,-87.278441776,124,"4926 MILLER AVE, GARY, IN, 46403","Match","Exact","4926 MILLER AVE, GARY, IN, 46403",98427708,"L"
226625,"4926 NORTH 49TH STREET","MILWAUKEE","WI",53218,43.107256847,-87.973893715,125,"4926 NORTH 49TH STREET, MILWAUKEE, WI, 53218","Match","Exact","4926 N 49TH ST, MILWAUKEE, WI, 53218",77731412,"R"
226626,"4926 RUPERT LN","LA CANADA","CA",91011,34.2025050240001,-118.180740188,126,"4926 RUPERT LN, LA CANADA, CA, 91011","Match","Exact","4926 RUPERT LN, LA CANADA, CA, 91011",141591184,"R"
226627,"4926 TETON ST","HOUSTON","TX",77033,29.6731225070001,-95.351484009,127,"4926 TETON ST, HOUSTON, TX, 77033","Match","Exact","4926 TETON ST, HOUSTON, TX, 77033",96089361,"R"
226628,"4926 W CONGRESS PKWY","CHICAGO","IL",60644,41.8740422130001,-87.7477638939999,128,"4926 W CONGRESS PKWY, CHICAGO, IL, 60644","Match","Exact","4926 W CONGRESS PKWY, CHICAGO, IL, 60644",605043064,"R"
226629,"4927 CENTRAL AVE","CERES","CA",95307,37.567093104,-120.957065863,129,"4927 CENTRAL AVE, CERES, CA, 95307","Match","Exact","4927 CENTRAL AVE, CERES, CA, 95307",102593070,"R"
226630,"4927 CLOVERLEAF LANE","LOCKPORT","NY",14094,43.102435884,-78.771749703,130,"4927 CLOVERLEAF LANE, LOCKPORT, NY, 14094","Match","Exact","4927 CLOVERLEAF LN, LOCKPORT, NY, 14094",624380681,"L"
226631,"4927 DEBORAH ANN DRIVE","BARATARIA","LA",70036,29.692592426,-90.1020434389999,131,"4927 DEBORAH ANN DRIVE, BARATARIA, LA, 70036","Match","Exact","4927 DEBORAH ANN DR, BARATARIA, LA, 70036",93518427,"R"
226632,"4927 E APACHE RAIN RD","CAVE CREEK","AZ",85331,33.786002335,-111.974213304,132,"4927 E APACHE RAIN RD, CAVE CREEK, AZ, 85331","Match","Exact","4927 APACHE RAIN RD, CAVE CREEK, AZ, 85331",128596389,"L"
226633,"4927 HOLLY TREE DRIVE","DALLAS","TX",75287,32.99854814,-96.821926817,133,"4927 HOLLY TREE DRIVE, DALLAS, TX, 75287","Match","Exact","4927 HOLLY TREE DR, DALLAS, TX, 75287",123534433,"R"
226634,"4927 HUNTINGTON DRIVE NORTH","LOS ANGELES","CA",90032,34.087243931,-118.176076968,134,"4927 HUNTINGTON DRIVE NORTH, LOS ANGELES, CA, 90032","Match","Exact","4927 HUNTINGTON DR N, LOS ANGELES, CA, 90032",141623247,"L"
226635,"4927 JACKSON LAKE ROAD","MONTICELLO","GA",31064,33.3728080290001,-83.825623034,135,"4927 JACKSON LAKE ROAD, MONTICELLO, GA, 31064","Match","Exact","4927 JACKSON LAKE RD, MONTICELLO, GA, 31064",66630127,"R"
226636,"4927 MCINTYRE RD","KNOXVILLE","TN",37914,36.0184511150001,-83.869090994,136,"4927 MCINTYRE RD, KNOXVILLE, TN, 37914","Match","Exact","4927 MCINTYRE RD, KNOXVILLE, TN, 37914",42621798,"L"
226637,"4927 NORTH SEELEY","CHICAGO","IL",60625,41.9711104,-87.680473196,137,"4927 NORTH SEELEY, CHICAGO, IL, 60625","Match","Non_Exact","4927 N SEELEY AVE, CHICAGO, IL, 60625",111760348,"R"
226638,"4927 PARKSIDE AVENUE","PHILADELPHIA","PA",19131,39.9908891680001,-75.2199868229999,138,"4927 PARKSIDE AVENUE, PHILADELPHIA, PA, 19131","Match","Non_Exact","4927 PARKSIDE AVE N, PHILADELPHIA, PA, 19131",131396826,"R"
226639,"4927 REEDMONT LN","CHARLOTTE","NC",28269,35.3129679240001,-80.8255707069999,139,"4927 REEDMONT LN, CHARLOTTE, NC, 28269","Match","Exact","4927 REEDMONT LN, CHARLOTTE, NC, 28269",70605578,"L"
226640,"4927 SHAWNEE TRAIL","AMARILLO","TX",79109,35.15577775,-101.89255246,140,"4927 SHAWNEE TRAIL, AMARILLO, TX, 79109","Match","Exact","4927 SHAWNEE TRL, AMARILLO, TX, 79109",182653153,"L"
226641,"4927 VENTURA LANE","HOUSTON","TX",77021,29.7038644950001,-95.3385361109999,141,"4927 VENTURA LANE, HOUSTON, TX, 77021","Match","Exact","4927 VENTURA LN, HOUSTON, TX, 77021",96074336,"L"
226642,"4927 VINEWOOD ST","DETROIT","MI",48208,42.343445704,-83.1052594779999,142,"4927 VINEWOOD ST, DETROIT, MI, 48208","Match","Exact","4927 VINEWOOD ST, DETROIT, MI, 48208",95472483,"L"
226643,"4927 WESLEY AVE","CINCINNATI","OH",45212,39.165461813,-84.451194213,143,"4927 WESLEY AVE, CINCINNATI, OH, 45212","Match","Exact","4927 WESLEY AVE, CINCINNATI, OH, 45212",103930475,"L"
226644,"49274 IVYBRIDGE WAY","CANTON","MI",48187,42.3129409900001,-83.5243036539999,144,"49274 IVYBRIDGE WAY, CANTON, MI, 48187","Match","Exact","49274 IVYBRIDGE WAY, CANTON, MI, 48187",617694316,"L"
226645,"49279 BLANCHE AVE","CABAZON","CA",92230,33.9091154050001,-116.801639991,145,"49279 BLANCHE AVE, CABAZON, CA, 92230","Match","Exact","49279 BLANCHE AVE, CABAZON, CA, 92230",194689147,"L"
226646,"4928 10TH AVE S","MINNEAPOLIS","MN",55417,44.9137117180001,-93.2600730249999,146,"4928 10TH AVE S, MINNEAPOLIS, MN, 55417","Match","Exact","4928 10TH AVE S, MINNEAPOLIS, MN, 55417",43634984,"R"
226647,"4928 5TH STREET NW","WASHINGTON","DC",20011,38.950603223,-77.0196179599999,147,"4928 5TH STREET NW, WASHINGTON, DC, 20011","Match","Exact","4928 5TH ST NW, WASHINGTON, DC, 20011",76223420,"L"
226648,"4928 BECK RD","SAN ANTONIO","TX",78263,29.375275829,-98.313189305,148,"4928 BECK RD, SAN ANTONIO, TX, 78263","Match","Exact","4928 BECK RD, SAN ANTONIO, TX, 78263",101735603,"R"
226649,"4928 BRYANT DRIVE","SNELLVILLE","GA",30039,33.7715491930001,-84.005764139,149,"4928 BRYANT DRIVE, SNELLVILLE, GA, 30039","Match","Non_Exact","4928 BRYANT RD, SNELLVILLE, GA, 30039",636185748,"L"
226650,"4928 CEDAR AVE S","MINNEAPOLIS","MN",55417,44.9136980590001,-93.2473111689999,150,"4928 CEDAR AVE S, MINNEAPOLIS, MN, 55417","Match","Exact","4928 CEDAR AVE S, MINNEAPOLIS, MN, 55417",43639406,"R"
226651,"4928 ELBERTON HWY","HARTWELL","GA",30643,34.2914706820001,-82.897949879,151,"4928 ELBERTON HWY, HARTWELL, GA, 30643","Match","Exact","4928 ELBERTON HWY, HARTWELL, GA, 30643",642604545,"L"
226652,"4928 HILLIARD OAKS COURT","HILLIARD","OH",43026,40.0059787530001,-83.1398058,152,"4928 HILLIARD OAKS COURT, HILLIARD, OH, 43026","Match","Exact","4928 HILLIARD OAKS CT, HILLIARD, OH, 43026",135622946,"R"
226653,"4928 HOLLYWOOD BLVD 6","HOLLYWOOD","FL",33021,26.01031321,-80.1929301059999,153,"4928 HOLLYWOOD BLVD 6, HOLLYWOOD, FL, 33021","Match","Exact","4928 HOLLYWOOD BLVD, HOLLYWOOD, FL, 33021",637758023,"R"
226654,"4928 LAKE PARK LANE","ACWORTH","GA",30101,34.070624384,-84.638825853,154,"4928 LAKE PARK LANE, ACWORTH, GA, 30101","Match","Exact","4928 LAKE PARK LN, ACWORTH, GA, 30101",647803845,"R"
226655,"4928 LOTUS AVE","SAINT LOUIS","MO",63113,38.6655589440001,-90.2571781679999,155,"4928 LOTUS AVE, SAINT LOUIS, MO, 63113","Match","Exact","4928 LOTUS AVE, SAINT LOUIS, MO, 63113",107595399,"L"
226656,"4928 MCCALL LANE","PANAMA CITY","FL",32404,30.237462205,-85.561866303,156,"4928 MCCALL LANE, PANAMA CITY, FL, 32404","Match","Exact","4928 MCCALL LN, PANAMA CITY, FL, 32404",614889383,"R"
226657,"4928 NW 30TH PLACE","GAINESVILLE","FL",32606,29.6803965460001,-82.3961132909999,157,"4928 NW 30TH PLACE, GAINESVILLE, FL, 32606","Match","Exact","4928 NW 30TH PL, GAINESVILLE, FL, 32606",6821639,"L"
226658,"4928 PINGREE RD","HOWELL","MI",48843,42.525861703,-84.019000997,158,"4928 PINGREE RD, HOWELL, MI, 48843","Match","Exact","4928 PINGREE RD, HOWELL, MI, 48843",619589901,"L"
226659,"4928 S KEELER AVE","CHICAGO","IL",60632,41.803560971,-87.7283645589999,159,"4928 S KEELER AVE, CHICAGO, IL, 60632","Match","Exact","4928 S KEELER AVE, CHICAGO, IL, 60632",111800800,"R"
226660,"4928 TIMBER CT","OAK FOREST","IL",60452,41.5861738080001,-87.73886377,160,"4928 TIMBER CT, OAK FOREST, IL, 60452","Match","Exact","4928 TIMBER CT, OAK FOREST, IL, 60452",111703762,"R"
226661,"4928 W 3850 S","WEST VALLEY","UT",84120,40.688041995,-112.008362609,161,"4928 W 3850 S, WEST VALLEY, UT, 84120","Match","Exact","4928 W 3850 S, WEST VALLEY, UT, 84120",647271335,"L"
226662,"4928 W GLADYS AVENUE","CHICAGO","IL",60644,41.875849805,-87.747942329,162,"4928 W GLADYS AVENUE, CHICAGO, IL, 60644","Match","Exact","4928 W GLADYS AVE, CHICAGO, IL, 60644",605043014,"R"
226663,"4928 W SAN RAFAEL ST","TAMPA","FL",33629,27.926386209,-82.527375665,163,"4928 W SAN RAFAEL ST, TAMPA, FL, 33629","Match","Exact","4928 W SAN RAFAEL ST, TAMPA, FL, 33629",104525238,"L"
226664,"4929 BREEZEWIND LANE","FORT WORTH","TX",76123,32.6149544790001,-97.401190862,164,"4929 BREEZEWIND LANE, FORT WORTH, TX, 76123","Match","Exact","4929 BREEZEWIND LN, FORT WORTH, TX, 76123",637604408,"L"
226665,"4929 CRESCENT ST","BETHESDA","MD",20816,38.954451012,-77.095782438,165,"4929 CRESCENT ST, BETHESDA, MD, 20816","Match","Exact","4929 CRESCENT ST, BETHESDA, MD, 20816",62067226,"R"
226666,"4929 EMMALANI DRIVE","PRINCEVILLE","HI",96722,22.218721692,-159.475162482,166,"4929 EMMALANI DRIVE, PRINCEVILLE, HI, 96722","Match","Exact","4929 EMMALANI DR, PRINCEVILLE, HI, 96722",203394090,"R"
226667,"4929 JEAN GRIMES DRIVE","CHARLOTTE","NC",28269,35.3714956040001,-80.780899548,167,"4929 JEAN GRIMES DRIVE, CHARLOTTE, NC, 28269","Match","Exact","4929 JEAN GRIMES DR, CHARLOTTE, NC, 28269",641605462,"R"
226668,"4929 LILY STEM DRIVE","AUBURN","GA",30011,34.080940415,-83.868614752,168,"4929 LILY STEM DRIVE, AUBURN, GA, 30011","Match","Exact","4929 LILY STEM DR, AUBURN, GA, 30011",627670211,"L"
226669,"4929 MEADOW LARK LANE","PASO ROBLES","CA",93446,35.7205325780001,-120.879266514,169,"4929 MEADOW LARK LANE, PASO ROBLES, CA, 93446","Match","Exact","4929 MEADOW LARK LN, PASO ROBLES, CA, 93446",109803219,"L"
226670,"4929 N 117 CIR","OMAHA","NE",68164,41.303396223,-96.0950255879999,170,"4929 N 117 CIR, OMAHA, NE, 68164","Match","Exact","4929 N 117TH CIR, OMAHA, NE, 68164",116968272,"R"
226671,"4929 N HAMILTON RD","PEORIA","IL",61614,40.7475890800001,-89.630979274,171,"4929 N HAMILTON RD, PEORIA, IL, 61614","Match","Exact","4929 N HAMILTON RD, PEORIA, IL, 61614",8714383,"L"
226672,"4929 NE 2ND LOOP","OCALA","FL",34470,29.1891683860001,-82.0667780859999,172,"4929 NE 2ND LOOP, OCALA, FL, 34470","Match","Exact","4929 NE 2ND LOOP, OCALA, FL, 34470",116729246,"R"
226673,"4929 ORINDA AVE","LOS ANGELES","CA",90043,33.9982055770001,-118.344018186,173,"4929 ORINDA AVE, LOS ANGELES, CA, 90043","Match","Exact","4929 ORINDA AVE, LOS ANGELES, CA, 90043",141602425,"R"
226674,"4929 ROCKPORT DRIVE","DALLAS","TX",75232,32.684432895,-96.828675507,174,"4929 ROCKPORT DRIVE, DALLAS, TX, 75232","Match","Exact","4929 ROCKPORT DR, DALLAS, TX, 75232",102948447,"R"
226675,"4929 S WARNER DR","GENEVA-ON-THE-LAKE","OH",44041,41.8591923280001,-80.949719579,175,"4929 S WARNER DR, GENEVA-ON-THE-LAKE, OH, 44041","Match","Non_Exact","4929 S WARNER DR, GENEVA, OH, 44041",117312402,"R"
226676,"4929 SE 113TH AVE","PORTLAND","OR",97203,45.486213551,-122.547168693,176,"4929 SE 113TH AVE, PORTLAND, OR, 97203","Match","Non_Exact","4929 SE 113TH AVE, PORTLAND, OR, 97266",157568633,"R"
226677,"4929 SKYWAY DRIVE 1308","JACKSONVILLE","FL",32246,NA,NA,177,"4929 SKYWAY DRIVE 1308, JACKSONVILLE, FL, 32246","No_Match",NA,NA,NA,NA
226678,"4929 SKYWAY DRIVE APT 2301","JACKSONVILLE","FL",32246,NA,NA,178,"4929 SKYWAY DRIVE APT 2301, JACKSONVILLE, FL, 32246","No_Match",NA,NA,NA,NA
226679,"49291 YALE DR","MACOMB","MI",48044,42.660182046,-82.92947522,179,"49291 YALE DR, MACOMB, MI, 48044","Match","Exact","49291 YALE DR, MACOMB, MI, 48044",110732162,"L"
226680,"492C CEDAR LANE BOX 301","TEANECK","NJ",7666,40.8895473090001,-74.023382085,180,"492C CEDAR LANE BOX 301, TEANECK, NJ, 7666","Match","Exact","492 CEDAR LN, TEANECK, NJ, 07666",64388672,"L"
226681,"492C CEDAR LN STE 206","TEANECK","NJ",7666,40.8895473090001,-74.023382085,181,"492C CEDAR LN STE 206, TEANECK, NJ, 7666","Match","Exact","492 CEDAR LN, TEANECK, NJ, 07666",64388672,"L"
226682,"493  LINCOLN PLACE APT4M","BROOKLYN","NY",11238,40.6720159700001,-73.959909072,182,"493  LINCOLN PLACE APT4M, BROOKLYN, NY, 11238","Match","Exact","493 LINCOLN PL, BROOKLYN, NY, 11238",59078463,"L"
226683,"493 42ND ST","OAKLAND","CA",94609,37.830876554,-122.263545565,183,"493 42ND ST, OAKLAND, CA, 94609","Match","Exact","493 42ND ST, OAKLAND, CA, 94609",606837112,"L"
226684,"493 BURMA RD","BALL","LA",71405,31.423708855,-92.392054709,184,"493 BURMA RD, BALL, LA, 71405","Match","Exact","493 BURMA RD, BALL, LA, 71405",651111115,"L"
226685,"493 CHESTER STREET","OGDEN","UT",84404,41.24924041,-111.967218636,185,"493 CHESTER STREET, OGDEN, UT, 84404","Match","Exact","493 CHESTER ST, OGDEN, UT, 84404",155713909,"R"
226686,"493 E MARCH LANE STE D","STOCKTON","CA",95210,NA,NA,186,"493 E MARCH LANE STE D, STOCKTON, CA, 95210","No_Match",NA,NA,NA,NA
226687,"493 EASTERN BLVD","BAYVILLE","NJ",8721,39.8880485500001,-74.178651289,187,"493 EASTERN BLVD, BAYVILLE, NJ, 8721","Match","Exact","493 EASTERN BLVD, BAYVILLE, NJ, 08721",647807921,"L"
226688,"493 EL CAMINO REAL","GREENFIELD","CA",93927,36.326418668,-121.248130532,188,"493 EL CAMINO REAL, GREENFIELD, CA, 93927","Match","Exact","493 EL CAMINO REAL, GREENFIELD, CA, 93927",196803932,"L"
226689,"493 FORD HILL ROAD","HUNTER","NY",12442,42.238830358,-74.248198987,189,"493 FORD HILL ROAD, HUNTER, NY, 12442","Match","Exact","493 FORD HILL RD, HUNTER, NY, 12442",35679202,"L"
226690,"493 HEDGEWOOD DRIVE","ST. AUGUSTINE","FL",32092,29.985047853,-81.478352547,190,"493 HEDGEWOOD DRIVE, ST. AUGUSTINE, FL, 32092","Match","Exact","493 HEDGEWOOD DR, SAINT AUGUSTINE, FL, 32092",639490803,"L"
226691,"493 HULL ROAD","WATERFORD","PA",16441,41.9152749940001,-80.004961269,191,"493 HULL ROAD, WATERFORD, PA, 16441","Match","Exact","493 HULL RD, WATERFORD, PA, 16441",117519474,"L"
226692,"493 LESLIE DRIVE","PORT ORANGE","FL",32127,29.1107996270001,-80.9906398969999,192,"493 LESLIE DRIVE, PORT ORANGE, FL, 32127","Match","Exact","493 LESLIE DR, PORT ORANGE, FL, 32127",94529386,"R"
226693,"493 MAIN STREET","GROTON","MA",1450,42.6215106000001,-71.5869435819999,193,"493 MAIN STREET, GROTON, MA, 1450","Match","Exact","493 MAIN ST, GROTON, MA, 01450",86834081,"L"
226694,"493 MCDONALD AVE","BROOKLYN","NY",11218,40.6420625690001,-73.979293641,194,"493 MCDONALD AVE, BROOKLYN, NY, 11218","Match","Exact","493 MCDONALD AVE, BROOKLYN, NY, 11218",642653621,"L"
226695,"493 MONTICELLO PARK","CONROE","TX",77302,30.260258783,-95.4390616969999,195,"493 MONTICELLO PARK, CONROE, TX, 77302","Match","Exact","493 MONTICELLO PARK, CONROE, TX, 77302",79281530,"L"
226696,"493 MURPHY BAY DR","CROSS","SC",29436,33.379843038,-80.149195477,196,"493 MURPHY BAY DR, CROSS, SC, 29436","Match","Exact","493 MURPHY BAY DR, CROSS, SC, 29436",640712996,"R"
226697,"493 PELICAN LANE SOUTH","JUPITER","FL",33458,NA,NA,197,"493 PELICAN LANE SOUTH, JUPITER, FL, 33458","No_Match",NA,NA,NA,NA
226698,"493 POINTE BLVD","SHEPHERDSVILLE","KY",40165,38.01224482,-85.711564016,198,"493 POINTE BLVD, SHEPHERDSVILLE, KY, 40165","Match","Exact","493 POINTE BLVD, SHEPHERDSVILLE, KY, 40165",47744737,"L"
226699,"493 REBECCA DRIVE","PELHAM","GA",31779,31.1294421260001,-84.1389983619999,199,"493 REBECCA DRIVE, PELHAM, GA, 31779","Match","Non_Exact","493 REBECCA DR NE, PELHAM, GA, 31779",636128149,"L"
226700,"493 RUE SAINT FRANCOIS ST SUITE 1A","FLORISSANT","MO",63031,38.794015045,-90.328063102,200,"493 RUE SAINT FRANCOIS ST SUITE 1A, FLORISSANT, MO, 63031","Match","Exact","493 SAINT FRANCOIS ST, FLORISSANT, MO, 63031",100119644,"L"
226701,"493 SOMERVILLE AVENUE","SOMERVILLE","MA",2143,42.3828398430001,-71.1047440309999,201,"493 SOMERVILLE AVENUE, SOMERVILLE, MA, 2143","Match","Exact","493 SOMERVILLE AVE, SOMERVILLE, MA, 02143",86868628,"R"
226702,"493 STILLMAN AVENUE","BRIDGETON","NJ",8302,39.4746597110001,-75.1118902279999,202,"493 STILLMAN AVENUE, BRIDGETON, NJ, 8302","Match","Exact","493 STILLMAN AVE, BRIDGETON, NJ, 08302",642822078,"R"
226703,"493 STONE MOUNTAIN ST APT V1","LAWRENCEVILLE","GA",30046,33.9385562200001,-83.995814803,203,"493 STONE MOUNTAIN ST APT V1, LAWRENCEVILLE, GA, 30046","Match","Exact","493 STONE MOUNTAIN ST, LAWRENCEVILLE, GA, 30046",88932734,"R"
226704,"493 SUNBURST CT","GAITHERSBURG","MD",20877,39.1451138360001,-77.18684682,204,"493 SUNBURST CT, GAITHERSBURG, MD, 20877","Match","Exact","493 SUNBURST CT, GAITHERSBURG, MD, 20877",62077584,"R"
226705,"493-5 MONROE STREET","BROOKLYN","NY",11221,40.6870043280001,-73.937304223,205,"493-5 MONROE STREET, BROOKLYN, NY, 11221","Match","Exact","493 MONROE ST, BROOKLYN, NY, 11221",59079251,"L"
226706,"4930 AUCKLAND AVENUE","NORTH HOLLYWOOD","CA",91601,34.160719504,-118.360373234,206,"4930 AUCKLAND AVENUE, NORTH HOLLYWOOD, CA, 91601","Match","Exact","4930 AUCKLAND AVE, N HOLLYWOOD, CA, 91601",141592122,"R"
226707,"4930 BANTAM BROOK LN","HOUSTON","TX",77066,29.960294103,-95.491504208,207,"4930 BANTAM BROOK LN, HOUSTON, TX, 77066","Match","Exact","4930 BANTAM BROOK LN, HOUSTON, TX, 77066",96556312,"L"
226708,"4930 CARBONDALE DRIVE","COLUMBUS","OH",43232,39.9245783640001,-82.85984647,208,"4930 CARBONDALE DRIVE, COLUMBUS, OH, 43232","Match","Exact","4930 CARBONDALE DR, COLUMBUS, OH, 43232",135596825,"L"
226709,"4930 E SABAL PALM BLVD 101","TAMARAC","FL",33319,NA,NA,209,"4930 E SABAL PALM BLVD 101, TAMARAC, FL, 33319","Tie",NA,NA,NA,NA
226710,"4930 E STATE ROAD 201","BLUFFTON","IN",46714,40.7287567330001,-85.129619416,210,"4930 E STATE ROAD 201, BLUFFTON, IN, 46714","Match","Non_Exact","4930 E STATE RD 201, BLUFFTON, IN, 46714",6617265,"L"
226711,"4930 GARY ST","SAN DIEGO","CA",92115,32.7689551490001,-117.059701553,211,"4930 GARY ST, SAN DIEGO, CA, 92115","Match","Exact","4930 GARY ST, SAN DIEGO, CA, 92115",195663387,"L"
226712,"4930 HIGHWAY 95","MOUNTAIN GROVE","MO",65711,37.226719496,-92.2927804609999,212,"4930 HIGHWAY 95, MOUNTAIN GROVE, MO, 65711","Match","Non_Exact","4930 STATE HWY 95, MOUNTAIN GROVE, MO, 65711",26674408,"R"
226713,"4930 HWY 411","MADISONVILLE","TN",37354,35.505848665,-84.3786161579999,213,"4930 HWY 411, MADISONVILLE, TN, 37354","Match","Non_Exact","4930 US HWY 411, MADISONVILLE, TN, 37354",612103561,"R"
226714,"4930 MARY ST","GREENSBORO","NC",27409,36.0617367310001,-79.882249117,214,"4930 MARY ST, GREENSBORO, NC, 27409","Match","Exact","4930 MARY ST, GREENSBORO, NC, 27409",131026833,"R"
226715,"4930 MEADOWBROOK","CLARENCE","NY",14221,NA,NA,215,"4930 MEADOWBROOK, CLARENCE, NY, 14221","No_Match",NA,NA,NA,NA
226716,"4930 MORGANTOWN ROAD","LAKE LYNN","PA",15457,39.751534614,-79.883839618,216,"4930 MORGANTOWN ROAD, LAKE LYNN, PA, 15457","Match","Non_Exact","4930 MORGANTOWN RD, LAKE LYNN, PA, 15451",617708275,"L"
226717,"4930 NORTH 12TH STREET","PHILADELPHIA","PA",19141,40.027658672,-75.143352566,217,"4930 NORTH 12TH STREET, PHILADELPHIA, PA, 19141","Match","Exact","4930 N 12TH ST, PHILADELPHIA, PA, 19141",131417292,"L"
226718,"4930 NW 7TH AVE","MIAMI","FL",33127,25.8207323190001,-80.2079979169999,218,"4930 NW 7TH AVE, MIAMI, FL, 33127","Match","Non_Exact","4930 NW 7TH AVE, MIAMI, FL, 33127",116005629,"L"
226719,"4930 PISGAH R","CUMMING","GA",30028,34.2712624340001,-84.2287127019999,219,"4930 PISGAH R, CUMMING, GA, 30028","Match","Exact","4930 PISGAH RD, CUMMING, GA, 30028",70175959,"L"
226720,"4930 POPLAR GROVE DRIVE","CHARLOTTE","NC",28269,35.343471978,-80.8181707529999,220,"4930 POPLAR GROVE DRIVE, CHARLOTTE, NC, 28269","Match","Exact","4930 POPLAR GROVE DR, CHARLOTTE, NC, 28269",70523813,"L"
226721,"4930 S 124TH ST","OMAHA","NE",68137,41.2091905560001,-96.10617056,221,"4930 S 124TH ST, OMAHA, NE, 68137","Match","Exact","4930 S 124TH ST, OMAHA, NE, 68137",116971828,"R"
226722,"4930 S HUACHUCA PLACE","CHANDLER","AZ",85249,33.2345897270001,-111.779104783,222,"4930 S HUACHUCA PLACE, CHANDLER, AZ, 85249","Match","Exact","4930 S HUACHUCA PL, CHANDLER, AZ, 85249",641538736,"L"
226723,"4930 S INDIANA AVE  UNIT 4S","CHICAGO","IL",60615,41.805047254,-87.621106916,223,"4930 S INDIANA AVE  UNIT 4S, CHICAGO, IL, 60615","Match","Non_Exact","4930 S INDIANA AVE, CHICAGO, IL, 60615",111770646,"R"
226724,"4930 SUGAR GROVE BLVD APT 4706","STAFFORD","TX",77477,29.643431219,-95.5850236749999,224,"4930 SUGAR GROVE BLVD APT 4706, STAFFORD, TX, 77477","Match","Exact","4930 SUGAR GROVE BLVD, STAFFORD, TX, 77477",78294528,"L"
226725,"4930-32 N BROAD STREET","PHILADELPHIA","PA",19141,40.02815314,-75.147121136,225,"4930-32 N BROAD STREET, PHILADELPHIA, PA, 19141","Match","Exact","4930 N BROAD ST, PHILADELPHIA, PA, 19141",131417239,"L"
226726,"49300 ARKONA RD","BELLEVILLE","MI",48111,42.1003831790001,-83.519708991,226,"49300 ARKONA RD, BELLEVILLE, MI, 48111","Match","Exact","49300 ARKONA RD, BELLEVILLE, MI, 48111",636242976,"L"
226727,"4931 CENTER HILL CHURCH ROAD","LOGANVILLE","GA",30052,33.7689449210001,-83.885745806,227,"4931 CENTER HILL CHURCH ROAD, LOGANVILLE, GA, 30052","Match","Exact","4931 CENTER HILL CHURCH RD, LOGANVILLE, GA, 30052",77627067,"R"
226728,"4931 ESTERN ST","NEW ORLEANS","LA",70122,30.0093320410001,-90.04692914,228,"4931 ESTERN ST, NEW ORLEANS, LA, 70122","Match","Non_Exact","4931 EASTERN ST, NEW ORLEANS, LA, 70122",191704695,"R"
226729,"4931 ESTONIAN DR","FAIRBURN","GA",30213,NA,NA,229,"4931 ESTONIAN DR, FAIRBURN, GA, 30213","No_Match",NA,NA,NA,NA
226730,"4931 EVERGREEN HAVEN CT","HOUSTON","TX",77084,29.843443941,-95.6985754029999,230,"4931 EVERGREEN HAVEN CT, HOUSTON, TX, 77084","Match","Exact","4931 EVERGREEN HAVEN CT, HOUSTON, TX, 77084",645163930,"R"
226731,"4931 FOREST HURST DR","SPRING","TX",77373,30.0599282380001,-95.365476599,231,"4931 FOREST HURST DR, SPRING, TX, 77373","Match","Exact","4931 FOREST HURST DR, SPRING, TX, 77373",627728629,"R"
226732,"4931 HILLBROOK RD","MEMPHIS","TN",38109,35.013785308,-90.0606811009999,232,"4931 HILLBROOK RD, MEMPHIS, TN, 38109","Match","Non_Exact","4931 HILLBROOK ST, MEMPHIS, TN, 38109",72922250,"R"
226733,"4931 INDIANWOOD RD 458","CULVER CITY","CA",90230,34.0056238600001,-118.390435616,233,"4931 INDIANWOOD RD 458, CULVER CITY, CA, 90230","Match","Exact","4931 INDIANWOOD RD, CULVER CITY, CA, 90230",142720220,"L"
226734,"4931 JEFFERSON ST","HOLLYWOOD","FL",33021,26.0046075160001,-80.1928117159999,234,"4931 JEFFERSON ST, HOLLYWOOD, FL, 33021","Match","Exact","4931 JEFFERSON ST, HOLLYWOOD, FL, 33021",114732254,"R"
226735,"4931 KAREN ANN LN","IRVINE","CA",92604,33.6949813460001,-117.777211862,235,"4931 KAREN ANN LN, IRVINE, CA, 92604","Match","Exact","4931 KAREN ANN LN, IRVINE, CA, 92604",649276037,"L"
226736,"4931 LINDSEY DRIVE","BROOMFIELD","CO",80023,39.989645991,-105.048588278,236,"4931 LINDSEY DRIVE, BROOMFIELD, CO, 80023","Match","Exact","4931 LINDSEY DR, BROOMFIELD, CO, 80023",633629456,"L"
226737,"4931 N MUSCATEL AVE","SAN GABRIEL","CA",91776,34.0929336140001,-118.077611524,237,"4931 N MUSCATEL AVE, SAN GABRIEL, CA, 91776","Match","Exact","4931 N MUSCATEL AVE, SAN GABRIEL, CA, 91776",142739577,"L"
226738,"4931 NW 53RD AVE","COCONUT CREEK","FL",33073,26.2914197810001,-80.195188297,238,"4931 NW 53RD AVE, COCONUT CREEK, FL, 33073","Match","Exact","4931 NW 53RD AVE, COCONUT CREEK, FL, 33073",636367841,"R"
226739,"4931 S PRAIRIE AVE    UNIT 2","CHICAGO","IL",60615,41.8047433470001,-87.619463745,239,"4931 S PRAIRIE AVE    UNIT 2, CHICAGO, IL, 60615","Match","Non_Exact","4931 S PRAIRIE AVE, CHICAGO, IL, 60615",605539794,"L"
226740,"4931 TCHAIKOVSKY ST","ROCK CITY","IL",61070,42.373610877,-89.481114831,240,"4931 TCHAIKOVSKY ST, ROCK CITY, IL, 61070","Match","Exact","4931 TCHAIKOVSKY ST, ROCK CITY, IL, 61070",635593635,"R"
226741,"4931 VALLEYVIEW OVERLOOK","ELLICOT CITY","MD",21042,39.235339416,-76.907532136,241,"4931 VALLEYVIEW OVERLOOK, ELLICOT CITY, MD, 21042","Match","Non_Exact","4931 VALLEY VIEW OVERLOOK, ELLICOTT CITY, MD, 21042",619678749,"L"
226742,"4932 BEST ST","HAMBURG","NY",14075,42.7299276470001,-78.799876065,242,"4932 BEST ST, HAMBURG, NY, 14075","Match","Exact","4932 BEST ST, HAMBURG, NY, 14075",48310121,"L"
226743,"4932 CASCADE POOLS AVE","LAS VEGAS","NV",89131,36.3018404470001,-115.209366488,243,"4932 CASCADE POOLS AVE, LAS VEGAS, NV, 89131","Match","Exact","4932 CASCADE POOLS AVE, LAS VEGAS, NV, 89131",201999739,"L"
226744,"4932 CHILDRENS HOME BRADFORD ROAD","GREENVILLE","OH",45331,40.1360162930001,-84.6216131319999,244,"4932 CHILDRENS HOME BRADFORD ROAD, GREENVILLE, OH, 45331","Match","Exact","4932 CHILDRENS HOME BRADFORD RD, GREENVILLE, OH, 45331",651496781,"R"
226745,"4932 CR 45","ANGLETON","TX",77515,29.2533353000001,-95.386876768,245,"4932 CR 45, ANGLETON, TX, 77515","Match","Exact","4932 CO RD 45, ANGLETON, TX, 77515",651894262,"R"
226746,"4932 HAIGHT FARM ROAD","FITCHBURG","WI",53711,NA,NA,246,"4932 HAIGHT FARM ROAD, FITCHBURG, WI, 53711","No_Match",NA,NA,NA,NA
226747,"4932 N 27TH ST","MILWAUKEE","WI",53209,43.1070740650001,-87.946569873,247,"4932 N 27TH ST, MILWAUKEE, WI, 53209","Match","Exact","4932 N 27TH ST, MILWAUKEE, WI, 53209",77737579,"R"
226748,"4932 PAYSON WAY SE","ATLANTA","GA",30339,33.8346182710001,-84.480318631,248,"4932 PAYSON WAY SE, ATLANTA, GA, 30339","Match","Non_Exact","4932 PAYSON WAY, ATLANTA, GA, 30339",618317056,"R"
226749,"4932 POWERS FERRY RD NW","ATLANTA","GA",30327,33.8900006470001,-84.399600785,249,"4932 POWERS FERRY RD NW, ATLANTA, GA, 30327","Match","Exact","4932 POWERS FERRY RD NW, ATLANTA, GA, 30327",17416808,"L"
226750,"4932 STATE ROUTE 52","JEFFERSONVILLE","NY",12748,41.7773741070001,-74.9374822199999,250,"4932 STATE ROUTE 52, JEFFERSONVILLE, NY, 12748","Match","Exact","4932 STATE RTE 52, JEFFERSONVILLE, NY, 12748",128976944,"L"
226751,"4932 VENICE LAKE AVE","TAMPA","FL",33619,27.9352883560001,-82.403166996,251,"4932 VENICE LAKE AVE, TAMPA, FL, 33619","Match","Exact","4932 VENICE LAKE AVE, TAMPA, FL, 33619",625444603,"R"
226752,"4932 WEST SAN RAFAEL STREET","TAMPA","FL",33139,27.9263876150001,-82.527515674,252,"4932 WEST SAN RAFAEL STREET, TAMPA, FL, 33139","Match","Non_Exact","4932 W SAN RAFAEL ST, TAMPA, FL, 33629",104525238,"L"
226753,"4932 WILBARGAR ST","FORT WORTH","TX",76119,32.698913411,-97.249984468,253,"4932 WILBARGAR ST, FORT WORTH, TX, 76119","Match","Non_Exact","4932 WILBARGER ST, FORT WORTH, TX, 76119",101899427,"R"
226754,"49327 BOSCOE LN","TICKFAW","LA",70466,30.573666679,-90.4858460729999,254,"49327 BOSCOE LN, TICKFAW, LA, 70466","Match","Exact","49327 BOSCOE LN, TICKFAW, LA, 70466",75770792,"L"
226755,"4933 ALBERTA FALLS WAY","COLORADO SPRINGS","CO",80924,38.976893144,-104.735038098,255,"4933 ALBERTA FALLS WAY, COLORADO SPRINGS, CO, 80924","Match","Exact","4933 ALBERTA FALLS WAY, COLORADO SPRINGS, CO, 80924",635472102,"R"
226756,"4933 CEDAR SUMMIT RD","RICHMOND","VA",23223,NA,NA,256,"4933 CEDAR SUMMIT RD, RICHMOND, VA, 23223","No_Match",NA,NA,NA,NA
226757,"4933 FRISHMAN CT","WOODBRIDGE","VA",22193,38.6366855960001,-77.356689973,257,"4933 FRISHMAN CT, WOODBRIDGE, VA, 22193","Match","Exact","4933 FRISHMAN CT, WOODBRIDGE, VA, 22193",76523158,"L"
226758,"4933 HARVEST HILL RD","DALLAS","TX",75244,32.9222118380001,-96.824379286,258,"4933 HARVEST HILL RD, DALLAS, TX, 75244","Match","Exact","4933 HARVEST HILL RD, DALLAS, TX, 75244",640536187,"L"
226759,"4933 S DILLON ST","AURORA","CO",80015,39.627590884,-104.820246858,259,"4933 S DILLON ST, AURORA, CO, 80015","Match","Exact","4933 S DILLON ST, AURORA, CO, 80015",177359148,"R"
226760,"4933 S DORCHESTER AVE APT 3N","CHICAGO","IL",60615,41.8054014240001,-87.59189609,260,"4933 S DORCHESTER AVE APT 3N, CHICAGO, IL, 60615","Match","Non_Exact","4933 S DORCHESTER AVE, CHICAGO, IL, 60615",111771592,"L"
226761,"4933 S DORCHESTER AVE UNIT 3N","CHICAGO","IL",60615,41.8054014240001,-87.59189609,261,"4933 S DORCHESTER AVE UNIT 3N, CHICAGO, IL, 60615","Match","Non_Exact","4933 S DORCHESTER AVE, CHICAGO, IL, 60615",111771592,"L"
226762,"4933 S HERITAGE DR 202","GREENFIELD","WI",53220,NA,NA,262,"4933 S HERITAGE DR 202, GREENFIELD, WI, 53220","Tie",NA,NA,NA,NA
226763,"4933 S HERITAGE DR APT 202","GREENFIELD","WI",53220,NA,NA,263,"4933 S HERITAGE DR APT 202, GREENFIELD, WI, 53220","Tie",NA,NA,NA,NA
226764,"4933 SEABROOK COURT","WILMINGTON","NC",28403,34.2179866760001,-77.8781606919999,264,"4933 SEABROOK COURT, WILMINGTON, NC, 28403","Match","Exact","4933 SEABROOK CT, WILMINGTON, NC, 28403",152733906,"L"
226765,"4933 STRASS DRIVE","AUSTIN","TX",78731,30.324125488,-97.7465763719999,265,"4933 STRASS DRIVE, AUSTIN, TX, 78731","Match","Exact","4933 STRASS DR, AUSTIN, TX, 78731",63929491,"R"
226766,"4934 ASHBROOK","DALLAS","TX",75227,32.785573507,-96.709817103,266,"4934 ASHBROOK, DALLAS, TX, 75227","Match","Non_Exact","4934 ASHBROOK RD, DALLAS, TX, 75227",102924151,"R"
226767,"4934 BENTBROOK DRIVE","MANLIUS","NY",13104,43.0054261390001,-75.953387199,267,"4934 BENTBROOK DRIVE, MANLIUS, NY, 13104","Match","Exact","4934 BENTBROOK DR, MANLIUS, NY, 13104",46587696,"R"
226768,"4934 BROWNSBORO ROAD","LOUISVILLE","KY",40222,NA,NA,268,"4934 BROWNSBORO ROAD, LOUISVILLE, KY, 40222","No_Match",NA,NA,NA,NA
226769,"4934 FORD ST SUITE 201","SPEEDWAY","IN",46224,39.781001089,-86.242146664,269,"4934 FORD ST SUITE 201, SPEEDWAY, IN, 46224","Match","Exact","4934 FORD ST, SPEEDWAY, IN, 46224",107980151,"R"
226770,"4934 HARVEST ROAD","COLORADO SPRINGS","CO",80917,38.901884292,-104.736304529,270,"4934 HARVEST ROAD, COLORADO SPRINGS, CO, 80917","Match","Exact","4934 HARVEST RD, COLORADO SPRINGS, CO, 80917",610705733,"L"
226771,"4934 MONTAUK DR","PLAINFIELD","IL",60586,41.5436351180001,-88.203379967,271,"4934 MONTAUK DR, PLAINFIELD, IL, 60586","Match","Exact","4934 MONTAUK DR, PLAINFIELD, IL, 60586",111640143,"R"
226772,"4934 N TRENTON ST","PORTLAND","OR",97203,45.588686474,-122.717613854,272,"4934 N TRENTON ST, PORTLAND, OR, 97203","Match","Exact","4934 N TRENTON ST, PORTLAND, OR, 97203",627824540,"L"
226773,"4934 PATHWAY CT","FAIR OAKS","CA",95628,38.6560210060001,-121.268397021,273,"4934 PATHWAY CT, FAIR OAKS, CA, 95628","Match","Exact","4934 PATHWAY CT, FAIR OAKS, CA, 95628",133345574,"L"
226774,"4934 RIVER ROAD 1","WASHINGTON","NC",27889,35.506690485,-76.9944687559999,274,"4934 RIVER ROAD 1, WASHINGTON, NC, 27889","Match","Exact","4934 RIVER RD, WASHINGTON, NC, 27889",67943639,"L"
226775,"4934 RUSTY NAIL PT","COLORADO SPRINGS","CO",80916,38.789434725,-104.735527004,275,"4934 RUSTY NAIL PT, COLORADO SPRINGS, CO, 80916","Match","Exact","4934 RUSTY NAIL PT, COLORADO SPRINGS, CO, 80916",610746038,"L"
226776,"4934 S CORNELL AVENUE UNIT A","CHICAGO","IL",60615,41.8049228570001,-87.586498976,276,"4934 S CORNELL AVENUE UNIT A, CHICAGO, IL, 60615","Match","Non_Exact","4934 S CORNELL AVE, CHICAGO, IL, 60615",624577290,"R"
226777,"4934 TOWNSHIP ROAD 126","CARDINGTON","OH",43315,NA,NA,277,"4934 TOWNSHIP ROAD 126, CARDINGTON, OH, 43315","No_Match",NA,NA,NA,NA
226778,"4934 W IOWA ST","CHICAGO","IL",60651,41.896814019,-87.7492228039999,278,"4934 W IOWA ST, CHICAGO, IL, 60651","Match","Exact","4934 W IOWA ST, CHICAGO, IL, 60651",111758079,"R"
226779,"4934 WOODSTONE DRIVE","SAN ANTONIO","TX",78230,29.552937408,-98.579739574,279,"4934 WOODSTONE DRIVE, SAN ANTONIO, TX, 78230","Match","Exact","4934 WOODSTONE DR, SAN ANTONIO, TX, 78230",641654882,"R"
226780,"4935 1/2 HAYTER AVE","LAKEWOOD","CA",90712,33.8480198770001,-118.146092482,280,"4935 1/2 HAYTER AVE, LAKEWOOD, CA, 90712","Match","Exact","4935 HAYTER AVE, LAKEWOOD, CA, 90712",241245095,"L"
226781,"4935 ALBEMARLE ROAD","CHARLOTTE","NC",28205,35.200465471,-80.7642344399999,281,"4935 ALBEMARLE ROAD, CHARLOTTE, NC, 28205","Match","Exact","4935 ALBEMARLE RD, CHARLOTTE, NC, 28205",70492163,"L"
226782,"4935 CHATSWORTH LANE","SUWANEE","GA",30024,34.089270088,-84.147929822,282,"4935 CHATSWORTH LANE, SUWANEE, GA, 30024","Match","Exact","4935 CHATSWORTH LN, SUWANEE, GA, 30024",70188123,"L"
226783,"4935 E IOWA","FRESNO","CA",93727,36.7440916250001,-119.730287828,283,"4935 E IOWA, FRESNO, CA, 93727","Match","Non_Exact","4935 E IOWA AVE, FRESNO, CA, 93727",197612527,"L"
226784,"4935 ELM ST","EVERETT","WA",98203,47.9528670760001,-122.232824981,284,"4935 ELM ST, EVERETT, WA, 98203","Match","Exact","4935 ELM ST, EVERETT, WA, 98203",187743974,"L"
226785,"4935 HAMILTON DRIVE","HARRISBURG","PA",17109,40.3000494030001,-76.804538764,285,"4935 HAMILTON DRIVE, HARRISBURG, PA, 17109","Match","Exact","4935 HAMILTON DR, HARRISBURG, PA, 17109",70847328,"R"
226786,"4935 HIGHWAY T APARTMENT D","PERRYVILLE","MO",63775,37.760560927,-89.8035809309999,286,"4935 HIGHWAY T APARTMENT D, PERRYVILLE, MO, 63775","Match","Non_Exact","4935 HIGHWAY E, PERRYVILLE, MO, 63775",604707390,"R"
226787,"4935 MANOR DR SW","STONE MOUNTAIN","GA",30087,33.804357999,-84.085553746,287,"4935 MANOR DR SW, STONE MOUNTAIN, GA, 30087","Match","Exact","4935 MANOR DR SW, STONE MOUNTAIN, GA, 30087",88888250,"L"
226788,"4935 N 73RD STREET","MILWAUKEE","WI",53218,43.1074648840001,-88.003293481,288,"4935 N 73RD STREET, MILWAUKEE, WI, 53218","Match","Exact","4935 N 73RD ST, MILWAUKEE, WI, 53218",77730189,"L"
226789,"4935 NORTH 11TH STREET","PHILADELPHIA","PA",19141,40.027507305,-75.1417490059999,289,"4935 NORTH 11TH STREET, PHILADELPHIA, PA, 19141","Match","Exact","4935 N 11TH ST, PHILADELPHIA, PA, 19141",131417383,"R"
226790,"4935 NW 94TH TER","SUNRISE","FL",33351,26.1861605130001,-80.276231733,290,"4935 NW 94TH TER, SUNRISE, FL, 33351","Match","Exact","4935 NW 94TH TER, SUNRISE, FL, 33351",114701858,"L"
226791,"4935 PIPER GLEN DR","CHARLOTTE","NC",28277,35.067285817,-80.811393946,291,"4935 PIPER GLEN DR, CHARLOTTE, NC, 28277","Match","Exact","4935 PIPER GLEN DR, CHARLOTTE, NC, 28277",70517780,"R"
226792,"4935 RIDGEVIEW DR","ANTIOCH","CA",94531,37.9648877450001,-121.761445933,292,"4935 RIDGEVIEW DR, ANTIOCH, CA, 94531","Match","Exact","4935 RIDGEVIEW DR, ANTIOCH, CA, 94531",192085133,"L"
226793,"4935 S PRAIRIE AVE","CHICAGO","IL",60615,41.8046952560001,-87.6194624089999,293,"4935 S PRAIRIE AVE, CHICAGO, IL, 60615","Match","Exact","4935 S PRAIRIE AVE, CHICAGO, IL, 60615",605539794,"L"
226794,"4935 SCHAUB AVE","BALTIMORE","MD",21206,39.322593484,-76.539900293,294,"4935 SCHAUB AVE, BALTIMORE, MD, 21206","Match","Exact","4935 SCHAUB AVE, BALTIMORE, MD, 21206",206466223,"R"
226795,"4935 SEDGWICK ROAD SE","PORT ORCHARD","WA",98366,NA,NA,295,"4935 SEDGWICK ROAD SE, PORT ORCHARD, WA, 98366","No_Match",NA,NA,NA,NA
226796,"4935 STEPTOE STREET UNIT 300","LAS VEGAS","NV",89122,36.09999758,-115.039083358,296,"4935 STEPTOE STREET UNIT 300, LAS VEGAS, NV, 89122","Match","Exact","4935 STEPTOE ST, LAS VEGAS, NV, 89122",201880130,"R"
226797,"4935 W 120TH ST APT 10","HAWTHORNE","CA",90250,33.9236738210001,-118.364131405,297,"4935 W 120TH ST APT 10, HAWTHORNE, CA, 90250","Match","Non_Exact","4935 W 120TH ST, HAWTHORNE, CA, 90250",141655926,"R"
226798,"4935 WICKS DRIVE APT A","INDIANAPOLIS","IN",46241,39.717442814,-86.246259062,298,"4935 WICKS DRIVE APT A, INDIANAPOLIS, IN, 46241","Match","Exact","4935 WICKS DR, INDIANAPOLIS, IN, 46241",638743588,"R"
226799,"4936 47TH STREET 205","FARGO","ND",58104,NA,NA,299,"4936 47TH STREET 205, FARGO, ND, 58104","Tie",NA,NA,NA,NA
226800,"4936 ATLANTA ST","ANDERSON","IN",46013,40.064002391,-85.659592652,300,"4936 ATLANTA ST, ANDERSON, IN, 46013","Match","Exact","4936 ATLANTA ST, ANDERSON, IN, 46013",31123186,"L"
226801,"4936 CRICKLEWOOD LN","CHARLOTTE","NC",28212,35.216930232,-80.7416737199999,301,"4936 CRICKLEWOOD LN, CHARLOTTE, NC, 28212","Match","Exact","4936 CRICKLEWOOD LN, CHARLOTTE, NC, 28212",70508401,"L"
226802,"4936 CYPRESS DRIVE","HILLSIDE","IL",60162,41.8839801340001,-87.906491761,302,"4936 CYPRESS DRIVE, HILLSIDE, IL, 60162","Match","Exact","4936 CYPRESS DR, HILLSIDE, IL, 60162",111726470,"L"
226803,"4936 E 20TH AVE","APACHE JUNCTION","AZ",85119,33.396982614,-111.492998003,303,"4936 E 20TH AVE, APACHE JUNCTION, AZ, 85119","Match","Exact","4936 E 20TH AVE, APACHE JUNCTION, AZ, 85119",129312272,"L"
226804,"4936 GREENBRIAR CIRCLE","OLD HICKORY","TN",37138,36.2343723330001,-86.579812977,304,"4936 GREENBRIAR CIRCLE, OLD HICKORY, TN, 37138","Match","Exact","4936 GREENBRIAR CIR, OLD HICKORY, TN, 37138",607057620,"R"
226805,"4936 GREENGATE DRIVE","GROVEPORT","OH",43125,39.8250633980001,-82.861750958,305,"4936 GREENGATE DRIVE, GROVEPORT, OH, 43125","Match","Exact","4936 GREENGATE DR, GROVEPORT, OH, 43125",218638479,"L"
226806,"4936 HAMILTON","CHARLOTTE","NC",28216,35.3033435,-80.853499004,306,"4936 HAMILTON, CHARLOTTE, NC, 28216","Match","Non_Exact","4936 HAMILTON CIR, CHARLOTTE, NC, 28216",70475969,"R"
226807,"4936 NOTTING GLEN LANE","SNELLVILLE","GA",30039,33.7707847790001,-84.0063111439999,307,"4936 NOTTING GLEN LANE, SNELLVILLE, GA, 30039","Match","Exact","4936 NOTTING GLEN LN, SNELLVILLE, GA, 30039",637665952,"L"
226808,"4936 SOUTH VINCENNES AVENUE","CHICAGO","ID",60615,NA,NA,308,"4936 SOUTH VINCENNES AVENUE, CHICAGO, ID, 60615","No_Match",NA,NA,NA,NA
226809,"4936 TIBBITT LANE","BURKE","VA",22015,38.8145244670001,-77.270448884,309,"4936 TIBBITT LANE, BURKE, VA, 22015","Match","Exact","4936 TIBBITT LN, BURKE, VA, 22015",635445323,"L"
226810,"4936 W CONGRESS PKWY","CHICAGO","IL",60644,41.87404014,-87.747925572,310,"4936 W CONGRESS PKWY, CHICAGO, IL, 60644","Match","Exact","4936 W CONGRESS PKWY, CHICAGO, IL, 60644",605043064,"R"
226811,"4937 78 TH AVE","HYATTSVILLE","MD",20784,38.948729841,-76.8752694579999,311,"4937 78 TH AVE, HYATTSVILLE, MD, 20784","Match","Non_Exact","4937 78TH AVE, HYATTSVILLE, MD, 20784",76309575,"R"
226812,"4937 CRYSTAL CIRCLE","HOOVER","AL",37772,33.3681130190001,-86.858861887,312,"4937 CRYSTAL CIRCLE, HOOVER, AL, 37772","Match","Non_Exact","4937 CRYSTAL CIR, HOOVER, AL, 35226",625331073,"L"
226813,"4937 ELLIOT AVE","MINNEAPOLIS","MN",55417,44.913275936,-93.261340672,313,"4937 ELLIOT AVE, MINNEAPOLIS, MN, 55417","Match","Non_Exact","4937 ELLIOT AVE S, MINNEAPOLIS, MN, 55417",43835946,"L"
226814,"4937 EONO WAY APT A","EWA BEACH","HI",96706,21.3222287790001,-157.982736604,314,"4937 EONO WAY APT A, EWA BEACH, HI, 96706","Match","Exact","4937 EONO WAY, EWA BEACH, HI, 96706",203229980,"R"
226815,"4937 LEDGE AVE","NORTH HOLLYWOOD","CA",91601,34.1601799100001,-118.357152038,315,"4937 LEDGE AVE, NORTH HOLLYWOOD, CA, 91601","Match","Exact","4937 LEDGE AVE, N HOLLYWOOD, CA, 91601",141592137,"L"
226816,"4937 LOWNDES","ST LOUIS","MO",63129,38.488913284,-90.334410195,316,"4937 LOWNDES, ST LOUIS, MO, 63129","Match","Non_Exact","4937 LOWNDES DR, SAINT LOUIS, MO, 63129",604544834,"L"
226817,"4937 MARLIN WAY","OXNARD","CA",93035,34.1867670090001,-119.23753858,317,"4937 MARLIN WAY, OXNARD, CA, 93035","Match","Exact","4937 MARLIN WAY, OXNARD, CA, 93035",110115513,"R"
226818,"4937 NORTH LIONS GATE COVE","MEMPHIS","TN",38116,35.0140709080001,-90.021985837,318,"4937 NORTH LIONS GATE COVE, MEMPHIS, TN, 38116","Match","Exact","4937 N LIONS GATE COVE, MEMPHIS, TN, 38116",72922646,"R"
226819,"4937 S MURRAY BLVD X-4","MURRAY","UT",84123,40.664175501,-111.90573051,319,"4937 S MURRAY BLVD X-4, MURRAY, UT, 84123","Match","Exact","4937 MURRAY BLVD, MURRAY, UT, 84123",611642283,"R"
226820,"4937 W BROAD ST","COLUMBUS","OH",43228,39.95206648,-83.1327321919999,320,"4937 W BROAD ST, COLUMBUS, OH, 43228","Match","Exact","4937 W BROAD ST, COLUMBUS, OH, 43228",218648310,"L"
226821,"4937 W ERIE APT 2","CHICAGO","IL",60644,NA,NA,321,"4937 W ERIE APT 2, CHICAGO, IL, 60644","No_Match",NA,NA,NA,NA
226822,"49375 WEST 10 MILE ROAD","NOVI","MI",48374,42.464763411,-83.534346747,322,"49375 WEST 10 MILE ROAD, NOVI, MI, 48374","Match","Exact","49375 W 10 MILE RD, NOVI, MI, 48374",647514099,"L"
226823,"49378 790TH STREET","JACKSON","MN",56143,43.632740159,-95.087742794,323,"49378 790TH STREET, JACKSON, MN, 56143","Match","Exact","49378 790TH ST, JACKSON, MN, 56143",611709922,"R"
226824,"4938 BRAMHOPE LANE","ELLICOTT CITY","MD",21043,39.235121656,-76.812291896,324,"4938 BRAMHOPE LANE, ELLICOTT CITY, MD, 21043","Match","Exact","4938 BRAMHOPE LN, ELLICOTT CITY, MD, 21043",158934200,"R"
226825,"4938 CLOVERLEAF LANE","LOCKPORT","NY",14094,43.1023621140001,-78.771343293,325,"4938 CLOVERLEAF LANE, LOCKPORT, NY, 14094","Match","Exact","4938 CLOVERLEAF LN, LOCKPORT, NY, 14094",624380681,"R"
226826,"4938 DERBY PLACE","NEWARK","CA",94560,37.553793845,-122.02959137,326,"4938 DERBY PLACE, NEWARK, CA, 94560","Match","Exact","4938 DERBY PL, NEWARK, CA, 94560",606413349,"L"
226827,"4938 EL MONTE AVE","TEMPLE CITY","CA",91780,34.0951468380001,-118.035888918,327,"4938 EL MONTE AVE, TEMPLE CITY, CA, 91780","Match","Exact","4938 EL MONTE AVE, TEMPLE CITY, CA, 91780",647496489,"R"
226828,"4938 FAIR OAK DALE LANE","HUMBLE","TX",77346,29.976603918,-95.198738063,328,"4938 FAIR OAK DALE LANE, HUMBLE, TX, 77346","Match","Exact","4938 FAIR OAK DALE LN, HUMBLE, TX, 77346",635006865,"R"
226829,"4938 FIELDSTONE TRAIL","INDIANAPOLIS","IN",46254,39.842335582,-86.292271526,329,"4938 FIELDSTONE TRAIL, INDIANAPOLIS, IN, 46254","Match","Non_Exact","4938 FIELDSTONE TRCE, INDIANAPOLIS, IN, 46254",108034720,"L"
226830,"4938 HAMPDEN LANE SUITE 201","BETHESDA","MD",20814,38.9826795590001,-77.0970831769999,330,"4938 HAMPDEN LANE SUITE 201, BETHESDA, MD, 20814","Match","Exact","4938 HAMPDEN LN, BETHESDA, MD, 20814",62085167,"L"
226831,"4938 LA RUE ST","DALLAS","TX",75211,32.713761499,-96.906062757,331,"4938 LA RUE ST, DALLAS, TX, 75211","Match","Exact","4938 LA RUE ST, DALLAS, TX, 75211",103193056,"L"
226832,"4938 SW VACUNA ST","PORTLAND","OR",97219,45.441806403,-122.727548684,332,"4938 SW VACUNA ST, PORTLAND, OR, 97219","Match","Exact","4938 SW VACUNA ST, PORTLAND, OR, 97219",157550865,"L"
226833,"4938 WEST CHICAGO AVENUE","CHICAGO","IL",60651,41.894982208,-87.749247571,333,"4938 WEST CHICAGO AVENUE, CHICAGO, IL, 60651","Match","Exact","4938 W CHICAGO AVE, CHICAGO, IL, 60651",111758084,"R"
226834,"4939 CEDAR AVENUE","PHILADELPHIA","PA",19143,39.9498357580001,-75.221735899,334,"4939 CEDAR AVENUE, PHILADELPHIA, PA, 19143","Match","Exact","4939 CEDAR AVE, PHILADELPHIA, PA, 19143",131399694,"R"
226835,"4939 DESI RD NW","ROANOKE","VA",24017,37.2867986910001,-80.018276095,335,"4939 DESI RD NW, ROANOKE, VA, 24017","Match","Exact","4939 DESI RD NW, ROANOKE, VA, 24017",62902412,"R"
226836,"4939 FOREST HURST DR","SPRING","TX",77373,30.059985592,-95.3653680099999,336,"4939 FOREST HURST DR, SPRING, TX, 77373","Match","Exact","4939 FOREST HURST DR, SPRING, TX, 77373",627728629,"R"
226837,"4939 PLEASANT GROVE DRIVE","WILMINGTON","NC",28412,34.149972658,-77.8953120259999,337,"4939 PLEASANT GROVE DRIVE, WILMINGTON, NC, 28412","Match","Exact","4939 PLEASANT GROVE DR, WILMINGTON, NC, 28412",634102894,"R"
226838,"4939 REEDY BROOK LN","COLUMBIA","MD",21044,39.2348195750001,-76.859983329,338,"4939 REEDY BROOK LN, COLUMBIA, MD, 21044","Match","Exact","4939 REEDY BROOK LN, COLUMBIA, MD, 21044",158922908,"L"
226839,"4939 S DORCHESTER 2B","CHICAGO","IL",60615,NA,NA,339,"4939 S DORCHESTER 2B, CHICAGO, IL, 60615","No_Match",NA,NA,NA,NA
226840,"4939 W RAY ROAD SUITE 4 334","CHANDLER","AZ",85226,33.319995325,-111.927470276,340,"4939 W RAY ROAD SUITE 4 334, CHANDLER, AZ, 85226","Match","Non_Exact","4939 W RAY RD, CHANDLER, AZ, 85226",243919575,"L"
226841,"4939 ZOYA COURT SW","ATLANTA","GA",30331,33.665259904,-84.5489943279999,341,"4939 ZOYA COURT SW, ATLANTA, GA, 30331","Match","Non_Exact","4939 ZOYA CT, ATLANTA, GA, 30331",624704058,"L"
226842,"493A SHELLBANK DRIVE","LONGS","SC",29568,33.8991781720001,-78.678509751,342,"493A SHELLBANK DRIVE, LONGS, SC, 29568","Match","Exact","493 SHELLBANK DR, LONGS, SC, 29568",607419598,"L"
226843,"494 ADAMS DRIVE","LONDONDERRY","VT",5148,43.2169551790001,-72.797364143,343,"494 ADAMS DRIVE, LONDONDERRY, VT, 5148","Match","Exact","494 ADAMS DR, LONDONDERRY, VT, 05148",171093343,"R"
226844,"494 ANGEL ROAD","BEREA","KY",40403,37.577062986,-84.326007762,344,"494 ANGEL ROAD, BEREA, KY, 40403","Match","Exact","494 ANGEL RD, BEREA, KY, 40403",31995827,"R"
226845,"494 BELL ROAD","CHRISTIANA","PA",17509,39.8612486760001,-76.026336827,345,"494 BELL ROAD, CHRISTIANA, PA, 17509","Match","Exact","494 BELL RD, CHRISTIANA, PA, 17509",179688394,"R"
226846,"494 BRIDGEPORT AVE/ SUITE 101/ 113","SHELTON","CT",6484,41.2847003420001,-73.1155152169999,346,"494 BRIDGEPORT AVE/ SUITE 101/ 113, SHELTON, CT, 6484","Match","Non_Exact","494 BRIDGEPORT AVE, SHELTON, CT, 06484",635728002,"L"
226847,"494 BRIDGEPORT AVENUE","SHELTON","CT",6484,41.2847003420001,-73.1155152169999,347,"494 BRIDGEPORT AVENUE, SHELTON, CT, 6484","Match","Exact","494 BRIDGEPORT AVE, SHELTON, CT, 06484",635728002,"L"
226848,"494 BROAD STREET 6TH FLOOR","NEWARK","NJ",7102,40.745517347,-74.170051363,348,"494 BROAD STREET 6TH FLOOR, NEWARK, NJ, 7102","Match","Exact","494 BROAD ST, NEWARK, NJ, 07102",63477781,"L"
226849,"494 CARIBBEAN DR","CORPUS CHRISTI","TX",78418,27.634811841,-97.298294654,349,"494 CARIBBEAN DR, CORPUS CHRISTI, TX, 78418","Match","Exact","494 CARIBBEAN DR, CORPUS CHRISTI, TX, 78418",178523619,"R"
226850,"494 CHERRY ST","FRANKLIN LAKES","NJ",7417,41.0190900590001,-74.20197991,350,"494 CHERRY ST, FRANKLIN LAKES, NJ, 7417","Match","Exact","494 CHERRY ST, FRANKLIN LAKES, NJ, 07417",64401402,"L"
226851,"494 CLOVER STREET","ATHENS","GA",30606,33.9560131490001,-83.4107769779999,351,"494 CLOVER STREET, ATHENS, GA, 30606","Match","Exact","494 CLOVER ST, ATHENS, GA, 30606",4801216,"R"
226852,"494 DELAFORD CT","CANTON","MI",48188,42.2989190480001,-83.5103146279999,352,"494 DELAFORD CT, CANTON, MI, 48188","Match","Exact","494 DELAFORD CT, CANTON, MI, 48188",95688553,"L"
226853,"494 E WILDE CHERRY WAY","SANDY","UT",84070,40.547613654,-111.876846125,353,"494 E WILDE CHERRY WAY, SANDY, UT, 84070","Match","Exact","494 WILDE CHERRY WAY, SANDY, UT, 84070",176132689,"R"
226854,"494 EAST WILDE CHERRY WAY","SANDY","UT",84070,40.547613654,-111.876846125,354,"494 EAST WILDE CHERRY WAY, SANDY, UT, 84070","Match","Non_Exact","494 WILDE CHERRY WAY, SANDY, UT, 84070",176132689,"R"
226855,"494 GEORGIA AVENUE APT 3N","BROOKLYN","NY",11207,40.664261502,-73.895872787,355,"494 GEORGIA AVENUE APT 3N, BROOKLYN, NY, 11207","Match","Exact","494 GEORGIA AVE, BROOKLYN, NY, 11207",59084881,"R"
226856,"494 LISTOWE DRIVE","FOLSOM","CA",95630,38.6568762680001,-121.11348415,356,"494 LISTOWE DRIVE, FOLSOM, CA, 95630","Match","Exact","494 LISTOWE DR, FOLSOM, CA, 95630",133426654,"R"
226857,"494 MARSH POINTE DR","COLUMBIA","SC",29229,34.1729507260001,-80.8778972269999,357,"494 MARSH POINTE DR, COLUMBIA, SC, 29229","Match","Exact","494 MARSH POINTE DR, COLUMBIA, SC, 29229",633744568,"R"
226858,"494 N MANATEE AVE","ARCADIA","FL",34266,NA,NA,358,"494 N MANATEE AVE, ARCADIA, FL, 34266","No_Match",NA,NA,NA,NA
226859,"494 N PICKETT ST","ALEXANDRIA","VA",22304,38.818116757,-77.117591175,359,"494 N PICKETT ST, ALEXANDRIA, VA, 22304","Match","Exact","494 N PICKETT ST, ALEXANDRIA, VA, 22304",75982953,"L"
226860,"494 N SHERIDAN BLVD","LAKEWOOD","CO",80226,39.7239477000001,-105.053251781,360,"494 N SHERIDAN BLVD, LAKEWOOD, CO, 80226","Match","Exact","494 SHERIDAN BLVD, LAKEWOOD, CO, 80226",177629500,"R"
226861,"494 OFFICER CIRCLE E","WARNER ROBINS","GA",31098,NA,NA,361,"494 OFFICER CIRCLE E, WARNER ROBINS, GA, 31098","No_Match",NA,NA,NA,NA
226862,"494 ROCKFISH SCHOOL LANE","AFTON","VA",22920,37.9220355890001,-78.847637467,362,"494 ROCKFISH SCHOOL LANE, AFTON, VA, 22920","Match","Exact","494 ROCKFISH SCHOOL LN, AFTON, VA, 22920",98907635,"L"
226863,"494 ROUTE 422E","BUTLER","PA",16002,40.861851169,-79.850564715,363,"494 ROUTE 422E, BUTLER, PA, 16002","Match","Non_Exact","494 RTE 422, BUTLER, PA, 16002",607352348,"R"
226864,"494 ROUTE 94","NEWTON","NJ",7860,41.0242469190001,-74.827405327,364,"494 ROUTE 94, NEWTON, NJ, 7860","Match","Non_Exact","494 STATE RTE 94, NEWTON, NJ, 07860",97998774,"L"
226865,"494 S EMERSON STE H4 PO BOX 376","GREENWOOD","IN",46143,NA,NA,365,"494 S EMERSON STE H4 PO BOX 376, GREENWOOD, IN, 46143","No_Match",NA,NA,NA,NA
226866,"494 WADDY ROAD","WADDY","KY",40076,38.1725750570001,-85.0693795289999,366,"494 WADDY ROAD, WADDY, KY, 40076","Match","Exact","494 WADDY RD, WADDY, KY, 40076",97077615,"R"
226867,"494 WESTERN AVE LYNN MA 01904","LYNN","MA",1904,42.4693453,-70.9573977589999,367,"494 WESTERN AVE LYNN MA 01904, LYNN, MA, 1904","Match","Exact","494 WESTERN AVE, LYNN, MA, 01904",642520799,"L"
226868,"494 WHITON ROAD","BRANCHBURG","NJ",8853,40.545032754,-74.7294065629999,368,"494 WHITON ROAD, BRANCHBURG, NJ, 8853","Match","Exact","494 WHITON RD, BRANCHBURG, NJ, 08853",59957090,"L"
226869,"494","LITCHFIELD PARK","AZ",85340,NA,NA,369,"494, LITCHFIELD PARK, AZ, 85340","No_Match",NA,NA,NA,NA
226870,"4940 185TH CT","COUNTRY CLUB HILLS","IL",60478,41.552799646,-87.736181027,370,"4940 185TH CT, COUNTRY CLUB HILLS, IL, 60478","Match","Exact","4940 185TH CT, COUNTRY CLUB HILLS, IL, 60478",112202246,"R"
226871,"4940 EAST END AVE 2F","CHICAGO","IL",60615,41.8052487730001,-87.5858386359999,371,"4940 EAST END AVE 2F, CHICAGO, IL, 60615","Match","Exact","4940 E END AVE, CHICAGO, IL, 60615",111771605,"R"
226872,"4940 EAST EVANS AVENUE SUITE 150","DENVER","CO",80222,39.6784612600001,-104.929836363,372,"4940 EAST EVANS AVENUE SUITE 150, DENVER, CO, 80222","Match","Exact","4940 E EVANS AVE, DENVER, CO, 80222",647266503,"R"
226873,"4940 EMERSON STREET SUITE 107","JACKSONVILLE","FL",32207,30.2917259160001,-81.614618747,373,"4940 EMERSON STREET SUITE 107, JACKSONVILLE, FL, 32207","Match","Exact","4940 EMERSON ST, JACKSONVILLE, FL, 32207",615514833,"R"
226874,"4940 FRANKLIN AVE","DES MOINES","IA",50310,41.6112477070001,-93.6843001139999,374,"4940 FRANKLIN AVE, DES MOINES, IA, 50310","Match","Exact","4940 FRANKLIN AVE, DES MOINES, IA, 50310",65779631,"L"
226875,"4940 HALWELL DRIVE","VIRGINIA BEACH","VA",23464,36.7922867830001,-76.155226716,375,"4940 HALWELL DRIVE, VIRGINIA BEACH, VA, 23464","Match","Exact","4940 HALWELL DR, VA BCH, VA, 23464",122265139,"R"
226876,"4940 HOFFNER AVENUE","ORLANDO","FL",32812,28.480555011,-81.322287177,376,"4940 HOFFNER AVENUE, ORLANDO, FL, 32812","Match","Exact","4940 HOFFNER AVE, ORLANDO, FL, 32812",640392881,"R"
226877,"4940 HONE LOCUST DR","PAHRUMP","NV",89061,36.1212344690001,-115.925109112,377,"4940 HONE LOCUST DR, PAHRUMP, NV, 89061","Match","Non_Exact","4940 HONEY LOCUST DR, PAHRUMP, NV, 89061",627264398,"L"
226878,"4940 HYDEPARK DR","AGOURA HILLS","CA",91301,34.1381459,-118.73255735,378,"4940 HYDEPARK DR, AGOURA HILLS, CA, 91301","Match","Exact","4940 HYDEPARK DR, AGOURA HILLS, CA, 91301",648525739,"L"
226879,"4940 IRVINE BLVD SUITE 2015","IRVINE","CA",92620,NA,NA,379,"4940 IRVINE BLVD SUITE 2015, IRVINE, CA, 92620","No_Match",NA,NA,NA,NA
226880,"4940 MCKINNEY","HOUSTON","TX",77023,29.738639069,-95.326310593,380,"4940 MCKINNEY, HOUSTON, TX, 77023","Match","Non_Exact","4940 MCKINNEY ST, HOUSTON, TX, 77023",96081726,"R"
226881,"4940 MERRICK RD 222","MASSAPEUA PARK","NY",11762,40.6664644030001,-73.452998475,381,"4940 MERRICK RD 222, MASSAPEUA PARK, NY, 11762","Match","Non_Exact","4940 MERRICK RD, MASSAPEQUA PARK, NY, 11762",147652204,"R"
226882,"4940 MERRICK ROAD 118","MASSAPEQUA","NY",11762,40.6664644030001,-73.452998475,382,"4940 MERRICK ROAD 118, MASSAPEQUA, NY, 11762","Match","Non_Exact","4940 MERRICK RD, MASSAPEQUA PK, NY, 11762",147652204,"R"
226883,"4940 MERRICK ROAD 185","MASSAPEQUA PARK","NY",11762,40.6664644030001,-73.452998475,383,"4940 MERRICK ROAD 185, MASSAPEQUA PARK, NY, 11762","Match","Exact","4940 MERRICK RD, MASSAPEQUA PARK, NY, 11762",147652204,"R"
226884,"4940 N NAGLE AVE","CHICAGO","IL",60630,41.9709840180001,-87.78797238,384,"4940 N NAGLE AVE, CHICAGO, IL, 60630","Match","Exact","4940 N NAGLE AVE, CHICAGO, IL, 60630",111750171,"L"
226885,"4940 N WATT DR","EL DORADO","AR",71730,33.280923967,-92.689702113,385,"4940 N WATT DR, EL DORADO, AR, 71730","Match","Non_Exact","4940 N WYATT DR, EL DORADO, AR, 71730",28156492,"L"
226886,"4940 NEW HAVEN DR","LIMA","OH",45806,40.661966573,-84.136824874,386,"4940 NEW HAVEN DR, LIMA, OH, 45806","Match","Exact","4940 NEW HAVEN DR, LIMA, OH, 45806",35566693,"R"
226887,"4940 NW 110TH TER","CORAL SPRINGS","FL",33076,26.29159872,-80.274309312,387,"4940 NW 110TH TER, CORAL SPRINGS, FL, 33076","Match","Exact","4940 NW 110TH TER, CORAL SPRINGS, FL, 33076",114790932,"R"
226888,"4940 NW 180TH TERRACE","PORTLAND","OR",97229,45.5556681460001,-122.862144896,388,"4940 NW 180TH TERRACE, PORTLAND, OR, 97229","Match","Exact","4940 NW 180TH TER, PORTLAND, OR, 97229",158202318,"R"
226889,"4940 NW 18TH ST","LAUDERHILL","FL",33313,26.1479593110001,-80.2159406059999,389,"4940 NW 18TH ST, LAUDERHILL, FL, 33313","Match","Exact","4940 NW 18TH ST, LAUDERHILL, FL, 33313",114708090,"L"
226890,"4940 NW LINWOOD CIRCLE","TOPEKA","KS",66618,39.1363572980001,-95.690881984,390,"4940 NW LINWOOD CIRCLE, TOPEKA, KS, 66618","Match","Exact","4940 NW LINWOOD CIR, TOPEKA, KS, 66618",17925909,"L"
226891,"4940 OLD MAIN STREET - UNIT 401","HENRICO","VA",23231,37.5156008120001,-77.415197066,391,"4940 OLD MAIN STREET - UNIT 401, HENRICO, VA, 23231","Match","Non_Exact","4940 OLD MAIN ST, HENRICO, VA, 23231",641201280,"R"
226892,"4940 PAN AMERICAN BLVD","NORTH PORT","FL",34287,27.051440573,-82.24299694,392,"4940 PAN AMERICAN BLVD, NORTH PORT, FL, 34287","Match","Exact","4940 PAN AMERICAN BLVD, NORTH PORT, FL, 34287",16376983,"R"
226893,"4940 PLAINFIELD AVE NE","GRAND RAPIDS","MI",49525,43.052469837,-85.595899365,393,"4940 PLAINFIELD AVE NE, GRAND RAPIDS, MI, 49525","Match","Exact","4940 PLAINFIELD AVE NE, GRAND RAPIDS, MI, 49525",646763878,"R"
226894,"4940 QUEEN AVE S","MINNEAPOLIS","MN",55410,44.9134188950001,-93.3099836929999,394,"4940 QUEEN AVE S, MINNEAPOLIS, MN, 55410","Match","Exact","4940 QUEEN AVE S, MINNEAPOLIS, MN, 55410",43628843,"R"
226895,"4940 RUTHERFORD RD STE 203","VIRGINIA BEACH","VA",23462,NA,NA,395,"4940 RUTHERFORD RD STE 203, VIRGINIA BEACH, VA, 23462","No_Match",NA,NA,NA,NA
226896,"4940 S BAHAMA CT","AURORA","CO",80015,39.624946562,-104.768979116,396,"4940 S BAHAMA CT, AURORA, CO, 80015","Match","Exact","4940 S BAHAMA CT, AURORA, CO, 80015",177519006,"R"
226897,"4940 S EAST END AVENUE 14B","CHICAGO","IL",60615,41.805239672,-87.585827866,397,"4940 S EAST END AVENUE 14B, CHICAGO, IL, 60615","Match","Exact","4940 E END AVE, CHICAGO, IL, 60615",111771605,"R"
226898,"4940 S WOODLAWN AVE","CHICAGO","IL",60615,41.8052215600001,-87.5967605179999,398,"4940 S WOODLAWN AVE, CHICAGO, IL, 60615","Match","Exact","4940 S WOODLAWN AVE, CHICAGO, IL, 60615",111771536,"R"
226899,"4940 SNOWY REACH","COLUMBIA","MD",21044,39.2361740110001,-76.860827732,399,"4940 SNOWY REACH, COLUMBIA, MD, 21044","Match","Exact","4940 SNOWY REACH, COLUMBIA, MD, 21044",158922891,"R"
226900,"4940 SOUTH EAST END 13E","CHICAGO","IL",60615,41.8052487730001,-87.5858386359999,400,"4940 SOUTH EAST END 13E, CHICAGO, IL, 60615","Match","Non_Exact","4940 S EAST END AVE, CHICAGO, IL, 60615",111771605,"R"
226901,"4940 VAN DYKE RD","BROWN CITY","MI",48416,43.1801551290001,-83.076259138,401,"4940 VAN DYKE RD, BROWN CITY, MI, 48416","Match","Non_Exact","4940 N VAN DYKE RD, BROWN CITY, MI, 48416",110457033,"R"
226902,"4940 WEDGEWOOD PLACE","STONE MOUNTAIN","GA",30088,33.738659259,-84.187159285,402,"4940 WEDGEWOOD PLACE, STONE MOUNTAIN, GA, 30088","Match","Exact","4940 WEDGEWOOD PL, STONE MOUNTAIN, GA, 30088",23389287,"R"
226903,"4940 WILL ANN CIRCLE","ROCKFORD","IL",61101,42.3305540170001,-89.125360643,403,"4940 WILL ANN CIRCLE, ROCKFORD, IL, 61101","Match","Exact","4940 WILL ANN CIR, ROCKFORD, IL, 61101",49250418,"L"
226904,"49401 HEATH PLACE COURT","CHESTERFIELD","MI",48047,42.6639341740001,-82.817865634,404,"49401 HEATH PLACE COURT, CHESTERFIELD, MI, 48047","Match","Exact","49401 HEATH PLACE CT, CHESTERFIELD, MI, 48047",110706837,"R"
226905,"4941 10TH AVENUE","SACRAMENTO","CA",95820,38.5427188410001,-121.448652082,405,"4941 10TH AVENUE, SACRAMENTO, CA, 95820","Match","Exact","4941 10TH AVE, SACRAMENTO, CA, 95820",133419235,"L"
226906,"4941 ARABIAN DR","FAIRBORN","OH",45324,39.8288659720001,-83.95872889,406,"4941 ARABIAN DR, FAIRBORN, OH, 45324","Match","Exact","4941 ARABIAN DR, FAIRBORN, OH, 45324",143385624,"L"
226907,"4941 BELLA TERRA DR","VENICE","FL",34293,27.0425889380001,-82.394488821,407,"4941 BELLA TERRA DR, VENICE, FL, 34293","Match","Exact","4941 BELLA TERRA DR, VENICE, FL, 34293",16421942,"L"
226908,"4941 CLARKSFIELD COURT","WAKEMAN","OH",44889,41.1908107030001,-82.411655907,408,"4941 CLARKSFIELD COURT, WAKEMAN, OH, 44889","Match","Exact","4941 CLARKSFIELD CT, WAKEMAN, OH, 44889",12607593,"L"
226909,"4941 DEERWOOD CIRCLE","BAYTOWN","TX",77521,29.777060509,-94.991958228,409,"4941 DEERWOOD CIRCLE, BAYTOWN, TX, 77521","Match","Exact","4941 DEERWOOD CIR, BAYTOWN, TX, 77521",96108742,"R"
226910,"4941 E OAKMONT PL","TUCSON","AZ",85718,NA,NA,410,"4941 E OAKMONT PL, TUCSON, AZ, 85718","Tie",NA,NA,NA,NA
226911,"4941 GRANT AVE","VALDOSTA","GA",31605,30.9621569330001,-83.233166424,411,"4941 GRANT AVE, VALDOSTA, GA, 31605","Match","Non_Exact","4941 GRANT DR, VALDOSTA, GA, 31605",624547277,"R"
226912,"4941 LEDGEWOOD DR","COMMERCE TOWNSHIP","ME",48382,NA,NA,412,"4941 LEDGEWOOD DR, COMMERCE TOWNSHIP, ME, 48382","No_Match",NA,NA,NA,NA
226913,"4941 MCNAIR RD","JONESBORO","GA",30236,NA,NA,413,"4941 MCNAIR RD, JONESBORO, GA, 30236","No_Match",NA,NA,NA,NA
226914,"4941 MISTY PINES TRAIL","LAKE WORTH","FL",33463,26.6057306230001,-80.1314152159999,414,"4941 MISTY PINES TRAIL, LAKE WORTH, FL, 33463","Match","Exact","4941 MISTY PINES TRL, LAKE WORTH, FL, 33463",115506922,"R"
226915,"4941 NW 179 STREET","MIAMI","FL",33055,25.9359036660001,-80.282065326,415,"4941 NW 179 STREET, MIAMI, FL, 33055","Match","Non_Exact","4941 NW 179TH ST, MIAMI GARDENS, FL, 33055",116023504,"R"
226916,"4941 OAKWAY DRIVE","SAINT CLOUD","FL",34771,28.319862825,-81.241494444,416,"4941 OAKWAY DRIVE, SAINT CLOUD, FL, 34771","Match","Exact","4941 OAKWAY DR, SAINT CLOUD, FL, 34771",647511902,"L"
226917,"4941 PINE ST","WILMINGTON","NC",28403,34.2109591070001,-77.879166819,417,"4941 PINE ST, WILMINGTON, NC, 28403","Match","Exact","4941 PINE ST, WILMINGTON, NC, 28403",152733954,"L"
226918,"4941 ROSECROFT STREET","VIRGINIA BEACH","VA",23464,36.8188990400001,-76.1523580099999,418,"4941 ROSECROFT STREET, VIRGINIA BEACH, VA, 23464","Match","Exact","4941 ROSECROFT ST, VA BCH, VA, 23464",649740904,"L"
226919,"4941 S MARTIN LUTHER KING JR DR","CHICAGO","IL",60615,41.804964469,-87.616202914,419,"4941 S MARTIN LUTHER KING JR DR, CHICAGO, IL, 60615","Match","Exact","4941 S DR MARTIN LUTHER KING JR DR, CHICAGO, IL, 60615",111770690,"L"
226920,"4941 SEQUOIA AVE","DUBLIN","CA",94568,37.7121025070001,-121.884745475,420,"4941 SEQUOIA AVE, DUBLIN, CA, 94568","Match","Exact","4941 SEQUOIA AVE, DUBLIN, CA, 94568",125077408,"L"
226921,"4941 TREVINO CIRCLE","DULUTH","GA",30096,33.951928078,-84.178614308,421,"4941 TREVINO CIRCLE, DULUTH, GA, 30096","Match","Exact","4941 TREVINO CIR, DULUTH, GA, 30096",88905254,"L"
226922,"4941 W ALBAIN RD","MONROE","MI",48161,41.8850718890001,-83.4331949359999,422,"4941 W ALBAIN RD, MONROE, MI, 48161","Match","Exact","4941 W ALBAIN RD, MONROE, MI, 48161",40477577,"L"
226923,"4942 GLEENS ROAD","GLOUCESTER","VA",23061,37.554128162,-76.5839431219999,423,"4942 GLEENS ROAD, GLOUCESTER, VA, 23061","Match","Non_Exact","4942 GLENNS RD, GLOUCESTER, VA, 23061",168208548,"L"
226924,"4942 GOUCHER LANE","ORLANDO","FL",32821,28.4178446390001,-81.440823549,424,"4942 GOUCHER LANE, ORLANDO, FL, 32821","Match","Exact","4942 GOUCHER LN, ORLANDO, FL, 32821",94289779,"L"
226925,"4942 MARATHON S","LOS ANGELES","CA",90029,NA,NA,425,"4942 MARATHON S, LOS ANGELES, CA, 90029","No_Match",NA,NA,NA,NA
226926,"4942 NORTHERN DANCER WAY","ORLANDO","FL",32826,28.611249808,-81.162376195,426,"4942 NORTHERN DANCER WAY, ORLANDO, FL, 32826","Match","Exact","4942 NORTHERN DANCER WAY, ORLANDO, FL, 32826",94409004,"L"
226927,"4942 PEARCE AVE","LAKEWOOD","CA",90712,33.848169157,-118.129844624,427,"4942 PEARCE AVE, LAKEWOOD, CA, 90712","Match","Exact","4942 PEARCE AVE, LAKEWOOD, CA, 90712",642865043,"R"
226928,"4942 THUNDERCREEK LANE","SUGARLAND","TX",77479,29.547155628,-95.595736486,428,"4942 THUNDERCREEK LANE, SUGARLAND, TX, 77479","Match","Non_Exact","4942 THUNDER CREEK LN, SUGAR LAND, TX, 77479",648706646,"R"
226929,"4943 DOG FORK LAUREL ROAD","CATLETTSBURG","KY",41129,38.3479033410001,-82.6692959929999,429,"4943 DOG FORK LAUREL ROAD, CATLETTSBURG, KY, 41129","Match","Exact","4943 DOG FORK LAUREL RD, CATLETTSBURG, KY, 41129",625200120,"R"
226930,"4943 IDLE HOUR COURT","MELBOURNE BEACH","FL",32951,27.987727073,-80.519300184,430,"4943 IDLE HOUR COURT, MELBOURNE BEACH, FL, 32951","Match","Exact","4943 IDLE HOUR CT, MELBOURNE BCH, FL, 32951",93937599,"L"
226931,"4943 STONEY CREEK AVE NW","COMSTOCK PARK","MI",49321,43.053387581,-85.675517751,431,"4943 STONEY CREEK AVE NW, COMSTOCK PARK, MI, 49321","Match","Non_Exact","4943 STONY CREEK AVE NW, COMSTOCK PARK, MI, 49321",12450916,"L"
226932,"4943 TUSCANY CIR","SAN JOSE","CA",95135,NA,NA,432,"4943 TUSCANY CIR, SAN JOSE, CA, 95135","No_Match",NA,NA,NA,NA
226933,"4943 WESLEYAN POINTE","DECATUR","GA",30034,NA,NA,433,"4943 WESLEYAN POINTE, DECATUR, GA, 30034","No_Match",NA,NA,NA,NA
226934,"4943 WEST UNION","MILLINGTON","TN",38053,35.363487025,-89.899178029,434,"4943 WEST UNION, MILLINGTON, TN, 38053","Match","Non_Exact","4943 W UNION RD, MILLINGTON, TN, 38053",72899207,"R"
226935,"4943 YARWELL","HOUSTON","TX",77096,29.673500232,-95.463726747,435,"4943 YARWELL, HOUSTON, TX, 77096","Match","Non_Exact","4943 YARWELL DR, HOUSTON, TX, 77096",96039290,"L"
226936,"4944 COUNTY ROAD 141","IDER","AL",35981,34.7374774400001,-85.659821887,436,"4944 COUNTY ROAD 141, IDER, AL, 35981","Match","Exact","4944 CO RD 141, IDER, AL, 35981",651504830,"L"
226937,"4944 ELEANOR DR","FREDERICK","MD",21703,39.371408634,-77.452245136,437,"4944 ELEANOR DR, FREDERICK, MD, 21703","Match","Exact","4944 ELEANOR DR, FREDERICK, MD, 21703",636299863,"L"
226938,"4944 FRANKLIN AVE","WAUKEE","IA",50310,41.6112477070001,-93.684340976,438,"4944 FRANKLIN AVE, WAUKEE, IA, 50310","Match","Non_Exact","4944 FRANKLIN AVE, BEAVERDALE, IA, 50310",65779631,"L"
226939,"4944 MAJOR DR","NEW ORLEANS","LA",70128,30.0272505080001,-89.951336565,439,"4944 MAJOR DR, NEW ORLEANS, LA, 70128","Match","Exact","4944 MAJOR DR, NEW ORLEANS, LA, 70128",191722485,"L"
226940,"4944 MILLRIDGE PKWY E UNIT 2143","MIDLOTHIAN","VA",23112,37.436526417,-77.649285888,440,"4944 MILLRIDGE PKWY E UNIT 2143, MIDLOTHIAN, VA, 23112","Match","Non_Exact","4944 MILLRIDGE PKWY, MIDLOTHIAN, VA, 23112",201564367,"L"
226941,"4944 MOSS MILL ROAD","EGG HARBOR CITY","NJ",8215,39.572707591,-74.6897610839999,441,"4944 MOSS MILL ROAD, EGG HARBOR CITY, NJ, 8215","Match","Exact","4944 MOSS MILL RD, EGG HARBOR CITY, NJ, 08215",202498269,"R"
226942,"4944 NEWPORT AVE SUITE D","SAN DIEGO","CA",92107,32.7462793500001,-117.250114017,442,"4944 NEWPORT AVE SUITE D, SAN DIEGO, CA, 92107","Match","Exact","4944 NEWPORT AVE, SAN DIEGO, CA, 92107",195339093,"R"
226943,"4944 NORTH ROCKWELL ST UNIT 1","CHICAGO","IL",60625,41.9719155870001,-87.6939202679999,443,"4944 NORTH ROCKWELL ST UNIT 1, CHICAGO, IL, 60625","Match","Exact","4944 N ROCKWELL ST, CHICAGO, IL, 60625",111760056,"L"
226944,"4944 WEST BADGER LANE","HERRIMAN","UT",84096,40.5218967270001,-112.008973611,444,"4944 WEST BADGER LANE, HERRIMAN, UT, 84096","Match","Non_Exact","4944 BADGER LN, HERRIMAN, UT, 84096",176153696,"R"
226945,"4944 WINDPLAY DRIVE SUITE 119","EL DORADO HILLS","CA",95762,38.6378028460001,-121.071143322,445,"4944 WINDPLAY DRIVE SUITE 119, EL DORADO HILLS, CA, 95762","Match","Exact","4944 WINDPLAY DR, EL DORADO HILLS, CA, 95762",133074921,"R"
226946,"4945 EVERGREEN DR","SHEBOYGAN","WI",53081,43.6981290050001,-87.705922609,446,"4945 EVERGREEN DR, SHEBOYGAN, WI, 53081","Match","Exact","4945 EVERGREEN DR, SHEBOYGAN, WI, 53081",79503290,"L"
226947,"4945 EVERGREEN DRIVE","SHEBOYGAN","WI",53081,43.6981290050001,-87.705922609,447,"4945 EVERGREEN DRIVE, SHEBOYGAN, WI, 53081","Match","Exact","4945 EVERGREEN DR, SHEBOYGAN, WI, 53081",79503290,"L"
226948,"4945 KILMURRY CT","DUBLIN","OH",43017,40.126832762,-83.1249688079999,448,"4945 KILMURRY CT, DUBLIN, OH, 43017","Match","Exact","4945 KILMURRY CT, DUBLIN, OH, 43017",135768507,"R"
226949,"4945 LONGRIDGE DR","VILLA RICA","GA",30180,33.669936605,-84.89115372,449,"4945 LONGRIDGE DR, VILLA RICA, GA, 30180","Match","Exact","4945 LONGRIDGE DR, VILLA RICA, GA, 30180",653491789,"L"
226950,"4945 MAGNOLIA AVENUE","FEATERVILLE TREVOSE","PA",19053,40.152682699,-74.972909628,450,"4945 MAGNOLIA AVENUE, FEATERVILLE TREVOSE, PA, 19053","Match","Non_Exact","4945 MAGNOLIA AVE, FEASTERVILLE TREVOSE, PA, 19053",134710165,"R"
226951,"4945 NEOSHO ST","ST LOUIS","MO",63109,38.5844016140001,-90.278303439,451,"4945 NEOSHO ST, ST LOUIS, MO, 63109","Match","Exact","4945 NEOSHO ST, SAINT LOUIS, MO, 63109",605134994,"R"
226952,"4945 NORTH 4TH COURT","MINNEAPOLIS","MN",55430,45.045015957,-93.286450502,452,"4945 NORTH 4TH COURT, MINNEAPOLIS, MN, 55430","Match","Exact","4945 N 4TH CT, MINNEAPOLIS, MN, 55430",43644462,"L"
226953,"4945 PALESTINE ROAD","SPRINGFIELD","TN",37172,36.4518188820001,-86.877041591,453,"4945 PALESTINE ROAD, SPRINGFIELD, TN, 37172","Match","Exact","4945 PALESTINE RD, SPRINGFIELD, TN, 37172",97448324,"L"
226954,"4945 RUBICAM STREET","PHILADELPHIA","PA",19144,40.0333143230001,-75.158641073,454,"4945 RUBICAM STREET, PHILADELPHIA, PA, 19144","Match","Exact","4945 RUBICAM ST, PHILADELPHIA, PA, 19144",131416634,"R"
226955,"4945 SHELTER COVE","MEMPHIS","TN",38118,35.0134168160001,-89.95190691,455,"4945 SHELTER COVE, MEMPHIS, TN, 38118","Match","Exact","4945 SHELTER COVE, MEMPHIS, TN, 38118",72923293,"R"
226956,"4945 VIA PIEDRA","YORBA LINDA","CA",92886,33.8920657090001,-117.767137369,456,"4945 VIA PIEDRA, YORBA LINDA, CA, 92886","Match","Exact","4945 VIA PIEDRA, YORBA LINDA, CA, 92886",143997005,"L"
226957,"4946 BOOKELIA CIR","BRADENTON","FL",34203,27.4550057700001,-82.4998283259999,457,"4946 BOOKELIA CIR, BRADENTON, FL, 34203","Match","Exact","4946 BOOKELIA CIR, BRADENTON, FL, 34203",16270819,"R"
226958,"4946 DARROW ROAD","STOW","OH",44224,41.1994128640001,-81.440478793,458,"4946 DARROW ROAD, STOW, OH, 44224","Match","Exact","4946 DARROW RD, STOW, OH, 44224",613702400,"L"
226959,"4946 DUTCH HILL RD","CINCINNATUS","NY",13040,42.517121327,-75.950451765,459,"4946 DUTCH HILL RD, CINCINNATUS, NY, 13040","Match","Exact","4946 DUTCH HILL RD, CINCINNATUS, NY, 13040",635503285,"R"
226960,"4946 FRANKLIN AVE","NEW ORLEANS","LA",70122,30.009224896,-90.050789913,460,"4946 FRANKLIN AVE, NEW ORLEANS, LA, 70122","Match","Exact","4946 FRANKLIN AVE, NEW ORLEANS, LA, 70122",191704490,"L"
226961,"4946 HAZEL AVENUE","BALTIMORE","MD",21227,39.226435586,-76.7023977269999,461,"4946 HAZEL AVENUE, BALTIMORE, MD, 21227","Match","Exact","4946 HAZEL AVE, BALTIMORE, MD, 21227",191485697,"R"
226962,"4946 LAKE MENDOTA DRIVE","MADISON","WI",53705,43.080330395,-89.4636536529999,462,"4946 LAKE MENDOTA DRIVE, MADISON, WI, 53705","Match","Exact","4946 LAKE MENDOTA DR, MADISON, WI, 53705",641005781,"R"
226963,"4946 LAZY TIMBERS DRIVE","HUMBLE","TX",77346,29.983299732,-95.199042391,463,"4946 LAZY TIMBERS DRIVE, HUMBLE, TX, 77346","Match","Exact","4946 LAZY TIMBERS DR, HUMBLE, TX, 77346",640073626,"R"
226964,"4946 MILL POND RD 3184","WESLEY CHAPEL","FL",33543,28.229360967,-82.3356654139999,464,"4946 MILL POND RD 3184, WESLEY CHAPEL, FL, 33543","Match","Exact","4946 MILL POND RD, WESLEY CHAPEL, FL, 33543",86397859,"L"
226965,"4946 ROSE AVE","ORLANDO","FL",32808,28.609877768,-81.443579842,465,"4946 ROSE AVE, ORLANDO, FL, 32808","Match","Exact","4946 ROSE AVE, ORLANDO, FL, 32808",636401621,"L"
226966,"49460 COMPASS POINT DRIVE","CHESTERFIELD","MI",48047,42.6592747390001,-82.768945817,466,"49460 COMPASS POINT DRIVE, CHESTERFIELD, MI, 48047","Match","Exact","49460 COMPASS POINT DR, CHESTERFIELD, MI, 48047",110712251,"L"
226967,"4947 ALTON PKWY","IRVINE","CA",92604,33.6724924000001,-117.797123928,467,"4947 ALTON PKWY, IRVINE, CA, 92604","Match","Exact","4947 ALTON PKWY, IRVINE, CA, 92604",651675750,"R"
226968,"4947 BROOKWOOD PLACE","BYRAM","MS",39272,32.211799381,-90.270371905,468,"4947 BROOKWOOD PLACE, BYRAM, MS, 39272","Match","Exact","4947 BROOKWOOD PL, BYRAM, MS, 39272",635802303,"R"
226969,"4947 BUCKINGHAM CT APT 1S","ST LOUIS","MO",63108,38.641347662,-90.263913528,469,"4947 BUCKINGHAM CT APT 1S, ST LOUIS, MO, 63108","Match","Exact","4947 BUCKINGHAM CT, SAINT LOUIS, MO, 63108",107596666,"R"
226970,"4947 CAPROCK CANYON AVE","LAS VEGAS","NV",89139,36.0284514860001,-115.208801676,470,"4947 CAPROCK CANYON AVE, LAS VEGAS, NV, 89139","Match","Exact","4947 CAPROCK CANYON AVE, LAS VEGAS, NV, 89139",612685839,"L"
226971,"4947 EAGLE LANE","WEST BEND","WI",53095,43.3710020730001,-88.216828116,471,"4947 EAGLE LANE, WEST BEND, WI, 53095","Match","Exact","4947 EAGLE LN, WEST BEND, WI, 53095",79557898,"R"
226972,"4947 HALLENIUS ROAD","GAYLORD","MI",49735,45.042762995,-84.772770849,472,"4947 HALLENIUS ROAD, GAYLORD, MI, 49735","Match","Exact","4947 HALLENIUS RD, GAYLORD, MI, 49735",171772820,"L"
226973,"4947 OLD HIGHWAY 20","FRIENDSHIP","TN",38034,35.9614867330001,-89.3065462119999,473,"4947 OLD HIGHWAY 20, FRIENDSHIP, TN, 38034","Match","Exact","4947 OLD HWY 20, FRIENDSHIP, TN, 38034",40656237,"L"
226974,"4947 ORINDA AVE","LOS ANGELES","CA",90043,33.997936038,-118.344016417,474,"4947 ORINDA AVE, LOS ANGELES, CA, 90043","Match","Exact","4947 ORINDA AVE, LOS ANGELES, CA, 90043",141602425,"R"
226975,"4947 SUNDANCE SQUARE","BOULDER","CO",80301,40.064960963,-105.179740111,475,"4947 SUNDANCE SQUARE, BOULDER, CO, 80301","Match","Exact","4947 SUNDANCE SQ, BOULDER, CO, 80301",188220364,"L"
226976,"4947","SAN LUIS OBISPO","CA",93403,NA,NA,476,"4947, SAN LUIS OBISPO, CA, 93403","No_Match",NA,NA,NA,NA
226977,"49470 MEADOW OAK TRAIL","MATTAWAN","MI",49071,42.2388836010001,-85.807694813,477,"49470 MEADOW OAK TRAIL, MATTAWAN, MI, 49071","Match","Exact","49470 MEADOW OAK TRL, MATTAWAN, MI, 49071",34764435,"R"
226978,"4948 47TH ST S APT 200","FARGO","ND",58104,NA,NA,478,"4948 47TH ST S APT 200, FARGO, ND, 58104","Tie",NA,NA,NA,NA
226979,"4948 87TH ST NE","MONTICELLO","MN",55362,45.2771350030001,-93.7884032859999,479,"4948 87TH ST NE, MONTICELLO, MN, 55362","Match","Exact","4948 87TH ST NE, MONTICELLO, MN, 55362",605184362,"L"
226980,"4948 ADMIRATION DRIVE","VIRGINIA BEACH","VA",23464,36.810471251,-76.152623854,480,"4948 ADMIRATION DRIVE, VIRGINIA BEACH, VA, 23464","Match","Exact","4948 ADMIRATION DR, VA BCH, VA, 23464",122285649,"R"
226981,"4948 BEECHWOOD RD","CINCINNATI","OH",45244,39.1336832320001,-84.28987512,481,"4948 BEECHWOOD RD, CINCINNATI, OH, 45244","Match","Exact","4948 BEECHWOOD RD, CINCINNATI, OH, 45244",118444017,"R"
226982,"4948 DEMETER CV","MEMPHIS","TN",38118,35.0542759140001,-89.897854964,482,"4948 DEMETER CV, MEMPHIS, TN, 38118","Match","Exact","4948 DEMETER COVE, MEMPHIS, TN, 38118",72927982,"L"
226983,"4948 FRANKLIN AVE","DES MOINES","IA",50310,41.6112477070001,-93.684381837,483,"4948 FRANKLIN AVE, DES MOINES, IA, 50310","Match","Exact","4948 FRANKLIN AVE, DES MOINES, IA, 50310",65779631,"L"
226984,"4948 GULFSTREAM DRIVE","DALLAS","TX",75244,32.917841438,-96.822607842,484,"4948 GULFSTREAM DRIVE, DALLAS, TX, 75244","Match","Exact","4948 GULFSTREAM DR, DALLAS, TX, 75244",102899333,"R"
226985,"4948 PANOLA MILL DRIVE","LITHONIA","GA",30038,33.691361805,-84.181615167,485,"4948 PANOLA MILL DRIVE, LITHONIA, GA, 30038","Match","Exact","4948 PANOLA MILL DR, LITHONIA, GA, 30038",23382527,"R"
226986,"4948 PAULINE DR","NEW ORLEANS","LA",70126,30.0128826820001,-90.0322131569999,486,"4948 PAULINE DR, NEW ORLEANS, LA, 70126","Match","Exact","4948 PAULINE DR, NEW ORLEANS, LA, 70126",191705174,"L"
226987,"4948 SE CROCO RD","BERRYTON","KS",66409,38.9775970960001,-95.614296667,487,"4948 SE CROCO RD, BERRYTON, KS, 66409","Match","Exact","4948 SE CROCO RD, BERRYTON, KS, 66409",17906682,"L"
226988,"4948 WALNUT ST","PHILADELPHIA","PA",19139,39.9563324220001,-75.22055507,488,"4948 WALNUT ST, PHILADELPHIA, PA, 19139","Match","Exact","4948 WALNUT ST, PHILADELPHIA, PA, 19139",131399656,"L"
226989,"4948 WANDERING WAY","WESLEY CHAPEL","FL",33544,NA,NA,489,"4948 WANDERING WAY, WESLEY CHAPEL, FL, 33544","No_Match",NA,NA,NA,NA
226990,"4948 WEST ROYAL ANN DRIVE","WEST VALLEY CITY","UT",84120,40.672647135,-112.009183197,490,"4948 WEST ROYAL ANN DRIVE, WEST VALLEY CITY, UT, 84120","Match","Exact","4948 W ROYAL ANN DR, WEST VALLEY CITY, UT, 84120",176069664,"R"
226991,"4949 19TH AVE SW","NAPLES","FL",34116,26.192454304,-81.7116563069999,491,"4949 19TH AVE SW, NAPLES, FL, 34116","Match","Exact","4949 19TH AVE SW, NAPLES, FL, 34116",115147552,"R"
226992,"4949 CASON COVE DR APT 717","ORLANDO","FL",32811,28.4986964620001,-81.4448802859999,492,"4949 CASON COVE DR APT 717, ORLANDO, FL, 32811","Match","Exact","4949 CASON COVE DR, ORLANDO, FL, 32811",606117625,"R"
226993,"4949 E RIDGEWOOD DR","BLOOMINGTON","IN",47401,39.16380701,-86.460170926,493,"4949 E RIDGEWOOD DR, BLOOMINGTON, IN, 47401","Match","Exact","4949 E RIDGEWOOD DR, BLOOMINGTON, IN, 47401",42325156,"L"
226994,"4949 E VAN BUREN ST - 67537","PHOENIX","AZ",85082,NA,NA,494,"4949 E VAN BUREN ST - 67537, PHOENIX, AZ, 85082","No_Match",NA,NA,NA,NA
226995,"4949 EAST SOUTHERN AVE","MESA","AZ",85206,33.3937960120001,-111.723155859,495,"4949 EAST SOUTHERN AVE, MESA, AZ, 85206","Match","Exact","4949 E SOUTHERN AVE, MESA, AZ, 85206",128942727,"R"
226996,"4949 HAGOOD AVE","EL PASO","TX",79906,31.796416897,-106.43061486,496,"4949 HAGOOD AVE, EL PASO, TX, 79906","Match","Exact","4949 HAGOOD AVE, EL PASO, TX, 79906",189381131,"L"
226997,"4949 JACKSON DRIVE","BROOKHAVEN","PA",19015,39.86734698,-75.4030914269999,497,"4949 JACKSON DRIVE, BROOKHAVEN, PA, 19015","Match","Exact","4949 JACKSON DR, BROOKHAVEN, PA, 19015",134899279,"R"
226998,"4949 LOUISIANA AVE N","NEW HOPE","MN",55428,45.044122707,-93.37031572,498,"4949 LOUISIANA AVE N, NEW HOPE, MN, 55428","Match","Exact","4949 LOUISIANA AVE N, NEW HOPE, MN, 55428",43830614,"L"
226999,"4949 MARBRISA DRIVE","TAMPA","FL",33624,28.0570726550001,-82.5291393269999,499,"4949 MARBRISA DRIVE, TAMPA, FL, 33624","Match","Exact","4949 MARBRISA DR, TAMPA, FL, 33624",104713887,"R"
227000,"4949 MEADOWS ROAD  SUITE 600","LAKE OSWEGO","OR",97035,45.4174794190001,-122.726411676,500,"4949 MEADOWS ROAD  SUITE 600, LAKE OSWEGO, OR, 97035","Match","Exact","4949 MEADOWS RD, LAKE OSWEGO, OR, 97035",640615390,"L"
