"ID","Address","City","State","Zip","lat","long","id","input_address","match_indicator","match_type","matched_address","tiger_line_id","tiger_side"
292001,"796 IRISH GREEN DRIVE","CLOVER","SC",29710,35.1363984430001,-81.089608077,1,"796 IRISH GREEN DRIVE, CLOVER, SC, 29710","Match","Exact","796 IRISH GREEN DR, CLOVER, SC, 29710",618819983,"R"
292002,"796 JEFFERSON AVENUE APT A","CHULA VISTA","CA",91910,32.620012221,-117.088363128,2,"796 JEFFERSON AVENUE APT A, CHULA VISTA, CA, 91910","Match","Exact","796 JEFFERSON AVE, CHULA VISTA, CA, 91910",195356111,"R"
292003,"796 LINCOLN PL  GROUND FL","BROOKLYN","NY",11216,40.670721832,-73.9500262509999,3,"796 LINCOLN PL  GROUND FL, BROOKLYN, NY, 11216","Match","Exact","796 LINCOLN PL, BROOKLYN, NY, 11216",59079445,"R"
292004,"796 MERRETT DRIVE APT 1","PASADENA","CA",91104,34.1607038710001,-118.133770485,4,"796 MERRETT DRIVE APT 1, PASADENA, CA, 91104","Match","Exact","796 MERRETT DR, PASADENA, CA, 91104",141628766,"R"
292005,"796 MONROE ROAD","HATTIESBURG","MS",39401,31.4126200970001,-89.3093230329999,5,"796 MONROE ROAD, HATTIESBURG, MS, 39401","Match","Exact","796 MONROE RD, HATTIESBURG, MS, 39401",607626647,"R"
292006,"796 N EVERGREEN ST","CHANDLER","AZ",85225,33.316432691,-111.854254701,6,"796 N EVERGREEN ST, CHANDLER, AZ, 85225","Match","Exact","796 N EVERGREEN ST, CHANDLER, AZ, 85225",128242904,"L"
292007,"796 NORTHWOOD HILLS","HERNANDO","MS",38632,34.836225815,-90.000371076,7,"796 NORTHWOOD HILLS, HERNANDO, MS, 38632","Match","Non_Exact","796 NORTHWOOD HILLS DR, HERNANDO, MS, 38632",91853433,"R"
292008,"796 PREAKNESS DR","WEST MELBOURNE","FL",32904,28.062692301,-80.6567947729999,8,"796 PREAKNESS DR, WEST MELBOURNE, FL, 32904","Match","Exact","796 PREAKNESS DR, W MELBOURNE, FL, 32904",93958704,"R"
292009,"796 RATHBUN AVENUE","STATEN ISLAND","NY",10309,40.538053528,-74.202186653,9,"796 RATHBUN AVENUE, STATEN ISLAND, NY, 10309","Match","Exact","796 RATHBUN AVE, STATEN ISLAND, NY, 10309",59874197,"R"
292010,"796 W 3RD ST","YUMA","AZ",85364,32.7215310500001,-114.629419662,10,"796 W 3RD ST, YUMA, AZ, 85364","Match","Exact","796 W 3RD ST, YUMA, AZ, 85364",647556855,"R"
292011,"796 W STATE ROAD 234","FORTVILLE","IN",46040,NA,NA,11,"796 W STATE ROAD 234, FORTVILLE, IN, 46040","Tie",NA,NA,NA,NA
292012,"796 WONDERLAND DR","SHEPHERD","TX",77371,30.459302328,-95.036269536,12,"796 WONDERLAND DR, SHEPHERD, TX, 77371","Match","Exact","796 WONDERLAND DR, SHEPHERD, TX, 77371",24264686,"R"
292013,"7960 103RD ST","JACKSONVILLE","FL",32210,30.2481615240001,-81.780189599,13,"7960 103RD ST, JACKSONVILLE, FL, 32210","Match","Exact","7960 103RD ST, JACKSONVILLE, FL, 32210",83966827,"R"
292014,"7960 DORCHESTER ROAD","SUMMERVILLE","SC",29418,32.9053724610001,-80.088236598,14,"7960 DORCHESTER ROAD, SUMMERVILLE, SC, 29418","Match","Non_Exact","7960 DORCHESTER RD, CHARLESTON, SC, 29418",108887306,"R"
292015,"7960 N DEADMANS GULCH RD","FLORENCE","AZ",85132,32.9499336690001,-111.311373229,15,"7960 N DEADMANS GULCH RD, FLORENCE, AZ, 85132","Match","Non_Exact","7960 N DEAD MANS GULCH RD, FLORENCE, AZ, 85132",129284074,"L"
292016,"7960 NW 10 ST","PEMBROKE PINES","FL",33024,26.0173506350001,-80.246690407,16,"7960 NW 10 ST, PEMBROKE PINES, FL, 33024","Match","Exact","7960 NW 10TH ST, PEMBROKE PINES, FL, 33024",114712921,"L"
292017,"7960 ROCKPORT RD","BLUFFTON","OH",45817,40.876886665,-83.95525997,17,"7960 ROCKPORT RD, BLUFFTON, OH, 45817","Match","Exact","7960 ROCKPORT RD, BLUFFTON, OH, 45817",209545178,"R"
292018,"7960 SNOW FROST COVE","MEMPHIS","TN",38125,35.0167827160001,-89.798980646,18,"7960 SNOW FROST COVE, MEMPHIS, TN, 38125","Match","Exact","7960 SNOW FROST COVE, MEMPHIS, TN, 38125",636798284,"R"
292019,"7960 SOQUEL DR STE B126","APTOS","CA",95003,36.9770108320001,-121.905697379,19,"7960 SOQUEL DR STE B126, APTOS, CA, 95003","Match","Exact","7960 SOQUEL DR, APTOS, CA, 95003",617411881,"R"
292020,"7960 SOUTH JOPLIN COURT","ENGLEWOOD","CO",80112,39.573628996,-104.805250125,20,"7960 SOUTH JOPLIN COURT, ENGLEWOOD, CO, 80112","Match","Exact","7960 S JOPLIN CT, ENGLEWOOD, CO, 80112",617960509,"L"
292021,"7960 TALBOT RUN RD","MOUNT AIRY","MD",21771,39.454517878,-77.157557894,21,"7960 TALBOT RUN RD, MOUNT AIRY, MD, 21771","Match","Exact","7960 TALBOT RUN RD, MOUNT AIRY, MD, 21771",60722972,"R"
292022,"7960-B226 SOQUEL DRIVE","APTOS","CA",95003,NA,NA,22,"7960-B226 SOQUEL DRIVE, APTOS, CA, 95003","No_Match",NA,NA,NA,NA
292023,"7960","MANASSAS","VA",20109,NA,NA,23,"7960, MANASSAS, VA, 20109","No_Match",NA,NA,NA,NA
292024,"7961 BURGUNDY CIRCLE","CHATTANOOGA","TN",37421,35.052175124,-85.119180939,24,"7961 BURGUNDY CIRCLE, CHATTANOOGA, TN, 37421","Match","Exact","7961 BURGUNDY CIR, CHATTANOOGA, TN, 37421",625131269,"L"
292025,"7961 E THISTLE DR","PRESCOTT VALLEY","AZ",86314,34.567101585,-112.326204321,25,"7961 E THISTLE DR, PRESCOTT VALLEY, AZ, 86314","Match","Exact","7961 THISTLE DR, PRESCOTT VALLEY, AZ, 86314",608207970,"R"
292026,"7961 FALLING CREEK ROAD","BEDFORD","VA",24523,37.266875586,-79.412536894,26,"7961 FALLING CREEK ROAD, BEDFORD, VA, 24523","Match","Exact","7961 FALLING CREEK RD, BEDFORD, VA, 24523",228433479,"L"
292027,"7962 LITTLE PLUM WAY","ANTELOPE","CA",95843,NA,NA,27,"7962 LITTLE PLUM WAY, ANTELOPE, CA, 95843","No_Match",NA,NA,NA,NA
292028,"7962 W SAMPLE ROAD","MARGATE","FL",33065,26.2721232010001,-80.232368488,28,"7962 W SAMPLE ROAD, MARGATE, FL, 33065","Match","Exact","7962 W SAMPLE RD, MARGATE, FL, 33065",647903208,"R"
292029,"7963 SOUTH CR 200 WEST","CLAYTON","IN",46118,39.645288151,-86.559967289,29,"7963 SOUTH CR 200 WEST, CLAYTON, IN, 46118","Match","Exact","7963 S CO RD 200 W, CLAYTON, IN, 46118",89199692,"R"
292030,"7964 BROOKLYN BLVD  166","BROOKLYN PARK","MN",55445,45.0945590540001,-93.37488939,30,"7964 BROOKLYN BLVD  166, BROOKLYN PARK, MN, 55445","Match","Exact","7964 BROOKLYN BLVD, BROOKLYN PARK, MN, 55445",43613779,"R"
292031,"7964 BROOKLYN BLVD  STE160","BROOKLYN PARK","MN",55445,45.0945590540001,-93.37488939,31,"7964 BROOKLYN BLVD  STE160, BROOKLYN PARK, MN, 55445","Match","Exact","7964 BROOKLYN BLVD, BROOKLYN PARK, MN, 55445",43613779,"R"
292032,"7964 N 163RD CIRCLE","BENNINGTON","NE",68007,41.330944204,-96.170010656,32,"7964 N 163RD CIRCLE, BENNINGTON, NE, 68007","Match","Exact","7964 N 163RD CIR, BENNINGTON, NE, 68007",641500920,"R"
292033,"7964 PROSPECTOR HOLLOW","POCATELLO","ID",83201,42.8759446620001,-112.339765396,33,"7964 PROSPECTOR HOLLOW, POCATELLO, ID, 83201","Match","Non_Exact","7964 PROSPECTOR HOLLOW LN, POCATELLO, ID, 83201",204376358,"L"
292034,"7964 RAMBLER PLACE","CINCINNATI","OH",45231,39.2376918780001,-84.537199227,34,"7964 RAMBLER PLACE, CINCINNATI, OH, 45231","Match","Exact","7964 RAMBLER PL, CINCINNATI, OH, 45231",103955447,"R"
292035,"7965 BATTLEFIELD MEMORIAL HWY","BEREA","KY",40403,37.5847860540001,-84.211748668,35,"7965 BATTLEFIELD MEMORIAL HWY, BEREA, KY, 40403","Match","Exact","7965 BATTLEFIELD MEMORIAL HWY, BEREA, KY, 40403",31989922,"R"
292036,"7965 HELENA AVE","RIVERSIDE","CA",92504,33.9329783850001,-117.41583694,36,"7965 HELENA AVE, RIVERSIDE, CA, 92504","Match","Exact","7965 HELENA AVE, RIVERSIDE, CA, 92504",194740590,"R"
292037,"7965 MEGAN HAMMOCK WAY","SARASOTA","FL",34240,27.3034291230001,-82.399774908,37,"7965 MEGAN HAMMOCK WAY, SARASOTA, FL, 34240","Match","Exact","7965 MEGAN HAMMOCK WAY, SARASOTA, FL, 34240",625213979,"L"
292038,"7965 SE MAMMOTH DRIVE","HOBE SOUND","FL",33455,27.10251706,-80.182538412,38,"7965 SE MAMMOTH DRIVE, HOBE SOUND, FL, 33455","Match","Non_Exact","7965 MAMMOTH DR SE, HOBE SOUND, FL, 33455",120437131,"R"
292039,"7965 SW WILSONVILLE RD","WILSONVILLE","OR",97070,45.3030316090001,-122.758872761,39,"7965 SW WILSONVILLE RD, WILSONVILLE, OR, 97070","Match","Exact","7965 WILSONVILLE RD, WILSONVILLE, OR, 97070",157982524,"L"
292040,"7965 VINEYARD AVE F1","RANCHO CUCAMONGA","CA",91730,34.1113412920001,-117.611502457,40,"7965 VINEYARD AVE F1, RANCHO CUCAMONGA, CA, 91730","Match","Exact","7965 VINEYARD AVE, RANCHO CUCAMONGA, CA, 91730",144731136,"L"
292041,"7966 CHESTERFIELD DRIVE SOUTH","SOUTHAVEN","MS",38671,34.976891949,-90.00807151,41,"7966 CHESTERFIELD DRIVE SOUTH, SOUTHAVEN, MS, 38671","Match","Exact","7966 CHESTERFIELD DR S, SOUTHAVEN, MS, 38671",91829998,"R"
292042,"7966 COUNTY ROAD 193","CARTHAGE","MO",64836,37.1687832490001,-94.4064736079999,42,"7966 COUNTY ROAD 193, CARTHAGE, MO, 64836","Match","Exact","7966 CO RD 193, CARTHAGE, MO, 64836",66155142,"R"
292043,"7966 CRANFORD LANE","DUBLIN","CA",94568,37.7177076500001,-121.928214392,43,"7966 CRANFORD LANE, DUBLIN, CA, 94568","Match","Exact","7966 CRANFORD LN, DUBLIN, CA, 94568",125016848,"L"
292044,"7966 LOST LAKE ROAD","LAKE SHORE","MN",56468,46.514913774,-94.340333985,44,"7966 LOST LAKE ROAD, LAKE SHORE, MN, 56468","Match","Exact","7966 LOST LAKE RD, LAKE SHORE, MN, 56468",162739191,"L"
292045,"7967 NORTH FLINTLOCK ROAD APT G","KANSAS CITY","MO",64158,39.238236983,-94.468518482,45,"7967 NORTH FLINTLOCK ROAD APT G, KANSAS CITY, MO, 64158","Match","Exact","7967 N FLINTLOCK RD, KANSAS CITY, MO, 64158",627693449,"R"
292046,"7967 RICHMOND HWY APT 11","WOODBRIDGE","VA",22193,NA,NA,46,"7967 RICHMOND HWY APT 11, WOODBRIDGE, VA, 22193","No_Match",NA,NA,NA,NA
292047,"7968 CHRISTIAN CT","JONESBORO","GA",30236,33.5369120610001,-84.293608206,47,"7968 CHRISTIAN CT, JONESBORO, GA, 30236","Match","Exact","7968 CHRISTIAN CT, JONESBORO, GA, 30236",23325218,"R"
292048,"7968 COOLEY ROAD","RAVENNA","OH",44266,41.2070066680001,-81.202294074,48,"7968 COOLEY ROAD, RAVENNA, OH, 44266","Match","Exact","7968 COOLEY RD, RAVENNA, OH, 44266",641179945,"R"
292049,"7968 PLATEAU CT","RIVERSIDE","CA",92506,33.906228039,-117.382652233,49,"7968 PLATEAU CT, RIVERSIDE, CA, 92506","Match","Exact","7968 PLATEAU CT, RIVERSIDE, CA, 92506",194789365,"L"
292050,"7969 65TH AVENUE SW","MOTLEY","MN",56466,46.5163965830001,-94.6248258429999,50,"7969 65TH AVENUE SW, MOTLEY, MN, 56466","Match","Exact","7969 65TH AVE SW, MOTLEY, MN, 56466",648877108,"R"
292051,"7969 ABINGTON WOODS DR","ARLINGTON","TN",38002,35.2654636080001,-89.797256999,51,"7969 ABINGTON WOODS DR, ARLINGTON, TN, 38002","Match","Non_Exact","7969 ABINGTON WOODS AVE, ARLINGTON, TN, 38002",647246700,"R"
292052,"7969 ENGINEER RD STE 204","SAN DIEGO","CA",92111,32.8258456460001,-117.151929822,52,"7969 ENGINEER RD STE 204, SAN DIEGO, CA, 92111","Match","Exact","7969 ENGINEER RD, SAN DIEGO, CA, 92111",195305248,"R"
292053,"7969 ENGINEER ROAD SUITE 204","SAN DIEGO","CA",92111,32.8258456460001,-117.151929822,53,"7969 ENGINEER ROAD SUITE 204, SAN DIEGO, CA, 92111","Match","Exact","7969 ENGINEER RD, SAN DIEGO, CA, 92111",195305248,"R"
292054,"7969 KENDALIA DRIVE","HOUSTON","TX",77036,29.6917637670001,-95.547092917,54,"7969 KENDALIA DRIVE, HOUSTON, TX, 77036","Match","Exact","7969 KENDALIA DR, HOUSTON, TX, 77036",645179424,"L"
292055,"7969 MEGAN MEADOW DR","HUDSON","OH",44236,41.2785300460001,-81.396671259,55,"7969 MEGAN MEADOW DR, HUDSON, OH, 44236","Match","Exact","7969 MEGAN MEADOW DR, HUDSON, OH, 44236",648263605,"R"
292056,"7969 WOODLAND DRIVE","HANOVER","PA",17331,39.8673896610001,-76.931820171,56,"7969 WOODLAND DRIVE, HANOVER, PA, 17331","Match","Exact","7969 WOODLAND DR, HANOVER, PA, 17331",638542084,"R"
292057,"797 CEDAR RUN DRIVE","BLACKLICK","OH",43004,40.003022452,-82.7803517309999,57,"797 CEDAR RUN DRIVE, BLACKLICK, OH, 43004","Match","Exact","797 CEDAR RUN DR, BLACKLICK, OH, 43004",637272676,"R"
292058,"797 E PAYTON ST","SAN TAN VALLEY","AZ",85140,33.236548531,-111.557104081,58,"797 E PAYTON ST, SAN TAN VALLEY, AZ, 85140","Match","Exact","797 E PAYTON ST, SAN TAN VALLEY, AZ, 85140",129347133,"R"
292059,"797 EAST STREET","NEW BRITAIN","CT",6051,41.674429226,-72.762314375,59,"797 EAST STREET, NEW BRITAIN, CT, 6051","Match","Exact","797 EAST ST, NEW BRITAIN, CT, 06051",3511411,"R"
292060,"797 HIGHWAY 587","MCKEE","KY",40447,37.485575591,-83.8942622009999,60,"797 HIGHWAY 587, MCKEE, KY, 40447","Match","Non_Exact","797 STATE HWY 587, MCKEE, KY, 40447",637675675,"L"
292061,"797 HOOVER AVENUE UP","CLEVELAND","OH",44119,41.585819288,-81.5589874779999,61,"797 HOOVER AVENUE UP, CLEVELAND, OH, 44119","Match","Exact","797 HOOVER AVE, CLEVELAND, OH, 44119",61107892,"L"
292062,"797 KINGSTON ROAD","COLBERT","GA",30628,34.055316797,-83.201717033,62,"797 KINGSTON ROAD, COLBERT, GA, 30628","Match","Exact","797 KINGSTON RD, COLBERT, GA, 30628",5021910,"L"
292063,"797 LITTLEJOHN RD","JACKSONVILLE","AL",36265,33.86342267,-85.808096334,63,"797 LITTLEJOHN RD, JACKSONVILLE, AL, 36265","Match","Exact","797 LITTLEJOHN RD, JACKSONVILLE, AL, 36265",66588655,"L"
292064,"797 NORTHFIELD","BEDFORD","OH",44146,41.3924724020001,-81.5264012979999,64,"797 NORTHFIELD, BEDFORD, OH, 44146","Match","Non_Exact","797 NORTHFIELD RD, BEDFORD, OH, 44146",613728275,"L"
292065,"797 OCEAN AVE","BROOKLYN","NY",11226,40.6430951930001,-73.959671209,65,"797 OCEAN AVE, BROOKLYN, NY, 11226","Match","Exact","797 OCEAN AVE, BROOKLYN, NY, 11226",59081039,"L"
292066,"797 ROUTE 16","PIASA","IL",62079,NA,NA,66,"797 ROUTE 16, PIASA, IL, 62079","No_Match",NA,NA,NA,NA
292067,"797 SE 78TH AVE","HILLSBORO","OR",97123,45.5141450190001,-122.900753968,67,"797 SE 78TH AVE, HILLSBORO, OR, 97123","Match","Exact","797 SE 78TH AVE, HILLSBORO, OR, 97123",649096838,"R"
292068,"797 ST ALBANS DR","BOCA RATON","FL",33486,26.364386579,-80.1017897,68,"797 ST ALBANS DR, BOCA RATON, FL, 33486","Match","Exact","797 SAINT ALBANS DR, BOCA RATON, FL, 33486",115302352,"R"
292069,"797 SUMMERFIELD AVENUE","SOUTH AMBOY","NJ",8879,40.4585160030001,-74.2512428599999,69,"797 SUMMERFIELD AVENUE, SOUTH AMBOY, NJ, 8879","Match","Exact","797 SUMMERFIELD AVE, SOUTH AMBOY, NJ, 08879",60284772,"R"
292070,"797 SW WOOD CREEK DR","PALM CITY","FL",34990,27.1959584090001,-80.2987315569999,70,"797 SW WOOD CREEK DR, PALM CITY, FL, 34990","Match","Non_Exact","797 SW WOODCREEK DR, PALM CITY, FL, 34990",120421788,"R"
292071,"797 VALLEY ROAD","CLIFTON","NJ",7013,40.872873713,-74.1880405759999,71,"797 VALLEY ROAD, CLIFTON, NJ, 7013","Match","Exact","797 VALLEY RD, CLIFTON, NJ, 07013",65269502,"L"
292072,"797 W BROOKVILLE ROAD","FOUNTAINTOWN","IN",46130,39.6979851790001,-85.795456879,72,"797 W BROOKVILLE ROAD, FOUNTAINTOWN, IN, 46130","Match","Exact","797 W BROOKVILLE RD, FOUNTAINTOWN, IN, 46130",33232496,"L"
292073,"797 WETSTONE PL","SANFORD","FL",32771,28.8227257940001,-81.3469973859999,73,"797 WETSTONE PL, SANFORD, FL, 32771","Match","Exact","797 WETSTONE PL, SANFORD, FL, 32771",93785669,"L"
292074,"7970 BIG TOP DRIVE","LAS VEGAS","NV",89123,36.044869019,-115.141214743,74,"7970 BIG TOP DRIVE, LAS VEGAS, NV, 89123","Match","Exact","7970 BIG TOP DR, LAS VEGAS, NV, 89123",201902965,"L"
292075,"7970 CROWNSWAY","GLEN BURNIE","MD",21061,39.1332189280001,-76.615122151,75,"7970 CROWNSWAY, GLEN BURNIE, MD, 21061","Match","Exact","7970 CROWNSWAY, GLEN BURNIE, MD, 21061",68159202,"R"
292076,"7970 FREDERICKSBURG RD STE 101-326","SAN ANTONIO","TX",78229,29.5121144550001,-98.5683389979999,76,"7970 FREDERICKSBURG RD STE 101-326, SAN ANTONIO, TX, 78229","Match","Exact","7970 FREDERICKSBURG RD, SAN ANTONIO, TX, 78229",650134971,"R"
292077,"7970 FREDERICKSBURG RD STE 101-336","SAN ANTONIO","TX",78229,29.5121144550001,-98.5683389979999,77,"7970 FREDERICKSBURG RD STE 101-336, SAN ANTONIO, TX, 78229","Match","Exact","7970 FREDERICKSBURG RD, SAN ANTONIO, TX, 78229",650134971,"R"
292078,"7970 FREDERICKSBURG RD STE 101-93","SAN ANTONIO","TX",78229,29.5121144550001,-98.5683389979999,78,"7970 FREDERICKSBURG RD STE 101-93, SAN ANTONIO, TX, 78229","Match","Exact","7970 FREDERICKSBURG RD, SAN ANTONIO, TX, 78229",650134971,"R"
292079,"7970 NEW SALEM STREET","SAN DIEGO","CA",92126,32.9158344100001,-117.150702803,79,"7970 NEW SALEM STREET, SAN DIEGO, CA, 92126","Match","Exact","7970 NEW SALEM ST, SAN DIEGO, CA, 92126",195300961,"L"
292080,"7970 SEYMOUR ST","RALSTON","NE",68127,41.210766978,-96.038173173,80,"7970 SEYMOUR ST, RALSTON, NE, 68127","Match","Exact","7970 SEYMOUR ST, RALSTON, NE, 68127",116982452,"R"
292081,"7970 VICTORIA WAY","WEEKI WACHEE","FL",34613,28.5414509230001,-82.574314043,81,"7970 VICTORIA WAY, WEEKI WACHEE, FL, 34613","Match","Exact","7970 VICTORIA WAY, WEEKI WACHEE, FL, 34613",85425183,"R"
292082,"7971  NARROW LEAF DR","BLACKLICK","OH",43004,40.015858935,-82.779669374,82,"7971  NARROW LEAF DR, BLACKLICK, OH, 43004","Match","Non_Exact","7971 NARROWLEAF DR, BLACKLICK, OH, 43004",646888172,"R"
292083,"7971 BENJAMIN DRIVE","INDIANAPOLIS","IN",46226,39.850173295,-86.0285804059999,83,"7971 BENJAMIN DRIVE, INDIANAPOLIS, IN, 46226","Match","Exact","7971 BENJAMIN DR, INDIANAPOLIS, IN, 46226",108054769,"R"
292084,"7971 BREEZY MEADOWS LANE","BARTLETT","TN",38135,35.2500781140001,-89.797024832,84,"7971 BREEZY MEADOWS LANE, BARTLETT, TN, 38135","Match","Exact","7971 BREEZY MEADOWS LN, BARTLETT, TN, 38135",72974755,"L"
292085,"7971 GALLOPING HILLS ST","LAS VEGAS","NV",89113,36.0433167080001,-115.251630877,85,"7971 GALLOPING HILLS ST, LAS VEGAS, NV, 89113","Match","Exact","7971 GALLOPING HILLS ST, LAS VEGAS, NV, 89113",202004013,"R"
292086,"7971 NORTH JADE DRIVE","ST GEORGE","UT",84770,37.2505444820001,-113.618865431,86,"7971 NORTH JADE DRIVE, ST GEORGE, UT, 84770","Match","Exact","7971 N JADE DR, SAINT GEORGE, UT, 84770",166187796,"R"
292087,"7971 NW 179 ST","HIALEAH","FL",33015,25.936588602,-80.3307860049999,87,"7971 NW 179 ST, HIALEAH, FL, 33015","Match","Exact","7971 NW 179TH ST, HIALEAH, FL, 33015",116022446,"R"
292088,"7971 RIVIERA BOULEVARD STE 105","MIRAMAR","FL",33023,25.9734475070001,-80.2378868449999,88,"7971 RIVIERA BOULEVARD STE 105, MIRAMAR, FL, 33023","Match","Non_Exact","7971 RIVIERO BLVD, MIRAMAR, FL, 33023",629879527,"R"
292089,"7971 YORKTOWN AVE SUITE 114","HUNTINGTON BEACH","CA",92648,33.6795573570001,-117.989456668,89,"7971 YORKTOWN AVE SUITE 114, HUNTINGTON BEACH, CA, 92648","Match","Exact","7971 YORKTOWN AVE, HUNTINGTON BEACH, CA, 92648",632123237,"L"
292090,"7972 JOLAIN DRIVE","MONTGOMERY","OH",45242,39.238250253,-84.352955725,90,"7972 JOLAIN DRIVE, MONTGOMERY, OH, 45242","Match","Exact","7972 JOLAIN DR, MONTGOMERY, OH, 45242",103938469,"L"
292091,"7972 LEWISTON RD","BATAVIA","NY",14020,43.02794829,-78.230002384,91,"7972 LEWISTON RD, BATAVIA, NY, 14020","Match","Exact","7972 LEWISTON RD, BATAVIA, NY, 14020",638067324,"L"
292092,"7972 LOGAN RD","HARTVILLE","MO",65667,37.344610759,-92.525443126,92,"7972 LOGAN RD, HARTVILLE, MO, 65667","Match","Exact","7972 LOGAN RD, HARTVILLE, MO, 65667",26662055,"R"
292093,"7972 LOUISIANA AVENUE NORTH","BROOKLYN PARK","MN",55445,45.0998879630001,-93.372260495,93,"7972 LOUISIANA AVENUE NORTH, BROOKLYN PARK, MN, 55445","Match","Exact","7972 LOUISIANA AVE N, BROOKLYN PARK, MN, 55445",43828462,"R"
292094,"7972 PINES BLVD 245723","PEMBROKE PINES","FL",33024,NA,NA,94,"7972 PINES BLVD 245723, PEMBROKE PINES, FL, 33024","No_Match",NA,NA,NA,NA
292095,"7972 PINES BLVD 246025","HOLLYWOOD","FL",33024,NA,NA,95,"7972 PINES BLVD 246025, HOLLYWOOD, FL, 33024","No_Match",NA,NA,NA,NA
292096,"7972 PINES BLVD","PEMBROKES PINES","FL",33024,NA,NA,96,"7972 PINES BLVD, PEMBROKES PINES, FL, 33024","No_Match",NA,NA,NA,NA
292097,"7972 TRES ARROYOS DRIVE","SPARKS","NV",89436,NA,NA,97,"7972 TRES ARROYOS DRIVE, SPARKS, NV, 89436","Tie",NA,NA,NA,NA
292098,"7972 W APPLETON AVE","MILWAUKEE","WI",53218,43.0998270520001,-88.0119989199999,98,"7972 W APPLETON AVE, MILWAUKEE, WI, 53218","Match","Exact","7972 W APPLETON AVE, MILWAUKEE, WI, 53218",77730152,"R"
292099,"7972 W CARON DR","PEORIA","AZ",85345,33.5672540670001,-112.230359888,99,"7972 W CARON DR, PEORIA, AZ, 85345","Match","Exact","7972 W CARON DR, PEORIA, AZ, 85345",128415924,"L"
292100,"7973 ALAMOSA LANE","INDIANAPOLIS","IN",46236,39.9005033330001,-85.938891846,100,"7973 ALAMOSA LANE, INDIANAPOLIS, IN, 46236","Match","Exact","7973 ALAMOSA LN, INDIANAPOLIS, IN, 46236",108057981,"R"
292101,"7973 ESTA LANE","ORLANDO","FL",32827,28.394011386,-81.27303678,101,"7973 ESTA LANE, ORLANDO, FL, 32827","Match","Exact","7973 ESTA LN, ORLANDO, FL, 32827",632165564,"L"
292102,"797381 MAMALAHOA HIGHWAY","KEALAKEKUA","HI",96750,NA,NA,102,"797381 MAMALAHOA HIGHWAY, KEALAKEKUA, HI, 96750","No_Match",NA,NA,NA,NA
292103,"7974 HEATH ROAD","WAVERLY","AL",36879,32.7202139680001,-85.507396581,103,"7974 HEATH ROAD, WAVERLY, AL, 36879","Match","Exact","7974 HEATH RD, WAVERLY, AL, 36879",1594005,"R"
292104,"7974 SPIVEY RD","JONESBORO","GA",30236,33.537199302,-84.287671428,104,"7974 SPIVEY RD, JONESBORO, GA, 30236","Match","Exact","7974 SPIVEY RD, JONESBORO, GA, 30236",23196765,"L"
292105,"7975 N CEDAR AVE STE 103","FRESNO","CA",93720,36.8516488010001,-119.756750127,105,"7975 N CEDAR AVE STE 103, FRESNO, CA, 93720","Match","Non_Exact","7975 N CEDAR AVE, FRESNO, CA, 93720",197591883,"L"
292106,"7975 N HAYDEN ROAD SUITE D-354","SCOTTSDALE","AZ",85258,33.553754333,-111.898658789,106,"7975 N HAYDEN ROAD SUITE D-354, SCOTTSDALE, AZ, 85258","Match","Non_Exact","7975 N HAYDEN RD, SCOTTSDALE, AZ, 85258",612232944,"R"
292107,"7975 RAYTHEON RD SUITE 310","SAN DIEGO","CA",92111,32.830878399,-117.150738983,107,"7975 RAYTHEON RD SUITE 310, SAN DIEGO, CA, 92111","Match","Exact","7975 RAYTHEON RD, SAN DIEGO, CA, 92111",195305236,"R"
292108,"7975 STONE CREEK DRIVE SUITE 120","CHANHASSEN","MN",55317,44.8611396270001,-93.57210087,108,"7975 STONE CREEK DRIVE SUITE 120, CHANHASSEN, MN, 55317","Match","Exact","7975 STONE CREEK DR, CHANHASSEN, MN, 55317",43520096,"L"
292109,"7975 STONEBROOK PKWY","FRISCO","TX",75034,33.139941837,-96.8146510559999,109,"7975 STONEBROOK PKWY, FRISCO, TX, 75034","Match","Exact","7975 STONEBROOK PKWY, FRISCO, TX, 75034",210474968,"L"
292110,"7975 SW 199 TERRACE","CUTLER BAY","FL",33189,25.5817053870001,-80.320966536,110,"7975 SW 199 TERRACE, CUTLER BAY, FL, 33189","Match","Exact","7975 SW 199TH TER, CUTLER BAY, FL, 33189",115996832,"R"
292111,"7975 TROPHY CLUB DR S","INDIANAPOLIS","IN",46214,NA,NA,111,"7975 TROPHY CLUB DR S, INDIANAPOLIS, IN, 46214","No_Match",NA,NA,NA,NA
292112,"7975 WOODARD RD","RIVES JUNCTION","MI",49277,42.3729913650001,-84.540360274,112,"7975 WOODARD RD, RIVES JUNCTION, MI, 49277","Match","Exact","7975 WOODARD RD, RIVES JUNCTION, MI, 49277",17613883,"L"
292113,"7976 EAST KEMPER RD","CINCINNATI","OH",45249,39.279136943,-84.3456200749999,113,"7976 EAST KEMPER RD, CINCINNATI, OH, 45249","Match","Exact","7976 E KEMPER RD, CINCINNATI, OH, 45249",103973749,"L"
292114,"7976 HAMPTON COVE DRIVE","OOLTEWAH","TN",37363,35.148556183,-85.067057893,114,"7976 HAMPTON COVE DRIVE, OOLTEWAH, TN, 37363","Match","Exact","7976 HAMPTON COVE DR, OOLTEWAH, TN, 37363",647298866,"L"
292115,"7976 S SHOWCASE LANE","SANDY","UT",84094,40.6065543730001,-111.859394427,115,"7976 S SHOWCASE LANE, SANDY, UT, 84094","Match","Exact","7976 SHOWCASE LN, SANDY, UT, 84094",609020133,"L"
292116,"7977 CAPWELL DR SUITE 201","OAKLAND","CA",94621,37.7392847180001,-122.203605581,116,"7977 CAPWELL DR SUITE 201, OAKLAND, CA, 94621","Match","Exact","7977 CAPWELL DR, OAKLAND, CA, 94621",125050063,"R"
292117,"7977 PROVIDENT STREET","PHILADELPHIA","PA",19150,40.074527038,-75.1649334859999,117,"7977 PROVIDENT STREET, PHILADELPHIA, PA, 19150","Match","Non_Exact","7977 PROVIDENT RD, PHILADELPHIA, PA, 19150",131395041,"R"
292118,"7977 S SHORESIDE DR","TRAVERSE CITY","MI",49684,44.863215166,-85.6532790749999,118,"7977 S SHORESIDE DR, TRAVERSE CITY, MI, 49684","Match","Non_Exact","7979 S SHORESIDE DR, TRAVERSE CITY, MI, 49684",145982765,"R"
292119,"7977 SUMMIT DRIVE","DELAVAN","WI",53115,42.5950027650001,-88.656347091,119,"7977 SUMMIT DRIVE, DELAVAN, WI, 53115","Match","Exact","7977 SUMMIT DR, DELAVAN, WI, 53115",53685905,"R"
292120,"7977 SW INTERMARK ST  APT D","PORTLAND","OR",97225,45.5065322830001,-122.75919926,120,"7977 SW INTERMARK ST  APT D, PORTLAND, OR, 97225","Match","Non_Exact","7977 SW INTERMARK ST, PORTLAND, OR, 97225",158221569,"R"
292121,"7977 VISTA DEL ROSA ST","DOWNEY","CA",90240,33.966784879,-118.118647644,121,"7977 VISTA DEL ROSA ST, DOWNEY, CA, 90240","Match","Exact","7977 VISTA DEL ROSA ST, DOWNEY, CA, 90240",141737897,"L"
292122,"7977 W FISH LAKE RD","MAPLE GROVE","MN",55311,45.0994905430001,-93.4685165559999,122,"7977 W FISH LAKE RD, MAPLE GROVE, MN, 55311","Match","Exact","7977 W FISH LAKE RD, MAPLE GROVE, MN, 55311",639213287,"L"
292123,"7977 W FISH LAKE RD","MAPLE GROVE","MN",55446,45.0994905430001,-93.4685165559999,123,"7977 W FISH LAKE RD, MAPLE GROVE, MN, 55446","Match","Non_Exact","7977 W FISH LAKE RD, MAPLE GROVE, MN, 55311",639213287,"L"
292124,"7978 LINDA VISTA RD APT 18","SAN DIEGO","CA",92111,NA,NA,124,"7978 LINDA VISTA RD APT 18, SAN DIEGO, CA, 92111","No_Match",NA,NA,NA,NA
292125,"7978","PLEASANTON","CA",94588,NA,NA,125,"7978, PLEASANTON, CA, 94588","No_Match",NA,NA,NA,NA
292126,"7979 E R L THORNTON FREEWAY","DALLAS","TX",75228,NA,NA,126,"7979 E R L THORNTON FREEWAY, DALLAS, TX, 75228","No_Match",NA,NA,NA,NA
292127,"7979 FARRANT ST","COMMERCE TWP","MI",48382,42.6052894600001,-83.4415695609999,127,"7979 FARRANT ST, COMMERCE TWP, MI, 48382","Match","Exact","7979 FARRANT ST, COMMERCE TOWNSHIP, MI, 48382",69695220,"L"
292128,"7979 INWOOD RD","DALLAS","TX",75209,32.8525037750001,-96.821289739,128,"7979 INWOOD RD, DALLAS, TX, 75209","Match","Exact","7979 INWOOD RD, DALLAS, TX, 75209",102903499,"L"
292129,"7979 MONROE ROAD","LAMBERTVILLE","MI",48144,41.756902698,-83.635690499,129,"7979 MONROE ROAD, LAMBERTVILLE, MI, 48144","Match","Exact","7979 MONROE RD, LAMBERTVILLE, MI, 48144",40495006,"L"
292130,"7979 OLD GEORGETOWN ROAD 10TH FLOOR","BETHESDA","MD",20814,38.9891422060001,-77.1015242839999,130,"7979 OLD GEORGETOWN ROAD 10TH FLOOR, BETHESDA, MD, 20814","Match","Non_Exact","7979 OLD GEORGETOWN RD, BETHESDA, MD, 20814",62065458,"R"
292131,"7979 PEARL ROAD","STRONGSVILLE","OH",44136,41.3495913140001,-81.821276828,131,"7979 PEARL ROAD, STRONGSVILLE, OH, 44136","Match","Exact","7979 PEARL RD, STRONGSVILLE, OH, 44136",61131284,"L"
292132,"7979 SCHOOLSIDE DRIVE","WESTERVILLE","OH",43081,40.1296475890001,-82.981780648,132,"7979 SCHOOLSIDE DRIVE, WESTERVILLE, OH, 43081","Match","Exact","7979 SCHOOLSIDE DR, WESTERVILLE, OH, 43081",218663821,"R"
292133,"798 ABETO STREET","PALM BAY","FL",32905,28.0159897770001,-80.5767091279999,133,"798 ABETO STREET, PALM BAY, FL, 32905","Match","Non_Exact","798 ABETO ST NE, PALM BAY, FL, 32905",93911840,"R"
292134,"798 BERRY ROAD UNIT 41094","NASHVILLE","TN",37204,36.119421688,-86.7720666179999,134,"798 BERRY ROAD UNIT 41094, NASHVILLE, TN, 37204","Match","Exact","798 BERRY RD, NASHVILLE, TN, 37204",97231857,"L"
292135,"798 BLUEBERRY DRIVE","WELLINGTON","FL",33414,26.6701967720001,-80.2806825869999,135,"798 BLUEBERRY DRIVE, WELLINGTON, FL, 33414","Match","Exact","798 BLUEBERRY DR, WELLINGTON, FL, 33414",115255442,"L"
292136,"798 BRIDGEWATER ST SW","ATLANTA","GA",30310,33.702965271,-84.4148873999999,136,"798 BRIDGEWATER ST SW, ATLANTA, GA, 30310","Match","Exact","798 BRIDGEWATER ST SW, ATLANTA, GA, 30310",17345788,"L"
292137,"798 CHURCH HILL ROAD","CHURCH HILL","MS",39120,NA,NA,137,"798 CHURCH HILL ROAD, CHURCH HILL, MS, 39120","No_Match",NA,NA,NA,NA
292138,"798 CLYDE DOWNS RD","FRANKLIN","NC",28734,35.222649178,-83.373362873,138,"798 CLYDE DOWNS RD, FRANKLIN, NC, 28734","Match","Exact","798 CLYDE DOWNS RD, FRANKLIN, NC, 28734",35521950,"L"
292139,"798 FOXHOUND DRIVE","PORT ORANGE","FL",32128,29.080662682,-81.021911188,139,"798 FOXHOUND DRIVE, PORT ORANGE, FL, 32128","Match","Exact","798 FOXHOUND DR, PORT ORANGE, FL, 32128",94560039,"L"
292140,"798 HUBBARD ROAD","DAWSONVILLE","GA",30534,34.4468875360001,-84.249161188,140,"798 HUBBARD ROAD, DAWSONVILLE, GA, 30534","Match","Exact","798 HUBBARD RD, DAWSONVILLE, GA, 30534",627202775,"R"
292141,"798 KAINUI DRIVE","KAILUA","HI",96734,21.4073431510001,-157.754750809,141,"798 KAINUI DRIVE, KAILUA, HI, 96734","Match","Exact","798 KAINUI DR, KAILUA, HI, 96734",203333824,"R"
292142,"798 MARTIN STREET SE","ATLANTA","GA",30315,33.732754217,-84.384317547,142,"798 MARTIN STREET SE, ATLANTA, GA, 30315","Match","Exact","798 MARTIN ST SE, ATLANTA, GA, 30315",17346421,"L"
292143,"798 MEADOW PARK DR","MINNEOLA","FL",34715,28.592638842,-81.760037756,143,"798 MEADOW PARK DR, MINNEOLA, FL, 34715","Match","Exact","798 MEADOW PARK DR, MINNEOLA, FL, 34715",94186471,"R"
292144,"798 MILLERWOOD DR","LEBANON","IN",46052,40.060040078,-86.45910882,144,"798 MILLERWOOD DR, LEBANON, IN, 46052","Match","Exact","798 MILLERWOOD DR, LEBANON, IN, 46052",29256483,"R"
292145,"798 NW 62ND STREET","MIAMI","FL",33127,25.8322233170001,-80.210357787,145,"798 NW 62ND STREET, MIAMI, FL, 33127","Match","Non_Exact","798 NW 62ND ST, MIAMI, FL, 33150",116004824,"L"
292146,"798 OAK STREET","ASHLAND","OR",97520,42.2067315030001,-122.70937481,146,"798 OAK STREET, ASHLAND, OR, 97520","Match","Exact","798 OAK ST, ASHLAND, OR, 97520",649918259,"R"
292147,"798 RAYS RD STE 106","STONE MTN","GA",30083,33.8013802670001,-84.2203471139999,147,"798 RAYS RD STE 106, STONE MTN, GA, 30083","Match","Exact","798 RAYS RD, STONE MOUNTAIN, GA, 30083",23364172,"L"
292148,"798 ROSELAWN AVE","AKRON","OH",44306,41.0718528940001,-81.4950585999999,148,"798 ROSELAWN AVE, AKRON, OH, 44306","Match","Exact","798 ROSELAWN AVE, AKRON, OH, 44306",61350357,"R"
292149,"798 SAMPSON","KYLE","TX",78640,30.0149823400001,-97.874762719,149,"798 SAMPSON, KYLE, TX, 78640","Match","Exact","798 SAMPSON, KYLE, TX, 78640",627740179,"L"
292150,"798 STRAWBERRY HILL RD","CONCORD","MA",1742,42.490269448,-71.391958237,150,"798 STRAWBERRY HILL RD, CONCORD, MA, 1742","Match","Exact","798 STRAWBERRY HILL RD, CONCORD, MA, 01742",86934280,"L"
292151,"798 TAMERLANE STREET","DELTONA","FL",32725,28.906395764,-81.2552895699999,151,"798 TAMERLANE STREET, DELTONA, FL, 32725","Match","Exact","798 TAMERLANE ST, DELTONA, FL, 32725",94519432,"L"
292152,"798 WALLINGFORD ROAD","LITITZ","PA",17543,40.107644398,-76.285463539,152,"798 WALLINGFORD ROAD, LITITZ, PA, 17543","Match","Exact","798 WALLINGFORD RD, LITITZ, PA, 17543",650024196,"L"
292153,"798 WARDFIELD RD","VANCEBORO","NC",28586,35.3056545850001,-77.210178965,153,"798 WARDFIELD RD, VANCEBORO, NC, 28586","Match","Non_Exact","798 WARD FIELD RD, VANCEBORO, NC, 28586",636536233,"L"
292154,"798 WHITEVILLE ROAD","MT. PLEASANT","MI",48858,NA,NA,154,"798 WHITEVILLE ROAD, MT. PLEASANT, MI, 48858","Tie",NA,NA,NA,NA
292155,"798 WINESAP","ROCHESTER HILLS","MI",48307,42.6720465970001,-83.100748405,155,"798 WINESAP, ROCHESTER HILLS, MI, 48307","Match","Exact","798 WINESAP, ROCHESTER HILLS, MI, 48307",69840282,"L"
292156,"798 WOLVERINE DR","WOLVERINE LAKE","MI",48390,42.551799714,-83.48975494,156,"798 WOLVERINE DR, WOLVERINE LAKE, MI, 48390","Match","Exact","798 WOLVERINE DR, WOLVERINE LAKE, MI, 48390",69774401,"R"
292157,"7980 ALMEDA GENOA RD","HOUSTON","TX",77075,29.6257010740001,-95.2797612689999,157,"7980 ALMEDA GENOA RD, HOUSTON, TX, 77075","Match","Non_Exact","7980 ALMEDA-GENOA RD, HOUSTON, TX, 77075",96593990,"R"
292158,"7980 CADIZ RD","HOPKINSVILLE","KY",42240,36.882550022,-87.6194160479999,158,"7980 CADIZ RD, HOPKINSVILLE, KY, 42240","Match","Exact","7980 CADIZ RD, HOPKINSVILLE, KY, 42240",11292769,"L"
292159,"7980 CLEARVIEW CIRCLE","RIVERDALE","GA",30296,33.541328449,-84.430661588,159,"7980 CLEARVIEW CIRCLE, RIVERDALE, GA, 30296","Match","Exact","7980 CLEARVIEW CIR, RIVERDALE, GA, 30296",23330923,"L"
292160,"7980 E US HIGHWAY 223","BLISSFIELD","MI",49228,41.8416354080001,-83.905455742,160,"7980 E US HIGHWAY 223, BLISSFIELD, MI, 49228","Match","Exact","7980 US HWY 223, BLISSFIELD, MI, 49228",25949298,"R"
292161,"7980 HAWTHORNE AVE","MIAMI BEACH","FL",33141,25.8656160640001,-80.1285472019999,161,"7980 HAWTHORNE AVE, MIAMI BEACH, FL, 33141","Match","Exact","7980 HAWTHORNE AVE, MIAMI BEACH, FL, 33141",116008333,"L"
292162,"7980 INVERNESS WAY","DULUTH","GA",30097,34.068697721,-84.146322429,162,"7980 INVERNESS WAY, DULUTH, GA, 30097","Match","Exact","7980 INVERNESS WAY, DULUTH, GA, 30097",649036058,"R"
292163,"7980 LONG RUN ROAD","ATHENS","OH",45701,39.3128586730001,-82.063784013,163,"7980 LONG RUN ROAD, ATHENS, OH, 45701","Match","Exact","7980 LONG RUN RD, ATHENS, OH, 45701",635532660,"R"
292164,"7980 SCENIC HIGHWAY","BATON ROUGE","LA",70807,NA,NA,164,"7980 SCENIC HIGHWAY, BATON ROUGE, LA, 70807","No_Match",NA,NA,NA,NA
292165,"7981 MONARCH CT","DELRAY BEACH","FL",33446,26.480043859,-80.1707531179999,165,"7981 MONARCH CT, DELRAY BEACH, FL, 33446","Match","Exact","7981 MONARCH CT, DELRAY BEACH, FL, 33446",115567708,"R"
292166,"7981 N 875 W","INDIANAPOLIS","IN",46259,39.638031347,-85.947496896,166,"7981 N 875 W, INDIANAPOLIS, IN, 46259","Match","Exact","7981 N 875 W, INDIANAPOLIS, IN, 46259",647388698,"R"
292167,"7982 HILLSBORO COURT","PLEASANTON","CA",94588,37.684790724,-121.928385867,167,"7982 HILLSBORO COURT, PLEASANTON, CA, 94588","Match","Exact","7982 HILLSBORO CT, PLEASANTON, CA, 94588",125017168,"L"
292168,"7982 NW 51ST COURT","LAUDERHILL","FL",33351,26.189026611,-80.256804632,168,"7982 NW 51ST COURT, LAUDERHILL, FL, 33351","Match","Exact","7982 NW 51ST CT, LAUDERHILL, FL, 33351",114752186,"L"
292169,"79821 PARKWAY ESPLANDE S","LA QUINTA","CA",92253,33.7299048080001,-116.271690561,169,"79821 PARKWAY ESPLANDE S, LA QUINTA, CA, 92253","Match","Non_Exact","79821 PARKWAY ESPLANADE S, LA QUINTA, CA, 92253",195095794,"L"
292170,"7983 SOUTH GRANT STREET","MIDVALE","UT",84047,40.606370161,-111.89667,170,"7983 SOUTH GRANT STREET, MIDVALE, UT, 84047","Match","Exact","7983 S GRANT ST, MIDVALE, UT, 84047",176085407,"L"
292171,"7984 HELSTON DR","JACKSONVILLE","FL",32208,30.3933592230001,-81.6953289859999,171,"7984 HELSTON DR, JACKSONVILLE, FL, 32208","Match","Exact","7984 HELSTON DR, JACKSONVILLE, FL, 32208",83891778,"R"
292172,"7984 SPRING LAKE DR","SHAKOPEE","MN",55379,44.7666240550001,-93.416321225,172,"7984 SPRING LAKE DR, SHAKOPEE, MN, 55379","Match","Exact","7984 SPRING LAKE DR, SHAKOPEE, MN, 55379",648643299,"R"
292173,"7984 UNIVERSITY AVENUE NE","FRIDLEY","MN",55432,NA,NA,173,"7984 UNIVERSITY AVENUE NE, FRIDLEY, MN, 55432","No_Match",NA,NA,NA,NA
292174,"7985 BUENA VISTA DR","DENVER","NC",28037,35.526291762,-80.967761572,174,"7985 BUENA VISTA DR, DENVER, NC, 28037","Match","Exact","7985 BUENA VISTA DR, DENVER, NC, 28037",69539849,"L"
292175,"7985 MACARTHUR BLVD  8","OAKLAND","CA",94605,37.764007087,-122.166062929,175,"7985 MACARTHUR BLVD  8, OAKLAND, CA, 94605","Match","Exact","7985 MACARTHUR BLVD, OAKLAND, CA, 94605",125038475,"R"
292176,"7985 OAK HILL DRIVE","CHELTENHAM","PA",19012,40.0645250040001,-75.100536617,176,"7985 OAK HILL DRIVE, CHELTENHAM, PA, 19012","Match","Exact","7985 OAK HILL DR, CHELTENHAM, PA, 19012",135096153,"R"
292177,"7985 SOUTHAVEN CIR W","SOUTHAVEN","MS",38671,34.9771030790001,-90.0218113719999,177,"7985 SOUTHAVEN CIR W, SOUTHAVEN, MS, 38671","Match","Exact","7985 SOUTHAVEN CIR W, SOUTHAVEN, MS, 38671",91824187,"L"
292178,"7985 TRIBUTE DR","NEENAH","WI",54956,44.1812510030001,-88.5520019799999,178,"7985 TRIBUTE DR, NEENAH, WI, 54956","Match","Exact","7985 TRIBUTE DR, NEENAH, WI, 54956",617908919,"L"
292179,"7986 COPPERFIELD WAY","MANASSAS","VA",20109,38.783510166,-77.5268965659999,179,"7986 COPPERFIELD WAY, MANASSAS, VA, 20109","Match","Exact","7986 COPPERFIELD WAY, MANASSAS, VA, 20109",207160220,"R"
292180,"7986 ELLIOTT DR","MECHANICSVILLE","VA",23111,37.6160737370001,-77.3322837709999,180,"7986 ELLIOTT DR, MECHANICSVILLE, VA, 23111","Match","Exact","7986 ELLIOTT DR, MECHANICSVILLE, VA, 23111",84962654,"R"
292181,"7986 NW 19TH CT","HOLLYWOOD","FL",33024,26.0265133400001,-80.247605358,181,"7986 NW 19TH CT, HOLLYWOOD, FL, 33024","Match","Exact","7986 NW 19TH CT, HOLLYWOOD, FL, 33024",606184427,"L"
292182,"7986 PEACH POINT AVE","SAN DIEGO","CA",92126,32.9188073460001,-117.150903142,182,"7986 PEACH POINT AVE, SAN DIEGO, CA, 92126","Match","Exact","7986 PEACH POINT AVE, SAN DIEGO, CA, 92126",640047959,"L"
292183,"7986 PLAINS ROAD","MENTOR","OH",44060,41.7076868620001,-81.354364378,183,"7986 PLAINS ROAD, MENTOR, OH, 44060","Match","Exact","7986 PLAINS RD, MENTOR, OH, 44060",137462171,"R"
292184,"7987 HIGHWAY 17","WINNSBORO","LA",71295,32.1821106360001,-91.6718460819999,184,"7987 HIGHWAY 17, WINNSBORO, LA, 71295","Match","Exact","7987 HWY 17, WINNSBORO, LA, 71295",160877151,"R"
292185,"7987 MERRINGTON PLACE","SAN DIEGO","CA",92126,32.9201910370001,-117.150910312,185,"7987 MERRINGTON PLACE, SAN DIEGO, CA, 92126","Match","Exact","7987 MERRINGTON PL, SAN DIEGO, CA, 92126",195300692,"R"
292186,"7987 THRUSH COURT","FREDERICK","MD",21701,39.452591124,-77.3746630429999,186,"7987 THRUSH COURT, FREDERICK, MD, 21701","Match","Exact","7987 THRUSH CT, FREDERICK, MD, 21701",60741134,"L"
292187,"7988 COUNTY ROAD HH","ARPIN","WI",54410,NA,NA,187,"7988 COUNTY ROAD HH, ARPIN, WI, 54410","No_Match",NA,NA,NA,NA
292188,"7988 FOLEY COURT","JACKSONVILLE","FL",32210,30.2745215530001,-81.780593267,188,"7988 FOLEY COURT, JACKSONVILLE, FL, 32210","Match","Exact","7988 FOLEY CT, JACKSONVILLE, FL, 32210",83938891,"L"
292189,"7989 B SOUTH MULBERRY DR","SHAW AFB 29152","SC",29152,NA,NA,189,"7989 B SOUTH MULBERRY DR, SHAW AFB 29152, SC, 29152","No_Match",NA,NA,NA,NA
292190,"7989 B SOUTH MULBERRY DR","SHAW AFB","SC",29152,NA,NA,190,"7989 B SOUTH MULBERRY DR, SHAW AFB, SC, 29152","No_Match",NA,NA,NA,NA
292191,"7989 BALLANTYNE WAY","COLUMBUS","GA",31909,32.5581167920001,-84.921277332,191,"7989 BALLANTYNE WAY, COLUMBUS, GA, 31909","Match","Exact","7989 BALLANTYNE WAY, COLUMBUS, GA, 31909",618102962,"L"
292192,"7989 BELTLINE ROAD SUITE 305 -518","DALLAS","TX",75248,32.9509253960001,-96.769410888,192,"7989 BELTLINE ROAD SUITE 305 -518, DALLAS, TX, 75248","Match","Non_Exact","7989 BELT LINE RD, DALLAS, TX, 75248",103273899,"L"
292193,"7989 GRIMSLEY GIBSON RD","MANSFIELD","TX",76063,32.5920756880001,-97.187080072,193,"7989 GRIMSLEY GIBSON RD, MANSFIELD, TX, 76063","Match","Exact","7989 GRIMSLEY GIBSON RD, MANSFIELD, TX, 76063",101904343,"L"
292194,"79892 WILLIAM STONE WAY","LA QUINTA","CA",92253,33.723236865,-116.270630297,194,"79892 WILLIAM STONE WAY, LA QUINTA, CA, 92253","Match","Exact","79892 WILLIAM STONE WAY, LA QUINTA, CA, 92253",195090813,"L"
292195,"799 BROMPTON LN","BOLINGBROOK","IL",60440,41.7070306640001,-88.1052385689999,195,"799 BROMPTON LN, BOLINGBROOK, IL, 60440","Match","Exact","799 BROMPTON LN, BOLINGBROOK, IL, 60440",111623974,"R"
292196,"799 CRANDON BLVD SUITE 703","KEY BISCAYNE","FL",33149,25.686026263,-80.162323721,196,"799 CRANDON BLVD SUITE 703, KEY BISCAYNE, FL, 33149","Match","Exact","799 CRANDON BLVD, KEY BISCAYNE, FL, 33149",116021378,"L"
292197,"799 CRYSTAL SPRINGS LN N","KEIZER","OR",97303,45.007470848,-123.035688952,197,"799 CRYSTAL SPRINGS LN N, KEIZER, OR, 97303","Match","Exact","799 CRYSTAL SPRINGS LN N, KEIZER, OR, 97303",156275428,"L"
292198,"799 E 8TH ST","BROOKLYN","NY",11230,40.6300140170001,-73.969068405,198,"799 E 8TH ST, BROOKLYN, NY, 11230","Match","Exact","799 E 8TH ST, BROOKLYN, NY, 11230",59081099,"L"
292199,"799 EARL LANE","PEA RIDGE","AR",72751,36.4342212560001,-94.125524159,199,"799 EARL LANE, PEA RIDGE, AR, 72751","Match","Exact","799 EARL LN, PEA RIDGE, AR, 72751",47876489,"R"
292200,"799 H STREET 744","ARCATA","CA",95521,40.868625336,-124.086940722,200,"799 H STREET 744, ARCATA, CA, 95521","Match","Exact","799 H ST, ARCATA, CA, 95521",112992387,"L"
292201,"799 KATHY DIANNE DRIVE","FORT MILL","SC",29707,34.939900202,-80.8533414299999,201,"799 KATHY DIANNE DRIVE, FORT MILL, SC, 29707","Match","Exact","799 KATHY DIANNE DR, FORT MILL, SC, 29707",648499005,"L"
292202,"799 LATIMORE CREEK ROAD","YORK SPRINGS","PA",17372,40.051086152,-77.099663119,202,"799 LATIMORE CREEK ROAD, YORK SPRINGS, PA, 17372","Match","Exact","799 LATIMORE CREEK RD, YORK SPRINGS, PA, 17372",635877986,"R"
292203,"799 MALIBU ST","HEMET","CA",92543,33.751891979,-116.979237252,203,"799 MALIBU ST, HEMET, CA, 92543","Match","Exact","799 MALIBU ST, HEMET, CA, 92543",194755779,"R"
292204,"799 MILSTEAD CT","LAS VEGAS","NV",89110,36.1736253230001,-115.038510136,204,"799 MILSTEAD CT, LAS VEGAS, NV, 89110","Match","Exact","799 MILSTEAD CT, LAS VEGAS, NV, 89110",201876701,"L"
292205,"799 MORELAND AVE SE","ATLANTA","IL",30316,NA,NA,205,"799 MORELAND AVE SE, ATLANTA, IL, 30316","No_Match",NA,NA,NA,NA
292206,"799 N HWY 25 W","WILLIAMSBURG","KY",40769,NA,NA,206,"799 N HWY 25 W, WILLIAMSBURG, KY, 40769","No_Match",NA,NA,NA,NA
292207,"799 PINE RIDGE DRIVE","STONE MOUNTAIN","GA",30087,33.77195305,-84.1218887859999,207,"799 PINE RIDGE DRIVE, STONE MOUNTAIN, GA, 30087","Match","Exact","799 PINE RIDGE DR, STONE MOUNTAIN, GA, 30087",623579257,"R"
292208,"799 ROOSEVELT ROAD SUITE 2-205","GLEN ELLYN","IL",60137,NA,NA,208,"799 ROOSEVELT ROAD SUITE 2-205, GLEN ELLYN, IL, 60137","No_Match",NA,NA,NA,NA
292209,"799 SERGEANT PALMATEER WAY APT C11","WAPPINGERS FALLS","NY",12690,NA,NA,209,"799 SERGEANT PALMATEER WAY APT C11, WAPPINGERS FALLS, NY, 12690","No_Match",NA,NA,NA,NA
292210,"799 SIBLEY MEMORIAL HWY","MENDOTA HEIGHTS","MN",55118,44.9052764360001,-93.1318818679999,210,"799 SIBLEY MEMORIAL HWY, MENDOTA HEIGHTS, MN, 55118","Match","Exact","799 SIBLEY MEMORIAL HWY, MENDOTA HEIGHTS, MN, 55118",637164257,"R"
292211,"799 SILVER LANE","TRUMBULL","CT",6611,41.2289140560001,-73.156938001,211,"799 SILVER LANE, TRUMBULL, CT, 6611","Match","Exact","799 SILVER LN, TRUMBULL, CT, 06611",3225996,"L"
292212,"799 STRUBLE RD","STATE COLLEGE","PA",16801,40.816691238,-77.804797956,212,"799 STRUBLE RD, STATE COLLEGE, PA, 16801","Match","Exact","799 STRUBLE RD, STATE COLLEGE, PA, 16801",628805814,"R"
292213,"799 SUPERIOR DR","FORISTELL","MO",63348,38.848170597,-90.943999793,213,"799 SUPERIOR DR, FORISTELL, MO, 63348","Match","Exact","799 SUPERIOR DR, FORISTELL, MO, 63348",100088163,"R"
292214,"799 WEST MAIN STREET","LIVINGSTON","TN",38570,36.377952721,-85.33514827,214,"799 WEST MAIN STREET, LIVINGSTON, TN, 38570","Match","Exact","799 W MAIN ST, LIVINGSTON, TN, 38570",611364418,"R"
292215,"799 WINGS MILL RD","MOUNT VERNON","ME",4352,44.437375079,-69.888181892,215,"799 WINGS MILL RD, MOUNT VERNON, ME, 4352","Match","Non_Exact","799 WINGS MILLS RD, MOUNT VERNON, ME, 04352",75481524,"R"
292216,"799 WINGS MILL ROAD","MOUNT VERNON","ME",4352,44.437375079,-69.888181892,216,"799 WINGS MILL ROAD, MOUNT VERNON, ME, 4352","Match","Non_Exact","799 WINGS MILLS RD, MOUNT VERNON, ME, 04352",75481524,"R"
292217,"799","SHEPHERDSTOWN","WV",25443,NA,NA,217,"799, SHEPHERDSTOWN, WV, 25443","No_Match",NA,NA,NA,NA
292218,"7990 ANDERSON AVENUE","MANHATTAN","KS",66503,39.2299041840001,-96.729289874,218,"7990 ANDERSON AVENUE, MANHATTAN, KS, 66503","Match","Exact","7990 ANDERSON AVE, MANHATTAN, KS, 66503",647249499,"R"
292219,"7990 BAYMEADOWS RD E UNIT 1303","JACKSONVILLE","FL",32256,30.226092194,-81.506400173,219,"7990 BAYMEADOWS RD E UNIT 1303, JACKSONVILLE, FL, 32256","Match","Exact","7990 BAYMEADOWS RD E, JACKSONVILLE, FL, 32256",83962343,"R"
292220,"7990 EAST SNYDER ROAD APT 20105","TUCSON","CA",85750,NA,NA,220,"7990 EAST SNYDER ROAD APT 20105, TUCSON, CA, 85750","No_Match",NA,NA,NA,NA
292221,"7990 EAST SNYDER ROAD UNIT 20202","TUCSON","AZ",95750,32.2943510850001,-110.821234564,221,"7990 EAST SNYDER ROAD UNIT 20202, TUCSON, AZ, 95750","Match","Non_Exact","7990 E SNYDER RD, TUCSON, AZ, 85750",121192454,"R"
292222,"7990 MANSFIELD HWY","KENNEDALE","TX",76060,32.6181217120001,-97.191184665,222,"7990 MANSFIELD HWY, KENNEDALE, TX, 76060","Match","Exact","7990 MANSFIELD HWY, KENNEDALE, TX, 76060",101962833,"R"
292223,"7990 NW MACE ROAD","KANSAS CITY","MO",64152,39.2397346220001,-94.6789143939999,223,"7990 NW MACE ROAD, KANSAS CITY, MO, 64152","Match","Exact","7990 NW MACE RD, KANSAS CITY, MO, 64152",39703958,"L"
292224,"7990 S TIGER BEND RD","BATON ROUGE","LA",70817,30.377424601,-90.971285585,224,"7990 S TIGER BEND RD, BATON ROUGE, LA, 70817","Match","Exact","7990 S TIGER BEND RD, BATON ROUGE, LA, 70817",92205603,"L"
292225,"7991 VEGAS CT","WEST CHESTER","OH",45069,39.3578262240001,-84.4699025689999,225,"7991 VEGAS CT, WEST CHESTER, OH, 45069","Match","Exact","7991 VEGAS CT, WEST CHESTER, OH, 45069",625354744,"L"
292226,"7992 BARRISTERS COURT","KIRTLAND","OH",44094,41.613751533,-81.355635833,226,"7992 BARRISTERS COURT, KIRTLAND, OH, 44094","Match","Non_Exact","7992 BARRISTER'S CT, KIRTLAND, OH, 44094",137476510,"L"
292227,"7992 TERRACE DRIVE","EL CERRITO","CA",94530,37.912993682,-122.289346017,227,"7992 TERRACE DRIVE, EL CERRITO, CA, 94530","Match","Exact","7992 TERRACE DR, EL CERRITO, CA, 94530",192044226,"R"
292228,"7992","EL CERRITO","CA",94530,NA,NA,228,"7992, EL CERRITO, CA, 94530","No_Match",NA,NA,NA,NA
292229,"7993 CRAWFORD FARMS DRIVE","BLACKLICK","OH",43004,39.9918370620001,-82.792183366,229,"7993 CRAWFORD FARMS DRIVE, BLACKLICK, OH, 43004","Match","Exact","7993 CRAWFORD FARMS DR, BLACKLICK, OH, 43004",135752725,"R"
292230,"7993 MEADOW DRIVE","MECHANICSVILLE","VA",23111,37.6156428310001,-77.3473907389999,230,"7993 MEADOW DRIVE, MECHANICSVILLE, VA, 23111","Match","Exact","7993 MEADOW DR, MECHANICSVILLE, VA, 23111",84962512,"R"
292231,"7993 SW 187TH STREET","CUTLER BAY","FL",33157,25.5942153300001,-80.3215162389999,231,"7993 SW 187TH STREET, CUTLER BAY, FL, 33157","Match","Exact","7993 SW 187TH ST, CUTLER BAY, FL, 33157",116084699,"L"
292232,"7993 VIA HOJA","CARLSBAD","CA",92009,33.068130625,-117.259604601,232,"7993 VIA HOJA, CARLSBAD, CA, 92009","Match","Exact","7993 VIA HOJA, CARLSBAD, CA, 92009",195451520,"R"
292233,"7995 HAVANA HWY","HAVANA","FL",32333,30.618030279,-84.438516334,233,"7995 HAVANA HWY, HAVANA, FL, 32333","Match","Exact","7995 HAVANA HWY, HAVANA, FL, 32333",614791507,"L"
292234,"7995 HWY 84 EAST","WAYNESBORO","MS",39367,NA,NA,234,"7995 HWY 84 EAST, WAYNESBORO, MS, 39367","No_Match",NA,NA,NA,NA
292235,"7995 NW 8TH STREET APT 107","MIAMI","FL",33126,NA,NA,235,"7995 NW 8TH STREET APT 107, MIAMI, FL, 33126","No_Match",NA,NA,NA,NA
292236,"7995 PINNACLE RIDGE DRIVE","MANASSAS","VA",20112,38.698384499,-77.436770257,236,"7995 PINNACLE RIDGE DRIVE, MANASSAS, VA, 20112","Match","Exact","7995 PINNACLE RIDGE DR, MANASSAS, VA, 20112",207162140,"R"
292237,"7995 WOODS LANE","JONESBORO","GA",30236,33.5360916970001,-84.329965224,237,"7995 WOODS LANE, JONESBORO, GA, 30236","Match","Exact","7995 WOODS LN, JONESBORO, GA, 30236",23330878,"R"
292238,"7996 BAIRD ROAD","GROVEPORT","OH",43125,39.813883967,-82.8604649769999,238,"7996 BAIRD ROAD, GROVEPORT, OH, 43125","Match","Exact","7996 BAIRD RD, GROVEPORT, OH, 43125",135597500,"L"
292239,"7996 JOHNSON DR","ODESSA","MO",64076,39.028559692,-93.940797112,239,"7996 JOHNSON DR, ODESSA, MO, 64076","Match","Exact","7996 JOHNSON DR, ODESSA, MO, 64076",20939416,"L"
292240,"7996 PLAINVIEW ROAD","KRUM","TX",76249,33.262088809,-97.264470597,240,"7996 PLAINVIEW ROAD, KRUM, TX, 76249","Match","Exact","7996 PLAINVIEW RD, KRUM, TX, 76249",103436779,"L"
292241,"7997 ANZA VISTA COURT","EASTVALE","CA",92880,33.9425216760001,-117.587209668,241,"7997 ANZA VISTA COURT, EASTVALE, CA, 92880","Match","Exact","7997 ANZA VISTA CT, EASTVALE, CA, 92880",608987778,"R"
292242,"7997 E SNAKEROOT DR","TUCSON","AZ",85710,32.194669538,-110.821296517,242,"7997 E SNAKEROOT DR, TUCSON, AZ, 85710","Match","Exact","7997 E SNAKEROOT DR, TUCSON, AZ, 85710",606828164,"L"
292243,"7997 PARADISE ROAD","SAN DIEGO","CA",92135,NA,NA,243,"7997 PARADISE ROAD, SAN DIEGO, CA, 92135","No_Match",NA,NA,NA,NA
292244,"7997 PARADISE VALLEY RD","SAN DIEGO","CA",92139,32.6976608090001,-117.025518631,244,"7997 PARADISE VALLEY RD, SAN DIEGO, CA, 92139","Match","Exact","7997 PARADISE VALLEY RD, SAN DIEGO, CA, 92139",195361297,"R"
292245,"7998 2ND AVENUE SOUTH","SAINT PETERSBURG","FL",33707,27.767752928,-82.750164668,245,"7998 2ND AVENUE SOUTH, SAINT PETERSBURG, FL, 33707","Match","Exact","7998 2ND AVE S, SAINT PETERSBURG, FL, 33707",124694224,"L"
292246,"7998 COACH CREST COURT","MANASSAS","VA",20109,38.7879765600001,-77.525882353,246,"7998 COACH CREST COURT, MANASSAS, VA, 20109","Match","Non_Exact","7998 COACHCREST CT, MANASSAS, VA, 20109",76530687,"L"
292247,"7998 EVANSTON ROAD","INDIANAPOLIS","IN",46240,39.9012483500001,-86.1305262289999,247,"7998 EVANSTON ROAD, INDIANAPOLIS, IN, 46240","Match","Exact","7998 EVANSTON RD, INDIANAPOLIS, IN, 46240",107983552,"L"
292248,"7998 MAIN STREET","MIAMITOWN","OH",45041,39.2138306570001,-84.703989781,248,"7998 MAIN STREET, MIAMITOWN, OH, 45041","Match","Exact","7998 MAIN ST, MIAMITOWN, OH, 45041",103959132,"R"
292249,"7998 WEST FETLOCK TRAIL","PEORIA","AZ",85383,33.7318610340001,-112.231457305,249,"7998 WEST FETLOCK TRAIL, PEORIA, AZ, 85383","Match","Non_Exact","7998 FETLOCK TRL, PEORIA, AZ, 85383",642237863,"L"
292250,"79980 MAIN ST","MEMPHIS","MI",48041,42.890091603,-82.768614766,250,"79980 MAIN ST, MEMPHIS, MI, 48041","Match","Exact","79980 MAIN ST, MEMPHIS, MI, 48041",653390822,"L"
292251,"7999 EUROGREY CT","BLACKLICK","OH",43004,39.992662372,-82.790322787,251,"7999 EUROGREY CT, BLACKLICK, OH, 43004","Match","Exact","7999 EUROGREY CT, BLACKLICK, OH, 43004",135752152,"L"
292252,"7999 NORTH FEDERAL HIGHWAY 100A","BOCA RATON","FL",33487,26.421921733,-80.073934273,252,"7999 NORTH FEDERAL HIGHWAY 100A, BOCA RATON, FL, 33487","Match","Exact","7999 N FEDERAL HWY, BOCA RATON, FL, 33487",616676226,"L"
292253,"7999 SW 186 CIRCLE","DUNNELLON","FL",34432,29.105914781,-82.426238476,253,"7999 SW 186 CIRCLE, DUNNELLON, FL, 34432","Match","Exact","7999 SW 186TH CIR, DUNNELLON, FL, 34432",116734419,"L"
292254,"79A QUINCY STREET","BROOKLYN","NY",11238,40.6861219260001,-73.957988434,254,"79A QUINCY STREET, BROOKLYN, NY, 11238","Match","Exact","79 QUINCY ST, BROOKLYN, NY, 11238",59078791,"L"
292255,"79A S LIBERTY DRIVE","STONY POINT","NY",10980,41.223201305,-73.984367213,255,"79A S LIBERTY DRIVE, STONY POINT, NY, 10980","Match","Exact","79 S LIBERTY DR, STONY POINT, NY, 10980",124590660,"R"
292256,"7A COUNTRY LANE","HANNIBAL","MO",63401,39.72773089,-91.401026563,256,"7A COUNTRY LANE, HANNIBAL, MO, 63401","Match","Exact","7 COUNTRY LN, HANNIBAL, MO, 63401",35337854,"R"
292257,"7A CRYSTAL AVENUE","GREENVILLE","SC",29605,34.808375692,-82.381087968,257,"7A CRYSTAL AVENUE, GREENVILLE, SC, 29605","Match","Exact","7 CRYSTAL AVE, GREENVILLE, SC, 29605",38305270,"L"
292258,"7A MERRILL INDUSTRIAL DRIVE","HAMPTON","NH",3842,42.9452366450001,-70.845801212,258,"7A MERRILL INDUSTRIAL DRIVE, HAMPTON, NH, 3842","Match","Exact","7 MERRILL INDUSTRIAL DR, HAMPTON, NH, 03842",113692109,"L"
292259,"7B CATAMOUNT RD","LONDONDERRY","NH",3053,42.8512730580001,-71.3350723729999,259,"7B CATAMOUNT RD, LONDONDERRY, NH, 3053","Match","Exact","7 CATAMOUNT RD, LONDONDERRY, NH, 03053",113685997,"R"
292260,"7B HILLCREST AVE","FORT LEE","NJ",7024,40.86665924,-73.966207401,260,"7B HILLCREST AVE, FORT LEE, NJ, 7024","Match","Exact","7 HILLCREST AVE, FORT LEE, NJ, 07024",64390323,"R"
292261,"7B MELCHER STREET","PORTSMOUTH","NH",3801,43.073757175,-70.7531441419999,261,"7B MELCHER STREET, PORTSMOUTH, NH, 3801","Match","Exact","7 MELCHER ST, PORTSMOUTH, NH, 03801",113667286,"L"
292262,"7B MOORE DRIVE","NEW HAVEN","CT",6515,41.345540955,-72.9540190669999,262,"7B MOORE DRIVE, NEW HAVEN, CT, 6515","Match","Exact","7 MOORE DR, NEW HAVEN, CT, 06515",640762103,"L"
292263,"7H LINCOLN HEIGHTS","SCHENECTADY","NY",12305,NA,NA,263,"7H LINCOLN HEIGHTS, SCHENECTADY, NY, 12305","No_Match",NA,NA,NA,NA
292264,"7N085 PLYMOUTH CT","ST. CHARLES","IL",60175,41.9715702510001,-88.3366976299999,264,"7N085 PLYMOUTH CT, ST. CHARLES, IL, 60175","Match","Exact","7N85 PLYMOUTH CT, SAINT CHARLES, IL, 60175",119547217,"R"
292265,"7N182 WHISPERING TRAIL","SAINT CHARLES","IL",60175,NA,NA,265,"7N182 WHISPERING TRAIL, SAINT CHARLES, IL, 60175","Tie",NA,NA,NA,NA
292266,"7N330 IL ROUTE 59","BARTLETT","IL",60103,NA,NA,266,"7N330 IL ROUTE 59, BARTLETT, IL, 60103","Tie",NA,NA,NA,NA
292267,"7S FARVIEW AVENUE","PARAMUS","NJ",7652,NA,NA,267,"7S FARVIEW AVENUE, PARAMUS, NJ, 7652","Tie",NA,NA,NA,NA
292268,"7S259 MIDFIELD DR","AURORA","IL",60506,41.760565356,-88.390684404,268,"7S259 MIDFIELD DR, AURORA, IL, 60506","Match","Exact","7S259 MIDFIELD DR, AURORA, IL, 60506",638418056,"L"
292269,"7TH STREET AND BEACH AVE","BEACH HAVEN","NJ",8008,39.5670761540001,-74.235624075,269,"7TH STREET AND BEACH AVE, BEACH HAVEN, NJ, 8008","Match","Non_Exact","7TH ST & N BEACH AVE, BEACH HAVEN, NJ, 08008",NA,NA
292270,"8  LAKESHORE DRIVE","AVONDALE ESTATES","GA",30002,33.773733414,-84.2624906679999,270,"8  LAKESHORE DRIVE, AVONDALE ESTATES, GA, 30002","Match","Exact","8 LAKESHORE DR, AVONDALE EST, GA, 30002",23369607,"L"
292271,"8  TOPLAND ROAD","HARTSDALE","NY",10530,41.0179434890001,-73.8215613099999,271,"8  TOPLAND ROAD, HARTSDALE, NY, 10530","Match","Exact","8 TOPLAND RD, HARTSDALE, NY, 10530",139738061,"L"
292272,"8 1/2 ATKINSON ST","BELLOWS FALLS","VT",5101,43.1290336330001,-72.445499081,272,"8 1/2 ATKINSON ST, BELLOWS FALLS, VT, 5101","Match","Exact","8 ATKINSON ST, BELLOWS FALLS, VT, 05101",635531414,"L"
292273,"8 1/2 O STREET","BOSTON","MA",2127,42.3380132870001,-71.0293007669999,273,"8 1/2 O STREET, BOSTON, MA, 2127","Match","Exact","8 O ST, BOSTON, MA, 02127",85714025,"L"
292274,"8 1/2 WEST CANAL STREET APT 605C","RICHMOND","VA",23220,37.5413969260001,-77.446134837,274,"8 1/2 WEST CANAL STREET APT 605C, RICHMOND, VA, 23220","Match","Exact","8 W CANAL ST, RICHMOND, VA, 23220",201539347,"R"
292275,"8 10TH ST 3301","SAN FRANCISCO","CA",94103,37.776210415,-122.417089022,275,"8 10TH ST 3301, SAN FRANCISCO, CA, 94103","Match","Exact","8 10TH ST, SAN FRANCISCO, CA, 94103",640935527,"R"
292276,"8 10TH ST APT 712","SAN FRANCISCO","CA",93103,37.776210415,-122.417089022,276,"8 10TH ST APT 712, SAN FRANCISCO, CA, 93103","Match","Non_Exact","8 10TH ST, SAN FRANCISCO, CA, 94103",640935527,"R"
292277,"8 5TH AVE","CHESHIRE","MA",1225,42.567910001,-73.147303425,277,"8 5TH AVE, CHESHIRE, MA, 1225","Match","Exact","8 5TH AVE, CHESHIRE, MA, 01225",3922583,"L"
292278,"8 ABBOTT WAY","PIEDMONT","CA",94618,37.8309996690001,-122.226679243,278,"8 ABBOTT WAY, PIEDMONT, CA, 94618","Match","Exact","8 ABBOTT WAY, PIEDMONT, CA, 94618",125002005,"R"
292279,"8 ADAMSON STREET","ALLSTON","MA",2134,42.358529628,-71.1368523469999,279,"8 ADAMSON STREET, ALLSTON, MA, 2134","Match","Exact","8 ADAMSON ST, ALLSTON, MA, 02134",647317962,"L"
292280,"8 ALAN OKELL PLACE","CRANFORD","NJ",7106,NA,NA,280,"8 ALAN OKELL PLACE, CRANFORD, NJ, 7106","No_Match",NA,NA,NA,NA
292281,"8 ALDER STREET","YONKERS","NY",10701,40.9304540950001,-73.885188377,281,"8 ALDER STREET, YONKERS, NY, 10701","Match","Exact","8 ALDER ST, YONKERS, NY, 10701",139743896,"L"
292282,"8 ALEXANDRIA TOWNE STREET","SOUTHFIELD","MI",48075,42.465044021,-83.225053598,282,"8 ALEXANDRIA TOWNE STREET, SOUTHFIELD, MI, 48075","Match","Exact","8 ALEXANDRIA TOWNE ST, SOUTHFIELD, MI, 48075",627694510,"L"
292283,"8 ALGONQUIN COURT","CHESTERBROOK","PR",19087,NA,NA,283,"8 ALGONQUIN COURT, CHESTERBROOK, PR, 19087","No_Match",NA,NA,NA,NA
292284,"8 ALICEN CT","ORMOND BEACH","FL",32174,29.2788999700001,-81.0877273519999,284,"8 ALICEN CT, ORMOND BEACH, FL, 32174","Match","Exact","8 ALICEN CT, ORMOND BEACH, FL, 32174",94558092,"L"
292285,"8 ALPINE LANE","DARIEN","CT",6820,41.0824330090001,-73.513233522,285,"8 ALPINE LANE, DARIEN, CT, 6820","Match","Exact","8 ALPINE LN, DARIEN, CT, 06820",3246521,"R"
292286,"8 AMAR DAS CT","ESPANOLA","NM",87532,35.98281145,-106.045047554,286,"8 AMAR DAS CT, ESPANOLA, NM, 87532","Match","Exact","8 AMAR DAS CT, ESPANOLA, NM, 87532",612405254,"R"
292287,"8 AMESBURY CT","LADERA RANCH","CA",92694,33.567145162,-117.642480892,287,"8 AMESBURY CT, LADERA RANCH, CA, 92694","Match","Exact","8 AMESBURY CT, LADERA RANCH, CA, 92694",609045201,"R"
292288,"8 ANDREA LN","BLOOMFIELD","CT",6002,41.83096942,-72.7316035809999,288,"8 ANDREA LN, BLOOMFIELD, CT, 6002","Match","Exact","8 ANDREA LN, BLOOMFIELD, CT, 06002",3485554,"R"
292289,"8 ANGELO DRIVE UNIT 102","MERRIMACK","NH",3054,NA,NA,289,"8 ANGELO DRIVE UNIT 102, MERRIMACK, NH, 3054","No_Match",NA,NA,NA,NA
292290,"8 ANN MAR LN","SIMSBURY","CT",6070,41.9074940100001,-72.842259069,290,"8 ANN MAR LN, SIMSBURY, CT, 6070","Match","Exact","8 ANN MAR LN, SIMSBURY, CT, 06070",3478093,"L"
292291,"8 ANNENDALE DRIVE","NASHVILLE","TN",37215,36.0594175850001,-86.834731585,291,"8 ANNENDALE DRIVE, NASHVILLE, TN, 37215","Match","Non_Exact","8 ANNANDALE, NASHVILLE, TN, 37215",97214446,"L"
292292,"8 AQUADUCT ROAD","MONROE TWP","NJ",8831,40.295892748,-74.461831875,292,"8 AQUADUCT ROAD, MONROE TWP, NJ, 8831","Match","Exact","8 AQUADUCT RD, MONROE TOWNSHIP, NJ, 08831",641749165,"R"
292293,"8 ARTIS LALNE","DURHAM","NC",27703,35.951529748,-78.843827969,293,"8 ARTIS LALNE, DURHAM, NC, 27703","Match","Non_Exact","8 ARTIS LN, DURHAM, NC, 27703",71783870,"R"
292294,"8 AVENEL COURT","SIMPSONVILLE","SC",29681,34.8016918230001,-82.220899249,294,"8 AVENEL COURT, SIMPSONVILLE, SC, 29681","Match","Exact","8 AVENEL CT, SIMPSONVILLE, SC, 29681",38338023,"R"
292295,"8 AVERY PATH","NEWTON","MA",2459,42.2920121180001,-71.183945633,295,"8 AVERY PATH, NEWTON, MA, 2459","Match","Exact","8 AVERY PATH, NEWTON, MA, 02459",639008928,"L"
292296,"8 B VUE AVE","STAFFORD","VA",22556,38.4696839630001,-77.4571104569999,296,"8 B VUE AVE, STAFFORD, VA, 22556","Match","Non_Exact","8 B-VUE AVE, STAFFORD, VA, 22556",25568201,"L"
292297,"8 BALDWIN PL","VALDOSTA","GA",31602,30.862684319,-83.2620969,297,"8 BALDWIN PL, VALDOSTA, GA, 31602","Match","Exact","8 BALDWIN PL, VALDOSTA, GA, 31602",87727080,"R"
292298,"8 BANCROFT RD","NEW CASTLE","DE",19720,39.638174577,-75.6148464409999,298,"8 BANCROFT RD, NEW CASTLE, DE, 19720","Match","Exact","8 BANCROFT RD, NEW CASTLE, DE, 19720",605775845,"L"
292299,"8 BANNOCK COURT","SUFFERN","NY",10901,41.123723168,-74.128953107,299,"8 BANNOCK COURT, SUFFERN, NY, 10901","Match","Exact","8 BANNOCK CT, SUFFERN, NY, 10901",124607407,"R"
292300,"8 BARE HILL RD","GROVELAND","MA",1834,NA,NA,300,"8 BARE HILL RD, GROVELAND, MA, 1834","No_Match",NA,NA,NA,NA
292301,"8 BARTLES CORNER ROAD SUITE 2","FLEMINGTON","NJ",8822,40.5363948470001,-74.8558437029999,301,"8 BARTLES CORNER ROAD SUITE 2, FLEMINGTON, NJ, 8822","Match","Exact","8 BARTLES CORNER RD, FLEMINGTON, NJ, 08822",641730936,"R"
292302,"8 BARTLES CORNER ROAD SUITE 201","FLEMINGTON","NJ",7830,NA,NA,302,"8 BARTLES CORNER ROAD SUITE 201, FLEMINGTON, NJ, 7830","No_Match",NA,NA,NA,NA
292303,"8 BARTLETT STREET","SOMERVILLE","MA",2145,42.3922503640001,-71.103173977,303,"8 BARTLETT STREET, SOMERVILLE, MA, 2145","Match","Exact","8 BARTLETT ST, SOMERVILLE, MA, 02145",86868938,"L"
292304,"8 BASHFORD STREET","YONKERS","NY",10701,40.935710527,-73.900564721,304,"8 BASHFORD STREET, YONKERS, NY, 10701","Match","Exact","8 BASHFORD ST, YONKERS, NY, 10701",640546771,"R"
292305,"8 BAY COURT NE","FORT WALTON BEACH","FL",32548,30.4133756860001,-86.589072718,305,"8 BAY COURT NE, FORT WALTON BEACH, FL, 32548","Match","Exact","8 BAY CT NE, FORT WALTON BEACH, FL, 32548",74391904,"L"
292306,"8 BAYVIEW AVE","BERKELY","MA",2779,41.831755704,-71.092817829,306,"8 BAYVIEW AVE, BERKELY, MA, 2779","Match","Non_Exact","8 BAYVIEW AVE, BERKLEY, MA, 02779",46757162,"R"
292307,"8 BEACON STREET THIRD FLOOR","BOSTON","MA",2018,NA,NA,307,"8 BEACON STREET THIRD FLOOR, BOSTON, MA, 2018","Tie",NA,NA,NA,NA
292308,"8 BEAUCLAIRE LANE","FAIRPORT","NY",14450,43.04229401,-77.435266187,308,"8 BEAUCLAIRE LANE, FAIRPORT, NY, 14450","Match","Exact","8 BEAUCLAIRE LN, FAIRPORT, NY, 14450",14562322,"R"
292309,"8 BEAUMONT LANE","LAKE GROVE","NY",11755,40.850262528,-73.108251875,309,"8 BEAUMONT LANE, LAKE GROVE, NY, 11755","Match","Exact","8 BEAUMONT LN, LAKE GROVE, NY, 11755",114240524,"R"
292310,"8 BECCA WAY","ALLENTOWN","NJ",8501,40.182980711,-74.526147513,310,"8 BECCA WAY, ALLENTOWN, NJ, 8501","Match","Exact","8 BECCA WAY, ALLENTOWN, NJ, 08501",628794389,"R"
292311,"8 BEDROCK LANE","CANDLER","NC",28715,35.513431031,-82.650137564,311,"8 BEDROCK LANE, CANDLER, NC, 28715","Match","Exact","8 BEDROCK LN, CANDLER, NC, 28715",36893111,"R"
292312,"8 BELLEZZA","IRVINE","CA",92620,33.721915745,-117.765978739,312,"8 BELLEZZA, IRVINE, CA, 92620","Match","Exact","8 BELLEZZA, IRVINE, CA, 92620",144057595,"R"
292313,"8 BEMIS LANE","WALPOLE","NH",3608,NA,NA,313,"8 BEMIS LANE, WALPOLE, NH, 3608","No_Match",NA,NA,NA,NA
292314,"8 BENT RAIL LANE","PELHAM","AL",35124,33.285827146,-86.76591289,314,"8 BENT RAIL LANE, PELHAM, AL, 35124","Match","Exact","8 BENT RAIL LN, PELHAM, AL, 35124",637481851,"R"
292315,"8 BERKSHIRE DRIVE","EAST WINDSOR","NJ",8520,40.269236866,-74.569804669,315,"8 BERKSHIRE DRIVE, EAST WINDSOR, NJ, 8520","Match","Exact","8 BERKSHIRE DR, EAST WINDSOR, NJ, 08520",60173402,"R"
292316,"8 BEVSWOOD OAKS","CLIFTON PARK","NY",12065,42.8457044460001,-73.823545495,316,"8 BEVSWOOD OAKS, CLIFTON PARK, NY, 12065","Match","Exact","8 BEVSWOOD OAKS, CLIFTON PARK, NY, 12065",18808520,"L"
292317,"8 BI","SAVANNAH","GA",31419,NA,NA,317,"8 BI, SAVANNAH, GA, 31419","No_Match",NA,NA,NA,NA
292318,"8 BIGELOW STREET","EAST HARTFORD","CT",6108,41.774073356,-72.639480732,318,"8 BIGELOW STREET, EAST HARTFORD, CT, 6108","Match","Exact","8 BIGELOW ST, EAST HARTFORD, CT, 06108",3495892,"L"
292319,"8 BIRCH ST","ATTLEBORO","MA",2703,41.931748204,-71.3012546369999,319,"8 BIRCH ST, ATTLEBORO, MA, 2703","Match","Exact","8 BIRCH ST, ATTLEBORO, MA, 02703",46797455,"L"
292320,"8 BITTERCREST COURT","SIMPSONVILLE","SC",29680,34.7035819930001,-82.3060073079999,320,"8 BITTERCREST COURT, SIMPSONVILLE, SC, 29680","Match","Exact","8 BITTERCREST CT, SIMPSONVILLE, SC, 29680",38369153,"R"
292321,"8 BLACK PINE COURT","DIX HILLS","NY",11746,40.776634668,-73.33400697,321,"8 BLACK PINE COURT, DIX HILLS, NY, 11746","Match","Exact","8 BLACK PINE CT, DIX HILLS, NY, 11746",113969821,"L"
292322,"8 BLACK PINE CT","DIX HILLS","NY",11746,40.776634668,-73.33400697,322,"8 BLACK PINE CT, DIX HILLS, NY, 11746","Match","Exact","8 BLACK PINE CT, DIX HILLS, NY, 11746",113969821,"L"
292323,"8 BLACKBERRY LANE","LOS LUNAS","NM",87031,34.7857553170001,-106.69130453,323,"8 BLACKBERRY LANE, LOS LUNAS, NM, 87031","Match","Exact","8 BLACKBERRY LN, LOS LUNAS, NM, 87031",179193986,"R"
292324,"8 BLACKBURNE TER","WEST ORANGE","NJ",7052,40.803949157,-74.25183043,324,"8 BLACKBURNE TER, WEST ORANGE, NJ, 7052","Match","Exact","8 BLACKBURNE TER, WEST ORANGE, NJ, 07052",636218691,"R"
292325,"8 BLAND SPRING PLACE","DURHAM","NC",27713,35.892780578,-78.956583133,325,"8 BLAND SPRING PLACE, DURHAM, NC, 27713","Match","Exact","8 BLAND SPRING PL, DURHAM, NC, 27713",71761392,"R"
292326,"8 BOBWHITE LANE","EAST LYME","CT",6333,41.376444658,-72.207955221,326,"8 BOBWHITE LANE, EAST LYME, CT, 6333","Match","Exact","8 BOBWHITE LN, EAST LYME, CT, 06333",56859575,"L"
292327,"8 BOOTH RD","AUBURN","MA",1501,42.1775869570001,-71.857771006,327,"8 BOOTH RD, AUBURN, MA, 1501","Match","Exact","8 BOOTH RD, AUBURN, MA, 01501",40108166,"L"
292328,"8 BOWDOIN STREET","MAPLEWOOD","NJ",7040,40.725273843,-74.268569258,328,"8 BOWDOIN STREET, MAPLEWOOD, NJ, 7040","Match","Exact","8 BOWDOIN ST, MAPLEWOOD, NJ, 07040",63462652,"L"
292329,"8 BOZRAH ST EXT","BOZRAH","CT",6334,41.563176195,-72.1545636559999,329,"8 BOZRAH ST EXT, BOZRAH, CT, 6334","Match","Non_Exact","8 BOZRAH ST EXD, BOZRAH, CT, 06334",56838978,"L"
292330,"8 BRENTSMILL DRIVE","STAFFORD","VA",22554,38.4790368980001,-77.384713951,330,"8 BRENTSMILL DRIVE, STAFFORD, VA, 22554","Match","Exact","8 BRENTSMILL DR, STAFFORD, VA, 22554",646449626,"R"
292331,"8 BRIGHTON 15TH STREET APT 3H","BROOKLYN","NY",11235,40.578418921,-73.954383645,331,"8 BRIGHTON 15TH STREET APT 3H, BROOKLYN, NY, 11235","Match","Exact","8 BRIGHTON 15TH ST, BROOKLYN, NY, 11235",59091814,"R"
292332,"8 BROADMOOR HILLS DR","COLORADO SPRINGS","CO",80906,38.7728347,-104.828969261,332,"8 BROADMOOR HILLS DR, COLORADO SPRINGS, CO, 80906","Match","Exact","8 BROADMOOR HILLS DR, COLORADO SPRINGS, CO, 80906",610813865,"R"
292333,"8 BROOK FARM COURT","COCKEYSVILLE","MD",21030,39.516175172,-76.707047476,333,"8 BROOK FARM COURT, COCKEYSVILLE, MD, 21030","Match","Exact","8 BROOK FARM CT, COCKEYSVILLE, MD, 21030",191554362,"L"
292334,"8 BROOK SPRING AVENUE","AVERILL PARK","NY",12018,42.597694027,-73.566572917,334,"8 BROOK SPRING AVENUE, AVERILL PARK, NY, 12018","Match","Exact","8 BROOK SPRING AVE, AVERILL PARK, NY, 12018",35758255,"R"
292335,"8 BROOKLYN CT","BLACKWOOD","NJ",8012,39.798039159,-75.044740552,335,"8 BROOKLYN CT, BLACKWOOD, NJ, 8012","Match","Exact","8 BROOKLYN CT, BLACKWOOD, NJ, 08012",614015995,"L"
292336,"8 BROOKSIDE ROAD","NEW PALTZ","NY",12561,41.7153222060001,-74.0839569669999,336,"8 BROOKSIDE ROAD, NEW PALTZ, NY, 12561","Match","Exact","8 BROOKSIDE RD, NEW PALTZ, NY, 12561",41915727,"L"
292337,"8 BUCHANAN RD","SPRING VALLEY","NY",10977,41.1384748360001,-74.033094917,337,"8 BUCHANAN RD, SPRING VALLEY, NY, 10977","Match","Non_Exact","8 BUCHANAN LN, SPRING VALLEY, NY, 10977",124629461,"R"
292338,"8 BUCKHORN COURT","SAN RAFAEL","CA",94903,37.994888717,-122.536725647,338,"8 BUCKHORN COURT, SAN RAFAEL, CA, 94903","Match","Exact","8 BUCKHORN CT, SAN RAFAEL, CA, 94903",605776451,"R"
292339,"8 BUFFALO GROVE PLACE","PALM COAST","FL",32137,29.597392547,-81.2633954839999,339,"8 BUFFALO GROVE PLACE, PALM COAST, FL, 32137","Match","Exact","8 BUFFALO GROVE PL, PALM COAST, FL, 32137",94947768,"R"
292340,"8 BUFFINGTON COURT","LITTLE ROCK","AR",72209,34.7000332320001,-92.336426755,340,"8 BUFFINGTON COURT, LITTLE ROCK, AR, 72209","Match","Exact","8 BUFFINGTON CT, LITTLE ROCK, AR, 72209",83527990,"R"
292341,"8 BURNHAM LANE","VOORHEES","NJ",8043,39.85249585,-74.943667202,341,"8 BURNHAM LANE, VOORHEES, NJ, 8043","Match","Exact","8 BURNHAM LN, VOORHEES, NJ, 08043",134369878,"R"
292342,"8 BURTON AVENUE","WOODMERE","NY",11598,40.6291199990001,-73.70856467,342,"8 BURTON AVENUE, WOODMERE, NY, 11598","Match","Exact","8 BURTON AVE, WOODMERE, NY, 11598",147677800,"L"
292343,"8 BUTTERCUP LANE","CHELMSFORD","MA",1824,42.569153858,-71.3694097869999,343,"8 BUTTERCUP LANE, CHELMSFORD, MA, 1824","Match","Exact","8 BUTTERCUP LN, CHELMSFORD, MA, 01824",628178138,"L"
292344,"8 C FOURWOOD COURT","BALTIMORE","MD",21209,39.381787634,-76.6661090549999,344,"8 C FOURWOOD COURT, BALTIMORE, MD, 21209","Match","Exact","8 FOURWOOD CT, BALTIMORE, MD, 21209",191504280,"L"
292345,"8 CALDWELL CIRCLE","NEWTOWN","PA",18940,40.2232063340001,-74.9250260479999,345,"8 CALDWELL CIRCLE, NEWTOWN, PA, 18940","Match","Exact","8 CALDWELL CIR, NEWTOWN, PA, 18940",134778605,"R"
292346,"8 CALDWELL TERR","DANBURY","CT",6810,41.381561397,-73.4308819669999,346,"8 CALDWELL TERR, DANBURY, CT, 6810","Match","Exact","8 CALDWELL TER, DANBURY, CT, 06810",651559855,"L"
292347,"8 CAMBOURNE COURT","SAINT PETERS","MO",63376,38.7682071580001,-90.627440941,347,"8 CAMBOURNE COURT, SAINT PETERS, MO, 63376","Match","Exact","8 CAMBOURNE CT, SAINT PETERS, MO, 63376",100052494,"L"
292348,"8 CAMBRIDGE AVENUE","EAST NEW MARKET","MD",21631,38.595027391,-75.927355081,348,"8 CAMBRIDGE AVENUE, EAST NEW MARKET, MD, 21631","Match","Exact","8 CAMBRIDGE AVE, EAST NEW MARKET, MD, 21631",99692052,"R"
292349,"8 CAMPBELL ROAD","BEAUFORT","SC",29906,32.506348551,-80.720669625,349,"8 CAMPBELL ROAD, BEAUFORT, SC, 29906","Match","Exact","8 CAMPBELL RD, BEAUFORT, SC, 29906",647856944,"L"
292350,"8 CANTERBURY FOREST","PLAISTOW","NH",3865,42.8271525600001,-71.089059703,350,"8 CANTERBURY FOREST, PLAISTOW, NH, 3865","Match","Exact","8 CANTERBURY FOREST, PLAISTOW, NH, 03865",113671856,"L"
292351,"8 CAPTAIN BAILEY COURT","BRIELLE","NJ",8730,40.1185308490001,-74.0583606929999,351,"8 CAPTAIN BAILEY COURT, BRIELLE, NJ, 8730","Match","Exact","8 CAPTAIN BAILEY CT, BRIELLE, NJ, 08730",646963063,"R"
292352,"8 CAPTAIN THEALE ROAD","BEDFORD","NY",10506,41.181888246,-73.663801624,352,"8 CAPTAIN THEALE ROAD, BEDFORD, NY, 10506","Match","Exact","8 CAPTAIN THEALE RD, BEDFORD, NY, 10506",139771312,"L"
292353,"8 CARDIFF RD","REHOBOTH BEACH","DE",19971,38.7053982580001,-75.104119517,353,"8 CARDIFF RD, REHOBOTH BEACH, DE, 19971","Match","Exact","8 CARDIFF RD, REHOBOTH BCH, DE, 19971",639038378,"L"
292354,"8 CARDINAL DRIVE","MILTON","PA",17847,41.0288973840001,-76.8444405019999,354,"8 CARDINAL DRIVE, MILTON, PA, 17847","Match","Exact","8 CARDINAL DR, MILTON, PA, 17847",48052936,"R"
292355,"8 CARLISLE STREET","BOSTON","MA",2121,42.3142271510001,-71.083518393,355,"8 CARLISLE STREET, BOSTON, MA, 2121","Match","Exact","8 CARLISLE ST, BOSTON, MA, 02121",85701461,"L"
292356,"8 CARLL CT","NORTHPORT","NY",11768,40.904256934,-73.3505427059999,356,"8 CARLL CT, NORTHPORT, NY, 11768","Match","Non_Exact","8 CARL CT, NORTHPORT, NY, 11768",113964324,"R"
292357,"8 CARMICHAEL STREET SUITE 204","ESSEX JUNCTION","VT",5452,44.5078179450001,-73.085404562,357,"8 CARMICHAEL STREET SUITE 204, ESSEX JUNCTION, VT, 5452","Match","Exact","8 CARMICHAEL ST, ESSEX JCT, VT, 05452",640657222,"L"
292358,"8 CAROB COURT","LUMBERTON","NJ",8048,39.974511437,-74.780553818,358,"8 CAROB COURT, LUMBERTON, NJ, 8048","Match","Exact","8 CAROB CT, LUMBERTON, NJ, 08048",134055160,"R"
292359,"8 CARPENTER HILL RD","MENDON","MA",1756,42.0835993380001,-71.551606954,359,"8 CARPENTER HILL RD, MENDON, MA, 1756","Match","Exact","8 CARPENTER HILL RD, MENDON, MA, 01756",40052971,"L"
292360,"8 CARRIAGE ROAD","GREAT NECK","NY",11024,40.808788786,-73.7408421169999,360,"8 CARRIAGE ROAD, GREAT NECK, NY, 11024","Match","Exact","8 CARRIAGE RD, GREAT NECK, NY, 11024",147699427,"R"
292361,"8 CARTWRIGHT DRIVE","WEST WINDSOR","NJ",8550,40.2973072830001,-74.602017245,361,"8 CARTWRIGHT DRIVE, WEST WINDSOR, NJ, 8550","Match","Exact","8 CARTWRIGHT DR, WEST WINDSOR, NJ, 08550",60173112,"R"
292362,"8 CARVER ROAD","JACKSONVILLE","NC",28540,34.7583262910001,-77.4016125329999,362,"8 CARVER ROAD, JACKSONVILLE, NC, 28540","Match","Exact","8 CARVER RD, JACKSONVILLE, NC, 28540",14012649,"R"
292363,"8 CASTLE CT","NORTH BRUNSWICK","NJ",8902,40.4347580470001,-74.481226519,363,"8 CASTLE CT, NORTH BRUNSWICK, NJ, 8902","Match","Exact","8 CASTLE CT, N BRUNSWICK, NJ, 08902",60264808,"L"
292364,"8 CEDAR STREET - SUITE 65","WOBURN","MA",1801,42.493849336,-71.125998774,364,"8 CEDAR STREET - SUITE 65, WOBURN, MA, 1801","Match","Exact","8 CEDAR ST, WOBURN, MA, 01801",87111651,"L"
292365,"8 CEMETERY RD","FREDERICKSBURG","PA",17026,40.4613842410001,-76.486015723,365,"8 CEMETERY RD, FREDERICKSBURG, PA, 17026","Match","Exact","8 CEMETERY RD, FREDERICKSBURG, PA, 17026",80668202,"R"
292366,"8 CHAPEL LAKE NORTH","SAVANNAH","GA",31419,32.0455389320001,-81.238328627,366,"8 CHAPEL LAKE NORTH, SAVANNAH, GA, 31419","Match","Exact","8 CHAPEL LAKE N, SAVANNAH, GA, 31419",636110581,"R"
292367,"8 CHAPIN AVENUE","RED BANK","NJ",7701,40.337509873,-74.0833792449999,367,"8 CHAPIN AVENUE, RED BANK, NJ, 7701","Match","Exact","8 CHAPIN AVE, RED BANK, NJ, 07701",90454139,"L"
292368,"8 CHATEAU HAUT BRION DR","KENNER","LA",70065,30.027197318,-90.2516068049999,368,"8 CHATEAU HAUT BRION DR, KENNER, LA, 70065","Match","Exact","8 CHATEAU HAUT BRION DR, KENNER, LA, 70065",93514928,"R"
292369,"8 CHEROKEE AVENUE","ESSEX JUNCTION","VT",5452,44.491604282,-73.1191521819999,369,"8 CHEROKEE AVENUE, ESSEX JUNCTION, VT, 5452","Match","Exact","8 CHEROKEE AVE, ESSEX JCT, VT, 05452",135829306,"L"
292370,"8 CHEROKEE TRAIL","BLAIRSTOWN","NJ",7825,40.9535473290001,-75.0251194799999,370,"8 CHEROKEE TRAIL, BLAIRSTOWN, NJ, 7825","Match","Exact","8 CHEROKEE TRL, BLAIRSTOWN, NJ, 07825",98112837,"R"
292371,"8 CHESTNUT CIRCLE","PORT WENTWORTH","GA",31407,32.1882883420001,-81.226622339,371,"8 CHESTNUT CIRCLE, PORT WENTWORTH, GA, 31407","Match","Exact","8 CHESTNUT CIR, PRT WENTWORTH, GA, 31407",636116407,"R"
292372,"8 CHESTNUT ST","HOPEWELL JUNCTION","NY",12533,41.583271933,-73.748721517,372,"8 CHESTNUT ST, HOPEWELL JUNCTION, NY, 12533","Match","Exact","8 CHESTNUT ST, HOPEWELL JCT, NY, 12533",619920196,"R"
292373,"8 CHURCH STREET","FERGUSON","MO",63135,38.744913056,-90.3049004759999,373,"8 CHURCH STREET, FERGUSON, MO, 63135","Match","Exact","8 CHURCH ST, FERGUSON, MO, 63135",100146173,"R"
292374,"8 CIDER MILL LN","HOPKINTON","MA",1748,42.2076205810001,-71.4823876029999,374,"8 CIDER MILL LN, HOPKINTON, MA, 1748","Match","Exact","8 CIDER MILL LN, HOPKINTON, MA, 01748",86921035,"R"
292375,"8 CLEMATIS RD","LEXINGTON","MA",2421,42.425984312,-71.2240965399999,375,"8 CLEMATIS RD, LEXINGTON, MA, 2421","Match","Exact","8 CLEMATIS RD, LEXINGTON, MA, 02421",87110978,"L"
292376,"8 COACHMAN LANE","WEST BARNSTABLE","MA",2668,41.68723485,-70.377542198,376,"8 COACHMAN LANE, WEST BARNSTABLE, MA, 2668","Match","Exact","8 COACHMAN LN, W BARNSTABLE, MA, 02668",121584550,"R"
292377,"8 COLASURDO COURT","EDISON","NJ",8820,40.5877299150001,-74.3735546739999,377,"8 COLASURDO COURT, EDISON, NJ, 8820","Match","Exact","8 COLASURDO CT, EDISON, NJ, 08820",615083077,"L"
292378,"8 COLONY ROW PO BOX 1107","BRACKETTVILLE","TX",78832,29.3058711260001,-100.422012599,378,"8 COLONY ROW PO BOX 1107, BRACKETTVILLE, TX, 78832","Match","Exact","8 COLONY ROW, BRACKETTVILLE, TX, 78832",188039241,"L"
292379,"8 COLUMBINE LANE","MOUNT VERNON","ME",4352,NA,NA,379,"8 COLUMBINE LANE, MOUNT VERNON, ME, 4352","No_Match",NA,NA,NA,NA
292380,"8 COMMONS STREET","RUTLAND","VT",5701,NA,NA,380,"8 COMMONS STREET, RUTLAND, VT, 5701","No_Match",NA,NA,NA,NA
292381,"8 COOPER LANE","SAUSALITO","CA",94107,37.8527561240001,-122.481832395,381,"8 COOPER LANE, SAUSALITO, CA, 94107","Match","Non_Exact","8 COOPER LN, SAUSALITO, CA, 94965",192770322,"R"
292382,"8 COPPER RIDGE DR","SILVER CITY","NM",88061,32.8180538010001,-108.277313611,382,"8 COPPER RIDGE DR, SILVER CITY, NM, 88061","Match","Exact","8 COPPER RIDGE DR, SILVER CITY, NM, 88061",192672718,"R"
292383,"8 COPPERFIELD DRIVE","HAWTHORN WOODS","IL",60047,42.2237491240001,-88.084964035,383,"8 COPPERFIELD DRIVE, HAWTHORN WOODS, IL, 60047","Match","Exact","8 COPPERFIELD DR, HAWTHORN WDS, IL, 60047",119684983,"R"
292384,"8 CORPORATE PARK  SUITE 300","IRVINE","CA",92606,33.689218811,-117.828961708,384,"8 CORPORATE PARK  SUITE 300, IRVINE, CA, 92606","Match","Exact","8 CORPORATE PARK, IRVINE, CA, 92606",144381828,"R"
292385,"8 CORPORATE PARK STE 200C","IRVINE","CA",92606,33.689218811,-117.828961708,385,"8 CORPORATE PARK STE 200C, IRVINE, CA, 92606","Match","Exact","8 CORPORATE PARK, IRVINE, CA, 92606",144381828,"R"
292386,"8 COTTAGE FARM RD","NATCHEZ","MS",39120,31.5595273820001,-91.350403558,386,"8 COTTAGE FARM RD, NATCHEZ, MS, 39120","Match","Exact","8 COTTAGE FARM RD, NATCHEZ, MS, 39120",79852724,"L"
292387,"8 COULEE HEIGHTS","OKANOGAN","WA",98840,48.353078597,-119.629070692,387,"8 COULEE HEIGHTS, OKANOGAN, WA, 98840","Match","Non_Exact","8 COULEE HEIGHTS RD, OKANOGAN, WA, 98840",157380178,"R"
292388,"8 COUNTY FAIR DRIVE APT 202","ROCHESTER","NY",14623,43.065349843,-77.617157143,388,"8 COUNTY FAIR DRIVE APT 202, ROCHESTER, NY, 14623","Match","Exact","8 COUNTY FAIR DR, ROCHESTER, NY, 14623",650760997,"R"
292389,"8 COUNTY ROAD 118","CORINTH","MS",38834,34.9307286650001,-88.442277296,389,"8 COUNTY ROAD 118, CORINTH, MS, 38834","Match","Exact","8 CO RD 118, CORINTH, MS, 38834",91055932,"R"
292390,"8 COURT ST","MOUNT STERLING","KY",40353,38.056845853,-83.9422681629999,390,"8 COURT ST, MOUNT STERLING, KY, 40353","Match","Exact","8 COURT ST, MT STERLING, KY, 40353",32037625,"L"
292391,"8 COURT STREET","RUTLAND","VT",5701,43.6081291290001,-72.975779455,391,"8 COURT STREET, RUTLAND, VT, 5701","Match","Exact","8 COURT ST, RUTLAND, VT, 05701",138950135,"R"
292392,"8 CRAIGIE CIRCLE APT 37","CAMBRIDGE","MA",2138,42.37943403,-71.1274248,392,"8 CRAIGIE CIRCLE APT 37, CAMBRIDGE, MA, 2138","Match","Exact","8 CRAIGIE CIR, CAMBRIDGE, MA, 02138",86892512,"L"
292393,"8 CRAIGIE CIRCLE APT 45","CAMBRIDGE","MA",2138,42.37943403,-71.1274248,393,"8 CRAIGIE CIRCLE APT 45, CAMBRIDGE, MA, 2138","Match","Exact","8 CRAIGIE CIR, CAMBRIDGE, MA, 02138",86892512,"L"
292394,"8 CREEKWOOD PLACE","JACKSON","MS",39211,32.3888316970001,-90.118399379,394,"8 CREEKWOOD PLACE, JACKSON, MS, 39211","Match","Exact","8 CREEKWOOD PL, JACKSON, MS, 39211",65361273,"R"
292395,"8 CRICKET HILL DRIVE","PITTSFORD","NY",14534,43.0804430810001,-77.525644599,395,"8 CRICKET HILL DRIVE, PITTSFORD, NY, 14534","Match","Exact","8 CRICKET HILL DR, PITTSFORD, NY, 14534",14573318,"R"
292396,"8 CROSS ROAD","SURRY","ME",4684,44.458135058,-68.484180802,396,"8 CROSS ROAD, SURRY, ME, 4684","Match","Exact","8 CROSS RD, SURRY, ME, 04684",632881039,"L"
292397,"8 CROSSGATE CT","POOLER","GA",31322,NA,NA,397,"8 CROSSGATE CT, POOLER, GA, 31322","No_Match",NA,NA,NA,NA
292398,"8 CULLEN CIRCLE","ANDOVER","MA",1810,42.624634949,-71.14828818,398,"8 CULLEN CIRCLE, ANDOVER, MA, 1810","Match","Exact","8 CULLEN CIR, ANDOVER, MA, 01810",86680277,"L"
292399,"8 CUMMINGS CIR","WEST ORANGE","NJ",7052,40.81407762,-74.260056471,399,"8 CUMMINGS CIR, WEST ORANGE, NJ, 7052","Match","Exact","8 CUMMINGS CIR, WEST ORANGE, NJ, 07052",637462081,"L"
292400,"8 CURTIS CV","LITTLE ROCK","AR",72209,34.677727372,-92.366989213,400,"8 CURTIS CV, LITTLE ROCK, AR, 72209","Match","Exact","8 CURTIS COVE, LITTLE ROCK, AR, 72209",83502969,"R"
292401,"8 CURTIS ROAD","NEEDHAM","MA",2492,42.28839988,-71.26279231,401,"8 CURTIS ROAD, NEEDHAM, MA, 2492","Match","Exact","8 CURTIS RD, NEEDHAM, MA, 02492",87240997,"L"
292402,"8 DALSTON ST","EAST BRUNSWICK","NJ",8816,40.41965635,-74.378950913,402,"8 DALSTON ST, EAST BRUNSWICK, NJ, 8816","Match","Exact","8 DALSTON ST, E BRUNSWICK, NJ, 08816",60270884,"R"
292403,"8 DANDRIDGE DRIVE","NEWARK","NJ",7108,40.7259857270001,-74.19764251,403,"8 DANDRIDGE DRIVE, NEWARK, NJ, 7108","Match","Exact","8 DANDRIDGE DR, NEWARK, NJ, 07108",618467860,"L"
292404,"8 DANES WAY","WENHAM","MA",1984,42.5984957480001,-70.836302624,404,"8 DANES WAY, WENHAM, MA, 1984","Match","Exact","8 DANES WAY, WENHAM, MA, 01984",86701311,"R"
292405,"8 DANIEL LANE","WEST SIMSBURY","CT",6092,41.8367382330001,-72.860474298,405,"8 DANIEL LANE, WEST SIMSBURY, CT, 6092","Match","Exact","8 DANIEL LN, WEST SIMSBURY, CT, 06092",3483238,"L"
292406,"8 DAVIS STREET EXT","GLOUCESTER","MA",1930,42.60946162,-70.647949465,406,"8 DAVIS STREET EXT, GLOUCESTER, MA, 1930","Match","Non_Exact","8 DAVIS ST, GLOUCESTER, MA, 01930",86633965,"L"
292407,"8 DAWT MILL DR","TECUMSEH","MO",65760,NA,NA,407,"8 DAWT MILL DR, TECUMSEH, MO, 65760","No_Match",NA,NA,NA,NA
292408,"8 DEER PATH","NATICK","MA",1760,42.270069748,-71.3416526569999,408,"8 DEER PATH, NATICK, MA, 1760","Match","Exact","8 DEER PATH, NATICK, MA, 01760",86930995,"L"
292409,"8 DEERFIELD RD","GREENVILLE","SC",29605,34.7837846510001,-82.3840806429999,409,"8 DEERFIELD RD, GREENVILLE, SC, 29605","Match","Exact","8 DEERFIELD RD, GREENVILLE, SC, 29605",38305609,"R"
292410,"8 DEERFIELD ROAD","GREENVILLE","SC",29605,34.7837846510001,-82.3840806429999,410,"8 DEERFIELD ROAD, GREENVILLE, SC, 29605","Match","Exact","8 DEERFIELD RD, GREENVILLE, SC, 29605",38305609,"R"
292411,"8 DEN AVE","MERRIMACK","NH",3054,42.844518442,-71.5030508999999,411,"8 DEN AVE, MERRIMACK, NH, 3054","Match","Exact","8 DEN AVE, MERRIMACK, NH, 03054",113543384,"L"
292412,"8 DENBO DRIVE","NEPTUNE","NJ",7753,40.2308981910001,-74.071703317,412,"8 DENBO DRIVE, NEPTUNE, NJ, 7753","Match","Exact","8 DENBO DR, NEPTUNE, NJ, 07753",90456827,"R"
292413,"8 DENMARK LANE","JACKSON","NJ",8527,40.102263701,-74.260908523,413,"8 DENMARK LANE, JACKSON, NJ, 8527","Match","Exact","8 DENMARK LN, JACKSON, NJ, 08527",203719797,"R"
292414,"8 DEPALMA CT","SOMERSET","NJ",8873,40.5143807110001,-74.4956405189999,414,"8 DEPALMA CT, SOMERSET, NJ, 8873","Match","Exact","8 DEPALMA CT, SOMERSET, NJ, 08873",59956842,"R"
292415,"8 DEVONSHIRE COURT","EWING","NJ",8628,40.2713149420001,-74.83753094,415,"8 DEVONSHIRE COURT, EWING, NJ, 8628","Match","Exact","8 DEVONSHIRE CT, EWING, NJ, 08628",60193674,"L"
292416,"8 DIAMOND RD","LEXINGTON","MA",2420,42.4703100940001,-71.23233651,416,"8 DIAMOND RD, LEXINGTON, MA, 2420","Match","Exact","8 DIAMOND RD, LEXINGTON, MA, 02420",86881697,"L"
292417,"8 DIXIE LANE","LIMERICK","ME",4048,43.664789334,-70.758681737,417,"8 DIXIE LANE, LIMERICK, ME, 4048","Match","Non_Exact","8 DIXIE CIR, LIMERICK, ME, 04048",92750617,"L"
292418,"8 DIXON AVENUE","AMITYVILLE","NY",11701,40.6844783430001,-73.4178493539999,418,"8 DIXON AVENUE, AMITYVILLE, NY, 11701","Match","Exact","8 DIXON AVE, AMITYVILLE, NY, 11701",113972392,"L"
292419,"8 DOE DRIVE","DALLAS","PA",18612,41.3316816270001,-75.9763063079999,419,"8 DOE DRIVE, DALLAS, PA, 18612","Match","Exact","8 DOE DR, DALLAS, PA, 18612",80954060,"R"
292420,"8 DOGWOOD LANE","BOONTON TOWNSHIP","NJ",7005,40.919561113,-74.422638123,420,"8 DOGWOOD LANE, BOONTON TOWNSHIP, NJ, 7005","Match","Exact","8 DOGWOOD LN, BOONTON TOWNSHIP, NJ, 07005",60444284,"R"
292421,"8 DOGWOOD STREET","PARK FOREST","IL",60163,41.4860618660001,-87.673461921,421,"8 DOGWOOD STREET, PARK FOREST, IL, 60163","Match","Non_Exact","8 DOGWOOD ST, PARK FOREST, IL, 60466",111711384,"R"
292422,"8 DORLEN ROAD","STAMFORD","CT",6905,41.078491968,-73.533959039,422,"8 DORLEN ROAD, STAMFORD, CT, 6905","Match","Exact","8 DORLEN RD, STAMFORD, CT, 06905",3243160,"L"
292423,"8 DRIFTWOOD BLVD","KENNER","LA",70065,30.019849918,-90.228695993,423,"8 DRIFTWOOD BLVD, KENNER, LA, 70065","Match","Exact","8 DRIFTWOOD BLVD, KENNER, LA, 70065",93527432,"R"
292424,"8 DUNAWAY DRIVE","RICHMOND","VA",23238,37.583428381,-77.633284977,424,"8 DUNAWAY DRIVE, RICHMOND, VA, 23238","Match","Exact","8 DUNAWAY DR, RICHMOND, VA, 23238",210330717,"L"
292425,"8 DUTTON ROAD","PELHAM","NH",3076,42.7256131840001,-71.314322107,425,"8 DUTTON ROAD, PELHAM, NH, 3076","Match","Exact","8 DUTTON RD, PELHAM, NH, 03076",113560255,"R"
292426,"8 E 300 SOUTH","LAKETOWN","UT",84038,41.8189347520001,-111.322554278,426,"8 E 300 SOUTH, LAKETOWN, UT, 84038","Match","Exact","8 E 300 S, LAKETOWN, UT, 84038",160583261,"L"
292427,"8 E 3RD ST","WELDON","NC",27890,36.4264948570001,-77.596972901,427,"8 E 3RD ST, WELDON, NC, 27890","Match","Exact","8 E 3RD ST, WELDON, NC, 27890",56714225,"L"
292428,"8 E 9TH STREET APT 1101","CHICAGO","IL",60605,NA,NA,428,"8 E 9TH STREET APT 1101, CHICAGO, IL, 60605","Tie",NA,NA,NA,NA
292429,"8 E ALDINE DRIVE","HOCKESSIN","DE",19707,39.784489406,-75.67258122,429,"8 E ALDINE DRIVE, HOCKESSIN, DE, 19707","Match","Exact","8 E ALDINE DR, HOCKESSIN, DE, 19707",187281916,"L"
292430,"8 E BRIDGE STREET","ROCKFORD","MI",49341,43.1197886050001,-85.5593304339999,430,"8 E BRIDGE STREET, ROCKFORD, MI, 49341","Match","Non_Exact","8 E BRIDGE ST NE, ROCKFORD, MI, 49341",12466333,"L"
292431,"8 E COTTONWOOD STREET","COTTONWOOD","AZ",86326,34.7286608040001,-112.027664237,431,"8 E COTTONWOOD STREET, COTTONWOOD, AZ, 86326","Match","Exact","8 E COTTONWOOD ST, COTTONWOOD, AZ, 86326",159518001,"R"
292432,"8 E CREST DRIVE","ROCHESTER","NY",14606,43.167406676,-77.714637233,432,"8 E CREST DRIVE, ROCHESTER, NY, 14606","Match","Exact","8 E CREST DR, ROCHESTER, NY, 14606",14529746,"R"
292433,"8 EAGLE DRIVE","COVENTRY","RI",2816,41.682673455,-71.600795408,433,"8 EAGLE DRIVE, COVENTRY, RI, 2816","Match","Exact","8 EAGLE DR, COVENTRY, RI, 02816",159141002,"R"
292434,"8 EAGLES AERIE COURT","HICKORY CREEK","TX",75065,33.120869273,-97.0594467339999,434,"8 EAGLES AERIE COURT, HICKORY CREEK, TX, 75065","Match","Exact","8 EAGLES AERIE CT, HICKORY CREEK, TX, 75065",640557435,"R"
292435,"8 EAST 110TH ST APT 2E","NEW YORK","NY",10029,40.7965717320001,-73.948577768,435,"8 EAST 110TH ST APT 2E, NEW YORK, NY, 10029","Match","Exact","8 E 110TH ST, NEW YORK, NY, 10029",59657775,"R"
292436,"8 EAST 110TH STREET 4G","NEW YORK","NY",10029,40.7965717320001,-73.948577768,436,"8 EAST 110TH STREET 4G, NEW YORK, NY, 10029","Match","Exact","8 E 110TH ST, NEW YORK, NY, 10029",59657775,"R"
292437,"8 EAST BATTERY STREET","ABINGTON","MA",2301,NA,NA,437,"8 EAST BATTERY STREET, ABINGTON, MA, 2301","No_Match",NA,NA,NA,NA
292438,"8 EAST BROADWAY SUITE 320","SALT LAKE CITY","UT",84111,40.7628198780001,-111.890868298,438,"8 EAST BROADWAY SUITE 320, SALT LAKE CITY, UT, 84111","Match","Exact","8 E BROADWAY, SALT LAKE CITY, UT, 84111",609018963,"R"
292439,"8 EAST BROADWAY SUITE 550","SALT LAKE CITY","UT",84111,40.7628198780001,-111.890868298,439,"8 EAST BROADWAY SUITE 550, SALT LAKE CITY, UT, 84111","Match","Exact","8 E BROADWAY, SALT LAKE CITY, UT, 84111",609018963,"R"
292440,"8 EAST CLEVELAND STREET","APOPKA","FL",32703,28.654709365,-81.511126944,440,"8 EAST CLEVELAND STREET, APOPKA, FL, 32703","Match","Exact","8 E CLEVELAND ST, APOPKA, FL, 32703",94267705,"R"
292441,"8 EAST GRANT STREET","MCRAE-HELENA","GA",31055,32.0691306100001,-82.89343633,441,"8 EAST GRANT STREET, MCRAE-HELENA, GA, 31055","Match","Non_Exact","8 E GRANT ST, MC RAE HELENA, GA, 31055",9464974,"L"
292442,"8 EAST RANDOLPH ST UNIT 3308","CHICAGO","IL",60601,41.884498492,-87.627568146,442,"8 EAST RANDOLPH ST UNIT 3308, CHICAGO, IL, 60601","Match","Exact","8 E RANDOLPH ST, CHICAGO, IL, 60601",111769100,"L"
292443,"8 EAST WILSON SUITE B","BATAVIA","IL",60510,41.8500019420001,-88.306674082,443,"8 EAST WILSON SUITE B, BATAVIA, IL, 60510","Match","Non_Exact","8 E WILSON ST, BATAVIA, IL, 60510",119511961,"R"
292444,"8 EASTMAN STREET","CRANFORD","NJ",7016,40.6554664220001,-74.305010373,444,"8 EASTMAN STREET, CRANFORD, NJ, 7016","Match","Exact","8 EASTMAN ST, CRANFORD, NJ, 07016",60570578,"R"
292445,"8 EDEN PARK DRIVE","CRANSTON","RI",2910,41.771463302,-71.4471416769999,445,"8 EDEN PARK DRIVE, CRANSTON, RI, 2910","Match","Exact","8 EDEN PARK DR, CRANSTON, RI, 02910",47471088,"R"
292446,"8 EDGEWOOD ROAD","SLINGERLANDS","NY",12159,42.627732474,-73.8623940429999,446,"8 EDGEWOOD ROAD, SLINGERLANDS, NY, 12159","Match","Exact","8 EDGEWOOD RD, SLINGERLANDS, NY, 12159",18304573,"L"
292447,"8 EGLANTINE AVENUE","PENNINGTON","NJ",8534,40.3289457590001,-74.7887873129999,447,"8 EGLANTINE AVENUE, PENNINGTON, NJ, 8534","Match","Exact","8 EGLANTINE AVE, PENNINGTON, NJ, 08534",60176052,"L"
292448,"8 ELENA ROAD","LEXINGTON","MA",2421,42.4416337640001,-71.2535289959999,448,"8 ELENA ROAD, LEXINGTON, MA, 2421","Match","Exact","8 ELENA RD, LEXINGTON, MA, 02421",86855091,"L"
292449,"8 ENDICOTT ROAD","ANDOVER","MA",1810,42.6671821950001,-71.160757212,449,"8 ENDICOTT ROAD, ANDOVER, MA, 1810","Match","Exact","8 ENDICOTT RD, ANDOVER, MA, 01810",86629269,"L"
292450,"8 ENGLISH NEIGHBORHOOD RD","WOODSTOCK","CT",6281,41.9935909930001,-71.998698459,450,"8 ENGLISH NEIGHBORHOOD RD, WOODSTOCK, CT, 6281","Match","Exact","8 ENGLISH NEIGHBORHOOD RD, WOODSTOCK, CT, 06281",56443959,"L"
292451,"8 ESQUIRE CIRCLE APT 2","PEABODY","MA",1960,42.5397793000001,-70.93155805,451,"8 ESQUIRE CIRCLE APT 2, PEABODY, MA, 1960","Match","Exact","8 ESQUIRE CIR, PEABODY, MA, 01960",86640534,"L"
292452,"8 EVERET STREET","VALLEY","NY",11580,40.682612503,-73.723349231,452,"8 EVERET STREET, VALLEY, NY, 11580","Match","Non_Exact","8 EVERETT ST, VALLEY STREAM, NY, 11580",147667710,"L"
292453,"8 EVERETT STREET","VALLEY STREAM","NY",11580,40.682612503,-73.723349231,453,"8 EVERETT STREET, VALLEY STREAM, NY, 11580","Match","Exact","8 EVERETT ST, VALLEY STREAM, NY, 11580",147667710,"L"
292454,"8 EVERGREEN AVENUE","WILTON","CT",6897,41.188706209,-73.42314455,454,"8 EVERGREEN AVENUE, WILTON, CT, 6897","Match","Exact","8 EVERGREEN AVE, WILTON, CT, 06897",3259774,"R"
292455,"8 EXPORT LANE","ARCHBALD","PA",18403,41.4905620650001,-75.548297992,455,"8 EXPORT LANE, ARCHBALD, PA, 18403","Match","Exact","8 EXPORT LN, ARCHBALD, PA, 18403",139337744,"R"
292456,"8 FACTORY ROAD","WILMINGTON","MA",1887,42.537770231,-71.165260748,456,"8 FACTORY ROAD, WILMINGTON, MA, 1887","Match","Exact","8 FACTORY RD, WILMINGTON, MA, 01887",87080332,"L"
292457,"8 FAIRFIELD STREET","MONTCLAIR","NJ",7042,40.8287264590001,-74.202112139,457,"8 FAIRFIELD STREET, MONTCLAIR, NJ, 7042","Match","Exact","8 FAIRFIELD ST, MONTCLAIR, NJ, 07042",63448830,"L"
292458,"8 FAIRVIEW AVE","PEQUANNOCK","NJ",7440,40.945567753,-74.282109288,458,"8 FAIRVIEW AVE, PEQUANNOCK, NJ, 7440","Match","Exact","8 FAIRVIEW AVE, PEQUANNOCK, NJ, 07440",60429295,"R"
292459,"8 FAIRWAY ROAD","ESSEX","MD",21221,39.3057425280001,-76.486225819,459,"8 FAIRWAY ROAD, ESSEX, MD, 21221","Match","Exact","8 FAIRWAY RD, ESSEX, MD, 21221",191489251,"L"
292460,"8 FAITH DRIVE","OCEAN","NJ",7712,40.243120004,-74.0489089069999,460,"8 FAITH DRIVE, OCEAN, NJ, 7712","Match","Exact","8 FAITH DR, OCEAN, NJ, 07712",90455808,"R"
292461,"8 FALLBROOK ROAD","HUDSON","MA",1749,NA,NA,461,"8 FALLBROOK ROAD, HUDSON, MA, 1749","No_Match",NA,NA,NA,NA
292462,"8 FANEUIL HALL SQ SUITE 320","BOSTON","MA",2109,NA,NA,462,"8 FANEUIL HALL SQ SUITE 320, BOSTON, MA, 2109","No_Match",NA,NA,NA,NA
292463,"8 FANEUIL HALL THIRD FLOOR","BOSTON","MA",2109,NA,NA,463,"8 FANEUIL HALL THIRD FLOOR, BOSTON, MA, 2109","No_Match",NA,NA,NA,NA
292464,"8 FAR CORNERS LOOP","SPARKS","MD",21152,39.5216927070001,-76.636042488,464,"8 FAR CORNERS LOOP, SPARKS, MD, 21152","Match","Non_Exact","8 FAR CORNERS CT, SPARKS, MD, 21152",191507227,"R"
292465,"8 FARMWOOD RD","CONCORD","NH",3301,43.2729608450001,-71.554799213,465,"8 FARMWOOD RD, CONCORD, NH, 3301","Match","Exact","8 FARMWOOD RD, CONCORD, NH, 03301",117727281,"R"
292466,"8 FARRAGUT AVENUE SUITE LITFC","BAY SHORE","NY",11706,40.746978137,-73.259377005,466,"8 FARRAGUT AVENUE SUITE LITFC, BAY SHORE, NY, 11706","Match","Exact","8 FARRAGUT AVE, BAY SHORE, NY, 11706",113995605,"L"
292467,"8 FELLS CIRCLE","WELLESLEY","MA",2482,42.303500985,-71.3137896819999,467,"8 FELLS CIRCLE, WELLESLEY, MA, 2482","Match","Exact","8 FELLS CIR, WELLESLEY, MA, 02482",87236526,"L"
292468,"8 FIAT AVENUE","ISELIN","NJ",8830,40.5761508640001,-74.32322701,468,"8 FIAT AVENUE, ISELIN, NJ, 8830","Match","Exact","8 FIAT AVE, ISELIN, NJ, 08830",60273380,"R"
292469,"8 FIELDCREST ROAD","CHESTER","NJ",7930,40.780253734,-74.688512779,469,"8 FIELDCREST ROAD, CHESTER, NJ, 7930","Match","Exact","8 FIELDCREST RD, CHESTER, NJ, 07930",60467613,"R"
292470,"8 FILOMENA DRIVE","PITTSFIELD","MA",1201,42.4262606020001,-73.2078791599999,470,"8 FILOMENA DRIVE, PITTSFIELD, MA, 1201","Match","Exact","8 FILOMENA DR, PITTSFIELD, MA, 01201",3937115,"R"
292471,"8 FIREHOUSE ROAD","BIG INDIAN","NY",12410,42.102876458,-74.442270924,471,"8 FIREHOUSE ROAD, BIG INDIAN, NY, 12410","Match","Exact","8 FIREHOUSE RD, BIG INDIAN, NY, 12410",41902265,"R"
292472,"8 FIRENZE ROAD","JACKSON","NJ",8527,40.1455671940001,-74.327626777,472,"8 FIRENZE ROAD, JACKSON, NJ, 8527","Match","Exact","8 FIRENZE RD, JACKSON, NJ, 08527",641809758,"R"
292473,"8 FOX GRAPE ROAD","HILTON HEAD ISLAND","SC",29928,32.1361603080001,-80.775473072,473,"8 FOX GRAPE ROAD, HILTON HEAD ISLAND, SC, 29928","Match","Exact","8 FOX GRAPE RD, HILTON HEAD ISLAND, SC, 29928",87630328,"R"
292474,"8 FRANCINE COURT","WHITE PLAINS","NY",10607,41.0439903400001,-73.808436505,474,"8 FRANCINE COURT, WHITE PLAINS, NY, 10607","Match","Exact","8 FRANCINE CT, WHITE PLAINS, NY, 10607",139737926,"R"
292475,"8 FRANKLIN DR","MAHOPAC","NY",10541,41.345382618,-73.718990537,475,"8 FRANKLIN DR, MAHOPAC, NY, 10541","Match","Exact","8 FRANKLIN DR, MAHOPAC, NY, 10541",139789322,"R"
292476,"8 FRANKLIN DRIVE","MAHOPAC","NY",10541,41.345382618,-73.718990537,476,"8 FRANKLIN DRIVE, MAHOPAC, NY, 10541","Match","Exact","8 FRANKLIN DR, MAHOPAC, NY, 10541",139789322,"R"
292477,"8 FREEMONT LANE","COLTS NECK","NJ",7722,40.2915538890001,-74.1961825769999,477,"8 FREEMONT LANE, COLTS NECK, NJ, 7722","Match","Exact","8 FREEMONT LN, COLTS NECK, NJ, 07722",90488563,"R"
292478,"8 GARDEN CT","SOMERVILLE","MA",2143,42.3836943150001,-71.1088186329999,478,"8 GARDEN CT, SOMERVILLE, MA, 2143","Match","Exact","8 GARDEN CT, SOMERVILLE, MA, 02143",87093100,"R"
292479,"8 GARRETSON DRIVE","FRANKLIN PARK","NJ",8823,40.4427970020001,-74.557278765,479,"8 GARRETSON DRIVE, FRANKLIN PARK, NJ, 8823","Match","Exact","8 GARRETSON DR, FRANKLIN PARK, NJ, 08823",59999731,"L"
292480,"8 GATEHOUSE RD","SEA RANCH LAKES","FL",33308,26.201674156,-80.097147934,480,"8 GATEHOUSE RD, SEA RANCH LAKES, FL, 33308","Match","Exact","8 GATEHOUSE RD, SEA RANCH LAKES, FL, 33308",114724988,"L"
292481,"8 GEORGE ST","HAMPTON BAYS","NY",11946,40.884428272,-72.507703722,481,"8 GEORGE ST, HAMPTON BAYS, NY, 11946","Match","Exact","8 GEORGE ST, HAMPTON BAYS, NY, 11946",114027226,"L"
292482,"8 GILBERT TRAIL NE","ATLANTA","GA",30308,33.768376011,-84.3792030659999,482,"8 GILBERT TRAIL NE, ATLANTA, GA, 30308","Match","Exact","8 GILBERT TRL NE, ATLANTA, GA, 30308",17343797,"R"
292483,"8 GILLEN DRIVE","PARLIN","NJ",8859,40.462673598,-74.2881938319999,483,"8 GILLEN DRIVE, PARLIN, NJ, 8859","Match","Exact","8 GILLEN DR, PARLIN, NJ, 08859",60284422,"R"
292484,"8 GLASTONBURY AVE","ROCKY HILL","CT",6067,41.6650084250001,-72.637639673,484,"8 GLASTONBURY AVE, ROCKY HILL, CT, 6067","Match","Exact","8 GLASTONBURY AVE, ROCKY HILL, CT, 06067",613822657,"L"
292485,"8 GLEN EAGLE WAY","FAIRPORT","NY",14450,43.1225964880001,-77.42600951,485,"8 GLEN EAGLE WAY, FAIRPORT, NY, 14450","Match","Exact","8 GLEN EAGLE WAY, FAIRPORT, NY, 14450",14566312,"R"
292486,"8 GLEN OAK RD","FREDERICKSBURG","VA",22405,38.3282347300001,-77.424018748,486,"8 GLEN OAK RD, FREDERICKSBURG, VA, 22405","Match","Exact","8 GLEN OAK RD, FREDERICKSBURG, VA, 22405",615265275,"L"
292487,"8 GOLDEN CIRCLE LN","SHREWSBURY","PA",17361,39.7580829280001,-76.664777666,487,"8 GOLDEN CIRCLE LN, SHREWSBURY, PA, 17361","Match","Exact","8 GOLDEN CIRCLE LN, SHREWSBURY, PA, 17361",88714165,"R"
292488,"8 GOLDEN OAKS COVE","MAUMELLE","AR",72113,34.878327368,-92.3983547129999,488,"8 GOLDEN OAKS COVE, MAUMELLE, AR, 72113","Match","Exact","8 GOLDEN OAKS COVE, MAUMELLE, AR, 72113",642519406,"R"
292489,"8 GOLDENEYE DRIVE","TOPSHAM","ME",4086,43.932783375,-69.930011726,489,"8 GOLDENEYE DRIVE, TOPSHAM, ME, 4086","Match","Exact","8 GOLDENEYE DR, TOPSHAM, ME, 04086",647510990,"R"
292490,"8 GRANITE PL UNIT 34","GAITHERSBURG","MD",20878,39.127111455,-77.238894339,490,"8 GRANITE PL UNIT 34, GAITHERSBURG, MD, 20878","Match","Exact","8 GRANITE PL, GAITHERSBURG, MD, 20878",632533053,"L"
292491,"8 GRAY ROCK DR NE","ROME","GA",30165,34.293980167,-85.232744554,491,"8 GRAY ROCK DR NE, ROME, GA, 30165","Match","Non_Exact","8 GRAY ROCK DR, ROME, GA, 30165",30700950,"R"
292492,"8 GRAYWOOD COURT","SACRAMENTO","CA",95823,38.461534027,-121.418819842,492,"8 GRAYWOOD COURT, SACRAMENTO, CA, 95823","Match","Exact","8 GRAYWOOD CT, SACRAMENTO, CA, 95823",133431216,"R"
292493,"8 GREAT QUARTER ROAD","SANDY HOOK","CT",6482,41.391975023,-73.190840118,493,"8 GREAT QUARTER ROAD, SANDY HOOK, CT, 6482","Match","Exact","8 GREAT QUARTER RD, SANDY HOOK, CT, 06482",640792697,"R"
292494,"8 GREENLEAF ST","WHITMAN","MA",2382,42.080616369,-70.945261161,494,"8 GREENLEAF ST, WHITMAN, MA, 2382","Match","Exact","8 GREENLEAF ST, WHITMAN, MA, 02382",87483534,"L"
292495,"8 GREENRIDGE ROAD","ELGIN","IL",60120,42.056097746,-88.258728304,495,"8 GREENRIDGE ROAD, ELGIN, IL, 60120","Match","Exact","8 GREENRIDGE RD, ELGIN, IL, 60120",111687364,"R"
292496,"8 GREENWOOD LANE","WOODBURY","NY",11797,40.812640044,-73.466860448,496,"8 GREENWOOD LANE, WOODBURY, NY, 11797","Match","Exact","8 GREENWOOD LN, WOODBURY, NY, 11797",147694483,"R"
292497,"8 GROVELAND ROAD","GENESEO","NY",14454,42.791677823,-77.807167766,497,"8 GROVELAND ROAD, GENESEO, NY, 14454","Match","Exact","8 GROVELAND RD, GENESEO, NY, 14454",616096086,"L"
292498,"8 GULF HILL DRIVE","SOUTH DARTMOUTH","MA",2748,41.5845036170001,-70.9727735339999,498,"8 GULF HILL DRIVE, SOUTH DARTMOUTH, MA, 2748","Match","Exact","8 GULF HILL DR, SOUTH DARTMOUTH, MA, 02748",46794704,"L"
292499,"8 GUNNISON","IRVINE","CA",92612,33.6589433350001,-117.818748106,499,"8 GUNNISON, IRVINE, CA, 92612","Match","Exact","8 GUNNISON, IRVINE, CA, 92612",624286951,"L"
292500,"8 HALSEY LANE","CLOSTER","NJ",7624,40.9696984180001,-73.947147515,500,"8 HALSEY LANE, CLOSTER, NJ, 7624","Match","Exact","8 HALSEY LN, CLOSTER, NJ, 07624",64371323,"L"
