"ID","Address","City","State","Zip","lat","long","id","input_address","match_indicator","match_type","matched_address","tiger_line_id","tiger_side"
30001,"11607 ROLLING GLEN WAY","UPPER MARLBORO","MD",20772,38.788347161,-76.8063118589999,1,"11607 ROLLING GLEN WAY, UPPER MARLBORO, MD, 20772","Match","Exact","11607 ROLLING GLEN WAY, UPPER MARLBORO, MD, 20772",76345084,"L"
30002,"11607 WILLIAMS CREEK DRIVE","CARMEL","IN",46032,39.9562729080001,-86.1697992159999,2,"11607 WILLIAMS CREEK DRIVE, CARMEL, IN, 46032","Match","Exact","11607 WILLIAMS CREEK DR, CARMEL, IN, 46032",29293849,"R"
30003,"11608 B DRIVE N","CERESCO","MI",49033,42.261558565,-85.069220045,3,"11608 B DRIVE N, CERESCO, MI, 49033","Match","Exact","11608 B DR N, CERESCO, MI, 49033",11724588,"R"
30004,"11608 BACK STREET","WHALEYVILLE","MD",21872,38.3971241410001,-75.299487144,4,"11608 BACK STREET, WHALEYVILLE, MD, 21872","Match","Exact","11608 BACK ST, WHALEYVILLE, MD, 21872",114546872,"R"
30005,"11608 CEDAR AVE","BLOOMINGTON","CA",92316,34.043389006,-117.39639739,5,"11608 CEDAR AVE, BLOOMINGTON, CA, 92316","Match","Exact","11608 CEDAR AVE, BLOOMINGTON, CA, 92316",144647379,"R"
30006,"11608 NE 92ND ST","KIRKLAND","WA",98033,47.684131188,-122.185842588,6,"11608 NE 92ND ST, KIRKLAND, WA, 98033","Match","Exact","11608 NE 92ND ST, KIRKLAND, WA, 98033",186604120,"L"
30007,"11608 OAK STREET","KANSAS CITY","MO",64114,38.9164986210001,-94.5892081059999,7,"11608 OAK STREET, KANSAS CITY, MO, 64114","Match","Exact","11608 OAK ST, KANSAS CITY, MO, 64114",91456336,"R"
30008,"11608 S 100TH E AVE","BIXBY","OK",74008,35.994417196,-95.865765762,8,"11608 S 100TH E AVE, BIXBY, OK, 74008","Match","Exact","11608 S 100TH E AVE, BIXBY, OK, 74008",641124263,"L"
30009,"11608 SHADY MEADOW WAY","MANOR","TX",78653,30.3602436960001,-97.5472945389999,9,"11608 SHADY MEADOW WAY, MANOR, TX, 78653","Match","Exact","11608 SHADY MEADOW WAY, MANOR, TX, 78653",614184236,"R"
30010,"11608 SPICEWOOD PKWY UNIT 3","AUSTIN","TX",78750,30.445974275,-97.807031619,10,"11608 SPICEWOOD PKWY UNIT 3, AUSTIN, TX, 78750","Match","Exact","11608 SPICEWOOD PKWY, AUSTIN, TX, 78750",641759261,"L"
30011,"11608 TOMAHAWK CREEK PKWY APT C","LEAWOOD","KS",66211,38.917917957,-94.633610018,11,"11608 TOMAHAWK CREEK PKWY APT C, LEAWOOD, KS, 66211","Match","Exact","11608 TOMAHAWK CREEK PKWY, LEAWOOD, KS, 66211",635349412,"L"
30012,"11608 TUCKER FARM ROAD","MIDLAND","NC",28107,NA,NA,12,"11608 TUCKER FARM ROAD, MIDLAND, NC, 28107","No_Match",NA,NA,NA,NA
30013,"11609 BIG BONE ROAD","UNION","KY",41091,38.89818724,-84.736967068,13,"11609 BIG BONE ROAD, UNION, KY, 41091","Match","Exact","11609 BIG BONE RD, UNION, KY, 41091",81960042,"L"
30014,"11609 BOURGEOIS FOREST DR","HOUSTON","TX",77066,29.9576565310001,-95.50849239,14,"11609 BOURGEOIS FOREST DR, HOUSTON, TX, 77066","Match","Exact","11609 BOURGEOIS FOREST DR, HOUSTON, TX, 77066",96130139,"L"
30015,"11609 CLOVERDALE CT SW","LAKEWOOD","WA",98499,47.152581185,-122.515396935,15,"11609 CLOVERDALE CT SW, LAKEWOOD, WA, 98499","Match","Exact","11609 CLOVERDALE CT SW, LAKEWOOD, WA, 98499",184623820,"R"
30016,"11609 HWY 699","MAURICE","LA",70555,NA,NA,16,"11609 HWY 699, MAURICE, LA, 70555","No_Match",NA,NA,NA,NA
30017,"11609 SPENCER","EL PASO","TX",79936,31.7806539360001,-106.28837669,17,"11609 SPENCER, EL PASO, TX, 79936","Match","Non_Exact","11609 SPENCER DR, EL PASO, TX, 79936",189409790,"L"
30018,"11609 SW 3RD STREET","YUKON","OK",73099,35.463893479,-97.728867445,18,"11609 SW 3RD STREET, YUKON, OK, 73099","Match","Exact","11609 SW 3RD ST, YUKON, OK, 73099",92528873,"R"
30019,"11609 WADE PARK AVE","CLEVELAND","OH",44106,41.5159202350001,-81.604044958,19,"11609 WADE PARK AVE, CLEVELAND, OH, 44106","Match","Exact","11609 WADE PARK AVE, CLEVELAND, OH, 44106",61122109,"L"
30020,"1161 14TH AVE SE","MINNEAPOLIS","MN",55414,44.9923763940001,-93.232061737,20,"1161 14TH AVE SE, MINNEAPOLIS, MN, 55414","Match","Exact","1161 14TH AVE SE, MINNEAPOLIS, MN, 55414",43637862,"L"
30021,"1161 21ST AVENUE SOUTH MCN A-1302","NASHVILLE","TN",37232,36.1445851410001,-86.799777448,21,"1161 21ST AVENUE SOUTH MCN A-1302, NASHVILLE, TN, 37232","Match","Non_Exact","1161 21ST AVE S, NASHVILLE, TN, 37212",97212707,"R"
30022,"1161 ARRINGTON ROAD","BLACKSBURG","VA",24060,37.2140420690001,-80.352100282,22,"1161 ARRINGTON ROAD, BLACKSBURG, VA, 24060","Match","Exact","1161 ARRINGTON RD, BLACKSBURG, VA, 24060",73627636,"L"
30023,"1161 CAROLINE AVENUE","MOBILE","AL",36604,30.6861041610001,-88.0638418299999,23,"1161 CAROLINE AVENUE, MOBILE, AL, 36604","Match","Exact","1161 CAROLINE AVE, MOBILE, AL, 36604",638259271,"L"
30024,"1161 CHICAGO STREET","GREEN BAY","WI",54302,44.5042932220001,-88.0051308289999,24,"1161 CHICAGO STREET, GREEN BAY, WI, 54302","Match","Non_Exact","1161 CHICAGO ST, GREEN BAY, WI, 54301",148102579,"L"
30025,"1161 CHURCH STREET","ST HELENA","CA",94574,38.50416404,-122.466854102,25,"1161 CHURCH STREET, ST HELENA, CA, 94574","Match","Exact","1161 CHURCH ST, SAINT HELENA, CA, 94574",67412978,"L"
30026,"1161 CRANE COVE BLVD","GULF BREEZE","FL",32563,30.380577229,-87.105148226,26,"1161 CRANE COVE BLVD, GULF BREEZE, FL, 32563","Match","Exact","1161 CRANE COVE BLVD, GULF BREEZE, FL, 32563",74588827,"R"
30027,"1161 ENGLISH SADDLE RD","FLORISSANT","MO",63034,38.8436387610001,-90.308665429,27,"1161 ENGLISH SADDLE RD, FLORISSANT, MO, 63034","Match","Exact","1161 ENGLISH SADDLE RD, FLORISSANT, MO, 63034",100173214,"R"
30028,"1161 FAIRMOUNT AVENUE","CHATTANOOGA","TN",37405,35.0744193200001,-85.3011855,28,"1161 FAIRMOUNT AVENUE, CHATTANOOGA, TN, 37405","Match","Exact","1161 FAIRMOUNT AVE, CHATTANOOGA, TN, 37405",652122133,"L"
30029,"1161 GLENN SPRING ROAD","PACOLET","SC",29372,34.869843808,-81.7673341719999,29,"1161 GLENN SPRING ROAD, PACOLET, SC, 29372","Match","Exact","1161 GLENN SPRINGS RD, PACOLET, SC, 29372",19452707,"R"
30030,"1161 HANSON RD","ELLENSBURG","WA",98926,46.9938466780001,-120.602518012,30,"1161 HANSON RD, ELLENSBURG, WA, 98926","Match","Exact","1161 HANSON RD, ELLENSBURG, WA, 98926",157225867,"L"
30031,"1161 JASMINE AVE","CLOVIS","CA",93611,36.8181015120001,-119.671173645,31,"1161 JASMINE AVE, CLOVIS, CA, 93611","Match","Exact","1161 JASMINE AVE, CLOVIS, CA, 93611",197601463,"R"
30032,"1161 LAURIE ROAD WEST","ROSEVILLE","MN",55113,45.0082107850001,-93.1481512,32,"1161 LAURIE ROAD WEST, ROSEVILLE, MN, 55113","Match","Exact","1161 LAURIE RD W, ROSEVILLE, MN, 55113",97640628,"R"
30033,"1161 LONGMEADOW LN","GLENCOE","IL",60022,42.1400531690001,-87.779917959,33,"1161 LONGMEADOW LN, GLENCOE, IL, 60022","Match","Exact","1161 LONGMEADOW LN, GLENCOE, IL, 60022",111840049,"R"
30034,"1161 NE 175TH ST","N MIAMI BEACH","FM",33162,NA,NA,34,"1161 NE 175TH ST, N MIAMI BEACH, FM, 33162","No_Match",NA,NA,NA,NA
30035,"1161 NW OVERTON ST APT 401","PORTLAND","OR",97209,45.5322085540001,-122.683061633,35,"1161 NW OVERTON ST APT 401, PORTLAND, OR, 97209","Match","Non_Exact","1161 NW OVERTON ST, PORTLAND, OR, 97209",639091429,"L"
30036,"1161 OSTRANDER LANE","COTTAGE GROVE","OR",97424,43.8051247070001,-123.049109727,36,"1161 OSTRANDER LANE, COTTAGE GROVE, OR, 97424","Match","Exact","1161 OSTRANDER LN, COTTAGE GROVE, OR, 97424",178223433,"L"
30037,"1161 REGALA ST","PERRIS","CA",92571,33.8053274050001,-117.201434254,37,"1161 REGALA ST, PERRIS, CA, 92571","Match","Exact","1161 REGALA ST, PERRIS, CA, 92571",649333237,"R"
30038,"1161 RINGWOOD CT  STE 130","SAN JOSE","CA",95131,37.3915002050001,-121.894813373,38,"1161 RINGWOOD CT  STE 130, SAN JOSE, CA, 95131","Match","Exact","1161 RINGWOOD CT, SAN JOSE, CA, 95131",122961870,"L"
30039,"1161 SILVER BEECH RD","HERNDON","VA",20170,39.0025927020001,-77.361671897,39,"1161 SILVER BEECH RD, HERNDON, VA, 20170","Match","Exact","1161 SILVER BEECH RD, HERNDON, VA, 20170",76023119,"L"
30040,"1161 SNOHOMISH AVE","COLUMBUS","OH",43085,40.1251423470001,-82.985686936,40,"1161 SNOHOMISH AVE, COLUMBUS, OH, 43085","Match","Exact","1161 SNOHOMISH AVE, COLUMBUS, OH, 43085",218663797,"R"
30041,"1161 SOUTH CROSSROADS DRIVE","GILBERT","AZ",85296,33.3296545090001,-111.744464354,41,"1161 SOUTH CROSSROADS DRIVE, GILBERT, AZ, 85296","Match","Exact","1161 S CROSSROADS DR, GILBERT, AZ, 85296",128810641,"L"
30042,"1161 SOUTH OAKLAND AVENUE","PASADENA","CA",91106,34.1260070710001,-118.139626277,42,"1161 SOUTH OAKLAND AVENUE, PASADENA, CA, 91106","Match","Exact","1161 S OAKLAND AVE, PASADENA, CA, 91106",653162980,"R"
30043,"1161 STEARNS DRIVE","LOS ANGELES","CA",90035,34.0550220370001,-118.369806406,43,"1161 STEARNS DRIVE, LOS ANGELES, CA, 90035","Match","Exact","1161 STEARNS DR, LOS ANGELES, CA, 90035",141598871,"R"
30044,"1161 SW WILSHIRE BLVD","BURLESON","TX",76028,32.5255505480001,-97.343341413,44,"1161 SW WILSHIRE BLVD, BURLESON, TX, 76028","Match","Exact","1161 SW WILSHIRE BLVD, BURLESON, TX, 76028",103562293,"R"
30045,"1161 TREETOP RIDGE RD","BLACKSBURG","VA",24060,37.2743263580001,-80.4065940409999,45,"1161 TREETOP RIDGE RD, BLACKSBURG, VA, 24060","Match","Exact","1161 TREETOP RIDGE RD, BLACKSBURG, VA, 24060",624152360,"R"
30046,"1161 UTE AVE","GRAND JUNCTION","CO",81501,39.065347145,-108.553182152,46,"1161 UTE AVE, GRAND JUNCTION, CO, 81501","Match","Exact","1161 UTE AVE, GRAND JCT, CO, 81501",122433189,"R"
30047,"1161 W 40 ST","HIALEAH","FL",33012,25.857574363,-80.3056764039999,47,"1161 W 40 ST, HIALEAH, FL, 33012","Match","Exact","1161 W 40TH ST, HIALEAH, FL, 33012",115956487,"L"
30048,"1161 W LAS FLORES AVE","RIDGECREST","CA",93555,35.62978939,-117.693520308,48,"1161 W LAS FLORES AVE, RIDGECREST, CA, 93555","Match","Exact","1161 W LAS FLORES AVE, RIDGECREST, CA, 93555",109033465,"R"
30049,"1161 WEST 40TH ST","HIALEAH","FL",33012,25.8575743700001,-80.305673553,49,"1161 WEST 40TH ST, HIALEAH, FL, 33012","Match","Exact","1161 W 40TH ST, HIALEAH, FL, 33012",115956487,"L"
30050,"1161 YORK AVE  APT 10B","NEW YORK","NY",10065,40.760890385,-73.9581037569999,50,"1161 YORK AVE  APT 10B, NEW YORK, NY, 10065","Match","Exact","1161 YORK AVE, NEW YORK, NY, 10065",59658457,"L"
30051,"1161 YORK AVE APT 7L","NEW YORK","NY",10065,40.760890385,-73.9581037569999,51,"1161 YORK AVE APT 7L, NEW YORK, NY, 10065","Match","Exact","1161 YORK AVE, NEW YORK, NY, 10065",59658457,"L"
30052,"11610 ANDREW STREET","BRAINERD","MN",56401,46.3232789080001,-94.2043872149999,52,"11610 ANDREW STREET, BRAINERD, MN, 56401","Match","Exact","11610 ANDREW ST, BRAINERD, MN, 56401",162855896,"L"
30053,"11610 BURT STREET APT K7","OMAHA","NE",68154,41.266037838,-96.095971471,53,"11610 BURT STREET APT K7, OMAHA, NE, 68154","Match","Exact","11610 BURT ST, OMAHA, NE, 68154",641536717,"R"
30054,"11610 ENGLISH MEADOW DRIVE","LOUISVILLE","KY",40223,38.0873482580001,-85.601496319,54,"11610 ENGLISH MEADOW DRIVE, LOUISVILLE, KY, 40223","Match","Non_Exact","11610 ENGLISH MEADOW DR, LOUISVILLE, KY, 40229",641687786,"L"
30055,"11610 NORMANDALE BLVD","BLOOMINGTON","MN",55437,44.792689382,-93.353275974,55,"11610 NORMANDALE BLVD, BLOOMINGTON, MN, 55437","Match","Exact","11610 NORMANDALE BLVD, BLOOMINGTON, MN, 55437",651216918,"R"
30056,"11610 OXNARD STREET 8","NORTH HOLLYWOOD","CA",91606,34.179408611,-118.384864371,56,"11610 OXNARD STREET 8, NORTH HOLLYWOOD, CA, 91606","Match","Exact","11610 OXNARD ST, N HOLLYWOOD, CA, 91606",652037839,"L"
30057,"11610 PLEASANT RIDGE ROAD 149","LITTLE ROCK","AR",72223,34.794889783,-92.403648043,57,"11610 PLEASANT RIDGE ROAD 149, LITTLE ROCK, AR, 72223","Match","Exact","11610 PLEASANT RIDGE RD, LITTLE ROCK, AR, 72223",83530884,"R"
30058,"11610 S BISHOP ST","CHICAGO","IL",60643,41.6827512770001,-87.657899936,58,"11610 S BISHOP ST, CHICAGO, IL, 60643","Match","Exact","11610 S BISHOP ST, CHICAGO, IL, 60643",111823742,"R"
30059,"11610 S BISHOP","CHICAGO","IL",60643,41.6827512770001,-87.657899936,59,"11610 S BISHOP, CHICAGO, IL, 60643","Match","Non_Exact","11610 S BISHOP ST, CHICAGO, IL, 60643",111823742,"R"
30060,"11610 SC HWY 3","BARNWELL","SC",29812,33.269919885,-81.346507656,60,"11610 SC HWY 3, BARNWELL, SC, 29812","Match","Non_Exact","11610 STATE HWY 3, BARNWELL, SC, 29812",19076953,"R"
30061,"11610 SOUTHPOINT LANE","WEST FRANKFORT","IL",62896,37.8677603360001,-88.938379114,61,"11610 SOUTHPOINT LANE, WEST FRANKFORT, IL, 62896","Match","Exact","11610 SOUTHPOINT LN, W FRANKFORT, IL, 62896",92953519,"L"
30062,"11610 SW 108 TER","MIAMI","FL",33176,25.667435018,-80.382930884,62,"11610 SW 108 TER, MIAMI, FL, 33176","Match","Non_Exact","11610 SW 108TH TER, MIAMI, FL, 33176",115979705,"R"
30063,"11610 TREVINO TERRACE","SAN ANTONIO","TX",78221,NA,NA,63,"11610 TREVINO TERRACE, SAN ANTONIO, TX, 78221","No_Match",NA,NA,NA,NA
30064,"11610 TUSCANY DRIVE","LAUREL","MD",20708,39.0497740220001,-76.8468379239999,64,"11610 TUSCANY DRIVE, LAUREL, MD, 20708","Match","Exact","11610 TUSCANY DR, LAUREL, MD, 20708",76339752,"R"
30065,"11611 106TH AVE NE","KIRKLAND","WA",98034,47.704294405,-122.200003446,65,"11611 106TH AVE NE, KIRKLAND, WA, 98034","Match","Exact","11611 106TH AVE NE, KIRKLAND, WA, 98034",187060050,"L"
30066,"11611 CRESTON","SAN ANTONIO","TX",78251,29.4411830280001,-98.7052149469999,66,"11611 CRESTON, SAN ANTONIO, TX, 78251","Match","Non_Exact","11611 CRESTON ST, SAN ANTONIO, TX, 78251",101697689,"L"
30067,"11611 JORDAN LANDING CT","RIVERVIEW","FL",33569,27.863118393,-82.3034628469999,67,"11611 JORDAN LANDING CT, RIVERVIEW, FL, 33569","Match","Non_Exact","11611 JORDANS LANDING CT, RIVERVIEW, FL, 33569",104641244,"R"
30068,"11611 NO MERIDIAN ST STE 300","CARMEL","IN",46032,39.957198616,-86.157619107,68,"11611 NO MERIDIAN ST STE 300, CARMEL, IN, 46032","Match","Non_Exact","11611 N MERIDIAN ST, CARMEL, IN, 46032",639691866,"L"
30069,"11611 ST RT 771","LEESBURG","OH",45135,39.327185113,-83.5428003379999,69,"11611 ST RT 771, LEESBURG, OH, 45135","Match","Non_Exact","11611 STATE RTE 771, LEESBURG, OH, 45135",641179967,"L"
30070,"11611 STATE ROUTE 771","LEESBURG","OH",45135,39.327185113,-83.5428003379999,70,"11611 STATE ROUTE 771, LEESBURG, OH, 45135","Match","Exact","11611 STATE RTE 771, LEESBURG, OH, 45135",641179967,"L"
30071,"11611 VERADERO DRIVE","SAN  ANTONIO","TX",78216,29.54696411,-98.5033408909999,71,"11611 VERADERO DRIVE, SAN  ANTONIO, TX, 78216","Match","Exact","11611 VERADERO DR, SAN ANTONIO, TX, 78216",101495727,"L"
30072,"11611 W AIRPORT BLVD STE H300","MEADOWS PLACE","TX",77477,29.647430571,-95.580887149,72,"11611 W AIRPORT BLVD STE H300, MEADOWS PLACE, TX, 77477","Match","Non_Exact","11611 W AIRPORT BLVD, MEADOWS PLACE, TX, 77477",78291214,"L"
30073,"11611 WEBB CHAPEL ROAD","DALLAS","TX",75229,NA,NA,73,"11611 WEBB CHAPEL ROAD, DALLAS, TX, 75229","No_Match",NA,NA,NA,NA
30074,"11611 WICKHOLLOW","HOUSTON","TX",77043,29.78928791,-95.589737611,74,"11611 WICKHOLLOW, HOUSTON, TX, 77043","Match","Non_Exact","11611 WICKHOLLOW LN, HOUSTON, TX, 77043",647609485,"L"
30075,"11612 20TH ST NE","SAINT MICHAEL","MN",55376,45.1817640130001,-93.6527264119999,75,"11612 20TH ST NE, SAINT MICHAEL, MN, 55376","Match","Exact","11612 20TH ST NE, SAINT MICHAEL, MN, 55376",632891894,"L"
30076,"11612 ASHTON FIELD AVENUE","RIVERVIEW","FL",33579,27.7859937600001,-82.303957106,76,"11612 ASHTON FIELD AVENUE, RIVERVIEW, FL, 33579","Match","Exact","11612 ASHTON FIELD AVE, RIVERVIEW, FL, 33579",636800782,"L"
30077,"11612 E AUGUSTA AVE","SPOKANE VALLEY","WA",99206,47.672409734,-117.249009463,77,"11612 E AUGUSTA AVE, SPOKANE VALLEY, WA, 99206","Match","Exact","11612 E AUGUSTA AVE, SPOKANE VALLEY, WA, 99206",189888376,"R"
30078,"11612 N 15TH EAST AVE","COLLINSVILLE","OK",74021,NA,NA,78,"11612 N 15TH EAST AVE, COLLINSVILLE, OK, 74021","Tie",NA,NA,NA,NA
30079,"11612 NORTH NEBRASKA AVENUE STE E","TAMPA","FL",33612,28.0538206580001,-82.451193299,79,"11612 NORTH NEBRASKA AVENUE STE E, TAMPA, FL, 33612","Match","Exact","11612 N NEBRASKA AVE, TAMPA, FL, 33612",636367291,"L"
30080,"11612 PARSONS WALK CT","GLEN ALLEN","VA",23059,37.65815567,-77.6069198439999,80,"11612 PARSONS WALK CT, GLEN ALLEN, VA, 23059","Match","Exact","11612 PARSONS WALK CT, GLEN ALLEN, VA, 23059",106695011,"R"
30081,"11612 STORYWOOD DR","RIVERVIEW","FL",33578,27.830839219,-82.332485957,81,"11612 STORYWOOD DR, RIVERVIEW, FL, 33578","Match","Exact","11612 STORYWOOD DR, RIVERVIEW, FL, 33578",646580273,"R"
30082,"11612 SW ROYAL VILLA DRIVE","PORTLAND","OR",97224,45.400363057,-122.79543577,82,"11612 SW ROYAL VILLA DRIVE, PORTLAND, OR, 97224","Match","Exact","11612 SW ROYAL VILLA DR, PORTLAND, OR, 97224",158190650,"R"
30083,"11613 CARBROOK RD","MANOR","TX",78653,30.3716878810001,-97.529562493,83,"11613 CARBROOK RD, MANOR, TX, 78653","Match","Exact","11613 CARBROOK RD, MANOR, TX, 78653",648999668,"R"
30084,"11613 HAZELNUT CT","OREGON CITY","OR",97045,NA,NA,84,"11613 HAZELNUT CT, OREGON CITY, OR, 97045","Tie",NA,NA,NA,NA
30085,"11613 HOPKINS AVENUE","CLEVELAND","OH",44108,41.5345119470001,-81.604054079,85,"11613 HOPKINS AVENUE, CLEVELAND, OH, 44108","Match","Exact","11613 HOPKINS AVE, CLEVELAND, OH, 44108",61120369,"L"
30086,"11613 LEWIS AVE","THONOTOSASSA","FL",33592,28.0551729750001,-82.297904404,86,"11613 LEWIS AVE, THONOTOSASSA, FL, 33592","Match","Exact","11613 LEWIS AVE, THONOTOSASSA, FL, 33592",104540547,"R"
30087,"11613 LIONESS ST","CHARLOTTE","NC",28273,35.1120720230001,-80.967521488,87,"11613 LIONESS ST, CHARLOTTE, NC, 28273","Match","Exact","11613 LIONESS ST, CHARLOTTE, NC, 28273",70564444,"R"
30088,"11613 SANDY BAR COURT","RANCHO CORDOVA","CA",95670,38.6278592720001,-121.246827604,88,"11613 SANDY BAR COURT, RANCHO CORDOVA, CA, 95670","Match","Exact","11613 SANDY BAR CT, RANCHO CORDOVA, CA, 95670",133364038,"L"
30089,"11614 4TH AVENUE E","BRADENTON","FL",34212,27.4957176820001,-82.4257231409999,89,"11614 4TH AVENUE E, BRADENTON, FL, 34212","Match","Exact","11614 4TH AVE E, BRADENTON, FL, 34212",16262783,"R"
30090,"11614 BADGERWOOD DRIVE","HOUSTON","TX",77013,29.7846021070001,-95.230244053,90,"11614 BADGERWOOD DRIVE, HOUSTON, TX, 77013","Match","Exact","11614 BADGERWOOD DR, HOUSTON, TX, 77013",96096197,"L"
30091,"11614 FOLEY BLVD NW","COON RAPIDS","MN",55448,45.180516423,-93.2756638979999,91,"11614 FOLEY BLVD NW, COON RAPIDS, MN, 55448","Match","Non_Exact","11614 FOLEY BLVD, COON RAPIDS, MN, 55448",97499675,"L"
30092,"11614 NORGATE DR","ST LOUIS","MO",63138,38.7817908530001,-90.233747108,92,"11614 NORGATE DR, ST LOUIS, MO, 63138","Match","Exact","11614 NORGATE DR, SAINT LOUIS, MO, 63138",100148814,"R"
30093,"11614 SHADY CREEK DRIVE","LITTLE ROCK","AR",72211,34.7342113980001,-92.4054003809999,93,"11614 SHADY CREEK DRIVE, LITTLE ROCK, AR, 72211","Match","Exact","11614 SHADY CREEK DR, LITTLE ROCK, AR, 72211",83550807,"R"
30094,"11615 205TH STREET","SAINT ALBANS","NY",11412,NA,NA,94,"11615 205TH STREET, SAINT ALBANS, NY, 11412","No_Match",NA,NA,NA,NA
30095,"11615 CARDINAL SKY","SAN ANTONIO","TX",78245,29.423051134,-98.722423808,95,"11615 CARDINAL SKY, SAN ANTONIO, TX, 78245","Match","Exact","11615 CARDINAL SKY, SAN ANTONIO, TX, 78245",619943531,"L"
30096,"11615 CLOCK TOWER LANE","LAUREL","MD",20708,39.048723593,-76.854462194,96,"11615 CLOCK TOWER LANE, LAUREL, MD, 20708","Match","Non_Exact","11615 CLOCKTOWER LN, LAUREL, MD, 20708",76339782,"L"
30097,"11615 COUNTRY RUN RD","TAMPA","FL",33624,28.053319276,-82.522006555,97,"11615 COUNTRY RUN RD, TAMPA, FL, 33624","Match","Exact","11615 COUNTRY RUN RD, TAMPA, FL, 33624",104513732,"L"
30098,"11615 EVERGOLD STREET","SAN DIEGO","CA",92131,32.9302638630001,-117.069478106,98,"11615 EVERGOLD STREET, SAN DIEGO, CA, 92131","Match","Exact","11615 EVERGOLD ST, SAN DIEGO, CA, 92131",650459114,"L"
30099,"11615 FOREST CENTRAL DR STE 110","DALLAS","TX",75243,32.907281712,-96.7671081079999,99,"11615 FOREST CENTRAL DR STE 110, DALLAS, TX, 75243","Match","Exact","11615 FOREST CENTRAL DR, DALLAS, TX, 75243",103244274,"L"
30100,"11615 KNOBCREST DRIVE","HOUSTON","TX",77070,29.9819032610001,-95.5930592299999,100,"11615 KNOBCREST DRIVE, HOUSTON, TX, 77070","Match","Exact","11615 KNOBCREST DR, HOUSTON, TX, 77070",638593328,"R"
30101,"11615 RIVERSIDE DRIVE UNIT 212","NORTH HOLLYWOOD","CA",91602,34.157635806,-118.38599217,101,"11615 RIVERSIDE DRIVE UNIT 212, NORTH HOLLYWOOD, CA, 91602","Match","Exact","11615 RIVERSIDE DR, N HOLLYWOOD, CA, 91602",638631374,"R"
30102,"11615 SHOTGUN WAY","HELOTES","TX",78023,29.5524664970001,-98.679549488,102,"11615 SHOTGUN WAY, HELOTES, TX, 78023","Match","Exact","11615 SHOTGUN WAY, HELOTES, TX, 78023",101586582,"L"
30103,"11615 TALL PINES DRIVE","GERMANTOWN","MD",20876,39.2048180420001,-77.2406756249999,103,"11615 TALL PINES DRIVE, GERMANTOWN, MD, 20876","Match","Exact","11615 TALL PINES DR, GERMANTOWN, MD, 20876",62100075,"L"
30104,"11615 VALLEY FORGE","SELLERSBURG","IN",47172,38.4247827040001,-85.7988198469999,104,"11615 VALLEY FORGE, SELLERSBURG, IN, 47172","Match","Exact","11615 VALLEY FORGE, SELLERSBURG, IN, 47172",624530917,"L"
30105,"11616 BUNKY HENRY LANE","EL PASO","TX",79936,31.761811326,-106.291975022,105,"11616 BUNKY HENRY LANE, EL PASO, TX, 79936","Match","Exact","11616 BUNKY HENRY LN, EL PASO, TX, 79936",189377006,"R"
30106,"11616 CRENSHAW BLVD APT 3","INGLEWOOD","CA",90303,33.9266640170001,-118.326417264,106,"11616 CRENSHAW BLVD APT 3, INGLEWOOD, CA, 90303","Match","Exact","11616 CRENSHAW BLVD, INGLEWOOD, CA, 90303",141823153,"L"
30107,"11616 FEBRUARY DRIVE","AUSTIN","TX",78753,30.378866628,-97.664359326,107,"11616 FEBRUARY DRIVE, AUSTIN, TX, 78753","Match","Exact","11616 FEBRUARY DR, AUSTIN, TX, 78753",64025563,"L"
30108,"11616 GARVEY AVENUE","EL MONTE","CA",91732,34.062827858,-118.02592877,108,"11616 GARVEY AVENUE, EL MONTE, CA, 91732","Match","Exact","11616 GARVEY AVE, EL MONTE, CA, 91732",141649620,"R"
30109,"11616 HAWTHORNE BLVD     SUITE 201","HAWTHORNE","CA",90250,33.92884811,-118.352460506,109,"11616 HAWTHORNE BLVD     SUITE 201, HAWTHORNE, CA, 90250","Match","Exact","11616 HAWTHORNE BLVD, HAWTHORNE, CA, 90250",142751127,"L"
30110,"11616 LOCUST LANE","WHITMORE LAKE","MI",48189,42.432576715,-83.8551138999999,110,"11616 LOCUST LANE, WHITMORE LAKE, MI, 48189","Match","Exact","11616 LOCUST LN, WHITMORE LAKE, MI, 48189",23561612,"R"
30111,"11616 OLDE COVINGTON WAY","GLEN ALLEN","VA",23059,37.691091123,-77.5990593559999,111,"11616 OLDE COVINGTON WAY, GLEN ALLEN, VA, 23059","Match","Exact","11616 OLDE COVINGTON WAY, GLEN ALLEN, VA, 23059",624295818,"L"
30112,"11616 PALMER AVE","KANSAS CITY","MO",64134,38.9129364120001,-94.502547013,112,"11616 PALMER AVE, KANSAS CITY, MO, 64134","Match","Exact","11616 PALMER AVE, KANSAS CITY, MO, 64134",91466149,"R"
30113,"11616 PEAR TREE DRIVE","NEW PORT RICHEY","FL",34654,28.3261386790001,-82.623556982,113,"11616 PEAR TREE DRIVE, NEW PORT RICHEY, FL, 34654","Match","Exact","11616 PEAR TREE DR, NEW PORT RICHEY, FL, 34654",86380970,"L"
30114,"11616 VALLEY VIEW AVE UNIT  D","LA MIRADA","CA",90604,33.9251878250001,-118.028970831,114,"11616 VALLEY VIEW AVE UNIT  D, LA MIRADA, CA, 90604","Match","Non_Exact","11616 VALLEY VIEW AVE, WHITTIER, CA, 90604",142662208,"L"
30115,"11617 105 AVE SW","VASHON","WA",98070,47.501651855,-122.468159394,115,"11617 105 AVE SW, VASHON, WA, 98070","Match","Exact","11617 105TH AVE SW, VASHON, WA, 98070",187003539,"L"
30116,"11617 ABLOOM WAY","HOUSTON","TX",77066,29.944409331,-95.4954204209999,116,"11617 ABLOOM WAY, HOUSTON, TX, 77066","Match","Exact","11617 ABLOOM WAY, HOUSTON, TX, 77066",624186819,"L"
30117,"11617 HUNT CLUB ROAD","THURMONT","MD",21788,NA,NA,117,"11617 HUNT CLUB ROAD, THURMONT, MD, 21788","No_Match",NA,NA,NA,NA
30118,"11617 OLD QUARRY DRIVE","CLERMONT","FL",34711,28.5153415930001,-81.747678751,118,"11617 OLD QUARRY DRIVE, CLERMONT, FL, 34711","Match","Exact","11617 OLD QUARRY DR, CLERMONT, FL, 34711",640741254,"L"
30119,"11618 AMARA PLACE","WOODBRIDGE","VA",22192,38.6995264280001,-77.3242231529999,119,"11618 AMARA PLACE, WOODBRIDGE, VA, 22192","Match","Exact","11618 AMARA PL, WOODBRIDGE, VA, 22192",76532275,"L"
30120,"11618 BRIAN DR","FREDERICKSBURG","VA",22407,38.277410694,-77.5952364679999,120,"11618 BRIAN DR, FREDERICKSBURG, VA, 22407","Match","Exact","11618 BRIAN DR, FREDERICKSBURG, VA, 22407",649985987,"L"
30121,"11618 SOUTH STATE ST STE 1603","DRAPER","UT",84020,40.541046796,-111.89131579,121,"11618 SOUTH STATE ST STE 1603, DRAPER, UT, 84020","Match","Exact","11618 S STATE ST, DRAPER, UT, 84020",646655934,"R"
30122,"11618 W HOLLY STREET","AVONDALE","AZ",85392,33.4692461770001,-112.308580897,122,"11618 W HOLLY STREET, AVONDALE, AZ, 85392","Match","Exact","11618 W HOLLY ST, AVONDALE, AZ, 85392",128403316,"R"
30123,"11619 BRISTOL CHASE DRIVE","TAMPA","FL",33626,28.083846034,-82.618203896,123,"11619 BRISTOL CHASE DRIVE, TAMPA, FL, 33626","Match","Exact","11619 BRISTOL CHASE DR, TAMPA, FL, 33626",104675154,"R"
30124,"1162 ALDERMAN STREET NE","AIKEN","SC",29801,33.5776345350001,-81.6973955289999,124,"1162 ALDERMAN STREET NE, AIKEN, SC, 29801","Match","Non_Exact","1162 ALDERMAN ST, AIKEN, SC, 29801",64992045,"R"
30125,"1162 ASHTON PARK DRIVE SE","LAWRENCEVILLE","GA",30045,33.947111373,-83.935032269,125,"1162 ASHTON PARK DRIVE SE, LAWRENCEVILLE, GA, 30045","Match","Exact","1162 ASHTON PARK DR SE, LAWRENCEVILLE, GA, 30045",628087755,"L"
30126,"1162 CHALKSTONE AVE","PROVIDENCE","RI",2908,41.832753977,-71.446801802,126,"1162 CHALKSTONE AVE, PROVIDENCE, RI, 2908","Match","Exact","1162 CHALKSTONE AVE, PROVIDENCE, RI, 02908",47458096,"L"
30127,"1162 CHESTNUT AVE","AUSTIN","TX",78702,30.2716460440001,-97.715414261,127,"1162 CHESTNUT AVE, AUSTIN, TX, 78702","Match","Exact","1162 CHESTNUT AVE, AUSTIN, TX, 78702",63947040,"L"
30128,"1162 DUCK HORN DR","NORMAL","IL",61761,40.5285194100001,-88.9236623099999,128,"1162 DUCK HORN DR, NORMAL, IL, 61761","Match","Exact","1162 DUCK HORN DR, NORMAL, IL, 61761",633813899,"R"
30129,"1162 E SONTERRA BLVD - SUITE 300","SAN ANTONIO","TX",78258,29.6148142920001,-98.47403824,129,"1162 E SONTERRA BLVD - SUITE 300, SAN ANTONIO, TX, 78258","Match","Non_Exact","1162 E SONTERRA BLVD, SAN ANTONIO, TX, 78258",639527243,"L"
30130,"1162 GLENDALE BLVD","LOS ANGELES","CA",90026,NA,NA,130,"1162 GLENDALE BLVD, LOS ANGELES, CA, 90026","Tie",NA,NA,NA,NA
30131,"1162 HILLOCK CROSSING","VIRGINIA BEACH","VA",23455,36.8825445090001,-76.177245393,131,"1162 HILLOCK CROSSING, VIRGINIA BEACH, VA, 23455","Match","Exact","1162 HILLOCK CROSSING, VIRGINIA BCH, VA, 23455",122258673,"L"
30132,"1162 HOLT ST","NORFOLK","VA",23504,36.8462841370001,-76.2798307149999,132,"1162 HOLT ST, NORFOLK, VA, 23504","Match","Exact","1162 HOLT ST, NORFOLK, VA, 23504",122127902,"L"
30133,"1162 LANDSDOWNE DRIVE","CHARLESTON","SC",29412,32.725039291,-79.9544234539999,133,"1162 LANDSDOWNE DRIVE, CHARLESTON, SC, 29412","Match","Exact","1162 LANDSDOWNE DR, CHARLESTON, SC, 29412",108859401,"L"
30134,"1162 MCCOURY LANE","SPRING HILL","TN",37174,35.7748588370001,-86.9035496819999,134,"1162 MCCOURY LANE, SPRING HILL, TN, 37174","Match","Exact","1162 MCCOURY LN, SPRING HILL, TN, 37174",73135040,"L"
30135,"1162 OLD MAIN","AKRON","OH",44301,41.0554304250001,-81.529061701,135,"1162 OLD MAIN, AKRON, OH, 44301","Match","Non_Exact","1162 OLD MAIN ST, AKRON, OH, 44301",61344757,"R"
30136,"1162 PROSPECT ROAD","PITTSBURGH","PA",15227,40.3631794340001,-79.976049538,136,"1162 PROSPECT ROAD, PITTSBURGH, PA, 15227","Match","Exact","1162 PROSPECT RD, PITTSBURGH, PA, 15227",51640017,"R"
30137,"1162 PUTNAM AVE APT 1","BROOKLYN","NY",11221,40.6897770040001,-73.917089722,137,"1162 PUTNAM AVE APT 1, BROOKLYN, NY, 11221","Match","Exact","1162 PUTNAM AVE, BROOKLYN, NY, 11221",59083126,"R"
30138,"1162 RIDGEWAY RD","LUGOFF","SC",29078,34.2261042860001,-80.7083632009999,138,"1162 RIDGEWAY RD, LUGOFF, SC, 29078","Match","Exact","1162 RIDGEWAY RD, LUGOFF, SC, 29078",78482593,"R"
30139,"1162 RYAN CT","WEST LINN","OR",97068,45.3538123590001,-122.664843043,139,"1162 RYAN CT, WEST LINN, OR, 97068","Match","Exact","1162 RYAN CT, WEST LINN, OR, 97068",157917729,"R"
30140,"1162 S CHRISTINE ST","WICHITA","KS",67218,37.6672669170001,-97.270272642,140,"1162 S CHRISTINE ST, WICHITA, KS, 67218","Match","Non_Exact","1162 S CHRISTINE RD, WICHITA, KS, 67218",115651121,"L"
30141,"1162 ST MARKS AVE APT 2F","BROOKLYN","NY",11213,40.674188305,-73.931400668,141,"1162 ST MARKS AVE APT 2F, BROOKLYN, NY, 11213","Match","Exact","1162 ST MARKS AVE, BROOKLYN, NY, 11213",59079751,"R"
30142,"1162 TEAKWOOD CIRCLE SUITE 150","HASLETT","MI",48840,42.7416327870001,-84.389542288,142,"1162 TEAKWOOD CIRCLE SUITE 150, HASLETT, MI, 48840","Match","Exact","1162 TEAKWOOD CIR, HASLETT, MI, 48840",17518205,"L"
30143,"1162 WINSTON DR","DECATUR","GA",30032,33.7610127240001,-84.234354659,143,"1162 WINSTON DR, DECATUR, GA, 30032","Match","Exact","1162 WINSTON DR, DECATUR, GA, 30032",23378160,"L"
30144,"1162","MERCED","CA",95340,NA,NA,144,"1162, MERCED, CA, 95340","No_Match",NA,NA,NA,NA
30145,"11620 AUDELIA RD APT 125","DALLAS","TX",75243,32.907944695,-96.7176593569999,145,"11620 AUDELIA RD APT 125, DALLAS, TX, 75243","Match","Exact","11620 AUDELIA RD, DALLAS, TX, 75243",648226400,"R"
30146,"11620 CHERRYLEE DRIVE","EL MONTE","CA",91732,34.0949857580001,-118.01166293,146,"11620 CHERRYLEE DRIVE, EL MONTE, CA, 91732","Match","Exact","11620 CHERRYLEE DR, EL MONTE, CA, 91732",142747043,"R"
30147,"11620 DANVILLE DRIVE","ROCKVILLE","MD",20852,39.046159824,-77.131118914,147,"11620 DANVILLE DRIVE, ROCKVILLE, MD, 20852","Match","Exact","11620 DANVILLE DR, ROCKVILLE, MD, 20852",62055942,"L"
30148,"11620 E POST OAK","NOBLE","OK",73068,35.1603870610001,-97.271618656,148,"11620 E POST OAK, NOBLE, OK, 73068","Match","Non_Exact","11620 E POST OAK RD, NOBLE, OK, 73068",99927780,"R"
30149,"11620 FLORIDA AVE N","CHAMPLIN","MN",55316,45.1651447130001,-93.363190774,149,"11620 FLORIDA AVE N, CHAMPLIN, MN, 55316","Match","Exact","11620 FLORIDA AVE N, CHAMPLIN, MN, 55316",43613359,"R"
30150,"11620 MAYFIELD AVENUE 111","LOS ANGELES","CA",90049,34.0529553160001,-118.461951536,150,"11620 MAYFIELD AVENUE 111, LOS ANGELES, CA, 90049","Match","Exact","11620 MAYFIELD AVE, LOS ANGELES, CA, 90049",141567117,"L"
30151,"11620 NE 144TH PL","KIRKLAND","WA",98034,47.7316318680001,-122.185595911,151,"11620 NE 144TH PL, KIRKLAND, WA, 98034","Match","Exact","11620 NE 144TH PL, KIRKLAND, WA, 98034",186599922,"L"
30152,"11620 PLANTERS ESTATE DRIVE","CHARLOTTE","NC",28278,35.124198441,-80.995245325,152,"11620 PLANTERS ESTATE DRIVE, CHARLOTTE, NC, 28278","Match","Non_Exact","11620 PLANTERS ESTATES DR, CHARLOTTE, NC, 28278",70552559,"R"
30153,"11620 SIERRA VISTA RD","PHELAN","CA",92371,34.461239999,-117.566190568,153,"11620 SIERRA VISTA RD, PHELAN, CA, 92371","Match","Exact","11620 SIERRA VISTA RD, PHELAN, CA, 92371",144756839,"L"
30154,"11620 XAVIS STREET NW","COON RAPIDS","MN",55433,45.1816775360001,-93.329614466,154,"11620 XAVIS STREET NW, COON RAPIDS, MN, 55433","Match","Exact","11620 XAVIS ST NW, COON RAPIDS, MN, 55433",97484286,"L"
30155,"11621 BEARDSLEY WAY","FISHERS","IN",46038,39.9887747550001,-85.960535364,155,"11621 BEARDSLEY WAY, FISHERS, IN, 46038","Match","Exact","11621 BEARDSLEY WAY, FISHERS, IN, 46038",646621186,"R"
30156,"11621 CRIPPLE CREEK DRIVE","CORPUS CHRISTI","TX",78410,27.8457039680001,-97.5980399599999,156,"11621 CRIPPLE CREEK DRIVE, CORPUS CHRISTI, TX, 78410","Match","Exact","11621 CRIPPLE CREEK DR, CORPUS CHRISTI, TX, 78410",178511276,"R"
30157,"11621 N DOLLY CIRCLE","BERLIN","MD",21811,38.39892673,-75.168583723,157,"11621 N DOLLY CIRCLE, BERLIN, MD, 21811","Match","Exact","11621 N DOLLY CIR, BERLIN, MD, 21811",114527453,"R"
30158,"11621 NW 6TH STREET","PLANTATION","FL",33325,26.1280844290001,-80.304036905,158,"11621 NW 6TH STREET, PLANTATION, FL, 33325","Match","Exact","11621 NW 6TH ST, PLANTATION, FL, 33325",114810246,"R"
30159,"11621 SHADOW RUN LANE","GLEN ALLEN","VA",23059,37.6709613200001,-77.5987155129999,159,"11621 SHADOW RUN LANE, GLEN ALLEN, VA, 23059","Match","Exact","11621 SHADOW RUN LN, GLEN ALLEN, VA, 23059",106670897,"R"
30160,"11621 SOUTH 4000 WEST SUITE 101","SOUTH JORDAN","UT",84095,40.5399565330001,-111.986289569,160,"11621 SOUTH 4000 WEST SUITE 101, SOUTH JORDAN, UT, 84095","Match","Non_Exact","11621 S 4000 W, SOUTH JORDAN, UT, 84009",645571975,"L"
30161,"11621 YALDING DR","JACKSONVILLE","FL",32223,30.1625387220001,-81.645275412,161,"11621 YALDING DR, JACKSONVILLE, FL, 32223","Match","Exact","11621 YALDING DR, JACKSONVILLE, FL, 32223",83949941,"L"
30162,"11622 OXNARD STREET","NORTH HOLLYWOOD","CA",91606,34.179408611,-118.385211327,162,"11622 OXNARD STREET, NORTH HOLLYWOOD, CA, 91606","Match","Exact","11622 OXNARD ST, N HOLLYWOOD, CA, 91606",652037839,"L"
30163,"11622 PIPELINE AVE","CHINO","CA",91710,34.042577652,-117.715704681,163,"11622 PIPELINE AVE, CHINO, CA, 91710","Match","Exact","11622 PIPELINE AVE, CHINO, CA, 91710",144670496,"R"
30164,"11622 ROAD 11 SW","ROYAL CITY","WA",99357,46.92840477,-119.740109862,164,"11622 ROAD 11 SW, ROYAL CITY, WA, 99357","Match","Exact","11622 RD 11 SW, ROYAL CITY, WA, 99357",157100128,"R"
30165,"11622 S WESTERN AVE","CHICAGO","IL",60643,41.6818829270001,-87.6808522589999,165,"11622 S WESTERN AVE, CHICAGO, IL, 60643","Match","Non_Exact","11622 S WESTERN AVE, CHICAGO, IL, 60643",111822656,"R"
30166,"11622 W NORTH AVENUE","WAUWATOSA","WI",53226,43.060032171,-88.058188827,166,"11622 W NORTH AVENUE, WAUWATOSA, WI, 53226","Match","Exact","11622 W NORTH AVE, WAUWATOSA, WI, 53226",77727430,"R"
30167,"11623 ARRYO DRIVE","SAINT LOUIS","MO",63033,38.789992714,-90.2367852309999,167,"11623 ARRYO DRIVE, SAINT LOUIS, MO, 63033","Match","Non_Exact","11623 ARROYO DR, FLORISSANT, MO, 63033",100148565,"L"
30168,"11623 CLIVEDEN DRIVE","HOUSTON","TX",77066,29.95103999,-95.4827266519999,168,"11623 CLIVEDEN DRIVE, HOUSTON, TX, 77066","Match","Exact","11623 CLIVEDEN DR, HOUSTON, TX, 77066",96011239,"L"
30169,"11623 GRISSOM DR","PAPILLION","SC",68046,NA,NA,169,"11623 GRISSOM DR, PAPILLION, SC, 68046","No_Match",NA,NA,NA,NA
30170,"11623 HI RIDGE RD","LAKESIDE","CA",92040,32.8899247700001,-116.939082816,170,"11623 HI RIDGE RD, LAKESIDE, CA, 92040","Match","Exact","11623 HI RIDGE RD, LAKESIDE, CA, 92040",645484832,"R"
30171,"11623 SHERBORNE CIRCLE SOUTH","JACKSONVILLE","FL",32225,30.372260112,-81.512097145,171,"11623 SHERBORNE CIRCLE SOUTH, JACKSONVILLE, FL, 32225","Match","Exact","11623 SHERBORNE CIR S, JACKSONVILLE, FL, 32225",83941199,"L"
30172,"11623 WHITE CROSS","SAN ANTONIO","TX",78253,29.4416081700001,-98.717382991,172,"11623 WHITE CROSS, SAN ANTONIO, TX, 78253","Match","Exact","11623 WHITE CROSS, SAN ANTONIO, TX, 78253",101695748,"R"
30173,"11624 COLLEGE PARK TRL APT R","ORLANDO","FL",32826,28.577214725,-81.210135276,173,"11624 COLLEGE PARK TRL APT R, ORLANDO, FL, 32826","Match","Exact","11624 COLLEGE PARK TRL, ORLANDO, FL, 32826",648248076,"R"
30174,"11624 JOLLYVILLE ROAD APT 1232","AUSTIN","TX",78759,30.4169017930001,-97.749632918,174,"11624 JOLLYVILLE ROAD APT 1232, AUSTIN, TX, 78759","Match","Exact","11624 JOLLYVILLE RD, AUSTIN, TX, 78759",649361314,"L"
30175,"11624 N 39TH AVENUE","PHOENIX","AZ",85029,33.591837791,-112.142701647,175,"11624 N 39TH AVENUE, PHOENIX, AZ, 85029","Match","Exact","11624 N 39TH AVE, PHOENIX, AZ, 85029",128177930,"L"
30176,"11624 N STAR DR","FORT WASHINGTON","MD",20744,38.730693494,-76.983151144,176,"11624 N STAR DR, FORT WASHINGTON, MD, 20744","Match","Exact","11624 N STAR DR, FT WASHINGTON, MD, 20744",76345681,"L"
30177,"11624 SE 192ND ST","RENTON","WA",98058,47.430221073,-122.186024478,177,"11624 SE 192ND ST, RENTON, WA, 98058","Match","Exact","11624 SE 192ND ST, RENTON, WA, 98058",625367789,"L"
30178,"11624 WARREN OAKS PLACE","RIVERVIEW","FL",33578,27.830811683,-82.33132066,178,"11624 WARREN OAKS PLACE, RIVERVIEW, FL, 33578","Match","Exact","11624 WARREN OAKS PL, RIVERVIEW, FL, 33578",646580258,"L"
30179,"11625 CUSTER RD STE 110-237","FRISCO","TX",75035,33.172520623,-96.732919291,179,"11625 CUSTER RD STE 110-237, FRISCO, TX, 75035","Match","Non_Exact","11625 S CUSTER RD, FRISCO, TX, 75035",642472801,"L"
30180,"11625 CUSTER RD SUITE 110 NO 307","FRISCO","TX",75035,33.172520623,-96.732919291,180,"11625 CUSTER RD SUITE 110 NO 307, FRISCO, TX, 75035","Match","Non_Exact","11625 S CUSTER RD, FRISCO, TX, 75035",642472801,"L"
30181,"11625 CUSTER RD SUITE 110-137","FRISCO","TX",75035,33.172520623,-96.732919291,181,"11625 CUSTER RD SUITE 110-137, FRISCO, TX, 75035","Match","Non_Exact","11625 S CUSTER RD, FRISCO, TX, 75035",642472801,"L"
30182,"11625 CUSTER ROAD STE 110  PMB 106","FRISCO","TX",75035,33.172520623,-96.732919291,182,"11625 CUSTER ROAD STE 110  PMB 106, FRISCO, TX, 75035","Match","Non_Exact","11625 S CUSTER RD, FRISCO, TX, 75035",642472801,"L"
30183,"11625 CUSTER ROAD SUITE 110 BOX 191","FRISCO","TX",75035,33.172520623,-96.732919291,183,"11625 CUSTER ROAD SUITE 110 BOX 191, FRISCO, TX, 75035","Match","Non_Exact","11625 S CUSTER RD, FRISCO, TX, 75035",642472801,"L"
30184,"11625 LA GRANGE RD","BOISE","ID",83709,43.553854249,-116.322479757,184,"11625 LA GRANGE RD, BOISE, ID, 83709","Match","Non_Exact","11625 LA GRANGE ST, BOISE, ID, 83709",617931997,"L"
30185,"11625 MARTINDALE RD","HOUSTON","TX",77048,29.635054376,-95.3239726479999,185,"11625 MARTINDALE RD, HOUSTON, TX, 77048","Match","Exact","11625 MARTINDALE RD, HOUSTON, TX, 77048",96596159,"L"
30186,"11625 PRINCE ANDREW COURT","MONTGOMERY","TX",77316,30.2857264100001,-95.6133993289999,186,"11625 PRINCE ANDREW COURT, MONTGOMERY, TX, 77316","Match","Exact","11625 PRINCE ANDREW CT, MONTGOMERY, TX, 77316",79338812,"L"
30187,"11625 ROSEGLEN ST","EL MONTE","CA",91732,34.0920895990001,-118.013219533,187,"11625 ROSEGLEN ST, EL MONTE, CA, 91732","Match","Exact","11625 ROSEGLEN ST, EL MONTE, CA, 91732",141650716,"L"
30188,"11626 FORSYTHIA ST","JURUPA VALLEY","CA",91752,NA,NA,188,"11626 FORSYTHIA ST, JURUPA VALLEY, CA, 91752","No_Match",NA,NA,NA,NA
30189,"11626 GLEN ARBOR TERRACE","KANSAS CITY","MO",64114,38.9165951260001,-94.599651391,189,"11626 GLEN ARBOR TERRACE, KANSAS CITY, MO, 64114","Match","Exact","11626 GLEN ARBOR TER, KANSAS CITY, MO, 64114",91494149,"R"
30190,"11626 MENLO AVE APT B","HAWTHORNE","CA",90250,33.928786894,-118.347118197,190,"11626 MENLO AVE APT B, HAWTHORNE, CA, 90250","Match","Exact","11626 MENLO AVE, HAWTHORNE, CA, 90250",241242697,"L"
30191,"11626 N SUNSET HILLS DRIVE","HIGHLAND","UT",84003,40.443381152,-111.816109119,191,"11626 N SUNSET HILLS DRIVE, HIGHLAND, UT, 84003","Match","Exact","11626 SUNSET HILLS DR, HIGHLAND, UT, 84003",629665707,"L"
30192,"11626 NEWELL DRIV","PORT RICHEY","FL",34668,28.3264396070001,-82.6898099699999,192,"11626 NEWELL DRIV, PORT RICHEY, FL, 34668","Match","Exact","11626 NEWELL DR, PORT RICHEY, FL, 34668",86335951,"R"
30193,"11626 S WATER STREET","OLATHE","KS",66061,38.918689601,-94.817502087,193,"11626 S WATER STREET, OLATHE, KS, 66061","Match","Exact","11626 S WATER ST, OLATHE, KS, 66061",648728460,"R"
30194,"11626 SLATER AVENUE NE SUITE 9","KIRKLAND","WA",98034,47.704853589,-122.174721633,194,"11626 SLATER AVENUE NE SUITE 9, KIRKLAND, WA, 98034","Match","Exact","11626 SLATER AVE NE, KIRKLAND, WA, 98034",629174649,"R"
30195,"11626 SUNLAND ST","DALLAS","TX",75218,32.8527477970001,-96.687445589,195,"11626 SUNLAND ST, DALLAS, TX, 75218","Match","Exact","11626 SUNLAND ST, DALLAS, TX, 75218",102923011,"R"
30196,"11626 WOLFSVILLE ROAD","MYERSVILLE","MD",21773,39.553599714,-77.5259680789999,196,"11626 WOLFSVILLE ROAD, MYERSVILLE, MD, 21773","Match","Exact","11626 WOLFSVILLE RD, MYERSVILLE, MD, 21773",638668904,"L"
30197,"11627 LOUIS ST","MIAMI","FL",33176,25.632886913,-80.381713416,197,"11627 LOUIS ST, MIAMI, FL, 33176","Match","Exact","11627 LOUIS ST, MIAMI, FL, 33176",115981605,"R"
30198,"11627 SAGE MEADOW LN","HOUSTON","TX",77089,29.5823554360001,-95.2192955259999,198,"11627 SAGE MEADOW LN, HOUSTON, TX, 77089","Match","Non_Exact","11627 SAGEMEADOW LN, HOUSTON, TX, 77089",96113791,"L"
30199,"11627 SINCLAIR DRIVE","INDIANAPOLIS","IN",46235,39.8509042850001,-85.960203167,199,"11627 SINCLAIR DRIVE, INDIANAPOLIS, IN, 46235","Match","Exact","11627 SINCLAIR DR, INDIANAPOLIS, IN, 46235",108059027,"R"
30200,"11628 OLD BALLAS ROAD","CREVE COEUR","MO",63141,38.666459466,-90.439800952,200,"11628 OLD BALLAS ROAD, CREVE COEUR, MO, 63141","Match","Exact","11628 OLD BALLAS RD, CREVE COEUR, MO, 63141",640053835,"L"
30201,"11629 BEACON AVE S","SEATTLE","WA",98178,47.4987502880001,-122.264488918,201,"11629 BEACON AVE S, SEATTLE, WA, 98178","Match","Exact","11629 BEACON AVE S, SEATTLE, WA, 98178",186629544,"R"
30202,"11629 BROAD RIVER ROAD","CHAPIN","SC",29063,34.167806582,-81.27271688,202,"11629 BROAD RIVER ROAD, CHAPIN, SC, 29063","Match","Non_Exact","11629 BROAD RIVER RD, CHAPIN, SC, 29036",71809969,"L"
30203,"11629 E MANANA ROAD","CAVE CREEK","AZ",85331,33.874490807,-111.829830903,203,"11629 E MANANA ROAD, CAVE CREEK, AZ, 85331","Match","Exact","11629 E MANANA RD, CAVE CREEK, AZ, 85331",642856417,"L"
30204,"11629 N FM 1417  FM 1417 EXTENSION","SHERMAN","TX",75090,NA,NA,204,"11629 N FM 1417  FM 1417 EXTENSION, SHERMAN, TX, 75090","No_Match",NA,NA,NA,NA
30205,"11629 SONNET DRIVE","DALLAS","TX",75229,32.906852121,-96.860401693,205,"11629 SONNET DRIVE, DALLAS, TX, 75229","Match","Exact","11629 SONNET DR, DALLAS, TX, 75229",102898296,"L"
30206,"11629 SW 224 STREET","MIAMI","FL",33170,25.558957143,-80.3798160059999,206,"11629 SW 224 STREET, MIAMI, FL, 33170","Match","Exact","11629 SW 224TH ST, MIAMI, FL, 33170",115994930,"R"
30207,"11629 W 68TH TERR","SHAWNEE","KS",66203,39.005625335,-94.72097884,207,"11629 W 68TH TERR, SHAWNEE, KS, 66203","Match","Exact","11629 W 68TH TER, SHAWNEE, KS, 66203",91270318,"L"
30208,"1163 24TH ST STE 100","DES MOINES","IA",50311,41.5994966490001,-93.64969486,208,"1163 24TH ST STE 100, DES MOINES, IA, 50311","Match","Exact","1163 24TH ST, DES MOINES, IA, 50311",638630047,"R"
30209,"1163 BERGER RD","TEMPLE","TX",76501,31.156296834,-97.308662989,209,"1163 BERGER RD, TEMPLE, TX, 76501","Match","Exact","1163 BERGER RD, TEMPLE, TX, 76501",146151131,"R"
30210,"1163 BROOKWAY COURT","MUSKEGON","MI",49441,43.155608138,-86.273325244,210,"1163 BROOKWAY COURT, MUSKEGON, MI, 49441","Match","Exact","1163 BROOKWAY CT, MUSKEGON, MI, 49441",77662977,"R"
30211,"1163 CHAPPELL MILL ROAD","JACKSON","GA",30233,NA,NA,211,"1163 CHAPPELL MILL ROAD, JACKSON, GA, 30233","No_Match",NA,NA,NA,NA
30212,"1163 CLEVELAND AVE","PARK HILLS","KY",41011,39.075891144,-84.5335917149999,212,"1163 CLEVELAND AVE, PARK HILLS, KY, 41011","Match","Exact","1163 CLEVELAND AVE, PARK HILLS, KY, 41011",103884803,"L"
30213,"1163 DANA MAPLE CT","LAS VEGAS","NV",89123,36.021252657,-115.13766549,213,"1163 DANA MAPLE CT, LAS VEGAS, NV, 89123","Match","Exact","1163 DANA MAPLE CT, LAS VEGAS, NV, 89123",625026566,"R"
30214,"1163 DEAN AVE","SAN JOSE","CA",95125,37.29824462,-121.896181615,214,"1163 DEAN AVE, SAN JOSE, CA, 95125","Match","Exact","1163 DEAN AVE, SAN JOSE, CA, 95125",122909801,"R"
30215,"1163 E AVIARY PLACE","SALT LAKE CITY","UT",84117,40.6669538300001,-111.858294426,215,"1163 E AVIARY PLACE, SALT LAKE CITY, UT, 84117","Match","Exact","1163 E AVIARY PL, SALT LAKE CITY, UT, 84117",611647898,"L"
30216,"1163 EAST PARK AVENUE","VINELAND","NJ",8360,39.4905178870001,-75.00095533,216,"1163 EAST PARK AVENUE, VINELAND, NJ, 8360","Match","Exact","1163 E PARK AVE, VINELAND, NJ, 08360",174111665,"R"
30217,"1163 FURMAN DR","SUMTER","SC",29154,33.951944155,-80.462605536,217,"1163 FURMAN DR, SUMTER, SC, 29154","Match","Exact","1163 FURMAN DR, SUMTER, SC, 29154",202704128,"R"
30218,"1163 GARIBALDI ST","ATLANTA","GA",30310,33.7239338540001,-84.3992516019999,218,"1163 GARIBALDI ST, ATLANTA, GA, 30310","Match","Non_Exact","1163 GARIBALDI ST SW, ATLANTA, GA, 30310",17346238,"R"
30219,"1163 N HACIENDA BLVD","LA PUENTE","CA",91744,34.0413651740001,-117.949535059,219,"1163 N HACIENDA BLVD, LA PUENTE, CA, 91744","Match","Exact","1163 N HACIENDA BLVD, LA PUENTE, CA, 91744",241245587,"L"
30220,"1163 NORTH BELMONT AVENUE","INDIANAPOLIS","IN",46222,39.7835955080001,-86.196776798,220,"1163 NORTH BELMONT AVENUE, INDIANAPOLIS, IN, 46222","Match","Exact","1163 N BELMONT AVE, INDIANAPOLIS, IN, 46222",107986188,"R"
30221,"1163 OLD COLONY ROAD NO 13","WALLINGFORD","CT",6492,NA,NA,221,"1163 OLD COLONY ROAD NO 13, WALLINGFORD, CT, 6492","No_Match",NA,NA,NA,NA
30222,"1163 RUE BAYONNE","MANDEVILLE","LA",70471,30.3881248760001,-90.094952945,222,"1163 RUE BAYONNE, MANDEVILLE, LA, 70471","Match","Exact","1163 RUE BAYONNE, MANDEVILLE, LA, 70471",111285229,"R"
30223,"1163 SPENCER ROAD","SAINT PETERS","MO",63376,38.7683754350001,-90.5999895849999,223,"1163 SPENCER ROAD, SAINT PETERS, MO, 63376","Match","Exact","1163 SPENCER RD, SAINT PETERS, MO, 63376",605575621,"R"
30224,"1163 SUNRISE CIRCLE","WASHINGTON","UT",84780,37.1434579370001,-113.529870369,224,"1163 SUNRISE CIRCLE, WASHINGTON, UT, 84780","Match","Exact","1163 SUNRISE CIR, WASHINGTON, UT, 84780",166197611,"R"
30225,"1163 SWAN DR","ELBURN","IL",60119,41.8762780960001,-88.455127336,225,"1163 SWAN DR, ELBURN, IL, 60119","Match","Exact","1163 SWAN DR, ELBURN, IL, 60119",119588800,"R"
30226,"1163 W BROKEN BOW DR","PUEBLO WEST","CO",81007,38.340174602,-104.793466937,226,"1163 W BROKEN BOW DR, PUEBLO WEST, CO, 81007","Match","Exact","1163 W BROKEN BOW DR, PUEBLO WEST, CO, 81007",105034097,"R"
30227,"1163 W PEACHTREE ST NE APT 707","ATLANTA","GA",30309,NA,NA,227,"1163 W PEACHTREE ST NE APT 707, ATLANTA, GA, 30309","Tie",NA,NA,NA,NA
30228,"11630 ARDATH AVE","HAWTHORNE","CA",90250,33.9283458520001,-118.323611383,228,"11630 ARDATH AVE, HAWTHORNE, CA, 90250","Match","Exact","11630 ARDATH AVE, HAWTHORNE, CA, 90250",141808258,"L"
30229,"11630 CAROLINE ROAD","PHILADELPHIA","PA",19154,40.098055243,-75.0034036289999,229,"11630 CAROLINE ROAD, PHILADELPHIA, PA, 19154","Match","Exact","11630 CAROLINE RD, PHILADELPHIA, PA, 19154",131454083,"L"
30230,"11630 NE FREMONT ST","PORTLAND","OR",97220,45.5480114640001,-122.544148706,230,"11630 NE FREMONT ST, PORTLAND, OR, 97220","Match","Exact","11630 NE FREMONT ST, PORTLAND, OR, 97220",157605543,"R"
30231,"11630 REMINGTON STREET","LAKE VIEW TERRACE","CA",91342,34.2831932010001,-118.385603868,231,"11630 REMINGTON STREET, LAKE VIEW TERRACE, CA, 91342","Match","Exact","11630 REMINGTON ST, LAKE VIEW TERRACE, CA, 91342",141788743,"R"
30232,"11630 STEEL","DETROIT","MI",48227,42.3735158100001,-83.1706168649999,232,"11630 STEEL, DETROIT, MI, 48227","Match","Non_Exact","11630 STEEL AVE, DETROIT, MI, 48227",95442571,"R"
30233,"11631 SALTER-COLVIN RD","WOLCOTT","NY",14590,43.192282639,-76.8292611049999,233,"11631 SALTER-COLVIN RD, WOLCOTT, NY, 14590","Match","Non_Exact","11631 SALTER COLVIN RD, WOLCOTT, NY, 14590",14918209,"L"
30234,"11631 SE LINWOOD AVE","MILWAUKIE","OR",97222,45.4391470900001,-122.599285658,234,"11631 SE LINWOOD AVE, MILWAUKIE, OR, 97222","Match","Exact","11631 SE LINWOOD AVE, MILWAUKIE, OR, 97222",157961871,"R"
30235,"11631 SW 2ND STREET SUITE 306","PEMBROKE PINES","FL",33025,26.0049900000001,-80.304689997,235,"11631 SW 2ND STREET SUITE 306, PEMBROKE PINES, FL, 33025","Match","Non_Exact","11631 SW 2ND ST, PEMBROKE PINES, FL, 33025",114781986,"R"
30236,"11631 VILLAGE WAY 401","MIRAMAR","FL",33025,25.987505162,-80.298029,236,"11631 VILLAGE WAY 401, MIRAMAR, FL, 33025","Match","Exact","11631 VILLAGE WAY, MIRAMAR, FL, 33025",648557976,"R"
30237,"11632 HARRISBURG RD","FORT MILL","SC",29707,35.0501687350001,-80.893890456,237,"11632 HARRISBURG RD, FORT MILL, SC, 29707","Match","Exact","11632 HARRISBURG RD, FORT MILL, SC, 29707",40708238,"R"
30238,"11632 MADDIE AVE","FORT WORTH","TX",76244,32.941278563,-97.278381579,238,"11632 MADDIE AVE, FORT WORTH, TX, 76244","Match","Exact","11632 MADDIE AVE, FORT WORTH, TX, 76244",619002143,"L"
30239,"11632 MOUNT WAVERLY CT","RANCHO CUCAMONGA","CA",91737,34.1412709860001,-117.550174707,239,"11632 MOUNT WAVERLY CT, RANCHO CUCAMONGA, CA, 91737","Match","Exact","11632 MT WAVERLY CT, RANCHO CUCAMONGA, CA, 91737",144697646,"L"
30240,"11633 34TH STREET","LAKE ELMO","MN",55042,NA,NA,240,"11633 34TH STREET, LAKE ELMO, MN, 55042","No_Match",NA,NA,NA,NA
30241,"11633 HAMPTON PARK BLVD","JACKSONVILLE","FL",32256,30.226733344,-81.5052102989999,241,"11633 HAMPTON PARK BLVD, JACKSONVILLE, FL, 32256","Match","Exact","11633 HAMPTON PARK BLVD, JACKSONVILLE, FL, 32256",83989876,"L"
30242,"11633 KINGSVILLE DR","FRISCO","TX",75035,33.1797337310001,-96.77780045,242,"11633 KINGSVILLE DR, FRISCO, TX, 75035","Match","Exact","11633 KINGSVILLE DR, FRISCO, TX, 75035",210527622,"R"
30243,"11633 THISTLE HILL PLACE","SAN DIEGO","CA",92130,32.929940721,-117.222701277,243,"11633 THISTLE HILL PLACE, SAN DIEGO, CA, 92130","Match","Exact","11633 THISTLE HILL PL, SAN DIEGO, CA, 92130",195756813,"R"
30244,"11634 126TH STREET","SOUTH OZONE PARK","NY",11420,NA,NA,244,"11634 126TH STREET, SOUTH OZONE PARK, NY, 11420","No_Match",NA,NA,NA,NA
30245,"11634 BLACK HAWK LANE","MORENO VALLEY","CA",92557,33.950435052,-117.280762385,245,"11634 BLACK HAWK LANE, MORENO VALLEY, CA, 92557","Match","Exact","11634 BLACK HAWK LN, MORENO VALLEY, CA, 92557",194747082,"R"
30246,"11634 GRAVOIS ROAD","ST. LOUIS","MO",63126,38.53517974,-90.3815234149999,246,"11634 GRAVOIS ROAD, ST. LOUIS, MO, 63126","Match","Exact","11634 GRAVOIS RD, SAINT LOUIS, MO, 63126",615048183,"L"
30247,"11634 SOUTH OAKLEY AVENUE","CHICAGO","IL",60643,41.681599981,-87.6790497279999,247,"11634 SOUTH OAKLEY AVENUE, CHICAGO, IL, 60643","Match","Exact","11634 S OAKLEY AVE, CHICAGO, IL, 60643",111823365,"R"
30248,"11635 133RD ST","QUEENS","NY",11420,NA,NA,248,"11635 133RD ST, QUEENS, NY, 11420","No_Match",NA,NA,NA,NA
30249,"11635 WHITE FIR TRAIL","TRUCKEE","CA",96161,39.3328354860001,-120.213910098,249,"11635 WHITE FIR TRAIL, TRUCKEE, CA, 96161","Match","Exact","11635 WHITE FIR TRL, TRUCKEE, CA, 96161",106524944,"L"
30250,"11636 BARRINGTON COURT","LOS ANGELES","CA",90049,34.0650381070001,-118.469348834,250,"11636 BARRINGTON COURT, LOS ANGELES, CA, 90049","Match","Exact","11636 BARRINGTON CT, LOS ANGELES, CA, 90049",141566842,"L"
30251,"11636 CANTON PLACE","STUDIO CITY","CA",91604,34.1329315470001,-118.387163309,251,"11636 CANTON PLACE, STUDIO CITY, CA, 91604","Match","Exact","11636 CANTON PL, STUDIO CITY, CA, 91604",141565885,"L"
30252,"11636 RANGE VIEW RD","MIRA LOMA","CA",91752,33.977505541,-117.53713438,252,"11636 RANGE VIEW RD, MIRA LOMA, CA, 91752","Match","Exact","11636 RANGE VIEW RD, MIRA LOMA, CA, 91752",194789573,"L"
30253,"11637 BULLIS ROAD","MARILLA","NY",14102,42.840368395,-78.553872296,253,"11637 BULLIS ROAD, MARILLA, NY, 14102","Match","Exact","11637 BULLIS RD, MARILLA, NY, 14102",48313707,"R"
30254,"11637 RANGE LINE RD","BERRIEN SPRINGS","MI",49103,41.907922796,-86.3398405889999,254,"11637 RANGE LINE RD, BERRIEN SPRINGS, MI, 49103","Match","Exact","11637 RANGE LINE RD, BERRIEN SPRINGS, MI, 49103",119990142,"L"
30255,"116376 GATESVILLE DRIVE","FRISCO","TX",75035,NA,NA,255,"116376 GATESVILLE DRIVE, FRISCO, TX, 75035","No_Match",NA,NA,NA,NA
30256,"11638 AMARILLO CT","DUBLIN","CA",94568,37.7047607540001,-121.944411551,256,"11638 AMARILLO CT, DUBLIN, CA, 94568","Match","Exact","11638 AMARILLO CT, DUBLIN, CA, 94568",125016646,"L"
30257,"11638 BUCKINGHAM DRIVE","DELMAR","DE",19940,38.4618659430001,-75.549314361,257,"11638 BUCKINGHAM DRIVE, DELMAR, DE, 19940","Match","Exact","11638 BUCKINGHAM DR, DELMAR, DE, 19940",650817888,"R"
30258,"11639 COUNTY LINE RD","GATES MILLS","OH",44040,41.553938857,-81.39082932,258,"11639 COUNTY LINE RD, GATES MILLS, OH, 44040","Match","Exact","11639 COUNTY LINE RD, GATES MILLS, OH, 44040",61136868,"L"
30259,"11639 E NAVAJO DR","CHANDLER","AZ",85249,33.2049700800001,-111.830710395,259,"11639 E NAVAJO DR, CHANDLER, AZ, 85249","Match","Exact","11639 E NAVAJO DR, CHANDLER, AZ, 85249",243999900,"R"
30260,"11639 SW 236 STREET","HOMESTEAD","FL",33032,25.548040277,-80.379528964,260,"11639 SW 236 STREET, HOMESTEAD, FL, 33032","Match","Exact","11639 SW 236TH ST, HOMESTEAD, FL, 33032",638638246,"L"
30261,"11639 SW JAMAICA","WILSONVILLE","OR",97070,45.2962433870001,-122.796200538,261,"11639 SW JAMAICA, WILSONVILLE, OR, 97070","Match","Exact","11639 JAMAICA, WILSONVILLE, OR, 97070",157937380,"L"
30262,"116394 S 4220 RD","EUFAULA","OK",74432,NA,NA,262,"116394 S 4220 RD, EUFAULA, OK, 74432","No_Match",NA,NA,NA,NA
30263,"1164 101ST AVE NE UNIT C","BLAINE","MN",55434,45.1534793880001,-93.241428318,263,"1164 101ST AVE NE UNIT C, BLAINE, MN, 55434","Match","Exact","1164 101ST AVE NE, BLAINE, MN, 55434",647492401,"L"
30264,"1164 49TH AVENUE SE","SALEM","OR",97317,44.9149298740001,-122.960923925,264,"1164 49TH AVENUE SE, SALEM, OR, 97317","Match","Exact","1164 49TH AVE SE, SALEM, OR, 97317",647639865,"L"
30265,"1164 58 STREET","BROOKLYN","NY",11219,40.6318071370001,-74.000382929,265,"1164 58 STREET, BROOKLYN, NY, 11219","Match","Exact","1164 58TH ST, BROOKLYN, NY, 11219",59094961,"R"
30266,"1164 CERES MANOR CT","CHICO","CA",95926,39.757659518,-121.832701245,266,"1164 CERES MANOR CT, CHICO, CA, 95926","Match","Exact","1164 CERES MANOR CT, CHICO, CA, 95926",68485577,"L"
30267,"1164 EBONY LN","FRANKLIN","IN",46131,39.496154846,-86.075324114,267,"1164 EBONY LN, FRANKLIN, IN, 46131","Match","Exact","1164 EBONY LN, FRANKLIN, IN, 46131",114652336,"L"
30268,"1164 HWY 36","MOUNT VERNON","AR",72111,35.1928308080001,-92.14931899,268,"1164 HWY 36, MOUNT VERNON, AR, 72111","Match","Non_Exact","1164 STATE HWY 36, MOUNT VERNON, AR, 72111",141042099,"R"
30269,"1164 LABRADOR COURT","NEWMAN","CA",95360,37.3208445650001,-121.009212817,269,"1164 LABRADOR COURT, NEWMAN, CA, 95360","Match","Exact","1164 LABRADOR CT, NEWMAN, CA, 95360",102625846,"L"
30270,"1164 LAUREL STREET","BERKELEY","CA",94708,37.8869838370001,-122.263300574,270,"1164 LAUREL STREET, BERKELEY, CA, 94708","Match","Exact","1164 LAUREL ST, BERKELEY, CA, 94708",124997979,"R"
30271,"1164 N SAPPHIRE DRIVE","JASPER","IN",47546,38.3951771930001,-86.982761222,271,"1164 N SAPPHIRE DRIVE, JASPER, IN, 47546","Match","Exact","1164 N SAPPHIRE DR, JASPER, IN, 47546",7888501,"L"
30272,"1164 NE 130TH ST","NORTH MIAMI","FL",33161,25.895300913,-80.175292102,272,"1164 NE 130TH ST, NORTH MIAMI, FL, 33161","Match","Exact","1164 NE 130TH ST, NORTH MIAMI, FL, 33161",116037174,"R"
30273,"1164 NORTH BLVD","SHASTA LAKE","CA",96019,40.6852541010001,-122.375445488,273,"1164 NORTH BLVD, SHASTA LAKE, CA, 96019","Match","Exact","1164 NORTH BLVD, SHASTA LAKE, CA, 96019",126625516,"L"
30274,"1164 NW 44TH TERR","LAUDERHILL","FL",33313,26.1395578950001,-80.2091599519999,274,"1164 NW 44TH TERR, LAUDERHILL, FL, 33313","Match","Exact","1164 NW 44TH TER, LAUDERHILL, FL, 33313",114708235,"R"
30275,"1164 OLD ALAMEDA POINT","ALAMEDA","CA",94502,37.7296486120001,-122.238499257,275,"1164 OLD ALAMEDA POINT, ALAMEDA, CA, 94502","Match","Exact","1164 OLD ALAMEDA PT, ALAMEDA, CA, 94502",125085856,"L"
30276,"1164 OLD LANCASTER ROAD","BERWYN","PA",19312,40.044383403,-75.45773974,276,"1164 OLD LANCASTER ROAD, BERWYN, PA, 19312","Match","Exact","1164 OLD LANCASTER RD, BERWYN, PA, 19312",179498670,"R"
30277,"1164 RIVER ROCK DR","KENNEDALE","TX",76060,32.6445819690001,-97.210714339,277,"1164 RIVER ROCK DR, KENNEDALE, TX, 76060","Match","Exact","1164 RIVER ROCK DR, KENNEDALE, TX, 76060",612159860,"R"
30278,"1164 ROYCOTT WAY","SAN JOSE","CA",95125,37.294093258,-121.892983007,278,"1164 ROYCOTT WAY, SAN JOSE, CA, 95125","Match","Exact","1164 ROYCOTT WAY, SAN JOSE, CA, 95125",123180673,"L"
30279,"1164 SEAMAS AVE","SACRAMENTO","CA",95822,38.5247151310001,-121.515752723,279,"1164 SEAMAS AVE, SACRAMENTO, CA, 95822","Match","Exact","1164 SEAMAS AVE, SACRAMENTO, CA, 95822",133322853,"R"
30280,"1164 SHADYGLEN CIRCLE","RICHARDSON","TX",75081,32.9458637590001,-96.707917642,280,"1164 SHADYGLEN CIRCLE, RICHARDSON, TX, 75081","Match","Exact","1164 SHADYGLEN CIR, RICHARDSON, TX, 75081",102915708,"R"
30281,"1164 SHELTER LN","LANSING","MI",48912,42.746790122,-84.504612088,281,"1164 SHELTER LN, LANSING, MI, 48912","Match","Exact","1164 SHELTER LN, LANSING, MI, 48912",17501514,"R"
30282,"1164 SOUTH FAIRFAX AVENUE APT 1","LOS ANGELES","CA",90019,34.0543073430001,-118.365593288,282,"1164 SOUTH FAIRFAX AVENUE APT 1, LOS ANGELES, CA, 90019","Match","Exact","1164 S FAIRFAX AVE, LOS ANGELES, CA, 90019",653236372,"L"
30283,"1164 SPICER ROAD","ROARING RIVER","NC",28669,36.299196712,-80.982010698,283,"1164 SPICER ROAD, ROARING RIVER, NC, 28669","Match","Exact","1164 SPICER RD, ROARING RIVER, NC, 28669",611374471,"L"
30284,"1164 TRENTINI AVENUE","WAKE FOREST","NC",27587,35.9529645420001,-78.501430687,284,"1164 TRENTINI AVENUE, WAKE FOREST, NC, 27587","Match","Exact","1164 TRENTINI AVE, WAKE FOREST, NC, 27587",72665078,"R"
30285,"1164 WINDING WAY DRIVE","KNOXVILLE","TN",37923,35.9440804970001,-84.107192985,285,"1164 WINDING WAY DRIVE, KNOXVILLE, TN, 37923","Match","Exact","1164 WINDING WAY DR, KNOXVILLE, TN, 37923",42640274,"R"
30286,"1164 WOODBRIDGE DR","CLARKSVILLE","TN",37042,36.5784405640001,-87.392827036,286,"1164 WOODBRIDGE DR, CLARKSVILLE, TN, 37042","Match","Exact","1164 WOODBRIDGE DR, CLARKSVILLE, TN, 37042",31825217,"L"
30287,"1164 WOODBRIDGE DRIVE","CLARKSVILLE","TN",37042,36.5784405640001,-87.392827036,287,"1164 WOODBRIDGE DRIVE, CLARKSVILLE, TN, 37042","Match","Exact","1164 WOODBRIDGE DR, CLARKSVILLE, TN, 37042",31825217,"L"
30288,"11640 CERVINO DRIVE","RENO","NV",89521,39.404542598,-119.737503824,288,"11640 CERVINO DRIVE, RENO, NV, 89521","Match","Exact","11640 CERVINO DR, RENO, NV, 89521",648836042,"R"
30289,"11640 MARINO COURT","FORT MYERS","FL",33908,26.5114297160001,-81.9473522009999,289,"11640 MARINO COURT, FORT MYERS, FL, 33908","Match","Exact","11640 MARINO CT, FORT MYERS, FL, 33908",641068199,"R"
30290,"11640 MENLO AVENUE NUMBER 1","HAWTHORNE","CA",90250,33.928679215,-118.347117733,290,"11640 MENLO AVENUE NUMBER 1, HAWTHORNE, CA, 90250","Match","Exact","11640 MENLO AVE, HAWTHORNE, CA, 90250",241242697,"L"
30291,"11640 N TATUM BLVD UNIT 2094","PHOENIX","AZ",85028,33.5926830270001,-111.979054298,291,"11640 N TATUM BLVD UNIT 2094, PHOENIX, AZ, 85028","Match","Non_Exact","11640 N TATUM BLVD, PHOENIX, AZ, 85028",652595582,"L"
30292,"11640 SITKA STREET","RENO","NV",89506,39.676920012,-119.839208393,292,"11640 SITKA STREET, RENO, NV, 89506","Match","Exact","11640 SITKA ST, RENO, NV, 89506",107040433,"L"
30293,"11641 EAST VIA CANADA","YUMA","AZ",85367,32.675158885,-114.432131442,293,"11641 EAST VIA CANADA, YUMA, AZ, 85367","Match","Exact","11641 E VIA CANADA, YUMA, AZ, 85367",639948455,"R"
30294,"11641 N LAKE SHORE DR","MEQUON","WI",53092,43.2295446300001,-87.914068091,294,"11641 N LAKE SHORE DR, MEQUON, WI, 53092","Match","Exact","11641 LAKE SHORE DR, MEQUON, WI, 53092",95903231,"L"
30295,"11641 PARTRIDGE RUN LN","POTOMAC","MD",20854,39.0490759960001,-77.239597042,295,"11641 PARTRIDGE RUN LN, POTOMAC, MD, 20854","Match","Exact","11641 PARTRIDGE RUN LN, POTOMAC, MD, 20854",62120251,"L"
30296,"11641 SE WINGSPAN WAY","HAPPY VALLEY","OR",97086,45.4391702680001,-122.555767225,296,"11641 SE WINGSPAN WAY, HAPPY VALLEY, OR, 97086","Match","Exact","11641 SE WINGSPAN WAY, HAPPY VALLEY, OR, 97086",633195123,"R"
30297,"11642 DORADA AVE","GARDEN GROVE","CA",92840,33.778314317,-117.929728283,297,"11642 DORADA AVE, GARDEN GROVE, CA, 92840","Match","Exact","11642 DORADA AVE, GARDEN GROVE, CA, 92840",144036442,"R"
30298,"11642 HARTMAN AVE","OMAHA","NE",68164,41.3101360380001,-96.089872401,298,"11642 HARTMAN AVE, OMAHA, NE, 68164","Match","Exact","11642 HARTMAN AVE, OMAHA, NE, 68164",116968339,"R"
30299,"11642 MARBLE ARCH DR","SANTA ANA","CA",92705,33.7627198330001,-117.793457999,299,"11642 MARBLE ARCH DR, SANTA ANA, CA, 92705","Match","Exact","11642 MARBLE ARCH DR, SANTA ANA, CA, 92705",144056118,"L"
30300,"11643 169TH STREET","ARTESIA","CA",90701,33.877183852,-118.085307585,300,"11643 169TH STREET, ARTESIA, CA, 90701","Match","Exact","11643 169TH ST, ARTESIA, CA, 90701",141743822,"L"
30301,"11643 CARDINAL SKY","SAN ANTONIO","TX",78245,29.4230594050001,-98.7235541269999,301,"11643 CARDINAL SKY, SAN ANTONIO, TX, 78245","Match","Exact","11643 CARDINAL SKY, SAN ANTONIO, TX, 78245",619943528,"L"
30302,"11643 JACKMAN COVE LANE","JACKSONVILLE","FL",32218,30.44768191,-81.662040657,302,"11643 JACKMAN COVE LANE, JACKSONVILLE, FL, 32218","Match","Exact","11643 JACKMAN COVE LN, JACKSONVILLE, FL, 32218",83939160,"L"
30303,"11644 EDISON ST NE","BLAINE","MN",55449,45.1814655900001,-93.195595962,303,"11644 EDISON ST NE, BLAINE, MN, 55449","Match","Exact","11644 EDISON ST NE, BLAINE, MN, 55449",633500956,"L"
30304,"11644 FLAMBEAU RD","BUTTERNUT","WI",54514,46.0038622060001,-90.4044484309999,304,"11644 FLAMBEAU RD, BUTTERNUT, WI, 54514","Match","Exact","11644 FLAMBEAU RD, BUTTERNUT, WI, 54514",607941121,"R"
30305,"11645 BANK RD","CINCINNATI","OH",45251,39.2951791620001,-84.593517293,305,"11645 BANK RD, CINCINNATI, OH, 45251","Match","Exact","11645 BANK RD, CINCINNATI, OH, 45251",103942167,"L"
30306,"11645 GORHAM AVENUE SUITE 206","LOS ANGELES","CA",90049,34.055017988,-118.464797284,306,"11645 GORHAM AVENUE SUITE 206, LOS ANGELES, CA, 90049","Match","Exact","11645 GORHAM AVE, LOS ANGELES, CA, 90049",642865329,"R"
30307,"11645 JAMES RICHARD DR","CHARLOTTE","NC",28277,35.0346764830001,-80.7829854889999,307,"11645 JAMES RICHARD DR, CHARLOTTE, NC, 28277","Match","Exact","11645 JAMES RICHARD DR, CHARLOTTE, NC, 28277",70547853,"L"
30308,"11645 LADUE RD","ST LOUIS","MO",63141,38.6554764110001,-90.4392258409999,308,"11645 LADUE RD, ST LOUIS, MO, 63141","Match","Exact","11645 LADUE RD, SAINT LOUIS, MO, 63141",604552992,"R"
30309,"11645 N 25TH PLACE APT 135","PHOENIX","AZ",85028,33.592881656,-112.027225673,309,"11645 N 25TH PLACE APT 135, PHOENIX, AZ, 85028","Match","Non_Exact","11645 N 25TH PL, PHOENIX, AZ, 85028",638049865,"R"
30310,"11646 SOUTH STREET","TREMPEALEAU","WI",54661,44.0080640090001,-91.439241739,310,"11646 SOUTH STREET, TREMPEALEAU, WI, 54661","Match","Exact","11646 SOUTH ST, TREMPEALEAU, WI, 54661",46235270,"R"
30311,"11647 BELLAGIO ROAD","LOS ANGELES","CA",90049,34.076828092,-118.46702922,311,"11647 BELLAGIO ROAD, LOS ANGELES, CA, 90049","Match","Exact","11647 BELLAGIO RD, LOS ANGELES, CA, 90049",142456011,"R"
30312,"11647 LIBERTY LANE","PLAINFIELD","IL",60585,41.6722743070001,-88.222964835,312,"11647 LIBERTY LANE, PLAINFIELD, IL, 60585","Match","Exact","11647 LIBERTY LN, PLAINFIELD, IL, 60585",111635813,"L"
30313,"11647 MACRINUS DR","SAINT LOUIS","MO",63033,38.78338596,-90.271078324,313,"11647 MACRINUS DR, SAINT LOUIS, MO, 63033","Match","Non_Exact","11647 MACRINUS DR, FLORISSANT, MO, 63033",100145431,"L"
30314,"11648 DURGIN RD SE","OLYMPIA","WA",98513,47.0470588410001,-122.694551644,314,"11648 DURGIN RD SE, OLYMPIA, WA, 98513","Match","Exact","11648 DURGIN RD SE, OLYMPIA, WA, 98513",625601401,"R"
30315,"11648 KNOLLWOOD ROAD","NORTHPORT","AL",35475,33.315480177,-87.5848642079999,315,"11648 KNOLLWOOD ROAD, NORTHPORT, AL, 35475","Match","Exact","11648 KNOLLWOOD RD, NORTHPORT, AL, 35475",82178773,"R"
30316,"11649 CARONDELET LANE","JACKSONVILLE","GA",32218,NA,NA,316,"11649 CARONDELET LANE, JACKSONVILLE, GA, 32218","No_Match",NA,NA,NA,NA
30317,"11649 OAKLAND STREET","HENDERSON","CO",80640,39.9080673610001,-104.850923259,317,"11649 OAKLAND STREET, HENDERSON, CO, 80640","Match","Exact","11649 OAKLAND ST, HENDERSON, CO, 80640",177426613,"L"
30318,"11649 REDHILL ROAD","CLARKTON","NC",28433,34.459688124,-78.665205685,318,"11649 REDHILL ROAD, CLARKTON, NC, 28433","Match","Non_Exact","11649 RED HILL RD, CLARKTON, NC, 28433",642249401,"L"
30319,"1165 ADRIAN WAY","SAN JOSE","CA",95122,37.3449773020001,-121.833198263,319,"1165 ADRIAN WAY, SAN JOSE, CA, 95122","Match","Exact","1165 ADRIAN WAY, SAN JOSE, CA, 95122",122912684,"R"
30320,"1165 AENEAS VALLEY RD","TONASKET","WA",98855,48.561821729,-119.026361897,320,"1165 AENEAS VALLEY RD, TONASKET, WA, 98855","Match","Exact","1165 AENEAS VALLEY RD, TONASKET, WA, 98855",157356721,"L"
30321,"1165 ANMOORE RD","BRIDGEPORT","WV",26330,39.2675510010001,-80.280048855,321,"1165 ANMOORE RD, BRIDGEPORT, WV, 26330","Match","Exact","1165 ANMOORE RD, BRIDGEPORT, WV, 26330",645577081,"R"
30322,"1165 BELL BUCKLE WARTRACE ROAD","WARTRACE","TN",37183,35.5684104920001,-86.357767166,322,"1165 BELL BUCKLE WARTRACE ROAD, WARTRACE, TN, 37183","Match","Exact","1165 BELL BUCKLE WARTRACE RD, WARTRACE, TN, 37183",58856494,"L"
30323,"1165 BREAM DRIVE","MILTON","GA",30004,34.171786469,-84.325732423,323,"1165 BREAM DRIVE, MILTON, GA, 30004","Match","Exact","1165 BREAM DR, MILTON, GA, 30004",629841240,"R"
30324,"1165 COUNTY RD 858","NAPLES","FL",34120,26.2927690230001,-81.582702427,324,"1165 COUNTY RD 858, NAPLES, FL, 34120","Match","Exact","1165 CO RD 858, NAPLES, FL, 34120",639074862,"L"
30325,"1165 DODGETOWN ROAD","WALNUT COVE","NC",27052,36.3736663890001,-80.1809311279999,325,"1165 DODGETOWN ROAD, WALNUT COVE, NC, 27052","Match","Exact","1165 DODGETOWN RD, WALNUT COVE, NC, 27052",56342087,"L"
30326,"1165 DOUGLAS AVENUE","WANTAGH","NY",11793,40.6933681830001,-73.525261246,326,"1165 DOUGLAS AVENUE, WANTAGH, NY, 11793","Match","Exact","1165 DOUGLAS AVE, WANTAGH, NY, 11793",147636398,"L"
30327,"1165 E MARY LANE","GILBERT","AZ",85295,33.295051571,-111.76425687,327,"1165 E MARY LANE, GILBERT, AZ, 85295","Match","Exact","1165 MARY LN, GILBERT, AZ, 85295",128874488,"R"
30328,"1165 EAST 54TH STREET 1Y","BROOKLYN","NY",11234,40.6293788040001,-73.924081808,328,"1165 EAST 54TH STREET 1Y, BROOKLYN, NY, 11234","Match","Exact","1165 E 54TH ST, BROOKLYN, NY, 11234",59086093,"L"
30329,"1165 EATON AVENUE","HAMILTON","OH",45013,39.42410312,-84.5769670239999,329,"1165 EATON AVENUE, HAMILTON, OH, 45013","Match","Exact","1165 EATON AVE, HAMILTON, OH, 45013",113788152,"L"
30330,"1165 FIRE CRACKER DRIVE APT 621","BUDA","TX",78610,30.0793229500001,-97.8159398509999,330,"1165 FIRE CRACKER DRIVE APT 621, BUDA, TX, 78610","Match","Non_Exact","1165 FIRECRACKER RD, BUDA, TX, 78610",650671571,"L"
30331,"1165 FLOWING SPRINGS TRAIL","FLAGSTAFF","AZ",86004,35.1976897320001,-111.609586765,331,"1165 FLOWING SPRINGS TRAIL, FLAGSTAFF, AZ, 86004","Match","Non_Exact","1165 N FLOWING SPRINGS TRL, FLAGSTAFF, AZ, 86004",635886557,"R"
30332,"1165 FRANCISCO ST APT 6","SAN FRANCISCO","CA",94109,37.803288197,-122.424241166,332,"1165 FRANCISCO ST APT 6, SAN FRANCISCO, CA, 94109","Match","Exact","1165 FRANCISCO ST, SAN FRANCISCO, CA, 94109",640941994,"L"
30333,"1165 GALAXY CIRCLE","PITTSBURGH","PA",15241,40.3421652740001,-80.1061863369999,333,"1165 GALAXY CIRCLE, PITTSBURGH, PA, 15241","Match","Exact","1165 GALAXY CIR, PITTSBURGH, PA, 15241",51618727,"L"
30334,"1165 GREENMOUNT RD","HADDONFIELD","NJ",8033,39.8817848240001,-75.030888945,334,"1165 GREENMOUNT RD, HADDONFIELD, NJ, 8033","Match","Exact","1165 GREENMOUNT RD, HADDONFIELD, NJ, 08033",134356304,"L"
30335,"1165 HADDON AVENUE","CAMDEN","NJ",8103,39.932963505,-75.104006096,335,"1165 HADDON AVENUE, CAMDEN, NJ, 8103","Match","Exact","1165 HADDON AVE, CAMDEN, NJ, 08103",134347692,"R"
30336,"1165 HIGHLAND PARK WAY","CHINA SPRING","TX",76633,31.725105711,-97.3192801329999,336,"1165 HIGHLAND PARK WAY, CHINA SPRING, TX, 76633","Match","Exact","1165 HIGHLAND PARK WAY, CHINA SPRING, TX, 76633",146776551,"R"
30337,"1165 IRVING AVENUE","GLENDALE","CA",91201,34.174709783,-118.291020826,337,"1165 IRVING AVENUE, GLENDALE, CA, 91201","Match","Exact","1165 IRVING AVE, GLENDALE, CA, 91201",241240162,"L"
30338,"1165 JORDAN ROAD B1","MERRITT ISLAND","FL",32953,28.377645278,-80.708594767,338,"1165 JORDAN ROAD B1, MERRITT ISLAND, FL, 32953","Match","Exact","1165 JORDAN RD, MERRITT ISLAND, FL, 32953",93893267,"L"
30339,"1165 KAREN LANE","WOODLAND PARK","CO",80863,38.996568504,-105.06790197,339,"1165 KAREN LANE, WOODLAND PARK, CO, 80863","Match","Exact","1165 KAREN LN, WOODLAND PARK, CO, 80863",130956308,"L"
30340,"1165 MAGNOLIA AVENUE","LARKSPUR","CA",94939,37.9478956180001,-122.548107459,340,"1165 MAGNOLIA AVENUE, LARKSPUR, CA, 94939","Match","Exact","1165 MAGNOLIA AVE, LARKSPUR, CA, 94939",192764148,"L"
30341,"1165 MIDDLE RD","MINDEN","LA",71055,32.6166065780001,-93.220170565,341,"1165 MIDDLE RD, MINDEN, LA, 71055","Match","Exact","1165 MIDDLE RD, MINDEN, LA, 71055",73414468,"R"
30342,"1165 MIDDLE TENNESSEE STATE BLVD","MURFREESBORO","TN",37130,35.827192887,-86.38808714,342,"1165 MIDDLE TENNESSEE STATE BLVD, MURFREESBORO, TN, 37130","Match","Non_Exact","1165 MIDDLE TENNESSEE BLVD, MURFREESBORO, TN, 37130",59014337,"R"
30343,"1165 MONUMENT ST","CONCORD","MA",1742,42.4867129900001,-71.3359547279999,343,"1165 MONUMENT ST, CONCORD, MA, 1742","Match","Exact","1165 MONUMENT ST, CONCORD, MA, 01742",86929300,"R"
30344,"1165 N BUENA VISTA W","DEWEY","AZ",86327,34.559443689,-112.270006694,344,"1165 N BUENA VISTA W, DEWEY, AZ, 86327","Match","Exact","1165 BUENA VIS W, DEWEY, AZ, 86327",159506167,"R"
30345,"1165 N MILWAUKEE AVE SUITE 409","CHICAGO","IL",60642,41.9029887610001,-87.665886606,345,"1165 N MILWAUKEE AVE SUITE 409, CHICAGO, IL, 60642","Match","Non_Exact","1165 N MILWAUKEE AVE, CHICAGO, IL, 60642",111765160,"R"
30346,"1165 N MILWAUKEE AVE UNIT 1806","CHICAGO","IL",60642,41.9029887610001,-87.665886606,346,"1165 N MILWAUKEE AVE UNIT 1806, CHICAGO, IL, 60642","Match","Non_Exact","1165 N MILWAUKEE AVE, CHICAGO, IL, 60642",111765160,"R"
30347,"1165 N SHORE DRIVE","MIAMI BEACH","FL",33141,25.8565268720001,-80.145135535,347,"1165 N SHORE DRIVE, MIAMI BEACH, FL, 33141","Match","Exact","1165 N SHORE DR, MIAMI BEACH, FL, 33141",116008602,"L"
30348,"1165 NW 109 STREET","MIAMI","FL",33168,25.874733947,-80.217549731,348,"1165 NW 109 STREET, MIAMI, FL, 33168","Match","Exact","1165 NW 109TH ST, MIAMI, FL, 33168",116002650,"R"
30349,"1165 PARTRIDGE LANE UNIT 102","NAPLES","FL",34104,26.166374165,-81.731583105,349,"1165 PARTRIDGE LANE UNIT 102, NAPLES, FL, 34104","Match","Exact","1165 PARTRIDGE LN, NAPLES, FL, 34104",115164543,"R"
30350,"1165 PO BOX","NEW YORK","NY",10025,NA,NA,350,"1165 PO BOX, NEW YORK, NY, 10025","No_Match",NA,NA,NA,NA
30351,"1165 PRINCESS AVENUE","ATLANTA","GA",30310,33.7231610090001,-84.425292703,351,"1165 PRINCESS AVENUE, ATLANTA, GA, 30310","Match","Non_Exact","1165 PRINCESS AVE SW, ATLANTA, GA, 30310",17345118,"R"
30352,"1165 S COURTENAY PKWY","MERRITT ISLAND","FL",32952,28.3385003810001,-80.6902121689999,352,"1165 S COURTENAY PKWY, MERRITT ISLAND, FL, 32952","Match","Exact","1165 S COURTENAY PKWY, MERRITT ISLAND, FL, 32952",93898728,"R"
30353,"1165 SIMPSON 1ST FLOOR","BRONX","NY",10459,40.8277189670001,-73.892922132,353,"1165 SIMPSON 1ST FLOOR, BRONX, NY, 10459","Match","Non_Exact","1165 SIMPSON ST, BRONX, NY, 10459",80302332,"L"
30354,"1165 SKYLINE DRIVE","TWIN FALLS","ID",83301,42.5825674610001,-114.427324944,354,"1165 SKYLINE DRIVE, TWIN FALLS, ID, 83301","Match","Exact","1165 SKYLINE DR, TWIN FALLS, ID, 83301",649903664,"L"
30355,"1165 SPRINGWOOD CONNECTOR UNIT 370","ATLANTA","GA",30328,NA,NA,355,"1165 SPRINGWOOD CONNECTOR UNIT 370, ATLANTA, GA, 30328","No_Match",NA,NA,NA,NA
30356,"1165 SUMMIT TRAIL CIR","WEST PALM BEACH","FL",33415,26.6606961470001,-80.12479831,356,"1165 SUMMIT TRAIL CIR, WEST PALM BEACH, FL, 33415","Match","Exact","1165 SUMMIT TRAIL CIR, WEST PALM BEACH, FL, 33415",115311220,"R"
30357,"1165 SUNHILL DRIVE","LAWRENCEVILLE","GA",30043,33.997612858,-83.966830138,357,"1165 SUNHILL DRIVE, LAWRENCEVILLE, GA, 30043","Match","Exact","1165 SUNHILL DR, LAWRENCEVILLE, GA, 30043",627204212,"L"
30358,"1165 TIMBERGATE DRIVE","RYDAL","PA",19046,40.1010270140001,-75.0958321049999,358,"1165 TIMBERGATE DRIVE, RYDAL, PA, 19046","Match","Exact","1165 TIMBERGATE DR, RYDAL, PA, 19046",135117864,"L"
30359,"1165 TREAT AVENUE","SAN FRANCISCO","CA",94110,37.751567617,-122.412887655,359,"1165 TREAT AVENUE, SAN FRANCISCO, CA, 94110","Match","Exact","1165 TREAT AVE, SAN FRANCISCO, CA, 94110",192288471,"L"
30360,"1165 TUCKAWAY DRIVE","ROCKLEDGE","FL",32955,28.2994276750001,-80.7474354729999,360,"1165 TUCKAWAY DRIVE, ROCKLEDGE, FL, 32955","Match","Exact","1165 TUCKAWAY DR, ROCKLEDGE, FL, 32955",635525658,"L"
30361,"1165 US HIGHWAY 22 W NUMBER 111","NORTH PLAINFIELD","NJ",7060,NA,NA,361,"1165 US HIGHWAY 22 W NUMBER 111, NORTH PLAINFIELD, NJ, 7060","No_Match",NA,NA,NA,NA
30362,"1165 WASHINGTON STREET","HANOVER","MA",2339,42.136277551,-70.841554588,362,"1165 WASHINGTON STREET, HANOVER, MA, 2339","Match","Exact","1165 WASHINGTON ST, HANOVER, MA, 02339",87460358,"L"
30363,"1165 WENING CT","PLEASANTON","CA",94566,NA,NA,363,"1165 WENING CT, PLEASANTON, CA, 94566","No_Match",NA,NA,NA,NA
30364,"1165 WESTHILL AVENUE","PLATTEVILLE","WI",53818,42.739346692,-90.493212563,364,"1165 WESTHILL AVENUE, PLATTEVILLE, WI, 53818","Match","Exact","1165 WESTHILL AVE, PLATTEVILLE, WI, 53818",32755112,"L"
30365,"1165 WILBERFORCE-CLIFTON ROAD","XENIA","OH",45384,39.7131333900001,-83.8868925789999,365,"1165 WILBERFORCE-CLIFTON ROAD, XENIA, OH, 45384","Match","Non_Exact","1165 WILBERFORCE-CLIFTON RD, WILBERFORCE, OH, 45384",638763383,"R"
30366,"1165 WOODSIDE COURT","ZIONSVILLE","IN",46077,39.93867304,-86.2746837729999,366,"1165 WOODSIDE COURT, ZIONSVILLE, IN, 46077","Match","Exact","1165 WOODSIDE CT, ZIONSVILLE, IN, 46077",29260193,"R"
30367,"1165 WYNBROOK RD SW","MARIETTA","GA",30008,33.8916334990001,-84.586509027,367,"1165 WYNBROOK RD SW, MARIETTA, GA, 30008","Match","Exact","1165 WYNBROOK RD SW, MARIETTA, GA, 30008",17173851,"L"
30368,"11650 BEACON AVE S","SEATTLE","WA",98178,47.4984278640001,-122.263897932,368,"11650 BEACON AVE S, SEATTLE, WA, 98178","Match","Exact","11650 BEACON AVE S, SEATTLE, WA, 98178",186629546,"L"
30369,"11650 EAST CEDAR AVENUE","AURORA","CO",80012,39.712177872,-104.852691152,369,"11650 EAST CEDAR AVENUE, AURORA, CO, 80012","Match","Exact","11650 E CEDAR AVE, AURORA, CO, 80012",177550789,"R"
30370,"11650 MCCREE RD APT 1736","DALLAS","TX",75238,32.8698364740001,-96.6782570999999,370,"11650 MCCREE RD APT 1736, DALLAS, TX, 75238","Match","Exact","11650 MCCREE RD, DALLAS, TX, 75238",103238012,"R"
30371,"11650 MISSION PARK DRIVE SUITE 104","RANCHO CUCAMONGA","CA",91730,34.080917384,-117.550802767,371,"11650 MISSION PARK DRIVE SUITE 104, RANCHO CUCAMONGA, CA, 91730","Match","Exact","11650 MISSION PARK DR, RANCHO CUCAMONGA, CA, 91730",144969658,"L"
30372,"11650 OLIO RD  SUITE 100-374","FISHERS","IN",46037,39.95814547,-85.918659329,372,"11650 OLIO RD  SUITE 100-374, FISHERS, IN, 46037","Match","Exact","11650 OLIO RD, FISHERS, IN, 46037",29330701,"L"
30373,"11650 OLIO RD STE 1000-129","FISHERS","IN",46037,39.95814547,-85.918659329,373,"11650 OLIO RD STE 1000-129, FISHERS, IN, 46037","Match","Exact","11650 OLIO RD, FISHERS, IN, 46037",29330701,"L"
30374,"11650 OLIO ROAD SUITE 1000-137","FISHERS","IN",46037,39.95814547,-85.918659329,374,"11650 OLIO ROAD SUITE 1000-137, FISHERS, IN, 46037","Match","Exact","11650 OLIO RD, FISHERS, IN, 46037",29330701,"L"
30375,"11650 OLIO ROAD SUITE 1000-385","FISHERS","IN",46037,39.95814547,-85.918659329,375,"11650 OLIO ROAD SUITE 1000-385, FISHERS, IN, 46037","Match","Exact","11650 OLIO RD, FISHERS, IN, 46037",29330701,"L"
30376,"11650 PENN HILLS DR 10512","PENN HILLS","PA",15235,NA,NA,376,"11650 PENN HILLS DR 10512, PENN HILLS, PA, 15235","No_Match",NA,NA,NA,NA
30377,"11650 PLAINVIEW AVENUE","DETROIT","MI",48228,42.372308692,-83.23503727,377,"11650 PLAINVIEW AVENUE, DETROIT, MI, 48228","Match","Exact","11650 PLAINVIEW AVE, DETROIT, MI, 48228",95438796,"R"
30378,"11650 WARD RD","CLEVELAND","TX",77328,30.277885315,-95.1778916229999,378,"11650 WARD RD, CLEVELAND, TX, 77328","Match","Exact","11650 WARD RD, CLEVELAND, TX, 77328",79270993,"L"
30379,"11651 ILLENE","HOUSTON","TX",77093,29.890210392,-95.316045017,379,"11651 ILLENE, HOUSTON, TX, 77093","Match","Non_Exact","11651 ILLENE DR, HOUSTON, TX, 77093",96074597,"L"
30380,"11651 LAFOUNTAIN LANE","BRYAN","TX",77808,30.8550109940001,-96.317886922,380,"11651 LAFOUNTAIN LANE, BRYAN, TX, 77808","Match","Exact","11651 LAFOUNTAIN LN, BRYAN, TX, 77808",21809366,"L"
30381,"11651 NORBOURNE DR APT 1110","CINCINNATI","OH",45240,39.2913020840001,-84.5397716049999,381,"11651 NORBOURNE DR APT 1110, CINCINNATI, OH, 45240","Match","Exact","11651 NORBOURNE DR, CINCINNATI, OH, 45240",103950099,"R"
30382,"11651 NORBOURNE DRIVE","CINCINNATI","OH",45240,39.2913020840001,-84.5397716049999,382,"11651 NORBOURNE DRIVE, CINCINNATI, OH, 45240","Match","Exact","11651 NORBOURNE DR, CINCINNATI, OH, 45240",103950099,"R"
30383,"11651 OSPREY POINTE BLVD","CLERMONT","FL",34711,28.520957825,-81.761449321,383,"11651 OSPREY POINTE BLVD, CLERMONT, FL, 34711","Match","Exact","11651 OSPREY POINTE BLVD, CLERMONT, FL, 34711",94161381,"R"
30384,"11653 FARM CREEK AVE NW","UNIONTOWN","OH",44685,40.9585671630001,-81.373379684,384,"11653 FARM CREEK AVE NW, UNIONTOWN, OH, 44685","Match","Exact","11653 FARM CREEK AVE NW, UNIONTOWN, OH, 44685",64711840,"R"
30385,"11653 NW 78 ST","DORAL","FL",33178,25.8442082820001,-80.3858387559999,385,"11653 NW 78 ST, DORAL, FL, 33178","Match","Exact","11653 NW 78TH ST, DORAL, FL, 33178",638334688,"L"
30386,"11653 US 301","NORTH PARISH","FL",34219,NA,NA,386,"11653 US 301, NORTH PARISH, FL, 34219","No_Match",NA,NA,NA,NA
30387,"11654 KITTERY DR","FISHERS","IN",46037,39.9583454350001,-85.960507333,387,"11654 KITTERY DR, FISHERS, IN, 46037","Match","Exact","11654 KITTERY DR, FISHERS, IN, 46037",629484135,"L"
30388,"11654 LAUREL LANE","PARKER","CO",80138,39.5024332880001,-104.749327805,388,"11654 LAUREL LANE, PARKER, CO, 80138","Match","Exact","11654 LAUREL LN, PARKER, CO, 80138",130852065,"L"
30389,"11654 PLAZA AMERICA DR STE 294","RESTON","VA",20190,38.951630331,-77.348694009,389,"11654 PLAZA AMERICA DR STE 294, RESTON, VA, 20190","Match","Exact","11654 PLAZA AMERICA DR, RESTON, VA, 20190",636672911,"R"
30390,"11655 BRIAR FOREST DR APT 58","HOUSTON","TX",77077,29.746906036,-95.5839607199999,390,"11655 BRIAR FOREST DR APT 58, HOUSTON, TX, 77077","Match","Exact","11655 BRIAR FOREST DR, HOUSTON, TX, 77077",96619098,"L"
30391,"11655 BRIGHT STAR CIRCLE","TALLAHASSEE","FL",32305,30.2856367580001,-84.235435168,391,"11655 BRIGHT STAR CIRCLE, TALLAHASSEE, FL, 32305","Match","Exact","11655 BRIGHT STAR CIR, TALLAHASSEE, FL, 32305",640426448,"R"
30392,"11655 CENEGAL ROAD","ATASCADERO","CA",93422,35.4677087740001,-120.70761311,392,"11655 CENEGAL ROAD, ATASCADERO, CA, 93422","Match","Exact","11655 CENEGAL RD, ATASCADERO, CA, 93422",109774869,"L"
30393,"11655 CHIMNEY ROCK","HOUSTON","TX",77035,29.6546540520001,-95.478561413,393,"11655 CHIMNEY ROCK, HOUSTON, TX, 77035","Match","Non_Exact","11655 CHIMNEY ROCK RD, HOUSTON, TX, 77035",233358970,"R"
30394,"11655 GORHAM AVE 1","LOS ANGELES","CA",90049,34.054843944,-118.465012878,394,"11655 GORHAM AVE 1, LOS ANGELES, CA, 90049","Match","Exact","11655 GORHAM AVE, LOS ANGELES, CA, 90049",642865329,"R"
30395,"11655 GORHAM AVENUE","LOS ANGELES","CA",90049,34.054843944,-118.465012878,395,"11655 GORHAM AVENUE, LOS ANGELES, CA, 90049","Match","Exact","11655 GORHAM AVE, LOS ANGELES, CA, 90049",642865329,"R"
30396,"11655 NE 21ST DR","NORTH MIAMI","FL",33181,25.883323691,-80.160235809,396,"11655 NE 21ST DR, NORTH MIAMI, FL, 33181","Match","Exact","11655 NE 21ST DR, NORTH MIAMI, FL, 33181",116309160,"L"
30397,"11655 S 000 RD","GENEVA","IN",46740,40.5796221320001,-84.935018035,397,"11655 S 000 RD, GENEVA, IN, 46740","Match","Exact","11655 S 000 RD, GENEVA, IN, 46740",6491637,"R"
30398,"11655 US HWY 441 SE","OKEECHOBEE","FL",34974,27.1562149660001,-80.705525939,398,"11655 US HWY 441 SE, OKEECHOBEE, FL, 34974","Match","Exact","11655 US HWY 441 SE, OKEECHOBEE, FL, 34974",4947835,"R"
30399,"11657 OXNARD STREET APT 220","NORTH HOLLYWOOD","CA",91606,34.1794162150001,-118.386469088,399,"11657 OXNARD STREET APT 220, NORTH HOLLYWOOD, CA, 91606","Match","Exact","11657 OXNARD ST, N HOLLYWOOD, CA, 91606",141564394,"R"
30400,"11658 APPALOOSA LANE","BLOOMINGTON","CA",92377,34.042593917,-117.39122807,400,"11658 APPALOOSA LANE, BLOOMINGTON, CA, 92377","Match","Non_Exact","11658 APPALOOSA LN, BLOOMINGTON, CA, 92316",638615639,"R"
30401,"11658 HIDDEN HARBOR","HOLLAND","MI",49424,42.8292907370001,-86.070533037,401,"11658 HIDDEN HARBOR, HOLLAND, MI, 49424","Match","Exact","11658 HIDDEN HARBOR, HOLLAND, MI, 49424",71094835,"R"
30402,"11658 JERRY ADAM CT","JACKSONVILLE","FL",32218,30.4450182630001,-81.706730071,402,"11658 JERRY ADAM CT, JACKSONVILLE, FL, 32218","Match","Exact","11658 JERRY ADAM CT, JACKSONVILLE, FL, 32218",640967211,"R"
30403,"11658 LAKE HOUSE LANE","APISON","TN",37302,35.0314744680001,-84.9956956359999,403,"11658 LAKE HOUSE LANE, APISON, TN, 37302","Match","Exact","11658 LAKE HOUSE LN, APISON, TN, 37302",645100459,"R"
30404,"11659 CHANDLER BLVD SUITE 8","NORTH HOLLYWOOD","CA",91601,34.168678437,-118.386455125,404,"11659 CHANDLER BLVD SUITE 8, NORTH HOLLYWOOD, CA, 91601","Match","Non_Exact","11659 W CHANDLER BLVD, N HOLLYWOOD, CA, 91601",638619869,"R"
30405,"11659 JONES RD NUM 141","HOUSTON","TX",77070,29.942663714,-95.584740052,405,"11659 JONES RD NUM 141, HOUSTON, TX, 77070","Match","Exact","11659 JONES RD, HOUSTON, TX, 77070",96655500,"L"
30406,"11659 STABLE VIEW DR","EADS","TN",38028,35.133894324,-89.674366795,406,"11659 STABLE VIEW DR, EADS, TN, 38028","Match","Exact","11659 STABLE VIEW DR, EADS, TN, 38028",72973509,"R"
30407,"1166 16TH ST","SAN DIEGO","CA",92154,32.5753403200001,-117.098740701,407,"1166 16TH ST, SAN DIEGO, CA, 92154","Match","Exact","1166 16TH ST, SAN DIEGO, CA, 92154",195355268,"R"
30408,"1166 BEDFORD AVENUE","BROOKLYN","NY",11216,40.68425604,-73.954094551,408,"1166 BEDFORD AVENUE, BROOKLYN, NY, 11216","Match","Exact","1166 BEDFORD AVE, BROOKLYN, NY, 11216",59078839,"R"
30409,"1166 BRENTWOOD DRIVE","MARYVILLE","MO",64468,40.34397018,-94.891556453,409,"1166 BRENTWOOD DRIVE, MARYVILLE, MO, 64468","Match","Exact","1166 BRENTWOOD DR, MARYVILLE, MO, 64468",608409356,"L"
30410,"1166 BUNCH DRIVE","STATESVILLE","NC",28677,35.7981827730001,-80.903180946,410,"1166 BUNCH DRIVE, STATESVILLE, NC, 28677","Match","Exact","1166 BUNCH DR, STATESVILLE, NC, 28677",46033510,"R"
30411,"1166 CHANDLER RD","AWENDAW","SC",29429,32.8983750100001,-79.737682464,411,"1166 CHANDLER RD, AWENDAW, SC, 29429","Match","Exact","1166 CHANDLER RD, AWENDAW, SC, 29429",605851408,"L"
30412,"1166 CYNTHIA LANE","SPRING HILL","TN",37174,35.7387001000001,-86.9049576799999,412,"1166 CYNTHIA LANE, SPRING HILL, TN, 37174","Match","Exact","1166 CYNTHIA LN, SPRING HILL, TN, 37174",627340590,"R"
30413,"1166 DETROIT STREET","DENVER","CO",80206,39.7346447900001,-104.95404734,413,"1166 DETROIT STREET, DENVER, CO, 80206","Match","Exact","1166 DETROIT ST, DENVER, CO, 80206",177311000,"R"
30414,"1166 DIAMOND XING","MCDONOUGH","GA",30252,33.447839882,-84.10095756,414,"1166 DIAMOND XING, MCDONOUGH, GA, 30252","Match","Exact","1166 DIAMOND CROSSING, MCDONOUGH, GA, 30252",619917976,"R"
30415,"1166 E DAYTON YELLOW SPRINGS RD","FAIRBOORN","OH",45324,39.7829921790001,-84.000432009,415,"1166 E DAYTON YELLOW SPRINGS RD, FAIRBOORN, OH, 45324","Match","Non_Exact","1166 DAYTON YELLOW SPRINGS RD, FAIRBORN, OH, 45324",143409812,"R"
30416,"1166 FALLEN LEAF DR","JOHNSON CITY","TN",37601,36.3745561590001,-82.377582498,416,"1166 FALLEN LEAF DR, JOHNSON CITY, TN, 37601","Match","Exact","1166 FALLEN LEAF DR, JOHNSON CITY, TN, 37601",645464047,"R"
30417,"1166 FOLKSTONE DR","MCDONOUGH","GA",30253,33.4514892880001,-84.1790375849999,417,"1166 FOLKSTONE DR, MCDONOUGH, GA, 30253","Match","Exact","1166 FOLKSTONE DR, MCDONOUGH, GA, 30253",210414196,"R"
30418,"1166 GALSTON DRIVE","FOLSOM","CA",95630,38.68174315,-121.10227729,418,"1166 GALSTON DRIVE, FOLSOM, CA, 95630","Match","Exact","1166 GALSTON DR, FOLSOM, CA, 95630",642587642,"R"
30419,"1166 GRENADA PLACE      3D","BRONX","NY",10466,40.8881379630001,-73.8439467169999,419,"1166 GRENADA PLACE      3D, BRONX, NY, 10466","Match","Exact","1166 GRENADA PL, BRONX, NY, 10466",80297733,"R"
30420,"1166 GRESHAM ROAD","PLAINFIELD","NJ",7062,40.628079493,-74.398991856,420,"1166 GRESHAM ROAD, PLAINFIELD, NJ, 7062","Match","Exact","1166 GRESHAM RD, PLAINFIELD, NJ, 07062",60567402,"R"
30421,"1166 GROESBECK RD","CINCINNATI","OH",45224,39.194110569,-84.537998979,421,"1166 GROESBECK RD, CINCINNATI, OH, 45224","Match","Exact","1166 GROESBECK RD, CINCINNATI, OH, 45224",103921278,"R"
30422,"1166 KILARNEY STREET","LIVERMORE","CA",94550,37.6683698470001,-121.768788091,422,"1166 KILARNEY STREET, LIVERMORE, CA, 94550","Match","Non_Exact","1166 KILLARNEY ST, LIVERMORE, CA, 94550",125035783,"L"
30423,"1166 LAFAYETTE ST","DENVER","CO",80218,39.734659074,-104.97064952,423,"1166 LAFAYETTE ST, DENVER, CO, 80218","Match","Exact","1166 LAFAYETTE ST, DENVER, CO, 80218",177306126,"R"
30424,"1166 LEIGHTON AVENUE","LOS ANGELES","CA",90037,34.0132144080001,-118.296401863,424,"1166 LEIGHTON AVENUE, LOS ANGELES, CA, 90037","Match","Exact","1166 LEIGHTON AVE, LOS ANGELES, CA, 90037",141606621,"L"
30425,"1166 MOUNTAIN OAKS DRIVE","HOOVER","AL",35226,33.424990388,-86.8281277739999,425,"1166 MOUNTAIN OAKS DRIVE, HOOVER, AL, 35226","Match","Exact","1166 MOUNTAIN OAKS DR, HOOVER, AL, 35226",81712072,"L"
30426,"1166 NW COUNTY RD 8002","BUTLER","MO",64730,NA,NA,426,"1166 NW COUNTY RD 8002, BUTLER, MO, 64730","No_Match",NA,NA,NA,NA
30427,"1166 PANAMA","MEMPHIS","TN",38122,35.1638621550001,-89.947848802,427,"1166 PANAMA, MEMPHIS, TN, 38122","Match","Non_Exact","1166 PANAMA ST, MEMPHIS, TN, 38122",72915181,"R"
30428,"1166 PENORA STREET","DEPEW","NY",14043,42.8869930130001,-78.687831719,428,"1166 PENORA STREET, DEPEW, NY, 14043","Match","Exact","1166 PENORA ST, DEPEW, NY, 14043",48346340,"L"
30429,"1166 SARATOGA AVE","E PALO ALTO","CA",94303,37.471636554,-122.154211265,429,"1166 SARATOGA AVE, E PALO ALTO, CA, 94303","Match","Exact","1166 SARATOGA AVE, E PALO ALTO, CA, 94303",192366165,"R"
30430,"1166 SUNNYVALE SARATOGA ROAD 25","SUNNYVALE","CA",94087,37.3548143960001,-122.032389797,430,"1166 SUNNYVALE SARATOGA ROAD 25, SUNNYVALE, CA, 94087","Match","Exact","1166 SUNNYVALE SARATOGA RD, SUNNYVALE, CA, 94087",122994979,"L"
30431,"1166 W 16TH STREET S","JENKS","OK",74037,NA,NA,431,"1166 W 16TH STREET S, JENKS, OK, 74037","No_Match",NA,NA,NA,NA
30432,"1166 W PRINCETON PL","ENGLEWOOD","CO",80110,39.6407310870001,-105.001262049,432,"1166 W PRINCETON PL, ENGLEWOOD, CO, 80110","Match","Non_Exact","1166 PRINCETON PL, ENGLEWOOD, CO, 80110",177333297,"L"
30433,"1166 WAGNER AVENUE","PHILADELPHIA","PA",19141,40.0331553820001,-75.142053888,433,"1166 WAGNER AVENUE, PHILADELPHIA, PA, 19141","Match","Exact","1166 WAGNER AVE, PHILADELPHIA, PA, 19141",131417318,"L"
30434,"1166 WILDWOOD RD","QUINCY","MI",49082,41.9125008290001,-84.85092328,434,"1166 WILDWOOD RD, QUINCY, MI, 49082","Match","Exact","1166 WILDWOOD RD, QUINCY, MI, 49082",8215387,"R"
30435,"1166 WISTERIA DRIVE","MINDEN","NV",89423,38.965180656,-119.768271507,435,"1166 WISTERIA DRIVE, MINDEN, NV, 89423","Match","Exact","1166 WISTERIA DR, MINDEN, NV, 89423",173754508,"R"
30436,"1166","SISTERS","OR",97759,NA,NA,436,"1166, SISTERS, OR, 97759","No_Match",NA,NA,NA,NA
30437,"11660 CHURCH STREET APARTMENT 560","RANCHO CUCAMONGA","CA",91730,34.1128702980001,-117.549367164,437,"11660 CHURCH STREET APARTMENT 560, RANCHO CUCAMONGA, CA, 91730","Match","Exact","11660 CHURCH ST, RANCHO CUCAMONGA, CA, 91730",614816016,"R"
30438,"11660 CHURCH STREET","RANCHO CUCAMONGA","CA",91730,34.1128702980001,-117.549367164,438,"11660 CHURCH STREET, RANCHO CUCAMONGA, CA, 91730","Match","Exact","11660 CHURCH ST, RANCHO CUCAMONGA, CA, 91730",614816016,"R"
30439,"11660 HUEBNER ROAD NUM 410","SAN ANTONIO","TX",78230,29.5502079190001,-98.573017931,439,"11660 HUEBNER ROAD NUM 410, SAN ANTONIO, TX, 78230","Match","Exact","11660 HUEBNER RD, SAN ANTONIO, TX, 78230",636547837,"R"
30440,"11660 WALKER ROAD","LOGAN","OH",43138,39.5639446320001,-82.4881833709999,440,"11660 WALKER ROAD, LOGAN, OH, 43138","Match","Exact","11660 WALKER RD, LOGAN, OH, 43138",36074933,"R"
30441,"11661 BROAD RIVER ROAD","CHAPIN","SC",29036,34.169217325,-81.274927224,441,"11661 BROAD RIVER ROAD, CHAPIN, SC, 29036","Match","Exact","11661 BROAD RIVER RD, CHAPIN, SC, 29036",645303439,"L"
30442,"11661 W STATE ROUTE 163","OAK HARBOR","OH",43449,41.5127749530001,-83.157343848,442,"11661 W STATE ROUTE 163, OAK HARBOR, OH, 43449","Match","Exact","11661 STATE RTE 163, OAK HARBOR, OH, 43449",44075892,"R"
30443,"11664 ROAD 87","BAYARD","NE",69334,41.842209316,-103.206276185,443,"11664 ROAD 87, BAYARD, NE, 69334","Match","Exact","11664 RD 87, BAYARD, NE, 69334",136719253,"L"
30444,"11665 LINCOLN ST","WAYNOKA","OK",73860,36.571064823,-98.872407234,444,"11665 LINCOLN ST, WAYNOKA, OK, 73860","Match","Exact","11665 LINCOLN ST, WAYNOKA, OK, 73860",161177415,"L"
30445,"11665 W RAUL ST","BOISE","ID",83709,43.528705834,-116.327789515,445,"11665 W RAUL ST, BOISE, ID, 83709","Match","Exact","11665 W RAUL ST, BOISE, ID, 83709",633032302,"L"
30446,"11666 GULF POINTE DRIVE APT 9107","HOUSTON","TX",77089,29.6071524050001,-95.211764848,446,"11666 GULF POINTE DRIVE APT 9107, HOUSTON, TX, 77089","Match","Non_Exact","11666 GULF POINT DR, HOUSTON, TX, 77089",96592243,"R"
30447,"11667 CALHOUN LN","QUINCY","IN",47456,39.458206413,-86.724280485,447,"11667 CALHOUN LN, QUINCY, IN, 47456","Match","Exact","11667 CALHOUN LN, QUINCY, IN, 47456",606745533,"L"
30448,"11668 BEEVILLE DRIVE","FRISCO","IL",75035,NA,NA,448,"11668 BEEVILLE DRIVE, FRISCO, IL, 75035","No_Match",NA,NA,NA,NA
30449,"11668 CORMORANT CIRCLE","PARKER","CO",80134,39.50938224,-104.8022059,449,"11668 CORMORANT CIRCLE, PARKER, CO, 80134","Match","Non_Exact","11668 S CORMORANT CIR, PARKER, CO, 80134",130843087,"L"
30450,"11668 N WATERFORD LOOP","HAUSER","ID",83854,47.7764442210001,-117.039421855,450,"11668 N WATERFORD LOOP, HAUSER, ID, 83854","Match","Exact","11668 N WATERFORD LOOP, HAUSER, ID, 83854",192954381,"R"
30451,"11668 NORMAN MONTION DRIVE","EL PASO","TX",79936,31.77415611,-106.286769829,451,"11668 NORMAN MONTION DRIVE, EL PASO, TX, 79936","Match","Exact","11668 NORMAN MONTION DR, EL PASO, TX, 79936",189378416,"R"
30452,"11668 SALEM CHURCH ROAD","GLOUCESTER","VA",23061,37.5357051760001,-76.596249811,452,"11668 SALEM CHURCH ROAD, GLOUCESTER, VA, 23061","Match","Exact","11668 SALEM CHURCH RD, GLOUCESTER, VA, 23061",168217443,"L"
30453,"11669 ALAMEDA COURT","SPANISH FORT","AL",36527,30.690808577,-87.8237605849999,453,"11669 ALAMEDA COURT, SPANISH FORT, AL, 36527","Match","Non_Exact","11669 ALMEDA CT, SPANISH FORT, AL, 36527",648126797,"R"
30454,"11669 NORTH VERCH WAY","ORO VALLEY","AZ",85737,32.4184998310001,-111.004405648,454,"11669 NORTH VERCH WAY, ORO VALLEY, AZ, 85737","Match","Exact","11669 N VERCH WAY, ORO VALLEY, AZ, 85737",121412720,"R"
30455,"1166A HALL COURT","ANDREWS AFB","MD",20762,38.8063956980001,-76.8911019399999,455,"1166A HALL COURT, ANDREWS AFB, MD, 20762","Match","Exact","1166 HALL CT, ANDREWS AIR FORCE BASE, MD, 20762",76320277,"R"
30456,"1167 12TH ST N","JACKSONVILLE BEACH","FL",32250,NA,NA,456,"1167 12TH ST N, JACKSONVILLE BEACH, FL, 32250","No_Match",NA,NA,NA,NA
30457,"1167 DEARBORN DRIVE","SAN DIEGO","CA",92154,32.5751536450001,-117.073780268,457,"1167 DEARBORN DRIVE, SAN DIEGO, CA, 92154","Match","Exact","1167 DEARBORN DR, SAN DIEGO, CA, 92154",195358059,"L"
30458,"1167 DOGWOOD VILLAGE LANE","LAMPE","MO",65681,36.5810345890001,-93.4509094109999,458,"1167 DOGWOOD VILLAGE LANE, LAMPE, MO, 65681","Match","Exact","1167 DOGWOOD VILLAGE LN, LAMPE, MO, 65681",64832667,"R"
30459,"1167 EAST 51ST STREET","BROOKLYN","NY",11234,40.6324055260001,-73.927293675,459,"1167 EAST 51ST STREET, BROOKLYN, NY, 11234","Match","Exact","1167 E 51ST ST, BROOKLYN, NY, 11234",59086022,"L"
30460,"1167 EAST SIERRA WAY","SALT LAKE CITY","UT",84106,40.6913972940001,-111.856927519,460,"1167 EAST SIERRA WAY, SALT LAKE CITY, UT, 84106","Match","Exact","1167 E SIERRA WAY, SALT LAKE CITY, UT, 84106",176082720,"L"
30461,"1167 FAIRMONT AVENUE","CHATTANOOGA","TN",37405,35.074458518,-85.3011827829999,461,"1167 FAIRMONT AVENUE, CHATTANOOGA, TN, 37405","Match","Non_Exact","1167 FAIRMOUNT AVE, CHATTANOOGA, TN, 37405",652122133,"L"
30462,"1167 GARDEN LANE","SEBASTOPOL","CA",95472,38.4118972900001,-122.848551442,462,"1167 GARDEN LANE, SEBASTOPOL, CA, 95472","Match","Exact","1167 GARDEN LN, SEBASTOPOL, CA, 95472",67464626,"R"
30463,"1167 GRESHAM ROAD","PLAINFIELD","NJ",7062,40.6280871820001,-74.3990021559999,463,"1167 GRESHAM ROAD, PLAINFIELD, NJ, 7062","Match","Exact","1167 GRESHAM RD, PLAINFIELD, NJ, 07062",60567402,"L"
30464,"1167 JOHNSON DRIVE UNIT 2912","BUFFALO GROVE","IL",60089,42.1595254000001,-87.933067899,464,"1167 JOHNSON DRIVE UNIT 2912, BUFFALO GROVE, IL, 60089","Match","Exact","1167 JOHNSON DR, BUFFALO GROVE, IL, 60089",119744688,"L"
30465,"1167 JR JONES RD","HUMBOLDT","TN",38343,35.7415223960001,-88.9467526179999,465,"1167 JR JONES RD, HUMBOLDT, TN, 38343","Match","Exact","1167 JR JONES RD, HUMBOLDT, TN, 38343",63322343,"R"
30466,"1167 KIPLING AVE","LOS ANGELES","CA",90041,34.138993966,-118.191384119,466,"1167 KIPLING AVE, LOS ANGELES, CA, 90041","Match","Exact","1167 KIPLING AVE, LOS ANGELES, CA, 90041",141614374,"R"
30467,"1167 MONTAUK HIGHWAY","MASTIC","NY",11950,NA,NA,467,"1167 MONTAUK HIGHWAY, MASTIC, NY, 11950","No_Match",NA,NA,NA,NA
30468,"1167 NW 85TH STREET","MIAMI","FL",33150,25.8533000360001,-80.216634695,468,"1167 NW 85TH STREET, MIAMI, FL, 33150","Match","Exact","1167 NW 85TH ST, MIAMI, FL, 33150",116003987,"R"
30469,"1167 NW 86 STREET","MIAMI","FM",33150,NA,NA,469,"1167 NW 86 STREET, MIAMI, FM, 33150","No_Match",NA,NA,NA,NA
30470,"1167 PIN OAK CIRCLE","BRENTWOOD","TN",37027,35.9894097160001,-86.713607867,470,"1167 PIN OAK CIRCLE, BRENTWOOD, TN, 37027","Match","Non_Exact","1167 PIN OAK LN, BRENTWOOD, TN, 37027",630172415,"L"
30471,"1167 TAHITI CIRCLE","DAVENPORT","FL",33897,28.331802414,-81.6753628659999,471,"1167 TAHITI CIRCLE, DAVENPORT, FL, 33897","Match","Exact","1167 TAHITI CIR, DAVENPORT, FL, 33897",633998678,"L"
30472,"1167 VIEWMONT DR","CLARKSVILLE","TN",37040,36.604509706,-87.310310124,472,"1167 VIEWMONT DR, CLARKSVILLE, TN, 37040","Match","Exact","1167 VIEWMONT DR, CLARKSVILLE, TN, 37040",628057287,"L"
30473,"1167 W FIFTH STREET","WINONA","MN",55907,44.05396733,-91.667852335,473,"1167 W FIFTH STREET, WINONA, MN, 55907","Match","Non_Exact","1167 W 5TH ST, WINONA, MN, 55987",31662459,"L"
30474,"1167 WEST AVENUE P1","PALMDALE","CA",93551,NA,NA,474,"1167 WEST AVENUE P1, PALMDALE, CA, 93551","No_Match",NA,NA,NA,NA
30475,"11670 STEWARTS FERRY PIKE","LEBANON","TN",37090,36.109403017,-86.371056381,475,"11670 STEWARTS FERRY PIKE, LEBANON, TN, 37090","Match","Exact","11670 STEWARTS FERRY PIKE, LEBANON, TN, 37090",89690995,"R"
30476,"11670 VAN CAMP LANE","CINCINNATI","OH",45246,39.2897235200001,-84.474894019,476,"11670 VAN CAMP LANE, CINCINNATI, OH, 45246","Match","Exact","11670 VAN CAMP LN, CINCINNATI, OH, 45246",103944249,"R"
30477,"11670 W SUNSET BLVD SUITE 108","LOS ANGELES","CA",90049,34.065753418,-118.470206884,477,"11670 W SUNSET BLVD SUITE 108, LOS ANGELES, CA, 90049","Match","Non_Exact","11670 W SUNSET BLVD, LOS ANGELES, CA, 90049",640423983,"L"
30478,"11671 HOG FOOT ROAD","ANDALUSIA","AL",36420,31.1562868400001,-86.536858721,478,"11671 HOG FOOT ROAD, ANDALUSIA, AL, 36420","Match","Exact","11671 HOG FOOT RD, ANDALUSIA, AL, 36420",1857097,"L"
30479,"11671 NE 18TH DRIVE","NORTH MIAMI","FL",33181,25.8842489740001,-80.164025189,479,"11671 NE 18TH DRIVE, NORTH MIAMI, FL, 33181","Match","Non_Exact","11671 NE 18TH DR, NORTH MIAMI, FL, 33181",116037766,"R"
30480,"11671 NE TULIN RD","KINGSTON","WA",98346,47.7675087710001,-122.491645213,480,"11671 NE TULIN RD, KINGSTON, WA, 98346","Match","Exact","11671 NE TULIN RD, KINGSTON, WA, 98346",636488939,"L"
30481,"11672 ELAM DRIVE","NORTHPORT","AL",35475,33.3198250350001,-87.585214557,481,"11672 ELAM DRIVE, NORTHPORT, AL, 35475","Match","Exact","11672 ELAM DR, NORTHPORT, AL, 35475",619850964,"R"
30482,"11673 BLACKSTONE RIVER DRIVE","JACKSONVILLE","FL",32256,30.2304028400001,-81.503016466,482,"11673 BLACKSTONE RIVER DRIVE, JACKSONVILLE, FL, 32256","Match","Exact","11673 BLACKSTONE RIVER DR, JACKSONVILLE, FL, 32256",83962278,"L"
30483,"11673 GAYNESWOOD","VICTORVILLE","CA",92392,34.4906966280001,-117.40961497,483,"11673 GAYNESWOOD, VICTORVILLE, CA, 92392","Match","Non_Exact","11673 GAYNESWOOD ST, VICTORVILLE, CA, 92392",614850252,"R"
30484,"11673 SANDAL WOOD LANE","MANASSAS","VA",20112,38.7052633280001,-77.4131546359999,484,"11673 SANDAL WOOD LANE, MANASSAS, VA, 20112","Match","Exact","11673 SANDAL WOOD LN, MANASSAS, VA, 20112",207156490,"R"
30485,"11674 ASHTON AVE","DETROIT","MI",48228,42.372747761,-83.218033509,485,"11674 ASHTON AVE, DETROIT, MI, 48228","Match","Exact","11674 ASHTON AVE, DETROIT, MI, 48228",95439527,"R"
30486,"11674 COUNTY ROAD 3","KENSINGTON","MN",56343,45.7366304430001,-95.696236234,486,"11674 COUNTY ROAD 3, KENSINGTON, MN, 56343","Match","Exact","11674 CO RD 3, KENSINGTON, MN, 56343",165120898,"R"
30487,"11674 SEVEN SPRINGS DR","CUPERTINO","CA",95014,37.298842189,-122.049331652,487,"11674 SEVEN SPRINGS DR, CUPERTINO, CA, 95014","Match","Exact","11674 SEVEN SPRINGS DR, CUPERTINO, CA, 95014",614041948,"R"
30488,"11675 222ND STREET","LINWOOD","KS",66052,38.986724629,-95.093773499,488,"11675 222ND STREET, LINWOOD, KS, 66052","Match","Exact","11675 222ND ST, LINWOOD, KS, 66052",637377506,"R"
30489,"11675 COUNCIL LN","GULF SHORES","AL",36542,30.251896054,-87.822911425,489,"11675 COUNCIL LN, GULF SHORES, AL, 36542","Match","Exact","11675 COUNCIL LN, GULF SHORES, AL, 36542",131695338,"R"
30490,"11675 REDWOOD ST NW","COON RAPIDS","MN",55448,45.1813109940001,-93.2894919569999,490,"11675 REDWOOD ST NW, COON RAPIDS, MN, 55448","Match","Exact","11675 REDWOOD ST NW, COON RAPIDS, MN, 55448",97495085,"L"
30491,"11675 W 31 PLACE","LAKEWOOD","CO",80215,39.7610463720001,-105.129213298,491,"11675 W 31 PLACE, LAKEWOOD, CO, 80215","Match","Exact","11675 W 31ST PL, LAKEWOOD, CO, 80215",177286147,"R"
30492,"11676 GATESVILLE DRIVE","FRISCO","TX",75035,33.185502426,-96.777197096,492,"11676 GATESVILLE DRIVE, FRISCO, TX, 75035","Match","Exact","11676 GATESVILLE DR, FRISCO, TX, 75035",635383819,"L"
30493,"11676 PERRY HIGHWAY  SUITE 1204","WEXFORD","PA",15090,40.63269734,-80.058869374,493,"11676 PERRY HIGHWAY  SUITE 1204, WEXFORD, PA, 15090","Match","Exact","11676 PERRY HWY, WEXFORD, PA, 15090",607657015,"R"
30494,"11676 RIVER RD","REPUBLIC","MI",49879,46.4149086560001,-88.0053408379999,494,"11676 RIVER RD, REPUBLIC, MI, 49879","Match","Exact","11676 RIVER RD, REPUBLIC, MI, 49879",643876598,"R"
30495,"11677 MANSFIELD STREET","DETROIT","MI",48227,42.3730037500001,-83.203586317,495,"11677 MANSFIELD STREET, DETROIT, MI, 48227","Match","Exact","11677 MANSFIELD ST, DETROIT, MI, 48227",95439780,"L"
30496,"11677 SUBLIMITY RD","SUBLIMITY","OR",97385,44.831417489,-122.821363472,496,"11677 SUBLIMITY RD, SUBLIMITY, OR, 97385","Match","Non_Exact","11677 SUBLIMITY RD SE, SUBLIMITY, OR, 97385",156231434,"R"
30497,"11679 HIGHWAY 40","FOLSOM","LA",70437,30.61479745,-90.207846665,497,"11679 HIGHWAY 40, FOLSOM, LA, 70437","Match","Non_Exact","11679 STATE RTE 40, FOLSOM, LA, 70437",640225895,"L"
30498,"1168 265TH ST","JANESVILLE","IA",50647,42.667718413,-92.5206775729999,498,"1168 265TH ST, JANESVILLE, IA, 50647","Match","Exact","1168 265TH ST, JANESVILLE, IA, 50647",641056347,"L"
30499,"1168 APPLEBLOSSOM DRIVE","HIGHLANDS RANCH","CO",80126,39.5474458620001,-104.978020665,499,"1168 APPLEBLOSSOM DRIVE, HIGHLANDS RANCH, CO, 80126","Match","Non_Exact","1168 E APPLEBLOSSOM DR, HIGHLANDS RANCH, CO, 80126",130800488,"L"
30500,"1168 BROOK COURT","MANDEVILLE","LA",70448,30.3822385610001,-90.0212932859999,500,"1168 BROOK COURT, MANDEVILLE, LA, 70448","Match","Exact","1168 BROOK CT, MANDEVILLE, LA, 70448",618425572,"R"
