"ID","Address","City","State","Zip","lat","long","id","input_address","match_indicator","match_type","matched_address","tiger_line_id","tiger_side"
234001,"512 COUNTY PARK RD","WAUPUN","WI",53963,43.638913937,-88.759578973,1,"512 COUNTY PARK RD, WAUPUN, WI, 53963","Match","Exact","512 COUNTY PARK RD, WAUPUN, WI, 53963",74858605,"L"
234002,"512 COURTLAND CT NE","ROCHESTER","MN",55906,NA,NA,2,"512 COURTLAND CT NE, ROCHESTER, MN, 55906","No_Match",NA,NA,NA,NA
234003,"512 CR 142 P O BOX 606","HALLETTSVILLE","TX",77964,29.484646517,-96.800278184,3,"512 CR 142 P O BOX 606, HALLETTSVILLE, TX, 77964","Match","Non_Exact","512 CO RD 142, HALLETTSVILLE, TX, 77964",42268369,"R"
234004,"512 CRITZ ST","STARKVILLE","MI",39759,NA,NA,4,"512 CRITZ ST, STARKVILLE, MI, 39759","No_Match",NA,NA,NA,NA
234005,"512 CRITZ STREET","STARKVILLE","MS",39759,33.4712371160001,-88.8069320399999,5,"512 CRITZ STREET, STARKVILLE, MS, 39759","Match","Exact","512 CRITZ ST, STARKVILLE, MS, 39759",796644,"R"
234006,"512 DELAWARE ST  14","KANSAS","MO",64105,39.1079362560001,-94.584047707,6,"512 DELAWARE ST  14, KANSAS, MO, 64105","Match","Non_Exact","512 DELAWARE ST, KANSAS CITY, MO, 64105",91444939,"R"
234007,"512 DOUGLAS DR","LAWRENCEBURG","TN",38483,35.2521538130001,-87.319409508,7,"512 DOUGLAS DR, LAWRENCEBURG, TN, 38483","Match","Non_Exact","512 DOUGLAS DR, LAWRENCEBURG, TN, 38464",608430136,"R"
234008,"512 E 4TH ST","TONGANOXIE","KS",66086,39.109243292,-95.087372853,8,"512 E 4TH ST, TONGANOXIE, KS, 66086","Match","Exact","512 E 4TH ST, TONGANOXIE, KS, 66086",91397781,"L"
234009,"512 E 4TH STREET","TONGANOXIE","KS",66086,39.109243292,-95.087372853,9,"512 E 4TH STREET, TONGANOXIE, KS, 66086","Match","Exact","512 E 4TH ST, TONGANOXIE, KS, 66086",91397781,"L"
234010,"512 E 9 STREET","LAWRENCE","KS",66044,38.967527498,-95.231012192,10,"512 E 9 STREET, LAWRENCE, KS, 66044","Match","Exact","512 E 9TH ST, LAWRENCE, KS, 66044",17685406,"L"
234011,"512 E AND WEST ST","MINDEN","LA",71055,32.621076578,-93.28164695,11,"512 E AND WEST ST, MINDEN, LA, 71055","Match","Exact","512 E AND WEST ST, MINDEN, LA, 71055",73411986,"L"
234012,"512 E BOSTON ST","COVINGTON","LA",70433,30.4756846020001,-90.0947231599999,12,"512 E BOSTON ST, COVINGTON, LA, 70433","Match","Exact","512 E BOSTON ST, COVINGTON, LA, 70433",111302596,"L"
234013,"512 E JORDON LANE","PHOENIX","AZ",85086,33.8372563930001,-112.066393067,13,"512 E JORDON LANE, PHOENIX, AZ, 85086","Match","Exact","512 E JORDON LN, PHOENIX, AZ, 85086",128398500,"R"
234014,"512 E LOVETT ST","CHARLOTTE","MI",48813,42.562394161,-84.828834773,14,"512 E LOVETT ST, CHARLOTTE, MI, 48813","Match","Exact","512 E LOVETT ST, CHARLOTTE, MI, 48813",636722812,"R"
234015,"512 E MAIN ST","BURNSVILLE","NC",28714,35.9158127200001,-82.3057272029999,15,"512 E MAIN ST, BURNSVILLE, NC, 28714","Match","Non_Exact","512 W MAIN ST, BURNSVILLE, NC, 28714",37415420,"L"
234016,"512 E NORTHRIDGE AVENUE","GLENDORA","CA",91741,34.1459744680001,-117.858851216,16,"512 E NORTHRIDGE AVENUE, GLENDORA, CA, 91741","Match","Exact","512 E NORTHRIDGE AVE, GLENDORA, CA, 91741",141717488,"R"
234017,"512 E SIEBENTHALER AVENUE","DAYTON","OH",45405,39.7985935510001,-84.208265538,17,"512 E SIEBENTHALER AVENUE, DAYTON, OH, 45405","Match","Exact","512 E SIEBENTHALER AVE, DAYTON, OH, 45405",143568558,"R"
234018,"512 E WATER STREET","CASSOPOLIS","MI",49031,41.9082496020001,-86.00734949,18,"512 E WATER STREET, CASSOPOLIS, MI, 49031","Match","Exact","512 E WATER ST, CASSOPOLIS, MI, 49031",22571807,"L"
234019,"512 EAST 109TH STREET","CHICAGO","IL",60628,41.6964119460001,-87.61084505,19,"512 EAST 109TH STREET, CHICAGO, IL, 60628","Match","Exact","512 E 109TH ST, CHICAGO, IL, 60628",111773940,"L"
234020,"512 EAST 13TH STREET","CINCINNATI","OH",45202,39.1106145630001,-84.506536867,20,"512 EAST 13TH STREET, CINCINNATI, OH, 45202","Match","Exact","512 E 13TH ST, CINCINNATI, OH, 45202",103936825,"L"
234021,"512 EAST 6TH ST","BOGALUSA","LA",70427,30.7725386810001,-89.853374864,21,"512 EAST 6TH ST, BOGALUSA, LA, 70427","Match","Exact","512 E 6TH ST, BOGALUSA, LA, 70427",82462311,"R"
234022,"512 EAST 9TH STREET","LAWRENCE","KS",66044,38.967527498,-95.2310146729999,22,"512 EAST 9TH STREET, LAWRENCE, KS, 66044","Match","Exact","512 E 9TH ST, LAWRENCE, KS, 66044",17685406,"L"
234023,"512 EAST BALTIMORE STREET","GREENCASTLE","PA",17225,39.78795303,-77.7182413309999,23,"512 EAST BALTIMORE STREET, GREENCASTLE, PA, 17225","Match","Exact","512 E BALTIMORE ST, GREENCASTLE, PA, 17225",60089539,"R"
234024,"512 EAST GRAHAM STREET","MEBANE","NC",27302,36.096770012,-79.257957416,24,"512 EAST GRAHAM STREET, MEBANE, NC, 27302","Match","Exact","512 E GRAHAM ST, MEBANE, NC, 27302",72373448,"L"
234025,"512 EAST NEBRASKA STREET","BONIFAY","FL",32425,30.7939365840001,-85.673728827,25,"512 EAST NEBRASKA STREET, BONIFAY, FL, 32425","Match","Non_Exact","512 E NEBRASKA AVE, BONIFAY, FL, 32425",32684378,"L"
234026,"512 ELMWOOD DRIVE","NAMPA","ID",83687,43.5794182860001,-116.546888787,26,"512 ELMWOOD DRIVE, NAMPA, ID, 83687","Match","Exact","512 ELMWOOD DR, NAMPA, ID, 83687",122786885,"R"
234027,"512 EMERSON AVE","SYRACUSE","NY",13204,43.053415129,-76.1877107239999,27,"512 EMERSON AVE, SYRACUSE, NY, 13204","Match","Exact","512 EMERSON AVE, SYRACUSE, NY, 13204",46565548,"R"
234028,"512 EVERSHOLT COURT","ANTIOCH","TN",37013,36.077924249,-86.666786551,28,"512 EVERSHOLT COURT, ANTIOCH, TN, 37013","Match","Exact","512 EVERSHOLT CT, ANTIOCH, TN, 37013",97216177,"L"
234029,"512 FEDERAL ST","MILTON","DE",19968,38.772760292,-75.3133747379999,29,"512 FEDERAL ST, MILTON, DE, 19968","Match","Exact","512 FEDERAL ST, MILTON, DE, 19968",106080766,"L"
234030,"512 FIFTH STREET 370237","MONTARA","CA",94037,37.5408782530001,-122.508920904,30,"512 FIFTH STREET 370237, MONTARA, CA, 94037","Match","Exact","512 FIFTH ST, MONTARA, CA, 94037",192411856,"R"
234031,"512 FLAGLER AVE","NEW SMYRNA BEACH","FL",32169,29.038562519,-80.896088107,31,"512 FLAGLER AVE, NEW SMYRNA BEACH, FL, 32169","Match","Exact","512 FLAGLER AVE, NEW SMYRNA BEACH, FL, 32169",94534395,"L"
234032,"512 FOX TRAIL","GREENVILLE","TX",75402,33.119758964,-96.088044316,32,"512 FOX TRAIL, GREENVILLE, TX, 75402","Match","Exact","512 FOX TRL, GREENVILLE, TX, 75402",42835789,"L"
234033,"512 GERALD PL","FERGUSON","MO",63135,38.752221589,-90.3031437879999,33,"512 GERALD PL, FERGUSON, MO, 63135","Match","Exact","512 GERALD PL, FERGUSON, MO, 63135",100146080,"R"
234034,"512 GRANITE RIDGE PLACE","ATLANTA","GA",30350,33.978625299,-84.3493676799999,34,"512 GRANITE RIDGE PLACE, ATLANTA, GA, 30350","Match","Exact","512 GRANITE RIDGE PL, ATLANTA, GA, 30350",17391894,"R"
234035,"512 GRATEN","BIRMINGHAM","MI",48009,42.5438368690001,-83.194474423,35,"512 GRATEN, BIRMINGHAM, MI, 48009","Match","Non_Exact","512 GRATEN ST, BIRMINGHAM, MI, 48009",626746808,"L"
234036,"512 GREEN AVE","PALACIOS","TX",77465,28.717481004,-96.216876866,36,"512 GREEN AVE, PALACIOS, TX, 77465","Match","Exact","512 GREEN AVE, PALACIOS, TX, 77465",83288114,"R"
234037,"512 HAMPTON RD STE 130","DESOTO","TX",75115,NA,NA,37,"512 HAMPTON RD STE 130, DESOTO, TX, 75115","Tie",NA,NA,NA,NA
234038,"512 HARLAND DRIVE","MANHATTAN","KS",66503,39.1848205200001,-96.647093204,38,"512 HARLAND DRIVE, MANHATTAN, KS, 66503","Match","Exact","512 HARLAND DR, MANHATTAN, KS, 66503",27810347,"L"
234039,"512 HARMONY ROAD","EATONTON","GA",31024,33.4477391140001,-83.319095175,39,"512 HARMONY ROAD, EATONTON, GA, 31024","Match","Exact","512 HARMONY RD, EATONTON, GA, 31024",16673988,"R"
234040,"512 HEATHERWOOD LOOP","NEWPORT NEWS","VA",23602,37.1226443410001,-76.524246136,40,"512 HEATHERWOOD LOOP, NEWPORT NEWS, VA, 23602","Match","Exact","512 HEATHERWOOD LOOP, NEWPORT NEWS, VA, 23602",618474867,"R"
234041,"512 HEMENWAY ST","MARLBOROUGH","MA",1752,42.363438489,-71.502950829,41,"512 HEMENWAY ST, MARLBOROUGH, MA, 1752","Match","Exact","512 HEMENWAY ST, MARLBOROUGH, MA, 01752",86901274,"L"
234042,"512 HIGH STREET","LOGANSPORT","IN",46947,40.7565527360001,-86.364897195,42,"512 HIGH STREET, LOGANSPORT, IN, 46947","Match","Exact","512 HIGH ST, LOGANSPORT, IN, 46947",27185499,"L"
234043,"512 HINSDALE COURT","ST. LOUIS","MO",63119,38.601761562,-90.370431146,43,"512 HINSDALE COURT, ST. LOUIS, MO, 63119","Match","Exact","512 HINSDALE CT, SAINT LOUIS, MO, 63119",100138258,"R"
234044,"512 HORT STREET","WESTFIELD","NJ",7090,40.646946331,-74.358032781,44,"512 HORT STREET, WESTFIELD, NJ, 7090","Match","Exact","512 HORT ST, WESTFIELD, NJ, 07090",60568108,"R"
234045,"512 HOWIE MINE ROAD","WAXHAW","NC",28173,34.9258479960001,-80.737385043,45,"512 HOWIE MINE ROAD, WAXHAW, NC, 28173","Match","Exact","512 HOWIE MINE RD, WAXHAW, NC, 28173",14172593,"R"
234046,"512 HUNT CLUB ROAD APARTMENT 601","BLACKSBURG","VA",24060,37.2431182330001,-80.425937297,46,"512 HUNT CLUB ROAD APARTMENT 601, BLACKSBURG, VA, 24060","Match","Exact","512 HUNT CLUB RD, BLACKSBURG, VA, 24060",73626261,"L"
234047,"512 JEFFERSON STREET SE","ALBUQUERQUE","NM",87108,35.0727575870001,-106.593326751,47,"512 JEFFERSON STREET SE, ALBUQUERQUE, NM, 87108","Match","Exact","512 JEFFERSON ST SE, ALBUQUERQUE, NM, 87108",206716442,"L"
234048,"512 LIME LANE","GREENSBURG","PA",15601,NA,NA,48,"512 LIME LANE, GREENSBURG, PA, 15601","No_Match",NA,NA,NA,NA
234049,"512 LINCOLN AVENUE","BEDFORD","IN",47421,38.8736336870001,-86.491080212,49,"512 LINCOLN AVENUE, BEDFORD, IN, 47421","Match","Exact","512 LINCOLN AVE, BEDFORD, IN, 47421",42073578,"R"
234050,"512 LITCHFIELD AVE SW","WILMAR","MN",56201,45.121229772,-95.049759554,50,"512 LITCHFIELD AVE SW, WILMAR, MN, 56201","Match","Non_Exact","512 LITCHFIELD AVE SW, WILLMAR, MN, 56201",36711941,"L"
234051,"512 LOGAN STREET","CRYSTAL FALLS","MI",49920,46.1020918150001,-88.315818313,51,"512 LOGAN STREET, CRYSTAL FALLS, MI, 49920","Match","Exact","512 LOGAN ST, CRYSTAL FALLS, MI, 49920",636404719,"R"
234052,"512 LONGVIEW LANE","ATLANTA","GA",30349,33.6685339590001,-84.5903271029999,52,"512 LONGVIEW LANE, ATLANTA, GA, 30349","Match","Exact","512 LONGVIEW LN, ATLANTA, GA, 30349",627744225,"R"
234053,"512 MARK ST","TECUMSEH","OK",74873,35.262613522,-96.944142948,53,"512 MARK ST, TECUMSEH, OK, 74873","Match","Exact","512 MARK ST, TECUMSEH, OK, 74873",100593957,"L"
234054,"512 MARKET ST","FULTON","MO",65251,38.8475971170001,-91.947018789,54,"512 MARKET ST, FULTON, MO, 65251","Match","Exact","512 MARKET ST, FULTON, MO, 65251",34347575,"R"
234055,"512 MARTINDALE DR","LAN","TX",75146,32.5895788500001,-96.762823698,55,"512 MARTINDALE DR, LAN, TX, 75146","Match","Non_Exact","512 MARTINDALE DR, LANCASTER, TX, 75146",102959688,"R"
234056,"512 MONMOUTH STREET","GLOUCESTER CITY","NJ",8030,39.8964241470001,-75.1203955349999,56,"512 MONMOUTH STREET, GLOUCESTER CITY, NJ, 8030","Match","Exact","512 MONMOUTH ST, GLOUCESTER CITY, NJ, 08030",134347043,"R"
234057,"512 N 11TH STREET APT 204","MANHATTAN","KS",66502,NA,NA,57,"512 N 11TH STREET APT 204, MANHATTAN, KS, 66502","Tie",NA,NA,NA,NA
234058,"512 N BLUFF ST","BERRIEN SPRINGS","MI",49103,41.9513001,-86.338862966,58,"512 N BLUFF ST, BERRIEN SPRINGS, MI, 49103","Match","Exact","512 N BLUFF ST, BERRIEN SPRINGS, MI, 49103",119976558,"R"
234059,"512 N FAIRGROUNDS RD","STURGEON","MO",65284,39.2384772360001,-92.28543586,59,"512 N FAIRGROUNDS RD, STURGEON, MO, 65284","Match","Exact","512 N FAIRGROUNDS RD, STURGEON, MO, 65284",23501040,"R"
234060,"512 N HAMPTON RD  255","DESOTO","TX",75115,NA,NA,60,"512 N HAMPTON RD  255, DESOTO, TX, 75115","Tie",NA,NA,NA,NA
234061,"512 N HAMPTON RD 451","DESOTO","TX",75115,NA,NA,61,"512 N HAMPTON RD 451, DESOTO, TX, 75115","Tie",NA,NA,NA,NA
234062,"512 N HAMPTON ROAD / NO 148","DALLAS","TX",75115,NA,NA,62,"512 N HAMPTON ROAD / NO 148, DALLAS, TX, 75115","Tie",NA,NA,NA,NA
234063,"512 N HAMPTON ROAD 307","DESOTO","TX",75115,NA,NA,63,"512 N HAMPTON ROAD 307, DESOTO, TX, 75115","Tie",NA,NA,NA,NA
234064,"512 N HAMPTON SUITE 410","DESOTA","TX",75115,NA,NA,64,"512 N HAMPTON SUITE 410, DESOTA, TX, 75115","No_Match",NA,NA,NA,NA
234065,"512 N HIGHWAY 287","ELKHART","TX",75839,NA,NA,65,"512 N HIGHWAY 287, ELKHART, TX, 75839","No_Match",NA,NA,NA,NA
234066,"512 N MAIN ST SUITE 105","ROYAL OAK","MI",48067,NA,NA,66,"512 N MAIN ST SUITE 105, ROYAL OAK, MI, 48067","Tie",NA,NA,NA,NA
234067,"512 NE AGATE DRIVE","LEES SUMMIT","MO",64064,39.022834055,-94.3634942739999,67,"512 NE AGATE DRIVE, LEES SUMMIT, MO, 64064","Match","Exact","512 NE AGATE DR, LEES SUMMIT, MO, 64064",91503064,"L"
234068,"512 NE MIMOSA DR","LEES SUMMIT","MO",64086,38.921665816,-94.3378971929999,68,"512 NE MIMOSA DR, LEES SUMMIT, MO, 64086","Match","Exact","512 NE MIMOSA DR, LEES SUMMIT, MO, 64086",91492056,"L"
234069,"512 NEWPORT DRIVE","LOMPOC","CA",93436,34.633380549,-120.484286251,69,"512 NEWPORT DRIVE, LOMPOC, CA, 93436","Match","Exact","512 NEWPORT DR, LOMPOC, CA, 93436",108637105,"L"
234070,"512 NORTH 14TH STREET","OXFORD","MS",38655,34.3699581050001,-89.516342207,70,"512 NORTH 14TH STREET, OXFORD, MS, 38655","Match","Exact","512 N 14TH ST, OXFORD, MS, 38655",76962712,"R"
234071,"512 NORTH BROADWAY ST","MCCOMB","MS",39648,31.2490197870001,-90.454920638,71,"512 NORTH BROADWAY ST, MCCOMB, MS, 39648","Match","Exact","512 N BROADWAY ST, MCCOMB, MS, 39648",645481730,"L"
234072,"512 NORTH MAIN STREET - STE 1","BURLINGTON","IA",52601,40.811579722,-91.100886794,72,"512 NORTH MAIN STREET - STE 1, BURLINGTON, IA, 52601","Match","Exact","512 N MAIN ST, BURLINGTON, IA, 52601",5542018,"R"
234073,"512 NORTH MAIN STREET","HIGHTSTOWN","NJ",8520,40.275294403,-74.520912557,73,"512 NORTH MAIN STREET, HIGHTSTOWN, NJ, 8520","Match","Exact","512 N MAIN ST, HIGHTSTOWN, NJ, 08520",60173982,"L"
234074,"512 NORTH MENDENHALL ROAD UNIT 4","MEMPHIS","TN",38117,35.145200243,-89.897988455,74,"512 NORTH MENDENHALL ROAD UNIT 4, MEMPHIS, TN, 38117","Match","Exact","512 N MENDENHALL RD, MEMPHIS, TN, 38117",630868044,"R"
234075,"512 NORTH ROYAL TOWER DR","IRMO","SC",29063,34.097853851,-81.198693052,75,"512 NORTH ROYAL TOWER DR, IRMO, SC, 29063","Match","Exact","512 N ROYAL TOWER DR, IRMO, SC, 29063",635634866,"L"
234076,"512 NORTHAMPTON ST","EDWARDSVILLE","PA",18704,41.257751898,-75.898708685,76,"512 NORTHAMPTON ST, EDWARDSVILLE, PA, 18704","Match","Exact","512 NORTHAMPTON ST, EDWARDSVILLE, PA, 18704",80913725,"L"
234077,"512 NORTHEAST 3RD AVENUE","FORT LAUDERDALE","FL",33301,26.1282714610001,-80.140731317,77,"512 NORTHEAST 3RD AVENUE, FORT LAUDERDALE, FL, 33301","Match","Exact","512 NE 3RD AVE, FORT LAUDERDALE, FL, 33301",114722606,"R"
234078,"512 OAK LANE","LIBERTY HILL","TX",78642,30.69234277,-97.892071186,78,"512 OAK LANE, LIBERTY HILL, TX, 78642","Match","Exact","512 OAK LN, LIBERTY HILL, TX, 78642",126490121,"R"
234079,"512 OAK STREET","BARABOO","WI",53913,43.4701075580001,-89.7424862779999,79,"512 OAK STREET, BARABOO, WI, 53913","Match","Exact","512 OAK ST, BARABOO, WI, 53913",86534403,"R"
234080,"512 OAKLAND AVE","WAUKESHA","WI",53186,43.0080601780001,-88.216522977,80,"512 OAKLAND AVE, WAUKESHA, WI, 53186","Match","Exact","512 OAKLAND AVE, WAUKESHA, WI, 53186",638711544,"L"
234081,"512 OLD PASTURE LANE","SEVERNA PARK","MD",21146,39.0863057340001,-76.5911575979999,81,"512 OLD PASTURE LANE, SEVERNA PARK, MD, 21146","Match","Exact","512 OLD PASTURE LN, SEVERNA PARK, MD, 21146",68167070,"R"
234082,"512 ORCHARD ST","BALTIMORE","MD",21201,39.2975076920001,-76.623825865,82,"512 ORCHARD ST, BALTIMORE, MD, 21201","Match","Exact","512 ORCHARD ST, BALTIMORE, MD, 21201",206417346,"R"
234083,"512 PENNSYLVANIA AVE","LYNN HAVEN","FL",32444,30.250111142,-85.647401047,83,"512 PENNSYLVANIA AVE, LYNN HAVEN, FL, 32444","Match","Exact","512 PENNSYLVANIA AVE, LYNN HAVEN, FL, 32444",7042573,"L"
234084,"512 PILARCITOS AVENUE","HALF MOON BAY","CA",94019,37.474350026,-122.443835238,84,"512 PILARCITOS AVENUE, HALF MOON BAY, CA, 94019","Match","Exact","512 PILARCITOS AVE, HALF MOON BAY, CA, 94019",192382519,"L"
234085,"512 PINEBROOK CT","WEST HEMPSTEAD","NY",11552,40.6735085,-73.6566453889999,85,"512 PINEBROOK CT, WEST HEMPSTEAD, NY, 11552","Match","Exact","512 PINEBROOK CT, W HEMPSTEAD, NY, 11552",147675379,"R"
234086,"512 PORTLAND DRIVE SW","WILLMAR","MN",56201,45.0962292620001,-95.045403369,86,"512 PORTLAND DRIVE SW, WILLMAR, MN, 56201","Match","Exact","512 PORTLAND DR SW, WILLMAR, MN, 56201",36725883,"L"
234087,"512 RATON CT","CHESAPEAKE","VA",23323,36.726299226,-76.327098067,87,"512 RATON CT, CHESAPEAKE, VA, 23323","Match","Exact","512 RATON CT, CHESAPEAKE, VA, 23323",121780510,"L"
234088,"512 RIDGEVIEW DRIVE","PLEASANTON","TX",78064,29.041805777,-98.438428029,88,"512 RIDGEVIEW DRIVE, PLEASANTON, TX, 78064","Match","Exact","512 RIDGEVIEW DR, PLEASANTON, TX, 78064",24477584,"R"
234089,"512 RIVERBED DR","CROWLEY","TX",76036,32.5636550900001,-97.36574716,89,"512 RIVERBED DR, CROWLEY, TX, 76036","Match","Exact","512 RIVERBED DR, CROWLEY, TX, 76036",627701765,"R"
234090,"512 ROBERT AND MARY ST APT 24","GRAYSON","KY",41143,NA,NA,90,"512 ROBERT AND MARY ST APT 24, GRAYSON, KY, 41143","No_Match",NA,NA,NA,NA
234091,"512 ROCKAWAY AVE APT 3F","BROOKLYN","NY",11212,40.6675398950001,-73.910196358,91,"512 ROCKAWAY AVE APT 3F, BROOKLYN, NY, 11212","Match","Exact","512 ROCKAWAY AVE, BROOKLYN, NY, 11212",59083920,"R"
234092,"512 ROGERS TRAIL","KERRVILLE","TX",78028,30.181068628,-99.2032800869999,92,"512 ROGERS TRAIL, KERRVILLE, TX, 78028","Match","Exact","512 ROGERS TRL, KERRVILLE, TX, 78028",627915714,"R"
234093,"512 S 9TH APT D","MCALLEN","TX",78501,NA,NA,93,"512 S 9TH APT D, MCALLEN, TX, 78501","No_Match",NA,NA,NA,NA
234094,"512 S BUCKINGHAM RD","YORKTOWN","IN",47396,40.188669584,-85.489689208,94,"512 S BUCKINGHAM RD, YORKTOWN, IN, 47396","Match","Exact","512 S BUCKINGHAM RD, YORKTOWN, IN, 47396",30848289,"R"
234095,"512 S CENTER ST","THOMASTON","GA",30286,32.8834486860001,-84.32615469,95,"512 S CENTER ST, THOMASTON, GA, 30286","Match","Exact","512 S CENTER ST, THOMASTON, GA, 30286",83683641,"L"
234096,"512 S TRILLIUM WAY","MOSES LAKE","WA",98837,47.0961356810001,-119.315583771,96,"512 S TRILLIUM WAY, MOSES LAKE, WA, 98837","Match","Exact","512 TRILLIUM WAY, MOSES LAKE, WA, 98837",635353002,"L"
234097,"512 SAINT MARYS STREET  STE 107","RALEIGH","NC",27605,35.786854958,-78.65081911,97,"512 SAINT MARYS STREET  STE 107, RALEIGH, NC, 27605","Match","Exact","512 SAINT MARYS ST, RALEIGH, NC, 27605",72503438,"R"
234098,"512 SCOTT DRIVE","SILVER SPRING","MD",20904,39.076366292,-77.0216352849999,98,"512 SCOTT DRIVE, SILVER SPRING, MD, 20904","Match","Exact","512 SCOTT DR, SILVER SPRING, MD, 20904",62107510,"L"
234099,"512 SE ELLSWORTH ROAD","VANCOUVER","WA",98664,45.6177306590001,-122.561170406,99,"512 SE ELLSWORTH ROAD, VANCOUVER, WA, 98664","Match","Exact","512 SE ELLSWORTH RD, VANCOUVER, WA, 98664",158329944,"R"
234100,"512 SE MADISON BLVD","BARTLESVILLE","OK",74006,36.765016469,-95.917185653,100,"512 SE MADISON BLVD, BARTLESVILLE, OK, 74006","Match","Exact","512 MADISON BLVD, BARTLESVILLE, OK, 74006",606546069,"R"
234101,"512 SHAW COURT 105","SEVERN","MD",21144,39.1479864130001,-76.667920823,101,"512 SHAW COURT 105, SEVERN, MD, 21144","Match","Exact","512 SHAW CT, SEVERN, MD, 21144",68184458,"L"
234102,"512 SOUTH B LINE HIGHWAY   5A","PAYSON","AZ",85541,NA,NA,102,"512 SOUTH B LINE HIGHWAY   5A, PAYSON, AZ, 85541","No_Match",NA,NA,NA,NA
234103,"512 SOUTH ST","PHILADELPHIA","PA",19147,39.9418888910001,-75.151321255,103,"512 SOUTH ST, PHILADELPHIA, PA, 19147","Match","Exact","512 SOUTH ST, PHILADELPHIA, PA, 19147",131440211,"L"
234104,"512 SOUTHFIELD DRIVE","FRIENDSWOOD","TX",77546,29.5448855240001,-95.208375221,104,"512 SOUTHFIELD DRIVE, FRIENDSWOOD, TX, 77546","Match","Exact","512 SOUTHFIELD DR, FRIENDSWOOD, TX, 77546",635234520,"L"
234105,"512 SPOTSWOOD GRAVEL HILL ROAD","MONROE TOWNSHIP","NJ",8831,40.3742485060001,-74.399823559,105,"512 SPOTSWOOD GRAVEL HILL ROAD, MONROE TOWNSHIP, NJ, 8831","Match","Exact","512 SPOTSWOOD GRAVEL HILL RD, MONROE TOWNSHIP, NJ, 08831",636498798,"L"
234106,"512 STARSTONE DRIVE","LAKE MARY","FL",32746,28.7407976650001,-81.344476744,106,"512 STARSTONE DRIVE, LAKE MARY, FL, 32746","Match","Exact","512 STARSTONE DR, LAKE MARY, FL, 32746",93771499,"R"
234107,"512 STONEBRIDGE CIR","SAVANNAH","GA",31419,32.037315839,-81.226870617,107,"512 STONEBRIDGE CIR, SAVANNAH, GA, 31419","Match","Exact","512 STONEBRIDGE CIR, SAVANNAH, GA, 31419",636352739,"L"
234108,"512 TANGLEWOOD DR","NORTH LITTLE ROCK","AR",72118,34.8081833110001,-92.2600630649999,108,"512 TANGLEWOOD DR, NORTH LITTLE ROCK, AR, 72118","Match","Exact","512 TANGLEWOOD DR, N LITTLE ROCK, AR, 72118",83528168,"R"
234109,"512 TRUAX DRIVE","IRVING","TX",75063,32.9469841600001,-96.950347597,109,"512 TRUAX DRIVE, IRVING, TX, 75063","Match","Exact","512 TRUAX DR, IRVING, TX, 75063",102993818,"L"
234110,"512 U ST NW STE 8","WASHINGTON","DC",20001,38.916603826,-77.018956026,110,"512 U ST NW STE 8, WASHINGTON, DC, 20001","Match","Exact","512 U ST NW, WASHINGTON, DC, 20001",76224444,"L"
234111,"512 W 156TH ST 22","NEW YORK","NY",10032,40.8324593230001,-73.943025728,111,"512 W 156TH ST 22, NEW YORK, NY, 10032","Match","Non_Exact","512 W 156TH ST, NEW YORK, NY, 10032",59655448,"L"
234112,"512 W 156TH STREET SUITE 54","NEW YORIK","NY",10032,40.8324593230001,-73.943025728,112,"512 W 156TH STREET SUITE 54, NEW YORIK, NY, 10032","Match","Non_Exact","512 W 156TH ST, NEW YORK, NY, 10032",59655448,"L"
234113,"512 W 2ND AVE UNIT 102","MESA","AZ",85210,33.4114681610001,-111.842488243,113,"512 W 2ND AVE UNIT 102, MESA, AZ, 85210","Match","Non_Exact","512 W 2ND AVE, MESA, AZ, 85210",128234937,"R"
234114,"512 W ATLANTA ST","BROKEN ARROW","OK",74008,36.030072712,-95.795998873,114,"512 W ATLANTA ST, BROKEN ARROW, OK, 74008","Match","Non_Exact","512 W ATLANTA ST, BROKEN ARROW, OK, 74012",166464295,"L"
234115,"512 W MARTIN LUTHER KING BLVD 369","AUSTIN","TX",78701,NA,NA,115,"512 W MARTIN LUTHER KING BLVD 369, AUSTIN, TX, 78701","No_Match",NA,NA,NA,NA
234116,"512 W PARK ST","MORRISON","IL",61270,41.8081502380001,-89.974927108,116,"512 W PARK ST, MORRISON, IL, 61270","Match","Exact","512 W PARK ST, MORRISON, IL, 61270",48965592,"R"
234117,"512 WARDER AVE","UNIVERSITY CITY","MO",63130,38.657689974,-90.340073713,117,"512 WARDER AVE, UNIVERSITY CITY, MO, 63130","Match","Exact","512 WARDER AVE, UNIVERSITY CITY, MO, 63130",640053081,"R"
234118,"512 WEST 5TH ST","OGALLALA","NE",69153,41.1277476450001,-101.724588808,118,"512 WEST 5TH ST, OGALLALA, NE, 69153","Match","Exact","512 W 5TH ST, OGALLALA, NE, 69153",150951999,"R"
234119,"512 WEST CRAWFORD AVENUE","CONNELLSVILLE","PA",15425,40.017014331,-79.596295788,119,"512 WEST CRAWFORD AVENUE, CONNELLSVILLE, PA, 15425","Match","Exact","512 W CRAWFORD AVE, CONNELLSVILLE, PA, 15425",51152672,"L"
234120,"512 WEST EL PASO STREET","BROKEN ARROW","OK",74012,36.049406117,-95.796039561,120,"512 WEST EL PASO STREET, BROKEN ARROW, OK, 74012","Match","Exact","512 W EL PASO ST, BROKEN ARROW, OK, 74012",166458588,"L"
234121,"512 WHISPERING WILLOW LN","SOLON","IA",52333,41.806233363,-91.4879971079999,121,"512 WHISPERING WILLOW LN, SOLON, IA, 52333","Match","Exact","512 WHISPERING WILLOW LN, SOLON, IA, 52333",635829514,"L"
234122,"512 WHITE CREEK RD","SANDY HOOK","KY",41171,38.1036668610001,-82.9881866379999,122,"512 WHITE CREEK RD, SANDY HOOK, KY, 41171","Match","Exact","512 WHITE CREEK RD, SANDY HOOK, KY, 41171",39521308,"L"
234123,"512 WINNEPEG DR","COLORADO SPRINGS","CO",80910,38.824035871,-104.788003211,123,"512 WINNEPEG DR, COLORADO SPRINGS, CO, 80910","Match","Exact","512 WINNEPEG DR, COLORADO SPRINGS, CO, 80910",105517157,"R"
234124,"512 YOUNG AVE","CHATTANOOGA","TN",37405,35.063896626,-85.295462514,124,"512 YOUNG AVE, CHATTANOOGA, TN, 37405","Match","Exact","512 YOUNG AVE, CHATTANOOGA, TN, 37405",59307444,"R"
234125,"512 ZENON WY B","ARROYO GRANDE","CA",93420,35.0701375680001,-120.558487741,125,"512 ZENON WY B, ARROYO GRANDE, CA, 93420","Match","Exact","512 ZENON WAY, ARROYO GRANDE, CA, 93420",109759062,"L"
234126,"5120 215TH ST SE","WOODINVILLE","WA",98072,47.802658104,-122.164278137,126,"5120 215TH ST SE, WOODINVILLE, WA, 98072","Match","Exact","5120 215TH ST SE, WOODINVILLE, WA, 98072",187777690,"R"
234127,"5120 AROMATIC COURT","SPRNG HILL","FL",34607,28.504997358,-82.5969931229999,127,"5120 AROMATIC COURT, SPRNG HILL, FL, 34607","Match","Exact","5120 AROMATIC CT, SPRING HILL, FL, 34607",85451510,"L"
234128,"5120 AUDREYSTONE DRIVE","CARY","NC",27518,35.698604742,-78.794081112,128,"5120 AUDREYSTONE DRIVE, CARY, NC, 27518","Match","Exact","5120 AUDREYSTONE DR, CARY, NC, 27518",624255696,"L"
234129,"5120 BEACON RD","PALMETTO","FL",34221,27.5601884450001,-82.571736824,129,"5120 BEACON RD, PALMETTO, FL, 34221","Match","Exact","5120 BEACON RD, PALMETTO, FL, 34221",16241925,"R"
234130,"5120 CLAYVALE ST","ACTON","CA",93510,NA,NA,130,"5120 CLAYVALE ST, ACTON, CA, 93510","No_Match",NA,NA,NA,NA
234131,"5120 DEBUT AVE","HOPE MILLS","NC",28348,34.92515081,-78.897902223,131,"5120 DEBUT AVE, HOPE MILLS, NC, 28348","Match","Exact","5120 DEBUT AVE, HOPE MILLS, NC, 28348",646702284,"R"
234132,"5120 DREW AVE N","BROOKLYN CENTER","MN",55429,45.048204259,-93.327110555,132,"5120 DREW AVE N, BROOKLYN CENTER, MN, 55429","Match","Exact","5120 DREW AVE N, BROOKLYN CENTER, MN, 55429",43620408,"R"
234133,"5120 E 16TH STREET","CASPER","WY",82609,42.833284061,-106.255346281,133,"5120 E 16TH STREET, CASPER, WY, 82609","Match","Exact","5120 E 16TH ST, CASPER, WY, 82609",149026150,"L"
234134,"5120 FAIRGLEN LANE","CHEVY CHASE","MD",20815,38.9768019040001,-77.101886972,134,"5120 FAIRGLEN LANE, CHEVY CHASE, MD, 20815","Match","Exact","5120 FAIRGLEN LN, CHEVY CHASE, MD, 20815",62065819,"L"
234135,"5120 FOXHALL DR S","WEST PALM BEACH","FL",33417,26.742205137,-80.121329004,135,"5120 FOXHALL DR S, WEST PALM BEACH, FL, 33417","Match","Exact","5120 FOXHALL DR S, WEST PALM BEACH, FL, 33417",115579941,"L"
234136,"5120 GLOBE AVE","CINCINNATI","OH",45212,39.1681716360001,-84.456138144,136,"5120 GLOBE AVE, CINCINNATI, OH, 45212","Match","Exact","5120 GLOBE AVE, CINCINNATI, OH, 45212",103928897,"R"
234137,"5120 GOLDLEAF CICLE SUITE 180","LOS ANGELES","CA",90056,33.9892586440001,-118.367634653,137,"5120 GOLDLEAF CICLE SUITE 180, LOS ANGELES, CA, 90056","Match","Non_Exact","5120 GOLDLEAF CIR, LOS ANGELES, CA, 90056",142444785,"L"
234138,"5120 GOLDLEAF CIRCLE SUITE 180","LOS ANGELES","CA",90056,33.9892586440001,-118.367634653,138,"5120 GOLDLEAF CIRCLE SUITE 180, LOS ANGELES, CA, 90056","Match","Exact","5120 GOLDLEAF CIR, LOS ANGELES, CA, 90056",142444785,"L"
234139,"5120 GRANDVIEW DR","FORT MILL","SC",29707,34.9369079040001,-80.844623031,139,"5120 GRANDVIEW DR, FORT MILL, SC, 29707","Match","Exact","5120 GRANDVIEW DR, FORT MILL, SC, 29707",627725468,"R"
234140,"5120 HILLCREST DRIVE","LOS ANGELES","CA",90043,33.996070294,-118.3366499,140,"5120 HILLCREST DRIVE, LOS ANGELES, CA, 90043","Match","Exact","5120 HILLCREST DR, LOS ANGELES, CA, 90043",142750393,"L"
234141,"5120 IRISH ROAD","SCHUYLER","VA",22969,37.811197344,-78.671959101,141,"5120 IRISH ROAD, SCHUYLER, VA, 22969","Match","Exact","5120 IRISH RD, SCHUYLER, VA, 22969",647817137,"L"
234142,"5120 JAYCEE AVENUE APT A-4","ASHTABULA","OH",44004,41.858671638,-80.775972688,142,"5120 JAYCEE AVENUE APT A-4, ASHTABULA, OH, 44004","Match","Exact","5120 JAYCEE AVE, ASHTABULA, OH, 44004",642175844,"R"
234143,"5120 LAUREL BRIDGE CT SE","SMYRNA","GA",30082,33.841767066,-84.511650305,143,"5120 LAUREL BRIDGE CT SE, SMYRNA, GA, 30082","Match","Exact","5120 LAUREL BRIDGE CT SE, SMYRNA, GA, 30082",17197422,"R"
234144,"5120 LINCOLN AVE APT 218","CYPRESS","CA",90630,33.831660422,-118.044656293,144,"5120 LINCOLN AVE APT 218, CYPRESS, CA, 90630","Match","Exact","5120 LINCOLN AVE, CYPRESS, CA, 90630",609053371,"R"
234145,"5120 MAPLE STREET","OMAHA","NE",68104,41.2850372680001,-95.993239712,145,"5120 MAPLE STREET, OMAHA, NE, 68104","Match","Exact","5120 MAPLE ST, OMAHA, NE, 68104",116978307,"R"
234146,"5120 MATTHEW MEADOW COURT","ALPHARETTA","GA",30004,34.1643178480001,-84.2287755309999,146,"5120 MATTHEW MEADOW COURT, ALPHARETTA, GA, 30004","Match","Exact","5120 MATTHEW MEADOW CT, ALPHARETTA, GA, 30004",618445328,"R"
234147,"5120 MAYFIELD ROAD STE 113","LYNDHURST","OH",44124,41.519903807,-81.4920272479999,147,"5120 MAYFIELD ROAD STE 113, LYNDHURST, OH, 44124","Match","Exact","5120 MAYFIELD RD, LYNDHURST, OH, 44124",613732491,"R"
234148,"5120 MAYFIELD ROAD","LYNDHUST","OH",44124,41.519903807,-81.4920272479999,148,"5120 MAYFIELD ROAD, LYNDHUST, OH, 44124","Match","Non_Exact","5120 MAYFIELD RD, LYNDHURST, OH, 44124",613732491,"R"
234149,"5120 N IDAHO RD","APACHE JUNCTION","AZ",85119,NA,NA,149,"5120 N IDAHO RD, APACHE JUNCTION, AZ, 85119","No_Match",NA,NA,NA,NA
234150,"5120 N PALAFOX STREET","PENSACOLA","FL",32505,NA,NA,150,"5120 N PALAFOX STREET, PENSACOLA, FL, 32505","No_Match",NA,NA,NA,NA
234151,"5120 NE 18TH AVE SUITE 2","FT LAUDERDALE","FL",33334,26.190230425,-80.122635182,151,"5120 NE 18TH AVE SUITE 2, FT LAUDERDALE, FL, 33334","Match","Non_Exact","5120 NE 18TH AVE, FORT LAUDERDALE, FL, 33334",114723685,"R"
234152,"5120 OLD CT","WEST BLOOMFIELD","MI",48322,42.5350825240001,-83.3322067029999,152,"5120 OLD CT, WEST BLOOMFIELD, MI, 48322","Match","Exact","5120 OLD CT, W BLOOMFIELD, MI, 48322",69776482,"R"
234153,"5120 OLIVER STATION LN   APT 103","WINSTON SALEM","NC",27127,NA,NA,153,"5120 OLIVER STATION LN   APT 103, WINSTON SALEM, NC, 27127","No_Match",NA,NA,NA,NA
234154,"5120 POLK LANE","OLIVE BRANCH","MS",38654,34.9339489700001,-89.777326153,154,"5120 POLK LANE, OLIVE BRANCH, MS, 38654","Match","Exact","5120 POLK LN, OLIVE BRANCH, MS, 38654",91839975,"R"
234155,"5120 POLK LN","OLIVE BRANCH","MS",38654,34.9339489700001,-89.777326153,155,"5120 POLK LN, OLIVE BRANCH, MS, 38654","Match","Exact","5120 POLK LN, OLIVE BRANCH, MS, 38654",91839975,"R"
234156,"5120 REA RD","CHARLOTTE","NC",28226,35.0946756910001,-80.810211035,156,"5120 REA RD, CHARLOTTE, NC, 28226","Match","Exact","5120 REA RD, CHARLOTTE, NC, 28226",70505808,"R"
234157,"5120 S 98TH CT APT1","OMAHA","NE",68123,NA,NA,157,"5120 S 98TH CT APT1, OMAHA, NE, 68123","No_Match",NA,NA,NA,NA
234158,"5120 S HARPER AVE NO B11","CHICAGO","IL",60615,NA,NA,158,"5120 S HARPER AVE NO B11, CHICAGO, IL, 60615","No_Match",NA,NA,NA,NA
234159,"5120 S WASHINGTON ST","TACOMA","WA",98409,47.2104433420001,-122.485037723,159,"5120 S WASHINGTON ST, TACOMA, WA, 98409","Match","Exact","5120 S WASHINGTON ST, TACOMA, WA, 98409",184620430,"R"
234160,"5120 SAINT ANDREWS CV","OLIVE BRANCH","MS",38654,34.9556876190001,-89.899186367,160,"5120 SAINT ANDREWS CV, OLIVE BRANCH, MS, 38654","Match","Exact","5120 SAINT ANDREWS COVE, OLIVE BRANCH, MS, 38654",91831470,"L"
234161,"5120 SALT TRAIL CANYON PASS","FORT WAYNE","IN",46808,41.0906796790001,-85.2089374989999,161,"5120 SALT TRAIL CANYON PASS, FORT WAYNE, IN, 46808","Match","Exact","5120 SALT TRAIL CANYON PASS, FORT WAYNE, IN, 46808",606518933,"R"
234162,"5120 STONE PARK DRIVE","CHARLOTTE","NC",28269,35.359601523,-80.7837671409999,162,"5120 STONE PARK DRIVE, CHARLOTTE, NC, 28269","Match","Exact","5120 STONE PARK DR, CHARLOTTE, NC, 28269",616469560,"R"
234163,"5120 SW 21ST STREET","HOLLYWOOD","FL",33023,25.991598196,-80.194268624,163,"5120 SW 21ST STREET, HOLLYWOOD, FL, 33023","Match","Non_Exact","5120 SW 21ST ST, HOLLYWOOD, FL, 33023",114735149,"L"
234164,"5120 TIDEWATER PLACE","SYLVANIA","OH",43560,41.703948188,-83.7758999549999,164,"5120 TIDEWATER PLACE, SYLVANIA, OH, 43560","Match","Exact","5120 TIDEWATER PL, SYLVANIA, OH, 43560",33955705,"R"
234165,"5120 TWILIGHT CANYON RD UNIT H","YORBA LINDA","CA",92887,33.8864858650001,-117.733472157,165,"5120 TWILIGHT CANYON RD UNIT H, YORBA LINDA, CA, 92887","Match","Exact","5120 TWILIGHT CANYON RD, YORBA LINDA, CA, 92887",144126768,"L"
234166,"5120 TYLER CT","PASCO","WA",99301,46.2740071000001,-119.15986084,166,"5120 TYLER CT, PASCO, WA, 99301","Match","Exact","5120 TYLER CT, PASCO, WA, 99301",627463059,"R"
234167,"5120 W NORTH AVE","CHICAGO","IL",60639,NA,NA,167,"5120 W NORTH AVE, CHICAGO, IL, 60639","No_Match",NA,NA,NA,NA
234168,"5120 W SLAUSON AVE","LOS ANGELES","CA",90056,NA,NA,168,"5120 W SLAUSON AVE, LOS ANGELES, CA, 90056","Tie",NA,NA,NA,NA
234169,"5120 WYFFELS RD","CANANDAIGUA","NY",14424,42.840602114,-77.2948210599999,169,"5120 WYFFELS RD, CANANDAIGUA, NY, 14424","Match","Exact","5120 WYFFELS RD, CANANDAIGUA, NY, 14424",627000174,"R"
234170,"5121 12TH STREET","WASHINGTON","DC",20011,38.9538516540001,-76.9893057469999,170,"5121 12TH STREET, WASHINGTON, DC, 20011","Match","Non_Exact","5121 12TH ST NE, WASHINGTON, DC, 20011",76228233,"R"
234171,"5121 BONITO DR","NEW PORT RICHEY","FL",34652,28.2328061470001,-82.7414787769999,171,"5121 BONITO DR, NEW PORT RICHEY, FL, 34652","Match","Exact","5121 BONITO DR, NEW PORT RICHEY, FL, 34652",86348751,"L"
234172,"5121 CABRILLO WAY","SACRAMENTO","CA",95820,38.528560047,-121.435367579,172,"5121 CABRILLO WAY, SACRAMENTO, CA, 95820","Match","Exact","5121 CABRILLO WAY, SACRAMENTO, CA, 95820",133336407,"L"
234173,"5121 CEDAR HAVEN ROAD","RICHMOND","VA",23223,37.557663931,-77.361047852,173,"5121 CEDAR HAVEN ROAD, RICHMOND, VA, 23223","Match","Exact","5121 CEDAR HAVEN RD, RICHMOND, VA, 23223",639604663,"L"
234174,"5121 CORPORAL WELCH ROAD","SYRACUSE","NY",13215,43.018442442,-76.284315814,174,"5121 CORPORAL WELCH ROAD, SYRACUSE, NY, 13215","Match","Exact","5121 CORPORAL WELCH RD, SYRACUSE, NY, 13215",652646860,"L"
234175,"5121 E CREEK DR","HARRISBURG","PA",17112,40.3179180990001,-76.8069192999999,175,"5121 E CREEK DR, HARRISBURG, PA, 17112","Match","Exact","5121 CREEK DR, HARRISBURG, PA, 17112",637713413,"R"
234176,"5121 EXPLORATION LN","FORT COLLINS","CO",80528,40.5152025240001,-105.00813674,176,"5121 EXPLORATION LN, FORT COLLINS, CO, 80528","Match","Exact","5121 EXPLORATION LN, FORT COLLINS, CO, 80528",641498545,"L"
234177,"5121 INDIAN VALLEY DR","FORT WORTH","TX",76123,32.6334260240001,-97.40218971,177,"5121 INDIAN VALLEY DR, FORT WORTH, TX, 76123","Match","Exact","5121 INDIAN VALLEY DR, FORT WORTH, TX, 76123",102190090,"R"
234178,"5121 N JASMINE CT","MCALLEN","TX",78501,26.217753912,-98.275607077,178,"5121 N JASMINE CT, MCALLEN, TX, 78501","Match","Exact","5121 JASMINE CT, MCALLEN, TX, 78501",71560334,"R"
234179,"5121 OWLS CT","LAKE WORTH","FL",33463,26.559130372,-80.124520619,179,"5121 OWLS CT, LAKE WORTH, FL, 33463","Match","Exact","5121 OWLS CT, LAKE WORTH, FL, 33463",115547365,"R"
234180,"5121 SANTE FE COURT","ELLICOTT CITY","MD",21043,39.240132268,-76.8189065079999,180,"5121 SANTE FE COURT, ELLICOTT CITY, MD, 21043","Match","Exact","5121 SANTE FE CT, ELLICOTT CITY, MD, 21043",614149532,"L"
234181,"5121 SEVILLE LN","FLOWER MOUND","TX",75028,33.054970589,-97.091962025,181,"5121 SEVILLE LN, FLOWER MOUND, TX, 75028","Match","Exact","5121 SEVILLE LN, FLOWER MOUND, TX, 75028",103408574,"L"
234182,"5121 SUMMERTREE CT","GARLAND","TX",75043,32.8553194,-96.580425398,182,"5121 SUMMERTREE CT, GARLAND, TX, 75043","Match","Exact","5121 SUMMERTREE CT, GARLAND, TX, 75043",103277110,"R"
234183,"5121 TYME RD","NORTH CHESTERFIELD","VA",23234,37.4530073180001,-77.463054754,183,"5121 TYME RD, NORTH CHESTERFIELD, VA, 23234","Match","Exact","5121 TYME RD, NORTH CHESTERFIELD, VA, 23234",201546546,"L"
234184,"5121 US HWY 90 W","SCHULENBURG","TX",78956,29.685426771,-96.978216946,184,"5121 US HWY 90 W, SCHULENBURG, TX, 78956","Match","Non_Exact","5121 US HWY 90, SCHULENBURG, TX, 78956",42001976,"L"
234185,"5121 VAN NUYS BLVD SUITE 205","SHERMAN OAKS","CA",91403,34.1636239760001,-118.44870341,185,"5121 VAN NUYS BLVD SUITE 205, SHERMAN OAKS, CA, 91403","Match","Exact","5121 VAN NUYS BLVD, SHERMAN OAKS, CA, 91403",141561509,"L"
234186,"5121 WEATHER ROCK LN","FORT WORTH","TX",76179,32.837384854,-97.379036647,186,"5121 WEATHER ROCK LN, FORT WORTH, TX, 76179","Match","Exact","5121 WEATHER ROCK LN, FORT WORTH, TX, 76179",619874768,"L"
234187,"5121 WHISTLERS BEND WAY","EL DORADO HILS","CA",95762,38.668687054,-121.01288141,187,"5121 WHISTLERS BEND WAY, EL DORADO HILS, CA, 95762","Match","Non_Exact","5121 WHISTLERS BEND WAY, EL DORADO HILLS, CA, 95762",619526142,"L"
234188,"5121 WOODLAND WAY","ANNANDALE","VA",22003,38.812676025,-77.250205955,188,"5121 WOODLAND WAY, ANNANDALE, VA, 22003","Match","Exact","5121 WOODLAND WAY, ANNANDALE, VA, 22003",76022536,"L"
234189,"5121","MCKINNEY","TX",75071,NA,NA,189,"5121, MCKINNEY, TX, 75071","No_Match",NA,NA,NA,NA
234190,"5121STOCKWHIP DRIVE","CROWLEY","TX",76036,NA,NA,190,"5121STOCKWHIP DRIVE, CROWLEY, TX, 76036","No_Match",NA,NA,NA,NA
234191,"5122 ABERDEAN TRAIL","GRAND PRAIRIE","TX",75052,32.648979411,-97.03061218,191,"5122 ABERDEAN TRAIL, GRAND PRAIRIE, TX, 75052","Match","Exact","5122 ABERDEAN TRL, GRAND PRAIRIE, TX, 75052",102938109,"L"
234192,"5122 ALMAR DR","PUNTA GORDA","FL",33950,26.891971385,-82.054745032,192,"5122 ALMAR DR, PUNTA GORDA, FL, 33950","Match","Exact","5122 ALMAR DR, PUNTA GORDA, FL, 33950",647562707,"R"
234193,"5122 BOLICK RD","CLAREMONT","NC",28610,35.775193196,-81.124106639,193,"5122 BOLICK RD, CLAREMONT, NC, 28610","Match","Exact","5122 BOLICK RD, CLAREMONT, NC, 28610",45932519,"R"
234194,"5122 CHESTER SPRINGS LN","KATY","TX",77449,29.852195566,-95.729919883,194,"5122 CHESTER SPRINGS LN, KATY, TX, 77449","Match","Exact","5122 CHESTER SPRINGS LN, KATY, TX, 77449",651992326,"L"
234195,"5122 DUCK CREEK ROAD","LOST CREEK","WV",26385,39.1404792480001,-80.3823842639999,195,"5122 DUCK CREEK ROAD, LOST CREEK, WV, 26385","Match","Exact","5122 DUCK CREEK RD, LOST CREEK, WV, 26385",605650498,"L"
234196,"5122 EAST WALLACE AVENUE","SCOTTSDALE","AZ",85254,33.63993451,-111.970208092,196,"5122 EAST WALLACE AVENUE, SCOTTSDALE, AZ, 85254","Match","Exact","5122 E WALLACE AVE, SCOTTSDALE, AZ, 85254",128587658,"R"
234197,"5122 HAMEL ST","DAVIS","CA",95618,38.550456038,-121.686589282,197,"5122 HAMEL ST, DAVIS, CA, 95618","Match","Exact","5122 HAMEL ST, DAVIS, CA, 95618",67701872,"R"
234198,"5122 HAWKSTONE DRIVE","SANFORD","FL",32771,28.815299157,-81.339617501,198,"5122 HAWKSTONE DRIVE, SANFORD, FL, 32771","Match","Exact","5122 HAWKSTONE DR, SANFORD, FL, 32771",624584525,"R"
234199,"5122 JOHNSON CREEK DR","JACKSONVILLE","FL",32218,30.4471339520001,-81.727861274,199,"5122 JOHNSON CREEK DR, JACKSONVILLE, FL, 32218","Match","Exact","5122 JOHNSON CREEK DR, JACKSONVILLE, FL, 32218",627942017,"L"
234200,"5122 KATELLA AVE SUITE 310","LOS ALAMITOS","CA",90720,NA,NA,200,"5122 KATELLA AVE SUITE 310, LOS ALAMITOS, CA, 90720","No_Match",NA,NA,NA,NA
234201,"5122 KATELLA AVENUE SUITE 310","LOS ALAMITOS","CA",90720,NA,NA,201,"5122 KATELLA AVENUE SUITE 310, LOS ALAMITOS, CA, 90720","No_Match",NA,NA,NA,NA
234202,"5122 KODIAK COURT","CHARLOTTE","NC",28215,35.2855129280001,-80.68783031,202,"5122 KODIAK COURT, CHARLOTTE, NC, 28215","Match","Exact","5122 KODIAK CT, CHARLOTTE, NC, 28215",70597445,"R"
234203,"5122 LAKERIDGE CT","GARLAND","TX",75043,32.8547461260001,-96.550861579,203,"5122 LAKERIDGE CT, GARLAND, TX, 75043","Match","Exact","5122 LAKERIDGE CT, GARLAND, TX, 75043",102934883,"L"
234204,"5122 N DIVISION ST","SPOKANE","WA",99207,47.7046125850001,-117.411107475,204,"5122 N DIVISION ST, SPOKANE, WA, 99207","Match","Exact","5122 N DIVISION ST, SPOKANE, WA, 99207",636107696,"R"
234205,"5122 N NEW ENGLAND","CHICAGO","IL",60656,41.9741220220001,-87.7988115219999,205,"5122 N NEW ENGLAND, CHICAGO, IL, 60656","Match","Non_Exact","5122 N NEW ENGLAND AVE, CHICAGO, IL, 60656",605178891,"L"
234206,"5122 NE 13TH AVE","PORTLAND","OR",97211,45.560166506,-122.652632728,206,"5122 NE 13TH AVE, PORTLAND, OR, 97211","Match","Exact","5122 NE 13TH AVE, PORTLAND, OR, 97211",157504023,"R"
234207,"5122 NW 30TH TERRACE","FORT LAUDERDALE","FL",33309,26.1880810160001,-80.186903287,207,"5122 NW 30TH TERRACE, FORT LAUDERDALE, FL, 33309","Match","Non_Exact","5122 NW 30 LN, FORT LAUDERDALE, FL, 33309",631896981,"L"
234208,"5122 NW 74TH CT","COCONUT CREEK","FL",33073,26.321859424,-80.1954309939999,208,"5122 NW 74TH CT, COCONUT CREEK, FL, 33073","Match","Exact","5122 NW 74TH CT, COCONUT CREEK, FL, 33073",114813792,"R"
234209,"5122 PERRY AVENUE","ANDERSON","IN",46013,NA,NA,209,"5122 PERRY AVENUE, ANDERSON, IN, 46013","No_Match",NA,NA,NA,NA
234210,"5122 PHILLIPS DRIVE","FOREST PARK","GA",30297,33.614605189,-84.357758006,210,"5122 PHILLIPS DRIVE, FOREST PARK, GA, 30297","Match","Exact","5122 PHILLIPS DR, FOREST PARK, GA, 30297",23314673,"L"
234211,"5122 S MOBILE AVE","CHICAGO","IL",60638,41.7992204990001,-87.7795807369999,211,"5122 S MOBILE AVE, CHICAGO, IL, 60638","Match","Exact","5122 S MOBILE AVE, CHICAGO, IL, 60638",111796998,"R"
234212,"5122 SE JERRY DRIVE","PRINEVILLE","OR",97754,44.2556319280001,-120.818206394,212,"5122 SE JERRY DRIVE, PRINEVILLE, OR, 97754","Match","Exact","5122 SE JERRY DR, PRINEVILLE, OR, 97754",152400772,"R"
234213,"5122 SILVER LAKE SHORES ROAD","TRAVERSE CITY","MI",49685,44.686721747,-85.678749591,213,"5122 SILVER LAKE SHORES ROAD, TRAVERSE CITY, MI, 49685","Match","Exact","5122 SILVER LAKE SHORES RD, TRAVERSE CITY, MI, 49685",145529713,"L"
234214,"5122 VERNON AVENUE","SAINT LOUIS","MO",63113,38.6583794000001,-90.266983854,214,"5122 VERNON AVENUE, SAINT LOUIS, MO, 63113","Match","Exact","5122 VERNON AVE, SAINT LOUIS, MO, 63113",107593180,"L"
234215,"5122 W LAXITA DRIVE","LAPORTE","IN",46350,41.6845134690001,-86.8008930349999,215,"5122 W LAXITA DRIVE, LAPORTE, IN, 46350","Match","Exact","5122 W LAXITA DR, LAPORTE, IN, 46350",15414032,"L"
234216,"5122 W NELSON ST","CHICAGO","IL",60641,41.9359947950001,-87.754803769,216,"5122 W NELSON ST, CHICAGO, IL, 60641","Match","Exact","5122 W NELSON ST, CHICAGO, IL, 60641",111755697,"R"
234217,"5122 W ROSCOE ST","CHICAGO","IL",60641,41.94237887,-87.755020762,217,"5122 W ROSCOE ST, CHICAGO, IL, 60641","Match","Exact","5122 W ROSCOE ST, CHICAGO, IL, 60641",111755656,"R"
234218,"5122 WILLOW STREET","NEW ORLEANS","LA",70115,29.938782174,-90.109265614,218,"5122 WILLOW STREET, NEW ORLEANS, LA, 70115","Match","Exact","5122 WILLOW ST, NEW ORLEANS, LA, 70115",191734532,"L"
234219,"51227","AMARILLO","TX",79159,NA,NA,219,"51227, AMARILLO, TX, 79159","No_Match",NA,NA,NA,NA
234220,"5123 AMBERAGE LN","DALLAS","TX",75287,NA,NA,220,"5123 AMBERAGE LN, DALLAS, TX, 75287","No_Match",NA,NA,NA,NA
234221,"5123 AVENUE R","GALVESTON","TX",77551,29.2801756530001,-94.820480862,221,"5123 AVENUE R, GALVESTON, TX, 77551","Match","Exact","5123 AVE R, GALVESTON, TX, 77551",96680882,"L"
234222,"5123 BELLAR ST","SHREVEPORT","LA",71109,32.46330728,-93.800857677,222,"5123 BELLAR ST, SHREVEPORT, LA, 71109","Match","Exact","5123 BELLAR ST, SHREVEPORT, LA, 71109",57453047,"R"
234223,"5123 BLAIR LN","BATON ROUGE","LA",70810,30.398100965,-91.099345343,223,"5123 BLAIR LN, BATON ROUGE, LA, 70810","Match","Non_Exact","5123 BLAIR LN, BATON ROUGE, LA, 70809",92192654,"L"
234224,"5123 CHIMNEYLAKE DRIVE","LAFAYETTE","IN",47905,40.416818859,-86.806460901,224,"5123 CHIMNEYLAKE DRIVE, LAFAYETTE, IN, 47905","Match","Exact","5123 CHIMNEYLAKE DR, LAFAYETTE, IN, 47905",27317914,"L"
234225,"5123 D ST SE","WASHINGTON","DC",20019,38.8835970220001,-76.928306557,225,"5123 D ST SE, WASHINGTON, DC, 20019","Match","Exact","5123 D ST SE, WASHINGTON, DC, 20019",76233891,"R"
234226,"5123 FRANCES AVE NE","TACOMA","WA",98422,47.3038784940001,-122.425734344,226,"5123 FRANCES AVE NE, TACOMA, WA, 98422","Match","Exact","5123 FRANCES AVE NE, TACOMA, WA, 98422",184646513,"R"
234227,"5123 IZARD ST","OMAHA","NE",68132,41.268702907,-95.9933245999999,227,"5123 IZARD ST, OMAHA, NE, 68132","Match","Exact","5123 IZARD ST, OMAHA, NE, 68132",116978581,"L"
234228,"5123 KIEV DRIVE","CHARLOTTE","NC",28216,35.3066265260001,-80.867010364,228,"5123 KIEV DRIVE, CHARLOTTE, NC, 28216","Match","Exact","5123 KIEV DR, CHARLOTTE, NC, 28216",70582400,"R"
234229,"5123 MADDEN LANE","HOUSTON","TX",77048,29.632664645,-95.347679967,229,"5123 MADDEN LANE, HOUSTON, TX, 77048","Match","Exact","5123 MADDEN LN, HOUSTON, TX, 77048",96090528,"L"
234230,"5123 N 11TH ST","PHILADELPHIA","PA",19141,40.030375672,-75.141120109,230,"5123 N 11TH ST, PHILADELPHIA, PA, 19141","Match","Exact","5123 N 11TH ST, PHILADELPHIA, PA, 19141",131417368,"R"
234231,"5123 N NC HWY 119","MEBANE","NC",27302,36.2179655,-79.29168959,231,"5123 N NC HWY 119, MEBANE, NC, 27302","Match","Exact","5123 STATE HWY 119, MEBANE, NC, 27302",640211682,"R"
234232,"5123 OBION COURT","RALEIGH","NC",27616,35.8887842140001,-78.5547591069999,232,"5123 OBION COURT, RALEIGH, NC, 27616","Match","Exact","5123 OBION CT, RALEIGH, NC, 27616",612819931,"L"
234233,"5123 S 3RD ST","MEMPHIS","TN",38109,35.0086541920001,-90.100295057,233,"5123 S 3RD ST, MEMPHIS, TN, 38109","Match","Exact","5123 S 3RD ST, MEMPHIS, TN, 38109",72922013,"R"
234234,"5123 S CLOVERDALE PLACE","SEATTLE","WA",98118,47.5266566610001,-122.269274989,234,"5123 S CLOVERDALE PLACE, SEATTLE, WA, 98118","Match","Non_Exact","5123 S CLOVERDALE ST, SEATTLE, WA, 98118",186597055,"R"
234235,"5123 S RIDGEWOOD AVENUE SUITE B","PORT ORANGE","FL",32127,29.1261426520001,-80.978780312,235,"5123 S RIDGEWOOD AVENUE SUITE B, PORT ORANGE, FL, 32127","Match","Non_Exact","5123 S RIDGEWOOD AVE, PORT ORANGE, FL, 32127",639419005,"R"
234236,"5123 S WOODBRIDGE TRAIL","STONE MOUNTAIN","GA",30088,33.778805601,-84.1807763639999,236,"5123 S WOODBRIDGE TRAIL, STONE MOUNTAIN, GA, 30088","Match","Exact","5123 S WOODBRIDGE TRL, STONE MOUNTAIN, GA, 30088",23372249,"L"
234237,"5123 VERNON AVENUE","SAINT LOUIS","MO",63113,38.6583902770001,-90.2669820839999,237,"5123 VERNON AVENUE, SAINT LOUIS, MO, 63113","Match","Exact","5123 VERNON AVE, SAINT LOUIS, MO, 63113",107593180,"R"
234238,"5123 W 85TH ST","TULSA","OK",74131,36.0410602860001,-96.049699058,238,"5123 W 85TH ST, TULSA, OK, 74131","Match","Non_Exact","5123 W 85TH ST S, TULSA, OK, 74131",165886418,"L"
234239,"5123 W 98TH ST BOX 1108","BLOOMINGTON","MN",55437,44.8251646620001,-93.346502941,239,"5123 W 98TH ST BOX 1108, BLOOMINGTON, MN, 55437","Match","Non_Exact","5123 W 98TH ST, BLOOMINGTON, MN, 55437",43812168,"L"
234240,"5124 105TH STREET NE","MARYSVILLE","WA",98270,48.0897542110001,-122.160259711,240,"5124 105TH STREET NE, MARYSVILLE, WA, 98270","Match","Exact","5124 105TH ST NE, MARYSVILLE, WA, 98270",187769620,"R"
234241,"5124 ALBERTA AVENUE","NOTTINGHAM","MD",21236,39.357645211,-76.512119975,241,"5124 ALBERTA AVENUE, NOTTINGHAM, MD, 21236","Match","Exact","5124 ALBERTA AVE, NOTTINGHAM, MD, 21236",191478256,"L"
234242,"5124 CHERRY LN","MEDFORD","OR",97504,42.3283453270001,-122.783797114,242,"5124 CHERRY LN, MEDFORD, OR, 97504","Match","Exact","5124 CHERRY LN, MEDFORD, OR, 97504",642567738,"R"
234243,"5124 DRAPER ST","FORT WORTH","TX",76105,32.7199602480001,-97.244473737,243,"5124 DRAPER ST, FORT WORTH, TX, 76105","Match","Exact","5124 DRAPER ST, FORT WORTH, TX, 76105",101897940,"R"
234244,"5124 E ORIOLE DRIVE","MONTICELLO","IN",47960,NA,NA,244,"5124 E ORIOLE DRIVE, MONTICELLO, IN, 47960","Tie",NA,NA,NA,NA
234245,"5124 EAST LAKE ROAD","MILTON","FL",32583,30.618773156,-86.8889608869999,245,"5124 EAST LAKE ROAD, MILTON, FL, 32583","Match","Exact","5124 E LAKE RD, MILTON, FL, 32583",74579416,"L"
234246,"5124 GROUSE LANE","VAIL","CO",81657,39.6238844870001,-106.281524378,246,"5124 GROUSE LANE, VAIL, CO, 81657","Match","Exact","5124 GROUSE LN, VAIL, CO, 81657",105738564,"R"
234247,"5124 HICKORY VALLEY COURT APT C","CHARLOTTE","NC",28212,35.221880147,-80.743932552,247,"5124 HICKORY VALLEY COURT APT C, CHARLOTTE, NC, 28212","Match","Exact","5124 HICKORY VALLEY CT, CHARLOTTE, NC, 28212",70516584,"L"
234248,"5124 HIGHWAY 80 E","UNIONTOWN","AL",36786,NA,NA,248,"5124 HIGHWAY 80 E, UNIONTOWN, AL, 36786","No_Match",NA,NA,NA,NA
234249,"5124 JANET DR","VIRGINIA BEACH","VA",23464,36.8031727430001,-76.162946475,249,"5124 JANET DR, VIRGINIA BEACH, VA, 23464","Match","Exact","5124 JANET DR, VA BCH, VA, 23464",122280908,"R"
234250,"5124 MADELINE PLACE","STONE MOUNTAIN","GA",30083,33.817451084,-84.17743861,250,"5124 MADELINE PLACE, STONE MOUNTAIN, GA, 30083","Match","Exact","5124 MADELINE PL, STONE MOUNTAIN, GA, 30083",649757970,"R"
234251,"5124 MARSHALL DRIVE","OMAHA","NE",68137,41.206235516,-96.131523339,251,"5124 MARSHALL DRIVE, OMAHA, NE, 68137","Match","Exact","5124 MARSHALL DR, OMAHA, NE, 68137",653876037,"R"
234252,"5124 N 19TH ST","TAMPA","FL",33610,27.9937541510001,-82.4388438679999,252,"5124 N 19TH ST, TAMPA, FL, 33610","Match","Non_Exact","5124 N 19TH ST, TAMPA, FL, 33610",104522616,"L"
234253,"5124 POLK STREET","HOUSTON","FL",77023,NA,NA,253,"5124 POLK STREET, HOUSTON, FL, 77023","No_Match",NA,NA,NA,NA
234254,"5124 RICH RD","MEMPHIS","TN",38117,35.1356124930001,-89.891223994,254,"5124 RICH RD, MEMPHIS, TN, 38117","Match","Exact","5124 RICH RD, MEMPHIS, TN, 38117",72925206,"L"
234255,"5124 WINDMILL PLACE","EVANS","GA",30809,33.5625294700001,-82.196727176,255,"5124 WINDMILL PLACE, EVANS, GA, 30809","Match","Exact","5124 WINDMILL PL, EVANS, GA, 30809",55381885,"L"
234256,"5125 CORNING AVENUE","LOS ANGELES","CA",90056,33.995490735,-118.37218663,256,"5125 CORNING AVENUE, LOS ANGELES, CA, 90056","Match","Non_Exact","5125 S CORNING AVE, LOS ANGELES, CA, 90056",142444763,"R"
234257,"5125 DAVIS DRIVE","BALL","LA",71405,31.3936456820001,-92.415930703,257,"5125 DAVIS DRIVE, BALL, LA, 71405","Match","Exact","5125 DAVIS DR, BALL, LA, 71405",11812053,"L"
234258,"5125 GALLEON CT","NEW PORT RICHEY","FL",34652,28.234029273,-82.753657457,258,"5125 GALLEON CT, NEW PORT RICHEY, FL, 34652","Match","Exact","5125 GALLEON CT, NEW PORT RICHEY, FL, 34652",86347526,"L"
234259,"5125 GARTH AVENUE","LOS ANGELES","CA",90056,33.995570135,-118.37117027,259,"5125 GARTH AVENUE, LOS ANGELES, CA, 90056","Match","Non_Exact","5125 S GARTH AVE, LOS ANGELES, CA, 90056",142444766,"R"
234260,"5125 GODBY PL","COLLEGE PARK","GA",30349,33.616283244,-84.477336453,260,"5125 GODBY PL, COLLEGE PARK, GA, 30349","Match","Exact","5125 GODBY PL, COLLEGE PARK, GA, 30349",647150045,"R"
234261,"5125 GRASSLAND DRIVE","ARLINGTON","TN",38002,35.2657096300001,-89.825860893,261,"5125 GRASSLAND DRIVE, ARLINGTON, TN, 38002","Match","Exact","5125 GRASSLAND DR, ARLINGTON, TN, 38002",617980754,"R"
234262,"5125 LEE PLACE","MARRERO","LA",70072,29.844923249,-90.1224227879999,262,"5125 LEE PLACE, MARRERO, LA, 70072","Match","Exact","5125 LEE PL, MARRERO, LA, 70072",93506226,"R"
234263,"5125 MADISON GREEN DR","MABLETON","GA",30126,33.8295683000001,-84.585490824,263,"5125 MADISON GREEN DR, MABLETON, GA, 30126","Match","Exact","5125 MADISON GREEN DR, MABLETON, GA, 30126",634053989,"R"
234264,"5125 PALM SPRINGS BLVD UNIT 12206","TAMPA","FL",33647,28.1146368440001,-82.3874880069999,264,"5125 PALM SPRINGS BLVD UNIT 12206, TAMPA, FL, 33647","Match","Exact","5125 PALM SPRINGS BLVD, TAMPA, FL, 33647",636366363,"L"
234265,"5125 RIGGINS MILL ROAD","MACON","GA",31217,32.8159887850001,-83.545921424,265,"5125 RIGGINS MILL ROAD, MACON, GA, 31217","Match","Exact","5125 RIGGINS MILL RD, MACON, GA, 31217",81065602,"R"
234266,"5125 ROSEBUD CT","COLUMBUS","OH",43230,40.0765814100001,-82.9136637519999,266,"5125 ROSEBUD CT, COLUMBUS, OH, 43230","Match","Exact","5125 ROSEBUD CT, COLUMBUS, OH, 43230",135588677,"L"
234267,"5125 S CRENSHAW BLVD","LOS ANGELES","CA",90043,33.9962787810001,-118.331002094,267,"5125 S CRENSHAW BLVD, LOS ANGELES, CA, 90043","Match","Non_Exact","5125 S CRENSHAW BLVD, LOS ANGELES, CA, 90043",241169914,"R"
234268,"5125 S KENWOOD AVE - 508","CHICAGO","IL",60615,41.801987298,-87.5934542379999,268,"5125 S KENWOOD AVE - 508, CHICAGO, IL, 60615","Match","Non_Exact","5125 S KENWOOD AVE, CHICAGO, IL, 60615",111771700,"L"
234269,"5125 SANDALWOOD DR","GRAND BLANC","MI",48439,42.9562975600001,-83.676036585,269,"5125 SANDALWOOD DR, GRAND BLANC, MI, 48439","Match","Exact","5125 SANDALWOOD DR, GRAND BLANC, MI, 48439",635585185,"R"
234270,"5125 W 20TH STREET","LOS ANGELES","CA",90016,34.0400920590001,-118.352281753,270,"5125 W 20TH STREET, LOS ANGELES, CA, 90016","Match","Exact","5125 W 20TH ST, LOS ANGELES, CA, 90016",141601079,"R"
234271,"5125 W ROBERTS DR","SANTA ANA","CA",92704,33.735007841,-117.936238402,271,"5125 W ROBERTS DR, SANTA ANA, CA, 92704","Match","Exact","5125 W ROBERTS DR, SANTA ANA, CA, 92704",144038608,"R"
234272,"5125 WEST JACKSON ST","PENSACOLA","FL",32506,30.4167033200001,-87.2839862609999,272,"5125 WEST JACKSON ST, PENSACOLA, FL, 32506","Match","Exact","5125 W JACKSON ST, PENSACOLA, FL, 32506",628439950,"L"
234273,"5125 WICHITA STREET SUITE 156","FORT WORTH","TX",76119,32.6858028290001,-97.280258948,273,"5125 WICHITA STREET SUITE 156, FORT WORTH, TX, 76119","Match","Exact","5125 WICHITA ST, FORT WORTH, TX, 76119",101893459,"L"
234274,"5125 WOODMONT DR","TUSCUMBIA","AL",35674,34.646187314,-87.6942923619999,274,"5125 WOODMONT DR, TUSCUMBIA, AL, 35674","Match","Exact","5125 WOODMONT DR, TUSCUMBIA, AL, 35674",40761769,"L"
234275,"5126 BROADWAY BLVD APT 1036","GARLAND","TX",75043,32.8531483310001,-96.5995555379999,275,"5126 BROADWAY BLVD APT 1036, GARLAND, TX, 75043","Match","Exact","5126 BROADWAY BLVD, GARLAND, TX, 75043",103242748,"L"
234276,"5126 BUR OAK CIRCLE","RALEIGH","NC",27612,35.852314746,-78.701875699,276,"5126 BUR OAK CIRCLE, RALEIGH, NC, 27612","Match","Exact","5126 BUR OAK CIR, RALEIGH, NC, 27612",72602385,"R"
234277,"5126 COLUMBIA AVE","DALLAS","TX",75214,32.79750219,-96.760683356,277,"5126 COLUMBIA AVE, DALLAS, TX, 75214","Match","Exact","5126 COLUMBIA AVE, DALLAS, TX, 75214",103267932,"R"
234278,"5126 CRAMNER WAY","DISTRICT HEIGHTS","MD",20743,38.865365739,-76.920182642,278,"5126 CRAMNER WAY, DISTRICT HEIGHTS, MD, 20743","Match","Non_Exact","5126 CRANMER WAY, FAIRMOUNT HGT, MD, 20743",76349188,"R"
234279,"5126 DRIVEMERE RD","HILLIARD","OH",43026,40.0278327400001,-83.152887263,279,"5126 DRIVEMERE RD, HILLIARD, OH, 43026","Match","Exact","5126 DRIVEMERE RD, HILLIARD, OH, 43026",218690919,"R"
234280,"5126 GLENVIEW CT","LA PORTE","TX",77571,29.6697687660001,-95.075004807,280,"5126 GLENVIEW CT, LA PORTE, TX, 77571","Match","Exact","5126 GLENVIEW CT, LA PORTE, TX, 77571",96544412,"R"
234281,"5126 N WOODBRIDGE TRAIL","STONE MOUNTAIN","GA",30088,33.7801071580001,-84.1805007039999,281,"5126 N WOODBRIDGE TRAIL, STONE MOUNTAIN, GA, 30088","Match","Exact","5126 N WOODBRIDGE TRL, STONE MOUNTAIN, GA, 30088",23372200,"R"
234282,"5126 THIRD STREET","SAN FRANCISCO","CA",94124,37.7319086730001,-122.391819503,282,"5126 THIRD STREET, SAN FRANCISCO, CA, 94124","Match","Exact","5126 3RD ST, SAN FRANCISCO, CA, 94124",192290950,"R"
234283,"51263 PO BOX","DENTON","TX",76206,NA,NA,283,"51263 PO BOX, DENTON, TX, 76206","No_Match",NA,NA,NA,NA
234284,"5127 BLOOMINGDALE AVENUE","TAMPA","FL",33619,27.8937133060001,-82.39939994,284,"5127 BLOOMINGDALE AVENUE, TAMPA, FL, 33619","Match","Exact","5127 BLOOMINGDALE AVE, TAMPA, FL, 33619",104579240,"R"
234285,"5127 COSBY ST","HOUSTON","TX",77021,29.692603569,-95.340999473,285,"5127 COSBY ST, HOUSTON, TX, 77021","Match","Exact","5127 COSBY ST, HOUSTON, TX, 77021",96089421,"L"
234286,"5127 CROSS STREET","CHARLOTTE","NC",28269,35.2904480030001,-80.832089174,286,"5127 CROSS STREET, CHARLOTTE, NC, 28269","Match","Exact","5127 CROSS ST, CHARLOTTE, NC, 28269",70560593,"R"
234287,"5127 MEADOW GROVE TRAIL","LAKELAND","FL",33810,28.1448618650001,-82.051124035,287,"5127 MEADOW GROVE TRAIL, LAKELAND, FL, 33810","Match","Exact","5127 MEADOW GROVE TRL, LAKELAND, FL, 33810",104934982,"L"
234288,"5127 OAKWOOD AVE","LA CANADA","CA",91011,34.2126286390001,-118.193676902,288,"5127 OAKWOOD AVE, LA CANADA, CA, 91011","Match","Exact","5127 OAKWOOD AVE, LA CANADA, CA, 91011",141591043,"L"
234289,"5127 POST OAK ROAD","JACKSON","MS",39206,32.375872144,-90.20089445,289,"5127 POST OAK ROAD, JACKSON, MS, 39206","Match","Exact","5127 POST OAK RD, JACKSON, MS, 39206",65359810,"L"
234290,"5127 TIBER WAY","SAINT CLOUD","FL",34771,28.3019221220001,-81.2373021229999,290,"5127 TIBER WAY, SAINT CLOUD, FL, 34771","Match","Exact","5127 TIBER WAY, SAINT CLOUD, FL, 34771",646591736,"L"
234291,"5127 TOYON COURT","ANTIOCH","CA",94531,37.9599950910001,-121.770730026,291,"5127 TOYON COURT, ANTIOCH, CA, 94531","Match","Exact","5127 TOYON CT, ANTIOCH, CA, 94531",192100098,"L"
234292,"5127 W KEEFE AVE","MILWAUKEE","WI",53216,43.0825624600001,-87.9776849789999,292,"5127 W KEEFE AVE, MILWAUKEE, WI, 53216","Match","Non_Exact","5127 W KEEFE AVE, MILWAUKEE, WI, 53216",77731797,"L"
234293,"5127 WELLSHIRE PLACE","DUNWOODY","GA",30038,33.9495151790001,-84.323671233,293,"5127 WELLSHIRE PLACE, DUNWOODY, GA, 30038","Match","Non_Exact","5127 WELLSHIRE PL, DUNWOODY, GA, 30338",23356410,"R"
234294,"5128 3RD ST N","ARLINGTON","VA",22203,38.870700024,-77.1193071979999,294,"5128 3RD ST N, ARLINGTON, VA, 22203","Match","Exact","5128 3RD ST N, ARLINGTON, VA, 22203",76468930,"L"
234295,"5128 CHISHOLM VIEW DR","FORT WORTH","TX",76123,32.6127406780001,-97.403676044,295,"5128 CHISHOLM VIEW DR, FORT WORTH, TX, 76123","Match","Exact","5128 CHISHOLM VIEW DR, FORT WORTH, TX, 76123",651950662,"R"
234296,"5128 DEARBORN STREET","PITTSBURGH","PA",15224,40.4655831040001,-79.941597287,296,"5128 DEARBORN STREET, PITTSBURGH, PA, 15224","Match","Exact","5128 DEARBORN ST, PITTSBURGH, PA, 15224",51644242,"R"
234297,"5128 HUISACHE ST","BELLAIRE","TX",77401,29.7002464280001,-95.470570719,297,"5128 HUISACHE ST, BELLAIRE, TX, 77401","Match","Exact","5128 HUISACHE ST, BELLAIRE, TX, 77401",96033627,"R"
234298,"5128 ILCHESTER WOODS WAY","ELLICOTT CITY","MD",21043,39.229222099,-76.778591061,298,"5128 ILCHESTER WOODS WAY, ELLICOTT CITY, MD, 21043","Match","Exact","5128 ILCHESTER WOODS WAY, ELLICOTT CITY, MD, 21043",158933478,"R"
234299,"5128 MAFFIT AVE","ST LOUIS","MO",63113,38.6710698250001,-90.259556689,299,"5128 MAFFIT AVE, ST LOUIS, MO, 63113","Match","Non_Exact","5128 MAFFITT AVE, SAINT LOUIS, MO, 63113",632609106,"L"
234300,"5128 MUDVILLE LN","WALDORF","MD",20602,38.562038536,-76.9108815659999,300,"5128 MUDVILLE LN, WALDORF, MD, 20602","Match","Exact","5128 MUDVILLE LN, WALDORF, MD, 20602",649960500,"R"
234301,"5128 N CREAL ST","TERRE HAUTE","IN",47805,39.528157681,-87.2933331789999,301,"5128 N CREAL ST, TERRE HAUTE, IN, 47805","Match","Exact","5128 N CREAL ST, TERRE HAUTE, IN, 47805",27130926,"R"
234302,"5128 N JEFFERSON ST","SPOKANE","WA",99205,47.7047495830001,-117.428469368,302,"5128 N JEFFERSON ST, SPOKANE, WA, 99205","Match","Non_Exact","5128 N JEFFERSON ST, SPOKANE, WA, 99205",189872914,"R"
234303,"5128 NORTH AFTON PARKWAY","BATON ROUGE","LA",70806,30.4543669670001,-91.137310853,303,"5128 NORTH AFTON PARKWAY, BATON ROUGE, LA, 70806","Match","Exact","5128 N AFTON PKWY, BATON ROUGE, LA, 70806",92189080,"R"
234304,"5128 NORWALDO AV","INDIANAPOLIS","IN",46205,39.846012703,-86.1290530749999,304,"5128 NORWALDO AV, INDIANAPOLIS, IN, 46205","Match","Exact","5128 NORWALDO AVE, INDIANAPOLIS, IN, 46205",107985253,"L"
234305,"5128 NW 64TH TERRACE","LAUDERHILL","FL",33319,26.189089199,-80.236404302,305,"5128 NW 64TH TERRACE, LAUDERHILL, FL, 33319","Match","Exact","5128 NW 64TH TER, LAUDERHILL, FL, 33319",114813618,"R"
234306,"5128 REYNOLDS ST","SAN DIEGO","CA",92114,32.694428047,-117.084491736,306,"5128 REYNOLDS ST, SAN DIEGO, CA, 92114","Match","Exact","5128 REYNOLDS ST, SAN DIEGO, CA, 92114",195663736,"R"
234307,"5128 RICKER HILL ROAD","DAVENPORT","IA",52802,41.509921917,-90.648743672,307,"5128 RICKER HILL ROAD, DAVENPORT, IA, 52802","Match","Exact","5128 RICKER HILL RD, DAVENPORT, IA, 52802",122724081,"R"
234308,"5128 WYNNEWOOD RD APT D","HARRISBURG","PA",17109,40.2884527860001,-76.7996727249999,308,"5128 WYNNEWOOD RD APT D, HARRISBURG, PA, 17109","Match","Exact","5128 WYNNEWOOD RD, HARRISBURG, PA, 17109",70832261,"L"
234309,"51281 COVESIDE DRIVE","GRANGER","IN",46530,41.7480583770001,-86.1573161159999,309,"51281 COVESIDE DRIVE, GRANGER, IN, 46530","Match","Exact","51281 COVESIDE DR, GRANGER, IN, 46530",8098619,"L"
234310,"5129 3RD AVE","EASTMAN","GA",31023,NA,NA,310,"5129 3RD AVE, EASTMAN, GA, 31023","No_Match",NA,NA,NA,NA
234311,"5129 BLUEBELL AVENUE","VALLEY VILLAGE","CA",91607,34.163638608,-118.410510461,311,"5129 BLUEBELL AVENUE, VALLEY VILLAGE, CA, 91607","Match","Exact","5129 BLUEBELL AVE, VALLEY VLG, CA, 91607",141563741,"L"
234312,"5129 COLOMA COURT","INDIANPOLIS","IN",46235,39.8474835440001,-85.956729004,312,"5129 COLOMA COURT, INDIANPOLIS, IN, 46235","Match","Non_Exact","5129 COLOMA CT, INDIANAPOLIS, IN, 46235",640399643,"L"
234313,"5129 CONNECTICUT DR APT 1","SACRAMENTO","CA",95841,38.657908134,-121.335453642,313,"5129 CONNECTICUT DR APT 1, SACRAMENTO, CA, 95841","Match","Exact","5129 CONNECTICUT DR, SACRAMENTO, CA, 95841",133426358,"L"
234314,"5129 CORDOY LANE","SAN JOSE","CA",95124,37.245015816,-121.915162398,314,"5129 CORDOY LANE, SAN JOSE, CA, 95124","Match","Exact","5129 CORDOY LN, SAN JOSE, CA, 95124",122946247,"R"
234315,"5129 CRANMER WAY","CAPITOL HEIGHTS","MD",20743,38.865342727,-76.920163254,315,"5129 CRANMER WAY, CAPITOL HEIGHTS, MD, 20743","Match","Exact","5129 CRANMER WAY, CAPITOL HEIGHTS, MD, 20743",76349188,"L"
234316,"5129 E THE TOLEDO 1","LONG BEACH","CA",90803,NA,NA,316,"5129 E THE TOLEDO 1, LONG BEACH, CA, 90803","No_Match",NA,NA,NA,NA
234317,"5129 EMS RD","HILLSBORO","MO",63050,38.3296492430001,-90.547888751,317,"5129 EMS RD, HILLSBORO, MO, 63050","Match","Exact","5129 EMS RD, HILLSBORO, MO, 63050",607863236,"R"
234318,"5129 KINDERSTON DRIVE","HOLLY SPRINGS","NC",27540,35.6478321070001,-78.804439406,318,"5129 KINDERSTON DRIVE, HOLLY SPRINGS, NC, 27540","Match","Exact","5129 KINDERSTON DR, HOLLY SPRINGS, NC, 27540",72580011,"L"
234319,"5129 QUAIL LANE","COLUMBIA","SC",29205,34.0118159850001,-80.954936601,319,"5129 QUAIL LANE, COLUMBIA, SC, 29205","Match","Non_Exact","5129 QUAIL LN, COLUMBIA, SC, 29206",71825249,"L"
234320,"5129 S HARPER AVE APT 517","CHICAGO","IL",60615,41.801986239,-87.5891268519999,320,"5129 S HARPER AVE APT 517, CHICAGO, IL, 60615","Match","Non_Exact","5129 S HARPER AVE, CHICAGO, IL, 60615",111771906,"L"
234321,"5129 S HARPER AVE","CHICAGO","IL",60615,41.801986239,-87.5891268519999,321,"5129 S HARPER AVE, CHICAGO, IL, 60615","Match","Exact","5129 S HARPER AVE, CHICAGO, IL, 60615",111771906,"L"
234322,"5129 STERLING MANOR DR","TAMPA","FL",33647,28.100701676,-82.397900992,322,"5129 STERLING MANOR DR, TAMPA, FL, 33647","Match","Exact","5129 STERLING MANOR DR, TAMPA, FL, 33647",104574217,"R"
234323,"5129 SUNSCAPE LANE S","FORT WORTH","TX",76123,32.6220893130001,-97.401286485,323,"5129 SUNSCAPE LANE S, FORT WORTH, TX, 76123","Match","Exact","5129 SUNSCAPE LN S, FORT WORTH, TX, 76123",102121767,"L"
234324,"5129 TAYLOR DRIVE","AVE MARIA","FL",34142,26.3329619730001,-81.4371800339999,324,"5129 TAYLOR DRIVE, AVE MARIA, FL, 34142","Match","Exact","5129 TAYLOR DR, AVE MARIA, FL, 34142",619148289,"L"
234325,"5129 TEAL PETALS ST","N LAS VEGAS","NV",89081,36.252568931,-115.119871048,325,"5129 TEAL PETALS ST, N LAS VEGAS, NV, 89081","Match","Non_Exact","5129 TEAL PETALS CT, N LAS VEGAS, NV, 89081",638577396,"R"
234326,"5129 W WOODMILL DRIVE","WILMINGTON","DE",19808,39.7185251860001,-75.671907011,326,"5129 W WOODMILL DRIVE, WILMINGTON, DE, 19808","Match","Exact","5129 W WOODMILL DR, WILMINGTON, DE, 19808",187272525,"R"
234327,"512B SAINT MARY STREET","THIBODAUX","LA",70301,29.7961993120001,-90.827383723,327,"512B SAINT MARY STREET, THIBODAUX, LA, 70301","Match","Exact","512 ST MARY ST, THIBODAUX, LA, 70301",92350923,"R"
234328,"513  BLUEBIRD LANE","DESOTO","TX",75115,32.590288275,-96.847756041,328,"513  BLUEBIRD LANE, DESOTO, TX, 75115","Match","Exact","513 BLUEBIRD LN, DESOTO, TX, 75115",102953872,"L"
234329,"513 18TH AVENUE","LAKE COMO","NJ",7719,40.1713842010001,-74.024523191,329,"513 18TH AVENUE, LAKE COMO, NJ, 7719","Match","Exact","513 18TH AVE, LAKE COMO, NJ, 07719",90465529,"L"
234330,"513 25TH STREET SW","BIRMINGHAM","AL",35211,33.480069843,-86.8761645989999,330,"513 25TH STREET SW, BIRMINGHAM, AL, 35211","Match","Exact","513 25TH ST SW, BIRMINGHAM, AL, 35211",81558684,"L"
234331,"513 2ND STREET SE","WASHINGTON","DC",20003,38.8827889400001,-77.003524553,331,"513 2ND STREET SE, WASHINGTON, DC, 20003","Match","Exact","513 2ND ST SE, WASHINGTON, DC, 20003",76230549,"R"
234332,"513 6TH STREET","WAUNAKEE","WI",53597,43.1867863050001,-89.462110298,332,"513 6TH STREET, WAUNAKEE, WI, 53597","Match","Exact","513 6TH ST, WAUNAKEE, WI, 53597",49465935,"L"
234333,"513 ABELSON DR","CARMI","IL",62821,38.0808117350001,-88.167497156,333,"513 ABELSON DR, CARMI, IL, 62821","Match","Exact","513 ABELSON DR, CARMI, IL, 62821",38217383,"L"
234334,"513 ALTA WOODS BLVD","JACKSON","MS",39204,32.276546151,-90.223181398,334,"513 ALTA WOODS BLVD, JACKSON, MS, 39204","Match","Exact","513 ALTA WOODS BLVD, JACKSON, MS, 39204",65367675,"L"
234335,"513 ALTA WOODS BOULEVARD","JACKSON","MS",39204,32.276546151,-90.223181398,335,"513 ALTA WOODS BOULEVARD, JACKSON, MS, 39204","Match","Exact","513 ALTA WOODS BLVD, JACKSON, MS, 39204",65367675,"L"
234336,"513 ALTER AVE","PIKESVILLE","MD",21208,39.359479763,-76.724776058,336,"513 ALTER AVE, PIKESVILLE, MD, 21208","Match","Exact","513 ALTER AVE, PIKESVILLE, MD, 21208",191468523,"R"
234337,"513 ASTOR LN","FRANKLIN PARK","NJ",8823,40.4313983770001,-74.555455805,337,"513 ASTOR LN, FRANKLIN PARK, NJ, 8823","Match","Exact","513 ASTOR LN, FRANKLIN PARK, NJ, 08823",640699584,"L"
234338,"513 AZALEA LANE","PINEVILLE","LA",71360,31.3588542410001,-92.3394335519999,338,"513 AZALEA LANE, PINEVILLE, LA, 71360","Match","Exact","513 AZALEA LN, PINEVILLE, LA, 71360",11786269,"L"
234339,"513 B ST","CHESAPEAKE","VA",23324,36.8217472690001,-76.275560712,339,"513 B ST, CHESAPEAKE, VA, 23324","Match","Exact","513 B ST, CHESAPEAKE, VA, 23324",121770228,"L"
234340,"513 BAYSHORE DR","FAIRFAX","SC",29827,32.9556866680001,-81.224658839,340,"513 BAYSHORE DR, FAIRFAX, SC, 29827","Match","Exact","513 BAYSHORE DR, FAIRFAX, SC, 29827",19043362,"L"
234341,"513 BEATTY HOLLOW RD","LEXINGTON","VA",24450,37.7998100820001,-79.485933943,341,"513 BEATTY HOLLOW RD, LEXINGTON, VA, 24450","Match","Exact","513 BEATTY HOLLOW, LEXINGTON, VA, 24450",639804853,"R"
234342,"513 BEDFORD KNOLL DRIVE","WINSTON SALEM","NC",27107,36.0747785670001,-80.158678389,342,"513 BEDFORD KNOLL DRIVE, WINSTON SALEM, NC, 27107","Match","Exact","513 BEDFORD KNOLL DR, WINSTON SALEM, NC, 27107",84693900,"L"
234343,"513 BIRCH STREET","BOONTON","NJ",7005,40.9060722740001,-74.4094478169999,343,"513 BIRCH STREET, BOONTON, NJ, 7005","Match","Exact","513 BIRCH ST, BOONTON, NJ, 07005",60445292,"R"
234344,"513 BRECKINRIDGE SQ SE","LEESBURG","VA",20175,39.0926936070001,-77.55182517,344,"513 BRECKINRIDGE SQ SE, LEESBURG, VA, 20175","Match","Exact","513 BRECKINRIDGE SQ SE, LEESBURG, VA, 20175",62340764,"L"
234345,"513 CHELSEA STATION CIRCLE","CHELSEA","AL",35043,33.3335749610001,-86.675549936,345,"513 CHELSEA STATION CIRCLE, CHELSEA, AL, 35043","Match","Exact","513 CHELSEA STATION CIR, CHELSEA, AL, 35043",637919400,"R"
234346,"513 CHEROKEE STREET","ANDERSON","SC",29626,34.4681294210001,-82.669853102,346,"513 CHEROKEE STREET, ANDERSON, SC, 29626","Match","Exact","513 CHEROKEE ST, ANDERSON, SC, 29626",25452251,"L"
234347,"513 CONNIE DR","HEWITT","TX",76643,31.4719525890001,-97.199568789,347,"513 CONNIE DR, HEWITT, TX, 76643","Match","Exact","513 CONNIE DR, HEWITT, TX, 76643",146743166,"L"
234348,"513 COUNTRYSIDE DR","VACAVILLE","CA",95687,38.3263560170001,-121.964998333,348,"513 COUNTRYSIDE DR, VACAVILLE, CA, 95687","Match","Exact","513 COUNTRYSIDE DR, VACAVILLE, CA, 95687",192545661,"L"
234349,"513 COUNTY ROAD 4530","DECATUR","TX",76234,33.147187855,-97.4260041639999,349,"513 COUNTY ROAD 4530, DECATUR, TX, 76234","Match","Exact","513 CO RD 4530, DECATUR, TX, 76234",653221949,"R"
234350,"513 COUNTY ROAD 614","ASBURY","NJ",8802,40.637175072,-75.0154574539999,350,"513 COUNTY ROAD 614, ASBURY, NJ, 8802","Match","Exact","513 CO RD 614, ASBURY, NJ, 08802",642822914,"L"
234351,"513 CURLEW ROAD","DELRAY BEACH","FL",33444,26.429880742,-80.077811744,351,"513 CURLEW ROAD, DELRAY BEACH, FL, 33444","Match","Exact","513 CURLEW RD, DELRAY BEACH, FL, 33444",115291606,"R"
234352,"513 D NORTH NEW RIVER DRIVE","SURF CITY","NC",28445,34.431583075,-77.5376891449999,352,"513 D NORTH NEW RIVER DRIVE, SURF CITY, NC, 28445","Match","Exact","513 N NEW RIVER DR, SURF CITY, NC, 28445",636533590,"L"
234353,"513 DAVID AVENUE","LEWISBURG","TN",37091,35.4463022800001,-86.819980145,353,"513 DAVID AVENUE, LEWISBURG, TN, 37091","Match","Exact","513 DAVID AVE, LEWISBURG, TN, 37091",58979904,"L"
234354,"513 DAVIS DRIVE","DESOTO","TX",75115,32.601823305,-96.866572627,354,"513 DAVIS DRIVE, DESOTO, TX, 75115","Match","Exact","513 DAVIS DR, DESOTO, TX, 75115",102953511,"R"
234355,"513 DORI PLACE","STEWARTSVILLE","NJ",8886,40.6823746650001,-75.1260201379999,355,"513 DORI PLACE, STEWARTSVILLE, NJ, 8886","Match","Exact","513 DORI PL, STEWARTSVILLE, NJ, 08886",98104092,"L"
234356,"513 DOVER RD","LEXINGTON","KY",40505,38.0732623980001,-84.467917524,356,"513 DOVER RD, LEXINGTON, KY, 40505","Match","Exact","513 DOVER RD, LEXINGTON, KY, 40505",31925486,"R"
234357,"513 DUGOUT DRIVE","LANOKA HARBOR","NJ",8734,39.865203233,-74.1795879219999,357,"513 DUGOUT DRIVE, LANOKA HARBOR, NJ, 8734","Match","Exact","513 DUGOUT DR, LANOKA HARBOR, NJ, 08734",203754050,"R"
234358,"513 DUMAINE ST","NEW ORLEANS","LA",70116,29.9584881260001,-90.061508184,358,"513 DUMAINE ST, NEW ORLEANS, LA, 70116","Match","Exact","513 DUMAINE ST, NEW ORLEANS, LA, 70116",191710955,"R"
234359,"513 DUMBARTON DRIVE","SHREVEPORT","LA",71106,32.422436659,-93.734949053,359,"513 DUMBARTON DRIVE, SHREVEPORT, LA, 71106","Match","Exact","513 DUMBARTON DR, SHREVEPORT, LA, 71106",57441614,"L"
234360,"513 E 3RD ST","BARTLESVILLE","OK",74003,36.75019926,-95.971861009,360,"513 E 3RD ST, BARTLESVILLE, OK, 74003","Match","Exact","513 E 3RD ST, BARTLESVILLE, OK, 74003",18719145,"L"
234361,"513 EAST SCOTT STREET","KIRKSVILLE","MO",63501,40.1914746590001,-92.578844497,361,"513 EAST SCOTT STREET, KIRKSVILLE, MO, 63501","Match","Exact","513 E SCOTT ST, KIRKSVILLE, MO, 63501",24762094,"R"
234362,"513 EASTERN BLVD SUITE C","ESSEX","MD",21221,39.3087390160001,-76.4749654679999,362,"513 EASTERN BLVD SUITE C, ESSEX, MD, 21221","Match","Exact","513 EASTERN BLVD, ESSEX, MD, 21221",191489373,"R"
234363,"513 EDPAS ROAD","NEW BRUNSWICK","NJ",8901,40.4822349120001,-74.4757805949999,363,"513 EDPAS ROAD, NEW BRUNSWICK, NJ, 8901","Match","Exact","513 EDPAS RD, NEW BRUNSWICK, NJ, 08901",60335809,"L"
234364,"513 FALLIN WATERS","MARY ESTHER","FL",32569,30.410053116,-86.7152662999999,364,"513 FALLIN WATERS, MARY ESTHER, FL, 32569","Match","Non_Exact","513 FALLIN WATERS DR, MARY ESTHER, FL, 32569",74417243,"L"
234365,"513 FLORENCE FIELDS LANE","NEW CASTLE","DE",19720,39.6358870080001,-75.6189058689999,365,"513 FLORENCE FIELDS LANE, NEW CASTLE, DE, 19720","Match","Exact","513 FLORENCE FIELDS LN, NEW CASTLE, DE, 19720",605774330,"L"
234366,"513 FOREST OAK DRIVE","STOCKBRIDGE","GA",30281,33.620802289,-84.194662068,366,"513 FOREST OAK DRIVE, STOCKBRIDGE, GA, 30281","Match","Exact","513 FOREST OAK DR, STOCKBRIDGE, GA, 30281",23195228,"L"
234367,"513 FOSTER AVENUE","ALAMOSA","CO",81101,NA,NA,367,"513 FOSTER AVENUE, ALAMOSA, CO, 81101","No_Match",NA,NA,NA,NA
234368,"513 FOUNDERS PARK CIRCLE","HOOVER","AL",35226,33.376132227,-86.831411036,368,"513 FOUNDERS PARK CIRCLE, HOOVER, AL, 35226","Match","Exact","513 FOUNDERS PARK CIR, HOOVER, AL, 35226",641616752,"R"
234369,"513 GARFIELD STREET","OCEANSIDE","CA",92054,33.194025212,-117.369010169,369,"513 GARFIELD STREET, OCEANSIDE, CA, 92054","Match","Exact","513 GARFIELD ST, OCEANSIDE, CA, 92054",195280729,"R"
234370,"513 GLENWOOD AVE SE","ATLANTA","GA",30312,33.7429841420001,-84.370943341,370,"513 GLENWOOD AVE SE, ATLANTA, GA, 30312","Match","Exact","513 GLENWOOD AVE SE, ATLANTA, GA, 30312",17357521,"R"
234371,"513 GRANT 3","LEXINGTON","NE",68850,NA,NA,371,"513 GRANT 3, LEXINGTON, NE, 68850","No_Match",NA,NA,NA,NA
234372,"513 HAMPSHIRE STREET","QUINCY","IL",62301,39.9332271750001,-91.4080153799999,372,"513 HAMPSHIRE STREET, QUINCY, IL, 62301","Match","Exact","513 HAMPSHIRE ST, QUINCY, IL, 62301",35088033,"R"
234373,"513 HARVARD ST NW SUITE 1","WASHINGTON","DC",20001,38.9274593260001,-77.0213870109999,373,"513 HARVARD ST NW SUITE 1, WASHINGTON, DC, 20001","Match","Exact","513 HARVARD ST NW, WASHINGTON, DC, 20001",637253886,"R"
234374,"513 HAVANA DR","CHARLESTON","WV",25311,38.3493904650001,-81.597578034,374,"513 HAVANA DR, CHARLESTON, WV, 25311","Match","Exact","513 HAVANA DR, CHARLESTON, WV, 25311",78702251,"L"
234375,"513 HENDERSON","JOSHUA","TX",76058,NA,NA,375,"513 HENDERSON, JOSHUA, TX, 76058","No_Match",NA,NA,NA,NA
234376,"513 HENRY AVENUE","CANTON","MS",39046,32.606028184,-90.047253692,376,"513 HENRY AVENUE, CANTON, MS, 39046","Match","Exact","513 HENRY AVE, CANTON, MS, 39046",152482796,"R"
234377,"513 HIGH STREET","PARIS","KY",40601,38.1997366860001,-84.873162403,377,"513 HIGH STREET, PARIS, KY, 40601","Match","Non_Exact","513 HIGH ST, FRANKFORT, KY, 40601",97047073,"R"
234378,"513 HIGH STREET","PHILADELPHIA","PA",19144,40.0453651560001,-75.171550494,378,"513 HIGH STREET, PHILADELPHIA, PA, 19144","Match","Non_Exact","513 E HIGH ST, PHILADELPHIA, PA, 19144",131395746,"L"
234379,"513 HIGHFIELD DRIVE","SAINT CHARLES","MO",63304,38.7450664190001,-90.62419897,379,"513 HIGHFIELD DRIVE, SAINT CHARLES, MO, 63304","Match","Exact","513 HIGHFIELD DR, SAINT CHARLES, MO, 63304",100017783,"R"
234380,"513 HIGHLAND AVE","VINE GROVE","KY",40175,37.814506706,-85.972244484,380,"513 HIGHLAND AVE, VINE GROVE, KY, 40175","Match","Exact","513 HIGHLAND AVE, VINE GROVE, KY, 40175",34616970,"L"
234381,"513 HIGHLAND DRIVE","BAY ST LOUIS","MS",39520,30.3224441670001,-89.338045702,381,"513 HIGHLAND DRIVE, BAY ST LOUIS, MS, 39520","Match","Exact","513 HIGHLAND DR, BAY SAINT LOUIS, MS, 39520",111130271,"R"
234382,"513 ISLE ROYAL DRIVE","MADISON","WI",53705,43.0731116810001,-89.497919209,382,"513 ISLE ROYAL DRIVE, MADISON, WI, 53705","Match","Exact","513 ISLE ROYAL DR, MADISON, WI, 53705",49466735,"R"
234383,"513 IVANHOE AVENUE","NORTHFIELD","MN",55057,44.466167683,-93.167182247,383,"513 IVANHOE AVENUE, NORTHFIELD, MN, 55057","Match","Exact","513 IVANHOE AVE, NORTHFIELD, MN, 55057",645514751,"L"
234384,"513 JESSICA WAY","COVINGTON","LA",70435,30.5300053020001,-90.157380527,384,"513 JESSICA WAY, COVINGTON, LA, 70435","Match","Exact","513 JESSICA WAY, COVINGTON, LA, 70435",618057543,"R"
234385,"513 LAMBERT RD","BEREA","KY",40403,37.510997908,-84.335811516,385,"513 LAMBERT RD, BEREA, KY, 40403","Match","Exact","513 LAMBERT RD, BEREA, KY, 40403",98158803,"R"
234386,"513 LATHAM DRIVE","NEWPORT NEWS","VA",23601,37.0467407260001,-76.453079123,386,"513 LATHAM DRIVE, NEWPORT NEWS, VA, 23601","Match","Exact","513 LATHAM DR, NEWPORT NEWS, VA, 23601",103754648,"L"
234387,"513 LAURELWOOD COURT","HOWELL","NJ",7731,40.201708981,-74.2653232019999,387,"513 LAURELWOOD COURT, HOWELL, NJ, 7731","Match","Exact","513 LAURELWOOD CT, HOWELL, NJ, 07731",90496494,"L"
234388,"513 LEFEVER","CASCADE","ID",83611,44.5183384370001,-116.048876574,388,"513 LEFEVER, CASCADE, ID, 83611","Match","Non_Exact","513 LEFEVER DR, CASCADE, ID, 83611",141479992,"R"
234389,"513 LOCUST LANE","DANVILLE","VA",24540,36.6076549100001,-79.395736933,389,"513 LOCUST LANE, DANVILLE, VA, 24540","Match","Exact","513 LOCUST LN, DANVILLE, VA, 24540",56589096,"L"
234390,"513 LOCUST ROAD","DECORAH","IA",52101,43.309156208,-91.7972153649999,390,"513 LOCUST ROAD, DECORAH, IA, 52101","Match","Exact","513 LOCUST RD, DECORAH, IA, 52101",27509567,"L"
234391,"513 LONGVIEW LANE","ATLANTA","GA",30349,33.668456538,-84.59032862,391,"513 LONGVIEW LANE, ATLANTA, GA, 30349","Match","Exact","513 LONGVIEW LN, ATLANTA, GA, 30349",627744225,"L"
234392,"513 MAIN STREET","CLEARWATER","NE",68726,42.170717461,-98.18839007,392,"513 MAIN STREET, CLEARWATER, NE, 68726","Match","Exact","513 MAIN ST, CLEARWATER, NE, 68726",161670640,"L"
234393,"513 MARBLE ST","EL CAJON","CA",92020,32.8014449350001,-116.953975549,393,"513 MARBLE ST, EL CAJON, CA, 92020","Match","Exact","513 MARBLE ST, EL CAJON, CA, 92020",195329253,"R"
234394,"513 MEIER DR","JEFFERSON CITY","MO",65109,38.6006717660001,-92.2083285269999,394,"513 MEIER DR, JEFFERSON CITY, MO, 65109","Match","Exact","513 MEIER DR, JEFFERSON CITY, MO, 65109",34409467,"L"
234395,"513 MILLWHEEL ST","CAPITOL HEIGHTS","MD",20743,38.883262238,-76.876529395,395,"513 MILLWHEEL ST, CAPITOL HEIGHTS, MD, 20743","Match","Exact","513 MILLWHEEL ST, CAPITOL HEIGHTS, MD, 20743",639233751,"R"
234396,"513 MORRISON DR","CLARKSVILLE","TN",37042,36.55335359,-87.4127066249999,396,"513 MORRISON DR, CLARKSVILLE, TN, 37042","Match","Exact","513 MORRISON DR, CLARKSVILLE, TN, 37042",31814058,"R"
234397,"513 N 3RD STREET","MABANK","TX",75147,32.3707662420001,-96.099063927,397,"513 N 3RD STREET, MABANK, TX, 75147","Match","Exact","513 N 3RD ST, MABANK, TX, 75147",123754843,"L"
234398,"513 N ARMISTEAD STREET  APT 203","ALEXANDRIA","VA",22312,38.822611663,-77.134159285,398,"513 N ARMISTEAD STREET  APT 203, ALEXANDRIA, VA, 22312","Match","Non_Exact","513 N ARMISTEAD ST, ALEXANDRIA, VA, 22312",638922189,"R"
234399,"513 N FIR TREE DRIVE","MUNCIE","IN",47304,40.1972970400001,-85.488906151,399,"513 N FIR TREE DRIVE, MUNCIE, IN, 47304","Match","Exact","513 N FIR TREE DR, MUNCIE, IN, 47304",30832754,"L"
234400,"513 N LAKEWOOD RUN DRIVE","PONTE VEDRA BEACH","FL",32082,30.1455476990001,-81.379120142,400,"513 N LAKEWOOD RUN DRIVE, PONTE VEDRA BEACH, FL, 32082","Match","Exact","513 N LAKEWOOD RUN DR, PONTE VEDRA BEACH, FL, 32082",92602016,"L"
234401,"513 N LOS EBANOS RD TRLR 168","MISSION","TX",78572,26.2126696510001,-98.3425614289999,401,"513 N LOS EBANOS RD TRLR 168, MISSION, TX, 78572","Match","Non_Exact","513 N LOS EBANOS RD, MISSION, TX, 78572",71498876,"L"
234402,"513 N MADISON AVE STE 102","BAY CITY","MI",48708,NA,NA,402,"513 N MADISON AVE STE 102, BAY CITY, MI, 48708","Tie",NA,NA,NA,NA
234403,"513 N MARGARET STREET","MARKESAN","WI",53946,43.7121691350001,-88.9906329579999,403,"513 N MARGARET STREET, MARKESAN, WI, 53946","Match","Exact","513 N MARGARET ST, MARKESAN, WI, 53946",73449484,"L"
234404,"513 N MARKET UNIT 5","INGLEWOOD","CA",90302,NA,NA,404,"513 N MARKET UNIT 5, INGLEWOOD, CA, 90302","No_Match",NA,NA,NA,NA
234405,"513 N REXFOD","BEVERLY HILLS","CA",90210,NA,NA,405,"513 N REXFOD, BEVERLY HILLS, CA, 90210","No_Match",NA,NA,NA,NA
234406,"513 NE 146TH CT","VANCOUVER","WA",98684,45.6253308390001,-122.523211633,406,"513 NE 146TH CT, VANCOUVER, WA, 98684","Match","Exact","513 NE 146TH CT, VANCOUVER, WA, 98684",158352053,"R"
234407,"513 NE STONE VALLEY DRIVE","ANKENY","IA",50021,41.741138307,-93.591876429,407,"513 NE STONE VALLEY DRIVE, ANKENY, IA, 50021","Match","Exact","513 NE STONE VALLEY DR, ANKENY, IA, 50021",65804509,"R"
234408,"513 NEELY FERRY RD","SIMPSONVILLE","SC",29680,34.732492929,-82.2818067379999,408,"513 NEELY FERRY RD, SIMPSONVILLE, SC, 29680","Match","Non_Exact","513 NEW NEELY FERRY RD, SIMPSONVILLE, SC, 29680",653325448,"L"
234409,"513 NONA ST","GARLAND","TX",75040,32.9086302790001,-96.6236360359999,409,"513 NONA ST, GARLAND, TX, 75040","Match","Exact","513 NONA ST, GARLAND, TX, 75040",102927996,"R"
234410,"513 NORTH HIGH STREET","KENTON","OH",43326,40.65373908,-83.604120496,410,"513 NORTH HIGH STREET, KENTON, OH, 43326","Match","Exact","513 N HIGH ST, KENTON, OH, 43326",36523320,"L"
234411,"513 NW 19TH STREET","MIAMI","FL",33136,25.793478216,-80.203427956,411,"513 NW 19TH STREET, MIAMI, FL, 33136","Match","Non_Exact","513 NW 19TH ST, MIAMI, FL, 33136",116255767,"R"
234412,"513 NW 2ND AVE","HALLANDALE BEACH","FL",33009,NA,NA,412,"513 NW 2ND AVE, HALLANDALE BEACH, FL, 33009","Tie",NA,NA,NA,NA
234413,"513 NW ARLINGTON AVE","LAWTON","OK",73507,34.6102879160001,-98.3955031679999,413,"513 NW ARLINGTON AVE, LAWTON, OK, 73507","Match","Exact","513 NW ARLINGTON AVE, LAWTON, OK, 73507",14995455,"R"
234414,"513 OAK AVE","MENOMONIE","WI",54751,44.90289117,-91.9260154299999,414,"513 OAK AVE, MENOMONIE, WI, 54751","Match","Exact","513 OAK AVE, MENOMONIE, WI, 54751",78996025,"R"
234415,"513 OLIVE STREET","KANSAS CITY","MO",64124,39.107734239,-94.553631598,415,"513 OLIVE STREET, KANSAS CITY, MO, 64124","Match","Exact","513 OLIVE ST, KANSAS CITY, MO, 64124",91449190,"L"
234416,"513 PADDLE CREEK DR","MIDLOTHIAN","VA",23113,37.5176665270001,-77.686104062,416,"513 PADDLE CREEK DR, MIDLOTHIAN, VA, 23113","Match","Exact","513 PADDLE CREEK DR, MIDLOTHIAN, VA, 23113",625378863,"L"
234417,"513 PARKE AVE S","GLYNDON","MN",56547,46.8716160720001,-96.580346268,417,"513 PARKE AVE S, GLYNDON, MN, 56547","Match","Exact","513 PARKE AVE S, GLYNDON, MN, 56547",636255110,"L"
234418,"513 PAWNEE WAY","MADISON","MS",39110,32.439655278,-90.079991745,418,"513 PAWNEE WAY, MADISON, MS, 39110","Match","Exact","513 PAWNEE WAY, MADISON, MS, 39110",152479802,"L"
234419,"513 PETERS DRIVE","WAUKESHA","WI",53188,43.0263063030001,-88.2285962509999,419,"513 PETERS DRIVE, WAUKESHA, WI, 53188","Match","Exact","513 PETERS DR, WAUKESHA, WI, 53188",53857794,"L"
234420,"513 PIKE ROAD","JOHNSTOWN","PA",15909,40.4443971970001,-78.839677453,420,"513 PIKE ROAD, JOHNSTOWN, PA, 15909","Match","Exact","513 PIKE RD, JOHNSTOWN, PA, 15909",50237182,"L"
234421,"513 PINNACLE COVE BLVD 108","ORLANDO","FL",32824,28.372314429,-81.371197103,421,"513 PINNACLE COVE BLVD 108, ORLANDO, FL, 32824","Match","Exact","513 PINNACLE COVE BLVD, ORLANDO, FL, 32824",627352721,"R"
234422,"513 POMONA AVE","ALBANY","CA",94706,37.897844938,-122.291608542,422,"513 POMONA AVE, ALBANY, CA, 94706","Match","Exact","513 POMONA AVE, ALBANY, CA, 94706",124992093,"L"
234423,"513 REYNOLDS AVE","PLATTEVILLE","CO",80651,40.2208336350001,-104.828854106,423,"513 REYNOLDS AVE, PLATTEVILLE, CO, 80651","Match","Exact","513 REYNOLDS AVE, PLATTEVILLE, CO, 80651",633225684,"L"
234424,"513 RIVER ESTATES PKWY","CANTON","GA",30115,34.2437183060001,-84.446699611,424,"513 RIVER ESTATES PKWY, CANTON, GA, 30115","Match","Exact","513 RIVER ESTATES PKWY, CANTON, GA, 30115",628075665,"R"
234425,"513 ROSSITER AVENUE","BALTIMORE","MD",21212,39.3489613080001,-76.608945962,425,"513 ROSSITER AVENUE, BALTIMORE, MD, 21212","Match","Exact","513 ROSSITER AVE, BALTIMORE, MD, 21212",206467204,"R"
234426,"513 S 321ST ST APT 5D","FEDERAL WAY","WA",98003,NA,NA,426,"513 S 321ST ST APT 5D, FEDERAL WAY, WA, 98003","No_Match",NA,NA,NA,NA
234427,"513 S 33RD STREET","WEST DES MOINES","IA",50265,41.5776556540001,-93.748777046,427,"513 S 33RD STREET, WEST DES MOINES, IA, 50265","Match","Exact","513 33RD ST, W DES MOINES, IA, 50265",65775312,"R"
234428,"513 S 9TH ST","NASHVILLE","TN",37206,36.169958089,-86.753915832,428,"513 S 9TH ST, NASHVILLE, TN, 37206","Match","Exact","513 S 9TH ST, NASHVILLE, TN, 37206",606366362,"L"
234429,"513 S FRENCH DR","DUNLAP","IL",61525,40.8533389560001,-89.683014054,429,"513 S FRENCH DR, DUNLAP, IL, 61525","Match","Non_Exact","513 N FRENCH DR, DUNLAP, IL, 61525",8733714,"R"
234430,"513 S TOBIN ST","RENTON","WA",98057,47.483759617,-122.210296846,430,"513 S TOBIN ST, RENTON, WA, 98057","Match","Exact","513 S TOBIN ST, RENTON, WA, 98057",239782264,"R"
234431,"513 SADDLE DRIVE","HELENA","MT",59601,46.5799064,-111.993902735,431,"513 SADDLE DRIVE, HELENA, MT, 59601","Match","Exact","513 SADDLE DR, HELENA, MT, 59601",649046377,"L"
234432,"513 SANDSTONE CIRCLE","DOYLESTOWN","OH",44230,40.9564907330001,-81.6946989899999,432,"513 SANDSTONE CIRCLE, DOYLESTOWN, OH, 44230","Match","Non_Exact","513 SAND STONE CIR, DOYLESTOWN, OH, 44230",613622711,"R"
234433,"513 SE MARION ST SLIP 142","PORTLAND","OR",97202,45.4607237120001,-122.659968582,433,"513 SE MARION ST SLIP 142, PORTLAND, OR, 97202","Match","Non_Exact","513 SE MARION ST, PORTLAND, OR, 97202",635166123,"L"
234434,"513 SEASAGE DRIVE","DELRAY BEACH","FL",33483,26.4532038400001,-80.0629117079999,434,"513 SEASAGE DRIVE, DELRAY BEACH, FL, 33483","Match","Exact","513 SEASAGE DR, DELRAY BEACH, FL, 33483",115298554,"L"
234435,"513 SHERMAN STREET","CONROE","TX",77301,30.312740924,-95.450835317,435,"513 SHERMAN STREET, CONROE, TX, 77301","Match","Exact","513 SHERMAN ST, CONROE, TX, 77301",79276022,"R"
234436,"513 SOUTH MELVILLE STREET","PHILADELPHIA","PA",19143,39.9501423930001,-75.21373338,436,"513 SOUTH MELVILLE STREET, PHILADELPHIA, PA, 19143","Match","Exact","513 S MELVILLE ST, PHILADELPHIA, PA, 19143",131399816,"L"
234437,"513 STRATFORD PL","ROCKY FACE","GA",30740,34.8215016670001,-85.038211073,437,"513 STRATFORD PL, ROCKY FACE, GA, 30740","Match","Exact","513 STRATFORD PL, ROCKY FACE, GA, 30740",57385462,"L"
234438,"513 STRAWBERRY HILL ROAD","CONCORD","MA",1742,42.483799966,-71.387075349,438,"513 STRAWBERRY HILL ROAD, CONCORD, MA, 1742","Match","Exact","513 STRAWBERRY HILL RD, CONCORD, MA, 01742",87121291,"R"
234439,"513 SUMMERTREE LANE","DESOTO","TX",75115,32.5825019220001,-96.843653589,439,"513 SUMMERTREE LANE, DESOTO, TX, 75115","Match","Exact","513 SUMMERTREE LN, DESOTO, TX, 75115",103186378,"L"
234440,"513 SUNSET DRIVE","LOUISVILLE","CO",80027,39.9853507650001,-105.134807118,440,"513 SUNSET DRIVE, LOUISVILLE, CO, 80027","Match","Exact","513 SUNSET DR, LOUISVILLE, CO, 80027",188204262,"L"
234441,"513 THIRD ST","FALL RIVER","MA",2721,41.6953840310001,-71.158168395,441,"513 THIRD ST, FALL RIVER, MA, 2721","Match","Exact","513 3RD ST, FALL RIVER, MA, 02721",46770246,"R"
234442,"513 THORN BERRY LANE","BIRMINGHAM","AL",35242,33.396624665,-86.720536469,442,"513 THORN BERRY LANE, BIRMINGHAM, AL, 35242","Match","Exact","513 THORN BERRY LN, BIRMINGHAM, AL, 35242",82120299,"L"
234443,"513 TOGSTAD GLENN","MADISON","WI",53711,43.0556607030001,-89.452419793,443,"513 TOGSTAD GLENN, MADISON, WI, 53711","Match","Exact","513 TOGSTAD GLENN, MADISON, WI, 53711",49468170,"L"
234444,"513 TOOMBS STREET APT 3","PALMETTO","GA",30268,NA,NA,444,"513 TOOMBS STREET APT 3, PALMETTO, GA, 30268","No_Match",NA,NA,NA,NA
234445,"513 UNIVERSITY AVE","COLFAX","WI",54730,45.001343847,-91.725446796,445,"513 UNIVERSITY AVE, COLFAX, WI, 54730","Match","Exact","513 UNIVERSITY AVE, COLFAX, WI, 54730",78985597,"R"
234446,"513 US HIGHWAY 1 STE 211","NORTH PALM BEACH","FL",33408,NA,NA,446,"513 US HIGHWAY 1 STE 211, NORTH PALM BEACH, FL, 33408","No_Match",NA,NA,NA,NA
234447,"513 US HWY 60 E  P O BOX 56","REPUBLIC","MO",65738,NA,NA,447,"513 US HWY 60 E  P O BOX 56, REPUBLIC, MO, 65738","No_Match",NA,NA,NA,NA
234448,"513 VAN BUREN ST APT 1","BROOKLYN","NY",11221,40.691792639,-73.9282359109999,448,"513 VAN BUREN ST APT 1, BROOKLYN, NY, 11221","Match","Exact","513 VAN BUREN ST, BROOKLYN, NY, 11221",59082611,"L"
234449,"513 VAN BUREN ST APT 1A","BROOKLYN","NY",11221,40.691792639,-73.9282359109999,449,"513 VAN BUREN ST APT 1A, BROOKLYN, NY, 11221","Match","Exact","513 VAN BUREN ST, BROOKLYN, NY, 11221",59082611,"L"
234450,"513 VIZCAY WAY","DAVENPORT","FL",33834,28.2150556570001,-81.63320192,450,"513 VIZCAY WAY, DAVENPORT, FL, 33834","Match","Non_Exact","513 VIZCAY WAY, DAVENPORT, FL, 33837",614468679,"R"
234451,"513 VIZCAY WAY","DAVENPORT","FL",33837,28.2150556570001,-81.63320192,451,"513 VIZCAY WAY, DAVENPORT, FL, 33837","Match","Exact","513 VIZCAY WAY, DAVENPORT, FL, 33837",614468679,"R"
234452,"513 W 4TH ST","DELL RAPIDS","SD",57022,43.823520461,-96.72636221,452,"513 W 4TH ST, DELL RAPIDS, SD, 57022","Match","Exact","513 W 4TH ST, DELL RAPIDS, SD, 57022",35011693,"L"
234453,"513 W AVE DE LOS LOBOS MARINOS","SAN CLEMENTE","CA",92672,33.411541546,-117.609248595,453,"513 W AVE DE LOS LOBOS MARINOS, SAN CLEMENTE, CA, 92672","Match","Exact","513 W AVE DE LOS LOBOS MARINOS, SAN CLEMENTE, CA, 92672",144076230,"L"
234454,"513 W AVE J13","LANCASTER","CA",93534,NA,NA,454,"513 W AVE J13, LANCASTER, CA, 93534","No_Match",NA,NA,NA,NA
234455,"513 W COLONIAL DR UNIT 5","ORLANDO","FL",32804,28.552972186,-81.38696644,455,"513 W COLONIAL DR UNIT 5, ORLANDO, FL, 32804","Match","Non_Exact","513 W COLONIAL DR, ORLANDO, FL, 32804",94280732,"R"
234456,"513 W COLTON AVE","NORTH LAS VEGAS","NV",89032,36.2214054250001,-115.148122649,456,"513 W COLTON AVE, NORTH LAS VEGAS, NV, 89032","Match","Non_Exact","513 W COLTON AVE, N LAS VEGAS, NV, 89032",612987503,"L"
234457,"513 W FRONT ST","BURLINGTON","NC",27215,36.097455342,-79.4413876849999,457,"513 W FRONT ST, BURLINGTON, NC, 27215","Match","Exact","513 W FRONT ST, BURLINGTON, NC, 27215",71662756,"R"
234458,"513 W HENSLEY STREET","BRANSON","MO",65616,36.637508332,-93.2216535319999,458,"513 W HENSLEY STREET, BRANSON, MO, 65616","Match","Exact","513 W HENSLEY ST, BRANSON, MO, 65616",20168818,"R"
234459,"513 WABASH AVE APT 2A","TERRE HAUTE","IN",47807,39.4664806640001,-87.411058108,459,"513 WABASH AVE APT 2A, TERRE HAUTE, IN, 47807","Match","Exact","513 WABASH AVE, TERRE HAUTE, IN, 47807",27114192,"R"
234460,"513 WATER VIEW LANE","WEATHERFORD","TX",76085,NA,NA,460,"513 WATER VIEW LANE, WEATHERFORD, TX, 76085","No_Match",NA,NA,NA,NA
234461,"513 WATERSIDE RIDGE LANE","LA MARQUE","TX",77568,NA,NA,461,"513 WATERSIDE RIDGE LANE, LA MARQUE, TX, 77568","No_Match",NA,NA,NA,NA
234462,"513 WEATHERFORD DRIVE","BIRMINGHAM","AL",35242,NA,NA,462,"513 WEATHERFORD DRIVE, BIRMINGHAM, AL, 35242","No_Match",NA,NA,NA,NA
234463,"513 WEST 24TH ST","CHEYENNE","WY",82001,41.1384807960001,-104.823458469,463,"513 WEST 24TH ST, CHEYENNE, WY, 82001","Match","Exact","513 W 24TH ST, CHEYENNE, WY, 82001",160149567,"L"
234464,"513 WEST BUCKINGHAM DRIVE","MARION","IN",46952,40.571942651,-85.664019437,464,"513 WEST BUCKINGHAM DRIVE, MARION, IN, 46952","Match","Exact","513 W BUCKINGHAM DR, MARION, IN, 46952",95007966,"L"
234465,"513 WEST COLONIAL DRIVE UNIT 5","ORLANDO","FL",32804,28.552972186,-81.386947553,465,"513 WEST COLONIAL DRIVE UNIT 5, ORLANDO, FL, 32804","Match","Exact","513 W COLONIAL DR, ORLANDO, FL, 32804",94280732,"R"
234466,"513 WEST WALNUT","OGDEN","IA",50212,42.039039739,-94.0333887479999,466,"513 WEST WALNUT, OGDEN, IA, 50212","Match","Non_Exact","513 W WALNUT ST, OGDEN, IA, 50212",64944616,"L"
234467,"513 WEST WELDON STREET","VAIL","AZ",85641,NA,NA,467,"513 WEST WELDON STREET, VAIL, AZ, 85641","No_Match",NA,NA,NA,NA
234468,"513 WESTERN AVE","AUGUSTA","ME",4330,44.3204395130001,-69.826006757,468,"513 WESTERN AVE, AUGUSTA, ME, 4330","Match","Exact","513 WESTERN AVE, AUGUSTA, ME, 04330",75457142,"R"
234469,"513 WESTERN AVE","LYNN","MA",1904,42.468992869,-70.957844758,469,"513 WESTERN AVE, LYNN, MA, 1904","Match","Exact","513 WESTERN AVE, LYNN, MA, 01904",642520799,"R"
234470,"513 WESTSIDE TERRACE","DAVIDSON","NC",28036,35.500563571,-80.8546855929999,470,"513 WESTSIDE TERRACE, DAVIDSON, NC, 28036","Match","Non_Exact","513 WESTSIDE TRL, DAVIDSON, NC, 28036",70472972,"R"
234471,"513 WOODLAWN DR","PELLA","IA",50219,41.4162651550001,-92.912346594,471,"513 WOODLAWN DR, PELLA, IA, 50219","Match","Exact","513 WOODLAWN DR, PELLA, IA, 50219",89488345,"L"
234472,"513-515 WEST 157TH ST STE 4A","NEW YORK","NY",10032,40.8330894310001,-73.9425485149999,472,"513-515 WEST 157TH ST STE 4A, NEW YORK, NY, 10032","Match","Exact","513 W 157TH ST, NEW YORK, NY, 10032",59655743,"R"
234473,"5130 BAND HALL HILL ROAD","WESTMINSTER","MD",21158,39.7163219510001,-76.956106674,473,"5130 BAND HALL HILL ROAD, WESTMINSTER, MD, 21158","Match","Exact","5130 BAND HALL HILL RD, WESTMINSTER, MD, 21158",636221675,"L"
234474,"5130 CHANCELLOR ST","PHILADELPHIA","PA",19139,39.956201392,-75.2243203,474,"5130 CHANCELLOR ST, PHILADELPHIA, PA, 19139","Match","Exact","5130 CHANCELLOR ST, PHILADELPHIA, PA, 19139",131399224,"L"
234475,"5130 CHELWYN CT","ORLANDO","FL",32737,28.350874408,-81.456050628,475,"5130 CHELWYN CT, ORLANDO, FL, 32737","Match","Non_Exact","5130 CHELWYN CT, ORLANDO, FL, 32837",94368471,"L"
234476,"5130 CLARION HAMMOCK DR","ORLANDO","FL",32808,28.604158168,-81.449039548,476,"5130 CLARION HAMMOCK DR, ORLANDO, FL, 32808","Match","Exact","5130 CLARION HAMMOCK DR, ORLANDO, FL, 32808",94390840,"L"
234477,"5130 DE LINA ROAD","CORNERSVILLE","TN",37047,35.2578088600001,-86.7628053559999,477,"5130 DE LINA ROAD, CORNERSVILLE, TN, 37047","Match","Non_Exact","5130 DELINA RD, CORNERSVILLE, TN, 37047",58973114,"R"
234478,"5130 DOOR DR","MADISON","WI",53705,43.0690833680001,-89.466668383,478,"5130 DOOR DR, MADISON, WI, 53705","Match","Exact","5130 DOOR DR, MADISON, WI, 53705",49467218,"R"
234479,"5130 DREDGER WAY","ORANGEVALE","CA",95662,38.658145313,-121.201944723,479,"5130 DREDGER WAY, ORANGEVALE, CA, 95662","Match","Exact","5130 DREDGER WAY, ORANGEVALE, CA, 95662",133357225,"R"
234480,"5130 LINCOLN AVENIUE","EVANSVILLE","IN",47715,37.9694929890001,-87.488683671,480,"5130 LINCOLN AVENIUE, EVANSVILLE, IN, 47715","Match","Non_Exact","5130 LINCOLN AVE, EVANSVILLE, IN, 47715",39787318,"L"
234481,"5130 MANDALAY SPRINGS DR UNIT 101","LAS VEGAS","NV",89120,36.096282439,-115.109439057,481,"5130 MANDALAY SPRINGS DR UNIT 101, LAS VEGAS, NV, 89120","Match","Exact","5130 MANDALAY SPRINGS DR, LAS VEGAS, NV, 89120",201911814,"L"
234482,"5130 S FORT APACHE RD 215-266","LAS VEGAS","NV",89148,36.0949820750001,-115.297313731,482,"5130 S FORT APACHE RD 215-266, LAS VEGAS, NV, 89148","Match","Non_Exact","5130 S FORT APACHE RD, LAS VEGAS, NV, 89148",201992576,"R"
234483,"5130 S PECOS RD STE 2B-7","LAS VEGAS","NV",89120,36.096400257,-115.101014349,483,"5130 S PECOS RD STE 2B-7, LAS VEGAS, NV, 89120","Match","Non_Exact","5130 S PECOS RD, LAS VEGAS, NV, 89120",201872440,"L"
234484,"5130 S SPENCER AVE","TUCSON","AZ",85757,32.1582126270001,-111.088872406,484,"5130 S SPENCER AVE, TUCSON, AZ, 85757","Match","Exact","5130 S SPENCER AVE, TUCSON, AZ, 85757",641015751,"R"
234485,"5130 SIDNEY RD","CINCINNATI","OH",45238,39.1235983660001,-84.6078568889999,485,"5130 SIDNEY RD, CINCINNATI, OH, 45238","Match","Exact","5130 SIDNEY RD, CINCINNATI, OH, 45238",103917418,"R"
234486,"5130 SUNNYVALE DRIVE","JACKSON","MS",39211,32.3672905560001,-90.12420374,486,"5130 SUNNYVALE DRIVE, JACKSON, MS, 39211","Match","Exact","5130 SUNNYVALE DR, JACKSON, MS, 39211",65361631,"R"
234487,"5130 W 101ST CIRCLE","WESTMINSTER","CO",80031,39.8800311750001,-105.052019491,487,"5130 W 101ST CIRCLE, WESTMINSTER, CO, 80031","Match","Exact","5130 W 101ST CIR, WESTMINSTER, CO, 80031",177292882,"R"
234488,"5131 BUNDY RD APT Y10","NEW ORLEANS","LA",70127,30.025244145,-89.9800603589999,488,"5131 BUNDY RD APT Y10, NEW ORLEANS, LA, 70127","Match","Exact","5131 BUNDY RD, NEW ORLEANS, LA, 70127",191736924,"L"
234489,"5131 CLOVERLAND WAY","WILMINGTON","NC",28412,34.157009171,-77.899298758,489,"5131 CLOVERLAND WAY, WILMINGTON, NC, 28412","Match","Exact","5131 CLOVERLAND WAY, WILMINGTON, NC, 28412",633887031,"L"
234490,"5131 COUNTY ROAD 2047","ODEM","TX",78370,27.948604469,-97.603470214,490,"5131 COUNTY ROAD 2047, ODEM, TX, 78370","Match","Exact","5131 CO RD 2047, ODEM, TX, 78370",635373227,"L"
234491,"5131 GOODMAN LANE","OVERLAND PARK","KS",66062,39.034809002,-94.681156065,491,"5131 GOODMAN LANE, OVERLAND PARK, KS, 66062","Match","Non_Exact","5131 GOODMAN LN, OVERLAND PARK, KS, 66202",91272949,"L"
234492,"5131 HIGH BANK DRIVE","CORPUS CHRISTI","TX",78413,27.6664924680001,-97.4072657139999,492,"5131 HIGH BANK DRIVE, CORPUS CHRISTI, TX, 78413","Match","Exact","5131 HIGH BANK DR, CORPUS CHRISTI, TX, 78413",178547279,"R"
234493,"5131 NORTHWEST PARKWAY","HILLIARD","OH",43026,NA,NA,493,"5131 NORTHWEST PARKWAY, HILLIARD, OH, 43026","No_Match",NA,NA,NA,NA
234494,"5131 PEINE LAKES DRIVE","WENTZVILLE","MO",63385,38.852578802,-90.871886463,494,"5131 PEINE LAKES DRIVE, WENTZVILLE, MO, 63385","Match","Exact","5131 PEINE LAKES DR, WENTZVILLE, MO, 63385",100097153,"L"
234495,"5131 ROYSTON LANE","MEMPHIS","TN",38125,35.008127684,-89.77717451,495,"5131 ROYSTON LANE, MEMPHIS, TN, 38125","Match","Exact","5131 ROYSTON LN, MEMPHIS, TN, 38125",618714695,"R"
234496,"5131 S RUGGLES STREET","SEATTLE","WA",98178,47.508787339,-122.269005535,496,"5131 S RUGGLES STREET, SEATTLE, WA, 98178","Match","Exact","5131 S RUGGLES ST, SEATTLE, WA, 98178",652690669,"R"
234497,"5131 STAGECOACH WAY","GRAND PRAIRIE","TX",75052,32.6489177720001,-97.008304446,497,"5131 STAGECOACH WAY, GRAND PRAIRIE, TX, 75052","Match","Exact","5131 STAGECOACH WAY, GRAND PRAIRIE, TX, 75052",629561494,"R"
234498,"5131 STONE MOUNTAIN ROAD NW","ALBUQUERQUE","NM",87114,35.211317928,-106.68624229,498,"5131 STONE MOUNTAIN ROAD NW, ALBUQUERQUE, NM, 87114","Match","Exact","5131 STONE MOUNTAIN RD NW, ALBUQUERQUE, NM, 87114",206796798,"L"
234499,"51314 SKY ACRES CIRCLE","OAKHURST","CA",93644,37.3759949440001,-119.610425078,499,"51314 SKY ACRES CIRCLE, OAKHURST, CA, 93644","Match","Exact","51314 SKY ACRES CIR, OAKHURST, CA, 93644",102326664,"L"
234500,"5132 CITY ST UNIT 316","ORLANDO","FL",32839,28.492744933,-81.41480532,500,"5132 CITY ST UNIT 316, ORLANDO, FL, 32839","Match","Exact","5132 CITY ST, ORLANDO, FL, 32839",94398302,"R"
