"ID","Address","City","State","Zip","lat","long","id","input_address","match_indicator","match_type","matched_address","tiger_line_id","tiger_side"
176001,"3315 N 52ND ST","MILWAUKEE","WI",53216,43.079509644,-87.978460582,1,"3315 N 52ND ST, MILWAUKEE, WI, 53216","Match","Exact","3315 N 52ND ST, MILWAUKEE, WI, 53216",77731809,"L"
176002,"3315 N RUSSET STREET","PORTLAND","OR",97217,45.577830256,-122.700961897,2,"3315 N RUSSET STREET, PORTLAND, OR, 97217","Match","Exact","3315 N RUSSET ST, PORTLAND, OR, 97217",157495313,"R"
176003,"3315 NE 46TH AVE","PORTLAND","OR",97213,45.547141557,-122.615726759,3,"3315 NE 46TH AVE, PORTLAND, OR, 97213","Match","Exact","3315 NE 46TH AVE, PORTLAND, OR, 97213",157511172,"L"
176004,"3315 NEW COACH LANE","BOWIE","MD",20716,38.9358608140001,-76.745304775,4,"3315 NEW COACH LANE, BOWIE, MD, 20716","Match","Exact","3315 NEW COACH LN, BOWIE, MD, 20716",76328186,"R"
176005,"3315 NW 14TH STREET","CAOE CORAL","FL",33993,26.6776730870001,-82.052244119,5,"3315 NW 14TH STREET, CAOE CORAL, FL, 33993","Match","Non_Exact","3315 NW 14TH ST, CAPE CORAL, FL, 33993",117997751,"R"
176006,"3315 NW 47TH AVE","COCONUT CREEK","FL",33063,26.2674334760001,-80.188881913,6,"3315 NW 47TH AVE, COCONUT CREEK, FL, 33063","Match","Exact","3315 NW 47TH AVE, COCONUT CREEK, FL, 33063",114750909,"R"
176007,"3315 OCEAN FRONT WALK","SAN DIEGO","CA",92109,32.774363276,-117.25305518,7,"3315 OCEAN FRONT WALK, SAN DIEGO, CA, 92109","Match","Exact","3315 OCEAN FRONT WALK, SAN DIEGO, CA, 92109",195299906,"R"
176008,"3315 PLEASANT HILL DRIVE","COTTONDALE","AL",35453,33.185098162,-87.468571926,8,"3315 PLEASANT HILL DRIVE, COTTONDALE, AL, 35453","Match","Exact","3315 PLEASANT HILL DR, COTTONDALE, AL, 35453",82218584,"L"
176009,"3315 PURVIS ROAD","QUANTICO","VA",22134,38.536395138,-77.3380618529999,9,"3315 PURVIS ROAD, QUANTICO, VA, 22134","Match","Exact","3315 PURVIS RD, QUANTICO, VA, 22134",207164548,"L"
176010,"3315 RIVERWOOD COURT","PERRSYBURG","OH",43551,41.538171542,-83.690111627,10,"3315 RIVERWOOD COURT, PERRSYBURG, OH, 43551","Match","Non_Exact","3315 RIVERWOOD CT, PERRYSBURG, OH, 43551",38746508,"L"
176011,"3315 ROCKEFELLER AVE UNIT 3","EVERETT","WA",98201,47.973683427,-122.205590972,11,"3315 ROCKEFELLER AVE UNIT 3, EVERETT, WA, 98201","Match","Exact","3315 ROCKEFELLER AVE, EVERETT, WA, 98201",187746210,"L"
176012,"3315 ROSWELL RD NE 5067","ATLANTA","GA",30305,33.844926408,-84.38023824,12,"3315 ROSWELL RD NE 5067, ATLANTA, GA, 30305","Match","Non_Exact","3315 ROSWELL RD, ATLANTA, GA, 30305",17334761,"R"
176013,"3315 ROSWELL RD NE 5067","FULTON","GA",30305,NA,NA,13,"3315 ROSWELL RD NE 5067, FULTON, GA, 30305","No_Match",NA,NA,NA,NA
176014,"3315 ROSWELL ROAD NE 5067","FAIRBURN","GA",30305,NA,NA,14,"3315 ROSWELL ROAD NE 5067, FAIRBURN, GA, 30305","No_Match",NA,NA,NA,NA
176015,"3315 ROYAL FERN WAY","WINDSOR MILL","MD",21244,39.3509902050001,-76.782643574,15,"3315 ROYAL FERN WAY, WINDSOR MILL, MD, 21244","Match","Exact","3315 ROYAL FERN WAY, WINDSOR MILL, MD, 21244",625004467,"L"
176016,"3315 S 17TH ST","LINCOLN","NE",68502,40.7794315680001,-96.696836301,16,"3315 S 17TH ST, LINCOLN, NE, 68502","Match","Exact","3315 S 17TH ST, LINCOLN, NE, 68502",28255207,"R"
176017,"3315 S 19TH STREET","TACOMA","WA",98405,47.2427732140001,-122.479602542,17,"3315 S 19TH STREET, TACOMA, WA, 98405","Match","Exact","3315 S 19TH ST, TACOMA, WA, 98405",184620210,"R"
176018,"3315 S COBB DRIVE UNIT 813606","SMYRNA","GA",30081,NA,NA,18,"3315 S COBB DRIVE UNIT 813606, SMYRNA, GA, 30081","No_Match",NA,NA,NA,NA
176019,"3315 S GREENPARK","HOUSTON","TX",77082,29.7267974310001,-95.6110811629999,19,"3315 S GREENPARK, HOUSTON, TX, 77082","Match","Non_Exact","3315 S GREENPARK DR, HOUSTON, TX, 77082",96021566,"L"
176020,"3315 S PENNSYVANIA","LANSING","MI",48910,NA,NA,20,"3315 S PENNSYVANIA, LANSING, MI, 48910","No_Match",NA,NA,NA,NA
176021,"3315 S PRAIRIE","CHICAGO","IL",60616,41.834211795,-87.620603085,21,"3315 S PRAIRIE, CHICAGO, IL, 60616","Match","Non_Exact","3315 S PRAIRIE AVE, CHICAGO, IL, 60616",111770167,"L"
176022,"3315 SEATON DR","DALLAS","TX",75216,32.7090441220001,-96.7622955479999,22,"3315 SEATON DR, DALLAS, TX, 75216","Match","Exact","3315 SEATON DR, DALLAS, TX, 75216",102956672,"L"
176023,"3315 SOARING BIRD CIRCLE","COLORADO SPRINGS","CO",80920,38.949486533,-104.769243772,23,"3315 SOARING BIRD CIRCLE, COLORADO SPRINGS, CO, 80920","Match","Exact","3315 SOARING BIRD CIR, CO SPGS, CO, 80920",105530519,"R"
176024,"3315 SOUTH RAILROAD ST UNIT 8","PHENIX CITY","AL",36867,32.4928212570001,-85.034119942,24,"3315 SOUTH RAILROAD ST UNIT 8, PHENIX CITY, AL, 36867","Match","Exact","3315 S RAILROAD ST, PHENIX CITY, AL, 36867",69267544,"L"
176025,"3315 SPANISH WELLS DR SUITE C","DELRAY BEACH","FL",33445,26.4381659090001,-80.110113536,25,"3315 SPANISH WELLS DR SUITE C, DELRAY BEACH, FL, 33445","Match","Exact","3315 SPANISH WELLS DR, DELRAY BEACH, FL, 33445",115576156,"R"
176026,"3315 STATE ROUTE 14","ROOTSTOWN","OH",44272,41.0782171860001,-81.1195312259999,26,"3315 STATE ROUTE 14, ROOTSTOWN, OH, 44272","Match","Exact","3315 STATE RTE 14, ROOTSTOWN, OH, 44272",635756943,"L"
176027,"3315 SW REGATTA DRIVE","LEES SUMMIT","MO",64082,38.8591819690001,-94.3954370009999,27,"3315 SW REGATTA DRIVE, LEES SUMMIT, MO, 64082","Match","Exact","3315 SW REGATTA DR, LEES SUMMIT, MO, 64082",91520086,"L"
176028,"3315 THREE PINES DRIVE","KINGWOOD","TX",77339,30.059762365,-95.221929049,28,"3315 THREE PINES DRIVE, KINGWOOD, TX, 77339","Match","Exact","3315 THREE PINES DR, KINGWOOD, TX, 77339",96117857,"L"
176029,"3315 TIMBERWOOD ROAD","LAKELAND","FL",33810,28.0848386970001,-82.0232305439999,29,"3315 TIMBERWOOD ROAD, LAKELAND, FL, 33810","Match","Exact","3315 TIMBERWOOD RD, LAKELAND, FL, 33810",639798679,"R"
176030,"3315 TREEHOUSE DR","PERRIS","CA",92571,33.83129911,-117.184051486,30,"3315 TREEHOUSE DR, PERRIS, CA, 92571","Match","Exact","3315 TREEHOUSE DR, PERRIS, CA, 92571",625396518,"L"
176031,"3315 TURNER CHURCH ROAD","MCDONOUGH","GA",30252,33.479185794,-84.0449753839999,31,"3315 TURNER CHURCH ROAD, MCDONOUGH, GA, 30252","Match","Exact","3315 TURNER CHURCH RD, MCDONOUGH, GA, 30252",23192070,"R"
176032,"3315 W DIVERSEY","CHICAGO","IL",60647,41.9319894710001,-87.7104965079999,32,"3315 W DIVERSEY, CHICAGO, IL, 60647","Match","Non_Exact","3315 W DIVERSEY AVE, CHICAGO, IL, 60647",618052883,"L"
176033,"3315 W DOUGLAS 2ND FLOOR","CHICAGO","IL",60623,NA,NA,33,"3315 W DOUGLAS 2ND FLOOR, CHICAGO, IL, 60623","No_Match",NA,NA,NA,NA
176034,"3315 WASHINGTON STREET","COMMERCE","TX",75428,NA,NA,34,"3315 WASHINGTON STREET, COMMERCE, TX, 75428","No_Match",NA,NA,NA,NA
176035,"3315 WOODLAND AVE","DES MOINES","IA",50312,41.5881202,-93.662299554,35,"3315 WOODLAND AVE, DES MOINES, IA, 50312","Match","Exact","3315 WOODLAND AVE, DES MOINES, IA, 50312",65780758,"R"
176036,"3316 11TH STREET","LEWISTON","ID",83501,46.382781509,-116.975597315,36,"3316 11TH STREET, LEWISTON, ID, 83501","Match","Exact","3316 11TH ST, LEWISTON, ID, 83501",173139673,"L"
176037,"3316 29TH ST","LUBBOCK","TX",79410,33.567832696,-101.886066584,37,"3316 29TH ST, LUBBOCK, TX, 79410","Match","Exact","3316 29TH ST, LUBBOCK, TX, 79410",185253264,"R"
176038,"3316 3RD ST N - LOWER LEVEL","SAINT CLOUD","MN",56303,45.55861227,-94.198449801,38,"3316 3RD ST N - LOWER LEVEL, SAINT CLOUD, MN, 56303","Match","Exact","3316 3RD ST N, SAINT CLOUD, MN, 56303",611984934,"L"
176039,"3316 ASHLEY CIR","JACKSON","MS",39213,NA,NA,39,"3316 ASHLEY CIR, JACKSON, MS, 39213","No_Match",NA,NA,NA,NA
176040,"3316 AVENUE C","FORT WORTH","TX",76105,32.733400692,-97.277527472,40,"3316 AVENUE C, FORT WORTH, TX, 76105","Match","Exact","3316 AVE C, FORT WORTH, TX, 76105",638000287,"R"
176041,"3316 AVENUE N","FORT WORTH","TX",76105,32.7235108030001,-97.277751713,41,"3316 AVENUE N, FORT WORTH, TX, 76105","Match","Exact","3316 AVENUE N, FORT WORTH, TX, 76105",101896847,"R"
176042,"3316 BRIDGE WALK DR","LAWRENCEVILLE","GA",30044,33.9016366770001,-84.074519058,42,"3316 BRIDGE WALK DR, LAWRENCEVILLE, GA, 30044","Match","Exact","3316 BRIDGE WALK DR, LAWRENCEVILLE, GA, 30044",624835100,"L"
176043,"3316 CLAY PL NE","WASHINGTON","DC",20019,38.8941685730001,-76.959251595,43,"3316 CLAY PL NE, WASHINGTON, DC, 20019","Match","Exact","3316 CLAY PL NE, WASHINGTON, DC, 20019",76231520,"L"
176044,"3316 DEVONSHIRE WAY","PALM BEACH GARDENS","FL",33418,NA,NA,44,"3316 DEVONSHIRE WAY, PALM BEACH GARDENS, FL, 33418","No_Match",NA,NA,NA,NA
176045,"3316 LODGEPOLE CIRC","COLLEGE STATION","TX",77845,30.586409056,-96.291470243,45,"3316 LODGEPOLE CIRC, COLLEGE STATION, TX, 77845","Match","Exact","3316 LODGEPOLE CIR, COLLEGE STATION, TX, 77845",21826795,"R"
176046,"3316 MILLBROOK CIRCLE","STILLWATER","MN",55082,45.0760159290001,-92.8552669169999,46,"3316 MILLBROOK CIRCLE, STILLWATER, MN, 55082","Match","Exact","3316 MILLBROOK CIR, STILLWATER, MN, 55082",646637716,"L"
176047,"3316 NE CLACKAMAS ST","PORTLAND","OR",97232,45.533093132,-122.630372701,47,"3316 NE CLACKAMAS ST, PORTLAND, OR, 97232","Match","Exact","3316 NE CLACKAMAS ST, PORTLAND, OR, 97232",157507328,"R"
176048,"3316 NORMANDY COURT","MARRERO","LA",70072,29.8568683180001,-90.11574861,48,"3316 NORMANDY COURT, MARRERO, LA, 70072","Match","Exact","3316 NORMANDY CT, MARRERO, LA, 70072",93506106,"L"
176049,"3316 NW 180TH ST","MIAMI GARDENS","FL",33056,25.9376870080001,-80.255690321,49,"3316 NW 180TH ST, MIAMI GARDENS, FL, 33056","Match","Exact","3316 NW 180TH ST, MIAMI GARDENS, FL, 33056",116027746,"L"
176050,"3316 PLEASANT PLAINS ROAD","MATTHEWS","NC",28105,35.0844180440001,-80.707115973,50,"3316 PLEASANT PLAINS ROAD, MATTHEWS, NC, 28105","Match","Exact","3316 PLEASANT PLAINS RD, MATTHEWS, NC, 28105",70569863,"R"
176051,"3316 PREMIER LANE","COLUMBIA","MO",65202,38.996672453,-92.2883621729999,51,"3316 PREMIER LANE, COLUMBIA, MO, 65202","Match","Exact","3316 PREMIER LN, COLUMBIA, MO, 65202",23493432,"R"
176052,"3316 REYNOLDS AVE","LOS ANGELES","CA",90032,34.0832147630001,-118.197102379,52,"3316 REYNOLDS AVE, LOS ANGELES, CA, 90032","Match","Exact","3316 REYNOLDS AVE, LOS ANGELES, CA, 90032",141622167,"R"
176053,"3316 ROUTE M","JEFFERSON CITY","MO",65101,38.4852861910001,-92.14644075,53,"3316 ROUTE M, JEFFERSON CITY, MO, 65101","Match","Exact","3316 RTE M, JEFFERSON CITY, MO, 65101",627733384,"R"
176054,"3316 SOUTH COBB DR 380","SMYRNA","GA",30080,33.872060784,-84.529279319,54,"3316 SOUTH COBB DR 380, SMYRNA, GA, 30080","Match","Exact","3316 S COBB DR, SMYRNA, GA, 30080",17268380,"L"
176055,"3316 SPRIGGS REQUEST WAY","MITCHELLVILLE","MD",20721,38.9381043170001,-76.787576503,55,"3316 SPRIGGS REQUEST WAY, MITCHELLVILLE, MD, 20721","Match","Exact","3316 SPRIGGS REQUEST WAY, MITCHELLVILLE, MD, 20721",76398328,"L"
176056,"3316 STORMELLO LN","MURFREESBORO","TN",37128,35.822354998,-86.459118857,56,"3316 STORMELLO LN, MURFREESBORO, TN, 37128","Match","Exact","3316 STORMELLO LN, MURFREESBORO, TN, 37128",645145751,"R"
176057,"3316 TREXLER BLVD","ALLENTOWN","PA",18104,40.602543831,-75.533002492,57,"3316 TREXLER BLVD, ALLENTOWN, PA, 18104","Match","Exact","3316 TREXLER BLVD, ALLENTOWN, PA, 18104",639173702,"L"
176058,"3316 UNION ROAD","GASTONIA","NC",28056,NA,NA,58,"3316 UNION ROAD, GASTONIA, NC, 28056","No_Match",NA,NA,NA,NA
176059,"3316 VALLEY FOREST DRIVE","UPPER MARLBORO","MD",20772,38.8434450940001,-76.8346856269999,59,"3316 VALLEY FOREST DRIVE, UPPER MARLBORO, MD, 20772","Match","Exact","3316 VALLEY FOREST DR, UPPER MARLBORO, MD, 20772",635287888,"L"
176060,"3316 VALLEY GROVE RD","CHARLOTTE","NC",28227,35.1811547200001,-80.721967392,60,"3316 VALLEY GROVE RD, CHARLOTTE, NC, 28227","Match","Exact","3316 VALLEY GROVE RD, CHARLOTTE, NC, 28227",70576495,"R"
176061,"3316 WALDROP FARMS WAY","DECATUR","GA",30034,33.6771542500001,-84.2613077679999,61,"3316 WALDROP FARMS WAY, DECATUR, GA, 30034","Match","Exact","3316 WALDROP FARMS WAY, DECATUR, GA, 30034",23400093,"R"
176062,"3316-A S COBB DR SE","MARIETTA","GA",30080,NA,NA,62,"3316-A S COBB DR SE, MARIETTA, GA, 30080","No_Match",NA,NA,NA,NA
176063,"33161 CYPRESS BEND DR","WESLEY CHAPEL","FL",33545,28.260185322,-82.267820528,63,"33161 CYPRESS BEND DR, WESLEY CHAPEL, FL, 33545","Match","Exact","33161 CYPRESS BEND DR, WESLEY CHAPEL, FL, 33545",646843169,"L"
176064,"3316A S COBB DR STE 141","SMYRNA","GA",30080,33.872046117,-84.529265841,64,"3316A S COBB DR STE 141, SMYRNA, GA, 30080","Match","Exact","3316 S COBB DR, SMYRNA, GA, 30080",17268380,"L"
176065,"3317 36TH AVE NE","ST ANTHONY","MN",55418,45.0335606450001,-93.213396759,65,"3317 36TH AVE NE, ST ANTHONY, MN, 55418","Match","Exact","3317 36TH AVE NE, SAINT ANTHONY, MN, 55418",43637333,"L"
176066,"3317 BANCROFT STEET","MISSOULA","MT",59801,46.8395877150001,-114.007859522,66,"3317 BANCROFT STEET, MISSOULA, MT, 59801","Match","Exact","3317 BANCROFT ST, MISSOULA, MT, 59801",205240194,"R"
176067,"3317 COTSWOLD COMMONS","NORMAN","OK",73072,35.2235821670001,-97.490825494,67,"3317 COTSWOLD COMMONS, NORMAN, OK, 73072","Match","Exact","3317 COTSWOLD CMNS, NORMAN, OK, 73072",636144679,"L"
176068,"3317 COTTONWOOD DR","ST CHARLES","MO",63301,38.821574158,-90.481039112,68,"3317 COTTONWOOD DR, ST CHARLES, MO, 63301","Match","Exact","3317 COTTONWOOD DR, SAINT CHARLES, MO, 63301",649665304,"L"
176069,"3317 COURTNEY GRADE","PERRY","FL",32348,30.0342753790001,-83.633534803,69,"3317 COURTNEY GRADE, PERRY, FL, 32348","Match","Exact","3317 COURTNEY GRADE, PERRY, FL, 32348",53975961,"R"
176070,"3317 DAVIS STREET","HOPE MILLS","NC",28348,34.979694613,-78.954783385,70,"3317 DAVIS STREET, HOPE MILLS, NC, 28348","Match","Exact","3317 DAVIS ST, HOPE MILLS, NC, 28348",64266430,"L"
176071,"3317 E HAYES RD","NORRISTOWN","PA",19403,40.1701216430001,-75.3467282729999,71,"3317 E HAYES RD, NORRISTOWN, PA, 19403","Match","Exact","3317 E HAYES RD, NORRISTOWN, PA, 19403",135115110,"L"
176072,"3317 E TURQUOISE","PHOENIX","AZ",85028,33.5761140500001,-112.010466234,72,"3317 E TURQUOISE, PHOENIX, AZ, 85028","Match","Non_Exact","3317 E TURQUOISE AVE, PHOENIX, AZ, 85028",128218495,"R"
176073,"3317 EFFINGHAM","MANHATTAN","KS",66503,39.2075987260001,-96.6204736989999,73,"3317 EFFINGHAM, MANHATTAN, KS, 66503","Match","Exact","3317 EFFINGHAM, MANHATTAN, KS, 66503",27803967,"L"
176074,"3317 HAYLEY CT","RICHARDSON","TX",75082,32.9952952850001,-96.646881643,74,"3317 HAYLEY CT, RICHARDSON, TX, 75082","Match","Exact","3317 HAYLEY CT, RICHARDSON, TX, 75082",627269901,"R"
176075,"3317 HORSE PEN CREEK ROAD UNIT 1F","GREENSBORO","NC",27410,36.1479759050001,-79.8775243119999,75,"3317 HORSE PEN CREEK ROAD UNIT 1F, GREENSBORO, NC, 27410","Match","Exact","3317 HORSE PEN CREEK RD, GREENSBORO, NC, 27410",640602269,"R"
176076,"3317 LANGLEY CT","FLOWER MOUND","TX",75022,33.0310038330001,-97.089353476,76,"3317 LANGLEY CT, FLOWER MOUND, TX, 75022","Match","Exact","3317 LANGLEY CT, FLOWER MOUND, TX, 75022",103397133,"R"
176077,"3317 LYNCHBURG ROAD","WINCHESTER","TN",37398,35.1855929130001,-86.165527255,77,"3317 LYNCHBURG ROAD, WINCHESTER, TN, 37398","Match","Exact","3317 LYNCHBURG RD, WINCHESTER, TN, 37398",57961322,"L"
176078,"3317 MANTUA DRIVE","FAIRFAX","VA",22031,38.8588522100001,-77.2486381589999,78,"3317 MANTUA DRIVE, FAIRFAX, VA, 22031","Match","Exact","3317 MANTUA DR, FAIRFAX, VA, 22031",75972180,"R"
176079,"3317 OREGON AVE","SAINT LOUIS","MO",63118,38.5953891180001,-90.2308586139999,79,"3317 OREGON AVE, SAINT LOUIS, MO, 63118","Match","Exact","3317 OREGON AVE, SAINT LOUIS, MO, 63118",107602301,"R"
176080,"3317 PORTERS GAP RD","HALLS","TN",38040,35.8857147960001,-89.513093527,80,"3317 PORTERS GAP RD, HALLS, TN, 38040","Match","Non_Exact","3317 PORTER'S GAP RD, HALLS, TN, 38040",63777345,"L"
176081,"3317 POST STREET","JACKSONVILLE","FL",32205,30.313260472,-81.711934969,81,"3317 POST STREET, JACKSONVILLE, FL, 32205","Match","Exact","3317 POST ST, JACKSONVILLE, FL, 32205",83894351,"R"
176082,"3317 S HIGLEY RD STE 114 - 448","GILBERT","AZ",85297,NA,NA,82,"3317 S HIGLEY RD STE 114 - 448, GILBERT, AZ, 85297","No_Match",NA,NA,NA,NA
176083,"3317 S HIGLEY ROAD SUITE 114 - 766","GILBERT","AZ",85297,NA,NA,83,"3317 S HIGLEY ROAD SUITE 114 - 766, GILBERT, AZ, 85297","No_Match",NA,NA,NA,NA
176084,"3317 SE WASHINGTON ST","PORTLAND","OR",97214,45.5185963430001,-122.630630999,84,"3317 SE WASHINGTON ST, PORTLAND, OR, 97214","Match","Exact","3317 SE WASHINGTON ST, PORTLAND, OR, 97214",157507623,"L"
176085,"3317 TERRYWOOD ROAD","FORT COLLINS","CO",80524,40.63451919,-105.070076344,85,"3317 TERRYWOOD ROAD, FORT COLLINS, CO, 80524","Match","Exact","3317 TERRYWOOD RD, FORT COLLINS, CO, 80524",188528525,"L"
176086,"3317 US HWY 98S STE 9","LAKELAND","FL",33803,NA,NA,86,"3317 US HWY 98S STE 9, LAKELAND, FL, 33803","No_Match",NA,NA,NA,NA
176087,"3317 VENTURE LANE","WILLIAMSBURG","VA",23188,37.2544899960001,-76.762271664,87,"3317 VENTURE LANE, WILLIAMSBURG, VA, 23188","Match","Exact","3317 VENTURE LN, WILLIAMSBURG, VA, 23188",103778877,"L"
176088,"3317 W 14 MILE RD","ROYAL OAK","MI",48073,42.5324119860001,-83.1866366089999,88,"3317 W 14 MILE RD, ROYAL OAK, MI, 48073","Match","Exact","3317 W 14 MILE RD, ROYAL OAK, MI, 48073",69737411,"L"
176089,"3317 WOODLAND PARK ROAD","DURHAM","NC",27703,35.9989849840001,-78.8331343089999,89,"3317 WOODLAND PARK ROAD, DURHAM, NC, 27703","Match","Exact","3317 WOODLAND PARK RD, DURHAM, NC, 27703",71766686,"R"
176090,"3317 WOODMEADOW PARKWAY","RALEIGH","NC",27610,35.7554245040001,-78.5874766539999,90,"3317 WOODMEADOW PARKWAY, RALEIGH, NC, 27610","Match","Exact","3317 WOODMEADOW PKWY, RALEIGH, NC, 27610",208347358,"L"
176091,"33170 DECKER SCHOOL RD","MALIBU","CA",90265,34.072121198,-118.894877623,91,"33170 DECKER SCHOOL RD, MALIBU, CA, 90265","Match","Exact","33170 DECKER SCHOOL RD, MALIBU, CA, 90265",142783769,"R"
176092,"33174 STATE PARK ROAD 100","SOUTH PADRE ISLAND","TX",78597,NA,NA,92,"33174 STATE PARK ROAD 100, SOUTH PADRE ISLAND, TX, 78597","No_Match",NA,NA,NA,NA
176093,"33175 ANN ARBOR TRAIL","WESTLAND","MI",48185,42.349177733,-83.369591843,93,"33175 ANN ARBOR TRAIL, WESTLAND, MI, 48185","Match","Exact","33175 ANN ARBOR TRL, WESTLAND, MI, 48185",95508451,"L"
176094,"331774","MURFREESBORO","TN",37133,NA,NA,94,"331774, MURFREESBORO, TN, 37133","No_Match",NA,NA,NA,NA
176095,"3318  MARCUS DRIVE","PENSACOLA","FL",32503,30.447399089,-87.2245127899999,95,"3318  MARCUS DRIVE, PENSACOLA, FL, 32503","Match","Exact","3318 MARCUS DR, PENSACOLA, FL, 32503",642894818,"L"
176096,"3318 21ST AVE SOUTH","SAINT CLOUD","MN",56301,NA,NA,96,"3318 21ST AVE SOUTH, SAINT CLOUD, MN, 56301","No_Match",NA,NA,NA,NA
176097,"3318 38TH STREET NORTH","SAINT PETERSBURG","FL",33713,27.8020437860001,-82.685672794,97,"3318 38TH STREET NORTH, SAINT PETERSBURG, FL, 33713","Match","Exact","3318 38TH ST N, SAINT PETERSBURG, FL, 33713",124702092,"L"
176098,"3318 39TH AVE","GULFPORT","MS",39501,30.3894506780001,-89.108614011,98,"3318 39TH AVE, GULFPORT, MS, 39501","Match","Exact","3318 39TH AVE, GULFPORT, MS, 39501",111377413,"R"
176099,"3318 71ST STREET FLOOR 3","JACKSON HEIGHTS","NY",11372,NA,NA,99,"3318 71ST STREET FLOOR 3, JACKSON HEIGHTS, NY, 11372","No_Match",NA,NA,NA,NA
176100,"3318 ARNOLDELL ST","DALLAS","TX",75211,32.740919481,-96.874483364,100,"3318 ARNOLDELL ST, DALLAS, TX, 75211","Match","Exact","3318 ARNOLDELL ST, DALLAS, TX, 75211",103262999,"L"
176101,"3318 ASHFIELD DRIVE","HOUSTON","TX",77082,29.7266270850001,-95.608674064,101,"3318 ASHFIELD DRIVE, HOUSTON, TX, 77082","Match","Exact","3318 ASHFIELD DR, HOUSTON, TX, 77082",96021602,"L"
176102,"3318 BARNETTS CROSSING PL","TRIANGLE","VA",22172,38.533320518,-77.314204581,102,"3318 BARNETTS CROSSING PL, TRIANGLE, VA, 22172","Match","Exact","3318 BARNETTS CROSSING PL, TRIANGLE, VA, 22172",640845442,"R"
176103,"3318 BEVERLY  AVE","CLOVIS","CA",93619,36.812535322,-119.648083804,103,"3318 BEVERLY  AVE, CLOVIS, CA, 93619","Match","Exact","3318 BEVERLY AVE, CLOVIS, CA, 93619",629146402,"R"
176104,"3318 CALIFORNIA APARTMENT 3","SAN FRANCISCO","CA",94118,37.787006375,-122.448852776,104,"3318 CALIFORNIA APARTMENT 3, SAN FRANCISCO, CA, 94118","Match","Non_Exact","3318 CALIFORNIA ST, SAN FRANCISCO, CA, 94118",192279358,"R"
176105,"3318 CALIFORNIA ST 3","SAN FRANCISCO","CA",94118,37.787006375,-122.448852776,105,"3318 CALIFORNIA ST 3, SAN FRANCISCO, CA, 94118","Match","Exact","3318 CALIFORNIA ST, SAN FRANCISCO, CA, 94118",192279358,"R"
176106,"3318 DENT PLACE NW","WASHINGTON","DC",20007,38.9117348570001,-77.0665364339999,106,"3318 DENT PLACE NW, WASHINGTON, DC, 20007","Match","Exact","3318 DENT PL NW, WASHINGTON, DC, 20007",76224854,"L"
176107,"3318 EAST HAYES ROAD","NORRISTOWN","PA",19403,40.1698329590001,-75.346185382,107,"3318 EAST HAYES ROAD, NORRISTOWN, PA, 19403","Match","Exact","3318 E HAYES RD, NORRISTOWN, PA, 19403",135115110,"R"
176108,"3318 EAST SILVER SPRINGS BLVD","OCALA","FL",34470,NA,NA,108,"3318 EAST SILVER SPRINGS BLVD, OCALA, FL, 34470","No_Match",NA,NA,NA,NA
176109,"3318 EDGEWATER CT","ARLINGTON","TX",76016,32.692385803,-97.2088739389999,109,"3318 EDGEWATER CT, ARLINGTON, TX, 76016","Match","Exact","3318 EDGEWATER CT, ARLINGTON, TX, 76016",101901473,"R"
176110,"3318 HARBOURTOWN DR","GRAND PRAIRIE","TX",75052,32.690285902,-97.056025027,110,"3318 HARBOURTOWN DR, GRAND PRAIRIE, TX, 75052","Match","Non_Exact","3318 HARBOURTOWN, GRAND PRAIRIE, TX, 75052",101963145,"L"
176111,"3318 HARVEST MEADOW LANE","ROSENBERG","TX",77471,29.550795706,-95.7517573549999,111,"3318 HARVEST MEADOW LANE, ROSENBERG, TX, 77471","Match","Exact","3318 HARVEST MEADOW LN, ROSENBERG, TX, 77471",648706520,"R"
176112,"3318 HAYNES AVE","MIDLAND","TX",79707,32.0271027860001,-102.129748736,112,"3318 HAYNES AVE, MIDLAND, TX, 79707","Match","Exact","3318 HAYNES AVE, MIDLAND, TX, 79707",139578438,"R"
176113,"3318 HIGHWAY 2945","CISCO","TX",76437,32.387823257,-99.1051451169999,113,"3318 HIGHWAY 2945, CISCO, TX, 76437","Match","Non_Exact","3318 FM 2945, CISCO, TX, 76437",158701190,"L"
176114,"3318 HIGHWAY 365 SUITE 260","NEDERLAND","TX",77627,NA,NA,114,"3318 HIGHWAY 365 SUITE 260, NEDERLAND, TX, 77627","No_Match",NA,NA,NA,NA
176115,"3318 HIGHWAY 42","HATTIESBURG","MS",39402,NA,NA,115,"3318 HIGHWAY 42, HATTIESBURG, MS, 39402","No_Match",NA,NA,NA,NA
176116,"3318 IRISH CIR","SHREVEPORT","LA",71119,32.4866828990001,-93.866094012,116,"3318 IRISH CIR, SHREVEPORT, LA, 71119","Match","Exact","3318 IRISH CIR, SHREVEPORT, LA, 71119",57429932,"L"
176117,"3318 MALLARD RUN CT","KATY","TX",77494,29.7352247950001,-95.84240088,117,"3318 MALLARD RUN CT, KATY, TX, 77494","Match","Exact","3318 MALLARD RUN CT, KATY, TX, 77494",641049438,"R"
176118,"3318 MARCUS DRIVE","PENSACOLA","FL",32503,30.447399089,-87.2245127899999,118,"3318 MARCUS DRIVE, PENSACOLA, FL, 32503","Match","Exact","3318 MARCUS DR, PENSACOLA, FL, 32503",642894818,"L"
176119,"3318 METRO WAY","SNELLVILLE","GA",30039,33.781173682,-84.000785831,119,"3318 METRO WAY, SNELLVILLE, GA, 30039","Match","Exact","3318 METRO WAY, SNELLVILLE, GA, 30039",636186195,"L"
176120,"3318 N 2ND ST","ROGERS","AR",72756,36.3647191810001,-94.115942262,120,"3318 N 2ND ST, ROGERS, AR, 72756","Match","Exact","3318 N 2ND ST, ROGERS, AR, 72756",635480412,"L"
176121,"3318 N DECATUR UNIT 2137","LAS VEGAS","NV",89130,NA,NA,121,"3318 N DECATUR UNIT 2137, LAS VEGAS, NV, 89130","No_Match",NA,NA,NA,NA
176122,"3318 NE 55TH ST","SEATTLE","WA",98105,47.6685173880001,-122.292362243,122,"3318 NE 55TH ST, SEATTLE, WA, 98105","Match","Exact","3318 NE 55TH ST, SEATTLE, WA, 98105",186586448,"L"
176123,"3318 ORCHID TRACE LN","HOUSTON","TX",77047,29.601597457,-95.3704934309999,123,"3318 ORCHID TRACE LN, HOUSTON, TX, 77047","Match","Exact","3318 ORCHID TRACE LN, HOUSTON, TX, 77047",624602431,"R"
176124,"3318 PERRY LANE","AUSTIN","NJ",78731,NA,NA,124,"3318 PERRY LANE, AUSTIN, NJ, 78731","No_Match",NA,NA,NA,NA
176125,"3318 PINE TOP DR","VALRICO","FL",33594,27.945905307,-82.225256477,125,"3318 PINE TOP DR, VALRICO, FL, 33594","Match","Exact","3318 PINE TOP DR, VALRICO, FL, 33594",638635742,"L"
176126,"3318 ROLLINGWOOD CT","MONTGOMERY","TX",77356,30.3937121050001,-95.609006935,126,"3318 ROLLINGWOOD CT, MONTGOMERY, TX, 77356","Match","Exact","3318 ROLLINGWOOD CT, MONTGOMERY, TX, 77356",79272760,"R"
176127,"3318 ROSEMARY LN","HYATTSVILLE","MD",20782,38.978303587,-76.957138309,127,"3318 ROSEMARY LN, HYATTSVILLE, MD, 20782","Match","Exact","3318 ROSEMARY LN, HYATTSVILLE, MD, 20782",76388685,"L"
176128,"3318 SNEAD DR","SIERRA VISTA","AZ",85650,31.51452077,-110.264397578,128,"3318 SNEAD DR, SIERRA VISTA, AZ, 85650","Match","Non_Exact","3318 E SNEAD DR, SIERRA VISTA, AZ, 85650",120927645,"L"
176129,"3318 STERLING LAKE CIRCLE","OVIEDO","FL",32765,28.620747737,-81.185522142,129,"3318 STERLING LAKE CIRCLE, OVIEDO, FL, 32765","Match","Exact","3318 STERLING LAKE CIR, OVIEDO, FL, 32765",638632658,"L"
176130,"33182 STATE HIGHWAY 310","ROSEAU","MN",56751,48.8793139700001,-95.7683795029999,130,"33182 STATE HIGHWAY 310, ROSEAU, MN, 56751","Match","Exact","33182 STATE HWY 310, ROSEAU, MN, 56751",611940031,"L"
176131,"3319 9TH STREET EAST","BRADENTON","FL",34208,27.470554459,-82.554819928,131,"3319 9TH STREET EAST, BRADENTON, FL, 34208","Match","Exact","3319 9TH ST E, BRADENTON, FL, 34208",16235299,"L"
176132,"3319 ALAMEDA ST","MEDFORD","OR",97504,42.311265775,-122.821984491,132,"3319 ALAMEDA ST, MEDFORD, OR, 97504","Match","Exact","3319 ALAMEDA ST, MEDFORD, OR, 97504",155551942,"L"
176133,"3319 BANNON DR","THUNDERBOLT","GA",31404,32.02856045,-81.0514489,133,"3319 BANNON DR, THUNDERBOLT, GA, 31404","Match","Exact","3319 BANNON DR, THUNDERBOLT, GA, 31404",6179748,"R"
176134,"3319 BOYCE DR","RHINELANDER","WI",54501,45.6247888140001,-89.434850717,134,"3319 BOYCE DR, RHINELANDER, WI, 54501","Match","Exact","3319 BOYCE DR, RHINELANDER, WI, 54501",196603323,"L"
176135,"3319 E 46TH AVE UNIT A","ANCHORAGE","AK",99507,61.179038135,-149.819048715,135,"3319 E 46TH AVE UNIT A, ANCHORAGE, AK, 99507","Match","Non_Exact","3319 E 46TH AVE, ANCHORAGE, AK, 99507",190799702,"L"
176136,"3319 E HUDSON ST","COLUMBUS","OH",43219,40.0113018110001,-82.9201051809999,136,"3319 E HUDSON ST, COLUMBUS, OH, 43219","Match","Exact","3319 E HUDSON ST, COLUMBUS, OH, 43219",218655403,"R"
176137,"3319 GREENFIELD ROAD RTE 124","DEABORN","MI",48120,42.289770613,-83.170754728,137,"3319 GREENFIELD ROAD RTE 124, DEABORN, MI, 48120","Match","Non_Exact","3319 GREENFIELD RD, DEARBORN, MI, 48120",95449842,"L"
176138,"3319 GREENFIELD ROAD/NUMBER 179","DEARBORN","MI",48120,42.289770613,-83.170754728,138,"3319 GREENFIELD ROAD/NUMBER 179, DEARBORN, MI, 48120","Match","Non_Exact","3319 GREENFIELD RD, DEARBORN, MI, 48120",95449842,"L"
176139,"3319 JAMAICA DRIVE","CORPUS CHRISTI","TX",78418,27.6294943230001,-97.297295988,139,"3319 JAMAICA DRIVE, CORPUS CHRISTI, TX, 78418","Match","Exact","3319 JAMAICA DR, CORPUS CHRISTI, TX, 78418",178523642,"L"
176140,"3319 KINGS HIGHWAY APT 3J","BROOKLYN","NY",11234,40.6188138270001,-73.942237816,140,"3319 KINGS HIGHWAY APT 3J, BROOKLYN, NY, 11234","Match","Exact","3319 KINGS HWY, BROOKLYN, NY, 11234",59090292,"L"
176141,"3319 KINGS HIGHWAY APT 6M","BROOKLYN","NY",11234,40.6188138270001,-73.942237816,141,"3319 KINGS HIGHWAY APT 6M, BROOKLYN, NY, 11234","Match","Exact","3319 KINGS HWY, BROOKLYN, NY, 11234",59090292,"L"
176142,"3319 MAPLE LANE","HAZEL CREST","IL",60429,41.578716506,-87.698200588,142,"3319 MAPLE LANE, HAZEL CREST, IL, 60429","Match","Exact","3319 MAPLE LN, HAZEL CREST, IL, 60429",111704982,"L"
176143,"3319 MCMAHON LN","MISSOURI CITY","TX",77459,29.495434888,-95.515574836,143,"3319 MCMAHON LN, MISSOURI CITY, TX, 77459","Match","Exact","3319 MCMAHON LN, MISSOURI CITY, TX, 77459",78331666,"R"
176144,"3319 MILLWOOD AVE","COLUMBIA","SC",29205,33.998940964,-80.995267841,144,"3319 MILLWOOD AVE, COLUMBIA, SC, 29205","Match","Exact","3319 MILLWOOD AVE, COLUMBIA, SC, 29205",71824405,"L"
176145,"3319 MILLWOOD","COLUMBIA","SC",29205,33.998940964,-80.995267841,145,"3319 MILLWOOD, COLUMBIA, SC, 29205","Match","Non_Exact","3319 MILLWOOD AVE, COLUMBIA, SC, 29205",71824405,"L"
176146,"3319 OLD TURNPIKE RD","LEWISBURG","PA",17837,40.953704976,-76.9305516329999,146,"3319 OLD TURNPIKE RD, LEWISBURG, PA, 17837","Match","Exact","3319 OLD TURNPIKE RD, LEWISBURG, PA, 17837",48189103,"R"
176147,"3319 PLEASANTS ROAD","POWHATAN","VA",23139,37.6080260460001,-77.839192901,147,"3319 PLEASANTS ROAD, POWHATAN, VA, 23139","Match","Exact","3319 PLEASANTS RD, POWHATAN, VA, 23139",73830239,"L"
176148,"3319 TELEGRAPH RD STE 205","VENTURA","CA",93003,34.2727314680001,-119.250327636,148,"3319 TELEGRAPH RD STE 205, VENTURA, CA, 93003","Match","Exact","3319 TELEGRAPH RD, VENTURA, CA, 93003",645452865,"L"
176149,"3319 W BEACH AVE","CHICAGO","IL",60651,41.9073392620001,-87.709958355,149,"3319 W BEACH AVE, CHICAGO, IL, 60651","Match","Exact","3319 W BEACH AVE, CHICAGO, IL, 60651",111759218,"L"
176150,"3319 W HARMONT DRIVE UNIT 1","PHOENIX","AZ",85051,33.554812994,-112.130867174,150,"3319 W HARMONT DRIVE UNIT 1, PHOENIX, AZ, 85051","Match","Non_Exact","3319 W HARMONT DR, PHOENIX, AZ, 85051",642859079,"L"
176151,"33190 BLOOMBERG ROAD","EUGENE","OR",97405,44.0179070410001,-123.038216596,151,"33190 BLOOMBERG ROAD, EUGENE, OR, 97405","Match","Exact","33190 BLOOMBERG RD, EUGENE, OR, 97405",178228785,"R"
176152,"33199 VIA ALVARO","TEMECULA","CA",92592,33.493221969,-117.079536238,152,"33199 VIA ALVARO, TEMECULA, CA, 92592","Match","Exact","33199 VIA ALVARO, TEMECULA, CA, 92592",194823849,"L"
176153,"332 26TH AVE","SEATTLE","WA",98122,47.604696076,-122.298894824,153,"332 26TH AVE, SEATTLE, WA, 98122","Match","Exact","332 26TH AVE, SEATTLE, WA, 98122",186593124,"R"
176154,"332 A SMITH RD","HUNTSVILLE","AL",35811,34.836805353,-86.50012751,154,"332 A SMITH RD, HUNTSVILLE, AL, 35811","Match","Exact","332 A SMITH RD, HUNTSVILLE, AL, 35811",647640616,"L"
176155,"332 ANTEBELLUM AVE","JASPER","GA",30143,34.4152355140001,-84.462508298,155,"332 ANTEBELLUM AVE, JASPER, GA, 30143","Match","Exact","332 ANTEBELLUM AVE, JASPER, GA, 30143",627451851,"R"
176156,"332 ASH SWAMP RD","GLASTONBURY","CT",6033,41.7007375600001,-72.501261297,156,"332 ASH SWAMP RD, GLASTONBURY, CT, 6033","Match","Exact","332 ASH SWAMP RD, GLASTONBURY, CT, 06033",604947330,"R"
176157,"332 BAYOU DULARGE ROAD","HOUMA","LA",70363,29.540444221,-90.7181882419999,157,"332 BAYOU DULARGE ROAD, HOUMA, LA, 70363","Match","Exact","332 BAYOU DULARGE RD, HOUMA, LA, 70363",92067526,"L"
176158,"332 BLEECKER ST NUM K41","NEW YORK","NY",10014,40.733499706,-74.00433184,158,"332 BLEECKER ST NUM K41, NEW YORK, NY, 10014","Match","Exact","332 BLEECKER ST, NEW YORK, NY, 10014",59659908,"L"
176159,"332 BLEECKER STREET G8","NEW YORK","NY",10014,40.733499706,-74.00433184,159,"332 BLEECKER STREET G8, NEW YORK, NY, 10014","Match","Exact","332 BLEECKER ST, NEW YORK, NY, 10014",59659908,"L"
176160,"332 BLEEKER STREET H66","NEW YORK","NY",10014,NA,NA,160,"332 BLEEKER STREET H66, NEW YORK, NY, 10014","No_Match",NA,NA,NA,NA
176161,"332 BRIARGROVE ST","GRETNA","LA",70056,29.886100373,-90.0366308329999,161,"332 BRIARGROVE ST, GRETNA, LA, 70056","Match","Exact","332 BRIARGROVE ST, GRETNA, LA, 70056",93525517,"R"
176162,"332 BROADWAY","LAWRENCE","MA",1841,42.7103336980001,-71.172729481,162,"332 BROADWAY, LAWRENCE, MA, 1841","Match","Exact","332 BROADWAY, LAWRENCE, MA, 01841",86625340,"L"
176163,"332 BUCKLEY HILL ROAD","MONROE","LA",71203,32.575444046,-91.963999804,163,"332 BUCKLEY HILL ROAD, MONROE, LA, 71203","Match","Exact","332 BUCKLEY HILL RD, MONROE, LA, 71203",642334583,"R"
176164,"332 CANAL DRIVE","KILL DEVIL HILLS","NC",27948,36.0261404830001,-75.6721212749999,164,"332 CANAL DRIVE, KILL DEVIL HILLS, NC, 27948","Match","Exact","332 CANAL DR, KILL DEVIL HILLS, NC, 27948",81300150,"R"
176165,"332 CEDAR VALLEY ROAD","BRISTOL","TN",37620,36.5685382360001,-82.183501437,165,"332 CEDAR VALLEY ROAD, BRISTOL, TN, 37620","Match","Exact","332 CEDAR VALLEY RD, BRISTOL, TN, 37620",127839314,"L"
176166,"332 CHAMPION WAY","GEORGETOWN","KY",40324,38.23885026,-84.553647686,166,"332 CHAMPION WAY, GEORGETOWN, KY, 40324","Match","Exact","332 CHAMPION WAY, GEORGETOWN, KY, 40324",650225469,"R"
176167,"332 CHOCTAW PLACE","YUKON","OK",73099,35.4890285060001,-97.739361972,167,"332 CHOCTAW PLACE, YUKON, OK, 73099","Match","Exact","332 CHOCTAW PL, YUKON, OK, 73099",92528534,"R"
176168,"332 CLAY ST","KERRVILLE","TX",78028,30.048799826,-99.1412922489999,168,"332 CLAY ST, KERRVILLE, TX, 78028","Match","Exact","332 CLAY ST, KERRVILLE, TX, 78028",176904545,"L"
176169,"332 COLLEGE STREET","BOWLING GREEN","KY",42101,36.998619696,-86.4343334709999,169,"332 COLLEGE STREET, BOWLING GREEN, KY, 42101","Match","Exact","332 COLLEGE ST, BOWLING GREEN, KY, 42101",28005151,"R"
176170,"332 COLUMBIA STREET","SANTA CRUZ","CA",95060,36.9549522790001,-122.033875796,170,"332 COLUMBIA STREET, SANTA CRUZ, CA, 95060","Match","Exact","332 COLUMBIA ST, SANTA CRUZ, CA, 95060",125508580,"R"
176171,"332 COUNTY ROAD 626","SECTION","AL",35771,34.5721596450001,-85.953328023,171,"332 COUNTY ROAD 626, SECTION, AL, 35771","Match","Exact","332 CO RD 626, SECTION, AL, 35771",58020588,"R"
176172,"332 CR 4002 IRMA RD","PEARSALL","TX",78061,NA,NA,172,"332 CR 4002 IRMA RD, PEARSALL, TX, 78061","No_Match",NA,NA,NA,NA
176173,"332 CRESCENT AVENUE","CROOKSTON","MN",56716,47.763416304,-96.603003716,173,"332 CRESCENT AVENUE, CROOKSTON, MN, 56716","Match","Exact","332 CRESCENT AVE, CROOKSTON, MN, 56716",171417487,"R"
176174,"332 CRESCENT STREET","BROOKLYN","NY",11208,40.6809567980001,-73.871389182,174,"332 CRESCENT STREET, BROOKLYN, NY, 11208","Match","Exact","332 CRESCENT ST, BROOKLYN, NY, 11208",59095122,"R"
176175,"332 CRYSTAL LAKE DR","DESOTO","TX",75115,32.594268947,-96.905505985,175,"332 CRYSTAL LAKE DR, DESOTO, TX, 75115","Match","Exact","332 CRYSTAL LAKE DR, DESOTO, TX, 75115",624608268,"L"
176176,"332 DAYTON STREET","HAMILTON","OH",45011,39.4011299410001,-84.558692122,176,"332 DAYTON STREET, HAMILTON, OH, 45011","Match","Exact","332 DAYTON ST, HAMILTON, OH, 45011",113789430,"L"
176177,"332 DELTA AVENUE","CLARKSDALE","MS",38614,34.2006289710001,-90.574347857,177,"332 DELTA AVENUE, CLARKSDALE, MS, 38614","Match","Exact","332 DELTA AVE, CLARKSDALE, MS, 38614",953008,"R"
176178,"332 DEXTER ST E","CHESAPEAKE","VA",23324,36.7967068300001,-76.255240944,178,"332 DEXTER ST E, CHESAPEAKE, VA, 23324","Match","Exact","332 DEXTER ST E, CHESAPEAKE, VA, 23324",121772109,"L"
176179,"332 DOUGLAS STREET","LOS ANGELES","CA",90026,34.0656423350001,-118.25764043,179,"332 DOUGLAS STREET, LOS ANGELES, CA, 90026","Match","Exact","332 DOUGLAS ST, LOS ANGELES, CA, 90026",637367590,"R"
176180,"332 E BAY ST","CHARLESTON","SC",29401,32.786878073,-79.929127976,180,"332 E BAY ST, CHARLESTON, SC, 29401","Match","Exact","332 E BAY ST, CHARLESTON, SC, 29401",604697659,"R"
176181,"332 E CENTRAL AVENUE","LOMBARD","IL",60148,41.86440258,-88.0092133809999,181,"332 E CENTRAL AVENUE, LOMBARD, IL, 60148","Match","Exact","332 E CENTRAL AVE, LOMBARD, IL, 60148",112533992,"L"
176182,"332 E COUNTY RD 1 SOUTH","MONTE VISTA","CO",81144,37.5602702580001,-106.143680981,182,"332 E COUNTY RD 1 SOUTH, MONTE VISTA, CO, 81144","Match","Exact","332 E CO RD 1 S, MONTE VISTA, CO, 81144",635438285,"R"
176183,"332 E DELANO STREET","TUCSON","AZ",85705,32.2630790760001,-110.966772344,183,"332 E DELANO STREET, TUCSON, AZ, 85705","Match","Exact","332 E DELANO ST, TUCSON, AZ, 85705",121167137,"R"
176184,"332 E HICKORY","DENTON","TX",76201,33.2144719570001,-97.1291531959999,184,"332 E HICKORY, DENTON, TX, 76201","Match","Non_Exact","332 E HICKORY ST, DENTON, TX, 76201",103339162,"R"
176185,"332 E IOWA DR","BOISE","ID",83706,43.584775763,-116.179583468,185,"332 E IOWA DR, BOISE, ID, 83706","Match","Exact","332 E IOWA DR, BOISE, ID, 83706",117885248,"L"
176186,"332 E KENSINGTON ST","CHICAGO","IL",60628,41.6839840370001,-87.615309222,186,"332 E KENSINGTON ST, CHICAGO, IL, 60628","Match","Non_Exact","332 E KENSINGTON AVE, CHICAGO, IL, 60628",616792060,"L"
176187,"332 E MARKET ST","BALTIMORE","OH",43105,39.845264414,-82.598414341,187,"332 E MARKET ST, BALTIMORE, OH, 43105","Match","Exact","332 E MARKET ST, BALTIMORE, OH, 43105",37218133,"R"
176188,"332 ELY LANE","GREENVILLE","MS",38701,33.3841848810001,-91.058983219,188,"332 ELY LANE, GREENVILLE, MS, 38701","Match","Exact","332 ELY LN, GREENVILLE, MS, 38701",1155973,"L"
176189,"332 FLORAL DRIVE WEST","SHOREVIEW","MN",55126,45.0676614830001,-93.1151028,189,"332 FLORAL DRIVE WEST, SHOREVIEW, MN, 55126","Match","Exact","332 FLORAL DR W, SHOREVIEW, MN, 55126",97635812,"L"
176190,"332 GREEN MEADOWS DR","LANSING","MI",48917,42.7306257810001,-84.629310829,190,"332 GREEN MEADOWS DR, LANSING, MI, 48917","Match","Exact","332 GREEN MEADOWS DR, LANSING, MI, 48917",12034921,"R"
176191,"332 GREEN MEADOWS DRIVE","LANSING","MI",48917,42.7306257810001,-84.629310829,191,"332 GREEN MEADOWS DRIVE, LANSING, MI, 48917","Match","Exact","332 GREEN MEADOWS DR, LANSING, MI, 48917",12034921,"R"
176192,"332 GREENHAVEN STREET","LENOIR","NC",28645,NA,NA,192,"332 GREENHAVEN STREET, LENOIR, NC, 28645","No_Match",NA,NA,NA,NA
176193,"332 HALLBERG STREET","DELAVAN","WI",53115,42.638345359,-88.618017427,193,"332 HALLBERG STREET, DELAVAN, WI, 53115","Match","Exact","332 HALLBERG ST, DELAVAN, WI, 53115",618582299,"R"
176194,"332 HAMILTON AVENUE","COLUMBUS","OH",43203,39.9713632460001,-82.9822762209999,194,"332 HAMILTON AVENUE, COLUMBUS, OH, 43203","Match","Exact","332 HAMILTON AVE, COLUMBUS, OH, 43203",218689528,"R"
176195,"332 HAVEN DR R6","GREENVILLE","NC",27834,35.5696422230001,-77.389080899,195,"332 HAVEN DR R6, GREENVILLE, NC, 27834","Match","Exact","332 HAVEN DR, GREENVILLE, NC, 27834",638299674,"L"
176196,"332 HIGH RIDGE ROAD","STAMFORD","CT",6905,41.08290149,-73.5491036019999,196,"332 HIGH RIDGE ROAD, STAMFORD, CT, 6905","Match","Exact","332 HIGH RIDGE RD, STAMFORD, CT, 06905",649210619,"L"
176197,"332 HIGHLAND AVE","KUTZTOWN","PA",19530,40.52489661,-75.774091743,197,"332 HIGHLAND AVE, KUTZTOWN, PA, 19530","Match","Exact","332 HIGHLAND AVE, KUTZTOWN, PA, 19530",80451310,"R"
176198,"332 HIGHLAND AVENUE","SAN MATEO","CA",94401,37.5699857820001,-122.333536642,198,"332 HIGHLAND AVENUE, SAN MATEO, CA, 94401","Match","Exact","332 HIGHLAND AVE, SAN MATEO, CA, 94401",192377487,"R"
176199,"332 HOWARD WAY DRIVE","ALEDO","TX",76008,32.6840646570001,-97.605812869,199,"332 HOWARD WAY DRIVE, ALEDO, TX, 76008","Match","Exact","332 HOWARD WAY DR, ALEDO, TX, 76008",635377490,"L"
176200,"332 KAMILAH LANE 1","COLUMBUS","OH",43230,NA,NA,200,"332 KAMILAH LANE 1, COLUMBUS, OH, 43230","No_Match",NA,NA,NA,NA
176201,"332 KENWOOD AVENUE","DELMAR","NY",12054,42.62117841,-73.826095574,201,"332 KENWOOD AVENUE, DELMAR, NY, 12054","Match","Exact","332 KENWOOD AVE, DELMAR, NY, 12054",18360505,"L"
176202,"332 LASKIN ROAD APT 341","VIRGINIA BEACH","VA",23451,36.8590366380001,-75.9798720379999,202,"332 LASKIN ROAD APT 341, VIRGINIA BEACH, VA, 23451","Match","Exact","332 LASKIN RD, VA BCH, VA, 23451",122299341,"R"
176203,"332 LEFFINGWELL AVE SUITE 101","KIRKWOOD","MO",63122,38.5769209900001,-90.3988214349999,203,"332 LEFFINGWELL AVE SUITE 101, KIRKWOOD, MO, 63122","Match","Exact","332 LEFFINGWELL AVE, KIRKWOOD, MO, 63122",100137560,"L"
176204,"332 MAIN ST","LONGMONT","CO",80501,40.1645761670001,-105.102505409,204,"332 MAIN ST, LONGMONT, CO, 80501","Match","Exact","332 MAIN ST, LONGMONT, CO, 80501",188156463,"R"
176205,"332 MCADOO AVE","GREENSBORO","NC",27406,36.067303442,-79.785285921,205,"332 MCADOO AVE, GREENSBORO, NC, 27406","Match","Exact","332 MCADOO AVE, GREENSBORO, NC, 27406",131033529,"R"
176206,"332 MIDDLEWOOD ROAD","MIDDLETOWN","NJ",7748,40.4142942350001,-74.134188384,206,"332 MIDDLEWOOD ROAD, MIDDLETOWN, NJ, 7748","Match","Exact","332 MIDDLEWOOD RD, MIDDLETOWN, NJ, 07748",90574917,"R"
176207,"332 MINNESOTA STREET STE W1610","SAINT PAUL","MN",55101,44.946080539,-93.091332488,207,"332 MINNESOTA STREET STE W1610, SAINT PAUL, MN, 55101","Match","Non_Exact","332 N MINNESOTA ST, SAINT PAUL, MN, 55101",97648670,"R"
176208,"332 MINNESOTA STREET SUITE W1610","SAINT PAUL","MN",55101,44.946080539,-93.091332488,208,"332 MINNESOTA STREET SUITE W1610, SAINT PAUL, MN, 55101","Match","Non_Exact","332 N MINNESOTA ST, SAINT PAUL, MN, 55101",97648670,"R"
176209,"332 MOHAWK BLVD","TULSA","OK",74106,36.1924598270001,-95.991477775,209,"332 MOHAWK BLVD, TULSA, OK, 74106","Match","Exact","332 MOHAWK BLVD, TULSA, OK, 74106",166436642,"R"
176210,"332 MONTGOMERY AVE","STAUNTON","VA",24401,38.1488462030001,-79.08707643,210,"332 MONTGOMERY AVE, STAUNTON, VA, 24401","Match","Exact","332 MONTGOMERY AVE, STAUNTON, VA, 24401",98848215,"L"
176211,"332 MOUNTAIN VIEW DR UNIT 1","BERTHOUD","CO",80513,40.3381920780001,-104.986796628,211,"332 MOUNTAIN VIEW DR UNIT 1, BERTHOUD, CO, 80513","Match","Exact","332 MOUNTAIN VIEW DR, BERTHOUD, CO, 80513",188729766,"L"
176212,"332 N 19TH AVE","BRIGHTON","CO",80601,39.9929441780001,-104.799341946,212,"332 N 19TH AVE, BRIGHTON, CO, 80601","Match","Exact","332 N 19TH AVE, BRIGHTON, CO, 80601",646614614,"L"
176213,"332 N 6TH STREET","ALLENTOWN","PA",18102,40.6079488620001,-75.4722633439999,213,"332 N 6TH STREET, ALLENTOWN, PA, 18102","Match","Exact","332 N 6TH ST, ALLENTOWN, PA, 18102",639850691,"L"
176214,"332 N RACE ST","GEORGETOWN","DE",19947,38.6943628500001,-75.388997108,214,"332 N RACE ST, GEORGETOWN, DE, 19947","Match","Exact","332 N RACE ST, GEORGETOWN, DE, 19947",636206363,"R"
176215,"332 NE ROTH STREET","PORTLAND","OR",97211,45.6013287170001,-122.662267791,215,"332 NE ROTH STREET, PORTLAND, OR, 97211","Match","Exact","332 NE ROTH ST, PORTLAND, OR, 97211",157501900,"R"
176216,"332 NORTH AVENUE","HIGHWOOD","IL",60040,42.203464877,-87.817072732,216,"332 NORTH AVENUE, HIGHWOOD, IL, 60040","Match","Exact","332 NORTH AVE, HIGHWOOD, IL, 60040",119648150,"R"
176217,"332 NORTH BEVER STREET","WOOSTER","OH",44691,40.8017021380001,-81.9375224519999,217,"332 NORTH BEVER STREET, WOOSTER, OH, 44691","Match","Exact","332 N BEVER ST, WOOSTER, OH, 44691",58734737,"L"
176218,"332 NORTH MIDDLE STREET","COLUMBIANA","OH",44408,40.8941007760001,-80.696765681,218,"332 NORTH MIDDLE STREET, COLUMBIANA, OH, 44408","Match","Exact","332 N MIDDLE ST, COLUMBIANA, OH, 44408",63663493,"R"
176219,"332 NORTH PALM DRIVE APARTMENT 302","BEVERLY HILLS","CA",90210,34.07379265,-118.392224143,219,"332 NORTH PALM DRIVE APARTMENT 302, BEVERLY HILLS, CA, 90210","Match","Exact","332 N PALM DR, BEVERLY HILLS, CA, 90210",141571992,"R"
176220,"332 NORTHLAKE DRIVE","MERIDIANVILLE","AL",35759,34.846405754,-86.576233132,220,"332 NORTHLAKE DRIVE, MERIDIANVILLE, AL, 35759","Match","Exact","332 NORTHLAKE DR, MERIDIANVILLE, AL, 35759",630203295,"R"
176221,"332 NW WINTERCREST RD","BURLESON","TX",76028,32.5348609600001,-97.3431554219999,221,"332 NW WINTERCREST RD, BURLESON, TX, 76028","Match","Exact","332 NW WINTERCREST RD, BURLESON, TX, 76028",103516877,"L"
176222,"332 PARK AVENUE N","RENTON","WA",98057,47.487298751,-122.20218445,222,"332 PARK AVENUE N, RENTON, WA, 98057","Match","Exact","332 PARK AVE N, RENTON, WA, 98057",186631680,"R"
176223,"332 PERRY STREET","MILPITAS","CA",95035,37.431111856,-121.880879251,223,"332 PERRY STREET, MILPITAS, CA, 95035","Match","Exact","332 PERRY ST, MILPITAS, CA, 95035",122961068,"L"
176224,"332 PINNACLE RIDGE DR","COLUMBIA","SC",29229,34.174890772,-80.899443171,224,"332 PINNACLE RIDGE DR, COLUMBIA, SC, 29229","Match","Exact","332 PINNACLE RIDGE DR, COLUMBIA, SC, 29229",641027128,"L"
176225,"332 RAVENSCROFT DRIVE","GOLETA","CA",93117,34.444275324,-119.836959622,225,"332 RAVENSCROFT DRIVE, GOLETA, CA, 93117","Match","Exact","332 RAVENSCROFT DR, GOLETA, CA, 93117",108601105,"R"
176226,"332 ROGERS AVENUE APT D9","BROOKLYN","NY",11225,40.665194263,-73.9537297959999,226,"332 ROGERS AVENUE APT D9, BROOKLYN, NY, 11225","Match","Exact","332 ROGERS AVE, BROOKLYN, NY, 11225",59079495,"R"
176227,"332 S 200 E","VERNAL","UT",84078,40.450764212,-109.524737388,227,"332 S 200 E, VERNAL, UT, 84078","Match","Exact","332 S 200 E, VERNAL, UT, 84078",126116151,"L"
176228,"332 S 800 E","SLC","UT",84102,40.761971784,-111.868200689,228,"332 S 800 E, SLC, UT, 84102","Match","Exact","332 S 800 E, SLC, UT, 84102",176068051,"R"
176229,"332 S COUNTRYSIDE DR","ASHLAND","OH",44805,40.851130133,-82.3134874849999,229,"332 S COUNTRYSIDE DR, ASHLAND, OH, 44805","Match","Exact","332 S COUNTRYSIDE DR, ASHLAND, OH, 44805",30146987,"R"
176230,"332 S CROSBY AVE","JANESVILLE","WI",53548,42.6754514950001,-89.051524921,230,"332 S CROSBY AVE, JANESVILLE, WI, 53548","Match","Exact","332 S CROSBY AVE, JANESVILLE, WI, 53548",647201449,"R"
176231,"332 S MAIN STREET","JASPER","GA",30143,34.461941917,-84.42887247,231,"332 S MAIN STREET, JASPER, GA, 30143","Match","Exact","332 S MAIN ST, JASPER, GA, 30143",70204959,"L"
176232,"332 S MICHIGAN AVE  STE 1032","CHICAGO","IL",60604,41.8778247430001,-87.6243816429999,232,"332 S MICHIGAN AVE  STE 1032, CHICAGO, IL, 60604","Match","Non_Exact","332 S MICHIGAN AVE, CHICAGO, IL, 60604",605274657,"R"
176233,"332 S MICHIGAN AVE 1032 S218","CHICAGO","IL",60604,41.8778247430001,-87.6243816429999,233,"332 S MICHIGAN AVE 1032 S218, CHICAGO, IL, 60604","Match","Non_Exact","332 S MICHIGAN AVE, CHICAGO, IL, 60604",605274657,"R"
176234,"332 S MICHIGAN AVE 121-C338","CHICAGO","IL",60604,41.8778247430001,-87.6243816429999,234,"332 S MICHIGAN AVE 121-C338, CHICAGO, IL, 60604","Match","Non_Exact","332 S MICHIGAN AVE, CHICAGO, IL, 60604",605274657,"R"
176235,"332 S MICHIGAN AVE STE 1032 -C36","CHICAGO","IL",60604,41.8778247430001,-87.6243816429999,235,"332 S MICHIGAN AVE STE 1032 -C36, CHICAGO, IL, 60604","Match","Non_Exact","332 S MICHIGAN AVE, CHICAGO, IL, 60604",605274657,"R"
176236,"332 S MICHIGAN AVE STE 1032 C-110","CHICAGO","IL",60604,41.8778247430001,-87.6243816429999,236,"332 S MICHIGAN AVE STE 1032 C-110, CHICAGO, IL, 60604","Match","Non_Exact","332 S MICHIGAN AVE, CHICAGO, IL, 60604",605274657,"R"
176237,"332 S MICHIGAN AVE STE 1032-S299","CHICAGO","IL",60604,41.8778247430001,-87.6243816429999,237,"332 S MICHIGAN AVE STE 1032-S299, CHICAGO, IL, 60604","Match","Non_Exact","332 S MICHIGAN AVE, CHICAGO, IL, 60604",605274657,"R"
176238,"332 S MICHIGAN AVE STE 1032L528","CHICAGO","IL",60604,41.8778247430001,-87.6243816429999,238,"332 S MICHIGAN AVE STE 1032L528, CHICAGO, IL, 60604","Match","Non_Exact","332 S MICHIGAN AVE, CHICAGO, IL, 60604",605274657,"R"
176239,"332 S MICHIGAN AVE STE 121 L464","CHICAGO","IL",60604,41.8778247430001,-87.6243816429999,239,"332 S MICHIGAN AVE STE 121 L464, CHICAGO, IL, 60604","Match","Non_Exact","332 S MICHIGAN AVE, CHICAGO, IL, 60604",605274657,"R"
176240,"332 S MICHIGAN AVE STE121-T629","CHICAGO","IL",60604,41.8778247430001,-87.6243816429999,240,"332 S MICHIGAN AVE STE121-T629, CHICAGO, IL, 60604","Match","Non_Exact","332 S MICHIGAN AVE, CHICAGO, IL, 60604",605274657,"R"
176241,"332 S MICHIGAN AVE SUITE 1032","CHICAGO","IL",60604,41.8778247430001,-87.6243816429999,241,"332 S MICHIGAN AVE SUITE 1032, CHICAGO, IL, 60604","Match","Non_Exact","332 S MICHIGAN AVE, CHICAGO, IL, 60604",605274657,"R"
176242,"332 S MICHIGAN AVE SUITE 1428","CHICAGO","IL",60604,41.8778247430001,-87.6243816429999,242,"332 S MICHIGAN AVE SUITE 1428, CHICAGO, IL, 60604","Match","Non_Exact","332 S MICHIGAN AVE, CHICAGO, IL, 60604",605274657,"R"
176243,"332 S MICHIGAN AVE","CHICAGO","IL",60604,41.8778247430001,-87.6243816429999,243,"332 S MICHIGAN AVE, CHICAGO, IL, 60604","Match","Exact","332 S MICHIGAN AVE, CHICAGO, IL, 60604",605274657,"R"
176244,"332 S MICHIGAN","CHICAGO","IL",60604,41.8778247430001,-87.6243816429999,244,"332 S MICHIGAN, CHICAGO, IL, 60604","Match","Non_Exact","332 S MICHIGAN AVE, CHICAGO, IL, 60604",605274657,"R"
176245,"332 S- MICHIGAN AVE SUITE 1032 C375","CHICAGO","IL",60604,NA,NA,245,"332 S- MICHIGAN AVE SUITE 1032 C375, CHICAGO, IL, 60604","No_Match",NA,NA,NA,NA
176246,"332 SHERMAN STREET","PASSAIC","NJ",7055,40.8655907310001,-74.136812505,246,"332 SHERMAN STREET, PASSAIC, NJ, 7055","Match","Exact","332 SHERMAN ST, PASSAIC, NJ, 07055",65278582,"R"
176247,"332 SKYLINE DRIVE","FEASTERVILLE","PA",19053,40.13930843,-74.998134347,247,"332 SKYLINE DRIVE, FEASTERVILLE, PA, 19053","Match","Non_Exact","332 SKYLINE DR, FEASTERVILLE TREVOSE, PA, 19053",134713722,"L"
176248,"332 SOUTH CAROLINA AVENUE SE","WASHINGTON","DC",20003,38.8824489780001,-77.001515162,248,"332 SOUTH CAROLINA AVENUE SE, WASHINGTON, DC, 20003","Match","Exact","332 SOUTH CAROLINA AVE SE, WASHINGTON, DC, 20003",76230590,"L"
176249,"332 SOUTH MICHIGAN AVE  SUITE 1100","CHICAGO","IL",60604,41.877832002,-87.6243819489999,249,"332 SOUTH MICHIGAN AVE  SUITE 1100, CHICAGO, IL, 60604","Match","Exact","332 S MICHIGAN AVE, CHICAGO, IL, 60604",605274657,"R"
176250,"332 SOUTH MICHIGAN AVENUE APT 121","CHICAGO","IL",60604,41.877832002,-87.6243819489999,250,"332 SOUTH MICHIGAN AVENUE APT 121, CHICAGO, IL, 60604","Match","Exact","332 S MICHIGAN AVE, CHICAGO, IL, 60604",605274657,"R"
176251,"332 SOUTH NEW HOPE ROAD 1903","KENNEDALE","TX",76060,NA,NA,251,"332 SOUTH NEW HOPE ROAD 1903, KENNEDALE, TX, 76060","No_Match",NA,NA,NA,NA
176252,"332 STRATFORD DR","SOUTHAMPTON","PA",18966,40.1860419230001,-75.0454946959999,252,"332 STRATFORD DR, SOUTHAMPTON, PA, 18966","Match","Exact","332 STRATFORD DR, SOUTHAMPTON, PA, 18966",134708019,"L"
176253,"332 SW 22ND STREET","FORT LAUDERDALE","FM",33315,NA,NA,253,"332 SW 22ND STREET, FORT LAUDERDALE, FM, 33315","No_Match",NA,NA,NA,NA
176254,"332 TILTON ROAD","NORTHFIELD","NJ",8225,39.3840677640001,-74.556013077,254,"332 TILTON ROAD, NORTHFIELD, NJ, 8225","Match","Exact","332 TILTON RD, NORTHFIELD, NJ, 08225",202535311,"R"
176255,"332 TREESONG TRAIL","VIRGINVIRGINIA BEACH","VA",23456,NA,NA,255,"332 TREESONG TRAIL, VIRGINVIRGINIA BEACH, VA, 23456","No_Match",NA,NA,NA,NA
176256,"332 TURKEY DR","DRIPPING SPRINGS","TX",78620,30.3406339570001,-98.18727838,256,"332 TURKEY DR, DRIPPING SPRINGS, TX, 78620","Match","Exact","332 TURKEY DR, DRIPPING SPRINGS, TX, 78620",72140475,"L"
176257,"332 UNIVERSITY BLVD","TUSCALOOSA","AL",35401,33.2084910770001,-87.540143895,257,"332 UNIVERSITY BLVD, TUSCALOOSA, AL, 35401","Match","Exact","332 UNIVERSITY BLVD, TUSCALOOSA, AL, 35401",82214722,"R"
176258,"332 UNIVERSITY VLG APT 5","GAINESVILLE","FL",32603,29.6378239750001,-82.37184218,258,"332 UNIVERSITY VLG APT 5, GAINESVILLE, FL, 32603","Match","Non_Exact","332 UNIVERSITY VILLAGE, GAINESVILLE, FL, 32605",6862138,"R"
176259,"332 VALE AVE S","ROCKFORD","IL",61108,NA,NA,259,"332 VALE AVE S, ROCKFORD, IL, 61108","No_Match",NA,NA,NA,NA
176260,"332 W BROADWAY SUITE 1500F","LOUISVILLE","KS",40202,NA,NA,260,"332 W BROADWAY SUITE 1500F, LOUISVILLE, KS, 40202","No_Match",NA,NA,NA,NA
176261,"332 W DEWEY AVE","NAMPA","ID",83686,43.563480784,-116.576993625,261,"332 W DEWEY AVE, NAMPA, ID, 83686","Match","Exact","332 W DEWEY AVE, NAMPA, ID, 83686",122787553,"R"
176262,"332 W FLORENCE AVE","LOS ANGELES","CA",90003,33.9746688340001,-118.278990936,262,"332 W FLORENCE AVE, LOS ANGELES, CA, 90003","Match","Exact","332 W FLORENCE AVE, LOS ANGELES, CA, 90003",141659805,"L"
176263,"332 W HORN ST","FAYETTEVILLE","AR",72701,35.9923597750001,-94.179618632,263,"332 W HORN ST, FAYETTEVILLE, AR, 72701","Match","Non_Exact","332 W HORN AVE, FAYETTEVILLE, AR, 72701",49048521,"L"
176264,"332 W KENILWORTH AVE","VILLA PARK","IL",60181,41.8879864,-87.987583292,264,"332 W KENILWORTH AVE, VILLA PARK, IL, 60181","Match","Exact","332 W KENILWORTH AVE, VILLA PARK, IL, 60181",629483812,"R"
176265,"332 WASHINGTON STREET","HENDERSON","KY",42420,37.8368510500001,-87.591705685,265,"332 WASHINGTON STREET, HENDERSON, KY, 42420","Match","Exact","332 WASHINGTON ST, HENDERSON, KY, 42420",57917398,"L"
176266,"332 WEIRFIELD ST","BROOKLYN","NY",11237,40.6947341310001,-73.9075369289999,266,"332 WEIRFIELD ST, BROOKLYN, NY, 11237","Match","Exact","332 WEIRFIELD ST, BROOKLYN, NY, 11237",59083090,"R"
176267,"332 WEST BENSON ST","DECATUR","GA",30030,33.7609129480001,-84.3010799799999,267,"332 WEST BENSON ST, DECATUR, GA, 30030","Match","Exact","332 W BENSON ST, DECATUR, GA, 30030",23367418,"L"
176268,"332 WEST BROADWAY SUITE 801A","LOUISVILLE","KY",40202,38.2459975420001,-85.7573039329999,268,"332 WEST BROADWAY SUITE 801A, LOUISVILLE, KY, 40202","Match","Exact","332 W BROADWAY, LOUISVILLE, KY, 40202",96845711,"L"
176269,"332 WEST BROADWAY SUITE 888","LOUISVILLE","KY",40202,38.2459975420001,-85.7573039329999,269,"332 WEST BROADWAY SUITE 888, LOUISVILLE, KY, 40202","Match","Exact","332 W BROADWAY, LOUISVILLE, KY, 40202",96845711,"L"
176270,"332 WEST LEE HIGHWAY SUITE 124","WARRENTON","VA",20186,38.727824093,-77.802013121,270,"332 WEST LEE HIGHWAY SUITE 124, WARRENTON, VA, 20186","Match","Non_Exact","332 LEE HWY, WARRENTON, VA, 20186",231214942,"R"
176271,"332 WEST MONTAUK HIGHWAY SUITE 5","HAMPTON BAYS","NY",11946,40.883410015,-72.4898643989999,271,"332 WEST MONTAUK HIGHWAY SUITE 5, HAMPTON BAYS, NY, 11946","Match","Non_Exact","332 E MONTAUK HWY, HAMPTON BAYS, NY, 11946",114028400,"R"
176272,"332 WEST WALNUT STREET","LOCK HAVEN","PA",17745,41.130319781,-77.455700986,272,"332 WEST WALNUT STREET, LOCK HAVEN, PA, 17745","Match","Exact","332 W WALNUT ST, LOCK HAVEN, PA, 17745",77156663,"R"
176273,"332 WESTBRIDGE LANE","CANTON","GA",30114,34.2097727600001,-84.549946581,273,"332 WESTBRIDGE LANE, CANTON, GA, 30114","Match","Exact","332 WESTBRIDGE LN, CANTON, GA, 30114",627187784,"L"
176274,"332 WESTS BISSELL AVE","RICHMOND","CA",94801,NA,NA,274,"332 WESTS BISSELL AVE, RICHMOND, CA, 94801","No_Match",NA,NA,NA,NA
176275,"332 WILSON CT","BEDFORD","KY",40006,38.534949059,-85.285679782,275,"332 WILSON CT, BEDFORD, KY, 40006","Match","Exact","332 WILSON CT, BEDFORD, KY, 40006",65160824,"R"
176276,"332","WATERLOO","IA",50704,NA,NA,276,"332, WATERLOO, IA, 50704","No_Match",NA,NA,NA,NA
176277,"3320 34TH AVE PLACE","GREELEY","CO",80631,40.38360039,-104.734090176,277,"3320 34TH AVE PLACE, GREELEY, CO, 80631","Match","Non_Exact","3320 34TH AVENUE PL, GREELEY, CO, 80634",188702599,"R"
176278,"3320 34TH AVE PLACE","GREELEY","CO",80634,40.38360039,-104.734090176,278,"3320 34TH AVE PLACE, GREELEY, CO, 80634","Match","Exact","3320 34TH AVENUE PL, GREELEY, CO, 80634",188702599,"R"
176279,"3320 APOSTOL RD","ESCONDIDO","CA",92025,33.07787481,-117.041993292,279,"3320 APOSTOL RD, ESCONDIDO, CA, 92025","Match","Exact","3320 APOSTOL RD, ESCONDIDO, CA, 92025",195317158,"L"
176280,"3320 ASHWOOD DRIVE","CINCINNATI","OH",45213,39.1754651640001,-84.424413779,280,"3320 ASHWOOD DRIVE, CINCINNATI, OH, 45213","Match","Exact","3320 ASHWOOD DR, CINCINNATI, OH, 45213",103931795,"R"
176281,"3320 AUSTIN PEAY HWY","MEMPHIS","TN",38128,35.216183447,-89.914092113,281,"3320 AUSTIN PEAY HWY, MEMPHIS, TN, 38128","Match","Exact","3320 AUSTIN PEAY HWY, MEMPHIS, TN, 38128",607532188,"R"
176282,"3320 CELANESE ROAD","ROCK HILL","SC",29732,34.9755762720001,-81.046156641,282,"3320 CELANESE ROAD, ROCK HILL, SC, 29732","Match","Exact","3320 CELANESE RD, ROCK HILL, SC, 29732",19790576,"R"
176283,"3320 CRUTCHFIELD PLACE","CHARLOTTE","NC",28213,35.298717744,-80.694203476,283,"3320 CRUTCHFIELD PLACE, CHARLOTTE, NC, 28213","Match","Exact","3320 CRUTCHFIELD PL, CHARLOTTE, NC, 28213",70562504,"R"
176284,"3320 DEL MONTE BLVD SPACE 13","MARINA","CA",93933,36.6973764900001,-121.793998344,284,"3320 DEL MONTE BLVD SPACE 13, MARINA, CA, 93933","Match","Non_Exact","3320 DEL MONTE BLVD, MARINA, CA, 93933",648175907,"R"
176285,"3320 DELACHAISE STREET","NEW ORLEANS","LA",70124,29.9437882080001,-90.099622543,285,"3320 DELACHAISE STREET, NEW ORLEANS, LA, 70124","Match","Non_Exact","3320 DELACHAISE ST, NEW ORLEANS, LA, 70125",191711490,"L"
176286,"3320 DELACHAISE STREET","NEW ORLEANS","LA",70125,29.9437882080001,-90.099622543,286,"3320 DELACHAISE STREET, NEW ORLEANS, LA, 70125","Match","Exact","3320 DELACHAISE ST, NEW ORLEANS, LA, 70125",191711490,"L"
176287,"3320 DONEGAL WAY","SNELLVILLE","GA",30039,33.8069476960001,-84.020041314,287,"3320 DONEGAL WAY, SNELLVILLE, GA, 30039","Match","Exact","3320 DONEGAL WAY, SNELLVILLE, GA, 30039",88904764,"L"
176288,"3320 DUQUESNE AVE","WEST MIFFLIN","PA",15122,40.390956799,-79.889487195,288,"3320 DUQUESNE AVE, WEST MIFFLIN, PA, 15122","Match","Exact","3320 DUQUESNE AVE, WEST MIFFLIN, PA, 15122",51655865,"R"
176289,"3320 E OAKLAND ST","GILBERT","AZ",85295,33.311760566,-111.719177742,289,"3320 E OAKLAND ST, GILBERT, AZ, 85295","Match","Exact","3320 E OAKLAND ST, GILBERT, AZ, 85295",601668199,"R"
176290,"3320 EAST PAULDING DR","DALLAS","GA",30157,NA,NA,290,"3320 EAST PAULDING DR, DALLAS, GA, 30157","No_Match",NA,NA,NA,NA
176291,"3320 F AVE","ANACORTES","WA",98221,48.4953187140001,-122.628591964,291,"3320 F AVE, ANACORTES, WA, 98221","Match","Exact","3320 F AVE, ANACORTES, WA, 98221",617253683,"R"
176292,"3320 FAIRFIELD AVE","FORT WAYNE","IN",46807,41.054856005,-85.1448157,292,"3320 FAIRFIELD AVE, FORT WAYNE, IN, 46807","Match","Exact","3320 FAIRFIELD AVE, FORT WAYNE, IN, 46807",6382200,"R"
176293,"3320 GULF CITY RD","RUSKIN","FL",33570,27.6984487010001,-82.486563329,293,"3320 GULF CITY RD, RUSKIN, FL, 33570","Match","Exact","3320 GULF CITY RD, RUSKIN, FL, 33570",646595514,"L"
176294,"3320 JOE WILSON ROAD","MIDLOTHIAN","TX",76065,32.517520844,-96.933600043,294,"3320 JOE WILSON ROAD, MIDLOTHIAN, TX, 76065","Match","Non_Exact","3320 S JOE WILSON RD, MIDLOTHIAN, TX, 76065",103499881,"R"
176295,"3320 KAPOT TERRACE","MIRAMAR","FL",33025,25.979366456,-80.278181559,295,"3320 KAPOT TERRACE, MIRAMAR, FL, 33025","Match","Exact","3320 KAPOT TER, MIRAMAR, FL, 33025",114753891,"R"
176296,"3320 KNOLL TRAIL","BALCH SPRINGS","TX",75180,NA,NA,296,"3320 KNOLL TRAIL, BALCH SPRINGS, TX, 75180","No_Match",NA,NA,NA,NA
176297,"3320 LEWIS AVE","STEGER","IL",60475,41.471184603,-87.624486568,297,"3320 LEWIS AVE, STEGER, IL, 60475","Match","Exact","3320 LEWIS AVE, STEGER, IL, 60475",112210243,"R"
176298,"3320 MARCUS COVE","BARTLETT","TN",38134,35.2157627400001,-89.843138832,298,"3320 MARCUS COVE, BARTLETT, TN, 38134","Match","Exact","3320 MARCUS COVE, BARTLETT, TN, 38134",72944881,"L"
176299,"3320 MORRO BAY AVENUE","DAVIS","CA",95616,38.560431153,-121.79112964,299,"3320 MORRO BAY AVENUE, DAVIS, CA, 95616","Match","Exact","3320 MORRO BAY AVE, DAVIS, CA, 95616",67697710,"L"
176300,"3320 N ARLINGTON AVENUE","INDIANAPOLIS","IN",46218,39.8169452430001,-86.0646988569999,300,"3320 N ARLINGTON AVENUE, INDIANAPOLIS, IN, 46218","Match","Exact","3320 N ARLINGTON AVE, INDIANAPOLIS, IN, 46218",108002027,"L"
176301,"3320 N LAKEHARBOR LN - APT F-206","BOISE","ID",83703,43.650258728,-116.252750168,301,"3320 N LAKEHARBOR LN - APT F-206, BOISE, ID, 83703","Match","Non_Exact","3320 N LAKEHARBOR LN, BOISE, ID, 83703",648301837,"R"
176302,"3320 N LEAVITT ST","CHICAGO","IL",60618,41.941678537,-87.68326365,302,"3320 N LEAVITT ST, CHICAGO, IL, 60618","Match","Exact","3320 N LEAVITT ST, CHICAGO, IL, 60618",605236016,"L"
176303,"3320 NW 18TH STREET","LAUDERHILL","FL",33311,26.148853123,-80.1920831479999,303,"3320 NW 18TH STREET, LAUDERHILL, FL, 33311","Match","Exact","3320 NW 18TH ST, LAUDERHILL, FL, 33311",114709107,"L"
176304,"3320 OAK BROOK DR","WAXHAW","NC",28173,34.9614127850001,-80.7919293639999,304,"3320 OAK BROOK DR, WAXHAW, NC, 28173","Match","Exact","3320 OAK BROOK DR, WAXHAW, NC, 28173",627802672,"L"
176305,"3320 PANORAMA RD 3","RIVERSIDE","CA",92506,33.9642743420001,-117.38029996,305,"3320 PANORAMA RD 3, RIVERSIDE, CA, 92506","Match","Exact","3320 PANORAMA RD, RIVERSIDE, CA, 92506",194741759,"L"
176306,"3320 PLOWFIELD COURT","RICHMOND","VA",23223,37.5722849520001,-77.3756692429999,306,"3320 PLOWFIELD COURT, RICHMOND, VA, 23223","Match","Exact","3320 PLOWFIELD CT, RICHMOND, VA, 23223",106689479,"L"
176307,"3320 PROVINE RD","MCKINNEY","TX",75070,33.17853884,-96.666240558,307,"3320 PROVINE RD, MCKINNEY, TX, 75070","Match","Non_Exact","3320 PROVINE RD, MCKINNEY, TX, 75072",648356014,"L"
176308,"3320 S MONTANA AVENUE","CALDWELL","ID",83605,43.6400529520001,-116.683028706,308,"3320 S MONTANA AVENUE, CALDWELL, ID, 83605","Match","Exact","3320 S MONTANA AVE, CALDWELL, ID, 83605",122781101,"L"
176309,"3320 SE 36TH AVE","PORTLAND","OR",97202,45.4988901940001,-122.626207145,309,"3320 SE 36TH AVE, PORTLAND, OR, 97202","Match","Exact","3320 SE 36TH AVE, PORTLAND, OR, 97202",157510107,"L"
176310,"3320 SILAS CREEK PKWY STE 672 - 108","WINSTON SALEM","NC",27103,36.074013291,-80.2988161869999,310,"3320 SILAS CREEK PKWY STE 672 - 108, WINSTON SALEM, NC, 27103","Match","Non_Exact","3320 SILAS CREEK PKWY SW, WINSTON SALEM, NC, 27103",84648279,"L"
176311,"3320 SKYWAY DRIVE STE 807","OPELIKA","AL",36801,NA,NA,311,"3320 SKYWAY DRIVE STE 807, OPELIKA, AL, 36801","No_Match",NA,NA,NA,NA
176312,"3320 SOUTH PRICE RD","TEMPE","AZ",85282,33.392669787,-111.89201986,312,"3320 SOUTH PRICE RD, TEMPE, AZ, 85282","Match","Exact","3320 S PRICE RD, TEMPE, AZ, 85282",128233089,"R"
176313,"3320 ST PETERS CHURCH ROAD","WALDORF","MD",20601,NA,NA,313,"3320 ST PETERS CHURCH ROAD, WALDORF, MD, 20601","No_Match",NA,NA,NA,NA
176314,"3320 TIERRA YVETTE LANE","EL PASO","TX",79938,31.792404145,-106.243431928,314,"3320 TIERRA YVETTE LANE, EL PASO, TX, 79938","Match","Exact","3320 TIERRA YVETTE LN, EL PASO, TX, 79938",618952180,"R"
176315,"3320 TRIPLE MEADOW","SAN ANTONIO","TX",78263,29.3929416940001,-98.340233525,315,"3320 TRIPLE MEADOW, SAN ANTONIO, TX, 78263","Match","Exact","3320 TRIPLE MEADOW, SAN ANTONIO, TX, 78263",635868483,"R"
176316,"3320 TROUP HWY  STE 175","TYLER","TX",75701,32.3129798840001,-95.2750587909999,316,"3320 TROUP HWY  STE 175, TYLER, TX, 75701","Match","Exact","3320 TROUP HWY, TYLER, TX, 75701",141315415,"R"
176317,"3320 TROUP HWY STE 290 131694","TYLER","TX",75701,32.3129798840001,-95.2750587909999,317,"3320 TROUP HWY STE 290 131694, TYLER, TX, 75701","Match","Exact","3320 TROUP HWY, TYLER, TX, 75701",141315415,"R"
176318,"3320 UPLAND LANE","PORT ANGELES","WA",98362,48.095134597,-123.434271582,318,"3320 UPLAND LANE, PORT ANGELES, WA, 98362","Match","Non_Exact","3320 S UPLAND LN, PORT ANGELES, WA, 98362",625247169,"L"
176319,"3320 VARSITY LANE","FORT WAYNE","IN",46805,41.1063111980001,-85.097342711,319,"3320 VARSITY LANE, FORT WAYNE, IN, 46805","Match","Exact","3320 VARSITY LN, FORT WAYNE, IN, 46805",6380307,"R"
176320,"3320 WOODBURY HWY","MANCHESTER","TN",37355,35.5342706220001,-86.080422047,320,"3320 WOODBURY HWY, MANCHESTER, TN, 37355","Match","Exact","3320 WOODBURY HWY, MANCHESTER, TN, 37355",58242030,"R"
176321,"33202 157TH AVE","PLEASANT HILL","IL",62366,39.4850750310001,-90.909834915,321,"33202 157TH AVE, PLEASANT HILL, IL, 62366","Match","Exact","33202 157TH AVE, PLEASANT HILL, IL, 62366",610603308,"L"
176322,"33202 FOLKLORE WAY","CARY","NC",27519,35.847788769,-78.897774193,322,"33202 FOLKLORE WAY, CARY, NC, 27519","Match","Exact","33202 FOLKLORE WAY, CARY, NC, 27519",639452712,"L"
176323,"33204 MAGNOLIA CIRCLE","MAGNOLIA","TX",77354,30.2262565340001,-95.583829866,323,"33204 MAGNOLIA CIRCLE, MAGNOLIA, TX, 77354","Match","Exact","33204 MAGNOLIA CIR, MAGNOLIA, TX, 77354",79324906,"R"
176324,"33205 ROCKFORD DR","SOLON","OH",44139,41.404251673,-81.442023607,324,"33205 ROCKFORD DR, SOLON, OH, 44139","Match","Exact","33205 ROCKFORD DR, SOLON, OH, 44139",61136523,"L"
176325,"33206 EAST TRUMAN ROAD","GRAIN VALLEY","MO",64209,39.0647312070001,-94.191582409,325,"33206 EAST TRUMAN ROAD, GRAIN VALLEY, MO, 64209","Match","Non_Exact","33206 E TRUMAN RD, GRAIN VALLEY, MO, 64029",91479963,"R"
176326,"3321 13TH ST SE 5","WASHINGTON","DC",20032,38.8428914720001,-76.9885102699999,326,"3321 13TH ST SE 5, WASHINGTON, DC, 20032","Match","Exact","3321 13TH ST SE, WASHINGTON, DC, 20032",76232512,"R"
176327,"3321 16TH ST","SAN FRANCISCO","CA",94114,37.764596775,-122.427098373,327,"3321 16TH ST, SAN FRANCISCO, CA, 94114","Match","Exact","3321 16TH ST, SAN FRANCISCO, CA, 94114",652200856,"L"
176328,"3321 23RD STREET NE","HICKORY","NC",28601,35.7743056480001,-81.284751426,328,"3321 23RD STREET NE, HICKORY, NC, 28601","Match","Exact","3321 23RD ST NE, HICKORY, NC, 28601",45914136,"L"
176329,"3321 7TH STREET SE","WASHINGTON","DC",20032,38.840837036,-76.996915854,329,"3321 7TH STREET SE, WASHINGTON, DC, 20032","Match","Exact","3321 7TH ST SE, WASHINGTON, DC, 20032",76237438,"R"
176330,"3321 E BLACKBURN RD","MT VERNON","WA",98274,48.4064641890001,-122.302470631,330,"3321 E BLACKBURN RD, MT VERNON, WA, 98274","Match","Exact","3321 E BLACKBURN RD, MOUNT VERNON, WA, 98274",624598385,"L"
176331,"3321 FRANKLIN CT","MOBILE","AL",36618,30.759291811,-88.215510119,331,"3321 FRANKLIN CT, MOBILE, AL, 36618","Match","Exact","3321 FRANKLIN CT, MOBILE, AL, 36618",650450723,"R"
176332,"3321 GEORGIA AVENUE NW  UNIT 3361","WASHINGTON","DC",20010,38.931408047,-77.023561786,332,"3321 GEORGIA AVENUE NW  UNIT 3361, WASHINGTON, DC, 20010","Match","Exact","3321 GEORGIA AVE NW, WASHINGTON, DC, 20010",76224087,"R"
176333,"3321 GILL ROAD","MEMPHIS","TN",38109,35.057407271,-90.056928267,333,"3321 GILL ROAD, MEMPHIS, TN, 38109","Match","Exact","3321 GILL RD, MEMPHIS, TN, 38109",72909364,"R"
176334,"3321 GORTON RD","CORNING","NY",14830,42.1526761380001,-77.004812762,334,"3321 GORTON RD, CORNING, NY, 14830","Match","Exact","3321 GORTON RD, CORNING, NY, 14830",14719389,"L"
176335,"3321 NW 207TH ST","MIAMI GARDENS","FL",33056,25.964203803,-80.257057047,335,"3321 NW 207TH ST, MIAMI GARDENS, FL, 33056","Match","Exact","3321 NW 207TH ST, MIAMI GARDENS, FL, 33056",116025975,"R"
176336,"3321 NW 34TH TERRACE","LAUDERDALE LAKES","FL",33309,NA,NA,336,"3321 NW 34TH TERRACE, LAUDERDALE LAKES, FL, 33309","No_Match",NA,NA,NA,NA
176337,"3321 RIVULET RUN","FORT WAYNE","IN",46818,41.1962731190001,-85.187797078,337,"3321 RIVULET RUN, FORT WAYNE, IN, 46818","Match","Exact","3321 RIVULET RUN, FORT WAYNE, IN, 46818",6410312,"R"
176338,"3321 SCARLET OAK CT","FARMERS BRANCH","TX",75234,32.9493663220001,-96.864573245,338,"3321 SCARLET OAK CT, FARMERS BRANCH, TX, 75234","Match","Non_Exact","3321 SCARLET OAK, FARMERS BRANCH, TX, 75234",103209457,"L"
176339,"3321 SOUTH HOYT AVENUE","MUNCIE","IN",47302,40.163511966,-85.417543107,339,"3321 SOUTH HOYT AVENUE, MUNCIE, IN, 47302","Match","Exact","3321 S HOYT AVE, MUNCIE, IN, 47302",635551825,"R"
176340,"3321 SOUTH PARKVIEW AVE","SPRINGFIELD","MO",65804,37.1518965990001,-93.234010155,340,"3321 SOUTH PARKVIEW AVE, SPRINGFIELD, MO, 65804","Match","Exact","3321 S PARKVIEW AVE, SPRINGFIELD, MO, 65804",636268741,"R"
176341,"3321 SW KESSLER DRIVE UNIT 7002","LEES SUMMIT","MO",64081,38.9087157450001,-94.448279761,341,"3321 SW KESSLER DRIVE UNIT 7002, LEES SUMMIT, MO, 64081","Match","Non_Exact","3321 SW KESSLER DR, LEES SUMMIT, MO, 64081",633573018,"R"
176342,"3321 TEAL SUNSET ST","LAS VEGAS","NV",89129,36.2212279140001,-115.319217259,342,"3321 TEAL SUNSET ST, LAS VEGAS, NV, 89129","Match","Exact","3321 TEAL SUNSET ST, LAS VEGAS, NV, 89129",201958838,"R"
176343,"3321 TIDEWATER COURT","OLNEY","MD",20832,39.1569980680001,-77.067002276,343,"3321 TIDEWATER COURT, OLNEY, MD, 20832","Match","Exact","3321 TIDEWATER CT, OLNEY, MD, 20832",647257616,"L"
176344,"3321 TULIP DRIVE","HAZEL CREST","IL",60429,41.5813204820001,-87.697557791,344,"3321 TULIP DRIVE, HAZEL CREST, IL, 60429","Match","Exact","3321 TULIP DR, HAZEL CREST, IL, 60429",111704961,"L"
176345,"3321 WEST 81ST STREET","INGLEWOOD","CA",90305,33.9654499760001,-118.329049096,345,"3321 WEST 81ST STREET, INGLEWOOD, CA, 90305","Match","Exact","3321 W 81ST ST, INGLEWOOD, CA, 90305",142750683,"R"
176346,"3321 WINCHESTER ROAD","LEXINGTON","KY",40509,38.0356310760001,-84.386486594,346,"3321 WINCHESTER ROAD, LEXINGTON, KY, 40509","Match","Exact","3321 WINCHESTER RD, LEXINGTON, KY, 40509",636245548,"L"
176347,"33210 LAKELAND BLVD","EASTLAKE","OH",44095,41.627651245,-81.452289691,347,"33210 LAKELAND BLVD, EASTLAKE, OH, 44095","Match","Exact","33210 LAKELAND BLVD, EASTLAKE, OH, 44095",137460165,"R"
176348,"33214 N FINDLEY RD","DEER PARK","WA",99006,47.9576320560001,-117.358815148,348,"33214 N FINDLEY RD, DEER PARK, WA, 99006","Match","Exact","33214 N FINDLEY RD, DEER PARK, WA, 99006",189849894,"R"
176349,"3321AVE I","BROOKLYN","NY",11210,NA,NA,349,"3321AVE I, BROOKLYN, NY, 11210","No_Match",NA,NA,NA,NA
176350,"3322 19TH AVE SE","PUYALLUP","CA",98372,NA,NA,350,"3322 19TH AVE SE, PUYALLUP, CA, 98372","No_Match",NA,NA,NA,NA
176351,"3322 CALHOUN STREET","NEW ORLEANS","LA",70125,29.9486450810001,-90.112488797,351,"3322 CALHOUN STREET, NEW ORLEANS, LA, 70125","Match","Exact","3322 CALHOUN ST, NEW ORLEANS, LA, 70125",191701996,"L"
176352,"3322 CASTLEDALE DRIVE","SAN ANTONIO","TX",78230,29.525791661,-98.5518475809999,352,"3322 CASTLEDALE DRIVE, SAN ANTONIO, TX, 78230","Match","Non_Exact","3322 CASTLEDALE ST, SAN ANTONIO, TX, 78230",101493011,"L"
176353,"3322 CHICAGO RD","PAW PAW","IL",61353,41.6918012570001,-88.992517573,353,"3322 CHICAGO RD, PAW PAW, IL, 61353","Match","Exact","3322 CHICAGO RD, PAW PAW, IL, 61353",635506095,"R"
176354,"3322 COORS BLVD SUITE 5","ALBUQUERQUE","NM",87120,NA,NA,354,"3322 COORS BLVD SUITE 5, ALBUQUERQUE, NM, 87120","No_Match",NA,NA,NA,NA
176355,"3322 DE REIMER AVENUE  APT 3","BRONX","NY",10473,NA,NA,355,"3322 DE REIMER AVENUE  APT 3, BRONX, NY, 10473","No_Match",NA,NA,NA,NA
176356,"3322 E 1ST AVENUE","DENVER","CO",80206,39.7178280380001,-104.948254808,356,"3322 E 1ST AVENUE, DENVER, CO, 80206","Match","Exact","3322 E 1ST AVE, DENVER, CO, 80206",177338614,"R"
176357,"3322 FRANCIS ST","HONOLULU","HI",96815,21.274147063,-157.809830857,357,"3322 FRANCIS ST, HONOLULU, HI, 96815","Match","Exact","3322 FRANCIS ST, HONOLULU, HI, 96815",203242361,"L"
176358,"3322 GLENMORE DRIVE","FALLS CHURCH","VA",22041,38.8550647230001,-77.143722897,358,"3322 GLENMORE DRIVE, FALLS CHURCH, VA, 22041","Match","Exact","3322 GLENMORE DR, FALLS CHURCH, VA, 22041",75981739,"R"
176359,"3322 GRAND PRAIRIE","KALAMAZOO","MI",49006,42.310657577,-85.631382227,359,"3322 GRAND PRAIRIE, KALAMAZOO, MI, 49006","Match","Non_Exact","3322 GRAND PRAIRIE RD, KALAMAZOO, MI, 49006",627807981,"R"
176360,"3322 HEATHER HILL DRIVE","GARLAND","TX",75044,32.9754118920001,-96.679406302,360,"3322 HEATHER HILL DRIVE, GARLAND, TX, 75044","Match","Exact","3322 HEATHER HILL DR, GARLAND, TX, 75044",102988814,"L"
176361,"3322 HOLLY BRANCH CT APT 484","SACRAMENTO","CA",95834,38.627985488,-121.506089765,361,"3322 HOLLY BRANCH CT APT 484, SACRAMENTO, CA, 95834","Match","Exact","3322 HOLLY BRANCH CT, SACRAMENTO, CA, 95834",133319308,"R"
176362,"3322 MAHOGANY POINTE LOOP","LAKELAND","FL",33810,28.1449748150001,-82.0141002,362,"3322 MAHOGANY POINTE LOOP, LAKELAND, FL, 33810","Match","Exact","3322 MAHOGANY POINTE LP, LAKELAND, FL, 33810",651569579,"L"
176363,"3322 MAINE STREET","QUINCY","IL",62301,39.931600431,-91.3624190209999,363,"3322 MAINE STREET, QUINCY, IL, 62301","Match","Exact","3322 MAINE ST, QUINCY, IL, 62301",35097224,"R"
176364,"3322 MEDINAH CT","SUGAR LAND","TX",77479,29.56565662,-95.626681487,364,"3322 MEDINAH CT, SUGAR LAND, TX, 77479","Match","Exact","3322 MEDINAH CT, SUGAR LAND, TX, 77479",78288402,"L"
176365,"3322 MERCURY LN","LAS CRUCES","NM",88012,32.3586896890001,-106.765248638,365,"3322 MERCURY LN, LAS CRUCES, NM, 88012","Match","Exact","3322 MERCURY LN, LAS CRUCES, NM, 88012",189542422,"R"
176366,"3322 MORGAN AVE","LOS ANGELES","CA",90011,34.010731659,-118.244905693,366,"3322 MORGAN AVE, LOS ANGELES, CA, 90011","Match","Exact","3322 MORGAN AVE, LOS ANGELES, CA, 90011",141621206,"L"
176367,"3322 N 23RD ST","MILWAUKEE","WI",53206,43.0793907290001,-87.941054251,367,"3322 N 23RD ST, MILWAUKEE, WI, 53206","Match","Exact","3322 N 23RD ST, MILWAUKEE, WI, 53206",77738265,"R"
176368,"3322 NEEDVILLE AVE","NEEDVILLE","TX",77461,29.401533231,-95.8428226679999,368,"3322 NEEDVILLE AVE, NEEDVILLE, TX, 77461","Match","Exact","3322 NEEDVILLE AVE, NEEDVILLE, TX, 77461",78273084,"L"
176369,"3322 PRIMROSE CANYON LN","PEARLAND","TX",77584,29.5482097610001,-95.433336157,369,"3322 PRIMROSE CANYON LN, PEARLAND, TX, 77584","Match","Exact","3322 PRIMROSE CANYON LN, PEARLAND, TX, 77584",651165520,"R"
176370,"3322 PYRAMID WAY","MOUNTAIN VIEW","CA",94043,37.3915063470001,-122.056779282,370,"3322 PYRAMID WAY, MOUNTAIN VIEW, CA, 94043","Match","Exact","3322 PYRAMID WAY, MOUNTAIN VIEW, CA, 94043",652063189,"R"
176371,"3322 RANCHO FAMOSA","CARLSBAD","CA",92009,33.129581452,-117.232966776,371,"3322 RANCHO FAMOSA, CARLSBAD, CA, 92009","Match","Exact","3322 RANCHO FAMOSA, CARLSBAD, CA, 92009",195455325,"L"
176372,"3322 ROOSEVELT ROAD","KENOSHA","WI",53142,42.569870704,-87.848887519,372,"3322 ROOSEVELT ROAD, KENOSHA, WI, 53142","Match","Exact","3322 ROOSEVELT RD, KENOSHA, WI, 53142",79799925,"R"
176373,"3322 S CAMPBELL SUITE PANDQ","SPRINGFIELD","MO",65807,NA,NA,373,"3322 S CAMPBELL SUITE PANDQ, SPRINGFIELD, MO, 65807","No_Match",NA,NA,NA,NA
176374,"3322 SAINT CHARLES ROAD","COLUMBIA","MO",65201,38.9487878780001,-92.2883492509999,374,"3322 SAINT CHARLES ROAD, COLUMBIA, MO, 65201","Match","Non_Exact","3322 E SAINT CHARLES RD, COLUMBIA, MO, 65201",617532021,"R"
176375,"3322 SE 18TH PLACE","CAPE CORAL","FL",33904,26.590974085,-81.9357827379999,375,"3322 SE 18TH PLACE, CAPE CORAL, FL, 33904","Match","Exact","3322 SE 18TH PL, CAPE CORAL, FL, 33904",118089161,"R"
176376,"3322 SOUTH FORK RD","CODY","WY",82414,44.231777757,-109.531428222,376,"3322 SOUTH FORK RD, CODY, WY, 82414","Match","Non_Exact","3322 SOUTHFORK RD, CODY, WY, 82414",149188141,"R"
176377,"3322 SWEETWATER SPRINGS BLVD STE104","SPRING VALLEY","CA",91977,32.737279394,-116.971889446,377,"3322 SWEETWATER SPRINGS BLVD STE104, SPRING VALLEY, CA, 91977","Match","Exact","3322 SWEETWATER SPRINGS BLVD, SPRING VALLEY, CA, 91977",645305811,"L"
176378,"3322 W 16TH ST STE 22125","INDIANAPOLIS","IN",46222,39.7878424520001,-86.2145443539999,378,"3322 W 16TH ST STE 22125, INDIANAPOLIS, IN, 46222","Match","Non_Exact","3322 W 16TH ST, INDIANAPOLIS, IN, 46222",107985923,"R"
176379,"3322 W 16TH STREET   STE 22125","INDIANAPOLIS","IN",46222,NA,NA,379,"3322 W 16TH STREET   STE 22125, INDIANAPOLIS, IN, 46222","No_Match",NA,NA,NA,NA
176380,"3322 W LEXINGTON CT","PEORIA","IL",61615,40.7385330320001,-89.646024653,380,"3322 W LEXINGTON CT, PEORIA, IL, 61615","Match","Exact","3322 LEXINGTON CT, PEORIA, IL, 61615",8726195,"L"
176381,"3322 W SOUTH STREET","ORLANDO","FL",32805,28.5380728280001,-81.41845768,381,"3322 W SOUTH STREET, ORLANDO, FL, 32805","Match","Exact","3322 W SOUTH ST, ORLANDO, FL, 32805",94273772,"L"
176382,"3322 WEST 16TH STREET - UNIT 22702","INDIANAPOLIS","IN",46222,NA,NA,382,"3322 WEST 16TH STREET - UNIT 22702, INDIANAPOLIS, IN, 46222","No_Match",NA,NA,NA,NA
176383,"3322 WEST HEIMER STREET","SHREVEPORT","LA",71103,32.509981254,-93.790216437,383,"3322 WEST HEIMER STREET, SHREVEPORT, LA, 71103","Match","Non_Exact","3322 WESTHEIMER ST, SHREVEPORT, LA, 71103",57434642,"R"
176384,"3322 WEST SOUTH STREET","ORLANDO","FL",32805,28.538072976,-81.4184497539999,384,"3322 WEST SOUTH STREET, ORLANDO, FL, 32805","Match","Exact","3322 W SOUTH ST, ORLANDO, FL, 32805",94273772,"L"
176385,"3322","HOUSTON","TX",77021,NA,NA,385,"3322, HOUSTON, TX, 77021","No_Match",NA,NA,NA,NA
176386,"33222 ROCHEN RD","WALLER","TX",77484,29.986769623,-95.967092803,386,"33222 ROCHEN RD, WALLER, TX, 77484","Match","Exact","33222 ROCHEN RD, WALLER, TX, 77484",78353956,"R"
176387,"3323 198TH PL SE","BOTHELL","WA",98012,47.817488188,-122.188223639,387,"3323 198TH PL SE, BOTHELL, WA, 98012","Match","Exact","3323 198TH PL SE, BOTHELL, WA, 98012",187762898,"L"
176388,"3323 ALTAMONT ROAD","CLEVELAND HEIGHTS","OH",44118,41.511506637,-81.5607789109999,388,"3323 ALTAMONT ROAD, CLEVELAND HEIGHTS, OH, 44118","Match","Exact","3323 ALTAMONT RD, CLEVELAND HEIGHTS, OH, 44118",61123203,"L"
176389,"3323 ARTESIA BLVD APT 15","TORRANCE","CA",90504,33.8729272840001,-118.331172654,389,"3323 ARTESIA BLVD APT 15, TORRANCE, CA, 90504","Match","Exact","3323 ARTESIA BLVD, TORRANCE, CA, 90504",615107768,"R"
176390,"3323 BEMISS RD STE H","VALDOSTA","GA",31605,30.886408363,-83.2720760399999,390,"3323 BEMISS RD STE H, VALDOSTA, GA, 31605","Match","Exact","3323 BEMISS RD, VALDOSTA, GA, 31605",87726474,"R"
176391,"3323 BOONEVILLE LAKE WAY","GREENWOOD","AR",72936,35.1649737930001,-94.052573325,391,"3323 BOONEVILLE LAKE WAY, GREENWOOD, AR, 72936","Match","Exact","3323 BOONEVILLE LAKE WAY, GREENWOOD, AR, 72936",56160123,"L"
176392,"3323 BOTTLEBRUSH CT","KISSIMMEE","FL",34746,28.228817598,-81.4455333659999,392,"3323 BOTTLEBRUSH CT, KISSIMMEE, FL, 34746","Match","Exact","3323 BOTTLEBRUSH CT, KISSIMMEE, FL, 34746",176679755,"R"
176393,"3323 BUCKINGHAM DR","WICHITA FALLS","TX",76310,33.877179862,-98.570196572,393,"3323 BUCKINGHAM DR, WICHITA FALLS, TX, 76310","Match","Exact","3323 BUCKINGHAM DR, WICHITA FALLS, TX, 76310",169858487,"R"
176394,"3323 CAMBRIDGE COURT","NAPA","CA",94558,38.3148022140001,-122.331337645,394,"3323 CAMBRIDGE COURT, NAPA, CA, 94558","Match","Exact","3323 CAMBRIDGE CT, NAPA, CA, 94558",67425539,"R"
176395,"3323 CENTRALIA ST","LAKEWOOD","CA",90712,33.842459289,-118.153474449,395,"3323 CENTRALIA ST, LAKEWOOD, CA, 90712","Match","Exact","3323 CENTRALIA ST, LAKEWOOD, CA, 90712",642861263,"L"
176396,"3323 CLIFTON AVE","HIGHLAND","CA",92346,34.127125956,-117.214665977,396,"3323 CLIFTON AVE, HIGHLAND, CA, 92346","Match","Non_Exact","3323 E CLIFTON AVE, HIGHLAND, CA, 92346",144661701,"R"
176397,"3323 COUNTY RD NO 645","CAPE GIRARDEAU","MO",63701,NA,NA,397,"3323 COUNTY RD NO 645, CAPE GIRARDEAU, MO, 63701","No_Match",NA,NA,NA,NA
176398,"3323 DIVISION ST","KNOXVILLE","TN",37919,35.9552801940001,-83.96099371,398,"3323 DIVISION ST, KNOXVILLE, TN, 37919","Match","Exact","3323 DIVISION ST, KNOXVILLE, TN, 37919",645571303,"R"
176399,"3323 EMMET STREET","OMAHA","NE",68111,41.289571847,-95.961942048,399,"3323 EMMET STREET, OMAHA, NE, 68111","Match","Exact","3323 EMMET ST, OMAHA, NE, 68111",116979909,"L"
176400,"3323 GLACIER LAKE","SAN ANTONIO","TX",78222,29.3848324300001,-98.37092548,400,"3323 GLACIER LAKE, SAN ANTONIO, TX, 78222","Match","Exact","3323 GLACIER LAKE, SAN ANTONIO, TX, 78222",101686138,"L"
176401,"3323 HWY 24","NEWPORT","NC",28570,34.7215052240001,-76.95052831,401,"3323 HWY 24, NEWPORT, NC, 28570","Match","Non_Exact","3323 STATE HWY 24, NEWPORT, NC, 28570",627958415,"R"
176402,"3323 HWY 76","COTTONTOWN","TN",37048,36.51022363,-86.57452951,402,"3323 HWY 76, COTTONTOWN, TN, 37048","Match","Non_Exact","3323 STATE RTE 76, COTTONTOWN, TN, 37048",29770112,"R"
176403,"3323 LEGENDS SHADOW DR","SPRING","TX",77386,30.119395164,-95.388702539,403,"3323 LEGENDS SHADOW DR, SPRING, TX, 77386","Match","Exact","3323 LEGENDS SHADOW DR, SPRING, TX, 77386",616149235,"R"
176404,"3323 LEXINGTON ROAD","LOUISVILLE","KY",40206,38.2491734710001,-85.669608437,404,"3323 LEXINGTON ROAD, LOUISVILLE, KY, 40206","Match","Exact","3323 LEXINGTON RD, LOUISVILLE, KY, 40206",96852433,"L"
176405,"3323 MCCUE APT 1013","HOUSTON","TX",77056,29.7299602840001,-95.464157911,405,"3323 MCCUE APT 1013, HOUSTON, TX, 77056","Match","Non_Exact","3323 MCCUE RD, HOUSTON, TX, 77056",641939097,"L"
176406,"3323 MCCUE RD APT  2031","HOUSTON","TX",77056,29.7299602840001,-95.464157911,406,"3323 MCCUE RD APT  2031, HOUSTON, TX, 77056","Match","Exact","3323 MCCUE RD, HOUSTON, TX, 77056",641939097,"L"
176407,"3323 MONTEITH AVENUE","CINCINNATI","OH",45208,39.136260539,-84.437516402,407,"3323 MONTEITH AVENUE, CINCINNATI, OH, 45208","Match","Exact","3323 MONTEITH AVE, CINCINNATI, OH, 45208",103931268,"L"
176408,"3323 N 18TH","TACOMA","WA",98406,47.265475069,-122.47987981,408,"3323 N 18TH, TACOMA, WA, 98406","Match","Non_Exact","3323 N 18TH ST, TACOMA, WA, 98406",184645126,"R"
176409,"3323 OSCAR DR","MATTHEWS","NC",28105,35.135890659,-80.687894178,409,"3323 OSCAR DR, MATTHEWS, NC, 28105","Match","Exact","3323 OSCAR DR, MATTHEWS, NC, 28105",637656619,"L"
176410,"3323 ROSE TRACE DR","SPRING","TX",77386,30.1381993730001,-95.391395495,410,"3323 ROSE TRACE DR, SPRING, TX, 77386","Match","Exact","3323 ROSE TRACE DR, SPRING, TX, 77386",627734537,"R"
176411,"3323 SAGE STREET","WAYCROSS","GA",31503,31.253519098,-82.380559658,411,"3323 SAGE STREET, WAYCROSS, GA, 31503","Match","Exact","3323 SAGE ST, WAYCROSS, GA, 31503",5244880,"R"
176412,"3323 SCHOOLHOUSE RD","HARMONY","FL",34773,28.2025118230001,-81.14966408,412,"3323 SCHOOLHOUSE RD, HARMONY, FL, 34773","Match","Exact","3323 SCHOOLHOUSE RD, HARMONY, FL, 34773",627967238,"L"
176413,"3323 SHALE DRIVE","TWINSBURG","OH",44087,41.3377644620001,-81.4160817169999,413,"3323 SHALE DRIVE, TWINSBURG, OH, 44087","Match","Exact","3323 SHALE DR, TWINSBURG, OH, 44087",630333763,"L"
176414,"3323 SOUTHDOWN DRIVE","PEARLAND","TX",77584,29.5750724850001,-95.3690787099999,414,"3323 SOUTHDOWN DRIVE, PEARLAND, TX, 77584","Match","Exact","3323 SOUTHDOWN DR, PEARLAND, TX, 77584",650805146,"R"
176415,"3323 TREE GROVE DRIVE","SAN ANTONIO","TX",78247,29.570917797,-98.428517248,415,"3323 TREE GROVE DRIVE, SAN ANTONIO, TX, 78247","Match","Exact","3323 TREE GROVE DR, SAN ANTONIO, TX, 78247",101546476,"L"
176416,"3323 W 1350 N","MACY","IN",46951,40.960425349,-86.136491103,416,"3323 W 1350 N, MACY, IN, 46951","Match","Exact","3323 W 1350 N, MACY, IN, 46951",106388664,"R"
176417,"3323 W MOBILE ST","BROKEN ARROW","OK",74011,35.970699133,-95.8291079369999,417,"3323 W MOBILE ST, BROKEN ARROW, OK, 74011","Match","Exact","3323 W MOBILE ST, BROKEN ARROW, OK, 74011",166499949,"L"
176418,"3323 W PARIS ST","TAMPA","FL",33614,28.0038141540001,-82.498870126,418,"3323 W PARIS ST, TAMPA, FL, 33614","Match","Exact","3323 W PARIS ST, TAMPA, FL, 33614",104656475,"R"
176419,"3323 WOODROW AVE","RICHMOND","VA",23222,37.578421931,-77.431787755,419,"3323 WOODROW AVE, RICHMOND, VA, 23222","Match","Exact","3323 WOODROW AVE, RICHMOND, VA, 23222",201539589,"R"
176420,"3323-E14 NORTH KEY DR","NORTH FORT MYERS","FL",33903,NA,NA,420,"3323-E14 NORTH KEY DR, NORTH FORT MYERS, FL, 33903","No_Match",NA,NA,NA,NA
176421,"33233 FAIRPORT DRIVE","AVON LAKE","OH",44012,41.489046194,-82.038003594,421,"33233 FAIRPORT DRIVE, AVON LAKE, OH, 44012","Match","Exact","33233 FAIRPORT DR, AVON LAKE, OH, 44012",617723961,"R"
176422,"33233 SHOCKEY TRUCK TRAIL","CAMPO","CA",91906,32.6313547940001,-116.432684982,422,"33233 SHOCKEY TRUCK TRAIL, CAMPO, CA, 91906","Match","Exact","33233 SHOCKEY TRUCK TRL, CAMPO, CA, 91906",195269456,"L"
176423,"33233 WOODWARD AVE","BIRMINGHAM","MI",48009,42.5331205730001,-83.201116481,423,"33233 WOODWARD AVE, BIRMINGHAM, MI, 48009","Match","Exact","33233 WOODWARD AVE, BIRMINGHAM, MI, 48009",69822988,"L"
176424,"3324 186TH STREET","LANSING","IL",60438,41.5575381470001,-87.53553834,424,"3324 186TH STREET, LANSING, IL, 60438","Match","Exact","3324 186TH ST, LANSING, IL, 60438",111786649,"L"
176425,"3324 18TH ST NW UNIT 11","WASHINGTON","DC",20010,38.932892361,-77.041298422,425,"3324 18TH ST NW UNIT 11, WASHINGTON, DC, 20010","Match","Exact","3324 18TH ST NW, WASHINGTON, DC, 20010",76222816,"L"
176426,"3324 45TH STREET","SACRAMENTO","CA",95820,38.544346713,-121.454451666,426,"3324 45TH STREET, SACRAMENTO, CA, 95820","Match","Exact","3324 45TH ST, SACRAMENTO, CA, 95820",133327206,"R"
176427,"3324 77TH STREET APT 5H","JACKSON HEIGHTS","NY",11372,NA,NA,427,"3324 77TH STREET APT 5H, JACKSON HEIGHTS, NY, 11372","No_Match",NA,NA,NA,NA
176428,"3324 APPIAN DRIVE","KENNER","LA",70065,30.0174947830001,-90.256268905,428,"3324 APPIAN DRIVE, KENNER, LA, 70065","Match","Exact","3324 APPIAN DR, KENNER, LA, 70065",93530563,"R"
176429,"3324 E RAY ROAD   UNIT 683","HIGLEY","AZ",85236,NA,NA,429,"3324 E RAY ROAD   UNIT 683, HIGLEY, AZ, 85236","No_Match",NA,NA,NA,NA
176430,"3324 E RAY ROAD UNIT 1151","HIGLEY","AZ",85236,NA,NA,430,"3324 E RAY ROAD UNIT 1151, HIGLEY, AZ, 85236","No_Match",NA,NA,NA,NA
176431,"3324 GRIFFIN ROAD","FORT LAUDERDALE","FL",33312,26.0622825670001,-80.187777384,431,"3324 GRIFFIN ROAD, FORT LAUDERDALE, FL, 33312","Match","Exact","3324 GRIFFIN RD, FORT LAUDERDALE, FL, 33312",646952807,"R"
176432,"3324 IDLEWOOD TERRACE","ROCKFORD","IL",61101,42.3086081180001,-89.0999585879999,432,"3324 IDLEWOOD TERRACE, ROCKFORD, IL, 61101","Match","Exact","3324 IDLEWOOD TER, ROCKFORD, IL, 61101",49250887,"L"
176433,"3324 N WOODRIDGE RD","MOUNTAIN BRK","AL",35223,33.479897308,-86.733174247,433,"3324 N WOODRIDGE RD, MOUNTAIN BRK, AL, 35223","Match","Exact","3324 N WOODRIDGE RD, MOUNTAIN BRK, AL, 35223",81588909,"L"
176434,"3324 NE 34TH ST UNIT 480820","FT LAUDERDALE","FL",33348,NA,NA,434,"3324 NE 34TH ST UNIT 480820, FT LAUDERDALE, FL, 33348","No_Match",NA,NA,NA,NA
176435,"3324 OLD TREE ROAD","DENTON","NC",27239,35.6662018640001,-80.050142407,435,"3324 OLD TREE ROAD, DENTON, NC, 27239","Match","Exact","3324 OLD TREE RD, DENTON, NC, 27239",20449828,"R"
176436,"3324 PACHAPPA HILL","RIVERSIDE","CA",92506,NA,NA,436,"3324 PACHAPPA HILL, RIVERSIDE, CA, 92506","Tie",NA,NA,NA,NA
176437,"3324 PARKWOOD DRIVE","HOUSTON","TX",77021,29.7076916990001,-95.3705508209999,437,"3324 PARKWOOD DRIVE, HOUSTON, TX, 77021","Match","Exact","3324 PARKWOOD DR, HOUSTON, TX, 77021",96072520,"R"
176438,"3324 PEACHTREE ROAD NE UNIT 1718","ATLANTA","GA",30326,33.8488635210001,-84.365985662,438,"3324 PEACHTREE ROAD NE UNIT 1718, ATLANTA, GA, 30326","Match","Exact","3324 PEACHTREE RD NE, ATLANTA, GA, 30326",650072859,"L"
176439,"3324 PEACHTREE ROAD NE","ATLANTA","GA",30326,33.8488635210001,-84.365985662,439,"3324 PEACHTREE ROAD NE, ATLANTA, GA, 30326","Match","Exact","3324 PEACHTREE RD NE, ATLANTA, GA, 30326",650072859,"L"
176440,"3324 PEACHTREE ROAD UNIT 2402","ATLANTA","GA",30326,33.8488635210001,-84.365985662,440,"3324 PEACHTREE ROAD UNIT 2402, ATLANTA, GA, 30326","Match","Non_Exact","3324 PEACHTREE RD NE, ATLANTA, GA, 30326",650072859,"L"
176441,"3324 POPPYPATCH DRIVE","MODESTO","CA",95354,37.6425728630001,-120.932470634,441,"3324 POPPYPATCH DRIVE, MODESTO, CA, 95354","Match","Exact","3324 POPPYPATCH DR, MODESTO, CA, 95354",102622264,"R"
176442,"3324 SW 11TH PL","CAPE CORAL","FL",33914,26.589694792,-81.9981195999999,442,"3324 SW 11TH PL, CAPE CORAL, FL, 33914","Match","Exact","3324 SW 11TH PL, CAPE CORAL, FL, 33914",118011507,"R"
176443,"3324 TIMBERLAKE ROAD","RALEIGH","NC",27604,35.804962618,-78.5878570739999,443,"3324 TIMBERLAKE ROAD, RALEIGH, NC, 27604","Match","Exact","3324 TIMBERLAKE RD, RALEIGH, NC, 27604",72538285,"R"
176444,"3324 W 6TH ST STE J","LOS ANGELES","CA",90020,34.0635944910001,-118.294488815,444,"3324 W 6TH ST STE J, LOS ANGELES, CA, 90020","Match","Non_Exact","3324 W 6TH ST, LOS ANGELES, CA, 90020",141604947,"L"
176445,"3324 W UNIVERSITY AVE NUM 280","GAINESVILLE","FL",32607,29.652235166,-82.3714254019999,445,"3324 W UNIVERSITY AVE NUM 280, GAINESVILLE, FL, 32607","Match","Non_Exact","3324 W UNIVERSITY AVE, GAINESVILLE, FL, 32607",637954659,"R"
176446,"3324 WASHINGTON AVENUE","BATON ROUGE","LA",70802,30.4650817830001,-91.156131146,446,"3324 WASHINGTON AVENUE, BATON ROUGE, LA, 70802","Match","Exact","3324 WASHINGTON AVE, BATON ROUGE, LA, 70802",606171797,"R"
176447,"3324 WUNDER AVE","CINCINNATI","OH",45211,39.1470820750001,-84.592534873,447,"3324 WUNDER AVE, CINCINNATI, OH, 45211","Match","Exact","3324 WUNDER AVE, CINCINNATI, OH, 45211",103917711,"R"
176448,"33243 CYPRESS BEND DRIVE","WESLEY CHAPEL","FL",33545,28.260183006,-82.266575959,448,"33243 CYPRESS BEND DRIVE, WESLEY CHAPEL, FL, 33545","Match","Exact","33243 CYPRESS BEND DR, WESLEY CHAPEL, FL, 33545",646843170,"L"
176449,"33247 CR 129","LAMBERT","MT",59243,47.775354883,-104.540636962,449,"33247 CR 129, LAMBERT, MT, 59243","Match","Exact","33247 CO RD 129, LAMBERT, MT, 59243",645833570,"R"
176450,"33247 SW SEQUOIA ST","SCAPPOOSE","OR",97056,NA,NA,450,"33247 SW SEQUOIA ST, SCAPPOOSE, OR, 97056","No_Match",NA,NA,NA,NA
176451,"3325 1/2 NORTH HIGH STREET SS","COLUMBUS","OH",43202,40.030003037,-83.0154456669999,451,"3325 1/2 NORTH HIGH STREET SS, COLUMBUS, OH, 43202","Match","Exact","3325 N HIGH ST, COLUMBUS, OH, 43202",135572959,"L"
176452,"3325 AGUSTINE CIRCLE","LAS VEGAS","NV",89117,36.130728022,-115.298621189,452,"3325 AGUSTINE CIRCLE, LAS VEGAS, NV, 89117","Match","Exact","3325 AGUSTINE CIR, LAS VEGAS, NV, 89117",201891691,"L"
176453,"3325 ARIEL JOSHUA COURT","SAN JOSE","CA",95135,37.315957858,-121.766588287,453,"3325 ARIEL JOSHUA COURT, SAN JOSE, CA, 95135","Match","Exact","3325 ARIEL JOSHUA CT, SAN JOSE, CA, 95135",627274697,"L"
176454,"3325 BESANA DRIVE","EL DORADO HILLS","CA",95762,38.6771988510001,-121.065971077,454,"3325 BESANA DRIVE, EL DORADO HILLS, CA, 95762","Match","Exact","3325 BESANA DR, EL DORADO HILLS, CA, 95762",133061573,"L"
176455,"3325 BRIDGE ST NW","ST FRANCIS","MN",55070,45.3870668980001,-93.350454137,455,"3325 BRIDGE ST NW, ST FRANCIS, MN, 55070","Match","Exact","3325 BRIDGE ST NW, SAINT FRANCIS, MN, 55070",97513495,"R"
176456,"3325 BRIDGE STREET NW","ST FRANCIS","MN",55070,45.3870668980001,-93.350454137,456,"3325 BRIDGE STREET NW, ST FRANCIS, MN, 55070","Match","Exact","3325 BRIDGE ST NW, SAINT FRANCIS, MN, 55070",97513495,"R"
176457,"3325 BUCKBOARD ROAD","MONTGOMERY","AL",36116,32.333625591,-86.224211308,457,"3325 BUCKBOARD ROAD, MONTGOMERY, AL, 36116","Match","Exact","3325 BUCKBOARD RD, MONTGOMERY, AL, 36116",1477005,"L"
176458,"3325 BUCKHEAD DR","VESTAVIA HILLS","AL",35216,33.412517361,-86.7792612439999,458,"3325 BUCKHEAD DR, VESTAVIA HILLS, AL, 35216","Match","Exact","3325 BUCKHEAD DR, VESTAVIA HILLS, AL, 35216",81645930,"L"
176459,"3325 BURNET AVE APT 1","SYRACUSE","NY",13206,43.0610252290001,-76.092247597,459,"3325 BURNET AVE APT 1, SYRACUSE, NY, 13206","Match","Exact","3325 BURNET AVE, SYRACUSE, NY, 13206",46573158,"L"
176460,"3325 CANADAY DRIVE","ANDERSON","IN",46013,40.0824413080001,-85.649676697,460,"3325 CANADAY DRIVE, ANDERSON, IN, 46013","Match","Exact","3325 CANADAY DR, ANDERSON, IN, 46013",31116545,"R"
176461,"3325 CHASSE RIDGE DR","ORANGE","TX",77632,30.159496372,-93.779958775,461,"3325 CHASSE RIDGE DR, ORANGE, TX, 77632","Match","Exact","3325 CHASSE RIDGE DR, ORANGE, TX, 77632",74018602,"L"
176462,"3325 CHEVERNY CIRCLE","SHREVEPORT","LA",71118,32.3837530710001,-93.8244516189999,462,"3325 CHEVERNY CIRCLE, SHREVEPORT, LA, 71118","Match","Exact","3325 CHEVERNY CIR, SHREVEPORT, LA, 71118",57432774,"L"
176463,"3325 CONTINENTAL DR","LANSING","MI",48911,42.6994991720001,-84.600734766,463,"3325 CONTINENTAL DR, LANSING, MI, 48911","Match","Exact","3325 CONTINENTAL DR, LANSING, MI, 48911",17496837,"L"
176464,"3325 COUNTY ROAD 7","BURDETT","NY",14818,42.3963257030001,-76.819455002,464,"3325 COUNTY ROAD 7, BURDETT, NY, 14818","Match","Exact","3325 CO RD 7, BURDETT, NY, 14818",18191277,"L"
176465,"3325 DEER RUN LN","MOSCOW MILLS","MO",63362,38.9744848670001,-90.814425941,465,"3325 DEER RUN LN, MOSCOW MILLS, MO, 63362","Match","Exact","3325 DEER RUN LN, MOSCOW MILLS, MO, 63362",44874973,"L"
176466,"3325 E TERRA ALTA BLVD","TUCSON","AZ",85716,32.2298678550001,-110.922406624,466,"3325 E TERRA ALTA BLVD, TUCSON, AZ, 85716","Match","Exact","3325 E TERRA ALTA BLVD, TUCSON, AZ, 85716",121175325,"L"
176467,"3325 FALCON ROAD","PROSPER","TX",75078,33.26643719,-96.7706959129999,467,"3325 FALCON ROAD, PROSPER, TX, 75078","Match","Exact","3325 FALCON RD, PROSPER, TX, 75078",210506696,"L"
176468,"3325 FASHION AVE","LONG BEACH","CA",90810,33.817611588,-118.208926291,468,"3325 FASHION AVE, LONG BEACH, CA, 90810","Match","Exact","3325 FASHION AVE, LONG BEACH, CA, 90810",141685049,"L"
176469,"3325 FM 102","EAGLE LAKE","TX",77434,29.601586137,-96.3460144969999,469,"3325 FM 102, EAGLE LAKE, TX, 77434","Match","Non_Exact","3325 HWY 102, EAGLE LAKE, TX, 77434",41188146,"R"
176470,"3325 FRANKLIN RD","BLOOMFIELD HILLS","MI",48302,42.5917449410001,-83.2869252359999,470,"3325 FRANKLIN RD, BLOOMFIELD HILLS, MI, 48302","Match","Exact","3325 FRANKLIN RD, BLOOMFIELD HILLS, MI, 48302",69814979,"L"
176471,"3325 GREENBUSH ROAD","CHARLOTTE","VT",5445,44.3049242050001,-73.255023305,471,"3325 GREENBUSH ROAD, CHARLOTTE, VT, 5445","Match","Exact","3325 GREENBUSH RD, CHARLOTTE, VT, 05445",650852453,"R"
176472,"3325 HEMPSTEAD PLACE","ST. CHARLES","MO",63301,NA,NA,472,"3325 HEMPSTEAD PLACE, ST. CHARLES, MO, 63301","No_Match",NA,NA,NA,NA
176473,"3325 HOLLYWOOD BOULEVARD SUITE 403","HOLLYWOOD","FL",33021,26.010806336,-80.174975619,473,"3325 HOLLYWOOD BOULEVARD SUITE 403, HOLLYWOOD, FL, 33021","Match","Exact","3325 HOLLYWOOD BLVD, HOLLYWOOD, FL, 33021",114786111,"R"
176474,"3325 HWY 29 NORTH","HOPE","AR",71801,NA,NA,474,"3325 HWY 29 NORTH, HOPE, AR, 71801","No_Match",NA,NA,NA,NA
176475,"3325 HWY 81","ANDERSON","SC",29621,34.58242419,-82.621343238,475,"3325 HWY 81, ANDERSON, SC, 29621","Match","Non_Exact","3325 HWY 81 N, ANDERSON, SC, 29621",25495075,"L"
176476,"3325 KIRBY PARKWAY SUITE 102","MEMPHIS","TN",38115,35.0578276590001,-89.8438944069999,476,"3325 KIRBY PARKWAY SUITE 102, MEMPHIS, TN, 38115","Match","Exact","3325 KIRBY PKWY, MEMPHIS, TN, 38115",607462126,"R"
176477,"3325 LONE BRAVE","FORT WORTH","TX",76244,32.9546057360001,-97.289959719,477,"3325 LONE BRAVE, FORT WORTH, TX, 76244","Match","Non_Exact","3325 LONE BRAVE DR, FORT WORTH, TX, 76244",619866385,"L"
176478,"3325 MARVIN SANDS DR","CANANDAIGUA","NY",14424,NA,NA,478,"3325 MARVIN SANDS DR, CANANDAIGUA, NY, 14424","No_Match",NA,NA,NA,NA
176479,"3325 MCLEOD DRIVE SUITE 100","LAS VEGAS","NV",89121,36.1292360910001,-115.109764665,479,"3325 MCLEOD DRIVE SUITE 100, LAS VEGAS, NV, 89121","Match","Non_Exact","3325 MC LEOD DR, LAS VEGAS, NV, 89121",201871778,"R"
176480,"3325 MICHIGAN AVENUE","DETROIT","MI",48216,42.3314373630001,-83.089439321,480,"3325 MICHIGAN AVENUE, DETROIT, MI, 48216","Match","Exact","3325 MICHIGAN AVE, DETROIT, MI, 48216",95478161,"L"
176481,"3325 N ARLINGTON HEIGHTS ROAD","ARLINGTON HEIGHTS","IL",60004,42.135614977,-87.9849414879999,481,"3325 N ARLINGTON HEIGHTS ROAD, ARLINGTON HEIGHTS, IL, 60004","Match","Exact","3325 N ARLINGTON HEIGHTS RD, ARLINGTON HEIGHTS, IL, 60004",111837408,"R"
176482,"3325 N GLENOAKS BLVD","BURBANK","CA",91504,34.2060525310001,-118.34034145,482,"3325 N GLENOAKS BLVD, BURBANK, CA, 91504","Match","Exact","3325 N GLENOAKS BLVD, BURBANK, CA, 91504",141587228,"L"
176483,"3325 PARK HILLS DRIVE","EUGENE","OR",97405,44.0352560870001,-123.137685786,483,"3325 PARK HILLS DRIVE, EUGENE, OR, 97405","Match","Exact","3325 PARK HILLS DR, EUGENE, OR, 97405",178221927,"L"
176484,"3325 PIEDMONT RD NE UNIT 2102","ATLANTA","GA",30305,33.8459488930001,-84.3725355879999,484,"3325 PIEDMONT RD NE UNIT 2102, ATLANTA, GA, 30305","Match","Exact","3325 PIEDMONT RD NE, ATLANTA, GA, 30305",609742342,"R"
176485,"3325 POND VIEW CT","FORT COLLINS","CO",80525,40.5303367920001,-105.0148252,485,"3325 POND VIEW CT, FORT COLLINS, CO, 80525","Match","Exact","3325 POND VIEW CT, FORT COLLINS, CO, 80525",641498661,"R"
176486,"3325 S 2350 E","SAINT GEORGE","UT",84790,37.052921418,-113.534886884,486,"3325 S 2350 E, SAINT GEORGE, UT, 84790","Match","Non_Exact","3325 S 2350 EAST ST, SAINT GEORGE, UT, 84790",642017035,"R"
176487,"3325 S CANFIELD AVE 106","LOS ANGELES","CA",90034,34.0308330440001,-118.394836605,487,"3325 S CANFIELD AVE 106, LOS ANGELES, CA, 90034","Match","Non_Exact","3325 S CANFIELD AVE, LOS ANGELES, CA, 90034",141574731,"R"
176488,"3325 S CLAYTON BLVD","ENGLEWOOD","CO",80113,39.6558168450001,-104.956043209,488,"3325 S CLAYTON BLVD, ENGLEWOOD, CO, 80113","Match","Exact","3325 S CLAYTON BLVD, ENGLEWOOD, CO, 80113",177340744,"R"
176489,"3325 SENN RD BLDG 55","SAN DIEGO","CA",92136,NA,NA,489,"3325 SENN RD BLDG 55, SAN DIEGO, CA, 92136","No_Match",NA,NA,NA,NA
176490,"3325 SHUTTEN STREET","SAINT CHARLES","MO",63301,38.83660021,-90.492517231,490,"3325 SHUTTEN STREET, SAINT CHARLES, MO, 63301","Match","Exact","3325 SHUTTEN ST, SAINT CHARLES, MO, 63301",605519447,"L"
176491,"3325 SOUTH AVENUE 8E","YUMA","AZ",85365,NA,NA,491,"3325 SOUTH AVENUE 8E, YUMA, AZ, 85365","No_Match",NA,NA,NA,NA
176492,"3325 W CUYLER AVE","CHICAGO","IL",60618,41.954831911,-87.7112013139999,492,"3325 W CUYLER AVE, CHICAGO, IL, 60618","Match","Exact","3325 W CUYLER AVE, CHICAGO, IL, 60618",111757084,"L"
176493,"3325 WASHBURN AVE STE 113","CHARLOTTE","NC",28205,35.2035258400001,-80.7999331349999,493,"3325 WASHBURN AVE STE 113, CHARLOTTE, NC, 28205","Match","Exact","3325 WASHBURN AVE, CHARLOTTE, NC, 28205",70488759,"L"
176494,"3325 WATER OAK STREET","HOLLYWOOD","FL",33312,26.052733102,-80.188392273,494,"3325 WATER OAK STREET, HOLLYWOOD, FL, 33312","Match","Non_Exact","3325 WATER OAK ST, FT LAUDERDALE, FL, 33312",114806185,"L"
176495,"3325 WEST 94TH AVENUE","WESTMINSTER","CO",80031,39.8677045900001,-105.029618447,495,"3325 WEST 94TH AVENUE, WESTMINSTER, CO, 80031","Match","Exact","3325 W 94TH AVE, WESTMINSTER, CO, 80031",177293910,"R"
176496,"3325 WEST DURANGO","PHOENIX","AZ",85009,33.4296626600001,-112.130819479,496,"3325 WEST DURANGO, PHOENIX, AZ, 85009","Match","Non_Exact","3325 W DURANGO ST, PHOENIX, AZ, 85009",638349110,"L"
176497,"3325 WILSHIRE BLVD STE 1310","LOS ANGELES","CA",90010,34.0617787350001,-118.295214729,497,"3325 WILSHIRE BLVD STE 1310, LOS ANGELES, CA, 90010","Match","Exact","3325 WILSHIRE BLVD, LOS ANGELES, CA, 90010",141604941,"R"
176498,"3325 WREN LANE","EAGAN","MN",55121,44.8413743450001,-93.118775262,498,"3325 WREN LANE, EAGAN, MN, 55121","Match","Exact","3325 WREN LN, EAGAN, MN, 55121",37909656,"R"
176499,"33251 BOARDWALK DR","SPANISH FORT","AL",36527,30.7169452100001,-87.89402745,499,"33251 BOARDWALK DR, SPANISH FORT, AL, 36527","Match","Exact","33251 BOARDWALK DR, SPANISH FORT, AL, 36527",648528423,"L"
176500,"33251 CHRISTINA DRIVE","DANA POINT","CA",92629,33.479957981,-117.699252708,500,"33251 CHRISTINA DRIVE, DANA POINT, CA, 92629","Match","Exact","33251 CHRISTINA DR, DANA POINT, CA, 92629",144072940,"R"
