"ID","Address","City","State","Zip","lat","long","id","input_address","match_indicator","match_type","matched_address","tiger_line_id","tiger_side"
144501,"2634 CALIFORNIA AVE STE A","SAINT LOUIS","MO",63118,38.6053715140001,-90.227610456,1,"2634 CALIFORNIA AVE STE A, SAINT LOUIS, MO, 63118","Match","Exact","2634 CALIFORNIA AVE, SAINT LOUIS, MO, 63118",107598691,"L"
144502,"2634 CALLE TETUAN VILLA DEL CARMEN","PONCE","PR",716,17.983494916,-66.600959441,2,"2634 CALLE TETUAN VILLA DEL CARMEN, PONCE, PR, 716","Match","Non_Exact","2634 CLL TETUAN, PONCE, PR, 00716",205142436,"L"
144503,"2634 DAVIS STREET","RALEIGH","NC",27608,35.8081912530001,-78.6572084909999,3,"2634 DAVIS STREET, RALEIGH, NC, 27608","Match","Exact","2634 DAVIS ST, RALEIGH, NC, 27608",72502592,"R"
144504,"2634 DURHAM CHAPEL HILL BLVD","DURHAM","NC",27707,35.9742644950001,-78.92977609,4,"2634 DURHAM CHAPEL HILL BLVD, DURHAM, NC, 27707","Match","Non_Exact","2634 DURHAM-CHAPEL HILL BLVD, DURHAM, NC, 27707",71739942,"R"
144505,"2634 E ALLEGHENY AVENUE","PHILADELPHIA","PA",19134,NA,NA,5,"2634 E ALLEGHENY AVENUE, PHILADELPHIA, PA, 19134","No_Match",NA,NA,NA,NA
144506,"2634 E LAKE BLVD APT 2-7","ROBINSONVILLE","MS",38664,34.857932437,-90.2414364109999,6,"2634 E LAKE BLVD APT 2-7, ROBINSONVILLE, MS, 38664","Match","Non_Exact","2634 E LAKE BLVD, ROBINSONVILLE, MS, 38664",121825542,"L"
144507,"2634 KIRK AVE","BALTIMORE","MD",21218,39.3213724930001,-76.5989150409999,7,"2634 KIRK AVE, BALTIMORE, MD, 21218","Match","Exact","2634 KIRK AVE, BALTIMORE, MD, 21218",206409435,"L"
144508,"2634 PROPUS WILKINSON RD","BULLOCK","NC",27507,36.5382141900001,-78.6432137959999,8,"2634 PROPUS WILKINSON RD, BULLOCK, NC, 27507","Match","Exact","2634 PROPUS WILKINSON RD, BULLOCK, NC, 27507",77115710,"L"
144509,"2634 QUAIL POND WAY","KISSIMMEE","FL",34743,28.345816347,-81.337303965,9,"2634 QUAIL POND WAY, KISSIMMEE, FL, 34743","Match","Exact","2634 QUAIL POND WAY, KISSIMMEE, FL, 34743",629917991,"L"
144510,"2634 RICH ST","LOS ANGELES","CA",90039,34.0969509920001,-118.243849847,10,"2634 RICH ST, LOS ANGELES, CA, 90039","Match","Exact","2634 RICH ST, LOS ANGELES, CA, 90039",141617333,"R"
144511,"2634 SOUTH MONROE AVE","JOPLIN","MO",64804,37.062028749,-94.5432418079999,11,"2634 SOUTH MONROE AVE, JOPLIN, MO, 64804","Match","Exact","2634 S MONROE AVE, JOPLIN, MO, 64804",66150916,"R"
144512,"2634 STATE HIGHWAY 70","MANASQUAN","NJ",8736,NA,NA,12,"2634 STATE HIGHWAY 70, MANASQUAN, NJ, 8736","No_Match",NA,NA,NA,NA
144513,"2634 UNIVERSITY DRIVE","DURHAM","NC",27707,35.9716819070001,-78.926305407,13,"2634 UNIVERSITY DRIVE, DURHAM, NC, 27707","Match","Exact","2634 UNIVERSITY DR, DURHAM, NC, 27707",71739946,"R"
144514,"2634 W CALDWELL ST","COMPTON","CA",90220,33.8826463790001,-118.255178915,14,"2634 W CALDWELL ST, COMPTON, CA, 90220","Match","Exact","2634 W CALDWELL ST, COMPTON, CA, 90220",642870633,"L"
144515,"2634 WEST E AVE","KALAMAZOO","MI",49009,42.36196819,-85.622633945,15,"2634 WEST E AVE, KALAMAZOO, MI, 49009","Match","Exact","2634 W E AVE, KALAMAZOO, MI, 49009",12237589,"R"
144516,"26340 BERG RD APT 415","SOUTHFIELD","MI",48033,42.4826096,-83.2795029229999,16,"26340 BERG RD APT 415, SOUTHFIELD, MI, 48033","Match","Exact","26340 BERG RD, SOUTHFIELD, MI, 48033",640605790,"R"
144517,"26340 SOBOBA STREET","HEMET","CA",92544,33.7388039470001,-116.919429638,17,"26340 SOBOBA STREET, HEMET, CA, 92544","Match","Exact","26340 SOBOBA ST, HEMET, CA, 92544",194759146,"L"
144518,"26345 DELANO DR STE240","IDYLLWILD","CA",92549,33.7379810640001,-116.728548759,18,"26345 DELANO DR STE240, IDYLLWILD, CA, 92549","Match","Exact","26345 DELANO DR, IDYLLWILD, CA, 92549",194694028,"L"
144519,"2635 28TH STREET APT 2","SANTA MONICA","CA",90405,34.0195891700001,-118.456465637,19,"2635 28TH STREET APT 2, SANTA MONICA, CA, 90405","Match","Exact","2635 28TH ST, SANTA MONICA, CA, 90405",142717963,"L"
144520,"2635 76TH STREET","FRANKSVILLE","WI",53126,42.798625778,-88.012358609,20,"2635 76TH STREET, FRANKSVILLE, WI, 53126","Match","Exact","2635 76TH ST, FRANKSVILLE, WI, 53126",77922715,"L"
144521,"2635 ARKANSAS ST","LAWRENCE","KS",66046,38.9359974710001,-95.250479543,21,"2635 ARKANSAS ST, LAWRENCE, KS, 66046","Match","Exact","2635 ARKANSAS ST, LAWRENCE, KS, 66046",17689786,"R"
144522,"2635 BENTON ST","SANTA CLARA","CA",95051,37.346206432,-121.974293058,22,"2635 BENTON ST, SANTA CLARA, CA, 95051","Match","Exact","2635 BENTON ST, SANTA CLARA, CA, 95051",122899156,"R"
144523,"2635 BLACKSTONE DRIVE","DALLAS","TX",75237,32.6651553300001,-96.861689994,23,"2635 BLACKSTONE DRIVE, DALLAS, TX, 75237","Match","Exact","2635 BLACKSTONE DR, DALLAS, TX, 75237",103190482,"R"
144524,"2635 BRAZOS RIDGE DR","SUGARLAND","TX",77479,29.5674306820001,-95.680475966,24,"2635 BRAZOS RIDGE DR, SUGARLAND, TX, 77479","Match","Non_Exact","2635 BRAZOS RIDGE DR, SUGAR LAND, TX, 77479",635363709,"R"
144525,"2635 CASEY KEY ROAD","NOKOMIS","FL",34275,27.160459942,-82.4866442479999,25,"2635 CASEY KEY ROAD, NOKOMIS, FL, 34275","Match","Exact","2635 CASEY KEY RD, NOKOMIS, FL, 34275",648500014,"L"
144526,"2635 CENTURY PARKWAY NE SUITE 200","ATLANTA","GA",30345,33.8485374850001,-84.306243452,26,"2635 CENTURY PARKWAY NE SUITE 200, ATLANTA, GA, 30345","Match","Exact","2635 CENTURY PKWY NE, ATLANTA, GA, 30345",23402566,"L"
144527,"2635 CORTEZ BLVD","FORT MYERS","FL",33901,26.6283464200001,-81.880125601,27,"2635 CORTEZ BLVD, FORT MYERS, FL, 33901","Match","Exact","2635 CORTEZ BLVD, FORT MYERS, FL, 33901",118102299,"L"
144528,"2635 EAST BLVD","BETHLEHEM","PA",18017,40.651053376,-75.349876509,28,"2635 EAST BLVD, BETHLEHEM, PA, 18017","Match","Exact","2635 EAST BLVD, BETHLEHEM, PA, 18017",136879709,"L"
144529,"2635 ELDORADO PL","SNELLVILLE","GA",30078,33.8510810170001,-84.005753267,29,"2635 ELDORADO PL, SNELLVILLE, GA, 30078","Match","Exact","2635 ELDORADO PL, SNELLVILLE, GA, 30078",88890589,"R"
144530,"2635 FAIRWAY DR","LAS CRUCES","NM",88011,32.29705684,-106.740200623,30,"2635 FAIRWAY DR, LAS CRUCES, NM, 88011","Match","Exact","2635 FAIRWAY DR, LAS CRUCES, NM, 88011",189546692,"R"
144531,"2635 FLAHERTY RD","EKRON","KY",40117,37.848454426,-86.074962446,31,"2635 FLAHERTY RD, EKRON, KY, 40117","Match","Exact","2635 FLAHERTY RD, EKRON, KY, 40117",642731752,"L"
144532,"2635 FORD STREET","FORT MYERS","FL",33916,26.629625134,-81.848096739,32,"2635 FORD STREET, FORT MYERS, FL, 33916","Match","Exact","2635 FORD ST, FORT MYERS, FL, 33916",118022090,"L"
144533,"2635 GOLF VIEW DR","RIVER FALLS","WI",54022,44.8608697120001,-92.602141094,33,"2635 GOLF VIEW DR, RIVER FALLS, WI, 54022","Match","Exact","2635 GOLF VIEW DR, RIVER FALLS, WI, 54022",95869412,"L"
144534,"2635 GOOSE CREEK BYPASS","FRANKLIN","TN",37064,35.840766065,-86.875141492,34,"2635 GOOSE CREEK BYPASS, FRANKLIN, TN, 37064","Match","Exact","2635 GOOSE CREEK BYP, FRANKLIN, TN, 37064",73105632,"R"
144535,"2635 JUNEWAY","BARTLETT","TN",38134,35.1967272360001,-89.8474346039999,35,"2635 JUNEWAY, BARTLETT, TN, 38134","Match","Non_Exact","2635 JUNEWAY DR, BARTLETT, TN, 38134",72925820,"L"
144536,"2635 LA SALLE DRIVE","MOUNTAIN VIEW","CA",94040,37.3673973620001,-122.07647173,36,"2635 LA SALLE DRIVE, MOUNTAIN VIEW, CA, 94040","Match","Exact","2635 LA SALLE DR, MOUNTAIN VIEW, CA, 94040",122934842,"L"
144537,"2635 LAVERNE DR","LAKE HAVASU CITY","AZ",86404,34.523755625,-114.331234769,37,"2635 LAVERNE DR, LAKE HAVASU CITY, AZ, 86404","Match","Exact","2635 LAVERNE DR, LAKE HAVASU CITY, AZ, 86404",190278229,"L"
144538,"2635 LIME ST","FORT MYERS","FL",33916,26.6440255110001,-81.8593844339999,38,"2635 LIME ST, FORT MYERS, FL, 33916","Match","Exact","2635 LIME ST, FORT MYERS, FL, 33916",118089590,"L"
144539,"2635 N EMMETT STREET","CHICAGO","IL",60647,41.9305977810001,-87.7079601899999,39,"2635 N EMMETT STREET, CHICAGO, IL, 60647","Match","Exact","2635 N EMMETT ST, CHICAGO, IL, 60647",111759004,"R"
144540,"2635 NAPA ST UNIT 765","VALLEJO","CA",94590,38.1196069490001,-122.250948969,40,"2635 NAPA ST UNIT 765, VALLEJO, CA, 94590","Match","Exact","2635 NAPA ST, VALLEJO, CA, 94590",192527062,"L"
144541,"2635 NAPA STREET UNIT 1264","VALLEJO","CA",94590,38.1196069490001,-122.250948969,41,"2635 NAPA STREET UNIT 1264, VALLEJO, CA, 94590","Match","Exact","2635 NAPA ST, VALLEJO, CA, 94590",192527062,"L"
144542,"2635 NORTH CHARLES STREET","BALTIMORE","MD",21218,39.3198201000001,-76.617124033,42,"2635 NORTH CHARLES STREET, BALTIMORE, MD, 21218","Match","Exact","2635 N CHARLES ST, BALTIMORE, MD, 21218",206418819,"R"
144543,"2635 PLYMOUTH DRIVE","COLORADO SPRINGS","CO",80916,38.7943576260001,-104.737605112,43,"2635 PLYMOUTH DRIVE, COLORADO SPRINGS, CO, 80916","Match","Exact","2635 PLYMOUTH DR, COLORADO SPRINGS, CO, 80916",105524228,"R"
144544,"2635 POPLAR STREET","DENVER","CO",80207,39.7553978940001,-104.904589637,44,"2635 POPLAR STREET, DENVER, CO, 80207","Match","Exact","2635 POPLAR ST, DENVER, CO, 80207",177313191,"L"
144545,"2635 RIMPACIFIC CIRCLE","LAS VEGAS","NV",89146,36.1412996770001,-115.21341743,45,"2635 RIMPACIFIC CIRCLE, LAS VEGAS, NV, 89146","Match","Exact","2635 RIMPACIFIC CIR, LAS VEGAS, NV, 89146",636884610,"L"
144546,"2635 RYAN ROAD","CONCORD","CA",94518,37.942913316,-122.024144687,46,"2635 RYAN ROAD, CONCORD, CA, 94518","Match","Exact","2635 RYAN RD, CONCORD, CA, 94518",192055551,"L"
144547,"2635 S PROVIDENCE RD","COLUMBIA","MO",65203,38.9225492090001,-92.337807175,47,"2635 S PROVIDENCE RD, COLUMBIA, MO, 65203","Match","Exact","2635 S PROVIDENCE RD, COLUMBIA, MO, 65203",624615137,"R"
144548,"2635 S WABASH SUITE 210","CHICAGO","IL",60616,NA,NA,48,"2635 S WABASH SUITE 210, CHICAGO, IL, 60616","No_Match",NA,NA,NA,NA
144549,"2635 SOUTH LAUREL AVE","SANFORD","FL",32773,28.7807488660001,-81.27189225,49,"2635 SOUTH LAUREL AVE, SANFORD, FL, 32773","Match","Non_Exact","2635 LAUREL AVE, SANFORD, FL, 32773",93750502,"L"
144550,"2635 STOCKTON RD","PHOENOX","MD",21131,39.532386763,-76.58625406,50,"2635 STOCKTON RD, PHOENOX, MD, 21131","Match","Non_Exact","2635 STOCKTON RD, PHOENIX, MD, 21131",191543346,"R"
144551,"2635 W 94TH PL","EVERGREEN PARK","IL",60805,41.7217841820001,-87.6883409019999,51,"2635 W 94TH PL, EVERGREEN PARK, IL, 60805","Match","Exact","2635 94TH PL, EVERGREEN PARK, IL, 60805",111821955,"L"
144552,"2635 W ILLINOIS AVENUE","DALLAS","TX",75233,32.720375131,-96.86322605,52,"2635 W ILLINOIS AVENUE, DALLAS, TX, 75233","Match","Exact","2635 W ILLINOIS AVE, DALLAS, TX, 75233",103222362,"R"
144553,"2635 W OLD HIGHWAY RD","MORGAN","UT",84050,41.1026925800001,-111.739167514,53,"2635 W OLD HIGHWAY RD, MORGAN, UT, 84050","Match","Exact","2635 OLD HIGHWAY RD, MORGAN, UT, 84050",175973320,"L"
144554,"2635 WEST LAUREEN STREET","LECANTO","FL",34461,28.8843717,-82.477711035,54,"2635 WEST LAUREEN STREET, LECANTO, FL, 34461","Match","Exact","2635 W LAUREEN ST, LECANTO, FL, 34461",86194382,"R"
144555,"26350 SC HWY 121","WHITMIRE","SC",29178,NA,NA,55,"26350 SC HWY 121, WHITMIRE, SC, 29178","No_Match",NA,NA,NA,NA
144556,"26351 COLLINS WHARF ROAD","EDEN","MD",21822,38.292312988,-75.7012854069999,56,"26351 COLLINS WHARF ROAD, EDEN, MD, 21822","Match","Exact","26351 COLLINS WHARF RD, EDEN, MD, 21822",114480637,"L"
144557,"26351 JUNIPERO SERRA ROAD","SAN JUAN CAPISTRANO","CA",92675,33.5199374330001,-117.66923546,57,"26351 JUNIPERO SERRA ROAD, SAN JUAN CAPISTRANO, CA, 92675","Match","Exact","26351 JUNIPERO SERRA RD, SAN JUAN CAPISTRANO, CA, 92675",144071985,"L"
144558,"26352 BIXBY ROAD","LA FERIA","TX",78559,26.177875283,-97.854156815,58,"26352 BIXBY ROAD, LA FERIA, TX, 78559","Match","Exact","26352 BIXBY RD, LA FERIA, TX, 78559",90038487,"R"
144559,"26356 COLUMBUS DR","SUN CITY","CA",92586,33.696740257,-117.200064886,59,"26356 COLUMBUS DR, SUN CITY, CA, 92586","Match","Exact","26356 COLUMBUS DR, SUN CITY, CA, 92586",194830288,"R"
144560,"2636 BRISTOL PIKE - 5","BENSALEM","PA",19020,40.0817475380001,-74.9415647399999,60,"2636 BRISTOL PIKE - 5, BENSALEM, PA, 19020","Match","Exact","2636 BRISTOL PIKE, BENSALEM, PA, 19020",134715691,"L"
144561,"2636 BRODHEAD ROAD","ALIQUIPPA","PA",15001,40.6029020460001,-80.279015392,61,"2636 BRODHEAD ROAD, ALIQUIPPA, PA, 15001","Match","Exact","2636 BRODHEAD RD, ALIQUIPPA, PA, 15001",52566800,"L"
144562,"2636 E 115TH ST","CLEVELAND","OH",44104,41.48728434,-81.604418451,62,"2636 E 115TH ST, CLEVELAND, OH, 44104","Match","Exact","2636 E 115TH ST, CLEVELAND, OH, 44104",61179072,"R"
144563,"2636 E 115TH STREET","CLEVELAND","OH",44104,41.48728434,-81.604418451,63,"2636 E 115TH STREET, CLEVELAND, OH, 44104","Match","Exact","2636 E 115TH ST, CLEVELAND, OH, 44104",61179072,"R"
144564,"2636 E ROMELLE AVE","ORANGE","CA",92869,33.7754044370001,-117.825666426,64,"2636 E ROMELLE AVE, ORANGE, CA, 92869","Match","Exact","2636 E ROMELLE AVE, ORANGE, CA, 92869",144052695,"R"
144565,"2636 FENNO DRIVE","EDWARDS","CO",81632,39.6264339430001,-106.671297977,65,"2636 FENNO DRIVE, EDWARDS, CO, 81632","Match","Exact","2636 FENNO DR, EDWARDS, CO, 81632",635727754,"R"
144566,"2636 FULTON AVE SUITE 250C","SACRAMENTO","CA",95821,38.613407642,-121.401416106,66,"2636 FULTON AVE SUITE 250C, SACRAMENTO, CA, 95821","Match","Exact","2636 FULTON AVE, SACRAMENTO, CA, 95821",133331172,"R"
144567,"2636 GRAND AVE UNIT 315","SAN DIEGO","CA",92109,32.8019531090001,-117.221551823,67,"2636 GRAND AVE UNIT 315, SAN DIEGO, CA, 92109","Match","Exact","2636 GRAND AVE, SAN DIEGO, CA, 92109",612859364,"L"
144568,"2636 INDEPENDENCE ROAD","INDEPENDENCE","MN",55359,45.025927074,-93.6635263429999,68,"2636 INDEPENDENCE ROAD, INDEPENDENCE, MN, 55359","Match","Exact","2636 INDEPENDENCE RD, INDEPENDENCE, MN, 55359",43854649,"R"
144569,"2636 JUDAH ST STE 107","SAN FRANCISCO","CA",94122,37.7611244710001,-122.49026679,69,"2636 JUDAH ST STE 107, SAN FRANCISCO, CA, 94122","Match","Exact","2636 JUDAH ST, SAN FRANCISCO, CA, 94122",192277393,"R"
144570,"2636 MONASTERY ROAD","LINDEN","VA",22642,38.923594865,-78.063729401,70,"2636 MONASTERY ROAD, LINDEN, VA, 22642","Match","Exact","2636 MONASTERY RD, LINDEN, VA, 22642",648461277,"R"
144571,"2636 N ORANGE BLOSSOM TRAIL","KISSIMMEE","FL",34744,28.3237029910001,-81.403732384,71,"2636 N ORANGE BLOSSOM TRAIL, KISSIMMEE, FL, 34744","Match","Exact","2636 N ORANGE BLOSSOM TRL, KISSIMMEE, FL, 34744",176656935,"L"
144572,"2636 NE RIDGEWOOD DR","PORTLAND","OR",97212,45.5496123770001,-122.638654796,72,"2636 NE RIDGEWOOD DR, PORTLAND, OR, 97212","Match","Exact","2636 NE RIDGEWOOD DR, PORTLAND, OR, 97212",157506015,"R"
144573,"2636 NOSTRAND AVENUE","BROOKLYN","NY",11210,40.6203949810001,-73.945669972,73,"2636 NOSTRAND AVENUE, BROOKLYN, NY, 11210","Match","Exact","2636 NOSTRAND AVE, BROOKLYN, NY, 11210",59090026,"R"
144574,"2636 NW 176TH CT","EDMOND","OK",73012,35.650704515,-97.560893522,74,"2636 NW 176TH CT, EDMOND, OK, 73012","Match","Non_Exact","2636 NW 176TH ST, EDMOND, OK, 73012",100450604,"R"
144575,"2636 W NORTH AVENUE","BALTIMORE","MD",21216,39.30935293,-76.660444507,75,"2636 W NORTH AVENUE, BALTIMORE, MD, 21216","Match","Exact","2636 W NORTH AVE, BALTIMORE, MD, 21216",206464710,"R"
144576,"2636 W WAHISSA TRL","QUEEN CREEK","AZ",85142,33.137204963,-111.59393422,76,"2636 W WAHISSA TRL, QUEEN CREEK, AZ, 85142","Match","Exact","2636 W WAHISSA TRL, QUEEN CREEK, AZ, 85142",645227254,"R"
144577,"2636 WEST 15TH AVENUE","GARY","IN",46404,41.587868207,-87.3700420979999,77,"2636 WEST 15TH AVENUE, GARY, IN, 46404","Match","Exact","2636 W 15TH AVE, GARY, IN, 46404",98425741,"R"
144578,"2636 WILLOW CV","DECATUR","GA",30033,33.8267658300001,-84.281170461,78,"2636 WILLOW CV, DECATUR, GA, 30033","Match","Exact","2636 WILLOW COVE, DECATUR, GA, 30033",23384432,"L"
144579,"26365 CACTUS PARK RD","CEDAREDGE","CO",81413,38.9099180950001,-107.87449234,79,"26365 CACTUS PARK RD, CEDAREDGE, CO, 81413","Match","Exact","26365 CACTUS PARK RD, CEDAREDGE, CO, 81413",635546846,"L"
144580,"2637 E ATLANTIC BLVD 144","POMPANO BEACH","FL",33062,26.231901153,-80.097400916,80,"2637 E ATLANTIC BLVD 144, POMPANO BEACH, FL, 33062","Match","Non_Exact","2637 E ATLANTIC BLVD, POMPANO BEACH, FL, 33062",114696065,"L"
144581,"2637 E ATLANTIC BLVD 206","POMPANO BEACH","FL",33062,26.231901153,-80.097400916,81,"2637 E ATLANTIC BLVD 206, POMPANO BEACH, FL, 33062","Match","Non_Exact","2637 E ATLANTIC BLVD, POMPANO BEACH, FL, 33062",114696065,"L"
144582,"2637 E ATLANTIC BLVD 32842","POMPANO BEACH","FL",33062,26.231901153,-80.097400916,82,"2637 E ATLANTIC BLVD 32842, POMPANO BEACH, FL, 33062","Match","Non_Exact","2637 E ATLANTIC BLVD, POMPANO BEACH, FL, 33062",114696065,"L"
144583,"2637 E ATLANTIC BLVD NUM 13869","POMPANO BEACH","FL",33062,26.231901153,-80.097400916,83,"2637 E ATLANTIC BLVD NUM 13869, POMPANO BEACH, FL, 33062","Match","Non_Exact","2637 E ATLANTIC BLVD, POMPANO BEACH, FL, 33062",114696065,"L"
144584,"2637 E ATLANTIC BLVD STE 20474","POMPANO BEACH","FL",33062,26.231901153,-80.097400916,84,"2637 E ATLANTIC BLVD STE 20474, POMPANO BEACH, FL, 33062","Match","Non_Exact","2637 E ATLANTIC BLVD, POMPANO BEACH, FL, 33062",114696065,"L"
144585,"2637 E ATLANTIC BLVD","POMPANO BEACH","FL",33062,26.231901153,-80.097400916,85,"2637 E ATLANTIC BLVD, POMPANO BEACH, FL, 33062","Match","Exact","2637 E ATLANTIC BLVD, POMPANO BEACH, FL, 33062",114696065,"L"
144586,"2637 E ATLANTIC BOULEVARD NO 29055","POMPANO BEACH","FL",33062,NA,NA,86,"2637 E ATLANTIC BOULEVARD NO 29055, POMPANO BEACH, FL, 33062","No_Match",NA,NA,NA,NA
144587,"2637 EDENBORN AVE SUITE 101","METAIRIE","LA",70002,30.000065292,-90.162258972,87,"2637 EDENBORN AVE SUITE 101, METAIRIE, LA, 70002","Match","Exact","2637 EDENBORN AVE, METAIRIE, LA, 70002",639853439,"R"
144588,"2637 JAMAICA DRIVE","MIRAMAR","FL",33023,25.9859122440001,-80.239188903,88,"2637 JAMAICA DRIVE, MIRAMAR, FL, 33023","Match","Exact","2637 JAMAICA DR, MIRAMAR, FL, 33023",114733913,"L"
144589,"2637 MOHAWK CIRCLE","WEST PALM BEACH","FL",33409,26.743954483,-80.095756906,89,"2637 MOHAWK CIRCLE, WEST PALM BEACH, FL, 33409","Match","Exact","2637 MOHAWK CIR, WEST PALM BEACH, FL, 33409",115579962,"R"
144590,"2637 N REVERE RD","BATH","OH",44333,41.1918834700001,-81.6163084899999,90,"2637 N REVERE RD, BATH, OH, 44333","Match","Non_Exact","2637 N REVERE RD, FAIRLAWN, OH, 44333",625150433,"R"
144591,"2637 N RICHMOND ST","ARLINGTON","VA",22207,38.9058022680001,-77.111545344,91,"2637 N RICHMOND ST, ARLINGTON, VA, 22207","Match","Exact","2637 N RICHMOND ST, ARLINGTON, VA, 22207",76468074,"R"
144592,"2637 OBRIEN RD","MAYVILLE","MI",48744,43.37911244,-83.4456522359999,92,"2637 OBRIEN RD, MAYVILLE, MI, 48744","Match","Exact","2637 OBRIEN RD, MAYVILLE, MI, 48744",81245338,"R"
144593,"2637 PAGODA DRIVE","CLEARWATER","FL",33764,27.9501659750001,-82.727732128,93,"2637 PAGODA DRIVE, CLEARWATER, FL, 33764","Match","Exact","2637 PAGODA DR, CLEARWATER, FL, 33764",124685580,"R"
144594,"2637 PIONEER BLUFFS RD","BALCH SPRINGS","TX",75181,32.7310653800001,-96.599739219,94,"2637 PIONEER BLUFFS RD, BALCH SPRINGS, TX, 75181","Match","Exact","2637 PIONEER BLUFFS RD, BALCH SPRINGS, TX, 75181",636908580,"L"
144595,"2637 QUINCE ST","EUGENE","OR",97404,44.1020844550001,-123.13516628,95,"2637 QUINCE ST, EUGENE, OR, 97404","Match","Exact","2637 QUINCE ST, EUGENE, OR, 97404",178164814,"R"
144596,"2637 RIVIERA DRIVE","MIRAMAR","FL",33023,25.9856365680001,-80.244508313,96,"2637 RIVIERA DRIVE, MIRAMAR, FL, 33023","Match","Exact","2637 RIVIERA DR, MIRAMAR, FL, 33023",114733849,"L"
144597,"2637 S 10TH STREET","SPRINGFIELD","IL",62703,39.7681516760001,-89.643388553,97,"2637 S 10TH STREET, SPRINGFIELD, IL, 62703","Match","Exact","2637 S 10TH ST, SPRINGFIELD, IL, 62703",653002938,"R"
144598,"2637 SPRINGHAVEN DR","VIRGINIA BEACH","VA",23456,36.7680441910001,-76.042614521,98,"2637 SPRINGHAVEN DR, VIRGINIA BEACH, VA, 23456","Match","Exact","2637 SPRINGHAVEN DR, VA BCH, VA, 23456",122290291,"L"
144599,"2637 SUNSET MAPLE DRIVE","TIPP CITY","OH",45371,39.8897755690001,-84.113749914,99,"2637 SUNSET MAPLE DRIVE, TIPP CITY, OH, 45371","Match","Exact","2637 SUNSET MAPLE DR, TIPP CITY, OH, 45371",648998120,"L"
144600,"2637 TRANQUIL OAKS COURT","KINGWOOD","TX",77345,30.072440301,-95.166577807,100,"2637 TRANQUIL OAKS COURT, KINGWOOD, TX, 77345","Match","Exact","2637 TRANQUIL OAKS CT, KINGWOOD, TX, 77345",627520334,"L"
144601,"2637 WEYBURN ROAD","COLUMBUS","OH",43232,39.919291048,-82.903440926,101,"2637 WEYBURN ROAD, COLUMBUS, OH, 43232","Match","Exact","2637 WEYBURN RD, COLUMBUS, OH, 43232",135596049,"R"
144602,"26370 LOVEVILLE ROAD","MECHANICSVILLE","MD",20659,38.391823032,-76.666037984,102,"26370 LOVEVILLE ROAD, MECHANICSVILLE, MD, 20659","Match","Exact","26370 LOVEVILLE RD, MECHANICSVILLE, MD, 20659",642620348,"R"
144603,"26374 TONGANOXIE RD","LEAVENWORTH","KS",66048,39.261442797,-94.971267578,103,"26374 TONGANOXIE RD, LEAVENWORTH, KS, 66048","Match","Exact","26374 TONGANOXIE RD, LEAVENWORTH, KS, 66048",91411442,"L"
144604,"26377 COUZENS AVE","MADISON HEIGHTS","MI",48071,42.487665672,-83.095033104,104,"26377 COUZENS AVE, MADISON HEIGHTS, MI, 48071","Match","Exact","26377 COUZENS AVE, MADISON HEIGHTS, MI, 48071",69748172,"L"
144605,"26377 DE BERRY ST","CONIFER","CO",80433,39.5420252500001,-105.301576518,105,"26377 DE BERRY ST, CONIFER, CO, 80433","Match","Exact","26377 DE BERRY ST, CONIFER, CO, 80433",177276949,"R"
144606,"26379 THACH ROAD","ATHENS","AL",35613,34.918797323,-86.849820149,106,"26379 THACH ROAD, ATHENS, AL, 35613","Match","Exact","26379 THACH RD, ATHENS, AL, 35613",95237378,"L"
144607,"2638 168TH PLACE NE","BELLEVUE","WA",98008,47.633729132,-122.116068058,107,"2638 168TH PLACE NE, BELLEVUE, WA, 98008","Match","Exact","2638 168TH PL NE, BELLEVUE, WA, 98008",186611682,"R"
144608,"2638 22ND AVE","SARASOTA","FL",34234,27.3560253150001,-82.5172100779999,108,"2638 22ND AVE, SARASOTA, FL, 34234","Match","Non_Exact","2638 22ND ST, SARASOTA, FL, 34234",16400901,"L"
144609,"2638 28TH STREET SUITE 3","SANTA MONICA","CA",90405,34.0195687940001,-118.456464149,109,"2638 28TH STREET SUITE 3, SANTA MONICA, CA, 90405","Match","Exact","2638 28TH ST, SANTA MONICA, CA, 90405",142717963,"R"
144610,"2638 ANDERSON ROAD","CRESCENT SPRINGS","KY",41017,NA,NA,110,"2638 ANDERSON ROAD, CRESCENT SPRINGS, KY, 41017","No_Match",NA,NA,NA,NA
144611,"2638 CR 1205","SAVOY","TX",75479,33.6795869210001,-96.330293976,111,"2638 CR 1205, SAVOY, TX, 75479","Match","Exact","2638 CO RD 1205, SAVOY, TX, 75479",63283617,"R"
144612,"2638 DETWILER DRIVE","TOLEDO","OH",43611,41.7035684850001,-83.483077813,112,"2638 DETWILER DRIVE, TOLEDO, OH, 43611","Match","Exact","2638 DETWILER DR, TOLEDO, OH, 43611",33942525,"R"
144613,"2638 E OLIVERA RD","CONCORD","CA",94519,37.9941193710001,-122.025374303,113,"2638 E OLIVERA RD, CONCORD, CA, 94519","Match","Exact","2638 E OLIVERA RD, CONCORD, CA, 94519",192053148,"R"
144614,"2638 GENERAL OGDEN STREET","NEW ORLEANS","LA",70118,29.963170292,-90.125256545,114,"2638 GENERAL OGDEN STREET, NEW ORLEANS, LA, 70118","Match","Exact","2638 GENERAL OGDEN ST, NEW ORLEANS, LA, 70118",191700375,"L"
144615,"2638 HARFORD ROAD","BALTIMORE","MD",21218,39.3198182030001,-76.5921657229999,115,"2638 HARFORD ROAD, BALTIMORE, MD, 21218","Match","Exact","2638 HARFORD RD, BALTIMORE, MD, 21218",206464292,"L"
144616,"2638 KENNY LANE","GROVE CITY","OH",43123,39.877945884,-83.07379449,116,"2638 KENNY LANE, GROVE CITY, OH, 43123","Match","Exact","2638 KENNY LN, GROVE CITY, OH, 43123",218641793,"R"
144617,"2638 KINGSTON STREET","DALLAS","TX",75211,32.733957617,-96.8622892939999,117,"2638 KINGSTON STREET, DALLAS, TX, 75211","Match","Exact","2638 KINGSTON ST, DALLAS, TX, 75211",102945152,"L"
144618,"2638 MATTS HOLLOW RD","MANCHESTER","TN",37355,35.543179282,-86.15262997,118,"2638 MATTS HOLLOW RD, MANCHESTER, TN, 37355","Match","Exact","2638 MATTS HOLLOW RD, MANCHESTER, TN, 37355",624990047,"R"
144619,"2638 MOORE ST","BELLINGHAM","WA",98226,48.764828562,-122.460557131,119,"2638 MOORE ST, BELLINGHAM, WA, 98226","Match","Exact","2638 MOORE ST, BELLINGHAM, WA, 98226",183787070,"R"
144620,"2638 MOUNT DANA CT","DUBLIN","CA",94568,NA,NA,120,"2638 MOUNT DANA CT, DUBLIN, CA, 94568","No_Match",NA,NA,NA,NA
144621,"2638 NE BRIAN RAY CT","BEND","OR",97701,44.0798660080001,-121.26545044,121,"2638 NE BRIAN RAY CT, BEND, OR, 97701","Match","Exact","2638 NE BRIAN RAY CT, BEND, OR, 97701",152581293,"L"
144622,"2638 NORTH PROSPECT ROAD","PEORIA","IL",61603,40.719653281,-89.576380705,122,"2638 NORTH PROSPECT ROAD, PEORIA, IL, 61603","Match","Exact","2638 N PROSPECT RD, PEORIA, IL, 61603",8719294,"R"
144623,"2638 ORLEANS ST","DETROIT","MI",48207,42.3479979630001,-83.03769643,123,"2638 ORLEANS ST, DETROIT, MI, 48207","Match","Exact","2638 ORLEANS ST, DETROIT, MI, 48207",95482580,"R"
144624,"2638 PINELAND CIRCLE","HARTSVILLE","SC",29550,34.3531440410001,-80.142031178,124,"2638 PINELAND CIRCLE, HARTSVILLE, SC, 29550","Match","Exact","2638 PINELAND CIR, HARTSVILLE, SC, 29550",640567524,"L"
144625,"2638 POTRERO AVE","EL MONTE","CA",91733,34.0600653220001,-118.055654944,125,"2638 POTRERO AVE, EL MONTE, CA, 91733","Match","Exact","2638 POTRERO AVE, EL MONTE, CA, 91733",142745031,"R"
144626,"2638 SPYGLASS DR","CLEARWATER","FL",33761,28.035638454,-82.728278878,126,"2638 SPYGLASS DR, CLEARWATER, FL, 33761","Match","Exact","2638 SPYGLASS DR, CLEARWATER, FL, 33761",124680992,"L"
144627,"2638 STERN DRIVE N","ATLANTIC BEACH","FL",32233,30.361088099,-81.417458198,127,"2638 STERN DRIVE N, ATLANTIC BEACH, FL, 32233","Match","Exact","2638 STERN DR N, ATLANTIC BCH, FL, 32233",83906874,"R"
144628,"2638 STRAWBRIDGE PLACE","OWENSBORO","KY",42303,37.752915172,-87.084712753,128,"2638 STRAWBRIDGE PLACE, OWENSBORO, KY, 42303","Match","Exact","2638 STRAWBRIDGE PL, OWENSBORO, KY, 42303",37560855,"R"
144629,"26380 FARRINGDON","EUCLID","OH",44132,41.6109771260001,-81.500029072,129,"26380 FARRINGDON, EUCLID, OH, 44132","Match","Non_Exact","26380 FARRINGDON AVE, EUCLID, OH, 44132",61148514,"L"
144630,"26382 VIA DE ANZA","SAN JUAN CAPISTRANO","CA",92675,33.483038864,-117.670691891,130,"26382 VIA DE ANZA, SAN JUAN CAPISTRANO, CA, 92675","Match","Exact","26382 VIA DE ANZA, SAN JUAN CAPISTRANO, CA, 92675",144383687,"R"
144631,"26384 WOODWORTH CIR","DEARBORN HEIGHTS","MI",48127,42.3422829290001,-83.299843611,131,"26384 WOODWORTH CIR, DEARBORN HEIGHTS, MI, 48127","Match","Exact","26384 WOODWORTH CIR, DEARBORN HEIGHTS, MI, 48127",642524380,"L"
144632,"26385 E 143RD PL S","COWETA","OK",74429,35.956283103,-95.68404069,132,"26385 E 143RD PL S, COWETA, OK, 74429","Match","Exact","26385 E 143RD PL S, COWETA, OK, 74429",606222342,"R"
144633,"26388 FLORY RD","DEFIANCE","OH",43512,41.3405113680001,-84.315815247,133,"26388 FLORY RD, DEFIANCE, OH, 43512","Match","Exact","26388 FLORY RD, DEFIANCE, OH, 43512",6695727,"R"
144634,"2639 AZTEC AVE","MEDFORD","OR",97501,42.355043444,-122.892215322,134,"2639 AZTEC AVE, MEDFORD, OR, 97501","Match","Exact","2639 AZTEC AVE, MEDFORD, OR, 97501",155511946,"L"
144635,"2639 BERMUDA LAKES DR APT 104B","BRANDON","FL",33510,27.964615936,-82.321025027,135,"2639 BERMUDA LAKES DR APT 104B, BRANDON, FL, 33510","Match","Non_Exact","2639 BERMUDA LAKE DR, BRANDON, FL, 33510",104667573,"R"
144636,"2639 BRUSH ST","DETROIT","MI",48201,42.3442233970001,-83.050273052,136,"2639 BRUSH ST, DETROIT, MI, 48201","Match","Exact","2639 BRUSH ST, DETROIT, MI, 48201",95477986,"L"
144637,"2639 DAYVIEW LANE","ATLANTA","GA",30331,33.6833651800001,-84.607165579,137,"2639 DAYVIEW LANE, ATLANTA, GA, 30331","Match","Exact","2639 DAYVIEW LN, ATLANTA, GA, 30331",625655922,"L"
144638,"2639 LAZY OAK DRIVE","LANCASTER","SC",29720,34.788604702,-80.779452036,138,"2639 LAZY OAK DRIVE, LANCASTER, SC, 29720","Match","Exact","2639 LAZY OAK DR, LANCASTER, SC, 29720",40706365,"L"
144639,"2639 OAKMERE DR","HARVEY","LA",70058,29.8566909080001,-90.084450768,139,"2639 OAKMERE DR, HARVEY, LA, 70058","Match","Exact","2639 OAKMERE DR, HARVEY, LA, 70058",93544152,"L"
144640,"2639 PARKVIEW DR","SAN ANGELO","TX",76904,31.4259905420001,-100.471398254,140,"2639 PARKVIEW DR, SAN ANGELO, TX, 76904","Match","Exact","2639 PARKVIEW DR, SAN ANGELO, TX, 76904",190694919,"L"
144641,"2639 S BENTLEY AVE","LOS ANGELES","CA",90064,34.032898758,-118.431211538,141,"2639 S BENTLEY AVE, LOS ANGELES, CA, 90064","Match","Exact","2639 S BENTLEY AVE, LOS ANGELES, CA, 90064",141570138,"R"
144642,"2639 S BEVERLY DRIVE","LOS ANGELES","CA",90034,34.039291685,-118.39566511,142,"2639 S BEVERLY DRIVE, LOS ANGELES, CA, 90034","Match","Exact","2639 S BEVERLY DR, LOS ANGELES, CA, 90034",141574598,"R"
144643,"2639 WALNUT HILL LANE  STE 230","DALLAS","TX",75229,32.8812088390001,-96.8882077,143,"2639 WALNUT HILL LANE  STE 230, DALLAS, TX, 75229","Match","Exact","2639 WALNUT HILL LN, DALLAS, TX, 75229",103270307,"L"
144644,"2639 WALNUT HILL LANE STE 230","DALLAS","TX",75229,32.8812088390001,-96.8882077,144,"2639 WALNUT HILL LANE STE 230, DALLAS, TX, 75229","Match","Exact","2639 WALNUT HILL LN, DALLAS, TX, 75229",103270307,"L"
144645,"2639 WELCK AVENUE","NIAGARA FALLS","NY",14303,NA,NA,145,"2639 WELCK AVENUE, NIAGARA FALLS, NY, 14303","No_Match",NA,NA,NA,NA
144646,"2639 WOOSTER ROAD","ROCKY RIVER","OH",44116,41.469919034,-81.836863417,146,"2639 WOOSTER ROAD, ROCKY RIVER, OH, 44116","Match","Exact","2639 WOOSTER RD, ROCKY RIVER, OH, 44116",639401463,"L"
144647,"26390 WOODFIELD ROAD C307","DAMASCUS","MD",20872,39.2928427780001,-77.1999169269999,147,"26390 WOODFIELD ROAD C307, DAMASCUS, MD, 20872","Match","Exact","26390 WOODFIELD RD, DAMASCUS, MD, 20872",653269466,"R"
144648,"26392 LOMBARDY ROAD","MISSION VIEJO","CA",92692,33.579047539,-117.645352561,148,"26392 LOMBARDY ROAD, MISSION VIEJO, CA, 92692","Match","Exact","26392 LOMBARDY RD, MISSION VIEJO, CA, 92692",144382767,"R"
144649,"26393 E 113TH CTS","COWETA","OK",74429,NA,NA,149,"26393 E 113TH CTS, COWETA, OK, 74429","No_Match",NA,NA,NA,NA
144650,"26395 SUNNYSIDE ROAD","UNIONVILLE","VA",22567,38.238846558,-77.9129588069999,150,"26395 SUNNYSIDE ROAD, UNIONVILLE, VA, 22567","Match","Exact","26395 SUNNYSIDE RD, UNIONVILLE, VA, 22567",29890594,"R"
144651,"26399 SEQUOIA STREET","MORENO VALLEY","CA",92555,33.9179149390001,-117.202279079,151,"26399 SEQUOIA STREET, MORENO VALLEY, CA, 92555","Match","Exact","26399 SEQUOIA ST, MORENO VALLEY, CA, 92555",618340944,"R"
144652,"264 4TH STREET","PROVIDENCE","RI",2906,41.8485606840001,-71.3922096749999,152,"264 4TH STREET, PROVIDENCE, RI, 2906","Match","Exact","264 4TH ST, PROVIDENCE, RI, 02906",47464998,"L"
144653,"264 50TH STREET","BROOKLYN","NY",11220,40.6482615690001,-74.015553524,153,"264 50TH STREET, BROOKLYN, NY, 11220","Match","Exact","264 50TH ST, BROOKLYN, NY, 11220",59099545,"R"
144654,"264 6TH STREET","MANISTEE","MI",49660,44.2402907900001,-86.316306728,154,"264 6TH STREET, MANISTEE, MI, 49660","Match","Exact","264 6TH ST, MANISTEE, MI, 49660",146023180,"L"
144655,"264 AVON ROAD","UPPER DARBY","PA",19082,39.9563310660001,-75.266491526,155,"264 AVON ROAD, UPPER DARBY, PA, 19082","Match","Exact","264 AVON RD, UPPER DARBY, PA, 19082",134877703,"L"
144656,"264 AYLESBURY BLVD","MCDONOUGH","GA",30252,33.4460865020001,-84.110494741,156,"264 AYLESBURY BLVD, MCDONOUGH, GA, 30252","Match","Exact","264 AYLESBURY BV, MCDONOUGH, GA, 30252",650989520,"R"
144657,"264 BELLEVILLE AVENUE","BLOOMFIELD","NJ",7003,NA,NA,157,"264 BELLEVILLE AVENUE, BLOOMFIELD, NJ, 7003","No_Match",NA,NA,NA,NA
144658,"264 BULGARMARSH ROAD","TIVERTON","RI",2878,41.6200472780001,-71.1893757239999,158,"264 BULGARMARSH ROAD, TIVERTON, RI, 2878","Match","Exact","264 BULGARMARSH RD, TIVERTON, RI, 02878",650876331,"L"
144659,"264 CEDAR GROVE ROAD","DRESDEN","ME",4342,44.123491109,-69.758750498,159,"264 CEDAR GROVE ROAD, DRESDEN, ME, 4342","Match","Exact","264 CEDAR GROVE RD, DRESDEN, ME, 04342",641433304,"R"
144660,"264 CHEROKEE ST","MOBILE","AL",36606,30.674738829,-88.084886368,160,"264 CHEROKEE ST, MOBILE, AL, 36606","Match","Exact","264 CHEROKEE ST, MOBILE, AL, 36606",61932673,"R"
144661,"264 E BRIDLESPUR DR","KANSAS CITY","MO",64114,38.9371985380001,-94.5895532069999,161,"264 E BRIDLESPUR DR, KANSAS CITY, MO, 64114","Match","Exact","264 E BRIDLESPUR DR, KANSAS CITY, MO, 64114",632606186,"L"
144662,"264 E DEERYARD RD","GRAND MARAIS","MN",55604,47.739919247,-90.5949755459999,162,"264 E DEERYARD RD, GRAND MARAIS, MN, 55604","Match","Exact","264 E DEERYARD RD, GRAND MARAIS, MN, 55604",651241977,"R"
144663,"264 E KING OFC","YORK","PA",17403,NA,NA,163,"264 E KING OFC, YORK, PA, 17403","No_Match",NA,NA,NA,NA
144664,"264 EAST BROADWAY C1804","NEW YORK","NY",10002,40.7144868410001,-73.985119646,164,"264 EAST BROADWAY C1804, NEW YORK, NY, 10002","Match","Exact","264 E BROADWAY, NEW YORK, NY, 10002",59654328,"L"
144665,"264 FRANKLIN STREET","NAPA","CA",94559,38.2904938840001,-122.288640754,165,"264 FRANKLIN STREET, NAPA, CA, 94559","Match","Exact","264 FRANKLIN ST, NAPA, CA, 94559",67417025,"R"
144666,"264 GIBSON ROAD","LEXINGTON","SC",29072,33.9711393520001,-81.243944063,166,"264 GIBSON ROAD, LEXINGTON, SC, 29072","Match","Exact","264 GIBSON RD, LEXINGTON, SC, 29072",70072813,"R"
144667,"264 GIBSON ROAD","PARKER","PA",16049,41.14897962,-79.8337541939999,167,"264 GIBSON ROAD, PARKER, PA, 16049","Match","Exact","264 GIBSON RD, PARKER, PA, 16049",52697643,"R"
144668,"264 GOBBLERS KNOB RD","FRIEDENS","PA",15541,NA,NA,168,"264 GOBBLERS KNOB RD, FRIEDENS, PA, 15541","No_Match",NA,NA,NA,NA
144669,"264 H MCLAWS CIRCLE","WILLIAMSBURG","VA",23185,37.244765774,-76.659330546,169,"264 H MCLAWS CIRCLE, WILLIAMSBURG, VA, 23185","Match","Exact","264 MCLAWS CIR, WILLIAMSBURG, VA, 23185",103778598,"R"
144670,"264 HALL RD","WATSONVILLE","CA",95076,36.864304598,-121.731056846,170,"264 HALL RD, WATSONVILLE, CA, 95076","Match","Exact","264 HALL RD, WATSONVILLE, CA, 95076",196861295,"R"
144671,"264 HOMER LANE","DONNELLY","ID",83615,44.664765942,-116.094558406,171,"264 HOMER LANE, DONNELLY, ID, 83615","Match","Exact","264 HOMER LN, DONNELLY, ID, 83615",141458948,"R"
144672,"264 INSTITUTE STREET","PITTSBURGH","PA",15210,40.4076354150001,-80.001603245,172,"264 INSTITUTE STREET, PITTSBURGH, PA, 15210","Match","Exact","264 INSTITUTE ST, PITTSBURGH, PA, 15210",51634847,"R"
144673,"264 KAILEY WAY","COPPELL","TX",75019,32.9773933160001,-96.986560006,173,"264 KAILEY WAY, COPPELL, TX, 75019","Match","Exact","264 KAILEY WAY, COPPELL, TX, 75019",102997613,"L"
144674,"264 LINDEN AVE","BUFFALO","NY",14216,42.9444690300001,-78.852594113,174,"264 LINDEN AVE, BUFFALO, NY, 14216","Match","Exact","264 LINDEN AVE, BUFFALO, NY, 14216",48289569,"L"
144675,"264 LOWRY DR","WEST MILTON","OH",45383,39.951668279,-84.329859809,175,"264 LOWRY DR, WEST MILTON, OH, 45383","Match","Exact","264 LOWRY DR, WEST MILTON, OH, 45383",647876799,"L"
144676,"264 MONTANA STREET","SAN FRANCISCO","CA",94112,37.716588561,-122.461451577,176,"264 MONTANA STREET, SAN FRANCISCO, CA, 94112","Match","Exact","264 MONTANA ST, SAN FRANCISCO, CA, 94112",192285638,"R"
144677,"264 N LAKE STREET","GARY","IN",46403,41.6101653490001,-87.268443836,177,"264 N LAKE STREET, GARY, IN, 46403","Match","Exact","264 N LAKE ST, GARY, IN, 46403",98427908,"L"
144678,"264 N UNION STREET","LAMBERTVILLE","NJ",8530,40.375634921,-74.9481627759999,178,"264 N UNION STREET, LAMBERTVILLE, NJ, 8530","Match","Exact","264 N UNION ST, LAMBERTVILLE, NJ, 08530",60023603,"L"
144679,"264 NW 53 STREET","MAIMI","FL",33127,25.8242096650001,-80.20125254,179,"264 NW 53 STREET, MAIMI, FL, 33127","Match","Non_Exact","264 NW 53RD ST, MIAMI, FL, 33127",116007204,"L"
144680,"264 ODYSSEY LANE","MORRISDALE","PA",16858,40.997848907,-78.123713446,180,"264 ODYSSEY LANE, MORRISDALE, PA, 16858","Match","Exact","264 ODYSSEY LN, MORRISDALE, PA, 16858",50498609,"R"
144681,"264 OLD CONNECTICUT PATH","WAYLAND","MA",1778,42.339384093,-71.371847787,181,"264 OLD CONNECTICUT PATH, WAYLAND, MA, 1778","Match","Exact","264 OLD CONNECTICUT PATH, WAYLAND, MA, 01778",87103727,"L"
144682,"264 OLD HAMILTON RD","HALEYVILLE","AL",35565,34.2061916270001,-87.640635673,182,"264 OLD HAMILTON RD, HALEYVILLE, AL, 35565","Match","Exact","264 OLD HAMILTON RD, HALEYVILLE, AL, 35565",130640030,"R"
144683,"264 OLD YORK RD","FLEMINGTON","NJ",8822,40.4932362810001,-74.810909922,183,"264 OLD YORK RD, FLEMINGTON, NJ, 8822","Match","Exact","264 OLD YORK RD, FLEMINGTON, NJ, 08822",624752466,"L"
144684,"264 PALISADES AVE STE  1F","YONKERS","NY",10703,NA,NA,184,"264 PALISADES AVE STE  1F, YONKERS, NY, 10703","No_Match",NA,NA,NA,NA
144685,"264 PARKER DRIVE","PITTSBURGH","PA",15216,40.391351641,-80.050054469,185,"264 PARKER DRIVE, PITTSBURGH, PA, 15216","Match","Exact","264 PARKER DR, PITTSBURGH, PA, 15216",51632087,"R"
144686,"264 PINEY RD","LAWRENCEBURG","TN",38464,35.2843438800001,-87.5260433719999,186,"264 PINEY RD, LAWRENCEBURG, TN, 38464","Match","Exact","264 PINEY RD, LAWRENCEBURG, TN, 38464",26821132,"R"
144687,"264 PRINCETON AVE","JERSEY CITY","NJ",7305,40.6901216800001,-74.091161367,187,"264 PRINCETON AVE, JERSEY CITY, NJ, 7305","Match","Exact","264 PRINCETON AVE, JERSEY CITY, NJ, 07305",59603450,"R"
144688,"264 QUARRY ROAD","WAITSFIELD","VT",5673,44.215896636,-72.796929774,188,"264 QUARRY ROAD, WAITSFIELD, VT, 5673","Match","Exact","264 QUARRY RD, WAITSFIELD, VT, 05673",136697278,"L"
144689,"264 ROUTE Y","ARCOLA","MO",65603,NA,NA,189,"264 ROUTE Y, ARCOLA, MO, 65603","No_Match",NA,NA,NA,NA
144690,"264 RYE DRIVE","CABOT","AR",72023,34.946270805,-91.978609814,190,"264 RYE DRIVE, CABOT, AR, 72023","Match","Exact","264 RYE DR, CABOT, AR, 72023",651406243,"L"
144691,"264 S VETERANS MEMORIAL BLVD","TUPELO","MS",38804,NA,NA,191,"264 S VETERANS MEMORIAL BLVD, TUPELO, MS, 38804","No_Match",NA,NA,NA,NA
144692,"264 SALEM STREET","MEDFORD","MA",2155,42.4206173690001,-71.099288283,192,"264 SALEM STREET, MEDFORD, MA, 2155","Match","Exact","264 SALEM ST, MEDFORD, MA, 02155",86858426,"L"
144693,"264 SIXTH AVENUE","ST JAMES","NY",11780,40.8789613980001,-73.1501899679999,193,"264 SIXTH AVENUE, ST JAMES, NY, 11780","Match","Exact","264 SIXTH AVE, SAINT JAMES, NY, 11780",647293853,"R"
144694,"264 SOUTH CAROLINA ST OR PO BOX 443","MARIANNA","AR",72360,34.7665956910001,-90.760945067,194,"264 SOUTH CAROLINA ST OR PO BOX 443, MARIANNA, AR, 72360","Match","Exact","264 SOUTH CAROLINA ST, MARIANNA, AR, 72360",12192075,"L"
144695,"264 SOUTH MAIN STREET","SUFFIELD","CT",6078,41.974540383,-72.65373305,195,"264 SOUTH MAIN STREET, SUFFIELD, CT, 6078","Match","Exact","264 S MAIN ST, SUFFIELD, CT, 06078",649721823,"L"
144696,"264 SOUTH PROGRESS AVENUE","HARRISBURG","PA",17109,40.2816057700001,-76.838658441,196,"264 SOUTH PROGRESS AVENUE, HARRISBURG, PA, 17109","Match","Exact","264 S PROGRESS AVE, HARRISBURG, PA, 17109",70820916,"L"
144697,"264 ST JOHNS CIRCLE 202","CASSELBERRY","FL",32730,28.651465542,-81.345022216,197,"264 ST JOHNS CIRCLE 202, CASSELBERRY, FL, 32730","Match","Exact","264 SAINT JOHNS CIR, CASSELBERRY, FL, 32730",644353875,"L"
144698,"264 SW 24TH STREET","TRENTON","MO",64683,40.086997389,-93.616009069,198,"264 SW 24TH STREET, TRENTON, MO, 64683","Match","Non_Exact","264 E 24TH ST, TRENTON, MO, 64683",17850065,"L"
144699,"264 UPPER CHRUCH STREET","GILBERTVILLE","MA",1031,42.3143051100001,-72.192480594,199,"264 UPPER CHRUCH STREET, GILBERTVILLE, MA, 1031","Match","Non_Exact","264 UPPER CHURCH ST, GILBERTVILLE, MA, 01031",40108818,"R"
144700,"264 WALLACE RD","NASHVILLE","TN",37211,36.0792401950001,-86.710671415,200,"264 WALLACE RD, NASHVILLE, TN, 37211","Match","Exact","264 WALLACE RD, NASHVILLE, TN, 37211",97197367,"R"
144701,"264 WEST 77TH STREET APT 4","NEW YORK","NY",10024,40.782714529,-73.981396377,201,"264 WEST 77TH STREET APT 4, NEW YORK, NY, 10024","Match","Exact","264 W 77TH ST, NEW YORK, NY, 10024",59656638,"L"
144702,"2640 10TH STREET","ENGLEWOOD","FL",34224,26.918016842,-82.326411814,202,"2640 10TH STREET, ENGLEWOOD, FL, 34224","Match","Exact","2640 TENTH ST, ENGLEWOOD, FL, 34224",4295332,"L"
144703,"2640 25TH ST","HEMPSETAD","TX",77445,30.080980552,-96.096961838,203,"2640 25TH ST, HEMPSETAD, TX, 77445","Match","Non_Exact","2640 25TH ST, HEMPSTEAD, TX, 77445",649859778,"L"
144704,"2640 CADBURY CIRCLE","LAKE IN THE HILLS","IL",60156,42.1962528510001,-88.3928223569999,204,"2640 CADBURY CIRCLE, LAKE IN THE HILLS, IL, 60156","Match","Exact","2640 CADBURY CIR, LAKE IN THE HILLS, IL, 60156",119859880,"R"
144705,"2640 CAST OFF LOOP","WOODBRIDGE","VA",22191,38.6023975430001,-77.289322414,205,"2640 CAST OFF LOOP, WOODBRIDGE, VA, 22191","Match","Exact","2640 CAST OFF LOOP, WOODBRIDGE, VA, 22191",619942983,"L"
144706,"2640 CHESTNUT ROAD","ELIZABETHTOWN","PA",17022,40.2253459030001,-76.648915565,206,"2640 CHESTNUT ROAD, ELIZABETHTOWN, PA, 17022","Match","Exact","2640 CHESTNUT RD, ELIZABETHTOWN, PA, 17022",70834409,"R"
144707,"2640 DUSTY RD","GARLAND","KS",66741,37.729796849,-94.6240971459999,207,"2640 DUSTY RD, GARLAND, KS, 66741","Match","Exact","2640 DUSTY RD, GARLAND, KS, 66741",27480619,"L"
144708,"2640 E EDISON AVE STE 3","SUNNYSIDE","WA",98944,NA,NA,208,"2640 E EDISON AVE STE 3, SUNNYSIDE, WA, 98944","No_Match",NA,NA,NA,NA
144709,"2640 EAST COLLEGE PARKWAY HC2","CARSON CITY","NV",89706,39.188404957,-119.724110272,209,"2640 EAST COLLEGE PARKWAY HC2, CARSON CITY, NV, 89706","Match","Non_Exact","2640 COLLEGE PKWY, CARSON CITY, NV, 89706",199526290,"L"
144710,"2640 EL RANCHO ROAD","SIDNEY","NE",69162,41.124529044,-102.983404456,210,"2640 EL RANCHO ROAD, SIDNEY, NE, 69162","Match","Exact","2640 EL RANCHO RD, SIDNEY, NE, 69162",135917964,"L"
144711,"2640 GOLDEN GATE PKWY STE 112A","NAPLES","FL",34105,26.1738048940001,-81.770563037,211,"2640 GOLDEN GATE PKWY STE 112A, NAPLES, FL, 34105","Match","Exact","2640 GOLDEN GATE PKWY, NAPLES, FL, 34105",646611190,"R"
144712,"2640 JACKSON ROAD","HAMILTON","OH",45011,39.4560683030001,-84.514706335,212,"2640 JACKSON ROAD, HAMILTON, OH, 45011","Match","Exact","2640 JACKSON RD, HAMILTON, OH, 45011",652491274,"R"
144713,"2640 LAKE POINT DR  APT 1314","GRAND PRAIRIE","TX",75050,NA,NA,213,"2640 LAKE POINT DR  APT 1314, GRAND PRAIRIE, TX, 75050","No_Match",NA,NA,NA,NA
144714,"2640 LEAF LANE","SHREVEPORT","LA",71109,32.487544832,-93.812991639,214,"2640 LEAF LANE, SHREVEPORT, LA, 71109","Match","Exact","2640 LEAF LN, SHREVEPORT, LA, 71109",57430985,"R"
144715,"2640 LINCOLN BLVD STE 8","SANTA MONICA","CA",90405,NA,NA,215,"2640 LINCOLN BLVD STE 8, SANTA MONICA, CA, 90405","No_Match",NA,NA,NA,NA
144716,"2640 MIDDEN DRIVE","MARRERO","LA",70072,29.818120988,-90.104948044,216,"2640 MIDDEN DRIVE, MARRERO, LA, 70072","Match","Exact","2640 MIDDEN DR, MARRERO, LA, 70072",93533034,"L"
144717,"2640 NW 10TH STREET STE H","OKLAHOMA CITY","OK",73107,35.478634389,-97.561843697,217,"2640 NW 10TH STREET STE H, OKLAHOMA CITY, OK, 73107","Match","Non_Exact","2640 NW 10TH ST, OKLAHOMA CITY, OK, 73107",606085493,"L"
144718,"2640 NW 123 DR","CORAL SPRINGS","FL",33065,26.2645779490001,-80.2924636119999,218,"2640 NW 123 DR, CORAL SPRINGS, FL, 33065","Match","Exact","2640 NW 123RD DR, CORAL SPRINGS, FL, 33065",114772609,"L"
144719,"2640 NW FISHWICK COURT","BEND","OR",97703,44.087271995,-121.355739388,219,"2640 NW FISHWICK COURT, BEND, OR, 97703","Match","Exact","2640 NW FISHWICK CT, BEND, OR, 97703",152578794,"R"
144720,"2640 OLD DENTON RD","CARROLLTON","TX",75007,32.9853164250001,-96.909782768,220,"2640 OLD DENTON RD, CARROLLTON, TX, 75007","Match","Exact","2640 OLD DENTON RD, CARROLLTON, TX, 75007",103255502,"R"
144721,"2640 OLSEN ROAD","SEBASTOPOL","CA",95472,38.3667265770001,-122.845236934,221,"2640 OLSEN ROAD, SEBASTOPOL, CA, 95472","Match","Exact","2640 OLSEN RD, SEBASTOPOL, CA, 95472",67465585,"R"
144722,"2640 S YORK ST APT 2","DENVER","CO",80210,39.7550117160001,-104.959748617,222,"2640 S YORK ST APT 2, DENVER, CO, 80210","Match","Non_Exact","2640 YORK ST, DENVER, CO, 80205",177310868,"R"
144723,"2640 SHIRLEY DR","INDIANAPOLIS","IN",46222,39.803913477,-86.231262041,223,"2640 SHIRLEY DR, INDIANAPOLIS, IN, 46222","Match","Exact","2640 SHIRLEY DR, INDIANAPOLIS, IN, 46222",108023076,"L"
144724,"2640 SW 137 TERRACE","DAVIE","FL",33330,26.086939181,-80.332211285,224,"2640 SW 137 TERRACE, DAVIE, FL, 33330","Match","Exact","2640 SW 137TH TER, DAVIE, FL, 33330",114698746,"L"
144725,"2640 TALLANT ROAD","SANTA BARBARA","CA",93105,34.4312550070001,-119.728775608,225,"2640 TALLANT ROAD, SANTA BARBARA, CA, 93105","Match","Exact","2640 TALLANT RD, SANTA BARBARA, CA, 93105",640555333,"R"
144726,"2640 TOSCA TRAIL","APEX","NC",27502,35.716354719,-78.908200747,226,"2640 TOSCA TRAIL, APEX, NC, 27502","Match","Exact","2640 TOSCA TRL, APEX, NC, 27502",648036827,"R"
144727,"2640 VIOLET COURT","RACINE","WI",53402,42.810437015,-87.809117128,227,"2640 VIOLET COURT, RACINE, WI, 53402","Match","Exact","2640 VIOLET CT, RACINE, WI, 53402",77905277,"R"
144728,"2640 W WHITNEY STREET","OLATHE","KS",66061,38.8904984160001,-94.8644463269999,228,"2640 W WHITNEY STREET, OLATHE, KS, 66061","Match","Exact","2640 W WHITNEY ST, OLATHE, KS, 66061",91325783,"R"
144729,"2640 WESTBURY CT","SUWANEE","GA",30024,34.016243479,-84.046055462,229,"2640 WESTBURY CT, SUWANEE, GA, 30024","Match","Exact","2640 WESTBURY CT, SUWANEE, GA, 30024",88953465,"L"
144730,"2640-99TH AVE","OAKLAND","CA",94605,NA,NA,230,"2640-99TH AVE, OAKLAND, CA, 94605","No_Match",NA,NA,NA,NA
144731,"26400 COUNTY ROAD 69","LOXLEY","AL",36551,30.609676891,-87.6913803259999,231,"26400 COUNTY ROAD 69, LOXLEY, AL, 36551","Match","Exact","26400 CO RD 69, LOXLEY, AL, 36551",649197937,"L"
144732,"26400 KUYKENDAHL RD STE-C180/148","THE WOODLANDS","TX",77375,30.1437867280001,-95.5503827219999,232,"26400 KUYKENDAHL RD STE-C180/148, THE WOODLANDS, TX, 77375","Match","Exact","26400 KUYKENDAHL RD, THE WOODLANDS, TX, 77375",645503274,"R"
144733,"26400 NE VALLEY ST UNIT 1422","DUVALL","WA",98019,NA,NA,233,"26400 NE VALLEY ST UNIT 1422, DUVALL, WA, 98019","No_Match",NA,NA,NA,NA
144734,"26400 STANFORD DR W","SOUTHFIELD","MI",48033,42.481378975,-83.315228529,234,"26400 STANFORD DR W, SOUTHFIELD, MI, 48033","Match","Exact","26400 STANFORD DR W, SOUTHFIELD, MI, 48033",644599563,"L"
144735,"26401 GALAXIE AVENUE","FARMINGTON","MN",55024,44.567385475,-93.207607696,235,"26401 GALAXIE AVENUE, FARMINGTON, MN, 55024","Match","Non_Exact","26401 GALAXIE AVE W, FARMINGTON, MN, 55024",37920437,"R"
144736,"26405 S KUERSTEN ROAD","MONEE","IL",60449,41.407202356,-87.718600094,236,"26405 S KUERSTEN ROAD, MONEE, IL, 60449","Match","Exact","26405 S KUERSTEN RD, MONEE, IL, 60449",620036630,"L"
144737,"26405 W 144TH CT","OLATHE","KS",66061,38.865616409,-94.890987538,237,"26405 W 144TH CT, OLATHE, KS, 66061","Match","Exact","26405 W 144TH CT, OLATHE, KS, 66061",619896856,"L"
144738,"2641 BAYHILL COURT","CINCINNATI","OH",45233,39.1375353400001,-84.697870307,238,"2641 BAYHILL COURT, CINCINNATI, OH, 45233","Match","Exact","2641 BAYHILL CT, CINCINNATI, OH, 45233",103957602,"R"
144739,"2641 BRIGHTON RD","CARLSBAD","CA",92010,33.1607597140001,-117.311410838,239,"2641 BRIGHTON RD, CARLSBAD, CA, 92010","Match","Exact","2641 BRIGHTON RD, CARLSBAD, CA, 92010",195375856,"R"
144740,"2641 BRUISEE RD","CARO","MI",48723,43.4333937640001,-83.433138193,240,"2641 BRUISEE RD, CARO, MI, 48723","Match","Exact","2641 BRUISEE RD, CARO, MI, 48723",81257858,"R"
144741,"2641 CAHILL WAY","LAKE MARY","FL",32746,28.7830850190001,-81.3029368919999,241,"2641 CAHILL WAY, LAKE MARY, FL, 32746","Match","Exact","2641 CAHILL WAY, LAKE MARY, FL, 32746",93766475,"L"
144742,"2641 CAMELLIA ST","WASCO","CA",93280,35.5837815990001,-119.35564614,242,"2641 CAMELLIA ST, WASCO, CA, 93280","Match","Exact","2641 CAMELLIA ST, WASCO, CA, 93280",631718244,"R"
144743,"2641 CROMWELL RD","N CHESTERFIELD","VA",23235,37.5310583460001,-77.579574491,243,"2641 CROMWELL RD, N CHESTERFIELD, VA, 23235","Match","Exact","2641 CROMWELL RD, NORTH CHESTERFIELD, VA, 23235",201530787,"R"
144744,"2641 DALISAY ST","SAN DIEGO","CA",92154,32.5621878310001,-117.076341008,244,"2641 DALISAY ST, SAN DIEGO, CA, 92154","Match","Exact","2641 DALISAY ST, SAN DIEGO, CA, 92154",195358085,"R"
144745,"2641 E COLLEGE AVE APT 758","DECATUR","GA",30030,33.7747829200001,-84.280149014,245,"2641 E COLLEGE AVE APT 758, DECATUR, GA, 30030","Match","Non_Exact","2641 E COLLEGE AVE, DECATUR, GA, 30030",23367363,"R"
144746,"2641 GATELY DRIVE WEST  UNIT 903","WEST PALM BEACH","FL",33415,26.637519685,-80.1360224169999,246,"2641 GATELY DRIVE WEST  UNIT 903, WEST PALM BEACH, FL, 33415","Match","Exact","2641 GATELY DR W, WEST PALM BEACH, FL, 33415",611580194,"L"
144747,"2641 HWY 66","YOUNG HARRIS","GA",30582,34.9865553700001,-83.890543485,247,"2641 HWY 66, YOUNG HARRIS, GA, 30582","Match","Non_Exact","2641 STATE RTE 66, YOUNG HARRIS, GA, 30582",643034908,"L"
144748,"2641 KENTUCKY AVE S","ST LOUIS PARK","MN",55426,44.955937222,-93.3696353939999,248,"2641 KENTUCKY AVE S, ST LOUIS PARK, MN, 55426","Match","Exact","2641 KENTUCKY AVE S, SAINT LOUIS PARK, MN, 55426",43619583,"L"
144749,"2641 LACROSSE PLACE","WALDORF","MD",20603,38.644010984,-76.968626366,249,"2641 LACROSSE PLACE, WALDORF, MD, 20603","Match","Exact","2641 LACROSSE PL, WALDORF, MD, 20603",25393099,"L"
144750,"2641 LAKE LUCERNE DR","BELLEVILLE","IL",62221,38.563472157,-89.935314628,250,"2641 LAKE LUCERNE DR, BELLEVILLE, IL, 62221","Match","Exact","2641 LAKE LUCERNE DR, BELLEVILLE, IL, 62221",107875267,"R"
144751,"2641 LAKESIDE DRIVE","BURLESON","TX",76028,32.495380159,-97.363440897,251,"2641 LAKESIDE DRIVE, BURLESON, TX, 76028","Match","Exact","2641 LAKESIDE DR, BURLESON, TX, 76028",103534134,"L"
144752,"2641 MICHAEL CIRCLE","DULUTH","GA",30096,33.973255894,-84.138614182,252,"2641 MICHAEL CIRCLE, DULUTH, GA, 30096","Match","Non_Exact","2641 MICHAEL CIR NW, DULUTH, GA, 30096",88885366,"L"
144753,"2641 MORNING DOVE ROAD","MOSINEE","WI",54455,44.8507270220001,-89.585656832,253,"2641 MORNING DOVE ROAD, MOSINEE, WI, 54455","Match","Exact","2641 MORNING DOVE RD, MOSINEE, WI, 54455",631774638,"R"
144754,"2641 N FLAMINGO RD","SUNRISE","FL",33323,26.1584656270001,-80.3144534639999,254,"2641 N FLAMINGO RD, SUNRISE, FL, 33323","Match","Exact","2641 N FLAMINGO RD, SUNRISE, FL, 33323",640935394,"R"
144755,"2641 N SHADOW CREST DR","FAYETTEVILLE","AR",72704,36.100843179,-94.2199147379999,255,"2641 N SHADOW CREST DR, FAYETTEVILLE, AR, 72704","Match","Exact","2641 N SHADOW CREST DR, FAYETTEVILLE, AR, 72704",635395704,"R"
144756,"2641 NORTH RICHMOND STREET","ARLINGTON","VA",22207,38.9058128410001,-77.1115858749999,256,"2641 NORTH RICHMOND STREET, ARLINGTON, VA, 22207","Match","Exact","2641 N RICHMOND ST, ARLINGTON, VA, 22207",76468074,"R"
144757,"2641 NW 20TH STREET","MIAMI","FL",33142,25.7942992920001,-80.2391250489999,257,"2641 NW 20TH STREET, MIAMI, FL, 33142","Match","Non_Exact","2641 NW 20TH ST, MIAMI, FL, 33142",116011232,"R"
144758,"2641 PADEN PLACE","BIRMINGHAM","AL",35226,33.4098894310001,-86.8203081949999,258,"2641 PADEN PLACE, BIRMINGHAM, AL, 35226","Match","Exact","2641 PADEN PL, BIRMINGHAM, AL, 35226",81582587,"L"
144759,"2641 PARK STREET","JACKSONVILLE","FL",32204,30.311071133,-81.692803052,259,"2641 PARK STREET, JACKSONVILLE, FL, 32204","Match","Exact","2641 PARK ST, JACKSONVILLE, FL, 32204",83895065,"R"
144760,"2641 RESERVOIR ROAD","RICHMOND","IN",47374,39.864394643,-84.841782871,260,"2641 RESERVOIR ROAD, RICHMOND, IN, 47374","Match","Exact","2641 RESERVOIR RD, RICHMOND, IN, 47374",31340063,"R"
144761,"2641 ROY ROAD","PEARLAND","TX",77581,29.561657616,-95.327022202,261,"2641 ROY ROAD, PEARLAND, TX, 77581","Match","Exact","2641 ROY RD, PEARLAND, TX, 77581",624972972,"R"
144762,"2641 SUSSANA LANE","TITUSVILLE","FL",32780,28.571209761,-80.835046671,262,"2641 SUSSANA LANE, TITUSVILLE, FL, 32780","Match","Exact","2641 SUSSANA LN, TITUSVILLE, FL, 32780",93962221,"L"
144763,"2641 SW ARVONIA PLACE","TOPEKA","KS",66614,39.01820882,-95.771051212,263,"2641 SW ARVONIA PLACE, TOPEKA, KS, 66614","Match","Exact","2641 SW ARVONIA PL, TOPEKA, KS, 66614",17897651,"L"
144764,"2641 SW GALLERY CIRCLE","PALM CITY","FL",34990,27.1683793510001,-80.289633924,264,"2641 SW GALLERY CIRCLE, PALM CITY, FL, 34990","Match","Exact","2641 SW GALLERY CR, PALM CITY, FL, 34990",614137046,"R"
144765,"2641 WALLCREST BLVD","COLUMBUS","OH",43231,40.0721597,-82.9498016859999,265,"2641 WALLCREST BLVD, COLUMBUS, OH, 43231","Match","Exact","2641 WALLCREST BLVD, COLUMBUS, OH, 43231",218660773,"R"
144766,"2641 YORK STREET","BLUE ISLAND","IL",60406,41.657063721,-87.686289242,266,"2641 YORK STREET, BLUE ISLAND, IL, 60406","Match","Exact","2641 YORK ST, BLUE ISLAND, IL, 60406",111825665,"L"
144767,"26411 NE 52ND WAY","VANCOUVER","WA",98682,45.6598592780001,-122.403701782,267,"26411 NE 52ND WAY, VANCOUVER, WA, 98682","Match","Exact","26411 NE 52ND WAY, VANCOUVER, WA, 98682",158368916,"R"
144768,"26414","FAYETTEVILLE","NC",28314,NA,NA,268,"26414, FAYETTEVILLE, NC, 28314","No_Match",NA,NA,NA,NA
144769,"26416 99TH PLACE S","KENT","WA",98030,47.3648631670001,-122.208012836,269,"26416 99TH PLACE S, KENT, WA, 98030","Match","Exact","26416 99TH PL S, KENT, WA, 98030",186653444,"L"
144770,"26417 SE 224TH ST","MAPLE VALLEY","WA",98038,47.4010161460001,-121.989371243,270,"26417 SE 224TH ST, MAPLE VALLEY, WA, 98038","Match","Exact","26417 SE 224TH ST, MAPLE VALLEY, WA, 98038",239794407,"R"
144771,"26419 OAK RIDGE DRIVE","THE WOODLANDS","TX",77380,NA,NA,271,"26419 OAK RIDGE DRIVE, THE WOODLANDS, TX, 77380","No_Match",NA,NA,NA,NA
144772,"2642 64TH AVE A","OAKLAND","CA",94605,NA,NA,272,"2642 64TH AVE A, OAKLAND, CA, 94605","No_Match",NA,NA,NA,NA
144773,"2642 BERRY HALL ROAD","BETHLEHEM","GA",30620,33.9424985850001,-83.820533658,273,"2642 BERRY HALL ROAD, BETHLEHEM, GA, 30620","Match","Non_Exact","2642 BERRY HALL RD SE, BETHLEHEM, GA, 30620",649872240,"R"
144774,"2642 BRUTON SPRINGS DR","DALLAS","TX",75227,32.756802728,-96.664596202,274,"2642 BRUTON SPRINGS DR, DALLAS, TX, 75227","Match","Exact","2642 BRUTON SPRINGS DR, DALLAS, TX, 75227",103197312,"R"
144775,"2642 CAPSTONE DRIVE","MONTGOMERY","AL",36106,32.3390696380001,-86.2464611239999,275,"2642 CAPSTONE DRIVE, MONTGOMERY, AL, 36106","Match","Exact","2642 CAPSTONE DR, MONTGOMERY, AL, 36106",1488909,"R"
144776,"2642 CASTILLO CIRCLE","THOUSAND OAKS","CA",91360,34.2142112860001,-118.900458224,276,"2642 CASTILLO CIRCLE, THOUSAND OAKS, CA, 91360","Match","Exact","2642 CASTILLO CIR, THOUSAND OAKS, CA, 91360",109966288,"R"
144777,"2642 EAST MAIN STREET","WAPPINGERS FALLS","NY",12590,41.598581784,-73.919102127,277,"2642 EAST MAIN STREET, WAPPINGERS FALLS, NY, 12590","Match","Exact","2642 E MAIN ST, WAPPINGERS FALLS, NY, 12590",638007813,"L"
144778,"2642 ELEANOR ST","PORTAGE","IN",46368,41.5744368270001,-87.178738604,278,"2642 ELEANOR ST, PORTAGE, IN, 46368","Match","Exact","2642 ELEANOR ST, PORTAGE, IN, 46368",119908683,"R"
144779,"2642 FAWNLAKE TRAIL","ORLANDO","FL",32828,28.517405404,-81.1699083,279,"2642 FAWNLAKE TRAIL, ORLANDO, FL, 32828","Match","Exact","2642 FAWNLAKE TRL, ORLANDO, FL, 32828",634027975,"R"
144780,"2642 HEYWOOD LANE","HAYES","VA",23072,37.284091732,-76.46297751,280,"2642 HEYWOOD LANE, HAYES, VA, 23072","Match","Exact","2642 HEYWOOD LN, HAYES, VA, 23072",168212713,"L"
144781,"2642 LITITZ PIKE","LANCASTER","PA",17601,40.0986855190001,-76.305253223,281,"2642 LITITZ PIKE, LANCASTER, PA, 17601","Match","Exact","2642 LITITZ PIKE, LANCASTER, PA, 17601",179692049,"L"
144782,"2642 MADRONA DR SE","PORT ORCHARD","WA",98366,47.5244682160001,-122.605467035,282,"2642 MADRONA DR SE, PORT ORCHARD, WA, 98366","Match","Exact","2642 MADRONA DR SE, PORT ORCHARD, WA, 98366",187643852,"R"
144783,"2642 PHILO WHITE ROAD","FRANKLINTON","NC",27525,36.154356825,-78.5744189599999,283,"2642 PHILO WHITE ROAD, FRANKLINTON, NC, 27525","Match","Exact","2642 PHILO WHITE RD, FRANKLINTON, NC, 27525",77106555,"R"
144784,"2642 RANKIN RUN","DULUTH","GA",30097,33.9982747020001,-84.117631805,284,"2642 RANKIN RUN, DULUTH, GA, 30097","Match","Exact","2642 RANKIN RUN, DULUTH, GA, 30097",88958869,"L"
144785,"2642 SUMMIT PKWY SW","ATLANTA","GA",30331,33.6837889130001,-84.596609341,285,"2642 SUMMIT PKWY SW, ATLANTA, GA, 30331","Match","Exact","2642 SUMMIT PKWY SW, ATLANTA, GA, 30331",647351124,"L"
144786,"2642 WEYBRIDGE ROAD","WEYBRIDGE","VT",5753,44.036836238,-73.2093149,286,"2642 WEYBRIDGE ROAD, WEYBRIDGE, VT, 5753","Match","Exact","2642 WEYBRIDGE RD, WEYBRIDGE, VT, 05753",641173603,"R"
144787,"2642 YOUREE DRIVE","SHREVEPORT","LA",71104,32.486362152,-93.724209316,287,"2642 YOUREE DRIVE, SHREVEPORT, LA, 71104","Match","Exact","2642 YOUREE DR, SHREVEPORT, LA, 71104",639249442,"R"
144788,"26420 W 111TH TERRACE","OLATHE","KS",66061,38.9250443220001,-94.890110304,288,"26420 W 111TH TERRACE, OLATHE, KS, 66061","Match","Exact","26420 W 111TH TER, OLATHE, KS, 66061",91324851,"L"
144789,"26421 DEER CREEK LANE","CANYON COUNTRY","CA",91387,34.3876640670001,-118.411834886,289,"26421 DEER CREEK LANE, CANYON COUNTRY, CA, 91387","Match","Exact","26421 DEER CREEK LN, CANYON COUNTRY, CA, 91387",647540598,"R"
144790,"26421 FRANKLIN POINTE DR","SOUTHFIELD","MI",48034,NA,NA,290,"26421 FRANKLIN POINTE DR, SOUTHFIELD, MI, 48034","No_Match",NA,NA,NA,NA
144791,"26421 FRANKLIN POINTE DRIVE","SOUTHFIELD","MI",48034,NA,NA,291,"26421 FRANKLIN POINTE DRIVE, SOUTHFIELD, MI, 48034","No_Match",NA,NA,NA,NA
144792,"26422 DRACAEA AVENUE","MORENO VALLEY","CA",92555,33.9282382810001,-117.200907658,292,"26422 DRACAEA AVENUE, MORENO VALLEY, CA, 92555","Match","Exact","26422 DRACAEA AVE, MORENO VALLEY, CA, 92555",194819605,"L"
144793,"26422 OAKRIDGE DRIVE","WIND LAKE","WI",53185,42.8293496380001,-88.157921227,293,"26422 OAKRIDGE DRIVE, WIND LAKE, WI, 53185","Match","Non_Exact","26422 OAK RIDGE DR, WIND LAKE, WI, 53185",77903567,"L"
144794,"26424 SE 162ND PLACE","ISSAQUAH","WA",98027,47.456397028,-121.988885612,294,"26424 SE 162ND PLACE, ISSAQUAH, WA, 98027","Match","Exact","26424 SE 162ND PL, ISSAQUAH, WA, 98027",186968396,"R"
144795,"26426 TRINITY CHURCH ROAD","COURTLAND","VA",23837,36.7874236960001,-77.05733312,295,"26426 TRINITY CHURCH ROAD, COURTLAND, VA, 23837","Match","Exact","26426 TRINITY CHURCH RD, COURTLAND, VA, 23837",82709045,"R"
144796,"26426 W HIGHLAND DRIVE","CHANNAHON","IL",60410,NA,NA,296,"26426 W HIGHLAND DRIVE, CHANNAHON, IL, 60410","Tie",NA,NA,NA,NA
144797,"2643 BEAVER AVE PMB 326","DES MOINES","IA",50310,41.61872221,-93.673085111,297,"2643 BEAVER AVE PMB 326, DES MOINES, IA, 50310","Match","Exact","2643 BEAVER AVE, DES MOINES, IA, 50310",65779748,"R"
144798,"2643 BEAVER AVENUE  NUMBER 171","DES MOINES","IA",50310,41.61872221,-93.673085111,298,"2643 BEAVER AVENUE  NUMBER 171, DES MOINES, IA, 50310","Match","Exact","2643 BEAVER AVE, DES MOINES, IA, 50310",65779748,"R"
144799,"2643 BILL OWENS PKWY","LONGVIEW","TX",75604,32.5347821130001,-94.767137826,299,"2643 BILL OWENS PKWY, LONGVIEW, TX, 75604","Match","Exact","2643 BILL OWENS PKWY, LONGVIEW, TX, 75604",141127227,"L"
144800,"2643 COREY STREET","WATERFORD","MI",48328,42.651525656,-83.339144916,300,"2643 COREY STREET, WATERFORD, MI, 48328","Match","Exact","2643 COREY ST, WATERFORD, MI, 48328",69701953,"R"
144801,"2643 COTTAGE PINES LN","SPRING","TX",77386,NA,NA,301,"2643 COTTAGE PINES LN, SPRING, TX, 77386","No_Match",NA,NA,NA,NA
144802,"2643 E UNIVERSITY ST","PHOENIX","AZ",85034,33.4237624800001,-112.024379569,302,"2643 E UNIVERSITY ST, PHOENIX, AZ, 85034","Match","Non_Exact","2643 E UNIVERSITY DR, PHOENIX, AZ, 85034",128919691,"R"
144803,"2643 ERIE AVE","CINCINNATI","OH",45208,39.139793986,-84.444311308,303,"2643 ERIE AVE, CINCINNATI, OH, 45208","Match","Exact","2643 ERIE AVE, CINCINNATI, OH, 45208",103931119,"R"
144804,"2643 FLOSSMOOR ROAD APT 105","FLOSSMOOR","IL",60422,41.5426064650001,-87.680831615,304,"2643 FLOSSMOOR ROAD APT 105, FLOSSMOOR, IL, 60422","Match","Exact","2643 FLOSSMOOR RD, FLOSSMOOR, IL, 60422",111709248,"R"
144805,"2643 GALWAY CIRCLE","IDAHO FALLS","ID",83404,43.473881191,-112.010048785,305,"2643 GALWAY CIRCLE, IDAHO FALLS, ID, 83404","Match","Exact","2643 GALWAY CIR, IDAHO FALLS, ID, 83404",119143468,"R"
144806,"2643 GRADY STREET","SMYRNA","GA",30080,33.8882179440001,-84.522193655,306,"2643 GRADY STREET, SMYRNA, GA, 30080","Match","Exact","2643 GRADY ST, SMYRNA, GA, 30080",642674875,"L"
144807,"2643 GRAND TETON DR","HOUSTON","TX",77067,29.96235453,-95.471393899,307,"2643 GRAND TETON DR, HOUSTON, TX, 77067","Match","Exact","2643 GRAND TETON DR, HOUSTON, TX, 77067",96011293,"L"
144808,"2643 GRAND TETON DRIVE","HOUSTON","TX",77067,29.96235453,-95.471393899,308,"2643 GRAND TETON DRIVE, HOUSTON, TX, 77067","Match","Exact","2643 GRAND TETON DR, HOUSTON, TX, 77067",96011293,"L"
144809,"2643 GUNN RD","SPRINGFIELD","TN",37172,36.6010618290001,-86.8841060679999,309,"2643 GUNN RD, SPRINGFIELD, TN, 37172","Match","Exact","2643 GUNN RD, SPRINGFIELD, TN, 37172",97449612,"R"
144810,"2643 N FILMORE ST","DAVENPORT","IA",52804,41.5464936810001,-90.593651284,310,"2643 N FILMORE ST, DAVENPORT, IA, 52804","Match","Non_Exact","2643 N FILLMORE ST, DAVENPORT, IA, 52804",122706930,"R"
144811,"2643 N HIGHWAY 16","DENVER","NC",28037,35.512024126,-81.0028783389999,311,"2643 N HIGHWAY 16, DENVER, NC, 28037","Match","Non_Exact","2643 STATE RD 16, DENVER, NC, 28037",69538038,"L"
144812,"2643 NEW CUMMER RD","WEST LIBERTY","KY",41472,37.8994476870001,-83.355501417,312,"2643 NEW CUMMER RD, WEST LIBERTY, KY, 41472","Match","Exact","2643 NEW CUMMER RD, WEST LIBERTY, KY, 41472",33730595,"L"
144813,"2643 ROYAL BLUE DR","HOUSTON","TX",77088,29.8955842140001,-95.451934356,313,"2643 ROYAL BLUE DR, HOUSTON, TX, 77088","Match","Non_Exact","2643 ROYAL BLUE, HOUSTON, TX, 77088",638593242,"L"
144814,"2643 S DURANGO DR APT 203","LAS VEGAS","NV",89117,36.141487066,-115.278979249,314,"2643 S DURANGO DR APT 203, LAS VEGAS, NV, 89117","Match","Non_Exact","2643 S DURANGO DR, LAS VEGAS, NV, 89117",201901620,"R"
144815,"2643 SASNETT LANE","WESTVILLE","FL",32464,30.7611422850001,-85.86622304,315,"2643 SASNETT LANE, WESTVILLE, FL, 32464","Match","Exact","2643 SASNETT LN, WESTVILLE, FL, 32464",32684047,"R"
144816,"2643 SOUTH SUNFLOWER DIVE","BLOOMINGTON","IN",47403,39.1396793660001,-86.5539628349999,316,"2643 SOUTH SUNFLOWER DIVE, BLOOMINGTON, IN, 47403","Match","Non_Exact","2643 S SUNFLOWER DR, BLOOMINGTON, IN, 47403",606913104,"L"
144817,"2643 SW ACE ROAD","PORT ST LUCIE","FL",34953,27.264497288,-80.380666407,317,"2643 SW ACE ROAD, PORT ST LUCIE, FL, 34953","Match","Exact","2643 SW ACE RD, PORT ST LUCIE, FL, 34953",120184265,"R"
144818,"2643 US HIGHWAY 41 SOUTH","PERRY","GA",31069,32.368207823,-83.7889236619999,318,"2643 US HIGHWAY 41 SOUTH, PERRY, GA, 31069","Match","Exact","2643 US HWY 41 S, PERRY, GA, 31069",91263083,"L"
144819,"2643 W 175TH STREET","TORRANCE","CA",90504,33.872081182,-118.322758988,319,"2643 W 175TH STREET, TORRANCE, CA, 90504","Match","Exact","2643 175TH ST, TORRANCE, CA, 90504",141664301,"R"
144820,"2643 WILLIAMS GRANT ST","SUGAR LAND","TX",77479,29.5890019510001,-95.6096543579999,320,"2643 WILLIAMS GRANT ST, SUGAR LAND, TX, 77479","Match","Non_Exact","2643 WILLIAMS GRANT, SUGAR LAND, TX, 77479",78268755,"L"
144821,"26431 FORT MEIGS ROAD","PERRYSBURG","OH",43551,41.5373067420001,-83.654990277,321,"26431 FORT MEIGS ROAD, PERRYSBURG, OH, 43551","Match","Exact","26431 FORT MEIGS RD, PERRYSBURG, OH, 43551",632503529,"L"
144822,"26431 PEPPERWOOD STREET","SAN JUAN CAPO","CA",92675,33.5369062240001,-117.669507703,322,"26431 PEPPERWOOD STREET, SAN JUAN CAPO, CA, 92675","Match","Non_Exact","26431 PEPPERWOOD LN, SAN JUAN CAPO, CA, 92675",144111454,"L"
144823,"26431 SHIAWASSEE","SOUTHFIELD","MI",48033,42.4471620420001,-83.305871711,323,"26431 SHIAWASSEE, SOUTHFIELD, MI, 48033","Match","Non_Exact","26431 SHIAWASSEE RD, SOUTHFIELD, MI, 48033",69731733,"L"
144824,"26432 HWY 129","ASOTIN","WA",99402,46.2736367000001,-117.059544205,324,"26432 HWY 129, ASOTIN, WA, 99402","Match","Non_Exact","26432 STATE RTE 129, ASOTIN, WA, 99402",607260766,"L"
144825,"2644 ALISDALE DR APT 103","TOLEDO","OH",43606,41.6717154080001,-83.610633433,325,"2644 ALISDALE DR APT 103, TOLEDO, OH, 43606","Match","Exact","2644 ALISDALE DR, TOLEDO, OH, 43606",33935379,"R"
144826,"2644 BLAIRGOWRIE DR","HENDERSON","NV",89044,35.928571452,-115.099601878,326,"2644 BLAIRGOWRIE DR, HENDERSON, NV, 89044","Match","Exact","2644 BLAIRGOWRIE DR, HENDERSON, NV, 89044",627155178,"L"
144827,"2644 COUNTRY OAKS CT","AURORA","IL",60502,41.807014639,-88.2519539629999,327,"2644 COUNTRY OAKS CT, AURORA, IL, 60502","Match","Exact","2644 COUNTRY OAKS CT, AURORA, IL, 60502",112667869,"L"
144828,"2644 CRESTDALE CRICLE SE","ATLANTA","GA",30316,NA,NA,328,"2644 CRESTDALE CRICLE SE, ATLANTA, GA, 30316","No_Match",NA,NA,NA,NA
144829,"2644 EAST COLEMERE STREET","SANDY","UT",84092,40.5754094260001,-111.816504918,329,"2644 EAST COLEMERE STREET, SANDY, UT, 84092","Match","Non_Exact","2644 COLEMERE ST, SANDY, UT, 84092",176150309,"R"
144830,"2644 FLAMINGO DRIVE","MIAMI BEACH","FL",33140,25.8034899410001,-80.127788088,330,"2644 FLAMINGO DRIVE, MIAMI BEACH, FL, 33140","Match","Exact","2644 FLAMINGO DR, MIAMI BEACH, FL, 33140",116287006,"L"
144831,"2644 JIM HOUSTON CT","MURFREESBORO","TN",37129,35.8936151250001,-86.398003981,331,"2644 JIM HOUSTON CT, MURFREESBORO, TN, 37129","Match","Exact","2644 JIM HOUSTON CT, MURFREESBORO, TN, 37129",606763915,"R"
144832,"2644 LEECHBURG ROAD","LOWER BURRELL","PA",15068,40.5893154680001,-79.740134159,332,"2644 LEECHBURG ROAD, LOWER BURRELL, PA, 15068","Match","Exact","2644 LEECHBURG RD, LOWER BURRELL, PA, 15068",52960620,"R"
144833,"2644 N 22ND STREET","PHILADELPHIA","PA",19132,39.9951185400001,-75.167690597,333,"2644 N 22ND STREET, PHILADELPHIA, PA, 19132","Match","Exact","2644 N 22ND ST, PHILADELPHIA, PA, 19132",131402747,"L"
144834,"2644 N SPLITWOOD AVE","TUCSON","AZ",85745,32.254994663,-111.012473857,334,"2644 N SPLITWOOD AVE, TUCSON, AZ, 85745","Match","Exact","2644 N SPLITWOOD AVE, TUCSON, AZ, 85745",121407467,"R"
144835,"2644 OLSEN ROAD","SEBASTOPOL","CA",95472,38.3666350510001,-122.845237932,335,"2644 OLSEN ROAD, SEBASTOPOL, CA, 95472","Match","Exact","2644 OLSEN RD, SEBASTOPOL, CA, 95472",67465585,"R"
144836,"2644 PINEAPPLE AVENUE","MIMS","FL",32754,28.670734295,-80.839322599,336,"2644 PINEAPPLE AVENUE, MIMS, FL, 32754","Match","Exact","2644 PINEAPPLE AVE, MIMS, FL, 32754",93939861,"L"
144837,"2644 REID PARK LANE","CHARLOTTE","NC",28208,35.24652859,-80.9130894,337,"2644 REID PARK LANE, CHARLOTTE, NC, 28208","Match","Exact","2644 REID PARK LN, CHARLOTTE, NC, 28208",70593573,"R"
144838,"2644 SPRING BRANCH RD","MESQUITE","TX",75181,32.733034666,-96.594070061,338,"2644 SPRING BRANCH RD, MESQUITE, TX, 75181","Match","Exact","2644 SPRING BRANCH RD, MESQUITE, TX, 75181",103168870,"L"
144839,"2644 SSHERWOOD FREST BLVD SUITE 108","BATON ROUGE","LA",70816,NA,NA,339,"2644 SSHERWOOD FREST BLVD SUITE 108, BATON ROUGE, LA, 70816","No_Match",NA,NA,NA,NA
144840,"2644 VAN HISE AVENUE","MADISON","WI",53705,43.069830289,-89.432467128,340,"2644 VAN HISE AVENUE, MADISON, WI, 53705","Match","Exact","2644 VAN HISE AVE, MADISON, WI, 53705",49468817,"R"
144841,"2644 W EL PASO ST","BROKEN ARROW","OK",74012,36.0499418100001,-95.822335632,341,"2644 W EL PASO ST, BROKEN ARROW, OK, 74012","Match","Exact","2644 W EL PASO ST, BROKEN ARROW, OK, 74012",166458111,"L"
144842,"2644 WATERFORD WAY","CARROLLTON","TX",75006,32.975334151,-96.867592406,342,"2644 WATERFORD WAY, CARROLLTON, TX, 75006","Match","Exact","2644 WATERFORD WAY, CARROLLTON, TX, 75006",102995112,"R"
144843,"26440 FM 1093 SUITE A100","RICHMOND","TX",77406,NA,NA,343,"26440 FM 1093 SUITE A100, RICHMOND, TX, 77406","No_Match",NA,NA,NA,NA
144844,"26440 PEMBERTON DRIVE","SALISBURY","MD",21801,38.346510057,-75.6989776899999,344,"26440 PEMBERTON DRIVE, SALISBURY, MD, 21801","Match","Exact","26440 PEMBERTON DR, SALISBURY, MD, 21801",114495396,"R"
144845,"26440 PURITAN","REDFORD","MI",48239,42.4064991660001,-83.3030640759999,345,"26440 PURITAN, REDFORD, MI, 48239","Match","Exact","26440 PURITAN, REDFORD, MI, 48239",95419344,"R"
144846,"26442 BECKMAN COURT","MURRIETA","CA",92562,33.5325556290001,-117.180706485,346,"26442 BECKMAN COURT, MURRIETA, CA, 92562","Match","Exact","26442 BECKMAN CT, MURRIETA, CA, 92562",194880331,"R"
144847,"26443 QUINLAN AVE","STILLWATER","MN",55082,NA,NA,347,"26443 QUINLAN AVE, STILLWATER, MN, 55082","No_Match",NA,NA,NA,NA
144848,"26449 AUBERRY RD","CLOVIS","CA",93619,37.013864384,-119.555235687,348,"26449 AUBERRY RD, CLOVIS, CA, 93619","Match","Exact","26449 AUBERRY RD, CLOVIS, CA, 93619",197629498,"R"
144849,"2645 AERO DRIVE","GRAND PRAIRIE","TX",75052,32.704425687,-97.055043623,349,"2645 AERO DRIVE, GRAND PRAIRIE, TX, 75052","Match","Exact","2645 AERO DR, GRAND PRAIRIE, TX, 75052",101913949,"L"
144850,"2645 ALLEGHENY DRIVE","BLAKESLEE","PA",18610,41.005396595,-75.451433419,350,"2645 ALLEGHENY DRIVE, BLAKESLEE, PA, 18610","Match","Exact","2645 ALLEGHENY DR, BLAKESLEE, PA, 18610",136782388,"L"
144851,"2645 ARAPAHO RD UNIT 103","GARLAND","TX",75044,32.9595934280001,-96.664675092,351,"2645 ARAPAHO RD UNIT 103, GARLAND, TX, 75044","Match","Exact","2645 ARAPAHO RD, GARLAND, TX, 75044",103274025,"L"
144852,"2645 BLUE OAK AVE","MERCED","CA",95348,37.3266375910001,-120.531367719,352,"2645 BLUE OAK AVE, MERCED, CA, 95348","Match","Exact","2645 BLUE OAK AVE, MERCED, CA, 95348",125311152,"R"
144853,"2645 BROOKLYN AVE SW","CANTON","OH",44706,40.769448835,-81.444661294,353,"2645 BROOKLYN AVE SW, CANTON, OH, 44706","Match","Exact","2645 BROOKLYN AVE SW, CANTON, OH, 44706",64675288,"R"
144854,"2645 CHARDON ROAD","NASHPORT","OH",43830,40.0268078770001,-82.0429167839999,354,"2645 CHARDON ROAD, NASHPORT, OH, 43830","Match","Exact","2645 CHARDON RD, NASHPORT, OH, 43830",45608163,"L"
144855,"2645 CLEVELAND AVE NW STE 5","CANTON","OH",44709,40.827016504,-81.385268213,355,"2645 CLEVELAND AVE NW STE 5, CANTON, OH, 44709","Match","Exact","2645 CLEVELAND AVE NW, CANTON, OH, 44709",64677933,"L"
144856,"2645 COON RAPIDS BOULEVARD NW","COON RAPIDS","MN",55433,45.1693675280001,-93.334508253,356,"2645 COON RAPIDS BOULEVARD NW, COON RAPIDS, MN, 55433","Match","Exact","2645 COON RAPIDS BLVD NW, COON RAPIDS, MN, 55433",625107393,"L"
144857,"2645 CORINAULT WAY NW","ACWORTH","GA",30101,34.018099116,-84.6965529669999,357,"2645 CORINAULT WAY NW, ACWORTH, GA, 30101","Match","Exact","2645 CORINAULT WAY NW, ACWORTH, GA, 30101",17234204,"R"
144858,"2645 DUTCH RIDGE RD","GUYSVILLE","OH",45735,39.2284211510001,-81.965839401,358,"2645 DUTCH RIDGE RD, GUYSVILLE, OH, 45735","Match","Exact","2645 DUTCH RIDGE RD, GUYSVILLE, OH, 45735",37091397,"L"
144859,"2645 DUTCH RIDGE ROAD","GUYSVILLE","OH",45735,39.2284211510001,-81.965839401,359,"2645 DUTCH RIDGE ROAD, GUYSVILLE, OH, 45735","Match","Exact","2645 DUTCH RIDGE RD, GUYSVILLE, OH, 45735",37091397,"L"
144860,"2645 E 100 NORTH RD","PANA","IL",62557,39.3605383450001,-89.033414863,360,"2645 E 100 NORTH RD, PANA, IL, 62557","Match","Exact","2645 E 100 NORTH RD, PANA, IL, 62557",99317379,"R"
144861,"2645 EXECUTIVE PARK DRIVE 621","WESTON","FL",33331,26.084533148,-80.372510462,361,"2645 EXECUTIVE PARK DRIVE 621, WESTON, FL, 33331","Match","Exact","2645 EXECUTIVE PARK DR, WESTON, FL, 33331",114814807,"R"
144862,"2645 FLAMELEAF DRIVE","GRAPEVINE","TX",76051,32.899565963,-97.103467224,362,"2645 FLAMELEAF DRIVE, GRAPEVINE, TX, 76051","Match","Exact","2645 FLAMELEAF DR, GRAPEVINE, TX, 76051",102110486,"L"
144863,"2645 GARRETT RD","STONEVILLE","NC",27048,36.536526962,-79.872706332,363,"2645 GARRETT RD, STONEVILLE, NC, 27048","Match","Exact","2645 GARRETT RD, STONEVILLE, NC, 27048",636565056,"L"
144864,"2645 HARTFORD LN","LANCASTER","TX",75134,32.6176976840001,-96.771992068,364,"2645 HARTFORD LN, LANCASTER, TX, 75134","Match","Exact","2645 HARTFORD LN, LANCASTER, TX, 75134",102989906,"L"
144865,"2645 HAZEL AVE","GLENSIDE","PA",19038,40.1134581860001,-75.15559006,365,"2645 HAZEL AVE, GLENSIDE, PA, 19038","Match","Exact","2645 HAZEL AVE, GLENSIDE, PA, 19038",135092241,"R"
144866,"2645 HIGHWOOD DR","SAN JOSE","CA",95116,37.3544473960001,-121.832137469,366,"2645 HIGHWOOD DR, SAN JOSE, CA, 95116","Match","Exact","2645 HIGHWOOD DR, SAN JOSE, CA, 95116",123005274,"L"
144867,"2645 JACKSON STREET","HOLLYWOOD","FL",33020,26.0085768770001,-80.160184831,367,"2645 JACKSON STREET, HOLLYWOOD, FL, 33020","Match","Exact","2645 JACKSON ST, HOLLYWOOD, FL, 33020",114732407,"R"
144868,"2645 LEE RD STE C-3 118","LITHIA SPRINGS","GA",30122,33.7514626330001,-84.6563149789999,368,"2645 LEE RD STE C-3 118, LITHIA SPRINGS, GA, 30122","Match","Exact","2645 LEE RD, LITHIA SPGS, GA, 30122",16650919,"R"
144869,"2645 LEE ROAD STE C3-112","LITHIA SPRINGS","GA",30122,33.7514626330001,-84.6563149789999,369,"2645 LEE ROAD STE C3-112, LITHIA SPRINGS, GA, 30122","Match","Exact","2645 LEE RD, LITHIA SPGS, GA, 30122",16650919,"R"
144870,"2645 LEE ROAD SUITE C3 NUMBER 213","LITHIA SPRINGS","GA",30122,33.7514626330001,-84.6563149789999,370,"2645 LEE ROAD SUITE C3 NUMBER 213, LITHIA SPRINGS, GA, 30122","Match","Exact","2645 LEE RD, LITHIA SPGS, GA, 30122",16650919,"R"
144871,"2645 LOIS LN SE","ATLANTA","GA",30315,33.6824228520001,-84.3876124029999,371,"2645 LOIS LN SE, ATLANTA, GA, 30315","Match","Exact","2645 LOIS LN SE, ATLANTA, GA, 30315",17349945,"R"
144872,"2645 LONGFELLOW DRIVE","WILMINGTON","DE",19808,39.721488606,-75.678689503,372,"2645 LONGFELLOW DRIVE, WILMINGTON, DE, 19808","Match","Exact","2645 LONGFELLOW DR, WILMINGTON, DE, 19808",187264328,"R"
144873,"2645 LOVERS LANE","DALLAS","TX",75225,32.85103114,-96.77308012,373,"2645 LOVERS LANE, DALLAS, TX, 75225","Match","Exact","2645 LOVERS LN, DALLAS, TX, 75225",616765973,"R"
144874,"2645 MARTIN AVENUE","BELLMORE","NY",11710,40.674540151,-73.530645114,374,"2645 MARTIN AVENUE, BELLMORE, NY, 11710","Match","Exact","2645 MARTIN AVE, BELLMORE, NY, 11710",147637074,"L"
144875,"2645 MILWAUKEE STREET","MADISON","WI",53703,43.100042816,-89.3469742079999,375,"2645 MILWAUKEE STREET, MADISON, WI, 53703","Match","Non_Exact","2645 MILWAUKEE ST, MADISON, WI, 53704",49473025,"R"
144876,"2645 N 160 AVE","OMAHA","NE",68116,41.28394015,-96.1633679669999,376,"2645 N 160 AVE, OMAHA, NE, 68116","Match","Exact","2645 N 160TH AVE, OMAHA, NE, 68116",117001463,"R"
144877,"2645 N BERKELEY LAKE R NW F142","DULUTH","GA",30096,33.9732230550001,-84.156533103,377,"2645 N BERKELEY LAKE R NW F142, DULUTH, GA, 30096","Match","Non_Exact","2645 N BERKELEY LAKE RD NW, DULUTH, GA, 30096",646965692,"L"
144878,"2645 N TERRACE AV","MILWAUKEE","WI",53211,43.065172644,-87.873766271,378,"2645 N TERRACE AV, MILWAUKEE, WI, 53211","Match","Exact","2645 N TERRACE AVE, MILWAUKEE, WI, 53211",77744281,"L"
144879,"2645 NORTH BERKELEY LAKE RD UNIT142","DULUTH","GA",30096,33.9731141520001,-84.156413802,379,"2645 NORTH BERKELEY LAKE RD UNIT142, DULUTH, GA, 30096","Match","Non_Exact","2645 N BERKELEY LAKE RD NW, DULUTH, GA, 30096",646965692,"L"
144880,"2645 RAILROAD STREET APT 107","PITTSBURGH","PA",15222,40.45673228,-79.979425588,380,"2645 RAILROAD STREET APT 107, PITTSBURGH, PA, 15222","Match","Exact","2645 RAILROAD ST, PITTSBURGH, PA, 15222",51628521,"L"
144881,"2645 ROAD 19","SAINT FRANCIS","KS",67756,NA,NA,381,"2645 ROAD 19, SAINT FRANCIS, KS, 67756","No_Match",NA,NA,NA,NA
144882,"2645 SAINT ANDREWS","TUSTIN","CA",92782,33.7432785020001,-117.77870779,382,"2645 SAINT ANDREWS, TUSTIN, CA, 92782","Match","Non_Exact","2645 ST ANDREW, TUSTIN, CA, 92782",144123135,"R"
144883,"2645 SHERIDAN DRIVE","TONAWANDA","NY",14150,42.980740607,-78.835728288,383,"2645 SHERIDAN DRIVE, TONAWANDA, NY, 14150","Match","Exact","2645 SHERIDAN DR, TONAWANDA, NY, 14150",48294956,"R"
144884,"2645 TYLER BAY LANE","GRAYSON","GA",30017,33.8838275460001,-83.951349695,384,"2645 TYLER BAY LANE, GRAYSON, GA, 30017","Match","Exact","2645 TYLER BAY LN, GRAYSON, GA, 30017",635859826,"R"
144885,"26450 MONDON HILL ROAD","BROOKSVILLE","FL",34602,28.547693979,-82.300938977,385,"26450 MONDON HILL ROAD, BROOKSVILLE, FL, 34602","Match","Non_Exact","26450 MONDON HILL RD, BROOKSVILLE, FL, 34601",85464497,"L"
144886,"26453 HWY 42","HOLDEN","LA",70744,30.4392600410001,-90.574650322,386,"26453 HWY 42, HOLDEN, LA, 70744","Match","Exact","26453 HWY 42, HOLDEN, LA, 70744",648125044,"R"
144887,"26454 MEADOWLAND","HEBRON","MD",21830,38.3989393700001,-75.697160793,387,"26454 MEADOWLAND, HEBRON, MD, 21830","Match","Non_Exact","26454 MEADOW LAND LN, HEBRON, MD, 21830",635739337,"R"
144888,"26455 E WALKER DR","AURORA","CO",80016,39.600386691,-104.678990935,388,"26455 E WALKER DR, AURORA, CO, 80016","Match","Exact","26455 E WALKER DR, AURORA, CO, 80016",177563206,"L"
144889,"26455 MORNING GLORY LANE","OAKWOOD VILLAGE","OH",44146,41.3872841560001,-81.4898163679999,389,"26455 MORNING GLORY LANE, OAKWOOD VILLAGE, OH, 44146","Match","Exact","26455 MORNING GLORY LN, OAKWOOD VILLAGE, OH, 44146",624770666,"L"
144890,"26455 OLD 41 UNIT 6","BONITA SPRINGS","FL",34135,NA,NA,390,"26455 OLD 41 UNIT 6, BONITA SPRINGS, FL, 34135","No_Match",NA,NA,NA,NA
144891,"26455 ROCKWELL CANYON ROAD","SANTA CLARITA","CA",91355,34.4081945300001,-118.567825938,391,"26455 ROCKWELL CANYON ROAD, SANTA CLARITA, CA, 91355","Match","Exact","26455 ROCKWELL CYN RD, SANTA CLARITA, CA, 91355",141859213,"L"
144892,"2646 18TH AVE N","ST PETERSBURG","FL",33713,27.7891875760001,-82.6698373139999,392,"2646 18TH AVE N, ST PETERSBURG, FL, 33713","Match","Exact","2646 18TH AVE N, SAINT PETERSBURG, FL, 33713",124704989,"L"
144893,"2646 ARRON CT","KISSIMMEE","FL",34744,28.3232454320001,-81.3780622099999,393,"2646 ARRON CT, KISSIMMEE, FL, 34744","Match","Exact","2646 ARRON CT, KISSIMMEE, FL, 34744",176678698,"L"
144894,"2646 CENTER ST","DEER PARK","TX",77536,29.687620597,-95.123464731,394,"2646 CENTER ST, DEER PARK, TX, 77536","Match","Exact","2646 CENTER ST, DEER PARK, TX, 77536",96106161,"L"
144895,"2646 CHANCELLOR WAY","DULUTH","GA",30096,33.9982528630001,-84.1251756519999,395,"2646 CHANCELLOR WAY, DULUTH, GA, 30096","Match","Exact","2646 CHANCELLOR WAY, DULUTH, GA, 30096",88930462,"R"
144896,"2646 DUPONT DRIVE SUITE 60127","IRVINE","CA",92612,33.6705197810001,-117.853576055,396,"2646 DUPONT DRIVE SUITE 60127, IRVINE, CA, 92612","Match","Exact","2646 DUPONT DR, IRVINE, CA, 92612",144058324,"R"
144897,"2646 FREEDOM TRAIL","BATAVIA","OH",45103,39.146020435,-84.08320646,397,"2646 FREEDOM TRAIL, BATAVIA, OH, 45103","Match","Exact","2646 FREEDOM TRL, BATAVIA, OH, 45103",619257264,"R"
144898,"2646 N KRISTY AVE","KUNA","ID",83634,43.516295223,-116.402152515,398,"2646 N KRISTY AVE, KUNA, ID, 83634","Match","Exact","2646 N KRISTY AVE, KUNA, ID, 83634",625589514,"R"
144899,"2646 OAKLAND AVE","MINNEAPOLIS","MN",55407,44.954680061,-93.2664129089999,399,"2646 OAKLAND AVE, MINNEAPOLIS, MN, 55407","Match","Non_Exact","2646 OAKLAND AVE S, MINNEAPOLIS, MN, 55407",43632728,"R"
144900,"2646 PAULMAR AVE","SAINT JOSEPH","MI",49085,42.0471993450001,-86.517975386,400,"2646 PAULMAR AVE, SAINT JOSEPH, MI, 49085","Match","Exact","2646 PAULMAR AVE, SAINT JOSEPH, MI, 49085",119973720,"L"
144901,"2646 REED STREET","PHILADELPHIA","PA",19146,39.935556391,-75.188322408,401,"2646 REED STREET, PHILADELPHIA, PA, 19146","Match","Exact","2646 REED ST, PHILADELPHIA, PA, 19146",131410278,"L"
144902,"2646 RINCONIA DR","LOS ANGELES","CA",90068,34.117243144,-118.325537409,402,"2646 RINCONIA DR, LOS ANGELES, CA, 90068","Match","Exact","2646 RINCONIA DR, LOS ANGELES, CA, 90068",141594645,"R"
144903,"2646 ROYAL POINTE DRIVE","GREEN COVE SPRINGS","FL",32043,30.031299674,-81.805085606,403,"2646 ROYAL POINTE DRIVE, GREEN COVE SPRINGS, FL, 32043","Match","Exact","2646 ROYAL POINTE DR, GREEN COVE SPRINGS, FL, 32043",624568833,"L"
144904,"2646 S LOOP W STE 585","HOUSTON","TX",77054,NA,NA,404,"2646 S LOOP W STE 585, HOUSTON, TX, 77054","No_Match",NA,NA,NA,NA
144905,"2646 SOUTH 15TH STREET","LINCOLN","NE",68502,40.7868814770001,-96.700348962,405,"2646 SOUTH 15TH STREET, LINCOLN, NE, 68502","Match","Exact","2646 S 15TH ST, LINCOLN, NE, 68502",28254932,"L"
144906,"2646 SOUTH LOOP WEST  SUITE 378","HOUSTON","TX",77054,NA,NA,406,"2646 SOUTH LOOP WEST  SUITE 378, HOUSTON, TX, 77054","No_Match",NA,NA,NA,NA
144907,"2646 SOUTH LOOP WEST SUITE 215","HOUSTON","TX",77054,NA,NA,407,"2646 SOUTH LOOP WEST SUITE 215, HOUSTON, TX, 77054","No_Match",NA,NA,NA,NA
144908,"2646 WEST 71ST STREET","CHICAGO","IL",60629,41.7645996850001,-87.689698397,408,"2646 WEST 71ST STREET, CHICAGO, IL, 60629","Match","Exact","2646 W 71ST ST, CHICAGO, IL, 60629",111819770,"R"
144909,"2646 WINDWOOD WAY","ROYAL PLM BCH","FL",33411,26.720322738,-80.238950914,409,"2646 WINDWOOD WAY, ROYAL PLM BCH, FL, 33411","Match","Non_Exact","2646 WINDWOOD LN, ROYAL PLM BCH, FL, 33411",115571648,"L"
144910,"2646 WOODWARD AVENUE","DETROIT","MI",48201,42.3423247810001,-83.054481843,410,"2646 WOODWARD AVENUE, DETROIT, MI, 48201","Match","Exact","2646 WOODWARD AVE, DETROIT, MI, 48201",95477905,"R"
144911,"26460 SW 142ND AVENUE ROAD 304","MIAMI","FL",33032,NA,NA,411,"26460 SW 142ND AVENUE ROAD 304, MIAMI, FL, 33032","No_Match",NA,NA,NA,NA
144912,"26461 MAIN STREET","COOLVILLE","OH",45723,39.222335431,-81.795937559,412,"26461 MAIN STREET, COOLVILLE, OH, 45723","Match","Exact","26461 MAIN ST, COOLVILLE, OH, 45723",37091812,"R"
144913,"26461 ROCKVILLE ROAD","LOUISBURG","KS",66053,38.646915721,-94.6574082509999,413,"26461 ROCKVILLE ROAD, LOUISBURG, KS, 66053","Match","Exact","26461 ROCKVILLE RD, LOUISBURG, KS, 66053",85238823,"R"
144914,"26462 CAMILLE DR","PASS CHRISTIAN","MS",39571,30.4362923910001,-89.278718506,414,"26462 CAMILLE DR, PASS CHRISTIAN, MS, 39571","Match","Exact","26462 CAMILLE DR, PASS CHRISTIAN, MS, 39571",111407943,"L"
144915,"26463 ARBORETUM WAY UNIT 3304","MURRIETA","CA",92563,NA,NA,415,"26463 ARBORETUM WAY UNIT 3304, MURRIETA, CA, 92563","No_Match",NA,NA,NA,NA
144916,"26465 DARTMOUTH ST APT 2","INKSTER","MI",48141,42.2811277370001,-83.298380503,416,"26465 DARTMOUTH ST APT 2, INKSTER, MI, 48141","Match","Exact","26465 DARTMOUTH ST, INKSTER, MI, 48141",95435632,"L"
144917,"26468 E WALKER DR","AURORA","CO",80016,39.600327641,-104.679085158,417,"26468 E WALKER DR, AURORA, CO, 80016","Match","Exact","26468 E WALKER DR, AURORA, CO, 80016",177563206,"R"
144918,"2647 AMBER TRACE","TALLAHASSEE","FL",32303,30.501012471,-84.336619819,418,"2647 AMBER TRACE, TALLAHASSEE, FL, 32303","Match","Exact","2647 AMBER TRCE, TALLAHASSEE, FL, 32303",610861683,"R"
144919,"2647 BLOOMINGTON AVE S","MINNEAPOLIS","MN",55407,44.9546854760001,-93.252418511,419,"2647 BLOOMINGTON AVE S, MINNEAPOLIS, MN, 55407","Match","Exact","2647 BLOOMINGTON AVE S, MINNEAPOLIS, MN, 55407",43633422,"L"
144920,"2647 CALIFORNA AVE 1A","SAINT LOUIS","MO",63118,NA,NA,420,"2647 CALIFORNA AVE 1A, SAINT LOUIS, MO, 63118","No_Match",NA,NA,NA,NA
144921,"2647 CHEROKEE AVE","WEST PALM BEACH","FL",33408,26.703842449,-80.09406138,421,"2647 CHEROKEE AVE, WEST PALM BEACH, FL, 33408","Match","Non_Exact","2647 CHEROKEE AVE, WEST PALM BEACH, FL, 33409",115528693,"R"
144922,"2647 DANBURY DRIVE","NEW ORLEANS","LA",70131,29.926425373,-89.9984381899999,422,"2647 DANBURY DRIVE, NEW ORLEANS, LA, 70131","Match","Exact","2647 DANBURY DR, NEW ORLEANS, LA, 70131",191723254,"R"
144923,"2647 DEEP RIVER CIR","ROUND ROCK","TX",78665,30.5022926880001,-97.621397733,423,"2647 DEEP RIVER CIR, ROUND ROCK, TX, 78665","Match","Exact","2647 DEEP RIVER CIR, ROUND ROCK, TX, 78665",126495786,"R"
144924,"2647 FREDRICK DOUGLAS BLVD 5C","NEW YORK","NY",10030,NA,NA,424,"2647 FREDRICK DOUGLAS BLVD 5C, NEW YORK, NY, 10030","No_Match",NA,NA,NA,NA
144925,"2647 GATEWAY RD SUITE 105-230","CARLSBAD","CA",92009,NA,NA,425,"2647 GATEWAY RD SUITE 105-230, CARLSBAD, CA, 92009","No_Match",NA,NA,NA,NA
144926,"2647 GATEWAY ROAD  SUITE 105-136","CARLSAD","CA",92009,NA,NA,426,"2647 GATEWAY ROAD  SUITE 105-136, CARLSAD, CA, 92009","No_Match",NA,NA,NA,NA
144927,"2647 GONZAGA ST","EAST PALO ALTO","CA",94303,37.476890354,-122.1363546,427,"2647 GONZAGA ST, EAST PALO ALTO, CA, 94303","Match","Exact","2647 GONZAGA ST, E PALO ALTO, CA, 94303",192366639,"L"
144928,"2647 MAPLELOFT LANE","SARASOTA","FL",34232,27.3088675490001,-82.465205499,428,"2647 MAPLELOFT LANE, SARASOTA, FL, 34232","Match","Exact","2647 MAPLELOFT LN, SARASOTA, FL, 34232",647840776,"L"
144929,"2647 MOONSEED TRAIL NW","HUNTSVILLE","AL",35806,34.7671424850001,-86.674758518,429,"2647 MOONSEED TRAIL NW, HUNTSVILLE, AL, 35806","Match","Exact","2647 MOONSEED TRL NW, HUNTSVILLE, AL, 35806",58136624,"R"
144930,"2647 N MYRTLEWOOD STREET","PHILADELPHIA","PA",19132,39.996118767,-75.179862703,430,"2647 N MYRTLEWOOD STREET, PHILADELPHIA, PA, 19132","Match","Exact","2647 N MYRTLEWOOD ST, PHILADELPHIA, PA, 19132",131402036,"R"
144931,"2647 W 500 N","PROVO","UT",84601,40.2404702320001,-111.705138004,431,"2647 W 500 N, PROVO, UT, 84601","Match","Exact","2647 W 500 N, PROVO, UT, 84601",134246913,"L"
144932,"26475 LOCUST DRIVE","OLMSTED FALLS","OH",44138,41.3569219670001,-81.915098829,432,"26475 LOCUST DRIVE, OLMSTED FALLS, OH, 44138","Match","Exact","26475 LOCUST DR, OLMSTED FALLS, OH, 44138",653882240,"L"
144933,"26475 MARSH CREEK","BYRON","CA",94514,NA,NA,433,"26475 MARSH CREEK, BYRON, CA, 94514","No_Match",NA,NA,NA,NA
144934,"2648 15TH AVE","GREELEY","CO",80631,40.3937078480001,-104.703021052,434,"2648 15TH AVE, GREELEY, CO, 80631","Match","Exact","2648 15TH AVE, GREELEY, CO, 80631",188678191,"L"
144935,"2648 30TH ST SW             STE 57C","ALLENTOWN","PA",18103,40.5555464110001,-75.4754734429999,435,"2648 30TH ST SW             STE 57C, ALLENTOWN, PA, 18103","Match","Exact","2648 30TH ST SW, ALLENTOWN, PA, 18103",649889860,"R"
144936,"2648 93RD STREET 2ND FLOOR","EAST ELMHURST","NY",11369,NA,NA,436,"2648 93RD STREET 2ND FLOOR, EAST ELMHURST, NY, 11369","No_Match",NA,NA,NA,NA
144937,"2648 COURTLAND PARK CIRCLE","MARIETTA","GA",30068,33.9734787450001,-84.4772408279999,437,"2648 COURTLAND PARK CIRCLE, MARIETTA, GA, 30068","Match","Exact","2648 COURTLAND PARK CIR, MARIETTA, GA, 30068",632402985,"R"
144938,"2648 HUMBOLT AVENUE SOUTH","MINNEAPOLIS","MN",55408,NA,NA,438,"2648 HUMBOLT AVENUE SOUTH, MINNEAPOLIS, MN, 55408","No_Match",NA,NA,NA,NA
144939,"2648 KURRY LANE","HILLIARD","FL",32046,30.6242887700001,-82.00650046,439,"2648 KURRY LANE, HILLIARD, FL, 32046","Match","Exact","2648 KURRY LN, HILLIARD, FL, 32046",648429186,"L"
144940,"2648 N 33RD STREET","PHILADELPHIA","PA",19132,39.997225212,-75.1851704549999,440,"2648 N 33RD STREET, PHILADELPHIA, PA, 19132","Match","Exact","2648 N 33RD ST, PHILADELPHIA, PA, 19132",131401819,"L"
144941,"2648 N HOWARD AVE","SPRINGFIELD","MO",65803,37.2451709160001,-93.2768366879999,441,"2648 N HOWARD AVE, SPRINGFIELD, MO, 65803","Match","Exact","2648 N HOWARD AVE, SPRINGFIELD, MO, 65803",76677402,"R"
144942,"2648 PALASTRO WAY","OCOEE","FL",34761,28.6065873380001,-81.555262301,442,"2648 PALASTRO WAY, OCOEE, FL, 34761","Match","Exact","2648 PALASTRO WAY, OCOEE, FL, 34761",94418498,"L"
144943,"2648 PIEDMONT DRIVE","HELENA","AL",35022,33.302460845,-86.924246411,443,"2648 PIEDMONT DRIVE, HELENA, AL, 35022","Match","Exact","2648 PIEDMONT DR, HELENA, AL, 35022",639357642,"L"
144944,"2648 ROUTE 23      PO BOX 475","HILLSDALE","NY",12529,42.179344799,-73.524529549,444,"2648 ROUTE 23      PO BOX 475, HILLSDALE, NY, 12529","Match","Non_Exact","2648 STATE RTE 23, HILLSDALE, NY, 12529",648423468,"R"
144945,"2648 SEATON CIRCUIT S","WARREN","MI",48091,NA,NA,445,"2648 SEATON CIRCUIT S, WARREN, MI, 48091","No_Match",NA,NA,NA,NA
144946,"2648 W MARGARET STREET","MERCER","WI",54547,46.168264396,-90.0637190739999,446,"2648 W MARGARET STREET, MERCER, WI, 54547","Match","Exact","2648 MARGARET ST, MERCER, WI, 54547",647188474,"R"
144947,"2648 W PERSHING ROAD","CHICAGO","IL",60632,41.8228522650001,-87.6915945549999,447,"2648 W PERSHING ROAD, CHICAGO, IL, 60632","Match","Exact","2648 W PERSHING RD, CHICAGO, IL, 60632",604982170,"R"
144948,"2648 WEST FARRAGUT AVENUE APT 2","CHICAGO","IL",60625,41.9767650910001,-87.6952755139999,448,"2648 WEST FARRAGUT AVENUE APT 2, CHICAGO, IL, 60625","Match","Exact","2648 W FARRAGUT AVE, CHICAGO, IL, 60625",111760029,"R"
144949,"2648 WESTVIEW DRIVE","LINCOLN","CA",95648,38.843185637,-121.285870479,449,"2648 WESTVIEW DRIVE, LINCOLN, CA, 95648","Match","Exact","2648 WESTVIEW DR, LINCOLN, CA, 95648",635490271,"L"
144950,"2648 WOODMEADOW DR SE APT 301","GRAND RAPIDS","MI",49546,42.915385574,-85.6023527359999,450,"2648 WOODMEADOW DR SE APT 301, GRAND RAPIDS, MI, 49546","Match","Exact","2648 WOODMEADOW DR SE, GRAND RAPIDS, MI, 49546",619151283,"R"
144951,"26481 VIA LA JOLLA","SAN JUAN CAPISTRANO","CA",92675,33.4722493020001,-117.66770507,451,"26481 VIA LA JOLLA, SAN JUAN CAPISTRANO, CA, 92675","Match","Exact","26481 VIA LA JOLLA, SAN JUAN CAPISTRANO, CA, 92675",646560024,"R"
144952,"26485 370TH AVENUE","HILLMAN","MN",56338,46.145207391,-93.89335818,452,"26485 370TH AVENUE, HILLMAN, MN, 56338","Match","Exact","26485 370TH AVE, HILLMAN, MN, 56338",635184047,"L"
144953,"2649 17TH STREET UNIT 4","DENVER","CO",80211,39.760643713,-105.009888459,453,"2649 17TH STREET UNIT 4, DENVER, CO, 80211","Match","Exact","2649 17TH ST, DENVER, CO, 80211",177399848,"R"
144954,"2649 19TH ST","SAN FRANCISCO","CA",94110,37.760569973,-122.408536295,454,"2649 19TH ST, SAN FRANCISCO, CA, 94110","Match","Exact","2649 19TH ST, SAN FRANCISCO, CA, 94110",192287702,"L"
144955,"2649 AUSTIN DR","MESQUITE","TX",75181,32.745026325,-96.552482114,455,"2649 AUSTIN DR, MESQUITE, TX, 75181","Match","Exact","2649 AUSTIN DR, MESQUITE, TX, 75181",103165986,"L"
144956,"2649 CHARLESTON WAY","FORT COLLINS","CO",80526,40.5655115920001,-105.126410494,456,"2649 CHARLESTON WAY, FORT COLLINS, CO, 80526","Match","Exact","2649 CHARLESTON WAY, FORT COLLINS, CO, 80526",188505531,"R"
144957,"2649 CHATHAM STREET","EL CAJON","CA",92020,32.797518939,-117.000903647,457,"2649 CHATHAM STREET, EL CAJON, CA, 92020","Match","Exact","2649 CHATHAM ST, EL CAJON, CA, 92020",195326336,"L"
144958,"2649 E 3210 S","SALT LAKE CITY","UT",84109,40.7010857980001,-111.816157885,458,"2649 E 3210 S, SALT LAKE CITY, UT, 84109","Match","Exact","2649 E 3210 S, SALT LAKE CITY, UT, 84109",176094106,"L"
144959,"2649 FAWNLAKE TRAIL","ORLANDO","FL",32828,28.5173959050001,-81.169806141,459,"2649 FAWNLAKE TRAIL, ORLANDO, FL, 32828","Match","Exact","2649 FAWNLAKE TRL, ORLANDO, FL, 32828",634027975,"L"
144960,"2649 LARKIN PL","SAN DIEGO","CA",92123,32.7915582630001,-117.133962045,460,"2649 LARKIN PL, SAN DIEGO, CA, 92123","Match","Exact","2649 LARKIN PL, SAN DIEGO, CA, 92123",195321597,"R"
144961,"2649 LINDELL AVENUE","SAN ANGELO","TX",76901,31.462768092,-100.478702994,461,"2649 LINDELL AVENUE, SAN ANGELO, TX, 76901","Match","Exact","2649 LINDELL AVE, SAN ANGELO, TX, 76901",190678712,"L"
144962,"2649 NW 9TH COURT","POMPANO BEACH","FL",33069,26.2404056710001,-80.1584649119999,462,"2649 NW 9TH COURT, POMPANO BEACH, FL, 33069","Match","Exact","2649 NW 9TH CT, POMPANO BEACH, FL, 33069",114763502,"R"
144963,"2649 PORTER ST","DETROIT","MI",48216,42.323187196,-83.0771370969999,463,"2649 PORTER ST, DETROIT, MI, 48216","Match","Exact","2649 PORTER ST, DETROIT, MI, 48216",95478848,"L"
144964,"2649 SAINT ANN STREET","NEW ORLEANS","LA",70119,29.971154621,-90.082072296,464,"2649 SAINT ANN STREET, NEW ORLEANS, LA, 70119","Match","Exact","2649 SAINT ANN ST, NEW ORLEANS, LA, 70119",191709430,"R"
144965,"2649 STRANG BLVD  SUITE 303","YORKTOWN HEIGHTS","NY",10598,41.29519235,-73.8191045689999,465,"2649 STRANG BLVD  SUITE 303, YORKTOWN HEIGHTS, NY, 10598","Match","Exact","2649 STRANG BLVD, YORKTOWN HEIGHTS, NY, 10598",139839701,"L"
144966,"2649 SW 27 CT","MIAMI","FL",33133,25.7424304250001,-80.238703078,466,"2649 SW 27 CT, MIAMI, FL, 33133","Match","Exact","2649 SW 27TH CT, MIAMI, FL, 33133",116014693,"L"
144967,"2649 SW IMPORT DRIVE","PORT ST LUCIE","FL",34987,27.2888436050001,-80.430199295,467,"2649 SW IMPORT DRIVE, PORT ST LUCIE, FL, 34987","Match","Exact","2649 SW IMPORT DR, PORT ST LUCIE, FL, 34987",120174777,"R"
144968,"2649 TRAILWOOD LANE","LEXINGTON","KY",40511,38.0779539850001,-84.548562105,468,"2649 TRAILWOOD LANE, LEXINGTON, KY, 40511","Match","Exact","2649 TRAILWOOD LN, LEXINGTON, KY, 40511",31952091,"L"
144969,"2649 UNION BLVD","ISLIP","NY",11751,40.7334458,-73.213222001,469,"2649 UNION BLVD, ISLIP, NY, 11751","Match","Exact","2649 UNION BLVD, ISLIP, NY, 11751",113997919,"L"
144970,"26490 RANGE DR","BUENA VISTA","CO",81211,38.80254769,-106.124276256,470,"26490 RANGE DR, BUENA VISTA, CO, 81211","Match","Exact","26490 RANGE DR, BUENA VISTA, CO, 81211",625156068,"L"
144971,"26498 E BASELINE SUITE H","HIGHLAND","CA",92346,NA,NA,471,"26498 E BASELINE SUITE H, HIGHLAND, CA, 92346","No_Match",NA,NA,NA,NA
144972,"264A BLUE LEDGE DR","ROSLINDALE","MA",2131,NA,NA,472,"264A BLUE LEDGE DR, ROSLINDALE, MA, 2131","Tie",NA,NA,NA,NA
144973,"264B SOUTH CAMINO DEL PUEBLO","BERNALILLO","NM",87004,NA,NA,473,"264B SOUTH CAMINO DEL PUEBLO, BERNALILLO, NM, 87004","No_Match",NA,NA,NA,NA
144974,"265 18TH ST APT 3","BROOKLYN","NY",11215,40.66246224,-73.990717424,474,"265 18TH ST APT 3, BROOKLYN, NY, 11215","Match","Exact","265 18TH ST, BROOKLYN, NY, 11215",59075757,"L"
144975,"265 4TH AVENUE  1B","BROOKLYN","NY",11215,40.675669719,-73.984277188,475,"265 4TH AVENUE  1B, BROOKLYN, NY, 11215","Match","Exact","265 4TH AVE, BROOKLYN, NY, 11215",59075676,"L"
144976,"265 56TH STREET NE","WASHINGTON","DC",20019,38.8922433290001,-76.9214457479999,476,"265 56TH STREET NE, WASHINGTON, DC, 20019","Match","Exact","265 56TH ST NE, WASHINGTON, DC, 20019",647587135,"R"
144977,"265 APTOS BEACH DR","APTOS","CA",95003,36.9726005740001,-121.899079873,477,"265 APTOS BEACH DR, APTOS, CA, 95003","Match","Exact","265 APTOS BEACH DR, APTOS, CA, 95003",649827051,"L"
144978,"265 ASHVILLE CIRCLE","MONTEVALLO","AL",35115,33.1128349250001,-86.855215872,478,"265 ASHVILLE CIRCLE, MONTEVALLO, AL, 35115","Match","Exact","265 ASHVILLE CIR, MONTEVALLO, AL, 35115",82090709,"L"
144979,"265 BEAR HILL RD","NORTH ANDOVER","MA",1845,42.6778524600001,-71.0825254539999,479,"265 BEAR HILL RD, NORTH ANDOVER, MA, 1845","Match","Exact","265 BEAR HILL RD, NORTH ANDOVER, MA, 01845",86651026,"R"
144980,"265 BEDFORD PARK BLVD APT 5A","BRONX","NY",10458,40.870685376,-73.886102315,480,"265 BEDFORD PARK BLVD APT 5A, BRONX, NY, 10458","Match","Exact","265 BEDFORD PARK BLVD, BRONX, NY, 10458",80298833,"L"
144981,"265 BETTYS TRAIL","PARKTON","NC",28371,34.9370204030001,-79.058576024,481,"265 BETTYS TRAIL, PARKTON, NC, 28371","Match","Exact","265 BETTYS TRL, PARKTON, NC, 28371",642313576,"L"
144982,"265 BLUE COURSE DR","STATE COLLEGE","PA",16803,40.801941055,-77.8855993729999,482,"265 BLUE COURSE DR, STATE COLLEGE, PA, 16803","Match","Exact","265 BLUE COURSE DR, STATE COLLEGE, PA, 16803",50399795,"L"
144983,"265 BOWDEN RIDGE DRIVE","LINEVILLE","AL",36266,NA,NA,483,"265 BOWDEN RIDGE DRIVE, LINEVILLE, AL, 36266","No_Match",NA,NA,NA,NA
144984,"265 BOWERY","NEW YORK","NY",10002,40.72331317,-73.992899934,484,"265 BOWERY, NEW YORK, NY, 10002","Match","Exact","265 BOWERY, NEW YORK, NY, 10002",59660951,"R"
144985,"265 BROADHEAD ROAD","WAXAHACHIE","TX",75165,32.4027741530001,-96.8167162569999,485,"265 BROADHEAD ROAD, WAXAHACHIE, TX, 75165","Match","Exact","265 BROADHEAD RD, WAXAHACHIE, TX, 75165",613762879,"L"
144986,"265 BULLOCK ROAD","LIVINGSTON","TX",77351,NA,NA,486,"265 BULLOCK ROAD, LIVINGSTON, TX, 77351","No_Match",NA,NA,NA,NA
144987,"265 BURN HILL RD","SHERMANS DALE","PA",17090,NA,NA,487,"265 BURN HILL RD, SHERMANS DALE, PA, 17090","No_Match",NA,NA,NA,NA
144988,"265 CANAL STREET SUITE 503","NEW YORK","NY",10013,40.718825306,-74.00106941,488,"265 CANAL STREET SUITE 503, NEW YORK, NY, 10013","Match","Exact","265 CANAL ST, NEW YORK, NY, 10013",59660321,"R"
144989,"265 CARTER STREET","CHELSEA","MA",2150,42.4006494240001,-71.037838155,489,"265 CARTER STREET, CHELSEA, MA, 2150","Match","Exact","265 CARTER ST, CHELSEA, MA, 02150",85706960,"R"
144990,"265 CENTERVIEW ROAD","SAVANNAH","TN",38372,35.283084434,-88.18271946,490,"265 CENTERVIEW ROAD, SAVANNAH, TN, 38372","Match","Exact","265 CENTERVIEW RD, SAVANNAH, TN, 38372",21171041,"L"
144991,"265 CHURCH ST","NEW HAVEN","CT",6517,NA,NA,491,"265 CHURCH ST, NEW HAVEN, CT, 6517","No_Match",NA,NA,NA,NA
144992,"265 CHURCH STREET","NEW HAVEN","CT",6508,NA,NA,492,"265 CHURCH STREET, NEW HAVEN, CT, 6508","No_Match",NA,NA,NA,NA
144993,"265 CRYSTAL ST","HAVERHILL","MA",1832,42.79788095,-71.162943951,493,"265 CRYSTAL ST, HAVERHILL, MA, 1832","Match","Exact","265 CRYSTAL ST, HAVERHILL, MA, 01832",86706520,"R"
144994,"265 CURRY HIGHWAY","JASPER","AL",35503,33.891587212,-87.280259084,494,"265 CURRY HIGHWAY, JASPER, AL, 35503","Match","Exact","265 CURRY HWY, JASPER, AL, 35503",652579636,"L"
144995,"265 DICKENS DRIVE","FREEPORT","FL",32439,30.494629117,-86.167264119,495,"265 DICKENS DRIVE, FREEPORT, FL, 32439","Match","Non_Exact","265 DICKEN'S DR, FREEPORT, FL, 32439",650797647,"L"
144996,"265 E COLUMBIA ST","HEMPSTEAD","NY",11550,40.713359553,-73.6182963429999,496,"265 E COLUMBIA ST, HEMPSTEAD, NY, 11550","Match","Exact","265 E COLUMBIA ST, HEMPSTEAD, NY, 11550",147627277,"L"
144997,"265 E CORPORATE DR STE 321","LEWISVILLE","TX",75067,33.0131637170001,-96.989114031,497,"265 E CORPORATE DR STE 321, LEWISVILLE, TX, 75067","Match","Non_Exact","265 E CORPORATE DR, LEWISVILLE, TX, 75067",650113695,"R"
144998,"265 EAST 4TH ST","LEXINGTON","KY",40508,38.047613246,-84.486826911,498,"265 EAST 4TH ST, LEXINGTON, KY, 40508","Match","Exact","265 E 4TH ST, LEXINGTON, KY, 40508",31932914,"L"
144999,"265 EAST 7TH STREET  APT 4","NEW YORK","NY",10009,40.7235864560001,-73.9776623779999,499,"265 EAST 7TH STREET  APT 4, NEW YORK, NY, 10009","Match","Exact","265 E 7TH ST, NEW YORK, NY, 10009",59654726,"L"
145000,"265 EAST 8TH STREET   APT 73","SOUTH BOSTON","MA",2127,42.3320874360001,-71.049933161,500,"265 EAST 8TH STREET   APT 73, SOUTH BOSTON, MA, 2127","Match","Exact","265 E 8TH ST, SOUTH BOSTON, MA, 02127",85712823,"R"
