"ID","Address","City","State","Zip","lat","long","id","input_address","match_indicator","match_type","matched_address","tiger_line_id","tiger_side"
197501,"40 CAPE ROAD","MILFORD","MA",1757,42.1294544410001,-71.523131426,1,"40 CAPE ROAD, MILFORD, MA, 1757","Match","Exact","40 CAPE RD, MILFORD, MA, 01757",40039982,"R"
197502,"40 CEDAR WALK STE 2423","LONG BEACH","CA",90802,33.7660620560001,-118.194886562,2,"40 CEDAR WALK STE 2423, LONG BEACH, CA, 90802","Match","Exact","40 CEDAR WALK, LONG BEACH, CA, 90802",650605271,"L"
197503,"40 CHAMPLAIN WAY","FRANKLIN PARK","NJ",8823,40.434351529,-74.564849741,3,"40 CHAMPLAIN WAY, FRANKLIN PARK, NJ, 8823","Match","Exact","40 CHAMPLAIN WAY, FRANKLIN PARK, NJ, 08823",59956090,"L"
197504,"40 CHAPIN AVENUE","WATERBURY","CT",6708,41.549126222,-73.080388919,4,"40 CHAPIN AVENUE, WATERBURY, CT, 6708","Match","Exact","40 CHAPIN AVE, WATERBURY, CT, 06708",617946769,"R"
197505,"40 CHASE FARM RD","SOUTH WINDSOR","CT",6074,41.862674155,-72.521186569,5,"40 CHASE FARM RD, SOUTH WINDSOR, CT, 6074","Match","Exact","40 CHASE FARM RD, SOUTH WINDSOR, CT, 06074",3533887,"L"
197506,"40 CHESNUT RIDGE ROAD","MONTVALE","NJ",7645,41.049907739,-74.069883591,6,"40 CHESNUT RIDGE ROAD, MONTVALE, NJ, 7645","Match","Non_Exact","40 CHESTNUT RIDGE RD, MONTVALE, NJ, 07645",64366891,"L"
197507,"40 CHESTER ST","LAWRENCE","MA",1843,42.691962603,-71.1622681869999,7,"40 CHESTER ST, LAWRENCE, MA, 1843","Match","Exact","40 CHESTER ST, LAWRENCE, MA, 01843",86628687,"L"
197508,"40 CHESTNUT STREET","BELMONT","MA",2478,42.382613904,-71.185989142,8,"40 CHESTNUT STREET, BELMONT, MA, 2478","Match","Exact","40 CHESTNUT ST, BELMONT, MA, 02478",86891181,"L"
197509,"40 CHRISTOPHER WAY","EATONTOWN","NJ",7724,40.277586426,-74.040398481,9,"40 CHRISTOPHER WAY, EATONTOWN, NJ, 7724","Match","Exact","40 CHRISTOPHER WAY, EATONTOWN, NJ, 07724",90490093,"R"
197510,"40 CHURCH ST","FREEPORT","FL",32439,30.512407873,-86.195758223,10,"40 CHURCH ST, FREEPORT, FL, 32439","Match","Exact","40 CHURCH ST, FREEPORT, FL, 32439",32972255,"L"
197511,"40 CHURCH STREET","ASHEVILLE","NC",28801,35.593620249,-82.55324419,11,"40 CHURCH STREET, ASHEVILLE, NC, 28801","Match","Exact","40 CHURCH ST, ASHEVILLE, NC, 28801",36845629,"L"
197512,"40 CHURCH STREET","TUPPER LAKE","NY",12986,44.218157492,-74.4641192239999,12,"40 CHURCH STREET, TUPPER LAKE, NY, 12986","Match","Exact","40 CHURCH ST, TUPPER LAKE, NY, 12986",173826715,"L"
197513,"40 CLARK AVE","BLOOMFIELD","NY",7003,NA,NA,13,"40 CLARK AVE, BLOOMFIELD, NY, 7003","No_Match",NA,NA,NA,NA
197514,"40 CLINTON STREET SUITE 3H","BROOKLYN","NY",11201,40.695908769,-73.991633737,14,"40 CLINTON STREET SUITE 3H, BROOKLYN, NY, 11201","Match","Exact","40 CLINTON ST, BROOKLYN, NY, 11201",59075025,"R"
197515,"40 COMMERCE STREET","STATEN ISLAND","NY",10314,40.6126538030001,-74.168302292,15,"40 COMMERCE STREET, STATEN ISLAND, NY, 10314","Match","Exact","40 COMMERCE ST, STATEN ISLAND, NY, 10314",59870961,"L"
197516,"40 COOK ST","HUNLOCK CREEK","PA",18621,41.272043534,-76.088194926,16,"40 COOK ST, HUNLOCK CREEK, PA, 18621","Match","Exact","40 COOK ST, HUNLOCK CREEK, PA, 18621",80904366,"R"
197517,"40 CORNERSTONE DR","FRANKLINTON","NC",27525,36.1481097450001,-78.445618612,17,"40 CORNERSTONE DR, FRANKLINTON, NC, 27525","Match","Exact","40 CORNERSTONE DR, FRANKLINTON, NC, 27525",624171200,"R"
197518,"40 CORRAL COURT","SPRINGBORO","OH",45066,39.546288942,-84.218301721,18,"40 CORRAL COURT, SPRINGBORO, OH, 45066","Match","Exact","40 CORRAL CT, SPRINGBORO, OH, 45066",159049968,"L"
197519,"40 COUNTRY CLUB DRIVE","MONSON","MA",1057,42.1193370280001,-72.317412555,19,"40 COUNTRY CLUB DRIVE, MONSON, MA, 1057","Match","Exact","40 COUNTRY CLUB DR, MONSON, MA, 01057",4014512,"L"
197520,"40 COUNTY ROAD 119","CORINTH","MS",38834,34.936055853,-88.438150708,20,"40 COUNTY ROAD 119, CORINTH, MS, 38834","Match","Exact","40 CO RD 119, CORINTH, MS, 38834",91051346,"R"
197521,"40 COUNTY ROAD 950 N","NEOGA","IL",62447,39.30917157,-88.465659333,21,"40 COUNTY ROAD 950 N, NEOGA, IL, 62447","Match","Exact","40 CO RD 950 N, NEOGA, IL, 62447",5717816,"R"
197522,"40 COURT ST FL 11","BOSTON","MA",2108,42.359151094,-71.059039276,22,"40 COURT ST FL 11, BOSTON, MA, 2108","Match","Exact","40 COURT ST, BOSTON, MA, 02108",85709826,"L"
197523,"40 COURT STREET - FL 11","BOSTON","MA",2108,42.359151094,-71.059039276,23,"40 COURT STREET - FL 11, BOSTON, MA, 2108","Match","Exact","40 COURT ST, BOSTON, MA, 02108",85709826,"L"
197524,"40 COURTHOUSE STREET","COLUMBUS","SC",28722,NA,NA,24,"40 COURTHOUSE STREET, COLUMBUS, SC, 28722","No_Match",NA,NA,NA,NA
197525,"40 CUNNINGHAM DR","NEW SMYRNA BEACH","FL",32168,29.056521209,-80.930377504,25,"40 CUNNINGHAM DR, NEW SMYRNA BEACH, FL, 32168","Match","Exact","40 CUNNINGHAM DR, NEW SMYRNA BEACH, FL, 32168",94531325,"L"
197526,"40 CYPRESS CREEK PKWY 148","HOUSTON","TX",77090,NA,NA,26,"40 CYPRESS CREEK PKWY 148, HOUSTON, TX, 77090","No_Match",NA,NA,NA,NA
197527,"40 CYPRESS CREEK PKWY STE 258","HOUSTON","TX",77090,NA,NA,27,"40 CYPRESS CREEK PKWY STE 258, HOUSTON, TX, 77090","No_Match",NA,NA,NA,NA
197528,"40 CYPRESS PARKWAY STE 627","HOUSTON","TX",77090,NA,NA,28,"40 CYPRESS PARKWAY STE 627, HOUSTON, TX, 77090","No_Match",NA,NA,NA,NA
197529,"40 CYPRESS PKWY  SUITE 331","HOUSTON","TX",77090,NA,NA,29,"40 CYPRESS PKWY  SUITE 331, HOUSTON, TX, 77090","No_Match",NA,NA,NA,NA
197530,"40 CYRESS CREEK PKWY 236","HOUSTON","TX",77090,NA,NA,30,"40 CYRESS CREEK PKWY 236, HOUSTON, TX, 77090","No_Match",NA,NA,NA,NA
197531,"40 DAMES COURT","ST. LOUIS","MO",63135,38.745344312,-90.291978878,31,"40 DAMES COURT, ST. LOUIS, MO, 63135","Match","Exact","40 DAMES CT, SAINT LOUIS, MO, 63135",100146172,"L"
197532,"40 DERBY CT","COVINGTON","GA",30016,33.4546618900001,-83.84622891,32,"40 DERBY CT, COVINGTON, GA, 30016","Match","Exact","40 DERBY CT, COVINGTON, GA, 30016",23637724,"R"
197533,"40 DOGWOOD DR APT 104","WEST WARWICK","RI",2893,41.6742958940001,-71.50427317,33,"40 DOGWOOD DR APT 104, WEST WARWICK, RI, 2893","Match","Exact","40 DOGWOOD DR, WEST WARWICK, RI, 02893",634116542,"L"
197534,"40 DOVE LANDING","COVINGTON","GA",30016,33.5502532260001,-83.9611352329999,34,"40 DOVE LANDING, COVINGTON, GA, 30016","Match","Exact","40 DOVE LNDG, COVINGTON, GA, 30016",23623163,"R"
197535,"40 DOWNING DRIVE","WYOMISSING","PA",19610,40.3356787870001,-75.983085369,35,"40 DOWNING DRIVE, WYOMISSING, PA, 19610","Match","Exact","40 DOWNING DR, WYOMISSING, PA, 19610",80424743,"L"
197536,"40 DUDLEY RD","BLANCHESTER","OH",45107,39.310309621,-83.962384538,36,"40 DUDLEY RD, BLANCHESTER, OH, 45107","Match","Exact","40 DUDLEY RD, BLANCHESTER, OH, 45107",146862846,"L"
197537,"40 DUTCHER ST","HOPEDALE","MA",1747,42.132352294,-71.541051126,37,"40 DUTCHER ST, HOPEDALE, MA, 1747","Match","Exact","40 DUTCHER ST, HOPEDALE, MA, 01747",40038371,"R"
197538,"40 DUTCHER STREET","HOPEDALE","MA",1747,42.132352294,-71.541051126,38,"40 DUTCHER STREET, HOPEDALE, MA, 1747","Match","Exact","40 DUTCHER ST, HOPEDALE, MA, 01747",40038371,"R"
197539,"40 E 1ST AVENUE","LEXINGTON","NC",27292,35.8228664320001,-80.2532213489999,39,"40 E 1ST AVENUE, LEXINGTON, NC, 27292","Match","Exact","40 E 1ST AVE, LEXINGTON, NC, 27292",20205772,"R"
197540,"40 E ACADEMY ST SUITE 826","LUDOWICI","GA",31316,31.707908602,-81.742411649,40,"40 E ACADEMY ST SUITE 826, LUDOWICI, GA, 31316","Match","Non_Exact","40 E ACADEMY ST, LUDOWICI, GA, 31316",9185315,"L"
197541,"40 E BURTON PLACE","CHICAGO","IL",60610,41.9095085070001,-87.627435178,41,"40 E BURTON PLACE, CHICAGO, IL, 60610","Match","Exact","40 E BURTON PL, CHICAGO, IL, 60610",605071802,"L"
197542,"40 E CENTER ST STE 11","FALLON","NV",89406,NA,NA,42,"40 E CENTER ST STE 11, FALLON, NV, 89406","Tie",NA,NA,NA,NA
197543,"40 E CENTER STREET UNIT 5","FALLON","NV",89406,NA,NA,43,"40 E CENTER STREET UNIT 5, FALLON, NV, 89406","Tie",NA,NA,NA,NA
197544,"40 E CHICAGO AVE NUM 313","CHICAGO","IL",60611,41.8967060470001,-87.626650495,44,"40 E CHICAGO AVE NUM 313, CHICAGO, IL, 60611","Match","Non_Exact","40 E CHICAGO AVE, CHICAGO, IL, 60611",616787106,"L"
197545,"40 E COUNTRY CLUB DR","BRENTWOOD","CA",94513,37.92725004,-121.740592764,45,"40 E COUNTRY CLUB DR, BRENTWOOD, CA, 94513","Match","Exact","40 E COUNTRY CLUB DR, BRENTWOOD, CA, 94513",607823054,"L"
197546,"40 E JOLIET STREET - SUITE 1B","SCHERERVILLE","IN",46375,41.490804256,-87.470030477,46,"40 E JOLIET STREET - SUITE 1B, SCHERERVILLE, IN, 46375","Match","Exact","40 JOLIET ST, SCHERERVILLE, IN, 46375",98444607,"R"
197547,"40 E MAIN ST STE 844","NEWARK","DE",19711,39.683145219,-75.751852362,47,"40 E MAIN ST STE 844, NEWARK, DE, 19711","Match","Non_Exact","40 E MAIN ST, NEWARK, DE, 19711",638056357,"L"
197548,"40 E MAIN STREET SUITE 593","NEWARK","DE",19711,39.683145219,-75.751852362,48,"40 E MAIN STREET SUITE 593, NEWARK, DE, 19711","Match","Non_Exact","40 E MAIN ST, NEWARK, DE, 19711",638056357,"L"
197549,"40 E MAIN STREET SUITE 718","NEWARK","DE",19711,39.683145219,-75.751852362,49,"40 E MAIN STREET SUITE 718, NEWARK, DE, 19711","Match","Non_Exact","40 E MAIN ST, NEWARK, DE, 19711",638056357,"L"
197550,"40 E MCMICKEN AVENUE","CINCINNATI","OH",45202,39.1157500740001,-84.5157168389999,50,"40 E MCMICKEN AVENUE, CINCINNATI, OH, 45202","Match","Exact","40 E MCMICKEN AVE, CINCINNATI, OH, 45202",103970296,"L"
197551,"40 E WORKS","SHERIDAN","WY",82801,44.7963330910001,-106.955294742,51,"40 E WORKS, SHERIDAN, WY, 82801","Match","Non_Exact","40 E WORKS ST, SHERIDAN, WY, 82801",147404450,"L"
197552,"40 EAGLE RIDGE WAY","WEST ORANGE","NJ",7052,40.7952582680001,-74.247390805,52,"40 EAGLE RIDGE WAY, WEST ORANGE, NJ, 7052","Match","Exact","40 EAGLE RIDGE WAY, WEST ORANGE, NJ, 07052",627644874,"L"
197553,"40 EAGLE VALLEY COURT","BROADVIEW HEIGHTS","OH",44147,41.322437994,-81.645290528,53,"40 EAGLE VALLEY COURT, BROADVIEW HEIGHTS, OH, 44147","Match","Exact","40 EAGLE VALLEY CT, BROADVIEW HEIGHTS, OH, 44147",61150919,"L"
197554,"40 EAST 100 NORTH","JOSEPH","UT",84739,38.625948189,-112.217327779,54,"40 EAST 100 NORTH, JOSEPH, UT, 84739","Match","Exact","40 E 100 N, JOSEPH, UT, 84739",175333131,"R"
197555,"40 EAST 104TH STREET","CHICAGO","IL",60628,41.7053742430001,-87.621839999,55,"40 EAST 104TH STREET, CHICAGO, IL, 60628","Match","Exact","40 E 104TH ST, CHICAGO, IL, 60628",605524356,"L"
197556,"40 EAST 10TH STREET SUITE 1W","NEW YORK CITY","NY",10003,40.732297143,-73.9927897539999,56,"40 EAST 10TH STREET SUITE 1W, NEW YORK CITY, NY, 10003","Match","Exact","40 E 10TH ST, NEW YORK, NY, 10003",650154506,"R"
197557,"40 EAST CHICAGO AVENUE NUM 139","CHICAGO","IL",60611,41.896705581,-87.626679367,57,"40 EAST CHICAGO AVENUE NUM 139, CHICAGO, IL, 60611","Match","Exact","40 E CHICAGO AVE, CHICAGO, IL, 60611",616787106,"L"
197558,"40 EAST DUNDEE ROAD","BARRINGTON","IL",60010,42.128682774,-88.125449859,58,"40 EAST DUNDEE ROAD, BARRINGTON, IL, 60010","Match","Exact","40 E DUNDEE RD, BARRINGTON, IL, 60010",632497738,"L"
197559,"40 EAST MADISON","PLATTEVILLE","WI",53818,42.7407781040001,-90.475202299,59,"40 EAST MADISON, PLATTEVILLE, WI, 53818","Match","Non_Exact","40 E MADISON ST, PLATTEVILLE, WI, 53818",32755066,"R"
197560,"40 EAST MOCKINGBIRD WAY","GALLOWAY","NJ",8205,39.4944481860001,-74.504958868,60,"40 EAST MOCKINGBIRD WAY, GALLOWAY, NJ, 8205","Match","Non_Exact","40 MOCKINGBIRD WAY, GALLOWAY, NJ, 08205",202505457,"L"
197561,"40 EAST MOORES CREEK ROAD","FINLEY","KY",42718,37.475023487,-85.2989861459999,61,"40 EAST MOORES CREEK ROAD, FINLEY, KY, 42718","Match","Non_Exact","40 E MOORE'S CREEK RD, FINLEY, KY, 42718",32585020,"R"
197562,"40 EAST ST","BROOKFIELD","VT",5036,44.0374455370001,-72.5910597609999,62,"40 EAST ST, BROOKFIELD, VT, 5036","Match","Exact","40 EAST ST, BROOKFIELD, VT, 05036",636491911,"R"
197563,"40 ELK RUN RD","BELLEVILLE","WV",26133,39.119206848,-81.674822263,63,"40 ELK RUN RD, BELLEVILLE, WV, 26133","Match","Exact","40 ELK RUN RD, BELLEVILLE, WV, 26133",90890073,"L"
197564,"40 ELM TREE LANE","CARBONDALE","IL",62902,37.6605900770001,-89.171039008,64,"40 ELM TREE LANE, CARBONDALE, IL, 62902","Match","Exact","40 ELM TREE LN, CARBONDALE, IL, 62902",95125429,"R"
197565,"40 EMANUEL RD","MARSHFIELD","MA",2050,42.083466893,-70.679847668,65,"40 EMANUEL RD, MARSHFIELD, MA, 2050","Match","Exact","40 EMANUEL RD, MARSHFIELD, MA, 02050",87436321,"L"
197566,"40 ENGLISH STREET","SALEM","MA",1970,42.5243167890001,-70.8828434719999,66,"40 ENGLISH STREET, SALEM, MA, 1970","Match","Exact","40 ENGLISH ST, SALEM, MA, 01970",86644251,"R"
197567,"40 EUCALYPTUS KNOLL ST","MILL VALLEY","CA",94941,37.8933416030001,-122.520781093,67,"40 EUCALYPTUS KNOLL ST, MILL VALLEY, CA, 94941","Match","Exact","40 EUCALYPTUS KNOLL ST, MILL VALLEY, CA, 94941",192773344,"R"
197568,"40 EVERGREEN DR","ORINDA","CA",94563,37.8780113540001,-122.172912139,68,"40 EVERGREEN DR, ORINDA, CA, 94563","Match","Exact","40 EVERGREEN DR, ORINDA, CA, 94563",192050700,"R"
197569,"40 EXCHANGE PL STE 1602 C/O CPA","NEW YORK","NY",10005,40.7058514890001,-74.010028265,69,"40 EXCHANGE PL STE 1602 C/O CPA, NEW YORK, NY, 10005","Match","Exact","40 EXCHANGE PL, NEW YORK, NY, 10005",652205205,"L"
197570,"40 EXCHANGE PL STE 1602","NEW YORK","NY",10005,40.7058514890001,-74.010028265,70,"40 EXCHANGE PL STE 1602, NEW YORK, NY, 10005","Match","Exact","40 EXCHANGE PL, NEW YORK, NY, 10005",652205205,"L"
197571,"40 EXCHANGE PLACE","NEW YORK","NY",10005,40.7058514890001,-74.010028265,71,"40 EXCHANGE PLACE, NEW YORK, NY, 10005","Match","Exact","40 EXCHANGE PL, NEW YORK, NY, 10005",652205205,"L"
197572,"40 FAWN DRIVE","BARABOO","WI",53913,43.580277052,-89.791106121,72,"40 FAWN DRIVE, BARABOO, WI, 53913","Match","Exact","40 FAWN DR, BARABOO, WI, 53913",86554434,"L"
197573,"40 FAWN LANE","KENNETT SQUARE","PA",19348,39.8698897740001,-75.642342152,73,"40 FAWN LANE, KENNETT SQUARE, PA, 19348","Match","Exact","40 FAWN LN, KENNETT SQUARE, PA, 19348",179503775,"L"
197574,"40 FIELD STREET","PAWTUCKET","RI",2860,41.871698386,-71.367899639,74,"40 FIELD STREET, PAWTUCKET, RI, 2860","Match","Exact","40 FIELD ST, PAWTUCKET, RI, 02860",47493193,"L"
197575,"40 FIREWATER LANE","SUCHES","GA",30572,34.6927559210001,-84.023240376,75,"40 FIREWATER LANE, SUCHES, GA, 30572","Match","Exact","40 FIREWATER LN, SUCHES, GA, 30572",641439202,"R"
197576,"40 FIRST AVE APT 9G","NEW YORK","NY",10009,NA,NA,76,"40 FIRST AVE APT 9G, NEW YORK, NY, 10009","No_Match",NA,NA,NA,NA
197577,"40 FIRST AVENUE 4G","NEW YORK","NY",10009,NA,NA,77,"40 FIRST AVENUE 4G, NEW YORK, NY, 10009","No_Match",NA,NA,NA,NA
197578,"40 FLYNN ROAD","STOUGHTON","MA",2072,42.125161011,-71.077541702,78,"40 FLYNN ROAD, STOUGHTON, MA, 2072","Match","Exact","40 FLYNN RD, STOUGHTON, MA, 02072",87267708,"R"
197579,"40 FORD ROAD","CARMEL VALLEY","CA",93924,NA,NA,79,"40 FORD ROAD, CARMEL VALLEY, CA, 93924","No_Match",NA,NA,NA,NA
197580,"40 FOREST DRIVE","JEFFERSONVILLE","IN",47130,38.3054423740001,-85.691515695,80,"40 FOREST DRIVE, JEFFERSONVILLE, IN, 47130","Match","Exact","40 FOREST DR, JEFFERSONVILLE, IN, 47130",64880372,"L"
197581,"40 FOX FIRE LANE","DANVILLE","PA",17821,41.00338587,-76.640650168,81,"40 FOX FIRE LANE, DANVILLE, PA, 17821","Match","Exact","40 FOX FIRE LN, DANVILLE, PA, 17821",59200339,"R"
197582,"40 FOX RUN ROAD","ESSEX JUNCTION","VT",5452,44.515259359,-73.075499112,82,"40 FOX RUN ROAD, ESSEX JUNCTION, VT, 5452","Match","Exact","40 FOX RUN RD, ESSEX JCT, VT, 05452",135845789,"L"
197583,"40 GALVASTON LOOP","STATEN ISLAND","NY",10314,40.580842133,-74.1567857209999,83,"40 GALVASTON LOOP, STATEN ISLAND, NY, 10314","Match","Exact","40 GALVASTON LOOP, STATEN ISLAND, NY, 10314",59887343,"L"
197584,"40 GARDENVILLE PKWY W STE 209","BUFFALO","NY",14224,42.8642880690001,-78.755931931,84,"40 GARDENVILLE PKWY W STE 209, BUFFALO, NY, 14224","Match","Exact","40 GARDENVILLE PKWY W, BUFFALO, NY, 14224",48359246,"L"
197585,"40 GATSBY DR APT 5","RAYNHAM","MA",2767,41.8853083710001,-70.997306723,85,"40 GATSBY DR APT 5, RAYNHAM, MA, 2767","Match","Exact","40 GATSBY DR, RAYNHAM, MA, 02767",46815620,"R"
197586,"40 GAZEBO CT","CAMDEN","SC",29020,34.2820710350001,-80.613732593,86,"40 GAZEBO CT, CAMDEN, SC, 29020","Match","Exact","40 GAZEBO CT, CAMDEN, SC, 29020",78487714,"L"
197587,"40 GEORGE STREET","BURLINGTON","VT",5401,44.48139666,-73.215161264,87,"40 GEORGE STREET, BURLINGTON, VT, 5401","Match","Exact","40 GEORGE ST, BURLINGTON, VT, 05401",135827846,"R"
197588,"40 GEORGETOWN CT","DEARBORN","MI",48126,42.319732914,-83.176352521,88,"40 GEORGETOWN CT, DEARBORN, MI, 48126","Match","Exact","40 GEORGETOWN CT, DEARBORN, MI, 48126",635648295,"L"
197589,"40 GIBSON STREET","DORCHESTER","MA",2122,42.2976750180001,-71.059257918,89,"40 GIBSON STREET, DORCHESTER, MA, 2122","Match","Exact","40 GIBSON ST, DORCHESTER, MA, 02122",85731150,"L"
197590,"40 GILCHRIST STREET","LUNENBERG","MA",1462,42.6107155490001,-71.7258712409999,90,"40 GILCHRIST STREET, LUNENBERG, MA, 1462","Match","Non_Exact","40 GILCHREST ST, LUNENBURG, MA, 01462",40048473,"R"
197591,"40 GLACIER DRIVE","MORRIS PLAINS","NJ",7950,40.8528377820001,-74.4706065249999,91,"40 GLACIER DRIVE, MORRIS PLAINS, NJ, 7950","Match","Exact","40 GLACIER DR, MORRIS PLAINS, NJ, 07950",60442161,"L"
197592,"40 GLEBE ROAD","WESTMORELAND","NH",3407,NA,NA,92,"40 GLEBE ROAD, WESTMORELAND, NH, 3407","No_Match",NA,NA,NA,NA
197593,"40 GLENMORE LANE","BRIDGEWATER","MA",2324,41.9600206900001,-71.008675704,93,"40 GLENMORE LANE, BRIDGEWATER, MA, 2324","Match","Exact","40 GLENMORE LN, BRIDGEWATER, MA, 02324",87427992,"L"
197594,"40 GOULD RD","BEFORD","MA",1730,42.5127060290001,-71.268917315,94,"40 GOULD RD, BEFORD, MA, 1730","Match","Non_Exact","40 GOULD RD, BEDFORD, MA, 01730",86881244,"L"
197595,"40 GRANITE ST","CAMBRIDGE","MA",2139,42.355369319,-71.110927633,95,"40 GRANITE ST, CAMBRIDGE, MA, 2139","Match","Exact","40 GRANITE ST, CAMBRIDGE, MA, 02139",86869801,"L"
197596,"40 GRANT 73","SHERIDAN","AR",72150,34.3211148250001,-92.31561906,96,"40 GRANT 73, SHERIDAN, AR, 72150","Match","Exact","40 GRANT 73, SHERIDAN, AR, 72150",2487623,"R"
197597,"40 GRAPEVINE AVE","LEXINGTON","MA",2421,42.436252374,-71.232981614,97,"40 GRAPEVINE AVE, LEXINGTON, MA, 2421","Match","Exact","40 GRAPEVINE AVE, LEXINGTON, MA, 02421",86882370,"L"
197598,"40 GRAVITY PLANES","WAYMART","PA",18472,41.5774781860001,-75.4152245499999,98,"40 GRAVITY PLANES, WAYMART, PA, 18472","Match","Non_Exact","40 GRAVITY PLANES RD, WAYMART, PA, 18472",140179087,"L"
197599,"40 GREAT LAKES DRIVE","SAINT PETERS","MO",63376,38.7617175070001,-90.607345116,99,"40 GREAT LAKES DRIVE, SAINT PETERS, MO, 63376","Match","Exact","40 GREAT LAKES DR, SAINT PETERS, MO, 63376",100017130,"R"
197600,"40 GREENWELL DRIVE","HAMPTON","VA",23666,37.064649321,-76.381656788,100,"40 GREENWELL DRIVE, HAMPTON, VA, 23666","Match","Exact","40 GREENWELL DR, HAMPTON, VA, 23666",103757351,"R"
197601,"40 HAMPSTEAD ROAD","JAMAICA PLAIN","MA",2130,42.3037716380001,-71.1163428679999,101,"40 HAMPSTEAD ROAD, JAMAICA PLAIN, MA, 2130","Match","Exact","40 HAMPSTEAD RD, JAMAICA PLAIN, MA, 02130",85716660,"L"
197602,"40 HAMPTON GATE DRIVE","SICKLERVILLE","NJ",8081,39.716285778,-74.976074035,102,"40 HAMPTON GATE DRIVE, SICKLERVILLE, NJ, 8081","Match","Exact","40 HAMPTON GATE DR, SICKLERVILLE, NJ, 08081",134375626,"L"
197603,"40 HANS CT","HAVANA","FL",32333,30.5294475430001,-84.464871541,103,"40 HANS CT, HAVANA, FL, 32333","Match","Exact","40 HANS CT, HAVANA, FL, 32333",87825753,"L"
197604,"40 HARES EAR LANE","SILVERTHORNE","CO",80498,39.6584900760001,-106.067742295,104,"40 HARES EAR LANE, SILVERTHORNE, CO, 80498","Match","Exact","40 HARES EAR LN, SILVERTHORNE, CO, 80498",650050002,"R"
197605,"40 HARRISON STREET  APT 3L","NEW YORK","NY",10013,40.7188315440001,-74.0105851929999,105,"40 HARRISON STREET  APT 3L, NEW YORK, NY, 10013","Match","Exact","40 HARRISON ST, NEW YORK, NY, 10013",650072050,"R"
197606,"40 HARRISON STREET 12F","NEW YORK","NY",10013,40.7188315440001,-74.0105851929999,106,"40 HARRISON STREET 12F, NEW YORK, NY, 10013","Match","Exact","40 HARRISON ST, NEW YORK, NY, 10013",650072050,"R"
197607,"40 HARRISON STREET","SOMERVILLE","MA",2143,42.382012203,-71.109855188,107,"40 HARRISON STREET, SOMERVILLE, MA, 2143","Match","Exact","40 HARRISON ST, SOMERVILLE, MA, 02143",86868478,"L"
197608,"40 HAWTHORNE ST","SPRINGFIELD","MA",1105,42.099280208,-72.5680739589999,108,"40 HAWTHORNE ST, SPRINGFIELD, MA, 1105","Match","Exact","40 HAWTHORNE ST, SPRINGFIELD, MA, 01105",4036014,"L"
197609,"40 HEATH STREET","EVERETT","MA",2149,42.4039363700001,-71.065720453,109,"40 HEATH STREET, EVERETT, MA, 2149","Match","Exact","40 HEATH ST, EVERETT, MA, 02149",86860863,"L"
197610,"40 HIGHLAND AVENUE","PIEDMONT","CA",94611,37.8298185350001,-122.234852628,110,"40 HIGHLAND AVENUE, PIEDMONT, CA, 94611","Match","Exact","40 HIGHLAND AVE, PIEDMONT, CA, 94611",125001700,"L"
197611,"40 HIGHLAND DRIVE","CABOT","AR",72023,34.931740748,-92.0007187149999,111,"40 HIGHLAND DRIVE, CABOT, AR, 72023","Match","Exact","40 HIGHLAND DR, CABOT, AR, 72023",79707293,"L"
197612,"40 HIGHLAND ST","MILTON","MA",2186,42.2516672350001,-71.079734776,112,"40 HIGHLAND ST, MILTON, MA, 2186","Match","Exact","40 HIGHLAND ST, MILTON, MA, 02186",653290733,"L"
197613,"40 HILLCREST DR","SPENCERPORT","NY",14559,43.182456874,-77.800159402,113,"40 HILLCREST DR, SPENCERPORT, NY, 14559","Match","Exact","40 HILLCREST DR, SPENCERPORT, NY, 14559",14528031,"R"
197614,"40 HOLLY DR","NEW ROCHELLE","NY",10801,40.919659117,-73.7979913149999,114,"40 HOLLY DR, NEW ROCHELLE, NY, 10801","Match","Exact","40 HOLLY DR, NEW ROCHELLE, NY, 10801",139842745,"L"
197615,"40 HOLMES PL","FREDONIA","NY",14063,42.4524012030001,-79.327680264,115,"40 HOLMES PL, FREDONIA, NY, 14063","Match","Exact","40 HOLMES PL, FREDONIA, NY, 14063",120757811,"R"
197616,"40 HOPKINSON AVE","PISCATAWAY","NJ",8854,40.57226747,-74.454606322,116,"40 HOPKINSON AVE, PISCATAWAY, NJ, 8854","Match","Exact","40 HOPKINSON AVE, PISCATAWAY, NJ, 08854",60260141,"R"
197617,"40 HORATIO STREET APT 1","NYC","NY",10014,40.738751257,-74.004847307,117,"40 HORATIO STREET APT 1, NYC, NY, 10014","Match","Exact","40 HORATIO ST, NEW YORK, NY, 10014",59659813,"L"
197618,"40 HORN ROAD","LEVITTOWN","PA",19056,40.1643967570001,-74.889077645,118,"40 HORN ROAD, LEVITTOWN, PA, 19056","Match","Exact","40 HORN RD, LEVITTOWN, PA, 19056",134736731,"R"
197619,"40 IMLAYSTOWN ROAD","EAST WINDSOR","NJ",8520,40.2331256040001,-74.517736176,119,"40 IMLAYSTOWN ROAD, EAST WINDSOR, NJ, 8520","Match","Exact","40 IMLAYSTOWN RD, EAST WINDSOR, NJ, 08520",635445559,"L"
197620,"40 IRVING PLACE 4TH FL RM 422","NYC","NY",10003,40.735524782,-73.987637874,120,"40 IRVING PLACE 4TH FL RM 422, NYC, NY, 10003","Match","Exact","40 IRVING PL, NEW YORK, NY, 10003",59653688,"R"
197621,"40 JACKSON STREET APT 313","FREEHOLD","NJ",7728,40.2639055060001,-74.2667208509999,121,"40 JACKSON STREET APT 313, FREEHOLD, NJ, 7728","Match","Exact","40 JACKSON ST, FREEHOLD, NJ, 07728",90527897,"R"
197622,"40 JACKSON STREET SUITE 3400","WORCESTER","MA",1608,42.2564685040001,-71.8090756829999,122,"40 JACKSON STREET SUITE 3400, WORCESTER, MA, 1608","Match","Exact","40 JACKSON ST, WORCESTER, MA, 01608",40071150,"R"
197623,"40 JASON LANE","STAFFORD","VA",22554,38.4384003010001,-77.39771316,123,"40 JASON LANE, STAFFORD, VA, 22554","Match","Exact","40 JASON LN, STAFFORD, VA, 22554",25563723,"R"
197624,"40 JEFFREY PLACE","MANHASSETT HILLS","NY",11040,40.7616485360001,-73.676947963,124,"40 JEFFREY PLACE, MANHASSETT HILLS, NY, 11040","Match","Non_Exact","40 JEFFREY PL, MANHASSET HILLS, NY, 11040",147661197,"R"
197625,"40 KIHALANI PLACE UNIT 3503","KIHEI","HI",96753,NA,NA,125,"40 KIHALANI PLACE UNIT 3503, KIHEI, HI, 96753","No_Match",NA,NA,NA,NA
197626,"40 KINGS PARK RD","COMMACK","NY",11725,40.8494164860001,-73.267905388,126,"40 KINGS PARK RD, COMMACK, NY, 11725","Match","Exact","40 KINGS PARK RD, COMMACK, NY, 11725",113981986,"L"
197627,"40 KINGS WAY APT 304A","WALTHAM","MA",2451,42.4068306830001,-71.250233817,127,"40 KINGS WAY APT 304A, WALTHAM, MA, 2451","Match","Exact","40 KINGS WAY, WALTHAM, MA, 02451",87121582,"L"
197628,"40 KINGSWOOD DR","CHULA VISTA","CA",91911,32.6036280930001,-117.052471366,128,"40 KINGSWOOD DR, CHULA VISTA, CA, 91911","Match","Exact","40 KINGSWOOD DR, CHULA VISTA, CA, 91911",195358378,"L"
197629,"40 KINGSWOOD PLACE","RIDGEFIELD","CT",6877,41.2943161750001,-73.455828635,129,"40 KINGSWOOD PLACE, RIDGEFIELD, CT, 6877","Match","Exact","40 KINGSWOOD PL, RIDGEFIELD, CT, 06877",3262364,"R"
197630,"40 KNOLL RD","WOODBURY","CT",6798,41.5438676790001,-73.238993223,130,"40 KNOLL RD, WOODBURY, CT, 6798","Match","Exact","40 KNOLL RD, WOODBURY, CT, 06798",3108800,"R"
197631,"40 KUPALAIKI LOOP","KIHEI","HI",96753,20.746925977,-156.451965787,131,"40 KUPALAIKI LOOP, KIHEI, HI, 96753","Match","Exact","40 KUPALAIKI LOOP, KIHEI, HI, 96753",85088801,"L"
197632,"40 LADY SLIPPER LANE","ABINGTON","MA",2351,42.111788684,-70.975481568,132,"40 LADY SLIPPER LANE, ABINGTON, MA, 2351","Match","Exact","40 LADY SLIPPER LN, ABINGTON, MA, 02351",87463362,"L"
197633,"40 LAKEVIEW AVENUE","BRIDGEPORT","CT",6606,41.212268254,-73.1868703439999,133,"40 LAKEVIEW AVENUE, BRIDGEPORT, CT, 6606","Match","Exact","40 LAKEVIEW AVE, BRIDGEPORT, CT, 06606",3224536,"R"
197634,"40 LANE 200H LAKE JAMES","ANGOLA","IN",46703,41.6849342350001,-85.01440249,134,"40 LANE 200H LAKE JAMES, ANGOLA, IN, 46703","Match","Non_Exact","40 LN 200H LAKE JAMES, ANGOLA, IN, 46703",7722837,"L"
197635,"40 LARK DRIVE APT 42A","ALBANY","NY",12210,42.6645384930001,-73.750899456,135,"40 LARK DRIVE APT 42A, ALBANY, NY, 12210","Match","Exact","40 LARK DR, ALBANY, NY, 12210",624846644,"L"
197636,"40 LAWRENCE ST","LITTLETON","MA",1460,42.5592320320001,-71.4977762619999,136,"40 LAWRENCE ST, LITTLETON, MA, 1460","Match","Exact","40 LAWRENCE ST, LITTLETON, MA, 01460",86927165,"R"
197637,"40 LEXINGTON AVE NW","GRAND RAPIDS","MI",49504,42.964505267,-85.683802607,137,"40 LEXINGTON AVE NW, GRAND RAPIDS, MI, 49504","Match","Exact","40 LEXINGTON AVE NW, GRAND RAPIDS, MI, 49504",12456357,"R"
197638,"40 LEXINGTON AVENUE","SOMERVILLE","MA",2144,42.394009806,-71.113195667,138,"40 LEXINGTON AVENUE, SOMERVILLE, MA, 2144","Match","Exact","40 LEXINGTON AVE, SOMERVILLE, MA, 02144",86858942,"L"
197639,"40 LIBRARY ST","MYSTIC","CT",6355,41.3539598,-71.974681989,139,"40 LIBRARY ST, MYSTIC, CT, 6355","Match","Exact","40 LIBRARY ST, MYSTIC, CT, 06355",56853319,"R"
197640,"40 LINDEN AVENUE","IRVINGTON","NJ",7111,40.728268197,-74.2286155259999,140,"40 LINDEN AVENUE, IRVINGTON, NJ, 7111","Match","Exact","40 LINDEN AVE, IRVINGTON, NJ, 07111",63464688,"R"
197641,"40 LINDEN PLACE","SEWICKLEY","PA",15143,40.543001815,-80.1893558309999,141,"40 LINDEN PLACE, SEWICKLEY, PA, 15143","Match","Exact","40 LINDEN PL, SEWICKLEY, PA, 15143",51691615,"R"
197642,"40 LISPENARD STREET 5","NEW YORK","NY",10013,40.719670718,-74.003167176,142,"40 LISPENARD STREET 5, NEW YORK, NY, 10013","Match","Exact","40 LISPENARD ST, NEW YORK, NY, 10013",59660244,"R"
197643,"40 LONE TREE DR","CAMDEN","DE",19934,39.1014242890001,-75.5489439569999,143,"40 LONE TREE DR, CAMDEN, DE, 19934","Match","Exact","40 LONE TREE DR, CAMDEN, DE, 19934",617130971,"R"
197644,"40 LOON LAKE ROAD","FREEDOM","NH",3836,43.804892033,-71.0311061749999,144,"40 LOON LAKE ROAD, FREEDOM, NH, 3836","Match","Exact","40 LOON LAKE RD, FREEDOM, NH, 03836",145625646,"L"
197645,"40 MAIN ST 2ND FLOOR","HAMBURG","NY",14075,42.7159580520001,-78.8312948019999,145,"40 MAIN ST 2ND FLOOR, HAMBURG, NY, 14075","Match","Exact","40 MAIN ST, HAMBURG, NY, 14075",638071809,"L"
197646,"40 MALLARD POINTE DRIVE","DOUGLAS","GA",31535,NA,NA,146,"40 MALLARD POINTE DRIVE, DOUGLAS, GA, 31535","No_Match",NA,NA,NA,NA
197647,"40 MANOR LANE","MORRIS PLAINS","NJ",7950,40.862117847,-74.4773599659999,147,"40 MANOR LANE, MORRIS PLAINS, NJ, 7950","Match","Exact","40 MANOR LN, MORRIS PLAINS, NJ, 07950",60440647,"L"
197648,"40 MARGARET DRIVE","SAG HARBOR","NY",11963,40.9814036650001,-72.321689802,148,"40 MARGARET DRIVE, SAG HARBOR, NY, 11963","Match","Exact","40 MARGARET DR, SAG HARBOR, NY, 11963",113959521,"R"
197649,"40 MARTINDALE ROAD","SHORT HILLS","NJ",7078,40.74786956,-74.310517916,149,"40 MARTINDALE ROAD, SHORT HILLS, NJ, 7078","Match","Exact","40 MARTINDALE RD, SHORT HILLS, NJ, 07078",63495670,"R"
197650,"40 MARYWOOD ST","UXBRIDGE","MA",1569,42.076578354,-71.6346893749999,150,"40 MARYWOOD ST, UXBRIDGE, MA, 1569","Match","Exact","40 MARYWOOD ST, UXBRIDGE, MA, 01569",40024716,"L"
197651,"40 MARYWOOD STREET","UXBRIDGE","MA",1569,42.076578354,-71.6346893749999,151,"40 MARYWOOD STREET, UXBRIDGE, MA, 1569","Match","Exact","40 MARYWOOD ST, UXBRIDGE, MA, 01569",40024716,"L"
197652,"40 MASON STREET","WORCESTER","MA",1609,NA,NA,152,"40 MASON STREET, WORCESTER, MA, 1609","No_Match",NA,NA,NA,NA
197653,"40 MASSABESIC ST","MANCHESTER","NH",3103,42.9867432030001,-71.445862929,153,"40 MASSABESIC ST, MANCHESTER, NH, 3103","Match","Exact","40 MASSABESIC ST, MANCHESTER, NH, 03103",113532460,"L"
197654,"40 MAUPAS ROAD","GUILFORD","CT",6437,41.3288658550001,-72.6882914139999,154,"40 MAUPAS ROAD, GUILFORD, CT, 6437","Match","Exact","40 MAUPAS RD, GUILFORD, CT, 06437",3746550,"L"
197655,"40 MCGARRAH ROAD","MONROE","NY",10950,41.3010690930001,-74.172362075,155,"40 MCGARRAH ROAD, MONROE, NY, 10950","Match","Exact","40 MCGARRAH RD, MONROE, NY, 10950",124402761,"R"
197656,"40 MCINTYRE ST","FORT EDWARD","NY",12828,43.2753655610001,-73.580290304,156,"40 MCINTYRE ST, FORT EDWARD, NY, 12828","Match","Exact","40 MCINTYRE ST, FORT EDWARD, NY, 12828",139154019,"L"
197657,"40 MEADOW RIDGE","SOCIAL CIRCLE","GA",30025,33.6183234050001,-83.765521962,157,"40 MEADOW RIDGE, SOCIAL CIRCLE, GA, 30025","Match","Exact","40 MEADOW RIDGE, SOCIAL CIRCLE, GA, 30025",639843241,"R"
197658,"40 MEADOW SPRING LANE","EAST AMHERST","NY",14051,43.041867537,-78.731918685,158,"40 MEADOW SPRING LANE, EAST AMHERST, NY, 14051","Match","Exact","40 MEADOW SPRING LN, EAST AMHERST, NY, 14051",48349298,"L"
197659,"40 MEMORIAL HIGHWAY / APT 35G","NEW ROCHELLE","NY",10801,40.909737605,-73.783152489,159,"40 MEMORIAL HIGHWAY / APT 35G, NEW ROCHELLE, NY, 10801","Match","Exact","40 MEMORIAL HWY, NEW ROCHELLE, NY, 10801",139847106,"L"
197660,"40 MEMORIAL HIGHWAY APARTMENT 28A","NEW ROCHELLE","NY",10801,40.909737605,-73.783152489,160,"40 MEMORIAL HIGHWAY APARTMENT 28A, NEW ROCHELLE, NY, 10801","Match","Exact","40 MEMORIAL HWY, NEW ROCHELLE, NY, 10801",139847106,"L"
197661,"40 MEMORIAL HWY APT 27L","NEW ROCHELLE","NY",10801,40.909737605,-73.783152489,161,"40 MEMORIAL HWY APT 27L, NEW ROCHELLE, NY, 10801","Match","Exact","40 MEMORIAL HWY, NEW ROCHELLE, NY, 10801",139847106,"L"
197662,"40 MEMORIAL HWY","NEW ROCHELLE","NY",10801,40.909737605,-73.783152489,162,"40 MEMORIAL HWY, NEW ROCHELLE, NY, 10801","Match","Exact","40 MEMORIAL HWY, NEW ROCHELLE, NY, 10801",139847106,"L"
197663,"40 MERRITT DR","BELLA VISTA","AR",72714,36.4501219520001,-94.200436138,163,"40 MERRITT DR, BELLA VISTA, AR, 72714","Match","Exact","40 MERRITT DR, BELLA VISTA, AR, 72714",47823138,"L"
197664,"40 METRO VISTA DR","HAWTHORNE","NJ",7506,40.953183439,-74.16738557,164,"40 METRO VISTA DR, HAWTHORNE, NJ, 7506","Match","Exact","40 METRO VISTA DR, HAWTHORNE, NJ, 07506",65262328,"L"
197665,"40 MIDDLE NECK RD STE B","GREAT NECK","NY",11021,40.787819466,-73.728731137,165,"40 MIDDLE NECK RD STE B, GREAT NECK, NY, 11021","Match","Exact","40 MIDDLE NECK RD, GREAT NECK, NY, 11021",147834750,"L"
197666,"40 MILFORD STREET SUITE 1","HAMILTON","NY",13346,42.82362298,-75.550322858,166,"40 MILFORD STREET SUITE 1, HAMILTON, NY, 13346","Match","Exact","40 MILFORD ST, HAMILTON, NY, 13346",46501059,"L"
197667,"40 MILK ST","NEWBURYPORT","MA",1950,42.8064186510001,-70.864851174,167,"40 MILK ST, NEWBURYPORT, MA, 1950","Match","Exact","40 MILK ST, NEWBURYPORT, MA, 01950",86621282,"R"
197668,"40 MITCHELL AVENUE","EAST NORTHORT","NY",11731,40.8668082180001,-73.301675916,168,"40 MITCHELL AVENUE, EAST NORTHORT, NY, 11731","Match","Non_Exact","40 MITCHELL AVE, E NORTHPORT, NY, 11731",113979501,"L"
197669,"40 MOMBERT DRIVE","BALLWIN","MO",63021,38.5512987910001,-90.520781883,169,"40 MOMBERT DRIVE, BALLWIN, MO, 63021","Match","Exact","40 MOMBERT DR, BALLWIN, MO, 63021",642963127,"L"
197670,"40 MONROE CENTER ST NW STE 11","GRAND RAPIDS","MI",49503,42.9640250480001,-85.668528893,170,"40 MONROE CENTER ST NW STE 11, GRAND RAPIDS, MI, 49503","Match","Exact","40 MONROE CENTER ST NW, GRAND RAPIDS, MI, 49503",12457658,"R"
197671,"40 MONTEREY LANE","SIERRA MADRE","CA",91024,34.161201577,-118.039304832,171,"40 MONTEREY LANE, SIERRA MADRE, CA, 91024","Match","Exact","40 MONTEREY LN, SIERRA MADRE, CA, 91024",241241313,"L"
197672,"40 MONUMENT AVE","SWAMPSCOTT","MA",1907,42.4692623120001,-70.917646954,172,"40 MONUMENT AVE, SWAMPSCOTT, MA, 1907","Match","Exact","40 MONUMENT AVE, SWAMPSCOTT, MA, 01907",86646933,"L"
197673,"40 MOSELLE ST","BUFFALO","NY",14211,42.9045868050001,-78.8242293119999,173,"40 MOSELLE ST, BUFFALO, NY, 14211","Match","Exact","40 MOSELLE ST, BUFFALO, NY, 14211",48296816,"L"
197674,"40 MOUNT ZION RD SE APT 38","ATLANTA","GA",30354,33.672763273,-84.387455624,174,"40 MOUNT ZION RD SE APT 38, ATLANTA, GA, 30354","Match","Exact","40 MOUNT ZION RD SE, ATLANTA, GA, 30354",17384720,"L"
197675,"40 MOUNTAIN ROAD","LEDGEWOOD","NJ",7852,40.8772761970001,-74.6611277929999,175,"40 MOUNTAIN ROAD, LEDGEWOOD, NJ, 7852","Match","Exact","40 MOUNTAIN RD, LEDGEWOOD, NJ, 07852",60454548,"R"
197676,"40 MT ZION ROAD","ATLANTA","GA",30354,NA,NA,176,"40 MT ZION ROAD, ATLANTA, GA, 30354","Tie",NA,NA,NA,NA
197677,"40 MYRTLE AVE","DOBBS FERRY","NY",10522,41.016130376,-73.861953558,177,"40 MYRTLE AVE, DOBBS FERRY, NY, 10522","Match","Exact","40 MYRTLE AVE, DOBBS FERRY, NY, 10522",139799615,"R"
197678,"40 N BROADWAY STREET","COAL CITY","IL",60416,41.2881906050001,-88.285454583,178,"40 N BROADWAY STREET, COAL CITY, IL, 60416","Match","Exact","40 N BROADWAY ST, COAL CITY, IL, 60416",54459532,"L"
197679,"40 N BROADWAY","IRVINGTON","NY",10533,41.0417507080001,-73.8639375389999,179,"40 N BROADWAY, IRVINGTON, NY, 10533","Match","Exact","40 N BROADWAY, IRVINGTON, NY, 10533",139768015,"R"
197680,"40 N CENTER ST","FERNLEY","NV",89408,39.608109175,-119.252237173,180,"40 N CENTER ST, FERNLEY, NV, 89408","Match","Exact","40 CENTER ST, FERNLEY, NV, 89408",140353234,"L"
197681,"40 N CROMWELL RD","SAVANNAH","GA",31410,31.998624122,-80.98014383,181,"40 N CROMWELL RD, SAVANNAH, GA, 31410","Match","Exact","40 N CROMWELL RD, SAVANNAH, GA, 31410",6210483,"R"
197682,"40 N DOGWOOD DRIVE","MAYFLOWER","AR",72106,34.981828911,-92.403459974,182,"40 N DOGWOOD DRIVE, MAYFLOWER, AR, 72106","Match","Exact","40 N DOGWOOD DR, MAYFLOWER, AR, 72106",141069303,"R"
197683,"40 N HOBART STREET","PHILADELPHIA","PA",19139,39.9627678080001,-75.237868191,183,"40 N HOBART STREET, PHILADELPHIA, PA, 19139","Match","Exact","40 N HOBART ST, PHILADELPHIA, PA, 19139",131398300,"L"
197684,"40 N MAIN ST SUITE 2700","DAYTON","OH",45423,39.7601453290001,-84.19196535,184,"40 N MAIN ST SUITE 2700, DAYTON, OH, 45423","Match","Non_Exact","40 MAIN ST, DAYTON, OH, 45402",143571351,"R"
197685,"40 N WOODBURY ROAD","PITMAN","NJ",8071,39.737712064,-75.1222030059999,185,"40 N WOODBURY ROAD, PITMAN, NJ, 8071","Match","Exact","40 N WOODBURY RD, PITMAN, NJ, 08071",134586016,"L"
197686,"40 NEW WAY LANE","GLOUCESTER","MA",1930,42.6152432690001,-70.717538829,186,"40 NEW WAY LANE, GLOUCESTER, MA, 1930","Match","Exact","40 NEW WAY LN, GLOUCESTER, MA, 01930",624491389,"L"
197687,"40 NORTH ALTADENA DRIVE SUITE 200 L","PASADENA","CA",91107,34.146698035,-118.098649454,187,"40 NORTH ALTADENA DRIVE SUITE 200 L, PASADENA, CA, 91107","Match","Exact","40 N ALTADENA DR, PASADENA, CA, 91107",141633244,"R"
197688,"40 NORTH CLARENDON AVENUE","MARGATE","NJ",8402,39.332663735,-74.4960601619999,188,"40 NORTH CLARENDON AVENUE, MARGATE, NJ, 8402","Match","Non_Exact","40 N CLARENDON AVE, MARGATE CITY, NJ, 08402",202487734,"L"
197689,"40 NORTH CONGER AVENUE","CONGERS","NY",10920,NA,NA,189,"40 NORTH CONGER AVENUE, CONGERS, NY, 10920","No_Match",NA,NA,NA,NA
197690,"40 NORTH ELLAMONT STREET","BALTIMORE","MD",21229,39.2864228240001,-76.67047034,190,"40 NORTH ELLAMONT STREET, BALTIMORE, MD, 21229","Match","Exact","40 N ELLAMONT ST, BALTIMORE, MD, 21229",206414800,"L"
197691,"40 NORTH FULTON AVE","MOUNT VERNON","NY",10550,40.9127869390001,-73.828726697,191,"40 NORTH FULTON AVE, MOUNT VERNON, NY, 10550","Match","Exact","40 N FULTON AVE, MOUNT VERNON, NY, 10550",139748687,"L"
197692,"40 NORTH MAIN AVE","ALBANY","NY",12203,42.666965421,-73.7864066399999,192,"40 NORTH MAIN AVE, ALBANY, NY, 12203","Match","Exact","40 N MAIN AVE, ALBANY, NY, 12203",18308775,"R"
197693,"40 NORTH MAIN STREET - SUITE 1900","DAYTON","OH",45423,39.629394946,-84.158867981,193,"40 NORTH MAIN STREET - SUITE 1900, DAYTON, OH, 45423","Match","Non_Exact","40 N MAIN ST, DAYTON, OH, 45459",143583934,"R"
197694,"40 NORTH MAIN STREET","MEDFORD","NJ",8055,39.9012707050001,-74.82358046,194,"40 NORTH MAIN STREET, MEDFORD, NJ, 8055","Match","Exact","40 N MAIN ST, MEDFORD, NJ, 08055",645413651,"L"
197695,"40 NORWELL STREET","WEST HAVEN","CT",6516,41.2964329600001,-72.976397371,195,"40 NORWELL STREET, WEST HAVEN, CT, 6516","Match","Exact","40 NORWELL ST, W HAVEN, CT, 06516",604741168,"L"
197696,"40 NW 12TH AVE","DELRAY  BEACH","FL",33444,26.462405743,-80.0853665019999,196,"40 NW 12TH AVE, DELRAY  BEACH, FL, 33444","Match","Exact","40 NW 12TH AVE, DELRAY BEACH, FL, 33444",115290951,"L"
197697,"40 NW 29TH ST","MIAMI","FL",33127,25.8039288030001,-80.1959879409999,197,"40 NW 29TH ST, MIAMI, FL, 33127","Match","Exact","40 NW 29TH ST, MIAMI, FL, 33127",116017366,"L"
197698,"40 NW 3RD ST PH 1","MIAMI","FL",33128,25.777015453,-80.1943777819999,198,"40 NW 3RD ST PH 1, MIAMI, FL, 33128","Match","Non_Exact","40 NW 3RD ST, MIAMI, FL, 33128",116018367,"L"
197699,"40 NW 3RD ST STE 305","MIAMI","FL",33128,25.777015453,-80.1943777819999,199,"40 NW 3RD ST STE 305, MIAMI, FL, 33128","Match","Non_Exact","40 NW 3RD ST, MIAMI, FL, 33128",116018367,"L"
197700,"40 OAK RIDGE ST","INDIAN ORCHARD","MA",1151,42.1502785650001,-72.486792462,200,"40 OAK RIDGE ST, INDIAN ORCHARD, MA, 1151","Match","Exact","40 OAK RIDGE ST, INDIAN ORCHARD, MA, 01151",4026263,"L"
197701,"40 OAKLEY KELLY DRIVE","MERCER","PA",16137,41.142282789,-80.1672155269999,201,"40 OAKLEY KELLY DRIVE, MERCER, PA, 16137","Match","Non_Exact","40 OAKLEY- KELLY DR, MERCER, PA, 16137",605385887,"R"
197702,"40 OAKWOOD AVENUE","HURON","OH",44839,41.413023138,-82.590410124,202,"40 OAKWOOD AVENUE, HURON, OH, 44839","Match","Exact","40 OAKWOOD AVE, HURON, OH, 44839",55326851,"R"
197703,"40 OLD FORGE RD","CLEMENTON","NJ",8021,39.8100389740001,-75.037654748,203,"40 OLD FORGE RD, CLEMENTON, NJ, 8021","Match","Exact","40 OLD FORGE RD, CLEMENTON, NJ, 08021",134359633,"R"
197704,"40 OLIVER","ST LOUIS","MO",63135,38.739156026,-90.301916326,204,"40 OLIVER, ST LOUIS, MO, 63135","Match","Non_Exact","40 OLIVER AVE, SAINT LOUIS, MO, 63135",100146208,"R"
197705,"40 OVERBY LN","ATLANTA","GA",30327,33.8274573410001,-84.4191868939999,205,"40 OVERBY LN, ATLANTA, GA, 30327","Match","Exact","40 OVERBY LN, ATLANTA, GA, 30327",619672736,"R"
197706,"40 PACIFICA SUITE 1500","IRVINE","CA",92618,NA,NA,206,"40 PACIFICA SUITE 1500, IRVINE, CA, 92618","No_Match",NA,NA,NA,NA
197707,"40 PARK LANE","RICHMOND","CA",94803,37.9824007570001,-122.308750606,207,"40 PARK LANE, RICHMOND, CA, 94803","Match","Exact","40 PARK LN, RICHMOND, CA, 94803",635918564,"R"
197708,"40 PAULA LANE","MANCHESTER","CT",6040,41.755941557,-72.508867309,208,"40 PAULA LANE, MANCHESTER, CT, 6040","Match","Exact","40 PAULA LN, MANCHESTER, CT, 06040",625313435,"R"
197709,"40 PEARL STREET NW 5TH FLOOR","GRAND RAPIDS","MI",49503,42.966360728,-85.6694131309999,209,"40 PEARL STREET NW 5TH FLOOR, GRAND RAPIDS, MI, 49503","Match","Exact","40 PEARL ST NW, GRAND RAPIDS, MI, 49503",12457334,"L"
197710,"40 PEARSALL AVENUE","GLEN COVE","NY",11542,40.8624052690001,-73.620118533,210,"40 PEARSALL AVENUE, GLEN COVE, NY, 11542","Match","Exact","40 PEARSALL AVE, GLEN COVE, NY, 11542",147622131,"R"
197711,"40 PHILADELPHIA DRIVE SUITE 207","CHICO","CA",95973,39.7719660650001,-121.875044316,211,"40 PHILADELPHIA DRIVE SUITE 207, CHICO, CA, 95973","Match","Exact","40 PHILADELPHIA DR, CHICO, CA, 95973",68459050,"R"
197712,"40 PIERCE DR SUITE 3","AUGUSTA","ME",4330,44.3159923430001,-69.7460268309999,212,"40 PIERCE DR SUITE 3, AUGUSTA, ME, 4330","Match","Exact","40 PIERCE DR, AUGUSTA, ME, 04330",645554860,"L"
197713,"40 PILGRIM  LANE","MONSEY","NY",10952,41.1430572740001,-74.087100329,213,"40 PILGRIM  LANE, MONSEY, NY, 10952","Match","Exact","40 PILGRIM LN, MONSEY, NY, 10952",124615803,"R"
197714,"40 PIN OAK CIRCLE","MURPHYSBORO","IL",62966,37.7476147240001,-89.265203968,214,"40 PIN OAK CIRCLE, MURPHYSBORO, IL, 62966","Match","Exact","40 PIN OAK CIR, MURPHYSBORO, IL, 62966",95084721,"R"
197715,"40 PINE AVENUE","WEST LONG BRANCH","NJ",7746,NA,NA,215,"40 PINE AVENUE, WEST LONG BRANCH, NJ, 7746","No_Match",NA,NA,NA,NA
197716,"40 PINECLIFF TRAIL","NEDERLAND","CO",80466,39.9584158530001,-105.49756447,216,"40 PINECLIFF TRAIL, NEDERLAND, CO, 80466","Match","Exact","40 PINECLIFF TRL, NEDERLAND, CO, 80466",188157794,"R"
197717,"40 POST OFFICE PARK SUITE 782","WILBRAHAM","MA",1095,42.1514855300001,-72.441967023,217,"40 POST OFFICE PARK SUITE 782, WILBRAHAM, MA, 1095","Match","Exact","40 POST OFFICE PARK, WILBRAHAM, MA, 01095",4052315,"L"
197718,"40 PRATT ROAD","EDEN","NC",27288,NA,NA,218,"40 PRATT ROAD, EDEN, NC, 27288","No_Match",NA,NA,NA,NA
197719,"40 PRODELIN WAY","MILLSTONE TOWNSHIP","NJ",8535,40.2465432020001,-74.438693104,219,"40 PRODELIN WAY, MILLSTONE TOWNSHIP, NJ, 8535","Match","Exact","40 PRODELIN WAY, MILLSTONE TOWNSHIP, NJ, 08535",90525959,"R"
197720,"40 PROSPECT STREET","WALTHAM","MA",2453,42.374772856,-71.2465071459999,220,"40 PROSPECT STREET, WALTHAM, MA, 2453","Match","Exact","40 PROSPECT ST, WALTHAM, MA, 02453",86890219,"L"
197721,"40 PURDUE RD","BRISTOL","CT",6010,41.709688419,-72.900881708,221,"40 PURDUE RD, BRISTOL, CT, 6010","Match","Exact","40 PURDUE RD, BRISTOL, CT, 06010",3506686,"R"
197722,"40 RAILROAD STREET","YOUNGSVILLE","PA",16371,41.8511067580001,-79.316891794,222,"40 RAILROAD STREET, YOUNGSVILLE, PA, 16371","Match","Exact","40 RAILROAD ST, YOUNGSVILLE, PA, 16371",607269973,"L"
197723,"40 RANCH ROAD","SEDONA","AZ",86336,34.874408004,-111.800908169,223,"40 RANCH ROAD, SEDONA, AZ, 86336","Match","Exact","40 RANCH RD, SEDONA, AZ, 86336",159474800,"L"
197724,"40 RECTOR STREET 12TH FLOOR","NEW YORK","NY",10006,40.708283055,-74.014562688,224,"40 RECTOR STREET 12TH FLOOR, NEW YORK, NY, 10006","Match","Exact","40 RECTOR ST, NEW YORK, NY, 10006",59659575,"R"
197725,"40 RECTOR STREET 9TH FLOOR","NEW YORK","NY",10006,40.708283055,-74.014562688,225,"40 RECTOR STREET 9TH FLOOR, NEW YORK, NY, 10006","Match","Exact","40 RECTOR ST, NEW YORK, NY, 10006",59659575,"R"
197726,"40 RESERVATION ROAD","SUNDERLAND","MA",1375,42.5034336900001,-72.527049828,226,"40 RESERVATION ROAD, SUNDERLAND, MA, 1375","Match","Exact","40 RESERVATION RD, SUNDERLAND, MA, 01375",39925723,"R"
197727,"40 RESERVOIR AVENUE","LEWISTON","ME",4240,44.092797718,-70.188037311,227,"40 RESERVOIR AVENUE, LEWISTON, ME, 4240","Match","Exact","40 RESERVOIR AVE, LEWISTON, ME, 04240",77976453,"L"
197728,"40 RESERVOIR ST","BROCKTON","MA",2301,42.1016223460001,-71.062037586,228,"40 RESERVOIR ST, BROCKTON, MA, 2301","Match","Exact","40 RESERVOIR ST, BROCKTON, MA, 02301",87463776,"L"
197729,"40 RICHARDSON ROAD","BOXBOROUGH","MA",1719,42.467069064,-71.509417715,229,"40 RICHARDSON ROAD, BOXBOROUGH, MA, 1719","Match","Exact","40 RICHARDSON RD, BOXBOROUGH, MA, 01719",87087780,"L"
197730,"40 RICHELIEU PLACE","NEWARK","NJ",7106,40.7410830170001,-74.23646988,230,"40 RICHELIEU PLACE, NEWARK, NJ, 7106","Match","Exact","40 RICHELIEU PL, NEWARK, NJ, 07106",63463959,"L"
197731,"40 RICHMAN PLAZA 41G","BRONX","NY",10453,40.852049019,-73.922438144,231,"40 RICHMAN PLAZA 41G, BRONX, NY, 10453","Match","Exact","40 RICHMAN PLZ, BRONX, NY, 10453",609039414,"L"
197732,"40 RIDGE RD","ETTERS","PA",17319,40.1496962140001,-76.8382195999999,232,"40 RIDGE RD, ETTERS, PA, 17319","Match","Exact","40 RIDGE RD, ETTERS, PA, 17319",648913532,"L"
197733,"40 RIVERHILL AVE","CONCORD","NH",3303,43.2534849030001,-71.621337113,233,"40 RIVERHILL AVE, CONCORD, NH, 3303","Match","Exact","40 RIVERHILL AVE, CONCORD, NH, 03303",117742022,"R"
197734,"40 ROLLING HILL RD","CLINTON","MI",8809,NA,NA,234,"40 ROLLING HILL RD, CLINTON, MI, 8809","No_Match",NA,NA,NA,NA
197735,"40 ROLLING HILL RD","CLINTON","NJ",8809,40.6353245830001,-74.9018785769999,235,"40 ROLLING HILL RD, CLINTON, NJ, 8809","Match","Exact","40 ROLLING HILL RD, CLINTON, NJ, 08809",60025450,"R"
197736,"40 ROLLING HILL ROAD","CLINTON","NJ",8809,40.6353245830001,-74.9018785769999,236,"40 ROLLING HILL ROAD, CLINTON, NJ, 8809","Match","Exact","40 ROLLING HILL RD, CLINTON, NJ, 08809",60025450,"R"
197737,"40 ROOSEVELT BOULEVARD","EDISON","NJ",8837,40.5378030530001,-74.333736152,237,"40 ROOSEVELT BOULEVARD, EDISON, NJ, 8837","Match","Exact","40 ROOSEVELT BLVD, EDISON, NJ, 08837",60278380,"R"
197738,"40 ROSSIE ST","MYSTIC","CT",6355,41.361576524,-71.960605066,238,"40 ROSSIE ST, MYSTIC, CT, 6355","Match","Exact","40 ROSSIE ST, MYSTIC, CT, 06355",56853659,"R"
197739,"40 ROUND TOP ROAD","BERNARDSVILLE","NJ",7924,40.720923692,-74.581161434,239,"40 ROUND TOP ROAD, BERNARDSVILLE, NJ, 7924","Match","Exact","40 ROUND TOP RD, BERNARDSVILLE, NJ, 07924",60002561,"L"
197740,"40 ROUTE 130","FORESTDALE","MA",2644,41.6807744970001,-70.510278996,240,"40 ROUTE 130, FORESTDALE, MA, 2644","Match","Non_Exact","40 STATE RTE 130, FORESTDALE, MA, 02644",636798898,"R"
197741,"40 ROYCROFT PARKWAY","ELMA","NY",14059,42.853880529,-78.6081071039999,241,"40 ROYCROFT PARKWAY, ELMA, NY, 14059","Match","Exact","40 ROYCROFT PKWY, ELMA, NY, 14059",48313466,"L"
197742,"40 S 7TH ST STE 212 BOX 204","MINNEAPOLIS","MN",55402,44.9773397500001,-93.273320214,242,"40 S 7TH ST STE 212 BOX 204, MINNEAPOLIS, MN, 55402","Match","Non_Exact","40 7TH ST S, MINNEAPOLIS, MN, 55402",43632113,"L"
197743,"40 S 7TH ST STE 212","MINNEAPOLIS","MN",55402,44.9773397500001,-93.273320214,243,"40 S 7TH ST STE 212, MINNEAPOLIS, MN, 55402","Match","Non_Exact","40 7TH ST S, MINNEAPOLIS, MN, 55402",43632113,"L"
197744,"40 S DECKER","DAYTON","OH",45406,NA,NA,244,"40 S DECKER, DAYTON, OH, 45406","No_Match",NA,NA,NA,NA
197745,"40 S FULLERTON AVE STE 19","MONTCLAIR","NJ",7042,NA,NA,245,"40 S FULLERTON AVE STE 19, MONTCLAIR, NJ, 7042","Tie",NA,NA,NA,NA
197746,"40 S JAMES ROAD","COLUMBUS","OH",43213,39.970526003,-82.913581211,246,"40 S JAMES ROAD, COLUMBUS, OH, 43213","Match","Exact","40 S JAMES RD, COLUMBUS, OH, 43213",652711554,"L"
197747,"40 S MAIN ST","SHERIDAN","WY",82801,44.796851444,-106.955817869,247,"40 S MAIN ST, SHERIDAN, WY, 82801","Match","Exact","40 S MAIN ST, SHERIDAN, WY, 82801",147404449,"L"
197748,"40 S PERRY STREET","DAYTON","OH",45402,39.7581543410001,-84.196434309,248,"40 S PERRY STREET, DAYTON, OH, 45402","Match","Exact","40 S PERRY ST, DAYTON, OH, 45402",143571335,"L"
197749,"40 SAINT IVES WAY UNIT 13","MARLBOROUGH","MA",1752,42.3181927370001,-71.57422882,249,"40 SAINT IVES WAY UNIT 13, MARLBOROUGH, MA, 1752","Match","Exact","40 ST IVES WAY, MARLBOROUGH, MA, 01752",645283136,"L"
197750,"40 SANDBURG COURT","MIDDLETOWN","NY",10941,41.479387468,-74.3865697849999,250,"40 SANDBURG COURT, MIDDLETOWN, NY, 10941","Match","Exact","40 SANDBURG CT, MIDDLETOWN, NY, 10941",124500252,"R"
197751,"40 SANDRIDGE ROAD","COLDWATER","MS",38618,NA,NA,251,"40 SANDRIDGE ROAD, COLDWATER, MS, 38618","No_Match",NA,NA,NA,NA
197752,"40 SAVANNAH FOREST CIR","CRAWFORDVILLE","FL",32327,30.1913744400001,-84.380635215,252,"40 SAVANNAH FOREST CIR, CRAWFORDVILLE, FL, 32327","Match","Exact","40 SAVANNAH FOREST CIR, CRAWFORDVILLE, FL, 32327",629963283,"R"
197753,"40 SEABURY","HAMPTON","NH",3842,42.9279971660001,-70.8301694049999,253,"40 SEABURY, HAMPTON, NH, 3842","Match","Exact","40 SEABURY, HAMPTON, NH, 03842",624420387,"R"
197754,"40 SERENITY WAY SE","CONYERS","GA",30013,33.5775815100001,-83.996677232,254,"40 SERENITY WAY SE, CONYERS, GA, 30013","Match","Non_Exact","40 SERENITY WAY, CONYERS, GA, 30013",618465003,"R"
197755,"40 SHARON DRIVE","SPRING VALLEY","NY",10977,41.1019729560001,-74.0571387589999,255,"40 SHARON DRIVE, SPRING VALLEY, NY, 10977","Match","Exact","40 SHARON DR, SPRING VALLEY, NY, 10977",635036580,"R"
197756,"40 SHARON STREET 3RD FLOOR","HARTFORD","CT",6112,41.7895055380001,-72.7004269569999,256,"40 SHARON STREET 3RD FLOOR, HARTFORD, CT, 6112","Match","Exact","40 SHARON ST, HARTFORD, CT, 06112",3488900,"R"
197757,"40 SHARPE DRIVE UNIT 5","CRANSTON","RI",2920,41.7389761480001,-71.460374708,257,"40 SHARPE DRIVE UNIT 5, CRANSTON, RI, 2920","Match","Exact","40 SHARPE DR, CRANSTON, RI, 02920",47498349,"R"
197758,"40 SHAWMUT ROAD","CANTON","MA",2021,42.1893759870001,-71.1519417109999,258,"40 SHAWMUT ROAD, CANTON, MA, 2021","Match","Exact","40 SHAWMUT RD, CANTON, MA, 02021",87304830,"R"
197759,"40 SHEFFIELD DR","MIDDLETOWN","NY",10940,41.458072493,-74.3978047259999,259,"40 SHEFFIELD DR, MIDDLETOWN, NY, 10940","Match","Exact","40 SHEFFIELD DR, MIDDLETOWN, NY, 10940",124491793,"L"
197760,"40 SHERWOOD DRIVE","WESTERLY","RI",2891,41.347919925,-71.7943342729999,260,"40 SHERWOOD DRIVE, WESTERLY, RI, 2891","Match","Exact","40 SHERWOOD DR, WESTERLY, RI, 02891",58896348,"R"
197761,"40 SHERWOOD STREET NO 2","ROSLINDALE","MA",2131,42.2843761080001,-71.123069997,261,"40 SHERWOOD STREET NO 2, ROSLINDALE, MA, 2131","Match","Non_Exact","40 SHERWOOD ST, ROSLINDALE, MA, 02131",85724610,"L"
197762,"40 SHORELINE RD","LAKE BARRINGTON","IL",60010,42.2130874200001,-88.148641334,262,"40 SHORELINE RD, LAKE BARRINGTON, IL, 60010","Match","Exact","40 SHORELINE RD, LAKE BARRINGTON, IL, 60010",119700808,"R"
197763,"40 SILEX CIRCLE","SEDONA","AZ",86336,34.869517435,-111.793866249,263,"40 SILEX CIRCLE, SEDONA, AZ, 86336","Match","Exact","40 SILEX CIR, SEDONA, AZ, 86336",159474843,"L"
197764,"40 SOMMERS HILL DR","SOUTHINGTON","CT",6489,41.6260514410001,-72.900464857,264,"40 SOMMERS HILL DR, SOUTHINGTON, CT, 6489","Match","Exact","40 SOMMERS HILL DR, SOUTHINGTON, CT, 06489",627175193,"R"
197765,"40 SOUTH 7TH STREET SUITE 212-106","MINNEAPOLIS","MN",55402,NA,NA,265,"40 SOUTH 7TH STREET SUITE 212-106, MINNEAPOLIS, MN, 55402","No_Match",NA,NA,NA,NA
197766,"40 SOUTH BROAD STREET","PENNS GROVE","NJ",8069,39.7286223310001,-75.469011934,266,"40 SOUTH BROAD STREET, PENNS GROVE, NJ, 8069","Match","Exact","40 S BROAD ST, PENNS GROVE, NJ, 08069",174415423,"R"
197767,"40 SOUTH MAIN STREET PO BOX 985","JAMESTOWN","KY",42629,36.9852057510001,-85.0634694839999,267,"40 SOUTH MAIN STREET PO BOX 985, JAMESTOWN, KY, 42629","Match","Non_Exact","40 N MAIN ST, JAMESTOWN, KY, 42629",38433241,"R"
197768,"40 SOUTH PALAFOX PLACE SUITE 400","PENSACOLA","FL",32502,30.4122327360001,-87.2152372479999,268,"40 SOUTH PALAFOX PLACE SUITE 400, PENSACOLA, FL, 32502","Match","Non_Exact","40 S PALAFOX ST, PENSACOLA, FL, 32502",93238880,"L"
197769,"40 SOUTH PALAFOX ST","PENSACOLA","FL",32502,30.4122327360001,-87.2152372479999,269,"40 SOUTH PALAFOX ST, PENSACOLA, FL, 32502","Match","Exact","40 S PALAFOX ST, PENSACOLA, FL, 32502",93238880,"L"
197770,"40 SOUTH WALNUT STREET","LONDON","OH",43140,39.88720155,-83.446040684,270,"40 SOUTH WALNUT STREET, LONDON, OH, 43140","Match","Exact","40 S WALNUT ST, LONDON, OH, 43140",135259981,"R"
197771,"40 SOUTHWOOD DRIVE","OLD BRIDGE","NJ",8857,40.4067480480001,-74.3536830789999,271,"40 SOUTHWOOD DRIVE, OLD BRIDGE, NJ, 8857","Match","Exact","40 SOUTHWOOD DR, OLD BRIDGE, NJ, 08857",60282692,"L"
197772,"40 SPRAGUE STREET STE 1G","PROVIDENCE","RI",2907,41.8096387080001,-71.426968486,272,"40 SPRAGUE STREET STE 1G, PROVIDENCE, RI, 2907","Match","Exact","40 SPRAGUE ST, PROVIDENCE, RI, 02907",47461368,"L"
197773,"40 SPRINGER ROAD","LIGONIER","PA",15658,40.258454445,-79.245073454,273,"40 SPRINGER ROAD, LIGONIER, PA, 15658","Match","Exact","40 SPRINGER RD, LIGONIER, PA, 15658",52951450,"R"
197774,"40 SPRINGWISH LN","FLINT HILL","VA",22627,38.7632239050001,-78.064597651,274,"40 SPRINGWISH LN, FLINT HILL, VA, 22627","Match","Exact","40 SPRINGWISH LN, FLINT HILL, VA, 22627",29940785,"L"
197775,"40 SPUR COURT","SEDONA","AZ",86351,34.7806882580001,-111.759545209,275,"40 SPUR COURT, SEDONA, AZ, 86351","Match","Exact","40 SPUR CT, SEDONA, AZ, 86351",159475089,"R"
197776,"40 STARKIN ROAD","EDISON","NJ",8837,40.5342489110001,-74.34354755,276,"40 STARKIN ROAD, EDISON, NJ, 8837","Match","Exact","40 STARKIN RD, EDISON, NJ, 08837",60332906,"R"
197777,"40 STATION DR APT 313","WYANDANCH","NY",11798,40.7556305750001,-73.357868593,277,"40 STATION DR APT 313, WYANDANCH, NY, 11798","Match","Exact","40 STATION DR, WYANDANCH, NY, 11798",648954320,"L"
197778,"40 STEWART AVENUE","COLUMBUS","OH",43206,39.942085155,-82.9956466,278,"40 STEWART AVENUE, COLUMBUS, OH, 43206","Match","Exact","40 STEWART AVE, COLUMBUS, OH, 43206",135580200,"L"
197779,"40 STILL HOLLOW ROAD","LEBANON","NJ",8833,40.67536547,-74.813516372,279,"40 STILL HOLLOW ROAD, LEBANON, NJ, 8833","Match","Exact","40 STILL HOLLOW RD, LEBANON, NJ, 08833",60027810,"L"
197780,"40 STONELAKE CIRCLE","SAVANNAH","GA",31419,32.028582826,-81.2262155,280,"40 STONELAKE CIRCLE, SAVANNAH, GA, 31419","Match","Exact","40 STONELAKE CIR, SAVANNAH, GA, 31419",627397586,"R"
197781,"40 STUTZ BEARCAT DRIVE","SEDONA","AZ",86336,34.8623008640001,-111.804081862,281,"40 STUTZ BEARCAT DRIVE, SEDONA, AZ, 86336","Match","Exact","40 STUTZ BEARCAT DR, SEDONA, AZ, 86336",159473994,"R"
197782,"40 SUMMER STREET","MAYNARD","MA",1754,42.433913122,-71.4543111799999,282,"40 SUMMER STREET, MAYNARD, MA, 1754","Match","Exact","40 SUMMER ST, MAYNARD, MA, 01754",86843131,"R"
197783,"40 SUNSET LN","BIRMINGHAM","AL",35215,33.5923561130001,-86.709605537,283,"40 SUNSET LN, BIRMINGHAM, AL, 35215","Match","Exact","40 SUNSET LN, BIRMINGHAM, AL, 35215",81567422,"R"
197784,"40 SWEET CORN DRIVE","KUTZTOWN","PA",19530,40.5336264360001,-75.7844767839999,284,"40 SWEET CORN DRIVE, KUTZTOWN, PA, 19530","Match","Exact","40 SWEET CORN DR, KUTZTOWN, PA, 19530",80367790,"R"
197785,"40 SWEET STREET","HAVANA","FL",32333,30.636099759,-84.415424774,285,"40 SWEET STREET, HAVANA, FL, 32333","Match","Exact","40 SWEET ST, HAVANA, FL, 32333",87813450,"R"
197786,"40 SYCAMORE STREET","ROCHESTER","NY",14620,43.13693134,-77.591476955,286,"40 SYCAMORE STREET, ROCHESTER, NY, 14620","Match","Exact","40 SYCAMORE ST, ROCHESTER, NY, 14620",14540962,"L"
197787,"40 TAPLOW TRL","CAMERON","NC",28326,35.263407117,-79.025295216,287,"40 TAPLOW TRL, CAMERON, NC, 28326","Match","Exact","40 TAPLOW TRL, CAMERON, NC, 28326",642394687,"R"
197788,"40 TARA TRAIL","HIGHLAND","IL",62249,38.7722177160001,-89.690250363,288,"40 TARA TRAIL, HIGHLAND, IL, 62249","Match","Exact","40 TARA TRL, HIGHLAND, IL, 62249",648305548,"L"
197789,"40 TARNSFIELD ROAD","WESTAMPTON","NJ",8060,40.007874918,-74.808708437,289,"40 TARNSFIELD ROAD, WESTAMPTON, NJ, 8060","Match","Exact","40 TARNSFIELD RD, WESTAMPTON, NJ, 08060",134034677,"L"
197790,"40 TECHNOLOGY PARKWAY SOUTH 300","NORCROSS","GA",30092,33.967583544,-84.217627711,290,"40 TECHNOLOGY PARKWAY SOUTH 300, NORCROSS, GA, 30092","Match","Non_Exact","40 TECHNOLOGY PKWY NW, NORCROSS, GA, 30092",88883920,"L"
197791,"40 THORNDIKE LN","TEWKSBURY","MA",1876,42.648439345,-71.265240541,291,"40 THORNDIKE LN, TEWKSBURY, MA, 1876","Match","Exact","40 THORNDIKE LN, TEWKSBURY, MA, 01876",86920175,"L"
197792,"40 TIEMANN PLACE SUITE 3C","NEW YORK","NY",10027,40.8153815960001,-73.9593625059999,292,"40 TIEMANN PLACE SUITE 3C, NEW YORK, NY, 10027","Match","Exact","40 TIEMANN PL, NEW YORK, NY, 10027",59655367,"L"
197793,"40 TIMBERWOOD TRAIL","HAMDEN","CT",6514,41.4043316280001,-72.9206383119999,293,"40 TIMBERWOOD TRAIL, HAMDEN, CT, 6514","Match","Exact","40 TIMBERWOOD TRL, HAMDEN, CT, 06514",633259167,"R"
197794,"40 TIMBERWOOD TRL","HAMDEN","CT",6514,41.4043316280001,-72.9206383119999,294,"40 TIMBERWOOD TRL, HAMDEN, CT, 6514","Match","Exact","40 TIMBERWOOD TRL, HAMDEN, CT, 06514",633259167,"R"
197795,"40 TOWN CENTER BLVD","CRESTVIEW HILLS","KY",41017,39.0251079810001,-84.5734426769999,295,"40 TOWN CENTER BLVD, CRESTVIEW HILLS, KY, 41017","Match","Exact","40 TOWN CENTER BLVD, CRESTVIEW HLS, KY, 41017",103896634,"R"
197796,"40 TRENTON AVENUE","PATERSON","NJ",7513,40.9050426900001,-74.148409581,296,"40 TRENTON AVENUE, PATERSON, NJ, 7513","Match","Exact","40 TRENTON AVE, PATERSON, NJ, 07513",65266166,"R"
197797,"40 TRINITY ST","MANCHESTER","NH",3109,42.9868590090001,-71.4254604399999,297,"40 TRINITY ST, MANCHESTER, NH, 3109","Match","Exact","40 TRINITY ST, MANCHESTER, NH, 03109",113532786,"L"
197798,"40 TUDOR DRIVE","HAMILTON","NJ",8690,40.218038807,-74.6465567129999,298,"40 TUDOR DRIVE, HAMILTON, NJ, 8690","Match","Exact","40 TUDOR DR, HAMILTON, NJ, 08690",60185521,"R"
197799,"40 TULSA AVE","STOCKTON","CA",95215,NA,NA,299,"40 TULSA AVE, STOCKTON, CA, 95215","No_Match",NA,NA,NA,NA
197800,"40 TUPELO ROAD","RAYVILLE","LA",71269,32.486775514,-91.820401313,300,"40 TUPELO ROAD, RAYVILLE, LA, 71269","Match","Non_Exact","40 TUPELO DR, RAYVILLE, LA, 71269",651774388,"L"
197801,"40 TWO RIVERS LANE","CHESAPEAKE CITY","MD",21915,39.491934214,-75.9055371109999,301,"40 TWO RIVERS LANE, CHESAPEAKE CITY, MD, 21915","Match","Exact","40 TWO RIVERS LN, CHESAPEAKE CITY, MD, 21915",642139318,"R"
197802,"40 UNION AVE 3RD FLOOR STE 301","IRVINGTON","NJ",7111,40.724922539,-74.230277553,302,"40 UNION AVE 3RD FLOOR STE 301, IRVINGTON, NJ, 7111","Match","Exact","40 UNION AVE, IRVINGTON, NJ, 07111",63495948,"L"
197803,"40 UPTON ROAD","WESTBOROUGH","MA",1581,42.2504174920001,-71.60206969,303,"40 UPTON ROAD, WESTBOROUGH, MA, 1581","Match","Exact","40 UPTON RD, WESTBOROUGH, MA, 01581",40098048,"L"
197804,"40 VARET ST APT 304","BROOKLYN","NY",11206,40.7029562120001,-73.943503806,304,"40 VARET ST APT 304, BROOKLYN, NY, 11206","Match","Exact","40 VARET ST, BROOKLYN, NY, 11206",59078956,"R"
197805,"40 VAUGHAN DR","NEWARK","NJ",7103,40.73894841,-74.184314511,305,"40 VAUGHAN DR, NEWARK, NJ, 7103","Match","Exact","40 VAUGHAN DR, NEWARK, NJ, 07103",63467073,"L"
197806,"40 VIENNA ROAD","HOWELL","NJ",7731,40.123764888,-74.1802805089999,306,"40 VIENNA ROAD, HOWELL, NJ, 7731","Match","Exact","40 VIENNA RD, HOWELL, NJ, 07731",90466475,"R"
197807,"40 VILLAGE GREEN E","PINEHURST","NC",28374,35.193114845,-79.4667937959999,307,"40 VILLAGE GREEN E, PINEHURST, NC, 28374","Match","Exact","40 VILLAGE GREEN E, PINEHURST, NC, 28374",20295783,"R"
197808,"40 VIRGINIA AVE","MONROE","NY",10950,41.3727074540001,-74.171847288,308,"40 VIRGINIA AVE, MONROE, NY, 10950","Match","Exact","40 VIRGINIA AVE, MONROE, NY, 10950",124445106,"R"
197809,"40 W 040 CARL SANDBURG ROAD","SAINT CHARLES","IL",60175,41.929163584,-88.4015921659999,309,"40 W 040 CARL SANDBURG ROAD, SAINT CHARLES, IL, 60175","Match","Exact","40 CARL SANDBURG RD, SAINT CHARLES, IL, 60175",119551488,"L"
197810,"40 W BROWN RD STE 109","MESA","AZ",85201,NA,NA,310,"40 W BROWN RD STE 109, MESA, AZ, 85201","Tie",NA,NA,NA,NA
197811,"40 W CLEVELAND AVE","PORTERVILLE","CA",93257,36.0705569530001,-119.017024172,311,"40 W CLEVELAND AVE, PORTERVILLE, CA, 93257","Match","Exact","40 W CLEVELAND AVE, PORTERVILLE, CA, 93257",202786794,"R"
197812,"40 W PLAZA STREET","AJO","AZ",85321,32.3744056900001,-112.862358767,312,"40 W PLAZA STREET, AJO, AZ, 85321","Match","Non_Exact","40 N PLAZA ST, AJO, AZ, 85321",121229036,"R"
197813,"40 W STACEY LN","TEMPE","AZ",85284,33.3239951510001,-111.940969109,313,"40 W STACEY LN, TEMPE, AZ, 85284","Match","Exact","40 W STACEY LN, TEMPE, AZ, 85284",128776749,"L"
197814,"40 W SWIFT AVENUE","CLOVIS","CA",93612,36.795450004,-119.709921584,314,"40 W SWIFT AVENUE, CLOVIS, CA, 93612","Match","Exact","40 W SWIFT AVE, CLOVIS, CA, 93612",197578299,"L"
197815,"40 WAL STREET SUITE 3222","NEW YORK","NY",10005,40.7065912100001,-74.009825464,315,"40 WAL STREET SUITE 3222, NEW YORK, NY, 10005","Match","Non_Exact","40 WALL ST, NEW YORK, NY, 10005",639542765,"L"
197816,"40 WALL STREET FLOOR 28","NEW YORK CITY","NY",10005,40.7065912100001,-74.009825464,316,"40 WALL STREET FLOOR 28, NEW YORK CITY, NY, 10005","Match","Exact","40 WALL ST, NEW YORK, NY, 10005",639542765,"L"
197817,"40 WASHINGTON ST U201","CAMDEN","ME",4843,44.2103246240001,-69.066941976,317,"40 WASHINGTON ST U201, CAMDEN, ME, 4843","Match","Exact","40 WASHINGTON ST, CAMDEN, ME, 04843",635820759,"L"
197818,"40 WATERMAN AVE","EAST LONGMEADOW","MA",1028,42.0725099790001,-72.524311825,318,"40 WATERMAN AVE, EAST LONGMEADOW, MA, 1028","Match","Exact","40 WATERMAN AVE, E LONGMEADOW, MA, 01028",647251033,"L"
197819,"40 WATERS EDGE","RYE","NY",10580,40.9590984970001,-73.6810826939999,319,"40 WATERS EDGE, RYE, NY, 10580","Match","Exact","40 WATERS EDGE, RYE, NY, 10580",139794010,"R"
197820,"40 WATERSCAPES DR","PIKE ROAD","AL",36064,32.3289427650001,-86.0349798459999,320,"40 WATERSCAPES DR, PIKE ROAD, AL, 36064","Match","Exact","40 WATERSCAPES DR, PIKE ROAD, AL, 36064",642149522,"R"
197821,"40 WEAVER SMITH DRIVE","CANDLER","NC",28715,35.4900319870001,-82.686923689,321,"40 WEAVER SMITH DRIVE, CANDLER, NC, 28715","Match","Exact","40 WEAVER SMITH DR, CANDLER, NC, 28715",36893216,"R"
197822,"40 WEB AVE  UNIT 8","NORTH KINGSTOWN","RI",2852,41.548293819,-71.438090652,322,"40 WEB AVE  UNIT 8, NORTH KINGSTOWN, RI, 2852","Match","Exact","40 WEB AVE, NORTH KINGSTOWN, RI, 02852",58905613,"L"
197823,"40 WENDOVER DR","HUNTINGTON","NY",11743,40.893174749,-73.427889056,323,"40 WENDOVER DR, HUNTINGTON, NY, 11743","Match","Exact","40 WENDOVER DR, HUNTINGTON, NY, 11743",114234352,"R"
197824,"40 WEST 116 STREET APT B509","NEW YORK","NY",10026,40.8013785790001,-73.948157667,324,"40 WEST 116 STREET APT B509, NEW YORK, NY, 10026","Match","Exact","40 W 116TH ST, NEW YORK, NY, 10026",652207878,"L"
197825,"40 WEST CLEVELAND","PORTERVILLE","CA",93257,36.070556906,-119.017020445,325,"40 WEST CLEVELAND, PORTERVILLE, CA, 93257","Match","Non_Exact","40 W CLEVELAND AVE, PORTERVILLE, CA, 93257",202786794,"R"
197826,"40 WEST GAY STREET","COLUMBUS","OH",43215,39.9634892,-83.002001795,326,"40 WEST GAY STREET, COLUMBUS, OH, 43215","Match","Exact","40 W GAY ST, COLUMBUS, OH, 43215",135575965,"R"
197827,"40 WEST GOLDEN LANE","FAIRFIELD","IA",52556,41.0255516940001,-91.962522636,327,"40 WEST GOLDEN LANE, FAIRFIELD, IA, 52556","Match","Non_Exact","40 GOLDEN LN, FAIRFIELD, IA, 52556",84424144,"L"
197828,"40 WEST HIGH STREET","FRANKLIN","NH",3235,43.4421778650001,-71.6471559239999,328,"40 WEST HIGH STREET, FRANKLIN, NH, 3235","Match","Exact","40 W HIGH ST, FRANKLIN, NH, 03235",117707811,"L"
197829,"40 WEST MAIN STREET","BUCKHANNON","WV",26201,38.993274108,-80.23342615,329,"40 WEST MAIN STREET, BUCKHANNON, WV, 26201","Match","Exact","40 W MAIN ST, BUCKHANNON, WV, 26201",53448550,"L"
197830,"40 WEST MONROE STREET","JACKSONVILLE","FL",32202,30.328628773,-81.657904813,330,"40 WEST MONROE STREET, JACKSONVILLE, FL, 32202","Match","Exact","40 W MONROE ST, JACKSONVILLE, FL, 32202",83899710,"L"
197831,"40 WEST RIDGEWOOD AVE","RIDGEWOOD","NJ",7450,40.98056052,-74.122698564,331,"40 WEST RIDGEWOOD AVE, RIDGEWOOD, NJ, 7450","Match","Exact","40 W RIDGEWOOD AVE, RIDGEWOOD, NJ, 07450",64376433,"L"
197832,"40 WEST STREET","ANNAPOLIS","MD",21401,38.9782696450001,-76.4959107349999,332,"40 WEST STREET, ANNAPOLIS, MD, 21401","Match","Exact","40 WEST ST, ANNAPOLIS, MD, 21401",68213731,"R"
197833,"40 WEST STREET","TRENTON","NJ",8611,40.209019584,-74.741247544,333,"40 WEST STREET, TRENTON, NJ, 8611","Match","Exact","40 WEST ST, TRENTON, NJ, 08611",642903107,"R"
197834,"40 WEST WALNUT LANE","PHILADELPHIA","PA",19144,40.0395400560001,-75.179630117,334,"40 WEST WALNUT LANE, PHILADELPHIA, PA, 19144","Match","Exact","40 W WALNUT LN, PHILADELPHIA, PA, 19144",131439293,"L"
197835,"40 WESTON FARM PATH","MARSHFIELD","MA",2050,42.097343876,-70.705273067,335,"40 WESTON FARM PATH, MARSHFIELD, MA, 2050","Match","Exact","40 WESTON FARM PATH, MARSHFIELD, MA, 02050",624816072,"R"
197836,"40 WHITE SHARK COVE","SHARPSBURG","GA",30277,NA,NA,336,"40 WHITE SHARK COVE, SHARPSBURG, GA, 30277","No_Match",NA,NA,NA,NA
197837,"40 WIGHT AVENUE","HUNT VALLEY","MD",21030,39.4895178580001,-76.648903117,337,"40 WIGHT AVENUE, HUNT VALLEY, MD, 21030","Match","Exact","40 WIGHT AVE, HUNT VALLEY, MD, 21030",191542992,"R"
197838,"40 WILDBERRY LN","SUMTER","SC",29154,33.9161733230001,-80.421506107,338,"40 WILDBERRY LN, SUMTER, SC, 29154","Match","Exact","40 WILDBERRY LN, SUMTER, SC, 29154",202713926,"R"
197839,"40 WILLIAMSON RD","BERGENFIELD","NJ",7621,40.933147696,-74.00587179,339,"40 WILLIAMSON RD, BERGENFIELD, NJ, 7621","Match","Exact","40 WILLIAMSON RD, BERGENFIELD, NJ, 07621",64388127,"L"
197840,"40 WINDSOR DRIVE","EDGARTOWN","MA",2539,41.4061460840001,-70.573480049,340,"40 WINDSOR DRIVE, EDGARTOWN, MA, 2539","Match","Exact","40 WINDSOR DR, EDGARTOWN, MA, 02539",118875161,"R"
197841,"40 WINDWARD DRIVE","PORTSMOUTH","RI",2871,41.6286665420001,-71.252939259,341,"40 WINDWARD DRIVE, PORTSMOUTH, RI, 2871","Match","Exact","40 WINDWARD DR, PORTSMOUTH, RI, 02871",47350494,"R"
197842,"40 WINNSTEAD PLACE","COVINGTON","GA",30016,33.6089223910001,-83.9497848079999,342,"40 WINNSTEAD PLACE, COVINGTON, GA, 30016","Match","Exact","40 WINNSTEAD PL, COVINGTON, GA, 30016",618464576,"R"
197843,"40 WINSOR","JAMESTOWN","NY",14701,NA,NA,343,"40 WINSOR, JAMESTOWN, NY, 14701","Tie",NA,NA,NA,NA
197844,"40 WINTER STREET ROOM 301","ROCHESTER","NH",3867,43.304393071,-70.969128682,344,"40 WINTER STREET ROOM 301, ROCHESTER, NH, 3867","Match","Exact","40 WINTER ST, ROCHESTER, NH, 03867",117803901,"L"
197845,"40 WOCICKI LANE","NEWCASTLE","WY",82701,43.892264298,-104.192776609,345,"40 WOCICKI LANE, NEWCASTLE, WY, 82701","Match","Exact","40 WOCICKI LN, NEWCASTLE, WY, 82701",147510340,"R"
197846,"40 WOODLAND AVENUE","CATSKILL","NY",12414,42.2218822310001,-73.858642344,346,"40 WOODLAND AVENUE, CATSKILL, NY, 12414","Match","Exact","40 WOODLAND AVE, CATSKILL, NY, 12414",35695476,"R"
197847,"40 WOODLAND TRL","EAST TAUNTON","MA",2718,41.857537259,-70.99012146,347,"40 WOODLAND TRL, EAST TAUNTON, MA, 2718","Match","Exact","40 WOODLAND TRL, EAST TAUNTON, MA, 02718",46786103,"L"
197848,"40 WOODSTREAM COVE","LITTLE ROCK","AR",72211,NA,NA,348,"40 WOODSTREAM COVE, LITTLE ROCK, AR, 72211","Tie",NA,NA,NA,NA
197849,"40-01 43RD AVENUE","SUNNYSIDE","NY",11104,40.7455433910001,-73.92383862,349,"40-01 43RD AVENUE, SUNNYSIDE, NY, 11104","Match","Exact","40-01 43RD AVE, SUNNYSIDE, NY, 11104",59692416,"L"
197850,"40-03 80 ST","ELMHURST","NY",11373,40.7472843530001,-73.8857492719999,350,"40-03 80 ST, ELMHURST, NY, 11373","Match","Exact","40-3 80TH ST, ELMHURST, NY, 11373",59693867,"L"
197851,"40-06 CASE STREET    2ND FL","ELMHURST","NY",11373,40.7482667840001,-73.8767023349999,351,"40-06 CASE STREET    2ND FL, ELMHURST, NY, 11373","Match","Exact","40-6 CASE ST, ELMHURST, NY, 11373",59695558,"R"
197852,"40-07 10TH STREET APT 6A","LONG ISLAND CITY","NY",11101,40.7567148200001,-73.944515823,352,"40-07 10TH STREET APT 6A, LONG ISLAND CITY, NY, 11101","Match","Exact","40-7 10TH ST, LONG ISLAND CITY, NY, 11101",59696175,"L"
197853,"40-08 104TH STREET","CORONA","NY",11368,NA,NA,353,"40-08 104TH STREET, CORONA, NY, 11368","Tie",NA,NA,NA,NA
197854,"40-08 MORGAN STREET","LITTLE NECK","NY",11363,40.774195815,-73.739315866,354,"40-08 MORGAN STREET, LITTLE NECK, NY, 11363","Match","Exact","40-8 MORGAN ST, LITTLE NECK, NY, 11363",59703997,"R"
197855,"40-11 23 ROAD","ASTORIA","NY",11105,40.769894047,-73.908469525,355,"40-11 23 ROAD, ASTORIA, NY, 11105","Match","Exact","40-11 23RD RD, ASTORIA, NY, 11105",59697096,"L"
197856,"40-13 VERNON BLVD     SUITE 5D","LONG ISLAND CITY","NY",11101,40.757556891,-73.9460708239999,356,"40-13 VERNON BLVD     SUITE 5D, LONG ISLAND CITY, NY, 11101","Match","Exact","40-13 VERNON BLVD, LONG ISLAND CITY, NY, 11101",59696072,"L"
197857,"40-24 REVERE RD","DREXEL HILL","PA",19026,39.9454922470001,-75.316366161,357,"40-24 REVERE RD, DREXEL HILL, PA, 19026","Match","Exact","40-24 REVERE RD, DREXEL HILL, PA, 19026",134898610,"L"
197858,"40-26 COLLEGE POINT BLVD PH1F","FLUSHING","NY",11354,40.75669473,-73.833783141,358,"40-26 COLLEGE POINT BLVD PH1F, FLUSHING, NY, 11354","Match","Exact","40-26 COLLEGE POINT BLVD, FLUSHING, NY, 11354",59700229,"L"
197859,"40-34 78TH ST ELMHURST","NEW YORK","NY",11373,40.7466281470001,-73.887669901,359,"40-34 78TH ST ELMHURST, NEW YORK, NY, 11373","Match","Non_Exact","40-34 78TH ST, ELMHURST, NY, 11373",59693831,"R"
197860,"40-41 166TH STREET","FLUSHING","NY",11358,40.7606527070001,-73.800161293,360,"40-41 166TH STREET, FLUSHING, NY, 11358","Match","Exact","40-41 166TH ST, FLUSHING, NY, 11358",59702322,"L"
197861,"40-60 DOUGLASTON PARKWAY","DOUGLASTON","NY",11363,40.770229897,-73.7499222,361,"40-60 DOUGLASTON PARKWAY, DOUGLASTON, NY, 11363","Match","Exact","40-60 DOUGLASTON PKWY, DOUGLASTON, NY, 11363",59703750,"R"
197862,"40","SAINT LOUIS","MO",63118,NA,NA,362,"40, SAINT LOUIS, MO, 63118","No_Match",NA,NA,NA,NA
197863,"400  S ROOSEVELT AVE","BURLINGTON","IA",52601,NA,NA,363,"400  S ROOSEVELT AVE, BURLINGTON, IA, 52601","No_Match",NA,NA,NA,NA
197864,"400 12TH ST NORTH","COLD SPRING","MN",56320,45.474401502,-94.429078734,364,"400 12TH ST NORTH, COLD SPRING, MN, 56320","Match","Exact","400 12TH ST N, COLD SPRING, MN, 56320",107445150,"L"
197865,"400 15TH AVE SW APT 209C","WILLMAR","MN",56201,45.1069527110001,-95.045479437,365,"400 15TH AVE SW APT 209C, WILLMAR, MN, 56201","Match","Exact","400 15TH AVE SW, WILLMAR, MN, 56201",608811009,"R"
197866,"400 19TH STREET NORTH","BESSEMER","AL",35020,33.403177343,-86.954602138,366,"400 19TH STREET NORTH, BESSEMER, AL, 35020","Match","Exact","400 19TH ST N, BESSEMER, AL, 35020",81549412,"L"
197867,"400 1ST ST NW","ELKADER","IA",52043,NA,NA,367,"400 1ST ST NW, ELKADER, IA, 52043","No_Match",NA,NA,NA,NA
197868,"400 1ST STREET S SUITE 600","SAINT CLOUD","MN",56301,45.5606200030001,-94.1561793449999,368,"400 1ST STREET S SUITE 600, SAINT CLOUD, MN, 56301","Match","Exact","400 1ST ST S, SAINT CLOUD, MN, 56301",107415754,"L"
197869,"400 1ST STREET","HILLSBORO","MO",63050,38.2313746620001,-90.564058705,369,"400 1ST STREET, HILLSBORO, MO, 63050","Match","Exact","400 1ST ST, HILLSBORO, MO, 63050",62770335,"L"
197870,"400 23RD AVE","SEATTLE","WA",98122,47.6049748710001,-122.302576734,370,"400 23RD AVE, SEATTLE, WA, 98122","Match","Exact","400 23RD AVE, SEATTLE, WA, 98122",186593033,"R"
197871,"400 2ND STREET NW","HICKORY","NC",28601,35.7380144260001,-81.3396446309999,371,"400 2ND STREET NW, HICKORY, NC, 28601","Match","Exact","400 2ND ST NW, HICKORY, NC, 28601",45904375,"R"
197872,"400 2ND STREET","BROOKLYN","NY",11215,40.6728404950001,-73.981631264,372,"400 2ND STREET, BROOKLYN, NY, 11215","Match","Exact","400 2ND ST, BROOKLYN, NY, 11215",59078104,"R"
197873,"400 3RD AVENUE UNIT 3B","NEW YORK","NY",10017,40.7421794850001,-73.9807138749999,373,"400 3RD AVENUE UNIT 3B, NEW YORK, NY, 10017","Match","Non_Exact","400 3RD AVE, NEW YORK, NY, 10016",59654546,"L"
197874,"400 3RD AVENUE","SOUTH CHARLESTON","WV",25303,38.3662973690001,-81.691916253,374,"400 3RD AVENUE, SOUTH CHARLESTON, WV, 25303","Match","Non_Exact","400 3RD AVE SW, S CHARLESTON, WV, 25303",78645917,"R"
197875,"400 4TH ST SE","WATERTOWN","SD",57201,44.89448007,-97.1098407549999,375,"400 4TH ST SE, WATERTOWN, SD, 57201","Match","Exact","400 4TH ST SE, WATERTOWN, SD, 57201",200730177,"R"
197876,"400 4TH STREET","COLUMBUS","GA",31901,32.453240851,-84.986155466,376,"400 4TH STREET, COLUMBUS, GA, 31901","Match","Exact","400 4TH ST, COLUMBUS, GA, 31901",652154880,"L"
197877,"400 50 STREET SE","WASHINGTON","DC",20019,38.883901984,-76.930951116,377,"400 50 STREET SE, WASHINGTON, DC, 20019","Match","Exact","400 50TH ST SE, WASHINGTON, DC, 20019",76233866,"L"
197878,"400 51ST STREET","WEST PALM BEACH","FL",33407,26.7573012980001,-80.052606724,378,"400 51ST STREET, WEST PALM BEACH, FL, 33407","Match","Exact","400 51ST ST, WEST PALM BEACH, FL, 33407",115277123,"L"
197879,"400 53RD STREET","MOUNT VERNON","WA",98273,NA,NA,379,"400 53RD STREET, MOUNT VERNON, WA, 98273","No_Match",NA,NA,NA,NA
197880,"400 5TH STREET NORTH 302","GREAT FALLS","MT",59401,47.5097814800001,-111.298962485,380,"400 5TH STREET NORTH 302, GREAT FALLS, MT, 59401","Match","Exact","400 5TH ST N, GREAT FALLS, MT, 59401",202225815,"L"
197881,"400 6TH ST","CLEVELAND","MN",56017,44.3238568670001,-93.8348105329999,381,"400 6TH ST, CLEVELAND, MN, 56017","Match","Exact","400 6TH ST, CLEVELAND, MN, 56017",28660061,"L"
197882,"400 7TH ST NW SUITE 202","WASHINGTON","DC",20004,38.894904802,-77.021915543,382,"400 7TH ST NW SUITE 202, WASHINGTON, DC, 20004","Match","Exact","400 7TH ST NW, WASHINGTON, DC, 20004",76226379,"L"
197883,"400 7TH STREET NORTH","LA CROSSE","WI",54602,NA,NA,383,"400 7TH STREET NORTH, LA CROSSE, WI, 54602","No_Match",NA,NA,NA,NA
197884,"400 9TH AVE SW","WELLS","MN",56097,43.7408707820001,-93.737602398,384,"400 9TH AVE SW, WELLS, MN, 56097","Match","Exact","400 9TH AVE SW, WELLS, MN, 56097",28613764,"L"
197885,"400 ACADEMY AVE","PROVIDENCE","RI",2908,41.835826265,-71.444552043,385,"400 ACADEMY AVE, PROVIDENCE, RI, 2908","Match","Exact","400 ACADEMY AVE, PROVIDENCE, RI, 02908",47458110,"L"
197886,"400 ALTON ROAD SUITE 1605","MIAMI BEACH","FL",33139,25.7734417130001,-80.1401300379999,386,"400 ALTON ROAD SUITE 1605, MIAMI BEACH, FL, 33139","Match","Exact","400 ALTON RD, MIAMI BEACH, FL, 33139",609054129,"L"
197887,"400 ALTON ROAD TH-1A","MIAMI BEACH","FL",33139,25.7734417130001,-80.1401300379999,387,"400 ALTON ROAD TH-1A, MIAMI BEACH, FL, 33139","Match","Exact","400 ALTON RD, MIAMI BEACH, FL, 33139",609054129,"L"
197888,"400 AMHERST ST SUITE 407","NASHUA","NH",3063,42.7844980030001,-71.508046635,388,"400 AMHERST ST SUITE 407, NASHUA, NH, 3063","Match","Exact","400 AMHERST ST, NASHUA, NH, 03063",113581639,"R"
197889,"400 ANN ST NW SUITE 208","GRAND RAPIDS","MI",49504,42.995745319,-85.678519415,389,"400 ANN ST NW SUITE 208, GRAND RAPIDS, MI, 49504","Match","Exact","400 ANN ST NW, GRAND RAPIDS, MI, 49504",12456450,"L"
197890,"400 ANN ST","TOWANDA","PA",18848,41.7765540670001,-76.4503636489999,390,"400 ANN ST, TOWANDA, PA, 18848","Match","Exact","400 ANN ST, TOWANDA, PA, 18848",176961296,"L"
197891,"400 ANNIE AVE APT 30","TROY","MO",63379,38.9830413450001,-90.978822448,391,"400 ANNIE AVE APT 30, TROY, MO, 63379","Match","Exact","400 ANNIE AVE, TROY, MO, 63379",44854807,"R"
197892,"400 APPLE STREET","NEW ALBANY","MS",38652,34.4890772840001,-89.006267377,392,"400 APPLE STREET, NEW ALBANY, MS, 38652","Match","Exact","400 APPLE ST, NEW ALBANY, MS, 38652",76597835,"L"
197893,"400 APPLETREE COURT","PAINESVILLE","OH",44077,41.715795563,-81.209972802,393,"400 APPLETREE COURT, PAINESVILLE, OH, 44077","Match","Exact","400 APPLETREE CT, PAINESVILLE, OH, 44077",137466527,"L"
197894,"400 ARDSLEY PLACE","CANTON","GA",30115,34.2244020460001,-84.3566797239999,394,"400 ARDSLEY PLACE, CANTON, GA, 30115","Match","Exact","400 ARDSLEY PL, CANTON, GA, 30115",629789110,"R"
197895,"400 ARMSTRONG ST","BATESVILLE","MS",38606,34.3225789970001,-89.963881425,395,"400 ARMSTRONG ST, BATESVILLE, MS, 38606","Match","Exact","400 ARMSTRONG ST, BATESVILLE, MS, 38606",649993582,"R"
197896,"400 ARNOLD MILL RD","WOODSTOCK","GA",30188,34.119270925,-84.479909342,396,"400 ARNOLD MILL RD, WOODSTOCK, GA, 30188","Match","Exact","400 ARNOLD MILL RD, WOODSTOCK, GA, 30188",68844052,"R"
197897,"400 ARNOLD MILL ROAD","WOODSTOCK","GA",30188,34.119270925,-84.479909342,397,"400 ARNOLD MILL ROAD, WOODSTOCK, GA, 30188","Match","Exact","400 ARNOLD MILL RD, WOODSTOCK, GA, 30188",68844052,"R"
197898,"400 ASHBURTON DRIVE","GOOSE CREEK","SC",29445,33.0365834290001,-80.0728081839999,398,"400 ASHBURTON DRIVE, GOOSE CREEK, SC, 29445","Match","Exact","400 ASHBURTON DR, GOOSE CREEK, SC, 29445",653318304,"L"
197899,"400 ASHWOOD COURT","GREENSBURG","PA",15601,40.286379837,-79.4890507549999,399,"400 ASHWOOD COURT, GREENSBURG, PA, 15601","Match","Exact","400 ASHWOOD CT, GREENSBURG, PA, 15601",53003744,"L"
197900,"400 AUSTIN AVE  STE 400","WACO","TX",76701,31.5575048530001,-97.130991235,400,"400 AUSTIN AVE  STE 400, WACO, TX, 76701","Match","Exact","400 AUSTIN AVE, WACO, TX, 76701",146736142,"L"
197901,"400 AVON ROAD","MARION","SC",29571,34.1805493430001,-79.404580793,401,"400 AVON ROAD, MARION, SC, 29571","Match","Exact","400 AVON RD, MARION, SC, 29571",28773172,"R"
197902,"400 BARBER ST","CENTRAL CITY","IA",52214,42.208424032,-91.526981448,402,"400 BARBER ST, CENTRAL CITY, IA, 52214","Match","Exact","400 BARBER ST, CENTRAL CITY, IA, 52214",17013021,"R"
197903,"400 BENNETT CEMETERY ROAD","DECHERD","TN",37324,35.242550522,-85.9675965869999,403,"400 BENNETT CEMETERY ROAD, DECHERD, TN, 37324","Match","Exact","400 BENNETT CEMETERY RD, DECHERD, TN, 37324",57966930,"L"
197904,"400 BILOXI DR","NICHOLASVILLE","KY",40356,37.8634150460001,-84.5917815129999,404,"400 BILOXI DR, NICHOLASVILLE, KY, 40356","Match","Exact","400 BILOXI DR, NICHOLASVILLE, KY, 40356",38463067,"L"
197905,"400 BIRNIE STREET SUITE B","GREENVILLE","SC",29611,34.8489825510001,-82.41467074,405,"400 BIRNIE STREET SUITE B, GREENVILLE, SC, 29611","Match","Exact","400 BIRNIE ST, GREENVILLE, SC, 29611",38299832,"R"
197906,"400 BLAIRWOOD DRIVE","FORT WORTH","TX",76134,32.6302943590001,-97.330410839,406,"400 BLAIRWOOD DRIVE, FORT WORTH, TX, 76134","Match","Exact","400 BLAIRWOOD DR, FORT WORTH, TX, 76134",619863229,"R"
197907,"400 BLUE SAGE PLACE","SIMPSONVILLE","SC",29680,34.690615403,-82.2567355319999,407,"400 BLUE SAGE PLACE, SIMPSONVILLE, SC, 29680","Match","Exact","400 BLUE SAGE PL, SIMPSONVILLE, SC, 29680",627609066,"R"
197908,"400 BOBCAT AVE","BRAYMER","MO",64624,39.590781785,-93.8023951609999,408,"400 BOBCAT AVE, BRAYMER, MO, 64624","Match","Exact","400 BOBCAT AVE, BRAYMER, MO, 64624",17777678,"R"
197909,"400 BOREN AVENUE NORTH 928","Seattle","WA",98109,47.622123184,-122.335838678,409,"400 BOREN AVENUE NORTH 928, Seattle, WA, 98109","Match","Exact","400 BOREN AVE N, SEATTLE, WA, 98109",186583842,"R"
197910,"400 BOULEVARD","MOUNTAIN LAKES","NJ",7046,NA,NA,410,"400 BOULEVARD, MOUNTAIN LAKES, NJ, 7046","No_Match",NA,NA,NA,NA
197911,"400 BOWDOIN ST","DORCHESTER","MA",2122,42.3099996290001,-71.063282864,411,"400 BOWDOIN ST, DORCHESTER, MA, 2122","Match","Exact","400 BOWDOIN ST, DORCHESTER, MA, 02122",85713166,"L"
197912,"400 BRAHMAN RD","CEDAR PARK","TX",78613,30.5261224060001,-97.761016936,412,"400 BRAHMAN RD, CEDAR PARK, TX, 78613","Match","Exact","400 BRAHMAN RD, CEDAR PARK, TX, 78613",638370692,"R"
197913,"400 BREAKFAST POINT BLVD","PANAMA CITY BEACH","FL",32407,30.198431901,-85.801178529,413,"400 BREAKFAST POINT BLVD, PANAMA CITY BEACH, FL, 32407","Match","Exact","400 BREAKFAST POINT BLVD, PANAMA CITY BEACH, FL, 32407",648208626,"R"
197914,"400 BRIGHTON AVENUE","PLEASANTVILLE","NJ",8232,39.4032975100001,-74.523054606,414,"400 BRIGHTON AVENUE, PLEASANTVILLE, NJ, 8232","Match","Exact","400 BRIGHTON AVE, PLEASANTVILLE, NJ, 08232",202485808,"R"
197915,"400 BRITNI LOOP","KYLE","TX",78640,29.995676471,-97.855434024,415,"400 BRITNI LOOP, KYLE, TX, 78640","Match","Exact","400 BRITNI LOOP, KYLE, TX, 78640",63833649,"L"
197916,"400 BROAD STREET SUITE 911","GREENFIELD","MO",65661,NA,NA,416,"400 BROAD STREET SUITE 911, GREENFIELD, MO, 65661","No_Match",NA,NA,NA,NA
197917,"400 BROAD STREET","GADSDEN","AL",35901,34.012830922,-86.003116952,417,"400 BROAD STREET, GADSDEN, AL, 35901","Match","Exact","400 BROAD ST, GADSDEN, AL, 35901",66771497,"L"
197918,"400 BROAD STREET","SUMMERSVILLE","WV",26651,38.2817589300001,-80.852459199,418,"400 BROAD STREET, SUMMERSVILLE, WV, 26651","Match","Exact","400 BROAD ST, SUMMERSVILLE, WV, 26651",50026515,"L"
197919,"400 BROADACRES DR STE 260","BLOOMFIELD","NJ",7003,40.838342218,-74.183650498,419,"400 BROADACRES DR STE 260, BLOOMFIELD, NJ, 7003","Match","Exact","400 BROADACRES DR, BLOOMFIELD, NJ, 07003",63494606,"L"
197920,"400 BROADVIEW DR","GREEN BAY","WI",54301,44.465663025,-88.027173879,420,"400 BROADVIEW DR, GREEN BAY, WI, 54301","Match","Exact","400 BROADVIEW DR, GREEN BAY, WI, 54301",148101963,"R"
197921,"400 BROADWAY 2","CAMBRIDGE","MA",2139,NA,NA,421,"400 BROADWAY 2, CAMBRIDGE, MA, 2139","No_Match",NA,NA,NA,NA
197922,"400 BROADWAY UNIT 641","TROY","NY",12181,NA,NA,422,"400 BROADWAY UNIT 641, TROY, NY, 12181","No_Match",NA,NA,NA,NA
197923,"400 BROOKLINE AVE","BOSTON","MA",2215,42.338740091,-71.107481719,423,"400 BROOKLINE AVE, BOSTON, MA, 2215","Match","Exact","400 BROOKLINE AVE, BOSTON, MA, 02215",85698424,"L"
197924,"400 BROOKSTONE CENTRE PKWY STE 450","COLUMBUS","GA",31904,NA,NA,424,"400 BROOKSTONE CENTRE PKWY STE 450, COLUMBUS, GA, 31904","No_Match",NA,NA,NA,NA
197925,"400 BRUCE ROAD","LOCKPORT","IL",60441,41.5677742500001,-88.061284684,425,"400 BRUCE ROAD, LOCKPORT, IL, 60441","Match","Non_Exact","400 W BRUCE RD, LOCKPORT, IL, 60441",111545652,"R"
197926,"400 BRYANT ROAD","ROME","GA",30161,34.1696262780001,-85.2861432829999,426,"400 BRYANT ROAD, ROME, GA, 30161","Match","Non_Exact","400 BRYANT RD SW, ROME, GA, 30161",30699337,"L"
197927,"400 BUCKEYE ST","ROCKFORD","OH",45882,NA,NA,427,"400 BUCKEYE ST, ROCKFORD, OH, 45882","No_Match",NA,NA,NA,NA
197928,"400 BURDETT RIDGE COURT","COLLEGE PARK","GA",30349,33.5967776640001,-84.480262298,428,"400 BURDETT RIDGE COURT, COLLEGE PARK, GA, 30349","Match","Exact","400 BURDETT RIDGE CT, COLLEGE PARK, GA, 30349",627712858,"L"
197929,"400 BURNT SIENNA DRIVE","MT WASHINGTON","KY",40047,38.0315477730001,-85.5809386179999,429,"400 BURNT SIENNA DRIVE, MT WASHINGTON, KY, 40047","Match","Exact","400 BURNT SIENNA DR, MOUNT WASHINGTON, KY, 40047",634731252,"L"
197930,"400 BUTTERFLY LANE","HERMITAGE","PA",16148,41.2275063180001,-80.440244311,430,"400 BUTTERFLY LANE, HERMITAGE, PA, 16148","Match","Exact","400 BUTTERFLY LN, HERMITAGE, PA, 16148",70664431,"R"
197931,"400 CAMERON STATION BLVD 420","ALEXANDRIA","VA",22304,38.806074763,-77.1245052149999,431,"400 CAMERON STATION BLVD 420, ALEXANDRIA, VA, 22304","Match","Exact","400 CAMERON STATION BLVD, ALEXANDRIA, VA, 22304",76065547,"R"
197932,"400 CANOPY WALK LANE UNIT 431","PALM COAST","FL",32164,29.5654526760001,-81.1872515269999,432,"400 CANOPY WALK LANE UNIT 431, PALM COAST, FL, 32164","Match","Non_Exact","400 CANOPY WALK LN, PALM COAST, FL, 32137",648087397,"L"
197933,"400 CAPITAL CIR STE 18148","TALLAHASSEE","FL",32301,NA,NA,433,"400 CAPITAL CIR STE 18148, TALLAHASSEE, FL, 32301","Tie",NA,NA,NA,NA
197934,"400 CAPITAL CIRCLE SE STE 18 BOX118","TALLAHASSEE","FL",32301,30.441869642,-84.226686593,434,"400 CAPITAL CIRCLE SE STE 18 BOX118, TALLAHASSEE, FL, 32301","Match","Exact","400 CAPITAL CIR SE, TALLAHASSEE, FL, 32301",82854698,"R"
197935,"400 CAPITOL MALL SUITE 3000","SACRAMENTO","CA",95814,38.5790672320001,-121.502747517,435,"400 CAPITOL MALL SUITE 3000, SACRAMENTO, CA, 95814","Match","Exact","400 CAPITOL MALL, SACRAMENTO, CA, 95814",133321835,"R"
197936,"400 CARL ST SUITE 101","WILMINGTON","NC",28403,34.240515305,-77.863901275,436,"400 CARL ST SUITE 101, WILMINGTON, NC, 28403","Match","Exact","400 CARL ST, WILMINGTON, NC, 28403",152739678,"L"
197937,"400 CAROUSEL DR","VALLEJO","CA",94589,38.1450777910001,-122.220911431,437,"400 CAROUSEL DR, VALLEJO, CA, 94589","Match","Exact","400 CAROUSEL DR, VALLEJO, CA, 94589",192555568,"L"
197938,"400 CEDAR AVE","WEST LONG BRANCH","NJ",7764,40.2817490150001,-74.004686105,438,"400 CEDAR AVE, WEST LONG BRANCH, NJ, 7764","Match","Exact","400 CEDAR AVE, W LONG BRANCH, NJ, 07764",636498443,"L"
197939,"400 CENTRAL AVENUE SUITE 110","NORTHFIELD","IL",60093,42.1050497300001,-87.7707730669999,439,"400 CENTRAL AVENUE SUITE 110, NORTHFIELD, IL, 60093","Match","Exact","400 CENTRAL AVE, NORTHFIELD, IL, 60093",111729791,"L"
197940,"400 CENTRAL PIKE","HERMITAGE","TN",37076,NA,NA,440,"400 CENTRAL PIKE, HERMITAGE, TN, 37076","No_Match",NA,NA,NA,NA
197941,"400 CENTRAL STREET","SAUGUS","MA",1906,42.4578722530001,-71.00962214,441,"400 CENTRAL STREET, SAUGUS, MA, 1906","Match","Exact","400 CENTRAL ST, SAUGUS, MA, 01906",636244998,"L"
197942,"400 CENTURY 21 DRIVE APT A22","JACKSONVILLE","FL",32216,30.311249963,-81.572171429,442,"400 CENTURY 21 DRIVE APT A22, JACKSONVILLE, FL, 32216","Match","Exact","400 CENTURY 21 DR, JACKSONVILLE, FL, 32216",83904505,"R"
197943,"400 CHAMBERS ST 18H","NEW YORK","NY",10282,40.717748386,-74.014134756,443,"400 CHAMBERS ST 18H, NEW YORK, NY, 10282","Match","Exact","400 CHAMBERS ST, NEW YORK, NY, 10282",59663666,"L"
197944,"400 CHANEY ROAD APT 416","SMYRNA","TN",37167,35.9809971920001,-86.561696519,444,"400 CHANEY ROAD APT 416, SMYRNA, TN, 37167","Match","Exact","400 CHANEY RD, SMYRNA, TN, 37167",636529092,"R"
197945,"400 CHESTER AVE","BAKERSFIEKD","CA",93301,35.3608736750001,-119.018867829,445,"400 CHESTER AVE, BAKERSFIEKD, CA, 93301","Match","Non_Exact","400 CHESTER AVE, BAKERSFIELD, CA, 93301",109089134,"R"
197946,"400 CHESTERFIELD CTR STE 400","CHESTERFIELD","MO",63017,38.6483411660001,-90.565264344,446,"400 CHESTERFIELD CTR STE 400, CHESTERFIELD, MO, 63017","Match","Exact","400 CHESTERFIELD CTR, CHESTERFIELD, MO, 63017",618454881,"L"
197947,"400 CHEYENNE LN","CEDAR PARK","TX",78613,30.517641881,-97.757956797,447,"400 CHEYENNE LN, CEDAR PARK, TX, 78613","Match","Exact","400 CHEYENNE LN, CEDAR PARK, TX, 78613",641124528,"L"
197948,"400 CHINA GULCH","JACKSONVILLE","OR",97530,42.241194835,-123.055260562,448,"400 CHINA GULCH, JACKSONVILLE, OR, 97530","Match","Non_Exact","400 CHINA GULCH RD, JACKSONVILLE, OR, 97530",625592161,"L"
197949,"400 CHURCH STREET","ARCHBALD","PA",18403,41.4970221360001,-75.539608632,449,"400 CHURCH STREET, ARCHBALD, PA, 18403","Match","Exact","400 CHURCH ST, ARCHBALD, PA, 18403",623573034,"L"
197950,"400 CHURCH STREET","ENDEAVOR","WI",53930,43.7109605380001,-89.4657131549999,450,"400 CHURCH STREET, ENDEAVOR, WI, 53930","Match","Non_Exact","400 S CHURCH ST, ENDEAVOR, WI, 53930",611896287,"R"
197951,"400 CLANTON STREET","OPELIKA","AL",36801,32.642276731,-85.3800338469999,451,"400 CLANTON STREET, OPELIKA, AL, 36801","Match","Exact","400 CLANTON ST, OPELIKA, AL, 36801",1571804,"R"
197952,"400 CLARIDGE STREET SW","ATLANTA","GA",30331,33.726577805,-84.542970439,452,"400 CLARIDGE STREET SW, ATLANTA, GA, 30331","Match","Non_Exact","400 CLARIDGE TRCE SW, ATLANTA, GA, 30331",636188573,"L"
197953,"400 CLAYSVILLE LANDING APT 1B","ELIZABETHTOWN","KY",42701,NA,NA,453,"400 CLAYSVILLE LANDING APT 1B, ELIZABETHTOWN, KY, 42701","No_Match",NA,NA,NA,NA
197954,"400 CLEARWATER PASEO","KERRVILLE","TX",78028,30.0270888260001,-99.1250865439999,454,"400 CLEARWATER PASEO, KERRVILLE, TX, 78028","Match","Exact","400 CLEARWATER PASEO, KERRVILLE, TX, 78028",637952524,"L"
197955,"400 CLEMENTINA STREET UNIT 622","SAN FRANCISCO","CA",94103,37.7805658890001,-122.40410424,455,"400 CLEMENTINA STREET UNIT 622, SAN FRANCISCO, CA, 94103","Match","Exact","400 CLEMENTINA ST, SAN FRANCISCO, CA, 94103",192287745,"R"
197956,"400 CLEVELAND ST APT 17","DOWAGIAC","MI",49047,41.992517811,-86.110238825,456,"400 CLEVELAND ST APT 17, DOWAGIAC, MI, 49047","Match","Exact","400 CLEVELAND ST, DOWAGIAC, MI, 49047",22579355,"L"
197957,"400 COLONY SQUARE SUITE 510","ATLANTA","GA",30361,NA,NA,457,"400 COLONY SQUARE SUITE 510, ATLANTA, GA, 30361","No_Match",NA,NA,NA,NA
197958,"400 COLUMBIA DRIVE SUITE 105","WEST PALM BEACH","FL",33409,26.710208504,-80.100787667,458,"400 COLUMBIA DRIVE SUITE 105, WEST PALM BEACH, FL, 33409","Match","Exact","400 COLUMBIA DR, WEST PALM BEACH, FL, 33409",115339872,"L"
197959,"400 COMMONS DRIVE SOUTH","JACKSONVILLE","NC",28546,34.7890332920001,-77.388712287,459,"400 COMMONS DRIVE SOUTH, JACKSONVILLE, NC, 28546","Match","Exact","400 COMMONS DR S, JACKSONVILLE, NC, 28546",650810919,"R"
197960,"400 CONLEY LAKE ROAD","DEER LODGE","MT",59722,46.3860165450001,-112.829010443,460,"400 CONLEY LAKE ROAD, DEER LODGE, MT, 59722","Match","Exact","400 CONLEY LAKE RD, DEER LODGE, MT, 59722",153453005,"L"
197961,"400 COOL VALLEY DRIVE","PASO ROBLES","CA",93446,35.6015826940001,-120.652273943,461,"400 COOL VALLEY DRIVE, PASO ROBLES, CA, 93446","Match","Non_Exact","400 COOL VALLEY RD, PASO ROBLES, CA, 93446",624385746,"R"
197962,"400 CORPORATE POINTE SUITE 300","CULVER CITY","CA",90230,33.9880377170001,-118.387712098,462,"400 CORPORATE POINTE SUITE 300, CULVER CITY, CA, 90230","Match","Exact","400 CORPORATE POINTE, CULVER CITY, CA, 90230",645557367,"L"
197963,"400 CORRAL DE TIERRA DR UNIT 104","ROUND ROCK","TX",78664,30.499475567,-97.598927585,463,"400 CORRAL DE TIERRA DR UNIT 104, ROUND ROCK, TX, 78664","Match","Exact","400 CORRAL DE TIERRA DR, ROUND ROCK, TX, 78664",619972228,"L"
197964,"400 COTTONWOOD STREET","VACAVILLE","CA",95688,38.3612378730001,-122.001779444,464,"400 COTTONWOOD STREET, VACAVILLE, CA, 95688","Match","Exact","400 COTTONWOOD ST, VACAVILLE, CA, 95688",192534198,"R"
197965,"400 COUNTY CENTER","REDWOOD CITY","CA",94063,NA,NA,465,"400 COUNTY CENTER, REDWOOD CITY, CA, 94063","No_Match",NA,NA,NA,NA
197966,"400 COUNTY ROAD 15-1","WAUSEON","OH",43567,NA,NA,466,"400 COUNTY ROAD 15-1, WAUSEON, OH, 43567","No_Match",NA,NA,NA,NA
197967,"400 COUNTY ROAD 157","CENTRE","AL",35960,34.0948089950001,-85.475695488,467,"400 COUNTY ROAD 157, CENTRE, AL, 35960","Match","Exact","400 CO RD 157, CENTRE, AL, 35960",30240665,"R"
197968,"400 COURT STREET","WOODLAND","CA",95695,38.6787784810001,-121.776162184,468,"400 COURT STREET, WOODLAND, CA, 95695","Match","Exact","400 COURT ST, WOODLAND, CA, 95695",67690211,"R"
197969,"400 DANIEL BOONE ROAD","BIRDSBORO","PA",19508,40.2897131300001,-75.795003502,469,"400 DANIEL BOONE ROAD, BIRDSBORO, PA, 19508","Match","Exact","400 DANIEL BOONE RD, BIRDSBORO, PA, 19508",628835151,"R"
197970,"400 DAVIDSON RD","NASHVILLE","TN",37205,36.117271299,-86.875552146,470,"400 DAVIDSON RD, NASHVILLE, TN, 37205","Match","Exact","400 DAVIDSON RD, NASHVILLE, TN, 37205",649294247,"R"
197971,"400 DAVIDSON ROAD","NASHVILLE","TN",37205,36.117271299,-86.875552146,471,"400 DAVIDSON ROAD, NASHVILLE, TN, 37205","Match","Exact","400 DAVIDSON RD, NASHVILLE, TN, 37205",649294247,"R"
197972,"400 DEL ANTICO AVE NO 984","OAKLEY","CA",94561,NA,NA,472,"400 DEL ANTICO AVE NO 984, OAKLEY, CA, 94561","No_Match",NA,NA,NA,NA
197973,"400 DEL ANTICO AVE SUITE 68","OAKLEY","CA",94561,37.9961477150001,-121.708205155,473,"400 DEL ANTICO AVE SUITE 68, OAKLEY, CA, 94561","Match","Non_Exact","400 DEL ANTICO AVE, OAKLEY, CA, 94561",607875065,"R"
197974,"400 DEL ANTICO AVENUE SUITE 964","OAKLEY","CA",94561,37.9961477150001,-121.708205155,474,"400 DEL ANTICO AVENUE SUITE 964, OAKLEY, CA, 94561","Match","Non_Exact","400 DEL ANTICO AVE, OAKLEY, CA, 94561",607875065,"R"
197975,"400 DEPUTY LARRY MILLER DRIVE","GRANBURY","TX",76048,32.444610332,-97.806255961,475,"400 DEPUTY LARRY MILLER DRIVE, GRANBURY, TX, 76048","Match","Exact","400 DEPUTY LARRY MILLER DR, GRANBURY, TX, 76048",637947051,"L"
197976,"400 DITTO STREET","ARCHBOLD","OH",43502,41.525388562,-84.307609323,476,"400 DITTO STREET, ARCHBOLD, OH, 43502","Match","Exact","400 DITTO ST, ARCHBOLD, OH, 43502",32837192,"R"
197977,"400 DIVISION AVENUE NE","WASHINGTON","DC",20019,38.8957172830001,-76.9266034039999,477,"400 DIVISION AVENUE NE, WASHINGTON, DC, 20019","Match","Exact","400 DIVISION AVE NE, WASHINGTON, DC, 20019",76234032,"L"
197978,"400 DONNIE SIMMONS WAY","STATESBORO","GA",30458,NA,NA,478,"400 DONNIE SIMMONS WAY, STATESBORO, GA, 30458","No_Match",NA,NA,NA,NA
197979,"400 DREW COURT","STERLING","VA",20165,39.045857572,-77.408515114,479,"400 DREW COURT, STERLING, VA, 20165","Match","Exact","400 DREW CT, STERLING, VA, 20165",62332665,"R"
197980,"400 DRY CREEK ROAD","TELLICO PLAINS","TN",37385,35.3259995720001,-84.386321981,480,"400 DRY CREEK ROAD, TELLICO PLAINS, TN, 37385","Match","Exact","400 DRY CREEK RD, TELLICO PLAINS, TN, 37385",612104975,"L"
197981,"400 DUTCH NECK RD APT L10","EAST WINDSOR","NJ",8520,40.27133651,-74.557394218,481,"400 DUTCH NECK RD APT L10, EAST WINDSOR, NJ, 8520","Match","Exact","400 DUTCH NECK RD, EAST WINDSOR, NJ, 08520",60199193,"R"
197982,"400 E 19TH AVENUE","EUGENE","OR",97401,44.0389300360001,-123.085881574,482,"400 E 19TH AVENUE, EUGENE, OR, 97401","Match","Exact","400 E 19TH AVE, EUGENE, OR, 97401",178231619,"R"
197983,"400 E 42ND STREET","MINNEAPOLIS","MN",55409,44.9269230210001,-93.270037279,483,"400 E 42ND STREET, MINNEAPOLIS, MN, 55409","Match","Exact","400 E 42ND ST, MINNEAPOLIS, MN, 55409",43634367,"L"
197984,"400 E 52ND ST UNIT 11F","NEW YORK","NY",10022,40.7550508640001,-73.965059837,484,"400 E 52ND ST UNIT 11F, NEW YORK, NY, 10022","Match","Non_Exact","400 E 52ND ST, NEW YORK, NY, 10022",611227467,"R"
197985,"400 E 59TH STREET  APT 13F","NEW YORK","NY",10022,40.759538639,-73.9617863079999,485,"400 E 59TH STREET  APT 13F, NEW YORK, NY, 10022","Match","Non_Exact","400 E 59TH ST, NEW YORK, NY, 10022",59657592,"R"
197986,"400 E 85TH STREET NUM 104","NEW YORK","NY",10028,40.776187072,-73.949859437,486,"400 E 85TH STREET NUM 104, NEW YORK, NY, 10028","Match","Non_Exact","400 E 85TH ST, NEW YORK, NY, 10028",610244193,"R"
197987,"400 E APACHE BLVD","TEMPE","AZ",85287,NA,NA,487,"400 E APACHE BLVD, TEMPE, AZ, 85287","No_Match",NA,NA,NA,NA
197988,"400 E AUGUSTA ST","WOODBRIDGE","CA",95258,NA,NA,488,"400 E AUGUSTA ST, WOODBRIDGE, CA, 95258","No_Match",NA,NA,NA,NA
197989,"400 E BROADWAY STE L","SAN GABRIEL","CA",91776,NA,NA,489,"400 E BROADWAY STE L, SAN GABRIEL, CA, 91776","Tie",NA,NA,NA,NA
197990,"400 E CEDAR","LAFAYETTE","LA",70501,30.244050959,-92.003911487,490,"400 E CEDAR, LAFAYETTE, LA, 70501","Match","Non_Exact","400 E CEDAR ST, LAFAYETTE, LA, 70501",85633405,"R"
197991,"400 E CHESTNUT ST","CORYDON","IN",47112,38.210495956,-86.121950742,491,"400 E CHESTNUT ST, CORYDON, IN, 47112","Match","Exact","400 E CHESTNUT ST, CORYDON, IN, 47112",34808831,"R"
197992,"400 E CLARISSA LANE","JOHNSTOWN","PA",15909,40.383010276,-78.8635379579999,492,"400 E CLARISSA LANE, JOHNSTOWN, PA, 15909","Match","Exact","400 E CLARISSA LN, JOHNSTOWN, PA, 15909",50252472,"R"
197993,"400 E COURT AVENUE SUITE 126","DES MOINES","IA",50309,41.5850257010001,-93.621744158,493,"400 E COURT AVENUE SUITE 126, DES MOINES, IA, 50309","Match","Exact","400 COURT AVE, DES MOINES, IA, 50309",65783052,"L"
197994,"400 E DIEHL ROAD 310","NAPERVILLE","IL",60563,41.802845516,-88.141321465,494,"400 E DIEHL ROAD 310, NAPERVILLE, IL, 60563","Match","Non_Exact","400 E DIEHL RD, NAPERVILLE, IL, 60563",112667625,"R"
197995,"400 E ELIZABETH ST","ELIZABETH CITY","NC",27909,36.301702124,-76.220788265,495,"400 E ELIZABETH ST, ELIZABETH CITY, NC, 27909","Match","Exact","400 E ELIZABETH ST, ELIZABETH CITY, NC, 27909",18592489,"R"
197996,"400 E ERIE","MISSOURI VLY","IA",51555,41.5563852500001,-95.8903270179999,496,"400 E ERIE, MISSOURI VLY, IA, 51555","Match","Non_Exact","400 E ERIE ST, MO VALLEY, IA, 51555",130980922,"R"
197997,"400 E GRAND AVE STE 208","BELOIT","WI",53511,NA,NA,497,"400 E GRAND AVE STE 208, BELOIT, WI, 53511","Tie",NA,NA,NA,NA
197998,"400 E GRAND AVE STE 212","BELOIT","WI",53511,NA,NA,498,"400 E GRAND AVE STE 212, BELOIT, WI, 53511","Tie",NA,NA,NA,NA
197999,"400 E HOMER ST","MICHIGAN CITY","IN",46360,41.707541405,-86.892067223,499,"400 E HOMER ST, MICHIGAN CITY, IN, 46360","Match","Exact","400 E HOMER ST, MICHIGAN CITY, IN, 46360",15411225,"L"
198000,"400 E JEFFERSON ST","SPENCER","IN",47460,39.28416306,-86.757799091,500,"400 E JEFFERSON ST, SPENCER, IN, 47460","Match","Exact","400 E JEFFERSON ST, SPENCER, IN, 47460",42465542,"R"
