"ID","Address","City","State","Zip","lat","long","id","input_address","match_indicator","match_type","matched_address","tiger_line_id","tiger_side"
250001,"5801 WALNUT STREET","PHILADELPHIA","PA",19139,39.9584610160001,-75.2376007729999,1,"5801 WALNUT STREET, PHILADELPHIA, PA, 19139","Match","Exact","5801 WALNUT ST, PHILADELPHIA, PA, 19139",131397757,"R"
250002,"5801 WASHINGTON BLVD APT 114","ARLINGTON","VA",22205,38.8835186430001,-77.138010047,2,"5801 WASHINGTON BLVD APT 114, ARLINGTON, VA, 22205","Match","Exact","5801 WASHINGTON BLVD, ARLINGTON, VA, 22205",76467420,"R"
250003,"5801 WASHINGTON STREET","HOLLYWOOD","FL",33023,26.0026476400001,-80.202236423,3,"5801 WASHINGTON STREET, HOLLYWOOD, FL, 33023","Match","Exact","5801 WASHINGTON ST, HOLLYWOOD, FL, 33023",114732195,"R"
250004,"5801 WINBURN LN","CHARLOTTE","NC",28226,35.0962499190001,-80.841200546,4,"5801 WINBURN LN, CHARLOTTE, NC, 28226","Match","Exact","5801 WINBURN LN, CHARLOTTE, NC, 28226",70490961,"R"
250005,"58015 MAIN ST","PLAQUEMINE","LA",70764,30.2906589830001,-91.2374703839999,5,"58015 MAIN ST, PLAQUEMINE, LA, 70764","Match","Exact","58015 MAIN ST, PLAQUEMINE, LA, 70764",85548804,"R"
250006,"58015 PLAQUEMINE STREET","PLAQUEMINE","LA",70764,30.288707592,-91.237465754,6,"58015 PLAQUEMINE STREET, PLAQUEMINE, LA, 70764","Match","Exact","58015 PLAQUEMINE ST, PLAQUEMINE, LA, 70764",85548812,"R"
250007,"5802 132ND PL NE","MARYSVILLE","WA",98271,48.114844772,-122.152558961,7,"5802 132ND PL NE, MARYSVILLE, WA, 98271","Match","Exact","5802 132ND PL NE, MARYSVILLE, WA, 98271",608943542,"L"
250008,"5802 ASHANTI WAY","TALLAHASSEE","FL",32311,30.428893606,-84.180541821,8,"5802 ASHANTI WAY, TALLAHASSEE, FL, 32311","Match","Exact","5802 ASHANTI WAY, TALLAHASSEE, FL, 32311",82881648,"L"
250009,"5802 BOB BULLOCK C1   UNIT 328C-040","LAREDO","TX",78041,NA,NA,9,"5802 BOB BULLOCK C1   UNIT 328C-040, LAREDO, TX, 78041","No_Match",NA,NA,NA,NA
250010,"5802 BUFFALO ROAD PO BOX 186","MOUNT AIRY","MD",21771,39.41644524,-77.148152114,10,"5802 BUFFALO ROAD PO BOX 186, MOUNT AIRY, MD, 21771","Match","Exact","5802 BUFFALO RD, MOUNT AIRY, MD, 21771",635474170,"R"
250011,"5802 MACARTHUR BLVD","VANCOUVER","WA",98661,45.6232138730001,-122.611173752,11,"5802 MACARTHUR BLVD, VANCOUVER, WA, 98661","Match","Exact","5802 MACARTHUR BLVD, VANCOUVER, WA, 98661",158327559,"L"
250012,"5802 MAYS RIDGE COURT","REX","GA",30273,33.595681406,-84.260525405,12,"5802 MAYS RIDGE COURT, REX, GA, 30273","Match","Exact","5802 MAYS RIDGE CT, REX, GA, 30273",632558061,"L"
250013,"5802 N WOODCREEK CIRCLE","MCKINNEY","TX",75071,33.20266343,-96.695523447,13,"5802 N WOODCREEK CIRCLE, MCKINNEY, TX, 75071","Match","Exact","5802 N WOODCREEK CIR, MCKINNEY, TX, 75071",210519536,"L"
250014,"5802 PLANTATION DRIVE","BAYTOWN","TX",77523,NA,NA,14,"5802 PLANTATION DRIVE, BAYTOWN, TX, 77523","No_Match",NA,NA,NA,NA
250015,"5802 SPRING HOLLOW DR","TOLEDO","OH",43615,41.6172512970001,-83.6820223569999,15,"5802 SPRING HOLLOW DR, TOLEDO, OH, 43615","Match","Exact","5802 SPRING HOLLOW DR, TOLEDO, OH, 43615",33950677,"L"
250016,"5802 VALLEY FAIR DRIVE","KINGWOOD","TX",77345,30.0502658820001,-95.151302476,16,"5802 VALLEY FAIR DRIVE, KINGWOOD, TX, 77345","Match","Exact","5802 VALLEY FAIR DR, KINGWOOD, TX, 77345",96417228,"R"
250017,"58020 BAYOU ROAD","PLAQUEMINE","LA",70764,30.288801499,-91.24229143,17,"58020 BAYOU ROAD, PLAQUEMINE, LA, 70764","Match","Exact","58020 BAYOU RD, PLAQUEMINE, LA, 70764",85564127,"L"
250018,"5803 6TH AVE NW","BRADENTON","FL",34209,27.5036985470001,-82.61893151,18,"5803 6TH AVE NW, BRADENTON, FL, 34209","Match","Exact","5803 6TH AVE NW, BRADENTON, FL, 34209",16246521,"L"
250019,"5803 CALUMET DRIVE","ARLINGTON","TX",76017,32.6531008060001,-97.136457875,19,"5803 CALUMET DRIVE, ARLINGTON, TX, 76017","Match","Exact","5803 CALUMET DR, ARLINGTON, TX, 76017",101918645,"R"
250020,"5803 CENIZA DRIVE","WESLACO","TX",78599,26.2145234490001,-97.986667214,20,"5803 CENIZA DRIVE, WESLACO, TX, 78599","Match","Exact","5803 CENIZA DR, WESLACO, TX, 78599",71518263,"L"
250021,"5803 CLOVER RD","BALTIMORE","MD",21215,39.355203777,-76.6857239299999,21,"5803 CLOVER RD, BALTIMORE, MD, 21215","Match","Exact","5803 CLOVER RD, BALTIMORE, MD, 21215",206404613,"R"
250022,"5803 DEVLIN PLACE","MIDLAND","TX",79707,32.0056136690001,-102.164303803,22,"5803 DEVLIN PLACE, MIDLAND, TX, 79707","Match","Exact","5803 DEVLIN PL, MIDLAND, TX, 79707",139592450,"R"
250023,"5803 E DEBORAH STREET","LONG BEACH","CA",90815,33.80446598,-118.11869473,23,"5803 E DEBORAH STREET, LONG BEACH, CA, 90815","Match","Exact","5803 E DEBORAH ST, LONG BEACH, CA, 90815",141742447,"L"
250024,"5803 KENNETT PIKE SUITE A","WILMINGTON","DE",19807,39.8235278810001,-75.617930417,24,"5803 KENNETT PIKE SUITE A, WILMINGTON, DE, 19807","Match","Exact","5803 KENNETT PIKE, WILMINGTON, DE, 19807",187253722,"L"
250025,"5803 LONGVIEW DRIVE","MISSOULA","MT",59803,46.8166379530001,-114.034235124,25,"5803 LONGVIEW DRIVE, MISSOULA, MT, 59803","Match","Exact","5803 LONGVIEW DR, MISSOULA, MT, 59803",205316067,"R"
250026,"5803 LOU STREET","COLUMBUS","OH",43231,40.0917314480001,-82.944198353,26,"5803 LOU STREET, COLUMBUS, OH, 43231","Match","Exact","5803 LOU ST, COLUMBUS, OH, 43231",640023668,"L"
250027,"5803 MAC KAY STREET","COLUMBIA","SC",29203,34.0564615110001,-81.010890129,27,"5803 MAC KAY STREET, COLUMBIA, SC, 29203","Match","Non_Exact","5803 MACKAY ST, COLUMBIA, SC, 29203",71819554,"R"
250028,"5803 MILL STREET","GLEN FLORA","WI",54526,NA,NA,28,"5803 MILL STREET, GLEN FLORA, WI, 54526","No_Match",NA,NA,NA,NA
250029,"5803 MISSOURI AVE","PORTAGE","MI",49024,42.2324648540001,-85.59393382,29,"5803 MISSOURI AVE, PORTAGE, MI, 49024","Match","Exact","5803 MISSOURI AVE, PORTAGE, MI, 49024",12230725,"L"
250030,"5803 N PARK","GLADSTONE","MO",64118,39.199636997,-94.5519146139999,30,"5803 N PARK, GLADSTONE, MO, 64118","Match","Non_Exact","5803 N PARK AVE, GLADSTONE, MO, 64118",89757590,"R"
250031,"5803 N WOODSTOCK STREET","PHILADELPHIA","PA",19138,40.0428618620001,-75.154638081,31,"5803 N WOODSTOCK STREET, PHILADELPHIA, PA, 19138","Match","Exact","5803 N WOODSTOCK ST, PHILADELPHIA, PA, 19138",131413590,"R"
250032,"5803 NW 94TH AVE","TAMARAC","FL",33321,26.196582005,-80.2760682099999,32,"5803 NW 94TH AVE, TAMARAC, FL, 33321","Match","Exact","5803 NW 94TH AVE, TAMARAC, FL, 33321",649332779,"L"
250033,"5803 SE 84TH AVE","PORTLAND","OR",97266,45.480502104,-122.576922169,33,"5803 SE 84TH AVE, PORTLAND, OR, 97266","Match","Exact","5803 SE 84TH AVE, PORTLAND, OR, 97266",157517510,"R"
250034,"5803 SHADY LN","BATH","PA",18014,40.734815143,-75.423165572,34,"5803 SHADY LN, BATH, PA, 18014","Match","Exact","5803 SHADY LN, BATH, PA, 18014",136874868,"R"
250035,"5803 SPRING IVY LANE","SPRING","TX",77379,30.0590963380001,-95.502223409,35,"5803 SPRING IVY LANE, SPRING, TX, 77379","Match","Exact","5803 SPRING IVY LN, SPRING, TX, 77379",96166265,"R"
250036,"5803 SW BEAVERTON HILLSDALE HWY","PORTLAND","OR",97221,45.4870500430001,-122.736846972,36,"5803 SW BEAVERTON HILLSDALE HWY, PORTLAND, OR, 97221","Match","Non_Exact","5803 SW BEAVERTON-HILLSDALE HWY, PORTLAND, OR, 97221",157566904,"R"
250037,"5803 TULE DRIVE BOX 370","TOPOCK","AZ",86436,NA,NA,37,"5803 TULE DRIVE BOX 370, TOPOCK, AZ, 86436","No_Match",NA,NA,NA,NA
250038,"5804 5TH TERRACE SOUTH","BIRMINGHAM","AL",35212,33.537297876,-86.746154202,38,"5804 5TH TERRACE SOUTH, BIRMINGHAM, AL, 35212","Match","Exact","5804 5TH TER S, BIRMINGHAM, AL, 35212",81578968,"L"
250039,"5804 ANNAPOLIS RD 913","BLADENSBURG","MD",20710,38.9395448500001,-76.917307662,39,"5804 ANNAPOLIS RD 913, BLADENSBURG, MD, 20710","Match","Exact","5804 ANNAPOLIS RD, BLADENSBURG, MD, 20710",643672543,"L"
250040,"5804 AUSTRALIAN PINE DRIVE","TAMARAC","FL",33319,26.192269713,-80.2284236629999,40,"5804 AUSTRALIAN PINE DRIVE, TAMARAC, FL, 33319","Match","Exact","5804 AUSTRALIAN PINE DR, TAMARAC, FL, 33319",114705399,"L"
250041,"5804 AUTUMN TRACE LN","INDIAN TRAIL","NC",28079,35.0618577860001,-80.642997758,41,"5804 AUTUMN TRACE LN, INDIAN TRAIL, NC, 28079","Match","Exact","5804 AUTUMN TRACE LN, INDIAN TRAIL, NC, 28079",14196404,"L"
250042,"5804 AVENUE N","BROOKLYN","NY",11234,40.619427812,-73.9190909879999,42,"5804 AVENUE N, BROOKLYN, NY, 11234","Match","Exact","5804 AVENUE N, BROOKLYN, NY, 11234",59092595,"R"
250043,"5804 DARLENE DRIVE","CLINTON","MD",20735,38.7481580580001,-76.904956598,43,"5804 DARLENE DRIVE, CLINTON, MD, 20735","Match","Exact","5804 DARLENE DR, CLINTON, MD, 20735",76317517,"L"
250044,"5804 EMERSON COURT","ARLINGTON","TX",76016,32.6903420990001,-97.196255169,44,"5804 EMERSON COURT, ARLINGTON, TX, 76016","Match","Exact","5804 EMERSON CT, ARLINGTON, TX, 76016",101902288,"L"
250045,"5804 FALMOUTH COURT","WORTHINGTON","OH",43085,40.0809693580001,-83.025148676,45,"5804 FALMOUTH COURT, WORTHINGTON, OH, 43085","Match","Exact","5804 FALMOUTH CT, WORTHINGTON, OH, 43085",218660387,"R"
250046,"5804 FICUS CT","ARLINGTON","TX",76017,32.6516364870001,-97.1750387289999,46,"5804 FICUS CT, ARLINGTON, TX, 76017","Match","Exact","5804 FICUS CT, ARLINGTON, TX, 76017",101910583,"R"
250047,"5804 FOOTE STREET NE 3","WASHINGTON","DC",20019,38.897156227,-76.917620262,47,"5804 FOOTE STREET NE 3, WASHINGTON, DC, 20019","Match","Exact","5804 FOOTE ST NE, WASHINGTON, DC, 20019",76234134,"L"
250048,"5804 GREENHURST DR","NORTH LITTLE ROCK","AR",72116,34.808130127,-92.248132641,48,"5804 GREENHURST DR, NORTH LITTLE ROCK, AR, 72116","Match","Exact","5804 GREENHURST DR, N LITTLE ROCK, AR, 72116",83514157,"R"
250049,"5804 HAWKINS-FUCHS ROAD","ST LOUIS","MO",63129,38.4755768380001,-90.357975654,49,"5804 HAWKINS-FUCHS ROAD, ST LOUIS, MO, 63129","Match","Non_Exact","5804 HAWKINS FUCHS RD, SAINT LOUIS, MO, 63129",604551267,"L"
250050,"5804 LANTANA CIR APT D","FREDERICK","MD",21703,39.3934353120001,-77.429429037,50,"5804 LANTANA CIR APT D, FREDERICK, MD, 21703","Match","Exact","5804 LANTANA CIR, FREDERICK, MD, 21703",60707181,"R"
250051,"5804 LINDLEY CRESCENT DRIVE","INDIAN TRAIL","NC",28079,35.035271901,-80.661644472,51,"5804 LINDLEY CRESCENT DRIVE, INDIAN TRAIL, NC, 28079","Match","Exact","5804 LINDLEY CRESCENT DR, INDIAN TRAIL, NC, 28079",618717711,"R"
250052,"5804 RIDGE DR","ARLINGTON","TX",76016,32.6980063820001,-97.19562586,52,"5804 RIDGE DR, ARLINGTON, TX, 76016","Match","Exact","5804 RIDGE DR, ARLINGTON, TX, 76016",101901970,"L"
250053,"5804 ROAD 90 SUITE A","PASCO","WA",99301,46.278434485,-119.208120934,53,"5804 ROAD 90 SUITE A, PASCO, WA, 99301","Match","Exact","5804 RD 90, PASCO, WA, 99301",651964729,"R"
250054,"5804 W 250 S","ANDERSON","IN",46011,40.0681027110001,-85.783259554,54,"5804 W 250 S, ANDERSON, IN, 46011","Match","Exact","5804 W 250 S, ANDERSON, IN, 46011",31118214,"L"
250055,"5804 WILLOW GROVE CT","BAKERSFIELD","CA",93306,35.4069162970001,-118.935839057,55,"5804 WILLOW GROVE CT, BAKERSFIELD, CA, 93306","Match","Exact","5804 WILLOW GROVE CT, BAKERSFIELD, CA, 93306",109423164,"L"
250056,"5805 39TH AVE SE","LACEY","WA",98503,47.012060934,-122.806462295,56,"5805 39TH AVE SE, LACEY, WA, 98503","Match","Exact","5805 39TH AVE SE, LACEY, WA, 98503",180947909,"R"
250057,"5805 95TH STREET","LUBBOCK","TX",79424,33.507570684,-101.940351899,57,"5805 95TH STREET, LUBBOCK, TX, 79424","Match","Exact","5805 95TH ST, LUBBOCK, TX, 79424",185273256,"R"
250058,"5805 BENT BRANCH ROAD","BETHESDA","MD",20816,38.9686706150001,-77.1304132559999,58,"5805 BENT BRANCH ROAD, BETHESDA, MD, 20816","Match","Exact","5805 BENT BRANCH RD, BETHESDA, MD, 20816",62058680,"R"
250059,"5805 BENT TREE DR","EAST LANSING","MI",48823,42.749690694,-84.439897722,59,"5805 BENT TREE DR, EAST LANSING, MI, 48823","Match","Exact","5805 BENT TREE DR, EAST LANSING, MI, 48823",17514311,"L"
250060,"5805 BLUE LAGOON DR STE 145","MIAMI","FL",33126,25.7823946190001,-80.290511026,60,"5805 BLUE LAGOON DR STE 145, MIAMI, FL, 33126","Match","Exact","5805 BLUE LAGOON DR, MIAMI, FL, 33126",650006963,"L"
250061,"5805 CALLAGHAN RD SUITE 108","SAN ANTONIO","TX",78228,29.4852927090001,-98.578496063,61,"5805 CALLAGHAN RD SUITE 108, SAN ANTONIO, TX, 78228","Match","Exact","5805 CALLAGHAN RD, SAN ANTONIO, TX, 78228",101509701,"L"
250062,"5805 CAMDEN CIR","COLUMBIA","MO",65201,38.954808574,-92.249583703,62,"5805 CAMDEN CIR, COLUMBIA, MO, 65201","Match","Exact","5805 CAMDEN CIR, COLUMBIA, MO, 65201",643144700,"L"
250063,"5805 COLBY DR","PLANO","TX",75094,33.008566699,-96.621053984,63,"5805 COLBY DR, PLANO, TX, 75094","Match","Exact","5805 COLBY DR, PLANO, TX, 75094",123561827,"L"
250064,"5805 COLBY DRIVE","PLANO","TX",75094,33.008566699,-96.621053984,64,"5805 COLBY DRIVE, PLANO, TX, 75094","Match","Exact","5805 COLBY DR, PLANO, TX, 75094",123561827,"L"
250065,"5805 CREEK POINTE WAY","RALEIGH","NC",27614,35.9402220700001,-78.60433449,65,"5805 CREEK POINTE WAY, RALEIGH, NC, 27614","Match","Exact","5805 CREEK POINTE WAY, RALEIGH, NC, 27614",624992067,"R"
250066,"5805 CURTNER ROAD","NORWOOD","MO",65717,37.192612212,-92.436241603,66,"5805 CURTNER ROAD, NORWOOD, MO, 65717","Match","Exact","5805 CURTNER RD, NORWOOD, MO, 65717",651550533,"L"
250067,"5805 DAWN RIDGE DRIVE","TROY","MI",48098,42.602976117,-83.175639657,67,"5805 DAWN RIDGE DRIVE, TROY, MI, 48098","Match","Exact","5805 DAWN RIDGE DR, TROY, MI, 48098",69787335,"L"
250068,"5805 DEL CERRO BLVD","SAN DIEGO","CA",92120,32.7842313090001,-117.074608438,68,"5805 DEL CERRO BLVD, SAN DIEGO, CA, 92120","Match","Exact","5805 DEL CERRO BLVD, SAN DIEGO, CA, 92120",195322892,"R"
250069,"5805 DESCO DRIVE","DALLAS","TX",75225,32.8749991610001,-96.808042354,69,"5805 DESCO DRIVE, DALLAS, TX, 75225","Match","Exact","5805 DESCO DR, DALLAS, TX, 75225",102901615,"L"
250070,"5805 E 40TH TERRACE","KANSAS CITY","MO",64129,39.051532229,-94.516582242,70,"5805 E 40TH TERRACE, KANSAS CITY, MO, 64129","Match","Non_Exact","5805 E 40TH TER, KANSAS CITY, MO, 64129",91514871,"R"
250071,"5805 E 56TH ST","INDIANAPOLIS","IN",46226,39.8550594210001,-86.069873897,71,"5805 E 56TH ST, INDIANAPOLIS, IN, 46226","Match","Exact","5805 E 56TH ST, INDIANAPOLIS, IN, 46226",650776759,"R"
250072,"5805 E COUNTY ROAD 7900","SLATON","TX",79364,NA,NA,72,"5805 E COUNTY ROAD 7900, SLATON, TX, 79364","No_Match",NA,NA,NA,NA
250073,"5805 E OPEN MEADOW","MCFARLAND","WI",53558,43.005766728,-89.2797387809999,73,"5805 E OPEN MEADOW, MCFARLAND, WI, 53558","Match","Exact","5805 E OPEN MEADOW, MCFARLAND, WI, 53558",649083088,"R"
250074,"5805 FAWN MEADOW LANE","ENOLA","PA",17025,40.2927501980001,-76.9983264689999,74,"5805 FAWN MEADOW LANE, ENOLA, PA, 17025","Match","Exact","5805 FAWN MEADOW LN, ENOLA, PA, 17025",640168048,"R"
250075,"5805 FRIARS RD UNIT 2412","SAN DIEGO","CA",92110,NA,NA,75,"5805 FRIARS RD UNIT 2412, SAN DIEGO, CA, 92110","No_Match",NA,NA,NA,NA
250076,"5805 GILES RD","LITHONIA","GA",30058,33.73572061,-84.15030036,76,"5805 GILES RD, LITHONIA, GA, 30058","Match","Exact","5805 GILES RD, LITHONIA, GA, 30058",23379130,"L"
250077,"5805 HARCOURT AVE","ORLANDO","FL",32839,28.4738615630001,-81.433406502,77,"5805 HARCOURT AVE, ORLANDO, FL, 32839","Match","Exact","5805 HARCOURT AVE, ORLANDO, FL, 32839",94274400,"L"
250078,"5805 HIGHWAY 25","FLOWOOD","MS",39232,NA,NA,78,"5805 HIGHWAY 25, FLOWOOD, MS, 39232","No_Match",NA,NA,NA,NA
250079,"5805 KNOX STREET","HOUSTON","TX",77091,29.850253907,-95.423034956,79,"5805 KNOX STREET, HOUSTON, TX, 77091","Match","Exact","5805 KNOX ST, HOUSTON, TX, 77091",642011117,"L"
250080,"5805 LAKE LINDERO DRIVE","AGOURA HILLS","CA",91301,34.157426017,-118.788397053,80,"5805 LAKE LINDERO DRIVE, AGOURA HILLS, CA, 91301","Match","Non_Exact","5805 S LAKE LINDERO DR, AGOURA HILLS, CA, 91301",141719186,"L"
250081,"5805 MCCHESNEY DRIVE","CHARLOTTE","NC",28269,35.3874617020001,-80.759218883,81,"5805 MCCHESNEY DRIVE, CHARLOTTE, NC, 28269","Match","Exact","5805 MCCHESNEY DR, CHARLOTTE, NC, 28269",70531435,"L"
250082,"5805 MOUNT PLEASANT DRIVE","PROSPECT","KY",40059,38.34310494,-85.5482153459999,82,"5805 MOUNT PLEASANT DRIVE, PROSPECT, KY, 40059","Match","Non_Exact","5805 MOUNT PLEASANT RD, PROSPECT, KY, 40059",614165445,"L"
250083,"5805 N 6TH STREET","PHILADELPHIA","PA",19120,40.0400039400001,-75.1317287489999,83,"5805 N 6TH STREET, PHILADELPHIA, PA, 19120","Match","Exact","5805 N 6TH ST, PHILADELPHIA, PA, 19120",131414273,"R"
250084,"5805 N MEADOWS BLVD APT A","COLUMBUS","OH",43229,NA,NA,84,"5805 N MEADOWS BLVD APT A, COLUMBUS, OH, 43229","No_Match",NA,NA,NA,NA
250085,"5805 N RIDGE ST","CHICAGO","IL",60667,NA,NA,85,"5805 N RIDGE ST, CHICAGO, IL, 60667","No_Match",NA,NA,NA,NA
250086,"5805 N ROUTE 220 HWY","LINDEN","PA",17744,NA,NA,86,"5805 N ROUTE 220 HWY, LINDEN, PA, 17744","No_Match",NA,NA,NA,NA
250087,"5805 OAKLAND DRIVE","PORTAGE","MI",49024,42.232721027,-85.61401268,87,"5805 OAKLAND DRIVE, PORTAGE, MI, 49024","Match","Exact","5805 OAKLAND DR, PORTAGE, MI, 49024",12225509,"L"
250088,"5805 PINE MOUNTAIN ROAD","REMLAP","AL",35133,33.8032631790001,-86.5390596239999,88,"5805 PINE MOUNTAIN ROAD, REMLAP, AL, 35133","Match","Exact","5805 PINE MOUNTAIN RD, REMLAP, AL, 35133",99102667,"L"
250089,"5805 PRINCESS BOULEVARD","BIRMINGHAM","AL",35215,33.6733836830001,-86.684787345,89,"5805 PRINCESS BOULEVARD, BIRMINGHAM, AL, 35215","Match","Exact","5805 PRINCESS BLVD, BIRMINGHAM, AL, 35215",81771381,"R"
250090,"5805 S 510 E","WOLCOTTVILLE","IN",46795,41.558414805,-85.32566666,90,"5805 S 510 E, WOLCOTTVILLE, IN, 46795","Match","Exact","5805 S 510 E, WOLCOTTVILLE, IN, 46795",8189029,"L"
250091,"5805 S BEN BURR RD UNIT K102","SPOKANE","WA",99223,47.6009673250001,-117.351136338,91,"5805 S BEN BURR RD UNIT K102, SPOKANE, WA, 99223","Match","Non_Exact","5805 S BEN BURR RD, SPOKANE, WA, 99223",189887825,"L"
250092,"5805 SAINTSBURY DR","THE COLONY","TX",75056,33.055128134,-96.848806984,92,"5805 SAINTSBURY DR, THE COLONY, TX, 75056","Match","Exact","5805 SAINTSBURY DR, THE COLONY, TX, 75056",614119367,"R"
250093,"5805 SARAMAC DRIVE","WATAUGA","TX",76148,32.8577273080001,-97.256888687,93,"5805 SARAMAC DRIVE, WATAUGA, TX, 76148","Match","Exact","5805 SARAMAC DR, WATAUGA, TX, 76148",101861931,"L"
250094,"5805 SOUTH SHERIDAN ROAD","TULSA","OK",74145,36.079326356,-95.904324687,94,"5805 SOUTH SHERIDAN ROAD, TULSA, OK, 74145","Match","Exact","5805 S SHERIDAN RD, TULSA, OK, 74145",166452337,"L"
250095,"5805 STATE BRIDGE RD STE L","JOHNS CREEK","GA",30097,34.0176415120001,-84.189378596,95,"5805 STATE BRIDGE RD STE L, JOHNS CREEK, GA, 30097","Match","Exact","5805 STATE BRIDGE RD, JOHNS CREEK, GA, 30097",642678542,"R"
250096,"5805 STATE BRIDGE RD SUITE G145","JOHNS CREEK","GA",30097,34.0176415120001,-84.189378596,96,"5805 STATE BRIDGE RD SUITE G145, JOHNS CREEK, GA, 30097","Match","Exact","5805 STATE BRIDGE RD, JOHNS CREEK, GA, 30097",642678542,"R"
250097,"5805 STATE BRIDGE ROAD SUITE G-112","JOHNS CREEK","GA",30097,34.0176415120001,-84.189378596,97,"5805 STATE BRIDGE ROAD SUITE G-112, JOHNS CREEK, GA, 30097","Match","Exact","5805 STATE BRIDGE RD, JOHNS CREEK, GA, 30097",642678542,"R"
250098,"5805 SUNSET BLVD","FORT PIERCE","FL",34982,27.359060664,-80.304245942,98,"5805 SUNSET BLVD, FORT PIERCE, FL, 34982","Match","Exact","5805 SUNSET BLVD, FORT PIERCE, FL, 34982",120150461,"R"
250099,"5805 W BAILEY BOSWELL RD","FORT WORTH","TX",76179,32.8809951200001,-97.414707317,99,"5805 W BAILEY BOSWELL RD, FORT WORTH, TX, 76179","Match","Exact","5805 W BAILEY BOSWELL RD, FORT WORTH, TX, 76179",640624137,"L"
250100,"5805 W BAILEY BOSWELL ROAD","FORT WORTH","TX",76179,32.8809951200001,-97.414707317,100,"5805 W BAILEY BOSWELL ROAD, FORT WORTH, TX, 76179","Match","Exact","5805 W BAILEY BOSWELL RD, FORT WORTH, TX, 76179",640624137,"L"
250101,"5805 WHITE OAK AVE   16542","ENCINO","CA",91316,34.1769513720001,-118.518768947,101,"5805 WHITE OAK AVE   16542, ENCINO, CA, 91316","Match","Non_Exact","5805 N WHITE OAK AVE, ENCINO, CA, 91316",241188679,"L"
250102,"5805 WILLOW LANE","DALLAS","TX",75230,32.9136096840001,-96.809421021,102,"5805 WILLOW LANE, DALLAS, TX, 75230","Match","Exact","5805 WILLOW LN, DALLAS, TX, 75230",102901183,"L"
250103,"5805 WOODLAWN GABLE DRIVE APT D","ALEXANDRIA","VA",22309,38.723739949,-77.135053125,103,"5805 WOODLAWN GABLE DRIVE APT D, ALEXANDRIA, VA, 22309","Match","Exact","5805 WOODLAWN GABLE DR, ALEXANDRIA, VA, 22309",645569159,"R"
250104,"5806 ANKENY COURT","CHARLOTTE","NC",28269,35.3203732280001,-80.8149598749999,104,"5806 ANKENY COURT, CHARLOTTE, NC, 28269","Match","Exact","5806 ANKENY CT, CHARLOTTE, NC, 28269",635657672,"R"
250105,"5806 BLACK ST","PITTSBURGH","PA",15214,40.4676166460001,-79.924267528,105,"5806 BLACK ST, PITTSBURGH, PA, 15214","Match","Non_Exact","5806 BLACK ST, PITTSBURGH, PA, 15206",51644851,"R"
250106,"5806 CACTUS VALLEY ROAD","CHARLOTTE","NC",28277,35.057201897,-80.783338509,106,"5806 CACTUS VALLEY ROAD, CHARLOTTE, NC, 28277","Match","Exact","5806 CACTUS VALLEY RD, CHARLOTTE, NC, 28277",611910178,"R"
250107,"5806 CHESHIRE COVE TER","ORLANDO","FL",32829,28.479795978,-81.25578935,107,"5806 CHESHIRE COVE TER, ORLANDO, FL, 32829","Match","Exact","5806 CHESHIRE COVE TER, ORLANDO, FL, 32829",629906334,"R"
250108,"5806 COVENTRY LANE","AUSTIN","TX",78723,30.3080035890001,-97.6842501309999,108,"5806 COVENTRY LANE, AUSTIN, TX, 78723","Match","Exact","5806 COVENTRY LN, AUSTIN, TX, 78723",63951156,"L"
250109,"5806 GROVE AVENUE  151","RICHMOND","VA",23226,NA,NA,109,"5806 GROVE AVENUE  151, RICHMOND, VA, 23226","No_Match",NA,NA,NA,NA
250110,"5806 NORTH MCALLEN DRIVE","LOOMIS","CA",95650,38.8214275340001,-121.197713663,110,"5806 NORTH MCALLEN DRIVE, LOOMIS, CA, 95650","Match","Non_Exact","5806 MCALLEN DR, LOOMIS, CA, 95650",106777901,"R"
250111,"5806 OLD JEANERETTE RD","NEW IBERIA","LA",70563,29.969040464,-91.73162576,111,"5806 OLD JEANERETTE RD, NEW IBERIA, LA, 70563","Match","Exact","5806 OLD JEANERETTE RD, NEW IBERIA, LA, 70563",639726774,"L"
250112,"5806 PROSPERITY CH RD A2-181","CHARLOTTE","NC",28269,NA,NA,112,"5806 PROSPERITY CH RD A2-181, CHARLOTTE, NC, 28269","No_Match",NA,NA,NA,NA
250113,"5806 SOUTH 331ST AVE","TONOPAH","AZ",85354,33.39380594,-112.76390706,113,"5806 SOUTH 331ST AVE, TONOPAH, AZ, 85354","Match","Exact","5806 S 331ST AVE, TONOPAH, AZ, 85354",128119429,"L"
250114,"5806 SOUTHSEAS STREET","HOUSTON","TX",77033,NA,NA,114,"5806 SOUTHSEAS STREET, HOUSTON, TX, 77033","No_Match",NA,NA,NA,NA
250115,"5806 W 125TH STREET","OVERLAND PARK","KS",66209,38.900811592,-94.652875708,115,"5806 W 125TH STREET, OVERLAND PARK, KS, 66209","Match","Exact","5806 W 125TH ST, OVERLAND PARK, KS, 66209",91291966,"L"
250116,"5806 W TOWNSEND STREET","MILWAUKEE","WI",53216,43.080847739,-87.98600845,116,"5806 W TOWNSEND STREET, MILWAUKEE, WI, 53216","Match","Exact","5806 W TOWNSEND ST, MILWAUKEE, WI, 53216",77731723,"R"
250117,"5806 WATERLEVEL HIGHWAY","CLEVELAND","TN",37323,35.135498371,-84.769043159,117,"5806 WATERLEVEL HIGHWAY, CLEVELAND, TN, 37323","Match","Exact","5806 WATERLEVEL HWY, CLEVELAND, TN, 37323",647600323,"L"
250118,"5806 WAYCROSS COURT","LOUISVILLE","KY",40213,38.093485636,-85.65392666,118,"5806 WAYCROSS COURT, LOUISVILLE, KY, 40213","Match","Non_Exact","5806 WAYCROSS CT, LOUISVILLE, KY, 40229",96916324,"L"
250119,"5807 BURWOOD AVE","LOS ANGELES","CA",90042,34.126846147,-118.192071493,119,"5807 BURWOOD AVE, LOS ANGELES, CA, 90042","Match","Exact","5807 BURWOOD AVE, LOS ANGELES, CA, 90042",142732052,"L"
250120,"5807 CHASTE CT","ROSENBERG","TX",77469,29.5343533710001,-95.755439198,120,"5807 CHASTE CT, ROSENBERG, TX, 77469","Match","Exact","5807 CHASTE CT, ROSENBERG, TX, 77469",645771490,"R"
250121,"5807 CLAM COVE","ROCK HALL","MD",21661,39.137318904,-76.239785356,121,"5807 CLAM COVE, ROCK HALL, MD, 21661","Match","Exact","5807 CLAM COVE, ROCK HALL, MD, 21661",68354669,"R"
250122,"5807 DOGWOOD TREE LN","MINERAL","VA",23117,38.1165542270001,-77.875699605,122,"5807 DOGWOOD TREE LN, MINERAL, VA, 23117","Match","Exact","5807 DOGWOOD TREE LN, MINERAL, VA, 23117",85025747,"L"
250123,"5807 FIRESTONE CT","SAN JOSE","CA",95138,37.2737770900001,-121.750280433,123,"5807 FIRESTONE CT, SAN JOSE, CA, 95138","Match","Exact","5807 FIRESTONE CT, SAN JOSE, CA, 95138",123171744,"R"
250124,"5807 GENERAL ARTHURS LN","JAMESTOWN","NC",27282,36.044368585,-79.9163568279999,124,"5807 GENERAL ARTHURS LN, JAMESTOWN, NC, 27282","Match","Exact","5807 GENERAL ARTHURS LN, JAMESTOWN, NC, 27282",651380040,"R"
250125,"5807 GERMANTOWN AVE APT 3","PHILADELPHIA","PA",19144,40.036957597,-75.1757590289999,125,"5807 GERMANTOWN AVE APT 3, PHILADELPHIA, PA, 19144","Match","Exact","5807 GERMANTOWN AVE, PHILADELPHIA, PA, 19144",131401084,"R"
250126,"5807 HARFORD RD","BALTIMORE","MD",21214,39.3550549450001,-76.559115285,126,"5807 HARFORD RD, BALTIMORE, MD, 21214","Match","Exact","5807 HARFORD RD, BALTIMORE, MD, 21214",206449126,"R"
250127,"5807 HARFORD ROAD","BALTIMORE","MD",21214,39.3550549450001,-76.559115285,127,"5807 HARFORD ROAD, BALTIMORE, MD, 21214","Match","Exact","5807 HARFORD RD, BALTIMORE, MD, 21214",206449126,"R"
250128,"5807 LITTLE YORK","HOUSTON","TX",77016,29.871332212,-95.304042902,128,"5807 LITTLE YORK, HOUSTON, TX, 77016","Match","Non_Exact","5807 LITTLE YORK RD, HOUSTON, TX, 77016",96075504,"L"
250129,"5807 N 43RD AVE","PHOENIX","AZ",85019,33.5211754640001,-112.151499424,129,"5807 N 43RD AVE, PHOENIX, AZ, 85019","Match","Exact","5807 N 43RD AVE, PHOENIX, AZ, 85019",128283115,"R"
250130,"5807 N COLLEGE DR","CHEYENNE","WY",82009,41.1721401340001,-104.761328685,130,"5807 N COLLEGE DR, CHEYENNE, WY, 82009","Match","Exact","5807 N COLLEGE DR, CHEYENNE, WY, 82009",646344742,"R"
250131,"5807 N COLLEGE","CHEYENNE","WY",82009,41.1721401340001,-104.761328685,131,"5807 N COLLEGE, CHEYENNE, WY, 82009","Match","Non_Exact","5807 N COLLEGE DR, CHEYENNE, WY, 82009",646344742,"R"
250132,"5807 PAGO PAGO","PAGO PAGO","AS",96799,NA,NA,132,"5807 PAGO PAGO, PAGO PAGO, AS, 96799","No_Match",NA,NA,NA,NA
250133,"5807 RIVER CREEK DRIVE","PROSPECT","KY",40059,38.328388111,-85.637987234,133,"5807 RIVER CREEK DRIVE, PROSPECT, KY, 40059","Match","Exact","5807 RIVER CREEK DR, PROSPECT, KY, 40059",96889651,"R"
250134,"5807 ROCK MEADOW TRAIL","ARLINGTON","TX",76017,32.6557639860001,-97.195991955,134,"5807 ROCK MEADOW TRAIL, ARLINGTON, TX, 76017","Match","Exact","5807 ROCK MEADOW TRL, ARLINGTON, TX, 76017",101956171,"R"
250135,"5807 SONG RIDGE CT","HOUSTON","TX",77041,29.855529335,-95.602313207,135,"5807 SONG RIDGE CT, HOUSTON, TX, 77041","Match","Exact","5807 SONG RIDGE CT, HOUSTON, TX, 77041",96296117,"R"
250136,"5807 TANGLEWOOD DRIVE","MILTON","FL",32570,30.646921698,-87.080368458,136,"5807 TANGLEWOOD DRIVE, MILTON, FL, 32570","Match","Exact","5807 TANGLEWOOD DR, MILTON, FL, 32570",74570856,"L"
250137,"5807 TIMBREVIEW ROAD","LITTLE ROCK","AR",72204,34.697248786,-92.376374927,137,"5807 TIMBREVIEW ROAD, LITTLE ROCK, AR, 72204","Match","Non_Exact","5807 TIMBERVIEW RD, LITTLE ROCK, AR, 72204",83502833,"L"
250138,"5808 218TH PL SW","MOUNTLAKE TERRACE","WA",98043,47.8007044390001,-122.311881268,138,"5808 218TH PL SW, MOUNTLAKE TERRACE, WA, 98043","Match","Non_Exact","5808 218TH ST SW, MOUNTLAKE TERRACE, WA, 98043",187756377,"L"
250139,"5808 75TH ST WEST","LAKEWOOD","WA",98499,47.189371873,-122.513953908,139,"5808 75TH ST WEST, LAKEWOOD, WA, 98499","Match","Exact","5808 75TH ST W, LAKEWOOD, WA, 98499",184622450,"L"
250140,"5808 AVENUE N","BROOKLYN","NY",11234,40.61942988,-73.919058875,140,"5808 AVENUE N, BROOKLYN, NY, 11234","Match","Exact","5808 AVENUE N, BROOKLYN, NY, 11234",59092595,"R"
250141,"5808 CAMBRIA NW","ALBUQUERQUE","NM",87120,NA,NA,141,"5808 CAMBRIA NW, ALBUQUERQUE, NM, 87120","No_Match",NA,NA,NA,NA
250142,"5808 CASTANO DRIVE","SAN JOSE","CA",95129,37.3085446650001,-122.004179345,142,"5808 CASTANO DRIVE, SAN JOSE, CA, 95129","Match","Exact","5808 CASTANO DR, SAN JOSE, CA, 95129",123005056,"L"
250143,"5808 CHATMOSS DRIVE","RALEIGH","NC",27610,35.745761847,-78.540822251,143,"5808 CHATMOSS DRIVE, RALEIGH, NC, 27610","Match","Exact","5808 CHATMOSS DR, RALEIGH, NC, 27610",72600354,"R"
250144,"5808 DEPARTURE DRIVE SUITE 101","RALEIGH","NC",27616,35.862689517,-78.590719834,144,"5808 DEPARTURE DRIVE SUITE 101, RALEIGH, NC, 27616","Match","Exact","5808 DEPARTURE DR, RALEIGH, NC, 27616",72615938,"R"
250145,"5808 DOONESBURY WAY","TALLAHASSEE","FL",32303,30.514336536,-84.375969087,145,"5808 DOONESBURY WAY, TALLAHASSEE, FL, 32303","Match","Exact","5808 DOONESBURY WAY, TALLAHASSEE, FL, 32303",82847035,"R"
250146,"5808 GEM CT","LANCASTER","CA",93536,34.663425836,-118.234994572,146,"5808 GEM CT, LANCASTER, CA, 93536","Match","Exact","5808 GEM CT, LANCASTER, CA, 93536",627016062,"R"
250147,"5808 GYPSUM PL","WEST PALM BEACH","FL",33401,26.6885791830001,-80.133971259,147,"5808 GYPSUM PL, WEST PALM BEACH, FL, 33401","Match","Non_Exact","5808 GYPSUM PL, WEST PALM BEACH, FL, 33413",636114962,"L"
250148,"5808 HERITAGE LAKES DRIVE","HILLIARD","OH",43026,40.020432558,-83.1713673359999,148,"5808 HERITAGE LAKES DRIVE, HILLIARD, OH, 43026","Match","Exact","5808 HERITAGE LAKES DR, HILLIARD, OH, 43026",218690879,"L"
250149,"5808 KNOX STREET","PHILADELPHIA","PA",19144,40.0337014260001,-75.179442501,149,"5808 KNOX STREET, PHILADELPHIA, PA, 19144","Match","Exact","5808 KNOX ST, PHILADELPHIA, PA, 19144",131401067,"L"
250150,"5808 LONGLEAF DR","MYRTLE BEACH","SC",29577,33.7361717470001,-78.839134815,150,"5808 LONGLEAF DR, MYRTLE BEACH, SC, 29577","Match","Exact","5808 LONGLEAF DR, MYRTLE BEACH, SC, 29577",29059578,"R"
250151,"5808 MARBURRY RD","BETHESDA","MD",20817,38.9788642980001,-77.116120512,151,"5808 MARBURRY RD, BETHESDA, MD, 20817","Match","Non_Exact","5808 MARBURY RD, BETHESDA, MD, 20817",62058822,"L"
250152,"5808 MEMORIAL BLUE STAR HWY","CHATTAHOOCHEE","FL",32324,30.6976949510001,-84.7669569189999,152,"5808 MEMORIAL BLUE STAR HWY, CHATTAHOOCHEE, FL, 32324","Match","Exact","5808 MEMORIAL BLUE STAR HWY, CHATTAHOOCHEE, FL, 32324",610799251,"L"
250153,"5808 NORTHWOODS DR","HIXSON","TN",37343,35.154287992,-85.251851572,153,"5808 NORTHWOODS DR, HIXSON, TN, 37343","Match","Exact","5808 NORTHWOODS DR, HIXSON, TN, 37343",59305267,"L"
250154,"5808 NW ROSE PETAL COURT SUITE 300","PORT ST. LUCIE","FL",34986,27.3519171510001,-80.3924727,154,"5808 NW ROSE PETAL COURT SUITE 300, PORT ST. LUCIE, FL, 34986","Match","Non_Exact","5808 NW ROSE PETAL CT, PORT ST LUCIE, FL, 34986",610726992,"L"
250155,"5808 RATHBONE DRIVE","ALLEN","TX",75002,33.0785959770001,-96.618836449,155,"5808 RATHBONE DRIVE, ALLEN, TX, 75002","Match","Exact","5808 RATHBONE DR, ALLEN, TX, 75002",210477931,"R"
250156,"5808 S FRONTIER TRAIL","SIOUX FALLS","SD",57108,43.4906344190001,-96.74365421,156,"5808 S FRONTIER TRAIL, SIOUX FALLS, SD, 57108","Match","Exact","5808 S FRONTIER TRL, SIOUX FALLS, SD, 57108",618468740,"R"
250157,"5808 SHGEBRUSH TRAIL","GREENSBORO","NC",27409,NA,NA,157,"5808 SHGEBRUSH TRAIL, GREENSBORO, NC, 27409","No_Match",NA,NA,NA,NA
250158,"5808 SPRING MOUNTAIN RD STE 103","LAS VEGAS","NV",89146,36.125637715,-115.220987705,158,"5808 SPRING MOUNTAIN RD STE 103, LAS VEGAS, NV, 89146","Match","Exact","5808 SPRING MOUNTAIN RD, LAS VEGAS, NV, 89146",201862906,"R"
250159,"5808 W 82ND CIR","ARVADA","CO",80003,39.845850925,-105.061940367,159,"5808 W 82ND CIR, ARVADA, CO, 80003","Match","Exact","5808 W 82ND CIR, ARVADA, CO, 80003",177407029,"L"
250160,"5808 WAYBURN STREET","DETROIT","MI",48224,42.40320361,-82.957453231,160,"5808 WAYBURN STREET, DETROIT, MI, 48224","Match","Exact","5808 WAYBURN ST, DETROIT, MI, 48224",95719186,"R"
250161,"5808 WEST 18TH STREET","INDIANAPOLIS","IN",46224,39.7912344540001,-86.259411453,161,"5808 WEST 18TH STREET, INDIANAPOLIS, IN, 46224","Match","Exact","5808 W 18TH ST, INDIANAPOLIS, IN, 46224",107978546,"R"
250162,"58089 JEFFERSON AVE","SLIDELL","LA",70460,30.276277727,-89.815585334,162,"58089 JEFFERSON AVE, SLIDELL, LA, 70460","Match","Exact","58089 JEFFERSON AVE, SLIDELL, LA, 70460",647952854,"L"
250163,"5809 11TH AVE S","MINNEAPOLIS","MN",55417,44.89765878,-93.259051977,163,"5809 11TH AVE S, MINNEAPOLIS, MN, 55417","Match","Exact","5809 11TH AVE S, MINNEAPOLIS, MN, 55417",43635684,"L"
250164,"5809 AUTUMN GATE DR","OAK RIDGE","NC",27310,36.1616709360001,-79.9883387,164,"5809 AUTUMN GATE DR, OAK RIDGE, NC, 27310","Match","Exact","5809 AUTUMN GATE DR, OAK RIDGE, NC, 27310",131088218,"R"
250165,"5809 BALSAM ROAD NUMBER 3","MADISON","WI",53711,43.0308281210001,-89.480247187,165,"5809 BALSAM ROAD NUMBER 3, MADISON, WI, 53711","Match","Exact","5809 BALSAM RD, MADISON, WI, 53711",49556959,"L"
250166,"5809 BARBADOS WAY WEST","WEST PALM BEACH","FL",33407,26.762814178,-80.1156394449999,166,"5809 BARBADOS WAY WEST, WEST PALM BEACH, FL, 33407","Match","Exact","5809 BARBADOS WAY W, WEST PALM BEACH, FL, 33407",115267881,"L"
250167,"5809 BLUEHILL ST","DETROIT","MI",48224,42.412607886,-82.931845198,167,"5809 BLUEHILL ST, DETROIT, MI, 48224","Match","Exact","5809 BLUEHILL ST, DETROIT, MI, 48224",95720280,"L"
250168,"5809 COBALT DRIVE","POWDER SPRINGS","GA",30127,33.8154962680001,-84.7167419849999,168,"5809 COBALT DRIVE, POWDER SPRINGS, GA, 30127","Match","Exact","5809 COBALT DR, POWDER SPGS, GA, 30127",614186598,"L"
250169,"5809 COURT P","BIRMINGHAM","AL",35228,33.4769990570001,-86.89282896,169,"5809 COURT P, BIRMINGHAM, AL, 35228","Match","Non_Exact","5809 COURT N, BIRMINGHAM, AL, 35228",81557226,"L"
250170,"5809 CREEK STATION DRIVE","PENSACOLA","FL",32504,30.4802775680001,-87.220184812,170,"5809 CREEK STATION DRIVE, PENSACOLA, FL, 32504","Match","Exact","5809 CREEK STATION DR, PENSACOLA, FL, 32504",93307403,"R"
250171,"5809 CREFT CIRCLE","INDIAN TRAIL","NC",28079,35.081761349,-80.629217631,171,"5809 CREFT CIRCLE, INDIAN TRAIL, NC, 28079","Match","Exact","5809 CREFT CIR, INDIAN TRAIL, NC, 28079",14191169,"R"
250172,"5809 CRESTVIEW AVE","INDIANAPOLIS","IN",46220,39.859234434,-86.1373930409999,172,"5809 CRESTVIEW AVE, INDIANAPOLIS, IN, 46220","Match","Exact","5809 CRESTVIEW AVE, INDIANAPOLIS, IN, 46220",107984690,"R"
250173,"5809 E JUDGE PEREZ DR","VIOLET","LA",70092,29.9090871070001,-89.895951585,173,"5809 E JUDGE PEREZ DR, VIOLET, LA, 70092","Match","Exact","5809 E JUDGE PEREZ DR, VIOLET, LA, 70092",635746275,"L"
250174,"5809 E WASHINGTON ST","INDIANAPOLIS","IN",46219,39.7709376080001,-86.067546885,174,"5809 E WASHINGTON ST, INDIANAPOLIS, IN, 46219","Match","Non_Exact","5809 E WASHINGTON ST, INDIANAPOLIS, IN, 46219",108003295,"R"
250175,"5809 EL CAMPO AVE","FORT WORTH","TX",76107,32.73687972,-97.410054239,175,"5809 EL CAMPO AVE, FORT WORTH, TX, 76107","Match","Exact","5809 EL CAMPO AVE, FORT WORTH, TX, 76107",101880154,"L"
250176,"5809 JEFFRIES RANCH ROAD","OCEANSIDE","CA",92057,33.2515207750001,-117.256267674,176,"5809 JEFFRIES RANCH ROAD, OCEANSIDE, CA, 92057","Match","Exact","5809 JEFFRIES RANCH RD, OCEANSIDE, CA, 92057",195285355,"R"
250177,"5809 JULIA ST","MADISON","WI",53705,43.0843438250001,-89.481105139,177,"5809 JULIA ST, MADISON, WI, 53705","Match","Exact","5809 JULIA ST, MADISON, WI, 53705",49466874,"L"
250178,"5809 KANE HOLLY STREET","LAS VEGAS","NV",89130,36.2671133170001,-115.243032358,178,"5809 KANE HOLLY STREET, LAS VEGAS, NV, 89130","Match","Exact","5809 KANE HOLLY ST, LAS VEGAS, NV, 89130",201934953,"L"
250179,"5809 LONGLEAF DRIVE","MYRTLE BEACH","SC",29577,33.736181706,-78.83914033,179,"5809 LONGLEAF DRIVE, MYRTLE BEACH, SC, 29577","Match","Exact","5809 LONGLEAF DR, MYRTLE BEACH, SC, 29577",29059578,"L"
250180,"5809 MIDDLEBRANCH NE","CANTON","OH",44721,40.8638540580001,-81.3353506729999,180,"5809 MIDDLEBRANCH NE, CANTON, OH, 44721","Match","Non_Exact","5809 MIDDLEBRANCH AVE NE, CANTON, OH, 44721",64676864,"L"
250181,"5809 MISSION STREET","SAN FRANCISCO","CA",94112,37.7094813510001,-122.450668999,181,"5809 MISSION STREET, SAN FRANCISCO, CA, 94112","Match","Exact","5809 MISSION ST, SAN FRANCISCO, CA, 94112",192286124,"L"
250182,"5809 N HAWTHORNE WAY","RALEIGH","NC",27613,35.9394481410001,-78.7280198559999,182,"5809 N HAWTHORNE WAY, RALEIGH, NC, 27613","Match","Exact","5809 N HAWTHORNE WAY, RALEIGH, NC, 27613",72604601,"L"
250183,"5809 N RIDGE BLVD","CHICAGO","IL",60660,41.987402366,-87.66622058,183,"5809 N RIDGE BLVD, CHICAGO, IL, 60660","Match","Non_Exact","5809 N RIDGE AVE, CHICAGO, IL, 60660",111745620,"R"
250184,"5809 PINE VALLEY DRIVE","FLOWER MOUND","TX",75022,33.063052989,-97.164294167,184,"5809 PINE VALLEY DRIVE, FLOWER MOUND, TX, 75022","Match","Exact","5809 PINE VALLEY DR, FLOWER MOUND, TX, 75022",640568892,"R"
250185,"5809 SW 4TH STREET","MIAMI","FL",33144,25.76695661,-80.2899873329999,185,"5809 SW 4TH STREET, MIAMI, FL, 33144","Match","Non_Exact","5809 SW 4TH ST, MIAMI, FL, 33144",115975814,"R"
250186,"5809 WAMEGO LN","PLANO","TX",75094,33.007078698,-96.620963902,186,"5809 WAMEGO LN, PLANO, TX, 75094","Match","Exact","5809 WAMEGO LN, PLANO, TX, 75094",123561852,"L"
250187,"5809 WINEGROVE COURT","DERWOOD","MD",20855,39.17943876,-77.117866469,187,"5809 WINEGROVE COURT, DERWOOD, MD, 20855","Match","Exact","5809 WINEGROVE CT, DERWOOD, MD, 20855",62080281,"R"
250188,"581 CHINA ST","PAHRUMP","NV",89048,36.1802314350001,-116.031667712,188,"581 CHINA ST, PAHRUMP, NV, 89048","Match","Exact","581 CHINA ST, PAHRUMP, NV, 89048",140525712,"R"
250189,"581 CR 2958","ALBA","TX",75410,32.750152906,-95.5981543249999,189,"581 CR 2958, ALBA, TX, 75410","Match","Exact","581 CO RD 2958, ALBA, TX, 75410",634496360,"R"
250190,"581 DIXIE LAKE LN","WASKOM","TX",75692,32.4635765,-94.077194465,190,"581 DIXIE LAKE LN, WASKOM, TX, 75692","Match","Non_Exact","581 DIXIE LAKE RD, WASKOM, TX, 75692",141181079,"L"
250191,"581 DOE RUN DRIVE","KERNERSVILLE","NC",27284,36.116552896,-80.137516588,191,"581 DOE RUN DRIVE, KERNERSVILLE, NC, 27284","Match","Exact","581 DOE RUN DR, KERNERSVILLE, NC, 27284",84638969,"L"
250192,"581 E 94TH ST","BROOKLYN","NY",11236,40.653329682,-73.915533193,192,"581 E 94TH ST, BROOKLYN, NY, 11236","Match","Exact","581 E 94TH ST, BROOKLYN, NY, 11236",640860047,"L"
250193,"581 E FREMONT AVE","SUNNYVALE","CA",94087,37.3520833630001,-122.026370646,193,"581 E FREMONT AVE, SUNNYVALE, CA, 94087","Match","Exact","581 E FREMONT AVE, SUNNYVALE, CA, 94087",122938416,"L"
250194,"581 FALLEN LEAF CIRCLE","SAN RAMON","CA",94583,37.757620613,-121.9498703,194,"581 FALLEN LEAF CIRCLE, SAN RAMON, CA, 94583","Match","Exact","581 FALLEN LEAF CIR, SAN RAMON, CA, 94583",192110658,"L"
250195,"581 FM 2610","CLEVELAND","TX",77327,30.4573636220001,-94.841817023,195,"581 FM 2610, CLEVELAND, TX, 77327","Match","Exact","581 FM 2610, CLEVELAND, TX, 77327",24127957,"L"
250196,"581 GUYLYN DR","PENN HILLS","PA",15235,40.4693052380001,-79.8025155509999,196,"581 GUYLYN DR, PENN HILLS, PA, 15235","Match","Exact","581 GUYLYN DR, PENN HILLS, PA, 15235",51668478,"R"
250197,"581 HADFIELD ROAD","DOWNINGTOWN","PA",19335,40.019387889,-75.782983444,197,"581 HADFIELD ROAD, DOWNINGTOWN, PA, 19335","Match","Exact","581 HADFIELD RD, DOWNINGTOWN, PA, 19335",179566739,"R"
250198,"581 HIGGINS RD","WARTRACE","TN",37183,35.5196233120001,-86.355327041,198,"581 HIGGINS RD, WARTRACE, TN, 37183","Match","Exact","581 HIGGINS RD, WARTRACE, TN, 37183",635455326,"R"
250199,"581 HIGHWAY A1A UNIT 701","SATELLITE BEACH","FL",32937,NA,NA,199,"581 HIGHWAY A1A UNIT 701, SATELLITE BEACH, FL, 32937","No_Match",NA,NA,NA,NA
250200,"581 HOMEPLACE DRIVE","CULPEPER","VA",22701,38.478451555,-78.014319659,200,"581 HOMEPLACE DRIVE, CULPEPER, VA, 22701","Match","Exact","581 HOMEPLACE DR, CULPEPER, VA, 22701",641531081,"R"
250201,"581 LANCASTER DR SE 95","SALEM","OR",97317,44.9221811250001,-122.982282012,201,"581 LANCASTER DR SE 95, SALEM, OR, 97317","Match","Exact","581 LANCASTER DR SE, SALEM, OR, 97317",613683666,"R"
250202,"581 LANCASTER DRIVE SE","SALEM","OR",97317,44.9221811250001,-122.982282012,202,"581 LANCASTER DRIVE SE, SALEM, OR, 97317","Match","Exact","581 LANCASTER DR SE, SALEM, OR, 97317",613683666,"R"
250203,"581 LIPSCOMB CT","RALEIGH","NC",27609,35.8587084260001,-78.648371232,203,"581 LIPSCOMB CT, RALEIGH, NC, 27609","Match","Exact","581 LIPSCOMB CT, RALEIGH, NC, 27609",612823348,"R"
250204,"581 MAIN STREET 6TH FLOOR","WOODBRIDGE","NJ",7075,40.8453949840001,-74.085463924,204,"581 MAIN STREET 6TH FLOOR, WOODBRIDGE, NJ, 7075","Match","Non_Exact","581 MAIN AVE, WOOD RIDGE, NJ, 07075",64395158,"L"
250205,"581 MAIN STREET SUITE 640","WOODBRIDGE","NJ",7095,40.544674097,-74.301623751,205,"581 MAIN STREET SUITE 640, WOODBRIDGE, NJ, 7095","Match","Exact","581 MAIN ST, WOODBRIDGE, NJ, 07095",60279457,"L"
250206,"581 MAIN STREET","LOGAN","WV",25601,37.844760766,-81.9863493989999,206,"581 MAIN STREET, LOGAN, WV, 25601","Match","Exact","581 MAIN ST, LOGAN, WV, 25601",78776177,"R"
250207,"581 N PARK AVE 881","APOPKA","FL",32704,NA,NA,207,"581 N PARK AVE 881, APOPKA, FL, 32704","No_Match",NA,NA,NA,NA
250208,"581 N PARK AVENUE  2072","APOPKA","FL",32704,NA,NA,208,"581 N PARK AVENUE  2072, APOPKA, FL, 32704","No_Match",NA,NA,NA,NA
250209,"581 N PARK BLVD","ONTARIO","OR",97914,NA,NA,209,"581 N PARK BLVD, ONTARIO, OR, 97914","Tie",NA,NA,NA,NA
250210,"581 NORTH PARK AVE 4003","APOPKA","FL",32712,28.690495373,-81.509415051,210,"581 NORTH PARK AVE 4003, APOPKA, FL, 32712","Match","Exact","581 N PARK AVE, APOPKA, FL, 32712",606071297,"R"
250211,"581 NW GOLDCOAST AVE","PORT ST LUCIE","FL",34983,27.335468905,-80.3647021099999,211,"581 NW GOLDCOAST AVE, PORT ST LUCIE, FL, 34983","Match","Exact","581 NW GOLDCOAST AVE, PORT ST LUCIE, FL, 34983",120150641,"R"
250212,"581 OCEAN BLVD APT 4","HAMPTON","NH",3842,42.921370493,-70.798716169,212,"581 OCEAN BLVD APT 4, HAMPTON, NH, 3842","Match","Exact","581 OCEAN BLVD, HAMPTON, NH, 03842",649813907,"R"
250213,"581 OHLEYER ROAD","YUBA CITY","CA",95993,39.118962519,-121.660193632,213,"581 OHLEYER ROAD, YUBA CITY, CA, 95993","Match","Exact","581 OHLEYER RD, YUBA CITY, CA, 95993",68567463,"L"
250214,"581 PIN OAK CIRCLE","GRAND ISLAND","NY",14072,NA,NA,214,"581 PIN OAK CIRCLE, GRAND ISLAND, NY, 14072","No_Match",NA,NA,NA,NA
250215,"581 RED GATES LANE PO BOX 750037","TORREY","UT",84775,38.308991973,-111.433464425,215,"581 RED GATES LANE PO BOX 750037, TORREY, UT, 84775","Match","Exact","581 RED GATES LN, TORREY, UT, 84775",627894256,"L"
250216,"581 REID AVE","HUNTINGTON","WV",25705,38.4029532210001,-82.399746076,216,"581 REID AVE, HUNTINGTON, WV, 25705","Match","Exact","581 REID AVE, HUNTINGTON, WV, 25705",101319375,"R"
250217,"581 ROBINS EGG DR","COLUMBIA","SC",29229,34.160368541,-80.9466626989999,217,"581 ROBINS EGG DR, COLUMBIA, SC, 29229","Match","Exact","581 ROBINS EGG DR, COLUMBIA, SC, 29229",604796466,"R"
250218,"581 S 61ST ST","HARRISBURG","PA",17111,40.251074895,-76.7838992219999,218,"581 S 61ST ST, HARRISBURG, PA, 17111","Match","Exact","581 S 61ST ST, HARRISBURG, PA, 17111",70824037,"R"
250219,"581 S RANGELINE RD SUITE B2","CARMEL","IN",46032,NA,NA,219,"581 S RANGELINE RD SUITE B2, CARMEL, IN, 46032","Tie",NA,NA,NA,NA
250220,"581 SW 15TH ST","BOCA RATON","FL",33432,26.3355708230001,-80.094952816,220,"581 SW 15TH ST, BOCA RATON, FL, 33432","Match","Exact","581 SW 15TH ST, BOCA RATON, FL, 33432",115303559,"L"
250221,"581 TOLEND ROAD","DOVER","NH",3820,43.211384208,-70.9466544599999,221,"581 TOLEND ROAD, DOVER, NH, 3820","Match","Exact","581 TOLEND RD, DOVER, NH, 03820",117805512,"R"
250222,"581 VAN BUREN AVE","SAINT PAUL","MN",55103,44.9620558720001,-93.124764559,222,"581 VAN BUREN AVE, SAINT PAUL, MN, 55103","Match","Non_Exact","581 W VAN BUREN AVE, SAINT PAUL, MN, 55103",97643893,"R"
250223,"581 VICTORY HWY","COVENTRY","RI",2827,41.711478395,-71.699614603,223,"581 VICTORY HWY, COVENTRY, RI, 2827","Match","Exact","581 VICTORY HWY, COVENTRY, RI, 02827",159161352,"L"
250224,"581 W MESQUITE BLVD","MESQUITE","NV",89027,36.8039298150001,-114.083704802,224,"581 W MESQUITE BLVD, MESQUITE, NV, 89027","Match","Exact","581 W MESQUITE BLVD, MESQUITE, NV, 89027",201841112,"L"
250225,"581 W OLD AJ HWY","NEW MARKET","TN",37820,NA,NA,225,"581 W OLD AJ HWY, NEW MARKET, TN, 37820","No_Match",NA,NA,NA,NA
250226,"581 WEST KENNETT","PONTIAC","MI",48340,42.6650596330001,-83.321172474,226,"581 WEST KENNETT, PONTIAC, MI, 48340","Match","Non_Exact","581 W KENNETT RD, PONTIAC, MI, 48340",69702233,"L"
250227,"5810 AMBLER ST","HOLT","MI",48842,42.648052621,-84.5730160479999,227,"5810 AMBLER ST, HOLT, MI, 48842","Match","Exact","5810 AMBLER ST, HOLT, MI, 48842",17514370,"R"
250228,"5810 BROOKSIDE RD","PEARLAND","TX",77581,29.5877419130001,-95.32056097,228,"5810 BROOKSIDE RD, PEARLAND, TX, 77581","Match","Exact","5810 BROOKSIDE RD, PEARLAND, TX, 77581",116568294,"R"
250229,"5810 CORAL RIDGE DR STE 100","CORAL SPRINGS","FL",33076,26.3006574390001,-80.278898969,229,"5810 CORAL RIDGE DR STE 100, CORAL SPRINGS, FL, 33076","Match","Exact","5810 CORAL RIDGE DR, CORAL SPRINGS, FL, 33076",641073716,"L"
250230,"5810 COYOTE LN","PEYTON","CO",80831,38.9140919380001,-104.436329242,230,"5810 COYOTE LN, PEYTON, CO, 80831","Match","Exact","5810 COYOTE LN, PEYTON, CO, 80831",647971303,"L"
250231,"5810 CROKKED POST RD","SPRING","TX",77373,NA,NA,231,"5810 CROKKED POST RD, SPRING, TX, 77373","No_Match",NA,NA,NA,NA
250232,"5810 CULLER CT","JOHNS CREEK","GA",30005,34.0728612670001,-84.181961042,232,"5810 CULLER CT, JOHNS CREEK, GA, 30005","Match","Exact","5810 CULLER CT, JOHNS CREEK, GA, 30005",17402595,"L"
250233,"5810 E NORTH WILSHIRE DR","TUCSON","AZ",85711,32.2156493040001,-110.869464573,233,"5810 E NORTH WILSHIRE DR, TUCSON, AZ, 85711","Match","Exact","5810 E NORTH WILSHIRE DR, TUCSON, AZ, 85711",121180879,"R"
250234,"5810 E SKELLY DR SUITE 1002","TULSA","OK",74135,36.102121481,-95.911814678,234,"5810 E SKELLY DR SUITE 1002, TULSA, OK, 74135","Match","Non_Exact","5810 E SKELLY DR, TULSA, OK, 74135",166450977,"R"
250235,"5810 E SPRING ROAD","SCOTTSDALE","AZ",85254,33.6173749760001,-111.955146586,235,"5810 E SPRING ROAD, SCOTTSDALE, AZ, 85254","Match","Exact","5810 E SPRING RD, SCOTTSDALE, AZ, 85254",128187573,"L"
250236,"5810 EDELWEISS LN NW","ROCHESTER","MN",55901,44.083762494,-92.506279085,236,"5810 EDELWEISS LN NW, ROCHESTER, MN, 55901","Match","Exact","5810 EDELWEISS LN NW, ROCHESTER, MN, 55901",30563374,"L"
250237,"5810 FIELD BROOK DRIVE","EAST AMHERST","NY",14051,43.0066821680001,-78.690887835,237,"5810 FIELD BROOK DRIVE, EAST AMHERST, NY, 14051","Match","Exact","5810 FIELD BROOK DR, EAST AMHERST, NY, 14051",626693919,"R"
250238,"5810 FM 1765","TEXAS CITY","TX",77591,29.37889454,-94.976487495,238,"5810 FM 1765, TEXAS CITY, TX, 77591","Match","Exact","5810 FM 1765, TEXAS CITY, TX, 77591",96687940,"R"
250239,"5810 FRANKLIN BLVD SUITE 2","CLEVELAND","OH",44102,41.4828597470001,-81.726632616,239,"5810 FRANKLIN BLVD SUITE 2, CLEVELAND, OH, 44102","Match","Exact","5810 FRANKLIN BLVD, CLEVELAND, OH, 44102",61101545,"R"
250240,"5810 HWY 6 N SUITE 300","HOUSTON","TX",77084,NA,NA,240,"5810 HWY 6 N SUITE 300, HOUSTON, TX, 77084","No_Match",NA,NA,NA,NA
250241,"5810 LAS VIRGENES RD  UNIT 417","CALABASAS","CA",91302,34.163715546,-118.702477675,241,"5810 LAS VIRGENES RD  UNIT 417, CALABASAS, CA, 91302","Match","Exact","5810 LAS VIRGENES RD, CALABASAS, CA, 91302",647447083,"R"
250242,"5810 LAS VIRGENES ROAD APT 420","CALABASAS","CA",91302,34.163715546,-118.702477675,242,"5810 LAS VIRGENES ROAD APT 420, CALABASAS, CA, 91302","Match","Exact","5810 LAS VIRGENES RD, CALABASAS, CA, 91302",647447083,"R"
250243,"5810 LODGE CREEK DRIVE","HOUSTON","TX",77066,29.975462029,-95.512372757,243,"5810 LODGE CREEK DRIVE, HOUSTON, TX, 77066","Match","Exact","5810 LODGE CREEK DR, HOUSTON, TX, 77066",96660844,"L"
250244,"5810 MYAKKA COURT","RALEIGH","NC",27616,35.8887776550001,-78.542927829,244,"5810 MYAKKA COURT, RALEIGH, NC, 27616","Match","Exact","5810 MYAKKA CT, RALEIGH, NC, 27616",635562740,"R"
250245,"5810 NORTH LINCOLN AVENUE","CHICAGO","IL",60659,41.9869894660001,-87.701673166,245,"5810 NORTH LINCOLN AVENUE, CHICAGO, IL, 60659","Match","Exact","5810 N LINCOLN AVE, CHICAGO, IL, 60659",605002917,"L"
250246,"5810 OLD LANSING ROAD","LANSING","MI",48917,42.690662515,-84.634241456,246,"5810 OLD LANSING ROAD, LANSING, MI, 48917","Match","Exact","5810 OLD LANSING RD, LANSING, MI, 48917",12046794,"R"
250247,"5810 PARK DRIVE","MARGATE","FL",33063,26.2414612420001,-80.206456727,247,"5810 PARK DRIVE, MARGATE, FL, 33063","Match","Exact","5810 PARK DR, MARGATE, FL, 33063",114692358,"L"
250248,"5810 SE 8TH STREET","DES MOINES","IA",50315,41.5318041740001,-93.60221143,248,"5810 SE 8TH STREET, DES MOINES, IA, 50315","Match","Exact","5810 SE 8TH ST, DES MOINES, IA, 50315",65787198,"R"
250249,"5810 SHELBY OAKS DR STE B","MEMPHIS","TN",38134,35.1636193050001,-89.868549286,249,"5810 SHELBY OAKS DR STE B, MEMPHIS, TN, 38134","Match","Exact","5810 SHELBY OAKS DR, MEMPHIS, TN, 38134",635944598,"R"
250250,"5810 SHELBY OAKS DR SUITE B","MEMPHIS","TN",38134,35.1636193050001,-89.868549286,250,"5810 SHELBY OAKS DR SUITE B, MEMPHIS, TN, 38134","Match","Exact","5810 SHELBY OAKS DR, MEMPHIS, TN, 38134",635944598,"R"
250251,"5810 SHELBY OAKS DRIVE STE B","MEMPHIS","TN",38134,35.1636193050001,-89.868549286,251,"5810 SHELBY OAKS DRIVE STE B, MEMPHIS, TN, 38134","Match","Exact","5810 SHELBY OAKS DR, MEMPHIS, TN, 38134",635944598,"R"
250252,"5810 SHELBY OAKS DRIVE","MEMPHIS","TN",38135,35.1636193050001,-89.868549286,252,"5810 SHELBY OAKS DRIVE, MEMPHIS, TN, 38135","Match","Non_Exact","5810 SHELBY OAKS DR, MEMPHIS, TN, 38134",635944598,"R"
250253,"5810 SILVERADO PLACE","PASO ROBLES","CA",93446,35.6289529760001,-120.544777515,253,"5810 SILVERADO PLACE, PASO ROBLES, CA, 93446","Match","Exact","5810 SILVERADO PL, PASO ROBLES, CA, 93446",109839489,"R"
250254,"5810 SPRING TREE CT","ENOLA","PA",17025,40.2899327550001,-76.997313256,254,"5810 SPRING TREE CT, ENOLA, PA, 17025","Match","Exact","5810 SPRING TREE CT, ENOLA, PA, 17025",60962209,"R"
250255,"5810 STEPHEN CT","GARLAND","TX",75043,32.835069366,-96.566716543,255,"5810 STEPHEN CT, GARLAND, TX, 75043","Match","Exact","5810 STEPHEN CT, GARLAND, TX, 75043",625344107,"L"
250256,"5810 SUNRISE BLVD","HARLINGEN","TX",78552,26.1937601070001,-97.75878067,256,"5810 SUNRISE BLVD, HARLINGEN, TX, 78552","Match","Exact","5810 SUNRISE BLVD, HARLINGEN, TX, 78552",89997481,"R"
250257,"5810 SW 1ST COURT","CAPE CORAL","FL",33914,26.544282018,-81.9778126429999,257,"5810 SW 1ST COURT, CAPE CORAL, FL, 33914","Match","Exact","5810 SW 1ST CT, CAPE CORAL, FL, 33914",639176580,"R"
250258,"5810 W CONSERVATION DR","FREDERICK","CO",80504,40.1332870690001,-104.943854477,258,"5810 W CONSERVATION DR, FREDERICK, CO, 80504","Match","Exact","5810 W CONSERVATION DR, FREDERICK, CO, 80504",188740239,"L"
250259,"5810-C KIRKWOOD HWY","WILMINGTON","DE",19808,39.7142615970001,-75.674943769,259,"5810-C KIRKWOOD HWY, WILMINGTON, DE, 19808","Match","Exact","5810 KIRKWOOD HWY, WILMINGTON, DE, 19808",640701346,"L"
250260,"58106 DELMAR","WASHINGTON TWP","MI",48094,42.7220808180001,-83.037118775,260,"58106 DELMAR, WASHINGTON TWP, MI, 48094","Match","Exact","58106 DELMAR, WASHINGTON TOWNSHIP, MI, 48094",110658088,"R"
250261,"5811 ASHLEY SPRING CT","KATY","TX",77494,29.7101666630001,-95.763818787,261,"5811 ASHLEY SPRING CT, KATY, TX, 77494","Match","Exact","5811 ASHLEY SPRING CT, KATY, TX, 77494",78326992,"R"
250262,"5811 CHEVY CHASE PARKWAY NW","WASHINGTON","DC",20015,38.96711594,-77.073249609,262,"5811 CHEVY CHASE PARKWAY NW, WASHINGTON, DC, 20015","Match","Exact","5811 CHEVY CHASE PKWY NW, WASHINGTON, DC, 20015",76219195,"R"
250263,"5811 ENCANTO POINT DR","SAN ANTONIO","TX",78244,29.4829645350001,-98.332181285,263,"5811 ENCANTO POINT DR, SAN ANTONIO, TX, 78244","Match","Exact","5811 ENCANTO POINT DR, SAN ANTONIO, TX, 78244",101736740,"R"
250264,"5811 FITCHWOOD LANE","AUSTIN","TX",78749,30.210970494,-97.870110271,264,"5811 FITCHWOOD LANE, AUSTIN, TX, 78749","Match","Exact","5811 FITCHWOOD LN, AUSTIN, TX, 78749",63937361,"R"
250265,"5811 FORDHAM DRIVE","AMARILLO","TX",79109,35.1430359070001,-101.899626748,265,"5811 FORDHAM DRIVE, AMARILLO, TX, 79109","Match","Exact","5811 FORDHAM DR, AMARILLO, TX, 79109",182653414,"L"
250266,"5811 HALLECK DRIVE","SAN JOSE","CA",95123,37.2451451760001,-121.860963256,266,"5811 HALLECK DRIVE, SAN JOSE, CA, 95123","Match","Exact","5811 HALLECK DR, SAN JOSE, CA, 95123",636547356,"R"
250267,"5811 HEATHERBLOOM DRIVE","HOUSTON","TX",77089,29.6227392690001,-95.468890404,267,"5811 HEATHERBLOOM DRIVE, HOUSTON, TX, 77089","Match","Non_Exact","5811 HEATHERBLOOM DR, HOUSTON, TX, 77085",96040572,"L"
250268,"5811 HIDDEN SKY","SAN ANTONIO","TX",78250,29.491026375,-98.6901933239999,268,"5811 HIDDEN SKY, SAN ANTONIO, TX, 78250","Match","Non_Exact","5811 HIDDEN SKY ST, SAN ANTONIO, TX, 78250",101488531,"R"
250269,"5811 JAMAICA LANE","KNOXVILLE","TN",37921,35.970499062,-84.01949057,269,"5811 JAMAICA LANE, KNOXVILLE, TN, 37921","Match","Exact","5811 JAMAICA LN, KNOXVILLE, TN, 37921",42640389,"L"
250270,"5811 LIGHTFOOT LN","FRISCO","TX",75034,33.1273184900001,-96.886675778,270,"5811 LIGHTFOOT LN, FRISCO, TX, 75034","Match","Non_Exact","5811 LIGHTFOOT LN, FRISCO, TX, 75036",642930324,"L"
250271,"5811 MILDRED LN","MILFORD","OH",45150,39.189481334,-84.279236514,271,"5811 MILDRED LN, MILFORD, OH, 45150","Match","Exact","5811 MILDRED LN, MILFORD, OH, 45150",118452413,"R"
250272,"5811 N RAMBO RD","SPOKANE","WA",99224,47.710643351,-117.617720479,272,"5811 N RAMBO RD, SPOKANE, WA, 99224","Match","Exact","5811 N RAMBO RD, SPOKANE, WA, 99224",639907869,"L"
250273,"5811 S 170TH STREET","OMAHA","NE",68135,41.1997733210001,-96.179399566,273,"5811 S 170TH STREET, OMAHA, NE, 68135","Match","Exact","5811 S 170TH ST, OMAHA, NE, 68135",117002193,"R"
250274,"5811 S FERDINAND ST","TACOMA","WA",98409,47.204050684,-122.5020774,274,"5811 S FERDINAND ST, TACOMA, WA, 98409","Match","Exact","5811 S FERDINAND ST, TACOMA, WA, 98409",184622564,"L"
250275,"5811 SALOMA AVE","VAN NUYS","CA",91411,34.176044371,-118.458536056,275,"5811 SALOMA AVE, VAN NUYS, CA, 91411","Match","Exact","5811 SALOMA AVE, VAN NUYS, CA, 91411",141560318,"L"
250276,"5811 SOUTHLAND DRIVE","ERIE","PA",16509,42.0768601,-80.063617815,276,"5811 SOUTHLAND DRIVE, ERIE, PA, 16509","Match","Exact","5811 SOUTHLAND DR, ERIE, PA, 16509",117510447,"L"
250277,"5811 ST ANDREWS DR","MUKILTEO","WA",98275,47.8939356220001,-122.312127782,277,"5811 ST ANDREWS DR, MUKILTEO, WA, 98275","Match","Exact","5811 SAINT ANDREWS DR, MUKILTEO, WA, 98275",608936693,"R"
250278,"5811 TIDEWATER DRIVE","HOUSTON","TX",77085,29.6338638510001,-95.469602747,278,"5811 TIDEWATER DRIVE, HOUSTON, TX, 77085","Match","Exact","5811 TIDEWATER DR, HOUSTON, TX, 77085",624747953,"L"
250279,"5811 VANDERIPE ROAD","SARASOTA","FL",34241,27.2689187180001,-82.332090003,279,"5811 VANDERIPE ROAD, SARASOTA, FL, 34241","Match","Exact","5811 VANDERIPE RD, SARASOTA, FL, 34241",16380610,"R"
250280,"5812 16TH LN S APT 4","ST PETERSBURG","FL",33712,27.7154471440001,-82.656518837,280,"5812 16TH LN S APT 4, ST PETERSBURG, FL, 33712","Match","Exact","5812 16TH LN S, SAINT PETERSBURG, FL, 33712",124711266,"L"
250281,"5812 1ST AVENUE NORTH","BIRMINGHAM","AL",35212,33.542681671,-86.7495453,281,"5812 1ST AVENUE NORTH, BIRMINGHAM, AL, 35212","Match","Exact","5812 1ST AVE N, BIRMINGHAM, AL, 35212",81726323,"L"
250282,"5812 CARRETTA COURT","RALEIGH","NC",27619,35.739475418,-78.543036254,282,"5812 CARRETTA COURT, RALEIGH, NC, 27619","Match","Non_Exact","5812 CARRETTA CT, RALEIGH, NC, 27610",208344787,"R"
250283,"5812 E 10TH AVE","DENVER","CO",80220,39.7316770190001,-104.920425652,283,"5812 E 10TH AVE, DENVER, CO, 80220","Match","Non_Exact","5812 E 10TH AVE, DENVER, CO, 80220",636168937,"R"
250284,"5812 EMILY DRIVE","DOYLESTOWN","PA",18902,40.3699750600001,-75.168919492,284,"5812 EMILY DRIVE, DOYLESTOWN, PA, 18902","Match","Exact","5812 EMILY DR, DOYLESTOWN, PA, 18902",134748618,"R"
250285,"5812 GUION LAKES DR","INDIANAPOLIS","IN",46254,39.858412871,-86.234120689,285,"5812 GUION LAKES DR, INDIANAPOLIS, IN, 46254","Match","Exact","5812 GUION LAKES DR, INDIANAPOLIS, IN, 46254",108034871,"R"
250286,"5812 HUNTING RIDGE LANE  F","CHARLOTTE","NC",28212,35.1843069760001,-80.7509192109999,286,"5812 HUNTING RIDGE LANE  F, CHARLOTTE, NC, 28212","Match","Exact","5812 HUNTING RIDGE LN, CHARLOTTE, NC, 28212",70565924,"R"
250287,"5812 KEYSTONE CREST ST","N LAS VEGAS","NV",89081,36.26540419,-115.096204433,287,"5812 KEYSTONE CREST ST, N LAS VEGAS, NV, 89081","Match","Exact","5812 KEYSTONE CREST ST, N LAS VEGAS, NV, 89081",626861585,"L"
250288,"5812 MCKINLEY","CHINA","MI",48054,42.7316933750001,-82.57055194,288,"5812 MCKINLEY, CHINA, MI, 48054","Match","Non_Exact","5812 MCKINLEY RD, CHINA, MI, 48054",110961905,"L"
250289,"5812 N 8TH ST PLACE","PHOENIX","AZ",85014,NA,NA,289,"5812 N 8TH ST PLACE, PHOENIX, AZ, 85014","No_Match",NA,NA,NA,NA
250290,"5812 N CHRISTIANA","CHICAGO","IL",60659,NA,NA,290,"5812 N CHRISTIANA, CHICAGO, IL, 60659","No_Match",NA,NA,NA,NA
250291,"5812 N SHORE DR","CLARKLAKE","MI",49234,42.1210178760001,-84.332979735,291,"5812 N SHORE DR, CLARKLAKE, MI, 49234","Match","Exact","5812 N SHORE DR, CLARKLAKE, MI, 49234",17611040,"R"
250292,"5812 NC HIGHWAY 33 EAST","TARBORO","NC",27886,35.796463654,-77.536946879,292,"5812 NC HIGHWAY 33 EAST, TARBORO, NC, 27886","Match","Non_Exact","5812 STATE HWY 33 E, TARBORO, NC, 27886",90182041,"L"
250293,"5812 PATTON ST","CHARLOTTE","NC",28269,35.3087710140001,-80.8069561469999,293,"5812 PATTON ST, CHARLOTTE, NC, 28269","Match","Exact","5812 PATTON ST, CHARLOTTE, NC, 28269",70478369,"L"
250294,"5812 POST MOUNTAIN ST","N LAS VEGAS","NV",89031,36.2662532190001,-115.141936524,294,"5812 POST MOUNTAIN ST, N LAS VEGAS, NV, 89031","Match","Non_Exact","5812 N POST MOUNTAIN ST, N LAS VEGAS, NV, 89031",624312823,"R"
250295,"5812 PRAIRIE RIDGE DR","SHOREVIEW","MN",55126,45.1162541210001,-93.182485491,295,"5812 PRAIRIE RIDGE DR, SHOREVIEW, MN, 55126","Match","Exact","5812 PRAIRIE RIDGE DR, SHOREVIEW, MN, 55126",97666394,"R"
250296,"5812 S KING DR","CHICAGO","IL",60637,41.789015825,-87.6158434559999,296,"5812 S KING DR, CHICAGO, IL, 60637","Match","Exact","5812 S KING DR, CHICAGO, IL, 60637",111771283,"R"
250297,"5812 SOUTH 93 STR","OMAHA","NE",68127,41.1995160020001,-96.059394088,297,"5812 SOUTH 93 STR, OMAHA, NE, 68127","Match","Exact","5812 S 93RD ST, OMAHA, NE, 68127",641165966,"R"
250298,"5812 SUTCLIFFE CIR","LAS VEGAS","NV",89110,36.168619865,-115.046291307,298,"5812 SUTCLIFFE CIR, LAS VEGAS, NV, 89110","Match","Exact","5812 SUTCLIFFE CIR, LAS VEGAS, NV, 89110",201876816,"L"
250299,"5812 TEMPLE CITY BLVD NUM 315","TEMPLE CITY","CA",91780,34.1052287380001,-118.060596088,299,"5812 TEMPLE CITY BLVD NUM 315, TEMPLE CITY, CA, 91780","Match","Exact","5812 TEMPLE CITY BLVD, TEMPLE CITY, CA, 91780",141644633,"R"
250300,"5812 VENTRY COURT","RALEIGH","NC",27613,35.9406777080001,-78.726795473,300,"5812 VENTRY COURT, RALEIGH, NC, 27613","Match","Exact","5812 VENTRY CT, RALEIGH, NC, 27613",72604603,"L"
250301,"5812 VIA DR","AUSTIN","TX",78735,30.256262411,-97.8404615589999,301,"5812 VIA DR, AUSTIN, TX, 78735","Match","Exact","5812 VIA DR, AUSTIN, TX, 78735",64039595,"R"
250302,"5812 WESTERN VIEW PLACE","MT AIRY","MD",21771,39.391715069,-77.191589429,302,"5812 WESTERN VIEW PLACE, MT AIRY, MD, 21771","Match","Exact","5812 WESTERN VIEW PL, MOUNT AIRY, MD, 21771",60688608,"R"
250303,"5812 WILD LUPINE COURT","WEST PALM BEACH","FL",33415,26.660838633,-80.135364354,303,"5812 WILD LUPINE COURT, WEST PALM BEACH, FL, 33415","Match","Exact","5812 WILD LUPINE CT, WEST PALM BEACH, FL, 33415",115534921,"R"
250304,"5812 WISH AVENUE","ENCINO","CA",91316,34.17668551,-118.505878017,304,"5812 WISH AVENUE, ENCINO, CA, 91316","Match","Exact","5812 WISH AVE, ENCINO, CA, 91316",142668630,"R"
250305,"58125 HWY 4","PLYMOUTH","NE",68424,40.3061767190001,-96.9314276439999,305,"58125 HWY 4, PLYMOUTH, NE, 68424","Match","Non_Exact","58125 STATE HWY 4, PLYMOUTH, NE, 68424",11148781,"R"
250306,"5813 BURGUNDY ROSE DR","FT WORTH","TX",76123,32.6206221410001,-97.4152405999999,306,"5813 BURGUNDY ROSE DR, FT WORTH, TX, 76123","Match","Exact","5813 BURGUNDY ROSE DR, FORT WORTH, TX, 76123",637603649,"L"
250307,"5813 CAMERON CREEK TERRACE","GLEN ALLEN","VA",23059,37.6867958550001,-77.610708652,307,"5813 CAMERON CREEK TERRACE, GLEN ALLEN, VA, 23059","Match","Exact","5813 CAMERON CREEK TER, GLEN ALLEN, VA, 23059",651931594,"L"
250308,"5813 COUNTRY MANOR TERRACE","NORTH CHESTERFIELD","VA",23234,37.4353582420001,-77.495603122,308,"5813 COUNTRY MANOR TERRACE, NORTH CHESTERFIELD, VA, 23234","Match","Exact","5813 COUNTRY MANOR TER, NORTH CHESTERFIELD, VA, 23234",201560731,"L"
250309,"5813 DURANGO DRIVE","KILLEEN","TX",76542,31.0571467180001,-97.694688603,309,"5813 DURANGO DRIVE, KILLEEN, TX, 76542","Match","Exact","5813 DURANGO DR, KILLEEN, TX, 76542",146228045,"L"
250310,"5813 EAGLES FEATHER LANE","RIVERDALE","GA",30274,33.5961743460001,-84.4031382159999,310,"5813 EAGLES FEATHER LANE, RIVERDALE, GA, 30274","Match","Exact","5813 EAGLES FEATHER LN, RIVERDALE, GA, 30274",647700013,"L"
250311,"5813 HAMMERMILL LOOP","MONTGOMERY","AL",36116,32.3109875960001,-86.2080935289999,311,"5813 HAMMERMILL LOOP, MONTGOMERY, AL, 36116","Match","Exact","5813 HAMMERMILL LOOP, MONTGOMERY, AL, 36116",624647507,"L"
250312,"5813 LAMONT DRIVE","NEW CARROLLTON","MD",20784,38.963298943,-76.881318173,312,"5813 LAMONT DRIVE, NEW CARROLLTON, MD, 20784","Match","Exact","5813 LAMONT DR, NEW CARROLLTON, MD, 20784",76386046,"R"
250313,"5813 LOIS LANE","ELLICOTT CITY","MD",21043,39.2120892460001,-76.7992884929999,313,"5813 LOIS LANE, ELLICOTT CITY, MD, 21043","Match","Exact","5813 LOIS LN, ELLICOTT CITY, MD, 21043",647097591,"R"
250314,"5813 MARENGO ROAD","BETHESDA","MD",20816,38.9655410400001,-77.1178341,314,"5813 MARENGO ROAD, BETHESDA, MD, 20816","Match","Exact","5813 MARENGO RD, BETHESDA, MD, 20816",62058913,"R"
250315,"5813 MONROE STREET NO 204","SYLVANIA","OH",43560,41.711124157,-83.680188624,315,"5813 MONROE STREET NO 204, SYLVANIA, OH, 43560","Match","Non_Exact","5813 MONROE ST, SYLVANIA, OH, 43560",33927857,"L"
250316,"5813 NICHOLAS CIRCLE","AMARILLO","TX",79109,35.1487712210001,-101.918208755,316,"5813 NICHOLAS CIRCLE, AMARILLO, TX, 79109","Match","Exact","5813 NICHOLAS CIR, AMARILLO, TX, 79109",632049542,"R"
250317,"5813 NORFOLK LANE","FRISCO","TX",75035,33.126451182,-96.7709839939999,317,"5813 NORFOLK LANE, FRISCO, TX, 75035","Match","Exact","5813 NORFOLK LN, FRISCO, TX, 75035",123538556,"R"
250318,"5813 STERLING OAKS DR","BRENTWOOD","TN",37027,36.0337105410001,-86.747044369,318,"5813 STERLING OAKS DR, BRENTWOOD, TN, 37027","Match","Exact","5813 STERLING OAKS DR, BRENTWOOD, TN, 37027",97221417,"L"
250319,"5813 STONEBRIDGE LANE","WAXHAW","NC",28173,34.8789734630001,-80.744204511,319,"5813 STONEBRIDGE LANE, WAXHAW, NC, 28173","Match","Exact","5813 STONEBRIDGE LN, WAXHAW, NC, 28173",14191535,"R"
250320,"5813 TELLURIDE LANE","SPOTSYLVANIA","VA",22553,38.240941816,-77.5391497909999,320,"5813 TELLURIDE LANE, SPOTSYLVANIA, VA, 22553","Match","Exact","5813 TELLURIDE LN, SPOTSYLVANIA, VA, 22553",632940784,"L"
250321,"5813","CLAYMONT","DE",19703,NA,NA,321,"5813, CLAYMONT, DE, 19703","No_Match",NA,NA,NA,NA
250322,"5814 23RD AVE S","GULFPORT","FL",33707,27.747312155,-82.712437928,322,"5814 23RD AVE S, GULFPORT, FL, 33707","Match","Exact","5814 23RD AVE S, GULFPORT, FL, 33707",124708903,"L"
250323,"5814 ALOHA DRIVE","FT WAYNE","IN",46815,41.1174217330001,-85.0677684469999,323,"5814 ALOHA DRIVE, FT WAYNE, IN, 46815","Match","Exact","5814 ALOHA DR, FORT WAYNE, IN, 46815",6384815,"R"
250324,"5814 BENTLEY AVE","CLARENDON HILLS","IL",60514,41.782299918,-87.9602414619999,324,"5814 BENTLEY AVE, CLARENDON HILLS, IL, 60514","Match","Exact","5814 BENTLEY AVE, CLARENDON HILLS, IL, 60514",651525940,"R"
250325,"5814 BLUE OAK DR","GARLAND","TX",75043,32.8435517550001,-96.572808695,325,"5814 BLUE OAK DR, GARLAND, TX, 75043","Match","Exact","5814 BLUE OAK DR, GARLAND, TX, 75043",627305051,"L"
250326,"5814 E 32ND ST","INDIANAPOLIS","IN",46218,39.8146062000001,-86.069312369,326,"5814 E 32ND ST, INDIANAPOLIS, IN, 46218","Match","Exact","5814 E 32ND ST, INDIANAPOLIS, IN, 46218",107999702,"L"
250327,"5814 FORESTHAVEN DR","HOUSTON","TX",77066,29.9729609450001,-95.511920472,327,"5814 FORESTHAVEN DR, HOUSTON, TX, 77066","Match","Exact","5814 FORESTHAVEN DR, HOUSTON, TX, 77066",96010130,"L"
250328,"5814 HERITAGE PARK DRIVE","MCCALLA","AL",35111,33.3133456510001,-87.011178123,328,"5814 HERITAGE PARK DRIVE, MCCALLA, AL, 35111","Match","Non_Exact","5814 HERITAGE PARK DR, MC CALLA, AL, 35111",624095901,"R"
250329,"5814 HWY 348","OLATHE","CO",81425,38.6056310010001,-108.009188156,329,"5814 HWY 348, OLATHE, CO, 81425","Match","Non_Exact","5814 STATE HWY 348, OLATHE, CO, 81425",612976697,"R"
250330,"5814 KNOLLWOOD TRL","SPRING","TX",77373,30.036414516,-95.34029025,330,"5814 KNOLLWOOD TRL, SPRING, TX, 77373","Match","Exact","5814 KNOLLWOOD TRL, SPRING, TX, 77373",627677727,"L"
250331,"5814 LE CARPE PLANTATION COURT","KATY","TX",77449,29.856852084,-95.7103710869999,331,"5814 LE CARPE PLANTATION COURT, KATY, TX, 77449","Match","Exact","5814 LE CARPE PLANTATION CT, KATY, TX, 77449",624592442,"L"
250332,"5814 OAK MEADOW DRIVE","ALEXANDER","AR",72002,NA,NA,332,"5814 OAK MEADOW DRIVE, ALEXANDER, AR, 72002","No_Match",NA,NA,NA,NA
250333,"5814 RANDLESWOOD CT","SAN JOSE","CA",95129,37.3065339940001,-122.004634909,333,"5814 RANDLESWOOD CT, SAN JOSE, CA, 95129","Match","Exact","5814 RANDLESWOOD CT, SAN JOSE, CA, 95129",122942067,"L"
250334,"5814 RICH ROAD","CLARE","IL",60111,41.9722564460001,-88.8334084689999,334,"5814 RICH ROAD, CLARE, IL, 60111","Match","Exact","5814 RICH RD, CLARE, IL, 60111",642647599,"R"
250335,"5814 S ARLINGTON AVE","INDIANAPOLIS","IN",46237,39.6843362280001,-86.06354299,335,"5814 S ARLINGTON AVE, INDIANAPOLIS, IN, 46237","Match","Exact","5814 S ARLINGTON AVE, INDIANAPOLIS, IN, 46237",108029770,"R"
250336,"5814 STOCKTON ROAD","PHILADELPHIA","PA",19134,40.0525207040001,-75.1600539029999,336,"5814 STOCKTON ROAD, PHILADELPHIA, PA, 19134","Match","Non_Exact","5814 STOCKTON RD, PHILADELPHIA, PA, 19138",131395701,"L"
250337,"5814 W 33RD PLACE","INDIANAPOLIS","IN",46224,39.815776881,-86.262742402,337,"5814 W 33RD PLACE, INDIANAPOLIS, IN, 46224","Match","Exact","5814 W 33RD PL, INDIANAPOLIS, IN, 46224",107978056,"R"
250338,"5814 W 97TH STREET","OAK LAWN","IL",60453,41.7160772340001,-87.765696678,338,"5814 W 97TH STREET, OAK LAWN, IL, 60453","Match","Exact","5814 97TH ST, OAK LAWN, IL, 60453",111812997,"R"
250339,"5814 W MASTER STREET","PHILADELPHIA","PA",19131,39.9730745310001,-75.23688208,339,"5814 W MASTER STREET, PHILADELPHIA, PA, 19131","Match","Exact","5814 MASTER ST, PHILADELPHIA, PA, 19131",131398190,"L"
250340,"5814 W PEORIA AVE","GLENDALE","AZ",85308,33.581929132,-112.1843968,340,"5814 W PEORIA AVE, GLENDALE, AZ, 85308","Match","Non_Exact","5814 W PEORIA AVE, GLENDALE, AZ, 85302",128417796,"R"
250341,"5814 WILLOWS AVE","PHILADELPHIA","PA",19142,39.9400678220001,-75.233939762,341,"5814 WILLOWS AVE, PHILADELPHIA, PA, 19142","Match","Non_Exact","5814 WILLOWS AVE, PHILADELPHIA, PA, 19143",131399400,"L"
250342,"5814 WINGATE DR","TOLEDO","OH",43615,NA,NA,342,"5814 WINGATE DR, TOLEDO, OH, 43615","No_Match",NA,NA,NA,NA
250343,"5815 CINNAMON CREEK CIRCLE","HOUSTON","TX",77084,29.8605153780001,-95.626767144,343,"5815 CINNAMON CREEK CIRCLE, HOUSTON, TX, 77084","Match","Exact","5815 CINNAMON CREEK CIR, HOUSTON, TX, 77084",96566530,"R"
250344,"5815 E LAPALMA AVE SPACE 303","ANAHEIM","CA",92807,33.8603402320001,-117.78243731,344,"5815 E LAPALMA AVE SPACE 303, ANAHEIM, CA, 92807","Match","Non_Exact","5815 E LA PALMA AVE, ANAHEIM, CA, 92807",647276641,"R"
250345,"5815 GREEN FALLS DRIVE","HOUSTON","TX",77088,29.8831230330001,-95.474454312,345,"5815 GREEN FALLS DRIVE, HOUSTON, TX, 77088","Match","Exact","5815 GREEN FALLS DR, HOUSTON, TX, 77088",96026725,"L"
250346,"5815 GULFTON ST 3075","HOUSTON","TX",77081,29.7164446150001,-95.483242495,346,"5815 GULFTON ST 3075, HOUSTON, TX, 77081","Match","Exact","5815 GULFTON ST, HOUSTON, TX, 77081",96614912,"L"
250347,"5815 JOPPA MILL RD","MONETA","VA",24121,37.2503960700001,-79.6226785659999,347,"5815 JOPPA MILL RD, MONETA, VA, 24121","Match","Exact","5815 JOPPA MILL RD, MONETA, VA, 24121",228439474,"L"
250348,"5815 KALANIANAOLE HIGHWAY","HONOLULU","HI",96821,21.2824073510001,-157.732695974,348,"5815 KALANIANAOLE HIGHWAY, HONOLULU, HI, 96821","Match","Exact","5815 KALANIANAOLE HWY, HONOLULU, HI, 96821",203334049,"R"
250349,"5815 KINGS SCHOOL ROAD","BETHEL PARK","PA",15102,40.3096394610001,-80.029985708,349,"5815 KINGS SCHOOL ROAD, BETHEL PARK, PA, 15102","Match","Exact","5815 KINGS SCHOOL RD, BETHEL PARK, PA, 15102",51657635,"L"
250350,"5815 LACEY BLVD SE 8213","LACEY","WA",98503,47.0363850320001,-122.807767399,350,"5815 LACEY BLVD SE 8213, LACEY, WA, 98503","Match","Exact","5815 LACEY BLVD SE, LACEY, WA, 98503",180947687,"R"
250351,"5815 MARK DABLING BLVD","COLORADO SPRINGS","CO",80919,38.916005398,-104.821490312,351,"5815 MARK DABLING BLVD, COLORADO SPRINGS, CO, 80919","Match","Exact","5815 MARK DABLING BLVD, COLORADO SPRINGS, CO, 80919",636177104,"R"
250352,"5815 MARLBORO PIKE SUITE 102","DISTRICT HEIGHTS","MD",20747,38.85826574,-76.906877556,352,"5815 MARLBORO PIKE SUITE 102, DISTRICT HEIGHTS, MD, 20747","Match","Exact","5815 MARLBORO PIKE, DISTRICT HEIGHTS, MD, 20747",76372718,"R"
250353,"5815 MONTICELLO RD","SHAWNEE","KS",66226,39.0228774120001,-94.839436609,353,"5815 MONTICELLO RD, SHAWNEE, KS, 66226","Match","Exact","5815 MONTICELLO RD, SHAWNEE, KS, 66226",91318336,"L"
250354,"5815 MURRAY DRIVE","HANAHAN","SC",29410,32.906187732,-79.9922370209999,354,"5815 MURRAY DRIVE, HANAHAN, SC, 29410","Match","Exact","5815 MURRAY DR, HANAHAN, SC, 29410",100747913,"R"
250355,"5815 N TORREY PINES AVE","FRESNO","CA",93723,36.8201898830001,-119.910240076,355,"5815 N TORREY PINES AVE, FRESNO, CA, 93723","Match","Exact","5815 N TORREY PINES AVE, FRESNO, CA, 93723",619145164,"L"
250356,"5815 NEW ENDINGS CT","HOUSTON","TX",77048,NA,NA,356,"5815 NEW ENDINGS CT, HOUSTON, TX, 77048","No_Match",NA,NA,NA,NA
250357,"5815 PORTAL DRIVE","HOUSTON","TX",77096,29.6606386230001,-95.489286401,357,"5815 PORTAL DRIVE, HOUSTON, TX, 77096","Match","Exact","5815 PORTAL DR, HOUSTON, TX, 77096",96038249,"L"
250358,"5815 ROSEWOOD LANE N","PLYMOUTH","MN",55442,45.059318363,-93.443048873,358,"5815 ROSEWOOD LANE N, PLYMOUTH, MN, 55442","Match","Non_Exact","5815 ROSEWOOD LN, PLYMOUTH, MN, 55442",43661289,"L"
250359,"5815 SCHUMACHER LN","HOUSTON","TX",77057,29.728811089,-95.4808468589999,359,"5815 SCHUMACHER LN, HOUSTON, TX, 77057","Match","Exact","5815 SCHUMACHER LN, HOUSTON, TX, 77057",96033045,"L"
250360,"5815 SE 144TH STREET","OKLAHOMA CTY","OK",73165,NA,NA,360,"5815 SE 144TH STREET, OKLAHOMA CTY, OK, 73165","No_Match",NA,NA,NA,NA
250361,"5815 SW CORBETT AVE","PORTLAND","OR",97239,45.481753032,-122.676841487,361,"5815 SW CORBETT AVE, PORTLAND, OR, 97239","Match","Exact","5815 SW CORBETT AVE, PORTLAND, OR, 97239",157501598,"R"
250362,"5815 TUDOR LANE","ROCKVILLE","MD",20852,39.0441607130001,-77.119389564,362,"5815 TUDOR LANE, ROCKVILLE, MD, 20852","Match","Exact","5815 TUDOR LN, ROCKVILLE, MD, 20852",62089084,"R"
250363,"5815 VIKING RD","ORLANDO","FL",32808,28.5881911130001,-81.459435828,363,"5815 VIKING RD, ORLANDO, FL, 32808","Match","Exact","5815 VIKING RD, ORLANDO, FL, 32808",94269957,"R"
250364,"5815 W CAMERON DR","WILLCOX","AZ",85643,32.408680571,-109.923841405,364,"5815 W CAMERON DR, WILLCOX, AZ, 85643","Match","Exact","5815 CAMERON DR, WILLCOX, AZ, 85643",647425471,"R"
250365,"5815 WASHINGTON AVENUE","EXPORT","PA",15632,40.4176206450001,-79.6256717799999,365,"5815 WASHINGTON AVENUE, EXPORT, PA, 15632","Match","Exact","5815 WASHINGTON AVE, EXPORT, PA, 15632",52970232,"R"
250366,"5815 WINDSOR COURT","BOCA RATON","FL",33496,26.398951862,-80.1574888339999,366,"5815 WINDSOR COURT, BOCA RATON, FL, 33496","Match","Exact","5815 WINDSOR CT, BOCA RATON, FL, 33496",115491635,"R"
250367,"5815B TUUTANGAYAK ST -1103","BETHEL","AK",99559,60.7700079300001,-161.873572455,367,"5815B TUUTANGAYAK ST -1103, BETHEL, AK, 99559","Match","Exact","5815 TUUTANGAYAK ST, BETHEL, AK, 99559",191308823,"L"
250368,"5816 5TH AVENUE NORTH","ST PETERSBURG","FL",33710,27.777200743,-82.712673028,368,"5816 5TH AVENUE NORTH, ST PETERSBURG, FL, 33710","Match","Exact","5816 5TH AVE N, SAINT PETERSBURG, FL, 33710",124698570,"L"
250369,"5816 BOAT CLUB RD","FORT WORTH","TX",76179,32.8377184770001,-97.425275653,369,"5816 BOAT CLUB RD, FORT WORTH, TX, 76179","Match","Exact","5816 BOAT CLUB RD, FORT WORTH, TX, 76179",647877046,"R"
250370,"5816 CHESTERFIELD COURT","SAN JOSE","CA",95138,37.272115279,-121.753811419,370,"5816 CHESTERFIELD COURT, SAN JOSE, CA, 95138","Match","Exact","5816 CHESTERFIELD CT, SAN JOSE, CA, 95138",636426553,"L"
250371,"5816 DREXAL AVENUE","NEW MARKET MARYLAND","MD",21774,39.3913077380001,-77.298802109,371,"5816 DREXAL AVENUE, NEW MARKET MARYLAND, MD, 21774","Match","Non_Exact","5816 DREXAL AVE, NEW MARKET, MD, 21774",627011783,"L"
250372,"5816 EAST 48TH CIRCLE NORTH","WICHITA","KS",67220,37.771959994,-97.268726253,372,"5816 EAST 48TH CIRCLE NORTH, WICHITA, KS, 67220","Match","Exact","5816 E 48TH CIR N, WICHITA, KS, 67220",115672923,"L"
250373,"5816 HARRINGTON DR","ORLANDO","FL",32808,28.565780831,-81.4608880919999,373,"5816 HARRINGTON DR, ORLANDO, FL, 32808","Match","Exact","5816 HARRINGTON DR, ORLANDO, FL, 32808",94271458,"L"
250374,"5816 LAUREL COVE CT","ELK GROVE","CA",95757,38.4032660870001,-121.437243393,374,"5816 LAUREL COVE CT, ELK GROVE, CA, 95757","Match","Exact","5816 LAUREL COVE CT, ELK GROVE, CA, 95757",133435934,"R"
250375,"5816 MCCLINTOCK DRIVE","DENVER","NC",28037,35.520081642,-80.9875026019999,375,"5816 MCCLINTOCK DRIVE, DENVER, NC, 28037","Match","Exact","5816 MCCLINTOCK DR, DENVER, NC, 28037",651378463,"R"
250376,"5816 MEADOWS WAY","NORTH RICHLAND HILLS","TX",76180,32.8507034630001,-97.226331924,376,"5816 MEADOWS WAY, NORTH RICHLAND HILLS, TX, 76180","Match","Exact","5816 MEADOWS WAY, NORTH RICHLAND HILLS, TX, 76180",102122096,"L"
250377,"5816 NE 112TH STREET","VANCOUVER","WA",98686,45.7026517780001,-122.61254211,377,"5816 NE 112TH STREET, VANCOUVER, WA, 98686","Match","Exact","5816 NE 112TH ST, VANCOUVER, WA, 98686",158323489,"L"
250378,"5816 OSAGE BEACH PARKWAY SUITE 108","OSAGE BEACH","MO",65052,38.116382834,-92.6834676139999,378,"5816 OSAGE BEACH PARKWAY SUITE 108, OSAGE BEACH, MO, 65052","Match","Non_Exact","5816 OSAGE BEACH PKWY, OSAGE BEACH, MO, 65065",610865957,"R"
250379,"5816 PARADISE LANE","ORLANDO","FL",32808,28.593038361,-81.460947469,379,"5816 PARADISE LANE, ORLANDO, FL, 32808","Match","Exact","5816 PARADISE LN, ORLANDO, FL, 32808",94268898,"L"
250380,"5816 SHAKESPEARE RD  SUITE A","COLUMBIA","SC",29223,34.057118218,-80.978217195,380,"5816 SHAKESPEARE RD  SUITE A, COLUMBIA, SC, 29223","Match","Exact","5816 SHAKESPEARE RD, COLUMBIA, SC, 29223",71823153,"R"
250381,"5816 SOUTH 238TH COURT D1","KENT","WA",98032,47.387961294,-122.261529623,381,"5816 SOUTH 238TH COURT D1, KENT, WA, 98032","Match","Exact","5816 S 238TH CT, KENT, WA, 98032",186951707,"R"
250382,"5816 STANTON AVE","PITTSBURGH","PA",15206,40.4703090740001,-79.922840161,382,"5816 STANTON AVE, PITTSBURGH, PA, 15206","Match","Exact","5816 STANTON AVE, PITTSBURGH, PA, 15206",51644846,"R"
250383,"5816 W VILLARD AVE","MILWAUKEE","WI",53218,43.1120359720001,-87.9851332119999,383,"5816 W VILLARD AVE, MILWAUKEE, WI, 53218","Match","Exact","5816 W VILLARD AVE, MILWAUKEE, WI, 53218",77726773,"R"
250384,"5816 WELLBORN OAKS CT","LITHONIA","GA",30058,33.727437713,-84.153823771,384,"5816 WELLBORN OAKS CT, LITHONIA, GA, 30058","Match","Exact","5816 WELLBORN OAKS CT, LITHONIA, GA, 30058",23404133,"R"
250385,"58165 MERIAM STREET","PLAQUEMINE","LA",70764,30.2858641340001,-91.2379120859999,385,"58165 MERIAM STREET, PLAQUEMINE, LA, 70764","Match","Exact","58165 MERIAM ST, PLAQUEMINE, LA, 70764",85548844,"L"
250386,"5817 CAMPBELL STREET","HANAHAN","SC",29410,32.901591049,-80.006301704,386,"5817 CAMPBELL STREET, HANAHAN, SC, 29410","Match","Exact","5817 CAMPBELL ST, HANAHAN, SC, 29410",100747756,"R"
250387,"5817 CASA CORONADO AVE","LAS VEGAS","NV",89131,36.320847621,-115.221269391,387,"5817 CASA CORONADO AVE, LAS VEGAS, NV, 89131","Match","Exact","5817 CASA CORONADO AVE, LAS VEGAS, NV, 89131",612696613,"L"
250388,"5817 CASTLECOVE RD","CHARLOTTE","NC",28273,35.1536428160001,-80.979653903,388,"5817 CASTLECOVE RD, CHARLOTTE, NC, 28273","Match","Exact","5817 CASTLECOVE RD, CHARLOTTE, NC, 28273",612427932,"R"
250389,"5817 KILLARNEY CIRCLE","SAN JOSE","CA",95138,37.2778787930001,-121.76181157,389,"5817 KILLARNEY CIRCLE, SAN JOSE, CA, 95138","Match","Non_Exact","5817 KILLARNEY WAY, SAN JOSE, CA, 95138",629459768,"L"
250390,"5817 LAWTON COURT","LANHAM","MD",20706,38.9700432590001,-76.829049938,390,"5817 LAWTON COURT, LANHAM, MD, 20706","Match","Exact","5817 LAWTON CT, LANHAM, MD, 20706",76351923,"R"
250391,"5817 PLEASANT STREET","WEST DES MOINES","IA",50266,41.5876747080001,-93.788816695,391,"5817 PLEASANT STREET, WEST DES MOINES, IA, 50266","Match","Exact","5817 PLEASANT ST, WEST DES MOINES, IA, 50266",65795277,"L"
250392,"5817 SAFFRON AVE","GALLOWAY","OH",43119,39.924373286,-83.1483383789999,392,"5817 SAFFRON AVE, GALLOWAY, OH, 43119","Match","Exact","5817 SAFFRON AVE, GALLOWAY, OH, 43119",218675911,"L"
250393,"5817 W CHERRY CT","VISALIA","CA",93277,36.307714522,-119.355273848,393,"5817 W CHERRY CT, VISALIA, CA, 93277","Match","Exact","5817 W CHERRY CT, VISALIA, CA, 93277",202803647,"R"
250394,"5817 W DRAWBRIDGE DR","BOISE","ID",83703,NA,NA,394,"5817 W DRAWBRIDGE DR, BOISE, ID, 83703","Tie",NA,NA,NA,NA
250395,"581705 WHITE OAK RD","YULEE","FL",32097,30.7338310010001,-81.724846736,395,"581705 WHITE OAK RD, YULEE, FL, 32097","Match","Exact","581705 WHITE OAK RD, YULEE, FL, 32097",611227213,"L"
250396,"58172","LOUISVILLE","KY",40268,NA,NA,396,"58172, LOUISVILLE, KY, 40268","No_Match",NA,NA,NA,NA
250397,"5818 CATTLEYA WAY","SAN RAMON","CA",94582,37.7800826710001,-121.929532694,397,"5818 CATTLEYA WAY, SAN RAMON, CA, 94582","Match","Exact","5818 CATTLEYA WAY, SAN RAMON, CA, 94582",192111756,"R"
250398,"5818 DILLON CREEK LANE","KATY","TX",77494,29.71432715,-95.797497069,398,"5818 DILLON CREEK LANE, KATY, TX, 77494","Match","Exact","5818 DILLON CREEK LN, KATY, TX, 77494",630295594,"R"
250399,"5818 E 127TH LANE","THORNTON","CO",80602,39.9276340750001,-104.920033786,399,"5818 E 127TH LANE, THORNTON, CO, 80602","Match","Exact","5818 E 127TH LN, THORNTON, CO, 80602",641116883,"L"
250400,"5818 FIELDVIEW DR","ROANOKE","VA",24019,37.335596561,-79.8849850989999,400,"5818 FIELDVIEW DR, ROANOKE, VA, 24019","Match","Exact","5818 FIELDVIEW DR, ROANOKE, VA, 24019",635760841,"L"
250401,"5818 HAMPTON FOREST WAY","FAIRFAX","VA",22030,38.8294978480001,-77.3902565819999,401,"5818 HAMPTON FOREST WAY, FAIRFAX, VA, 22030","Match","Exact","5818 HAMPTON FOREST WAY, FAIRFAX, VA, 22030",76011000,"R"
250402,"5818 HOLMES DRIVE","ORLANDO","FL",32808,28.5720501270001,-81.460357928,402,"5818 HOLMES DRIVE, ORLANDO, FL, 32808","Match","Exact","5818 HOLMES DR, ORLANDO, FL, 32808",94424378,"L"
250403,"5818 PINETREE AVE SE","KENTWOOD","MI",49508,42.8579079450001,-85.6181814729999,403,"5818 PINETREE AVE SE, KENTWOOD, MI, 49508","Match","Exact","5818 PINETREE AVE SE, KENTWOOD, MI, 49508",642600370,"L"
250404,"5818 POOLE ROAD","RALEIGH","NC",27610,35.7570878390001,-78.5441936619999,404,"5818 POOLE ROAD, RALEIGH, NC, 27610","Match","Exact","5818 POOLE RD, RALEIGH, NC, 27610",634934599,"R"
250405,"5818 RUTLAND LANE","POWDER SPRINGS","GA",30127,33.818424973,-84.719293013,405,"5818 RUTLAND LANE, POWDER SPRINGS, GA, 30127","Match","Non_Exact","5818 RUTLAND LN SW, POWDER SPGS, GA, 30127",614186652,"L"
250406,"5818 SOUTH GLENSTONE COURT","JOHNSTON","IA",50131,41.6664222700001,-93.757806986,406,"5818 SOUTH GLENSTONE COURT, JOHNSTON, IA, 50131","Match","Exact","5818 S GLENSTONE CT, JOHNSTON, IA, 50131",617120833,"L"
250407,"5818 WARM SPRINGS ROAD","HOUSTON","TX",77035,29.656299802,-95.489736593,407,"5818 WARM SPRINGS ROAD, HOUSTON, TX, 77035","Match","Exact","5818 WARM SPRINGS RD, HOUSTON, TX, 77035",96038335,"R"
250408,"5818 WOODBROOK CT","CITRUS HEIGHTS","CA",95621,38.688937357,-121.328151087,408,"5818 WOODBROOK CT, CITRUS HEIGHTS, CA, 95621","Match","Exact","5818 WOODBROOK CT, CITRUS HEIGHTS, CA, 95621",133384839,"L"
250409,"5819 E ERIN AVENUE","FRESNO","CA",93727,36.7214849850001,-119.693893743,409,"5819 E ERIN AVENUE, FRESNO, CA, 93727","Match","Exact","5819 E ERIN AVE, FRESNO, CA, 93727",627015670,"R"
250410,"5819 EDGELAWN ST","HENRICO","VA",23231,37.5065832170001,-77.386194801,410,"5819 EDGELAWN ST, HENRICO, VA, 23231","Match","Exact","5819 EDGELAWN ST, HENRICO, VA, 23231",106650780,"R"
250411,"5819 EDGELAWN ST","RICHMOND","VA",23231,37.5065832170001,-77.386194801,411,"5819 EDGELAWN ST, RICHMOND, VA, 23231","Match","Exact","5819 EDGELAWN ST, RICHMOND, VA, 23231",106650780,"R"
250412,"5819 GATEWAY BLVD","STONE MOUNTAIN","GA",30087,33.776305725,-84.151620478,412,"5819 GATEWAY BLVD, STONE MOUNTAIN, GA, 30087","Match","Exact","5819 GATEWAY BLVD, STONE MOUNTAIN, GA, 30087",23394765,"R"
250413,"5819 GLENKIRK COURT","BALTIMORE","MD",21239,39.362834901,-76.589679385,413,"5819 GLENKIRK COURT, BALTIMORE, MD, 21239","Match","Exact","5819 GLENKIRK CT, BALTIMORE, MD, 21239",206409526,"R"
250414,"5819 HAVEN MANOR WAY","LOUISVILLE","KY",40228,38.1712956740001,-85.6369002009999,414,"5819 HAVEN MANOR WAY, LOUISVILLE, KY, 40228","Match","Exact","5819 HAVEN MANOR WAY, LOUISVILLE, KY, 40228",96931500,"L"
250415,"5819 HUNTING RIDGE LANE  APT D","CHARLOTTE","NC",28212,35.184290295,-80.750898639,415,"5819 HUNTING RIDGE LANE  APT D, CHARLOTTE, NC, 28212","Match","Exact","5819 HUNTING RIDGE LN, CHARLOTTE, NC, 28212",70565924,"L"
250416,"5819 NE ALBERTA STREET","PORTLAND","OR",97218,45.559114363,-122.602940135,416,"5819 NE ALBERTA STREET, PORTLAND, OR, 97218","Match","Exact","5819 NE ALBERTA ST, PORTLAND, OR, 97218",157511299,"L"
250417,"5819 OLD HUNTSVILLE RD","MC CALLA","AL",35111,33.339688537,-87.022830198,417,"5819 OLD HUNTSVILLE RD, MC CALLA, AL, 35111","Match","Exact","5819 OLD HUNTSVILLE RD, MC CALLA, AL, 35111",81614909,"L"
250418,"5819 ROBERT DRIVE","BROOK PARK","OH",44142,41.405751035,-81.8154816809999,418,"5819 ROBERT DRIVE, BROOK PARK, OH, 44142","Match","Exact","5819 ROBERT DR, BROOK PARK, OH, 44142",61103645,"L"
250419,"5819 RUE CHASE WAY","TUCKER","GA",30084,33.871253688,-84.168791702,419,"5819 RUE CHASE WAY, TUCKER, GA, 30084","Match","Exact","5819 RUE CHASE WAY, TUCKER, GA, 30084",636161022,"L"
250420,"5819 SALTSBURG RD","VERONA","PA",15147,40.4825035420001,-79.825369119,420,"5819 SALTSBURG RD, VERONA, PA, 15147","Match","Exact","5819 SALTSBURG RD, VERONA, PA, 15147",606377541,"L"
250421,"5819 W 74THSTREET","LOS ANGELES","CA",90045,NA,NA,421,"5819 W 74THSTREET, LOS ANGELES, CA, 90045","No_Match",NA,NA,NA,NA
250422,"582 AIRFIELD LANE","CYNTHIANA","KY",41031,38.3683491680001,-84.288890839,422,"582 AIRFIELD LANE, CYNTHIANA, KY, 41031","Match","Exact","582 AIRFIELD LN, CYNTHIANA, KY, 41031",57895996,"R"
250423,"582 BELLERIVE RD STE 4D","ANNAPOLIS","MD",21409,39.0370745980001,-76.463487409,423,"582 BELLERIVE RD STE 4D, ANNAPOLIS, MD, 21409","Match","Non_Exact","582 BELLERIVE DR, ANNAPOLIS, MD, 21409",68215733,"L"
250424,"582 CAPRI RD","COCOA BEACH","FL",32931,28.3271498410001,-80.615609187,424,"582 CAPRI RD, COCOA BEACH, FL, 32931","Match","Exact","582 CAPRI RD, COCOA BEACH, FL, 32931",93899166,"L"
250425,"582 COUNTY ROUTE 6","HIGH FALLS","NY",12440,41.800341761,-74.17743761,425,"582 COUNTY ROUTE 6, HIGH FALLS, NY, 12440","Match","Exact","582 CO RTE 6, HIGH FALLS, NY, 12440",648100240,"L"
250426,"582 DAWNVILLE RD","DALTON","GA",30721,34.8156652530001,-84.918426611,426,"582 DAWNVILLE RD, DALTON, GA, 30721","Match","Non_Exact","582 DAWNVILLE RD NE, DALTON, GA, 30721",646225263,"L"
250427,"582 E 135TH ST","GLENPOOL","OK",74033,35.9675067630001,-96.001149402,427,"582 E 135TH ST, GLENPOOL, OK, 74033","Match","Exact","582 E 135TH ST, GLENPOOL, OK, 74033",166460561,"R"
250428,"582 E 780 N","PLEASANT GROVE","UT",84062,40.371916437,-111.728293073,428,"582 E 780 N, PLEASANT GROVE, UT, 84062","Match","Exact","582 E 780 N, PLEASANT GROVE, UT, 84062",134221150,"R"
250429,"582 E HOME AVE","PALATINE","IL",60074,42.1351823540001,-88.028852854,429,"582 E HOME AVE, PALATINE, IL, 60074","Match","Exact","582 E HOME AVE, PALATINE, IL, 60074",112371166,"L"
250430,"582 ESSEX ST  UNIT 9","LAWRENCE","MA",1841,NA,NA,430,"582 ESSEX ST  UNIT 9, LAWRENCE, MA, 1841","No_Match",NA,NA,NA,NA
250431,"582 FERNDALE","FAIRFIELD","TX",75840,31.716978268,-96.1501475169999,431,"582 FERNDALE, FAIRFIELD, TX, 75840","Match","Non_Exact","582 FERNDALE LN, FAIRFIELD, TX, 75840",88976079,"R"
250432,"582 GREAT ROAD SUITE 101","NORTH SMITHFIELD","RI",2896,41.9986559110001,-71.548597421,432,"582 GREAT ROAD SUITE 101, NORTH SMITHFIELD, RI, 2896","Match","Exact","582 GREAT RD, NORTH SMITHFIELD, RI, 02896",651145721,"R"
250433,"582 HILL ROAD","DOUGLAS","GA",31533,31.597426398,-82.792905772,433,"582 HILL ROAD, DOUGLAS, GA, 31533","Match","Exact","582 HILL RD, DOUGLAS, GA, 31533",6932919,"L"
250434,"582 HUMBOLDT PARKWAY APT 1","BUFFALO","NY",14211,42.9194520390001,-78.843048542,434,"582 HUMBOLDT PARKWAY APT 1, BUFFALO, NY, 14211","Match","Exact","582 HUMBOLDT PKWY, BUFFALO, NY, 14211",48296407,"L"
250435,"582 MARKET STREE SUITE 1004","SAN FRANCISCO","CA",94104,37.790218528,-122.40025508,435,"582 MARKET STREE SUITE 1004, SAN FRANCISCO, CA, 94104","Match","Non_Exact","582 MARKET ST, SAN FRANCISCO, CA, 94104",192281536,"R"
250436,"582 MARKET STREET STE 1004","SAN FRANCISCO","CA",94104,37.790218528,-122.40025508,436,"582 MARKET STREET STE 1004, SAN FRANCISCO, CA, 94104","Match","Exact","582 MARKET ST, SAN FRANCISCO, CA, 94104",192281536,"R"
250437,"582 MISSION HILL RUN","NEW BRAUNFELS","TX",78132,29.710340746,-98.173016644,437,"582 MISSION HILL RUN, NEW BRAUNFELS, TX, 78132","Match","Exact","582 MISSION HILL RUN, NEW BRAUNFELS, TX, 78132",650990872,"R"
250438,"582 PERRY AVE","GREENVILLE","SC",29611,34.8476686290001,-82.4295116069999,438,"582 PERRY AVE, GREENVILLE, SC, 29611","Match","Exact","582 PERRY AVE, GREENVILLE, SC, 29611",38299449,"R"
250439,"582 RIDGE PEAKS DR","COLLIERVILLE","TN",38017,35.0133327300001,-89.690804295,439,"582 RIDGE PEAKS DR, COLLIERVILLE, TN, 38017","Match","Exact","582 RIDGE PEAKS DR, COLLIERVILLE, TN, 38017",72974905,"R"
250440,"582 ROBERTS DR APT 85","RIVERDALE","GA",30274,33.566447096,-84.41085149,440,"582 ROBERTS DR APT 85, RIVERDALE, GA, 30274","Match","Exact","582 ROBERTS DR, RIVERDALE, GA, 30274",23334065,"L"
250441,"582 S GRADE RD","ALPINE","CA",91901,32.836244564,-116.801745916,441,"582 S GRADE RD, ALPINE, CA, 91901","Match","Exact","582 S GRADE RD, ALPINE, CA, 91901",619774479,"L"
250442,"582 S PINE STREET","GARDNER","KS",66030,38.8018423,-94.9335837579999,442,"582 S PINE STREET, GARDNER, KS, 66030","Match","Exact","582 S PINE ST, GARDNER, KS, 66030",627106570,"L"
250443,"582 SPRUCE CIRCLE","LOUISVILLE","CO",80027,39.974994698,-105.15035667,443,"582 SPRUCE CIRCLE, LOUISVILLE, CO, 80027","Match","Exact","582 SPRUCE CIR, LOUISVILLE, CO, 80027",220749082,"L"
250444,"582 W 68TH ST","NEWAYGO","MI",49337,43.4310091930001,-85.8146759529999,444,"582 W 68TH ST, NEWAYGO, MI, 49337","Match","Exact","582 W 68TH ST, NEWAYGO, MI, 49337",150231045,"L"
250445,"582 W MAIN ST STE 1","SYLVA","NC",28779,NA,NA,445,"582 W MAIN ST STE 1, SYLVA, NC, 28779","Tie",NA,NA,NA,NA
250446,"582 W STOCKER ST APT 3","GLENDALE","CA",91202,34.1637813340001,-118.267949567,446,"582 W STOCKER ST APT 3, GLENDALE, CA, 91202","Match","Non_Exact","582 W STOCKER ST, GLENDALE, CA, 91202",141608373,"L"
250447,"582 WATERFORD CIRCLE WEST","TARPON SPRINGS","FL",34688,28.1389219660001,-82.6902279029999,447,"582 WATERFORD CIRCLE WEST, TARPON SPRINGS, FL, 34688","Match","Exact","582 WATERFORD CIR W, TARPON SPNGS, FL, 34688",124775894,"L"
250448,"582","OAKTON","VA",22124,NA,NA,448,"582, OAKTON, VA, 22124","No_Match",NA,NA,NA,NA
250449,"5820 107TH ST APT 5","CHICAGO RIDGE","IL",60415,41.6978370320001,-87.7652377809999,449,"5820 107TH ST APT 5, CHICAGO RIDGE, IL, 60415","Match","Exact","5820 107TH ST, CHICAGO RIDGE, IL, 60415",112381383,"R"
250450,"5820 ARABIAN DR","GRAND PRAIRIE","TX",75052,32.6510756430001,-97.0001461699999,450,"5820 ARABIAN DR, GRAND PRAIRIE, TX, 75052","Match","Exact","5820 ARABIAN DR, GRAND PRAIRIE, TX, 75052",617668300,"L"
250451,"5820 ATTLEBORO DR","POWELL","TN",37849,36.0110456370001,-84.086304632,451,"5820 ATTLEBORO DR, POWELL, TN, 37849","Match","Exact","5820 ATTLEBORO DR, POWELL, TN, 37849",42665686,"L"
250452,"5820 BERKMAN DR -114","AUSTIN","TX",78723,30.312222455,-97.6936315149999,452,"5820 BERKMAN DR -114, AUSTIN, TX, 78723","Match","Exact","5820 BERKMAN DR, AUSTIN, TX, 78723",63932810,"L"
250453,"5820 CALETA DR","LANSING","MI",48911,42.6588509060001,-84.576415816,453,"5820 CALETA DR, LANSING, MI, 48911","Match","Exact","5820 CALETA DR, LANSING, MI, 48911",17514764,"L"
250454,"5820 CANE RIDGE ROAD","ANTIOCH","TN",37013,36.0155498560001,-86.641730529,454,"5820 CANE RIDGE ROAD, ANTIOCH, TN, 37013","Match","Exact","5820 CANE RIDGE RD, ANTIOCH, TN, 37013",650724000,"L"
250455,"5820 CANOGA AVE NO 250","WOODLAND HILLS","CA",91367,34.175840092,-118.597349612,455,"5820 CANOGA AVE NO 250, WOODLAND HILLS, CA, 91367","Match","Non_Exact","5820 CANOGA AVE, WOODLAND HILLS, CA, 91367",142710004,"R"
250456,"5820 COUBLE FALLS","SAN ANTONIO","TX",78253,29.4900478440001,-98.752565622,456,"5820 COUBLE FALLS, SAN ANTONIO, TX, 78253","Match","Exact","5820 COUBLE FALLS, SAN ANTONIO, TX, 78253",649972104,"L"
250457,"5820 DEVON DR","ROCKLIN","CA",95765,38.810274049,-121.270802287,457,"5820 DEVON DR, ROCKLIN, CA, 95765","Match","Exact","5820 DEVON DR, ROCKLIN, CA, 95765",106799152,"L"
250458,"5820 GLASCO STREET","MARRERO","LA",70072,29.8633793880001,-90.112866076,458,"5820 GLASCO STREET, MARRERO, LA, 70072","Match","Non_Exact","5820 GLASCO DR, MARRERO, LA, 70072",93506053,"R"
250459,"5820 HCKORY KNOLL COURT","FAIRVIEW","PA",16415,NA,NA,459,"5820 HCKORY KNOLL COURT, FAIRVIEW, PA, 16415","No_Match",NA,NA,NA,NA
250460,"5820 HIGHWAY 25 NORTH","HODGES","SC",29653,NA,NA,460,"5820 HIGHWAY 25 NORTH, HODGES, SC, 29653","No_Match",NA,NA,NA,NA
250461,"5820 KINGSFORD AVE","PARK CITY","UT",84098,40.7154722160001,-111.494267296,461,"5820 KINGSFORD AVE, PARK CITY, UT, 84098","Match","Exact","5820 KINGSFORD AVE, PARK CITY, UT, 84098",160638455,"R"
250462,"5820 MAFRAQ AVENUE NW","ALBUQUERQUE","NM",87114,35.1942971880001,-106.709600478,462,"5820 MAFRAQ AVENUE NW, ALBUQUERQUE, NM, 87114","Match","Exact","5820 MAFRAQ AVE NW, ALBUQUERQUE, NM, 87114",627734294,"R"
250463,"5820 N BITTERSWEET RD","MORGANTOWN","IN",46160,39.2794035630001,-86.22397517,463,"5820 N BITTERSWEET RD, MORGANTOWN, IN, 46160","Match","Exact","5820 BITTERSWEET RD, MORGANTOWN, IN, 46160",43527638,"L"
250464,"5820 N TYLER","MAIZE","KS",67101,37.789543472,-97.444998088,464,"5820 N TYLER, MAIZE, KS, 67101","Match","Non_Exact","5820 N TYLER RD, MAIZE, KS, 67101",647535357,"R"
250465,"5820 NW 142ND AVENUE","POLK CITY","IA",50226,NA,NA,465,"5820 NW 142ND AVENUE, POLK CITY, IA, 50226","No_Match",NA,NA,NA,NA
250466,"5820 NW 62 STREET","PARKLAND","FL",33067,26.3071872100001,-80.203576676,466,"5820 NW 62 STREET, PARKLAND, FL, 33067","Match","Exact","5820 NW 62ND ST, PARKLAND, FL, 33067",114768219,"R"
250467,"5820 OLD FRANKLIN TURNPIKE","GLADE HILL","VA",24092,37.0065617650001,-79.7773685349999,467,"5820 OLD FRANKLIN TURNPIKE, GLADE HILL, VA, 24092","Match","Exact","5820 OLD FRANKLIN TPKE, GLADE HILL, VA, 24092",56408606,"L"
250468,"5820 OLD SPRINGVILLE ROAD","PINSON","AL",35126,33.675875021,-86.6328617949999,468,"5820 OLD SPRINGVILLE ROAD, PINSON, AL, 35126","Match","Non_Exact","5820 OLD SPRINGVILLE RD NE, PINSON, AL, 35126",650006936,"R"
250469,"5820 REPETTO AVE","LOS ANGELES","CA",90022,NA,NA,469,"5820 REPETTO AVE, LOS ANGELES, CA, 90022","No_Match",NA,NA,NA,NA
250470,"5820 SW 1ST PLACE","CAPE CORAL","FL",33914,26.5431636530001,-81.97695715,470,"5820 SW 1ST PLACE, CAPE CORAL, FL, 33914","Match","Exact","5820 SW 1ST PL, CAPE CORAL, FL, 33914",118013232,"R"
250471,"5820 W 85TH STREET STE 203","INDIANAPOLIS","IN",46278,39.9096490850001,-86.263176099,471,"5820 W 85TH STREET STE 203, INDIANAPOLIS, IN, 46278","Match","Exact","5820 85TH ST, INDIANAPOLIS, IN, 46278",108018295,"R"
250472,"5820 W CHICAGO AVE","CHICAGO","IL",60651,41.8947838720001,-87.770776924,472,"5820 W CHICAGO AVE, CHICAGO, IL, 60651","Match","Exact","5820 W CHICAGO AVE, CHICAGO, IL, 60651",111753814,"R"
250473,"5820 W CHICAGO AVENUE","CHICAGO","IL",60651,41.8947838720001,-87.770776924,473,"5820 W CHICAGO AVENUE, CHICAGO, IL, 60651","Match","Exact","5820 W CHICAGO AVE, CHICAGO, IL, 60651",111753814,"R"
250474,"5820 W CYPRESS ST STE B","TAMPA","FL",33607,27.952476974,-82.540691136,474,"5820 W CYPRESS ST STE B, TAMPA, FL, 33607","Match","Non_Exact","5820 W CYPRESS ST, TAMPA, FL, 33607",641356104,"L"
250475,"5820 WEST CHICAGO AVENUE","CHICAGO","IL",60651,41.8947839680001,-87.770769674,475,"5820 WEST CHICAGO AVENUE, CHICAGO, IL, 60651","Match","Exact","5820 W CHICAGO AVE, CHICAGO, IL, 60651",111753814,"R"
250476,"5820 WOODLAND RD","BARTLESVILLE","OK",74006,36.7359023380001,-95.9070302489999,476,"5820 WOODLAND RD, BARTLESVILLE, OK, 74006","Match","Exact","5820 WOODLAND RD, BARTLESVILLE, OK, 74006",18719686,"R"
250477,"5821 6TH AVENUE","KENOSHA","WI",53140,42.58303197,-87.818151797,477,"5821 6TH AVENUE, KENOSHA, WI, 53140","Match","Exact","5821 6TH AVE, KENOSHA, WI, 53140",79800912,"L"
250478,"5821 BEACH BLVD SUITE 100","BUENA PARK","CA",90621,NA,NA,478,"5821 BEACH BLVD SUITE 100, BUENA PARK, CA, 90621","No_Match",NA,NA,NA,NA
250479,"5821 BRYANSTONE PLACE","RALEIGH","NC",27610,35.726775479,-78.556665165,479,"5821 BRYANSTONE PLACE, RALEIGH, NC, 27610","Match","Exact","5821 BRYANSTONE PL, RALEIGH, NC, 27610",72664969,"L"
250480,"5821 ETHELBERT AVE","BALTIMORE","MD",21215,39.3564274400001,-76.68361019,480,"5821 ETHELBERT AVE, BALTIMORE, MD, 21215","Match","Exact","5821 ETHELBERT AVE, BALTIMORE, MD, 21215",206404607,"R"
250481,"5821 HIGHLAND AVE","RICHMOND","CA",94804,37.913006915,-122.314283443,481,"5821 HIGHLAND AVE, RICHMOND, CA, 94804","Match","Exact","5821 HIGHLAND AVE, RICHMOND, CA, 94804",192043606,"L"
250482,"5821 KEEBLER DRIVE WEST","SOUTHAVEN","MS",38671,34.946678331,-89.975921162,482,"5821 KEEBLER DRIVE WEST, SOUTHAVEN, MS, 38671","Match","Non_Exact","5821 KEEBLER DR, SOUTHAVEN, MS, 38671",632594088,"L"
250483,"5821 LARCHWOOD AVE","SARASOTA","FL",34231,27.2684606660001,-82.531761901,483,"5821 LARCHWOOD AVE, SARASOTA, FL, 34231","Match","Exact","5821 LARCHWOOD AVE, SARASOTA, FL, 34231",16353891,"L"
250484,"5821 LORELEI AVE","LAKEWOOD","CA",90712,33.8610852240001,-118.12900309,484,"5821 LORELEI AVE, LAKEWOOD, CA, 90712","Match","Exact","5821 LORELEI AVE, LAKEWOOD, CA, 90712",642863555,"L"
250485,"5821 MANCHESTER ROAD","NEW FRANKLIN","OH",44319,40.946610793,-81.568069843,485,"5821 MANCHESTER ROAD, NEW FRANKLIN, OH, 44319","Match","Exact","5821 MANCHESTER RD, NEW FRANKLIN, OH, 44319",633565683,"L"
250486,"5821 NW 12TH COURT","SUNRISE","FL",33313,26.1395171720001,-80.227771193,486,"5821 NW 12TH COURT, SUNRISE, FL, 33313","Match","Exact","5821 NW 12TH CT, SUNRISE, FL, 33313",114704741,"R"
250487,"5821 PALM LANE","DALLAS","TX",75206,32.837473629,-96.767319651,487,"5821 PALM LANE, DALLAS, TX, 75206","Match","Exact","5821 PALM LN, DALLAS, TX, 75206",102918360,"L"
250488,"5821 SAN AMARO DRIVE","CORAL GABLES","FL",33146,25.7232085970001,-80.280903903,488,"5821 SAN AMARO DRIVE, CORAL GABLES, FL, 33146","Match","Exact","5821 SAN AMARO DR, CORAL GABLES, FL, 33146",116013419,"L"
250489,"5821 SE POWELL BLV","PORTLAND","OR",97206,45.497475717,-122.60276316,489,"5821 SE POWELL BLV, PORTLAND, OR, 97206","Match","Exact","5821 SE POWELL BLVD, PORTLAND, OR, 97206",157515035,"L"
250490,"5821 STATE ROAD 21","KEYSTONE HEIGHTS","FL",32656,NA,NA,490,"5821 STATE ROAD 21, KEYSTONE HEIGHTS, FL, 32656","No_Match",NA,NA,NA,NA
250491,"5821 SW 22ND STREET","MIAMI","FL",33155,25.7503301310001,-80.289924565,491,"5821 SW 22ND STREET, MIAMI, FL, 33155","Match","Exact","5821 SW 22ND ST, MIAMI, FL, 33155",115977827,"R"
250492,"5821 WEST OUTER DRIVE","DETROIT","MI",48235,42.4201131610001,-83.177966871,492,"5821 WEST OUTER DRIVE, DETROIT, MI, 48235","Match","Exact","5821 W OUTER DR, DETROIT, MI, 48235",95424522,"L"
250493,"5821 WEST ROAD","BEEVILLE","TX",78102,28.4781089900001,-97.811279573,493,"5821 WEST ROAD, BEEVILLE, TX, 78102","Match","Exact","5821 WEST RD, BEEVILLE, TX, 78102",35625178,"R"
250494,"5822 5TH AVE","LOS ANGELES","CA",90043,33.988585357,-118.322515544,494,"5822 5TH AVE, LOS ANGELES, CA, 90043","Match","Exact","5822 5TH AVE, LOS ANGELES, CA, 90043",141657849,"L"
250495,"5822 CHANEY ROAD","BLACKSHEAR","GA",31516,31.2770137000001,-82.2157364729999,495,"5822 CHANEY ROAD, BLACKSHEAR, GA, 31516","Match","Exact","5822 CHANEY RD, BLACKSHEAR, GA, 31516",4605425,"R"
250496,"5822 GRAPE STREET","HOUSTON","TX",77074,29.685377578,-95.4942874179999,496,"5822 GRAPE STREET, HOUSTON, TX, 77074","Match","Exact","5822 GRAPE ST, HOUSTON, TX, 77074",96037708,"R"
250497,"5822 MABEL RD","WILLIAMSBURG","MI",49690,44.7701677640001,-85.358339724,497,"5822 MABEL RD, WILLIAMSBURG, MI, 49690","Match","Exact","5822 MABEL RD, WILLIAMSBURG, MI, 49690",145532880,"R"
250498,"5822 NE 109TH AVE","PORTLAND","OR",97220,45.5647773210001,-122.550651424,498,"5822 NE 109TH AVE, PORTLAND, OR, 97220","Match","Exact","5822 NE 109TH AVE, PORTLAND, OR, 97220",157518180,"R"
250499,"5822 NEW HOPE ROAD","GRANTS PASS","OR",97527,42.360365631,-123.367130179,499,"5822 NEW HOPE ROAD, GRANTS PASS, OR, 97527","Match","Exact","5822 NEW HOPE RD, GRANTS PASS, OR, 97527",156610403,"R"
250500,"5822 NORTH 92ND STREET","MILWAUKEE","WI",53225,43.1235242990001,-88.027042302,500,"5822 NORTH 92ND STREET, MILWAUKEE, WI, 53225","Match","Exact","5822 N 92ND ST, MILWAUKEE, WI, 53225",77724904,"R"
