"ID","Address","City","State","Zip","lat","long","id","input_address","match_indicator","match_type","matched_address","tiger_line_id","tiger_side"
63501,"1452 PIERCE STREET","BIRMINGHAM","MI",48009,42.5360382540001,-83.2143960779999,1,"1452 PIERCE STREET, BIRMINGHAM, MI, 48009","Match","Exact","1452 PIERCE ST, BIRMINGHAM, MI, 48009",69735418,"R"
63502,"1452 RANDOLPH STREET 300","DETROIT","MI",48226,42.336119162,-83.045958346,2,"1452 RANDOLPH STREET 300, DETROIT, MI, 48226","Match","Exact","1452 RANDOLPH ST, DETROIT, MI, 48226",95479929,"R"
63503,"1452 S 1000 E","SALT LAKE CITY","UT",84105,40.7381729960001,-111.862464308,3,"1452 S 1000 E, SALT LAKE CITY, UT, 84105","Match","Non_Exact","1452 S 1000 E, SALT LAKE CITY, UT, 84105",176080516,"R"
63504,"1452 S GROVE LANE CT","SUTHERLIN","OR",97479,43.392736584,-123.29205464,4,"1452 S GROVE LANE CT, SUTHERLIN, OR, 97479","Match","Exact","1452 GROVE LANE CT, SUTHERLIN, OR, 97479",137236034,"R"
63505,"1452 SLATE RUN ROAD","NEW ALBANY","IN",47150,38.3147961920001,-85.800082619,5,"1452 SLATE RUN ROAD, NEW ALBANY, IN, 47150","Match","Exact","1452 SLATE RUN RD, NEW ALBANY, IN, 47150",642550259,"R"
63506,"1452 SOUTH 1000 WEST","FARMLAND","IN",47340,40.143655347,-85.1653732089999,6,"1452 SOUTH 1000 WEST, FARMLAND, IN, 47340","Match","Exact","1452 S 1000 W, FARMLAND, IN, 47340",31223810,"L"
63507,"1452 SPRINGFIELD STREET","UPLAND","CA",91786,NA,NA,7,"1452 SPRINGFIELD STREET, UPLAND, CA, 91786","Tie",NA,NA,NA,NA
63508,"1452 VILLA JUNO DRIVE NORTH","JUNO BEACH","FL",33408,26.8633637630001,-80.056266637,8,"1452 VILLA JUNO DRIVE NORTH, JUNO BEACH, FL, 33408","Match","Exact","1452 VILLA JUNO DR N, JUNO BEACH, FL, 33408",649892676,"R"
63509,"1452 W 48TH ST","LOS ANGELES","CA",90062,34.0000837520001,-118.302028242,9,"1452 W 48TH ST, LOS ANGELES, CA, 90062","Match","Exact","1452 W 48TH ST, LOS ANGELES, CA, 90062",652033638,"L"
63510,"1452 W MORELOS ST","CHANDLER","AZ",85224,33.293156427,-111.866391978,10,"1452 W MORELOS ST, CHANDLER, AZ, 85224","Match","Exact","1452 W MORELOS ST, CHANDLER, AZ, 85224",128778265,"R"
63511,"1452 WRANGLER ST","TWIN FALLS","ID",83301,42.5246249470001,-114.483281543,11,"1452 WRANGLER ST, TWIN FALLS, ID, 83301","Match","Exact","1452 WRANGLER ST, TWIN FALLS, ID, 83301",118798719,"L"
63512,"14520 12TH AVENUE NE","SHORELINE","WA",98155,47.734107884,-122.315434355,12,"14520 12TH AVENUE NE, SHORELINE, WA, 98155","Match","Exact","14520 12TH AVE NE, SHORELINE, WA, 98155",239761097,"R"
63513,"14520 BRIAR FOREST DRIVE APT 2206","HOUSTON","TX",77077,29.7558772360001,-95.640039727,13,"14520 BRIAR FOREST DRIVE APT 2206, HOUSTON, TX, 77077","Match","Exact","14520 BRIAR FOREST DR, HOUSTON, TX, 77077",650103355,"L"
63514,"14520 CHAMBERRY CIR","HAYMARKET","VA",20169,38.832795914,-77.620565046,14,"14520 CHAMBERRY CIR, HAYMARKET, VA, 20169","Match","Exact","14520 CHAMBERRY CIR, HAYMARKET, VA, 20169",635411900,"L"
63515,"14520 NE 40TH STREET SUITE 310","BELLEVUE","WA",98007,47.6459717880001,-122.146127249,15,"14520 NE 40TH STREET SUITE 310, BELLEVUE, WA, 98007","Match","Non_Exact","14520 NE 40TH ST, BELLEVUE, WA, 98007",635661310,"L"
63516,"14520 NW US HIGHWAY 441","ALACHUA","FL",32615,29.7910993,-82.482496661,16,"14520 NW US HIGHWAY 441, ALACHUA, FL, 32615","Match","Exact","14520 US HWY 441, ALACHUA, FL, 32615",637942943,"R"
63517,"14520 S CRUMP LANE","ASHLAND","MO",65010,38.7800060270001,-92.262500372,17,"14520 S CRUMP LANE, ASHLAND, MO, 65010","Match","Exact","14520 S CRUMP LN, ASHLAND, MO, 65010",605004950,"R"
63518,"14520 W CROCUS DR","SURPRISE","AZ",85379,33.6140475130001,-112.37320599,18,"14520 W CROCUS DR, SURPRISE, AZ, 85379","Match","Exact","14520 W CROCUS DR, SURPRISE, AZ, 85379",244002150,"L"
63519,"14520 WESTWAY LN","HOUSTON","TX",77077,29.759308619,-95.641223423,19,"14520 WESTWAY LN, HOUSTON, TX, 77077","Match","Exact","14520 WESTWAY LN, HOUSTON, TX, 77077",96623738,"R"
63520,"14521 FARMCREST PLACE","SILVER SPRING","MD",20905,39.094787018,-76.983204526,20,"14521 FARMCREST PLACE, SILVER SPRING, MD, 20905","Match","Exact","14521 FARMCREST PL, SILVER SPRING, MD, 20905",62083797,"R"
63521,"14521 FAUST AVE","DETROIT","MI",48223,42.394108391,-83.222624861,21,"14521 FAUST AVE, DETROIT, MI, 48223","Match","Exact","14521 FAUST AVE, DETROIT, MI, 48223",95423412,"L"
63522,"14521 MARSALA WAY","NAPLES","FL",34109,NA,NA,22,"14521 MARSALA WAY, NAPLES, FL, 34109","No_Match",NA,NA,NA,NA
63523,"14521 NORTHWEST BOULEVARD","CORPUS CHRISTI","TX",78410,NA,NA,23,"14521 NORTHWEST BOULEVARD, CORPUS CHRISTI, TX, 78410","No_Match",NA,NA,NA,NA
63524,"14522 260TH AVE SE","ISSAQUAH","WA",98027,47.47171081,-121.993730631,24,"14522 260TH AVE SE, ISSAQUAH, WA, 98027","Match","Exact","14522 260TH AVE SE, ISSAQUAH, WA, 98027",239770090,"R"
63525,"14523 CORLETT AVE","RANCHO DOMINGUEZ","CA",90220,33.900291516,-118.256039491,25,"14523 CORLETT AVE, RANCHO DOMINGUEZ, CA, 90220","Match","Non_Exact","14523 S CORLETT AVE, RANCHO DOMINGUEZ, CA, 90220",142690822,"R"
63526,"14523 VINE AVE","HARVEY","IL",60426,41.625691019,-87.6535813039999,26,"14523 VINE AVE, HARVEY, IL, 60426","Match","Exact","14523 VINE AVE, HARVEY, IL, 60426",111873642,"L"
63527,"14524 PRAIRIE PASS","SAN ANTONIO","TX",78254,29.5245949060001,-98.783341163,27,"14524 PRAIRIE PASS, SAN ANTONIO, TX, 78254","Match","Exact","14524 PRAIRIE PASS, SAN ANTONIO, TX, 78254",645192382,"L"
63528,"14525 216TH AVE NE","WOODINVILLE","WA",98077,47.733123145,-122.049381776,28,"14525 216TH AVE NE, WOODINVILLE, WA, 98077","Match","Exact","14525 216TH AVE NE, WOODINVILLE, WA, 98077",631821443,"L"
63529,"14525 BLAINE AVE","BELLFLOWER","CA",90706,33.9001502680001,-118.126429021,29,"14525 BLAINE AVE, BELLFLOWER, CA, 90706","Match","Exact","14525 BLAINE AVE, BELLFLOWER, CA, 90706",142773750,"R"
63530,"14525 CAMPGROUND ROAD","DELHI","CA",95315,37.4073892420001,-120.754890466,30,"14525 CAMPGROUND ROAD, DELHI, CA, 95315","Match","Exact","14525 CAMPGROUND RD, DELHI, CA, 95315",125318607,"R"
63531,"14525 CLAYOMA AVENUE","YORK","PA",17408,NA,NA,31,"14525 CLAYOMA AVENUE, YORK, PA, 17408","No_Match",NA,NA,NA,NA
63532,"14525 LEAVITT AVENUE","DIXMOOR","IL",60426,41.6257512500001,-87.670589062,32,"14525 LEAVITT AVENUE, DIXMOOR, IL, 60426","Match","Exact","14525 LEAVITT AVE, DIXMOOR, IL, 60426",111873430,"L"
63533,"14525 S ACUFF CT","OLATHE","KS",66062,38.86538396,-94.753431501,33,"14525 S ACUFF CT, OLATHE, KS, 66062","Match","Exact","14525 S ACUFF CT, OLATHE, KS, 66062",91300699,"L"
63534,"14525 S MANISTEE AVE UNIT 3B","BURNHAM","IL",60633,41.6310829290001,-87.555430665,34,"14525 S MANISTEE AVE UNIT 3B, BURNHAM, IL, 60633","Match","Non_Exact","14525 S MANISTEE AVE, BURNHAM, IL, 60633",111779901,"L"
63535,"14525 SHADY HILLS RD","SPRING HILL","FL",34610,28.372613958,-82.548259079,35,"14525 SHADY HILLS RD, SPRING HILL, FL, 34610","Match","Exact","14525 SHADY HILLS RD, SPRING HILL, FL, 34610",641377661,"L"
63536,"14525 SPANISH BREAKS TRAIL","GALLATIN GATEWAY","MT",59730,45.5671036580001,-111.204846711,36,"14525 SPANISH BREAKS TRAIL, GALLATIN GATEWAY, MT, 59730","Match","Exact","14525 SPANISH BREAKS TRL, GALLATIN GATEWAY, MT, 59730",163547029,"L"
63537,"14526 IRON HORSESHOE LN","HOUSTON","TX",77044,29.936622216,-95.178161849,37,"14526 IRON HORSESHOE LN, HOUSTON, TX, 77044","Match","Exact","14526 IRON HORSESHOE LN, HOUSTON, TX, 77044",627678824,"R"
63538,"14526 OLD KATY RD   SUITE 200","HOUSTON","TX",77079,29.78634887,-95.644546615,38,"14526 OLD KATY RD   SUITE 200, HOUSTON, TX, 77079","Match","Non_Exact","14526 OLD KATY RD, HOUSTON, TX, 77079",638123460,"L"
63539,"14526 PINEY ROAD","MULBERRY","AR",72947,35.586041859,-94.06037133,39,"14526 PINEY ROAD, MULBERRY, AR, 72947","Match","Exact","14526 PINEY RD, MULBERRY, AR, 72947",610625035,"R"
63540,"14526 S EDBROOKE","RIVERDALE","IL",60827,41.6313018650001,-87.6184273219999,40,"14526 S EDBROOKE, RIVERDALE, IL, 60827","Match","Non_Exact","14526 S EDBROOKE AVE, RIVERDALE, IL, 60827",604990034,"R"
63541,"14526 W 91ST PLACE","LENEXA","KS",66215,38.9624063360001,-94.752442533,41,"14526 W 91ST PLACE, LENEXA, KS, 66215","Match","Exact","14526 W 91ST PL, LENEXA, KS, 66215",91271014,"R"
63542,"14526 WEDDINGTON ST UNIT 107","SHERMAN OAKS","CA",91411,34.166665568,-118.449459438,42,"14526 WEDDINGTON ST UNIT 107, SHERMAN OAKS, CA, 91411","Match","Exact","14526 WEDDINGTON ST, SHERMAN OAKS, CA, 91411",652036733,"L"
63543,"14527 DANEWAY DR","FRISCO","TX",75035,33.1269013410001,-96.7494503679999,43,"14527 DANEWAY DR, FRISCO, TX, 75035","Match","Exact","14527 DANEWAY DR, FRISCO, TX, 75035",647647814,"R"
63544,"14527 HAZELDALE DRIVE","CYPRESS","TX",77429,29.971920063,-95.647758949,44,"14527 HAZELDALE DRIVE, CYPRESS, TX, 77429","Match","Exact","14527 HAZELDALE DR, CYPRESS, TX, 77429",635298675,"R"
63545,"14527 LOCK DRIVE","CENTREVILLE","VA",20120,38.8643615710001,-77.451205497,45,"14527 LOCK DRIVE, CENTREVILLE, VA, 20120","Match","Exact","14527 LOCK DR, CENTREVILLE, VA, 20120",649771398,"L"
63546,"14527 S SAN PEDRO ST","GARDENA","CA",90248,33.900053309,-118.268531407,46,"14527 S SAN PEDRO ST, GARDENA, CA, 90248","Match","Exact","14527 S SAN PEDRO ST, GARDENA, CA, 90248",650249894,"R"
63547,"14527 TACUBA DRIVE","LA MIRADA","CA",90638,33.913568624,-118.021799349,47,"14527 TACUBA DRIVE, LA MIRADA, CA, 90638","Match","Exact","14527 TACUBA DR, LA MIRADA, CA, 90638",141750199,"L"
63548,"14528 AVIS LN SE","YELM","WA",98597,46.8761568890001,-122.621020982,48,"14528 AVIS LN SE, YELM, WA, 98597","Match","Exact","14528 AVIS LN SE, YELM, WA, 98597",180971301,"R"
63549,"14528 PERRYWOOD DRIVE","BURTONSVILLE","MD",20856,39.0949961250001,-76.94215343,49,"14528 PERRYWOOD DRIVE, BURTONSVILLE, MD, 20856","Match","Non_Exact","14528 PERRYWOOD DR, BURTONSVILLE, MD, 20866",62074197,"L"
63550,"14528 PERRYWOOD DRIVE","BURTONSVILLE","MD",20866,39.0949961250001,-76.94215343,50,"14528 PERRYWOOD DRIVE, BURTONSVILLE, MD, 20866","Match","Exact","14528 PERRYWOOD DR, BURTONSVILLE, MD, 20866",62074197,"L"
63551,"14528 SHADY RIVER AVE","EL PASO","TX",79938,31.7877331,-106.214943414,51,"14528 SHADY RIVER AVE, EL PASO, TX, 79938","Match","Exact","14528 SHADY RIVER AVE, EL PASO, TX, 79938",642023038,"R"
63552,"14529 MEMORIAL DRIVE SUITE A","HOUSTON","TX",77079,29.7701348730001,-95.603692243,52,"14529 MEMORIAL DRIVE SUITE A, HOUSTON, TX, 77079","Match","Exact","14529 MEMORIAL DR, HOUSTON, TX, 77079",642187004,"L"
63553,"1453 9TH AVE","SAN FRANCISCO","CA",94122,37.7611980080001,-122.466117427,53,"1453 9TH AVE, SAN FRANCISCO, CA, 94122","Match","Exact","1453 9TH AVE, SAN FRANCISCO, CA, 94122",192281997,"R"
63554,"1453 ASPEN LANE","BANNING","CA",92220,33.9376948560001,-116.915468173,54,"1453 ASPEN LANE, BANNING, CA, 92220","Match","Exact","1453 ASPEN LN, BANNING, CA, 92220",609011350,"L"
63555,"1453 CAMPBELL ROAD","CLARKTON","NC",28433,34.537713968,-78.6727913719999,55,"1453 CAMPBELL ROAD, CLARKTON, NC, 28433","Match","Exact","1453 CAMPBELL RD, CLARKTON, NC, 28433",647169428,"L"
63556,"1453 CHARLOTTE HWY","MOORESVILLE","NC",28115,35.6464442500001,-80.842469162,56,"1453 CHARLOTTE HWY, MOORESVILLE, NC, 28115","Match","Exact","1453 CHARLOTTE HWY, MOORESVILLE, NC, 28115",651682856,"R"
63557,"1453 E 53RD ST","CHICAGO","IL",60615,41.7995287910001,-87.590001318,57,"1453 E 53RD ST, CHICAGO, IL, 60615","Match","Exact","1453 E 53RD ST, CHICAGO, IL, 60615",111771913,"R"
63558,"1453 E BARKLEY DRIVE","MOBILE","AL",36606,30.660319826,-88.082482726,58,"1453 E BARKLEY DRIVE, MOBILE, AL, 36606","Match","Exact","1453 E BARKLEY DR, MOBILE, AL, 36606",61862710,"L"
63559,"1453 E CLEVELAND AVE","EAST POINT","GA",30344,NA,NA,59,"1453 E CLEVELAND AVE, EAST POINT, GA, 30344","Tie",NA,NA,NA,NA
63560,"1453 FOUNTAIN GLEN DRIVE","BEL AIR","MD",21015,39.5350741030001,-76.30901432,60,"1453 FOUNTAIN GLEN DRIVE, BEL AIR, MD, 21015","Match","Exact","1453 FOUNTAIN GLEN DR, BEL AIR, MD, 21015",635643345,"L"
63561,"1453 GOLDEN SUNSET DRIVE","SAN MARCOS","CA",92078,33.0982601160001,-117.204085852,61,"1453 GOLDEN SUNSET DRIVE, SAN MARCOS, CA, 92078","Match","Exact","1453 GOLDEN SUNSET DR, SAN MARCOS, CA, 92078",195762914,"L"
63562,"1453 LAMBS GROVE ROAD","ELIZABETH CITY","NC",27909,36.4399701190001,-76.421903438,62,"1453 LAMBS GROVE ROAD, ELIZABETH CITY, NC, 27909","Match","Exact","1453 LAMBS GROVE RD, ELIZABETH CITY, NC, 27909",624341589,"L"
63563,"1453 N 56TH STREET","PHILADELPHIA","PA",19131,39.9743552960001,-75.233251174,63,"1453 N 56TH STREET, PHILADELPHIA, PA, 19131","Match","Exact","1453 N 56TH ST, PHILADELPHIA, PA, 19131",131398044,"R"
63564,"1453 OVERCASH DR","DUNEDIN","FL",34698,28.028521821,-82.7547463659999,64,"1453 OVERCASH DR, DUNEDIN, FL, 34698","Match","Exact","1453 OVERCASH DR, DUNEDIN, FL, 34698",124666596,"R"
63565,"1453 OVERCASH DRIVE","DUNEDIN","FL",34698,28.028521821,-82.7547463659999,65,"1453 OVERCASH DRIVE, DUNEDIN, FL, 34698","Match","Exact","1453 OVERCASH DR, DUNEDIN, FL, 34698",124666596,"R"
63566,"1453 PEARL AVE SE","LIVE OAK","FL",32064,30.283746025,-82.982851383,66,"1453 PEARL AVE SE, LIVE OAK, FL, 32064","Match","Exact","1453 PEARL AVE SE, LIVE OAK, FL, 32064",41110833,"R"
63567,"1453 S EDGEWATER DR","CHARLESTON","SC",29407,32.770063776,-80.0032924449999,67,"1453 S EDGEWATER DR, CHARLESTON, SC, 29407","Match","Exact","1453 S EDGEWATER DR, CHARLESTON, SC, 29407",647104116,"L"
63568,"1453 S LAMAR BLVD","OXFORD","MS",38655,34.3568291330001,-89.520752374,68,"1453 S LAMAR BLVD, OXFORD, MS, 38655","Match","Exact","1453 S LAMAR BLVD, OXFORD, MS, 38655",636503734,"R"
63569,"1453 SEVER CREEK DRIVE","LAWRENCEVILLE","GA",30043,33.9848660650001,-84.06081269,69,"1453 SEVER CREEK DRIVE, LAWRENCEVILLE, GA, 30043","Match","Exact","1453 SEVER CREEK DR, LAWRENCEVILLE, GA, 30043",628079680,"L"
63570,"1453 SNAKE HILL RD","MASONTOWN","WV",26542,39.604920871,-79.829276528,70,"1453 SNAKE HILL RD, MASONTOWN, WV, 26542","Match","Exact","1453 SNAKE HILL RD, MASONTOWN, WV, 26542",648315208,"R"
63571,"1453 STATE ROUTE 344","SALEM","OH",44460,40.8883353310001,-80.8379342699999,71,"1453 STATE ROUTE 344, SALEM, OH, 44460","Match","Exact","1453 STATE RTE 344, SALEM, OH, 44460",63644603,"R"
63572,"1453 SUMMIT SHORES DR","BURNSVILLE","MN",55306,44.7404488980001,-93.2973833089999,72,"1453 SUMMIT SHORES DR, BURNSVILLE, MN, 55306","Match","Exact","1453 SUMMIT SHORES DR, BURNSVILLE, MN, 55306",37977437,"R"
63573,"1453 W 183RD STREET","GARDENA","CA",90248,33.8647146550001,-118.301174557,73,"1453 W 183RD STREET, GARDENA, CA, 90248","Match","Exact","1453 W 183RD ST, GARDENA, CA, 90248",637365035,"R"
63574,"1453 WATERMILL CIRCLE","TARPON SPRINGS","FL",34689,28.1657564610001,-82.7513437229999,74,"1453 WATERMILL CIRCLE, TARPON SPRINGS, FL, 34689","Match","Exact","1453 WATERMILL CIR, TARPON SPNGS, FL, 34689",124823213,"L"
63575,"1453 WILBUR DR NE","NORTH CANTON","OH",44720,40.8916674010001,-81.398212444,75,"1453 WILBUR DR NE, NORTH CANTON, OH, 44720","Match","Exact","1453 WILBUR DR NE, NORTH CANTON, OH, 44720",64693475,"L"
63576,"14530 CHEROKEE LANDING","MALAKOFF","TX",75148,32.2179127250001,-96.024344825,76,"14530 CHEROKEE LANDING, MALAKOFF, TX, 75148","Match","Non_Exact","14530 CHEROKEE, MALAKOFF, TX, 75148",125798082,"L"
63577,"14530 WHITE JADE TER","DELRAY BEACH","FL",33446,26.4602085990001,-80.169858163,77,"14530 WHITE JADE TER, DELRAY BEACH, FL, 33446","Match","Exact","14530 WHITE JADE TER, DELRAY BEACH, FL, 33446",648411359,"L"
63578,"14531 GLASSBORO AVE","JAMAICA","NY",11435,NA,NA,78,"14531 GLASSBORO AVE, JAMAICA, NY, 11435","No_Match",NA,NA,NA,NA
63579,"14531 RIDGE AVE","ORLAND PARK","IL",60462,41.625679006,-87.87232414,79,"14531 RIDGE AVE, ORLAND PARK, IL, 60462","Match","Exact","14531 RIDGE AVE, ORLAND PARK, IL, 60462",111873179,"L"
63580,"14532 S VAIL","DIIXMOOR","IL",60426,41.6256270600001,-87.67182544,80,"14532 S VAIL, DIIXMOOR, IL, 60426","Match","Non_Exact","14532 VAIL AVE, DIXMOOR, IL, 60426",111873429,"R"
63581,"14533 FENNEY COURT","JACKSONVILLE","FL",32258,30.114527035,-81.496189852,81,"14533 FENNEY COURT, JACKSONVILLE, FL, 32258","Match","Exact","14533 FENNEY CT, JACKSONVILLE, FL, 32258",83975596,"L"
63582,"14533 VAN BUREN","DOLTON","IL",60419,41.630838252,-87.599344446,82,"14533 VAN BUREN, DOLTON, IL, 60419","Match","Non_Exact","14533 VAN BUREN ST, DOLTON, IL, 60419",111779182,"L"
63583,"14534 DRIFTWOOD COURT","WINTER GARDEN","FL",34787,28.533864076,-81.60170176,83,"14534 DRIFTWOOD COURT, WINTER GARDEN, FL, 34787","Match","Exact","14534 DRIFTWOOD CT, WINTER GARDEN, FL, 34787",645098762,"L"
63584,"14534 SANDERSON AVE","DOLTON","IL",60419,41.6305737980001,-87.601517173,84,"14534 SANDERSON AVE, DOLTON, IL, 60419","Match","Exact","14534 SANDERSON AVE, DOLTON, IL, 60419",639823861,"R"
63585,"14534 SW 144 TERRACE","MIAMI","FL",33186,25.6327401140001,-80.4270528169999,85,"14534 SW 144 TERRACE, MIAMI, FL, 33186","Match","Exact","14534 SW 144TH TER, MIAMI, FL, 33186",647850631,"R"
63586,"14536 31ST AVE NE","SHORELINE","WA",98155,47.7344595800001,-122.295149337,86,"14536 31ST AVE NE, SHORELINE, WA, 98155","Match","Exact","14536 31ST AVE NE, SHORELINE, WA, 98155",186576439,"R"
63587,"14536 FAIRVIEW RD","SAINT PAUL","VA",24283,36.962455796,-82.384815641,87,"14536 FAIRVIEW RD, SAINT PAUL, VA, 24283","Match","Exact","14536 FAIRVIEW RD, SAINT PAUL, VA, 24283",649976988,"R"
63588,"14536 ROSCOE BLVD SUITE 96","PANORAMA CITY","CA",91402,34.2215163920001,-118.449587452,88,"14536 ROSCOE BLVD SUITE 96, PANORAMA CITY, CA, 91402","Match","Exact","14536 ROSCOE BLVD, PANORAMA CITY, CA, 91402",640424394,"L"
63589,"14536 SOUTH ELWOOD","GLENPOOL","OK",74033,35.955204227,-95.993768303,89,"14536 SOUTH ELWOOD, GLENPOOL, OK, 74033","Match","Non_Exact","14536 S ELWOOD AVE, GLENPOOL, OK, 74033",166460664,"R"
63590,"14537 SCHOONER DRIVE BOX 715","HELENDALE","CA",92342,34.7279717760001,-117.346505994,90,"14537 SCHOONER DRIVE BOX 715, HELENDALE, CA, 92342","Match","Exact","14537 SCHOONER DR, HELENDALE, CA, 92342",144564813,"L"
63591,"14537 SQUIRE LN","KIEL","WI",53042,43.921595439,-87.938670417,91,"14537 SQUIRE LN, KIEL, WI, 53042","Match","Exact","14537 SQUIRE LN, KIEL, WI, 53042",147952790,"L"
63592,"14538 ENGLISH PARK CIRCLE STE 302","LOUISVILLE","KY",40299,NA,NA,92,"14538 ENGLISH PARK CIRCLE STE 302, LOUISVILLE, KY, 40299","No_Match",NA,NA,NA,NA
63593,"14538 MINETTA ST","HOUSTON","TX",77035,29.635551854,-95.5036541279999,93,"14538 MINETTA ST, HOUSTON, TX, 77035","Match","Exact","14538 MINETTA ST, HOUSTON, TX, 77035",96595396,"R"
63594,"14538 WARWICK ST","DETROIT","MI",48223,42.39408279,-83.228672187,94,"14538 WARWICK ST, DETROIT, MI, 48223","Match","Exact","14538 WARWICK ST, DETROIT, MI, 48223",95422504,"R"
63595,"14538 WEST DIXIE HWY","MIAMI","FL",33161,25.909575116,-80.1688615099999,95,"14538 WEST DIXIE HWY, MIAMI, FL, 33161","Match","Exact","14538 W DIXIE HWY, MIAMI, FL, 33161",116254414,"L"
63596,"14539 DIPLOMAT DR","TAMPA","FL",33613,28.079430175,-82.465661729,96,"14539 DIPLOMAT DR, TAMPA, FL, 33613","Match","Exact","14539 DIPLOMAT DR, TAMPA, FL, 33613",104511682,"R"
63597,"1454 8TH AVENUE NE","THOMPSON","ND",58278,47.7881210950001,-97.143892957,97,"1454 8TH AVENUE NE, THOMPSON, ND, 58278","Match","Exact","1454 8TH AVE NE, THOMPSON, ND, 58278",171293973,"L"
63598,"1454 BETHEL RD SUITE 60","COLUMBUS","OH",43220,40.0637566680001,-83.0579499149999,98,"1454 BETHEL RD SUITE 60, COLUMBUS, OH, 43220","Match","Exact","1454 BETHEL RD, COLUMBUS, OH, 43220",218658560,"R"
63599,"1454 BILTMORE DR","ATLANTA","GA",30329,33.8186857810001,-84.323410254,99,"1454 BILTMORE DR, ATLANTA, GA, 30329","Match","Non_Exact","1454 BILTMORE DR NE, ATLANTA, GA, 30329",23359752,"L"
63600,"1454 COUNTY ROAD 4680","BOYD","TX",76023,33.062802377,-97.624086996,100,"1454 COUNTY ROAD 4680, BOYD, TX, 76023","Match","Exact","1454 CO RD 4680, BOYD, TX, 76023",653225826,"L"
63601,"1454 E 100TH STREET","LOS ANGELES","CA",90002,33.946109671,-118.248630943,101,"1454 E 100TH STREET, LOS ANGELES, CA, 90002","Match","Exact","1454 E 100TH ST, LOS ANGELES, CA, 90002",642864333,"R"
63602,"1454 E 25TH AVE","COLUMBUS","OH",43211,40.007027904,-82.9698498339999,102,"1454 E 25TH AVE, COLUMBUS, OH, 43211","Match","Exact","1454 E 25TH AVE, COLUMBUS, OH, 43211",135577853,"L"
63603,"1454 E 91 STREET","BROOKLYN","NY",11236,40.6350626,-73.8988956319999,103,"1454 E 91 STREET, BROOKLYN, NY, 11236","Match","Exact","1454 E 91ST ST, BROOKLYN, NY, 11236",59086890,"R"
63604,"1454 EAST 91 STREET","BROOKLYN","NY",11236,40.6350776840001,-73.898912383,104,"1454 EAST 91 STREET, BROOKLYN, NY, 11236","Match","Exact","1454 E 91ST ST, BROOKLYN, NY, 11236",59086890,"R"
63605,"1454 ELIZABETH BOULEVARD","PITTSBURGH","PA",15221,40.4491122000001,-79.860563755,105,"1454 ELIZABETH BOULEVARD, PITTSBURGH, PA, 15221","Match","Exact","1454 ELIZABETH BLVD, PITTSBURGH, PA, 15221",649989950,"R"
63606,"1454 ELMWOOD AVE","EVANSTON","IL",60201,42.0442493410001,-87.683545524,106,"1454 ELMWOOD AVE, EVANSTON, IL, 60201","Match","Exact","1454 ELMWOOD AVE, EVANSTON, IL, 60201",605244624,"L"
63607,"1454 FAIRMONT ST NW B","WASHINGTON","DC",20009,38.9244748840001,-77.033242913,107,"1454 FAIRMONT ST NW B, WASHINGTON, DC, 20009","Match","Exact","1454 FAIRMONT ST NW, WASHINGTON, DC, 20009",76223143,"L"
63608,"1454 FERGUSON AVENUE","ST. LOUIS","MO",63133,38.6842792630001,-90.306491689,108,"1454 FERGUSON AVENUE, ST. LOUIS, MO, 63133","Match","Exact","1454 FERGUSON AVE, SAINT LOUIS, MO, 63133",100151627,"R"
63609,"1454 FREEDOM LN","FORT COLLINS","CO",80526,40.5621807800001,-105.102805268,109,"1454 FREEDOM LN, FORT COLLINS, CO, 80526","Match","Exact","1454 FREEDOM LN, FORT COLLINS, CO, 80526",188490701,"R"
63610,"1454 GALAXY DRIVE","MANSFIELD","OH",44903,40.7214180820001,-82.459226875,110,"1454 GALAXY DRIVE, MANSFIELD, OH, 44903","Match","Exact","1454 GALAXY DR, MANSFIELD, OH, 44903",207218756,"R"
63611,"1454 MAXWELL LN","UPLAND","CA",91786,NA,NA,111,"1454 MAXWELL LN, UPLAND, CA, 91786","No_Match",NA,NA,NA,NA
63612,"1454 PANORAMA STREET","UPLAND","CA",91784,34.149293227,-117.676607194,112,"1454 PANORAMA STREET, UPLAND, CA, 91784","Match","Exact","1454 PANORAMA ST, UPLAND, CA, 91784",144696002,"L"
63613,"1454 RIVERWALK DRIVE - UNIT E","ATLANTA","GA",30349,33.6126467660001,-84.437824824,113,"1454 RIVERWALK DRIVE - UNIT E, ATLANTA, GA, 30349","Match","Exact","1454 RIVERWALK DR, ATLANTA, GA, 30349",646199478,"L"
63614,"1454 SKYLINE RIDGE LN SW","TUMWATER","WA",98512,47.0143197310001,-122.915835509,114,"1454 SKYLINE RIDGE LN SW, TUMWATER, WA, 98512","Match","Exact","1454 SKYLINE RIDGE LN SW, TUMWATER, WA, 98512",614104312,"L"
63615,"1454 STOCKTON DRIVE","ERIE","CO",80516,40.040129258,-105.063457173,115,"1454 STOCKTON DRIVE, ERIE, CO, 80516","Match","Exact","1454 STOCKTON DR, ERIE, CO, 80516",188193189,"R"
63616,"1454 TEXAS CIRCLE SOUTH","SAINT LOUIS PARK","MN",55426,NA,NA,116,"1454 TEXAS CIRCLE SOUTH, SAINT LOUIS PARK, MN, 55426","Tie",NA,NA,NA,NA
63617,"1454 W 97TH","LOS ANGELES","CA",90047,33.9477413230001,-118.301586071,117,"1454 W 97TH, LOS ANGELES, CA, 90047","Match","Non_Exact","1454 W 97TH ST, LOS ANGELES, CA, 90047",652037201,"L"
63618,"1454 W HOOD AVE","CHICAGO","IL",60660,41.993558218,-87.666597773,118,"1454 W HOOD AVE, CHICAGO, IL, 60660","Match","Exact","1454 W HOOD AVE, CHICAGO, IL, 60660",111745583,"R"
63619,"1454 W SHAW AVE SUITE A","FRESNO","CA",93711,36.8083374650001,-119.818616312,119,"1454 W SHAW AVE SUITE A, FRESNO, CA, 93711","Match","Non_Exact","1454 W SHAW AVE, FRESNO, CA, 93711",197604266,"R"
63620,"1454 WEST MARKET STREET","LIMA","OH",45805,40.740123151,-84.1342442119999,120,"1454 WEST MARKET STREET, LIMA, OH, 45805","Match","Exact","1454 W MARKET ST, LIMA, OH, 45805",35565906,"R"
63621,"14540 FAUST AVE","DETROIT","MI",48223,42.3942376680001,-83.2226152329999,121,"14540 FAUST AVE, DETROIT, MI, 48223","Match","Exact","14540 FAUST AVE, DETROIT, MI, 48223",95423412,"R"
63622,"14540 PRARIE LAKES BLVD N STE 105","NOBLESVILLE","IN",46060,39.999347722,-85.999357647,122,"14540 PRARIE LAKES BLVD N STE 105, NOBLESVILLE, IN, 46060","Match","Non_Exact","14540 PRAIRIE LAKES BLVD E, NOBLESVILLE, IN, 46060",627834065,"L"
63623,"14541 BROOKHURST STREET STE A4B","WESTMINSTER","CA",92683,33.7520852980001,-117.954896397,123,"14541 BROOKHURST STREET STE A4B, WESTMINSTER, CA, 92683","Match","Exact","14541 BROOKHURST ST, WESTMINSTER, CA, 92683",144263428,"R"
63624,"14541 DELANO STREET","VAN NUYS","CA",91411,34.1826541120001,-118.449798936,124,"14541 DELANO STREET, VAN NUYS, CA, 91411","Match","Exact","14541 DELANO ST, VAN NUYS, CA, 91411",652034370,"R"
63625,"14542 HARDY ST","OVERLAND PARK","KS",66219,38.8634380560001,-94.681115537,125,"14542 HARDY ST, OVERLAND PARK, KS, 66219","Match","Non_Exact","14542 HARDY ST, OVERLAND PARK, KS, 66223",91299948,"R"
63626,"14543 CROWLEY RD","RAYVILLE","MO",64084,39.3536184710001,-94.117215463,126,"14543 CROWLEY RD, RAYVILLE, MO, 64084","Match","Exact","14543 CROWLEY RD, RAYVILLE, MO, 64084",20978453,"R"
63627,"14543 LIBERAL","DETROIT","MI",48205,42.440011773,-82.973409854,127,"14543 LIBERAL, DETROIT, MI, 48205","Match","Non_Exact","14543 LIBERAL ST, DETROIT, MI, 48205",95468030,"L"
63628,"14543 VELLEUX DR","ORLANDO","FL",32837,28.3535510030001,-81.430262254,128,"14543 VELLEUX DR, ORLANDO, FL, 32837","Match","Exact","14543 VELLEUX DR, ORLANDO, FL, 32837",94368262,"R"
63629,"14545 CENTERLINE RD","WESTPHALIA","MI",48894,NA,NA,129,"14545 CENTERLINE RD, WESTPHALIA, MI, 48894","No_Match",NA,NA,NA,NA
63630,"14545 FRIAR STREET SUITE 103A","VAN NUYS","CA",91411,34.18567854,-118.449738863,130,"14545 FRIAR STREET SUITE 103A, VAN NUYS, CA, 91411","Match","Exact","14545 FRIAR ST, VAN NUYS, CA, 91411",652034361,"R"
63631,"14545 OREGON TRL","VICTORVILLE","CA",92342,34.479721268,-117.345629261,131,"14545 OREGON TRL, VICTORVILLE, CA, 92342","Match","Non_Exact","14545 OREGON TRL, VICTORVILLE, CA, 92392",144739567,"R"
63632,"14545 W 127TH STREET","OLATHE","KS",66062,38.8981275740001,-94.7537627,132,"14545 W 127TH STREET, OLATHE, KS, 66062","Match","Exact","14545 W 127TH ST, OLATHE, KS, 66062",640604933,"L"
63633,"14545 WILSHIRE DRIVE","DETROIT","MI",48213,42.413071657,-82.968911115,133,"14545 WILSHIRE DRIVE, DETROIT, MI, 48213","Match","Exact","14545 WILSHIRE DR, DETROIT, MI, 48213",95468627,"L"
63634,"14546 BROOK HOLLOW BLVD STE 405","SAN ANTONIO","TX",78232,29.5795035310001,-98.475528789,134,"14546 BROOK HOLLOW BLVD STE 405, SAN ANTONIO, TX, 78232","Match","Exact","14546 BROOK HOLLOW BLVD, SAN ANTONIO, TX, 78232",101715147,"R"
63635,"14546 BROOK HOLLOW BLVD SUITE 279","SAN ANTONIO","TX",78232,29.5795035310001,-98.475528789,135,"14546 BROOK HOLLOW BLVD SUITE 279, SAN ANTONIO, TX, 78232","Match","Exact","14546 BROOK HOLLOW BLVD, SAN ANTONIO, TX, 78232",101715147,"R"
63636,"14547 MARKET NORTH DRIVE","BATON ROUGE","LA",70810,30.366517204,-91.0557178769999,136,"14547 MARKET NORTH DRIVE, BATON ROUGE, LA, 70810","Match","Exact","14547 MARKET NORTH DR, BATON ROUGE, LA, 70810",646559439,"R"
63637,"14548 IBERIA CIRCLE","CHANTILLY","VA",20151,38.897867965,-77.44997294,137,"14548 IBERIA CIRCLE, CHANTILLY, VA, 20151","Match","Exact","14548 IBERIA CIR, CHANTILLY, VA, 20151",75955061,"L"
63638,"14549 CEDAR HILL DRIVE","WINTER GARDEN","FL",34787,28.4956533380001,-81.6062840659999,138,"14549 CEDAR HILL DRIVE, WINTER GARDEN, FL, 34787","Match","Exact","14549 CEDAR HILL DR, WINTER GARDEN, FL, 34787",645098162,"L"
63639,"14549 MIRABELLE VISTA CIRCLE","TAMPA","FL",33626,NA,NA,139,"14549 MIRABELLE VISTA CIRCLE, TAMPA, FL, 33626","No_Match",NA,NA,NA,NA
63640,"14549 STACY LANE","MARION","IL",62959,37.7711260660001,-88.891237329,140,"14549 STACY LANE, MARION, IL, 62959","Match","Exact","14549 STACY LN, MARION, IL, 62959",6020604,"R"
63641,"14549 TALL FIRS LN SW","PORT ORCHARD","WA",98367,47.415856165,-122.684925961,141,"14549 TALL FIRS LN SW, PORT ORCHARD, WA, 98367","Match","Exact","14549 TALL FIRS LN SW, PORT ORCHARD, WA, 98367",187654832,"R"
63642,"1455 ALTICE ROAD","MONETA","VA",24121,37.2210450200001,-79.6565533369999,142,"1455 ALTICE ROAD, MONETA, VA, 24121","Match","Exact","1455 ALTICE RD, MONETA, VA, 24121",639274451,"R"
63643,"1455 BEDROCK DRIVE","AUBURN","AL",36830,32.6378173190001,-85.4592710269999,143,"1455 BEDROCK DRIVE, AUBURN, AL, 36830","Match","Exact","1455 BEDROCK DR, AUBURN, AL, 36830",1595761,"L"
63644,"1455 BUFFALO ROAD","SMITHFIELD","NC",27577,35.5266548600001,-78.334797759,144,"1455 BUFFALO ROAD, SMITHFIELD, NC, 27577","Match","Exact","1455 BUFFALO RD, SMITHFIELD, NC, 27577",26557801,"L"
63645,"1455 COUNTY ROAD 1508","CULLMAN","AL",35058,34.241145546,-86.743950038,145,"1455 COUNTY ROAD 1508, CULLMAN, AL, 35058","Match","Exact","1455 CO RD 1508, CULLMAN, AL, 35058",130234387,"L"
63646,"1455 COVE ROAD","WEISER","ID",83672,44.2346583510001,-116.941843585,146,"1455 COVE ROAD, WEISER, ID, 83672","Match","Exact","1455 COVE RD, WEISER, ID, 83672",138427484,"L"
63647,"1455 CURTIS ST","BERKELEY","CA",94702,37.877968186,-122.291352823,147,"1455 CURTIS ST, BERKELEY, CA, 94702","Match","Exact","1455 CURTIS ST, BERKELEY, CA, 94702",124993351,"L"
63648,"1455 E 173RD","CLEVELAND","OH",44110,41.564581853,-81.55794861,148,"1455 E 173RD, CLEVELAND, OH, 44110","Match","Non_Exact","1455 E 173RD ST, CLEVELAND, OH, 44110",61123687,"L"
63649,"1455 EAST 15TH STREET","BROOKLYN","NY",11230,40.614177538,-73.959300323,149,"1455 EAST 15TH STREET, BROOKLYN, NY, 11230","Match","Exact","1455 E 15TH ST, BROOKLYN, NY, 11230",59089761,"L"
63650,"1455 EAST EDGEWOOD DRIVE","WHITEFISH","MT",59937,48.4143686680001,-114.299110592,150,"1455 EAST EDGEWOOD DRIVE, WHITEFISH, MT, 59937","Match","Exact","1455 E EDGEWOOD DR, WHITEFISH, MT, 59937",650483005,"R"
63651,"1455 EDGEWOOD LANE","MILFORD","MI",48381,42.6025470120001,-83.583280074,151,"1455 EDGEWOOD LANE, MILFORD, MI, 48381","Match","Exact","1455 EDGEWOOD LN, MILFORD, MI, 48381",69767160,"R"
63652,"1455 EUREKA RIDGE WAY","PRESCOTT","AZ",86303,34.520553174,-112.499969598,152,"1455 EUREKA RIDGE WAY, PRESCOTT, AZ, 86303","Match","Exact","1455 EUREKA RIDGE WAY, PRESCOTT, AZ, 86303",616277391,"L"
63653,"1455 FALLBROOK DR UNIT 301A","HOUSTON","TX",77065,29.9208082380001,-95.445985015,153,"1455 FALLBROOK DR UNIT 301A, HOUSTON, TX, 77065","Match","Non_Exact","1455 FALLBROOK DR, HOUSTON, TX, 77038",642107377,"R"
63654,"1455 GEORGE DUNN ROAD","ROCK HILL","SC",29730,34.891213819,-80.90464854,154,"1455 GEORGE DUNN ROAD, ROCK HILL, SC, 29730","Match","Exact","1455 GEORGE DUNN RD, ROCK HILL, SC, 29730",19810514,"L"
63655,"1455 GIBSON STREET","SAN DIEGO","CA",92114,32.71991597,-117.052416248,155,"1455 GIBSON STREET, SAN DIEGO, CA, 92114","Match","Exact","1455 GIBSON ST, SAN DIEGO, CA, 92114",195351783,"R"
63656,"1455 GLENCLIFF DR","DALLAS","TX",75217,32.738382535,-96.662369371,156,"1455 GLENCLIFF DR, DALLAS, TX, 75217","Match","Exact","1455 GLENCLIFF DR, DALLAS, TX, 75217",102961628,"R"
63657,"1455 HOKE LOOP ROAD","FAYETTEVILLE","NC",28314,35.0507256110001,-79.077345523,157,"1455 HOKE LOOP ROAD, FAYETTEVILLE, NC, 28314","Match","Exact","1455 HOKE LOOP RD, FAYETTEVILLE, NC, 28314",64252501,"R"
63658,"1455 HOLLYWOOD ST NE","WARREN","OH",44483,41.247654095,-80.798673911,158,"1455 HOLLYWOOD ST NE, WARREN, OH, 44483","Match","Exact","1455 HOLLYWOOD ST NE, WARREN, OH, 44483",117405639,"L"
63659,"1455 KETTNER BLVD SUITE 412","SAN DIEGO","CA",92101,32.720433911,-117.169158402,159,"1455 KETTNER BLVD SUITE 412, SAN DIEGO, CA, 92101","Match","Exact","1455 KETTNER BLVD, SAN DIEGO, CA, 92101",195343347,"R"
63660,"1455 LAMONT CIRCLE","DACULA","GA",30019,34.0448736600001,-83.9022628609999,160,"1455 LAMONT CIRCLE, DACULA, GA, 30019","Match","Exact","1455 LAMONT CIR, DACULA, GA, 30019",628070524,"R"
63661,"1455 LATOUR LANE UNIT 24","CONCORD","CA",94521,37.96047487,-121.981537149,161,"1455 LATOUR LANE UNIT 24, CONCORD, CA, 94521","Match","Exact","1455 LATOUR LN, CONCORD, CA, 94521",192075616,"R"
63662,"1455 LINCOLN PARKWAY SUITE 350","ATLANTA","GA",30346,NA,NA,162,"1455 LINCOLN PARKWAY SUITE 350, ATLANTA, GA, 30346","No_Match",NA,NA,NA,NA
63663,"1455 LITTLE ORCHARD ST","SAN JOSE","CA",95110,37.3127910010001,-121.877277639,163,"1455 LITTLE ORCHARD ST, SAN JOSE, CA, 95110","Match","Exact","1455 LITTLE ORCHARD ST, SAN JOSE, CA, 95110",122910676,"R"
63664,"1455 LOUISIANA AVENUE UNIT 7307","LEAGUE CITY","TX",77573,29.499456959,-95.057649538,164,"1455 LOUISIANA AVENUE UNIT 7307, LEAGUE CITY, TX, 77573","Match","Exact","1455 LOUISIANA AVE, LEAGUE CITY, TX, 77573",616368773,"L"
63665,"1455 MADISON AVE","REDWOOD CITY","CA",94061,37.4724496910001,-122.239964217,165,"1455 MADISON AVE, REDWOOD CITY, CA, 94061","Match","Exact","1455 MADISON AVE, REDWOOD CITY, CA, 94061",192362508,"L"
63666,"1455 MEMORIAL DRIVE","CALUMET CITY","IL",60409,41.6191548260001,-87.5605042669999,166,"1455 MEMORIAL DRIVE, CALUMET CITY, IL, 60409","Match","Exact","1455 MEMORIAL DR, CALUMET CITY, IL, 60409",111781170,"L"
63667,"1455 MOUNT ELLIS LANE","BOZEMAN","MT",59715,45.6452063930001,-110.960076582,167,"1455 MOUNT ELLIS LANE, BOZEMAN, MT, 59715","Match","Exact","1455 MOUNT ELLIS LN, BOZEMAN, MT, 59715",163548362,"L"
63668,"1455 N CAMINO ALTO 128","VALLEJO","CA",94589,NA,NA,168,"1455 N CAMINO ALTO 128, VALLEJO, CA, 94589","No_Match",NA,NA,NA,NA
63669,"1455 N SANDBURG TERRACE APT 501B","CHICAGO","IL",60610,NA,NA,169,"1455 N SANDBURG TERRACE APT 501B, CHICAGO, IL, 60610","No_Match",NA,NA,NA,NA
63670,"1455 N SANDBURG TERRACE UNIT 205","CHICAGO","IL",60610,NA,NA,170,"1455 N SANDBURG TERRACE UNIT 205, CHICAGO, IL, 60610","No_Match",NA,NA,NA,NA
63671,"1455 N WHITNEY ST","SAINT AUGUSTINE","FL",32084,29.906546006,-81.334907523,171,"1455 N WHITNEY ST, SAINT AUGUSTINE, FL, 32084","Match","Exact","1455 N WHITNEY ST, SAINT AUGUSTINE, FL, 32084",92581784,"L"
63672,"1455 NE BRANDI WAY E101","PULLMAN","WA",99163,46.743374675,-117.163313992,172,"1455 NE BRANDI WAY E101, PULLMAN, WA, 99163","Match","Exact","1455 BRANDI WAY, PULLMAN, WA, 99163",652083558,"L"
63673,"1455 NORTH LOS ROBLES AVE APT 4","PASADENA","CA",91104,34.1707641100001,-118.141640179,173,"1455 NORTH LOS ROBLES AVE APT 4, PASADENA, CA, 91104","Match","Exact","1455 N LOS ROBLES AVE, PASADENA, CA, 91104",141628523,"L"
63674,"1455 NW 53RD ST","MIAMI",NA,33142,25.8237374340001,-80.221432189,174,"1455 NW 53RD ST, MIAMI, , 33142","Match","Exact","1455 NW 53RD ST, MIAMI, FL, 33142",116005036,"R"
63675,"1455 NW IRVING ST SUITE 590","PORTLAND","OR",97209,45.5278864850001,-122.685831337,175,"1455 NW IRVING ST SUITE 590, PORTLAND, OR, 97209","Match","Non_Exact","1455 NW IRVING ST, PORTLAND, OR, 97209",157562829,"R"
63676,"1455 NW IRVING STREET SUITE 200","PORTLAND","OR",97209,45.5278864850001,-122.685831337,176,"1455 NW IRVING STREET SUITE 200, PORTLAND, OR, 97209","Match","Non_Exact","1455 NW IRVING ST, PORTLAND, OR, 97209",157562829,"R"
63677,"1455 NW LEARY WAY - SUITE 400","SEATTLE","WA",98107,47.663650547,-122.374916312,177,"1455 NW LEARY WAY - SUITE 400, SEATTLE, WA, 98107","Match","Non_Exact","1455 NW LEARY WAY, SEATTLE, WA, 98107",186988520,"L"
63678,"1455 OLD PARK ROAD","VILLE PLATTE","LA",70586,30.762676476,-92.306797498,178,"1455 OLD PARK ROAD, VILLE PLATTE, LA, 70586","Match","Exact","1455 OLD PARK RD, VILLE PLATTE, LA, 70586",13201045,"L"
63679,"1455 PENNSYLVANIA AVE NW /SUITE 400","WASHINGTON","DC",20004,38.896345502,-77.0328547839999,179,"1455 PENNSYLVANIA AVE NW /SUITE 400, WASHINGTON, DC, 20004","Match","Exact","1455 PENNSYLVANIA AVE NW, WASHINGTON, DC, 20004",76225888,"R"
63680,"1455 PENNSYLVANIA AVE NW STE 400","WASHINGTON","DC",20004,38.896345502,-77.0328547839999,180,"1455 PENNSYLVANIA AVE NW STE 400, WASHINGTON, DC, 20004","Match","Exact","1455 PENNSYLVANIA AVE NW, WASHINGTON, DC, 20004",76225888,"R"
63681,"1455 PENNSYLVANIA AVE NW SUITE 400","WASHINGTON","DC",20004,38.896345502,-77.0328547839999,181,"1455 PENNSYLVANIA AVE NW SUITE 400, WASHINGTON, DC, 20004","Match","Exact","1455 PENNSYLVANIA AVE NW, WASHINGTON, DC, 20004",76225888,"R"
63682,"1455 PENNSYLVANIA AVENUE NW STE 400","WASHINGTON","DC",20006,38.896345502,-77.0328547839999,182,"1455 PENNSYLVANIA AVENUE NW STE 400, WASHINGTON, DC, 20006","Match","Non_Exact","1455 PENNSYLVANIA AVE NW, WASHINGTON, DC, 20004",76225888,"R"
63683,"1455 PENNSYLVANIA AVENUE SUITE 400","WASHINGTON","DC",20004,38.896345502,-77.0328547839999,183,"1455 PENNSYLVANIA AVENUE SUITE 400, WASHINGTON, DC, 20004","Match","Non_Exact","1455 PENNSYLVANIA AVE NW, WASHINGTON, DC, 20004",76225888,"R"
63684,"1455 RIDGELANE DR","CLEARWATER","FL",33755,NA,NA,184,"1455 RIDGELANE DR, CLEARWATER, FL, 33755","No_Match",NA,NA,NA,NA
63685,"1455 S 56TH ST","MILWAUKEE","WI",53214,43.0159011040001,-87.98264031,185,"1455 S 56TH ST, MILWAUKEE, WI, 53214","Match","Exact","1455 S 56TH ST, MILWAUKEE, WI, 53214",77734437,"R"
63686,"1455 SHADOWTREE LN","LAPEER","MI",48446,43.0722434990001,-83.287580303,186,"1455 SHADOWTREE LN, LAPEER, MI, 48446","Match","Exact","1455 SHADOWTREE LN, LAPEER, MI, 48446",110458615,"L"
63687,"1455 SHIREPEAK WAY","INDEPENDENCE","KY",41051,38.9824153380001,-84.555211468,187,"1455 SHIREPEAK WAY, INDEPENDENCE, KY, 41051","Match","Exact","1455 SHIREPEAK WAY, INDEPENDENCE, KY, 41051",619742688,"R"
63688,"1455 SNOWBIRD LANE","O'FALLON","MO",63366,38.795003283,-90.6759103639999,188,"1455 SNOWBIRD LANE, O'FALLON, MO, 63366","Match","Non_Exact","1455 SNOWBIRD LN, O FALLON, MO, 63366",100087775,"L"
63689,"1455 SO  WICKHAM RD","WEST MELBOURNE","FL",32904,28.0836813600001,-80.672609495,189,"1455 SO  WICKHAM RD, WEST MELBOURNE, FL, 32904","Match","Exact","1455 S WICKHAM RD, W MELBOURNE, FL, 32904",93902814,"R"
63690,"1455 SOUTH WHITE IRON ROAD","ELY","MN",55731,47.8525918610001,-91.835282649,190,"1455 SOUTH WHITE IRON ROAD, ELY, MN, 55731","Match","Exact","1455 S WHITE IRON RD, ELY, MN, 55731",163253481,"R"
63691,"1455 SOUTH WICKHAM ROAD","WEST MELBOURNE","FL",32904,28.0836813600001,-80.672609495,191,"1455 SOUTH WICKHAM ROAD, WEST MELBOURNE, FL, 32904","Match","Exact","1455 S WICKHAM RD, W MELBOURNE, FL, 32904",93902814,"R"
63692,"1455 SOUTHWOOD DR","ASHLAND","OH",44805,40.8535507190001,-82.3433463439999,192,"1455 SOUTHWOOD DR, ASHLAND, OH, 44805","Match","Exact","1455 SOUTHWOOD DR, ASHLAND, OH, 44805",30155642,"R"
63693,"1455 ST ALBANS DR","BATON ROUGE","LA",70810,30.3592918300001,-91.058132744,193,"1455 ST ALBANS DR, BATON ROUGE, LA, 70810","Match","Exact","1455 SAINT ALBANS DR, BATON ROUGE, LA, 70810",92211144,"R"
63694,"1455 TOLKIEN DRIVE","CONWAY","AR",72034,35.100081866,-92.517310756,194,"1455 TOLKIEN DRIVE, CONWAY, AR, 72034","Match","Exact","1455 TOLKIEN DR, CONWAY, AR, 72034",647365747,"R"
63695,"1455 VICTORIAN WAY","EUGENE","OR",97401,44.0792158180001,-123.056999677,195,"1455 VICTORIAN WAY, EUGENE, OR, 97401","Match","Exact","1455 VICTORIAN WAY, EUGENE, OR, 97401",178199744,"L"
63696,"1455 VIEW CREST CT","RENO","NV",89511,39.45733634,-119.796611843,196,"1455 VIEW CREST CT, RENO, NV, 89511","Match","Exact","1455 VIEW CREST CT, RENO, NV, 89511",107108030,"L"
63697,"1455 W 111TH STREET","LOS ANGELES","CA",90047,33.9340456520001,-118.30165719,197,"1455 W 111TH STREET, LOS ANGELES, CA, 90047","Match","Exact","1455 W 111TH ST, LOS ANGELES, CA, 90047",141660866,"R"
63698,"1455 W 113TH ST","LOS ANGELES","CA",90047,33.9318498260001,-118.301656344,198,"1455 W 113TH ST, LOS ANGELES, CA, 90047","Match","Exact","1455 W 113TH ST, LOS ANGELES, CA, 90047",141660906,"R"
63699,"1455 W 27TH AVENUE APT 2","ANCHORAGE","AK",99503,61.1963066170001,-149.911446773,199,"1455 W 27TH AVENUE APT 2, ANCHORAGE, AK, 99503","Match","Non_Exact","1455 W 27TH AVE, ANCHORAGE, AK, 99503",641304373,"R"
63700,"1455 W 65TH PL","LOS ANGELES","CA",90047,33.9798281490001,-118.301655325,200,"1455 W 65TH PL, LOS ANGELES, CA, 90047","Match","Exact","1455 W 65TH PL, LOS ANGELES, CA, 90047",652036706,"R"
63701,"1455 W HWY 98","MARY ESTHER","FL",32569,NA,NA,201,"1455 W HWY 98, MARY ESTHER, FL, 32569","No_Match",NA,NA,NA,NA
63702,"1455 W RASCHER 2W","CHICAGO","IL",60640,NA,NA,202,"1455 W RASCHER 2W, CHICAGO, IL, 60640","No_Match",NA,NA,NA,NA
63703,"1455 W REDONDO BEACH BL 2370","GARDENA","CA",90247,33.8908303330001,-118.302008566,203,"1455 W REDONDO BEACH BL 2370, GARDENA, CA, 90247","Match","Non_Exact","1455 W REDONDO BEACH BLVD, GARDENA, CA, 90247",241243353,"R"
63704,"1455 WASHINGTON BLVD","STAMFORD","CT",6902,41.059592132,-73.543576415,204,"1455 WASHINGTON BLVD, STAMFORD, CT, 6902","Match","Exact","1455 WASHINGTON BLVD, STAMFORD, CT, 06902",3245430,"R"
63705,"1455 WEST 111TH STREET","LOS ANGELES","CA",90047,33.9340456520001,-118.301646871,205,"1455 WEST 111TH STREET, LOS ANGELES, CA, 90047","Match","Exact","1455 W 111TH ST, LOS ANGELES, CA, 90047",141660866,"R"
63706,"1455 WEST MAIN STREET","TIPP CITY","OH",45377,39.9610714500001,-84.1909832869999,206,"1455 WEST MAIN STREET, TIPP CITY, OH, 45377","Match","Non_Exact","1455 W MAIN ST, TIPP CITY, OH, 45371",207644756,"L"
63707,"14550 LEE RD","CHANTILLY","VA",20151,38.8906372180001,-77.450492445,207,"14550 LEE RD, CHANTILLY, VA, 20151","Match","Exact","14550 LEE RD, CHANTILLY, VA, 20151",638309075,"R"
63708,"14550 ROSEMONT AVE","DETROIT","MI",48223,42.39435933,-83.220208572,208,"14550 ROSEMONT AVE, DETROIT, MI, 48223","Match","Exact","14550 ROSEMONT AVE, DETROIT, MI, 48223",95423428,"R"
63709,"14550 YORK RD SUITE A","SPARKS","MD",21152,NA,NA,209,"14550 YORK RD SUITE A, SPARKS, MD, 21152","No_Match",NA,NA,NA,NA
63710,"14551 AKRON ST","BRIGHTON","CO",80602,39.9601112770001,-104.882772189,210,"14551 AKRON ST, BRIGHTON, CO, 80602","Match","Exact","14551 AKRON ST, BRIGHTON, CO, 80602",177455357,"L"
63711,"14551 APACHE DRIVE","VICTORVILLE","CA",92394,34.516090256,-117.345820766,211,"14551 APACHE DRIVE, VICTORVILLE, CA, 92394","Match","Exact","14551 APACHE DR, VICTORVILLE, CA, 92394",614827343,"R"
63712,"14551 INDIGO LAKES CIRCLE","NAPLES","FL",34119,NA,NA,212,"14551 INDIGO LAKES CIRCLE, NAPLES, FL, 34119","No_Match",NA,NA,NA,NA
63713,"14551 MARK TWAIN ST","DETROIT","MI",48227,42.395140428,-83.186330853,213,"14551 MARK TWAIN ST, DETROIT, MI, 48227","Match","Exact","14551 MARK TWAIN ST, DETROIT, MI, 48227",95424969,"L"
63714,"14552 N PENNSYLVANIA AVE STE 204","OKLAHOMA CITY","OK",73134,35.6184804380001,-97.5495014319999,214,"14552 N PENNSYLVANIA AVE STE 204, OKLAHOMA CITY, OK, 73134","Match","Non_Exact","14552 N PENNSYLVANIA AVE, OKLAHOMA CITY, OK, 73134",650121842,"R"
63715,"14554 ALSTONE DR","FRISCO","TX",75035,33.125269324,-96.749029792,215,"14554 ALSTONE DR, FRISCO, TX, 75035","Match","Exact","14554 ALSTONE DR, FRISCO, TX, 75035",619676284,"L"
63716,"14554 CORAM ST","DETROIT","MI",48205,42.438168197,-82.973116418,216,"14554 CORAM ST, DETROIT, MI, 48205","Match","Exact","14554 CORAM ST, DETROIT, MI, 48205",95468804,"R"
63717,"14555 DALLAS PKWY SUITE 100","DALLAS","TX",75248,NA,NA,217,"14555 DALLAS PKWY SUITE 100, DALLAS, TX, 75248","No_Match",NA,NA,NA,NA
63718,"14555 FERN","HOUSTON","TX",77079,29.775715281,-95.603528838,218,"14555 FERN, HOUSTON, TX, 77079","Match","Non_Exact","14555 FERN DR, HOUSTON, TX, 77079",96629830,"L"
63719,"14555 FM 3129","QUEEN CITY","TX",75572,NA,NA,219,"14555 FM 3129, QUEEN CITY, TX, 75572","No_Match",NA,NA,NA,NA
63720,"14555 FM3129","QUEEN CITY","TX",75572,NA,NA,220,"14555 FM3129, QUEEN CITY, TX, 75572","No_Match",NA,NA,NA,NA
63721,"14555 GREENWELL SPG PT HUDSO RD","PRIDE","LA",70770,NA,NA,221,"14555 GREENWELL SPG PT HUDSO RD, PRIDE, LA, 70770","No_Match",NA,NA,NA,NA
63722,"14555 LEVAN RD","LIVONIA","MI",48154,42.3943107430001,-83.402841713,222,"14555 LEVAN RD, LIVONIA, MI, 48154","Match","Exact","14555 LEVAN RD, LIVONIA, MI, 48154",95406571,"L"
63723,"14555 SATICOY ST APT 2","VAN NUYS","CA",91405,34.2084648330001,-118.450737388,223,"14555 SATICOY ST APT 2, VAN NUYS, CA, 91405","Match","Exact","14555 SATICOY ST, VAN NUYS, CA, 91405",141549536,"R"
63724,"14555 SE 56TH STREET","BELLEVUE","WA",98006,47.5523638380001,-122.146440198,224,"14555 SE 56TH STREET, BELLEVUE, WA, 98006","Match","Exact","14555 SE 56TH ST, BELLEVUE, WA, 98006",239781663,"R"
63725,"14555 VALLEY VIEW AVE STE C","SANTA FE SPRINGS","CA",90670,33.9003033070001,-118.029110357,225,"14555 VALLEY VIEW AVE STE C, SANTA FE SPRINGS, CA, 90670","Match","Exact","14555 VALLEY VIEW AVE, SANTA FE SPRINGS, CA, 90670",640424702,"R"
63726,"14555 VALLEY VIEW AVE","SANTA FE SPRINGS","CA",90670,33.9003033070001,-118.029110357,226,"14555 VALLEY VIEW AVE, SANTA FE SPRINGS, CA, 90670","Match","Exact","14555 VALLEY VIEW AVE, SANTA FE SPRINGS, CA, 90670",640424702,"R"
63727,"14557 SW 174TH COURT","INDIANTOWN","FL",34956,27.028184427,-80.491208534,227,"14557 SW 174TH COURT, INDIANTOWN, FL, 34956","Match","Exact","14557 SW 174TH CT, INDIANTOWN, FL, 34956",120451406,"L"
63728,"14557 SW 94 LANE","MIAMI","FL",33186,25.67821688,-80.428923755,228,"14557 SW 94 LANE, MIAMI, FL, 33186","Match","Exact","14557 SW 94TH LN, MIAMI, FL, 33186",116318404,"R"
63729,"14557 W INDIAN SCHOOL ROAD STE 500","GOODYEAR","AZ",85395,NA,NA,229,"14557 W INDIAN SCHOOL ROAD STE 500, GOODYEAR, AZ, 85395","No_Match",NA,NA,NA,NA
63730,"14558 W SPAD ST","LUKE AFB","AZ",85309,33.532003312,-112.374663409,230,"14558 W SPAD ST, LUKE AFB, AZ, 85309","Match","Exact","14558 SPAD ST, LUKE AIR FORCE BASE, AZ, 85309",128385336,"R"
63731,"14559 GREEN ST","HARVEY","IL",60426,41.6251872810001,-87.642625928,231,"14559 GREEN ST, HARVEY, IL, 60426","Match","Exact","14559 GREEN ST, HARVEY, IL, 60426",111873650,"L"
63732,"1455N90TH AVE LOT 270","VERO BEACH","FL",32966,NA,NA,232,"1455N90TH AVE LOT 270, VERO BEACH, FL, 32966","No_Match",NA,NA,NA,NA
63733,"1456 92ND AVE NE","CLYDE HILL","WA",98004,47.6242782030001,-122.217839547,233,"1456 92ND AVE NE, CLYDE HILL, WA, 98004","Match","Exact","1456 92ND AVE NE, CLYDE HILL, WA, 98004",648652499,"R"
63734,"1456 AMSTATER CIR","EL PASO","TX",79936,31.7286318290001,-106.27311332,234,"1456 AMSTATER CIR, EL PASO, TX, 79936","Match","Exact","1456 AMSTATER CIR, EL PASO, TX, 79936",189398605,"L"
63735,"1456 ARROYO AVE","SAN CARLOS","CA",94070,37.5014907090001,-122.258631794,235,"1456 ARROYO AVE, SAN CARLOS, CA, 94070","Match","Exact","1456 ARROYO AVE, SAN CARLOS, CA, 94070",192385324,"R"
63736,"1456 CACTUSRIDGE ST","SAN DIEGO","CA",92105,32.719915643,-117.115420153,236,"1456 CACTUSRIDGE ST, SAN DIEGO, CA, 92105","Match","Exact","1456 CACTUSRIDGE ST, SAN DIEGO, CA, 92105",195347287,"L"
63737,"1456 DELPHI LANE","CHARLOTTESVILLE","VA",22911,38.0405530950001,-78.4406845939999,237,"1456 DELPHI LANE, CHARLOTTESVILLE, VA, 22911","Match","Exact","1456 DELPHI LN, CHARLOTTESVILLE, VA, 22911",651951196,"L"
63738,"1456 DOGWOOD AVE","MORGANTOWN","WV",26505,39.6654819680001,-79.972698113,238,"1456 DOGWOOD AVE, MORGANTOWN, WV, 26505","Match","Exact","1456 DOGWOOD AVE, MORGANTOWN, WV, 26505",50757021,"R"
63739,"1456 E 104TH ST","BROOKLYN","NY",11236,40.6379121030001,-73.8852519769999,239,"1456 E 104TH ST, BROOKLYN, NY, 11236","Match","Exact","1456 E 104TH ST, BROOKLYN, NY, 11236",59087156,"R"
63740,"1456 E PHILADELPHIA ST SPACE 12","ONTARIO","CA",91761,34.0340091680001,-117.621355814,240,"1456 E PHILADELPHIA ST SPACE 12, ONTARIO, CA, 91761","Match","Non_Exact","1456 E PHILADELPHIA ST, ONTARIO, CA, 91761",144693207,"R"
63741,"1456 E PHILADELPHIA ST","ONTARIO","CA",91761,34.0340091680001,-117.621355814,241,"1456 E PHILADELPHIA ST, ONTARIO, CA, 91761","Match","Exact","1456 E PHILADELPHIA ST, ONTARIO, CA, 91761",144693207,"R"
63742,"1456 E PHILADELPHIA STREET SPC 365","ONTARIO","CA",91761,34.0340091680001,-117.621355814,242,"1456 E PHILADELPHIA STREET SPC 365, ONTARIO, CA, 91761","Match","Non_Exact","1456 E PHILADELPHIA ST, ONTARIO, CA, 91761",144693207,"R"
63743,"1456 E PHILANDELPHIA STE 335","ONTARIO","CA",91761,NA,NA,243,"1456 E PHILANDELPHIA STE 335, ONTARIO, CA, 91761","No_Match",NA,NA,NA,NA
63744,"1456 JEANNINE STREET","MEMPHIS","TN",38111,35.0917027460001,-89.9555502589999,244,"1456 JEANNINE STREET, MEMPHIS, TN, 38111","Match","Exact","1456 JEANNINE ST, MEMPHIS, TN, 38111",72919964,"L"
63745,"1456 LANVALE DR SW","ATLANTA","GA",30310,33.724237981,-84.435033157,245,"1456 LANVALE DR SW, ATLANTA, GA, 30310","Match","Exact","1456 LANVALE DR SW, ATLANTA, GA, 30310",17341359,"L"
63746,"1456 NORFOLK AVENUE","WESTCHESTER","IL",60154,41.858890962,-87.871224393,246,"1456 NORFOLK AVENUE, WESTCHESTER, IL, 60154","Match","Exact","1456 NORFOLK AVE, WESTCHESTER, IL, 60154",111788508,"R"
63747,"1456 NORTH 260 ROAD","CLYDE","KS",66938,39.5181818070001,-97.443938127,247,"1456 NORTH 260 ROAD, CLYDE, KS, 66938","Match","Non_Exact","1456 260TH RD, CLYDE, KS, 66938",148209450,"R"
63748,"1456 PINE MEADOWS","CHOCTAW","OK",73020,35.4508569320001,-97.2233392269999,248,"1456 PINE MEADOWS, CHOCTAW, OK, 73020","Match","Exact","1456 PINE MEADOWS, CHOCTAW, OK, 73020",635873988,"R"
63749,"1456 RIENEL RD","MEMPHIS","TN",38111,35.0922995220001,-89.932267251,249,"1456 RIENEL RD, MEMPHIS, TN, 38111","Match","Non_Exact","1456 RIENEL ST, MEMPHIS, TN, 38111",72920587,"L"
63750,"1456 ROYCE STREET APT 4","BROOKLYN","NY",11234,40.623406034,-73.907330024,250,"1456 ROYCE STREET APT 4, BROOKLYN, NY, 11234","Match","Exact","1456 ROYCE ST, BROOKLYN, NY, 11234",624268388,"R"
63751,"1456 SIERRA SPRINGS DR APT 811","BEDFORD","TX",76021,32.840069,-97.146288645,251,"1456 SIERRA SPRINGS DR APT 811, BEDFORD, TX, 76021","Match","Exact","1456 SIERRA SPRINGS DR, BEDFORD, TX, 76021",101919211,"R"
63752,"1456 W 10TH AVE","EUGENE","OR",97402,44.048826999,-123.115053575,252,"1456 W 10TH AVE, EUGENE, OR, 97402","Match","Exact","1456 W 10TH AVE, EUGENE, OR, 97402",178166059,"L"
63753,"1456 W GURLEY ST","PRESCOTT","AZ",86305,34.5439772990001,-112.492002389,253,"1456 W GURLEY ST, PRESCOTT, AZ, 86305","Match","Exact","1456 W GURLEY ST, PRESCOTT, AZ, 86305",159458391,"R"
63754,"1456 W WELLINGTON AVE","CHICAGO","IL",60657,41.9361018280001,-87.665298934,254,"1456 W WELLINGTON AVE, CHICAGO, IL, 60657","Match","Exact","1456 W WELLINGTON AVE, CHICAGO, IL, 60657",605234294,"R"
63755,"1456 WESTFIELD COURT","LENOIR","NC",28645,35.9594159810001,-81.5059476609999,255,"1456 WESTFIELD COURT, LENOIR, NC, 28645","Match","Exact","1456 WESTFIELD CT, LENOIR, NC, 28645",45864262,"R"
63756,"14560 MAGNOLIA STREET   SUITE 101","WESTMINSTER","CA",92683,33.7517800360001,-117.972141916,256,"14560 MAGNOLIA STREET   SUITE 101, WESTMINSTER, CA, 92683","Match","Exact","14560 MAGNOLIA ST, WESTMINSTER, CA, 92683",632158048,"R"
63757,"14560 WOODLAND DRIVE UNIT B","FONTANA","CA",92337,34.047047745,-117.487554882,257,"14560 WOODLAND DRIVE UNIT B, FONTANA, CA, 92337","Match","Exact","14560 WOODLAND DR, FONTANA, CA, 92337",144980986,"L"
63758,"14561 EAGLE POINTE DR","CLEARWATER","FL",33762,27.90382629,-82.663216028,258,"14561 EAGLE POINTE DR, CLEARWATER, FL, 33762","Match","Exact","14561 EAGLE POINTE DR, CLEARWATER, FL, 33762",124751501,"L"
63759,"14561 LYLE STREET","SYLMAR","CA",91342,34.305222584,-118.450677851,259,"14561 LYLE STREET, SYLMAR, CA, 91342","Match","Exact","14561 LYLE ST, SYLMAR, CA, 91342",141545803,"R"
63760,"14562 DECATUR STREET","OMAHA","NE",68154,41.2757242660001,-96.142374112,260,"14562 DECATUR STREET, OMAHA, NE, 68154","Match","Exact","14562 DECATUR ST, OMAHA, NE, 68154",116992012,"L"
63761,"14562 LAKEVIEW DR","CLIVE","IA",50325,41.6083455250001,-93.8194494099999,261,"14562 LAKEVIEW DR, CLIVE, IA, 50325","Match","Exact","14562 LAKEVIEW DR, CLIVE, IA, 50325",65636577,"L"
63762,"14563 N COUNTY RD 1000 E","SUNMAN","IN",47041,39.2891807720001,-85.0763631569999,262,"14563 N COUNTY RD 1000 E, SUNMAN, IN, 47041","Match","Exact","14563 N CO RD 1000 E, SUNMAN, IN, 47041",31519439,"L"
63763,"14563 SW 144 TER","MIAMI","FL",33186,25.6320841680001,-80.421715682,263,"14563 SW 144 TER, MIAMI, FL, 33186","Match","Exact","14563 SW 144TH TER, MIAMI, FL, 33186",116094859,"L"
63764,"14564 GATEWAY POINTE CIRCLE 8304","ORLANDO","FL",32821,NA,NA,264,"14564 GATEWAY POINTE CIRCLE 8304, ORLANDO, FL, 32821","No_Match",NA,NA,NA,NA
63765,"14566 225TH STREET","SPRINGFIELD GARDENS","NY",11413,NA,NA,265,"14566 225TH STREET, SPRINGFIELD GARDENS, NY, 11413","No_Match",NA,NA,NA,NA
63766,"14566 INKSTER ROAD","ROMULUS","MI",48174,42.198779503,-83.30663622,266,"14566 INKSTER ROAD, ROMULUS, MI, 48174","Match","Exact","14566 INKSTER RD, ROMULUS, MI, 48174",95435534,"R"
63767,"14566 REESE BLVD W UNIT 544","HUNTERSVILLE","NC",28078,35.4111833150001,-80.862403672,267,"14566 REESE BLVD W UNIT 544, HUNTERSVILLE, NC, 28078","Match","Non_Exact","14566 REESE BLVD, HUNTERSVILLE, NC, 28078",70551621,"R"
63768,"14566 W FARM ROAD 60","ASH GROVE","MO",65604,37.339541346,-93.5992590279999,268,"14566 W FARM ROAD 60, ASH GROVE, MO, 65604","Match","Non_Exact","14566 W FARM RD 60, ASH GROVE, MO, 65604",76698855,"L"
63769,"14566 WEST FARM ROAD 60","ASH GROVE","MO",65604,37.3395411560001,-93.5992501119999,269,"14566 WEST FARM ROAD 60, ASH GROVE, MO, 65604","Match","Non_Exact","14566 W FARM RD 60, ASH GROVE, MO, 65604",76698855,"L"
63770,"14567 E 47TH LN","YUMA","AZ",85367,32.6420477500001,-114.382367768,270,"14567 E 47TH LN, YUMA, AZ, 85367","Match","Exact","14567 E 47TH LN, YUMA, AZ, 85367",129680965,"L"
63771,"14567 WABASH WAY","BRIGHTON","CO",80602,39.9610286810001,-104.889457232,271,"14567 WABASH WAY, BRIGHTON, CO, 80602","Match","Exact","14567 WABASH WAY, BRIGHTON, CO, 80602",177456849,"L"
63772,"14568 3RD AVENUE","WHITESTONE","NY",11357,40.7960463960001,-73.823726229,272,"14568 3RD AVENUE, WHITESTONE, NY, 11357","Match","Exact","14568 3RD AVE, WHITESTONE, NY, 11357",59700293,"R"
63773,"14568 S QUIET SHADE DR","HERRIMAN","UT",84096,40.4882134710001,-111.997112469,273,"14568 S QUIET SHADE DR, HERRIMAN, UT, 84096","Match","Exact","14568 S QUIET SHADE DR, HERRIMAN, UT, 84096",645881560,"R"
63774,"14568 VIVA DRIVE","CORONA","CA",92880,33.9540463010001,-117.601262337,274,"14568 VIVA DRIVE, CORONA, CA, 92880","Match","Exact","14568 VIVA DR, CORONA, CA, 92880",646298578,"R"
63775,"1457 58TH STREET","BROOKLYN","NY",11219,40.627917461,-73.993922567,275,"1457 58TH STREET, BROOKLYN, NY, 11219","Match","Exact","1457 58TH ST, BROOKLYN, NY, 11219",59080252,"L"
63776,"1457 ANDRE STREET","BALTIMORE","MD",21230,39.2686828590001,-76.5907287319999,276,"1457 ANDRE STREET, BALTIMORE, MD, 21230","Match","Exact","1457 ANDRE ST, BALTIMORE, MD, 21230",206426829,"L"
63777,"1457 AVON BEND ROAD","CHARLES TOWN","WV",25414,39.2117207650001,-77.833937987,277,"1457 AVON BEND ROAD, CHARLES TOWN, WV, 25414","Match","Exact","1457 AVON BEND RD, CHARLES TOWN, WV, 25414",123429493,"R"
63778,"1457 DELLA DR","HOFFMAN ESTATES","IL",60169,42.057936811,-88.1166697799999,278,"1457 DELLA DR, HOFFMAN ESTATES, IL, 60169","Match","Exact","1457 DELLA DR, HOFFMAN EST, IL, 60169",605598139,"L"
63779,"1457 FLORAWOOD DRIVE","COLUMBIA","SC",29204,34.017859769,-80.985087398,279,"1457 FLORAWOOD DRIVE, COLUMBIA, SC, 29204","Match","Exact","1457 FLORAWOOD DR, COLUMBIA, SC, 29204",71866642,"L"
63780,"1457 KAIGN AVENUE","CAMDEN","NJ",8103,NA,NA,280,"1457 KAIGN AVENUE, CAMDEN, NJ, 8103","No_Match",NA,NA,NA,NA
63781,"1457 LEMOS LANE","FREMONT","CA",94539,37.544796606,-121.9505782,281,"1457 LEMOS LANE, FREMONT, CA, 94539","Match","Exact","1457 LEMOS LN, FREMONT, CA, 94539",125033242,"R"
63782,"1457 LOCHMOOR","GROSSE POINTE WOODS","MI",48236,42.4362331730001,-82.9030744459999,282,"1457 LOCHMOOR, GROSSE POINTE WOODS, MI, 48236","Match","Non_Exact","1457 LOCHMOOR BLVD, GROSSE POINTE WOODS, MI, 48236",95487692,"L"
63783,"1457 LUCERNE DR","HEMET","CA",92544,33.735115158,-116.957460125,283,"1457 LUCERNE DR, HEMET, CA, 92544","Match","Exact","1457 LUCERNE DR, HEMET, CA, 92544",194877541,"R"
63784,"1457 NW 17TH ST","CORVALLIS","OR",97330,44.5811004710001,-123.271348181,284,"1457 NW 17TH ST, CORVALLIS, OR, 97330","Match","Exact","1457 NW 17TH ST, CORVALLIS, OR, 97330",155864137,"R"
63785,"1457 RUE AVATI","SAN JOSE","CA",95131,37.383655393,-121.879109545,285,"1457 RUE AVATI, SAN JOSE, CA, 95131","Match","Exact","1457 RUE AVATI, SAN JOSE, CA, 95131",122962862,"R"
63786,"1457 SOUTH 2ND STREET SUITE 1","LOUISVILLE","KY",40208,38.2267053850001,-85.758399678,286,"1457 SOUTH 2ND STREET SUITE 1, LOUISVILLE, KY, 40208","Match","Exact","1457 S 2ND ST, LOUISVILLE, KY, 40208",96845916,"L"
63787,"1457 SOUTH HOLT AVENUE 3/4","LOS ANGELES","CA",90035,34.0521948050001,-118.378685921,287,"1457 SOUTH HOLT AVENUE 3/4, LOS ANGELES, CA, 90035","Match","Exact","1457 S HOLT AVE, LOS ANGELES, CA, 90035",141573102,"R"
63788,"1457 VERNON DRIVE","AUBREY","TX",76227,NA,NA,288,"1457 VERNON DRIVE, AUBREY, TX, 76227","No_Match",NA,NA,NA,NA
63789,"1457 WEST 5TH STREET CF2","BROOKLYN","NY",11204,40.611591289,-73.979301327,289,"1457 WEST 5TH STREET CF2, BROOKLYN, NY, 11204","Match","Exact","1457 W 5TH ST, BROOKLYN, NY, 11204",59089407,"L"
63790,"1457","LITCHFIELD PARK","AZ",85340,NA,NA,290,"1457, LITCHFIELD PARK, AZ, 85340","No_Match",NA,NA,NA,NA
63791,"14570 BERKLEE DR","ADDISON","TX",75001,32.944156709,-96.842145358,291,"14570 BERKLEE DR, ADDISON, TX, 75001","Match","Exact","14570 BERKLEE DR, ADDISON, TX, 75001",102999763,"L"
63792,"14570 HORSESHOE DRIVE","SARATOGA","CA",95070,37.2556977670001,-122.022014879,292,"14570 HORSESHOE DRIVE, SARATOGA, CA, 95070","Match","Non_Exact","14570 HORSESHOE CT, SARATOGA, CA, 95070",627125513,"L"
63793,"14570 MONO WAY SUITE G","SONORA","CA",95370,37.9786534240001,-120.331674532,293,"14570 MONO WAY SUITE G, SONORA, CA, 95370","Match","Exact","14570 MONO WAY, SONORA, CA, 95370",101453198,"R"
63794,"14570 N 3400 EAST ROAD","CULLOM","IL",60929,40.842399889,-88.2801667909999,294,"14570 N 3400 EAST ROAD, CULLOM, IL, 60929","Match","Exact","14570 N 3400 E RD, CULLOM, IL, 60929",22378565,"R"
63795,"14570 NW 17TH DR","MIAMI","FL",33167,25.910043574,-80.22530598,295,"14570 NW 17TH DR, MIAMI, FL, 33167","Match","Non_Exact","14570 NW 17TH DR, MIAMI, FL, 33167",116030056,"L"
63796,"14571 BEESON LANE","TUSTIN","CA",92780,33.752327016,-117.811655264,296,"14571 BEESON LANE, TUSTIN, CA, 92780","Match","Exact","14571 BEESON LN, TUSTIN, CA, 92780",144140225,"R"
63797,"14571 ROSELAWN ST","DETROIT","MI",48238,42.396067745,-83.151158247,297,"14571 ROSELAWN ST, DETROIT, MI, 48238","Match","Exact","14571 ROSELAWN ST, DETROIT, MI, 48238",95426268,"L"
63798,"14573 E ALAMEDA AVE","AURORA","CO",80012,39.710961464,-104.817241758,298,"14573 E ALAMEDA AVE, AURORA, CO, 80012","Match","Exact","14573 E ALAMEDA AVE, AURORA, CO, 80012",618112014,"L"
63799,"14574 EDGEWOODS WAY","GLENELG","MD",21737,NA,NA,299,"14574 EDGEWOODS WAY, GLENELG, MD, 21737","No_Match",NA,NA,NA,NA
63800,"14574 SW 208TH STREET APT 101","HOMESTEAD","FL",33032,NA,NA,300,"14574 SW 208TH STREET APT 101, HOMESTEAD, FL, 33032","No_Match",NA,NA,NA,NA
63801,"14574 SW 8TH STREET STE A","MIAMI","FL",33184,25.760892643,-80.4319850319999,301,"14574 SW 8TH STREET STE A, MIAMI, FL, 33184","Match","Non_Exact","14574 SW 8TH ST, MIAMI, FL, 33184",116284087,"R"
63802,"14576 BLOSSOM HILL","LOS GATOS","CA",95032,37.2361788950001,-121.923653061,302,"14576 BLOSSOM HILL, LOS GATOS, CA, 95032","Match","Non_Exact","14576 BLOSSOM HILL RD, LOS GATOS, CA, 95032",122946157,"L"
63803,"14576 LAGUNA BEACH CIRCLE","ORLANDO","FL",32824,28.357308575,-81.365879381,303,"14576 LAGUNA BEACH CIRCLE, ORLANDO, FL, 32824","Match","Exact","14576 LAGUNA BEACH CIR, ORLANDO, FL, 32824",94389261,"R"
63804,"14577 GALENA CT","BRIGHTON","CO",80602,39.9620717700001,-104.868989111,304,"14577 GALENA CT, BRIGHTON, CO, 80602","Match","Exact","14577 GALENA CT, BRIGHTON, CO, 80602",177423926,"R"
63805,"14577 OAK STREET","MAGNOLIA SPRINGS","AL",36555,30.4000026910001,-87.774833673,305,"14577 OAK STREET, MAGNOLIA SPRINGS, AL, 36555","Match","Exact","14577 OAK ST, MAGNOLIA SPRINGS, AL, 36555",131636244,"L"
63806,"14577 SOUTHERN BOULEVARD","LOXAHATCHEE GROVES","FL",33470,26.6827271230001,-80.276686506,306,"14577 SOUTHERN BOULEVARD, LOXAHATCHEE GROVES, FL, 33470","Match","Exact","14577 SOUTHERN BLVD, LOXAHATCHEE GROVES, FL, 33470",647689655,"R"
63807,"14577 WINDY HILL RD","BUNKER HILL","IL",62014,39.0203097140001,-89.8753252559999,307,"14577 WINDY HILL RD, BUNKER HILL, IL, 62014","Match","Exact","14577 WINDY HILL RD, BUNKER HILL, IL, 62014",97936454,"L"
63808,"14579 PACIFIC AVENUE","BALDWIN PARK","CA",91706,34.083061319,-117.957497613,308,"14579 PACIFIC AVENUE, BALDWIN PARK, CA, 91706","Match","Exact","14579 PACIFIC AVE, BALDWIN PARK, CA, 91706",141711032,"L"
63809,"1458 15TH STREET","IMPERIAL BEACH","CA",91932,32.5700351740001,-117.101387396,309,"1458 15TH STREET, IMPERIAL BEACH, CA, 91932","Match","Exact","1458 15TH ST, IMPERIAL BEACH, CA, 91932",195355322,"R"
63810,"1458 ALLIGATOR POINT DR","PANACEA","FL",32346,29.89764031,-84.3897707099999,310,"1458 ALLIGATOR POINT DR, PANACEA, FL, 32346","Match","Non_Exact","1458 ALLIGATOR DR, PANACEA, FL, 32346",74335091,"R"
63811,"1458 E 69TH STREET FL 2","CHICAGO","IL",60637,41.7696733920001,-87.588994107,311,"1458 E 69TH STREET FL 2, CHICAGO, IL, 60637","Match","Non_Exact","1458 E 69TH ST, CHICAGO, IL, 60637",111774560,"L"
63812,"1458 E JOHN STREET","KNOX","IN",46534,41.29525456,-86.602689594,312,"1458 E JOHN STREET, KNOX, IN, 46534","Match","Exact","1458 E JOHN ST, KNOX, IN, 46534",8250631,"L"
63813,"1458 ESTANCIA DRIVE","MERCED","CA",95340,37.3730120440001,-120.460372972,313,"1458 ESTANCIA DRIVE, MERCED, CA, 95340","Match","Non_Exact","1458 E ESTANCIA DR, MERCED, CA, 95340",614114752,"L"
63814,"1458 FALLSVIEW PLACE","ESCONDIDO","CA",92027,33.150179629,-117.075733092,314,"1458 FALLSVIEW PLACE, ESCONDIDO, CA, 92027","Match","Exact","1458 FALLSVIEW PL, ESCONDIDO, CA, 92027",195694160,"R"
63815,"1458 GOLF LINK DRIVE","STONE MTN","GA",30088,33.7488144020001,-84.181166895,315,"1458 GOLF LINK DRIVE, STONE MTN, GA, 30088","Match","Exact","1458 GOLF LINK DR, STONE MOUNTAIN, GA, 30088",23386730,"L"
63816,"1458 HOLSTON RD","COMO","MS",38619,34.48098279,-89.943956999,316,"1458 HOLSTON RD, COMO, MS, 38619","Match","Exact","1458 HOLSTON RD, COMO, MS, 38619",649552045,"L"
63817,"1458 HWY 1226","NATCHITOCHES","LA",71457,31.8433287710001,-92.961077038,317,"1458 HWY 1226, NATCHITOCHES, LA, 71457","Match","Non_Exact","1458 STATE RTE 1226, NATCHITOCHES, LA, 71457",13365683,"L"
63818,"1458 MELLOW LANE","SIMI VALLEY","CA",93065,34.244183267,-118.770878541,318,"1458 MELLOW LANE, SIMI VALLEY, CA, 93065","Match","Exact","1458 MELLOW LN, SIMI VALLEY, CA, 93065",109978791,"R"
63819,"1458 SANBORN AVE","SAN JOSE","CA",95110,37.3141294920001,-121.874587936,319,"1458 SANBORN AVE, SAN JOSE, CA, 95110","Match","Exact","1458 SANBORN AVE, SAN JOSE, CA, 95110",122910724,"L"
63820,"1458 STATE FOREST ROAD","HARMONYVILLE","VT",5345,NA,NA,320,"1458 STATE FOREST ROAD, HARMONYVILLE, VT, 5345","No_Match",NA,NA,NA,NA
63821,"1458 WEBSTER AVE APT 11F","BRONX","NY",10456,40.83765457,-73.9065038099999,321,"1458 WEBSTER AVE APT 11F, BRONX, NY, 10456","Match","Exact","1458 WEBSTER AVE, BRONX, NY, 10456",612224004,"R"
63822,"1458 WEBSTER AVENUE 16G","BRONX","NY",10456,40.83765457,-73.9065038099999,322,"1458 WEBSTER AVENUE 16G, BRONX, NY, 10456","Match","Exact","1458 WEBSTER AVE, BRONX, NY, 10456",612224004,"R"
63823,"1458 YORK AVENUE BOX PTA","NEW YORK","NE",10075,NA,NA,323,"1458 YORK AVENUE BOX PTA, NEW YORK, NE, 10075","No_Match",NA,NA,NA,NA
63824,"14580 GRAND TETON DRIVE","LAS VEGAS","NV",89166,36.3066039600001,-115.419612139,324,"14580 GRAND TETON DRIVE, LAS VEGAS, NV, 89166","Match","Exact","14580 GRAND TETON DR, LAS VEGAS, NV, 89166",201963333,"R"
63825,"14581 BEACH AVE","IRVINE","CA",92606,33.7068427130001,-117.794063438,325,"14581 BEACH AVE, IRVINE, CA, 92606","Match","Exact","14581 BEACH AVE, IRVINE, CA, 92606",144057230,"R"
63826,"14581 E 43RD AVE","DENVER","CO",80239,39.773538666,-104.823199305,326,"14581 E 43RD AVE, DENVER, CO, 80239","Match","Exact","14581 E 43RD AVE, DENVER, CO, 80239",177350987,"R"
63827,"14581 HWY 60","PLAINVIEW","AR",72857,34.968502857,-93.222832619,327,"14581 HWY 60, PLAINVIEW, AR, 72857","Match","Non_Exact","14581 STATE HWY 60, PLAINVIEW, AR, 72857",24322148,"R"
63828,"14581 SW 19TH STREET","MIAMI","FL",33175,25.7494288250001,-80.431325865,328,"14581 SW 19TH STREET, MIAMI, FL, 33175","Match","Exact","14581 SW 19TH ST, MIAMI, FL, 33175",646603802,"R"
63829,"14582 WALNUT GROVE WAY","OREGON CITY","OR",97045,45.3334651850001,-122.567726122,329,"14582 WALNUT GROVE WAY, OREGON CITY, OR, 97045","Match","Exact","14582 WALNUT GROVE WAY, OREGON CITY, OR, 97045",633195774,"R"
63830,"14584 ROCKDALE","DETROIT","MI",48223,42.3938049870001,-83.257884057,330,"14584 ROCKDALE, DETROIT, MI, 48223","Match","Non_Exact","14584 ROCKDALE ST, DETROIT, MI, 48223",95421339,"R"
63831,"14585 LOYOLA ST","MOORPARK","CA",93021,34.29769092,-118.85679294,331,"14585 LOYOLA ST, MOORPARK, CA, 93021","Match","Exact","14585 LOYOLA ST, MOORPARK, CA, 93021",110125565,"R"
63832,"14586 W CLYDE MAHER RD","TAHLEQUAH","OK",74464,35.855198713,-95.037801563,332,"14586 W CLYDE MAHER RD, TAHLEQUAH, OK, 74464","Match","Exact","14586 W CLYDE MAHER RD, TAHLEQUAH, OK, 74464",53636422,"L"
63833,"14588 WEST PARK BOX 107","BURTON","OH",44021,41.472672591,-81.145375255,333,"14588 WEST PARK BOX 107, BURTON, OH, 44021","Match","Non_Exact","14588 W PARK ST, BURTON, OH, 44021",137444514,"L"
63834,"14588 WYRICK AVE","SAN JOSE","CA",95124,37.255578261,-121.923484202,334,"14588 WYRICK AVE, SAN JOSE, CA, 95124","Match","Exact","14588 WYRICK AVE, SAN JOSE, CA, 95124",122921018,"L"
63835,"14589 BOONDOCKS RD","BEAUMONT","TX",77705,29.874764413,-94.2243431269999,335,"14589 BOONDOCKS RD, BEAUMONT, TX, 77705","Match","Exact","14589 BOONDOCKS RD, BEAUMONT, TX, 77705",73889404,"L"
63836,"14589 HAGUS PL","PARKER","CO",80134,39.5069020930001,-104.820709066,336,"14589 HAGUS PL, PARKER, CO, 80134","Match","Exact","14589 HAGUS PL, PARKER, CO, 80134",645842908,"R"
63837,"1459  CREEKSIDE DRIVE","BURLINGTON","WI",53105,42.654067857,-88.353763328,337,"1459  CREEKSIDE DRIVE, BURLINGTON, WI, 53105","Match","Non_Exact","1459 CREEK SIDE DR, BURLINGTON, WI, 53105",53686203,"L"
63838,"1459 18TH ST PMB 133","SAN FRANCISCO","CA",94107,37.7625429330001,-122.397082258,338,"1459 18TH ST PMB 133, SAN FRANCISCO, CA, 94107","Match","Exact","1459 18TH ST, SAN FRANCISCO, CA, 94107",192288275,"L"
63839,"1459 18TH ST PO BOX 262","SAN FRANCISCO","CA",94107,37.7625429330001,-122.397082258,339,"1459 18TH ST PO BOX 262, SAN FRANCISCO, CA, 94107","Match","Exact","1459 18TH ST, SAN FRANCISCO, CA, 94107",192288275,"L"
63840,"1459 48TH ST APT 4","BROOKLYN","NY",11219,40.633496118,-73.988056027,340,"1459 48TH ST APT 4, BROOKLYN, NY, 11219","Match","Exact","1459 48TH ST, BROOKLYN, NY, 11219",59080290,"L"
63841,"1459 ARBOR RIDGE DR","FORT WORTH","TX",76112,32.7550843760001,-97.190038812,341,"1459 ARBOR RIDGE DR, FORT WORTH, TX, 76112","Match","Exact","1459 ARBOR RIDGE DR, FORT WORTH, TX, 76112",101901195,"R"
63842,"1459 ARBOR RIDGE DRIVE","FORT WORTH","TX",76112,32.7550843760001,-97.190038812,342,"1459 ARBOR RIDGE DRIVE, FORT WORTH, TX, 76112","Match","Exact","1459 ARBOR RIDGE DR, FORT WORTH, TX, 76112",101901195,"R"
63843,"1459 BENTLEY LN SE","MARRIETTA","GA",30067,33.91791147,-84.473940479,343,"1459 BENTLEY LN SE, MARRIETTA, GA, 30067","Match","Non_Exact","1459 BENTLEY LN SE, MARIETTA, GA, 30067",17194795,"L"
63844,"1459 CRANE AVE","PITTSBURGH","PA",15220,40.4150173520001,-80.040727263,344,"1459 CRANE AVE, PITTSBURGH, PA, 15220","Match","Exact","1459 CRANE AVE, PITTSBURGH, PA, 15220",607648465,"L"
63845,"1459 E 2ND ST","PLAINFIELD","NJ",7062,40.640402926,-74.403845658,345,"1459 E 2ND ST, PLAINFIELD, NJ, 7062","Match","Exact","1459 E 2ND ST, PLAINFIELD, NJ, 07062",60567214,"L"
63846,"1459 EAST COLUMBUS STREET","MARTINSVILLE","IN",46151,39.4249060450001,-86.410404052,346,"1459 EAST COLUMBUS STREET, MARTINSVILLE, IN, 46151","Match","Exact","1459 E COLUMBUS ST, MARTINSVILLE, IN, 46151",43564711,"L"
63847,"1459 GRAND AVENUE","DES MOINES","IA",50309,41.5854112530001,-93.636311225,347,"1459 GRAND AVENUE, DES MOINES, IA, 50309","Match","Exact","1459 GRAND AVE, DES MOINES, IA, 50309",647803469,"R"
63848,"1459 HIGHWAY 54","MORELAND","GA",30259,33.2439028950001,-84.7331688419999,348,"1459 HIGHWAY 54, MORELAND, GA, 30259","Match","Non_Exact","1459 STATE RTE 54, MORELAND, GA, 30259",9338480,"R"
63849,"1459 HUMBOLDT AVE SUITE A","CHICO","CA",95928,39.735504022,-121.815107851,349,"1459 HUMBOLDT AVE SUITE A, CHICO, CA, 95928","Match","Non_Exact","1459 HUMBOLDT RD, CHICO, CA, 95928",68472881,"R"
63850,"1459 RAINTREE DR","ROSWELL","GA",30076,34.017445487,-84.3266813829999,350,"1459 RAINTREE DR, ROSWELL, GA, 30076","Match","Exact","1459 RAINTREE DR, ROSWELL, GA, 30076",17353200,"L"
63851,"1459 RIVERS EDGE TRACE","CHESAPEAKE","VA",23323,36.763409369,-76.317853183,351,"1459 RIVERS EDGE TRACE, CHESAPEAKE, VA, 23323","Match","Exact","1459 RIVERS EDGE TRCE, CHESAPEAKE, VA, 23323",641939628,"L"
63852,"1459 S PLAINVIEW DR","COPLEY","OH",44321,41.089619016,-81.614314802,352,"1459 S PLAINVIEW DR, COPLEY, OH, 44321","Match","Exact","1459 PLAINVIEW DR, COPLEY, OH, 44321",61336534,"L"
63853,"1459 TRANSCORO STREET SE","PALM BAY","FL",32909,27.9477836250001,-80.6297524999999,353,"1459 TRANSCORO STREET SE, PALM BAY, FL, 32909","Match","Exact","1459 TRANSCORO ST SE, PALM BAY, FL, 32909",93911303,"R"
63854,"1459 W 101 ST","LOS ANGELES","CA",90047,33.944995369,-118.301692865,354,"1459 W 101 ST, LOS ANGELES, CA, 90047","Match","Exact","1459 W 101ST ST, LOS ANGELES, CA, 90047",141660827,"R"
63855,"1459 W 104TH STREET","LOS ANGELES","CA",90047,33.9423196770001,-118.301700923,355,"1459 W 104TH STREET, LOS ANGELES, CA, 90047","Match","Exact","1459 W 104TH ST, LOS ANGELES, CA, 90047",642190712,"R"
63856,"1459 WATER EDGE DRIVE","CHARLESTON","SC",29492,32.923305966,-79.846953159,356,"1459 WATER EDGE DRIVE, CHARLESTON, SC, 29492","Match","Exact","1459 WATER EDGE DR, CHARLESTON, SC, 29492",614770108,"R"
63857,"1459 WHITE POLE RD","ADAIR","IA",50115,NA,NA,357,"1459 WHITE POLE RD, ADAIR, IA, 50115","No_Match",NA,NA,NA,NA
63858,"14590 SOUTH MILITARY TRAIL  UNIT E6","DELRAY BEACH","FL",33484,NA,NA,358,"14590 SOUTH MILITARY TRAIL  UNIT E6, DELRAY BEACH, FL, 33484","No_Match",NA,NA,NA,NA
63859,"14590 SW 124 PLACE","MIAMI","FL",33186,25.632530457,-80.3959150049999,359,"14590 SW 124 PLACE, MIAMI, FL, 33186","Match","Exact","14590 SW 124TH PL, MIAMI, FL, 33186",116078185,"R"
63860,"14590 WOODLAND RIDGE DR","CENTREVILLE","VA",20121,38.828333876,-77.4508237599999,360,"14590 WOODLAND RIDGE DR, CENTREVILLE, VA, 20121","Match","Exact","14590 WOODLAND RIDGE DR, CENTREVILLE, VA, 20121",75955669,"R"
63861,"14591 BLACK QUILL DR","WINTER GARDEN","FL",34787,28.456695967,-81.6218558209999,361,"14591 BLACK QUILL DR, WINTER GARDEN, FL, 34787","Match","Exact","14591 BLACK QUILL DR, WINTER GARDEN, FL, 34787",645098931,"R"
63862,"14594 N ROCKY HIGHLANDS DR","ORO VALLEY","AZ",85755,32.47056095,-111.00169432,362,"14594 N ROCKY HIGHLANDS DR, ORO VALLEY, AZ, 85755","Match","Exact","14594 N ROCKY HIGHLANDS DR, ORO VALLEY, AZ, 85755",618693834,"R"
63863,"14595 NE 57TH ST","BELLEVUE","WA",98007,47.6591980530001,-122.145562209,363,"14595 NE 57TH ST, BELLEVUE, WA, 98007","Match","Exact","14595 NE 57TH ST, BELLEVUE, WA, 98007",642836417,"R"
63864,"14597 EVEREST WAY","MORENO VALLEY","CA",92555,33.9089846800001,-117.160463662,364,"14597 EVEREST WAY, MORENO VALLEY, CA, 92555","Match","Exact","14597 EVEREST WAY, MORENO VALLEY, CA, 92555",627217168,"R"
63865,"14598 N 2440 RD","CARNEGIE","OK",73015,NA,NA,365,"14598 N 2440 RD, CARNEGIE, OK, 73015","No_Match",NA,NA,NA,NA
63866,"14599 E EVANS PLACE","AURORA","CO",80014,39.6785195140001,-104.818198771,366,"14599 E EVANS PLACE, AURORA, CO, 80014","Match","Exact","14599 E EVANS PL, AURORA, CO, 80014",177355356,"L"
63867,"146 25TH COURT","WEST DES MOINES","IA",50265,41.5725530570001,-93.73999744,367,"146 25TH COURT, WEST DES MOINES, IA, 50265","Match","Exact","146 25TH CT, W DES MOINES, IA, 50265",65816415,"R"
63868,"146 6TH STREET UNIT 3","FREELAND","MI",48603,43.524107472,-84.115302229,368,"146 6TH STREET UNIT 3, FREELAND, MI, 48603","Match","Non_Exact","146 6TH ST, FREELAND, MI, 48623",80207362,"R"
63869,"146 ADAMS STREET","GARDEN CITY","NY",11530,40.725633918,-73.68018513,369,"146 ADAMS STREET, GARDEN CITY, NY, 11530","Match","Exact","146 ADAMS ST, GARDEN CITY, NY, 11530",147667048,"L"
63870,"146 BAY STREET","OSTERVILLE","MA",2655,41.6284845320001,-70.3919920709999,370,"146 BAY STREET, OSTERVILLE, MA, 2655","Match","Exact","146 BAY ST, OSTERVILLE, MA, 02655",121616096,"L"
63871,"146 BEAVER STREET","NOXEN","PA",18636,41.4194905150001,-76.058808434,371,"146 BEAVER STREET, NOXEN, PA, 18636","Match","Exact","146 BEAVER ST, NOXEN, PA, 18636",140196425,"R"
63872,"146 BIRCH ST","HAMILTON","MT",59840,46.2504455710001,-114.153293595,372,"146 BIRCH ST, HAMILTON, MT, 59840","Match","Exact","146 BIRCH ST, HAMILTON, MT, 59840",153529090,"R"
63873,"146 BLARNEY LANE","CENTRE HALL","PA",16828,40.8425484150001,-77.6702909909999,373,"146 BLARNEY LANE, CENTRE HALL, PA, 16828","Match","Exact","146 BLARNEY LN, CENTRE HALL, PA, 16828",635881489,"R"
63874,"146 BOSTON ROAD","SOUTHBORO","MA",1772,42.302320733,-71.506259206,374,"146 BOSTON ROAD, SOUTHBORO, MA, 1772","Match","Non_Exact","146 BOSTON RD, SOUTHBOROUGH, MA, 01772",40099311,"L"
63875,"146 BRADFORD DRIVE","PARIS","KY",40361,38.1919252490001,-84.268807478,375,"146 BRADFORD DRIVE, PARIS, KY, 40361","Match","Exact","146 BRADFORD DR, PARIS, KY, 40361",31881403,"L"
63876,"146 BRANCA COURT","MILFORD","CT",6461,41.2474946020001,-73.0359753179999,376,"146 BRANCA COURT, MILFORD, CT, 6461","Match","Exact","146 BRANCA CT, MILFORD, CT, 06461",635591230,"R"
63877,"146 BRITTANY LANE","PALM COAST","FL",32137,29.559843792,-81.248747491,377,"146 BRITTANY LANE, PALM COAST, FL, 32137","Match","Exact","146 BRITTANY LN, PALM COAST, FL, 32137",653166236,"L"
63878,"146 CEDAR AVE PO BOX 1107","LAKE VILLA","IL",60046,42.4174180680001,-88.080250812,378,"146 CEDAR AVE PO BOX 1107, LAKE VILLA, IL, 60046","Match","Exact","146 CEDAR AVE, LAKE VILLA, IL, 60046",119729950,"L"
63879,"146 CEDAR AVE","LAKE VILLA","IL",60046,42.4174180680001,-88.080250812,379,"146 CEDAR AVE, LAKE VILLA, IL, 60046","Match","Exact","146 CEDAR AVE, LAKE VILLA, IL, 60046",119729950,"L"
63880,"146 CENTRAL STREET","BOYLSTON","MA",1505,42.3543003340001,-71.7213730839999,380,"146 CENTRAL STREET, BOYLSTON, MA, 1505","Match","Exact","146 CENTRAL ST, BOYLSTON, MA, 01505",40110749,"R"
63881,"146 CHILTON HALL APT B2","ELIZABETH","NJ",7202,40.6650620030001,-74.2212522089999,381,"146 CHILTON HALL APT B2, ELIZABETH, NJ, 7202","Match","Exact","146 CHILTON HALL, ELIZABETH, NJ, 07202",60583480,"L"
63882,"146 CONSTITUTION ST","LEXINGTON","KY",40508,38.0480057280001,-84.492898984,382,"146 CONSTITUTION ST, LEXINGTON, KY, 40508","Match","Non_Exact","146 CONSTITUTION ST, LEXINGTON, KY, 40507",31921794,"R"
63883,"146 COUNTY ROAD","EVANSTON","WY",82930,41.2726353040001,-110.963994438,383,"146 COUNTY ROAD, EVANSTON, WY, 82930","Match","Exact","146 COUNTY RD, EVANSTON, WY, 82930",160278695,"R"
63884,"146 COURT ST UNIT 205","BROCKTON","MA",2302,42.0858208160001,-71.0152756959999,384,"146 COURT ST UNIT 205, BROCKTON, MA, 2302","Match","Exact","146 COURT ST, BROCKTON, MA, 02302",87444047,"L"
63885,"146 COURT ST","BROCKTON","MA",2302,42.0858208160001,-71.0152756959999,385,"146 COURT ST, BROCKTON, MA, 2302","Match","Exact","146 COURT ST, BROCKTON, MA, 02302",87444047,"L"
63886,"146 COURTSHIRE LN","PENFIELD","NY",14526,43.123679698,-77.447740575,386,"146 COURTSHIRE LN, PENFIELD, NY, 14526","Match","Exact","146 COURTSHIRE LN, PENFIELD, NY, 14526",14559493,"L"
63887,"146 CREEK FOREST LANE","ORMOND BEACH","FL",32174,29.277976014,-81.115797979,387,"146 CREEK FOREST LANE, ORMOND BEACH, FL, 32174","Match","Exact","146 CREEK FOREST LN, ORMOND BEACH, FL, 32174",94598670,"L"
63888,"146 CRESTVIEW LANE","ASH FLAT","AR",72513,36.26197747,-91.646668851,388,"146 CRESTVIEW LANE, ASH FLAT, AR, 72513","Match","Exact","146 CRESTVIEW LN, ASH FLAT, AR, 72513",2058514,"R"
63889,"146 CUBA HILL ROAD","HUNTINGTON","NY",11743,40.8544881440001,-73.3533945089999,389,"146 CUBA HILL ROAD, HUNTINGTON, NY, 11743","Match","Exact","146 CUBA HILL RD, HUNTINGTON, NY, 11743",113968285,"R"
63890,"146 DAVENPORT ST","PITTSBURGH","PA",15219,40.4446749370001,-79.9801118249999,390,"146 DAVENPORT ST, PITTSBURGH, PA, 15219","Match","Exact","146 DAVENPORT ST, PITTSBURGH, PA, 15219",51635650,"R"
63891,"146 DAVENTRY DRIVE","CALERA","AL",35040,33.1507963010001,-86.7695665319999,391,"146 DAVENTRY DRIVE, CALERA, AL, 35040","Match","Exact","146 DAVENTRY DR, CALERA, AL, 35040",82103977,"R"
63892,"146 DEVON LN","STATESVILLE","NC",28625,35.8382883740001,-80.8802990899999,392,"146 DEVON LN, STATESVILLE, NC, 28625","Match","Exact","146 DEVON LN, STATESVILLE, NC, 28625",636632701,"R"
63893,"146 DIAMOND DRIVE","DAYTON","OH",45458,39.575406581,-84.189563989,393,"146 DIAMOND DRIVE, DAYTON, OH, 45458","Match","Exact","146 DIAMOND DR, DAYTON, OH, 45458",159036753,"L"
63894,"146 DOG LEG DR","LAS VEGAS","NV",89148,36.045497577,-115.295058126,394,"146 DOG LEG DR, LAS VEGAS, NV, 89148","Match","Exact","146 DOG LEG DR, LAS VEGAS, NV, 89148",612681711,"L"
63895,"146 DORCHESTER MANOR BLVD","NORTH CHARLESTON","SC",29420,32.924826592,-80.100699408,395,"146 DORCHESTER MANOR BLVD, NORTH CHARLESTON, SC, 29420","Match","Exact","146 DORCHESTER MANOR BLVD, N CHARLESTON, SC, 29420",178460992,"L"
63896,"146 E FAYETTE STREET","UNIONTOWN","PA",15401,39.896478094,-79.720177139,396,"146 E FAYETTE STREET, UNIONTOWN, PA, 15401","Match","Exact","146 E FAYETTE ST, UNIONTOWN, PA, 15401",647762876,"L"
63897,"146 E MISSION RD","GREEN BAY","WI",54301,44.4776208640001,-88.0244938869999,397,"146 E MISSION RD, GREEN BAY, WI, 54301","Match","Exact","146 E MISSION RD, GREEN BAY, WI, 54301",148101780,"R"
63898,"146 EAST GENESEE ST","SKANEATELES","NY",13152,42.9446402360001,-76.41947957,398,"146 EAST GENESEE ST, SKANEATELES, NY, 13152","Match","Exact","146 E GENESEE ST, SKANEATELES, NY, 13152",46554268,"L"
63899,"146 EHS BUILDING","MOUNT PLEASANT","MI",48859,NA,NA,399,"146 EHS BUILDING, MOUNT PLEASANT, MI, 48859","No_Match",NA,NA,NA,NA
63900,"146 ELAINE DRIVE","BAY ST LOUIS","MS",39520,30.333625167,-89.381152819,400,"146 ELAINE DRIVE, BAY ST LOUIS, MS, 39520","Match","Exact","146 ELAINE DR, BAY SAINT LOUIS, MS, 39520",111129668,"L"
63901,"146 ELKINS CIRCLE","FOLSOM","CA",95630,38.6522478100001,-121.174255007,401,"146 ELKINS CIRCLE, FOLSOM, CA, 95630","Match","Exact","146 ELKINS CIR, FOLSOM, CA, 95630",133403509,"R"
63902,"146 FAIR OAKS RD","SPRINGFIELD","MA",1128,NA,NA,402,"146 FAIR OAKS RD, SPRINGFIELD, MA, 1128","No_Match",NA,NA,NA,NA
63903,"146 FIRST STREET","PITTSFIELD","MA",1201,42.453037599,-73.249795795,403,"146 FIRST STREET, PITTSFIELD, MA, 1201","Match","Exact","146 1ST ST, PITTSFIELD, MA, 01201",3921022,"R"
63904,"146 FOREST AVE","WEST NEWTON","MA",2465,42.3443317310001,-71.216048805,404,"146 FOREST AVE, WEST NEWTON, MA, 2465","Match","Exact","146 FOREST AVE, WEST NEWTON, MA, 02465",86864068,"L"
63905,"146 FOUNTAIN AVE","BROOKLYN","NY",11208,40.6765588440001,-73.8756846589999,405,"146 FOUNTAIN AVE, BROOKLYN, NY, 11208","Match","Exact","146 FOUNTAIN AVE, BROOKLYN, NY, 11208",59085541,"R"
63906,"146 FOUNTAIN AVENUE 1ST FLOOR","BROOKLYN","NY",11208,40.6765588440001,-73.8756846589999,406,"146 FOUNTAIN AVENUE 1ST FLOOR, BROOKLYN, NY, 11208","Match","Exact","146 FOUNTAIN AVE, BROOKLYN, NY, 11208",59085541,"R"
63907,"146 FROST STREET - APARTMENT 4","BROOKLYN","NY",11211,40.717990781,-73.9457167589999,407,"146 FROST STREET - APARTMENT 4, BROOKLYN, NY, 11211","Match","Exact","146 FROST ST, BROOKLYN, NY, 11211",59077002,"R"
63908,"146 GEORGIA AVENUE EAST","FAYETTEVILLE","GA",30214,33.4538108880001,-84.4538020539999,408,"146 GEORGIA AVENUE EAST, FAYETTEVILLE, GA, 30214","Match","Exact","146 GEORGIA AVE E, FAYETTEVILLE, GA, 30214",75947286,"L"
63909,"146 GILBERT AVENUE","NEW HAVEN","CT",6511,41.308935536,-72.9463157069999,409,"146 GILBERT AVENUE, NEW HAVEN, CT, 6511","Match","Exact","146 GILBERT AVE, NEW HAVEN, CT, 06511",3700192,"L"
63910,"146 HANCOCK ROAD","PETERBOROUGH","NH",3458,42.9125318280001,-71.938634452,410,"146 HANCOCK ROAD, PETERBOROUGH, NH, 3458","Match","Exact","146 HANCOCK RD, PETERBOROUGH, NH, 03458",113578560,"L"
63911,"146 HAZELWOOD CIR","WILLINGBORO","NJ",8046,40.0429314840001,-74.868574968,411,"146 HAZELWOOD CIR, WILLINGBORO, NJ, 8046","Match","Exact","146 HAZELWOOD CIR, WILLINGBORO, NJ, 08046",134099948,"R"
63912,"146 HAZELWOOD CIRCLE","WILLINGBORO","NJ",8046,40.0429314840001,-74.868574968,412,"146 HAZELWOOD CIRCLE, WILLINGBORO, NJ, 8046","Match","Exact","146 HAZELWOOD CIR, WILLINGBORO, NJ, 08046",134099948,"R"
63913,"146 HEISES POND WAY","COLUMBIA","SC",29229,34.147179253,-80.8784712899999,413,"146 HEISES POND WAY, COLUMBIA, SC, 29229","Match","Exact","146 HEISES POND WAY, COLUMBIA, SC, 29229",636783488,"R"
63914,"146 HEMENWAY STREET","BOSTON","MA",2114,NA,NA,414,"146 HEMENWAY STREET, BOSTON, MA, 2114","No_Match",NA,NA,NA,NA
63915,"146 HIGH STREET","NYACK","NY",10960,41.0928252420001,-73.923144575,415,"146 HIGH STREET, NYACK, NY, 10960","Match","Non_Exact","146 HIGH AVE, NYACK, NY, 10960",124603738,"L"
63916,"146 HILL ST","AKRON","OH",44325,41.0786926920001,-81.514178584,416,"146 HILL ST, AKRON, OH, 44325","Match","Non_Exact","146 HILL ST, AKRON, OH, 44304",61387917,"R"
63917,"146 HILLSIDE DRIVE","DINGMANS FERRY","PA",18328,41.2011086160001,-74.9312100889999,417,"146 HILLSIDE DRIVE, DINGMANS FERRY, PA, 18328","Match","Exact","146 HILLSIDE DR, DINGMANS FERRY, PA, 18328",635492141,"L"
63918,"146 HOPEWELL PENNINGTON RD","HOPEWELL","NJ",8525,40.3755990590001,-74.7815704339999,418,"146 HOPEWELL PENNINGTON RD, HOPEWELL, NJ, 8525","Match","Exact","146 HOPEWELL PENNINGTON RD, HOPEWELL, NJ, 08525",60214838,"R"
63919,"146 HWY 123","TOCCOA","GA",30577,34.5773066450001,-83.334273071,419,"146 HWY 123, TOCCOA, GA, 30577","Match","Non_Exact","146 US HWY 123, TOCCOA, GA, 30577",97863448,"L"
63920,"146 HWY 2","TROY","MT",59935,NA,NA,420,"146 HWY 2, TROY, MT, 59935","No_Match",NA,NA,NA,NA
63921,"146 IDLEWELL BLVD","WEYMOUTH","MA",2188,42.233296071,-70.9563095029999,421,"146 IDLEWELL BLVD, WEYMOUTH, MA, 2188","Match","Exact","146 IDLEWELL BLVD, WEYMOUTH, MA, 02188",87281236,"L"
63922,"146 JUNEDALE DR","CINCINNATI","OH",45218,39.273785337,-84.512349854,422,"146 JUNEDALE DR, CINCINNATI, OH, 45218","Match","Exact","146 JUNEDALE DR, CINCINNATI, OH, 45218",103943490,"L"
63923,"146 LARABEE STREET","HORICON","WI",53032,43.4499514130001,-88.635844947,423,"146 LARABEE STREET, HORICON, WI, 53032","Match","Exact","146 LARABEE ST, HORICON, WI, 53032",53529359,"L"
63924,"146 LILY VALLEY DRIVE","WESTMINSTER","MD",21157,39.551668722,-76.9914778089999,424,"146 LILY VALLEY DRIVE, WESTMINSTER, MD, 21157","Match","Exact","146 LILY VALLEY DR, WESTMINSTER, MD, 21157",608459453,"R"
63925,"146 LOCK LANE","ALUM CREEK","WV",25003,38.2803745590001,-81.8038341719999,425,"146 LOCK LANE, ALUM CREEK, WV, 25003","Match","Exact","146 LOCK LN, ALUM CREEK, WV, 25003",78688231,"L"
63926,"146 LONG HILL RD","LITTLE FALLS","NJ",7424,40.874348007,-74.207707902,426,"146 LONG HILL RD, LITTLE FALLS, NJ, 7424","Match","Exact","146 LONG HILL RD, LITTLE FALLS, NJ, 07424",65249983,"R"
63927,"146 LOOKOUT DR","CLARKSVILLE","TN",37040,36.523921725,-87.3277795399999,427,"146 LOOKOUT DR, CLARKSVILLE, TN, 37040","Match","Exact","146 LOOKOUT DR, CLARKSVILLE, TN, 37040",31816450,"R"
63928,"146 LORD ROAD","BERLIN","VT",5602,44.2380376850001,-72.597584318,428,"146 LORD ROAD, BERLIN, VT, 5602","Match","Exact","146 LORD RD, BERLIN, VT, 05602",136677586,"R"
63929,"146 MAIN STREET APARTMENT 2","GLOUCESTER","MA",1930,42.612555365,-70.662597306,429,"146 MAIN STREET APARTMENT 2, GLOUCESTER, MA, 1930","Match","Exact","146 MAIN ST, GLOUCESTER, MA, 01930",624309684,"L"
63930,"146 MAIN STREET","SETAUKET","NY",11733,40.9426109120001,-73.107052353,430,"146 MAIN STREET, SETAUKET, NY, 11733","Match","Exact","146 MAIN ST, SETAUKET, NY, 11733",114057990,"R"
63931,"146 MAPLE TERRACE","MERCHANTVILLE","NJ",8109,39.949547668,-75.0471080839999,431,"146 MAPLE TERRACE, MERCHANTVILLE, NJ, 8109","Match","Exact","146 MAPLE TER, MERCHANTVILLE, NJ, 08109",134344406,"R"
63932,"146 MARKS AVENUE","LANCASTER","OH",43130,39.730184621,-82.602813102,432,"146 MARKS AVENUE, LANCASTER, OH, 43130","Match","Non_Exact","146 MARKS, LANCASTER, OH, 43130",37246243,"R"
63933,"146 MARLATT STREET","PLAINVILLE","IN",47568,38.803608362,-87.153307575,433,"146 MARLATT STREET, PLAINVILLE, IN, 47568","Match","Exact","146 MARLATT ST, PLAINVILLE, IN, 47568",32081873,"R"
63934,"146 MIDDLETON ST APT 7A","BROOKLYN","NY",11206,40.7028294770001,-73.951336157,434,"146 MIDDLETON ST APT 7A, BROOKLYN, NY, 11206","Match","Exact","146 MIDDLETON ST, BROOKLYN, NY, 11206",59078666,"R"
63935,"146 MILAM ST","WHARTON","TX",77488,NA,NA,435,"146 MILAM ST, WHARTON, TX, 77488","Tie",NA,NA,NA,NA
63936,"146 MLK JR BLVD 136","MONROE","GA",30655,NA,NA,436,"146 MLK JR BLVD 136, MONROE, GA, 30655","No_Match",NA,NA,NA,NA
63937,"146 MOUNTAIN VIEW ROAD","GRAY","ME",4039,43.883124407,-70.3926056609999,437,"146 MOUNTAIN VIEW ROAD, GRAY, ME, 4039","Match","Exact","146 MOUNTAIN VIEW RD, GRAY, ME, 04039",651210756,"R"
63938,"146 MT BETHEL ROAD","MCDONOUGH","GA",30252,33.4638530510001,-84.002017372,438,"146 MT BETHEL ROAD, MCDONOUGH, GA, 30252","Match","Exact","146 MOUNT BETHEL RD, MCDONOUGH, GA, 30252",619914650,"L"
63939,"146 N GROVE ST","EAST ORANGE","NJ",7017,40.761565837,-74.203472416,439,"146 N GROVE ST, EAST ORANGE, NJ, 7017","Match","Exact","146 N GROVE ST, EAST ORANGE, NJ, 07017",63451732,"R"
63940,"146 N ROB WAY","ANAHEIM","CA",92801,33.83414184,-117.955969713,440,"146 N ROB WAY, ANAHEIM, CA, 92801","Match","Exact","146 N ROB WAY, ANAHEIM, CA, 92801",144414519,"L"
63941,"146 N WESTERN AVE UNIT J","NEENAH","WI",54956,NA,NA,441,"146 N WESTERN AVE UNIT J, NEENAH, WI, 54956","Tie",NA,NA,NA,NA
63942,"146 NORMAN AVENUE APT PH","BROOKLYN","NY",11222,40.726416547,-73.948750729,442,"146 NORMAN AVENUE APT PH, BROOKLYN, NY, 11222","Match","Exact","146 NORMAN AVE, BROOKLYN, NY, 11222",641033182,"R"
63943,"146 NORTH CENTER STREET","WINDER","GA",30680,33.998060605,-83.718320077,443,"146 NORTH CENTER STREET, WINDER, GA, 30680","Match","Non_Exact","146 N CENTER, WINDER, GA, 30680",77567041,"L"
63944,"146 NORTH STREET","AUBURN","NY",13021,42.941380198,-76.5668280629999,444,"146 NORTH STREET, AUBURN, NY, 13021","Match","Exact","146 NORTH ST, AUBURN, NY, 13021",639384175,"R"
63945,"146 OLD ROUTE 9","FISHKILL","NY",12524,NA,NA,445,"146 OLD ROUTE 9, FISHKILL, NY, 12524","Tie",NA,NA,NA,NA
63946,"146 ORCHARD RD","WEST HARTFORD","CT",6117,41.7762252260001,-72.778758297,446,"146 ORCHARD RD, WEST HARTFORD, CT, 6117","Match","Exact","146 ORCHARD RD, WEST HARTFORD, CT, 06117",3493077,"R"
63947,"146 PENNINGTON AVE","PASSAIC","NJ",7055,40.853442209,-74.1273889249999,447,"146 PENNINGTON AVE, PASSAIC, NJ, 7055","Match","Exact","146 PENNINGTON AVE, PASSAIC, NJ, 07055",65252416,"R"
63948,"146 POPLAR STREET","GADSDEN","TN",38337,35.7732424980001,-88.988429391,448,"146 POPLAR STREET, GADSDEN, TN, 38337","Match","Exact","146 POPLAR ST, GADSDEN, TN, 38337",63321669,"L"
63949,"146 POST OAK RD","TUNAS",NA,65764,37.7907943980001,-92.929255277,449,"146 POST OAK RD, TUNAS, , 65764","Match","Exact","146 POST OAK RD, TUNAS, MO, 65764",22927068,"R"
63950,"146 PROVIDENCE STREET","REHOBOTH","MA",2769,41.79990343,-71.270109189,450,"146 PROVIDENCE STREET, REHOBOTH, MA, 2769","Match","Exact","146 PROVIDENCE ST, REHOBOTH, MA, 02769",46773247,"L"
63951,"146 RACOON ROAD","ROANOKE RAPIDS","NC",27870,36.401238311,-77.736859787,451,"146 RACOON ROAD, ROANOKE RAPIDS, NC, 27870","Match","Non_Exact","146 RACCOON RD, ROANOKE RAPIDS, NC, 27870",56730701,"L"
63952,"146 RAILROAD STREET","GRAY","GA",31032,33.0052528320001,-83.534510954,452,"146 RAILROAD STREET, GRAY, GA, 31032","Match","Exact","146 RAILROAD ST, GRAY, GA, 31032",65487244,"L"
63953,"146 RANDOM RD","CORRY","PA",16407,41.9357758730001,-79.6233136009999,453,"146 RANDOM RD, CORRY, PA, 16407","Match","Exact","146 RANDOM RD, CORRY, PA, 16407",117485701,"L"
63954,"146 RICHARD ST","BELLEVILLE","WI",53508,42.876432736,-89.5345989099999,454,"146 RICHARD ST, BELLEVILLE, WI, 53508","Match","Exact","146 RICHARD ST, BELLEVILLE, WI, 53508",49507460,"R"
63955,"146 RIVERHILL ROAD","NEW FLORENCE","PA",15944,40.358629282,-79.113250503,455,"146 RIVERHILL ROAD, NEW FLORENCE, PA, 15944","Match","Exact","146 RIVERHILL RD, NEW FLORENCE, PA, 15944",53007358,"R"
63956,"146 ROBERT ALSTON JR DR","PITTSBORO","NC",27312,35.748277725,-79.2118329739999,456,"146 ROBERT ALSTON JR DR, PITTSBORO, NC, 27312","Match","Exact","146 ROBERT ALSTON JR DR, PITTSBORO, NC, 27312",71360278,"R"
63957,"146 RUSKIN DRIVE EAST","MONTGOMERY","TX",77356,30.4267422840001,-95.617414058,457,"146 RUSKIN DRIVE EAST, MONTGOMERY, TX, 77356","Match","Exact","146 RUSKIN DR E, MONTGOMERY, TX, 77356",79315087,"L"
63958,"146 S LOWE AVE","COOKEVILLE","TN",38501,36.160235104,-85.498830331,458,"146 S LOWE AVE, COOKEVILLE, TN, 38501","Match","Exact","146 S LOWE AVE, COOKEVILLE, TN, 38501",637492131,"R"
63959,"146 S MAIN ST","CHATHAM","VA",24531,NA,NA,459,"146 S MAIN ST, CHATHAM, VA, 24531","No_Match",NA,NA,NA,NA
63960,"146 SANDPIPER CIRCLE","HENDERSONVILLE","TN",37075,36.2687238230001,-86.629770847,460,"146 SANDPIPER CIRCLE, HENDERSONVILLE, TN, 37075","Match","Exact","146 SANDPIPER CIR, HENDERSONVILLE, TN, 37075",29789878,"R"
63961,"146 SCHOOL ROAD","EASLEY","SC",29640,34.8492268620001,-82.525490439,461,"146 SCHOOL ROAD, EASLEY, SC, 29640","Match","Exact","146 SCHOOL RD, EASLEY, SC, 29640",26179495,"R"
63962,"146 SCRIBNER RD","TYNGSBOROUGH","MA",1879,42.646135891,-71.475284729,462,"146 SCRIBNER RD, TYNGSBOROUGH, MA, 1879","Match","Non_Exact","146 SCRIBNER RD, TYNGSBORO, MA, 01879",87117418,"R"
63963,"146 SECOND STREET NORTH SUITE 102","SAINT PETERSBURG","FL",33701,27.772457291,-82.635543732,463,"146 SECOND STREET NORTH SUITE 102, SAINT PETERSBURG, FL, 33701","Match","Exact","146 2ND ST N, SAINT PETERSBURG, FL, 33701",124713631,"L"
63964,"146 SOUTH LINCOLN AVENUE","AURORA","IL",60505,41.7527450950001,-88.313716068,464,"146 SOUTH LINCOLN AVENUE, AURORA, IL, 60505","Match","Exact","146 S LINCOLN AVE, AURORA, IL, 60505",119516133,"L"
63965,"146 SOUTH MAIN STREET","MARLBOROUGH","CT",6447,41.61891984,-72.442658993,465,"146 SOUTH MAIN STREET, MARLBOROUGH, CT, 6447","Match","Exact","146 S MAIN ST, MARLBOROUGH, CT, 06447",3540181,"R"
63966,"146 STANYAN STREET","SAN FRANCISCO","CA",94118,37.7789631210001,-122.455459344,466,"146 STANYAN STREET, SAN FRANCISCO, CA, 94118","Match","Exact","146 STANYAN ST, SAN FRANCISCO, CA, 94118",192282082,"L"
63967,"146 TREMBLY BALD","TOCCOA","GA",30577,34.6687004980001,-83.324446041,467,"146 TREMBLY BALD, TOCCOA, GA, 30577","Match","Non_Exact","146 TREMBLY BALD DR, TOCCOA, GA, 30577",97859668,"R"
63968,"146 UNIVERSITY ROAD","BROOKLINE","MA",2445,42.3377120320001,-71.129616691,468,"146 UNIVERSITY ROAD, BROOKLINE, MA, 2445","Match","Exact","146 UNIVERSITY RD, BROOKLINE, MA, 02445",87245043,"L"
63969,"146 URB FELIX C DAVILA","MANATI","PR",674,NA,NA,469,"146 URB FELIX C DAVILA, MANATI, PR, 674","No_Match",NA,NA,NA,NA
63970,"146 W 17 ST APT 4B","NEW YORK","NY",10011,40.7398485140001,-73.9968186579999,470,"146 W 17 ST APT 4B, NEW YORK, NY, 10011","Match","Non_Exact","146 W 17TH ST, NEW YORK, NY, 10011",59653321,"L"
63971,"146 W HIGH ST","MARIETTA","PA",17547,40.0767207100001,-76.579559924,471,"146 W HIGH ST, MARIETTA, PA, 17547","Match","Non_Exact","146 E HIGH ST, MARIETTA, PA, 17547",179651664,"L"
63972,"146 WALNUT AVENUE","CROYDON","PA",19021,40.0948432210001,-74.908598065,472,"146 WALNUT AVENUE, CROYDON, PA, 19021","Match","Exact","146 WALNUT AVE, CROYDON, PA, 19021",134715418,"R"
63973,"146 WASHINGTON WAY","VENUS","TX",76084,32.4432712830001,-97.087462224,473,"146 WASHINGTON WAY, VENUS, TX, 76084","Match","Exact","146 WASHINGTON WAY, VENUS, TX, 76084",624490714,"R"
63974,"146 WEST 79TH STREET 1B","NEW YORK","NY",10024,40.7824339250001,-73.976634054,474,"146 WEST 79TH STREET 1B, NEW YORK, NY, 10024","Match","Exact","146 W 79TH ST, NEW YORK, NY, 10024",650073091,"L"
63975,"146 WEST 81ST AVENUE","THORNTON","CO",80221,39.8437153,-104.988924167,475,"146 WEST 81ST AVENUE, THORNTON, CO, 80221","Match","Exact","146 W 81ST AVE, THORNTON, CO, 80221",177296787,"L"
63976,"146 WEST LENA AVENUE","FREEPORT","NY",11520,40.6609683470001,-73.592374843,476,"146 WEST LENA AVENUE, FREEPORT, NY, 11520","Match","Non_Exact","146 LENA AVE, FREEPORT, NY, 11520",147631275,"R"
63977,"146 WEST NECK ROAD","SOUTHAMPTON","NY",11968,40.9149294790001,-72.420672708,477,"146 WEST NECK ROAD, SOUTHAMPTON, NY, 11968","Match","Exact","146 W NECK RD, SOUTHAMPTON, NY, 11968",647306968,"R"
63978,"146 WEST POINT PLANTATION PARKWAY","ST SIMONS ISLAND","GA",31522,31.231340678,-81.385591184,478,"146 WEST POINT PLANTATION PARKWAY, ST SIMONS ISLAND, GA, 31522","Match","Exact","146 W POINT PLANTATION PKWY, ST SIMONS ISLAND, GA, 31522",627449827,"R"
63979,"146 WEST UTICA ST","BUFFALO","NY",14222,42.911267217,-78.872391234,479,"146 WEST UTICA ST, BUFFALO, NY, 14222","Match","Exact","146 W UTICA ST, BUFFALO, NY, 14222",652643463,"L"
63980,"146 WESTERN AVE","BRATTLEBORO","VT",5301,42.85166937,-72.5724137249999,480,"146 WESTERN AVE, BRATTLEBORO, VT, 5301","Match","Exact","146 WESTERN AVE, BRATTLEBORO, VT, 05301",171090066,"R"
63981,"146 WESTMINSTER DR","MONTICELLO","AR",71655,33.6220716830001,-91.7960200099999,481,"146 WESTMINSTER DR, MONTICELLO, AR, 71655","Match","Exact","146 WESTMINSTER DR, MONTICELLO, AR, 71655",2440770,"L"
63982,"146 WHITE HORSE DRIVE","SHAWBORO","NC",27973,36.374164422,-76.1100795529999,482,"146 WHITE HORSE DRIVE, SHAWBORO, NC, 27973","Match","Exact","146 WHITE HORSE DR, SHAWBORO, NC, 27973",81391782,"R"
63983,"146 WINDOVER DRIVE","ASHEVILLE","NC",28803,35.5115524450001,-82.4897963879999,483,"146 WINDOVER DRIVE, ASHEVILLE, NC, 28803","Match","Exact","146 WINDOVER DR, ASHEVILLE, NC, 28803",36898242,"L"
63984,"146 WINDSOR AVENUE","LANSDOWNE","PA",19050,39.9492619120001,-75.270154777,484,"146 WINDSOR AVENUE, LANSDOWNE, PA, 19050","Match","Exact","146 WINDSOR AVE, LANSDOWNE, PA, 19050",134877784,"R"
63985,"146-15 56TH ROAD","FLUSHING","NY",11355,40.745729011,-73.820612769,485,"146-15 56TH ROAD, FLUSHING, NY, 11355","Match","Exact","146-15 56TH RD, FLUSHING, NY, 11355",59709734,"L"
63986,"146-20 226TH STREET","SPRINGFIELD GARDENS","NY",11413,40.659566705,-73.755174708,486,"146-20 226TH STREET, SPRINGFIELD GARDENS, NY, 11413","Match","Exact","146-20 226TH ST, SPRINGFIELD GARDENS, NY, 11413",59720224,"R"
63987,"146-26 25 ROAD","FLUSHING","NY",11354,40.7759713940001,-73.821110221,487,"146-26 25 ROAD, FLUSHING, NY, 11354","Match","Exact","146-26 25TH RD, FLUSHING, NY, 11354",59700936,"R"
63988,"146-29 HAWTHORN AVENUE","FLUSHING","NY",11355,NA,NA,488,"146-29 HAWTHORN AVENUE, FLUSHING, NY, 11355","No_Match",NA,NA,NA,NA
63989,"146-36 176TH STREET","SPRINGFIELD GARDENS","NY",11434,40.6616546280001,-73.77006112,489,"146-36 176TH STREET, SPRINGFIELD GARDENS, NY, 11434","Match","Non_Exact","146 176TH ST, ADDISLEIGH PK, NY, 11434",59719773,"R"
63990,"146-36 224 STREET","LAURELTON","NY",11413,40.6599442840001,-73.7569271739999,490,"146-36 224 STREET, LAURELTON, NY, 11413","Match","Exact","146-36 224TH ST, LAURELTON, NY, 11413",59720198,"R"
63991,"146-55 SHORE AVE","JAMAICA","NY",11435,40.6932753580001,-73.8011291449999,491,"146-55 SHORE AVE, JAMAICA, NY, 11435","Match","Exact","146-55 SHORE AVE, JAMAICA, NY, 11435",59714243,"L"
63992,"1460  133RD LANE NORTH","HAM LAKE","MN",55304,45.212509524,-93.23163978,492,"1460  133RD LANE NORTH, HAM LAKE, MN, 55304","Match","Non_Exact","1460 133RD LN NE, HAM LAKE, MN, 55304",614149865,"R"
63993,"1460 BARRETT PLACE LANE","LAWRENCEVILLE","GA",30043,34.0322991530001,-83.9754981729999,493,"1460 BARRETT PLACE LANE, LAWRENCEVILLE, GA, 30043","Match","Non_Exact","1460 BARRETT PLACE LN NE, LAWRENCEVILLE, GA, 30043",88879412,"L"
63994,"1460 BAYTREE DR NE  STE B","PALM BAY","FL",32905,28.034525742,-80.6116513539999,494,"1460 BAYTREE DR NE  STE B, PALM BAY, FL, 32905","Match","Exact","1460 BAYTREE DR NE, PALM BAY, FL, 32905",93924877,"R"
63995,"1460 BETHLEHEM ROAD","ROCKY MOUNT","NC",27803,35.938039615,-77.8382419129999,495,"1460 BETHLEHEM ROAD, ROCKY MOUNT, NC, 27803","Match","Exact","1460 BETHLEHEM RD, ROCKY MOUNT, NC, 27803",636705680,"R"
63996,"1460 BROADWAY","NEW YORK","NY",10036,40.7553840830001,-73.9865198909999,496,"1460 BROADWAY, NEW YORK, NY, 10036","Match","Exact","1460 BROADWAY, NEW YORK, NY, 10036",59655315,"R"
63997,"1460 CARAWAY CT","SAN JACINTO","CA",92582,33.8057283910001,-116.98617376,497,"1460 CARAWAY CT, SAN JACINTO, CA, 92582","Match","Exact","1460 CARAWAY CT, SAN JACINTO, CA, 92582",195087207,"R"
63998,"1460 CHERRYWOOD DR","SAN MATEO","CA",94403,37.524187297,-122.326346131,498,"1460 CHERRYWOOD DR, SAN MATEO, CA, 94403","Match","Exact","1460 CHERRYWOOD DR, SAN MATEO, CA, 94403",192406610,"R"
63999,"1460 CHILCO ST","MENLO PARK","CA",94025,37.4790123660001,-122.16131051,499,"1460 CHILCO ST, MENLO PARK, CA, 94025","Match","Exact","1460 CHILCO ST, MENLO PARK, CA, 94025",624215153,"R"
64000,"1460 CLAYTON ST","SAN FRANCISCO","CA",94114,37.758450226,-122.44516752,500,"1460 CLAYTON ST, SAN FRANCISCO, CA, 94114","Match","Exact","1460 CLAYTON ST, SAN FRANCISCO, CA, 94114",192284302,"L"
