"ID","Address","City","State","Zip","lat","long","id","input_address","match_indicator","match_type","matched_address","tiger_line_id","tiger_side"
59001,"141 WESTLEDGE ROAD","WEST SIMSBURY","CT",6092,41.888325122,-72.870380396,1,"141 WESTLEDGE ROAD, WEST SIMSBURY, CT, 6092","Match","Exact","141 WESTLEDGE RD, WEST SIMSBURY, CT, 06092",604917688,"L"
59002,"141 WESTON STREET 1832","HARTFORD","CT",6101,NA,NA,2,"141 WESTON STREET 1832, HARTFORD, CT, 6101","No_Match",NA,NA,NA,NA
59003,"141 WESTON STREET 482","HARTFORD","CT",6101,NA,NA,3,"141 WESTON STREET 482, HARTFORD, CT, 6101","No_Match",NA,NA,NA,NA
59004,"141 WILKINSON ESTATES DRIVE","RICHMOND","VA",23227,37.6174574660001,-77.4245148159999,4,"141 WILKINSON ESTATES DRIVE, RICHMOND, VA, 23227","Match","Exact","141 WILKINSON ESTATES DR, RICHMOND, VA, 23227",106664983,"R"
59005,"141 WILLIAMSON AVENUE","HILLSIDE","NJ",7205,40.70293859,-74.2182436749999,5,"141 WILLIAMSON AVENUE, HILLSIDE, NJ, 7205","Match","Exact","141 WILLIAMSON AVE, HILLSIDE, NJ, 07205",60581473,"R"
59006,"141 YORKSHIRE PLACE","MADISON HEIGHTS","VA",24572,37.472339505,-79.096363649,6,"141 YORKSHIRE PLACE, MADISON HEIGHTS, VA, 24572","Match","Exact","141 YORKSHIRE PL, MADISON HEIGHTS, VA, 24572",159108853,"L"
59007,"141-04 14TH AVENUE","WHITESTONE","NY",11357,40.786552918,-73.828163498,7,"141-04 14TH AVENUE, WHITESTONE, NY, 11357","Match","Exact","141-4 14TH AVE, WHITESTONE, NY, 11357",59700388,"R"
59008,"141-05 70TH AVENUE  SUITE 1","FLUSHING","NY",11367,40.728894962,-73.8245744339999,8,"141-05 70TH AVENUE  SUITE 1, FLUSHING, NY, 11367","Match","Exact","141-5 70TH AVE, FLUSHING, NY, 11367",59710262,"L"
59009,"141-07 20TH AVENUE SUITE 402","WHITESTONE","NY",11357,40.781674519,-73.827584491,9,"141-07 20TH AVENUE SUITE 402, WHITESTONE, NY, 11357","Match","Exact","141-7 20TH AVE, WHITESTONE, NY, 11357",59740778,"L"
59010,"141-07 20TH AVENUE SUITE 604","WHITESTONE","NY",11357,40.781674519,-73.827584491,10,"141-07 20TH AVENUE SUITE 604, WHITESTONE, NY, 11357","Match","Exact","141-7 20TH AVE, WHITESTONE, NY, 11357",59740778,"L"
59011,"141-1 ROUTE 130 S  345","CINNAMINSON","NJ",8077,NA,NA,11,"141-1 ROUTE 130 S  345, CINNAMINSON, NJ, 8077","No_Match",NA,NA,NA,NA
59012,"141-25 NORTHERN BLVD APT C8","FLUSHING","NY",11354,40.7644347770001,-73.825305928,12,"141-25 NORTHERN BLVD APT C8, FLUSHING, NY, 11354","Match","Exact","141-25 NORTHERN BLVD, FLUSHING, NY, 11354",59701116,"L"
59013,"141-28 72ND DRIVE","FLUSHING","NY",11367,40.7249711310001,-73.8223996739999,13,"141-28 72ND DRIVE, FLUSHING, NY, 11367","Match","Exact","141-28 72ND DR, FLUSHING, NY, 11367",59710279,"R"
59014,"141-30 181ST ST SPRINGFIELD GARDENS","NEW YORK","NY",11413,40.669993194,-73.7627693699999,14,"141-30 181ST ST SPRINGFIELD GARDENS, NEW YORK, NY, 11413","Match","Non_Exact","141-30 181ST ST, JAMAICA, NY, 11413",652210874,"R"
59015,"141-35 78TH AVENUE 1C","FLUSHING","NY",11367,40.719622669,-73.8197520379999,15,"141-35 78TH AVENUE 1C, FLUSHING, NY, 11367","Match","Exact","141-35 78TH AVE, FLUSHING, NY, 11367",640884777,"L"
59016,"141-59 85TH ROAD 1F","BRIARWOOD","NY",11435,40.709616268,-73.8147323749999,16,"141-59 85TH ROAD 1F, BRIARWOOD, NY, 11435","Match","Exact","141-59 85TH RD, BRIARWOOD, NY, 11435",59725354,"L"
59017,"141-A SAMS STREET","DECATUR","GA",30030,33.772710986,-84.282600422,17,"141-A SAMS STREET, DECATUR, GA, 30030","Match","Exact","141 SAMS ST, DECATUR, GA, 30030",600403944,"R"
59018,"1410 14TH STREET","PLANO","TX",75074,33.0182868250001,-96.693692912,18,"1410 14TH STREET, PLANO, TX, 75074","Match","Exact","1410 14TH ST, PLANO, TX, 75074",123490036,"R"
59019,"1410 20TH STREET UNIT 19","WEST DES MOINES","IA",50265,41.594153314,-93.733158784,19,"1410 20TH STREET UNIT 19, WEST DES MOINES, IA, 50265","Match","Exact","1410 20TH ST, W DES MOINES, IA, 50265",65776681,"L"
59020,"1410 20TH STREET UNIT 214","MIAMI BEACH","FL",33139,25.7955304110001,-80.14388917,20,"1410 20TH STREET UNIT 214, MIAMI BEACH, FL, 33139","Match","Exact","1410 20TH ST, MIAMI BEACH, FL, 33139",116020134,"L"
59021,"1410 47TH AVE NE","COLUMBIA HEIGHTS","MN",55421,45.0535737220001,-93.240650376,21,"1410 47TH AVE NE, COLUMBIA HEIGHTS, MN, 55421","Match","Exact","1410 47TH AVE NE, COLUMBIA HEIGHTS, MN, 55421",97500145,"R"
59022,"1410 71ST STREET","MIAMI BEACH","FL",33141,25.8535742710001,-80.1338487789999,22,"1410 71ST STREET, MIAMI BEACH, FL, 33141","Match","Exact","1410 71ST ST, MIAMI BEACH, FL, 33141",116008686,"L"
59023,"1410 7TH WAY CIRCLE","PLEASANT GROVE","AL",35127,33.4897713020001,-87.0012362109999,23,"1410 7TH WAY CIRCLE, PLEASANT GROVE, AL, 35127","Match","Exact","1410 7TH WAY CIR, PLEASANT GROVE, AL, 35127",81655011,"R"
59024,"1410 8TH AVE","LONGVIEW","WA",98632,46.1373126760001,-122.92732052,24,"1410 8TH AVE, LONGVIEW, WA, 98632","Match","Exact","1410 8TH AVE, LONGVIEW, WA, 98632",184490540,"R"
59025,"1410 8TH ST CT SE","NEW PRAGUE","MN",56071,44.5356078730001,-93.557254305,25,"1410 8TH ST CT SE, NEW PRAGUE, MN, 56071","Match","Exact","1410 8TH ST CT SE, NEW PRAGUE, MN, 56071",619416592,"L"
59026,"1410 AMISTAD DR","PROSPER","TX",75078,33.222331184,-96.7778688609999,26,"1410 AMISTAD DR, PROSPER, TX, 75078","Match","Exact","1410 AMISTAD DR, PROSPER, TX, 75078",619913024,"L"
59027,"1410 AVENUE R","BROOKLYN","NY",11229,40.605710365,-73.958494877,27,"1410 AVENUE R, BROOKLYN, NY, 11229","Match","Exact","1410 AVE R, BROOKLYN, NY, 11229",59090106,"R"
59028,"1410 BELMONT DRIVE","DALTON","GA",30720,34.750575403,-84.9838656809999,28,"1410 BELMONT DRIVE, DALTON, GA, 30720","Match","Exact","1410 BELMONT DR, DALTON, GA, 30720",57368992,"L"
59029,"1410 BLANDING WAY","WINDER","GA",30680,34.035447494,-83.585655781,29,"1410 BLANDING WAY, WINDER, GA, 30680","Match","Exact","1410 BLANDING WAY, WINDER, GA, 30680",628058829,"L"
59030,"1410 BLUFF VIEW CT","INDIANAPOLIS","IN",46217,39.6849527730001,-86.1840984789999,30,"1410 BLUFF VIEW CT, INDIANAPOLIS, IN, 46217","Match","Exact","1410 BLUFF VIEW CT, INDIANAPOLIS, IN, 46217",624866828,"R"
59031,"1410 BRENDON TRAILS DR","SPRING","TX",77379,30.0510195620001,-95.580607512,31,"1410 BRENDON TRAILS DR, SPRING, TX, 77379","Match","Exact","1410 BRENDON TRAILS DR, SPRING, TX, 77379",624612662,"L"
59032,"1410 BYRON DRIVE","CONWAY","AR",72036,35.0992540550001,-92.5158857659999,32,"1410 BYRON DRIVE, CONWAY, AR, 72036","Match","Non_Exact","1410 BYRON DR, CONWAY, AR, 72034",141073266,"L"
59033,"1410 CHADWORTH COURT","PITTSBURGH","PA",15237,40.552795486,-80.070981897,33,"1410 CHADWORTH COURT, PITTSBURGH, PA, 15237","Match","Exact","1410 CHADWORTH CT, PITTSBURGH, PA, 15237",648672690,"R"
59034,"1410 COUNTY ROAD 3218","DE KALB","TX",75559,33.60389364,-94.533524744,34,"1410 COUNTY ROAD 3218, DE KALB, TX, 75559","Match","Exact","1410 CO RD 3218, DE KALB, TX, 75559",57656858,"R"
59035,"1410 COUNTY ROAD T","AMHERST JUNCTION","WI",54407,NA,NA,35,"1410 COUNTY ROAD T, AMHERST JUNCTION, WI, 54407","No_Match",NA,NA,NA,NA
59036,"1410 COX LAKE ROAD","BELTON","SC",29627,34.5379294470001,-82.542791423,36,"1410 COX LAKE ROAD, BELTON, SC, 29627","Match","Exact","1410 COX LAKE RD, BELTON, SC, 29627",25454438,"R"
59037,"1410 CREEKSIDE DRIVE APT 16","WALNUT CREEK","CA",94596,37.884982151,-122.050996479,37,"1410 CREEKSIDE DRIVE APT 16, WALNUT CREEK, CA, 94596","Match","Exact","1410 CREEKSIDE DR, WALNUT CREEK, CA, 94596",647666285,"R"
59038,"1410 CURRY ROAD SUITE-131","SCHENECTADY","NY",12306,42.783597844,-73.963126444,38,"1410 CURRY ROAD SUITE-131, SCHENECTADY, NY, 12306","Match","Exact","1410 CURRY RD, SCHENECTADY, NY, 12306",18027442,"R"
59039,"1410 DABBLING DUCK DRIVE","SUMMERVILLE","SC",29483,NA,NA,39,"1410 DABBLING DUCK DRIVE, SUMMERVILLE, SC, 29483","No_Match",NA,NA,NA,NA
59040,"1410 DAKOTA STREET","LINCOLN","NE",68502,40.781581078,-96.701296741,40,"1410 DAKOTA STREET, LINCOLN, NE, 68502","Match","Exact","1410 DAKOTA ST, LINCOLN, NE, 68502",28254990,"L"
59041,"1410 DOR","ZUMBROTA","MN",55992,NA,NA,41,"1410 DOR, ZUMBROTA, MN, 55992","No_Match",NA,NA,NA,NA
59042,"1410 E 11TH ST","LOVELAND","CO",80537,40.402871304,-105.057868484,42,"1410 E 11TH ST, LOVELAND, CO, 80537","Match","Exact","1410 E 11TH ST, LOVELAND, CO, 80537",188539492,"R"
59043,"1410 E 79TH STREET","KANSAS CITY","MO",64131,38.9841153340001,-94.570406353,43,"1410 E 79TH STREET, KANSAS CITY, MO, 64131","Match","Exact","1410 E 79TH ST, KANSAS CITY, MO, 64131",91455349,"L"
59044,"1410 E IDAHOME STREET","WEST COVINA","CA",91791,34.074668294,-117.915982106,44,"1410 E IDAHOME STREET, WEST COVINA, CA, 91791","Match","Exact","1410 E IDAHOME ST, WEST COVINA, CA, 91791",141714999,"R"
59045,"1410 E KEARNEY ST STE D","SPRINGFIELD","MO",65803,NA,NA,45,"1410 E KEARNEY ST STE D, SPRINGFIELD, MO, 65803","Tie",NA,NA,NA,NA
59046,"1410 E KEARNEY SUITE D","SPRINGFIELD","MO",65803,NA,NA,46,"1410 E KEARNEY SUITE D, SPRINGFIELD, MO, 65803","No_Match",NA,NA,NA,NA
59047,"1410 EAST 9TH ST","PANAMA CITY","FL",32401,30.164082708,-85.640629653,47,"1410 EAST 9TH ST, PANAMA CITY, FL, 32401","Match","Exact","1410 E 9TH ST, PANAMA CITY, FL, 32401",7030097,"R"
59048,"1410 EAST JACKSON STREET","MEDFORD","OR",97504,42.331128468,-122.854487952,48,"1410 EAST JACKSON STREET, MEDFORD, OR, 97504","Match","Exact","1410 E JACKSON ST, MEDFORD, OR, 97504",155515017,"R"
59049,"1410 EAST MARION STREET","SEATTLE","WA",98122,47.610385131,-122.313919506,49,"1410 EAST MARION STREET, SEATTLE, WA, 98122","Match","Exact","1410 E MARION ST, SEATTLE, WA, 98122",186592587,"L"
59050,"1410 EAST PERSHING STREET","APPLETON","WI",54911,44.284222863,-88.383084646,50,"1410 EAST PERSHING STREET, APPLETON, WI, 54911","Match","Exact","1410 E PERSHING ST, APPLETON, WI, 54911",74887024,"L"
59051,"1410 EASTERN AVENUE","MALDEN","MA",2148,42.4311540670001,-71.030315823,51,"1410 EASTERN AVENUE, MALDEN, MA, 2148","Match","Exact","1410 EASTERN AVE, MALDEN, MA, 02148",86874449,"L"
59052,"1410 EWING ST","LOS ANGELES","CA",90026,34.0865081430001,-118.247810215,52,"1410 EWING ST, LOS ANGELES, CA, 90026","Match","Exact","1410 EWING ST, LOS ANGELES, CA, 90026",141616207,"L"
59053,"1410 FORSTER BLVD SW","NORTH BEND","WA",98045,47.4823637000001,-121.800715436,53,"1410 FORSTER BLVD SW, NORTH BEND, WA, 98045","Match","Exact","1410 FORSTER BLVD SW, NORTH BEND, WA, 98045",648552235,"L"
59054,"1410 FRANKLIN STREET SUITE 211","SAN FRANCISCO","CA",94109,37.7874591610001,-122.423418357,54,"1410 FRANKLIN STREET SUITE 211, SAN FRANCISCO, CA, 94109","Match","Exact","1410 FRANKLIN ST, SAN FRANCISCO, CA, 94109",192280154,"R"
59055,"1410 FRANKLIN STREET UNIT 207","SAN FRANCISCO","CA",94109,37.7874591610001,-122.423418357,55,"1410 FRANKLIN STREET UNIT 207, SAN FRANCISCO, CA, 94109","Match","Exact","1410 FRANKLIN ST, SAN FRANCISCO, CA, 94109",192280154,"R"
59056,"1410 FREEMAN LOOP","CUMBERLAND FURNACE","TN",37051,36.3163268970001,-87.339052854,56,"1410 FREEMAN LOOP, CUMBERLAND FURNACE, TN, 37051","Match","Exact","1410 FREEMAN LOOP, CUMBERLAND FURNACE, TN, 37051",72765798,"L"
59057,"1410 GA HWY 40E","KINGSLAND","GA",31548,NA,NA,57,"1410 GA HWY 40E, KINGSLAND, GA, 31548","No_Match",NA,NA,NA,NA
59058,"1410 GOLDEN MEADOW STREET","WAUSAU","WI",54401,44.977633446,-89.653838827,58,"1410 GOLDEN MEADOW STREET, WAUSAU, WI, 54401","Match","Exact","1410 GOLDEN MEADOW ST, WAUSAU, WI, 54401",117156988,"L"
59059,"1410 GRANT STREET SUITE B105","DENVER","CO",80203,39.73870298,-104.983583212,59,"1410 GRANT STREET SUITE B105, DENVER, CO, 80203","Match","Exact","1410 GRANT ST, DENVER, CO, 80203",177305729,"R"
59060,"1410 HACKBERRY ST","CLIFTON","TX",76634,31.783531752,-97.586659146,60,"1410 HACKBERRY ST, CLIFTON, TX, 76634","Match","Exact","1410 HACKBERRY ST, CLIFTON, TX, 76634",158595680,"R"
59061,"1410 HICKS STREET 4A","BRONX","NY",10469,40.878345573,-73.8499776629999,61,"1410 HICKS STREET 4A, BRONX, NY, 10469","Match","Exact","1410 HICKS ST, BRONX, NY, 10469",80297967,"R"
59062,"1410 HICKS STREET 4A","BRONX","NY",10473,40.878345573,-73.8499776629999,62,"1410 HICKS STREET 4A, BRONX, NY, 10473","Match","Non_Exact","1410 HICKS ST, BRONX, NY, 10469",80297967,"R"
59063,"1410 HIGHWAY 138 SW","RIVERDALE","GA",30296,NA,NA,63,"1410 HIGHWAY 138 SW, RIVERDALE, GA, 30296","No_Match",NA,NA,NA,NA
59064,"1410 HOAKOA PLACE","HONOLULU","HI",96821,21.281168203,-157.78296966,64,"1410 HOAKOA PLACE, HONOLULU, HI, 96821","Match","Exact","1410 HOAKOA PL, HONOLULU, HI, 96821",203334006,"L"
59065,"1410 HWY 304 EAST","POCAHONTAS","AR",72455,NA,NA,65,"1410 HWY 304 EAST, POCAHONTAS, AR, 72455","No_Match",NA,NA,NA,NA
59066,"1410 ISLEWORTH CIRCLE","ATLANTA","GA",30349,33.6006296260001,-84.434529646,66,"1410 ISLEWORTH CIRCLE, ATLANTA, GA, 30349","Match","Exact","1410 ISLEWORTH CIR, ATLANTA, GA, 30349",23330950,"L"
59067,"1410 JASPER XING","PRINCETON","TX",75407,33.1894955010001,-96.520673065,67,"1410 JASPER XING, PRINCETON, TX, 75407","Match","Exact","1410 JASPER CROSSING, PRINCETON, TX, 75407",649021893,"R"
59068,"1410 KEY HIGHWAY","BALTIMORE","MD",21230,39.273888458,-76.603025623,68,"1410 KEY HIGHWAY, BALTIMORE, MD, 21230","Match","Exact","1410 KEY HWY, BALTIMORE, MD, 21230",206421953,"R"
59069,"1410 LACEY DR","BAYTOWN","TX",77520,29.7433292010001,-94.950503603,69,"1410 LACEY DR, BAYTOWN, TX, 77520","Match","Exact","1410 LACEY DR, BAYTOWN, TX, 77520",96622989,"L"
59070,"1410 LADUE LANE","SARASOTA","FL",34231,27.285281706,-82.538798468,70,"1410 LADUE LANE, SARASOTA, FL, 34231","Match","Exact","1410 LADUE LN, SARASOTA, FL, 34231",16348920,"R"
59071,"1410 LAKE CHARLOTTE COURT","RICHMOND","TX",77406,29.6504197150001,-95.729697723,71,"1410 LAKE CHARLOTTE COURT, RICHMOND, TX, 77406","Match","Exact","1410 LAKE CHARLOTTE CT, RICHMOND, TX, 77406",649826990,"L"
59072,"1410 LAURENTIDE","HOUSTON","TX",77029,29.7652863370001,-95.26669528,72,"1410 LAURENTIDE, HOUSTON, TX, 77029","Match","Non_Exact","1410 LAURENTIDE ST, HOUSTON, TX, 77029",96084648,"R"
59073,"1410 LONAS DRIVE","MARYVILLE","TN",37803,35.7402636510001,-83.984737594,73,"1410 LONAS DRIVE, MARYVILLE, TN, 37803","Match","Exact","1410 LONAS DR, MARYVILLE, TN, 37803",607461849,"L"
59074,"1410 LPGA BLVD STE 148","DAYTONA BEACH","FL",32117,29.233548195,-81.070715594,74,"1410 LPGA BLVD STE 148, DAYTONA BEACH, FL, 32117","Match","Exact","1410 LPGA BLVD, DAYTONA BEACH, FL, 32117",94522413,"R"
59075,"1410 MAIN ST STE 3D","CINCINNATI","OH",45202,39.1115201910001,-84.512234022,75,"1410 MAIN ST STE 3D, CINCINNATI, OH, 45202","Match","Exact","1410 MAIN ST, CINCINNATI, OH, 45202",103935925,"R"
59076,"1410 MCNEILL RD","SANFORD","NC",27330,35.508431456,-79.183566409,76,"1410 MCNEILL RD, SANFORD, NC, 27330","Match","Exact","1410 MCNEILL RD, SANFORD, NC, 27330",72077485,"L"
59077,"1410 N 30TH STREET","PHILADELPHIA","PA",19121,39.9780192320001,-75.184394642,77,"1410 N 30TH STREET, PHILADELPHIA, PA, 19121","Match","Exact","1410 N 30TH ST, PHILADELPHIA, PA, 19121",131404866,"L"
59078,"1410 N 65TH AVENUE","PENSACOLA","FL",32506,30.428922648,-87.300147157,78,"1410 N 65TH AVENUE, PENSACOLA, FL, 32506","Match","Exact","1410 N 65TH AVE, PENSACOLA, FL, 32506",93212488,"R"
59079,"1410 N FRANKLIN ST","LITCHFIELD","IL",62056,39.1853791940001,-89.649416023,79,"1410 N FRANKLIN ST, LITCHFIELD, IL, 62056","Match","Exact","1410 N FRANKLIN ST, LITCHFIELD, IL, 62056",99438387,"R"
59080,"1410 N PINE HILLS RD","ORLANDO","FL",32808,28.57357052,-81.452182442,80,"1410 N PINE HILLS RD, ORLANDO, FL, 32808","Match","Exact","1410 N PINE HILLS RD, ORLANDO, FL, 32808",94270170,"L"
59081,"1410 NADINA STREET","SAN MATEO","CA",94402,37.551825213,-122.319675667,81,"1410 NADINA STREET, SAN MATEO, CA, 94402","Match","Exact","1410 NADINA ST, SAN MATEO, CA, 94402",192378331,"R"
59082,"1410 NEOTOMAS AVENUE SUITE 102","SANTA ROSA","CA",95405,38.433870072,-122.68774818,82,"1410 NEOTOMAS AVENUE SUITE 102, SANTA ROSA, CA, 95405","Match","Exact","1410 NEOTOMAS AVE, SANTA ROSA, CA, 95405",67470952,"R"
59083,"1410 NOTTINGHILL DRIVE","O FALLON","IL",62269,38.6160307710001,-89.877657546,83,"1410 NOTTINGHILL DRIVE, O FALLON, IL, 62269","Match","Exact","1410 NOTTINGHILL DR, O FALLON, IL, 62269",625551091,"L"
59084,"1410 NW 204 ST","MIAMI","FL",33169,25.962235317,-80.225988253,84,"1410 NW 204 ST, MIAMI, FL, 33169","Match","Exact","1410 NW 204TH ST, MIAMI, FL, 33169",116325672,"L"
59085,"1410 NW DAISY DRIVE","TOPEKA","KS",66618,39.1062940090001,-95.683648131,85,"1410 NW DAISY DRIVE, TOPEKA, KS, 66618","Match","Exact","1410 NW DAISY DR, TOPEKA, KS, 66618",17887851,"R"
59086,"1410 OAKMONT ROAD UNIT 140L","SEAL BEACH","CA",90740,33.7697365610001,-118.088091883,86,"1410 OAKMONT ROAD UNIT 140L, SEAL BEACH, CA, 90740","Match","Exact","1410 OAKMONT RD, SEAL BEACH, CA, 90740",609055513,"R"
59087,"1410 OVERHILL RD","COLUMBIA","MO",65203,38.9373493190001,-92.376326094,87,"1410 OVERHILL RD, COLUMBIA, MO, 65203","Match","Exact","1410 OVERHILL RD, COLUMBIA, MO, 65203",23479157,"L"
59088,"1410 PATRICK CIRCLE SW","VIENNA","VA",22180,38.882211307,-77.24898752,88,"1410 PATRICK CIRCLE SW, VIENNA, VA, 22180","Match","Exact","1410 PATRICK CIR SW, VIENNA, VA, 22180",75971153,"R"
59089,"1410 PEARTREE LN","BOWIE","MD",20721,38.910171378,-76.747843745,89,"1410 PEARTREE LN, BOWIE, MD, 20721","Match","Exact","1410 PEARTREE LN, BOWIE, MD, 20721",76342474,"R"
59090,"1410 PENN AVE","DES MOINES","IA",50316,41.6028190160001,-93.60843959,90,"1410 PENN AVE, DES MOINES, IA, 50316","Match","Exact","1410 PENN AVE, DES MOINES, IA, 50316",65854319,"L"
59091,"1410 RAWSON AVENUE","SOUTH MILWAUKEE","WI",53172,42.9153248740001,-87.869397248,91,"1410 RAWSON AVENUE, SOUTH MILWAUKEE, WI, 53172","Match","Exact","1410 RAWSON AVE, S MILWAUKEE, WI, 53172",77755571,"R"
59092,"1410 RENO RIDGE LANE","SPRING","TX",77373,30.0411703440001,-95.411956074,92,"1410 RENO RIDGE LANE, SPRING, TX, 77373","Match","Exact","1410 RENO RIDGE, SPRING, TX, 77373",645001982,"L"
59093,"1410 RIDGE RD","HINCKLEY","OH",44233,41.237623962,-81.7449749749999,93,"1410 RIDGE RD, HINCKLEY, OH, 44233","Match","Exact","1410 RIDGE RD, HINCKLEY, OH, 44233",615679019,"L"
59094,"1410 RIVERSIDE DR","PRESTONSBURG","KY",41653,37.667520477,-82.758872089,94,"1410 RIVERSIDE DR, PRESTONSBURG, KY, 41653","Match","Exact","1410 RIVERSIDE DR, PRESTONSBURG, KY, 41653",33615667,"R"
59095,"1410 RIVERVIEW DRIVE","STILLWATER","MN",55082,45.068444341,-92.8077196249999,95,"1410 RIVERVIEW DRIVE, STILLWATER, MN, 55082","Match","Exact","1410 RIVERVIEW DR, STILLWATER, MN, 55082",97807234,"L"
59096,"1410 ROAD 14","ST FRANCIS","KS",67756,NA,NA,96,"1410 ROAD 14, ST FRANCIS, KS, 67756","No_Match",NA,NA,NA,NA
59097,"1410 S 18TH AVENUE","MAYWOOD","IL",60153,41.87426413,-87.854687041,97,"1410 S 18TH AVENUE, MAYWOOD, IL, 60153","Match","Exact","1410 S 18TH AVE, MAYWOOD, IL, 60153",111790906,"R"
59098,"1410 S AINSWORTH AVE","TACOMA","WA",98405,47.2479824150001,-122.45814892,98,"1410 S AINSWORTH AVE, TACOMA, WA, 98405","Match","Exact","1410 S AINSWORTH AVE, TACOMA, WA, 98405",184624476,"R"
59099,"1410 S BENTLEY AVE","LOS ANGELES","CA",90024,34.0516885760001,-118.446505899,99,"1410 S BENTLEY AVE, LOS ANGELES, CA, 90024","Match","Non_Exact","1410 S BENTLEY AVE, LOS ANGELES, CA, 90025",141567606,"L"
59100,"1410 S LINCOLN WAY STE 100","COEUR D ALENE","ID",83814,47.6882171670001,-116.791728776,100,"1410 S LINCOLN WAY STE 100, COEUR D ALENE, ID, 83814","Match","Exact","1410 LINCOLN WAY, COEUR D ALENE, ID, 83814",640599383,"R"
59101,"1410 S OLIVE ST","LOS ANGELES","CA",90015,34.036453905,-118.264363158,101,"1410 S OLIVE ST, LOS ANGELES, CA, 90015","Match","Exact","1410 S OLIVE ST, LOS ANGELES, CA, 90015",141618940,"L"
59102,"1410 S WARDLE ST","BOISE","ID",83705,43.591365873,-116.231570063,102,"1410 S WARDLE ST, BOISE, ID, 83705","Match","Exact","1410 WARDLE ST, BOISE, ID, 83705",117863678,"L"
59103,"1410 SALISBURY DR","BATON ROUGE","LA",70816,30.4471469440001,-91.0186721809999,103,"1410 SALISBURY DR, BATON ROUGE, LA, 70816","Match","Exact","1410 SALISBURY DR, BATON ROUGE, LA, 70816",92194548,"R"
59104,"1410 SE 29TH AVE","PORTLAND","OR",97214,45.5127348300001,-122.636101763,104,"1410 SE 29TH AVE, PORTLAND, OR, 97214","Match","Exact","1410 SE 29TH AVE, PORTLAND, OR, 97214",157509682,"L"
59105,"1410 SE 43RD TERRACE","CAPE CORAL","FL",33904,26.5714703100001,-81.946720998,105,"1410 SE 43RD TERRACE, CAPE CORAL, FL, 33904","Match","Exact","1410 SE 43RD TER, CAPE CORAL, FL, 33904",118089263,"R"
59106,"1410 SHADYCREEK COURT APT C","SAINT LOUIS","MO",63146,38.6865621520001,-90.466883287,106,"1410 SHADYCREEK COURT APT C, SAINT LOUIS, MO, 63146","Match","Exact","1410 SHADYCREEK CT, SAINT LOUIS, MO, 63146",625018090,"R"
59107,"1410 SIGLER ST","NASHVILLE","TN",37203,36.1504658320001,-86.7888263739999,107,"1410 SIGLER ST, NASHVILLE, TN, 37203","Match","Exact","1410 SIGLER ST, NASHVILLE, TN, 37203",97231582,"R"
59108,"1410 SILVIUS AVE","SAN PEDRO","CA",90731,33.7163860950001,-118.309047776,108,"1410 SILVIUS AVE, SAN PEDRO, CA, 90731","Match","Exact","1410 SILVIUS AVE, SAN PEDRO, CA, 90731",141690358,"R"
59109,"1410 SIMMONS AVENUE","LOS ANGELES","CA",90022,34.0115872330001,-118.146861561,109,"1410 SIMMONS AVENUE, LOS ANGELES, CA, 90022","Match","Exact","1410 SIMMONS AVE, LOS ANGELES, CA, 90022",141638437,"L"
59110,"1410 SOUTH FIFTH STREET","ST. CHARLES","MO",63301,38.770761195,-90.493001034,110,"1410 SOUTH FIFTH STREET, ST. CHARLES, MO, 63301","Match","Exact","1410 S 5TH ST, SAINT CHARLES, MO, 63301",605572674,"L"
59111,"1410 SOUTH MAIN STREET","NASHVILLE","AR",71852,33.930659893,-93.847093908,111,"1410 SOUTH MAIN STREET, NASHVILLE, AR, 71852","Match","Exact","1410 S MAIN ST, NASHVILLE, AR, 71852",73571178,"L"
59112,"1410 SUMMER SWEET LANE","MOUNT AIRY","MD",21771,39.3890249560001,-77.150187085,112,"1410 SUMMER SWEET LANE, MOUNT AIRY, MD, 21771","Match","Exact","1410 SUMMER SWEET LN, MOUNT AIRY, MD, 21771",209397699,"R"
59113,"1410 SUMMIT PLACE DRIVE","ATLANTA","GA",30350,33.9937070400001,-84.3421184059999,113,"1410 SUMMIT PLACE DRIVE, ATLANTA, GA, 30350","Match","Exact","1410 SUMMIT PLACE DR, ATLANTA, GA, 30350",624608482,"L"
59114,"1410 SW MORRISON ST STE 850","PORTLAND","OR",97205,45.5211376510001,-122.686360033,114,"1410 SW MORRISON ST STE 850, PORTLAND, OR, 97205","Match","Non_Exact","1410 SW MORRISON ST, PORTLAND, OR, 97205",157498966,"L"
59115,"1410 TAYLOR AVENUE","CORONA","CA",92882,33.867219649,-117.573359462,115,"1410 TAYLOR AVENUE, CORONA, CA, 92882","Match","Exact","1410 TAYLOR AVE, CORONA, CA, 92882",194777828,"R"
59116,"1410 THIRD STREET SUITE 12","RIVERSIDE","CA",92507,NA,NA,116,"1410 THIRD STREET SUITE 12, RIVERSIDE, CA, 92507","No_Match",NA,NA,NA,NA
59117,"1410 TREASURE LAKE","DUBOIS","PA",15801,41.1655184700001,-78.706418261,117,"1410 TREASURE LAKE, DUBOIS, PA, 15801","Match","Exact","1410 TREASURE LAKE, DUBOIS, PA, 15801",50470280,"R"
59118,"1410 W 12TH AVE","BROOMFIELD","CO",80020,39.934205094,-105.085370435,118,"1410 W 12TH AVE, BROOMFIELD, CO, 80020","Match","Exact","1410 W 12TH AVE, BROOMFIELD, CO, 80020",210040132,"R"
59119,"1410 W CAMEL BACK LN APT 127","BOISE","ID",83702,43.6396185070001,-116.204790292,119,"1410 W CAMEL BACK LN APT 127, BOISE, ID, 83702","Match","Exact","1410 CAMEL BACK LN, BOISE, ID, 83702",117859780,"R"
59120,"1410 W GUADALUPE RD","GILBERT","AZ",85233,33.3642632780001,-111.82058983,120,"1410 W GUADALUPE RD, GILBERT, AZ, 85233","Match","Exact","1410 W GUADALUPE RD, GILBERT, AZ, 85233",128868805,"L"
59121,"1410 W MICHIGAN ST","ORLANDO","FL",32805,28.514533096,-81.3993718409999,121,"1410 W MICHIGAN ST, ORLANDO, FL, 32805","Match","Exact","1410 W MICHIGAN ST, ORLANDO, FL, 32805",641064944,"L"
59122,"1410 W MOLLOY LN","MURFREESBORO","TN",37129,35.834414908,-86.4131783029999,122,"1410 W MOLLOY LN, MURFREESBORO, TN, 37129","Match","Exact","1410 MOLLOY LN, MURFREESBORO, TN, 37129",636538885,"R"
59123,"1410 W ST GERMAIN ST","ST CLOUD","MN",56301,45.556650378,-94.16862571,123,"1410 W ST GERMAIN ST, ST CLOUD, MN, 56301","Match","Non_Exact","1410 SAINT GERMAIN ST W, SAINT CLOUD, MN, 56301",107415201,"L"
59124,"1410 WALDROP COVE","AUSTIN","TX",78748,30.1841600240001,-97.8106127899999,124,"1410 WALDROP COVE, AUSTIN, TX, 78748","Match","Exact","1410 WALDROP COVE, AUSTIN, TX, 78748",63986305,"L"
59125,"1410 WEDGEWOOD DRIVE","MONTGOMERY","AL",36111,32.3368675880001,-86.285319138,125,"1410 WEDGEWOOD DRIVE, MONTGOMERY, AL, 36111","Match","Exact","1410 WEDGEWOOD DR, MONTGOMERY, AL, 36111",1498102,"R"
59126,"1410 WELLGATE LANE","MECHANICSBURG","PA",17055,40.1715101890001,-76.926689645,126,"1410 WELLGATE LANE, MECHANICSBURG, PA, 17055","Match","Exact","1410 WELLGATE LN, MECHANICSBURG, PA, 17055",60955903,"L"
59127,"1410 WEST 14TH STREET","ANDERSON","IN",46016,40.1019273270001,-85.696808254,127,"1410 WEST 14TH STREET, ANDERSON, IN, 46016","Match","Exact","1410 W 14TH ST, ANDERSON, IN, 46016",31113311,"R"
59128,"1410 WIBLE ROAD SUITE 106","BAKERSFIELD","CA",93304,35.341735107,-119.038950223,128,"1410 WIBLE ROAD SUITE 106, BAKERSFIELD, CA, 93304","Match","Exact","1410 WIBLE RD, BAKERSFIELD, CA, 93304",109445418,"L"
59129,"1410 WILD HORSE DRIVE","GROVE CITY","OH",43123,39.828445577,-83.044444379,129,"1410 WILD HORSE DRIVE, GROVE CITY, OH, 43123","Match","Exact","1410 WILD HORSE DR, GROVE CITY, OH, 43123",135627032,"R"
59130,"1410 WILLOW AVENUE","CHESAPEAKE","VA",23325,36.813937298,-76.2294347919999,130,"1410 WILLOW AVENUE, CHESAPEAKE, VA, 23325","Match","Exact","1410 WILLOW AVE, CHESAPEAKE, VA, 23325",121772606,"L"
59131,"14100 90TH AVE NW","PENNOCK","MN",56279,45.2105781490001,-95.233286313,131,"14100 90TH AVE NW, PENNOCK, MN, 56279","Match","Exact","14100 90TH AVE NW, PENNOCK, MN, 56279",637177993,"L"
59132,"14100 CEDAR ROAD SUITE 160","UNIVERSITY HEIGHTS","OH",44121,41.50136932,-81.532540146,132,"14100 CEDAR ROAD SUITE 160, UNIVERSITY HEIGHTS, OH, 44121","Match","Non_Exact","14100 CEDAR RD, UNIVERSITY HT, OH, 44118",61125665,"R"
59133,"14100 COVENTRY WAY  UNIT 303","TUSTIN","CA",92782,NA,NA,133,"14100 COVENTRY WAY  UNIT 303, TUSTIN, CA, 92782","No_Match",NA,NA,NA,NA
59134,"14100 DICKENS ST STE 1","SHERMAN OAKS","CA",91423,34.1482368700001,-118.440691178,134,"14100 DICKENS ST STE 1, SHERMAN OAKS, CA, 91423","Match","Exact","14100 DICKENS ST, SHERMAN OAKS, CA, 91423",141562433,"L"
59135,"14100 RIO BONITO RD APT 163","HOUSTON","TX",77083,NA,NA,135,"14100 RIO BONITO RD APT 163, HOUSTON, TX, 77083","No_Match",NA,NA,NA,NA
59136,"14100 SAN PEDRO AVE SUITE 310","SAN ANTONIO","TX",78232,NA,NA,136,"14100 SAN PEDRO AVE SUITE 310, SAN ANTONIO, TX, 78232","No_Match",NA,NA,NA,NA
59137,"14100 SNEAD CIR","ORLANDO","FL",32827,28.3603584960001,-81.416372424,137,"14100 SNEAD CIR, ORLANDO, FL, 32827","Match","Non_Exact","14100 SNEAD CIR, ORLANDO, FL, 32837",94324777,"R"
59138,"14100 SW 144TH AVE","MIAMI","FL",33186,25.6335555220001,-80.422240571,138,"14100 SW 144TH AVE, MIAMI, FL, 33186","Match","Non_Exact","14100 SW 144TH ST, MIAMI, FL, 33186",115968641,"R"
59139,"14100 WEST PARSLEY DRIVE","MADEIRA BEACH","FL",33708,NA,NA,139,"14100 WEST PARSLEY DRIVE, MADEIRA BEACH, FL, 33708","No_Match",NA,NA,NA,NA
59140,"14101 ARCHWOOD ST","VAN NUYS","CA",91405,34.192950195,-118.440154539,140,"14101 ARCHWOOD ST, VAN NUYS, CA, 91405","Match","Exact","14101 ARCHWOOD ST, VAN NUYS, CA, 91405",141561031,"R"
59141,"14101 ARCHWOOD STREET","VAN NUYS","CA",91405,34.192950195,-118.440154539,141,"14101 ARCHWOOD STREET, VAN NUYS, CA, 91405","Match","Exact","14101 ARCHWOOD ST, VAN NUYS, CA, 91405",141561031,"R"
59142,"14101 BERNARDY LANE","CHARLOTTE","NC",28269,35.3928658580001,-80.7704629309999,142,"14101 BERNARDY LANE, CHARLOTTE, NC, 28269","Match","Exact","14101 BERNARDY LN, CHARLOTTE, NC, 28269",70605739,"L"
59143,"14101 MISTY BROOK LANE","CHARLOTTE","NC",28273,35.0976309810001,-80.9702825799999,143,"14101 MISTY BROOK LANE, CHARLOTTE, NC, 28273","Match","Exact","14101 MISTY BROOK LN, CHARLOTTE, NC, 28273",70530436,"L"
59144,"14101 N MAY AVE STE 105","OKLAHOMA CITY","OK",73134,35.6173843240001,-97.567163202,144,"14101 N MAY AVE STE 105, OKLAHOMA CITY, OK, 73134","Match","Non_Exact","14101 N MAY AVE, OKLAHOMA CITY, OK, 73134",650122960,"L"
59145,"14101 RIO BONITO RD 292","HOUSTON","TX",77083,NA,NA,145,"14101 RIO BONITO RD 292, HOUSTON, TX, 77083","No_Match",NA,NA,NA,NA
59146,"14101 RIO BONITO RD SUITE 268","HOUSTON","TX",77083,NA,NA,146,"14101 RIO BONITO RD SUITE 268, HOUSTON, TX, 77083","No_Match",NA,NA,NA,NA
59147,"14101 S MICHIGAN AVE","RIVERDALE","IL",60827,41.6388579640001,-87.6196330829999,147,"14101 S MICHIGAN AVE, RIVERDALE, IL, 60827","Match","Exact","14101 S MICHIGAN AVE, RIVERDALE, IL, 60827",111778061,"L"
59148,"14101 TOWN LOOP BLVD","ORLANDO","FL",32837,28.362242081,-81.419938698,148,"14101 TOWN LOOP BLVD, ORLANDO, FL, 32837","Match","Exact","14101 TOWN LOOP BLVD, ORLANDO, FL, 32837",94368297,"R"
59149,"14101 W BRUNS RD","MANHATTAN","IL",60442,41.4098723600001,-87.9585800469999,149,"14101 W BRUNS RD, MANHATTAN, IL, 60442","Match","Exact","14101 W BRUNS RD, MANHATTAN, IL, 60442",111550342,"R"
59150,"14102 KREMS AVENUE","MAPLE","OH",44137,41.406650518,-81.583672722,150,"14102 KREMS AVENUE, MAPLE, OH, 44137","Match","Non_Exact","14102 KREMS AVE, MAPLE HEIGHTS, OH, 44137",61128423,"R"
59151,"14102 LA FORGE STREET","WHITTIER","CA",90605,33.9523305640001,-118.025494648,151,"14102 LA FORGE STREET, WHITTIER, CA, 90605","Match","Exact","14102 LA FORGE ST, WHITTIER, CA, 90605",141748602,"R"
59152,"14102 NE 42ND AVE","VANCOUVER","WA",98686,45.7234488610001,-122.627728311,152,"14102 NE 42ND AVE, VANCOUVER, WA, 98686","Match","Exact","14102 NE 42ND AVE, VANCOUVER, WA, 98686",158348566,"L"
59153,"14102 SUSAN CT","SUGAR LAND","TX",77498,29.6432850640001,-95.6336142869999,153,"14102 SUSAN CT, SUGAR LAND, TX, 77498","Match","Exact","14102 SUSAN CT, SUGAR LAND, TX, 77498",78266483,"R"
59154,"14103 CHELSEAHURST LN","HOUSTON","TX",77047,29.606099053,-95.37874759,154,"14103 CHELSEAHURST LN, HOUSTON, TX, 77047","Match","Exact","14103 CHELSEAHURST LN, HOUSTON, TX, 77047",624603466,"L"
59155,"14103 PIPEVINE CT","WINTER GARDEN","FL",34787,28.5066264290001,-81.5879970839999,155,"14103 PIPEVINE CT, WINTER GARDEN, FL, 34787","Match","Exact","14103 PIPEVINE CT, WINTER GARDEN, FL, 34787",94409379,"L"
59156,"14103 PROSPERITY RIDGE DR","HOUSTON","TX",77048,29.604303816,-95.352025721,156,"14103 PROSPERITY RIDGE DR, HOUSTON, TX, 77048","Match","Exact","14103 PROSPERITY RIDGE DR, HOUSTON, TX, 77048",638594043,"R"
59157,"14104 JEFFERSON CREEK DRIVE","ALPHARETTA","GA",30005,34.0901278040001,-84.236855587,157,"14104 JEFFERSON CREEK DRIVE, ALPHARETTA, GA, 30005","Match","Exact","14104 JEFFERSON CREEK DR, ALPHARETTA, GA, 30005",17421478,"R"
59158,"14104 JONES BRIDGE RD","UPPER MARLBORO","MD",20774,38.896084794,-76.763409654,158,"14104 JONES BRIDGE RD, UPPER MARLBORO, MD, 20774","Match","Exact","14104 JONES BRIDGE RD, UPPER MARLBORO, MD, 20774",638664878,"R"
59159,"14104 NE 30TH PLACE","BELLEVUE","WA",98007,47.6374064330001,-122.151970362,159,"14104 NE 30TH PLACE, BELLEVUE, WA, 98007","Match","Exact","14104 NE 30TH PL, BELLEVUE, WA, 98007",187070500,"L"
59160,"14104 NORTHAMPTON CT","GRANGER","IN",46530,41.760039697,-86.1411469019999,160,"14104 NORTHAMPTON CT, GRANGER, IN, 46530","Match","Exact","14104 NORTHAMPTON CT, GRANGER, IN, 46530",8074340,"R"
59161,"14105 CHADRON AVE","HAWTHORNE","CA",90250,33.903168721,-118.328657494,161,"14105 CHADRON AVE, HAWTHORNE, CA, 90250","Match","Exact","14105 CHADRON AVE, HAWTHORNE, CA, 90250",648188968,"R"
59162,"14105 CHADRON AVENUE 405","HAWTHORNE","CA",90250,33.903168721,-118.328657494,162,"14105 CHADRON AVENUE 405, HAWTHORNE, CA, 90250","Match","Exact","14105 CHADRON AVE, HAWTHORNE, CA, 90250",648188968,"R"
59163,"14105 NW 58TH COURT","MIAMI LAKES","FL",33014,25.901313101,-80.295454972,163,"14105 NW 58TH COURT, MIAMI LAKES, FL, 33014","Match","Exact","14105 NW 58TH CT, MIAMI LAKES, FL, 33014",116025153,"R"
59164,"14105 Q STREET","OMAHA","NE",68137,41.2053212480001,-96.134610687,164,"14105 Q STREET, OMAHA, NE, 68137","Match","Exact","14105 Q ST, OMAHA, NE, 68137",653876041,"L"
59165,"14105 Skyline Drive","Alexander","AR",72002,34.6224435670001,-92.4384670539999,165,"14105 Skyline Drive, Alexander, AR, 72002","Match","Exact","14105 SKYLINE DR, ALEXANDER, AR, 72002",639932464,"R"
59166,"14105 SW 84 ST","MIAMI","FL",33177,NA,NA,166,"14105 SW 84 ST, MIAMI, FL, 33177","No_Match",NA,NA,NA,NA
59167,"14106 BRAMBLE COURT APT T2","LAUREL","MD",20708,39.0847878750001,-76.852431198,167,"14106 BRAMBLE COURT APT T2, LAUREL, MD, 20708","Match","Exact","14106 BRAMBLE CT, LAUREL, MD, 20708",76376852,"L"
59168,"14106 CINDYWOOD CIRCLE","HOUSTON","TX",77079,29.765634328,-95.5910830879999,168,"14106 CINDYWOOD CIRCLE, HOUSTON, TX, 77079","Match","Exact","14106 CINDYWOOD CIR, HOUSTON, TX, 77079",96020934,"R"
59169,"14107 FARADAY PL","CHESTER","VA",23831,37.3243774590001,-77.454128281,169,"14107 FARADAY PL, CHESTER, VA, 23831","Match","Exact","14107 FARADAY PL, CHESTER, VA, 23831",201593802,"L"
59170,"14107 MORNING FROST DR","ORLANDO","FL",32828,NA,NA,170,"14107 MORNING FROST DR, ORLANDO, FL, 32828","No_Match",NA,NA,NA,NA
59171,"14108 423RD AVE","BRISTOL","SD",57219,45.3585102860001,-97.7556212539999,171,"14108 423RD AVE, BRISTOL, SD, 57219","Match","Exact","14108 423RD AVE, BRISTOL, SD, 57219",653267461,"R"
59172,"14108 COUNTY ROAD 59","WOODLAND","AL",36280,33.3466539880001,-85.396450481,172,"14108 COUNTY ROAD 59, WOODLAND, AL, 36280","Match","Exact","14108 CO RD 59, WOODLAND, AL, 36280",1630771,"R"
59173,"14108 DOTY AVENUE APT 10","HAWTHORNE","CA",90250,33.9030174270001,-118.33948994,173,"14108 DOTY AVENUE APT 10, HAWTHORNE, CA, 90250","Match","Exact","14108 DOTY AVE, HAWTHORNE, CA, 90250",142752713,"L"
59174,"14108 HAMLIN ST UNIT 1","VAN NUYS","CA",91401,34.188666412,-118.440305971,174,"14108 HAMLIN ST UNIT 1, VAN NUYS, CA, 91401","Match","Exact","14108 HAMLIN ST, VAN NUYS, CA, 91401",141561143,"L"
59175,"14108 KENSINGTON TRACE","LITHONIA","GA",30087,33.6788062000001,-84.099328973,175,"14108 KENSINGTON TRACE, LITHONIA, GA, 30087","Match","Non_Exact","14108 KENSINGTON TRCE, LITHONIA, GA, 30038",634040894,"L"
59176,"14109 KESSLER ST","OVERLAND PARK","KS",66221,38.8729282740001,-94.6929208029999,176,"14109 KESSLER ST, OVERLAND PARK, KS, 66221","Match","Exact","14109 KESSLER ST, OVERLAND PARK, KS, 66221",91300565,"L"
59177,"14109 SE HARNEY STREET","PORTLAND","OR",97236,45.462492368,-122.517794644,177,"14109 SE HARNEY STREET, PORTLAND, OR, 97236","Match","Exact","14109 SE HARNEY ST, PORTLAND, OR, 97236",157547096,"R"
59178,"1410E 4225N","BUHL","ID",83316,NA,NA,178,"1410E 4225N, BUHL, ID, 83316","No_Match",NA,NA,NA,NA
59179,"1411  MILLGATE DR  STE A","WINSTON SALEM","NC",27103,36.0740782840001,-80.31430805,179,"1411  MILLGATE DR  STE A, WINSTON SALEM, NC, 27103","Match","Exact","1411 MILLGATE DR, WINSTON SALEM, NC, 27103",84683026,"L"
59180,"1411 101ST AVENUE WEST","DULUTH","MN",55808,46.671981143,-92.227666991,180,"1411 101ST AVENUE WEST, DULUTH, MN, 55808","Match","Exact","1411 101ST AVE W, DULUTH, MN, 55808",163216624,"L"
59181,"1411 129TH STREET","NEW RICHMOND","WI",54017,45.06682399,-92.5398947579999,181,"1411 129TH STREET, NEW RICHMOND, WI, 54017","Match","Exact","1411 129TH ST, NEW RICHMOND, WI, 54017",612046539,"L"
59182,"1411 3RD STREET NORTHWEST","ATTALLA","AL",35954,34.029417461,-86.080439386,182,"1411 3RD STREET NORTHWEST, ATTALLA, AL, 35954","Match","Exact","1411 3RD ST NW, ATTALLA, AL, 35954",66765765,"R"
59183,"1411 ALLIES CT","FLORENCE","SC",29506,34.17133053,-79.729760325,183,"1411 ALLIES CT, FLORENCE, SC, 29506","Match","Exact","1411 ALLIES CT, FLORENCE, SC, 29506",627152807,"L"
59184,"1411 ARNOW AVE","BRONX","NY",10469,40.86750189,-73.845738753,184,"1411 ARNOW AVE, BRONX, NY, 10469","Match","Exact","1411 ARNOW AVE, BRONX, NY, 10469",80303834,"L"
59185,"1411 ASH OAK DRIVE","MISSOURI CITY","TX",77489,29.608794647,-95.5258972669999,185,"1411 ASH OAK DRIVE, MISSOURI CITY, TX, 77489","Match","Exact","1411 ASH OAK DR, MISSOURI CITY, TX, 77489",227773344,"R"
59186,"1411 ASHTEAD LANE","WILLIAMSTOWN","NJ",8094,39.668788083,-74.96853077,186,"1411 ASHTEAD LANE, WILLIAMSTOWN, NJ, 8094","Match","Exact","1411 ASHTEAD LN, WILLIAMSTOWN, NJ, 08094",618723415,"L"
59187,"1411 ASPEN DR","HARRISBURG","PA",17109,40.296914798,-76.788625794,187,"1411 ASPEN DR, HARRISBURG, PA, 17109","Match","Exact","1411 ASPEN DR, HARRISBURG, PA, 17109",70823669,"L"
59188,"1411 BACONS BRIDGE ROAD","SUMMERVILLE","SC",29485,32.9869428330001,-80.192061382,188,"1411 BACONS BRIDGE ROAD, SUMMERVILLE, SC, 29485","Match","Exact","1411 BACONS BRIDGE RD, SUMMERVILLE, SC, 29485",178459534,"R"
59189,"1411 BARNWELL STREET - SUITE 5","COLUMBIA","SC",29201,34.007651464,-81.025446964,189,"1411 BARNWELL STREET - SUITE 5, COLUMBIA, SC, 29201","Match","Exact","1411 BARNWELL ST, COLUMBIA, SC, 29201",71820862,"L"
59190,"1411 BETHLEHEM PIKE","FLOURTOWN","PA",19038,40.1028917610001,-75.212972673,190,"1411 BETHLEHEM PIKE, FLOURTOWN, PA, 19038","Match","Non_Exact","1411 BETHLEHEM PIKE, FLOURTOWN, PA, 19031",135088556,"L"
59191,"1411 BONNETT  UNIT M","BEL AIR","MD",21015,39.5393345700001,-76.3163301399999,191,"1411 BONNETT  UNIT M, BEL AIR, MD, 21015","Match","Non_Exact","1411 BONNETT PL, BEL AIR, MD, 21015",191674419,"R"
59192,"1411 BONNETT PLACE M","BEL AIR","MD",21015,39.5393345700001,-76.3163301399999,192,"1411 BONNETT PLACE M, BEL AIR, MD, 21015","Match","Exact","1411 BONNETT PL, BEL AIR, MD, 21015",191674419,"R"
59193,"1411 CAGE STREET","HOUSTON","TX",77020,29.773719375,-95.3350516309999,193,"1411 CAGE STREET, HOUSTON, TX, 77020","Match","Exact","1411 CAGE ST, HOUSTON, TX, 77020",96069215,"L"
59194,"1411 CARROLL AVE","LOS ANGELES","CA",90026,34.06983268,-118.25533666,194,"1411 CARROLL AVE, LOS ANGELES, CA, 90026","Match","Exact","1411 CARROLL AVE, LOS ANGELES, CA, 90026",141616864,"R"
59195,"1411 CELEBRATION AVE UNIT 207","CELEBRATION","FL",34747,28.3004520050001,-81.557331828,195,"1411 CELEBRATION AVE UNIT 207, CELEBRATION, FL, 34747","Match","Exact","1411 CELEBRATION AVE, CELEBRATION, FL, 34747",176696606,"R"
59196,"1411 CENTER AVE","MARTINEZ","CA",94553,37.9845679760001,-122.098587933,196,"1411 CENTER AVE, MARTINEZ, CA, 94553","Match","Exact","1411 CENTER AVE, MARTINEZ, CA, 94553",192088933,"L"
59197,"1411 COLUMBIA DRIVE","GLENDALE","CA",91205,34.128406044,-118.24197606,197,"1411 COLUMBIA DRIVE, GLENDALE, CA, 91205","Match","Exact","1411 COLUMBIA DR, GLENDALE, CA, 91205",141611176,"R"
59198,"1411 COMMONWEALTH AVE UNIT 104","BRIGHTON","MA",2135,42.349036986,-71.138899395,198,"1411 COMMONWEALTH AVE UNIT 104, BRIGHTON, MA, 2135","Match","Exact","1411 COMMONWEALTH AVE, BRIGHTON, MA, 02135",633012928,"R"
59199,"1411 CROWS LANDING RD","MODESTO","CA",95351,37.610085236,-120.993607281,199,"1411 CROWS LANDING RD, MODESTO, CA, 95351","Match","Exact","1411 CROWS LANDING RD, MODESTO, CA, 95351",102591337,"R"
59200,"1411 CUMBERLAND CREEK LANE","MARIETTA","GA",30008,33.8992744330001,-84.5946003879999,200,"1411 CUMBERLAND CREEK LANE, MARIETTA, GA, 30008","Match","Exact","1411 CUMBERLAND CREEK LN, MARIETTA, GA, 30008",634051271,"L"
59201,"1411 DICKERSON PIKE","NASHVILLE","TN",37207,36.197502677,-86.771285409,201,"1411 DICKERSON PIKE, NASHVILLE, TN, 37207","Match","Exact","1411 DICKERSON PIKE, NASHVILLE, TN, 37207",647616069,"R"
59202,"1411 DIXWELL AVE","HAMDEN","CT",6514,41.351342645,-72.931250421,202,"1411 DIXWELL AVE, HAMDEN, CT, 6514","Match","Exact","1411 DIXWELL AVE, HAMDEN, CT, 06514",3699315,"R"
59203,"1411 EAST 39TH STREET","SAVANNAH","GA",31404,32.049428133,-81.078275929,203,"1411 EAST 39TH STREET, SAVANNAH, GA, 31404","Match","Exact","1411 E 39TH ST, SAVANNAH, GA, 31404",6178628,"R"
59204,"1411 EAST MOODY AVENUE - 30","KNOXVILLE","TN",38920,35.952424883,-83.895684138,204,"1411 EAST MOODY AVENUE - 30, KNOXVILLE, TN, 38920","Match","Non_Exact","1411 E MOODY AVE, KNOXVILLE, TN, 37920",42672729,"L"
59205,"1411 EAST POWELL STREET","BAONBRIDGE","GA",39817,30.90736464,-84.555803407,205,"1411 EAST POWELL STREET, BAONBRIDGE, GA, 39817","Match","Non_Exact","1411 POWELL ST, BAINBRIDGE, GA, 39817",84278811,"R"
59206,"1411 EASTVIEW CT","OCEANSIDE","CA",92056,33.2260931700001,-117.262695327,206,"1411 EASTVIEW CT, OCEANSIDE, CA, 92056","Match","Exact","1411 EASTVIEW CT, OCEANSIDE, CA, 92056",195286118,"R"
59207,"1411 EDGEWATER DR STE 103","ORLANDO","FL",32804,28.564013898,-81.389331629,207,"1411 EDGEWATER DR STE 103, ORLANDO, FL, 32804","Match","Exact","1411 EDGEWATER DR, ORLANDO, FL, 32804",94280502,"R"
59208,"1411 FLOUNDER CT UNIT B","SAN FRANCISCO","CA",94130,37.8263225910001,-122.374593155,208,"1411 FLOUNDER CT UNIT B, SAN FRANCISCO, CA, 94130","Match","Exact","1411 FLOUNDER CT, SAN FRANCISCO, CA, 94130",192294466,"R"
59209,"1411 FOURTH AVE - STE 1301","SEATTLE","WA",98101,47.6093802290001,-122.335932568,209,"1411 FOURTH AVE - STE 1301, SEATTLE, WA, 98101","Match","Exact","1411 4TH AVE, SEATTLE, WA, 98101",186589476,"L"
59210,"1411 FOX CREEK RD","LAWRENCEBURG","KY",40342,38.0161605070001,-84.9225292689999,210,"1411 FOX CREEK RD, LAWRENCEBURG, KY, 40342","Match","Exact","1411 FOX CREEK RD, LAWRENCEBURG, KY, 40342",43456609,"R"
59211,"1411 GHOLSON AVENUE","WINSTON SALEM","NC",27107,36.0821454810001,-80.22675909,211,"1411 GHOLSON AVENUE, WINSTON SALEM, NC, 27107","Match","Exact","1411 GHOLSON AVE, WINSTON SALEM, NC, 27107",84613459,"L"
59212,"1411 GLASTONBURY ROAD","MAITLAND","FL",32751,28.642249,-81.344596086,212,"1411 GLASTONBURY ROAD, MAITLAND, FL, 32751","Match","Non_Exact","1411 GLASTONBERRY RD, MAITLAND, FL, 32751",93752743,"L"
59213,"1411 GOLDEN EAGLE DR","DURHAM","NC",27704,36.0121992300001,-78.816492442,213,"1411 GOLDEN EAGLE DR, DURHAM, NC, 27704","Match","Exact","1411 GOLDEN EAGLE DR, DURHAM, NC, 27704",618109375,"L"
59214,"1411 GORDON RD","MORELAND","GA",30259,33.305113008,-84.7381682719999,214,"1411 GORDON RD, MORELAND, GA, 30259","Match","Exact","1411 GORDON RD, MORELAND, GA, 30259",9325150,"L"
59215,"1411 GRAVEL PIT RD","SEGUIN","TX",78155,29.660191797,-97.8439315369999,215,"1411 GRAVEL PIT RD, SEGUIN, TX, 78155","Match","Exact","1411 GRAVEL PIT RD, SEGUIN, TX, 78155",54821000,"R"
59216,"1411 GUILFORD ROAD","DELAWARE","OH",43015,40.192403341,-83.055353537,216,"1411 GUILFORD ROAD, DELAWARE, OH, 43015","Match","Exact","1411 GUILFORD RD, DELAWARE, OH, 43015",648092237,"R"
59217,"1411 H STREET NE","WASHINGTON","DC",20002,38.9001930480001,-76.985113739,217,"1411 H STREET NE, WASHINGTON, DC, 20002","Match","Exact","1411 H ST NE, WASHINGTON, DC, 20002",638245200,"R"
59218,"1411 HARNESS HORSE LANE 201","BRANDON","FL",33511,27.923994282,-82.305124597,218,"1411 HARNESS HORSE LANE 201, BRANDON, FL, 33511","Match","Exact","1411 HARNESS HORSE LN, BRANDON, FL, 33511",104590405,"R"
59219,"1411 HERKIMER STREET APT 1","BROOKLYN","NY",11233,40.6773023440001,-73.906715178,219,"1411 HERKIMER STREET APT 1, BROOKLYN, NY, 11233","Match","Exact","1411 HERKIMER ST, BROOKLYN, NY, 11233",59084481,"L"
59220,"1411 HWY 14","ELMORE","AL",36025,NA,NA,220,"1411 HWY 14, ELMORE, AL, 36025","No_Match",NA,NA,NA,NA
59221,"1411 I M TERRELL CIR S","FORT WORTH","TX",76102,32.7488516070001,-97.314824771,221,"1411 I M TERRELL CIR S, FORT WORTH, TX, 76102","Match","Exact","1411 I M TERRELL CIR S, FORT WORTH, TX, 76102",101889485,"L"
59222,"1411 KALA DR","LITHONIA","GA",30058,33.7556928500001,-84.095982861,222,"1411 KALA DR, LITHONIA, GA, 30058","Match","Exact","1411 KALA DR, LITHONIA, GA, 30058",634040992,"R"
59223,"1411 KILCHIS FALLS WAY","BRASELTON","GA",30517,34.1176499330001,-83.820201178,223,"1411 KILCHIS FALLS WAY, BRASELTON, GA, 30517","Match","Exact","1411 KILCHIS FALLS WAY, BRASELTON, GA, 30517",77588977,"R"
59224,"1411 LAKE ROAD","LAKE FOREST","IL",60045,42.264701664,-87.828645438,224,"1411 LAKE ROAD, LAKE FOREST, IL, 60045","Match","Exact","1411 LAKE RD, LAKE FOREST, IL, 60045",119647272,"R"
59225,"1411 LAKECLIFF DR","HOUSTON","TX",77077,29.753485723,-95.591825506,225,"1411 LAKECLIFF DR, HOUSTON, TX, 77077","Match","Exact","1411 LAKECLIFF DR, HOUSTON, TX, 77077",96021027,"L"
59226,"1411 LORELEI DR","ZION","IL",60099,42.4695095540001,-87.872906621,226,"1411 LORELEI DR, ZION, IL, 60099","Match","Exact","1411 LORELEI DR, ZION, IL, 60099",119685639,"L"
59227,"1411 MADRID TRACE","SAN MARCOS","TX",78666,29.8773644400001,-97.9767620389999,227,"1411 MADRID TRACE, SAN MARCOS, TX, 78666","Match","Exact","1411 MADRID TRCE, SAN MARCOS, TX, 78666",649117405,"L"
59228,"1411 MAIN STREET","WORCESTER","MA",1603,42.2404117740001,-71.8545584399999,228,"1411 MAIN STREET, WORCESTER, MA, 1603","Match","Exact","1411 MAIN ST, WORCESTER, MA, 01603",40007695,"L"
59229,"1411 MAPLE CT","TRACY","CA",95377,37.736529454,-121.443009915,229,"1411 MAPLE CT, TRACY, CA, 95377","Match","Non_Exact","1411 MAPLE CT, TRACY, CA, 95376",133853732,"R"
59230,"1411 MARLEIGH LN","SOUTH ELGIN","IL",60177,42.0021788500001,-88.323104176,230,"1411 MARLEIGH LN, SOUTH ELGIN, IL, 60177","Match","Exact","1411 MARLEIGH LN, SOUTH ELGIN, IL, 60177",119542045,"L"
59231,"1411 MAYDELL ST","FORT WORTH","TX",76106,32.807824775,-97.337679371,231,"1411 MAYDELL ST, FORT WORTH, TX, 76106","Match","Exact","1411 MAYDELL ST, FORT WORTH, TX, 76106",101856300,"L"
59232,"1411 MISSOURI AVENUE","EAST ST LOUIS","IL",62201,38.6176065450001,-90.148779759,232,"1411 MISSOURI AVENUE, EAST ST LOUIS, IL, 62201","Match","Exact","1411 MISSOURI AVE, E SAINT LOUIS, IL, 62201",107830292,"L"
59233,"1411 MYRTLE RD","WESTVILLE","FL",32464,30.9374162720001,-85.940256108,233,"1411 MYRTLE RD, WESTVILLE, FL, 32464","Match","Exact","1411 MYRTLE RD, WESTVILLE, FL, 32464",32685332,"R"
59234,"1411 N LOS ROBLES AVE","PASADENA","CA",91104,34.1700363750001,-118.141633829,234,"1411 N LOS ROBLES AVE, PASADENA, CA, 91104","Match","Exact","1411 N LOS ROBLES AVE, PASADENA, CA, 91104",141628524,"L"
59235,"1411 N MAIN","ANDOVER","KS",67002,37.710659982,-97.1363304609999,235,"1411 N MAIN, ANDOVER, KS, 67002","Match","Non_Exact","1411 N MAIN ST, ANDOVER, KS, 67002",636614314,"L"
59236,"1411 N STATE STREET","BIG RAPIDS","MI",49307,43.714849658,-85.490167734,236,"1411 N STATE STREET, BIG RAPIDS, MI, 49307","Match","Exact","1411 N STATE ST, BIG RAPIDS, MI, 49307",110537775,"L"
59237,"1411 NATIONAL AVE","ROCKFORD","IL",61103,42.2835753960001,-89.076174884,237,"1411 NATIONAL AVE, ROCKFORD, IL, 61103","Match","Exact","1411 NATIONAL AVE, ROCKFORD, IL, 61103",49258545,"R"
59238,"1411 NE 155 TERR","NORTH MIAMI BEACH","FL",33162,25.918667521,-80.171364578,238,"1411 NE 155 TERR, NORTH MIAMI BEACH, FL, 33162","Match","Exact","1411 NE 155TH TER, N MIAMI BEACH, FL, 33162",116036156,"L"
59239,"1411 NE 16TH AVE APT 403","PORTLAND","OR",97232,45.5330137560001,-122.649486226,239,"1411 NE 16TH AVE APT 403, PORTLAND, OR, 97232","Match","Non_Exact","1411 NE 16TH AVE, PORTLAND, OR, 97232",157506628,"L"
59240,"1411 NE LEHMAN DR","MADRAS","OR",97741,44.65565889,-121.098900191,240,"1411 NE LEHMAN DR, MADRAS, OR, 97741","Match","Exact","1411 NE LEHMAN DR, MADRAS, OR, 97741",153237774,"R"
59241,"1411 NE SKIDMORE ST","PORTLAND","OR",97211,45.5543815870001,-122.65152449,241,"1411 NE SKIDMORE ST, PORTLAND, OR, 97211","Match","Exact","1411 NE SKIDMORE ST, PORTLAND, OR, 97211",157505837,"L"
59242,"1411 NW 175TH STREET","MIAMI","FL",33169,25.9343975510001,-80.2251762719999,242,"1411 NW 175TH STREET, MIAMI, FL, 33169","Match","Exact","1411 NW 175TH ST, MIAMI, FL, 33169",116029400,"R"
59243,"1411 PECOS ST","DALLAS","TX",75204,32.7952692490001,-96.784099337,243,"1411 PECOS ST, DALLAS, TX, 75204","Match","Exact","1411 PECOS ST, DALLAS, TX, 75204",102910820,"L"
59244,"1411 RIMPAU AVENUE SUITE 109-1031","CORONA","CA",92879,33.869763891,-117.549656832,244,"1411 RIMPAU AVENUE SUITE 109-1031, CORONA, CA, 92879","Match","Exact","1411 RIMPAU AVE, CORONA, CA, 92879",194778181,"L"
59245,"1411 ROOSEVELT AVE","LEHIGH","FL",33972,26.65206977,-81.5934177839999,245,"1411 ROOSEVELT AVE, LEHIGH, FL, 33972","Match","Non_Exact","1411 ROOSEVELT AVE, LEHIGH ACRES, FL, 33972",117985632,"L"
59246,"1411 ROOSEVELT DRIVE","WOODLAND","CA",95776,38.662313011,-121.756021085,246,"1411 ROOSEVELT DRIVE, WOODLAND, CA, 95776","Match","Exact","1411 ROOSEVELT DR, WOODLAND, CA, 95776",67702915,"L"
59247,"1411 S 10TH ST","COUNCIL BLUFFS","IA",51501,41.248475484,-95.858995178,247,"1411 S 10TH ST, COUNCIL BLUFFS, IA, 51501","Match","Exact","1411 S 10TH ST, COUNCIL BLUFFS, IA, 51501",43901296,"L"
59248,"1411 S 54TH ST","OMAHA","NE",68106,41.245716535,-95.9964619039999,248,"1411 S 54TH ST, OMAHA, NE, 68106","Match","Exact","1411 S 54TH ST, OMAHA, NE, 68106",117008621,"L"
59249,"1411 S SIERRA HILLS","WICHITA","KS",67230,37.667640191,-97.185036579,249,"1411 S SIERRA HILLS, WICHITA, KS, 67230","Match","Exact","1411 S SIERRA HILLS, WICHITA, KS, 67230",653249549,"R"
59250,"1411 S UTAH ST UNIT 12","SALT LAKE CITY","UT",84104,40.7389099430001,-111.936588619,250,"1411 S UTAH ST UNIT 12, SALT LAKE CITY, UT, 84104","Match","Exact","1411 UTAH ST, SALT LAKE CITY, UT, 84104",635615095,"L"
59251,"1411 SE 33RD STREET","CAPE CORAL","FL",33904,26.5910063590001,-81.945832013,251,"1411 SE 33RD STREET, CAPE CORAL, FL, 33904","Match","Exact","1411 SE 33RD ST, CAPE CORAL, FL, 33904",118014928,"L"
59252,"1411 SOUTH GORDON STREET","ATLANTA","GA",30310,33.739508335,-84.4344057289999,252,"1411 SOUTH GORDON STREET, ATLANTA, GA, 30310","Match","Non_Exact","1411 S GORDON ST SW, ATLANTA, GA, 30310",17341225,"R"
59253,"1411 STEVENS CT","ROSENBERG","TX",77471,29.5527074840001,-95.769776328,253,"1411 STEVENS CT, ROSENBERG, TX, 77471","Match","Exact","1411 STEVENS CT, ROSENBERG, TX, 77471",616470487,"L"
59254,"1411 SUNNYHILLS DR","BRANDON","FL",33510,27.960230036,-82.312461721,254,"1411 SUNNYHILLS DR, BRANDON, FL, 33510","Match","Exact","1411 SUNNYHILLS DR, BRANDON, FL, 33510",104595353,"R"
59255,"1411 SUNSET DRIVE UNIT B","BOGALUSA","LA",70427,30.7981987260001,-89.8880810059999,255,"1411 SUNSET DRIVE UNIT B, BOGALUSA, LA, 70427","Match","Exact","1411 SUNSET DR, BOGALUSA, LA, 70427",82460133,"R"
59256,"1411 SWEETBAY LN","WEST CHICAGO","IL",60185,41.909105825,-88.2083829809999,256,"1411 SWEETBAY LN, WEST CHICAGO, IL, 60185","Match","Exact","1411 SWEETBAY LN, WEST CHICAGO, IL, 60185",112686002,"L"
59257,"1411 TRESTLEWOOD DR","SAN JOSE","CA",95138,37.289977627,-121.805680573,257,"1411 TRESTLEWOOD DR, SAN JOSE, CA, 95138","Match","Exact","1411 TRESTLEWOOD DR, SAN JOSE, CA, 95138",633873806,"L"
59258,"1411 UNION VILLAGE RD","NORWICH","VT",5055,43.7679776270001,-72.25870508,258,"1411 UNION VILLAGE RD, NORWICH, VT, 5055","Match","Exact","1411 UNION VILLAGE RD, NORWICH, VT, 05055",635473268,"L"
59259,"1411 W 51ST ST","AUSTIN","TX",78756,30.3218135380001,-97.737782152,259,"1411 W 51ST ST, AUSTIN, TX, 78756","Match","Exact","1411 W 51ST ST, AUSTIN, TX, 78756",63931461,"L"
59260,"1411 W CHICAGO AVE STE 1","CHICAGO","IL",60642,41.8961371,-87.662874541,260,"1411 W CHICAGO AVE STE 1, CHICAGO, IL, 60642","Match","Non_Exact","1411 W CHICAGO AVE, CHICAGO, IL, 60642",111765231,"L"
59261,"1411 W MICHIGAN AVE","MIDLAND","TX",79701,32.0005854030001,-102.090932314,261,"1411 W MICHIGAN AVE, MIDLAND, TX, 79701","Match","Exact","1411 W MICHIGAN AVE, MIDLAND, TX, 79701",139581991,"L"
59262,"1411 W SAINT GERMAIN ST STE 101","SAINT CLOUD","MN",56301,45.556659774,-94.1686337799999,262,"1411 W SAINT GERMAIN ST STE 101, SAINT CLOUD, MN, 56301","Match","Non_Exact","1411 SAINT GERMAIN ST W, SAINT CLOUD, MN, 56301",107415201,"R"
59263,"1411 WEST AVENUE  SUITE 100","AUSTIN","TX",78701,NA,NA,263,"1411 WEST AVENUE  SUITE 100, AUSTIN, TX, 78701","No_Match",NA,NA,NA,NA
59264,"1411 WEST HIGH STREET","MOUNT PLEASANT","MI",48858,43.59724515,-84.75871836,264,"1411 WEST HIGH STREET, MOUNT PLEASANT, MI, 48858","Match","Non_Exact","1411 E HIGH ST, MOUNT PLEASANT, MI, 48858",110218083,"R"
59265,"1411 WEST INNES STREET","SALISBURY","NC",28144,35.6807108350001,-80.4814396089999,265,"1411 WEST INNES STREET, SALISBURY, NC, 28144","Match","Exact","1411 W INNES ST, SALISBURY, NC, 28144",25268568,"L"
59266,"1411 WEST MICHIGAN AVENUE","MIDLAND","TX",79701,32.00058592,-102.090930096,266,"1411 WEST MICHIGAN AVENUE, MIDLAND, TX, 79701","Match","Exact","1411 W MICHIGAN AVE, MIDLAND, TX, 79701",139581991,"L"
59267,"1411 WILLOWBROOK ST","LANCASTER","TX",75134,32.6072661010001,-96.791638155,267,"1411 WILLOWBROOK ST, LANCASTER, TX, 75134","Match","Exact","1411 WILLOWBROOK ST, LANCASTER, TX, 75134",103173878,"L"
59268,"1411 WUNSCHE LOOP BOX 1242","SPRING","TX",77383,30.077470713,-95.433467165,268,"1411 WUNSCHE LOOP BOX 1242, SPRING, TX, 77383","Match","Non_Exact","1411 WUNSCHE LOOP, SPRING, TX, 77373",96041429,"L"
59269,"1411 WUNSCHE LOOP UNIT 1966","SPRING","TX",77383,30.077470713,-95.433467165,269,"1411 WUNSCHE LOOP UNIT 1966, SPRING, TX, 77383","Match","Non_Exact","1411 WUNSCHE LOOP, SPRING, TX, 77373",96041429,"L"
59270,"1411 WUNSCHE LOOP","SPRING","TX",77383,30.077470713,-95.433467165,270,"1411 WUNSCHE LOOP, SPRING, TX, 77383","Match","Non_Exact","1411 WUNSCHE LOOP, SPRING, TX, 77373",96041429,"L"
59271,"14110 CHELSEAHURST LN","HOUSTON","TX",77047,29.6059982840001,-95.378758546,271,"14110 CHELSEAHURST LN, HOUSTON, TX, 77047","Match","Exact","14110 CHELSEAHURST LN, HOUSTON, TX, 77047",624603466,"R"
59272,"14110 MIRAMAR DRIVE","GALVESTON","TX",77554,29.2042185980001,-94.944661631,272,"14110 MIRAMAR DRIVE, GALVESTON, TX, 77554","Match","Exact","14110 MIRAMAR DR, GALVESTON, TX, 77554",96677778,"L"
59273,"14110 ROCKY VALLEY DR","CENTREVILLE","VA",20121,38.8093752400001,-77.436771843,273,"14110 ROCKY VALLEY DR, CENTREVILLE, VA, 20121","Match","Exact","14110 ROCKY VALLEY DR, CENTREVILLE, VA, 20121",618792594,"L"
59274,"14111 CENTER ROAD","TRAVERSE CITY","MI",49686,44.8907253850001,-85.5100775929999,274,"14111 CENTER ROAD, TRAVERSE CITY, MI, 49686","Match","Exact","14111 CENTER RD, TRAVERSE CITY, MI, 49686",647594057,"L"
59275,"14111 FURLONG WAY","GERMANTOWN","MD",20874,39.174044291,-77.291470255,275,"14111 FURLONG WAY, GERMANTOWN, MD, 20874","Match","Exact","14111 FURLONG WAY, GERMANTOWN, MD, 20874",624777474,"L"
59276,"14111 GREENVIEW DRIVE","LAUREL","MD",20708,39.083943418,-76.841591493,276,"14111 GREENVIEW DRIVE, LAUREL, MD, 20708","Match","Exact","14111 GREENVIEW DR, LAUREL, MD, 20708",76352511,"L"
59277,"14111 S ALBERTSON AVE","COMPTON","CA",90222,33.9042318240001,-118.250235332,277,"14111 S ALBERTSON AVE, COMPTON, CA, 90222","Match","Exact","14111 S ALBERTSON AVE, COMPTON, CA, 90222",141673991,"R"
59278,"14112 1ST AVE W","EVERETT","WA",98208,47.8704862640001,-122.234426565,278,"14112 1ST AVE W, EVERETT, WA, 98208","Match","Exact","14112 1ST AVE W, EVERETT, WA, 98208",187759361,"L"
59279,"14112 HENDERSON DRIVE","RANCHO CUCAMONGA","CA",91739,34.1455801640001,-117.494619598,279,"14112 HENDERSON DRIVE, RANCHO CUCAMONGA, CA, 91739","Match","Exact","14112 HENDERSON DR, ETIWANDA, CA, 91739",144973836,"L"
59280,"14112 LAKE CROSSING  DR","CHARLOTTE","NC",28278,35.1126502220001,-80.996291932,280,"14112 LAKE CROSSING  DR, CHARLOTTE, NC, 28278","Match","Exact","14112 LAKE CROSSING DR, CHARLOTTE, NC, 28278",630703032,"R"
59281,"14112 PARK AVE","BURNSVILLE","MN",55337,44.7474802020001,-93.2620969229999,281,"14112 PARK AVE, BURNSVILLE, MN, 55337","Match","Exact","14112 PARK AVE, BURNSVILLE, MN, 55337",37904299,"R"
59282,"14112 ROYAL OAK DRIVE SW","CUMBERLAND","MD",21502,39.589849809,-78.84645957,282,"14112 ROYAL OAK DRIVE SW, CUMBERLAND, MD, 21502","Match","Exact","14112 ROYAL OAK DR SW, CUMBERLAND, MD, 21502",123310742,"R"
59283,"14112 SAARINEN COURT","IRVINE","CA",92606,33.7101994380001,-117.785283527,283,"14112 SAARINEN COURT, IRVINE, CA, 92606","Match","Exact","14112 SAARINEN CT, IRVINE, CA, 92606",144057699,"L"
59284,"14112 WOODWARD","HIGHLAND PARK","MI",48203,42.4073951280001,-83.0983337759999,284,"14112 WOODWARD, HIGHLAND PARK, MI, 48203","Match","Non_Exact","14112 WOODWARD AVE, HIGHLAND PARK, MI, 48203",95718731,"R"
59285,"14113 FARMINGTON BLVD","TAMPA","FL",33625,28.0754951260001,-82.5506499379999,285,"14113 FARMINGTON BLVD, TAMPA, FL, 33625","Match","Exact","14113 FARMINGTON BLVD, TAMPA, FL, 33625",104609458,"L"
59286,"14115 MANOR ROAD","BALDWIN","MD",21013,39.5103394610001,-76.537117693,286,"14115 MANOR ROAD, BALDWIN, MD, 21013","Match","Exact","14115 MANOR RD, BALDWIN, MD, 21013",191474731,"R"
59287,"14115 MOORPARK ST","SHERMAN OAKS","CA",91423,34.1504632300001,-118.440506174,287,"14115 MOORPARK ST, SHERMAN OAKS, CA, 91423","Match","Exact","14115 MOORPARK ST, SHERMAN OAKS, CA, 91423",141561722,"R"
59288,"14115 PROSPERITY RIDGE DR","HOUSTON","TX",77048,29.6038958820001,-95.3520037819999,288,"14115 PROSPERITY RIDGE DR, HOUSTON, TX, 77048","Match","Exact","14115 PROSPERITY RIDGE DR, HOUSTON, TX, 77048",636880582,"R"
59289,"14115 TIMBERHAVEN DR","HOUSTON","TX",77066,29.9400844840001,-95.47310479,289,"14115 TIMBERHAVEN DR, HOUSTON, TX, 77066","Match","Exact","14115 TIMBERHAVEN DR, HOUSTON, TX, 77066",96011678,"L"
59290,"14115 W GREENFIELD AVE","NEW BERLIN","WI",53151,43.0165358610001,-88.087857726,290,"14115 W GREENFIELD AVE, NEW BERLIN, WI, 53151","Match","Exact","14115 W GREENFIELD AVE, NEW BERLIN, WI, 53151",638475002,"L"
59291,"14115 W GREENFIELD AVE","NEW BERLIN","WI",53213,43.0165358610001,-88.087857726,291,"14115 W GREENFIELD AVE, NEW BERLIN, WI, 53213","Match","Non_Exact","14115 W GREENFIELD AVE, NEW BERLIN, WI, 53151",638475002,"L"
59292,"14115 WOODWOLF CT","HOUSTON","TX",77015,29.8005809810001,-95.1718459049999,292,"14115 WOODWOLF CT, HOUSTON, TX, 77015","Match","Exact","14115 WOODWOLF CT, HOUSTON, TX, 77015",96127502,"L"
59293,"14116 BEVERLY DRIVE","FOSTERS","AL",35463,33.077601885,-87.714614125,293,"14116 BEVERLY DRIVE, FOSTERS, AL, 35463","Match","Non_Exact","14116 BEVERELY DR, FOSTERS, AL, 35463",638584443,"R"
59294,"14117 BLAZER LANE","SILVER SPRING","MD",20906,39.087970897,-77.05797344,294,"14117 BLAZER LANE, SILVER SPRING, MD, 20906","Match","Exact","14117 BLAZER LN, SILVER SPRING, MD, 20906",62060641,"R"
59295,"14117 HUBBARD STREET SUITE M","SYLMAR","CA",91342,34.2984969290001,-118.440336649,295,"14117 HUBBARD STREET SUITE M, SYLMAR, CA, 91342","Match","Exact","14117 HUBBARD ST, SYLMAR, CA, 91342",142713371,"R"
59296,"14117 SW MEADOWLARK RD","ROSE HILL","KS",67133,37.619024773,-97.098584429,296,"14117 SW MEADOWLARK RD, ROSE HILL, KS, 67133","Match","Exact","14117 SW MEADOWLARK RD, ROSE HILL, KS, 67133",608245002,"L"
59297,"14118 ASHWOOD RD","SHAKER HTS","OH",44120,41.472212153,-81.5835867499999,297,"14118 ASHWOOD RD, SHAKER HTS, OH, 44120","Match","Exact","14118 ASHWOOD RD, SHAKER HEIGHTS, OH, 44120",650990685,"R"
59298,"14118 BISHOP BEND LANE","HOUSTON","TX",77047,29.603349112,-95.356897244,298,"14118 BISHOP BEND LANE, HOUSTON, TX, 77047","Match","Exact","14118 BISHOP BEND LN, HOUSTON, TX, 77047",624602781,"R"
59299,"14118 CORDARY AVE SUITE 22","HAWTHORNE","CA",90250,33.9028965730001,-118.341663114,299,"14118 CORDARY AVE SUITE 22, HAWTHORNE, CA, 90250","Match","Exact","14118 CORDARY AVE, HAWTHORNE, CA, 90250",241242750,"L"
59300,"14118 RED MAPLE STREET","SAN ANTONIO","TX",78247,29.570276725,-98.4484729769999,300,"14118 RED MAPLE STREET, SAN ANTONIO, TX, 78247","Match","Exact","14118 RED MAPLE ST, SAN ANTONIO, TX, 78247",101498210,"R"
59301,"14119 BEITLER RD","NEVADA CITY","CA",95959,39.2480248470001,-121.1826615,301,"14119 BEITLER RD, NEVADA CITY, CA, 95959","Match","Exact","14119 BEITLER RD, NEVADA CITY, CA, 95959",106544378,"R"
59302,"14119 BETHESDA LANE","PORT CHARLOTTE","FL",33981,26.8889218050001,-82.219859518,302,"14119 BETHESDA LANE, PORT CHARLOTTE, FL, 33981","Match","Exact","14119 BETHESDA LN, PORT CHARLOTTE, FL, 33981",4303192,"R"
59303,"14119 BRUNSWICK PLACE DRIVE","HOUSTON","TX",77047,29.60290738,-95.367210964,303,"14119 BRUNSWICK PLACE DRIVE, HOUSTON, TX, 77047","Match","Exact","14119 BRUNSWICK PLACE DR, HOUSTON, TX, 77047",624603219,"R"
59304,"14119 RIVERVIEW ST","DETROIT","MI",48223,42.387493626,-83.272706977,304,"14119 RIVERVIEW ST, DETROIT, MI, 48223","Match","Exact","14119 RIVERVIEW ST, DETROIT, MI, 48223",95704371,"L"
59305,"14119 WILEY CIRCLE","MIDLOTHIAN","VA",23114,37.4938416050001,-77.665818348,305,"14119 WILEY CIRCLE, MIDLOTHIAN, VA, 23114","Match","Exact","14119 WILEY CR, MIDLOTHIAN, VA, 23114",627057180,"R"
59306,"1412  WYNDMERE DRIVE","DESOTO","TX",75115,32.6021781490001,-96.8942581479999,306,"1412  WYNDMERE DRIVE, DESOTO, TX, 75115","Match","Exact","1412 WYNDMERE DR, DESOTO, TX, 75115",102994378,"L"
59307,"1412 1/2 SOUTH DUNSMUIR AVENUE","LOS ANGELES","CA",90019,34.04795109,-118.353881766,307,"1412 1/2 SOUTH DUNSMUIR AVENUE, LOS ANGELES, CA, 90019","Match","Exact","1412 S DUNSMUIR AVE, LOS ANGELES, CA, 90019",141599340,"L"
59308,"1412 112TH AVENUE NE SUITE 102","BELLEVUE","WA",98004,47.6234250630001,-122.190961845,308,"1412 112TH AVENUE NE SUITE 102, BELLEVUE, WA, 98004","Match","Exact","1412 112TH AVE NE, BELLEVUE, WA, 98004",186605193,"R"
59309,"1412 12TH STREET","BAY CITY","TX",77414,28.988151729,-95.9735960469999,309,"1412 12TH STREET, BAY CITY, TX, 77414","Match","Exact","1412 12TH ST, BAY CITY, TX, 77414",83277164,"L"
59310,"1412 A RUSSELL PKWY NUM 230","WARNER ROBINS","GA",31088,32.593971337,-83.652124911,310,"1412 A RUSSELL PKWY NUM 230, WARNER ROBINS, GA, 31088","Match","Exact","1412 RUSSELL PKWY, WARNER ROBINS, GA, 31088",91234776,"R"
59311,"1412 ANTIOCH PIKE STE 103","NASHVILLE","TN",37013,36.082828939,-86.688602368,311,"1412 ANTIOCH PIKE STE 103, NASHVILLE, TN, 37013","Match","Non_Exact","1412 ANTIOCH PIKE, CANE RIDGE, TN, 37013",633338020,"L"
59312,"1412 ASHLAND AVE","EVANSTON","IL",60201,42.043070341,-87.6936116959999,312,"1412 ASHLAND AVE, EVANSTON, IL, 60201","Match","Exact","1412 ASHLAND AVE, EVANSTON, IL, 60201",111743318,"L"
59313,"1412 BASIN AVE","BISMARCK","ND",58504,46.784213456,-100.771499092,313,"1412 BASIN AVE, BISMARCK, ND, 58504","Match","Exact","1412 BASIN AVE, BISMARCK, ND, 58504",636303618,"L"
59314,"1412 BOWMAN LANE","BRENTWOOD","TN",37027,35.9868026410001,-86.81277928,314,"1412 BOWMAN LANE, BRENTWOOD, TN, 37027","Match","Non_Exact","1412 BOWMAN DR, BRENTWOOD, TN, 37027",73111646,"R"
59315,"1412 BROOKHAVEN DR","DALLAS","TX",75224,32.728160041,-96.826621968,315,"1412 BROOKHAVEN DR, DALLAS, TX, 75224","Match","Exact","1412 BROOKHAVEN DR, DALLAS, TX, 75224",638348520,"L"
59316,"1412 CARLING DRIVE APT 211","SAINT PAUL","MN",55108,44.9720960560001,-93.156876901,316,"1412 CARLING DRIVE APT 211, SAINT PAUL, MN, 55108","Match","Exact","1412 CARLING DR, SAINT PAUL, MN, 55108",97667389,"L"
59317,"1412 CAROL ST APT A","PARK RIDGE","IL",60068,42.0385043590001,-87.843785227,317,"1412 CAROL ST APT A, PARK RIDGE, IL, 60068","Match","Exact","1412 CAROL ST, PARK RIDGE, IL, 60068",111730963,"R"
59318,"1412 CARR AVE","MEMPHIS","TN",38104,35.131542182,-90.0146398589999,318,"1412 CARR AVE, MEMPHIS, TN, 38104","Match","Exact","1412 CARR AVE, MEMPHIS, TN, 38104",72905394,"L"
59319,"1412 CARSON STREET","FORT WORTH","TX",76117,32.782517254,-97.256699461,319,"1412 CARSON STREET, FORT WORTH, TX, 76117","Match","Exact","1412 CARSON ST, FORT WORTH, TX, 76117",101863929,"R"
59320,"1412 CHESTER LN","WEST MEMPHIS","AR",72301,35.161912295,-90.191094299,320,"1412 CHESTER LN, WEST MEMPHIS, AR, 72301","Match","Exact","1412 CHESTER LN, WEST MEMPHIS, AR, 72301",69372101,"R"
59321,"1412 CORNWALL AVE","BELLINGHAM","WA",98225,48.7509398560001,-122.477389265,321,"1412 CORNWALL AVE, BELLINGHAM, WA, 98225","Match","Exact","1412 CORNWALL AVE, BELLINGHAM, WA, 98225",183772271,"R"
59322,"1412 CORTLAND RD E","CHARLOTTE","NC",28209,35.1617063850001,-80.851527722,322,"1412 CORTLAND RD E, CHARLOTTE, NC, 28209","Match","Exact","1412 CORTLAND RD E, CHARLOTTE, NC, 28209",70487009,"R"
59323,"1412 COUNTRY LANE","ALLEN","TX",75002,33.11059827,-96.6350056809999,323,"1412 COUNTRY LANE, ALLEN, TX, 75002","Match","Exact","1412 COUNTRY LN, ALLEN, TX, 75002",123525306,"L"
59324,"1412 DEER MEADOW LANE","GARNET VALLEY","PA",19060,39.844138968,-75.490179998,324,"1412 DEER MEADOW LANE, GARNET VALLEY, PA, 19060","Match","Exact","1412 DEER MEADOW LN, GARNET VALLEY, PA, 19060",134904070,"L"
59325,"1412 DEERPOND LANE","VIRGINIA","VA",23464,36.793282678,-76.163097673,325,"1412 DEERPOND LANE, VIRGINIA, VA, 23464","Match","Non_Exact","1412 DEERPOND LN, VAB, VA, 23464",122296391,"R"
59326,"1412 DELAWARE AVE PMB 316","MCCOMB","MS",39648,31.2475553,-90.4700817999999,326,"1412 DELAWARE AVE PMB 316, MCCOMB, MS, 39648","Match","Exact","1412 DELAWARE AVE, MCCOMB, MS, 39648",75858138,"R"
59327,"1412 DUNNS LAKE DR","JACKSONVILLE","FL",32218,30.458679837,-81.603690663,327,"1412 DUNNS LAKE DR, JACKSONVILLE, FL, 32218","Match","Exact","1412 DUNNS LAKE DR, JACKSONVILLE, FL, 32218",625132276,"L"
59328,"1412 E 315 S","WINAMAC","IN",46996,41.010980954,-86.575593139,328,"1412 E 315 S, WINAMAC, IN, 46996","Match","Exact","1412 E 315 S, WINAMAC, IN, 46996",647372395,"R"
59329,"1412 E BAARS ST","PENSACOLA","FL",32503,30.445183189,-87.204137841,329,"1412 E BAARS ST, PENSACOLA, FL, 32503","Match","Exact","1412 E BAARS ST, PENSACOLA, FL, 32503",93220872,"L"
59330,"1412 EAST PRESTON STREET","BALTIMORE","MD",21213,39.30521996,-76.598709051,330,"1412 EAST PRESTON STREET, BALTIMORE, MD, 21213","Match","Exact","1412 E PRESTON ST, BALTIMORE, MD, 21213",206420289,"L"
59331,"1412 EIGHTH AVENUE","LEHIGH ACRES","FL",33972,26.651704378,-81.619834231,331,"1412 EIGHTH AVENUE, LEHIGH ACRES, FL, 33972","Match","Exact","1412 8TH AVE, LEHIGH ACRES, FL, 33972",117985667,"R"
59332,"1412 FOREST DRIVE","CHILLICOTHE","MO",64601,39.800604197,-93.558298741,332,"1412 FOREST DRIVE, CHILLICOTHE, MO, 64601","Match","Exact","1412 FOREST DR, CHILLICOTHE, MO, 64601",18108256,"L"
59333,"1412 GEORGIA ST","TUSTIN","CA",92782,33.7147263320001,-117.819856578,333,"1412 GEORGIA ST, TUSTIN, CA, 92782","Match","Exact","1412 GEORGIA ST, TUSTIN, CA, 92782",617848411,"R"
59334,"1412 HEATHER HILL CRESCENT","FLOSSMOOR","IL",60422,41.536389248,-87.692603673,334,"1412 HEATHER HILL CRESCENT, FLOSSMOOR, IL, 60422","Match","Exact","1412 HEATHER HILL CRES, FLOSSMOOR, IL, 60422",111873576,"R"
59335,"1412 HOOHULU ST","PEARL CITY","HI",96782,21.3995104540001,-157.959690807,335,"1412 HOOHULU ST, PEARL CITY, HI, 96782","Match","Exact","1412 HOOHULU ST, PEARL CITY, HI, 96782",203228707,"L"
59336,"1412 HUNTINGTON DR","SOUTH PASADENA","CA",91030,NA,NA,336,"1412 HUNTINGTON DR, SOUTH PASADENA, CA, 91030","No_Match",NA,NA,NA,NA
59337,"1412 HWY 117 S","GOLDSBORO","NC",27530,NA,NA,337,"1412 HWY 117 S, GOLDSBORO, NC, 27530","No_Match",NA,NA,NA,NA
59338,"1412 KEETON UNIT 9","MCALLEN","TX",78503,26.174905935,-98.209961686,338,"1412 KEETON UNIT 9, MCALLEN, TX, 78503","Match","Non_Exact","1412 KEETON AVE, MCALLEN, TX, 78503",646925814,"L"
59339,"1412 LONGFELLOW WAY","SAN JOSE","CA",95129,37.29847749,-122.026534351,339,"1412 LONGFELLOW WAY, SAN JOSE, CA, 95129","Match","Exact","1412 LONGFELLOW WAY, SAN JOSE, CA, 95129",123008932,"L"
59340,"1412 LONGLEAF DR","SOUTHPORT","NC",28461,34.04938244,-78.046099536,340,"1412 LONGLEAF DR, SOUTHPORT, NC, 28461","Match","Exact","1412 LONGLEAF DR, SOUTHPORT, NC, 28461",153132405,"R"
59341,"1412 MADISON AVE","SOUTH MILWAUKEE","WI",53172,42.9099729690001,-87.8696001339999,341,"1412 MADISON AVE, SOUTH MILWAUKEE, WI, 53172","Match","Exact","1412 MADISON AVE, S MILWAUKEE, WI, 53172",77755606,"R"
59342,"1412 MAIN ST STE 2500","DALLAS","TX",75202,32.780504002,-96.799801615,342,"1412 MAIN ST STE 2500, DALLAS, TX, 75202","Match","Exact","1412 MAIN ST, DALLAS, TX, 75202",102910218,"R"
59343,"1412 MAIN STREET","OROVILLE","WA",98844,48.938471672,-119.435801806,343,"1412 MAIN STREET, OROVILLE, WA, 98844","Match","Exact","1412 MAIN ST, OROVILLE, WA, 98844",157331174,"L"
59344,"1412 MILSTEAD AVENUE","CONYERS","GA",30012,NA,NA,344,"1412 MILSTEAD AVENUE, CONYERS, GA, 30012","No_Match",NA,NA,NA,NA
59345,"1412 N GRAND AVE","COVINA","CA",91724,34.10501836,-117.87249961,345,"1412 N GRAND AVE, COVINA, CA, 91724","Match","Exact","1412 N GRAND AVE, COVINA, CA, 91724",626756795,"R"
59346,"1412 NEW YORK AVE APT 4 F","BROOKLYN","NY",11210,40.6383619310001,-73.945333756,346,"1412 NEW YORK AVE APT 4 F, BROOKLYN, NY, 11210","Match","Non_Exact","1412 NEW YORK AVE, BROOKLYN, NY, 11210",59081966,"R"
59347,"1412 NW 14TH ST","BATTLE GROUND","WA",98604,45.7911513110001,-122.551851541,347,"1412 NW 14TH ST, BATTLE GROUND, WA, 98604","Match","Exact","1412 NW 14TH ST, BATTLE GROUND, WA, 98604",158367977,"L"
59348,"1412 OAK TREE ROAD","ISELIN","NJ",8830,40.573585731,-74.327204691,348,"1412 OAK TREE ROAD, ISELIN, NJ, 8830","Match","Exact","1412 OAK TREE RD, ISELIN, NJ, 08830",60273300,"R"
59349,"1412 PACE MOUNTAIN ROAD","SALUDA","NC",28773,35.2333169670001,-82.376275278,349,"1412 PACE MOUNTAIN ROAD, SALUDA, NC, 28773","Match","Exact","1412 PACE MOUNTAIN RD, SALUDA, NC, 28773",649731011,"R"
59350,"1412 PEARL STREET APT 2","SANTA MONICA","CA",90405,34.0134078460001,-118.472891063,350,"1412 PEARL STREET APT 2, SANTA MONICA, CA, 90405","Match","Exact","1412 PEARL ST, SANTA MONICA, CA, 90405",141568724,"R"
59351,"1412 PORTLAND AV","MINNEAPOLIS","MN",55404,44.9687565030001,-93.267659846,351,"1412 PORTLAND AV, MINNEAPOLIS, MN, 55404","Match","Non_Exact","1412 PORTLAND AVE S, MINNEAPOLIS, MN, 55404",43632438,"R"
59352,"1412 PRAIRIE VALLEY DRIVE","CHARLOTTE","NC",28269,35.289735825,-80.843600618,352,"1412 PRAIRIE VALLEY DRIVE, CHARLOTTE, NC, 28269","Match","Exact","1412 PRAIRIE VALLEY DR, CHARLOTTE, NC, 28269",614170372,"L"
59353,"1412 PRESSTMAN STREET","BALTIMORE","MD",21217,39.3055063300001,-76.6409220099999,353,"1412 PRESSTMAN STREET, BALTIMORE, MD, 21217","Match","Exact","1412 PRESSTMAN ST, BALTIMORE, MD, 21217",206450801,"R"
59354,"1412 PROSPECT DR","WILMINGTON","DE",19809,39.7643203440001,-75.4897128539999,354,"1412 PROSPECT DR, WILMINGTON, DE, 19809","Match","Exact","1412 PROSPECT DR, WILMINGTON, DE, 19809",187262063,"R"
59355,"1412 RADIUM SPRINGS ROAD","ALBANY","GA",31705,NA,NA,355,"1412 RADIUM SPRINGS ROAD, ALBANY, GA, 31705","No_Match",NA,NA,NA,NA
59356,"1412 RICHMOND ROAD","STATEN ISLAND","NY",10304,40.59451821,-74.098677036,356,"1412 RICHMOND ROAD, STATEN ISLAND, NY, 10304","Match","Exact","1412 RICHMOND RD, STATEN ISLAND, NY, 10304",59879758,"L"
59357,"1412 ROCKRIDGE RD","JARRETTSVILLE","MD",21084,39.630303514,-76.448290035,357,"1412 ROCKRIDGE RD, JARRETTSVILLE, MD, 21084","Match","Exact","1412 ROCKRIDGE RD, JARRETTSVILLE, MD, 21084",191669455,"R"
59358,"1412 ROCKRIDGE ROAD","JARRETTSVILLE","MD",21084,39.630303514,-76.448290035,358,"1412 ROCKRIDGE ROAD, JARRETTSVILLE, MD, 21084","Match","Exact","1412 ROCKRIDGE RD, JARRETTSVILLE, MD, 21084",191669455,"R"
59359,"1412 S BELT LINE ROAD","MESQUITE","TX",75149,32.7462908370001,-96.596815181,359,"1412 S BELT LINE ROAD, MESQUITE, TX, 75149","Match","Exact","1412 S BELT LINE RD, MESQUITE, TX, 75149",102963751,"L"
59360,"1412 S MORGAN STREET","CHICAGO","IL",60608,41.863124477,-87.650932046,360,"1412 S MORGAN STREET, CHICAGO, IL, 60608","Match","Exact","1412 S MORGAN ST, CHICAGO, IL, 60608",111827395,"R"
59361,"1412 S PORTLAND AVE","GILBERT","AZ",85296,33.324699438,-111.737613035,361,"1412 S PORTLAND AVE, GILBERT, AZ, 85296","Match","Exact","1412 S PORTLAND AVE, GILBERT, AZ, 85296",128810822,"R"
59362,"1412 SAN JOSE AVE","ALAMEDA","CA",94501,37.768070478,-122.262143872,362,"1412 SAN JOSE AVE, ALAMEDA, CA, 94501","Match","Exact","1412 SAN JOSE AVE, ALAMEDA, CA, 94501",125005120,"R"
59363,"1412 SHIRLEY WAY","BEDFORD","TX",76022,32.8335597010001,-97.14701178,363,"1412 SHIRLEY WAY, BEDFORD, TX, 76022","Match","Exact","1412 SHIRLEY WAY, BEDFORD, TX, 76022",101870993,"R"
59364,"1412 SOUTH 1860 WEST","WOODS CROSS","UT",84087,NA,NA,364,"1412 SOUTH 1860 WEST, WOODS CROSS, UT, 84087","No_Match",NA,NA,NA,NA
59365,"1412 SOUTH DILLE AVENUE","EL RENO","OK",73036,35.5211743300001,-97.958045844,365,"1412 SOUTH DILLE AVENUE, EL RENO, OK, 73036","Match","Exact","1412 S DILLE AVE, EL RENO, OK, 73036",92521519,"L"
59366,"1412 SUMMIT WAY","GROVETOWN","GA",30813,33.4977175930001,-82.2289173839999,366,"1412 SUMMIT WAY, GROVETOWN, GA, 30813","Match","Exact","1412 SUMMIT WAY, GROVETOWN, GA, 30813",629828342,"R"
59367,"1412 TALLADEGA DRIVE","WYLIE","TX",75098,33.035293503,-96.56430647,367,"1412 TALLADEGA DRIVE, WYLIE, TX, 75098","Match","Exact","1412 TALLADEGA DR, WYLIE, TX, 75098",614186543,"L"
59368,"1412 UNRUH AVE","PHILADELPHIA","PA",19111,40.0437301810001,-75.0748703689999,368,"1412 UNRUH AVE, PHILADELPHIA, PA, 19111","Match","Exact","1412 UNRUH AVE, PHILADELPHIA, PA, 19111",652294995,"R"
59369,"1412 WEST 187TH PLACE","GARDENA","CA",90248,33.8604577250001,-118.300416884,369,"1412 WEST 187TH PLACE, GARDENA, CA, 90248","Match","Exact","1412 W 187TH PL, GARDENA, CA, 90248",642869811,"L"
59370,"1412 YOUNG STREET SE APT 3","WASHINGTON","DC",20020,38.873906817,-76.976344067,370,"1412 YOUNG STREET SE APT 3, WASHINGTON, DC, 20020","Match","Exact","1412 YOUNG ST SE, WASHINGTON, DC, 20020",624430684,"L"
59371,"14120 85TH ROAD","BRIARWOOD","NY",11435,NA,NA,371,"14120 85TH ROAD, BRIARWOOD, NY, 11435","No_Match",NA,NA,NA,NA
59372,"14120 BIG JOHN ROAD","BILOXI","MS",39532,30.4884304220001,-88.939411849,372,"14120 BIG JOHN ROAD, BILOXI, MS, 39532","Match","Exact","14120 BIG JOHN RD, BILOXI, MS, 39532",111382245,"R"
59373,"14120 COUNTY RD 348","SAINT JOSEPH","MO",64505,39.8652337560001,-94.785298515,373,"14120 COUNTY RD 348, SAINT JOSEPH, MO, 64505","Match","Exact","14120 CO RD 348, SAINT JOSEPH, MO, 64505",15931903,"R"
59374,"14120 NOEL ROAD","DALLAS","TX",75254,NA,NA,374,"14120 NOEL ROAD, DALLAS, TX, 75254","No_Match",NA,NA,NA,NA
59375,"14120 NOTTINGHAM TRAIL","HUDSON","FL",34669,28.3617391810001,-82.600406691,375,"14120 NOTTINGHAM TRAIL, HUDSON, FL, 34669","Match","Exact","14120 NOTTINGHAM TRL, HUDSON, FL, 34669",650059472,"L"
59376,"14120 SW 52 STREET","MIRAMAR","FL",33027,25.9601729120001,-80.3335506779999,376,"14120 SW 52 STREET, MIRAMAR, FL, 33027","Match","Exact","14120 SW 52ND ST, MIRAMAR, FL, 33027",617660111,"R"
59377,"14120 WALLISVILLE","HOUSTON","TX",77049,29.8060658520001,-95.201879758,377,"14120 WALLISVILLE, HOUSTON, TX, 77049","Match","Non_Exact","14120 WALLISVILLE RD, HOUSTON, TX, 77049",96637135,"R"
59378,"14120A LEE HWY UNIT 2295","CENTREVILLE","VA",20122,38.8387663400001,-77.434493264,378,"14120A LEE HWY UNIT 2295, CENTREVILLE, VA, 20122","Match","Non_Exact","14120 LEE HWY, CENTREVILLE, VA, 20120",642599313,"L"
59379,"14121 BOWEN STREET","GARDEN GROVE","CA",92843,33.758034239,-117.947223145,379,"14121 BOWEN STREET, GARDEN GROVE, CA, 92843","Match","Exact","14121 BOWEN ST, GARDEN GROVE, CA, 92843",144035914,"R"
59380,"14121 CANAL DRIVE","PENSACOLA","FL",32507,30.314279856,-87.4370307839999,380,"14121 CANAL DRIVE, PENSACOLA, FL, 32507","Match","Exact","14121 CANAL DR, PENSACOLA, FL, 32507",93208797,"L"
59381,"14121 ETERNITY RD","GERMANTOWN","MD",20874,39.1706267000001,-77.2952711619999,381,"14121 ETERNITY RD, GERMANTOWN, MD, 20874","Match","Exact","14121 ETERNITY RD, GERMANTOWN, MD, 20874",62080356,"L"
59382,"14121 SE 228TH ST","KENT","WA",98042,47.3977500340001,-122.151765595,382,"14121 SE 228TH ST, KENT, WA, 98042","Match","Exact","14121 SE 228TH ST, KENT, WA, 98042",187079955,"R"
59383,"14121 SOUTHERN RED MAPLE DRIVE","ORLANDO","FL",32828,28.523535725,-81.14660049,383,"14121 SOUTHERN RED MAPLE DRIVE, ORLANDO, FL, 32828","Match","Exact","14121 SOUTHERN RED MAPLE DR, ORLANDO, FL, 32828",94415611,"L"
59384,"14122 BISHOP CLAGGETT CT","UPPER MARLBORO","MD",20772,38.8289743730001,-76.760979399,384,"14122 BISHOP CLAGGETT CT, UPPER MARLBORO, MD, 20772","Match","Exact","14122 BISHOP CLAGGETT CT, UPPER MARLBORO, MD, 20772",76344220,"L"
59385,"14122 CLOVER POINT DR","SUGAR LAND","TX",77498,29.6619406520001,-95.635099951,385,"14122 CLOVER POINT DR, SUGAR LAND, TX, 77498","Match","Exact","14122 CLOVER POINT DR, SUGAR LAND, TX, 77498",78284390,"L"
59386,"14122 POKE RIDGE DR","RIVERVIEW","FL",33579,27.775219452,-82.3177180599999,386,"14122 POKE RIDGE DR, RIVERVIEW, FL, 33579","Match","Exact","14122 POKE RIDGE DR, RIVERVIEW, FL, 33579",650566882,"L"
59387,"14122 RIVERSTONE DRIVE","TAMPA","FL",33624,28.081235314,-82.536280141,387,"14122 RIVERSTONE DRIVE, TAMPA, FL, 33624","Match","Exact","14122 RIVERSTONE DR, TAMPA, FL, 33624",104510112,"R"
59388,"14122 W MCDOWELL RD STE 102A","GOODYEAR","AZ",85395,33.464455942,-112.363145863,388,"14122 W MCDOWELL RD STE 102A, GOODYEAR, AZ, 85395","Match","Non_Exact","14122 W MCDOWELL RD, GOODYEAR, AZ, 85395",642856277,"R"
59389,"14123 C B MACDONALD WAY","VICKSBURG","MI",49097,42.1125326810001,-85.555950448,389,"14123 C B MACDONALD WAY, VICKSBURG, MI, 49097","Match","Exact","14123 C B MACDONALD WAY, VICKSBURG, MI, 49097",638545931,"R"
59390,"14123 CANTERBURY LANE","ROCKVILLE","MD",20853,39.089085964,-77.0826508219999,390,"14123 CANTERBURY LANE, ROCKVILLE, MD, 20853","Match","Exact","14123 CANTERBURY LN, ROCKVILLE, MD, 20853",62059851,"R"
59391,"14123 GLADYS ST","GULFPORT","MS",39503,30.461889096,-89.07189506,391,"14123 GLADYS ST, GULFPORT, MS, 39503","Match","Exact","14123 GLADYS ST, GULFPORT, MS, 39503",111396729,"L"
59392,"14123 ROBERT PARIS CT","CHANTILLY","VA",21151,38.879005804,-77.437525977,392,"14123 ROBERT PARIS CT, CHANTILLY, VA, 21151","Match","Non_Exact","14123 ROBERT PARIS CT, CHANTILLY, VA, 20151",641081206,"L"
59393,"14123","SCOTTSDALE","AZ",85267,NA,NA,393,"14123, SCOTTSDALE, AZ, 85267","No_Match",NA,NA,NA,NA
59394,"14124 MEDINAH COURT","CHESTER","VA",23831,37.3243312330001,-77.451533962,394,"14124 MEDINAH COURT, CHESTER, VA, 23831","Match","Exact","14124 MEDINAH CT, CHESTER, VA, 23831",616583146,"R"
59395,"14125 COUNTY FARM ROAD","LITTLE ROCK","AR",72223,34.816868932,-92.427051723,395,"14125 COUNTY FARM ROAD, LITTLE ROCK, AR, 72223","Match","Exact","14125 COUNTY FARM RD, LITTLE ROCK, AR, 72223",647729692,"R"
59396,"14125 GARNETT","OVERLAND PARK","KS",66221,38.8721652450001,-94.722058777,396,"14125 GARNETT, OVERLAND PARK, KS, 66221","Match","Non_Exact","14125 GARNETT ST, OVERLAND PARK, KS, 66221",91319035,"L"
59397,"14125 LA GLORIA ST","LA MIRADA","CA",90638,33.9035699980001,-117.9915819,397,"14125 LA GLORIA ST, LA MIRADA, CA, 90638","Match","Exact","14125 LA GLORIA ST, LA MIRADA, CA, 90638",141775383,"R"
59398,"14125 LA GLORIA STREET","LA MIRADA","CA",90638,33.9035699980001,-117.9915819,398,"14125 LA GLORIA STREET, LA MIRADA, CA, 90638","Match","Exact","14125 LA GLORIA ST, LA MIRADA, CA, 90638",141775383,"R"
59399,"14125 LAKESIDE BLVD","SHELBY TWP","MI",48315,42.631659606,-82.9865483899999,399,"14125 LAKESIDE BLVD, SHELBY TWP, MI, 48315","Match","Non_Exact","14125 LAKESIDE BLVD N, SHELBY TOWNSHIP, MI, 48315",635885904,"R"
59400,"14125 LOUISINA AVE  S UNIT 9108","SAVAGE","MN",55378,44.7479384810001,-93.369048805,400,"14125 LOUISINA AVE  S UNIT 9108, SAVAGE, MN, 55378","Match","Non_Exact","14125 LOUISIANA AVE, SAVAGE, MN, 55378",38149212,"R"
59401,"14125 LYLE POINT ROAD","ANDERSON ISLAND","WA",98303,47.129744369,-122.700323804,401,"14125 LYLE POINT ROAD, ANDERSON ISLAND, WA, 98303","Match","Exact","14125 LYLE POINT RD, ANDERSON ISLAND, WA, 98303",184723244,"R"
59402,"14125 TIMBER LANE","WASECA","MN",56093,44.0638018980001,-93.485875598,402,"14125 TIMBER LANE, WASECA, MN, 56093","Match","Exact","14125 TIMBER LN, WASECA, MN, 56093",28726949,"L"
59403,"14125 W 143RD STREET","OLATHE","KS",66062,38.8690808160001,-94.7504019259999,403,"14125 W 143RD STREET, OLATHE, KS, 66062","Match","Exact","14125 W 143RD ST, OLATHE, KS, 66062",91322271,"L"
59404,"141251 PO BOX","DETROIT","MI",48214,NA,NA,404,"141251 PO BOX, DETROIT, MI, 48214","No_Match",NA,NA,NA,NA
59405,"14126 MARQUESAS WAY APT 3326","MARINA DEL REY","CA",90292,33.976393757,-118.456554216,405,"14126 MARQUESAS WAY APT 3326, MARINA DEL REY, CA, 90292","Match","Exact","14126 MARQUESAS WAY, MARINA DEL REY, CA, 90292",650064373,"L"
59406,"14126 W BANFF LANE","SURPRISE","AZ",85379,33.6182111420001,-112.364139572,406,"14126 W BANFF LANE, SURPRISE, AZ, 85379","Match","Exact","14126 W BANFF LN, SURPRISE, AZ, 85379",244000493,"L"
59407,"14127 MARACAIBO RD","SAN LEANDRO","CA",94577,37.696109483,-122.176357258,407,"14127 MARACAIBO RD, SAN LEANDRO, CA, 94577","Match","Exact","14127 MARACAIBO RD, SAN LEANDRO, CA, 94577",125010710,"R"
59408,"14127 TIMBERHAVEN DRIVE","HOUSTON","TX",77066,29.940620563,-95.4731256489999,408,"14127 TIMBERHAVEN DRIVE, HOUSTON, TX, 77066","Match","Exact","14127 TIMBERHAVEN DR, HOUSTON, TX, 77066",96011677,"L"
59409,"14128 E 22ND PL","AURORA","CO",80011,39.7505400420001,-104.82390245,409,"14128 E 22ND PL, AURORA, CO, 80011","Match","Exact","14128 E 22ND PL, AURORA, CO, 80011",177351279,"R"
59410,"14129 BEACH BLVD","JACKSONVILLE","FL",32250,30.2878267930001,-81.4445468869999,410,"14129 BEACH BLVD, JACKSONVILLE, FL, 32250","Match","Exact","14129 BEACH BLVD, JACKSONVILLE, FL, 32250",83922482,"L"
59411,"14129 BLACK HAW LN","GLEN ALLEN","VA",23059,37.714973467,-77.584842809,411,"14129 BLACK HAW LN, GLEN ALLEN, VA, 23059","Match","Exact","14129 BLACK HAW LN, GLEN ALLEN, VA, 23059",84960565,"L"
59412,"14129 NATURES PLACE CT SE","LOWELL","MI",49331,42.912182656,-85.318894888,412,"14129 NATURES PLACE CT SE, LOWELL, MI, 49331","Match","Exact","14129 NATURES PLACE CT SE, LOWELL, MI, 49331",625540469,"L"
59413,"14129 SE ALLEN ROAD","BELLEVUE","WA",98006,47.572579004,-122.150774719,413,"14129 SE ALLEN ROAD, BELLEVUE, WA, 98006","Match","Exact","14129 SE ALLEN RD, BELLEVUE, WA, 98006",239777729,"R"
59414,"1413  CORWITH DR","MORRISVILLE","NC",27560,35.836557188,-78.859645518,414,"1413  CORWITH DR, MORRISVILLE, NC, 27560","Match","Exact","1413 CORWITH DR, MORRISVILLE, NC, 27560",647323900,"L"
59415,"1413 16TH STREET EAST","BRADENTON","FL",34208,27.486946373,-82.544909439,415,"1413 16TH STREET EAST, BRADENTON, FL, 34208","Match","Exact","1413 16TH ST E, BRADENTON, FL, 34208",16236838,"L"
59416,"1413 2ND AVE","MOUNTAIN LAKE","MN",56159,43.9396743180001,-94.923418536,416,"1413 2ND AVE, MOUNTAIN LAKE, MN, 56159","Match","Exact","1413 2ND AVE, MOUNTAIN LAKE, MN, 56159",30324121,"L"
59417,"1413 33RD STREET NW","WASHINGTON","DC",20007,38.907976789,-77.066059912,417,"1413 33RD STREET NW, WASHINGTON, DC, 20007","Match","Exact","1413 33RD ST NW, WASHINGTON, DC, 20007",76224874,"R"
59418,"1413 42ND ST","PARKERSBURG","WV",26104,39.2914550510001,-81.52907963,418,"1413 42ND ST, PARKERSBURG, WV, 26104","Match","Exact","1413 42ND ST, PARKERSBURG, WV, 26104",635493039,"L"
59419,"1413 A NORTH 30TH STREET","VAN BUREN","AR",72956,35.4534192250001,-94.322963961,419,"1413 A NORTH 30TH STREET, VAN BUREN, AR, 72956","Match","Exact","1413 N 30TH ST, VAN BUREN, AR, 72956",53497973,"R"
59420,"1413 AG SCIENCES BUILDING","MORGANTOWN","WV",26506,NA,NA,420,"1413 AG SCIENCES BUILDING, MORGANTOWN, WV, 26506","No_Match",NA,NA,NA,NA
59421,"1413 ALMA DRIVE","AUSTIN","TX",78753,30.3812576610001,-97.659422462,421,"1413 ALMA DRIVE, AUSTIN, TX, 78753","Match","Exact","1413 ALMA DR, AUSTIN, TX, 78753",63934578,"R"
59422,"1413 ASPEN LANE","NORMAN","OK",73072,35.189961732,-97.4616863539999,422,"1413 ASPEN LANE, NORMAN, OK, 73072","Match","Exact","1413 ASPEN LN, NORMAN, OK, 73072",99910924,"R"
59423,"1413 ATHENS RD","WILMINTON","DE",19803,39.7936532150001,-75.491890446,423,"1413 ATHENS RD, WILMINTON, DE, 19803","Match","Non_Exact","1413 ATHENS RD, WILMINGTON, DE, 19803",187260730,"R"
59424,"1413 BELMONT AVE","YOUNGSTOWN","OH",44504,41.118938674,-80.6579770179999,424,"1413 BELMONT AVE, YOUNGSTOWN, OH, 44504","Match","Exact","1413 BELMONT AVE, YOUNGSTOWN, OH, 44504",64594073,"R"
59425,"1413 BERN DR","SPRING HILL","TN",37174,35.761939087,-86.89928933,425,"1413 BERN DR, SPRING HILL, TN, 37174","Match","Exact","1413 BERN DR, SPRING HILL, TN, 37174",631983983,"R"
59426,"1413 BOXWOOD LN","APEX","NC",27502,35.7427561550001,-78.8359002609999,426,"1413 BOXWOOD LN, APEX, NC, 27502","Match","Exact","1413 BOXWOOD LN, APEX, NC, 27502",72497055,"L"
59427,"1413 BROWN RD","HEPHZIBAH","GA",30815,33.319432421,-81.9813032709999,427,"1413 BROWN RD, HEPHZIBAH, GA, 30815","Match","Exact","1413 BROWN RD, HEPHZIBAH, GA, 30815",604933026,"L"
59428,"1413 CADENCE COURT","LOUISVILLE","KY",40222,38.269897773,-85.5996468769999,428,"1413 CADENCE COURT, LOUISVILLE, KY, 40222","Match","Exact","1413 CADENCE CT, LOUISVILLE, KY, 40222",96883533,"L"
59429,"1413 CALUMET DR","GROVETOWN","GA",30813,33.434451564,-82.182121089,429,"1413 CALUMET DR, GROVETOWN, GA, 30813","Match","Exact","1413 CALUMET DR, GROVETOWN, GA, 30813",646705332,"L"
59430,"1413 CARRIAGE CREEK DRIVE","DESOTO","TX",75115,32.594507381,-96.895144108,430,"1413 CARRIAGE CREEK DRIVE, DESOTO, TX, 75115","Match","Exact","1413 CARRIAGE CREEK DR, DESOTO, TX, 75115",102994360,"L"
59431,"1413 CAYWOOD CIRCLE S","LEHIGH ACRES","FL",33936,26.5995931040001,-81.657120607,431,"1413 CAYWOOD CIRCLE S, LEHIGH ACRES, FL, 33936","Match","Exact","1413 CAYWOOD CIR S, LEHIGH ACRES, FL, 33936",118105174,"L"
59432,"1413 CHEYENNE TRAIL","CORINTH","TX",76210,33.139417193,-97.088574701,432,"1413 CHEYENNE TRAIL, CORINTH, TX, 76210","Match","Exact","1413 CHEYENNE TRL, CORINTH, TX, 76210",645545380,"R"
59433,"1413 CLEVELAND AVE","EAST POINT","GA",30344,33.679470757,-84.435073541,433,"1413 CLEVELAND AVE, EAST POINT, GA, 30344","Match","Exact","1413 CLEVELAND AVE, EAST POINT, GA, 30344",17348125,"R"
59434,"1413 COUNTY ROAD 104","FLORESVILLE","TX",78114,29.107356528,-98.25313784,434,"1413 COUNTY ROAD 104, FLORESVILLE, TX, 78114","Match","Exact","1413 CO RD 104, FLORESVILLE, TX, 78114",637265958,"R"
59435,"1413 DOWNING DRIVE","SAVANNAH","TX",76227,33.233743159,-96.903816319,435,"1413 DOWNING DRIVE, SAVANNAH, TX, 76227","Match","Exact","1413 DOWNING DR, SAVANNAH, TX, 76227",646833880,"L"
59436,"1413 DR MLK JR AVE NE APT D","ALBUQUERQUE","NM",87106,35.084425262,-106.629888722,436,"1413 DR MLK JR AVE NE APT D, ALBUQUERQUE, NM, 87106","Match","Exact","1413 DR MARTIN LUTHER KING JR AVE NE, ALBUQUERQUE, NM, 87106",206709283,"L"
59437,"1413 DREAM BRIDGE DR","LAS VEGAS","NV",89144,36.1876526230001,-115.340577139,437,"1413 DREAM BRIDGE DR, LAS VEGAS, NV, 89144","Match","Exact","1413 DREAM BRIDGE DR, LAS VEGAS, NV, 89144",201945384,"L"
59438,"1413 E ELGIN PL","CHANDLER","AZ",85225,33.2976773680001,-111.817332586,438,"1413 E ELGIN PL, CHANDLER, AZ, 85225","Match","Exact","1413 E ELGIN PL, CHANDLER, AZ, 85225",128805806,"L"
59439,"1413 E IRVING BLVD","IRVING","TX",75060,32.809912319,-96.930838157,439,"1413 E IRVING BLVD, IRVING, TX, 75060","Match","Exact","1413 E IRVING BLVD, IRVING, TX, 75060",647938536,"L"
59440,"1413 E45TH STREET","BROOKLYN","NY",11234,NA,NA,440,"1413 E45TH STREET, BROOKLYN, NY, 11234","No_Match",NA,NA,NA,NA
59441,"1413 EASTERN AVE","ROCKY MOUNT","NC",27801,35.932139056,-77.776533434,441,"1413 EASTERN AVE, ROCKY MOUNT, NC, 27801","Match","Exact","1413 EASTERN AVE, ROCKY MOUNT, NC, 27801",90176310,"L"
59442,"1413 FAIRVIEW AVENUE","HAVERTOWN","PA",19083,39.9642547610001,-75.328496935,442,"1413 FAIRVIEW AVENUE, HAVERTOWN, PA, 19083","Match","Exact","1413 FAIRVIEW AVE, HAVERTOWN, PA, 19083",648091771,"L"
59443,"1413 FARAWAY DRIVE","COLUMBIA","SC",29223,34.0542986020001,-80.939196092,443,"1413 FARAWAY DRIVE, COLUMBIA, SC, 29223","Match","Exact","1413 FARAWAY DR, COLUMBIA, SC, 29223",71825762,"L"
59444,"1413 FLORENCE DRIVE","GWYNEDD VALLEY","PA",19437,40.1845859920001,-75.259582387,444,"1413 FLORENCE DRIVE, GWYNEDD VALLEY, PA, 19437","Match","Non_Exact","1413 FLORENCE RD, GWYNEDD VALLEY, PA, 19437",135101379,"R"
59445,"1413 FORSYTHE","RICHARDSON","TX",75081,32.9362748140001,-96.698706126,445,"1413 FORSYTHE, RICHARDSON, TX, 75081","Match","Non_Exact","1413 FORSYTHE DR, RICHARDSON, TX, 75081",102915915,"L"
59446,"1413 G STREET","ANCHORAGE","AK",99501,61.208522396,-149.895516442,446,"1413 G STREET, ANCHORAGE, AK, 99501","Match","Exact","1413 G ST, ANCHORAGE, AK, 99501",190797065,"L"
59447,"1413 GALILEE ROAD","DAMASCUS","PA",18415,41.702256295,-75.079360228,447,"1413 GALILEE ROAD, DAMASCUS, PA, 18415","Match","Exact","1413 GALILEE RD, DAMASCUS, PA, 18415",635565053,"R"
59448,"1413 GLEN OAKS RD","CLEMMONS","NC",27012,36.0350045430001,-80.406508037,448,"1413 GLEN OAKS RD, CLEMMONS, NC, 27012","Match","Exact","1413 GLEN OAKS RD, CLEMMONS, NC, 27012",636640036,"L"
59449,"1413 GOLDENROD CIRCLE","LANTANA","TX",76226,33.1074924690001,-97.114712858,449,"1413 GOLDENROD CIRCLE, LANTANA, TX, 76226","Match","Exact","1413 GOLDENROD CIR, LANTANA, TX, 76226",625311995,"R"
59450,"1413 HAYDEN AVENUE","EAST CLEVELAND","OH",44112,41.5395954750001,-81.5865954939999,450,"1413 HAYDEN AVENUE, EAST CLEVELAND, OH, 44112","Match","Exact","1413 HAYDEN AVE, EAST CLEVELAND, OH, 44112",61121475,"L"
59451,"1413 HAZEL STREET","LOUISVILLE","KY",40211,38.234011928,-85.8061343109999,451,"1413 HAZEL STREET, LOUISVILLE, KY, 40211","Match","Exact","1413 HAZEL ST, LOUISVILLE, KY, 40211",96842666,"L"
59452,"1413 HIGHWAY 17 S","SURFSIDE BCH","SC",29575,NA,NA,452,"1413 HIGHWAY 17 S, SURFSIDE BCH, SC, 29575","No_Match",NA,NA,NA,NA
59453,"1413 HODGE STREET","MCKINNEY","TX",75071,33.248495479,-96.595774628,453,"1413 HODGE STREET, MCKINNEY, TX, 75071","Match","Exact","1413 HODGE ST, MCKINNEY, TX, 75071",650326488,"L"
59454,"1413 HUME STREET S","TACOMA","WA",98444,47.1569930360001,-122.453006024,454,"1413 HUME STREET S, TACOMA, WA, 98444","Match","Exact","1413 HUME ST S, TACOMA, WA, 98444",184628265,"R"
59455,"1413 HWY 17 S PMB 148","SURFSIDE BEACH","SC",29575,NA,NA,455,"1413 HWY 17 S PMB 148, SURFSIDE BEACH, SC, 29575","No_Match",NA,NA,NA,NA
59456,"1413 KITMORE RD","BALTIMORE","MD",21239,39.3511025,-76.5936385489999,456,"1413 KITMORE RD, BALTIMORE, MD, 21239","Match","Exact","1413 KITMORE RD, BALTIMORE, MD, 21239",206446012,"R"
59457,"1413 LAFAYETTE STREET","MICHIGAN CITY","IN",46360,41.7052164470001,-86.893596165,457,"1413 LAFAYETTE STREET, MICHIGAN CITY, IN, 46360","Match","Exact","1413 LAFAYETTE ST, MICHIGAN CITY, IN, 46360",15411137,"R"
59458,"1413 MARTHA STREET","LAKE CHARLES","LA",70601,30.247102796,-93.200741137,458,"1413 MARTHA STREET, LAKE CHARLES, LA, 70601","Match","Exact","1413 MARTHA ST, LAKE CHARLES, LA, 70601",88435651,"L"
59459,"1413 MARWOOD ROAD","BYRAM","MS",39272,32.2051894360001,-90.2809291469999,459,"1413 MARWOOD ROAD, BYRAM, MS, 39272","Match","Exact","1413 MARWOOD RD, BYRAM, MS, 39272",611225307,"L"
59460,"1413 NW 4TH STREET","BOYNTON BEACH","FL",33435,26.538447637,-80.070041756,460,"1413 NW 4TH STREET, BOYNTON BEACH, FL, 33435","Match","Exact","1413 NW 4TH ST, BOYNTON BEACH, FL, 33435",115295762,"L"
59461,"1413 OAKWOOD AVENUE","MENOMONIE","WI",54751,44.875169521,-91.9139474089999,461,"1413 OAKWOOD AVENUE, MENOMONIE, WI, 54751","Match","Non_Exact","1413 OAKWOOD DR, MENOMONIE, WI, 54751",78998053,"R"
59462,"1413 OUTLOOK DRIVE","MOUNTAINSIDE","NJ",7092,40.680559719,-74.368552159,462,"1413 OUTLOOK DRIVE, MOUNTAINSIDE, NJ, 7092","Match","Exact","1413 OUTLOOK DR, MOUNTAINSIDE, NJ, 07092",60603300,"R"
59463,"1413 PLAINFIELD DR","LIMA","OH",45805,40.773209708,-84.1304720649999,463,"1413 PLAINFIELD DR, LIMA, OH, 45805","Match","Exact","1413 PLAINFIELD DR, LIMA, OH, 45805",35572523,"R"
59464,"1413 PLEASANT GARDEN LANE","RALEIGH","NC",27610,35.7579375010001,-78.585282718,464,"1413 PLEASANT GARDEN LANE, RALEIGH, NC, 27610","Match","Exact","1413 PLEASANT GARDEN LN, RALEIGH, NC, 27610",208347356,"L"
59465,"1413 PROVIDENCE DRIVE","MCHENRY","IL",60051,42.349834269,-88.2068674769999,465,"1413 PROVIDENCE DRIVE, MCHENRY, IL, 60051","Match","Exact","1413 PROVIDENCE DR, MCHENRY, IL, 60051",606274020,"R"
59466,"1413 QUEBEC STREET","HYATTSVILLE","MD",20783,38.995713535,-76.982600405,466,"1413 QUEBEC STREET, HYATTSVILLE, MD, 20783","Match","Exact","1413 QUEBEC ST, HYATTSVILLE, MD, 20783",76302914,"R"
59467,"1413 RABON FARMS LANE","COLUMBIA","SC",29223,34.099218556,-80.9309052569999,467,"1413 RABON FARMS LANE, COLUMBIA, SC, 29223","Match","Exact","1413 RABON FARMS LN, COLUMBIA, SC, 29223",641627612,"L"
59468,"1413 REBECCA LANE","ARLINGTON","TX",76014,32.7025032270001,-97.089835982,468,"1413 REBECCA LANE, ARLINGTON, TX, 76014","Match","Exact","1413 REBECCA LN, ARLINGTON, TX, 76014",101909957,"L"
59469,"1413 SHORE ROAD","NORTHFIELD","NJ",8225,39.3681489680001,-74.547945488,469,"1413 SHORE ROAD, NORTHFIELD, NJ, 8225","Match","Exact","1413 SHORE RD, NORTHFIELD, NJ, 08225",202484133,"R"
59470,"1413 SOUTH ARAPAHO DRIVE","SANTA ANA","CA",92704,33.7285979010001,-117.913329636,470,"1413 SOUTH ARAPAHO DRIVE, SANTA ANA, CA, 92704","Match","Exact","1413 S ARAPAHO DR, SANTA ANA, CA, 92704",144042253,"L"
59471,"1413 THUNDERBROOK","DESOTO","TX",75115,32.6158945060001,-96.865702998,471,"1413 THUNDERBROOK, DESOTO, TX, 75115","Match","Non_Exact","1413 THUNDERBROOK DR, DESOTO, TX, 75115",102952832,"L"
59472,"1413 UPPER GOLD CREEK","SANDPOINT","ID",83864,48.4112910590001,-116.377004186,472,"1413 UPPER GOLD CREEK, SANDPOINT, ID, 83864","Match","Non_Exact","1413 UPPER GOLD CREEK RD, SANDPOINT, ID, 83864",639578299,"L"
59473,"1413 VERMILYA AVENUE","FLINT","MI",48507,42.9911995200001,-83.698940405,473,"1413 VERMILYA AVENUE, FLINT, MI, 48507","Match","Exact","1413 VERMILYA AVE, FLINT, MI, 48507",69574559,"L"
59474,"1413 W KENNETH ROAD 200","GLENDALE","CA",91201,34.1725600400001,-118.279512624,474,"1413 W KENNETH ROAD 200, GLENDALE, CA, 91201","Match","Non_Exact","1413 W KENNETH RD, GLENDALE, CA, 91201",141596526,"R"
59475,"1413 W STOCKWELL ST","COMPTON","CA",90222,33.909433467,-118.249142634,475,"1413 W STOCKWELL ST, COMPTON, CA, 90222","Match","Exact","1413 W STOCKWELL ST, COMPTON, CA, 90222",141673902,"R"
59476,"1413 WARRIOR LANE","MADISON","WI",53704,43.157384827,-89.3720320909999,476,"1413 WARRIOR LANE, MADISON, WI, 53704","Match","Exact","1413 WARRIOR LN, MADISON, WI, 53704",49470712,"R"
59477,"1413 WOODHILL LANE","CHARLOTTE","NC",28205,35.2015920760001,-80.76600364,477,"1413 WOODHILL LANE, CHARLOTTE, NC, 28205","Match","Exact","1413 WOODHILL LN, CHARLOTTE, NC, 28205",70492161,"L"
59478,"1413 WYNHURST DRIVE","VIENNA","VA",22182,38.957363722,-77.294199976,478,"1413 WYNHURST DRIVE, VIENNA, VA, 22182","Match","Non_Exact","1413 WYNHURST LN, VIENNA, VA, 22182",215923736,"L"
59479,"14130 CHURCHILL DR","HOMER GLEN","IL",60491,41.6322784710001,-87.922001806,479,"14130 CHURCHILL DR, HOMER GLEN, IL, 60491","Match","Exact","14130 CHURCHILL DR, HOMER GLEN, IL, 60491",111638639,"L"
59480,"14130 DEER COVE DRIVE","HOLLAND","MI",49424,42.83345344,-86.1292122899999,480,"14130 DEER COVE DRIVE, HOLLAND, MI, 49424","Match","Exact","14130 DEER COVE DR, HOLLAND, MI, 49424",71076069,"R"
59481,"14130 OLD FM 471","SAN ANTONIO","TX",78253,29.508930482,-98.769256924,481,"14130 OLD FM 471, SAN ANTONIO, TX, 78253","Match","Non_Exact","14130 W FM 471, SAN ANTONIO, TX, 78253",651835735,"R"
59482,"14130 REDWOOD CIRCLE S","MCKINNEY","TX",75071,33.2116922270001,-96.752483264,482,"14130 REDWOOD CIRCLE S, MCKINNEY, TX, 75071","Match","Non_Exact","14130 RED WOOD CIR S, MCKINNEY, TX, 75071",123563382,"L"
59483,"14131 MARSHFIELD AVENUE","DIXMOOR","IL",60426,41.632450589,-87.6566250229999,483,"14131 MARSHFIELD AVENUE, DIXMOOR, IL, 60426","Match","Exact","14131 MARSHFIELD AVE, DIXMOOR, IL, 60426",111827229,"L"
59484,"14131 NE EUGENE CT","PORTLAND","OR",97230,45.538106385,-122.517183695,484,"14131 NE EUGENE CT, PORTLAND, OR, 97230","Match","Exact","14131 NE EUGENE CT, PORTLAND, OR, 97230",157544767,"L"
59485,"141327","COLUMBUS","OH",43214,NA,NA,485,"141327, COLUMBUS, OH, 43214","No_Match",NA,NA,NA,NA
59486,"14133 ALIS LN","FRISCO","TX",75035,33.195131518,-96.7992262829999,486,"14133 ALIS LN, FRISCO, TX, 75035","Match","Exact","14133 ALIS LN, FRISCO, TX, 75035",642938440,"L"
59487,"14133 N 65TH AVENUE","GLENDALE","AZ",85306,33.613941346,-112.199578342,487,"14133 N 65TH AVENUE, GLENDALE, AZ, 85306","Match","Exact","14133 N 65TH AVE, GLENDALE, AZ, 85306",128283174,"L"
59488,"14133 RANCHO TIERRA TRL","SAN DIEGO","CA",92130,32.972405576,-117.210562051,488,"14133 RANCHO TIERRA TRL, SAN DIEGO, CA, 92130","Match","Exact","14133 RANCHO TIERRA TRL, SAN DIEGO, CA, 92130",612889341,"R"
59489,"14134 HIDDEN VIEW RD NE","PRIOR LAKE","MN",55372,44.7445424640001,-93.396934404,489,"14134 HIDDEN VIEW RD NE, PRIOR LAKE, MN, 55372","Match","Exact","14134 HIDDEN VIEW RD NE, PRIOR LAKE, MN, 55372",38147993,"R"
59490,"14134 STATE HWY 31 E","BROWNSBORO","TX",75756,32.302303196,-95.618544071,490,"14134 STATE HWY 31 E, BROWNSBORO, TX, 75756","Match","Non_Exact","14134 STATE HWY 31, BROWNSBORO, TX, 75756",125801830,"R"
59491,"14135 BANEBERRY CIRCLE","MANASSAS","VA",20112,38.669678162,-77.380899254,491,"14135 BANEBERRY CIRCLE, MANASSAS, VA, 20112","Match","Exact","14135 BANEBERRY CIR, MANASSAS, VA, 20112",619940439,"R"
59492,"14135 BROADMOOR APT 303","OVERLAND PARK","KS",66223,38.872745104,-94.6668240069999,492,"14135 BROADMOOR APT 303, OVERLAND PARK, KS, 66223","Match","Non_Exact","14135 BROADMOOR ST, OVERLAND PARK, KS, 66223",91325291,"R"
59493,"14135 CHAMPIONS DR APT 90","HOUSTON","TX",77069,29.9860303250001,-95.534411843,493,"14135 CHAMPIONS DR APT 90, HOUSTON, TX, 77069","Match","Exact","14135 CHAMPIONS DR, HOUSTON, TX, 77069",96166095,"L"
59494,"14135 CHAMPIONS DRIVE APT 154","HOUSTON","TX",77069,29.9860303250001,-95.534411843,494,"14135 CHAMPIONS DRIVE APT 154, HOUSTON, TX, 77069","Match","Exact","14135 CHAMPIONS DR, HOUSTON, TX, 77069",96166095,"L"
59495,"14135 FRANCISQUITO AVE SUITE 215","BALDWINPARK","CA",91706,34.0639978890001,-117.967857078,495,"14135 FRANCISQUITO AVE SUITE 215, BALDWINPARK, CA, 91706","Match","Non_Exact","14135 FRANCISQUITO AVE, BALDWIN PARK, CA, 91706",241242311,"L"
59496,"14136 GILMORE AVE","BOW","WA",98232,48.5610983380001,-122.441602764,496,"14136 GILMORE AVE, BOW, WA, 98232","Match","Exact","14136 GILMORE AVE, BOW, WA, 98232",183660010,"R"
59497,"14136 SOUTH SHORE DR","CLIVE","IA",50325,41.607485528,-93.812797222,497,"14136 SOUTH SHORE DR, CLIVE, IA, 50325","Match","Exact","14136 S SHORE DR, CLIVE, IA, 50325",65853679,"R"
59498,"14137 253RD STREET","ROSEDALE","NY",11422,NA,NA,498,"14137 253RD STREET, ROSEDALE, NY, 11422","No_Match",NA,NA,NA,NA
59499,"14137 CASTLEROCK DR","ORLANDO","FL",32828,28.5374995020001,-81.176095249,499,"14137 CASTLEROCK DR, ORLANDO, FL, 32828","Match","Exact","14137 CASTLEROCK DR, ORLANDO, FL, 32828",94371148,"L"
59500,"14137 GLACIER VIEW DR","TRUCKEE","CA",96161,39.353524387,-120.241625658,500,"14137 GLACIER VIEW DR, TRUCKEE, CA, 96161","Match","Exact","14137 GLACIER VIEW DR, TRUCKEE, CA, 96161",106524723,"L"
