"ID","Address","City","State","Zip","lat","long","id","input_address","match_indicator","match_type","matched_address","tiger_line_id","tiger_side"
363001,"POST OFFICE BOX 68014","CHARLOTTE","NC",28216,NA,NA,1,"POST OFFICE BOX 68014, CHARLOTTE, NC, 28216","No_Match",NA,NA,NA,NA
363002,"POST OFFICE BOX 6805","AMERICUS","GA",31709,NA,NA,2,"POST OFFICE BOX 6805, AMERICUS, GA, 31709","No_Match",NA,NA,NA,NA
363003,"POST OFFICE BOX 682","MC KEE","KY",40447,NA,NA,3,"POST OFFICE BOX 682, MC KEE, KY, 40447","No_Match",NA,NA,NA,NA
363004,"POST OFFICE BOX 683","LAKE CHARLES","LA",70602,NA,NA,4,"POST OFFICE BOX 683, LAKE CHARLES, LA, 70602","No_Match",NA,NA,NA,NA
363005,"POST OFFICE BOX 68474","INDIANAPOLIS","IN",46268,NA,NA,5,"POST OFFICE BOX 68474, INDIANAPOLIS, IN, 46268","No_Match",NA,NA,NA,NA
363006,"POST OFFICE BOX 686","ARLINGTON","GA",39813,NA,NA,6,"POST OFFICE BOX 686, ARLINGTON, GA, 39813","No_Match",NA,NA,NA,NA
363007,"POST OFFICE BOX 686","TALLULH","LA",71282,NA,NA,7,"POST OFFICE BOX 686, TALLULH, LA, 71282","No_Match",NA,NA,NA,NA
363008,"POST OFFICE BOX 688","AURORA","OH",44202,NA,NA,8,"POST OFFICE BOX 688, AURORA, OH, 44202","No_Match",NA,NA,NA,NA
363009,"POST OFFICE BOX 69","SCARSDALE","NY",10583,NA,NA,9,"POST OFFICE BOX 69, SCARSDALE, NY, 10583","No_Match",NA,NA,NA,NA
363010,"POST OFFICE BOX 692484","OLANDO","FL",32869,NA,NA,10,"POST OFFICE BOX 692484, OLANDO, FL, 32869","No_Match",NA,NA,NA,NA
363011,"POST OFFICE BOX 693","OXON HILL","MD",20745,NA,NA,11,"POST OFFICE BOX 693, OXON HILL, MD, 20745","No_Match",NA,NA,NA,NA
363012,"POST OFFICE BOX 694","ARLINGTON","VA",22216,NA,NA,12,"POST OFFICE BOX 694, ARLINGTON, VA, 22216","No_Match",NA,NA,NA,NA
363013,"POST OFFICE BOX 694","MEEKER","OK",74855,NA,NA,13,"POST OFFICE BOX 694, MEEKER, OK, 74855","No_Match",NA,NA,NA,NA
363014,"POST OFFICE BOX 7009","WOODLAND PARK","CO",80863,NA,NA,14,"POST OFFICE BOX 7009, WOODLAND PARK, CO, 80863","No_Match",NA,NA,NA,NA
363015,"POST OFFICE BOX 701","DAVIDSON","NC",28036,NA,NA,15,"POST OFFICE BOX 701, DAVIDSON, NC, 28036","No_Match",NA,NA,NA,NA
363016,"POST OFFICE BOX 702","SUMMIT","IL",60501,NA,NA,16,"POST OFFICE BOX 702, SUMMIT, IL, 60501","No_Match",NA,NA,NA,NA
363017,"POST OFFICE BOX 704","MINERAL","VA",23117,NA,NA,17,"POST OFFICE BOX 704, MINERAL, VA, 23117","No_Match",NA,NA,NA,NA
363018,"POST OFFICE BOX 70446","TUSCALOOSA","AL",35405,NA,NA,18,"POST OFFICE BOX 70446, TUSCALOOSA, AL, 35405","No_Match",NA,NA,NA,NA
363019,"POST OFFICE BOX 706","ST. HELENA ISLAND","SC",29920,NA,NA,19,"POST OFFICE BOX 706, ST. HELENA ISLAND, SC, 29920","No_Match",NA,NA,NA,NA
363020,"POST OFFICE BOX 7119","CHICAGO","IL",60680,NA,NA,20,"POST OFFICE BOX 7119, CHICAGO, IL, 60680","No_Match",NA,NA,NA,NA
363021,"POST OFFICE BOX 713","KILMARNOCK","VA",22482,NA,NA,21,"POST OFFICE BOX 713, KILMARNOCK, VA, 22482","No_Match",NA,NA,NA,NA
363022,"POST OFFICE BOX 7182","GADSDEN","AL",35902,NA,NA,22,"POST OFFICE BOX 7182, GADSDEN, AL, 35902","No_Match",NA,NA,NA,NA
363023,"POST OFFICE BOX 724","YELLOW SPRINGS","OH",45387,NA,NA,23,"POST OFFICE BOX 724, YELLOW SPRINGS, OH, 45387","No_Match",NA,NA,NA,NA
363024,"POST OFFICE BOX 7256","WOODBRIDGE","VA",22195,NA,NA,24,"POST OFFICE BOX 7256, WOODBRIDGE, VA, 22195","No_Match",NA,NA,NA,NA
363025,"POST OFFICE BOX 7283","TUPELO","MS",38802,NA,NA,25,"POST OFFICE BOX 7283, TUPELO, MS, 38802","No_Match",NA,NA,NA,NA
363026,"POST OFFICE BOX 731218","SAN JOSE","CA",95173,NA,NA,26,"POST OFFICE BOX 731218, SAN JOSE, CA, 95173","No_Match",NA,NA,NA,NA
363027,"POST OFFICE BOX 73418","BATON ROUGE","LA",70874,NA,NA,27,"POST OFFICE BOX 73418, BATON ROUGE, LA, 70874","No_Match",NA,NA,NA,NA
363028,"POST OFFICE BOX 736","OXFORD","MS",38655,NA,NA,28,"POST OFFICE BOX 736, OXFORD, MS, 38655","No_Match",NA,NA,NA,NA
363029,"POST OFFICE BOX 7481","GULF SHORES","AL",36547,NA,NA,29,"POST OFFICE BOX 7481, GULF SHORES, AL, 36547","No_Match",NA,NA,NA,NA
363030,"POST OFFICE BOX 75","PUTNEY","VT",5346,NA,NA,30,"POST OFFICE BOX 75, PUTNEY, VT, 5346","No_Match",NA,NA,NA,NA
363031,"POST OFFICE BOX 750368","PETALUMA","CA",94975,NA,NA,31,"POST OFFICE BOX 750368, PETALUMA, CA, 94975","No_Match",NA,NA,NA,NA
363032,"POST OFFICE BOX 750484","PETALUMA","CA",94975,NA,NA,32,"POST OFFICE BOX 750484, PETALUMA, CA, 94975","No_Match",NA,NA,NA,NA
363033,"POST OFFICE BOX 7522","SHONTO","AZ",86054,NA,NA,33,"POST OFFICE BOX 7522, SHONTO, AZ, 86054","No_Match",NA,NA,NA,NA
363034,"POST OFFICE BOX 7715","AUBURN","CA",95604,NA,NA,34,"POST OFFICE BOX 7715, AUBURN, CA, 95604","No_Match",NA,NA,NA,NA
363035,"POST OFFICE BOX 7729","ASPEN","CO",81615,NA,NA,35,"POST OFFICE BOX 7729, ASPEN, CO, 81615","No_Match",NA,NA,NA,NA
363036,"POST OFFICE BOX 773","POMPANO BEACH","FL",33061,NA,NA,36,"POST OFFICE BOX 773, POMPANO BEACH, FL, 33061","No_Match",NA,NA,NA,NA
363037,"POST OFFICE BOX 778","RINGLING","OK",73456,NA,NA,37,"POST OFFICE BOX 778, RINGLING, OK, 73456","No_Match",NA,NA,NA,NA
363038,"POST OFFICE BOX 78244","CHARLOTTE","NC",28271,NA,NA,38,"POST OFFICE BOX 78244, CHARLOTTE, NC, 28271","No_Match",NA,NA,NA,NA
363039,"POST OFFICE BOX 784192","WINTER GARDEN","FL",34778,NA,NA,39,"POST OFFICE BOX 784192, WINTER GARDEN, FL, 34778","No_Match",NA,NA,NA,NA
363040,"POST OFFICE BOX 795","PHILMONT","NY",12565,NA,NA,40,"POST OFFICE BOX 795, PHILMONT, NY, 12565","No_Match",NA,NA,NA,NA
363041,"POST OFFICE BOX 802234","DALLAS","TX",75380,NA,NA,41,"POST OFFICE BOX 802234, DALLAS, TX, 75380","No_Match",NA,NA,NA,NA
363042,"POST OFFICE BOX 803124","SANTA CLARITA","CA",91380,NA,NA,42,"POST OFFICE BOX 803124, SANTA CLARITA, CA, 91380","No_Match",NA,NA,NA,NA
363043,"POST OFFICE BOX 8042","SOUTH LAKE TAHOE","CA",96158,NA,NA,43,"POST OFFICE BOX 8042, SOUTH LAKE TAHOE, CA, 96158","No_Match",NA,NA,NA,NA
363044,"POST OFFICE BOX 806","CANDOR","NC",27229,NA,NA,44,"POST OFFICE BOX 806, CANDOR, NC, 27229","No_Match",NA,NA,NA,NA
363045,"POST OFFICE BOX 80697","BATON ROUGE","LA",70808,NA,NA,45,"POST OFFICE BOX 80697, BATON ROUGE, LA, 70808","No_Match",NA,NA,NA,NA
363046,"POST OFFICE BOX 8087","MONROE","LA",71211,NA,NA,46,"POST OFFICE BOX 8087, MONROE, LA, 71211","No_Match",NA,NA,NA,NA
363047,"POST OFFICE BOX 814","WOODVILLE","MS",39669,NA,NA,47,"POST OFFICE BOX 814, WOODVILLE, MS, 39669","No_Match",NA,NA,NA,NA
363048,"POST OFFICE BOX 816","SUMMERTON","SC",29148,NA,NA,48,"POST OFFICE BOX 816, SUMMERTON, SC, 29148","No_Match",NA,NA,NA,NA
363049,"POST OFFICE BOX 817","EMMITSBURG","MD",21727,NA,NA,49,"POST OFFICE BOX 817, EMMITSBURG, MD, 21727","No_Match",NA,NA,NA,NA
363050,"POST OFFICE BOX 818","MOSES LAKE","WA",98837,NA,NA,50,"POST OFFICE BOX 818, MOSES LAKE, WA, 98837","No_Match",NA,NA,NA,NA
363051,"POST OFFICE BOX 81932","LAFAYETTE","LA",70598,NA,NA,51,"POST OFFICE BOX 81932, LAFAYETTE, LA, 70598","No_Match",NA,NA,NA,NA
363052,"POST OFFICE BOX 820903","VICKSBURG","MS",39182,NA,NA,52,"POST OFFICE BOX 820903, VICKSBURG, MS, 39182","No_Match",NA,NA,NA,NA
363053,"POST OFFICE BOX 83","BOYDS","MD",20874,NA,NA,53,"POST OFFICE BOX 83, BOYDS, MD, 20874","No_Match",NA,NA,NA,NA
363054,"POST OFFICE BOX 842","APEX","NC",27502,NA,NA,54,"POST OFFICE BOX 842, APEX, NC, 27502","No_Match",NA,NA,NA,NA
363055,"POST OFFICE BOX 842358","HOUSTON","TX",77284,NA,NA,55,"POST OFFICE BOX 842358, HOUSTON, TX, 77284","No_Match",NA,NA,NA,NA
363056,"POST OFFICE BOX 848 NORTH RAINBOW","LAS VEGAS","NV",89107,36.180126354,-115.242287146,56,"POST OFFICE BOX 848 NORTH RAINBOW, LAS VEGAS, NV, 89107","Match","Non_Exact","848 N RAINBOW BLVD, LAS VEGAS, NV, 89107",638295847,"R"
363057,"POST OFFICE BOX 85175","TUCSON","AZ",85754,NA,NA,57,"POST OFFICE BOX 85175, TUCSON, AZ, 85754","No_Match",NA,NA,NA,NA
363058,"POST OFFICE BOX 85840","SEATTLE","WA",98145,NA,NA,58,"POST OFFICE BOX 85840, SEATTLE, WA, 98145","No_Match",NA,NA,NA,NA
363059,"POST OFFICE BOX 861","WAKE FOREST","NC",27587,NA,NA,59,"POST OFFICE BOX 861, WAKE FOREST, NC, 27587","No_Match",NA,NA,NA,NA
363060,"POST OFFICE BOX 864","SACO","ME",4072,NA,NA,60,"POST OFFICE BOX 864, SACO, ME, 4072","No_Match",NA,NA,NA,NA
363061,"POST OFFICE BOX 870","ORANGEBURG","SC",29116,NA,NA,61,"POST OFFICE BOX 870, ORANGEBURG, SC, 29116","No_Match",NA,NA,NA,NA
363062,"POST OFFICE BOX 873","WOODINVILLE","WA",98072,NA,NA,62,"POST OFFICE BOX 873, WOODINVILLE, WA, 98072","No_Match",NA,NA,NA,NA
363063,"POST OFFICE BOX 885","NATCHEZ","MS",39121,NA,NA,63,"POST OFFICE BOX 885, NATCHEZ, MS, 39121","No_Match",NA,NA,NA,NA
363064,"POST OFFICE BOX 885","SODA SPRINGS","CA",95728,NA,NA,64,"POST OFFICE BOX 885, SODA SPRINGS, CA, 95728","No_Match",NA,NA,NA,NA
363065,"POST OFFICE BOX 887","LINDEN","CA",95236,NA,NA,65,"POST OFFICE BOX 887, LINDEN, CA, 95236","No_Match",NA,NA,NA,NA
363066,"POST OFFICE BOX 891","DELLSLOW","WV",26531,NA,NA,66,"POST OFFICE BOX 891, DELLSLOW, WV, 26531","No_Match",NA,NA,NA,NA
363067,"POST OFFICE BOX 894","LUTCHER","LA",70071,NA,NA,67,"POST OFFICE BOX 894, LUTCHER, LA, 70071","No_Match",NA,NA,NA,NA
363068,"POST OFFICE BOX 896","THREE RIVERS","CA",93271,NA,NA,68,"POST OFFICE BOX 896, THREE RIVERS, CA, 93271","No_Match",NA,NA,NA,NA
363069,"POST OFFICE BOX 90248","GARDENA","CA",90247,NA,NA,69,"POST OFFICE BOX 90248, GARDENA, CA, 90247","No_Match",NA,NA,NA,NA
363070,"POST OFFICE BOX 904","MILLSBORO","DE",19966,NA,NA,70,"POST OFFICE BOX 904, MILLSBORO, DE, 19966","No_Match",NA,NA,NA,NA
363071,"POST OFFICE BOX 905","GRAND BLANC","MI",48439,NA,NA,71,"POST OFFICE BOX 905, GRAND BLANC, MI, 48439","No_Match",NA,NA,NA,NA
363072,"POST OFFICE BOX 90757","LOS ANGELES","CA",90009,NA,NA,72,"POST OFFICE BOX 90757, LOS ANGELES, CA, 90009","No_Match",NA,NA,NA,NA
363073,"POST OFFICE BOX 91","SLIDELL","LA",70459,NA,NA,73,"POST OFFICE BOX 91, SLIDELL, LA, 70459","No_Match",NA,NA,NA,NA
363074,"POST OFFICE BOX 911","POMONA","NJ",8240,NA,NA,74,"POST OFFICE BOX 911, POMONA, NJ, 8240","No_Match",NA,NA,NA,NA
363075,"POST OFFICE BOX 917","WORTHINGTON","OH",43085,NA,NA,75,"POST OFFICE BOX 917, WORTHINGTON, OH, 43085","No_Match",NA,NA,NA,NA
363076,"POST OFFICE BOX 92","SILAS","AL",36919,NA,NA,76,"POST OFFICE BOX 92, SILAS, AL, 36919","No_Match",NA,NA,NA,NA
363077,"POST OFFICE BOX 921446","NORCROSS","GA",30010,NA,NA,77,"POST OFFICE BOX 921446, NORCROSS, GA, 30010","No_Match",NA,NA,NA,NA
363078,"POST OFFICE BOX 93","ROPER","NC",27970,NA,NA,78,"POST OFFICE BOX 93, ROPER, NC, 27970","No_Match",NA,NA,NA,NA
363079,"POST OFFICE BOX 939","CONCORD","NH",3302,NA,NA,79,"POST OFFICE BOX 939, CONCORD, NH, 3302","No_Match",NA,NA,NA,NA
363080,"POST OFFICE BOX 940908","MAITLAND","FL",32794,NA,NA,80,"POST OFFICE BOX 940908, MAITLAND, FL, 32794","No_Match",NA,NA,NA,NA
363081,"POST OFFICE BOX 952","CONWAY","AR",72033,NA,NA,81,"POST OFFICE BOX 952, CONWAY, AR, 72033","No_Match",NA,NA,NA,NA
363082,"POST OFFICE BOX 96","VANCE","SC",29163,NA,NA,82,"POST OFFICE BOX 96, VANCE, SC, 29163","No_Match",NA,NA,NA,NA
363083,"POST OFFICE BOX 960195","BOSTON","MA",2195,NA,NA,83,"POST OFFICE BOX 960195, BOSTON, MA, 2195","No_Match",NA,NA,NA,NA
363084,"POST OFFICE BOX 963","TROY","AL",36081,NA,NA,84,"POST OFFICE BOX 963, TROY, AL, 36081","No_Match",NA,NA,NA,NA
363085,"POST OFFICE BOX 9631","MOBILE","AL",36619,NA,NA,85,"POST OFFICE BOX 9631, MOBILE, AL, 36619","No_Match",NA,NA,NA,NA
363086,"POST OFFICE BOX 965","HENDERSON","NC",27536,NA,NA,86,"POST OFFICE BOX 965, HENDERSON, NC, 27536","No_Match",NA,NA,NA,NA
363087,"POST OFFICE BOX 9741","FRESNO","CA",93794,NA,NA,87,"POST OFFICE BOX 9741, FRESNO, CA, 93794","No_Match",NA,NA,NA,NA
363088,"POST OFFICE BOX 98","BEEBE","AR",72012,NA,NA,88,"POST OFFICE BOX 98, BEEBE, AR, 72012","No_Match",NA,NA,NA,NA
363089,"POST OFFICE BOX 98","ROSEDALE","MS",38769,NA,NA,89,"POST OFFICE BOX 98, ROSEDALE, MS, 38769","No_Match",NA,NA,NA,NA
363090,"POST OFFICE BOX 985","DESOTO","TX",75123,NA,NA,90,"POST OFFICE BOX 985, DESOTO, TX, 75123","No_Match",NA,NA,NA,NA
363091,"POST OFFICE BOX 9874","BOISE","ID",83707,NA,NA,91,"POST OFFICE BOX 9874, BOISE, ID, 83707","No_Match",NA,NA,NA,NA
363092,"POST OFFICE BOX 989","BRANDYWINE","MD",20613,NA,NA,92,"POST OFFICE BOX 989, BRANDYWINE, MD, 20613","No_Match",NA,NA,NA,NA
363093,"POST OFFICE BOX NUMBER 2361","CHANDLER","AZ",85225,NA,NA,93,"POST OFFICE BOX NUMBER 2361, CHANDLER, AZ, 85225","No_Match",NA,NA,NA,NA
363094,"POST OFFICE BOX W","SHEPHERDSTOWN","WV",25443,NA,NA,94,"POST OFFICE BOX W, SHEPHERDSTOWN, WV, 25443","No_Match",NA,NA,NA,NA
363095,"POSTAL BOX 178","WALNUT COVE","NC",27052,NA,NA,95,"POSTAL BOX 178, WALNUT COVE, NC, 27052","No_Match",NA,NA,NA,NA
363096,"POSTAL BOX 1983","PEMBROKE","NC",28372,NA,NA,96,"POSTAL BOX 1983, PEMBROKE, NC, 28372","No_Match",NA,NA,NA,NA
363097,"POSTAL BOX 25187","FAYETTEVILLE","NC",28314,NA,NA,97,"POSTAL BOX 25187, FAYETTEVILLE, NC, 28314","No_Match",NA,NA,NA,NA
363098,"POSTAL BOX 344","MAXTON","NC",23864,NA,NA,98,"POSTAL BOX 344, MAXTON, NC, 23864","No_Match",NA,NA,NA,NA
363099,"POUGHKEEPSIE","POUGHKEEPSIE","NY",12601,NA,NA,99,"POUGHKEEPSIE, POUGHKEEPSIE, NY, 12601","No_Match",NA,NA,NA,NA
363100,"POX 2378","JACKSONVILLE","FL",32203,NA,NA,100,"POX 2378, JACKSONVILLE, FL, 32203","No_Match",NA,NA,NA,NA
363101,"POX BOX 262","SAVANAH","GA",31402,NA,NA,101,"POX BOX 262, SAVANAH, GA, 31402","No_Match",NA,NA,NA,NA
363102,"PP BOX 513","KAUKAUNA","WI",54130,NA,NA,102,"PP BOX 513, KAUKAUNA, WI, 54130","No_Match",NA,NA,NA,NA
363103,"PP BOX 8372","WOODLAND","CA",95776,NA,NA,103,"PP BOX 8372, WOODLAND, CA, 95776","No_Match",NA,NA,NA,NA
363104,"PPO BOX16735","ROCHESTER","NY",14616,NA,NA,104,"PPO BOX16735, ROCHESTER, NY, 14616","No_Match",NA,NA,NA,NA
363105,"PRADERAS DE NAVARRO 266","GURABO","PR",778,NA,NA,105,"PRADERAS DE NAVARRO 266, GURABO, PR, 778","No_Match",NA,NA,NA,NA
363106,"PRADERAS NAVARRO 62 CALCEDONIA C 5","GURABO","PR",778,NA,NA,106,"PRADERAS NAVARRO 62 CALCEDONIA C 5, GURABO, PR, 778","No_Match",NA,NA,NA,NA
363107,"PREMIERE AVENUE","LONG BEACH","CA",90808,NA,NA,107,"PREMIERE AVENUE, LONG BEACH, CA, 90808","No_Match",NA,NA,NA,NA
363108,"PRIMAVERAPASEODELASFLORESSA2","TRUJILLO ALTO","PR",976,NA,NA,108,"PRIMAVERAPASEODELASFLORESSA2, TRUJILLO ALTO, PR, 976","No_Match",NA,NA,NA,NA
363109,"PRO BOX 55","OAKVILLE","WA",98568,NA,NA,109,"PRO BOX 55, OAKVILLE, WA, 98568","No_Match",NA,NA,NA,NA
363110,"PROF BUCK WHEATON CLG 27 E MAIN ST","NORTON","MA",2766,41.96795352,-71.1865865359999,110,"PROF BUCK WHEATON CLG 27 E MAIN ST, NORTON, MA, 2766","Match","Exact","27 E MAIN ST, NORTON, MA, 02766",649131675,"R"
363111,"PROVIDENCE STREET  P O BOX 2571","WHITEHOUSE","OH",43571,NA,NA,111,"PROVIDENCE STREET  P O BOX 2571, WHITEHOUSE, OH, 43571","No_Match",NA,NA,NA,NA
363112,"PROVO","PROVO","UT",84604,NA,NA,112,"PROVO, PROVO, UT, 84604","No_Match",NA,NA,NA,NA
363113,"PRYOR CASHMAN LLP 7 TIMES SQUARE","NEW YORK","NY",10036,NA,NA,113,"PRYOR CASHMAN LLP 7 TIMES SQUARE, NEW YORK, NY, 10036","No_Match",NA,NA,NA,NA
363114,"PS 205 PO BOX 9024118","SAN JUAN","PR",902,NA,NA,114,"PS 205 PO BOX 9024118, SAN JUAN, PR, 902","No_Match",NA,NA,NA,NA
363115,"PS 218 PO BOX 9024118","SAN JUAN","PR",902,NA,NA,115,"PS 218 PO BOX 9024118, SAN JUAN, PR, 902","No_Match",NA,NA,NA,NA
363116,"PS BOX 1667","ROYAL OAK","MI",48073,NA,NA,116,"PS BOX 1667, ROYAL OAK, MI, 48073","No_Match",NA,NA,NA,NA
363117,"PSC 103 BOX 2533","APO","AE",9603,NA,NA,117,"PSC 103 BOX 2533, APO, AE, 9603","No_Match",NA,NA,NA,NA
363118,"PSC 3 BOX 1004","APO","AP",96266,NA,NA,118,"PSC 3 BOX 1004, APO, AP, 96266","No_Match",NA,NA,NA,NA
363119,"PSC 3 BOX 1273","APO","AP",96266,NA,NA,119,"PSC 3 BOX 1273, APO, AP, 96266","No_Match",NA,NA,NA,NA
363120,"PSC 3 BOX 5791","APO","AP",96266,NA,NA,120,"PSC 3 BOX 5791, APO, AP, 96266","No_Match",NA,NA,NA,NA
363121,"PSC 41 BOX 2569","APO","AE",9464,NA,NA,121,"PSC 41 BOX 2569, APO, AE, 9464","No_Match",NA,NA,NA,NA
363122,"PSC 473 BOX 128","FPO","AP",96349,NA,NA,122,"PSC 473 BOX 128, FPO, AP, 96349","No_Match",NA,NA,NA,NA
363123,"PSC 473 BOX 329","FPO","AP",96349,NA,NA,123,"PSC 473 BOX 329, FPO, AP, 96349","No_Match",NA,NA,NA,NA
363124,"PSC 473 BOX 856","FPO","AP",96349,NA,NA,124,"PSC 473 BOX 856, FPO, AP, 96349","No_Match",NA,NA,NA,NA
363125,"PSC 476 BOX 128","FPO","AP",96322,NA,NA,125,"PSC 476 BOX 128, FPO, AP, 96322","No_Match",NA,NA,NA,NA
363126,"PSC 482 BOX 3079","FPO","AP",96362,NA,NA,126,"PSC 482 BOX 3079, FPO, AP, 96362","No_Match",NA,NA,NA,NA
363127,"PSC 559 BOX 5288","FPO","AP",96377,NA,NA,127,"PSC 559 BOX 5288, FPO, AP, 96377","No_Match",NA,NA,NA,NA
363128,"PSC 560 BOX 162","APO","AP",96376,NA,NA,128,"PSC 560 BOX 162, APO, AP, 96376","No_Match",NA,NA,NA,NA
363129,"PSC 560 BOX 165","FPO","AP",96376,NA,NA,129,"PSC 560 BOX 165, FPO, AP, 96376","No_Match",NA,NA,NA,NA
363130,"PSC 561 BOX 1118","FPO","AP",96310,NA,NA,130,"PSC 561 BOX 1118, FPO, AP, 96310","No_Match",NA,NA,NA,NA
363131,"PSC 561 BOX 1874","FPO","AP",96310,NA,NA,131,"PSC 561 BOX 1874, FPO, AP, 96310","No_Match",NA,NA,NA,NA
363132,"PSC 567 BOX 6786","FPO","AP",96384,NA,NA,132,"PSC 567 BOX 6786, FPO, AP, 96384","No_Match",NA,NA,NA,NA
363133,"PSC 7 BOX R1086","APO","AE",9104,NA,NA,133,"PSC 7 BOX R1086, APO, AE, 9104","No_Match",NA,NA,NA,NA
363134,"PSC 701 BOX 528","APO","AP",96555,NA,NA,134,"PSC 701 BOX 528, APO, AP, 96555","No_Match",NA,NA,NA,NA
363135,"PSC 701 BOX 887","APO","AP",96555,NA,NA,135,"PSC 701 BOX 887, APO, AP, 96555","No_Match",NA,NA,NA,NA
363136,"PSC 701 BOX 955","APO","AP",96555,NA,NA,136,"PSC 701 BOX 955, APO, AP, 96555","No_Match",NA,NA,NA,NA
363137,"PSC 702 BOX 8301","APO","AP",96557,NA,NA,137,"PSC 702 BOX 8301, APO, AP, 96557","No_Match",NA,NA,NA,NA
363138,"PSC 704 BOX 4","APO","AP",96337,NA,NA,138,"PSC 704 BOX 4, APO, AP, 96337","No_Match",NA,NA,NA,NA
363139,"PSC 705 GD BOX 13","APO","AP",96338,NA,NA,139,"PSC 705 GD BOX 13, APO, AP, 96338","No_Match",NA,NA,NA,NA
363140,"PSC 76 BOX 5065","APO","AP",96319,NA,NA,140,"PSC 76 BOX 5065, APO, AP, 96319","No_Match",NA,NA,NA,NA
363141,"PSC 76 BOX 5575","APO","AP",96319,NA,NA,141,"PSC 76 BOX 5575, APO, AP, 96319","No_Match",NA,NA,NA,NA
363142,"PSC 79 BOX 115","APO AE","NY",9714,NA,NA,142,"PSC 79 BOX 115, APO AE, NY, 9714","No_Match",NA,NA,NA,NA
363143,"PSC 80 BOX 10309","APO AP","CA",96367,NA,NA,143,"PSC 80 BOX 10309, APO AP, CA, 96367","No_Match",NA,NA,NA,NA
363144,"PSC 80 BOX 14094","APO","AP",96367,NA,NA,144,"PSC 80 BOX 14094, APO, AP, 96367","No_Match",NA,NA,NA,NA
363145,"PSC 80 BOX 17174","APO","AP",96367,NA,NA,145,"PSC 80 BOX 17174, APO, AP, 96367","No_Match",NA,NA,NA,NA
363146,"PSC 808 BOX 8","FPO AE","NY",9618,NA,NA,146,"PSC 808 BOX 8, FPO AE, NY, 9618","No_Match",NA,NA,NA,NA
363147,"PSC 812 BOX 1918","FPO","AE",9627,NA,NA,147,"PSC 812 BOX 1918, FPO, AE, 9627","No_Match",NA,NA,NA,NA
363148,"PSC 831 BOX 9912","FPO","AE",9363,NA,NA,148,"PSC 831 BOX 9912, FPO, AE, 9363","No_Match",NA,NA,NA,NA
363149,"PSC 851 BOX 1425","FPO","ME",9834,NA,NA,149,"PSC 851 BOX 1425, FPO, ME, 9834","No_Match",NA,NA,NA,NA
363150,"PSC 851 BOX 1576","FPO","AE",9834,NA,NA,150,"PSC 851 BOX 1576, FPO, AE, 9834","No_Match",NA,NA,NA,NA
363151,"PSC BOX 20003","CAMP LEJEUNE","NC",28542,NA,NA,151,"PSC BOX 20003, CAMP LEJEUNE, NC, 28542","No_Match",NA,NA,NA,NA
363152,"PSC BOX 20128","CAMP LEJEUNE","NC",28542,NA,NA,152,"PSC BOX 20128, CAMP LEJEUNE, NC, 28542","No_Match",NA,NA,NA,NA
363153,"PSC BOX 21039","JACKSONVILLE","NC",28545,NA,NA,153,"PSC BOX 21039, JACKSONVILLE, NC, 28545","No_Match",NA,NA,NA,NA
363154,"PUERTO NUEVO CALLE APENINOS 616","SAN JUAN","PR",920,NA,NA,154,"PUERTO NUEVO CALLE APENINOS 616, SAN JUAN, PR, 920","No_Match",NA,NA,NA,NA
363155,"PUNTA LAS MARIAS 2406 GRANADA","SAN JUAN","PR",913,NA,NA,155,"PUNTA LAS MARIAS 2406 GRANADA, SAN JUAN, PR, 913","No_Match",NA,NA,NA,NA
363156,"PUU NUI ST","WAIKOLOA","HI",96738,NA,NA,156,"PUU NUI ST, WAIKOLOA, HI, 96738","No_Match",NA,NA,NA,NA
363157,"PWHLLC 731 DUVAL STA RD STE 107-9","JACKSONVILLE","FL",32218,NA,NA,157,"PWHLLC 731 DUVAL STA RD STE 107-9, JACKSONVILLE, FL, 32218","No_Match",NA,NA,NA,NA
363158,"Q 7  CALLE 2    URB SANTA ELENA","BAYAMON","PR",957,18.3654571880001,-66.1815526459999,158,"Q 7  CALLE 2    URB SANTA ELENA, BAYAMON, PR, 957","Match","Exact","Q CLL 2, BAYAMON, PR, 00957",206022242,"R"
363159,"Q019 COUNTY ROAD 8","NAPOLEON","OH",43545,41.396191679,-84.018809163,159,"Q019 COUNTY ROAD 8, NAPOLEON, OH, 43545","Match","Exact","Q19 CO RD 8, NAPOLEON, OH, 43545",33803420,"L"
363160,"Q15 QUINCY CIRCLE","DAYTON","NJ",8810,40.3800913040001,-74.521459523,160,"Q15 QUINCY CIRCLE, DAYTON, NJ, 8810","Match","Exact","Q15 QUINCY CIR, DAYTON, NJ, 08810",60325787,"R"
363161,"QUINTAS DE STA MARIA 17 BO MIRADERO","MAYAGUEZ","PR",680,NA,NA,161,"QUINTAS DE STA MARIA 17 BO MIRADERO, MAYAGUEZ, PR, 680","No_Match",NA,NA,NA,NA
363162,"QUINTAS DEL RIO C-10","BAYAMON","PR",961,NA,NA,162,"QUINTAS DEL RIO C-10, BAYAMON, PR, 961","No_Match",NA,NA,NA,NA
363163,"R4200 HILLFIELD ROAD","HAMDEN","CT",6518,NA,NA,163,"R4200 HILLFIELD ROAD, HAMDEN, CT, 6518","No_Match",NA,NA,NA,NA
363164,"R910 BALLS FERRY RD","ANDERSON","CA",96007,NA,NA,164,"R910 BALLS FERRY RD, ANDERSON, CA, 96007","No_Match",NA,NA,NA,NA
363165,"RACHEL STROHM 2327 PRINCE ST","BERKELEY","CA",94705,37.85382974,-122.260753532,165,"RACHEL STROHM 2327 PRINCE ST, BERKELEY, CA, 94705","Match","Exact","2327 PRINCE ST, BERKELEY, CA, 94705",124998695,"L"
363166,"RALPH MCGILL BLVD NE 1311","ATLANTA","GA",30308,NA,NA,166,"RALPH MCGILL BLVD NE 1311, ATLANTA, GA, 30308","No_Match",NA,NA,NA,NA
363167,"RANDOLPH HALL 460 OLD TURNER STREET","BLACKSBURG","VA",24061,37.2303188440001,-80.4229723299999,167,"RANDOLPH HALL 460 OLD TURNER STREET, BLACKSBURG, VA, 24061","Match","Non_Exact","460 OLD TURNER ST, BLACKSBURG, VA, 24060",73637650,"R"
363168,"RDG 301 GRAND AVENUE","DES MOINES","IA",50309,NA,NA,168,"RDG 301 GRAND AVENUE, DES MOINES, IA, 50309","No_Match",NA,NA,NA,NA
363169,"REAR NFP","CHICAGO","IL",60615,NA,NA,169,"REAR NFP, CHICAGO, IL, 60615","No_Match",NA,NA,NA,NA
363170,"RES HATO GRANDE EDIF 7 APT 25","SAN LORENZO","PR",754,NA,NA,170,"RES HATO GRANDE EDIF 7 APT 25, SAN LORENZO, PR, 754","No_Match",NA,NA,NA,NA
363171,"RIT 90 LOMB MEMORIAL DRIVE","HENRIETTA","NY",14623,NA,NA,171,"RIT 90 LOMB MEMORIAL DRIVE, HENRIETTA, NY, 14623","No_Match",NA,NA,NA,NA
363172,"RIVERFRONT PKWY","CHATTANOOGA","TN",37402,NA,NA,172,"RIVERFRONT PKWY, CHATTANOOGA, TN, 37402","No_Match",NA,NA,NA,NA
363173,"RIVERTON WHARF","RIVERTON","MD",21837,NA,NA,173,"RIVERTON WHARF, RIVERTON, MD, 21837","No_Match",NA,NA,NA,NA
363174,"RM 5-239  149 13TH STREET","CHARLESTOWN","MA",2129,42.3767744680001,-71.050733937,174,"RM 5-239  149 13TH STREET, CHARLESTOWN, MA, 2129","Match","Exact","149 13TH ST, CHARLESTOWN, MA, 02129",85720057,"R"
363175,"RM553 1850 EAST-WEST RD","HONOLULU","HI",96822,NA,NA,175,"RM553 1850 EAST-WEST RD, HONOLULU, HI, 96822","No_Match",NA,NA,NA,NA
363176,"ROAD PR 997 KM 3-2","VIEQUES","PR",765,NA,NA,176,"ROAD PR 997 KM 3-2, VIEQUES, PR, 765","No_Match",NA,NA,NA,NA
363177,"ROMANCE LANGUAGES -1233 U OF OREGON","EUGENE","OR",97403,NA,NA,177,"ROMANCE LANGUAGES -1233 U OF OREGON, EUGENE, OR, 97403","No_Match",NA,NA,NA,NA
363178,"RONALD B PIZL","ANTIGO","WI",54409,NA,NA,178,"RONALD B PIZL, ANTIGO, WI, 54409","No_Match",NA,NA,NA,NA
363179,"ROOM 305-A OGLESBY UNION","TALLAHASSEE","FL",32306,NA,NA,179,"ROOM 305-A OGLESBY UNION, TALLAHASSEE, FL, 32306","No_Match",NA,NA,NA,NA
363180,"ROOM A-45  7712 35TH AVENUE","JACKSON HEIGHTS","NY",11372,NA,NA,180,"ROOM A-45  7712 35TH AVENUE, JACKSON HEIGHTS, NY, 11372","No_Match",NA,NA,NA,NA
363181,"ROSEDALE","ROSEDALE","NY",11422,NA,NA,181,"ROSEDALE, ROSEDALE, NY, 11422","No_Match",NA,NA,NA,NA
363182,"ROUTE 1 BOX 3600","AVA","MO",65608,NA,NA,182,"ROUTE 1 BOX 3600, AVA, MO, 65608","No_Match",NA,NA,NA,NA
363183,"ROUTE 1 BOX 470","NOWATA","OK",74048,NA,NA,183,"ROUTE 1 BOX 470, NOWATA, OK, 74048","No_Match",NA,NA,NA,NA
363184,"ROUTE 1 BOX 51","MCLEANSBORO","IL",62859,NA,NA,184,"ROUTE 1 BOX 51, MCLEANSBORO, IL, 62859","No_Match",NA,NA,NA,NA
363185,"ROUTE 12A PO BOX 107","PLAINFIELD","NH",3781,NA,NA,185,"ROUTE 12A PO BOX 107, PLAINFIELD, NH, 3781","No_Match",NA,NA,NA,NA
363186,"ROUTE 130","HARRISON CITY","PA",15636,NA,NA,186,"ROUTE 130, HARRISON CITY, PA, 15636","No_Match",NA,NA,NA,NA
363187,"ROUTE 24","WEST LEBANON","IN",47991,NA,NA,187,"ROUTE 24, WEST LEBANON, IN, 47991","No_Match",NA,NA,NA,NA
363188,"ROUTE 30","NEWFANE","VT",5345,NA,NA,188,"ROUTE 30, NEWFANE, VT, 5345","No_Match",NA,NA,NA,NA
363189,"ROUTE 4 BOX 315","NEEDLES","CA",92363,NA,NA,189,"ROUTE 4 BOX 315, NEEDLES, CA, 92363","No_Match",NA,NA,NA,NA
363190,"ROUTE 534","ALBRIGHTSVILLE","PA",18210,NA,NA,190,"ROUTE 534, ALBRIGHTSVILLE, PA, 18210","No_Match",NA,NA,NA,NA
363191,"ROUTE 7 NORTH","CHINLE","AZ",86503,NA,NA,191,"ROUTE 7 NORTH, CHINLE, AZ, 86503","No_Match",NA,NA,NA,NA
363192,"ROUTE 71 BOX 1218","ALTON","MO",65606,NA,NA,192,"ROUTE 71 BOX 1218, ALTON, MO, 65606","No_Match",NA,NA,NA,NA
363193,"ROY G VOSHELL PO BOX 289","CAMDEN","DE",19934,NA,NA,193,"ROY G VOSHELL PO BOX 289, CAMDEN, DE, 19934","No_Match",NA,NA,NA,NA
363194,"RR 04 BOX 5383","ANASCO","PR",610,NA,NA,194,"RR 04 BOX 5383, ANASCO, PR, 610","No_Match",NA,NA,NA,NA
363195,"RR 1 BOX 10006","KINGSHILL","VI",850,NA,NA,195,"RR 1 BOX 10006, KINGSHILL, VI, 850","No_Match",NA,NA,NA,NA
363196,"RR 1 BOX 1079","HARDIN","MT",59034,NA,NA,196,"RR 1 BOX 1079, HARDIN, MT, 59034","No_Match",NA,NA,NA,NA
363197,"RR 1 BOX 1138","WAYNE","WV",25570,NA,NA,197,"RR 1 BOX 1138, WAYNE, WV, 25570","No_Match",NA,NA,NA,NA
363198,"RR 1 BOX 2244","STILWELL","OK",74960,NA,NA,198,"RR 1 BOX 2244, STILWELL, OK, 74960","No_Match",NA,NA,NA,NA
363199,"RR 1 BOX 4572","BRISTOW","OK",74010,NA,NA,199,"RR 1 BOX 4572, BRISTOW, OK, 74010","No_Match",NA,NA,NA,NA
363200,"RR 1 BOX 646","ROSELAND","VA",22967,NA,NA,200,"RR 1 BOX 646, ROSELAND, VA, 22967","No_Match",NA,NA,NA,NA
363201,"RR 1 BOX 66","LAVERNE","OK",73848,NA,NA,201,"RR 1 BOX 66, LAVERNE, OK, 73848","No_Match",NA,NA,NA,NA
363202,"RR 1 BOX 68ABF","GUYMON","OK",73942,NA,NA,202,"RR 1 BOX 68ABF, GUYMON, OK, 73942","No_Match",NA,NA,NA,NA
363203,"RR 1 BOX 72","BIGGSVILLE","IL",61418,NA,NA,203,"RR 1 BOX 72, BIGGSVILLE, IL, 61418","No_Match",NA,NA,NA,NA
363204,"RR 1 PO BOX 631","SUGAR GROVE","OH",43155,NA,NA,204,"RR 1 PO BOX 631, SUGAR GROVE, OH, 43155","No_Match",NA,NA,NA,NA
363205,"RR 1","FORESTBURG","TX",76239,NA,NA,205,"RR 1, FORESTBURG, TX, 76239","No_Match",NA,NA,NA,NA
363206,"RR 2   BOX 82","HARDIN","IL",62047,NA,NA,206,"RR 2   BOX 82, HARDIN, IL, 62047","No_Match",NA,NA,NA,NA
363207,"RR 2 BOX 2389","HERMITAGE","MO",65668,NA,NA,207,"RR 2 BOX 2389, HERMITAGE, MO, 65668","No_Match",NA,NA,NA,NA
363208,"RR 2 BOX 4543","TOA ALTA","PR",953,NA,NA,208,"RR 2 BOX 4543, TOA ALTA, PR, 953","No_Match",NA,NA,NA,NA
363209,"RR 2 BOX 4669","TOA ALTA","PR",953,NA,NA,209,"RR 2 BOX 4669, TOA ALTA, PR, 953","No_Match",NA,NA,NA,NA
363210,"RR 2 BOX 72","HOOKER","OK",73945,NA,NA,210,"RR 2 BOX 72, HOOKER, OK, 73945","No_Match",NA,NA,NA,NA
363211,"RR 3 BOX 250","AVA","MO",65608,NA,NA,211,"RR 3 BOX 250, AVA, MO, 65608","No_Match",NA,NA,NA,NA
363212,"RR 4 BOX 2170","STILWELL","OK",74960,NA,NA,212,"RR 4 BOX 2170, STILWELL, OK, 74960","No_Match",NA,NA,NA,NA
363213,"RR 4 BOX 2656","STILWELL","OK",74960,NA,NA,213,"RR 4 BOX 2656, STILWELL, OK, 74960","No_Match",NA,NA,NA,NA
363214,"RR 5 BOX 982","STILWELL","OK",74960,NA,NA,214,"RR 5 BOX 982, STILWELL, OK, 74960","No_Match",NA,NA,NA,NA
363215,"RR 63 BOX 728","CABOOL","MO",65689,NA,NA,215,"RR 63 BOX 728, CABOOL, MO, 65689","No_Match",NA,NA,NA,NA
363216,"RR 71 BOX 1721","ALTON","MO",65606,NA,NA,216,"RR 71 BOX 1721, ALTON, MO, 65606","No_Match",NA,NA,NA,NA
363217,"RR BOX 5441","KATY","TX",77491,NA,NA,217,"RR BOX 5441, KATY, TX, 77491","No_Match",NA,NA,NA,NA
363218,"RR05 BOX 24800","ANASCO","PR",610,NA,NA,218,"RR05 BOX 24800, ANASCO, PR, 610","No_Match",NA,NA,NA,NA
363219,"RR1  BOX 1550","WYACONDA","MO",63474,NA,NA,219,"RR1  BOX 1550, WYACONDA, MO, 63474","No_Match",NA,NA,NA,NA
363220,"RR1 BOX 1162","WATTS","OK",74964,NA,NA,220,"RR1 BOX 1162, WATTS, OK, 74964","No_Match",NA,NA,NA,NA
363221,"RR1 BOX 155","BARING","MO",63531,NA,NA,221,"RR1 BOX 155, BARING, MO, 63531","No_Match",NA,NA,NA,NA
363222,"RR1 BOX 305G","LESAGE","WV",25537,NA,NA,222,"RR1 BOX 305G, LESAGE, WV, 25537","No_Match",NA,NA,NA,NA
363223,"RR1 BOX 46E","UNION","WV",24983,NA,NA,223,"RR1 BOX 46E, UNION, WV, 24983","No_Match",NA,NA,NA,NA
363224,"RR1 BOX148C","RUTLEDGE","MO",63563,NA,NA,224,"RR1 BOX148C, RUTLEDGE, MO, 63563","No_Match",NA,NA,NA,NA
363225,"RR2 4208 WEST THORSTENBERG RD","LINDSBORG","KS",67456,38.6528285540001,-97.6874571279999,225,"RR2 4208 WEST THORSTENBERG RD, LINDSBORG, KS, 67456","Match","Non_Exact","4208 W THORSTENBURG RD, LINDSBORG, KS, 67456",196689841,"R"
363226,"RR2 BOX 110","MARBLE HILL","MO",63764,NA,NA,226,"RR2 BOX 110, MARBLE HILL, MO, 63764","No_Match",NA,NA,NA,NA
363227,"RR2 BOX 26221 PINE CONE LANE","PIEDMONT","MO",63957,NA,NA,227,"RR2 BOX 26221 PINE CONE LANE, PIEDMONT, MO, 63957","No_Match",NA,NA,NA,NA
363228,"RR2 BOX 4544","PAHOA","HI",96778,NA,NA,228,"RR2 BOX 4544, PAHOA, HI, 96778","No_Match",NA,NA,NA,NA
363229,"RR3 BOX 8139","DONIPHAN","MO",63935,NA,NA,229,"RR3 BOX 8139, DONIPHAN, MO, 63935","No_Match",NA,NA,NA,NA
363230,"RR3 BOX B15 / 8545 N ALPINE LOOP RD","SUNDANCE","UT",84604,NA,NA,230,"RR3 BOX B15 / 8545 N ALPINE LOOP RD, SUNDANCE, UT, 84604","No_Match",NA,NA,NA,NA
363231,"RR7 BOX 378","GREENSBURG","PA",15601,NA,NA,231,"RR7 BOX 378, GREENSBURG, PA, 15601","No_Match",NA,NA,NA,NA
363232,"RR72 BOX 503","NORWOOD","MO",65717,NA,NA,232,"RR72 BOX 503, NORWOOD, MO, 65717","No_Match",NA,NA,NA,NA
363233,"RR8 BOX 1995 PMB 304","BAYAMON","PR",956,NA,NA,233,"RR8 BOX 1995 PMB 304, BAYAMON, PR, 956","No_Match",NA,NA,NA,NA
363234,"RSM US LLP 1185 AVE OF THE AMERICAS","NEW YORK","NY",10036,40.757442376,-73.982223951,234,"RSM US LLP 1185 AVE OF THE AMERICAS, NEW YORK, NY, 10036","Match","Exact","1185 AVE OF THE AMERICAS, NEW YORK, NY, 10036",59657145,"L"
363235,"RT 1 BOX 1340","STILWELL","OK",74960,NA,NA,235,"RT 1 BOX 1340, STILWELL, OK, 74960","No_Match",NA,NA,NA,NA
363236,"RT 1 BOX 1394","PIEDMONT","MO",63957,NA,NA,236,"RT 1 BOX 1394, PIEDMONT, MO, 63957","No_Match",NA,NA,NA,NA
363237,"RT 1 BOX 160","PETERSTOWN","WV",24963,NA,NA,237,"RT 1 BOX 160, PETERSTOWN, WV, 24963","No_Match",NA,NA,NA,NA
363238,"RT 1 BOX 290","MILL CREEK","WV",26280,NA,NA,238,"RT 1 BOX 290, MILL CREEK, WV, 26280","No_Match",NA,NA,NA,NA
363239,"RT 1 BOX 665-A","PETERSOWN","WV",24963,NA,NA,239,"RT 1 BOX 665-A, PETERSOWN, WV, 24963","No_Match",NA,NA,NA,NA
363240,"RT 1 BOX 93","MEMPHIS","MO",63555,NA,NA,240,"RT 1 BOX 93, MEMPHIS, MO, 63555","No_Match",NA,NA,NA,NA
363241,"RT 1 OCHWALKEE RD","GLENWOOD","GA",30428,NA,NA,241,"RT 1 OCHWALKEE RD, GLENWOOD, GA, 30428","No_Match",NA,NA,NA,NA
363242,"RT 2 BOX 2147","THAYER","MO",65791,NA,NA,242,"RT 2 BOX 2147, THAYER, MO, 65791","No_Match",NA,NA,NA,NA
363243,"RT 2 BOX 276AAA","MCLEANSBORO","IL",62859,NA,NA,243,"RT 2 BOX 276AAA, MCLEANSBORO, IL, 62859","No_Match",NA,NA,NA,NA
363244,"RT 2 BOX 608","SALT ROCK","WV",25559,NA,NA,244,"RT 2 BOX 608, SALT ROCK, WV, 25559","No_Match",NA,NA,NA,NA
363245,"RT 3 BOX 186","AVA","MO",65608,NA,NA,245,"RT 3 BOX 186, AVA, MO, 65608","No_Match",NA,NA,NA,NA
363246,"RT 3 BOX 2235","STILWELL","OK",74960,NA,NA,246,"RT 3 BOX 2235, STILWELL, OK, 74960","No_Match",NA,NA,NA,NA
363247,"RT 3 BOX 29 MILLSTONE","DELBARTON","WV",25670,NA,NA,247,"RT 3 BOX 29 MILLSTONE, DELBARTON, WV, 25670","No_Match",NA,NA,NA,NA
363248,"RT 4 BOX 689","ANGELTON","TX",77515,NA,NA,248,"RT 4 BOX 689, ANGELTON, TX, 77515","No_Match",NA,NA,NA,NA
363249,"RT 5 BOX 275","VINITA","OK",74301,NA,NA,249,"RT 5 BOX 275, VINITA, OK, 74301","No_Match",NA,NA,NA,NA
363250,"RT 5 BOX 418","AVA","MO",65608,NA,NA,250,"RT 5 BOX 418, AVA, MO, 65608","No_Match",NA,NA,NA,NA
363251,"RT 6 AND 590 PO BOX 320","HAWLEY","PA",18428,NA,NA,251,"RT 6 AND 590 PO BOX 320, HAWLEY, PA, 18428","No_Match",NA,NA,NA,NA
363252,"RT 61 BOX 1190","NAYLOR","MO",63953,NA,NA,252,"RT 61 BOX 1190, NAYLOR, MO, 63953","No_Match",NA,NA,NA,NA
363253,"RT 72 BOX 2689","ALTON","MO",65606,NA,NA,253,"RT 72 BOX 2689, ALTON, MO, 65606","No_Match",NA,NA,NA,NA
363254,"RURAL ROUTE 9 BOX 1240","GATEWOOD","MO",63942,NA,NA,254,"RURAL ROUTE 9 BOX 1240, GATEWOOD, MO, 63942","No_Match",NA,NA,NA,NA
363255,"S 107 HOWARD  SUITE 500","SPOKANE","WA",99201,NA,NA,255,"S 107 HOWARD  SUITE 500, SPOKANE, WA, 99201","No_Match",NA,NA,NA,NA
363256,"S 3115 ALPINE RD","FOUNTAIN CITY","WI",54629,NA,NA,256,"S 3115 ALPINE RD, FOUNTAIN CITY, WI, 54629","Tie",NA,NA,NA,NA
363257,"S 3RD STREET PO BOX 421","LANSING","IA",52151,NA,NA,257,"S 3RD STREET PO BOX 421, LANSING, IA, 52151","No_Match",NA,NA,NA,NA
363258,"S 607 WHITMAN AVENUE","ROSALI","WA",99170,NA,NA,258,"S 607 WHITMAN AVENUE, ROSALI, WA, 99170","No_Match",NA,NA,NA,NA
363259,"S COUNTER PO BOX 41","WILLIAMSTOWN","MA",1267,NA,NA,259,"S COUNTER PO BOX 41, WILLIAMSTOWN, MA, 1267","No_Match",NA,NA,NA,NA
363260,"S CZECH HALL ROAD","MUSTANG","OK",73064,NA,NA,260,"S CZECH HALL ROAD, MUSTANG, OK, 73064","No_Match",NA,NA,NA,NA
363261,"S FAIR STREET PH 1801","ARLINGTON","VA",22202,NA,NA,261,"S FAIR STREET PH 1801, ARLINGTON, VA, 22202","No_Match",NA,NA,NA,NA
363262,"S KING DR ATP 231","CHICAGO","IL",60616,NA,NA,262,"S KING DR ATP 231, CHICAGO, IL, 60616","No_Match",NA,NA,NA,NA
363263,"S M TRACY HERBARIUM 2138 TAMU","COLLEGE STATION","TX",77843,NA,NA,263,"S M TRACY HERBARIUM 2138 TAMU, COLLEGE STATION, TX, 77843","No_Match",NA,NA,NA,NA
363264,"S-3546 CALIFORNIA ROAD","ORCHARD PARK","NY",14127,NA,NA,264,"S-3546 CALIFORNIA ROAD, ORCHARD PARK, NY, 14127","No_Match",NA,NA,NA,NA
363265,"S101 W34628 COUNTY ROAD LO","EAGLE","WI",53119,NA,NA,265,"S101 W34628 COUNTY ROAD LO, EAGLE, WI, 53119","No_Match",NA,NA,NA,NA
363266,"S102 W21390 KELSEY DRIVE","MUSKEGO","WI",53150,NA,NA,266,"S102 W21390 KELSEY DRIVE, MUSKEGO, WI, 53150","Tie",NA,NA,NA,NA
363267,"S10659 STATE RD 23","SPRING GREEN","WI",53588,NA,NA,267,"S10659 STATE RD 23, SPRING GREEN, WI, 53588","No_Match",NA,NA,NA,NA
363268,"S10915A FOX ROAD","SAUK CITY","WI",53583,43.248968296,-89.91409313,268,"S10915A FOX ROAD, SAUK CITY, WI, 53583","Match","Exact","S10915 FOX RD, SAUK CITY, WI, 53583",635353233,"L"
363269,"S1257 COUNTY RD II","ALMA","WI",54610,NA,NA,269,"S1257 COUNTY RD II, ALMA, WI, 54610","No_Match",NA,NA,NA,NA
363270,"S1494 SAC CT","LAVALLE","WI",53941,43.5927465500001,-90.087355654,270,"S1494 SAC CT, LAVALLE, WI, 53941","Match","Non_Exact","S1494 SAC CT, LA VALLE, WI, 53941",86541952,"L"
363271,"S15052 OLD HWY 12 PO BOX 132","FAIRCHILD","WI",54741,44.610499222,-90.98378859,271,"S15052 OLD HWY 12 PO BOX 132, FAIRCHILD, WI, 54741","Match","Non_Exact","S15052 US HWY 12, FAIRCHILD, WI, 54741",639991343,"L"
363272,"S15970 OTTOW ROAD","FAIRCHILD","WI",54741,NA,NA,272,"S15970 OTTOW ROAD, FAIRCHILD, WI, 54741","No_Match",NA,NA,NA,NA
363273,"S1666 STENSLIEN LANE","WESTBY","WI",54667,43.6682366570001,-90.925456579,273,"S1666 STENSLIEN LANE, WESTBY, WI, 54667","Match","Exact","S1666 STENSLIEN LN, WESTBY, WI, 54667",48640069,"R"
363274,"S2413 MEADOWVIEW ROAD","REEDSBURG","WI",53959,43.559434282,-89.975252648,274,"S2413 MEADOWVIEW ROAD, REEDSBURG, WI, 53959","Match","Exact","S2413 MEADOWVIEW RD, REEDSBURG, WI, 53959",86543132,"R"
363275,"S2972 WAUMANDEE CREEK ROAD","FOUNTAIN CITY","WI",54629,44.162501192,-91.749021034,275,"S2972 WAUMANDEE CREEK ROAD, FOUNTAIN CITY, WI, 54629","Match","Exact","S2972 WAUMANDEE CREEK RD, FOUNTAIN CITY, WI, 54629",45766186,"R"
363276,"S3146 LAKESHORE DR","REEDSBURG","WI",53941,NA,NA,276,"S3146 LAKESHORE DR, REEDSBURG, WI, 53941","No_Match",NA,NA,NA,NA
363277,"S3216 CASEY AVE","SPENCER","WI",54479,44.7360619500001,-90.295341864,277,"S3216 CASEY AVE, SPENCER, WI, 54479","Match","Exact","S3216 CASEY AVE, SPENCER, WI, 54479",117161124,"L"
363278,"S3661 STATE HIGHWAY 131","LA FARGE","WI",54639,NA,NA,278,"S3661 STATE HIGHWAY 131, LA FARGE, WI, 54639","No_Match",NA,NA,NA,NA
363279,"S38 W26445 RIVER VIEW DRIVE","WAUKESHA","WI",53189,NA,NA,279,"S38 W26445 RIVER VIEW DRIVE, WAUKESHA, WI, 53189","Tie",NA,NA,NA,NA
363280,"S380 STATE RD 37","MONDOVI","WI",54755,NA,NA,280,"S380 STATE RD 37, MONDOVI, WI, 54755","No_Match",NA,NA,NA,NA
363281,"S39W27460 BROOKHILL DR","WAUKESHA","WI",53189,42.9710172490001,-88.3014406409999,281,"S39W27460 BROOKHILL DR, WAUKESHA, WI, 53189","Match","Exact","S39W27460 BROOKHILL DR, WAUKESHA, WI, 53189",53819095,"L"
363282,"S4125A ROCKY POINT ROAD","BARABOO","WI",53913,43.4894302760001,-89.6952085,282,"S4125A ROCKY POINT ROAD, BARABOO, WI, 53913","Match","Exact","S4125 ROCKY POINT RD, BARABOO, WI, 53913",86547495,"L"
363283,"S4492 BELTER DR","NORTH FREEDOM","WI",53951,43.4792596350001,-89.849990492,283,"S4492 BELTER DR, NORTH FREEDOM, WI, 53951","Match","Exact","S4492 BELTER DR, NORTH FREEDOM, WI, 53951",86551678,"R"
363284,"S46W24590 LAWNSDALE ROAD","WAUKESHA","WI",53189,42.9592512410001,-88.240117412,284,"S46W24590 LAWNSDALE ROAD, WAUKESHA, WI, 53189","Match","Exact","S46W24590 LAWNSDALE RD, WAUKESHA, WI, 53189",53820905,"L"
363285,"S4706 ORCHARD ROAD","VIROQUA","WI",54665,43.5620396670001,-90.814700635,285,"S4706 ORCHARD ROAD, VIROQUA, WI, 54665","Match","Exact","S4706 ORCHARD RD, VIROQUA, WI, 54665",629014415,"R"
363286,"S4890 COUNTY ROAD I","NORTH FREEDOM","WI",53951,NA,NA,286,"S4890 COUNTY ROAD I, NORTH FREEDOM, WI, 53951","No_Match",NA,NA,NA,NA
363287,"S5601 STATE ROAD 113","BARABOO","WI",53913,NA,NA,287,"S5601 STATE ROAD 113, BARABOO, WI, 53913","No_Match",NA,NA,NA,NA
363288,"S6106 FREEDOM ROAD","NORTH FREEDOM","WI",53951,43.439300056,-89.861843331,288,"S6106 FREEDOM ROAD, NORTH FREEDOM, WI, 53951","Match","Exact","S6106 FREEDOM RD, NORTH FREEDOM, WI, 53951",86533185,"R"
363289,"S62 W28218 RIDGE VALLEY RD","WAUKESHA","WI",53189,NA,NA,289,"S62 W28218 RIDGE VALLEY RD, WAUKESHA, WI, 53189","Tie",NA,NA,NA,NA
363290,"S643 COUNTY ROAD BB","MONDOVI","WI",54755,NA,NA,290,"S643 COUNTY ROAD BB, MONDOVI, WI, 54755","No_Match",NA,NA,NA,NA
363291,"S69W32751 WESTGATE DRIVE","MUKWONAGO","WI",53149,NA,NA,291,"S69W32751 WESTGATE DRIVE, MUKWONAGO, WI, 53149","Tie",NA,NA,NA,NA
363292,"S70 W22475 SONOMA WAY","BIG BEND","WI",53103,NA,NA,292,"S70 W22475 SONOMA WAY, BIG BEND, WI, 53103","Tie",NA,NA,NA,NA
363293,"S74W17095 JANESVILLE RD B","MUSKEGO","WI",53150,42.9077966890001,-88.1310951309999,293,"S74W17095 JANESVILLE RD B, MUSKEGO, WI, 53150","Match","Exact","S74W17095 JANESVILLE RD, MUSKEGO, WI, 53150",53822696,"L"
363294,"S74W20150 FIELD DR","MUSKEGO","WI",53150,42.9086775370001,-88.171931361,294,"S74W20150 FIELD DR, MUSKEGO, WI, 53150","Match","Exact","S74W20150 FIELD DR, MUSKEGO, WI, 53150",627813895,"L"
363295,"S76W31320 CENTURY DR","MUKWONAGO","WI",53149,42.9044847000001,-88.3731380149999,295,"S76W31320 CENTURY DR, MUKWONAGO, WI, 53149","Match","Exact","S76W31320 CENTURY DR, MUKWONAGO, WI, 53149",53818747,"L"
363296,"S78W14322 HUNTER HILL CT","MUSKGEO","WI",53150,42.9025905720001,-88.092983325,296,"S78W14322 HUNTER HILL CT, MUSKGEO, WI, 53150","Match","Non_Exact","S78 HUNTERS HILL CT, MUSKEGO, WI, 53150",648263193,"R"
363297,"S78W24070 CHERI AVENUE","BIG BEND","WI",53103,42.9008027900001,-88.23513894,297,"S78W24070 CHERI AVENUE, BIG BEND, WI, 53103","Match","Exact","S78W24070 CHERI AVE, BIG BEND, WI, 53103",53821820,"L"
363298,"S8293 PRESTEGARD ROAD","READSTOWN","WI",54652,43.429376163,-90.8031293929999,298,"S8293 PRESTEGARD ROAD, READSTOWN, WI, 54652","Match","Exact","S8293 PRESTEGARD RD, READSTOWN, WI, 54652",48621129,"L"
363299,"S86 W22930 EDGEWOOD AVENUE","BIG BEND","WI",53103,NA,NA,299,"S86 W22930 EDGEWOOD AVENUE, BIG BEND, WI, 53103","Tie",NA,NA,NA,NA
363300,"S8W19471 APOLLO DR APT E","MUSKEGO","WI",53150,NA,NA,300,"S8W19471 APOLLO DR APT E, MUSKEGO, WI, 53150","No_Match",NA,NA,NA,NA
363301,"S90W19108 ACORN DR","MUSKEGO","WI",53150,42.8807780400001,-88.1527645149999,301,"S90W19108 ACORN DR, MUSKEGO, WI, 53150","Match","Exact","S90W19108 ACORN DR, MUSKEGO, WI, 53150",649748511,"R"
363302,"S9220 HILLVIEW ROAD","FALL CREEK","WI",54742,44.698058216,-91.407407518,302,"S9220 HILLVIEW ROAD, FALL CREEK, WI, 54742","Match","Exact","S9220 HILLVIEW RD, FALL CREEK, WI, 54742",633402902,"L"
363303,"SAGE HALL-1167 UNION CIR SUITE 202","DENTON","TX",76203,NA,NA,303,"SAGE HALL-1167 UNION CIR SUITE 202, DENTON, TX, 76203","No_Match",NA,NA,NA,NA
363304,"SAGITARIO 66","VIEQUES","PR",765,NA,NA,304,"SAGITARIO 66, VIEQUES, PR, 765","No_Match",NA,NA,NA,NA
363305,"SAM HOUSTON STATE  816 17TH STREET","HUNTSVILLE","TX",77340,NA,NA,305,"SAM HOUSTON STATE  816 17TH STREET, HUNTSVILLE, TX, 77340","No_Match",NA,NA,NA,NA
363306,"SAMC 2175 REILLY RD STOP A","FORT BRAGG","NC",28310,NA,NA,306,"SAMC 2175 REILLY RD STOP A, FORT BRAGG, NC, 28310","No_Match",NA,NA,NA,NA
363307,"SAN ANTONIO STREET 1870 A PARADA 26","SAN JUAN","PR",909,NA,NA,307,"SAN ANTONIO STREET 1870 A PARADA 26, SAN JUAN, PR, 909","No_Match",NA,NA,NA,NA
363308,"SAN JOSE VILLAGE","TINIAN","MP",96952,NA,NA,308,"SAN JOSE VILLAGE, TINIAN, MP, 96952","No_Match",NA,NA,NA,NA
363309,"SANTA ROSA","SANTA ROSA","CA",95404,NA,NA,309,"SANTA ROSA, SANTA ROSA, CA, 95404","No_Match",NA,NA,NA,NA
363310,"SARATOGA COUNTY SPCA INC PO BOX 97","REXFORD","NY",12148,NA,NA,310,"SARATOGA COUNTY SPCA INC PO BOX 97, REXFORD, NY, 12148","No_Match",NA,NA,NA,NA
363311,"SCAVMA OFFICE VMRCVM VIRGINIA TECH","BLACKSBURG","VA",24060,NA,NA,311,"SCAVMA OFFICE VMRCVM VIRGINIA TECH, BLACKSBURG, VA, 24060","No_Match",NA,NA,NA,NA
363312,"SCHOOL OF NURSING CB7460 UNC-CH","CHAPEL HILL","NC",27599,NA,NA,312,"SCHOOL OF NURSING CB7460 UNC-CH, CHAPEL HILL, NC, 27599","No_Match",NA,NA,NA,NA
363313,"SCHOOL OF STEM 18115 CAMPUS WAY NE","BOTHELL","WA",98011,47.7616918470001,-122.191984666,313,"SCHOOL OF STEM 18115 CAMPUS WAY NE, BOTHELL, WA, 98011","Match","Exact","18115 CAMPUS WAY NE, BOTHELL, WA, 98011",653502735,"R"
363314,"SCHOOLCRAFT COLLEGE  18600 HAGGERTY","LIVONIA","MI",48152,42.4208456640001,-83.4328868819999,314,"SCHOOLCRAFT COLLEGE  18600 HAGGERTY, LIVONIA, MI, 48152","Match","Non_Exact","18600 HAGGERTY RD, LIVONIA, MI, 48152",95495103,"R"
363315,"SCHUETTE A313 SUNY COLLEGE POTSDAM","POTSDAM","NY",13676,NA,NA,315,"SCHUETTE A313 SUNY COLLEGE POTSDAM, POTSDAM, NY, 13676","No_Match",NA,NA,NA,NA
363316,"SCIENCE CENTER 204","HIGHLAND HEIGHTS","KY",41009,NA,NA,316,"SCIENCE CENTER 204, HIGHLAND HEIGHTS, KY, 41009","No_Match",NA,NA,NA,NA
363317,"SCOTT SEBASTIAN - 43 LEXINGTON ROAD","WEST HARTFORD","CT",6119,41.7602960400001,-72.719800306,317,"SCOTT SEBASTIAN - 43 LEXINGTON ROAD, WEST HARTFORD, CT, 6119","Match","Exact","43 LEXINGTON RD, WEST HARTFORD, CT, 06119",3494023,"L"
363318,"SE IRONWOOD CIRCLE","STUART","FL",34997,NA,NA,318,"SE IRONWOOD CIRCLE, STUART, FL, 34997","No_Match",NA,NA,NA,NA
363319,"SECOND CHANCE PO BOX 3823","SYRACUSE","NY",13220,NA,NA,319,"SECOND CHANCE PO BOX 3823, SYRACUSE, NY, 13220","No_Match",NA,NA,NA,NA
363320,"SECTOR PEPE TORRES BO MINILLAS","BAYAMON","PR",956,NA,NA,320,"SECTOR PEPE TORRES BO MINILLAS, BAYAMON, PR, 956","No_Match",NA,NA,NA,NA
363321,"SEVEN MILES OUT MATTOLE ROAD","WEOTT","CA",95571,NA,NA,321,"SEVEN MILES OUT MATTOLE ROAD, WEOTT, CA, 95571","No_Match",NA,NA,NA,NA
363322,"SHANNON RD STE 51753","DURHAM","NC",27703,NA,NA,322,"SHANNON RD STE 51753, DURHAM, NC, 27703","No_Match",NA,NA,NA,NA
363323,"SHELBY TWP","SHELBY TWP","MI",48316,NA,NA,323,"SHELBY TWP, SHELBY TWP, MI, 48316","No_Match",NA,NA,NA,NA
363324,"SHENEDEHOWA HS  970 ROUTE 146","CLIFTON PARK","NY",12065,42.8692505110001,-73.811704565,324,"SHENEDEHOWA HS  970 ROUTE 146, CLIFTON PARK, NY, 12065","Match","Non_Exact","970 STATE HWY 146, CLIFTON PARK, NY, 12065",18800642,"R"
363325,"SHENENDEHOWA HSE  970 RTE 146","CLIFTON PARK","NY",12065,42.869071546,-73.810566616,325,"SHENENDEHOWA HSE  970 RTE 146, CLIFTON PARK, NY, 12065","Match","Non_Exact","970 STATE HWY 146, CLIFTON PARK, NY, 12065",18800642,"R"
363326,"SHENFIELD DR","UNION CITY","GA",30291,NA,NA,326,"SHENFIELD DR, UNION CITY, GA, 30291","No_Match",NA,NA,NA,NA
363327,"SHERWOOD FOREST DRIVE","FLORISSANT","MO",63031,NA,NA,327,"SHERWOOD FOREST DRIVE, FLORISSANT, MO, 63031","No_Match",NA,NA,NA,NA
363328,"SHORELINE CC 16101 GREENWOOD AVE N","SHORELINE","WA",98133,47.747895215,-122.355692522,328,"SHORELINE CC 16101 GREENWOOD AVE N, SHORELINE, WA, 98133","Match","Exact","16101 GREENWOOD AVE N, SHORELINE, WA, 98133",239776118,"L"
363329,"SIL  100 N CHARLES ST  5TH FLOOR","BALTIMORE","MD",21201,NA,NA,329,"SIL  100 N CHARLES ST  5TH FLOOR, BALTIMORE, MD, 21201","No_Match",NA,NA,NA,NA
363330,"SILVER THISTLE LANE","SAINT CLOUD","FL",34772,NA,NA,330,"SILVER THISTLE LANE, SAINT CLOUD, FL, 34772","No_Match",NA,NA,NA,NA
363331,"SIX PPG PLACE SUITE 1300","PITTSBURGH","PA",15222,NA,NA,331,"SIX PPG PLACE SUITE 1300, PITTSBURGH, PA, 15222","No_Match",NA,NA,NA,NA
363332,"SK HIGH SCHOOL 215 COLUMBIA STREET","WAKEFIELD","RI",2879,41.4453058060001,-71.49624841,332,"SK HIGH SCHOOL 215 COLUMBIA STREET, WAKEFIELD, RI, 2879","Match","Exact","215 COLUMBIA ST, WAKEFIELD, RI, 02879",58902942,"R"
363333,"SLU 10719","HAMMOND","LA",70402,NA,NA,333,"SLU 10719, HAMMOND, LA, 70402","No_Match",NA,NA,NA,NA
363334,"SLU BOX 10878","HAMMOND","LA",70402,NA,NA,334,"SLU BOX 10878, HAMMOND, LA, 70402","No_Match",NA,NA,NA,NA
363335,"SOULE FOUNDATION INC","NEW YORK","NY",10002,NA,NA,335,"SOULE FOUNDATION INC, NEW YORK, NY, 10002","No_Match",NA,NA,NA,NA
363336,"SOUTH 165 HOWARD STREET","SPOKANE","WA",99201,NA,NA,336,"SOUTH 165 HOWARD STREET, SPOKANE, WA, 99201","No_Match",NA,NA,NA,NA
363337,"SOUTH SHORE ROAD","LINNEUS","ME",4730,NA,NA,337,"SOUTH SHORE ROAD, LINNEUS, ME, 4730","No_Match",NA,NA,NA,NA
363338,"SOUTHWEST 49TH AVENUE","OCALA","FL",34474,NA,NA,338,"SOUTHWEST 49TH AVENUE, OCALA, FL, 34474","No_Match",NA,NA,NA,NA
363339,"SPARTA DRIVE","MORROW","GA",30260,NA,NA,339,"SPARTA DRIVE, MORROW, GA, 30260","No_Match",NA,NA,NA,NA
363340,"SPEECH DEBATE 1327 SAN GABRIEL BLVD","SAN GABRIEL","CA",91776,NA,NA,340,"SPEECH DEBATE 1327 SAN GABRIEL BLVD, SAN GABRIEL, CA, 91776","No_Match",NA,NA,NA,NA
363341,"SPRING HAVEN CIRCLE SW","BIRMINGHAM","AL",35211,NA,NA,341,"SPRING HAVEN CIRCLE SW, BIRMINGHAM, AL, 35211","No_Match",NA,NA,NA,NA
363342,"SQUIRE AND CO 1329 S 800 E","OREM","UT",84097,NA,NA,342,"SQUIRE AND CO 1329 S 800 E, OREM, UT, 84097","No_Match",NA,NA,NA,NA
363343,"ST 307 - 5114 BALCONES WOODS DRIVE","AUSTIN","TX",78759,NA,NA,343,"ST 307 - 5114 BALCONES WOODS DRIVE, AUSTIN, TX, 78759","No_Match",NA,NA,NA,NA
363344,"ST BARTHOLOMEWS 82 PROSPECT ST","WHITE PLAINS","NY",10606,41.019028528,-73.773121093,344,"ST BARTHOLOMEWS 82 PROSPECT ST, WHITE PLAINS, NY, 10606","Match","Exact","82 PROSPECT ST, WHITE PLAINS, NY, 10606",139741639,"R"
363345,"ST JOHN PARISH-253 N WASHINGTON ST","SPRING GREEN","WI",53588,NA,NA,345,"ST JOHN PARISH-253 N WASHINGTON ST, SPRING GREEN, WI, 53588","No_Match",NA,NA,NA,NA
363346,"ST VINCENTS 4200 CALLE REAL","SANTA BARBARA","CA",93110,NA,NA,346,"ST VINCENTS 4200 CALLE REAL, SANTA BARBARA, CA, 93110","No_Match",NA,NA,NA,NA
363347,"STATE BANK OF JEFFERS - PO BOX 128","JEFFERS","MN",56145,NA,NA,347,"STATE BANK OF JEFFERS - PO BOX 128, JEFFERS, MN, 56145","No_Match",NA,NA,NA,NA
363348,"STATE HWY 89 SUITE F","YARNELL","AZ",85362,NA,NA,348,"STATE HWY 89 SUITE F, YARNELL, AZ, 85362","No_Match",NA,NA,NA,NA
363349,"STATE ROAD 110 HOUSE NUMBER 41","EL RITO","NM",87630,NA,NA,349,"STATE ROAD 110 HOUSE NUMBER 41, EL RITO, NM, 87630","No_Match",NA,NA,NA,NA
363350,"STATE ROUTE 54 PO BOX 47","HAMMONDSPORT","NY",14840,NA,NA,350,"STATE ROUTE 54 PO BOX 47, HAMMONDSPORT, NY, 14840","No_Match",NA,NA,NA,NA
363351,"STATE STREET  P O BOX 68","GREENSBORO","AL",36744,NA,NA,351,"STATE STREET  P O BOX 68, GREENSBORO, AL, 36744","No_Match",NA,NA,NA,NA
363352,"STATION 4 22855 FRANZ RD","KATY","TX",77450,29.8019902880001,-95.7669751989999,352,"STATION 4 22855 FRANZ RD, KATY, TX, 77450","Match","Non_Exact","22855 FRANZ RD, KATY, TX, 77449",96012920,"R"
363353,"STE 105 PMB 10023","LOMA LINDA","CA",92354,NA,NA,353,"STE 105 PMB 10023, LOMA LINDA, CA, 92354","No_Match",NA,NA,NA,NA
363354,"STE 150 2607 KINGSTON PIKE","KKNOXVILLE","TN",37919,35.951975797,-83.944768784,354,"STE 150 2607 KINGSTON PIKE, KKNOXVILLE, TN, 37919","Match","Non_Exact","2607 KINGSTON PIKE, KNOXVILLE, TN, 37919",645249530,"R"
363355,"STE 205 CROSSLAND AVE","CLARKSVILLE","TN",37040,NA,NA,355,"STE 205 CROSSLAND AVE, CLARKSVILLE, TN, 37040","No_Match",NA,NA,NA,NA
363356,"STE 280","PEMBROKE PINES","FL",33028,NA,NA,356,"STE 280, PEMBROKE PINES, FL, 33028","No_Match",NA,NA,NA,NA
363357,"STE 302 22356 EL TORO ROAD","LAKE FOREST","CA",92630,NA,NA,357,"STE 302 22356 EL TORO ROAD, LAKE FOREST, CA, 92630","No_Match",NA,NA,NA,NA
363358,"STE 406 2 INTERNATIONAL PLZ","NASHVILLE","TN",37217,NA,NA,358,"STE 406 2 INTERNATIONAL PLZ, NASHVILLE, TN, 37217","No_Match",NA,NA,NA,NA
363359,"STE C","OAKLAND","CA",94611,NA,NA,359,"STE C, OAKLAND, CA, 94611","No_Match",NA,NA,NA,NA
363360,"STE C2 39 W BROAD ST","COOKEVILLE","TN",38501,36.1638711030001,-85.5070028969999,360,"STE C2 39 W BROAD ST, COOKEVILLE, TN, 38501","Match","Exact","39 W BROAD ST, COOKEVILLE, TN, 38501",25141259,"R"
363361,"STEPHEN CHO 12 E 14TH ST APT 3B","NEW YORK","NY",10003,NA,NA,361,"STEPHEN CHO 12 E 14TH ST APT 3B, NEW YORK, NY, 10003","No_Match",NA,NA,NA,NA
363362,"STREET 10 AB-17 JARDINES DE CAPARRA","BAYAMON","PR",959,NA,NA,362,"STREET 10 AB-17 JARDINES DE CAPARRA, BAYAMON, PR, 959","No_Match",NA,NA,NA,NA
363363,"STUDENTS IN VITA CENTER FOR STUDENT","DAVIS","CA",95616,NA,NA,363,"STUDENTS IN VITA CENTER FOR STUDENT, DAVIS, CA, 95616","No_Match",NA,NA,NA,NA
363364,"SU BOX 12321","BATON ROUGE","LA",70813,NA,NA,364,"SU BOX 12321, BATON ROUGE, LA, 70813","No_Match",NA,NA,NA,NA
363365,"SUITE 100 GRAY FLATS ROAD","BECKLEY","WV",25801,NA,NA,365,"SUITE 100 GRAY FLATS ROAD, BECKLEY, WV, 25801","No_Match",NA,NA,NA,NA
363366,"SUITE 102","DEL MAR","CA",92014,NA,NA,366,"SUITE 102, DEL MAR, CA, 92014","No_Match",NA,NA,NA,NA
363367,"SUITE 104 21076 BAKE PARKWAY","LAKE FOREST","CA",92630,33.6539962210001,-117.703847279,367,"SUITE 104 21076 BAKE PARKWAY, LAKE FOREST, CA, 92630","Match","Exact","21076 BAKE PKWY, LAKE FOREST, CA, 92630",639054287,"L"
363368,"SUITE 1112 801 PENNSYLVANIA AVE NW","WASHINGTON","DC",20004,38.89362899,-77.0230359559999,368,"SUITE 1112 801 PENNSYLVANIA AVE NW, WASHINGTON, DC, 20004","Match","Exact","801 PENNSYLVANIA AVE NW, WASHINGTON, DC, 20004",76226346,"R"
363369,"SUITE 200 18081 BURT STREET","OMAHA","NE",68022,NA,NA,369,"SUITE 200 18081 BURT STREET, OMAHA, NE, 68022","No_Match",NA,NA,NA,NA
363370,"SUITE 200","SAINT PAUL","MN",55130,NA,NA,370,"SUITE 200, SAINT PAUL, MN, 55130","No_Match",NA,NA,NA,NA
363371,"SUITE 201 1555 OXFORD ST","BERKELEY","CA",94709,37.879501842,-122.266955404,371,"SUITE 201 1555 OXFORD ST, BERKELEY, CA, 94709","Match","Exact","1555 OXFORD ST, BERKELEY, CA, 94709",124993894,"L"
363372,"SUITE 202","BARTLESVILLE","OK",74006,NA,NA,372,"SUITE 202, BARTLESVILLE, OK, 74006","No_Match",NA,NA,NA,NA
363373,"SUITE 205","LOUISVILLE","KY",40222,NA,NA,373,"SUITE 205, LOUISVILLE, KY, 40222","No_Match",NA,NA,NA,NA
363374,"SUITE 215 PO BOX 6001","SALINAS","PR",751,NA,NA,374,"SUITE 215 PO BOX 6001, SALINAS, PR, 751","No_Match",NA,NA,NA,NA
363375,"SUITE 240 1230 O STREET","LINCOLN","NE",68508,40.813659408,-96.703548793,375,"SUITE 240 1230 O STREET, LINCOLN, NE, 68508","Match","Exact","1230 O ST, LINCOLN, NE, 68508",28253242,"L"
363376,"SUITE 250-200  821 DAWSONVILLE HWY","GAINESVILLE","GA",30501,34.2952323530001,-83.85123706,376,"SUITE 250-200  821 DAWSONVILLE HWY, GAINESVILLE, GA, 30501","Match","Exact","821 DAWSONVILLE HWY, GAINESVILLE, GA, 30501",645966065,"L"
363377,"SUITE 2500 1600 MARKET","PHILADELPHIA","PA",19103,39.9527906710001,-75.1669832699999,377,"SUITE 2500 1600 MARKET, PHILADELPHIA, PA, 19103","Match","Non_Exact","1600 MARKET ST, PHILADELPHIA, PA, 19103",131407493,"L"
363378,"SUITE 300","COSTA MESA","CA",92627,NA,NA,378,"SUITE 300, COSTA MESA, CA, 92627","No_Match",NA,NA,NA,NA
363379,"SUITE 35024","ST PETERSBURG","FL",33705,NA,NA,379,"SUITE 35024, ST PETERSBURG, FL, 33705","No_Match",NA,NA,NA,NA
363380,"SUITE 400 301 CARNEGIE CENTER","PRINCETON","NJ",8543,NA,NA,380,"SUITE 400 301 CARNEGIE CENTER, PRINCETON, NJ, 8543","No_Match",NA,NA,NA,NA
363381,"SUITE 408","ANCHORAGE","AK",99503,NA,NA,381,"SUITE 408, ANCHORAGE, AK, 99503","No_Match",NA,NA,NA,NA
363382,"SUITE 410 - 330 2ND AVENUE SOUTH","MINNEAPOLIS","MN",55401,NA,NA,382,"SUITE 410 - 330 2ND AVENUE SOUTH, MINNEAPOLIS, MN, 55401","Tie",NA,NA,NA,NA
363383,"SUITE 600 647","CHEVY CHASE","MD",20815,NA,NA,383,"SUITE 600 647, CHEVY CHASE, MD, 20815","No_Match",NA,NA,NA,NA
363384,"SUITE 8","BLOOMFIELD","NJ",7003,NA,NA,384,"SUITE 8, BLOOMFIELD, NJ, 7003","No_Match",NA,NA,NA,NA
363385,"SUITE 931","ATLANTA","GA",30324,NA,NA,385,"SUITE 931, ATLANTA, GA, 30324","No_Match",NA,NA,NA,NA
363386,"SUITE 950 919 NORTH MARKET STREET","WLMINGTON","DE",19801,39.744883015,-75.548268407,386,"SUITE 950 919 NORTH MARKET STREET, WLMINGTON, DE, 19801","Match","Non_Exact","919 N MARKET ST, WILMINGTON, DE, 19801",187257882,"L"
363387,"SUITE A 151 5TH AVENUE","NEW YORK","NY",10001,40.7403688740001,-73.990431771,387,"SUITE A 151 5TH AVENUE, NEW YORK, NY, 10001","Match","Non_Exact","151 5TH AVE, NEW YORK, NY, 10010",59653515,"R"
363388,"SUITE A","LAKE CHARELS","LA",70607,NA,NA,388,"SUITE A, LAKE CHARELS, LA, 70607","No_Match",NA,NA,NA,NA
363389,"SUITE C - 23039 VENTURA BLVD","WOODLAND HILLS","CA",91364,34.1647335430001,-118.627183969,389,"SUITE C - 23039 VENTURA BLVD, WOODLAND HILLS, CA, 91364","Match","Exact","23039 VENTURA BLVD, WOODLAND HILLS, CA, 91364",642861643,"R"
363390,"SUITE CU3 162 4TH AVENUE N","NASHVILLE","TN",37219,36.1631201430001,-86.7785812879999,390,"SUITE CU3 162 4TH AVENUE N, NASHVILLE, TN, 37219","Match","Exact","162 4TH AVE N, NASHVILLE, TN, 37219",606818175,"R"
363391,"SUMMERFIELD DRIVE","ARCANUM","OH",45304,NA,NA,391,"SUMMERFIELD DRIVE, ARCANUM, OH, 45304","No_Match",NA,NA,NA,NA
363392,"SUNNYSIDE AVENUE","HEMPSTEAD","NY",11550,NA,NA,392,"SUNNYSIDE AVENUE, HEMPSTEAD, NY, 11550","No_Match",NA,NA,NA,NA
363393,"SUNY POTSDAM 44 PIERREPONT AVE","POTSDAM","NY",13676,44.6623231670001,-74.977545307,393,"SUNY POTSDAM 44 PIERREPONT AVE, POTSDAM, NY, 13676","Match","Exact","44 PIERREPONT AVE, POTSDAM, NY, 13676",155160292,"R"
363394,"SUPRIYA MUKHAPADHYAY","NAPERVILLE","IL",60564,NA,NA,394,"SUPRIYA MUKHAPADHYAY, NAPERVILLE, IL, 60564","No_Match",NA,NA,NA,NA
363395,"SURG CO B 3D MEDICAL BN BOX 63038","KANEOHE BAY","HI",96863,NA,NA,395,"SURG CO B 3D MEDICAL BN BOX 63038, KANEOHE BAY, HI, 96863","No_Match",NA,NA,NA,NA
363396,"SUSAN GOLDFARB 250 K ST NE APT 111","WAHINGTON","DC",20002,NA,NA,396,"SUSAN GOLDFARB 250 K ST NE APT 111, WAHINGTON, DC, 20002","No_Match",NA,NA,NA,NA
363397,"SW 63RD AVENUE","ARCHER","FL",32618,NA,NA,397,"SW 63RD AVENUE, ARCHER, FL, 32618","No_Match",NA,NA,NA,NA
363398,"SW SIUSLAW LN","TUALATIN","OR",97062,NA,NA,398,"SW SIUSLAW LN, TUALATIN, OR, 97062","No_Match",NA,NA,NA,NA
363399,"SWEET DREAMERS INC","STOCKTON","CA",95204,NA,NA,399,"SWEET DREAMERS INC, STOCKTON, CA, 95204","No_Match",NA,NA,NA,NA
363400,"SWSS  210 PARK AVE 2ND FLOOR","FLORHAM PARK","NJ",7932,NA,NA,400,"SWSS  210 PARK AVE 2ND FLOOR, FLORHAM PARK, NJ, 7932","No_Match",NA,NA,NA,NA
363401,"SYMPHONY ISLES BLVD","APOLLO BEACH","FL",33572,NA,NA,401,"SYMPHONY ISLES BLVD, APOLLO BEACH, FL, 33572","No_Match",NA,NA,NA,NA
363402,"TACONIC INNOVATIONS  FOUNDATION INC","WAPPINGERS FALLS","NY",12590,NA,NA,402,"TACONIC INNOVATIONS  FOUNDATION INC, WAPPINGERS FALLS, NY, 12590","No_Match",NA,NA,NA,NA
363403,"TAMU 4221","COLLEGE STATION","TX",77843,NA,NA,403,"TAMU 4221, COLLEGE STATION, TX, 77843","No_Match",NA,NA,NA,NA
363404,"TAMU MS 3257","COLLEGE STATION","TX",77843,NA,NA,404,"TAMU MS 3257, COLLEGE STATION, TX, 77843","No_Match",NA,NA,NA,NA
363405,"TARRYWILE MANSION 70 SOUTHERN BLVD","DANBURY","CT",6810,41.380372621,-73.4512110749999,405,"TARRYWILE MANSION 70 SOUTHERN BLVD, DANBURY, CT, 6810","Match","Exact","70 SOUTHERN BLVD, DANBURY, CT, 06810",3232020,"L"
363406,"TEC CENTER 714 EAST MONUMENT AVENUE","DAYTON","OH",45402,39.7656704830001,-84.1809399539999,406,"TEC CENTER 714 EAST MONUMENT AVENUE, DAYTON, OH, 45402","Match","Exact","714 E MONUMENT AVE, DAYTON, OH, 45402",143571697,"R"
363407,"TENZER AND LUNIN 32 EAST 57TH ST","NEW YORK","NY",10022,40.7622300240001,-73.9722325229999,407,"TENZER AND LUNIN 32 EAST 57TH ST, NEW YORK, NY, 10022","Match","Exact","32 E 57TH ST, NEW YORK, NY, 10022",59657204,"R"
363408,"TERESE WATSON","COUNTRY CLUB HILLS","IL",60478,NA,NA,408,"TERESE WATSON, COUNTRY CLUB HILLS, IL, 60478","No_Match",NA,NA,NA,NA
363409,"TERRAZAS DE TINTILLO CALLE 1 NUM 8","GUAYNABO","PR",966,NA,NA,409,"TERRAZAS DE TINTILLO CALLE 1 NUM 8, GUAYNABO, PR, 966","Tie",NA,NA,NA,NA
363410,"TF COUNTY FAIRGROUNDS 215 FAIR AVE","FILER","ID",83328,42.570436563,-114.604173597,410,"TF COUNTY FAIRGROUNDS 215 FAIR AVE, FILER, ID, 83328","Match","Exact","215 FAIR AVE, FILER, ID, 83328",118788711,"R"
363411,"THE 329 BUILDING SUITE 218","UNIVERSITY PARK","PA",16802,NA,NA,411,"THE 329 BUILDING SUITE 218, UNIVERSITY PARK, PA, 16802","No_Match",NA,NA,NA,NA
363412,"THE UPS STORE 1919 PMB 198","MARTINEZ","GA",30907,NA,NA,412,"THE UPS STORE 1919 PMB 198, MARTINEZ, GA, 30907","No_Match",NA,NA,NA,NA
363413,"THE UPTOWN 500 WILLIAM ST STE 133A","OAKLAND","CA",94612,NA,NA,413,"THE UPTOWN 500 WILLIAM ST STE 133A, OAKLAND, CA, 94612","No_Match",NA,NA,NA,NA
363414,"THIRD AV AND MARKET ST","ELIZABETH","PA",15037,40.2725543240001,-79.886303345,414,"THIRD AV AND MARKET ST, ELIZABETH, PA, 15037","Match","Non_Exact","S 3RD AVE & MARKET ST, ELIZABETH, PA, 15037",NA,NA
363415,"THOMAS BOYLAND STREET SUITE 301","BROOKLYN","NC",11212,NA,NA,415,"THOMAS BOYLAND STREET SUITE 301, BROOKLYN, NC, 11212","No_Match",NA,NA,NA,NA
363416,"THOMAS E TYLER 1525 LOCUST STREET","PHILADELPHIA","PA",19102,39.9485192020001,-75.167001509,416,"THOMAS E TYLER 1525 LOCUST STREET, PHILADELPHIA, PA, 19102","Match","Exact","1525 LOCUST ST, PHILADELPHIA, PA, 19102",650127890,"R"
363417,"THREE BESSOM STREET NO 154","MARBLEHEAD","MA",1945,NA,NA,417,"THREE BESSOM STREET NO 154, MARBLEHEAD, MA, 1945","No_Match",NA,NA,NA,NA
363418,"THUNDER RIVER CIRCLE 5020","LAS VEGAS","NV",89148,NA,NA,418,"THUNDER RIVER CIRCLE 5020, LAS VEGAS, NV, 89148","No_Match",NA,NA,NA,NA
363419,"TIERRAS  NUEVAS CALLE CAOBA 15","MANATI","PR",674,NA,NA,419,"TIERRAS  NUEVAS CALLE CAOBA 15, MANATI, PR, 674","No_Match",NA,NA,NA,NA
363420,"TIFFANY BATTLE-7980 CLAYTON ROAD","ST. LOUIS","MO",63117,NA,NA,420,"TIFFANY BATTLE-7980 CLAYTON ROAD, ST. LOUIS, MO, 63117","No_Match",NA,NA,NA,NA
363421,"TIGERLABS 252 NASSAU STREET","PRINCETON","NJ",8542,NA,NA,421,"TIGERLABS 252 NASSAU STREET, PRINCETON, NJ, 8542","No_Match",NA,NA,NA,NA
363422,"TNA-3    PO BOX 11564","FORT WORTH","TX",76110,NA,NA,422,"TNA-3    PO BOX 11564, FORT WORTH, TX, 76110","No_Match",NA,NA,NA,NA
363423,"TOGETHER LOANS INC 625 7TH AVE NE","HICKORY","NC",28601,35.7387420100001,-81.327776339,423,"TOGETHER LOANS INC 625 7TH AVE NE, HICKORY, NC, 28601","Match","Exact","625 7TH AVE NE, HICKORY, NC, 28601",45904691,"L"
363424,"TORCH BLVD BLDG 300","CANNON AFB","NM",88103,NA,NA,424,"TORCH BLVD BLDG 300, CANNON AFB, NM, 88103","No_Match",NA,NA,NA,NA
363425,"TORRIMAR TOLEDO 12-1","GUAYNABO","PR",966,NA,NA,425,"TORRIMAR TOLEDO 12-1, GUAYNABO, PR, 966","No_Match",NA,NA,NA,NA
363426,"TOWN HALL 120 EAST MAIN STREET","LIGONIER","PA",15658,40.242391205,-79.236761035,426,"TOWN HALL 120 EAST MAIN STREET, LIGONIER, PA, 15658","Match","Exact","120 E MAIN ST, LIGONIER, PA, 15658",52955277,"R"
363427,"TOWNLINE ROAD","CLIFTON SPRINGS","NY",14432,NA,NA,427,"TOWNLINE ROAD, CLIFTON SPRINGS, NY, 14432","No_Match",NA,NA,NA,NA
363428,"TRACEY MARCHESONI","ROWLETT","TX",75088,NA,NA,428,"TRACEY MARCHESONI, ROWLETT, TX, 75088","No_Match",NA,NA,NA,NA
363429,"TRANSITION WITH A PURPOSE INC","MIDLAND","TX",79705,NA,NA,429,"TRANSITION WITH A PURPOSE INC, MIDLAND, TX, 79705","No_Match",NA,NA,NA,NA
363430,"TTU MS 42101 703 FLINT AVENUE","LUBBOCK","TX",79409,NA,NA,430,"TTU MS 42101 703 FLINT AVENUE, LUBBOCK, TX, 79409","No_Match",NA,NA,NA,NA
363431,"TUCKER HIGH SCHOOL 5036 LAVISTA RD","TUCKER","GA",30084,33.8553905270001,-84.2157302369999,431,"TUCKER HIGH SCHOOL 5036 LAVISTA RD, TUCKER, GA, 30084","Match","Exact","5036 LAVISTA RD, TUCKER, GA, 30084",23363568,"L"
363432,"TWELVE CARTER TERRACE","SOMERVILLE","MA",2143,NA,NA,432,"TWELVE CARTER TERRACE, SOMERVILLE, MA, 2143","No_Match",NA,NA,NA,NA
363433,"TWO ATLANTIC AVENUE 4TH FLOOR","BOSTON","MA",2110,NA,NA,433,"TWO ATLANTIC AVENUE 4TH FLOOR, BOSTON, MA, 2110","No_Match",NA,NA,NA,NA
363434,"TWO CITY PLAZA STE 202","WEST PALM BEACH","FL",33401,NA,NA,434,"TWO CITY PLAZA STE 202, WEST PALM BEACH, FL, 33401","No_Match",NA,NA,NA,NA
363435,"TWO GREENWICH OFFICE PARK 3RD FLOOR","GREENWICH","CT",6831,NA,NA,435,"TWO GREENWICH OFFICE PARK 3RD FLOOR, GREENWICH, CT, 6831","No_Match",NA,NA,NA,NA
363436,"TWO INTERNATIONAL PLACE","BOSTON","MA",2110,NA,NA,436,"TWO INTERNATIONAL PLACE, BOSTON, MA, 2110","No_Match",NA,NA,NA,NA
363437,"TWO NORTH NINTH STREET","NOBLESVILLE","IN",46060,NA,NA,437,"TWO NORTH NINTH STREET, NOBLESVILLE, IN, 46060","No_Match",NA,NA,NA,NA
363438,"TWO ROUTE 3","PALERMO","ME",4354,NA,NA,438,"TWO ROUTE 3, PALERMO, ME, 4354","No_Match",NA,NA,NA,NA
363439,"UCB 133","BOULER","CO",80309,NA,NA,439,"UCB 133, BOULER, CO, 80309","No_Match",NA,NA,NA,NA
363440,"UCLA 405 HILGARD AVE GSE-IS - 2018","LOS ANGELES","CA",90095,NA,NA,440,"UCLA 405 HILGARD AVE GSE-IS - 2018, LOS ANGELES, CA, 90095","No_Match",NA,NA,NA,NA
363441,"UHH INNOVATION CENTER 117 KEAWE ST","HILO","HI",96720,19.7253517880001,-155.087597571,441,"UHH INNOVATION CENTER 117 KEAWE ST, HILO, HI, 96720","Match","Exact","117 KEAWE ST, HILO, HI, 96720",203001867,"R"
363442,"UMASS MED SCHOOL-303 BELMONT ST","WORCESTER","MA",1604,NA,NA,442,"UMASS MED SCHOOL-303 BELMONT ST, WORCESTER, MA, 1604","No_Match",NA,NA,NA,NA
363443,"UMD HEALTH CENTER 3983 CAMPUS DR","COLLEGE PARK","MD",20742,38.987313009,-76.9457124959999,443,"UMD HEALTH CENTER 3983 CAMPUS DR, COLLEGE PARK, MD, 20742","Match","Exact","3983 CAMPUS DR, COLLEGE PARK, MD, 20742",76331446,"L"
363444,"UNC 10 WATAUGA CLUB DR BOX 7009","RALEIGH","NC",27695,NA,NA,444,"UNC 10 WATAUGA CLUB DR BOX 7009, RALEIGH, NC, 27695","No_Match",NA,NA,NA,NA
363445,"UNCG - 1408 WALKER AVENUE","GREENSBORO","NC",27402,NA,NA,445,"UNCG - 1408 WALKER AVENUE, GREENSBORO, NC, 27402","No_Match",NA,NA,NA,NA
363446,"UNCW EVS - 601 SOUTH COLLEGE ROAD","WILMINGTON","NC",28403,34.227022876,-77.879333147,446,"UNCW EVS - 601 SOUTH COLLEGE ROAD, WILMINGTON, NC, 28403","Match","Exact","601 S COLLEGE RD, WILMINGTON, NC, 28403",152767865,"L"
363447,"UNG DEPT HISTORY 82 COLLEGE CIRCLE","DAHLONEGA","GA",30597,34.530734995,-83.986285623,447,"UNG DEPT HISTORY 82 COLLEGE CIRCLE, DAHLONEGA, GA, 30597","Match","Non_Exact","82 COLLEGE CIR, DAHLONEGA, GA, 30533",101114681,"R"
363448,"UNIT 100317 BOX 1","FPO","AE",9591,NA,NA,448,"UNIT 100317 BOX 1, FPO, AE, 9591","No_Match",NA,NA,NA,NA
363449,"UNIT 100523 BOX 1","FPO","AE",9595,NA,NA,449,"UNIT 100523 BOX 1, FPO, AE, 9595","No_Match",NA,NA,NA,NA
363450,"UNIT 104","TUKWILA","WA",98188,NA,NA,450,"UNIT 104, TUKWILA, WA, 98188","No_Match",NA,NA,NA,NA
363451,"UNIT 15236","APO","AP",96205,NA,NA,451,"UNIT 15236, APO, AP, 96205","No_Match",NA,NA,NA,NA
363452,"UNIT 17001 BOX 103","APO","AP",96555,NA,NA,452,"UNIT 17001 BOX 103, APO, AP, 96555","No_Match",NA,NA,NA,NA
363453,"UNIT 17002 BOX 8002","APO","AP",96557,NA,NA,453,"UNIT 17002 BOX 8002, APO, AP, 96557","No_Match",NA,NA,NA,NA
363454,"UNIT 1A","SAN DIEGO","CA",92117,NA,NA,454,"UNIT 1A, SAN DIEGO, CA, 92117","No_Match",NA,NA,NA,NA
363455,"UNIT 21606","APO","AE",9703,NA,NA,455,"UNIT 21606, APO, AE, 9703","No_Match",NA,NA,NA,NA
363456,"UNIT 28044 BOX 7007R","APO","AE",9112,NA,NA,456,"UNIT 28044 BOX 7007R, APO, AE, 9112","No_Match",NA,NA,NA,NA
363457,"UNIT 35023 MCB CAMP SD BUTLER","FPO","CA",96373,NA,NA,457,"UNIT 35023 MCB CAMP SD BUTLER, FPO, CA, 96373","No_Match",NA,NA,NA,NA
363458,"UNIT 5170","APO","AE",9464,NA,NA,458,"UNIT 5170, APO, AE, 9464","No_Match",NA,NA,NA,NA
363459,"UNIT 5198 BOX 10","APO","AP",96368,NA,NA,459,"UNIT 5198 BOX 10, APO, AP, 96368","No_Match",NA,NA,NA,NA
363460,"UNIT 5198 BOX 10","APO","AP",96378,NA,NA,460,"UNIT 5198 BOX 10, APO, AP, 96378","No_Match",NA,NA,NA,NA
363461,"UNIT 5623","APO","AE",9470,NA,NA,461,"UNIT 5623, APO, AE, 9470","No_Match",NA,NA,NA,NA
363462,"UNIT I5-1 PMB 558","AIEA","HI",96701,NA,NA,462,"UNIT I5-1 PMB 558, AIEA, HI, 96701","No_Match",NA,NA,NA,NA
363463,"UNIV AT BUFFALO - 534 BALDY HALL","BUFFALO","NY",14260,NA,NA,463,"UNIV AT BUFFALO - 534 BALDY HALL, BUFFALO, NY, 14260","No_Match",NA,NA,NA,NA
363464,"UNIVERSITY CENTER SOC BOX 15","MOUNT PLEASANT","MI",48859,NA,NA,464,"UNIVERSITY CENTER SOC BOX 15, MOUNT PLEASANT, MI, 48859","No_Match",NA,NA,NA,NA
363465,"UNIVERSITY GARDEN CALLE SAUCE E44","ARECIBO","PR",612,NA,NA,465,"UNIVERSITY GARDEN CALLE SAUCE E44, ARECIBO, PR, 612","No_Match",NA,NA,NA,NA
363466,"UNIVERSITY OF CALIFORNIA IRVINE","IRVINE","CA",92697,NA,NA,466,"UNIVERSITY OF CALIFORNIA IRVINE, IRVINE, CA, 92697","No_Match",NA,NA,NA,NA
363467,"UNIVERSITY OF MONTANA FINE ARTS","MISSOULA","MT",59812,NA,NA,467,"UNIVERSITY OF MONTANA FINE ARTS, MISSOULA, MT, 59812","No_Match",NA,NA,NA,NA
363468,"UNIVERSITY OF TEXAS AT AUSTIN","AUSTIN","TX",78712,NA,NA,468,"UNIVERSITY OF TEXAS AT AUSTIN, AUSTIN, TX, 78712","No_Match",NA,NA,NA,NA
363469,"UPR-U CARR 123KM 522 SALTO ARRIBA","UTUADO","PR",641,NA,NA,469,"UPR-U CARR 123KM 522 SALTO ARRIBA, UTUADO, PR, 641","No_Match",NA,NA,NA,NA
363470,"URB  QUINTAS DE CUPEY  A11 CALLE 14","SAN JUAN","PR",926,18.3642034810001,-66.069511932,470,"URB  QUINTAS DE CUPEY  A11 CALLE 14, SAN JUAN, PR, 926","Match","Exact","A11 CLL 14, SAN JUAN, PR, 00926",206641349,"L"
363471,"URB 105 CALLE D","AGUADILLA","PR",603,NA,NA,471,"URB 105 CALLE D, AGUADILLA, PR, 603","No_Match",NA,NA,NA,NA
363472,"URB ANA MARIA CALLE 4 F-3","CABO ROJO","PR",623,NA,NA,472,"URB ANA MARIA CALLE 4 F-3, CABO ROJO, PR, 623","No_Match",NA,NA,NA,NA
363473,"URB BAIROA C/ 30 AP7","CAGUAS","PR",725,NA,NA,473,"URB BAIROA C/ 30 AP7, CAGUAS, PR, 725","No_Match",NA,NA,NA,NA
363474,"URB BALDRICH 204 PRESIDENTE RAMIREZ","SAN JUAN","PR",918,NA,NA,474,"URB BALDRICH 204 PRESIDENTE RAMIREZ, SAN JUAN, PR, 918","No_Match",NA,NA,NA,NA
363475,"URB BALDRICH 210 PRESIDENTE RAMIREZ","SAN JUAN","PR",918,NA,NA,475,"URB BALDRICH 210 PRESIDENTE RAMIREZ, SAN JUAN, PR, 918","No_Match",NA,NA,NA,NA
363476,"URB BAY VIEW 120 OCEAN DRIVE","CATANO","PR",962,NA,NA,476,"URB BAY VIEW 120 OCEAN DRIVE, CATANO, PR, 962","No_Match",NA,NA,NA,NA
363477,"URB BUNKER CALLE PANAMA 1","CAGUAS","PR",725,NA,NA,477,"URB BUNKER CALLE PANAMA 1, CAGUAS, PR, 725","No_Match",NA,NA,NA,NA
363478,"URB CAMINO REAL BUZON 30","CAGUAS","PR",727,NA,NA,478,"URB CAMINO REAL BUZON 30, CAGUAS, PR, 727","No_Match",NA,NA,NA,NA
363479,"URB CORCHADO  VIOLETA  4 ST","ISABELA","PR",662,NA,NA,479,"URB CORCHADO  VIOLETA  4 ST, ISABELA, PR, 662","No_Match",NA,NA,NA,NA
363480,"URB COSTA BRAVA M-295 FINCHE ST","ISABELA","PR",662,NA,NA,480,"URB COSTA BRAVA M-295 FINCHE ST, ISABELA, PR, 662","No_Match",NA,NA,NA,NA
363481,"URB DORADO DEL MAR PP6 ROSA VIENTOS","DORADO","PR",646,NA,NA,481,"URB DORADO DEL MAR PP6 ROSA VIENTOS, DORADO, PR, 646","No_Match",NA,NA,NA,NA
363482,"URB DOS PINOS 804 C LOPEZ SICARDO","SAN JUAN","PR",923,NA,NA,482,"URB DOS PINOS 804 C LOPEZ SICARDO, SAN JUAN, PR, 923","No_Match",NA,NA,NA,NA
363483,"URB FOREST VIEW D103 CALLE BATAVIA","BAYAMON","PR",956,NA,NA,483,"URB FOREST VIEW D103 CALLE BATAVIA, BAYAMON, PR, 956","No_Match",NA,NA,NA,NA
363484,"URB HACIENDAS DE MIRAMAR CAL COR 5","CABO ROJO","PR",623,NA,NA,484,"URB HACIENDAS DE MIRAMAR CAL COR 5, CABO ROJO, PR, 623","No_Match",NA,NA,NA,NA
363485,"URB HERMANAS DAVILAS 130 CALLE F","BAYAMON","PR",959,18.3920319710001,-66.166175134,485,"URB HERMANAS DAVILAS 130 CALLE F, BAYAMON, PR, 959","Match","Non_Exact","130 CLL F, BAYAMON, PR, 00959",206017395,"L"
363486,"URB JAIME L DREW CALLE 5 NUMERO 129","PONCE","PR",730,NA,NA,486,"URB JAIME L DREW CALLE 5 NUMERO 129, PONCE, PR, 730","No_Match",NA,NA,NA,NA
363487,"URB LA MARGARITA D2 CALLE C","SALINAS","PR",751,NA,NA,487,"URB LA MARGARITA D2 CALLE C, SALINAS, PR, 751","Tie",NA,NA,NA,NA
363488,"URB LA SERRANIA AZUCENA 233","CAGUAS","PR",725,NA,NA,488,"URB LA SERRANIA AZUCENA 233, CAGUAS, PR, 725","No_Match",NA,NA,NA,NA
363489,"URB LEVITTOWN 1223 PASEO DONCELLA","TOA BAJA","PR",949,18.4502396990001,-66.178540458,489,"URB LEVITTOWN 1223 PASEO DONCELLA, TOA BAJA, PR, 949","Match","Non_Exact","1223 PSO DONCELLA, TOA BAJA, PR, 00949",206114609,"L"
363490,"URB LEVITTOWN 1557 PASEO DELTA","TOA BAJA","PR",949,18.4517620300001,-66.182951625,490,"URB LEVITTOWN 1557 PASEO DELTA, TOA BAJA, PR, 949","Match","Non_Exact","1557 PSO DELTA, TOA BAJA, PR, 00949",206119321,"R"
363491,"URB LOS PRADOS 249 EL VALLE","CAGUAS","PR",727,NA,NA,491,"URB LOS PRADOS 249 EL VALLE, CAGUAS, PR, 727","No_Match",NA,NA,NA,NA
363492,"URB LOS PRADOS A/3","CAYEY","PR",736,NA,NA,492,"URB LOS PRADOS A/3, CAYEY, PR, 736","No_Match",NA,NA,NA,NA
363493,"URB METROPOLIS A18 CALLE 3","CAROLINA","PR",987,18.3704722470001,-65.983203752,493,"URB METROPOLIS A18 CALLE 3, CAROLINA, PR, 987","Match","Exact","A18 CLL 3, CAROLINA, PR, 00987",206233023,"L"
363494,"URB MIRADERO NUM 94","HUMACAO","PR",791,NA,NA,494,"URB MIRADERO NUM 94, HUMACAO, PR, 791","No_Match",NA,NA,NA,NA
363495,"URB MONTE BRISAS L 54 CALLE K","FAJARDO","PR",738,NA,NA,495,"URB MONTE BRISAS L 54 CALLE K, FAJARDO, PR, 738","No_Match",NA,NA,NA,NA
363496,"URB MONTE PRIMAVERA 3","CIDRA","PR",739,NA,NA,496,"URB MONTE PRIMAVERA 3, CIDRA, PR, 739","No_Match",NA,NA,NA,NA
363497,"URB MONTEHIEDRA 211 CALLE ZORZAL","SAN JUAN","PR",926,18.3383363290001,-66.0603515289999,497,"URB MONTEHIEDRA 211 CALLE ZORZAL, SAN JUAN, PR, 926","Match","Non_Exact","211 CLL ZORZAL, SAN JUAN, PR, 00926",652693212,"L"
363498,"URB PAGAN 10","CABO ROJO","PR",623,NA,NA,498,"URB PAGAN 10, CABO ROJO, PR, 623","No_Match",NA,NA,NA,NA
363499,"URB PEREZ MORRIS  CALLE NUEVA 656","SAN JUAN","PR",917,NA,NA,499,"URB PEREZ MORRIS  CALLE NUEVA 656, SAN JUAN, PR, 917","No_Match",NA,NA,NA,NA
363500,"URB PORTAL DE LOIZA CALLE 6 F-1","LOIZA","PR",772,NA,NA,500,"URB PORTAL DE LOIZA CALLE 6 F-1, LOIZA, PR, 772","No_Match",NA,NA,NA,NA
