"ID","Address","City","State","Zip","lat","long","id","input_address","match_indicator","match_type","matched_address","tiger_line_id","tiger_side"
1501,"10 MILL RIDGE ROAD","DANBURY","CT",6811,41.3888980940001,-73.480453973,1,"10 MILL RIDGE ROAD, DANBURY, CT, 6811","Match","Exact","10 MILL RIDGE RD, DANBURY, CT, 06811",3230499,"L"
1502,"10 MILL STREET","DUDLEY","MA",1570,42.0630003730001,-71.878100503,2,"10 MILL STREET, DUDLEY, MA, 1570","Match","Non_Exact","10 MILL ST, DUDLEY HILL, MA, 01570",40019866,"R"
1503,"10 MILLRACE CT","DEARBORN","MI",48126,42.324210889,-83.227024835,3,"10 MILLRACE CT, DEARBORN, MI, 48126","Match","Exact","10 MILLRACE CT, DEARBORN, MI, 48126",95728263,"R"
1504,"10 MILTON STREET","ST AUGUSTINE","FL",32084,29.911494421,-81.320715025,4,"10 MILTON STREET, ST AUGUSTINE, FL, 32084","Match","Exact","10 MILTON ST, SAINT AUGUSTINE, FL, 32084",636384227,"L"
1505,"10 MINNEKAHDA PLACE","CHATTANOOGA","TN",37405,35.0823801720001,-85.289259546,5,"10 MINNEKAHDA PLACE, CHATTANOOGA, TN, 37405","Match","Exact","10 MINNEKAHDA PL, CHATTANOOGA, TN, 37405",632156225,"R"
1506,"10 MOCKINGBIRD LANE","PINE BLUFF","AR",71603,34.1888952240001,-92.038735152,6,"10 MOCKINGBIRD LANE, PINE BLUFF, AR, 71603","Match","Exact","10 MOCKINGBIRD LN, PINE BLUFF, AR, 71603",2553409,"L"
1507,"10 MOHAWK CT","EVESHAM","NJ",8053,39.917745224,-74.866119769,7,"10 MOHAWK CT, EVESHAM, NJ, 8053","Match","Exact","10 MOHAWK CT, EVESHAM, NJ, 08053",617272182,"L"
1508,"10 MOHR ROAD","BURLINGTON TOWNSHIP","NJ",8016,40.0648363220001,-74.822285772,8,"10 MOHR ROAD, BURLINGTON TOWNSHIP, NJ, 8016","Match","Exact","10 MOHR RD, BURLINGTON TOWNSHIP, NJ, 08016",134067923,"R"
1509,"10 MONTCLAIR AVE","COATESVILLE","PA",19320,39.974689819,-75.818116968,9,"10 MONTCLAIR AVE, COATESVILLE, PA, 19320","Match","Exact","10 MONTCLAIR AVE, COATESVILLE, PA, 19320",642565877,"L"
1510,"10 MONTE AVE","PIEDMONT","CA",94611,37.8306031010001,-122.232909148,10,"10 MONTE AVE, PIEDMONT, CA, 94611","Match","Exact","10 MONTE AVE, PIEDMONT, CA, 94611",125001750,"L"
1511,"10 MONTERA AVE","FREDERICKSBURG","VA",22406,38.3354753410001,-77.518123571,11,"10 MONTERA AVE, FREDERICKSBURG, VA, 22406","Match","Exact","10 MONTERA AVE, FREDERICKSBURG, VA, 22406",632546286,"R"
1512,"10 MOONSTONE","IRVINE","CA",92602,33.731227818,-117.777552852,12,"10 MOONSTONE, IRVINE, CA, 92602","Match","Exact","10 MOONSTONE, IRVINE, CA, 92602",627013619,"R"
1513,"10 MORNINGSIDE DR","LIVINGSTON","NJ",7039,40.8068268530001,-74.334169141,13,"10 MORNINGSIDE DR, LIVINGSTON, NJ, 7039","Match","Exact","10 MORNINGSIDE DR, LIVINGSTON, NJ, 07039",63457132,"R"
1514,"10 MORTIMER DRIVE","OLD GREENWICH","CT",6870,41.027391768,-73.570089879,14,"10 MORTIMER DRIVE, OLD GREENWICH, CT, 6870","Match","Exact","10 MORTIMER DR, OLD GREENWICH, CT, 06870",3245124,"L"
1515,"10 MOUNTBATTEN CT APT 202","GWYNN OAK","MD",21207,39.3278482590001,-76.729582568,15,"10 MOUNTBATTEN CT APT 202, GWYNN OAK, MD, 21207","Match","Exact","10 MOUNTBATTEN CT, GWYNN OAK, MD, 21207",640448604,"R"
1516,"10 N 11TH ST","WYANDANCH","NY",11798,40.757741772,-73.3588288729999,16,"10 N 11TH ST, WYANDANCH, NY, 11798","Match","Exact","10 N 11TH ST, WYANDANCH, NY, 11798",113969236,"L"
1517,"10 N 28TH ST","LAS VEGAS","NV",89101,36.159764524,-115.111507355,17,"10 N 28TH ST, LAS VEGAS, NV, 89101","Match","Exact","10 N 28TH ST, LAS VEGAS, NV, 89101",652655263,"L"
1518,"10 N CALVERT STREET UNIT 524","BALIMORE","MD",21202,NA,NA,18,"10 N CALVERT STREET UNIT 524, BALIMORE, MD, 21202","Tie",NA,NA,NA,NA
1519,"10 N CALVERT STREET UNIT 524","BALTIMORE","MD",21202,39.2347909700001,-76.6108315879999,19,"10 N CALVERT STREET UNIT 524, BALTIMORE, MD, 21202","Match","Non_Exact","10 CALVERT ST, BALTIMORE, MD, 21225",206438158,"L"
1520,"10 N CALVERT STREET","BALTIMORE","MD",21202,39.2903525250001,-76.6124517599999,20,"10 N CALVERT STREET, BALTIMORE, MD, 21202","Match","Exact","10 N CALVERT ST, BALTIMORE, MD, 21202",206433486,"L"
1521,"10 N GALENA STE 210","FREEPORT","IL",61032,NA,NA,21,"10 N GALENA STE 210, FREEPORT, IL, 61032","No_Match",NA,NA,NA,NA
1522,"10 N GREENWOOD AVE APT S104","TULSA","OK",74120,NA,NA,22,"10 N GREENWOOD AVE APT S104, TULSA, OK, 74120","Tie",NA,NA,NA,NA
1523,"10 N GREENWOOD AVE S105","TULSA","OK",74120,NA,NA,23,"10 N GREENWOOD AVE S105, TULSA, OK, 74120","Tie",NA,NA,NA,NA
1524,"10 N HARVEYSBURG RD","HARVEYSBURG","OH",45032,NA,NA,24,"10 N HARVEYSBURG RD, HARVEYSBURG, OH, 45032","No_Match",NA,NA,NA,NA
1525,"10 N MISSISSIPPI AVE","ATLANTIC CITY","NJ",8401,39.358168176,-74.4398045029999,25,"10 N MISSISSIPPI AVE, ATLANTIC CITY, NJ, 8401","Match","Exact","10 N MISSISSIPPI AVE, ATLANTIC CITY, NJ, 08401",646918603,"L"
1526,"10 NATHALIE COURT","CORTLANDT MANOR","NY",10567,41.2746807950001,-73.852927775,26,"10 NATHALIE COURT, CORTLANDT MANOR, NY, 10567","Match","Exact","10 NATHALIE CT, CORTLANDT MANOR, NY, 10567",139725365,"R"
1527,"10 NE 141ST AVE","PORTLAND","OR",97230,45.5226193390001,-122.518363205,27,"10 NE 141ST AVE, PORTLAND, OR, 97230","Match","Exact","10 NE 141ST AVE, PORTLAND, OR, 97230",157556842,"R"
1528,"10 NE 20TH ST","CAPE CORAL","FL",33909,26.6897162430001,-81.970531915,28,"10 NE 20TH ST, CAPE CORAL, FL, 33909","Match","Exact","10 NE 20TH ST, CAPE CORAL, FL, 33909",118007058,"R"
1529,"10 NE 3RD STREET","FLORIDA CITY","FL",33034,25.450753466,-80.477047861,29,"10 NE 3RD STREET, FLORIDA CITY, FL, 33034","Match","Exact","10 NE 3RD ST, FLORIDA CITY, FL, 33034",116092589,"R"
1530,"10 NE 99TH BLVD","WILDWOOD","FL",34785,NA,NA,30,"10 NE 99TH BLVD, WILDWOOD, FL, 34785","No_Match",NA,NA,NA,NA
1531,"10 NECK ROAD","ROCHESTER","MA",2770,41.755875368,-70.845419454,31,"10 NECK ROAD, ROCHESTER, MA, 2770","Match","Exact","10 NECK RD, ROCHESTER, MA, 02770",87463669,"L"
1532,"10 NELSON LANE","REHOBOTH","MA",2769,41.8990483150001,-71.2172762929999,32,"10 NELSON LANE, REHOBOTH, MA, 2769","Match","Exact","10 NELSON LN, REHOBOTH, MA, 02769",46759042,"L"
1533,"10 NEW BEGIN AVENUE","LEWISTON","ME",4240,44.130097307,-70.1984719449999,33,"10 NEW BEGIN AVENUE, LEWISTON, ME, 4240","Match","Non_Exact","10 NEWBEGIN AVE, LEWISTON, ME, 04240",77961226,"L"
1534,"10 NEW BOND ST","WORCESTER","MA",1606,42.305717945,-71.8025322349999,34,"10 NEW BOND ST, WORCESTER, MA, 1606","Match","Exact","10 NEW BOND ST, WORCESTER, MA, 01606",40084437,"R"
1535,"10 NIXON STREET","CUMBERLAND","RI",2864,41.966866463,-71.4591056469999,35,"10 NIXON STREET, CUMBERLAND, RI, 2864","Match","Exact","10 NIXON ST, CUMBERLAND, RI, 02864",47452723,"R"
1536,"10 NOE ROAD","BLAIRSTOWN","NJ",7825,40.982373802,-74.9905611519999,36,"10 NOE ROAD, BLAIRSTOWN, NJ, 7825","Match","Exact","10 NOE RD, BLAIRSTOWN, NJ, 07825",98110530,"R"
1537,"10 NOEL COURT","AMAWALK","NY",10501,41.2955725,-73.767411532,37,"10 NOEL COURT, AMAWALK, NY, 10501","Match","Exact","10 NOEL CT, AMAWALK, NY, 10501",139728426,"L"
1538,"10 NORMANDY CT","HILLSBOROUGH","CA",94010,37.5582168020001,-122.334998458,38,"10 NORMANDY CT, HILLSBOROUGH, CA, 94010","Match","Exact","10 NORMANDY CT, HILLSBOROUGH, CA, 94010",192377611,"L"
1539,"10 NORMANDY ROAD","LARCHMONT","NY",10538,40.934852408,-73.7665109169999,39,"10 NORMANDY ROAD, LARCHMONT, NY, 10538","Match","Exact","10 NORMANDY RD, LARCHMONT, NY, 10538",139751765,"R"
1540,"10 NORTH 1ST AVENUE EAST SUITE 204","ELY","MN",55731,47.9024429300001,-91.865403728,40,"10 NORTH 1ST AVENUE EAST SUITE 204, ELY, MN, 55731","Match","Exact","10 N 1ST AVE E, ELY, MN, 55731",163157040,"L"
1541,"10 NORTH AVENUE","MENDON","MA",1756,42.109231208,-71.55487347,41,"10 NORTH AVENUE, MENDON, MA, 1756","Match","Exact","10 NORTH AVE, MENDON, MA, 01756",40068487,"R"
1542,"10 NORTH BRIDGES STREET","HAMLET","NC",28345,NA,NA,42,"10 NORTH BRIDGES STREET, HAMLET, NC, 28345","No_Match",NA,NA,NA,NA
1543,"10 NORTH COLLEGE STREET","HOMERVILLE","GA",31634,31.034888494,-82.75060783,43,"10 NORTH COLLEGE STREET, HOMERVILLE, GA, 31634","Match","Exact","10 N COLLEGE ST, HOMERVILLE, GA, 31634",5079287,"R"
1544,"10 NORTH DEARBORN SUITE 500","CHICAGO","IL",60602,41.8820891390001,-87.629408717,44,"10 NORTH DEARBORN SUITE 500, CHICAGO, IL, 60602","Match","Non_Exact","10 N DEARBORN ST, CHICAGO, IL, 60602",111768774,"L"
1545,"10 NORTH LUDLOW SUITE 1100","DAYTON","OH",45402,39.75945861,-84.1936390669999,45,"10 NORTH LUDLOW SUITE 1100, DAYTON, OH, 45402","Match","Non_Exact","10 N LUDLOW ST, DAYTON, OH, 45402",143571345,"R"
1546,"10 NORTH MAIN STREET","VERGENNES","VT",5491,44.170714608,-73.248899579,46,"10 NORTH MAIN STREET, VERGENNES, VT, 5491","Match","Exact","10 N MAIN ST, VERGENNES, VT, 05491",136443632,"L"
1547,"10 NORTH MARKET STREET UNIT 306","LANCASTER","PA",17603,40.0380730100001,-76.306746834,47,"10 NORTH MARKET STREET UNIT 306, LANCASTER, PA, 17603","Match","Exact","10 N MARKET ST, LANCASTER, PA, 17603",179664584,"L"
1548,"10 NORTH PINE AVENUE","ALBANY","NY",12203,42.667470409,-73.793218539,48,"10 NORTH PINE AVENUE, ALBANY, NY, 12203","Match","Exact","10 N PINE AVE, ALBANY, NY, 12203",18308709,"L"
1549,"10 NORTH ST","ASHEVILLE","NC",28801,35.6080547350001,-82.5625627909999,49,"10 NORTH ST, ASHEVILLE, NC, 28801","Match","Exact","10 NORTH ST, ASHEVILLE, NC, 28801",36844382,"R"
1550,"10 NORTH STREET","MIDDLETOWN","NY",10940,41.44529062,-74.419960439,50,"10 NORTH STREET, MIDDLETOWN, NY, 10940","Match","Exact","10 NORTH ST, MIDDLETOWN, NY, 10940",124389284,"L"
1551,"10 NORTHGATE DRIVE","HOWELL","NJ",7731,40.1628722190001,-74.2121213039999,51,"10 NORTHGATE DRIVE, HOWELL, NJ, 7731","Match","Exact","10 NORTHGATE DR, HOWELL, NJ, 07731",90450652,"R"
1552,"10 NORTHRIDGE LANE","SANDY","UT",84092,40.5511752740001,-111.810784599,52,"10 NORTHRIDGE LANE, SANDY, UT, 84092","Match","Exact","10 NORTHRIDGE LN, SANDY, UT, 84092",176096494,"R"
1553,"10 NORTHWOOD DRIVE","HAGERSTOWN","IN",47346,39.9176727930001,-85.1607370149999,53,"10 NORTHWOOD DRIVE, HAGERSTOWN, IN, 47346","Match","Exact","10 NORTHWOOD DR, HAGERSTOWN, IN, 47346",31334241,"R"
1554,"10 NOUVELLE WAY UNIT T623","NATICK","MA",1760,42.3037050730001,-71.383373644,54,"10 NOUVELLE WAY UNIT T623, NATICK, MA, 1760","Match","Exact","10 NOUVELLE WAY, NATICK, MA, 01760",87138234,"L"
1555,"10 NW 42 AVENUE SUITE 200","MIAMI","FL",33126,25.771813041,-80.263694442,55,"10 NW 42 AVENUE SUITE 200, MIAMI, FL, 33126","Match","Non_Exact","10 NW 42ND AVE, MIAMI, FL, 33126",116010413,"L"
1556,"10 NW MARSHALL STREET SUITE 300","PORTLAND","OR",97209,NA,NA,56,"10 NW MARSHALL STREET SUITE 300, PORTLAND, OR, 97209","No_Match",NA,NA,NA,NA
1557,"10 OAK BRANCH SUITE A","GREENSBORO","NC",27407,NA,NA,57,"10 OAK BRANCH SUITE A, GREENSBORO, NC, 27407","No_Match",NA,NA,NA,NA
1558,"10 OAK ST","ST AUGUSTINE","FL",32084,29.918765975,-81.319707592,58,"10 OAK ST, ST AUGUSTINE, FL, 32084","Match","Exact","10 OAK ST, SAINT AUGUSTINE, FL, 32084",92581465,"L"
1559,"10 OAK VALLEY DR","BOONVILLE","MO",65233,38.9634458260001,-92.734340241,59,"10 OAK VALLEY DR, BOONVILLE, MO, 65233","Match","Non_Exact","10 OAK VALLEY RD, BOONVILLE, MO, 65233",23693377,"L"
1560,"10 OAKRIDGE CIR","TEXARKANA","TX",75503,33.486388317,-94.070999998,60,"10 OAKRIDGE CIR, TEXARKANA, TX, 75503","Match","Exact","10 OAKRIDGE CIR, TEXARKANA, TX, 75503",57667479,"L"
1561,"10 OAKWOOD AVENUE","BLOOMFIELD","NJ",7003,NA,NA,61,"10 OAKWOOD AVENUE, BLOOMFIELD, NJ, 7003","No_Match",NA,NA,NA,NA
1562,"10 OAKWOOD CT","HOLMDEL","NJ",7733,40.385616134,-74.1953089629999,62,"10 OAKWOOD CT, HOLMDEL, NJ, 7733","Match","Exact","10 OAKWOOD CT, HOLMDEL, NJ, 07733",90499685,"R"
1563,"10 OCOTILLO STREET","SEDONA","AZ",86351,34.77848307,-111.756158138,63,"10 OCOTILLO STREET, SEDONA, AZ, 86351","Match","Exact","10 OCOTILLO ST, SEDONA, AZ, 86351",159475137,"L"
1564,"10 ODESSA DRIVE","GREAT MEADOWS","NJ",7838,40.859435621,-74.908195051,64,"10 ODESSA DRIVE, GREAT MEADOWS, NJ, 7838","Match","Exact","10 ODESSA DR, GREAT MEADOWS, NJ, 07838",98098992,"R"
1565,"10 OLD BREVARD RD","ASHEVILLE","NC",28806,NA,NA,65,"10 OLD BREVARD RD, ASHEVILLE, NC, 28806","Tie",NA,NA,NA,NA
1566,"10 OLD WOOD RD","POMONA","CA",91766,34.033840975,-117.775663847,66,"10 OLD WOOD RD, POMONA, CA, 91766","Match","Exact","10 OLD WOOD RD, POMONA, CA, 91766",634995175,"R"
1567,"10 ORLANDO COURT","BILLERICA","MA",1821,42.533619431,-71.216893138,67,"10 ORLANDO COURT, BILLERICA, MA, 1821","Match","Exact","10 ORLANDO CT, BILLERICA, MA, 01821",646619228,"R"
1568,"10 OTTER COURT","NORTH MANKATO","MN",56003,44.1776822300001,-94.0669850149999,68,"10 OTTER COURT, NORTH MANKATO, MN, 56003","Match","Exact","10 OTTER CT, NORTH MANKATO, MN, 56003",28698402,"R"
1569,"10 OVERLOOK DRIVE","BRIDGEWATER","NJ",8807,40.60175036,-74.608389264,69,"10 OVERLOOK DRIVE, BRIDGEWATER, NJ, 8807","Match","Exact","10 OVERLOOK DR, BRIDGEWATER, NJ, 08807",59937595,"R"
1570,"10 OVERLOOK TRAIL APT  10311","PEABODY","MA",1960,42.5224508050001,-70.9911449539999,70,"10 OVERLOOK TRAIL APT  10311, PEABODY, MA, 1960","Match","Exact","10 OVERLOOK TRL, PEABODY, MA, 01960",636000181,"R"
1571,"10 OWENS DRIVE","MONROE","NJ",8831,40.2884853200001,-74.465831817,71,"10 OWENS DRIVE, MONROE, NJ, 8831","Match","Exact","10 OWENS DR, MONROE, NJ, 08831",626847866,"L"
1572,"10 PAERDEGAT 12 STREET","BROOKLYN","NY",11236,40.6280209220001,-73.9039548439999,72,"10 PAERDEGAT 12 STREET, BROOKLYN, NY, 11236","Match","Exact","10 PAERDEGAT 12TH ST, BROOKLYN, NY, 11236",59086848,"R"
1573,"10 PALM DRIVE","CENTER CONWAY","NH",3813,44.0247159140001,-71.004740489,73,"10 PALM DRIVE, CENTER CONWAY, NH, 3813","Match","Exact","10 PALM DR, CENTER CONWAY, NH, 03813",145584019,"R"
1574,"10 PARISH ST","DORCHESTER","MA",2122,42.307984264,-71.0624426259999,74,"10 PARISH ST, DORCHESTER, MA, 2122","Match","Exact","10 PARISH ST, DORCHESTER, MA, 02122",85713180,"L"
1575,"10 PARKSIDE DRIVE","KINCHELOE","MI",49788,46.2684757960001,-84.460713841,75,"10 PARKSIDE DRIVE, KINCHELOE, MI, 49788","Match","Exact","10 PARKSIDE DR, KINCHELOE, MI, 49788",130568591,"L"
1576,"10 PEARL ROAD","EAST BRUNSWICK","NJ",8816,40.4257449250001,-74.371921511,76,"10 PEARL ROAD, EAST BRUNSWICK, NJ, 8816","Match","Exact","10 PEARL RD, E BRUNSWICK, NJ, 08816",60282147,"R"
1577,"10 PEARL ST","LONG BRANCH","NJ",7740,40.2993827660001,-74.0010584299999,77,"10 PEARL ST, LONG BRANCH, NJ, 7740","Match","Exact","10 PEARL ST, LONG BRANCH, NJ, 07740",90460457,"R"
1578,"10 PERRON ROAD BOX 203","HARTLAND","VT",5048,NA,NA,78,"10 PERRON ROAD BOX 203, HARTLAND, VT, 5048","No_Match",NA,NA,NA,NA
1579,"10 PERRY ROAD","BLOOMFILED","NJ",7003,40.8291957070001,-74.174480586,79,"10 PERRY ROAD, BLOOMFILED, NJ, 7003","Match","Non_Exact","10 PERRY RD, BLOOMFIELD, NJ, 07003",63452889,"R"
1580,"10 PHEASANT RUN ROAD","LAKEVILLE","MA",2347,41.8611513290001,-70.920381845,80,"10 PHEASANT RUN ROAD, LAKEVILLE, MA, 2347","Match","Exact","10 PHEASANT RUN RD, LAKEVILLE, MA, 02347",87466884,"R"
1581,"10 PHILBROOK TERRACE","HAMPTON","NH",3842,42.945891815,-70.8286961479999,81,"10 PHILBROOK TERRACE, HAMPTON, NH, 3842","Match","Exact","10 PHILBROOK TER, HAMPTON, NH, 03842",113690296,"L"
1582,"10 PICKENS LANE","WEAVERVILLE","NC",28787,35.7007985020001,-82.553446128,82,"10 PICKENS LANE, WEAVERVILLE, NC, 28787","Match","Exact","10 PICKENS LN, WEAVERVILLE, NC, 28787",36910095,"R"
1583,"10 PIER COURT","MILFORD","CT",6460,41.2332703160001,-72.997474446,83,"10 PIER COURT, MILFORD, CT, 6460","Match","Exact","10 PIER CT, MILFORD, CT, 06460",3741953,"L"
1584,"10 PIERRTEPONT STREET","BROOKLYN","NY",11201,NA,NA,84,"10 PIERRTEPONT STREET, BROOKLYN, NY, 11201","No_Match",NA,NA,NA,NA
1585,"10 PINE CONE LANE","SPARTA","NJ",7871,41.0245796030001,-74.635530831,85,"10 PINE CONE LANE, SPARTA, NJ, 7871","Match","Exact","10 PINE CONE LN, SPARTA, NJ, 07871",98032437,"L"
1586,"10 PINE LOOP","CEDAR CREST","NM",87008,35.1499547020001,-106.354305076,86,"10 PINE LOOP, CEDAR CREST, NM, 87008","Match","Exact","10 PINE LOOP, CEDAR CREST, NM, 87008",206724707,"R"
1587,"10 PINE TREE HILL ROAD","NEWTOWN","CT",6470,41.357656315,-73.2786650359999,87,"10 PINE TREE HILL ROAD, NEWTOWN, CT, 6470","Match","Exact","10 PINE TREE HILL RD, NEWTOWN, CT, 06470",3237126,"R"
1588,"10 PINEWOOD ROAD","WHITE PLAINS","NY",10605,40.9923879500001,-73.741230587,88,"10 PINEWOOD ROAD, WHITE PLAINS, NY, 10605","Match","Exact","10 PINEWOOD RD, WHITE PLAINS, NY, 10605",139754580,"L"
1589,"10 PREMIER COURT","NESCONSET","NY",11767,40.856223361,-73.145086185,89,"10 PREMIER COURT, NESCONSET, NY, 11767","Match","Exact","10 PREMIER CT, NESCONSET, NY, 11767",114273389,"L"
1590,"10 PRINCETON OVAL","FREEHOLD","NJ",7728,40.222833931,-74.3213218989999,90,"10 PRINCETON OVAL, FREEHOLD, NJ, 7728","Match","Exact","10 PRINCETON OVAL, FREEHOLD, NJ, 07728",642904686,"L"
1591,"10 QUAIL CREEK LN","PHILLIPS RANCH","CA",91766,34.0292431610001,-117.773842431,91,"10 QUAIL CREEK LN, PHILLIPS RANCH, CA, 91766","Match","Exact","10 QUAIL CREEK LN, PHILLIPS RANCH, CA, 91766",141730976,"L"
1592,"10 QUARRY HILL ROAD","WESTFORD","MA",1886,42.6401731510001,-71.4375891939999,92,"10 QUARRY HILL ROAD, WESTFORD, MA, 1886","Match","Exact","10 QUARRY HILL RD, WESTFORD, MA, 01886",87087544,"L"
1593,"10 QUARTZ WAY","SAN FRANCISCO","CA",94131,37.745631696,-122.445469502,93,"10 QUARTZ WAY, SAN FRANCISCO, CA, 94131","Match","Exact","10 QUARTZ WAY, SAN FRANCISCO, CA, 94131",192284557,"R"
1594,"10 QUEENS WAY","FRAMINGHAM","MA",1701,42.3212740290001,-71.396170684,94,"10 QUEENS WAY, FRAMINGHAM, MA, 1701","Match","Exact","10 QUEENS WAY, FRAMINGHAM, MA, 01701",86913707,"L"
1595,"10 QUINCY STREET","METHUEN","MA",1844,42.7245293350001,-71.155790037,95,"10 QUINCY STREET, METHUEN, MA, 1844","Match","Exact","10 QUINCY ST, METHUEN, MA, 01844",86627180,"L"
1596,"10 RAILROAD PLAZA - PO BOX 1075","SOUTH FALLSBURG","NY",12779,NA,NA,96,"10 RAILROAD PLAZA - PO BOX 1075, SOUTH FALLSBURG, NY, 12779","No_Match",NA,NA,NA,NA
1597,"10 RAMBLEWOOD DRIVE","SILVER CREEK","GA",30173,34.1696123930001,-85.157418794,97,"10 RAMBLEWOOD DRIVE, SILVER CREEK, GA, 30173","Match","Exact","10 RAMBLEWOOD DR, SILVER CREEK, GA, 30173",30696976,"L"
1598,"10 REIMER ROAD","SCARSDALE","NY",10583,41.001276708,-73.781819404,98,"10 REIMER ROAD, SCARSDALE, NY, 10583","Match","Exact","10 REIMER RD, SCARSDALE, NY, 10583",139740290,"R"
1599,"10 RHINE DR","KENNER","LA",70065,30.043279006,-90.26243428,99,"10 RHINE DR, KENNER, LA, 70065","Match","Exact","10 RHINE DR, KENNER, LA, 70065",93492459,"R"
1600,"10 RHODA COURT","HAMPTON","VA",23664,37.0532834970001,-76.2975731559999,100,"10 RHODA COURT, HAMPTON, VA, 23664","Match","Exact","10 RHODA CT, HAMPTON, VA, 23664",103798947,"R"
1601,"10 RICORD STREET STE 12","NEWARK","NJ",7106,NA,NA,101,"10 RICORD STREET STE 12, NEWARK, NJ, 7106","Tie",NA,NA,NA,NA
1602,"10 RIDGEVIEW CT","NEWNAN","GA",30263,33.4705080040001,-84.7928187429999,102,"10 RIDGEVIEW CT, NEWNAN, GA, 30263","Match","Exact","10 RIDGEVIEW CT, NEWNAN, GA, 30263",617841704,"L"
1603,"10 RIDGEVIEW DRIVE","PASCO","WA",99301,46.353527135,-119.255950057,103,"10 RIDGEVIEW DRIVE, PASCO, WA, 99301","Match","Exact","10 RIDGEVIEW DR, PASCO, WA, 99301",175247464,"R"
1604,"10 RIMANI DRIVE","MISSION VIEJO","CA",92692,33.5936967740001,-117.648874961,104,"10 RIMANI DRIVE, MISSION VIEJO, CA, 92692","Match","Exact","10 RIMANI DR, MISSION VIEJO, CA, 92692",144382647,"R"
1605,"10 RIVER EDGE DRIVE","COLTS NECK","NJ",7722,40.3075503680001,-74.143003382,105,"10 RIVER EDGE DRIVE, COLTS NECK, NJ, 7722","Match","Non_Exact","10 RIVERS EDGE DR, COLTS NECK, NJ, 07722",90505942,"R"
1606,"10 RIVER ROAD","JERICHO","VT",5465,44.5187529990001,-72.946930389,106,"10 RIVER ROAD, JERICHO, VT, 5465","Match","Exact","10 RIVER RD, JERICHO, VT, 05465",135824840,"R"
1607,"10 RIVERDALE AVENUE","ORMOND BEACH","FL",32174,29.254685368,-81.126640973,107,"10 RIVERDALE AVENUE, ORMOND BEACH, FL, 32174","Match","Exact","10 RIVERDALE AVE, ORMOND BEACH, FL, 32174",94597978,"R"
1608,"10 RIVERSIDE DR","CHARLESTON","SC",29403,32.8111005980001,-79.9597251229999,108,"10 RIVERSIDE DR, CHARLESTON, SC, 29403","Match","Exact","10 RIVERSIDE DR, CHARLESTON, SC, 29403",108805807,"R"
1609,"10 RIVERVIEW CRT","DUBOIS","WY",82513,43.517943616,-109.597384514,109,"10 RIVERVIEW CRT, DUBOIS, WY, 82513","Match","Exact","10 RIVERVIEW CT, DUBOIS, WY, 82513",148463821,"L"
1610,"10 ROATH ST APT 3","WORCHESTER","MA",1604,42.253423426,-71.77250263,110,"10 ROATH ST APT 3, WORCHESTER, MA, 1604","Match","Non_Exact","10 ROATH ST, WORCESTER, MA, 01604",40014453,"R"
1611,"10 ROBERT ST","WHARTON","NJ",7885,40.899284084,-74.5840211509999,111,"10 ROBERT ST, WHARTON, NJ, 7885","Match","Exact","10 ROBERT ST, WHARTON, NJ, 07885",60435437,"L"
1612,"10 ROBERTS COURT","MORAGA","CA",94556,37.828952288,-122.129093657,112,"10 ROBERTS COURT, MORAGA, CA, 94556","Match","Exact","10 ROBERTS CT, MORAGA, CA, 94556",192051758,"R"
1613,"10 ROBIN ROAD","SIMSBURY","CT",6070,41.894677598,-72.8196793179999,113,"10 ROBIN ROAD, SIMSBURY, CT, 6070","Match","Exact","10 ROBIN RD, SIMSBURY, CT, 06070",3532467,"L"
1614,"10 ROBIN STREET","PAWCATUCK","CT",6379,41.3625524180001,-71.868448754,114,"10 ROBIN STREET, PAWCATUCK, CT, 6379","Match","Exact","10 ROBIN ST, PAWCATUCK, CT, 06379",56831656,"L"
1615,"10 ROCKVIEW ROAD","HULL","MA",2045,42.2652104640001,-70.853579912,115,"10 ROCKVIEW ROAD, HULL, MA, 2045","Match","Exact","10 ROCKVIEW RD, HULL, MA, 02045",87432066,"R"
1616,"10 RODWELL AVE","IRVINGTON","NJ",7111,40.740866634,-74.2127244719999,116,"10 RODWELL AVE, IRVINGTON, NJ, 7111","Match","Exact","10 RODWELL AVE, IRVINGTON, NJ, 07111",63475989,"R"
1617,"10 ROPE COURT","MELVILLE","NY",11747,40.816119631,-73.417511582,117,"10 ROPE COURT, MELVILLE, NY, 11747","Match","Exact","10 ROPE CT, MELVILLE, NY, 11747",113966250,"L"
1618,"10 ROSE WALK DRIVE","COVINGTON","GA",30016,33.5395802560001,-83.9483070369999,118,"10 ROSE WALK DRIVE, COVINGTON, GA, 30016","Match","Exact","10 ROSE WALK DR, COVINGTON, GA, 30016",23638173,"R"
1619,"10 ROSEBROOK PLACE","WAREHAM","MA",2571,41.7730420510001,-70.735825125,119,"10 ROSEBROOK PLACE, WAREHAM, MA, 2571","Match","Non_Exact","10 ROSE BROOK WAY, WAREHAM, MA, 02571",645630600,"L"
1620,"10 ROSEWOOD DRIVE","SWANSEA","MA",2777,41.7470537340001,-71.238842403,120,"10 ROSEWOOD DRIVE, SWANSEA, MA, 2777","Match","Non_Exact","10 ROSEWOOD RD, SWANSEA, MA, 02777",46766323,"R"
1621,"10 ROSS ROAD","LIVINGSTON","NJ",7039,40.7587963930001,-74.3072619609999,121,"10 ROSS ROAD, LIVINGSTON, NJ, 7039","Match","Exact","10 ROSS RD, LIVINGSTON, NJ, 07039",63458806,"R"
1622,"10 ROXBURY DRIVE","LITTLE ROCK","AR",72209,34.69217524,-92.350212482,122,"10 ROXBURY DRIVE, LITTLE ROCK, AR, 72209","Match","Exact","10 ROXBURY DR, LITTLE ROCK, AR, 72209",83512085,"L"
1623,"10 RUE VALBONNE","NEWPORT BEACH","CA",92660,33.6248637680001,-117.875030109,123,"10 RUE VALBONNE, NEWPORT BEACH, CA, 92660","Match","Exact","10 RUE VALBONNE, NEWPORT BEACH, CA, 92660",144050356,"L"
1624,"10 RUTGERS STREET 3F","NEW YORK","NY",10002,40.713624415,-73.9901562169999,124,"10 RUTGERS STREET 3F, NEW YORK, NY, 10002","Match","Exact","10 RUTGERS ST, NEW YORK, NY, 10002",59654232,"R"
1625,"10 RYDER POND SOUTH ROAD","CHATHAM","MA",2633,41.6939139790001,-70.002281801,125,"10 RYDER POND SOUTH ROAD, CHATHAM, MA, 2633","Match","Exact","10 RYDER POND SOUTH RD, CHATHAM, MA, 02633",647339528,"L"
1626,"10 S DEARBORN IL1-0111","CHICAGO","IL",60603,NA,NA,126,"10 S DEARBORN IL1-0111, CHICAGO, IL, 60603","No_Match",NA,NA,NA,NA
1627,"10 S DIVISION ST","PINEHURST","ID",83850,47.5377056250001,-116.23410778,127,"10 S DIVISION ST, PINEHURST, ID, 83850","Match","Non_Exact","10 N DIVISION ST, PINEHURST, ID, 83850",203520329,"L"
1628,"10 S HAYS STREET","BEL AIR","MD",21014,39.534930462,-76.3518266849999,128,"10 S HAYS STREET, BEL AIR, MD, 21014","Match","Exact","10 S HAYS ST, BEL AIR, MD, 21014",636223242,"R"
1629,"10 S KOSTNER","CHICAGO","IL",60624,41.880132884,-87.735463635,129,"10 S KOSTNER, CHICAGO, IL, 60624","Match","Non_Exact","10 S KOSTNER AVE, CHICAGO, IL, 60624",605078970,"R"
1630,"10 S RIVERSIDE PLAZA SUITE 875","CHICAGO","IL",60606,NA,NA,130,"10 S RIVERSIDE PLAZA SUITE 875, CHICAGO, IL, 60606","No_Match",NA,NA,NA,NA
1631,"10 S SCHLUETER AVENUE","ST LOUIS","MO",63135,38.74866504,-90.284824283,131,"10 S SCHLUETER AVENUE, ST LOUIS, MO, 63135","Match","Exact","10 S SCHLUETER AVE, SAINT LOUIS, MO, 63135",100146861,"L"
1632,"10 S WALNUT ST","MANTENO","IL",60950,41.2491662740001,-87.836828504,132,"10 S WALNUT ST, MANTENO, IL, 60950","Match","Exact","10 S WALNUT ST, MANTENO, IL, 60950",98357223,"R"
1633,"10 SABRINA DRIVE","WINDSOR","CT",6095,41.8581006590001,-72.668278812,133,"10 SABRINA DRIVE, WINDSOR, CT, 6095","Match","Exact","10 SABRINA DR, WINDSOR, CT, 06095",617829379,"R"
1634,"10 SADDLEHILL RD","WYNANTSKILL","NY",12198,42.6929759710001,-73.603854586,134,"10 SADDLEHILL RD, WYNANTSKILL, NY, 12198","Match","Non_Exact","10 SADDLE HILL RD, WYNANTSKILL, NY, 12198",35755632,"R"
1635,"10 SADDLETREE LANE","HARRISON","NY",10528,40.967357373,-73.729547456,135,"10 SADDLETREE LANE, HARRISON, NY, 10528","Match","Exact","10 SADDLETREE LN, HARRISON, NY, 10528",139766800,"R"
1636,"10 SAGE HILL LN","LAGUNA HILLS","CA",92653,33.588267349,-117.710231844,136,"10 SAGE HILL LN, LAGUNA HILLS, CA, 92653","Match","Exact","10 SAGE HILL LN, LAGUNA HILLS, CA, 92653",144090863,"R"
1637,"10 SAGEBRUSH TRAIL","COVINGTON","GA",30014,33.5640666130001,-83.8305436049999,137,"10 SAGEBRUSH TRAIL, COVINGTON, GA, 30014","Match","Exact","10 SAGEBRUSH TRL, COVINGTON, GA, 30014",23639728,"R"
1638,"10 SAINT STANISLAUS CT","FLORISSANT","MO",63031,38.8067560100001,-90.37124307,138,"10 SAINT STANISLAUS CT, FLORISSANT, MO, 63031","Match","Exact","10 SAINT STANISLAUS CT, FLORISSANT, MO, 63031",100162283,"R"
1639,"10 SANDY HILL RD","WESTERLY","RI",2891,41.353917203,-71.7631561059999,139,"10 SANDY HILL RD, WESTERLY, RI, 2891","Match","Non_Exact","10 SANDY LN, WESTERLY, RI, 02891",58913704,"L"
1640,"10 SASCO HILL ROAD","FAIRFIELD","CT",6824,41.1397800600001,-73.2728471949999,140,"10 SASCO HILL ROAD, FAIRFIELD, CT, 6824","Match","Exact","10 SASCO HILL RD, FAIRFIELD, CT, 06824",3240861,"R"
1641,"10 SATTERFIELD PLACE","GREENSBORO","NC",27410,36.118651877,-79.880354852,141,"10 SATTERFIELD PLACE, GREENSBORO, NC, 27410","Match","Exact","10 SATTERFIELD PL, GREENSBORO, NC, 27410",131098554,"R"
1642,"10 SAW MILL HILL ROAD","RIDGEFIELD","CT",6877,41.2931991730001,-73.504490198,142,"10 SAW MILL HILL ROAD, RIDGEFIELD, CT, 6877","Match","Exact","10 SAW MILL HILL RD, RIDGEFIELD, CT, 06877",3254335,"R"
1643,"10 SCHOLAR PLACE","EAST SETAUKET","NY",11733,40.90052933,-73.094984239,143,"10 SCHOLAR PLACE, EAST SETAUKET, NY, 11733","Match","Non_Exact","10 SCHOLARPLACE, EAST SETAUKET, NY, 11733",647308832,"R"
1644,"10 SCHOLL DR","FARMINGDALE","NY",11735,40.727690039,-73.4619109509999,144,"10 SCHOLL DR, FARMINGDALE, NY, 11735","Match","Exact","10 SCHOLL DR, FARMINGDALE, NY, 11735",147649815,"R"
1645,"10 SCHRIEVER LANE","NEW CITY","NY",10956,41.1412311390001,-73.991531658,145,"10 SCHRIEVER LANE, NEW CITY, NY, 10956","Match","Exact","10 SCHRIEVER LN, NEW CITY, NY, 10956",124627608,"R"
1646,"10 SCHUBERT LANE","COS COB","CT",6807,41.0431923730001,-73.600266381,146,"10 SCHUBERT LANE, COS COB, CT, 6807","Match","Exact","10 SCHUBERT LN, COS COB, CT, 06807",3280207,"L"
1647,"10 SCHULTZ CT","TENAFLY","NJ",7670,40.920936942,-73.9754585649999,147,"10 SCHULTZ CT, TENAFLY, NJ, 7670","Match","Exact","10 SCHULTZ CT, TENAFLY, NJ, 07670",64374130,"R"
1648,"10 SEDGEWICK CT","SHARPSBURG","GA",30277,33.461329805,-84.646781891,148,"10 SEDGEWICK CT, SHARPSBURG, GA, 30277","Match","Exact","10 SEDGEWICK CT, SHARPSBURG, GA, 30277",9338995,"L"
1649,"10 SEDGWICK STREET","PITTSBURGH","PA",15209,40.4795333710001,-79.9747098509999,149,"10 SEDGWICK STREET, PITTSBURGH, PA, 15209","Match","Exact","10 SEDGWICK ST, PITTSBURGH, PA, 15209",51641637,"R"
1650,"10 SELDEN STREET","WOODBRIDGE","CT",6525,41.339123224,-72.9818164979999,150,"10 SELDEN STREET, WOODBRIDGE, CT, 6525","Match","Exact","10 SELDEN ST, WOODBRIDGE, CT, 06525",3697062,"R"
1651,"10 SERENITY COURT","NANCY","KY",42544,37.041806245,-84.679187336,151,"10 SERENITY COURT, NANCY, KY, 42544","Match","Exact","10 SERENITY CT, NANCY, KY, 42544",642491646,"R"
1652,"10 SHELTER VIEW COURT","WILDER","KY",41076,39.0391195290001,-84.4783057609999,152,"10 SHELTER VIEW COURT, WILDER, KY, 41076","Match","Exact","10 SHELTER VIEW CT, WILDER, KY, 41076",104456087,"L"
1653,"10 SHEPHERD LANE","ASHLAND","MA",1721,42.269055085,-71.48064104,153,"10 SHEPHERD LANE, ASHLAND, MA, 1721","Match","Exact","10 SHEPHERD LN, ASHLAND, MA, 01721",86842084,"L"
1654,"10 SHIRLEY DR APT 4","SCHENECTADY","NY",12304,42.775639561,-73.897970894,154,"10 SHIRLEY DR APT 4, SCHENECTADY, NY, 12304","Match","Exact","10 SHIRLEY DR, SCHENECTADY, NY, 12304",18030959,"L"
1655,"10 SILVERCREST COVE","JACKSON","TN",38305,35.6928996400001,-88.819824161,155,"10 SILVERCREST COVE, JACKSON, TN, 38305","Match","Exact","10 SILVERCREST COVE, JACKSON, TN, 38305",21334617,"L"
1656,"10 SKYTOP RD","HIGHLAND MILLS","NY",10930,41.3429820690001,-74.1538401879999,156,"10 SKYTOP RD, HIGHLAND MILLS, NY, 10930","Match","Exact","10 SKYTOP RD, HIGHLAND MILLS, NY, 10930",124496130,"L"
1657,"10 SKYVIEW LN","WOBURN","MA",1801,42.473019385,-71.137863744,157,"10 SKYVIEW LN, WOBURN, MA, 1801","Match","Exact","10 SKYVIEW LN, WOBURN, MA, 01801",86887007,"L"
1658,"10 SLAYTON HILL ROAD SUITE 103","LEBANON","NH",3766,43.638142056,-72.26618996,158,"10 SLAYTON HILL ROAD SUITE 103, LEBANON, NH, 3766","Match","Exact","10 SLAYTON HILL RD, LEBANON, NH, 03766",145660614,"L"
1659,"10 SOUTH 2000 EAST","SALT LAKE CITY","UT",84112,40.7691186330001,-111.834225153,159,"10 SOUTH 2000 EAST, SALT LAKE CITY, UT, 84112","Match","Exact","10 S 2000 E, SALT LAKE CITY, UT, 84112",176138711,"L"
1660,"10 SOUTH BATAVIA AVENUE","BATAVIA","IL",60510,41.8497163550001,-88.311962609,160,"10 SOUTH BATAVIA AVENUE, BATAVIA, IL, 60510","Match","Exact","10 S BATAVIA AVE, BATAVIA, IL, 60510",119511797,"L"
1661,"10 SOUTH BELLS ST","ALAMO","TN",38001,35.784933435,-89.1172490989999,161,"10 SOUTH BELLS ST, ALAMO, TN, 38001","Match","Exact","10 S BELLS ST, ALAMO, TN, 38001",63319726,"L"
1662,"10 SOUTH DIVISION ST","NEW ROCHELLE","NY",10805,40.908014833,-73.78250309,162,"10 SOUTH DIVISION ST, NEW ROCHELLE, NY, 10805","Match","Exact","10 S DIVISION ST, NEW ROCHELLE, NY, 10805",139751353,"L"
1663,"10 SOUTH DR","BALDWIN","NY",11510,40.6299917360001,-73.594285929,163,"10 SOUTH DR, BALDWIN, NY, 11510","Match","Exact","10 SOUTH DR, BALDWIN, NY, 11510",147638450,"R"
1664,"10 SOUTH GAY STREET PO BOX 469","MOUNT VERNON","OH",43050,40.3933731050001,-82.4842113559999,164,"10 SOUTH GAY STREET PO BOX 469, MOUNT VERNON, OH, 43050","Match","Exact","10 S GAY ST, MOUNT VERNON, OH, 43050",24616279,"R"
1665,"10 SOUTH GAY STREET","MOUNT VERNON","OH",43050,40.3933731050001,-82.4842113559999,165,"10 SOUTH GAY STREET, MOUNT VERNON, OH, 43050","Match","Exact","10 S GAY ST, MOUNT VERNON, OH, 43050",24616279,"R"
1666,"10 SOUTH LASALLE STREET- SUITE 3600","CHICAGO","IL",60030,NA,NA,166,"10 SOUTH LASALLE STREET- SUITE 3600, CHICAGO, IL, 60030","No_Match",NA,NA,NA,NA
1667,"10 SOUTH MAIN STREET 208","MEMPHIS","TN",38103,35.144939622,-90.052916352,167,"10 SOUTH MAIN STREET 208, MEMPHIS, TN, 38103","Match","Exact","10 S MAIN ST, MEMPHIS, TN, 38103",72903294,"L"
1668,"10 SOUTH RAILROAD ST PO BOX 53","HUGHESVILLE","PA",17737,41.241583647,-76.725857635,168,"10 SOUTH RAILROAD ST PO BOX 53, HUGHESVILLE, PA, 17737","Match","Exact","10 S RAILROAD ST, HUGHESVILLE, PA, 17737",59479231,"L"
1669,"10 SOUTHERN CROSS CIR APT 207","BOYNTON BEACH","FL",33436,26.5186566420001,-80.093661879,169,"10 SOUTHERN CROSS CIR APT 207, BOYNTON BEACH, FL, 33436","Match","Exact","10 SOUTHERN CROSS CIR, BOYNTON BEACH, FL, 33436",644021419,"R"
1670,"10 SPRING CREEK DRIVE","SPRING VALLEY","IL",61362,41.364127243,-89.19146534,170,"10 SPRING CREEK DRIVE, SPRING VALLEY, IL, 61362","Match","Exact","10 SPRING CREEK DR, SPRING VALLEY, IL, 61362",8487669,"L"
1671,"10 ST PAUL PLACE APT 518","BROOKLYN","IL",11226,NA,NA,171,"10 ST PAUL PLACE APT 518, BROOKLYN, IL, 11226","No_Match",NA,NA,NA,NA
1672,"10 STACYS WAY","DENMARK","ME",4022,43.9423620580001,-70.795819751,172,"10 STACYS WAY, DENMARK, ME, 4022","Match","Exact","10 STACYS WAY, DENMARK, ME, 04022",651198149,"L"
1673,"10 STAGECOACH VILLAGE","LITTLE ROCK","AR",72210,NA,NA,173,"10 STAGECOACH VILLAGE, LITTLE ROCK, AR, 72210","Tie",NA,NA,NA,NA
1674,"10 STALYNN LANE","HOUSTON","TX",77027,29.7539558460001,-95.453503941,174,"10 STALYNN LANE, HOUSTON, TX, 77027","Match","Non_Exact","10 STALYNN, HOUSTON, TX, 77027",641980382,"R"
1675,"10 STANFIELD ROAD","WEAVERVILLE","NC",28787,35.743977101,-82.571926909,175,"10 STANFIELD ROAD, WEAVERVILLE, NC, 28787","Match","Non_Exact","10 STANFIELD DR, WEAVERVILLE, NC, 28787",36905148,"L"
1676,"10 STATE ROAD PMB","BATH","ME",4530,43.906483257,-69.83041645,176,"10 STATE ROAD PMB, BATH, ME, 4530","Match","Exact","10 STATE RD, BATH, ME, 04530",608286845,"R"
1677,"10 STATION CT","BELLPORT","NY",11713,40.757543469,-72.9394981569999,177,"10 STATION CT, BELLPORT, NY, 11713","Match","Exact","10 STATION CT, BELLPORT, NY, 11713",643035118,"R"
1678,"10 STEEP HOLLOW LANE","COS COB","CT",6807,41.063572756,-73.5875242989999,178,"10 STEEP HOLLOW LANE, COS COB, CT, 6807","Match","Exact","10 STEEP HOLLOW LN, COS COB, CT, 06807",3241885,"L"
1679,"10 STICKLEY CT","THE WOODLANDS","TX",77382,30.1916039980001,-95.582669833,179,"10 STICKLEY CT, THE WOODLANDS, TX, 77382","Match","Exact","10 STICKLEY CT, THE WOODLANDS, TX, 77382",625659572,"R"
1680,"10 STICKNEY ROAD","MEDFORD","MA",2155,42.429007961,-71.11157007,180,"10 STICKNEY ROAD, MEDFORD, MA, 2155","Match","Exact","10 STICKNEY RD, MEDFORD, MA, 02155",86857922,"L"
1681,"10 STILES LANE","FRANKLIN PARK","NJ",8823,40.442501269,-74.5696011369999,181,"10 STILES LANE, FRANKLIN PARK, NJ, 8823","Match","Exact","10 STILES LN, FRANKLIN PARK, NJ, 08823",59956162,"R"
1682,"10 STIRRUP COURT","HAMPTON","VA",23664,37.0531585000001,-76.2922695519999,182,"10 STIRRUP COURT, HAMPTON, VA, 23664","Match","Exact","10 STIRRUP CT, HAMPTON, VA, 23664",103763556,"R"
1683,"10 STRATFORD ROAD  SUITE 9F","BROOKLYN","NY",11218,40.648569142,-73.96961277,183,"10 STRATFORD ROAD  SUITE 9F, BROOKLYN, NY, 11218","Match","Exact","10 STRATFORD RD, BROOKLYN, NY, 11218",59080852,"R"
1684,"10 STREAMLEY COURT","DURHAM","NC",27705,35.966689031,-78.991128045,184,"10 STREAMLEY COURT, DURHAM, NC, 27705","Match","Exact","10 STREAMLEY CT, DURHAM, NC, 27705",71756117,"R"
1685,"10 STURBRIDGE LANE","GREENSBORO","NC",27408,36.118677093,-79.792981675,185,"10 STURBRIDGE LANE, GREENSBORO, NC, 27408","Match","Exact","10 STURBRIDGE LN, GREENSBORO, NC, 27408",131107246,"R"
1686,"10 STUYVESANT OVAL","NEW YORK CITY","NY",10009,NA,NA,186,"10 STUYVESANT OVAL, NEW YORK CITY, NY, 10009","No_Match",NA,NA,NA,NA
1687,"10 SULLIVAN LANE","ACTON","MA",1720,42.5119388570001,-71.4142384419999,187,"10 SULLIVAN LANE, ACTON, MA, 1720","Match","Exact","10 SULLIVAN LN, ACTON, MA, 01720",646768708,"L"
1688,"10 SUMMER HILL STREET","SPRINGFIELD","VT",5156,43.297636611,-72.480024841,188,"10 SUMMER HILL STREET, SPRINGFIELD, VT, 5156","Match","Exact","10 SUMMER HILL ST, SPRINGFIELD, VT, 05156",139247418,"L"
1689,"10 SUMMERHILL CT","COLUMBUS","NJ",8022,40.0690342300001,-74.7427301559999,189,"10 SUMMERHILL CT, COLUMBUS, NJ, 8022","Match","Exact","10 SUMMERHILL CT, COLUMBUS, NJ, 08022",617130725,"R"
1690,"10 SUMMIT ROAD PO BOX 419","ALPINE","NJ",7620,NA,NA,190,"10 SUMMIT ROAD PO BOX 419, ALPINE, NJ, 7620","No_Match",NA,NA,NA,NA
1691,"10 SUMMIT ST","EAST HAMPTON","CT",6424,41.576262458,-72.501716105,191,"10 SUMMIT ST, EAST HAMPTON, CT, 6424","Match","Exact","10 SUMMIT ST, EAST HAMPTON, CT, 06424",113885203,"R"
1692,"10 SUNNYSIDE AVENUE","BURLINGTON","MA",1803,42.4925521220001,-71.18304685,192,"10 SUNNYSIDE AVENUE, BURLINGTON, MA, 1803","Match","Exact","10 SUNNYSIDE AVE, BURLINGTON, MA, 01803",86883262,"L"
1693,"10 SUNSET AVENUE","ILION","NY",13557,43.016596463,-75.055301384,193,"10 SUNSET AVENUE, ILION, NY, 13557","Match","Non_Exact","10 SUNSET AVE, ILION, NY, 13357",153731484,"L"
1694,"10 SUNSET DRIVE","VERGENNES","VT",5491,44.160252692,-73.247209422,194,"10 SUNSET DRIVE, VERGENNES, VT, 5491","Match","Exact","10 SUNSET DR, VERGENNES, VT, 05491",136447118,"L"
1695,"10 SUNSET RD","OWINGS MILLS","MD",21117,39.4395038380001,-76.805086129,195,"10 SUNSET RD, OWINGS MILLS, MD, 21117","Match","Exact","10 SUNSET RD, OWINGS MILLS, MD, 21117",191462752,"R"
1696,"10 SUSSEX CT UNIT 214","SUFFERN","NY",10901,41.1079537480001,-74.127091734,196,"10 SUSSEX CT UNIT 214, SUFFERN, NY, 10901","Match","Exact","10 SUSSEX CT, SUFFERN, NY, 10901",124602120,"L"
1697,"10 SW 131ST AVE","BEAVERTON","OR",97005,45.5200055980001,-122.811794415,197,"10 SW 131ST AVE, BEAVERTON, OR, 97005","Match","Exact","10 SW 131ST AVE, BEAVERTON, OR, 97005",158184667,"L"
1698,"10 SW SOUTH RIVER DR APT 807","MIAMI","FL",33137,NA,NA,198,"10 SW SOUTH RIVER DR APT 807, MIAMI, FL, 33137","No_Match",NA,NA,NA,NA
1699,"10 SW SOUTH RIVER DR APT1009","MIAMI","FL",33130,NA,NA,199,"10 SW SOUTH RIVER DR APT1009, MIAMI, FL, 33130","No_Match",NA,NA,NA,NA
1700,"10 SYDNEY STREE","DORCHESTER","MA",2062,NA,NA,200,"10 SYDNEY STREE, DORCHESTER, MA, 2062","No_Match",NA,NA,NA,NA
1701,"10 TALBOT LANE","GREENWICH","CT",6830,41.004451713,-73.6524345399999,201,"10 TALBOT LANE, GREENWICH, CT, 6830","Match","Exact","10 TALBOT LN, GREENWICH, CT, 06830",3256981,"L"
1702,"10 TALLAWOOD LANE","ELGIN","SC",29045,34.1464835,-80.837383351,202,"10 TALLAWOOD LANE, ELGIN, SC, 29045","Match","Exact","10 TALLAWOOD LN, ELGIN, SC, 29045",71844527,"L"
1703,"10 TALLAWOOD LN","ELGIN","SC",29045,34.1464835,-80.837383351,203,"10 TALLAWOOD LN, ELGIN, SC, 29045","Match","Exact","10 TALLAWOOD LN, ELGIN, SC, 29045",71844527,"L"
1704,"10 TALLMAN LANE","SOMERSET","NJ",8873,40.522629867,-74.569484909,204,"10 TALLMAN LANE, SOMERSET, NJ, 8873","Match","Exact","10 TALLMAN LN, SOMERSET, NJ, 08873",627515132,"R"
1705,"10 TANGLEWYLDE AVE","BRONXVILLE","NY",10708,40.939444178,-73.8312851699999,205,"10 TANGLEWYLDE AVE, BRONXVILLE, NY, 10708","Match","Exact","10 TANGLEWYLDE AVE, BRONXVILLE, NY, 10708",139746269,"R"
1706,"10 TAYLOR DRIVE","SPENCER","MA",1562,42.194609439,-71.973775202,206,"10 TAYLOR DRIVE, SPENCER, MA, 1562","Match","Exact","10 TAYLOR DR, SPENCER, MA, 01562",636926889,"R"
1707,"10 TECOMA CIRCLE","LITTLETON","CO",80127,39.5841543610001,-105.164714508,207,"10 TECOMA CIRCLE, LITTLETON, CO, 80127","Match","Exact","10 TECOMA CIR, LITTLETON, CO, 80127",177394623,"L"
1708,"10 THERESA DRIVE","HOLMDEL","NJ",7733,40.404359153,-74.176955412,208,"10 THERESA DRIVE, HOLMDEL, NJ, 7733","Match","Exact","10 THERESA DR, HOLMDEL, NJ, 07733",90475653,"R"
1709,"10 THOMAS STREET","BURLINGTON","MA",1803,42.5115836690001,-71.1944555919999,209,"10 THOMAS STREET, BURLINGTON, MA, 1803","Match","Exact","10 THOMAS ST, BURLINGTON, MA, 01803",86905496,"L"
1710,"10 THOMPSON ST","BALLSTON SPA","NY",12020,43.0049424950001,-73.850342554,210,"10 THOMPSON ST, BALLSTON SPA, NY, 12020","Match","Exact","10 THOMPSON ST, BALLSTON SPA, NY, 12020",18768200,"R"
1711,"10 THUNDER RUN - UNIT 38G","IRVINE","CA",92614,33.667987754,-117.808591609,211,"10 THUNDER RUN - UNIT 38G, IRVINE, CA, 92614","Match","Exact","10 THUNDER RUN, IRVINE, CA, 92614",144059917,"L"
1712,"10 TILLERY RD","EDGEWOOD","NM",87015,35.0257090200001,-106.125888622,212,"10 TILLERY RD, EDGEWOOD, NM, 87015","Match","Exact","10 TILLERY RD, EDGEWOOD, NM, 87015",169585014,"R"
1713,"10 TIMBER LN","WOODBRIDGE","CT",6525,41.344364569,-73.0273425519999,213,"10 TIMBER LN, WOODBRIDGE, CT, 6525","Match","Exact","10 TIMBER LN, WOODBRIDGE, CT, 06525",3732411,"L"
1714,"10 TIMBER TERRACE","TROY","IL",62294,38.7442734410001,-89.888131253,214,"10 TIMBER TERRACE, TROY, IL, 62294","Match","Exact","10 TIMBER TER, TROY, IL, 62294",649413228,"R"
1715,"10 TIMES SQUARE -3RD FLOOR- NO 3081","NEW YORK","NY",10018,NA,NA,215,"10 TIMES SQUARE -3RD FLOOR- NO 3081, NEW YORK, NY, 10018","No_Match",NA,NA,NA,NA
1716,"10 TOGO ROAD","TOMS RIVER","NJ",8757,39.956109456,-74.237182537,216,"10 TOGO ROAD, TOMS RIVER, NJ, 8757","Match","Exact","10 TOGO RD, TOMS RIVER, NJ, 08757",203759082,"R"
1717,"10 TORIO COURT","JERSEY CITY","NJ",7305,NA,NA,217,"10 TORIO COURT, JERSEY CITY, NJ, 7305","No_Match",NA,NA,NA,NA
1718,"10 TOTMAN DR APT 8","WOBURN","MA",1801,42.471216112,-71.173877633,218,"10 TOTMAN DR APT 8, WOBURN, MA, 1801","Match","Exact","10 TOTMAN DR, WOBURN, MA, 01801",648789419,"L"
1719,"10 TOWER ROAD","WINNECONNE","WI",54986,44.1054935130001,-88.724990052,219,"10 TOWER ROAD, WINNECONNE, WI, 54986","Match","Exact","10 TOWER RD, WINNECONNE, WI, 54986",652338796,"L"
1720,"10 TOWN FARM ROAD  PO BOX 1883","GRAY","ME",4039,43.88877038,-70.267098765,220,"10 TOWN FARM ROAD  PO BOX 1883, GRAY, ME, 4039","Match","Non_Exact","10 TOWN FARM RD, GRAY, ME, 04039",78047605,"L"
1721,"10 TOWN PLAZA 157","DURANGO","CO",81301,NA,NA,221,"10 TOWN PLAZA 157, DURANGO, CO, 81301","No_Match",NA,NA,NA,NA
1722,"10 TOWNLINE ROAD","ITHACA","NY",14850,42.3951449460001,-76.5339220179999,222,"10 TOWNLINE ROAD, ITHACA, NY, 14850","Match","Non_Exact","10 TOWN LINE RD, ITHACA, NY, 14850",643988620,"L"
1723,"10 TREE TOP DR","SPRINGFIELD","NJ",7081,40.6955107090001,-74.347155739,223,"10 TREE TOP DR, SPRINGFIELD, NJ, 7081","Match","Exact","10 TREE TOP DR, SPRINGFIELD, NJ, 07081",60603499,"R"
1724,"10 TULSA DRIVE","MONKEY ISLAND","OK",74331,36.5887591000001,-94.861985528,224,"10 TULSA DRIVE, MONKEY ISLAND, OK, 74331","Match","Exact","10 TULSA DR, MONKEY ISLAND, OK, 74331",49652995,"R"
1725,"10 TUMBLEWEED ST","TRABUCO CANYON","CA",92679,33.5914327560001,-117.599593008,225,"10 TUMBLEWEED ST, TRABUCO CANYON, CA, 92679","Match","Exact","10 TUMBLEWEED ST, TRABUCO CANYON, CA, 92679",144388769,"L"
1726,"10 TUNES BROOK DRIVE","BRICK","NJ",8723,40.030213964,-74.132506335,226,"10 TUNES BROOK DRIVE, BRICK, NJ, 8723","Match","Exact","10 TUNES BROOK DR, BRICK, NJ, 08723",203736260,"L"
1727,"10 TYLER ST","SOMERVILLE","MA",2143,42.3817141850001,-71.105145775,227,"10 TYLER ST, SOMERVILLE, MA, 2143","Match","Exact","10 TYLER ST, SOMERVILLE, MA, 02143",86868630,"L"
1728,"10 UNDINE RD","ROCKY POINT","NY",11778,40.9605859550001,-72.9169217479999,228,"10 UNDINE RD, ROCKY POINT, NY, 11778","Match","Exact","10 UNDINE RD, ROCKY POINT, NY, 11778",113954544,"R"
1729,"10 UPLAND ROAD","BROOKLINE","MA",2445,42.3303954470001,-71.1193430169999,229,"10 UPLAND ROAD, BROOKLINE, MA, 2445","Match","Exact","10 UPLAND RD, BROOKLINE, MA, 02445",87245363,"L"
1730,"10 VALENCIA DRIVE","LAKE HOPATCONG","NJ",7849,NA,NA,230,"10 VALENCIA DRIVE, LAKE HOPATCONG, NJ, 7849","No_Match",NA,NA,NA,NA
1731,"10 VALOR LANE","LEVITTOWN","PA",19054,40.1853912230001,-74.8261423769999,231,"10 VALOR LANE, LEVITTOWN, PA, 19054","Match","Exact","10 VALOR LN, LEVITTOWN, PA, 19054",134722649,"R"
1732,"10 VAN HICKS ROAD","OAK RIDGE","TN",37830,36.008536507,-84.27536792,232,"10 VAN HICKS ROAD, OAK RIDGE, TN, 37830","Match","Exact","10 VAN HICKS RD, OAK RIDGE, TN, 37830",90134367,"L"
1733,"10 VANS AVE","COLDWATER","MI",49036,41.9384908210001,-84.9839737739999,233,"10 VANS AVE, COLDWATER, MI, 49036","Match","Exact","10 VANS AVE, COLDWATER, MI, 49036",8214450,"R"
1734,"10 VEGA DR","SHREWSBURY","MA",1545,42.309120514,-71.7126994979999,234,"10 VEGA DR, SHREWSBURY, MA, 1545","Match","Exact","10 VEGA DR, SHREWSBURY, MA, 01545",40013644,"R"
1735,"10 VIA RICASOL","IRVINE","CA",92612,33.668579833,-117.849741176,235,"10 VIA RICASOL, IRVINE, CA, 92612","Match","Exact","10 VIA RICASOL, IRVINE, CA, 92612",144383377,"L"
1736,"10 VILLA DR","PUEBLO","CO",81001,38.3030443650001,-104.58305086,236,"10 VILLA DR, PUEBLO, CO, 81001","Match","Exact","10 VILLA DR, PUEBLO, CO, 81001",105023819,"R"
1737,"10 VILLAGE SQUARE ROAD","NORTH YARMOUTH","ME",4097,NA,NA,237,"10 VILLAGE SQUARE ROAD, NORTH YARMOUTH, ME, 4097","No_Match",NA,NA,NA,NA
1738,"10 W 24TH ST STE 360","BALTIMORE","MD",21218,39.316324831,-76.6177262589999,238,"10 W 24TH ST STE 360, BALTIMORE, MD, 21218","Match","Non_Exact","10 W 24TH ST, BALTIMORE, MD, 21218",206418815,"R"
1739,"10 W 29TH ST","HUNTINGDON","PA",16652,40.508190369,-78.0097062409999,239,"10 W 29TH ST, HUNTINGDON, PA, 16652","Match","Exact","10 W 29TH ST, HUNTINGDON, PA, 16652",50615303,"L"
1740,"10 W 33RD STREET SUITE 900","NEW YORK","NY",10001,40.7479579370001,-73.985500967,240,"10 W 33RD STREET SUITE 900, NEW YORK, NY, 10001","Match","Non_Exact","10 W 33RD ST, NEW YORK, NY, 10001",59653445,"L"
1741,"10 W 400 N","SPRING CITY","UT",84662,39.483775226,-111.496315858,241,"10 W 400 N, SPRING CITY, UT, 84662","Match","Exact","10 W 400 N, SPRING CITY, UT, 84662",649448183,"L"
1742,"10 W 53RD STREET","KANSAS CITY","MO",64112,39.030960651,-94.5878236359999,242,"10 W 53RD STREET, KANSAS CITY, MO, 64112","Match","Exact","10 W 53RD ST, KANSAS CITY, MO, 64112",91448124,"R"
1743,"10 W BARD AVE","RED HOOK","NY",12571,NA,NA,243,"10 W BARD AVE, RED HOOK, NY, 12571","Tie",NA,NA,NA,NA
1744,"10 W BROAD ST SUITE 2100","COLUMBUS","OH",43215,39.962267222,-83.0003155379999,244,"10 W BROAD ST SUITE 2100, COLUMBUS, OH, 43215","Match","Non_Exact","10 E BROAD ST, COLUMBUS, OH, 43215",135620846,"L"
1745,"10 W CHAMBERS ST","FORSYTH","GA",31029,33.0334794240001,-83.9404981759999,245,"10 W CHAMBERS ST, FORSYTH, GA, 31029","Match","Exact","10 W CHAMBERS ST, FORSYTH, GA, 31029",66664292,"L"
1746,"10 W CHURCH ST","FORTVILLE","IN",46040,39.934626225,-85.8504720889999,246,"10 W CHURCH ST, FORTVILLE, IN, 46040","Match","Exact","10 W CHURCH ST, FORTVILLE, IN, 46040",31086422,"L"
1747,"10 W COUNTY ST","HAMPTON","VA",23663,37.019655384,-76.321872702,247,"10 W COUNTY ST, HAMPTON, VA, 23663","Match","Exact","10 W COUNTY ST, HAMPTON, VA, 23663",103760135,"R"
1748,"10 W COURT STREET","UNION GAP","WA",98903,46.5508450840001,-120.47553346,248,"10 W COURT STREET, UNION GAP, WA, 98903","Match","Exact","10 W COURT ST, UNION GAP, WA, 98903",184939087,"L"
1749,"10 W EAGER STREET STE 310","BALTIMORE","MD",21201,39.3010135910001,-76.6167018959999,249,"10 W EAGER STREET STE 310, BALTIMORE, MD, 21201","Match","Non_Exact","10 W EAGER ST, BALTIMORE, MD, 21201",206419358,"R"
1750,"10 W EAGER STREET SUITE 315","BALTIMORE","MD",21218,NA,NA,250,"10 W EAGER STREET SUITE 315, BALTIMORE, MD, 21218","No_Match",NA,NA,NA,NA
1751,"10 W ELM ST","WEST TOWNSEND","MA",1474,42.6761156490001,-71.740908367,251,"10 W ELM ST, WEST TOWNSEND, MA, 1474","Match","Exact","10 W ELM ST, W TOWNSEND, MA, 01474",86838595,"L"
1752,"10 W MAIN STREET","MCCONNELSVILLE","OH",43756,39.648856144,-81.854009665,252,"10 W MAIN STREET, MCCONNELSVILLE, OH, 43756","Match","Exact","10 W MAIN ST, MCCONNELSVILLE, OH, 43756",45429381,"L"
1753,"10 W MANILLA AVE","PITTSBURGH","PA",15220,40.4181378120001,-80.047128749,253,"10 W MANILLA AVE, PITTSBURGH, PA, 15220","Match","Exact","10 W MANILLA AVE, PITTSBURGH, PA, 15220",51630714,"R"
1754,"10 W MARKET ST STE 1020","INDIANAPOLIS","IN",46204,39.6647344620001,-86.120555296,254,"10 W MARKET ST STE 1020, INDIANAPOLIS, IN, 46204","Match","Non_Exact","10 MARKET ST, INDIANAPOLIS, IN, 46227",639121632,"R"
1755,"10 W MINNEZONA AVE APT 1026","PHOENIX","AZ",85013,33.5034937510001,-112.074583482,255,"10 W MINNEZONA AVE APT 1026, PHOENIX, AZ, 85013","Match","Non_Exact","10 W MINNEZONA AVE, PHOENIX, AZ, 85013",128277804,"R"
1756,"10 W NIGHTHAWK WAY","PHOENIX","AZ",85045,33.2968708600001,-112.080924346,256,"10 W NIGHTHAWK WAY, PHOENIX, AZ, 85045","Match","Exact","10 W NIGHTHAWK WAY, PHOENIX, AZ, 85045",647480144,"R"
1757,"10 W PHILLIP RD  SUITE 120","VERNON HILLS","IL",60061,42.2393483130001,-87.9648764039999,257,"10 W PHILLIP RD  SUITE 120, VERNON HILLS, IL, 60061","Match","Non_Exact","10 W PHILLIP RD, VERNON HILLS, IL, 60061",119639574,"L"
1758,"10 W PHILLIP RD SUITE 120","VERNON HILLS","IL",60061,42.2393483130001,-87.9648764039999,258,"10 W PHILLIP RD SUITE 120, VERNON HILLS, IL, 60061","Match","Non_Exact","10 W PHILLIP RD, VERNON HILLS, IL, 60061",119639574,"L"
1759,"10 W POLK ST","SHELBYVILLE","IN",46176,39.5215693120001,-85.777424848,259,"10 W POLK ST, SHELBYVILLE, IN, 46176","Match","Exact","10 W POLK ST, SHELBYVILLE, IN, 46176",33228995,"L"
1760,"10 WACHSETT STREET","FITCHBURG","MA",1420,42.566314441,-71.84532976,260,"10 WACHSETT STREET, FITCHBURG, MA, 1420","Match","Non_Exact","10 WACHUSETT ST, FITCHBURG, MA, 01420",40027046,"R"
1761,"10 WARD WAY","MIFFLINBURG","PA",17844,40.9218972670001,-77.047313559,261,"10 WARD WAY, MIFFLINBURG, PA, 17844","Match","Exact","10 WARD WAY, MIFFLINBURG, PA, 17844",48193449,"L"
1762,"10 WATERFALL DR APT A","CANTON","MA",2021,NA,NA,262,"10 WATERFALL DR APT A, CANTON, MA, 2021","No_Match",NA,NA,NA,NA
1763,"10 WAVERLY CIRCLE","WATERVLIET","NY",12189,42.7505389390001,-73.731704782,263,"10 WAVERLY CIRCLE, WATERVLIET, NY, 12189","Match","Exact","10 WAVERLY CIR, WATERVLIET, NY, 12189",650259541,"L"
1764,"10 WEATHERLY COURT","JAMESTOWN","RI",2835,41.5457036610001,-71.370797903,264,"10 WEATHERLY COURT, JAMESTOWN, RI, 2835","Match","Exact","10 WEATHERLY CT, JAMESTOWN, RI, 02835",47348355,"R"
1765,"10 WEAVER SMITH DRIVE","CANDLER","NC",28715,35.490236899,-82.6865060329999,265,"10 WEAVER SMITH DRIVE, CANDLER, NC, 28715","Match","Exact","10 WEAVER SMITH DR, CANDLER, NC, 28715",36893216,"R"
1766,"10 WEESUCK AVE","EAST QUOGUE","NY",11942,40.8451759320001,-72.576557196,266,"10 WEESUCK AVE, EAST QUOGUE, NY, 11942","Match","Exact","10 WEESUCK AVE, EAST QUOGUE, NY, 11942",114027779,"R"
1767,"10 WELLE ROAD","CROCKETT","CA",94525,38.0478868060001,-122.212977244,267,"10 WELLE ROAD, CROCKETT, CA, 94525","Match","Exact","10 WELLE RD, CROCKETT, CA, 94525",192088422,"R"
1768,"10 WELLINGTON WALK","DOUGLASVILLE","GA",30134,33.7909798920001,-84.7899298839999,268,"10 WELLINGTON WALK, DOUGLASVILLE, GA, 30134","Match","Exact","10 WELLINGTON WALK, DOUGLASVILLE, GA, 30134",17740685,"L"
1769,"10 WENDI DR","NORTH PROVIDENCE","RI",2911,41.869152625,-71.482142122,269,"10 WENDI DR, NORTH PROVIDENCE, RI, 2911","Match","Exact","10 WENDI DR, N PROVIDENCE, RI, 02911",47450671,"R"
1770,"10 WEST 18TH STREET","OCEAN CITY","NJ",8226,39.2719514140001,-74.5924743899999,270,"10 WEST 18TH STREET, OCEAN CITY, NJ, 8226","Match","Exact","10 W 18TH ST, OCEAN CITY, NJ, 08226",647448671,"R"
1771,"10 WEST BROAD STREET SUITE 2100","COLUMBUS","OH",43215,39.9621363250001,-83.001464508,271,"10 WEST BROAD STREET SUITE 2100, COLUMBUS, OH, 43215","Match","Exact","10 W BROAD ST, COLUMBUS, OH, 43215",135576058,"R"
1772,"10 WEST BROADWAY APT 9K","LONG BEACH","NY",11561,40.584713596,-73.6643885559999,272,"10 WEST BROADWAY APT 9K, LONG BEACH, NY, 11561","Match","Exact","10 W BROADWAY, LONG BEACH, NY, 11561",147682154,"L"
1773,"10 WEST DODGE STREET","SONORA","CA",95370,37.9856386540001,-120.38496398,273,"10 WEST DODGE STREET, SONORA, CA, 95370","Match","Exact","10 W DODGE ST, SONORA, CA, 95370",101373017,"L"
1774,"10 WEST JUNIPER LANE","MORELAND HILLS","OH",44022,NA,NA,274,"10 WEST JUNIPER LANE, MORELAND HILLS, OH, 44022","No_Match",NA,NA,NA,NA
1775,"10 WEST LANE","SUMMIT","NJ",7901,40.698737828,-74.3765821979999,275,"10 WEST LANE, SUMMIT, NJ, 7901","Match","Exact","10 WEST LN, SUMMIT, NJ, 07901",60603265,"L"
1776,"10 WEST MADISON STREET SUITE 11","BALTIMORE","MD",21201,39.2985912610001,-76.6164183499999,276,"10 WEST MADISON STREET SUITE 11, BALTIMORE, MD, 21201","Match","Exact","10 W MADISON ST, BALTIMORE, MD, 21201",206419386,"R"
1777,"10 WEST MANILLA AVENUE","PITTSBURGH","PA",15220,40.418184136,-80.0469745199999,277,"10 WEST MANILLA AVENUE, PITTSBURGH, PA, 15220","Match","Exact","10 W MANILLA AVE, PITTSBURGH, PA, 15220",51630714,"R"
1778,"10 WEST PARISH DRIVE","ANDOVER","MA",1810,42.659245071,-71.1706233849999,278,"10 WEST PARISH DRIVE, ANDOVER, MA, 1810","Match","Exact","10 W PARISH DR, ANDOVER, MA, 01810",86626451,"L"
1779,"10 WEST VAN TREES ST","WASHINGTON","IN",47501,38.657742919,-87.175653113,279,"10 WEST VAN TREES ST, WASHINGTON, IN, 47501","Match","Exact","10 W VAN TREES ST, WASHINGTON, IN, 47501",32068859,"L"
1780,"10 WESTFIELD DRIVE","EAST GREENWICH","RI",2818,41.654189891,-71.538171296,280,"10 WESTFIELD DRIVE, EAST GREENWICH, RI, 2818","Match","Exact","10 WESTFIELD DR, EAST GREENWICH, RI, 02818",159153938,"L"
1781,"10 WESTON AVE APT 416","QUINCY","MA",2170,42.268601548,-71.0218001379999,281,"10 WESTON AVE APT 416, QUINCY, MA, 2170","Match","Exact","10 WESTON AVE, QUINCY, MA, 02170",87248722,"L"
1782,"10 WESTON AVENUE APT 301","QUINCY","MA",2170,42.268601548,-71.0218001379999,282,"10 WESTON AVENUE APT 301, QUINCY, MA, 2170","Match","Exact","10 WESTON AVE, QUINCY, MA, 02170",87248722,"L"
1783,"10 WHARTON PLACE","MELVILLE","NY",11747,40.789272484,-73.405255328,283,"10 WHARTON PLACE, MELVILLE, NY, 11747","Match","Exact","10 WHARTON PL, MELVILLE, NY, 11747",114233033,"R"
1784,"10 WHISPERING COURT","OWINGS MILLS","MD",21117,39.4318100080001,-76.806625041,284,"10 WHISPERING COURT, OWINGS MILLS, MD, 21117","Match","Exact","10 WHISPERING CT, OWINGS MILLS, MD, 21117",647305665,"R"
1785,"10 WHITE LILY DRIVE","COLLINSVILLE","IL",62234,38.695571154,-89.991372321,285,"10 WHITE LILY DRIVE, COLLINSVILLE, IL, 62234","Match","Exact","10 WHITE LILY DR, COLLINSVILLE, IL, 62234",107733017,"L"
1786,"10 WHITEHEAD DRIVE","COVINGTON","GA",30016,33.534917874,-83.900782493,286,"10 WHITEHEAD DRIVE, COVINGTON, GA, 30016","Match","Exact","10 WHITEHEAD DR, COVINGTON, GA, 30016",23627669,"R"
1787,"10 WIDMAN COURT UNIT 201","SPRING VALLEY","NY",10977,41.1251348340001,-74.055820522,287,"10 WIDMAN COURT UNIT 201, SPRING VALLEY, NY, 10977","Match","Exact","10 WIDMAN CT, SPRING VALLEY, NY, 10977",618593001,"R"
1788,"10 WILLIS ST","PORTLAND","ME",4101,43.6692701320001,-70.249887174,288,"10 WILLIS ST, PORTLAND, ME, 4101","Match","Exact","10 WILLIS ST, PORTLAND, ME, 04101",78028431,"L"
1789,"10 WILLOW RD 108","MAPLE SHADE","NJ",8052,39.9390029640001,-74.969169606,289,"10 WILLOW RD 108, MAPLE SHADE, NJ, 8052","Match","Exact","10 WILLOW RD, MAPLE SHADE, NJ, 08052",642287577,"L"
1790,"10 WILLOW RD STE 246","MAPLE SHADE","NJ",8052,39.9390029640001,-74.969169606,290,"10 WILLOW RD STE 246, MAPLE SHADE, NJ, 8052","Match","Exact","10 WILLOW RD, MAPLE SHADE, NJ, 08052",642287577,"L"
1791,"10 WILLOW ROAD SUITE 207","MAPLE SHADE","NJ",8052,39.9390029640001,-74.969169606,291,"10 WILLOW ROAD SUITE 207, MAPLE SHADE, NJ, 8052","Match","Exact","10 WILLOW RD, MAPLE SHADE, NJ, 08052",642287577,"L"
1792,"10 WILSON RD","STOCKBRIDGE","GA",30281,33.5283421510001,-84.196939313,292,"10 WILSON RD, STOCKBRIDGE, GA, 30281","Match","Exact","10 WILSON RD, STOCKBRIDGE, GA, 30281",23189437,"L"
1793,"10 WINCHESTER DR","FAIRPORT","NY",14450,43.0947467550001,-77.4047402369999,293,"10 WINCHESTER DR, FAIRPORT, NY, 14450","Match","Exact","10 WINCHESTER DR, FAIRPORT, NY, 14450",14549474,"R"
1794,"10 WINCHESTER TERRACE","JAMAICA PLAIN","MA",2130,42.303606922,-71.126589256,294,"10 WINCHESTER TERRACE, JAMAICA PLAIN, MA, 2130","Match","Exact","10 WINCHESTER TER, JAMAICA PLAIN, MA, 02130",85718204,"L"
1795,"10 WIND RD NW","ALBUQUERQUE","NM",87120,35.142415677,-106.697611889,295,"10 WIND RD NW, ALBUQUERQUE, NM, 87120","Match","Exact","10 WIND RD NW, ALBUQUERQUE, NM, 87120",627952854,"L"
1796,"10 WINDI HILL DRIVE","GREENSBURG","PA",15601,40.331543675,-79.545291657,296,"10 WINDI HILL DRIVE, GREENSBURG, PA, 15601","Match","Non_Exact","10 WINDIHILL DR, GREENSBURG, PA, 15601",630047572,"L"
1797,"10 WINDING WAY","MALVER","PA",19355,40.047090659,-75.533425885,297,"10 WINDING WAY, MALVER, PA, 19355","Match","Non_Exact","10 WINDING WAY, MALVERN, PA, 19355",179512956,"R"
1798,"10 WINROCK PL","THE WOODLANDS","TX",77382,30.2079363660001,-95.509062318,298,"10 WINROCK PL, THE WOODLANDS, TX, 77382","Match","Exact","10 WINROCK PL, THE WOODLANDS, TX, 77382",79318601,"R"
1799,"10 WINTER STREET SUITE 6","HARTFORD","CT",6120,41.778816378,-72.681376684,299,"10 WINTER STREET SUITE 6, HARTFORD, CT, 6120","Match","Exact","10 WINTER ST, HARTFORD, CT, 06120",3494662,"R"
1800,"10 WINTHROP STREET","MILTON","MA",2186,42.2576104140001,-71.088625812,300,"10 WINTHROP STREET, MILTON, MA, 2186","Match","Exact","10 WINTHROP ST, MILTON, MA, 02186",87247305,"L"
1801,"10 WIXTEAD COURT","DOUGLAS","MA",1516,42.077302436,-71.7145689239999,301,"10 WIXTEAD COURT, DOUGLAS, MA, 1516","Match","Exact","10 WIXTEAD CT, DOUGLAS, MA, 01516",40151012,"L"
1802,"10 WOLVERINE COVE","SARDINIA","OH",45171,38.9327762350001,-83.771804731,302,"10 WOLVERINE COVE, SARDINIA, OH, 45171","Match","Exact","10 WOLVERINE COVE, SARDINIA, OH, 45171",100968218,"R"
1803,"10 WOOD CIRCLE","OCEAN VIEW","DE",19970,NA,NA,303,"10 WOOD CIRCLE, OCEAN VIEW, DE, 19970","No_Match",NA,NA,NA,NA
1804,"10 WOOD ST","WAYNE","NJ",7470,40.9024543790001,-74.265585433,304,"10 WOOD ST, WAYNE, NJ, 7470","Match","Exact","10 WOOD ST, WAYNE, NJ, 07470",65259032,"L"
1805,"10 WOODBRIDGE COURT","TRABUCO CANYON","CA",92679,33.641551559,-117.569707545,305,"10 WOODBRIDGE COURT, TRABUCO CANYON, CA, 92679","Match","Exact","10 WOODBRIDGE CT, TRABUCO CANYON, CA, 92679",144390039,"L"
1806,"10 WOODBROOK ROAD","PLEASANTVILLE","NY",10570,41.1335327260001,-73.761039534,306,"10 WOODBROOK ROAD, PLEASANTVILLE, NY, 10570","Match","Exact","10 WOODBROOK RD, PLEASANTVILLE, NY, 10570",139736767,"R"
1807,"10 WOODFALL ROAD","MEDFIELD","MA",2052,42.2120528730001,-71.327764902,307,"10 WOODFALL ROAD, MEDFIELD, MA, 2052","Match","Exact","10 WOODFALL RD, MEDFIELD, MA, 02052",87237374,"R"
1808,"10 WRIGHT CIRCLE","NEWARK","DE",19702,39.645944312,-75.6705738379999,308,"10 WRIGHT CIRCLE, NEWARK, DE, 19702","Match","Exact","10 WRIGHT CIR, NEWARK, DE, 19702",187278683,"R"
1809,"10 WYCKOFF PLACE","WOODMERE","NY",11598,40.628667056,-73.711137637,309,"10 WYCKOFF PLACE, WOODMERE, NY, 11598","Match","Exact","10 WYCKOFF PL, WOODMERE, NY, 11598",147677772,"R"
1810,"10 YACHT CLUB DR","HILTON HEAD","SC",29926,32.2180031990001,-80.779826352,310,"10 YACHT CLUB DR, HILTON HEAD, SC, 29926","Match","Exact","10 YACHT CLUB DR, HILTON HEAD, SC, 29926",635578183,"R"
1811,"10 YALE BLVD","NEW HYDE PARK","NY",11040,40.744182289,-73.686041949,311,"10 YALE BLVD, NEW HYDE PARK, NY, 11040","Match","Exact","10 YALE BLVD, NEW HYDE PARK, NY, 11040",147665942,"L"
1812,"10 YEAR","FREEHOLD","NJ",7728,NA,NA,312,"10 YEAR, FREEHOLD, NJ, 7728","No_Match",NA,NA,NA,NA
1813,"10 YELLOWSTONE AVE","BILLINGS","MT",59101,45.7791384590001,-108.515769083,313,"10 YELLOWSTONE AVE, BILLINGS, MT, 59101","Match","Exact","10 YELLOWSTONE AVE, BILLINGS, MT, 59101",181477386,"L"
1814,"10-11 162ND ST  APT 3B","WHITESTONE","NY",11357,40.791778789,-73.799937465,314,"10-11 162ND ST  APT 3B, WHITESTONE, NY, 11357","Match","Exact","10-11 162ND ST, WHITESTONE, NY, 11357",59701711,"L"
1815,"10-11 162ND ST 3-B","WHITESTONE","NY",11357,40.791778789,-73.799937465,315,"10-11 162ND ST 3-B, WHITESTONE, NY, 11357","Match","Exact","10-11 162ND ST, WHITESTONE, NY, 11357",59701711,"L"
1816,"10-12 EAST 130TH STREET","NEW YORK","NY",10037,40.809428639,-73.939595211,316,"10-12 EAST 130TH STREET, NEW YORK, NY, 10037","Match","Exact","10 E 130TH ST, NEW YORK, NY, 10037",642471856,"R"
1817,"10-20 WASHINGTON AVE","IRVINGTON","NJ",7111,40.7266734680001,-74.226210635,317,"10-20 WASHINGTON AVE, IRVINGTON, NJ, 7111","Match","Exact","10 WASHINGTON AVE, IRVINGTON, NJ, 07111",641171138,"R"
1818,"10-22 5TH STREET","FAIR LAWN","NJ",7410,40.9285438910001,-74.132595881,318,"10-22 5TH STREET, FAIR LAWN, NJ, 7410","Match","Exact","10-22 5TH ST, FAIR LAWN, NJ, 07410",64405864,"L"
1819,"10-5 ARTHUR DR","SOUTH WINDSOR","CT",6074,NA,NA,319,"10-5 ARTHUR DR, SOUTH WINDSOR, CT, 6074","Tie",NA,NA,NA,NA
1820,"10","JONESBORO","AR",72401,NA,NA,320,"10, JONESBORO, AR, 72401","No_Match",NA,NA,NA,NA
1821,"10","NASHVILLE","TN",37217,NA,NA,321,"10, NASHVILLE, TN, 37217","No_Match",NA,NA,NA,NA
1822,"10","RALEIGH","NC",27603,NA,NA,322,"10, RALEIGH, NC, 27603","No_Match",NA,NA,NA,NA
1823,"10","ST LOUIS","MO",63113,NA,NA,323,"10, ST LOUIS, MO, 63113","No_Match",NA,NA,NA,NA
1824,"100  PHELPS AVENUE","NORTH ADAMS","MA",1247,42.696177392,-73.1566351019999,324,"100  PHELPS AVENUE, NORTH ADAMS, MA, 1247","Match","Exact","100 PHELPS AVE, NORTH ADAMS, MA, 01247",3915250,"R"
1825,"100 09 METROPOLITAN AVE","FOREST HILLS","NY",11375,NA,NA,325,"100 09 METROPOLITAN AVE, FOREST HILLS, NY, 11375","No_Match",NA,NA,NA,NA
1826,"100 10 MILE RD NW","SPARTA","MI",49345,43.116617498,-85.673108951,326,"100 10 MILE RD NW, SPARTA, MI, 49345","Match","Exact","100 10 MILE RD NW, SPARTA, MI, 49345",12450500,"R"
1827,"100 10TH STREET W","BRADENTON","FL",34205,27.4989951520001,-82.57194634,327,"100 10TH STREET W, BRADENTON, FL, 34205","Match","Exact","100 10TH ST W, BRADENTON, FL, 34205",16234445,"R"
1828,"100 11TH AVENUE SUITE 5A","NEW YORK","NY",10011,40.7461128040001,-74.007970831,328,"100 11TH AVENUE SUITE 5A, NEW YORK, NY, 10011","Match","Exact","100 11TH AVE, NEW YORK, NY, 10011",639467508,"R"
1829,"100 11TH AVENUE SW","BIRMINGHAM","AL",35211,33.4840183900001,-86.833350025,329,"100 11TH AVENUE SW, BIRMINGHAM, AL, 35211","Match","Exact","100 11TH AVE SW, BIRMINGHAM, AL, 35211",81580785,"R"
1830,"100 12TH ST NW","NEW PRAGUE","MN",56071,44.5579095350001,-93.5735782359999,330,"100 12TH ST NW, NEW PRAGUE, MN, 56071","Match","Non_Exact","100 12TH ST NE, NEW PRAGUE, MN, 56071",646671259,"R"
1831,"100 140TH AVE SE","BELLEVUE","WA",98005,47.608925002,-122.153504308,331,"100 140TH AVE SE, BELLEVUE, WA, 98005","Match","Exact","100 140TH AVE SE, BELLEVUE, WA, 98005",186613360,"L"
1832,"100 177TH AVE SW","MINOT","ND",58701,48.0518699250001,-101.297789359,332,"100 177TH AVE SW, MINOT, ND, 58701","Match","Exact","100 177TH AVE SW, MINOT, ND, 58701",200518863,"L"
1833,"100 17TH AVE W","SHAKOPEE","MN",55379,NA,NA,333,"100 17TH AVE W, SHAKOPEE, MN, 55379","No_Match",NA,NA,NA,NA
1834,"100 17TH AVE WEST","SHAKOPEE","MN",55379,NA,NA,334,"100 17TH AVE WEST, SHAKOPEE, MN, 55379","No_Match",NA,NA,NA,NA
1835,"100 17TH AVENUE WEST","SHAKOPEE","MN",55379,NA,NA,335,"100 17TH AVENUE WEST, SHAKOPEE, MN, 55379","No_Match",NA,NA,NA,NA
1836,"100 19TH AVENUE SOUTH","SAINT PETERSBURG","FL",33705,27.751616778,-82.633965491,336,"100 19TH AVENUE SOUTH, SAINT PETERSBURG, FL, 33705","Match","Exact","100 19TH AVE S, SAINT PETERSBURG, FL, 33705",124713769,"L"
1837,"100 24TH STREET SOUTH SUITE 1-134","BILLINGS","MT",59102,45.772117918,-108.57623815,337,"100 24TH STREET SOUTH SUITE 1-134, BILLINGS, MT, 59102","Match","Non_Exact","100 24TH ST W, BILLINGS, MT, 59102",181474570,"L"
1838,"100 39TH STREET","ASTORIA","OR",97103,46.194941666,-123.798609831,338,"100 39TH STREET, ASTORIA, OR, 97103","Match","Exact","100 39TH ST, ASTORIA, OR, 97103",642914099,"R"
1839,"100 3RD AVE S SUITE 1305","MINNEAPOLIS","MN",55401,44.981882393,-93.262512277,339,"100 3RD AVE S SUITE 1305, MINNEAPOLIS, MN, 55401","Match","Exact","100 3RD AVE S, MINNEAPOLIS, MN, 55401",43631977,"R"
1840,"100 43RD ST SUITE 111","PITTSBURGH","PA",15201,40.4734253170001,-79.9642205869999,340,"100 43RD ST SUITE 111, PITTSBURGH, PA, 15201","Match","Exact","100 43RD ST, PITTSBURGH, PA, 15201",51642250,"R"
1841,"100 57TH STREET SE","WASHINGTON","DC",20019,38.88779713,-76.918193703,341,"100 57TH STREET SE, WASHINGTON, DC, 20019","Match","Exact","100 57TH ST SE, WASHINGTON, DC, 20019",76234167,"L"
1842,"100 5TH ST STE 2W","BRISTOL","TN",37620,36.5772735790001,-82.17046229,342,"100 5TH ST STE 2W, BRISTOL, TN, 37620","Match","Exact","100 5TH ST, BRISTOL, TN, 37620",615434160,"L"
1843,"100 5TH STREET  SUITE TWO WEST","BRISTOL","TN",37620,36.5772735790001,-82.17046229,343,"100 5TH STREET  SUITE TWO WEST, BRISTOL, TN, 37620","Match","Exact","100 5TH ST, BRISTOL, TN, 37620",615434160,"L"
1844,"100 6TH STREET NE UNIT 2103","ATLANTA","GA",30308,33.777357984,-84.384345979,344,"100 6TH STREET NE UNIT 2103, ATLANTA, GA, 30308","Match","Exact","100 6TH ST NE, ATLANTA, GA, 30308",650115108,"L"
1845,"100 78  STREET","NORTH BERGEN","NJ",7047,40.797493726,-73.999935399,345,"100 78  STREET, NORTH BERGEN, NJ, 7047","Match","Exact","100 78TH ST, NORTH BERGEN, NJ, 07047",59599810,"R"
1846,"100 7TH AVE NORTH","NASHVILLE","TN",37203,36.1602225250001,-86.781417022,346,"100 7TH AVE NORTH, NASHVILLE, TN, 37203","Match","Exact","100 7TH AVE N, NASHVILLE, TN, 37203",617928987,"R"
1847,"100 7TH AVENUE SUITE 150","CHARDON","OH",44024,41.5909844870001,-81.219626588,347,"100 7TH AVENUE SUITE 150, CHARDON, OH, 44024","Match","Exact","100 7TH AVE, CHARDON, OH, 44024",137447983,"L"
1848,"100 8TH AVE APT 4C","BROOKLYN","NY",11215,40.672806753,-73.973423845,348,"100 8TH AVE APT 4C, BROOKLYN, NY, 11215","Match","Exact","100 8TH AVE, BROOKLYN, NY, 11215",59078223,"R"
1849,"100 8TH AVE SE","OELWEIN","IA",50662,42.6769111020001,-91.902595855,349,"100 8TH AVE SE, OELWEIN, IA, 50662","Match","Exact","100 8TH AVE SE, OELWEIN, IA, 50662",639542063,"L"
1850,"100 9TH AVENUE","HADDON HEIGHTS","NJ",8035,39.8817394700001,-75.06448947,350,"100 9TH AVENUE, HADDON HEIGHTS, NJ, 8035","Match","Exact","100 9TH AVE, HADDON HEIGHTS, NJ, 08035",134351796,"R"
1851,"100 ACADEMIC WAY","STRATHAM","NH",3885,NA,NA,351,"100 ACADEMIC WAY, STRATHAM, NH, 3885","No_Match",NA,NA,NA,NA
1852,"100 ACADEMY AVE","WOODBURY HEIGHTS","NJ",8097,39.8165377780001,-75.149948319,352,"100 ACADEMY AVE, WOODBURY HEIGHTS, NJ, 8097","Match","Exact","100 ACADEMY AVE, WOODBURY HTS, NJ, 08097",134584527,"R"
1853,"100 ACADEMY DR","MERCERSBURG","PA",17236,NA,NA,353,"100 ACADEMY DR, MERCERSBURG, PA, 17236","No_Match",NA,NA,NA,NA
1854,"100 ACADEMY DRIVE","OLIVE BRANCH","MS",38654,NA,NA,354,"100 ACADEMY DRIVE, OLIVE BRANCH, MS, 38654","No_Match",NA,NA,NA,NA
1855,"100 ACCESS ROAD SUITE 215","NORWOOD","MA",2062,42.186096923,-71.178045093,355,"100 ACCESS ROAD SUITE 215, NORWOOD, MA, 2062","Match","Exact","100 ACCESS RD, NORWOOD, MA, 02062",648756488,"L"
1856,"100 ADA MAE CT","GEORGETOWN","KY",40324,38.2097963580001,-84.585176557,356,"100 ADA MAE CT, GEORGETOWN, KY, 40324","Match","Exact","100 ADA MAE CT, GEORGETOWN, KY, 40324",618465356,"L"
1857,"100 ADAMS STREET","COATSBURG","IL",62325,40.030811821,-91.1573860239999,357,"100 ADAMS STREET, COATSBURG, IL, 62325","Match","Exact","100 ADAMS ST, COATSBURG, IL, 62325",35074631,"R"
1858,"100 ADMIRAL CALLAGHAN LN 5493","VALLEJO","CA",94591,38.11200927,-122.229215432,358,"100 ADMIRAL CALLAGHAN LN 5493, VALLEJO, CA, 94591","Match","Exact","100 ADMIRAL CALLAGHAN LN, VALLEJO, CA, 94591",649681955,"R"
1859,"100 ADMIRAL CALLAGHAN LN UNIT 9351","VALLEJO","CA",94591,38.11200927,-122.229215432,359,"100 ADMIRAL CALLAGHAN LN UNIT 9351, VALLEJO, CA, 94591","Match","Exact","100 ADMIRAL CALLAGHAN LN, VALLEJO, CA, 94591",649681955,"R"
1860,"100 ADRIANA LANE","HUTTO","OK",78634,NA,NA,360,"100 ADRIANA LANE, HUTTO, OK, 78634","No_Match",NA,NA,NA,NA
1861,"100 ADRIS PL","DOTHAN","AL",36303,31.2436468060001,-85.457860308,361,"100 ADRIS PL, DOTHAN, AL, 36303","Match","Exact","100 ADRIS PL, DOTHAN, AL, 36303",101242318,"R"
1862,"100 ADRIS PLACE","DOTHAN","AL",36303,31.2436468060001,-85.457860308,362,"100 ADRIS PLACE, DOTHAN, AL, 36303","Match","Exact","100 ADRIS PL, DOTHAN, AL, 36303",101242318,"R"
1863,"100 ALAMEDA AVENUE","CUYAHOGA FALLS","OH",44221,41.158147872,-81.482144363,363,"100 ALAMEDA AVENUE, CUYAHOGA FALLS, OH, 44221","Match","Exact","100 ALAMEDA AVE, CUYAHOGA FALLS, OH, 44221",61348447,"R"
1864,"100 ALBERT WAY APT 1309","PRINCETON","NJ",8540,NA,NA,364,"100 ALBERT WAY APT 1309, PRINCETON, NJ, 8540","No_Match",NA,NA,NA,NA
1865,"100 ALDRICH STREET 20J","BRONX","NY",10475,NA,NA,365,"100 ALDRICH STREET 20J, BRONX, NY, 10475","Tie",NA,NA,NA,NA
1866,"100 ALDRICH STREET","BRONX","NY",10475,NA,NA,366,"100 ALDRICH STREET, BRONX, NY, 10475","Tie",NA,NA,NA,NA
1867,"100 ALEXAN DRIVE","SIMPSONVILLE","SC",29681,34.7876630120001,-82.222293408,367,"100 ALEXAN DRIVE, SIMPSONVILLE, SC, 29681","Match","Exact","100 ALEXAN DR, SIMPSONVILLE, SC, 29681",636734945,"R"
1868,"100 ALMADOR","IRVINE","CA",92614,33.6751112640001,-117.830421814,368,"100 ALMADOR, IRVINE, CA, 92614","Match","Exact","100 ALMADOR, IRVINE, CA, 92614",144095949,"R"
1869,"100 AMANDA LANE","MEDIA","PA",19063,39.9118415940001,-75.386464931,369,"100 AMANDA LANE, MEDIA, PA, 19063","Match","Exact","100 AMANDA LN, MEDIA, PA, 19063",624887451,"L"
1870,"100 ANDOVER PARK W SUITE 150-179","TUKWILA","WA",98188,47.4598355270001,-122.25436148,370,"100 ANDOVER PARK W SUITE 150-179, TUKWILA, WA, 98188","Match","Exact","100 ANDOVER PARK W, TUKWILA, WA, 98188",653502503,"L"
1871,"100 ANDOVER PARK W UNIT 150-BOX 351","TUKWILLA","WA",98188,47.4598355270001,-122.25436148,371,"100 ANDOVER PARK W UNIT 150-BOX 351, TUKWILLA, WA, 98188","Match","Non_Exact","100 ANDOVER PARK W, TUKWILA, WA, 98188",653502503,"L"
1872,"100 ANTWERP DRIVE","HICKSVILLE","OH",43526,41.2899837320001,-84.766745353,372,"100 ANTWERP DRIVE, HICKSVILLE, OH, 43526","Match","Exact","100 ANTWERP DR, HICKSVILLE, OH, 43526",639282215,"L"
1873,"100 AQUA WAY STE 510","NEWPORT","KY",41071,NA,NA,373,"100 AQUA WAY STE 510, NEWPORT, KY, 41071","No_Match",NA,NA,NA,NA
1874,"100 ARKSEN AVE","CAMDEN","AR",71701,NA,NA,374,"100 ARKSEN AVE, CAMDEN, AR, 71701","No_Match",NA,NA,NA,NA
1875,"100 ARLINGTON AVE SUITE 102","NASHVILLE","TN",37210,36.1379372160001,-86.7338464809999,375,"100 ARLINGTON AVE SUITE 102, NASHVILLE, TN, 37210","Match","Exact","100 ARLINGTON AVE, NASHVILLE, TN, 37210",97192583,"L"
1876,"100 ARLINGTON AVE","PATERSON","NJ",7502,40.9147409130001,-74.19743289,376,"100 ARLINGTON AVE, PATERSON, NJ, 7502","Match","Exact","100 ARLINGTON AVE, PATERSON, NJ, 07502",65260629,"R"
1877,"100 ARMSTRONG AVE","ROCHESTER","NY",14617,43.2033782930001,-77.6167121029999,377,"100 ARMSTRONG AVE, ROCHESTER, NY, 14617","Match","Exact","100 ARMSTRONG AVE, ROCHESTER, NY, 14617",14531884,"L"
1878,"100 ARNOLD AVENUE","RIVER RIDGE","LA",70123,29.9658292610001,-90.2297422409999,378,"100 ARNOLD AVENUE, RIVER RIDGE, LA, 70123","Match","Exact","100 ARNOLD AVE, RIVER RIDGE, LA, 70123",93549334,"L"
1879,"100 ARNOLD WAY","SOUTH WINDSOR","CT",6074,41.8292532890001,-72.523828766,379,"100 ARNOLD WAY, SOUTH WINDSOR, CT, 6074","Match","Exact","100 ARNOLD WAY, SOUTH WINDSOR, CT, 06074",3491993,"L"
1880,"100 ARROWHEAD DRIVE","ALGONQUIN","IL",60102,42.1748251700001,-88.2878399159999,380,"100 ARROWHEAD DRIVE, ALGONQUIN, IL, 60102","Match","Exact","100 ARROWHEAD DR, ALGONQUIN, IL, 60102",119825934,"L"
1881,"100 ASBURY COURT","WINCHESTER","VA",22602,39.1801608370001,-78.113139815,381,"100 ASBURY COURT, WINCHESTER, VA, 22602","Match","Exact","100 ASBURY CT, WINCHESTER, VA, 22602",55586168,"R"
1882,"100 ATLANTIC AVE","WAXAHACHIE","TX",75165,32.4094501590001,-96.817840345,382,"100 ATLANTIC AVE, WAXAHACHIE, TX, 75165","Match","Exact","100 ATLANTIC AVE, WAXAHACHIE, TX, 75165",613758930,"L"
1883,"100 ATWELLS AVE APT 402","PROVIDENCE","RI",2903,41.8231110190001,-71.420619041,383,"100 ATWELLS AVE APT 402, PROVIDENCE, RI, 2903","Match","Exact","100 ATWELLS AVE, PROVIDENCE, RI, 02903",47516040,"R"
1884,"100 AUBURN OAKS RD W","JACKSONVILLE","FL",32218,30.4341377800001,-81.6365960649999,384,"100 AUBURN OAKS RD W, JACKSONVILLE, FL, 32218","Match","Exact","100 AUBURN OAKS RD W, JACKSONVILLE, FL, 32218",641039616,"R"
1885,"100 AUGUSTA DRIVE","ELKTON","MD",21921,39.5583651050001,-75.803455135,385,"100 AUGUSTA DRIVE, ELKTON, MD, 21921","Match","Exact","100 AUGUSTA DR, ELKTON, MD, 21921",207855130,"L"
1886,"100 AUHANA ROAD UNIT 304","KIHEI","HI",96753,20.7292765070001,-156.448366792,386,"100 AUHANA ROAD UNIT 304, KIHEI, HI, 96753","Match","Exact","100 AUHANA RD, KIHEI, HI, 96753",85084750,"R"
1887,"100 AUSTIN STREET","PATCHOGUE","NY",11772,40.778283539,-73.014121543,387,"100 AUSTIN STREET, PATCHOGUE, NY, 11772","Match","Exact","100 AUSTIN ST, PATCHOGUE, NY, 11772",638246433,"R"
1888,"100 AUTUMN DR","BRISTOL","VA",24201,36.6173800940001,-82.185930194,388,"100 AUTUMN DR, BRISTOL, VA, 24201","Match","Exact","100 AUTUMN DR, BRISTOL, VA, 24201",154380205,"L"
1889,"100 AUTUMN LANE","GEORGETOWN","KY",40324,38.3180590010001,-84.564595955,389,"100 AUTUMN LANE, GEORGETOWN, KY, 40324","Match","Exact","100 AUTUMN LN, GEORGETOWN, KY, 40324",211986160,"R"
1890,"100 AVE LUIS MUNOZ MARIN","CAGUAS","PR",725,NA,NA,390,"100 AVE LUIS MUNOZ MARIN, CAGUAS, PR, 725","No_Match",NA,NA,NA,NA
1891,"100 AVIATION WAY","WATSONVILLE","CA",95076,36.931394583,-121.78967211,391,"100 AVIATION WAY, WATSONVILLE, CA, 95076","Match","Exact","100 AVIATION WAY, WATSONVILLE, CA, 95076",606005347,"L"
1892,"100 B PINE","MADISONVILLE","TX",77864,30.941850808,-95.928035071,392,"100 B PINE, MADISONVILLE, TX, 77864","Match","Non_Exact","100 PINE ST, MADISONVILLE, TX, 77864",21784855,"L"
1893,"100 BACK FORTY LOOP","WILLIAMSBURG","VA",23188,37.357540299,-76.6892653739999,393,"100 BACK FORTY LOOP, WILLIAMSBURG, VA, 23188","Match","Exact","100 BACK FORTY LOOP, WILLIAMSBURG, VA, 23188",635907509,"L"
1894,"100 BARRON CIR APT 4128","SOMERSET","NJ",8873,40.521876053,-74.4967277649999,394,"100 BARRON CIR APT 4128, SOMERSET, NJ, 8873","Match","Exact","100 BARRON CIR, SOMERSET, NJ, 08873",650285748,"L"
1895,"100 BARRYMORE BLVD","FRANKLIN SQ","NY",11010,40.7112721170001,-73.6834171309999,395,"100 BARRYMORE BLVD, FRANKLIN SQ, NY, 11010","Match","Exact","100 BARRYMORE BLVD, FRANKLIN SQ, NY, 11010",147667213,"R"
1896,"100 BARTLEY ST","HURLBURT FIELD","FL",32544,NA,NA,396,"100 BARTLEY ST, HURLBURT FIELD, FL, 32544","No_Match",NA,NA,NA,NA
1897,"100 BARTON RD","WINDSOR","NY",13865,42.0304807750001,-75.6775456829999,397,"100 BARTON RD, WINDSOR, NY, 13865","Match","Exact","100 BARTON RD, WINDSOR, NY, 13865",46371864,"L"
1898,"100 BASSWOOD LANE","VICTORIA","TX",77904,28.901246315,-97.077406208,398,"100 BASSWOOD LANE, VICTORIA, TX, 77904","Match","Non_Exact","100 BASSWOOD DR, VICTORIA, TX, 77904",44573495,"R"
1899,"100 BATTLETOWN DRIVE","BERRYVILLE","VA",22611,39.1483415880001,-77.965750019,399,"100 BATTLETOWN DRIVE, BERRYVILLE, VA, 22611","Match","Exact","100 BATTLETOWN DR, BERRYVILLE, VA, 22611",125891160,"L"
1900,"100 BAY ROAD","OCEAN CITY","NJ",8226,39.2925672040001,-74.564973021,400,"100 BAY ROAD, OCEAN CITY, NJ, 8226","Match","Exact","100 BAY RD, OCEAN CITY, NJ, 08226",174343354,"R"
1901,"100 BAYOU ONION LANE","THIBODAUX","LA",70301,29.8819674960001,-90.799073721,401,"100 BAYOU ONION LANE, THIBODAUX, LA, 70301","Match","Exact","100 BAYOU ONION LN, THIBODAUX, LA, 70301",92327351,"R"
1902,"100 BAYVIEW DRIVE  APT 2118","SUNNY ISLES BEACH","FL",33160,25.922390664,-80.122593393,402,"100 BAYVIEW DRIVE  APT 2118, SUNNY ISLES BEACH, FL, 33160","Match","Exact","100 BAYVIEW DR, SUNNY ISLES BEACH, FL, 33160",640558379,"L"
1903,"100 BEARCAT DR","BENTLEYVILE","PA",15314,40.127849504,-80.027824481,403,"100 BEARCAT DR, BENTLEYVILE, PA, 15314","Match","Non_Exact","100 BEARCAT DR, BENTLEYVILLE, PA, 15314",52835411,"R"
1904,"100 BEATRICE ST","GREENWOOD","MS",38930,33.5223968720001,-90.189166407,404,"100 BEATRICE ST, GREENWOOD, MS, 38930","Match","Exact","100 BEATRICE ST, GREENWOOD, MS, 38930",1048311,"R"
1905,"100 BEECHWOOD DRIVE","CRANSTON","RI",2921,41.7650822730001,-71.5358459249999,405,"100 BEECHWOOD DRIVE, CRANSTON, RI, 2921","Match","Exact","100 BEECHWOOD DR, CRANSTON, RI, 02921",645440079,"L"
1906,"100 BEEKMAN ST APT 10D","NEW YORK","NY",10038,40.7076411250001,-74.003070602,406,"100 BEEKMAN ST APT 10D, NEW YORK, NY, 10038","Match","Exact","100 BEEKMAN ST, NEW YORK, NY, 10038",59660537,"L"
1907,"100 BEHMER RD","PISCATAWAY","NJ",8854,40.546885113,-74.4656053259999,407,"100 BEHMER RD, PISCATAWAY, NJ, 8854","Match","Exact","100 BEHMER RD, PISCATAWAY, NJ, 08854",60317840,"R"
1908,"100 BEHMER ROAD","PISCATAWAY","NJ",8854,40.546885113,-74.4656053259999,408,"100 BEHMER ROAD, PISCATAWAY, NJ, 8854","Match","Exact","100 BEHMER RD, PISCATAWAY, NJ, 08854",60317840,"R"
1909,"100 BELKNAP ROAD","FRAMINGHAM","MA",1701,42.3113442490001,-71.441463942,409,"100 BELKNAP ROAD, FRAMINGHAM, MA, 1701","Match","Exact","100 BELKNAP RD, FRAMINGHAM, MA, 01701",87101595,"L"
1910,"100 BELLAMY LOOP UNIT 18G","BRONX","NY",10475,NA,NA,410,"100 BELLAMY LOOP UNIT 18G, BRONX, NY, 10475","Tie",NA,NA,NA,NA
1911,"100 BELLEGROVE DR","MCKINNEY","TX",75071,33.1968979390001,-96.670307333,411,"100 BELLEGROVE DR, MCKINNEY, TX, 75071","Match","Non_Exact","100 BELLGROVE DR, MCKINNEY, TX, 75071",623940225,"L"
1912,"100 BELLEVUE AVENUE","HAVERHILL","MA",1832,42.7772591820001,-71.0921613469999,412,"100 BELLEVUE AVENUE, HAVERHILL, MA, 1832","Match","Exact","100 BELLEVUE AVE, HAVERHILL, MA, 01832",636244397,"L"
1913,"100 BELLMORE AVENUE","PAINESVILLE","OH",44077,41.728490311,-81.21763373,413,"100 BELLMORE AVENUE, PAINESVILLE, OH, 44077","Match","Non_Exact","100 BELLMORE ST, PAINESVILLE, OH, 44077",633787743,"R"
1914,"100 BERKSHIRE DRIVE","COVINGTON","GA",30016,33.5444324860001,-83.9907435439999,414,"100 BERKSHIRE DRIVE, COVINGTON, GA, 30016","Match","Exact","100 BERKSHIRE DR, COVINGTON, GA, 30016",23626373,"R"
1915,"100 BERRY AVE","STATEN ISLAND","NY",10312,40.560539475,-74.175509373,415,"100 BERRY AVE, STATEN ISLAND, NY, 10312","Match","Exact","100 BERRY AVE, STATEN ISLAND, NY, 10312",59881651,"L"
1916,"100 BEVERLY HANKS CENTRE","HENDERSONVILLE","NC",28792,35.329744921,-82.468119907,416,"100 BEVERLY HANKS CENTRE, HENDERSONVILLE, NC, 28792","Match","Exact","100 BEVERLY HANKS CENTER, HENDERSONVILLE, NC, 28792",152308868,"L"
1917,"100 BICENTENNIAL CIRCLE STE133","SACRAMENTO","CA",95826,38.5511157560001,-121.405969094,417,"100 BICENTENNIAL CIRCLE STE133, SACRAMENTO, CA, 95826","Match","Exact","100 BICENTENNIAL CIR, SACRAMENTO, CA, 95826",133445748,"L"
1918,"100 BIOVENTURES CENTER RM W130","IOWA CITY","IA",52242,NA,NA,418,"100 BIOVENTURES CENTER RM W130, IOWA CITY, IA, 52242","No_Match",NA,NA,NA,NA
1919,"100 BISHOP COURT","EGG HARBOR TOWNSHIP","NJ",8234,39.37921751,-74.6720414709999,419,"100 BISHOP COURT, EGG HARBOR TOWNSHIP, NJ, 8234","Match","Exact","100 BISHOP CT, EGG HARBOR TOWNSHIP, NJ, 08234",202532994,"R"
1920,"100 BITTING RD","ALBURTIS","PA",18011,40.45029392,-75.651068241,420,"100 BITTING RD, ALBURTIS, PA, 18011","Match","Exact","100 BITTING RD, ALBURTIS, PA, 18011",80432852,"R"
1921,"100 BLACK KNOB VIEW","BISBEE","AZ",85605,31.4099290190001,-109.876373687,421,"100 BLACK KNOB VIEW, BISBEE, AZ, 85605","Match","Non_Exact","100 BLACK KNOB VW, BISBEE, AZ, 85603",120904601,"R"
1922,"100 BLACKSMITH ROAD","CAMP HILL","PA",17011,40.2151528160001,-76.886128347,422,"100 BLACKSMITH ROAD, CAMP HILL, PA, 17011","Match","Exact","100 BLACKSMITH RD, CAMP HILL, PA, 17011",60947614,"R"
1923,"100 BLANKET PASS","COVINGTON","GA",30016,33.6068684200001,-83.930041199,423,"100 BLANKET PASS, COVINGTON, GA, 30016","Match","Exact","100 BLANKET PASS, COVINGTON, GA, 30016",650755782,"R"
1924,"100 BLUFF TERRACE","SILVER SPRING","MD",20902,39.0417582490001,-77.010678866,424,"100 BLUFF TERRACE, SILVER SPRING, MD, 20902","Match","Exact","100 BLUFF TER, SILVER SPRING, MD, 20902",62064717,"L"
1925,"100 BOMONT PLACE","TOTOWA","NJ",7512,40.8952534950001,-74.2215056919999,425,"100 BOMONT PLACE, TOTOWA, NJ, 7512","Match","Exact","100 BOMONT PL, TOTOWA, NJ, 07512",65261118,"L"
1926,"100 BON TEMPS ROULE","MANDEVILLE","LA",70471,30.405228955,-90.127227507,426,"100 BON TEMPS ROULE, MANDEVILLE, LA, 70471","Match","Exact","100 BON TEMPS ROULE, MANDEVILLE, LA, 70471",111307717,"L"
1927,"100 BORDER ROAD","NEEDHAM","MA",2492,42.28673294,-71.247325296,427,"100 BORDER ROAD, NEEDHAM, MA, 2492","Match","Exact","100 BORDER RD, NEEDHAM, MA, 02492",87241101,"L"
1928,"100 BOTTOM ROAD","KINGS MOUNTAINS","NC",28086,35.2996919660001,-81.435114116,428,"100 BOTTOM ROAD, KINGS MOUNTAINS, NC, 28086","Match","Exact","100 BOTTOM RD, KINGS MOUNTAIN, NC, 28086",19339077,"R"
1929,"100 BOUHAN STREET","SAVANNAH","GA",31404,32.065296979,-81.077706421,429,"100 BOUHAN STREET, SAVANNAH, GA, 31404","Match","Exact","100 BOUHAN ST, SAVANNAH, GA, 31404",6190241,"R"
1930,"100 BOULANGER AVE","WEST HARTFORD","CT",6110,41.746722677,-72.718255211,430,"100 BOULANGER AVE, WEST HARTFORD, CT, 6110","Match","Exact","100 BOULANGER AVE, WEST HARTFORD, CT, 06110",3514020,"R"
1931,"100 BOULDERWOOD DRIVE","LIBERTY HILL","TX",78642,30.654687186,-98.003104324,431,"100 BOULDERWOOD DRIVE, LIBERTY HILL, TX, 78642","Match","Exact","100 BOULDERWOOD DR, LIBERTY HILL, TX, 78642",619996069,"L"
1932,"100 BOWIE ST UNIT 1","ABBEVILLE","SC",29620,34.1762908360001,-82.382346318,432,"100 BOWIE ST UNIT 1, ABBEVILLE, SC, 29620","Match","Exact","100 BOWIE ST, ABBEVILLE, SC, 29620",38258072,"L"
1933,"100 BOWMOOR BANK","PEACHTREE CITY","GA",30269,33.3888164470001,-84.5502042429999,433,"100 BOWMOOR BANK, PEACHTREE CITY, GA, 30269","Match","Exact","100 BOWMOOR BANK, PEACHTREE CITY, GA, 30269",75928010,"R"
1934,"100 BRANDEMERE CT","ELYRIA","OH",44035,41.385335302,-82.092252479,434,"100 BRANDEMERE CT, ELYRIA, OH, 44035","Match","Exact","100 BRANDEMERE CT, ELYRIA, OH, 44035",55420865,"R"
1935,"100 BRANDON COURT","THOMASVILLE","GA",31792,30.8170167810001,-83.995338708,435,"100 BRANDON COURT, THOMASVILLE, GA, 31792","Match","Exact","100 BRANDON CT, THOMASVILLE, GA, 31792",83129514,"R"
1936,"100 BRANDSHAW RD","LAKEWOOD","NJ",8701,NA,NA,436,"100 BRANDSHAW RD, LAKEWOOD, NJ, 8701","No_Match",NA,NA,NA,NA
1937,"100 BREWSTER DRIVE","GALLOWAY","NJ",8205,39.4858824300001,-74.473292251,437,"100 BREWSTER DRIVE, GALLOWAY, NJ, 8205","Match","Exact","100 BREWSTER DR, GALLOWAY, NJ, 08205",202525967,"R"
1938,"100 BRIAR BRAE RD","STAMFORD","CT",6903,41.158115536,-73.563788984,438,"100 BRIAR BRAE RD, STAMFORD, CT, 6903","Match","Exact","100 BRIAR BRAE RD, STAMFORD, CT, 06903",653165780,"L"
1939,"100 BRIDGEWATER DRIVE","PEACHTREE CITY","GA",30269,33.4212585990001,-84.596458404,439,"100 BRIDGEWATER DRIVE, PEACHTREE CITY, GA, 30269","Match","Exact","100 BRIDGEWATER DR, PEACHTREE CITY, GA, 30269",75942043,"R"
1940,"100 BRIGHTMOOR DR","FLORISSANT","MO",63033,38.7824877910001,-90.29461572,440,"100 BRIGHTMOOR DR, FLORISSANT, MO, 63033","Match","Exact","100 BRIGHTMOOR DR, FLORISSANT, MO, 63033",100145079,"R"
1941,"100 BROAD ST SW","ATLANTA","GA",30303,33.752180283,-84.3930162889999,441,"100 BROAD ST SW, ATLANTA, GA, 30303","Match","Exact","100 BROAD ST SW, ATLANTA, GA, 30303",17344300,"L"
1942,"100 BROAD ST","CAMDEN","AL",36726,31.994008912,-87.291973401,442,"100 BROAD ST, CAMDEN, AL, 36726","Match","Exact","100 BROAD ST, CAMDEN, AL, 36726",10820239,"R"
1943,"100 BROADWAY UNIT 110","LYNBROOK","NY",11563,40.653978652,-73.6766114489999,443,"100 BROADWAY UNIT 110, LYNBROOK, NY, 11563","Match","Exact","100 BROADWAY, LYNBROOK, NY, 11563",147670990,"L"
1944,"100 BROOKLET WAY","BROOKS","GA",30205,33.2779528740001,-84.461817867,444,"100 BROOKLET WAY, BROOKS, GA, 30205","Match","Exact","100 BROOKLET WAY, BROOKS, GA, 30205",75936748,"L"
1945,"100 BROOKLINE STREET","LYNN","MA",1902,42.4705157990001,-70.931026849,445,"100 BROOKLINE STREET, LYNN, MA, 1902","Match","Exact","100 BROOKLINE ST, LYNN, MA, 01902",86646233,"L"
1946,"100 BROOKSIDE AVE","ALLENDALE","NJ",7401,41.0289846850001,-74.1358881799999,446,"100 BROOKSIDE AVE, ALLENDALE, NJ, 7401","Match","Exact","100 BROOKSIDE AVE, ALLENDALE, NJ, 07401",64403381,"L"
1947,"100 BROWNS CREEK ROAD","GUNTERSVILLE","AL",35976,34.3633081880001,-86.345837145,447,"100 BROWNS CREEK ROAD, GUNTERSVILLE, AL, 35976","Match","Exact","100 BROWNS CREEK RD, GUNTERSVILLE, AL, 35976",99242429,"R"
1948,"100 BRUNSWICK AVENUE","SAINT SIMONS ISLAND","GA",31522,31.159777693,-81.388069119,448,"100 BRUNSWICK AVENUE, SAINT SIMONS ISLAND, GA, 31522","Match","Exact","100 BRUNSWICK AVE, ST SIMONS ISLAND, GA, 31522",9151237,"L"
1949,"100 BRYAN CHALK LANE","KNIGHTDALE","NC",27545,35.80806253,-78.472870894,449,"100 BRYAN CHALK LANE, KNIGHTDALE, NC, 27545","Match","Exact","100 BRYAN CHALK LN, KNIGHTDALE, NC, 27545",618724800,"L"
1950,"100 BUCKINGHAM PLACE","BRANDON","MS",39047,32.4214813780001,-89.965855728,450,"100 BUCKINGHAM PLACE, BRANDON, MS, 39047","Match","Exact","100 BUCKINGHAM PL, BRANDON, MS, 39047",116921136,"R"
1951,"100 BULL STREET SUITE 200","SAVANNAH","GA",31401,NA,NA,451,"100 BULL STREET SUITE 200, SAVANNAH, GA, 31401","No_Match",NA,NA,NA,NA
1952,"100 BULLDOG DRIVE","MANDEVILLE","LA",70471,NA,NA,452,"100 BULLDOG DRIVE, MANDEVILLE, LA, 70471","No_Match",NA,NA,NA,NA
1953,"100 BULLDOG DRIVE","SMYRNA","TN",37167,35.9585144660001,-86.505458285,453,"100 BULLDOG DRIVE, SMYRNA, TN, 37167","Match","Exact","100 BULLDOG DR, SMYRNA, TN, 37167",606767903,"L"
1954,"100 BULLOCK LN","MOSCOW","OH",45153,NA,NA,454,"100 BULLOCK LN, MOSCOW, OH, 45153","No_Match",NA,NA,NA,NA
1955,"100 BURBON STREET NUM 224","NEW ORLEANS","LA",70116,29.9539381160001,-90.069800035,455,"100 BURBON STREET NUM 224, NEW ORLEANS, LA, 70116","Match","Non_Exact","100 BOURBON ST, NEW ORLEANS, LA, 70112",191710846,"R"
1956,"100 BUSHMASTER BEND","BASTROP","TX",78602,30.1048502310001,-97.355203806,456,"100 BUSHMASTER BEND, BASTROP, TX, 78602","Match","Exact","100 BUSHMASTER BEND, BASTROP, TX, 78602",647723463,"L"
1957,"100 C DEL MUELLE  APT 1803","SAN JUAN","PR",901,NA,NA,457,"100 C DEL MUELLE  APT 1803, SAN JUAN, PR, 901","No_Match",NA,NA,NA,NA
1958,"100 CALYPSO DRIVE","BELLEVILLE","IL",62221,38.5310714140001,-89.9388295219999,458,"100 CALYPSO DRIVE, BELLEVILLE, IL, 62221","Match","Exact","100 CALYPSO DR, BELLEVILLE, IL, 62221",107928809,"R"
1959,"100 CAMAC RD","FAEYTTE","MS",39069,NA,NA,459,"100 CAMAC RD, FAEYTTE, MS, 39069","No_Match",NA,NA,NA,NA
1960,"100 CAMP ALLEGHENY DRIVE","STOYSTOWN","PA",15563,40.0721901530001,-78.868365207,460,"100 CAMP ALLEGHENY DRIVE, STOYSTOWN, PA, 15563","Match","Exact","100 CAMP ALLEGHENY DR, STOYSTOWN, PA, 15563",605668241,"R"
1961,"100 CAMPUS DR SWOSU PHARMACY","WEATHERFORD","OK",73096,NA,NA,461,"100 CAMPUS DR SWOSU PHARMACY, WEATHERFORD, OK, 73096","Tie",NA,NA,NA,NA
1962,"100 CAMPUS DR","WEATHERFORD","OK",73096,NA,NA,462,"100 CAMPUS DR, WEATHERFORD, OK, 73096","Tie",NA,NA,NA,NA
1963,"100 CAMPUS TOWN CIRCLE SUITE 103","EWING","NJ",8638,40.2689063170001,-74.7832245819999,463,"100 CAMPUS TOWN CIRCLE SUITE 103, EWING, NJ, 8638","Match","Exact","100 CAMPUS TOWN CIR, EWING, NJ, 08638",643034216,"L"
1964,"100 CANE BRAKE DR","COLUMBIA","SC",29223,34.1313872100001,-80.908809377,464,"100 CANE BRAKE DR, COLUMBIA, SC, 29223","Match","Exact","100 CANE BRAKE DR, COLUMBIA, SC, 29223",636784322,"L"
1965,"100 CANYON LANE","IRVING","TX",75063,32.9358875770001,-96.951016768,465,"100 CANYON LANE, IRVING, TX, 75063","Match","Exact","100 CANYON LN, IRVING, TX, 75063",102887758,"R"
1966,"100 CAPITAL AVE","FRANKFORT","KY",40601,38.1954804920001,-84.8742897449999,466,"100 CAPITAL AVE, FRANKFORT, KY, 40601","Match","Non_Exact","100 CAPITOL AVE, FRANKFORT, KY, 40601",97047192,"L"
1967,"100 CARDINAL DR","CANFIELD","OH",44406,41.0282269910001,-80.771930837,467,"100 CARDINAL DR, CANFIELD, OH, 44406","Match","Exact","100 CARDINAL DR, CANFIELD, OH, 44406",64615717,"L"
1968,"100 CARDINAL DRIVE","CANFIELD","OH",44406,41.0282269910001,-80.771930837,468,"100 CARDINAL DRIVE, CANFIELD, OH, 44406","Match","Exact","100 CARDINAL DR, CANFIELD, OH, 44406",64615717,"L"
1969,"100 CARILLON MARKET ST SUITE 100","PANAMA CITY BEACH","FL",32413,NA,NA,469,"100 CARILLON MARKET ST SUITE 100, PANAMA CITY BEACH, FL, 32413","Tie",NA,NA,NA,NA
1970,"100 CARLETON AVENUE SUITE 7","CENTRAL ISLIP","NY",11704,40.785137761,-73.200713456,470,"100 CARLETON AVENUE SUITE 7, CENTRAL ISLIP, NY, 11704","Match","Non_Exact","100 CARLETON AVE, CENTRAL ISLIP, NY, 11722",113989799,"L"
1971,"100 CARLOS DR","HUNTERSVILLE","NC",28078,35.4230639580001,-80.8457765369999,471,"100 CARLOS DR, HUNTERSVILLE, NC, 28078","Match","Exact","100 CARLOS DR, HUNTERSVILLE, NC, 28078",70522506,"L"
1972,"100 CARLSON CIRCLE","SAN MARCOS","TX",78666,29.9107384230001,-97.899713929,472,"100 CARLSON CIRCLE, SAN MARCOS, TX, 78666","Match","Exact","100 CARLSON CIR, SAN MARCOS, TX, 78666",63826471,"L"
1973,"100 CARPENTER  BLVD       DOOR 21B","CARPENTERSVILLE","IL",60110,42.1066863930001,-88.2817992189999,473,"100 CARPENTER  BLVD       DOOR 21B, CARPENTERSVILLE, IL, 60110","Match","Exact","100 CARPENTER BLVD, CARPENTERSVILLE, IL, 60110",119500445,"R"
1974,"100 CARR 115 POB 433","RINCON","PR",677,NA,NA,474,"100 CARR 115 POB 433, RINCON, PR, 677","No_Match",NA,NA,NA,NA
1975,"100 CARR 115 UNIT 1432","RINCON","PR",677,NA,NA,475,"100 CARR 115 UNIT 1432, RINCON, PR, 677","No_Match",NA,NA,NA,NA
1976,"100 CARR 115 UNIT 1798","RINCON","PR",677,NA,NA,476,"100 CARR 115 UNIT 1798, RINCON, PR, 677","No_Match",NA,NA,NA,NA
1977,"100 CARRADALE CT","ROSEVILLE","CA",95661,38.7686077230001,-121.226636073,477,"100 CARRADALE CT, ROSEVILLE, CA, 95661","Match","Exact","100 CARRADALE CT, ROSEVILLE, CA, 95661",608082563,"R"
1978,"100 CARRAWAY DRIVE","BEAUFORT","NC",28516,34.72867983,-76.6453409219999,478,"100 CARRAWAY DRIVE, BEAUFORT, NC, 28516","Match","Exact","100 CARRAWAY DR, BEAUFORT, NC, 28516",33869280,"R"
1979,"100 CARRIAGE PARK COURT","OXFORD","GA",30054,33.662168793,-83.9223540419999,479,"100 CARRIAGE PARK COURT, OXFORD, GA, 30054","Match","Exact","100 CARRIAGE PARK CT, OXFORD, GA, 30054",23626275,"R"
1980,"100 CARRY BAY LN","NORTH HERO","VT",5474,44.851063529,-73.280042511,480,"100 CARRY BAY LN, NORTH HERO, VT, 5474","Match","Exact","100 CARRY BAY LN, NORTH HERO, VT, 05474",136606580,"R"
1981,"100 CASCADE KY","BELLEVUE","WA",98006,47.57089202,-122.192514988,481,"100 CASCADE KY, BELLEVUE, WA, 98006","Match","Exact","100 CASCADE KEY, BELLEVUE, WA, 98006",186607913,"R"
1982,"100 CASS ST","GRISWOLD","IA",51535,NA,NA,482,"100 CASS ST, GRISWOLD, IA, 51535","No_Match",NA,NA,NA,NA
1983,"100 CASTLEBERRY CT  SUITE 447","MILFORD","OH",45150,39.183486536,-84.270810169,483,"100 CASTLEBERRY CT  SUITE 447, MILFORD, OH, 45150","Match","Exact","100 CASTLEBERRY CT, MILFORD, OH, 45150",118464858,"R"
1984,"100 CEDARHURST ROAD","LAWRENCEVILLE","GA",30045,33.946506798,-83.953519968,484,"100 CEDARHURST ROAD, LAWRENCEVILLE, GA, 30045","Match","Exact","100 CEDARHURST RD, LAWRENCEVILLE, GA, 30045",627527709,"R"
1985,"100 CENTER AVE","OAKLEY","KS",67748,39.1252695920001,-100.853759042,485,"100 CENTER AVE, OAKLEY, KS, 67748","Match","Exact","100 CENTER AVE, OAKLEY, KS, 67748",146627768,"R"
1986,"100 CENTER STREET","HANNIBAL","MO",63401,39.7110171960001,-91.355152993,486,"100 CENTER STREET, HANNIBAL, MO, 63401","Match","Exact","100 CENTER ST, HANNIBAL, MO, 63401",35336432,"R"
1987,"100 CENTRAL AVE","HILLSDALE","NJ",7642,41.006350701,-74.039909966,487,"100 CENTRAL AVE, HILLSDALE, NJ, 7642","Match","Exact","100 CENTRAL AVE, HILLSDALE, NJ, 07642",64368268,"R"
1988,"100 CENTRAL TEXAS EXPWY STE 307","HARKER HEIGHTS","TX",76548,NA,NA,488,"100 CENTRAL TEXAS EXPWY STE 307, HARKER HEIGHTS, TX, 76548","No_Match",NA,NA,NA,NA
1989,"100 CESTRIAN SQUARE P O BOX 484","CHESTER","SC",29706,34.702588598,-81.210516572,489,"100 CESTRIAN SQUARE P O BOX 484, CHESTER, SC, 29706","Match","Non_Exact","100 CESTRAIN SQ, CHESTER, SC, 29706",604949146,"L"
1990,"100 CHARDONAY CIR","BROUSSARD","LA",70518,30.1631966940001,-91.96041523,490,"100 CHARDONAY CIR, BROUSSARD, LA, 70518","Match","Non_Exact","100 CHARDONNAY CIR, BROUSSARD, LA, 70518",85629541,"R"
1991,"100 CHEROKEE BLVD - SUITE 121","CHATTANOOGA","TN",37405,35.0635859980001,-85.3103333399999,491,"100 CHEROKEE BLVD - SUITE 121, CHATTANOOGA, TN, 37405","Match","Exact","100 CHEROKEE BLVD, CHATTANOOGA, TN, 37405",59303769,"L"
1992,"100 CHESAPEAKE WAY","CHAPEL HILL","NC",27516,35.95127899,-79.0742026619999,492,"100 CHESAPEAKE WAY, CHAPEL HILL, NC, 27516","Match","Exact","100 CHESAPEAKE WAY, CHAPEL HILL, NC, 27516",72389839,"L"
1993,"100 CHESTERFIELD BUSN  PKY 2ND FL","ST LOUIS","MO",63005,NA,NA,493,"100 CHESTERFIELD BUSN  PKY 2ND FL, ST LOUIS, MO, 63005","No_Match",NA,NA,NA,NA
1994,"100 CHRISTIE HEIGHTS","LEONIA","NJ",7605,40.8701261790001,-73.989086749,494,"100 CHRISTIE HEIGHTS, LEONIA, NJ, 7605","Match","Exact","100 CHRISTIE HTS, LEONIA, NJ, 07605",641230677,"R"
1995,"100 CHUCKWAGON TRIAL","WILLOW PARK","TX",76087,32.736638876,-97.6382347639999,495,"100 CHUCKWAGON TRIAL, WILLOW PARK, TX, 76087","Match","Non_Exact","100 CHUCKWAGON TRL, WILLOW PARK, TX, 76087",103581357,"R"
1996,"100 CHURCH STREET RM 800","NEW YORK","NY",10007,40.7127732100001,-74.009639309,496,"100 CHURCH STREET RM 800, NEW YORK, NY, 10007","Match","Exact","100 CHURCH ST, NEW YORK, NY, 10007",59660362,"L"
1997,"100 CHURCH STREET SUITE 400","HUNTSVILLE","AL",35801,34.7297475030001,-86.588264483,497,"100 CHURCH STREET SUITE 400, HUNTSVILLE, AL, 35801","Match","Non_Exact","100 CHURCH ST SW, HUNTSVILLE, AL, 35801",58211387,"R"
1998,"100 CHURCH STREET SUITE 700","HUNTSVILLE","AL",35801,34.7297475030001,-86.588264483,498,"100 CHURCH STREET SUITE 700, HUNTSVILLE, AL, 35801","Match","Non_Exact","100 CHURCH ST SW, HUNTSVILLE, AL, 35801",58211387,"R"
1999,"100 CHURCH STREET","FAYETTEVILLE","WV",25840,38.053514765,-81.103011403,499,"100 CHURCH STREET, FAYETTEVILLE, WV, 25840","Match","Exact","100 CHURCH ST, FAYETTEVILLE, WV, 25840",75096786,"L"
2000,"100 CHURCH STREET","KISSIMMEE","FL",34741,28.2941744080001,-81.407158341,500,"100 CHURCH STREET, KISSIMMEE, FL, 34741","Match","Exact","100 CHURCH ST, KISSIMMEE, FL, 34741",176657586,"R"
