"ID","Address","City","State","Zip","lat","long","id","input_address","match_indicator","match_type","matched_address","tiger_line_id","tiger_side"
255501,"6020 SE 83 RD PL","OKLAHOMA","OK",73135,35.382629578,-97.418258911,1,"6020 SE 83 RD PL, OKLAHOMA, OK, 73135","Match","Non_Exact","6020 SE 83RD PL, OKLAHOMA CITY, OK, 73135",100444304,"R"
255502,"6020 TROTTERS GLEN DRIVE","HUGHESVILLE","MD",20637,38.546682661,-76.743410847,2,"6020 TROTTERS GLEN DRIVE, HUGHESVILLE, MD, 20637","Match","Exact","6020 TROTTERS GLEN DR, HUGHESVILLE, MD, 20637",25418736,"L"
255503,"6020 WOODRUN CT","MONTGOMERY","AL",36117,32.3481283740001,-86.203598341,3,"6020 WOODRUN CT, MONTGOMERY, AL, 36117","Match","Exact","6020 WOODRUN CT, MONTGOMERY, AL, 36117",1549940,"R"
255504,"60206 NINA DR","LACOMBE","LA",70445,NA,NA,4,"60206 NINA DR, LACOMBE, LA, 70445","No_Match",NA,NA,NA,NA
255505,"6021 BARTON DR","SHAWNEE","KS",66203,39.0201162120001,-94.7157119949999,5,"6021 BARTON DR, SHAWNEE, KS, 66203","Match","Exact","6021 BARTON DR, SHAWNEE, KS, 66203",91321528,"L"
255506,"6021 DALE DRIVE","MARION","MS",39342,32.422882019,-88.649069804,6,"6021 DALE DRIVE, MARION, MS, 39342","Match","Exact","6021 DALE DR, MARION, MS, 39342",607989673,"L"
255507,"6021 FOREST HIGHLANDS DRIVE","FORT WORTH","TX",76132,32.6633378430001,-97.433762917,7,"6021 FOREST HIGHLANDS DRIVE, FORT WORTH, TX, 76132","Match","Exact","6021 FOREST HIGHLANDS DR, FORT WORTH, TX, 76132",101950275,"R"
255508,"6021 FOXCROFT CT","MORROW","GA",30260,33.590069117,-84.351526647,8,"6021 FOXCROFT CT, MORROW, GA, 30260","Match","Exact","6021 FOXCROFT CT, MORROW, GA, 30260",625780790,"L"
255509,"6021 HARCOURT AVE","ORLANDO","FL",32809,28.470868954,-81.43318335,9,"6021 HARCOURT AVE, ORLANDO, FL, 32809","Match","Exact","6021 HARCOURT AVE, ORLANDO, FL, 32809",94274434,"L"
255510,"6021 JONATHAN AVE","FORT MYERS","FL",33905,26.6745334990001,-81.706813193,10,"6021 JONATHAN AVE, FORT MYERS, FL, 33905","Match","Exact","6021 JONATHAN AVE, FORT MYERS, FL, 33905",118055325,"R"
255511,"6021 LOUISBURG ROAD","RALEIGH","NC",27616,35.858903679,-78.551715918,11,"6021 LOUISBURG ROAD, RALEIGH, NC, 27616","Match","Exact","6021 LOUISBURG RD, RALEIGH, NC, 27616",633869041,"L"
255512,"6021 MERRYDALE DR","PADUCAH","KY",42003,37.0061152230001,-88.525360597,12,"6021 MERRYDALE DR, PADUCAH, KY, 42003","Match","Exact","6021 MERRYDALE DR, PADUCAH, KY, 42003",639610051,"R"
255513,"6021 MULLINS PRAIRIE LOOP","LA GRANGE","TX",78945,29.854481885,-96.792200639,13,"6021 MULLINS PRAIRIE LOOP, LA GRANGE, TX, 78945","Match","Exact","6021 MULLINS PRAIRIE LOOP, LA GRANGE, TX, 78945",42000639,"R"
255514,"6021 NW 44TH LN","COCONUT CREEK","FL",33073,26.304231434,-80.1833513569999,14,"6021 NW 44TH LN, COCONUT CREEK, FL, 33073","Match","Exact","6021 NW 44TH LN, COCONUT CREEK, FL, 33073",648618399,"L"
255515,"6021 NW FAVIAN AVENUE","PORT ST. LUCIE","FL",34986,27.345812231,-80.402294473,15,"6021 NW FAVIAN AVENUE, PORT ST. LUCIE, FL, 34986","Match","Exact","6021 NW FAVIAN AVE, PORT ST LUCIE, FL, 34986",120179803,"L"
255516,"6021 POLK STREET","TAYLOR","MI",48180,42.267189398,-83.2398436889999,16,"6021 POLK STREET, TAYLOR, MI, 48180","Match","Exact","6021 POLK ST, TAYLOR, MI, 48180",95445409,"L"
255517,"6021 PORTSMOUTH CT","MONTGOMERY","AL",36116,32.314466381,-86.213011289,17,"6021 PORTSMOUTH CT, MONTGOMERY, AL, 36116","Match","Exact","6021 PORTSMOUTH CT, MONTGOMERY, AL, 36116",1490014,"L"
255518,"6021 S 127TH ST E","DERBY","KS",67037,37.58409556,-97.189514789,18,"6021 S 127TH ST E, DERBY, KS, 67037","Match","Exact","6021 S 127TH ST E, DERBY, KS, 67037",115708093,"R"
255519,"6021 SILVER KING BLVD","CAPE CORAL","FL",33914,26.5408432290001,-82.001124702,19,"6021 SILVER KING BLVD, CAPE CORAL, FL, 33914","Match","Exact","6021 SILVER KING BLVD, CAPE CORAL, FL, 33914",637513656,"L"
255520,"6021 SUNSET LAKE TRAIL","EAGLE RIVER","WI",54521,NA,NA,20,"6021 SUNSET LAKE TRAIL, EAGLE RIVER, WI, 54521","No_Match",NA,NA,NA,NA
255521,"6021 TRINITY COURT","ROANOKE","VA",24018,37.223605981,-80.034912488,21,"6021 TRINITY COURT, ROANOKE, VA, 24018","Match","Exact","6021 TRINITY CT, ROANOKE, VA, 24018",62918240,"R"
255522,"6021 WEST ROSIE LANE SE","MABLETON","GA",30126,33.8087037760001,-84.519382659,22,"6021 WEST ROSIE LANE SE, MABLETON, GA, 30126","Match","Non_Exact","6021 ROSIE LN SE, MABLETON, GA, 30126",17219067,"L"
255523,"6022 AKIN ELM 782","SAN ANTONIO","TX",78261,29.6505044200001,-98.369940605,23,"6022 AKIN ELM 782, SAN ANTONIO, TX, 78261","Match","Exact","6022 AKIN ELM, SAN ANTONIO, TX, 78261",651698671,"R"
255524,"6022 ANDOVER BLVD","GARFILED HTS","OH",44125,41.4018466430001,-81.602539784,24,"6022 ANDOVER BLVD, GARFILED HTS, OH, 44125","Match","Non_Exact","6022 ANDOVER BLVD, GARFIELD HEIGHTS, OH, 44125",645574839,"R"
255525,"6022 BLUE RIDGE DRIVE APT A","HIGHLANDS RANCH","CO",80130,39.5594128180001,-104.910753013,25,"6022 BLUE RIDGE DRIVE APT A, HIGHLANDS RANCH, CO, 80130","Match","Exact","6022 BLUE RIDGE DR, HIGHLANDS RANCH, CO, 80130",130842517,"R"
255526,"6022 CALUMET AVE","HAMMOND","IN",46320,41.6038053440001,-87.508925587,26,"6022 CALUMET AVE, HAMMOND, IN, 46320","Match","Exact","6022 CALUMET AVE, HAMMOND, IN, 46320",98417145,"R"
255527,"6022 CAROLINA CIRCLE","STOCKTON","CA",95219,37.99918525,-121.35288771,27,"6022 CAROLINA CIRCLE, STOCKTON, CA, 95219","Match","Exact","6022 CAROLINA CIR, STOCKTON, CA, 95219",640551588,"L"
255528,"6022 CHAPARRAL AVE","SARASOTA","FL",34243,27.420551249,-82.4841267689999,28,"6022 CHAPARRAL AVE, SARASOTA, FL, 34243","Match","Exact","6022 CHAPARRAL AVE, SARASOTA, FL, 34243",16262560,"L"
255529,"6022 COVENTRY FALLS","HOUSTON","TX",77084,29.8604522810001,-95.673190103,29,"6022 COVENTRY FALLS, HOUSTON, TX, 77084","Match","Exact","6022 COVENTRY FALLS, HOUSTON, TX, 77084",96557590,"R"
255530,"6022 KENNEDY AVE","EXPORT","PA",15632,40.41565775,-79.618997092,30,"6022 KENNEDY AVE, EXPORT, PA, 15632","Match","Exact","6022 KENNEDY AVE, EXPORT, PA, 15632",52970275,"L"
255531,"6022 MARQUETTE RD","BALTIMORE","MD",21206,39.3271061020001,-76.527684515,31,"6022 MARQUETTE RD, BALTIMORE, MD, 21206","Match","Exact","6022 MARQUETTE RD, BALTIMORE, MD, 21206",191524748,"L"
255532,"6022 S GALENA COURT","ENGLEWOOD","CO",80111,39.6072102860001,-104.869169558,32,"6022 S GALENA COURT, ENGLEWOOD, CO, 80111","Match","Exact","6022 S GALENA CT, ENGLEWOOD, CO, 80111",177346306,"R"
255533,"6022 SMOKE RANCH RD","LAS VEGAS","NV",89108,36.2030806390001,-115.22440592,33,"6022 SMOKE RANCH RD, LAS VEGAS, NV, 89108","Match","Exact","6022 SMOKE RANCH RD, LAS VEGAS, NV, 89108",201897274,"R"
255534,"6022 W BELMONT AVE","CHICAGO","IL",60634,41.938446942,-87.776874354,34,"6022 W BELMONT AVE, CHICAGO, IL, 60634","Match","Exact","6022 W BELMONT AVE, CHICAGO, IL, 60634",111751645,"R"
255535,"6022 W ROBIN LN","GLENDALE","AZ",85310,33.6864481120001,-112.190322571,35,"6022 W ROBIN LN, GLENDALE, AZ, 85310","Match","Exact","6022 W ROBIN LN, GLENDALE, AZ, 85310",128386236,"L"
255536,"6022 WEST MELROSE STREET","CHICAGO","IL",60634,41.9393636070001,-87.776901061,36,"6022 WEST MELROSE STREET, CHICAGO, IL, 60634","Match","Exact","6022 W MELROSE ST, CHICAGO, IL, 60634",111751615,"R"
255537,"6023 FORT HUNT ROAD","ALEXANDRIA","VA",22307,38.787580866,-77.060892816,37,"6023 FORT HUNT ROAD, ALEXANDRIA, VA, 22307","Match","Exact","6023 FORT HUNT RD, ALEXANDRIA, VA, 22307",76056689,"L"
255538,"6023 GREENLEAF AVENUE APARTMENT C","WHITTIER","CA",90601,33.9878315060001,-118.037341353,38,"6023 GREENLEAF AVENUE APARTMENT C, WHITTIER, CA, 90601","Match","Exact","6023 GREENLEAF AVE, WHITTIER, CA, 90601",141747752,"R"
255539,"6023 IRONWOOD DRIVE","BILLINGS","MT",59106,45.816849792,-108.670223298,39,"6023 IRONWOOD DRIVE, BILLINGS, MT, 59106","Match","Exact","6023 IRONWOOD DR, BILLINGS, MT, 59106",608050024,"L"
255540,"6023 MARSH CIRCLE","LOVELAND","OH",45140,39.2159355900001,-84.1953267869999,40,"6023 MARSH CIRCLE, LOVELAND, OH, 45140","Match","Exact","6023 MARSH CIR, LOVELAND, OH, 45140",635323135,"L"
255541,"6023 MEDORA DRIVE","INDIANAPOLIS","IN",46228,39.863623423,-86.182647064,41,"6023 MEDORA DRIVE, INDIANAPOLIS, IN, 46228","Match","Exact","6023 MEDORA DR, INDIANAPOLIS, IN, 46228",108049494,"L"
255542,"6023 RAMBLINGRIDGE DR","CINCINNATI","OH",45247,39.2037518240001,-84.609957616,42,"6023 RAMBLINGRIDGE DR, CINCINNATI, OH, 45247","Match","Exact","6023 RAMBLINGRIDGE DR, CINCINNATI, OH, 45247",103916239,"L"
255543,"6023 ROWAN RD","NEW PORT RICHIE","FL",34652,28.246593499,-82.697108817,43,"6023 ROWAN RD, NEW PORT RICHIE, FL, 34652","Match","Non_Exact","6023 ROWAN RD, NEW PORT RICHEY, FL, 34653",619673329,"L"
255544,"6023 S GARFIELD AVE","COMMERCE","CA",90040,33.978280495,-118.144176749,44,"6023 S GARFIELD AVE, COMMERCE, CA, 90040","Match","Exact","6023 GARFIELD AVE, COMMERCE, CA, 90040",241254184,"R"
255545,"6023 SOUTHERN DRIVE","ST. LOUIS","MO",63123,38.5739861550001,-90.314892464,45,"6023 SOUTHERN DRIVE, ST. LOUIS, MO, 63123","Match","Exact","6023 SOUTHERN DR, SAINT LOUIS, MO, 63123",100141912,"L"
255546,"6023 WEST AVE L 12","LANCASTER","CA",93536,34.64923989,-118.237227785,46,"6023 WEST AVE L 12, LANCASTER, CA, 93536","Match","Non_Exact","6023 W AVE L12, LANCASTER, CA, 93536",141829379,"L"
255547,"6024 53RD ST CT W","UNIVERSITY PLACE","WA",98467,47.208877489,-122.51778695,47,"6024 53RD ST CT W, UNIVERSITY PLACE, WA, 98467","Match","Exact","6024 53RD STREET CT W, UNIVERSITY PLACE, WA, 98467",184657846,"L"
255548,"6024 CLERMONT HWY","CLERMONT","GA",30527,34.4704217570001,-83.821641241,48,"6024 CLERMONT HWY, CLERMONT, GA, 30527","Match","Exact","6024 CLERMONT HWY, CLERMONT, GA, 30527",98244878,"R"
255549,"6024 GIBSON AVE","TAMPA","FL",33617,28.0631660190001,-82.3896231209999,49,"6024 GIBSON AVE, TAMPA, FL, 33617","Match","Exact","6024 GIBSON AVE, TAMPA, FL, 33617",630029899,"R"
255550,"6024 GREENWYCKE LN","MONROE","MI",48161,41.8939966980001,-83.41462173,50,"6024 GREENWYCKE LN, MONROE, MI, 48161","Match","Exact","6024 GREENWYCKE LN, MONROE, MI, 48161",40478584,"R"
255551,"6024 KINGSESSING AVE","PHILADELPHIA","PA",19142,39.932125641,-75.2308408599999,51,"6024 KINGSESSING AVE, PHILADELPHIA, PA, 19142","Match","Exact","6024 KINGSESSING AVE, PHILADELPHIA, PA, 19142",131409095,"L"
255552,"6024 LUCENTE AVENUE","SUITLAND","MD",20746,38.8316342620001,-76.903076422,52,"6024 LUCENTE AVENUE, SUITLAND, MD, 20746","Match","Exact","6024 LUCENTE AVE, SUITLAND, MD, 20746",76318915,"L"
255553,"6024 MERIDIAN DR","ALEXANDER","AR",72002,34.649025696,-92.53744512,53,"6024 MERIDIAN DR, ALEXANDER, AR, 72002","Match","Exact","6024 MERIDIAN DR, ALEXANDER, AR, 72002",650887539,"L"
255554,"6024 N PERRYVILLE RD","WADDELL","AZ",85355,NA,NA,54,"6024 N PERRYVILLE RD, WADDELL, AZ, 85355","No_Match",NA,NA,NA,NA
255555,"6024 OLD HEMPHILL RD SUITE B","FORT WORTH","TX",76134,32.661767438,-97.324499835,55,"6024 OLD HEMPHILL RD SUITE B, FORT WORTH, TX, 76134","Match","Non_Exact","6024 OLD HEMPHILL RD, FORT WORTH, TX, 76134",619868256,"R"
255556,"6024 SHIRLEY AVE","CARMICHAEL","CA",95608,38.6319953510001,-121.324442537,56,"6024 SHIRLEY AVE, CARMICHAEL, CA, 95608","Match","Exact","6024 SHIRLEY AVE, CARMICHAEL, CA, 95608",133343039,"R"
255557,"6024 SOUTH JARDOT ROAD","STILLWATER","OK",74074,36.0528307220001,-97.033496384,57,"6024 SOUTH JARDOT ROAD, STILLWATER, OK, 74074","Match","Exact","6024 S JARDOT RD, STILLWATER, OK, 74074",166380280,"L"
255558,"6024 SUBURBAN AVE","SAINT LOUIS","MO",63112,38.6643723620001,-90.291604927,58,"6024 SUBURBAN AVE, SAINT LOUIS, MO, 63112","Match","Exact","6024 SUBURBAN AVE, SAINT LOUIS, MO, 63112",107592519,"L"
255559,"6024 TORIA DRIVE","ALEXANDRIA","LA",71303,31.2676378420001,-92.510174206,59,"6024 TORIA DRIVE, ALEXANDRIA, LA, 71303","Match","Exact","6024 TORIA DR, ALEXANDRIA, LA, 71303",634187799,"R"
255560,"6024 TREE TOP COURT","CHARLOTTE","NC",28212,35.199728491,-80.749474369,60,"6024 TREE TOP COURT, CHARLOTTE, NC, 28212","Match","Non_Exact","6024 TREETOP CT, CHARLOTTE, NC, 28212",70500425,"L"
255561,"6024 WASHINGTON ST","HOLLYWOOD","FL",33023,26.002646052,-80.2079579969999,61,"6024 WASHINGTON ST, HOLLYWOOD, FL, 33023","Match","Exact","6024 WASHINGTON ST, HOLLYWOOD, FL, 33023",114732139,"L"
255562,"6024 WEST RAYMOND STREET","PHOENIX","AZ",85043,33.414816644,-112.189218428,62,"6024 WEST RAYMOND STREET, PHOENIX, AZ, 85043","Match","Exact","6024 W RAYMOND ST, PHOENIX, AZ, 85043",128865083,"R"
255563,"6025 109TH AVE N","CHAMPLIN","MN",55316,45.151846941,-93.356000219,63,"6025 109TH AVE N, CHAMPLIN, MN, 55316","Match","Exact","6025 109TH AVE N, CHAMPLIN, MN, 55316",639208445,"L"
255564,"6025 109TH AVE N","CHAMPLN","MN",55316,45.151846941,-93.356000219,64,"6025 109TH AVE N, CHAMPLN, MN, 55316","Match","Non_Exact","6025 109TH AVE N, CHAMPLIN, MN, 55316",639208445,"L"
255565,"6025 82ND STREET","LUBBOCK","TX",79424,33.519696858,-101.945259866,65,"6025 82ND STREET, LUBBOCK, TX, 79424","Match","Exact","6025 82ND ST, LUBBOCK, TX, 79424",185273058,"L"
255566,"6025 ANGORA TERRACE","PHILADELPHIA","PA",19143,39.9434023970001,-75.243458687,66,"6025 ANGORA TERRACE, PHILADELPHIA, PA, 19143","Match","Exact","6025 ANGORA TER, PHILADELPHIA, PA, 19143",131397918,"R"
255567,"6025 BEE BALM DR","FORT WORTH","TX",76123,32.614702837,-97.418896015,67,"6025 BEE BALM DR, FORT WORTH, TX, 76123","Match","Exact","6025 BEE BALM DR, FORT WORTH, TX, 76123",619863787,"L"
255568,"6025 BUNCOMBE RD","SHREVEPORT","LA",71129,32.433519516,-93.8591587239999,68,"6025 BUNCOMBE RD, SHREVEPORT, LA, 71129","Match","Exact","6025 BUNCOMBE RD, SHREVEPORT, LA, 71129",57431845,"R"
255569,"6025 CAPITOL KNOLL","FAIRBURN","GA",30213,33.5772144800001,-84.571699961,69,"6025 CAPITOL KNOLL, FAIRBURN, GA, 30213","Match","Exact","6025 CAPITOL KNOLL, FAIRBURN, GA, 30213",639816767,"L"
255570,"6025 DANBURY CT","MORROW","GA",30260,33.5899276640001,-84.313943911,70,"6025 DANBURY CT, MORROW, GA, 30260","Match","Exact","6025 DANBURY CT, MORROW, GA, 30260",23315725,"R"
255571,"6025 E 400 S","WOLCOTTVILLE","IN",46795,41.5852842780001,-85.308596942,71,"6025 E 400 S, WOLCOTTVILLE, IN, 46795","Match","Exact","6025 E 400 S, WOLCOTTVILLE, IN, 46795",8194648,"R"
255572,"6025 HANLEY RD","TAMPA","FL",33634,28.0039307320001,-82.562703434,72,"6025 HANLEY RD, TAMPA, FL, 33634","Match","Exact","6025 HANLEY RD, TAMPA, FL, 33634",104508632,"R"
255573,"6025 HORTON PLACE","SAINT LOUIS","MO",63112,38.6626129640001,-90.2927406319999,73,"6025 HORTON PLACE, SAINT LOUIS, MO, 63112","Match","Exact","6025 HORTON PL, SAINT LOUIS, MO, 63112",605103632,"R"
255574,"6025 LAZO DEL SUR","LAS CRUCES","NM",88011,32.243777622,-106.692706182,74,"6025 LAZO DEL SUR, LAS CRUCES, NM, 88011","Match","Exact","6025 LAZO DEL SUR, LAS CRUCES, NM, 88011",624814486,"R"
255575,"6025 LUTHER LANE","DALLAS","TX",75225,32.8636000820001,-96.807949916,75,"6025 LUTHER LANE, DALLAS, TX, 75225","Match","Exact","6025 LUTHER LN, DALLAS, TX, 75225",103203537,"L"
255576,"6025 NW 110 ST","HIALEAH","FL",33012,25.8734403440001,-80.2970172079999,76,"6025 NW 110 ST, HIALEAH, FL, 33012","Match","Exact","6025 NW 110TH ST, HIALEAH, FL, 33012",115956383,"R"
255577,"6025 NW ROSEWOOD DRIVE","CORVALLIS","OR",97330,44.634474191,-123.275552731,77,"6025 NW ROSEWOOD DRIVE, CORVALLIS, OR, 97330","Match","Exact","6025 NW ROSEWOOD DR, CORVALLIS, OR, 97330",155866359,"R"
255578,"6025 PASEO ACAMPO 110","CARLSBAD","CA",92009,33.1296758280001,-117.244190119,78,"6025 PASEO ACAMPO 110, CARLSBAD, CA, 92009","Match","Non_Exact","6025 PSO ACAMPO, CARLSBAD, CA, 92009",618677413,"R"
255579,"6025 RIZA AVENUE","SACRAMENTO","CA",95823,38.5054015690001,-121.434730559,79,"6025 RIZA AVENUE, SACRAMENTO, CA, 95823","Match","Exact","6025 RIZA AVE, SACRAMENTO, CA, 95823",133337164,"L"
255580,"6025 SAND WEDGE CIR","KENNESAW","GA",30144,34.042088155,-84.599804251,80,"6025 SAND WEDGE CIR, KENNESAW, GA, 30144","Match","Exact","6025 SAND WEDGE CIR, KENNESAW, GA, 30144",17186498,"R"
255581,"6025 SPIKES WAY","MILTON","FL",32583,30.5991016940001,-87.070562524,81,"6025 SPIKES WAY, MILTON, FL, 32583","Match","Exact","6025 SPIKES WAY, MILTON, FL, 32583",74580097,"L"
255582,"6025 STAGE RD","BARTLETT","TN",38134,35.2047532380001,-89.8621876459999,82,"6025 STAGE RD, BARTLETT, TN, 38134","Match","Exact","6025 STAGE RD, BARTLETT, TN, 38134",607403382,"R"
255583,"6025 STAGE ROAD STE 42-344","BARTLETT","TN",38134,35.2047532380001,-89.8621876459999,83,"6025 STAGE ROAD STE 42-344, BARTLETT, TN, 38134","Match","Exact","6025 STAGE RD, BARTLETT, TN, 38134",607403382,"R"
255584,"6025 STATE RAOD STE 42-227","BARTLETT","TN",38134,35.154933853,-89.861988507,84,"6025 STATE RAOD STE 42-227, BARTLETT, TN, 38134","Match","Non_Exact","6025 STATE RD, BARTLETT, TN, 38134",618107932,"R"
255585,"6025 STRAHAN RD","EL PASO","TX",79932,31.8712936920001,-106.605778649,85,"6025 STRAHAN RD, EL PASO, TX, 79932","Match","Exact","6025 STRAHAN RD, EL PASO, TX, 79932",649811398,"L"
255586,"6025 SW 39TH CT","TOPEKA","KS",66610,38.995050415,-95.763805431,86,"6025 SW 39TH CT, TOPEKA, KS, 66610","Match","Exact","6025 SW 39TH CT, TOPEKA, KS, 66610",17905118,"R"
255587,"6025 THE MEADOWS LANE","HARRISBURG","NC",28075,35.3338881650001,-80.6544130569999,87,"6025 THE MEADOWS LANE, HARRISBURG, NC, 28075","Match","Exact","6025 THE MEADOWS LN, HARRISBURG, NC, 28075",24922376,"R"
255588,"6025 W RANDOLPH DR","BOISE","ID",83709,43.59326235,-116.256606775,88,"6025 W RANDOLPH DR, BOISE, ID, 83709","Match","Exact","6025 RANDOLPH DR, BOISE, ID, 83709",117862563,"L"
255589,"6025 WEST FLAMINGO ROAD 156","LAS VEGAS","NV",89103,36.114500277,-115.223362613,89,"6025 WEST FLAMINGO ROAD 156, LAS VEGAS, NV, 89103","Match","Exact","6025 W FLAMINGO RD, LAS VEGAS, NV, 89103",639403829,"R"
255590,"60258 PEACH ORCHARD RD","BOGALUSA","LA",70427,30.810680319,-89.8863967359999,90,"60258 PEACH ORCHARD RD, BOGALUSA, LA, 70427","Match","Exact","60258 PEACH ORCHARD RD, BOGALUSA, LA, 70427",82469521,"L"
255591,"6026  COLGATE LANE","MATTESONN","IL",60443,41.511653053,-87.7617524999999,91,"6026  COLGATE LANE, MATTESONN, IL, 60443","Match","Non_Exact","6026 COLGATE LN, MATTESON, IL, 60443",639821121,"R"
255592,"6026 ELLICOTT ROAD","BROCTON","NY",14716,42.3714115330001,-79.444226822,92,"6026 ELLICOTT ROAD, BROCTON, NY, 14716","Match","Exact","6026 ELLICOTT RD, BROCTON, NY, 14716",120782949,"L"
255593,"6026 HIGHPOINT DR","SEATTLE","WA",98126,47.548952974,-122.368802139,93,"6026 HIGHPOINT DR, SEATTLE, WA, 98126","Match","Non_Exact","6026 HIGH POINT DR SW, SEATTLE, WA, 98126",645452018,"R"
255594,"6026 IDAHO STREET","OAKLAND","CA",94608,37.8437458980001,-122.280649403,94,"6026 IDAHO STREET, OAKLAND, CA, 94608","Match","Exact","6026 IDAHO ST, OAKLAND, CA, 94608",124994502,"R"
255595,"6026 KALAMAZOO AVE  BOX 259","KENTWOOD","MI",49508,42.853952679,-85.6248538359999,95,"6026 KALAMAZOO AVE  BOX 259, KENTWOOD, MI, 49508","Match","Non_Exact","6026 KALAMAZOO AVE SE, KENTWOOD, MI, 49508",12504522,"L"
255596,"6026 KALAMAZOO AVE SE 189","KENTWOOD","MI",49508,42.853952679,-85.6248538359999,96,"6026 KALAMAZOO AVE SE 189, KENTWOOD, MI, 49508","Match","Exact","6026 KALAMAZOO AVE SE, KENTWOOD, MI, 49508",12504522,"L"
255597,"6026 KALAMAZOO AVE SE KEY 150","KENTWOOD","MI",49508,42.853952679,-85.6248538359999,97,"6026 KALAMAZOO AVE SE KEY 150, KENTWOOD, MI, 49508","Match","Exact","6026 KALAMAZOO AVE SE, KENTWOOD, MI, 49508",12504522,"L"
255598,"6026 KALAMAZOO AVE SE","GRAND RAPIDS","MI",49508,42.853952679,-85.6248538359999,98,"6026 KALAMAZOO AVE SE, GRAND RAPIDS, MI, 49508","Match","Exact","6026 KALAMAZOO AVE SE, GRAND RAPIDS, MI, 49508",12504522,"L"
255599,"6026 KATY GASTON RD","KATY","TX",77494,29.7101685860001,-95.8041588739999,99,"6026 KATY GASTON RD, KATY, TX, 77494","Match","Exact","6026 KATY GASTON RD, KATY, TX, 77494",78339007,"R"
255600,"6026 NW 27TH TERRACE","GAINESVILLE","FL",32653,29.7097388870001,-82.363668612,100,"6026 NW 27TH TERRACE, GAINESVILLE, FL, 32653","Match","Non_Exact","6026 NW 27TH TER, GAINESVILLE, FL, 32653",6802567,"L"
255601,"6026 SIX FORKS ROAD","RALEIGH","NC",27609,35.862647247,-78.637651427,101,"6026 SIX FORKS ROAD, RALEIGH, NC, 27609","Match","Exact","6026 SIX FORKS RD, RALEIGH, NC, 27609",72505518,"R"
255602,"6026 SOUTHERN DR","SAINT LOUIS","MO",63123,38.5739844890001,-90.314988387,102,"6026 SOUTHERN DR, SAINT LOUIS, MO, 63123","Match","Exact","6026 SOUTHERN DR, SAINT LOUIS, MO, 63123",100141912,"R"
255603,"6026 STAGE ROAD 42-372","BARTLETT","TN",38134,35.204764202,-89.862166083,103,"6026 STAGE ROAD 42-372, BARTLETT, TN, 38134","Match","Exact","6026 STAGE RD, BARTLETT, TN, 38134",607403382,"L"
255604,"6026 STEELE STATION ROAD","RAINBOW CITY","AL",35906,33.938941685,-86.123107806,104,"6026 STEELE STATION ROAD, RAINBOW CITY, AL, 35906","Match","Exact","6026 STEELE STATION RD, RAINBOW CITY, AL, 35906",650764345,"R"
255605,"6026 VERNER AVENUE","SACRAMENTO","CA",95841,38.6764083510001,-121.334702871,105,"6026 VERNER AVENUE, SACRAMENTO, CA, 95841","Match","Exact","6026 VERNER AVE, SACRAMENTO, CA, 95841",133426987,"R"
255606,"6026 W LINEBAUGH AVE","TAMPA","FL",33625,28.040310118,-82.5435092609999,106,"6026 W LINEBAUGH AVE, TAMPA, FL, 33625","Match","Exact","6026 W LINEBAUGH AVE, TAMPA, FL, 33625",636366539,"R"
255607,"6026 W MICHIGAN AVENUE","GLENDALE","AZ",85308,33.6506146500001,-112.189865801,107,"6026 W MICHIGAN AVENUE, GLENDALE, AZ, 85308","Match","Exact","6026 W MICHIGAN AVE, GLENDALE, AZ, 85308",128362354,"R"
255608,"6026 WENNINGHOFF ROAD","OMAHA","NE",68134,41.3128539320001,-96.046310934,108,"6026 WENNINGHOFF ROAD, OMAHA, NE, 68134","Match","Exact","6026 WENNINGHOFF RD, OMAHA, NE, 68134",641501701,"L"
255609,"6027 BELAIR ROAD","BALTIMORE","MD",21206,39.3486096550001,-76.5376670699999,109,"6027 BELAIR ROAD, BALTIMORE, MD, 21206","Match","Exact","6027 BELAIR RD, BALTIMORE, MD, 21206",206411973,"R"
255610,"6027 CLIFFORD TERRACE","PHILADELPHIA","PA",19151,39.9818741180001,-75.2418271179999,110,"6027 CLIFFORD TERRACE, PHILADELPHIA, PA, 19151","Match","Exact","6027 CLIFFORD TER, PHILADELPHIA, PA, 19151",131397221,"R"
255611,"6027 CREEKWATER DRIVE","LAKELAND","FL",33811,27.955553106,-82.0277078729999,111,"6027 CREEKWATER DRIVE, LAKELAND, FL, 33811","Match","Exact","6027 CREEKWATER DR, LAKELAND, FL, 33811",104910197,"R"
255612,"6027 LOYNES DR","LONG BEACH","CA",90803,33.7676203280001,-118.115819048,112,"6027 LOYNES DR, LONG BEACH, CA, 90803","Match","Exact","6027 LOYNES DR, LONG BEACH, CA, 90803",640425800,"L"
255613,"6027 MIO CT","RIO LINDA","CA",95673,38.6774333020001,-121.440825264,113,"6027 MIO CT, RIO LINDA, CA, 95673","Match","Exact","6027 MIO CT, RIO LINDA, CA, 95673",133329335,"L"
255614,"6027 NORTH ELMWOOD CT","KANSAS CITY","MO",64119,39.203334527,-94.5249608729999,114,"6027 NORTH ELMWOOD CT, KANSAS CITY, MO, 64119","Match","Exact","6027 N ELMWOOD CT, KANSAS CITY, MO, 64119",89774915,"R"
255615,"6027 PATRICIA RYAN DR","CHARLOTTE","NC",28216,35.29026406,-80.899573603,115,"6027 PATRICIA RYAN DR, CHARLOTTE, NC, 28216","Match","Exact","6027 PATRICIA RYAN DR, CHARLOTTE, NC, 28216",70554361,"L"
255616,"6027 PHLOX COURT","ALEXANDRIA","VA",22310,38.7842678860001,-77.14023614,116,"6027 PHLOX COURT, ALEXANDRIA, VA, 22310","Match","Exact","6027 PHLOX CT, ALEXANDRIA, VA, 22310",619880564,"R"
255617,"6027 POWELL DR","INDIANAPOLIS","IN",46221,39.6875395050001,-86.265825723,117,"6027 POWELL DR, INDIANAPOLIS, IN, 46221","Match","Exact","6027 POWELL DR, INDIANAPOLIS, IN, 46221",108004744,"L"
255618,"6027 S 188 ST","OMAHA","NE",68135,41.1966483260001,-96.208677992,118,"6027 S 188 ST, OMAHA, NE, 68135","Match","Exact","6027 S 188TH ST, OMAHA, NE, 68135",623689433,"L"
255619,"6027 SUNBERRY CIR","BOYNTON BEACH","FL",33437,26.535422952,-80.140491346,119,"6027 SUNBERRY CIR, BOYNTON BEACH, FL, 33437","Match","Exact","6027 SUNBERRY CIR, BOYNTON BEACH, FL, 33437",115577349,"L"
255620,"6027 SUNSET VISTA DR","LAKELAND","FL",33812,27.955635837,-81.878931829,120,"6027 SUNSET VISTA DR, LAKELAND, FL, 33812","Match","Exact","6027 SUNSET VISTA DR, LAKELAND, FL, 33812",653191745,"L"
255621,"6027 W PALMAIRE","GLENDALE","AZ",85301,33.541023597,-112.189810849,121,"6027 W PALMAIRE, GLENDALE, AZ, 85301","Match","Non_Exact","6027 W PALMAIRE AVE, GLENDALE, AZ, 85301",636812645,"L"
255622,"6027 WEST SANDRA TERRACE","GLENDALE","AZ",85306,33.633969849,-112.188938273,122,"6027 WEST SANDRA TERRACE, GLENDALE, AZ, 85306","Match","Exact","6027 W SANDRA TER, GLENDALE, AZ, 85306",128174348,"R"
255623,"60275 LAFOURCHE STREET","PLAQUEMINE","LA",70764,30.262496178,-91.259509381,123,"60275 LAFOURCHE STREET, PLAQUEMINE, LA, 70764","Match","Exact","60275 LAFOURCHE ST, PLAQUEMINE, LA, 70764",85560488,"R"
255624,"6028 30TH AVE SW","SEATTLE","WA",98126,47.548160017,-122.371147751,124,"6028 30TH AVE SW, SEATTLE, WA, 98126","Match","Exact","6028 30TH AVE SW, SEATTLE, WA, 98126",647844230,"L"
255625,"6028 349TH AVE NW","PRINCETON","MN",55371,45.601007377,-93.42202664,125,"6028 349TH AVE NW, PRINCETON, MN, 55371","Match","Exact","6028 349TH AVE NW, PRINCETON, MN, 55371",97623494,"L"
255626,"6028 BROOK RD","RICHMOND","VA",23227,37.6128350050001,-77.457283176,126,"6028 BROOK RD, RICHMOND, VA, 23227","Match","Exact","6028 BROOK RD, RICHMOND, VA, 23227",106691025,"L"
255627,"6028 CASPIAN COURT","BETTENDORF","IA",52722,41.5844203820001,-90.473868714,127,"6028 CASPIAN COURT, BETTENDORF, IA, 52722","Match","Exact","6028 CASPIAN CT, BETTENDORF, IA, 52722",641959363,"L"
255628,"6028 CEDAR GLEN DR","GRAND PRAIRIE","TX",75052,32.6238822660001,-97.062418555,128,"6028 CEDAR GLEN DR, GRAND PRAIRIE, TX, 75052","Match","Exact","6028 CEDAR GLEN DR, GRAND PRAIRIE, TX, 75052",102187823,"L"
255629,"6028 CHESTER AVE SUITE 205","JACKSONVILLE","FL",32217,30.260750424,-81.6223219299999,129,"6028 CHESTER AVE SUITE 205, JACKSONVILLE, FL, 32217","Match","Exact","6028 CHESTER AVE, JACKSONVILLE, FL, 32217",83916692,"R"
255630,"6028 DOROTHEA STREET","NEW ORLEANS","LA",70126,30.0257094950001,-90.022628239,130,"6028 DOROTHEA STREET, NEW ORLEANS, LA, 70126","Match","Exact","6028 DOROTHEA ST, NEW ORLEANS, LA, 70126",191705304,"R"
255631,"6028 E 24TH STREET","INDIANAPOLIS","IN",46219,39.8010826550001,-86.063456746,131,"6028 E 24TH STREET, INDIANAPOLIS, IN, 46219","Match","Exact","6028 E 24TH ST, INDIANAPOLIS, IN, 46219",633627303,"L"
255632,"6028 FM 482","NEW BRAUNFELS","TX",78132,29.657511303,-98.2020239829999,132,"6028 FM 482, NEW BRAUNFELS, TX, 78132","Match","Exact","6028 FM 482, NEW BRAUNFELS, TX, 78132",636878347,"R"
255633,"6028 GREEN SWAMP RD","CLERMONT","FL",34714,28.435188216,-81.781527029,133,"6028 GREEN SWAMP RD, CLERMONT, FL, 34714","Match","Exact","6028 GREEN SWAMP RD, CLERMONT, FL, 34714",629425522,"R"
255634,"6028 GREEN SWAMP ROAD","CLERMONT","FL",34714,28.435188216,-81.781527029,134,"6028 GREEN SWAMP ROAD, CLERMONT, FL, 34714","Match","Exact","6028 GREEN SWAMP RD, CLERMONT, FL, 34714",629425522,"R"
255635,"6028 LANGDON AVE SW","CEDAR RAPIDS","IA",52404,41.9679462080001,-91.749016313,135,"6028 LANGDON AVE SW, CEDAR RAPIDS, IA, 52404","Match","Exact","6028 LANGDON AVE SW, CEDAR RAPIDS, IA, 52404",17034615,"R"
255636,"6028 MAGNOLIA STREET","PHILADELPHIA","PA",19144,40.045324953,-75.1724166779999,136,"6028 MAGNOLIA STREET, PHILADELPHIA, PA, 19144","Match","Exact","6028 MAGNOLIA ST, PHILADELPHIA, PA, 19144",131395733,"L"
255637,"6028 MOSS ROSE LANE","AUBREY","TX",76227,33.301479826,-97.088301906,137,"6028 MOSS ROSE LANE, AUBREY, TX, 76227","Match","Exact","6028 MOSS ROSE LN, AUBREY, TX, 76227",651661285,"R"
255638,"6028 NORTH 41ST STREET","PARADISE VALLEY","AZ",85253,33.525292759,-111.993536549,138,"6028 NORTH 41ST STREET, PARADISE VALLEY, AZ, 85253","Match","Exact","6028 N 41ST ST, PARADISE VALLEY, AZ, 85253",128219836,"L"
255639,"6028 OAKLAND MILLS RD","SYKESVILLE","MD",21784,39.408102054,-76.901198775,139,"6028 OAKLAND MILLS RD, SYKESVILLE, MD, 21784","Match","Exact","6028 OAKLAND MILLS RD, SYKESVILLE, MD, 21784",61770522,"R"
255640,"6028 SE 32ND AVENUE","PORTLAND","OR",97202,45.4787883270001,-122.630451415,140,"6028 SE 32ND AVENUE, PORTLAND, OR, 97202","Match","Exact","6028 SE 32ND AVE, PORTLAND, OR, 97202",157510678,"L"
255641,"6028 SYKESVILLE ROAD","SYKESVILLE","MD",21784,39.412179769,-76.9495144109999,141,"6028 SYKESVILLE ROAD, SYKESVILLE, MD, 21784","Match","Exact","6028 SYKESVILLE RD, SYKESVILLE, MD, 21784",653251537,"R"
255642,"6028 WARWOOD ROAD","LAKEWOOD","CA",90713,33.8352743880001,-118.113606911,142,"6028 WARWOOD ROAD, LAKEWOOD, CA, 90713","Match","Exact","6028 WARWOOD RD, LAKEWOOD, CA, 90713",642861121,"R"
255643,"6028 WATERLOO DRIVE","CHARLOTTE","NC",28269,35.3197708210001,-80.813746742,143,"6028 WATERLOO DRIVE, CHARLOTTE, NC, 28269","Match","Exact","6028 WATERLOO DR, CHARLOTTE, NC, 28269",635657674,"L"
255644,"6028 WYNDHAM WOODS DRIVE","POWDER SPRINGS","GA",30127,33.958177619,-84.7300159769999,144,"6028 WYNDHAM WOODS DRIVE, POWDER SPRINGS, GA, 30127","Match","Exact","6028 WYNDHAM WOODS DR, POWDER SPGS, GA, 30127",17219297,"R"
255645,"6029 ARLYNE LANE","MEDINA","OH",44256,41.1176458050001,-81.795278125,145,"6029 ARLYNE LANE, MEDINA, OH, 44256","Match","Exact","6029 ARLYNE LN, MEDINA, OH, 44256",633793376,"L"
255646,"6029 CARNEGIE ST","SAN DIEGO","CA",92122,32.8502622090001,-117.216661037,146,"6029 CARNEGIE ST, SAN DIEGO, CA, 92122","Match","Exact","6029 CARNEGIE ST, SAN DIEGO, CA, 92122",195302054,"R"
255647,"6029 E 14 MILE RD","STERLING HEIGHTS","MI",48310,42.5361946140001,-83.04627133,147,"6029 E 14 MILE RD, STERLING HEIGHTS, MI, 48310","Match","Non_Exact","6029 E 14 MILE RD, STERLING HEIGHTS, MI, 48312",110672059,"L"
255648,"6029 GARDEN COURT","CORPUS CHRISTI","TX",78414,27.6436937440001,-97.396119636,148,"6029 GARDEN COURT, CORPUS CHRISTI, TX, 78414","Match","Exact","6029 GARDEN CT, CORPUS CHRISTI, TX, 78414",178548264,"L"
255649,"6029 GRISELL ROAD","OREGON","OH",43616,41.6823273860001,-83.404047009,149,"6029 GRISELL ROAD, OREGON, OH, 43616","Match","Exact","6029 GRISELL RD, OREGON, OH, 43616",33947460,"L"
255650,"6029 ROSEWOOD WAY","EASTVALE","CA",92880,33.9779912760001,-117.568725936,150,"6029 ROSEWOOD WAY, EASTVALE, CA, 92880","Match","Exact","6029 ROSEWOOD WAY, EASTVALE, CA, 92880",646296293,"R"
255651,"6029 S SHERIDAN RD","TULSA","OK",74145,36.0768930990001,-95.904294453,151,"6029 S SHERIDAN RD, TULSA, OK, 74145","Match","Exact","6029 S SHERIDAN RD, TULSA, OK, 74145",166452340,"L"
255652,"6029 SUNSET LAKE TRAIL","EAGLE RIVER","WI",54521,NA,NA,152,"6029 SUNSET LAKE TRAIL, EAGLE RIVER, WI, 54521","No_Match",NA,NA,NA,NA
255653,"6029 TALLADEGA AVE","CHATTANOOGA","TN",37421,35.0415266030001,-85.18734922,153,"6029 TALLADEGA AVE, CHATTANOOGA, TN, 37421","Match","Exact","6029 TALLADEGA AVE, CHATTANOOGA, TN, 37421",59316957,"L"
255654,"6029 W WARWICK AVENUE","CHICAGO","IL",60634,41.948488782,-87.777398219,154,"6029 W WARWICK AVENUE, CHICAGO, IL, 60634","Match","Exact","6029 W WARWICK AVE, CHICAGO, IL, 60634",111751509,"L"
255655,"6029 WASHINGTON STREET","DOWNERS GROVE","IL",60516,41.778218968,-88.006293209,155,"6029 WASHINGTON STREET, DOWNERS GROVE, IL, 60516","Match","Exact","6029 WASHINGTON ST, DOWNERS GROVE, IL, 60516",112699382,"L"
255656,"6029 WATERMELON ST","NORTH LAS VEGAS","NV",89081,36.2706145670001,-115.088744524,156,"6029 WATERMELON ST, NORTH LAS VEGAS, NV, 89081","Match","Exact","6029 WATERMELON ST, N LAS VEGAS, NV, 89081",627625531,"R"
255657,"6029 WINDING RIDGE LANE","PORT ORANGE","FL",32128,29.0922720460001,-81.031983047,157,"6029 WINDING RIDGE LANE, PORT ORANGE, FL, 32128","Match","Exact","6029 WINDING RIDGE LN, PORT ORANGE, FL, 32128",94580539,"L"
255658,"602A CENTER PARKWAY","YORKVILLE","IL",60560,41.659364317,-88.446751169,158,"602A CENTER PARKWAY, YORKVILLE, IL, 60560","Match","Exact","602 CENTER PKWY, YORKVILLE, IL, 60560",54483452,"L"
255659,"603  N COOLIDGE CT","WEST PEORIA","IL",61604,40.6950281530001,-89.638219686,159,"603  N COOLIDGE CT, WEST PEORIA, IL, 61604","Match","Exact","603 COOLIDGE CT, WEST PEORIA, IL, 61604",8725847,"L"
255660,"603 10TH ST","MARSEILLES","IL",61341,41.3394193190001,-88.697883851,160,"603 10TH ST, MARSEILLES, IL, 61341","Match","Exact","603 TENTH ST, MARSEILLES, IL, 61341",616618063,"L"
255661,"603 12TH AVE E SUITE 206","SEATTLE","WA",98102,47.6243635060001,-122.316743478,161,"603 12TH AVE E SUITE 206, SEATTLE, WA, 98102","Match","Exact","603 12TH AVE E, SEATTLE, WA, 98102",186587481,"L"
255662,"603 12TH AVENUE E 303","SEATTLE","WA",98102,47.6243635060001,-122.316743478,162,"603 12TH AVENUE E 303, SEATTLE, WA, 98102","Match","Exact","603 12TH AVE E, SEATTLE, WA, 98102",186587481,"L"
255663,"603 2ND AVE","BURLINGTON","NC",27215,36.073991592,-79.448338468,163,"603 2ND AVE, BURLINGTON, NC, 27215","Match","Exact","603 2ND AVE, BURLINGTON, NC, 27215",71663773,"R"
255664,"603 63RD AVE W LOT K7","BRADENTON","FL",34207,27.4285095880001,-82.568360238,164,"603 63RD AVE W LOT K7, BRADENTON, FL, 34207","Match","Non_Exact","603 63RD AVENUE DR W, BRADENTON, FL, 34207",16239820,"R"
255665,"603 7TH AVENUE","BELMAR","NJ",7719,40.182001493,-74.0227391939999,165,"603 7TH AVENUE, BELMAR, NJ, 7719","Match","Exact","603 7TH AVE, BELMAR, NJ, 07719",90465329,"L"
255666,"603 8TH STREET","HUNTINGTON BEACH","CA",92480,33.663910921,-118.000669668,166,"603 8TH STREET, HUNTINGTON BEACH, CA, 92480","Match","Non_Exact","603 8TH ST, HUNTINGTON BEACH, CA, 92648",144019779,"L"
255667,"603 9TH AVENUE NORTH","SAINT JAMES","MN",56801,43.9892773230001,-94.631077894,167,"603 9TH AVENUE NORTH, SAINT JAMES, MN, 56801","Match","Non_Exact","603 9TH AVE N, SAINT JAMES, MN, 56081",611815893,"R"
255668,"603 9TH AVENUE","HUNTINGTON","WV",25701,38.4217229490001,-82.3875997339999,168,"603 9TH AVENUE, HUNTINGTON, WV, 25701","Match","Non_Exact","603 9TH AVE, HUNTINGTON, WV, 25702",101336475,"R"
255669,"603 ANGELO LN","MELBOURNE BEACH","FL",32951,28.0439402960001,-80.548797553,169,"603 ANGELO LN, MELBOURNE BEACH, FL, 32951","Match","Exact","603 ANGELO LN, MELBOURNE BCH, FL, 32951",617425257,"L"
255670,"603 ASPEN WAY","CENTERVILLE","UT",84014,40.9269090290001,-111.870744058,170,"603 ASPEN WAY, CENTERVILLE, UT, 84014","Match","Exact","603 ASPEN WAY, CENTERVILLE, UT, 84014",155326156,"L"
255671,"603 AUSTIN ROAD","GLEN ROSE","TX",76043,32.2283778300001,-97.753035991,171,"603 AUSTIN ROAD, GLEN ROSE, TX, 76043","Match","Exact","603 AUSTIN RD, GLEN ROSE, TX, 76043",158909516,"R"
255672,"603 B E UNIVERSITY DR 327","CARSON","CA",90746,33.8582613670001,-118.265605869,172,"603 B E UNIVERSITY DR 327, CARSON, CA, 90746","Match","Exact","603 E UNIVERSITY DR, CARSON, CA, 90746",241258232,"R"
255673,"603 BAY STREET","TRAVERSE CITY","MI",49685,44.7680871100001,-85.6331163,173,"603 BAY STREET, TRAVERSE CITY, MI, 49685","Match","Non_Exact","603 BAY ST, TRAVERSE CITY, MI, 49684",145514142,"L"
255674,"603 BITTERSWEET COURT","CRANBERRY","PA",16066,40.7336814350001,-80.12962163,174,"603 BITTERSWEET COURT, CRANBERRY, PA, 16066","Match","Non_Exact","603 BITTERSWEET CT, CRANBERRY TOWNSHIP, PA, 16066",52691357,"L"
255675,"603 BONHILL DR","FORT WASHINGTON","MD",20744,38.713112815,-76.999201273,175,"603 BONHILL DR, FORT WASHINGTON, MD, 20744","Match","Exact","603 BONHILL DR, FT WASHINGTON, MD, 20744",637301057,"R"
255676,"603 BUTTERNUT LANE","TOLEDO","OH",43615,41.6297026840001,-83.690836024,176,"603 BUTTERNUT LANE, TOLEDO, OH, 43615","Match","Exact","603 BUTTERNUT LN, TOLEDO, OH, 43615",648313241,"L"
255677,"603 C DALTON DRIVE","ESSEX JUNCTION","VT",5452,44.505066104,-73.144578436,177,"603 C DALTON DRIVE, ESSEX JUNCTION, VT, 5452","Match","Exact","603 DALTON DR, ESSEX JCT, VT, 05452",636673429,"L"
255678,"603 CENTRAL AVENUE","EGG HARBOR TOWNSHIP","NJ",8234,39.3700478000001,-74.592816301,178,"603 CENTRAL AVENUE, EGG HARBOR TOWNSHIP, NJ, 8234","Match","Exact","603 CENTRAL AVE, EGG HARBOR TOWNSHIP, NJ, 08234",619154074,"R"
255679,"603 CHESS ST","PITTSBURGH","PA",15211,40.42232281,-80.01373613,179,"603 CHESS ST, PITTSBURGH, PA, 15211","Match","Exact","603 CHESS ST, PITTSBURGH, PA, 15211",51633596,"L"
255680,"603 CLAYTON AVE","TUPELO","MS",38804,34.2647145650001,-88.7200345969999,180,"603 CLAYTON AVE, TUPELO, MS, 38804","Match","Exact","603 CLAYTON AVE, TUPELO, MS, 38804",90653566,"L"
255681,"603 CLEVELAND LANE","ROCKAWAY","NJ",7866,40.912317741,-74.544005319,181,"603 CLEVELAND LANE, ROCKAWAY, NJ, 7866","Match","Exact","603 CLEVELAND LN, ROCKAWAY, NJ, 07866",60475810,"L"
255682,"603 COBBLESTONE BLVD","STOCKBRIDGE","GA",30281,33.5231729660001,-84.229034859,182,"603 COBBLESTONE BLVD, STOCKBRIDGE, GA, 30281","Match","Exact","603 COBBLESTONE BLVD, STOCKBRIDGE, GA, 30281",23203364,"R"
255683,"603 COLE ST","BLISSFIELD","MI",49228,41.826217935,-83.8616020009999,183,"603 COLE ST, BLISSFIELD, MI, 49228","Match","Exact","603 COLE ST, BLISSFIELD, MI, 49228",25950177,"R"
255684,"603 COLUMBIA COURT","GLENWOOD SPRINGS","CO",81601,39.561131808,-107.338137536,184,"603 COLUMBIA COURT, GLENWOOD SPRINGS, CO, 81601","Match","Non_Exact","603 W COLUMBIA CT, GLENWOOD SPGS, CO, 81601",105788772,"L"
255685,"603 CONGRESS PARKWAY NORTH","ATHENS","TN",37303,35.460276741,-84.613677062,185,"603 CONGRESS PARKWAY NORTH, ATHENS, TN, 37303","Match","Non_Exact","603 CONGRESS PKWY NW, ATHENS, TN, 37303",653254940,"R"
255686,"603 COPPER MEADOW BLVD","YOUNGSVILLE","LA",70592,30.1054124820001,-91.990430954,186,"603 COPPER MEADOW BLVD, YOUNGSVILLE, LA, 70592","Match","Exact","603 COPPER MEADOW BLVD, YOUNGSVILLE, LA, 70592",624343197,"L"
255687,"603 COUNTY ROAD 18","DAMON","TX",77430,29.27723811,-95.720348814,187,"603 COUNTY ROAD 18, DAMON, TX, 77430","Match","Exact","603 CO RD 18, DAMON, TX, 77430",640640740,"L"
255688,"603 CRISTINA PLACE","PHILADELPHIA","PA",19139,NA,NA,188,"603 CRISTINA PLACE, PHILADELPHIA, PA, 19139","No_Match",NA,NA,NA,NA
255689,"603 DUNDALK AVENUE","BALTIMORE","MD",21224,39.285737958,-76.540650894,189,"603 DUNDALK AVENUE, BALTIMORE, MD, 21224","Match","Exact","603 DUNDALK AVE, BALTIMORE, MD, 21224",206439505,"L"
255690,"603 E 2ND ST","TYLER","TX",75701,32.3334485930001,-95.294824093,190,"603 E 2ND ST, TYLER, TX, 75701","Match","Exact","603 E 2ND ST, TYLER, TX, 75701",141271559,"R"
255691,"603 E BELKNAP STREET","FORT WORTH","TX",76102,32.7597567070001,-97.32929526,191,"603 E BELKNAP STREET, FORT WORTH, TX, 76102","Match","Exact","603 E BELKNAP ST, FORT WORTH, TX, 76102",101888547,"L"
255692,"603 E BROADWAY ST","PROSPER","TX",75078,33.2361168300001,-96.795860825,192,"603 E BROADWAY ST, PROSPER, TX, 75078","Match","Exact","603 E BROADWAY ST, PROSPER, TX, 75078",123530258,"L"
255693,"603 E FORT KING STREET","OCALA","FL",34471,29.1854773420001,-82.131833237,193,"603 E FORT KING STREET, OCALA, FL, 34471","Match","Exact","603 E FORT KING ST, OCALA, FL, 34471",116824252,"L"
255694,"603 E GOVERNMENT ST","PENSACOLA","KS",32502,NA,NA,194,"603 E GOVERNMENT ST, PENSACOLA, KS, 32502","No_Match",NA,NA,NA,NA
255695,"603 E HILDEBRAND","SAN ANTONIO","TX",78212,29.466275458,-98.48142411,195,"603 E HILDEBRAND, SAN ANTONIO, TX, 78212","Match","Non_Exact","603 E HILDEBRAND AVE, SAN ANTONIO, TX, 78212",101524407,"L"
255696,"603 EAST 259TH STREET","CLEVELAND","MO",64734,38.6521723130001,-94.5980415129999,196,"603 EAST 259TH STREET, CLEVELAND, MO, 64734","Match","Exact","603 E 259TH ST, CLEVELAND, MO, 64734",642901972,"L"
255697,"603 EAST 85TH STREET 2ND FLOOR","BROOKLYN","NY",11236,40.6408787730001,-73.9129591459999,197,"603 EAST 85TH STREET 2ND FLOOR, BROOKLYN, NY, 11236","Match","Exact","603 E 85TH ST, BROOKLYN, NY, 11236",59086252,"L"
255698,"603 EAST CARLA VISTA DRIVE","CHANDLER","AZ",85225,33.311302626,-111.83243052,198,"603 EAST CARLA VISTA DRIVE, CHANDLER, AZ, 85225","Match","Exact","603 E CARLA VISTA DR, CHANDLER, AZ, 85225",128243410,"R"
255699,"603 EAST LAKE STREET","WAYZATA","MN",55391,NA,NA,199,"603 EAST LAKE STREET, WAYZATA, MN, 55391","No_Match",NA,NA,NA,NA
255700,"603 EAST PATAPSCO AVE","BALTIMORE","MD",21225,39.2362525680001,-76.6022027189999,200,"603 EAST PATAPSCO AVE, BALTIMORE, MD, 21225","Match","Exact","603 E PATAPSCO AVE, BALTIMORE, MD, 21225",206466475,"R"
255701,"603 EAST UNIVERSITY DR STE B274","CARSON","CA",90746,33.8582604000001,-118.265656137,201,"603 EAST UNIVERSITY DR STE B274, CARSON, CA, 90746","Match","Exact","603 E UNIVERSITY DR, CARSON, CA, 90746",241258232,"R"
255702,"603 EAST WASHINGTON STREET","URBANA","IL",61820,40.12024374,-88.230310699,202,"603 EAST WASHINGTON STREET, URBANA, IL, 61820","Match","Non_Exact","603 E WASHINGTON ST, CHAMPAIGN, IL, 61820",8811630,"R"
255703,"603 FARCOTT STREET EAST","MOBILE","AL",36606,30.666493083,-88.115531171,203,"603 FARCOTT STREET EAST, MOBILE, AL, 36606","Match","Non_Exact","603 FARCOTT ST, MOBILE, AL, 36606",61859025,"L"
255704,"603 FAVERSHAM WAY","BAKERSFIELD","CA",93311,35.3497274740001,-119.119723561,204,"603 FAVERSHAM WAY, BAKERSFIELD, CA, 93311","Match","Exact","603 FAVERSHAM WAY, BAKERSFIELD, CA, 93311",109146282,"L"
255705,"603 FORT CONCHO","SAN ANTONIO","TX",78245,29.427780764,-98.737993467,205,"603 FORT CONCHO, SAN ANTONIO, TX, 78245","Match","Exact","603 FORT CONCHO, SAN ANTONIO, TX, 78245",645145544,"L"
255706,"603 GOVERNOR DRIVE","SHILINGTON","PA",19607,40.3023877630001,-75.9547168839999,206,"603 GOVERNOR DRIVE, SHILINGTON, PA, 19607","Match","Non_Exact","603 GOVERNOR DR, SHILLINGTON, PA, 19607",80382130,"R"
255707,"603 GRASSMEADE WAY","SNELLVILLE","GA",30078,33.895624474,-84.02086831,207,"603 GRASSMEADE WAY, SNELLVILLE, GA, 30078","Match","Exact","603 GRASSMEADE WAY, SNELLVILLE, GA, 30078",642059768,"L"
255708,"603 GREBLE ROAD","LEBANON","PA",17046,40.419551889,-76.4191196899999,208,"603 GREBLE ROAD, LEBANON, PA, 17046","Match","Exact","603 GREBLE RD, LEBANON, PA, 17046",80668524,"L"
255709,"603 GREENWICH STREET SUITE 101","NEW YORK","NY",10014,40.7297743720001,-74.008352666,209,"603 GREENWICH STREET SUITE 101, NEW YORK, NY, 10014","Match","Exact","603 GREENWICH ST, NEW YORK, NY, 10014",59659888,"R"
255710,"603 HARLAND DR","COLUMBUS","OH",43207,39.884408351,-82.984216832,210,"603 HARLAND DR, COLUMBUS, OH, 43207","Match","Exact","603 HARLAND DR, COLUMBUS, OH, 43207",135617772,"R"
255711,"603 HILLSIDE AVENUE","POINT PLEASANT","NJ",8742,40.0842846670001,-74.084127445,211,"603 HILLSIDE AVENUE, POINT PLEASANT, NJ, 8742","Match","Exact","603 HILLSIDE AVE, PT PLEASANT, NJ, 08742",203734710,"L"
255712,"603 JOHNSTON RD","WAXAHACHIE","TX",75167,32.2943969250001,-96.875556562,212,"603 JOHNSTON RD, WAXAHACHIE, TX, 75167","Match","Exact","603 JOHNSTON RD, WAXAHACHIE, TX, 75167",653215706,"L"
255713,"603 KEEFE ST","ELMIRA","NY",14904,42.075643088,-76.799197428,213,"603 KEEFE ST, ELMIRA, NY, 14904","Match","Exact","603 KEEFE ST, ELMIRA, NY, 14904",18561735,"L"
255714,"603 L STREET","DAVIS","CA",95616,38.5498737790001,-121.7347525,214,"603 L STREET, DAVIS, CA, 95616","Match","Exact","603 L ST, DAVIS, CA, 95616",67691650,"L"
255715,"603 LAKEWAY DR","GEORGETOWN","TX",78628,30.667678751,-97.68899844,215,"603 LAKEWAY DR, GEORGETOWN, TX, 78628","Match","Exact","603 LAKEWAY DR, GEORGETOWN, TX, 78628",126446300,"L"
255716,"603 LIME ROCK DRIVE","ROUND ROCK","TX",78681,30.5019920620001,-97.690207555,216,"603 LIME ROCK DRIVE, ROUND ROCK, TX, 78681","Match","Exact","603 LIME ROCK DR, ROUND ROCK, TX, 78681",126424751,"R"
255717,"603 LITTLE AVENUE","GRIDLEY","CA",95948,39.3555803780001,-121.715979687,217,"603 LITTLE AVENUE, GRIDLEY, CA, 95948","Match","Exact","603 LITTLE AVE, GRIDLEY, CA, 95948",68457664,"L"
255718,"603 LUDHAM TRAIL","PICKERINGTON","OH",43147,39.8973521880001,-82.754846593,218,"603 LUDHAM TRAIL, PICKERINGTON, OH, 43147","Match","Exact","603 LUDHAM TRL, PICKERINGTON, OH, 43147",650379368,"L"
255719,"603 MADSEN DRIVE","RIPON","CA",95366,37.73510614,-121.136660284,219,"603 MADSEN DRIVE, RIPON, CA, 95366","Match","Exact","603 MADSEN DR, RIPON, CA, 95366",133928197,"R"
255720,"603 MAGNOLIA ST","BASTROP","TX",78602,30.1268322110001,-97.321593493,220,"603 MAGNOLIA ST, BASTROP, TX, 78602","Match","Exact","603 MAGNOLIA ST, BASTROP, TX, 78602",45464174,"R"
255721,"603 MORGAN STREET","PITTSBURGH","PA",15219,40.449808596,-79.968083731,221,"603 MORGAN STREET, PITTSBURGH, PA, 15219","Match","Exact","603 MORGAN ST, PITTSBURGH, PA, 15219",51642516,"L"
255722,"603 N 2ND ST","CRANFILLS GAP","TX",76637,31.7761255560001,-97.829222723,222,"603 N 2ND ST, CRANFILLS GAP, TX, 76637","Match","Exact","603 2ND ST, CRANFILLS GAP, TX, 76637",158582384,"R"
255723,"603 N 2ND ST","NILES","MI",49120,41.8337237490001,-86.257385078,223,"603 N 2ND ST, NILES, MI, 49120","Match","Exact","603 N 2ND ST, NILES, MI, 49120",119978807,"L"
255724,"603 N 8TH ST","SAINT JOSEPH","MO",64501,39.770743833,-94.850614029,224,"603 N 8TH ST, SAINT JOSEPH, MO, 64501","Match","Exact","603 N 8TH ST, SAINT JOSEPH, MO, 64501",15952136,"R"
255725,"603 N BREED STREET","LOS ANGELES","CA",90033,34.051383978,-118.206475773,225,"603 N BREED STREET, LOS ANGELES, CA, 90033","Match","Exact","603 N BREED ST, LOS ANGELES, CA, 90033",141622800,"L"
255726,"603 N JEFFERSON ST","FLORISSANT","MO",63103,NA,NA,226,"603 N JEFFERSON ST, FLORISSANT, MO, 63103","No_Match",NA,NA,NA,NA
255727,"603 N MAIN STREET","FAIRFIELD","IA",52556,41.0130055550001,-91.963726032,227,"603 N MAIN STREET, FAIRFIELD, IA, 52556","Match","Exact","603 N MAIN ST, FAIRFIELD, IA, 52556",84418188,"R"
255728,"603 N MILWAUKEE STREET","MILWAUKEE","WI",53202,43.037623872,-87.906409782,228,"603 N MILWAUKEE STREET, MILWAUKEE, WI, 53202","Match","Exact","603 N MILWAUKEE ST, MILWAUKEE, WI, 53202",77744668,"L"
255729,"603 NORTH NEW HAMPSHIRE AVE","TAVARES","FL",32778,28.8069384830001,-81.7279184019999,229,"603 NORTH NEW HAMPSHIRE AVE, TAVARES, FL, 32778","Match","Exact","603 N NEW HAMPSHIRE AVE, TAVARES, FL, 32778",94174110,"L"
255730,"603 NORTH PINECLIFF DR","FLAGSTAFF","AZ",86001,35.1980391810001,-111.631829559,230,"603 NORTH PINECLIFF DR, FLAGSTAFF, AZ, 86001","Match","Non_Exact","603 N PINE CLIFF DR, FLAGSTAFF, AZ, 86001",188965249,"L"
255731,"603 NORTH STREET","LIVINGSTON","AL",35470,NA,NA,231,"603 NORTH STREET, LIVINGSTON, AL, 35470","No_Match",NA,NA,NA,NA
255732,"603 NORTHWOOD COURT","SOUTHLAKE","TX",76092,32.9374743070001,-97.146530566,232,"603 NORTHWOOD COURT, SOUTHLAKE, TX, 76092","Match","Exact","603 NORTHWOOD CT, SOUTHLAKE, TX, 76092",102103455,"L"
255733,"603 OAKWOOD DRIVE","ST CLOUD","MN",56304,45.5613267210001,-94.124297922,233,"603 OAKWOOD DRIVE, ST CLOUD, MN, 56304","Match","Exact","603 OAKWOOD DR, SAINT CLOUD, MN, 56304",167365408,"L"
255734,"603 OMALLEY ST","WAUNAKEE","WI",53597,43.186666948,-89.4604035739999,234,"603 OMALLEY ST, WAUNAKEE, WI, 53597","Match","Non_Exact","603 O'MALLEY ST, WAUNAKEE, WI, 53597",49465945,"R"
255735,"603 OXFORD DR","DUNCANVILLE","TX",75137,32.6466316950001,-96.937179006,235,"603 OXFORD DR, DUNCANVILLE, TX, 75137","Match","Exact","603 OXFORD DR, DUNCANVILLE, TX, 75137",103180200,"R"
255736,"603 PARKWAY DR","WHEATON","IL",60187,41.880763173,-88.096824955,236,"603 PARKWAY DR, WHEATON, IL, 60187","Match","Non_Exact","603 E PARKWAY DR, WHEATON, IL, 60187",112521332,"L"
255737,"603 PASEO DEL LAGO","DONNA","TX",78537,26.1865927920001,-98.054634995,237,"603 PASEO DEL LAGO, DONNA, TX, 78537","Match","Non_Exact","603 PSO DEL LAGO, DONNA, TX, 78537",634690156,"L"
255738,"603 PAWN WAY","SEFFNER","FL",33584,28.007290015,-82.2691619619999,238,"603 PAWN WAY, SEFFNER, FL, 33584","Match","Exact","603 PAWN WAY, SEFFNER, FL, 33584",104541975,"R"
255739,"603 PLEASANT PLAIN RD","FAIRFIELD","IA",52556,41.014664913,-91.9533965799999,239,"603 PLEASANT PLAIN RD, FAIRFIELD, IA, 52556","Match","Exact","603 PLEASANT PLAIN RD, FAIRFIELD, IA, 52556",84418171,"R"
255740,"603 PREAKNESS PLACE RD","VAN ASLTYNE","TX",75495,33.417052402,-96.634324573,240,"603 PREAKNESS PLACE RD, VAN ASLTYNE, TX, 75495","Match","Non_Exact","603 PREAKNESS PLACE RD, VAN ALSTYNE, TX, 75495",63367863,"L"
255741,"603 PRINCETON AVE","VERMILLION","SD",57069,42.786092259,-96.938995295,241,"603 PRINCETON AVE, VERMILLION, SD, 57069","Match","Non_Exact","603 PRINCETON ST, VERMILLION, SD, 57069",172950301,"R"
255742,"603 PUMPKIN PL","NORTH CHESTERFIELD","VA",23236,37.478819236,-77.598407529,242,"603 PUMPKIN PL, NORTH CHESTERFIELD, VA, 23236","Match","Exact","603 PUMPKIN PL, NORTH CHESTERFIELD, VA, 23236",640501525,"L"
255743,"603 QUADE STREET","FOREST HEIGHTS","MD",20745,38.8084737250001,-76.997631879,243,"603 QUADE STREET, FOREST HEIGHTS, MD, 20745","Match","Exact","603 QUADE ST, FOREST HEIGHTS, MD, 20745",76315045,"R"
255744,"603 RAGING RIVER RD","CEDAR PARK","TX",78613,30.5163672080001,-97.7554163949999,244,"603 RAGING RIVER RD, CEDAR PARK, TX, 78613","Match","Exact","603 RAGING RIVER RD, CEDAR PARK, TX, 78613",648536473,"R"
255745,"603 REGENCY COURT","MIDDLETOWN","NY",10940,41.437693838,-74.395707799,245,"603 REGENCY COURT, MIDDLETOWN, NY, 10940","Match","Exact","603 REGENCY CT, MIDDLETOWN, NY, 10940",627006613,"L"
255746,"603 REICHEL CIRCLE NE","STEWARTVILLE","MN",55976,43.8605785340001,-92.4792769169999,246,"603 REICHEL CIRCLE NE, STEWARTVILLE, MN, 55976","Match","Exact","603 REICHEL CIR NE, STEWARTVILLE, MN, 55976",30547670,"L"
255747,"603 RIVER ROAD","SAN ANTONIO","TX",78212,29.4522953090001,-98.478999889,247,"603 RIVER ROAD, SAN ANTONIO, TX, 78212","Match","Exact","603 RIVER RD, SAN ANTONIO, TX, 78212",101524937,"L"
255748,"603 ROSEMARY RD APT 106","CLEVELAND","MS",38732,33.7621238610001,-90.727966153,248,"603 ROSEMARY RD APT 106, CLEVELAND, MS, 38732","Match","Exact","603 ROSEMARY RD, CLEVELAND, MS, 38732",856140,"L"
255749,"603 ROYAL OAKS DR","FRIENDSWOOD","TX",77546,29.5465972490001,-95.205778203,249,"603 ROYAL OAKS DR, FRIENDSWOOD, TX, 77546","Match","Non_Exact","603 ROYAL OAKS, FRIENDSWOOD, TX, 77546",96738976,"L"
255750,"603 S 3RD AVE","BOZEMAN","MT",59715,45.6732059140001,-111.041652247,250,"603 S 3RD AVE, BOZEMAN, MT, 59715","Match","Exact","603 S 3RD AVE, BOZEMAN, MT, 59715",163498334,"L"
255751,"603 S CARNEY ST","ATMORE","AL",36502,31.01694551,-87.496085814,251,"603 S CARNEY ST, ATMORE, AL, 36502","Match","Exact","603 S CARNEY ST, ATMORE, AL, 36502",1928554,"R"
255752,"603 S COLCORD RD SPC B","PAYSON","AZ",85541,NA,NA,252,"603 S COLCORD RD SPC B, PAYSON, AZ, 85541","Tie",NA,NA,NA,NA
255753,"603 S MAIN STREET","MCVILLE","ND",58078,NA,NA,253,"603 S MAIN STREET, MCVILLE, ND, 58078","No_Match",NA,NA,NA,NA
255754,"603 S MAIN STREET","MCVILLE","ND",58254,NA,NA,254,"603 S MAIN STREET, MCVILLE, ND, 58254","No_Match",NA,NA,NA,NA
255755,"603 S MAIN STREET","POPLARVILLE","MS",39470,30.8404272080001,-89.534573598,255,"603 S MAIN STREET, POPLARVILLE, MS, 39470","Match","Exact","603 S MAIN ST, POPLARVILLE, MS, 39470",111465814,"L"
255756,"603 S MAPLE","OTTAWA","KS",66067,38.609814354,-95.2742373469999,256,"603 S MAPLE, OTTAWA, KS, 66067","Match","Non_Exact","603 S MAPLE ST, OTTAWA, KS, 66067",10603507,"L"
255757,"603 S MARIPOSA AVE UNIT 102","LOS ANGELES","CA",90005,34.063364349,-118.299199075,257,"603 S MARIPOSA AVE UNIT 102, LOS ANGELES, CA, 90005","Match","Non_Exact","603 S MARIPOSA AVE, LOS ANGELES, CA, 90005",642861470,"R"
255758,"603 S MT DUTTON WAY","EAGLE MOUNTAIN","UM",84005,NA,NA,258,"603 S MT DUTTON WAY, EAGLE MOUNTAIN, UM, 84005","No_Match",NA,NA,NA,NA
255759,"603 S PEARL ST","KNOX","IN",46534,41.29205396,-86.621977607,259,"603 S PEARL ST, KNOX, IN, 46534","Match","Exact","603 S PEARL ST, KNOX, IN, 46534",8250698,"L"
255760,"603 S PUBLIC RD UNIT 812","LAFAYETTE","CO",80026,39.9928260890001,-105.090482013,260,"603 S PUBLIC RD UNIT 812, LAFAYETTE, CO, 80026","Match","Non_Exact","603 S PUBLIC RD, LAFAYETTE, CO, 80026",188205587,"R"
255761,"603 S PUBLIC ROAD UNIT 122","LAFAYETTE","CO",80026,39.9928260890001,-105.090482013,261,"603 S PUBLIC ROAD UNIT 122, LAFAYETTE, CO, 80026","Match","Non_Exact","603 S PUBLIC RD, LAFAYETTE, CO, 80026",188205587,"R"
255762,"603 SANDY HOOK DRIVE","PASS CHRISTIAN","MS",39571,30.330875844,-89.289657805,262,"603 SANDY HOOK DRIVE, PASS CHRISTIAN, MS, 39571","Match","Exact","603 SANDY HOOK DR, PASS CHRISTIAN, MS, 39571",111373932,"L"
255763,"603 SCHWEDE RD","WENTZVILLE","MO",63385,NA,NA,263,"603 SCHWEDE RD, WENTZVILLE, MO, 63385","No_Match",NA,NA,NA,NA
255764,"603 SEAGAZE DR 110","OCEANSIDE","CA",92054,33.195527989,-117.37798316,264,"603 SEAGAZE DR 110, OCEANSIDE, CA, 92054","Match","Exact","603 SEAGAZE DR, OCEANSIDE, CA, 92054",612852414,"R"
255765,"603 SEAGAZE DR STE 779","OCEANSIDE","CA",92054,33.195527989,-117.37798316,265,"603 SEAGAZE DR STE 779, OCEANSIDE, CA, 92054","Match","Exact","603 SEAGAZE DR, OCEANSIDE, CA, 92054",612852414,"R"
255766,"603 SHILOH DRIVE","LAREDO","TX",78045,NA,NA,266,"603 SHILOH DRIVE, LAREDO, TX, 78045","No_Match",NA,NA,NA,NA
255767,"603 SOUTH EL PASO STREET","COLORADO SPRINGS","CO",80903,38.8250551080001,-104.813332274,267,"603 SOUTH EL PASO STREET, COLORADO SPRINGS, CO, 80903","Match","Exact","603 S EL PASO ST, COLORADO SPRINGS, CO, 80903",105515041,"L"
255768,"603 SOUTH OTTAWA AVENUE","DIXON","IL",61021,41.839120424,-89.479308827,268,"603 SOUTH OTTAWA AVENUE, DIXON, IL, 61021","Match","Exact","603 S OTTAWA AVE, DIXON, IL, 61021",48743791,"L"
255769,"603 SOUTH WEST C STREET APT 2","BENTONVILLE","AR",72712,NA,NA,269,"603 SOUTH WEST C STREET APT 2, BENTONVILLE, AR, 72712","No_Match",NA,NA,NA,NA
255770,"603 STRINGTOWN RD","NEW HOPE","KY",40052,37.620405326,-85.494871195,270,"603 STRINGTOWN RD, NEW HOPE, KY, 40052","Match","Exact","603 STRINGTOWN RD, NEW HOPE, KY, 40052",35152432,"L"
255771,"603 SYCAMORE STREET","FRANKLIN","LA",70538,29.806458386,-91.497250319,271,"603 SYCAMORE STREET, FRANKLIN, LA, 70538","Match","Exact","603 SYCAMORE ST, FRANKLIN, LA, 70538",624120825,"L"
255772,"603 TEXAS AVENUE","SIGNAL MOUNTAIN","TN",37377,35.1247075840001,-85.353284592,272,"603 TEXAS AVENUE, SIGNAL MOUNTAIN, TN, 37377","Match","Exact","603 TEXAS AVE, SIGNAL MOUNTAIN, TN, 37377",605429130,"L"
255773,"603 TIMBERLAND DR","CORDELE","GA",31015,31.939535151,-83.761344654,273,"603 TIMBERLAND DR, CORDELE, GA, 31015","Match","Exact","603 TIMBERLAND DR, CORDELE, GA, 31015",15662299,"L"
255774,"603 TWISTED OAK CT","LEXINGTON","SC",29073,33.927042353,-81.287170521,274,"603 TWISTED OAK CT, LEXINGTON, SC, 29073","Match","Exact","603 TWISTED OAK CT, LEXINGTON, SC, 29073",637485511,"R"
255775,"603 W 115TH STREET","LOS ANGELES","CA",90044,33.9297757470001,-118.285011675,275,"603 W 115TH STREET, LOS ANGELES, CA, 90044","Match","Exact","603 W 115TH ST, LOS ANGELES, CA, 90044",141661693,"R"
255776,"603 W AYLOR","WEBB CITY","MO",64870,37.1525106,-94.468105623,276,"603 W AYLOR, WEBB CITY, MO, 64870","Match","Non_Exact","603 W AYLOR ST, WEBB CITY, MO, 64870",66147838,"R"
255777,"603 W BROAD AVE","FLANDREAU","SD",57028,44.0437182960001,-96.603328806,277,"603 W BROAD AVE, FLANDREAU, SD, 57028","Match","Exact","603 W BROAD AVE, FLANDREAU, SD, 57028",193669348,"L"
255778,"603 W LOWELL AVE","SHENANDOAH","IA",51601,40.766868882,-95.372651646,278,"603 W LOWELL AVE, SHENANDOAH, IA, 51601","Match","Exact","603 W LOWELL AVE, SHENANDOAH, IA, 51601",10222549,"R"
255779,"603 W MAIN STREET","ALMA","NE",68920,40.09737382,-99.361002573,279,"603 W MAIN STREET, ALMA, NE, 68920","Match","Exact","603 MAIN ST, ALMA, NE, 68920",138069583,"L"
255780,"603 W MAIN STREET","LAUREL","MT",59044,45.6683219400001,-108.779977414,280,"603 W MAIN STREET, LAUREL, MT, 59044","Match","Exact","603 W MAIN ST, LAUREL, MT, 59044",181461233,"R"
255781,"603 W TERRACE AVE","FRESNO","CA",93705,36.7729651990001,-119.818777364,281,"603 W TERRACE AVE, FRESNO, CA, 93705","Match","Exact","603 W TERRACE AVE, FRESNO, CA, 93705",197569701,"L"
255782,"603 W WISCONSIN RD","EDINBURG","TX",78539,26.269810519,-98.176454662,282,"603 W WISCONSIN RD, EDINBURG, TX, 78539","Match","Exact","603 W WISCONSIN RD, EDINBURG, TX, 78539",637597392,"R"
255783,"603 WEST 111 STREET -6W","NEW YORK","NY",10025,40.8049005980001,-73.966365474,283,"603 WEST 111 STREET -6W, NEW YORK, NY, 10025","Match","Exact","603 W 111TH ST, NEW YORK, NY, 10025",59656775,"R"
255784,"603 WEST 148TH STREET 3C","NEW YORK","NY",10031,40.828410267,-73.949168497,284,"603 WEST 148TH STREET 3C, NEW YORK, NY, 10031","Match","Exact","603 W 148TH ST, NEW YORK, NY, 10031",59655900,"R"
255785,"603 WEST 148TH STREET APT 3B","NEW YORK","NY",10031,40.828410267,-73.949168497,285,"603 WEST 148TH STREET APT 3B, NEW YORK, NY, 10031","Match","Exact","603 W 148TH ST, NEW YORK, NY, 10031",59655900,"R"
255786,"603 WEST 1ST ST","FRUITLAND","ID",83619,44.0109453330001,-116.920920097,286,"603 WEST 1ST ST, FRUITLAND, ID, 83619","Match","Exact","603 W 1ST ST, FRUITLAND, ID, 83619",141417239,"R"
255787,"603 WEST 2ND STREET","TIFON","GA",31794,31.457456343,-83.5189059099999,287,"603 WEST 2ND STREET, TIFON, GA, 31794","Match","Non_Exact","603 W 2ND ST, TIFTON, GA, 31794",87773594,"R"
255788,"603 WEST CHEYENNE ROAD","COLORADO SPRINGS","CO",80906,38.80263897,-104.838230957,288,"603 WEST CHEYENNE ROAD, COLORADO SPRINGS, CO, 80906","Match","Exact","603 W CHEYENNE RD, COLORADO SPRINGS, CO, 80906",647972507,"L"
255789,"603 WEST UVALDE","ALPINE","TX",79830,30.362400929,-103.669070792,289,"603 WEST UVALDE, ALPINE, TX, 79830","Match","Non_Exact","603 W UVALDE AVE, ALPINE, TX, 79830",183976926,"L"
255790,"603 WHITE JASMINE TRAIL","HOUSTON","TX",77079,29.7725056690001,-95.6175869149999,290,"603 WHITE JASMINE TRAIL, HOUSTON, TX, 77079","Match","Non_Exact","603 WHITE JASMIN TRL, HOUSTON, TX, 77079",645138389,"L"
255791,"603 WILORA LANDING ROAD","CHARLOTTE","NC",28212,35.2145994700001,-80.748813915,291,"603 WILORA LANDING ROAD, CHARLOTTE, NC, 28212","Match","Exact","603 WILORA LANDING RD, CHARLOTTE, NC, 28212",70558071,"L"
255792,"603 WINSTON STREET","OPELIKA","AL",36801,32.6433225330001,-85.401589464,292,"603 WINSTON STREET, OPELIKA, AL, 36801","Match","Exact","603 WINSTON ST, OPELIKA, AL, 36801",1603421,"L"
255793,"603 WOODLAND AVE","EMPORIUM","PA",15834,41.5132429020001,-78.245960308,293,"603 WOODLAND AVE, EMPORIUM, PA, 15834","Match","Exact","603 WOODLAND AVE, EMPORIUM, PA, 15834",126262623,"L"
255794,"603 WOODROW AVE","SANTA CRUZ","CA",95060,36.957109281,-122.037813439,294,"603 WOODROW AVE, SANTA CRUZ, CA, 95060","Match","Exact","603 WOODROW AVE, SANTA CRUZ, CA, 95060",125508458,"L"
255795,"6030  EAST MONTERRA WAY","SCOTTSDALE","AZ",85266,33.7276043370001,-111.950779968,295,"6030  EAST MONTERRA WAY, SCOTTSDALE, AZ, 85266","Match","Exact","6030 E MONTERRA WAY, SCOTTSDALE, AZ, 85266",128859599,"L"
255796,"6030 52ND STREET NORTH","OAKDALE","MN",55128,45.024204593,-92.9839147389999,296,"6030 52ND STREET NORTH, OAKDALE, MN, 55128","Match","Exact","6030 52ND ST N, OAKDALE, MN, 55128",97791162,"L"
255797,"6030 BENNETTSVILLE LANE APT 106","CHARLOTTE","NC",28262,35.3022027810001,-80.798583304,297,"6030 BENNETTSVILLE LANE APT 106, CHARLOTTE, NC, 28262","Match","Exact","6030 BENNETTSVILLE LN, CHARLOTTE, NC, 28262",70547676,"L"
255798,"6030 BETHEL HEIGHTS RD NW","SALEM","OR",97304,45.0410886560001,-123.154711974,298,"6030 BETHEL HEIGHTS RD NW, SALEM, OR, 97304","Match","Exact","6030 BETHEL HEIGHTS RD NW, SALEM, OR, 97304",644022333,"R"
255799,"6030 CRENSHAW BLVD APT 446","LOS ANGELES","CA",90043,33.984991388,-118.330825041,299,"6030 CRENSHAW BLVD APT 446, LOS ANGELES, CA, 90043","Match","Exact","6030 CRENSHAW BLVD, LOS ANGELES, CA, 90043",141655018,"L"
255800,"6030 CRENSHAW BLVD STE 326","LOS ANGELES","CA",90043,33.984991388,-118.330825041,300,"6030 CRENSHAW BLVD STE 326, LOS ANGELES, CA, 90043","Match","Exact","6030 CRENSHAW BLVD, LOS ANGELES, CA, 90043",141655018,"L"
255801,"6030 DAYBREAK CIRCLE STE A150-185","CLARKSVILLE","MD",21029,39.210953562,-76.935590901,301,"6030 DAYBREAK CIRCLE STE A150-185, CLARKSVILLE, MD, 21029","Match","Exact","6030 DAYBREAK CIR, CLARKSVILLE, MD, 21029",158957471,"L"
255802,"6030 DAYBREAK CIRCLE SUITE 150A","CLARKSVILLE","MD",21029,39.210953562,-76.935590901,302,"6030 DAYBREAK CIRCLE SUITE 150A, CLARKSVILLE, MD, 21029","Match","Exact","6030 DAYBREAK CIR, CLARKSVILLE, MD, 21029",158957471,"L"
255803,"6030 DAYBREAK CIRCLE SUITE A150 207","CLARKSVILLE","MD",21029,39.210953562,-76.935590901,303,"6030 DAYBREAK CIRCLE SUITE A150 207, CLARKSVILLE, MD, 21029","Match","Exact","6030 DAYBREAK CIR, CLARKSVILLE, MD, 21029",158957471,"L"
255804,"6030 DAYBREAK CIRCLE SUITE A150 260","CLARKSVILLE","MD",21029,39.210953562,-76.935590901,304,"6030 DAYBREAK CIRCLE SUITE A150 260, CLARKSVILLE, MD, 21029","Match","Exact","6030 DAYBREAK CIR, CLARKSVILLE, MD, 21029",158957471,"L"
255805,"6030 DAYBREAK CIRCLE SUITE A150-183","CLARKSVILLE","MD",21029,39.210953562,-76.935590901,305,"6030 DAYBREAK CIRCLE SUITE A150-183, CLARKSVILLE, MD, 21029","Match","Exact","6030 DAYBREAK CIR, CLARKSVILLE, MD, 21029",158957471,"L"
255806,"6030 DAYBREAK CIRCLE","CLARKSVILLE","MD",21029,39.210953562,-76.935590901,306,"6030 DAYBREAK CIRCLE, CLARKSVILLE, MD, 21029","Match","Exact","6030 DAYBREAK CIR, CLARKSVILLE, MD, 21029",158957471,"L"
255807,"6030 DREXEL ROAD","PHILADELPHIA","PA",19131,39.9884892000001,-75.247271429,307,"6030 DREXEL ROAD, PHILADELPHIA, PA, 19131","Match","Exact","6030 DREXEL RD, PHILADELPHIA, PA, 19131",639333137,"L"
255808,"6030 FM 1001","COOKVILLE","TX",75558,33.254268301,-94.899450202,308,"6030 FM 1001, COOKVILLE, TX, 75558","Match","Exact","6030 FM 1001, COOKVILLE, TX, 75558",83231857,"R"
255809,"6030 GIANT FOREST LN","LAS VEGAS","NV",89107,36.270489942,-115.16803331,309,"6030 GIANT FOREST LN, LAS VEGAS, NV, 89107","Match","Non_Exact","6030 GIANT FOREST LN, N LAS VEGAS, NV, 89031",201930549,"R"
255810,"6030 GLENNIFER LANE","KNOXVILLE","TN",37918,36.044032637,-83.937061221,310,"6030 GLENNIFER LANE, KNOXVILLE, TN, 37918","Match","Exact","6030 GLENNIFER LN, KNOXVILLE, TN, 37918",42617004,"L"
255811,"6030 HIGHWAY 85 STE 248","RIVERDALE","GA",30274,33.594316814,-84.407597493,311,"6030 HIGHWAY 85 STE 248, RIVERDALE, GA, 30274","Match","Non_Exact","6030 STATE RTE 85, RIVERDALE, GA, 30274",23336641,"R"
255812,"6030 HWY 85 STE 236","RIVERDALE","GA",30274,33.594316814,-84.407597493,312,"6030 HWY 85 STE 236, RIVERDALE, GA, 30274","Match","Non_Exact","6030 STATE RTE 85, RIVERDALE, GA, 30274",23336641,"R"
255813,"6030 HWY 85 SUITE 112","RIVERDALE","GA",30274,33.594316814,-84.407597493,313,"6030 HWY 85 SUITE 112, RIVERDALE, GA, 30274","Match","Non_Exact","6030 STATE RTE 85, RIVERDALE, GA, 30274",23336641,"R"
255814,"6030 MARSHALEE DRIVE NUM 658","ELKRIDGE","MD",21075,39.203819632,-76.769706619,314,"6030 MARSHALEE DRIVE NUM 658, ELKRIDGE, MD, 21075","Match","Exact","6030 MARSHALEE DR, ELKRIDGE, MD, 21075",618931574,"L"
255815,"6030 N SHERIDAN RD SUITE 1902","CHICAGO","IL",60660,41.9911536760001,-87.6554230529999,315,"6030 N SHERIDAN RD SUITE 1902, CHICAGO, IL, 60660","Match","Non_Exact","6030 N SHERIDAN RD, CHICAGO, IL, 60660",646582784,"L"
255816,"6030 NICHOLSON ROAD","FRANKSVILLE","WI",53126,NA,NA,316,"6030 NICHOLSON ROAD, FRANKSVILLE, WI, 53126","No_Match",NA,NA,NA,NA
255817,"6030 PRESCOTT RUN LN","KATY","TX",77494,29.705023462,-95.839349405,317,"6030 PRESCOTT RUN LN, KATY, TX, 77494","Match","Exact","6030 PRESCOTT RUN LN, KATY, TX, 77494",627557378,"R"
255818,"6030 S MANN AVE","TUCSON","AZ",85756,32.1425007670001,-110.849544392,318,"6030 S MANN AVE, TUCSON, AZ, 85756","Match","Exact","6030 S MANN AVE, TUCSON, AZ, 85756",121410504,"R"
255819,"6030 S SAWYER AVE","CHICAGO","IL",60629,41.7837874030001,-87.7044925449999,319,"6030 S SAWYER AVE, CHICAGO, IL, 60629","Match","Exact","6030 S SAWYER AVE, CHICAGO, IL, 60629",111804498,"R"
255820,"6030 SAGI CIRCLE","LA VERGNE","TN",37086,36.0247289870001,-86.582681333,320,"6030 SAGI CIRCLE, LA VERGNE, TN, 37086","Match","Exact","6030 SAGI CIR, LA VERGNE, TN, 37086",606778795,"L"
255821,"6030 SOUTH 93RD ST","LINCOLN","NE",68526,40.7515536270001,-96.594463697,321,"6030 SOUTH 93RD ST, LINCOLN, NE, 68526","Match","Exact","6030 S 93RD ST, LINCOLN, NE, 68526",640632125,"L"
255822,"6030 SW 18TH STREET  SUITE A-1","BOCA RATON","FL",33433,26.33186356,-80.1378165419999,322,"6030 SW 18TH STREET  SUITE A-1, BOCA RATON, FL, 33433","Match","Non_Exact","6030 SW 18TH ST, BOCA RATON, FL, 33433",115485127,"L"
255823,"6030 SW 23RD STREET","MIRAMAR","FL",33023,25.98982951,-80.207882089,323,"6030 SW 23RD STREET, MIRAMAR, FL, 33023","Match","Exact","6030 SW 23RD ST, MIRAMAR, FL, 33023",114811422,"L"
255824,"6030 SW SEQUOIA DRIVE","TUALATIN","OR",97062,45.3760524090001,-122.7392649,324,"6030 SW SEQUOIA DRIVE, TUALATIN, OR, 97062","Match","Exact","6030 SW SEQUOIA DR, TUALATIN, OR, 97062",157957478,"R"
255825,"6031 ARMOR DRIVE","POWDER SPRINGS","GA",30127,33.95324356,-84.7307088749999,325,"6031 ARMOR DRIVE, POWDER SPRINGS, GA, 30127","Match","Exact","6031 ARMOR DR, POWDER SPGS, GA, 30127",17254690,"L"
255826,"6031 BELL PARK STREET","AMARILLO","TX",79109,35.1451263600001,-101.901994064,326,"6031 BELL PARK STREET, AMARILLO, TX, 79109","Match","Non_Exact","6031 BELL ST, AMARILLO, TX, 79109",182663570,"L"
255827,"6031 CELT ROAD","STANARDSVILLE","VA",22973,38.2361723590001,-78.4816267859999,327,"6031 CELT ROAD, STANARDSVILLE, VA, 22973","Match","Exact","6031 CELT RD, STANARDSVILLE, VA, 22973",29872687,"R"
255828,"6031 E MAIN STREET UNIT 186","COLUMBUS","OH",43213,39.9547283910001,-82.836509748,328,"6031 E MAIN STREET UNIT 186, COLUMBUS, OH, 43213","Match","Non_Exact","6031 E MAIN ST, COLUMBUS, OH, 43213",135762508,"R"
255829,"6031 EAST MAIN ST NUM 205","COLUMBUS","OH",43213,39.95472792,-82.8365331479999,329,"6031 EAST MAIN ST NUM 205, COLUMBUS, OH, 43213","Match","Exact","6031 E MAIN ST, COLUMBUS, OH, 43213",135762508,"R"
255830,"6031 EAST MAIN STREET STE 114","COLUMBUS","OH",43213,39.95472792,-82.8365331479999,330,"6031 EAST MAIN STREET STE 114, COLUMBUS, OH, 43213","Match","Exact","6031 E MAIN ST, COLUMBUS, OH, 43213",135762508,"R"
255831,"6031 HAYMAKER DR","MAYSVILLE","KY",41056,38.586485339,-83.8178864179999,331,"6031 HAYMAKER DR, MAYSVILLE, KY, 41056","Match","Exact","6031 HAYMAKER DR, MAYSVILLE, KY, 41056",639340248,"L"
255832,"6031 HIGHWAY 6 N STE 165 PMB / 125","HOUSTON","TX",77084,29.862121083,-95.645096176,332,"6031 HIGHWAY 6 N STE 165 PMB / 125, HOUSTON, TX, 77084","Match","Non_Exact","6031 HWY 6, HOUSTON, TX, 77084",624593438,"L"
255833,"6031 HIIGHWAY 6 N STE 165","HOUSTON","TX",77084,NA,NA,333,"6031 HIIGHWAY 6 N STE 165, HOUSTON, TX, 77084","No_Match",NA,NA,NA,NA
255834,"6031 HWY 6 N - STE 165 - NUMBER 200","HOUSTON","TX",77084,NA,NA,334,"6031 HWY 6 N - STE 165 - NUMBER 200, HOUSTON, TX, 77084","No_Match",NA,NA,NA,NA
255835,"6031 MEDFORD DR","HUNTINGTON BEACH","CA",92647,33.7377206370001,-118.023474969,335,"6031 MEDFORD DR, HUNTINGTON BEACH, CA, 92647","Match","Exact","6031 MEDFORD DR, HUNTINGTON BEACH, CA, 92647",144014208,"L"
255836,"6031 N MAIN ST ROAD BOX 195","WEBB CITY","MO",64870,NA,NA,336,"6031 N MAIN ST ROAD BOX 195, WEBB CITY, MO, 64870","No_Match",NA,NA,NA,NA
255837,"6031 N MONTANA","PORTLAND","OR",97217,45.5667234790001,-122.68015801,337,"6031 N MONTANA, PORTLAND, OR, 97217","Match","Non_Exact","6031 N MONTANA AVE, PORTLAND, OR, 97217",157495882,"L"
255838,"6031 NW 44TH LN","COCONUT CREEK","FL",33073,26.3042101840001,-80.18335548,338,"6031 NW 44TH LN, COCONUT CREEK, FL, 33073","Match","Non_Exact","6031 NW 44TH LN, COCONUT CREEK, FL, 33073",648618399,"L"
255839,"6031 SADRING AVENUE","WOODLAND HILLS","CA",91367,34.180135691,-118.637086,339,"6031 SADRING AVENUE, WOODLAND HILLS, CA, 91367","Match","Exact","6031 SADRING AVE, WOODLAND HILLS, CA, 91367",141723203,"L"
255840,"6031 SAINT ANDREWS LANE","RICHMOND","VA",23226,37.572128014,-77.5285306059999,340,"6031 SAINT ANDREWS LANE, RICHMOND, VA, 23226","Match","Exact","6031 ST ANDREWS LN, RICHMOND, VA, 23226",201532226,"L"
255841,"6031 SCOTFORD CT","ROANOKE","VA",24018,37.22494598,-80.035883825,341,"6031 SCOTFORD CT, ROANOKE, VA, 24018","Match","Exact","6031 SCOTFORD CT, ROANOKE, VA, 24018",629416091,"R"
255842,"6031 SE 26TH TERRACE","GULF HAMMOCK","FL",32639,29.2423219830001,-82.7198368849999,342,"6031 SE 26TH TERRACE, GULF HAMMOCK, FL, 32639","Match","Exact","6031 SE 26TH TER, GULF HAMMOCK, FL, 32639",43319162,"R"
255843,"6031 SHORTLEAF PINE COURT","CHARLOTTE","NC",28215,35.2345762950001,-80.6797171269999,343,"6031 SHORTLEAF PINE COURT, CHARLOTTE, NC, 28215","Match","Exact","6031 SHORTLEAF PINE CT, CHARLOTTE, NC, 28215",618149951,"L"
255844,"6031 SOUTH COUNTY ROAD 400 EAST","CARLISLE","IN",47838,38.9940036,-87.3365875539999,344,"6031 SOUTH COUNTY ROAD 400 EAST, CARLISLE, IN, 47838","Match","Exact","6031 S CO RD 400 E, CARLISLE, IN, 47838",27070549,"R"
255845,"6031 SOUTHWEST AVE","SAINT LOUIS","MO",63139,38.610142141,-90.290035476,345,"6031 SOUTHWEST AVE, SAINT LOUIS, MO, 63139","Match","Exact","6031 SOUTHWEST AVE, SAINT LOUIS, MO, 63139",107594474,"R"
255846,"6031 SW 97 AVE","MIAMI","FL",33173,25.7121170190001,-80.350690836,346,"6031 SW 97 AVE, MIAMI, FL, 33173","Match","Non_Exact","6031 SW 97TH AVE, MIAMI, FL, 33173",115973704,"L"
255847,"6031 TUSCOBIA TRAIL","MCFARLAND","WI",53558,43.010389091,-89.27624184,347,"6031 TUSCOBIA TRAIL, MCFARLAND, WI, 53558","Match","Exact","6031 TUSCOBIA TRL, MCFARLAND, WI, 53558",649023308,"R"
255848,"6032 6TH AVE NW","SEATTLE","WA",98107,47.6727366220001,-122.363998624,348,"6032 6TH AVE NW, SEATTLE, WA, 98107","Match","Exact","6032 6TH AVE NW, SEATTLE, WA, 98107",186579108,"R"
255849,"6032 CECELIA DRIVE","NEW PORT RICHEY","FL",34653,28.2316478700001,-82.714608493,349,"6032 CECELIA DRIVE, NEW PORT RICHEY, FL, 34653","Match","Exact","6032 CECELIA DR, NEW PORT RICHEY, FL, 34653",86374086,"L"
255850,"6032 CEDAR ST","WRIGHTWOOD","CA",92397,34.3601349940001,-117.632833651,350,"6032 CEDAR ST, WRIGHTWOOD, CA, 92397","Match","Exact","6032 CEDAR ST, WRIGHTWOOD, CA, 92397",144631529,"R"
255851,"6032 REGENTS PARK RD","CENTREVILLE","VA",20120,38.8419990460001,-77.456179506,351,"6032 REGENTS PARK RD, CENTREVILLE, VA, 20120","Match","Exact","6032 REGENTS PARK RD, CENTREVILLE, VA, 20120",75955498,"R"
255852,"6032 TURTLE CREEK COURT","NORTH RICHLAND HILLS","TX",76180,32.8555404150001,-97.2083174859999,352,"6032 TURTLE CREEK COURT, NORTH RICHLAND HILLS, TX, 76180","Match","Exact","6032 TURTLE CREEK CT, NORTH RICHLAND HILLS, TX, 76180",637604001,"R"
255853,"6032 WEST CROWLEY AVENUE","VISALIA","CA",93291,36.3315005740001,-119.357764799,353,"6032 WEST CROWLEY AVENUE, VISALIA, CA, 93291","Match","Exact","6032 W CROWLEY AVE, VISALIA, CA, 93291",202804657,"R"
255854,"6032 WESTRIDGE LANE APT 211","FORT WORTH","TX",76116,32.7104360160001,-97.4143319889999,354,"6032 WESTRIDGE LANE APT 211, FORT WORTH, TX, 76116","Match","Exact","6032 WESTRIDGE LN, FORT WORTH, TX, 76116",102135126,"R"
255855,"60324 SE 70TH STREET","SAWYER","KS",67134,37.543823215,-98.615084345,355,"60324 SE 70TH STREET, SAWYER, KS, 67134","Match","Exact","60324 SE 70TH ST, SAWYER, KS, 67134",161044982,"R"
255856,"60324 WOODSIDE ROAD","BEND","OR",97702,43.990087556,-121.297607204,356,"60324 WOODSIDE ROAD, BEND, OR, 97702","Match","Exact","60324 WOODSIDE RD, BEND, OR, 97702",152528401,"L"
255857,"6033 BEAR CREEK DRIVE APT 208","BEDFORD","OH",44146,41.396537665,-81.511559329,357,"6033 BEAR CREEK DRIVE APT 208, BEDFORD, OH, 44146","Match","Exact","6033 BEAR CREEK DR, BEDFORD, OH, 44146",650142435,"L"
255858,"6033 FORDS","ACWORTH","GA",30101,NA,NA,358,"6033 FORDS, ACWORTH, GA, 30101","No_Match",NA,NA,NA,NA
255859,"6033 HAMPTON DRIVE","CARPENTERSVILLE","IL",60616,42.11442041,-88.247530639,359,"6033 HAMPTON DRIVE, CARPENTERSVILLE, IL, 60616","Match","Non_Exact","6033 HAMPTON DR, CARPENTERSVILLE, IL, 60110",636318704,"L"
255860,"6033 HIGHLAND HILLS PKWY","STONE MOUNTAIN","GA",30088,33.7385694610001,-84.18417157,360,"6033 HIGHLAND HILLS PKWY, STONE MOUNTAIN, GA, 30088","Match","Exact","6033 HIGHLAND HILLS PKWY, STONE MOUNTAIN, GA, 30088",639492609,"L"
255861,"6033 JEANINE DR","SACRAMENTO","CA",95842,38.675423224,-121.345285355,361,"6033 JEANINE DR, SACRAMENTO, CA, 95842","Match","Exact","6033 JEANINE DR, SACRAMENTO, CA, 95842",629161721,"L"
255862,"6033 LADY BET DR","ORLANDO","FL",32819,28.462984604,-81.515640128,362,"6033 LADY BET DR, ORLANDO, FL, 32819","Match","Exact","6033 LADY BET DR, ORLANDO, FL, 32819",94337481,"R"
255863,"6033 LONG BAYOU WAY N","ST PETERSBURG","FL",33708,27.827237654,-82.7724969,363,"6033 LONG BAYOU WAY N, ST PETERSBURG, FL, 33708","Match","Exact","6033 LONG BAYOU WAY N, SAINT PETERSBURG, FL, 33708",622523886,"R"
255864,"6033 MAPLECREST ROAD","FORT WAYNE","IN",46835,41.135884923,-85.0622646419999,364,"6033 MAPLECREST ROAD, FORT WAYNE, IN, 46835","Match","Exact","6033 MAPLECREST RD, FORT WAYNE, IN, 46835",6384690,"L"
255865,"6033 NORTH 38TH STREET","MILWAUKEE","WI",53209,43.127716901,-87.959756899,365,"6033 NORTH 38TH STREET, MILWAUKEE, WI, 53209","Match","Exact","6033 N 38TH ST, MILWAUKEE, WI, 53209",641664966,"L"
255866,"6033 S MAJOR STREET","CHICAGO","IL",60638,41.7828522140001,-87.764348029,366,"6033 S MAJOR STREET, CHICAGO, IL, 60638","Match","Non_Exact","6033 S MAJOR AVE, CHICAGO, IL, 60638",111797534,"L"
255867,"6033 SE 71ST STREET","OKLAHOMA CITY","OK",73135,35.3944626860001,-97.417617599,367,"6033 SE 71ST STREET, OKLAHOMA CITY, OK, 73135","Match","Exact","6033 SE 71ST ST, OKLAHOMA CITY, OK, 73135",646820116,"R"
255868,"6034 59TH ROAD","MASPETH","NY",11378,40.7188687600001,-73.906171945,368,"6034 59TH ROAD, MASPETH, NY, 11378","Match","Non_Exact","6034 59TH AVE, MASPETH, NY, 11378",59694247,"R"
255869,"6034 CHATEAU DRIVE","SAN DIEGO","CA",92117,32.8218731690001,-117.17259946,369,"6034 CHATEAU DRIVE, SAN DIEGO, CA, 92117","Match","Exact","6034 CHATEAU DR, SAN DIEGO, CA, 92117",612889271,"L"
255870,"6034 CHESTER AVENUE STE 206A","JACKSONVILLE","FL",32217,30.260651782,-81.622251636,370,"6034 CHESTER AVENUE STE 206A, JACKSONVILLE, FL, 32217","Match","Exact","6034 CHESTER AVE, JACKSONVILLE, FL, 32217",83916692,"R"
255871,"6034 CHESTER AVENUE SUITE 105","JACKSONVILLE","FL",32217,30.260651782,-81.622251636,371,"6034 CHESTER AVENUE SUITE 105, JACKSONVILLE, FL, 32217","Match","Exact","6034 CHESTER AVE, JACKSONVILLE, FL, 32217",83916692,"R"
255872,"6034 DAN DRIVE","ELLENWOOD","GA",30294,33.591371639,-84.303972835,372,"6034 DAN DRIVE, ELLENWOOD, GA, 30294","Match","Exact","6034 DAN DR, ELLENWOOD, GA, 30294",23326694,"R"
255873,"6034 FERNVIEW AVE","CINCINNATI","OH",45212,39.1783859010001,-84.443122629,373,"6034 FERNVIEW AVE, CINCINNATI, OH, 45212","Match","Exact","6034 FERNVIEW AVE, CINCINNATI, OH, 45212",103929247,"R"
255874,"6034 RIVER LAKE CIR","RALEIGH","NC",27604,35.8325284690001,-78.538092573,374,"6034 RIVER LAKE CIR, RALEIGH, NC, 27604","Match","Exact","6034 RIVER LAKE CIR, RALEIGH, NC, 27604",208345041,"R"
255875,"6034 S ABERDEEN ST","CHICAGO","IL",60621,41.7845852390001,-87.652202834,375,"6034 S ABERDEEN ST, CHICAGO, IL, 60621","Match","Exact","6034 S ABERDEEN ST, CHICAGO, IL, 60621",605487150,"R"
255876,"6034 SAN FERNANDO ROAD","GLENDALE","CA",91340,34.1605089670001,-118.281136584,376,"6034 SAN FERNANDO ROAD, GLENDALE, CA, 91340","Match","Non_Exact","6034 SAN FERNANDO RD, GLENDALE, CA, 91202",141596632,"R"
255877,"6035 12TH ST","ZEPHYRHILLS","FL",33542,28.24553466,-82.1799768929999,377,"6035 12TH ST, ZEPHYRHILLS, FL, 33542","Match","Exact","6035 12TH ST, ZEPHYRHILLS, FL, 33542",86356518,"L"
255878,"6035 135TH ST N","HUGO","MN",55038,45.1459348700001,-92.98437003,378,"6035 135TH ST N, HUGO, MN, 55038","Match","Exact","6035 135TH ST N, HUGO, MN, 55038",97802173,"R"
255879,"6035 66TH TERRACE NORTH","PINELLAS PARK","FL",33781,NA,NA,379,"6035 66TH TERRACE NORTH, PINELLAS PARK, FL, 33781","Tie",NA,NA,NA,NA
255880,"6035 BELNEATH ST","HOUSTON","TX",77033,29.662688331,-95.3228327749999,380,"6035 BELNEATH ST, HOUSTON, TX, 77033","Match","Exact","6035 BELNEATH ST, HOUSTON, TX, 77033",96091427,"L"
255881,"6035 BRAYSVILLE RD","SPENCER","IN",47460,39.2120110610001,-86.7823337849999,381,"6035 BRAYSVILLE RD, SPENCER, IN, 47460","Match","Exact","6035 BRAYSVILLE RD, SPENCER, IN, 47460",606706343,"L"
255882,"6035 CAPITOL KNOLL","FAIRBURN","GA",30213,33.5771761240001,-84.571736947,382,"6035 CAPITOL KNOLL, FAIRBURN, GA, 30213","Match","Exact","6035 CAPITOL KNOLL, FAIRBURN, GA, 30213",639816767,"L"
255883,"6035 DARTMOOR COURT","INDIANAPOLIS","IN",46254,39.834322166,-86.2677036649999,383,"6035 DARTMOOR COURT, INDIANAPOLIS, IN, 46254","Match","Exact","6035 DARTMOOR CT, INDIANAPOLIS, IN, 46254",107975959,"L"
255884,"6035 FINZEL RD","WHITEHOUSE","OH",43571,41.5310481430001,-83.781018912,384,"6035 FINZEL RD, WHITEHOUSE, OH, 43571","Match","Exact","6035 FINZEL RD, WHITEHOUSE, OH, 43571",33952357,"L"
255885,"6035 FLORENCE AVENUE SUITE 100","CHARLOTTE","NC",28212,35.1832307380001,-80.7643841729999,385,"6035 FLORENCE AVENUE SUITE 100, CHARLOTTE, NC, 28212","Match","Exact","6035 FLORENCE AVE, CHARLOTTE, NC, 28212",644808977,"L"
255886,"6035 HIGH DRIVE","MISSION HILLS","KS",66208,39.018821245,-94.609933579,386,"6035 HIGH DRIVE, MISSION HILLS, KS, 66208","Match","Exact","6035 HIGH DR, MISSION HILLS, KS, 66208",91286450,"L"
255887,"6035 KENSINGER PASS","CONVERSE","TX",78109,29.4864230200001,-98.312033894,387,"6035 KENSINGER PASS, CONVERSE, TX, 78109","Match","Exact","6035 KENSINGER PASS, CONVERSE, TX, 78109",101741217,"L"
255888,"6035 KINGSBRIAR DR","YORBA LINDA","CA",92886,33.8739757910001,-117.789173731,388,"6035 KINGSBRIAR DR, YORBA LINDA, CA, 92886","Match","Exact","6035 KINGSBRIAR DR, YORBA LINDA, CA, 92886",144032521,"R"
255889,"6035 N 900 E","HOWE","IN",46746,41.7295257010001,-85.253854152,389,"6035 N 900 E, HOWE, IN, 46746","Match","Exact","6035 N 900 E, HOWE, IN, 46746",8199293,"R"
255890,"6035 RIDGE FIELD","SAN ANTONIO","TX",78250,29.4891540450001,-98.6671941559999,390,"6035 RIDGE FIELD, SAN ANTONIO, TX, 78250","Match","Non_Exact","6035 RIDGE FIELD ST, SAN ANTONIO, TX, 78250",101505346,"L"
255891,"6035 TIMBERCREEK AVENUE","BATON ROUGE","LA",70806,30.458026036,-91.1280473849999,391,"6035 TIMBERCREEK AVENUE, BATON ROUGE, LA, 70806","Match","Exact","6035 TIMBERCREEK AVE, BATON ROUGE, LA, 70806",92211299,"L"
255892,"6036 BEACON ISLES DR","TAMPA","FL",33615,NA,NA,392,"6036 BEACON ISLES DR, TAMPA, FL, 33615","No_Match",NA,NA,NA,NA
255893,"6036 GRABURNS FORD DRIVE","CHARLOTTE","NC",28269,35.3824295260001,-80.751329144,393,"6036 GRABURNS FORD DRIVE, CHARLOTTE, NC, 28269","Match","Non_Exact","6036 GRABURN'S FORD DR, CHARLOTTE, NC, 28269",652201978,"R"
255894,"6036 KELLOGG AVENUE","EDINA","MN",55424,44.8937570800001,-93.3378600249999,394,"6036 KELLOGG AVENUE, EDINA, MN, 55424","Match","Exact","6036 KELLOGG AVE, EDINA, MN, 55424",43627313,"R"
255895,"6036 LONG PEAK DRIVE","ORLANDO","FL",32810,28.618941508,-81.458303449,395,"6036 LONG PEAK DRIVE, ORLANDO, FL, 32810","Match","Exact","6036 LONG PEAK DR, ORLANDO, FL, 32810",94341187,"L"
255896,"6036 PASEO CANYON DRIVE","MALIBU","CA",90265,34.0392559900001,-118.843447219,396,"6036 PASEO CANYON DRIVE, MALIBU, CA, 90265","Match","Exact","6036 PASEO CANYON DR, MALIBU, CA, 90265",141719955,"R"
255897,"6036 PINSON ROAD","SPRINGFIELD","TN",37172,36.5731116540001,-86.764238485,397,"6036 PINSON ROAD, SPRINGFIELD, TN, 37172","Match","Exact","6036 PINSON RD, SPRINGFIELD, TN, 37172",97437089,"L"
255898,"6036 RALEIGH LAGRANGE RD","MEMPHIS","TN",38134,35.1813455320001,-89.861768829,398,"6036 RALEIGH LAGRANGE RD, MEMPHIS, TN, 38134","Match","Exact","6036 RALEIGH LAGRANGE RD, MEMPHIS, TN, 38134",72924575,"L"
255899,"6036 SIDEWINDER TRAIL","FORT WORTH","TX",76131,32.852040183,-97.329517583,399,"6036 SIDEWINDER TRAIL, FORT WORTH, TX, 76131","Match","Exact","6036 SIDEWINDER TRL, FORT WORTH, TX, 76131",101856994,"R"
255900,"6036 WAGGONERS GAP ROAD","LANDISBURG","PA",17040,40.3528942180001,-77.285697451,400,"6036 WAGGONERS GAP ROAD, LANDISBURG, PA, 17040","Match","Exact","6036 WAGGONERS GAP RD, LANDISBURG, PA, 17040",640213032,"L"
255901,"6036 WASHINGTON AVE","PHILADELPHIA","PA",19143,39.9479829050001,-75.244463302,401,"6036 WASHINGTON AVE, PHILADELPHIA, PA, 19143","Match","Exact","6036 WASHINGTON AVE, PHILADELPHIA, PA, 19143",131397864,"L"
255902,"60366 MARVIN ROAD","LA GRANDE","OR",97850,45.299186385,-118.11701798,402,"60366 MARVIN ROAD, LA GRANDE, OR, 97850","Match","Exact","60366 MARVIN RD, LA GRANDE, OR, 97850",138855457,"L"
255903,"6037 BAKER ROAD","MINNETONKA","MN",55345,44.894849719,-93.447137805,403,"6037 BAKER ROAD, MINNETONKA, MN, 55345","Match","Exact","6037 BAKER RD, MINNETONKA, MN, 55345",646354464,"L"
255904,"6037 CHABOLYN TERRRACE","OAKLAND","CA",94618,37.8520409170001,-122.244544276,404,"6037 CHABOLYN TERRRACE, OAKLAND, CA, 94618","Match","Non_Exact","6037 CHABOLYN TER, OAKLAND, CA, 94618",125051085,"L"
255905,"6037 CHRISMARK AVE","SAN DIEGO","CA",92120,32.7872317170001,-117.065877899,405,"6037 CHRISMARK AVE, SAN DIEGO, CA, 92120","Match","Exact","6037 CHRISMARK AVE, SAN DIEGO, CA, 92120",195323403,"R"
255906,"6037 E SAINT JOSEPH STREET","INDIANAPOLIS","IN",46219,39.7803371530001,-86.063129434,406,"6037 E SAINT JOSEPH STREET, INDIANAPOLIS, IN, 46219","Match","Exact","6037 E ST JOSEPH ST, INDIANAPOLIS, IN, 46219",108003321,"R"
255907,"6037 FOREST RIVER DRIVE","FORT WORTH","TX",76112,32.7788824520001,-97.22978818,407,"6037 FOREST RIVER DRIVE, FORT WORTH, TX, 76112","Match","Exact","6037 FOREST RIVER DR, FORT WORTH, TX, 76112",102103198,"R"
255908,"6037 FRY RD 126-137","KATY","TX",77449,29.8596737770001,-95.719671934,408,"6037 FRY RD 126-137, KATY, TX, 77449","Match","Exact","6037 FRY RD, KATY, TX, 77449",635221705,"L"
255909,"6037 LOMA AVE","TEMPLE CITY","CA",91780,34.1084978760001,-118.069442032,409,"6037 LOMA AVE, TEMPLE CITY, CA, 91780","Match","Exact","6037 LOMA AVE, TEMPLE CITY, CA, 91780",142736620,"L"
255910,"6037 MAIN STREET","KANSAS CITY","MO",64113,39.0187448200001,-94.588086174,410,"6037 MAIN STREET, KANSAS CITY, MO, 64113","Match","Exact","6037 MAIN ST, KANSAS CITY, MO, 64113",91448308,"L"
255911,"6037 N NAGLE AVE","CHICAGO","IL",60646,41.9910158590001,-87.787575553,411,"6037 N NAGLE AVE, CHICAGO, IL, 60646","Match","Exact","6037 N NAGLE AVE, CHICAGO, IL, 60646",616788624,"R"
255912,"6037 NORTH FRY ROAD SUITE 126","KATY","TX",77449,29.8596737770001,-95.719671934,412,"6037 NORTH FRY ROAD SUITE 126, KATY, TX, 77449","Match","Non_Exact","6037 FRY RD, KATY, TX, 77449",635221705,"L"
255913,"6037 SUNNY BROOK RD","LENA","WI",54139,45.001665555,-88.061684279,413,"6037 SUNNY BROOK RD, LENA, WI, 54139","Match","Exact","6037 SUNNY BROOK RD, LENA, WI, 54139",170334992,"L"
255914,"6037 SW 19TH PLACE","NORTH LAUDERDALE","FL",33068,26.2016142200001,-80.205042982,414,"6037 SW 19TH PLACE, NORTH LAUDERDALE, FL, 33068","Match","Exact","6037 SW 19TH PL, N LAUDERDALE, FL, 33068",619926864,"L"
255915,"6037 WINTHROP COMMERCE AVENUE","RIVERVIEW","FL",33578,27.893063377,-82.31521581,415,"6037 WINTHROP COMMERCE AVENUE, RIVERVIEW, FL, 33578","Match","Exact","6037 WINTHROP COMMERCE AVE, RIVERVIEW, FL, 33578",650618300,"R"
255916,"60375 STEWART RD","CAMBRIDGE","OH",43725,39.9811516680001,-81.641998948,416,"60375 STEWART RD, CAMBRIDGE, OH, 43725","Match","Exact","60375 STEWART RD, CAMBRIDGE, OH, 43725",612395338,"R"
255917,"6038 GRABURNS FORD DRIVE","CHARLOTTE","NC",28269,NA,NA,417,"6038 GRABURNS FORD DRIVE, CHARLOTTE, NC, 28269","No_Match",NA,NA,NA,NA
255918,"6038 HOOVER DR","MAYSLANDING","NJ",8330,39.452117834,-74.765490545,418,"6038 HOOVER DR, MAYSLANDING, NJ, 8330","Match","Non_Exact","6038 HOOVER DR, MAYS LANDING, NJ, 08330",202506846,"L"
255919,"6038 LEGENDS VILLA DR","TAMPA","FL",33614,28.002657621,-82.506562585,419,"6038 LEGENDS VILLA DR, TAMPA, FL, 33614","Match","Exact","6038 LEGENDS VILLA DR, TAMPA, FL, 33614",104669295,"L"
255920,"6038 N TRAYMORE AVE","AZUSA","CA",91702,34.12236275,-117.882226284,420,"6038 N TRAYMORE AVE, AZUSA, CA, 91702","Match","Exact","6038 TRAYMORE AVE, AZUSA, CA, 91702",141710579,"R"
255921,"6038 STATE HIGHWAY 159","LA GRANGE","TX",78945,29.9463176580001,-96.799958492,421,"6038 STATE HIGHWAY 159, LA GRANGE, TX, 78945","Match","Exact","6038 STATE HWY 159, LA GRANGE, TX, 78945",41998410,"R"
255922,"6038 WETHEROLE STREET","ELMHURST","NY",11373,NA,NA,422,"6038 WETHEROLE STREET, ELMHURST, NY, 11373","No_Match",NA,NA,NA,NA
255923,"6039 BLUE SAGE DR","LAND O LAKES","FL",34639,28.2442329030001,-82.443404787,423,"6039 BLUE SAGE DR, LAND O LAKES, FL, 34639","Match","Exact","6039 BLUE SAGE DR, LAND O LAKES, FL, 34639",618493811,"L"
255924,"6039 COUNTRY CLUB DRIVE","VICTORIA","TX",77904,28.852682837,-97.002628521,424,"6039 COUNTRY CLUB DRIVE, VICTORIA, TX, 77904","Match","Exact","6039 COUNTRY CLUB DR, VICTORIA, TX, 77904",648406672,"R"
255925,"6039 CYPRESS GARDENS BLVD NUM 565","WINTER HAVEN","FL",33884,NA,NA,425,"6039 CYPRESS GARDENS BLVD NUM 565, WINTER HAVEN, FL, 33884","No_Match",NA,NA,NA,NA
255926,"6039 CYPRESS GARDENS BLVD SUITE 165","WINTER HAVEN","FL",33884,NA,NA,426,"6039 CYPRESS GARDENS BLVD SUITE 165, WINTER HAVEN, FL, 33884","No_Match",NA,NA,NA,NA
255927,"6039 CYPRESS GARDENS BLVD SUITE 511","WINTER HAVEN","FL",33884,NA,NA,427,"6039 CYPRESS GARDENS BLVD SUITE 511, WINTER HAVEN, FL, 33884","No_Match",NA,NA,NA,NA
255928,"6039 MORGAN SHORES RD","LAKE ARTHUR","LA",70549,30.063748837,-92.7065281869999,428,"6039 MORGAN SHORES RD, LAKE ARTHUR, LA, 70549","Match","Exact","6039 MORGAN SHORES RD, LAKE ARTHUR, LA, 70549",88220512,"L"
255929,"6039 N 12TH ST","PHILADELPHIA","PA",19141,40.0445675620001,-75.139632446,429,"6039 N 12TH ST, PHILADELPHIA, PA, 19141","Match","Exact","6039 N 12TH ST, PHILADELPHIA, PA, 19141",131413996,"R"
255930,"6039 NW 16TH COURT","MARGATE","FL",33063,26.248084681,-80.2052361199999,430,"6039 NW 16TH COURT, MARGATE, FL, 33063","Match","Exact","6039 NW 16TH CT, MARGATE, FL, 33063",114692311,"R"
255931,"6039 PEBBLESTONE ROAD","SYLVANIA","OH",43560,41.7235017080001,-83.6823347599999,431,"6039 PEBBLESTONE ROAD, SYLVANIA, OH, 43560","Match","Non_Exact","6039 PEBBLE STONE RD, SYLVANIA, OH, 43560",33927751,"L"
255932,"6039 PLAINFIELD","DEARBORN HEIGHTS","MI",48127,42.330250768,-83.305786757,432,"6039 PLAINFIELD, DEARBORN HEIGHTS, MI, 48127","Match","Non_Exact","6039 PLAINFIELD ST, DEARBORN HEIGHTS, MI, 48127",95429373,"L"
255933,"6039 RIVEROAK TERRACE","ATLANTA","GA",30349,NA,NA,433,"6039 RIVEROAK TERRACE, ATLANTA, GA, 30349","No_Match",NA,NA,NA,NA
255934,"6039 SELFRIDGE BLVD","LANSING","MI",48911,42.6707331280001,-84.576961857,434,"6039 SELFRIDGE BLVD, LANSING, MI, 48911","Match","Exact","6039 SELFRIDGE BLVD, LANSING, MI, 48911",17502504,"L"
255935,"6039 WEST POINT LOMA BLVD","SAN DIEGO","CA",92110,NA,NA,435,"6039 WEST POINT LOMA BLVD, SAN DIEGO, CA, 92110","No_Match",NA,NA,NA,NA
255936,"603B E UNIVERSITY DRIVE 306","CARSON","CA",90746,33.8582613670001,-118.265605869,436,"603B E UNIVERSITY DRIVE 306, CARSON, CA, 90746","Match","Exact","603 E UNIVERSITY DR, CARSON, CA, 90746",241258232,"R"
255937,"604 13TH STREET","MOSINEE","WI",54455,44.797552206,-89.7171117569999,437,"604 13TH STREET, MOSINEE, WI, 54455","Match","Exact","604 13TH ST, MOSINEE, WI, 54455",117128463,"R"
255938,"604 173RD ST","HAMMOND","IN",46324,41.5809538410001,-87.513596529,438,"604 173RD ST, HAMMOND, IN, 46324","Match","Exact","604 173RD ST, HAMMOND, IN, 46324",98417695,"R"
255939,"604 1ST DIVISION ROAD","FORT BENNING","GA",31905,32.358185126,-84.949129899,439,"604 1ST DIVISION ROAD, FORT BENNING, GA, 31905","Match","Exact","604 1ST DIVISION RD, FORT BENNING, GA, 31905",76776176,"L"
255940,"604 21ST AVENUE EAST UNIT 39","MENOMONIE","WI",54751,44.863810346,-91.923305577,440,"604 21ST AVENUE EAST UNIT 39, MENOMONIE, WI, 54751","Match","Exact","604 21ST AVE E, MENOMONIE, WI, 54751",639746775,"L"
255941,"604 3RD ST","GRAHAM","TX",76450,33.105885175,-98.5893637899999,441,"604 3RD ST, GRAHAM, TX, 76450","Match","Exact","604 3RD ST, GRAHAM, TX, 76450",183299796,"L"
255942,"604 4TH STREET","MEADOW","TX",79345,33.340625027,-102.21065794,442,"604 4TH STREET, MEADOW, TX, 79345","Match","Exact","604 4TH ST, MEADOW, TX, 79345",185890366,"L"
255943,"604 5TH ST SE","DODGE CENTER","MN",55927,44.0235912320001,-92.8451771859999,443,"604 5TH ST SE, DODGE CENTER, MN, 55927","Match","Exact","604 5TH ST SE, DODGE CENTER, MN, 55927",31419882,"R"
255944,"604 A NORTH 4TH STREET","LAS VEGAS","NV",89101,36.176067389,-115.137562842,444,"604 A NORTH 4TH STREET, LAS VEGAS, NV, 89101","Match","Exact","604 N 4TH ST, LAS VEGAS, NV, 89101",201867129,"R"
255945,"604 ALAMEDA DE LAS PULGAS","SAN MATEO","CA",94402,37.5530182410001,-122.331461054,445,"604 ALAMEDA DE LAS PULGAS, SAN MATEO, CA, 94402","Match","Exact","604 ALAMEDA DE LAS PULGAS, SAN MATEO, CA, 94402",192387112,"R"
255946,"604 AMY WAY","EULESS","TX",76039,32.84452487,-97.0738175229999,446,"604 AMY WAY, EULESS, TX, 76039","Match","Exact","604 AMY WAY, EULESS, TX, 76039",102116033,"R"
255947,"604 ANDERSON ST","TUPELO","MS",38801,34.2495017730001,-88.742457751,447,"604 ANDERSON ST, TUPELO, MS, 38801","Match","Exact","604 ANDERSON ST, TUPELO, MS, 38801",90657717,"L"
255948,"604 APPLESEED DR","INDIANAPOLIS","IN",46217,39.6906358160001,-86.171158742,448,"604 APPLESEED DR, INDIANAPOLIS, IN, 46217","Match","Non_Exact","604 APPLESEED WAY, INDIANAPOLIS, IN, 46217",641698821,"L"
255949,"604 ARTWOOD DR","PHILADELPHIA","PA",19115,40.0984624160001,-75.053575397,449,"604 ARTWOOD DR, PHILADELPHIA, PA, 19115","Match","Exact","604 ARTWOOD DR, PHILADELPHIA, PA, 19115",131441229,"R"
255950,"604 AVENUE B","OPELIKA","AL",36801,32.6481397090001,-85.375149821,450,"604 AVENUE B, OPELIKA, AL, 36801","Match","Exact","604 AVE B, OPELIKA, AL, 36801",1572169,"R"
255951,"604 BANYAN TRL STE 810912","BOCA RATON","FL",33431,26.3768844730001,-80.119828974,451,"604 BANYAN TRL STE 810912, BOCA RATON, FL, 33431","Match","Exact","604 BANYAN TRL, BOCA RATON, FL, 33431",115551993,"R"
255952,"604 BARTLETT CT","BRENTWOOD","CA",94513,37.9275613350001,-121.685297008,452,"604 BARTLETT CT, BRENTWOOD, CA, 94513","Match","Exact","604 BARTLETT CT, BRENTWOOD, CA, 94513",192101680,"R"
255953,"604 BAYLOR ST","AUSTIN","TX",78703,30.272087927,-97.754911055,453,"604 BAYLOR ST, AUSTIN, TX, 78703","Match","Exact","604 BAYLOR ST, AUSTIN, TX, 78703",63942953,"L"
255954,"604 BELMONT ROAD","BETTENDORF","IA",52722,41.55353899,-90.472526224,454,"604 BELMONT ROAD, BETTENDORF, IA, 52722","Match","Exact","604 BELMONT RD, BETTENDORF, IA, 52722",653241093,"R"
255955,"604 BETHEL STREET","CLOVER","SC",29710,35.109210289,-81.217216524,455,"604 BETHEL STREET, CLOVER, SC, 29710","Match","Exact","604 BETHEL ST, CLOVER, SC, 29710",19785669,"L"
255956,"604 BIELENBERG DRIVE SUITE 250 RM A","WOODBURY","MN",55125,44.935759713,-92.954362983,456,"604 BIELENBERG DRIVE SUITE 250 RM A, WOODBURY, MN, 55125","Match","Exact","604 BIELENBERG DR, WOODBURY, MN, 55125",649727697,"R"
255957,"604 BIG ROCK ST","CANTON","TX",75103,32.55309507,-95.867586844,457,"604 BIG ROCK ST, CANTON, TX, 75103","Match","Exact","604 BIG ROCK ST, CANTON, TX, 75103",42919674,"R"
255958,"604 CALABRIA CT","CHAPIN","SC",29036,34.113409889,-81.394623453,458,"604 CALABRIA CT, CHAPIN, SC, 29036","Match","Exact","604 CALABRIA CT, CHAPIN, SC, 29036",640804963,"R"
255959,"604 CANTER STREET","RAYMORE","MO",64083,38.7963777430001,-94.461018242,459,"604 CANTER STREET, RAYMORE, MO, 64083","Match","Exact","604 CANTER ST, RAYMORE, MO, 64083",100914819,"R"
255960,"604 CASCADA LANE","ROUND ROCK","TX",78681,30.5444892450001,-97.7279377679999,460,"604 CASCADA LANE, ROUND ROCK, TX, 78681","Match","Exact","604 CASCADA LN, ROUND ROCK, TX, 78681",641088415,"L"
255961,"604 CASHIERS DRIVE","WEST PALM BEACH","FL",33413,26.68670366,-80.135170753,461,"604 CASHIERS DRIVE, WEST PALM BEACH, FL, 33413","Match","Exact","604 CASHIERS DR, WEST PALM BEACH, FL, 33413",115574069,"L"
255962,"604 CHARLOTTE AVENUE","ROCK HILL","SC",29730,34.93837052,-81.025493406,462,"604 CHARLOTTE AVENUE, ROCK HILL, SC, 29730","Match","Exact","604 CHARLOTTE AVE, ROCK HILL, SC, 29730",19791454,"R"
255963,"604 CHESTER ST","BROOKLYN","NY",11212,40.6572093070001,-73.908525958,463,"604 CHESTER ST, BROOKLYN, NY, 11212","Match","Exact","604 CHESTER ST, BROOKLYN, NY, 11212",59084142,"R"
255964,"604 CLEMENT AVE","CHARLOTTE","NC",28204,35.215478686,-80.817996917,464,"604 CLEMENT AVE, CHARLOTTE, NC, 28204","Match","Exact","604 CLEMENT AVE, CHARLOTTE, NC, 28204",70488336,"R"
255965,"604 COVENTRY LANE","NEWARK","DE",19713,39.6720379160001,-75.695557939,465,"604 COVENTRY LANE, NEWARK, DE, 19713","Match","Exact","604 COVENTRY LN, NEWARK, DE, 19713",187278148,"L"
255966,"604 CROCUS DR","ROCKVILLE","MD",20850,39.0944655600001,-77.1727132629999,466,"604 CROCUS DR, ROCKVILLE, MD, 20850","Match","Exact","604 CROCUS DR, ROCKVILLE, MD, 20850",62052914,"L"
255967,"604 CUMBERLAND STREET","LEBANON","PA",17042,40.3422662460001,-76.399042187,467,"604 CUMBERLAND STREET, LEBANON, PA, 17042","Match","Non_Exact","604 E CUMBERLAND ST, LEBANON, PA, 17042",636338462,"R"
255968,"604 DEVLIN CT","SAN JOSE","CA",95133,37.3751232450001,-121.850460756,468,"604 DEVLIN CT, SAN JOSE, CA, 95133","Match","Exact","604 DEVLIN CT, SAN JOSE, CA, 95133",618191582,"R"
255969,"604 DIAZ PL","PARAMUS","NJ",7652,40.9647875850001,-74.0803821539999,469,"604 DIAZ PL, PARAMUS, NJ, 7652","Match","Exact","604 DIAZ PL, PARAMUS, NJ, 07652",64412948,"L"
255970,"604 E 16TH ST","FARMINGTON","NM",87401,36.7457292070001,-108.198918743,470,"604 E 16TH ST, FARMINGTON, NM, 87401","Match","Exact","604 E 16TH ST, FARMINGTON, NM, 87401",127413023,"R"
255971,"604 E 16TH ST","VANCOUVER","WA",98663,45.6333207810001,-122.665936734,471,"604 E 16TH ST, VANCOUVER, WA, 98663","Match","Exact","604 E 16TH ST, VANCOUVER, WA, 98663",158325636,"L"
255972,"604 E 9TH STREET","INDIANAPOLIS","IN",46202,39.7798036200001,-86.147440067,472,"604 E 9TH STREET, INDIANAPOLIS, IN, 46202","Match","Exact","604 E 9TH ST, INDIANAPOLIS, IN, 46202",107991919,"L"
255973,"604 E HARDING AVE","MORTON","TX",79346,33.7162325190001,-102.753348938,473,"604 E HARDING AVE, MORTON, TX, 79346","Match","Exact","604 E HARDING AVE, MORTON, TX, 79346",171652481,"L"
255974,"604 E HAROLD STREET","OLATHE","KS",66061,38.8981557860001,-94.8135266479999,474,"604 E HAROLD STREET, OLATHE, KS, 66061","Match","Exact","604 E HAROLD ST, OLATHE, KS, 66061",91282929,"L"
255975,"604 E HUNTSVILLE RD","FAYETTEVILLE","AR",72701,36.055846167,-94.150763261,475,"604 E HUNTSVILLE RD, FAYETTEVILLE, AR, 72701","Match","Exact","604 E HUNTSVILLE RD, FAYETTEVILLE, AR, 72701",49046873,"L"
255976,"604 EAST 96TH STREET","BROOKLYN","NY",11236,40.6530574350001,-73.912520183,476,"604 EAST 96TH STREET, BROOKLYN, NY, 11236","Match","Exact","604 E 96TH ST, BROOKLYN, NY, 11236",640860073,"R"
255977,"604 EASTERLING STREET","PRICHARD","AL",36610,30.7333797910001,-88.0910183569999,477,"604 EASTERLING STREET, PRICHARD, AL, 36610","Match","Exact","604 EASTERLING ST, PRICHARD, AL, 36610",636644054,"R"
255978,"604 ELVIRA AVE","REDONDO BEACH","CA",90277,33.832665482,-118.385963787,478,"604 ELVIRA AVE, REDONDO BEACH, CA, 90277","Match","Non_Exact","604 S ELVIRA AVE, REDONDO BEACH, CA, 90277",141584105,"L"
255979,"604 EMPIRE STREET","FAIRFIELD","CA",94533,38.250317572,-122.040668261,479,"604 EMPIRE STREET, FAIRFIELD, CA, 94533","Match","Exact","604 EMPIRE ST, FAIRFIELD, CA, 94533",192536947,"R"
255980,"604 ESCANDON AVENUE","RANCHO VIEJO","TX",78575,26.030788366,-97.562667789,480,"604 ESCANDON AVENUE, RANCHO VIEJO, TX, 78575","Match","Exact","604 ESCANDON AVE, RANCHO VIEJO, TX, 78575",89961948,"L"
255981,"604 ESSEX STREET APT 304","LYNN","MA",1901,42.464877485,-70.9504983099999,481,"604 ESSEX STREET APT 304, LYNN, MA, 1901","Match","Exact","604 ESSEX ST, LYNN, MA, 01901",86645583,"L"
255982,"604 FAIRVIEW DR","HARTFORD","WI",53027,43.3037851400001,-88.3868558,482,"604 FAIRVIEW DR, HARTFORD, WI, 53027","Match","Exact","604 FAIRVIEW DR, HARTFORD, WI, 53027",79556336,"L"
255983,"604 FORD STREET","GREENVILLE","NC",27834,35.6118533850001,-77.387885822,483,"604 FORD STREET, GREENVILLE, NC, 27834","Match","Exact","604 FORD ST, GREENVILLE, NC, 27834",80009072,"L"
255984,"604 FORT WORTH AVE      APT 1115","DALLAS","TX",75208,NA,NA,484,"604 FORT WORTH AVE      APT 1115, DALLAS, TX, 75208","No_Match",NA,NA,NA,NA
255985,"604 FORT WORTH AVE APT 1060","DALLAS","TX",75208,NA,NA,485,"604 FORT WORTH AVE APT 1060, DALLAS, TX, 75208","No_Match",NA,NA,NA,NA
255986,"604 FORTRESS ISLE","ALAMEDA","CA",94501,37.7626447530001,-122.26068744,486,"604 FORTRESS ISLE, ALAMEDA, CA, 94501","Match","Exact","604 FORTRESS ISLE, ALAMEDA, CA, 94501",605993557,"R"
255987,"604 FREMONT AVENUE  APT 1","SOUTH PASADENA","CA",91030,34.1187044340001,-118.153086071,487,"604 FREMONT AVENUE  APT 1, SOUTH PASADENA, CA, 91030","Match","Exact","604 FREMONT AVE, SOUTH PASADENA, CA, 91030",142698328,"L"
255988,"604 GA HWY 247 STE 711","BONAIRE","GA",31005,32.5452796750001,-83.5968026689999,488,"604 GA HWY 247 STE 711, BONAIRE, GA, 31005","Match","Non_Exact","604 STATE RTE 247, BONAIRE, GA, 31005",91220921,"R"
255989,"604 GA-93 N","CAIRO","GA",39827,NA,NA,489,"604 GA-93 N, CAIRO, GA, 39827","No_Match",NA,NA,NA,NA
255990,"604 GALVESTON PLACE SE","WASHINGTON","DC",20032,38.8245193450001,-76.999258879,490,"604 GALVESTON PLACE SE, WASHINGTON, DC, 20032","Match","Exact","604 GALVESTON PL SE, WASHINGTON, DC, 20032",76232628,"L"
255991,"604 GOLDEN RAINTREE PL","BRANDON","FL",33510,27.940678645,-82.2930046609999,491,"604 GOLDEN RAINTREE PL, BRANDON, FL, 33510","Match","Exact","604 GOLDEN RAINTREE PL, BRANDON, FL, 33510",104594926,"L"
255992,"604 GOOSE CREEK DRIVE","INDIAN TRAIL","NC",28079,35.145567611,-80.549164323,492,"604 GOOSE CREEK DRIVE, INDIAN TRAIL, NC, 28079","Match","Exact","604 GOOSE CREEK DR, INDIAN TRAIL, NC, 28079",14180184,"R"
255993,"604 GREEN VALLEY DRIVE","LEXINGTON","KY",40511,38.0998939130001,-84.5374416989999,493,"604 GREEN VALLEY DRIVE, LEXINGTON, KY, 40511","Match","Exact","604 GREEN VALLEY DR, LEXINGTON, KY, 40511",31954597,"R"
255994,"604 GREYSTONE DRIVE","ANTIOCH","CA",94509,37.9763001220001,-121.795142492,494,"604 GREYSTONE DRIVE, ANTIOCH, CA, 94509","Match","Exact","604 GREYSTONE DR, ANTIOCH, CA, 94509",192090709,"R"
255995,"604 HARALSON AVENUE","GADSDEN","AL",35901,34.00652016,-86.015570308,495,"604 HARALSON AVENUE, GADSDEN, AL, 35901","Match","Exact","604 HARALSON AVE, GADSDEN, AL, 35901",66771510,"L"
255996,"604 HEDRICK DRIVE","STATESVILLE","NC",28677,35.794788973,-80.912301228,496,"604 HEDRICK DRIVE, STATESVILLE, NC, 28677","Match","Exact","604 HEDRICK DR, STATESVILLE, NC, 28677",46038233,"R"
255997,"604 HENNING CT","NAPERVILLE","IL",60540,41.7582604460001,-88.135501744,497,"604 HENNING CT, NAPERVILLE, IL, 60540","Match","Exact","604 HENNING CT, NAPERVILLE, IL, 60540",112667801,"L"
255998,"604 HERITAGE AVE","GRETNA","LA",70053,29.906525812,-90.0349643819999,498,"604 HERITAGE AVE, GRETNA, LA, 70053","Match","Non_Exact","604 HERITAGE AVE, GRETNA, LA, 70056",93508003,"L"
255999,"604 HIGHLAND WOODS DRIVE","HIGHLANDS","TX",77562,29.819144244,-95.066216923,499,"604 HIGHLAND WOODS DRIVE, HIGHLANDS, TX, 77562","Match","Exact","604 HIGHLAND WOODS DR, HIGHLANDS, TX, 77562",96641378,"L"
256000,"604 IROQUOIS AVE","NAPERVILLE","IL",60563,41.797321723,-88.138432091,500,"604 IROQUOIS AVE, NAPERVILLE, IL, 60563","Match","Non_Exact","604 E IROQUOIS AVE, NAPERVILLE, IL, 60563",112528796,"R"
