"ID","Address","City","State","Zip","lat","long","id","input_address","match_indicator","match_type","matched_address","tiger_line_id","tiger_side"
5501,"101 H STREET SUITE E","PETALUMA","CA",94952,38.231846289,-122.631105553,1,"101 H STREET SUITE E, PETALUMA, CA, 94952","Match","Exact","101 H ST, PETALUMA, CA, 94952",67478089,"L"
5502,"101 H STREET","CENTRAL CITY","CO",80427,39.802847496,-105.521121402,2,"101 H STREET, CENTRAL CITY, CO, 80427","Match","Exact","101 H ST, CENTRAL CITY, CO, 80427",186480992,"L"
5503,"101 HAHN ST","SAN FRANCISCO","CA",94134,37.7134425200001,-122.415309593,3,"101 HAHN ST, SAN FRANCISCO, CA, 94134","Match","Exact","101 HAHN ST, SAN FRANCISCO, CA, 94134",192295360,"L"
5504,"101 HAHN STREET","SAN FRANCISCO","CA",94134,37.7134425200001,-122.415309593,4,"101 HAHN STREET, SAN FRANCISCO, CA, 94134","Match","Exact","101 HAHN ST, SAN FRANCISCO, CA, 94134",192295360,"L"
5505,"101 HALDANE CT","LA PLATA","MD",20646,38.5251346060001,-76.987253438,5,"101 HALDANE CT, LA PLATA, MD, 20646","Match","Exact","101 HALDANE CT, LA PLATA, MD, 20646",25383397,"L"
5506,"101 HALF PENNY CT","STEPHENS CITY","VA",22655,39.082309228,-78.222533756,6,"101 HALF PENNY CT, STEPHENS CITY, VA, 22655","Match","Exact","101 HALF PENNY CT, STEPHENS CITY, VA, 22655",641422170,"L"
5507,"101 HALLS CREEK ROAD","NEW BERN","NC",28560,35.131090758,-76.9103602279999,7,"101 HALLS CREEK ROAD, NEW BERN, NC, 28560","Match","Exact","101 HALLS CREEK RD, NEW BERN, NC, 28560",67916864,"R"
5508,"101 HAMBURG TURNPIKE","BLOOMINGDALE","NJ",7403,41.0081478160001,-74.338999776,8,"101 HAMBURG TURNPIKE, BLOOMINGDALE, NJ, 7403","Match","Exact","101 HAMBURG TPKE, BLOOMINGDALE, NJ, 07403",65255721,"R"
5509,"101 HAMPSHIRE ST","DOTHAN","AL",36306,31.2383975820001,-85.484263782,9,"101 HAMPSHIRE ST, DOTHAN, AL, 36306","Match","Non_Exact","101 HAMPSHIRE ST, DOTHAN, AL, 36305",101222159,"R"
5510,"101 HARVEST ROAD","ROANOKE RAPIDS","NC",27870,36.4465205490001,-77.6344066509999,10,"101 HARVEST ROAD, ROANOKE RAPIDS, NC, 27870","Match","Exact","101 HARVEST RD, ROANOKE RAPIDS, NC, 27870",56730561,"R"
5511,"101 HARVEST SUGAR ROW","CARENCRO","LA",70520,30.3057720090001,-92.08124156,11,"101 HARVEST SUGAR ROW, CARENCRO, LA, 70520","Match","Non_Exact","101 HARVEST SUGAR, CARENCRO, LA, 70520",643978906,"L"
5512,"101 HAWTHORNE AVENUE","EWING","NJ",8638,40.2565791500001,-74.7719834439999,12,"101 HAWTHORNE AVENUE, EWING, NJ, 8638","Match","Exact","101 HAWTHORNE AVE, EWING, NJ, 08638",60177194,"R"
5513,"101 HAYGOOD AVENUE","ATLANTA","GA",30315,33.726505473,-84.384596142,13,"101 HAYGOOD AVENUE, ATLANTA, GA, 30315","Match","Non_Exact","101 HAYGOOD AVE SE, ATLANTA, GA, 30315",17346558,"R"
5514,"101 HENDRICKSON AVE","EDGEWATER","NJ",8010,40.056203388,-74.909901234,14,"101 HENDRICKSON AVE, EDGEWATER, NJ, 8010","Match","Non_Exact","101 HENDRICKSON AVE, EDGEWATER PARK, NJ, 08010",134058122,"L"
5515,"101 HENRIETTA STREET","RAYNESFORD","MT",59469,47.27003245,-110.732858684,15,"101 HENRIETTA STREET, RAYNESFORD, MT, 59469","Match","Exact","101 HENRIETTA ST, RAYNESFORD, MT, 59469",170737691,"R"
5516,"101 HERITAGE LANE","MORGANTON","NC",28655,35.7380961040001,-81.655290496,16,"101 HERITAGE LANE, MORGANTON, NC, 28655","Match","Exact","101 HERITAGE LN, MORGANTON, NC, 28655",37162526,"R"
5517,"101 HERITAGE RUN ROAD SUITE 3","INDIANA","PA",15701,NA,NA,17,"101 HERITAGE RUN ROAD SUITE 3, INDIANA, PA, 15701","No_Match",NA,NA,NA,NA
5518,"101 HERITAGE TRAIL","BELLVILLE","TX",77418,29.928853238,-96.1732786219999,18,"101 HERITAGE TRAIL, BELLVILLE, TX, 77418","Match","Exact","101 HERITAGE TRL, BELLVILLE, TX, 77418",41830244,"R"
5519,"101 HERRMANN DR","MONTEREY","CA",93940,36.5965903370001,-121.901522004,19,"101 HERRMANN DR, MONTEREY, CA, 93940","Match","Exact","101 HERRMANN DR, MONTEREY, CA, 93940",640551979,"L"
5520,"101 HERRMANN DRIVE","MONTEREY","CA",93940,36.5965903370001,-121.901522004,20,"101 HERRMANN DRIVE, MONTEREY, CA, 93940","Match","Exact","101 HERRMANN DR, MONTEREY, CA, 93940",640551979,"L"
5521,"101 HIDDEN CAVE","CIBOLO","TX",78108,29.5850724060001,-98.246706761,21,"101 HIDDEN CAVE, CIBOLO, TX, 78108","Match","Exact","101 HIDDEN CAVE, CIBOLO, TX, 78108",234719138,"R"
5522,"101 HIDDEN LANE","STAFFORD","VA",22556,38.5047075420001,-77.55754336,22,"101 HIDDEN LANE, STAFFORD, VA, 22556","Match","Exact","101 HIDDEN LN, STAFFORD, VA, 22556",636652507,"L"
5523,"101 HIGH STREET","SOUTH KINGSTOWN","RI",2879,41.439835755,-71.5023137759999,23,"101 HIGH STREET, SOUTH KINGSTOWN, RI, 2879","Match","Exact","101 HIGH ST, SOUTH KINGSTOWN, RI, 02879",640068166,"R"
5524,"101 HIGHLAND OAKS DR","HARKER HEIGHTS","TX",76548,31.076093842,-97.681894633,24,"101 HIGHLAND OAKS DR, HARKER HEIGHTS, TX, 76548","Match","Exact","101 HIGHLAND OAKS DR, HARKER HEIGHTS, TX, 76548",146142480,"R"
5525,"101 HILL DR","COPPELL","TX",75019,32.968734274,-96.969203406,25,"101 HILL DR, COPPELL, TX, 75019","Match","Exact","101 HILL DR, COPPELL, TX, 75019",102887592,"L"
5526,"101 HILLSIDE TERRACE","HALLETTSVILLE","TX",77964,29.4527522880001,-96.938414439,26,"101 HILLSIDE TERRACE, HALLETTSVILLE, TX, 77964","Match","Exact","101 HILLSIDE TER, HALLETTSVILLE, TX, 77964",42252376,"L"
5527,"101 HILLSIDE WAY","REDLANDS","CA",92373,34.03236358,-117.160731673,27,"101 HILLSIDE WAY, REDLANDS, CA, 92373","Match","Exact","101 HILLSIDE WAY, REDLANDS, CA, 92373",636518874,"L"
5528,"101 HOCK PARC LANE","DURHAM","NC",27704,36.0464322560001,-78.896049537,28,"101 HOCK PARC LANE, DURHAM, NC, 27704","Match","Exact","101 HOCK PARC LN, DURHAM, NC, 27704",71776084,"R"
5529,"101 HODENCAMP ROAD SUITE 103","THOUSAND OAKS","CA",91360,NA,NA,29,"101 HODENCAMP ROAD SUITE 103, THOUSAND OAKS, CA, 91360","No_Match",NA,NA,NA,NA
5530,"101 HOLLOW RD","BRIMFIELD","MA",1010,42.100063262,-72.224382928,30,"101 HOLLOW RD, BRIMFIELD, MA, 1010","Match","Exact","101 HOLLOW RD, BRIMFIELD, MA, 01010",4056233,"R"
5531,"101 HOME STREET","TALENT","OR",97540,NA,NA,31,"101 HOME STREET, TALENT, OR, 97540","No_Match",NA,NA,NA,NA
5532,"101 HOMEWOOD DRIVE","WINTER HAVEN","FL",33880,28.006265844,-81.788836723,32,"101 HOMEWOOD DRIVE, WINTER HAVEN, FL, 33880","Match","Exact","101 HOMEWOOD DR, WINTER HAVEN, FL, 33880",104899814,"L"
5533,"101 HUMMINGBIRD CIRCLE","ALABASTER","AL",35007,33.1996232980001,-86.832558058,33,"101 HUMMINGBIRD CIRCLE, ALABASTER, AL, 35007","Match","Exact","101 HUMMINGBIRD CIR, ALABASTER, AL, 35007",82058260,"R"
5534,"101 HUNTERS LANE","FRIENDSWOOD","TX",77546,29.506924827,-95.186404346,34,"101 HUNTERS LANE, FRIENDSWOOD, TX, 77546","Match","Exact","101 HUNTERS LN, FRIENDSWOOD, TX, 77546",96741836,"R"
5535,"101 HURLBUT","CHARLEVOIX","MI",49720,NA,NA,35,"101 HURLBUT, CHARLEVOIX, MI, 49720","No_Match",NA,NA,NA,NA
5536,"101 INTERNATIONAL PARKWAY","ADAIRSVILLE","GA",30103,34.380878232,-84.923401123,36,"101 INTERNATIONAL PARKWAY, ADAIRSVILLE, GA, 30103","Match","Exact","101 INTERNATIONAL PKWY, ADAIRSVILLE, GA, 30103",606251913,"R"
5537,"101 INVERNESS ROAD","STARKVILLE","MS",39759,33.4656844290001,-88.744786935,37,"101 INVERNESS ROAD, STARKVILLE, MS, 39759","Match","Non_Exact","101 INVERNESS LN, STARKVILLE, MS, 39759",607234555,"R"
5538,"101 ISLAND SANCTUARY","VERO BEACH","FL",32963,27.728151118,-80.392321489,38,"101 ISLAND SANCTUARY, VERO BEACH, FL, 32963","Match","Exact","101 ISLAND SANCTUARY, VERO BEACH, FL, 32963",120321345,"L"
5539,"101 IVEY STREET","BELMONT","NC",28012,35.2736005130001,-81.0363651659999,39,"101 IVEY STREET, BELMONT, NC, 28012","Match","Exact","101 IVEY ST, BELMONT, NC, 28012",70394108,"L"
5540,"101 JFK PARKWAY","SHORT HILLS","NJ",7078,40.747767579,-74.337841152,40,"101 JFK PARKWAY, SHORT HILLS, NJ, 7078","Match","Exact","101 JOHN F KENNEDY PKWY, SHORT HILLS, NJ, 07078",63470354,"L"
5541,"101 JOAN CT","ELMONT","NY",11003,40.7055560760001,-73.711770949,41,"101 JOAN CT, ELMONT, NY, 11003","Match","Exact","101 JOAN CT, ELMONT, NY, 11003",147665317,"L"
5542,"101 JOHN F CAMPBELL DRIVE","NEWARK","DE",19711,NA,NA,42,"101 JOHN F CAMPBELL DRIVE, NEWARK, DE, 19711","No_Match",NA,NA,NA,NA
5543,"101 JOHNSON RD","LONDON","KY",40741,37.126370557,-84.0586075539999,43,"101 JOHNSON RD, LONDON, KY, 40741","Match","Exact","101 JOHNSON RD, LONDON, KY, 40741",98739173,"L"
5544,"101 JOST MANOR DRIVE","FLORISSANT","MI",63034,NA,NA,44,"101 JOST MANOR DRIVE, FLORISSANT, MI, 63034","No_Match",NA,NA,NA,NA
5545,"101 JUMPER LANE","WEST CHESTER","PA",19382,39.914291592,-75.57593267,45,"101 JUMPER LANE, WEST CHESTER, PA, 19382","Match","Exact","101 JUMPER LN, WEST CHESTER, PA, 19382",179555195,"L"
5546,"101 KATHERINE POINTE DE","MADISON","MS",39110,32.561388578,-90.146310329,46,"101 KATHERINE POINTE DE, MADISON, MS, 39110","Match","Non_Exact","101 KATHERINE POINTE DR, MADISON, MS, 39110",152500288,"R"
5547,"101 KENT STREET","YOUNGSVILLE","NC",27596,35.973506705,-78.373851324,47,"101 KENT STREET, YOUNGSVILLE, NC, 27596","Match","Exact","101 KENT ST, YOUNGSVILLE, NC, 27596",90237084,"L"
5548,"101 KIMBERTON AVE","MONCKS CORNER","SC",29461,33.10936536,-80.036226579,48,"101 KIMBERTON AVE, MONCKS CORNER, SC, 29461","Match","Exact","101 KIMBERTON AVE, MONCKS CORNER, SC, 29461",648189437,"L"
5549,"101 KINGSTON COLLECTION WAY","KINGSTON","MA",2364,NA,NA,49,"101 KINGSTON COLLECTION WAY, KINGSTON, MA, 2364","No_Match",NA,NA,NA,NA
5550,"101 KINGSWOOD ROAD","ANNAPOLIS","MD",21401,38.9879916290001,-76.5001450349999,50,"101 KINGSWOOD ROAD, ANNAPOLIS, MD, 21401","Match","Exact","101 KINGSWOOD RD, ANNAPOLIS, MD, 21401",68172818,"L"
5551,"101 KIRBY AVE","WASHINGTON","OK",73093,35.055916401,-97.483339626,51,"101 KIRBY AVE, WASHINGTON, OK, 73093","Match","Non_Exact","101 E KERBY AVE, WASHINGTON, OK, 73093",58374032,"R"
5552,"101 LA RUE PLACE NW","ATLANTA","GA",30327,33.8170279060001,-84.424865873,52,"101 LA RUE PLACE NW, ATLANTA, GA, 30327","Match","Exact","101 LA RUE PL NW, ATLANTA, GA, 30327",17415741,"R"
5553,"101 LAFAYETTE CIR APT 5","LAFAYETTE","CA",94549,37.890530659,-122.120210908,53,"101 LAFAYETTE CIR APT 5, LAFAYETTE, CA, 94549","Match","Exact","101 LAFAYETTE CIR, LAFAYETTE, CA, 94549",192046626,"L"
5554,"101 LAKE AVE","DEER PARK","NY",11729,40.759436275,-73.3264231319999,54,"101 LAKE AVE, DEER PARK, NY, 11729","Match","Exact","101 LAKE AVE, DEER PARK, NY, 11729",113970266,"L"
5555,"101 LAKE SHORE DR","INTERLACHEN","FL",32148,29.6200658380001,-81.889422267,55,"101 LAKE SHORE DR, INTERLACHEN, FL, 32148","Match","Exact","101 LAKE SHORE DR, INTERLACHEN, FL, 32148",619877189,"L"
5556,"101 LAKE VALLEY LANE","DURHAM","NC",27703,35.9723668070001,-78.8183828259999,56,"101 LAKE VALLEY LANE, DURHAM, NC, 27703","Match","Exact","101 LAKE VALLEY LN, DURHAM, NC, 27703",71764293,"R"
5557,"101 LAKEVIEW COURT","FRANKFORT","KY",40601,38.2162694310001,-84.819716343,57,"101 LAKEVIEW COURT, FRANKFORT, KY, 40601","Match","Exact","101 LAKEVIEW CT, FRANKFORT, KY, 40601",97056503,"R"
5558,"101 LAKEWOOD RD","BELMONT","NC",28012,35.246187197,-81.065324247,58,"101 LAKEWOOD RD, BELMONT, NC, 28012","Match","Exact","101 LAKEWOOD RD, BELMONT, NC, 28012",649751917,"L"
5559,"101 LAKEWOOD ROAD","BELMONT","NC",28012,35.246187197,-81.065324247,59,"101 LAKEWOOD ROAD, BELMONT, NC, 28012","Match","Exact","101 LAKEWOOD RD, BELMONT, NC, 28012",649751917,"L"
5560,"101 LARSON DR","DANBURY","CT",6810,41.3866810920001,-73.5124801109999,60,"101 LARSON DR, DANBURY, CT, 6810","Match","Exact","101 LARSON DR, DANBURY, CT, 06810",625240610,"R"
5561,"101 LEAF LAKE BLVD - 504","BIRMINGHAM","AL",35211,33.414933408,-86.9066463359999,61,"101 LEAF LAKE BLVD - 504, BIRMINGHAM, AL, 35211","Match","Exact","101 LEAF LAKE BLVD, BIRMINGHAM, AL, 35211",642151621,"L"
5562,"101 LEAK LAKE BLVD - 504","BIRMINGHAM","AL",35211,NA,NA,62,"101 LEAK LAKE BLVD - 504, BIRMINGHAM, AL, 35211","No_Match",NA,NA,NA,NA
5563,"101 LEMEDICIN","CARENCRO","LA",70520,NA,NA,63,"101 LEMEDICIN, CARENCRO, LA, 70520","No_Match",NA,NA,NA,NA
5564,"101 LENOX ROAD","BROOKLYN","NY",11226,40.6537922380001,-73.9560553109999,64,"101 LENOX ROAD, BROOKLYN, NY, 11226","Match","Exact","101 LENOX RD, BROOKLYN, NY, 11226",650074262,"L"
5565,"101 LEON HALL PKWY","HILLSBORO","MO",63050,38.237958142,-90.562336189,65,"101 LEON HALL PKWY, HILLSBORO, MO, 63050","Match","Exact","101 LEON HALL PKWY, HILLSBORO, MO, 63050",607875213,"R"
5566,"101 LINCOLN DRIVE","DALY CITY","CA",94015,37.6790300800001,-122.484336146,66,"101 LINCOLN DRIVE, DALY CITY, CA, 94015","Match","Non_Exact","101 LINCOLN AVE, DALY CITY, CA, 94015",192368660,"L"
5567,"101 LINDEN ST","BROOKLYN","NY",11221,40.6928272590001,-73.9199749489999,67,"101 LINDEN ST, BROOKLYN, NY, 11221","Match","Exact","101 LINDEN ST, BROOKLYN, NY, 11221",59082985,"L"
5568,"101 LISA CT","SANTA CRUZ","CA",95060,36.9759397230001,-122.058483356,68,"101 LISA CT, SANTA CRUZ, CA, 95060","Match","Exact","101 LISA CT, SANTA CRUZ, CA, 95060",125520431,"L"
5569,"101 LIVINGSTON PL","METAIRIE","LA",70005,29.9857121690001,-90.14387039,69,"101 LIVINGSTON PL, METAIRIE, LA, 70005","Match","Exact","101 LIVINGSTON PL, METAIRIE, LA, 70005",636633672,"L"
5570,"101 LIVINGSTON PLACE","METAIRIE","LA",70005,29.9857121690001,-90.14387039,70,"101 LIVINGSTON PLACE, METAIRIE, LA, 70005","Match","Exact","101 LIVINGSTON PL, METAIRIE, LA, 70005",636633672,"L"
5571,"101 LOUGH STREET","ELKINS","WV",26241,38.938877701,-79.882043934,71,"101 LOUGH STREET, ELKINS, WV, 26241","Match","Non_Exact","101 LOUGH LN, ELKINS, WV, 26241",53380362,"L"
5572,"101 LOWER MORRISVILLE ROAD","LEVITTOWN","PA",19054,40.1882625710001,-74.814252466,72,"101 LOWER MORRISVILLE ROAD, LEVITTOWN, PA, 19054","Match","Exact","101 LOWER MORRISVILLE RD, LEVITTOWN, PA, 19054",134722853,"L"
5573,"101 LSU UNION- LSU BOX 18473","BATON ROUGE","LA",70893,NA,NA,73,"101 LSU UNION- LSU BOX 18473, BATON ROUGE, LA, 70893","No_Match",NA,NA,NA,NA
5574,"101 LUCINDA DRIVE APT A","TURTLE CREEK","PA",15145,40.4222081680001,-79.8343045079999,74,"101 LUCINDA DRIVE APT A, TURTLE CREEK, PA, 15145","Match","Exact","101 LUCINDA DR, TURTLE CREEK, PA, 15145",51670378,"R"
5575,"101 LUNA WAY APT 262","LAS VEGAS","NV",89145,36.1741473060001,-115.255326108,75,"101 LUNA WAY APT 262, LAS VEGAS, NV, 89145","Match","Exact","101 LUNA WAY, LAS VEGAS, NV, 89145",201888885,"L"
5576,"101 LYNN STREET","TIPTON","IA",52772,41.7659156220001,-91.129806977,76,"101 LYNN STREET, TIPTON, IA, 52772","Match","Exact","101 LYNN ST, TIPTON, IA, 52772",16701538,"L"
5577,"101 MADEIRA AVE","NEW BEDFORD","MA",2745,41.66770602,-70.9254959579999,77,"101 MADEIRA AVE, NEW BEDFORD, MA, 2745","Match","Exact","101 MADEIRA AVE, NEW BEDFORD, MA, 02745",46752380,"L"
5578,"101 MAIN AVENUE NW","CULLMAN","AL",35055,34.1708240520001,-86.8480295909999,78,"101 MAIN AVENUE NW, CULLMAN, AL, 35055","Match","Non_Exact","101 MAIN AVE SW, CULLMAN, AL, 35055",130252520,"L"
5579,"101 MAIN ST  P O BOX 122","POMEROY","IA",50575,42.5511844280001,-94.685252624,79,"101 MAIN ST  P O BOX 122, POMEROY, IA, 50575","Match","Non_Exact","101 S MAIN ST, POMEROY, IA, 50575",77318360,"R"
5580,"101 MAIN STREET FIRST FLOOR","CANTON","NY",13617,44.5956251060001,-75.16937919,80,"101 MAIN STREET FIRST FLOOR, CANTON, NY, 13617","Match","Exact","101 MAIN ST, CANTON, NY, 13617",155181601,"L"
5581,"101 MAIN STREET W","AHOSKIE","NC",27910,NA,NA,81,"101 MAIN STREET W, AHOSKIE, NC, 27910","No_Match",NA,NA,NA,NA
5582,"101 MAIN STREET","EAST HAMPTON","CT",6424,41.5729961270001,-72.501272747,82,"101 MAIN STREET, EAST HAMPTON, CT, 6424","Match","Exact","101 MAIN ST, EAST HAMPTON, CT, 06424",113885543,"R"
5583,"101 MAIN STREET","PARKESBURG","PA",19365,39.961865984,-75.9138606609999,83,"101 MAIN STREET, PARKESBURG, PA, 19365","Match","Exact","101 MAIN ST, PARKESBURG, PA, 19365",179477782,"L"
5584,"101 MAJORS RD","GREENVILLE","TX",75402,33.0635396600001,-96.072063687,84,"101 MAJORS RD, GREENVILLE, TX, 75402","Match","Exact","101 MAJORS RD, GREENVILLE, TX, 75402",638586535,"L"
5585,"101 MANAVON STREET","PHOENIXVILLE","PA",19460,NA,NA,85,"101 MANAVON STREET, PHOENIXVILLE, PA, 19460","No_Match",NA,NA,NA,NA
5586,"101 MAPLE ST","MANISTEE","MI",49660,44.2458583000001,-86.323808748,86,"101 MAPLE ST, MANISTEE, MI, 49660","Match","Exact","101 MAPLE ST, MANISTEE, MI, 49660",146023002,"R"
5587,"101 MAPLE STREET","DE KALB","TX",75559,33.509852903,-94.620728097,87,"101 MAPLE STREET, DE KALB, TX, 75559","Match","Exact","101 MAPLE ST, DE KALB, TX, 75559",57689775,"R"
5588,"101 MAPLE TREE AVENUE SUITE 2L","STAMFORD","CT",6906,41.071962053,-73.512136158,88,"101 MAPLE TREE AVENUE SUITE 2L, STAMFORD, CT, 6906","Match","Exact","101 MAPLE TREE AVE, STAMFORD, CT, 06906",3246651,"R"
5589,"101 MARIE ANTOINETTE STREET","LAFAYETTE","LA",70506,30.201441769,-92.054088463,89,"101 MARIE ANTOINETTE STREET, LAFAYETTE, LA, 70506","Match","Exact","101 MARIE ANTOINETTE ST, LAFAYETTE, LA, 70506",85617813,"L"
5590,"101 MARIETTA ST SUITE 3000","ATLANTA","GA",30303,33.7564925460001,-84.39215035,90,"101 MARIETTA ST SUITE 3000, ATLANTA, GA, 30303","Match","Exact","101 MARIETTA ST, ATLANTA, GA, 30303",17344104,"R"
5591,"101 MARKETSIDE AVE 404-111","PONTE VEDRA","FL",32081,NA,NA,91,"101 MARKETSIDE AVE 404-111, PONTE VEDRA, FL, 32081","No_Match",NA,NA,NA,NA
5592,"101 MARKETSIDE AVENUE NUMBER404 123","PONTE VEDRA","FL",32081,NA,NA,92,"101 MARKETSIDE AVENUE NUMBER404 123, PONTE VEDRA, FL, 32081","No_Match",NA,NA,NA,NA
5593,"101 MARKETSIDE AVENUE SUITE 404-241","PONTE VEDRA","FL",32081,NA,NA,93,"101 MARKETSIDE AVENUE SUITE 404-241, PONTE VEDRA, FL, 32081","No_Match",NA,NA,NA,NA
5594,"101 MASONS CREEK CIRCLE","ATLANTA","GA",30350,NA,NA,94,"101 MASONS CREEK CIRCLE, ATLANTA, GA, 30350","No_Match",NA,NA,NA,NA
5595,"101 MASSEY LANE","ATHENS","GA",30601,33.9931550580001,-83.3625374979999,95,"101 MASSEY LANE, ATHENS, GA, 30601","Match","Exact","101 MASSEY LN, ATHENS, GA, 30601",4806217,"L"
5596,"101 MATTEAWAN ROAD","BEACON","NY",12508,41.5127526110001,-73.9636336029999,96,"101 MATTEAWAN ROAD, BEACON, NY, 12508","Match","Exact","101 MATTEAWAN RD, BEACON, NY, 12508",624376241,"L"
5597,"101 MAUJER ST","BROOKLYN","NY",11206,40.7106070500001,-73.9469713249999,97,"101 MAUJER ST, BROOKLYN, NY, 11206","Match","Exact","101 MAUJER ST, BROOKLYN, NY, 11206",59076913,"L"
5598,"101 MAXWELL STREET","NEWTON","IL",62448,38.9863582620001,-88.1609646919999,98,"101 MAXWELL STREET, NEWTON, IL, 62448","Match","Exact","101 MAXWELL ST, NEWTON, IL, 62448",27003283,"L"
5599,"101 MAYFIELD DRIVE","COATESVILLE","PA",19320,39.985812579,-75.838102479,99,"101 MAYFIELD DRIVE, COATESVILLE, PA, 19320","Match","Exact","101 MAYFIELD DR, COATESVILLE, PA, 19320",179558123,"R"
5600,"101 MCCARTNEY ST","YARMOUTH","ME",4096,43.7947372200001,-70.1986253809999,100,"101 MCCARTNEY ST, YARMOUTH, ME, 4096","Match","Exact","101 MCCARTNEY ST, YARMOUTH, ME, 04096",78075510,"R"
5601,"101 MCDOWELL ST","LAURENS","SC",29360,34.5114734690001,-82.005124182,101,"101 MCDOWELL ST, LAURENS, SC, 29360","Match","Exact","101 MCDOWELL ST, LAURENS, SC, 29360",44439827,"L"
5602,"101 MCKINLEY DRIVE","GRIFFIN","GA",30224,33.209754381,-84.268395461,102,"101 MCKINLEY DRIVE, GRIFFIN, GA, 30224","Match","Exact","101 MCKINLEY DR, GRIFFIN, GA, 30224",23761664,"L"
5603,"101 MCKINZIE CIRCLE","CANNON FALLS","MN",55009,44.5217422320001,-92.8919613159999,103,"101 MCKINZIE CIRCLE, CANNON FALLS, MN, 55009","Match","Exact","101 MCKINZIE CIR, CANNON FALLS, MN, 55009",636520277,"L"
5604,"101 MCMANUS LANE","VALLEJO","CA",94590,38.1145684900001,-122.263200778,104,"101 MCMANUS LANE, VALLEJO, CA, 94590","Match","Exact","101 MCMANUS LN, VALLEJO, CA, 94590",192553212,"L"
5605,"101 MEADOW LANE","PORTLAND","TN",37148,36.597025774,-86.5078693949999,105,"101 MEADOW LANE, PORTLAND, TN, 37148","Match","Exact","101 MEADOW LN, PORTLAND, TN, 37148",29769739,"R"
5606,"101 MEMORY LANE","ADEL","GA",31620,NA,NA,106,"101 MEMORY LANE, ADEL, GA, 31620","No_Match",NA,NA,NA,NA
5607,"101 MERRIMAC COURT","RICHMOND","KY",40475,37.763303556,-84.2659415479999,107,"101 MERRIMAC COURT, RICHMOND, KY, 40475","Match","Exact","101 MERRIMAC CT, RICHMOND, KY, 40475",32002065,"R"
5608,"101 MIDDLE ST PO BOX 37","RENICK","MO",65278,NA,NA,108,"101 MIDDLE ST PO BOX 37, RENICK, MO, 65278","No_Match",NA,NA,NA,NA
5609,"101 MIDDLESEX TPKE STE 6-PMB-222","BURLINGTON","MA",1803,NA,NA,109,"101 MIDDLESEX TPKE STE 6-PMB-222, BURLINGTON, MA, 1803","No_Match",NA,NA,NA,NA
5610,"101 MIDDLESEX TPKE- SUITE 6-PBM 318","BURLINGTON","MA",1803,NA,NA,110,"101 MIDDLESEX TPKE- SUITE 6-PBM 318, BURLINGTON, MA, 1803","No_Match",NA,NA,NA,NA
5611,"101 MIDDLESEX TURNPIKE  SUITE 6322","BURLINGTON","MA",1803,NA,NA,111,"101 MIDDLESEX TURNPIKE  SUITE 6322, BURLINGTON, MA, 1803","No_Match",NA,NA,NA,NA
5612,"101 MILKE DRIVE","POTOSI","WI",53820,42.6936341950001,-90.7002977939999,112,"101 MILKE DRIVE, POTOSI, WI, 53820","Match","Exact","101 MILKE DR, POTOSI, WI, 53820",32768476,"L"
5613,"101 MILLER ST","ST MARYS","GA",31558,30.7465526880001,-81.563438014,113,"101 MILLER ST, ST MARYS, GA, 31558","Match","Exact","101 MILLER ST, SAINT MARYS, GA, 31558",125712431,"R"
5614,"101 MILLSTONE COURT","EGG HARBOR TOWNSHIP","NJ",8234,39.345462475,-74.596622467,114,"101 MILLSTONE COURT, EGG HARBOR TOWNSHIP, NJ, 8234","Match","Exact","101 MILLSTONE CT, EGG HARBOR TOWNSHIP, NJ, 08234",202509358,"L"
5615,"101 MILTON ST APT 1","BROOKLYN","NY",11222,40.7292498360001,-73.95669385,115,"101 MILTON ST APT 1, BROOKLYN, NY, 11222","Match","Exact","101 MILTON ST, BROOKLYN, NY, 11222",59076390,"L"
5616,"101 MISTY GLEN DR","MADISON","AL",35757,34.7920378250001,-86.7272989749999,116,"101 MISTY GLEN DR, MADISON, AL, 35757","Match","Exact","101 MISTY GLEN DR, MADISON, AL, 35757",633491518,"L"
5617,"101 MOHAWK DRIVE","HARRISBURG","IL",62946,37.722926155,-88.568104384,117,"101 MOHAWK DRIVE, HARRISBURG, IL, 62946","Match","Exact","101 MOHAWK DR, HARRISBURG, IL, 62946",104108283,"L"
5618,"101 MONEE ROAD","PARK FOREST","IL",60466,41.4681796140001,-87.68345045,118,"101 MONEE ROAD, PARK FOREST, IL, 60466","Match","Exact","101 MONEE RD, PARK FOREST, IL, 60466",111552305,"R"
5619,"101 MORAY DRIVE APT 8","EDINBORO","PA",16412,41.8664265100001,-80.1189363669999,119,"101 MORAY DRIVE APT 8, EDINBORO, PA, 16412","Match","Exact","101 MORAY DR, EDINBORO, PA, 16412",117513982,"R"
5620,"101 MORGAN ST UNIT 6","FALL RIVER","MA",2721,41.6966273400001,-71.1583662579999,120,"101 MORGAN ST UNIT 6, FALL RIVER, MA, 2721","Match","Exact","101 MORGAN ST, FALL RIVER, MA, 02721",46770215,"R"
5621,"101 MORNING GLORY DR","LAKE MARY","FL",32746,28.7471559690001,-81.35245625,121,"101 MORNING GLORY DR, LAKE MARY, FL, 32746","Match","Exact","101 MORNING GLORY DR, LAKE MARY, FL, 32746",93737572,"R"
5622,"101 MORTIMER DR","EVINGTON","VA",24550,37.246896711,-79.2033813159999,122,"101 MORTIMER DR, EVINGTON, VA, 24550","Match","Exact","101 MORTIMER DR, EVINGTON, VA, 24550",644908017,"R"
5623,"101 MOSIER ST","SOUTH HADLEY","MA",1075,42.245383308,-72.573379868,123,"101 MOSIER ST, SOUTH HADLEY, MA, 1075","Match","Exact","101 MOSIER ST, SOUTH HADLEY, MA, 01075",39868777,"R"
5624,"101 MOUNT HERMAN RD","OLEAN","MT",65064,NA,NA,124,"101 MOUNT HERMAN RD, OLEAN, MT, 65064","No_Match",NA,NA,NA,NA
5625,"101 MOUNTAIN COURT SUITE 101B","HACKETTSTOWN","NJ",7840,40.848709768,-74.8243674679999,125,"101 MOUNTAIN COURT SUITE 101B, HACKETTSTOWN, NJ, 7840","Match","Exact","101 MOUNTAIN CT, HACKETTSTOWN, NJ, 07840",98098681,"R"
5626,"101 MOUNTAIN DRIVE A","DESTIN","FL",32541,30.3963181840001,-86.50818135,126,"101 MOUNTAIN DRIVE A, DESTIN, FL, 32541","Match","Exact","101 MOUNTAIN DR, DESTIN, FL, 32541",639598344,"L"
5627,"101 MUNSON STREET","GREENFIELD","MA",1301,42.5788115500001,-72.6247425029999,127,"101 MUNSON STREET, GREENFIELD, MA, 1301","Match","Exact","101 MUNSON ST, GREENFIELD, MA, 01301",39935879,"R"
5628,"101 MURREY COURT","ELKTON","KY",42220,36.7996714080001,-87.158769787,128,"101 MURREY COURT, ELKTON, KY, 42220","Match","Non_Exact","101 MURRAY CT, ELKTON, KY, 42220",646624149,"L"
5629,"101 N 16TH","OKEMAH","OK",74859,35.4343748270001,-96.319533505,129,"101 N 16TH, OKEMAH, OK, 74859","Match","Non_Exact","101 N 16TH ST, OKEMAH, OK, 74859",107366194,"L"
5630,"101 N 7TH STREET","LOUISVILLE","KY",40202,38.2572116090001,-85.761468172,130,"101 N 7TH STREET, LOUISVILLE, KY, 40202","Match","Exact","101 N 7TH ST, LOUISVILLE, KY, 40202",647917171,"R"
5631,"101 N 8TH STREET UNIT 882","GRIFFIN","GA",30224,33.250233614,-84.265438504,131,"101 N 8TH STREET UNIT 882, GRIFFIN, GA, 30224","Match","Non_Exact","101 S 8TH ST, GRIFFIN, GA, 30224",23762091,"L"
5632,"101 N CHESTNUT STREET","WINSTON SALEM","NC",27101,36.095177377,-80.241389192,132,"101 N CHESTNUT STREET, WINSTON SALEM, NC, 27101","Match","Exact","101 N CHESTNUT ST, WINSTON SALEM, NC, 27101",84609555,"R"
5633,"101 N COLORADO ST  -2258","CHANDLER","AZ",85244,NA,NA,133,"101 N COLORADO ST  -2258, CHANDLER, AZ, 85244","No_Match",NA,NA,NA,NA
5634,"101 N COLORADO STREET RM 3341","CHANDLER","AZ",85244,NA,NA,134,"101 N COLORADO STREET RM 3341, CHANDLER, AZ, 85244","No_Match",NA,NA,NA,NA
5635,"101 N DAY MIAR RD","MANSFIELD","TX",76063,NA,NA,135,"101 N DAY MIAR RD, MANSFIELD, TX, 76063","No_Match",NA,NA,NA,NA
5636,"101 N EL MONTE AVE","LOS ALTOS","CA",94022,NA,NA,136,"101 N EL MONTE AVE, LOS ALTOS, CA, 94022","Tie",NA,NA,NA,NA
5637,"101 N GREEN STREET","SELMA","NC",27576,35.5386258570001,-78.288421085,137,"101 N GREEN STREET, SELMA, NC, 27576","Match","Exact","101 N GREEN ST, SELMA, NC, 27576",26523792,"L"
5638,"101 N GREENVILLE AVE NUM 275","ALLEN","TX",75002,NA,NA,138,"101 N GREENVILLE AVE NUM 275, ALLEN, TX, 75002","Tie",NA,NA,NA,NA
5639,"101 N GREENWOOD AVENUE","TULSA","OK",74120,36.159871679,-95.986099772,139,"101 N GREENWOOD AVENUE, TULSA, OK, 74120","Match","Exact","101 N GREENWOOD AVE, TULSA, OK, 74120",166437774,"R"
5640,"101 N HAVEN ST SUITE 301","BALTIMORE","MD",21224,NA,NA,140,"101 N HAVEN ST SUITE 301, BALTIMORE, MD, 21224","Tie",NA,NA,NA,NA
5641,"101 N HAVEN STREET - SUITE 105","BALTIMORE","MD",21224,NA,NA,141,"101 N HAVEN STREET - SUITE 105, BALTIMORE, MD, 21224","Tie",NA,NA,NA,NA
5642,"101 N HIGH STREET","GETTYSBURG","SD",57442,45.0115070480001,-99.94538843,142,"101 N HIGH STREET, GETTYSBURG, SD, 57442","Match","Exact","101 N HIGH ST, GETTYSBURG, SD, 57442",198465689,"R"
5643,"101 N HILL ST","POTEAU","OK",74953,35.0557544640001,-94.624709147,143,"101 N HILL ST, POTEAU, OK, 74953","Match","Exact","101 N HILL ST, POTEAU, OK, 74953",652137228,"L"
5644,"101 N MADISON STREET","MIDDLEBURG","VA",20117,38.969989162,-77.7355609109999,144,"101 N MADISON STREET, MIDDLEBURG, VA, 20117","Match","Exact","101 N MADISON ST, MIDDLEBURG, VA, 20117",637503261,"R"
5645,"101 N MAIN ST","BEAVER DAM","KY",42320,37.402381851,-86.876035262,145,"101 N MAIN ST, BEAVER DAM, KY, 42320","Match","Exact","101 N MAIN ST, BEAVER DAM, KY, 42320",27955510,"R"
5646,"101 N MAIN ST","BOWLING GREEN","OH",43402,41.3749911530001,-83.6504144629999,146,"101 N MAIN ST, BOWLING GREEN, OH, 43402","Match","Exact","101 N MAIN ST, BOWLING GREEN, OH, 43402",38740913,"L"
5647,"101 N MAIN ST","FAIRFIELD","OK",52556,NA,NA,147,"101 N MAIN ST, FAIRFIELD, OK, 52556","No_Match",NA,NA,NA,NA
5648,"101 N MAIN ST","MARION","SC",29571,34.178423772,-79.4003835139999,148,"101 N MAIN ST, MARION, SC, 29571","Match","Exact","101 N MAIN ST, MARION, SC, 29571",28773216,"L"
5649,"101 N MAIN STREET SUITE 1","CHARLES CITY","IA",50616,NA,NA,149,"101 N MAIN STREET SUITE 1, CHARLES CITY, IA, 50616","Tie",NA,NA,NA,NA
5650,"101 N MEYER ROAD","QUINCY","IL",62305,39.9314528670001,-91.301483053,150,"101 N MEYER ROAD, QUINCY, IL, 62305","Match","Exact","101 N MEYER RD, QUINCY, IL, 62305",35094866,"L"
5651,"101 N MICHIGAN ST  440","SEATTLE","WA",98116,NA,NA,151,"101 N MICHIGAN ST  440, SEATTLE, WA, 98116","No_Match",NA,NA,NA,NA
5652,"101 N PARKSIDE ROAD","NORMAL","IL",61761,40.5285719560001,-89.021504222,152,"101 N PARKSIDE ROAD, NORMAL, IL, 61761","Match","Exact","101 N PARKSIDE RD, NORMAL, IL, 61761",637911859,"L"
5653,"101 N PECK","LA GRANGE","IL",60525,NA,NA,153,"101 N PECK, LA GRANGE, IL, 60525","Tie",NA,NA,NA,NA
5654,"101 N PINE ISLAND RD   STE 201","PLANTATION","FL",33324,26.123452409,-80.263825888,154,"101 N PINE ISLAND RD   STE 201, PLANTATION, FL, 33324","Match","Non_Exact","101 N PINE ISLAND RD, PLANTATION, FL, 33324",648638243,"L"
5655,"101 N PINETTA DRIVE UNIT 35853","RICHMOND","VA",23235,37.4975476050001,-77.5672854159999,155,"101 N PINETTA DRIVE UNIT 35853, RICHMOND, VA, 23235","Match","Non_Exact","101 N PINETTA DR, RICHMOND, VA, 23235",625001040,"R"
5656,"101 N RIVERSIDE DR 610","NEW SMYRNA BEACH","FL",32168,NA,NA,156,"101 N RIVERSIDE DR 610, NEW SMYRNA BEACH, FL, 32168","Tie",NA,NA,NA,NA
5657,"101 N ROBINSON AVE 13TH FLOOR","OKLAHOMA CITY","OK",73102,35.467829481,-97.516455445,157,"101 N ROBINSON AVE 13TH FLOOR, OKLAHOMA CITY, OK, 73102","Match","Non_Exact","101 N ROBINSON AVE, OKLAHOMA CITY, OK, 73102",100402423,"L"
5658,"101 N ST NW","WASHINGTON","DC",20001,38.9072412470001,-77.01228702,158,"101 N ST NW, WASHINGTON, DC, 20001","Match","Exact","101 N ST NW, WASHINGTON, DC, 20001",76226502,"R"
5659,"101 N VIENNA","BELLE","MO",65013,NA,NA,159,"101 N VIENNA, BELLE, MO, 65013","Tie",NA,NA,NA,NA
5660,"101 N VIRGINIA SUITE 110","CRYSTAL LAKE","IL",60014,42.213863965,-88.313034333,160,"101 N VIRGINIA SUITE 110, CRYSTAL LAKE, IL, 60014","Match","Non_Exact","101 VIRGINIA RD, CRYSTAL LAKE, IL, 60014",119865774,"L"
5661,"101 N WACKER DRIVE STE 2300","CHICAGO","IL",60606,41.880524275,-87.636721598,161,"101 N WACKER DRIVE STE 2300, CHICAGO, IL, 60606","Match","Non_Exact","101 S WACKER DR, CHICAGO, IL, 60606",111769507,"L"
5662,"101 N WOLFE ST SUITE 369","BALTIMORE","MD",21231,NA,NA,162,"101 N WOLFE ST SUITE 369, BALTIMORE, MD, 21231","Tie",NA,NA,NA,NA
5663,"101 NE 20 STREET","POMPANO BEACH","FL",33060,26.2552286970001,-80.122658572,163,"101 NE 20 STREET, POMPANO BEACH, FL, 33060","Match","Exact","101 NE 20TH ST, POMPANO BEACH, FL, 33060",114744411,"L"
5664,"101 NE 3RD AVENUE 1500","FORT LAUDERDALE","FL",33301,NA,NA,164,"101 NE 3RD AVENUE 1500, FORT LAUDERDALE, FL, 33301","Tie",NA,NA,NA,NA
5665,"101 NE 59TH TER APT 2D","GLADSTONE","MO",64118,NA,NA,165,"101 NE 59TH TER APT 2D, GLADSTONE, MO, 64118","Tie",NA,NA,NA,NA
5666,"101 NE CHERRY STREET","PILOT ROCK","OR",97868,45.4831478300001,-118.830130006,166,"101 NE CHERRY STREET, PILOT ROCK, OR, 97868","Match","Exact","101 NE CHERRY ST, PILOT ROCK, OR, 97868",170412085,"L"
5667,"101 NE HARVEY ST","GRIMES","IA",50111,NA,NA,167,"101 NE HARVEY ST, GRIMES, IA, 50111","No_Match",NA,NA,NA,NA
5668,"101 NE HARVEY STREET","GRIMES","IA",50111,NA,NA,168,"101 NE HARVEY STREET, GRIMES, IA, 50111","No_Match",NA,NA,NA,NA
5669,"101 NELSON DR 2440B","OFFUTT AFB","NE",68113,41.1305365050001,-95.915482536,169,"101 NELSON DR 2440B, OFFUTT AFB, NE, 68113","Match","Exact","101 NELSON DR, OFFUTT AFB, NE, 68113",28471186,"R"
5670,"101 NELSON DRIVE","OFFUTT AFB","NE",68113,41.1305365050001,-95.915482536,170,"101 NELSON DRIVE, OFFUTT AFB, NE, 68113","Match","Exact","101 NELSON DR, OFFUTT AFB, NE, 68113",28471186,"R"
5671,"101 NESBIT TERRACE","IRVINGTON","NJ",7111,40.72221252,-74.238757918,171,"101 NESBIT TERRACE, IRVINGTON, NJ, 7111","Match","Exact","101 NESBIT TER, IRVINGTON, NJ, 07111",63485152,"R"
5672,"101 NEVILLE ST","TARBORO","NC",27886,35.8907354510001,-77.523145734,172,"101 NEVILLE ST, TARBORO, NC, 27886","Match","Exact","101 NEVILLE ST, TARBORO, NC, 27886",90192198,"R"
5673,"101 NEWALL","IRVINE","CA",92618,33.688922287,-117.732433612,173,"101 NEWALL, IRVINE, CA, 92618","Match","Exact","101 NEWALL, IRVINE, CA, 92618",650593726,"R"
5674,"101 NIBLICK COURT","FRANKLIN","TN",37064,35.887037847,-86.8588354029999,174,"101 NIBLICK COURT, FRANKLIN, TN, 37064","Match","Exact","101 NIBLICK CT, FRANKLIN, TN, 37064",73124948,"R"
5675,"101 NIDAY DRIVE","BARBOURSVILLE","WV",25504,38.3628362740001,-82.2773066669999,175,"101 NIDAY DRIVE, BARBOURSVILLE, WV, 25504","Match","Exact","101 NIDAY DR, BARBOURSVILLE, WV, 25504",101326016,"L"
5676,"101 NORMANDY ST 1501","HOUSTON","TX",77015,NA,NA,176,"101 NORMANDY ST 1501, HOUSTON, TX, 77015","No_Match",NA,NA,NA,NA
5677,"101 NORTH 33RD STREET","PURCELLVILLE","VA",20132,39.1376143140001,-77.728556848,177,"101 NORTH 33RD STREET, PURCELLVILLE, VA, 20132","Match","Exact","101 N 33RD ST, PURCELLVILLE, VA, 20132",62319239,"L"
5678,"101 NORTH 44TH STREET","LOUISVILLE","KY",40212,38.2656447740001,-85.819739436,178,"101 NORTH 44TH STREET, LOUISVILLE, KY, 40212","Match","Exact","101 N 44TH ST, LOUISVILLE, KY, 40212",96836005,"R"
5679,"101 NORTH BLAKELY STREET","DUNMORE","PA",18512,NA,NA,179,"101 NORTH BLAKELY STREET, DUNMORE, PA, 18512","Tie",NA,NA,NA,NA
5680,"101 NORTH COUNTRY LANE DRIVE","DESLOGE","MO",63601,NA,NA,180,"101 NORTH COUNTRY LANE DRIVE, DESLOGE, MO, 63601","No_Match",NA,NA,NA,NA
5681,"101 NORTH ELM STREET","WRIGHT CITY","MO",63390,NA,NA,181,"101 NORTH ELM STREET, WRIGHT CITY, MO, 63390","No_Match",NA,NA,NA,NA
5682,"101 NORTH FRANKLIN STREET SUITE A","TAMPA","FL",33602,27.945553997,-82.456980453,182,"101 NORTH FRANKLIN STREET SUITE A, TAMPA, FL, 33602","Match","Exact","101 N FRANKLIN ST, TAMPA, FL, 33602",640440710,"R"
5683,"101 NORTH GRANT ST RM 80 BOX114","WEST LAFAYETTE","IN",47906,40.4248027990001,-86.9103421519999,183,"101 NORTH GRANT ST RM 80 BOX114, WEST LAFAYETTE, IN, 47906","Match","Exact","101 N GRANT ST, W LAFAYETTE, IN, 47906",638386546,"L"
5684,"101 NORTH HOUSTON STREET","ATHENS","AL",35611,34.8035215630001,-86.974436848,184,"101 NORTH HOUSTON STREET, ATHENS, AL, 35611","Match","Exact","101 N HOUSTON ST, ATHENS, AL, 35611",95231571,"L"
5685,"101 NORTH JEFFERSON STREET","NEW ULM","MN",56073,44.311015506,-94.466872245,185,"101 NORTH JEFFERSON STREET, NEW ULM, MN, 56073","Match","Exact","101 N JEFFERSON ST, NEW ULM, MN, 56073",28568906,"L"
5686,"101 NORTH MAIN ROOM 104","ALTUS","OK",73521,34.6379034710001,-99.333934085,186,"101 NORTH MAIN ROOM 104, ALTUS, OK, 73521","Match","Non_Exact","101 N MAIN ST, ALTUS, OK, 73521",171807378,"L"
5687,"101 NORTH MAIN ST SUITE B","POPLARVILLE","MS",39470,30.8444882790001,-89.535655955,187,"101 NORTH MAIN ST SUITE B, POPLARVILLE, MS, 39470","Match","Exact","101 N MAIN ST, POPLARVILLE, MS, 39470",111465722,"L"
5688,"101 NORTH MAIN STREET","NOLANVILLE","TX",76559,31.0773055180001,-97.605994133,188,"101 NORTH MAIN STREET, NOLANVILLE, TX, 76559","Match","Exact","101 N MAIN ST, NOLANVILLE, TX, 76559",146143387,"L"
5689,"101 NORTH NEW YORK AVE","ATLANTIC CITY","NJ",8401,39.3632508750001,-74.430397525,189,"101 NORTH NEW YORK AVE, ATLANTIC CITY, NJ, 8401","Match","Exact","101 N NEW YORK AVE, ATLANTIC CITY, NJ, 08401",202490939,"R"
5690,"101 NORTH OCEAN DRIVE  SUITE 2","HOLLYWOOD","FL",33019,26.013647173,-80.117439152,190,"101 NORTH OCEAN DRIVE  SUITE 2, HOLLYWOOD, FL, 33019","Match","Exact","101 N OCEAN DR, HOLLYWOOD, FL, 33019",114731615,"R"
5691,"101 NORTH PARK STREET SUITE 220","TRAVERSE CITY","MI",49684,44.7641043830001,-85.618216181,191,"101 NORTH PARK STREET SUITE 220, TRAVERSE CITY, MI, 49684","Match","Exact","101 N PARK ST, TRAVERSE CITY, MI, 49684",145541082,"L"
5692,"101 NORTH THIRD STREET","IRONTON","OH",45638,38.535517392,-82.685832889,192,"101 NORTH THIRD STREET, IRONTON, OH, 45638","Match","Exact","101 N 3RD ST, IRONTON, OH, 45638",55028401,"R"
5693,"101 NORTHCREST STREET","RIPLEY","TN",38063,35.7542239740001,-89.526934029,193,"101 NORTHCREST STREET, RIPLEY, TN, 38063","Match","Exact","101 NORTHCREST ST, RIPLEY, TN, 38063",624449192,"R"
5694,"101 NORTHWESTERN PARKWAY","LOUISVILLE","KY",40212,NA,NA,194,"101 NORTHWESTERN PARKWAY, LOUISVILLE, KY, 40212","No_Match",NA,NA,NA,NA
5695,"101 NW 1ST STREET","EVANSVILLE","IN",47708,37.970831709,-87.5750855489999,195,"101 NW 1ST STREET, EVANSVILLE, IN, 47708","Match","Exact","101 NW 1ST ST, EVANSVILLE, IN, 47708",39782431,"R"
5696,"101 NW 23RD COURT","GRIMES","IA",50111,41.7070982930001,-93.794857651,196,"101 NW 23RD COURT, GRIMES, IA, 50111","Match","Exact","101 NW 23RD CT, GRIMES, IA, 50111",640794673,"R"
5697,"101 NW 34 STREET","MIAMI","FL",33127,25.8081461460001,-80.197501603,197,"101 NW 34 STREET, MIAMI, FL, 33127","Match","Exact","101 NW 34TH ST, MIAMI, FL, 33127",116007499,"R"
5698,"101 NW FOURTH STREET ONS-003","EVANSVILLE","IN",47708,NA,NA,198,"101 NW FOURTH STREET ONS-003, EVANSVILLE, IN, 47708","Tie",NA,NA,NA,NA
5699,"101 OAK STREET","HARTFORD","CT",6106,41.7606638620001,-72.684405995,199,"101 OAK STREET, HARTFORD, CT, 6106","Match","Exact","101 OAK ST, HARTFORD, CT, 06106",3494896,"R"
5700,"101 OAKAWANA TRAIL","BLUE RIDGE","GA",30513,34.872260447,-84.341087694,200,"101 OAKAWANA TRAIL, BLUE RIDGE, GA, 30513","Match","Exact","101 OAKAWANA TRL, BLUE RIDGE, GA, 30513",635222138,"L"
5701,"101 OAKFORD CIRCLE","WAYNE","PA",19087,40.0385620710001,-75.405384624,201,"101 OAKFORD CIRCLE, WAYNE, PA, 19087","Match","Exact","101 OAKFORD CIR, WAYNE, PA, 19087",134865921,"L"
5702,"101 OBERON PLACE","MACON","GA",31210,32.8883654530001,-83.717292318,202,"101 OBERON PLACE, MACON, GA, 31210","Match","Exact","101 OBERON PL, MACON, GA, 31210",81093427,"L"
5703,"101 OKLAHOMA DRIVE","DARLINGTON","SC",29532,34.317786912,-79.854260766,203,"101 OKLAHOMA DRIVE, DARLINGTON, SC, 29532","Match","Exact","101 OKLAHOMA DR, DARLINGTON, SC, 29532",78398827,"L"
5704,"101 OLD NISKAYUNA RD","ALBANY","NY",12211,42.7173326760001,-73.7673931849999,204,"101 OLD NISKAYUNA RD, ALBANY, NY, 12211","Match","Exact","101 OLD NISKAYUNA RD, ALBANY, NY, 12211",18306743,"R"
5705,"101 OLD SHORT HILLS RD STE 205","WEST ORANGE","NJ",7052,NA,NA,205,"101 OLD SHORT HILLS RD STE 205, WEST ORANGE, NJ, 7052","No_Match",NA,NA,NA,NA
5706,"101 OLD SHORT HILLS ROAD PH 2","WEST ORANGE","NJ",7052,NA,NA,206,"101 OLD SHORT HILLS ROAD PH 2, WEST ORANGE, NJ, 7052","No_Match",NA,NA,NA,NA
5707,"101 OLIVE STREET","HAUGHTON","LA",71037,32.5720712500001,-93.6287288939999,207,"101 OLIVE STREET, HAUGHTON, LA, 71037","Match","Exact","101 OLIVE ST, HAUGHTON, LA, 71037",604719185,"L"
5708,"101 ONONDAGO TRAIL","MEDFORD","NJ",8055,39.8601767420001,-74.815757011,208,"101 ONONDAGO TRAIL, MEDFORD, NJ, 8055","Match","Exact","101 ONONDAGO TRL, MEDFORD, NJ, 08055",134039091,"L"
5709,"101 ORANGE STREET","STAMFORD","CT",6902,41.054521639,-73.517243908,209,"101 ORANGE STREET, STAMFORD, CT, 6902","Match","Exact","101 ORANGE ST, STAMFORD, CT, 06902",3246970,"R"
5710,"101 ORCHARD CT","ROCKY MOUNT","NC",27804,35.9746615170001,-77.871958149,210,"101 ORCHARD CT, ROCKY MOUNT, NC, 27804","Match","Exact","101 ORCHARD CT, ROCKY MOUNT, NC, 27804",90391046,"R"
5711,"101 ORCHARD PARK BOULEVARD","ROCHESTER","NY",14809,43.178097135,-77.533972403,211,"101 ORCHARD PARK BOULEVARD, ROCHESTER, NY, 14809","Match","Non_Exact","101 ORCHARD PARK BLVD, ROCHESTER, NY, 14609",14542552,"R"
5712,"101 ORCHARD ROAD","CUMBERLAND","ME",4021,43.835657478,-70.3006673099999,212,"101 ORCHARD ROAD, CUMBERLAND, ME, 4021","Match","Exact","101 ORCHARD RD, CUMBERLAND, ME, 04021",624067166,"R"
5713,"101 ORO FINO","RED RIVER","NM",87558,36.7115978190001,-105.415153697,213,"101 ORO FINO, RED RIVER, NM, 87558","Match","Non_Exact","101 ORO FINO ST, RED RIVER, NM, 87558",635542056,"R"
5714,"101 OWENS ST","DES LACS","ND",58733,48.2579369640001,-101.562094812,214,"101 OWENS ST, DES LACS, ND, 58733","Match","Exact","101 OWENS ST, DES LACS, ND, 58733",200485265,"R"
5715,"101 PACE STREET","GREENVILLE","SC",29609,34.9165735550001,-82.424144368,215,"101 PACE STREET, GREENVILLE, SC, 29609","Match","Exact","101 PACE ST, GREENVILLE, SC, 29609",38297933,"R"
5716,"101 PACIFICA SUITE 270","IRVINE","CA",92618,33.6585029460001,-117.754718057,216,"101 PACIFICA SUITE 270, IRVINE, CA, 92618","Match","Exact","101 PACIFICA, IRVINE, CA, 92618",144394126,"R"
5717,"101 PACKARD RD","STOW","MA",1775,42.4430422140001,-71.511483492,217,"101 PACKARD RD, STOW, MA, 1775","Match","Exact","101 PACKARD RD, STOW, MA, 01775",86900763,"R"
5718,"101 PALAFOX PLACE PO BOX 12382","PENSACOLA","FL",32591,NA,NA,218,"101 PALAFOX PLACE PO BOX 12382, PENSACOLA, FL, 32591","No_Match",NA,NA,NA,NA
5719,"101 PALCO STREET","BARDSTOWN","KY",40004,37.8352728850001,-85.455883302,219,"101 PALCO STREET, BARDSTOWN, KY, 40004","Match","Exact","101 PALCO ST, BARDSTOWN, KY, 40004",35146305,"R"
5720,"101 PARK AVE STE 1300","OKLAHOMA CITY","OK",73102,35.468773506,-97.51458833,220,"101 PARK AVE STE 1300, OKLAHOMA CITY, OK, 73102","Match","Exact","101 PARK AVE, OKLAHOMA CITY, OK, 73102",100402422,"R"
5721,"101 PARK AVENUE APT C","KINSTON","NC",28501,35.27116814,-77.5807149619999,221,"101 PARK AVENUE APT C, KINSTON, NC, 28501","Match","Exact","101 PARK AVE, KINSTON, NC, 28501",13890025,"L"
5722,"101 PARKLAND BLVD 102","SUGAR LAND","TX",77478,29.623225715,-95.604409542,222,"101 PARKLAND BLVD 102, SUGAR LAND, TX, 77478","Match","Exact","101 PARKLAND BLVD, SUGAR LAND, TX, 77478",78343909,"R"
5723,"101 PARKSHORE DR  SUITE 100","FOLSOM","CA",95630,38.6574661980001,-121.187953561,223,"101 PARKSHORE DR  SUITE 100, FOLSOM, CA, 95630","Match","Exact","101 PARKSHORE DR, FOLSOM, CA, 95630",640620131,"R"
5724,"101 PARKWAY NORTH SUITE A","RAVENNA","OH",44266,NA,NA,224,"101 PARKWAY NORTH SUITE A, RAVENNA, OH, 44266","No_Match",NA,NA,NA,NA
5725,"101 PARKWAY","WHITE HALL","AR",71602,34.276327823,-92.0956152589999,225,"101 PARKWAY, WHITE HALL, AR, 71602","Match","Non_Exact","101 PARKWAY DR, WHITE HALL, AR, 71602",2547356,"L"
5726,"101 PATTERSON STREET","LAFAYETTE","LA",70501,30.244425742,-92.0182126129999,226,"101 PATTERSON STREET, LAFAYETTE, LA, 70501","Match","Exact","101 PATTERSON ST, LAFAYETTE, LA, 70501",639775754,"L"
5727,"101 PATTON BLVD","SUNNYVALE","CA",94087,NA,NA,227,"101 PATTON BLVD, SUNNYVALE, CA, 94087","No_Match",NA,NA,NA,NA
5728,"101 PEACEFUL LN","CONVERSE","TX",78109,29.4943032890001,-98.3116444509999,228,"101 PEACEFUL LN, CONVERSE, TX, 78109","Match","Non_Exact","101 PEACEFUL DR, CONVERSE, TX, 78109",646350989,"L"
5729,"101 PEQUOIG AVE","ATHOL","MA",1331,42.599403931,-72.2338289579999,229,"101 PEQUOIG AVE, ATHOL, MA, 1331","Match","Exact","101 PEQUOIG AVE, ATHOL, MA, 01331",40149222,"L"
5730,"101 PEREZ DRIVE","NEWARK","NJ",7102,NA,NA,230,"101 PEREZ DRIVE, NEWARK, NJ, 7102","No_Match",NA,NA,NA,NA
5731,"101 PHEASANT RUN LANE","LANCASTER","NY",14086,42.9287962930001,-78.67491287,231,"101 PHEASANT RUN LANE, LANCASTER, NY, 14086","Match","Exact","101 PHEASANT RUN LN, LANCASTER, NY, 14086",48317521,"L"
5732,"101 PINE RIDGE II","CLIFTON PARK","NY",12065,42.8486594120001,-73.7607935,232,"101 PINE RIDGE II, CLIFTON PARK, NY, 12065","Match","Exact","101 PINE RIDGE II, CLIFTON PARK, NY, 12065",640543826,"R"
5733,"101 PINETOP CIRCLE E","FAIRHOPE","AL",36532,30.5500641300001,-87.888593624,233,"101 PINETOP CIRCLE E, FAIRHOPE, AL, 36532","Match","Exact","101 PINETOP CIR E, FAIRHOPE, AL, 36532",131672097,"R"
5734,"101 PINNACLE PLACE","SMYRNA","TN",37167,35.9164237590001,-86.5271122249999,234,"101 PINNACLE PLACE, SMYRNA, TN, 37167","Match","Exact","101 PINNACLE PL, SMYRNA, TN, 37167",59029241,"L"
5735,"101 PIRATE LOOP","DOVER","AR",72837,NA,NA,235,"101 PIRATE LOOP, DOVER, AR, 72837","No_Match",NA,NA,NA,NA
5736,"101 PISTOL CREEK DR","MONUMENT","CO",80132,39.05877823,-104.827472295,236,"101 PISTOL CREEK DR, MONUMENT, CO, 80132","Match","Exact","101 PISTOL CREEK DR, MONUMENT, CO, 80132",643928873,"L"
5737,"101 PLAZA REAL SOUTH - SUITE 416","BOCA RATON","FL",33432,26.349299473,-80.084887879,237,"101 PLAZA REAL SOUTH - SUITE 416, BOCA RATON, FL, 33432","Match","Non_Exact","101 PLZ REAL S, BOCA RATON, FL, 33432",617882292,"R"
5738,"101 PLUM STREET","CUTHBERT","GA",39840,NA,NA,238,"101 PLUM STREET, CUTHBERT, GA, 39840","No_Match",NA,NA,NA,NA
5739,"101 POINTER DRIVE","ANGIER","NC",27501,NA,NA,239,"101 POINTER DRIVE, ANGIER, NC, 27501","No_Match",NA,NA,NA,NA
5740,"101 PRAIRIE VIEW COURT","BELMONT","NC",28012,NA,NA,240,"101 PRAIRIE VIEW COURT, BELMONT, NC, 28012","No_Match",NA,NA,NA,NA
5741,"101 PROMENADE STREET","BARRINGTON","RI",2806,41.7566268080001,-71.3440969439999,241,"101 PROMENADE STREET, BARRINGTON, RI, 2806","Match","Exact","101 PROMENADE ST, BARRINGTON, RI, 02806",46484380,"R"
5742,"101 PROSPECT PARK SW APT 3C","BROOKLYN","NY",11218,40.6576680310001,-73.9741899319999,242,"101 PROSPECT PARK SW APT 3C, BROOKLYN, NY, 11218","Match","Exact","101 PROSPECT PARK SW, BROOKLYN, NY, 11218",59078363,"R"
5743,"101 PUGLIESES WAY 2ND FLOOR","DELRAY BEACH","FL",33444,26.4635402750001,-80.070593942,243,"101 PUGLIESES WAY 2ND FLOOR, DELRAY BEACH, FL, 33444","Match","Exact","101 PUGLIESES WAY, DELRAY BEACH, FL, 33444",648308669,"R"
5744,"101 QUAIL OAKS CIRCEL","GROVELAND","FL",34736,28.569263602,-81.854981547,244,"101 QUAIL OAKS CIRCEL, GROVELAND, FL, 34736","Match","Non_Exact","101 QUAIL OAKS CIR, GROVELAND, FL, 34736",94195759,"L"
5745,"101 RAIL ROAD PLAZA","BAYSHORE","NY",11706,40.7252242170001,-73.2535377469999,245,"101 RAIL ROAD PLAZA, BAYSHORE, NY, 11706","Match","Non_Exact","101 RAILROAD PLZ, BAY SHORE, NY, 11706",113996452,"R"
5746,"101 RAILROAD ST N","AHOSKIE","NC",27910,NA,NA,246,"101 RAILROAD ST N, AHOSKIE, NC, 27910","No_Match",NA,NA,NA,NA
5747,"101 RANGER RD","GREELEY","PA",18425,41.4104427450001,-75.044279449,247,"101 RANGER RD, GREELEY, PA, 18425","Match","Exact","101 RANGER RD, GREELEY, PA, 18425",191408888,"R"
5748,"101 READING COURT","LADSON","SC",29456,32.961656487,-80.139512482,248,"101 READING COURT, LADSON, SC, 29456","Match","Exact","101 READING CT, LADSON, SC, 29456",178486409,"L"
5749,"101 RED CYPRESS DRIVE","GOOSE CREEK","SC",29445,33.0214864330001,-80.039521275,249,"101 RED CYPRESS DRIVE, GOOSE CREEK, SC, 29445","Match","Exact","101 RED CYPRESS DR, GOOSE CREEK, SC, 29445",100756188,"L"
5750,"101 REGENCY COURT","WARNER ROBINS","GA",31088,32.5768916430001,-83.708831561,250,"101 REGENCY COURT, WARNER ROBINS, GA, 31088","Match","Exact","101 REGENCY CT, WARNER ROBINS, GA, 31088",642389957,"R"
5751,"101 REILLYWOOD AVE","HADDONFIELD","NJ",8033,39.8898856660001,-75.031730382,251,"101 REILLYWOOD AVE, HADDONFIELD, NJ, 8033","Match","Exact","101 REILLYWOOD AVE, HADDONFIELD, NJ, 08033",134354974,"L"
5752,"101 RICE BENT WAY STE 1","COLUMBIA","SC",29229,NA,NA,252,"101 RICE BENT WAY STE 1, COLUMBIA, SC, 29229","No_Match",NA,NA,NA,NA
5753,"101 RICHFIELD LANE","COLCHESTER","VT",5446,44.5452694160001,-73.268643857,253,"101 RICHFIELD LANE, COLCHESTER, VT, 5446","Match","Exact","101 RICHFIELD LN, COLCHESTER, VT, 05446",135837807,"L"
5754,"101 RIDGE CIRCLE","BRANDON","MS",39047,32.391597023,-89.972592553,254,"101 RIDGE CIRCLE, BRANDON, MS, 39047","Match","Exact","101 RIDGE CIR, BRANDON, MS, 39047",636896908,"L"
5755,"101 RIVER HOUSE PL APT 2328","BATON ROUGE","LA",70802,NA,NA,255,"101 RIVER HOUSE PL APT 2328, BATON ROUGE, LA, 70802","No_Match",NA,NA,NA,NA
5756,"101 RIVER VIEW COURT","HAMPTON","GA",30228,33.414700872,-84.2850596059999,256,"101 RIVER VIEW COURT, HAMPTON, GA, 30228","Match","Exact","101 RIVER VIEW CT, HAMPTON, GA, 30228",653449519,"L"
5757,"101 RIVERDALE LN","LOCUST GROVE","VA",22508,38.352452697,-77.75854837,257,"101 RIVERDALE LN, LOCUST GROVE, VA, 22508","Match","Exact","101 RIVERDALE LN, LOCUST GROVE, VA, 22508",29890145,"L"
5758,"101 ROBLAR SUITE C","NOVATO","CA",94949,38.065519921,-122.53440695,258,"101 ROBLAR SUITE C, NOVATO, CA, 94949","Match","Non_Exact","101 ROBLAR DR, NOVATO, CA, 94949",635482312,"R"
5759,"101 ROCKY BOTTOM LANE","AFTON","VA",22920,37.9781532320001,-78.8707673179999,259,"101 ROCKY BOTTOM LANE, AFTON, VA, 22920","Match","Exact","101 ROCKY BOTTOM LN, AFTON, VA, 22920",98904991,"L"
5760,"101 RODALE STREET","DAVENPORT","FL",33837,28.234703052,-81.575454527,260,"101 RODALE STREET, DAVENPORT, FL, 33837","Match","Exact","101 RODALE ST, DAVENPORT, FL, 33837",104805203,"R"
5761,"101 ROPE FERRY ROAD","WATERFORD","CT",6385,41.339889806,-72.1425799049999,261,"101 ROPE FERRY ROAD, WATERFORD, CT, 6385","Match","Exact","101 ROPE FERRY RD, WATERFORD, CT, 06385",56844724,"R"
5762,"101 ROSAYLYN COURT","RALEIGH","NC",27610,NA,NA,262,"101 ROSAYLYN COURT, RALEIGH, NC, 27610","No_Match",NA,NA,NA,NA
5763,"101 ROUTE 130 SOUTH SUITE 10","CINNANINSON","NJ",8077,NA,NA,263,"101 ROUTE 130 SOUTH SUITE 10, CINNANINSON, NJ, 8077","No_Match",NA,NA,NA,NA
5764,"101 ROUTE 73","VOORHEES","NJ",8043,39.8304741600001,-74.9268994129999,264,"101 ROUTE 73, VOORHEES, NJ, 8043","Match","Non_Exact","101 STATE RTE 73, VOORHEES, NJ, 08043",134418033,"L"
5765,"101 ROWAN CT","MANAHAWKIN","NJ",8050,39.706253487,-74.2629085899999,265,"101 ROWAN CT, MANAHAWKIN, NJ, 8050","Match","Exact","101 ROWAN CT, MANAHAWKIN, NJ, 08050",203773148,"L"
5766,"101 RYERSON ROAD","WARWICK","NY",10990,41.2428714120001,-74.4336652759999,266,"101 RYERSON ROAD, WARWICK, NY, 10990","Match","Exact","101 RYERSON RD, WARWICK, NY, 10990",124409517,"R"
5767,"101 S  LAUBER LANE","DERBY","KS",67037,37.544016174,-97.258585646,267,"101 S  LAUBER LANE, DERBY, KS, 67037","Match","Exact","101 S LAUBER LN, DERBY, KS, 67037",115653728,"R"
5768,"101 S 108TH AVE 2ND FLOOR","OMAHA","NE",68154,NA,NA,268,"101 S 108TH AVE 2ND FLOOR, OMAHA, NE, 68154","No_Match",NA,NA,NA,NA
5769,"101 S 39TH ST APT G201","PHILADELPHIA","PA",19104,39.9552833760001,-75.19994425,269,"101 S 39TH ST APT G201, PHILADELPHIA, PA, 19104","Match","Non_Exact","101 S 39TH ST, PHILADELPHIA, PA, 19104",131404016,"L"
5770,"101 S 3RD ST STE 275","GRAND JUNCTION","CO",81501,NA,NA,270,"101 S 3RD ST STE 275, GRAND JUNCTION, CO, 81501","Tie",NA,NA,NA,NA
5771,"101 S ANN ARBOR STREET","SALINE","MI",48176,42.1665928730001,-83.7812561699999,271,"101 S ANN ARBOR STREET, SALINE, MI, 48176","Match","Exact","101 S ANN ARBOR ST, SALINE, MI, 48176",26018932,"L"
5772,"101 S ARLINGTON AVE UNIT B","BALTIMORE","MD",21223,39.2866698650001,-76.6351792469999,272,"101 S ARLINGTON AVE UNIT B, BALTIMORE, MD, 21223","Match","Non_Exact","101 S ARLINGTON AVE, BALTIMORE, MD, 21223",206417856,"L"
5773,"101 S AVE D","HASKELL","TX",79521,33.15649796,-99.732721837,273,"101 S AVE D, HASKELL, TX, 79521","Match","Exact","101 AVE D, HASKELL, TX, 79521",185487242,"R"
5774,"101 S CALIFORNIA AVE STE D-100C","PALO ALTO","CA",94306,37.4287962070001,-122.142792872,274,"101 S CALIFORNIA AVE STE D-100C, PALO ALTO, CA, 94306","Match","Non_Exact","101 S CALIFORNIA AVE, PALO ALTO, CA, 94306",647551261,"L"
5775,"101 S CHARLES STREET","BEECHER CITY","IL",62414,39.1870513640001,-88.786941919,275,"101 S CHARLES STREET, BEECHER CITY, IL, 62414","Match","Exact","101 S CHARLES ST, BEECHER CITY, IL, 62414",94756664,"L"
5776,"101 S CONGRESS AVE","BOYNTON BEACH","FL",33426,26.5239995490001,-80.0904247189999,276,"101 S CONGRESS AVE, BOYNTON BEACH, FL, 33426","Match","Exact","101 S CONGRESS AVE, BOYNTON BEACH, FL, 33426",640323191,"R"
5777,"101 S COOMBS STREET SUITE A","NAPA","CA",94559,38.2876154410001,-122.286978815,277,"101 S COOMBS STREET SUITE A, NAPA, CA, 94559","Match","Exact","101 COOMBS ST, NAPA, CA, 94559",67417033,"L"
5778,"101 S FIRST STREET","ARGOS","IN",46051,41.237092283,-86.246599306,278,"101 S FIRST STREET, ARGOS, IN, 46051","Match","Non_Exact","101 S 1ST ST, ARGOS, IN, 46501",7645959,"R"
5779,"101 S GARDEN WAY APT 1","EUGENE","OR",97401,NA,NA,279,"101 S GARDEN WAY APT 1, EUGENE, OR, 97401","Tie",NA,NA,NA,NA
5780,"101 S GARLAND AVE STE 108","ORLANDO","FL",32801,NA,NA,280,"101 S GARLAND AVE STE 108, ORLANDO, FL, 32801","Tie",NA,NA,NA,NA
5781,"101 S GARLAND AVENUE SUITE 108","ORLANDO","FL",32801,NA,NA,281,"101 S GARLAND AVENUE SUITE 108, ORLANDO, FL, 32801","Tie",NA,NA,NA,NA
5782,"101 S GREENFIELD RD","GILBERT","AZ",85296,33.349317625,-111.738401651,282,"101 S GREENFIELD RD, GILBERT, AZ, 85296","Match","Exact","101 S GREENFIELD RD, GILBERT, AZ, 85296",243919860,"L"
5783,"101 S GREENFIELD ROAD","GILBERT","AZ",85296,33.349317625,-111.738401651,283,"101 S GREENFIELD ROAD, GILBERT, AZ, 85296","Match","Exact","101 S GREENFIELD RD, GILBERT, AZ, 85296",243919860,"L"
5784,"101 S HALAGUENO ST","CARLSBAD","NM",88220,32.420241252,-104.230278472,284,"101 S HALAGUENO ST, CARLSBAD, NM, 88220","Match","Exact","101 S HALAGUENO ST, CARLSBAD, NM, 88220",131210004,"L"
5785,"101 S HANLEY RD STE 1310","CLAYTON","MO",63105,NA,NA,285,"101 S HANLEY RD STE 1310, CLAYTON, MO, 63105","Tie",NA,NA,NA,NA
5786,"101 S JOSELYN ST","HEYWORTH","IL",61745,NA,NA,286,"101 S JOSELYN ST, HEYWORTH, IL, 61745","Tie",NA,NA,NA,NA
5787,"101 S LA CANADA DR SUITE 17","GREEN VALLEY","AZ",85614,NA,NA,287,"101 S LA CANADA DR SUITE 17, GREEN VALLEY, AZ, 85614","No_Match",NA,NA,NA,NA
5788,"101 S LABELLE AVE","BRISTOL","CO",81047,38.121517764,-102.311340723,288,"101 S LABELLE AVE, BRISTOL, CO, 81047","Match","Exact","101 S LABELLE AVE, BRISTOL, CO, 81047",137784801,"L"
5789,"101 S MAIN ST PO BOX 344","LINDSBORG","KS",67456,38.7399684660001,-97.683041096,289,"101 S MAIN ST PO BOX 344, LINDSBORG, KS, 67456","Match","Exact","101 MAIN ST, LINDSBORG, KS, 67456",196689694,"R"
5790,"101 S MAIN ST","MONTICELLO","IN",47960,40.7448249600001,-86.761911433,290,"101 S MAIN ST, MONTICELLO, IN, 47960","Match","Exact","101 S MAIN ST, MONTICELLO, IN, 47960",27365921,"R"
5791,"101 S MAIN STREET 101","SIOUX FALLS","SD",57104,NA,NA,291,"101 S MAIN STREET 101, SIOUX FALLS, SD, 57104","No_Match",NA,NA,NA,NA
5792,"101 S MAIN STREET","DELEVAN","NY",14042,42.485452094,-78.480416969,292,"101 S MAIN STREET, DELEVAN, NY, 14042","Match","Exact","101 S MAIN ST, DELEVAN, NY, 14042",122043806,"L"
5793,"101 S MAIN STREET","FRANKLIN","VA",23851,36.6772060430001,-76.9221317719999,293,"101 S MAIN STREET, FRANKLIN, VA, 23851","Match","Exact","101 S MAIN ST, FRANKLIN, VA, 23851",82733019,"L"
5794,"101 S MAIN","SALUDA","SC",29138,34.000682827,-81.77198387,294,"101 S MAIN, SALUDA, SC, 29138","Match","Non_Exact","101 S MAIN ST, SALUDA, SC, 29138",604883614,"R"
5795,"101 S MILWAUKEE AVE","LAKE VILLA","IL",60046,42.4140032180001,-88.071671613,295,"101 S MILWAUKEE AVE, LAKE VILLA, IL, 60046","Match","Exact","101 S MILWAUKEE AVE, LAKE VILLA, IL, 60046",640090396,"L"
5796,"101 S PALMETTO AVE","STE 2","FL",32114,29.211417897,-81.0211432839999,296,"101 S PALMETTO AVE, STE 2, FL, 32114","Match","Non_Exact","101 S PALMETTO AVE, DAYTONA BEACH, FL, 32114",94525178,"L"
5797,"101 S PENMAN ROAD / C/O TREASURER","JACKSONVILLE BEACH","FL",32250,30.288600525,-81.405680499,297,"101 S PENMAN ROAD / C/O TREASURER, JACKSONVILLE BEACH, FL, 32250","Match","Exact","101 PENMAN RD, JACKSONVILLE BEACH, FL, 32250",83923206,"R"
5798,"101 S PLEASANT ST","SPRINGDALE","AR",72764,36.1848656760001,-94.142969828,298,"101 S PLEASANT ST, SPRINGDALE, AR, 72764","Match","Exact","101 S PLEASANT ST, SPRINGDALE, AR, 72764",49089233,"L"
5799,"101 S RAINBOW BLVD STE 20","LAS VEGAS","NV",89145,36.173156566,-115.244238722,299,"101 S RAINBOW BLVD STE 20, LAS VEGAS, NV, 89145","Match","Non_Exact","101 S RAINBOW BLVD, LAS VEGAS, NV, 89145",652655332,"R"
5800,"101 S SHERMAN ST PO BOX 83","ELLSTON","IA",50074,40.842610689,-94.106631621,300,"101 S SHERMAN ST PO BOX 83, ELLSTON, IA, 50074","Match","Exact","101 SHERMAN ST, ELLSTON, IA, 50074",81412334,"L"
5801,"101 S SUMMIT","ARKANSAS CITY","KS",67005,37.062199702,-97.038990717,301,"101 S SUMMIT, ARKANSAS CITY, KS, 67005","Match","Non_Exact","101 S SUMMIT ST, ARKANSAS CITY, KS, 67005",44342693,"L"
5802,"101 S THIRD ST - P O BOX 126","LAURENS","IA",50554,NA,NA,302,"101 S THIRD ST - P O BOX 126, LAURENS, IA, 50554","Tie",NA,NA,NA,NA
5803,"101 S TOPANGA CANYON BLVD UNIT 1159","TOPANGA","CA",90290,34.0902959360001,-118.603777623,303,"101 S TOPANGA CANYON BLVD UNIT 1159, TOPANGA, CA, 90290","Match","Exact","101 TOPANGA CANYON BLVD, TOPANGA, CA, 90290",142710794,"L"
5804,"101 S WALTON ST STE 113","DALLAS","TX",75226,NA,NA,304,"101 S WALTON ST STE 113, DALLAS, TX, 75226","Tie",NA,NA,NA,NA
5805,"101 S WASHINGTON ST","LAKE CITY","MN",55041,44.4498568450001,-92.2660842559999,305,"101 S WASHINGTON ST, LAKE CITY, MN, 55041","Match","Exact","101 S WASHINGTON ST, LAKE CITY, MN, 55041",31620175,"R"
5806,"101 S WOODARD AVE PO BOX 88","ABSAROKEE","MT",59001,45.518876606,-109.443905325,306,"101 S WOODARD AVE PO BOX 88, ABSAROKEE, MT, 59001","Match","Non_Exact","101 S WOODARD AVE, ABSAROKEE, MT, 59001",181739955,"R"
5807,"101 SAINT PAUL LANE","CEDAR CREEK","TX",78612,30.154352997,-97.469343075,307,"101 SAINT PAUL LANE, CEDAR CREEK, TX, 78612","Match","Exact","101 SAINT PAUL LN, CEDAR CREEK, TX, 78612",45490143,"L"
5808,"101 SANRO RD","LAFAYETTE","LA",70507,30.286412252,-92.091178373,308,"101 SANRO RD, LAFAYETTE, LA, 70507","Match","Non_Exact","101 SANRO DR, LAFAYETTE, LA, 70507",85641390,"L"
5809,"101 SANSTEAD STREET E","GARFIELD","MN",56332,45.9408019640001,-95.4918260109999,309,"101 SANSTEAD STREET E, GARFIELD, MN, 56332","Match","Exact","101 SANSTEAD ST E, GARFIELD, MN, 56332",204650392,"R"
5810,"101 SAXON STREET","BRUNSWICK","GA",31525,31.2114327030001,-81.4782555629999,310,"101 SAXON STREET, BRUNSWICK, GA, 31525","Match","Exact","101 SAXON ST, BRUNSWICK, GA, 31525",9133401,"R"
5811,"101 SCARBOROUGH DRIVE","GREER","SC",29650,34.8758446790001,-82.258168417,311,"101 SCARBOROUGH DRIVE, GREER, SC, 29650","Match","Exact","101 SCARBOROUGH DR, GREER, SC, 29650",38322909,"L"
5812,"101 SCENIC DR","VICKSBURG","MS",39183,32.3921376280001,-90.85885072,312,"101 SCENIC DR, VICKSBURG, MS, 39183","Match","Exact","101 SCENIC DR, VICKSBURG, MS, 39183",71307673,"R"
5813,"101 SCHOOL ROAD","WONEWOC","WI",53968,43.663153768,-90.222632016,313,"101 SCHOOL ROAD, WONEWOC, WI, 53968","Match","Exact","101 SCHOOL RD, WONEWOC, WI, 53968",50952582,"L"
5814,"101 SCHOOL ST","COMSTOCK PARK","MI",49321,43.036310986,-85.6645120319999,314,"101 SCHOOL ST, COMSTOCK PARK, MI, 49321","Match","Non_Exact","101 SCHOOL ST NE, COMSTOCK PARK, MI, 49321",12451058,"R"
5815,"101 SCHOOL STREET","CAMBRIDGE","MA",2139,42.363998134,-71.098513641,315,"101 SCHOOL STREET, CAMBRIDGE, MA, 2139","Match","Exact","101 SCHOOL ST, CAMBRIDGE, MA, 02139",86870115,"R"
5816,"101 SCIOTO","SAINT JAMES","MO",65559,NA,NA,316,"101 SCIOTO, SAINT JAMES, MO, 65559","No_Match",NA,NA,NA,NA
5817,"101 SE COURT STREET","MARION","SC",29571,34.1778154570001,-79.4003377559999,317,"101 SE COURT STREET, MARION, SC, 29571","Match","Exact","101 SE COURT ST, MARION, SC, 29571",28774154,"L"
5818,"101 SE FOURTH STREET","SNOW HILL","NC",28580,35.453140627,-77.671948017,318,"101 SE FOURTH STREET, SNOW HILL, NC, 28580","Match","Exact","101 SE 4TH ST, SNOW HILL, NC, 28580",26504865,"L"
5819,"101 SEFORD DRIVE","SAN ANTONIO","TX",78209,29.4778236490001,-98.441238273,319,"101 SEFORD DRIVE, SAN ANTONIO, TX, 78209","Match","Exact","101 SEFORD DR, SAN ANTONIO, TX, 78209",101559633,"L"
5820,"101 SEGRES RD","KINGSTREE","SC",29556,33.648451273,-79.81236756,320,"101 SEGRES RD, KINGSTREE, SC, 29556","Match","Exact","101 SEGRES RD, KINGSTREE, SC, 29556",640442992,"R"
5821,"101 SENECA ROAD","RICHMOND","VA",23226,37.570497113,-77.5165774819999,321,"101 SENECA ROAD, RICHMOND, VA, 23226","Match","Exact","101 SENECA RD, RICHMOND, VA, 23226",201534260,"R"
5822,"101 SEXTON STREET","STRUTHERS","GA",44471,NA,NA,322,"101 SEXTON STREET, STRUTHERS, GA, 44471","No_Match",NA,NA,NA,NA
5823,"101 SHELLEY HILL ROAD","CLINTON CORNERS","NY",12514,41.898162266,-73.739969968,323,"101 SHELLEY HILL ROAD, CLINTON CORNERS, NY, 12514","Match","Non_Exact","101 SHELLY HILL RD, CLINTON CORNERS, NY, 12514",640455458,"R"
5824,"101 SHERBURNE ST","MANCHESTER","NH",3104,42.991938863,-71.407335067,324,"101 SHERBURNE ST, MANCHESTER, NH, 3104","Match","Exact","101 SHERBURNE ST, MANCHESTER, NH, 03104",113534077,"R"
5825,"101 SILVER AVE","GLASSBORO","NJ",8028,39.7123263290001,-75.1139173509999,325,"101 SILVER AVE, GLASSBORO, NJ, 8028","Match","Exact","101 SILVER AVE, GLASSBORO, NJ, 08028",134588546,"R"
5826,"101 SIMARILLION ROAD","WOODBURY","TN",37190,35.7790078800001,-86.059094127,326,"101 SIMARILLION ROAD, WOODBURY, TN, 37190","Match","Non_Exact","101 SILMARILLION RD, WOODBURY, TN, 37190",87948344,"L"
5827,"101 SIOUX CIRCLE","EAGLE PASS","TX",78852,28.7599947160001,-100.51803221,327,"101 SIOUX CIRCLE, EAGLE PASS, TX, 78852","Match","Exact","101 SIOUX CIR, EAGLE PASS, TX, 78852",183397373,"L"
5828,"101 SKYLINE RIDGE","LOS GATOS","CA",95033,37.209856975,-122.058442476,328,"101 SKYLINE RIDGE, LOS GATOS, CA, 95033","Match","Exact","101 SKYLINE RIDGE, LOS GATOS, CA, 95033",645913172,"R"
5829,"101 SLADE AVENUE","WEST SENECA","NY",14224,42.8317171780001,-78.7892237249999,329,"101 SLADE AVENUE, WEST SENECA, NY, 14224","Match","Exact","101 SLADE AVE, WEST SENECA, NY, 14224",48304442,"R"
5830,"101 SMITHFIELD ST","PITTSBURGH","PA",15222,40.4372826530001,-80.000520603,330,"101 SMITHFIELD ST, PITTSBURGH, PA, 15222","Match","Exact","101 SMITHFIELD ST, PITTSBURGH, PA, 15222",51633821,"L"
5831,"101 SMOKE RISE DRIVE","WARREN","NJ",7059,40.6106886110001,-74.5564098089999,331,"101 SMOKE RISE DRIVE, WARREN, NJ, 7059","Match","Exact","101 SMOKE RISE DR, WARREN, NJ, 07059",59938428,"L"
5832,"101 SOUTH 1ST STREET","NAZARETH","TX",79063,34.542873743,-102.101058302,332,"101 SOUTH 1ST STREET, NAZARETH, TX, 79063","Match","Exact","101 S 1ST ST, NAZARETH, TX, 79063",186505371,"R"
5833,"101 SOUTH 4TH STREET","CAMPBELL","CA",95008,37.285744122,-121.948445741,333,"101 SOUTH 4TH STREET, CAMPBELL, CA, 95008","Match","Exact","101 S 4TH ST, CAMPBELL, CA, 95008",122904823,"R"
5834,"101 SOUTH BLVD","BARABOO","WI",53913,43.466066325,-89.7449166229999,334,"101 SOUTH BLVD, BARABOO, WI, 53913","Match","Exact","101 SOUTH BLVD, BARABOO, WI, 53913",86557896,"R"
5835,"101 SOUTH CLEARSTONE CT","EASLEY","SC",29642,34.8041814970001,-82.5239317849999,335,"101 SOUTH CLEARSTONE CT, EASLEY, SC, 29642","Match","Exact","101 S CLEARSTONE CT, EASLEY, SC, 29642",26177679,"L"
5836,"101 SOUTH COURTENAY PARKWAY","MERRITT ISLAND","FL",32952,28.3557897750001,-80.700188028,336,"101 SOUTH COURTENAY PARKWAY, MERRITT ISLAND, FL, 32952","Match","Exact","101 S COURTENAY PKWY, MERRITT ISLAND, FL, 32952",636364223,"R"
5837,"101 SOUTH EAST STREET","MONTICELLO","MO",63457,40.1177385240001,-91.710958838,337,"101 SOUTH EAST STREET, MONTICELLO, MO, 63457","Match","Non_Exact","101 EAST ST, MONTICELLO, MO, 63457",13079536,"L"
5838,"101 SOUTH ELM STREET STE 350","GREENSBORO","NC",27401,36.0724098040001,-79.7902944259999,338,"101 SOUTH ELM STREET STE 350, GREENSBORO, NC, 27401","Match","Exact","101 S ELM ST, GREENSBORO, NC, 27401",131032934,"L"
5839,"101 SOUTH FIFTH STREET","PAOLA","KS",66071,38.57310097,-94.8874631419999,339,"101 SOUTH FIFTH STREET, PAOLA, KS, 66071","Match","Non_Exact","101 5TH ST, PAOLA, KS, 66071",85239982,"R"
5840,"101 SOUTH GILBERT AVE","CLEVELAND","OK",74020,36.3088434570001,-96.476442477,340,"101 SOUTH GILBERT AVE, CLEVELAND, OK, 74020","Match","Exact","101 S GILBERT AVE, CLEVELAND, OK, 74020",605554625,"R"
5841,"101 SOUTH JONES STREET","BARNEVELD","WI",53507,43.014914908,-89.8953190779999,341,"101 SOUTH JONES STREET, BARNEVELD, WI, 53507","Match","Exact","101 S JONES ST, BARNEVELD, WI, 53507",49793343,"R"
5842,"101 SOUTH MOUNT STREET","FAIRFIELD","TX",75840,31.7272085220001,-96.160602634,342,"101 SOUTH MOUNT STREET, FAIRFIELD, TX, 75840","Match","Non_Exact","101 N MOUNT ST, FAIRFIELD, TX, 75840",88986783,"L"
5843,"101 SOUTH RAILROAD ST","MYERSTOWN","PA",17067,40.374223993,-76.3032290089999,343,"101 SOUTH RAILROAD ST, MYERSTOWN, PA, 17067","Match","Exact","101 S RAILROAD ST, MYERSTOWN, PA, 17067",80679965,"L"
5844,"101 SOUTH REID STREET SUITE 307","SIOUX FALLS","SD",57103,43.546885042,-96.722441052,344,"101 SOUTH REID STREET SUITE 307, SIOUX FALLS, SD, 57103","Match","Exact","101 S REID ST, SIOUX FALLS, SD, 57103",34972339,"R"
5845,"101 SOUTH RIDGE STREET","DANVILLE","VA",24541,36.586126703,-79.395142235,345,"101 SOUTH RIDGE STREET, DANVILLE, VA, 24541","Match","Exact","101 S RIDGE ST, DANVILLE, VA, 24541",56589820,"L"
5846,"101 SOUTH STREET","SAUSALITO","CA",94965,37.846962137,-122.479039551,346,"101 SOUTH STREET, SAUSALITO, CA, 94965","Match","Exact","101 SOUTH ST, SAUSALITO, CA, 94965",192770408,"L"
5847,"101 SOUTH TRYON STREET 27TH FLOOR","CHARLOTTE","NC",28280,35.2271348690001,-80.843166445,347,"101 SOUTH TRYON STREET 27TH FLOOR, CHARLOTTE, NC, 28280","Match","Non_Exact","101 S TRYON ST, CHARLOTTE, NC, 28202",70479175,"L"
5848,"101 SOUTH UNION STREET","WINONA","MS",38967,NA,NA,348,"101 SOUTH UNION STREET, WINONA, MS, 38967","No_Match",NA,NA,NA,NA
5849,"101 SOUTHERN OAKS LANE","BLACKSHEAR","GA",31516,31.307777963,-82.2516189309999,349,"101 SOUTHERN OAKS LANE, BLACKSHEAR, GA, 31516","Match","Exact","101 SOUTHERN OAKS LN, BLACKSHEAR, GA, 31516",625205531,"L"
5850,"101 SPARTAN WAY","EAST SYRACUSE","NY",13057,NA,NA,350,"101 SPARTAN WAY, EAST SYRACUSE, NY, 13057","No_Match",NA,NA,NA,NA
5851,"101 SPRING CT","GEORGETOWN","KY",40324,38.19621333,-84.5425836919999,351,"101 SPRING CT, GEORGETOWN, KY, 40324","Match","Exact","101 SPRING CT, GEORGETOWN, KY, 40324",41234883,"R"
5852,"101 SPRINGFIELD DR","SELLERSVILLE","PA",18960,40.3479832620001,-75.318280234,352,"101 SPRINGFIELD DR, SELLERSVILLE, PA, 18960","Match","Exact","101 SPRINGFIELD DR, SELLERSVILLE, PA, 18960",638522671,"L"
5853,"101 SPRUCE VALLEY DRIVE","PITTSBURGH","PA",15229,40.5109793400001,-80.045139325,353,"101 SPRUCE VALLEY DRIVE, PITTSBURGH, PA, 15229","Match","Exact","101 SPRUCE VALLEY DR, PITTSBURGH, PA, 15229",51704723,"L"
5854,"101 SPURGEON RD","WEST MONROE","LA",71291,NA,NA,354,"101 SPURGEON RD, WEST MONROE, LA, 71291","No_Match",NA,NA,NA,NA
5855,"101 ST FELIX ST","BROOKLYN","NY",11217,40.6867831260001,-73.9773245279999,355,"101 ST FELIX ST, BROOKLYN, NY, 11217","Match","Exact","101 ST FELIX ST, BROOKLYN, NY, 11217",59077594,"L"
5856,"101 ST MATTHEWS LANE","SPARTANBURG","SC",29301,NA,NA,356,"101 ST MATTHEWS LANE, SPARTANBURG, SC, 29301","Tie",NA,NA,NA,NA
5857,"101 STAKEOUT DRIVE","RANCHOS DE TAOS","NM",87557,NA,NA,357,"101 STAKEOUT DRIVE, RANCHOS DE TAOS, NM, 87557","No_Match",NA,NA,NA,NA
5858,"101 STARK RD","TUNKHANNOCK","PA",18657,41.579377247,-75.880175359,358,"101 STARK RD, TUNKHANNOCK, PA, 18657","Match","Exact","101 STARK RD, TUNKHANNOCK, PA, 18657",140202556,"L"
5859,"101 STARLING CT","BOX ELDER","SD",57719,44.120205856,-103.105033982,359,"101 STARLING CT, BOX ELDER, SD, 57719","Match","Exact","101 STARLING CT, BOX ELDER, SD, 57719",205515769,"L"
5860,"101 STEVENS PLACE","SYRACUSE","NY",13210,43.018955502,-76.136344884,360,"101 STEVENS PLACE, SYRACUSE, NY, 13210","Match","Exact","101 STEVENS PL, SYRACUSE, NY, 13210",46572045,"L"
5861,"101 STILL HILL ROAD","HAMDEN","CT",6518,41.4228395220001,-72.9326188489999,361,"101 STILL HILL ROAD, HAMDEN, CT, 6518","Match","Exact","101 STILL HILL RD, HAMDEN, CT, 06518",3711297,"R"
5862,"101 STILL WILD LANE","ELGIN","SC",29045,NA,NA,362,"101 STILL WILD LANE, ELGIN, SC, 29045","No_Match",NA,NA,NA,NA
5863,"101 STONE RIVER RD","HUNTSVILLE","AL",35811,34.8001402510001,-86.484567044,363,"101 STONE RIVER RD, HUNTSVILLE, AL, 35811","Match","Exact","101 STONE RIVER RD, HUNTSVILLE, AL, 35811",616683965,"R"
5864,"101 STONERIDGE DRIVE","GAFFNEY","SC",29341,35.0565671960001,-81.70490648,364,"101 STONERIDGE DRIVE, GAFFNEY, SC, 29341","Match","Exact","101 STONERIDGE DR, GAFFNEY, SC, 29341",18999749,"L"
5865,"101 STRATFORD DRIVE","LAFAYETTE","LA",70503,30.1733268030001,-92.053273936,365,"101 STRATFORD DRIVE, LAFAYETTE, LA, 70503","Match","Exact","101 STRATFORD DR, LAFAYETTE, LA, 70503",85618360,"L"
5866,"101 STRETCH CT","FRANKFORT","KY",40601,38.206719208,-84.8140100849999,366,"101 STRETCH CT, FRANKFORT, KY, 40601","Match","Non_Exact","101 STRETCH LN, FRANKFORT, KY, 40601",97054033,"L"
5867,"101 STUDENT RECREATION CENTER","CHAPEL HILL","NC",27599,NA,NA,367,"101 STUDENT RECREATION CENTER, CHAPEL HILL, NC, 27599","No_Match",NA,NA,NA,NA
5868,"101 SUBURBAN DRIVE","ELKTON","MD",21921,39.6080983040001,-75.7904798709999,368,"101 SUBURBAN DRIVE, ELKTON, MD, 21921","Match","Exact","101 SUBURBAN DR, ELKTON, MD, 21921",207861960,"L"
5869,"101 SUITE B WOODCHASE PARK DRIVE","CLINTON","MS",39213,NA,NA,369,"101 SUITE B WOODCHASE PARK DRIVE, CLINTON, MS, 39213","No_Match",NA,NA,NA,NA
5870,"101 SUMMIT AVE SUITE 410","FORT WORTH","TX",76102,NA,NA,370,"101 SUMMIT AVE SUITE 410, FORT WORTH, TX, 76102","No_Match",NA,NA,NA,NA
5871,"101 SUNBURST DR","FAIRBORN","OH",45324,39.7884433350001,-84.0290814049999,371,"101 SUNBURST DR, FAIRBORN, OH, 45324","Match","Exact","101 SUNBURST DR, FAIRBORN, OH, 45324",143384554,"R"
5872,"101 SUNCREST PLACE","DIVIDE","CO",80814,38.9500567530001,-105.149611437,372,"101 SUNCREST PLACE, DIVIDE, CO, 80814","Match","Exact","101 SUNCREST PL, DIVIDE, CO, 80814",130951020,"L"
5873,"101 SUNFLOWER ST","LAKE JACKSON","TX",77566,29.060735446,-95.44246778,373,"101 SUNFLOWER ST, LAKE JACKSON, TX, 77566","Match","Non_Exact","101 SUNFLOWER LN, LAKE JACKSON, TX, 77566",116574328,"R"
5874,"101 SUTHERLAND DR","RADFORD","VA",24141,37.1259347880001,-80.541933725,374,"101 SUTHERLAND DR, RADFORD, VA, 24141","Match","Exact","101 SUTHERLAND DR, RADFORD, VA, 24141",632328985,"L"
5875,"101 SW 117TH AVE APT 305","PEMBROKE PINES","FL",33025,26.007057757,-80.303876738,375,"101 SW 117TH AVE APT 305, PEMBROKE PINES, FL, 33025","Match","Non_Exact","101 SW 117TH AVE, PEMBROKE PINES, FL, 33025",114790692,"L"
5876,"101 SW 117TH AVE","PEMBROKE PNES","FL",33025,26.007057757,-80.303876738,376,"101 SW 117TH AVE, PEMBROKE PNES, FL, 33025","Match","Exact","101 SW 117TH AVE, PEMBROKE PINES, FL, 33025",114790692,"L"
5877,"101 SW 119TH ST UNIT 204","BURIEN","WA",98146,47.4967184990001,-122.334970234,377,"101 SW 119TH ST UNIT 204, BURIEN, WA, 98146","Match","Non_Exact","101 SW 119TH ST, BURIEN, WA, 98146",239765476,"L"
5878,"101 SW 4TH ST","TUTTLE","OK",73089,35.289686219,-97.8171861,378,"101 SW 4TH ST, TUTTLE, OK, 73089","Match","Exact","101 SW 4TH ST, TUTTLE, OK, 73089",15221736,"L"
5879,"101 SW MAIN ST - SUITE 104","PORTLAND","OR",97204,45.515107249,-122.675140256,379,"101 SW MAIN ST - SUITE 104, PORTLAND, OR, 97204","Match","Non_Exact","101 SW MAIN ST, PORTLAND, OR, 97204",653419891,"R"
5880,"101 SWAN CT","SPRINGTOWN","TX",76082,32.9742626890001,-97.6795510439999,380,"101 SWAN CT, SPRINGTOWN, TX, 76082","Match","Exact","101 SWAN CT, SPRINGTOWN, TX, 76082",624549354,"L"
5881,"101 SYCAMORE CIRCLE","DANVILLE","VA",24540,36.6566250920001,-79.461140227,381,"101 SYCAMORE CIRCLE, DANVILLE, VA, 24540","Match","Exact","101 SYCAMORE CIR, DANVILLE, VA, 24540",56651720,"R"
5882,"101 TALBOT DRIVE","HOUMA","LA",70360,29.6203715990001,-90.7984895289999,382,"101 TALBOT DRIVE, HOUMA, LA, 70360","Match","Exact","101 TALBOT DR, HOUMA, LA, 70360",92058661,"L"
5883,"101 TALBOT ROAD","CHESTERTOWN","MD",21620,39.2232181800001,-76.078407356,383,"101 TALBOT ROAD, CHESTERTOWN, MD, 21620","Match","Non_Exact","101 TALBOT BLVD, CHESTERTOWN, MD, 21620",617275068,"L"
5884,"101 TAYLORTOWN ROAD   NUM A","BOONTON","NJ",7005,40.93041565,-74.3888795999999,384,"101 TAYLORTOWN ROAD   NUM A, BOONTON, NJ, 7005","Match","Exact","101 TAYLORTOWN RD, BOONTON, NJ, 07005",60494150,"R"
5885,"101 TECHNOLOGY LANE","MOUNT AIRY","NC",27030,36.5189109290001,-80.5935493329999,385,"101 TECHNOLOGY LANE, MOUNT AIRY, NC, 27030","Match","Exact","101 TECHNOLOGY LN, MOUNT AIRY, NC, 27030",612750221,"L"
5886,"101 TEN MILE ROAD","FERRIS","TX",75115,NA,NA,386,"101 TEN MILE ROAD, FERRIS, TX, 75115","No_Match",NA,NA,NA,NA
5887,"101 THE EMBARCADERO","SAN FRANCISCO","CA",94105,37.796179431,-122.395184027,387,"101 THE EMBARCADERO, SAN FRANCISCO, CA, 94105","Match","Non_Exact","101 THE EMBARCADERO, SAN FRANCISCO, CA, 94111",192281500,"L"
5888,"101 THORNHILL DRIVE","BRUNSWICK","GA",31525,31.2425176900001,-81.448026423,388,"101 THORNHILL DRIVE, BRUNSWICK, GA, 31525","Match","Exact","101 THORNHILL DR, BRUNSWICK, GA, 31525",652150684,"L"
5889,"101 TONY HOLMES DRIVE","PELHAM","AL",35124,NA,NA,389,"101 TONY HOLMES DRIVE, PELHAM, AL, 35124","No_Match",NA,NA,NA,NA
5890,"101 TRINITY CT","LYNCHBURG","VA",24502,37.433474167,-79.252744032,390,"101 TRINITY CT, LYNCHBURG, VA, 24502","Match","Exact","101 TRINITY CT, LYNCHBURG, VA, 24502",617124017,"R"
5891,"101 TURTLE CREEK RD APT 4","CHARLOTTESVILLE","VA",22901,38.068305421,-78.497153952,391,"101 TURTLE CREEK RD APT 4, CHARLOTTESVILLE, VA, 22901","Match","Exact","101 TURTLE CREEK RD, CHARLOTTESVILLE, VA, 22901",83401958,"R"
5892,"101 TUSCANY FALLS DRIVE","SIMPSONVILLE","SC",29681,34.7698301460001,-82.2079537939999,392,"101 TUSCANY FALLS DRIVE, SIMPSONVILLE, SC, 29681","Match","Non_Exact","101 TUSCANY FALLS RD, SIMPSONVILLE, SC, 29681",640763816,"L"
5893,"101 TUSCANY RIDGE DR","OAKDALE","PA",15071,40.3903857280001,-80.155015383,393,"101 TUSCANY RIDGE DR, OAKDALE, PA, 15071","Match","Exact","101 TUSCANY RIDGE DR, OAKDALE, PA, 15071",632418002,"L"
5894,"101 TYLER CT","FORT WORTH","TX",76108,32.816285242,-97.565587211,394,"101 TYLER CT, FORT WORTH, TX, 76108","Match","Exact","101 TYLER CT, FORT WORTH, TX, 76108",103600592,"L"
5895,"101 UNCLE PETES RD","HAMILTON","NJ",8691,NA,NA,395,"101 UNCLE PETES RD, HAMILTON, NJ, 8691","No_Match",NA,NA,NA,NA
5896,"101 UNION STREET","SPRINGFIELD","VT",5156,43.2933786450001,-72.485617711,396,"101 UNION STREET, SPRINGFIELD, VT, 5156","Match","Exact","101 UNION ST, SPRINGFIELD, VT, 05156",139275120,"L"
5897,"101 UNIVERSITY BLVD SUITE 370","DENVER","CO",80206,39.718431342,-104.959310248,397,"101 UNIVERSITY BLVD SUITE 370, DENVER, CO, 80206","Match","Exact","101 UNIVERSITY BLVD, DENVER, CO, 80206",177338220,"L"
5898,"101 VICKERY STREET","ROSWELL","GA",30075,34.0149748600001,-84.359821827,398,"101 VICKERY STREET, ROSWELL, GA, 30075","Match","Exact","101 VICKERY ST, ROSWELL, GA, 30075",17418629,"R"
5899,"101 VICTORY BOULEVARD","STATEN ISLAND","NY",10301,40.6379254,-74.079440669,399,"101 VICTORY BOULEVARD, STATEN ISLAND, NY, 10301","Match","Exact","101 VICTORY BLVD, STATEN ISLAND, NY, 10301",59879038,"R"
5900,"101 VINE AVE","CLIFTON FORGE","VA",24422,37.8001696800001,-79.7984837239999,400,"101 VINE AVE, CLIFTON FORGE, VA, 24422","Match","Exact","101 VINE AVE, CLIFTON FORGE, VA, 24422",62550647,"R"
5901,"101 VIRGINIA PINE DRIVE","PLYMOUTH","NC",27962,35.829298383,-76.7723452549999,401,"101 VIRGINIA PINE DRIVE, PLYMOUTH, NC, 27962","Match","Exact","101 VIRGINIA PINE DR, PLYMOUTH, NC, 27962",18681178,"L"
5902,"101 W 143RD STREET","NEW YORK","NY",10030,40.8192470700001,-73.937403439,402,"101 W 143RD STREET, NEW YORK, NY, 10030","Match","Exact","101 W 143RD ST, NEW YORK, NY, 10030",59656319,"R"
5903,"101 W 22ND STREET - SUITE 203","BALTIMORE","MD",21218,NA,NA,403,"101 W 22ND STREET - SUITE 203, BALTIMORE, MD, 21218","Tie",NA,NA,NA,NA
5904,"101 W 23RD ST SUITE 113","NEW YORK","NY",10011,40.7430018680001,-73.9930266269999,404,"101 W 23RD ST SUITE 113, NEW YORK, NY, 10011","Match","Non_Exact","101 W 23RD ST, NEW YORK, NY, 10011",59653397,"R"
5905,"101 W 2ND STREET STE 501","DAVENPORT","IL",52801,NA,NA,405,"101 W 2ND STREET STE 501, DAVENPORT, IL, 52801","No_Match",NA,NA,NA,NA
5906,"101 W 56TH ST","BAYONNE","NJ",7002,40.688582313,-74.103746976,406,"101 W 56TH ST, BAYONNE, NJ, 7002","Match","Exact","101 W 56TH ST, BAYONNE, NJ, 07002",59603059,"R"
5907,"101 W 5TH STREET","ALTA","IA",51002,42.670460856,-95.304079762,407,"101 W 5TH STREET, ALTA, IA, 51002","Match","Non_Exact","101 E 5TH ST, ALTA, IA, 51002",77377613,"R"
5908,"101 W 6TH STREET","TUCSON","AZ",85701,32.2276611680001,-110.973011279,408,"101 W 6TH STREET, TUCSON, AZ, 85701","Match","Exact","101 W 6TH ST, TUCSON, AZ, 85701",606806856,"L"
5909,"101 W 80TH ST APT 4F","NY","NY",10024,40.7827344340001,-73.9752064629999,409,"101 W 80TH ST APT 4F, NY, NY, 10024","Match","Non_Exact","101 W 80TH ST, NEW YORK, NY, 10024",59656682,"R"
5910,"101 W ADELL ST","MADERA","CA",93638,NA,NA,410,"101 W ADELL ST, MADERA, CA, 93638","No_Match",NA,NA,NA,NA
5911,"101 W AMERICAN CANYON RD 508-201","AMERICAN CANYON","CA",94503,38.165513263,-122.252064831,411,"101 W AMERICAN CANYON RD 508-201, AMERICAN CANYON, CA, 94503","Match","Exact","101 AMERICAN CANYON RD, AMERICAN CANYON, CA, 94503",67447220,"L"
5912,"101 W AMERICAN CANYON RD ST 508-269","AMERICAN CANYON","CA",94503,38.165513263,-122.252064831,412,"101 W AMERICAN CANYON RD ST 508-269, AMERICAN CANYON, CA, 94503","Match","Exact","101 AMERICAN CANYON RD, AMERICAN CANYON, CA, 94503",67447220,"L"
5913,"101 W AMERICAN CANYON ROAD 508-177","AMERICAN CANYON","CA",94503,38.165513263,-122.252064831,413,"101 W AMERICAN CANYON ROAD 508-177, AMERICAN CANYON, CA, 94503","Match","Exact","101 AMERICAN CANYON RD, AMERICAN CANYON, CA, 94503",67447220,"L"
5914,"101 W AZTEC AVE STE A","GALLUP","NM",87301,NA,NA,414,"101 W AZTEC AVE STE A, GALLUP, NM, 87301","Tie",NA,NA,NA,NA
5915,"101 W BECK WAY","WARDEN","WA",98857,NA,NA,415,"101 W BECK WAY, WARDEN, WA, 98857","No_Match",NA,NA,NA,NA
5916,"101 W BIG BEAVER RD SUITE 1436A","TROY","MI",48084,42.5622472540001,-83.148926627,416,"101 W BIG BEAVER RD SUITE 1436A, TROY, MI, 48084","Match","Non_Exact","101 W BIG BEAVER RD, TROY, MI, 48084",69778401,"L"
5917,"101 W BIG BEAVER ROAD","TROY","MI",48084,42.5622472540001,-83.148926627,417,"101 W BIG BEAVER ROAD, TROY, MI, 48084","Match","Exact","101 W BIG BEAVER RD, TROY, MI, 48084",69778401,"L"
5918,"101 W BROAD ST 404","HAZLETON","PA",18201,NA,NA,418,"101 W BROAD ST 404, HAZLETON, PA, 18201","Tie",NA,NA,NA,NA
5919,"101 W BROAD ST 511","HAZLETON","PA",18201,NA,NA,419,"101 W BROAD ST 511, HAZLETON, PA, 18201","Tie",NA,NA,NA,NA
5920,"101 W BURLESON","WHARTON","TX",77488,29.3099363750001,-96.100539823,420,"101 W BURLESON, WHARTON, TX, 77488","Match","Non_Exact","101 W BURLESON ST, WHARTON, TX, 77488",42488107,"L"
5921,"101 W CAMPERDOWN WAY SUITE 700","GREENVILLE","SC",29601,34.8446712750001,-82.399296259,421,"101 W CAMPERDOWN WAY SUITE 700, GREENVILLE, SC, 29601","Match","Non_Exact","101 E CAMPERDOWN WAY, GREENVILLE, SC, 29601",38357634,"L"
5922,"101 W CAMPERDOWN WAY UNIT 3C","GREENVILLE","SC",29601,34.8446712750001,-82.399296259,422,"101 W CAMPERDOWN WAY UNIT 3C, GREENVILLE, SC, 29601","Match","Non_Exact","101 E CAMPERDOWN WAY, GREENVILLE, SC, 29601",38357634,"L"
5923,"101 W CHARLOTTE ST","JOHNSTOWN","CO",80534,40.3361110290001,-104.90664234,423,"101 W CHARLOTTE ST, JOHNSTOWN, CO, 80534","Match","Exact","101 CHARLOTTE ST, JOHNSTOWN, CO, 80534",188721091,"L"
5924,"101 W EAGLE ROAD     SUITE 202","HAVERTOWN","PA",19083,NA,NA,424,"101 W EAGLE ROAD     SUITE 202, HAVERTOWN, PA, 19083","Tie",NA,NA,NA,NA
5925,"101 W GLADE RD STE 109","EULESS","TX",76039,NA,NA,425,"101 W GLADE RD STE 109, EULESS, TX, 76039","No_Match",NA,NA,NA,NA
5926,"101 W GRAND AVENUE SUITE 200","CHICAGO","IL",60654,41.891621367,-87.6312363919999,426,"101 W GRAND AVENUE SUITE 200, CHICAGO, IL, 60654","Match","Non_Exact","101 W GRAND AVE, CHICAGO, IL, 60654",605278691,"L"
5927,"101 W HARRISBURG AVENUE","RHEEMS","PA",17570,NA,NA,427,"101 W HARRISBURG AVENUE, RHEEMS, PA, 17570","No_Match",NA,NA,NA,NA
5928,"101 W HARRISON RD","LONGVIEW","TX",75604,32.498189645,-94.793465652,428,"101 W HARRISON RD, LONGVIEW, TX, 75604","Match","Exact","101 W HARRISON RD, LONGVIEW, TX, 75604",141108450,"R"
5929,"101 W LOUIS HENNA BLVD","AUSTIN","TX",78728,NA,NA,429,"101 W LOUIS HENNA BLVD, AUSTIN, TX, 78728","No_Match",NA,NA,NA,NA
5930,"101 W MAIN ST","LOWELL","MI",49331,NA,NA,430,"101 W MAIN ST, LOWELL, MI, 49331","No_Match",NA,NA,NA,NA
5931,"101 W MAIN ST","NEW LONDON","IA",52645,40.9257557940001,-91.401801913,431,"101 W MAIN ST, NEW LONDON, IA, 52645","Match","Exact","101 W MAIN ST, NEW LONDON, IA, 52645",16086007,"L"
5932,"101 W MAIN ST","PLAINFIELD","IN",46168,39.7030641330001,-86.402062773,432,"101 W MAIN ST, PLAINFIELD, IN, 46168","Match","Exact","101 W MAIN ST, PLAINFIELD, IN, 46168",89200614,"R"
5933,"101 W MAIN STREET SUITE 101","NORFOLK","VA",23510,NA,NA,433,"101 W MAIN STREET SUITE 101, NORFOLK, VA, 23510","Tie",NA,NA,NA,NA
5934,"101 W MAIN STREET SUITE 430","NORFOLK","VA",23510,NA,NA,434,"101 W MAIN STREET SUITE 430, NORFOLK, VA, 23510","Tie",NA,NA,NA,NA
5935,"101 W MARQUETTE ST    PO BOX 189","BERLIN","WI",54923,NA,NA,435,"101 W MARQUETTE ST    PO BOX 189, BERLIN, WI, 54923","Tie",NA,NA,NA,NA
5936,"101 W MISSION BLVD STE 110-341","POMONA","CA",91766,NA,NA,436,"101 W MISSION BLVD STE 110-341, POMONA, CA, 91766","Tie",NA,NA,NA,NA
5937,"101 W MISSION BLVD UNIT 318","POMONA","CA",91766,NA,NA,437,"101 W MISSION BLVD UNIT 318, POMONA, CA, 91766","Tie",NA,NA,NA,NA
5938,"101 W NORTHRUP ST","LANSING","MI",48911,42.6764850530001,-84.553502437,438,"101 W NORTHRUP ST, LANSING, MI, 48911","Match","Exact","101 W NORTHRUP ST, LANSING, MI, 48911",17502868,"L"
5939,"101 W PIONEER WAY","HANFORD","CA",93230,36.370334997,-119.646982085,439,"101 W PIONEER WAY, HANFORD, CA, 93230","Match","Exact","101 W PIONEER WAY, HANFORD, CA, 93230",649847460,"L"
5940,"101 W REED ST","MOBERLY","MO",65270,39.419690729,-92.437364493,440,"101 W REED ST, MOBERLY, MO, 65270","Match","Exact","101 W REED ST, MOBERLY, MO, 65270",607781339,"R"
5941,"101 W RENNER ROAD  -  SUITE 460","RICHARDSON","TX",75075,NA,NA,441,"101 W RENNER ROAD  -  SUITE 460, RICHARDSON, TX, 75075","No_Match",NA,NA,NA,NA
5942,"101 W SPRING ST PO BOX 649","TITUSVILLE","PA",16354,41.627953405,-79.682619164,442,"101 W SPRING ST PO BOX 649, TITUSVILLE, PA, 16354","Match","Exact","101 SPRING ST, TITUSVILLE, PA, 16354",98582005,"L"
5943,"101 W SUGAR CREEK RD 2","CHARLOTTE","NC",28213,NA,NA,443,"101 W SUGAR CREEK RD 2, CHARLOTTE, NC, 28213","Tie",NA,NA,NA,NA
5944,"101 W WASHINGTON ST  STE 201","PARIS","TN",38242,NA,NA,444,"101 W WASHINGTON ST  STE 201, PARIS, TN, 38242","Tie",NA,NA,NA,NA
5945,"101 WARREN STREET APT 2750","NEW YORK","NY",10007,40.716000437,-74.012016149,445,"101 WARREN STREET APT 2750, NEW YORK, NY, 10007","Match","Exact","101 WARREN ST, NEW YORK, NY, 10007",59659512,"L"
5946,"101 WASHINGTON AVE S","LAWRENCE","NY",11559,40.6135208860001,-73.7210699249999,446,"101 WASHINGTON AVE S, LAWRENCE, NY, 11559","Match","Exact","101 WASHINGTON AVE S, LAWRENCE, NY, 11559",147678130,"R"
5947,"101 WATERFALL CT","COLLEYVILLE","TX",76034,32.910847732,-97.168652147,447,"101 WATERFALL CT, COLLEYVILLE, TX, 76034","Match","Exact","101 WATERFALL CT, COLLEYVILLE, TX, 76034",648412501,"L"
5948,"101 WAX WING COURT","LAKE FREDERICK","VA",22630,39.056830319,-78.1680992079999,448,"101 WAX WING COURT, LAKE FREDERICK, VA, 22630","Match","Exact","101 WAX WING CT, LAKE FREDERICK, VA, 22630",650883840,"L"
5949,"101 WEASEL CREEK RD","WINSTON","MT",59647,46.4657260180001,-111.662230571,449,"101 WEASEL CREEK RD, WINSTON, MT, 59647","Match","Exact","101 WEASEL CREEK RD, WINSTON, MT, 59647",166659833,"L"
5950,"101 WEST 12TH STREET -8U","NEW YORK","NY",10011,40.7360619470001,-73.99785245,450,"101 WEST 12TH STREET -8U, NEW YORK, NY, 10011","Match","Exact","101 W 12TH ST, NEW YORK, NY, 10011",650084696,"R"
5951,"101 WEST 25TH STREET","TUCSON","AZ",85713,32.2036500580001,-110.970135182,451,"101 WEST 25TH STREET, TUCSON, AZ, 85713","Match","Exact","101 W 25TH ST, TUCSON, AZ, 85713",121172404,"L"
5952,"101 WEST 2ND STREET","YANKTON","SD",57078,42.8685186110001,-97.3922463119999,452,"101 WEST 2ND STREET, YANKTON, SD, 57078","Match","Exact","101 W 2ND ST, YANKTON, SD, 57078",172839641,"R"
5953,"101 WEST 6TH STREET","MILLEDGEVILLE","IL",61051,NA,NA,453,"101 WEST 6TH STREET, MILLEDGEVILLE, IL, 61051","No_Match",NA,NA,NA,NA
5954,"101 WEST 73RD STREET APT 1C","NEW YORK","NY",10023,40.7781959820001,-73.9785148299999,454,"101 WEST 73RD STREET APT 1C, NEW YORK, NY, 10023","Match","Exact","101 W 73RD ST, NEW YORK, NY, 10023",59656995,"R"
5955,"101 WEST 79TH STREET","NEW YORK","NY",10024,40.7825454470001,-73.976869827,455,"101 WEST 79TH STREET, NEW YORK, NY, 10024","Match","Exact","101 W 79TH ST, NEW YORK, NY, 10024",650073091,"R"
5956,"101 WEST BARRAQUE STREET SUITE 211","PINE BLUFF","AR",71601,34.2294023650001,-92.0034229079999,456,"101 WEST BARRAQUE STREET SUITE 211, PINE BLUFF, AR, 71601","Match","Exact","101 W BARRAQUE ST, PINE BLUFF, AR, 71601",2551650,"R"
5957,"101 WEST BUTLER STREET","KOKOMO","IN",46901,40.5041116080001,-86.130619805,457,"101 WEST BUTLER STREET, KOKOMO, IN, 46901","Match","Exact","101 W BUTLER ST, KOKOMO, IN, 46901",27262402,"L"
5958,"101 WEST CHERRY STREET","PALMYRA","PA",17078,40.305922724,-76.59645633,458,"101 WEST CHERRY STREET, PALMYRA, PA, 17078","Match","Exact","101 W CHERRY ST, PALMYRA, PA, 17078",80671259,"L"
5959,"101 WEST COLFAX AVE 650","DENVER","CO",80202,39.7402998310001,-104.988130953,459,"101 WEST COLFAX AVE 650, DENVER, CO, 80202","Match","Exact","101 W COLFAX AVE, DENVER, CO, 80202",177304748,"R"
5960,"101 WEST CYPRESS ST  UNIT D","KISSIMMEE","FL",34741,28.305729759,-81.4049216609999,460,"101 WEST CYPRESS ST  UNIT D, KISSIMMEE, FL, 34741","Match","Exact","101 W CYPRESS ST, KISSIMMEE, FL, 34741",652504857,"R"
5961,"101 WEST END RD","HILLSDALE","NY",12529,42.183339437,-73.566842741,461,"101 WEST END RD, HILLSDALE, NY, 12529","Match","Exact","101 W END RD, HILLSDALE, NY, 12529",649926672,"L"
5962,"101 WEST FOURTH STREET SOUTH","NEWTON","IA",50208,41.6994326000001,-93.057410638,462,"101 WEST FOURTH STREET SOUTH, NEWTON, IA, 50208","Match","Exact","101 W 4TH ST S, NEWTON, IA, 50208",647668916,"L"
5963,"101 WEST GOODWIN ST SUITE 860","VICTORIA","TX",77902,NA,NA,463,"101 WEST GOODWIN ST SUITE 860, VICTORIA, TX, 77902","No_Match",NA,NA,NA,NA
5964,"101 WEST JACKSON STREET - SUITE A","DUBLIN","GA",31021,32.5399227120001,-82.904626257,464,"101 WEST JACKSON STREET - SUITE A, DUBLIN, GA, 31021","Match","Exact","101 W JACKSON ST, DUBLIN, GA, 31021",100652431,"L"
5965,"101 WEST LOMITA AVENUE","AJO","AZ",85321,32.372746202,-112.862849645,465,"101 WEST LOMITA AVENUE, AJO, AZ, 85321","Match","Exact","101 W LOMITA AVE, AJO, AZ, 85321",121138978,"R"
5966,"101 WEST LOVE STREET","TROY","AL",36081,31.8066098040001,-85.973114497,466,"101 WEST LOVE STREET, TROY, AL, 36081","Match","Non_Exact","101 LOVE ST, TROY, AL, 36081",69223365,"L"
5967,"101 WEST MAIN STREET SUITE 101","NORFOLK","VA",23510,36.846370639,-76.292447236,467,"101 WEST MAIN STREET SUITE 101, NORFOLK, VA, 23510","Match","Exact","101 W MAIN ST, NORFOLK, VA, 23510",639822786,"L"
5968,"101 WEST MAIN STREET","LA VALLE","WI",53941,43.5823283390001,-90.13060598,468,"101 WEST MAIN STREET, LA VALLE, WI, 53941","Match","Exact","101 W MAIN ST, LA VALLE, WI, 53941",86540779,"L"
5969,"101 WEST MAIN STREET","PLAINFIELD","IN",46168,39.70306967,-86.402045484,469,"101 WEST MAIN STREET, PLAINFIELD, IN, 46168","Match","Exact","101 W MAIN ST, PLAINFIELD, IN, 46168",89200614,"R"
5970,"101 WEST MISSION BL SUITE 110 147","POMONA","CA",91766,34.0551146870001,-117.75013139,470,"101 WEST MISSION BL SUITE 110 147, POMONA, CA, 91766","Match","Exact","101 W MISSION BLVD, POMONA, CA, 91766",141733925,"R"
5971,"101 WEST MISSION BLVD SUITE 110 147","POMONA","CA",91766,34.0551146870001,-117.75013139,471,"101 WEST MISSION BLVD SUITE 110 147, POMONA, CA, 91766","Match","Exact","101 W MISSION BLVD, POMONA, CA, 91766",141733925,"R"
5972,"101 WEST MISSION BLVD SUITE 110-207","POMONA","CA",91764,34.0551146870001,-117.75013139,472,"101 WEST MISSION BLVD SUITE 110-207, POMONA, CA, 91764","Match","Non_Exact","101 W MISSION BLVD, POMONA, CA, 91766",141733925,"R"
5973,"101 WEST NEWTOWN PLACE","NEWARK","DE",19702,NA,NA,473,"101 WEST NEWTOWN PLACE, NEWARK, DE, 19702","No_Match",NA,NA,NA,NA
5974,"101 WEST OHIO STREET","INDIANAPOLIS","IN",46204,39.7699624260001,-86.159939987,474,"101 WEST OHIO STREET, INDIANAPOLIS, IN, 46204","Match","Exact","101 W OHIO ST, INDIANAPOLIS, IN, 46204",107991383,"L"
5975,"101 WEST PIONEER WAY","HANFORD","CA",93230,36.370334997,-119.646982085,475,"101 WEST PIONEER WAY, HANFORD, CA, 93230","Match","Exact","101 W PIONEER WAY, HANFORD, CA, 93230",649847460,"L"
5976,"101 WEST POPLAR","BURLINGTON","WY",82411,44.447003785,-108.431781497,476,"101 WEST POPLAR, BURLINGTON, WY, 82411","Match","Non_Exact","101 W POPLAR AVE, BURLINGTON, WY, 82411",180507435,"R"
5977,"101 WEST ROSE STREET","SAN BENITO","TX",78586,26.1365232530001,-97.6278056849999,477,"101 WEST ROSE STREET, SAN BENITO, TX, 78586","Match","Exact","101 W ROSE ST, SAN BENITO, TX, 78586",89959553,"L"
5978,"101 WEST STREET","EASTHAMPTON","MA",1027,42.272247298,-72.6884996369999,478,"101 WEST STREET, EASTHAMPTON, MA, 1027","Match","Exact","101 WEST ST, EASTHAMPTON, MA, 01027",39863246,"R"
5979,"101 WEST TOWN ST","NORWICH","CT",6360,41.551888553,-72.103222006,479,"101 WEST TOWN ST, NORWICH, CT, 6360","Match","Exact","101 W TOWN ST, NORWICH, CT, 06360",56839522,"R"
5980,"101 WEST VILLAGE BLVD SUITE A","LAREDO","TX",78041,27.5658695720001,-99.4982669029999,480,"101 WEST VILLAGE BLVD SUITE A, LAREDO, TX, 78041","Match","Exact","101 W VILLAGE BLVD, LAREDO, TX, 78041",21668531,"R"
5981,"101 WEST WASHINGTON STREET","CHARLES TOWN","WV",25414,39.2890179250001,-77.8600084619999,481,"101 WEST WASHINGTON STREET, CHARLES TOWN, WV, 25414","Match","Exact","101 W WASHINGTON ST, CHARLES TOWN, WV, 25414",123421495,"R"
5982,"101 WESTERN AVENUE","BRATTLEBORO","VT",5301,42.8521361750001,-72.570571909,482,"101 WESTERN AVENUE, BRATTLEBORO, VT, 5301","Match","Exact","101 WESTERN AVE, BRATTLEBORO, VT, 05301",171080287,"L"
5983,"101 WESTERN AVENUE","GLOUCESTER","MA",1930,42.610136492,-70.6725758809999,483,"101 WESTERN AVENUE, GLOUCESTER, MA, 1930","Match","Exact","101 WESTERN AVE, GLOUCESTER, MA, 01930",86659567,"R"
5984,"101 WESTERVELT PL","PASSAIC","NJ",7055,40.8495039640001,-74.126180104,484,"101 WESTERVELT PL, PASSAIC, NJ, 7055","Match","Exact","101 WESTERVELT PL, PASSAIC, NJ, 07055",65252443,"L"
5985,"101 WEYBRIDGE CIRCLE UNIT C","ROYAL PALM BEACH","FL",33411,26.7047916990001,-80.234465126,485,"101 WEYBRIDGE CIRCLE UNIT C, ROYAL PALM BEACH, FL, 33411","Match","Exact","101 WEYBRIDGE CIR, ROYAL PALM BEACH, FL, 33411",640135538,"R"
5986,"101 WHITE GATE ROAD","PITTSBURGH","PA",15238,40.511588106,-79.857115141,486,"101 WHITE GATE ROAD, PITTSBURGH, PA, 15238","Match","Exact","101 WHITE GATE RD, PITTSBURGH, PA, 15238",51665431,"L"
5987,"101 WHITING AVENUE","GALVESTON","TX",77550,29.32204983,-94.771014228,487,"101 WHITING AVENUE, GALVESTON, TX, 77550","Match","Non_Exact","101 WHITING ST, GALVESTON, TX, 77550",96680775,"L"
5988,"101 WIGGINS CT","WEATHERFORD","TX",76087,32.5728292650001,-97.826595379,488,"101 WIGGINS CT, WEATHERFORD, TX, 76087","Match","Exact","101 WIGGINS CT, WEATHERFORD, TX, 76087",103583773,"R"
5989,"101 WILBERT ST","LAFAYETTE","LA",70506,30.2279985070001,-92.0401432579999,489,"101 WILBERT ST, LAFAYETTE, LA, 70506","Match","Exact","101 WILBERT ST, LAFAYETTE, LA, 70506",85614503,"L"
5990,"101 WILLOW RD","PORCUPINE","SD",57772,NA,NA,490,"101 WILLOW RD, PORCUPINE, SD, 57772","No_Match",NA,NA,NA,NA
5991,"101 WIMBERLEY ST","HUTTO","TX",78634,30.5502796160001,-97.555294193,491,"101 WIMBERLEY ST, HUTTO, TX, 78634","Match","Exact","101 WIMBERLEY ST, HUTTO, TX, 78634",126502151,"L"
5992,"101 WIMBLEDON LANE","OWINGS MILLS","MD",21117,39.401975001,-76.751020866,492,"101 WIMBLEDON LANE, OWINGS MILLS, MD, 21117","Match","Exact","101 WIMBLEDON LN, OWINGS MILLS, MD, 21117",191466423,"L"
5993,"101 WINDCHASE COURT","HUNTSVILLE","AL",35811,34.78341971,-86.487561318,493,"101 WINDCHASE COURT, HUNTSVILLE, AL, 35811","Match","Exact","101 WINDCHASE CT, HUNTSVILLE, AL, 35811",635372667,"L"
5994,"101 WINDRIDGE DRIVE","NICHOLASVILLE","KY",40356,37.9860189290001,-84.604106544,494,"101 WINDRIDGE DRIVE, NICHOLASVILLE, KY, 40356","Match","Exact","101 WINDRIDGE DR, NICHOLASVILLE, KY, 40356",627457201,"L"
5995,"101 WOOD-HI SCHOOL ROAD","INEZ","TX",77968,NA,NA,495,"101 WOOD-HI SCHOOL ROAD, INEZ, TX, 77968","No_Match",NA,NA,NA,NA
5996,"101 WOODBRIDGE RAOD","MARLTON","NJ",8053,39.9020731200001,-74.947607835,496,"101 WOODBRIDGE RAOD, MARLTON, NJ, 8053","Match","Non_Exact","101 WOODBRIDGE RD, MARLTON, NJ, 08053",134036381,"R"
5997,"101 WOODCREST DRIVE","LAFAYETTE","LA",70506,30.212360436,-92.057465359,497,"101 WOODCREST DRIVE, LAFAYETTE, LA, 70506","Match","Exact","101 WOODCREST DR, LAFAYETTE, LA, 70506",85614392,"L"
5998,"101 WOODHAVEN DRIVE APTO 95","HILTON HEAD ISLAND","SC",29928,32.146798731,-80.7579181569999,498,"101 WOODHAVEN DRIVE APTO 95, HILTON HEAD ISLAND, SC, 29928","Match","Exact","101 WOODHAVEN DR, HILTON HEAD ISLAND, SC, 29928",645295997,"L"
5999,"101 WOODLAND CIRCLE","LUDLOW","MA",1056,42.195354331,-72.418277947,499,"101 WOODLAND CIRCLE, LUDLOW, MA, 1056","Match","Exact","101 WOODLAND CIR, LUDLOW, MA, 01056",4047514,"L"
6000,"101 WOODRIDGE DR","ELK CITY","OK",73644,35.380719942,-99.414609586,500,"101 WOODRIDGE DR, ELK CITY, OK, 73644","Match","Exact","101 WOODRIDGE DR, ELK CITY, OK, 73644",151558334,"L"
