"ID","Address","City","State","Zip","lat","long","id","input_address","match_indicator","match_type","matched_address","tiger_line_id","tiger_side"
286501,"7544 EMERSON PL","ROSEMEAD","CA",91770,34.0662211260001,-118.105767822,1,"7544 EMERSON PL, ROSEMEAD, CA, 91770","Match","Exact","7544 EMERSON PL, ROSEMEAD, CA, 91770",141640375,"R"
286502,"7544 FM 1960 EAST SUITE 352","HUMBLE","TX",77346,NA,NA,2,"7544 FM 1960 EAST SUITE 352, HUMBLE, TX, 77346","No_Match",NA,NA,NA,NA
286503,"7544 FM 1960 ROAD EAST SUITE 1030","HUMBLE","TX",77346,NA,NA,3,"7544 FM 1960 ROAD EAST SUITE 1030, HUMBLE, TX, 77346","No_Match",NA,NA,NA,NA
286504,"7544 GARFIELD ST","COOPERSVILLE","MI",49404,43.0450963690001,-85.973890152,4,"7544 GARFIELD ST, COOPERSVILLE, MI, 49404","Match","Exact","7544 GARFIELD ST, COOPERSVILLE, MI, 49404",71080662,"R"
286505,"7544 HUDGINS ROAD","RICHMOND","VA",23228,37.631946428,-77.5205701799999,5,"7544 HUDGINS ROAD, RICHMOND, VA, 23228","Match","Exact","7544 HUDGINS RD, RICHMOND, VA, 23228",106645071,"R"
286506,"7545 BUTLER NORTH LIBERTY RD","BUTLER","OH",44822,40.5523333670001,-82.416178451,6,"7545 BUTLER NORTH LIBERTY RD, BUTLER, OH, 44822","Match","Exact","7545 BUTLER NORTH LIBERTY RD, BUTLER, OH, 44822",207227818,"R"
286507,"7545 HUNTINGTON DRIVE","YOUNGSTOWN","OH",44512,41.020009918,-80.709946728,7,"7545 HUNTINGTON DRIVE, YOUNGSTOWN, OH, 44512","Match","Exact","7545 HUNTINGTON DR, YOUNGSTOWN, OH, 44512",64593532,"L"
286508,"7545 HWY 35","BIGFORK","MT",59911,48.093366458,-114.088261442,8,"7545 HWY 35, BIGFORK, MT, 59911","Match","Non_Exact","7545 STATE HWY 35, BIGFORK, MT, 59911",204127183,"R"
286509,"7545 IRVINE CENTER DRIVE STE 200","IRVINE","CA",92618,NA,NA,9,"7545 IRVINE CENTER DRIVE STE 200, IRVINE, CA, 92618","No_Match",NA,NA,NA,NA
286510,"7545 IRVINE CENTER DRIVE SUITE 200","IRVINE","CA",92618,NA,NA,10,"7545 IRVINE CENTER DRIVE SUITE 200, IRVINE, CA, 92618","No_Match",NA,NA,NA,NA
286511,"7545 KATELLA AVE SUITE 28","STANTON","CA",90680,33.8029088870001,-118.000848319,11,"7545 KATELLA AVE SUITE 28, STANTON, CA, 90680","Match","Exact","7545 KATELLA AVE, STANTON, CA, 90680",609053524,"L"
286512,"7545 MAIN STREET","WOODSTOCK","GA",30188,34.1124202770001,-84.5159864519999,12,"7545 MAIN STREET, WOODSTOCK, GA, 30188","Match","Exact","7545 MAIN ST, WOODSTOCK, GA, 30188",622129880,"R"
286513,"7545 N LOG ROAD","PEYTON","CO",80831,38.941206128,-104.423448712,13,"7545 N LOG ROAD, PEYTON, CO, 80831","Match","Exact","7545 LOG RD, PEYTON, CO, 80831",647972453,"R"
286514,"7545 N WINCHESTER AVENUE  APT 302","CHICAGO","IL",60626,42.018785414,-87.679036189,14,"7545 N WINCHESTER AVENUE  APT 302, CHICAGO, IL, 60626","Match","Non_Exact","7545 N WINCHESTER AVE, CHICAGO, IL, 60626",616790433,"R"
286515,"7545 OSO BLANCA ROAD UNIT 2039","LAS VEGAS","NV",89149,NA,NA,15,"7545 OSO BLANCA ROAD UNIT 2039, LAS VEGAS, NV, 89149","No_Match",NA,NA,NA,NA
286516,"7545 PARKRIDGE WAY","SAVAGE","MN",55378,44.740554118,-93.376821077,16,"7545 PARKRIDGE WAY, SAVAGE, MN, 55378","Match","Exact","7545 PARKRIDGE WAY, SAVAGE, MN, 55378",606966722,"L"
286517,"7545 S 6TH STREET","OAK CREEK","WI",53154,42.9078099130001,-87.920063667,17,"7545 S 6TH STREET, OAK CREEK, WI, 53154","Match","Exact","7545 S 6TH ST, OAK CREEK, WI, 53154",77753233,"R"
286518,"7545 STATE ROUTE 82 PO BOX 223","GARRETTSVILLE","OH",44231,NA,NA,18,"7545 STATE ROUTE 82 PO BOX 223, GARRETTSVILLE, OH, 44231","No_Match",NA,NA,NA,NA
286519,"7545 WACHTEL WAY","CITRUS HEIGHTS","CA",95610,38.7043407100001,-121.244309177,19,"7545 WACHTEL WAY, CITRUS HEIGHTS, CA, 95610","Match","Exact","7545 WACHTEL WAY, CITRUS HEIGHTS, CA, 95610",133394081,"L"
286520,"7545 YORK DR 1E","CLAYTON","MO",63105,38.6383751010001,-90.331298048,20,"7545 YORK DR 1E, CLAYTON, MO, 63105","Match","Exact","7545 YORK DR, CLAYTON, MO, 63105",100135944,"R"
286521,"7546 30TH AVE","KENOSHA","WI",53142,42.5652358720001,-87.845212246,21,"7546 30TH AVE, KENOSHA, WI, 53142","Match","Exact","7546 30TH AVE, KENOSHA, WI, 53142",79800093,"R"
286522,"7546 BAYSWEET DRIVE","MEMPHIS","TN",38125,35.0399847890001,-89.811143004,22,"7546 BAYSWEET DRIVE, MEMPHIS, TN, 38125","Match","Exact","7546 BAYSWEET DR, MEMPHIS, TN, 38125",72959476,"L"
286523,"7546 MARSH CREEK LANE","MAINEVILLE","OH",45039,39.328917104,-84.244347768,23,"7546 MARSH CREEK LANE, MAINEVILLE, OH, 45039","Match","Exact","7546 MARSH CREEK LN, MAINEVILLE, OH, 45039",649059477,"L"
286524,"7546 STATE ROUTE 47 E","BELLEFONTAINE","OH",43311,40.4076953360001,-83.636572589,24,"7546 STATE ROUTE 47 E, BELLEFONTAINE, OH, 43311","Match","Non_Exact","7546 STATE RTE 47, BELLEFONTAINE, OH, 43311",52162324,"R"
286525,"7546 TROOST AVENUE","KANSAS CITY","MO",64131,38.990333842,-94.575736848,25,"7546 TROOST AVENUE, KANSAS CITY, MO, 64131","Match","Exact","7546 TROOST AVE, KANSAS CITY, MO, 64131",91454943,"R"
286526,"7547 FRANKLIN BLVD APT 2","SACRAMENTO","CA",95823,38.483541019,-121.453501935,26,"7547 FRANKLIN BLVD APT 2, SACRAMENTO, CA, 95823","Match","Exact","7547 FRANKLIN BLVD, SACRAMENTO, CA, 95823",133351577,"L"
286527,"7547 IREDELL MAIN","MADISON","AL",35757,NA,NA,27,"7547 IREDELL MAIN, MADISON, AL, 35757","No_Match",NA,NA,NA,NA
286528,"7547 KENDALL ROAD","MAPLE FALLS","WA",98266,48.9199846820001,-122.143238678,28,"7547 KENDALL ROAD, MAPLE FALLS, WA, 98266","Match","Exact","7547 KENDALL RD, MAPLE FALLS, WA, 98266",640066571,"L"
286529,"7547 MATHER LANE","INDIANAPOLIS","IN",46239,39.703787017,-86.0332920179999,29,"7547 MATHER LANE, INDIANAPOLIS, IN, 46239","Match","Exact","7547 MATHER LN, INDIANAPOLIS, IN, 46239",624027867,"L"
286530,"7547 SILVER SADDLE ROAD","FLAGSTAFF","AZ",86004,35.2695789590001,-111.51500871,30,"7547 SILVER SADDLE ROAD, FLAGSTAFF, AZ, 86004","Match","Exact","7547 SILVER SADDLE RD, FLAGSTAFF, AZ, 86004",189065894,"R"
286531,"7548 BOYCE DR","BATON ROUGE","LA",70809,30.4245947000001,-91.110377767,31,"7548 BOYCE DR, BATON ROUGE, LA, 70809","Match","Exact","7548 BOYCE DR, BATON ROUGE, LA, 70809",92189912,"R"
286532,"7548 DRAPER AVENUE","LA JOLLA","CA",92037,32.840429231,-117.276334996,32,"7548 DRAPER AVENUE, LA JOLLA, CA, 92037","Match","Exact","7548 DRAPER AVE, LA JOLLA, CA, 92037",195298274,"L"
286533,"7548 FOLKSTONE DRIVE","FORT WORTH","TX",76140,32.6474854740001,-97.266085284,33,"7548 FOLKSTONE DRIVE, FORT WORTH, TX, 76140","Match","Exact","7548 FOLKSTONE DR, FORT WORTH, TX, 76140",101953641,"R"
286534,"7548 PRESTON RD  STE141  PMB 1016","FRISCO","TX",75034,NA,NA,34,"7548 PRESTON RD  STE141  PMB 1016, FRISCO, TX, 75034","No_Match",NA,NA,NA,NA
286535,"7548 STARKEY COURT","INDIANAPOLIS","IN",46206,39.888798815,-86.277812435,35,"7548 STARKEY COURT, INDIANAPOLIS, IN, 46206","Match","Non_Exact","7548 STARKEY CT, INDIANAPOLIS, IN, 46278",647083336,"R"
286536,"7548 YORKSHIRE DR","DAYTON","OH",45414,39.8576056910001,-84.222648841,36,"7548 YORKSHIRE DR, DAYTON, OH, 45414","Match","Exact","7548 YORKSHIRE DR, DAYTON, OH, 45414",647944539,"R"
286537,"7549 IMPERIAL DRIVE NORTH","BROOKLYN PARK","MN",55443,45.092153239,-93.349434646,37,"7549 IMPERIAL DRIVE NORTH, BROOKLYN PARK, MN, 55443","Match","Exact","7549 IMPERIAL DR N, BROOKLYN PARK, MN, 55443",43829130,"L"
286538,"7549 INTERLACHEN AVE","SAN RAMON","CA",94583,37.7260928250001,-121.93633847,38,"7549 INTERLACHEN AVE, SAN RAMON, CA, 94583","Match","Exact","7549 INTERLACHEN AVE, SAN RAMON, CA, 94583",192067278,"L"
286539,"7549 S PHILLIPS AVENUE","CHICAGO","IL",60649,41.7578706190001,-87.5651314139999,39,"7549 S PHILLIPS AVENUE, CHICAGO, IL, 60649","Match","Exact","7549 S PHILLIPS AVE, CHICAGO, IL, 60649",605563566,"L"
286540,"7549 STONEBROOK PKWY 310","FRISCO","TX",75034,33.139876906,-96.816011157,40,"7549 STONEBROOK PKWY 310, FRISCO, TX, 75034","Match","Exact","7549 STONEBROOK PKWY, FRISCO, TX, 75034",210474968,"L"
286541,"7549 VALLEY CIRCLE LANE","HAMBURG","NY",14075,42.6850025040001,-78.783340525,41,"7549 VALLEY CIRCLE LANE, HAMBURG, NY, 14075","Match","Exact","7549 VALLEY CIRCLE LN, HAMBURG, NY, 14075",48311060,"L"
286542,"755 2ND AVENYE","SAN FRANCISCO","CA",94118,37.7748094,-122.459537813,42,"755 2ND AVENYE, SAN FRANCISCO, CA, 94118","Match","Non_Exact","755 2ND AVE, SAN FRANCISCO, CA, 94118",192281936,"R"
286543,"755 8TH AVE","FAIRBANKS","AK",99701,64.8405465160001,-147.72889731,43,"755 8TH AVE, FAIRBANKS, AK, 99701","Match","Exact","755 8TH AVE, FAIRBANKS, AK, 99701",190902869,"R"
286544,"755 A WICKLOW PLACE","RIDGELAND","MS",39157,32.4086522530001,-90.102836613,44,"755 A WICKLOW PLACE, RIDGELAND, MS, 39157","Match","Exact","755 WICKLOW PL, RIDGELAND, MS, 39157",152479897,"R"
286545,"755 BELLEVUE AVE E","SEATTLE","WA",98102,47.6256835230001,-122.326608605,45,"755 BELLEVUE AVE E, SEATTLE, WA, 98102","Match","Exact","755 BELLEVUE AVE E, SEATTLE, WA, 98102",186584163,"L"
286546,"755 BERKELEY AVE","PLAINFIELD","NJ",7062,40.625462971,-74.3992061439999,46,"755 BERKELEY AVE, PLAINFIELD, NJ, 7062","Match","Exact","755 BERKELEY AVE, PLAINFIELD, NJ, 07062",60603699,"L"
286547,"755 CEDAR RUN DR","BLACKLICK","OH",43004,40.0025626720001,-82.779168108,47,"755 CEDAR RUN DR, BLACKLICK, OH, 43004","Match","Exact","755 CEDAR RUN DR, BLACKLICK, OH, 43004",218700246,"R"
286548,"755 CHESTNUT STREET","CONNEAUT","OH",44030,41.9570332960001,-80.564044828,48,"755 CHESTNUT STREET, CONNEAUT, OH, 44030","Match","Exact","755 CHESTNUT ST, CONNEAUT, OH, 44030",117327569,"L"
286549,"755 COUNTY LINE ROAD","LACEYVILLE","PA",18623,41.7163664440001,-76.120105584,49,"755 COUNTY LINE ROAD, LACEYVILLE, PA, 18623","Match","Exact","755 COUNTY LINE RD, LACEYVILLE, PA, 18623",653629249,"L"
286550,"755 CRESTWELL CIRCLE SW","ATLANTA","GA",30331,33.7450837120001,-84.504217376,50,"755 CRESTWELL CIRCLE SW, ATLANTA, GA, 30331","Match","Non_Exact","755 CRESTWELL CIR, ATLANTA, GA, 30331",647335373,"L"
286551,"755 DARWIN DR","CHELSEA","MI",48118,42.317070922,-84.0044338179999,51,"755 DARWIN DR, CHELSEA, MI, 48118","Match","Exact","755 DARWIN DR, CHELSEA, MI, 48118",26032467,"L"
286552,"755 DEL ORO DR","SAFETY HARBOR","FL",34695,27.985718992,-82.6943575449999,52,"755 DEL ORO DR, SAFETY HARBOR, FL, 34695","Match","Exact","755 DEL ORO DR, SAFETY HARBOR, FL, 34695",124684259,"R"
286553,"755 E BROAD STREET","LANSE","MI",49946,46.7506268560001,-88.4443695909999,53,"755 E BROAD STREET, LANSE, MI, 49946","Match","Exact","755 BROAD ST, LANSE, MI, 49946",184178700,"R"
286554,"755 E HATCHER ROAD","PHOENIX","AZ",85020,33.571379215,-112.062897477,54,"755 E HATCHER ROAD, PHOENIX, AZ, 85020","Match","Exact","755 E HATCHER RD, PHOENIX, AZ, 85020",128206752,"R"
286555,"755 EAGLE CT","ADDISON","IL",60101,NA,NA,55,"755 EAGLE CT, ADDISON, IL, 60101","No_Match",NA,NA,NA,NA
286556,"755 EARLHAM DRIVE","JOHNS CREEK","GA",30024,34.1218875280001,-84.132746227,56,"755 EARLHAM DRIVE, JOHNS CREEK, GA, 30024","Match","Exact","755 EARLHAM DR, JOHNS CREEK, GA, 30024",624609831,"L"
286557,"755 EAST 19TH AVENUE  SUITE 536","DENVER","CO",80203,39.746179677,-104.978256762,57,"755 EAST 19TH AVENUE  SUITE 536, DENVER, CO, 80203","Match","Exact","755 E 19TH AVE, DENVER, CO, 80203",652264024,"L"
286558,"755 EAST 227TH STREET","BRONX","NY",10466,40.8887304620001,-73.858117071,58,"755 EAST 227TH STREET, BRONX, NY, 10466","Match","Exact","755 E 227TH ST, BRONX, NY, 10466",80297096,"L"
286559,"755 EAST WASHINGTON ROAD","FREELAND","MI",48623,43.5248230220001,-84.114657297,59,"755 EAST WASHINGTON ROAD, FREELAND, MI, 48623","Match","Exact","755 E WASHINGTON RD, FREELAND, MI, 48623",80207369,"R"
286560,"755 FENIMORE STREET APT 1M","BROOKLYN","NY",11203,40.6594913660001,-73.9377343899999,60,"755 FENIMORE STREET APT 1M, BROOKLYN, NY, 11203","Match","Exact","755 FENIMORE ST, BROOKLYN, NY, 11203",59079890,"L"
286561,"755 GEORGE WASHINGTON BOULEVARD","SUMTER","SC",29154,33.8993790700001,-80.4537418629999,61,"755 GEORGE WASHINGTON BOULEVARD, SUMTER, SC, 29154","Match","Exact","755 GEORGE WASHINGTON BLVD, SUMTER, SC, 29154",202712345,"L"
286562,"755 GOLDEN SUNSHINE CIRCLE","ORLANDO","FL",32807,28.5561064030001,-81.3050913869999,62,"755 GOLDEN SUNSHINE CIRCLE, ORLANDO, FL, 32807","Match","Exact","755 GOLDEN SUNSHINE CIR, ORLANDO, FL, 32807",94332083,"R"
286563,"755 GRAHAM AVE","ATLANTA","GA",30349,33.6562468590001,-84.6301027489999,63,"755 GRAHAM AVE, ATLANTA, GA, 30349","Match","Non_Exact","755 GRAHAM ST, ATLANTA, GA, 30349",625653920,"R"
286564,"755 GRAND BOULEVARD SUITE B105-328","MIRAMAR BEACH","FL",32550,NA,NA,64,"755 GRAND BOULEVARD SUITE B105-328, MIRAMAR BEACH, FL, 32550","No_Match",NA,NA,NA,NA
286565,"755 HIGHWAY 105 WAREHOUSE 8","PALMER LAKE","CO",80133,NA,NA,65,"755 HIGHWAY 105 WAREHOUSE 8, PALMER LAKE, CO, 80133","No_Match",NA,NA,NA,NA
286566,"755 K ST","WASHOUGAL","WA",98671,45.5873419960001,-122.364067548,66,"755 K ST, WASHOUGAL, WA, 98671","Match","Exact","755 K ST, WASHOUGAL, WA, 98671",158336266,"R"
286567,"755 LAMAR STREET","ORANGEBURG","SC",29115,33.518676316,-80.821839912,67,"755 LAMAR STREET, ORANGEBURG, SC, 29115","Match","Non_Exact","755 LAMAR ST NE, ORANGEBURG, SC, 29115",19228816,"L"
286568,"755 LANCASTER AVENUE","ORANGE CITY","FL",32763,28.9367655830001,-81.3206174439999,68,"755 LANCASTER AVENUE, ORANGE CITY, FL, 32763","Match","Exact","755 LANCASTER AVE, ORANGE CITY, FL, 32763",94516789,"L"
286569,"755 LINCOLN AVE","POTTSTOWN","PA",19464,40.2485228850001,-75.633407983,69,"755 LINCOLN AVE, POTTSTOWN, PA, 19464","Match","Exact","755 LINCOLN AVE, POTTSTOWN, PA, 19464",135062357,"L"
286570,"755 LITCHFIELD TURNPIKE","BETHANY","CT",6524,41.4423672030001,-72.9831189079999,70,"755 LITCHFIELD TURNPIKE, BETHANY, CT, 6524","Match","Exact","755 LITCHFIELD TPKE, BETHANY, CT, 06524",3711006,"L"
286571,"755 MADDOX FARM ROAD","ODENVILLE","AL",35120,33.6955632950001,-86.371528386,71,"755 MADDOX FARM ROAD, ODENVILLE, AL, 35120","Match","Exact","755 MADDOX FARM RD, ODENVILLE, AL, 35120",66875400,"R"
286572,"755 MAIN STREET SUITE 8B","MONROE","CT",6468,41.341743009,-73.261614149,72,"755 MAIN STREET SUITE 8B, MONROE, CT, 6468","Match","Exact","755 MAIN ST, MONROE, CT, 06468",618530218,"L"
286573,"755 MANNING BRIDGE RD","SUFFOLK","VA",23434,36.6952825750001,-76.666422623,73,"755 MANNING BRIDGE RD, SUFFOLK, VA, 23434","Match","Exact","755 MANNING BRIDGE RD, SUFFOLK, VA, 23434",122224769,"L"
286574,"755 N 4TH ST","GRAND JUNCTION","CO",81501,39.0739962210001,-108.566164547,74,"755 N 4TH ST, GRAND JUNCTION, CO, 81501","Match","Exact","755 N 4TH ST, GRAND JCT, CO, 81501",122432328,"L"
286575,"755 N 4TH STREET","GRAND JUNCTION","CO",81501,39.0739962210001,-108.566164547,75,"755 N 4TH STREET, GRAND JUNCTION, CO, 81501","Match","Exact","755 N 4TH ST, GRAND JCT, CO, 81501",122432328,"L"
286576,"755 N SWEETZER AVE UNIT 205","WEST HOLLYWOOD","CA",90069,34.08481749,-118.370307255,76,"755 N SWEETZER AVE UNIT 205, WEST HOLLYWOOD, CA, 90069","Match","Non_Exact","755 N SWEETZER AVE, W HOLLYWOOD, CA, 90069",652033073,"L"
286577,"755 NORTH 8TH STREET","WYTHEVILLE","VA",24382,36.951710345,-81.092722362,77,"755 NORTH 8TH STREET, WYTHEVILLE, VA, 24382","Match","Exact","755 N 8TH ST, WYTHEVILLE, VA, 24382",47634238,"L"
286578,"755 NORTH AVENUE NE UNIT 2204","ATLANTA","GA",30306,NA,NA,78,"755 NORTH AVENUE NE UNIT 2204, ATLANTA, GA, 30306","No_Match",NA,NA,NA,NA
286579,"755 NW 131 STREET","NORTH MIAMI","FL",33168,25.8946011510001,-80.21218486,79,"755 NW 131 STREET, NORTH MIAMI, FL, 33168","Match","Exact","755 NW 131ST ST, NORTH MIAMI, FL, 33168",116033446,"R"
286580,"755 NW 17TH AVENUE SUITE 107","DELRAY BEACH","FL",33445,NA,NA,80,"755 NW 17TH AVENUE SUITE 107, DELRAY BEACH, FL, 33445","No_Match",NA,NA,NA,NA
286581,"755 OAK KNOLL DR","ASHLAND","OR",97520,42.1815325200001,-122.66125079,81,"755 OAK KNOLL DR, ASHLAND, OR, 97520","Match","Exact","755 OAK KNOLL DR, ASHLAND, OR, 97520",155544987,"L"
286582,"755 PAINTER COURT","GILROY","CA",95020,37.0234459980001,-121.59254866,82,"755 PAINTER COURT, GILROY, CA, 95020","Match","Exact","755 PAINTER CT, GILROY, CA, 95020",636547049,"L"
286583,"755 RESEARCH PARKWAY SUITE 522","OKLAHOMA CITY","OK",73104,35.474512378,-97.503096559,83,"755 RESEARCH PARKWAY SUITE 522, OKLAHOMA CITY, OK, 73104","Match","Exact","755 RESEARCH PKWY, OKLAHOMA CITY, OK, 73104",606223054,"L"
286584,"755 RIVERHAVEN DRIVE","SUWANEE","GA",30024,34.102419968,-84.1122411059999,84,"755 RIVERHAVEN DRIVE, SUWANEE, GA, 30024","Match","Exact","755 RIVERHAVEN DR, SUWANEE, GA, 30024",70187886,"L"
286585,"755 ROCKHURST RD","BOLINGBROOK","IL",60440,41.706663753,-88.035714231,85,"755 ROCKHURST RD, BOLINGBROOK, IL, 60440","Match","Exact","755 ROCKHURST RD, BOLINGBROOK, IL, 60440",111544491,"R"
286586,"755 S LAS FLORES DR  SP 79","SAN MARCOS","CA",92069,33.140166708,-117.208478281,86,"755 S LAS FLORES DR  SP 79, SAN MARCOS, CA, 92069","Match","Non_Exact","755 LAS FLORES DR, SAN MARCOS, CA, 92078",195294980,"R"
286587,"755 S RIVER ROAD","SAGINAW","MI",48609,43.4104108700001,-84.052074213,87,"755 S RIVER ROAD, SAGINAW, MI, 48609","Match","Exact","755 S RIVER RD, SAGINAW, MI, 48609",80219519,"L"
286588,"755 S ROGERS STREET APT 801","POOLER","GA",31322,32.111097521,-81.250515793,88,"755 S ROGERS STREET APT 801, POOLER, GA, 31322","Match","Non_Exact","755 S ROGERS ST, POOLER, GA, 31322",636151200,"L"
286589,"755 SE FRONTIER AVENUE SUITE 102","WAUKEE","IA",50265,NA,NA,89,"755 SE FRONTIER AVENUE SUITE 102, WAUKEE, IA, 50265","No_Match",NA,NA,NA,NA
286590,"755 SOUTH MAIN STREET SUITE 4190","CEDAR CITY","UT",84720,37.663568635,-113.067123253,90,"755 SOUTH MAIN STREET SUITE 4190, CEDAR CITY, UT, 84720","Match","Exact","755 S MAIN ST, CEDAR CITY, UT, 84720",165406981,"L"
286591,"755 SOUTH RAILROAD STREET","PALMYRA","PA",17078,40.3030413170001,-76.588744752,91,"755 SOUTH RAILROAD STREET, PALMYRA, PA, 17078","Match","Exact","755 S RAILROAD ST, PALMYRA, PA, 17078",634966570,"L"
286592,"755 SOUTH RURAL STREET","HARTFORD","WI",53027,43.309585768,-88.380685457,92,"755 SOUTH RURAL STREET, HARTFORD, WI, 53027","Match","Exact","755 S RURAL ST, HARTFORD, WI, 53027",635649725,"R"
286593,"755 SOUTH WASHINGTON AVENUE","MOBILE","AL",36603,30.6718022490001,-88.052503924,93,"755 SOUTH WASHINGTON AVENUE, MOBILE, AL, 36603","Match","Exact","755 S WASHINGTON AVE, MOBILE, AL, 36603",61867849,"L"
286594,"755 STATE HIGHWAY 121 STE B200","LEWISVILLE","TX",75067,NA,NA,94,"755 STATE HIGHWAY 121 STE B200, LEWISVILLE, TX, 75067","No_Match",NA,NA,NA,NA
286595,"755 STONEGATE DR","WEXFORD","PA",15090,40.629308306,-80.104037804,95,"755 STONEGATE DR, WEXFORD, PA, 15090","Match","Exact","755 STONEGATE DR, WEXFORD, PA, 15090",617313155,"L"
286596,"755 SUGAR CREEK RD","LAUREL BLOOMERY","TN",37680,36.567393693,-81.7425760579999,96,"755 SUGAR CREEK RD, LAUREL BLOOMERY, TN, 37680","Match","Exact","755 SUGAR CREEK RD, LAUREL BLOOMERY, TN, 37680",612561312,"L"
286597,"755 SUMMIT DR APT 322","LANCASTER","PA",17601,40.062422568,-76.432817181,97,"755 SUMMIT DR APT 322, LANCASTER, PA, 17601","Match","Exact","755 SUMMIT DR, LANCASTER, PA, 17601",179714208,"L"
286598,"755 TACOMA RD APT 6","ERIE","PA",16511,42.144233463,-80.037423523,98,"755 TACOMA RD APT 6, ERIE, PA, 16511","Match","Exact","755 TACOMA RD, ERIE, PA, 16511",117497038,"L"
286599,"755 TOMAHAWK RD","TEXARKANA","TX",75501,33.3117082040001,-94.083798383,99,"755 TOMAHAWK RD, TEXARKANA, TX, 75501","Match","Exact","755 TOMAHAWK RD, TEXARKANA, TX, 75501",57683161,"L"
286600,"755 TRACY CIRCLE","TOWNSEND","DE",19734,39.395440025,-75.7028283459999,100,"755 TRACY CIRCLE, TOWNSEND, DE, 19734","Match","Exact","755 TRACY CIR, TOWNSEND, DE, 19734",187304127,"L"
286601,"755 VALLEY CREST DRIVE","OCEANSIDE","CA",92058,33.229140532,-117.348188293,101,"755 VALLEY CREST DRIVE, OCEANSIDE, CA, 92058","Match","Exact","755 VALLEY CREST DR, OCEANSIDE, CA, 92058",195283543,"L"
286602,"755 VANCE OBANION ROAD","OWENTON","KY",40359,38.5571547760001,-84.732618993,102,"755 VANCE OBANION ROAD, OWENTON, KY, 40359","Match","Non_Exact","755 VANCE O'BANION RD, OWENTON, KY, 40359",95317695,"L"
286603,"755 W 30TH STREET","SAN PEDRO","CA",90731,33.716560744,-118.29388104,103,"755 W 30TH STREET, SAN PEDRO, CA, 90731","Match","Exact","755 W 30TH ST, SAN PEDRO, CA, 90731",141690778,"L"
286604,"755 W 9TH STREET","SAN PEDRO","CA",90731,33.7360516370001,-118.293554578,104,"755 W 9TH STREET, SAN PEDRO, CA, 90731","Match","Exact","755 W 9TH ST, SAN PEDRO, CA, 90731",141690563,"L"
286605,"755 W BIG BEAVER RD STE 1300","TROY","MI",48084,42.5619569500001,-83.1607494899999,105,"755 W BIG BEAVER RD STE 1300, TROY, MI, 48084","Match","Non_Exact","755 W BIG BEAVER RD, TROY, MI, 48084",639249064,"L"
286606,"755 WEST BROADWAY SUITE 215","LAWRENCEBURG","KY",40342,38.0214318600001,-84.9085542719999,106,"755 WEST BROADWAY SUITE 215, LAWRENCEBURG, KY, 40342","Match","Non_Exact","755 W BROADWAY ST, LAWRENCEBURG, KY, 40342",43453278,"R"
286607,"755 WESTMINSTER ROAD","BROOKLYN","NY",11230,40.630749345,-73.965276284,107,"755 WESTMINSTER ROAD, BROOKLYN, NY, 11230","Match","Exact","755 WESTMINSTER RD, BROOKLYN, NY, 11230",59081132,"L"
286608,"755 WHITE OAK ROAD","DENVER","PA",17517,40.246445066,-76.106654045,108,"755 WHITE OAK ROAD, DENVER, PA, 17517","Match","Exact","755 WHITE OAK RD, DENVER, PA, 17517",179721822,"R"
286609,"755 WOOD STREET","LANDER","WY",82520,42.8397447610001,-108.739089695,109,"755 WOOD STREET, LANDER, WY, 82520","Match","Exact","755 WOOD ST, LANDER, WY, 82520",148484901,"R"
286610,"7550 AIRWAYS BLVD  2042","SOUTHAVEN","MS",38671,34.969296162,-89.989890416,110,"7550 AIRWAYS BLVD  2042, SOUTHAVEN, MS, 38671","Match","Exact","7550 AIRWAYS BLVD, SOUTHAVEN, MS, 38671",91850826,"L"
286611,"7550 CONSTANTINOPLE AVE","LAS VEGAS","NV",89129,36.231258516,-115.259670648,111,"7550 CONSTANTINOPLE AVE, LAS VEGAS, NV, 89129","Match","Exact","7550 CONSTANTINOPLE AVE, LAS VEGAS, NV, 89129",629118409,"R"
286612,"7550 COPPER COVE","CONVERSE","TX",78109,29.5016313560001,-98.2929187779999,112,"7550 COPPER COVE, CONVERSE, TX, 78109","Match","Exact","7550 COPPER COVE, CONVERSE, TX, 78109",619957663,"R"
286613,"7550 EAST SHELBY DRIVE","MEMPHIS","TN",38125,35.0204523670001,-89.800525396,113,"7550 EAST SHELBY DRIVE, MEMPHIS, TN, 38125","Match","Exact","7550 E SHELBY DR, MEMPHIS, TN, 38125",618710214,"L"
286614,"7550 FM 660","ENNIS","TX",75119,32.4262991300001,-96.591376969,114,"7550 FM 660, ENNIS, TX, 75119","Match","Exact","7550 FM 660, ENNIS, TX, 75119",103494069,"L"
286615,"7550 FOREST ROAD","CINCINNATI","OH",45255,39.070548671,-84.3497295239999,115,"7550 FOREST ROAD, CINCINNATI, OH, 45255","Match","Exact","7550 FOREST RD, CINCINNATI, OH, 45255",103957801,"L"
286616,"7550 FREDERICK PIKE","DAYTON","OH",45414,39.856741383,-84.252050546,116,"7550 FREDERICK PIKE, DAYTON, OH, 45414","Match","Exact","7550 FREDERICK PIKE, DAYTON, OH, 45414",143613873,"R"
286617,"7550 FUTURES DR STE 103","ORLANDO","FL",32819,28.439158051,-81.427872129,117,"7550 FUTURES DR STE 103, ORLANDO, FL, 32819","Match","Exact","7550 FUTURES DR, ORLANDO, FL, 32819",94424123,"R"
286618,"7550 IH-10 WEST STE 504","SAN ANTONIO","TX",78229,NA,NA,118,"7550 IH-10 WEST STE 504, SAN ANTONIO, TX, 78229","No_Match",NA,NA,NA,NA
286619,"7550 KELLER RD","CINCINNATI","OH",45243,39.2078545890001,-84.362061422,119,"7550 KELLER RD, CINCINNATI, OH, 45243","Match","Exact","7550 KELLER RD, CINCINNATI, OH, 45243",103938948,"L"
286620,"7550 N WELLING ROAD","ST. JOHNS","MI",48879,43.0976015160001,-84.5136433609999,120,"7550 N WELLING ROAD, ST. JOHNS, MI, 48879","Match","Exact","7550 N WELLING RD, SAINT JOHNS, MI, 48879",642500882,"R"
286621,"7550 NW 50TH ST","CHIEFLAND","FL",32626,29.402010777,-82.8968809359999,121,"7550 NW 50TH ST, CHIEFLAND, FL, 32626","Match","Exact","7550 NW 50TH ST, CHIEFLAND, FL, 32626",612204451,"R"
286622,"7550 OAKBROOK DRIVE","ZEPHYRHILLS","FL",33540,28.2667091280001,-82.164546343,122,"7550 OAKBROOK DRIVE, ZEPHYRHILLS, FL, 33540","Match","Non_Exact","7550 OAK BROOK DR, ZEPHYRHILLS, FL, 33540",86378095,"R"
286623,"7550 S HAMPTON RD","DALLAS","TX",75232,32.6576555570001,-96.8569852639999,123,"7550 S HAMPTON RD, DALLAS, TX, 75232","Match","Exact","7550 S HAMPTON RD, DALLAS, TX, 75232",102952705,"L"
286624,"7550 S WILLOW DRIVE","TEMPE","AZ",85283,33.349773833,-111.914772428,124,"7550 S WILLOW DRIVE, TEMPE, AZ, 85283","Match","Exact","7550 S WILLOW DR, TEMPE, AZ, 85283",128367933,"R"
286625,"7550 SISK CARTER RD","ROCKWELL","NC",28138,35.5007400810001,-80.454618178,125,"7550 SISK CARTER RD, ROCKWELL, NC, 28138","Match","Exact","7550 SISK CARTER RD, ROCKWELL, NC, 28138",24891258,"R"
286626,"7550 ST PATRICK WAY APT 102","DUBLIN","CA",94568,NA,NA,126,"7550 ST PATRICK WAY APT 102, DUBLIN, CA, 94568","Tie",NA,NA,NA,NA
286627,"7550 SUNWOOD DRIVE NW","RAMSEY","MN",55303,NA,NA,127,"7550 SUNWOOD DRIVE NW, RAMSEY, MN, 55303","No_Match",NA,NA,NA,NA
286628,"7550 US HIGHWAY 1","VERO BEACH","FL",32967,27.7305788670001,-80.425229542,128,"7550 US HIGHWAY 1, VERO BEACH, FL, 32967","Match","Exact","7550 US HWY 1, VERO BEACH, FL, 32967",611131579,"R"
286629,"7550 W JOLIET ROAD","PEOTONE","IL",60468,NA,NA,129,"7550 W JOLIET ROAD, PEOTONE, IL, 60468","No_Match",NA,NA,NA,NA
286630,"7550 WILSHIRE PLACE DR APT 1034","HOUSTON","TX",77040,29.858828712,-95.506001479,130,"7550 WILSHIRE PLACE DR APT 1034, HOUSTON, TX, 77040","Match","Exact","7550 WILSHIRE PLACE DR, HOUSTON, TX, 77040",96646826,"R"
286631,"75506 ROBINSON ROAD","ELGIN","OR",97827,45.7071595640001,-117.910780161,131,"75506 ROBINSON ROAD, ELGIN, OR, 97827","Match","Exact","75506 ROBINSON RD, ELGIN, OR, 97827",614904040,"L"
286632,"7551 67 DRIVE","MIDDLE VILLAGE","NY",11379,NA,NA,132,"7551 67 DRIVE, MIDDLE VILLAGE, NY, 11379","No_Match",NA,NA,NA,NA
286633,"7551 B 15TH AVENUE NW","SEATTLE","WA",98117,47.6837601030001,-122.376788457,133,"7551 B 15TH AVENUE NW, SEATTLE, WA, 98117","Match","Exact","7551 15TH AVE NW, SEATTLE, WA, 98117",186658944,"L"
286634,"7551 CAPONADA BLVD","SEMINOLE","FL",33777,27.8408777560001,-82.7536465219999,134,"7551 CAPONADA BLVD, SEMINOLE, FL, 33777","Match","Non_Exact","7551 CAPONATA BLVD, SEMINOLE, FL, 33777",645828582,"R"
286635,"7551 FRANKLIN BLVD UNIT 10","SACRAMENTO","CA",95823,38.4834590030001,-121.453472426,135,"7551 FRANKLIN BLVD UNIT 10, SACRAMENTO, CA, 95823","Match","Exact","7551 FRANKLIN BLVD, SACRAMENTO, CA, 95823",133351577,"L"
286636,"7551 N FARMINGTON RD","WESTLAND","MI",48185,NA,NA,136,"7551 N FARMINGTON RD, WESTLAND, MI, 48185","Tie",NA,NA,NA,NA
286637,"7551 SPRINGDALE ST","HOUSTON","TX",77028,29.839450179,-95.2915128989999,137,"7551 SPRINGDALE ST, HOUSTON, TX, 77028","Match","Exact","7551 SPRINGDALE ST, HOUSTON, TX, 77028",96147543,"L"
286638,"7551 SW 96TH COURT","MIAMI","FL",33173,25.6987755870001,-80.3495083829999,138,"7551 SW 96TH COURT, MIAMI, FL, 33173","Match","Exact","7551 SW 96TH CT, MIAMI, FL, 33173",116073606,"L"
286639,"7551 W STRAW HAT LN","TUCSON","AZ",85743,32.367632961,-111.126238583,139,"7551 W STRAW HAT LN, TUCSON, AZ, 85743","Match","Exact","7551 W STRAW HAT LN, TUCSON, AZ, 85743",121222510,"R"
286640,"7551 WEST SAMPLE RD","CORAL SPRINGS","FL",33065,26.2721327740001,-80.223588978,140,"7551 WEST SAMPLE RD, CORAL SPRINGS, FL, 33065","Match","Exact","7551 W SAMPLE RD, CORAL SPRINGS, FL, 33065",114808259,"R"
286641,"7551 WILES RD STE 104","CORAL SPRINGS","FL",33067,26.2867199930001,-80.227719544,141,"7551 WILES RD STE 104, CORAL SPRINGS, FL, 33067","Match","Exact","7551 WILES RD, CORAL SPRINGS, FL, 33067",637644544,"L"
286642,"75514","COLORADO SPRINGS","CO",80970,NA,NA,142,"75514, COLORADO SPRINGS, CO, 80970","No_Match",NA,NA,NA,NA
286643,"7552 GLASTONBURY RD","KNOXVILLE","TN",37931,36.0028058890001,-84.1089795079999,143,"7552 GLASTONBURY RD, KNOXVILLE, TN, 37931","Match","Exact","7552 GLASTONBURY RD, KNOXVILLE, TN, 37931",42609732,"L"
286644,"7552 MELROSE AVE","LOS ANGELES","CA",90046,34.0836558080001,-118.354478654,144,"7552 MELROSE AVE, LOS ANGELES, CA, 90046","Match","Exact","7552 MELROSE AVE, LOS ANGELES, CA, 90046",141598585,"L"
286645,"7552 NAVARRE PKWY UNIT 27","NAVARRE","FM",32566,NA,NA,145,"7552 NAVARRE PKWY UNIT 27, NAVARRE, FM, 32566","No_Match",NA,NA,NA,NA
286646,"7552 W CARO RD","REESE","MI",48757,43.451190002,-83.604079682,146,"7552 W CARO RD, REESE, MI, 48757","Match","Exact","7552 W CARO RD, REESE, MI, 48757",81258137,"L"
286647,"7553 BROOKFIELD LANE","NORTHFIELD","OH",44067,41.283459271,-81.495698671,147,"7553 BROOKFIELD LANE, NORTHFIELD, OH, 44067","Match","Exact","7553 BROOKFIELD LN, NORTHFIELD, OH, 44067",625742903,"L"
286648,"7553 CHENSANING ROAD","CHESANING","MI",48616,NA,NA,148,"7553 CHENSANING ROAD, CHESANING, MI, 48616","No_Match",NA,NA,NA,NA
286649,"7553 FLORIDA PINE ST","BROWNSVILLE","TX",78526,26.014762153,-97.517883406,149,"7553 FLORIDA PINE ST, BROWNSVILLE, TX, 78526","Match","Exact","7553 FLORIDA PINE ST, BROWNSVILLE, TX, 78526",642830937,"L"
286650,"7553 GANNON AVENUE","SAINT LOUIS","MO",63130,38.6600028450001,-90.3348128539999,150,"7553 GANNON AVENUE, SAINT LOUIS, MO, 63130","Match","Exact","7553 GANNON AVE, SAINT LOUIS, MO, 63130",100134050,"R"
286651,"7553 SW 158 CT","MIAMI","FL",33193,25.695412375,-80.44895601,151,"7553 SW 158 CT, MIAMI, FL, 33193","Match","Exact","7553 SW 158TH CT, MIAMI, FL, 33193",116062305,"L"
286652,"75533 RIVER RD","COVINGTON","LA",70435,30.5246861200001,-90.1185720719999,152,"75533 RIVER RD, COVINGTON, LA, 70435","Match","Exact","75533 RIVER RD, COVINGTON, LA, 70435",111299649,"R"
286653,"7554 BURTON DRIVE","LIBERTY TOWNSHIP","OH",45044,39.4081002550001,-84.3691101909999,153,"7554 BURTON DRIVE, LIBERTY TOWNSHIP, OH, 45044","Match","Exact","7554 BURTON DR, LIBERTY TOWNSHIP, OH, 45044",604775806,"L"
286654,"7554 E COUNTY ROAD 50 N","GREENSBURG","IN",47240,39.3430103430001,-85.340508955,154,"7554 E COUNTY ROAD 50 N, GREENSBURG, IN, 47240","Match","Exact","7554 E CO RD 50 N, GREENSBURG, IN, 47240",31184179,"L"
286655,"7554 KAYLA SHAE ST NE","KEIZER","OR",97303,45.028698455,-123.010373748,155,"7554 KAYLA SHAE ST NE, KEIZER, OR, 97303","Match","Exact","7554 KAYLA SHAE ST NE, KEIZER, OR, 97303",156275433,"L"
286656,"7554 N CALIFORNIA AVE UNIT 303","CHICAGO","IL",60645,42.0189399590001,-87.699599935,156,"7554 N CALIFORNIA AVE UNIT 303, CHICAGO, IL, 60645","Match","Non_Exact","7554 N CALIFORNIA AVE, CHICAGO, IL, 60645",605263070,"L"
286657,"7554 PACIFIC AVE NUM 1383","STOCKTON","CA",95269,38.017566344,-121.323117365,157,"7554 PACIFIC AVE NUM 1383, STOCKTON, CA, 95269","Match","Non_Exact","7554 PACIFIC AVE, STOCKTON, CA, 95207",133906568,"R"
286658,"7555 BEACHWOOD AVE NE","POULSBO","WA",98370,47.7603248560001,-122.547993059,158,"7555 BEACHWOOD AVE NE, POULSBO, WA, 98370","Match","Exact","7555 BEACHWOOD AVE NE, POULSBO, WA, 98370",187663505,"R"
286659,"7555 IPSWICH","HOUSTON","TX",77061,NA,NA,159,"7555 IPSWICH, HOUSTON, TX, 77061","No_Match",NA,NA,NA,NA
286660,"7555 JONES RD SUITE 723","FAIRBURN","GA",30213,NA,NA,160,"7555 JONES RD SUITE 723, FAIRBURN, GA, 30213","No_Match",NA,NA,NA,NA
286661,"7555 KRAENZLEIN RD","SAGINAW","MI",48604,43.517027247,-83.984143213,161,"7555 KRAENZLEIN RD, SAGINAW, MI, 48604","Match","Exact","7555 KRAENZLEIN RD, SAGINAW, MI, 48604",642496557,"R"
286662,"7555 MORLEY STREET","HOUSTON","TX",77061,29.661159216,-95.286493091,162,"7555 MORLEY STREET, HOUSTON, TX, 77061","Match","Exact","7555 MORLEY ST, HOUSTON, TX, 77061",96092313,"L"
286663,"7555 SEDGEBROOK DRIVE EAST","STANLEY","NC",28164,35.43922682,-80.992291296,163,"7555 SEDGEBROOK DRIVE EAST, STANLEY, NC, 28164","Match","Exact","7555 SEDGEBROOK DR E, STANLEY, NC, 28164",69539068,"L"
286664,"7555 SHOLER AVE","BRIDGEVIEW","IL",60455,41.7540459530001,-87.816945685,164,"7555 SHOLER AVE, BRIDGEVIEW, IL, 60455","Match","Exact","7555 SHOLER AVE, BRIDGEVIEW, IL, 60455",111808992,"L"
286665,"7555 SPRING BOX DRIVE","FAIRBURN","GA",30213,33.6400624950001,-84.6365559229999,165,"7555 SPRING BOX DRIVE, FAIRBURN, GA, 30213","Match","Non_Exact","7555 SPRINGBOX DR, FAIRBURN, GA, 30213",644630128,"L"
286666,"7555 W AMHERST AVE","DENVER","CO",80227,39.6653555820001,-105.080197078,166,"7555 W AMHERST AVE, DENVER, CO, 80227","Match","Exact","7555 W AMHERST AVE, DENVER, CO, 80227",177321743,"R"
286667,"7555 W COUNTRY CLUB BLVD","BOCA RATON","FL",33487,26.417465151,-80.087417967,167,"7555 W COUNTRY CLUB BLVD, BOCA RATON, FL, 33487","Match","Exact","7555 W COUNTRY CLUB BLVD, BOCA RATON, FL, 33487",115293147,"L"
286668,"7556 COLUMBIA STREET","ROSEMEAD","CA",91770,34.0710967900001,-118.104681097,168,"7556 COLUMBIA STREET, ROSEMEAD, CA, 91770","Match","Exact","7556 COLUMBIA ST, ROSEMEAD, CA, 91770",142839234,"R"
286669,"7556 HAVERFORD AVE","PHILADELPHIA","PA",19151,39.9783615810001,-75.267373339,169,"7556 HAVERFORD AVE, PHILADELPHIA, PA, 19151","Match","Exact","7556 HAVERFORD AVE, PHILADELPHIA, PA, 19151",131392980,"L"
286670,"7556 N TOYA VISTA ROAD","PAYSON","AZ",85541,34.284551273,-111.2978778,170,"7556 N TOYA VISTA ROAD, PAYSON, AZ, 85541","Match","Exact","7556 N TOYA VISTA RD, PAYSON, AZ, 85541",159321716,"L"
286671,"7556 OLD MOON ROAD","COLUMBUS","GA",31909,32.5601291190001,-84.931450753,171,"7556 OLD MOON ROAD, COLUMBUS, GA, 31909","Match","Exact","7556 MOON RD, COLUMBUS, GA, 31909",628678317,"L"
286672,"755608 HIENALOLI RD LOT 23","KAILUA KONA","HI",96740,NA,NA,172,"755608 HIENALOLI RD LOT 23, KAILUA KONA, HI, 96740","No_Match",NA,NA,NA,NA
286673,"7557 MAIN STREET STE 901","HOUSTON","TX",77030,29.6982871160001,-95.411356467,173,"7557 MAIN STREET STE 901, HOUSTON, TX, 77030","Match","Exact","7557 MAIN ST, HOUSTON, TX, 77030",96063990,"L"
286674,"7557 W SANDLAKE RD STE 1222","ORLANDO","FL",32819,28.44997385,-81.4850986879999,174,"7557 W SANDLAKE RD STE 1222, ORLANDO, FL, 32819","Match","Non_Exact","7557 W SAND LAKE RD, ORLANDO, FL, 32819",611452346,"R"
286675,"7558 AVALON BLVD","FAIRBURN","GA",30213,33.5480076700001,-84.569490452,175,"7558 AVALON BLVD, FAIRBURN, GA, 30213","Match","Exact","7558 AVALON BLVD, FAIRBURN, GA, 30213",629793071,"L"
286676,"7558 LAFOURCHE ST","NEW ORLEANS","LA",70127,30.0468222700001,-89.9752825319999,176,"7558 LAFOURCHE ST, NEW ORLEANS, LA, 70127","Match","Exact","7558 LAFOURCHE ST, NEW ORLEANS, LA, 70127",191721333,"L"
286677,"7558 RAVENNA AVENUE NE","SEATTLE","WA",98115,47.683635027,-122.303996123,177,"7558 RAVENNA AVENUE NE, SEATTLE, WA, 98115","Match","Exact","7558 RAVENNA AVE NE, SEATTLE, WA, 98115",186585480,"R"
286678,"7558 S PAXTON AVE","CHICAGO","IL",60649,41.757692494,-87.5712379349999,178,"7558 S PAXTON AVE, CHICAGO, IL, 60649","Match","Exact","7558 S PAXTON AVE, CHICAGO, IL, 60649",605563674,"R"
286679,"7558 W THUNDERBIRD RD SUITE 1-492","PEORIA","AZ",85381,33.610317927,-112.221681951,179,"7558 W THUNDERBIRD RD SUITE 1-492, PEORIA, AZ, 85381","Match","Non_Exact","7558 W THUNDERBIRD RD, PEORIA, AZ, 85381",128945615,"R"
286680,"7558 W THUNDERBIRD RD SUITE 1-616","PEORIA","AZ",85381,33.610317927,-112.221681951,180,"7558 W THUNDERBIRD RD SUITE 1-616, PEORIA, AZ, 85381","Match","Non_Exact","7558 W THUNDERBIRD RD, PEORIA, AZ, 85381",128945615,"R"
286681,"7559 COUNTY ROAD E","SHULLSBURG","WI",53586,NA,NA,181,"7559 COUNTY ROAD E, SHULLSBURG, WI, 53586","No_Match",NA,NA,NA,NA
286682,"7559 FM 50","BRENHAM","TX",77833,NA,NA,182,"7559 FM 50, BRENHAM, TX, 77833","No_Match",NA,NA,NA,NA
286683,"756 ALA EKOLU STREET","HOOLEHUA","HI",96729,21.167430445,-157.05251979,183,"756 ALA EKOLU STREET, HOOLEHUA, HI, 96729","Match","Exact","756 ALA EKOLU ST, HOOLEHUA, HI, 96729",85081858,"L"
286684,"756 BLUFF ST APT 301","CAROL STREAM","IL",60188,41.9230484400001,-88.1232292729999,184,"756 BLUFF ST APT 301, CAROL STREAM, IL, 60188","Match","Exact","756 BLUFF ST, CAROL STREAM, IL, 60188",639894015,"L"
286685,"756 BROADWAY EAST 102","SEATTLE","WA",98102,47.625835093,-122.321310551,185,"756 BROADWAY EAST 102, SEATTLE, WA, 98102","Match","Exact","756 BROADWAY E, SEATTLE, WA, 98102",186990731,"R"
286686,"756 BROADWAY","EVERETT","MA",2149,42.416107889,-71.0474039169999,186,"756 BROADWAY, EVERETT, MA, 2149","Match","Exact","756 BROADWAY, EVERETT, MA, 02149",86873816,"L"
286687,"756 BROCHARDT BLVD","KNOXVILLE","TN",37934,35.8829307660001,-84.219359517,187,"756 BROCHARDT BLVD, KNOXVILLE, TN, 37934","Match","Exact","756 BROCHARDT BLVD, KNOXVILLE, TN, 37934",645248453,"R"
286688,"756 CONNER DRIVE","MISHAWAKA","IN",46544,41.647163812,-86.1700696139999,188,"756 CONNER DRIVE, MISHAWAKA, IN, 46544","Match","Exact","756 CONNER DR, MISHAWAKA, IN, 46544",8072460,"L"
286689,"756 DON MAR DR","LANCASTER","KY",40444,37.775676364,-84.698041141,189,"756 DON MAR DR, LANCASTER, KY, 40444","Match","Non_Exact","756 DONMAR DR, LANCASTER, KY, 40444",32535987,"R"
286690,"756 E HAVERFORD ROAD","BRYN MAWR","PA",19010,NA,NA,190,"756 E HAVERFORD ROAD, BRYN MAWR, PA, 19010","Tie",NA,NA,NA,NA
286691,"756 GRAPE AVE","SUNNYVALE","CA",94087,37.369961721,-122.0541343,191,"756 GRAPE AVE, SUNNYVALE, CA, 94087","Match","Exact","756 GRAPE AVE, SUNNYVALE, CA, 94087",122936884,"L"
286692,"756 HIDDEN VALLEY DR","WADSWORTH","OH",44281,41.0298604550001,-81.752792998,192,"756 HIDDEN VALLEY DR, WADSWORTH, OH, 44281","Match","Exact","756 HIDDEN VALLEY DR, WADSWORTH, OH, 44281",58690264,"R"
286693,"756 JOHNSON LN","CHINO VALLEY","AZ",86323,34.7345581060001,-112.474479533,193,"756 JOHNSON LN, CHINO VALLEY, AZ, 86323","Match","Exact","756 JOHNSON LN, CHINO VALLEY, AZ, 86323",650736016,"R"
286694,"756 N FALLLING WATERS DR","DEMOREST","GA",30535,34.5669590090001,-83.6005521659999,194,"756 N FALLLING WATERS DR, DEMOREST, GA, 30535","Match","Non_Exact","756 FALLING WATER DR, DEMOREST, GA, 30535",624803210,"R"
286695,"756 NORTH LIMESTONE AVE","LEXINGTON","KY",40508,38.0564100650001,-84.482794989,195,"756 NORTH LIMESTONE AVE, LEXINGTON, KY, 40508","Match","Non_Exact","756 N LIMESTONE ST, LEXINGTON, KY, 40508",31922032,"R"
286696,"756 NW 103 STREET","MIAMI","FL",33150,25.869189883,-80.211052933,196,"756 NW 103 STREET, MIAMI, FL, 33150","Match","Exact","756 NW 103RD ST, MIAMI, FL, 33150",116003028,"L"
286697,"756 NW 59TH STREET","MIAMI","FL",33127,25.829699519,-80.2090480259999,197,"756 NW 59TH STREET, MIAMI, FL, 33127","Match","Exact","756 NW 59TH ST, MIAMI, FL, 33127",116005529,"L"
286698,"756 PIPESTONE STREET APT 5","BENTON HARBOR","MI",49022,42.1038538510001,-86.442774446,198,"756 PIPESTONE STREET APT 5, BENTON HARBOR, MI, 49022","Match","Exact","756 PIPESTONE ST, BENTON HARBOR, MI, 49022",119997724,"R"
286699,"756 QUEEN ANNE RD","TEANECK","NJ",7666,40.885564082,-74.0154499929999,199,"756 QUEEN ANNE RD, TEANECK, NJ, 7666","Match","Exact","756 QUEEN ANNE RD, TEANECK, NJ, 07666",64389079,"L"
286700,"756 RIVERSIDE AVENUE","MANCOS","CO",81328,37.343927868,-108.299447773,200,"756 RIVERSIDE AVENUE, MANCOS, CO, 81328","Match","Exact","756 RIVERSIDE AVE, MANCOS, CO, 81328",645592129,"R"
286701,"756 ROBINHOOD TR","GAINESVILLE","GA",30501,34.3169750280001,-83.810758762,201,"756 ROBINHOOD TR, GAINESVILLE, GA, 30501","Match","Exact","756 ROBINHOOD TRL, GAINESVILLE, GA, 30501",98279523,"R"
286702,"756 RODGERS ROAD","SENECA","SC",29678,34.5439895580001,-82.951796047,202,"756 RODGERS ROAD, SENECA, SC, 29678","Match","Exact","756 RODGERS RD, SENECA, SC, 29678",636640062,"L"
286703,"756 SAINT ANNS AVENUE 5B","BRONX","NY",10451,40.8201428630001,-73.910269359,203,"756 SAINT ANNS AVENUE 5B, BRONX, NY, 10451","Match","Non_Exact","756 SAINT ANNS AVE, BRONX, NY, 10456",647592644,"R"
286704,"756 SANDALWOOD ROAD","CANTON","MI",48188,42.3011734890001,-83.502220742,204,"756 SANDALWOOD ROAD, CANTON, MI, 48188","Match","Exact","756 SANDALWOOD RD, CANTON, MI, 48188",95688403,"L"
286705,"756 SCOTCH PLAINS AVENUE","WESTFIELD","NJ",7090,40.635767339,-74.347721344,205,"756 SCOTCH PLAINS AVENUE, WESTFIELD, NJ, 7090","Match","Exact","756 SCOTCH PLAINS AVE, WESTFIELD, NJ, 07090",60568428,"R"
286706,"756 SOUTH JADE LANE","ROUND LAKE","IL",60073,42.3364052840001,-88.121320324,206,"756 SOUTH JADE LANE, ROUND LAKE, IL, 60073","Match","Exact","756 S JADE LN, ROUND LAKE, IL, 60073",600769335,"L"
286707,"756 STILLWATER ROAD","MAHTOMEDI","MN",55115,45.0571103820001,-92.951638987,207,"756 STILLWATER ROAD, MAHTOMEDI, MN, 55115","Match","Exact","756 STILLWATER RD, MAHTOMEDI, MN, 55115",646406829,"L"
286708,"756 STIRLING DRIVE","ORANGE","NJ",7050,NA,NA,208,"756 STIRLING DRIVE, ORANGE, NJ, 7050","Tie",NA,NA,NA,NA
286709,"756 SYNDICATE STREET SOUTH","SAINT PAUL","MN",55116,NA,NA,209,"756 SYNDICATE STREET SOUTH, SAINT PAUL, MN, 55116","No_Match",NA,NA,NA,NA
286710,"756 TRIPLETT BLVD","AKRON","OH",44306,41.0413820320001,-81.499174555,210,"756 TRIPLETT BLVD, AKRON, OH, 44306","Match","Exact","756 TRIPLETT BLVD, AKRON, OH, 44306",61353649,"R"
286711,"756 WORTHINGTON MILL ROAD","NEWTOWN","NJ",18940,NA,NA,211,"756 WORTHINGTON MILL ROAD, NEWTOWN, NJ, 18940","No_Match",NA,NA,NA,NA
286712,"7560 COUNTRY LANE","CHAGRIN FALLS","OH",44023,41.4014475180001,-81.372020912,212,"7560 COUNTRY LANE, CHAGRIN FALLS, OH, 44023","Match","Exact","7560 COUNTRY LN, CHAGRIN FALLS, OH, 44023",137433624,"L"
286713,"7560 EASTON VALLEY LANE","CUMMING","GA",30028,NA,NA,213,"7560 EASTON VALLEY LANE, CUMMING, GA, 30028","No_Match",NA,NA,NA,NA
286714,"7560 FOREST ROAD","CINCINNATI","OH",45255,39.070219579,-84.349746389,214,"7560 FOREST ROAD, CINCINNATI, OH, 45255","Match","Exact","7560 FOREST RD, CINCINNATI, OH, 45255",103957801,"L"
286715,"7560 GOLDEN SANDS DRIVE","CUMMING","GA",30041,34.2115828250001,-84.050147808,215,"7560 GOLDEN SANDS DRIVE, CUMMING, GA, 30041","Match","Exact","7560 GOLDEN SANDS DR, CUMMING, GA, 30041",627674761,"R"
286716,"7560 GREENVILLE AVENUE","DALLAS","TX",75231,NA,NA,216,"7560 GREENVILLE AVENUE, DALLAS, TX, 75231","No_Match",NA,NA,NA,NA
286717,"7560 NW 10TH","SCAMMON","KS",66773,NA,NA,217,"7560 NW 10TH, SCAMMON, KS, 66773","No_Match",NA,NA,NA,NA
286718,"7560 OAK AVE","RIVER FOREST","IL",60305,41.892012402,-87.813387329,218,"7560 OAK AVE, RIVER FOREST, IL, 60305","Match","Exact","7560 OAK AVE, RIVER FOREST, IL, 60305",111749525,"R"
286719,"7560 OAK AVENUE","RIVER FOREST","IL",60305,41.892012402,-87.813387329,219,"7560 OAK AVENUE, RIVER FOREST, IL, 60305","Match","Exact","7560 OAK AVE, RIVER FOREST, IL, 60305",111749525,"R"
286720,"7560 OLD TRAILS ROAD","INDIANAPOLIS","IN",46219,39.7712532990001,-86.033538587,220,"7560 OLD TRAILS ROAD, INDIANAPOLIS, IN, 46219","Match","Exact","7560 OLD TRAILS RD, INDIANAPOLIS, IN, 46219",108003762,"L"
286721,"7560 RIMROCK DRIVE","GILLETTE","WY",82718,44.226100493,-105.462143741,221,"7560 RIMROCK DRIVE, GILLETTE, WY, 82718","Match","Exact","7560 RIMROCK DR, GILLETTE, WY, 82718",631897370,"R"
286722,"7560 S HOOVER RD","HAYSVILLE","KS",67060,37.5557371530001,-97.4068832789999,222,"7560 S HOOVER RD, HAYSVILLE, KS, 67060","Match","Exact","7560 S HOOVER RD, HAYSVILLE, KS, 67060",115695786,"L"
286723,"7560 STAGE RD","BUENA PARK","CA",90621,33.8831649150001,-118.002579111,223,"7560 STAGE RD, BUENA PARK, CA, 90621","Match","Exact","7560 STAGE RD, BUENA PARK, CA, 90621",144000651,"R"
286724,"7560 TAYLOR RD UNIT 14","RIVERDALE","GA",30274,33.5486421100001,-84.402503886,224,"7560 TAYLOR RD UNIT 14, RIVERDALE, GA, 30274","Match","Exact","7560 TAYLOR RD, RIVERDALE, GA, 30274",23313222,"L"
286725,"7561 BLACKBIRD STREET","TAMPA","FL",33621,NA,NA,225,"7561 BLACKBIRD STREET, TAMPA, FL, 33621","No_Match",NA,NA,NA,NA
286726,"7561 E RAINBOW DR","COLUMBIA","MO",65201,38.951334767,-92.223064662,226,"7561 E RAINBOW DR, COLUMBIA, MO, 65201","Match","Exact","7561 E RAINBOW DR, COLUMBIA, MO, 65201",23487465,"L"
286727,"7561 KLUSMAN AVE","RANCHO CUCAMONGA","CA",91730,34.1164016320001,-117.595480061,227,"7561 KLUSMAN AVE, RANCHO CUCAMONGA, CA, 91730","Match","Exact","7561 KLUSMAN AVE, RANCHO CUCAMONGA, CA, 91730",144635455,"L"
286728,"7561 NAPOLEON ROAD","JACKSON","MI",49201,42.2041784210001,-84.2783301549999,228,"7561 NAPOLEON ROAD, JACKSON, MI, 49201","Match","Exact","7561 NAPOLEON RD, JACKSON, MI, 49201",648157927,"L"
286729,"7561 NW 14TH ST","PLANTATION","FL",33313,26.142912289,-80.249630471,229,"7561 NW 14TH ST, PLANTATION, FL, 33313","Match","Exact","7561 NW 14TH ST, PLANTATION, FL, 33313",114704273,"R"
286730,"7561 PETAL PLACE","ATLANTA","GA",30213,33.649024426,-84.63531094,230,"7561 PETAL PLACE, ATLANTA, GA, 30213","Match","Non_Exact","7561 PETAL PL, FAIRBURN, GA, 30213",625655263,"R"
286731,"7562 HYATTS LN","MAINEVILLE","OH",45039,39.3241263670001,-84.214439543,231,"7562 HYATTS LN, MAINEVILLE, OH, 45039","Match","Exact","7562 HYATTS LN, MAINEVILLE, OH, 45039",159044608,"L"
286732,"7563 DR HODGE RD","BASKETT","KY",42402,NA,NA,232,"7563 DR HODGE RD, BASKETT, KY, 42402","No_Match",NA,NA,NA,NA
286733,"7563 PALOS VERDES DRIVE","GOLETA","CA",93117,34.4238318810001,-119.892218551,233,"7563 PALOS VERDES DRIVE, GOLETA, CA, 93117","Match","Exact","7563 PALOS VERDES DR, GOLETA, CA, 93117",108600420,"L"
286734,"7563 QUAIL WOOD DRIVE","CHARLOTTE","NC",28226,35.11806549,-80.822569379,234,"7563 QUAIL WOOD DRIVE, CHARLOTTE, NC, 28226","Match","Exact","7563 QUAIL WOOD DR, CHARLOTTE, NC, 28226",70538231,"R"
286735,"75630 UNIT B LONDON ROAD","COTTAGE GROVE","OR",97424,NA,NA,235,"75630 UNIT B LONDON ROAD, COTTAGE GROVE, OR, 97424","No_Match",NA,NA,NA,NA
286736,"7564 ALLON ABRAHAM ST","LAS VEGAS","NV",89139,36.052703224,-115.20829564,236,"7564 ALLON ABRAHAM ST, LAS VEGAS, NV, 89139","Match","Non_Exact","7564 S ALLON ABRAHAM ST, LAS VEGAS, NV, 89139",624793237,"R"
286737,"7564 HAW MEADOWS DR","KERNERSVILLE","NC",27284,36.2032573860001,-79.9980805759999,237,"7564 HAW MEADOWS DR, KERNERSVILLE, NC, 27284","Match","Exact","7564 HAW MEADOWS DR, KERNERSVILLE, NC, 27284",647283996,"R"
286738,"7565 ALLSPICE CIRCLE N","JACKSONVILLE","FL",32244,30.2071411950001,-81.769833552,238,"7565 ALLSPICE CIRCLE N, JACKSONVILLE, FL, 32244","Match","Exact","7565 ALLSPICE CIR N, JACKSONVILLE, FL, 32244",83939840,"R"
286739,"7565 CONNELLY ROAD","BERGEN","NY",14416,43.0482419840001,-77.982735841,239,"7565 CONNELLY ROAD, BERGEN, NY, 14416","Match","Exact","7565 CONNELLY RD, BERGEN, NY, 14416",48146994,"R"
286740,"7565 NW 15TH STREET","PLANTATION","FL",33313,26.143687206,-80.2497038339999,240,"7565 NW 15TH STREET, PLANTATION, FL, 33313","Match","Exact","7565 NW 15TH ST, PLANTATION, FL, 33313",114704271,"R"
286741,"7565 PALM ROAD","WEST PALM BEACH","FL",33406,NA,NA,241,"7565 PALM ROAD, WEST PALM BEACH, FL, 33406","No_Match",NA,NA,NA,NA
286742,"7566 BUFORD DR","DALLAS","TX",75241,32.6564310090001,-96.8127666829999,242,"7566 BUFORD DR, DALLAS, TX, 75241","Match","Exact","7566 BUFORD DR, DALLAS, TX, 75241",619138315,"L"
286743,"7566 DELFINA","SAN DIEGO","CA",92127,32.985871209,-117.163653016,243,"7566 DELFINA, SAN DIEGO, CA, 92127","Match","Exact","7566 DELFINA, SAN DIEGO, CA, 92127",612865203,"L"
286744,"7566 LINCOLN LAKE AVE NW","BELDING","MI",48809,NA,NA,244,"7566 LINCOLN LAKE AVE NW, BELDING, MI, 48809","No_Match",NA,NA,NA,NA
286745,"7566 MAIN ST STE 101","SYKESVILLE","MD",21784,39.3658191740001,-76.9693419929999,245,"7566 MAIN ST STE 101, SYKESVILLE, MD, 21784","Match","Exact","7566 MAIN ST, SYKESVILLE, MD, 21784",61756009,"R"
286746,"7566 NORTH GANNETT ROAD","SAGAMORE HILLS","OH",44067,41.3160424760001,-81.5623438219999,246,"7566 NORTH GANNETT ROAD, SAGAMORE HILLS, OH, 44067","Match","Exact","7566 N GANNETT RD, SAGAMORE HILLS, OH, 44067",623854026,"L"
286747,"7566 ROYAL TROON DRIVE","ROCKFORD","IL",61107,42.284875737,-88.9696269089999,247,"7566 ROYAL TROON DRIVE, ROCKFORD, IL, 61107","Match","Exact","7566 ROYAL TROON DR, ROCKFORD, IL, 61107",618922078,"L"
286748,"7566 SPANISH BAY DRIVE","LAS VEGAS","NV",89113,36.096328515,-115.256485492,248,"7566 SPANISH BAY DRIVE, LAS VEGAS, NV, 89113","Match","Exact","7566 SPANISH BAY DR, LAS VEGAS, NV, 89113",201861776,"R"
286749,"7567 HIGHWAY 1 SOUTH","DONALDSONVILLE","LA",70346,30.0739570530001,-91.0269129709999,249,"7567 HIGHWAY 1 SOUTH, DONALDSONVILLE, LA, 70346","Match","Non_Exact","7567 HWY 1, DONALDSONVILLE, LA, 70346",635316868,"L"
286750,"7567 N 6TH ST","FRESNO","CA",93720,36.84791956,-119.766904866,250,"7567 N 6TH ST, FRESNO, CA, 93720","Match","Exact","7567 N 6TH ST, FRESNO, CA, 93720",197617529,"L"
286751,"7567 WEST MOUNT VERNON STREET","GLEN ST MARY","FL",32040,30.27571913,-82.165663864,251,"7567 WEST MOUNT VERNON STREET, GLEN ST MARY, FL, 32040","Match","Non_Exact","7567 MOUNT VERNON ST, GLEN SAINT MARY, FL, 32040",5105595,"L"
286752,"7567 WILLOW LEAF TRAIL","LITHONIA","GA",30058,33.7253024090001,-84.0803864229999,252,"7567 WILLOW LEAF TRAIL, LITHONIA, GA, 30058","Match","Exact","7567 WILLOW LEAF TRL, LITHONIA, GA, 30058",619381098,"R"
286753,"7568 MOUNTAIN BLVD STE 10","OAKLAND","CA",94605,37.7745223800001,-122.159369645,253,"7568 MOUNTAIN BLVD STE 10, OAKLAND, CA, 94605","Match","Exact","7568 MOUNTAIN BLVD, OAKLAND, CA, 94605",125010855,"L"
286754,"7568 STONE CREEK CT","MOBILE","AL",36695,30.6565311950001,-88.2192741969999,254,"7568 STONE CREEK CT, MOBILE, AL, 36695","Match","Exact","7568 STONE CREEK CT, MOBILE, AL, 36695",61955912,"L"
286755,"7568 SUGARWOOD LANE","NORTH SYRACUSE","NY",13212,43.13154351,-76.169848363,255,"7568 SUGARWOOD LANE, NORTH SYRACUSE, NY, 13212","Match","Exact","7568 SUGARWOOD LN, N SYRACUSE, NY, 13212",652649365,"R"
286756,"75684 283RD ST","CLARKS GROVE","MN",56016,43.7638523730001,-93.352054427,256,"75684 283RD ST, CLARKS GROVE, MN, 56016","Match","Exact","75684 283RD ST, CLARKS GROVE, MN, 56016",39547753,"R"
286757,"7569 E INDUSTRIAL DR","BATON ROUGE","LA",70805,30.472725414,-91.114552641,257,"7569 E INDUSTRIAL DR, BATON ROUGE, LA, 70805","Match","Non_Exact","7569 E INDUSTRIAL AVE, BATON ROUGE, LA, 70805",632446086,"L"
286758,"7569 QUIET MEADOW LANE","FRISCO","TX",75033,33.1642825380001,-96.8180258849999,258,"7569 QUIET MEADOW LANE, FRISCO, TX, 75033","Match","Exact","7569 QUIET MEADOW LN, FRISCO, TX, 75033",123563955,"R"
286759,"7569 VANESSA DRIVE","FORT WORTH","TX",76112,32.7530745450001,-97.191591816,259,"7569 VANESSA DRIVE, FORT WORTH, TX, 76112","Match","Exact","7569 VANESSA DR, FORT WORTH, TX, 76112",101901148,"L"
286760,"7569-B FARADAY PLACE","FAYETTEVILLE","NC",28303,35.0955506710001,-79.018800485,260,"7569-B FARADAY PLACE, FAYETTEVILLE, NC, 28303","Match","Exact","7569 FARADAY PL, FAYETTEVILLE, NC, 28303",64250466,"L"
286761,"757 39TH AVENUE","SAN FRANCISCO","CA",94121,37.774574301,-122.499383235,261,"757 39TH AVENUE, SAN FRANCISCO, CA, 94121","Match","Exact","757 39TH AVE, SAN FRANCISCO, CA, 94121",192276775,"R"
286762,"757 ARTHUR GODFREY ROAD","MIAMI BEACH","FL",33140,25.813881096,-80.1323032079999,262,"757 ARTHUR GODFREY ROAD, MIAMI BEACH, FL, 33140","Match","Exact","757 ARTHUR GODFREY RD, MIAMI BEACH, FL, 33140",116008956,"R"
286763,"757 BAIRD AVENUE","SANTA CLARA","CA",95054,37.3904502140001,-121.948677871,263,"757 BAIRD AVENUE, SANTA CLARA, CA, 95054","Match","Exact","757 BAIRD AVE, SANTA CLARA, CA, 95054",122959341,"R"
286764,"757 CHERRY BARK LANE","BALTIMORE","MD",21225,39.2055253120001,-76.632893402,264,"757 CHERRY BARK LANE, BALTIMORE, MD, 21225","Match","Exact","757 CHERRY BARK LN, BALTIMORE, MD, 21225",642789011,"L"
286765,"757 E 20TH AVE STE 370 NO 442","DENVER","CO",80205,NA,NA,265,"757 E 20TH AVE STE 370 NO 442, DENVER, CO, 80205","Tie",NA,NA,NA,NA
286766,"757 E 20TH AVE STE 370-335","DENVER","CO",80205,NA,NA,266,"757 E 20TH AVE STE 370-335, DENVER, CO, 80205","Tie",NA,NA,NA,NA
286767,"757 E MAIN STREET W-207","LANSDALE","PA",19446,NA,NA,267,"757 E MAIN STREET W-207, LANSDALE, PA, 19446","No_Match",NA,NA,NA,NA
286768,"757 EAST STATE STREET","OLEAN","NY",14760,42.076319932,-78.4150972209999,268,"757 EAST STATE STREET, OLEAN, NY, 14760","Match","Exact","757 E STATE ST, OLEAN, NY, 14760",649992812,"R"
286769,"757 ELM STREET","SAN CARLOS","CA",94070,37.5030085660001,-122.260506011,269,"757 ELM STREET, SAN CARLOS, CA, 94070","Match","Exact","757 ELM ST, SAN CARLOS, CA, 94070",192385090,"L"
286770,"757 EMORY ST  NUMBER 340","IMPERIAL BEACH","CA",90932,32.582942777,-117.113052792,270,"757 EMORY ST  NUMBER 340, IMPERIAL BEACH, CA, 90932","Match","Non_Exact","757 EMORY ST, IMPERIAL BEACH, CA, 91932",612889606,"L"
286771,"757 EMORY ST","IMPERIAL BEACH","CA",91932,32.582942777,-117.113052792,271,"757 EMORY ST, IMPERIAL BEACH, CA, 91932","Match","Exact","757 EMORY ST, IMPERIAL BEACH, CA, 91932",612889606,"L"
286772,"757 EMORY STREET BOX 339","IMPERIAL BEACH","CA",91932,32.582942777,-117.113052792,272,"757 EMORY STREET BOX 339, IMPERIAL BEACH, CA, 91932","Match","Exact","757 EMORY ST, IMPERIAL BEACH, CA, 91932",612889606,"L"
286773,"757 FREDERICK RD SUITE 203","CATONSVILLE","MD",21228,39.2715554420001,-76.7337779809999,273,"757 FREDERICK RD SUITE 203, CATONSVILLE, MD, 21228","Match","Exact","757 FREDERICK RD, CATONSVILLE, MD, 21228",639435137,"L"
286774,"757 FREDERICK ROAD","CATONSVILLE","MD",21228,39.2715554420001,-76.7337779809999,274,"757 FREDERICK ROAD, CATONSVILLE, MD, 21228","Match","Exact","757 FREDERICK RD, CATONSVILLE, MD, 21228",639435137,"L"
286775,"757 FRIDAY ROAD","COCOA","FL",32926,NA,NA,275,"757 FRIDAY ROAD, COCOA, FL, 32926","No_Match",NA,NA,NA,NA
286776,"757 GRAND AVE 7","SPRING VALLY","CA",91977,32.7107952430001,-116.997433703,276,"757 GRAND AVE 7, SPRING VALLY, CA, 91977","Match","Exact","757 GRAND AVE, SPRING VALLEY, CA, 91977",195361993,"R"
286777,"757 HAWTHORNE RD","BETHLEHEM","PA",18018,40.624881165,-75.3649055129999,277,"757 HAWTHORNE RD, BETHLEHEM, PA, 18018","Match","Exact","757 HAWTHORNE RD, BETHLEHEM, PA, 18018",136910362,"L"
286778,"757 HICKORY HILL ROAD","WYCKOFF","NJ",7481,40.978447669,-74.179276836,278,"757 HICKORY HILL ROAD, WYCKOFF, NJ, 7481","Match","Exact","757 HICKORY HILL RD, WYCKOFF, NJ, 07481",64404359,"R"
286779,"757 KATYDID CT","MARTINEZ","CA",94553,38.002015955,-122.079635885,279,"757 KATYDID CT, MARTINEZ, CA, 94553","Match","Exact","757 KATYDID CT, MARTINEZ, CA, 94553",648274396,"R"
286780,"757 KIMBERLIN HEIGHTS ROAD","KNOXVILLE","TN",37920,35.922244629,-83.814627065,280,"757 KIMBERLIN HEIGHTS ROAD, KNOXVILLE, TN, 37920","Match","Exact","757 KIMBERLIN HEIGHTS RD, KNOXVILLE, TN, 37920",604625436,"L"
286781,"757 LOOKOUT POINT","MOUNT PLEASANT","SC",29464,32.8360622980001,-79.8463424299999,281,"757 LOOKOUT POINT, MOUNT PLEASANT, SC, 29464","Match","Exact","757 LOOKOUT PT, MOUNT PLEASANT, SC, 29464",108826246,"L"
286782,"757 MAIN STREET","HUBBARD","OH",44425,NA,NA,282,"757 MAIN STREET, HUBBARD, OH, 44425","Tie",NA,NA,NA,NA
286783,"757 MAYFAIR AVE","YUBA CITY","CA",95991,39.1199111230001,-121.621089584,283,"757 MAYFAIR AVE, YUBA CITY, CA, 95991","Match","Exact","757 MAYFAIR AVE, YUBA CITY, CA, 95991",68568893,"R"
286784,"757 MEAD CEMETARY RD","MEAD","OK",73449,33.9869155160001,-96.517917363,284,"757 MEAD CEMETARY RD, MEAD, OK, 73449","Match","Non_Exact","757 MEAD CEMETERY RD, MEAD, OK, 73449",62509397,"R"
286785,"757 N PARK BLVD","GLEN ELLYN","IL",60137,41.887312272,-88.0616093259999,285,"757 N PARK BLVD, GLEN ELLYN, IL, 60137","Match","Exact","757 N PARK BLVD, GLEN ELLYN, IL, 60137",112523090,"R"
286786,"757 NORTH 800 EAST","GREENFIELD","IN",46140,39.797646485,-85.65436528,286,"757 NORTH 800 EAST, GREENFIELD, IN, 46140","Match","Exact","757 N 800 E, GREENFIELD, IN, 46140",31083291,"R"
286787,"757 OLD WENDELL RD","NORTHFIELD","MA",1360,42.6755829680001,-72.441006635,287,"757 OLD WENDELL RD, NORTHFIELD, MA, 1360","Match","Exact","757 OLD WENDELL RD, NORTHFIELD, MA, 01360",39941080,"R"
286788,"757 PUU KALA STREET","PEARL CITY","HI",96782,21.393015448,-157.966026592,288,"757 PUU KALA STREET, PEARL CITY, HI, 96782","Match","Exact","757 PUU KALA ST, PEARL CITY, HI, 96782",203229436,"L"
286789,"757 RANDOLPH AVE","ST. PAUL","MN",55102,44.926871132,-93.131728765,289,"757 RANDOLPH AVE, ST. PAUL, MN, 55102","Match","Exact","757 RANDOLPH AVE, SAINT PAUL, MN, 55102",97647239,"R"
286790,"757 RIDGEWAY AVENUE UNIT 803","CINCINNATI","OH",45229,39.138893667,-84.4928879509999,290,"757 RIDGEWAY AVENUE UNIT 803, CINCINNATI, OH, 45229","Match","Exact","757 RIDGEWAY AVE, CINCINNATI, OH, 45229",103925802,"R"
286791,"757 S IRON SPRINGS AVE","KUNA","ID",83634,43.482032336,-116.438080051,291,"757 S IRON SPRINGS AVE, KUNA, ID, 83634","Match","Exact","757 S IRON SPRINGS AVE, KUNA, ID, 83634",619877582,"R"
286792,"757 SE 17TH STREET SUITE 131","FORT LAUDERDALE","FL",33316,26.100379624,-80.1354061659999,292,"757 SE 17TH STREET SUITE 131, FORT LAUDERDALE, FL, 33316","Match","Non_Exact","757 SE 17TH ST, FORT LAUDERDALE, FL, 33316",114728260,"L"
286793,"757 SOUTH STREET","MIDDLEBURY","CT",6762,41.5097266390001,-73.117407515,293,"757 SOUTH STREET, MIDDLEBURY, CT, 6762","Match","Exact","757 SOUTH ST, MIDDLEBURY, CT, 06762",3726386,"R"
286794,"757 THIRD AVE SUITE 2128","NEW YORK","NY",10017,40.753991387,-73.9720895259999,294,"757 THIRD AVE SUITE 2128, NEW YORK, NY, 10017","Match","Exact","757 3RD AVE, NEW YORK, NY, 10017",59658704,"R"
286795,"757 VESTAL STREET","WOODBRIDGE","VA",22191,38.6544398720001,-77.238534779,295,"757 VESTAL STREET, WOODBRIDGE, VA, 22191","Match","Exact","757 VESTAL ST, WOODBRIDGE, VA, 22191",619953274,"R"
286796,"757 W 14TH STREET","CHICAGO","IL",60607,41.8635650090001,-87.646401821,296,"757 W 14TH STREET, CHICAGO, IL, 60607","Match","Exact","757 W 14TH ST, CHICAGO, IL, 60607",635231975,"L"
286797,"757 W ALBION RD","ALBION","IN",46701,41.4005063870001,-85.4365322099999,297,"757 W ALBION RD, ALBION, IN, 46701","Match","Exact","757 W ALBION RD, ALBION, IN, 46701",6589313,"L"
286798,"757 WARREN RD 3994","ITHACA","NY",14850,42.4950102620001,-76.468460807,298,"757 WARREN RD 3994, ITHACA, NY, 14850","Match","Exact","757 WARREN RD, ITHACA, NY, 14850",18883300,"L"
286799,"757 WEST DRIVE","MEMPHIS","TN",38112,35.156452679,-89.984888545,299,"757 WEST DRIVE, MEMPHIS, TN, 38112","Match","Exact","757 WEST DR, MEMPHIS, TN, 38112",72912241,"L"
286800,"7570 E SPEEDWAY BLVD UNIT 549","TUCSON","AZ",85710,32.235562632,-110.83182651,300,"7570 E SPEEDWAY BLVD UNIT 549, TUCSON, AZ, 85710","Match","Non_Exact","7570 E SPEEDWAY BLVD, TUCSON, AZ, 85710",606806728,"R"
286801,"7570 HUNTING LAKE DRIVE","CONCORD","OH",44077,41.664488082,-81.2268175299999,301,"7570 HUNTING LAKE DRIVE, CONCORD, OH, 44077","Match","Non_Exact","7570 HUNTING LAKE DR, CONCORD TWP, OH, 44077",137475892,"R"
286802,"7570 INDIGO ST","MIRAMAR","FL",33023,25.982528658,-80.234521319,302,"7570 INDIGO ST, MIRAMAR, FL, 33023","Match","Exact","7570 INDIGO ST, MIRAMAR, FL, 33023",114734147,"L"
286803,"7570 INDIGO STREET","MIRAMAR","FL",33023,25.982528658,-80.234521319,303,"7570 INDIGO STREET, MIRAMAR, FL, 33023","Match","Exact","7570 INDIGO ST, MIRAMAR, FL, 33023",114734147,"L"
286804,"7570 NORMAN ROCKWELL LANE SUITE 140","LAS VEGAS","NV",89143,36.2987161890001,-115.280080139,304,"7570 NORMAN ROCKWELL LANE SUITE 140, LAS VEGAS, NV, 89143","Match","Exact","7570 NORMAN ROCKWELL LN, LAS VEGAS, NV, 89143",641494286,"R"
286805,"7570 SKILLMAN STREET  APT 216","DALLAS","TX",75231,32.88550974,-96.733500023,305,"7570 SKILLMAN STREET  APT 216, DALLAS, TX, 75231","Match","Exact","7570 SKILLMAN ST, DALLAS, TX, 75231",648670328,"R"
286806,"7570 SW 2ND STREET","OCALA","FL",34474,29.1850282090001,-82.244738291,306,"7570 SW 2ND STREET, OCALA, FL, 34474","Match","Non_Exact","7570 SW 2ND ST, OCALA, FL, 34474",116804389,"R"
286807,"7570 TYLERS VALLEY DRIVE","WEST CHESTER","OH",45069,39.3666522680001,-84.4680501139999,307,"7570 TYLERS VALLEY DRIVE, WEST CHESTER, OH, 45069","Match","Exact","7570 TYLERS VALLEY DR, WEST CHESTER, OH, 45069",604773216,"R"
286808,"7570 WOOD MIST LANE","FALLS CHURCH","VA",22043,38.8802919280001,-77.206361592,308,"7570 WOOD MIST LANE, FALLS CHURCH, VA, 22043","Match","Exact","7570 WOOD MIST LN, FALLS CHURCH, VA, 22043",215919984,"R"
286809,"75700 NORTH AVE","ARMADA","MI",48005,42.8552443510001,-82.885031348,309,"75700 NORTH AVE, ARMADA, MI, 48005","Match","Exact","75700 NORTH AVE, ARMADA, MI, 48005",110661703,"L"
286810,"7571 20TH ST N","ST PETE","FL",33702,27.8410558030001,-82.661861511,310,"7571 20TH ST N, ST PETE, FL, 33702","Match","Exact","7571 20TH ST N, SAINT PETERSBURG, FL, 33702",124702826,"R"
286811,"7571 CROOKED STICK DR","DIAMONDHEAD","MS",39525,30.391731613,-89.369551374,311,"7571 CROOKED STICK DR, DIAMONDHEAD, MS, 39525","Match","Exact","7571 CROOKED STICK DR, DIAMONDHEAD, MS, 39525",111139880,"L"
286812,"75715 FAIRVIEW RD","ANITA","IA",50020,41.4340081290001,-94.7485855479999,312,"75715 FAIRVIEW RD, ANITA, IA, 50020","Match","Exact","75715 FAIRVIEW RD, ANITA, IA, 50020",61594721,"L"
286813,"7572 11TH ST 4","BUENA PARK","CA",90621,33.8627901130001,-118.001081656,313,"7572 11TH ST 4, BUENA PARK, CA, 90621","Match","Exact","7572 11TH ST, BUENA PARK, CA, 90621",609052112,"R"
286814,"7572 MONTIEN ROAD","SAN DIEGO","CA",92127,33.002805874,-117.166211699,314,"7572 MONTIEN ROAD, SAN DIEGO, CA, 92127","Match","Non_Exact","7572 MONTIEN, SAN DIEGO, CA, 92127",612896730,"L"
286815,"7572 OAKWOOD LANE","HIGHLAND","CA",92346,34.1155776260001,-117.173183724,315,"7572 OAKWOOD LANE, HIGHLAND, CA, 92346","Match","Exact","7572 OAKWOOD LN, HIGHLAND, CA, 92346",638617234,"R"
286816,"7572 OLD THYME COURT UNIT 9A","PARKLAND","FL",33076,26.325211462,-80.253927661,316,"7572 OLD THYME COURT UNIT 9A, PARKLAND, FL, 33076","Match","Non_Exact","7572 OLD THYME CT, PARKLAND, FL, 33076",641073585,"R"
286817,"7572 THORN TREE","CORDOVA","TN",38016,35.161108723,-89.81062323,317,"7572 THORN TREE, CORDOVA, TN, 38016","Match","Non_Exact","7572 THORN TREE LN, CORDOVA, TN, 38016",72954453,"R"
286818,"7573 46TH AVE N","ST PETERSBURG","FL",33709,27.813698823,-82.7440882189999,318,"7573 46TH AVE N, ST PETERSBURG, FL, 33709","Match","Exact","7573 46TH AVE N, SAINT PETERSBURG, FL, 33709",124693208,"R"
286819,"7573 HOLLANDERRY PLACE","CUPERTINO","CA",95014,37.3041559600001,-122.038475308,319,"7573 HOLLANDERRY PLACE, CUPERTINO, CA, 95014","Match","Exact","7573 HOLLANDERRY PL, CUPERTINO, CA, 95014",122940095,"R"
286820,"7573 OGDEN WOODS BLVD","NEW ALBANY","OH",43054,40.0778365780001,-82.819442886,320,"7573 OGDEN WOODS BLVD, NEW ALBANY, OH, 43054","Match","Exact","7573 OGDEN WOODS BLVD, NEW ALBANY, OH, 43054",135746023,"R"
286821,"7575 CAMBRIDGE ST 2002","HOUSTON","TX",77054,29.6939669760001,-95.392134035,321,"7575 CAMBRIDGE ST 2002, HOUSTON, TX, 77054","Match","Exact","7575 CAMBRIDGE ST, HOUSTON, TX, 77054",624592559,"R"
286822,"7575 EAST REDFIELD ROAD SUITE 235","SCOTTSDALE","AZ",85260,33.6139619420001,-111.91737685,322,"7575 EAST REDFIELD ROAD SUITE 235, SCOTTSDALE, AZ, 85260","Match","Exact","7575 E REDFIELD RD, SCOTTSDALE, AZ, 85260",128189330,"R"
286823,"7575 IRON MOUTNAIN BLVD","SILVER SPRINGS","NV",89429,NA,NA,323,"7575 IRON MOUTNAIN BLVD, SILVER SPRINGS, NV, 89429","No_Match",NA,NA,NA,NA
286824,"7575 JEFFERSON HWY BIN 38","BATON ROUGE","LA",70806,30.4313834720001,-91.1096154099999,324,"7575 JEFFERSON HWY BIN 38, BATON ROUGE, LA, 70806","Match","Exact","7575 JEFFERSON HWY, BATON ROUGE, LA, 70806",92189479,"L"
286825,"7575 RICHMOND ROAD","WILLIAMSBURG","VA",23188,37.3734825760001,-76.7798432389999,325,"7575 RICHMOND ROAD, WILLIAMSBURG, VA, 23188","Match","Exact","7575 RICHMOND RD, WILLIAMSBURG, VA, 23188",103783554,"R"
286826,"7575 STATE ROUTE 521","SUNBURY","OH",43074,40.326909383,-82.9201014509999,326,"7575 STATE ROUTE 521, SUNBURY, OH, 43074","Match","Exact","7575 STATE RTE 521, SUNBURY, OH, 43074",24587107,"L"
286827,"7575 W WASHINGTON STE 127-137","LAS VEGAS","NV",89128,36.1813643400001,-115.25863235,327,"7575 W WASHINGTON STE 127-137, LAS VEGAS, NV, 89128","Match","Non_Exact","7575 WASHINGTON AVE, LAS VEGAS, NV, 89128",648255662,"R"
286828,"7576 KINGSPOINTE PKWY STE 100","ORLANDO","FL",32819,28.457784256,-81.4407050299999,328,"7576 KINGSPOINTE PKWY STE 100, ORLANDO, FL, 32819","Match","Exact","7576 KINGSPOINTE PKWY, ORLANDO, FL, 32819",640914250,"R"
286829,"7576 TREXLER CIRCLE","TREXLERTOWN","PA",18087,40.5508259110001,-75.6054130049999,329,"7576 TREXLER CIRCLE, TREXLERTOWN, PA, 18087","Match","Exact","7576 TREXLER CIR, TREXLERTOWN, PA, 18087",80797502,"R"
286830,"7577 ADCOCK ROAD","WESTERVILLE","OH",43082,40.155777701,-82.896623737,330,"7577 ADCOCK ROAD, WESTERVILLE, OH, 43082","Match","Exact","7577 ADCOCK RD, WESTERVILLE, OH, 43082",652486576,"R"
286831,"7577 GREENVILLE CIRCLE","LAKE WORTH","FL",33467,26.582694765,-80.161422608,331,"7577 GREENVILLE CIRCLE, LAKE WORTH, FL, 33467","Match","Exact","7577 GREENVILLE CIR, LAKE WORTH, FL, 33467",644206802,"R"
286832,"7577 HEATHER CIRCLE","KENT","OH",44240,41.1966602100001,-81.3264359679999,332,"7577 HEATHER CIRCLE, KENT, OH, 44240","Match","Exact","7577 HEATHER CIR, KENT, OH, 44240",137525858,"R"
286833,"7577 US HIGHWAY 12","ONSTED","MI",49265,42.0566153840001,-84.13924344,333,"7577 US HIGHWAY 12, ONSTED, MI, 49265","Match","Exact","7577 US HWY 12, ONSTED, MI, 49265",25951806,"R"
286834,"7578 W FIREBIRD DRIVE","GLENDALE","AZ",85308,33.6768371790001,-112.22294224,334,"7578 W FIREBIRD DRIVE, GLENDALE, AZ, 85308","Match","Exact","7578 W FIREBIRD DR, GLENDALE, AZ, 85308",612971659,"L"
286835,"7579 ASPEN PARK ROAD","LORTON","VA",22079,38.7093458640001,-77.203063689,335,"7579 ASPEN PARK ROAD, LORTON, VA, 22079","Match","Non_Exact","7579 ASPENPARK RD, LORTON, VA, 22079",76022306,"R"
286836,"7579 MAIN ST","STRATFORD","CT",6614,41.2569982540001,-73.099277457,336,"7579 MAIN ST, STRATFORD, CT, 6614","Match","Exact","7579 MAIN ST, STRATFORD, CT, 06614",3265682,"L"
286837,"7579 N 200 W","N MANCHESTER","IN",46962,40.9357780670001,-85.832144985,337,"7579 N 200 W, N MANCHESTER, IN, 46962","Match","Exact","7579 N 200 W, N MANCHESTER, IN, 46962",15527083,"R"
286838,"758 ALTURA ST","PORT ST LUCIE","FL",34952,27.328409493,-80.326446877,338,"758 ALTURA ST, PORT ST LUCIE, FL, 34952","Match","Exact","758 ALTURA ST, PORT ST LUCIE, FL, 34952",120153397,"R"
286839,"758 ANN STREET","COLUMBUS","OH",43206,39.9485450120001,-82.980148973,339,"758 ANN STREET, COLUMBUS, OH, 43206","Match","Exact","758 ANN ST, COLUMBUS, OH, 43206",218647036,"L"
286840,"758 B STREET","ASHLAND","OR",97520,42.1962846380001,-122.704236476,340,"758 B STREET, ASHLAND, OR, 97520","Match","Exact","758 B ST, ASHLAND, OR, 97520",155521709,"L"
286841,"758 BACKHUS ESTATE ROAD","GLEN GARDNER","NJ",8826,40.7310731900001,-74.860649139,341,"758 BACKHUS ESTATE ROAD, GLEN GARDNER, NJ, 8826","Match","Exact","758 BACKHUS ESTATE RD, GLEN GARDNER, NJ, 08826",638997233,"L"
286842,"758 BEDFORD OAKS DRIVE","MARIETTA","GA",30068,33.9704531890001,-84.400551037,342,"758 BEDFORD OAKS DRIVE, MARIETTA, GA, 30068","Match","Exact","758 BEDFORD OAKS DR, MARIETTA, GA, 30068",17186874,"R"
286843,"758 CHURCH ROAD","READING","PA",19607,40.2836333990001,-75.961188234,343,"758 CHURCH ROAD, READING, PA, 19607","Match","Exact","758 CHURCH RD, READING, PA, 19607",627069269,"R"
286844,"758 DEGRAW AVENUE","NEWARK","NJ",7104,40.778024014,-74.170931915,344,"758 DEGRAW AVENUE, NEWARK, NJ, 7104","Match","Exact","758 DEGRAW AVE, NEWARK, NJ, 07104",63494796,"L"
286845,"758 E 25TH STREET B-19","CHESTER","PA",19013,39.872488371,-75.357766301,345,"758 E 25TH STREET B-19, CHESTER, PA, 19013","Match","Non_Exact","758 E 25TH ST, CHESTER, PA, 19013",648092101,"L"
286846,"758 GATES CREEK ROAD","BRADNETON","FL",34212,27.511543734,-82.429531458,346,"758 GATES CREEK ROAD, BRADNETON, FL, 34212","Match","Non_Exact","758 GATES CREEK RD, BRADENTON, FL, 34212",16229933,"L"
286847,"758 HERRINGTON DRIVE","GROVETOWN","GA",30813,33.493710831,-82.2147337069999,347,"758 HERRINGTON DRIVE, GROVETOWN, GA, 30813","Match","Exact","758 HERRINGTON DR, GROVETOWN, GA, 30813",627206754,"R"
286848,"758 HOOKAHUA PL","LAHAINA","HI",96761,20.883965103,-156.664653603,348,"758 HOOKAHUA PL, LAHAINA, HI, 96761","Match","Exact","758 HOOKAHUA PL, LAHAINA, HI, 96761",85102740,"L"
286849,"758 MONUMENT DRIVE","MILLBROOK","AL",30254,NA,NA,349,"758 MONUMENT DRIVE, MILLBROOK, AL, 30254","No_Match",NA,NA,NA,NA
286850,"758 N MAVIS ST UNIT 3","ANAHEIM","CA",92805,33.845156547,-117.908522739,350,"758 N MAVIS ST UNIT 3, ANAHEIM, CA, 92805","Match","Non_Exact","758 N MAVIS ST, ANAHEIM, CA, 92805",144025924,"R"
286851,"758 NIANTIC DR","FOSTER CITY","CA",94404,37.56274405,-122.260852487,351,"758 NIANTIC DR, FOSTER CITY, CA, 94404","Match","Exact","758 NIANTIC DR, FOSTER CITY, CA, 94404",192384390,"R"
286852,"758 PEARL BAILEY COURT","WINDSOR","CA",95492,38.553596772,-122.809063287,352,"758 PEARL BAILEY COURT, WINDSOR, CA, 95492","Match","Exact","758 PEARL BAILEY CT, WINDSOR, CA, 95492",67519728,"R"
286853,"758 SCHOOL DRIVE","BALDWIN","NY",11510,40.684476326,-73.612482058,353,"758 SCHOOL DRIVE, BALDWIN, NY, 11510","Match","Exact","758 SCHOOL DR, BALDWIN, NY, 11510",147629098,"R"
286854,"758 SPAFFORD OVAL","SAGAMORE HILLS","OH",44067,41.3129360510001,-81.5645218459999,354,"758 SPAFFORD OVAL, SAGAMORE HILLS, OH, 44067","Match","Exact","758 SPAFFORD OVAL, SAGAMORE HILLS, OH, 44067",639290296,"L"
286855,"758 STILLWATER ROAD","MAHTOMEDI","MN",55115,45.0571112700001,-92.951534131,355,"758 STILLWATER ROAD, MAHTOMEDI, MN, 55115","Match","Exact","758 STILLWATER RD, MAHTOMEDI, MN, 55115",646406829,"L"
286856,"758 WALKER RD","JONESBORO","LA",71251,32.2310425100001,-92.6965731449999,356,"758 WALKER RD, JONESBORO, LA, 71251","Match","Exact","758 WALKER RD, JONESBORO, LA, 71251",635287328,"L"
286857,"758 WOODBINE PLACE","CAPE GIRARDEAU","MO",63701,37.319120856,-89.569593767,357,"758 WOODBINE PLACE, CAPE GIRARDEAU, MO, 63701","Match","Exact","758 WOODBINE PL, CAPE GIRARDEAU, MO, 63701",35182207,"R"
286858,"7580 BUCKINGHAM BLVD SUITE 180","HANOVER","MD",21076,39.151563239,-76.6923581469999,358,"7580 BUCKINGHAM BLVD SUITE 180, HANOVER, MD, 21076","Match","Exact","7580 BUCKINGHAM BLVD, HANOVER, MD, 21076",643026905,"R"
286859,"7580 FILICE DRIVE","GILROY","CA",95020,37.006079754,-121.58242831,359,"7580 FILICE DRIVE, GILROY, CA, 95020","Match","Exact","7580 FILICE DR, GILROY, CA, 95020",123181356,"R"
286860,"7580 INDEPENDENCE RD","MILLINGTON","TN",38053,35.3333175110001,-89.984431,360,"7580 INDEPENDENCE RD, MILLINGTON, TN, 38053","Match","Exact","7580 INDEPENDENCE RD, MILLINGTON, TN, 38053",72897471,"R"
286861,"7580 LAS VEGAS BLVD SOUTH SUITE 115","LAS VEGAS","NV",89123,36.051868943,-115.172320187,361,"7580 LAS VEGAS BLVD SOUTH SUITE 115, LAS VEGAS, NV, 89123","Match","Exact","7580 LAS VEGAS BLVD S, LAS VEGAS, NV, 89123",201870597,"L"
286862,"7580 MANSFIELD HOLLOW ROAD","DELRAY BEACH","FL",33446,26.4693684540001,-80.16462652,362,"7580 MANSFIELD HOLLOW ROAD, DELRAY BEACH, FL, 33446","Match","Exact","7580 MANSFIELD HOLLOW RD, DELRAY BEACH, FL, 33446",115576307,"R"
286863,"7580 N PAWNEE ROAD","PAWNEE","IL",62558,39.6896986240001,-89.591864221,363,"7580 N PAWNEE ROAD, PAWNEE, IL, 62558","Match","Exact","7580 N PAWNEE RD, PAWNEE, IL, 62558",633538488,"L"
286864,"7580 NW 5TH AVE SUITE 17733","PLANTATION","FL",33317,NA,NA,364,"7580 NW 5TH AVE SUITE 17733, PLANTATION, FL, 33317","No_Match",NA,NA,NA,NA
286865,"7580 NW 5TH ST STE 15343","PLANTATION","FL",33318,NA,NA,365,"7580 NW 5TH ST STE 15343, PLANTATION, FL, 33318","No_Match",NA,NA,NA,NA
286866,"7580 NW 5TH ST UNIT 17554","PLANTATION","FL",33317,NA,NA,366,"7580 NW 5TH ST UNIT 17554, PLANTATION, FL, 33317","Tie",NA,NA,NA,NA
286867,"7580 RIDGE DRIVE","GLADSTONE","OR",97027,45.393128677,-122.580201559,367,"7580 RIDGE DRIVE, GLADSTONE, OR, 97027","Match","Exact","7580 RIDGE DR, GLADSTONE, OR, 97027",644675482,"R"
286868,"7580 S LAS VEGAS BLVD STE 115-366","LAS VEGAS","NV",89123,36.0518574860001,-115.172320147,368,"7580 S LAS VEGAS BLVD STE 115-366, LAS VEGAS, NV, 89123","Match","Non_Exact","7580 LAS VEGAS BLVD S, LAS VEGAS, NV, 89123",201870597,"L"
286869,"7580 SANTA BARBARA DRIVE","GILROY","CA",95020,37.006017553,-121.59391765,369,"7580 SANTA BARBARA DRIVE, GILROY, CA, 95020","Match","Exact","7580 SANTA BARBARA DR, GILROY, CA, 95020",122931900,"R"
286870,"7581 PRIMROSE DRIVE","BUENA PARK","CA",90620,33.851780128,-117.986502891,370,"7581 PRIMROSE DRIVE, BUENA PARK, CA, 90620","Match","Exact","7581 PRIMROSE DR, BUENA PARK, CA, 90620",144259667,"R"
286871,"7581 RATTLESNAKE DRIVE","LONETREE","CO",80111,39.5346513150001,-104.901654822,371,"7581 RATTLESNAKE DRIVE, LONETREE, CO, 80111","Match","Non_Exact","7581 RATTLESNAKE DR, LONE TREE, CO, 80124",130820609,"L"
286872,"7581 SHANNON OAK DRIVE","RIVERDALE","GA",30296,33.5485755220001,-84.4336137769999,372,"7581 SHANNON OAK DRIVE, RIVERDALE, GA, 30296","Match","Exact","7581 SHANNON OAK DR, RIVERDALE, GA, 30296",631726134,"R"
286873,"7582 LAS VEGAS BLVD S SUITE 107","LAS VEGAS","NV",89123,36.0518408720001,-115.172320088,373,"7582 LAS VEGAS BLVD S SUITE 107, LAS VEGAS, NV, 89123","Match","Exact","7582 LAS VEGAS BLVD S, LAS VEGAS, NV, 89123",201870597,"L"
286874,"7582 LAS VEGAS BLVD S SUITE 149","LAS VEGAS","NV",89123,36.0518408720001,-115.172320088,374,"7582 LAS VEGAS BLVD S SUITE 149, LAS VEGAS, NV, 89123","Match","Exact","7582 LAS VEGAS BLVD S, LAS VEGAS, NV, 89123",201870597,"L"
286875,"7582 LAS VEGAS BLVD S SUITE 432","LAS VEGAS","NV",89123,36.0518408720001,-115.172320088,375,"7582 LAS VEGAS BLVD S SUITE 432, LAS VEGAS, NV, 89123","Match","Exact","7582 LAS VEGAS BLVD S, LAS VEGAS, NV, 89123",201870597,"L"
286876,"7582 LAS VEGAS BLVD SOUTH SUITE 30","LAS VEGAS","NV",89123,36.0518408720001,-115.172320088,376,"7582 LAS VEGAS BLVD SOUTH SUITE 30, LAS VEGAS, NV, 89123","Match","Exact","7582 LAS VEGAS BLVD S, LAS VEGAS, NV, 89123",201870597,"L"
286877,"7582 POORE RD","CONNEAUT","OH",44030,41.9334465650001,-80.647084649,377,"7582 POORE RD, CONNEAUT, OH, 44030","Match","Exact","7582 POORE RD, CONNEAUT, OH, 44030",117327540,"R"
286878,"7582 SHADY GLEN CIRCLE","HUNTINGTON BEACH","CA",92648,33.688962298,-117.996222378,378,"7582 SHADY GLEN CIRCLE, HUNTINGTON BEACH, CA, 92648","Match","Exact","7582 SHADY GLEN CIR, HUNTINGTON BEACH, CA, 92648",616893346,"R"
286879,"7584 CEDAR SQUARE ROAD","RANDLEMAN","NC",27317,35.897877345,-79.863534643,379,"7584 CEDAR SQUARE ROAD, RANDLEMAN, NC, 27317","Match","Non_Exact","7584 OLD CEDAR SQUARE RD, RANDLEMAN, NC, 27317",20450581,"R"
286880,"7584 HAVERFORD AVENUE","PHILADELPHIA","PA",19151,39.97919239,-75.268476799,380,"7584 HAVERFORD AVENUE, PHILADELPHIA, PA, 19151","Match","Exact","7584 HAVERFORD AVE, PHILADELPHIA, PA, 19151",131392972,"L"
286881,"7584 N DEWOLF AVE","CLOVIS","CA",93619,36.8463615320001,-119.647953964,381,"7584 N DEWOLF AVE, CLOVIS, CA, 93619","Match","Non_Exact","7584 N DE WOLF AVE, CLOVIS, CA, 93619",197585810,"R"
286882,"7584 NW 3RD STREET","PLANTATION","FL",33317,26.1256246040001,-80.2500469949999,382,"7584 NW 3RD STREET, PLANTATION, FL, 33317","Match","Exact","7584 NW 3RD ST, PLANTATION, FL, 33317",648329580,"L"
286883,"7584 OLIVE BLVD STE 203","UNIVERSITY CITY","MO",63130,38.671855866,-90.333318618,383,"7584 OLIVE BLVD STE 203, UNIVERSITY CITY, MO, 63130","Match","Exact","7584 OLIVE BLVD, UNIVERSITY CITY, MO, 63130",100194858,"L"
286884,"7584 PINNACLE POINT","MONTGOMERY","AL",36117,32.3699680290001,-86.1609838529999,384,"7584 PINNACLE POINT, MONTGOMERY, AL, 36117","Match","Exact","7584 PINNACLE PT, MONTGOMERY, AL, 36117",1501950,"R"
286885,"7585 CRICKET HILL DR NE","ALBUQUERQUE","NM",87113,35.165639734,-106.607007842,385,"7585 CRICKET HILL DR NE, ALBUQUERQUE, NM, 87113","Match","Exact","7585 CRICKET HILL DR NE, ALBUQUERQUE, NM, 87113",630146718,"L"
286886,"7585 DIAMOND RANCH DR APT 1231","SACRAMENTO","CA",95829,38.4819381500001,-121.341831554,386,"7585 DIAMOND RANCH DR APT 1231, SACRAMENTO, CA, 95829","Match","Exact","7585 DIAMOND RANCH DR, SACRAMENTO, CA, 95829",641279315,"R"
286887,"7585 MAIN STREET","ZACHARY","LA",70791,NA,NA,387,"7585 MAIN STREET, ZACHARY, LA, 70791","No_Match",NA,NA,NA,NA
286888,"7585 RUFUS JOHNSON RD","FAYETTEVILLE","NC",28306,34.8429218730001,-78.8883306829999,388,"7585 RUFUS JOHNSON RD, FAYETTEVILLE, NC, 28306","Match","Exact","7585 RUFUS JOHNSON RD, FAYETTEVILLE, NC, 28306",64270663,"R"
286889,"7586 ELPINE GRAY DRIVE","ARLINGTON","TN",38002,35.2603570270001,-89.809990878,389,"7586 ELPINE GRAY DRIVE, ARLINGTON, TN, 38002","Match","Exact","7586 ELPINE GRAY DR, ARLINGTON, TN, 38002",617980341,"L"
286890,"7586 TRISTEN CT","WAYNESVILLE","OH",45068,39.548175149,-84.138191483,390,"7586 TRISTEN CT, WAYNESVILLE, OH, 45068","Match","Exact","7586 TRISTEN CT, WAYNESVILLE, OH, 45068",617732178,"L"
286891,"7587 SUNSTONE AVE","RANCHO CUCAMONGA","CA",91730,34.1164053530001,-117.61393445,391,"7587 SUNSTONE AVE, RANCHO CUCAMONGA, CA, 91730","Match","Exact","7587 SUNSTONE AVE, RANCHO CUCAMONGA, CA, 91730",144634381,"L"
286892,"7588 JEANNE DRIVE","LINO LAKES","MN",55014,45.1810390970001,-93.136657672,392,"7588 JEANNE DRIVE, LINO LAKES, MN, 55014","Match","Exact","7588 JEANNE DR, LINO LAKES, MN, 55014",97504188,"R"
286893,"7588 LEVY ACRES CIRCLE EAST","BURLESON","TX",76028,32.562594082,-97.209119349,393,"7588 LEVY ACRES CIRCLE EAST, BURLESON, TX, 76028","Match","Exact","7588 LEVY ACRES CIR E, BURLESON, TX, 76028",101955715,"R"
286894,"7588 LEXINGTON CLUB BLVD UNIT B","DELRAY BEACH","FL",33446,26.449345291,-80.1665602639999,394,"7588 LEXINGTON CLUB BLVD UNIT B, DELRAY BEACH, FL, 33446","Match","Exact","7588 LEXINGTON CLUB BLVD, DELRAY BEACH, FL, 33446",640878591,"R"
286895,"7588 N SALEMBURG HWY","ROSEBORO","NC",28382,35.120567158,-78.472047434,395,"7588 N SALEMBURG HWY, ROSEBORO, NC, 28382","Match","Exact","7588 N SALEMBURG HWY, ROSEBORO, NC, 28382",636184761,"R"
286896,"7589 PARNELL AVE","LAS VEGAS","NV",89147,36.100146539,-115.256462958,396,"7589 PARNELL AVE, LAS VEGAS, NV, 89147","Match","Exact","7589 PARNELL AVE, LAS VEGAS, NV, 89147",201898165,"L"
286897,"7589 S BALSAM STREET APT C","LITTLETON","CO",80128,39.5793994260001,-105.087694298,397,"7589 S BALSAM STREET APT C, LITTLETON, CO, 80128","Match","Non_Exact","7589 S BALSAM ST, LITTLETON, CO, 80128",177393817,"R"
286898,"759 11TH AVENUE","PATERSON","NJ",7501,NA,NA,398,"759 11TH AVENUE, PATERSON, NJ, 7501","No_Match",NA,NA,NA,NA
286899,"759 APPIAN WAY NUMBER 2C","PINOLE","CA",94565,38.0038347,-122.298606631,399,"759 APPIAN WAY NUMBER 2C, PINOLE, CA, 94565","Match","Non_Exact","759 APPIAN WAY, PINOLE, CA, 94564",192033847,"L"
286900,"759 ARROWHEAD TRL","PAYSON","UT",84651,40.05361606,-111.721073526,400,"759 ARROWHEAD TRL, PAYSON, UT, 84651","Match","Exact","759 ARROWHEAD TRL, PAYSON, UT, 84651",134199575,"L"
286901,"759 BELLEVUE ROAD","NASHVILLE","TN",37221,36.0672644480001,-86.941738818,401,"759 BELLEVUE ROAD, NASHVILLE, TN, 37221","Match","Exact","759 BELLEVUE RD, NASHVILLE, TN, 37221",97203956,"L"
286902,"759 BROADWAY","HAVERHILL","MA",1832,42.786773779,-71.132739143,402,"759 BROADWAY, HAVERHILL, MA, 1832","Match","Exact","759 BROADWAY, HAVERHILL, MA, 01832",646624192,"R"
286903,"759 BRYDEN ROAD","COLUMBUS","OH",43205,39.960633242,-82.979391763,403,"759 BRYDEN ROAD, COLUMBUS, OH, 43205","Match","Exact","759 BRYDEN RD, COLUMBUS, OH, 43205",135580431,"R"
286904,"759 BYRON CT","OLYMPIA FIELDS","IL",60461,41.5127764170001,-87.710040383,404,"759 BYRON CT, OLYMPIA FIELDS, IL, 60461","Match","Exact","759 BYRON CT, OLYMPIA FIELDS, IL, 60461",111708300,"L"
286905,"759 CAMARITAS AVE","S SAN FRANCISCO","CA",94080,37.6632356480001,-122.45201325,405,"759 CAMARITAS AVE, S SAN FRANCISCO, CA, 94080","Match","Exact","759 CAMARITAS AVE, S SAN FRAN, CA, 94080",192371199,"L"
286906,"759 COUNTY ROAD 614","GREEN FOREST","AR",72638,NA,NA,406,"759 COUNTY ROAD 614, GREEN FOREST, AR, 72638","No_Match",NA,NA,NA,NA
286907,"759 EAGLE DRIVE","INCLINE VILLAGE","NV",89451,39.270863698,-119.945479689,407,"759 EAGLE DRIVE, INCLINE VILLAGE, NV, 89451","Match","Exact","759 EAGLE DR, INCLINE VILLAGE, NV, 89451",107056572,"R"
286908,"759 GREENE AVENUE APT 2A","BROOKLYN","NY",11221,40.6899351000001,-73.93788677,408,"759 GREENE AVENUE APT 2A, BROOKLYN, NY, 11221","Match","Exact","759 GREENE AVE, BROOKLYN, NY, 11221",59079239,"L"
286909,"759 HOWARD AVENUE","BROOKLYN","NY",11212,40.6633985780001,-73.91887294,409,"759 HOWARD AVENUE, BROOKLYN, NY, 11212","Match","Exact","759 HOWARD AVE, BROOKLYN, NY, 11212",59083950,"L"
286910,"759 JOHNSTON AVE","HAMILTON","NJ",8629,40.2253374210001,-74.725053851,410,"759 JOHNSTON AVE, HAMILTON, NJ, 8629","Match","Exact","759 JOHNSTON AVE, HAMILTON, NJ, 08629",60199350,"L"
286911,"759 KENOWOOD DRIVE","PORT ORANGE","FL",32129,29.139215832,-81.005113377,411,"759 KENOWOOD DRIVE, PORT ORANGE, FL, 32129","Match","Exact","759 KENOWOOD DR, PORT ORANGE, FL, 32129",94547309,"L"
286912,"759 LEESE DRIVE","SALINAS","CA",93906,36.6956765640001,-121.664410652,412,"759 LEESE DRIVE, SALINAS, CA, 93906","Match","Non_Exact","759 LEESE DR, SALINAS, CA, 93907",196861124,"R"
286913,"759 N MILWAUKEE ST   SUITE410","MILWAUKEE","WI",53202,43.0402434970001,-87.906688625,413,"759 N MILWAUKEE ST   SUITE410, MILWAUKEE, WI, 53202","Match","Non_Exact","759 N MILWAUKEE ST, MILWAUKEE, WI, 53202",77744603,"L"
286914,"759 NEBO ROAD","NEW HOPE","AL",35760,34.5553520130001,-86.342931458,414,"759 NEBO ROAD, NEW HOPE, AL, 35760","Match","Exact","759 NEBO RD, NEW HOPE, AL, 35760",58204473,"L"
286915,"759 PALMETTO DR","EAGLE","ID",83616,43.7001650280001,-116.344598263,415,"759 PALMETTO DR, EAGLE, ID, 83616","Match","Exact","759 PALMETTO DR, EAGLE, ID, 83616",117939657,"R"
286916,"759 PERDUE HATCHERY ROAD","MURFREESBORO","VA",27855,NA,NA,416,"759 PERDUE HATCHERY ROAD, MURFREESBORO, VA, 27855","No_Match",NA,NA,NA,NA
286917,"759 S ATLANTIC BLVD","LOS ANGELES","CA",90022,NA,NA,417,"759 S ATLANTIC BLVD, LOS ANGELES, CA, 90022","No_Match",NA,NA,NA,NA
286918,"759 S REED CT C21","LAKEWOOD","CO",80226,39.7015947080001,-105.073485464,418,"759 S REED CT C21, LAKEWOOD, CO, 80226","Match","Non_Exact","759 S REED CT, LAKEWOOD, CO, 80226",648203475,"R"
286919,"759 SHORE DR","LITHONIA","GA",30058,33.774230473,-84.101304038,419,"759 SHORE DR, LITHONIA, GA, 30058","Match","Exact","759 SHORE DR, LITHONIA, GA, 30058",640580864,"R"
286920,"759 SMITHERMAN RD","RINGGOLD","GA",30736,34.937464601,-85.152682257,420,"759 SMITHERMAN RD, RINGGOLD, GA, 30736","Match","Exact","759 SMITHERMAN RD, RINGGOLD, GA, 30736",641148864,"R"
286921,"759 SOCIETY RD","MCCLELLANVILLE","SC",29458,33.104418637,-79.443668202,421,"759 SOCIETY RD, MCCLELLANVILLE, SC, 29458","Match","Non_Exact","759 SOCIETY RD, MC CLELLANVILLE, SC, 29458",645443223,"R"
286922,"759 SOUTH FEDERAL HIGHWAY","STUART","FL",34994,27.193451075,-80.256622432,422,"759 SOUTH FEDERAL HIGHWAY, STUART, FL, 34994","Match","Non_Exact","759 SW FEDERAL HWY, STUART, FL, 34994",646889916,"L"
286923,"759 SOUTH MAIN STREET","WOODSTOCK","VA",22664,38.8720343620001,-78.513493432,423,"759 SOUTH MAIN STREET, WOODSTOCK, VA, 22664","Match","Exact","759 S MAIN ST, WOODSTOCK, VA, 22664",639522879,"R"
286924,"759 SW FEDERAL HWY STE 326B","STUART","FL",34994,27.193451075,-80.256622432,424,"759 SW FEDERAL HWY STE 326B, STUART, FL, 34994","Match","Non_Exact","759 SW FEDERAL HWY, STUART, FL, 34994",646889916,"L"
286925,"759 THIRD STREET","STONE MOUNTAIN","GA",30032,33.8001001710001,-84.1677748229999,425,"759 THIRD STREET, STONE MOUNTAIN, GA, 30032","Match","Non_Exact","759 3RD ST, STONE MOUNTAIN, GA, 30083",23394741,"R"
286926,"759 W OAK ESTATES DRIVE","SAN ANTONIO","TX",78260,29.676475194,-98.5068326259999,426,"759 W OAK ESTATES DRIVE, SAN ANTONIO, TX, 78260","Match","Exact","759 W OAK ESTATES DR, SAN ANTONIO, TX, 78260",101494843,"L"
286927,"759 WASHINGTON AVE","BROOKLYN","NY",11238,40.674083555,-73.963036398,427,"759 WASHINGTON AVE, BROOKLYN, NY, 11238","Match","Exact","759 WASHINGTON AVE, BROOKLYN, NY, 11238",59078441,"L"
286928,"759 WILLIAMBURG DRIVE","BRICK","NJ",8724,40.1165743620001,-74.123549977,428,"759 WILLIAMBURG DRIVE, BRICK, NJ, 8724","Match","Non_Exact","759 WILLIAMSBURG DR, BRICK, NJ, 08724",203731926,"R"
286929,"7590 BEECHLAND RD","ELBERON","VA",23846,37.037593472,-76.7805365199999,429,"7590 BEECHLAND RD, ELBERON, VA, 23846","Match","Exact","7590 BEECHLAND RD, ELBERON, VA, 23846",168451625,"L"
286930,"7590 E GRAY ROAD STE 204","SCOTTSDALE","AZ",85260,33.612648467,-111.917053636,430,"7590 E GRAY ROAD STE 204, SCOTTSDALE, AZ, 85260","Match","Non_Exact","7590 E GRAY RD, SCOTTSDALE, AZ, 85260",128283993,"R"
286931,"7590 SPRINGFIELD HILLS DRIVE","SPRINGFIELD","VA",22153,38.7351108390001,-77.204678584,431,"7590 SPRINGFIELD HILLS DRIVE, SPRINGFIELD, VA, 22153","Match","Exact","7590 SPRINGFIELD HILLS DR, SPRINGFIELD, VA, 22153",75984389,"L"
286932,"7590 WINDY RIDGE ROAD","SAN DIEGO","CA",92126,32.9286424250001,-117.158749023,432,"7590 WINDY RIDGE ROAD, SAN DIEGO, CA, 92126","Match","Exact","7590 WINDY RIDGE RD, SAN DIEGO, CA, 92126",195653168,"L"
286933,"7592 HIGH RIDGE ROAD","BOYNTON BEACH","FL",33426,26.563176716,-80.074910594,433,"7592 HIGH RIDGE ROAD, BOYNTON BEACH, FL, 33426","Match","Exact","7592 HIGH RIDGE RD, BOYNTON BEACH, FL, 33426",642537587,"R"
286934,"7593 BINGHAM COURT","COLUMBUS","OH",43235,40.111408924,-83.0731885439999,434,"7593 BINGHAM COURT, COLUMBUS, OH, 43235","Match","Exact","7593 BINGHAM CT, COLUMBUS, OH, 43235",135561544,"L"
286935,"7594 COLONIAL COURT","JONESBORO","GA",30260,33.5472428510001,-84.297547908,435,"7594 COLONIAL COURT, JONESBORO, GA, 30260","Match","Non_Exact","7594 COLONIAL CT, JONESBORO, GA, 30236",23318027,"L"
286936,"7595 BLUE BELL CIRCLE","SACRAMENTO","CA",95829,38.4857690110001,-121.358155866,436,"7595 BLUE BELL CIRCLE, SACRAMENTO, CA, 95829","Match","Exact","7595 BLUE BELL CIR, SACRAMENTO, CA, 95829",650722520,"R"
286937,"7595 CURRELL BLVD 353","ST PAUL","MN",55125,44.9251731850001,-92.9520188239999,437,"7595 CURRELL BLVD 353, ST PAUL, MN, 55125","Match","Exact","7595 CURRELL BLVD, SAINT PAUL, MN, 55125",97821681,"R"
286938,"7595 E LOOP 1604N","CONVERSE","TX",78109,NA,NA,438,"7595 E LOOP 1604N, CONVERSE, TX, 78109","No_Match",NA,NA,NA,NA
286939,"75950 US HIGHWAY 93","SAINT IGNATIUS","MT",59865,47.3444283320001,-114.096828962,439,"75950 US HIGHWAY 93, SAINT IGNATIUS, MT, 59865","Match","Exact","75950 US HWY 93, SAINT IGNATIUS, MT, 59865",206929209,"R"
286940,"7596 ANGELINA DR","ATHENS","TX",75752,32.20541977,-95.733894463,440,"7596 ANGELINA DR, ATHENS, TX, 75752","Match","Exact","7596 ANGELINA DR, ATHENS, TX, 75752",125814980,"R"
286941,"7596 RITCHIE HWY 1656","GLEN BURNIE","MD",21061,39.158375644,-76.6190601929999,441,"7596 RITCHIE HWY 1656, GLEN BURNIE, MD, 21061","Match","Exact","7596 RITCHIE HWY, GLEN BURNIE, MD, 21061",633436557,"R"
286942,"7596 WOODCREST DRIVE","STANLEY","NC",28164,35.430226411,-80.9839610829999,442,"7596 WOODCREST DRIVE, STANLEY, NC, 28164","Match","Exact","7596 WOODCREST DR, STANLEY, NC, 28164",625180084,"R"
286943,"7597 RUSSELLVILLE RD","BOWLING GREEN","KY",42101,36.928699318,-86.545791284,443,"7597 RUSSELLVILLE RD, BOWLING GREEN, KY, 42101","Match","Exact","7597 RUSSELLVILLE RD, BOWLING GREEN, KY, 42101",28004885,"R"
286944,"7597 RUSSELLVILLE ROAD","BOWLING GREEN","KY",42101,36.928699318,-86.545791284,444,"7597 RUSSELLVILLE ROAD, BOWLING GREEN, KY, 42101","Match","Exact","7597 RUSSELLVILLE RD, BOWLING GREEN, KY, 42101",28004885,"R"
286945,"7598 BREVARD ST","NAVARRE","FL",32566,30.4259737400001,-86.904881647,445,"7598 BREVARD ST, NAVARRE, FL, 32566","Match","Exact","7598 BREVARD ST, NAVARRE, FL, 32566",74569660,"L"
286946,"7598 CONCORD DRIVE","BOULDER","CO",80301,40.0578970380001,-105.175757855,446,"7598 CONCORD DRIVE, BOULDER, CO, 80301","Match","Exact","7598 CONCORD DR, BOULDER, CO, 80301",188161866,"R"
286947,"7598 CRIMSON COURT","JONESBORO","GA",30236,33.546375213,-84.3524774749999,447,"7598 CRIMSON COURT, JONESBORO, GA, 30236","Match","Exact","7598 CRIMSON CT, JONESBORO, GA, 30236",632413135,"R"
286948,"7598 LIMEKILN PIKE","PHILADELPHIA","PA",19150,40.0697670050001,-75.16053757,448,"7598 LIMEKILN PIKE, PHILADELPHIA, PA, 19150","Match","Exact","7598 LIMEKILN PIKE, PHILADELPHIA, PA, 19150",131442693,"L"
286949,"7599 COLBERT DRIVE","RANCHO MURIETA","CA",95683,38.4865235390001,-121.072384398,449,"7599 COLBERT DRIVE, RANCHO MURIETA, CA, 95683","Match","Exact","7599 COLBERT DR, RANCHO MURIETA, CA, 95683",133410522,"L"
286950,"7599 COMMERCE LANE","CLINTON","MD",20735,38.7858832410001,-76.906232969,450,"7599 COMMERCE LANE, CLINTON, MD, 20735","Match","Exact","7599 COMMERCE LN, CLINTON, MD, 20735",76383310,"R"
286951,"7599 KENT ROAD","LITTLE VALLEY","NY",14755,42.3298937500001,-78.7244137879999,451,"7599 KENT ROAD, LITTLE VALLEY, NY, 14755","Match","Exact","7599 KENT RD, LITTLE VALLEY, NY, 14755",122048822,"L"
286952,"75A GREW AVE","ROSLINDALE","MA",2131,42.275937196,-71.1222821269999,452,"75A GREW AVE, ROSLINDALE, MA, 2131","Match","Exact","75 GREW AVE, ROSLINDALE, MA, 02131",85731934,"R"
286953,"75A LAKE RD - 321","CONGERS","NY",10920,41.149795409,-73.9284643569999,453,"75A LAKE RD - 321, CONGERS, NY, 10920","Match","Non_Exact","75 OLD LAKE RD, CONGERS, NY, 10920",641672700,"L"
286954,"75B UNIVERSITY COURT","NASHVILLE","TN",37210,36.1520969540001,-86.7635039319999,454,"75B UNIVERSITY COURT, NASHVILLE, TN, 37210","Match","Exact","75 UNIVERSITY CT, NASHVILLE, TN, 37210",97188613,"R"
286955,"76 4TH STREET N          UNIT  171","SAINT PETERSBURG","FL",33731,27.771836985,-82.638484121,455,"76 4TH STREET N          UNIT  171, SAINT PETERSBURG, FL, 33731","Match","Non_Exact","76 4TH ST N, SAINT PETERSBURG, FL, 33701",124708211,"L"
286956,"76 66 AUSTIN STREET NUMBER 5P","FOREST HILLS","NY",11375,NA,NA,456,"76 66 AUSTIN STREET NUMBER 5P, FOREST HILLS, NY, 11375","No_Match",NA,NA,NA,NA
286957,"76 ANGOLA ROAD","CORNWALL","NY",12518,41.4298146250001,-74.039059665,457,"76 ANGOLA ROAD, CORNWALL, NY, 12518","Match","Exact","76 ANGOLA RD, CORNWALL, NY, 12518",124480315,"L"
286958,"76 BEAU LANE","ROCHESTER","NY",14624,43.12938165,-77.815449395,458,"76 BEAU LANE, ROCHESTER, NY, 14624","Match","Exact","76 BEAU LN, ROCHESTER, NY, 14624",648192563,"R"
286959,"76 BEDFORD ST STE 37","LEXINGTON","MA",2420,42.4548026670001,-71.234007591,459,"76 BEDFORD ST STE 37, LEXINGTON, MA, 2420","Match","Exact","76 BEDFORD ST, LEXINGTON, MA, 02420",86881927,"L"
286960,"76 BELLA VISTA DRIVE","WATERTOWN","CT",6795,41.634986075,-73.143347746,460,"76 BELLA VISTA DRIVE, WATERTOWN, CT, 6795","Match","Exact","76 BELLA VISTA DR, WATERTOWN, CT, 06795",631851588,"L"
286961,"76 BONITO AVE","EAST FALMOUTH","MA",2536,41.584737884,-70.554734157,461,"76 BONITO AVE, EAST FALMOUTH, MA, 2536","Match","Exact","76 BONITO AVE, EAST FALMOUTH, MA, 02536",121643767,"L"
286962,"76 BROWN AVENUE","ROSLINDALE","MA",2131,42.2822602780001,-71.121952322,462,"76 BROWN AVENUE, ROSLINDALE, MA, 2131","Match","Exact","76 BROWN AVE, ROSLINDALE, MA, 02131",85703899,"L"
286963,"76 CAMBRIAN AVENUE","PIEDMONT","CA",94611,37.815385393,-122.217340664,463,"76 CAMBRIAN AVENUE, PIEDMONT, CA, 94611","Match","Exact","76 CAMBRIAN AVE, PIEDMONT, CA, 94611",125002238,"L"
286964,"76 CAMBRIDGE STREET","WEST HARTFORD","CT",6110,41.7292578550001,-72.730687829,464,"76 CAMBRIDGE STREET, WEST HARTFORD, CT, 6110","Match","Exact","76 CAMBRIDGE ST, WEST HARTFORD, CT, 06110",3513872,"L"
286965,"76 CASTLE WAY","BASKING RIDGE","NJ",7920,40.6892515800001,-74.528970477,465,"76 CASTLE WAY, BASKING RIDGE, NJ, 7920","Match","Exact","76 CASTLE WAY, BASKING RIDGE, NJ, 07920",59948027,"L"
286966,"76 CATHEDRAL AVENUE","NUTLEY","NJ",7110,40.831825248,-74.1510578199999,466,"76 CATHEDRAL AVENUE, NUTLEY, NJ, 7110","Match","Exact","76 CATHEDRAL AVE, NUTLEY, NJ, 07110",642915419,"R"
286967,"76 CECILIA LANE","MARTINEZ","CA",94553,38.013991773,-122.085144241,467,"76 CECILIA LANE, MARTINEZ, CA, 94553","Match","Exact","76 CECILIA LN, MARTINEZ, CA, 94553",192092853,"L"
286968,"76 CEMETERY ROAD","COLCHESTER","CT",6415,41.549754395,-72.404369303,468,"76 CEMETERY ROAD, COLCHESTER, CT, 6415","Match","Exact","76 CEMETERY RD, COLCHESTER, CT, 06415",56850099,"R"
286969,"76 CENTER STREET","CARROLL","OH",43112,39.798104671,-82.703499371,469,"76 CENTER STREET, CARROLL, OH, 43112","Match","Exact","76 CENTER ST, CARROLL, OH, 43112",37216941,"R"
286970,"76 CHAPIN STREET","CANANDAIGUA","NY",14424,42.885747898,-77.2841757799999,470,"76 CHAPIN STREET, CANANDAIGUA, NY, 14424","Match","Exact","76 CHAPIN ST, CANANDAIGUA, NY, 14424",13472428,"L"
286971,"76 CHESTER AVENUE","WINTHROP","MA",2152,42.3750949560001,-70.97990807,471,"76 CHESTER AVENUE, WINTHROP, MA, 2152","Match","Exact","76 CHESTER AVE, WINTHROP, MA, 02152",85714851,"L"
286972,"76 CLAYPOLE ROAD","ROSMAN","NC",28772,35.1143755250001,-82.819302966,472,"76 CLAYPOLE ROAD, ROSMAN, NC, 28772","Match","Non_Exact","76 CLAY POLE RD, ROSMAN, NC, 28772",633828400,"R"
286973,"76 CLOVE RD APT 3","BROOKLYN","NY",11225,40.66472421,-73.9498137049999,473,"76 CLOVE RD APT 3, BROOKLYN, NY, 11225","Match","Exact","76 CLOVE RD, BROOKLYN, NY, 11225",59079546,"L"
286974,"76 COLLINS AVE","SAYVILLE","NY",11782,40.7342377080001,-73.079880547,474,"76 COLLINS AVE, SAYVILLE, NY, 11782","Match","Exact","76 COLLINS AVE, SAYVILLE, NY, 11782",114015448,"R"
286975,"76 COOLIDGE AVENUE","BROCKTON","MA",2302,42.085177307,-70.9915462609999,475,"76 COOLIDGE AVENUE, BROCKTON, MA, 2302","Match","Exact","76 COOLIDGE AVE, BROCKTON, MA, 02302",87463890,"L"
286976,"76 DEHAVEN DR APT 4L","YONKERS","NY",10703,40.964407561,-73.881023016,476,"76 DEHAVEN DR APT 4L, YONKERS, NY, 10703","Match","Exact","76 DEHAVEN DR, YONKERS, NY, 10703",139840288,"R"
286977,"76 DOLBOW AVENUE","PENNSVILLE","NJ",8070,39.6582925450001,-75.514566535,477,"76 DOLBOW AVENUE, PENNSVILLE, NJ, 8070","Match","Exact","76 DOLBOW AVE, PENNSVILLE, NJ, 08070",174420872,"R"
286978,"76 E 2050 N","CENTERVILLE","UT",84014,40.9479457470001,-111.879973064,478,"76 E 2050 N, CENTERVILLE, UT, 84014","Match","Exact","76 E 2050 N, CENTERVILLE, UT, 84014",229352713,"R"
286979,"76 E EUCLID AVE SUITE 101","HADDONFIELD","NJ",8033,NA,NA,479,"76 E EUCLID AVE SUITE 101, HADDONFIELD, NJ, 8033","Tie",NA,NA,NA,NA
286980,"76 E MARKET ST SUITE B","TIFFIN","OH",44883,NA,NA,480,"76 E MARKET ST SUITE B, TIFFIN, OH, 44883","Tie",NA,NA,NA,NA
286981,"76 EAST MOSER ROAD","THURMONT","MD",21788,39.613608066,-77.411407131,481,"76 EAST MOSER ROAD, THURMONT, MD, 21788","Match","Exact","76 E MOSER RD, THURMONT, MD, 21788",60714903,"L"
286982,"76 EAST WYOMING ST SUITE 2","SAINT PAUL","MN",55107,44.920508576,-93.088367932,482,"76 EAST WYOMING ST SUITE 2, SAINT PAUL, MN, 55107","Match","Non_Exact","76 W WYOMING ST, SAINT PAUL, MN, 55107",97649199,"L"
286983,"76 ELMDALE STREET","WEST SPRINGFIELD","MA",1089,42.1089299930001,-72.618528778,483,"76 ELMDALE STREET, WEST SPRINGFIELD, MA, 1089","Match","Exact","76 ELMDALE ST, W SPRINGFIELD, MA, 01089",4054005,"R"
286984,"76 FAIRCREST DR","HUTCHINSON","KS",67502,38.0739293510001,-97.914847964,484,"76 FAIRCREST DR, HUTCHINSON, KS, 67502","Match","Exact","76 FAIRCREST DR, HUTCHINSON, KS, 67502",142950275,"R"
286985,"76 GARDEN AVE","CHATHAM","NJ",7928,40.7501799890001,-74.390278016,485,"76 GARDEN AVE, CHATHAM, NJ, 7928","Match","Exact","76 GARDEN AVE, CHATHAM, NJ, 07928",60450497,"R"
286986,"76 GARDEN CIRCLE APT 1","WALTHAM","MA",2452,42.3797351960001,-71.227697093,486,"76 GARDEN CIRCLE APT 1, WALTHAM, MA, 2452","Match","Exact","76 GARDEN CIR, WALTHAM, MA, 02452",86890522,"L"
286987,"76 GEBIG ROAD","NOTTINGHAM","NH",3290,43.170944203,-71.136531207,487,"76 GEBIG ROAD, NOTTINGHAM, NH, 3290","Match","Exact","76 GEBIG RD, NOTTINGHAM, NH, 03290",113701209,"L"
286988,"76 GILLEY RD","NEW WAVERLY","TX",77358,30.572841016,-95.5512535839999,488,"76 GILLEY RD, NEW WAVERLY, TX, 77358","Match","Exact","76 GILLEY RD, NEW WAVERLY, TX, 77358",22218607,"R"
286989,"76 GOSSELIN ROAD","MANCHESTER","NH",3103,42.9425626020001,-71.447491278,489,"76 GOSSELIN ROAD, MANCHESTER, NH, 3103","Match","Exact","76 GOSSELIN RD, MANCHESTER, NH, 03103",113533772,"L"
286990,"76 GOTHIC STREET","NORTHAMPTON","MA",1060,42.3216408600001,-72.6330522389999,490,"76 GOTHIC STREET, NORTHAMPTON, MA, 1060","Match","Exact","76 GOTHIC ST, NORTHAMPTON, MA, 01060",39849642,"L"
286991,"76 GREENFIELD AVE","BALLSTON SPA","NY",12020,43.0213567490001,-73.857628228,491,"76 GREENFIELD AVE, BALLSTON SPA, NY, 12020","Match","Exact","76 GREENFIELD AVE, BALLSTON SPA, NY, 12020",627487404,"R"
286992,"76 GREENWOOD ROAD","OLD BRIDGE","NJ",8857,40.408471643,-74.298155008,492,"76 GREENWOOD ROAD, OLD BRIDGE, NJ, 8857","Match","Exact","76 GREENWOOD RD, OLD BRIDGE, NJ, 08857",60337858,"L"
286993,"76 HAWKINS ROAD","TABERNACLE","NJ",8088,NA,NA,493,"76 HAWKINS ROAD, TABERNACLE, NJ, 8088","No_Match",NA,NA,NA,NA
286994,"76 HEWES ST","BROOKLYN","NY",11249,40.7022539290001,-73.959750994,494,"76 HEWES ST, BROOKLYN, NY, 11249","Match","Exact","76 HEWES ST, BROOKLYN, NY, 11249",59077854,"R"
286995,"76 HIGH RIDGE ROAD","WEST HARTFORD","CT",6117,41.7840943750001,-72.7731597,495,"76 HIGH RIDGE ROAD, WEST HARTFORD, CT, 6117","Match","Exact","76 HIGH RIDGE RD, WEST HARTFORD, CT, 06117",3485239,"R"
286996,"76 HOLLY STREET","JB LANLGEY-EUSTIS","VA",23665,NA,NA,496,"76 HOLLY STREET, JB LANLGEY-EUSTIS, VA, 23665","No_Match",NA,NA,NA,NA
286997,"76 HOUSTON AVE","MIDDLETOWN","NY",10940,41.4406657060001,-74.4116781229999,497,"76 HOUSTON AVE, MIDDLETOWN, NY, 10940","Match","Exact","76 HOUSTON AVE, MIDDLETOWN, NY, 10940",124388735,"L"
286998,"76 HUNT MARTIN ST","BLAIRSVILLE","GA",30512,34.872628928,-83.9585189809999,498,"76 HUNT MARTIN ST, BLAIRSVILLE, GA, 30512","Match","Exact","76 HUNT MARTIN ST, BLAIRSVILLE, GA, 30512",85284296,"L"
286999,"76 JOYCE ROAD","FRAMINGHAM","MA",1701,42.3341615780001,-71.416210731,499,"76 JOYCE ROAD, FRAMINGHAM, MA, 1701","Match","Exact","76 JOYCE RD, FRAMINGHAM, MA, 01701",86847815,"L"
287000,"76 KINGS ROAD","CORINTH","NY",12822,43.284729661,-73.836789304,500,"76 KINGS ROAD, CORINTH, NY, 12822","Match","Exact","76 KINGS RD, CORINTH, NY, 12822",18787658,"R"
