"ID","Address","City","State","Zip","lat","long","id","input_address","match_indicator","match_type","matched_address","tiger_line_id","tiger_side"
71501,"154 CABANA WAY","CRESTVIEW","FL",32536,30.7577813500001,-86.583834849,1,"154 CABANA WAY, CRESTVIEW, FL, 32536","Match","Exact","154 CABANA WAY, CRESTVIEW, FL, 32536",74453596,"L"
71502,"154 CAMP SARGENT ROAD","MERRIMACK","NH",3054,42.8139767390001,-71.527880325,2,"154 CAMP SARGENT ROAD, MERRIMACK, NH, 3054","Match","Exact","154 CAMP SARGENT RD, MERRIMACK, NH, 03054",113574389,"L"
71503,"154 CATESBY ROAD","POWDER SPRINGS","GA",30127,33.950251284,-84.7161034969999,3,"154 CATESBY ROAD, POWDER SPRINGS, GA, 30127","Match","Exact","154 CATESBY RD, POWDER SPGS, GA, 30127",634053308,"R"
71504,"154 CATTLE BARON LANE","ELGIN","SC",29045,34.137058494,-80.8538996409999,4,"154 CATTLE BARON LANE, ELGIN, SC, 29045","Match","Exact","154 CATTLE BARON LN, ELGIN, SC, 29045",625618745,"R"
71505,"154 CHESTNUT RIDGE RD","KENNA","WV",25248,NA,NA,5,"154 CHESTNUT RIDGE RD, KENNA, WV, 25248","No_Match",NA,NA,NA,NA
71506,"154 CLINTONVILLE ROAD","NORTH HAVEN","CT",6473,41.389298425,-72.847467454,6,"154 CLINTONVILLE ROAD, NORTH HAVEN, CT, 6473","Match","Exact","154 CLINTONVILLE RD, NORTH HAVEN, CT, 06473",3721332,"R"
71507,"154 COLD SPRING ROAD","STAMFORD","CT",6905,41.0680315640001,-73.554828045,7,"154 COLD SPRING ROAD, STAMFORD, CT, 6905","Match","Exact","154 COLD SPRING RD, STAMFORD, CT, 06905",631722822,"L"
71508,"154 CONCHO CIR","BAYFIELD","CO",81122,37.2363987030001,-107.619803647,8,"154 CONCHO CIR, BAYFIELD, CO, 81122","Match","Exact","154 CONCHO CIR, BAYFIELD, CO, 81122",91714578,"L"
71509,"154 COUNTY ROAD 137","RICEVILLE","TN",37370,35.394048351,-84.708804383,9,"154 COUNTY ROAD 137, RICEVILLE, TN, 37370","Match","Exact","154 CO RD 137, RICEVILLE, TN, 37370",88544096,"L"
71510,"154 COUNTY ROAD 371","BONO","AR",72416,35.884667269,-90.7764296409999,10,"154 COUNTY ROAD 371, BONO, AR, 72416","Match","Exact","154 CO RD 371, BONO, AR, 72416",46925965,"R"
71511,"154 COUNTY ROAD","YOAKUM","TX",77995,NA,NA,11,"154 COUNTY ROAD, YOAKUM, TX, 77995","No_Match",NA,NA,NA,NA
71512,"154 DINTON ROAD","COLUMBIA","SC",29212,34.0563001830001,-81.20106191,12,"154 DINTON ROAD, COLUMBIA, SC, 29212","Match","Exact","154 DINTON RD, COLUMBIA, SC, 29212",70063598,"R"
71513,"154 E AURORA RD STE 14","NORTHFIELD","OH",44067,NA,NA,13,"154 E AURORA RD STE 14, NORTHFIELD, OH, 44067","Tie",NA,NA,NA,NA
71514,"154 E BARE HILL ROAD","HARVARD","MA",1451,42.4654982160001,-71.5904526699999,14,"154 E BARE HILL ROAD, HARVARD, MA, 1451","Match","Exact","154 E BARE HILL RD, HARVARD, MA, 01451",40098938,"L"
71515,"154 E GE PATTERSON AVE","MEMPHIS","TN",38103,35.132791303,-90.057222124,15,"154 E GE PATTERSON AVE, MEMPHIS, TN, 38103","Match","Non_Exact","154 E G E PATTERSON AVE, MEMPHIS, TN, 38103",72903474,"L"
71516,"154 E GE PATTERSON","MEMPHIS","TN",38103,35.132791303,-90.057222124,16,"154 E GE PATTERSON, MEMPHIS, TN, 38103","Match","Non_Exact","154 E G E PATTERSON AVE, MEMPHIS, TN, 38103",72903474,"L"
71517,"154 E HILL DR","MADISON","MS",39110,32.455108087,-90.107329721,17,"154 E HILL DR, MADISON, MS, 39110","Match","Exact","154 E HILL DR, MADISON, MS, 39110",152491255,"L"
71518,"154 EAST CENTER STREET","LONDON","OH",43140,39.8846840300001,-83.438261715,18,"154 EAST CENTER STREET, LONDON, OH, 43140","Match","Exact","154 E CENTER ST, LONDON, OH, 43140",135260036,"R"
71519,"154 EAST MARSHALL ROAD","LANSDOWNE","PA",19050,39.9509697060001,-75.2715810459999,19,"154 EAST MARSHALL ROAD, LANSDOWNE, PA, 19050","Match","Exact","154 E MARSHALL RD, LANSDOWNE, PA, 19050",134877640,"R"
71520,"154 EAST ST","EAST BRIDGEWATER","MA",2333,42.010549332,-70.9587763019999,20,"154 EAST ST, EAST BRIDGEWATER, MA, 2333","Match","Exact","154 EAST ST, E BRIDGEWATER, MA, 02333",87470042,"L"
71521,"154 ERIN DRIVE","VALLEJO","CA",94589,38.153841576,-122.236457498,21,"154 ERIN DRIVE, VALLEJO, CA, 94589","Match","Exact","154 ERIN DR, VALLEJO, CA, 94589",192531809,"L"
71522,"154 ETHEL WINGATE DR","PENSACOLA","FL",32507,30.3252419180001,-87.372035877,22,"154 ETHEL WINGATE DR, PENSACOLA, FL, 32507","Match","Exact","154 ETHEL WINGATE DR, PENSACOLA, FL, 32507",93246731,"L"
71523,"154 FOOTHILL RD","SOLDOTNA","AK",99669,60.490346688,-151.059188354,23,"154 FOOTHILL RD, SOLDOTNA, AK, 99669","Match","Non_Exact","154 FOOTHILL AVE, SOLDOTNA, AK, 99669",637380105,"R"
71524,"154 GADWAY ROAD","MERRILL","NY",12955,44.772318236,-73.9843127729999,24,"154 GADWAY ROAD, MERRILL, NY, 12955","Match","Exact","154 GADWAY RD, MERRILL, NY, 12955",642649421,"L"
71525,"154 GALLIER COURT","MANDEVILLE","LA",70448,30.3819479910001,-90.0526699119999,25,"154 GALLIER COURT, MANDEVILLE, LA, 70448","Match","Exact","154 GALLIER CT, MANDEVILLE, LA, 70448",625654932,"R"
71526,"154 GLASS ST SUITE 108","DALLAS","TX",75207,32.790064601,-96.822578882,26,"154 GLASS ST SUITE 108, DALLAS, TX, 75207","Match","Exact","154 GLASS ST, DALLAS, TX, 75207",102905606,"R"
71527,"154 GLENN HILL DRIVE","HENDERSONVILLE","TN",37075,36.2626250540001,-86.593956882,27,"154 GLENN HILL DRIVE, HENDERSONVILLE, TN, 37075","Match","Exact","154 GLENN HILL DR, HENDERSONVILLE, TN, 37075",29776105,"L"
71528,"154 GRAND AVE","SUWANEE","GA",30024,34.112667528,-84.110089601,28,"154 GRAND AVE, SUWANEE, GA, 30024","Match","Exact","154 GRAND AVE, SUWANEE, GA, 30024",70195991,"R"
71529,"154 GRAND ST","WORCESTER","MA",1603,42.246057351,-71.815207592,29,"154 GRAND ST, WORCESTER, MA, 1603","Match","Exact","154 GRAND ST, WORCESTER, MA, 01603",40010000,"R"
71530,"154 GRANDVIEW CIRCLE","GALLATIN","TN",37066,36.4148236290001,-86.420016617,30,"154 GRANDVIEW CIRCLE, GALLATIN, TN, 37066","Match","Exact","154 GRANDVIEW CIR, GALLATIN, TN, 37066",29797196,"R"
71531,"154 GUAVA AVE","MARATHON","FL",33050,24.761874495,-80.955453032,31,"154 GUAVA AVE, MARATHON, FL, 33050","Match","Exact","154 GUAVA AVE, MARATHON, FL, 33050",116467697,"L"
71532,"154 HANSEN ROAD SUITE 201","CHARLOTTESVILLE","VA",22911,38.0309689920001,-78.446746978,32,"154 HANSEN ROAD SUITE 201, CHARLOTTESVILLE, VA, 22911","Match","Exact","154 HANSEN RD, CHARLOTTESVILLE, VA, 22911",640866985,"L"
71533,"154 HAYES STREET","HILLSBOROUGH","NC",27278,36.079950814,-79.113963439,33,"154 HAYES STREET, HILLSBOROUGH, NC, 27278","Match","Exact","154 HAYES ST, HILLSBOROUGH, NC, 27278",72376450,"L"
71534,"154 HAYWARD PLACE","WALLLINGTON","NJ",7057,40.854150249,-74.114831527,34,"154 HAYWARD PLACE, WALLLINGTON, NJ, 7057","Match","Non_Exact","154 HAYWARD PL, WALLINGTON, NJ, 07057",64394002,"R"
71535,"154 HEATH STREET APARTMENT 23","BOSTON","MA",2130,42.3261769120001,-71.103639898,35,"154 HEATH STREET APARTMENT 23, BOSTON, MA, 2130","Match","Exact","154 HEATH ST, BOSTON, MA, 02130",645436832,"L"
71536,"154 HIDDEN TRAIL","KALISPELL","MT",59901,NA,NA,36,"154 HIDDEN TRAIL, KALISPELL, MT, 59901","No_Match",NA,NA,NA,NA
71537,"154 KALES HILL ROAD","WHITNEY POINT","NY",13862,42.3486368650001,-75.954306829,37,"154 KALES HILL ROAD, WHITNEY POINT, NY, 13862","Match","Exact","154 KALES HILL RD, WHITNEY POINT, NY, 13862",46371562,"L"
71538,"154 KEMPER ROAD","FRANKLIN","LA",70538,NA,NA,38,"154 KEMPER ROAD, FRANKLIN, LA, 70538","No_Match",NA,NA,NA,NA
71539,"154 KROG STREET NE STE 135","ATLANTA","GA",30307,33.758129642,-84.3639078859999,39,"154 KROG STREET NE STE 135, ATLANTA, GA, 30307","Match","Exact","154 KROG ST NE, ATLANTA, GA, 30307",17357601,"L"
71540,"154 LAKE VISTA DR","CHAPIN","SC",29036,34.0764887710001,-81.366791119,40,"154 LAKE VISTA DR, CHAPIN, SC, 29036","Match","Exact","154 LAKE VISTA DR, CHAPIN, SC, 29036",70063784,"R"
71541,"154 LEXINGTON AVE","LANSDOWNE","PA",19050,39.9443593890001,-75.2618767719999,41,"154 LEXINGTON AVE, LANSDOWNE, PA, 19050","Match","Exact","154 LEXINGTON AVE, LANSDOWNE, PA, 19050",134878481,"L"
71542,"154 LINCOLN HILL","POMEROY","OH",45769,39.0264000930001,-82.040795025,42,"154 LINCOLN HILL, POMEROY, OH, 45769","Match","Exact","154 LINCOLN HL, POMEROY, OH, 45769",101273943,"L"
71543,"154 LLOYD STREET","WINDBER","PA",15963,40.2870659750001,-78.722928973,43,"154 LLOYD STREET, WINDBER, PA, 15963","Match","Exact","154 LLOYD ST, WINDBER, PA, 15963",50259780,"L"
71544,"154 LOFTUS ROAD","BAY POINT","CA",94565,38.021146075,-121.928284349,44,"154 LOFTUS ROAD, BAY POINT, CA, 94565","Match","Exact","154 LOFTUS RD, BAY POINT, CA, 94565",192059975,"R"
71545,"154 MARTIN RD","MEYERSDALE","PA",15552,39.79178976,-79.0403100899999,45,"154 MARTIN RD, MEYERSDALE, PA, 15552","Match","Exact","154 MARTIN RD, MEYERSDALE, PA, 15552",70261501,"R"
71546,"154 MCKINLEY AVE","FRANKLIN SQUARE","NY",11010,40.71075546,-73.6697644119999,46,"154 MCKINLEY AVE, FRANKLIN SQUARE, NY, 11010","Match","Exact","154 MCKINLEY AVE, FRANKLIN SQUARE, NY, 11010",147672103,"R"
71547,"154 MICHAEL RD","GATE CITY","VA",24201,36.6456578070001,-82.576644557,47,"154 MICHAEL RD, GATE CITY, VA, 24201","Match","Non_Exact","154 MICHAEL RD, GATE CITY, VA, 24251",79155805,"R"
71548,"154 MITCHELL LOOP","BOSQUE FARMS","NM",87068,34.850970139,-106.690155917,48,"154 MITCHELL LOOP, BOSQUE FARMS, NM, 87068","Match","Exact","154 MITCHELL LOOP, BOSQUE FARMS, NM, 87068",179327522,"L"
71549,"154 MONACO DRIVE","REDWOOD CITY","CA",94065,37.5426594800001,-122.245218596,49,"154 MONACO DRIVE, REDWOOD CITY, CA, 94065","Match","Exact","154 MONACO DR, REDWOOD CITY, CA, 94065",192409420,"L"
71550,"154 MONROE STREET","DEPORT","TX",75435,33.5287885540001,-95.3165072639999,50,"154 MONROE STREET, DEPORT, TX, 75435","Match","Exact","154 MONROE ST, DEPORT, TX, 75435",63579870,"L"
71551,"154 MONTE REY DRIVE SOUTH","LOS ALAMOS","NM",87544,35.8081547190001,-106.219908006,51,"154 MONTE REY DRIVE SOUTH, LOS ALAMOS, NM, 87544","Match","Non_Exact","154 MONTE REY DR S, LOS ALAMOS, NM, 87547",640450081,"R"
71552,"154 MOUNTAIN ROAD BOX 278","DELAWARE WATER GAP","PA",18327,40.979131619,-75.1433566809999,52,"154 MOUNTAIN ROAD BOX 278, DELAWARE WATER GAP, PA, 18327","Match","Exact","154 MOUNTAIN RD, DELAWARE WATER GAP, PA, 18327",136790058,"L"
71553,"154 MT VERNON ST","RIDGEFIELD PARK","NJ",7660,40.8553551580001,-74.019833267,53,"154 MT VERNON ST, RIDGEFIELD PARK, NJ, 7660","Match","Exact","154 MOUNT VERNON ST, RIDGEFIELD PARK, NJ, 07660",64398187,"L"
71554,"154 MULBERRY ST","HOMER","GA",30547,34.3326783150001,-83.4988475649999,54,"154 MULBERRY ST, HOMER, GA, 30547","Match","Exact","154 MULBERRY ST, HOMER, GA, 30547",39025347,"R"
71555,"154 N 69TH STREET","MILWAUKEE","WI",53213,43.032410095,-87.9986455919999,55,"154 N 69TH STREET, MILWAUKEE, WI, 53213","Match","Exact","154 N 69TH ST, MILWAUKEE, WI, 53213",77732976,"R"
71556,"154 N MADISON STREET","WICKENBURG","AZ",85390,33.9668298390001,-112.735248824,56,"154 N MADISON STREET, WICKENBURG, AZ, 85390","Match","Exact","154 N MADISON ST, WICKENBURG, AZ, 85390",128132976,"L"
71557,"154 NELSON AVENUE PO BOX 116","ATCO","NJ",8004,39.7476943510001,-74.892485813,57,"154 NELSON AVENUE PO BOX 116, ATCO, NJ, 8004","Match","Exact","154 NELSON AVE, ATCO, NJ, 08004",134365550,"L"
71558,"154 NEWTOWN ROAD SUITE B4","VIRGINIA BEACH","VA",23462,36.842568484,-76.186280537,58,"154 NEWTOWN ROAD SUITE B4, VIRGINIA BEACH, VA, 23462","Match","Exact","154 NEWTOWN RD, VA BCH, VA, 23462",122310987,"R"
71559,"154 NORTH HILL DRIVE","WESTAMPTON","NJ",8060,40.028395749,-74.859002188,59,"154 NORTH HILL DRIVE, WESTAMPTON, NJ, 8060","Match","Exact","154 N HILL DR, WESTAMPTON, NJ, 08060",134068906,"L"
71560,"154 NORTH MAIN ST","BLUFFTON","OH",45817,40.8944255910001,-83.8904993689999,60,"154 NORTH MAIN ST, BLUFFTON, OH, 45817","Match","Exact","154 N MAIN ST, BLUFFTON, OH, 45817",35570568,"R"
71561,"154 NW 2ND AVE","MICANOPY","FL",32667,29.50567885,-82.283067084,61,"154 NW 2ND AVE, MICANOPY, FL, 32667","Match","Non_Exact","154 NW 2 ST, MICANOPY, FL, 32667",6799444,"R"
71562,"154 ORCHARD PARK RD","WEST SENECA","NY",14224,42.839124713,-78.7889536169999,62,"154 ORCHARD PARK RD, WEST SENECA, NY, 14224","Match","Exact","154 ORCHARD PARK RD, WEST SENECA, NY, 14224",48304428,"L"
71563,"154 PINE STREET","NORTH TROY","VT",5859,44.996633789,-72.395010607,63,"154 PINE STREET, NORTH TROY, VT, 5859","Match","Exact","154 PINE ST, NORTH TROY, VT, 05859",196762269,"R"
71564,"154 PRESSMENS HOME RD","ROGERSVILLE","TN",37857,36.4281598170001,-83.110890367,64,"154 PRESSMENS HOME RD, ROGERSVILLE, TN, 37857","Match","Exact","154 PRESSMENS HOME RD, ROGERSVILLE, TN, 37857",42393828,"R"
71565,"154 RAINBOW DRIVE 5420","LIVINGSTON","TX",77399,30.646402949,-94.8741224359999,65,"154 RAINBOW DRIVE 5420, LIVINGSTON, TX, 77399","Match","Exact","154 RAINBOW DR, LIVINGSTON, TX, 77399",650457019,"R"
71566,"154 REID LANE","RICHMOND","CA",94801,37.956078421,-122.371955272,66,"154 REID LANE, RICHMOND, CA, 94801","Match","Exact","154 REID LN, RICHMOND, CA, 94801",631743132,"L"
71567,"154 ROACH ROAD","WEST MONROE","LA",71291,32.515155742,-92.2544200519999,67,"154 ROACH ROAD, WEST MONROE, LA, 71291","Match","Exact","154 ROACH RD, WEST MONROE, LA, 71291",161104013,"R"
71568,"154 ROUTE 206","CHESTER","NJ",7930,40.7841507540001,-74.6984025679999,68,"154 ROUTE 206, CHESTER, NJ, 7930","Match","Non_Exact","154 US HWY 206, CHESTER, NJ, 07930",60512970,"R"
71569,"154 S COMMERCE AVE","SEBRING","FL",33870,27.4950112940001,-81.440173451,69,"154 S COMMERCE AVE, SEBRING, FL, 33870","Match","Exact","154 S COMMERCE AVE, SEBRING, FL, 33870",4683847,"R"
71570,"154 SAND HILL SCHOOL ROAD","ASHEVILLE","NC",28806,35.5554718830001,-82.6397985569999,70,"154 SAND HILL SCHOOL ROAD, ASHEVILLE, NC, 28806","Match","Exact","154 SAND HILL SCHOOL RD, ASHEVILLE, NC, 28806",645430058,"R"
71571,"154 SCENIC DRIVE","BARDSTOWN","KY",40004,37.8081813410001,-85.4405340869999,71,"154 SCENIC DRIVE, BARDSTOWN, KY, 40004","Match","Exact","154 SCENIC DR, BARDSTOWN, KY, 40004",35153869,"L"
71572,"154 SCENIC RD","FAIRFAX","CA",94930,37.9901666660001,-122.59850638,72,"154 SCENIC RD, FAIRFAX, CA, 94930","Match","Exact","154 SCENIC RD, FAIRFAX, CA, 94930",192759861,"R"
71573,"154 SCHOOL STREET","LONDON","AR",72847,35.334054058,-93.2508516349999,73,"154 SCHOOL STREET, LONDON, AR, 72847","Match","Exact","154 SCHOOL ST, LONDON, AR, 72847",606041880,"R"
71574,"154 SEBRING DRIVE","TAVERNIERR","FL",33070,24.9782992200001,-80.554369583,74,"154 SEBRING DRIVE, TAVERNIERR, FL, 33070","Match","Non_Exact","154 SEBRING DR, TAVERNIER, FL, 33070",116467164,"L"
71575,"154 SEWALL STREET","AUGUSTA","ME",4330,44.3037438010001,-69.7857529079999,75,"154 SEWALL STREET, AUGUSTA, ME, 4330","Match","Exact","154 SEWALL ST, AUGUSTA, ME, 04330",75456710,"L"
71576,"154 SHED RD","DOUGLASSVILLE","PA",19518,40.2465479040001,-75.774304732,76,"154 SHED RD, DOUGLASSVILLE, PA, 19518","Match","Exact","154 SHED RD, DOUGLASSVILLE, PA, 19518",80421441,"R"
71577,"154 SHELBURNE CT","ST CHARLES","MO",63301,38.811748822,-90.516015312,77,"154 SHELBURNE CT, ST CHARLES, MO, 63301","Match","Exact","154 SHELBURNE CT, SAINT CHARLES, MO, 63301",100020468,"L"
71578,"154 SILVER RD","EAST HARDWICK","VT",5836,44.533457244,-72.2064686379999,78,"154 SILVER RD, EAST HARDWICK, VT, 5836","Match","Exact","154 SILVER RD, EAST HARDWICK, VT, 05836",181076965,"R"
71579,"154 SNOOKS PATH","MARS HILL","NC",28754,35.827358164,-82.567262407,79,"154 SNOOKS PATH, MARS HILL, NC, 28754","Match","Non_Exact","154 SNOOK'S PATH, MARS HILL, NC, 28754",608813158,"R"
71580,"154 SOUTHFIELD ROAD","CONCORD","MA",1742,42.454062531,-71.363368496,80,"154 SOUTHFIELD ROAD, CONCORD, MA, 1742","Match","Exact","154 SOUTHFIELD RD, CONCORD, MA, 01742",86844750,"R"
71581,"154 STONE TRL","CASTROVILLE","TX",78009,29.4294067910001,-98.837641584,81,"154 STONE TRL, CASTROVILLE, TX, 78009","Match","Exact","154 STONE TRL, CASTROVILLE, TX, 78009",651900471,"R"
71582,"154 SUMMIT AVE","UPPER DARBY","PA",19082,39.9591608420001,-75.280095339,82,"154 SUMMIT AVE, UPPER DARBY, PA, 19082","Match","Exact","154 SUMMIT AVE, UPPER DARBY, PA, 19082",134877264,"R"
71583,"154 SURGE STONE LANE","STOCKBRIDGE","GA",30281,33.512113641,-84.2477811749999,83,"154 SURGE STONE LANE, STOCKBRIDGE, GA, 30281","Match","Exact","154 SURGE STONE LN, STOCKBRIDGE, GA, 30281",633109566,"L"
71584,"154 SW HUDSON LN APT 102","LAKE CITY","FL",32025,NA,NA,84,"154 SW HUDSON LN APT 102, LAKE CITY, FL, 32025","No_Match",NA,NA,NA,NA
71585,"154 SW MAIN STREET","ROCKY MOUNT","NC",27804,35.9416478040001,-77.795769139,85,"154 SW MAIN STREET, ROCKY MOUNT, NC, 27804","Match","Non_Exact","154 NW MAIN ST, ROCKY MOUNT, NC, 27804",90383035,"L"
71586,"154 TERESA DRIVE","GREENVILLE","MS",38701,33.38083404,-91.052496124,86,"154 TERESA DRIVE, GREENVILLE, MS, 38701","Match","Exact","154 TERESA DR, GREENVILLE, MS, 38701",1154717,"R"
71587,"154 THE COURTYARD","BOONE","NC",28607,36.1733133550001,-81.55993046,87,"154 THE COURTYARD, BOONE, NC, 28607","Match","Exact","154 THE COURTYARD, BOONE, NC, 28607",234425357,"R"
71588,"154 TREE SHOT COURT","LAS VEGAS","NV",89148,36.0546327060001,-115.284087788,88,"154 TREE SHOT COURT, LAS VEGAS, NV, 89148","Match","Exact","154 TREE SHOT CT, LAS VEGAS, NV, 89148",648302118,"L"
71589,"154 UNION ROAD","DE QUEEN","AR",71832,34.063689552,-94.350253074,89,"154 UNION ROAD, DE QUEEN, AR, 71832","Match","Exact","154 UNION RD, DE QUEEN, AR, 71832",634445419,"L"
71590,"154 UPWARD WAY","CATAWBA","VA",24070,NA,NA,90,"154 UPWARD WAY, CATAWBA, VA, 24070","No_Match",NA,NA,NA,NA
71591,"154 W FOOTHILL BLVD","UPLAND","CA",91786,34.1069925850001,-117.653257113,91,"154 W FOOTHILL BLVD, UPLAND, CA, 91786","Match","Exact","154 W FOOTHILL BLVD, UPLAND, CA, 91786",636198036,"L"
71592,"154 W NITTANY AVE","STATE COLLEGE","PA",16801,40.7906973290001,-77.858507117,92,"154 W NITTANY AVE, STATE COLLEGE, PA, 16801","Match","Exact","154 W NITTANY AVE, STATE COLLEGE, PA, 16801",50398607,"L"
71593,"154 W WILLIAM ST","DELAWARE","OH",43015,40.2990887340001,-83.073509338,93,"154 W WILLIAM ST, DELAWARE, OH, 43015","Match","Exact","154 W WILLIAM ST, DELAWARE, OH, 43015",24585059,"R"
71594,"154 WATERMAN ST SUITE 10A","PROVIDENCE","RI",2906,41.8276267310001,-71.3953459539999,94,"154 WATERMAN ST SUITE 10A, PROVIDENCE, RI, 2906","Match","Exact","154 WATERMAN ST, PROVIDENCE, RI, 02906",47467649,"L"
71595,"154 WEEKS AVENUE","MANORVILLE","NY",11949,40.846004609,-72.842043565,95,"154 WEEKS AVENUE, MANORVILLE, NY, 11949","Match","Exact","154 WEEKS AVE, MANORVILLE, NY, 11949",624288642,"L"
71596,"154 WELLSVILLE STREET","BOLIVAR","NY",14715,42.066864837,-78.16166693,96,"154 WELLSVILLE STREET, BOLIVAR, NY, 14715","Match","Exact","154 WELLSVILLE ST, BOLIVAR, NY, 14715",82600136,"R"
71597,"154 WEST 17TH STREET","RIVIERA BEACH","FL",33404,26.7771623150001,-80.0573304019999,97,"154 WEST 17TH STREET, RIVIERA BEACH, FL, 33404","Match","Exact","154 W 17TH ST, RIVIERA BEACH, FL, 33404",115276828,"R"
71598,"154 WEST 70TH STREET SUITE 12J","NEW YORK","NY",10023,40.7766415630001,-73.981026637,98,"154 WEST 70TH STREET SUITE 12J, NEW YORK, NY, 10023","Match","Exact","154 W 70TH ST, NEW YORK, NY, 10023",59657005,"L"
71599,"154 WEST 93RD STREET","NEW YORK","NY",10025,40.7916406900001,-73.970629392,99,"154 WEST 93RD STREET, NEW YORK, NY, 10025","Match","Exact","154 W 93RD ST, NEW YORK, NY, 10025",611175371,"L"
71600,"154 WEST BEECH STREET","LONG BEACH","NY",11561,40.58616334,-73.668409277,100,"154 WEST BEECH STREET, LONG BEACH, NY, 11561","Match","Exact","154 W BEECH ST, LONG BEACH, NY, 11561",147682128,"L"
71601,"154 WEST BROADWAY","SALEM","NJ",8079,NA,NA,101,"154 WEST BROADWAY, SALEM, NJ, 8079","No_Match",NA,NA,NA,NA
71602,"154 WEST MOORE AVENUE","GILBERT","AZ",85233,33.3770018220001,-111.793638191,102,"154 WEST MOORE AVENUE, GILBERT, AZ, 85233","Match","Exact","154 W MOORE AVE, GILBERT, AZ, 85233",128267386,"R"
71603,"154-38 11TH AVE","WHITESTONE","NY",11357,40.7922072470001,-73.806103391,103,"154-38 11TH AVE, WHITESTONE, NY, 11357","Match","Exact","154-38 11TH AVE, WHITESTONE, NY, 11357",59700731,"R"
71604,"1540 140TH AVE NE SUITE 100","BELLEVUE","WA",98005,47.623744603,-122.153662401,104,"1540 140TH AVE NE SUITE 100, BELLEVUE, WA, 98005","Match","Exact","1540 140TH AVE NE, BELLEVUE, WA, 98005",650652443,"R"
71605,"1540 14TH STREET","LOS OSOS","CA",93402,35.3235730110001,-120.82770262,105,"1540 14TH STREET, LOS OSOS, CA, 93402","Match","Exact","1540 14TH ST, LOS OSOS, CA, 93402",109729692,"R"
71606,"1540 6TH STREET EAST","SAINT PAUL","MN",55106,NA,NA,106,"1540 6TH STREET EAST, SAINT PAUL, MN, 55106","No_Match",NA,NA,NA,NA
71607,"1540 AUTUMN CREEK DRIVE","EDMOND","OK",73003,35.690752892,-97.5040685019999,107,"1540 AUTUMN CREEK DRIVE, EDMOND, OK, 73003","Match","Exact","1540 AUTUMN CREEK DR, EDMOND, OK, 73003",617260168,"L"
71608,"1540 B HOLLOWAY ROAD","HOLLAND","OH",43528,41.613248835,-83.713236652,108,"1540 B HOLLOWAY ROAD, HOLLAND, OH, 43528","Match","Exact","1540 HOLLOWAY RD, HOLLAND, OH, 43528",33954562,"R"
71609,"1540 BROADWAY FL 25","NEW YORK","NJ",10036,NA,NA,109,"1540 BROADWAY FL 25, NEW YORK, NJ, 10036","No_Match",NA,NA,NA,NA
71610,"1540 BUENA VISTA AVE STE A","ALAMEDA","CA",94501,37.776337513,-122.258706564,110,"1540 BUENA VISTA AVE STE A, ALAMEDA, CA, 94501","Match","Exact","1540 BUENA VISTA AVE, ALAMEDA, CA, 94501",125005042,"R"
71611,"1540 CALLE PENSAMIENTOS","ENCINITAS","CA",92024,33.0382539550001,-117.254709247,111,"1540 CALLE PENSAMIENTOS, ENCINITAS, CA, 92024","Match","Non_Exact","1540 CLL PENSAMIENTOS, ENCINITAS, CA, 92024",195293685,"L"
71612,"1540 CEDAR VISTA LN","NORTH LIBERTY","IA",52317,41.7625885150001,-91.5973448189999,112,"1540 CEDAR VISTA LN, NORTH LIBERTY, IA, 52317","Match","Exact","1540 CEDAR VISTA LN, NORTH LIBERTY, IA, 52317",640701997,"R"
71613,"1540 CENTERPOINT PARKWAY SUITE 202","BIRMINGHAM","AL",35215,NA,NA,113,"1540 CENTERPOINT PARKWAY SUITE 202, BIRMINGHAM, AL, 35215","No_Match",NA,NA,NA,NA
71614,"1540 CYPRESS STREET","PIERSON","FL",32180,29.1894019210001,-81.422270219,114,"1540 CYPRESS STREET, PIERSON, FL, 32180","Match","Exact","1540 CYPRESS ST, PIERSON, FL, 32180",94578560,"R"
71615,"1540 EAST 172ND  STREET STE 2A","BRONX","NY",10472,40.8312709790001,-73.8787677569999,115,"1540 EAST 172ND  STREET STE 2A, BRONX, NY, 10472","Match","Exact","1540 E 172ND ST, BRONX, NY, 10472",80303086,"R"
71616,"1540 EAST MAIN STREET","BRIDGEPORT","CT",6608,41.195681387,-73.180351263,116,"1540 EAST MAIN STREET, BRIDGEPORT, CT, 6608","Match","Exact","1540 E MAIN ST, BRIDGEPORT, CT, 06608",3224788,"R"
71617,"1540 ELIZABETH PL","CINCINNATI","OH",45237,39.1777544020001,-84.470587823,117,"1540 ELIZABETH PL, CINCINNATI, OH, 45237","Match","Exact","1540 ELIZABETH PL, CINCINNATI, OH, 45237",103928641,"L"
71618,"1540 EPIC WAY","HOPE MILLS","NC",28348,34.9262321240001,-78.895960171,118,"1540 EPIC WAY, HOPE MILLS, NC, 28348","Match","Exact","1540 EPIC WAY, HOPE MILLS, NC, 28348",638683233,"R"
71619,"1540 FACTORY RD","SUNNYSIDE","WA",98944,46.317051302,-119.949770405,119,"1540 FACTORY RD, SUNNYSIDE, WA, 98944","Match","Exact","1540 FACTORY RD, SUNNYSIDE, WA, 98944",184897853,"L"
71620,"1540 FARMSTEAD LN","DEKALB","IL",60115,41.922690178,-88.785488212,120,"1540 FARMSTEAD LN, DEKALB, IL, 60115","Match","Exact","1540 FARMSTEAD LN, DEKALB, IL, 60115",650007784,"L"
71621,"1540 FORT JOHNSON ROAD","CHARLESTON","SC",29412,32.718734446,-79.961951776,121,"1540 FORT JOHNSON ROAD, CHARLESTON, SC, 29412","Match","Exact","1540 FORT JOHNSON RD, CHARLESTON, SC, 29412",605888687,"R"
71622,"1540 FOUNTAIN RIDGE ROAD","CHAPEL HILL","NC",27517,35.9368961760001,-79.0124268019999,122,"1540 FOUNTAIN RIDGE ROAD, CHAPEL HILL, NC, 27517","Match","Exact","1540 FOUNTAIN RIDGE RD, CHAPEL HILL, NC, 27517",72380809,"L"
71623,"1540 GARLAND STREET","FLINT","MI",48505,43.0293353330001,-83.703535572,123,"1540 GARLAND STREET, FLINT, MI, 48505","Match","Non_Exact","1540 GARLAND ST, FLINT, MI, 48503",69567407,"R"
71624,"1540 GOLF CLUB DR","GLENDALE","CA",91206,34.1701183700001,-118.205077994,124,"1540 GOLF CLUB DR, GLENDALE, CA, 91206","Match","Exact","1540 GOLF CLUB DR, GLENDALE, CA, 91206",141612637,"R"
71625,"1540 GRANT STREET 31","DENVER","CO",80203,39.7407363390001,-104.983575984,125,"1540 GRANT STREET 31, DENVER, CO, 80203","Match","Exact","1540 GRANT ST, DENVER, CO, 80203",177305724,"R"
71626,"1540 GREENWICH ST    NUMBER 202","SAN","CA",94123,37.8002843580001,-122.425446405,126,"1540 GREENWICH ST    NUMBER 202, SAN, CA, 94123","Match","Non_Exact","1540 GREENWICH ST, SAN FRANCISCO, CA, 94123",652200129,"R"
71627,"1540 GREENWICH ST NUMBER 202","SAN FRANCISCO","CA",94123,37.8002843580001,-122.425446405,127,"1540 GREENWICH ST NUMBER 202, SAN FRANCISCO, CA, 94123","Match","Exact","1540 GREENWICH ST, SAN FRANCISCO, CA, 94123",652200129,"R"
71628,"1540 HEIDI TRAIL","BUCCKHEAD","GA",30625,33.5838009660001,-83.336733114,128,"1540 HEIDI TRAIL, BUCCKHEAD, GA, 30625","Match","Non_Exact","1540 HEIDI TRL, BUCKHEAD, GA, 30625",77597017,"R"
71629,"1540 HWY 138 STE 303 - SAFE HARBOR","WALL","NJ",7719,40.1725195980001,-74.054776895,129,"1540 HWY 138 STE 303 - SAFE HARBOR, WALL, NJ, 7719","Match","Non_Exact","1540 STATE RTE 138, WALL, NJ, 07719",647645628,"R"
71630,"1540 INTERNATIONAL PARKWAY STE 2000","LAKE MARY","NJ",32746,NA,NA,130,"1540 INTERNATIONAL PARKWAY STE 2000, LAKE MARY, NJ, 32746","No_Match",NA,NA,NA,NA
71631,"1540 JACKSON STREET SUITE 115","OAKLAND","CA",94612,37.803327446,-122.264427321,131,"1540 JACKSON STREET SUITE 115, OAKLAND, CA, 94612","Match","Exact","1540 JACKSON ST, OAKLAND, CA, 94612",125000913,"R"
71632,"1540 KELLY CT","WASHINGTON","MO",63090,38.5423536100001,-90.997429466,132,"1540 KELLY CT, WASHINGTON, MO, 63090","Match","Exact","1540 KELLY CT, WASHINGTON, MO, 63090",99740080,"R"
71633,"1540 KENTUCKY STREET","FERDINAND","IN",47532,38.228560939,-86.863889356,133,"1540 KENTUCKY STREET, FERDINAND, IN, 47532","Match","Exact","1540 KENTUCKY ST, FERDINAND, IN, 47532",7876168,"R"
71634,"1540 KINGS CIRCLE","LANCASTER","SC",29720,34.702708375,-80.7781724179999,134,"1540 KINGS CIRCLE, LANCASTER, SC, 29720","Match","Exact","1540 KINGS CIR, LANCASTER, SC, 29720",40693708,"L"
71635,"1540 KUSER RD STE A8","HAMILTON","NJ",8619,40.2081504560001,-74.6968940799999,135,"1540 KUSER RD STE A8, HAMILTON, NJ, 8619","Match","Exact","1540 KUSER RD, HAMILTON, NJ, 08619",60192652,"L"
71636,"1540 LIME STREET","CLEARWATER","FL",33756,27.9457764420001,-82.773424399,136,"1540 LIME STREET, CLEARWATER, FL, 33756","Match","Exact","1540 LIME ST, CLEARWATER, FL, 33756",124674895,"L"
71637,"1540 LITTLE ROAD","TRINITY","FL",34655,NA,NA,137,"1540 LITTLE ROAD, TRINITY, FL, 34655","No_Match",NA,NA,NA,NA
71638,"1540 LIVE OAK ROAD","MONTICELLO","FL",32344,30.5437402700001,-83.886304159,138,"1540 LIVE OAK ROAD, MONTICELLO, FL, 32344","Match","Exact","1540 LIVE OAK RD, MONTICELLO, FL, 32344",610850057,"R"
71639,"1540 LORELLA AVE","LA HABRA","CA",90631,33.9303863380001,-117.962820495,139,"1540 LORELLA AVE, LA HABRA, CA, 90631","Match","Exact","1540 LORELLA AVE, LA HABRA, CA, 90631",650366435,"L"
71640,"1540 LOVETT LANE","CLINTON","MS",39056,32.3916682290001,-90.314246692,140,"1540 LOVETT LANE, CLINTON, MS, 39056","Match","Exact","1540 LOVETT LN, CLINTON, MS, 39056",649598815,"L"
71641,"1540 M STREET","FRESNO","CA",93721,36.741475655,-119.79296273,141,"1540 M STREET, FRESNO, CA, 93721","Match","Exact","1540 M ST, FRESNO, CA, 93721",197579126,"R"
71642,"1540 MADISON AVENUE","LAKEWOOD","OH",44107,NA,NA,142,"1540 MADISON AVENUE, LAKEWOOD, OH, 44107","No_Match",NA,NA,NA,NA
71643,"1540 MAGNOLIA AVE","ROHNERT PARK","CA",94928,38.328745231,-122.678296793,143,"1540 MAGNOLIA AVE, ROHNERT PARK, CA, 94928","Match","Exact","1540 MAGNOLIA AVE, ROHNERT PARK, CA, 94928",67518776,"L"
71644,"1540 MAIN STREET SUITE 218-223","WINDSOR","CO",80550,40.4794456600001,-104.928092847,144,"1540 MAIN STREET SUITE 218-223, WINDSOR, CO, 80550","Match","Exact","1540 MAIN ST, WINDSOR, CO, 80550",188724165,"L"
71645,"1540 MARKLEY ROAD","PENNSBURG","PA",18073,40.3639324170001,-75.499961282,145,"1540 MARKLEY ROAD, PENNSBURG, PA, 18073","Match","Exact","1540 MARKLEY RD, PENNSBURG, PA, 18073",135123056,"R"
71646,"1540 MAURO PIETRO DR","PETALUMA","CA",94954,38.268740699,-122.651415853,146,"1540 MAURO PIETRO DR, PETALUMA, CA, 94954","Match","Exact","1540 MAURO PIETRO DR, PETALUMA, CA, 94954",67522475,"L"
71647,"1540 MECHANICAL BLVD","GARNER","NC",27529,35.7243619330001,-78.643989188,147,"1540 MECHANICAL BLVD, GARNER, NC, 27529","Match","Exact","1540 MECHANICAL BLVD, GARNER, NC, 27529",72638521,"L"
71648,"1540 MERCER AVE","COLLEGE PARK","GA",30337,33.664891169,-84.439560393,148,"1540 MERCER AVE, COLLEGE PARK, GA, 30337","Match","Exact","1540 MERCER AVE, COLLEGE PARK, GA, 30337",17348250,"L"
71649,"1540 MOUNTAIN BREEZE","CANYON LAKE","TX",78133,29.887695347,-98.176824112,149,"1540 MOUNTAIN BREEZE, CANYON LAKE, TX, 78133","Match","Exact","1540 MOUNTAIN BREEZE, CANYON LAKE, TX, 78133",72258310,"R"
71650,"1540 NE ROCKWELL DR","ESTACADA","OR",97023,45.3020806810001,-122.325496115,150,"1540 NE ROCKWELL DR, ESTACADA, OR, 97023","Match","Exact","1540 NE ROCKWELL DR, ESTACADA, OR, 97023",627874697,"R"
71651,"1540 NW 9TH AVE","FORT LAUDERDALE","FL",33311,26.1461526030001,-80.154142284,151,"1540 NW 9TH AVE, FORT LAUDERDALE, FL, 33311","Match","Non_Exact","1540 NW 9TH AVE, FORT LAUDERDALE, FL, 33311",114720586,"R"
71652,"1540 NW AVENUE L SUITE 104","BELLE GLADE","FL",33430,26.6967833940001,-80.683219343,152,"1540 NW AVENUE L SUITE 104, BELLE GLADE, FL, 33430","Match","Non_Exact","1540 NW AVE L, BELLE GLADE, FL, 33430",115246309,"R"
71653,"1540 OVERLOOK CIRCLE","SHELBYVILLE","KY",40065,38.2003390940001,-85.168711171,153,"1540 OVERLOOK CIRCLE, SHELBYVILLE, KY, 40065","Match","Exact","1540 OVERLOOK CIR, SHELBYVILLE, KY, 40065",619690972,"L"
71654,"1540 PELHAM PARKWAY SOUTH APT 3E","BRONX","NY",10461,40.856962346,-73.842514315,154,"1540 PELHAM PARKWAY SOUTH APT 3E, BRONX, NY, 10461","Match","Exact","1540 PELHAM PKWY S, BRONX, NY, 10461",640814117,"R"
71655,"1540 PELHAM PARKWAY SOUTH APT 6B","BRONX","NY",10461,40.856962346,-73.842514315,155,"1540 PELHAM PARKWAY SOUTH APT 6B, BRONX, NY, 10461","Match","Exact","1540 PELHAM PKWY S, BRONX, NY, 10461",640814117,"R"
71656,"1540 POINTER RIDGE PLACE UNIT C","BOWIE","MD",20716,38.909878108,-76.718952649,156,"1540 POINTER RIDGE PLACE UNIT C, BOWIE, MD, 20716","Match","Exact","1540 POINTER RIDGE PL, BOWIE, MD, 20716",76400931,"L"
71657,"1540 ROSWELL MANOR CIR","ROSWELL","GA",30076,34.024726984,-84.314537794,157,"1540 ROSWELL MANOR CIR, ROSWELL, GA, 30076","Match","Exact","1540 ROSWELL MANOR CIR, ROSWELL, GA, 30076",648154522,"L"
71658,"1540 ROUTE 202 STE 3","POMONO","NY",10970,NA,NA,158,"1540 ROUTE 202 STE 3, POMONO, NY, 10970","No_Match",NA,NA,NA,NA
71659,"1540 RTE 202 STE 3","POMONO","NY",10970,NA,NA,159,"1540 RTE 202 STE 3, POMONO, NY, 10970","No_Match",NA,NA,NA,NA
71660,"1540 S 8TH ST  UNIT 38603","COLORADO SPRINGS","CO",80905,NA,NA,160,"1540 S 8TH ST  UNIT 38603, COLORADO SPRINGS, CO, 80905","No_Match",NA,NA,NA,NA
71661,"1540 S TELLURIDE ST","AURORA","CO",80017,39.69012688,-104.781985365,161,"1540 S TELLURIDE ST, AURORA, CO, 80017","Match","Exact","1540 S TELLURIDE ST, AURORA, CO, 80017",177356566,"L"
71662,"1540 SALEM ST","LAKEWOOD","NJ",8701,40.055849784,-74.200330444,162,"1540 SALEM ST, LAKEWOOD, NJ, 8701","Match","Exact","1540 SALEM ST, LAKEWOOD, NJ, 08701",203724408,"R"
71663,"1540 SANDYBROOK LANE","WAKE FOREST","NC",27587,36.0027957890001,-78.594454388,163,"1540 SANDYBROOK LANE, WAKE FOREST, NC, 27587","Match","Exact","1540 SANDYBROOK LN, WAKE FOREST, NC, 27587",648792965,"R"
71664,"1540 SE 93RD ST","WAKARUSA","KS",66546,38.8990581510001,-95.656734887,164,"1540 SE 93RD ST, WAKARUSA, KS, 66546","Match","Exact","1540 SE 93RD ST, WAKARUSA, KS, 66546",17906486,"L"
71665,"1540 SOUTH CLEVELAND-MASSILLON RD","COPLEY","OH",44321,41.0961384230001,-81.644621407,165,"1540 SOUTH CLEVELAND-MASSILLON RD, COPLEY, OH, 44321","Match","Non_Exact","1540 S CLEVELAND MASSILLON RD, COPLEY, OH, 44321",61362250,"R"
71666,"1540 SOUTHWEST EXPY UNIT 245","SAN JOSE","CA",95126,37.3093363950001,-121.918899059,166,"1540 SOUTHWEST EXPY UNIT 245, SAN JOSE, CA, 95126","Match","Exact","1540 SOUTHWEST EXPY, SAN JOSE, CA, 95126",122905877,"L"
71667,"1540 SOUYH 13TH STREET","PHILADELPHIA","PA",19147,NA,NA,167,"1540 SOUYH 13TH STREET, PHILADELPHIA, PA, 19147","No_Match",NA,NA,NA,NA
71668,"1540 SW 189TH AVE","PEMBROKE PINES","FL",33029,25.995317856,-80.399890253,168,"1540 SW 189TH AVE, PEMBROKE PINES, FL, 33029","Match","Exact","1540 SW 189TH AVE, PEMBROKE PINES, FL, 33029",114781090,"R"
71669,"1540 THOMPSON AVE","BETHLEHEM","PA",18017,40.659775487,-75.350889402,169,"1540 THOMPSON AVE, BETHLEHEM, PA, 18017","Match","Exact","1540 THOMPSON AVE, BETHLEHEM, PA, 18017",136906735,"R"
71670,"1540 VINE STREET UNIT 737","LOS ANGELES","CA",90028,34.0987551530001,-118.326651484,170,"1540 VINE STREET UNIT 737, LOS ANGELES, CA, 90028","Match","Exact","1540 VINE ST, LOS ANGELES, CA, 90028",141594939,"R"
71671,"1540 W  RICHMOND STREET","ARLINGTON HEIGHTS","IL",60004,42.1130941120001,-88.00161507,171,"1540 W  RICHMOND STREET, ARLINGTON HEIGHTS, IL, 60004","Match","Exact","1540 RICHMOND ST, ARLINGTON HEIGHTS, IL, 60004",112385291,"L"
71672,"1540 W 12TH AVE","HUTCHINSON","KS",67501,38.0664661490001,-97.960405505,172,"1540 W 12TH AVE, HUTCHINSON, KS, 67501","Match","Exact","1540 W 12TH AVE, HUTCHINSON, KS, 67501",142934101,"L"
71673,"1540 W 14TH ST","RIVIERA BEACH","FL",33404,26.7749874580001,-80.081308453,173,"1540 W 14TH ST, RIVIERA BEACH, FL, 33404","Match","Exact","1540 W 14TH ST, RIVIERA BEACH, FL, 33404",115268421,"R"
71674,"1540 W BROADWAY","IDAHO FALLS","ID",83402,43.4967824290001,-112.060528246,174,"1540 W BROADWAY, IDAHO FALLS, ID, 83402","Match","Non_Exact","1540 W BROADWAY ST, IDAHO FALLS, ID, 83402",614566272,"L"
71675,"1540 WALNUT STREET","BERKELEY","CA",94709,37.8795632480001,-122.268137738,175,"1540 WALNUT STREET, BERKELEY, CA, 94709","Match","Exact","1540 WALNUT ST, BERKELEY, CA, 94709",124993888,"R"
71676,"1540 WALPOLE DRIVE","CHESTERFIELD","MO",63017,38.6468245670001,-90.571159645,176,"1540 WALPOLE DRIVE, CHESTERFIELD, MO, 63017","Match","Exact","1540 WALPOLE DR, CHESTERFIELD, MO, 63017",635627796,"L"
71677,"1540 WEST 29TH STREET","RIVIERA BEACH","FL",33404,26.786566722,-80.079443592,177,"1540 WEST 29TH STREET, RIVIERA BEACH, FL, 33404","Match","Exact","1540 W 29TH ST, RIVIERA BEACH, FL, 33404",115267722,"R"
71678,"1540 WOODMORE DRIVE SW","MARIETTA","GA",30008,33.875948511,-84.599054537,178,"1540 WOODMORE DRIVE SW, MARIETTA, GA, 30008","Match","Exact","1540 WOODMORE DR SW, MARIETTA, GA, 30008",17223528,"R"
71679,"1540","ST PAUL","MN",55106,NA,NA,179,"1540, ST PAUL, MN, 55106","No_Match",NA,NA,NA,NA
71680,"15400 BLUE WILLOW LANE","ACCOKEEK","MD",20607,38.680122602,-77.006377476,180,"15400 BLUE WILLOW LANE, ACCOKEEK, MD, 20607","Match","Exact","15400 BLUE WILLOW LN, ACCOKEEK, MD, 20607",76349042,"R"
71681,"15400 CALHOUN DRIVE SUITE 125","ROCKVILLE","MD",20855,39.106530752,-77.149171204,181,"15400 CALHOUN DRIVE SUITE 125, ROCKVILLE, MD, 20855","Match","Exact","15400 CALHOUN DR, ROCKVILLE, MD, 20855",62054594,"R"
71682,"15400 EAST 48TH STREET","KANSAS CITY","MO",64136,39.033181002,-94.399436561,182,"15400 EAST 48TH STREET, KANSAS CITY, MO, 64136","Match","Exact","15400 E 48TH ST, KANSAS CITY, MO, 64136",91510687,"L"
71683,"15400 GRAND RIVER -  2ND FLOOR","DETROIT","MI",48227,42.3922532330001,-83.19735494,183,"15400 GRAND RIVER -  2ND FLOOR, DETROIT, MI, 48227","Match","Non_Exact","15400 GRAND RIVER AVE, DETROIT, MI, 48227",95441420,"R"
71684,"15400 GRAND RIVER AVE  SECOND FLOOR","DETROIT","MI",48227,42.3922532330001,-83.19735494,184,"15400 GRAND RIVER AVE  SECOND FLOOR, DETROIT, MI, 48227","Match","Exact","15400 GRAND RIVER AVE, DETROIT, MI, 48227",95441420,"R"
71685,"15400 GRAND RIVER","DETROIT","MI",48227,42.3922532330001,-83.19735494,185,"15400 GRAND RIVER, DETROIT, MI, 48227","Match","Non_Exact","15400 GRAND RIVER AVE, DETROIT, MI, 48227",95441420,"R"
71686,"15400 GRANDRIVER AVE 2ND FLOOR","DETROIT","MI",48223,42.3922532330001,-83.19735494,186,"15400 GRANDRIVER AVE 2ND FLOOR, DETROIT, MI, 48223","Match","Non_Exact","15400 GRAND RIVER AVE, DETROIT, MI, 48227",95441420,"R"
71687,"15400 LOOKOUT RD         SUITE 1032","LIVE OAK","TX",78233,29.580645335,-98.338473183,187,"15400 LOOKOUT RD         SUITE 1032, LIVE OAK, TX, 78233","Match","Exact","15400 LOOKOUT RD, LIVE OAK, TX, 78233",649455652,"R"
71688,"15400 MEADOW ST","SOUTHGATE","MI",48195,42.2219052510001,-83.2109486539999,188,"15400 MEADOW ST, SOUTHGATE, MI, 48195","Match","Non_Exact","15400 MEADOW, SOUTHGATE, MI, 48195",631746997,"R"
71689,"15400 NE 6 AVE APT 108","MIAMI","FL",33162,25.916718895,-80.187706761,189,"15400 NE 6 AVE APT 108, MIAMI, FL, 33162","Match","Non_Exact","15400 NE 6TH AVE, MIAMI, FL, 33162",609040447,"L"
71690,"15400 NE 88TH STREET","VANCOUVER","WA",98682,45.6866144260001,-122.514436543,190,"15400 NE 88TH STREET, VANCOUVER, WA, 98682","Match","Exact","15400 NE 88TH ST, VANCOUVER, WA, 98682",158357901,"L"
71691,"15400 OAKFIELD","DETROIT","MI",48227,42.4031350160001,-83.2143235189999,191,"15400 OAKFIELD, DETROIT, MI, 48227","Match","Non_Exact","15400 OAKFIELD ST, DETROIT, MI, 48227",95423459,"R"
71692,"15400 PEARL ROAD SUITE 200","STRONGSVILLE","OH",44136,41.3035946800001,-81.8352212619999,192,"15400 PEARL ROAD SUITE 200, STRONGSVILLE, OH, 44136","Match","Exact","15400 PEARL RD, STRONGSVILLE, OH, 44136",61157405,"R"
71693,"15401 ANACAPA RD UNIT 1","VICTORVILLE","CA",92392,34.5047893010001,-117.326283894,193,"15401 ANACAPA RD UNIT 1, VICTORVILLE, CA, 92392","Match","Exact","15401 ANACAPA RD, VICTORVILLE, CA, 92392",144573846,"L"
71694,"15401 HONEA RD WEST","MONTGOMERY","TX",77316,30.2933899110001,-95.603430875,194,"15401 HONEA RD WEST, MONTGOMERY, TX, 77316","Match","Exact","15401 HONEA RD W, MONTGOMERY, TX, 77316",79296318,"L"
71695,"15401 LEMAY STREET","LOS ANGELES","CA",91406,34.1921063400001,-118.46843202,195,"15401 LEMAY STREET, LOS ANGELES, CA, 91406","Match","Non_Exact","15401 LEMAY ST, LAKE BALBOA, CA, 91406",141560078,"R"
71696,"15401 W NATIONAL AVE","NEW BERLIN","WI",53151,42.977754227,-88.106267346,196,"15401 W NATIONAL AVE, NEW BERLIN, WI, 53151","Match","Exact","15401 W NATIONAL AVE, NEW BERLIN, WI, 53151",625323311,"L"
71697,"15402 PEBBLE LAKE DRIVE","HOUSTON","TX",77095,29.905328291,-95.637166974,197,"15402 PEBBLE LAKE DRIVE, HOUSTON, TX, 77095","Match","Exact","15402 PEBBLE LAKE DR, HOUSTON, TX, 77095",96004936,"L"
71698,"15402 SW 144TH TERRACE","PORTLAND","OR",97224,45.4083509280001,-122.824759584,198,"15402 SW 144TH TERRACE, PORTLAND, OR, 97224","Match","Exact","15402 SW 144TH TER, PORTLAND, OR, 97224",605222585,"L"
71699,"15402 W SAGE SUITE 104","VICTORVILLE","CA",92392,34.5120898220001,-117.328374156,199,"15402 W SAGE SUITE 104, VICTORVILLE, CA, 92392","Match","Non_Exact","15402 SAGE ST, VICTORVILLE, CA, 92392",640052125,"R"
71700,"15403 ELM STREET","SOUTH HOLLAND","IL",60473,41.615030646,-87.606175622,200,"15403 ELM STREET, SOUTH HOLLAND, IL, 60473","Match","Exact","15403 ELM ST, SOUTH HOLLAND, IL, 60473",111778646,"L"
71701,"15403 FIRWOOD LN","CYPRESS","TX",77429,NA,NA,201,"15403 FIRWOOD LN, CYPRESS, TX, 77429","No_Match",NA,NA,NA,NA
71702,"15403 NE 108TH WAY","VANCOUVER","WA",98604,45.7006217110001,-122.514046977,202,"15403 NE 108TH WAY, VANCOUVER, WA, 98604","Match","Non_Exact","15403 NE 108TH WAY, VANCOUVER, WA, 98682",652110689,"L"
71703,"15404 AZALEA CT","EMMITSBURG","MD",21727,39.6573646050001,-77.357096058,203,"15404 AZALEA CT, EMMITSBURG, MD, 21727","Match","Exact","15404 AZALEA CT, EMMITSBURG, MD, 21727",60701608,"L"
71704,"15404 FERNHILL DR","AUSTIN","TX",78717,30.4952587600001,-97.763177487,204,"15404 FERNHILL DR, AUSTIN, TX, 78717","Match","Exact","15404 FERNHILL DR, AUSTIN, TX, 78717",638667655,"L"
71705,"15405 CREEK VIEW DR","EDMOND","OK",73013,35.6268701650001,-97.623296363,205,"15405 CREEK VIEW DR, EDMOND, OK, 73013","Match","Exact","15405 CREEK VIEW DR, EDMOND, OK, 73013",625280047,"L"
71706,"15405 JOST ESTATES DRIVE","ST LOUIS","MO",63034,38.821794461,-90.3032887809999,206,"15405 JOST ESTATES DRIVE, ST LOUIS, MO, 63034","Match","Non_Exact","15405 JOST ESTATES DR, FLORISSANT, MO, 63034",636196547,"R"
71707,"15405 LUCILLE STREET","OVERLAND PARK","KS",66221,38.8491981490001,-94.720014035,207,"15405 LUCILLE STREET, OVERLAND PARK, KS, 66221","Match","Exact","15405 LUCILLE ST, OVERLAND PARK, KS, 66221",641683049,"L"
71708,"15405 SW 288TH STREET","HOMESTEAD","FL",33426,25.499385358,-80.441089285,208,"15405 SW 288TH STREET, HOMESTEAD, FL, 33426","Match","Non_Exact","15405 SW 288TH ST, HOMESTEAD, FL, 33033",115988718,"R"
71709,"15406 CUMRIDGE LANE APT B","NORTH LITTLE ROCK","AR",72117,34.8316283990001,-92.1702092149999,209,"15406 CUMRIDGE LANE APT B, NORTH LITTLE ROCK, AR, 72117","Match","Exact","15406 CUMRIDGE LN, N LITTLE ROCK, AR, 72117",83603172,"R"
71710,"15406 S LEXINGTON AVENUE","HARVEY","IL",60426,41.6097022870001,-87.64945281,210,"15406 S LEXINGTON AVENUE, HARVEY, IL, 60426","Match","Exact","15406 LEXINGTON AVE, HARVEY, IL, 60426",605700320,"R"
71711,"15407 ABBEY CHASE COURT","HOUSTON","TX",77095,29.9114867000001,-95.637207581,211,"15407 ABBEY CHASE COURT, HOUSTON, TX, 77095","Match","Exact","15407 ABBEY CHASE CT, HOUSTON, TX, 77095",96292264,"R"
71712,"15407 AIROLE WAY","SAN ANTONIO","TX",78232,29.5812502370001,-98.452320979,212,"15407 AIROLE WAY, SAN ANTONIO, TX, 78232","Match","Exact","15407 AIROLE WAY, SAN ANTONIO, TX, 78232",101498123,"L"
71713,"15407 AVON BELDEN RD","GRAFTON","OH",44044,41.2625799830001,-82.022297997,213,"15407 AVON BELDEN RD, GRAFTON, OH, 44044","Match","Exact","15407 AVON BELDEN RD, GRAFTON, OH, 44044",55436851,"L"
71714,"15407 NC HIGHWAY 94 N","ROPER","NC",27970,35.9207979560001,-76.492403195,214,"15407 NC HIGHWAY 94 N, ROPER, NC, 27970","Match","Non_Exact","15407 STATE HWY 94 N, ROPER, NC, 27970",18680829,"L"
71715,"15408 BREWSTER ROAD","EAST CLEVELAND","OH",44112,41.5284500880001,-81.572853778,215,"15408 BREWSTER ROAD, EAST CLEVELAND, OH, 44112","Match","Exact","15408 BREWSTER RD, EAST CLEVELAND, OH, 44112",61121831,"R"
71716,"15408 NEMAN DR","BOWIE","MD",20716,38.927097567,-76.736843892,216,"15408 NEMAN DR, BOWIE, MD, 20716","Match","Exact","15408 NEMAN DR, BOWIE, MD, 20716",76331317,"R"
71717,"15408 NEW LIGHT CHURCH RD","WAKE FOREST","NC",27587,NA,NA,217,"15408 NEW LIGHT CHURCH RD, WAKE FOREST, NC, 27587","No_Match",NA,NA,NA,NA
71718,"15409 ANACAPA RD STE F","VICTORVILLE","CA",92392,34.5047959410001,-117.326218228,218,"15409 ANACAPA RD STE F, VICTORVILLE, CA, 92392","Match","Exact","15409 ANACAPA RD, VICTORVILLE, CA, 92392",144573846,"L"
71719,"1540B HOLLOWAY","HOLLAND","OH",43528,41.613248835,-83.713236652,219,"1540B HOLLOWAY, HOLLAND, OH, 43528","Match","Non_Exact","1540 HOLLOWAY RD, HOLLAND, OH, 43528",33954562,"R"
71720,"1541 3RD ST NE","ROCHESTER","MN",55906,44.026370478,-92.4426926,220,"1541 3RD ST NE, ROCHESTER, MN, 55906","Match","Exact","1541 3RD ST NE, ROCHESTER, MN, 55906",30553763,"L"
71721,"1541 AUTUMN RIDGE CIRCLE","RESTON","VA",20194,38.976893605,-77.35668119,221,"1541 AUTUMN RIDGE CIRCLE, RESTON, VA, 20194","Match","Exact","1541 AUTUMN RIDGE CIR, RESTON, VA, 20194",635445089,"L"
71722,"1541 BROWN OWL DRIVE","RALEIGH","NC",27610,35.7550854670001,-78.566444036,222,"1541 BROWN OWL DRIVE, RALEIGH, NC, 27610","Match","Exact","1541 BROWN OWL DR, RALEIGH, NC, 27610",619263573,"L"
71723,"1541 CHURCH ROAD","BEAR","DE",19701,39.6081213050001,-75.667085485,223,"1541 CHURCH ROAD, BEAR, DE, 19701","Match","Exact","1541 CHURCH RD, BEAR, DE, 19701",187269170,"L"
71724,"1541 CULPEPPER LANE","MCDONOUGH","GA",30253,33.44816568,-84.1870301229999,224,"1541 CULPEPPER LANE, MCDONOUGH, GA, 30253","Match","Exact","1541 CULPEPPER LN, MCDONOUGH, GA, 30253",619916157,"L"
71725,"1541 DAIRY ROAD","CHARLOTTESVILLE","VA",22903,38.0539659130001,-78.48528128,225,"1541 DAIRY ROAD, CHARLOTTESVILLE, VA, 22903","Match","Exact","1541 DAIRY RD, CHARLOTTESVILLE, VA, 22903",83406697,"L"
71726,"1541 E COOKE RD","COLUMBUS","OH",43224,40.0455246000001,-82.974206234,226,"1541 E COOKE RD, COLUMBUS, OH, 43224","Match","Exact","1541 E COOKE RD, COLUMBUS, OH, 43224",135571418,"R"
71727,"1541 E INTERSTATE 30 STE 140","ROCKWALL","TX",75087,NA,NA,227,"1541 E INTERSTATE 30 STE 140, ROCKWALL, TX, 75087","No_Match",NA,NA,NA,NA
71728,"1541 EAST 191ST STE 245","EUCLID","OH",44117,41.560796254,-81.549075719,228,"1541 EAST 191ST STE 245, EUCLID, OH, 44117","Match","Non_Exact","1541 E 191ST ST, EUCLID, OH, 44117",650120111,"L"
71729,"1541 EAST FRONT STREET","SCOTCH PLAINS","NJ",7076,40.643887906,-74.4051723979999,229,"1541 EAST FRONT STREET, SCOTCH PLAINS, NJ, 7076","Match","Non_Exact","1541 FRONT ST, SCOTCH PLAINS, NJ, 07076",60567204,"L"
71730,"1541 FIRST STREET NW","WASHINGTON","DC",20001,38.9105768470001,-77.012153223,230,"1541 FIRST STREET NW, WASHINGTON, DC, 20001","Match","Exact","1541 1ST ST NW, WASHINGTON, DC, 20001",76226492,"R"
71731,"1541 HARLAN DRIVE","DANVILLE","CA",94526,37.7921693110001,-121.971007182,231,"1541 HARLAN DRIVE, DANVILLE, CA, 94526","Match","Exact","1541 HARLAN DR, DANVILLE, CA, 94526",192065478,"R"
71732,"1541 HENDERSON SCHOOL ROAD NE","NEW PHILADELPHIA","OH",44663,40.5004933970001,-81.3547959159999,232,"1541 HENDERSON SCHOOL ROAD NE, NEW PHILADELPHIA, OH, 44663","Match","Exact","1541 HENDERSON SCHOOL RD NE, NEW PHILADELPHIA, OH, 44663",612301407,"R"
71733,"1541 HOOHULU ST","PEARL CITY","HI",96782,21.401595887,-157.958907681,233,"1541 HOOHULU ST, PEARL CITY, HI, 96782","Match","Exact","1541 HOOHULU ST, PEARL CITY, HI, 96782",203228714,"R"
71734,"1541 KEYES ROAD","RAMONA","CA",92065,33.0294994290001,-116.849250446,234,"1541 KEYES ROAD, RAMONA, CA, 92065","Match","Exact","1541 KEYES RD, RAMONA, CA, 92065",195726398,"R"
71735,"1541 LOWER STATE ROAD","DOYLESTOWN","PA",18901,40.2739164050001,-75.160623261,235,"1541 LOWER STATE ROAD, DOYLESTOWN, PA, 18901","Match","Exact","1541 LOWER STATE RD, DOYLESTOWN, PA, 18901",134772428,"R"
71736,"1541 MEDFORD DRIVE","LOS ALTOS","CA",94024,37.353996771,-122.067380421,236,"1541 MEDFORD DRIVE, LOS ALTOS, CA, 94024","Match","Exact","1541 MEDFORD DR, LOS ALTOS, CA, 94024",122935415,"L"
71737,"1541 MIDDLESEX STREET UNIT 5","LOWELL","MA",1851,42.6369395610001,-71.347073305,237,"1541 MIDDLESEX STREET UNIT 5, LOWELL, MA, 1851","Match","Exact","1541 MIDDLESEX ST, LOWELL, MA, 01851",648107885,"R"
71738,"1541 MIMOSA ST","HOLLISTER","CA",95023,36.8240773900001,-121.375589864,238,"1541 MIMOSA ST, HOLLISTER, CA, 95023","Match","Exact","1541 MIMOSA ST, HOLLISTER, CA, 95023",125455039,"L"
71739,"1541 N ENCOURE WAY","CLOVIS","CA",93619,36.858333655,-119.647438149,239,"1541 N ENCOURE WAY, CLOVIS, CA, 93619","Match","Exact","1541 N ENCOURE WAY, CLOVIS, CA, 93619",642194087,"R"
71740,"1541 N HARVARD BLVD SUITE 2","LOS ANGELES","CA",90027,34.099029542,-118.304352306,240,"1541 N HARVARD BLVD SUITE 2, LOS ANGELES, CA, 90027","Match","Non_Exact","1541 N HARVARD BLVD, LOS ANGELES, CA, 90027",141597344,"L"
71741,"1541 N HARVARD BLVD SUITE 3","LOS ANGELES","CA",90027,34.099029542,-118.304352306,241,"1541 N HARVARD BLVD SUITE 3, LOS ANGELES, CA, 90027","Match","Non_Exact","1541 N HARVARD BLVD, LOS ANGELES, CA, 90027",141597344,"L"
71742,"1541 NE 9TH CT","HOMESTEAD","FL",33033,25.4791723550001,-80.4563592009999,242,"1541 NE 9TH CT, HOMESTEAD, FL, 33033","Match","Exact","1541 NE 9TH CT, HOMESTEAD, FL, 33033",115992713,"L"
71743,"1541 NE HOLMAN ST","PORTLAND","OR",97211,45.568439799,-122.649591232,243,"1541 NE HOLMAN ST, PORTLAND, OR, 97211","Match","Exact","1541 NE HOLMAN ST, PORTLAND, OR, 97211",157502715,"L"
71744,"1541 NORTHGATE ROAD","BALTIMORE","MD",21218,39.345169239,-76.5906474729999,244,"1541 NORTHGATE ROAD, BALTIMORE, MD, 21218","Match","Exact","1541 NORTHGATE RD, BALTIMORE, MD, 21218",206437348,"R"
71745,"1541 NW 1ST COURT","MIAMI","FL",33136,25.789774724,-80.1975667149999,245,"1541 NW 1ST COURT, MIAMI, FL, 33136","Match","Exact","1541 NW 1ST CT, MIAMI, FL, 33136",116017656,"R"
71746,"1541 NW 31 STREET","MIAMI","FL",33142,25.8054314570001,-80.2222349049999,246,"1541 NW 31 STREET, MIAMI, FL, 33142","Match","Exact","1541 NW 31ST ST, MIAMI, FL, 33142",116005334,"R"
71747,"1541 NW 31ST AVE","MIAMI","FL",33125,25.788431557,-80.2465979,247,"1541 NW 31ST AVE, MIAMI, FL, 33125","Match","Exact","1541 NW 31ST AVE, MIAMI, FL, 33125",116011084,"R"
71748,"1541 NW 45TH STREET","OKLAHOMA CITY","OK",73118,35.5177938520001,-97.537508008,248,"1541 NW 45TH STREET, OKLAHOMA CITY, OK, 73118","Match","Exact","1541 NW 45TH ST, OKLAHOMA CITY, OK, 73118",100397305,"R"
71749,"1541 OLIVE AVENUE","FREMONT","CA",94539,37.5349896820001,-121.936724623,249,"1541 OLIVE AVENUE, FREMONT, CA, 94539","Match","Exact","1541 OLIVE AVE, FREMONT, CA, 94539",125033665,"R"
71750,"1541 ORMOND DRIVE","CORPUS CHRISTI","TX",78415,27.7472113210001,-97.404059288,250,"1541 ORMOND DRIVE, CORPUS CHRISTI, TX, 78415","Match","Exact","1541 ORMOND DR, CORPUS CHRISTI, TX, 78415",178519062,"R"
71751,"1541 OXFORD COURT","WEST COVINA","CA",91791,34.046924416,-117.909992422,251,"1541 OXFORD COURT, WEST COVINA, CA, 91791","Match","Exact","1541 OXFORD CT, WEST COVINA, CA, 91791",141716406,"L"
71752,"1541 PAGE STREET","PHILADELPHIA","PA",19121,39.9839605330001,-75.159141113,252,"1541 PAGE STREET, PHILADELPHIA, PA, 19121","Match","Exact","1541 PAGE ST, PHILADELPHIA, PA, 19121",131421577,"R"
71753,"1541 PUCKER STREET","STOWE","VT",5672,44.479281514,-72.66503153,253,"1541 PUCKER STREET, STOWE, VT, 5672","Match","Exact","1541 PUCKER ST, STOWE, VT, 05672",136630159,"L"
71754,"1541 RICHMOND ROAD","COLUMBUS","OH",43223,39.92730606,-83.036980682,254,"1541 RICHMOND ROAD, COLUMBUS, OH, 43223","Match","Exact","1541 RICHMOND RD, COLUMBUS, OH, 43223",641100767,"R"
71755,"1541 RIDGEVIEW LANE","HARRISBURG","PA",17110,40.31256383,-76.877578496,255,"1541 RIDGEVIEW LANE, HARRISBURG, PA, 17110","Match","Exact","1541 RIDGEVIEW LN, HARRISBURG, PA, 17110",636360245,"R"
71756,"1541 ROUTE 376","WAPPINGERS FALLS","NY",12590,41.6229300480001,-73.8713502369999,256,"1541 ROUTE 376, WAPPINGERS FALLS, NY, 12590","Match","Non_Exact","1541 STATE RTE 376, WAPPINGERS FALLS, NY, 12590",640455911,"R"
71757,"1541 S ARDMORE AVENUE","VILLA PARK","IL",60181,41.861638441,-87.97797343,257,"1541 S ARDMORE AVENUE, VILLA PARK, IL, 60181","Match","Exact","1541 S ARDMORE AVE, VILLA PARK, IL, 60181",112686831,"L"
71758,"1541 S MARTIN LUTHER KING JR DR","WINSTON SALEM","NC",27107,36.0781976700001,-80.22033442,258,"1541 S MARTIN LUTHER KING JR DR, WINSTON SALEM, NC, 27107","Match","Non_Exact","1541 S MARTIN LUTHER KING JR DR SE, WINSTON SALEM, NC, 27107",84679670,"L"
71759,"1541 SE PORT SAINT LUCIE BLVD","PORT ST LUCIE","FL",34952,27.271266805,-80.305463391,259,"1541 SE PORT SAINT LUCIE BLVD, PORT ST LUCIE, FL, 34952","Match","Exact","1541 SE PORT ST LUCIE BLVD, PORT ST LUCIE, FL, 34952",640023468,"L"
71760,"1541 SOUTH CALIFORNIA","COMPTON","CA",90221,33.882264869,-118.211032202,260,"1541 SOUTH CALIFORNIA, COMPTON, CA, 90221","Match","Non_Exact","1541 S CALIFORNIA AVE, COMPTON, CA, 90221",141682677,"R"
71761,"1541 SOUTH ROBERTSON BOULEVARD","LOS ANGELES","CA",90035,34.0512387540001,-118.384231274,261,"1541 SOUTH ROBERTSON BOULEVARD, LOS ANGELES, CA, 90035","Match","Exact","1541 S ROBERTSON BLVD, LOS ANGELES, CA, 90035",141573044,"R"
71762,"1541 STARCROSS RD","YORK","PA",17403,39.935624707,-76.716986215,262,"1541 STARCROSS RD, YORK, PA, 17403","Match","Exact","1541 STARCROSS RD, YORK, PA, 17403",615133519,"L"
71763,"1541 TAFT ST","EUGENE","OR",97402,44.078440749,-123.155423534,263,"1541 TAFT ST, EUGENE, OR, 97402","Match","Exact","1541 TAFT ST, EUGENE, OR, 97402",178163946,"R"
71764,"1541 W JEFFERSON BLVD","LOS ANGELES","CA",90018,34.025511314,-118.301833391,264,"1541 W JEFFERSON BLVD, LOS ANGELES, CA, 90018","Match","Exact","1541 W JEFFERSON BLVD, LOS ANGELES, CA, 90018",141606134,"R"
71765,"1541 WINCHESTER AVE","MARTINSBURG","WV",25401,39.426835442,-77.987106587,265,"1541 WINCHESTER AVE, MARTINSBURG, WV, 25401","Match","Non_Exact","1541 WINCHESTER AVE, MARTINSBURG, WV, 25405",123380340,"L"
71766,"1541 WITTEKIND TERRACE","CINCINNATI","OH",45224,39.20604616,-84.5448680009999,266,"1541 WITTEKIND TERRACE, CINCINNATI, OH, 45224","Match","Exact","1541 WITTEKIND TER, CINCINNATI, OH, 45224",103921089,"L"
71767,"1541-59 NORTH 61ST STREET","PHILADELPHIA","PA",19151,39.9748511780001,-75.241619714,267,"1541-59 NORTH 61ST STREET, PHILADELPHIA, PA, 19151","Match","Exact","1541 N 61ST ST, PHILADELPHIA, PA, 19151",131397256,"R"
71768,"15410 GATWICK AVE","FONTANA","CA",92336,34.1314073290001,-117.468511423,268,"15410 GATWICK AVE, FONTANA, CA, 92336","Match","Exact","15410 GATWICK AVE, FONTANA, CA, 92336",144991313,"L"
71769,"15410 HIGHWAY 231","UNION GROVE","AL",35175,34.460144255,-86.558306207,269,"15410 HIGHWAY 231, UNION GROVE, AL, 35175","Match","Non_Exact","15410 US HWY 231, UNION GROVE, AL, 35175",635554957,"R"
71770,"15410 ROBIN GROVE CT","CYPRESS","TX",77433,29.9971984260001,-95.7427761549999,270,"15410 ROBIN GROVE CT, CYPRESS, TX, 77433","Match","Exact","15410 ROBIN GROVE CT, CYPRESS, TX, 77433",96161602,"R"
71771,"15410 S W 108 AVE","MIAMI","FL",33157,25.625971957,-80.368098188,271,"15410 S W 108 AVE, MIAMI, FL, 33157","Match","Exact","15410 SW 108TH AVE, MIAMI, FL, 33157",115982057,"R"
71772,"15410 SILVAN GLEN DR","DUMFRIES","VA",22025,38.618449356,-77.345122142,272,"15410 SILVAN GLEN DR, DUMFRIES, VA, 22025","Match","Exact","15410 SILVAN GLEN DR, DUMFRIES, VA, 22025",76508945,"R"
71773,"15411 OLD STONE TRAIL","HOUSTON","TX",77079,29.7756931810001,-95.627315282,273,"15411 OLD STONE TRAIL, HOUSTON, TX, 77079","Match","Exact","15411 OLD STONE TRL, HOUSTON, TX, 77079",96291159,"R"
71774,"15411 S WILLIAMS AVE","COMPTON","CA",90221,33.8933029740001,-118.189907645,274,"15411 S WILLIAMS AVE, COMPTON, CA, 90221","Match","Exact","15411 S WILLIAMS AVE, COMPTON, CA, 90221",141683507,"R"
71775,"15411 STONERIDGE CT","SPRING LAKE","MI",49456,43.0654207960001,-86.171764877,275,"15411 STONERIDGE CT, SPRING LAKE, MI, 49456","Match","Exact","15411 STONERIDGE CT, SPRING LAKE, MI, 49456",71099081,"R"
71776,"15411 SYMONDSBURY WAY","UPPER MARLBORO","MD",20774,38.8534903170001,-76.738421678,276,"15411 SYMONDSBURY WAY, UPPER MARLBORO, MD, 20774","Match","Exact","15411 SYMONDSBURY WAY, UPPER MARLBORO, MD, 20774",76417225,"R"
71777,"15411 TUTBURY CIRCLE","HOUSTON","TX",77044,29.929463261,-95.1781143969999,277,"15411 TUTBURY CIRCLE, HOUSTON, TX, 77044","Match","Non_Exact","15411 TUTBORY CIR, HOUSTON, TX, 77044",96427647,"L"
71778,"15411 W WADDELL RD STE 106","SURPRISE","AZ",85379,33.6095791400001,-112.392785917,278,"15411 W WADDELL RD STE 106, SURPRISE, AZ, 85379","Match","Non_Exact","15411 W WADDELL RD, SURPRISE, AZ, 85379",243969264,"L"
71779,"15411 W WADDELL RD","SURPRISE","AZ",85379,33.6095791400001,-112.392785917,279,"15411 W WADDELL RD, SURPRISE, AZ, 85379","Match","Exact","15411 W WADDELL RD, SURPRISE, AZ, 85379",243969264,"L"
71780,"15412 VALLEY VISTA","SHERMAN OAKS","CA",91403,34.149359759,-118.470543837,280,"15412 VALLEY VISTA, SHERMAN OAKS, CA, 91403","Match","Non_Exact","15412 VALLEY VISTA BLVD, SHERMAN OAKS, CA, 91403",642864027,"L"
71781,"15413 BOLERO DRIVE","FONTANA","CA",92337,NA,NA,281,"15413 BOLERO DRIVE, FONTANA, CA, 92337","No_Match",NA,NA,NA,NA
71782,"15413 WYLIE RD","BRANDYWINE","MD",20613,38.6774502330001,-76.8849845789999,282,"15413 WYLIE RD, BRANDYWINE, MD, 20613","Match","Exact","15413 WYLIE RD, BRANDYWINE, MD, 20613",634559167,"L"
71783,"15414 25TH DR","FLUSHING","NY",11354,NA,NA,283,"15414 25TH DR, FLUSHING, NY, 11354","No_Match",NA,NA,NA,NA
71784,"15414 EAST ACACIA WAY","FOUNTAIN HILLS","AZ",85268,33.614755722,-111.747688063,284,"15414 EAST ACACIA WAY, FOUNTAIN HILLS, AZ, 85268","Match","Exact","15414 E ACACIA WAY, FOUNTAIN HILLS, AZ, 85268",128594048,"L"
71785,"15414 GYPSY ST","CORPUS CHRISTI","TX",78418,27.598572915,-97.2294739069999,285,"15414 GYPSY ST, CORPUS CHRISTI, TX, 78418","Match","Exact","15414 GYPSY ST, CORPUS CHRISTI, TX, 78418",178525276,"R"
71786,"15414 JOST ESTATES DR","FLORISSANT","MO",63034,38.8221309350001,-90.303227211,286,"15414 JOST ESTATES DR, FLORISSANT, MO, 63034","Match","Exact","15414 JOST ESTATES DR, FLORISSANT, MO, 63034",636196547,"L"
71787,"15414 KAMARY LANE","SAN ANTONIO","TX",78247,29.5854484330001,-98.3776362469999,287,"15414 KAMARY LANE, SAN ANTONIO, TX, 78247","Match","Exact","15414 KAMARY LN, SAN ANTONIO, TX, 78247",624695529,"L"
71788,"15414 S DOBSON","DOLTON","IL",60419,41.6150049140001,-87.5916870189999,288,"15414 S DOBSON, DOLTON, IL, 60419","Match","Non_Exact","15414 DOBSON AVE, DOLTON, IL, 60419",111780062,"R"
71789,"15414 WESTWICK ROAD","SNOHOMISH","WA",98290,47.906435565,-122.024734686,289,"15414 WESTWICK ROAD, SNOHOMISH, WA, 98290","Match","Exact","15414 WESTWICK RD, SNOHOMISH, WA, 98290",636494589,"R"
71790,"15415 ASHLEY COURT","WHITTIER","CA",90603,33.9428391430001,-117.998478985,290,"15415 ASHLEY COURT, WHITTIER, CA, 90603","Match","Exact","15415 ASHLEY CT, WHITTIER, CA, 90603",625752950,"R"
71791,"15415 ASHWAY","LYNNWOOD","WA",98087,NA,NA,291,"15415 ASHWAY, LYNNWOOD, WA, 98087","No_Match",NA,NA,NA,NA
71792,"15415 CURWOOD DRIVE","COLORADO SPRINGS","CO",80921,39.0538693660001,-104.815452419,292,"15415 CURWOOD DRIVE, COLORADO SPRINGS, CO, 80921","Match","Exact","15415 CURWOOD DR, COLORADO SPRINGS, CO, 80921",610678033,"L"
71793,"15415 EASTVALE RD","POWAY","CA",92064,32.9945974930001,-116.996348272,293,"15415 EASTVALE RD, POWAY, CA, 92064","Match","Exact","15415 EASTVALE RD, POWAY, CA, 92064",612895646,"R"
71794,"15415 FEATHER STAR PLACE","RUSKIN","FL",33573,27.746247671,-82.363348045,294,"15415 FEATHER STAR PLACE, RUSKIN, FL, 33573","Match","Exact","15415 FEATHER STAR PL, RUSKIN, FL, 33573",631903970,"L"
71795,"15415 N RED ROCK ROAD","RENO","NV",89508,39.8587896940001,-119.935519857,295,"15415 N RED ROCK ROAD, RENO, NV, 89508","Match","Exact","15415 RED ROCK RD, RENO, NV, 89508",107026779,"L"
71796,"15415 SE WALLACE ST","PORTLAND","OR",97267,45.4113020940001,-122.612405166,296,"15415 SE WALLACE ST, PORTLAND, OR, 97267","Match","Non_Exact","15415 SE WALLACE RD, PORTLAND, OR, 97267",633196866,"R"
71797,"15415 SYCAMORE LEAF LN","CYPRESS","TX",77429,30.0201509280001,-95.649767479,297,"15415 SYCAMORE LEAF LN, CYPRESS, TX, 77429","Match","Exact","15415 SYCAMORE LEAF LN, CYPRESS, TX, 77429",641963052,"L"
71798,"15416 CARRIAGE WAY","PLYMOUTH","IN",46563,41.325722043,-86.355604263,298,"15416 CARRIAGE WAY, PLYMOUTH, IN, 46563","Match","Exact","15416 CARRIAGE WAY, PLYMOUTH, IN, 46563",7647658,"L"
71799,"15416 FORT DEFRANCE","FLORISSANT","MO",63034,38.823214093,-90.300993197,299,"15416 FORT DEFRANCE, FLORISSANT, MO, 63034","Match","Non_Exact","15416 FORTE DE FRANCE LN, FLORISSANT, MO, 63034",100162149,"L"
71800,"15416 FRANCISQUITO AVENUE","LA PUENTE","CA",91744,NA,NA,300,"15416 FRANCISQUITO AVENUE, LA PUENTE, CA, 91744","No_Match",NA,NA,NA,NA
71801,"15417 SW 137 AVE","MIAMI","FL",33177,25.624298632,-80.414475732,301,"15417 SW 137 AVE, MIAMI, FL, 33177","Match","Exact","15417 SW 137TH AVE, MIAMI, FL, 33177",116094616,"L"
71802,"15418 BAMA BREEZE PL","WIMAUMA","FL",33598,27.7468108240001,-82.322035334,302,"15418 BAMA BREEZE PL, WIMAUMA, FL, 33598","Match","Exact","15418 BAMA BREEZE PL, WIMAUMA, FL, 33598",624637814,"L"
71803,"15418 E POND WOODS DRIVE","TAMPA","FL",33618,28.091298502,-82.501031072,303,"15418 E POND WOODS DRIVE, TAMPA, FL, 33618","Match","Exact","15418 E POND WOODS DR, TAMPA, FL, 33618",638635613,"R"
71804,"15418 SNOWHILL LANE","CENTREVILLE","VA",20120,38.8508076030001,-77.479718851,304,"15418 SNOWHILL LANE, CENTREVILLE, VA, 20120","Match","Exact","15418 SNOWHILL LN, CENTREVILLE, VA, 20120",648294141,"L"
71805,"15418 WILLMORE LN","MISSOURI CITY","TX",77489,29.601498636,-95.494687863,305,"15418 WILLMORE LN, MISSOURI CITY, TX, 77489","Match","Exact","15418 WILLMORE LN, MISSOURI CITY, TX, 77489",78270454,"L"
71806,"15419 FORT DE FRANCE LANE","FLORISSANT","MO",63034,38.8234936750001,-90.3008389519999,306,"15419 FORT DE FRANCE LANE, FLORISSANT, MO, 63034","Match","Non_Exact","15419 FORTE DE FRANCE LN, FLORISSANT, MO, 63034",100162149,"R"
71807,"15419 LITTLEFIELD","DETROIT","MI",48227,42.4041938240001,-83.1759840299999,307,"15419 LITTLEFIELD, DETROIT, MI, 48227","Match","Non_Exact","15419 LITTLEFIELD ST, DETROIT, MI, 48227",95425021,"L"
71808,"15419 N 13TH AVENUE","PHOENIX","AZ",85023,33.6265772610001,-112.088611115,308,"15419 N 13TH AVENUE, PHOENIX, AZ, 85023","Match","Exact","15419 N 13TH AVE, PHOENIX, AZ, 85023",128362896,"R"
71809,"15419 N 17TH DR","PHOENIX","AL",85023,NA,NA,309,"15419 N 17TH DR, PHOENIX, AL, 85023","No_Match",NA,NA,NA,NA
71810,"1542 37TH ST SW","WYOMING","MI",49509,42.897075505,-85.7033006939999,310,"1542 37TH ST SW, WYOMING, MI, 49509","Match","Exact","1542 37TH ST SW, WYOMING, MI, 49509",12463210,"L"
71811,"1542 4TH AVENUE APT C","LOS ANGELES","CA",90019,34.044615552,-118.321272282,311,"1542 4TH AVENUE APT C, LOS ANGELES, CA, 90019","Match","Exact","1542 4TH AVE, LOS ANGELES, CA, 90019",141605521,"L"
71812,"1542 BARBERRY CT","SAN JOSE","CA",95121,37.31027493,-121.822106124,312,"1542 BARBERRY CT, SAN JOSE, CA, 95121","Match","Exact","1542 BARBERRY CT, SAN JOSE, CA, 95121",122915384,"L"
71813,"1542 CAROL COURT","NORTHBROOK","IL",60062,42.1244660420001,-87.8208444959999,313,"1542 CAROL COURT, NORTHBROOK, IL, 60062","Match","Exact","1542 CAROL CT, NORTHBROOK, IL, 60062",111728845,"R"
71814,"1542 CLIFTY DRIVE","MADISON","IN",47250,38.771373166,-85.420622618,314,"1542 CLIFTY DRIVE, MADISON, IN, 47250","Match","Exact","1542 CLIFTY DR, MADISON, IN, 47250",31397185,"L"
71815,"1542 CRAWFORD ROAD","ROCK HILL","SC",29730,34.9070827210001,-81.056763737,315,"1542 CRAWFORD ROAD, ROCK HILL, SC, 29730","Match","Exact","1542 CRAWFORD RD, ROCK HILL, SC, 29730",19792419,"R"
71816,"1542 E 73RD S","IDAHO FALLS","ID",83404,43.4318170430001,-112.001364227,316,"1542 E 73RD S, IDAHO FALLS, ID, 83404","Match","Exact","1542 E 73RD S, IDAHO FALLS, ID, 83404",644594203,"L"
71817,"1542 E 74TH ST","TULSA","OK",74136,36.0571110290001,-95.970383756,317,"1542 E 74TH ST, TULSA, OK, 74136","Match","Exact","1542 E 74TH ST, TULSA, OK, 74136",166444618,"R"
71818,"1542 E GREENBRIDGE","OZARK","MO",65721,NA,NA,318,"1542 E GREENBRIDGE, OZARK, MO, 65721","No_Match",NA,NA,NA,NA
71819,"1542 FAIRWOOD DRIVE","JACKSON","MS",39213,32.3948428520001,-90.203056605,319,"1542 FAIRWOOD DRIVE, JACKSON, MS, 39213","Match","Exact","1542 FAIRWOOD DR, JACKSON, MS, 39213",649472527,"L"
71820,"1542 FENTON DRIVE","DELRAY BEACH","FL",33445,26.481023957,-80.117961236,320,"1542 FENTON DRIVE, DELRAY BEACH, FL, 33445","Match","Exact","1542 FENTON DR, DELRAY BEACH, FL, 33445",633936357,"R"
71821,"1542 FIRESIDE LANE","VISTA","CA",92084,33.192986347,-117.213668172,321,"1542 FIRESIDE LANE, VISTA, CA, 92084","Match","Exact","1542 FIRESIDE LN, VISTA, CA, 92084",195441116,"L"
71822,"1542 FOREST PARK AVE","BALTIMORE","MD",21207,39.296001817,-76.719098878,322,"1542 FOREST PARK AVE, BALTIMORE, MD, 21207","Match","Exact","1542 FOREST PARK AVE, BALTIMORE, MD, 21207",191484619,"L"
71823,"1542 FREMEAUX AVE","SLIDELL","LA",70458,30.277576218,-89.760174649,323,"1542 FREMEAUX AVE, SLIDELL, LA, 70458","Match","Non_Exact","1542 FREMAUX AVE, SLIDELL, LA, 70458",111248718,"R"
71824,"1542 GLENGARRY RD","JACKSONVILLE","FL",32206,30.309901102,-81.616794973,324,"1542 GLENGARRY RD, JACKSONVILLE, FL, 32206","Match","Non_Exact","1542 GLENGARRY RD, JACKSONVILLE, FL, 32207",83901345,"R"
71825,"1542 GOLF COURSE ROAD STE 202","GRAND RAPIDS","MN",55744,47.2210333020001,-93.551852713,325,"1542 GOLF COURSE ROAD STE 202, GRAND RAPIDS, MN, 55744","Match","Exact","1542 GOLF COURSE RD, GRAND RAPIDS, MN, 55744",611752837,"R"
71826,"1542 HIGHWOODS PASS","GROVETOWN","GA",30813,33.470688642,-82.226582983,326,"1542 HIGHWOODS PASS, GROVETOWN, GA, 30813","Match","Exact","1542 HIGHWOODS PASS, GROVETOWN, GA, 30813",640764428,"L"
71827,"1542 JACKSON AVENUE","CHESAPEAKE","VA",23324,36.8105887630001,-76.272191616,327,"1542 JACKSON AVENUE, CHESAPEAKE, VA, 23324","Match","Exact","1542 JACKSON AVE, CHESAPEAKE, VA, 23324",121771171,"R"
71828,"1542 JENNIFER LANE","HOUSTON","TX",77029,29.763881322,-95.228905008,328,"1542 JENNIFER LANE, HOUSTON, TX, 77029","Match","Exact","1542 JENNIFER LN, HOUSTON, TX, 77029",96096398,"R"
71829,"1542 LOWELL CT","CROFTON","MD",21114,39.0270037560001,-76.678045831,329,"1542 LOWELL CT, CROFTON, MD, 21114","Match","Exact","1542 LOWELL CT, CROFTON, MD, 21114",636149199,"R"
71830,"1542 N MONITOR AVE","CHICAGO","IL",60651,41.9080729730001,-87.77193196,330,"1542 N MONITOR AVE, CHICAGO, IL, 60651","Match","Exact","1542 N MONITOR AVE, CHICAGO, IL, 60651",605046102,"L"
71831,"1542 NW 12TH TERR","FORT LAUDERDALE","FL",33311,26.1466932070001,-80.1594365239999,331,"1542 NW 12TH TERR, FORT LAUDERDALE, FL, 33311","Match","Exact","1542 NW 12TH TER, FORT LAUDERDALE, FL, 33311",114720554,"R"
71832,"1542 PENZANCE WAY","HANOVER","MD",21076,39.1614534490001,-76.732039277,332,"1542 PENZANCE WAY, HANOVER, MD, 21076","Match","Exact","1542 PENZANCE WAY, HANOVER, MD, 21076",618553306,"R"
71833,"1542 S BLOOMINGTON ST","GREENCASTLE","IN",46135,39.6216297600001,-86.84578148,333,"1542 S BLOOMINGTON ST, GREENCASTLE, IN, 46135","Match","Exact","1542 S BLOOMINGTON ST, GREENCASTLE, IN, 46135",50109185,"L"
71834,"1542 SAN REMO CT","LIVERMORE","CA",94550,37.6597266160001,-121.775129287,334,"1542 SAN REMO CT, LIVERMORE, CA, 94550","Match","Exact","1542 SAN REMO CT, LIVERMORE, CA, 94550",125055146,"R"
71835,"1542 TROY DRIVE APT 3","MADISON","WI",53704,43.133573111,-89.368849922,335,"1542 TROY DRIVE APT 3, MADISON, WI, 53704","Match","Exact","1542 TROY DR, MADISON, WI, 53704",639596046,"L"
71836,"1542 VILLARREAL RD","SAN ANGELO","TX",76905,31.552950428,-100.413071512,336,"1542 VILLARREAL RD, SAN ANGELO, TX, 76905","Match","Non_Exact","1542 VILLAREAL RD, SAN ANGELO, TX, 76905",190677468,"L"
71837,"1542 YOUNG STREET STE 340","HONOLULU","HI",96826,21.2980673320001,-157.836338285,337,"1542 YOUNG STREET STE 340, HONOLULU, HI, 96826","Match","Exact","1542 YOUNG ST, HONOLULU, HI, 96826",203237492,"L"
71838,"15420 62ND AVE NE","KENMORE","WA",98028,47.7406582250001,-122.261547764,338,"15420 62ND AVE NE, KENMORE, WA, 98028","Match","Exact","15420 62ND AVE NE, KENMORE, WA, 98028",186597705,"R"
71839,"15420 KIVETT LANE","RENO","NV",89521,39.3832439660001,-119.721498434,339,"15420 KIVETT LANE, RENO, NV, 89521","Match","Exact","15420 KIVETT LN, RENO, NV, 89521",107096625,"L"
71840,"15420 PECK ROAD","EVANSVILLE","IN",47725,38.118146493,-87.544452759,340,"15420 PECK ROAD, EVANSVILLE, IN, 47725","Match","Exact","15420 PECK RD, EVANSVILLE, IN, 47725",650343805,"L"
71841,"15420 WINDMILL POINTE DR","GROSSE POINTE PARK","MI",48230,42.364802604,-82.925342332,341,"15420 WINDMILL POINTE DR, GROSSE POINTE PARK, MI, 48230","Match","Exact","15420 WINDMILL POINTE DR, GROSSE POINTE PARK, MI, 48230",95489409,"R"
71842,"15421 HUNTRIDGE ROAD","DAVIE","FL",33331,26.0472981930001,-80.354968732,342,"15421 HUNTRIDGE ROAD, DAVIE, FL, 33331","Match","Exact","15421 HUNTRIDGE RD, DAVIE, FL, 33331",114776369,"L"
71843,"15421 OLEANDER DRIVE","CHARLOTTE","NC",28278,35.087464147,-81.0241388969999,343,"15421 OLEANDER DRIVE, CHARLOTTE, NC, 28278","Match","Exact","15421 OLEANDER DR, CHARLOTTE, NC, 28278",641608602,"R"
71844,"15421 W COOLIDGE ST","GOODYEAR","AZ",85395,33.503792532,-112.391449205,344,"15421 W COOLIDGE ST, GOODYEAR, AZ, 85395","Match","Exact","15421 W COOLIDGE ST, GOODYEAR, AZ, 85395",639811172,"R"
71845,"15422 FUGATE CT","MORENO VALLEY","CA",92553,33.896655836,-117.242875145,345,"15422 FUGATE CT, MORENO VALLEY, CA, 92553","Match","Non_Exact","15422 FUGATE CT, MORENO VALLEY, CA, 92551",608992426,"R"
71846,"15423 COPPER BRANCH LANE","HOUSTON","TX",77095,29.9134947790001,-95.6372730799999,346,"15423 COPPER BRANCH LANE, HOUSTON, TX, 77095","Match","Exact","15423 COPPER BRANCH LN, HOUSTON, TX, 77095",96298720,"R"
71847,"15423 SILVER RIDGE DR","HOUSTON","TX",77090,30.005966609,-95.454199068,347,"15423 SILVER RIDGE DR, HOUSTON, TX, 77090","Match","Exact","15423 SILVER RIDGE DR, HOUSTON, TX, 77090",96009299,"L"
71848,"15423 YORK ROAD","SPARKS","MD",21152,39.5466586740001,-76.65188176,348,"15423 YORK ROAD, SPARKS, MD, 21152","Match","Exact","15423 YORK RD, SPARKS, MD, 21152",191545669,"R"
71849,"15424 BEACHLAND WAY","DUMFRIES","VA",22025,38.6172170090001,-77.3602959839999,349,"15424 BEACHLAND WAY, DUMFRIES, VA, 22025","Match","Exact","15424 BEACHLAND WAY, DUMFRIES, VA, 22025",76519914,"L"
71850,"15424 CABRITO ROAD UNIT A","VAN NUYS","CA",91406,34.216773318,-118.469098443,350,"15424 CABRITO ROAD UNIT A, VAN NUYS, CA, 91406","Match","Exact","15424 CABRITO RD, VAN NUYS, CA, 91406",141549211,"L"
71851,"15424 S VISALIA AVE","COMPTON","CA",90220,33.891922245,-118.261784984,351,"15424 S VISALIA AVE, COMPTON, CA, 90220","Match","Exact","15424 S VISALIA AVE, COMPTON, CA, 90220",142816891,"L"
71852,"15425 245TH AVE SE","MONROE","WA",98272,47.856339636,-121.903186739,352,"15425 245TH AVE SE, MONROE, WA, 98272","Match","Exact","15425 245TH AVE SE, MONROE, WA, 98272",187807329,"R"
71853,"15426 BECKNER STREET","LA PUENTE","CA",91744,34.0302528190001,-117.956496039,353,"15426 BECKNER STREET, LA PUENTE, CA, 91744","Match","Exact","15426 BECKNER ST, LA PUENTE, CA, 91744",141713355,"R"
71854,"15426 INDIAN WOODS DR","MISSOURI CITY","TX",78253,29.6031158500001,-95.4850817989999,354,"15426 INDIAN WOODS DR, MISSOURI CITY, TX, 78253","Match","Non_Exact","15426 INDIAN WOODS DR, MISSOURI CITY, TX, 77489",78270621,"L"
71855,"15427 S US HIGHWAY 181 LOT C1","SAN ANTONIO","TX",78223,29.2683087400001,-98.308448841,355,"15427 S US HIGHWAY 181 LOT C1, SAN ANTONIO, TX, 78223","Match","Exact","15427 US HWY 181, SAN ANTONIO, TX, 78223",649961323,"R"
71856,"15428 INTERLACHEN DRIVE","AUSTIN","TX",78717,30.4977050430001,-97.77088596,356,"15428 INTERLACHEN DRIVE, AUSTIN, TX, 78717","Match","Exact","15428 INTERLACHEN DR, AUSTIN, TX, 78717",614653118,"L"
71857,"15428 JACK FORK RD","FOLSOM","LA",70437,NA,NA,357,"15428 JACK FORK RD, FOLSOM, LA, 70437","No_Match",NA,NA,NA,NA
71858,"15429 ONEAL ROAD","GULFPORT","MS",39503,30.470418845,-89.1003369919999,358,"15429 ONEAL ROAD, GULFPORT, MS, 39503","Match","Exact","15429 ONEAL RD, GULFPORT, MS, 39503",111389983,"L"
71859,"15429 TIFFIN CT","MORENO VALLEY","CA",92551,33.896480325,-117.241868889,359,"15429 TIFFIN CT, MORENO VALLEY, CA, 92551","Match","Exact","15429 TIFFIN CT, MORENO VALLEY, CA, 92551",194790745,"L"
71860,"1543 19TH STREET NO 2","SANTA MONICA","CA",90404,34.0259830150001,-118.478658304,360,"1543 19TH STREET NO 2, SANTA MONICA, CA, 90404","Match","Non_Exact","1543 19TH ST, SANTA MONICA, CA, 90404",141559414,"L"
71861,"1543 31ST STREET","SARASOTA","FL",34234,27.363089551,-82.539853452,361,"1543 31ST STREET, SARASOTA, FL, 34234","Match","Exact","1543 31ST ST, SARASOTA, FL, 34234",16347072,"L"
71862,"1543 6TH AVE","TERRE HAUTE","IN",47807,39.482990708,-87.3920678649999,362,"1543 6TH AVE, TERRE HAUTE, IN, 47807","Match","Exact","1543 6TH AVE, TERRE HAUTE, IN, 47807",27115965,"R"
71863,"1543 APRIL KNOLL COURT","HUNTERSVILLE","NC",28078,35.4381176690001,-80.756182936,363,"1543 APRIL KNOLL COURT, HUNTERSVILLE, NC, 28078","Match","Exact","1543 APRIL KNOLL CT, HUNTERSVILLE, NC, 28078",632071036,"L"
71864,"1543 BARTOW RD STE 148","LAKELAND","FL",33801,28.026442203,-81.927738771,364,"1543 BARTOW RD STE 148, LAKELAND, FL, 33801","Match","Exact","1543 BARTOW RD, LAKELAND, FL, 33801",651846090,"R"
71865,"1543 BERRY COURT","ARNOLD","MO",63010,38.446947643,-90.396284682,365,"1543 BERRY COURT, ARNOLD, MO, 63010","Match","Exact","1543 BERRY CT, ARNOLD, MO, 63010",613735461,"R"
71866,"1543 BRAMBLE CREEK CIRCLE","DESOTO","TX",75115,32.5830263140001,-96.8989860469999,366,"1543 BRAMBLE CREEK CIRCLE, DESOTO, TX, 75115","Match","Exact","1543 BRAMBLE CREEK CIR, DESOTO, TX, 75115",103277900,"L"
71867,"1543 EAST 19TH STREET SUITE 6D","BROOKLYN","NY",11230,40.6123933160001,-73.955086517,367,"1543 EAST 19TH STREET SUITE 6D, BROOKLYN, NY, 11230","Match","Exact","1543 E 19TH ST, BROOKLYN, NY, 11230",59090063,"L"
71868,"1543 FORSYTH ROAD","SAVANNAH","GA",31406,32.0192662760001,-81.085502525,368,"1543 FORSYTH ROAD, SAVANNAH, GA, 31406","Match","Exact","1543 FORSYTH RD, SAVANNAH, GA, 31406",6179036,"R"
71869,"1543 GRIMMETT DRIVE","SHREVEPORT","LA",71107,32.5368549190001,-93.7673791299999,369,"1543 GRIMMETT DRIVE, SHREVEPORT, LA, 71107","Match","Exact","1543 GRIMMETT DR, SHREVEPORT, LA, 71107",57486666,"L"
71870,"1543 LYNDHURST RD","LYNDHURST","OH",44124,41.518040049,-81.478139577,370,"1543 LYNDHURST RD, LYNDHURST, OH, 44124","Match","Exact","1543 LYNDHURST RD, LYNDHURST, OH, 44124",61167753,"L"
71871,"1543 N SPANISH ST","CAPE GIRARDEAU","MO",63701,37.3222994330001,-89.514156966,371,"1543 N SPANISH ST, CAPE GIRARDEAU, MO, 63701","Match","Exact","1543 N SPANISH ST, CAPE GIRARDEAU, MO, 63701",35182094,"L"
71872,"1543 NORTH AVENUE","LEECHBURG","PA",15656,40.627293083,-79.615588105,372,"1543 NORTH AVENUE, LEECHBURG, PA, 15656","Match","Exact","1543 NORTH AVE, LEECHBURG, PA, 15656",52962008,"L"
71873,"1543 PINE GROVE RD","KLAMATH FALLS","OR",97603,42.192746088,-121.654035504,373,"1543 PINE GROVE RD, KLAMATH FALLS, OR, 97603","Match","Exact","1543 PINE GROVE RD, KLAMATH FALLS, OR, 97603",156698990,"L"
71874,"1543 SIESTA DRIVE","COTTONWOOD HEIGHTS","UT",84093,40.6136277360001,-111.847342665,374,"1543 SIESTA DRIVE, COTTONWOOD HEIGHTS, UT, 84093","Match","Exact","1543 SIESTA DR, COTTONWOOD HEIGHTS, UT, 84093",611647470,"L"
71875,"1543 SOUTH HOMAN","CHICAGO","IL",60623,41.8600558580001,-87.710355427,375,"1543 SOUTH HOMAN, CHICAGO, IL, 60623","Match","Non_Exact","1543 S HOMAN AVE, CHICAGO, IL, 60623",111799040,"L"
71876,"1543 SOUTH SHORE DR","FLEMING ISLAND","FL",32003,30.120836635,-81.72613838,376,"1543 SOUTH SHORE DR, FLEMING ISLAND, FL, 32003","Match","Exact","1543 S SHORE DR, FLEMING ISLAND, FL, 32003",629643579,"R"
71877,"1543 STATE HIGHWAY BB","HOLLISTER","MO",65673,NA,NA,377,"1543 STATE HIGHWAY BB, HOLLISTER, MO, 65673","No_Match",NA,NA,NA,NA
71878,"1543 TUNLAW RD","BALTIMORE","MD",21218,39.335320972,-76.5930670669999,378,"1543 TUNLAW RD, BALTIMORE, MD, 21218","Match","Exact","1543 TUNLAW RD, BALTIMORE, MD, 21218",206439377,"R"
71879,"1543 W 123RD STREET","LOS ANGELES","CA",90047,33.9211826700001,-118.303300759,379,"1543 W 123RD STREET, LOS ANGELES, CA, 90047","Match","Exact","1543 W 123RD ST, LOS ANGELES, CA, 90047",141660931,"R"
71880,"15430  COUNTY ROAD 565A STE A","GROVELAND","FL",34736,NA,NA,380,"15430  COUNTY ROAD 565A STE A, GROVELAND, FL, 34736","No_Match",NA,NA,NA,NA
71881,"15430 OVERTURE DRIVE","NEWBURY","OH",44065,41.449273987,-81.252559048,381,"15430 OVERTURE DRIVE, NEWBURY, OH, 44065","Match","Exact","15430 OVERTURE DR, NEWBURY, OH, 44065",137440387,"R"
71882,"15430 SUGAR CUP COURT","ORLANDO","FL",32828,28.549240082,-81.1578469249999,382,"15430 SUGAR CUP COURT, ORLANDO, FL, 32828","Match","Non_Exact","15430 SUGARCUP CT, ORLANDO, FL, 32828",640903170,"L"
71883,"15430 WATERLOO RD","CLEVELAND","OH",44110,41.57034716,-81.572751706,383,"15430 WATERLOO RD, CLEVELAND, OH, 44110","Match","Exact","15430 WATERLOO RD, CLEVELAND, OH, 44110",61121159,"R"
71884,"15431 ANACAPA RD STE G","VICTORVILLE","CA",92392,34.5048210320001,-117.326039375,384,"15431 ANACAPA RD STE G, VICTORVILLE, CA, 92392","Match","Exact","15431 ANACAPA RD, VICTORVILLE, CA, 92392",144573846,"L"
71885,"15431 ANACAPA RD STE H","VICTORVILLE","CA",92392,34.5048210320001,-117.326039375,385,"15431 ANACAPA RD STE H, VICTORVILLE, CA, 92392","Match","Exact","15431 ANACAPA RD, VICTORVILLE, CA, 92392",144573846,"L"
71886,"15431 ANACAPA RD SUITE H","VICTORVILLE","CA",92392,34.5048210320001,-117.326039375,386,"15431 ANACAPA RD SUITE H, VICTORVILLE, CA, 92392","Match","Exact","15431 ANACAPA RD, VICTORVILLE, CA, 92392",144573846,"L"
71887,"15432 FM 2728","TERRELL","TX",75161,32.747663705,-96.139226483,387,"15432 FM 2728, TERRELL, TX, 75161","Match","Exact","15432 FM 2728, TERRELL, TX, 75161",123766405,"R"
71888,"15432 OAK MEADOW RD","PENN VALLEY","CA",95946,39.145989199,-121.184144283,388,"15432 OAK MEADOW RD, PENN VALLEY, CA, 95946","Match","Exact","15432 OAK MEADOW RD, PENN VALLEY, CA, 95946",106557688,"L"
71889,"15432 TIMMY DRIVE","GRAND HAVEN","MI",49417,43.0494312110001,-86.187219311,389,"15432 TIMMY DRIVE, GRAND HAVEN, MI, 49417","Match","Exact","15432 TIMMY DR, GRAND HAVEN, MI, 49417",71093140,"R"
71890,"15432 W CHRISTY DR","SURPRISE","AZ",85379,33.5826226080001,-112.391265998,390,"15432 W CHRISTY DR, SURPRISE, AZ, 85379","Match","Exact","15432 W CHRISTY DR, SURPRISE, AZ, 85379",243967240,"L"
71891,"15432 WEBER ST","BENNINGTON","NE",68007,41.3265365280001,-96.1533626299999,391,"15432 WEBER ST, BENNINGTON, NE, 68007","Match","Exact","15432 WEBER ST, BENNINGTON, NE, 68007",117019550,"R"
71892,"15434 W 144TH TER","OLATHE","KS",66062,38.866740861,-94.7647034409999,392,"15434 W 144TH TER, OLATHE, KS, 66062","Match","Exact","15434 W 144TH TER, OLATHE, KS, 66062",91303370,"L"
71893,"15434 W BIG SKY DR","SURPRISE","AZ",85374,33.6623363190001,-112.391887114,393,"15434 W BIG SKY DR, SURPRISE, AZ, 85374","Match","Exact","15434 W BIG SKY DR, SURPRISE, AZ, 85374",128849196,"R"
71894,"15435 COUNTY ROAD 525","ANNA","TX",75409,33.386815154,-96.442304533,394,"15435 COUNTY ROAD 525, ANNA, TX, 75409","Match","Exact","15435 CO RD 525, ANNA, TX, 75409",642471310,"L"
71895,"15435 CROSS VINE","SAN ANTONIO","TX",78247,29.585106877,-98.402390848,395,"15435 CROSS VINE, SAN ANTONIO, TX, 78247","Match","Exact","15435 CROSS VINE, SAN ANTONIO, TX, 78247",101567916,"R"
71896,"15435 LAKESIDE VILLAGE DRIVE 205","CLINTON TOWNSHIP","MI",48038,42.617482689,-82.971652165,396,"15435 LAKESIDE VILLAGE DRIVE 205, CLINTON TOWNSHIP, MI, 48038","Match","Exact","15435 LAKESIDE VILLAGE DR, CLINTON TOWNSHIP, MI, 48038",624585810,"L"
71897,"15435 S 45TH ST","PHOENIX","AZ",85044,33.3072560360001,-111.986231724,397,"15435 S 45TH ST, PHOENIX, AZ, 85044","Match","Exact","15435 S 45TH ST, PHOENIX, AZ, 85044",128375989,"L"
71898,"15435 S WESTERN AVE STE 200","GARDENA","CA",90249,33.890769176,-118.30913943,398,"15435 S WESTERN AVE STE 200, GARDENA, CA, 90249","Match","Non_Exact","15435 S WESTERN AVE, GARDENA, CA, 90249",241243306,"R"
71899,"15435 ST CLAIR","CLEVELAND","OH",44110,41.555436264,-81.57277299,399,"15435 ST CLAIR, CLEVELAND, OH, 44110","Match","Non_Exact","15435 SAINT CLAIR AVE, CLEVELAND, OH, 44110",61121313,"L"
71900,"15436 NW 12TH COURT","PEMBROKE PINES","FL",33028,26.020070375,-80.3494318589999,400,"15436 NW 12TH COURT, PEMBROKE PINES, FL, 33028","Match","Non_Exact","15436 NW 12TH CT, PEMBROKE PINES, FL, 33028",114790194,"L"
71901,"15437 S WINGED TRACE CT","DRAPER","UT",84020,40.471146043,-111.821591707,401,"15437 S WINGED TRACE CT, DRAPER, UT, 84020","Match","Exact","15437 WINGED TRACE CT, DRAPER, UT, 84020",619129284,"L"
71902,"15437 WELLS HIGHWAY","SENECA","SC",29678,34.69030501,-82.992576634,402,"15437 WELLS HIGHWAY, SENECA, SC, 29678","Match","Exact","15437 WELLS HWY, SENECA, SC, 29678",25661439,"L"
71903,"15438 11TH AVE","WHITESTONE","NY",11357,NA,NA,403,"15438 11TH AVE, WHITESTONE, NY, 11357","No_Match",NA,NA,NA,NA
71904,"15439 94TH STREET NORTH","WEST PALM BEACH","FL",33412,26.8161756960001,-80.284681806,404,"15439 94TH STREET NORTH, WEST PALM BEACH, FL, 33412","Match","Exact","15439 94TH ST N, WEST PALM BEACH, FL, 33412",115346705,"L"
71905,"15439 MILLVIEW TRACE LN","CHARLOTTE","NC",28227,35.2176516280001,-80.601162422,405,"15439 MILLVIEW TRACE LN, CHARLOTTE, NC, 28227","Match","Exact","15439 MILLVIEW TRACE LN, CHARLOTTE, NC, 28227",70579668,"L"
71906,"1543A HIGHWAY WEST","GRIFFIN","GA",30223,NA,NA,406,"1543A HIGHWAY WEST, GRIFFIN, GA, 30223","No_Match",NA,NA,NA,NA
71907,"1544 BORDEAUX LANE","CONYERS","GA",30094,33.648445865,-84.054845132,407,"1544 BORDEAUX LANE, CONYERS, GA, 30094","Match","Exact","1544 BORDEAUX LN, CONYERS, GA, 30094",614159065,"R"
71908,"1544 BOREAS DRIVE","BATON ROUGE","LA",70816,30.4462452230001,-91.016987989,408,"1544 BOREAS DRIVE, BATON ROUGE, LA, 70816","Match","Exact","1544 BOREAS DR, BATON ROUGE, LA, 70816",92194554,"R"
71909,"1544 CAMPBELL ST","TOLEDO","OH",43607,41.6421131450001,-83.580707751,409,"1544 CAMPBELL ST, TOLEDO, OH, 43607","Match","Exact","1544 CAMPBELL ST, TOLEDO, OH, 43607",33938663,"R"
71910,"1544 CEDAR LANE","WILKESBORO","NC",28697,36.1381347350001,-81.17291389,410,"1544 CEDAR LANE, WILKESBORO, NC, 28697","Match","Exact","1544 CEDAR LN, WILKESBORO, NC, 28697",46143348,"R"
71911,"1544 CLAIRIDGE ROAD","BALTIMORE","MD",21207,39.2979817410001,-76.720983169,411,"1544 CLAIRIDGE ROAD, BALTIMORE, MD, 21207","Match","Exact","1544 CLAIRIDGE RD, BALTIMORE, MD, 21207",191547885,"L"
71912,"1544 COAT RIDGE RD","HERNDON","VA",20170,38.982359925,-77.364473392,412,"1544 COAT RIDGE RD, HERNDON, VA, 20170","Match","Exact","1544 COAT RIDGE RD, HERNDON, VA, 20170",215952461,"R"
71913,"1544 COURT ST","ALAMEDA","CA",94501,37.760900603,-122.231720731,413,"1544 COURT ST, ALAMEDA, CA, 94501","Match","Exact","1544 COURT ST, ALAMEDA, CA, 94501",125006316,"R"
71914,"1544 E 67TH COURT","TULSA","OK",74136,36.0647341910001,-95.969113011,414,"1544 E 67TH COURT, TULSA, OK, 74136","Match","Exact","1544 E 67TH CT, TULSA, OK, 74136",166444578,"R"
71915,"1544 E BROAD ST   STE 147","STATESVILLE","NC",28625,35.7910454820001,-80.8607024149999,415,"1544 E BROAD ST   STE 147, STATESVILLE, NC, 28625","Match","Non_Exact","1544 E BROAD ST, STATESVILLE, NC, 28625",46006699,"L"
71916,"1544 E MONTAGUE AVENUE","N. CHARLESTON","SC",29405,32.881230035,-79.993974661,416,"1544 E MONTAGUE AVENUE, N. CHARLESTON, SC, 29405","Match","Exact","1544 E MONTAGUE AVE, N CHARLESTON, SC, 29405",108799494,"L"
71917,"1544 FLORIDA AVENUE","JACKSONVILLE","FL",32206,30.342469065,-81.6422482569999,417,"1544 FLORIDA AVENUE, JACKSONVILLE, FL, 32206","Match","Exact","1544 FLORIDA AVE, JACKSONVILLE, FL, 32206",83990023,"L"
71918,"1544 GREENLY ST","HUDSONVILLE","MI",49426,42.8334411640001,-85.819008829,418,"1544 GREENLY ST, HUDSONVILLE, MI, 49426","Match","Exact","1544 GREENLY ST, HUDSONVILLE, MI, 49426",71103670,"R"
71919,"1544 NORTH 63RD TERRACE","KANSAS CITY","KS",66102,39.1212552210001,-94.7244936279999,419,"1544 NORTH 63RD TERRACE, KANSAS CITY, KS, 66102","Match","Exact","1544 N 63RD TER, KANSAS CITY, KS, 66102",91133663,"L"
71920,"1544 NORWOOD HILLS DR","OFALLON","MO",63366,38.7805975370001,-90.7307011199999,420,"1544 NORWOOD HILLS DR, OFALLON, MO, 63366","Match","Non_Exact","1544 NORWOOD HILLS DR, O FALLON, MO, 63366",645122543,"L"
71921,"1544 OAKLAND ROAD","BROOKSVILLE","KY",41004,38.6127429580001,-84.063148645,421,"1544 OAKLAND ROAD, BROOKSVILLE, KY, 41004","Match","Exact","1544 OAKLAND RD, BROOKSVILLE, KY, 41004",146720187,"L"
71922,"1544 OVERVIEW CIRCLE","LAWRENCEVILLE","GA",30044,33.9033589270001,-84.007184304,422,"1544 OVERVIEW CIRCLE, LAWRENCEVILLE, GA, 30044","Match","Exact","1544 OVERVIEW CIR, LAWRENCEVILLE, GA, 30044",642059749,"R"
71923,"1544 PARK PLACE APT 1B","BROOKLYN","NY",11213,40.6721098240001,-73.9262213499999,423,"1544 PARK PLACE APT 1B, BROOKLYN, NY, 11213","Match","Exact","1544 PARK PL, BROOKLYN, NY, 11213",59083331,"R"
71924,"1544 PRESIDENT ST APT 3L","BROOKLYN","NY",11213,40.6673377390001,-73.937255434,424,"1544 PRESIDENT ST APT 3L, BROOKLYN, NY, 11213","Match","Exact","1544 PRESIDENT ST, BROOKLYN, NY, 11213",59079720,"R"
71925,"1544 S CHANEY ROAD","BLOOMFIELD","IN",47424,39.0023507780001,-86.8754868889999,425,"1544 S CHANEY ROAD, BLOOMFIELD, IN, 47424","Match","Exact","1544 S CHANEY RD, BLOOMFIELD, IN, 47424",39306298,"L"
71926,"1544 S PENN AVE","BARTLESVILLE","OK",74003,36.735116218,-95.989986776,426,"1544 S PENN AVE, BARTLESVILLE, OK, 74003","Match","Exact","1544 S PENN AVE, BARTLESVILLE, OK, 74003",606550322,"R"
71927,"1544 SE 24TH COURT","HOMESTEAD","FL",33035,25.447437662,-80.4545272779999,427,"1544 SE 24TH COURT, HOMESTEAD, FL, 33035","Match","Exact","1544 SE 24TH CT, HOMESTEAD, FL, 33035",632009360,"R"
71928,"1544 SPERRY LANE","NORTH CANTON","OH",44709,40.856563393,-81.375149014,428,"1544 SPERRY LANE, NORTH CANTON, OH, 44709","Match","Non_Exact","1544 SPERRY LN SE, NORTH CANTON, OH, 44709",64715534,"R"
71929,"1544 SPRING HILL RD UNIT 9100","MCLEAN","VA",22102,38.928872013,-77.237882698,429,"1544 SPRING HILL RD UNIT 9100, MCLEAN, VA, 22102","Match","Exact","1544 SPRING HILL RD, MCLEAN, VA, 22102",611920518,"R"
71930,"1544 SUMMER RUN 301","FLORISSANT","MO",63033,38.774918615,-90.2937030739999,430,"1544 SUMMER RUN 301, FLORISSANT, MO, 63033","Match","Non_Exact","1544 SUMMER RUN DR, FLORISSANT, MO, 63033",100162187,"R"
71931,"1544 THOMAS WOOD TRAIL","INDIANAPOLIS","IN",46260,39.868623545,-86.186997655,431,"1544 THOMAS WOOD TRAIL, INDIANAPOLIS, IN, 46260","Match","Non_Exact","1544 THOMAS WOODS TRL, INDIANAPOLIS, IN, 46260",107982364,"R"
71932,"1544 THOMAS WOODS TRAIL","INDIANAPOLIS","IN",46205,39.868623545,-86.186997655,432,"1544 THOMAS WOODS TRAIL, INDIANAPOLIS, IN, 46205","Match","Non_Exact","1544 THOMAS WOODS TRL, INDIANAPOLIS, IN, 46260",107982364,"R"
71933,"1544 THOMAS WOODS TRAIL","INDIANAPOLIS","IN",46260,39.868623545,-86.186997655,433,"1544 THOMAS WOODS TRAIL, INDIANAPOLIS, IN, 46260","Match","Exact","1544 THOMAS WOODS TRL, INDIANAPOLIS, IN, 46260",107982364,"R"
71934,"1544 W GALBRAITH ROAD 302","CINCINNATI","OH",45231,39.2173559990001,-84.5446564059999,434,"1544 W GALBRAITH ROAD 302, CINCINNATI, OH, 45231","Match","Non_Exact","1544 W GALBRAITH RD, CINCINNATI, OH, 45231",103921014,"R"
71935,"1544 WELLBORN RD 677","REDAN","GA",30074,NA,NA,435,"1544 WELLBORN RD 677, REDAN, GA, 30074","No_Match",NA,NA,NA,NA
71936,"1544 WELLBORN RD UNIT 1015","REDAN","GA",30074,NA,NA,436,"1544 WELLBORN RD UNIT 1015, REDAN, GA, 30074","No_Match",NA,NA,NA,NA
71937,"1544 WELLBORNE RD APT 304","REDAN","GA",30074,NA,NA,437,"1544 WELLBORNE RD APT 304, REDAN, GA, 30074","No_Match",NA,NA,NA,NA
71938,"1544 WHEELING ROAD","LANCASTER","OH",43130,39.7261994140001,-82.55622196,438,"1544 WHEELING ROAD, LANCASTER, OH, 43130","Match","Non_Exact","1544 WHEELING RD NE, LANCASTER, OH, 43130",37235711,"R"
71939,"15440 EDGEWOOD CT","EDEN PRAIRIE","MN",55346,44.876772438,-93.473679782,439,"15440 EDGEWOOD CT, EDEN PRAIRIE, MN, 55346","Match","Exact","15440 EDGEWOOD CT, EDEN PRAIRIE, MN, 55346",43644988,"R"
71940,"15440 JOSEPH PHELPS AVE","BAKERSFIELD","CA",93314,35.3747895610001,-119.174102256,440,"15440 JOSEPH PHELPS AVE, BAKERSFIELD, CA, 93314","Match","Exact","15440 JOSEPH PHELPS AVE, BAKERSFIELD, CA, 93314",616483178,"L"
71941,"15440 LINNET ST NW","ANDOVER","MN",55304,45.2511162390001,-93.3130306899999,441,"15440 LINNET ST NW, ANDOVER, MN, 55304","Match","Non_Exact","15440 LINNET ST, ANDOVER, MN, 55304",97509343,"L"
71942,"15440 MENNELL ROAD","GRAFTON","OH",44044,41.2555060270001,-82.042122277,442,"15440 MENNELL ROAD, GRAFTON, OH, 44044","Match","Exact","15440 MENNELL RD, GRAFTON, OH, 44044",55450293,"R"
71943,"15440 SHERMAN WAY 124","VAN NUYS","CA",91406,34.2010597240001,-118.469133488,443,"15440 SHERMAN WAY 124, VAN NUYS, CA, 91406","Match","Exact","15440 SHERMAN WAY, VAN NUYS, CA, 91406",647598361,"L"
71944,"15441 AURORA AVENUE","URBANDALE","IA",50323,41.637434523,-93.830665622,444,"15441 AURORA AVENUE, URBANDALE, IA, 50323","Match","Exact","15441 AURORA AVE, URBANDALE, IA, 50323",65647280,"R"
71945,"15441 GLENSHIRE DR","TRUCKEE","CA",96161,39.350998614,-120.101923035,445,"15441 GLENSHIRE DR, TRUCKEE, CA, 96161","Match","Exact","15441 GLENSHIRE DR, TRUCKEE, CA, 96161",106526076,"L"
71946,"15441 KNOLL TRAIL DRIVE SUITE 100","DALLAS","TX",75248,32.963331441,-96.8189436929999,446,"15441 KNOLL TRAIL DRIVE SUITE 100, DALLAS, TX, 75248","Match","Exact","15441 KNOLL TRAIL DR, DALLAS, TX, 75248",648244430,"R"
71947,"15442 JACK FORK RD","FOLSOM","LA",70437,30.6102986660001,-90.1493092269999,447,"15442 JACK FORK RD, FOLSOM, LA, 70437","Match","Exact","15442 JACK FORK RD, FOLSOM, LA, 70437",111294906,"R"
71948,"15442 PUGH RD STE 2","EAST LIVERPOOL","OH",43920,40.6783933360001,-80.579999969,448,"15442 PUGH RD STE 2, EAST LIVERPOOL, OH, 43920","Match","Exact","15442 PUGH RD, EAST LIVERPOOL, OH, 43920",63654168,"L"
71949,"15442 PUGH RD SUITE 2","EAST LIVERPOOL","OH",43920,40.6783933360001,-80.579999969,449,"15442 PUGH RD SUITE 2, EAST LIVERPOOL, OH, 43920","Match","Exact","15442 PUGH RD, EAST LIVERPOOL, OH, 43920",63654168,"L"
71950,"15442 VENTURA BLVD STE 101","SHERMAN OAKS","CA",91403,34.1543905440001,-118.469697758,450,"15442 VENTURA BLVD STE 101, SHERMAN OAKS, CA, 91403","Match","Exact","15442 VENTURA BLVD, SHERMAN OAKS, CA, 91403",141560601,"L"
71951,"15443 MINERVA AVE","DOLTON","IL",60419,41.614590031,-87.590492132,451,"15443 MINERVA AVE, DOLTON, IL, 60419","Match","Exact","15443 MINERVA AVE, DOLTON, IL, 60419",111780065,"L"
71952,"15443 N 2ND PL","PHOENIX","AZ",85022,33.626858801,-112.071608267,452,"15443 N 2ND PL, PHOENIX, AZ, 85022","Match","Exact","15443 N 2ND PL, PHOENIX, AZ, 85022",128183028,"R"
71953,"15443 S 4195 ROAD","CLAREMORE","OK",74017,36.388560957,-95.534101994,453,"15443 S 4195 ROAD, CLAREMORE, OK, 74017","Match","Exact","15443 S 4195 RD, CLAREMORE, OK, 74017",20692946,"R"
71954,"15444 W MESCAL ST","SURPRISE","AZ",85379,33.585788934,-112.391428339,454,"15444 W MESCAL ST, SURPRISE, AZ, 85379","Match","Exact","15444 W MESCAL ST, SURPRISE, AZ, 85379",243968830,"L"
71955,"15445 EAST END ST","SOUTH HOLLAND","IL",60473,41.6137867460001,-87.575890076,455,"15445 EAST END ST, SOUTH HOLLAND, IL, 60473","Match","Exact","15445 E END ST, SOUTH HOLLAND, IL, 60473",647601389,"L"
71956,"15445 ROSEWOOD STREET","OMAHA","NE",68138,41.179214067,-96.156258378,456,"15445 ROSEWOOD STREET, OMAHA, NE, 68138","Match","Exact","15445 ROSEWOOD ST, OMAHA, NE, 68138",217528407,"L"
71957,"15446 NW CORNELIUS PASS RD","PORTLAND","OR",97231,45.6333879040001,-122.86463024,457,"15446 NW CORNELIUS PASS RD, PORTLAND, OR, 97231","Match","Exact","15446 NW CORNELIUS PASS RD, PORTLAND, OR, 97231",157598603,"R"
71958,"15447 EMPANADA DRIVE","HOUSTON","TX",77083,29.6962317420001,-95.6585352549999,458,"15447 EMPANADA DRIVE, HOUSTON, TX, 77083","Match","Exact","15447 EMPANADA DR, HOUSTON, TX, 77083",96017561,"R"
71959,"15447 POMONA RINCON RD","CHINO HILLS","CA",91709,33.972642734,-117.69543804,459,"15447 POMONA RINCON RD, CHINO HILLS, CA, 91709","Match","Exact","15447 POMONA RINCON RD, CHINO HILLS, CA, 91709",144678181,"L"
71960,"15447 SW 148 ST","MIAMI","FL",33196,25.6292947700001,-80.4442590739999,460,"15447 SW 148 ST, MIAMI, FL, 33196","Match","Exact","15447 SW 148TH ST, MIAMI, FL, 33196",116077688,"R"
71961,"15448 N 19TH WAY","PHOENIX","AZ",85022,33.6270027690001,-112.04104467,461,"15448 N 19TH WAY, PHOENIX, AZ, 85022","Match","Exact","15448 N 19TH WAY, PHOENIX, AZ, 85022",128183642,"R"
71962,"15449 PEACOCK LANE","CONROE","TX",77302,30.225735609,-95.291709012,462,"15449 PEACOCK LANE, CONROE, TX, 77302","Match","Exact","15449 PEACOCK LN, CONROE, TX, 77302",79285731,"R"
71963,"15449 S PLACITA COYOTITO","SAHUARITA","AZ",85629,NA,NA,463,"15449 S PLACITA COYOTITO, SAHUARITA, AZ, 85629","No_Match",NA,NA,NA,NA
71964,"15449 S STURGEON DR","OLATHE","KS",66062,38.849900013,-94.775510684,464,"15449 S STURGEON DR, OLATHE, KS, 66062","Match","Exact","15449 S STURGEON DR, OLATHE, KS, 66062",91312609,"L"
71965,"1545 10TH ST","MANHATTAN BEACH","CA",90266,33.8856081910001,-118.386348777,465,"1545 10TH ST, MANHATTAN BEACH, CA, 90266","Match","Exact","1545 10TH ST, MANHATTAN BEACH, CA, 90266",141582774,"L"
71966,"1545 19TH AVENUE SOUTH","SEATTLE","WA",98144,47.589127155,-122.3084027,466,"1545 19TH AVENUE SOUTH, SEATTLE, WA, 98144","Match","Exact","1545 19TH AVE S, SEATTLE, WA, 98144",186593628,"R"
71967,"1545 2ND AVENUE UNIT 301","SAN DIEGO","CA",92101,32.721404412,-117.162939062,467,"1545 2ND AVENUE UNIT 301, SAN DIEGO, CA, 92101","Match","Exact","1545 2ND AVE, SAN DIEGO, CA, 92101",195343524,"R"
71968,"1545 2ND ST W","DICKINSON","ND",58601,46.8812107970001,-102.809734478,468,"1545 2ND ST W, DICKINSON, ND, 58601","Match","Exact","1545 2ND ST W, DICKINSON, ND, 58601",199273115,"L"
71969,"1545 CHARLEMAGNE DRIVE","HOFFMAN ESTATES","IL",60192,42.092274171,-88.118821956,469,"1545 CHARLEMAGNE DRIVE, HOFFMAN ESTATES, IL, 60192","Match","Exact","1545 CHARLEMAGNE DR, HOFFMAN EST, IL, 60192",111689880,"R"
71970,"1545 E GABLE AVE","MESA","AZ",85204,33.392936879,-111.797833638,470,"1545 E GABLE AVE, MESA, AZ, 85204","Match","Exact","1545 E GABLE AVE, MESA, AZ, 85204",128246086,"R"
71971,"1545 E MINNESOTA AVE","DELAND","FL",32724,29.035713007,-81.2732827849999,471,"1545 E MINNESOTA AVE, DELAND, FL, 32724","Match","Exact","1545 E MINNESOTA AVE, DELAND, FL, 32724",94510323,"L"
71972,"1545 E SHENANDOAH DR","BOISE","ID",83712,43.615250669,-116.171864658,472,"1545 E SHENANDOAH DR, BOISE, ID, 83712","Match","Exact","1545 SHENANDOAH DR, BOISE, ID, 83712",117897994,"R"
71973,"1545 EAST BROADWAY DRIVE","APPLETON","WI",54913,44.3288928060001,-88.382761976,473,"1545 EAST BROADWAY DRIVE, APPLETON, WI, 54913","Match","Exact","1545 E BROADWAY DR, APPLETON, WI, 54913",647210207,"R"
71974,"1545 HORSE LANDING RD","KING WILLIAM","FL",23086,NA,NA,474,"1545 HORSE LANDING RD, KING WILLIAM, FL, 23086","No_Match",NA,NA,NA,NA
71975,"1545 INDEPENDENCE AVENUE","GLENVIEW","IL",60026,42.083056997,-87.81715432,475,"1545 INDEPENDENCE AVENUE, GLENVIEW, IL, 60026","Match","Exact","1545 INDEPENDENCE AVE, GLENVIEW, IL, 60026",112380155,"R"
71976,"1545 IRONWOOD LANE","NORTH LIBERTY","IA",52317,41.7647257250001,-91.595258751,476,"1545 IRONWOOD LANE, NORTH LIBERTY, IA, 52317","Match","Exact","1545 IRONWOOD LN, NORTH LIBERTY, IA, 52317",617543671,"L"
71977,"1545 KAMEHAMEHA IV RD","HONOLULU","HI",96819,21.341229076,-157.875668576,477,"1545 KAMEHAMEHA IV RD, HONOLULU, HI, 96819","Match","Exact","1545 KAMEHAMEHA IV RD, HONOLULU, HI, 96819",203247853,"R"
71978,"1545 KIMIYO ST","STOCKTON","CA",95206,37.9113032180001,-121.30691636,478,"1545 KIMIYO ST, STOCKTON, CA, 95206","Match","Exact","1545 KIMIYO ST, STOCKTON, CA, 95206",133877346,"R"
71979,"1545 LINE AVE STE 175","SHREVEPORT","LA",71101,32.4977494950001,-93.7460319909999,479,"1545 LINE AVE STE 175, SHREVEPORT, LA, 71101","Match","Exact","1545 LINE AVE, SHREVEPORT, LA, 71101",640238298,"L"
71980,"1545 LINE AVE STE 330B","SHREVEPORT","LA",71101,32.4977494950001,-93.7460319909999,480,"1545 LINE AVE STE 330B, SHREVEPORT, LA, 71101","Match","Exact","1545 LINE AVE, SHREVEPORT, LA, 71101",640238298,"L"
71981,"1545 MAPLE AVENUE","HADDON HEIGHTS","NJ",8035,39.875353922,-75.071138716,481,"1545 MAPLE AVENUE, HADDON HEIGHTS, NJ, 8035","Match","Exact","1545 MAPLE AVE, HADDON HEIGHTS, NJ, 08035",134351529,"R"
71982,"1545 N BRONSON AVE APT 109","LOS ANGELES","CA",90028,34.099410532,-118.317969078,482,"1545 N BRONSON AVE APT 109, LOS ANGELES, CA, 90028","Match","Non_Exact","1545 N BRONSON AVE, LOS ANGELES, CA, 90028",141597102,"L"
71983,"1545 N BUSTLE CREEK RD","ALTA","WY",83414,43.7778728860001,-111.019062322,483,"1545 N BUSTLE CREEK RD, ALTA, WY, 83414","Match","Exact","1545 BUSTLE CREEK RD, ALTA, WY, 83414",130423033,"L"
71984,"1545 NORTH WAUKEGAN ROAD STE 2 9","GLENVIEW","IL",60025,42.083507475,-87.798330698,484,"1545 NORTH WAUKEGAN ROAD STE 2 9, GLENVIEW, IL, 60025","Match","Non_Exact","1545 WAUKEGAN RD, GLENVIEW, IL, 60025",638711753,"R"
71985,"1545 NOSTRAND AVENUE","BROOKLYN","NY",11226,40.648385955,-73.949302371,485,"1545 NOSTRAND AVENUE, BROOKLYN, NY, 11226","Match","Exact","1545 NOSTRAND AVE, BROOKLYN, NY, 11226",59081490,"L"
71986,"1545 NW 15TH ST RD     SUITE 607","MIAMI","FL",33125,25.7888969860001,-80.221298277,486,"1545 NW 15TH ST RD     SUITE 607, MIAMI, FL, 33125","Match","Non_Exact","1545 NW 15TH ST, MIAMI, FL, 33125",116271823,"R"
71987,"1545 NW 15TH STREET ROAD UNIT 505","MIAMI","FL",33125,25.7895756630001,-80.219968937,487,"1545 NW 15TH STREET ROAD UNIT 505, MIAMI, FL, 33125","Match","Non_Exact","1545 NW 15TH STREET RD, MIAMI, FL, 33125",116015670,"R"
71988,"1545 OAKHILL DRIVE","SOUTH BEND","IN",46637,41.695680511,-86.222065062,488,"1545 OAKHILL DRIVE, SOUTH BEND, IN, 46637","Match","Non_Exact","1545 N OAKHILL DR, SOUTH BEND, IN, 46637",8068682,"R"
71989,"1545 PENNINGTON ROAD","EWING","NJ",8618,NA,NA,489,"1545 PENNINGTON ROAD, EWING, NJ, 8618","No_Match",NA,NA,NA,NA
71990,"1545 PIERCE ST","WAXAHACHIE","TX",75165,NA,NA,490,"1545 PIERCE ST, WAXAHACHIE, TX, 75165","No_Match",NA,NA,NA,NA
71991,"1545 POOLE BLVD","YUBA CITY","CA",95993,39.14471811,-121.642400528,491,"1545 POOLE BLVD, YUBA CITY, CA, 95993","Match","Exact","1545 POOLE BLVD, YUBA CITY, CA, 95993",68567760,"R"
71992,"1545 S HART ST RD","VINCENNES","IN",47591,NA,NA,492,"1545 S HART ST RD, VINCENNES, IN, 47591","No_Match",NA,NA,NA,NA
71993,"1545 S HARVARD AVE UNIT B","TULSA","OK",74112,36.139704066,-95.940349302,493,"1545 S HARVARD AVE UNIT B, TULSA, OK, 74112","Match","Non_Exact","1545 S HARVARD AVE, TULSA, OK, 74112",166449113,"L"
71994,"1545 SHADY RIDGE COURT","BOWLING GREEN","KY",42104,36.9478816650001,-86.443828094,494,"1545 SHADY RIDGE COURT, BOWLING GREEN, KY, 42104","Match","Exact","1545 SHADY RIDGE CT, BOWLING GREEN, KY, 42104",28013920,"R"
71995,"1545 SW 11TH PL","LINCOLN","NE",68522,40.797592523,-96.7368133909999,495,"1545 SW 11TH PL, LINCOLN, NE, 68522","Match","Exact","1545 SW 11TH PL, LINCOLN, NE, 68522",28299490,"R"
71996,"1545 TIFTON CT","RICHMOND","VA",23224,37.49650324,-77.480676408,496,"1545 TIFTON CT, RICHMOND, VA, 23224","Match","Exact","1545 TIFTON CT, RICHMOND, VA, 23224",201555963,"R"
71997,"1545 TROTTER CIRCLE","MOUNT PLEASANT","NC",28124,35.439793002,-80.415047004,497,"1545 TROTTER CIRCLE, MOUNT PLEASANT, NC, 28124","Match","Exact","1545 TROTTER CIR, MOUNT PLEASANT, NC, 28124",618563355,"R"
71998,"1545 W 59TH ST","LOS ANGELES","CA",90047,33.9875401620001,-118.30339563,498,"1545 W 59TH ST, LOS ANGELES, CA, 90047","Match","Exact","1545 W 59TH ST, LOS ANGELES, CA, 90047",141658271,"R"
71999,"1545 W 96TH STREET","LOS ANGELES","CA",90047,33.948667851,-118.303467988,499,"1545 W 96TH STREET, LOS ANGELES, CA, 90047","Match","Exact","1545 W 96TH ST, LOS ANGELES, CA, 90047",141659130,"R"
72000,"1545 WELLINGTON VIEW ROAD","HOMEWOOD","AL",35209,33.467353614,-86.799215407,500,"1545 WELLINGTON VIEW ROAD, HOMEWOOD, AL, 35209","Match","Exact","1545 WELLINGTON VIEW RD, HOMEWOOD, AL, 35209",81581638,"R"
