"ID","Address","City","State","Zip","lat","long","id","input_address","match_indicator","match_type","matched_address","tiger_line_id","tiger_side"
226001,"490141","BLAINE","MN",55449,NA,NA,1,"490141, BLAINE, MN, 55449","No_Match",NA,NA,NA,NA
226002,"4902 20TH AVENUE","BROOKLYN","NY",11204,40.6259165590001,-73.976294325,2,"4902 20TH AVENUE, BROOKLYN, NY, 11204","Match","Exact","4902 20TH AVE, BROOKLYN, NY, 11204",652212932,"R"
226003,"4902 AVE R 1/2","GALVESTON","TX",77551,29.2799654510001,-94.8177118149999,3,"4902 AVE R 1/2, GALVESTON, TX, 77551","Match","Exact","4902 AVE R 1/2, GALVESTON, TX, 77551",96680958,"R"
226004,"4902 DAMUELY DRIVE","HILLIARD","OH",43206,NA,NA,4,"4902 DAMUELY DRIVE, HILLIARD, OH, 43206","No_Match",NA,NA,NA,NA
226005,"4902 EISENHOWER BLVD STE 295","TAMPA","FL",33634,NA,NA,5,"4902 EISENHOWER BLVD STE 295, TAMPA, FL, 33634","Tie",NA,NA,NA,NA
226006,"4902 GARRISON FRONTAGE ROAD","GARRISON","MT",59731,46.5575991220001,-112.860097825,6,"4902 GARRISON FRONTAGE ROAD, GARRISON, MT, 59731","Match","Exact","4902 GARRISON FRONTAGE RD, GARRISON, MT, 59731",627477702,"R"
226007,"4902 GENERAUX ROAD","IONIA","MI",48846,42.994542853,-84.9929876959999,7,"4902 GENERAUX ROAD, IONIA, MI, 48846","Match","Exact","4902 GENERAUX RD, IONIA, MI, 48846",642571495,"R"
226008,"4902 GINGHAM CHECK CT","KATY","TX",77449,29.8405601900001,-95.7272299319999,8,"4902 GINGHAM CHECK CT, KATY, TX, 77449","Match","Exact","4902 GINGHAM CHECK CT, KATY, TX, 77449",641968165,"R"
226009,"4902 LANDON LANE","BAYTOWN","TX",77523,29.777454683,-94.842392025,9,"4902 LANDON LANE, BAYTOWN, TX, 77523","Match","Exact","4902 LANDON LN, BAYTOWN, TX, 77523",642184739,"R"
226010,"4902 MC KINLEY AVENUE","TACOMA","WA",98404,47.212569208,-122.420864083,10,"4902 MC KINLEY AVENUE, TACOMA, WA, 98404","Match","Non_Exact","4902 MCKINLEY AVE, TACOMA, WA, 98404",184626495,"R"
226011,"4902 N 18TH ST","SHEBOYGAN","WI",53083,43.7997842610001,-87.729298765,11,"4902 N 18TH ST, SHEBOYGAN, WI, 53083","Match","Exact","4902 N 18TH ST, SHEBOYGAN, WI, 53083",79502719,"L"
226012,"4902 OAKWOOD CT","MIDLAND","TX",79707,32.0504088980001,-102.161655975,12,"4902 OAKWOOD CT, MIDLAND, TX, 79707","Match","Exact","4902 OAKWOOD CT, MIDLAND, TX, 79707",139592351,"L"
226013,"4902 QUEENSBURY CIRCLE","FREDERICKSBURG","VA",22408,38.2712918980001,-77.5106487469999,13,"4902 QUEENSBURY CIRCLE, FREDERICKSBURG, VA, 22408","Match","Exact","4902 QUEENSBURY CIR, FREDERICKSBURG, VA, 22408",85017061,"R"
226014,"4902 RUDGATE BLVD","TOLEDO","OH",43623,41.6984143120001,-83.6603640019999,14,"4902 RUDGATE BLVD, TOLEDO, OH, 43623","Match","Exact","4902 RUDGATE BLVD, TOLEDO, OH, 43623",33952457,"L"
226015,"4902 S OLD BASTROP HWY","SAN MARCOS","TX",78666,29.8119438520001,-97.969268203,15,"4902 S OLD BASTROP HWY, SAN MARCOS, TX, 78666","Match","Exact","4902 S OLD BASTROP HWY, SAN MARCOS, TX, 78666",63832354,"L"
226016,"4902 S XENIA ST","DENVER","CO",80237,39.6270496970001,-104.886009759,16,"4902 S XENIA ST, DENVER, CO, 80237","Match","Exact","4902 S XENIA ST, DENVER, CO, 80237",177346487,"L"
226017,"4902 SOUTH HOGAN","SPOKANE","WA",99223,47.6093842770001,-117.38767977,17,"4902 SOUTH HOGAN, SPOKANE, WA, 99223","Match","Non_Exact","4902 S HOGAN ST, SPOKANE, WA, 99223",189894349,"R"
226018,"4902 WEST FAIRVIEW AVENUE APT 14","BOISE","ID",83706,43.618993065,-116.242359923,18,"4902 WEST FAIRVIEW AVENUE APT 14, BOISE, ID, 83706","Match","Exact","4902 W FAIRVIEW AVE, BOISE, ID, 83706",117862821,"R"
226019,"4903 BARN OWL TRAIL","GRAND PRAIRIE","TX",75052,32.654664364,-97.03554889,19,"4903 BARN OWL TRAIL, GRAND PRAIRIE, TX, 75052","Match","Exact","4903 BARN OWL TRL, GRAND PRAIRIE, TX, 75052",617668490,"R"
226020,"4903 CHALET DRIVE UNIT 6","CINCINNATI","OH",45217,39.166952381,-84.484267272,20,"4903 CHALET DRIVE UNIT 6, CINCINNATI, OH, 45217","Match","Exact","4903 CHALET DR, CINCINNATI, OH, 45217",103971621,"L"
226021,"4903 CHRITIEN POINT CT","SUGAR LAND","TX",77478,29.5935210270001,-95.58574312,21,"4903 CHRITIEN POINT CT, SUGAR LAND, TX, 77478","Match","Exact","4903 CHRITIEN POINT CT, SUGAR LAND, TX, 77478",78290167,"R"
226022,"4903 EHRLICH RD","TAMPA","FL",33624,28.084628944,-82.5302873489999,22,"4903 EHRLICH RD, TAMPA, FL, 33624","Match","Exact","4903 EHRLICH RD, TAMPA, FL, 33624",104509874,"L"
226023,"4903 ENDOLWOOD DR  SUITE H","CHARLOTTE","NC",28215,35.2281082420001,-80.73888182,23,"4903 ENDOLWOOD DR  SUITE H, CHARLOTTE, NC, 28215","Match","Exact","4903 ENDOLWOOD DR, CHARLOTTE, NC, 28215",70508370,"R"
226024,"4903 KINGS COURT","RICHTON PARK","IL",60471,41.4796867330001,-87.7344543739999,24,"4903 KINGS COURT, RICHTON PARK, IL, 60471","Match","Exact","4903 KINGS CT, RICHTON PARK, IL, 60471",111708100,"L"
226025,"4903 LAYTHAN JACE CT","SNELLVILLE","GA",30039,33.764090348,-84.0152343029999,25,"4903 LAYTHAN JACE CT, SNELLVILLE, GA, 30039","Match","Exact","4903 LAYTHAN JACE CT, SNELLVILLE, GA, 30039",639389044,"R"
226026,"4903 LEE FARM CT","ELLICOTT CITY","MD",21043,39.2365112910001,-76.816076497,26,"4903 LEE FARM CT, ELLICOTT CITY, MD, 21043","Match","Exact","4903 LEE FARM CT, ELLICOTT CITY, MD, 21043",639577729,"L"
226027,"4903 MAYFIELD ROAD","PADUCAH","KY",42003,37.033443866,-88.628088869,27,"4903 MAYFIELD ROAD, PADUCAH, KY, 42003","Match","Non_Exact","4903 OLD MAYFIELD RD, PADUCAH, KY, 42003",8410526,"L"
226028,"4903 NOTTINGHAMSHIRE DRIVE","JEFFERSONTOWN","KY",40299,38.17756081,-85.599491969,28,"4903 NOTTINGHAMSHIRE DRIVE, JEFFERSONTOWN, KY, 40299","Match","Exact","4903 NOTTINGHAMSHIRE DR, JEFFERSONTOWN, KY, 40299",96866180,"L"
226029,"4903 OFLAHERTY CT","MABLETON","GA",30126,33.8362620780001,-84.563796307,29,"4903 OFLAHERTY CT, MABLETON, GA, 30126","Match","Non_Exact","4903 OFLAHERTY CT SW, MABLETON, GA, 30126",17180292,"R"
226030,"4903 S SWENSON RD","DEER PARK","WA",99009,NA,NA,30,"4903 S SWENSON RD, DEER PARK, WA, 99009","Tie",NA,NA,NA,NA
226031,"4903 SANBURNE PARKWAY","SANDSTON","VA",23150,37.521348704,-77.337528978,31,"4903 SANBURNE PARKWAY, SANDSTON, VA, 23150","Match","Exact","4903 SANBURNE PKWY, SANDSTON, VA, 23150",106651730,"R"
226032,"4903 TREELODGE PARKWAY","ATLANTA","GA",30350,NA,NA,32,"4903 TREELODGE PARKWAY, ATLANTA, GA, 30350","No_Match",NA,NA,NA,NA
226033,"4903 WELLINGTON WAY","HOUSTON","TX",77069,29.9966910680001,-95.51156587,33,"4903 WELLINGTON WAY, HOUSTON, TX, 77069","Match","Exact","4903 WELLINGTON WAY, HOUSTON, TX, 77069",639541724,"R"
226034,"4903 WYMOSA STREET","BOISE","ID",83703,43.6467015870001,-116.250422746,34,"4903 WYMOSA STREET, BOISE, ID, 83703","Match","Exact","4903 WYMOSA ST, BOISE, ID, 83703",117897202,"L"
226035,"4904 114TH AVENUE NE","KIRKLAND","WA",98033,47.6538647150001,-122.188280145,35,"4904 114TH AVENUE NE, KIRKLAND, WA, 98033","Match","Exact","4904 114TH AVE NE, KIRKLAND, WA, 98033",186605297,"R"
226036,"4904 28TH AVENUE APT 2","LOS ANGELES","CA",90034,NA,NA,36,"4904 28TH AVENUE APT 2, LOS ANGELES, CA, 90034","No_Match",NA,NA,NA,NA
226037,"4904 CAMINO AL NORTE   335178","NORTH LAS VEGAS","NV",89031,NA,NA,37,"4904 CAMINO AL NORTE   335178, NORTH LAS VEGAS, NV, 89031","No_Match",NA,NA,NA,NA
226038,"4904 CAMINO AL NORTE 335432","NORTH LAS VEGAS","NV",89031,NA,NA,38,"4904 CAMINO AL NORTE 335432, NORTH LAS VEGAS, NV, 89031","No_Match",NA,NA,NA,NA
226039,"4904 CAMINO AL NORTE 335432","NORTH LAS VEGAS","NV",89033,NA,NA,39,"4904 CAMINO AL NORTE 335432, NORTH LAS VEGAS, NV, 89033","No_Match",NA,NA,NA,NA
226040,"4904 CAMINO AL NORTE 337372","N LAS VEGAS","NV",89031,NA,NA,40,"4904 CAMINO AL NORTE 337372, N LAS VEGAS, NV, 89031","No_Match",NA,NA,NA,NA
226041,"4904 CAMINO AL NORTE UNIT 335812","NORTH LAS VEGAS","NV",89033,NA,NA,41,"4904 CAMINO AL NORTE UNIT 335812, NORTH LAS VEGAS, NV, 89033","No_Match",NA,NA,NA,NA
226042,"4904 CAMINO EL NORTE","N LAS VEGAS","NV",89031,NA,NA,42,"4904 CAMINO EL NORTE, N LAS VEGAS, NV, 89031","No_Match",NA,NA,NA,NA
226043,"4904 CRENSHAW BLVD","LOS ANGELES","CA",90043,33.998828824,-118.330545853,43,"4904 CRENSHAW BLVD, LOS ANGELES, CA, 90043","Match","Non_Exact","4904 S CRENSHAW BLVD, LOS ANGELES, CA, 90043",241169919,"L"
226044,"4904 DARYL CT","SAINT CLOUD","FL",34771,28.251737597,-81.241950725,44,"4904 DARYL CT, SAINT CLOUD, FL, 34771","Match","Exact","4904 DARYL CT, SAINT CLOUD, FL, 34771",176699004,"R"
226045,"4904 FALKIRK MEWS","WILLIAMSBURG","VA",23188,37.30035995,-76.741589214,45,"4904 FALKIRK MEWS, WILLIAMSBURG, VA, 23188","Match","Exact","4904 FALKIRK MEWS, WILLIAMSBURG, VA, 23188",103772799,"R"
226046,"4904 FOXMOORE COURT NE","RIO RANCHO","NM",87144,35.3515234710001,-106.613202308,46,"4904 FOXMOORE COURT NE, RIO RANCHO, NM, 87144","Match","Exact","4904 FOXMOORE CT NE, RIO RANCHO, NM, 87144",611357793,"L"
226047,"4904 GLEN SPRINGS TRAIL","FORT WORTH","TX",76137,32.8830001470001,-97.27761749,47,"4904 GLEN SPRINGS TRAIL, FORT WORTH, TX, 76137","Match","Exact","4904 GLEN SPRINGS TRL, FORT WORTH, TX, 76137",102085852,"R"
226048,"4904 JASMINE AVE","SAVANNAH","GA",31404,32.020901886,-81.0616700149999,48,"4904 JASMINE AVE, SAVANNAH, GA, 31404","Match","Exact","4904 JASMINE AVE, SAVANNAH, GA, 31404",639418688,"L"
226049,"4904 LOCH RAVEN BLVD","BALTIMORE","CA",21239,NA,NA,49,"4904 LOCH RAVEN BLVD, BALTIMORE, CA, 21239","No_Match",NA,NA,NA,NA
226050,"4904 MARTIN DR SE","EAST SPARTA","OH",44626,40.7293383510001,-81.342193292,50,"4904 MARTIN DR SE, EAST SPARTA, OH, 44626","Match","Exact","4904 MARTIN DR SE, EAST SPARTA, OH, 44626",64687328,"L"
226051,"4904 MEADOWBROOK CIRCLE","SUWANEE","GA",30024,34.0794481730001,-84.08917865,51,"4904 MEADOWBROOK CIRCLE, SUWANEE, GA, 30024","Match","Exact","4904 MEADOWBROOK CIR, SUWANEE, GA, 30024",88964236,"L"
226052,"4904 MONROE STREET","BLADENSBURG","MD",20710,38.9335306030001,-76.933559437,52,"4904 MONROE STREET, BLADENSBURG, MD, 20710","Match","Exact","4904 MONROE ST, BLADENSBURG, MD, 20710",76306665,"L"
226053,"4904 N 29TH ST","TAMPA","FL",33610,27.989771923,-82.427333069,53,"4904 N 29TH ST, TAMPA, FL, 33610","Match","Exact","4904 N 29TH ST, TAMPA, FL, 33610",104533344,"L"
226054,"4904 PERRIER STREET","NO","LA",70115,29.923895105,-90.10792896,54,"4904 PERRIER STREET, NO, LA, 70115","Match","Exact","4904 PERRIER ST, NEW ORLEANS, LA, 70115",191712837,"L"
226055,"4904 POPLAR RIDGE ROAD","TRINITY","NC",27370,35.794910847,-79.971545556,55,"4904 POPLAR RIDGE ROAD, TRINITY, NC, 27370","Match","Exact","4904 POPLAR RIDGE RD, TRINITY, NC, 27370",20425336,"R"
226056,"4904 RANDOLPH RD","NORTH LITTLE ROCK","AR",72116,34.800051448,-92.241527823,56,"4904 RANDOLPH RD, NORTH LITTLE ROCK, AR, 72116","Match","Exact","4904 RANDOLPH RD, N LITTLE ROCK, AR, 72116",83514294,"R"
226057,"4904 S KLEIN AVE","SIOUX FALLS","SD",57106,43.501532964,-96.8272330679999,57,"4904 S KLEIN AVE, SIOUX FALLS, SD, 57106","Match","Exact","4904 S KLEIN AVE, SIOUX FALLS, SD, 57106",626947232,"L"
226058,"4904 S MERRIMAN","WAYNE","MI",48184,42.2722285620001,-83.348156935,58,"4904 S MERRIMAN, WAYNE, MI, 48184","Match","Non_Exact","4904 MERRIMAN RD, WAYNE, MI, 48184",95684839,"R"
226059,"4904 SOUTH POWER RD 103-203","MESA","AZ",85212,NA,NA,59,"4904 SOUTH POWER RD 103-203, MESA, AZ, 85212","No_Match",NA,NA,NA,NA
226060,"4904 STONE SHOP CIRCLE","OWINGS MILLS","MD",21117,39.4065151830001,-76.81267121,60,"4904 STONE SHOP CIRCLE, OWINGS MILLS, MD, 21117","Match","Exact","4904 STONE SHOP CIR, OWINGS MILLS, MD, 21117",191550173,"R"
226061,"4904 STONY FALLS WAY","KNIGHTDALE","NC",27545,35.75815987,-78.506753577,61,"4904 STONY FALLS WAY, KNIGHTDALE, NC, 27545","Match","Exact","4904 STONY FALLS WAY, KNIGHTDALE, NC, 27545",646875122,"L"
226062,"4904 W 123RD PLACE","HAWTHORNE","CA",90250,NA,NA,62,"4904 W 123RD PLACE, HAWTHORNE, CA, 90250","Tie",NA,NA,NA,NA
226063,"4904 WALLACE AVE","SACRAMENTO","CA",95838,38.65761725,-121.451680025,63,"4904 WALLACE AVE, SACRAMENTO, CA, 95838","Match","Exact","4904 WALLACE AVE, SACRAMENTO, CA, 95838",133319921,"R"
226064,"4904 WATERVISTA DRIVE","ORLANDO","FL",32821,28.4097100380001,-81.441531412,64,"4904 WATERVISTA DRIVE, ORLANDO, FL, 32821","Match","Exact","4904 WATERVISTA DR, ORLANDO, FL, 32821",94335974,"R"
226065,"4904 WUNNENBERG WAY","WEST CHESTER","OH",45069,39.344971544,-84.4589874059999,65,"4904 WUNNENBERG WAY, WEST CHESTER, OH, 45069","Match","Non_Exact","4904 WUNNENBERG, WEST CHESTER, OH, 45069",604774943,"L"
226066,"4904 YORK RD UNIT 4562","BALTIMORE","MD",21212,39.3482705000001,-76.6097318819999,66,"4904 YORK RD UNIT 4562, BALTIMORE, MD, 21212","Match","Exact","4904 YORK RD, BALTIMORE, MD, 21212",206408214,"L"
226067,"4905  34TH STREET SO  SUITE 107","ST PETERSBURG","FL",33711,27.723582976,-82.679296783,67,"4905  34TH STREET SO  SUITE 107, ST PETERSBURG, FL, 33711","Match","Exact","4905 34TH ST S, SAINT PETERSBURG, FL, 33711",124709992,"R"
226068,"4905 34TH ST S  UNIT 108","ST PETE","FL",33711,27.723582976,-82.679296783,68,"4905 34TH ST S  UNIT 108, ST PETE, FL, 33711","Match","Exact","4905 34TH ST S, SAINT PETERSBURG, FL, 33711",124709992,"R"
226069,"4905 34TH STREET S STE 349","ST PETERSBURG","FL",33711,27.723582976,-82.679296783,69,"4905 34TH STREET S STE 349, ST PETERSBURG, FL, 33711","Match","Exact","4905 34TH ST S, SAINT PETERSBURG, FL, 33711",124709992,"R"
226070,"4905 34TH STREET SOUTH 154","ST PETERSBURG","FL",33711,27.723582976,-82.679296783,70,"4905 34TH STREET SOUTH 154, ST PETERSBURG, FL, 33711","Match","Exact","4905 34TH ST S, SAINT PETERSBURG, FL, 33711",124709992,"R"
226071,"4905 34TH STREET SOUTH 310","ST PETERSBURG","FL",33711,27.723582976,-82.679296783,71,"4905 34TH STREET SOUTH 310, ST PETERSBURG, FL, 33711","Match","Exact","4905 34TH ST S, SAINT PETERSBURG, FL, 33711",124709992,"R"
226072,"4905 34TH STREET SOUTH SUITE 146","ST PETERSBURG","FL",63113,27.723582976,-82.679296783,72,"4905 34TH STREET SOUTH SUITE 146, ST PETERSBURG, FL, 63113","Match","Non_Exact","4905 34TH ST S, SAINT PETERSBURG, FL, 33711",124709992,"R"
226073,"4905 42ND AVENUE","HYATTSVILLE","MD",20781,38.949336923,-76.9446567589999,73,"4905 42ND AVENUE, HYATTSVILLE, MD, 20781","Match","Exact","4905 42ND AVE, HYATTSVILLE, MD, 20781",76305910,"R"
226074,"4905 AUSTELL POWDER SPRINGS ROAD","AUSTELL","GA",30106,33.83623958,-84.657053177,74,"4905 AUSTELL POWDER SPRINGS ROAD, AUSTELL, GA, 30106","Match","Exact","4905 AUSTELL POWDER SPRINGS RD, AUSTELL, GA, 30106",642058976,"L"
226075,"4905 BECK ROAD","EMMAUS","PA",18049,40.507224846,-75.521543965,75,"4905 BECK ROAD, EMMAUS, PA, 18049","Match","Exact","4905 BECK RD, EMMAUS, PA, 18049",80790284,"L"
226076,"4905 CHENNAULT STREET","PAPILLION","NE",68133,41.1258760530001,-95.9884819229999,76,"4905 CHENNAULT STREET, PAPILLION, NE, 68133","Match","Exact","4905 CHENNAULT ST, PAPILLION, NE, 68133",624361759,"R"
226077,"4905 COLONEL CONTEE PLACE","UPPER MARLBORO","MD",20772,38.8233615770001,-76.755188688,77,"4905 COLONEL CONTEE PLACE, UPPER MARLBORO, MD, 20772","Match","Exact","4905 COLONEL CONTEE PL, UPPER MARLBORO, MD, 20772",76368169,"R"
226078,"4905 DOUGLASTON PARKWAY","DOUGLASTON","NY",11362,NA,NA,78,"4905 DOUGLASTON PARKWAY, DOUGLASTON, NY, 11362","No_Match",NA,NA,NA,NA
226079,"4905 FLORENCE STREET","BELLAIRE","TX",77401,29.701353682,-95.464778215,79,"4905 FLORENCE STREET, BELLAIRE, TX, 77401","Match","Exact","4905 FLORENCE ST, BELLAIRE, TX, 77401",96033706,"L"
226080,"4905 GRAND AVE","DES MOINES","IA",50312,NA,NA,80,"4905 GRAND AVE, DES MOINES, IA, 50312","No_Match",NA,NA,NA,NA
226081,"4905 GREENWOOD DR SW","OLYMPIA","WA",98502,47.0429932980001,-122.966312166,81,"4905 GREENWOOD DR SW, OLYMPIA, WA, 98502","Match","Exact","4905 GREENWOOD DR SW, OLYMPIA, WA, 98502",627636451,"R"
226082,"4905 HOLIDAY LANE","NORTH RICHLAND HILLS","TX",76180,32.8364975900001,-97.227697367,82,"4905 HOLIDAY LANE, NORTH RICHLAND HILLS, TX, 76180","Match","Non_Exact","4905 HOLIDAY LN E, NORTH RICHLAND HILLS, TX, 76180",101864886,"L"
226083,"4905 LASALLE AVE","BELLINGHAM","WA",98229,48.7416506060001,-122.391963755,83,"4905 LASALLE AVE, BELLINGHAM, WA, 98229","Match","Exact","4905 LASALLE AVE, BELLINGHAM, WA, 98229",183788693,"R"
226084,"4905 LEWISTON DR","INDIANAPOLIS","IN",46254,39.843399735,-86.2427110579999,84,"4905 LEWISTON DR, INDIANAPOLIS, IN, 46254","Match","Exact","4905 LEWISTON DR, INDIANAPOLIS, IN, 46254",108040628,"R"
226085,"4905 MANILA AVE","OAKLAND","CA",94609,37.8346388370001,-122.255514177,85,"4905 MANILA AVE, OAKLAND, CA, 94609","Match","Exact","4905 MANILA AVE, OAKLAND, CA, 94609",125000197,"L"
226086,"4905 MARTHA LANE","SCHWENKSVILLE","PA",19473,40.245139264,-75.449823833,86,"4905 MARTHA LANE, SCHWENKSVILLE, PA, 19473","Match","Exact","4905 MARTHA LN, SCHWENKSVILLE, PA, 19473",135066940,"L"
226087,"4905 MOUNTAIN SPRINGS COURT","RAPID CITY","SD",57702,NA,NA,87,"4905 MOUNTAIN SPRINGS COURT, RAPID CITY, SD, 57702","Tie",NA,NA,NA,NA
226088,"4905 N 108TH AVE","PHOENIX","AZ",85037,33.506666538,-112.292734704,88,"4905 N 108TH AVE, PHOENIX, AZ, 85037","Match","Exact","4905 N 108TH AVE, PHOENIX, AZ, 85037",619900209,"R"
226089,"4905 N WILLOW AVE","BETHANY","OK",73008,35.5206649450001,-97.633340913,89,"4905 N WILLOW AVE, BETHANY, OK, 73008","Match","Exact","4905 N WILLOW AVE, BETHANY, OK, 73008",100389908,"L"
226090,"4905 NE 2ND LOOP","OCALA","FL",34470,29.1886954760001,-82.067230437,90,"4905 NE 2ND LOOP, OCALA, FL, 34470","Match","Exact","4905 NE 2ND LOOP, OCALA, FL, 34470",116729246,"R"
226091,"4905 NE 47TH AVE","VANCOUVER","WA",98661,45.6571651140001,-122.62375077,91,"4905 NE 47TH AVE, VANCOUVER, WA, 98661","Match","Exact","4905 NE 47TH AVE, VANCOUVER, WA, 98661",158327141,"R"
226092,"4905 NETTIE AVE","LAS VEGAS","NV",89110,36.1763751440001,-115.066590461,92,"4905 NETTIE AVE, LAS VEGAS, NV, 89110","Match","Exact","4905 NETTIE AVE, LAS VEGAS, NV, 89110",201875383,"R"
226093,"4905 NORTHLAKE DRIVE","EVANSVILLE","IN",47715,38.0017478880001,-87.489763673,93,"4905 NORTHLAKE DRIVE, EVANSVILLE, IN, 47715","Match","Exact","4905 NORTHLAKE DR, EVANSVILLE, IN, 47715",39790918,"R"
226094,"4905 NW 59TH STREET","TAMARAC","FL",33319,26.197131896,-80.215866261,94,"4905 NW 59TH STREET, TAMARAC, FL, 33319","Match","Exact","4905 NW 59TH ST, TAMARAC, FL, 33319",640883088,"R"
226095,"4905 OLD PASS ROAD","GULFPORT","MS",39501,30.3645543010001,-89.125619447,95,"4905 OLD PASS ROAD, GULFPORT, MS, 39501","Match","Exact","4905 OLD PASS RD, GULFPORT, MS, 39501",111377230,"L"
226096,"4905 OLIVE OAK WAY","CARMICHAEL","CA",95608,38.595867492,-121.34920217,96,"4905 OLIVE OAK WAY, CARMICHAEL, CA, 95608","Match","Exact","4905 OLIVE OAK WAY, CARMICHAEL, CA, 95608",133339288,"L"
226097,"4905 RAINTREE DR","WEST DES MOINES","IA",50265,41.5660350150001,-93.769408367,97,"4905 RAINTREE DR, WEST DES MOINES, IA, 50265","Match","Exact","4905 RAINTREE DR, W DES MOINES, IA, 50265",65852272,"L"
226098,"4905 S 131 ST","OMAHA","NE",68137,41.2098585150001,-96.118099533,98,"4905 S 131 ST, OMAHA, NE, 68137","Match","Exact","4905 S 131ST ST, OMAHA, NE, 68137",116971579,"L"
226099,"4905 S 5TH AVE","PHOENIX","AZ",85041,33.40101278,-112.078560453,99,"4905 S 5TH AVE, PHOENIX, AZ, 85041","Match","Exact","4905 S 5TH AVE, PHOENIX, AZ, 85041",128212799,"L"
226100,"4905 S QUINTERO CIR","AURORA","CO",80015,39.62746579,-104.788217623,100,"4905 S QUINTERO CIR, AURORA, CO, 80015","Match","Exact","4905 S QUINTERO CIR, AURORA, CO, 80015",177380271,"R"
226101,"4905 S REDBUD AVE","BROKEN ARROW","OK",74011,36.001746982,-95.8102786649999,101,"4905 S REDBUD AVE, BROKEN ARROW, OK, 74011","Match","Exact","4905 S REDBUD AVE, BROKEN ARROW, OK, 74011",166464465,"L"
226102,"4905 SADDLECREEK ROAD","LAKELAND","FL",33801,NA,NA,102,"4905 SADDLECREEK ROAD, LAKELAND, FL, 33801","No_Match",NA,NA,NA,NA
226103,"4905 SW 10TH STREET","MARGATE","FL",33068,26.217129986,-80.192857152,103,"4905 SW 10TH STREET, MARGATE, FL, 33068","Match","Non_Exact","4905 SW 10TH ST, MARGATE, FL, 33068",114780733,"L"
226104,"4905 TIMBERLAN ST","TAMPA","FL",33624,28.06035339,-82.525200545,104,"4905 TIMBERLAN ST, TAMPA, FL, 33624","Match","Exact","4905 TIMBERLAN ST, TAMPA, FL, 33624",104659674,"L"
226105,"4905 TUDOR DRIVE","POMPTON PLAINS","NJ",7444,40.9715867950001,-74.318508761,105,"4905 TUDOR DRIVE, POMPTON PLAINS, NJ, 7444","Match","Exact","4905 TUDOR DR, POMPTON PLAINS, NJ, 07444",60494546,"R"
226106,"4905 US HIGHWAY 36","ESTES PARK","CO",80517,40.344933838,-105.434044636,106,"4905 US HIGHWAY 36, ESTES PARK, CO, 80517","Match","Exact","4905 US HWY 36, ESTES PARK, CO, 80517",188530798,"L"
226107,"4905 W 60TH AVE","ARVADA","CO",80003,39.8055602200001,-105.050223996,107,"4905 W 60TH AVE, ARVADA, CO, 80003","Match","Exact","4905 W 60TH AVE, ARVADA, CO, 80003",177298256,"R"
226108,"4905 W KAMERLING","CHICAGO","IL",60651,41.905046903,-87.7487613549999,108,"4905 W KAMERLING, CHICAGO, IL, 60651","Match","Non_Exact","4905 W KAMERLING AVE, CHICAGO, IL, 60651",111758088,"L"
226109,"4905 W ORIOLE AVE","VISALIA","CA",93291,36.3551203810001,-119.346157309,109,"4905 W ORIOLE AVE, VISALIA, CA, 93291","Match","Exact","4905 W ORIOLE AVE, VISALIA, CA, 93291",607592478,"L"
226110,"4905 WATSON MILL CT","LOGANVILLE","GA",30052,33.8607474240001,-83.8794851649999,110,"4905 WATSON MILL CT, LOGANVILLE, GA, 30052","Match","Exact","4905 WATSON MILL CT, LOGANVILLE, GA, 30052",77637548,"R"
226111,"4905 YORK AVENUE SOUTH","MINNEAPOLIS","MN",55410,44.9140659390001,-93.320122607,111,"4905 YORK AVENUE SOUTH, MINNEAPOLIS, MN, 55410","Match","Exact","4905 YORK AVE S, MINNEAPOLIS, MN, 55410",43628264,"L"
226112,"4906 BROOKLYN AVE","KANSAS CITY","MO",64130,39.03732302,-94.559231059,112,"4906 BROOKLYN AVE, KANSAS CITY, MO, 64130","Match","Exact","4906 BROOKLYN AVE, KANSAS CITY, MO, 64130",91452399,"R"
226113,"4906 COLORADO AVENUE","NASHVILLE","TN",37209,36.1421403050001,-86.8456594849999,113,"4906 COLORADO AVENUE, NASHVILLE, TN, 37209","Match","Exact","4906 COLORADO AVE, NASHVILLE, TN, 37209",97180627,"R"
226114,"4906 CRITTENDEN AVE","INDIANAPOLIS","IN",46205,39.843167491,-86.1277394639999,114,"4906 CRITTENDEN AVE, INDIANAPOLIS, IN, 46205","Match","Exact","4906 CRITTENDEN AVE, INDIANAPOLIS, IN, 46205",107985347,"L"
226115,"4906 ELENOR DRIVE","FREDERICK","MD",21703,39.3687222400001,-77.45276001,115,"4906 ELENOR DRIVE, FREDERICK, MD, 21703","Match","Non_Exact","4906 ELEANOR DR, FREDERICK, MD, 21703",640662006,"R"
226116,"4906 FOREST HURST GLEN","SPRING","TX",77373,30.061361016,-95.3659606529999,116,"4906 FOREST HURST GLEN, SPRING, TX, 77373","Match","Exact","4906 FOREST HURST GLEN, SPRING, TX, 77373",627726953,"R"
226117,"4906 GRANNY TRAIL","GASTONIA","NC",28056,35.1745556610001,-81.177337125,117,"4906 GRANNY TRAIL, GASTONIA, NC, 28056","Match","Exact","4906 GRANNY TRL, GASTONIA, NC, 28056",70394897,"L"
226118,"4906 LADY OF THE LAKE DR","RALEIGH","NC",27612,35.859192347,-78.7183904349999,118,"4906 LADY OF THE LAKE DR, RALEIGH, NC, 27612","Match","Exact","4906 LADY OF THE LAKE DR, RALEIGH, NC, 27612",639840325,"R"
226119,"4906 LENHARD LN","DEER PARK","WA",99006,47.955116623,-117.554283292,119,"4906 LENHARD LN, DEER PARK, WA, 99006","Match","Exact","4906 LENHARD LN, DEER PARK, WA, 99006",174851386,"L"
226120,"4906 LINDY LANE","RICHMOND","VA",23224,37.4791542020001,-77.482735511,120,"4906 LINDY LANE, RICHMOND, VA, 23224","Match","Exact","4906 LINDY LN, RICHMOND, VA, 23224",201554444,"R"
226121,"4906 MALLARD COVE","WOOLFORD","MD",21677,38.5201938540001,-76.182363095,121,"4906 MALLARD COVE, WOOLFORD, MD, 21677","Match","Exact","4906 MALLARD COVE, WOOLFORD, MD, 21677",99665658,"L"
226122,"4906 MICHIGAN AVE","KANSAS CITY","MO",64130,39.0374486760001,-94.562711226,122,"4906 MICHIGAN AVE, KANSAS CITY, MO, 64130","Match","Exact","4906 MICHIGAN AVE, KANSAS CITY, MO, 64130",91452336,"R"
226123,"4906 MILLER DR","DURHAM","NC",27704,36.064008632,-78.8760534209999,123,"4906 MILLER DR, DURHAM, NC, 27704","Match","Exact","4906 MILLER DR, DURHAM, NC, 27704",618108096,"R"
226124,"4906 N 85TH STREET","MILWAUKEE","WI",53225,43.1070084880001,-88.0168745249999,124,"4906 N 85TH STREET, MILWAUKEE, WI, 53225","Match","Exact","4906 N 85TH ST, MILWAUKEE, WI, 53225",647204871,"R"
226125,"4906 OLD LEEDS RD","BIRMINGHAM","AL",35213,33.512996693,-86.704182977,125,"4906 OLD LEEDS RD, BIRMINGHAM, AL, 35213","Match","Exact","4906 OLD LEEDS RD, BIRMINGHAM, AL, 35213",81689621,"L"
226126,"4906 ROYAL STABLE","SAN ANTONIO","TX",78238,29.480270864,-98.618107311,126,"4906 ROYAL STABLE, SAN ANTONIO, TX, 78238","Match","Exact","4906 ROYAL STABLE, SAN ANTONIO, TX, 78238",619990727,"L"
226127,"4906 S BLACKSTONE AVE UNIT E","CHICAGO","IL",60615,41.805831642,-87.590576278,127,"4906 S BLACKSTONE AVE UNIT E, CHICAGO, IL, 60615","Match","Non_Exact","4906 S BLACKSTONE AVE, CHICAGO, IL, 60615",111771594,"R"
226128,"4906 SOUTH COUNTRY LANE","FREMONT","MI",49412,43.465845641,-85.98295956,128,"4906 SOUTH COUNTRY LANE, FREMONT, MI, 49412","Match","Non_Exact","4906 COUNTRY LN, FREMONT, MI, 49412",150234519,"L"
226129,"4906 VALLEY CREST DRIVE APT 403","MIDLOTHIAN","VA",23112,37.4200292510001,-77.621592186,129,"4906 VALLEY CREST DRIVE APT 403, MIDLOTHIAN, VA, 23112","Match","Exact","4906 VALLEY CREST DR, MIDLOTHIAN, VA, 23112",201583185,"R"
226130,"49061 CAVIN LANE","COARSEGOLD","CA",93614,37.28556666,-119.653408507,130,"49061 CAVIN LANE, COARSEGOLD, CA, 93614","Match","Exact","49061 CAVIN LN, COARSEGOLD, CA, 93614",102355702,"L"
226131,"4907 136TH PL SE","BELLEVUE","WA",98006,47.5585805900001,-122.15733722,131,"4907 136TH PL SE, BELLEVUE, WA, 98006","Match","Exact","4907 136TH PL SE, BELLEVUE, WA, 98006",642835833,"L"
226132,"4907 5TH STREET","MERIDIAN","MS",39307,32.3599231790001,-88.727515107,132,"4907 5TH STREET, MERIDIAN, MS, 39307","Match","Exact","4907 5TH ST, MERIDIAN, MS, 39307",203397,"R"
226133,"4907 ANNLYN DR","SANDSTON","VA",23150,37.521087934,-77.338780593,133,"4907 ANNLYN DR, SANDSTON, VA, 23150","Match","Exact","4907 ANNLYN DR, SANDSTON, VA, 23150",106651728,"R"
226134,"4907 BROOKVIEW DRIVE","JEFFERSON CITY","MO",65109,38.5890279270001,-92.283511677,134,"4907 BROOKVIEW DRIVE, JEFFERSON CITY, MO, 65109","Match","Exact","4907 BROOKVIEW DR, JEFFERSON CITY, MO, 65109",34406039,"R"
226135,"4907 COTTER LAKE DRIVE","MISSOURI CITY","TX",77459,29.5720572290001,-95.579173269,135,"4907 COTTER LAKE DRIVE, MISSOURI CITY, TX, 77459","Match","Exact","4907 COTTER LAKE DR, MISSOURI CITY, TX, 77459",78287311,"L"
226136,"4907 DEWARS CIRCLE","WILINGTON","NC",28409,34.165815004,-77.8816220689999,136,"4907 DEWARS CIRCLE, WILINGTON, NC, 28409","Match","Non_Exact","4907 DEWARS CIR, WILMINGTON, NC, 28409",152753517,"L"
226137,"4907 DUNBAR VALLEY ROAD","FISHERVILLE","KY",40023,38.169237476,-85.4338726129999,137,"4907 DUNBAR VALLEY ROAD, FISHERVILLE, KY, 40023","Match","Exact","4907 DUNBAR VALLEY RD, FISHERVILLE, KY, 40023",96907388,"L"
226138,"4907 E 46 ROAD","CADILLAC","MI",49601,44.208535829,-85.47927151,138,"4907 E 46 ROAD, CADILLAC, MI, 49601","Match","Exact","4907 E 46 RD, CADILLAC, MI, 49601",611699048,"R"
226139,"4907 E WINCHCOMB DRIVE","SCOTTSDALE","AZ",85254,33.6168253760001,-111.975576863,139,"4907 E WINCHCOMB DRIVE, SCOTTSDALE, AZ, 85254","Match","Exact","4907 E WINCHCOMB DR, SCOTTSDALE, AZ, 85254",128915382,"R"
226140,"4907 FOSTER AVE","BROOKLYN","NY",11203,40.6397482450001,-73.929977104,140,"4907 FOSTER AVE, BROOKLYN, NY, 11203","Match","Exact","4907 FOSTER AVE, BROOKLYN, NY, 11203",59085957,"L"
226141,"4907 MAGNOLIA AVE","FEASTERVILLE-TREVOSE","PA",19053,40.1524469300001,-74.972549696,141,"4907 MAGNOLIA AVE, FEASTERVILLE-TREVOSE, PA, 19053","Match","Exact","4907 MAGNOLIA AVE, FEASTERVILLE TREVOSE, PA, 19053",134710165,"R"
226142,"4907 MAID MARION DRIVE","PASCAGOULA","MS",39581,30.3815252270001,-88.505725233,142,"4907 MAID MARION DRIVE, PASCAGOULA, MS, 39581","Match","Exact","4907 MAID MARION DR, PASCAGOULA, MS, 39581",89254765,"L"
226143,"4907 MORENA BLVD STE 1415","SAN DIEGO","CA",92117,32.826610997,-117.230304139,143,"4907 MORENA BLVD STE 1415, SAN DIEGO, CA, 92117","Match","Exact","4907 MORENA BLVD, SAN DIEGO, CA, 92117",195301859,"R"
226144,"4907 N 9TH STREET","OZARK","MO",65721,37.064705695,-93.210766454,144,"4907 N 9TH STREET, OZARK, MO, 65721","Match","Exact","4907 N 9TH ST, OZARK, MO, 65721",99827408,"R"
226145,"4907 N ARTHUR AVENUE APT 104","FRESNO","CA",93705,36.8067177070001,-119.815204536,145,"4907 N ARTHUR AVENUE APT 104, FRESNO, CA, 93705","Match","Non_Exact","4907 N ARTHUR AVE, FRESNO, CA, 93705",197569040,"L"
226146,"4907 N WOLCOTT AVE UNIT 1A","CHICAGO","IL",60640,41.970861531,-87.67625608,146,"4907 N WOLCOTT AVE UNIT 1A, CHICAGO, IL, 60640","Match","Non_Exact","4907 N WOLCOTT AVE, CHICAGO, IL, 60640",111761172,"R"
226147,"4907 ROGER DRIVE","ANCHORAGE","AK",99507,61.176415852,-149.83994915,147,"4907 ROGER DRIVE, ANCHORAGE, AK, 99507","Match","Exact","4907 ROGER DR, ANCHORAGE, AK, 99507",190799881,"L"
226148,"4907 SANDERSON LANE","TEXARKANA","AR",71854,33.469813048,-94.011614008,148,"4907 SANDERSON LANE, TEXARKANA, AR, 71854","Match","Exact","4907 SANDERSON LN, TEXARKANA, AR, 71854",57275333,"L"
226149,"4907 SAVOY PLACE UNIT B","WALDORF","MD",20602,38.5914859660001,-76.9018586289999,149,"4907 SAVOY PLACE UNIT B, WALDORF, MD, 20602","Match","Exact","4907 SAVOY PL, WALDORF, MD, 20602",25369633,"R"
226150,"4907 TOOLEY DRIVE","CHESTER","VA",23831,37.318047667,-77.452152115,150,"4907 TOOLEY DRIVE, CHESTER, VA, 23831","Match","Exact","4907 TOOLEY DR, CHESTER, VA, 23831",616583757,"R"
226151,"4907 W 63RD AVENUE","ARVADA","CO",80003,39.8105863120001,-105.049816209,151,"4907 W 63RD AVENUE, ARVADA, CO, 80003","Match","Exact","4907 W 63RD AVE, ARVADA, CO, 80003",177461675,"L"
226152,"4907 WEST CENTER ST","MILWAUKEE","WI",53210,43.067946346,-87.9751056819999,152,"4907 WEST CENTER ST, MILWAUKEE, WI, 53210","Match","Exact","4907 W CENTER ST, MILWAUKEE, WI, 53210",77732029,"L"
226153,"4907 WHITNER DRIVE","WILMINGTON","NC",28409,34.1945301550001,-77.883377454,153,"4907 WHITNER DRIVE, WILMINGTON, NC, 28409","Match","Exact","4907 WHITNER DR, WILMINGTON, NC, 28409",152769197,"L"
226154,"4907 WOODHAVEN DR","LINCOLN","NE",68516,40.763991726,-96.652149204,154,"4907 WOODHAVEN DR, LINCOLN, NE, 68516","Match","Exact","4907 WOODHAVEN DR, LINCOLN, NE, 68516",28260930,"R"
226155,"4908 BENNINGTON DR","SCHWENKSVILLE","PA",19473,40.248057578,-75.447943707,155,"4908 BENNINGTON DR, SCHWENKSVILLE, PA, 19473","Match","Exact","4908 BENNINGTON DR, SCHWENKSVILLE, PA, 19473",605650220,"L"
226156,"4908 BOULDER FALLS CT","KNIGHTDALE","NC",27545,35.7572053160001,-78.504953868,156,"4908 BOULDER FALLS CT, KNIGHTDALE, NC, 27545","Match","Exact","4908 BOULDER FALLS CT, KNIGHTDALE, NC, 27545",646875124,"R"
226157,"4908 CHARLOTTE PIKE","NASHVILLE","TN",37209,36.152068796,-86.846165057,157,"4908 CHARLOTTE PIKE, NASHVILLE, TN, 37209","Match","Exact","4908 CHARLOTTE PIKE, NASHVILLE, TN, 37209",97179268,"R"
226158,"4908 COGSWELL AVE","PELL CITY","AL",35125,NA,NA,158,"4908 COGSWELL AVE, PELL CITY, AL, 35125","No_Match",NA,NA,NA,NA
226159,"4908 COLLINGTONS BOUNTY DR","BOWIE","MD",20720,38.957031945,-76.775068806,159,"4908 COLLINGTONS BOUNTY DR, BOWIE, MD, 20720","Match","Exact","4908 COLLINGTONS BOUNTY DR, BOWIE, MD, 20720",648076228,"R"
226160,"4908 E JUDGE PEREZ DRIVE","VIOLET","LA",70092,29.9211226310001,-89.90533927,160,"4908 E JUDGE PEREZ DRIVE, VIOLET, LA, 70092","Match","Exact","4908 E JUDGE PEREZ DR, VIOLET, LA, 70092",209857635,"R"
226161,"4908 FAUNA DRIVE","MELBOURNE","FL",32934,28.152549171,-80.707442054,161,"4908 FAUNA DRIVE, MELBOURNE, FL, 32934","Match","Exact","4908 FAUNA DR, MELBOURNE, FL, 32934",93895574,"L"
226162,"4908 GLEN COVE PKWY","BETHESDA","MD",20816,38.9568182730001,-77.099265665,162,"4908 GLEN COVE PKWY, BETHESDA, MD, 20816","Match","Exact","4908 GLEN COVE PKWY, BETHESDA, MD, 20816",62067159,"L"
226163,"4908 GRANBY STREET","DENVER","CO",80239,39.7805790140001,-104.810639981,163,"4908 GRANBY STREET, DENVER, CO, 80239","Match","Exact","4908 GRANBY ST, DENVER, CO, 80239",177627162,"R"
226164,"4908 IVEY LANE","DOUGLASVILLE","GA",30135,33.703881445,-84.735391979,164,"4908 IVEY LANE, DOUGLASVILLE, GA, 30135","Match","Exact","4908 IVEY LN, DOUGLASVILLE, GA, 30135",16657921,"L"
226165,"4908 LIGHTWOOD COURT","ACWORTH","GA",30101,34.0737619230001,-84.606499857,165,"4908 LIGHTWOOD COURT, ACWORTH, GA, 30101","Match","Non_Exact","4908 LIGHTWOOD CT, ACWORTH, GA, 30102",17225840,"R"
226166,"4908 LYNNDALE DR","AUSTIN","TX",78756,30.3200047500001,-97.737295746,166,"4908 LYNNDALE DR, AUSTIN, TX, 78756","Match","Exact","4908 LYNNDALE DR, AUSTIN, TX, 78756",63931483,"L"
226167,"4908 MARSHALL DRIVE","OMAHA","NE",68137,41.210146906,-96.133339297,167,"4908 MARSHALL DRIVE, OMAHA, NE, 68137","Match","Exact","4908 MARSHALL DR, OMAHA, NE, 68137",116971323,"R"
226168,"4908 NE 54TH AVENUE","VANCOUVER","WA",98661,45.657522645,-122.616750025,168,"4908 NE 54TH AVENUE, VANCOUVER, WA, 98661","Match","Exact","4908 NE 54TH AVE, VANCOUVER, WA, 98661",158327184,"L"
226169,"4908 NW 34TH BLVD  SUITE 6","GAINESVILLE","FL",32605,NA,NA,169,"4908 NW 34TH BLVD  SUITE 6, GAINESVILLE, FL, 32605","No_Match",NA,NA,NA,NA
226170,"4908 ORANGE BLOSSOM CT","HAZELWOOD","MO",63042,38.7787464460001,-90.40880036,170,"4908 ORANGE BLOSSOM CT, HAZELWOOD, MO, 63042","Match","Exact","4908 ORANGE BLOSSOM CT, HAZELWOOD, MO, 63042",100116585,"R"
226171,"4908 ORLEANS STREET","LAKE CHARLES","LA",70607,30.1701758740001,-93.205910499,171,"4908 ORLEANS STREET, LAKE CHARLES, LA, 70607","Match","Exact","4908 ORLEANS ST, LAKE CHARLES, LA, 70607",88439042,"R"
226172,"4908 REDWOOD ROAD","SAN MARCOS","TX",78666,29.8123945200001,-97.9136424229999,172,"4908 REDWOOD ROAD, SAN MARCOS, TX, 78666","Match","Exact","4908 REDWOOD RD, SAN MARCOS, TX, 78666",54841692,"L"
226173,"4908 S ALMA SCHOOL RD STE A2-309","CHANDLER","AZ",85248,33.234434766,-111.85876469,173,"4908 S ALMA SCHOOL RD STE A2-309, CHANDLER, AZ, 85248","Match","Non_Exact","4908 S ALMA SCHOOL RD, CHANDLER, AZ, 85248",128968961,"R"
226174,"4908 W 77TH ST","PRAIRIE VILLAGE","KS",66208,38.989764963,-94.642482251,174,"4908 W 77TH ST, PRAIRIE VILLAGE, KS, 66208","Match","Exact","4908 W 77TH ST, PRAIRIE VLG, KS, 66208",91278832,"R"
226175,"4908 WEST FRANCES PLACE","AUSTIN","TX",78731,30.3265818,-97.7540877549999,175,"4908 WEST FRANCES PLACE, AUSTIN, TX, 78731","Match","Exact","4908 W FRANCES PL, AUSTIN, TX, 78731",63929327,"L"
226176,"4909 16TH ROAD N","ARLINGTON","VA",22207,38.8892977240001,-77.1238125419999,176,"4909 16TH ROAD N, ARLINGTON, VA, 22207","Match","Exact","4909 16TH RD N, ARLINGTON, VA, 22207",76467962,"R"
226177,"4909 37TH ST E","BRADENTON","NY",34203,NA,NA,177,"4909 37TH ST E, BRADENTON, NY, 34203","No_Match",NA,NA,NA,NA
226178,"4909 6TH PLACE","MERIDIAN","MS",39305,32.410994691,-88.684543369,178,"4909 6TH PLACE, MERIDIAN, MS, 39305","Match","Exact","4909 6TH PL, MERIDIAN, MS, 39305",210100,"L"
226179,"4909 BRIGHTSTAR LANE","COLUMBUS","GA",31907,32.440855179,-84.910177038,179,"4909 BRIGHTSTAR LANE, COLUMBUS, GA, 31907","Match","Exact","4909 BRIGHTSTAR LN, COLUMBUS, GA, 31907",651063598,"L"
226180,"4909 DEVERS ROAD","SOUTHSIDE","TN",37171,36.3650885980001,-87.323076075,180,"4909 DEVERS ROAD, SOUTHSIDE, TN, 37171","Match","Exact","4909 DEVERS RD, SOUTHSIDE, TN, 37171",31831565,"R"
226181,"4909 DREW AVENUE SOUTH","MINNEAPOLIS","MN",55410,44.9140426700001,-93.326501755,181,"4909 DREW AVENUE SOUTH, MINNEAPOLIS, MN, 55410","Match","Exact","4909 DREW AVE S, MINNEAPOLIS, MN, 55410",43628068,"L"
226182,"4909 EAST 18TH STREET","INDIANAPOLIS","IN",46218,39.790943579,-86.0876582929999,182,"4909 EAST 18TH STREET, INDIANAPOLIS, IN, 46218","Match","Exact","4909 E 18TH ST, INDIANAPOLIS, IN, 46218",107999847,"R"
226183,"4909 EAST UNIVERSITY BLVD","ODESSA","TX",79762,31.881537677,-102.32119295,183,"4909 EAST UNIVERSITY BLVD, ODESSA, TX, 79762","Match","Exact","4909 E UNIVERSITY BLVD, ODESSA, TX, 79762",139431720,"L"
226184,"4909 KNIGHTS WAY","ROCKLIN","CA",95765,38.8193223960001,-121.251988585,184,"4909 KNIGHTS WAY, ROCKLIN, CA, 95765","Match","Exact","4909 KNIGHTS WAY, ROCKLIN, CA, 95765",106793906,"L"
226185,"4909 LACLEDE AVE UNIT 1806 DEPT TMB","ST LOUIS","MO",63108,38.640414229,-90.2625334269999,185,"4909 LACLEDE AVE UNIT 1806 DEPT TMB, ST LOUIS, MO, 63108","Match","Exact","4909 LACLEDE AVE, SAINT LOUIS, MO, 63108",107596670,"R"
226186,"4909 LACLEDE AVE UNIT 2501","SAINT LOUIS","MO",63108,38.640414229,-90.2625334269999,186,"4909 LACLEDE AVE UNIT 2501, SAINT LOUIS, MO, 63108","Match","Exact","4909 LACLEDE AVE, SAINT LOUIS, MO, 63108",107596670,"R"
226187,"4909 LIBERTY HEIGHTS AVE","BALTIMORE","MD",21207,39.3323379330001,-76.698624524,187,"4909 LIBERTY HEIGHTS AVE, BALTIMORE, MD, 21207","Match","Exact","4909 LIBERTY HEIGHTS AVE, BALTIMORE, MD, 21207",206404339,"L"
226188,"4909 LINDY LANE","RICHMOND","VA",23224,37.479152906,-77.482760527,188,"4909 LINDY LANE, RICHMOND, VA, 23224","Match","Exact","4909 LINDY LN, RICHMOND, VA, 23224",201554444,"L"
226189,"4909 LOUISE DRIVE SUITE 102","MECHANICSBURG","PA",17055,40.202810873,-76.958637739,189,"4909 LOUISE DRIVE SUITE 102, MECHANICSBURG, PA, 17055","Match","Exact","4909 LOUISE DR, MECHANICSBURG, PA, 17055",647849187,"L"
226190,"4909 N 42ND ST","OMAHA","NE",68111,41.303314963,-95.975787232,190,"4909 N 42ND ST, OMAHA, NE, 68111","Match","Exact","4909 N 42ND ST, OMAHA, NE, 68111",116978190,"R"
226191,"4909 OLD REDWOOD HWY","SANTA ROSA","CA",95403,38.502759245,-122.755900267,191,"4909 OLD REDWOOD HWY, SANTA ROSA, CA, 95403","Match","Exact","4909 OLD REDWOOD HWY, SANTA ROSA, CA, 95403",67488263,"L"
226192,"4909 PENN AVE","PITTSBURGH","PA",15224,40.4652546410001,-79.94487594,192,"4909 PENN AVE, PITTSBURGH, PA, 15224","Match","Exact","4909 PENN AVE, PITTSBURGH, PA, 15224",51644226,"L"
226193,"4909 QUESADA AVE","CEDAR FALLS","IA",50613,42.4935071960001,-92.452004119,193,"4909 QUESADA AVE, CEDAR FALLS, IA, 50613","Match","Exact","4909 QUESADA AVE, CEDAR FALLS, IA, 50613",652443379,"R"
226194,"4909 REIGER AVE","DALLAS","TX",75214,32.796495598,-96.764533408,194,"4909 REIGER AVE, DALLAS, TX, 75214","Match","Exact","4909 REIGER AVE, DALLAS, TX, 75214",102919830,"L"
226195,"4909 S 84TH STREET","TAMPA","FL",33619,27.9033644850001,-82.363862868,195,"4909 S 84TH STREET, TAMPA, FL, 33619","Match","Exact","4909 S 84TH ST, TAMPA, FL, 33619",104539301,"R"
226196,"4909 S NETHERLAND WAY","AURORA","CO",80015,39.6266196290001,-104.740868167,196,"4909 S NETHERLAND WAY, AURORA, CO, 80015","Match","Exact","4909 S NETHERLAND WAY, AURORA, CO, 80015",617954117,"R"
226197,"4909 SEINER COURT","HERMITAGE","TN",37076,36.1808305760001,-86.582374054,197,"4909 SEINER COURT, HERMITAGE, TN, 37076","Match","Exact","4909 SEINER CT, HERMITAGE, TN, 37076",97220146,"L"
226198,"4909 SHADY TRAIL STREET","SIMI VALLEY","CA",93063,34.303281085,-118.69914173,198,"4909 SHADY TRAIL STREET, SIMI VALLEY, CA, 93063","Match","Exact","4909 SHADY TRAIL ST, SIMI VALLEY, CA, 93063",110107035,"L"
226199,"4909 SUN LAKE CT","HOLLY SPRINGS","NC",27540,35.647696755,-78.801935853,199,"4909 SUN LAKE CT, HOLLY SPRINGS, NC, 27540","Match","Exact","4909 SUN LAKE CT, HOLLY SPRINGS, NC, 27540",72580017,"L"
226200,"4909 W KATHLEEN LN","MEQUON","WI",53092,43.20084984,-87.971066696,200,"4909 W KATHLEEN LN, MEQUON, WI, 53092","Match","Exact","4909 W KATHLEEN LN, MEQUON, WI, 53092",95903430,"L"
226201,"4909 W MONROE","CHICAGO","IL",60644,41.879485888,-87.746151122,201,"4909 W MONROE, CHICAGO, IL, 60644","Match","Non_Exact","4909 W MONROE ST, CHICAGO, IL, 60644",605078181,"L"
226202,"4909 WANBLI COURT","SPARKS","NV",89436,39.581807058,-119.731196699,202,"4909 WANBLI COURT, SPARKS, NV, 89436","Match","Exact","4909 WANBLI CT, SPARKS, NV, 89436",618262634,"L"
226203,"4909 WATERS EDGE DRIVE SUITE 208","RALEIGH","NC",27606,35.7741585910001,-78.719914326,203,"4909 WATERS EDGE DRIVE SUITE 208, RALEIGH, NC, 27606","Match","Exact","4909 WATERS EDGE DR, RALEIGH, NC, 27606",639431016,"L"
226204,"491 98TH AVE NE","BLAINE","MN",55434,45.148058577,-93.257823924,204,"491 98TH AVE NE, BLAINE, MN, 55434","Match","Exact","491 98TH AVE NE, BLAINE, MN, 55434",97486837,"L"
226205,"491 AIRPORT ROAD","WINCHESTER","VA",22602,39.141710392,-78.147632426,205,"491 AIRPORT ROAD, WINCHESTER, VA, 22602","Match","Exact","491 AIRPORT RD, WINCHESTER, VA, 22602",55587585,"R"
226206,"491 ALLIED DRIVE","NASHVILLE","TN",37211,36.095915416,-86.7418126269999,206,"491 ALLIED DRIVE, NASHVILLE, TN, 37211","Match","Exact","491 ALLIED DR, NASHVILLE, TN, 37211",97193070,"L"
226207,"491 BALTIMORE PIKE 619","SPRINGFIELD","PA",19064,39.9205096320001,-75.323856238,207,"491 BALTIMORE PIKE 619, SPRINGFIELD, PA, 19064","Match","Exact","491 BALTIMORE PIKE, SPRINGFIELD, PA, 19064",134879877,"L"
226208,"491 BALTIMORE PIKE SUITE 1043","SPRINGFIELD","PA",19064,39.9205096320001,-75.323856238,208,"491 BALTIMORE PIKE SUITE 1043, SPRINGFIELD, PA, 19064","Match","Exact","491 BALTIMORE PIKE, SPRINGFIELD, PA, 19064",134879877,"L"
226209,"491 BERKSHIRE SCHOOL ROAD","SHEFFIELD","MA",1257,42.1096461720001,-73.376435821,209,"491 BERKSHIRE SCHOOL ROAD, SHEFFIELD, MA, 1257","Match","Exact","491 BERKSHIRE SCHOOL RD, SHEFFIELD, MA, 01257",3935823,"L"
226210,"491 BREVATOR RD","OLD MONROE","MO",63369,38.9510151120001,-90.7735559239999,210,"491 BREVATOR RD, OLD MONROE, MO, 63369","Match","Exact","491 BREVATOR RD, OLD MONROE, MO, 63369",44874054,"L"
226211,"491 COUNTRY CLUB ROAD","LAKE OSWEGO","OR",97034,45.4226988720001,-122.678117046,211,"491 COUNTRY CLUB ROAD, LAKE OSWEGO, OR, 97034","Match","Exact","491 COUNTRY CLUB RD, LAKE OSWEGO, OR, 97034",157992532,"R"
226212,"491 CR 4200","WINNSBORO","TX",75494,32.9491183800001,-95.33144652,212,"491 CR 4200, WINNSBORO, TX, 75494","Match","Exact","491 CO RD 4200, WINNSBORO, TX, 75494",43000213,"R"
226213,"491 D FLAT SHOALS AVE SE","ATLANTA","GA",30316,33.7407762120001,-84.3460722039999,213,"491 D FLAT SHOALS AVE SE, ATLANTA, GA, 30316","Match","Exact","491 FLAT SHOALS AVE SE, ATLANTA, GA, 30316",23365285,"R"
226214,"491 DUTTON STREET UNIT 404","LOWELL","MA",1854,42.6417913230001,-71.316428851,214,"491 DUTTON STREET UNIT 404, LOWELL, MA, 1854","Match","Exact","491 DUTTON ST, LOWELL, MA, 01854",87109697,"R"
226215,"491 E BLACK DIAMOND DR","CASA GRANDE","AZ",85128,32.9788045240001,-111.746882095,215,"491 E BLACK DIAMOND DR, CASA GRANDE, AZ, 85128","Match","Non_Exact","491 BLACK DIAMOND DR, CASA GRANDE, AZ, 85122",627923438,"L"
226216,"491 EAST 124TH ST","CLEVELAND","OH",44108,41.543871059,-81.5987975479999,216,"491 EAST 124TH ST, CLEVELAND, OH, 44108","Match","Exact","491 E 124TH ST, CLEVELAND, OH, 44108",61120505,"L"
226217,"491 EAST MAIN STREET","PAHOKEE","FL",33476,26.826200322,-80.661719534,217,"491 EAST MAIN STREET, PAHOKEE, FL, 33476","Match","Exact","491 E MAIN ST, PAHOKEE, FL, 33476",115341946,"L"
226218,"491 ELDER LANE","WINNETKA","IL",60093,42.0975855790001,-87.723098421,218,"491 ELDER LANE, WINNETKA, IL, 60093","Match","Exact","491 ELDER LN, WINNETKA, IL, 60093",111738204,"R"
226219,"491 FOX TROT DRIVE","COLUMBIA","SC",29229,34.1603740960001,-80.873919395,219,"491 FOX TROT DRIVE, COLUMBIA, SC, 29229","Match","Exact","491 FOX TROT DR, COLUMBIA, SC, 29229",604787111,"L"
226220,"491 GERMAN RD","MUNGER","MI",48747,43.5509591910001,-83.760039988,220,"491 GERMAN RD, MUNGER, MI, 48747","Match","Exact","491 GERMAN RD, MUNGER, MI, 48747",81143616,"L"
226221,"491 HANSEN HILL RD","ARROYO GRANDE","CA",93420,35.1488766000001,-120.552806413,221,"491 HANSEN HILL RD, ARROYO GRANDE, CA, 93420","Match","Exact","491 HANSEN HILL RD, ARROYO GRANDE, CA, 93420",627187296,"L"
226222,"491 HEMPSTEAD TURNPIKE","WEST HEMPSTEAD","NY",11552,40.7057311630001,-73.6580784939999,222,"491 HEMPSTEAD TURNPIKE, WEST HEMPSTEAD, NY, 11552","Match","Exact","491 HEMPSTEAD TPKE, W HEMPSTEAD, NY, 11552",147690367,"L"
226223,"491 KING ST","CHAPPAQUA","NY",10514,41.1593263440001,-73.764637385,223,"491 KING ST, CHAPPAQUA, NY, 10514","Match","Exact","491 KING ST, CHAPPAQUA, NY, 10514",139736424,"L"
226224,"491 LEAHY STREET","REDWOOD CITY","CA",94107,37.470920779,-122.217463079,224,"491 LEAHY STREET, REDWOOD CITY, CA, 94107","Match","Non_Exact","491 LEAHY ST, REDWOOD CITY, CA, 94061",192363092,"L"
226225,"491 LINWOOD AVE","STONEWALL","LA",71078,32.3347190150001,-93.7634516049999,225,"491 LINWOOD AVE, STONEWALL, LA, 71078","Match","Exact","491 LINWOOD AVE, STONEWALL, LA, 71078",67659637,"L"
226226,"491 LYNDALE AVE","SAN JOSE","CA",95127,37.3581349720001,-121.825285361,226,"491 LYNDALE AVE, SAN JOSE, CA, 95127","Match","Exact","491 LYNDALE AVE, SAN JOSE, CA, 95127",122978764,"R"
226227,"491 MADISON STREET","BUFFALO","NY",14211,42.893746578,-78.852927541,227,"491 MADISON STREET, BUFFALO, NY, 14211","Match","Exact","491 MADISON ST, BUFFALO, NY, 14211",48339474,"R"
226228,"491 MARION AVENUE","MANSFIELD","OH",44903,40.750759142,-82.535861692,228,"491 MARION AVENUE, MANSFIELD, OH, 44903","Match","Exact","491 MARION AVE, MANSFIELD, OH, 44903",12843446,"L"
226229,"491 MILLBRAE AVE","SANTA ROSA","CA",95407,38.369525142,-122.732812562,229,"491 MILLBRAE AVE, SANTA ROSA, CA, 95407","Match","Exact","491 MILLBRAE AVE, SANTA ROSA, CA, 95407",67471251,"R"
226230,"491 N 6TH ST","TECUMSEH","NE",68450,40.373387807,-96.191179397,230,"491 N 6TH ST, TECUMSEH, NE, 68450","Match","Exact","491 N 6TH ST, TECUMSEH, NE, 68450",32447517,"L"
226231,"491 NORTH MAGEE STREET","SOUTHAMPTON","NY",11968,40.9111183050001,-72.424858432,231,"491 NORTH MAGEE STREET, SOUTHAMPTON, NY, 11968","Match","Exact","491 N MAGEE ST, SOUTHAMPTON, NY, 11968",114073101,"R"
226232,"491 NW 191ST STREET","MIAMI","FL",33169,25.949674612,-80.209248066,232,"491 NW 191ST STREET, MIAMI, FL, 33169","Match","Exact","491 NW 191ST ST, MIAMI, FL, 33169",116029668,"R"
226233,"491 PELICAN LANE SOUTH","JUPITER","FL",33458,NA,NA,233,"491 PELICAN LANE SOUTH, JUPITER, FL, 33458","No_Match",NA,NA,NA,NA
226234,"491 PEREGRINE CT","WINFIELD","MO",63389,38.9919945620001,-90.749539542,234,"491 PEREGRINE CT, WINFIELD, MO, 63389","Match","Exact","491 PEREGRINE CT, WINFIELD, MO, 63389",44876818,"R"
226235,"491 QUINCY STREET  APT 3","BROOKLYN","NY",11221,40.688179275,-73.940115841,235,"491 QUINCY STREET  APT 3, BROOKLYN, NY, 11221","Match","Exact","491 QUINCY ST, BROOKLYN, NY, 11221",59079184,"L"
226236,"491 REEDER BRANCH DRIVE","CLAYTON","NC",27520,35.5696364,-78.420139358,236,"491 REEDER BRANCH DRIVE, CLAYTON, NC, 27520","Match","Exact","491 REEDER BRANCH DR, CLAYTON, NC, 27520",26559811,"L"
226237,"491 ROCKBRIDGE TRAIL","STONE MOUNTAIN","GA",30083,33.7884413530001,-84.2290162469999,237,"491 ROCKBRIDGE TRAIL, STONE MOUNTAIN, GA, 30083","Match","Exact","491 ROCKBRIDGE TRL, STONE MOUNTAIN, GA, 30083",645841943,"R"
226238,"491 ROWLAND DR","MONROE","LA",71203,32.535720869,-92.0011711929999,238,"491 ROWLAND DR, MONROE, LA, 71203","Match","Exact","491 ROWLAND DR, MONROE, LA, 71203",612363716,"R"
226239,"491 SOUTH POINT CT","ALEDO","TX",76008,32.6760192030001,-97.635633657,239,"491 SOUTH POINT CT, ALEDO, TX, 76008","Match","Exact","491 S POINT CT, ALEDO, TX, 76008",635377695,"L"
226240,"491 SR 111","LA MADERA","NM",87539,36.3840205810001,-106.040938837,240,"491 SR 111, LA MADERA, NM, 87539","Match","Non_Exact","491 STATE HWY 111, LA MADERA, NM, 87539",647842157,"L"
226241,"491 SULPHUR SPRING ROAD","CHILLICOTHE","OH",45601,39.4135036590001,-82.9406886899999,241,"491 SULPHUR SPRING ROAD, CHILLICOTHE, OH, 45601","Match","Exact","491 SULPHUR SPRING RD, CHILLICOTHE, OH, 45601",37480352,"L"
226242,"491 SW 88TH COURT","MIAMI","FL",33174,25.764594899,-80.3377115329999,242,"491 SW 88TH COURT, MIAMI, FL, 33174","Match","Exact","491 SW 88TH CT, MIAMI, FL, 33174",116043889,"L"
226243,"491 W ENGLEWOOD AVENUE","TEANECK","NJ",7666,NA,NA,243,"491 W ENGLEWOOD AVENUE, TEANECK, NJ, 7666","Tie",NA,NA,NA,NA
226244,"491 WITCHES ROCK ROAD","BRISTOL","CT",6010,41.6443617670001,-72.973754248,244,"491 WITCHES ROCK ROAD, BRISTOL, CT, 6010","Match","Exact","491 WITCHES ROCK RD, BRISTOL, CT, 06010",3540366,"L"
226245,"491 WYNFIELD CIRCLE","ROCKLEDGE","FL",32955,28.290457627,-80.7151408129999,245,"491 WYNFIELD CIRCLE, ROCKLEDGE, FL, 32955","Match","Exact","491 WYNFIELD CIR, ROCKLEDGE, FL, 32955",93958356,"R"
226246,"491","NEW BUFFALO","MI",49117,NA,NA,246,"491, NEW BUFFALO, MI, 49117","No_Match",NA,NA,NA,NA
226247,"4910 21 AVENUE","EAST ELMHURST","NY",11370,NA,NA,247,"4910 21 AVENUE, EAST ELMHURST, NY, 11370","No_Match",NA,NA,NA,NA
226248,"4910 A STREET SE","AUBURN","WA",98092,47.264864581,-122.229603401,248,"4910 A STREET SE, AUBURN, WA, 98092","Match","Exact","4910 A ST SE, AUBURN, WA, 98092",239775967,"L"
226249,"4910 ARROWOOD LANE N","PLYMOUTH","MN",55442,45.0441976110001,-93.4232769719999,249,"4910 ARROWOOD LANE N, PLYMOUTH, MN, 55442","Match","Non_Exact","4910 ARROWOOD LN, PLYMOUTH, MN, 55442",43840808,"R"
226250,"4910 BENDING ELMS","SAN ANTONIO","TX",78247,29.5966506250001,-98.40213475,250,"4910 BENDING ELMS, SAN ANTONIO, TX, 78247","Match","Exact","4910 BENDING ELMS, SAN ANTONIO, TX, 78247",101744170,"R"
226251,"4910 BROADHILL DRIVE","AUSTIN","TX",78723,30.2906077230001,-97.6738371769999,251,"4910 BROADHILL DRIVE, AUSTIN, TX, 78723","Match","Exact","4910 BROADHILL DR, AUSTIN, TX, 78723",63951426,"L"
226252,"4910 BURNT HICKORY ROAD","KENNESAW","GA",30152,33.986212159,-84.692824166,252,"4910 BURNT HICKORY ROAD, KENNESAW, GA, 30152","Match","Non_Exact","4910 BURNT HICKORY RD NW, KENNESAW, GA, 30152",17224225,"R"
226253,"4910 CELTIC DRIVE APT 103","ALEXANDRIA","VA",22310,38.782170498,-77.119406714,253,"4910 CELTIC DRIVE APT 103, ALEXANDRIA, VA, 22310","Match","Exact","4910 CELTIC DR, ALEXANDRIA, VA, 22310",635475414,"R"
226254,"4910 CRESTLINE ROAD","FORT WORTH","TX",76107,32.741904649,-97.394641371,254,"4910 CRESTLINE ROAD, FORT WORTH, TX, 76107","Match","Exact","4910 CRESTLINE RD, FORT WORTH, TX, 76107",640621820,"R"
226255,"4910 DANCER RD","HORTON","MI",49246,42.128828179,-84.495619153,255,"4910 DANCER RD, HORTON, MI, 49246","Match","Exact","4910 DANCER RD, HORTON, MI, 49246",17619033,"L"
226256,"4910 DELPHINA CT","KEYES","CA",95328,37.5571426450001,-120.903709683,256,"4910 DELPHINA CT, KEYES, CA, 95328","Match","Exact","4910 DELPHINA CT, KEYES, CA, 95328",624046438,"R"
226257,"4910 DYER BLVD SUITE 1","RIVIERA BEACH","FL",33407,26.778140761,-80.1119880639999,257,"4910 DYER BLVD SUITE 1, RIVIERA BEACH, FL, 33407","Match","Exact","4910 DYER BLVD, RIVIERA BEACH, FL, 33407",115319888,"R"
226258,"4910 FAIRFORD DR","SAN ANTONIO","TX",78228,29.485504646,-98.583796962,258,"4910 FAIRFORD DR, SAN ANTONIO, TX, 78228","Match","Exact","4910 FAIRFORD DR, SAN ANTONIO, TX, 78228",101509640,"L"
226259,"4910 FALCON CREEK WAY APT 108","HAMPTON","VA",23666,37.09385279,-76.398085388,259,"4910 FALCON CREEK WAY APT 108, HAMPTON, VA, 23666","Match","Exact","4910 FALCON CREEK WAY, HAMPTON, VA, 23666",641047808,"R"
226260,"4910 JONESBORO RD BLDG 300 STE 303","UNION CITY","GA",30291,33.571957953,-84.548679759,260,"4910 JONESBORO RD BLDG 300 STE 303, UNION CITY, GA, 30291","Match","Exact","4910 JONESBORO RD, UNION CITY, GA, 30291",17385421,"L"
226261,"4910 JONESBORO ROAD SUITE 602B","UNION CITY","GA",30291,33.571957953,-84.548679759,261,"4910 JONESBORO ROAD SUITE 602B, UNION CITY, GA, 30291","Match","Exact","4910 JONESBORO RD, UNION CITY, GA, 30291",17385421,"L"
226262,"4910 KESSLER DRIVE","ARLINGTON","TX",76010,32.6665997170001,-97.198592585,262,"4910 KESSLER DRIVE, ARLINGTON, TX, 76010","Match","Non_Exact","4910 KESLER DR, ARLINGTON, TX, 76017",102111737,"R"
226263,"4910 KILAUEA AVE APT 3","HONOLULU","HI",96816,21.2815073470001,-157.784961735,263,"4910 KILAUEA AVE APT 3, HONOLULU, HI, 96816","Match","Exact","4910 KILAUEA AVE, HONOLULU, HI, 96816",203260736,"L"
226264,"4910 LAKE PARK LANE","ACWORTH","GA",30101,34.06876032,-84.6383777459999,264,"4910 LAKE PARK LANE, ACWORTH, GA, 30101","Match","Exact","4910 LAKE PARK LN, ACWORTH, GA, 30101",17244204,"L"
226265,"4910 LESTER AVE","FREMONT","MI",49412,43.46487333,-85.9703390179999,265,"4910 LESTER AVE, FREMONT, MI, 49412","Match","Exact","4910 LESTER AVE, FREMONT, MI, 49412",150228299,"R"
226266,"4910 LITTLE NECK PKWY","LITTLE NECK","NY",11362,NA,NA,266,"4910 LITTLE NECK PKWY, LITTLE NECK, NY, 11362","No_Match",NA,NA,NA,NA
226267,"4910 N CORNWALL DRIVE","MUNCIE","IN",47304,40.233703292,-85.4158633279999,267,"4910 N CORNWALL DRIVE, MUNCIE, IN, 47304","Match","Exact","4910 N CORNWALL DR, MUNCIE, IN, 47304",30833767,"R"
226268,"4910 NORTH 177TH STREET","OMAHA","NE",68116,NA,NA,268,"4910 NORTH 177TH STREET, OMAHA, NE, 68116","No_Match",NA,NA,NA,NA
226269,"4910 PAGELAND HWY","MONROE","NC",28112,34.8907255190001,-80.4598048509999,269,"4910 PAGELAND HWY, MONROE, NC, 28112","Match","Exact","4910 PAGELAND HWY, MONROE, NC, 28112",639743245,"L"
226270,"4910 RED ROCK AVE","OMAHA","NE",68157,41.1876774670001,-95.98882594,270,"4910 RED ROCK AVE, OMAHA, NE, 68157","Match","Exact","4910 RED ROCK AVE, OMAHA, NE, 68157",28467755,"L"
226271,"4910 S C STREET","VENTURA","CA",93033,34.1564479030001,-119.180567915,271,"4910 S C STREET, VENTURA, CA, 93033","Match","Non_Exact","4910 S C ST, OXNARD, CA, 93033",110084076,"L"
226272,"4910 SAN PALERMO DR","BRADENTON","FL",34208,27.5046325210001,-82.500110824,272,"4910 SAN PALERMO DR, BRADENTON, FL, 34208","Match","Exact","4910 SAN PALERMO DR, BRADENTON, FL, 34208",645919605,"R"
226273,"4910 SHOEMAKER RD","CENTERVILLE","IN",47330,39.80135734,-84.96810549,273,"4910 SHOEMAKER RD, CENTERVILLE, IN, 47330","Match","Exact","4910 SHOEMAKER RD, CENTERVILLE, IN, 47330",31335992,"R"
226274,"4910 SHOEMAKER ROAD","CENTERVILLE","IN",47330,39.80135734,-84.96810549,274,"4910 SHOEMAKER ROAD, CENTERVILLE, IN, 47330","Match","Exact","4910 SHOEMAKER RD, CENTERVILLE, IN, 47330",31335992,"R"
226275,"4910 SW 5TH AVENUE","CAMAS","WA",98607,45.5807562410001,-122.458840506,275,"4910 SW 5TH AVENUE, CAMAS, WA, 98607","Match","Exact","4910 SW 5TH AVE, CAMAS, WA, 98607",646603388,"L"
226276,"4910 TILDEN ROAD","BLADENSBURG","MD",20710,38.9421868800001,-76.933223429,276,"4910 TILDEN ROAD, BLADENSBURG, MD, 20710","Match","Exact","4910 TILDEN RD, BLADENSBURG, MD, 20710",76306459,"L"
226277,"4910 URBANDALE AVE","DES MOINES","IA",50310,41.622119646,-93.685770458,277,"4910 URBANDALE AVE, DES MOINES, IA, 50310","Match","Exact","4910 URBANDALE AVE, DES MOINES, IA, 50310",65839577,"R"
226278,"4910 VALLEY RIDGE DRIVE STE 1029","IRVING","TX",75062,32.8531794030001,-97.019723687,278,"4910 VALLEY RIDGE DRIVE STE 1029, IRVING, TX, 75062","Match","Exact","4910 VALLEY RIDGE DR, IRVING, TX, 75062",102977259,"R"
226279,"4910 W GRAND AVE STE 200","CHICAGO","IL",60639,41.9166840990001,-87.752966089,279,"4910 W GRAND AVE STE 200, CHICAGO, IL, 60639","Match","Non_Exact","4910 W GRAND AVE, CHICAGO, IL, 60639",111757567,"R"
226280,"4910 WALL FLOWER WAY","OXON HILL","MD",20745,38.822492036,-76.9868378259999,280,"4910 WALL FLOWER WAY, OXON HILL, MD, 20745","Match","Exact","4910 WALL FLOWER WAY, OXON HILL, MD, 20745",76418999,"L"
226281,"49103 NORTHAMPTON CT","CANTON","MI",48187,42.3361727550001,-83.525306544,281,"49103 NORTHAMPTON CT, CANTON, MI, 48187","Match","Exact","49103 NORTHAMPTON CT, CANTON, MI, 48187",95713930,"L"
226282,"4911 7TH PL NE","WASHINGTON","DC",20017,38.9485634500001,-76.995800317,282,"4911 7TH PL NE, WASHINGTON, DC, 20017","Match","Exact","4911 7TH PL NE, WASHINGTON, DC, 20017",76228164,"R"
226283,"4911 ALTON TUCKER BOULEVARD","SUGAR HILL","GA",30518,34.1049177410001,-84.0314435939999,283,"4911 ALTON TUCKER BOULEVARD, SUGAR HILL, GA, 30518","Match","Non_Exact","4911 ALTON TUCKER BLVD NE, SUGAR HILL, GA, 30518",88918745,"L"
226284,"4911 ANDREA STREET","HOUSTON","TX",77021,29.6883772570001,-95.346812427,284,"4911 ANDREA STREET, HOUSTON, TX, 77021","Match","Exact","4911 ANDREA ST, HOUSTON, TX, 77021",96089427,"L"
226285,"4911 BUTTERWICK LANE","CHARLOTTE","NC",28212,35.216770512,-80.738313123,285,"4911 BUTTERWICK LANE, CHARLOTTE, NC, 28212","Match","Exact","4911 BUTTERWICK LN, CHARLOTTE, NC, 28212",70497857,"R"
226286,"4911 CLEVELAND STREET","SIOUX CITY","IA",51108,42.551771677,-96.35158337,286,"4911 CLEVELAND STREET, SIOUX CITY, IA, 51108","Match","Exact","4911 CLEVELAND ST, SIOUX CITY, IA, 51108",93446978,"L"
226287,"4911 CONCHO DRIVE","MIDLAND","TX",79707,32.0265674560001,-102.154948019,287,"4911 CONCHO DRIVE, MIDLAND, TX, 79707","Match","Exact","4911 CONCHO DR, MIDLAND, TX, 79707",139577901,"R"
226288,"4911 HAVERWOOD LANE APT 2437","DALLAS","TX",75287,33.0065395890001,-96.8198011379999,288,"4911 HAVERWOOD LANE APT 2437, DALLAS, TX, 75287","Match","Exact","4911 HAVERWOOD LN, DALLAS, TX, 75287",210473181,"L"
226289,"4911 HAZELWOOD AVE","BALTIMORE","MD",21206,39.341909754,-76.5275432289999,289,"4911 HAZELWOOD AVE, BALTIMORE, MD, 21206","Match","Exact","4911 HAZELWOOD AVE, BALTIMORE, MD, 21206",191511051,"R"
226290,"4911 LARCHWOOD AVENUE","PHILADELPHIA","PA",19143,39.9513229340001,-75.22093899,290,"4911 LARCHWOOD AVENUE, PHILADELPHIA, PA, 19143","Match","Exact","4911 LARCHWOOD AVE, PHILADELPHIA, PA, 19143",131399688,"R"
226291,"4911 LYONS TECHNOLOGY PARKWAY NO 29","COCONUT CREEK","FL",33073,NA,NA,291,"4911 LYONS TECHNOLOGY PARKWAY NO 29, COCONUT CREEK, FL, 33073","No_Match",NA,NA,NA,NA
226292,"4911 MONTGOMERY ST STE 1A","SAVANNAH","GA",31405,32.0360310360001,-81.1128199029999,292,"4911 MONTGOMERY ST STE 1A, SAVANNAH, GA, 31405","Match","Exact","4911 MONTGOMERY ST, SAVANNAH, GA, 31405",6202648,"R"
226293,"4911 MOUNTAIN VIEW DR","PALMDALE","CA",93552,34.5437620660001,-118.041809357,293,"4911 MOUNTAIN VIEW DR, PALMDALE, CA, 93552","Match","Exact","4911 MOUNTAIN VIEW DR, PALMDALE, CA, 93552",627904530,"L"
226294,"4911 N KNOXVILLE AVE","PEORIA","IL",61614,40.7467970770001,-89.59336358,294,"4911 N KNOXVILLE AVE, PEORIA, IL, 61614","Match","Exact","4911 N KNOXVILLE AVE, PEORIA, IL, 61614",8718465,"L"
226295,"4911 PONY PASS CIR","SAN JOSE","CA",95136,37.2643787000001,-121.824113502,295,"4911 PONY PASS CIR, SAN JOSE, CA, 95136","Match","Exact","4911 PONY PASS CIR, SAN JOSE, CA, 95136",122924553,"R"
226296,"4911 ROMAN DRIVE","LOUISVILLE","KY",40291,38.175316326,-85.597298699,296,"4911 ROMAN DRIVE, LOUISVILLE, KY, 40291","Match","Exact","4911 ROMAN DR, LOUISVILLE, KY, 40291",619671317,"L"
226297,"4911 RUTH AVE APT 201","LONG BEACH","CA",90805,33.8450469380001,-118.195928849,297,"4911 RUTH AVE APT 201, LONG BEACH, CA, 90805","Match","Non_Exact","4911 N RUTH AVE, LONG BEACH, CA, 90805",241109535,"L"
226298,"4911 SIGNAL CT  SW","LILBURN","GA",30047,33.8178645690001,-84.093410112,298,"4911 SIGNAL CT  SW, LILBURN, GA, 30047","Match","Exact","4911 SIGNAL CT SW, LILBURN, GA, 30047",88915454,"R"
226299,"4911 SPRINGWOOD CR","COLUMBUS","GA",31909,32.5688063590001,-84.915229261,299,"4911 SPRINGWOOD CR, COLUMBUS, GA, 31909","Match","Exact","4911 SPRINGWOOD CIR, COLUMBUS, GA, 31909",98951261,"R"
226300,"4911 SW ENERGY AVENUE","BENTONVILLE","AR",72712,NA,NA,300,"4911 SW ENERGY AVENUE, BENTONVILLE, AR, 72712","No_Match",NA,NA,NA,NA
226301,"4911 TRAILS EDGE DRIVE","ARLINGTON","TX",76017,32.666405889,-97.19235327,301,"4911 TRAILS EDGE DRIVE, ARLINGTON, TX, 76017","Match","Exact","4911 TRAILS EDGE DR, ARLINGTON, TX, 76017",101902523,"L"
226302,"4911 W WASHINGTON","CHICAGO","IL",60644,41.8817753860001,-87.74818179,302,"4911 W WASHINGTON, CHICAGO, IL, 60644","Match","Non_Exact","4911 W WASHINGTON BLVD, CHICAGO, IL, 60644",111758276,"L"
226303,"4911 WEATHERSTONE LN SE","GRAND RAPIDS","MI",49508,42.8741040040001,-85.598849812,303,"4911 WEATHERSTONE LN SE, GRAND RAPIDS, MI, 49508","Match","Exact","4911 WEATHERSTONE LN SE, GRAND RAPIDS, MI, 49508",12482824,"R"
226304,"49113 ROSE TERRACE","FREMONT","CA",94539,37.459670444,-121.916182613,304,"49113 ROSE TERRACE, FREMONT, CA, 94539","Match","Exact","49113 ROSE TER, FREMONT, CA, 94539",617583891,"R"
226305,"49114 DRIFTWOOD DR","SHELBY TOWNSHIP","MI",48317,42.6576896290001,-83.025414295,305,"49114 DRIFTWOOD DR, SHELBY TOWNSHIP, MI, 48317","Match","Exact","49114 DRIFTWOOD DR, SHELBY TOWNSHIP, MI, 48317",110709764,"L"
226306,"4912 3RD STREET","SAN FRANCISCO","CA",94124,37.733925218,-122.391113985,306,"4912 3RD STREET, SAN FRANCISCO, CA, 94124","Match","Exact","4912 3RD ST, SAN FRANCISCO, CA, 94124",192290980,"R"
226307,"4912 53RD AVENUE N","CRYSTAL","MN",55429,45.0494516590001,-93.3421858419999,307,"4912 53RD AVENUE N, CRYSTAL, MN, 55429","Match","Exact","4912 53RD AVE N, CRYSTAL, MN, 55429",43831001,"R"
226308,"4912 BARRETT WAY","PANAMA CITY","FL",32404,30.238557622,-85.559565052,308,"4912 BARRETT WAY, PANAMA CITY, FL, 32404","Match","Exact","4912 BARRETT WAY, PANAMA CITY, FL, 32404",614889493,"R"
226309,"4912 BERGENLINE AVENUE","WEST NEW YORK","NJ",7093,40.7825289780001,-74.0211187,309,"4912 BERGENLINE AVENUE, WEST NEW YORK, NJ, 7093","Match","Exact","4912 BERGENLINE AVE, WEST NEW YORK, NJ, 07093",59598795,"R"
226310,"4912 CAMBRIDGE DRIVE","N RICHLAND HILLS","TX",76180,NA,NA,310,"4912 CAMBRIDGE DRIVE, N RICHLAND HILLS, TX, 76180","No_Match",NA,NA,NA,NA
226311,"4912 CROOKED OAK LN","CHARLOTTE","NC",28226,35.1405738300001,-80.7970342839999,311,"4912 CROOKED OAK LN, CHARLOTTE, NC, 28226","Match","Exact","4912 CROOKED OAK LN, CHARLOTTE, NC, 28226",635657870,"R"
226312,"4912 CRYSTAL SPRING","RACINE","WI",53406,42.7565380180001,-87.8396504,312,"4912 CRYSTAL SPRING, RACINE, WI, 53406","Match","Exact","4912 CRYSTAL SPG, RACINE, WI, 53406",77912890,"L"
226313,"4912 FALL RIVER DRIVE","FORT WORTH","TX",76103,32.7621216420001,-97.250445718,313,"4912 FALL RIVER DRIVE, FORT WORTH, TX, 76103","Match","Exact","4912 FALL RIVER DR, FORT WORTH, TX, 76103",101897306,"R"
226314,"4912 FOX RIDGE LN","MCKINNEY","TX",75071,33.2245979840001,-96.6774482389999,314,"4912 FOX RIDGE LN, MCKINNEY, TX, 75071","Match","Exact","4912 FOX RIDGE LN, MCKINNEY, TX, 75071",123563165,"L"
226315,"4912 HARTLEY LN","ERIE","PA",16407,42.07836279,-80.192294034,315,"4912 HARTLEY LN, ERIE, PA, 16407","Match","Non_Exact","4912 HARTLEY LN, ERIE, PA, 16505",117516995,"R"
226316,"4912 LEBARON ST","CHARLOTTE","NC",28270,35.069507044,-80.752931969,316,"4912 LEBARON ST, CHARLOTTE, NC, 28270","Match","Exact","4912 LEBARON ST, CHARLOTTE, NC, 28270",618153573,"R"
226317,"4912 MANDERSON ST","OMAHA","NE",68104,41.2932793310001,-95.988146021,317,"4912 MANDERSON ST, OMAHA, NE, 68104","Match","Exact","4912 MANDERSON ST, OMAHA, NE, 68104",116978164,"R"
226318,"4912 MOKUPEA PLACE UNIT C","EWA BEACH","HI",96706,21.322637039,-157.983419547,318,"4912 MOKUPEA PLACE UNIT C, EWA BEACH, HI, 96706","Match","Exact","4912 MOKUPEA PL, EWA BEACH, HI, 96706",203229973,"L"
226319,"4912 N PAULINA STREET","CHICAGO","IL",60640,41.971954924,-87.671111071,319,"4912 N PAULINA STREET, CHICAGO, IL, 60640","Match","Exact","4912 N PAULINA ST, CHICAGO, IL, 60640",605185549,"L"
226320,"4912 PLAZA WAY","RICHMOND","CA",94804,37.924295467,-122.323408609,320,"4912 PLAZA WAY, RICHMOND, CA, 94804","Match","Exact","4912 PLAZA WAY, RICHMOND, CA, 94804",192041746,"R"
226321,"4912 S 4700 W","HOOPER","UT",84015,41.174250913,-112.093173201,321,"4912 S 4700 W, HOOPER, UT, 84015","Match","Non_Exact","4912 S 4700 W, HOOPER, UT, 84315",155691639,"R"
226322,"4912 S CUSHMAN AVE","TACOMA","WA",98408,47.212816398,-122.45452706,322,"4912 S CUSHMAN AVE, TACOMA, WA, 98408","Match","Exact","4912 S CUSHMAN AVE, TACOMA, WA, 98408",184625176,"R"
226323,"4912 TANGIER PLACE","SUMMERVILLE","SC",29485,32.9412950330001,-80.1289960289999,323,"4912 TANGIER PLACE, SUMMERVILLE, SC, 29485","Match","Exact","4912 TANGIER PL, SUMMERVILLE, SC, 29485",178485888,"L"
226324,"4912 TERRAPIN BLVD","SAINT CLOUD","FL",34771,28.2597938930001,-81.2443829819999,324,"4912 TERRAPIN BLVD, SAINT CLOUD, FL, 34771","Match","Exact","4912 TERRAPIN BLVD, SAINT CLOUD, FL, 34771",631803093,"L"
226325,"4912 VIVALDI DRIVE","LAS VEGAS","NV",89146,36.1322376950001,-115.208555503,325,"4912 VIVALDI DRIVE, LAS VEGAS, NV, 89146","Match","Exact","4912 VIVALDI DR, LAS VEGAS, NV, 89146",201986036,"R"
226326,"4912 W 84TH PL","BURBANK","IL",60459,NA,NA,326,"4912 W 84TH PL, BURBANK, IL, 60459","Tie",NA,NA,NA,NA
226327,"4912 WAGON MOUND TRL NW","ALBUQUERQUE","NM",87120,35.1727723280001,-106.694921497,327,"4912 WAGON MOUND TRL NW, ALBUQUERQUE, NM, 87120","Match","Exact","4912 WAGON MOUND TRL NW, ALBUQUERQUE, NM, 87120",206739145,"L"
226328,"4913 5TH ST S","SAINT PETERSBURG","FL",33705,27.723738982,-82.6391781409999,328,"4913 5TH ST S, SAINT PETERSBURG, FL, 33705","Match","Exact","4913 5TH ST S, SAINT PETERSBURG, FL, 33705",124711595,"R"
226329,"4913 BENNINGTON DRIVE","SCHWENSVILLE","PA",19473,40.2481108750001,-75.448123256,329,"4913 BENNINGTON DRIVE, SCHWENSVILLE, PA, 19473","Match","Non_Exact","4913 BENNINGTON DR, SCHWENKSVILLE, PA, 19473",605650220,"R"
226330,"4913 BLANTON ST","LAS VEGAS","NV",89121,36.1026500470001,-115.065319264,330,"4913 BLANTON ST, LAS VEGAS, NV, 89121","Match","Non_Exact","4913 BLANTON DR, LAS VEGAS, NV, 89121",201878722,"R"
226331,"4913 BRIDGES STREET EXT BLDG B","MOREHEAD CITY","NC",28557,NA,NA,331,"4913 BRIDGES STREET EXT BLDG B, MOREHEAD CITY, NC, 28557","No_Match",NA,NA,NA,NA
226332,"4913 CORINNE STREET","NEW ORLEANS","LA",70127,30.0257855610001,-89.961397902,332,"4913 CORINNE STREET, NEW ORLEANS, LA, 70127","Match","Exact","4913 CORINNE ST, NEW ORLEANS, LA, 70127",191721849,"R"
226333,"4913 DEICHELMANN LOOP","LAS VEGAS","NV",89115,36.2447667070001,-115.063658286,333,"4913 DEICHELMANN LOOP, LAS VEGAS, NV, 89115","Match","Non_Exact","4913 DIECHELMANN LOOP, LAS VEGAS, NV, 89115",638578357,"R"
226334,"4913 DOWER DRIVE","LA PLATA","MD",20646,38.5779638330001,-76.9903409029999,334,"4913 DOWER DRIVE, LA PLATA, MD, 20646","Match","Exact","4913 DOWER DR, LA PLATA, MD, 20646",25428413,"R"
226335,"4913 LOGAN FERRY RD","MURRYSVILLE","PA",15668,40.47558966,-79.6987016419999,335,"4913 LOGAN FERRY RD, MURRYSVILLE, PA, 15668","Match","Exact","4913 LOGAN FERRY RD, MURRYSVILLE, PA, 15668",52995466,"L"
226336,"4913 LOOK KINNEY CIRCLE","LIVERPOOL","NY",13088,43.135070221,-76.175368996,336,"4913 LOOK KINNEY CIRCLE, LIVERPOOL, NY, 13088","Match","Exact","4913 LOOK KINNEY CIR, LIVERPOOL, NY, 13088",46566651,"L"
226337,"4913 N IDLEWILD AVE","WHITEFISH BAY","WI",53217,43.106123231,-87.902131615,337,"4913 N IDLEWILD AVE, WHITEFISH BAY, WI, 53217","Match","Exact","4913 N IDLEWILD AVE, WHITEFISH BAY, WI, 53217",77742827,"L"
226338,"4913 ORCHARD SKY AVENUE","LAS VEGAS","NV",89131,36.2860436720001,-115.209263597,338,"4913 ORCHARD SKY AVENUE, LAS VEGAS, NV, 89131","Match","Exact","4913 ORCHARD SKY AVE, LAS VEGAS, NV, 89131",612691145,"L"
226339,"4913 SAGEWOOD DRIVE","MEMPHIS","TN",38116,35.0148901490001,-90.0152230959999,339,"4913 SAGEWOOD DRIVE, MEMPHIS, TN, 38116","Match","Exact","4913 SAGEWOOD DR, MEMPHIS, TN, 38116",72922671,"R"
226340,"4913 W RICHARDSON RD","PASCO","WA",99301,NA,NA,340,"4913 W RICHARDSON RD, PASCO, WA, 99301","Tie",NA,NA,NA,NA
226341,"4913 WILKENS AVE","CATONSVILLE","MD",21228,39.2633812240001,-76.7027749929999,341,"4913 WILKENS AVE, CATONSVILLE, MD, 21228","Match","Exact","4913 WILKENS AVE, CATONSVILLE, MD, 21228",191573669,"R"
226342,"4914 BERRYHILL CIRCLE","PERRY HALL","MD",21128,39.381932347,-76.4560378739999,342,"4914 BERRYHILL CIRCLE, PERRY HALL, MD, 21128","Match","Non_Exact","4914 BERRY HILL CIR, PERRY HALL, MD, 21128",191508779,"L"
226343,"4914 BUTTERFLY LANE","STURGEON BAY","WI",54235,44.9093580730001,-87.261262382,343,"4914 BUTTERFLY LANE, STURGEON BAY, WI, 54235","Match","Exact","4914 BUTTERFLY LN, STURGEON BAY, WI, 54235",167247663,"R"
226344,"4914 CARTERET DRIVE","RALEIGH","NC",27612,35.847899581,-78.6878204079999,344,"4914 CARTERET DRIVE, RALEIGH, NC, 27612","Match","Exact","4914 CARTERET DR, RALEIGH, NC, 27612",72495749,"R"
226345,"4914 FITZHUGH AVENUE     STE 214","RICHMOND","VA",23230,37.5803276350001,-77.4964181829999,345,"4914 FITZHUGH AVENUE     STE 214, RICHMOND, VA, 23230","Match","Exact","4914 FITZHUGH AVE, RICHMOND, VA, 23230",106647436,"R"
226346,"4914 GAMMAGE STREET","HOUSTON","TX",77021,29.702173664,-95.340799579,346,"4914 GAMMAGE STREET, HOUSTON, TX, 77021","Match","Exact","4914 GAMMAGE ST, HOUSTON, TX, 77021",96074320,"R"
226347,"4914 GROUSE WOODS DRIVE","WILMINGTON","NC",28411,34.282950041,-77.849864469,347,"4914 GROUSE WOODS DRIVE, WILMINGTON, NC, 28411","Match","Exact","4914 GROUSE WOODS DR, WILMINGTON, NC, 28411",152747283,"L"
226348,"4914 KIRK STREET UNIT 101","SKOKIE","IL",60077,42.0244808030001,-87.75069301,348,"4914 KIRK STREET UNIT 101, SKOKIE, IL, 60077","Match","Exact","4914 KIRK ST, SKOKIE, IL, 60077",111740618,"R"
226349,"4914 MCKENNA COURT","COLUMBUS","OH",43221,40.054203547,-83.112845122,349,"4914 MCKENNA COURT, COLUMBUS, OH, 43221","Match","Exact","4914 MCKENNA CT, COLUMBUS, OH, 43221",218694513,"L"
226350,"4914 MT CLINTON PIKE","ROCKINGHAM","VA",22802,38.4745588920001,-78.9401217509999,350,"4914 MT CLINTON PIKE, ROCKINGHAM, VA, 22802","Match","Exact","4914 MOUNT CLINTON PIKE, ROCKINGHAM, VA, 22802",634369717,"R"
226351,"4914 N HAPPY HOLLOW BLVD","OMAHA","NE",68104,41.274556927,-95.988295646,351,"4914 N HAPPY HOLLOW BLVD, OMAHA, NE, 68104","Match","Exact","4914 N HAPPY HOLLOW BLVD, OMAHA, NE, 68104",116978833,"R"
226352,"4914 N MAIN ST","JACKSONVILLE","FL",32206,30.368908703,-81.652088814,352,"4914 N MAIN ST, JACKSONVILLE, FL, 32206","Match","Exact","4914 N MAIN ST, JACKSONVILLE, FL, 32206",83970845,"L"
226353,"4914 N MAIN STREET","JACKSONVILLE","FL",32206,30.368908703,-81.652088814,353,"4914 N MAIN STREET, JACKSONVILLE, FL, 32206","Match","Exact","4914 N MAIN ST, JACKSONVILLE, FL, 32206",83970845,"L"
226354,"4914 NELSON STREET","FREMONT","CA",94538,37.533793696,-121.990516165,354,"4914 NELSON STREET, FREMONT, CA, 94538","Match","Exact","4914 NELSON ST, FREMONT, CA, 94538",125029845,"L"
226355,"4914 NORTH MAIN STREET","JACKSONVILLE","FL",32206,30.3689070550001,-81.652089266,355,"4914 NORTH MAIN STREET, JACKSONVILLE, FL, 32206","Match","Exact","4914 N MAIN ST, JACKSONVILLE, FL, 32206",83970845,"L"
226356,"4914 OAK LEAF AVE","CARMICHAEL","CA",95608,38.60229574,-121.350178154,356,"4914 OAK LEAF AVE, CARMICHAEL, CA, 95608","Match","Non_Exact","4914 OAKLEAF AVE, CARMICHAEL, CA, 95608",133339239,"R"
226357,"4914 PRAIRIERIDGE ST","COLUMBIA","MO",65202,39.002298963,-92.282736875,357,"4914 PRAIRIERIDGE ST, COLUMBIA, MO, 65202","Match","Non_Exact","4914 PRAIRIE RIDGE ST, COLUMBIA, MO, 65202",23481985,"R"
226358,"4914 TERRAPIN BLVD","SAINT CLOUD","FL",34771,28.2597905160001,-81.244118473,358,"4914 TERRAPIN BLVD, SAINT CLOUD, FL, 34771","Match","Exact","4914 TERRAPIN BLVD, SAINT CLOUD, FL, 34771",631803093,"L"
226359,"4915  42ND  AV  N","ROBBINSDALE","MN",55422,45.031348569,-93.342092419,359,"4915  42ND  AV  N, ROBBINSDALE, MN, 55422","Match","Exact","4915 42ND AVE N, ROBBINSDALE, MN, 55422",43618379,"L"
226360,"4915 135TH PLACE","CRESTWOOD","IL",60418,41.6457222660001,-87.741508629,360,"4915 135TH PLACE, CRESTWOOD, IL, 60418","Match","Exact","4915 135TH PL, CRESTWOOD, IL, 60418",111824299,"R"
226361,"4915 28TH AVENUE S APT 101","F","ND",58104,46.838436976,-96.868855417,361,"4915 28TH AVENUE S APT 101, F, ND, 58104","Match","Non_Exact","4915 28 AVE S, FARGO, ND, 58104",636291862,"R"
226362,"4915 56TH AVENUE","HYATTSVILLE","MD",20781,38.945214159,-76.9210893009999,362,"4915 56TH AVENUE, HYATTSVILLE, MD, 20781","Match","Exact","4915 56TH AVE, HYATTSVILLE, MD, 20781",76332837,"R"
226363,"4915 ARENDELL STREET","MOREHEAD CITY","NC",28557,34.7340679050001,-76.789136258,363,"4915 ARENDELL STREET, MOREHEAD CITY, NC, 28557","Match","Exact","4915 ARENDELL ST, MOREHEAD CITY, NC, 28557",33861235,"L"
226364,"4915 ATLANTA HWY UNIT 1421","FLOWERY BRANCH","GA",30542,34.187774001,-83.92212727,364,"4915 ATLANTA HWY UNIT 1421, FLOWERY BRANCH, GA, 30542","Match","Exact","4915 ATLANTA HWY, FLOWERY BR, GA, 30542",98265012,"R"
226365,"4915 BARKSDALE BLVD SUITE 114","BOSSIER CITY","LA",71112,NA,NA,365,"4915 BARKSDALE BLVD SUITE 114, BOSSIER CITY, LA, 71112","No_Match",NA,NA,NA,NA
226366,"4915 BELLA VISTA DRIVE","LONGMONT","CO",80503,40.1407569090001,-105.165509261,366,"4915 BELLA VISTA DRIVE, LONGMONT, CO, 80503","Match","Exact","4915 BELLA VISTA DR, LONGMONT, CO, 80503",627444257,"R"
226367,"4915 BROADWAY 4L","NEW YORK","NY",10034,40.8674226970001,-73.9219936219999,367,"4915 BROADWAY 4L, NEW YORK, NY, 10034","Match","Exact","4915 BROADWAY, NEW YORK, NY, 10034",59658863,"L"
226368,"4915 BROADWAY 6L","NEW YORK","NY",10034,40.8674226970001,-73.9219936219999,368,"4915 BROADWAY 6L, NEW YORK, NY, 10034","Match","Exact","4915 BROADWAY, NEW YORK, NY, 10034",59658863,"L"
226369,"4915 BROADWAY APT 4O","NEW YORK","NY",10034,40.8674226970001,-73.9219936219999,369,"4915 BROADWAY APT 4O, NEW YORK, NY, 10034","Match","Exact","4915 BROADWAY, NEW YORK, NY, 10034",59658863,"L"
226370,"4915 E PASEO WAY","PHOENIX","AZ",85044,33.363394514,-111.973747889,370,"4915 E PASEO WAY, PHOENIX, AZ, 85044","Match","Exact","4915 E PASEO WAY, PHOENIX, AZ, 85044",642857880,"L"
226371,"4915 EAST SPEEDWAY","TUCSON","AZ",85712,32.236222108,-110.887902893,371,"4915 EAST SPEEDWAY, TUCSON, AZ, 85712","Match","Non_Exact","4915 E SPEEDWAY BLVD, TUCSON, AZ, 85712",121179825,"L"
226372,"4915 FOX HILL LN","DALLAS","TX",75232,NA,NA,372,"4915 FOX HILL LN, DALLAS, TX, 75232","No_Match",NA,NA,NA,NA
226373,"4915 HAMILTON ROAD","COLUMBUS","GA",31904,32.511393153,-84.968614003,373,"4915 HAMILTON ROAD, COLUMBUS, GA, 31904","Match","Exact","4915 HAMILTON RD, COLUMBUS, GA, 31904",98937263,"L"
226374,"4915 HARTE WAY","SACRAMENTO","CA",95822,38.5301021270001,-121.490731909,374,"4915 HARTE WAY, SACRAMENTO, CA, 95822","Match","Exact","4915 HARTE WAY, SACRAMENTO, CA, 95822",133396745,"L"
226375,"4915 JAY STREET NE APT 11","WASHINGTON","DC",20019,38.901520539,-76.93082585,375,"4915 JAY STREET NE APT 11, WASHINGTON, DC, 20019","Match","Exact","4915 JAY ST NE, WASHINGTON, DC, 20019",76233396,"R"
226376,"4915 NANNIE HELEN BURROUGHS AVE NE","WASHINGTON","DC",20019,38.8984836490001,-76.930928492,376,"4915 NANNIE HELEN BURROUGHS AVE NE, WASHINGTON, DC, 20019","Match","Exact","4915 NANNIE HELEN BURROUGHS AVE NE, WASHINGTON, DC, 20019",76233531,"R"
226377,"4915 NOTTINGHAM AVENUE","LA CROSSE","WI",54601,43.760366946,-91.210463136,377,"4915 NOTTINGHAM AVENUE, LA CROSSE, WI, 54601","Match","Exact","4915 NOTTINGHAM AVE, LA CROSSE, WI, 54601",51014268,"L"
226378,"4915 OLD LA 25","NEW IBERIA","LA",70560,29.976444943,-91.892543012,378,"4915 OLD LA 25, NEW IBERIA, LA, 70560","Match","Exact","4915 OLD LA 25, NEW IBERIA, LA, 70560",85371737,"R"
226379,"4915 POLARIS STREET","ORLANDO","FL",32819,28.460410789,-81.444209631,379,"4915 POLARIS STREET, ORLANDO, FL, 32819","Match","Exact","4915 POLARIS ST, ORLANDO, FL, 32819",94289570,"R"
226380,"4915 RED BIRCH DR","ARLINGTON","TX",76018,32.665805027,-97.108786445,380,"4915 RED BIRCH DR, ARLINGTON, TX, 76018","Match","Exact","4915 RED BIRCH DR, ARLINGTON, TX, 76018",101942322,"R"
226381,"4915 SCHERRER RD","GRANITE FALLS","WA",98252,48.0419378460001,-121.943245057,381,"4915 SCHERRER RD, GRANITE FALLS, WA, 98252","Match","Exact","4915 SCHERRER RD, GRANITE FALLS, WA, 98252",187775539,"R"
226382,"4915 SCRUGGS STATION ROAD","JEFFERSON CITY","MO",65109,38.561471532,-92.28595797,382,"4915 SCRUGGS STATION ROAD, JEFFERSON CITY, MO, 65109","Match","Exact","4915 SCRUGGS STATION RD, JEFFERSON CITY, MO, 65109",34406196,"R"
226383,"4915 ST ELMO AVENUE SUITE 506","BETHESDA","MD",20814,NA,NA,383,"4915 ST ELMO AVENUE SUITE 506, BETHESDA, MD, 20814","No_Match",NA,NA,NA,NA
226384,"4915 SW 13TH STREET","DES MOINES","IA",50315,41.539910659,-93.632987411,384,"4915 SW 13TH STREET, DES MOINES, IA, 50315","Match","Exact","4915 SW 13TH ST, DES MOINES, IA, 50315",65786141,"L"
226385,"4915 SW 165TH AVE","MIRAMAR","FL",33027,25.9663353490001,-80.365957612,385,"4915 SW 165TH AVE, MIRAMAR, FL, 33027","Match","Exact","4915 SW 165TH AVE, MIRAMAR, FL, 33027",114806810,"R"
226386,"4915 TAMPICO WAY","FARMINGTON","NM",87402,36.8116263270001,-108.144033938,386,"4915 TAMPICO WAY, FARMINGTON, NM, 87402","Match","Non_Exact","4915 TAMPICO PL, FARMINGTON, NM, 87402",636689920,"R"
226387,"4915 TYRONE AVE 223","SHERMAN OAKS","CA",91423,34.1597762640001,-118.444334641,387,"4915 TYRONE AVE 223, SHERMAN OAKS, CA, 91423","Match","Exact","4915 TYRONE AVE, SHERMAN OAKS, CA, 91423",141561665,"L"
226388,"4915 WALNUT GROVE AVE","SAN GABRIEL","CA",91776,34.0921891020001,-118.083687079,388,"4915 WALNUT GROVE AVE, SAN GABRIEL, CA, 91776","Match","Non_Exact","4915 S WALNUT GROVE AVE, SAN GABRIEL, CA, 91776",633037661,"L"
226389,"4916 ALLENCREST LN","DALLAS","TX",75244,32.910724504,-96.8239804739999,389,"4916 ALLENCREST LN, DALLAS, TX, 75244","Match","Exact","4916 ALLENCREST LN, DALLAS, TX, 75244",102899295,"R"
226390,"4916 BEXLEY LANE","FAIRFAX","VA",22032,38.817234741,-77.266587032,390,"4916 BEXLEY LANE, FAIRFAX, VA, 22032","Match","Exact","4916 BEXLEY LN, FAIRFAX, VA, 22032",76024444,"R"
226391,"4916 COOLRIDGE CT APT F","RALEIGH","NC",27616,35.853160883,-78.572605204,391,"4916 COOLRIDGE CT APT F, RALEIGH, NC, 27616","Match","Exact","4916 COOLRIDGE CT, RALEIGH, NC, 27616",72650044,"R"
226392,"4916 EL DON DR","ROCKLIN","CA",95677,38.783178838,-121.211015825,392,"4916 EL DON DR, ROCKLIN, CA, 95677","Match","Exact","4916 EL DON DR, ROCKLIN, CA, 95677",106777093,"R"
226393,"4916 GUADALUPE DRIVE","EL PASO","TX",79904,31.860488993,-106.427088149,393,"4916 GUADALUPE DRIVE, EL PASO, TX, 79904","Match","Exact","4916 GUADALUPE DR, EL PASO, TX, 79904",189339298,"R"
226394,"4916 HIGH STREET","FORT SMITH","AR",72904,35.410960184,-94.376678996,394,"4916 HIGH STREET, FORT SMITH, AR, 72904","Match","Exact","4916 HIGH ST, FORT SMITH, AR, 72904",56102906,"R"
226395,"4916 OREGON TRAIL","AMARILLO","TX",79109,35.155923622,-101.887181657,395,"4916 OREGON TRAIL, AMARILLO, TX, 79109","Match","Exact","4916 OREGON TRL, AMARILLO, TX, 79109",182654813,"R"
226396,"4916 PASCHALL AVENUE","PHILADELPHIA","PA",19143,39.939701461,-75.2115652269999,396,"4916 PASCHALL AVENUE, PHILADELPHIA, PA, 19143","Match","Exact","4916 PASCHALL AVE, PHILADELPHIA, PA, 19143",131404099,"L"
226397,"4916 SILVER PINE DR","CASTLE ROCK","CO",80108,39.410412852,-104.839917379,397,"4916 SILVER PINE DR, CASTLE ROCK, CO, 80108","Match","Exact","4916 SILVER PINE DR, CASTLE ROCK, CO, 80108",130844299,"L"
226398,"4916 SIPPO RESERVES DR N W","MASSILLON","OH",44647,40.8103139720001,-81.600165477,398,"4916 SIPPO RESERVES DR N W, MASSILLON, OH, 44647","Match","Exact","4916 SIPPO RESERVES DR NW, MASSILLON, OH, 44647",640517539,"L"
226399,"4916 TANGLEWOOD LANE","MANLIUS","NY",13104,43.007060773,-76.021243378,399,"4916 TANGLEWOOD LANE, MANLIUS, NY, 13104","Match","Exact","4916 TANGLEWOOD LN, MANLIUS, NY, 13104",46576400,"L"
226400,"4916 W NATIONAL RD","CLAYTON","OH",45315,39.873584452,-84.3469216239999,400,"4916 W NATIONAL RD, CLAYTON, OH, 45315","Match","Exact","4916 NATIONAL RD, CLAYTON, OH, 45315",649929919,"L"
226401,"4916 WEST NATIONAL RD","CLAYTON","OH",45315,39.873584452,-84.3469216239999,401,"4916 WEST NATIONAL RD, CLAYTON, OH, 45315","Match","Non_Exact","4916 NATIONAL RD, CLAYTON, OH, 45315",649929919,"L"
226402,"4916 WOODSONIA DR","SHAWNEE","KS",66226,39.038482452,-94.850456876,402,"4916 WOODSONIA DR, SHAWNEE, KS, 66226","Match","Exact","4916 WOODSONIA DR, SHAWNEE, KS, 66226",91309774,"L"
226403,"4916 YOAKUM BLVD","HOUSTON","TX",77006,29.7291615980001,-95.392826391,403,"4916 YOAKUM BLVD, HOUSTON, TX, 77006","Match","Exact","4916 YOAKUM BLVD, HOUSTON, TX, 77006",96064757,"R"
226404,"49160 851ST RD","CHAMBERS","NE",68735,NA,NA,404,"49160 851ST RD, CHAMBERS, NE, 68735","Tie",NA,NA,NA,NA
226405,"4917 154TH AVE CT E","SUMNER","WA",98390,47.211913479,-122.223852087,405,"4917 154TH AVE CT E, SUMNER, WA, 98390","Match","Exact","4917 154TH AVENUE CT E, SUMNER, WA, 98390",645868325,"L"
226406,"4917 ALEXIS ROAD","SYLVANIA","OH",43560,41.7182432330001,-83.6626861189999,406,"4917 ALEXIS ROAD, SYLVANIA, OH, 43560","Match","Non_Exact","4917 W ALEXIS RD, SYLVANIA, OH, 43560",33927980,"L"
226407,"4917 ANNUNCIATION STREET","NEW ORLEANS","LA",70115,29.9174262820001,-90.108358322,407,"4917 ANNUNCIATION STREET, NEW ORLEANS, LA, 70115","Match","Exact","4917 ANNUNCIATION ST, NEW ORLEANS, LA, 70115",191712892,"R"
226408,"4917 ARBOL CT","BENBROOK","TX",76126,32.700744071,-97.462419089,408,"4917 ARBOL CT, BENBROOK, TX, 76126","Match","Exact","4917 ARBOL CT, BENBROOK, TX, 76126",616464379,"L"
226409,"4917 ASHFORD DRIVE","UPPER MARLBORO","MD",20772,38.8214459180001,-76.8146730829999,409,"4917 ASHFORD DRIVE, UPPER MARLBORO, MD, 20772","Match","Exact","4917 ASHFORD DR, UPPER MARLBORO, MD, 20772",76343677,"R"
226410,"4917 BRUFF ROAD","FOWLERVILLE","MI",48836,42.7655776770001,-84.017715889,410,"4917 BRUFF ROAD, FOWLERVILLE, MI, 48836","Match","Non_Exact","4917 W BRUFF RD, FOWLERVILLE, MI, 48836",638595355,"R"
226411,"4917 COACH HORSE CT","SAN DIEGO","CA",92130,32.9235194250001,-117.212370038,411,"4917 COACH HORSE CT, SAN DIEGO, CA, 92130","Match","Exact","4917 COACH HORSE CT, SAN DIEGO, CA, 92130",612889382,"L"
226412,"4917 E 27TH PL","TULSA","OK",74114,36.1220389330001,-95.922247426,412,"4917 E 27TH PL, TULSA, OK, 74114","Match","Exact","4917 E 27TH PL, TULSA, OK, 74114",166450346,"L"
226413,"4917 IRONWOOD TRAIL","BARTOW","FL",33830,27.953527616,-81.86487893,413,"4917 IRONWOOD TRAIL, BARTOW, FL, 33830","Match","Exact","4917 IRONWOOD TRL, BARTOW, FL, 33830",104819950,"R"
226414,"4917 JONESBORO RD","FOREST PARK","GA",30297,33.6200858810001,-84.351859154,414,"4917 JONESBORO RD, FOREST PARK, GA, 30297","Match","Exact","4917 JONESBORO RD, FOREST PARK, GA, 30297",23331825,"R"
226415,"4917 MARYANN LANE","BETHLEHEM","PA",18017,40.6825467830001,-75.400459697,415,"4917 MARYANN LANE, BETHLEHEM, PA, 18017","Match","Exact","4917 MARYANN LN, BETHLEHEM, PA, 18017",612437111,"L"
226416,"4917 MCFARLAND ROAD","INDIANAPOLIS","IN",46227,39.69564619,-86.1146503109999,416,"4917 MCFARLAND ROAD, INDIANAPOLIS, IN, 46227","Match","Exact","4917 MCFARLAND RD, INDIANAPOLIS, IN, 46227",108009036,"L"
226417,"4917 N 28TH ST","TACOMA","WA",98407,47.273063623,-122.502643823,417,"4917 N 28TH ST, TACOMA, WA, 98407","Match","Exact","4917 N 28TH ST, TACOMA, WA, 98407",184644173,"R"
226418,"4917 N CEDAR ST","SPOKANE","WA",99205,47.7028441580001,-117.432376912,418,"4917 N CEDAR ST, SPOKANE, WA, 99205","Match","Exact","4917 N CEDAR ST, SPOKANE, WA, 99205",189873010,"L"
226419,"4917 NORTH CANYON TRAIL APT 2303","EULESS","TX",76040,32.8357670180001,-97.070994862,419,"4917 NORTH CANYON TRAIL APT 2303, EULESS, TX, 76040","Match","Non_Exact","4917 CANYON TRL, EULESS, TX, 76040",619875573,"R"
226420,"4917 PIEDMONT PARKWAY STE 103D","JAMESTOWN","NC",27282,36.0405316100001,-79.9230308209999,420,"4917 PIEDMONT PARKWAY STE 103D, JAMESTOWN, NC, 27282","Match","Exact","4917 PIEDMONT PKWY, JAMESTOWN, NC, 27282",640602019,"R"
226421,"4917 PIEDMONT PARKWAY STE 104","JAMESTOWN","NC",27282,36.0405316100001,-79.9230308209999,421,"4917 PIEDMONT PARKWAY STE 104, JAMESTOWN, NC, 27282","Match","Exact","4917 PIEDMONT PKWY, JAMESTOWN, NC, 27282",640602019,"R"
226422,"4917 PIEDMONT PKWY STE 103","JAMESTOWN","NC",27282,36.0405316100001,-79.9230308209999,422,"4917 PIEDMONT PKWY STE 103, JAMESTOWN, NC, 27282","Match","Exact","4917 PIEDMONT PKWY, JAMESTOWN, NC, 27282",640602019,"R"
226423,"4917 PROFESSIONAL CT SUITE 203-B","RALEIGH","NC",27609,35.850401144,-78.6090307279999,423,"4917 PROFESSIONAL CT SUITE 203-B, RALEIGH, NC, 27609","Match","Exact","4917 PROFESSIONAL CT, RALEIGH, NC, 27609",72506219,"L"
226424,"4917 REFUGIO AVENUE","CARLSBAD","CA",92009,33.149193439,-117.314816352,424,"4917 REFUGIO AVENUE, CARLSBAD, CA, 92009","Match","Non_Exact","4917 REFUGIO AVE, CARLSBAD, CA, 92008",195291280,"R"
226425,"4917 S DREXEL BLVD APT 206","CHICAGO","IL",60615,41.805525512,-87.603803559,425,"4917 S DREXEL BLVD APT 206, CHICAGO, IL, 60615","Match","Non_Exact","4917 S DREXEL BLVD, CHICAGO, IL, 60615",111770985,"L"
226426,"4918 ASHFORD DR","UPPER MARLBORO","MD",20772,38.821421436,-76.814699476,426,"4918 ASHFORD DR, UPPER MARLBORO, MD, 20772","Match","Exact","4918 ASHFORD DR, UPPER MARLBORO, MD, 20772",76343677,"L"
226427,"4918 E BROOKSIDE AVE","ORANGE","CA",92867,33.816119993,-117.800487779,427,"4918 E BROOKSIDE AVE, ORANGE, CA, 92867","Match","Exact","4918 E BROOKSIDE AVE, ORANGE, CA, 92867",144034225,"R"
226428,"4918 FLORAMAR TERRACE","NEW PORT RICHEY","FL",34652,28.230657164,-82.7330868339999,428,"4918 FLORAMAR TERRACE, NEW PORT RICHEY, FL, 34652","Match","Exact","4918 FLORAMAR TER, NEW PORT RICHEY, FL, 34652",86407514,"L"
226429,"4918 FONTANA ST SE","SALEM","OR",97317,44.926677586,-122.960822873,429,"4918 FONTANA ST SE, SALEM, OR, 97317","Match","Exact","4918 FONTANA ST SE, SALEM, OR, 97317",613685054,"R"
226430,"4918 GAMI WAY","COLORADO SPRINGS","CO",80911,38.7606671300001,-104.715779736,430,"4918 GAMI WAY, COLORADO SPRINGS, CO, 80911","Match","Exact","4918 GAMI WAY, COLORADO SPRINGS, CO, 80911",643447424,"R"
226431,"4918 HIGHWAY 50","WHITEWATER","CO",81527,38.9035930310001,-108.368907481,431,"4918 HIGHWAY 50, WHITEWATER, CO, 81527","Match","Non_Exact","4918 US HWY 50, WHITEWATER, CO, 81527",640723431,"R"
226432,"4918 LOWELL ROAD","TAMPA","FL",33624,28.0658322150001,-82.5257063779999,432,"4918 LOWELL ROAD, TAMPA, FL, 33624","Match","Exact","4918 LOWELL RD, TAMPA, FL, 33624",104563782,"L"
226433,"4918 ROSEBUD CHURCH RD","ELM CITY","NC",27822,35.7701494020001,-77.821377253,433,"4918 ROSEBUD CHURCH RD, ELM CITY, NC, 27822","Match","Exact","4918 ROSEBUD CHURCH RD, ELM CITY, NC, 27822",26730617,"R"
226434,"4918 ROSEDALE CIRCLE ST","HOUSTON","TX",77009,29.715264502,-95.355809435,434,"4918 ROSEDALE CIRCLE ST, HOUSTON, TX, 77009","Match","Non_Exact","4918 ROSEDALE CIR, HOUSTON, TX, 77004",96074011,"R"
226435,"4918 SANDY BROOK CIRCLE","WIMAUMA","FL",33598,27.7396976900001,-82.3294998709999,435,"4918 SANDY BROOK CIRCLE, WIMAUMA, FL, 33598","Match","Exact","4918 SANDY BROOK CIR, WIMAUMA, FL, 33598",650086236,"L"
226436,"4918 VALLEY BIRCH DRIVE","ARLINGTON","TN",38002,35.2600121620001,-89.7643942239999,436,"4918 VALLEY BIRCH DRIVE, ARLINGTON, TN, 38002","Match","Exact","4918 VALLEY BIRCH DR, ARLINGTON, TN, 38002",72975745,"L"
226437,"4918 W MERRELL STREET","PHOENIX","AZ",85031,33.481428307,-112.165621226,437,"4918 W MERRELL STREET, PHOENIX, AZ, 85031","Match","Exact","4918 W MERRELL ST, PHOENIX, AZ, 85031",128200978,"R"
226438,"4918 WEST HAWTHORNE AVE","HILLSIDE","IL",60162,41.8853847290001,-87.905237395,438,"4918 WEST HAWTHORNE AVE, HILLSIDE, IL, 60162","Match","Exact","4918 W HAWTHORNE AVE, HILLSIDE, IL, 60162",111726457,"L"
226439,"4919 29TH AVE S","SEATTLE","WA",98108,47.558005167,-122.295663198,439,"4919 29TH AVE S, SEATTLE, WA, 98108","Match","Exact","4919 29TH AVE S, SEATTLE, WA, 98108",186666471,"R"
226440,"4919 43RD PL NW","WASHINGTON","DC",20016,38.953644678,-77.084981517,440,"4919 43RD PL NW, WASHINGTON, DC, 20016","Match","Exact","4919 43RD PL NW, WASHINGTON, DC, 20016",76219664,"R"
226441,"4919 E DAKOTA AVENUE","FRESNO","CA",93727,36.786770769,-119.730740188,441,"4919 E DAKOTA AVENUE, FRESNO, CA, 93727","Match","Exact","4919 E DAKOTA AVE, FRESNO, CA, 93727",197578326,"L"
226442,"4919 IMPERIAL DRIVE","RICHTON PARK","IL",60471,41.477031708,-87.734879789,442,"4919 IMPERIAL DRIVE, RICHTON PARK, IL, 60471","Match","Exact","4919 IMPERIAL DR, RICHTON PARK, IL, 60471",111708108,"L"
226443,"4919 JAMESTOWN AVE STE 204-F","BATON ROUGE","LA",70808,30.419655978,-91.134581671,443,"4919 JAMESTOWN AVE STE 204-F, BATON ROUGE, LA, 70808","Match","Exact","4919 JAMESTOWN AVE, BATON ROUGE, LA, 70808",639226265,"L"
226444,"4919 N MAROA","FRESNO","CA",93704,36.806961383,-119.7994501,444,"4919 N MAROA, FRESNO, CA, 93704","Match","Non_Exact","4919 N MAROA AVE, FRESNO, CA, 93704",197573878,"L"
226445,"4919 OAKLAWN DRIVE","NORTH LITTLE ROCK","AR",72116,34.799489033,-92.245461569,445,"4919 OAKLAWN DRIVE, NORTH LITTLE ROCK, AR, 72116","Match","Exact","4919 OAKLAWN DR, N LITTLE ROCK, AR, 72116",83514247,"L"
226446,"4919 PENTRIDGE ST","PHILADELPHIA","PA",19131,39.947637678,-75.22117797,446,"4919 PENTRIDGE ST, PHILADELPHIA, PA, 19131","Match","Non_Exact","4919 PENTRIDGE ST, PHILADELPHIA, PA, 19143",131399870,"R"
226447,"4919 SW JOHN DANIELS ROAD","KINARD","FL",32449,NA,NA,447,"4919 SW JOHN DANIELS ROAD, KINARD, FL, 32449","No_Match",NA,NA,NA,NA
226448,"4919 VERGANO VILLA DR","KATY","TX",77493,29.844698878,-95.783666175,448,"4919 VERGANO VILLA DR, KATY, TX, 77493","Match","Exact","4919 VERGANO VILLA DR, KATY, TX, 77493",652672880,"R"
226449,"49191 HWY 101","BANDON","OR",97411,43.071295708,-124.415230657,449,"49191 HWY 101, BANDON, OR, 97411","Match","Non_Exact","49191 US HWY 101, BANDON, OR, 97411",651849077,"R"
226450,"492  BRAMHALL AVE","JERSEY CITY","NJ",7304,40.7139806500001,-74.072410519,450,"492  BRAMHALL AVE, JERSEY CITY, NJ, 7304","Match","Exact","492 BRAMHALL AVE, JERSEY CITY, NJ, 07304",59604702,"R"
226451,"492 3RD ST","WILLOWS","CA",95988,39.526320825,-122.188006348,451,"492 3RD ST, WILLOWS, CA, 95988","Match","Exact","492 3RD ST, WILLOWS, CA, 95988",67177799,"R"
226452,"492 ARLINGTON AVENUE","ELMHURST","IL",60126,41.8855360470001,-87.936949414,452,"492 ARLINGTON AVENUE, ELMHURST, IL, 60126","Match","Exact","492 ARLINGTON AVE, ELMHURST, IL, 60126",112545227,"R"
226453,"492 BRAMHALL AVE","JERSEY CITY","NJ",7304,40.7139806500001,-74.072410519,453,"492 BRAMHALL AVE, JERSEY CITY, NJ, 7304","Match","Exact","492 BRAMHALL AVE, JERSEY CITY, NJ, 07304",59604702,"R"
226454,"492 CASCADE CIRCLE","SILVERTHORNE","CO",80497,39.638082877,-106.07262346,454,"492 CASCADE CIRCLE, SILVERTHORNE, CO, 80497","Match","Non_Exact","492 CASCADE CIR, SILVERTHORNE, CO, 80498",106047370,"R"
226455,"492 CEDAR LANE","TEANECK","NJ",7666,40.8895399670001,-74.023360149,455,"492 CEDAR LANE, TEANECK, NJ, 7666","Match","Exact","492 CEDAR LN, TEANECK, NJ, 07666",64388672,"L"
226456,"492 COLUSA WAY","LIVERMORE","CA",94551,37.6967841850001,-121.795044136,456,"492 COLUSA WAY, LIVERMORE, CA, 94551","Match","Exact","492 COLUSA WAY, LIVERMORE, CA, 94551",125018100,"L"
226457,"492 E NAPA ST","SONOMA","CA",95476,38.2909455180001,-122.447700941,457,"492 E NAPA ST, SONOMA, CA, 95476","Match","Exact","492 E NAPA ST, SONOMA, CA, 95476",605088021,"L"
226458,"492 GLENWYTH RD","STRATFORD","PA",19087,40.0577598100001,-75.4162235209999,458,"492 GLENWYTH RD, STRATFORD, PA, 19087","Match","Non_Exact","492 GLENWYTH RD, STRAFFORD, PA, 19087",652461075,"L"
226459,"492 GLENWYTH ROAD","WAYE","PA",19087,40.0577598100001,-75.4162235209999,459,"492 GLENWYTH ROAD, WAYE, PA, 19087","Match","Non_Exact","492 GLENWYTH RD, WAYNE, PA, 19087",652461075,"L"
226460,"492 HIGHWAY 25N","GUY","AR",72061,NA,NA,460,"492 HIGHWAY 25N, GUY, AR, 72061","No_Match",NA,NA,NA,NA
226461,"492 LEFFERTS AVE APT 1A","BROOKLYN","NY",11225,40.662721178,-73.944847916,461,"492 LEFFERTS AVE APT 1A, BROOKLYN, NY, 11225","Match","Exact","492 LEFFERTS AVE, BROOKLYN, NY, 11225",59079790,"R"
226462,"492 LETORT RD","MILLERSVILLE","PA",17551,39.988015176,-76.3930052379999,462,"492 LETORT RD, MILLERSVILLE, PA, 17551","Match","Exact","492 LETORT RD, MILLERSVILLE, PA, 17551",179659972,"L"
226463,"492 LOBLOLLY BAY DRIVE","SANTA ROSA BEACH","FL",32459,30.419786705,-86.313094678,463,"492 LOBLOLLY BAY DRIVE, SANTA ROSA BEACH, FL, 32459","Match","Exact","492 LOBLOLLY BAY DR, SANTA ROSA BEACH, FL, 32459",641071153,"L"
226464,"492 MARLBORO ROAD","OLD BRIDGE","NJ",8857,40.3954389020001,-74.342731304,464,"492 MARLBORO ROAD, OLD BRIDGE, NJ, 8857","Match","Exact","492 MARLBORO RD, OLD BRIDGE, NJ, 08857",60282930,"L"
226465,"492 MORNING GLORY LANE","GRAND JUNCTION","CO",81504,39.076855707,-108.511679571,465,"492 MORNING GLORY LANE, GRAND JUNCTION, CO, 81504","Match","Exact","492 MORNING GLORY LN, GRAND JCT, CO, 81504",635559430,"R"
226466,"492 MUSE ST","ATLANTA","GA",30310,33.741113152,-84.433623148,466,"492 MUSE ST, ATLANTA, GA, 30310","Match","Non_Exact","492 MUSE ST SW, ATLANTA, GA, 30310",17340633,"L"
226467,"492 N MARIETTA PARKWAY","MARIETTA","GA",30060,33.9587253820001,-84.5372501209999,467,"492 N MARIETTA PARKWAY, MARIETTA, GA, 30060","Match","Exact","492 N MARIETTA PKWY, MARIETTA, GA, 30060",17262213,"R"
226468,"492 NW 165 STREET RS","MIAMI","FL",33169,25.924623796,-80.208136531,468,"492 NW 165 STREET RS, MIAMI, FL, 33169","Match","Non_Exact","492 NW 165TH ST, MIAMI, FL, 33169",642892109,"R"
226469,"492 PAVONIA AVE","JERSEY CITY","NJ",7306,40.7304048930001,-74.056782931,469,"492 PAVONIA AVE, JERSEY CITY, NJ, 7306","Match","Exact","492 PAVONIA AVE, JERSEY CITY, NJ, 07306",59605082,"R"
226470,"492 PRATT ROAD","ALSTEAD","NH",3602,43.113459065,-72.3383256559999,470,"492 PRATT ROAD, ALSTEAD, NH, 3602","Match","Exact","492 PRATT RD, ALSTEAD, NH, 03602",124083612,"R"
226471,"492 RIDGE ROAD","FREDON","NJ",7860,41.014274621,-74.8133687599999,471,"492 RIDGE ROAD, FREDON, NJ, 7860","Match","Exact","492 RIDGE RD, FREDON, NJ, 07860",98028219,"L"
226472,"492 ROUTE 63","CHESTERFIELD","NH",3443,NA,NA,472,"492 ROUTE 63, CHESTERFIELD, NH, 3443","No_Match",NA,NA,NA,NA
226473,"492 SOUTH HIGH STREET","COLUMBUS","OH",43215,39.9517753900001,-82.998611206,473,"492 SOUTH HIGH STREET, COLUMBUS, OH, 43215","Match","Exact","492 S HIGH ST, COLUMBUS, OH, 43215",135576751,"L"
226474,"492 TIMBER VILLAGE RD","GROVELAND","FL",34736,28.5629342610001,-81.830937708,474,"492 TIMBER VILLAGE RD, GROVELAND, FL, 34736","Match","Exact","492 TIMBER VILLAGE RD, GROVELAND, FL, 34736",94188845,"R"
226475,"492 VIEWTOWN ROAD","AMISSVILLE","VA",20106,38.658831757,-78.015644546,475,"492 VIEWTOWN ROAD, AMISSVILLE, VA, 20106","Match","Exact","492 VIEWTOWN RD, AMISSVILLE, VA, 20106",29946574,"R"
226476,"492 W SYCAMORE RD","SNOW SHOE","PA",16874,NA,NA,476,"492 W SYCAMORE RD, SNOW SHOE, PA, 16874","No_Match",NA,NA,NA,NA
226477,"492 WASHINGTON CT","TIBURON","CA",94920,37.8981278960001,-122.489282498,477,"492 WASHINGTON CT, TIBURON, CA, 94920","Match","Exact","492 WASHINGTON CT, TIBURON, CA, 94920",192768983,"L"
226478,"492 WISCONSIN AVE","MORGANTOWN","WV",26501,39.637517659,-79.9814099279999,478,"492 WISCONSIN AVE, MORGANTOWN, WV, 26501","Match","Exact","492 WISCONSIN AVE, MORGANTOWN, WV, 26501",50742355,"R"
226479,"4920 179TH STREET","COUNTRY CLUB HILLS","IL",60478,41.5659344420001,-87.7362512019999,479,"4920 179TH STREET, COUNTRY CLUB HILLS, IL, 60478","Match","Exact","4920 179TH ST, COUNTRY CLUB HILLS, IL, 60478",112202241,"R"
226480,"4920 ATLANTA HIGHWAY BOX 423","ALPHARETTA","GA",30004,34.1581024810001,-84.2387605059999,480,"4920 ATLANTA HIGHWAY BOX 423, ALPHARETTA, GA, 30004","Match","Exact","4920 ATLANTA HWY, ALPHARETTA, GA, 30004",637890675,"L"
226481,"4920 ATLANTA HIGHWAY SUITE 132","ALPHARETTA","GA",30004,34.1581024810001,-84.2387605059999,481,"4920 ATLANTA HIGHWAY SUITE 132, ALPHARETTA, GA, 30004","Match","Exact","4920 ATLANTA HWY, ALPHARETTA, GA, 30004",637890675,"L"
226482,"4920 BLACK ROAD","MONCLOVA","OH",43542,41.550013187,-83.7267284279999,482,"4920 BLACK ROAD, MONCLOVA, OH, 43542","Match","Exact","4920 BLACK RD, MONCLOVA, OH, 43542",618109183,"R"
226483,"4920 CHIMNEY OAKS DRIVE","MABLETON","GA",30126,33.8312163860001,-84.5378727149999,483,"4920 CHIMNEY OAKS DRIVE, MABLETON, GA, 30126","Match","Non_Exact","4920 CHIMNEY OAKS DR SE, MABLETON, GA, 30126",624818612,"L"
226484,"4920 CHINA GARDEN DR","AUSTIN","TX",78730,30.3740920290001,-97.8422693429999,484,"4920 CHINA GARDEN DR, AUSTIN, TX, 78730","Match","Exact","4920 CHINA GARDEN DR, AUSTIN, TX, 78730",63992332,"R"
226485,"4920 HARDSCRABBLE RD APT 617","COLUMBIA","SC",29229,34.1707054840001,-80.9058067729999,485,"4920 HARDSCRABBLE RD APT 617, COLUMBIA, SC, 29229","Match","Non_Exact","4920 HARD SCRABBLE RD, COLUMBIA, SC, 29229",635778974,"R"
226486,"4920 LEWIS AVE STE 3","TOLEDO","OH",43612,41.7061509280001,-83.566057469,486,"4920 LEWIS AVE STE 3, TOLEDO, OH, 43612","Match","Exact","4920 LEWIS AVE, TOLEDO, OH, 43612",33933950,"R"
226487,"4920 N 68TH STREET","MILWAUKEE","WI",53218,43.1076287180001,-87.996159268,487,"4920 N 68TH STREET, MILWAUKEE, WI, 53218","Match","Exact","4920 N 68TH ST, MILWAUKEE, WI, 53218",77730419,"R"
226488,"4920 NAIGARA RD","COLLEGE PARK","MD",20740,39.017469335,-76.921697502,488,"4920 NAIGARA RD, COLLEGE PARK, MD, 20740","Match","Non_Exact","4920 NIAGARA RD, COLLEGE PARK, MD, 20740",76324347,"L"
226489,"4920 NE 47TH AVENUE","PORTLAND","OR",97218,45.5586182960001,-122.61481751,489,"4920 NE 47TH AVENUE, PORTLAND, OR, 97218","Match","Exact","4920 NE 47TH AVE, PORTLAND, OR, 97218",157563484,"R"
226490,"4920 NW 196TH TERRACE","MIAMI","FL",33055,25.951774291,-80.2830345789999,490,"4920 NW 196TH TERRACE, MIAMI, FL, 33055","Match","Non_Exact","4920 NW 196TH TER, MIAMI GARDENS, FL, 33055",116023392,"L"
226491,"4920 OLD MISSOURI RD","ALORTON","IL",62207,NA,NA,491,"4920 OLD MISSOURI RD, ALORTON, IL, 62207","Tie",NA,NA,NA,NA
226492,"4920 PENNELL RD SUITE 314","ASTON","PA",19014,NA,NA,492,"4920 PENNELL RD SUITE 314, ASTON, PA, 19014","No_Match",NA,NA,NA,NA
226493,"4920 PENNELL ROAD SUITE 250","ASTON","PA",19014,NA,NA,493,"4920 PENNELL ROAD SUITE 250, ASTON, PA, 19014","No_Match",NA,NA,NA,NA
226494,"4920 PLATT SPRINGS ROAD","WEST COLUMBIA","SC",29170,33.9130822820001,-81.184993552,494,"4920 PLATT SPRINGS ROAD, WEST COLUMBIA, SC, 29170","Match","Exact","4920 PLATT SPRINGS RD, WEST COLUMBIA, SC, 29170",70083715,"L"
226495,"4920 RACCOON VALLEY ROAD","KNOXVILLE","TN",37938,NA,NA,495,"4920 RACCOON VALLEY ROAD, KNOXVILLE, TN, 37938","No_Match",NA,NA,NA,NA
226496,"4920 S 283RD PL","AUBURN","WA",98001,47.34746341,-122.272298879,496,"4920 S 283RD PL, AUBURN, WA, 98001","Match","Exact","4920 S 283RD PL, AUBURN, WA, 98001",186953513,"R"
226497,"4920 S OAK AVE","BROKEN ARROW","OK",74011,36.001726256,-95.807860297,497,"4920 S OAK AVE, BROKEN ARROW, OK, 74011","Match","Exact","4920 S OAK AVE, BROKEN ARROW, OK, 74011",166464610,"L"
226498,"4920 S PENNSYLVANIA ST","ENGLEWOOD","CO",80113,39.627356503,-104.982072089,498,"4920 S PENNSYLVANIA ST, ENGLEWOOD, CO, 80113","Match","Exact","4920 S PENNSYLVANIA ST, ENGLEWOOD, CO, 80113",177337065,"L"
226499,"4920 S STERLING RD","BAKERSFIELD","CA",93307,35.3199153790001,-118.94095077,499,"4920 S STERLING RD, BAKERSFIELD, CA, 93307","Match","Exact","4920 S STERLING RD, BAKERSFIELD, CA, 93307",637364003,"R"
226500,"4920 SANDIA DR","LOS ALAMOS","NM",87544,35.886151768,-106.329265327,500,"4920 SANDIA DR, LOS ALAMOS, NM, 87544","Match","Exact","4920 SANDIA DR, LOS ALAMOS, NM, 87544",143755481,"L"
