"ID","Address","City","State","Zip","lat","long","id","input_address","match_indicator","match_type","matched_address","tiger_line_id","tiger_side"
173001,"324 SUNSET DRIVE NORTH","SEASIDE HEIGHTS","NJ",8751,39.9445264140001,-74.0907946,1,"324 SUNSET DRIVE NORTH, SEASIDE HEIGHTS, NJ, 8751","Match","Exact","324 SUNSET DR N, SEASIDE HEIGHTS, NJ, 08751",203737817,"L"
173002,"324 TALL GRASS DRIVE","LAWRENCE","KS",66049,38.97578988,-95.284187397,2,"324 TALL GRASS DRIVE, LAWRENCE, KS, 66049","Match","Exact","324 TALL GRASS DR, LAWRENCE, KS, 66049",17682817,"L"
173003,"324 TAPESTRY CIRCLE","EXTON","PA",19341,40.028233578,-75.656979376,3,"324 TAPESTRY CIRCLE, EXTON, PA, 19341","Match","Exact","324 TAPESTRY CIR, EXTON, PA, 19341",179522983,"L"
173004,"324 THEODORE DRIVE","EUREKA","MO",63025,38.504094901,-90.6315994399999,4,"324 THEODORE DRIVE, EUREKA, MO, 63025","Match","Exact","324 THEODORE DR, EUREKA, MO, 63025",100193106,"L"
173005,"324 TRAILSIDE DR","DALLAS","GA",30157,33.9114115890001,-84.852513963,5,"324 TRAILSIDE DR, DALLAS, GA, 30157","Match","Exact","324 TRAILSIDE DR, DALLAS, GA, 30157",618968590,"R"
173006,"324 VAN CORTLANDT PARK AVE","YONKERS","NY",10705,40.920892571,-73.892552419,6,"324 VAN CORTLANDT PARK AVE, YONKERS, NY, 10705","Match","Exact","324 VAN CORTLANDT PARK AVE, YONKERS, NY, 10705",139841948,"L"
173007,"324 VAQUERO DRIVE","SAGINAW","TX",76131,32.8843502830001,-97.369346123,7,"324 VAQUERO DRIVE, SAGINAW, TX, 76131","Match","Exact","324 VAQUERO DR, SAGINAW, TX, 76131",652000975,"L"
173008,"324 VESTA DRIVE","MYRTLE BEACH","SC",29579,33.710646147,-78.9499349979999,8,"324 VESTA DRIVE, MYRTLE BEACH, SC, 29579","Match","Exact","324 VESTA DR, MYRTLE BEACH, SC, 29579",631231103,"L"
173009,"324 W 33RD ST","HOUSTON","TX",77018,29.8171829340001,-95.402351128,9,"324 W 33RD ST, HOUSTON, TX, 77018","Match","Exact","324 W 33RD ST, HOUSTON, TX, 77018",96055171,"R"
173010,"324 W BURLINGTON AVE","LA GRANGE","IL",60525,41.8150658340001,-87.873706786,10,"324 W BURLINGTON AVE, LA GRANGE, IL, 60525","Match","Exact","324 W BURLINGTON AVE, LA GRANGE, IL, 60525",111790047,"L"
173011,"324 W COMMERCIAL ST","KENNETT","MO",63857,36.2450370020001,-90.0592854019999,11,"324 W COMMERCIAL ST, KENNETT, MO, 63857","Match","Exact","324 W COMMERCIAL ST, KENNETT, MO, 63857",38799575,"R"
173012,"324 W LANE CIRCLE","LAKESIDE","AZ",85929,34.1430189010001,-109.978927301,12,"324 W LANE CIRCLE, LAKESIDE, AZ, 85929","Match","Exact","324 W LANE CIR, LAKESIDE, AZ, 85929",172544310,"R"
173013,"324 WARREN AVE","CINCINNATI","OH",45220,39.1529688970001,-84.519156235,13,"324 WARREN AVE, CINCINNATI, OH, 45220","Match","Exact","324 WARREN AVE, CINCINNATI, OH, 45220",103924280,"R"
173014,"324 WASHINGTON AVENUE","OSHKOSH","WI",54901,44.0176926070001,-88.533357699,14,"324 WASHINGTON AVENUE, OSHKOSH, WI, 54901","Match","Exact","324 WASHINGTON AVE, OSHKOSH, WI, 54901",74514300,"L"
173015,"324 WATERS ROAD","MARYVILLE","TN",37803,35.752274904,-83.92886659,15,"324 WATERS ROAD, MARYVILLE, TN, 37803","Match","Exact","324 WATERS RD, MARYVILLE, TN, 37803",89831751,"R"
173016,"324 WEST 83RD STREET APT 5W","NEW YORK","NY",10024,40.7871530740001,-73.979820815,16,"324 WEST 83RD STREET APT 5W, NEW YORK, NY, 10024","Match","Exact","324 W 83RD ST, NEW YORK, NY, 10024",59656606,"L"
173017,"324 WEST CHARLES","BUFFALO","IL",62561,NA,NA,17,"324 WEST CHARLES, BUFFALO, IL, 62561","No_Match",NA,NA,NA,NA
173018,"324 WEST EVANS STREET","FLORENCE","SC",29501,34.1970840660001,-79.771034392,18,"324 WEST EVANS STREET, FLORENCE, SC, 29501","Match","Exact","324 W EVANS ST, FLORENCE, SC, 29501",28878270,"L"
173019,"324 WEST MAIN ST","THIBODAUX","LA",70301,29.770454054,-90.815901738,19,"324 WEST MAIN ST, THIBODAUX, LA, 70301","Match","Exact","324 W MAIN ST, THIBODAUX, LA, 70301",92069846,"L"
173020,"324 WEST ROCKWELL","SOLDOTNA","AK",99669,60.4931795950001,-151.08876507,20,"324 WEST ROCKWELL, SOLDOTNA, AK, 99669","Match","Non_Exact","324 W ROCKWELL AVE, SOLDOTNA, AK, 99669",190997220,"R"
173021,"324 WEST SUPERIOR STREET - SUITE 91","DULUTH","MN",55802,46.783811438,-92.102222035,21,"324 WEST SUPERIOR STREET - SUITE 91, DULUTH, MN, 55802","Match","Exact","324 W SUPERIOR ST, DULUTH, MN, 55802",163214526,"L"
173022,"324 WOOD RIDGE","PEACHTREE CITY","GA",30269,33.3814280980001,-84.56414813,22,"324 WOOD RIDGE, PEACHTREE CITY, GA, 30269","Match","Exact","324 WOOD RIDGE, PEACHTREE CITY, GA, 30269",636330566,"R"
173023,"324 YORKSHIRE","CLEVELAND HEIGHTS","OH",44118,NA,NA,23,"324 YORKSHIRE, CLEVELAND HEIGHTS, OH, 44118","No_Match",NA,NA,NA,NA
173024,"324","MIDDLE ISLAND","NY",11953,NA,NA,24,"324, MIDDLE ISLAND, NY, 11953","No_Match",NA,NA,NA,NA
173025,"324","SHARPSVILLE","IN",46068,NA,NA,25,"324, SHARPSVILLE, IN, 46068","No_Match",NA,NA,NA,NA
173026,"3240  186TH STREET","HOMEWOOD","IL",60430,41.551655473,-87.694950534,26,"3240  186TH STREET, HOMEWOOD, IL, 60430","Match","Exact","3240 186TH ST, HOMEWOOD, IL, 60430",112376271,"R"
173027,"3240 78TH STREET","EAST ELMHURST","NY",11370,NA,NA,27,"3240 78TH STREET, EAST ELMHURST, NY, 11370","No_Match",NA,NA,NA,NA
173028,"3240 AIRPORT ROAD","PAGO PAGO","AS",96799,NA,NA,28,"3240 AIRPORT ROAD, PAGO PAGO, AS, 96799","No_Match",NA,NA,NA,NA
173029,"3240 AUSTIN AVE","NEW BERN","NC",28562,35.0300372300001,-77.017274377,29,"3240 AUSTIN AVE, NEW BERN, NC, 28562","Match","Exact","3240 AUSTIN AVE, NEW BERN, NC, 28562",617976060,"R"
173030,"3240 BAGLEY AVE APT 5","LOS ANGELES","CA",90034,34.0321666880001,-118.395577679,30,"3240 BAGLEY AVE APT 5, LOS ANGELES, CA, 90034","Match","Exact","3240 BAGLEY AVE, LOS ANGELES, CA, 90034",141574721,"L"
173031,"3240 BAGLEY AVENUE APT  5","LOS ANGELES","CA",90034,34.0321666880001,-118.395577679,31,"3240 BAGLEY AVENUE APT  5, LOS ANGELES, CA, 90034","Match","Exact","3240 BAGLEY AVE, LOS ANGELES, CA, 90034",141574721,"L"
173032,"3240 BLACKFOOT COURT","LITHONIA","GA",30038,33.689048341,-84.1740052929999,32,"3240 BLACKFOOT COURT, LITHONIA, GA, 30038","Match","Exact","3240 BLACKFOOT CT, LITHONIA, GA, 30038",23373850,"L"
173033,"3240 BRIDLE PATH","FLINT","MI",48507,42.981537775,-83.763796149,33,"3240 BRIDLE PATH, FLINT, MI, 48507","Match","Exact","3240 BRIDLE PATH, FLINT, MI, 48507",69572766,"R"
173034,"3240 CARDINAL DRIVE SUITE 200","VERO BEACH","FL",32963,27.651876181,-80.357286694,34,"3240 CARDINAL DRIVE SUITE 200, VERO BEACH, FL, 32963","Match","Exact","3240 CARDINAL DR, VERO BEACH, FL, 32963",120307913,"R"
173035,"3240 CENTRAL MALL DR","PORT ARTHUR","TX",77642,29.946125785,-93.986281675,35,"3240 CENTRAL MALL DR, PORT ARTHUR, TX, 77642","Match","Exact","3240 CENTRAL MALL DR, PORT ARTHUR, TX, 77642",73892821,"L"
173036,"3240 CIVIC CENTER DRIVE STE B","NORTH LAS VEGAS","NV",89030,36.218784376,-115.120095129,36,"3240 CIVIC CENTER DRIVE STE B, NORTH LAS VEGAS, NV, 89030","Match","Non_Exact","3240 N CIVIC CENTER DR, N LAS VEGAS, NV, 89030",201866300,"R"
173037,"3240 CORPORATE COURT STE D","ELLICOTT CITY","MD",21042,39.281938186,-76.8636072259999,37,"3240 CORPORATE COURT STE D, ELLICOTT CITY, MD, 21042","Match","Exact","3240 CORPORATE CT, ELLICOTT CITY, MD, 21042",158935527,"R"
173038,"3240 DAGAN DR","PLANO","TX",75023,33.0587301680001,-96.756004584,38,"3240 DAGAN DR, PLANO, TX, 75023","Match","Exact","3240 DAGAN DR, PLANO, TX, 75023",123486027,"L"
173039,"3240 DEER CREEK CT","FLATWOODS","KY",41139,38.52708842,-82.748264413,39,"3240 DEER CREEK CT, FLATWOODS, KY, 41139","Match","Exact","3240 DEER CREEK CT, FLATWOODS, KY, 41139",151408170,"R"
173040,"3240 E  SAGINAW","LANSING","MI",48912,42.740833761,-84.5076238249999,40,"3240 E  SAGINAW, LANSING, MI, 48912","Match","Non_Exact","3240 E SAGINAW ST, LANSING, MI, 48912",17501127,"R"
173041,"3240 FRIARS POINT ROAD","CLARKSDALE","MS",38614,34.2579499760001,-90.570449901,41,"3240 FRIARS POINT ROAD, CLARKSDALE, MS, 38614","Match","Exact","3240 FRIARS POINT RD, CLARKSDALE, MS, 38614",638750582,"R"
173042,"3240 GLENCREE","CONYERS","GA",30012,33.725092159,-84.0423836319999,42,"3240 GLENCREE, CONYERS, GA, 30012","Match","Exact","3240 GLENCREE, CONYERS, GA, 30012",23745199,"R"
173043,"3240 GOLDEN OAKS CIRCLE","GRANBURY","TX",76049,32.433679022,-97.7105409329999,43,"3240 GOLDEN OAKS CIRCLE, GRANBURY, TX, 76049","Match","Exact","3240 GOLDEN OAKS CIR, GRANBURY, TX, 76049",634081715,"R"
173044,"3240 GRACE ST NW","WASHINGTON","DC",20007,38.9039621140001,-77.064011173,44,"3240 GRACE ST NW, WASHINGTON, DC, 20007","Match","Exact","3240 GRACE ST NW, WASHINGTON, DC, 20007",76224928,"L"
173045,"3240 HAMNER AVENUE SUITE 101B","NORCO","CA",92860,33.928829062,-117.558149944,45,"3240 HAMNER AVENUE SUITE 101B, NORCO, CA, 92860","Match","Exact","3240 HAMNER AVE, NORCO, CA, 92860",194799304,"L"
173046,"3240 HYDER AVENUE","DELTONA","FL",32738,28.952471019,-81.1781542859999,46,"3240 HYDER AVENUE, DELTONA, FL, 32738","Match","Exact","3240 HYDER AVE, DELTONA, FL, 32738",94557219,"L"
173047,"3240 LAKESHORE DR","WASHOE VALLEY","NV",89704,39.2837926830001,-119.784585689,47,"3240 LAKESHORE DR, WASHOE VALLEY, NV, 89704","Match","Exact","3240 LAKESHORE DR, WASHOE VALLEY, NV, 89704",107057521,"L"
173048,"3240 LANGLEY DRIVE","PLANO","TX",75025,33.078313227,-96.7542867619999,48,"3240 LANGLEY DRIVE, PLANO, TX, 75025","Match","Exact","3240 LANGLEY DR, PLANO, TX, 75025",123533243,"R"
173049,"3240 LEXINGTON WAY","AUGUSTA","GA",30909,33.4550911790001,-82.099720899,49,"3240 LEXINGTON WAY, AUGUSTA, GA, 30909","Match","Exact","3240 LEXINGTON WAY, AUGUSTA, GA, 30909",619883440,"R"
173050,"3240 MCDOUGALL AVE","ENUMCLAW","WA",98022,47.188225194,-122.01073823,50,"3240 MCDOUGALL AVE, ENUMCLAW, WA, 98022","Match","Exact","3240 MCDOUGALL AVE, ENUMCLAW, WA, 98022",239780809,"R"
173051,"3240 N LAKE SHORE DRIVE SUITE 3D","CHICAGO","IL",60657,NA,NA,51,"3240 N LAKE SHORE DRIVE SUITE 3D, CHICAGO, IL, 60657","No_Match",NA,NA,NA,NA
173052,"3240 NORMANDY WOODS DR APT A","ELLICOTT CITY","MD",21043,39.2831882080001,-76.802078502,52,"3240 NORMANDY WOODS DR APT A, ELLICOTT CITY, MD, 21043","Match","Exact","3240 NORMANDY WOODS DR, ELLICOTT CITY, MD, 21043",158959075,"R"
173053,"3240 NORTH MANOR DRIVE STE 324","LANSING","IL",60438,41.5513660170001,-87.538169878,53,"3240 NORTH MANOR DRIVE STE 324, LANSING, IL, 60438","Match","Exact","3240 N MANOR DR, LANSING, IL, 60438",111786681,"L"
173054,"3240 NW 4TH PLACE","LAUDERHILL","FL",33311,26.126297177,-80.188583098,54,"3240 NW 4TH PLACE, LAUDERHILL, FL, 33311","Match","Exact","3240 NW 4TH PL, LAUDERHILL, FL, 33311",114709978,"L"
173055,"3240 POSTGATE DRIVE","BETHEL PARK","PA",15102,40.3150831090001,-80.0569441439999,55,"3240 POSTGATE DRIVE, BETHEL PARK, PA, 15102","Match","Exact","3240 POSTGATE DR, BETHEL PARK, PA, 15102",51657014,"R"
173056,"3240 RIVERVIEW LN","DAYTONA BEACH","FL",32118,NA,NA,56,"3240 RIVERVIEW LN, DAYTONA BEACH, FL, 32118","No_Match",NA,NA,NA,NA
173057,"3240 S 122ND EAST AVE","TULSA","OK",74146,36.1157492040001,-95.840640642,57,"3240 S 122ND EAST AVE, TULSA, OK, 74146","Match","Exact","3240 S 122ND EAST AVE, TULSA, OK, 74146",166457256,"R"
173058,"3240 SHASTA CIR S","LOS ANGELES","CA",90065,34.1292667750001,-118.233579038,58,"3240 SHASTA CIR S, LOS ANGELES, CA, 90065","Match","Exact","3240 SHASTA CIR S, LOS ANGELES, CA, 90065",141611594,"L"
173059,"3240 SOUTH SEPULVEDA BOULEVARD","LOS ANGELES","CA",90034,34.0246812440001,-118.426503778,59,"3240 SOUTH SEPULVEDA BOULEVARD, LOS ANGELES, CA, 90034","Match","Exact","3240 S SEPULVEDA BLVD, LOS ANGELES, CA, 90034",141570213,"L"
173060,"3240 SUITE D CORPORATE COURT","ELLICOTT CITY","MD",21042,NA,NA,60,"3240 SUITE D CORPORATE COURT, ELLICOTT CITY, MD, 21042","No_Match",NA,NA,NA,NA
173061,"3240 TYLER AVE","EL MONTE","CA",91731,34.066956572,-118.035964313,61,"3240 TYLER AVE, EL MONTE, CA, 91731","Match","Exact","3240 TYLER AVE, EL MONTE, CA, 91731",241242062,"R"
173062,"3240 W BRITTON RD SUITE 203","OKLAHOMA CITY","OK",73120,NA,NA,62,"3240 W BRITTON RD SUITE 203, OKLAHOMA CITY, OK, 73120","No_Match",NA,NA,NA,NA
173063,"3240 W LEXINGTON ST","CHICAGO","IL",60624,41.8718679830001,-87.707066888,63,"3240 W LEXINGTON ST, CHICAGO, IL, 60624","Match","Exact","3240 W LEXINGTON ST, CHICAGO, IL, 60624",605086678,"R"
173064,"3240 W MARTY ST","SPRINGFIELD","MO",65810,37.1245176510001,-93.345187943,64,"3240 W MARTY ST, SPRINGFIELD, MO, 65810","Match","Exact","3240 W MARTY ST, SPRINGFIELD, MO, 65810",76676095,"L"
173065,"3240 WESTMONT AVENUE","BALTIMORE","MD",21216,39.30118342,-76.670498342,65,"3240 WESTMONT AVENUE, BALTIMORE, MD, 21216","Match","Exact","3240 WESTMONT AVE, BALTIMORE, MD, 21216",640388673,"L"
173066,"3240 WILSHIRE BOULEVARD SUITE 106","LOS ANGELES","CA",90010,34.061784211,-118.292665198,66,"3240 WILSHIRE BOULEVARD SUITE 106, LOS ANGELES, CA, 90010","Match","Exact","3240 WILSHIRE BLVD, LOS ANGELES, CA, 90010",141604953,"L"
173067,"3240 WOLF RUN RD","TENINO","WA",98589,NA,NA,67,"3240 WOLF RUN RD, TENINO, WA, 98589","No_Match",NA,NA,NA,NA
173068,"32400 MAPLEWOOD CT","LAKE ELSINORE","CA",92530,33.628585555,-117.31598584,68,"32400 MAPLEWOOD CT, LAKE ELSINORE, CA, 92530","Match","Exact","32400 MAPLEWOOD CT, LAKE ELSINORE, CA, 92530",194842728,"L"
173069,"32404 SW 203 COURT","HOMESTEAD","FL",33030,25.4658314430001,-80.520441067,69,"32404 SW 203 COURT, HOMESTEAD, FL, 33030","Match","Non_Exact","32404 SW 203RD AVE, HOMESTEAD, FL, 33030",631799734,"R"
173070,"3241 59TH DR E","BRADENTON","FL",34203,27.437138066,-82.527373219,70,"3241 59TH DR E, BRADENTON, FL, 34203","Match","Non_Exact","3241 59TH AVE E, BRADENTON, FL, 34203",16270888,"L"
173071,"3241 60TH ST","WOODSIDE","NY",11377,NA,NA,71,"3241 60TH ST, WOODSIDE, NY, 11377","No_Match",NA,NA,NA,NA
173072,"3241 CAMARILLO AVENUE","OCEANSIDE","CA",92056,33.187875003,-117.295131099,72,"3241 CAMARILLO AVENUE, OCEANSIDE, CA, 92056","Match","Exact","3241 CAMARILLO AVE, OCEANSIDE, CA, 92056",195285722,"R"
173073,"3241 COUNTY ROAD 36","AUBURN","IN",46706,41.39679447,-85.0407857439999,73,"3241 COUNTY ROAD 36, AUBURN, IN, 46706","Match","Exact","3241 CO RD 36, AUBURN, IN, 46706",6523933,"L"
173074,"3241 COUNTY ROAD 8","HEIDELBERG","MS",39439,31.88600804,-89.042774207,74,"3241 COUNTY ROAD 8, HEIDELBERG, MS, 39439","Match","Exact","3241 CO RD 8, HEIDELBERG, MS, 39439",610939439,"L"
173075,"3241 FM 66","WAXAHACHIE","TX",75167,32.351684646,-96.914190768,75,"3241 FM 66, WAXAHACHIE, TX, 75167","Match","Exact","3241 FM 66, WAXAHACHIE, TX, 75167",635881272,"R"
173076,"3241 GATEWAY DRIVE","INDEPENDENCE","MO",64057,39.060689779,-94.354716816,76,"3241 GATEWAY DRIVE, INDEPENDENCE, MO, 64057","Match","Exact","3241 GATEWAY DR, INDEPENDENCE, MO, 64057",653441389,"L"
173077,"3241 GATEWAY DRIVE","INDEPNDENCE","MO",64057,39.060689779,-94.354716816,77,"3241 GATEWAY DRIVE, INDEPNDENCE, MO, 64057","Match","Non_Exact","3241 GATEWAY DR, INDEPENDENCE, MO, 64057",653441389,"L"
173078,"3241 HWY 308","RACELAND","LA",70394,29.7361726720001,-90.645788076,78,"3241 HWY 308, RACELAND, LA, 70394","Match","Non_Exact","3241 STATE RTE 308, RACELAND, LA, 70394",92349602,"R"
173079,"3241 N 54TH LN","PHX","AZ",85031,33.4861776290001,-112.176893016,79,"3241 N 54TH LN, PHX, AZ, 85031","Match","Exact","3241 N 54TH LN, PHOENIX, AZ, 85031",128198140,"R"
173080,"3241 N HOLTON ST","MILWAUKEE","WI",53212,43.0773616720001,-87.905148148,80,"3241 N HOLTON ST, MILWAUKEE, WI, 53212","Match","Exact","3241 N HOLTON ST, MILWAUKEE, WI, 53212",77743328,"L"
173081,"3241 NORTH KEATING AVENUE","CHICAGO","IL",60641,41.939786229,-87.745221532,81,"3241 NORTH KEATING AVENUE, CHICAGO, IL, 60641","Match","Exact","3241 N KEATING AVE, CHICAGO, IL, 60641",605219398,"R"
173082,"3241 NW 17TH STREET","LAUDERHILL","FL",33311,NA,NA,82,"3241 NW 17TH STREET, LAUDERHILL, FL, 33311","No_Match",NA,NA,NA,NA
173083,"3241 ORIOLE DR","SAN JOSE","CA",95117,37.304705115,-121.953751428,83,"3241 ORIOLE DR, SAN JOSE, CA, 95117","Match","Exact","3241 ORIOLE DR, SAN JOSE, CA, 95117",122904123,"L"
173084,"3241 SIOUX DR","PIQUA","OH",45356,40.170122582,-84.202324133,84,"3241 SIOUX DR, PIQUA, OH, 45356","Match","Exact","3241 SIOUX DR, PIQUA, OH, 45356",135317701,"L"
173085,"3241 STANTON ROAD SE","WASHINGTON","DC",20020,38.8483527920001,-76.98082455,85,"3241 STANTON ROAD SE, WASHINGTON, DC, 20020","Match","Exact","3241 STANTON RD SE, WASHINGTON, DC, 20020",624165166,"R"
173086,"3241 STEEL STREET SUITE 1","MEMPHIS","TN",38127,NA,NA,86,"3241 STEEL STREET SUITE 1, MEMPHIS, TN, 38127","No_Match",NA,NA,NA,NA
173087,"32410 MALLARD POINT ROAD","GRAND RAPIDS","MN",55744,NA,NA,87,"32410 MALLARD POINT ROAD, GRAND RAPIDS, MN, 55744","Tie",NA,NA,NA,NA
173088,"32412 CLOVERDALE","FARMINGTON","MI",48336,42.457137448,-83.3666474569999,88,"32412 CLOVERDALE, FARMINGTON, MI, 48336","Match","Non_Exact","32412 CLOVERDALE ST, FARMINGTON, MI, 48336",69725478,"R"
173089,"3242 BLUFF AVENUE SE","SALEM","OR",97302,44.9091451350001,-123.032160581,89,"3242 BLUFF AVENUE SE, SALEM, OR, 97302","Match","Exact","3242 BLUFF AVE SE, SALEM, OR, 97302",156250752,"L"
173090,"3242 E 43RD ST","YUMA","AZ",85365,NA,NA,90,"3242 E 43RD ST, YUMA, AZ, 85365","No_Match",NA,NA,NA,NA
173091,"3242 E 43RD STREET","YUMA","AZ",85365,NA,NA,91,"3242 E 43RD STREET, YUMA, AZ, 85365","No_Match",NA,NA,NA,NA
173092,"3242 LONG RD","DESOTO","MO",63020,38.093946773,-90.486790312,92,"3242 LONG RD, DESOTO, MO, 63020","Match","Non_Exact","3242 LONG RD, DE SOTO, MO, 63020",607890198,"R"
173093,"3242 NW 12TH TER","GAINESVILLE","FL",32609,29.6825696610001,-82.3376326699999,93,"3242 NW 12TH TER, GAINESVILLE, FL, 32609","Match","Exact","3242 NW 12TH TER, GAINESVILLE, FL, 32609",6805840,"L"
173094,"3242 PLAYERS CLUB CIRCLE","MEMPHIS","TN",38125,35.0629854060001,-89.7926771579999,94,"3242 PLAYERS CLUB CIRCLE, MEMPHIS, TN, 38125","Match","Exact","3242 PLAYERS CLUB CIR, MEMPHIS, TN, 38125",72967730,"R"
173095,"3242 QUAIL RUN RD","ROSSMOOR","CA",90720,33.8017220450001,-118.076757427,95,"3242 QUAIL RUN RD, ROSSMOOR, CA, 90720","Match","Exact","3242 QUAIL RUN RD, ROSSMOOR, CA, 90720",143997493,"R"
173096,"3242 RIVER OAKS","NEW ORLEANS","LA",70114,NA,NA,96,"3242 RIVER OAKS, NEW ORLEANS, LA, 70114","No_Match",NA,NA,NA,NA
173097,"3242 SE 32ND TER","COLUMBUS","KS",66725,37.1277423060001,-94.772555331,97,"3242 SE 32ND TER, COLUMBUS, KS, 66725","Match","Exact","3242 SE 32ND TER, COLUMBUS, KS, 66725",65901785,"L"
173098,"3242 UBBEN AVE","ELLSWORTH","IA",50075,42.3215686080001,-93.581442094,98,"3242 UBBEN AVE, ELLSWORTH, IA, 50075","Match","Exact","3242 UBBEN AVE, ELLSWORTH, IA, 50075",65745603,"R"
173099,"3242 W 8TH ST STE 201","LOS ANGELES","CA",90005,34.057709657,-118.298826522,99,"3242 W 8TH ST STE 201, LOS ANGELES, CA, 90005","Match","Non_Exact","3242 W 8TH ST, LOS ANGELES, CA, 90005",141604050,"L"
173100,"3242 WASHBURN AVENUE NORTH","MINNEAPOLIS","MN",55412,45.0147384590001,-93.317138347,100,"3242 WASHBURN AVENUE NORTH, MINNEAPOLIS, MN, 55412","Match","Exact","3242 WASHBURN AVE N, MINNEAPOLIS, MN, 55412",43621291,"R"
173101,"3242 WESTCHESTER SQUARE BLVD UNIT 2","ORLANDO","FL",32835,28.5084785190001,-81.473700322,101,"3242 WESTCHESTER SQUARE BLVD UNIT 2, ORLANDO, FL, 32835","Match","Exact","3242 WESTCHESTER SQUARE BLVD, ORLANDO, FL, 32835",94419913,"R"
173102,"3242 WESTHEIMER RD 707","HOUSTON","TX",77098,29.742146254,-95.424316123,102,"3242 WESTHEIMER RD 707, HOUSTON, TX, 77098","Match","Exact","3242 WESTHEIMER RD, HOUSTON, TX, 77098",652310033,"R"
173103,"3242 WHITNEY AVENUE","FLINT","MI",48532,NA,NA,103,"3242 WHITNEY AVENUE, FLINT, MI, 48532","No_Match",NA,NA,NA,NA
173104,"32424 GOLDENROD ST NW","CAMBRIDGE","MN",55008,45.5569426690001,-93.274324051,104,"32424 GOLDENROD ST NW, CAMBRIDGE, MN, 55008","Match","Exact","32424 GOLDENROD ST NW, CAMBRIDGE, MN, 55008",97615854,"R"
173105,"32425 S OLD HWY 6R","REDFIELD","IA",50233,NA,NA,105,"32425 S OLD HWY 6R, REDFIELD, IA, 50233","No_Match",NA,NA,NA,NA
173106,"32426 CAMAS SWALE RD","CRESWELL","OR",97426,43.920446838,-123.06497044,106,"32426 CAMAS SWALE RD, CRESWELL, OR, 97426","Match","Exact","32426 CAMAS SWALE RD, CRESWELL, OR, 97426",178176587,"R"
173107,"32427 N 165TH AVE","SURPRISE","AZ",85387,33.7771375500001,-112.416541306,107,"32427 N 165TH AVE, SURPRISE, AZ, 85387","Match","Exact","32427 N 165TH AVE, SURPRISE, AZ, 85387",128431120,"R"
173108,"32427 SE 43RD PL","FALL CITY","WA",98024,47.5663768000001,-121.908630338,108,"32427 SE 43RD PL, FALL CITY, WA, 98024","Match","Exact","32427 SE 43RD PL, FALL CITY, WA, 98024",186960480,"R"
173109,"3243 CAMINITO EASTBLUFF UNIT 38","LA JOLLA","CA",92037,NA,NA,109,"3243 CAMINITO EASTBLUFF UNIT 38, LA JOLLA, CA, 92037","No_Match",NA,NA,NA,NA
173110,"3243 E NISBET RD","PHOENIX","AZ",85032,33.6226264490001,-112.01206757,110,"3243 E NISBET RD, PHOENIX, AZ, 85032","Match","Exact","3243 E NISBET RD, PHOENIX, AZ, 85032",128603824,"R"
173111,"3243 EAGLE WATCH DRIVE","WOODSTOCK","GA",30189,34.142397998,-84.5625367,111,"3243 EAGLE WATCH DRIVE, WOODSTOCK, GA, 30189","Match","Exact","3243 EAGLE WATCH DR, WOODSTOCK, GA, 30189",68843133,"L"
173112,"3243 GALWAY CROSSING DR","COLUMBUS","OH",43221,40.019234184,-83.112934524,112,"3243 GALWAY CROSSING DR, COLUMBUS, OH, 43221","Match","Exact","3243 GALWAY CROSSING DR, COLUMBUS, OH, 43221",135563417,"L"
173113,"3243 STATE ROUTE 5","NEWTON FALLS","OH",44444,41.225447617,-80.917650124,113,"3243 STATE ROUTE 5, NEWTON FALLS, OH, 44444","Match","Exact","3243 STATE RTE 5, NEWTON FALLS, OH, 44444",117427038,"R"
173114,"3243 WOODFORD ROAD","CINCINNATI","OH",45213,39.180703067,-84.4252010179999,114,"3243 WOODFORD ROAD, CINCINNATI, OH, 45213","Match","Exact","3243 WOODFORD RD, CINCINNATI, OH, 45213",103931778,"R"
173115,"3243","BRONX","NY",10465,NA,NA,115,"3243, BRONX, NY, 10465","No_Match",NA,NA,NA,NA
173116,"3243","KINGSLEY","PA",18826,NA,NA,116,"3243, KINGSLEY, PA, 18826","No_Match",NA,NA,NA,NA
173117,"32432 QUIET HARBOR AVENUE UNIT 101","LEESBURG","FL",34788,28.822215247,-81.79646064,117,"32432 QUIET HARBOR AVENUE UNIT 101, LEESBURG, FL, 34788","Match","Exact","32432 QUIET HARBOR AVE, LEESBURG, FL, 34788",647566369,"R"
173118,"32434 WISCONSIN STREET","LIVONIA","MI",48150,42.3565298010001,-83.362604054,118,"32434 WISCONSIN STREET, LIVONIA, MI, 48150","Match","Exact","32434 WISCONSIN ST, LIVONIA, MI, 48150",95501103,"R"
173119,"3244 34TH AVE S","MINNEAPOLIS","MN",55406,44.944165416,-93.222960513,119,"3244 34TH AVE S, MINNEAPOLIS, MN, 55406","Match","Exact","3244 34TH AVE S, MINNEAPOLIS, MN, 55406",43639807,"R"
173120,"3244 BEVEN DR","ESCONDIDO","CA",92027,33.152993893,-117.027353812,120,"3244 BEVEN DR, ESCONDIDO, CA, 92027","Match","Exact","3244 BEVEN DR, ESCONDIDO, CA, 92027",612878681,"L"
173121,"3244 KEGLER DR","JACKSONVILLE","FL",32216,30.2676313200001,-81.6014894529999,121,"3244 KEGLER DR, JACKSONVILLE, FL, 32216","Match","Exact","3244 KEGLER DR, JACKSONVILLE, FL, 32216",83918956,"R"
173122,"3244 LAKE GEORGE COVE DR","ORLANDO","FL",32812,28.5029919140001,-81.319954148,122,"3244 LAKE GEORGE COVE DR, ORLANDO, FL, 32812","Match","Exact","3244 LAKE GEORGE COVE DR, ORLANDO, FL, 32812",94331262,"R"
173123,"3244 LAKE PARK ROAD","BELTON","TX",76513,NA,NA,123,"3244 LAKE PARK ROAD, BELTON, TX, 76513","No_Match",NA,NA,NA,NA
173124,"3244 LAKESIDE AVE","NORTHBROOK","IL",60062,42.1187256850001,-87.8596347389999,124,"3244 LAKESIDE AVE, NORTHBROOK, IL, 60062","Match","Exact","3244 LAKESIDE AVE, NORTHBROOK, IL, 60062",111848363,"L"
173125,"3244 NORTH FRONT STREET 1ST FL","PHILADELPHIA","PA",19140,39.999345406,-75.129093473,125,"3244 NORTH FRONT STREET 1ST FL, PHILADELPHIA, PA, 19140","Match","Exact","3244 N FRONT ST, PHILADELPHIA, PA, 19140",652295533,"L"
173126,"3244 PAULDING AVE","BRONX","NY",10469,40.872100177,-73.858453309,126,"3244 PAULDING AVE, BRONX, NY, 10469","Match","Exact","3244 PAULDING AVE, BRONX, NY, 10469",80303366,"R"
173127,"3244 RISING SUN ROAD","SUN PRAIRIE","WI",53590,43.1410316020001,-89.252406079,127,"3244 RISING SUN ROAD, SUN PRAIRIE, WI, 53590","Match","Exact","3244 RISING SUN RD, SUN PRAIRIE, WI, 53590",49505936,"L"
173128,"3244 TEMESCAL AVENUE","NORCO","CA",92860,33.929022081,-117.541137445,128,"3244 TEMESCAL AVENUE, NORCO, CA, 92860","Match","Exact","3244 TEMESCAL AVE, NORCO, CA, 92860",194735396,"L"
173129,"32441 WRIGHT RD","MAGNOLIA","TX",77355,30.134358063,-95.6617065629999,129,"32441 WRIGHT RD, MAGNOLIA, TX, 77355","Match","Exact","32441 WRIGHT RD, MAGNOLIA, TX, 77355",79279570,"L"
173130,"32444 CATTLE CIRCLE","RAMAH","CO",80832,NA,NA,130,"32444 CATTLE CIRCLE, RAMAH, CO, 80832","No_Match",NA,NA,NA,NA
173131,"32445 NEW HARBOR WAY","UNION CITY","CA",94587,37.578287415,-122.081558048,131,"32445 NEW HARBOR WAY, UNION CITY, CA, 94587","Match","Exact","32445 NEW HARBOR WAY, UNION CITY, CA, 94587",125079005,"L"
173132,"32446 HEES STREET","LIVONIA","MI",48150,42.3549155520001,-83.362504707,132,"32446 HEES STREET, LIVONIA, MI, 48150","Match","Exact","32446 HEES ST, LIVONIA, MI, 48150",95413454,"R"
173133,"32448 CARRIER DR","LILLIAN","AL",36549,30.3776624240001,-87.472976477,133,"32448 CARRIER DR, LILLIAN, AL, 36549","Match","Non_Exact","32448 W CARRIER DR, LILLIAN, AL, 36549",131710411,"R"
173134,"3245 AUTUMN FOREST DR","PEARLAND","TX",77584,29.5474965230001,-95.321469221,134,"3245 AUTUMN FOREST DR, PEARLAND, TX, 77584","Match","Exact","3245 AUTUMN FOREST DR, PEARLAND, TX, 77584",116612067,"L"
173135,"3245 BANTA ROAD","SOUTH PLAINFIELD","NJ",7080,40.5816499910001,-74.394022016,135,"3245 BANTA ROAD, SOUTH PLAINFIELD, NJ, 7080","Match","Exact","3245 BANTA RD, S PLAINFIELD, NJ, 07080",60261594,"L"
173136,"3245 BETHSAIDA RD","FAIRBURN","GA",30213,33.5615899750001,-84.4945378529999,136,"3245 BETHSAIDA RD, FAIRBURN, GA, 30213","Match","Exact","3245 BETHSAIDA RD, FAIRBURN, GA, 30213",17351361,"R"
173137,"3245 COOPER CREEK DR","HENDERSON","NV",89074,36.027198335,-115.104115658,137,"3245 COOPER CREEK DR, HENDERSON, NV, 89074","Match","Exact","3245 COOPER CREEK DR, HENDERSON, NV, 89074",201916101,"R"
173138,"3245 CRAFT","FAIRBANKS","AK",99709,NA,NA,138,"3245 CRAFT, FAIRBANKS, AK, 99709","Tie",NA,NA,NA,NA
173139,"3245 DELL ROAD","BIRMINGHAM","AL",35223,33.4867090340001,-86.7474667239999,139,"3245 DELL ROAD, BIRMINGHAM, AL, 35223","Match","Exact","3245 DELL RD, BIRMINGHAM, AL, 35223",81580677,"L"
173140,"3245 EASTBROOKE CIR","INDIANAPOLIS","IN",46235,39.8161004780001,-85.985646822,140,"3245 EASTBROOKE CIR, INDIANAPOLIS, IN, 46235","Match","Exact","3245 EASTBROOKE CIR, INDIANAPOLIS, IN, 46235",108012849,"L"
173141,"3245 KEARNY VILLA LANE","SAN DIEGO","CA",92123,32.8030734170001,-117.154484023,141,"3245 KEARNY VILLA LANE, SAN DIEGO, CA, 92123","Match","Exact","3245 KEARNY VILLA LN, SAN DIEGO, CA, 92123",651692501,"R"
173142,"3245 MAIN ST 235  131","FRISCO","FL",75034,NA,NA,142,"3245 MAIN ST 235  131, FRISCO, FL, 75034","No_Match",NA,NA,NA,NA
173143,"3245 MAIN ST STE 235 MAILBOX 138","FRISCO","TX",75034,33.152974441,-96.861505232,143,"3245 MAIN ST STE 235 MAILBOX 138, FRISCO, TX, 75034","Match","Exact","3245 MAIN ST, FRISCO, TX, 75034",615067867,"R"
173144,"3245 MAIN STREET SUITE 235 -106","FRISCO","TX",75034,33.152974441,-96.861505232,144,"3245 MAIN STREET SUITE 235 -106, FRISCO, TX, 75034","Match","Exact","3245 MAIN ST, FRISCO, TX, 75034",615067867,"R"
173145,"3245 MEADOW ST","TOMS RIVER","NJ",8753,39.956629186,-74.114072021,145,"3245 MEADOW ST, TOMS RIVER, NJ, 8753","Match","Exact","3245 MEADOW ST, TOMS RIVER, NJ, 08753",203737714,"R"
173146,"3245 MEMPHIS STREET","PHILADELPHIA","PA",19134,39.989582763,-75.105581563,146,"3245 MEMPHIS STREET, PHILADELPHIA, PA, 19134","Match","Exact","3245 MEMPHIS ST, PHILADELPHIA, PA, 19134",131427487,"R"
173147,"3245 N 18TH AVE W","NEWTON","IA",50208,41.711687629,-93.088459116,147,"3245 N 18TH AVE W, NEWTON, IA, 50208","Match","Non_Exact","3245 N 18TH ST W, NEWTON, IA, 50208",89431162,"R"
173148,"3245 N ILLINOIS ST 304","INDIANAPOLIS","IN",46208,39.8145133570001,-86.159098571,148,"3245 N ILLINOIS ST 304, INDIANAPOLIS, IN, 46208","Match","Non_Exact","3245 N ILLINOIS ST, INDIANAPOLIS, IN, 46208",107988929,"R"
173149,"3245 OLD NORTHEAST ROAD","LAKE WACCAMAW","NC",28450,34.396469037,-78.54381029,149,"3245 OLD NORTHEAST ROAD, LAKE WACCAMAW, NC, 28450","Match","Exact","3245 OLD NORTHEAST RD, LAKE WACCAMAW, NC, 28450",638231443,"L"
173150,"3245 UNIVERSITY AVE  165","SAN DIEGO","CA",92104,32.7484814700001,-117.124014628,150,"3245 UNIVERSITY AVE  165, SAN DIEGO, CA, 92104","Match","Exact","3245 UNIVERSITY AVE, SAN DIEGO, CA, 92104",195345774,"R"
173151,"3245 UNIVERSITY AVE  NO 205","SAN DIEGO","CA",92104,32.7484814700001,-117.124014628,151,"3245 UNIVERSITY AVE  NO 205, SAN DIEGO, CA, 92104","Match","Non_Exact","3245 UNIVERSITY AVE, SAN DIEGO, CA, 92104",195345774,"R"
173152,"3245 UNIVERSITY AVE STE 462","SAN DIEGO","CA",92104,32.7484814700001,-117.124014628,152,"3245 UNIVERSITY AVE STE 462, SAN DIEGO, CA, 92104","Match","Exact","3245 UNIVERSITY AVE, SAN DIEGO, CA, 92104",195345774,"R"
173153,"3245 W 111TH STREET","CHICAGO","IL",60655,41.691540617,-87.702338923,153,"3245 W 111TH STREET, CHICAGO, IL, 60655","Match","Exact","3245 W 111TH ST, CHICAGO, IL, 60655",111822241,"L"
173154,"3245 W MCNAB ROAD","POMPANO BEACH","FL",33069,NA,NA,154,"3245 W MCNAB ROAD, POMPANO BEACH, FL, 33069","No_Match",NA,NA,NA,NA
173155,"3245 WININGS LN","CARMEL","IN",46074,39.994877226,-86.215190645,155,"3245 WININGS LN, CARMEL, IN, 46074","Match","Exact","3245 WININGS LN, CARMEL, IN, 46074",618464038,"L"
173156,"32452 RINGEN SCHOOL ROAD","SMITHTON","MO",65350,38.5951748360001,-93.097611611,156,"32452 RINGEN SCHOOL ROAD, SMITHTON, MO, 65350","Match","Exact","32452 RINGEN SCHOOL RD, SMITHTON, MO, 65350",54731348,"R"
173157,"32455 12 MILE RD PO BOX 3464","FARMINGTON HILLS","MI",48333,NA,NA,157,"32455 12 MILE RD PO BOX 3464, FARMINGTON HILLS, MI, 48333","No_Match",NA,NA,NA,NA
173158,"32455 W 12 MILE RD PO BOX 3433","FARMINGTON HILLS","MI",48333,NA,NA,158,"32455 W 12 MILE RD PO BOX 3433, FARMINGTON HILLS, MI, 48333","No_Match",NA,NA,NA,NA
173159,"32455 W 12 MILE RD UNIT 2983","FARMINGTON HILLS","MI",48333,NA,NA,159,"32455 W 12 MILE RD UNIT 2983, FARMINGTON HILLS, MI, 48333","No_Match",NA,NA,NA,NA
173160,"32455 W 12 MILE ROAD SUITE 3275","FARMINGTON HILLS","MI",48333,NA,NA,160,"32455 W 12 MILE ROAD SUITE 3275, FARMINGTON HILLS, MI, 48333","No_Match",NA,NA,NA,NA
173161,"3246 184TH APT 3E","HOMEWOOD","IL",60430,41.555330498,-87.695318457,161,"3246 184TH APT 3E, HOMEWOOD, IL, 60430","Match","Non_Exact","3246 184TH ST, HOMEWOOD, IL, 60430",111708848,"R"
173162,"3246 AMHURST DR NW","ATLANTA","GA",30318,33.774130939,-84.494058196,162,"3246 AMHURST DR NW, ATLANTA, GA, 30318","Match","Exact","3246 AMHURST DR NW, ATLANTA, GA, 30318",17336750,"L"
173163,"3246 BEAUFORT DRIVE","BETHLEHEM","PA",18017,40.661284009,-75.3562900589999,163,"3246 BEAUFORT DRIVE, BETHLEHEM, PA, 18017","Match","Exact","3246 BEAUFORT DR, BETHLEHEM, PA, 18017",136896949,"R"
173164,"3246 COTTON BALE LANE","MEMPHIS","TN",38119,35.0598399020001,-89.816795804,164,"3246 COTTON BALE LANE, MEMPHIS, TN, 38119","Match","Exact","3246 COTTON BALE LN, MEMPHIS, TN, 38119",630869454,"L"
173165,"3246 JOHNSTOWNE STREET","JOHNS ISLAND","SC",29455,32.621437762,-80.15037418,165,"3246 JOHNSTOWNE STREET, JOHNS ISLAND, SC, 29455","Match","Exact","3246 JOHNSTOWNE ST, JOHNS ISLAND, SC, 29455",605536453,"L"
173166,"3246 LEVERTON AVENUE","BALTIMORE","MD",21224,39.2918964310001,-76.570658443,166,"3246 LEVERTON AVENUE, BALTIMORE, MD, 21224","Match","Exact","3246 LEVERTON AVE, BALTIMORE, MD, 21224",206425262,"L"
173167,"3246 MILTON JENSON WAY","TRACY","CA",95377,37.7467441160001,-121.47573478,167,"3246 MILTON JENSON WAY, TRACY, CA, 95377","Match","Exact","3246 MILTON JENSON WAY, TRACY, CA, 95377",649065576,"L"
173168,"3246 MOULDEN HOLLOW DRIVE","ZEPHYPHILLS","FL",33540,28.203361392,-82.162972385,168,"3246 MOULDEN HOLLOW DRIVE, ZEPHYPHILLS, FL, 33540","Match","Non_Exact","3246 MOULDEN HOLLOW DR, ZEPHYRHILLS, FL, 33540",640782920,"L"
173169,"3246 N E STREET","SAN BERNARDINO","CA",92405,34.1503904890001,-117.294089608,169,"3246 N E STREET, SAN BERNARDINO, CA, 92405","Match","Exact","3246 N E ST, SAN BERNARDINO, CA, 92405",144994240,"L"
173170,"3246 N MIAMI AVE STE A UNIT 370381","MIAMI","FL",33127,NA,NA,170,"3246 N MIAMI AVE STE A UNIT 370381, MIAMI, FL, 33127","No_Match",NA,NA,NA,NA
173171,"3246 PARKER RD","FLORISSANT","MO",63033,38.795352107,-90.29343704,171,"3246 PARKER RD, FLORISSANT, MO, 63033","Match","Exact","3246 PARKER RD, FLORISSANT, MO, 63033",100177679,"R"
173172,"3246 TRINITY JOE LN","HUMBLE","TX",77396,29.9707130890001,-95.222058648,172,"3246 TRINITY JOE LN, HUMBLE, TX, 77396","Match","Exact","3246 TRINITY JOE LN, HUMBLE, TX, 77396",624861337,"L"
173173,"3246 W 13TH STREET NORTH","WICHITA","KS",67203,37.708800271,-97.3797362669999,173,"3246 W 13TH STREET NORTH, WICHITA, KS, 67203","Match","Exact","3246 W 13TH ST N, WICHITA, KS, 67203",115665758,"R"
173174,"3246 WATERSIDE DRIVE","MEMPHIS","TN",38119,35.060486849,-89.8292856319999,174,"3246 WATERSIDE DRIVE, MEMPHIS, TN, 38119","Match","Exact","3246 WATERSIDE DR, MEMPHIS, TN, 38119",72938582,"L"
173175,"3246 WHEELOCK DRIVE","RACINE","WI",53405,42.693859251,-87.8231121429999,175,"3246 WHEELOCK DRIVE, RACINE, WI, 53405","Match","Exact","3246 WHEELOCK DR, RACINE, WI, 53405",647206142,"R"
173176,"3246 WHITE PLAINS ROAD","BRONX","NY",10467,40.872283924,-73.867119429,176,"3246 WHITE PLAINS ROAD, BRONX, NY, 10467","Match","Exact","3246 WHITE PLAINS RD, BRONX, NY, 10467",80303287,"R"
173177,"32469 N STATE HWY 108","MINGUS","TX",76463,32.4202490270001,-98.351002588,177,"32469 N STATE HWY 108, MINGUS, TX, 76463","Match","Non_Exact","32469 N STATE HWY 108, MINGUS, TX, 76463",636976198,"L"
173178,"3247 COUNTRY CLUB PKWY","CASTLE PINES","CO",80108,39.441756497,-104.914048706,178,"3247 COUNTRY CLUB PKWY, CASTLE PINES, CO, 80108","Match","Exact","3247 COUNTRY CLUB PKWY, CASTLE PINES, CO, 80108",130821188,"L"
173179,"3247 COUNTY 107 ROAD NE","EYOTA","MN",55934,NA,NA,179,"3247 COUNTY 107 ROAD NE, EYOTA, MN, 55934","No_Match",NA,NA,NA,NA
173180,"3247 DUNKIRK AVENUE","NORFOLK","VA",23509,36.877990314,-76.2606510379999,180,"3247 DUNKIRK AVENUE, NORFOLK, VA, 23509","Match","Exact","3247 DUNKIRK AVE, NORFOLK, VA, 23509",122134592,"L"
173181,"3247 E CAMELBACK RD","PHOENIX","AZ",85018,33.5099606910001,-112.01101589,181,"3247 E CAMELBACK RD, PHOENIX, AZ, 85018","Match","Exact","3247 E CAMELBACK RD, PHOENIX, AZ, 85018",128920530,"R"
173182,"3247 ELEANORS GARDEN WAY","WOODBINE","MD",21797,39.2783379900001,-77.069128128,182,"3247 ELEANORS GARDEN WAY, WOODBINE, MD, 21797","Match","Exact","3247 ELEANORS GARDEN WAY, WOODBINE, MD, 21797",617320814,"L"
173183,"3247 HATTING PLACE","BRONX","NY",10465,40.816724854,-73.8023051929999,183,"3247 HATTING PLACE, BRONX, NY, 10465","Match","Exact","3247 HATTING PL, BRONX, NY, 10465",80311280,"L"
173184,"3247 HEDGEWOOD LN","ROCHESTER HILLS","MI",48309,42.649158502,-83.197708529,184,"3247 HEDGEWOOD LN, ROCHESTER HILLS, MI, 48309","Match","Exact","3247 HEDGEWOOD LN, ROCHESTER HILLS, MI, 48309",69787348,"R"
173185,"3247 NE 104TH","SEATTLE","WA",98125,47.7039110630001,-122.293422104,185,"3247 NE 104TH, SEATTLE, WA, 98125","Match","Non_Exact","3247 NE 104TH ST, SEATTLE, WA, 98125",186584930,"R"
173186,"3247 ROSSBURY COURT","DUBLIN","OH",43017,40.0752075290001,-83.1036488559999,186,"3247 ROSSBURY COURT, DUBLIN, OH, 43017","Match","Exact","3247 ROSSBURY CT, DUBLIN, OH, 43017",135560969,"L"
173187,"3247 VISTA VERDE LN SW","TUMWATER","WA",98512,47.0156069980001,-122.918835731,187,"3247 VISTA VERDE LN SW, TUMWATER, WA, 98512","Match","Exact","3247 VISTA VERDE LN SW, TUMWATER, WA, 98512",614104348,"R"
173188,"3247 W AL WILHELMI DR","JOLIET","IL",60431,41.5524396800001,-88.1626036179999,188,"3247 W AL WILHELMI DR, JOLIET, IL, 60431","Match","Exact","3247 AL WILHELMI DR, JOLIET, IL, 60431",111538745,"L"
173189,"3247 W MARCH LANE SUITE 120","STOCKTON","CA",95219,37.983890478,-121.353725097,189,"3247 W MARCH LANE SUITE 120, STOCKTON, CA, 95219","Match","Non_Exact","3247 W MARCH LN, STOCKTON, CA, 95219",133877114,"R"
173190,"32470 WALKER NORTH RD","WALKER","LA",70785,30.538947512,-90.860926725,190,"32470 WALKER NORTH RD, WALKER, LA, 70785","Match","Non_Exact","32470 WALKER RD N, WALKER, LA, 70785",612906884,"R"
173191,"3248 ALDRIDGE WAY","EL DORADO HILLS","CA",95762,38.6257939970001,-121.055841705,191,"3248 ALDRIDGE WAY, EL DORADO HILLS, CA, 95762","Match","Exact","3248 ALDRIDGE WAY, EL DORADO HILLS, CA, 95762",650768416,"R"
173192,"3248 CHEYENNE CT NW","SALEM","OR",97304,44.9525217080001,-123.096478834,192,"3248 CHEYENNE CT NW, SALEM, OR, 97304","Match","Exact","3248 CHEYENNE CT NW, SALEM, OR, 97304",155778394,"L"
173193,"3248 CORINTH POSEYVILLE RD","BREMEN","GA",30110,33.811213262,-85.106162046,193,"3248 CORINTH POSEYVILLE RD, BREMEN, GA, 30110","Match","Exact","3248 CORINTH POSEYVILLE RD, BREMEN, GA, 30110",31049416,"L"
173194,"3248 EMERSON AVE S UNIT 5","MINNEAPOLIS","MN",55408,44.943825519,-93.2945085329999,194,"3248 EMERSON AVE S UNIT 5, MINNEAPOLIS, MN, 55408","Match","Exact","3248 EMERSON AVE S, MINNEAPOLIS, MN, 55408",43628614,"R"
173195,"3248 FIREBUSH AVE","ROSAMOND","CA",93560,34.8516502800001,-118.190194098,195,"3248 FIREBUSH AVE, ROSAMOND, CA, 93560","Match","Exact","3248 FIREBUSH AVE, ROSAMOND, CA, 93560",109572697,"L"
173196,"3248 IRWIN AVE","BRONX","NY",10463,40.8827771860001,-73.9075691469999,196,"3248 IRWIN AVE, BRONX, NY, 10463","Match","Exact","3248 IRWIN AVE, BRONX, NY, 10463",80296390,"R"
173197,"3248 JEMEZ DR","SAN DIEGO","CA",92117,32.829755586,-117.216142674,197,"3248 JEMEZ DR, SAN DIEGO, CA, 92117","Match","Exact","3248 JEMEZ DR, SAN DIEGO, CA, 92117",195302431,"L"
173198,"3248 NORTH HILL FARM DRIVE","TUCSON","AZ",85712,32.265863499,-110.883439858,198,"3248 NORTH HILL FARM DRIVE, TUCSON, AZ, 85712","Match","Exact","3248 N HILL FARM DR, TUCSON, AZ, 85712",121177823,"R"
173199,"3248 S 375TH PL","AUBURN","WA",98001,NA,NA,199,"3248 S 375TH PL, AUBURN, WA, 98001","No_Match",NA,NA,NA,NA
173200,"3248 SKYWAY CIRCLE NORTH","IRVING","TX",75038,32.873707687,-96.988735321,200,"3248 SKYWAY CIRCLE NORTH, IRVING, TX, 75038","Match","Exact","3248 SKYWAY CIR N, IRVING, TX, 75038",650492123,"L"
173201,"3248 TAYLOR BLVD","LOUISVILLE","KY",30215,38.203531932,-85.779724824,201,"3248 TAYLOR BLVD, LOUISVILLE, KY, 30215","Match","Non_Exact","3248 TAYLOR BLVD, LOUISVILLE, KY, 40215",96844281,"R"
173202,"3248 VERDANT DRIVE SW UNIT 812","ATLANTA","GA",30331,33.683071682,-84.4962848329999,202,"3248 VERDANT DRIVE SW UNIT 812, ATLANTA, GA, 30331","Match","Exact","3248 VERDANT DR SW, ATLANTA, GA, 30331",610225570,"L"
173203,"32480 ZOAR ROAD","LOCUST GROVE","VA",22508,38.306339968,-77.8115518709999,203,"32480 ZOAR ROAD, LOCUST GROVE, VA, 22508","Match","Exact","32480 ZOAR RD, LOCUST GROVE, VA, 22508",29881058,"L"
173204,"32485 CR 55","GILL","CO",80624,40.4722792640001,-104.545715856,204,"32485 CR 55, GILL, CO, 80624","Match","Exact","32485 CO RD 55, GILL, CO, 80624",188696668,"L"
173205,"3249 BARRINGTON DRIVE","HARRISONBURG","VA",22801,38.39572932,-78.854385338,205,"3249 BARRINGTON DRIVE, HARRISONBURG, VA, 22801","Match","Exact","3249 BARRINGTON DR, HARRISONBURG, VA, 22801",635367455,"L"
173206,"3249 HENNEPIN AVENUE S STE 75","MINNEAPOLIS","MN",55408,44.9438054010001,-93.298319906,206,"3249 HENNEPIN AVENUE S STE 75, MINNEAPOLIS, MN, 55408","Match","Exact","3249 HENNEPIN AVE S, MINNEAPOLIS, MN, 55408",43628592,"L"
173207,"3249 MILLWOOD TRAIL","SMYRNA","GA",30080,33.871649156,-84.5051571129999,207,"3249 MILLWOOD TRAIL, SMYRNA, GA, 30080","Match","Non_Exact","3249 MILLWOOD TRL SE, SMYRNA, GA, 30080",17226606,"L"
173208,"3249 N SEMINARY AVENUE -GDN","CHICAGO","IL",60657,41.940791629,-87.6565553199999,208,"3249 N SEMINARY AVENUE -GDN, CHICAGO, IL, 60657","Match","Non_Exact","3249 N SEMINARY AVE, CHICAGO, IL, 60657",111762415,"R"
173209,"3249 NELSON AVE","YOUNGSTOWN","OH",44505,41.128164134,-80.581320427,209,"3249 NELSON AVE, YOUNGSTOWN, OH, 44505","Match","Exact","3249 NELSON AVE, YOUNGSTOWN, OH, 44505",647896790,"R"
173210,"3249 PLEASANT RIDGE ROAD","WINGDALE","NY",12594,41.6425383390001,-73.604378674,210,"3249 PLEASANT RIDGE ROAD, WINGDALE, NY, 12594","Match","Exact","3249 PLEASANT RIDGE RD, WINGDALE, NY, 12594",4228886,"R"
173211,"3249 REBEL RIDGE LANE","CULPEPER","VA",22701,38.359047746,-77.946334008,211,"3249 REBEL RIDGE LANE, CULPEPER, VA, 22701","Match","Exact","3249 REBEL RIDGE LN, CULPEPER, VA, 22701",29888908,"L"
173212,"3249 SANDEFER ST","ABILENE","TX",79603,32.4752852290001,-99.7612467,212,"3249 SANDEFER ST, ABILENE, TX, 79603","Match","Exact","3249 SANDEFER ST, ABILENE, TX, 79603",129957167,"L"
173213,"3249 SOUTHAMPTON DRIVE","JEFFERSONTON","VA",22724,38.6576516380001,-77.926616979,213,"3249 SOUTHAMPTON DRIVE, JEFFERSONTON, VA, 22724","Match","Exact","3249 SOUTHAMPTON DR, JEFFERSONTON, VA, 22724",29856877,"L"
173214,"3249 STATE ROUTE 257","SENECA","PA",16346,41.3805360600001,-79.7037457179999,214,"3249 STATE ROUTE 257, SENECA, PA, 16346","Match","Exact","3249 STATE RTE 257, SENECA, PA, 16346",70758996,"L"
173215,"32490 MODOC POINT RD","CHILOQUIN","OR",97624,42.5184797520001,-121.921275756,215,"32490 MODOC POINT RD, CHILOQUIN, OR, 97624","Match","Exact","32490 MODOC POINT RD, CHILOQUIN, OR, 97624",156678091,"L"
173216,"32496 OLD FRANKLIN DRIVE","FARMINGTON HILLS","MI",48334,42.527421045,-83.3323695239999,216,"32496 OLD FRANKLIN DRIVE, FARMINGTON HILLS, MI, 48334","Match","Non_Exact","32496 OLDE FRANKLIN DR, FARMINGTON HILLS, MI, 48334",69727438,"R"
173217,"325 118TH AVE SE SUITE 100","BELLEVUE","WA",98005,47.6070779190001,-122.182781204,217,"325 118TH AVE SE SUITE 100, BELLEVUE, WA, 98005","Match","Exact","325 118TH AVE SE, BELLEVUE, WA, 98005",640606005,"R"
173218,"325 233RD ST SW","BOTHELL","WA",98021,47.7868742150001,-122.236982615,218,"325 233RD ST SW, BOTHELL, WA, 98021","Match","Exact","325 233RD ST SW, BOTHELL, WA, 98021",187793978,"L"
173219,"325 2ND STREET","FINDLAY","OH",45840,41.0277329190001,-83.646976861,219,"325 2ND STREET, FINDLAY, OH, 45840","Match","Exact","325 SECOND ST, FINDLAY, OH, 45840",36468080,"L"
173220,"325 5TH AVENUE APT 37F","NEW YORK","NY",10016,40.747424026,-73.985290187,220,"325 5TH AVENUE APT 37F, NEW YORK, NY, 10016","Match","Exact","325 5TH AVE, NEW YORK, NY, 10016",59653475,"R"
173221,"325 7TH AVE NORTH","JACKSONVILLE BEACH","FL",32250,30.2955318260001,-81.393599662,221,"325 7TH AVE NORTH, JACKSONVILLE BEACH, FL, 32250","Match","Exact","325 7TH AVE N, JACKSONVILLE BEACH, FL, 32250",83923481,"R"
173222,"325 7TH AVENUE NORTH","JACKSONVILLE BEACH","FL",32250,30.2955318260001,-81.393599662,222,"325 7TH AVENUE NORTH, JACKSONVILLE BEACH, FL, 32250","Match","Exact","325 7TH AVE N, JACKSONVILLE BEACH, FL, 32250",83923481,"R"
173223,"325 7TH STREET NW","WASHINGTON","DC",20004,38.8941406910001,-77.021905471,223,"325 7TH STREET NW, WASHINGTON, DC, 20004","Match","Non_Exact","325 7TH ST NW, WASHINGTON, DC, 20001",76226381,"R"
173224,"325 84TH ST SW SUITE 102","BYRON CENTER","MI",49315,42.811857198,-85.673630622,224,"325 84TH ST SW SUITE 102, BYRON CENTER, MI, 49315","Match","Exact","325 84TH ST SW, BYRON CENTER, MI, 49315",625129221,"R"
173225,"325 88TH STREET","BROOKLYN","NY",11209,40.6218716860001,-74.030860337,225,"325 88TH STREET, BROOKLYN, NY, 11209","Match","Exact","325 88TH ST, BROOKLYN, NY, 11209",59087448,"L"
173226,"325 9TH STREET","MENASHA","WI",54952,44.2154936630001,-88.4514788339999,226,"325 9TH STREET, MENASHA, WI, 54952","Match","Exact","325 NINTH ST, MENASHA, WI, 54952",643543463,"R"
173227,"325 9TH STREET","NORTH WALES","PA",19454,40.2149456020001,-75.2698750819999,227,"325 9TH STREET, NORTH WALES, PA, 19454","Match","Non_Exact","325 S 9TH ST, NORTH WALES, PA, 19454",135075597,"L"
173228,"325 ALLSTATE DR","JACKSON","MS",39211,32.37228616,-90.1194184029999,228,"325 ALLSTATE DR, JACKSON, MS, 39211","Match","Exact","325 ALLSTATE DR, JACKSON, MS, 39211",65361574,"R"
173229,"325 ALPINE ST","HOT SPRINGS","AR",71913,34.482629289,-93.0663155939999,229,"325 ALPINE ST, HOT SPRINGS, AR, 71913","Match","Exact","325 ALPINE ST, HOT SPRINGS, AR, 71913",22733526,"L"
173230,"325 AMBROSE RUN UNIT 409","BEAUFORT","SC",29906,32.4292867510001,-80.729972845,230,"325 AMBROSE RUN UNIT 409, BEAUFORT, SC, 29906","Match","Exact","325 AMBROSE RUN, BEAUFORT, SC, 29906",646120303,"L"
173231,"325 AMITY ROAD","BETHANY","CT",6524,41.4123868830001,-72.999973594,231,"325 AMITY ROAD, BETHANY, CT, 6524","Match","Exact","325 AMITY RD, BETHANY, CT, 06524",624827907,"L"
173232,"325 ANNA AVE","LEWISVILLE","TX",75056,33.052741616,-96.905080094,232,"325 ANNA AVE, LEWISVILLE, TX, 75056","Match","Exact","325 ANNA AVE, LEWISVILLE, TX, 75056",624810348,"L"
173233,"325 ASH TREE ROAD","COLUMBIA","SC",29229,34.1508037140001,-80.894321836,233,"325 ASH TREE ROAD, COLUMBIA, SC, 29229","Match","Exact","325 ASH TREE RD, COLUMBIA, SC, 29229",612219267,"R"
173234,"325 ASHLAWN DRIVE","NORFOLK","VA",23505,36.9190506480001,-76.263943303,234,"325 ASHLAWN DRIVE, NORFOLK, VA, 23505","Match","Exact","325 ASHLAWN DR, NORFOLK, VA, 23505",122132849,"R"
173235,"325 ASPEN LANE","PHILLIPSBURG","NJ",8865,NA,NA,235,"325 ASPEN LANE, PHILLIPSBURG, NJ, 8865","No_Match",NA,NA,NA,NA
173236,"325 AVENIDA CARMEL UNIT B","LAGUNA WOODS","CA",92637,33.6074913690001,-117.719634322,236,"325 AVENIDA CARMEL UNIT B, LAGUNA WOODS, CA, 92637","Match","Exact","325 AVE CARMEL, LAGUNA WOODS, CA, 92637",144062561,"R"
173237,"325 BADEN PL","STATEN ISLAND","NY",10306,40.5703025220001,-74.093193285,237,"325 BADEN PL, STATEN ISLAND, NY, 10306","Match","Exact","325 BADEN PL, STATEN ISLAND, NY, 10306",59869158,"R"
173238,"325 BARKER ST","GIRARD","PA",16417,42.0120389940001,-80.321928703,238,"325 BARKER ST, GIRARD, PA, 16417","Match","Exact","325 BARKER ST, GIRARD, PA, 16417",117508442,"L"
173239,"325 BARTON AVE","TERRE HAUTE","IN",47803,39.4642942680001,-87.382421278,239,"325 BARTON AVE, TERRE HAUTE, IN, 47803","Match","Exact","325 BARTON AVE, TERRE HAUTE, IN, 47803",606511749,"R"
173240,"325 BAYMIST DRIVE","LOGANVILLE","GA",30052,33.8543601390001,-83.893604892,240,"325 BAYMIST DRIVE, LOGANVILLE, GA, 30052","Match","Exact","325 BAYMIST DR, LOGANVILLE, GA, 30052",629001007,"R"
173241,"325 BERRY LANE","SHADY SHORES","TX",76208,33.1474365670001,-97.0387124169999,241,"325 BERRY LANE, SHADY SHORES, TX, 76208","Match","Exact","325 BERRY LN, SHADY SHORES, TX, 76208",649707465,"L"
173242,"325 BOCA GRANDE BLVD","PUNTA GORDA","FL",33950,26.9224039430001,-82.04435124,242,"325 BOCA GRANDE BLVD, PUNTA GORDA, FL, 33950","Match","Exact","325 BOCA GRANDE BLVD, PUNTA GORDA, FL, 33950",647536266,"R"
173243,"325 BOOHER ROAD","BRISTOL","VA",24201,36.5969230310001,-82.155150513,243,"325 BOOHER ROAD, BRISTOL, VA, 24201","Match","Exact","325 BOOHER RD, BRISTOL, VA, 24201",154381892,"R"
173244,"325 BRADDOCK AVENUE 310","BRADDOCK","PA",15104,40.405109043,-79.871589479,244,"325 BRADDOCK AVENUE 310, BRADDOCK, PA, 15104","Match","Exact","325 BRADDOCK AVE, BRADDOCK, PA, 15104",51654811,"L"
173245,"325 BRENTFORD AVE","GROVETOWN","GA",30813,33.482792256,-82.226939578,245,"325 BRENTFORD AVE, GROVETOWN, GA, 30813","Match","Exact","325 BRENTFORD AVE, GROVETOWN, GA, 30813",640762639,"R"
173246,"325 BROADWAY STE 204","NEW YORK","NY",10007,40.7159941290001,-74.004786511,246,"325 BROADWAY STE 204, NEW YORK, NY, 10007","Match","Exact","325 BROADWAY, NEW YORK, NY, 10007",59660384,"L"
173247,"325 BUNCOMBE STREET","RALEIGH","NC",27609,35.831998658,-78.661099931,247,"325 BUNCOMBE STREET, RALEIGH, NC, 27609","Match","Exact","325 BUNCOMBE ST, RALEIGH, NC, 27609",72502129,"L"
173248,"325 BURLEIGH ST","ORLANDO","FL",32824,28.3980423310001,-81.384074998,248,"325 BURLEIGH ST, ORLANDO, FL, 32824","Match","Exact","325 BURLEIGH ST, ORLANDO, FL, 32824",94340012,"R"
173249,"325 BUSHWICK AVE","BROOKLYN","NY",11206,40.70479958,-73.939289043,249,"325 BUSHWICK AVE, BROOKLYN, NY, 11206","Match","Exact","325 BUSHWICK AVE, BROOKLYN, NY, 11206",59077293,"L"
173250,"325 BYRD ROAD","CAMERON","NC",28326,35.255650739,-79.249609842,250,"325 BYRD ROAD, CAMERON, NC, 28326","Match","Exact","325 BYRD RD, CAMERON, NC, 28326",653732684,"R"
173251,"325 CANTERBURY DRIVE","STATE COLLEGE","PA",16803,40.799711486,-77.91678129,251,"325 CANTERBURY DRIVE, STATE COLLEGE, PA, 16803","Match","Exact","325 CANTERBURY DR, STATE COLLEGE, PA, 16803",50378424,"L"
173252,"325 CHARDON AVENUE","CHARDON","OH",44024,41.589700468,-81.198043608,252,"325 CHARDON AVENUE, CHARDON, OH, 44024","Match","Exact","325 CHARDON AVE, CHARDON, OH, 44024",137434523,"R"
173253,"325 CHESTNUT RIDGE WAY","NEWPORT","TN",37821,35.9520168280001,-83.256848755,253,"325 CHESTNUT RIDGE WAY, NEWPORT, TN, 37821","Match","Exact","325 CHESTNUT RIDGE WAY, NEWPORT, TN, 37821",652105191,"R"
173254,"325 CHESTNUT ST STE 876","PHILADELPHIA","PA",19106,39.948668793,-75.146229599,254,"325 CHESTNUT ST STE 876, PHILADELPHIA, PA, 19106","Match","Exact","325 CHESTNUT ST, PHILADELPHIA, PA, 19106",638456306,"R"
173255,"325 CHESTNUT STREET STE 800","PHILADELPHIA","PA",19106,39.948668793,-75.146229599,255,"325 CHESTNUT STREET STE 800, PHILADELPHIA, PA, 19106","Match","Exact","325 CHESTNUT ST, PHILADELPHIA, PA, 19106",638456306,"R"
173256,"325 CHESTNUT STREET SUITE 876 162","PHILADELPHIA","PA",19106,39.948668793,-75.146229599,256,"325 CHESTNUT STREET SUITE 876 162, PHILADELPHIA, PA, 19106","Match","Exact","325 CHESTNUT ST, PHILADELPHIA, PA, 19106",638456306,"R"
173257,"325 CHURCH 114","GALVESTON","TX",77550,29.3095779430001,-94.770613719,257,"325 CHURCH 114, GALVESTON, TX, 77550","Match","Non_Exact","325 CHURCH ST, GALVESTON, TX, 77550",96698078,"L"
173258,"325 CLASSON AVE SUITE 13H","BROOKLYN","NY",11205,40.6898988730001,-73.9601940209999,258,"325 CLASSON AVE SUITE 13H, BROOKLYN, NY, 11205","Match","Exact","325 CLASSON AVE, BROOKLYN, NY, 11205",652212872,"L"
173259,"325 CLAY ST","TREMONT","PA",17981,40.6348701590001,-76.3877218769999,259,"325 CLAY ST, TREMONT, PA, 17981","Match","Exact","325 CLAY ST, TREMONT, PA, 17981",636342070,"L"
173260,"325 CLINTON AVENUE - APT 12D","BROOKLYN","NY",11205,40.688130535,-73.967805745,260,"325 CLINTON AVENUE - APT 12D, BROOKLYN, NY, 11205","Match","Exact","325 CLINTON AVE, BROOKLYN, NY, 11205",652211439,"L"
173261,"325 CLOVERDALE COURT","STATESVILLE","NC",28677,35.7932794170001,-80.899238858,261,"325 CLOVERDALE COURT, STATESVILLE, NC, 28677","Match","Exact","325 CLOVERDALE CT, STATESVILLE, NC, 28677",46032379,"L"
173262,"325 COLEBROOK RD","WINSTED","CT",6098,41.957132793,-73.101644428,262,"325 COLEBROOK RD, WINSTED, CT, 6098","Match","Exact","325 COLEBROOK RD, WINSTED, CT, 06098",3098595,"L"
173263,"325 COLUMBIA TPKE PO BOX 992","FLORHAM PARK","NJ",7932,40.790843958,-74.4144735149999,263,"325 COLUMBIA TPKE PO BOX 992, FLORHAM PARK, NJ, 7932","Match","Exact","325 COLUMBIA TPKE, FLORHAM PARK, NJ, 07932",647627632,"L"
173264,"325 COOPER AVE","HAYWARD","CA",94544,37.628331125,-122.062019925,264,"325 COOPER AVE, HAYWARD, CA, 94544","Match","Exact","325 COOPER AVE, HAYWARD, CA, 94544",125024433,"R"
173265,"325 DAWSON SCOTTDALE ROAD","DAWSON","PA",15428,40.0549221030001,-79.6443493469999,265,"325 DAWSON SCOTTDALE ROAD, DAWSON, PA, 15428","Match","Exact","325 DAWSON SCOTTDALE RD, DAWSON, PA, 15428",616350777,"L"
173266,"325 DIVISION STREET","GALESBURG","IL",61401,40.9434888000001,-90.347844465,266,"325 DIVISION STREET, GALESBURG, IL, 61401","Match","Exact","325 DIVISION ST, GALESBURG, IL, 61401",9039995,"R"
173267,"325 DOWSBY COURT","ROSEVILLE","CA",95661,38.7660054020001,-121.227212841,267,"325 DOWSBY COURT, ROSEVILLE, CA, 95661","Match","Exact","325 DOWSBY CT, ROSEVILLE, CA, 95661",608088406,"L"
173268,"325 E 1375 S","KAYSVILLE","UT",84037,41.0125068740001,-111.930388722,268,"325 E 1375 S, KAYSVILLE, UT, 84037","Match","Exact","325 E 1375 S, KAYSVILLE, UT, 84037",155368580,"L"
173269,"325 E 64TH STREET APT 407","NYC","NY",10065,40.763302706,-73.961012205,269,"325 E 64TH STREET APT 407, NYC, NY, 10065","Match","Non_Exact","325 E 64TH ST, NEW YORK, NY, 10065",650086512,"L"
173270,"325 E BRADLEY AVE APT 124","EL CAJON","CA",92021,32.819102851,-116.957174204,270,"325 E BRADLEY AVE APT 124, EL CAJON, CA, 92021","Match","Non_Exact","325 E BRADLEY AVE, EL CAJON, CA, 92021",624818482,"R"
173271,"325 E GRAND RIVER AVE 345","EAST LANSING","MI",48823,NA,NA,271,"325 E GRAND RIVER AVE 345, EAST LANSING, MI, 48823","Tie",NA,NA,NA,NA
173272,"325 E LINCOLN WAY","SPARKS","NV",89431,NA,NA,272,"325 E LINCOLN WAY, SPARKS, NV, 89431","Tie",NA,NA,NA,NA
173273,"325 E MAGNOLIA ST APT 9","STOCKTON","CA",95202,37.9640894840001,-121.289751634,273,"325 E MAGNOLIA ST APT 9, STOCKTON, CA, 95202","Match","Non_Exact","325 E MAGNOLIA ST, STOCKTON, CA, 95202",133850348,"L"
173274,"325 E MONTCASTLE DRIVE UNIT A","GREENSBORO","NC",27406,NA,NA,274,"325 E MONTCASTLE DRIVE UNIT A, GREENSBORO, NC, 27406","Tie",NA,NA,NA,NA
173275,"325 E SONTERRA NO 230","SAN ANTONIO","TX",78258,NA,NA,275,"325 E SONTERRA NO 230, SAN ANTONIO, TX, 78258","No_Match",NA,NA,NA,NA
173276,"325 E SOUTHERN AVE SUITE 106","TEMPE","AZ",85282,NA,NA,276,"325 E SOUTHERN AVE SUITE 106, TEMPE, AZ, 85282","Tie",NA,NA,NA,NA
173277,"325 E SOUTHERN AVE SUITE 115","TEMPE","AZ",85282,NA,NA,277,"325 E SOUTHERN AVE SUITE 115, TEMPE, AZ, 85282","Tie",NA,NA,NA,NA
173278,"325 E THIRD AVE","CLIFTON","IL",60927,40.934282776,-87.931063835,278,"325 E THIRD AVE, CLIFTON, IL, 60927","Match","Exact","325 E THIRD AVE, CLIFTON, IL, 60927",90750452,"R"
173279,"325 E WASHINGTON 126","SEQUIM","WA",98382,NA,NA,279,"325 E WASHINGTON 126, SEQUIM, WA, 98382","No_Match",NA,NA,NA,NA
173280,"325 EAST 101 STREET","NEW YORK","NY",10029,40.7871632660001,-73.944086828,280,"325 EAST 101 STREET, NEW YORK, NY, 10029","Match","Exact","325 E 101ST ST, NEW YORK, NY, 10029",59658174,"L"
173281,"325 EAST 112 DRIVE","NORTHGLENN","CO",80233,39.9012295700001,-104.982854934,281,"325 EAST 112 DRIVE, NORTHGLENN, CO, 80233","Match","Exact","325 E 112TH DR, NORTHGLENN, CO, 80233",177405408,"L"
173282,"325 EAST 23RD STREET","FLATBUSH","NY",11226,40.6421738390001,-73.9554142119999,282,"325 EAST 23RD STREET, FLATBUSH, NY, 11226","Match","Non_Exact","325 E 23RD ST, BROOKLYN, NY, 11226",59081432,"L"
173283,"325 EAST 72ND STREET APT 8A","NEW YORK","NY",10021,40.7684645910001,-73.957540756,283,"325 EAST 72ND STREET APT 8A, NEW YORK, NY, 10021","Match","Exact","325 E 72ND ST, NEW YORK, NY, 10021",59657418,"L"
173284,"325 EAST 75TH ST","NEW YORK","NY",10021,40.770277451,-73.955794197,284,"325 EAST 75TH ST, NEW YORK, NY, 10021","Match","Exact","325 E 75TH ST, NEW YORK, NY, 10021",650073044,"L"
173285,"325 EAST 92ND STREET 1C","NEW YORK","NY",10126,40.781460779,-73.9483984679999,285,"325 EAST 92ND STREET 1C, NEW YORK, NY, 10126","Match","Non_Exact","325 E 92ND ST, NEW YORK, NY, 10128",609098347,"L"
173286,"325 EAST AIRPORT FREEWAY","IRVING","TX",75062,32.8374195580001,-96.9374411059999,286,"325 EAST AIRPORT FREEWAY, IRVING, TX, 75062","Match","Exact","325 E AIRPORT FWY, IRVING, TX, 75062",103201552,"L"
173287,"325 EAST ELM STREET","LADD","IL",61354,41.3816528080001,-89.216027863,287,"325 EAST ELM STREET, LADD, IL, 61354","Match","Non_Exact","325 E ELM ST, LADD, IL, 61329",8497658,"R"
173288,"325 EAST FLAMINGO ROAD","LAS VEGAS","NV",89169,36.1143740470001,-115.156039395,288,"325 EAST FLAMINGO ROAD, LAS VEGAS, NV, 89169","Match","Exact","325 E FLAMINGO RD, LAS VEGAS, NV, 89169",201922617,"R"
173289,"325 EAST GRAND RIVER AVE STE 317","EAST LANSING","MI",48823,42.7345229410001,-84.4810870329999,289,"325 EAST GRAND RIVER AVE STE 317, EAST LANSING, MI, 48823","Match","Exact","325 E GRAND RIVER AVE, EAST LANSING, MI, 48823",642537063,"L"
173290,"325 EAST MORNING SUN CT","TUCSON","AZ",85704,32.3253930830001,-110.966024182,290,"325 EAST MORNING SUN CT, TUCSON, AZ, 85704","Match","Exact","325 E MORNING SUN CT, TUCSON, AZ, 85704",121383764,"L"
173291,"325 EAST PENN AVE","ROBESONIA","PA",19551,40.3502619110001,-76.130044907,291,"325 EAST PENN AVE, ROBESONIA, PA, 19551","Match","Exact","325 E PENN AVE, ROBESONIA, PA, 19551",80390885,"R"
173292,"325 ED PADGETT RD","LAKELAND","FL",33809,28.153799728,-81.949795201,292,"325 ED PADGETT RD, LAKELAND, FL, 33809","Match","Exact","325 ED PADGETT RD, LAKELAND, FL, 33809",104917174,"R"
173293,"325 ELLINGTON BLVD NUM 109","GAITHERSBURG","MD",20878,39.113966372,-77.206185696,293,"325 ELLINGTON BLVD NUM 109, GAITHERSBURG, MD, 20878","Match","Exact","325 ELLINGTON BLVD, GAITHERSBURG, MD, 20878",640672188,"R"
173294,"325 ENON CT SW","ATLANTA","GA",30331,33.69895832,-84.548360422,294,"325 ENON CT SW, ATLANTA, GA, 30331","Match","Exact","325 ENON CT SW, ATLANTA, GA, 30331",17386018,"R"
173295,"325 ESSEX STREET","BROOKLYN","NY",11208,40.676102085,-73.882220535,295,"325 ESSEX STREET, BROOKLYN, NY, 11208","Match","Exact","325 ESSEX ST, BROOKLYN, NY, 11208",59085145,"L"
173296,"325 EVERGREEN ST WEST","VERMILLION","MN",55085,44.6713552850001,-92.970656408,296,"325 EVERGREEN ST WEST, VERMILLION, MN, 55085","Match","Non_Exact","325 EVERGREEN ST, VERMILLION, MN, 55085",37921751,"L"
173297,"325 EXECUTIVE CENTER DR A115","WPB","FL",33401,26.7135669570001,-80.079354409,297,"325 EXECUTIVE CENTER DR A115, WPB, FL, 33401","Match","Non_Exact","325 EXECUTIVE CENTER DR, WEST PALM BEACH, FL, 33401",647699727,"R"
173298,"325 FERNCLIFF DRIVE","ATHENS","GA",30606,33.952740003,-83.433838474,298,"325 FERNCLIFF DRIVE, ATHENS, GA, 30606","Match","Exact","325 FERNCLIFF DR, ATHENS, GA, 30606",4800908,"L"
173299,"325 FIELDVIEW LANE","COVINGTON","GA",30016,33.6091554870001,-83.960496811,299,"325 FIELDVIEW LANE, COVINGTON, GA, 30016","Match","Exact","325 FIELDVIEW LN, COVINGTON, GA, 30016",23637423,"L"
173300,"325 FIFTH AVENUE 32A","NEW YORK","NY",10016,40.747424026,-73.985290187,300,"325 FIFTH AVENUE 32A, NEW YORK, NY, 10016","Match","Exact","325 5TH AVE, NEW YORK, NY, 10016",59653475,"R"
173301,"325 FIFTH AVENUE SUITE 28B","NEW YORK","NY",10016,40.747424026,-73.985290187,301,"325 FIFTH AVENUE SUITE 28B, NEW YORK, NY, 10016","Match","Exact","325 5TH AVE, NEW YORK, NY, 10016",59653475,"R"
173302,"325 FOREST AVE SUITE 1","OSWEGO","IL",60543,41.677450084,-88.35358608,302,"325 FOREST AVE SUITE 1, OSWEGO, IL, 60543","Match","Exact","325 FOREST AVE, OSWEGO, IL, 60543",54484198,"L"
173303,"325 FOREST GROVE DRIVE STE 200","PEWAUKEE","WI",53072,43.08239439,-88.239383458,303,"325 FOREST GROVE DRIVE STE 200, PEWAUKEE, WI, 53072","Match","Exact","325 FOREST GROVE DR, PEWAUKEE, WI, 53072",53843282,"L"
173304,"325 FOREST PARK ROAD","WILMINGTON","NC",28409,34.2067514450001,-77.865831676,304,"325 FOREST PARK ROAD, WILMINGTON, NC, 28409","Match","Exact","325 FOREST PARK RD, WILMINGTON, NC, 28409",152761079,"L"
173305,"325 FORESTWAY CIRCLE UNIT 102","ALTAMONTE","FL",32701,28.6588799470001,-81.380487473,305,"325 FORESTWAY CIRCLE UNIT 102, ALTAMONTE, FL, 32701","Match","Non_Exact","325 FORESTWAY CIR, ALTAMONTE SPRINGS, FL, 32701",605414355,"L"
173306,"325 FRONT ST","MCHENRY","IL",60050,42.3306297340001,-88.274402348,306,"325 FRONT ST, MCHENRY, IL, 60050","Match","Exact","325 FRONT ST, MCHENRY, IL, 60050",119853275,"R"
173307,"325 FULTON INDUSTRIAL CIRCLE","FULTON","GA",30336,33.765711078,-84.533713604,307,"325 FULTON INDUSTRIAL CIRCLE, FULTON, GA, 30336","Match","Non_Exact","325 FULTON INDUSTRIAL CIR SW, SOUTH FULTON, GA, 30336",17414105,"R"
173308,"325 GEORGE RD","BETSY LAYNE","KY",41605,37.5523304390001,-82.6304647859999,308,"325 GEORGE RD, BETSY LAYNE, KY, 41605","Match","Exact","325 GEORGE RD, BETSY LAYNE, KY, 41605",627142358,"R"
173309,"325 GLENDOVER RD","LEXINGTON","KY",40503,38.0096950760001,-84.504935388,309,"325 GLENDOVER RD, LEXINGTON, KY, 40503","Match","Exact","325 GLENDOVER RD, LEXINGTON, KY, 40503",31923127,"L"
173310,"325 GLENWOOD AVENUE","LOCKPORT","NY",14094,43.1810191700001,-78.7072639739999,310,"325 GLENWOOD AVENUE, LOCKPORT, NY, 14094","Match","Exact","325 GLENWOOD AVE, LOCKPORT, NY, 14094",48695716,"R"
173311,"325 GODSHALL DR","HARLEYSVILLE","PA",19438,40.263669416,-75.365487391,311,"325 GODSHALL DR, HARLEYSVILLE, PA, 19438","Match","Non_Exact","325 GODSHALL RD, HARLEYSVILLE, PA, 19438",135067680,"R"
173312,"325 GREY ROCK DRIVE","MIDLAND","GA",31820,32.592166524,-84.8802019729999,312,"325 GREY ROCK DRIVE, MIDLAND, GA, 31820","Match","Exact","325 GREY ROCK DR, MIDLAND, GA, 31820",653446778,"L"
173313,"325 HARDING BLVD","NORRISTOWN","PA",19401,40.1229589230001,-75.3427748719999,313,"325 HARDING BLVD, NORRISTOWN, PA, 19401","Match","Exact","325 HARDING BLVD, NORRISTOWN, PA, 19401",135081953,"R"
173314,"325 HAWTHORNE LANE STE 300","CHARLOTTE","NC",28204,35.214329429,-80.823882334,314,"325 HAWTHORNE LANE STE 300, CHARLOTTE, NC, 28204","Match","Exact","325 HAWTHORNE LN, CHARLOTTE, NC, 28204",70487870,"L"
173315,"325 HERITAGE PLACE","JACKSON","MS",39212,32.2214160550001,-90.253800132,315,"325 HERITAGE PLACE, JACKSON, MS, 39212","Match","Exact","325 HERITAGE PL, JACKSON, MS, 39212",65382121,"L"
173316,"325 HERMITAGE DRIVE","ELKTON","MD",21921,39.6121956170001,-75.8227914679999,316,"325 HERMITAGE DRIVE, ELKTON, MD, 21921","Match","Exact","325 HERMITAGE DR, ELKTON, MD, 21921",635750307,"L"
173317,"325 HIGH STREET","GARDINER","OR",97441,43.7310049760001,-124.110418517,317,"325 HIGH STREET, GARDINER, OR, 97441","Match","Exact","325 HIGH ST, GARDINER, OR, 97441",137194071,"L"
173318,"325 HIGHLAND AVE","JENKINTOWN","PA",19046,40.094433286,-75.132503819,318,"325 HIGHLAND AVE, JENKINTOWN, PA, 19046","Match","Exact","325 HIGHLAND AVE, JENKINTOWN, PA, 19046",624670208,"L"
173319,"325 HIGHWAY 78","SUMITON","AL",35148,NA,NA,319,"325 HIGHWAY 78, SUMITON, AL, 35148","No_Match",NA,NA,NA,NA
173320,"325 HILLSIDE CT","VISTA","CA",92084,33.208806899,-117.238543538,320,"325 HILLSIDE CT, VISTA, CA, 92084","Match","Exact","325 HILLSIDE CT, VISTA, CA, 92084",195713212,"R"
173321,"325 HILLVIEW","MARION","KS",52302,NA,NA,321,"325 HILLVIEW, MARION, KS, 52302","No_Match",NA,NA,NA,NA
173322,"325 HOLT STREET","DAYTON","OH",45402,39.7625291310001,-84.2120411719999,322,"325 HOLT STREET, DAYTON, OH, 45402","Match","Exact","325 HOLT ST, DAYTON, OH, 45402",638348141,"R"
173323,"325 INDIAN RIDGE DRIVE","WAUKEE","IA",50263,41.5673691710001,-93.878547544,323,"325 INDIAN RIDGE DRIVE, WAUKEE, IA, 50263","Match","Exact","325 INDIAN RIDGE DR, WAUKEE, IA, 50263",617112842,"L"
173324,"325 JESSING TRAIL","COLUMBUS","OH",43235,40.118237316,-83.024821978,324,"325 JESSING TRAIL, COLUMBUS, OH, 43235","Match","Exact","325 JESSING TRL, COLUMBUS, OH, 43235",218687575,"L"
173325,"325 JIMMIE LEEDS ROAD STE 7 PMB 240","GALLOWAY","NJ",8205,39.482409497,-74.5786276279999,325,"325 JIMMIE LEEDS ROAD STE 7 PMB 240, GALLOWAY, NJ, 8205","Match","Exact","325 JIMMIE LEEDS RD, GALLOWAY, NJ, 08205",202480706,"R"
173326,"325 JP HOWARD ROAD","EVERGREEN","AL",36401,31.396620785,-86.870282641,326,"325 JP HOWARD ROAD, EVERGREEN, AL, 36401","Match","Non_Exact","325 J P HOWARD RD, EVERGREEN, AL, 36401",2866395,"R"
173327,"325 KENT AVE APT 820","BROOKLYN","NY",11249,40.7135268270001,-73.96730646,327,"325 KENT AVE APT 820, BROOKLYN, NY, 11249","Match","Exact","325 KENT AVE, BROOKLYN, NY, 11249",59075995,"L"
173328,"325 LAFAYETTE ST UNIT 4309","BRIDGEPORT","CT",6604,41.1679323340001,-73.188407942,328,"325 LAFAYETTE ST UNIT 4309, BRIDGEPORT, CT, 6604","Match","Exact","325 LAFAYETTE ST, BRIDGEPORT, CT, 06604",3225437,"L"
173329,"325 LAKE RIDGE DRIVE","KERNERSVILLE","NC",27284,36.10616135,-80.0887566379999,329,"325 LAKE RIDGE DRIVE, KERNERSVILLE, NC, 27284","Match","Exact","325 LAKE RIDGE DR, KERNERSVILLE, NC, 27284",84635138,"R"
173330,"325 LAKESPRING PLACE","OAKLEY","CA",94561,38.0026901580001,-121.716331589,330,"325 LAKESPRING PLACE, OAKLEY, CA, 94561","Match","Exact","325 LAKESPRING PL, OAKLEY, CA, 94561",192098086,"R"
173331,"325 LEGION ST","LAGUNA BEACH","CA",92651,33.5403654470001,-117.780452665,331,"325 LEGION ST, LAGUNA BEACH, CA, 92651","Match","Exact","325 LEGION ST, LAGUNA BEACH, CA, 92651",144068468,"R"
173332,"325 LINCOLN STREET","ROSEVILLE","CA",95678,38.7512268290001,-121.284565412,332,"325 LINCOLN STREET, ROSEVILLE, CA, 95678","Match","Exact","325 LINCOLN ST, ROSEVILLE, CA, 95678",106764601,"L"
173333,"325 LION DR","GRAVETTE","AR",72736,36.4260631180001,-94.437799492,333,"325 LION DR, GRAVETTE, AR, 72736","Match","Non_Exact","325 LION DR N, GRAVETTE, AR, 72736",635480078,"L"
173334,"325 LORI LANE","RIVERDALE","GA",30296,33.5608247850001,-84.487714258,334,"325 LORI LANE, RIVERDALE, GA, 30296","Match","Exact","325 LORI LN, RIVERDALE, GA, 30296",17378153,"R"
173335,"325 LYONS LN","SACRAMENTO","KY",42372,37.425880884,-87.2681689359999,335,"325 LYONS LN, SACRAMENTO, KY, 42372","Match","Exact","325 LYONS LN, SACRAMENTO, KY, 42372",38606271,"L"
173336,"325 MACON STREET","BROOKLYN","NY",11216,40.6823552870001,-73.938622025,336,"325 MACON STREET, BROOKLYN, NY, 11216","Match","Exact","325 MACON ST, BROOKLYN, NY, 11216",59079283,"L"
173337,"325 MAIN LIBRARY","URBANA","IL",61820,NA,NA,337,"325 MAIN LIBRARY, URBANA, IL, 61820","No_Match",NA,NA,NA,NA
173338,"325 MAIN ST","WINOOSKI","VT",5404,44.498654233,-73.184182966,338,"325 MAIN ST, WINOOSKI, VT, 5404","Match","Exact","325 MAIN ST, WINOOSKI, VT, 05404",135827678,"R"
173339,"325 MAIN STREET SUITE 4","WINOOSKI","VT",5404,44.498654233,-73.184182966,339,"325 MAIN STREET SUITE 4, WINOOSKI, VT, 5404","Match","Exact","325 MAIN ST, WINOOSKI, VT, 05404",135827678,"R"
173340,"325 MAIN STREET","SAVANNAH","TN",38372,35.225232449,-88.251822546,340,"325 MAIN STREET, SAVANNAH, TN, 38372","Match","Exact","325 MAIN ST, SAVANNAH, TN, 38372",21173324,"R"
173341,"325 MAINE STREET SUITE 8","WINOOSKI","VT",5404,44.498654233,-73.184182966,341,"325 MAINE STREET SUITE 8, WINOOSKI, VT, 5404","Match","Non_Exact","325 MAIN ST, WINOOSKI, VT, 05404",135827678,"R"
173342,"325 MAJORCA AVE APT 3","CORAL GABLES","FL",33134,25.7551047440001,-80.261460163,342,"325 MAJORCA AVE APT 3, CORAL GABLES, FL, 33134","Match","Exact","325 MAJORCA AVE, CORAL GABLES, FL, 33134",116010772,"R"
173343,"325 MALCOLM AVENUE","BELMONT","CA",94402,37.5265840930001,-122.286958751,343,"325 MALCOLM AVENUE, BELMONT, CA, 94402","Match","Non_Exact","325 MALCOLM AVE, BELMONT, CA, 94002",192381560,"L"
173344,"325 MARION AVENUE","BEN LOMOND","CA",95005,37.0821052470001,-122.073389392,344,"325 MARION AVENUE, BEN LOMOND, CA, 95005","Match","Exact","325 MARION AVE, BEN LOMOND, CA, 95005",125502717,"R"
173345,"325 MARMOT POINT","LAFAYETTE","CO",80026,39.97017322,-105.095668677,345,"325 MARMOT POINT, LAFAYETTE, CO, 80026","Match","Non_Exact","325 MARMOT CIR, LAFAYETTE, CO, 80026",188186172,"R"
173346,"325 MAUMEE DRIVE","CIRCLEVILLE","OH",43113,39.6056733840001,-82.9275626959999,346,"325 MAUMEE DRIVE, CIRCLEVILLE, OH, 43113","Match","Exact","325 MAUMEE DR, CIRCLEVILLE, OH, 43113",37447219,"L"
173347,"325 MELVILLE AVENUE","PALO ALTO","CA",94301,37.4401209420001,-122.151122125,347,"325 MELVILLE AVENUE, PALO ALTO, CA, 94301","Match","Exact","325 MELVILLE AVE, PALO ALTO, CA, 94301",122950679,"L"
173348,"325 MERGANSER DR UNIT 1146","SUISUN CITY","CA",94585,NA,NA,348,"325 MERGANSER DR UNIT 1146, SUISUN CITY, CA, 94585","No_Match",NA,NA,NA,NA
173349,"325 MINOR ST","KENNER","LA",70062,29.974153271,-90.24756798,349,"325 MINOR ST, KENNER, LA, 70062","Match","Exact","325 MINOR ST, KENNER, LA, 70062",93539344,"L"
173350,"325 MISTY MOUNTAIN DR","FORT WORTH","TX",76140,32.6072323660001,-97.324833057,350,"325 MISTY MOUNTAIN DR, FORT WORTH, TX, 76140","Match","Exact","325 MISTY MOUNTAIN DR, FORT WORTH, TX, 76140",619866428,"L"
173351,"325 MONTEREY BLVD APT B","HERMOSA BEACH","CA",90254,33.8563296340001,-118.396498418,351,"325 MONTEREY BLVD APT B, HERMOSA BEACH, CA, 90254","Match","Exact","325 MONTEREY BLVD, HERMOSA BEACH, CA, 90254",141583237,"L"
173352,"325 MOORE STREET","EAST LIVERPOOL","OH",43920,40.6247507890001,-80.582677611,352,"325 MOORE STREET, EAST LIVERPOOL, OH, 43920","Match","Exact","325 MOORE ST, EAST LIVERPOOL, OH, 43920",623687161,"L"
173353,"325 MORRISON STREET","SHELBY","NC",28152,35.2766007640001,-81.552367013,353,"325 MORRISON STREET, SHELBY, NC, 28152","Match","Exact","325 MORRISON ST, SHELBY, NC, 28152",19320019,"L"
173354,"325 MULBERRY STREET","YORK","PA",17403,39.9726610540001,-76.715140678,354,"325 MULBERRY STREET, YORK, PA, 17403","Match","Exact","325 MULBERRY ST, YORK, PA, 17403",88731784,"R"
173355,"325 N 10TH ST STE 400 NO 264","LEWISBURG","PA",17837,40.9618409080001,-76.893768657,355,"325 N 10TH ST STE 400 NO 264, LEWISBURG, PA, 17837","Match","Non_Exact","325 N 10TH ST, LEWISBURG, PA, 17837",650600584,"R"
173356,"325 N 3RD ST","FAIRBORN","OH",45324,39.8267148830001,-84.024873511,356,"325 N 3RD ST, FAIRBORN, OH, 45324","Match","Exact","325 N 3RD ST, FAIRBORN, OH, 45324",143390751,"L"
173357,"325 N 5TH AVE","GILMAN","WI",54433,45.1685779490001,-90.80773577,357,"325 N 5TH AVE, GILMAN, WI, 54433","Match","Exact","325 N 5TH AVE, GILMAN, WI, 54433",117236377,"R"
173358,"325 N BLUE LAKE TERRACE","DELAND","FL",32724,29.03308021,-81.272732103,358,"325 N BLUE LAKE TERRACE, DELAND, FL, 32724","Match","Exact","325 N BLUE LAKE TER, DELAND, FL, 32724",94510456,"R"
173359,"325 N BROADWAY","SHAWNEE","OK",74801,NA,NA,359,"325 N BROADWAY, SHAWNEE, OK, 74801","No_Match",NA,NA,NA,NA
173360,"325 N EIGHTH AVE","DES PLAINES","IL",60016,42.059247075,-87.9090477089999,360,"325 N EIGHTH AVE, DES PLAINES, IL, 60016","Match","Exact","325 N 8TH AVE, DES PLAINES, IL, 60016",111722348,"R"
173361,"325 N LASALLE STREET SUITE 350","CHICAGO","IL",60654,NA,NA,361,"325 N LASALLE STREET SUITE 350, CHICAGO, IL, 60654","No_Match",NA,NA,NA,NA
173362,"325 N MAIN ST","CISCO","IL",61830,40.014318744,-88.7260163299999,362,"325 N MAIN ST, CISCO, IL, 61830","Match","Exact","325 N MAIN ST, CISCO, IL, 61830",8552815,"L"
173363,"325 N MAPLE DR UNIT 5138","BEVERLY HILLS","CA",90209,NA,NA,363,"325 N MAPLE DR UNIT 5138, BEVERLY HILLS, CA, 90209","No_Match",NA,NA,NA,NA
173364,"325 N PORTER ST","WAYNESBURG","PA",15370,39.9003111690001,-80.179543967,364,"325 N PORTER ST, WAYNESBURG, PA, 15370","Match","Exact","325 N PORTER ST, WAYNESBURG, PA, 15370",51362173,"L"
173365,"325 N SAINT PAUL ST STE 3100","DALLAS","TX",75201,32.783140018,-96.7965670569999,365,"325 N SAINT PAUL ST STE 3100, DALLAS, TX, 75201","Match","Non_Exact","325 N ST PAUL ST, DALLAS, TX, 75201",102909981,"L"
173366,"325 N SAINT PAUL STREET SUITE 3100","DALLAS","TX",75201,32.783140018,-96.7965670569999,366,"325 N SAINT PAUL STREET SUITE 3100, DALLAS, TX, 75201","Match","Non_Exact","325 N ST PAUL ST, DALLAS, TX, 75201",102909981,"L"
173367,"325 N SAINT PAUL STREET SUITE 3300","DALLAS","TX",75201,32.783140018,-96.7965670569999,367,"325 N SAINT PAUL STREET SUITE 3300, DALLAS, TX, 75201","Match","Non_Exact","325 N ST PAUL ST, DALLAS, TX, 75201",102909981,"L"
173368,"325 NANCY DRIVE","HAMPTON","VA",23669,37.0614236600001,-76.335508245,368,"325 NANCY DRIVE, HAMPTON, VA, 23669","Match","Exact","325 NANCY DR, HAMPTON, VA, 23669",103759361,"L"
173369,"325 NEW ALBANY RD","MOORESTOWN","NJ",8057,39.964856705,-74.9738083829999,369,"325 NEW ALBANY RD, MOORESTOWN, NJ, 8057","Match","Exact","325 NEW ALBANY RD, MOORESTOWN, NJ, 08057",617127126,"L"
173370,"325 NOB NORTH DRIVE","COHUTTA","GA",30710,34.9211955810001,-84.95459081,370,"325 NOB NORTH DRIVE, COHUTTA, GA, 30710","Match","Exact","325 NOB NORTH DR, COHUTTA, GA, 30710",643791972,"R"
173371,"325 NORRIS RD","CLAYTON","NC",27520,35.5767380410001,-78.472589593,371,"325 NORRIS RD, CLAYTON, NC, 27520","Match","Exact","325 NORRIS RD, CLAYTON, NC, 27520",635473647,"L"
173372,"325 NORRIS ROAD","CLAYTON","NC",27520,35.5767380410001,-78.472589593,372,"325 NORRIS ROAD, CLAYTON, NC, 27520","Match","Exact","325 NORRIS RD, CLAYTON, NC, 27520",635473647,"L"
173373,"325 NORTH END AVENUE 16G","NYC","NY",10282,40.7166719790001,-74.014890242,373,"325 NORTH END AVENUE 16G, NYC, NY, 10282","Match","Exact","325 N END AVE, NEW YORK, NY, 10282",59660910,"L"
173374,"325 NORTH LARCHMONT BLVD SUITE 375","LOS ANGELES","CA",90004,34.0777251440001,-118.323647354,374,"325 NORTH LARCHMONT BLVD SUITE 375, LOS ANGELES, CA, 90004","Match","Exact","325 N LARCHMONT BLVD, LOS ANGELES, CA, 90004",141603004,"L"
173375,"325 NW 21 AVE SUITE 100","PORTLAND","OR",97209,45.5250751080001,-122.694379842,375,"325 NW 21 AVE SUITE 100, PORTLAND, OR, 97209","Match","Non_Exact","325 NW 21ST AVE, PORTLAND, OR, 97209",157498408,"L"
173376,"325 OCEAN HOUSE ROAD","CAPE ELIZABETH","ME",4107,43.594425013,-70.227249736,376,"325 OCEAN HOUSE ROAD, CAPE ELIZABETH, ME, 4107","Match","Exact","325 OCEAN HOUSE RD, CAPE ELIZABETH, ME, 04107",78072546,"R"
173377,"325 OKLAHOMA RD","MANITOU SPRINGS","CO",80829,38.8542655050001,-104.910448809,377,"325 OKLAHOMA RD, MANITOU SPRINGS, CO, 80829","Match","Exact","325 OKLAHOMA RD, MANITOU SPRINGS, CO, 80829",636177134,"L"
173378,"325 OLD BRICK ROAD","BUNNELL","FM",32110,NA,NA,378,"325 OLD BRICK ROAD, BUNNELL, FM, 32110","No_Match",NA,NA,NA,NA
173379,"325 PARKE VIEW LN","BREMEN","IN",46506,41.4384247880001,-86.133430112,379,"325 PARKE VIEW LN, BREMEN, IN, 46506","Match","Non_Exact","325 PARK VIEW LN, BREMEN, IN, 46506",7649520,"R"
173380,"325 PERSIMMON RIDGE DR","LOUSIVILLE","KY",40245,38.2918372070001,-85.431578589,380,"325 PERSIMMON RIDGE DR, LOUSIVILLE, KY, 40245","Match","Non_Exact","325 PERSIMMON RIDGE DR, LOUISVILLE, KY, 40245",619742141,"L"
173381,"325 PLEASANT RIDGE ROAD","ELKIN","NC",28621,36.284794977,-80.879445198,381,"325 PLEASANT RIDGE ROAD, ELKIN, NC, 28621","Match","Exact","325 PLEASANT RIDGE RD, ELKIN, NC, 28621",649734280,"L"
173382,"325 PLUS PARK BLVD  SUITE 106","NASHVILLE","TN",37217,36.1317231350001,-86.7247031589999,382,"325 PLUS PARK BLVD  SUITE 106, NASHVILLE, TN, 37217","Match","Exact","325 PLUS PARK BLVD, NASHVILLE, TN, 37217",97211968,"L"
173383,"325 PLUS PARK BLVD STE 107","NASHVILLE","TN",37217,36.1317231350001,-86.7247031589999,383,"325 PLUS PARK BLVD STE 107, NASHVILLE, TN, 37217","Match","Exact","325 PLUS PARK BLVD, NASHVILLE, TN, 37217",97211968,"L"
173384,"325 PUTNAM AVE","WOODSTOCK","IL",60098,42.312335783,-88.4533914149999,384,"325 PUTNAM AVE, WOODSTOCK, IL, 60098","Match","Exact","325 PUTNAM AVE, WOODSTOCK, IL, 60098",639638281,"R"
173385,"325 RAYMOND AVE","GLENDALE","CA",91201,34.1622736350001,-118.300740976,385,"325 RAYMOND AVE, GLENDALE, CA, 91201","Match","Exact","325 RAYMOND AVE, GLENDALE, CA, 91201",141595905,"L"
173386,"325 RICHMOND ROAD","IRINE","KY",40336,37.696307178,-83.9838474059999,386,"325 RICHMOND ROAD, IRINE, KY, 40336","Match","Non_Exact","325 RICHMOND RD, IRVINE, KY, 40336",31904576,"L"
173387,"325 RIVERBANK DR","FLINT","MI",48503,NA,NA,387,"325 RIVERBANK DR, FLINT, MI, 48503","No_Match",NA,NA,NA,NA
173388,"325 ROBEY BETHEL GROVE ROAD","FRANKLIN","KY",42134,36.742394652,-86.59381591,388,"325 ROBEY BETHEL GROVE ROAD, FRANKLIN, KY, 42134","Match","Exact","325 ROBEY BETHEL GROVE RD, FRANKLIN, KY, 42134",29600747,"R"
173389,"325 S 8TH ST","ST CHARLES","IL",60174,41.9097439120001,-88.32175798,389,"325 S 8TH ST, ST CHARLES, IL, 60174","Match","Exact","325 S 8TH ST, SAINT CHARLES, IL, 60174",119505995,"R"
173390,"325 S BISCAYNE BLVD  APT 3022","MIAMI","FL",33131,25.7709433220001,-80.1885219499999,390,"325 S BISCAYNE BLVD  APT 3022, MIAMI, FL, 33131","Match","Non_Exact","325 BISCAYNE BLVD WAY, MIAMI, FL, 33131",650146922,"L"
173391,"325 S BISCAYNE BLVD","MIAMI","FL",33131,25.7709982960001,-80.187360191,391,"325 S BISCAYNE BLVD, MIAMI, FL, 33131","Match","Exact","325 BISCAYNE BLVD, MIAMI, FL, 33131",642015701,"L"
173392,"325 S KENILWORTH AVE","OAK PARK","IL",60302,41.8828546120001,-87.7970175519999,392,"325 S KENILWORTH AVE, OAK PARK, IL, 60302","Match","Exact","325 S KENILWORTH AVE, OAK PARK, IL, 60302",111752827,"R"
173393,"325 S LAWRENCE AVE","GIBSON CITY","IL",60936,40.4620774840001,-88.365876585,393,"325 S LAWRENCE AVE, GIBSON CITY, IL, 60936","Match","Exact","325 S LAWRENCE AVE, GIBSON CITY, IL, 60936",22343713,"L"
173394,"325 S MADISON AVE APT 17","PASADENA","CA",91101,34.1399445710001,-118.138339337,394,"325 S MADISON AVE APT 17, PASADENA, CA, 91101","Match","Non_Exact","325 S MADISON AVE, PASADENA, CA, 91101",141630685,"R"
173395,"325 S MAIN STREET","BURNETTSVILLE","IN",47926,40.7624660860001,-86.593494589,395,"325 S MAIN STREET, BURNETTSVILLE, IN, 47926","Match","Exact","325 S MAIN ST, BURNETTSVILLE, IN, 47926",27365152,"R"
173396,"325 S MONTEZUMA ST","PRESCOTT","AZ",86303,34.5374780770001,-112.470217649,396,"325 S MONTEZUMA ST, PRESCOTT, AZ, 86303","Match","Exact","325 S MONTEZUMA ST, PRESCOTT, AZ, 86303",159457308,"R"
173397,"325 S RETREAT RD","WESTMINSTER","SC",29693,34.6143217600001,-83.0761299759999,397,"325 S RETREAT RD, WESTMINSTER, SC, 29693","Match","Exact","325 S RETREAT RD, WESTMINSTER, SC, 29693",627795260,"L"
173398,"325 S RIFE","DILLON","MT",59725,45.216439623,-112.641897589,398,"325 S RIFE, DILLON, MT, 59725","Match","Non_Exact","325 S RIFE ST, DILLON, MT, 59725",153005879,"L"
173399,"325 S SOCORA ST","WICHITA","KS",67209,37.67918295,-97.4373523419999,399,"325 S SOCORA ST, WICHITA, KS, 67209","Match","Non_Exact","325 S SOCORA, WICHITA, KS, 67209",115641949,"R"
173400,"325 SCHOOL ST","ROCKTON","IL",61072,42.447684886,-89.077267687,400,"325 SCHOOL ST, ROCKTON, IL, 61072","Match","Exact","325 SCHOOL ST, ROCKTON, IL, 61072",49271332,"R"
173401,"325 SE 15TH AVENUE","OKEECHOBEE","FL",34974,27.241079825,-80.8141154689999,401,"325 SE 15TH AVENUE, OKEECHOBEE, FL, 34974","Match","Exact","325 SE 15TH AVE, OKEECHOBEE, FL, 34974",4925343,"L"
173402,"325 SECOND NH TURNPIKE SOUTH","FRANCESTOWN","NH",3043,42.982049224,-71.804499786,402,"325 SECOND NH TURNPIKE SOUTH, FRANCESTOWN, NH, 3043","Match","Exact","325 2ND NEW HAMPSHIRE TPKE S, FRANCESTOWN, NH, 03043",651229191,"R"
173403,"325 SELTSAM RD","BRIDGEPORT","CT",6606,41.2131023590001,-73.184804211,403,"325 SELTSAM RD, BRIDGEPORT, CT, 6606","Match","Exact","325 SELTSAM RD, BRIDGEPORT, CT, 06606",3224535,"L"
173404,"325 SEVEN ISLES DRIVE","FT. LAUDERDALE","FL",33301,26.1261059650001,-80.115605763,404,"325 SEVEN ISLES DRIVE, FT. LAUDERDALE, FL, 33301","Match","Exact","325 SEVEN ISLES DR, FORT LAUDERDALE, FL, 33301",114726080,"L"
173405,"325 SHANNON DRIVE","CHILLICOTHE","OH",45601,39.3250191160001,-83.008854718,405,"325 SHANNON DRIVE, CHILLICOTHE, OH, 45601","Match","Exact","325 SHANNON DR, CHILLICOTHE, OH, 45601",37492176,"R"
173406,"325 SHARON PARK DRIVE  NUMBER 741","MENLO PARK","CA",94025,37.4240832400001,-122.195734538,406,"325 SHARON PARK DRIVE  NUMBER 741, MENLO PARK, CA, 94025","Match","Exact","325 SHARON PARK DR, MENLO PARK, CA, 94025",192365754,"L"
173407,"325 SHELLNUT AVE","COLUMBIA","SC",29209,33.970536339,-80.880251801,407,"325 SHELLNUT AVE, COLUMBIA, SC, 29209","Match","Exact","325 SHELLNUT AVE, COLUMBIA, SC, 29209",71831445,"R"
173408,"325 SHETUCKET TPKE","PRESTON","CT",6365,41.5293702060001,-71.988997242,408,"325 SHETUCKET TPKE, PRESTON, CT, 6365","Match","Exact","325 SHETUCKET TPKE, PRESTON, CT, 06365",56863218,"R"
173409,"325 SNEDDEN DRIVE","BOONE","IA",50036,42.0547220390001,-93.854327336,409,"325 SNEDDEN DRIVE, BOONE, IA, 50036","Match","Exact","325 SNEDDEN DR, BOONE, IA, 50036",64945999,"L"
173410,"325 SOUTH 11TH STREET","SPRINGFIELD","IL",62703,39.7990024810001,-89.640866918,410,"325 SOUTH 11TH STREET, SPRINGFIELD, IL, 62703","Match","Exact","325 S 11TH ST, SPRINGFIELD, IL, 62703",97325277,"R"
173411,"325 SOUTH CLAIREMONT AVE","SPRINGFIELD","OH",45503,39.918194036,-83.776116671,411,"325 SOUTH CLAIREMONT AVE, SPRINGFIELD, OH, 45503","Match","Non_Exact","325 S CLAIRMONT AVE, SPRINGFIELD, OH, 45505",135010547,"R"
173412,"325 SOUTH LAKE DRIVE","NOVI","MI",48377,42.511978249,-83.479704321,412,"325 SOUTH LAKE DRIVE, NOVI, MI, 48377","Match","Exact","325 S LAKE DR, NOVI, MI, 48377",641241289,"L"
173413,"325 SOUTH ORCHARD DRIVE D203","NORTH SALT LAKE","UT",84054,40.8353028820001,-111.91191273,413,"325 SOUTH ORCHARD DRIVE D203, NORTH SALT LAKE, UT, 84054","Match","Exact","325 S ORCHARD DR, N SALT LAKE, UT, 84054",651108823,"R"
173414,"325 SOUTH SCENIC  HWY","LAKE WALES","FL",33853,27.898310053,-81.5848751949999,414,"325 SOUTH SCENIC  HWY, LAKE WALES, FL, 33853","Match","Exact","325 S SCENIC HWY, LAKE WALES, FL, 33853",104832126,"R"
173415,"325 SPRINGVILLE AV","AMHERST","NY",14226,42.9677466300001,-78.815905161,415,"325 SPRINGVILLE AV, AMHERST, NY, 14226","Match","Exact","325 SPRINGVILLE AVE, AMHERST, NY, 14226",48295561,"R"
173416,"325 SQUIREBROOK DR","DESOTO","TX",75115,32.6107594280001,-96.8627125959999,416,"325 SQUIREBROOK DR, DESOTO, TX, 75115","Match","Exact","325 SQUIREBROOK DR, DESOTO, TX, 75115",102953476,"R"
173417,"325 STATION STREET","ALTAMONTE SPRINGS","FL",32715,28.666638678,-81.3548501349999,417,"325 STATION STREET, ALTAMONTE SPRINGS, FL, 32715","Match","Non_Exact","325 STATION ST, ALTAMONTE SPG, FL, 32701",93743271,"R"
173418,"325 STELLERS EAGLE ST NW","SALEM","OR",97304,44.938722678,-123.088004865,418,"325 STELLERS EAGLE ST NW, SALEM, OR, 97304","Match","Exact","325 STELLERS EAGLE ST NW, SALEM, OR, 97304",610953458,"R"
173419,"325 STEWART AVE NW","MASSILLON","OH",44646,40.7965388630001,-81.457763429,419,"325 STEWART AVE NW, MASSILLON, OH, 44646","Match","Exact","325 STEWART AVE NW, MASSILLON, OH, 44646",64674813,"L"
173420,"325 STRATTON STREET","LOGAN","WV",25601,37.8471140560001,-81.9910377049999,420,"325 STRATTON STREET, LOGAN, WV, 25601","Match","Exact","325 STRATTON ST, LOGAN, WV, 25601",78766388,"R"
173421,"325 SUGARLOAF AVENUE","ABILENE","TX",79602,32.38154833,-99.718994438,421,"325 SUGARLOAF AVENUE, ABILENE, TX, 79602","Match","Exact","325 SUGARLOAF AVE, ABILENE, TX, 79602",623925332,"R"
173422,"325 SUITE B HIGHWAY 75 NORTH","HUNTSVILLE","TX",77320,NA,NA,422,"325 SUITE B HIGHWAY 75 NORTH, HUNTSVILLE, TX, 77320","No_Match",NA,NA,NA,NA
173423,"325 SUN MEADOW LN","FORT WORTH","TX",76140,32.601539932,-97.324075466,423,"325 SUN MEADOW LN, FORT WORTH, TX, 76140","Match","Exact","325 SUN MEADOW LN, FORT WORTH, TX, 76140",619865957,"L"
173424,"325 SUNSET BLVD","WADSWORTH","OH",44281,41.0277458680001,-81.7380130449999,424,"325 SUNSET BLVD, WADSWORTH, OH, 44281","Match","Exact","325 SUNSET BLVD, WADSWORTH, OH, 44281",58679026,"R"
173425,"325 SUNSHINE LANE","RENO","NV",89502,39.5252578110001,-119.787933957,425,"325 SUNSHINE LANE, RENO, NV, 89502","Match","Exact","325 SUNSHINE LN, RENO, NV, 89502",107052251,"R"
173426,"325 SW 11TH AVE","DELRAY BEACH","FL",33444,26.455630754,-80.084212356,426,"325 SW 11TH AVE, DELRAY BEACH, FL, 33444","Match","Exact","325 SW 11TH AVE, DELRAY BEACH, FL, 33444",115291098,"L"
173427,"325 TALLOW LN","SHREVEPORT","LA",71105,32.4504027200001,-93.706419752,427,"325 TALLOW LN, SHREVEPORT, LA, 71105","Match","Exact","325 TALLOW LN, SHREVEPORT, LA, 71105",57441837,"R"
173428,"325 TENAFLY ROAD","ENGLEWOOD","NJ",7631,NA,NA,428,"325 TENAFLY ROAD, ENGLEWOOD, NJ, 7631","No_Match",NA,NA,NA,NA
173429,"325 THE VALLEY RD","CONCORD","MA",1742,42.4339455750001,-71.367296832,429,"325 THE VALLEY RD, CONCORD, MA, 1742","Match","Exact","325 THE VALLEY RD, CONCORD, MA, 01742",86845119,"L"
173430,"325 THELMA AVE","GLEN BURNIE","MD",21061,39.154318135,-76.639362881,430,"325 THELMA AVE, GLEN BURNIE, MD, 21061","Match","Exact","325 THELMA AVE, GLEN BURNIE, MD, 21061",642790471,"L"
173431,"325 THOMPSON RUN ROAD","PITTSBURGH","PA",15237,40.5266530820001,-79.988283187,431,"325 THOMPSON RUN ROAD, PITTSBURGH, PA, 15237","Match","Exact","325 THOMPSON RUN RD, PITTSBURGH, PA, 15237",623378799,"L"
173432,"325 THORNDALE COURT","ROSWELL","GA",30075,34.024556487,-84.395701649,432,"325 THORNDALE COURT, ROSWELL, GA, 30075","Match","Exact","325 THORNDALE CT, ROSWELL, GA, 30075",17373127,"L"
173433,"325 TOSCANO COURT","ROSEVILLE","CA",95661,38.7495379540001,-121.238545491,433,"325 TOSCANO COURT, ROSEVILLE, CA, 95661","Match","Exact","325 TOSCANO CT, ROSEVILLE, CA, 95661",608088295,"L"
173434,"325 TREMONT STREET","CHARLESTON,","WV",25303,38.3623354040001,-81.682618023,434,"325 TREMONT STREET, CHARLESTON,, WV, 25303","Match","Exact","325 TREMONT ST, CHARLESTON, WV, 25303",78590081,"L"
173435,"325 TRYON AVENUE","ENGLEWOOD","NJ",7631,40.904788678,-73.984463735,435,"325 TRYON AVENUE, ENGLEWOOD, NJ, 7631","Match","Exact","325 TRYON AVE, ENGLEWOOD, NJ, 07631",64372850,"R"
173436,"325 UNDERHILL AVE","BRONX","NY",10475,40.811789096,-73.8578668879999,436,"325 UNDERHILL AVE, BRONX, NY, 10475","Match","Non_Exact","325 UNDERHILL AVE, BRONX, NY, 10473",80305171,"L"
173437,"325 UNION AVENUE","MEMPIS","TN",38103,35.141341004,-90.046652719,437,"325 UNION AVENUE, MEMPIS, TN, 38103","Match","Non_Exact","325 UNION AVE, MEMPHIS, TN, 38103",637460430,"R"
173438,"325 US HIGHWAY 43","WINFIELD","AL",35594,33.9201916810001,-87.810569736,438,"325 US HIGHWAY 43, WINFIELD, AL, 35594","Match","Exact","325 US HWY 43, WINFIELD, AL, 35594",639927764,"L"
173439,"325 VILLAGE ROAD","MICHIGAN CITY","IN",46360,41.6733224070001,-86.9001675489999,439,"325 VILLAGE ROAD, MICHIGAN CITY, IN, 46360","Match","Exact","325 VILLAGE RD, MICHIGAN CITY, IN, 46360",647855870,"R"
173440,"325 W 11TH STREET APT 5R","NEW YORK","NY",10014,40.73564865,-74.00739458,440,"325 W 11TH STREET APT 5R, NEW YORK, NY, 10014","Match","Non_Exact","325 W 11TH ST, NEW YORK, NY, 10014",59659857,"R"
173441,"325 W 3RD UNIT 301","LONG BEACH","CA",90802,NA,NA,441,"325 W 3RD UNIT 301, LONG BEACH, CA, 90802","No_Match",NA,NA,NA,NA
173442,"325 W 45TH STREET APT 812","NEW YORK","NY",10036,40.7596802250001,-73.989602175,442,"325 W 45TH STREET APT 812, NEW YORK, NY, 10036","Match","Non_Exact","325 W 45TH ST, NEW YORK, NY, 10036",650078642,"R"
173443,"325 W 8TH ST APT 304","LOS ANGELES","CA",90014,NA,NA,443,"325 W 8TH ST APT 304, LOS ANGELES, CA, 90014","Tie",NA,NA,NA,NA
173444,"325 W 8TH STREET","PORT ARTHUR","TX",77640,NA,NA,444,"325 W 8TH STREET, PORT ARTHUR, TX, 77640","Tie",NA,NA,NA,NA
173445,"325 W BELDEN AVE APT 3","CHICAGO","IL",60614,41.923796248,-87.637621623,445,"325 W BELDEN AVE APT 3, CHICAGO, IL, 60614","Match","Non_Exact","325 W BELDEN AVE, CHICAGO, IL, 60614",605242651,"L"
173446,"325 W EVERGREEN DR","APPLETON","WI",54913,44.3018226290001,-88.408483985,446,"325 W EVERGREEN DR, APPLETON, WI, 54913","Match","Exact","325 W EVERGREEN DR, APPLETON, WI, 54913",640623430,"L"
173447,"325 W HORNE STREET","CLAYTON","NC",27520,35.6535446070001,-78.4632915339999,447,"325 W HORNE STREET, CLAYTON, NC, 27520","Match","Exact","325 W HORNE ST, CLAYTON, NC, 27520",26533826,"L"
173448,"325 W HUNTINGTON DR","MONROVIA","CA",91016,34.1403374930001,-118.009472567,448,"325 W HUNTINGTON DR, MONROVIA, CA, 91016","Match","Exact","325 W HUNTINGTON DR, MONROVIA, CA, 91016",142743394,"R"
173449,"325 W KENTUCKY AVE","WILLIAMSFIELD","IL",61489,40.926643717,-90.022393686,449,"325 W KENTUCKY AVE, WILLIAMSFIELD, IL, 61489","Match","Exact","325 W KENTUCKY AVE, WILLIAMSFIELD, IL, 61489",650509090,"R"
173450,"325 W MAIN ST -  PO BOX 144","COUNCIL GROVE","KS",66846,38.6360630980001,-96.674390008,450,"325 W MAIN ST -  PO BOX 144, COUNCIL GROVE, KS, 66846","Match","Non_Exact","325 MAIN ST, COUNCIL GROVE, KS, 66873",88173785,"L"
173451,"325 W MAIN ST STE 150","LOUISVILLE","KY",40202,NA,NA,451,"325 W MAIN ST STE 150, LOUISVILLE, KY, 40202","Tie",NA,NA,NA,NA
173452,"325 W MIDDLEBURY STREET","SHIPSHEWANA","IN",46565,41.6762975240001,-85.585468417,452,"325 W MIDDLEBURY STREET, SHIPSHEWANA, IN, 46565","Match","Exact","325 MIDDLEBURY ST, SHIPSHEWANA, IN, 46565",649976702,"R"
173453,"325 W YELLOW ST","FRANCESVILLE","IN",47946,40.9863631630001,-86.885131432,453,"325 W YELLOW ST, FRANCESVILLE, IN, 47946","Match","Exact","325 W YELLOW ST, FRANCESVILLE, IN, 47946",15487483,"R"
173454,"325 W37TH ST 5F","NEW YORK","NY",10018,NA,NA,454,"325 W37TH ST 5F, NEW YORK, NY, 10018","No_Match",NA,NA,NA,NA
173455,"325 WALLACE LANE","FREDERICKSBURG","VA",22408,38.264745749,-77.49937211,455,"325 WALLACE LANE, FREDERICKSBURG, VA, 22408","Match","Exact","325 WALLACE LN, FREDERICKSBURG, VA, 22408",85028180,"L"
173456,"325 WASHINGTON AVE S 435","KENT","WA",98032,47.3803600210001,-122.247450762,456,"325 WASHINGTON AVE S 435, KENT, WA, 98032","Match","Exact","325 WASHINGTON AVE S, KENT, WA, 98032",187008780,"R"
173457,"325 WASHINGTON AVE UNIT 61","KENT","WA",98032,NA,NA,457,"325 WASHINGTON AVE UNIT 61, KENT, WA, 98032","Tie",NA,NA,NA,NA
173458,"325 WASHINGTON AVENUE","WASHBURN","WI",54891,46.672770336,-90.894798685,458,"325 WASHINGTON AVENUE, WASHBURN, WI, 54891","Match","Non_Exact","325 N WASHINGTON AVE, WASHBURN, WI, 54891",194282265,"L"
173459,"325 WASHINGTON STREET","AURORA","IN",47001,39.064691876,-84.8998798279999,459,"325 WASHINGTON STREET, AURORA, IN, 47001","Match","Exact","325 WASHINGTON ST, AURORA, IN, 47001",76871761,"R"
173460,"325 WEST 2ND ST","CLARKSDALE","MS",38614,34.2007881480001,-90.584028156,460,"325 WEST 2ND ST, CLARKSDALE, MS, 38614","Match","Exact","325 W 2ND ST, CLARKSDALE, MS, 38614",951152,"L"
173461,"325 WEST 38TH STREET","NEW YORK","NY",10018,40.755055849,-73.9924391769999,461,"325 WEST 38TH STREET, NEW YORK, NY, 10018","Match","Exact","325 W 38TH ST, NEW YORK, NY, 10018",59655210,"R"
173462,"325 WEST 45TH ST APT 205","NYC","NY",10036,40.7596728280001,-73.9895845519999,462,"325 WEST 45TH ST APT 205, NYC, NY, 10036","Match","Exact","325 W 45TH ST, NEW YORK, NY, 10036",650078642,"R"
173463,"325 WEST 550 SOUTH","BOONE GROVE","IN",46302,41.3547295610001,-87.127774968,463,"325 WEST 550 SOUTH, BOONE GROVE, IN, 46302","Match","Exact","325 W 550 S, BOONE GROVE, IN, 46302",119905959,"R"
173464,"325 WEST MAIN STREET  SUITE 150","LOUISVILLE","KY",40202,38.256492338,-85.755328154,464,"325 WEST MAIN STREET  SUITE 150, LOUISVILLE, KY, 40202","Match","Exact","325 W MAIN ST, LOUISVILLE, KY, 40202",96844696,"R"
173465,"325 WEST MOUNTAIN STREET","KERNERSVILLE","NC",27285,36.1234330720001,-80.0772467789999,465,"325 WEST MOUNTAIN STREET, KERNERSVILLE, NC, 27285","Match","Non_Exact","325 W MOUNTAIN ST, KERNERSVILLE, NC, 27284",84635125,"R"
173466,"325 WEST PUGH DRIVE","SPRINGBORO","OH",45066,39.586082203,-84.2183766589999,466,"325 WEST PUGH DRIVE, SPRINGBORO, OH, 45066","Match","Exact","325 W PUGH DR, SPRINGBORO, OH, 45066",143605546,"L"
173467,"325 WEST QUEEN STREET","SOUTHINGTON","CT",6489,41.639385954,-72.890814672,467,"325 WEST QUEEN STREET, SOUTHINGTON, CT, 6489","Match","Exact","325 W QUEEN ST, SOUTHINGTON, CT, 06489",3503909,"R"
173468,"325 WHITES LANE","WHEELING","WV",26003,40.0254351670001,-80.688279622,468,"325 WHITES LANE, WHEELING, WV, 26003","Match","Exact","325 WHITES LN, WHEELING, WV, 26003",646628039,"R"
173469,"325 WHITNEY AVE PO BOX 3141","ALBANY","GA",31701,31.572289476,-84.154154523,469,"325 WHITNEY AVE PO BOX 3141, ALBANY, GA, 31701","Match","Non_Exact","325 W WHITNEY AVE, ALBANY, GA, 31701",84324000,"R"
173470,"325 WILDFLOWER COURT","AZUSA","CA",91702,34.156220537,-117.91078852,470,"325 WILDFLOWER COURT, AZUSA, CA, 91702","Match","Non_Exact","325 WILDFLOWER ST, AZUSA, CA, 91702",141796523,"R"
173471,"325 WOODLAND SPRINGS LANE","BOONE","NC",28607,36.2435215180001,-81.722857615,471,"325 WOODLAND SPRINGS LANE, BOONE, NC, 28607","Match","Exact","325 WOODLAND SPRINGS LN, BOONE, NC, 28607",653472517,"L"
173472,"325","ATLANTA","GA",30312,NA,NA,472,"325, ATLANTA, GA, 30312","No_Match",NA,NA,NA,NA
173473,"325","TURTLE CREEK","PA",15145,NA,NA,473,"325, TURTLE CREEK, PA, 15145","No_Match",NA,NA,NA,NA
173474,"3250  S PRAIRIE ST  N2","CHICAGO","IL",60616,NA,NA,474,"3250  S PRAIRIE ST  N2, CHICAGO, IL, 60616","No_Match",NA,NA,NA,NA
173475,"3250 140TH STREET","RIVERSIDE","IA",52327,41.452784868,-91.5173794299999,475,"3250 140TH STREET, RIVERSIDE, IA, 52327","Match","Exact","3250 140TH ST, RIVERSIDE, IA, 52327",634360313,"R"
173476,"3250 16TH AVE S","MINNEAPOLIS","MN",55407,44.9438250850001,-93.251214389,476,"3250 16TH AVE S, MINNEAPOLIS, MN, 55407","Match","Exact","3250 16TH AVE S, MINNEAPOLIS, MN, 55407",43634755,"R"
173477,"3250 44TH ST","VERO BEACH","FL",32967,27.6728418490001,-80.4186842829999,477,"3250 44TH ST, VERO BEACH, FL, 32967","Match","Exact","3250 44TH ST, VERO BEACH, FL, 32967",120339258,"L"
173478,"3250 46TH AVE SW","SEATTLE","WA",98116,47.575137285,-122.390778632,478,"3250 46TH AVE SW, SEATTLE, WA, 98116","Match","Exact","3250 46TH AVE SW, SEATTLE, WA, 98116",186660897,"L"
173479,"3250 AIRPORT WAY S SUITE 419","SEATTLE","WA",98134,47.574883217,-122.321395873,479,"3250 AIRPORT WAY S SUITE 419, SEATTLE, WA, 98134","Match","Exact","3250 AIRPORT WAY S, SEATTLE, WA, 98134",647870173,"L"
173480,"3250 BACK RD","WOODSTOCK","VA",22664,38.903239781,-78.583051645,480,"3250 BACK RD, WOODSTOCK, VA, 22664","Match","Exact","3250 BACK RD, WOODSTOCK, VA, 22664",55941741,"R"
173481,"3250 BOB MALKAS DRIVE","LANSING","IL",60438,NA,NA,481,"3250 BOB MALKAS DRIVE, LANSING, IL, 60438","No_Match",NA,NA,NA,NA
173482,"3250 FAIRESTA STREET","GLENDALE","CA",91214,NA,NA,482,"3250 FAIRESTA STREET, GLENDALE, CA, 91214","No_Match",NA,NA,NA,NA
173483,"3250 GREY HAWK CT","CARLSBAD","CA",92010,33.1304857280001,-117.237691405,483,"3250 GREY HAWK CT, CARLSBAD, CA, 92010","Match","Exact","3250 GREY HAWK CT, CARLSBAD, CA, 92010",612857922,"L"
173484,"3250 HARRISON","SAN BERNARDINO","CA",92404,34.1541579400001,-117.264468716,484,"3250 HARRISON, SAN BERNARDINO, CA, 92404","Match","Non_Exact","3250 HARRISON ST, SAN BERNARDINO, CA, 92404",144654319,"L"
173485,"3250 HEIGHTS DRIVE","CAMERON PARK","CA",95682,38.6612113050001,-120.983496876,485,"3250 HEIGHTS DRIVE, CAMERON PARK, CA, 95682","Match","Exact","3250 HEIGHTS DR, CAMERON PARK, CA, 95682",635390439,"L"
173486,"3250 LAKEVIEW DR","WINTER HAVEN","FL",33884,27.978113421,-81.689967858,486,"3250 LAKEVIEW DR, WINTER HAVEN, FL, 33884","Match","Non_Exact","3250 LAKEVIEW DR SE, WINTER HAVEN, FL, 33884",104984883,"R"
173487,"3250 LONE OAK DRIVE","BATON ROUGE","LA",70814,30.4796665380001,-91.105618407,487,"3250 LONE OAK DRIVE, BATON ROUGE, LA, 70814","Match","Exact","3250 LONE OAK DR, BATON ROUGE, LA, 70814",92188915,"R"
173488,"3250 MARKET ST STE 305","RIVERSIDE","CA",92501,33.988051725,-117.37197959,488,"3250 MARKET ST STE 305, RIVERSIDE, CA, 92501","Match","Exact","3250 MARKET ST, RIVERSIDE, CA, 92501",194741970,"L"
173489,"3250 MONROE ST","SANTA CLARA","CA",95051,37.3669629950001,-121.986000877,489,"3250 MONROE ST, SANTA CLARA, CA, 95051","Match","Exact","3250 MONROE ST, SANTA CLARA, CA, 95051",122897915,"L"
173490,"3250 MONTANA","CINCINNATI","OH",45211,39.149136008,-84.608882391,490,"3250 MONTANA, CINCINNATI, OH, 45211","Match","Non_Exact","3250 MONTANA AVE, CINCINNATI, OH, 45211",103917078,"R"
173491,"3250 N POST RD 180","INDIANAPOLIS","IN",46226,39.8157218280001,-86.009807156,491,"3250 N POST RD 180, INDIANAPOLIS, IN, 46226","Match","Non_Exact","3250 N POST RD, INDIANAPOLIS, IN, 46226",108012253,"L"
173492,"3250 NACOGDOCHES RD","SAN ANTONIO","TX",78217,29.5277335860001,-98.43548528,492,"3250 NACOGDOCHES RD, SAN ANTONIO, TX, 78217","Match","Exact","3250 NACOGDOCHES RD, SAN ANTONIO, TX, 78217",101546297,"R"
173493,"3250 NE 188TH STREET APT202","AVENTURA","FL",33180,25.949507082,-80.136054883,493,"3250 NE 188TH STREET APT202, AVENTURA, FL, 33180","Match","Non_Exact","3250 NE 188TH ST, AVENTURA, FL, 33180",633328909,"R"
173494,"3250 NE 1ST AVE STE 305","MIAMI","FL",33137,25.807479415,-80.192900784,494,"3250 NE 1ST AVE STE 305, MIAMI, FL, 33137","Match","Non_Exact","3250 NE 1ST AVE, MIAMI, FL, 33137",650140516,"L"
173495,"3250 NE 1ST AVE SUITE 305","MIAMI","FL",33137,25.807479415,-80.192900784,495,"3250 NE 1ST AVE SUITE 305, MIAMI, FL, 33137","Match","Non_Exact","3250 NE 1ST AVE, MIAMI, FL, 33137",650140516,"L"
173496,"3250 OLD EVERGREEN WAY","ALPHARETTA","GA",30022,34.0321381910001,-84.264995879,496,"3250 OLD EVERGREEN WAY, ALPHARETTA, GA, 30022","Match","Exact","3250 OLD EVERGREEN WAY, ALPHARETTA, GA, 30022",17376720,"L"
173497,"3250 ONEAL CIRCLE APT C24","BOULDER","CO",80301,40.033224483,-105.251697925,497,"3250 ONEAL CIRCLE APT C24, BOULDER, CO, 80301","Match","Non_Exact","3250 O'NEAL CIR, BOULDER, CO, 80301",608828531,"L"
173498,"3250 PLACE DU JARDIN","SAN JOSE","CA",95148,37.31709777,-121.774774781,498,"3250 PLACE DU JARDIN, SAN JOSE, CA, 95148","Match","Exact","3250 PLACE DU JARDIN, SAN JOSE, CA, 95148",618191806,"R"
173499,"3250 PLUM GROVE RD","ROLLING MEADOWS","IL",60008,42.061706605,-88.0203846969999,499,"3250 PLUM GROVE RD, ROLLING MEADOWS, IL, 60008","Match","Non_Exact","3250 PLUM GROVE DR, ROLLING MDWS, IL, 60008",111698407,"R"
173500,"3250 PLUM GROVE ROAD","ROLLING MEADOWS","IL",60008,42.061706605,-88.0203846969999,500,"3250 PLUM GROVE ROAD, ROLLING MEADOWS, IL, 60008","Match","Non_Exact","3250 PLUM GROVE DR, ROLLING MDWS, IL, 60008",111698407,"R"
