"ID","Address","City","State","Zip","lat","long","id","input_address","match_indicator","match_type","matched_address","tiger_line_id","tiger_side"
245501,"5558 MARKET ST","PHILADELPHIA","PA",19139,39.9608611940001,-75.231986825,1,"5558 MARKET ST, PHILADELPHIA, PA, 19139","Match","Exact","5558 MARKET ST, PHILADELPHIA, PA, 19139",647563142,"L"
245502,"5558 RED FOX CT","MASON","OH",45040,39.3563891910001,-84.323887298,2,"5558 RED FOX CT, MASON, OH, 45040","Match","Exact","5558 RED FOX CT, MASON, OH, 45040",159039834,"R"
245503,"5558 RUSTIC HILL DR","HERRIMAN","UT",84096,NA,NA,3,"5558 RUSTIC HILL DR, HERRIMAN, UT, 84096","No_Match",NA,NA,NA,NA
245504,"5558 S AVON ST","SEATTLE","WA",98178,47.5013627430001,-122.26336472,4,"5558 S AVON ST, SEATTLE, WA, 98178","Match","Exact","5558 S AVON ST, SEATTLE, WA, 98178",239765755,"L"
245505,"5558 WILSON LANDING RD","CHICO","CA",95973,39.7968368940001,-121.954615597,5,"5558 WILSON LANDING RD, CHICO, CA, 95973","Match","Exact","5558 WILSON LANDING RD, CHICO, CA, 95973",68410967,"R"
245506,"55587 827 1/2 RD","MADISON","NE",68748,41.8229400430001,-97.41501585,6,"55587 827 1/2 RD, MADISON, NE, 68748","Match","Exact","55587 827 1/2 RD, MADISON, NE, 68748",161575692,"R"
245507,"5559 FOREST EDGE LANE","KENNESAW","GA",30152,33.975541795,-84.714887631,7,"5559 FOREST EDGE LANE, KENNESAW, GA, 30152","Match","Exact","5559 FOREST EDGE LN, KENNESAW, GA, 30152",651478813,"R"
245508,"5559 HAMPTON ST","PITTSBURGH","PA",15210,40.4757991720001,-79.925632439,8,"5559 HAMPTON ST, PITTSBURGH, PA, 15210","Match","Non_Exact","5559 HAMPTON ST, PITTSBURGH, PA, 15206",51644074,"L"
245509,"5559 HAMPTON STREET","PITTSBURGH","PA",15206,40.4757991720001,-79.925632439,9,"5559 HAMPTON STREET, PITTSBURGH, PA, 15206","Match","Exact","5559 HAMPTON ST, PITTSBURGH, PA, 15206",51644074,"L"
245510,"5559 LAKESHORE RD","BUFORD","GA",30518,34.1440677370001,-83.996862947,10,"5559 LAKESHORE RD, BUFORD, GA, 30518","Match","Exact","5559 LAKESHORE RD, BUFORD, GA, 30518",88966810,"R"
245511,"5559 NW BARRY RD","KANSAS CITY","MO",64154,39.2467092890001,-94.6443660469999,11,"5559 NW BARRY RD, KANSAS CITY, MO, 64154","Match","Exact","5559 NW BARRY RD, KANSAS CITY, MO, 64154",39706092,"L"
245512,"5559 STARDUST ROAD","LA CANADA FLINTRIDGE","CA",91011,34.206294428,-118.178677367,12,"5559 STARDUST ROAD, LA CANADA FLINTRIDGE, CA, 91011","Match","Exact","5559 STARDUST RD, LA CANADA, CA, 91011",642861602,"L"
245513,"556 79TH STREET","BROOKLYN","NY",11209,40.625711777,-74.022535482,13,"556 79TH STREET, BROOKLYN, NY, 11209","Match","Exact","556 79TH ST, BROOKLYN, NY, 11209",59097799,"R"
245514,"556 A CARY CIR","EASTMAN","GA",31023,32.1951996660001,-83.17099713,14,"556 A CARY CIR, EASTMAN, GA, 31023","Match","Exact","556 CARY CIR, EASTMAN, GA, 31023",9516355,"L"
245515,"556 AZTEC DRIVE","BOULDER","CO",80303,39.9967564240001,-105.227923378,15,"556 AZTEC DRIVE, BOULDER, CO, 80303","Match","Exact","556 AZTEC DR, BOULDER, CO, 80303",220749927,"R"
245516,"556 BOOMER FERGUSON SCHOOL ROAD","BOOMER","NC",28606,36.1010567970001,-81.298988424,16,"556 BOOMER FERGUSON SCHOOL ROAD, BOOMER, NC, 28606","Match","Exact","556 BOOMER FERGUSON SCHOOL RD, BOOMER, NC, 28606",46136204,"R"
245517,"556 BROOKSIDE DRIVE","TOMS RIVER","NJ",8753,39.957171562,-74.165288258,17,"556 BROOKSIDE DRIVE, TOMS RIVER, NJ, 8753","Match","Exact","556 BROOKSIDE DR, TOMS RIVER, NJ, 08753",203728692,"R"
245518,"556 CENTRAL TURNPIKE","SUTTON","MA",1590,42.1230120650001,-71.782662306,18,"556 CENTRAL TURNPIKE, SUTTON, MA, 1590","Match","Exact","556 CENTRAL TPKE, SUTTON, MA, 01590",636369021,"L"
245519,"556 CHICKADEE LANE","VICTOR","MT",59875,46.387427793,-114.19307962,19,"556 CHICKADEE LANE, VICTOR, MT, 59875","Match","Exact","556 CHICKADEE LN, VICTOR, MT, 59875",153532519,"L"
245520,"556 CLAYTON CT","SLIDELL","LA",70461,30.2792300310001,-89.711539161,20,"556 CLAYTON CT, SLIDELL, LA, 70461","Match","Exact","556 CLAYTON CT, SLIDELL, LA, 70461",611483237,"R"
245521,"556 DARWIN BLVD","EDISON","NJ",8820,40.583174178,-74.341184184,21,"556 DARWIN BLVD, EDISON, NJ, 8820","Match","Exact","556 DARWIN BLVD, EDISON, NJ, 08820",60362009,"R"
245522,"556 EAST 12300 SOUTH","DRAPER","UT",84020,40.5267015040001,-111.875728618,22,"556 EAST 12300 SOUTH, DRAPER, UT, 84020","Match","Exact","556 E 12300 S, DRAPER, UT, 84020",176131746,"R"
245523,"556 EAST 96TH STREET","BROOKLYN","NY",11212,40.654956499,-73.9146274,23,"556 EAST 96TH STREET, BROOKLYN, NY, 11212","Match","Exact","556 E 96TH ST, BROOKLYN, NY, 11212",640860054,"R"
245524,"556 EAST LELAND AVENUE","SOUTH SALT LAKE","UT",84106,40.705500822,-111.875105085,24,"556 EAST LELAND AVENUE, SOUTH SALT LAKE, UT, 84106","Match","Exact","556 E LELAND AVE, S SALT LAKE, UT, 84106",621649189,"R"
245525,"556 ENCLAVE CIRCLE","FULTONDALE","AL",35068,33.596026205,-86.8205968789999,25,"556 ENCLAVE CIRCLE, FULTONDALE, AL, 35068","Match","Exact","556 ENCLAVE CIR, FULTONDALE, AL, 35068",637804297,"L"
245526,"556 EWING ST","PRINCETON","NJ",8540,40.3689757110001,-74.6581293519999,26,"556 EWING ST, PRINCETON, NJ, 8540","Match","Exact","556 EWING ST, PRINCETON, NJ, 08540",60170667,"L"
245527,"556 EWING STREET","PRINCETON","NJ",8540,40.3689757110001,-74.6581293519999,27,"556 EWING STREET, PRINCETON, NJ, 8540","Match","Exact","556 EWING ST, PRINCETON, NJ, 08540",60170667,"L"
245528,"556 FRANESI WAY","SACRAMENTO","CA",95838,38.646149418,-121.453397012,28,"556 FRANESI WAY, SACRAMENTO, CA, 95838","Match","Exact","556 FRANESI WAY, SACRAMENTO, CA, 95838",133380506,"L"
245529,"556 FRANKLIN ST","CAMBRIDGE","MA",2139,NA,NA,29,"556 FRANKLIN ST, CAMBRIDGE, MA, 2139","Tie",NA,NA,NA,NA
245530,"556 HIDDEN WAY","HOMER","AK",99603,59.640359512,-151.55648103,30,"556 HIDDEN WAY, HOMER, AK, 99603","Match","Exact","556 HIDDEN WAY, HOMER, AK, 99603",191032814,"R"
245531,"556 HUGHES ROAD","MADISON","AL",35758,34.714697862,-86.7418086329999,31,"556 HUGHES ROAD, MADISON, AL, 35758","Match","Exact","556 HUGHES RD, MADISON, AL, 35758",58195952,"R"
245532,"556 HUSKINS BRANCH RD","MARION","NC",28752,35.7773243440001,-82.04837735,32,"556 HUSKINS BRANCH RD, MARION, NC, 28752","Match","Exact","556 HUSKINS BRANCH RD, MARION, NC, 28752",35914118,"L"
245533,"556 JONES ST UNIT 304","SAN FRANCISCO","CA",94102,37.786468336,-122.413097873,33,"556 JONES ST UNIT 304, SAN FRANCISCO, CA, 94102","Match","Exact","556 JONES ST, SAN FRANCISCO, CA, 94102",192280912,"R"
245534,"556 LEEDS AVE","INDIANAPOLIS","IN",46203,39.7587694360001,-86.1175780569999,34,"556 LEEDS AVE, INDIANAPOLIS, IN, 46203","Match","Exact","556 LEEDS AVE, INDIANAPOLIS, IN, 46203",652688627,"R"
245535,"556 LUNDEE PL","MEMPHIS","TN",38111,35.117564256,-89.9681306849999,35,"556 LUNDEE PL, MEMPHIS, TN, 38111","Match","Non_Exact","556 LUNDEE ST, MEMPHIS, TN, 38111",72918076,"L"
245536,"556 MADISON AVE","PATERSON","NJ",7514,40.921834882,-74.152723373,36,"556 MADISON AVE, PATERSON, NJ, 7514","Match","Exact","556 MADISON AVE, PATERSON, NJ, 07514",65264265,"R"
245537,"556 MORNINGSTAR DRIVE","ELLWOOD CITY","PA",16117,40.8533102920001,-80.249786311,37,"556 MORNINGSTAR DRIVE, ELLWOOD CITY, PA, 16117","Match","Exact","556 MORNINGSTAR DR, ELLWOOD CITY, PA, 16117",52588365,"L"
245538,"556 N DIAMOND BAR BLVD STE 111","DIAMOND BAR","CA",91765,NA,NA,38,"556 N DIAMOND BAR BLVD STE 111, DIAMOND BAR, CA, 91765","Tie",NA,NA,NA,NA
245539,"556 N DIAMOND BAR BLVD STE 210","DIAMOND BAR","CA",91765,NA,NA,39,"556 N DIAMOND BAR BLVD STE 210, DIAMOND BAR, CA, 91765","Tie",NA,NA,NA,NA
245540,"556 N OLIVER AVE","FAYETTEVILLE","AR",72701,36.0713356380001,-94.1813776989999,40,"556 N OLIVER AVE, FAYETTEVILLE, AR, 72701","Match","Exact","556 N OLIVER AVE, FAYETTEVILLE, AR, 72701",49045011,"R"
245541,"556 NORTH MCDONOUGH STREET 1200","DECATUR","GA",30030,33.7740781260001,-84.2965283519999,41,"556 NORTH MCDONOUGH STREET 1200, DECATUR, GA, 30030","Match","Exact","556 N MCDONOUGH ST, DECATUR, GA, 30030",23404997,"L"
245542,"556 NORTH SHORE DRIVE - 16","SOUTH HAVEN","MI",49090,42.41534153,-86.273987749,42,"556 NORTH SHORE DRIVE - 16, SOUTH HAVEN, MI, 49090","Match","Exact","556 N SHORE DR, SOUTH HAVEN, MI, 49090",34759919,"R"
245543,"556 NORTH SHORE DRIVE LOT 16","SOUTH HAVEN","MI",49090,42.41534153,-86.273987749,43,"556 NORTH SHORE DRIVE LOT 16, SOUTH HAVEN, MI, 49090","Match","Exact","556 N SHORE DR, SOUTH HAVEN, MI, 49090",34759919,"R"
245544,"556 NORTH SHORE DRIVE SUITE 16","SOUTH HAVEN","MI",49090,42.41534153,-86.273987749,44,"556 NORTH SHORE DRIVE SUITE 16, SOUTH HAVEN, MI, 49090","Match","Exact","556 N SHORE DR, SOUTH HAVEN, MI, 49090",34759919,"R"
245545,"556 ORANGEWOOD CT","PALMDALE","CA",93550,34.5638580080001,-118.117700655,45,"556 ORANGEWOOD CT, PALMDALE, CA, 93550","Match","Exact","556 ORANGEWOOD CT, PALMDALE, CA, 93550",141799627,"L"
245546,"556 PINE VALLEY ROAD SE","MARIETTA","GA",30067,33.9339008420001,-84.430553973,46,"556 PINE VALLEY ROAD SE, MARIETTA, GA, 30067","Match","Exact","556 PINE VALLEY RD SE, MARIETTA, GA, 30067",17183761,"R"
245547,"556 ROEMER ROAD","ELGIN","TX",78621,30.37561974,-97.3382666809999,47,"556 ROEMER ROAD, ELGIN, TX, 78621","Match","Exact","556 ROEMER RD, ELGIN, TX, 78621",45490065,"R"
245548,"556 S FAIR OAKS AVE -17","PASADENA","CA",91105,34.1363263320001,-118.150374432,48,"556 S FAIR OAKS AVE -17, PASADENA, CA, 91105","Match","Non_Exact","556 S FAIR OAKS AVE, PASADENA, CA, 91105",141629680,"L"
245549,"556 SECOND STREET","YUBA CITY","CA",95991,39.137475163,-121.607199516,49,"556 SECOND STREET, YUBA CITY, CA, 95991","Match","Exact","556 2ND ST, YUBA CITY, CA, 95991",68569085,"L"
245550,"556 SOUTH 4TH STREET","LOUISVILLE","KY",40202,38.2496470780001,-85.757759,50,"556 SOUTH 4TH STREET, LOUISVILLE, KY, 40202","Match","Exact","556 S 4TH ST, LOUISVILLE, KY, 40202",646617676,"R"
245551,"556 STONE SHADOW DRIVE","BLACKLICK","OH",43004,39.9936301540001,-82.817091669,51,"556 STONE SHADOW DRIVE, BLACKLICK, OH, 43004","Match","Exact","556 STONE SHADOW DR, BLACKLICK, OH, 43004",218700436,"R"
245552,"556 SUMMER LAKE LN","VIRGINIA BEACH","VA",23454,36.778815981,-75.973169922,52,"556 SUMMER LAKE LN, VIRGINIA BEACH, VA, 23454","Match","Exact","556 SUMMER LAKE LN, VIRGINIA BCH, VA, 23454",122287965,"L"
245553,"556 TRAINA DR","PATTERSON","CA",95363,37.462231704,-121.13085908,53,"556 TRAINA DR, PATTERSON, CA, 95363","Match","Exact","556 TRAINA DR, PATTERSON, CA, 95363",102613097,"R"
245554,"556 TYLER STREET NW","ATLANTA","GA",30314,33.7627773200001,-84.4068171179999,54,"556 TYLER STREET NW, ATLANTA, GA, 30314","Match","Exact","556 TYLER ST NW, ATLANTA, GA, 30314",17395987,"L"
245555,"556 WEST 158TH STREET PO BOX 322028","NEW YORK","NY",10032,40.834153196,-73.943172901,55,"556 WEST 158TH STREET PO BOX 322028, NEW YORK, NY, 10032","Match","Exact","556 W 158TH ST, NEW YORK, NY, 10032",59655741,"L"
245556,"5560 BELLEFONTAINE RD","LIMA","OH",45804,40.704639958,-83.9999979689999,56,"5560 BELLEFONTAINE RD, LIMA, OH, 45804","Match","Non_Exact","5560 BELLFONTAINE RD, LIMA, OH, 45804",209545851,"R"
245557,"5560 MARTHA ST","INDIANAPOLIS","IN",46241,39.74588558,-86.253398514,57,"5560 MARTHA ST, INDIANAPOLIS, IN, 46241","Match","Exact","5560 MARTHA ST, INDIANAPOLIS, IN, 46241",107980024,"R"
245558,"5560 N TROPICAL TRAIL","MERRITT ISLAND","FL",32953,28.4571806480001,-80.716390858,58,"5560 N TROPICAL TRAIL, MERRITT ISLAND, FL, 32953","Match","Exact","5560 N TROPICAL TRL, MERRITT ISLAND, FL, 32953",93887162,"R"
245559,"5560 PERRYTOWN DRIVE","WEST BLOOMFIELD","MI",48322,42.5557655900001,-83.3849184539999,59,"5560 PERRYTOWN DRIVE, WEST BLOOMFIELD, MI, 48322","Match","Exact","5560 PERRYTOWN DR, W BLOOMFIELD, MI, 48322",69775315,"R"
245560,"5560 SAN ONOFRE TERRACE","SAN DIEGO","CA",92114,32.700230241,-117.076910451,60,"5560 SAN ONOFRE TERRACE, SAN DIEGO, CA, 92114","Match","Exact","5560 SAN ONOFRE TER, SAN DIEGO, CA, 92114",612875337,"L"
245561,"5560 SHELBY OAKS DR","MEMPHIS","TN",38134,35.1624238040001,-89.8746541579999,61,"5560 SHELBY OAKS DR, MEMPHIS, TN, 38134","Match","Exact","5560 SHELBY OAKS DR, MEMPHIS, TN, 38134",635944596,"L"
245562,"5560 SPECTRA CIR APT 110","FORT MYERS","FL",33908,26.4884033600001,-81.843836542,62,"5560 SPECTRA CIR APT 110, FORT MYERS, FL, 33908","Match","Exact","5560 SPECTRA CIR, FORT MYERS, FL, 33908",650582098,"L"
245563,"5560 STATELINE RD","WALLS","MS",38680,34.991654629,-90.088367224,63,"5560 STATELINE RD, WALLS, MS, 38680","Match","Exact","5560 STATELINE RD, WALLS, MS, 38680",91846572,"L"
245564,"5560 WILD ROSE LN","EAU CLAIRE","WI",54701,44.750779906,-91.463112275,64,"5560 WILD ROSE LN, EAU CLAIRE, WI, 54701","Match","Exact","5560 WILD ROSE LN, EAU CLAIRE, WI, 54701",46075554,"L"
245565,"5561 CAMERON BLVD","NEW ORLEANS","LA",70122,30.0150839730001,-90.0639488049999,65,"5561 CAMERON BLVD, NEW ORLEANS, LA, 70122","Match","Exact","5561 CAMERON BLVD, NEW ORLEANS, LA, 70122",191750550,"R"
245566,"5561 ENRIGHT AVE    SUITE 117","SAINT LOUIS","MO",63112,38.654778616,-90.2807329,66,"5561 ENRIGHT AVE    SUITE 117, SAINT LOUIS, MO, 63112","Match","Exact","5561 ENRIGHT AVE, SAINT LOUIS, MO, 63112",107594009,"R"
245567,"5561 KINSMAN ROAD","MIDDLEFIELD","OH",44062,41.4587557450001,-80.997134891,67,"5561 KINSMAN ROAD, MIDDLEFIELD, OH, 44062","Match","Exact","5561 KINSMAN RD, MIDDLEFIELD, OH, 44062",636567495,"R"
245568,"5561 NORTH 31ST STREET","MILWAUKEE","WI",53209,43.118484708,-87.951397744,68,"5561 NORTH 31ST STREET, MILWAUKEE, WI, 53209","Match","Exact","5561 N 31ST ST, MILWAUKEE, WI, 53209",77735553,"L"
245569,"5561 OLD STATE ROAD","EDINBORO","PA",16412,41.934478922,-80.1523768279999,69,"5561 OLD STATE ROAD, EDINBORO, PA, 16412","Match","Exact","5561 OLD STATE RD, EDINBORO, PA, 16412",117488843,"L"
245570,"5561 PANGOLA ROAD","FORT MYERS","FL",33905,26.663164405,-81.75772539,70,"5561 PANGOLA ROAD, FORT MYERS, FL, 33905","Match","Non_Exact","5561 PANGOLA DR, FORT MYERS, FL, 33905",118054287,"L"
245571,"5561 TOLLGATE ROAD","PIPERSVILLE","PA",18947,40.419454133,-75.0948405729999,71,"5561 TOLLGATE ROAD, PIPERSVILLE, PA, 18947","Match","Exact","5561 TOLLGATE RD, PIPERSVILLE, PA, 18947",648200802,"L"
245572,"5561-C MEMORIAL DRIVE","STONE MOUNTAIN","GA",30083,33.8007613360001,-84.210192634,72,"5561-C MEMORIAL DRIVE, STONE MOUNTAIN, GA, 30083","Match","Exact","5561 MEMORIAL DR, STONE MOUNTAIN, GA, 30083",23409657,"R"
245573,"5561-D VILLAGE WINDS DR","NOBLESVILLE","IN",46062,40.045931712,-86.076246308,73,"5561-D VILLAGE WINDS DR, NOBLESVILLE, IN, 46062","Match","Exact","5561 VILLAGE WINDS DR, NOBLESVILLE, IN, 46062",29332288,"R"
245574,"5562 CENTRAL AVENUE","BONITA","CA",91902,32.671994071,-117.01110689,74,"5562 CENTRAL AVENUE, BONITA, CA, 91902","Match","Exact","5562 CENTRAL AVE, BONITA, CA, 91902",195763963,"R"
245575,"5562 MALLARD TRAIL","LITHONIA","GA",30058,33.728023862,-84.1612532789999,75,"5562 MALLARD TRAIL, LITHONIA, GA, 30058","Match","Exact","5562 MALLARD TRL, LITHONIA, GA, 30058",23378654,"L"
245576,"5562 QUEEN ELIZABETH LANE","JACKSON","MS",39209,32.338736076,-90.273569653,76,"5562 QUEEN ELIZABETH LANE, JACKSON, MS, 39209","Match","Exact","5562 QUEEN ELIZABETH LN, JACKSON, MS, 39209",65379373,"R"
245577,"5562 S BRUNER ST","HINSDALE","IL",60521,41.7873196890001,-87.9426263,77,"5562 S BRUNER ST, HINSDALE, IL, 60521","Match","Exact","5562 S BRUNER ST, HINSDALE, IL, 60521",112549810,"R"
245578,"5562 SCHMALZRIED RD","LEVERING","MI",49755,45.665462604,-84.8004073119999,78,"5562 SCHMALZRIED RD, LEVERING, MI, 49755","Match","Exact","5562 SCHMALZRIED RD, LEVERING, MI, 49755",133980287,"R"
245579,"5563 BUTTE STREET","LEHIGH ACRES","FL",33971,26.6285125110001,-81.7491458819999,79,"5563 BUTTE STREET, LEHIGH ACRES, FL, 33971","Match","Exact","5563 BUTTE ST, LEHIGH ACRES, FL, 33971",117983748,"L"
245580,"5563 CARLETANS LN","THE PLAINS","VA",20198,38.804050321,-77.805908137,80,"5563 CARLETANS LN, THE PLAINS, VA, 20198","Match","Exact","5563 CARLETANS LN, THE PLAINS, VA, 20198",641144608,"R"
245581,"5563 POWERS CENTER POINT","COLORADO SPRINGS","CO",80923,NA,NA,81,"5563 POWERS CENTER POINT, COLORADO SPRINGS, CO, 80923","No_Match",NA,NA,NA,NA
245582,"5564 E 1150 NORTH ROAD","STANFORD","IL",61774,40.4505958080001,-89.153813578,82,"5564 E 1150 NORTH ROAD, STANFORD, IL, 61774","Match","Exact","5564 E 1150 NORTH RD, STANFORD, IL, 61774",20540001,"L"
245583,"5564 LITTLE MILL RD","BUFORD","GA",30518,34.133082223,-84.021504776,83,"5564 LITTLE MILL RD, BUFORD, GA, 30518","Match","Exact","5564 LITTLE MILL RD, BUFORD, GA, 30518",627612818,"L"
245584,"5564 SOUCHAK DR","WEST PALM BEACH","FL",33413,26.6854695750001,-80.1295051129999,84,"5564 SOUCHAK DR, WEST PALM BEACH, FL, 33413","Match","Exact","5564 SOUCHAK DR, WEST PALM BEACH, FL, 33413",115269515,"L"
245585,"5565 AUSTELL POWDER SPRINGS RD 400","AUSTELL","GA",30106,33.817849074,-84.6397046549999,85,"5565 AUSTELL POWDER SPRINGS RD 400, AUSTELL, GA, 30106","Match","Exact","5565 AUSTELL POWDER SPRINGS RD, AUSTELL, GA, 30106",17173240,"L"
245586,"5565 BIG BOAT DRIVE SW","ATLANTA","GA",30331,33.715669559,-84.572329596,86,"5565 BIG BOAT DRIVE SW, ATLANTA, GA, 30331","Match","Non_Exact","5565 BIG BOAT DR, ATLANTA, GA, 30331",627634554,"R"
245587,"5565 BLAINE AVE SUITE 225","INVER GROVE HEIGHTS","MN",55076,44.867618034,-93.053884662,87,"5565 BLAINE AVE SUITE 225, INVER GROVE HEIGHTS, MN, 55076","Match","Non_Exact","5565 BLAINE AVE E, INVER GROVE HEIGHTS, MN, 55076",37947643,"L"
245588,"5565 BRADLEY CIRCLE","LITHONIA","GA",30038,33.697298819,-84.1614034469999,88,"5565 BRADLEY CIRCLE, LITHONIA, GA, 30038","Match","Exact","5565 BRADLEY CIR, LITHONIA, GA, 30038",23382575,"R"
245589,"5565 CAMINITO MUNDANO","SAN DIEGO","CA",92130,NA,NA,89,"5565 CAMINITO MUNDANO, SAN DIEGO, CA, 92130","No_Match",NA,NA,NA,NA
245590,"5565 DEER CREEK DRIVE","DALLAS","TX",75228,32.792958884,-96.704159948,90,"5565 DEER CREEK DRIVE, DALLAS, TX, 75228","Match","Exact","5565 DEER CREEK DR, DALLAS, TX, 75228",102978716,"L"
245591,"5565 MANSION BLUFF APT 3006","SAN ANTONIO","TX",78245,NA,NA,91,"5565 MANSION BLUFF APT 3006, SAN ANTONIO, TX, 78245","No_Match",NA,NA,NA,NA
245592,"5565 MANSIONS BLUFF APT 2305","SAN ANTONIO","TX",78245,29.3766531910001,-98.7554871679999,92,"5565 MANSIONS BLUFF APT 2305, SAN ANTONIO, TX, 78245","Match","Non_Exact","5565 MANSIONS BLFS, SAN ANTONIO, TX, 78245",648222619,"L"
245593,"5565 MANSIONS BLUFFS  APT 4005","SAN ANTONIO","TX",78245,29.3766531910001,-98.7554871679999,93,"5565 MANSIONS BLUFFS  APT 4005, SAN ANTONIO, TX, 78245","Match","Exact","5565 MANSIONS BLFS, SAN ANTONIO, TX, 78245",648222619,"L"
245594,"5565 MOLLER RD","INDIANAPOLIS","IN",46254,39.8522123750001,-86.25456163,94,"5565 MOLLER RD, INDIANAPOLIS, IN, 46254","Match","Exact","5565 MOLLER RD, INDIANAPOLIS, IN, 46254",108026151,"R"
245595,"5565 PINE AVENUE","CHINO HILLS","CA",91709,33.946952561,-117.68327405,95,"5565 PINE AVENUE, CHINO HILLS, CA, 91709","Match","Exact","5565 PINE AVE, CHINO HILLS, CA, 91709",145224339,"L"
245596,"5565 PROVIDENCE CHURCH RD","WINSTON SALEM","NC",27105,36.19591753,-80.234234685,96,"5565 PROVIDENCE CHURCH RD, WINSTON SALEM, NC, 27105","Match","Exact","5565 PROVIDENCE CHURCH RD, WINSTON SALEM, NC, 27105",649729272,"R"
245597,"5565 SILVER CREEK VALLEY RD STE 60","SAN JOSE","CA",95138,37.2591803060001,-121.784781672,97,"5565 SILVER CREEK VALLEY RD STE 60, SAN JOSE, CA, 95138","Match","Exact","5565 SILVER CREEK VALLEY RD, SAN JOSE, CA, 95138",647564006,"L"
245598,"5565 THORNGROVE WAY","SPRINGHILL","FL",34609,28.504527174,-82.501756831,98,"5565 THORNGROVE WAY, SPRINGHILL, FL, 34609","Match","Non_Exact","5565 THORNGROVE WAY, SPRING HILL, FL, 34609",85468085,"L"
245599,"5565 W JACKSON BLVD","CHICAGO","IL",60644,41.8765463450001,-87.763631178,99,"5565 W JACKSON BLVD, CHICAGO, IL, 60644","Match","Exact","5565 W JACKSON BLVD, CHICAGO, IL, 60644",111754885,"L"
245600,"5566 CRYSTAL FALLS STREET","DUBLIN","OH",43016,NA,NA,100,"5566 CRYSTAL FALLS STREET, DUBLIN, OH, 43016","No_Match",NA,NA,NA,NA
245601,"5566 FOXBORO AVENUE NW","CANTON","OH",44718,40.8617750020001,-81.482127597,101,"5566 FOXBORO AVENUE NW, CANTON, OH, 44718","Match","Exact","5566 FOXBORO AVE NW, CANTON, OH, 44718",64671759,"R"
245602,"5566 LONGEST DRIVE","SOUTH BELOIT","IL",61080,42.4816380080001,-89.008360913,102,"5566 LONGEST DRIVE, SOUTH BELOIT, IL, 61080","Match","Exact","5566 LONGEST DR, SOUTH BELOIT, IL, 61080",606592998,"L"
245603,"5566 MAIN STREET - 207","FRISCO","TX",75033,33.153073453,-96.832418355,103,"5566 MAIN STREET - 207, FRISCO, TX, 75033","Match","Exact","5566 MAIN ST, FRISCO, TX, 75033",615043612,"R"
245604,"5566 OAKDALE RD","MABLETON","GA",30126,33.817945047,-84.4997308979999,104,"5566 OAKDALE RD, MABLETON, GA, 30126","Match","Non_Exact","5566 OAKDALE RD SE, MABLETON, GA, 30126",17250275,"R"
245605,"5566 TYLERTOWN AVE","MEMPHIS","TN",38134,35.2148313860001,-89.877702299,105,"5566 TYLERTOWN AVE, MEMPHIS, TN, 38134","Match","Exact","5566 TYLERTOWN AVE, MEMPHIS, TN, 38134",72924048,"L"
245606,"5566 W 10180 N","HIGHLAND","UT",84003,40.4169450580001,-111.791614435,106,"5566 W 10180 N, HIGHLAND, UT, 84003","Match","Exact","5566 W 10180 N, HIGHLAND, UT, 84003",134214086,"L"
245607,"5567 RESEDA BLVD SUITE 118","TARZANA","CA",91356,34.171539674,-118.536005685,107,"5567 RESEDA BLVD SUITE 118, TARZANA, CA, 91356","Match","Exact","5567 RESEDA BLVD, TARZANA, CA, 91356",141554930,"L"
245608,"5567 RIGHTWOOD WAY","SACRAMENTO","CA",95823,38.45029716,-121.4393885,108,"5567 RIGHTWOOD WAY, SACRAMENTO, CA, 95823","Match","Exact","5567 RIGHTWOOD WAY, SACRAMENTO, CA, 95823",133380027,"R"
245609,"5568 WOODBINE RD STE 46","MILTON","FL",32571,30.639329258,-87.181782848,109,"5568 WOODBINE RD STE 46, MILTON, FL, 32571","Match","Exact","5568 WOODBINE RD, MILTON, FL, 32571",74592667,"R"
245610,"55680 CALIFORNIA RD","DOWAGIAC","MI",49047,41.9902537520001,-86.155743373,110,"55680 CALIFORNIA RD, DOWAGIAC, MI, 49047","Match","Exact","55680 CALIFORNIA RD, DOWAGIAC, MI, 49047",22573507,"R"
245611,"5569 N CLEO","FRESNO","CA",93722,36.8182912350001,-119.88225983,111,"5569 N CLEO, FRESNO, CA, 93722","Match","Non_Exact","5569 N CLEO AVE, FRESNO, CA, 93722",625007767,"L"
245612,"5569 POWDER HORN DR","WEST BLOOMFIELD","MI",48322,42.5567282980001,-83.3477123329999,112,"5569 POWDER HORN DR, WEST BLOOMFIELD, MI, 48322","Match","Exact","5569 POWDER HORN DR, W BLOOMFIELD, MI, 48322",69726183,"L"
245613,"5569 SIMM COURT","FREMONT","CA",94538,37.5158374980001,-121.976373765,113,"5569 SIMM COURT, FREMONT, CA, 94538","Match","Exact","5569 SIMM CT, FREMONT, CA, 94538",125031063,"R"
245614,"5569 SW113 AVENUE","COOPER CITY","FL",33330,NA,NA,114,"5569 SW113 AVENUE, COOPER CITY, FL, 33330","No_Match",NA,NA,NA,NA
245615,"5569 SYCAMORE CANYON DR","KISSIMMEE","FL",34758,28.2334948760001,-81.507182582,115,"5569 SYCAMORE CANYON DR, KISSIMMEE, FL, 34758","Match","Exact","5569 SYCAMORE CANYON DR, KISSIMMEE, FL, 34758",638652361,"R"
245616,"5569 TEMPLAR STREET","COLUMBUS","OH",43232,39.9140978460001,-82.8454759379999,116,"5569 TEMPLAR STREET, COLUMBUS, OH, 43232","Match","Exact","5569 TEMPLAR ST, COLUMBUS, OH, 43232",218558471,"R"
245617,"5569 VENUS LANE","FAIRFIELD","OH",45014,39.3240204840001,-84.529035419,117,"5569 VENUS LANE, FAIRFIELD, OH, 45014","Match","Exact","5569 VENUS LN, FAIRFIELD, OH, 45014",113807261,"R"
245618,"557 AVAWAM DRIVE","RICHMOND","KY",40475,37.8824546610001,-84.358325784,118,"557 AVAWAM DRIVE, RICHMOND, KY, 40475","Match","Exact","557 AVAWAM DR, RICHMOND, KY, 40475",32007044,"L"
245619,"557 AVENUE Z    SUITE 2A","BROOKLYN","NY",11223,40.5859164760001,-73.973025117,119,"557 AVENUE Z    SUITE 2A, BROOKLYN, NY, 11223","Match","Exact","557 AVE Z, BROOKLYN, NY, 11223",59090851,"L"
245620,"557 BELLVIEW CIRCLE","MONCKS CORNER","SC",29461,33.228404524,-79.994175142,120,"557 BELLVIEW CIRCLE, MONCKS CORNER, SC, 29461","Match","Exact","557 BELLVIEW CIR, MONCKS CORNER, SC, 29461",652418386,"L"
245621,"557 CAPRI RD","COCOA BEACH","FL",32931,28.3282991030001,-80.615431854,121,"557 CAPRI RD, COCOA BEACH, FL, 32931","Match","Exact","557 CAPRI RD, COCOA BEACH, FL, 32931",93899168,"R"
245622,"557 CARROLL ST SUITE  2","BROOKLYN","NY",11215,40.675890828,-73.983215807,122,"557 CARROLL ST SUITE  2, BROOKLYN, NY, 11215","Match","Exact","557 CARROLL ST, BROOKLYN, NY, 11215",59075675,"L"
245623,"557 COUNTY ROAD 513","PITTSTOWN","NJ",8867,40.5708446510001,-75.0139294689999,123,"557 COUNTY ROAD 513, PITTSTOWN, NJ, 8867","Match","Exact","557 CO RD 513, PITTSTOWN, NJ, 08867",60015258,"R"
245624,"557 COUNTY ROUTE 513","PITTSTOWN","NJ",8867,40.5708446510001,-75.0139294689999,124,"557 COUNTY ROUTE 513, PITTSTOWN, NJ, 8867","Match","Non_Exact","557 CO RD 513, PITTSTOWN, NJ, 08867",60015258,"R"
245625,"557 DOVE TER W","OLDSMAR","FL",34677,28.0425835020001,-82.699300512,125,"557 DOVE TER W, OLDSMAR, FL, 34677","Match","Non_Exact","557 DOVE TER, OLDSMAR, FL, 34677",624535944,"R"
245626,"557 E AVE","CORONADO","CA",92118,32.693416932,-117.178301728,126,"557 E AVE, CORONADO, CA, 92118","Match","Exact","557 E AVE, CORONADO, CA, 92118",195344051,"L"
245627,"557 EAST BAY STREET PO BX 22572","CHARLESTON","SC",29413,32.7922128920001,-79.931219896,127,"557 EAST BAY STREET PO BX 22572, CHARLESTON, SC, 29413","Match","Non_Exact","557 E BAY ST, CHARLESTON, SC, 29403",108850096,"L"
245628,"557 EAST PEENPACK TRAIL","PORT JERVIS","NY",12780,41.4303933790001,-74.676775027,128,"557 EAST PEENPACK TRAIL, PORT JERVIS, NY, 12780","Match","Non_Exact","557 E PEENPACK TRL, SPARROW BUSH, NY, 12780",635467693,"L"
245629,"557 FARMINGTON CIRCLE","EVANS","GA",30809,33.521624682,-82.172329267,129,"557 FARMINGTON CIRCLE, EVANS, GA, 30809","Match","Exact","557 FARMINGTON CIR, EVANS, GA, 30809",612734062,"L"
245630,"557 GILLESPIE DRIVE","ALLEN","TX",75002,33.075006645,-96.6722944909999,130,"557 GILLESPIE DRIVE, ALLEN, TX, 75002","Match","Exact","557 GILLESPIE DR, ALLEN, TX, 75002",210523522,"L"
245631,"557 GRAND CONCOURSE AVENUE STE 6075","BRONX","NY",10451,40.819078672,-73.927074472,131,"557 GRAND CONCOURSE AVENUE STE 6075, BRONX, NY, 10451","Match","Non_Exact","557 GRAND CONCOURSE, BRONX, NY, 10451",80300096,"L"
245632,"557 GRAND CONCOURSE STE 125","BRONX","NY",10453,40.819078672,-73.927074472,132,"557 GRAND CONCOURSE STE 125, BRONX, NY, 10453","Match","Non_Exact","557 GRAND CONCOURSE, BRONX, NY, 10451",80300096,"L"
245633,"557 GRAND CONCOURSE SUITE 3-128","BRONX","NY",10451,40.819078672,-73.927074472,133,"557 GRAND CONCOURSE SUITE 3-128, BRONX, NY, 10451","Match","Exact","557 GRAND CONCOURSE, BRONX, NY, 10451",80300096,"L"
245634,"557 HAMPTON GROVE","ALLENDALE","SC",29810,33.0106859910001,-81.3179120349999,134,"557 HAMPTON GROVE, ALLENDALE, SC, 29810","Match","Exact","557 HAMPTON GROVE, ALLENDALE, SC, 29810",19040803,"R"
245635,"557 HOLMESVILLE HILL RD","SOUTH NEW BERLIN","NY",13843,42.5132431270001,-75.402833669,135,"557 HOLMESVILLE HILL RD, SOUTH NEW BERLIN, NY, 13843","Match","Exact","557 HOLMESVILLE HILL RD, S NEW BERLIN, NY, 13843",46423310,"R"
245636,"557 LAWRENCE STREET","MONTGOMERY","AL",36104,NA,NA,136,"557 LAWRENCE STREET, MONTGOMERY, AL, 36104","Tie",NA,NA,NA,NA
245637,"557 LESTER ST","MEMPHIS","TN",38112,35.148390116,-89.965240055,137,"557 LESTER ST, MEMPHIS, TN, 38112","Match","Exact","557 LESTER ST, MEMPHIS, TN, 38112",72913256,"L"
245638,"557 MAIN STREET","ROANOKE","AL",36274,33.150583517,-85.366054336,138,"557 MAIN STREET, ROANOKE, AL, 36274","Match","Exact","557 MAIN ST, ROANOKE, AL, 36274",1633951,"L"
245639,"557 MILWAUKEE STREET","DENVER","CO",80206,39.7249557820001,-104.952217547,139,"557 MILWAUKEE STREET, DENVER, CO, 80206","Match","Exact","557 MILWAUKEE ST, DENVER, CO, 80206",177338276,"L"
245640,"557 N 94TH PL","MESA","AZ",85207,33.4262292390001,-111.628110812,140,"557 N 94TH PL, MESA, AZ, 85207","Match","Exact","557 N 94TH PL, MESA, AZ, 85207",128786762,"L"
245641,"557 N SCOTT ST","JOLIET","IL",60432,41.53452163,-88.080379616,141,"557 N SCOTT ST, JOLIET, IL, 60432","Match","Exact","557 N SCOTT ST, JOLIET, IL, 60432",111541551,"L"
245642,"557 NASSAU STREET","ORANGE","NJ",7050,40.7645676340001,-74.2474746729999,142,"557 NASSAU STREET, ORANGE, NJ, 7050","Match","Exact","557 NASSAU ST, ORANGE, NJ, 07050",63447273,"R"
245643,"557 NORTH SCOTT STREET","JOLIET","IL",60432,41.53451669,-88.080379391,143,"557 NORTH SCOTT STREET, JOLIET, IL, 60432","Match","Exact","557 N SCOTT ST, JOLIET, IL, 60432",111541551,"L"
245644,"557 OLD STAGE ROAD","GLEN BURNIE","MD",21061,39.1427041760001,-76.634132124,144,"557 OLD STAGE ROAD, GLEN BURNIE, MD, 21061","Match","Exact","557 OLD STAGE RD, GLEN BURNIE, MD, 21061",68184633,"L"
245645,"557 PELICAN BAY DR","DAYTONA BEACH","FL",32119,29.153951734,-81.045575491,145,"557 PELICAN BAY DR, DAYTONA BEACH, FL, 32119","Match","Exact","557 PELICAN BAY DR, DAYTONA BEACH, FL, 32119",653192366,"L"
245646,"557 RENZ AVENUE","SELLERSBURG","IN",47172,38.4086552320001,-85.753344953,146,"557 RENZ AVENUE, SELLERSBURG, IN, 47172","Match","Exact","557 RENZ AVE, SELLERSBURG, IN, 47172",653536997,"L"
245647,"557 RHODESTOWN RD","JACKSONVILLE","NC",28540,34.834520191,-77.5124226629999,147,"557 RHODESTOWN RD, JACKSONVILLE, NC, 28540","Match","Exact","557 RHODESTOWN RD, JACKSONVILLE, NC, 28540",620026210,"R"
245648,"557 RONNOC LANE","NEW SMYRNA","FL",32168,29.0296529230001,-80.931918415,148,"557 RONNOC LANE, NEW SMYRNA, FL, 32168","Match","Exact","557 RONNOC LN, NEW SMYRNA, FL, 32168",94532184,"R"
245649,"557 SE APRIL LN","LAKE CITY","FL",32025,30.0914035690001,-82.586043723,149,"557 SE APRIL LN, LAKE CITY, FL, 32025","Match","Exact","557 SE APRIL LN, LAKE CITY, FL, 32025",5141559,"R"
245650,"557 W CULLERTON STREET","CHICAGO","IL",60616,41.855679292,-87.640907483,150,"557 W CULLERTON STREET, CHICAGO, IL, 60616","Match","Exact","557 W CULLERTON ST, CHICAGO, IL, 60616",605101766,"L"
245651,"557 WALLER ST","SAN FRANCISCO","CA",94117,37.770826125,-122.432954905,151,"557 WALLER ST, SAN FRANCISCO, CA, 94117","Match","Exact","557 WALLER ST, SAN FRANCISCO, CA, 94117",192283586,"L"
245652,"557 WEST 3750 NORTH","PLEASANT VIEW","UT",84414,41.3247318460001,-111.989616743,152,"557 WEST 3750 NORTH, PLEASANT VIEW, UT, 84414","Match","Exact","557 W 3750 N, PLEASANT VIEW, UT, 84414",155710638,"L"
245653,"557 WILLIAMS ST","CONNEAUT","OH",44030,41.950456816,-80.574435477,153,"557 WILLIAMS ST, CONNEAUT, OH, 44030","Match","Exact","557 WILLIAMS ST, CONNEAUT, OH, 44030",117309971,"L"
245654,"557","OAKDALE","CT",6370,NA,NA,154,"557, OAKDALE, CT, 6370","No_Match",NA,NA,NA,NA
245655,"5570 BANTRY LANE","FITCHBURG","WI",53711,43.0195656500001,-89.4296438969999,155,"5570 BANTRY LANE, FITCHBURG, WI, 53711","Match","Exact","5570 BANTRY LN, FITCHBURG, WI, 53711",49500726,"L"
245656,"5570 CAMINO DORADO","YORBA LINDA","CA",92887,33.877763911,-117.728306797,156,"5570 CAMINO DORADO, YORBA LINDA, CA, 92887","Match","Non_Exact","5570 CAMINO VIS, YORBA LINDA, CA, 92887",144126671,"R"
245657,"5570 DAYBREAK DRIVE","RENO","NV",89523,39.5339835290001,-119.877201616,157,"5570 DAYBREAK DRIVE, RENO, NV, 89523","Match","Exact","5570 DAYBREAK DR, RENO, NV, 89523",107088116,"L"
245658,"5570 FM 423 STE 250 UNIT 1105","FRISCO","TX",75036,NA,NA,158,"5570 FM 423 STE 250 UNIT 1105, FRISCO, TX, 75036","No_Match",NA,NA,NA,NA
245659,"5570 GOLDCREST DR","CINCINNATI","OH",45238,39.132576983,-84.6283680929999,159,"5570 GOLDCREST DR, CINCINNATI, OH, 45238","Match","Exact","5570 GOLDCREST DR, CINCINNATI, OH, 45238",103917143,"R"
245660,"5570 HANDLEY BLVD","MORROW","GA",30260,33.603393784,-84.3214142799999,160,"5570 HANDLEY BLVD, MORROW, GA, 30260","Match","Exact","5570 HANDLEY BLVD, MORROW, GA, 30260",23315629,"L"
245661,"5570 NW 44TH ST UNIT 516A","LAUDERHILL","FL",33319,26.1792860800001,-80.2239630939999,161,"5570 NW 44TH ST UNIT 516A, LAUDERHILL, FL, 33319","Match","Non_Exact","5570 NW 44TH ST, LAUDERHILL, FL, 33319",635435351,"R"
245662,"5570 NW 44TH STREET 202A","LAUDERHILL","FL",33319,26.1792860800001,-80.2239630939999,162,"5570 NW 44TH STREET 202A, LAUDERHILL, FL, 33319","Match","Non_Exact","5570 NW 44TH ST, LAUDERHILL, FL, 33319",635435351,"R"
245663,"5570 S US HWY 17-92","ORLANDO","FL",32707,NA,NA,163,"5570 S US HWY 17-92, ORLANDO, FL, 32707","No_Match",NA,NA,NA,NA
245664,"5570 SCHUTTA ROAD","SHOREVIEW","MN",55126,45.1093829010001,-93.178356171,164,"5570 SCHUTTA ROAD, SHOREVIEW, MN, 55126","Match","Exact","5570 SCHUTTA RD, SHOREVIEW, MN, 55126",97634626,"R"
245665,"5570 SW 3RD STREET","CORVALLIS","OR",97333,44.5025012360001,-123.270428069,165,"5570 SW 3RD STREET, CORVALLIS, OR, 97333","Match","Exact","5570 SW 3RD ST, CORVALLIS, OR, 97333",650967456,"L"
245666,"5570 TREELINE DR","COLUMBUS","IN",47201,39.181905252,-85.984906071,166,"5570 TREELINE DR, COLUMBUS, IN, 47201","Match","Exact","5570 TREELINE DR, COLUMBUS, IN, 47201",636874547,"L"
245667,"5570 VALERIO TRAIL","SAN DIEGO","CA",92130,32.961958597,-117.200173446,167,"5570 VALERIO TRAIL, SAN DIEGO, CA, 92130","Match","Exact","5570 VALERIO TRL, SAN DIEGO, CA, 92130",612889700,"L"
245668,"55701 GLENBROOKE DR","SHELBY TWP","MI",48316,NA,NA,168,"55701 GLENBROOKE DR, SHELBY TWP, MI, 48316","No_Match",NA,NA,NA,NA
245669,"55708 ELDER RD","MISHAWAKA","IN",46545,41.684802726,-86.143469261,169,"55708 ELDER RD, MISHAWAKA, IN, 46545","Match","Exact","55708 ELDER RD, MISHAWAKA, IN, 46545",646947208,"L"
245670,"55708 ELDER ROAD","MISHAWAKA","IN",46545,41.684802726,-86.143469261,170,"55708 ELDER ROAD, MISHAWAKA, IN, 46545","Match","Exact","55708 ELDER RD, MISHAWAKA, IN, 46545",646947208,"L"
245671,"5571 BENT GRASS WAY","DOUGLASVILLE","GA",30135,33.654001082,-84.747797887,171,"5571 BENT GRASS WAY, DOUGLASVILLE, GA, 30135","Match","Exact","5571 BENT GRASS WAY, DOUGLASVILLE, GA, 30135",618476874,"L"
245672,"5571 EAST DIONYSUS DR","FLORENCE","AZ",85132,33.1070795410001,-111.50647932,172,"5571 EAST DIONYSUS DR, FLORENCE, AZ, 85132","Match","Exact","5571 E DIONYSUS DR, FLORENCE, AZ, 85132",626677797,"L"
245673,"5571 LAKESHORE ROAD","BUFORD","GA",30510,34.1441423310001,-83.996824268,173,"5571 LAKESHORE ROAD, BUFORD, GA, 30510","Match","Non_Exact","5571 LAKESHORE RD, BUFORD, GA, 30518",88966810,"R"
245674,"5571 N UNIVERSITY DRIVE STE 101","CORAL SPRINGS","FL",33067,26.2977783480001,-80.2501891969999,174,"5571 N UNIVERSITY DRIVE STE 101, CORAL SPRINGS, FL, 33067","Match","Non_Exact","5571 N UNIVERSITY DR, CORAL SPRINGS, FL, 33067",616391609,"L"
245675,"5571 PERGOLA LANE","PROVIDENCE FORGE","VA",23140,37.4734175450001,-76.9843586229999,175,"5571 PERGOLA LANE, PROVIDENCE FORGE, VA, 23140","Match","Non_Exact","5571 PERGOLA CT, PROVIDENCE FORGE, VA, 23140",625630079,"L"
245676,"5571 STATE RT 6","ANDOVER","OH",44003,NA,NA,176,"5571 STATE RT 6, ANDOVER, OH, 44003","No_Match",NA,NA,NA,NA
245677,"5571 SUWANEE DAM RD","SUGAR HILL","GA",30518,34.1031987580001,-84.083676624,177,"5571 SUWANEE DAM RD, SUGAR HILL, GA, 30518","Match","Exact","5571 SUWANEE DAM RD, SUGAR HILL, GA, 30518",640547680,"R"
245678,"5571 W 71ST STREET","INDIANAPOLIS","IN",46254,39.8817237660001,-86.258639935,178,"5571 W 71ST STREET, INDIANAPOLIS, IN, 46254","Match","Non_Exact","5571 W 71ST ST, INDIANAPOLIS, IN, 46268",108036674,"L"
245679,"5571 WASHINGTON AVE APT A","MUSKEGON","MI",49442,43.253142967,-86.1077972799999,179,"5571 WASHINGTON AVE APT A, MUSKEGON, MI, 49442","Match","Exact","5571 WASHINGTON AVE, MUSKEGON, MI, 49442",77656441,"R"
245680,"5572 CANDY COVE TRAIL SE","PRIOR LAKE","MN",55372,44.725164787,-93.408468645,180,"5572 CANDY COVE TRAIL SE, PRIOR LAKE, MN, 55372","Match","Exact","5572 CANDY COVE TRL SE, PRIOR LAKE, MN, 55372",38142061,"L"
245681,"5572 GARDEN VILLAGE WAY","GREENSBORO","NC",27410,NA,NA,181,"5572 GARDEN VILLAGE WAY, GREENSBORO, NC, 27410","No_Match",NA,NA,NA,NA
245682,"5572 KIRKWOOD HIGHWAY","WILMINGTON","DE",19808,39.715433154,-75.6733969969999,182,"5572 KIRKWOOD HIGHWAY, WILMINGTON, DE, 19808","Match","Exact","5572 KIRKWOOD HWY, WILMINGTON, DE, 19808",640701345,"L"
245683,"5572 MAIDENHEAD DRIVE","WINDSOR","CO",80550,NA,NA,183,"5572 MAIDENHEAD DRIVE, WINDSOR, CO, 80550","No_Match",NA,NA,NA,NA
245684,"5572 NC HWY 33 E","GRIMESLAND","NC",27837,35.5883701830001,-77.266803964,184,"5572 NC HWY 33 E, GRIMESLAND, NC, 27837","Match","Non_Exact","5572 STATE HWY 33 E, GRIMESLAND, NC, 27837",80040609,"R"
245685,"5573 CONNIE LN","SHINGLE SPRINGS","GU",95682,NA,NA,185,"5573 CONNIE LN, SHINGLE SPRINGS, GU, 95682","No_Match",NA,NA,NA,NA
245686,"5573 STURBRIDGE WAY","COLLEGE PARK","GA",30349,33.6047401650001,-84.484038974,186,"5573 STURBRIDGE WAY, COLLEGE PARK, GA, 30349","Match","Non_Exact","5573 STURBRIDGE WAY SW, COLLEGE PARK, GA, 30349",17339279,"R"
245687,"5574 102 NW PLACE","DORAL","FL",33178,NA,NA,187,"5574 102 NW PLACE, DORAL, FL, 33178","No_Match",NA,NA,NA,NA
245688,"5574 BLIND BROWN ROAD","BAILEY","MS",39320,32.4974815950001,-88.7347517969999,188,"5574 BLIND BROWN ROAD, BAILEY, MS, 39320","Match","Exact","5574 BLIND BROWN RD, BAILEY, MS, 39320",607999607,"L"
245689,"5574 GRAMMERCY DRIVE SW","ATLANTA","GA",30349,33.661241112,-84.563219536,189,"5574 GRAMMERCY DRIVE SW, ATLANTA, GA, 30349","Match","Exact","5574 GRAMMERCY DR SW, ATLANTA, GA, 30349",629825138,"R"
245690,"5574 LANGFORD LANE","LAKE OSWEGO","OR",97035,45.414293468,-122.734371202,190,"5574 LANGFORD LANE, LAKE OSWEGO, OR, 97035","Match","Exact","5574 LANGFORD LN, LAKE OSWEGO, OR, 97035",157943951,"R"
245691,"5574 NW 102ND PL","DORAL","FL",33178,25.8239486840001,-80.36293442,191,"5574 NW 102ND PL, DORAL, FL, 33178","Match","Exact","5574 NW 102ND PL, DORAL, FL, 33178",116305272,"L"
245692,"5575 CONNER AVENUE SUTE 201","DETROIT","MI",48213,42.3912293010001,-82.980419715,192,"5575 CONNER AVENUE SUTE 201, DETROIT, MI, 48213","Match","Non_Exact","5575 CONNER ST, DETROIT, MI, 48213",95484940,"L"
245693,"5575 CONNERS ST","DETROIT","MI",48213,NA,NA,193,"5575 CONNERS ST, DETROIT, MI, 48213","No_Match",NA,NA,NA,NA
245694,"5575 E 490 RD","CLAREMORE","OK",74019,NA,NA,194,"5575 E 490 RD, CLAREMORE, OK, 74019","No_Match",NA,NA,NA,NA
245695,"5575 ERROL PLACE","ATLANTA","GA",30327,33.9083101420001,-84.3991003,195,"5575 ERROL PLACE, ATLANTA, GA, 30327","Match","Non_Exact","5575 ERROL PL NW, ATLANTA, GA, 30327",17333260,"R"
245696,"5575 HUNTERS FOREST LANE","COLLEGE PARK","GA",30349,33.601756107,-84.462515588,196,"5575 HUNTERS FOREST LANE, COLLEGE PARK, GA, 30349","Match","Exact","5575 HUNTERS FOREST LN, COLLEGE PARK, GA, 30349",17377427,"L"
245697,"5575 JEFFERSON PLACE","MERRILLVILLE","IN",46410,41.5169102510001,-87.339447706,197,"5575 JEFFERSON PLACE, MERRILLVILLE, IN, 46410","Match","Exact","5575 JEFFERSON PL, MERRILLVILLE, IN, 46410",98434792,"L"
245698,"5575 KOWETA ROAD","ATLANTA","GA",30349,33.607872878,-84.5719767579999,198,"5575 KOWETA ROAD, ATLANTA, GA, 30349","Match","Exact","5575 KOWETA RD, ATLANTA, GA, 30349",17337978,"R"
245699,"5575 LEGIONNAIRE DRIVE","CICERO","NY",13039,43.175385841,-76.132292075,199,"5575 LEGIONNAIRE DRIVE, CICERO, NY, 13039","Match","Exact","5575 LEGIONNAIRE DR, CICERO, NY, 13039",46616956,"R"
245700,"5575 MACK ROAD","SACRAMENTO","CA",95823,38.47426088,-121.436336001,200,"5575 MACK ROAD, SACRAMENTO, CA, 95823","Match","Exact","5575 MACK RD, SACRAMENTO, CA, 95823",133417528,"L"
245701,"5575 N SIMMONS ST  STE 1-230","N LAS VEGAS","NV",89031,36.261020994,-115.179970466,201,"5575 N SIMMONS ST  STE 1-230, N LAS VEGAS, NV, 89031","Match","Exact","5575 SIMMONS ST, N LAS VEGAS, NV, 89031",649169402,"L"
245702,"5575 OGLESBY ROAD","ATLANTA","GA",30349,33.603616806,-84.519621764,202,"5575 OGLESBY ROAD, ATLANTA, GA, 30349","Match","Exact","5575 OGLESBY RD, ATLANTA, GA, 30349",17410987,"L"
245703,"5575 S SEMORAN BLVD STE 36","ORLANDO","FL",32822,28.4825092020001,-81.3100155179999,203,"5575 S SEMORAN BLVD STE 36, ORLANDO, FL, 32822","Match","Non_Exact","5575 S SEMORAN BLVD, ORLANDO, FL, 32822",637900126,"R"
245704,"5575 SCHEFFLERA PLACE","GRANT","FL",32949,27.926806577,-80.550775296,204,"5575 SCHEFFLERA PLACE, GRANT, FL, 32949","Match","Exact","5575 SCHEFFLERA PL, GRANT, FL, 32949",93935039,"L"
245705,"5575 SIMMONS ST 1-363","NORTH LAS VEGAS","NV",89031,36.2609958310001,-115.179970557,205,"5575 SIMMONS ST 1-363, NORTH LAS VEGAS, NV, 89031","Match","Exact","5575 SIMMONS ST, N LAS VEGAS, NV, 89031",649169402,"L"
245706,"5575 SIMMONS ST UNIT 1","NORTH","NV",89031,36.2609958310001,-115.179970557,206,"5575 SIMMONS ST UNIT 1, NORTH, NV, 89031","Match","Non_Exact","5575 SIMMONS ST, N LAS VEGAS, NV, 89031",649169402,"L"
245707,"5575 SIMMONS STREET STE 1-601","NORTH LAS VEGAS","NV",89031,36.2609958310001,-115.179970557,207,"5575 SIMMONS STREET STE 1-601, NORTH LAS VEGAS, NV, 89031","Match","Exact","5575 SIMMONS ST, N LAS VEGAS, NV, 89031",649169402,"L"
245708,"5575 STATE BRIDGE RD","JOHNS CREEK","GA",30022,34.0223938340001,-84.1963932849999,208,"5575 STATE BRIDGE RD, JOHNS CREEK, GA, 30022","Match","Exact","5575 STATE BRIDGE RD, JOHNS CREEK, GA, 30022",642678530,"R"
245709,"5575 STATE BRIDGE ROAD","JOHNS CREEK","GA",30022,34.0223938340001,-84.1963932849999,209,"5575 STATE BRIDGE ROAD, JOHNS CREEK, GA, 30022","Match","Exact","5575 STATE BRIDGE RD, JOHNS CREEK, GA, 30022",642678530,"R"
245710,"5575 TIMOTHY DRIVE","SAN DIEGO","CA",92105,32.729045996,-117.076051164,210,"5575 TIMOTHY DRIVE, SAN DIEGO, CA, 92105","Match","Exact","5575 TIMOTHY DR, SAN DIEGO, CA, 92105",195350866,"R"
245711,"5575 W LUTZ LAKE FERN ROAD","LUTZ","FL",33558,28.155777395,-82.536064956,211,"5575 W LUTZ LAKE FERN ROAD, LUTZ, FL, 33558","Match","Exact","5575 W LUTZ LAKE FERN RD, LUTZ, FL, 33558",633396975,"R"
245712,"5575 WARREN PARKWAY SUITE 210","FRISCO","TX",75034,33.1067177510001,-96.8388355179999,212,"5575 WARREN PARKWAY SUITE 210, FRISCO, TX, 75034","Match","Exact","5575 WARREN PKWY, FRISCO, TX, 75034",639538564,"R"
245713,"5575 WHITECAP STREET","LAS VEGAS","NV",89110,36.162000258,-115.051721654,213,"5575 WHITECAP STREET, LAS VEGAS, NV, 89110","Match","Non_Exact","5575 WHITE CAP ST, LAS VEGAS, NV, 89110",201876031,"R"
245714,"5576 APPLE RIDGE TRL","WEST BLOOMFIELD","MI",48322,42.5564992980001,-83.3491153699999,214,"5576 APPLE RIDGE TRL, WEST BLOOMFIELD, MI, 48322","Match","Exact","5576 APPLE RIDGE TRL, W BLOOMFIELD, MI, 48322",69818123,"R"
245715,"5576 CORPORATE AVENUE","CYPRESS","CA",90360,33.807136723,-118.034504847,215,"5576 CORPORATE AVENUE, CYPRESS, CA, 90360","Match","Non_Exact","5576 CORPORATE AVE, CYPRESS, CA, 90630",144000190,"R"
245716,"5576 DOUG TAYLOR CIRCLE APT 143","ST JAMES CITY","FL",33956,26.608344376,-82.1144180049999,216,"5576 DOUG TAYLOR CIRCLE APT 143, ST JAMES CITY, FL, 33956","Match","Exact","5576 DOUG TAYLOR CIR, SAINT JAMES CITY, FL, 33956",118002540,"R"
245717,"5576 INNOVATION DRIVE","VALLEY CITY","OH",44280,41.248692814,-81.886479707,217,"5576 INNOVATION DRIVE, VALLEY CITY, OH, 44280","Match","Exact","5576 INNOVATION DR, VALLEY CITY, OH, 44280",58688595,"R"
245718,"5576 ROSEMARY PLACE","NEW ORLEANS","LA",70124,29.9915285120001,-90.113094514,218,"5576 ROSEMARY PLACE, NEW ORLEANS, LA, 70124","Match","Exact","5576 ROSEMARY PL, NEW ORLEANS, LA, 70124",191700094,"L"
245719,"5576","COLUMBIA","MD",21045,NA,NA,219,"5576, COLUMBIA, MD, 21045","No_Match",NA,NA,NA,NA
245720,"5577 HUGH DRIVE","WASHINGTON TOWNSHIP","OH",45459,39.663304818,-84.174280476,220,"5577 HUGH DRIVE, WASHINGTON TOWNSHIP, OH, 45459","Match","Exact","5577 HUGH DR, WASHINGTON TOWNSHIP, OH, 45459",143581021,"R"
245721,"5577 SAINT LOUIS AVENUE","SAINT LOUIS","MO",63120,38.6779920600001,-90.269242382,221,"5577 SAINT LOUIS AVENUE, SAINT LOUIS, MO, 63120","Match","Exact","5577 SAINT LOUIS AVE, SAINT LOUIS, MO, 63120",107593022,"R"
245722,"55775 DESERT GOLD DR","YUCCA VALLEY","CA",92284,34.0988983610001,-116.447461379,222,"55775 DESERT GOLD DR, YUCCA VALLEY, CA, 92284","Match","Exact","55775 DESERT GOLD DR, YUCCA VALLEY, CA, 92284",144629514,"L"
245723,"55777 E 41ST AVE","STRASBURG","CO",80136,NA,NA,223,"55777 E 41ST AVE, STRASBURG, CO, 80136","No_Match",NA,NA,NA,NA
245724,"5578 BRADNA DRIVE","LOS ANGELES","CA",90043,33.9917059100001,-118.350242315,224,"5578 BRADNA DRIVE, LOS ANGELES, CA, 90043","Match","Exact","5578 BRADNA DR, LOS ANGELES, CA, 90043",141653755,"L"
245725,"5578 BRIGHT TIMBER LANDING DRIVE","SPRING","TX",77386,30.098385378,-95.342756729,225,"5578 BRIGHT TIMBER LANDING DRIVE, SPRING, TX, 77386","Match","Exact","5578 BRIGHT TIMBER LANDING DR, SPRING, TX, 77386",625661613,"L"
245726,"5578 ROSEMEAD BLVD STE 150","TEMPLE CITY","CA",91780,34.1009096820001,-118.07342782,226,"5578 ROSEMEAD BLVD STE 150, TEMPLE CITY, CA, 91780","Match","Exact","5578 ROSEMEAD BLVD, TEMPLE CITY, CA, 91780",615108639,"R"
245727,"5578 SWANSON ROAD","ELLENWOOD","GA",30294,33.6038141780001,-84.2826574379999,227,"5578 SWANSON ROAD, ELLENWOOD, GA, 30294","Match","Non_Exact","5578 SWANSON DR, ELLENWOOD, GA, 30294",624617004,"R"
245728,"5578 WATERMAN BLVD APT 3W","SAINT LOUIS","MO",63112,38.64944731,-90.2808731329999,228,"5578 WATERMAN BLVD APT 3W, SAINT LOUIS, MO, 63112","Match","Exact","5578 WATERMAN BLVD, SAINT LOUIS, MO, 63112",605106332,"L"
245729,"5579 CENTURY 21 BLVD APT 236","ORLANDO","FL",32807,28.5729324000001,-81.313138028,229,"5579 CENTURY 21 BLVD APT 236, ORLANDO, FL, 32807","Match","Exact","5579 CENTURY 21 BLVD, ORLANDO, FL, 32807",606103885,"R"
245730,"5579 ROCKY MOUNTAIN ROAD","FORT WORTH","TX",76137,32.8695212110001,-97.265803923,230,"5579 ROCKY MOUNTAIN ROAD, FORT WORTH, TX, 76137","Match","Exact","5579 ROCKY MOUNTAIN RD, FORT WORTH, TX, 76137",102086923,"L"
245731,"5579 VININGBROOK DRIVE","DUBLIN","OH",43016,40.0668194670001,-83.1533333689999,231,"5579 VININGBROOK DRIVE, DUBLIN, OH, 43016","Match","Exact","5579 VININGBROOK DR, DUBLIN, OH, 43016",647765525,"L"
245732,"5579B CHAMBLEE DUNWOODY RD STE 401","ATLANTA","GA",30338,33.9507287860001,-84.3364819,232,"5579B CHAMBLEE DUNWOODY RD STE 401, ATLANTA, GA, 30338","Match","Exact","5579 CHAMBLEE DUNWOODY RD, ATLANTA, GA, 30338",23382810,"R"
245733,"558 131ST AVE N","CHAPLIN","MN",55316,45.1922037240001,-93.406880659,233,"558 131ST AVE N, CHAPLIN, MN, 55316","Match","Non_Exact","558 131ST AVE N, CHAMPLIN, MN, 55316",43674178,"L"
245734,"558 21ST STREET","NEWPORT NEWS","VA",23607,36.978016973,-76.4194970139999,234,"558 21ST STREET, NEWPORT NEWS, VA, 23607","Match","Exact","558 21ST ST, NEWPORT NEWS, VA, 23607",103819569,"R"
245735,"558 COLUMBUS AVE","NEW YORK","NY",10024,40.7872173540001,-73.971647956,235,"558 COLUMBUS AVE, NEW YORK, NY, 10024","Match","Exact","558 COLUMBUS AVE, NEW YORK, NY, 10024",59656742,"L"
245736,"558 DANIEL DRIVE","NORTH VERNON","IN",47265,38.9934054660001,-85.6485626579999,236,"558 DANIEL DRIVE, NORTH VERNON, IN, 47265","Match","Exact","558 DANIEL DR, NORTH VERNON, IN, 47265",30121046,"L"
245737,"558 DENBIGH BLVD","NEWPORT NEWS","VA",23608,37.1372381360001,-76.5224661029999,237,"558 DENBIGH BLVD, NEWPORT NEWS, VA, 23608","Match","Exact","558 DENBIGH BLVD, NEWPORT NEWS, VA, 23608",103820034,"R"
245738,"558 EAST 181 STREET SUITE 2 E","BRONX","NY",10457,40.8510122590001,-73.892546989,238,"558 EAST 181 STREET SUITE 2 E, BRONX, NY, 10457","Match","Exact","558 E 181ST ST, BRONX, NY, 10457",639093427,"R"
245739,"558 EAST KENNEDY BLVD","EATONVILLE","FL",32751,28.6185336240001,-81.376205258,239,"558 EAST KENNEDY BLVD, EATONVILLE, FL, 32751","Match","Exact","558 E KENNEDY BLVD, EATONVILLE, FL, 32751",94276542,"R"
245740,"558 FOX PLAINS DRIVE","FLORISSANT","MO",63034,38.831012392,-90.301714993,240,"558 FOX PLAINS DRIVE, FLORISSANT, MO, 63034","Match","Exact","558 FOX PLAINS DR, FLORISSANT, MO, 63034",100143698,"R"
245741,"558 GRAND CONCOURSE NUMBER 560","BRONX","NY",10451,40.818997337,-73.9270976079999,241,"558 GRAND CONCOURSE NUMBER 560, BRONX, NY, 10451","Match","Exact","558 GRAND CONCOURSE, BRONX, NY, 10451",80300096,"R"
245742,"558 HAWTHORNE LANE","HARLEYSVILLE","PA",19438,40.272227946,-75.40850908,242,"558 HAWTHORNE LANE, HARLEYSVILLE, PA, 19438","Match","Exact","558 HAWTHORNE LN, HARLEYSVILLE, PA, 19438",605636852,"L"
245743,"558 HIGH MOUNTAIN ROAD","FRANKLIN LAKES","NJ",7417,40.98082069,-74.201554346,243,"558 HIGH MOUNTAIN ROAD, FRANKLIN LAKES, NJ, 7417","Match","Exact","558 HIGH MOUNTAIN RD, FRANKLIN LAKES, NJ, 07417",64404088,"L"
245744,"558 HWY 83 S","FORSYTH","GA",31029,NA,NA,244,"558 HWY 83 S, FORSYTH, GA, 31029","No_Match",NA,NA,NA,NA
245745,"558 JOANN AVE","AUSTELL","GA",30168,33.7853328590001,-84.5712304529999,245,"558 JOANN AVE, AUSTELL, GA, 30168","Match","Non_Exact","558 JO ANN AVE SW, AUSTELL, GA, 30168",17184936,"R"
245746,"558 LIME ROCK RD","LAKEVILLE","CT",6039,NA,NA,246,"558 LIME ROCK RD, LAKEVILLE, CT, 6039","No_Match",NA,NA,NA,NA
245747,"558 MINERAL SPRING AVE","PAWTUCKET","RI",2860,41.873010439,-71.406763268,247,"558 MINERAL SPRING AVE, PAWTUCKET, RI, 2860","Match","Exact","558 MINERAL SPRING AVE, PAWTUCKET, RI, 02860",47506062,"L"
245748,"558 N RIGGS LN","GOLIAD","TN",77963,NA,NA,248,"558 N RIGGS LN, GOLIAD, TN, 77963","No_Match",NA,NA,NA,NA
245749,"558 NORTH MARKET ST","WOOSTER","OH",44691,40.8039881110001,-81.941477775,249,"558 NORTH MARKET ST, WOOSTER, OH, 44691","Match","Exact","558 N MARKET ST, WOOSTER, OH, 44691",58734779,"L"
245750,"558 PERSINGER RD","CEDARCREEK","MO",65627,36.583533629,-93.047447617,250,"558 PERSINGER RD, CEDARCREEK, MO, 65627","Match","Exact","558 PERSINGER RD, CEDARCREEK, MO, 65627",20175393,"L"
245751,"558 PETTY AVE","ROANOKE","VA",24019,37.3380968550001,-79.9431631429999,251,"558 PETTY AVE, ROANOKE, VA, 24019","Match","Exact","558 PETTY AVE, ROANOKE, VA, 24019",62903641,"L"
245752,"558 PROSPECT STREET","MAPLEWOOD","NJ",7040,40.7314980310001,-74.265184136,252,"558 PROSPECT STREET, MAPLEWOOD, NJ, 7040","Match","Exact","558 PROSPECT ST, MAPLEWOOD, NJ, 07040",624522101,"L"
245753,"558 PUNAA STREET","KAILUA","HI",96734,21.4026275960001,-157.750549843,253,"558 PUNAA STREET, KAILUA, HI, 96734","Match","Exact","558 PUNAA ST, KAILUA, HI, 96734",203239174,"R"
245754,"558 RANCHO VILLA LN","CLARKDALE","AZ",86324,34.7649750210001,-112.071879164,254,"558 RANCHO VILLA LN, CLARKDALE, AZ, 86324","Match","Exact","558 RANCHO VILLA LN, CLARKDALE, AZ, 86324",159502860,"L"
245755,"558 SHRADERVILLE RD","SHEPHERD","TX",77371,30.492871026,-94.9595303739999,255,"558 SHRADERVILLE RD, SHEPHERD, TX, 77371","Match","Exact","558 SHRADERVILLE RD, SHEPHERD, TX, 77371",24266305,"L"
245756,"558 SW MAXWELL CT","FORT WHITE","FL",32038,29.9502046750001,-82.6997453019999,256,"558 SW MAXWELL CT, FORT WHITE, FL, 32038","Match","Exact","558 SW MAXWELL CT, FORT WHITE, FL, 32038",634692080,"R"
245757,"558 VALLEY ROAD","BROOKTONDALE","NY",14817,42.3814627300001,-76.39054713,257,"558 VALLEY ROAD, BROOKTONDALE, NY, 14817","Match","Exact","558 VALLEY RD, BROOKTONDALE, NY, 14817",18867447,"R"
245758,"558 WASHINGTON STREET SUITE 3","CANTON","MA",2021,42.1528840880001,-71.14724308,258,"558 WASHINGTON STREET SUITE 3, CANTON, MA, 2021","Match","Exact","558 WASHINGTON ST, CANTON, MA, 02021",87255974,"L"
245759,"558 WEST SIDE AVE FL 2","JERSEY CITY","NJ",7304,40.719881666,-74.08216053,259,"558 WEST SIDE AVE FL 2, JERSEY CITY, NJ, 7304","Match","Exact","558 W SIDE AVE, JERSEY CITY, NJ, 07304",59604170,"R"
245760,"5580 AVENIDA DEL TREN","YORBA LINDA","CA",92887,33.877539144,-117.727273267,260,"5580 AVENIDA DEL TREN, YORBA LINDA, CA, 92887","Match","Exact","5580 AVE DEL TREN, YORBA LINDA, CA, 92887",144126674,"L"
245761,"5580 COUNTY ROAD 277","KAUFMAN","TX",75142,32.6441374440001,-96.311752002,261,"5580 COUNTY ROAD 277, KAUFMAN, TX, 75142","Match","Exact","5580 CO RD 277, KAUFMAN, TX, 75142",123751966,"L"
245762,"5580 EAST GRANT STREET","ORLANDO","FL",32822,28.517143086,-81.3128832579999,262,"5580 EAST GRANT STREET, ORLANDO, FL, 32822","Match","Exact","5580 E GRANT ST, ORLANDO, FL, 32822",652515526,"R"
245763,"5580 FOUNTAIN LAKE CIR","BRADENTON","FL",34207,27.443339657,-82.5690896949999,263,"5580 FOUNTAIN LAKE CIR, BRADENTON, FL, 34207","Match","Exact","5580 FOUNTAIN LAKE CIR, BRADENTON, FL, 34207",16256271,"L"
245764,"5580 LA JOLLA BLVD SUITE 60","LA JOLLA","CA",92037,32.8134491750001,-117.269235246,264,"5580 LA JOLLA BLVD SUITE 60, LA JOLLA, CA, 92037","Match","Non_Exact","5580 LA JOLLA BLVD, LA JOLLA, CA, 92037",195299188,"L"
245765,"5580 LA JOLLA BLVD","LA JOLLA","CA",92037,32.8134491750001,-117.269235246,265,"5580 LA JOLLA BLVD, LA JOLLA, CA, 92037","Match","Exact","5580 LA JOLLA BLVD, LA JOLLA, CA, 92037",195299188,"L"
245766,"5580 LEAR NAGLE ROAD","NORTH RIDGEVILLE","OH",44039,41.4086568710001,-81.989419669,266,"5580 LEAR NAGLE ROAD, NORTH RIDGEVILLE, OH, 44039","Match","Exact","5580 LEAR NAGLE RD, N RIDGEVILLE, OH, 44039",55449944,"R"
245767,"5580 PINETREE RD","PARKLAND","FL",33067,26.298201476,-80.220259852,267,"5580 PINETREE RD, PARKLAND, FL, 33067","Match","Exact","5580 PINETREE RD, PARKLAND, FL, 33067",647919234,"R"
245768,"5580 RED HILL ROAD","PETALUMA","CA",94952,38.1738458,-122.672168738,268,"5580 RED HILL ROAD, PETALUMA, CA, 94952","Match","Exact","5580 RED HILL RD, PETALUMA, CA, 94952",192756209,"R"
245769,"5580 STATE RD FF","EDWARDS","MO",65326,38.239282213,-93.0691084329999,269,"5580 STATE RD FF, EDWARDS, MO, 65326","Match","Exact","5580 STATE RD FF, EDWARDS, MO, 65326",639940625,"L"
245770,"5580 W 80TH PLACE UNIT 48","ARVADA","CO",80003,39.84267462,-105.059205906,270,"5580 W 80TH PLACE UNIT 48, ARVADA, CO, 80003","Match","Non_Exact","5580 W 80TH PL, ARVADA, CO, 80003",177801844,"R"
245771,"5581 BOREAL WAY SW","ATLANTA","GA",30331,33.688695754,-84.567331901,271,"5581 BOREAL WAY SW, ATLANTA, GA, 30331","Match","Exact","5581 BOREAL WAY SW, ATLANTA, GA, 30331",653488487,"R"
245772,"5581 CHURCH ST","FARMERSVILLE","TX",75442,33.2096705820001,-96.289055793,272,"5581 CHURCH ST, FARMERSVILLE, TX, 75442","Match","Exact","5581 CHURCH ST, FARMERSVILLE, TX, 75442",42841002,"R"
245773,"5581 COONEY PL","SAN JOSE","CA",95123,37.2510167140001,-121.84820054,273,"5581 COONEY PL, SAN JOSE, CA, 95123","Match","Exact","5581 COONEY PL, SAN JOSE, CA, 95123",618191863,"R"
245774,"5581 LANGFORD ROAD","MESA","WA",99343,46.53925444,-119.049142715,274,"5581 LANGFORD ROAD, MESA, WA, 99343","Match","Exact","5581 LANGFORD RD, MESA, WA, 99343",175243876,"L"
245775,"5581 ROSEHILL RD UNIT 104","SARASOTA","FL",34233,27.272287809,-82.458797424,275,"5581 ROSEHILL RD UNIT 104, SARASOTA, FL, 34233","Match","Exact","5581 ROSEHILL RD, SARASOTA, FL, 34233",616662548,"L"
245776,"5581 S CRANBERRY BLVD","NORTH PORT","FL",34286,27.0374623600001,-82.2013687799999,276,"5581 S CRANBERRY BLVD, NORTH PORT, FL, 34286","Match","Exact","5581 S CRANBERRY BLVD, NORTH PORT, FL, 34286",16340805,"L"
245777,"5581 SEAGROVE LANE","HIXSON","TN",37343,35.143075862,-85.206625682,277,"5581 SEAGROVE LANE, HIXSON, TN, 37343","Match","Exact","5581 SEAGROVE LN, HIXSON, TN, 37343",645727649,"R"
245778,"5581 WELLMAN LINE RD","CROSWELL","MI",48422,NA,NA,278,"5581 WELLMAN LINE RD, CROSWELL, MI, 48422","No_Match",NA,NA,NA,NA
245779,"5581 WEST OAKLAND PARK BLVD","LAUDERHILL","FL",33313,26.164869669,-80.224423139,279,"5581 WEST OAKLAND PARK BLVD, LAUDERHILL, FL, 33313","Match","Exact","5581 W OAKLAND PARK BLVD, LAUDERHILL, FL, 33313",114705968,"R"
245780,"55810 CANAAN RD W","STOCKTON","AL",36579,NA,NA,280,"55810 CANAAN RD W, STOCKTON, AL, 36579","No_Match",NA,NA,NA,NA
245781,"5582 CHECKERED SPOT DRIVE","GAINESVILLE","GA",30506,34.385910311,-83.896428955,281,"5582 CHECKERED SPOT DRIVE, GAINESVILLE, GA, 30506","Match","Exact","5582 CHECKERED SPOT DR, GAINESVILLE, GA, 30506",637365786,"L"
245782,"5582 OLD FORT SUGAR HILL ROAD","MARION","NC",28752,NA,NA,282,"5582 OLD FORT SUGAR HILL ROAD, MARION, NC, 28752","Tie",NA,NA,NA,NA
245783,"5582 STEWART WOODS DRIVE","DOUGLASVILLE","GA",30135,33.706136787,-84.749728691,283,"5582 STEWART WOODS DRIVE, DOUGLASVILLE, GA, 30135","Match","Exact","5582 STEWART WOODS DR, DOUGLASVILLE, GA, 30135",16653402,"L"
245784,"5582 W LINDALE DR","DECATUR","IL",62522,39.8445069200001,-89.051210679,284,"5582 W LINDALE DR, DECATUR, IL, 62522","Match","Exact","5582 W LINDALE DR, DECATUR, IL, 62522",20742704,"L"
245785,"5582 WELLESLEY PARK DRIVE APT 301","BOCA RATON","FL",33433,26.337800439,-80.133076048,285,"5582 WELLESLEY PARK DRIVE APT 301, BOCA RATON, FL, 33433","Match","Exact","5582 WELLESLEY PARK DR, BOCA RATON, FL, 33433",650072646,"R"
245786,"5583 BATES ST","SEMINOLE","FL",33772,27.8235660140001,-82.796670154,286,"5583 BATES ST, SEMINOLE, FL, 33772","Match","Exact","5583 BATES ST, SEMINOLE, FL, 33772",124691061,"R"
245787,"5583 DAY RD","CINCINNATI","OH",45252,39.2730008840001,-84.625332444,287,"5583 DAY RD, CINCINNATI, OH, 45252","Match","Exact","5583 DAY RD, CINCINNATI, OH, 45252",103942193,"L"
245788,"5583 MOSSY OAK LANE","PORT ORANGE","FL",32127,29.1152410990001,-80.999369493,288,"5583 MOSSY OAK LANE, PORT ORANGE, FL, 32127","Match","Exact","5583 MOSSY OAK LN, PORT ORANGE, FL, 32127",94559295,"L"
245789,"5583 PERKINS ROAD","BEDFORD HTS","OH",44146,41.4077364980001,-81.4985590269999,289,"5583 PERKINS ROAD, BEDFORD HTS, OH, 44146","Match","Exact","5583 PERKINS RD, BEDFORD HEIGHTS, OH, 44146",649550618,"L"
245790,"5583 STH SALINA","SYRACUSE","NY",13205,NA,NA,290,"5583 STH SALINA, SYRACUSE, NY, 13205","No_Match",NA,NA,NA,NA
245791,"5583 SYCAMORE COVE","HORN LAKE","MS",38637,34.9719483100001,-90.089771478,291,"5583 SYCAMORE COVE, HORN LAKE, MS, 38637","Match","Exact","5583 SYCAMORE COVE, HORN LAKE, MS, 38637",629430280,"R"
245792,"5583 WEST DEERCREST DRIVE","WEST VALLEY","UT",84120,40.6744853180001,-112.024442193,292,"5583 WEST DEERCREST DRIVE, WEST VALLEY, UT, 84120","Match","Non_Exact","5583 DEERCREST DR, WEST VALLEY, UT, 84120",634172534,"L"
245793,"55837 SNOW GOOSE ROAD","BEND","OR",97707,43.8285771880001,-121.462124499,293,"55837 SNOW GOOSE ROAD, BEND, OR, 97707","Match","Exact","55837 SNOW GOOSE RD, BEND, OR, 97707",152575216,"L"
245794,"5584 ARBOR CLUB WAY APT 14","BOCA RATON","FL",33433,26.3367808520001,-80.1318227639999,294,"5584 ARBOR CLUB WAY APT 14, BOCA RATON, FL, 33433","Match","Exact","5584 ARBOR CLUB WAY, BOCA RATON, FL, 33433",650072556,"L"
245795,"5584 NW 114TH AVE","DORAL","FL",33178,25.8246936420001,-80.381942922,295,"5584 NW 114TH AVE, DORAL, FL, 33178","Match","Exact","5584 NW 114TH AVE, DORAL, FL, 33178",116267593,"R"
245796,"5585 CASTELLO CT","DUBLIN","CA",94568,37.7255556740001,-121.846052688,296,"5585 CASTELLO CT, DUBLIN, CA, 94568","Match","Exact","5585 CASTELLO CT, DUBLIN, CA, 94568",640791231,"R"
245797,"5585 CHERRYWOOD ROAD","COLUMBUS","OH",43229,40.0806059390001,-82.9830389219999,297,"5585 CHERRYWOOD ROAD, COLUMBUS, OH, 43229","Match","Exact","5585 CHERRYWOOD RD, COLUMBUS, OH, 43229",218660609,"L"
245798,"5585 EL PALOMINO","RIVERSIDE","CA",92509,33.98675088,-117.45507993,298,"5585 EL PALOMINO, RIVERSIDE, CA, 92509","Match","Non_Exact","5585 EL PALOMINO DR, RIVERSIDE, CA, 92509",194828771,"L"
245799,"5585 KEVINBERG DR","SACRAMENTO","CA",95823,38.4556426990001,-121.438235411,299,"5585 KEVINBERG DR, SACRAMENTO, CA, 95823","Match","Exact","5585 KEVINBERG DR, SACRAMENTO, CA, 95823",133379935,"R"
245800,"5585 LESTER RIVER ROAD","DULUTH","MN",55804,46.9143053980001,-91.984057647,300,"5585 LESTER RIVER ROAD, DULUTH, MN, 55804","Match","Exact","5585 LESTER RIVER RD, DULUTH, MN, 55804",163239231,"L"
245801,"5585 NORTH STREET","BETTENDORF","IA",52722,41.5588508590001,-90.4536973209999,301,"5585 NORTH STREET, BETTENDORF, IA, 52722","Match","Exact","5585 NORTH ST, BETTENDORF, IA, 52722",122712402,"R"
245802,"5585 RIVIERA WALK","LONG BEACH","CA",90803,33.756212808,-118.125529259,302,"5585 RIVIERA WALK, LONG BEACH, CA, 90803","Match","Non_Exact","5585 E RIVIERA WALK, LONG BEACH, CA, 90803",141755046,"L"
245803,"5585 ROCKBRIDGE ROAD","STONE MOUNTAIN","GA",30088,33.7867398280001,-84.162982643,303,"5585 ROCKBRIDGE ROAD, STONE MOUNTAIN, GA, 30088","Match","Exact","5585 ROCKBRIDGE RD, STONE MOUNTAIN, GA, 30088",647247372,"R"
245804,"5585 RUSTLINGWAY LANE","GALLOWAY","OH",43119,39.9488179430001,-83.1457751789999,304,"5585 RUSTLINGWAY LANE, GALLOWAY, OH, 43119","Match","Exact","5585 RUSTLINGWAY LN, GALLOWAY, OH, 43119",218688271,"R"
245805,"5585 SOUTH 3599 WEST SUITE C","ROY","UT",84067,NA,NA,305,"5585 SOUTH 3599 WEST SUITE C, ROY, UT, 84067","No_Match",NA,NA,NA,NA
245806,"5586 HOBSONS CHOICE LOOP","MANASSAS","VA",20112,38.6154695770001,-77.373799558,306,"5586 HOBSONS CHOICE LOOP, MANASSAS, VA, 20112","Match","Exact","5586 HOBSONS CHOICE LOOP, MANASSAS, VA, 20112",207141949,"L"
245807,"5587 CLAIREMONT MESA BLVD","SAN DIEGO","CA",92117,32.8342303000001,-117.173947032,307,"5587 CLAIREMONT MESA BLVD, SAN DIEGO, CA, 92117","Match","Exact","5587 CLAIREMONT MESA BLVD, SAN DIEGO, CA, 92117",195304940,"R"
245808,"5587 GOODWIN STREET","INDIANAPOLIS","IN",46234,39.845521691,-86.33138688,308,"5587 GOODWIN STREET, INDIANAPOLIS, IN, 46234","Match","Exact","5587 GOODWIN ST, INDIANAPOLIS, IN, 46234",642172264,"R"
245809,"5588 E DAYHUFF RD","MOORESVILLE","IN",46158,39.574184743,-86.322167766,309,"5588 E DAYHUFF RD, MOORESVILLE, IN, 46158","Match","Exact","5588 E DAYHUFF RD, MOORESVILLE, IN, 46158",638977129,"L"
245810,"5588 HOLCOMB BRIDGE COURT","LAS VEGAS","NV",89149,36.262356503,-115.279481825,310,"5588 HOLCOMB BRIDGE COURT, LAS VEGAS, NV, 89149","Match","Exact","5588 HOLCOMB BRIDGE CT, LAS VEGAS, NV, 89149",636787909,"R"
245811,"5588 N PALM AVE - P1","FRESNO","CA",93704,36.818831431,-119.808333583,311,"5588 N PALM AVE - P1, FRESNO, CA, 93704","Match","Non_Exact","5588 N PALM AVE, FRESNO, CA, 93704",197572380,"R"
245812,"5588 N PALM AVE STE 109","FRESNO","CA",93704,36.818831431,-119.808333583,312,"5588 N PALM AVE STE 109, FRESNO, CA, 93704","Match","Non_Exact","5588 N PALM AVE, FRESNO, CA, 93704",197572380,"R"
245813,"5588 SOUTHERN HILLS DR","FRISCO","TX",75034,33.1025835500001,-96.854306029,313,"5588 SOUTHERN HILLS DR, FRISCO, TX, 75034","Match","Exact","5588 SOUTHERN HILLS DR, FRISCO, TX, 75034",103406778,"L"
245814,"5589 22ND AVENUE TRAIL","VINTON","IA",52349,42.2105807520001,-92.072898599,314,"5589 22ND AVENUE TRAIL, VINTON, IA, 52349","Match","Exact","5589 22ND AVENUE TRL, VINTON, IA, 52349",94727926,"L"
245815,"5589 CANDLELIGHT DRIVE","SAN DIEGO","CA",92037,32.816878327,-117.25713615,315,"5589 CANDLELIGHT DRIVE, SAN DIEGO, CA, 92037","Match","Non_Exact","5589 CANDLELIGHT DR, LA JOLLA, CA, 92037",195299295,"R"
245816,"5589 COVERDALE WAY","MEDINA","OH",44256,41.105573437,-81.8878440349999,316,"5589 COVERDALE WAY, MEDINA, OH, 44256","Match","Non_Exact","5589 CLOVERDALE WAY, MEDINA, OH, 44256",615092349,"R"
245817,"5589 LEITRIM WAY","ANTIOCH","CA",94531,NA,NA,317,"5589 LEITRIM WAY, ANTIOCH, CA, 94531","No_Match",NA,NA,NA,NA
245818,"5589 MORRIS HUNT DR","FORT MILL","SC",29708,35.0299869410001,-80.988291203,318,"5589 MORRIS HUNT DR, FORT MILL, SC, 29708","Match","Exact","5589 MORRIS HUNT DR, FORT MILL, SC, 29708",618814515,"L"
245819,"5589 NIX ROAD","FAYETTEVILLE","NC",28314,35.069511807,-78.978458685,319,"5589 NIX ROAD, FAYETTEVILLE, NC, 28314","Match","Exact","5589 NIX RD, FAYETTEVILLE, NC, 28314",64257849,"L"
245820,"5589 THUNDER BAY","PORTAGE","MI",49024,42.2356611320001,-85.625739338,320,"5589 THUNDER BAY, PORTAGE, MI, 49024","Match","Non_Exact","5589 THUNDER BAY ST, PORTAGE, MI, 49024",12239894,"R"
245821,"5589 W BLUFF AVE","FRESNO","CA",93722,36.849721769,-119.890734182,321,"5589 W BLUFF AVE, FRESNO, CA, 93722","Match","Exact","5589 W BLUFF AVE, FRESNO, CA, 93722",197622919,"R"
245822,"558B HEMPSTEAD AVE","WEST HEMPSTEAD","NY",11552,40.6945822610001,-73.6557060119999,322,"558B HEMPSTEAD AVE, WEST HEMPSTEAD, NY, 11552","Match","Exact","558 HEMPSTEAD AVE, W HEMPSTEAD, NY, 11552",147674531,"L"
245823,"559 12000 RD","MOUND VALLEY","KS",67354,37.1632965800001,-95.4388514949999,323,"559 12000 RD, MOUND VALLEY, KS, 67354","Match","Exact","559 12000 RD, MOUND VALLEY, KS, 67354",13738567,"R"
245824,"559 COLUMBINE CT","EDGEWOOD","KY",41017,38.9946102500001,-84.559399146,324,"559 COLUMBINE CT, EDGEWOOD, KY, 41017","Match","Exact","559 COLUMBINE CT, EDGEWOOD, KY, 41017",103890485,"R"
245825,"559 DONOFRIO DRIVE SUITE 222","MADISON","WI",53719,43.0568721510001,-89.515901272,325,"559 DONOFRIO DRIVE SUITE 222, MADISON, WI, 53719","Match","Exact","559 DONOFRIO DR, MADISON, WI, 53719",49539258,"R"
245826,"559 E KETTLE AVW","LITTLETON","CO",80122,NA,NA,326,"559 E KETTLE AVW, LITTLETON, CO, 80122","No_Match",NA,NA,NA,NA
245827,"559 E PENN STREET","PHILADELPHIA","PA",19144,40.0401535730001,-75.1602589199999,327,"559 E PENN STREET, PHILADELPHIA, PA, 19144","Match","Exact","559 E PENN ST, PHILADELPHIA, PA, 19144",639343907,"L"
245828,"559 EAST JONES STREET","SAVANNAH","GA",31401,32.0707694110001,-81.088001444,328,"559 EAST JONES STREET, SAVANNAH, GA, 31401","Match","Exact","559 E JONES ST, SAVANNAH, GA, 31401",6175809,"R"
245829,"559 EDGEFIELD DR","STONE MOUNTAIN","GA",30087,33.7821526710001,-84.130170501,329,"559 EDGEFIELD DR, STONE MOUNTAIN, GA, 30087","Match","Exact","559 EDGEFIELD DR, STONE MOUNTAIN, GA, 30087",23374863,"R"
245830,"559 FOREST PARKWAY STE B","FOREST PARK","GA",30297,33.6217285650001,-84.371395859,330,"559 FOREST PARKWAY STE B, FOREST PARK, GA, 30297","Match","Exact","559 FOREST PKWY, FOREST PARK, GA, 30297",23314314,"R"
245831,"559 FRUITVILLE PIKE","MANHEIM","PA",17545,40.1477754420001,-76.362483923,331,"559 FRUITVILLE PIKE, MANHEIM, PA, 17545","Match","Exact","559 FRUITVILLE PIKE, MANHEIM, PA, 17545",179655066,"R"
245832,"559 LAKESIDE DR SE APT B","EAST GRAND RAPIDS","MI",49506,42.9531410110001,-85.61230819,332,"559 LAKESIDE DR SE APT B, EAST GRAND RAPIDS, MI, 49506","Match","Exact","559 LAKESIDE DR SE, EAST GRAND RAPIDS, MI, 49506",12462667,"R"
245833,"559 LAUGHRAN ROAD","POCATELLO","ID",83202,42.942069233,-112.535583172,333,"559 LAUGHRAN ROAD, POCATELLO, ID, 83202","Match","Non_Exact","559 N LAUGHRAN RD, POCATELLO, ID, 83202",204372957,"L"
245834,"559 LOGAN STREET","ANOKA","MN",55303,45.215644006,-93.400772884,334,"559 LOGAN STREET, ANOKA, MN, 55303","Match","Exact","559 LOGAN ST, ANOKA, MN, 55303",97505132,"L"
245835,"559 LOWER TUSKEEGEE ROAD","ROBBINSVILLE","NC",28771,35.415126937,-83.7146591539999,335,"559 LOWER TUSKEEGEE ROAD, ROBBINSVILLE, NC, 28771","Match","Exact","559 LOWER TUSKEEGEE RD, ROBBINSVILLE, NC, 28771",35961418,"R"
245836,"559 MAIN STREET SUITE 005","BETHLEHEM","PA",18018,40.6217745160001,-75.381944773,336,"559 MAIN STREET SUITE 005, BETHLEHEM, PA, 18018","Match","Exact","559 MAIN ST, BETHLEHEM, PA, 18018",136884594,"L"
245837,"559 MAIN STREET SUITE 300","BETHLEHEM","PA",18018,40.6217745160001,-75.381944773,337,"559 MAIN STREET SUITE 300, BETHLEHEM, PA, 18018","Match","Exact","559 MAIN ST, BETHLEHEM, PA, 18018",136884594,"L"
245838,"559 MARK LN","WESTBURY","NY",11590,40.748936342,-73.575921976,338,"559 MARK LN, WESTBURY, NY, 11590","Match","Exact","559 MARK LN, WESTBURY, NY, 11590",147628157,"L"
245839,"559 MCGRAW ST STE 201","SEATTLE","WA",98109,47.639609858,-122.345412953,339,"559 MCGRAW ST STE 201, SEATTLE, WA, 98109","Match","Exact","559 MCGRAW ST, SEATTLE, WA, 98109",186670086,"R"
245840,"559 MINOR AVE","SAN JOSE","CA",95125,37.321905664,-121.893982938,340,"559 MINOR AVE, SAN JOSE, CA, 95125","Match","Exact","559 MINOR AVE, SAN JOSE, CA, 95125",634437579,"L"
245841,"559 MIRROR LAKE DRIVE NORTH","ST PETERSBURG","FL",33701,27.775299325,-82.643080809,341,"559 MIRROR LAKE DRIVE NORTH, ST PETERSBURG, FL, 33701","Match","Exact","559 MIRROR LAKE DR N, SAINT PETERSBURG, FL, 33701",124708176,"L"
245842,"559 NOME AVE APT 3","AKRON","OH",44320,41.0939325050001,-81.570998555,342,"559 NOME AVE APT 3, AKRON, OH, 44320","Match","Exact","559 NOME AVE, AKRON, OH, 44320",61338238,"L"
245843,"559 NORTH CASSINGHAM ROAD","BEXLEY","OH",43209,39.981488289,-82.929128173,343,"559 NORTH CASSINGHAM ROAD, BEXLEY, OH, 43209","Match","Exact","559 N CASSINGHAM RD, BEXLEY, OH, 43209",135590635,"L"
245844,"559 SLEEPY HOLLOW DR","SHIRLEY","NY",11967,40.842663256,-72.866026919,344,"559 SLEEPY HOLLOW DR, SHIRLEY, NY, 11967","Match","Exact","559 SLEEPY HOLLOW DR, SHIRLEY, NY, 11967",114062497,"R"
245845,"559 SOUTHWOOD DR","OXFORD","AL",36203,33.567111605,-85.846089539,345,"559 SOUTHWOOD DR, OXFORD, AL, 36203","Match","Exact","559 SOUTHWOOD DR, OXFORD, AL, 36203",642911419,"R"
245846,"559 TIFFANY CT","WARRENTON","VA",20186,38.728985068,-77.803923033,346,"559 TIFFANY CT, WARRENTON, VA, 20186","Match","Exact","559 TIFFANY CT, WARRENTON, VA, 20186",146280697,"R"
245847,"559 TURNPIKE RD STE 2","NEW IPSWICH","NH",3071,42.7579562760001,-71.8510144749999,347,"559 TURNPIKE RD STE 2, NEW IPSWICH, NH, 3071","Match","Exact","559 TURNPIKE RD, NEW IPSWICH, NH, 03071",113577173,"R"
245848,"559 W ROSCOE ST NUM 2W","CHICAGO","IL",60657,41.943326144,-87.6440502739999,348,"559 W ROSCOE ST NUM 2W, CHICAGO, IL, 60657","Match","Non_Exact","559 W ROSCOE ST, CHICAGO, IL, 60657",646583885,"L"
245849,"559 W VALLEY VIEW DRIVE","SARATOGA SPRINGS","UT",84045,40.333856172,-111.929307939,349,"559 W VALLEY VIEW DRIVE, SARATOGA SPRINGS, UT, 84045","Match","Exact","559 VALLEY VIEW DR, SARATOGA SPRINGS, UT, 84045",633413311,"R"
245850,"559 WATKINS ST","AUGUSTA","GA",30901,33.468533673,-81.9630366229999,350,"559 WATKINS ST, AUGUSTA, GA, 30901","Match","Exact","559 WATKINS ST, AUGUSTA, GA, 30901",645569715,"R"
245851,"559 WEST 149TH STREET APT 3","NEW YORK","NY",10031,40.828475627,-73.9473850429999,351,"559 WEST 149TH STREET APT 3, NEW YORK, NY, 10031","Match","Exact","559 W 149TH ST, NEW YORK, NY, 10031",59655910,"R"
245852,"559 WEST CONDOR ST","CRESCENT CITY","CA",95531,41.753314828,-124.213742246,352,"559 WEST CONDOR ST, CRESCENT CITY, CA, 95531","Match","Exact","559 W CONDOR ST, CRESCENT CITY, CA, 95531",113161884,"L"
245853,"559 WEST DIVERSEY NO 120","CHICAGO","IL",60614,NA,NA,353,"559 WEST DIVERSEY NO 120, CHICAGO, IL, 60614","No_Match",NA,NA,NA,NA
245854,"559 WHITEWATER DR","CHEROKEE","NC",28719,35.4673609910001,-83.319946289,354,"559 WHITEWATER DR, CHEROKEE, NC, 28719","Match","Exact","559 WHITEWATER DR, CHEROKEE, NC, 28719",647968631,"R"
245855,"559 WILLOW LANE","BUELLTON","CA",93427,34.621727723,-120.203010539,355,"559 WILLOW LANE, BUELLTON, CA, 93427","Match","Exact","559 WILLOW LN, BUELLTON, CA, 93427",617079171,"L"
245856,"559 WILLS RD","LANDING","NJ",7850,40.914690869,-74.651608933,356,"559 WILLS RD, LANDING, NJ, 7850","Match","Exact","559 WILLS RD, LANDING, NJ, 07850",60432342,"L"
245857,"5590 BROCKTON AVE","RIVERSIDE","CA",92506,33.9661812530001,-117.393217852,357,"5590 BROCKTON AVE, RIVERSIDE, CA, 92506","Match","Exact","5590 BROCKTON AVE, RIVERSIDE, CA, 92506",194741476,"L"
245858,"5590 I-55 SOUTH","BYRAM","MS",39213,NA,NA,358,"5590 I-55 SOUTH, BYRAM, MS, 39213","No_Match",NA,NA,NA,NA
245859,"5590 MONONA DR","MONONA","WI",53716,43.0594989350001,-89.325920142,359,"5590 MONONA DR, MONONA, WI, 53716","Match","Exact","5590 MONONA DR, MONONA, WI, 53716",641011353,"L"
245860,"5590 NW 38TH TER","COCONUT CREEK","FL",33073,26.2996657210001,-80.175662317,360,"5590 NW 38TH TER, COCONUT CREEK, FL, 33073","Match","Exact","5590 NW 38TH TER, COCONUT CREEK, FL, 33073",114773414,"R"
245861,"5590 NW BIRCH AVE","REDMOND","OR",97756,44.278003475,-121.235926448,361,"5590 NW BIRCH AVE, REDMOND, OR, 97756","Match","Exact","5590 NW BIRCH AVE, REDMOND, OR, 97756",152565164,"R"
245862,"5590 PATRICIAN WAY","WINNEMUCCA","NV",89445,40.950353932,-117.702123781,362,"5590 PATRICIAN WAY, WINNEMUCCA, NV, 89445","Match","Exact","5590 PATRICIAN WAY, WINNEMUCCA, NV, 89445",170923646,"R"
245863,"5590 S SPYGLASS RIDGE DRIVE","SUTTONS BAY","MI",49682,44.895838892,-85.64103192,363,"5590 S SPYGLASS RIDGE DRIVE, SUTTONS BAY, MI, 49682","Match","Exact","5590 SPYGLASS RIDGE DR, SUTTONS BAY, MI, 49682",628713228,"R"
245864,"5591 ALBERT STREET","SHOREVIEW","MN",55126,45.109964915,-93.1624635639999,364,"5591 ALBERT STREET, SHOREVIEW, MN, 55126","Match","Exact","5591 ALBERT ST, SHOREVIEW, MN, 55126",97662059,"R"
245865,"5591 S 950 W","OWENSVILLE","IN",47665,NA,NA,365,"5591 S 950 W, OWENSVILLE, IN, 47665","No_Match",NA,NA,NA,NA
245866,"5591 UNDERWOOD","DETROIT","MI",48204,42.3616657920001,-83.13593837,366,"5591 UNDERWOOD, DETROIT, MI, 48204","Match","Non_Exact","5591 UNDERWOOD ST, DETROIT, MI, 48204",95471097,"L"
245867,"5591 WRIGHTSBORO ROAD","GROVETOWN","GA",30813,33.4708908710001,-82.243132879,367,"5591 WRIGHTSBORO ROAD, GROVETOWN, GA, 30813","Match","Exact","5591 WRIGHTSBORO RD, GROVETOWN, GA, 30813",641040870,"R"
245868,"55918 US HWY 285","SHAWNEE","CO",80475,39.4238251900001,-105.557649168,368,"55918 US HWY 285, SHAWNEE, CO, 80475","Match","Exact","55918 US HWY 285, SHAWNEE, CO, 80475",108458419,"L"
245869,"5592 DONATELLO DR -92","FORT WAYNE","IN",46818,41.082692562,-85.342712357,369,"5592 DONATELLO DR -92, FORT WAYNE, IN, 46818","Match","Non_Exact","5592 DONATELLO DR-92, FORT WAYNE, IN, 46818",6648869,"L"
245870,"5592 FORKWOOD DRIVE","ACWORTH","GA",30101,33.9952108360001,-84.7139747749999,370,"5592 FORKWOOD DRIVE, ACWORTH, GA, 30101","Match","Exact","5592 FORKWOOD DR, ACWORTH, GA, 30101",17203977,"L"
245871,"5592 HAMILTON ST","SPARTA","WI",54656,43.9393594320001,-90.882955072,371,"5592 HAMILTON ST, SPARTA, WI, 54656","Match","Non_Exact","5592 HAMILTON AVE, SPARTA, WI, 54656",51083801,"R"
245872,"5592 SHELBY 208","SHELBYVILLE","MO",63469,NA,NA,372,"5592 SHELBY 208, SHELBYVILLE, MO, 63469","No_Match",NA,NA,NA,NA
245873,"55925 MEDINE ROAD","WHITE CASTLE","LA",70788,30.1116104540001,-91.160399119,373,"55925 MEDINE ROAD, WHITE CASTLE, LA, 70788","Match","Exact","55925 MEDINE RD, WHITE CASTLE, LA, 70788",85558014,"L"
245874,"5593 BLENNA COURT","DUBLIN","VA",24084,37.1203260870001,-80.673643233,374,"5593 BLENNA COURT, DUBLIN, VA, 24084","Match","Exact","5593 BLENNA CT, DUBLIN, VA, 24084",47015905,"L"
245875,"5593 CEDAR LANE","COLUMBIA","MD",21044,39.2179742590001,-76.8879072949999,375,"5593 CEDAR LANE, COLUMBIA, MD, 21044","Match","Exact","5593 CEDAR LN, COLUMBIA, MD, 21044",211680386,"R"
245876,"5593 HIGHWAY 18","VACHERIE","LA",70090,30.0445825460001,-90.664586831,376,"5593 HIGHWAY 18, VACHERIE, LA, 70090","Match","Exact","5593 HWY 18, VACHERIE, LA, 70090",93703432,"R"
245877,"5593 STATE ROUTE 80 WEST","MAYFIELD","KY",42066,NA,NA,377,"5593 STATE ROUTE 80 WEST, MAYFIELD, KY, 42066","No_Match",NA,NA,NA,NA
245878,"5594 BACKLICK ROAD","SPRINGFIELD","VA",22151,38.799366354,-77.185290676,378,"5594 BACKLICK ROAD, SPRINGFIELD, VA, 22151","Match","Exact","5594 BACKLICK RD, SPRINGFIELD, VA, 22151",76058187,"R"
245879,"5594 S CHESTNUT TER","LECANTO","FL",34461,28.7808444360001,-82.477175748,379,"5594 S CHESTNUT TER, LECANTO, FL, 34461","Match","Exact","5594 S CHESTNUT TER, LECANTO, FL, 34461",651716292,"L"
245880,"5595 BLUFF ST","NORCO","CA",92860,33.9120226900001,-117.603452642,380,"5595 BLUFF ST, NORCO, CA, 92860","Match","Exact","5595 BLUFF ST, NORCO, CA, 92860",194831687,"L"
245881,"5595 CHRIS MAR LANE","FREELAND","WA",98249,48.0077081100001,-122.540465768,381,"5595 CHRIS MAR LANE, FREELAND, WA, 98249","Match","Exact","5595 CHRIS MAR LN, FREELAND, WA, 98249",187592059,"L"
245882,"5595 CRESCENT BLVD","ROANOKE","VA",24018,37.2081799960001,-79.993362001,382,"5595 CRESCENT BLVD, ROANOKE, VA, 24018","Match","Exact","5595 CRESCENT BLVD, ROANOKE, VA, 24018",642515024,"R"
245883,"5595 HIGHWAY 4","BAKER","FL",32531,NA,NA,383,"5595 HIGHWAY 4, BAKER, FL, 32531","No_Match",NA,NA,NA,NA
245884,"5595 HUNTINGTON DRIVE NORTH","LOS ANGELES","CA",90032,34.0944306050001,-118.15929975,384,"5595 HUNTINGTON DRIVE NORTH, LOS ANGELES, CA, 90032","Match","Exact","5595 HUNTINGTON DR N, LOS ANGELES, CA, 90032",142736696,"L"
245885,"5595 LITTLE BROOK CIR N APT 107","MEMPHIS","TN",38115,NA,NA,385,"5595 LITTLE BROOK CIR N APT 107, MEMPHIS, TN, 38115","No_Match",NA,NA,NA,NA
245886,"5595 LOYOLA DRIVE","PARMA","OH",44129,41.389454443,-81.724251732,386,"5595 LOYOLA DRIVE, PARMA, OH, 44129","Match","Exact","5595 LOYOLA DR, PARMA, OH, 44129",61107576,"L"
245887,"5595 N 59TH AVE W","NEWTON","IA",50208,41.76071103,-93.125060215,387,"5595 N 59TH AVE W, NEWTON, IA, 50208","Match","Exact","5595 N 59TH AVE W, NEWTON, IA, 50208",89437801,"R"
245888,"5595 RAINTREE PLACE","COLUMBUS","OH",43229,40.08453575,-82.9547687529999,388,"5595 RAINTREE PLACE, COLUMBUS, OH, 43229","Match","Exact","5595 RAINTREE PL, COLUMBUS, OH, 43229",218660729,"L"
245889,"5595 RIVERDALE ROAD","COLLEGE PARK","GA",30349,33.6022095660001,-84.430416473,389,"5595 RIVERDALE ROAD, COLLEGE PARK, GA, 30349","Match","Exact","5595 RIVERDALE RD, COLLEGE PARK, GA, 30349",23325711,"R"
245890,"5595 SCHUTTA ROAD","SHOREVIEW","MN",55126,45.1103478380001,-93.178381367,390,"5595 SCHUTTA ROAD, SHOREVIEW, MN, 55126","Match","Exact","5595 SCHUTTA RD, SHOREVIEW, MN, 55126",97634626,"L"
245891,"5596 ASHTON LAKE DR","SARASOTA","FL",34231,27.272035246,-82.510432137,391,"5596 ASHTON LAKE DR, SARASOTA, FL, 34231","Match","Exact","5596 ASHTON LAKE DR, SARASOTA, FL, 34231",16370932,"L"
245892,"5596 AUTUMN VALLEY DR","MEMPHIS","TN",38135,35.2272640240001,-89.875471309,392,"5596 AUTUMN VALLEY DR, MEMPHIS, TN, 38135","Match","Exact","5596 AUTUMN VALLEY DR, MEMPHIS, TN, 38135",72964826,"R"
245893,"5596 BLUEGRASS DRIVE","ATLANTA","GA",30349,33.606824927,-84.502129098,393,"5596 BLUEGRASS DRIVE, ATLANTA, GA, 30349","Match","Exact","5596 BLUEGRASS DR, ATLANTA, GA, 30349",629829251,"R"
245894,"5596 JAMES AVENUE SW","KALONA","IA",52247,41.5244927540001,-91.656683694,394,"5596 JAMES AVENUE SW, KALONA, IA, 52247","Match","Exact","5596 JAMES AVE SW, KALONA, IA, 52247",84519267,"R"
245895,"5596 MAYFAIR CROSSING","LITHONIA","GA",30038,33.698288572,-84.1618726889999,395,"5596 MAYFAIR CROSSING, LITHONIA, GA, 30038","Match","Non_Exact","5596 MAYFAIR CROSSING DR, LITHONIA, GA, 30038",23395701,"L"
245896,"5596 NORTH 550 EAST","MOORELAND","IN",47360,40.01278326,-85.2793850959999,396,"5596 NORTH 550 EAST, MOORELAND, IN, 47360","Match","Non_Exact","5596 N CO RD 550 E, MOORELAND, IN, 47360",29990161,"R"
245897,"5597 COVERDALE WAY","MEDINA","OH",44256,41.105560385,-81.887957472,397,"5597 COVERDALE WAY, MEDINA, OH, 44256","Match","Non_Exact","5597 CLOVERDALE WAY, MEDINA, OH, 44256",615092349,"R"
245898,"5597 E DIONYSUS DR","FLORENCE","AZ",85132,33.1070847560001,-111.506288391,398,"5597 E DIONYSUS DR, FLORENCE, AZ, 85132","Match","Exact","5597 E DIONYSUS DR, FLORENCE, AZ, 85132",626677797,"L"
245899,"5597 N FARM ROAD 191","SPRINGFIELD","MO",65803,37.295723476,-93.200284316,399,"5597 N FARM ROAD 191, SPRINGFIELD, MO, 65803","Match","Non_Exact","5597 N FARM RD 191, SPRINGFIELD, MO, 65803",76691736,"R"
245900,"5597 PERKINS ROAD","BEDFORD HTS","OH",44146,41.4075730490001,-81.498558503,400,"5597 PERKINS ROAD, BEDFORD HTS, OH, 44146","Match","Exact","5597 PERKINS RD, BEDFORD HEIGHTS, OH, 44146",649550618,"L"
245901,"5597 SALEM ROAD","LITHONIA","GA",30038,33.6760238160001,-84.1606056319999,401,"5597 SALEM ROAD, LITHONIA, GA, 30038","Match","Exact","5597 SALEM RD, LITHONIA, GA, 30038",23389727,"R"
245902,"5597 SUNDANCE AVE","LAS VEGAS","NV",89110,36.1712801190001,-115.050878145,402,"5597 SUNDANCE AVE, LAS VEGAS, NV, 89110","Match","Exact","5597 SUNDANCE AVE, LAS VEGAS, NV, 89110",201875975,"R"
245903,"5598 LOCKRIDGE RD","FAYETTEVILLE","NC",28311,35.140650441,-78.878563438,403,"5598 LOCKRIDGE RD, FAYETTEVILLE, NC, 28311","Match","Exact","5598 LOCKRIDGE RD, FAYETTEVILLE, NC, 28311",64229865,"L"
245904,"5599 APRIOCT CT","GREENDALE","WI",53129,42.943751047,-88.0010542059999,404,"5599 APRIOCT CT, GREENDALE, WI, 53129","Match","Non_Exact","5599 APRICOT CT, GREENDALE, WI, 53129",77749359,"R"
245905,"5599 ASHEFORDE LANE","MARIETTA","GA",30068,33.986889374,-84.3882191119999,405,"5599 ASHEFORDE LANE, MARIETTA, GA, 30068","Match","Exact","5599 ASHEFORDE LN, MARIETTA, GA, 30068",17216073,"L"
245906,"5599 BUCHANAN PLACE","FREMONT","CA",94538,37.5282525960001,-121.996396339,406,"5599 BUCHANAN PLACE, FREMONT, CA, 94538","Match","Exact","5599 BUCHANAN PL, FREMONT, CA, 94538",125030818,"R"
245907,"5599 HARPERS FARM ROAD","COLUMBIA","MD",21044,39.221382272,-76.883104902,407,"5599 HARPERS FARM ROAD, COLUMBIA, MD, 21044","Match","Exact","5599 HARPERS FARM RD, COLUMBIA, MD, 21044",158960825,"L"
245908,"5599 HWY 95 1","FORT MOHAVE","IA",86426,NA,NA,408,"5599 HWY 95 1, FORT MOHAVE, IA, 86426","No_Match",NA,NA,NA,NA
245909,"5599 RIVIERA PLACE","RANCHO CUCAMONGA","CA",91737,34.152585312,-117.581101993,409,"5599 RIVIERA PLACE, RANCHO CUCAMONGA, CA, 91737","Match","Exact","5599 RIVIERA PL, RANCHO CUCAMONGA, CA, 91737",614818571,"L"
245910,"5599 WIND FALL LANE","LITHONIA","GA",30058,33.722388826,-84.154603035,410,"5599 WIND FALL LANE, LITHONIA, GA, 30058","Match","Non_Exact","5599 WINDFALL LN, LITHONIA, GA, 30058",627176268,"L"
245911,"55A NASSAU DRIVE","GREAT NEXK","NY",11021,40.7920389720001,-73.7188500189999,411,"55A NASSAU DRIVE, GREAT NEXK, NY, 11021","Match","Non_Exact","55 NASSAU DR, GREAT NECK, NY, 11021",147659829,"L"
245912,"55A TRUESDALE DRIVE","CROTON ON HUDSON","NY",10520,41.199687338,-73.874765372,412,"55A TRUESDALE DRIVE, CROTON ON HUDSON, NY, 10520","Match","Exact","55 TRUESDALE DR, CROTON ON HUDSON, NY, 10520",139726456,"L"
245913,"55B GEORGE ST","MENDON","MA",1756,NA,NA,413,"55B GEORGE ST, MENDON, MA, 1756","Tie",NA,NA,NA,NA
245914,"56 19TH AVENUE","NEWARK","NJ",7103,40.731589888,-74.2109346669999,414,"56 19TH AVENUE, NEWARK, NJ, 7103","Match","Exact","56 19TH AVE, NEWARK, NJ, 07103",63465486,"R"
245915,"56 1ST STREET","COHOES","NY",12047,42.767297978,-73.694114723,415,"56 1ST STREET, COHOES, NY, 12047","Match","Exact","56 1ST ST, COHOES, NY, 12047",18312728,"R"
245916,"56 2ND ST","ALBANY","NY",12210,42.659016953,-73.754433014,416,"56 2ND ST, ALBANY, NY, 12210","Match","Exact","56 2ND ST, ALBANY, NY, 12210",18310407,"L"
245917,"56 2ND STREET","KEYPORT","NJ",7735,40.4380815760001,-74.1969847779999,417,"56 2ND STREET, KEYPORT, NJ, 7735","Match","Exact","56 2ND ST, KEYPORT, NJ, 07735",90473988,"R"
245918,"56 5TH AVE","HAVERHILL","MA",1830,42.7823492790001,-71.0834698049999,418,"56 5TH AVE, HAVERHILL, MA, 1830","Match","Exact","56 5TH AVE, HAVERHILL, MA, 01830",86617477,"L"
245919,"56 7TH AVE    APT 5B","NEW YORK","NY",10011,40.7383301680001,-73.999852639,419,"56 7TH AVE    APT 5B, NEW YORK, NY, 10011","Match","Exact","56 7TH AVE, NEW YORK, NY, 10011",59659974,"L"
245920,"56 ADAMS LAKE DR UNIT 3","WATERFORD","MI",48328,42.6405681640001,-83.373104134,420,"56 ADAMS LAKE DR UNIT 3, WATERFORD, MI, 48328","Match","Exact","56 ADAMS LAKE DR, WATERFORD, MI, 48328",69762525,"R"
245921,"56 AGNES DR","FRAMINGHAM","MA",1701,42.3249182000001,-71.446589973,421,"56 AGNES DR, FRAMINGHAM, MA, 1701","Match","Exact","56 AGNES DR, FRAMINGHAM, MA, 01701",86846923,"L"
245922,"56 ALTERA CT","KISSIMMEE","FL",34758,28.158714864,-81.486279141,422,"56 ALTERA CT, KISSIMMEE, FL, 34758","Match","Exact","56 ALTERA CT, KISSIMMEE, FL, 34758",176681427,"R"
245923,"56 ASHWOOD AVE","WILMINGTON","MA",1887,42.5995055980001,-71.153245716,423,"56 ASHWOOD AVE, WILMINGTON, MA, 1887","Match","Exact","56 ASHWOOD AVE, WILMINGTON, MA, 01887",612233634,"L"
245924,"56 AUGUSTA DR","ANNVILLE","PA",17003,40.3049267820001,-76.567825112,424,"56 AUGUSTA DR, ANNVILLE, PA, 17003","Match","Exact","56 AUGUSTA DR, ANNVILLE, PA, 17003",611345371,"R"
245925,"56 BLACK BEAR COURT","ALBRIGHT","WV",26519,39.613650814,-79.703132209,425,"56 BLACK BEAR COURT, ALBRIGHT, WV, 26519","Match","Exact","56 BLACK BEAR CT, ALBRIGHT, WV, 26519",611589214,"R"
245926,"56 BLAKE AVENUE","BROOKLYN","NY",11212,40.664347654,-73.9182928829999,426,"56 BLAKE AVENUE, BROOKLYN, NY, 11212","Match","Exact","56 BLAKE AVE, BROOKLYN, NY, 11212",59083951,"R"
245927,"56 BOND STREET","ROCHESTER","NY",14620,43.1441155910001,-77.602055905,427,"56 BOND STREET, ROCHESTER, NY, 14620","Match","Exact","56 BOND ST, ROCHESTER, NY, 14620",14540431,"L"
245928,"56 BRANDY WINE TERR","ROCHESTER","NY",14623,43.0617247980001,-77.6539155039999,428,"56 BRANDY WINE TERR, ROCHESTER, NY, 14623","Match","Non_Exact","56 BRANDYWINE TER S, ROCHESTER, NY, 14623",14535025,"L"
245929,"56 BROOK SIDE AVE","NAUGATUCK","CT",6770,41.488483935,-73.071633333,429,"56 BROOK SIDE AVE, NAUGATUCK, CT, 6770","Match","Non_Exact","56 BROOKSIDE AVE, NAUGATUCK, CT, 06770",3717121,"L"
245930,"56 BROOKFIELD DRIVE","JACKSON","NJ",8527,40.134776614,-74.299585076,430,"56 BROOKFIELD DRIVE, JACKSON, NJ, 8527","Match","Exact","56 BROOKFIELD DR, JACKSON, NJ, 08527",641818616,"L"
245931,"56 BROOME CORPORATE PKWY","CONKLIN","NY",13748,NA,NA,431,"56 BROOME CORPORATE PKWY, CONKLIN, NY, 13748","No_Match",NA,NA,NA,NA
245932,"56 BUFFINGTON ST","SWANSEA","MA",2777,41.750598043,-71.158310861,432,"56 BUFFINGTON ST, SWANSEA, MA, 2777","Match","Exact","56 BUFFINGTON ST, SWANSEA, MA, 02777",46768428,"L"
245933,"56 BURROUGHS DRIVE","PALM COAST","FL",32137,29.5879848070001,-81.252800586,433,"56 BURROUGHS DRIVE, PALM COAST, FL, 32137","Match","Exact","56 BURROUGHS DR, PALM COAST, FL, 32137",94948188,"L"
245934,"56 CANTERBURY STREET","HARTFORD","CT",6112,41.788619366,-72.696951688,434,"56 CANTERBURY STREET, HARTFORD, CT, 6112","Match","Exact","56 CANTERBURY ST, HARTFORD, CT, 06112",3488878,"R"
245935,"56 CHAPEL CENTER LN","SMITHS GROVE","KY",42171,NA,NA,435,"56 CHAPEL CENTER LN, SMITHS GROVE, KY, 42171","No_Match",NA,NA,NA,NA
245936,"56 CHAPMAN ROAD","GARRISON","NY",10524,41.3816090080001,-73.889656542,436,"56 CHAPMAN ROAD, GARRISON, NY, 10524","Match","Exact","56 CHAPMAN RD, GARRISON, NY, 10524",640422865,"R"
245937,"56 CHEROKEE","IRVINE","CA",92602,33.738119854,-117.756265696,437,"56 CHEROKEE, IRVINE, CA, 92602","Match","Exact","56 CHEROKEE, IRVINE, CA, 92602",649297220,"L"
245938,"56 CHURCH LN","WESTPORT","CT",6880,41.1424568890001,-73.359590059,438,"56 CHURCH LN, WESTPORT, CT, 6880","Match","Exact","56 CHURCH LN, WESTPORT, CT, 06880",3238277,"R"
245939,"56 CHURCH STREET","NEWPORT CENTER","VT",5857,44.95140888,-72.303853257,439,"56 CHURCH STREET, NEWPORT CENTER, VT, 5857","Match","Exact","56 CHURCH ST, NEWPORT CENTER, VT, 05857",196750577,"L"
245940,"56 CLEVELAND ST","BELLEVILLE","NJ",7109,40.782764334,-74.1553427389999,440,"56 CLEVELAND ST, BELLEVILLE, NJ, 7109","Match","Exact","56 CLEVELAND ST, BELLEVILLE, NJ, 07109",63455511,"R"
245941,"56 CLIFFORD PLACE","BRONX","NY",10453,40.846145054,-73.9121145779999,441,"56 CLIFFORD PLACE, BRONX, NY, 10453","Match","Exact","56 CLIFFORD PL, BRONX, NY, 10453",80299709,"R"
245942,"56 CLIMBING ASTER WAY","ASHEVILLE","NC",28806,35.6138172190001,-82.6484862039999,442,"56 CLIMBING ASTER WAY, ASHEVILLE, NC, 28806","Match","Exact","56 CLIMBING ASTER WAY, ASHEVILLE, NC, 28806",648319121,"R"
245943,"56 COLLEEN CIRCLE","EWING","NJ",8638,40.2740670530001,-74.772494765,443,"56 COLLEEN CIRCLE, EWING, NJ, 8638","Match","Exact","56 COLLEEN CIR, EWING, NJ, 08638",60186968,"R"
245944,"56 COMMON STREET","SCITUATE","MA",2066,42.190599293,-70.735828144,444,"56 COMMON STREET, SCITUATE, MA, 2066","Match","Exact","56 COMMON ST, SCITUATE, MA, 02066",87433050,"L"
245945,"56 CONCORD ST","HAMDEN","CT",6514,41.3526087010001,-72.932784016,445,"56 CONCORD ST, HAMDEN, CT, 6514","Match","Exact","56 CONCORD ST, HAMDEN, CT, 06514",3699309,"L"
245946,"56 COOPER RD","CLEVES","OH",45002,39.1688620470001,-84.7506166169999,446,"56 COOPER RD, CLEVES, OH, 45002","Match","Non_Exact","56 COOPER AVE, CLEVES, OH, 45002",103949541,"R"
245947,"56 COPELAND","HOMER","NY",13077,42.6292985750001,-76.1880454,447,"56 COPELAND, HOMER, NY, 13077","Match","Non_Exact","56 COPELAND AVE, HOMER, NY, 13077",640425196,"R"
245948,"56 CROOKED AVENUE","SAN ANSELMO","CA",94960,37.9810534430001,-122.55640792,448,"56 CROOKED AVENUE, SAN ANSELMO, CA, 94960","Match","Exact","56 CROOKED AVE, SAN ANSELMO, CA, 94960",192763598,"R"
245949,"56 DANBURY ROAD STE 10","NEW MILFORD","CT",6776,41.5664208600001,-73.4145567959999,449,"56 DANBURY ROAD STE 10, NEW MILFORD, CT, 6776","Match","Exact","56 DANBURY RD, NEW MILFORD, CT, 06776",3111494,"R"
245950,"56 DANIEL STREET","CARTERET","NJ",7008,40.574987853,-74.235457171,450,"56 DANIEL STREET, CARTERET, NJ, 7008","Match","Exact","56 DANIEL ST, CARTERET, NJ, 07008",60277080,"R"
245951,"56 DARLING STREET","SOUTHINGTON","CT",6489,41.6117966580001,-72.868552595,451,"56 DARLING STREET, SOUTHINGTON, CT, 6489","Match","Exact","56 DARLING ST, SOUTHINGTON, CT, 06489",645550226,"R"
245952,"56 DORCAR ROAD","CHESTNUT HILL","MA",2467,42.3018723370001,-71.1746564869999,452,"56 DORCAR ROAD, CHESTNUT HILL, MA, 2467","Match","Exact","56 DORCAR RD, CHESTNUT HILL, MA, 02467",86867302,"L"
245953,"56 E ASCOT PL","FRESNO","CA",93720,NA,NA,453,"56 E ASCOT PL, FRESNO, CA, 93720","No_Match",NA,NA,NA,NA
245954,"56 E CHESTER ST","KINGSTON","NY",12401,41.9275393030001,-73.991076613,454,"56 E CHESTER ST, KINGSTON, NY, 12401","Match","Exact","56 E CHESTER ST, KINGSTON, NY, 12401",41879635,"L"
245955,"56 E FREMONT PL","LOS ANGELES","CA",90005,34.0593975100001,-118.326957419,455,"56 E FREMONT PL, LOS ANGELES, CA, 90005","Match","Exact","56 FREMONT PL, LOS ANGELES, CA, 90005",141600433,"L"
245956,"56 E LAKEVIEW AVE","ROUND LAKE BEACH","IL",60073,42.369325008,-88.080767927,456,"56 E LAKEVIEW AVE, ROUND LAKE BEACH, IL, 60073","Match","Exact","56 E LAKEVIEW AVE, ROUND LAKE BEACH, IL, 60073",647242876,"L"
245957,"56 EAST BOULEVARD","GLOVERSVILLE","NY",12078,NA,NA,457,"56 EAST BOULEVARD, GLOVERSVILLE, NY, 12078","No_Match",NA,NA,NA,NA
245958,"56 EAST THISTLE DRIVE","NEW MARTINSVILLE","WV",26155,39.6792205410001,-80.854709176,458,"56 EAST THISTLE DRIVE, NEW MARTINSVILLE, WV, 26155","Match","Exact","56 E THISTLE DR, NEW MARTINSVILLE, WV, 26155",51582396,"R"
245959,"56 EATON PLACE","BEAR","DE",19701,39.5772067730001,-75.7489446439999,459,"56 EATON PLACE, BEAR, DE, 19701","Match","Exact","56 EATON PL, BEAR, DE, 19701",187287717,"L"
245960,"56 ELLIOTT PLACE","RUTHERFORD","NJ",7070,40.8285857980001,-74.109136329,460,"56 ELLIOTT PLACE, RUTHERFORD, NJ, 7070","Match","Exact","56 ELLIOTT PL, RUTHERFORD, NJ, 07070",64395418,"R"
245961,"56 EVERETT","IRVINE","CA",92618,33.6997695680001,-117.716660272,461,"56 EVERETT, IRVINE, CA, 92618","Match","Exact","56 EVERETT, IRVINE, CA, 92618",641613698,"L"
245962,"56 FERN HILL RD","GHENT","NY",12075,42.2744832660001,-73.587498624,462,"56 FERN HILL RD, GHENT, NY, 12075","Match","Exact","56 FERN HILL RD, GHENT, NY, 12075",41510327,"R"
245963,"56 FORBES ST APT 2","BOSTON","MA",2130,42.3215248450001,-71.107244626,463,"56 FORBES ST APT 2, BOSTON, MA, 2130","Match","Exact","56 FORBES ST, BOSTON, MA, 02130",85724564,"L"
245964,"56 FORRESTER ST SW APT 4","WASHINGTON","DC",20032,38.8251756330001,-77.0089073189999,464,"56 FORRESTER ST SW APT 4, WASHINGTON, DC, 20032","Match","Exact","56 FORRESTER ST SW, WASHINGTON, DC, 20032",76227878,"L"
245965,"56 FOX TRACE LANE","HUDSON","OH",44236,41.23752195,-81.430650906,465,"56 FOX TRACE LANE, HUDSON, OH, 44236","Match","Exact","56 FOX TRACE LN, HUDSON, OH, 44236",61366579,"R"
245966,"56 FRANKLIN SPRINGS CIR","ROYSTON","GA",30662,34.285402135,-83.119468405,466,"56 FRANKLIN SPRINGS CIR, ROYSTON, GA, 30662","Match","Exact","56 FRANKLIN SPRING CIR, ROYSTON, GA, 30662",614086948,"L"
245967,"56 FREEMONT TN","PALM COAST","FL",32137,NA,NA,467,"56 FREEMONT TN, PALM COAST, FL, 32137","Tie",NA,NA,NA,NA
245968,"56 GINGER DRIVE","LUMBERTON","NJ",8048,39.973718456,-74.778504056,468,"56 GINGER DRIVE, LUMBERTON, NJ, 8048","Match","Exact","56 GINGER DR, LUMBERTON, NJ, 08048",134055171,"R"
245969,"56 GNARLED HOLLOW ROAD","EAST SETAUKET","NY",17733,40.9363538870001,-73.099534708,469,"56 GNARLED HOLLOW ROAD, EAST SETAUKET, NY, 17733","Match","Non_Exact","56 GNARLED HOLLOW RD, EAST SETAUKET, NY, 11733",114000514,"R"
245970,"56 GRANDVIEW DRIVE","WESTFIELD","MA",1085,42.122871408,-72.7033204159999,470,"56 GRANDVIEW DRIVE, WESTFIELD, MA, 1085","Match","Exact","56 GRANDVIEW DR, WESTFIELD, MA, 01085",4031765,"L"
245971,"56 HAINES STREET","MEDFORD","MA",2155,42.438717184,-71.096678003,471,"56 HAINES STREET, MEDFORD, MA, 2155","Match","Exact","56 HAINES ST, MEDFORD, MA, 02155",86858195,"L"
245972,"56 HAMILTON STREET","HYDE PARK","MA",2136,42.233802057,-71.1323477129999,472,"56 HAMILTON STREET, HYDE PARK, MA, 2136","Match","Exact","56 HAMILTON ST, HYDE PARK, MA, 02136",85704729,"L"
245973,"56 HAMILTON TERRACE","NEW YORK","NY",10031,40.822792936,-73.9465063659999,473,"56 HAMILTON TERRACE, NEW YORK, NY, 10031","Match","Exact","56 HAMILTON TER, NEW YORK, NY, 10031",59655981,"L"
245974,"56 HARBOR POINTE","LEBANON","TN",37087,36.305548673,-86.4644591209999,474,"56 HARBOR POINTE, LEBANON, TN, 37087","Match","Non_Exact","56 HARBOR DR, LEBANON, TN, 37087",89703336,"L"
245975,"56 HARVEY JOHNSON ROAD","JACKSON","TN",38301,35.5879687680001,-88.966262918,475,"56 HARVEY JOHNSON ROAD, JACKSON, TN, 38301","Match","Exact","56 HARVEY JOHNSON RD, JACKSON, TN, 38301",644687023,"L"
245976,"56 HEWLETT AVE / PO BOX 381","POINT LOOKOUT","NY",11569,40.591319884,-73.579105738,476,"56 HEWLETT AVE / PO BOX 381, POINT LOOKOUT, NY, 11569","Match","Exact","56 HEWLETT AVE, POINT LOOKOUT, NY, 11569",147638946,"L"
245977,"56 HIGHVIEW AVE","WEST HAVEN","CT",6516,41.3051940940001,-72.967742443,477,"56 HIGHVIEW AVE, WEST HAVEN, CT, 6516","Match","Exact","56 HIGHVIEW AVE, W HAVEN, CT, 06516",3697738,"R"
245978,"56 HIGHVIEW AVENUE","WEST HAVEN","CT",6516,41.3051940940001,-72.967742443,478,"56 HIGHVIEW AVENUE, WEST HAVEN, CT, 6516","Match","Exact","56 HIGHVIEW AVE, W HAVEN, CT, 06516",3697738,"R"
245979,"56 HOLLAND ROAD","FARMVILLE","VA",23901,37.397313124,-78.483315089,479,"56 HOLLAND ROAD, FARMVILLE, VA, 23901","Match","Exact","56 HOLLAND RD, FARMVILLE, VA, 23901",636650955,"R"
245980,"56 HOLLY HILLS DRIVE","EVANS","WV",25241,38.8060236210001,-81.796202084,480,"56 HOLLY HILLS DRIVE, EVANS, WV, 25241","Match","Exact","56 HOLLY HILLS DR, EVANS, WV, 25241",130493287,"L"
245981,"56 HOLLY TREE LANE","MIDDLEBOROUGH","MA",2346,41.8271174010001,-70.871662993,481,"56 HOLLY TREE LANE, MIDDLEBOROUGH, MA, 2346","Match","Non_Exact","56 HOLLY TREE LN, MIDDLEBORO, MA, 02346",87489566,"L"
245982,"56 HOWLAND STREET","BROCKTON","MA",2302,42.0873135630001,-70.996535771,482,"56 HOWLAND STREET, BROCKTON, MA, 2302","Match","Exact","56 HOWLAND ST, BROCKTON, MA, 02302",87442919,"L"
245983,"56 IRON WILL COVE","WAYNESVILLE","NC",28784,35.663709757,-83.01244005,483,"56 IRON WILL COVE, WAYNESVILLE, NC, 28784","Match","Non_Exact","56 IRON WILL COVE, WAYNESVILLE, NC, 28785",151825371,"R"
245984,"56 ISLAND COURSE AVE","LAS VEGAS","NV",89148,NA,NA,484,"56 ISLAND COURSE AVE, LAS VEGAS, NV, 89148","No_Match",NA,NA,NA,NA
245985,"56 JAMES ROIAD","AMERICAN CANYON","CA",94503,38.1676032240001,-122.255905659,485,"56 JAMES ROIAD, AMERICAN CANYON, CA, 94503","Match","Non_Exact","56 JAMES RD, AMERICAN CANYON, CA, 94503",67418504,"L"
245986,"56 JEWELS COURT","NEW PALTZ","NY",12561,41.7107880040001,-74.117751568,486,"56 JEWELS COURT, NEW PALTZ, NY, 12561","Match","Exact","56 JEWELS CT, NEW PALTZ, NY, 12561",623946871,"R"
245987,"56 JIB LANE","BRICK","NJ",8723,40.029538567,-74.1226446809999,487,"56 JIB LANE, BRICK, NJ, 8723","Match","Exact","56 JIB LN, BRICK, NJ, 08723",203736431,"L"
245988,"56 JONQUIL WAY","SICKLERVILLE","NJ",8081,39.7346189690001,-75.01776626,488,"56 JONQUIL WAY, SICKLERVILLE, NJ, 8081","Match","Exact","56 JONQUIL WAY, SICKLERVILLE, NJ, 08081",134375899,"R"
245989,"56 JOY LANE","OLD BRIDGE","NJ",8857,40.3672736080001,-74.358424606,489,"56 JOY LANE, OLD BRIDGE, NJ, 8857","Match","Exact","56 JOY LN, OLD BRIDGE, NJ, 08857",60255453,"R"
245990,"56 JOY STREET 3E","BOSTON","MA",2114,NA,NA,490,"56 JOY STREET 3E, BOSTON, MA, 2114","No_Match",NA,NA,NA,NA
245991,"56 KING STREET","LITTLETON","MA",1460,42.5390852370001,-71.506724291,491,"56 KING STREET, LITTLETON, MA, 1460","Match","Exact","56 KING ST, LITTLETON, MA, 01460",87096349,"L"
245992,"56 LAFAYET AVENUE","PASSAIC","NJ",7055,NA,NA,492,"56 LAFAYET AVENUE, PASSAIC, NJ, 7055","No_Match",NA,NA,NA,NA
245993,"56 LAFAYETTE AVENUE","PASSAIC","NJ",7055,40.852425172,-74.124002304,493,"56 LAFAYETTE AVENUE, PASSAIC, NJ, 7055","Match","Exact","56 LAFAYETTE AVE, PASSAIC, NJ, 07055",65269449,"R"
245994,"56 LANE RD","DEBLOIS","ME",4622,44.739831618,-68.0205167189999,494,"56 LANE RD, DEBLOIS, ME, 4622","Match","Exact","56 LANE RD, DEBLOIS, ME, 04622",625105770,"R"
245995,"56 LEGEND HILL ROAD","MADISON","CT",6443,41.3456005470001,-72.629825115,495,"56 LEGEND HILL ROAD, MADISON, CT, 6443","Match","Exact","56 LEGEND HILL RD, MADISON, CT, 06443",631725015,"R"
245996,"56 LINCOLN AVENUE","LOCKPORT","NY",14094,43.1541724840001,-78.6943835719999,496,"56 LINCOLN AVENUE, LOCKPORT, NY, 14094","Match","Exact","56 LINCOLN AVE, LOCKPORT, NY, 14094",48691307,"R"
245997,"56 LITCHFIELD AVE","SOUTHBRIDGE","MA",1550,42.0747841020001,-72.0498485209999,497,"56 LITCHFIELD AVE, SOUTHBRIDGE, MA, 1550","Match","Exact","56 LITCHFIELD AVE, SOUTHBRIDGE, MA, 01550",40070971,"L"
245998,"56 LONGLEAF LANE","GREENVILLE","AL",36037,31.8745568310001,-86.6524389749999,498,"56 LONGLEAF LANE, GREENVILLE, AL, 36037","Match","Non_Exact","56 LONG LEAF LN, GREENVILLE, AL, 36037",639564278,"R"
245999,"56 LONGYEAR ROAD","SHOKAN","NY",12481,41.971848019,-74.2271976229999,499,"56 LONGYEAR ROAD, SHOKAN, NY, 12481","Match","Exact","56 LONGYEAR RD, SHOKAN, NY, 12481",648147948,"L"
246000,"56 LORELEI LANE","MENLO PARK","CA",94025,37.4778008220001,-122.182535897,500,"56 LORELEI LANE, MENLO PARK, CA, 94025","Match","Exact","56 LORELEI LN, MENLO PARK, CA, 94025",192365014,"R"
