"ID","Address","City","State","Zip","lat","long","id","input_address","match_indicator","match_type","matched_address","tiger_line_id","tiger_side"
81001,"16606 BARKER MARSH DR","CYPRESS","TX",77429,29.9861217960001,-95.680234141,1,"16606 BARKER MARSH DR, CYPRESS, TX, 77429","Match","Exact","16606 BARKER MARSH DR, CYPRESS, TX, 77429",629612066,"L"
81002,"16606 CYPRESS MARSH CT","CYPRESS","TX",77429,29.9846724560001,-95.679873919,2,"16606 CYPRESS MARSH CT, CYPRESS, TX, 77429","Match","Exact","16606 CYPRESS MARSH CT, CYPRESS, TX, 77429",641891478,"R"
81003,"16606 FOOTHILL DR","TAMPA","FL",33624,28.109172684,-82.5329858599999,3,"16606 FOOTHILL DR, TAMPA, FL, 33624","Match","Exact","16606 FOOTHILL DR, TAMPA, FL, 33624",104509565,"L"
81004,"16606 FOOTHILL DRIVE","TAMPA","FL",33624,28.109172684,-82.5329858599999,4,"16606 FOOTHILL DRIVE, TAMPA, FL, 33624","Match","Exact","16606 FOOTHILL DR, TAMPA, FL, 33624",104509565,"L"
81005,"16606 SADDLE CLUB RD","WESTON","FL",33326,26.11650874,-80.376086468,5,"16606 SADDLE CLUB RD, WESTON, FL, 33326","Match","Exact","16606 SADDLE CLUB RD, WESTON, FL, 33326",114776153,"R"
81006,"16606 SPRING MILL ROAD","WESTFIELD","IN",46074,40.027820988,-86.164943508,6,"16606 SPRING MILL ROAD, WESTFIELD, IN, 46074","Match","Exact","16606 SPRING MILL RD, WESTFIELD, IN, 46074",645018800,"L"
81007,"16607 E BROOKPORT ST","COVINA","CA",91722,NA,NA,7,"16607 E BROOKPORT ST, COVINA, CA, 91722","No_Match",NA,NA,NA,NA
81008,"16607 QUAIL PARK DR","MISSOURI CITY","TX",77489,29.5858406450001,-95.517928292,8,"16607 QUAIL PARK DR, MISSOURI CITY, TX, 77489","Match","Exact","16607 QUAIL PARK DR, MISSOURI CITY, TX, 77489",78271129,"R"
81009,"16607 SW 81ST TERRACE","MIAMI","FL",33193,25.6900253700001,-80.46120717,9,"16607 SW 81ST TERRACE, MIAMI, FL, 33193","Match","Exact","16607 SW 81ST TER, MIAMI, FL, 33193",625215105,"R"
81010,"16608 LAKE HEATHER DRIVE","TAMPA","FL",33618,28.107093295,-82.495081838,10,"16608 LAKE HEATHER DRIVE, TAMPA, FL, 33618","Match","Exact","16608 LAKE HEATHER DR, TAMPA, FL, 33618",104580054,"R"
81011,"16609 YAKIMA STREET NW","ANDOVER","MN",55304,45.271655104,-93.396802674,11,"16609 YAKIMA STREET NW, ANDOVER, MN, 55304","Match","Exact","16609 YAKIMA ST NW, ANDOVER, MN, 55304",97480336,"R"
81012,"1661 BAY POINT DRIVE","VIRGINIA BEACH","VA",23454,36.893322798,-76.036486125,12,"1661 BAY POINT DRIVE, VIRGINIA BEACH, VA, 23454","Match","Exact","1661 BAY POINT DR, VIRGINIA BCH, VA, 23454",122261145,"L"
81013,"1661 BROADWAY","LUBBOCK","TX",79491,NA,NA,13,"1661 BROADWAY, LUBBOCK, TX, 79491","No_Match",NA,NA,NA,NA
81014,"1661 BUSH AVENUE","LAKELAND","FL",33805,28.0671742760001,-81.9704625259999,14,"1661 BUSH AVENUE, LAKELAND, FL, 33805","Match","Exact","1661 BUSH AVE, LAKELAND, FL, 33805",104807240,"R"
81015,"1661 DREISBACH DRIVE","AKRON","OH",44320,41.0610795210001,-81.586816356,15,"1661 DREISBACH DRIVE, AKRON, OH, 44320","Match","Exact","1661 DREISBACH DR, AKRON, OH, 44320",61342627,"R"
81016,"1661 E HIGHLAND RD","WAXAHACHIE","TX",75167,32.4899544150001,-96.842445719,16,"1661 E HIGHLAND RD, WAXAHACHIE, TX, 75167","Match","Exact","1661 E HIGHLAND RD, WAXAHACHIE, TX, 75167",647955262,"L"
81017,"1661 EAGLE BEND","WESTON","FL",33327,26.1254304,-80.417286017,17,"1661 EAGLE BEND, WESTON, FL, 33327","Match","Exact","1661 EAGLE BEND, WESTON, FL, 33327",114803068,"L"
81018,"1661 GEORGETOWN WAY","SALINAS","CA",93906,NA,NA,18,"1661 GEORGETOWN WAY, SALINAS, CA, 93906","No_Match",NA,NA,NA,NA
81019,"1661 HARRIS RD","SHEFFIELD VILLAGE","OH",44054,41.468959102,-82.094843506,19,"1661 HARRIS RD, SHEFFIELD VILLAGE, OH, 44054","Match","Exact","1661 HARRIS RD, SHEFFIELD VILLAGE, OH, 44054",55416193,"L"
81020,"1661 INTERNATIONAL DRIVE STE 400","MEMPHIS","TN",38120,35.102980718,-89.848350567,20,"1661 INTERNATIONAL DRIVE STE 400, MEMPHIS, TN, 38120","Match","Exact","1661 INTERNATIONAL DR, MEMPHIS, TN, 38120",638169474,"L"
81021,"1661 INTERNATIONAL PLACE DRIVE STE","MEMPHIS","TN",38120,35.102980718,-89.848350567,21,"1661 INTERNATIONAL PLACE DRIVE STE, MEMPHIS, TN, 38120","Match","Non_Exact","1661 INTERNATIONAL DR, MEMPHIS, TN, 38120",638169474,"L"
81022,"1661 JACKSON SQUARE NW","ATLANTA","GA",30318,NA,NA,22,"1661 JACKSON SQUARE NW, ATLANTA, GA, 30318","No_Match",NA,NA,NA,NA
81023,"1661 JOHNSON LANE","MCKINLEYVILLE","CA",95519,40.9692639360001,-124.09980455,23,"1661 JOHNSON LANE, MCKINLEYVILLE, CA, 95519","Match","Exact","1661 JOHNSON LN, MCKINLEYVILLE, CA, 95519",113023962,"L"
81024,"1661 LEFT FORK LONG FORK","VIRGIE","KY",41572,NA,NA,24,"1661 LEFT FORK LONG FORK, VIRGIE, KY, 41572","No_Match",NA,NA,NA,NA
81025,"1661 MANDARIN DRIVE","CINCINNATI","OH",45240,39.291418922,-84.543075492,25,"1661 MANDARIN DRIVE, CINCINNATI, OH, 45240","Match","Exact","1661 MANDARIN DR, CINCINNATI, OH, 45240",103948215,"L"
81026,"1661 MASSACHUSETTS AVE NO 361","LEXINGTON","MA",2420,42.44663659,-71.225252269,26,"1661 MASSACHUSETTS AVE NO 361, LEXINGTON, MA, 2420","Match","Non_Exact","1661 MASSACHUSETTS AVE, LEXINGTON, MA, 02420",86882100,"R"
81027,"1661 MASSACHUSETTS AVE UNIT 1775","LEXINGTON","MA",2420,42.44663659,-71.225252269,27,"1661 MASSACHUSETTS AVE UNIT 1775, LEXINGTON, MA, 2420","Match","Exact","1661 MASSACHUSETTS AVE, LEXINGTON, MA, 02420",86882100,"R"
81028,"1661 N MAIN STREET","SUNSET","UT",84015,41.1378760790001,-112.026025528,28,"1661 N MAIN STREET, SUNSET, UT, 84015","Match","Exact","1661 N MAIN ST, SUNSET, UT, 84015",640946568,"L"
81029,"1661 N RAYMOND AVE  SUITE 190J","ANAHEIM","CA",92801,33.8586124730001,-117.906778456,29,"1661 N RAYMOND AVE  SUITE 190J, ANAHEIM, CA, 92801","Match","Non_Exact","1661 N RAYMOND AVE, ANAHEIM, CA, 92801",144130530,"L"
81030,"1661 NOIR LANE","CANTONMENT","FL",32533,30.673970088,-87.382260033,30,"1661 NOIR LANE, CANTONMENT, FL, 32533","Match","Exact","1661 NOIR LN, CANTONMENT, FL, 32533",93248175,"L"
81031,"1661 OLD COUNTRY ROAD SUITE 307","RIVERHEAD","NY",11901,40.9243684850001,-72.7024326769999,31,"1661 OLD COUNTRY ROAD SUITE 307, RIVERHEAD, NY, 11901","Match","Non_Exact","1661 OLD COUNTRY RD, RIVERHEAD, NY, 11901",114023783,"R"
81032,"1661 OLD HENDERSON RD","COLUMBUS","OH",43220,40.0527642800001,-83.064141316,32,"1661 OLD HENDERSON RD, COLUMBUS, OH, 43220","Match","Exact","1661 OLD HENDERSON RD, COLUMBUS, OH, 43220",637393685,"L"
81033,"1661 OLD OAK COURT","PROSPER","TX",75078,33.2560353860001,-96.8029193899999,33,"1661 OLD OAK COURT, PROSPER, TX, 75078","Match","Exact","1661 OLD OAK CT, PROSPER, TX, 75078",648130579,"R"
81034,"1661 OVERLOOK RD","LONGWOOD","FL",32750,28.722988145,-81.365706087,34,"1661 OVERLOOK RD, LONGWOOD, FL, 32750","Match","Exact","1661 OVERLOOK RD, LONGWOOD, FL, 32750",93736782,"L"
81035,"1661 PARK RD NW APT 205","WASHINGTON","DC",20010,38.932203013,-77.03785809,35,"1661 PARK RD NW APT 205, WASHINGTON, DC, 20010","Match","Exact","1661 PARK RD NW, WASHINGTON, DC, 20010",76222850,"R"
81036,"1661 PARK RIDGE DRIVE","CHASKA","MN",55318,44.8067195180001,-93.59463888,36,"1661 PARK RIDGE DRIVE, CHASKA, MN, 55318","Match","Exact","1661 PARK RIDGE DR, CHASKA, MN, 55318",43516376,"R"
81037,"1661 RAYMOND AVE STE 265","FULLERTON","CA",92831,33.8872487130001,-117.907609205,37,"1661 RAYMOND AVE STE 265, FULLERTON, CA, 92831","Match","Non_Exact","1661 N RAYMOND AVE, FULLERTON, CA, 92831",144008889,"L"
81038,"1661 RINGLING BLVD 75","SARASOTA","FL",34230,27.3349543590001,-82.53701932,38,"1661 RINGLING BLVD 75, SARASOTA, FL, 34230","Match","Exact","1661 RINGLING BLVD, SARASOTA, FL, 34230",16348002,"L"
81039,"1661 ROBIN HILL CT","CHARLOTTESVILLE","VA",22901,38.081722873,-78.458870484,39,"1661 ROBIN HILL CT, CHARLOTTESVILLE, VA, 22901","Match","Exact","1661 ROBIN HILL CT, CHARLOTTESVILLE, VA, 22901",83370353,"R"
81040,"1661 S  APOLLO DR","CHANDLER","AZ",85286,33.2818450030001,-111.874221252,40,"1661 S  APOLLO DR, CHANDLER, AZ, 85286","Match","Exact","1661 S APOLLO DR, CHANDLER, AZ, 85286",128369543,"L"
81041,"1661 S STUART ST","DENVER","CO",80219,39.6865606970001,-105.043215616,41,"1661 S STUART ST, DENVER, CO, 80219","Match","Exact","1661 S STUART ST, DENVER, CO, 80219",177327178,"R"
81042,"1661 SHORT STREET","BERKELEY","CA",94702,37.8751405130001,-122.28341116,42,"1661 SHORT STREET, BERKELEY, CA, 94702","Match","Exact","1661 SHORT ST, BERKELEY, CA, 94702",124993497,"L"
81043,"1661 SYKES RD","MEBANE","NC",27302,36.053688267,-79.27677428,43,"1661 SYKES RD, MEBANE, NC, 27302","Match","Exact","1661 SYKES RD, MEBANE, NC, 27302",650216043,"L"
81044,"1661 TENNESSEE ST SUITE 2L","SAN FRANCISCO","CA",94107,37.750733229,-122.388549992,44,"1661 TENNESSEE ST SUITE 2L, SAN FRANCISCO, CA, 94107","Match","Exact","1661 TENNESSEE ST, SAN FRANCISCO, CA, 94107",192289778,"L"
81045,"1661 WEST AVENUE PO BOX 398321","MIAMI BEACH","FL",33139,25.791734037,-80.1424685979999,45,"1661 WEST AVENUE PO BOX 398321, MIAMI BEACH, FL, 33139","Match","Exact","1661 WEST AVE, MIAMI BEACH, FL, 33139",611799073,"R"
81046,"16610 BONNY RIDGE CT","HOUSTON","TX",77053,29.5828165140001,-95.453534466,46,"16610 BONNY RIDGE CT, HOUSTON, TX, 77053","Match","Exact","16610 BONNY RIDGE CT, HOUSTON, TX, 77053",78295532,"R"
81047,"16610 MACK AVE","GROSSE POINTE","MI",48230,42.393057948,-82.926966348,47,"16610 MACK AVE, GROSSE POINTE, MI, 48230","Match","Exact","16610 MACK AVE, GROSSE POINTE, MI, 48230",95489126,"R"
81048,"16610 PEACH ST","BOWIE","MD",20716,38.9122198100001,-76.716648322,48,"16610 PEACH ST, BOWIE, MD, 20716","Match","Exact","16610 PEACH ST, BOWIE, MD, 20716",642143115,"L"
81049,"16611 LAS RAMBLAS LANE UNIT R","PARKER","CO",80134,39.5464602270001,-104.796411075,49,"16611 LAS RAMBLAS LANE UNIT R, PARKER, CO, 80134","Match","Exact","16611 LAS RAMBLAS LN, PARKER, CO, 80134",625691138,"L"
81050,"16611 MOSSCREEK STREET","TUSTIN","CA",92782,NA,NA,50,"16611 MOSSCREEK STREET, TUSTIN, CA, 92782","No_Match",NA,NA,NA,NA
81051,"16611 VERDIN ST NW","ANDOVER","MN",55304,45.2722195360001,-93.3261796739999,51,"16611 VERDIN ST NW, ANDOVER, MN, 55304","Match","Exact","16611 VERDIN ST NW, ANDOVER, MN, 55304",97511121,"R"
81052,"16612 CREEKSIDE DRC","SONORA","CA",95370,38.017861468,-120.274659078,52,"16612 CREEKSIDE DRC, SONORA, CA, 95370","Match","Non_Exact","16612 CREEKSIDE DR, SONORA, CA, 95370",101453955,"L"
81053,"16612 DIVER STREET","CANYON COUNTRY","CA",91343,34.396617474,-118.426145316,53,"16612 DIVER STREET, CANYON COUNTRY, CA, 91343","Match","Non_Exact","16612 DIVER ST, CANYON CNTRY, CA, 91387",141861311,"R"
81054,"16612 LUCILLE ST","OVERLAND PARK","KS",66221,38.826840077,-94.721327146,54,"16612 LUCILLE ST, OVERLAND PARK, KS, 66221","Match","Exact","16612 LUCILLE ST, OVERLAND PARK, KS, 66221",641599695,"R"
81055,"16612 WINTHROP ST","DETROIT","MI",48235,42.4115103760001,-83.2005585699999,55,"16612 WINTHROP ST, DETROIT, MI, 48235","Match","Exact","16612 WINTHROP ST, DETROIT, MI, 48235",95423664,"R"
81056,"16613 HEARTWOOD DRIVE","ROCKVILLE","MD",20855,39.128636843,-77.115330521,56,"16613 HEARTWOOD DRIVE, ROCKVILLE, MD, 20855","Match","Exact","16613 HEARTWOOD DR, ROCKVILLE, MD, 20855",646661240,"R"
81057,"16613 NICOLE RIDGE ROAD","SAN DIEGO","CA",92127,33.0152372160001,-117.126587524,57,"16613 NICOLE RIDGE ROAD, SAN DIEGO, CA, 92127","Match","Exact","16613 NICOLE RIDGE RD, SAN DIEGO, CA, 92127",645074470,"L"
81058,"16614 4TH AVENUE CT E","SPANAWAY","WA",98387,47.1077273940001,-122.426020548,58,"16614 4TH AVENUE CT E, SPANAWAY, WA, 98387","Match","Exact","16614 4TH AVENUE CT E, SPANAWAY, WA, 98387",184760158,"L"
81059,"16614 BLOUNTSTOWN HWY","TALLAHASSEE","FL",32310,30.4232861080001,-84.539068287,59,"16614 BLOUNTSTOWN HWY, TALLAHASSEE, FL, 32310","Match","Exact","16614 BLOUNTSTOWN HWY, TALLAHASSEE, FL, 32310",82886940,"L"
81060,"16614 EASTBURN ST","DETROIT","MI",48205,42.445695266,-82.948348357,60,"16614 EASTBURN ST, DETROIT, MI, 48205","Match","Exact","16614 EASTBURN ST, DETROIT, MI, 48205",95467602,"R"
81061,"16615 DOBSON AVE","SOUTH HOLLAND","IL",60473,41.5931868590001,-87.592143661,61,"16615 DOBSON AVE, SOUTH HOLLAND, IL, 60473","Match","Exact","16615 DOBSON AVE, SOUTH HOLLAND, IL, 60473",112381451,"L"
81062,"16615 HALSTED STREET","HARVEY","IL",60426,41.587951563,-87.6364027879999,62,"16615 HALSTED STREET, HARVEY, IL, 60426","Match","Exact","16615 HALSTED ST, HARVEY, IL, 60426",616795660,"L"
81063,"16615 HODGEFIELD LANE","HOUSTON","TX",77090,30.0101762,-95.438302321,63,"16615 HODGEFIELD LANE, HOUSTON, TX, 77090","Match","Exact","16615 HODGEFIELD LN, HOUSTON, TX, 77090",624748622,"R"
81064,"16615 N 43RD AVE","PHOENIX","AZ",85053,33.6365803150001,-112.151496467,64,"16615 N 43RD AVE, PHOENIX, AZ, 85053","Match","Exact","16615 N 43RD AVE, PHOENIX, AZ, 85053",637439785,"R"
81065,"16615 NORTHWEST OAKRIDGE DRIVE","PORTLAND","OR",97229,45.5548793820001,-122.847654899,65,"16615 NORTHWEST OAKRIDGE DRIVE, PORTLAND, OR, 97229","Match","Exact","16615 NW OAKRIDGE DR, PORTLAND, OR, 97229",158217443,"L"
81066,"16615 SHAFTSBURY AVE","DETROIT","MI",48219,42.4108873850001,-83.230309456,66,"16615 SHAFTSBURY AVE, DETROIT, MI, 48219","Match","Exact","16615 SHAFTSBURY AVE, DETROIT, MI, 48219",95422358,"L"
81067,"16615 SPOTSWOOD TRAIL","RUCKERSVILLE","VA",22968,38.220481455,-78.345292125,67,"16615 SPOTSWOOD TRAIL, RUCKERSVILLE, VA, 22968","Match","Exact","16615 SPOTSWOOD TRL, RUCKERSVILLE, VA, 22968",29873803,"R"
81068,"16615 WINDSOR PARK DRIVE","LUTZ","FL",33549,28.1088846050001,-82.455917685,68,"16615 WINDSOR PARK DRIVE, LUTZ, FL, 33549","Match","Exact","16615 WINDSOR PARK DR, LUTZ, FL, 33549",104618034,"R"
81069,"16616 CONNER CREEK LN","HOUSTON","TX",77044,29.9642568470001,-95.166711538,69,"16616 CONNER CREEK LN, HOUSTON, TX, 77044","Match","Non_Exact","16616 CONNER CRREEK LN, HOUSTON, TX, 77044",645132757,"R"
81070,"16616 GLENDALE AVE","CLEVELAND","OH",44128,41.4534801710001,-81.5639311259999,70,"16616 GLENDALE AVE, CLEVELAND, OH, 44128","Match","Exact","16616 GLENDALE AVE, CLEVELAND, OH, 44128",61127505,"R"
81071,"16616 W 146TH STREET","OLATHE","KS",66062,38.8643254720001,-94.7767011829999,71,"16616 W 146TH STREET, OLATHE, KS, 66062","Match","Exact","16616 W 146TH ST, OLATHE, KS, 66062",91284208,"R"
81072,"16617 77TH PL N","MAPLE GROVE","MN",55311,45.0961332320001,-93.491194661,72,"16617 77TH PL N, MAPLE GROVE, MN, 55311","Match","Exact","16617 77TH PL N, MAPLE GROVE, MN, 55311",43857540,"R"
81073,"16617 BELLFLOWER BLVD","BELLFLOWER","CA",90706,33.8835089500001,-118.125218632,73,"16617 BELLFLOWER BLVD, BELLFLOWER, CA, 90706","Match","Exact","16617 BELLFLOWER BLVD, BELLFLOWER, CA, 90706",141742052,"R"
81074,"16617 PIONEER BLVD","ARTESIA","CA",90701,33.880016964,-118.082353064,74,"16617 PIONEER BLVD, ARTESIA, CA, 90701","Match","Exact","16617 PIONEER BLVD, ARTESIA, CA, 90701",141743826,"R"
81075,"16618 BRIGADOON DR","TAMPA","FL",33618,28.111759604,-82.4938371869999,75,"16618 BRIGADOON DR, TAMPA, FL, 33618","Match","Exact","16618 BRIGADOON DR, TAMPA, FL, 33618",104662044,"L"
81076,"16618 FLYING JIB ROAD","CORNELIUS","NC",28031,35.470186342,-80.936380145,76,"16618 FLYING JIB ROAD, CORNELIUS, NC, 28031","Match","Exact","16618 FLYING JIB RD, CORNELIUS, NC, 28031",70530047,"R"
81077,"16618 MACHODOC LNDG","KING GEORGE","VA",22485,38.2891681080001,-77.0533173599999,77,"16618 MACHODOC LNDG, KING GEORGE, VA, 22485","Match","Exact","16618 MACHODOC LNDG, KING GEORGE, VA, 22485",22055704,"R"
81078,"16619 ANSLEY WALK LN","CHARLOTTE","NC",28277,35.021136712,-80.854734704,78,"16619 ANSLEY WALK LN, CHARLOTTE, NC, 28277","Match","Exact","16619 ANSLEY WALK LN, CHARLOTTE, NC, 28277",70561092,"L"
81079,"16619 LARCH WAY APT F201","LYNNWOOD","WA",98037,47.847222361,-122.246682204,79,"16619 LARCH WAY APT F201, LYNNWOOD, WA, 98037","Match","Exact","16619 LARCH WAY, LYNNWOOD, WA, 98037",608929844,"R"
81080,"1662  NE 146 ST","MIAMI","FL",33181,25.910197607,-80.165883497,80,"1662  NE 146 ST, MIAMI, FL, 33181","Match","Exact","1662 NE 146TH ST, MIAMI, FL, 33181",116036439,"R"
81081,"1662 BROADWAY BLVD","KANSAS CITY","MO",64108,39.0936805530001,-94.588705717,81,"1662 BROADWAY BLVD, KANSAS CITY, MO, 64108","Match","Non_Exact","1662 BROADWAY ST, KANSAS CITY, MO, 64108",91445112,"R"
81082,"1662 BULLING CREEK RD","PENROSE","NC",28766,35.24959217,-82.5954445419999,82,"1662 BULLING CREEK RD, PENROSE, NC, 28766","Match","Exact","1662 BULLING CREEK RD, PENROSE, NC, 28766",634821871,"L"
81083,"1662 E EUCLID AVE","CENTENNIAL","CO",80121,39.599276144,-104.969237748,83,"1662 E EUCLID AVE, CENTENNIAL, CO, 80121","Match","Exact","1662 E EUCLID AVE, CENTENNIAL, CO, 80121",177337684,"R"
81084,"1662 EAST KENNEDY AVE","KIMBERLY","WI",54136,44.2610292620001,-88.3234465259999,84,"1662 EAST KENNEDY AVE, KIMBERLY, WI, 54136","Match","Non_Exact","1662 KENNEDY AVE, KIMBERLY, WI, 54136",653698681,"L"
81085,"1662 ELM STREET","MANCHESTER","NH",3101,43.0023155100001,-71.46468322,85,"1662 ELM STREET, MANCHESTER, NH, 3101","Match","Exact","1662 ELM ST, MANCHESTER, NH, 03101",113546715,"L"
81086,"1662 GUTHRIE ST","VIRGINIA BEACH","VA",23464,36.7878446650001,-76.1840237229999,86,"1662 GUTHRIE ST, VIRGINIA BEACH, VA, 23464","Match","Exact","1662 GUTHRIE ST, VA BCH, VA, 23464",122264332,"R"
81087,"1662 HIDEAWAY COURT","LONGMONT","CO",80503,40.138860751,-105.169536475,87,"1662 HIDEAWAY COURT, LONGMONT, CO, 80503","Match","Exact","1662 HIDEAWAY CT, LONGMONT, CO, 80503",647478570,"R"
81088,"1662 HUNTERS WAY","BOZEMAN","MT",59718,45.6960427450001,-111.07804589,88,"1662 HUNTERS WAY, BOZEMAN, MT, 59718","Match","Exact","1662 HUNTERS WAY, BOZEMAN, MT, 59718",649797135,"R"
81089,"1662 INCA DRIVE","LARAMIE","WY",82072,41.3260105640001,-105.548547908,89,"1662 INCA DRIVE, LARAMIE, WY, 82072","Match","Exact","1662 INCA DR, LARAMIE, WY, 82072",168748617,"L"
81090,"1662 IROQUOIS RD","ROCKLIN","CA",95765,38.822681603,-121.275042253,90,"1662 IROQUOIS RD, ROCKLIN, CA, 95765","Match","Exact","1662 IROQUOIS RD, ROCKLIN, CA, 95765",106807963,"R"
81091,"1662 MALLARD COURT","JONESBORO","GA",30238,33.4601181080001,-84.339172119,91,"1662 MALLARD COURT, JONESBORO, GA, 30238","Match","Exact","1662 MALLARD CT, JONESBORO, GA, 30238",635520684,"L"
81092,"1662 NORTH 1600TH AVE","FOWLER","IL",62338,39.991486561,-91.190133585,92,"1662 NORTH 1600TH AVE, FOWLER, IL, 62338","Match","Exact","1662 N 1600TH AVE, FOWLER, IL, 62338",35068212,"L"
81093,"1662 OHAWAI PLACE","HONOLULU","HI",96821,21.2822510230001,-157.765998545,93,"1662 OHAWAI PLACE, HONOLULU, HI, 96821","Match","Exact","1662 OHAWAI PL, HONOLULU, HI, 96821",203243597,"L"
81094,"1662 ONTARIO DR APT 1","SUNNYVALE","CA",94087,37.3390294550001,-122.039739107,94,"1662 ONTARIO DR APT 1, SUNNYVALE, CA, 94087","Match","Exact","1662 ONTARIO DR, SUNNYVALE, CA, 94087",614039715,"L"
81095,"1662 PROSPECT PL","BROOKLYN","NY",11233,40.672741241,-73.9213606019999,95,"1662 PROSPECT PL, BROOKLYN, NY, 11233","Match","Exact","1662 PROSPECT PL, BROOKLYN, NY, 11233",642653808,"R"
81096,"1662 RIVERWIND DRIVE   APT C","COLUMBIA","SC",29210,34.040737897,-81.078403274,96,"1662 RIVERWIND DRIVE   APT C, COLUMBIA, SC, 29210","Match","Exact","1662 RIVERWIND DR, COLUMBIA, SC, 29210",604766654,"L"
81097,"1662 S 2000 WEST SUITE 1A","SYRACUSE","UT",84065,NA,NA,97,"1662 S 2000 WEST SUITE 1A, SYRACUSE, UT, 84065","No_Match",NA,NA,NA,NA
81098,"1662 SHEEPSHEAD BAY ROAD","BROOKLYN","NY",11235,40.586424928,-73.95227976,98,"1662 SHEEPSHEAD BAY ROAD, BROOKLYN, NY, 11235","Match","Exact","1662 SHEEPSHEAD BAY RD, BROOKLYN, NY, 11235",59101781,"R"
81099,"1662 VARNUM PL NE","WASHINGTON","DC",20017,38.9434184520001,-76.9815573349999,99,"1662 VARNUM PL NE, WASHINGTON, DC, 20017","Match","Exact","1662 VARNUM PL NE, WASHINGTON, DC, 20017",76228404,"L"
81100,"1662 W ARMSTRONG WAY","CHANDLER","AZ",85286,33.280026139,-111.870840774,100,"1662 W ARMSTRONG WAY, CHANDLER, AZ, 85286","Match","Exact","1662 W ARMSTRONG WAY, CHANDLER, AZ, 85286",128805228,"R"
81101,"1662","BATON ROUGE","LA",70821,NA,NA,101,"1662, BATON ROUGE, LA, 70821","No_Match",NA,NA,NA,NA
81102,"16620 FIREBRICK DR","PARKER","CO",80134,39.5089882680001,-104.796132294,102,"16620 FIREBRICK DR, PARKER, CO, 80134","Match","Exact","16620 FIREBRICK DR, PARKER, CO, 80134",630123136,"R"
81103,"16620 LOCK 17 RD","BROOKWOOD","AL",35444,33.3860802350001,-87.303145059,103,"16620 LOCK 17 RD, BROOKWOOD, AL, 35444","Match","Exact","16620 LOCK 17 RD, BROOKWOOD, AL, 35444",641195381,"L"
81104,"16620 SAN PEDRO 230","SAN ANTONIO","TX",78232,NA,NA,104,"16620 SAN PEDRO 230, SAN ANTONIO, TX, 78232","No_Match",NA,NA,NA,NA
81105,"16620 STROILWAY ST","HUDSON","CO",80642,39.9973589190001,-104.61269414,105,"16620 STROILWAY ST, HUDSON, CO, 80642","Match","Exact","16620 STROILWAY ST, HUDSON, CO, 80642",627997911,"L"
81106,"16621 90TH AVE N","MAPLE GROVE","MN",55311,45.118734052,-93.4907739929999,106,"16621 90TH AVE N, MAPLE GROVE, MN, 55311","Match","Exact","16621 90TH AVE N, MAPLE GROVE, MN, 55311",43857686,"L"
81107,"16621 E INDIANA AVE APT B103","SPOKANE VALLEY","WA",99216,47.6691684400001,-117.181478196,107,"16621 E INDIANA AVE APT B103, SPOKANE VALLEY, WA, 99216","Match","Non_Exact","16621 E INDIANA AVE, SPOKANE VALLEY, WA, 99216",641093231,"L"
81108,"16621 IREDELL ST","BRIGHTON","CO",80603,39.9966793200001,-104.637235481,108,"16621 IREDELL ST, BRIGHTON, CO, 80603","Match","Exact","16621 IREDELL ST, BRIGHTON, CO, 80603",177423970,"L"
81109,"16621 N 91ST ST STE 103","SCOTTSDALE","AZ",85260,33.6374952910001,-111.884909736,109,"16621 N 91ST ST STE 103, SCOTTSDALE, AZ, 85260","Match","Non_Exact","16621 N 91ST ST, SCOTTSDALE, AZ, 85260",243973730,"L"
81110,"16621 OLD HOUSTON RD","CONROE","TX",77302,30.20958246,-95.304539915,110,"16621 OLD HOUSTON RD, CONROE, TX, 77302","Match","Exact","16621 OLD HOUSTON RD, CONROE, TX, 77302",79313083,"R"
81111,"16622 DAVIS CUP LANE","LITTLE ROCK","AR",72210,34.666156293,-92.4346411339999,111,"16622 DAVIS CUP LANE, LITTLE ROCK, AR, 72210","Match","Exact","16622 DAVIS CUP LN, LITTLE ROCK, AR, 72210",83541467,"L"
81112,"16623 BURLCREEK","HOUSTON","TX",77084,29.8718834790001,-95.6604812319999,112,"16623 BURLCREEK, HOUSTON, TX, 77084","Match","Non_Exact","16623 BURLCREEK ST, HOUSTON, TX, 77084",96157020,"L"
81113,"16623 EAST LASER DRIVE NO 1","FOUNTAIN HILLS","AZ",85268,33.57315713,-111.722368011,113,"16623 EAST LASER DRIVE NO 1, FOUNTAIN HILLS, AZ, 85268","Match","Non_Exact","16623 E LASER DR, FOUNTAIN HILLS, AZ, 85268",642857159,"R"
81114,"16623 HWY 280","CHELSEA","AL",35043,33.3482973050001,-86.630265127,114,"16623 HWY 280, CHELSEA, AL, 35043","Match","Non_Exact","16623 US HWY 280, CHELSEA, AL, 35043",647492479,"L"
81115,"16624 PINE VALLEY ROAD","PINE","CO",80470,39.408904589,-105.3261425,115,"16624 PINE VALLEY ROAD, PINE, CO, 80470","Match","Exact","16624 PINE VALLEY RD, PINE, CO, 80470",636173465,"L"
81116,"16624 TURTLE POINT ROAD","CHARLOTTE","NC",28278,35.065033504,-81.031644525,116,"16624 TURTLE POINT ROAD, CHARLOTTE, NC, 28278","Match","Exact","16624 TURTLE POINT RD, CHARLOTTE, NC, 28278",630398471,"L"
81117,"16624 WATSON ROAD","GUERNEVILLE","CA",95446,38.5170005570001,-123.004938967,117,"16624 WATSON ROAD, GUERNEVILLE, CA, 95446","Match","Exact","16624 WATSON RD, GUERNEVILLE, CA, 95446",627129475,"L"
81118,"16625 REDMOND WAY M405","REDMOND","WA",98052,47.672996476,-122.118390489,118,"16625 REDMOND WAY M405, REDMOND, WA, 98052","Match","Exact","16625 REDMOND WAY, REDMOND, WA, 98052",186610656,"L"
81119,"16625 REDMOND WAY STE M PMB 188","REDMOND","WA",98052,47.672996476,-122.118390489,119,"16625 REDMOND WAY STE M PMB 188, REDMOND, WA, 98052","Match","Exact","16625 REDMOND WAY, REDMOND, WA, 98052",186610656,"L"
81120,"16625 S WESTLAND DRIVE","GAITHERSBURG","MD",20877,39.128783249,-77.179760248,120,"16625 S WESTLAND DRIVE, GAITHERSBURG, MD, 20877","Match","Exact","16625 S WESTLAND DR, GAITHERSBURG, MD, 20877",62051700,"R"
81121,"16626 6TH AVE WEST APT D106","LYNNWOOD","WA",98037,47.8472797370001,-122.24130422,121,"16626 6TH AVE WEST APT D106, LYNNWOOD, WA, 98037","Match","Exact","16626 6TH AVE W, LYNNWOOD, WA, 98037",608943241,"R"
81122,"16626 JAMESTOWN FOREST DRIVE","FLORISSANT","MO",63034,38.840578457,-90.25562679,122,"16626 JAMESTOWN FOREST DRIVE, FLORISSANT, MO, 63034","Match","Exact","16626 JAMESTOWN FOREST DR, FLORISSANT, MO, 63034",100183636,"L"
81123,"16627 BURLESON DRIVE","COBB ISLAND","MD",20625,38.2647734870001,-76.854042619,123,"16627 BURLESON DRIVE, COBB ISLAND, MD, 20625","Match","Exact","16627 BURLESON DR, COBB ISLAND, MD, 20625",25367458,"L"
81124,"16628 HWY 36","NEEDVILLE","TX",77461,NA,NA,124,"16628 HWY 36, NEEDVILLE, TX, 77461","No_Match",NA,NA,NA,NA
81125,"16628 VAN BUREN","DETROIT","MI",48228,NA,NA,125,"16628 VAN BUREN, DETROIT, MI, 48228","No_Match",NA,NA,NA,NA
81126,"16629 E PRENTICE PLACE","CENTENNIAL","CO",80015,39.618727538,-104.795512226,126,"16629 E PRENTICE PLACE, CENTENNIAL, CO, 80015","Match","Exact","16629 E PRENTICE PL, CENTENNIAL, CO, 80015",177359421,"L"
81127,"1663 BEAMER AVENUE","NEW KENSINGTON","PA",15068,40.5643550350001,-79.73857223,127,"1663 BEAMER AVENUE, NEW KENSINGTON, PA, 15068","Match","Exact","1663 BEAMER AVE, NEW KENSINGTON, PA, 15068",52960912,"R"
81128,"1663 BUCKEYE DRIVE","EL CAJON","CA",92021,32.817689521,-116.948355746,128,"1663 BUCKEYE DRIVE, EL CAJON, CA, 92021","Match","Exact","1663 BUCKEYE DR, EL CAJON, CA, 92021",637382634,"R"
81129,"1663 BUTER AVE","LOS ANGELES","CA",90025,NA,NA,129,"1663 BUTER AVE, LOS ANGELES, CA, 90025","No_Match",NA,NA,NA,NA
81130,"1663 DEL AMO BLVD","CARSON","CA",90746,33.8467497780001,-118.241513967,130,"1663 DEL AMO BLVD, CARSON, CA, 90746","Match","Non_Exact","1663 E DEL AMO BLVD, CARSON, CA, 90746",141681228,"L"
81131,"1663 E DUBOIS AVE","GILBERT","AZ",85298,33.222530706,-111.753687679,131,"1663 E DUBOIS AVE, GILBERT, AZ, 85298","Match","Exact","1663 E DUBOIS AVE, GILBERT, AZ, 85298",624904106,"L"
81132,"1663 E FARLAND ST","COVINA","CA",91724,34.093814126,-117.856098436,132,"1663 E FARLAND ST, COVINA, CA, 91724","Match","Exact","1663 FARLAND ST, COVINA, CA, 91724",141727420,"L"
81133,"1663 E PARKWAY AVENUE","SALT LAKE CITY","UT",84106,40.718221607,-111.8431283,133,"1663 E PARKWAY AVENUE, SALT LAKE CITY, UT, 84106","Match","Exact","1663 PARKWAY AVE, SALT LAKE CITY, UT, 84106",176154777,"L"
81134,"1663 EAST COLLEGE AVENUE","BELLEFONTE","PA",16823,40.9086293670001,-77.682449795,134,"1663 EAST COLLEGE AVENUE, BELLEFONTE, PA, 16823","Match","Exact","1663 E COLLEGE AVE, BELLEFONTE, PA, 16823",50391111,"L"
81135,"1663 EAST MAIN STREET 2NDFLOOR","BRIDGEPORT","CT",6608,41.19732121,-73.180296304,135,"1663 EAST MAIN STREET 2NDFLOOR, BRIDGEPORT, CT, 6608","Match","Exact","1663 E MAIN ST, BRIDGEPORT, CT, 06608",3224745,"L"
81136,"1663 EASTBURN AVENUE APT 4D","UPPER MARLBORO","NY",10457,40.843609116,-73.908580571,136,"1663 EASTBURN AVENUE APT 4D, UPPER MARLBORO, NY, 10457","Match","Non_Exact","1663 EASTBURN AVE, BRONX, NY, 10457",624157857,"L"
81137,"1663 INDUSTRIAL AVE SUITE C","NORCO","CA",92860,33.9064425550001,-117.563619305,137,"1663 INDUSTRIAL AVE SUITE C, NORCO, CA, 92860","Match","Exact","1663 INDUSTRIAL AVE, NORCO, CA, 92860",194731686,"R"
81138,"1663 MAHAFFEY ROAD","GRAY COURT","SC",29645,34.564726938,-82.194564839,138,"1663 MAHAFFEY ROAD, GRAY COURT, SC, 29645","Match","Exact","1663 MAHAFFEY RD, GRAY COURT, SC, 29645",44438966,"R"
81139,"1663 MISSION STREET SUITE 500","SAN FRANCISCO","CA",94103,37.7713471230001,-122.419485073,139,"1663 MISSION STREET SUITE 500, SAN FRANCISCO, CA, 94103","Match","Exact","1663 MISSION ST, SAN FRANCISCO, CA, 94103",192298624,"R"
81140,"1663 MONTELLO AVE NE","WASHINGTON","DC",20002,38.9085280210001,-76.9861374179999,140,"1663 MONTELLO AVE NE, WASHINGTON, DC, 20002","Match","Exact","1663 MONTELLO AVE NE, WASHINGTON, DC, 20002",76230117,"R"
81141,"1663 PEBBLE BEACH WAY","VERNON HILLS","IL",60061,42.2564052870001,-87.9687745859999,141,"1663 PEBBLE BEACH WAY, VERNON HILLS, IL, 60061","Match","Exact","1663 PEBBLE BEACH WAY, VERNON HILLS, IL, 60061",640090545,"L"
81142,"1663 RITTER BLVD","HUNTINGTON","WV",25701,38.3971391370001,-82.431220522,142,"1663 RITTER BLVD, HUNTINGTON, WV, 25701","Match","Exact","1663 RITTER BLVD, HUNTINGTON, WV, 25701",642123350,"L"
81143,"1663 S ACOMA STREET","DENVER","CO",80223,39.686455278,-104.98875876,143,"1663 S ACOMA STREET, DENVER, CO, 80223","Match","Exact","1663 S ACOMA ST, DENVER, CO, 80223",177331350,"R"
81144,"1663 WATSON DRIVE","JACKSON","MO",63755,NA,NA,144,"1663 WATSON DRIVE, JACKSON, MO, 63755","No_Match",NA,NA,NA,NA
81145,"16630 IMPERIAL VALLEY DR","HOUSTON","TX",77060,29.940956053,-95.396551092,145,"16630 IMPERIAL VALLEY DR, HOUSTON, TX, 77060","Match","Exact","16630 IMPERIAL VALLEY DR, HOUSTON, TX, 77060",96656601,"R"
81146,"16630 W CAMBRIDGE AVE","GOODYEAR","AZ",85395,33.474091582,-112.416643434,146,"16630 W CAMBRIDGE AVE, GOODYEAR, AZ, 85395","Match","Exact","16630 W CAMBRIDGE AVE, GOODYEAR, AZ, 85395",646956298,"L"
81147,"16631 PARLIAMENT STREET","HOUSTON","TX",77083,29.684946804,-95.676937084,147,"16631 PARLIAMENT STREET, HOUSTON, TX, 77083","Match","Non_Exact","16631 PARLIAMENT, HOUSTON, TX, 77083",78291055,"R"
81148,"16631 SALEM ST","DETROIT","MI",48219,42.4104450150001,-83.2850243089999,148,"16631 SALEM ST, DETROIT, MI, 48219","Match","Exact","16631 SALEM ST, DETROIT, MI, 48219",95420191,"L"
81149,"16631 VANCE JACKSON 6220","SAN ANTONIO","TX",78257,29.5973823090001,-98.592692847,149,"16631 VANCE JACKSON 6220, SAN ANTONIO, TX, 78257","Match","Exact","16631 VANCE JACKSON, SAN ANTONIO, TX, 78257",650150073,"L"
81150,"16633 LIVERNOIS AVE","DETROIT","MI",48221,42.4134059100001,-83.1406863459999,150,"16633 LIVERNOIS AVE, DETROIT, MI, 48221","Match","Exact","16633 LIVERNOIS AVE, DETROIT, MI, 48221",95461282,"L"
81151,"16633 VENTURA BLVD SUITE 1200","ENCINO","CA",91436,34.158043284,-118.495669441,151,"16633 VENTURA BLVD SUITE 1200, ENCINO, CA, 91436","Match","Exact","16633 VENTURA BLVD, ENCINO, CA, 91436",141556556,"R"
81152,"16635 FLAGSTAFF AVE W","ROSEMOUNT","MN",55068,44.7084248960001,-93.197249566,152,"16635 FLAGSTAFF AVE W, ROSEMOUNT, MN, 55068","Match","Exact","16635 FLAGSTAFF AVE W, ROSEMOUNT, MN, 55068",37907527,"R"
81153,"16635 SPRING CYPRESS RD 455","CYPRESS","TX",77429,29.9749608430001,-95.681316672,153,"16635 SPRING CYPRESS RD 455, CYPRESS, TX, 77429","Match","Exact","16635 SPRING CYPRESS RD, CYPRESS, TX, 77429",638593726,"R"
81154,"16635 SPRING CYPRESS RD STE 1684","CYPRESS","TX",77429,29.9749608430001,-95.681316672,154,"16635 SPRING CYPRESS RD STE 1684, CYPRESS, TX, 77429","Match","Exact","16635 SPRING CYPRESS RD, CYPRESS, TX, 77429",638593726,"R"
81155,"16635 SPRING CYPRESS RD UNIT 2216","CYPRESS","TX",77429,29.9749608430001,-95.681316672,155,"16635 SPRING CYPRESS RD UNIT 2216, CYPRESS, TX, 77429","Match","Exact","16635 SPRING CYPRESS RD, CYPRESS, TX, 77429",638593726,"R"
81156,"16636 KENDLE RD","WILLIAMSPORT","MD",21795,39.582693803,-77.7929974429999,156,"16636 KENDLE RD, WILLIAMSPORT, MD, 21795","Match","Exact","16636 KENDLE RD, WILLIAMSPORT, MD, 21795",652186414,"R"
81157,"16636 NORTH 10TH DRIVE","PHOENIX","AZ",85023,33.6370281000001,-112.086530034,157,"16636 NORTH 10TH DRIVE, PHOENIX, AZ, 85023","Match","Exact","16636 N 10TH DR, PHOENIX, AZ, 85023",128376140,"R"
81158,"16638 E SUMMIT AVE","ELKTON","VA",22827,38.401606138,-78.618817026,158,"16638 E SUMMIT AVE, ELKTON, VA, 22827","Match","Exact","16638 SUMMIT AVE, ELKTON, VA, 22827",648531661,"L"
81159,"16639 CAXTON PLACE","DUMFRIES","VA",22025,38.5929462720001,-77.3420703309999,159,"16639 CAXTON PLACE, DUMFRIES, VA, 22025","Match","Exact","16639 CAXTON PL, DUMFRIES, VA, 22025",76521089,"R"
81160,"1664 BUDDY TAYLOR ROAD","ATLANTA","LA",71404,31.7162228020001,-92.711497606,160,"1664 BUDDY TAYLOR ROAD, ATLANTA, LA, 71404","Match","Exact","1664 BUDDY TAYLOR RD, ATLANTA, LA, 71404",119014706,"L"
81161,"1664 E FLORENCE BLVD 4-184","CASA GRANDE","AZ",85122,32.8795518740001,-111.721010315,161,"1664 E FLORENCE BLVD 4-184, CASA GRANDE, AZ, 85122","Match","Non_Exact","1664 E FLORENCE BLVD, CASA GRANDE, AZ, 85122",647333337,"R"
81162,"1664 E FLORENCE BLVD SUITE 4","CASA GRANDE","AZ",85122,32.8795518740001,-111.721010315,162,"1664 E FLORENCE BLVD SUITE 4, CASA GRANDE, AZ, 85122","Match","Non_Exact","1664 E FLORENCE BLVD, CASA GRANDE, AZ, 85122",647333337,"R"
81163,"1664 EAST WALLUM LAKE RD","PASCOAG","RI",2859,41.9967438140001,-71.7408850639999,163,"1664 EAST WALLUM LAKE RD, PASCOAG, RI, 2859","Match","Exact","1664 E WALLUM LAKE RD, PASCOAG, RI, 02859",47509725,"L"
81164,"1664 EIDSON RD","EAGLE PASS","TX",78852,28.684617174,-100.484748045,164,"1664 EIDSON RD, EAGLE PASS, TX, 78852","Match","Exact","1664 EIDSON RD, EAGLE PASS, TX, 78852",183364610,"L"
81165,"1664 GARRISON DRIVE","FRISCO","TX",75033,33.154819011,-96.8766300349999,165,"1664 GARRISON DRIVE, FRISCO, TX, 75033","Match","Exact","1664 GARRISON DR, FRISCO, TX, 75033",103412205,"R"
81166,"1664 HAVENSHIRE RD","AURORA","IL",60505,41.7804060120001,-88.273384941,166,"1664 HAVENSHIRE RD, AURORA, IL, 60505","Match","Non_Exact","1664 HAVENSHIRE LN, AURORA, IL, 60505",119589468,"R"
81167,"1664 ISLESWORTH WAY","PLUMAS LAKE","CA",95961,39.000949645,-121.545734944,167,"1664 ISLESWORTH WAY, PLUMAS LAKE, CA, 95961","Match","Exact","1664 ISLESWORTH WAY, PLUMAS LAKE, CA, 95961",611582743,"L"
81168,"1664 LINCOLN ROAD","LELAND","NC",28451,34.2623033410001,-78.044211747,168,"1664 LINCOLN ROAD, LELAND, NC, 28451","Match","Non_Exact","1664 LINCOLN RD NE, LELAND, NC, 28451",627149694,"L"
81169,"1664 MILLER ST","MEMPHIS","TN",38106,35.102011265,-90.0414940059999,169,"1664 MILLER ST, MEMPHIS, TN, 38106","Match","Exact","1664 MILLER ST, MEMPHIS, TN, 38106",72907918,"L"
81170,"1664 MOLITOR ROAD APT D","AURORA","IL",60505,41.7939597660001,-88.2733894259999,170,"1664 MOLITOR ROAD APT D, AURORA, IL, 60505","Match","Exact","1664 MOLITOR RD, AURORA, IL, 60505",119513097,"L"
81171,"1664 MONUMENT RD","MIDDLETOWN","MD",21769,NA,NA,171,"1664 MONUMENT RD, MIDDLETOWN, MD, 21769","No_Match",NA,NA,NA,NA
81172,"1664 N VIRGINIA ST MS 0310","RENO","NV",89557,NA,NA,172,"1664 N VIRGINIA ST MS 0310, RENO, NV, 89557","No_Match",NA,NA,NA,NA
81173,"1664 N VIRGINIA ST","RENO","NV",89557,39.5465585320001,-119.820621558,173,"1664 N VIRGINIA ST, RENO, NV, 89557","Match","Exact","1664 NORTH VIRGINIA ST, RENO, NV, 89557",107110107,"R"
81174,"1664 N WOOD CREEK DRIVE","DAYTON","OH",45458,39.5789355730001,-84.1587987089999,174,"1664 N WOOD CREEK DRIVE, DAYTON, OH, 45458","Match","Exact","1664 N WOOD CREEK DR, DAYTON, OH, 45458",637593433,"L"
81175,"1664 NEWTON OAK CIRCLE E","MEMPHIS","TN",38117,35.0862538170001,-89.886930772,175,"1664 NEWTON OAK CIRCLE E, MEMPHIS, TN, 38117","Match","Exact","1664 NEWTON OAK CIR E, MEMPHIS, TN, 38117",636778542,"L"
81176,"1664 OLD PEACHTREE RD NW","SUWANEE","GA",30024,34.0148203960001,-84.094184398,176,"1664 OLD PEACHTREE RD NW, SUWANEE, GA, 30024","Match","Exact","1664 OLD PEACHTREE RD NW, SUWANEE, GA, 30024",88898907,"L"
81177,"1664 OVERFIELD DR SE","GRAND RAPIDS","MI",49508,42.85228341,-85.622577962,177,"1664 OVERFIELD DR SE, GRAND RAPIDS, MI, 49508","Match","Exact","1664 OVERFIELD DR SE, GRAND RAPIDS, MI, 49508",12490817,"R"
81178,"1664 RICE SQUARE","LITHONIA","GA",30058,33.7555771470001,-84.094965958,178,"1664 RICE SQUARE, LITHONIA, GA, 30058","Match","Exact","1664 RICE SQ, LITHONIA, GA, 30058",619378687,"L"
81179,"1664 RIVIERA ST","SAGINAW","MI",48604,43.46846222,-83.948799325,179,"1664 RIVIERA ST, SAGINAW, MI, 48604","Match","Exact","1664 RIVIERA ST, SAGINAW, MI, 48604",80210032,"R"
81180,"1664 SKY BLUE DRIVE","SUN PRAIRIE","WI",53590,43.1587156250001,-89.2605651659999,180,"1664 SKY BLUE DRIVE, SUN PRAIRIE, WI, 53590","Match","Exact","1664 SKY BLUE DR, SUN PRAIRIE, WI, 53590",632199074,"R"
81181,"1664 STATE RTE 30","TUPPER LAKE","NY",12986,44.196342165,-74.4807315639999,181,"1664 STATE RTE 30, TUPPER LAKE, NY, 12986","Match","Exact","1664 STATE RTE 30, TUPPER LAKE, NY, 12986",640443383,"R"
81182,"1664 TAZEWELL HIGHWAY","SNEEDVILLE","TN",37869,36.506670226,-83.242179605,182,"1664 TAZEWELL HIGHWAY, SNEEDVILLE, TN, 37869","Match","Exact","1664 TAZEWELL HWY, SNEEDVILLE, TN, 37869",42375243,"L"
81183,"1664 WILLOW LAKE LANE","SAN JOSE","CA",95131,37.384497894,-121.8916799,183,"1664 WILLOW LAKE LANE, SAN JOSE, CA, 95131","Match","Exact","1664 WILLOW LAKE LN, SAN JOSE, CA, 95131",123009199,"L"
81184,"1664 WOODSIDE WAY","XENIA","OH",45385,39.6346450340001,-83.9331599659999,184,"1664 WOODSIDE WAY, XENIA, OH, 45385","Match","Exact","1664 WOODSIDE WAY, XENIA, OH, 45385",143417690,"L"
81185,"16640 THATCHER ROAD","EDEN PRAIRIE","MN",55347,44.847895255,-93.487735802,185,"16640 THATCHER ROAD, EDEN PRAIRIE, MN, 55347","Match","Exact","16640 THATCHER RD, EDEN PRAIRIE, MN, 55347",43846197,"L"
81186,"16641 EDGEWATER LANE","HUNTINGTON BEACH","CA",92649,33.72026047,-118.056953294,186,"16641 EDGEWATER LANE, HUNTINGTON BEACH, CA, 92649","Match","Exact","16641 EDGEWATER LN, HUNTINGTON BEACH, CA, 92649",144013452,"R"
81187,"16642 PRINCE DR","SOUTH HOLLAND","IL",60473,41.5928089080001,-87.584027959,187,"16642 PRINCE DR, SOUTH HOLLAND, IL, 60473","Match","Exact","16642 PRINCE DR, SOUTH HOLLAND, IL, 60473",111780808,"R"
81188,"16642 S 38TH ST","PHOENIX","AZ",85048,33.296303519,-112.00192691,188,"16642 S 38TH ST, PHOENIX, AZ, 85048","Match","Exact","16642 S 38TH ST, PHOENIX, AZ, 85048",128320523,"R"
81189,"16642 S KENWOOD","SOUTH HOLLAND","IL",60473,41.5929173230001,-87.5850719429999,189,"16642 S KENWOOD, SOUTH HOLLAND, IL, 60473","Match","Non_Exact","16642 KENWOOD AVE, SOUTH HOLLAND, IL, 60473",111780767,"R"
81190,"16643 W QUAIL RUN RD","SURPRISE","AZ",85387,33.7749072140001,-112.419532567,190,"16643 W QUAIL RUN RD, SURPRISE, AZ, 85387","Match","Exact","16643 W QUAIL RUN RD, SURPRISE, AZ, 85387",640591717,"L"
81191,"16644 NW PAISLEY DRIVE","BEAVERTON","OR",97006,45.5448433770001,-122.848255167,191,"16644 NW PAISLEY DRIVE, BEAVERTON, OR, 97006","Match","Exact","16644 NW PAISLEY DR, BEAVERTON, OR, 97006",158182538,"R"
81192,"16644 S HARRELLS FERRY RD","BATON ROUGE","LA",70816,30.424787984,-91.00181725,192,"16644 S HARRELLS FERRY RD, BATON ROUGE, LA, 70816","Match","Exact","16644 S HARRELLS FERRY RD, BATON ROUGE, LA, 70816",635969765,"R"
81193,"16645 CARACARA CT","SPRING HILL","FL",34610,28.3397356340001,-82.540234353,193,"16645 CARACARA CT, SPRING HILL, FL, 34610","Match","Exact","16645 CARACARA CT, SPRING HILL, FL, 34610",86382913,"L"
81194,"16645 LAKESHORE DRIVE","LAKE ELSINORE","CA",92530,33.6866677510001,-117.369976016,194,"16645 LAKESHORE DRIVE, LAKE ELSINORE, CA, 92530","Match","Exact","16645 LAKESHORE DR, LAKE ELSINORE, CA, 92530",194812811,"L"
81195,"16645 ROAD 26","MADERA","CA",93637,NA,NA,195,"16645 ROAD 26, MADERA, CA, 93637","No_Match",NA,NA,NA,NA
81196,"16647 N 41ST PL","PHOENIX","AZ",85032,33.6373314210001,-111.991960701,196,"16647 N 41ST PL, PHOENIX, AZ, 85032","Match","Exact","16647 N 41ST PL, PHOENIX, AZ, 85032",640590646,"R"
81197,"16647 SUNBURST STREET","NORTH HILLS","CA",91343,34.234793552,-118.494625746,197,"16647 SUNBURST STREET, NORTH HILLS, CA, 91343","Match","Exact","16647 SUNBURST ST, NORTH HILLS, CA, 91343",141544588,"R"
81198,"16648 CEDAR CIRCLE","FOUNTAIN VALLEY","CA",92708,33.7208253320001,-117.962106378,198,"16648 CEDAR CIRCLE, FOUNTAIN VALLEY, CA, 92708","Match","Exact","16648 CEDAR CIR, FOUNTAIN VALLEY, CA, 92708",144037575,"L"
81199,"16648 VALLELY DR","TAMPA","FL",33618,28.1112157680001,-82.488847424,199,"16648 VALLELY DR, TAMPA, FL, 33618","Match","Exact","16648 VALLELY DR, TAMPA, FL, 33618",640440524,"R"
81200,"16649 CENTRAL PARK","MARKHAM","IL",60428,41.5876403830001,-87.703286029,200,"16649 CENTRAL PARK, MARKHAM, IL, 60428","Match","Non_Exact","16649 CENTRAL PARK AVE, MARKHAM, IL, 60428",111704823,"L"
81201,"1665 16TH COURT SOUTHWEST","VERO BEACH","FL",32962,27.5763196070001,-80.402555524,201,"1665 16TH COURT SOUTHWEST, VERO BEACH, FL, 32962","Match","Exact","1665 16TH CT SW, VERO BEACH, FL, 32962",120317185,"R"
81202,"1665 45TH STREET","BROOKLYN","NY",11204,40.63235231,-73.981626778,202,"1665 45TH STREET, BROOKLYN, NY, 11204","Match","Exact","1665 45TH ST, BROOKLYN, NY, 11204",59080702,"L"
81203,"1665 A STREET","BRAWLEY","CA",92227,32.9841184540001,-115.51117995,203,"1665 A STREET, BRAWLEY, CA, 92227","Match","Exact","1665 A ST, BRAWLEY, CA, 92227",194541951,"L"
81204,"1665 ARCHER ROAD","SAN MARCOS","CT",92078,NA,NA,204,"1665 ARCHER ROAD, SAN MARCOS, CT, 92078","No_Match",NA,NA,NA,NA
81205,"1665 ARDENWOOD DRIVE","SAN JOSE","CA",95129,37.2945046720001,-122.022556385,205,"1665 ARDENWOOD DRIVE, SAN JOSE, CA, 95129","Match","Exact","1665 ARDENWOOD DR, SAN JOSE, CA, 95129",638126077,"R"
81206,"1665 ASHBURY LN","ROMEOVILLE","IL",60446,41.616559056,-88.142451194,206,"1665 ASHBURY LN, ROMEOVILLE, IL, 60446","Match","Exact","1665 ASHBURY LN, ROMEOVILLE, IL, 60446",111613933,"L"
81207,"1665 BRUIN ST","LOS ANGELES","CA",90047,33.924975729,-118.305544791,207,"1665 BRUIN ST, LOS ANGELES, CA, 90047","Match","Exact","1665 BRUIN ST, LOS ANGELES, CA, 90047",142444996,"R"
81208,"1665 CRIPPLE CREEK COURT","INDIANAPOLIS","IN",46229,39.791241551,-85.9533296709999,208,"1665 CRIPPLE CREEK COURT, INDIANAPOLIS, IN, 46229","Match","Exact","1665 CRIPPLE CREEK CT, INDIANAPOLIS, IN, 46229",108030513,"R"
81209,"1665 DUNCANVILLE RD","DALLAS","TX",75211,32.7293688660001,-96.909767431,209,"1665 DUNCANVILLE RD, DALLAS, TX, 75211","Match","Exact","1665 DUNCANVILLE RD, DALLAS, TX, 75211",103192986,"L"
81210,"1665 E 4TH ST  SUITE 115","SANTA ANA","CA",92701,33.748112427,-117.845621622,210,"1665 E 4TH ST  SUITE 115, SANTA ANA, CA, 92701","Match","Non_Exact","1665 E 4TH ST, SANTA ANA, CA, 92701",144418416,"L"
81211,"1665 E 4TH STREET SUITE 219","SANTA ANA","CA",92701,33.748112427,-117.845621622,211,"1665 E 4TH STREET SUITE 219, SANTA ANA, CA, 92701","Match","Non_Exact","1665 E 4TH ST, SANTA ANA, CA, 92701",144418416,"L"
81212,"1665 FAIRWAY DRIVE","1665 FAIRWAY DRIVE","CA",92883,33.8122215720001,-117.542443392,212,"1665 FAIRWAY DRIVE, 1665 FAIRWAY DRIVE, CA, 92883","Match","Non_Exact","1665 FAIRWAY DR, CORONA, CA, 92883",647396660,"R"
81213,"1665 GALLUP DR","STOCKBRIDGE","GA",30281,33.5699812820001,-84.247054076,213,"1665 GALLUP DR, STOCKBRIDGE, GA, 30281","Match","Exact","1665 GALLUP DR, STOCKBRIDGE, GA, 30281",210422611,"L"
81214,"1665 JEFFERSON ST","MUSKEGON","MI",49441,43.222104959,-86.246801545,214,"1665 JEFFERSON ST, MUSKEGON, MI, 49441","Match","Exact","1665 JEFFERSON ST, MUSKEGON, MI, 49441",77650923,"R"
81215,"1665 MACOMBS ROAD APT 5D","BRONX","NY",10453,40.8479690130001,-73.9162018979999,215,"1665 MACOMBS ROAD APT 5D, BRONX, NY, 10453","Match","Exact","1665 MACOMBS RD, BRONX, NY, 10453",80299605,"L"
81216,"1665 N CASSADY AVE","COLUMBUS","OH",43219,40.003606765,-82.9298310889999,216,"1665 N CASSADY AVE, COLUMBUS, OH, 43219","Match","Exact","1665 N CASSADY AVE, COLUMBUS, OH, 43219",218653294,"L"
81217,"1665 N COOLIDGE AVE","INDIANAPOLIS","IN",46219,39.790095229,-86.0429620789999,217,"1665 N COOLIDGE AVE, INDIANAPOLIS, IN, 46219","Match","Exact","1665 N COOLIDGE AVE, INDIANAPOLIS, IN, 46219",108002488,"R"
81218,"1665 N LOGAN ST","DENVER","CO",80203,39.7428492670001,-104.98234207,218,"1665 N LOGAN ST, DENVER, CO, 80203","Match","Exact","1665 LOGAN ST, DENVER, CO, 80203",612232309,"L"
81219,"1665 N MONROE ST","DECATUR","IL",62526,39.859062963,-88.96375356,219,"1665 N MONROE ST, DECATUR, IL, 62526","Match","Exact","1665 N MONROE ST, DECATUR, IL, 62526",20745500,"L"
81220,"1665 NEW HOPE RD","DAWSONVILLE","GA",30534,34.518116347,-84.196811697,220,"1665 NEW HOPE RD, DAWSONVILLE, GA, 30534","Match","Exact","1665 NEW HOPE RD, DAWSONVILLE, GA, 30534",70160472,"L"
81221,"1665 NORTH RD","PARSONSFIELD","ME",4047,43.7335900150001,-70.844775741,221,"1665 NORTH RD, PARSONSFIELD, ME, 4047","Match","Exact","1665 NORTH RD, PARSONSFIELD, ME, 04047",92750134,"L"
81222,"1665 OLD MILL RD","GERMANTOWN","TN",38138,35.103835083,-89.812151088,222,"1665 OLD MILL RD, GERMANTOWN, TN, 38138","Match","Exact","1665 OLD MILL RD, GERMANTOWN, TN, 38138",72929836,"R"
81223,"1665 PERIMETER ROAD","DAWSONVILLE","GA",30534,NA,NA,223,"1665 PERIMETER ROAD, DAWSONVILLE, GA, 30534","No_Match",NA,NA,NA,NA
81224,"1665 PINEHURST VIEW DR","GRAYSON","GA",30017,33.8912298590001,-83.9854896639999,224,"1665 PINEHURST VIEW DR, GRAYSON, GA, 30017","Match","Exact","1665 PINEHURST VIEW DR, GRAYSON, GA, 30017",636118555,"L"
81225,"1665 PINEHURST VIEW DRIVE","GRAYSON","GA",30017,33.8912298590001,-83.9854896639999,225,"1665 PINEHURST VIEW DRIVE, GRAYSON, GA, 30017","Match","Exact","1665 PINEHURST VIEW DR, GRAYSON, GA, 30017",636118555,"L"
81226,"1665 POPLARS ROAD","YORK","PA",17401,39.988549683,-76.8053366409999,226,"1665 POPLARS ROAD, YORK, PA, 17401","Match","Non_Exact","1665 POPLARS RD, YORK, PA, 17408",611418047,"R"
81227,"1665 SELBY AVE UNIT 2","SAINT PAUL","MN",55104,44.9465595280001,-93.170678773,227,"1665 SELBY AVE UNIT 2, SAINT PAUL, MN, 55104","Match","Exact","1665 SELBY AVE, SAINT PAUL, MN, 55104",97645665,"R"
81228,"1665 SIERRA WOODS DRIVE","RESTON","VA",20194,38.9717694880001,-77.364119092,228,"1665 SIERRA WOODS DRIVE, RESTON, VA, 20194","Match","Exact","1665 SIERRA WOODS DR, RESTON, VA, 20194",76010012,"R"
81229,"1665 SOUTH RIVERSIDE DRIVE APT 116","SALT LAKE CITY","UT",84104,40.734149109,-111.922831951,229,"1665 SOUTH RIVERSIDE DRIVE APT 116, SALT LAKE CITY, UT, 84104","Match","Non_Exact","1665 RIVERSIDE DR, SALT LAKE CITY, UT, 84104",176101758,"L"
81230,"1665 W SUNKIST RD","TUCSON","AZ",85755,32.431105895,-111.001999738,230,"1665 W SUNKIST RD, TUCSON, AZ, 85755","Match","Exact","1665 W SUNKIST RD, TUCSON, AZ, 85755",121392865,"L"
81231,"1665 WEST MAIN STREET","WILMINGTON","OH",45177,39.4452052550001,-83.855231465,231,"1665 WEST MAIN STREET, WILMINGTON, OH, 45177","Match","Exact","1665 W MAIN ST, WILMINGTON, OH, 45177",146852548,"L"
81232,"1665 WIMBLETON WOOD DRIVE","FORT MILL","SC",29708,35.0136501690001,-80.978059446,232,"1665 WIMBLETON WOOD DRIVE, FORT MILL, SC, 29708","Match","Non_Exact","1665 WIMBLETON WOODS DR, FORT MILL, SC, 29708",19816915,"R"
81233,"1665 WINDY LANE","WACONIA","MN",55387,44.828254944,-93.8051871929999,233,"1665 WINDY LANE, WACONIA, MN, 55387","Match","Exact","1665 WINDY LN, WACONIA, MN, 55387",43510008,"R"
81234,"1665 YATES DR","MERRITT ISLAND","FL",32952,28.3696480410001,-80.6660177429999,234,"1665 YATES DR, MERRITT ISLAND, FL, 32952","Match","Exact","1665 YATES DR, MERRITT ISLAND, FL, 32952",93897927,"R"
81235,"16650 MARIPOSA AVE","RIVERSIDE","CA",92504,33.8725246120001,-117.372030386,235,"16650 MARIPOSA AVE, RIVERSIDE, CA, 92504","Match","Exact","16650 MARIPOSA AVE, RIVERSIDE, CA, 92504",646037333,"R"
81236,"16650 MCGREGOR BLVD 101","FORT MYERS","FL",33908,26.5017754570001,-81.965223555,236,"16650 MCGREGOR BLVD 101, FORT MYERS, FL, 33908","Match","Exact","16650 MCGREGOR BLVD, FORT MYERS, FL, 33908",118115755,"R"
81237,"16650 MCGREGOR BLVD STE 101","FORT MYERS","FL",33908,26.5017754570001,-81.965223555,237,"16650 MCGREGOR BLVD STE 101, FORT MYERS, FL, 33908","Match","Exact","16650 MCGREGOR BLVD, FORT MYERS, FL, 33908",118115755,"R"
81238,"16650 MCGREGOR BLVD STE 101","FT. MYERS","FL",33908,26.5017754570001,-81.965223555,238,"16650 MCGREGOR BLVD STE 101, FT. MYERS, FL, 33908","Match","Exact","16650 MCGREGOR BLVD, FORT MYERS, FL, 33908",118115755,"R"
81239,"16650 VAN AKEN BLVD SUITE 604","SHAKER HEIGHTS","OH",44120,41.4664139060001,-81.564334376,239,"16650 VAN AKEN BLVD SUITE 604, SHAKER HEIGHTS, OH, 44120","Match","Exact","16650 VAN AKEN BLVD, SHAKER HEIGHTS, OH, 44120",642639520,"R"
81240,"16651 S 15TH LN","PHOENIX","AZ",85045,33.2945067100001,-112.093550358,240,"16651 S 15TH LN, PHOENIX, AZ, 85045","Match","Exact","16651 S 15TH LN, PHOENIX, AZ, 85045",128790202,"R"
81241,"16651 SELBY CIRICLE","STRONGSVILLE","OH",44136,41.2920708620001,-81.816596121,241,"16651 SELBY CIRICLE, STRONGSVILLE, OH, 44136","Match","Non_Exact","16651 SELBY CIR, STRONGSVILLE, OH, 44136",623832576,"R"
81242,"16654 BELLFLOWER BLVD","BELLFLOWER","CA",90706,33.8832961100001,-118.125204033,242,"16654 BELLFLOWER BLVD, BELLFLOWER, CA, 90706","Match","Exact","16654 BELLFLOWER BLVD, BELLFLOWER, CA, 90706",141742052,"L"
81243,"16654 SOLEDAD CANYON RD SU 526","CANYON COUNTRY","CA",91387,34.4262786460001,-118.428114989,243,"16654 SOLEDAD CANYON RD SU 526, CANYON COUNTRY, CA, 91387","Match","Exact","16654 SOLEDAD CANYON RD, CANYON COUNTRY, CA, 91387",141520586,"R"
81244,"16654 SW 83RD LANE","MIAMI","FL",33193,25.687742294,-80.46154931,244,"16654 SW 83RD LANE, MIAMI, FL, 33193","Match","Exact","16654 SW 83RD LN, MIAMI, FL, 33193",625215211,"R"
81245,"16655 15 MILE RD","CLINTON TOWNSHIP","MI",48035,42.5535107630001,-82.952437544,245,"16655 15 MILE RD, CLINTON TOWNSHIP, MI, 48035","Match","Exact","16655 15 MILE RD, CLINTON TOWNSHIP, MI, 48035",110700671,"L"
81246,"16655 BISSONNET","HOUSTON","TX",77083,29.676755621,-95.6723793,246,"16655 BISSONNET, HOUSTON, TX, 77083","Match","Non_Exact","16655 BISSONNET ST, HOUSTON, TX, 77083",638590511,"R"
81247,"16655 HOLCOMB BLVD","OREGON CITY","OR",97045,45.3668654430001,-122.523448669,247,"16655 HOLCOMB BLVD, OREGON CITY, OR, 97045","Match","Non_Exact","16655 S HOLCOMB BLVD, OREGON CITY, OR, 97045",157943034,"L"
81248,"16655 SOUTH AVENUE A 1/2","SOMERTON","AZ",85350,32.586455878,-114.640961408,248,"16655 SOUTH AVENUE A 1/2, SOMERTON, AZ, 85350","Match","Exact","16655 S AVE A 1/2, SOMERTON, AZ, 85350",129651680,"R"
81249,"16657 EAST 23RD ST SOUTH SUITE 170","INDEPENDENCE","MO",64055,39.0779202510001,-94.381528459,249,"16657 EAST 23RD ST SOUTH SUITE 170, INDEPENDENCE, MO, 64055","Match","Exact","16657 E 23RD ST S, INDEPENDENCE, MO, 64055",617979332,"R"
81250,"16657 EISENHOUR ROAD","PEMBERVILLE","OH",43450,41.3953758870001,-83.442144776,250,"16657 EISENHOUR ROAD, PEMBERVILLE, OH, 43450","Match","Exact","16657 EISENHOUR RD, PEMBERVILLE, OH, 43450",639289160,"L"
81251,"16658 RIDGE ROAD","DETROIT","MI",48219,42.412243894,-83.270182685,251,"16658 RIDGE ROAD, DETROIT, MI, 48219","Match","Exact","16658 RIDGE RD, DETROIT, MI, 48219",95502255,"R"
81252,"16659 ADDISON STREET","ENCINO","CA",91436,34.1637773470001,-118.497044623,252,"16659 ADDISON STREET, ENCINO, CA, 91436","Match","Exact","16659 ADDISON ST, ENCINO, CA, 91436",652038094,"R"
81253,"16659 S PAXTON","SOUTH HOLLAND","IL",60473,41.591693218,-87.5686059939999,253,"16659 S PAXTON, SOUTH HOLLAND, IL, 60473","Match","Non_Exact","16659 PAXTON AVE, SOUTH HOLLAND, IL, 60473",111781304,"L"
81254,"16659 SE STEPHENS ST","PORTLAND","OR",97233,45.5091197690001,-122.491604301,254,"16659 SE STEPHENS ST, PORTLAND, OR, 97233","Match","Exact","16659 SE STEPHENS ST, PORTLAND, OR, 97233",157571850,"L"
81255,"1666 20TH ST SUITE 200","SANTA MONICA","CA",90404,34.0246859640001,-118.475319476,255,"1666 20TH ST SUITE 200, SANTA MONICA, CA, 90404","Match","Exact","1666 20TH ST, SANTA MONICA, CA, 90404",241239430,"R"
81256,"1666 BARN SWALLOW PL","MARIETTA","GA",30062,33.9928033030001,-84.4881097849999,256,"1666 BARN SWALLOW PL, MARIETTA, GA, 30062","Match","Exact","1666 BARN SWALLOW PL, MARIETTA, GA, 30062",17203037,"L"
81257,"1666 BELL BOULEVARD  APT 724","BAYSIDE","NY",11360,NA,NA,257,"1666 BELL BOULEVARD  APT 724, BAYSIDE, NY, 11360","No_Match",NA,NA,NA,NA
81258,"1666 BRIDWELL LANE","MT. PLEASANT","SC",29466,32.8883745470001,-79.801611225,258,"1666 BRIDWELL LANE, MT. PLEASANT, SC, 29466","Match","Exact","1666 BRIDWELL LN, MOUNT PLEASANT, SC, 29466",646667760,"L"
81259,"1666 CACHE DR","ANCHORAGE","AK",99507,61.1747012700001,-149.849213409,259,"1666 CACHE DR, ANCHORAGE, AK, 99507","Match","Exact","1666 CACHE DR, ANCHORAGE, AK, 99507",190827042,"R"
81260,"1666 CONNECTICUT AVENUE NW STE 500","WASHINGTON","DC",20009,NA,NA,260,"1666 CONNECTICUT AVENUE NW STE 500, WASHINGTON, DC, 20009","No_Match",NA,NA,NA,NA
81261,"1666 K STREET NW SUITE 400","WASHINGTON","DC",20006,38.902520628,-77.0378101439999,261,"1666 K STREET NW SUITE 400, WASHINGTON, DC, 20006","Match","Exact","1666 K ST NW, WASHINGTON, DC, 20006",76225668,"L"
81262,"1666 K STREET NW SUITE 440","WASHINGTON","DC",20006,38.902520628,-77.0378101439999,262,"1666 K STREET NW SUITE 440, WASHINGTON, DC, 20006","Match","Exact","1666 K ST NW, WASHINGTON, DC, 20006",76225668,"L"
81263,"1666 LITCHFIELD TURNPIKE","WOODBRIDGE","CT",6525,41.3412070140001,-72.977791942,263,"1666 LITCHFIELD TURNPIKE, WOODBRIDGE, CT, 6525","Match","Exact","1666 LITCHFIELD TPKE, WOODBRIDGE, CT, 06525",3697093,"L"
81264,"1666 LYNNHURST RD","COLUMBUS","OH",43229,40.090594282,-82.972819966,264,"1666 LYNNHURST RD, COLUMBUS, OH, 43229","Match","Exact","1666 LYNNHURST RD, COLUMBUS, OH, 43229",218660586,"L"
81265,"1666 NEWCOMB AVE","SAN FRANCISCO","CA",94124,37.73598122,-122.391091635,265,"1666 NEWCOMB AVE, SAN FRANCISCO, CA, 94124","Match","Exact","1666 NEWCOMB AVE, SAN FRANCISCO, CA, 94124",640910448,"R"
81266,"1666 NORTH BEVERLY DRIVE","BEVERLY HILLS","CA",90210,34.1010048970001,-118.416019601,266,"1666 NORTH BEVERLY DRIVE, BEVERLY HILLS, CA, 90210","Match","Exact","1666 N BEVERLY DR, BEVERLY HILLS, CA, 90210",141570973,"R"
81267,"1666 NW UPAS AVE","REDMOND","OR",97756,44.3050579800001,-121.18348829,267,"1666 NW UPAS AVE, REDMOND, OR, 97756","Match","Exact","1666 NW UPAS AVE, REDMOND, OR, 97756",651582737,"L"
81268,"1666 TIMBERLAKE RUN","CEDAR RAPIDS","MN",52403,NA,NA,268,"1666 TIMBERLAKE RUN, CEDAR RAPIDS, MN, 52403","No_Match",NA,NA,NA,NA
81269,"1666 WEST 3RD STREET","BROOKLYN","NY",11223,40.6070089300001,-73.97658881,269,"1666 WEST 3RD STREET, BROOKLYN, NY, 11223","Match","Exact","1666 W 3RD ST, BROOKLYN, NY, 11223",59089505,"R"
81270,"1666 WINDING WAY","NORTH CHESTERFIELD","VA",23235,37.517406522,-77.579522281,270,"1666 WINDING WAY, NORTH CHESTERFIELD, VA, 23235","Match","Exact","1666 WINDING WAY, NORTH CHESTERFIELD, VA, 23235",201531447,"L"
81271,"16660 DALLAS PKWY STE 2400","DALLAS","TX",75248,32.9767513940001,-96.8248029709999,271,"16660 DALLAS PKWY STE 2400, DALLAS, TX, 75248","Match","Exact","16660 DALLAS PKWY, DALLAS, TX, 75248",103274520,"L"
81272,"16660 DREXEL AVE","SOUTH HOLLAND","IL",60473,41.592282842,-87.595381303,272,"16660 DREXEL AVE, SOUTH HOLLAND, IL, 60473","Match","Exact","16660 DREXEL AVE, SOUTH HOLLAND, IL, 60473",111780614,"R"
81273,"16661 VENTURA BLVD SUITE 313","ENCINO","CA",91436,34.1582095790001,-118.496531309,273,"16661 VENTURA BLVD SUITE 313, ENCINO, CA, 91436","Match","Exact","16661 VENTURA BLVD, ENCINO, CA, 91436",141556531,"R"
81274,"16662 E TEMPLE DR","AURORA","CO",80015,39.632554935,-104.79429537,274,"16662 E TEMPLE DR, AURORA, CO, 80015","Match","Exact","16662 E TEMPLE DR, AURORA, CO, 80015",177358159,"R"
81275,"16662 TRUDY LANE","HUNTINGTON BEACH","CA",92647,33.7200351920001,-118.019686828,275,"16662 TRUDY LANE, HUNTINGTON BEACH, CA, 92647","Match","Exact","16662 TRUDY LN, HUNTINGTON BEACH, CA, 92647",144014437,"L"
81276,"16664 NEW DENNISON RD","MARION","IL",62959,37.6928947660001,-88.852591178,276,"16664 NEW DENNISON RD, MARION, IL, 62959","Match","Exact","16664 NEW DENNISON RD, MARION, IL, 62959",6041343,"R"
81277,"16666 BASELINE AVE","FONTANA","CA",92336,34.1213683820001,-117.440957983,277,"16666 BASELINE AVE, FONTANA, CA, 92336","Match","Exact","16666 BASELINE AVE, FONTANA, CA, 92336",144964901,"L"
81278,"16666 SMOKE TREE STREET    UNIT B-4","HESPERIA","CA",92345,34.425347474,-117.299389629,278,"16666 SMOKE TREE STREET    UNIT B-4, HESPERIA, CA, 92345","Match","Exact","16666 SMOKE TREE ST, HESPERIA, CA, 92345",144591883,"R"
81279,"16668 N COUNT FARM LANE","MOUNT VERNON","IL",62864,38.372110901,-88.849117586,279,"16668 N COUNT FARM LANE, MOUNT VERNON, IL, 62864","Match","Non_Exact","16668 N COUNTY FARM LN, MOUNT VERNON, IL, 62864",92872292,"R"
81280,"1667 BROWN CITY RD","IMLAY CITY","MI",48444,43.0862313100001,-83.031445777,280,"1667 BROWN CITY RD, IMLAY CITY, MI, 48444","Match","Exact","1667 BROWN CITY RD, IMLAY CITY, MI, 48444",642614727,"L"
81281,"1667 CANNERY LOOP","DAVIS","CA",95616,NA,NA,281,"1667 CANNERY LOOP, DAVIS, CA, 95616","No_Match",NA,NA,NA,NA
81282,"1667 FORTUNE DRIVE","CLEARWATER","FL",33756,27.9339217300001,-82.768067732,282,"1667 FORTUNE DRIVE, CLEARWATER, FL, 33756","Match","Exact","1667 FORTUNE DR, CLEARWATER, FL, 33756",640276891,"R"
81283,"1667 GRAND AVENUE APT C","BRONX","NY",10453,40.8476171550001,-73.9146803469999,283,"1667 GRAND AVENUE APT C, BRONX, NY, 10453","Match","Exact","1667 GRAND AVE, BRONX, NY, 10453",80299611,"L"
81284,"1667 JUNIPER AVENUE","SOLVANG","CA",93463,34.5879285980001,-120.143632118,284,"1667 JUNIPER AVENUE, SOLVANG, CA, 93463","Match","Exact","1667 JUNIPER AVE, SOLVANG, CA, 93463",108592036,"R"
81285,"1667 MICHIGAN AVE","EAST PALO ALTO","CA",94303,37.473666629,-122.137949196,285,"1667 MICHIGAN AVE, EAST PALO ALTO, CA, 94303","Match","Exact","1667 MICHIGAN AVE, E PALO ALTO, CA, 94303",192366647,"L"
81286,"1667 REFLECTION ST","SAN MARCOS","CA",92078,33.0991627120001,-117.184487098,286,"1667 REFLECTION ST, SAN MARCOS, CA, 92078","Match","Exact","1667 REFLECTION ST, SAN MARCOS, CA, 92078",195763115,"L"
81287,"1667 RUTLEDGE HILLS DR","YORK","SC",29745,35.0870724590001,-81.094248319,287,"1667 RUTLEDGE HILLS DR, YORK, SC, 29745","Match","Exact","1667 RUTLEDGE HILLS DR, YORK, SC, 29745",648757265,"L"
81288,"1667 TEXAS AVENUE S","COLLEGE STATION","TX",77840,NA,NA,288,"1667 TEXAS AVENUE S, COLLEGE STATION, TX, 77840","No_Match",NA,NA,NA,NA
81289,"1667 VERMONT DRIVE","ELK GROVE VILLAGE","IL",60007,42.014652492,-88.048647895,289,"1667 VERMONT DRIVE, ELK GROVE VILLAGE, IL, 60007","Match","Exact","1667 VERMONT DR, ELK GROVE VILLAGE, IL, 60007",111698880,"R"
81290,"16670 COYLE STREET","DETROIT","MI",48235,42.4129055860001,-83.194308838,290,"16670 COYLE STREET, DETROIT, MI, 48235","Match","Exact","16670 COYLE ST, DETROIT, MI, 48235",95424576,"R"
81291,"16670 HARWOOD OAKS CT APT 302","DUMFRIES","VA",22026,38.5911670880001,-77.309118656,291,"16670 HARWOOD OAKS CT APT 302, DUMFRIES, VA, 22026","Match","Exact","16670 HARWOOD OAKS CT, DUMFRIES, VA, 22026",619954676,"R"
81292,"16670 HWY 98","EMERSON","AR",71740,33.1185051,-93.053672195,292,"16670 HWY 98, EMERSON, AR, 71740","Match","Non_Exact","16670 STATE HWY 98, EMERSON, AR, 71740",10682790,"L"
81293,"16670 IVANHOE ST","BRIGHTON","CO",80602,39.9977290100001,-104.921003006,293,"16670 IVANHOE ST, BRIGHTON, CO, 80602","Match","Exact","16670 IVANHOE ST, BRIGHTON, CO, 80602",177458223,"R"
81294,"16672 MOUNT DARWIN CIR","FOUNTAIN VALLEY","CA",92708,33.721052636,-117.934092354,294,"16672 MOUNT DARWIN CIR, FOUNTAIN VALLEY, CA, 92708","Match","Exact","16672 MOUNT DARWIN CIR, FOUNTAIN VALLEY, CA, 92708",144038812,"L"
81295,"16675 BUCKSKIN COURT","MORGAN HILL","CA",95037,37.1368518260001,-121.606944347,295,"16675 BUCKSKIN COURT, MORGAN HILL, CA, 95037","Match","Exact","16675 BUCKSKIN CT, MORGAN HILL, CA, 95037",123174996,"L"
81296,"16675 SHUNING CT","MORENO VALLEY","CA",92551,33.879428972,-117.232381953,296,"16675 SHUNING CT, MORENO VALLEY, CA, 92551","Match","Exact","16675 SHUNING CT, MORENO VALLEY, CA, 92551",624719477,"R"
81297,"16675 SLATE DRIVE UNIT 831","CHINO HILLS","CA",91709,33.9524221880001,-117.689116586,297,"16675 SLATE DRIVE UNIT 831, CHINO HILLS, CA, 91709","Match","Exact","16675 SLATE DR, CHINO HILLS, CA, 91709",638615499,"L"
81298,"16676 123RD TERRACE N","JUPITER","FL",33478,26.923678582,-80.2297785599999,298,"16676 123RD TERRACE N, JUPITER, FL, 33478","Match","Exact","16676 123RD TER N, JUPITER, FL, 33478",115259728,"L"
81299,"16677 PEACOCK LANE","HASLETT","MI",48840,42.7749630320001,-84.373559617,299,"16677 PEACOCK LANE, HASLETT, MI, 48840","Match","Non_Exact","16677 PEACOCK RD, HASLETT, MI, 48840",643739127,"R"
81300,"16678 W DURANGO ST","GOODYEAR","AZ",85338,33.428356708,-112.417397107,300,"16678 W DURANGO ST, GOODYEAR, AZ, 85338","Match","Exact","16678 W DURANGO ST, GOODYEAR, AZ, 85338",128167675,"R"
81301,"1667A ST MARKS AVE","BROOKLYN","NY",11233,40.6731879450001,-73.91217426,301,"1667A ST MARKS AVE, BROOKLYN, NY, 11233","Match","Exact","1667 ST MARKS AVE, BROOKLYN, NY, 11233",59083768,"L"
81302,"1668 310TH","RYAN","IA",52330,42.339966153,-91.467027114,302,"1668 310TH, RYAN, IA, 52330","Match","Non_Exact","1668 310TH ST, RYAN, IA, 52330",16863763,"L"
81303,"1668 ANZA AVE","VISTA","CA",92084,33.2250867280001,-117.232623097,303,"1668 ANZA AVE, VISTA, CA, 92084","Match","Exact","1668 ANZA AVE, VISTA, CA, 92084",195288638,"L"
81304,"1668 BATH AVENUE","LARAMIE","WY",82072,41.326378203,-105.563224471,304,"1668 BATH AVENUE, LARAMIE, WY, 82072","Match","Exact","1668 BATH AVE, LARAMIE, WY, 82072",646498649,"L"
81305,"1668 BECKHAM RIDGE CT","SAINT LOUIS","MO",63146,NA,NA,305,"1668 BECKHAM RIDGE CT, SAINT LOUIS, MO, 63146","No_Match",NA,NA,NA,NA
81306,"1668 DARTMOOR DRIVE","HUNTINGTOWN","MD",20639,38.644656034,-76.638762879,306,"1668 DARTMOOR DRIVE, HUNTINGTOWN, MD, 20639","Match","Exact","1668 DARTMOOR DR, HUNTINGTOWN, MD, 20639",78175124,"L"
81307,"1668 DIPLOMAT DR","MIAMI","FL",33179,25.95580489,-80.168476003,307,"1668 DIPLOMAT DR, MIAMI, FL, 33179","Match","Exact","1668 DIPLOMAT DR, MIAMI, FL, 33179",609027582,"L"
81308,"1668 E WALLINGTON LN","FRESNO","CA",93730,36.894072878,-119.751350355,308,"1668 E WALLINGTON LN, FRESNO, CA, 93730","Match","Exact","1668 E WALLINGTON LN, FRESNO, CA, 93730",624584823,"L"
81309,"1668 EXODUS DRIVE","GEORGETOWN","SC",29440,33.530704121,-79.210682322,309,"1668 EXODUS DRIVE, GEORGETOWN, SC, 29440","Match","Exact","1668 EXODUS DR, GEORGETOWN, SC, 29440",29004879,"R"
81310,"1668 FARMINGTON DRIVE","COOKEVILLE","TN",38501,36.193066328,-85.5286383549999,310,"1668 FARMINGTON DRIVE, COOKEVILLE, TN, 38501","Match","Exact","1668 FARMINGTON DR, COOKEVILLE, TN, 38501",25159312,"L"
81311,"1668 GRANT RD","LOS ALTOS","CA",94024,NA,NA,311,"1668 GRANT RD, LOS ALTOS, CA, 94024","No_Match",NA,NA,NA,NA
81312,"1668 HWY 394","DERIDDER","LA",70634,30.768687787,-93.1955990929999,312,"1668 HWY 394, DERIDDER, LA, 70634","Match","Non_Exact","1668 STATE RTE 394, DERIDDER, LA, 70634",88374452,"L"
81313,"1668 JOHN TYLER HWY","WILLIAMSBURG","VA",23185,37.2601045800001,-76.857085855,313,"1668 JOHN TYLER HWY, WILLIAMSBURG, VA, 23185","Match","Exact","1668 JOHN TYLER HWY, WILLIAMSBURG, VA, 23185",103778683,"R"
81314,"1668 JUNIPER DRIVE","GREEN BAY","WI",54302,44.4890300920001,-87.990410662,314,"1668 JUNIPER DRIVE, GREEN BAY, WI, 54302","Match","Exact","1668 JUNIPER DR, GREEN BAY, WI, 54302",148103712,"R"
81315,"1668 KEMPSVILLE ROAD","VIRGINIA BEACH","VA",23464,36.7856661920001,-76.185292578,315,"1668 KEMPSVILLE ROAD, VIRGINIA BEACH, VA, 23464","Match","Exact","1668 KEMPSVILLE RD, VA BCH, VA, 23464",613589827,"R"
81316,"1668 LIEGE DR","HENDERSON","NV",89012,36.0083511490001,-115.059179999,316,"1668 LIEGE DR, HENDERSON, NV, 89012","Match","Exact","1668 LIEGE DR, HENDERSON, NV, 89012",201942975,"L"
81317,"1668 MARY PAYTON DR","SOUTHAVEN","MS",38671,34.9730469420001,-89.959830941,317,"1668 MARY PAYTON DR, SOUTHAVEN, MS, 38671","Match","Exact","1668 MARY PAYTON DR, SOUTHAVEN, MS, 38671",91842506,"L"
81318,"1668 MERRIMAN ROAD PMB 34","AKRON","OH",44313,41.1327026650001,-81.5463234809999,318,"1668 MERRIMAN ROAD PMB 34, AKRON, OH, 44313","Match","Non_Exact","1668 MERRIMAN RD, AKRON, OH, 44303",61338995,"L"
81319,"1668 NE FOOTHILL BLVD APT","GRANTS PASS","OR",97526,42.441640641,-123.301954981,319,"1668 NE FOOTHILL BLVD APT, GRANTS PASS, OR, 97526","Match","Non_Exact","1668 NE FOOTHILL BLVD, GRANTS PASS, OR, 97526",645547691,"L"
81320,"1668 OLD MILL STREAM","CORDOVA","TN",38016,35.170834067,-89.7878882429999,320,"1668 OLD MILL STREAM, CORDOVA, TN, 38016","Match","Non_Exact","1668 OLD MILL STREAM DR, CORDOVA, TN, 38016",72945581,"L"
81321,"1668 SOUTH 825 WEST","LEHI","UT",84043,40.367808849,-111.862633574,321,"1668 SOUTH 825 WEST, LEHI, UT, 84043","Match","Exact","1668 S 825 W, LEHI, UT, 84043",601663494,"L"
81322,"1668 W INDEPEDENCE ST","GREENSBURG","IN",47240,NA,NA,322,"1668 W INDEPEDENCE ST, GREENSBURG, IN, 47240","No_Match",NA,NA,NA,NA
81323,"1668 WEST 3RD STREET","LUVERNE","AL",36049,31.717962534,-86.241641494,323,"1668 WEST 3RD STREET, LUVERNE, AL, 36049","Match","Non_Exact","1668 E 3RD ST, LUVERNE, AL, 36049",612835912,"L"
81324,"16680 BELL","EASTPOINTE","MI",48021,42.47541513,-82.9486448179999,324,"16680 BELL, EASTPOINTE, MI, 48021","Match","Non_Exact","16680 BELL AVE, EASTPOINTE, MI, 48021",110679062,"R"
81325,"16680 BLACKJACK OAK LANE APT 202","WOODBRIDGE","VA",22191,38.5898449000001,-77.3030361469999,325,"16680 BLACKJACK OAK LANE APT 202, WOODBRIDGE, VA, 22191","Match","Exact","16680 BLACKJACK OAK LN, WOODBRIDGE, VA, 22191",646643468,"L"
81326,"16680 MARY CLIFF ROAD","BROOKFIELD","WI",53005,NA,NA,326,"16680 MARY CLIFF ROAD, BROOKFIELD, WI, 53005","Tie",NA,NA,NA,NA
81327,"16680 OAK HOLLOW DRIVE","COTTONWOOD","CA",96022,40.2837578300001,-122.296458512,327,"16680 OAK HOLLOW DRIVE, COTTONWOOD, CA, 96022","Match","Exact","16680 OAK HOLLOW DR, COTTONWOOD, CA, 96022",119406179,"L"
81328,"16681 WAKEFIELD CT","TRACY","CA",95304,37.7455246440001,-121.514865429,328,"16681 WAKEFIELD CT, TRACY, CA, 95304","Match","Exact","16681 WAKEFIELD CT, TRACY, CA, 95304",133880315,"R"
81329,"16681","SURPRISE","AZ",85388,NA,NA,329,"16681, SURPRISE, AZ, 85388","No_Match",NA,NA,NA,NA
81330,"16683 FM 1816","NOCONA","TX",76255,33.7855269660001,-97.833642966,330,"16683 FM 1816, NOCONA, TX, 76255","Match","Exact","16683 FM 1816, NOCONA, TX, 76255",152108837,"L"
81331,"16684 RIM ROCK LANE","MURPHY","ID",83650,NA,NA,331,"16684 RIM ROCK LANE, MURPHY, ID, 83650","No_Match",NA,NA,NA,NA
81332,"16685 261ST AVE NW","BIG LAKE","MN",55309,45.4439602410001,-93.685921212,332,"16685 261ST AVE NW, BIG LAKE, MN, 55309","Match","Non_Exact","16685 261ST AVE, BIG LAKE, MN, 55309",97753192,"L"
81333,"16685 COUNTY ROAD 20","BOLIGEE","AL",35443,32.7809229700001,-88.028599173,333,"16685 COUNTY ROAD 20, BOLIGEE, AL, 35443","Match","Exact","16685 CO RD 20, BOLIGEE, AL, 35443",9648583,"L"
81334,"16685 COUNTY ROAD 3690","TUPELO","OK",74572,34.6032210430001,-96.441930658,334,"16685 COUNTY ROAD 3690, TUPELO, OK, 74572","Match","Exact","16685 CO RD 3690, TUPELO, OK, 74572",651601093,"R"
81335,"16687 JOG RD","DELRAY BEACH","FL",33446,26.4282308860001,-80.14653359,335,"16687 JOG RD, DELRAY BEACH, FL, 33446","Match","Exact","16687 JOG RD, DELRAY BEACH, FL, 33446",115482090,"R"
81336,"16688 NW CHARLAIS ST","BEAVERTON","OR",97006,45.5482851790001,-122.849149079,336,"16688 NW CHARLAIS ST, BEAVERTON, OR, 97006","Match","Exact","16688 NW CHARLAIS ST, BEAVERTON, OR, 97006",158196422,"R"
81337,"16688 NW COUNTRYRIDGE DR","PORTLAND","OR",97229,45.5542685140001,-122.848281149,337,"16688 NW COUNTRYRIDGE DR, PORTLAND, OR, 97229","Match","Exact","16688 NW COUNTRYRIDGE DR, PORTLAND, OR, 97229",158217445,"R"
81338,"16688 THOMAS ROAD","LEMOORE","CA",93245,36.2371250310001,-119.756165008,338,"16688 THOMAS ROAD, LEMOORE, CA, 93245","Match","Non_Exact","16688 THOMAS CT, LEMOORE, CA, 93245",615933832,"L"
81339,"1669 BENTLEY CT","CANTON","MI",48188,42.294235584,-83.480208643,339,"1669 BENTLEY CT, CANTON, MI, 48188","Match","Exact","1669 BENTLEY CT, CANTON, MI, 48188",95739351,"L"
81340,"1669 E GREYHAWK WAY","GREENFIELD","IN",46140,39.7194630230001,-85.774070367,340,"1669 E GREYHAWK WAY, GREENFIELD, IN, 46140","Match","Exact","1669 E GREYHAWK WAY, GREENFIELD, IN, 46140",31090079,"L"
81341,"1669 EAGLE DRIVE","LOVELAND","CO",80537,NA,NA,341,"1669 EAGLE DRIVE, LOVELAND, CO, 80537","No_Match",NA,NA,NA,NA
81342,"1669 ESSEX RD","TAWAS CITY","MI",48763,44.3192519740001,-83.5884763769999,342,"1669 ESSEX RD, TAWAS CITY, MI, 48763","Match","Exact","1669 ESSEX RD, TAWAS CITY, MI, 48763",161312990,"L"
81343,"1669 FLANIGAN DR SUITE F","SAN JOSE","CA",95121,37.3187009370001,-121.823513906,343,"1669 FLANIGAN DR SUITE F, SAN JOSE, CA, 95121","Match","Exact","1669 FLANIGAN DR, SAN JOSE, CA, 95121",635857343,"L"
81344,"1669 HOLLENBECK AVE STE 2-190","SUNNYVALE","CA",94087,37.3396039830001,-122.041504793,344,"1669 HOLLENBECK AVE STE 2-190, SUNNYVALE, CA, 94087","Match","Exact","1669 HOLLENBECK AVE, SUNNYVALE, CA, 94087",614039838,"R"
81345,"1669 LAKE VIEW AVENUE","NORTH EAST","PA",16428,42.2246272890001,-79.835756518,345,"1669 LAKE VIEW AVENUE, NORTH EAST, PA, 16428","Match","Exact","1669 LAKE VIEW AVE, NORTH EAST, PA, 16428",117501754,"R"
81346,"1669 MADISON STREET","DENVER","CO",80206,39.7431698240001,-104.946512041,346,"1669 MADISON STREET, DENVER, CO, 80206","Match","Exact","1669 MADISON ST, DENVER, CO, 80206",177311208,"L"
81347,"1669 MILL LANDING RD","VIRGINIA BEACH","VA",23457,36.6455294,-76.013020082,347,"1669 MILL LANDING RD, VIRGINIA BEACH, VA, 23457","Match","Exact","1669 MILL LANDING RD, VA BCH, VA, 23457",122299041,"L"
81348,"1669 NORTHAMPTON ST","HOLYOKE","MA",1040,42.207625696,-72.630761503,348,"1669 NORTHAMPTON ST, HOLYOKE, MA, 1040","Match","Exact","1669 NORTHAMPTON ST, HOLYOKE, MA, 01040",4057138,"R"
81349,"1669 PARKLAND DRIVE","LANCASTER","OH",43130,39.7260706060001,-82.5536917649999,349,"1669 PARKLAND DRIVE, LANCASTER, OH, 43130","Match","Exact","1669 PARKLAND DR, LANCASTER, OH, 43130",37239708,"L"
81350,"1669 SW 66TH DRIVE","GAINESVILLE","FL",32607,29.6374146850001,-82.412049272,350,"1669 SW 66TH DRIVE, GAINESVILLE, FL, 32607","Match","Exact","1669 SW 66TH DR, GAINESVILLE, FL, 32607",653168853,"L"
81351,"1669 THOMASTON AVENUE","WATERBURY","CT",6704,41.590483066,-73.052783268,351,"1669 THOMASTON AVENUE, WATERBURY, CT, 6704","Match","Exact","1669 THOMASTON AVE, WATERBURY, CT, 06704",3726689,"L"
81352,"1669 WEST 130TH STREET","HINCKLEY","OH",44233,41.230283609,-81.7849330239999,352,"1669 WEST 130TH STREET, HINCKLEY, OH, 44233","Match","Exact","1669 W 130TH ST, HINCKLEY, OH, 44233",650844459,"L"
81353,"1669 WEST LELAND AVENUE","SPRINGFIELD","IL",62704,39.78511122,-89.6815091029999,353,"1669 WEST LELAND AVENUE, SPRINGFIELD, IL, 62704","Match","Exact","1669 W LELAND AVE, SPRINGFIELD, IL, 62704",647835443,"R"
81354,"16690 RABBIT TRACK TRAIL","COLORADO SPRINGS","CO",80930,38.775776078,-104.51641543,354,"16690 RABBIT TRACK TRAIL, COLORADO SPRINGS, CO, 80930","Match","Exact","16690 RABBIT TRACK TRL, COLORADO SPRINGS, CO, 80930",610750018,"R"
81355,"16690 WEST CLYDE MAHER RD","TAHLEQUAH","OK",74464,35.8563035240001,-95.007152826,355,"16690 WEST CLYDE MAHER RD, TAHLEQUAH, OK, 74464","Match","Exact","16690 W CLYDE MAHER RD, TAHLEQUAH, OK, 74464",53629698,"L"
81356,"16693 SPRAGUE LOOP","LA PINE","OR",97739,43.752547566,-121.491767371,356,"16693 SPRAGUE LOOP, LA PINE, OR, 97739","Match","Exact","16693 SPRAGUE LOOP, LA PINE, OR, 97739",152532152,"R"
81357,"16693 ST CLAIR AVE","EAST LIVERPOOL","OH",43920,40.659542893,-80.57439174,357,"16693 ST CLAIR AVE, EAST LIVERPOOL, OH, 43920","Match","Exact","16693 ST CLAIR AVE, EAST LIVERPOOL, OH, 43920",605087551,"L"
81358,"16699 NEWPORT COURT","BRIGHTON","CO",80602,39.9993022350001,-104.910134081,358,"16699 NEWPORT COURT, BRIGHTON, CO, 80602","Match","Exact","16699 NEWPORT CT, BRIGHTON, CO, 80602",177458429,"L"
81359,"166B JOHN STREET","OAKLAND","CA",94611,37.829528684,-122.249735794,359,"166B JOHN STREET, OAKLAND, CA, 94611","Match","Exact","166 JOHN ST, OAKLAND, CA, 94611",606076375,"R"
81360,"167 1ST STREET","CLARKSVILLE","PA",15322,NA,NA,360,"167 1ST STREET, CLARKSVILLE, PA, 15322","No_Match",NA,NA,NA,NA
81361,"167 ACADIA ROAD","GARDNER","MA",1440,42.5902320880001,-72.010225297,361,"167 ACADIA ROAD, GARDNER, MA, 1440","Match","Exact","167 ACADIA RD, GARDNER, MA, 01440",40048861,"R"
81362,"167 ACALANES DR APT 1","SUNNYVALE","CA",94086,37.383192579,-122.056950766,362,"167 ACALANES DR APT 1, SUNNYVALE, CA, 94086","Match","Exact","167 ACALANES DR, SUNNYVALE, CA, 94086",122956351,"R"
81363,"167 ALBANY DR","MOORESVILLE","NC",28115,35.6371722640001,-80.812986833,363,"167 ALBANY DR, MOORESVILLE, NC, 28115","Match","Exact","167 ALBANY DR, MOORESVILLE, NC, 28115",625608130,"L"
81364,"167 ALCORNE ST","SOMERSET","NJ",8873,40.497343384,-74.46879552,364,"167 ALCORNE ST, SOMERSET, NJ, 8873","Match","Exact","167 ALCORNE ST, SOMERSET, NJ, 08873",59942802,"R"
81365,"167 ALLENS LAKE RD","DILLWYN","VA",23936,37.5666730770001,-78.4074603999999,365,"167 ALLENS LAKE RD, DILLWYN, VA, 23936","Match","Exact","167 ALLENS LAKE RD, DILLWYN, VA, 23936",73749593,"L"
81366,"167 AUST DRIVE","FRIEDENS","PA",15541,40.03071942,-79.028825695,366,"167 AUST DRIVE, FRIEDENS, PA, 15541","Match","Exact","167 AUST DR, FRIEDENS, PA, 15541",70260176,"L"
81367,"167 AVE PONCE DE LEON","SAN JUAN","PR",917,18.4348231450001,-66.114955263,367,"167 AVE PONCE DE LEON, SAN JUAN, PR, 917","Match","Exact","167 AVE PONCE DE LEON, SAN JUAN, PR, 00917",206104590,"R"
81368,"167 BEACH 59TH STREET 2ND FLOOR","ARVERNE","NY",11692,40.5911681060001,-73.788835935,368,"167 BEACH 59TH STREET 2ND FLOOR, ARVERNE, NY, 11692","Match","Exact","167 BEACH 59TH ST, ARVERNE, NY, 11692",59722761,"L"
81369,"167 BENT CYPRESS LANE","LOCKPORT","LA",70374,29.5862387650001,-90.443129679,369,"167 BENT CYPRESS LANE, LOCKPORT, LA, 70374","Match","Exact","167 BENT CYPRESS LN, LOCKPORT, LA, 70374",92351926,"R"
81370,"167 BRIARHURST ROAD","WILLIAMSVILLE","NY",14221,42.988501226,-78.744556183,370,"167 BRIARHURST ROAD, WILLIAMSVILLE, NY, 14221","Match","Exact","167 BRIARHURST RD, WILLIAMSVILLE, NY, 14221",48305095,"R"
81371,"167 BROOKLINE STREET","CAMBRIDGE","MA",2139,42.359780502,-71.105482431,371,"167 BROOKLINE STREET, CAMBRIDGE, MA, 2139","Match","Exact","167 BROOKLINE ST, CAMBRIDGE, MA, 02139",647976884,"R"
81372,"167 BULL CREEK ROAD","ASHEVILLE","NC",28805,35.6430390260001,-82.474026035,372,"167 BULL CREEK ROAD, ASHEVILLE, NC, 28805","Match","Exact","167 BULL CREEK RD, ASHEVILLE, NC, 28805",627656095,"R"
81373,"167 CAMINO PABLO ROAD","ORINDA","CA",94563,NA,NA,373,"167 CAMINO PABLO ROAD, ORINDA, CA, 94563","No_Match",NA,NA,NA,NA
81374,"167 CARMEL DR","SANDIA","TX",78383,28.0798573610001,-97.922010295,374,"167 CARMEL DR, SANDIA, TX, 78383","Match","Exact","167 CARMEL DR, SANDIA, TX, 78383",636329401,"L"
81375,"167 CHARLESTON PARK","NASHVILLE","TN",37205,36.1126878050001,-86.8407801549999,375,"167 CHARLESTON PARK, NASHVILLE, TN, 37205","Match","Exact","167 CHARLESTON PARK, NASHVILLE, TN, 37205",97229815,"R"
81376,"167 CHERRY ST STOP 165","MILFORD","CT",6460,41.2278416230001,-73.0509912759999,376,"167 CHERRY ST STOP 165, MILFORD, CT, 6460","Match","Exact","167 CHERRY ST, MILFORD, CT, 06460",3714735,"R"
81377,"167 CHERRY STREET UNIT 126","MILFORD","CT",6460,41.2278416230001,-73.0509912759999,377,"167 CHERRY STREET UNIT 126, MILFORD, CT, 6460","Match","Exact","167 CHERRY ST, MILFORD, CT, 06460",3714735,"R"
81378,"167 CHEYNEY RD","GLEN MILLS","PA",19342,39.887787546,-75.5058950919999,378,"167 CHEYNEY RD, GLEN MILLS, PA, 19342","Match","Exact","167 CHEYNEY RD, GLEN MILLS, PA, 19342",134903242,"R"
81379,"167 CLINTON STREET","MCKEES ROCKS","PA",15136,40.4685361680001,-80.081524278,379,"167 CLINTON STREET, MCKEES ROCKS, PA, 15136","Match","Non_Exact","167 CLINTON ST, MC KEES ROCKS, PA, 15136",51615025,"L"
81380,"167 CLYDE LANE","CAMERON","NC",28326,35.278330474,-79.0995900299999,380,"167 CLYDE LANE, CAMERON, NC, 28326","Match","Exact","167 CLYDE LN, CAMERON, NC, 28326",71985860,"L"
81381,"167 COLMAR AVE","COLMAR","PA",18915,40.269399838,-75.259559506,381,"167 COLMAR AVE, COLMAR, PA, 18915","Match","Exact","167 COLMAR AVE, COLMAR, PA, 18915",135108152,"L"
81382,"167 CONNECTICUT AVENUE","SINKING SPRING","PA",19608,40.3412370570001,-76.0358978359999,382,"167 CONNECTICUT AVENUE, SINKING SPRING, PA, 19608","Match","Exact","167 CONNECTICUT AVE, SINKING SPRING, PA, 19608",634117818,"L"
81383,"167 COVINA AVE","LONG BEACH","CA",90803,33.758679253,-118.134664502,383,"167 COVINA AVE, LONG BEACH, CA, 90803","Match","Exact","167 COVINA AVE, LONG BEACH, CA, 90803",142776169,"L"
81384,"167 CRAWFORD FLEMING ROAD","MCCORMICK","GA",29835,NA,NA,384,"167 CRAWFORD FLEMING ROAD, MCCORMICK, GA, 29835","No_Match",NA,NA,NA,NA
81385,"167 DUNFORD STREET","BUTTONWILLOW","CA",93206,35.401361308,-119.475251209,385,"167 DUNFORD STREET, BUTTONWILLOW, CA, 93206","Match","Exact","167 DUNFORD ST, BUTTONWILLOW, CA, 93206",109043264,"L"
81386,"167 E 5TH STREET","BENSON","AZ",85602,31.9672505360001,-110.296762762,386,"167 E 5TH STREET, BENSON, AZ, 85602","Match","Exact","167 E 5TH ST, BENSON, AZ, 85602",120919530,"R"
81387,"167 E MAPLE ST","LEBANON","OR",97355,44.537528901,-122.904604369,387,"167 E MAPLE ST, LEBANON, OR, 97355","Match","Exact","167 E MAPLE ST, LEBANON, OR, 97355",156062420,"R"
81388,"167 E124TH STREET NUMBER 1340","NEW YORK","NY",10035,NA,NA,388,"167 E124TH STREET NUMBER 1340, NEW YORK, NY, 10035","No_Match",NA,NA,NA,NA
81389,"167 EARL GARNER DRIVE","RINGGOLD","GA",30736,34.864095734,-85.201404984,389,"167 EARL GARNER DRIVE, RINGGOLD, GA, 30736","Match","Non_Exact","167 EARL GARNER RD, RINGGOLD, GA, 30736",66688846,"L"
81390,"167 EAST 61ST STREET APT 33D","NEW YORK","NY",10065,40.763179527,-73.966534488,390,"167 EAST 61ST STREET APT 33D, NEW YORK, NY, 10065","Match","Exact","167 E 61ST ST, NEW YORK, NY, 10065",59657472,"L"
81391,"167 EAST 67TH STREET SUITE 2E","NEW YORK","NY",10065,40.7668859520001,-73.963687395,391,"167 EAST 67TH STREET SUITE 2E, NEW YORK, NY, 10065","Match","Exact","167 E 67TH ST, NEW YORK, NY, 10065",642472035,"L"
81392,"167 EAST 98TH STREET","BROOKLYN","NY",11212,40.663001697,-73.920686507,392,"167 EAST 98TH STREET, BROOKLYN, NY, 11212","Match","Exact","167 E 98TH ST, BROOKLYN, NY, 11212",59083625,"L"
81393,"167 EAST HIGH STREET","SOMERVILLE","NJ",8876,40.5683333170001,-74.604493092,393,"167 EAST HIGH STREET, SOMERVILLE, NJ, 8876","Match","Exact","167 E HIGH ST, SOMERVILLE, NJ, 08876",60000969,"L"
81394,"167 ELM ST","AGAWAM","MA",1001,42.065463666,-72.623323434,394,"167 ELM ST, AGAWAM, MA, 1001","Match","Exact","167 ELM ST, AGAWAM, MA, 01001",4034152,"L"
81395,"167 EULON LOOP","RAEFORD","NC",28376,34.995380611,-79.071751934,395,"167 EULON LOOP, RAEFORD, NC, 28376","Match","Exact","167 EULON LOOP, RAEFORD, NC, 28376",653451876,"L"
81396,"167 GARDEN MANOR CT","LOGANVILLE","GA",30052,33.8583768840001,-83.9251848069999,396,"167 GARDEN MANOR CT, LOGANVILLE, GA, 30052","Match","Non_Exact","167 GARDEN MANOR CT SW, LOGANVILLE, GA, 30052",627669868,"L"
81397,"167 GLEN EAGLE WAY","MCDONOUGH","GA",30253,33.500200079,-84.212091008,397,"167 GLEN EAGLE WAY, MCDONOUGH, GA, 30253","Match","Exact","167 GLEN EAGLE WAY, MCDONOUGH, GA, 30253",23196542,"R"
81398,"167 GROGAN ROAD","BARRE","MA",1005,42.40403574,-72.116720699,398,"167 GROGAN ROAD, BARRE, MA, 1005","Match","Exact","167 GROGAN RD, BARRE, MA, 01005",40051703,"L"
81399,"167 HITCHING POST LN","BEDFORD","NH",3110,42.927605129,-71.54155796,399,"167 HITCHING POST LN, BEDFORD, NH, 3110","Match","Exact","167 HITCHING POST LN, BEDFORD, NH, 03110",113557647,"L"
81400,"167 HWY 92 W","BEE BRANCH","AR",72013,NA,NA,400,"167 HWY 92 W, BEE BRANCH, AR, 72013","No_Match",NA,NA,NA,NA
81401,"167 JAUBERT LANE OFC","LAPLACE","LA",70068,30.053436784,-90.4570641349999,401,"167 JAUBERT LANE OFC, LAPLACE, LA, 70068","Match","Non_Exact","167 JAUBERT LN, LA PLACE, LA, 70068",93702984,"L"
81402,"167 JEFFERSON DRIVE","OCEAN","NJ",7712,40.251938893,-74.0433486159999,402,"167 JEFFERSON DRIVE, OCEAN, NJ, 7712","Match","Exact","167 JEFFERSON DR, OCEAN, NJ, 07712",90502234,"R"
81403,"167 KILMOORE LN","HAYESVILLE","NC",28904,35.0220264820001,-83.729231687,403,"167 KILMOORE LN, HAYESVILLE, NC, 28904","Match","Exact","167 KILMOORE LN, HAYESVILLE, NC, 28904",35943824,"L"
81404,"167 LAMP AND LANTERN VILLAGE 230","CHESTERFIELD","MO",63017,38.626100384,-90.517106245,404,"167 LAMP AND LANTERN VILLAGE 230, CHESTERFIELD, MO, 63017","Match","Exact","167 LAMP AND LANTERN VLG, CHESTERFIELD, MO, 63017",645119914,"L"
81405,"167 LANATCHI LN","EATONTON","GA",31024,33.403070907,-83.24895321,405,"167 LANATCHI LN, EATONTON, GA, 31024","Match","Exact","167 LANATCHI LN, EATONTON, GA, 31024",635341782,"L"
81406,"167 LENOX RD A15","BROOKLYN","NY",11226,40.6539192660001,-73.9539448689999,406,"167 LENOX RD A15, BROOKLYN, NY, 11226","Match","Exact","167 LENOX RD, BROOKLYN, NY, 11226",650074263,"L"
81407,"167 LINCOLN ST","HENDERSON","NC",27536,36.341562831,-78.4123715969999,407,"167 LINCOLN ST, HENDERSON, NC, 27536","Match","Exact","167 LINCOLN ST, HENDERSON, NC, 27536",90273355,"R"
81408,"167 LOAM DRIVE","MCDONOUGH","GA",30252,33.4264342010001,-83.9961736879999,408,"167 LOAM DRIVE, MCDONOUGH, GA, 30252","Match","Exact","167 LOAM DR, MCDONOUGH, GA, 30252",619913156,"L"
81409,"167 LOCUST STREET SUITE 225B","SPRUCE PINE","NC",28777,35.915971912,-82.069918774,409,"167 LOCUST STREET SUITE 225B, SPRUCE PINE, NC, 28777","Match","Exact","167 LOCUST ST, SPRUCE PINE, NC, 28777",37287895,"R"
81410,"167 LOU ANN DR","DEPEW","NY",14043,42.9250174060001,-78.723353328,410,"167 LOU ANN DR, DEPEW, NY, 14043","Match","Exact","167 LOU ANN DR, DEPEW, NY, 14043",48305955,"R"
81411,"167 MARCUS GARVEY BLVD APT 4R","BROOKLYN","NY",11221,40.692627094,-73.9399506729999,411,"167 MARCUS GARVEY BLVD APT 4R, BROOKLYN, NY, 11221","Match","Exact","167 MARCUS GARVEY BLVD, BROOKLYN, NY, 11221",59079028,"L"
81412,"167 MARLBOROUGH STREET UNIT 4","BOSTON","MA",2116,42.3526027570001,-71.079605149,412,"167 MARLBOROUGH STREET UNIT 4, BOSTON, MA, 2116","Match","Exact","167 MARLBOROUGH ST, BOSTON, MA, 02116",638524757,"R"
81413,"167 MIDDLE COUNTRY ROAD","MIDDLE ISLAND","NY",11953,NA,NA,413,"167 MIDDLE COUNTRY ROAD, MIDDLE ISLAND, NY, 11953","No_Match",NA,NA,NA,NA
81414,"167 MOONLIGHT DR","MURPHY","TX",75094,32.991811295,-96.606768616,414,"167 MOONLIGHT DR, MURPHY, TX, 75094","Match","Exact","167 MOONLIGHT DR, MURPHY, TX, 75094",642968480,"L"
81415,"167 OLD VANCEBORO ROAD","NEW BERN","NC",28560,35.141466973,-77.027775789,415,"167 OLD VANCEBORO ROAD, NEW BERN, NC, 28560","Match","Exact","167 OLD VANCEBORO RD, NEW BERN, NC, 28560",34110994,"L"
81416,"167 OLDER ROAD","CHARLESTON","WV",25312,38.5064352590001,-81.700520709,416,"167 OLDER ROAD, CHARLESTON, WV, 25312","Match","Exact","167 OLDER RD, CHARLESTON, WV, 25312",78704968,"R"
81417,"167 PARADISE COVE ROAD","MALIBU","CA",90265,NA,NA,417,"167 PARADISE COVE ROAD, MALIBU, CA, 90265","No_Match",NA,NA,NA,NA
81418,"167 PEARL AVE","HAMDEN","CT",6514,41.3517464,-72.941315601,418,"167 PEARL AVE, HAMDEN, CT, 6514","Match","Exact","167 PEARL AVE, HAMDEN, CT, 06514",606594451,"R"
81419,"167 POPLAR CREEK DRIVE","WILKESBORO","NC",28697,36.1238089770001,-81.112580123,419,"167 POPLAR CREEK DRIVE, WILKESBORO, NC, 28697","Match","Exact","167 POPLAR CREEK DR, WILKESBORO, NC, 28697",46146657,"L"
81420,"167 PUNKIN CENTER ROAD","WEST UNION","WV",26456,39.2706491060001,-80.80419896,420,"167 PUNKIN CENTER ROAD, WEST UNION, WV, 26456","Match","Exact","167 PUNKIN CENTER RD, WEST UNION, WV, 26456",55176311,"R"
81421,"167 RAVENCREST DR","IOWA CITY","IA",52245,41.658694725,-91.486759424,421,"167 RAVENCREST DR, IOWA CITY, IA, 52245","Match","Exact","167 RAVENCREST DR, IOWA CITY, IA, 52245",84509604,"R"
81422,"167 ROAD 6100","FARMINGTON","NM",87401,NA,NA,422,"167 ROAD 6100, FARMINGTON, NM, 87401","No_Match",NA,NA,NA,NA
81423,"167 ROSA L PARKS BLVD","NASHVILLE","TN",37203,36.160575555,-86.7831894509999,423,"167 ROSA L PARKS BLVD, NASHVILLE, TN, 37203","Match","Exact","167 ROSA L PARKS BLVD, NASHVILLE, TN, 37203",617928762,"L"
81424,"167 S GRACE STREET","ROCKY MOUNT","NC",27804,35.9431303010001,-77.801775955,424,"167 S GRACE STREET, ROCKY MOUNT, NC, 27804","Match","Exact","167 S GRACE ST, ROCKY MOUNT, NC, 27804",90382998,"R"
81425,"167 SADDADA ROAD","WHITINGHAM","VT",5361,42.751113839,-72.8443449869999,425,"167 SADDADA ROAD, WHITINGHAM, VT, 5361","Match","Exact","167 SADDADA RD, WHITINGHAM, VT, 05361",171089838,"R"
81426,"167 SANDS STREET APT 105","BROOKLYN","NY",11201,40.699808542,-73.983870838,426,"167 SANDS STREET APT 105, BROOKLYN, NY, 11201","Match","Exact","167 SANDS ST, BROOKLYN, NY, 11201",623911505,"L"
81427,"167 SCHOOL ST","WALLINGFORD","VT",5773,43.471191875,-72.9739594609999,427,"167 SCHOOL ST, WALLINGFORD, VT, 5773","Match","Exact","167 SCHOOL ST, WALLINGFORD, VT, 05773",636490253,"R"
81428,"167 SHERIDAN ROAD","KENILWORTH","IL",60043,NA,NA,428,"167 SHERIDAN ROAD, KENILWORTH, IL, 60043","No_Match",NA,NA,NA,NA
81429,"167 SOUTH 530 WEST","LINDON","UT",84042,40.334438489,-111.728163109,429,"167 SOUTH 530 WEST, LINDON, UT, 84042","Match","Exact","167 S 530 W, LINDON, UT, 84042",617442903,"L"
81430,"167 SOUTH GUM AVENUE","VIRGINIA BEACH","VA",23452,36.8378406580001,-76.1242762489999,430,"167 SOUTH GUM AVENUE, VIRGINIA BEACH, VA, 23452","Match","Exact","167 S GUM AVE, VA BCH, VA, 23452",122300571,"R"
81431,"167 SOUTH STANWOOD RD","BEXLEY","OH",43209,39.9671249960001,-82.927866555,431,"167 SOUTH STANWOOD RD, BEXLEY, OH, 43209","Match","Exact","167 S STANWOOD RD, BEXLEY, OH, 43209",218649607,"R"
81432,"167 SOUTHBROOK SE","GRAND RAPIDS","MI",49548,42.846017906,-85.660677412,432,"167 SOUTHBROOK SE, GRAND RAPIDS, MI, 49548","Match","Non_Exact","167 SOUTHBROOK ST SE, GRAND RAPIDS, MI, 49548",12464468,"L"
81433,"167 SPRINGFIELD ROAD","SOMERS","CT",6071,41.9968858550001,-72.4517735649999,433,"167 SPRINGFIELD ROAD, SOMERS, CT, 6071","Match","Exact","167 SPRINGFIELD RD, SOMERS, CT, 06071",56995954,"R"
81434,"167 STAR SIGN LANE","CHARLES TOWN","WV",25414,39.2544807830001,-77.880799676,434,"167 STAR SIGN LANE, CHARLES TOWN, WV, 25414","Match","Non_Exact","167 STARSIGN LN, CHARLES TOWN, WV, 25414",632636546,"R"
81435,"167 STATE GARAGE ROAD","WHITLEY CITY","KY",42653,36.716940406,-84.471496469,435,"167 STATE GARAGE ROAD, WHITLEY CITY, KY, 42653","Match","Exact","167 STATE GARAGE RD, WHITLEY CITY, KY, 42653",98780616,"R"
81436,"167 STOOKEY LANE","TENMILE","OR",97481,43.1111562740001,-123.525942351,436,"167 STOOKEY LANE, TENMILE, OR, 97481","Match","Exact","167 STOOKEY LN, TENMILE, OR, 97481",613877646,"R"
81437,"167 TALLOW WOOD DR","CLIFTON PARK","NY",12065,42.8687532960001,-73.7864019319999,437,"167 TALLOW WOOD DR, CLIFTON PARK, NY, 12065","Match","Exact","167 TALLOW WOOD DR, CLIFTON PARK, NY, 12065",18816500,"L"
81438,"167 TAYLOR STREET","GRANBY","MA",1033,42.2384612750001,-72.511008568,438,"167 TAYLOR STREET, GRANBY, MA, 1033","Match","Exact","167 TAYLOR ST, GRANBY, MA, 01033",39869045,"L"
81439,"167 TERESITA WAY","LOS GATOS","CA",95032,37.215402883,-121.950415784,439,"167 TERESITA WAY, LOS GATOS, CA, 95032","Match","Exact","167 TERESITA WAY, LOS GATOS, CA, 95032",618176897,"R"
81440,"167 THORNE MOUNTAIN ROAD","CANTON","ME",4221,44.4632657700001,-70.3316111249999,440,"167 THORNE MOUNTAIN ROAD, CANTON, ME, 4221","Match","Exact","167 THORNE MOUNTAIN RD, CANTON, ME, 04221",625421184,"R"
81441,"167 VALLEYCRUISE CIRCLE","GARNER","NC",27529,35.667441249,-78.6000798859999,441,"167 VALLEYCRUISE CIRCLE, GARNER, NC, 27529","Match","Exact","167 VALLEYCRUISE CIR, GARNER, NC, 27529",650407277,"L"
81442,"167 VERMONT AVE 1ST FL","PROVIDENCE","RI",2905,41.7884922000001,-71.397404861,442,"167 VERMONT AVE 1ST FL, PROVIDENCE, RI, 2905","Match","Exact","167 VERMONT AVE, PROVIDENCE, RI, 02905",47468312,"R"
81443,"167 W CHANNEL ISLANDS BLVD","PORT HUENEME","CA",93041,34.175968401,-119.203783259,443,"167 W CHANNEL ISLANDS BLVD, PORT HUENEME, CA, 93041","Match","Exact","167 W CHANNEL ISLANDS BLVD, PORT HUENEME, CA, 93041",110122531,"R"
81444,"167 W GODFREY AVE","PHILADELPHIA","PA",19120,40.0448459850001,-75.122376988,444,"167 W GODFREY AVE, PHILADELPHIA, PA, 19120","Match","Exact","167 GODFREY AVE, PHILADELPHIA, PA, 19120",131414339,"R"
81445,"167 WATSON MILL ROAD","LANDENBERG","PA",19350,39.7673886750001,-75.757874719,445,"167 WATSON MILL ROAD, LANDENBERG, PA, 19350","Match","Exact","167 WATSON MILL RD, LANDENBERG, PA, 19350",179554464,"R"
81446,"167 WEST 136TH STREET APT 7","NEW YORK","NY",10030,40.815557729,-73.942198995,446,"167 WEST 136TH STREET APT 7, NEW YORK, NY, 10030","Match","Exact","167 W 136TH ST, NEW YORK, NY, 10030",59656395,"R"
81447,"167 WRIGHT AVE","DEER PARK","NY",11729,40.774244927,-73.323728449,447,"167 WRIGHT AVE, DEER PARK, NY, 11729","Match","Exact","167 WRIGHT AVE, DEER PARK, NY, 11729",113970128,"R"
81448,"167-01 GOTHIC DR","JAMAICA","NY",11432,40.713214103,-73.7972361129999,448,"167-01 GOTHIC DR, JAMAICA, NY, 11432","Match","Exact","167-01 GOTHIC DR, JAMAICA, NY, 11432",59712068,"L"
81449,"167-01 GOTHIC DRIVE","JAMAICA","NY",11432,40.713214103,-73.7972361129999,449,"167-01 GOTHIC DRIVE, JAMAICA, NY, 11432","Match","Exact","167-01 GOTHIC DR, JAMAICA, NY, 11432",59712068,"L"
81450,"167-02 BAISLEY BLVD","JAMAICA","NY",11434,NA,NA,450,"167-02 BAISLEY BLVD, JAMAICA, NY, 11434","No_Match",NA,NA,NA,NA
81451,"167-26 142ND AVENUE","JAMAICA","NY",11434,40.6700423710001,-73.772722513,451,"167-26 142ND AVENUE, JAMAICA, NY, 11434","Match","Exact","167-26 142ND AVE, JAMAICA, NY, 11434",59719630,"R"
81452,"167","LEESBURG","GA",31763,NA,NA,452,"167, LEESBURG, GA, 31763","No_Match",NA,NA,NA,NA
81453,"1670 ARIZONA ST","EL DORADO","KS",67042,37.837878781,-96.844251502,453,"1670 ARIZONA ST, EL DORADO, KS, 67042","Match","Exact","1670 ARIZONA ST, EL DORADO, KS, 67042",32265846,"L"
81454,"1670 AUTUMN AVE APT C","SCHAUMBURG","IL",60193,41.9959578450001,-88.1219407359999,454,"1670 AUTUMN AVE APT C, SCHAUMBURG, IL, 60193","Match","Exact","1670 AUTUMN AVE, SCHAUMBURG, IL, 60193",112370813,"L"
81455,"1670 BELLTOWER DR","LEWISVILLE","TX",75067,33.042959565,-97.039488701,455,"1670 BELLTOWER DR, LEWISVILLE, TX, 75067","Match","Exact","1670 BELLTOWER DR, LEWISVILLE, TX, 75067",103348300,"R"
81456,"1670 BISCAYNE BAY CIRCLE","JACKSONVILLE","FL",32218,30.4561225200001,-81.6760976159999,456,"1670 BISCAYNE BAY CIRCLE, JACKSONVILLE, FL, 32218","Match","Exact","1670 BISCAYNE BAY CIR, JACKSONVILLE, FL, 32218",631719742,"L"
81457,"1670 BRANDON DEWEY LANE","TRACY","CA",95304,37.718628333,-121.412307584,457,"1670 BRANDON DEWEY LANE, TRACY, CA, 95304","Match","Non_Exact","1670 BRANDON DEWEY LN, TRACY, CA, 95376",645186903,"R"
81458,"1670 COUNTY ROAD 430","LA VETA","CO",81055,37.5089044700001,-105.039349361,458,"1670 COUNTY ROAD 430, LA VETA, CO, 81055","Match","Exact","1670 CO RD 430, LA VETA, CO, 81055",607511789,"L"
81459,"1670 E  SOUTHFIELD CIR","CORDOVA","TN",38016,35.1708474690001,-89.801263927,459,"1670 E  SOUTHFIELD CIR, CORDOVA, TN, 38016","Match","Exact","1670 E SOUTHFIELD CIR, CORDOVA, TN, 38016",611234427,"R"
81460,"1670 E 1475 S","OGDEN","UT",84404,41.2397453830001,-111.934583269,460,"1670 E 1475 S, OGDEN, UT, 84404","Match","Non_Exact","1670 E 1475 S, OGDEN, UT, 84404",155704307,"L"
81461,"1670 E COMMERCIAL ST","SPRINGFIELD","MO",65803,37.2302158860001,-93.264102569,461,"1670 E COMMERCIAL ST, SPRINGFIELD, MO, 65803","Match","Exact","1670 E COMMERCIAL ST, SPRINGFIELD, MO, 65803",76677795,"R"
81462,"1670 E MAIN ST","COLUMBUS","OH",43205,39.9575430900001,-82.9544827029999,462,"1670 E MAIN ST, COLUMBUS, OH, 43205","Match","Exact","1670 E MAIN ST, COLUMBUS, OH, 43205",218649474,"L"
81463,"1670 EAST 37TH STREET","BROOKLYN","NY",11234,40.6156438290001,-73.936640983,463,"1670 EAST 37TH STREET, BROOKLYN, NY, 11234","Match","Exact","1670 E 37TH ST, BROOKLYN, NY, 11234",59090394,"R"
81464,"1670 EAST MAIN STREET","COLUMBUS","OH",43205,39.9575454000001,-82.9545573889999,464,"1670 EAST MAIN STREET, COLUMBUS, OH, 43205","Match","Exact","1670 E MAIN ST, COLUMBUS, OH, 43205",218649474,"L"
81465,"1670 FALLBROOK ROAD","TOLEDO","OH",43614,41.6093917160001,-83.646311194,465,"1670 FALLBROOK ROAD, TOLEDO, OH, 43614","Match","Exact","1670 FALLBROOK RD, TOLEDO, OH, 43614",33935897,"R"
81466,"1670 GLEN CANYON RD","SANTA CRUZ","CA",95060,NA,NA,466,"1670 GLEN CANYON RD, SANTA CRUZ, CA, 95060","No_Match",NA,NA,NA,NA
81467,"1670 HAMNER AVE SUITE 3","NORCO","CA",92860,33.906052851,-117.561661013,467,"1670 HAMNER AVE SUITE 3, NORCO, CA, 92860","Match","Exact","1670 HAMNER AVE, NORCO, CA, 92860",194731702,"L"
81468,"1670 LEESVILLE RD","LYNCH STATION","VA",24571,37.1383207580001,-79.3840393949999,468,"1670 LEESVILLE RD, LYNCH STATION, VA, 24571","Match","Exact","1670 LEESVILLE RD, LYNCH STATION, VA, 24571",644910851,"L"
81469,"1670 MAKALOA ST - PMB 205","HONOLULU","HI",96814,21.29274057,-157.837339025,469,"1670 MAKALOA ST - PMB 205, HONOLULU, HI, 96814","Match","Exact","1670 MAKALOA ST, HONOLULU, HI, 96814",203241537,"L"
81470,"1670 MAKALOA STREET SUITE 204-185","HONOLULU","HI",96814,21.29274057,-157.837339025,470,"1670 MAKALOA STREET SUITE 204-185, HONOLULU, HI, 96814","Match","Exact","1670 MAKALOA ST, HONOLULU, HI, 96814",203241537,"L"
81471,"1670 MEADOW VIEW RD","WEST POINT","CA",95255,38.4213828580001,-120.515691645,471,"1670 MEADOW VIEW RD, WEST POINT, CA, 95255","Match","Exact","1670 MEADOW VIEW RD, WEST POINT, CA, 95255",102239585,"L"
81472,"1670 N 290 W","ANGOLA","IN",46703,41.6661297970001,-85.0454757099999,472,"1670 N 290 W, ANGOLA, IN, 46703","Match","Exact","1670 N 290 W, ANGOLA, IN, 46703",7721837,"R"
81473,"1670 N HAMPTON AVE SUITE 106","DESOTO","TX",75115,NA,NA,473,"1670 N HAMPTON AVE SUITE 106, DESOTO, TX, 75115","No_Match",NA,NA,NA,NA
81474,"1670 N HAMPTON RD STE 106 PMB 1146","DESOTO","TX",75115,32.622004841,-96.856929409,474,"1670 N HAMPTON RD STE 106 PMB 1146, DESOTO, TX, 75115","Match","Non_Exact","1670 N HAMPTON RD, DESOTO, TX, 75115",103188367,"R"
81475,"1670 N HAMPTON RD STE 106 PMB 1198","DESOTO","TX",75115,32.622004841,-96.856929409,475,"1670 N HAMPTON RD STE 106 PMB 1198, DESOTO, TX, 75115","Match","Non_Exact","1670 N HAMPTON RD, DESOTO, TX, 75115",103188367,"R"
81476,"1670 N HAMPTON RD SUITE 111","DESOTO","TX",75115,32.622004841,-96.856929409,476,"1670 N HAMPTON RD SUITE 111, DESOTO, TX, 75115","Match","Non_Exact","1670 N HAMPTON RD, DESOTO, TX, 75115",103188367,"R"
81477,"1670 N HAMPTON RD UNIT 106-1122","DESOTO","TX",75115,32.622004841,-96.856929409,477,"1670 N HAMPTON RD UNIT 106-1122, DESOTO, TX, 75115","Match","Non_Exact","1670 N HAMPTON RD, DESOTO, TX, 75115",103188367,"R"
81478,"1670 N HAMPTON RD","DESOTO","TX",76002,32.622004841,-96.856929409,478,"1670 N HAMPTON RD, DESOTO, TX, 76002","Match","Non_Exact","1670 N HAMPTON RD, DESOTO, TX, 75115",103188367,"R"
81479,"1670 N LINDER RD","KUNA","ID",83634,43.5050117980001,-116.413709207,479,"1670 N LINDER RD, KUNA, ID, 83634","Match","Exact","1670 LINDER RD, KUNA, ID, 83634",117908933,"R"
81480,"1670 NORTH HAMPTON ROAD STE 106","DESOTO","TX",75115,32.621990118,-96.856929359,480,"1670 NORTH HAMPTON ROAD STE 106, DESOTO, TX, 75115","Match","Exact","1670 N HAMPTON RD, DESOTO, TX, 75115",103188367,"R"
81481,"1670 NORTH LINDER ROAD","KUNA","ID",83634,43.5050117980001,-116.413709207,481,"1670 NORTH LINDER ROAD, KUNA, ID, 83634","Match","Non_Exact","1670 LINDER RD, KUNA, ID, 83634",117908933,"R"
81482,"1670 NORTH PINAL AVENUE STE 11848","CASA GRANDE'","AZ",85130,32.8973919960001,-111.757298893,482,"1670 NORTH PINAL AVENUE STE 11848, CASA GRANDE', AZ, 85130","Match","Non_Exact","1670 N PINAL AVE, CASA GRANDE, AZ, 85122",638559810,"R"
81483,"1670 PINE NEEDLE LN","FERNDALE","WA",98248,48.9331015910001,-122.572946414,483,"1670 PINE NEEDLE LN, FERNDALE, WA, 98248","Match","Exact","1670 PINE NEEDLE LN, FERNDALE, WA, 98248",624518786,"L"
81484,"1670 S AMPHLETT BLVD 215-5","SAN MATEO","CA",94402,37.5583351600001,-122.301476041,484,"1670 S AMPHLETT BLVD 215-5, SAN MATEO, CA, 94402","Match","Non_Exact","1670 S AMPHLETT BLVD, SAN MATEO, CA, 94402",192379441,"R"
81485,"1670 S CARLSON ST","WESTLAND","MI",48186,42.2964040730001,-83.398487846,485,"1670 S CARLSON ST, WESTLAND, MI, 48186","Match","Exact","1670 S CARLSON ST, WESTLAND, MI, 48186",95413961,"R"
81486,"1670 SPRING VALLEY DR","COLORADO SPRINGS","CO",80921,39.051206499,-104.797135692,486,"1670 SPRING VALLEY DR, COLORADO SPRINGS, CO, 80921","Match","Exact","1670 SPRING VALLEY DR, COLORADO SPRINGS, CO, 80921",647970941,"R"
81487,"1670 SPRINGDALE DR 151 UNIT 9","KERSHAW","SC",29020,34.2524047100001,-80.644512703,487,"1670 SPRINGDALE DR 151 UNIT 9, KERSHAW, SC, 29020","Match","Non_Exact","1670 SPRINGDALE DR, CAMDEN, SC, 29020",648892339,"R"
81488,"1670 SPRINGDALE DR UNIT 9 PMB 107","CAMDEN","SC",29020,34.2524047100001,-80.644512703,488,"1670 SPRINGDALE DR UNIT 9 PMB 107, CAMDEN, SC, 29020","Match","Exact","1670 SPRINGDALE DR, CAMDEN, SC, 29020",648892339,"R"
81489,"1670 SPRINGDALE DRIVE UNIT 9","CAMDEN","SC",29020,34.2524047100001,-80.644512703,489,"1670 SPRINGDALE DRIVE UNIT 9, CAMDEN, SC, 29020","Match","Exact","1670 SPRINGDALE DR, CAMDEN, SC, 29020",648892339,"R"
81490,"1670 SPRINGDALE RD STE 9 PMB 142","CAMDEN","SC",29020,34.2524047100001,-80.644512703,490,"1670 SPRINGDALE RD STE 9 PMB 142, CAMDEN, SC, 29020","Match","Non_Exact","1670 SPRINGDALE DR, CAMDEN, SC, 29020",648892339,"R"
81491,"1670 TERRY DALE DR","WEST BEND","WI",53090,43.439660557,-88.1204940329999,491,"1670 TERRY DALE DR, WEST BEND, WI, 53090","Match","Exact","1670 TERRY DALE DR, WEST BEND, WI, 53090",79555645,"R"
81492,"1670 TICK RIDGE RD","HAWESVILLE","KY",42348,37.8716726810001,-86.7667163369999,492,"1670 TICK RIDGE RD, HAWESVILLE, KY, 42348","Match","Exact","1670 TICK RIDGE RD, HAWESVILLE, KY, 42348",8146141,"R"
81493,"1670 VICTORIA ST N","ST PAUL","MN",55117,44.989732976,-93.137746383,493,"1670 VICTORIA ST N, ST PAUL, MN, 55117","Match","Exact","1670 VICTORIA ST N, SAINT PAUL, MN, 55117",97641940,"R"
81494,"1670 W 39 PL 13","HIALEAH","FL",33013,NA,NA,494,"1670 W 39 PL 13, HIALEAH, FL, 33013","No_Match",NA,NA,NA,NA
81495,"1670 W BRYCE DR","MILTON","KS",67106,37.4686548930001,-97.762088623,495,"1670 W BRYCE DR, MILTON, KS, 67106","Match","Exact","1670 BRYCE DR, MILTON, KS, 67106",115840560,"L"
81496,"1670 W CHIMAYO PL","TUCSON","AZ",85704,32.3530304930001,-111.001770246,496,"1670 W CHIMAYO PL, TUCSON, AZ, 85704","Match","Exact","1670 W CHIMAYO PL, TUCSON, AZ, 85704",121383858,"R"
81497,"1670 WHISPERING WIND DRIVE","TRACY","CA",95377,37.698907508,-121.446428483,497,"1670 WHISPERING WIND DRIVE, TRACY, CA, 95377","Match","Exact","1670 WHISPERING WIND DR, TRACY, CA, 95377",133918716,"R"
81498,"1670-F E CHEYENNE MTN BLVD STE 183","COLORADO SPRINGS","CO",80906,38.793677384,-104.800258633,498,"1670-F E CHEYENNE MTN BLVD STE 183, COLORADO SPRINGS, CO, 80906","Match","Exact","1670 E CHEYENNE MOUNTAIN BLVD, COLORADO SPRINGS, CO, 80906",611232979,"R"
81499,"16700 HARWOOD OAKS CT","DUMFRIES","CO",22026,NA,NA,499,"16700 HARWOOD OAKS CT, DUMFRIES, CO, 22026","No_Match",NA,NA,NA,NA
81500,"16700 KUYKENDAHL 1409","HOUSTON","TX",77068,30.019155918,-95.472265871,500,"16700 KUYKENDAHL 1409, HOUSTON, TX, 77068","Match","Non_Exact","16700 KUYKENDAHL RD, HOUSTON, TX, 77068",653304415,"L"
