"ID","Address","City","State","Zip","lat","long","id","input_address","match_indicator","match_type","matched_address","tiger_line_id","tiger_side"
101001,"1963 ARNOLDS CREEK RD","WEST UNION","WV",26426,NA,NA,1,"1963 ARNOLDS CREEK RD, WEST UNION, WV, 26426","No_Match",NA,NA,NA,NA
101002,"1963 BANCROFT LN LOT 5","LINCOLNTON","NC",28092,35.5156353310001,-81.217426457,2,"1963 BANCROFT LN LOT 5, LINCOLNTON, NC, 28092","Match","Exact","1963 BANCROFT LN, LINCOLNTON, NC, 28092",69534145,"L"
101003,"1963 LIFE AVENUE","DALLAS","TX",75212,32.786314378,-96.85218894,3,"1963 LIFE AVENUE, DALLAS, TX, 75212","Match","Exact","1963 LIFE AVE, DALLAS, TX, 75212",102904519,"R"
101004,"1963 PINE ST","NORTHFIELD","IL",60093,42.1087649140001,-87.777315458,4,"1963 PINE ST, NORTHFIELD, IL, 60093","Match","Exact","1963 PINE ST, NORTHFIELD, IL, 60093",111729711,"R"
101005,"1963 ROOKWOOD RD","CLEVELAND","OH",44112,41.5490509850001,-81.5530778849999,5,"1963 ROOKWOOD RD, CLEVELAND, OH, 44112","Match","Exact","1963 ROOKWOOD RD, CLEVELAND, OH, 44112",61148326,"L"
101006,"1963 S DELAWARE ST","ALLENTOWN","PA",18103,40.577207958,-75.4664607679999,6,"1963 S DELAWARE ST, ALLENTOWN, PA, 18103","Match","Exact","1963 S DELAWARE ST, ALLENTOWN, PA, 18103",80773483,"L"
101007,"1963 WOODCOCK RD 201","SEQUIM","WA",98382,48.1161077250001,-123.174225673,7,"1963 WOODCOCK RD 201, SEQUIM, WA, 98382","Match","Exact","1963 WOODCOCK RD, SEQUIM, WA, 98382",150866654,"R"
101008,"1963 YATES AVE","BRONX","NY",10461,40.8538365790001,-73.8529527109999,8,"1963 YATES AVE, BRONX, NY, 10461","Match","Exact","1963 YATES AVE, BRONX, NY, 10461",80305224,"L"
101009,"19630 BLACK SMITH PATH","CORONA","CA",92881,33.834804171,-117.53561648,9,"19630 BLACK SMITH PATH, CORONA, CA, 92881","Match","Non_Exact","19630 BLACKSMITH PATH, CORONA, CA, 92881",194871593,"R"
101010,"19630 DWYER","DETROIT","MI",48234,42.438961469,-83.0416508009999,10,"19630 DWYER, DETROIT, MI, 48234","Match","Non_Exact","19630 DWYER ST, DETROIT, MI, 48234",95465527,"R"
101011,"19632 ELKHOUND DR","MACOMB","MI",48044,NA,NA,11,"19632 ELKHOUND DR, MACOMB, MI, 48044","No_Match",NA,NA,NA,NA
101012,"19632 THUNDER ROAD WEST","COLORADO SPRINGS","CO",80908,39.117711064,-104.717409838,12,"19632 THUNDER ROAD WEST, COLORADO SPRINGS, CO, 80908","Match","Exact","19632 THUNDER RD W, COLORADO SPRINGS, CO, 80908",647969664,"L"
101013,"19632 WOODLAND","HARPER WOODS","MI",48225,42.436289017,-82.935699255,13,"19632 WOODLAND, HARPER WOODS, MI, 48225","Match","Non_Exact","19632 WOODLAND ST, HARPER WOODS, MI, 48225",95486560,"R"
101014,"19634 98TH AVE NE","BOTHELL","WA",98011,47.771221709,-122.209011701,14,"19634 98TH AVE NE, BOTHELL, WA, 98011","Match","Exact","19634 98TH AVE NE, BOTHELL, WA, 98011",239776786,"L"
101015,"19634 E 590 ROAD","WATTS","OK",74964,NA,NA,15,"19634 E 590 ROAD, WATTS, OK, 74964","No_Match",NA,NA,NA,NA
101016,"19634 VENTURA BLVD STE 314","TARZANA","CA",91356,34.1727096710001,-118.560820519,16,"19634 VENTURA BLVD STE 314, TARZANA, CA, 91356","Match","Exact","19634 VENTURA BLVD, TARZANA, CA, 91356",141554085,"L"
101017,"19635 NE 33RD PL","SAMMAMISH","WA",98074,47.637539546,-122.074403328,17,"19635 NE 33RD PL, SAMMAMISH, WA, 98074","Match","Exact","19635 NE 33RD PL, SAMMAMISH, WA, 98074",186921008,"R"
101018,"19636 EAST CASPIAN CIRCLE","AURORA","CO",80013,39.676035733,-104.758420808,18,"19636 EAST CASPIAN CIRCLE, AURORA, CO, 80013","Match","Exact","19636 E CASPIAN CIR, AURORA, CO, 80013",177523071,"R"
101019,"19639 HWY 98 N","OKEECHOBEE","FL",34972,NA,NA,19,"19639 HWY 98 N, OKEECHOBEE, FL, 34972","No_Match",NA,NA,NA,NA
101020,"1964 PRAIRIE DELL ROAD","UNION","MO",63084,NA,NA,20,"1964 PRAIRIE DELL ROAD, UNION, MO, 63084","No_Match",NA,NA,NA,NA
101021,"1964 SHORE VIEW DRIVE","INDIALANTIC","FL",32903,28.1095384130001,-80.5850712,21,"1964 SHORE VIEW DRIVE, INDIALANTIC, FL, 32903","Match","Exact","1964 SHORE VIEW DR, INDIALANTIC, FL, 32903",93905933,"R"
101022,"1964 SWEET GUM DRIVE","AVON","IN",46123,39.733923621,-86.420506842,22,"1964 SWEET GUM DRIVE, AVON, IN, 46123","Match","Exact","1964 SWEET GUM DR, AVON, IN, 46123",89211708,"L"
101023,"1964 TIMBERLANE WAY","SAN MATEO","CA",94402,37.5206651510001,-122.335222621,23,"1964 TIMBERLANE WAY, SAN MATEO, CA, 94402","Match","Exact","1964 TIMBERLANE WAY, SAN MATEO, CA, 94402",192390054,"L"
101024,"1964 W FAIRWOOD DR APTO 20","TAYLORSVILLE","FL",84129,NA,NA,24,"1964 W FAIRWOOD DR APTO 20, TAYLORSVILLE, FL, 84129","No_Match",NA,NA,NA,NA
101025,"1964 W THREE STORY HILL RD","MORGANTOWN","IN",46160,39.333687164,-86.291150428,25,"1964 W THREE STORY HILL RD, MORGANTOWN, IN, 46160","Match","Exact","1964 THREE STORY HILL RD, MORGANTOWN, IN, 46160",43523018,"R"
101026,"1964 WOODMOOR DRIVE","BOUNTIFUL","UT",84010,NA,NA,26,"1964 WOODMOOR DRIVE, BOUNTIFUL, UT, 84010","No_Match",NA,NA,NA,NA
101027,"1964","MILLEDGEVILLE","GA",31061,NA,NA,27,"1964, MILLEDGEVILLE, GA, 31061","No_Match",NA,NA,NA,NA
101028,"19640 NE 90TH PL","REDMOND","WA",98053,47.6825098690001,-122.078296257,28,"19640 NE 90TH PL, REDMOND, WA, 98053","Match","Exact","19640 NE 90TH PL, REDMOND, WA, 98053",648558310,"L"
101029,"19641 TURTLE SPRINGS WAY","PORTER RANCH","CA",91326,34.2929490070001,-118.561944487,29,"19641 TURTLE SPRINGS WAY, PORTER RANCH, CA, 91326","Match","Exact","19641 TURTLE SPRINGS WAY, PORTER RANCH, CA, 91326",141788320,"R"
101030,"19642 FOREST GLEN PLACE","COTTONWOOD","CA",96022,40.36460637,-122.206951548,30,"19642 FOREST GLEN PLACE, COTTONWOOD, CA, 96022","Match","Exact","19642 FOREST GLEN PL, COTTONWOOD, CA, 96022",119384816,"R"
101031,"19642 PESANTE RD","SALINAS","CA",93950,36.7838784100001,-121.630362062,31,"19642 PESANTE RD, SALINAS, CA, 93950","Match","Non_Exact","19642 PESANTE RD, SALINAS, CA, 93907",647393161,"L"
101032,"19643 WEST RIVER RD","COLUMBIA STATION","OH",44028,41.278440489,-81.92951128,32,"19643 WEST RIVER RD, COLUMBIA STATION, OH, 44028","Match","Exact","19643 W RIVER RD, COLUMBIA STATION, OH, 44028",55415721,"L"
101033,"19644 DURANGO DRIVE C/O NORDWALD","WARRENTON","MO",63383,38.7725609230001,-91.143937785,33,"19644 DURANGO DRIVE C/O NORDWALD, WARRENTON, MO, 63383","Match","Exact","19644 DURANGO DR, WARRENTON, MO, 63383",90101175,"R"
101034,"19644 LA GRANGE RD","MOKENA","IL",60448,41.5331307230001,-87.85029499,34,"19644 LA GRANGE RD, MOKENA, IL, 60448","Match","Non_Exact","19644 S LA GRANGE RD, MOKENA, IL, 60448",111621371,"R"
101035,"19645 SE 260TH ST","COVINGTON","WA",98042,47.368916213,-122.077945989,35,"19645 SE 260TH ST, COVINGTON, WA, 98042","Match","Exact","19645 SE 260TH ST, COVINGTON, WA, 98042",648773486,"L"
101036,"19649 CALOOSA STREET","SUMMERLAND KEY","FL",33042,24.6664862320001,-81.527953434,36,"19649 CALOOSA STREET, SUMMERLAND KEY, FL, 33042","Match","Exact","19649 CALOOSA ST, SUMMERLAND KEY, FL, 33042",116469786,"R"
101037,"19649 EAGLE RUN","GROVELAND","FL",34736,28.63265969,-81.864426141,37,"19649 EAGLE RUN, GROVELAND, FL, 34736","Match","Exact","19649 EAGLE RUN, GROVELAND, FL, 34736",94216297,"L"
101038,"19649 HILLIARD BLVD","ROCKY RIVER","OH",44116,41.4710028810001,-81.8399373409999,38,"19649 HILLIARD BLVD, ROCKY RIVER, OH, 44116","Match","Exact","19649 HILLIARD BLVD, ROCKY RIVER, OH, 44116",638251138,"L"
101039,"1965 33RD STREET UNIT B","BOULDER","CO",80301,40.020479548,-105.249570665,39,"1965 33RD STREET UNIT B, BOULDER, CO, 80301","Match","Exact","1965 33RD ST, BOULDER, CO, 80301",188162466,"L"
101040,"1965 52ND STREET","BROOKLYN","NY",10017,40.624381451,-73.979009263,40,"1965 52ND STREET, BROOKLYN, NY, 10017","Match","Non_Exact","1965 52ND ST, BROOKLYN, NY, 11204",59097911,"L"
101041,"1965 A1A S NUM 130","SAINT AUGUSTINE","FL",32080,NA,NA,41,"1965 A1A S NUM 130, SAINT AUGUSTINE, FL, 32080","No_Match",NA,NA,NA,NA
101042,"1965 AVENIDA LA POSTA","ENCINITAS","CA",92024,33.0607727230001,-117.242938311,42,"1965 AVENIDA LA POSTA, ENCINITAS, CA, 92024","Match","Exact","1965 AVE LA POSTA, ENCINITAS, CA, 92024",195296322,"R"
101043,"1965 AZTEC CIRCLE","CORONA","CA",92879,33.9036282970001,-117.532886118,43,"1965 AZTEC CIRCLE, CORONA, CA, 92879","Match","Exact","1965 AZTEC CIR, CORONA, CA, 92879",194869681,"R"
101044,"1965 CAPITAL CIRCLE NE","TALLAHASSEE","FL",32308,30.476167549,-84.235918134,44,"1965 CAPITAL CIRCLE NE, TALLAHASSEE, FL, 32308","Match","Exact","1965 CAPITAL CIR NE, TALLAHASSEE, FL, 32308",82869003,"R"
101045,"1965 CHARLESTON ROAD","MOUNTAIN VIEW","CA",94043,37.421347294,-122.0881556,45,"1965 CHARLESTON ROAD, MOUNTAIN VIEW, CA, 94043","Match","Exact","1965 CHARLESTON RD, MOUNTAIN VIEW, CA, 94043",639650803,"L"
101046,"1965 CLUB LAKE CIR","ROCKWALL","TX",75087,32.9485264790001,-96.4785118569999,46,"1965 CLUB LAKE CIR, ROCKWALL, TX, 75087","Match","Exact","1965 CLUB LAKE CIR, ROCKWALL, TX, 75087",213563075,"R"
101047,"1965 COLFAX STREET SUITE 202","CONCORD","CA",94520,37.9781932820001,-122.032197973,47,"1965 COLFAX STREET SUITE 202, CONCORD, CA, 94520","Match","Exact","1965 COLFAX ST, CONCORD, CA, 94520",192054529,"L"
101048,"1965 COULSTON ST UNIT 34","LOMA LINDA","CA",92354,34.0684253320001,-117.244535369,48,"1965 COULSTON ST UNIT 34, LOMA LINDA, CA, 92354","Match","Exact","1965 COULSTON ST, LOMA LINDA, CA, 92354",144982337,"R"
101049,"1965 COUNTY HOUSE ROAD","WATERLOO","NY",13165,42.8797034620001,-76.8347186129999,49,"1965 COUNTY HOUSE ROAD, WATERLOO, NY, 13165","Match","Exact","1965 COUNTY HOUSE RD, WATERLOO, NY, 13165",14664569,"L"
101050,"1965 E 113 ST","LOS ANGELES","CA",90059,33.93246873,-118.237283489,50,"1965 E 113 ST, LOS ANGELES, CA, 90059","Match","Exact","1965 E 113TH ST, LOS ANGELES, CA, 90059",141674338,"L"
101051,"1965 E CIRCLE SOUTH DR","INVERNESS","FL",34453,28.88688526,-82.401728455,51,"1965 E CIRCLE SOUTH DR, INVERNESS, FL, 34453","Match","Exact","1965 E CIRCLE SOUTH DR, INVERNESS, FL, 34453",610748268,"R"
101052,"1965 EAST 21ST STREET","SIGNAL HILL","CA",90755,33.7952927760001,-118.168269455,52,"1965 EAST 21ST STREET, SIGNAL HILL, CA, 90755","Match","Exact","1965 E 21ST ST, SIGNAL HILL, CA, 90755",142775777,"L"
101053,"1965 EBENEZER ROAD","ROCK HILL","SC",29732,34.9634921900001,-81.050608364,53,"1965 EBENEZER ROAD, ROCK HILL, SC, 29732","Match","Exact","1965 EBENEZER RD, ROCK HILL, SC, 29732",19809016,"L"
101054,"1965 EVERGREEN BLVD SUITE 300","DULUTH","GA",30096,33.969532261,-84.110437119,54,"1965 EVERGREEN BLVD SUITE 300, DULUTH, GA, 30096","Match","Exact","1965 EVERGREEN BLVD, DULUTH, GA, 30096",642535483,"L"
101055,"1965 HAMER RD","DYERSBURG","TN",38024,36.1129505970001,-89.360548506,55,"1965 HAMER RD, DYERSBURG, TN, 38024","Match","Exact","1965 HAMER RD, DYERSBURG, TN, 38024",636664750,"R"
101056,"1965 HARVEST RIDGE","BUFORD","GA",30519,NA,NA,56,"1965 HARVEST RIDGE, BUFORD, GA, 30519","No_Match",NA,NA,NA,NA
101057,"1965 KINGSTON DRIVE","DIXON","CA",95620,38.461438033,-121.824618944,57,"1965 KINGSTON DRIVE, DIXON, CA, 95620","Match","Exact","1965 KINGSTON DR, DIXON, CA, 95620",192610732,"R"
101058,"1965 LAFAYETTE AVENUE APT 6G","BRONX","NY",10473,40.8223396130001,-73.855902435,58,"1965 LAFAYETTE AVENUE APT 6G, BRONX, NY, 10473","Match","Exact","1965 LAFAYETTE AVE, BRONX, NY, 10473",80306056,"L"
101059,"1965 LIVE OAK BOULEVARD SUITE A","YUBA CITY","CA",95991,39.1555891830001,-121.620029334,59,"1965 LIVE OAK BOULEVARD SUITE A, YUBA CITY, CA, 95991","Match","Exact","1965 LIVE OAK BLVD, YUBA CITY, CA, 95991",68568380,"R"
101060,"1965 MARSH CREEK DRIVE","LAWRENCEVILLE","GA",30043,34.000524264,-84.031903281,60,"1965 MARSH CREEK DRIVE, LAWRENCEVILLE, GA, 30043","Match","Exact","1965 MARSH CREEK DR, LAWRENCEVILLE, GA, 30043",88920384,"R"
101061,"1965 MOOSEHEAD TRAIL","PLYMOUTH","ME",4969,44.771548696,-69.21035849,61,"1965 MOOSEHEAD TRAIL, PLYMOUTH, ME, 4969","Match","Exact","1965 MOOSEHEAD TRL, PLYMOUTH, ME, 04969",123624653,"R"
101062,"1965 N LINCOLN AVE UNIT 2","CHICAGO","IL",60614,41.917823448,-87.638090136,62,"1965 N LINCOLN AVE UNIT 2, CHICAGO, IL, 60614","Match","Non_Exact","1965 N LINCOLN AVE, CHICAGO, IL, 60614",111890283,"R"
101063,"1965 PARK SWAIN RD","GRAND JUNCTION","TN",38039,35.0267185920001,-89.182102693,63,"1965 PARK SWAIN RD, GRAND JUNCTION, TN, 38039","Match","Exact","1965 PARK SWAIN RD, GRAND JCT, TN, 38039",643354281,"R"
101064,"1965 RAVEN VIEW RD","FORT COLLINS","CO",80521,40.579916499,-105.113275948,64,"1965 RAVEN VIEW RD, FORT COLLINS, CO, 80521","Match","Exact","1965 RAVEN VIEW RD, FORT COLLINS, CO, 80521",617915307,"L"
101065,"1965 RYANS RUN","LANSDALE","PA",19446,40.214986347,-75.327722959,65,"1965 RYANS RUN, LANSDALE, PA, 19446","Match","Exact","1965 RYANS RUN, LANSDALE, PA, 19446",605619606,"L"
101066,"1965 S FINCH CT","LIBERTYVILLE","IL",60048,42.324317663,-87.9117945629999,66,"1965 S FINCH CT, LIBERTYVILLE, IL, 60048","Match","Exact","1965 S FINCH CT, LIBERTYVILLE, IL, 60048",119704324,"L"
101067,"19650 E 53RD AVE","DENVER","CO",80249,39.792585091,-104.756921502,67,"19650 E 53RD AVE, DENVER, CO, 80249","Match","Exact","19650 E 53RD AVE, DENVER, CO, 80249",606075199,"R"
101068,"19650 NE 3O STREET","WILLISTON","FL",32696,NA,NA,68,"19650 NE 3O STREET, WILLISTON, FL, 32696","No_Match",NA,NA,NA,NA
101069,"19652","WEST PALM BEACH","FL",33416,NA,NA,69,"19652, WEST PALM BEACH, FL, 33416","No_Match",NA,NA,NA,NA
101070,"19653 S EDINBURGH LANE UNIT 201","FRANKFORT","IL",60423,NA,NA,70,"19653 S EDINBURGH LANE UNIT 201, FRANKFORT, IL, 60423","Tie",NA,NA,NA,NA
101071,"19658 HIAWATHA STREET","CHATSWORTH","CA",91311,34.259203191,-118.561924181,71,"19658 HIAWATHA STREET, CHATSWORTH, CA, 91311","Match","Exact","19658 HIAWATHA ST, CHATSWORTH, CA, 91311",141538932,"L"
101072,"19659 ROSITA STREET","TARZANA","CA",91356,34.158151682,-118.562359754,72,"19659 ROSITA STREET, TARZANA, CA, 91356","Match","Exact","19659 ROSITA ST, TARZANA, CA, 91356",141554150,"R"
101073,"1965B BRANDENBURG RD","BRANDENBURG","KY",40108,NA,NA,73,"1965B BRANDENBURG RD, BRANDENBURG, KY, 40108","No_Match",NA,NA,NA,NA
101074,"1966 180TH AVE","WOLVERTON","MN",56594,NA,NA,74,"1966 180TH AVE, WOLVERTON, MN, 56594","No_Match",NA,NA,NA,NA
101075,"1966 1ST AVE APT 2A","NEW YORK","NY",10029,NA,NA,75,"1966 1ST AVE APT 2A, NEW YORK, NY, 10029","No_Match",NA,NA,NA,NA
101076,"1966 CARPATHIAN DR","APOPKA","FL",32712,28.71451452,-81.5300266199999,76,"1966 CARPATHIAN DR, APOPKA, FL, 32712","Match","Exact","1966 CARPATHIAN DR, APOPKA, FL, 32712",94405265,"L"
101077,"1966 COMPTON AVENUE","CORONA","CA",92881,NA,NA,77,"1966 COMPTON AVENUE, CORONA, CA, 92881","No_Match",NA,NA,NA,NA
101078,"1966 HENRY RD","CONWAY","SC",29526,33.8225805540001,-78.94899276,78,"1966 HENRY RD, CONWAY, SC, 29526","Match","Exact","1966 HENRY RD, CONWAY, SC, 29526",631452678,"L"
101079,"1966 INWOOD ROAD","DALLAS","TX",75235,32.814788311,-96.844652518,79,"1966 INWOOD ROAD, DALLAS, TX, 75235","Match","Exact","1966 INWOOD RD, DALLAS, TX, 75235",103268318,"R"
101080,"1966 LARIAT TRAIL","EDMOND","OK",73012,35.6914524760001,-97.548160493,80,"1966 LARIAT TRAIL, EDMOND, OK, 73012","Match","Exact","1966 LARIAT TRL, EDMOND, OK, 73012",639570646,"R"
101081,"1966 LAUNA AVE","RED WING","MN",55066,44.545290982,-92.5388132419999,81,"1966 LAUNA AVE, RED WING, MN, 55066","Match","Exact","1966 LAUNA AVE, RED WING, MN, 55066",31539425,"L"
101082,"1966 LUM BROWN ROAD","WILLIAMSTON","NC",27892,35.8201930550001,-77.095166868,82,"1966 LUM BROWN ROAD, WILLIAMSTON, NC, 27892","Match","Exact","1966 LUM BROWN RD, WILLIAMSTON, NC, 27892",56811064,"L"
101083,"1966 NEWBOLD AVENUE SUITE 502","BRONX","NY",10472,NA,NA,83,"1966 NEWBOLD AVENUE SUITE 502, BRONX, NY, 10472","No_Match",NA,NA,NA,NA
101084,"1966 NOTTINGHAM BLVD","FORT WORTH","TX",76112,32.749657465,-97.212515654,84,"1966 NOTTINGHAM BLVD, FORT WORTH, TX, 76112","Match","Exact","1966 NOTTINGHAM BLVD, FORT WORTH, TX, 76112",101900369,"R"
101085,"1966 RENSHAW RD","YAZOO CITY","MS",39194,32.95353399,-90.346386872,85,"1966 RENSHAW RD, YAZOO CITY, MS, 39194","Match","Exact","1966 RENSHAW RD, YAZOO CITY, MS, 39194",152200798,"R"
101086,"1966 S  AMERICAN ST","RIDGECREST","CA",93555,35.588760355,-117.657976791,86,"1966 S  AMERICAN ST, RIDGECREST, CA, 93555","Match","Exact","1966 AMERICAN ST, RIDGECREST, CA, 93555",109426033,"R"
101087,"1966 S MAIN ST","CENTRAL LAKE","MI",49622,45.063985786,-85.264050433,87,"1966 S MAIN ST, CENTRAL LAKE, MI, 49622","Match","Exact","1966 S MAIN ST, CENTRAL LAKE, MI, 49622",145830658,"R"
101088,"1966 STONEMILL DR","BAINBRIDGE","PA",17502,40.1048476240001,-76.644276296,88,"1966 STONEMILL DR, BAINBRIDGE, PA, 17502","Match","Non_Exact","1966 STONEMILL RD, BAINBRIDGE, PA, 17502",179715794,"R"
101089,"1966 TICE VALLEY BLVD 296","WALNUT CREEK","CA",94595,37.8772984560001,-122.073240679,89,"1966 TICE VALLEY BLVD 296, WALNUT CREEK, CA, 94595","Match","Exact","1966 TICE VALLEY BLVD, WALNUT CREEK, CA, 94595",618776053,"L"
101090,"1966 YORKTOWN DR","LODI","CA",95242,38.1078004770001,-121.296555265,90,"1966 YORKTOWN DR, LODI, CA, 95242","Match","Exact","1966 YORKTOWN DR, LODI, CA, 95242",133876651,"R"
101091,"1966","MEDINA","OH",44258,NA,NA,91,"1966, MEDINA, OH, 44258","No_Match",NA,NA,NA,NA
101092,"19661 TEQUESTA ST","SUGARLOAF KEY","FL",33042,24.665841616,-81.527915389,92,"19661 TEQUESTA ST, SUGARLOAF KEY, FL, 33042","Match","Exact","19661 TEQUESTA ST, SUGARLOAF KEY, FL, 33042",116469785,"R"
101093,"19664 MOUNTVILLE DRIVE","MAPLE HTS","OH",44137,41.4179456300001,-81.5430769709999,93,"19664 MOUNTVILLE DRIVE, MAPLE HTS, OH, 44137","Match","Exact","19664 MOUNTVILLE DR, MAPLE HEIGHTS, OH, 44137",61178211,"R"
101094,"19664 WEST 36TH AVENUE APT 801","GULF SHORES","AL",36542,30.2974252710001,-87.689757519,94,"19664 WEST 36TH AVENUE APT 801, GULF SHORES, AL, 36542","Match","Exact","19664 W 36TH AVE, GULF SHORES, AL, 36542",131679979,"L"
101095,"1967 BALTIMORE AVE","CINCINNATI","OH",45225,39.1380230300001,-84.5604324609999,95,"1967 BALTIMORE AVE, CINCINNATI, OH, 45225","Match","Exact","1967 BALTIMORE AVE, CINCINNATI, OH, 45225",103955486,"L"
101096,"1967 CALLALANTEE DRIVE","MOUNTAIN CITY","TN",37683,36.458387826,-81.7851976489999,96,"1967 CALLALANTEE DRIVE, MOUNTAIN CITY, TN, 37683","Match","Exact","1967 CALLALANTEE DR, MOUNTAIN CITY, TN, 37683",616280123,"L"
101097,"1967 E MAPLE ST STE 311","NORTH CANTON","OH",44720,40.8750638180001,-81.368545331,97,"1967 E MAPLE ST STE 311, NORTH CANTON, OH, 44720","Match","Non_Exact","1967 E MAPLE ST, NORTH CANTON, OH, 44720",638788697,"L"
101098,"1967 E MAPLE ST SUITE 186","NORTH CANTON","OH",44720,40.8750638180001,-81.368545331,98,"1967 E MAPLE ST SUITE 186, NORTH CANTON, OH, 44720","Match","Non_Exact","1967 E MAPLE ST, NORTH CANTON, OH, 44720",638788697,"L"
101099,"1967 EMA DELL PL","LOGANVILLE","GA",30052,33.8254103140001,-83.978696138,99,"1967 EMA DELL PL, LOGANVILLE, GA, 30052","Match","Non_Exact","1967 EMA DELL PL SW, LOGANVILLE, GA, 30052",88955527,"L"
101100,"1967 HOEN AVE","SANTA ROSA","CA",95405,38.440675556,-122.691127613,100,"1967 HOEN AVE, SANTA ROSA, CA, 95405","Match","Exact","1967 HOEN AVE, SANTA ROSA, CA, 95405",604962815,"L"
101101,"1967 JOSEPH COURT","DECATUR","GA",30032,33.723965972,-84.310742523,101,"1967 JOSEPH COURT, DECATUR, GA, 30032","Match","Exact","1967 JOSEPH CT, DECATUR, GA, 30032",23367968,"R"
101102,"1967 PATRIOT DRIVE","CHARLOTTE","NC",28227,35.19746143,-80.685762606,102,"1967 PATRIOT DRIVE, CHARLOTTE, NC, 28227","Match","Exact","1967 PATRIOT DR, CHARLOTTE, NC, 28227",649584575,"L"
101103,"1967 SOUTH OCEAN BLVD 203A","POMPANO BEACH","LA",33062,NA,NA,103,"1967 SOUTH OCEAN BLVD 203A, POMPANO BEACH, LA, 33062","No_Match",NA,NA,NA,NA
101104,"1967 VIA LAGO DR","LAKELAND","FL",33803,28.1015471920001,-81.9883756789999,104,"1967 VIA LAGO DR, LAKELAND, FL, 33803","Match","Non_Exact","1967 VIA LAGO DR, LAKELAND, FL, 33810",647909715,"R"
101105,"1967 WEHRLE DRIVE SUITE 1-086","BUFFALO","NY",14221,42.9566169190001,-78.720885165,105,"1967 WEHRLE DRIVE SUITE 1-086, BUFFALO, NY, 14221","Match","Exact","1967 WEHRLE DR, BUFFALO, NY, 14221",645418161,"R"
101106,"19670 BRIGHTON DR","SAUCIER","MS",39574,30.56012887,-89.160323251,106,"19670 BRIGHTON DR, SAUCIER, MS, 39574","Match","Exact","19670 BRIGHTON DR, SAUCIER, MS, 39574",624953122,"R"
101107,"19670 LONEROCK ST","CANYON COUNTRY","CA",91351,34.42229473,-118.479983189,107,"19670 LONEROCK ST, CANYON COUNTRY, CA, 91351","Match","Exact","19670 LONEROCK ST, CANYON COUNTRY, CA, 91351",141519849,"R"
101108,"19671 CHAREST","DETROIT","MI",48234,42.439056281,-83.071571015,108,"19671 CHAREST, DETROIT, MI, 48234","Match","Non_Exact","19671 CHAREST ST, DETROIT, MI, 48234",95464058,"L"
101109,"19671 ST RT DD","ST JOSEPH","MO",64505,NA,NA,109,"19671 ST RT DD, ST JOSEPH, MO, 64505","No_Match",NA,NA,NA,NA
101110,"19672 E COUNTRY CLUB DR","AVENTURA","FL",33180,25.9575777210001,-80.130388028,110,"19672 E COUNTRY CLUB DR, AVENTURA, FL, 33180","Match","Exact","19672 E COUNTRY CLUB DR, AVENTURA, FL, 33180",609038763,"L"
101111,"19676 EAGLE RIDGE ROAD","FORESTHILL","CA",95631,39.001623276,-120.924928426,111,"19676 EAGLE RIDGE ROAD, FORESTHILL, CA, 95631","Match","Exact","19676 EAGLE RIDGE RD, FORESTHILL, CA, 95631",629707965,"R"
101112,"19679 ROSCOMMON","HARPER WOODS","MI",48225,42.4333130910001,-82.9364207529999,112,"19679 ROSCOMMON, HARPER WOODS, MI, 48225","Match","Non_Exact","19679 ROSCOMMON ST, HARPER WOODS, MI, 48225",95486530,"L"
101113,"1968 BRUIN DRIVE","CHESAPEAKE","VA",23321,36.848350688,-76.409000482,113,"1968 BRUIN DRIVE, CHESAPEAKE, VA, 23321","Match","Non_Exact","1968 BRUIN PL, CHESAPEAKE, VA, 23321",121795836,"R"
101114,"1968 DONOHUE CT","SAN JOSE","CA",95131,37.386981979,-121.876556494,114,"1968 DONOHUE CT, SAN JOSE, CA, 95131","Match","Exact","1968 DONOHUE CT, SAN JOSE, CA, 95131",122962919,"R"
101115,"1968 FLOYD ROAD","RIDGELAND","SC",29936,32.45035247,-81.0728528939999,115,"1968 FLOYD ROAD, RIDGELAND, SC, 29936","Match","Exact","1968 FLOYD RD, RIDGELAND, SC, 29936",33146645,"R"
101116,"1968 FORO ROMANO ST","HENDERSON","NV",89044,35.9566818340001,-115.128335419,116,"1968 FORO ROMANO ST, HENDERSON, NV, 89044","Match","Exact","1968 FORO ROMANO ST, HENDERSON, NV, 89044",650845551,"R"
101117,"1968 HUBBARD ST","DETROIT","MI",48209,42.3227088410001,-83.0925515439999,117,"1968 HUBBARD ST, DETROIT, MI, 48209","Match","Exact","1968 HUBBARD ST, DETROIT, MI, 48209",652800667,"R"
101118,"1968 N GATEWAY BLVD SUITE 101","FRESNO","CA",93727,36.7682419970001,-119.726602962,118,"1968 N GATEWAY BLVD SUITE 101, FRESNO, CA, 93727","Match","Non_Exact","1968 N GATEWAY BLVD, FRESNO, CA, 93727",197643150,"R"
101119,"1968 OLD COUNTY ROAD","REDWOOD CITY","CA",94063,37.4994659170001,-122.250233396,119,"1968 OLD COUNTY ROAD, REDWOOD CITY, CA, 94063","Match","Exact","1968 OLD COUNTY RD, REDWOOD CITY, CA, 94063",192393993,"R"
101120,"1968 S COAST HIGHWAY  SUITE1881","LAGUNA BEACH","CA",92651,33.5276611780001,-117.769826732,120,"1968 S COAST HIGHWAY  SUITE1881, LAGUNA BEACH, CA, 92651","Match","Non_Exact","1968 S COAST HWY, LAGUNA BEACH, CA, 92651",629798157,"L"
101121,"1968 S COAST HIGHWAY STE 177","LAGUNA BEACH","CA",92651,33.5276611780001,-117.769826732,121,"1968 S COAST HIGHWAY STE 177, LAGUNA BEACH, CA, 92651","Match","Non_Exact","1968 S COAST HWY, LAGUNA BEACH, CA, 92651",629798157,"L"
101122,"1968 S COAST HIGHWAY STE 2652","LAGUNA BEACH","CA",92651,33.5276611780001,-117.769826732,122,"1968 S COAST HIGHWAY STE 2652, LAGUNA BEACH, CA, 92651","Match","Non_Exact","1968 S COAST HWY, LAGUNA BEACH, CA, 92651",629798157,"L"
101123,"1968 S COAST HWY  503","LAGUANA","CA",92651,33.5276611780001,-117.769826732,123,"1968 S COAST HWY  503, LAGUANA, CA, 92651","Match","Non_Exact","1968 S COAST HWY, LAGUNA BEACH, CA, 92651",629798157,"L"
101124,"1968 S COAST HWY -  3687","LAGUNA BEACH","CA",92651,33.5276611780001,-117.769826732,124,"1968 S COAST HWY -  3687, LAGUNA BEACH, CA, 92651","Match","Non_Exact","1968 S COAST HWY, LAGUNA BEACH, CA, 92651",629798157,"L"
101125,"1968 S COAST HWY 2150","LAGUNA BEACH","CA",92651,33.5276611780001,-117.769826732,125,"1968 S COAST HWY 2150, LAGUNA BEACH, CA, 92651","Match","Non_Exact","1968 S COAST HWY, LAGUNA BEACH, CA, 92651",629798157,"L"
101126,"1968 S COAST HWY 2171","LAGUNA BEACH","CA",92651,33.5276611780001,-117.769826732,126,"1968 S COAST HWY 2171, LAGUNA BEACH, CA, 92651","Match","Non_Exact","1968 S COAST HWY, LAGUNA BEACH, CA, 92651",629798157,"L"
101127,"1968 S COAST HWY 2490","LAGUNA BEACH","CA",92651,33.5276611780001,-117.769826732,127,"1968 S COAST HWY 2490, LAGUNA BEACH, CA, 92651","Match","Non_Exact","1968 S COAST HWY, LAGUNA BEACH, CA, 92651",629798157,"L"
101128,"1968 S COAST HWY 3346","LAGUNA BEACH","CA",92651,33.5276611780001,-117.769826732,128,"1968 S COAST HWY 3346, LAGUNA BEACH, CA, 92651","Match","Non_Exact","1968 S COAST HWY, LAGUNA BEACH, CA, 92651",629798157,"L"
101129,"1968 S COAST HWY 424","LAGUNA BEACH","CA",92651,33.5276611780001,-117.769826732,129,"1968 S COAST HWY 424, LAGUNA BEACH, CA, 92651","Match","Non_Exact","1968 S COAST HWY, LAGUNA BEACH, CA, 92651",629798157,"L"
101130,"1968 S COAST HWY NUM 414","LAGUNA BEACH","CA",92651,33.5276611780001,-117.769826732,130,"1968 S COAST HWY NUM 414, LAGUNA BEACH, CA, 92651","Match","Non_Exact","1968 S COAST HWY, LAGUNA BEACH, CA, 92651",629798157,"L"
101131,"1968 S COAST HWY STE 1200","LAGUNA BEACH","CA",92651,33.5276611780001,-117.769826732,131,"1968 S COAST HWY STE 1200, LAGUNA BEACH, CA, 92651","Match","Non_Exact","1968 S COAST HWY, LAGUNA BEACH, CA, 92651",629798157,"L"
101132,"1968 S COAST HWY STE 193","LAGUNA BEACH","CA",92651,33.5276611780001,-117.769826732,132,"1968 S COAST HWY STE 193, LAGUNA BEACH, CA, 92651","Match","Non_Exact","1968 S COAST HWY, LAGUNA BEACH, CA, 92651",629798157,"L"
101133,"1968 S COAST HWY STE 2376","LAGUNA BEACH","CA",92651,33.5276611780001,-117.769826732,133,"1968 S COAST HWY STE 2376, LAGUNA BEACH, CA, 92651","Match","Non_Exact","1968 S COAST HWY, LAGUNA BEACH, CA, 92651",629798157,"L"
101134,"1968 S COAST HWY STE3508","LAGUNA BEACH","CA",92651,33.5276611780001,-117.769826732,134,"1968 S COAST HWY STE3508, LAGUNA BEACH, CA, 92651","Match","Non_Exact","1968 S COAST HWY, LAGUNA BEACH, CA, 92651",629798157,"L"
101135,"1968 S COAST HWY SUITE 1551","LAGUNA BEACH","CA",92651,33.5276611780001,-117.769826732,135,"1968 S COAST HWY SUITE 1551, LAGUNA BEACH, CA, 92651","Match","Non_Exact","1968 S COAST HWY, LAGUNA BEACH, CA, 92651",629798157,"L"
101136,"1968 S COAST HWY SUITE 3014","LAGUNA BEACH","CA",92651,33.5276611780001,-117.769826732,136,"1968 S COAST HWY SUITE 3014, LAGUNA BEACH, CA, 92651","Match","Non_Exact","1968 S COAST HWY, LAGUNA BEACH, CA, 92651",629798157,"L"
101137,"1968 S COAST HWY UNIT 485","LAGUNA BEACH","CA",92651,33.5276611780001,-117.769826732,137,"1968 S COAST HWY UNIT 485, LAGUNA BEACH, CA, 92651","Match","Non_Exact","1968 S COAST HWY, LAGUNA BEACH, CA, 92651",629798157,"L"
101138,"1968 S COAST HWY","LAGUNA BEACH","CA",92651,33.5276611780001,-117.769826732,138,"1968 S COAST HWY, LAGUNA BEACH, CA, 92651","Match","Exact","1968 S COAST HWY, LAGUNA BEACH, CA, 92651",629798157,"L"
101139,"1968 S GREAT BASIN DRIVE","WASHINGTON","UT",84780,37.103671714,-113.496023797,139,"1968 S GREAT BASIN DRIVE, WASHINGTON, UT, 84780","Match","Exact","1968 GREAT BASIN DR, WASHINGTON, UT, 84780",627766955,"R"
101140,"1968 SOUTH COAST HIGHWAY SUITE 1803","LAGUNA BEACH","CA",92651,33.5276695740001,-117.769836836,140,"1968 SOUTH COAST HIGHWAY SUITE 1803, LAGUNA BEACH, CA, 92651","Match","Exact","1968 S COAST HWY, LAGUNA BEACH, CA, 92651",629798157,"L"
101141,"1968 SOUTH COAST HIGHWAY SUITE 906","LAGUNA BEACH","CA",92651,33.5276695740001,-117.769836836,141,"1968 SOUTH COAST HIGHWAY SUITE 906, LAGUNA BEACH, CA, 92651","Match","Exact","1968 S COAST HWY, LAGUNA BEACH, CA, 92651",629798157,"L"
101142,"1968 SOUTH COAST HWY STE 3289","LAGUNA BEACH","CA",92651,33.5276695740001,-117.769836836,142,"1968 SOUTH COAST HWY STE 3289, LAGUNA BEACH, CA, 92651","Match","Exact","1968 S COAST HWY, LAGUNA BEACH, CA, 92651",629798157,"L"
101143,"1968 SOUTH COAST HWY SUITE 1474","LAGUNA BEACH","CA",92651,33.5276695740001,-117.769836836,143,"1968 SOUTH COAST HWY SUITE 1474, LAGUNA BEACH, CA, 92651","Match","Exact","1968 S COAST HWY, LAGUNA BEACH, CA, 92651",629798157,"L"
101144,"19681 HUDSON CIR NW","ELK RIVER","MN",55330,45.3277508560001,-93.604620104,144,"19681 HUDSON CIR NW, ELK RIVER, MN, 55330","Match","Non_Exact","19681 HUDSON CIR, ELK RIVER, MN, 55330",97770079,"L"
101145,"19682 OCCIDENTAL LANE","HUNTINGTON BEACH","CA",92646,33.677099427,-117.967606086,145,"19682 OCCIDENTAL LANE, HUNTINGTON BEACH, CA, 92646","Match","Exact","19682 OCCIDENTAL LN, HUNTINGTON BEACH, CA, 92646",144020710,"L"
101146,"19682 RIDGEWOOD PLACE","YORBA LINDA","CA",92886,33.8815339600001,-117.790354561,146,"19682 RIDGEWOOD PLACE, YORBA LINDA, CA, 92886","Match","Exact","19682 RIDGEWOOD PL, YORBA LINDA, CA, 92886",143996618,"R"
101147,"19684 S 225TH PLACE","QUEEN CREEK","AZ",85142,NA,NA,147,"19684 S 225TH PLACE, QUEEN CREEK, AZ, 85142","No_Match",NA,NA,NA,NA
101148,"1969 BERGEN STREET 2B","BROOKLYN","NY",11233,40.6742275660001,-73.915574563,148,"1969 BERGEN STREET 2B, BROOKLYN, NY, 11233","Match","Exact","1969 BERGEN ST, BROOKLYN, NY, 11233",59083746,"L"
101149,"1969 COVINGTON DRIVE","LEXINGTON","KY",40509,38.0376805120001,-84.439746692,149,"1969 COVINGTON DRIVE, LEXINGTON, KY, 40509","Match","Exact","1969 COVINGTON DR, LEXINGTON, KY, 40509",650847072,"R"
101150,"1969 E BROADWAY RD STE 3","TEMPE","AZ",85282,33.4074937620001,-111.901454224,150,"1969 E BROADWAY RD STE 3, TEMPE, AZ, 85282","Match","Non_Exact","1969 E BROADWAY RD, TEMPE, AZ, 85282",128232379,"R"
101151,"1969 HARRINGTON AVENUE","OAKLAND","CA",94601,37.7809092700001,-122.216267997,151,"1969 HARRINGTON AVENUE, OAKLAND, CA, 94601","Match","Exact","1969 HARRINGTON AVE, OAKLAND, CA, 94601",125007297,"L"
101152,"1969 KINGS CHAPEL RD","CADIZ","KY",42211,36.85182085,-87.746950079,152,"1969 KINGS CHAPEL RD, CADIZ, KY, 42211","Match","Exact","1969 KINGS CHAPEL RD, CADIZ, KY, 42211",11942588,"L"
101153,"1969 LAKE ROCKAWAY ROAD","CONYERS","GA",30012,33.6967558530001,-84.063408699,153,"1969 LAKE ROCKAWAY ROAD, CONYERS, GA, 30012","Match","Non_Exact","1969 LAKE ROCKAWAY RD NW, CONYERS, GA, 30012",614156362,"R"
101154,"1969 MANOR OAK LANE","BUFORD","GA",30519,34.0491766010001,-83.9627080069999,154,"1969 MANOR OAK LANE, BUFORD, GA, 30519","Match","Exact","1969 MANOR OAK LN, BUFORD, GA, 30519",635556044,"R"
101155,"1969 NELSON","MEMPHIS","TN",38104,35.1219695720001,-89.996292368,155,"1969 NELSON, MEMPHIS, TN, 38104","Match","Non_Exact","1969 NELSON AVE, MEMPHIS, TN, 38104",72917139,"R"
101156,"1969 THAYER STREET","LOS ANGELES","CA",90025,34.052580108,-118.424920977,156,"1969 THAYER STREET, LOS ANGELES, CA, 90025","Match","Non_Exact","1969 THAYER AVE, LOS ANGELES, CA, 90025",141571371,"R"
101157,"19690 BLUESTEM LN","GOSHEN","IN",46528,41.6494192500001,-85.8439227329999,157,"19690 BLUESTEM LN, GOSHEN, IN, 46528","Match","Exact","19690 BLUESTEM LN, GOSHEN, IN, 46528",632507241,"R"
101158,"19690 MITCHEL RD","TONGANOXIE","KS",66086,39.1504428800001,-95.037789065,158,"19690 MITCHEL RD, TONGANOXIE, KS, 66086","Match","Exact","19690 MITCHEL RD, TONGANOXIE, KS, 66086",91396961,"R"
101159,"19691 TRIDENT LANE","HUNTINGTON BEACH","CA",92646,33.6766616830001,-117.973516509,159,"19691 TRIDENT LANE, HUNTINGTON BEACH, CA, 92646","Match","Exact","19691 TRIDENT LN, HUNTINGTON BEACH, CA, 92646",144020753,"R"
101160,"19692 EAST LOYOLA CIRCLE","AURORA","CO",80013,39.6473466360001,-104.76097739,160,"19692 EAST LOYOLA CIRCLE, AURORA, CO, 80013","Match","Exact","19692 E LOYOLA CIR, AURORA, CO, 80013",177358868,"R"
101161,"19695 EAST MAIN ST","HUNTINGDON","TN",38344,36.0009617960001,-88.427033228,161,"19695 EAST MAIN ST, HUNTINGDON, TN, 38344","Match","Exact","19695 E MAIN ST, HUNTINGDON, TN, 38344",19594400,"L"
101162,"19697 E SMOKY HILL RD","CENTENNIAL","CO",80015,39.6127769280001,-104.756862613,162,"19697 E SMOKY HILL RD, CENTENNIAL, CO, 80015","Match","Exact","19697 E SMOKY HILL RD, CENTENNIAL, CO, 80015",640596129,"L"
101163,"197 14TH ST NW STE 100","ATLANTA","GA",30318,33.7865961850001,-84.393698833,163,"197 14TH ST NW STE 100, ATLANTA, GA, 30318","Match","Exact","197 14TH ST NW, ATLANTA, GA, 30318",17343245,"R"
101164,"197 8TH ST 606","BOSTON","MA",2129,42.3741396390001,-71.0520109399999,164,"197 8TH ST 606, BOSTON, MA, 2129","Match","Exact","197 8TH ST, BOSTON, MA, 02129",85730203,"R"
101165,"197 ACADEMY STREET APT 403","JERSEY CITY","NJ",7306,40.727418207,-74.0631882389999,165,"197 ACADEMY STREET APT 403, JERSEY CITY, NJ, 7306","Match","Exact","197 ACADEMY ST, JERSEY CITY, NJ, 07306",59604627,"L"
101166,"197 AUGUSTA","BOERNE","TX",78006,29.8488953400001,-98.60888923,166,"197 AUGUSTA, BOERNE, TX, 78006","Match","Exact","197 AUGUSTA, BOERNE, TX, 78006",636522158,"R"
101167,"197 BEAVER RIDGE ROAD","FREEDOM","ME",4941,44.476462354,-69.355587284,167,"197 BEAVER RIDGE ROAD, FREEDOM, ME, 4941","Match","Exact","197 BEAVER RIDGE RD, FREEDOM, ME, 04941",75628987,"L"
101168,"197 BELLE POINT DR","RUSTON","LA",71270,NA,NA,168,"197 BELLE POINT DR, RUSTON, LA, 71270","No_Match",NA,NA,NA,NA
101169,"197 BENT TREE DRIVE","ATHENS","GA",30606,33.956747589,-83.449438877,169,"197 BENT TREE DRIVE, ATHENS, GA, 30606","Match","Exact","197 BENT TREE DR, ATHENS, GA, 30606",4810719,"L"
101170,"197 BRIDGEGATE LN","PASO ROBLES","CA",93446,35.6078528100001,-120.682444228,170,"197 BRIDGEGATE LN, PASO ROBLES, CA, 93446","Match","Exact","197 BRIDGEGATE LN, PASO ROBLES, CA, 93446",109769833,"L"
101171,"197 BROOKHOLLOW DRIVE","PELHAM","AL",35124,33.2963374990001,-86.799471771,171,"197 BROOKHOLLOW DRIVE, PELHAM, AL, 35124","Match","Exact","197 BROOKHOLLOW DR, PELHAM, AL, 35124",82087647,"L"
101172,"197 BROWNSTONE DRIVE","MOORESVILLE","NC",28117,35.5416929240001,-80.920068439,172,"197 BROWNSTONE DRIVE, MOORESVILLE, NC, 28117","Match","Exact","197 BROWNSTONE DR, MOORESVILLE, NC, 28117",46022299,"L"
101173,"197 CAMDEN CT UNIT W2","SCHAUMBURG","IL",60194,42.0298141480001,-88.1403587999999,173,"197 CAMDEN CT UNIT W2, SCHAUMBURG, IL, 60194","Match","Exact","197 CAMDEN CT, SCHAUMBURG, IL, 60194",111878628,"R"
101174,"197 CAMELI DRIVE","BANNER ELK","NC",28604,NA,NA,174,"197 CAMELI DRIVE, BANNER ELK, NC, 28604","No_Match",NA,NA,NA,NA
101175,"197 CARLTON AVE","PISCATAWAY","NJ",8854,40.5684630650001,-74.442897579,175,"197 CARLTON AVE, PISCATAWAY, NJ, 8854","Match","Exact","197 CARLTON AVE, PISCATAWAY, NJ, 08854",651261790,"R"
101176,"197 CHAPEL STREET","PITTSTON","PA",18640,41.337892378,-75.782191396,176,"197 CHAPEL STREET, PITTSTON, PA, 18640","Match","Exact","197 CHAPEL ST, PITTSTON, PA, 18640",80917911,"R"
101177,"197 CITY BLVD","STATEN ISLAND","NY",10310,40.6253077210001,-74.103793735,177,"197 CITY BLVD, STATEN ISLAND, NY, 10310","Match","Non_Exact","197 CITY BLVD, STATEN ISLAND, NY, 10301",59883070,"L"
101178,"197 COUNTRY CLUB","STANSBURY PARK","UT",84074,40.6372347400001,-112.295188584,178,"197 COUNTRY CLUB, STANSBURY PARK, UT, 84074","Match","Exact","197 COUNTRY CLUB, STANSBURY PARK, UT, 84074",640620820,"R"
101179,"197 COUNTY ROAD 220","CRANE HILL","AL",35053,34.066132001,-87.1428702599999,179,"197 COUNTY ROAD 220, CRANE HILL, AL, 35053","Match","Exact","197 CO RD 220, CRANE HILL, AL, 35053",647795702,"L"
101180,"197 COUNTY ROAD 433","ENGLEWOOD","TN",37329,35.4313471200001,-84.522509653,180,"197 COUNTY ROAD 433, ENGLEWOOD, TN, 37329","Match","Exact","197 CO RD 433, ENGLEWOOD, TN, 37329",605353348,"R"
101181,"197 DARSEY RD","CAIRO","GA",39828,30.698095005,-84.362327711,181,"197 DARSEY RD, CAIRO, GA, 39828","Match","Exact","197 DARSEY RD, CAIRO, GA, 39828",84360836,"R"
101182,"197 DIAMOND WAY","CORTLAND","OH",44410,41.316027283,-80.712987216,182,"197 DIAMOND WAY, CORTLAND, OH, 44410","Match","Exact","197 DIAMOND WAY, CORTLAND, OH, 44410",117422195,"R"
101183,"197 E CALIFORNIA STREET STE 250","LAS VEGAS","NV",89104,NA,NA,183,"197 E CALIFORNIA STREET STE 250, LAS VEGAS, NV, 89104","No_Match",NA,NA,NA,NA
101184,"197 E GAY ST","COLUMBUS","OH",43215,39.964311014,-82.99473518,184,"197 E GAY ST, COLUMBUS, OH, 43215","Match","Exact","197 E GAY ST, COLUMBUS, OH, 43215",135579113,"R"
101185,"197 EAGLE POINT ROAD","COLFAX","LA",71417,31.5865114760001,-92.665030347,185,"197 EAGLE POINT ROAD, COLFAX, LA, 71417","Match","Exact","197 EAGLE POINT RD, COLFAX, LA, 71417",13259146,"R"
101186,"197 EAST 4TH STREET","BROOKVILLE","IN",47012,39.4184838730001,-85.008472115,186,"197 EAST 4TH STREET, BROOKVILLE, IN, 47012","Match","Exact","197 E 4TH ST, BROOKVILLE, IN, 47012",33192940,"R"
101187,"197 EASTPORT LANE","MOORESVILLE","NC",28115,35.5310748310001,-80.84117292,187,"197 EASTPORT LANE, MOORESVILLE, NC, 28115","Match","Exact","197 EASTPORT LN, MOORESVILLE, NC, 28115",45998500,"R"
101188,"197 GLEN COVE AVENUE","SEA CLIFF","NY",11579,40.8507932750001,-73.635370431,188,"197 GLEN COVE AVENUE, SEA CLIFF, NY, 11579","Match","Exact","197 GLEN COVE AVE, SEA CLIFF, NY, 11579",147661822,"R"
101189,"197 GRIGGS ST N","ST PAUL","MN",55104,NA,NA,189,"197 GRIGGS ST N, ST PAUL, MN, 55104","No_Match",NA,NA,NA,NA
101190,"197 HANCE AVENUE","TINTON FALLS","NJ",7724,40.3300467890001,-74.083820687,190,"197 HANCE AVENUE, TINTON FALLS, NJ, 7724","Match","Exact","197 HANCE AVE, TINTON FALLS, NJ, 07724",90454245,"L"
101191,"197 HART ROAD","ELIZABETHTON","TN",37643,36.3565477270001,-82.260261952,191,"197 HART ROAD, ELIZABETHTON, TN, 37643","Match","Exact","197 HART RD, ELIZABETHTON, TN, 37643",43054157,"L"
101192,"197 HELEN STREET 2ND FL","HAMDEN","CT",6514,41.348661624,-72.940727291,192,"197 HELEN STREET 2ND FL, HAMDEN, CT, 6514","Match","Exact","197 HELEN ST, HAMDEN, CT, 06514",3698653,"R"
101193,"197 HICKORY HEIGHTS DR","BRIDGEVILLE","PA",15017,40.3449908210001,-80.1409298199999,193,"197 HICKORY HEIGHTS DR, BRIDGEVILLE, PA, 15017","Match","Exact","197 HICKORY HEIGHTS DR, BRIDGEVILLE, PA, 15017",607679017,"L"
101194,"197 HUNTER AVE","FANWOOD","NJ",7023,NA,NA,194,"197 HUNTER AVE, FANWOOD, NJ, 7023","No_Match",NA,NA,NA,NA
101195,"197 HUNTLEIGH CHASE DR","DALLAS","GA",30132,33.9662746380001,-84.828512479,195,"197 HUNTLEIGH CHASE DR, DALLAS, GA, 30132","Match","Exact","197 HUNTLEIGH CHASE DR, DALLAS, GA, 30132",618971646,"L"
101196,"197 JOAQUIN CIRCLE","DANVILLE","CA",94526,37.787838666,-121.973042087,196,"197 JOAQUIN CIRCLE, DANVILLE, CA, 94526","Match","Exact","197 JOAQUIN CIR, DANVILLE, CA, 94526",192065372,"L"
101197,"197 LAKEVIEW AVE","RINGWOOD","NJ",7456,41.092427779,-74.2509875059999,197,"197 LAKEVIEW AVE, RINGWOOD, NJ, 7456","Match","Exact","197 LAKEVIEW AVE, RINGWOOD, NJ, 07456",65253841,"R"
101198,"197 LAURSEN DRIVE","SYRACUSE","NY",13205,42.98034878,-76.1406499459999,198,"197 LAURSEN DRIVE, SYRACUSE, NY, 13205","Match","Exact","197 LAURSEN DR, SYRACUSE, NY, 13205",46577591,"L"
101199,"197 LEILAND AVE","COLUMBUS","OH",43214,40.0636606030001,-83.024931156,199,"197 LEILAND AVE, COLUMBUS, OH, 43214","Match","Non_Exact","197 LELAND AVE, COLUMBUS, OH, 43214",627901459,"L"
101200,"197 LENOX AVE","NEW YORK","NY",10026,40.8044931580001,-73.947888861,200,"197 LENOX AVE, NEW YORK, NY, 10026","Match","Exact","197 LENOX AVE, NEW YORK, NY, 10026",634257253,"L"
101201,"197 LONGLEAF DR","BLANDON","PA",19510,40.453454895,-75.8945056869999,201,"197 LONGLEAF DR, BLANDON, PA, 19510","Match","Exact","197 LONGLEAF DR, BLANDON, PA, 19510",80406164,"R"
101202,"197 LOUISE DRIVE","GRANVILLE","OH",43023,40.0526144900001,-82.54106372,202,"197 LOUISE DRIVE, GRANVILLE, OH, 43023","Match","Exact","197 LOUISE DR, GRANVILLE, OH, 43023",61514993,"L"
101203,"197 LYNBROOK ROAD","RUSTBURG","VA",24588,NA,NA,203,"197 LYNBROOK ROAD, RUSTBURG, VA, 24588","No_Match",NA,NA,NA,NA
101204,"197 MID RIDGE LANE","INDEPENDENCE","VA",24348,36.6128575980001,-81.057067535,204,"197 MID RIDGE LANE, INDEPENDENCE, VA, 24348","Match","Exact","197 MID RIDGE LN, INDEPENDENCE, VA, 24348",153839582,"L"
101205,"197 MOUNTAIN LAUREL COURT","ROMEOVILLE","IL",60446,41.6177616470001,-88.130957677,205,"197 MOUNTAIN LAUREL COURT, ROMEOVILLE, IL, 60446","Match","Exact","197 MOUNTAIN LAUREL CT, ROMEOVILLE, IL, 60446",644419345,"L"
101206,"197 N MAIN ST","ELLIJAY","GA",30540,34.697834491,-84.4799950569999,206,"197 N MAIN ST, ELLIJAY, GA, 30540","Match","Exact","197 N MAIN ST, ELLIJAY, GA, 30540",57246074,"L"
101207,"197 NC HWY 343 S","CAMDEN","NC",27921,NA,NA,207,"197 NC HWY 343 S, CAMDEN, NC, 27921","No_Match",NA,NA,NA,NA
101208,"197 NEW HOPE RD SE","CLEVELAND","TN",37323,35.115835901,-84.788848206,208,"197 NEW HOPE RD SE, CLEVELAND, TN, 37323","Match","Exact","197 NEW HOPE RD SE, CLEVELAND, TN, 37323",57578945,"R"
101209,"197 NORTH FALMOUTH HIGHWAY","NORTH FALMOUTH","MA",2556,41.628552132,-70.620546099,209,"197 NORTH FALMOUTH HIGHWAY, NORTH FALMOUTH, MA, 2556","Match","Exact","197 N FALMOUTH HWY, N FALMOUTH, MA, 02556",121598581,"R"
101210,"197 NORTH LEAVITT ROAD","AMHERST","OH",44001,41.4110044990001,-82.2091515709999,210,"197 NORTH LEAVITT ROAD, AMHERST, OH, 44001","Match","Exact","197 N LEAVITT RD, AMHERST, OH, 44001",647641565,"R"
101211,"197 OAK PARK LANE","SPRING BRANCH","TX",78070,29.969412253,-98.432951977,211,"197 OAK PARK LANE, SPRING BRANCH, TX, 78070","Match","Exact","197 OAK PARK LN, SPRING BRANCH, TX, 78070",72148527,"R"
101212,"197 OLD MOUNTAIN TRAIL","WEST KINGSTON","RI",2892,41.5403217,-71.6389509959999,212,"197 OLD MOUNTAIN TRAIL, WEST KINGSTON, RI, 2892","Match","Exact","197 OLD MOUNTAIN TRL, WEST KINGSTON, RI, 02892",58919470,"R"
101213,"197 PARADISE PENINSULA ROAD","MOORESVILLE","NC",28117,35.5993783860001,-80.928314094,213,"197 PARADISE PENINSULA ROAD, MOORESVILLE, NC, 28117","Match","Non_Exact","197 PARADISE PENINSULA DR, MOORESVILLE, NC, 28117",45997581,"R"
101214,"197 PEARSALL AVENUE","JERSEY CITY","NJ",7305,40.69640444,-74.095424188,214,"197 PEARSALL AVENUE, JERSEY CITY, NJ, 7305","Match","Exact","197 PEARSALL AVE, JERSEY CITY, NJ, 07305",59603198,"L"
101215,"197 PERRYVILLE ROAD","REHOBOTH","MA",2769,41.8712105860001,-71.262624506,215,"197 PERRYVILLE ROAD, REHOBOTH, MA, 2769","Match","Exact","197 PERRYVILLE RD, REHOBOTH, MA, 02769",46773287,"R"
101216,"197 PINEHILL LAKE ROAD","HORTON","MI",49246,42.0955357710001,-84.48448322,216,"197 PINEHILL LAKE ROAD, HORTON, MI, 49246","Match","Non_Exact","197 PINE HILL LAKE DR, HORTON, MI, 49246",17610705,"L"
101217,"197 PORTER RD","BERNICE","LA",71222,32.8097415760001,-92.503401427,217,"197 PORTER RD, BERNICE, LA, 71222","Match","Exact","197 PORTER RD, BERNICE, LA, 71222",150041324,"L"
101218,"197 RAWSON RD NUM 1","BROOKLINE","MA",2445,42.3358357540001,-71.1363796699999,218,"197 RAWSON RD NUM 1, BROOKLINE, MA, 2445","Match","Exact","197 RAWSON RD, BROOKLINE, MA, 02445",87244978,"R"
101219,"197 RICHMOND ROAD","RICHMOND HEIGHTS","OH",44143,41.5773066530001,-81.498297207,219,"197 RICHMOND ROAD, RICHMOND HEIGHTS, OH, 44143","Match","Exact","197 RICHMOND RD, RICHMOND HEIGHTS, OH, 44143",653494424,"L"
101220,"197 RIDGE STREET","MONTROSE","PA",18801,41.8297950470001,-75.874623736,220,"197 RIDGE STREET, MONTROSE, PA, 18801","Match","Exact","197 RIDGE ST, MONTROSE, PA, 18801",140066407,"L"
101221,"197 ROUTE 18 SOUTH 3000","EAST BRUNSWICK","NJ",8816,NA,NA,221,"197 ROUTE 18 SOUTH 3000, EAST BRUNSWICK, NJ, 8816","No_Match",NA,NA,NA,NA
101222,"197 ROUTE 18 SOUTH SUITE 3000","EAST BRUNSWICK","NJ",8816,NA,NA,222,"197 ROUTE 18 SOUTH SUITE 3000, EAST BRUNSWICK, NJ, 8816","No_Match",NA,NA,NA,NA
101223,"197 SCOTT ROAD","OAKHAM","MA",1068,42.3563655360001,-72.085004483,223,"197 SCOTT ROAD, OAKHAM, MA, 1068","Match","Exact","197 SCOTT RD, OAKHAM, MA, 01068",39996314,"R"
101224,"197 SEMINOLE ROAD","ATLANTIC BEACH","FL",32233,30.327053699,-81.404871397,224,"197 SEMINOLE ROAD, ATLANTIC BEACH, FL, 32233","Match","Exact","197 SEMINOLE RD, ATLANTIC BCH, FL, 32233",83907607,"R"
101225,"197 SICKLES AVENUE UNIT F8","NYACK","NY",10960,NA,NA,225,"197 SICKLES AVENUE UNIT F8, NYACK, NY, 10960","No_Match",NA,NA,NA,NA
101226,"197 SOUTH MAIN","RUSK","TX",75785,NA,NA,226,"197 SOUTH MAIN, RUSK, TX, 75785","No_Match",NA,NA,NA,NA
101227,"197 SPRUCE ST APT 5","LEOMINSTER","MA",1453,42.525150039,-71.74725423,227,"197 SPRUCE ST APT 5, LEOMINSTER, MA, 1453","Match","Exact","197 SPRUCE ST, LEOMINSTER, MA, 01453",40030637,"R"
101228,"197 STATE ROUTE 1026","DAYTON","PA",16222,40.8794206470001,-79.241486244,228,"197 STATE ROUTE 1026, DAYTON, PA, 16222","Match","Non_Exact","197 STATE ST, DAYTON, PA, 16222",52461874,"R"
101229,"197 STATE ROUTE 18 STE 206","EAST BRUNSWICK","NJ",8816,40.4693188360001,-74.4084897289999,229,"197 STATE ROUTE 18 STE 206, EAST BRUNSWICK, NJ, 8816","Match","Exact","197 STATE RTE 18, E BRUNSWICK, NJ, 08816",60267845,"R"
101230,"197 SUGARLOAF TURN","BOURBONNAIS","IL",60914,41.1551148980001,-87.884461065,230,"197 SUGARLOAF TURN, BOURBONNAIS, IL, 60914","Match","Non_Exact","197 SUGAR LOAF TURN, BOURBONNAIS, IL, 60914",98355313,"L"
101231,"197 THIRD STREET","ALLENTON","WI",53002,43.4181097650001,-88.335726478,231,"197 THIRD STREET, ALLENTON, WI, 53002","Match","Exact","197 3RD ST, ALLENTON, WI, 53002",79553959,"R"
101232,"197 TIM POND ROAD BOX 22","EUSTIS","ME",4239,NA,NA,232,"197 TIM POND ROAD BOX 22, EUSTIS, ME, 4239","No_Match",NA,NA,NA,NA
101233,"197 UNION STREET","MARLBOROUGH","MA",1752,42.3533618450001,-71.555342125,233,"197 UNION STREET, MARLBOROUGH, MA, 1752","Match","Exact","197 UNION ST, MARLBOROUGH, MA, 01752",86899348,"R"
101234,"197 VALLEY ROAD","COS COB","CT",6807,41.0519857080001,-73.587191369,234,"197 VALLEY ROAD, COS COB, CT, 6807","Match","Exact","197 VALLEY RD, COS COB, CT, 06807",3244067,"R"
101235,"197 W PLAZA SUITE F","MOORESVILLE","NC",28117,NA,NA,235,"197 W PLAZA SUITE F, MOORESVILLE, NC, 28117","No_Match",NA,NA,NA,NA
101236,"197 WAGON TRAIL ROAD","CERRILLOS","NM",87010,35.361330342,-106.11992159,236,"197 WAGON TRAIL ROAD, CERRILLOS, NM, 87010","Match","Exact","197 WAGON TRAIL RD, CERRILLOS, NM, 87010",645243890,"R"
101237,"197 WAYPOINT DRIVE","STOCKBRIDGE","GA",30281,33.546366435,-84.1717987379999,237,"197 WAYPOINT DRIVE, STOCKBRIDGE, GA, 30281","Match","Exact","197 WAYPOINT DR, STOCKBRIDGE, GA, 30281",649954382,"L"
101238,"197 WERTZ CT","PACOLET","SC",29372,34.904414419,-81.790951018,238,"197 WERTZ CT, PACOLET, SC, 29372","Match","Exact","197 WERTZ CT, PACOLET, SC, 29372",19503630,"R"
101239,"197 WEST MAIN ST","CORTLAND","OH",44410,41.3300947770001,-80.7288193699999,239,"197 WEST MAIN ST, CORTLAND, OH, 44410","Match","Exact","197 W MAIN ST, CORTLAND, OH, 44410",117406817,"R"
101240,"197 WHEATON PLACE","RUTHERFORD","NJ",7070,40.8196443640001,-74.1146262949999,240,"197 WHEATON PLACE, RUTHERFORD, NJ, 7070","Match","Exact","197 WHEATON PL, RUTHERFORD, NJ, 07070",64394403,"L"
101241,"197 WHITE CHAPEL ROAD","PURVIS","MS",39475,31.197509349,-89.354745542,241,"197 WHITE CHAPEL ROAD, PURVIS, MS, 39475","Match","Exact","197 WHITE CHAPEL RD, PURVIS, MS, 39475",503478,"L"
101242,"197 WICKLOW DR","MURRELLS INLET","SC",29576,33.6077169500001,-79.0377529799999,242,"197 WICKLOW DR, MURRELLS INLET, SC, 29576","Match","Exact","197 WICKLOW DR, MURRELLS INLET, SC, 29576",630940985,"L"
101243,"197 WINDING HILL DRIVE","HACKETTSTOWN","NJ",7840,40.85227753,-74.794166493,243,"197 WINDING HILL DRIVE, HACKETTSTOWN, NJ, 7840","Match","Exact","197 WINDING HILL DR, HACKETTSTOWN, NJ, 07840",60502305,"L"
101244,"197 WOODLAND PARKWAY SUITE 104/279","SAN MARCOS","CA",92079,33.142554498,-117.137800327,244,"197 WOODLAND PARKWAY SUITE 104/279, SAN MARCOS, CA, 92079","Match","Non_Exact","197 WOODLAND PKWY, SAN MARCOS, CA, 92069",195439560,"R"
101245,"197 WOODLAND PKWY STE 104-124","SAN MARCOS","CA",92069,33.142554498,-117.137800327,245,"197 WOODLAND PKWY STE 104-124, SAN MARCOS, CA, 92069","Match","Exact","197 WOODLAND PKWY, SAN MARCOS, CA, 92069",195439560,"R"
101246,"197 WOODLAND PKWY- SUITE 104/PMB277","SAN MARCOS","CA",92069,33.142554498,-117.137800327,246,"197 WOODLAND PKWY- SUITE 104/PMB277, SAN MARCOS, CA, 92069","Match","Non_Exact","197 WOODLAND PKWY, SAN MARCOS, CA, 92069",195439560,"R"
101247,"197-12 111TH AVE","SAINT ALBANS","NY",11412,40.7034111470001,-73.759014897,247,"197-12 111TH AVE, SAINT ALBANS, NY, 11412","Match","Exact","197-12 111TH AVE, SAINT ALBANS, NY, 11412",59719125,"R"
101248,"197-25 MCLAUGHLIN AVE","HOLLIS","NY",11423,40.724648706,-73.7683581379999,248,"197-25 MCLAUGHLIN AVE, HOLLIS, NY, 11423","Match","Exact","197-25 MCLAUGHLIN AVE, HOLLIS, NY, 11423",59732414,"L"
101249,"1970 10TH AVENUE NE","NAPLES","FL",34120,26.2485944690001,-81.569226648,249,"1970 10TH AVENUE NE, NAPLES, FL, 34120","Match","Exact","1970 10TH AVE NE, NAPLES, FL, 34120",115132034,"R"
101250,"1970 ALLEN ROAD","KIMBALL","MI",48074,42.9626959560001,-82.522977482,250,"1970 ALLEN ROAD, KIMBALL, MI, 48074","Match","Exact","1970 ALLEN RD, KIMBALL, MI, 48074",110984709,"R"
101251,"1970 BISCAYNE ST","SANTA MARIA","CA",93458,34.9250849210001,-120.451661693,251,"1970 BISCAYNE ST, SANTA MARIA, CA, 93458","Match","Exact","1970 BISCAYNE ST, SANTA MARIA, CA, 93458",649500450,"L"
101252,"1970 BROADSTONE PKWY","FOLSOM","CA",95630,38.6580028600001,-121.10620944,252,"1970 BROADSTONE PKWY, FOLSOM, CA, 95630","Match","Exact","1970 BROADSTONE PKWY, FOLSOM, CA, 95630",618048098,"L"
101253,"1970 CHIPLEY HIGHWAY","GREENVILLE","GA",30222,32.9496776990001,-84.726118317,253,"1970 CHIPLEY HIGHWAY, GREENVILLE, GA, 30222","Match","Exact","1970 CHIPLEY HWY, GREENVILLE, GA, 30222",9433999,"L"
101254,"1970 COOPER LAKES DRIVE","GRAYSON","GA",30017,33.8972400870001,-83.97283427,254,"1970 COOPER LAKES DRIVE, GRAYSON, GA, 30017","Match","Exact","1970 COOPER LAKES DR, GRAYSON, GA, 30017",634064683,"L"
101255,"1970 E 73RD STREET","CHICAGO","IL",60649,41.762514595,-87.576897329,255,"1970 E 73RD STREET, CHICAGO, IL, 60649","Match","Exact","1970 E 73RD ST, CHICAGO, IL, 60649",605555638,"L"
101256,"1970 E TREMONT AVENUE","BRONX","NY",10462,40.8416058720001,-73.860893727,256,"1970 E TREMONT AVENUE, BRONX, NY, 10462","Match","Exact","1970 E TREMONT AVE, BRONX, NY, 10462",609396337,"R"
101257,"1970 EASST 2ND STREET","RENO","NV",89502,NA,NA,257,"1970 EASST 2ND STREET, RENO, NV, 89502","No_Match",NA,NA,NA,NA
101258,"1970 FOUR MILE ROAD","WASHINGTON","MO",63090,38.518612455,-91.078214369,258,"1970 FOUR MILE ROAD, WASHINGTON, MO, 63090","Match","Exact","1970 4 MILE RD, WASHINGTON, MO, 63090",648437390,"R"
101259,"1970 GLYNN CT","DETROIT","MI",48206,42.3817622880001,-83.104327961,259,"1970 GLYNN CT, DETROIT, MI, 48206","Match","Exact","1970 GLYNN CT, DETROIT, MI, 48206",95471780,"R"
101260,"1970 GREENBAY RD UNIT A1","HIGHLAND PARK","IL",60035,42.1881859480001,-87.8035522069999,260,"1970 GREENBAY RD UNIT A1, HIGHLAND PARK, IL, 60035","Match","Non_Exact","1970 GREEN BAY RD, HIGHLAND PARK, IL, 60035",119648426,"L"
101261,"1970 GROSS ROAD","POTTSTOWN","PA",19464,40.3024095420001,-75.646291328,261,"1970 GROSS ROAD, POTTSTOWN, PA, 19464","Match","Exact","1970 GROSS RD, POTTSTOWN, PA, 19464",135109074,"L"
101262,"1970 HANALIMA ST S201","LIHUE","HI",96766,21.960693771,-159.388252441,262,"1970 HANALIMA ST S201, LIHUE, HI, 96766","Match","Exact","1970 HANALIMA ST, LIHUE, HI, 96766",647675537,"L"
101263,"1970 N 18TH AVE","MELROSE PARK","IL",60160,41.9107174150001,-87.856011022,263,"1970 N 18TH AVE, MELROSE PARK, IL, 60160","Match","Exact","1970 N 18TH AVE, MELROSE PARK, IL, 60160",605262738,"L"
101264,"1970 N LESLIE 297","PAHRUMP","NV",89060,NA,NA,264,"1970 N LESLIE 297, PAHRUMP, NV, 89060","No_Match",NA,NA,NA,NA
101265,"1970 N LESLIE ST NUM12","PAHRUMP","NV",89060,36.249431916,-116.050512125,265,"1970 N LESLIE ST NUM12, PAHRUMP, NV, 89060","Match","Non_Exact","1970 N LESLIE ST, PAHRUMP, NV, 89060",140723393,"L"
101266,"1970 OAKCREST AVE SUITE 217","SAINT PAUL","MN",55113,45.0178674750001,-93.182579339,266,"1970 OAKCREST AVE SUITE 217, SAINT PAUL, MN, 55113","Match","Exact","1970 OAKCREST AVE, SAINT PAUL, MN, 55113",97638221,"L"
101267,"1970 OAKWOOD ST","PASADENA","CA",91104,34.1749651850001,-118.109898246,267,"1970 OAKWOOD ST, PASADENA, CA, 91104","Match","Exact","1970 OAKWOOD ST, PASADENA, CA, 91104",141631898,"R"
101268,"1970 OLD CUTHBERT ROAD","CHERRY HILL","NJ",8034,39.9204489250001,-74.9713914439999,268,"1970 OLD CUTHBERT ROAD, CHERRY HILL, NJ, 8034","Match","Exact","1970 OLD CUTHBERT RD, CHERRY HILL, NJ, 08034",134397915,"L"
101269,"1970 ROCKBROOK CT","FORT WORTH","TX",76112,32.7497452480001,-97.1902928169999,269,"1970 ROCKBROOK CT, FORT WORTH, TX, 76112","Match","Exact","1970 ROCKBROOK CT, FORT WORTH, TX, 76112",637603507,"R"
101270,"1970 S HWY 27","CLERMONT","FL",34711,28.540702233,-81.7403352709999,270,"1970 S HWY 27, CLERMONT, FL, 34711","Match","Non_Exact","1970 US HWY 27, CLERMONT, FL, 34711",648661647,"R"
101271,"1970 STONE FOREST DRIVE","LAWRENCEVILLE","GA",30043,34.008888202,-84.016939695,271,"1970 STONE FOREST DRIVE, LAWRENCEVILLE, GA, 30043","Match","Exact","1970 STONE FOREST DR, LAWRENCEVILLE, GA, 30043",88918547,"L"
101272,"1970 W EXPRESSWAY 83","MERCEDES","TX",78570,NA,NA,272,"1970 W EXPRESSWAY 83, MERCEDES, TX, 78570","No_Match",NA,NA,NA,NA
101273,"1970 WILLOW BEACH ST","KEEGO HARBOR","MI",48320,42.6102065920001,-83.346566057,273,"1970 WILLOW BEACH ST, KEEGO HARBOR, MI, 48320","Match","Exact","1970 WILLOW BEACH ST, KEEGO HARBOR, MI, 48320",69703149,"R"
101274,"1970","KISSIMMEE","FL",34743,NA,NA,274,"1970, KISSIMMEE, FL, 34743","No_Match",NA,NA,NA,NA
101275,"19700 W CATAWBA AVE  SUITE B","CORNELIUS","NC",28031,35.48033646,-80.888238034,275,"19700 W CATAWBA AVE  SUITE B, CORNELIUS, NC, 28031","Match","Non_Exact","19700 W CATAWBA AVE, CORNELIUS, NC, 28031",70467590,"R"
101276,"19700 WHITAKER DRIVE UNIT 105","HUMBLE","TX",77338,30.0036677850001,-95.2763527719999,276,"19700 WHITAKER DRIVE UNIT 105, HUMBLE, TX, 77338","Match","Non_Exact","19700 WHITAKER RD, HUMBLE, TX, 77338",96663184,"R"
101277,"19701 BETHEL CHURCH RD STE 103-223","CORNELIUS","NC",28031,35.4793327530001,-80.887964573,277,"19701 BETHEL CHURCH RD STE 103-223, CORNELIUS, NC, 28031","Match","Exact","19701 BETHEL CHURCH RD, CORNELIUS, NC, 28031",70551889,"R"
101278,"19701 BETHEL CHURCH RD STE 322","CORNELIUS","NC",28031,35.4793327530001,-80.887964573,278,"19701 BETHEL CHURCH RD STE 322, CORNELIUS, NC, 28031","Match","Exact","19701 BETHEL CHURCH RD, CORNELIUS, NC, 28031",70551889,"R"
101279,"19701 FORRER","DETROIT","MI",48235,42.4359148880001,-83.2029332989999,279,"19701 FORRER, DETROIT, MI, 48235","Match","Non_Exact","19701 FORRER ST, DETROIT, MI, 48235",95423002,"L"
101280,"19701 LOCHERIE AVE","EUCLID","OH",44119,41.595012754,-81.542326975,280,"19701 LOCHERIE AVE, EUCLID, OH, 44119","Match","Exact","19701 LOCHERIE AVE, EUCLID, OH, 44119",61108053,"L"
101281,"19702 CHERRY OAKS LN","HUMBLE","TX",77346,30.003038673,-95.166574264,281,"19702 CHERRY OAKS LN, HUMBLE, TX, 77346","Match","Exact","19702 CHERRY OAKS LN, HUMBLE, TX, 77346",96417142,"L"
101282,"19702 CREEKSHORE DR","KATY","TX",77449,29.873504546,-95.710322181,282,"19702 CREEKSHORE DR, KATY, TX, 77449","Match","Exact","19702 CREEKSHORE DR, KATY, TX, 77449",96290607,"R"
101283,"19702 FLEETWOOD DRIVE","HARPERWOODS","MI",48225,42.44519682,-82.929986093,283,"19702 FLEETWOOD DRIVE, HARPERWOODS, MI, 48225","Match","Non_Exact","19702 FLEETWOOD DR, HARPER WOODS, MI, 48225",95486304,"L"
101284,"19702 SEABURY PATH CT","HOUSTON","TX",77449,29.8527943120001,-95.715305977,284,"19702 SEABURY PATH CT, HOUSTON, TX, 77449","Match","Non_Exact","19702 SEABURY PATH CT, KATY, TX, 77449",646704359,"R"
101285,"19703 RIO VILLA DR","HOUSTON","TX",77049,29.8290964390001,-95.074541026,285,"19703 RIO VILLA DR, HOUSTON, TX, 77049","Match","Exact","19703 RIO VILLA DR, HOUSTON, TX, 77049",641977269,"L"
101286,"19704 VIVACE DR","EDMOND","OK",73012,35.671971344,-97.5566716879999,286,"19704 VIVACE DR, EDMOND, OK, 73012","Match","Exact","19704 VIVACE DR, EDMOND, OK, 73012",646649654,"R"
101287,"19706 SHADY LANE AVE","SAINT CLAIRE SHORES","MI",48080,42.4580925540001,-82.9222423529999,287,"19706 SHADY LANE AVE, SAINT CLAIRE SHORES, MI, 48080","Match","Non_Exact","19706 SHADY LANE AVE, SAINT CLAIR SHORES, MI, 48080",110685411,"R"
101288,"19707 INTERNATIONAL BLVD UNIT 568","SEATTLE","WA",98188,47.42557844,-122.296095654,288,"19707 INTERNATIONAL BLVD UNIT 568, SEATTLE, WA, 98188","Match","Exact","19707 INTERNATIONAL BLVD, SEATTLE, WA, 98188",187035188,"L"
101289,"19708 SEA RIDER WAY","LUTZ","FL",33559,28.165841847,-82.426650531,289,"19708 SEA RIDER WAY, LUTZ, FL, 33559","Match","Exact","19708 SEA RIDER WAY, LUTZ, FL, 33559",628045802,"R"
101290,"19709 155TH ST","EDEN VALLEY","MN",55329,45.3474653870001,-94.5182960389999,290,"19709 155TH ST, EDEN VALLEY, MN, 55329","Match","Exact","19709 155TH ST, EDEN VALLEY, MN, 55329",612006603,"R"
101291,"19709 155TH STREET","EDEN VALLEY","MN",55329,45.3474653870001,-94.5182960389999,291,"19709 155TH STREET, EDEN VALLEY, MN, 55329","Match","Exact","19709 155TH ST, EDEN VALLEY, MN, 55329",612006603,"R"
101292,"19709 DEQUINDRE STREET","DETROIT","MI",48234,42.4386490960001,-83.083076089,292,"19709 DEQUINDRE STREET, DETROIT, MI, 48234","Match","Exact","19709 DEQUINDRE ST, DETROIT, MI, 48234",95463281,"L"
101293,"19709 MILLSTONE CROSSING DRIVE","EDMOND","OK",73012,35.671948382,-97.523563869,293,"19709 MILLSTONE CROSSING DRIVE, EDMOND, OK, 73012","Match","Exact","19709 MILLSTONE CROSSING DR, EDMOND, OK, 73012",646664134,"L"
101294,"1971 ALGONQUIN AVE","DELTONA","FL",32725,28.9184492530001,-81.253890976,294,"1971 ALGONQUIN AVE, DELTONA, FL, 32725","Match","Exact","1971 ALGONQUIN AVE, DELTONA, FL, 32725",94518882,"L"
101295,"1971 BIRCH CREST PLACE","DACULA","GA",30019,34.0169439630001,-83.925924601,295,"1971 BIRCH CREST PLACE, DACULA, GA, 30019","Match","Exact","1971 BIRCH CREST PL, DACULA, GA, 30019",627061469,"L"
101296,"1971 E PEMBROKE AVE","HAMPTON","VA",23663,37.0399572690001,-76.305818594,296,"1971 E PEMBROKE AVE, HAMPTON, VA, 23663","Match","Exact","1971 E PEMBROKE AVE, HAMPTON, VA, 23663",103760662,"L"
101297,"1971 EAST BELTLINE AVE NE SUITE 219","GRAND RAPIDS","MI",49525,42.9977579420001,-85.590505063,297,"1971 EAST BELTLINE AVE NE SUITE 219, GRAND RAPIDS, MI, 49525","Match","Exact","1971 E BELTLINE AVE NE, GRAND RAPIDS, MI, 49525",12488401,"L"
101298,"1971 EUCLID RD","NEW LONDON","OH",44851,41.0831952450001,-82.415959936,298,"1971 EUCLID RD, NEW LONDON, OH, 44851","Match","Exact","1971 EUCLID RD, NEW LONDON, OH, 44851",12624095,"L"
101299,"1971 JORDAN LN","ROCKWALL","TX",75032,32.8389500970001,-96.354890577,299,"1971 JORDAN LN, ROCKWALL, TX, 75032","Match","Exact","1971 JORDAN LN, ROCKWALL, TX, 75032",639238878,"L"
101300,"1971 LUMNSDEN RD STE 130","BRANDON","FL",33511,NA,NA,300,"1971 LUMNSDEN RD STE 130, BRANDON, FL, 33511","No_Match",NA,NA,NA,NA
101301,"1971 LUMSDEN RD STE 130","BRANDON","FL",33511,NA,NA,301,"1971 LUMSDEN RD STE 130, BRANDON, FL, 33511","No_Match",NA,NA,NA,NA
101302,"1971 N HALSTED STREET","CHICAGO","IL",60614,41.9173504890001,-87.6484655739999,302,"1971 N HALSTED STREET, CHICAGO, IL, 60614","Match","Non_Exact","1971 N HALSTED ST, CHICAGO, IL, 60614",639815529,"R"
101303,"1971 NW 188 TERRACE","MIAMI GARDENS","FL",33056,25.946417872,-80.2351731319999,303,"1971 NW 188 TERRACE, MIAMI GARDENS, FL, 33056","Match","Exact","1971 NW 188TH TER, MIAMI GARDENS, FL, 33056",116027900,"R"
101304,"1971 UNIVERSITY BLVD","LYNCHBURG","VA",24515,37.3570870230001,-79.171344054,304,"1971 UNIVERSITY BLVD, LYNCHBURG, VA, 24515","Match","Non_Exact","1971 UNIVERSITY BLVD, LYNCHBURG, VA, 24502",62737353,"R"
101305,"1971 W 72ND AVENUE","PHILADELPHIA","PA",19138,40.0641557280001,-75.149912593,305,"1971 W 72ND AVENUE, PHILADELPHIA, PA, 19138","Match","Exact","1971 72ND AVE, PHILADELPHIA, PA, 19138",131413045,"R"
101306,"1971 W LUMSDEN ROAD SUITE 111","BRANDON","FL",33511,NA,NA,306,"1971 W LUMSDEN ROAD SUITE 111, BRANDON, FL, 33511","No_Match",NA,NA,NA,NA
101307,"1971 WEST LUMSDEN ROAD 139","BRANDON","FL",33511,NA,NA,307,"1971 WEST LUMSDEN ROAD 139, BRANDON, FL, 33511","No_Match",NA,NA,NA,NA
101308,"1971 WESTERN AVE 184","ALBANY","NY",12203,42.694859298,-73.8800341039999,308,"1971 WESTERN AVE 184, ALBANY, NY, 12203","Match","Exact","1971 WESTERN AVE, ALBANY, NY, 12203",648992274,"R"
101309,"1971 WESTERN AVENUE STE 200","ALBANY","NY",12203,42.694859298,-73.8800341039999,309,"1971 WESTERN AVENUE STE 200, ALBANY, NY, 12203","Match","Exact","1971 WESTERN AVE, ALBANY, NY, 12203",648992274,"R"
101310,"19710 EMERALD SPRINGS DR","HOUSTON","TX",77094,29.767075364,-95.710065465,310,"19710 EMERALD SPRINGS DR, HOUSTON, TX, 77094","Match","Exact","19710 EMERALD SPRINGS DR, HOUSTON, TX, 77094",96289182,"L"
101311,"19710 FOLONARI","SAN ANTONIO","TX",78258,29.623869992,-98.516770986,311,"19710 FOLONARI, SAN ANTONIO, TX, 78258","Match","Exact","19710 FOLONARI, SAN ANTONIO, TX, 78258",101575367,"R"
101312,"19710 SE 7TH WAY","CAMAS","WA",98607,45.617033989,-122.469954263,312,"19710 SE 7TH WAY, CAMAS, WA, 98607","Match","Exact","19710 SE 7TH WAY, CAMAS, WA, 98607",158366130,"L"
101313,"19711 MAYALL ST","CHATSWORTH","CA",91311,34.253634736,-118.562763139,313,"19711 MAYALL ST, CHATSWORTH, CA, 91311","Match","Exact","19711 MAYALL ST, CHATSWORTH, CA, 91311",642865522,"R"
101314,"19711 SMITH CIRCLE","CORNELIUS","NC",28031,35.4827479940001,-80.8676752219999,314,"19711 SMITH CIRCLE, CORNELIUS, NC, 28031","Match","Exact","19711 SMITH CIR, CORNELIUS, NC, 28031",70468512,"L"
101315,"19711 SPANISH NEEDLE DR","HOUSTON","TX",77084,29.8063875880001,-95.7160572929999,315,"19711 SPANISH NEEDLE DR, HOUSTON, TX, 77084","Match","Exact","19711 SPANISH NEEDLE DR, HOUSTON, TX, 77084",96014662,"R"
101316,"19711 WARRINGTON DRIVE","DETROIT","MI",48221,42.438245314,-83.140565757,316,"19711 WARRINGTON DRIVE, DETROIT, MI, 48221","Match","Exact","19711 WARRINGTON DR, DETROIT, MI, 48221",640625470,"L"
101317,"19712 ALBERT AVENUE","CERRITOS","CA",90703,33.8512717580001,-118.079009476,317,"19712 ALBERT AVENUE, CERRITOS, CA, 90703","Match","Exact","19712 ALBERT AVE, CERRITOS, CA, 90703",141744784,"L"
101318,"19713 GULF BLVD","INDIAN SHORES","FL",33785,27.857726465,-82.846788822,318,"19713 GULF BLVD, INDIAN SHORES, FL, 33785","Match","Exact","19713 GULF BLVD, INDIAN SHORES, FL, 33785",124663463,"R"
101319,"19713 JAMAICA  AVE","HOLLIS","NY",11423,NA,NA,319,"19713 JAMAICA  AVE, HOLLIS, NY, 11423","No_Match",NA,NA,NA,NA
101320,"19713 JAMES MANOR ST","MANOR","TX",78653,30.355295816,-97.5088074879999,320,"19713 JAMES MANOR ST, MANOR, TX, 78653","Match","Exact","19713 JAMES MANOR ST, MANOR, TX, 78653",649000904,"R"
101321,"19714 104TH AVE E","GRAHAM","WA",98338,47.0767853290001,-122.291607309,321,"19714 104TH AVE E, GRAHAM, WA, 98338","Match","Exact","19714 104TH AVE E, GRAHAM, WA, 98338",184703207,"R"
101322,"19714 BEECHAM LAKE LN","RICHMOND","TX",77407,29.6931598990001,-95.727418013,322,"19714 BEECHAM LAKE LN, RICHMOND, TX, 77407","Match","Exact","19714 BEECHAM LAKE LN, RICHMOND, TX, 77407",628073523,"L"
101323,"19714 ST CROIX RD","PINE CITY","MN",55063,45.817364379,-92.9545133139999,323,"19714 ST CROIX RD, PINE CITY, MN, 55063","Match","Non_Exact","19714 SAINT CROIX RD SE, PINE CITY, MN, 55063",611853942,"L"
101324,"19715 LA GRANGE RD SUITE 2","MOKENA","IL",60488,NA,NA,324,"19715 LA GRANGE RD SUITE 2, MOKENA, IL, 60488","No_Match",NA,NA,NA,NA
101325,"19715 MOONHOLLOW DR","HOUSTON","TX",77084,29.803713019,-95.7163329209999,325,"19715 MOONHOLLOW DR, HOUSTON, TX, 77084","Match","Exact","19715 MOONHOLLOW DR, HOUSTON, TX, 77084",96014695,"R"
101326,"19717 SOUTH 120TH WAY","CHANDLER","AZ",85286,33.268169475,-111.82267775,326,"19717 SOUTH 120TH WAY, CHANDLER, AZ, 85286","Match","Exact","19717 S 120TH WAY, CHANDLER, AZ, 85286",646719941,"R"
101327,"19718 TISKILWA BOTTOM RD","PRINCETON","IL",61356,41.283397074,-89.4744179749999,327,"19718 TISKILWA BOTTOM RD, PRINCETON, IL, 61356","Match","Exact","19718 TISKILWA BOTTOM RD, PRINCETON, IL, 61356",8496277,"L"
101328,"19718 W PIERSON RD","PIERSON","MI",49339,43.3231972310001,-85.47577079,328,"19718 W PIERSON RD, PIERSON, MI, 49339","Match","Exact","19718 PIERSON RD, PIERSON, MI, 49339",110575384,"L"
101329,"1972 ABBEY PROVINCE","AUSTELL","GA",30168,33.796044866,-84.612924268,329,"1972 ABBEY PROVINCE, AUSTELL, GA, 30168","Match","Exact","1972 ABBEY PROVINCE, AUSTELL, GA, 30168",17218331,"R"
101330,"1972 ASHLEY STREET","PHILADELPHIA","PA",19138,40.0662379880001,-75.149729295,330,"1972 ASHLEY STREET, PHILADELPHIA, PA, 19138","Match","Exact","1972 ASHLEY ST, PHILADELPHIA, PA, 19138",131413035,"L"
101331,"1972 E BROOKINGS DR","DRAPER","UT",84020,40.460078466,-111.832130411,331,"1972 E BROOKINGS DR, DRAPER, UT, 84020","Match","Exact","1972 BROOKINGS DR, DRAPER, UT, 84020",619126443,"R"
101332,"1972 E MERLOT STREET","GILBERT","AZ",85298,33.2209385,-111.747718253,332,"1972 E MERLOT STREET, GILBERT, AZ, 85298","Match","Exact","1972 E MERLOT ST, GILBERT, AZ, 85298",624904142,"L"
101333,"1972 EAST 34TH STREET","BROOKLYN","NY",11234,40.6092990280001,-73.933354949,333,"1972 EAST 34TH STREET, BROOKLYN, NY, 11234","Match","Exact","1972 E 34TH ST, BROOKLYN, NY, 11234",59090552,"R"
101334,"1972 FIRETHORN PATH","SPRING BRANCH","TX",78070,29.843580285,-98.425793979,334,"1972 FIRETHORN PATH, SPRING BRANCH, TX, 78070","Match","Exact","1972 FIRETHORN PATH, SPRING BRANCH, TX, 78070",72254340,"R"
101335,"1972 GRIFFIN DRIVE","VALLEJO","CA",94589,38.1435672310001,-122.2328849,335,"1972 GRIFFIN DRIVE, VALLEJO, CA, 94589","Match","Exact","1972 GRIFFIN DR, VALLEJO, CA, 94589",192532265,"R"
101336,"1972 LIONEL STREET","AUGUSTA","GA",30906,33.439151398,-82.007104722,336,"1972 LIONEL STREET, AUGUSTA, GA, 30906","Match","Exact","1972 LIONEL ST, AUGUSTA, GA, 30906",55657334,"L"
101337,"1972 N CLEVELAND-MASSILLON ROAD","AKRON","OH",44333,41.1891150120001,-81.636378327,337,"1972 N CLEVELAND-MASSILLON ROAD, AKRON, OH, 44333","Match","Non_Exact","1972 N CLEVELAND MASSILLON RD, AKRON, OH, 44333",61393886,"L"
101338,"1972 NEW SCOTLAND RD NUM 1020","SLINGERLANDS","NY",12159,42.632259575,-73.902089071,338,"1972 NEW SCOTLAND RD NUM 1020, SLINGERLANDS, NY, 12159","Match","Non_Exact","1972 NEW SCOTLAND RD, SLINGERLANDS, NY, 12159",18303777,"L"
101339,"1972 QUEBEC AVENUE","SAN LEANDRO","CA",94579,37.6787647680001,-122.154567625,339,"1972 QUEBEC AVENUE, SAN LEANDRO, CA, 94579","Match","Exact","1972 QUEBEC AVE, SAN LEANDRO, CA, 94579",125018914,"L"
101340,"1972 S 400 W","SUNSET","UT",84015,41.142325326,-112.034031144,340,"1972 S 400 W, SUNSET, UT, 84015","Match","Non_Exact","1972 N 400 W, SUNSET, UT, 84015",229350472,"R"
101341,"1972 STINE ROAD","BAKERSDIELD","CA",93309,35.3371959510001,-119.052157123,341,"1972 STINE ROAD, BAKERSDIELD, CA, 93309","Match","Non_Exact","1972 STINE RD, BAKERSFIELD, CA, 93309",109086232,"L"
101342,"19720 LAKE SHORE DRIVE COURT","LYNWOOD","IL",60411,41.5376266160001,-87.55314552,342,"19720 LAKE SHORE DRIVE COURT, LYNWOOD, IL, 60411","Match","Exact","19720 LAKE SHORE DRIVE CT, LYNWOOD, IL, 60411",111785393,"R"
101343,"19721 BEALL STREET PO BOX 158","POOLESVILLE","MD",20837,39.145539903,-77.41098905,343,"19721 BEALL STREET PO BOX 158, POOLESVILLE, MD, 20837","Match","Exact","19721 BEALL ST, POOLESVILLE, MD, 20837",641004246,"L"
101344,"19721 SCRIBER LAKE ROAD SUITE C","LYNNWOOD","WA",98036,47.820077999,-122.31191619,344,"19721 SCRIBER LAKE ROAD SUITE C, LYNNWOOD, WA, 98036","Match","Exact","19721 SCRIBER LAKE RD, LYNNWOOD, WA, 98036",187753783,"L"
101345,"19722 CAMERON AVENUE","COVINA","CA",91724,34.056762802,-117.868355947,345,"19722 CAMERON AVENUE, COVINA, CA, 91724","Match","Non_Exact","19722 E CAMERON AVE, COVINA, CA, 91724",142787665,"R"
101346,"19722 CENTER STREET","CASTRO VALLEY","CA",94546,37.699969965,-122.061293818,346,"19722 CENTER STREET, CASTRO VALLEY, CA, 94546","Match","Exact","19722 CENTER ST, CASTRO VALLEY, CA, 94546",125015974,"L"
101347,"19722 MOSS BARK TRAIL","RICHMOND","TX",77407,29.666394123,-95.727207043,347,"19722 MOSS BARK TRAIL, RICHMOND, TX, 77407","Match","Exact","19722 MOSS BARK TRL, RICHMOND, TX, 77407",627522939,"L"
101348,"19722 TIMBERFIELD CT","KATY","TX",77449,29.827990346,-95.716238398,348,"19722 TIMBERFIELD CT, KATY, TX, 77449","Match","Exact","19722 TIMBERFIELD CT, KATY, TX, 77449",96299883,"L"
101349,"19723 112TH AVE NE D203","BOTHELL","WA",98011,47.7700666360001,-122.190939369,349,"19723 112TH AVE NE D203, BOTHELL, WA, 98011","Match","Exact","19723 112TH AVE NE, BOTHELL, WA, 98011",187046606,"L"
101350,"19723 CANNON FIRE DR","KATY","TX",77449,29.864527347,-95.717234334,350,"19723 CANNON FIRE DR, KATY, TX, 77449","Match","Exact","19723 CANNON FIRE DR, KATY, TX, 77449",635067307,"R"
101351,"19723 E 1140 RD","ELK CITY","OK",73644,35.3640160590001,-99.466175762,351,"19723 E 1140 RD, ELK CITY, OK, 73644","Match","Non_Exact","19723 E 1140, ELK CITY, OK, 73644",151549146,"L"
101352,"19723 PLANTATION GROVE TRAIL","KATY","TX",77449,29.8589864090001,-95.715706756,352,"19723 PLANTATION GROVE TRAIL, KATY, TX, 77449","Match","Exact","19723 PLANTATION GROVE TRL, KATY, TX, 77449",642105136,"L"
101353,"19724 365TH ST","EARLHAM","IA",50072,41.510308336,-94.097427478,353,"19724 365TH ST, EARLHAM, IA, 50072","Match","Exact","19724 365TH ST, EARLHAM, IA, 50072",635598441,"R"
101354,"19724 COUNTY ROAD 3404","CHANDLER","TX",75758,32.254604611,-95.525441321,354,"19724 COUNTY ROAD 3404, CHANDLER, TX, 75758","Match","Exact","19724 CO RD 3404, CHANDLER, TX, 75758",125817623,"R"
101355,"19725 7TH ST E","SONOMA","CA",95476,38.2861853220001,-122.440273222,355,"19725 7TH ST E, SONOMA, CA, 95476","Match","Exact","19725 7TH ST E, SONOMA, CA, 95476",67482062,"L"
101356,"19726 OLD HOMESTEAD DR","HARPER WOODS","MI",48225,42.436849082,-82.933890536,356,"19726 OLD HOMESTEAD DR, HARPER WOODS, MI, 48225","Match","Exact","19726 OLD HOMESTEAD DR, HARPER WOODS, MI, 48225",95486556,"R"
101357,"19726 RODEO ROAD","RICHLAND","MO",65556,37.876108113,-92.377819293,357,"19726 RODEO ROAD, RICHLAND, MO, 65556","Match","Exact","19726 RODEO RD, RICHLAND, MO, 65556",26385312,"R"
101358,"19727 ELEANOR MEADOW LN","CYPRESS","TX",77429,30.0005090490001,-95.720355807,358,"19727 ELEANOR MEADOW LN, CYPRESS, TX, 77429","Match","Non_Exact","19727 ELANOR MEADOW LN, CYPRESS, TX, 77429",650227410,"L"
101359,"19727 EXECUTIVE PARK CIRCLE","GERMANTOWN","MD",20874,39.180852482,-77.2747350339999,359,"19727 EXECUTIVE PARK CIRCLE, GERMANTOWN, MD, 20874","Match","Exact","19727 EXECUTIVE PARK CIR, GERMANTOWN, MD, 20874",62091670,"R"
101360,"19727 N 53RD AVE","GLENDALE","AZ",85308,33.6645240230001,-112.173521117,360,"19727 N 53RD AVE, GLENDALE, AZ, 85308","Match","Exact","19727 N 53RD AVE, GLENDALE, AZ, 85308",128392571,"R"
101361,"19727 N HIGHWAY 65","SAINT JOE","AR",72675,36.051862197,-92.8492055789999,361,"19727 N HIGHWAY 65, SAINT JOE, AR, 72675","Match","Non_Exact","19727 S HWY 65, SAINT JOE, AR, 72675",623920822,"L"
101362,"19728 SAUMS RD  STE 173","HOUSTON","TX",77084,29.800303032,-95.718609183,362,"19728 SAUMS RD  STE 173, HOUSTON, TX, 77084","Match","Exact","19728 SAUMS RD, HOUSTON, TX, 77084",644768509,"L"
101363,"19728 SAUMS ROAD SUITE 196","HOUSTON","TX",77084,29.800303032,-95.718609183,363,"19728 SAUMS ROAD SUITE 196, HOUSTON, TX, 77084","Match","Exact","19728 SAUMS RD, HOUSTON, TX, 77084",644768509,"L"
101364,"19729 EAST SAN TAN BLVD","QUEEN CREEK","AZ",85142,33.2121803270001,-111.657468747,364,"19729 EAST SAN TAN BLVD, QUEEN CREEK, AZ, 85142","Match","Exact","19729 E SAN TAN BLVD, QUEEN CREEK, AZ, 85142",243917738,"R"
101365,"1973 290TH STREET","GARNER","IA",50438,43.184188411,-93.601446407,365,"1973 290TH STREET, GARNER, IA, 50438","Match","Exact","1973 290TH ST, GARNER, IA, 50438",635884675,"L"
101366,"1973 ADAMS RANCH ROAD","CADDO MILLS","TX",75135,33.0190181560001,-96.164113191,366,"1973 ADAMS RANCH ROAD, CADDO MILLS, TX, 75135","Match","Exact","1973 ADAMS RANCH RD, CADDO MILLS, TX, 75135",42885461,"L"
101367,"1973 CHIPPEWA CT","GRAFTON","WI",53024,43.3072506680001,-87.926883484,367,"1973 CHIPPEWA CT, GRAFTON, WI, 53024","Match","Exact","1973 CHIPPEWA CT, GRAFTON, WI, 53024",625290911,"R"
101368,"1973 DESERT CIR 2","WALNUT CREEK","CA",94598,37.91989785,-122.033755181,368,"1973 DESERT CIR 2, WALNUT CREEK, CA, 94598","Match","Exact","1973 DESERT CIR, WALNUT CREEK, CA, 94598",192056901,"R"
101369,"1973 E MARYLAND AVE","PHOENIX","AZ",85016,33.5310150280001,-112.039315223,369,"1973 E MARYLAND AVE, PHOENIX, AZ, 85016","Match","Exact","1973 E MARYLAND AVE, PHOENIX, AZ, 85016",642858677,"R"
101370,"1973 HORSESHOE GLENN CIR","FOLSOM","CA",95630,38.647872981,-121.093258058,370,"1973 HORSESHOE GLENN CIR, FOLSOM, CA, 95630","Match","Non_Exact","1973 HORSESHOE GLEN CIR, FOLSOM, CA, 95630",614157614,"L"
101371,"1973 J N PEASE PLACE SUITE 102","CHARLOTTE","NC",28262,NA,NA,371,"1973 J N PEASE PLACE SUITE 102, CHARLOTTE, NC, 28262","No_Match",NA,NA,NA,NA
101372,"1973 KENNEDY DR","MCLEAN","VA",22102,38.9143639340001,-77.213151286,372,"1973 KENNEDY DR, MCLEAN, VA, 22102","Match","Exact","1973 KENNEDY DR, MCLEAN, VA, 22102",75962372,"L"
101373,"1973 LANE DRIVE","BELOIT","WI",53511,42.5278435430001,-89.013906515,373,"1973 LANE DRIVE, BELOIT, WI, 53511","Match","Exact","1973 LANE DR, BELOIT, WI, 53511",49857537,"R"
101374,"1973 MASSACHUSETTS AVE","MCLEAN","VA",22101,38.9114672590001,-77.1567360729999,374,"1973 MASSACHUSETTS AVE, MCLEAN, VA, 22101","Match","Exact","1973 MASSACHUSETTS AVE, MCLEAN, VA, 22101",75964171,"L"
101375,"1973 MERRYVALE ROAD","VESTAVIA HILLS","AL",35216,33.4339944220001,-86.788895387,375,"1973 MERRYVALE ROAD, VESTAVIA HILLS, AL, 35216","Match","Exact","1973 MERRYVALE RD, VESTAVIA HILLS, AL, 35216",641585804,"R"
101376,"1973 MERRYVALE ROAD","VESTAVIA","AL",35216,33.4339944220001,-86.788895387,376,"1973 MERRYVALE ROAD, VESTAVIA, AL, 35216","Match","Exact","1973 MERRYVALE RD, VESTAVIA, AL, 35216",641585804,"R"
101377,"1973 ORB CT","UNION","KY",41091,NA,NA,377,"1973 ORB CT, UNION, KY, 41091","No_Match",NA,NA,NA,NA
101378,"1973 PAXTON RIDGE LANE","LILBURN","GA",30047,33.837972275,-84.0766672,378,"1973 PAXTON RIDGE LANE, LILBURN, GA, 30047","Match","Exact","1973 PAXTON RIDGE LN, LILBURN, GA, 30047",646935740,"L"
101379,"1973 SANDERSVILLE ROAD","LEXINGTON","KY",40511,38.0861481200001,-84.509146335,379,"1973 SANDERSVILLE ROAD, LEXINGTON, KY, 40511","Match","Exact","1973 SANDERSVILLE RD, LEXINGTON, KY, 40511",31950512,"L"
101380,"1973 ST MARYS DRIVE","SALT LAKE CITY","UT",84108,40.7384789330001,-111.834275276,380,"1973 ST MARYS DRIVE, SALT LAKE CITY, UT, 84108","Match","Non_Exact","1973 E SAINT MARYS DR, SALT LAKE CITY, UT, 84108",176118224,"L"
101381,"1973 STANLEY BLVD","BIRMINGHAM","MI",48009,42.5318498070001,-83.219085934,381,"1973 STANLEY BLVD, BIRMINGHAM, MI, 48009","Match","Exact","1973 STANLEY BLVD, BIRMINGHAM, MI, 48009",69735474,"L"
101382,"1973 SUGAR SPRINGS RD","FESTUS","MO",63028,38.1692973310001,-90.409795364,382,"1973 SUGAR SPRINGS RD, FESTUS, MO, 63028","Match","Exact","1973 SUGAR SPRINGS RD, FESTUS, MO, 63028",649763020,"R"
101383,"1973 SWINDON PLACE","HOFFMAN ESTATES","IL",60169,42.060448034,-88.1306347079999,383,"1973 SWINDON PLACE, HOFFMAN ESTATES, IL, 60169","Match","Exact","1973 SWINDON PL, HOFFMAN EST, IL, 60169",111691093,"R"
101384,"1973 VISTA DEL MAR","SAN MATEO","CA",94404,37.554160944,-122.287892101,384,"1973 VISTA DEL MAR, SAN MATEO, CA, 94404","Match","Exact","1973 VIS DEL MAR, SAN MATEO, CA, 94404",192411047,"R"
101385,"1973 WEST 48TH STREET","LOS ANGELES","CA",90062,34.000066412,-118.315427418,385,"1973 WEST 48TH STREET, LOS ANGELES, CA, 90062","Match","Exact","1973 W 48TH ST, LOS ANGELES, CA, 90062",141606447,"R"
101386,"19731 243RD AVE NE","REDMOND","WA",98053,NA,NA,386,"19731 243RD AVE NE, REDMOND, WA, 98053","No_Match",NA,NA,NA,NA
101387,"19731 CHENEYS GROVE RD","BLOOMINGTON","IL",61705,40.4384059770001,-88.885368592,387,"19731 CHENEYS GROVE RD, BLOOMINGTON, IL, 61705","Match","Exact","19731 CHENEYS GROVE RD, BLOOMINGTON, IL, 61705",625081849,"R"
101388,"19732 GREENSIDE TER","MONTGOMERY VILLAGE","MD",20886,39.179807328,-77.1998537269999,388,"19732 GREENSIDE TER, MONTGOMERY VILLAGE, MD, 20886","Match","Exact","19732 GREENSIDE TER, MONTGOMERY VILLAGE, MD, 20886",62050077,"R"
101389,"19733 VICTORY BLVD","WOODLAND HILLS","CA",91367,34.186637573,-118.563039504,389,"19733 VICTORY BLVD, WOODLAND HILLS, CA, 91367","Match","Non_Exact","19733 W VICTORY BLVD, WOODLAND HILLS, CA, 91367",241188578,"R"
101390,"19736 WESTMORELAND","DETROIT","MI",48219,42.435556181,-83.236896787,390,"19736 WESTMORELAND, DETROIT, MI, 48219","Match","Non_Exact","19736 WESTMORELAND RD, DETROIT, MI, 48219",95421718,"R"
101391,"19738 COPPERVINE LN","HOUSTON","TX",77084,29.7930455050001,-95.717187913,391,"19738 COPPERVINE LN, HOUSTON, TX, 77084","Match","Exact","19738 COPPERVINE LN, HOUSTON, TX, 77084",96016761,"L"
101392,"19738 SEPTO","CHATSWORTH","CA",91311,34.2509465260001,-118.563717661,392,"19738 SEPTO, CHATSWORTH, CA, 91311","Match","Non_Exact","19738 SEPTO ST, CHATSWORTH, CA, 91311",142712057,"L"
101393,"19739 E 75 ST N","OWASSO","OK",74055,36.263205869,-95.753018206,393,"19739 E 75 ST N, OWASSO, OK, 74055","Match","Exact","19739 E 75TH ST N, OWASSO, OK, 74055",653427473,"L"
101394,"19739 WADLEY AVENUE","CARSON","CA",90746,33.853227856,-118.261282449,394,"19739 WADLEY AVENUE, CARSON, CA, 90746","Match","Exact","19739 WADLEY AVE, CARSON, CA, 90746",141680497,"R"
101395,"1974 53RD STREET","BROOKLYN","NY",11204,40.6237015510001,-73.97941531,395,"1974 53RD STREET, BROOKLYN, NY, 11204","Match","Exact","1974 53RD ST, BROOKLYN, NY, 11204",59089259,"R"
101396,"1974 BATHGATE AVE 1 FLOOR","BRONX","NY",10457,40.8484194960001,-73.8962831389999,396,"1974 BATHGATE AVE 1 FLOOR, BRONX, NY, 10457","Match","Exact","1974 BATHGATE AVE, BRONX, NY, 10457",80301169,"R"
101397,"1974 BROOKVIEW DR","KENT","OH",44240,41.147150385,-81.321973139,397,"1974 BROOKVIEW DR, KENT, OH, 44240","Match","Exact","1974 BROOKVIEW DR, KENT, OH, 44240",137516582,"R"
101398,"1974 DECATUR AVE","N BELLMORE","NY",11710,40.696504723,-73.5522854869999,398,"1974 DECATUR AVE, N BELLMORE, NY, 11710","Match","Exact","1974 DECATUR AVE, N BELLMORE, NY, 11710",147634776,"R"
101399,"1974 E MCANDREWS","MEDFORD","OR",97504,42.3419828300001,-122.856155716,399,"1974 E MCANDREWS, MEDFORD, OR, 97504","Match","Non_Exact","1974 E MCANDREWS RD, MEDFORD, OR, 97504",155540058,"R"
101400,"1974 NE 3RD COURT","HOMESTEAD","FL",33033,25.473522498,-80.449856666,400,"1974 NE 3RD COURT, HOMESTEAD, FL, 33033","Match","Exact","1974 NE 3RD CT, HOMESTEAD, FL, 33033",625077782,"R"
101401,"1974 NORTH 23RD STREET","LARAMIE","WY",82072,41.3288744700001,-105.566066578,401,"1974 NORTH 23RD STREET, LARAMIE, WY, 82072","Match","Non_Exact","1974 23RD ST, LARAMIE, WY, 82072",646504893,"L"
101402,"1974 PADGETT DRIVE","AUSTELL","GA",30106,33.846658731,-84.6133337539999,402,"1974 PADGETT DRIVE, AUSTELL, GA, 30106","Match","Exact","1974 PADGETT DR, AUSTELL, GA, 30106",17201529,"L"
101403,"1974 PIUTE ST","SOUTH LAKE TAHOE","CA",96150,38.8578760550001,-120.016996648,403,"1974 PIUTE ST, SOUTH LAKE TAHOE, CA, 96150","Match","Exact","1974 PIUTE ST, SOUTH LAKE TAHOE, CA, 96150",133022696,"L"
101404,"1974 PRAIRIE RD","WEST PALM BEACH","FL",33406,26.6473943560001,-80.0839386659999,404,"1974 PRAIRIE RD, WEST PALM BEACH, FL, 33406","Match","Exact","1974 PRAIRIE RD, WEST PALM BEACH, FL, 33406",115274009,"L"
101405,"1974 RED HOUSE RD","RICHMOND","KY",40475,37.8041616950001,-84.268611576,405,"1974 RED HOUSE RD, RICHMOND, KY, 40475","Match","Exact","1974 RED HOUSE RD, RICHMOND, KY, 40475",31982200,"L"
101406,"1974 W 2ND ST","JACKSONVILLE","FL",32209,30.340358537,-81.692349291,406,"1974 W 2ND ST, JACKSONVILLE, FL, 32209","Match","Non_Exact","1974 W 2ND ST, JACKSONVILLE, FL, 32209",83894039,"L"
101407,"1974 WESCOTT RD","COLUSA","CA",95932,39.19604715,-122.007660216,407,"1974 WESCOTT RD, COLUSA, CA, 95932","Match","Exact","1974 WESCOTT RD, COLUSA, CA, 95932",67128667,"L"
101408,"19740 GLENWOOD AVE","RIVERSIDE","CA",92508,33.8638888680001,-117.319924604,408,"19740 GLENWOOD AVE, RIVERSIDE, CA, 92508","Match","Exact","19740 GLENWOOD AVE, RIVERSIDE, CA, 92508",631010338,"L"
101409,"19741 LIVE OAK CANYON RD","TRABUCO CANYON","CA",92679,33.675108102,-117.60210938,409,"19741 LIVE OAK CANYON RD, TRABUCO CANYON, CA, 92679","Match","Exact","19741 LIVE OAK CANYON RD, TRABUCO CANYON, CA, 92679",144391579,"R"
101410,"19741 SE COUNTY LINE RD","JUPITER","FL",33469,26.9706078290001,-80.095835337,410,"19741 SE COUNTY LINE RD, JUPITER, FL, 33469","Match","Exact","19741 COUNTY LINE RD, JUPITER, FL, 33469",642891966,"L"
101411,"19742 HIAWATHA ROAD","ODESSA","FL",33556,28.1683580930001,-82.5672273389999,411,"19742 HIAWATHA ROAD, ODESSA, FL, 33556","Match","Exact","19742 HIAWATHA RD, ODESSA, FL, 33556",104563444,"L"
101412,"19744 BEACH BLVD STE 148","HUNTINGTON BEACH","CA",92648,33.675469917,-117.988489473,412,"19744 BEACH BLVD STE 148, HUNTINGTON BEACH, CA, 92648","Match","Exact","19744 BEACH BLVD, HUNTINGTON BEACH, CA, 92648",609063242,"L"
101413,"19744 BEACH BVLD STE 418","HUNTINGTON BEACH","CA",92648,33.675469917,-117.988489473,413,"19744 BEACH BVLD STE 418, HUNTINGTON BEACH, CA, 92648","Match","Exact","19744 BEACH BLVD, HUNTINGTON BEACH, CA, 92648",609063242,"L"
101414,"19746 BLACK FALCON ROAD","LOXAHATCHEE","FL",33470,26.7226701540001,-80.3584289349999,414,"19746 BLACK FALCON ROAD, LOXAHATCHEE, FL, 33470","Match","Exact","19746 BLACK FALCON RD, LOXAHATCHEE, FL, 33470",115345015,"R"
101415,"19746 E HICKOX RD","MOUNT VERNON","WA",98273,48.384757173,-122.318920806,415,"19746 E HICKOX RD, MOUNT VERNON, WA, 98273","Match","Non_Exact","19746 E HICKOX RD, MOUNT VERNON, WA, 98274",183669437,"R"
101416,"19748 E IDA PLACE","AURORA","CO",80015,39.6081830420001,-104.758212445,416,"19748 E IDA PLACE, AURORA, CO, 80015","Match","Exact","19748 E IDA PL, AURORA, CO, 80015",177520297,"L"
101417,"1974A DOUGLASS BLVD SUITE 101","LOUISVILLE","KY",40205,38.2242224840001,-85.694725475,417,"1974A DOUGLASS BLVD SUITE 101, LOUISVILLE, KY, 40205","Match","Exact","1974 DOUGLASS BLVD, LOUISVILLE, KY, 40205",618509164,"R"
101418,"1974A DOUGLASS BLVD SUITE 200","LOUISVILLE","KY",40205,38.2242224840001,-85.694725475,418,"1974A DOUGLASS BLVD SUITE 200, LOUISVILLE, KY, 40205","Match","Exact","1974 DOUGLASS BLVD, LOUISVILLE, KY, 40205",618509164,"R"
101419,"1975 BALL PARK WAY UNIT 202635","ARLINGTON","TX",76006,32.765864865,-97.0736468009999,419,"1975 BALL PARK WAY UNIT 202635, ARLINGTON, TX, 76006","Match","Non_Exact","1975 BALLPARK WAY, ARLINGTON, TX, 76006",102138844,"R"
101420,"1975 BEULAH AVENUE","EAST TROY","WI",53120,42.78930517,-88.4097881389999,420,"1975 BEULAH AVENUE, EAST TROY, WI, 53120","Match","Exact","1975 BEULAH AVE, EAST TROY, WI, 53120",639268714,"L"
101421,"1975 BLOSSOM AVE","FAIRFIELD","CA",94533,38.264892194,-122.014840016,421,"1975 BLOSSOM AVE, FAIRFIELD, CA, 94533","Match","Exact","1975 BLOSSOM AVE, FAIRFIELD, CA, 94533",192553910,"L"
101422,"1975 CASE WESTERN DRIVE SE","MASSILON","OH",44646,40.773790514,-81.492367542,422,"1975 CASE WESTERN DRIVE SE, MASSILON, OH, 44646","Match","Non_Exact","1975 CASE WESTERN DR SE, MASSILLON, OH, 44646",64713385,"R"
101423,"1975 CHATTERTON AVE  APT 1","BRONX","NY",10472,40.827412709,-73.8570869389999,423,"1975 CHATTERTON AVE  APT 1, BRONX, NY, 10472","Match","Exact","1975 CHATTERTON AVE, BRONX, NY, 10472",80305034,"L"
101424,"1975 CUTLEAF CREEK RD","GRAYSON","GA",30017,33.907842332,-83.931652492,424,"1975 CUTLEAF CREEK RD, GRAYSON, GA, 30017","Match","Exact","1975 CUTLEAF CREEK RD, GRAYSON, GA, 30017",636117314,"R"
101425,"1975 EAST 221ST STREET","EUCLID","OH",44117,41.566214899,-81.527179683,425,"1975 EAST 221ST STREET, EUCLID, OH, 44117","Match","Exact","1975 E 221ST ST, EUCLID, OH, 44117",61124426,"L"
101426,"1975 ERIN WAY","GLENDALE","CA",91206,34.1775581270001,-118.207115977,426,"1975 ERIN WAY, GLENDALE, CA, 91206","Match","Exact","1975 ERIN WAY, GLENDALE, CA, 91206",142807525,"R"
101427,"1975 GRANT STREET  SUITE 410","DENVER","CO",80203,39.7471625250001,-104.98359277,427,"1975 GRANT STREET  SUITE 410, DENVER, CO, 80203","Match","Exact","1975 GRANT ST, DENVER, CO, 80203",177305553,"L"
101428,"1975 HAMILTON AVE STE 6A","SAN JOSE","CA",95125,37.294386064,-121.921868081,428,"1975 HAMILTON AVE STE 6A, SAN JOSE, CA, 95125","Match","Exact","1975 HAMILTON AVE, SAN JOSE, CA, 95125",123180671,"R"
101429,"1975 INGLIS WAY","ROSEVILLE","CA",95678,38.7324098920001,-121.297726248,429,"1975 INGLIS WAY, ROSEVILLE, CA, 95678","Match","Exact","1975 INGLIS WAY, ROSEVILLE, CA, 95678",106764009,"L"
101430,"1975 JEFFERSON AVE SE","GRAND RAPIDS","MI",49507,42.9281201680001,-85.662909778,430,"1975 JEFFERSON AVE SE, GRAND RAPIDS, MI, 49507","Match","Exact","1975 JEFFERSON AVE SE, GRAND RAPIDS, MI, 49507",12459495,"R"
101431,"1975 LEGACY CIRCLE","ELIZABETH","CO",80107,39.3586138750001,-104.626548233,431,"1975 LEGACY CIRCLE, ELIZABETH, CO, 80107","Match","Non_Exact","1975 LEGACY TRL, ELIZABETH, CO, 80107",634690479,"L"
101432,"1975 MILE HIGH STADIUM CIRCLE","DENVER","CO",80204,39.74758602,-105.020067482,432,"1975 MILE HIGH STADIUM CIRCLE, DENVER, CO, 80204","Match","Exact","1975 MILE HIGH STADIUM CIR, DENVER, CO, 80204",177393995,"L"
101433,"1975 N GRANT ST UNIT 815","DENVER","CO",80203,39.7471805860001,-104.98359277,433,"1975 N GRANT ST UNIT 815, DENVER, CO, 80203","Match","Exact","1975 GRANT ST, DENVER, CO, 80203",177305553,"L"
101434,"1975 N NICHOLAS RD","NIXA","MO",65714,37.086108999,-93.325533815,434,"1975 N NICHOLAS RD, NIXA, MO, 65714","Match","Exact","1975 N NICHOLAS RD, NIXA, MO, 65714",99844865,"R"
101435,"1975 NE FUSON RD","BREMERTON","WA",98311,47.614104581,-122.624243442,435,"1975 NE FUSON RD, BREMERTON, WA, 98311","Match","Exact","1975 NE FUSON RD, BREMERTON, WA, 98311",629071266,"R"
101436,"1975 NOCTURNE DR UNIT 2103","ALPHARETTA","GA",30009,34.0540578740001,-84.302008402,436,"1975 NOCTURNE DR UNIT 2103, ALPHARETTA, GA, 30009","Match","Exact","1975 NOCTURNE DR, ALPHARETTA, GA, 30009",618449219,"R"
101437,"1975 OLD HIGHWAY 94 S","SAINT CHARLES","MO",63303,NA,NA,437,"1975 OLD HIGHWAY 94 S, SAINT CHARLES, MO, 63303","No_Match",NA,NA,NA,NA
101438,"1975 RIDGETOP DRIVE","CHARLOTTESVILLE","VA",22903,37.9983994350001,-78.5363361939999,438,"1975 RIDGETOP DRIVE, CHARLOTTESVILLE, VA, 22903","Match","Exact","1975 RIDGETOP DR, CHARLOTTESVILLE, VA, 22903",625076145,"R"
101439,"1975 S BROADWAY SUITE K1014","SANTA MARIA","CA",93454,NA,NA,439,"1975 S BROADWAY SUITE K1014, SANTA MARIA, CA, 93454","Tie",NA,NA,NA,NA
101440,"1975 S VIVIAN ST","LAKEWOOD","CO",80228,39.6784934230001,-105.133205388,440,"1975 S VIVIAN ST, LAKEWOOD, CO, 80228","Match","Exact","1975 S VIVIAN ST, LAKEWOOD, CO, 80228",177317600,"R"
101441,"1975 SATTERFIELD DR","POCATELLO","ID",83201,42.911895918,-112.409778008,441,"1975 SATTERFIELD DR, POCATELLO, ID, 83201","Match","Exact","1975 SATTERFIELD DR, POCATELLO, ID, 83201",636204058,"L"
101442,"1975 SE 9TH AVE","OKEECHOBEE","FL",34974,27.2262981480001,-80.819875934,442,"1975 SE 9TH AVE, OKEECHOBEE, FL, 34974","Match","Exact","1975 SE 9TH AVE, OKEECHOBEE, FL, 34974",4974225,"R"
101443,"1975 SE CRYSTAL LAKE DRIVE UNIT 142","CORVALLIS","OR",97333,44.546218578,-123.255636942,443,"1975 SE CRYSTAL LAKE DRIVE UNIT 142, CORVALLIS, OR, 97333","Match","Non_Exact","1975 SE CRYSTAL LAKE DR, CORVALLIS, OR, 97333",155849401,"R"
101444,"1975 SOUTH WASHINGTON ST","DENVER","CO",80210,39.6808665550001,-104.97934661,444,"1975 SOUTH WASHINGTON ST, DENVER, CO, 80210","Match","Exact","1975 S WASHINGTON ST, DENVER, CO, 80210",177332387,"R"
101445,"1975 TINCUP COURT","BOULDER","CO",80305,39.966029834,-105.256786946,445,"1975 TINCUP COURT, BOULDER, CO, 80305","Match","Exact","1975 TINCUP CT, BOULDER, CO, 80305",642890619,"R"
101446,"1975 W BELFAIR DR","BATON ROUGE","LA",70802,30.4661917720001,-91.1466992429999,446,"1975 W BELFAIR DR, BATON ROUGE, LA, 70802","Match","Exact","1975 W BELFAIR DR, BATON ROUGE, LA, 70802",92181701,"L"
101447,"1975 W CHURCH RIDGE RD","WASILLA","AK",99654,61.608419618,-149.500072144,447,"1975 W CHURCH RIDGE RD, WASILLA, AK, 99654","Match","Non_Exact","1975 W CHURCH RIDGE DR, WASILLA, AK, 99654",611942313,"R"
101448,"1975 W KIMBERLY ROAD SW","ATLANTA","GA",30331,NA,NA,448,"1975 W KIMBERLY ROAD SW, ATLANTA, GA, 30331","Tie",NA,NA,NA,NA
101449,"1975 WEST 32ND AVE","KENNEWICK","WA",99337,46.1794379250001,-119.14452412,449,"1975 WEST 32ND AVE, KENNEWICK, WA, 99337","Match","Exact","1975 W 32ND AVE, KENNEWICK, WA, 99337",606993048,"L"
101450,"19750 SHIRK ROAD","MARYSVILLE","OH",43040,40.297054819,-83.425295553,450,"19750 SHIRK ROAD, MARYSVILLE, OH, 43040","Match","Exact","19750 SHIRK RD, MARYSVILLE, OH, 43040",135343026,"L"
101451,"19750 W HICKORY TRL","NEW BERLIN","WI",53146,42.951611186,-88.159431387,451,"19750 W HICKORY TRL, NEW BERLIN, WI, 53146","Match","Exact","19750 W HICKORY TRL, NEW BERLIN, WI, 53146",53846728,"R"
101452,"19751 SOUTH FIGUEROA STREET","CARSON","CA",90745,33.851859328,-118.28393213,452,"19751 SOUTH FIGUEROA STREET, CARSON, CA, 90745","Match","Exact","19751 S FIGUEROA ST, CARSON, CA, 90745",241243614,"R"
101453,"19752 SHANGRILA LANE","ALSEA","OR",97324,44.4145171930001,-123.572399264,453,"19752 SHANGRILA LANE, ALSEA, OR, 97324","Match","Exact","19752 SHANGRILA LN, ALSEA, OR, 97324",155850400,"L"
101454,"19752","HOUSTON","TX",77224,NA,NA,454,"19752, HOUSTON, TX, 77224","No_Match",NA,NA,NA,NA
101455,"19754 E EUCLID DRIVE","CENTENNIAL","CO",80016,39.5967370500001,-104.758284953,455,"19754 E EUCLID DRIVE, CENTENNIAL, CO, 80016","Match","Exact","19754 E EUCLID DR, CENTENNIAL, CO, 80016",177360169,"R"
101456,"19755 SANTA CLARA COURT","RIVERSIDE","CA",92508,33.881842997,-117.317751802,456,"19755 SANTA CLARA COURT, RIVERSIDE, CA, 92508","Match","Exact","19755 SANTA CLARA CT, RIVERSIDE, CA, 92508",608992640,"R"
101457,"19755 SANTA CLARA CT","RIVERSIDE","CA",92508,33.881842997,-117.317751802,457,"19755 SANTA CLARA CT, RIVERSIDE, CA, 92508","Match","Exact","19755 SANTA CLARA CT, RIVERSIDE, CA, 92508",608992640,"R"
101458,"1976 210TH ROAD","WATHENA","KS",66090,39.8130269700001,-94.98704477,458,"1976 210TH ROAD, WATHENA, KS, 66090","Match","Exact","1976 210TH RD, WATHENA, KS, 66090",10099974,"R"
101459,"1976 CAMBRIDGE LANE SW","OLYMPIA","WA",98512,47.03031409,-122.951290375,459,"1976 CAMBRIDGE LANE SW, OLYMPIA, WA, 98512","Match","Exact","1976 CAMBRIDGE LN SW, OLYMPIA, WA, 98512",180942644,"L"
101460,"1976 COUNTY ROAD CC","NEW RICHMOND","WI",54017,NA,NA,460,"1976 COUNTY ROAD CC, NEW RICHMOND, WI, 54017","No_Match",NA,NA,NA,NA
101461,"1976 DELRAY AVE","JACKSONVILLE","FL",32210,30.281994334,-81.7639436809999,461,"1976 DELRAY AVE, JACKSONVILLE, FL, 32210","Match","Exact","1976 DELRAY AVE, JACKSONVILLE, FL, 32210",83910355,"R"
101462,"1976 E POINTE AVE","CARLSBAD","CA",92008,33.1551256610001,-117.317829246,462,"1976 E POINTE AVE, CARLSBAD, CA, 92008","Match","Exact","1976 E POINTE AVE, CARLSBAD, CA, 92008",195750886,"L"
101463,"1976 EVERGREEN LN","SUPERIOR TOWNSHIP","MI",48198,42.2729067830001,-83.573569767,463,"1976 EVERGREEN LN, SUPERIOR TOWNSHIP, MI, 48198","Match","Exact","1976 EVERGREEN LN, SUPERIOR TOWNSHIP, MI, 48198",26033240,"L"
101464,"1976 PARK VIEW ROAD","WHEELING","WV",26003,NA,NA,464,"1976 PARK VIEW ROAD, WHEELING, WV, 26003","No_Match",NA,NA,NA,NA
101465,"1976 PREUSS RD","LOS ANGELES","CA",90034,34.0427405720001,-118.385846353,465,"1976 PREUSS RD, LOS ANGELES, CA, 90034","Match","Non_Exact","1976 S PREUSS RD, LOS ANGELES, CA, 90034",141574929,"L"
101466,"1976 RUNNYMEDE RD","WINSTON SALEM","NC",27104,36.0982515600001,-80.273203211,466,"1976 RUNNYMEDE RD, WINSTON SALEM, NC, 27104","Match","Exact","1976 RUNNYMEDE RD, WINSTON SALEM, NC, 27104",84608164,"L"
101467,"1976 S LA CIENAGA BLVD C-769","LOS ANGELES","CA",90034,NA,NA,467,"1976 S LA CIENAGA BLVD C-769, LOS ANGELES, CA, 90034","No_Match",NA,NA,NA,NA
101468,"1976 S LA CIENEGA BLVD SUIT C462","LOS ANGELES","CA",90034,NA,NA,468,"1976 S LA CIENEGA BLVD SUIT C462, LOS ANGELES, CA, 90034","No_Match",NA,NA,NA,NA
101469,"1976 S LA CIENEGA BLVD UNIT C-253","LOS ANGELES","CA",90043,NA,NA,469,"1976 S LA CIENEGA BLVD UNIT C-253, LOS ANGELES, CA, 90043","No_Match",NA,NA,NA,NA
101470,"1976 S LA CIENEGA SUITE 557","LOS ANGELES","CA",90034,NA,NA,470,"1976 S LA CIENEGA SUITE 557, LOS ANGELES, CA, 90034","No_Match",NA,NA,NA,NA
101471,"1976 SAVANNA CIRCLE","FAIRFIELD","IA",52556,41.031720647,-91.997300635,471,"1976 SAVANNA CIRCLE, FAIRFIELD, IA, 52556","Match","Exact","1976 SAVANNA CIR, FAIRFIELD, IA, 52556",84433741,"L"
101472,"1976 SO LACIENEGA BLVD NO 454","LOS ANGELES","CA",90034,NA,NA,472,"1976 SO LACIENEGA BLVD NO 454, LOS ANGELES, CA, 90034","No_Match",NA,NA,NA,NA
101473,"1976 SOUTH LACIENEGA BLVD / 184","LOS ANGELES","CA",90034,34.040931024,-118.376802798,473,"1976 SOUTH LACIENEGA BLVD / 184, LOS ANGELES, CA, 90034","Match","Non_Exact","1976 S LA CIENEGA BLVD, LOS ANGELES, CA, 90034",141575022,"L"
101474,"1976 STATE ROUTE W","MOUNTAIN VIEW","TX",65548,NA,NA,474,"1976 STATE ROUTE W, MOUNTAIN VIEW, TX, 65548","No_Match",NA,NA,NA,NA
101475,"1976 WOODDALE DRIVE - SUITE 3A","WOODBURY","MN",55125,44.9202092530001,-92.971629439,475,"1976 WOODDALE DRIVE - SUITE 3A, WOODBURY, MN, 55125","Match","Non_Exact","1976 WOODALE DR, WOODBURY, MN, 55125",97826561,"R"
101476,"1976 WREN AVE","CORONA","CA",92879,33.8588640630001,-117.55744223,476,"1976 WREN AVE, CORONA, CA, 92879","Match","Exact","1976 WREN AVE, CORONA, CA, 92879",194815711,"R"
101477,"19760 MEYERS ROAD","DETROIT","MI",48235,42.437223133,-83.170936577,477,"19760 MEYERS ROAD, DETROIT, MI, 48235","Match","Exact","19760 MEYERS RD, DETROIT, MI, 48235",95425112,"R"
101478,"19760 STRIKER CIRCLE","BOCA RATON","FL",33498,NA,NA,478,"19760 STRIKER CIRCLE, BOCA RATON, FL, 33498","No_Match",NA,NA,NA,NA
101479,"19761 MACARTHUR","REDFORD","MI",48240,42.433779133,-83.304550498,479,"19761 MACARTHUR, REDFORD, MI, 48240","Match","Non_Exact","19761 MACARTHUR ST, REDFORD, MI, 48240",95720645,"L"
101480,"197629 EAST COUNTY ROAD 41","WOODWARD","OK",73801,36.419614778,-99.484793467,480,"197629 EAST COUNTY ROAD 41, WOODWARD, OK, 73801","Match","Exact","197629 E CO RD 41, WOODWARD, OK, 73801",606506672,"L"
101481,"19766 US HWY 18","APPLE VALLEY","CA",92307,NA,NA,481,"19766 US HWY 18, APPLE VALLEY, CA, 92307","No_Match",NA,NA,NA,NA
101482,"19768 GLEN BRAE DR","SARATOGA","CA",95070,37.273258888,-122.018681896,482,"19768 GLEN BRAE DR, SARATOGA, CA, 95070","Match","Exact","19768 GLEN BRAE DR, SARATOGA, CA, 95070",122941429,"L"
101483,"1977 AKIN ROAD","JESUP","GA",31546,31.478370329,-81.6941962399999,483,"1977 AKIN ROAD, JESUP, GA, 31546","Match","Exact","1977 AKIN RD, JESUP, GA, 31546",4831656,"R"
101484,"1977 BRIARWOOD STREET","PRATTVILLE","AL",36066,32.464817462,-86.4164581589999,484,"1977 BRIARWOOD STREET, PRATTVILLE, AL, 36066","Match","Exact","1977 BRIARWOOD ST, PRATTVILLE, AL, 36066",2850868,"R"
101485,"1977 BYRD DRIVE","NORRISTWON","PA",19403,40.129846979,-75.380041944,485,"1977 BYRD DRIVE, NORRISTWON, PA, 19403","Match","Non_Exact","1977 BYRD DR, NORRISTOWN, PA, 19403",135070460,"R"
101486,"1977 CENTERPOINT RD","HENDERSONVILLE","TN",37075,NA,NA,486,"1977 CENTERPOINT RD, HENDERSONVILLE, TN, 37075","No_Match",NA,NA,NA,NA
101487,"1977 EDWARDS DR","SHERIDAN","WY",82801,44.776682787,-106.956923914,487,"1977 EDWARDS DR, SHERIDAN, WY, 82801","Match","Exact","1977 EDWARDS DR, SHERIDAN, WY, 82801",605388073,"L"
101488,"1977 ETON ST","TWINSBURG","OH",44087,41.3060181060001,-81.461619195,488,"1977 ETON ST, TWINSBURG, OH, 44087","Match","Exact","1977 ETON ST, TWINSBURG, OH, 44087",61363787,"L"
101489,"1977 FLATBUSH AVENUE","BROOKLYN","NY",11234,40.621551708,-73.935722761,489,"1977 FLATBUSH AVENUE, BROOKLYN, NY, 11234","Match","Exact","1977 FLATBUSH AVE, BROOKLYN, NY, 11234",59090344,"L"
101490,"1977 JONES AVE","ATLANTA","GA",30318,33.7870755960001,-84.452315815,490,"1977 JONES AVE, ATLANTA, GA, 30318","Match","Non_Exact","1977 JONES AVE NW, ATLANTA, GA, 30318",636118179,"L"
101491,"1977 NOTTOWAY WOODS LN","JACKSONVILLE","FL",32220,30.3498011460001,-81.771860262,491,"1977 NOTTOWAY WOODS LN, JACKSONVILLE, FL, 32220","Match","Exact","1977 NOTTOWAY WOODS LN, JACKSONVILLE, FL, 32220",651152815,"R"
101492,"1977 PORTSMOUTH DRIVE","EL DORADO HILLS","CA",95762,38.7226311640001,-121.085108802,492,"1977 PORTSMOUTH DRIVE, EL DORADO HILLS, CA, 95762","Match","Exact","1977 PORTSMOUTH DR, EL DORADO HILLS, CA, 95762",133076713,"R"
101493,"1977 RADCLIFF AVE SE","GRAND RAPIDS","MI",49506,42.9277012260001,-85.5921998109999,493,"1977 RADCLIFF AVE SE, GRAND RAPIDS, MI, 49506","Match","Exact","1977 RADCLIFF AVE SE, GRAND RAPIDS, MI, 49506",12467900,"R"
101494,"1977 SUNNYSIDE DR","WAUKESHA","WI",53186,43.0304245720001,-88.192642787,494,"1977 SUNNYSIDE DR, WAUKESHA, WI, 53186","Match","Exact","1977 SUNNYSIDE DR, WAUKESHA, WI, 53186",53812933,"R"
101495,"19771 CRANBROOK DRIVE APARTMENT 205","DETROIT","MI",48221,42.4377048650001,-83.15776654,495,"19771 CRANBROOK DRIVE APARTMENT 205, DETROIT, MI, 48221","Match","Exact","19771 CRANBROOK DR, DETROIT, MI, 48221",95502345,"L"
101496,"19774 ALBANY AVENUE","SOUTHFIELD","MI",48075,42.4556707360001,-83.237928984,496,"19774 ALBANY AVENUE, SOUTHFIELD, MI, 48075","Match","Exact","19774 ALBANY AVE, SOUTHFIELD, MI, 48075",69739572,"R"
101497,"19774 WILLOWDALE PLACE","ASHBURN","VA",20147,39.067841184,-77.495958049,497,"19774 WILLOWDALE PLACE, ASHBURN, VA, 20147","Match","Exact","19774 WILLOWDALE PL, ASHBURN, VA, 20147",62354999,"L"
101498,"19775 BELMONT EXEC PLAZA SUITE 500","ASHBURN","VA",20147,NA,NA,498,"19775 BELMONT EXEC PLAZA SUITE 500, ASHBURN, VA, 20147","No_Match",NA,NA,NA,NA
101499,"19776 ARBOR RIDGE DRIVE","WALNUT","CA",91789,34.042922859,-117.868456932,499,"19776 ARBOR RIDGE DRIVE, WALNUT, CA, 91789","Match","Non_Exact","19776 ARBOR RIDGE RD, WALNUT, CA, 91789",142240279,"R"
101500,"19777 IDA LANE EAST","GROSSE POINTE WOODS","MI",48236,42.4268171800001,-82.903349609,500,"19777 IDA LANE EAST, GROSSE POINTE WOODS, MI, 48236","Match","Exact","19777 IDA LN E, GROSSE POINTE WOODS, MI, 48236",95507651,"L"
