"ID","Address","City","State","Zip","lat","long","id","input_address","match_indicator","match_type","matched_address","tiger_line_id","tiger_side"
297001,"815 TEXAS ROAD","EASTON","PA",18042,40.630567678,-75.261538555,1,"815 TEXAS ROAD, EASTON, PA, 18042","Match","Exact","815 TEXAS RD, EASTON, PA, 18042",136901032,"L"
297002,"815 THAYER AVE APT 528","SILVER SPRING","MD",20910,38.993104428,-77.022424143,2,"815 THAYER AVE APT 528, SILVER SPRING, MD, 20910","Match","Exact","815 THAYER AVE, SILVER SPRING, MD, 20910",62068229,"R"
297003,"815 TURQUOISE TRAIL","MORGANVILLE","NJ",7751,40.3497643540001,-74.219383893,3,"815 TURQUOISE TRAIL, MORGANVILLE, NJ, 7751","Match","Exact","815 TURQUOISE TRL, MORGANVILLE, NJ, 07751",90500408,"R"
297004,"815 VILLAGE ROAD","CHARLOTTESVILLE","VA",22903,38.0187097400001,-78.5013726349999,4,"815 VILLAGE ROAD, CHARLOTTESVILLE, VA, 22903","Match","Exact","815 VILLAGE RD, CHARLOTTESVILLE, VA, 22903",83369573,"L"
297005,"815 W 11TH ST N","WICHITA","KS",67203,37.7043392910001,-97.3473248,5,"815 W 11TH ST N, WICHITA, KS, 67203","Match","Exact","815 W 11TH ST N, WICHITA, KS, 67203",115634741,"L"
297006,"815 W 12TH AVENUE","EMPORIA","KS",66801,38.4122937120001,-96.191136478,6,"815 W 12TH AVENUE, EMPORIA, KS, 66801","Match","Exact","815 W 12TH AVE, EMPORIA, KS, 66801",10976373,"L"
297007,"815 W 180TH STREET BSMT","NEW YORK","MS",10033,NA,NA,7,"815 W 180TH STREET BSMT, NEW YORK, MS, 10033","No_Match",NA,NA,NA,NA
297008,"815 W 63RD ST 2ND FLOOR","CHICAGO","IL",60621,41.779735198,-87.645522569,8,"815 W 63RD ST 2ND FLOOR, CHICAGO, IL, 60621","Match","Non_Exact","815 W 63RD ST, CHICAGO, IL, 60621",642122999,"L"
297009,"815 W 63RD ST STE 401","CHICAGO","IL",60621,41.779735198,-87.645522569,9,"815 W 63RD ST STE 401, CHICAGO, IL, 60621","Match","Non_Exact","815 W 63RD ST, CHICAGO, IL, 60621",642122999,"L"
297010,"815 W 63RD STREET STE 4","CHICGAO","IL",60629,NA,NA,10,"815 W 63RD STREET STE 4, CHICGAO, IL, 60629","No_Match",NA,NA,NA,NA
297011,"815 W AVENUE J","LANCASTER","CA",93534,34.6895044600001,-118.143760867,11,"815 W AVENUE J, LANCASTER, CA, 93534","Match","Exact","815 W AVE J, LANCASTER, CA, 93534",241135083,"R"
297012,"815 W DIVISION","MARINE","IL",62061,38.7865823160001,-89.786885709,12,"815 W DIVISION, MARINE, IL, 62061","Match","Non_Exact","815 W DIVISION ST, MARINE, IL, 62061",647137181,"R"
297013,"815 W GRAND CANYON AVE","FLAGSTAFF","AZ",86001,35.1990936710001,-111.658277399,13,"815 W GRAND CANYON AVE, FLAGSTAFF, AZ, 86001","Match","Exact","815 W GRAND CANYON AVE, FLAGSTAFF, AZ, 86001",188860948,"R"
297014,"815 W MAIN ST","MOUNT OLIVE","IL",62069,39.072303338,-89.737077257,14,"815 W MAIN ST, MOUNT OLIVE, IL, 62069","Match","Exact","815 W MAIN ST, MOUNT OLIVE, IL, 62069",97923397,"L"
297015,"815 W NEWPORT AVE APT 2F","CHICAGO","IL",60657,41.944513865,-87.650164232,15,"815 W NEWPORT AVE APT 2F, CHICAGO, IL, 60657","Match","Non_Exact","815 W NEWPORT AVE, CHICAGO, IL, 60657",605209992,"L"
297016,"815 W SOUTH ST","AURORA","MO",65605,36.96947198,-93.733229458,16,"815 W SOUTH ST, AURORA, MO, 65605","Match","Exact","815 W SOUTH ST, AURORA, MO, 65605",640160825,"R"
297017,"815 W VETERANS MEMORIAL DRIVE","KAPLAN","LA",70548,30.00047449,-92.293275281,17,"815 W VETERANS MEMORIAL DRIVE, KAPLAN, LA, 70548","Match","Non_Exact","815 VETERAN'S MEMORIAL DR, KAPLAN, LA, 70548",85974201,"L"
297018,"815 WADSWORTH STREET","TRAVERSE CITY","MI",49684,44.7555487760001,-85.628274577,18,"815 WADSWORTH STREET, TRAVERSE CITY, MI, 49684","Match","Exact","815 WADSWORTH ST, TRAVERSE CITY, MI, 49684",145514358,"R"
297019,"815 WALNUT CREEK DRIVE","LILBURN","GA",30047,33.891125394,-84.169822174,19,"815 WALNUT CREEK DRIVE, LILBURN, GA, 30047","Match","Non_Exact","815 WALNUT CREEK DR NW, LILBURN, GA, 30047",88921568,"R"
297020,"815 WALNUT STREET","SUTHERLAND","NE",69165,41.16461803,-101.127137042,20,"815 WALNUT STREET, SUTHERLAND, NE, 69165","Match","Exact","815 WALNUT ST, SUTHERLAND, NE, 69165",151262653,"R"
297021,"815 WARE AVE NE","WINTER HAVEN","FL",33881,28.0478150970001,-81.713165209,21,"815 WARE AVE NE, WINTER HAVEN, FL, 33881","Match","Exact","815 WARE AVE NE, WINTER HAVEN, FL, 33881",647084272,"R"
297022,"815 WERNSING ROAD","JASPER","IN",47546,38.3781538310001,-86.9423444239999,22,"815 WERNSING ROAD, JASPER, IN, 47546","Match","Exact","815 WERNSING RD, JASPER, IN, 47546",644937721,"L"
297023,"815 WEST ABRAMS APT 1139","ARLINGTON","TX",76013,NA,NA,23,"815 WEST ABRAMS APT 1139, ARLINGTON, TX, 76013","No_Match",NA,NA,NA,NA
297024,"815 WEST CRERSTVIEW STREET","CORONA","CA",92882,NA,NA,24,"815 WEST CRERSTVIEW STREET, CORONA, CA, 92882","No_Match",NA,NA,NA,NA
297025,"815 WEST FULTON STREET","CANTON","MS",39046,32.6113609400001,-90.0458774269999,25,"815 WEST FULTON STREET, CANTON, MS, 39046","Match","Exact","815 W FULTON ST, CANTON, MS, 39046",152477673,"R"
297026,"815 WEST MAIN ST","SPRINGFIELD","OH",45504,39.9254929580001,-83.825126504,26,"815 WEST MAIN ST, SPRINGFIELD, OH, 45504","Match","Exact","815 W MAIN ST, SPRINGFIELD, OH, 45504",135023196,"L"
297027,"815 WEST RANCH ROAD","BOISE","ID",83702,43.6478038670001,-116.196165207,27,"815 WEST RANCH ROAD, BOISE, ID, 83702","Match","Non_Exact","815 RANCH RD, BOISE, ID, 83702",117860108,"L"
297028,"815 WEST SANTE FE AVENUE","GRANTS","NM",87021,35.1537708760001,-107.858322168,28,"815 WEST SANTE FE AVENUE, GRANTS, NM, 87021","Match","Non_Exact","815 W SANTA FE AVE, GRANTS, NM, 87020",179179866,"L"
297029,"815-A BRAZOS STREET   SUITE 621","AUSTIN","TX",78701,30.2697206070001,-97.740700942,29,"815-A BRAZOS STREET   SUITE 621, AUSTIN, TX, 78701","Match","Exact","815 BRAZOS ST, AUSTIN, TX, 78701",63946472,"R"
297030,"815-A BRAZOS STREET  663","AUSTIN","TX",78701,30.2697206070001,-97.740700942,30,"815-A BRAZOS STREET  663, AUSTIN, TX, 78701","Match","Exact","815 BRAZOS ST, AUSTIN, TX, 78701",63946472,"R"
297031,"8150 BARBARA AVENUE","INVER GROVE HEIGHTS","MN",55077,44.8307356890001,-93.064124641,31,"8150 BARBARA AVENUE, INVER GROVE HEIGHTS, MN, 55077","Match","Non_Exact","8150 BARBARA AVE E, INVER GROVE HEIGHTS, MN, 55077",37940892,"L"
297032,"8150 BOHEMIAN ROAD","CORNING","OH",43730,39.599094585,-82.150957375,32,"8150 BOHEMIAN ROAD, CORNING, OH, 43730","Match","Non_Exact","8150 BOHEMIAN RD SE, CORNING, OH, 43730",37374696,"R"
297033,"8150 BRISTOL BAY AVENUE","LAKELAND","FL",33810,28.1481749220001,-81.9840355869999,33,"8150 BRISTOL BAY AVENUE, LAKELAND, FL, 33810","Match","Exact","8150 BRISTOL BAY AVE, LAKELAND, FL, 33810",614456198,"R"
297034,"8150 CENTRAL PARK AVE","SKOKIE","IL",60076,42.029077869,-87.718451761,34,"8150 CENTRAL PARK AVE, SKOKIE, IL, 60076","Match","Exact","8150 CENTRAL PARK AVE, SKOKIE, IL, 60076",111741859,"L"
297035,"8150 DERRY STREET SUITE D","HARRISBURG","PA",17111,40.2685463380001,-76.749858635,35,"8150 DERRY STREET SUITE D, HARRISBURG, PA, 17111","Match","Exact","8150 DERRY ST, HARRISBURG, PA, 17111",70846517,"L"
297036,"8150 EAST MORNING SUN LANE","ANAHEIM","CA",92808,33.8461626180001,-117.731575868,36,"8150 EAST MORNING SUN LANE, ANAHEIM, CA, 92808","Match","Exact","8150 E MORNING SUN LN, ANAHEIM, CA, 92808",144125848,"R"
297037,"8150 EAST ROBINWOOD STREET","DETROIT","MI",48234,42.4317941310001,-83.0218787009999,37,"8150 EAST ROBINWOOD STREET, DETROIT, MI, 48234","Match","Exact","8150 E ROBINWOOD ST, DETROIT, MI, 48234",95465964,"R"
297038,"8150 HERITAGE CLUB WAY","NAPLES","FL",34112,26.1379762490001,-81.7039595099999,38,"8150 HERITAGE CLUB WAY, NAPLES, FL, 34112","Match","Exact","8150 HERITAGE CLUB WAY, NAPLES, FL, 34112",115163639,"L"
297039,"8150 MAPLE LN","EVANSVILLE","IN",47725,38.0507114120001,-87.5221921789999,39,"8150 MAPLE LN, EVANSVILLE, IN, 47725","Match","Exact","8150 MAPLE LN, EVANSVILLE, IN, 47725",39792204,"L"
297040,"8150 NASHVILLE AVE","BURBANK","IL",60459,41.743585818,-87.784926931,40,"8150 NASHVILLE AVE, BURBANK, IL, 60459","Match","Exact","8150 NASHVILLE AVE, BURBANK, IL, 60459",639816758,"R"
297041,"8150 SW 72ND AVE APT 1126","MIAMI","FL",33143,25.694622872,-80.309308315,41,"8150 SW 72ND AVE APT 1126, MIAMI, FL, 33143","Match","Non_Exact","8150 SW 72ND AVE, MIAMI, FL, 33143",650067198,"R"
297042,"8150 US RT 9","ELIZABETHTOWN","NY",12932,44.2488535350001,-73.567763153,42,"8150 US RT 9, ELIZABETHTOWN, NY, 12932","Match","Exact","8150 US RTE 9, ELIZABETHTOWN, NY, 12932",136249876,"R"
297043,"8150 W 111TH ST","PALOS HILLS","IL",60465,41.689394344,-87.8213375729999,43,"8150 W 111TH ST, PALOS HILLS, IL, 60465","Match","Exact","8150 W 111TH ST, PALOS HILLS, IL, 60465",627817912,"R"
297044,"8150 W YOUNG EAGLE CT","TUCSON","AZ",85757,32.137334824,-111.139701991,44,"8150 W YOUNG EAGLE CT, TUCSON, AZ, 85757","Match","Exact","8150 W YOUNG EAGLE CT, TUCSON, AZ, 85757",606841406,"L"
297045,"8151 ALDERMAN RD UNIT 306","JACKSONVILLE","FL",32211,30.333891361,-81.5705151619999,45,"8151 ALDERMAN RD UNIT 306, JACKSONVILLE, FL, 32211","Match","Exact","8151 ALDERMAN RD, JACKSONVILLE, FL, 32211",83904376,"L"
297046,"8151 EAST MARBLEHEAD WAY","ANAHEIM","CA",92808,33.853290815,-117.736269783,46,"8151 EAST MARBLEHEAD WAY, ANAHEIM, CA, 92808","Match","Exact","8151 E MARBLEHEAD WAY, ANAHEIM, CA, 92808",144126079,"R"
297047,"8151 F ROSEMARY RD","MOBILE","AL",36613,30.815052753,-88.236626675,47,"8151 F ROSEMARY RD, MOBILE, AL, 36613","Match","Exact","8151 ROSEMARY RD, MOBILE, AL, 36613",61963507,"R"
297048,"8151 S 700 E","COLUMBIA CITY","IN",46725,41.0463861010001,-85.355234576,48,"8151 S 700 E, COLUMBIA CITY, IN, 46725","Match","Exact","8151 S 700 E, COLUMBIA CITY, IN, 46725",6648519,"L"
297049,"8151 SW 11TH STREET","NORTH LAUDERDALE","FL",33068,26.21507869,-80.2375871419999,49,"8151 SW 11TH STREET, NORTH LAUDERDALE, FL, 33068","Match","Exact","8151 SW 11TH ST, N LAUDERDALE, FL, 33068",114691975,"R"
297050,"8151 W WALKER DR","LITTLETON","CO",80123,39.6004194710001,-105.088509552,50,"8151 W WALKER DR, LITTLETON, CO, 80123","Match","Exact","8151 W WALKER DR, LITTLETON, CO, 80123",177324169,"R"
297051,"81510 HWY 1083","BUSH","LA",70431,30.618911918,-89.986124757,51,"81510 HWY 1083, BUSH, LA, 70431","Match","Non_Exact","81510 STATE RTE 1083, BUSH, LA, 70431",111294430,"R"
297052,"8152 BLANDSFORD DR","MANASSAS","VA",20111,38.7104409720001,-77.440873,52,"8152 BLANDSFORD DR, MANASSAS, VA, 20111","Match","Exact","8152 BLANDSFORD DR, MANASSAS, VA, 20111",635834117,"L"
297053,"8152 SATIN CARNATION LANE","LAS VEGAS","NV",89166,36.3096699320001,-115.298426943,53,"8152 SATIN CARNATION LANE, LAS VEGAS, NV, 89166","Match","Exact","8152 SATIN CARNATION LN, LAS VEGAS, NV, 89166",641084952,"R"
297054,"8152 SHAHEED DR","PASADENA","MD",21122,39.1308606200001,-76.569007544,54,"8152 SHAHEED DR, PASADENA, MD, 21122","Match","Exact","8152 SHAHEED DR, PASADENA, MD, 21122",68204042,"R"
297055,"8153 B STREET","MILLINGTON","TN",38053,35.3486843840001,-89.891251306,55,"8153 B STREET, MILLINGTON, TN, 38053","Match","Exact","8153 B ST, MILLINGTON, TN, 38053",72899382,"L"
297056,"8153 ELK GROVE BLVD SUITE 20","ELK GROVE","CA",95758,NA,NA,56,"8153 ELK GROVE BLVD SUITE 20, ELK GROVE, CA, 95758","No_Match",NA,NA,NA,NA
297057,"8153 ELK GROVE BOULEVARD","ELK GROVE","CA",95758,38.4090742970001,-121.405993687,57,"8153 ELK GROVE BOULEVARD, ELK GROVE, CA, 95758","Match","Exact","8153 ELK GROVE BLVD, ELK GROVE, CA, 95758",629157860,"L"
297058,"8153 SPENCER LAKE ROAD","MEDINA","OH",44256,41.112135698,-81.983615255,58,"8153 SPENCER LAKE ROAD, MEDINA, OH, 44256","Match","Exact","8153 SPENCER LAKE RD, MEDINA, OH, 44256",58673818,"L"
297059,"8153 WYNDWILLOW WAY","ELK GROVE","CA",95758,38.4292038400001,-121.405914365,59,"8153 WYNDWILLOW WAY, ELK GROVE, CA, 95758","Match","Exact","8153 WYNDWILLOW WAY, ELK GROVE, CA, 95758",133406912,"L"
297060,"8154 ATLANTIC RD","WALLOPS ISLAND","VA",23337,37.9254200070001,-75.484544209,60,"8154 ATLANTIC RD, WALLOPS ISLAND, VA, 23337","Match","Exact","8154 ATLANTIC RD, WALLOPS ISLAND, VA, 23337",114590076,"L"
297061,"8154 OAHU DR","FAIR OAKS","CA",95628,38.6610172430001,-121.259832545,61,"8154 OAHU DR, FAIR OAKS, CA, 95628","Match","Exact","8154 OAHU DR, FAIR OAKS, CA, 95628",133345635,"R"
297062,"8154 STANFORD PL","MONTGOMERY","AL",36117,32.3761237800001,-86.155729416,62,"8154 STANFORD PL, MONTGOMERY, AL, 36117","Match","Exact","8154 STANFORD PL, MONTGOMERY, AL, 36117",637764644,"R"
297063,"8154 VICTORIA DRIVE","VICTORIA","MN",55386,44.8563511790001,-93.661816519,63,"8154 VICTORIA DRIVE, VICTORIA, MN, 55386","Match","Exact","8154 VICTORIA DR, VICTORIA, MN, 55386",43491602,"R"
297064,"8155 ANNSBURY DRIVE SUITE 110","SHELBY TOWNSHIP","MI",48316,42.692166168,-83.0335361149999,64,"8155 ANNSBURY DRIVE SUITE 110, SHELBY TOWNSHIP, MI, 48316","Match","Exact","8155 ANNSBURY DR, SHELBY TOWNSHIP, MI, 48316",110708103,"L"
297065,"8155 EAGLE CREEK AVE","PRIOR LAKE","MN",55372,44.6820948340001,-93.352598173,65,"8155 EAGLE CREEK AVE, PRIOR LAKE, MN, 55372","Match","Exact","8155 EAGLE CREEK AVE, PRIOR LAKE, MN, 55372",641426924,"L"
297066,"8155 N 600 W","MICHIGAN CITY","IN",46360,41.726558814,-86.81618409,66,"8155 N 600 W, MICHIGAN CITY, IN, 46360","Match","Exact","8155 N 600 W, MICHIGAN CITY, IN, 46360",15413756,"L"
297067,"8155 NW BEAMAN DRIVE","KANSAS CITY","MO",64151,39.2418979490001,-94.637328833,67,"8155 NW BEAMAN DRIVE, KANSAS CITY, MO, 64151","Match","Exact","8155 NW BEAMAN DR, KANSAS CITY, MO, 64151",39693323,"R"
297068,"8155 PASEO DEL OCASO","LA JOLLA","CA",92037,32.854849976,-117.254712517,68,"8155 PASEO DEL OCASO, LA JOLLA, CA, 92037","Match","Non_Exact","8155 PSO DEL OCASO, LA JOLLA, CA, 92037",195298678,"R"
297069,"8155 RICHMOND AVE / APT 901","HOUSTON","TX",77063,29.729328234,-95.511654538,69,"8155 RICHMOND AVE / APT 901, HOUSTON, TX, 77063","Match","Exact","8155 RICHMOND AVE, HOUSTON, TX, 77063",647608191,"L"
297070,"8155 S FAIRMOUNT DR","DENVER","CO",80230,NA,NA,70,"8155 S FAIRMOUNT DR, DENVER, CO, 80230","No_Match",NA,NA,NA,NA
297071,"8155 SANTA YNEZ AVE","ATASCADERO","CA",93422,35.472705074,-120.669993999,71,"8155 SANTA YNEZ AVE, ATASCADERO, CA, 93422","Match","Exact","8155 SANTA YNEZ AVE, ATASCADERO, CA, 93422",109725112,"R"
297072,"8155 STATE ROUTE 127 N","ALTO PASS","IL",62905,NA,NA,72,"8155 STATE ROUTE 127 N, ALTO PASS, IL, 62905","No_Match",NA,NA,NA,NA
297073,"8155 WEST MARIPOSA GRANDE LN","PEORIA","AZ",85383,33.7022779590001,-112.234633608,73,"8155 WEST MARIPOSA GRANDE LN, PEORIA, AZ, 85383","Match","Exact","8155 W MARIPOSA GRANDE LN, PEORIA, AZ, 85383",128416047,"L"
297074,"8155 WILLIT STREET","OMAHA","NE",68122,41.337442336,-96.03979021,74,"8155 WILLIT STREET, OMAHA, NE, 68122","Match","Exact","8155 WILLIT ST, OMAHA, NE, 68122",116974478,"R"
297075,"8155 WOODSCAPE DRIVE   APT L","CHARLOTTE","NC",28212,35.160178547,-80.748335213,75,"8155 WOODSCAPE DRIVE   APT L, CHARLOTTE, NC, 28212","Match","Exact","8155 WOODSCAPE DR, CHARLOTTE, NC, 28212",650097576,"R"
297076,"81552 CAMINO EL TRIUNFO","INDIO","CA",92203,NA,NA,76,"81552 CAMINO EL TRIUNFO, INDIO, CA, 92203","No_Match",NA,NA,NA,NA
297077,"8156 AMBACH WAY","HYPOLUXO","FL",33462,26.5553825810001,-80.059776222,77,"8156 AMBACH WAY, HYPOLUXO, FL, 33462","Match","Exact","8156 AMBACH WAY, HYPOLUXO, FL, 33462",639476073,"R"
297078,"8156 ANDASOL AVE","NORTHRIDGE","CA",91325,34.2186348920001,-118.510899314,78,"8156 ANDASOL AVE, NORTHRIDGE, CA, 91325","Match","Exact","8156 ANDASOL AVE, NORTHRIDGE, CA, 91325",141544126,"R"
297079,"8156 ANTWERP ST","LOS ANGELES","CA",90001,33.9646479190001,-118.24890861,79,"8156 ANTWERP ST, LOS ANGELES, CA, 90001","Match","Exact","8156 ANTWERP ST, LOS ANGELES, CA, 90001",141671267,"L"
297080,"8156 FM 928","TULIA","TX",79088,34.469083852,-101.663054821,80,"8156 FM 928, TULIA, TX, 79088","Match","Exact","8156 FM 928, TULIA, TX, 79088",182711877,"R"
297081,"8156 LEMON GROVE WAY","LEMON GROVE","CA",91945,32.745529778,-117.02412637,81,"8156 LEMON GROVE WAY, LEMON GROVE, CA, 91945","Match","Exact","8156 LEMON GROVE WAY, LEMON GROVE, CA, 91945",195706698,"L"
297082,"8156 S 1000 E","SANDY","UT",84094,40.6029374600001,-111.862609009,82,"8156 S 1000 E, SANDY, UT, 84094","Match","Exact","8156 S 1000 E, SANDY, UT, 84094",176124446,"R"
297083,"8156-E S WADSWORTH BLVD STE 451","LITTLETON","CO",80128,39.575761609,-105.084037739,83,"8156-E S WADSWORTH BLVD STE 451, LITTLETON, CO, 80128","Match","Exact","8156 S WADSWORTH BLVD, LITTLETON, CO, 80128",637517502,"R"
297084,"8157 COURTYARD LOOP APT 1","PARK CITY","UT",84098,40.749262496,-111.573701868,84,"8157 COURTYARD LOOP APT 1, PARK CITY, UT, 84098","Match","Exact","8157 COURTYARD LOOP, PARK CITY, UT, 84098",625699359,"R"
297085,"8157 GALAXIE DR","JACKSONVILLE","FL",32244,30.242896649,-81.785289877,85,"8157 GALAXIE DR, JACKSONVILLE, FL, 32244","Match","Exact","8157 GALAXIE DR, JACKSONVILLE, FL, 32244",83909751,"R"
297086,"8157 NW 199 TERRACE","MIAMI","FL",33015,25.954364248,-80.334086914,86,"8157 NW 199 TERRACE, MIAMI, FL, 33015","Match","Non_Exact","8157 NW 199TH TER, MIAMI GARDENS, FL, 33015",116258393,"R"
297087,"8157 ROBENA LANE","MILLINGTON","TN",38053,35.3499029490001,-89.733354108,87,"8157 ROBENA LANE, MILLINGTON, TN, 38053","Match","Exact","8157 ROBENA LN, MILLINGTON, TN, 38053",72900753,"L"
297088,"8157 SOUTH ELIZABETH STREET","CHICAGO","IL",60620,41.745822563,-87.6548159449999,88,"8157 SOUTH ELIZABETH STREET, CHICAGO, IL, 60620","Match","Exact","8157 S ELIZABETH ST, CHICAGO, IL, 60620",111821428,"L"
297089,"8158 BARBERRY HILL DRIVE","MENTOR","OH",44060,41.671803719,-81.3483510469999,89,"8158 BARBERRY HILL DRIVE, MENTOR, OH, 44060","Match","Exact","8158 BARBERRY HILL DR, MENTOR, OH, 44060",137472044,"R"
297090,"8158 CTY RD NN","GREENLEAF","WI",54126,NA,NA,90,"8158 CTY RD NN, GREENLEAF, WI, 54126","No_Match",NA,NA,NA,NA
297091,"8158 HORIZON DR","COLORADO SPRINGS","CO",80920,38.945686374,-104.777263562,91,"8158 HORIZON DR, COLORADO SPRINGS, CO, 80920","Match","Exact","8158 HORIZON DR, CO SPGS, CO, 80920",105510244,"R"
297092,"8159 JAILENE DRIVE","WINDERMERE","FL",34786,28.4484885150001,-81.575423673,92,"8159 JAILENE DRIVE, WINDERMERE, FL, 34786","Match","Exact","8159 JAILENE DR, WINDERMERE, FL, 34786",640861114,"L"
297093,"8159 S MERRILL AVE APT 1S","CHICAGO","IL",60617,41.7469503880001,-87.572235281,93,"8159 S MERRILL AVE APT 1S, CHICAGO, IL, 60617","Match","Non_Exact","8159 S MERRILL AVE, CHICAGO, IL, 60617",111775931,"L"
297094,"8159 STOLL PLACE","DENVER","CO",80238,39.7890483200001,-104.893624149,94,"8159 STOLL PLACE, DENVER, CO, 80238","Match","Exact","8159 STOLL PL, DENVER, CO, 80238",641514826,"L"
297095,"81594 RANCHO SANTANA DR","LA QUINTA","CA",92253,33.670473698,-116.240390027,95,"81594 RANCHO SANTANA DR, LA QUINTA, CA, 92253","Match","Exact","81594 RANCHO SANTANA DR, LA QUINTA, CA, 92253",633950711,"L"
297096,"816 21ST STREET","VIENNA","WV",26105,39.319119469,-81.5489262849999,96,"816 21ST STREET, VIENNA, WV, 26105","Match","Exact","816 21ST ST, VIENNA, WV, 26105",90869621,"R"
297097,"816 22ND ST","OAKLAND","CA",94607,37.8130827030001,-122.276946713,97,"816 22ND ST, OAKLAND, CA, 94607","Match","Exact","816 22ND ST, OAKLAND, CA, 94607",652204468,"R"
297098,"816 45TH ST","BROOKLYN","NY",11220,40.6436263420001,-74.0003204719999,98,"816 45TH ST, BROOKLYN, NY, 11220","Match","Exact","816 45TH ST, BROOKLYN, NY, 11220",59098019,"R"
297099,"816 6TH AVE NW","DODGE CENTER","MN",55927,44.035856471,-92.864259761,99,"816 6TH AVE NW, DODGE CENTER, MN, 55927","Match","Exact","816 SIXTH AVE NW, DODGE CENTER, MN, 55927",630170387,"R"
297100,"816 ASPEN DRIVE","WASHINGTON COURT HOU","OH",43160,39.552593636,-83.440576359,100,"816 ASPEN DRIVE, WASHINGTON COURT HOU, OH, 43160","Match","Non_Exact","816 ASPEN DR, WASHINGTON COURT HOUSE, OH, 43160",119067685,"L"
297101,"816 BARNUM STREET","SHEFFIELD","MA",1257,42.0778657180001,-73.380259865,101,"816 BARNUM STREET, SHEFFIELD, MA, 1257","Match","Exact","816 BARNUM ST, SHEFFIELD, MA, 01257",3978458,"L"
297102,"816 BAVARIAN COURT","OSHKOSH","WI",54901,44.0462612150001,-88.527620581,102,"816 BAVARIAN COURT, OSHKOSH, WI, 54901","Match","Exact","816 BAVARIAN CT, OSHKOSH, WI, 54901",638714445,"L"
297103,"816 BAXTER DRIVE","PLANO","TX",75025,33.0780223080001,-96.705474857,103,"816 BAXTER DRIVE, PLANO, TX, 75025","Match","Exact","816 BAXTER DR, PLANO, TX, 75025",123565934,"R"
297104,"816 BELMERE LUXURY CT","HOUMA","LA",70360,NA,NA,104,"816 BELMERE LUXURY CT, HOUMA, LA, 70360","No_Match",NA,NA,NA,NA
297105,"816 BENTON RD","BOSSIER CITY","LA",71111,32.527627296,-93.718250981,105,"816 BENTON RD, BOSSIER CITY, LA, 71111","Match","Exact","816 BENTON RD, BOSSIER CITY, LA, 71111",636058039,"R"
297106,"816 BLAKELY COURT 219","FREDERICK","MD",21702,39.4194828440001,-77.434775744,106,"816 BLAKELY COURT 219, FREDERICK, MD, 21702","Match","Exact","816 BLAKELY CT, FREDERICK, MD, 21702",60699915,"R"
297107,"816 BRAWLEY SCHOOL ROAD SUITE D","MOORESVILLE","NC",28117,35.577394236,-80.8867708239999,107,"816 BRAWLEY SCHOOL ROAD SUITE D, MOORESVILLE, NC, 28117","Match","Exact","816 BRAWLEY SCHOOL RD, MOORESVILLE, NC, 28117",46013471,"L"
297108,"816 BROOKHOLLOW LANE","CHATTANOOGA","TN",37421,34.991304863,-85.123814564,108,"816 BROOKHOLLOW LANE, CHATTANOOGA, TN, 37421","Match","Exact","816 BROOKHOLLOW LN, CHATTANOOGA, TN, 37421",59319792,"R"
297109,"816 BROOKSHIRE BLVD","MARYVILLE","TN",37803,35.723744132,-83.985842229,109,"816 BROOKSHIRE BLVD, MARYVILLE, TN, 37803","Match","Exact","816 BROOKSHIRE BLVD, MARYVILLE, TN, 37803",617444614,"R"
297110,"816 CALIFORNIA AVENUE","SPARTANBURG","SC",29303,34.9743918790001,-81.958340683,110,"816 CALIFORNIA AVENUE, SPARTANBURG, SC, 29303","Match","Exact","816 CALIFORNIA AVE, SPARTANBURG, SC, 29303",19512769,"R"
297111,"816 CANONGATE DRIVE","FLOWER MOUND","TX",75022,32.997051479,-97.0727411029999,111,"816 CANONGATE DRIVE, FLOWER MOUND, TX, 75022","Match","Exact","816 CANONGATE DR, FLOWER MOUND, TX, 75022",103385448,"R"
297112,"816 CEDAR BOUGH PLACE","NEW ALBANY","IN",47150,38.294531727,-85.814492447,112,"816 CEDAR BOUGH PLACE, NEW ALBANY, IN, 47150","Match","Exact","816 CEDAR BOUGH PL, NEW ALBANY, IN, 47150",89547037,"R"
297113,"816 CHALK LEVEL ROAD","DURHAM","NC",27704,36.0512153350001,-78.9113976679999,113,"816 CHALK LEVEL ROAD, DURHAM, NC, 27704","Match","Exact","816 CHALK LEVEL RD, DURHAM, NC, 27704",71755402,"R"
297114,"816 CHAMBERLAIN LOOP","LAKE WALES","FL",33853,27.911400476,-81.562553415,114,"816 CHAMBERLAIN LOOP, LAKE WALES, FL, 33853","Match","Exact","816 CHAMBERLAIN LOOP, LAKE WALES, FL, 33853",104895419,"L"
297115,"816 CLAREMONT AVE","NORFOLK","VA",23507,36.865908452,-76.307221113,115,"816 CLAREMONT AVE, NORFOLK, VA, 23507","Match","Exact","816 CLAREMONT AVE, NORFOLK, VA, 23507",122140611,"R"
297116,"816 CLIFFEDGE RD","PIKESVILLE","MD",21208,39.364798018,-76.7389927949999,116,"816 CLIFFEDGE RD, PIKESVILLE, MD, 21208","Match","Exact","816 CLIFFEDGE RD, PIKESVILLE, MD, 21208",191468249,"L"
297117,"816 CREEK DR","CHATTANOOGA","TN",37415,35.134113783,-85.3009695539999,117,"816 CREEK DR, CHATTANOOGA, TN, 37415","Match","Exact","816 CREEK DR, CHATTANOOGA, TN, 37415",59333472,"L"
297118,"816 CRESWELL LANE SUITE 3","OPELOUSAS","LA",70570,30.519628029,-92.076913243,118,"816 CRESWELL LANE SUITE 3, OPELOUSAS, LA, 70570","Match","Non_Exact","816 CRESSWELL LN, OPELOUSAS, LA, 70570",106454492,"L"
297119,"816 DAY HOLLOW ROAD","ENDICOTT","NY",13760,42.1124579610001,-76.0783798259999,119,"816 DAY HOLLOW ROAD, ENDICOTT, NY, 13760","Match","Exact","816 DAY HOLLOW RD, ENDICOTT, NY, 13760",46336850,"R"
297120,"816 DOMINION DRIVE SUITE 100","HUDSON","WI",54016,44.961487736,-92.739206038,120,"816 DOMINION DRIVE SUITE 100, HUDSON, WI, 54016","Match","Exact","816 DOMINION DR, HUDSON, WI, 54016",110916745,"L"
297121,"816 E 149TH STREET","BRONX","NY",10455,40.812552441,-73.905793649,121,"816 E 149TH STREET, BRONX, NY, 10455","Match","Exact","816 E 149TH ST, BRONX, NY, 10455",80302203,"R"
297122,"816 E BROADWAY","LOUISVILLE","KY",40204,38.244587734,-85.738292466,122,"816 E BROADWAY, LOUISVILLE, KY, 40204","Match","Exact","816 E BROADWAY, LOUISVILLE, KY, 40204",96846212,"R"
297123,"816 E STOCKBRIDGE","KALAMAZOO","MI",49001,42.277468255,-85.5696740669999,123,"816 E STOCKBRIDGE, KALAMAZOO, MI, 49001","Match","Non_Exact","816 E STOCKBRIDGE AVE, KALAMAZOO, MI, 49001",12230172,"R"
297124,"816 E SUNSET AVE","GRAND ISLAND","NE",68803,40.913055274,-98.32911072,124,"816 E SUNSET AVE, GRAND ISLAND, NE, 68803","Match","Non_Exact","816 E SUNSET AVE, GRAND ISLAND, NE, 68801",196251545,"L"
297125,"816 E SYMMES STREET","NORMAN","OK",73071,35.222050333,-97.4316490529999,125,"816 E SYMMES STREET, NORMAN, OK, 73071","Match","Exact","816 E SYMMES ST, NORMAN, OK, 73071",99942045,"R"
297126,"816 EARLINE STREET","BIRMINGHAM","AL",35235,33.622440667,-86.670223661,126,"816 EARLINE STREET, BIRMINGHAM, AL, 35235","Match","Non_Exact","816 EARLINE ST, BIRMINGHAM, AL, 35215",81569317,"L"
297127,"816 EAST 5TH STREET","SOUTH BOSTON","MA",2127,42.3340656720001,-71.02796383,127,"816 EAST 5TH STREET, SOUTH BOSTON, MA, 2127","Match","Exact","816 E 5TH ST, SOUTH BOSTON, MA, 02127",85714102,"L"
297128,"816 EAST CHADDS FORD LANE  APT 10","MIDVALE","UT",84047,NA,NA,128,"816 EAST CHADDS FORD LANE  APT 10, MIDVALE, UT, 84047","No_Match",NA,NA,NA,NA
297129,"816 EDGEWOOD RD","EDGEWOOD","MD",21040,39.4300886660001,-76.3035703159999,129,"816 EDGEWOOD RD, EDGEWOOD, MD, 21040","Match","Exact","816 EDGEWOOD RD, EDGEWOOD, MD, 21040",624685138,"L"
297130,"816 ELECTRON WAY","FIRCREST","WA",98466,47.233294948,-122.515399572,130,"816 ELECTRON WAY, FIRCREST, WA, 98466","Match","Exact","816 ELECTRON WAY, FIRCREST, WA, 98466",184619547,"L"
297131,"816 EMERALD DRIVE","LAFAYETTE","IN",47905,40.432223219,-86.826507312,131,"816 EMERALD DRIVE, LAFAYETTE, IN, 47905","Match","Exact","816 EMERALD DR, LAFAYETTE, IN, 47905",27317702,"L"
297132,"816 ESTON STREET","CAMARILLO","CA",93010,34.2253292660001,-119.028028409,132,"816 ESTON STREET, CAMARILLO, CA, 93010","Match","Exact","816 ESTON ST, CAMARILLO, CA, 93010",109961273,"R"
297133,"816 GALLOWS CT","CULPEPER","VA",22701,38.4753482630001,-78.0071552159999,133,"816 GALLOWS CT, CULPEPER, VA, 22701","Match","Exact","816 GALLOWS CT, CULPEPER, VA, 22701",225080501,"R"
297134,"816 GOLFSIDE LANE","SEBRING","FL",33870,27.471272384,-81.477514825,134,"816 GOLFSIDE LANE, SEBRING, FL, 33870","Match","Exact","816 GOLFSIDE LN, SEBRING, FL, 33870",4651907,"L"
297135,"816 GRATZ ST","KNOXVILLE","TN",37917,35.9787138090001,-83.922342729,135,"816 GRATZ ST, KNOXVILLE, TN, 37917","Match","Non_Exact","816 GRATZ ST NE, KNOXVILLE, TN, 37917",42619811,"R"
297136,"816 GREEN CASTLE DRIVE","DALLAS","TX",75232,32.6889841190001,-96.834659141,136,"816 GREEN CASTLE DRIVE, DALLAS, TX, 75232","Match","Exact","816 GREEN CASTLE DR, DALLAS, TX, 75232",102948245,"L"
297137,"816 GREENVIEW CT","AUBREY","TX",76227,33.2928644,-96.991632436,137,"816 GREENVIEW CT, AUBREY, TX, 76227","Match","Exact","816 GREENVIEW CT, AUBREY, TX, 76227",614172000,"L"
297138,"816 HAMPTON CIRCLE","ROCHESTER","MI",48307,42.6446055850001,-83.115777962,138,"816 HAMPTON CIRCLE, ROCHESTER, MI, 48307","Match","Exact","816 HAMPTON CIR, ROCHESTER, MI, 48307",69714367,"R"
297139,"816 HIGHLAND AVE","WEST MILTON","PA",17886,41.020601492,-76.8743119659999,139,"816 HIGHLAND AVE, WEST MILTON, PA, 17886","Match","Exact","816 HIGHLAND AVE, WEST MILTON, PA, 17886",48185252,"L"
297140,"816 ILLINOIS ROAD","BIRMINGHAM","AL",35221,33.440758934,-86.9068310339999,140,"816 ILLINOIS ROAD, BIRMINGHAM, AL, 35221","Match","Exact","816 ILLINOIS RD, BIRMINGHAM, AL, 35221",81557556,"L"
297141,"816 JUANITA STREET","SOLANA BEACH","CA",92075,32.988636485,-117.258145538,141,"816 JUANITA STREET, SOLANA BEACH, CA, 92075","Match","Exact","816 JUANITA ST, SOLANA BEACH, CA, 92075",195294334,"L"
297142,"816 JUNIPER STREET","OROVILLE","WA",98844,48.9325749430001,-119.43953088,142,"816 JUNIPER STREET, OROVILLE, WA, 98844","Match","Exact","816 JUNIPER ST, OROVILLE, WA, 98844",157332200,"L"
297143,"816 JUSTIN DRIVE","YUKON","OK",73099,35.514747196,-97.73110683,143,"816 JUSTIN DRIVE, YUKON, OK, 73099","Match","Exact","816 JUSTIN DR, YUKON, OK, 73099",613793902,"L"
297144,"816 LANCELOT DR","PLEASANT GARDEN","NC",27313,35.9637630060001,-79.7824735999999,144,"816 LANCELOT DR, PLEASANT GARDEN, NC, 27313","Match","Exact","816 LANCELOT DR, PLEASANT GARDEN, NC, 27313",131065856,"L"
297145,"816 MADISON AVENUE","MADISON","MS",39110,32.4578371800001,-90.126538454,145,"816 MADISON AVENUE, MADISON, MS, 39110","Match","Exact","816 MADISON AVE, MADISON, MS, 39110",640617808,"L"
297146,"816 MAIN ST","MARTINEZ","CA",94553,38.0178121000001,-122.135548286,146,"816 MAIN ST, MARTINEZ, CA, 94553","Match","Exact","816 MAIN ST, MARTINEZ, CA, 94553",192035452,"R"
297147,"816 MAPLE AVE","ZANESVILLE","OH",43701,39.950386758,-82.0108435819999,147,"816 MAPLE AVE, ZANESVILLE, OH, 43701","Match","Exact","816 MAPLE AVE, ZANESVILLE, OH, 43701",45594514,"L"
297148,"816 MAXWELL AVENUE","EVANSVILLE","IN",47711,37.993876497,-87.551574591,148,"816 MAXWELL AVENUE, EVANSVILLE, IN, 47711","Match","Exact","816 MAXWELL AVE, EVANSVILLE, IN, 47711",39783974,"L"
297149,"816 MEADOW MOUNTAIN DRIVE","WACO","TX",76712,31.4864001660001,-97.2203793629999,149,"816 MEADOW MOUNTAIN DRIVE, WACO, TX, 76712","Match","Exact","816 MEADOW MOUNTAIN DR, WACO, TX, 76712",146773312,"R"
297150,"816 MINNIE STREET UNIT 9","SANTA ANA","CA",92701,33.737567519,-117.855048526,150,"816 MINNIE STREET UNIT 9, SANTA ANA, CA, 92701","Match","Non_Exact","816 S MINNIE ST, SANTA ANA, CA, 92701",144053876,"R"
297151,"816 MYSTIC DRIVE SUITE 403","CAPE CANAVERAL","FL",32920,28.4012037680001,-80.594780651,151,"816 MYSTIC DRIVE SUITE 403, CAPE CANAVERAL, FL, 32920","Match","Exact","816 MYSTIC DR, CAPE CANAVERAL, FL, 32920",642894845,"R"
297152,"816 N 44TH ST STE 3","OMAHA","NE",68131,41.266717171,-95.9787638779999,152,"816 N 44TH ST STE 3, OMAHA, NE, 68131","Match","Non_Exact","816 N 44TH ST, OMAHA, NE, 68131",116979012,"L"
297153,"816 N 4TH STREET","WACO","TX",76707,31.5624607560001,-97.1367730009999,153,"816 N 4TH STREET, WACO, TX, 76707","Match","Exact","816 N 4TH ST, WACO, TX, 76707",146736045,"L"
297154,"816 N 7TH ST","COTTONWOOD","AZ",86326,34.7457818510001,-112.020603067,154,"816 N 7TH ST, COTTONWOOD, AZ, 86326","Match","Exact","816 N 7TH ST, COTTONWOOD, AZ, 86326",159452723,"L"
297155,"816 N DELSEA DRIVE","GLASSBORO","NJ",8028,NA,NA,155,"816 N DELSEA DRIVE, GLASSBORO, NJ, 8028","No_Match",NA,NA,NA,NA
297156,"816 NE 6TH ST","OKLAHOMA CITY","OK",73104,35.473900658,-97.498574418,156,"816 NE 6TH ST, OKLAHOMA CITY, OK, 73104","Match","Exact","816 NE 6TH ST, OKLAHOMA CITY, OK, 73104",100403405,"R"
297157,"816 NORTH DELSEA DRIVE SUITE 316","GLASSBORO","NJ",8028,NA,NA,157,"816 NORTH DELSEA DRIVE SUITE 316, GLASSBORO, NJ, 8028","No_Match",NA,NA,NA,NA
297158,"816 NORTH THORNTON AVE","ORLANDO","FL",32803,28.5553579570001,-81.36549122,158,"816 NORTH THORNTON AVE, ORLANDO, FL, 32803","Match","Non_Exact","816 THORNTON AVE, ORLANDO, FL, 32803",94282195,"L"
297159,"816 NW 1ST AVE","HALLANDALE BEACH","FL",33009,25.9939536480001,-80.149672777,159,"816 NW 1ST AVE, HALLANDALE BEACH, FL, 33009","Match","Exact","816 NW 1ST AVE, HALLANDALE BEACH, FL, 33009",114736582,"R"
297160,"816 NW 2NE AVE","MIAMI","FL",33138,NA,NA,160,"816 NW 2NE AVE, MIAMI, FL, 33138","No_Match",NA,NA,NA,NA
297161,"816 OAKWOOD TERRACE DR","ANTIOCH","TN",37013,36.0727232350001,-86.674126818,161,"816 OAKWOOD TERRACE DR, ANTIOCH, TN, 37013","Match","Exact","816 OAKWOOD TERRACE DR, ANTIOCH, TN, 37013",97198548,"R"
297162,"816 ODDSTAD BLVD","PACIFICA","CA",94044,37.58530225,-122.470323065,162,"816 ODDSTAD BLVD, PACIFICA, CA, 94044","Match","Exact","816 ODDSTAD BLVD, PACIFICA, CA, 94044",192372632,"R"
297163,"816 OHIO AVE","ST CLOUD","FL",34769,28.250435204,-81.280079077,163,"816 OHIO AVE, ST CLOUD, FL, 34769","Match","Exact","816 OHIO AVE, SAINT CLOUD, FL, 34769",176666715,"R"
297164,"816 OLIVE STREET","PETALUMA","CA",94952,38.2248821110001,-122.630811018,164,"816 OLIVE STREET, PETALUMA, CA, 94952","Match","Exact","816 OLIVE ST, PETALUMA, CA, 94952",67530580,"R"
297165,"816 PACIFIC AVE","SANTA CRUZ","CA",95060,36.969785394,-122.024940842,165,"816 PACIFIC AVE, SANTA CRUZ, CA, 95060","Match","Exact","816 PACIFIC AVE, SANTA CRUZ, CA, 95060",125506196,"R"
297166,"816 PASEO DEL PUEBLO NORTE","TAOS","NM",87571,36.4212429630001,-105.57266035,166,"816 PASEO DEL PUEBLO NORTE, TAOS, NM, 87571","Match","Non_Exact","816 PSO DEL PUEBLO NORTE, TAOS, NM, 87571",647622444,"L"
297167,"816 PEARL STREET","BROCKTON","MA",2301,42.0613527150001,-71.0659383989999,167,"816 PEARL STREET, BROCKTON, MA, 2301","Match","Exact","816 PEARL ST, BROCKTON, MA, 02301",87481967,"L"
297168,"816 PENNSYLVANIA AVENUE","SAINT CLOUD","FL",34769,28.2504342030001,-81.282428936,168,"816 PENNSYLVANIA AVENUE, SAINT CLOUD, FL, 34769","Match","Exact","816 PENNSYLVANIA AVE, SAINT CLOUD, FL, 34769",176666714,"R"
297169,"816 POLARIS DRIVE","TUSTIN","CA",92782,33.701408234,-117.807254597,169,"816 POLARIS DRIVE, TUSTIN, CA, 92782","Match","Exact","816 POLARIS DR, TUSTIN, CA, 92782",617090743,"R"
297170,"816 PONDELLA DRIVE","CHARLOTTE","NC",28213,35.268704353,-80.782017799,170,"816 PONDELLA DRIVE, CHARLOTTE, NC, 28213","Match","Exact","816 PONDELLA DR, CHARLOTTE, NC, 28213",70480911,"R"
297171,"816 PROVINCE SPRING CIRCLE","GREENSBORO","NC",27403,36.065561314,-79.801865734,171,"816 PROVINCE SPRING CIRCLE, GREENSBORO, NC, 27403","Match","Exact","816 PROVINCE SPRING CIR, GREENSBORO, NC, 27403",646503159,"L"
297172,"816 PUGET ST","BELLINGHAM","WA",98229,48.7358738620001,-122.455797298,172,"816 PUGET ST, BELLINGHAM, WA, 98229","Match","Exact","816 PUGET ST, BELLINGHAM, WA, 98229",636499996,"L"
297173,"816 QUAIL RUN","COAL CITY","IL",60416,41.276664989,-88.297349001,173,"816 QUAIL RUN, COAL CITY, IL, 60416","Match","Exact","816 QUAIL RUN, COAL CITY, IL, 60416",54453193,"R"
297174,"816 QUEEN ST","HONOLULU","HI",96813,21.299234319,-157.855687646,174,"816 QUEEN ST, HONOLULU, HI, 96813","Match","Exact","816 QUEEN ST, HONOLULU, HI, 96813",203236445,"L"
297175,"816 REDAN STREET","HOUSTON","TX",77009,29.7897010660001,-95.381072177,175,"816 REDAN STREET, HOUSTON, TX, 77009","Match","Exact","816 REDAN ST, HOUSTON, TX, 77009",96065424,"L"
297176,"816 RIVERSIDE DRIVE","SALISBURY","MD",21801,38.3561039360001,-75.612941419,176,"816 RIVERSIDE DRIVE, SALISBURY, MD, 21801","Match","Exact","816 RIVERSIDE DR, SALISBURY, MD, 21801",114452723,"L"
297177,"816 S 169TH STREET","OMAHA","NE",68118,41.252314825,-96.178228329,177,"816 S 169TH STREET, OMAHA, NE, 68118","Match","Exact","816 S 169TH ST, OMAHA, NE, 68118",641510903,"R"
297178,"816 S READING AVENUE","BOYERTOWN","PA",19512,40.3234357640001,-75.653560102,178,"816 S READING AVENUE, BOYERTOWN, PA, 19512","Match","Exact","816 S READING AVE, BOYERTOWN, PA, 19512",80395594,"L"
297179,"816 S SAGINAW STREET","FLINT","MI",48502,43.0129714080001,-83.688202265,179,"816 S SAGINAW STREET, FLINT, MI, 48502","Match","Exact","816 S SAGINAW ST, FLINT, MI, 48502",69568123,"R"
297180,"816 S SPRING AVE","LAGRANGE","IL",60525,41.7990830700001,-87.8751884549999,180,"816 S SPRING AVE, LAGRANGE, IL, 60525","Match","Non_Exact","816 S SPRING AVE, LAGRANGE HLDS, IL, 60525",111790489,"R"
297181,"816 S WALTER REED DRIVE","ARLINGTON","VA",22204,38.8654229860001,-77.087637488,181,"816 S WALTER REED DRIVE, ARLINGTON, VA, 22204","Match","Exact","816 S WALTER REED DR, ARLINGTON, VA, 22204",76470634,"R"
297182,"816 SAGE HILL DRIVE","RED LION","PA",17356,39.9344414380001,-76.651609724,182,"816 SAGE HILL DRIVE, RED LION, PA, 17356","Match","Exact","816 SAGE HILL DR, RED LION, PA, 17356",624353619,"R"
297183,"816 SCHEWE ROAD","MIDDLETON","WI",53562,NA,NA,183,"816 SCHEWE ROAD, MIDDLETON, WI, 53562","No_Match",NA,NA,NA,NA
297184,"816 SOUTH ASPEN STREET","LINCOLNTON","NC",28092,35.4646676780001,-81.2543600349999,184,"816 SOUTH ASPEN STREET, LINCOLNTON, NC, 28092","Match","Exact","816 S ASPEN ST, LINCOLNTON, NC, 28092",69527087,"L"
297185,"816 STATE STREET","MADISON","WI",53705,43.0749570830001,-89.400292575,185,"816 STATE STREET, MADISON, WI, 53705","Match","Non_Exact","816 STATE ST, MADISON, WI, 53706",49469394,"R"
297186,"816 STOCKTON ST","SAN FRANCISCO","CA",94108,37.7933722870001,-122.407754596,186,"816 STOCKTON ST, SAN FRANCISCO, CA, 94108","Match","Exact","816 STOCKTON ST, SAN FRANCISCO, CA, 94108",192280862,"R"
297187,"816 TAMARRON PKWY  SE","ATLANTA","GA",30339,33.8421991440001,-84.481592242,187,"816 TAMARRON PKWY  SE, ATLANTA, GA, 30339","Match","Exact","816 TAMARRON PKWY SE, ATLANTA, GA, 30339",17250875,"L"
297188,"816 TIBET AVE","SAVANNAH","GA",31406,31.9951413740001,-81.148483664,188,"816 TIBET AVE, SAVANNAH, GA, 31406","Match","Exact","816 TIBET AVE, SAVANNAH, GA, 31406",6201187,"R"
297189,"816 TULLY RD C/O CINDY GALLER - CPA","KNOXVILLE","TN",37919,35.9054751850001,-84.050558141,189,"816 TULLY RD C/O CINDY GALLER - CPA, KNOXVILLE, TN, 37919","Match","Exact","816 TULLY RD, KNOXVILLE, TN, 37919",604624206,"L"
297190,"816 VILLAGE ROAD","CHARLOTTESVILLE","VA",22903,38.0187005170001,-78.501381726,190,"816 VILLAGE ROAD, CHARLOTTESVILLE, VA, 22903","Match","Exact","816 VILLAGE RD, CHARLOTTESVILLE, VA, 22903",83369573,"R"
297191,"816 W 117TH ST","LOS ANGELES","CA",90044,33.9273277460001,-118.289761425,191,"816 W 117TH ST, LOS ANGELES, CA, 90044","Match","Exact","816 W 117TH ST, LOS ANGELES, CA, 90044",141661680,"L"
297192,"816 W 75TH STREET","LOS ANGELES","CA",90044,33.971702065,-118.287730834,192,"816 W 75TH STREET, LOS ANGELES, CA, 90044","Match","Exact","816 W 75TH ST, LOS ANGELES, CA, 90044",142753429,"L"
297193,"816 W FRANCIS AVE PMB 136","SPOKANE","WA",99205,47.715128013,-117.423039417,193,"816 W FRANCIS AVE PMB 136, SPOKANE, WA, 99205","Match","Non_Exact","816 W FRANCIS AVE, SPOKANE, WA, 99205",605641862,"R"
297194,"816 W FRANCIS AVENUE NO 621","SPOKANE","WA",99218,NA,NA,194,"816 W FRANCIS AVENUE NO 621, SPOKANE, WA, 99218","No_Match",NA,NA,NA,NA
297195,"816 WATERWORKS DRIVE","MOUNT WASHINGTON","KY",40047,38.0152095110001,-85.5462531169999,195,"816 WATERWORKS DRIVE, MOUNT WASHINGTON, KY, 40047","Match","Non_Exact","816 WATERWORKS RD, MOUNT WASHINGTON, KY, 40047",47744518,"R"
297196,"816 WEST 23RD STREET","LORAIN","OH",44052,41.448679885,-82.175530426,196,"816 WEST 23RD STREET, LORAIN, OH, 44052","Match","Exact","816 W 23RD ST, LORAIN, OH, 44052",55405766,"R"
297197,"816 WEST 52ND STREET","NLR","AR",72118,34.8027937570001,-92.274626149,197,"816 WEST 52ND STREET, NLR, AR, 72118","Match","Non_Exact","816 W 52ND ST, N LITTLE ROCK, AR, 72118",83507394,"L"
297198,"816 WOODLAND AVENUE","OAKMONT","PA",15139,40.5255371330001,-79.833073895,198,"816 WOODLAND AVENUE, OAKMONT, PA, 15139","Match","Exact","816 WOODLAND AVE, OAKMONT, PA, 15139",51932939,"R"
297199,"816 WOODLAND ROAD","RALEIGH","NC",27603,35.701189562,-78.6525663689999,199,"816 WOODLAND ROAD, RALEIGH, NC, 27603","Match","Exact","816 WOODLAND RD, RALEIGH, NC, 27603",208347135,"L"
297200,"816 YANCEY ST","DURHAM","NC",27701,35.99402661,-78.9133867899999,200,"816 YANCEY ST, DURHAM, NC, 27701","Match","Exact","816 YANCEY ST, DURHAM, NC, 27701",71739296,"R"
297201,"8160 BLAKELAND DRIVE UNIT D","LITTLETON","CO",80125,39.5568261390001,-105.044260183,201,"8160 BLAKELAND DRIVE UNIT D, LITTLETON, CO, 80125","Match","Exact","8160 BLAKELAND DR, LITTLETON, CO, 80125",130842203,"L"
297202,"8160 BRIESE LANE","PENSACOLA","FL",32514,30.511676429,-87.254425919,202,"8160 BRIESE LANE, PENSACOLA, FL, 32514","Match","Exact","8160 BRIESE LN, PENSACOLA, FL, 32514",93213135,"R"
297203,"8160 GENEVA CT","DORAL","FL",33166,25.8173145700001,-80.3294822619999,203,"8160 GENEVA CT, DORAL, FL, 33166","Match","Exact","8160 GENEVA CT, DORAL, FL, 33166",651226041,"L"
297204,"8160 HONEYTREE BLVD","CANTON","MI",48187,42.3455599960001,-83.4365719579999,204,"8160 HONEYTREE BLVD, CANTON, MI, 48187","Match","Exact","8160 HONEYTREE BLVD, CANTON, MI, 48187",95411024,"L"
297205,"8160 N GRAY LOG LANE","FOX POINT","WI",53217,43.166671073,-87.889841098,205,"8160 N GRAY LOG LANE, FOX POINT, WI, 53217","Match","Exact","8160 N GRAY LOG LN, FOX POINT, WI, 53217",77736808,"R"
297206,"8160 NORTH WEST BAYSHORE DRIVE","NORTHPORT","MI",49670,45.1013909370001,-85.611879016,206,"8160 NORTH WEST BAYSHORE DRIVE, NORTHPORT, MI, 49670","Match","Non_Exact","8160 N WEST BAY SHORE DR, NORTHPORT, MI, 49670",145984931,"R"
297207,"8160 PLEASANTVILLE RD NE","THORNVILLE","OH",43076,39.8054905820001,-82.433965996,207,"8160 PLEASANTVILLE RD NE, THORNVILLE, OH, 43076","Match","Exact","8160 PLEASANTVILLE RD NE, THORNVILLE, OH, 43076",37219561,"R"
297208,"8160 SW CRATER LOOP RD","TERREBONNE","OR",97760,44.4499260440001,-121.294063597,208,"8160 SW CRATER LOOP RD, TERREBONNE, OR, 97760","Match","Exact","8160 SW CRATER LOOP RD, TERREBONNE, OR, 97760",153251890,"R"
297209,"8160 VETERANS PKWY SUITE 221","COLUMBUS","GA",31909,32.5663362990001,-84.9349880789999,209,"8160 VETERANS PKWY SUITE 221, COLUMBUS, GA, 31909","Match","Exact","8160 VETERANS PKWY, COLUMBUS, GA, 31909",651787585,"L"
297210,"8160 WEST GLENROSA AVENUE","PHOENIX","AZ",85033,33.4984694510001,-112.235500912,210,"8160 WEST GLENROSA AVENUE, PHOENIX, AZ, 85033","Match","Exact","8160 W GLENROSA AVE, PHOENIX, AZ, 85033",128170797,"R"
297211,"8161 AUTUMN DRIVE","GEORGETOWN","IN",47122,38.2994169400001,-85.973325916,211,"8161 AUTUMN DRIVE, GEORGETOWN, IN, 47122","Match","Exact","8161 AUTUMN DR, GEORGETOWN, IN, 47122",89552123,"R"
297212,"8161 BARRINGTON DR","LA MIRADA","CA",90638,33.8940254410001,-117.991569623,212,"8161 BARRINGTON DR, LA MIRADA, CA, 90638","Match","Exact","8161 BARRINGTON DR, LA MIRADA, CA, 90638",144000669,"L"
297213,"8161 CAPE HOPE CIRCLE UNIT 102","HUNTINGTON BEACH","CA",92646,33.6706010840001,-117.985400044,213,"8161 CAPE HOPE CIRCLE UNIT 102, HUNTINGTON BEACH, CA, 92646","Match","Exact","8161 CAPE HOPE CIR, HUNTINGTON BEACH, CA, 92646",144088800,"R"
297214,"8161 E 29TH AVE","DENVER","CO",80238,39.758129958,-104.893308939,214,"8161 E 29TH AVE, DENVER, CO, 80238","Match","Exact","8161 E 29TH AVE, DENVER, CO, 80238",606081440,"L"
297215,"8161 E BEACH DR NW","WASHINGTON","DC",20012,38.991423486,-77.043894431,215,"8161 E BEACH DR NW, WASHINGTON, DC, 20012","Match","Exact","8161 E BEACH DR NW, WASHINGTON, DC, 20012",76221311,"R"
297216,"8161 HWY 100 PMB 228","NASHVILLE","TN",37221,36.044718308,-86.954774089,216,"8161 HWY 100 PMB 228, NASHVILLE, TN, 37221","Match","Non_Exact","8161 HWY 100, NASHVILLE, TN, 37221",636810215,"L"
297217,"8161 MEETING ST APT 104","WEST CHESTER TOWNSHI","OH",45069,39.348091858,-84.397398058,217,"8161 MEETING ST APT 104, WEST CHESTER TOWNSHI, OH, 45069","Match","Non_Exact","8161 MEETING ST, WEST CHESTER, OH, 45069",113811636,"R"
297218,"8161 SHADY GROVE RD","JACKSONVILLE","FL",32256,30.219299001,-81.5312846469999,218,"8161 SHADY GROVE RD, JACKSONVILLE, FL, 32256","Match","Exact","8161 SHADY GROVE RD, JACKSONVILLE, FL, 32256",83937929,"R"
297219,"8161 WYATT RD","BROADVIEW HEIGHTS","OH",44147,41.3432593630001,-81.669640927,219,"8161 WYATT RD, BROADVIEW HEIGHTS, OH, 44147","Match","Exact","8161 WYATT RD, BROADVIEW HEIGHTS, OH, 44147",61169187,"L"
297220,"8162 BIANCA PL","ALEXANDRIA","VA",22309,38.7363386150001,-77.099254504,220,"8162 BIANCA PL, ALEXANDRIA, VA, 22309","Match","Exact","8162 BIANCA PL, ALEXANDRIA, VA, 22309",619914378,"R"
297221,"8162 CRYSTAL WALK CIRCLE","ELK GROVE","CA",95758,38.416813878,-121.407151455,221,"8162 CRYSTAL WALK CIRCLE, ELK GROVE, CA, 95758","Match","Exact","8162 CRYSTAL WALK CIR, ELK GROVE, CA, 95758",624467423,"L"
297222,"8162 E JEFFERSON AVE UNIT 9B","DETROIT","MI",48214,42.3525685650001,-82.993056171,222,"8162 E JEFFERSON AVE UNIT 9B, DETROIT, MI, 48214","Match","Non_Exact","8162 E JEFFERSON AVE, DETROIT, MI, 48214",95485308,"R"
297223,"8162 MEADOW GLEN DR","GERMANTOWN","TN",38138,35.076275589,-89.790950239,223,"8162 MEADOW GLEN DR, GERMANTOWN, TN, 38138","Match","Exact","8162 MEADOW GLEN DR, GERMANTOWN, TN, 38138",72943438,"L"
297224,"8162 N MT VERNON WAY","FORTVILLE","IN",46040,39.9022356190001,-85.8327098299999,224,"8162 N MT VERNON WAY, FORTVILLE, IN, 46040","Match","Exact","8162 MOUNT VERNON WAY, FORTVILLE, IN, 46040",31079697,"R"
297225,"8162 PRESLEY DRIVE","JACKSONVILLE","FL",32216,NA,NA,225,"8162 PRESLEY DRIVE, JACKSONVILLE, FL, 32216","No_Match",NA,NA,NA,NA
297226,"8163 CHANTRY CT","SACRAMENTO","CA",95829,38.4614008460001,-121.362855592,226,"8163 CHANTRY CT, SACRAMENTO, CA, 95829","Match","Exact","8163 CHANTRY CT, SACRAMENTO, CA, 95829",133386843,"L"
297227,"8163 GRAND RIVER - SUITE 100","BRIGHTON","MI",48114,42.5539224250001,-83.7910506489999,227,"8163 GRAND RIVER - SUITE 100, BRIGHTON, MI, 48114","Match","Non_Exact","8163 GRAND RIVER AVE, BRIGHTON, MI, 48114",23561240,"R"
297228,"8163 GRAND RIVER ROAD SUITE 100","BRIGHTON","MI",48114,42.5539224250001,-83.7910506489999,228,"8163 GRAND RIVER ROAD SUITE 100, BRIGHTON, MI, 48114","Match","Non_Exact","8163 GRAND RIVER AVE, BRIGHTON, MI, 48114",23561240,"R"
297229,"8163 GREENRIDGE ROAD","NORTH CHARLESTON","SC",29410,32.953379452,-80.060528362,229,"8163 GREENRIDGE ROAD, NORTH CHARLESTON, SC, 29410","Match","Non_Exact","8163 GREENRIDGE RD, N CHARLESTON, SC, 29406",108797146,"L"
297230,"8164 ANDOVER CT UNIT D","WEST PALM BEACH","FM",33406,NA,NA,230,"8164 ANDOVER CT UNIT D, WEST PALM BEACH, FM, 33406","No_Match",NA,NA,NA,NA
297231,"8164 SOMMERWELL STREET","RALEIGH","NC",27613,35.8832587480001,-78.734293951,231,"8164 SOMMERWELL STREET, RALEIGH, NC, 27613","Match","Exact","8164 SOMMERWELL ST, RALEIGH, NC, 27613",612814996,"R"
297232,"8164 W 54TH LN","ARVADA","CO",80002,39.796231752,-105.08802536,232,"8164 W 54TH LN, ARVADA, CO, 80002","Match","Exact","8164 W 54TH LN, ARVADA, CO, 80002",648074445,"L"
297233,"8165 CRESTLINE LANE","MECHANICSVILLE","VA",23111,37.619121949,-77.3837572749999,233,"8165 CRESTLINE LANE, MECHANICSVILLE, VA, 23111","Match","Exact","8165 CRESTLINE LN, MECHANICSVILLE, VA, 23111",84962199,"R"
297234,"8165 PASCHAL ST","JACKSONVILLE","FL",32220,30.316404194,-81.784970791,234,"8165 PASCHAL ST, JACKSONVILLE, FL, 32220","Match","Exact","8165 PASCHAL ST, JACKSONVILLE, FL, 32220",83887003,"R"
297235,"8165 PLANK ROAD APT 111","BATON ROUGE","LA",70811,30.522930741,-91.144948093,235,"8165 PLANK ROAD APT 111, BATON ROUGE, LA, 70811","Match","Exact","8165 PLANK RD, BATON ROUGE, LA, 70811",92179340,"L"
297236,"8165 ROCK CREEK PLACE APT 2","CORDOVA","TN",38016,35.1927079290001,-89.791154648,236,"8165 ROCK CREEK PLACE APT 2, CORDOVA, TN, 38016","Match","Non_Exact","8165 ROCKCREEK PL, CORDOVA, TN, 38016",635942705,"R"
297237,"8165 S STEELE STREET","CENTENNIAL","CO",80122,39.5687065760001,-104.950902712,237,"8165 S STEELE STREET, CENTENNIAL, CO, 80122","Match","Exact","8165 S STEELE ST, CENTENNIAL, CO, 80122",177346080,"R"
297238,"8165 SATINWOOD AVE","CALIFORNIA CITY","CA",93505,35.1102289770001,-117.982411772,238,"8165 SATINWOOD AVE, CALIFORNIA CITY, CA, 93505","Match","Exact","8165 SATINWOOD AVE, CALIF CITY, CA, 93505",109025342,"R"
297239,"8165 SW CONNEMARA TERRACE","BEAVERTON","OR",97008,45.461030275,-122.806467353,239,"8165 SW CONNEMARA TERRACE, BEAVERTON, OR, 97008","Match","Exact","8165 SW CONNEMARA TER, BEAVERTON, OR, 97008",647792493,"R"
297240,"8165 VALLEY VIEW CIRCLE   APT 96-C","WESTLAND","MI",48185,42.3487666870001,-83.322757574,240,"8165 VALLEY VIEW CIRCLE   APT 96-C, WESTLAND, MI, 48185","Match","Exact","8165 VALLEY VIEW CIR, WESTLAND, MI, 48185",95494192,"L"
297241,"8166 APPLERIDGE DR","LEWIS CENTER","OH",43035,40.1701832590001,-83.009052832,241,"8166 APPLERIDGE DR, LEWIS CENTER, OH, 43035","Match","Exact","8166 APPLERIDGE DR, LEWIS CENTER, OH, 43035",635844262,"R"
297242,"8166 DALE ST","DEARBORN HEIGHTS","MI",48127,42.351037299,-83.272511004,242,"8166 DALE ST, DEARBORN HEIGHTS, MI, 48127","Match","Exact","8166 DALE ST, DEARBORN HEIGHTS, MI, 48127",95431640,"R"
297243,"8166 DICKINSON COURT","MANASSAS","VA",20111,38.747886667,-77.4432362809999,243,"8166 DICKINSON COURT, MANASSAS, VA, 20111","Match","Exact","8166 DICKINSON CT, MANASSAS, VA, 20111",76526290,"R"
297244,"8166 S HOOVER ST","MIDVALE","UT",84047,40.6030029570001,-111.902395898,244,"8166 S HOOVER ST, MIDVALE, UT, 84047","Match","Exact","8166 HOOVER ST, MIDVALE, UT, 84047",176084804,"R"
297245,"8166 SASSY TREE CT","SACRAMENTO","CA",95829,38.460721893,-121.321857907,245,"8166 SASSY TREE CT, SACRAMENTO, CA, 95829","Match","Exact","8166 SASSY TREE CT, SACRAMENTO, CA, 95829",133395556,"L"
297246,"8166 WILLIT ST","OMAHA","NE",68122,41.3373856540001,-96.03998588,246,"8166 WILLIT ST, OMAHA, NE, 68122","Match","Exact","8166 WILLIT ST, OMAHA, NE, 68122",116974478,"L"
297247,"8167 GARNET AVE NE","CANTON","OH",44721,40.9007930130001,-81.34229851,247,"8167 GARNET AVE NE, CANTON, OH, 44721","Match","Exact","8167 GARNET AVE NE, CANTON, OH, 44721",649802795,"L"
297248,"8167 SOUTHWESTERN BLVD UNIT 248","DALLAS","TX",75206,32.8576870090001,-96.76564482,248,"8167 SOUTHWESTERN BLVD UNIT 248, DALLAS, TX, 75206","Match","Exact","8167 SOUTHWESTERN BLVD, DALLAS, TX, 75206",102918058,"L"
297249,"8167 VINEYARD AVE UNIT 52","RANCHO CUCAMONGA","CA",91730,34.104954352,-117.611043565,249,"8167 VINEYARD AVE UNIT 52, RANCHO CUCAMONGA, CA, 91730","Match","Exact","8167 VINEYARD AVE, RANCHO CUCAMONGA, CA, 91730",641464955,"L"
297250,"8167 WAXWING AVENUE","JACKSONVILLE","FL",32219,30.400627872,-81.746192642,250,"8167 WAXWING AVENUE, JACKSONVILLE, FL, 32219","Match","Exact","8167 WAXWING AVE, JACKSONVILLE, FL, 32219",83887294,"R"
297251,"8167 WESTVIEW DRIVE","COEUR D' ALENE","ID",83815,47.74562948,-116.759530135,251,"8167 WESTVIEW DRIVE, COEUR D' ALENE, ID, 83815","Match","Non_Exact","8167 N WESTVIEW DR, COEUR D ALENE, ID, 83815",192938094,"L"
297252,"8167 WINTERSET CIRCLE","INDIANAPOLIS","IN",46214,39.799433934,-86.304950347,252,"8167 WINTERSET CIRCLE, INDIANAPOLIS, IN, 46214","Match","Exact","8167 WINTERSET CIR, INDIANAPOLIS, IN, 46214",108039771,"L"
297253,"8168 CROWN BAY MARINA SUITE 505","ST THOMAS","VI",802,NA,NA,253,"8168 CROWN BAY MARINA SUITE 505, ST THOMAS, VI, 802","No_Match",NA,NA,NA,NA
297254,"8169 CROWN BAY MARINA STE 505-175","ST THOMAS","VI",802,NA,NA,254,"8169 CROWN BAY MARINA STE 505-175, ST THOMAS, VI, 802","No_Match",NA,NA,NA,NA
297255,"8169 E EXPEDITION DRIVE","NAMPA","ID",83687,43.6264461960001,-116.557239144,255,"8169 E EXPEDITION DRIVE, NAMPA, ID, 83687","Match","Exact","8169 E EXPEDITION DR, NAMPA, ID, 83687",122855178,"R"
297256,"8169 OLD MONTGOMERY RD","ELLICOTT CITY","MD",21043,39.207629266,-76.796290815,256,"8169 OLD MONTGOMERY RD, ELLICOTT CITY, MD, 21043","Match","Exact","8169 OLD MONTGOMERY RD, ELLICOTT CITY, MD, 21043",158965501,"L"
297257,"816PEBBLE COURT","RICHMOND","VA",23224,NA,NA,257,"816PEBBLE COURT, RICHMOND, VA, 23224","No_Match",NA,NA,NA,NA
297258,"817 144TH AVE NE APT B3","BELLEVUE","WA",98007,47.6172394330001,-122.148365805,258,"817 144TH AVE NE APT B3, BELLEVUE, WA, 98007","Match","Exact","817 144TH AVE NE, BELLEVUE, WA, 98007",186968887,"L"
297259,"817 14TH ST","PASCAGOULA","MS",39567,30.34681828,-88.538558455,259,"817 14TH ST, PASCAGOULA, MS, 39567","Match","Exact","817 14TH ST, PASCAGOULA, MS, 39567",89253801,"L"
297260,"817 26TH AVE NE","MINNEAPOLIS","MN",55418,45.0149656290001,-93.250522232,260,"817 26TH AVE NE, MINNEAPOLIS, MN, 55418","Match","Exact","817 26TH AVE NE, MINNEAPOLIS, MN, 55418",43654268,"L"
297261,"817 290TH ST","SCRANTON","IA",51462,41.93550724,-94.488282318,261,"817 290TH ST, SCRANTON, IA, 51462","Match","Exact","817 290TH ST, SCRANTON, IA, 51462",65717386,"L"
297262,"817 7TH ST","SHELDON","IA",51201,43.181441013,-95.846789157,262,"817 7TH ST, SHELDON, IA, 51201","Match","Exact","817 7TH ST, SHELDON, IA, 51201",39346377,"R"
297263,"817 7TH STREET","WASCO","CA",93280,35.594224916,-119.334038913,263,"817 7TH STREET, WASCO, CA, 93280","Match","Exact","817 7TH ST, WASCO, CA, 93280",109008312,"L"
297264,"817 8TH AVENUE SOUTH","CLINTON","IA",52732,41.837533583,-90.204784149,264,"817 8TH AVENUE SOUTH, CLINTON, IA, 52732","Match","Exact","817 8TH AVE S, CLINTON, IA, 52732",16809394,"R"
297265,"817 9TH ST UNIT C","GREELEY","CO",80631,40.423890897,-104.691216433,265,"817 9TH ST UNIT C, GREELEY, CO, 80631","Match","Exact","817 9TH ST, GREELEY, CO, 80631",188677296,"R"
297266,"817 ATLANTIC AVE","LONG BEACH","CA",90813,33.7769184140001,-118.18502289,266,"817 ATLANTIC AVE, LONG BEACH, CA, 90813","Match","Exact","817 ATLANTIC AVE, LONG BEACH, CA, 90813",141694267,"L"
297267,"817 AVE D","MULESHOE","TX",79347,NA,NA,267,"817 AVE D, MULESHOE, TX, 79347","Tie",NA,NA,NA,NA
297268,"817 BERKELEY ST","DURHAM","NC",27705,36.010176513,-78.91592996,268,"817 BERKELEY ST, DURHAM, NC, 27705","Match","Exact","817 BERKELEY ST, DURHAM, NC, 27705",71739107,"L"
297269,"817 CAMINO FLORES","THOUSAND OAKS","CA",91360,NA,NA,269,"817 CAMINO FLORES, THOUSAND OAKS, CA, 91360","No_Match",NA,NA,NA,NA
297270,"817 CARMADELLE ST","MARRERO","LA",70072,29.896148286,-90.1203787539999,270,"817 CARMADELLE ST, MARRERO, LA, 70072","Match","Exact","817 CARMADELLE ST, MARRERO, LA, 70072",93505699,"L"
297271,"817 CASCO DRIVE","LIBURN","GA",30047,33.9107872860001,-84.136928973,271,"817 CASCO DRIVE, LIBURN, GA, 30047","Match","Non_Exact","817 CASCO DR NW, LILBURN, GA, 30047",88885765,"L"
297272,"817 CHARLESGATE DR","OLIVETTE","MO",63132,38.6704355460001,-90.369513295,272,"817 CHARLESGATE DR, OLIVETTE, MO, 63132","Match","Exact","817 CHARLESGATE DR, OLIVETTE, MO, 63132",624093651,"L"
297273,"817 CLACK DRIVE","GARLAND","TX",75044,32.9652098450001,-96.6183527909999,273,"817 CLACK DRIVE, GARLAND, TX, 75044","Match","Exact","817 CLACK DR, GARLAND, TX, 75044",627044346,"L"
297274,"817 CONCEPT 21 CIRCLE","AUSTELL","GA",30168,33.777818381,-84.561324439,274,"817 CONCEPT 21 CIRCLE, AUSTELL, GA, 30168","Match","Exact","817 CONCEPT 21 CIR, AUSTELL, GA, 30168",17249483,"R"
297275,"817 CORCORMANT LN","CHESAPEAKE","VA",23323,36.722446167,-76.353961773,275,"817 CORCORMANT LN, CHESAPEAKE, VA, 23323","Match","Exact","817 CORCORMANT LN, CHESAPEAKE, VA, 23323",651957029,"L"
297276,"817 COUNTRYFIELD","O'FALLON","MO",63367,38.7535888150001,-90.795033508,276,"817 COUNTRYFIELD, O'FALLON, MO, 63367","Match","Non_Exact","817 COUNTRY FIELD DR, O FALLON, MO, 63367",633459188,"R"
297277,"817 COURSON DR","DESOTO","TX",75115,32.586209582,-96.8745984029999,277,"817 COURSON DR, DESOTO, TX, 75115","Match","Exact","817 COURSON DR, DESOTO, TX, 75115",102984890,"R"
297278,"817 CREEKVIEW DRIVE","PELHAM","AL",35124,33.3114245520001,-86.815774796,278,"817 CREEKVIEW DRIVE, PELHAM, AL, 35124","Match","Exact","817 CREEKVIEW DR, PELHAM, AL, 35124",609597340,"R"
297279,"817 DAYTON AVENUE","SAINT PAUL","MN",55104,44.947427502,-93.1346091779999,279,"817 DAYTON AVENUE, SAINT PAUL, MN, 55104","Match","Exact","817 DAYTON AVE, SAINT PAUL, MN, 55104",97646704,"R"
297280,"817 DELACHAISE ST","NEW ORLEANS","LA",70115,29.919999413,-90.088763574,280,"817 DELACHAISE ST, NEW ORLEANS, LA, 70115","Match","Exact","817 DELACHAISE ST, NEW ORLEANS, LA, 70115",191713344,"R"
297281,"817 DENISON DRIVE","NORMAN","OK",73069,35.227947946,-97.458163188,281,"817 DENISON DRIVE, NORMAN, OK, 73069","Match","Exact","817 DENISON DR, NORMAN, OK, 73069",99908709,"R"
297282,"817 DESI LOOP","BELEN","NM",87002,34.648689844,-106.808547231,282,"817 DESI LOOP, BELEN, NM, 87002","Match","Exact","817 DESI LOOP, BELEN, NM, 87002",642853215,"L"
297283,"817 DREXEL AVE","DELRAN","NJ",8075,40.0219004790001,-74.962722255,283,"817 DREXEL AVE, DELRAN, NJ, 8075","Match","Exact","817 DREXEL AVE, DELRAN, NJ, 08075",134026357,"L"
297284,"817 DY AVE","ELMWOOD PARK","NJ",7407,NA,NA,284,"817 DY AVE, ELMWOOD PARK, NJ, 7407","No_Match",NA,NA,NA,NA
297285,"817 E 7TH AVE","NEW SMYRNA BEACH","FL",32169,29.025014631,-80.8918617849999,285,"817 E 7TH AVE, NEW SMYRNA BEACH, FL, 32169","Match","Exact","817 7TH AVE, NEW SMYRNA BEACH, FL, 32169",94534471,"R"
297286,"817 EAGLE PARKWAY","BROWNSBURG","IN",46122,39.85247997,-86.389112833,286,"817 EAGLE PARKWAY, BROWNSBURG, IN, 46122","Match","Non_Exact","817 EAGLE PKWY, BROWNSBURG, IN, 46112",89204682,"R"
297287,"817 EASLEY STREET","SILVER SPRING","MD",20910,38.9940479300001,-77.0225013039999,287,"817 EASLEY STREET, SILVER SPRING, MD, 20910","Match","Exact","817 EASLEY ST, SILVER SPRING, MD, 20910",62068226,"R"
297288,"817 EAST AVE","NORTH AUGUSTA","SC",29841,33.4975883450001,-81.966970788,288,"817 EAST AVE, NORTH AUGUSTA, SC, 29841","Match","Exact","817 EAST AVE, NORTH AUGUSTA, SC, 29841",64985198,"R"
297289,"817 EAST BERRY STREET","FORT WAYNE","IN",46803,41.0809080610001,-85.1274157509999,289,"817 EAST BERRY STREET, FORT WAYNE, IN, 46803","Match","Exact","817 E BERRY ST, FORT WAYNE, IN, 46803",6379719,"L"
297290,"817 EAST C STREET","PUEBLO","CO",81003,38.2581250210001,-104.607980743,290,"817 EAST C STREET, PUEBLO, CO, 81003","Match","Exact","817 E C ST, PUEBLO, CO, 81003",647426623,"R"
297291,"817 EAST ENOS AVE","SPRINGFIELD","IL",62702,39.809621206,-89.6444919589999,291,"817 EAST ENOS AVE, SPRINGFIELD, IL, 62702","Match","Exact","817 E ENOS AVE, SPRINGFIELD, IL, 62702",97324784,"L"
297292,"817 EAST MOORHEAD CIR C","BOULDER","CO",80305,39.982058878,-105.235797263,292,"817 EAST MOORHEAD CIR C, BOULDER, CO, 80305","Match","Exact","817 E MOORHEAD CIR, BOULDER, CO, 80305",643539315,"R"
297293,"817 ELLINGTON STREET","RALEIGH","NC",27601,35.769089896,-78.634600995,293,"817 ELLINGTON STREET, RALEIGH, NC, 27601","Match","Exact","817 ELLINGTON ST, RALEIGH, NC, 27601",72508790,"L"
297294,"817 ELM STREET","RACINER","OH",45771,38.971358041,-81.910432981,294,"817 ELM STREET, RACINER, OH, 45771","Match","Non_Exact","817 ELM ST, RACINE, OH, 45771",101280114,"L"
297295,"817 EST 31ST STREET","KANSAS CITY","MO",64109,39.0696416170001,-94.575123444,295,"817 EST 31ST STREET, KANSAS CITY, MO, 64109","Match","Non_Exact","817 31ST TER, KANSAS CITY, MO, 64109",91505304,"R"
297296,"817 FRANCES DRIVE","GRAND PRAIRIE","TX",75052,32.6866837420001,-97.015472587,296,"817 FRANCES DRIVE, GRAND PRAIRIE, TX, 75052","Match","Exact","817 FRANCES DR, GRAND PRAIRIE, TX, 75052",102937363,"L"
297297,"817 FRONT STREET","GIBBON","NE",68840,40.7491930470001,-98.844861119,297,"817 FRONT STREET, GIBBON, NE, 68840","Match","Exact","817 FRONT ST, GIBBON, NE, 68840",137844361,"R"
297298,"817 GEORGEBORO CT","BRENTWOOD","TN",37027,36.0035030700001,-86.767596421,298,"817 GEORGEBORO CT, BRENTWOOD, TN, 37027","Match","Exact","817 GEORGEBORO CT, BRENTWOOD, TN, 37027",73119066,"L"
297299,"817 GRAVEL STREET","SAN MARCOS","TX",78666,29.8739469930001,-97.944939732,299,"817 GRAVEL STREET, SAN MARCOS, TX, 78666","Match","Exact","817 GRAVEL ST, SAN MARCOS, TX, 78666",63813335,"R"
297300,"817 GREFER AVE","HARVEY","IA",70058,NA,NA,300,"817 GREFER AVE, HARVEY, IA, 70058","No_Match",NA,NA,NA,NA
297301,"817 GREFER ST","HARVEY","LA",70058,29.900519473,-90.0766015629999,301,"817 GREFER ST, HARVEY, LA, 70058","Match","Non_Exact","817 GREFER AVE, HARVEY, LA, 70058",93509315,"L"
297302,"817 HACIENDA CIRCLE","KISSIMMEE","FL",34741,28.2738544920001,-81.412872608,302,"817 HACIENDA CIRCLE, KISSIMMEE, FL, 34741","Match","Exact","817 HACIENDA CIR, KISSIMMEE, FL, 34741",176696993,"L"
297303,"817 HAMILTON ST","RACINE","WA",53404,NA,NA,303,"817 HAMILTON ST, RACINE, WA, 53404","No_Match",NA,NA,NA,NA
297304,"817 HILLTOP DR","BRANDON","FL",33511,27.92473066,-82.291889141,304,"817 HILLTOP DR, BRANDON, FL, 33511","Match","Exact","817 HILLTOP DR, BRANDON, FL, 33511",104596533,"L"
297305,"817 HORATIO BLVD","BUFFALO GROVE","IL",60089,42.1679786280001,-87.947790421,305,"817 HORATIO BLVD, BUFFALO GROVE, IL, 60089","Match","Non_Exact","817 N HORATIO BLVD, BUFFALO GROVE, IL, 60089",119755789,"R"
297306,"817 JACOB CIRCLE","GARRETSON","SD",57030,43.7092791740001,-96.498939014,306,"817 JACOB CIRCLE, GARRETSON, SD, 57030","Match","Exact","817 JACOB CIR, GARRETSON, SD, 57030",624533833,"R"
297307,"817 KENNETH PLACE SE","LEESBURG","VA",20175,39.086613184,-77.540785289,307,"817 KENNETH PLACE SE, LEESBURG, VA, 20175","Match","Exact","817 KENNETH PL SE, LEESBURG, VA, 20175",62339594,"R"
297308,"817 KIMBROUGH ST","SHREVEPORT","LA",71104,32.4832307630001,-93.715782156,308,"817 KIMBROUGH ST, SHREVEPORT, LA, 71104","Match","Exact","817 KIMBROUGH ST, SHREVEPORT, LA, 71104",57438783,"R"
297309,"817 LAKE RIDGE DRIVE","MCDONOUGH","GA",30253,33.461106838,-84.165977197,309,"817 LAKE RIDGE DRIVE, MCDONOUGH, GA, 30253","Match","Exact","817 LAKE RIDGE DR, MCDONOUGH, GA, 30253",645555237,"L"
297310,"817 LEAGUE STREET","PHILADELPHIA","PA",19147,39.9364571400001,-75.157131772,310,"817 LEAGUE STREET, PHILADELPHIA, PA, 19147","Match","Exact","817 LEAGUE ST, PHILADELPHIA, PA, 19147",131423979,"R"
297311,"817 LIVINGSTON AVENUE","ALBANY","NY",12206,42.6763297160001,-73.779750013,311,"817 LIVINGSTON AVENUE, ALBANY, NY, 12206","Match","Exact","817 LIVINGSTON AVE, ALBANY, NY, 12206",18308404,"R"
297312,"817 MADISON STREET NW","WASHINGTON","DC",20011,38.95846154,-77.024510156,312,"817 MADISON STREET NW, WASHINGTON, DC, 20011","Match","Exact","817 MADISON ST NW, WASHINGTON, DC, 20011",76223262,"R"
297313,"817 MAIN STREET","PHILOMATH","OR",97370,44.5402571110001,-123.37449664,313,"817 MAIN STREET, PHILOMATH, OR, 97370","Match","Exact","817 MAIN ST, PHILOMATH, OR, 97370",155847705,"R"
297314,"817 MISSION AVENUE","SAN RAFAEL","CA",94901,37.9743584980001,-122.523838352,314,"817 MISSION AVENUE, SAN RAFAEL, CA, 94901","Match","Exact","817 MISSION AVE, SAN RAFAEL, CA, 94901",192764705,"L"
297315,"817 MORTON AVENUE","DES MOINES","IA",50316,41.619534995,-93.608120193,315,"817 MORTON AVENUE, DES MOINES, IA, 50316","Match","Exact","817 MORTON AVE, DES MOINES, IA, 50316",65783461,"R"
297316,"817 MOUNT VERNON AVENUE","HUNTINGDON","PA",16652,40.4872910240001,-78.0245075399999,316,"817 MOUNT VERNON AVENUE, HUNTINGDON, PA, 16652","Match","Exact","817 MOUNT VERNON AVE, HUNTINGDON, PA, 16652",50609353,"R"
297317,"817 MULFORD ST APT 1","EVANSTON","IL",60202,42.0230158310001,-87.683621143,317,"817 MULFORD ST APT 1, EVANSTON, IL, 60202","Match","Exact","817 MULFORD ST, EVANSTON, IL, 60202",605253177,"R"
297318,"817 N 10TH ST APT 145","SAN JOSE","CA",95112,NA,NA,318,"817 N 10TH ST APT 145, SAN JOSE, CA, 95112","Tie",NA,NA,NA,NA
297319,"817 N ARAPAHO STREET","WICHITA","KS",67212,37.6992507520001,-97.413212474,319,"817 N ARAPAHO STREET, WICHITA, KS, 67212","Match","Non_Exact","817 N ARAPAHO, WICHITA, KS, 67212",115630125,"L"
297320,"817 N HOWE ST STE 3","SOUTHPORT","NC",28461,33.927066165,-78.021689872,320,"817 N HOWE ST STE 3, SOUTHPORT, NC, 28461","Match","Non_Exact","817 N HOWE ST, SOUTHPORT, NC, 28461",153143452,"L"
297321,"817 N HOWE STREET 3","SOUTHPORT","NC",28461,33.927066165,-78.021689872,321,"817 N HOWE STREET 3, SOUTHPORT, NC, 28461","Match","Non_Exact","817 N HOWE ST, SOUTHPORT, NC, 28461",153143452,"L"
297322,"817 N WINDOMERE AVE","DALLAS","TX",75208,32.7526098910001,-96.845266048,322,"817 N WINDOMERE AVE, DALLAS, TX, 75208","Match","Exact","817 N WINDOMERE AVE, DALLAS, TX, 75208",103196720,"L"
297323,"817 NEW BERN AVE SUITE 7","RALEIGH","NC",27601,35.780045295,-78.6270168579999,323,"817 NEW BERN AVE SUITE 7, RALEIGH, NC, 27601","Match","Non_Exact","817 NEW BERN AVE, RALEIGH, NC, 27601",72508878,"L"
297324,"817 NORTH BOULEVARD","ALPHA","NJ",8865,NA,NA,324,"817 NORTH BOULEVARD, ALPHA, NJ, 8865","No_Match",NA,NA,NA,NA
297325,"817 NORTH HARVEY","OAK PARK","IL",60302,41.9003537950001,-87.782616804,325,"817 NORTH HARVEY, OAK PARK, IL, 60302","Match","Non_Exact","817 N HARVEY AVE, OAK PARK, IL, 60302",111752930,"L"
297326,"817 NORTH MAIN STREET","RAYNHAM","MA",2767,41.944251894,-71.050007444,326,"817 NORTH MAIN STREET, RAYNHAM, MA, 2767","Match","Exact","817 N MAIN ST, RAYNHAM, MA, 02767",46782559,"R"
297327,"817 NW 90TH STREET","OKLAHOMA CITY","OK",73114,35.5624135800001,-97.5279446759999,327,"817 NW 90TH STREET, OKLAHOMA CITY, OK, 73114","Match","Exact","817 NW 90TH ST, OKLAHOMA CITY, OK, 73114",606085253,"R"
297328,"817 OAK VISTA DRIVE","SARASOTA","FL",34232,27.343432239,-82.47794192,328,"817 OAK VISTA DRIVE, SARASOTA, FL, 34232","Match","Exact","817 OAK VISTA DR, SARASOTA, FL, 34232",16412624,"L"
297329,"817 OCTAVIA STREET","NEW ORLEANS","LA",70115,29.921306579,-90.115958709,329,"817 OCTAVIA STREET, NEW ORLEANS, LA, 70115","Match","Exact","817 OCTAVIA ST, NEW ORLEANS, LA, 70115",191702604,"R"
297330,"817 PARIS AVENUE","PORT ROYAL","SC",29935,32.374734437,-80.6926303229999,330,"817 PARIS AVENUE, PORT ROYAL, SC, 29935","Match","Exact","817 PARIS AVE, PORT ROYAL, SC, 29935",87611553,"L"
297331,"817 PRESERVE PARK DR","LOGANVILLE","GA",30052,33.829356494,-83.9772636129999,331,"817 PRESERVE PARK DR, LOGANVILLE, GA, 30052","Match","Non_Exact","817 PRESERVE PARK DR SW, LOGANVILLE, GA, 30052",627979256,"R"
297332,"817 QUAIL RUN LN","LANCASTER","TX",75146,32.59119051,-96.801498717,332,"817 QUAIL RUN LN, LANCASTER, TX, 75146","Match","Exact","817 QUAIL RUN LN, LANCASTER, TX, 75146",102971732,"L"
297333,"817 RAINTREE LANE","DESOTO","TX",75115,32.5837707530001,-96.838158662,333,"817 RAINTREE LANE, DESOTO, TX, 75115","Match","Exact","817 RAINTREE LN, DESOTO, TX, 75115",103186404,"L"
297334,"817 REED STREET","PLYMOUTH","WI",53073,43.744558865,-87.970760415,334,"817 REED STREET, PLYMOUTH, WI, 53073","Match","Exact","817 REED ST, PLYMOUTH, WI, 53073",79492746,"L"
297335,"817 RIMES DR","GARLAND","TX",75044,32.962917051,-96.615260677,335,"817 RIMES DR, GARLAND, TX, 75044","Match","Exact","817 RIMES DR, GARLAND, TX, 75044",624155534,"R"
297336,"817 RUTHERFORD DRIVE","CHESAPEAKE","VA",23322,36.6963910600001,-76.2116388649999,336,"817 RUTHERFORD DRIVE, CHESAPEAKE, VA, 23322","Match","Exact","817 RUTHERFORD DR, CHESAPEAKE, VA, 23322",121787809,"L"
297337,"817 S 11TH ST APT 1","TACOMA","WA",98405,47.252425379,-122.447700993,337,"817 S 11TH ST APT 1, TACOMA, WA, 98405","Match","Non_Exact","817 S 11TH ST, TACOMA, WA, 98405",184646872,"R"
297338,"817 S A1A","NEW SMYRNA BEACH","FL",32169,NA,NA,338,"817 S A1A, NEW SMYRNA BEACH, FL, 32169","No_Match",NA,NA,NA,NA
297339,"817 S EMERY ST","INDEPENDENCE","MO",64050,39.0837059780001,-94.407868364,339,"817 S EMERY ST, INDEPENDENCE, MO, 64050","Match","Exact","817 S EMERY ST, INDEPENDENCE, MO, 64050",91522884,"L"
297340,"817 S JACKSON ST","LITCHFIELD","IL",62056,39.1692760110001,-89.653117666,340,"817 S JACKSON ST, LITCHFIELD, IL, 62056","Match","Exact","817 S JACKSON ST, LITCHFIELD, IL, 62056",99438948,"L"
297341,"817 S LAWNDALE AVE APT B","CHICAGO","IL",60624,41.87069468,-87.717992733,341,"817 S LAWNDALE AVE APT B, CHICAGO, IL, 60624","Match","Non_Exact","817 S LAWNDALE AVE, CHICAGO, IL, 60624",111798834,"L"
297342,"817 SEAL POINTE DR","REDWOOD CITY","CA",94065,37.535351787,-122.233690487,342,"817 SEAL POINTE DR, REDWOOD CITY, CA, 94065","Match","Exact","817 SEAL POINTE DR, REDWOOD CITY, CA, 94065",192400187,"L"
297343,"817 SHED STREET","OVIEDO","FL",32765,28.676170814,-81.222454791,343,"817 SHED STREET, OVIEDO, FL, 32765","Match","Exact","817 SHED ST, OVIEDO, FL, 32765",93784333,"R"
297344,"817 SLIM DRIVE","MIDWEST CITY","OK",73130,35.475081517,-97.339305632,344,"817 SLIM DRIVE, MIDWEST CITY, OK, 73130","Match","Exact","817 SLIM DR, MIDWEST CITY, OK, 73130",646812700,"L"
297345,"817 SOUTH FAIRFIELD","ELMHURST","IL",60126,NA,NA,345,"817 SOUTH FAIRFIELD, ELMHURST, IL, 60126","No_Match",NA,NA,NA,NA
297346,"817 SOUTH ST","POINT PLEASANT","NJ",8742,40.07620831,-74.059039118,346,"817 SOUTH ST, POINT PLEASANT, NJ, 8742","Match","Exact","817 SOUTH ST, PT PLEASANT, NJ, 08742",203735741,"R"
297347,"817 ST PHILIP ST","NEW ORLEANS","LA",70116,29.9612130830001,-90.0636420229999,347,"817 ST PHILIP ST, NEW ORLEANS, LA, 70116","Match","Exact","817 SAINT PHILIP ST, NEW ORLEANS, LA, 70116",191710892,"R"
297348,"817 SUN VALLEY DR","DENTON","TX",76209,33.252915939,-97.1209772779999,348,"817 SUN VALLEY DR, DENTON, TX, 76209","Match","Exact","817 SUN VALLEY DR, DENTON, TX, 76209",103339564,"R"
297349,"817 SUN VALLEY DRIVE","DENTON","TX",76209,33.252915939,-97.1209772779999,349,"817 SUN VALLEY DRIVE, DENTON, TX, 76209","Match","Exact","817 SUN VALLEY DR, DENTON, TX, 76209",103339564,"R"
297350,"817 SW LAKE PINES DRIVE","LEES SUMMIT","MO",64082,38.832527801,-94.394718116,350,"817 SW LAKE PINES DRIVE, LEES SUMMIT, MO, 64082","Match","Exact","817 SW LAKE PINES DR, LEES SUMMIT, MO, 64082",100937308,"R"
297351,"817 TERRY PARKWAY","TERRYTOWN","LA",70056,29.8946948130001,-90.030556385,351,"817 TERRY PARKWAY, TERRYTOWN, LA, 70056","Match","Exact","817 TERRY PKWY, TERRYTOWN, LA, 70056",93550433,"L"
297352,"817 VINE STREET","LOS ANGELES","CA",90038,34.0856159510001,-118.326612788,352,"817 VINE STREET, LOS ANGELES, CA, 90038","Match","Exact","817 VINE ST, LOS ANGELES, CA, 90038",141599980,"L"
297353,"817 W 26TH ST","RIFLE","CO",81650,39.5534639850001,-107.786670219,353,"817 W 26TH ST, RIFLE, CO, 81650","Match","Exact","817 W 26TH ST, RIFLE, CO, 81650",105810093,"L"
297354,"817 W AVENUE E","GARLAND","TX",75040,32.908037215,-96.640542196,354,"817 W AVENUE E, GARLAND, TX, 75040","Match","Exact","817 W AVE E, GARLAND, TX, 75040",102927045,"R"
297355,"817 W END STREET","ROCKY MOUNT","NC",27803,35.934254466,-77.804429767,355,"817 W END STREET, ROCKY MOUNT, NC, 27803","Match","Exact","817 W END ST, ROCKY MOUNT, NC, 27803",90383276,"R"
297356,"817 W PIONEER PKWY STE 118","GRAND PRAIRIE","TX",75052,NA,NA,356,"817 W PIONEER PKWY STE 118, GRAND PRAIRIE, TX, 75052","No_Match",NA,NA,NA,NA
297357,"817 W PUSHMATAHA ST","BUTLER","AL",36904,32.0900056880001,-88.229645224,357,"817 W PUSHMATAHA ST, BUTLER, AL, 36904","Match","Exact","817 W PUSHMATAHA ST, BUTLER, AL, 36904",111211,"R"
297358,"817 W WALNUT AVE","DUNCAN","OK",73533,34.5029187700001,-97.9569264949999,358,"817 W WALNUT AVE, DUNCAN, OK, 73533","Match","Exact","817 W WALNUT AVE, DUNCAN, OK, 73533",13648683,"R"
297359,"817 WACO STREET","CAMDEN","AR",71701,33.5431270780001,-92.84440513,359,"817 WACO STREET, CAMDEN, AR, 71701","Match","Non_Exact","817 WACO ST SW, CAMDEN, AR, 71701",11078312,"L"
297360,"817 WARE AVENUE NE","WINTER HAVEN","FL",33881,28.047808253,-81.713304366,360,"817 WARE AVENUE NE, WINTER HAVEN, FL, 33881","Match","Exact","817 WARE AVE NE, WINTER HAVEN, FL, 33881",647084272,"R"
297361,"817 WEST END AVE STE 5D","NEW YORK","NY",10025,40.797711608,-73.971423025,361,"817 WEST END AVE STE 5D, NEW YORK, NY, 10025","Match","Exact","817 W END AVE, NEW YORK, NY, 10025",59656579,"L"
297362,"817 WESTCHESTER AVENUE","BRONX","NY",10455,40.819106149,-73.9027343,362,"817 WESTCHESTER AVENUE, BRONX, NY, 10455","Match","Exact","817 WESTCHESTER AVE, BRONX, NY, 10455",80312302,"L"
297363,"817 WILLOWBROOK COURT","CHULA VISTA","CA",91913,32.649987648,-116.976012832,363,"817 WILLOWBROOK COURT, CHULA VISTA, CA, 91913","Match","Exact","817 WILLOWBROOK CT, CHULA VISTA, CA, 91913",195663826,"L"
297364,"817 WRIGHT BLVD","CONWAY","SC",29527,33.8349178710001,-79.06373187,364,"817 WRIGHT BLVD, CONWAY, SC, 29527","Match","Exact","817 WRIGHT BLVD, CONWAY, SC, 29527",638012404,"L"
297365,"817 YELLOW CREEK ROAD","PROSPECT","PA",16052,40.903091725,-80.098212669,365,"817 YELLOW CREEK ROAD, PROSPECT, PA, 16052","Match","Exact","817 YELLOW CREEK RD, PROSPECT, PA, 16052",607351150,"R"
297366,"8170 CUSTER SCHOOL ROAD","CUSTER","WA",98240,48.937630928,-122.638309102,366,"8170 CUSTER SCHOOL ROAD, CUSTER, WA, 98240","Match","Exact","8170 CUSTER SCHOOL RD, CUSTER, WA, 98240",183758271,"R"
297367,"8170 DEPOT STREET","RURAL HALL","NC",27045,36.242797943,-80.296178764,367,"8170 DEPOT STREET, RURAL HALL, NC, 27045","Match","Exact","8170 DEPOT ST, RURAL HALL, NC, 27045",84672453,"L"
297368,"8170 FM 2828","BANDERA","TX",78003,NA,NA,368,"8170 FM 2828, BANDERA, TX, 78003","No_Match",NA,NA,NA,NA
297369,"8170 GOSHEN ROAD","EDWARDSVILLE","IL",62025,38.784036493,-89.885317104,369,"8170 GOSHEN ROAD, EDWARDSVILLE, IL, 62025","Match","Exact","8170 GOSHEN RD, EDWARDSVILLE, IL, 62025",107694649,"R"
297370,"8170 JACKSON ROAD SUITE F","ANN ARBOR","MI",48103,42.2931811820001,-83.890079338,370,"8170 JACKSON ROAD SUITE F, ANN ARBOR, MI, 48103","Match","Exact","8170 JACKSON RD, ANN ARBOR, MI, 48103",26010730,"R"
297371,"8170 MCCORMICK BLVD   STE 107","SKOKIE","IL",60076,42.02930658,-87.711037532,371,"8170 MCCORMICK BLVD   STE 107, SKOKIE, IL, 60076","Match","Non_Exact","8170 N MCCORMICK BLVD, SKOKIE, IL, 60076",635795105,"L"
297372,"8170 MCCORMICK BLVD STE 204","SKOKIE","IL",60076,42.02930658,-87.711037532,372,"8170 MCCORMICK BLVD STE 204, SKOKIE, IL, 60076","Match","Non_Exact","8170 N MCCORMICK BLVD, SKOKIE, IL, 60076",635795105,"L"
297373,"8170 N 86TH PL STE 208","SCOTTSDALE","AZ",85258,33.554967306,-111.894816624,373,"8170 N 86TH PL STE 208, SCOTTSDALE, AZ, 85258","Match","Non_Exact","8170 N 86TH PL, SCOTTSDALE, AZ, 85258",128283982,"L"
297374,"8170 N 86TH PLACE STE 208","SCOTTSDALE","AZ",85258,33.554967306,-111.894816624,374,"8170 N 86TH PLACE STE 208, SCOTTSDALE, AZ, 85258","Match","Non_Exact","8170 N 86TH PL, SCOTTSDALE, AZ, 85258",128283982,"L"
297375,"8170 SHRIVER DRIVE","ORLANDO","FL",32817,28.4922308070001,-81.275351448,375,"8170 SHRIVER DRIVE, ORLANDO, FL, 32817","Match","Non_Exact","8170 SHRIVER DR, ORLANDO, FL, 32822",94295720,"R"
297376,"8170 SONOMA HILLS WAY","SACRAMENTO","CA",95828,38.460175459,-121.386287283,376,"8170 SONOMA HILLS WAY, SACRAMENTO, CA, 95828","Match","Exact","8170 SONOMA HILLS WAY, SACRAMENTO, CA, 95828",133396688,"L"
297377,"8170 W BUENA VERDE LN","MAGNA","UT",84044,NA,NA,377,"8170 W BUENA VERDE LN, MAGNA, UT, 84044","Tie",NA,NA,NA,NA
297378,"8170 W SAHARA SUITE 202","LAS VEGAS","NV",89117,NA,NA,378,"8170 W SAHARA SUITE 202, LAS VEGAS, NV, 89117","No_Match",NA,NA,NA,NA
297379,"8171 CLOVERGLEN CIRCLE","ORLANDO","FL",32818,28.59902414,-81.493680857,379,"8171 CLOVERGLEN CIRCLE, ORLANDO, FL, 32818","Match","Exact","8171 CLOVERGLEN CIR, ORLANDO, FL, 32818",94333057,"L"
297380,"8171 SAILOR POINT AVE","LAS VEGAS","NV",89147,36.1230899110001,-115.269089317,380,"8171 SAILOR POINT AVE, LAS VEGAS, NV, 89147","Match","Exact","8171 SAILOR POINT AVE, LAS VEGAS, NV, 89147",612680683,"L"
297381,"8171 SKELTON CIR","FALLS CHURCH","VA",22042,38.8676980540001,-77.226786992,381,"8171 SKELTON CIR, FALLS CHURCH, VA, 22042","Match","Exact","8171 SKELTON CIR, FALLS CHURCH, VA, 22042",76046364,"L"
297382,"8171 SW 400 RD","ELDORADO SPRINGS","MO",64772,37.969308804,-93.9348797329999,382,"8171 SW 400 RD, ELDORADO SPRINGS, MO, 64772","Match","Non_Exact","8171 SW 400 RD, EL DORADO SPG, MO, 64744",23152251,"R"
297383,"8172 DEER RIDGE DR NE","ADA","MI",49301,43.0331775710001,-85.468816883,383,"8172 DEER RIDGE DR NE, ADA, MI, 49301","Match","Non_Exact","8172 DEER RIDGE DR, ADA, MI, 49301",12484373,"R"
297384,"8172 MIDDLEWICK LANE","NOLENSVILLE","TN",37135,35.9844670740001,-86.669382449,384,"8172 MIDDLEWICK LANE, NOLENSVILLE, TN, 37135","Match","Exact","8172 MIDDLEWICK LN, NOLENSVILLE, TN, 37135",631994536,"R"
297385,"8172 N GRAY LOG LANE","FOX POINT","WI",53217,43.1670904360001,-87.889600459,385,"8172 N GRAY LOG LANE, FOX POINT, WI, 53217","Match","Exact","8172 N GRAY LOG LN, FOX POINT, WI, 53217",77736808,"R"
297386,"8172 RAINIER AVE S","SEATTLE","WA",98118,47.5298834340001,-122.269981521,386,"8172 RAINIER AVE S, SEATTLE, WA, 98118","Match","Exact","8172 RAINIER AVE S, SEATTLE, WA, 98118",186597023,"L"
297387,"8172 STARR ST","STANTON","CA",90680,33.8147146790001,-117.990334785,387,"8172 STARR ST, STANTON, CA, 90680","Match","Exact","8172 STARR ST, STANTON, CA, 90680",650672328,"R"
297388,"8172 W THUNDER MOUNTAIN DR","BOISE","ID",83709,NA,NA,388,"8172 W THUNDER MOUNTAIN DR, BOISE, ID, 83709","Tie",NA,NA,NA,NA
297389,"8173 SW 186 SREET","CUTLER BAY","FL",33157,NA,NA,389,"8173 SW 186 SREET, CUTLER BAY, FL, 33157","No_Match",NA,NA,NA,NA
297390,"8174 SCOTT ROAD","EDGERTON","OH",43517,41.4122015990001,-84.668507608,390,"8174 SCOTT ROAD, EDGERTON, OH, 43517","Match","Exact","8174 SCOTT RD, EDGERTON, OH, 43517",207556389,"R"
297391,"8174 SEHOME RD","BLAINE","WA",98230,48.9395078260001,-122.783868314,391,"8174 SEHOME RD, BLAINE, WA, 98230","Match","Exact","8174 SEHOME RD, BLAINE, WA, 98230",183780146,"R"
297392,"8175 ASHLEY DRIVE","OLIVE BRANCH","MS",38654,34.9793674220001,-89.9091452769999,392,"8175 ASHLEY DRIVE, OLIVE BRANCH, MS, 38654","Match","Exact","8175 ASHLEY DR, OLIVE BRANCH, MS, 38654",91828484,"L"
297393,"8175 E KAISER BLVD SUITE 101","ANAHEIM","CA",92808,33.865814648,-117.745003866,393,"8175 E KAISER BLVD SUITE 101, ANAHEIM, CA, 92808","Match","Non_Exact","8175 E KAISER BLVD, ANAHEIM, CA, 92808",144125493,"L"
297394,"8175 EAST 41ST STREET","TULSA","OK",74145,36.1044421490001,-95.88536063,394,"8175 EAST 41ST STREET, TULSA, OK, 74145","Match","Exact","8175 E 41ST ST, TULSA, OK, 74145",642918228,"L"
297395,"8175 ENGELWOOD AVE","RICHLAND","MI",49083,42.3748348140001,-85.471125977,395,"8175 ENGELWOOD AVE, RICHLAND, MI, 49083","Match","Exact","8175 ENGELWOOD AVE, RICHLAND, MI, 49083",627508799,"R"
297396,"8175 FASCINATION COURT","SACRAMENTO","CA",95828,38.473861212,-121.404764592,396,"8175 FASCINATION COURT, SACRAMENTO, CA, 95828","Match","Exact","8175 FASCINATION CT, SACRAMENTO, CA, 95828",133381869,"L"
297397,"8175 HIGHLAND ROAD","INDEPENDENCE","OR",97351,44.8167195830001,-123.204023543,397,"8175 HIGHLAND ROAD, INDEPENDENCE, OR, 97351","Match","Exact","8175 HIGHLAND RD, INDEPENDENCE, OR, 97351",155783277,"L"
297398,"8175 JADE COAST ROAD","SAN DIEGO","CA",92126,32.9020451870001,-117.147696364,398,"8175 JADE COAST ROAD, SAN DIEGO, CA, 92126","Match","Exact","8175 JADE COAST RD, SAN DIEGO, CA, 92126",195301160,"R"
297399,"8175 LIMONITE AVE SUITE A","RIVERSIDE","CA",92509,33.9783293290001,-117.4590394,399,"8175 LIMONITE AVE SUITE A, RIVERSIDE, CA, 92509","Match","Exact","8175 LIMONITE AVE, RIVERSIDE, CA, 92509",609011596,"L"
297400,"8175 LIMONITE AVENUE A-V18","RIVERSIDE","CA",92509,33.9783293290001,-117.4590394,400,"8175 LIMONITE AVENUE A-V18, RIVERSIDE, CA, 92509","Match","Exact","8175 LIMONITE AVE, RIVERSIDE, CA, 92509",609011596,"L"
297401,"8175 LIMONITE AVNUE SUITE A","RIVERSIDE","CA",92509,33.9783293290001,-117.4590394,401,"8175 LIMONITE AVNUE SUITE A, RIVERSIDE, CA, 92509","Match","Exact","8175 LIMONITE AVE, RIVERSIDE, CA, 92509",609011596,"L"
297402,"8175 NW 12 ST STE 120","DORAL","FL",33126,25.7826158560001,-80.327875058,402,"8175 NW 12 ST STE 120, DORAL, FL, 33126","Match","Non_Exact","8175 NW 12TH ST, DORAL, FL, 33126",640556676,"R"
297403,"8175 S VIRGINIA ST SUITE 850 273","RENO","NV",89511,39.452948303,-119.777452671,403,"8175 S VIRGINIA ST SUITE 850 273, RENO, NV, 89511","Match","Non_Exact","8175 SOUTH VIRGINIA ST, RENO, NV, 89511",648557343,"R"
297404,"8175 SALMONBERRY","HAYDEN","ID",83835,NA,NA,404,"8175 SALMONBERRY, HAYDEN, ID, 83835","No_Match",NA,NA,NA,NA
297405,"81750 AVE 46","INDIO","CA",92201,33.714797434,-116.237128895,405,"81750 AVE 46, INDIO, CA, 92201","Match","Exact","81750 AVE 46, INDIO, CA, 92201",194773912,"L"
297406,"8176 MOORE ST","ARVADA","CO",80005,39.8451747660001,-105.116095476,406,"8176 MOORE ST, ARVADA, CO, 80005","Match","Exact","8176 MOORE ST, ARVADA, CO, 80005",177761112,"R"
297407,"8176 N DEADMANS GULCH RD","FLORENCE","AZ",85132,32.952795737,-111.311409408,407,"8176 N DEADMANS GULCH RD, FLORENCE, AZ, 85132","Match","Non_Exact","8176 N DEAD MANS GULCH RD, FLORENCE, AZ, 85132",129300609,"L"
297408,"8176 SPANKER RIDGE DR","BENTONVILLE","AR",72712,36.4337725570001,-94.2068959809999,408,"8176 SPANKER RIDGE DR, BENTONVILLE, AR, 72712","Match","Exact","8176 SPANKER RIDGE DR, BENTONVILLE, AR, 72712",635479848,"L"
297409,"81765 473RD AVENUE","ELYRIA","NE",68837,41.674632988,-99.000902254,409,"81765 473RD AVENUE, ELYRIA, NE, 68837","Match","Exact","81765 473RD AVE, ELYRIA, NE, 68837",198325676,"L"
297410,"8177 GLADES RD STE 216","BOCA RATON","FL",33434,26.3679021190001,-80.1730269029999,410,"8177 GLADES RD STE 216, BOCA RATON, FL, 33434","Match","Exact","8177 GLADES RD, BOCA RATON, FL, 33434",115484379,"R"
297411,"8177 PENN RANDALL PLACE","UPPER MARLBORO","MD",20772,38.8337865940001,-76.867606171,411,"8177 PENN RANDALL PLACE, UPPER MARLBORO, MD, 20772","Match","Exact","8177 PENN RANDALL PL, UPPER MARLBORO, MD, 20772",76368833,"R"
297412,"8177 REAL QUITE LANE","BLACKLICK","OH",43004,40.005069088,-82.787870535,412,"8177 REAL QUITE LANE, BLACKLICK, OH, 43004","Match","Non_Exact","8177 REAL QUIET LN, BLACKLICK, OH, 43004",135781278,"L"
297413,"8177 S HARVARD AVE BOX 203","TULSA","OK",74137,36.04526981,-95.9399775319999,413,"8177 S HARVARD AVE BOX 203, TULSA, OK, 74137","Match","Non_Exact","8177 S HARVARD AVE, TULSA, OK, 74137",166451748,"L"
297414,"8177 SNAPDRAGON WAY","DALLAS","TX",75252,32.993407345,-96.7613101749999,414,"8177 SNAPDRAGON WAY, DALLAS, TX, 75252","Match","Exact","8177 SNAPDRAGON WAY, DALLAS, TX, 75252",648385407,"L"
297415,"8178 BRIGHTON PLACE","DUBLIN","CA",94568,37.7190585230001,-121.930508787,415,"8178 BRIGHTON PLACE, DUBLIN, CA, 94568","Match","Exact","8178 BRIGHTON PL, DUBLIN, CA, 94568",617285946,"L"
297416,"8178 COMPASS POINT EAST WYND","LELAND","NC",28451,34.2684688510001,-78.086307495,416,"8178 COMPASS POINT EAST WYND, LELAND, NC, 28451","Match","Non_Exact","8178 COMPASS POINTE EAST WYND NE, LELAND, NC, 28451",637987389,"R"
297417,"8178 MEROSE AVENUE","LOS ANGELES","CA",90046,NA,NA,417,"8178 MEROSE AVENUE, LOS ANGELES, CA, 90046","No_Match",NA,NA,NA,NA
297418,"8178 SANDPIPER GLEN DRIVE","LAKE WORTH","FL",33467,26.5581783870001,-80.175524184,418,"8178 SANDPIPER GLEN DRIVE, LAKE WORTH, FL, 33467","Match","Exact","8178 SANDPIPER GLEN DR, LAKE WORTH, FL, 33467",625410261,"R"
297419,"8179 CR 455","BIRCH TREE","MO",65438,37.008030325,-91.4580977369999,419,"8179 CR 455, BIRCH TREE, MO, 65438","Match","Exact","8179 CO RD 455, BIRCH TREE, MO, 65438",606451428,"L"
297420,"8179 DEARING ST","COVINGTON","GA",30014,NA,NA,420,"8179 DEARING ST, COVINGTON, GA, 30014","Tie",NA,NA,NA,NA
297421,"8179 VADITH COURT","WEST CHESTER","OH",45069,39.346841092,-84.3883513759999,421,"8179 VADITH COURT, WEST CHESTER, OH, 45069","Match","Exact","8179 VADITH CT, WEST CHESTER, OH, 45069",617121181,"L"
297422,"817B SEBASTIAN BEND","PFLUGERVILLE","TX",78660,30.4213487160001,-97.644935521,422,"817B SEBASTIAN BEND, PFLUGERVILLE, TX, 78660","Match","Exact","817 SEBASTIAN BEND, PFLUGERVILLE, TX, 78660",627938226,"L"
297423,"818 26TH STREET","TWO RIVERS","WI",54241,44.1576343780001,-87.558322633,423,"818 26TH STREET, TWO RIVERS, WI, 54241","Match","Exact","818 26TH ST, TWO RIVERS, WI, 54241",147951659,"R"
297424,"818 2ND AVENUE SE","JAMESTOWN","ND",58401,46.9008011440001,-98.706675499,424,"818 2ND AVENUE SE, JAMESTOWN, ND, 58401","Match","Exact","818 2ND AVE SE, JAMESTOWN, ND, 58401",151864289,"L"
297425,"818 3RD AVENUE","IOWA CITY","IA",52245,41.651526985,-91.504879291,425,"818 3RD AVENUE, IOWA CITY, IA, 52245","Match","Exact","818 3RD AVE, IOWA CITY, IA, 52245",84496190,"L"
297426,"818 5TH STREET NE","WASHINGTON","DC",20002,38.90046776,-76.999512707,426,"818 5TH STREET NE, WASHINGTON, DC, 20002","Match","Exact","818 5TH ST NE, WASHINGTON, DC, 20002",76229734,"L"
297427,"818 ALEXANDER AVE","DREXEL HILL","PA",19026,39.950287303,-75.313549237,427,"818 ALEXANDER AVE, DREXEL HILL, PA, 19026","Match","Exact","818 ALEXANDER AVE, DREXEL HILL, PA, 19026",134876016,"L"
297428,"818 ALEXANDER AVE","DREXEL HILL","PW",19026,NA,NA,428,"818 ALEXANDER AVE, DREXEL HILL, PW, 19026","No_Match",NA,NA,NA,NA
297429,"818 BIG OAK RD","PITTSGROVE","NJ",8318,39.487247891,-75.1244673209999,429,"818 BIG OAK RD, PITTSGROVE, NJ, 8318","Match","Exact","818 BIG OAK RD, PITTSGROVE, NJ, 08318",174419672,"R"
297430,"818 BRIGADE LOOP","MURFREESBORO","TN",37128,35.862055588,-86.466893061,430,"818 BRIGADE LOOP, MURFREESBORO, TN, 37128","Match","Exact","818 BRIGADE LOOP, MURFREESBORO, TN, 37128",648088477,"L"
297431,"818 CAMINO REAL UNIT 107","REDONDO BEACH","CA",90277,NA,NA,431,"818 CAMINO REAL UNIT 107, REDONDO BEACH, CA, 90277","No_Match",NA,NA,NA,NA
297432,"818 CEMETERY ROAD","RIVER FALLS","WI",54022,44.8408769980001,-92.6161494409999,432,"818 CEMETERY ROAD, RIVER FALLS, WI, 54022","Match","Exact","818 CEMETERY RD, RIVER FALLS, WI, 54022",646257158,"R"
297433,"818 CHILTON AVENUE","WELLSVILLE","KS",66092,38.7136555650001,-95.0765459529999,433,"818 CHILTON AVENUE, WELLSVILLE, KS, 66092","Match","Exact","818 CHILTON AVE, WELLSVILLE, KS, 66092",10610563,"L"
297434,"818 CLIFTON HILLS STREET","ORLANDO","FL",32828,28.551998214,-81.1587398299999,434,"818 CLIFTON HILLS STREET, ORLANDO, FL, 32828","Match","Exact","818 CLIFTON HILLS ST, ORLANDO, FL, 32828",94407134,"L"
297435,"818 COLLEGE PKWY","ROCKVILLE","MD",20850,39.0980436670001,-77.166154681,435,"818 COLLEGE PKWY, ROCKVILLE, MD, 20850","Match","Exact","818 COLLEGE PKWY, ROCKVILLE, MD, 20850",639329386,"L"
297436,"818 COMMERCIAL STREET SUITE 307","ASTORIA","OR",97103,46.1890825180001,-123.834474802,436,"818 COMMERCIAL STREET SUITE 307, ASTORIA, OR, 97103","Match","Exact","818 COMMERCIAL ST, ASTORIA, OR, 97103",159221413,"L"
297437,"818 CONNECTICUT AVE NW 1100","WASHINGTON","DC",20006,38.9004664600001,-77.038110304,437,"818 CONNECTICUT AVE NW 1100, WASHINGTON, DC, 20006","Match","Exact","818 CONNECTICUT AVE NW, WASHINGTON, DC, 20006",76225669,"L"
297438,"818 DARNELL AVE","YEADON","PA",19050,39.9311792250001,-75.246879244,438,"818 DARNELL AVE, YEADON, PA, 19050","Match","Exact","818 DARNELL AVE, YEADON, PA, 19050",134886754,"R"
297439,"818 DISSTON STREET","PHILADELPHIA","PA",19111,40.0530547910001,-75.083167085,439,"818 DISSTON STREET, PHILADELPHIA, PA, 19111","Match","Exact","818 DISSTON ST, PHILADELPHIA, PA, 19111",131415806,"R"
297440,"818 E 10TH PL","FORD HEIGHTS","IL",60411,NA,NA,440,"818 E 10TH PL, FORD HEIGHTS, IL, 60411","Tie",NA,NA,NA,NA
297441,"818 E 63RD STREET NUMBER 211","CHICAGO","IL",60637,NA,NA,441,"818 E 63RD STREET NUMBER 211, CHICAGO, IL, 60637","No_Match",NA,NA,NA,NA
297442,"818 E CINNABAR","PHOENIX","AZ",85020,33.576827558,-112.062481949,442,"818 E CINNABAR, PHOENIX, AZ, 85020","Match","Non_Exact","818 E CINNABAR AVE, PHOENIX, AZ, 85020",128206625,"L"
297443,"818 E JEFFERSON BLVD","SOUTH BEND","IN",46617,41.675124672,-86.239656057,443,"818 E JEFFERSON BLVD, SOUTH BEND, IN, 46617","Match","Exact","818 E JEFFERSON BLVD, SOUTH BEND, IN, 46617",624817879,"R"
297444,"818 EAST 63RD STREET UNIT 125","CHICAGO","IL",60637,41.7804340060001,-87.604750278,444,"818 EAST 63RD STREET UNIT 125, CHICAGO, IL, 60637","Match","Exact","818 E 63RD ST, CHICAGO, IL, 60637",111771393,"L"
297445,"818 FARMERS UNION RD","818 FARMERS UNION RD","NC",28433,34.4146661980001,-78.6142184239999,445,"818 FARMERS UNION RD, 818 FARMERS UNION RD, NC, 28433","Match","Non_Exact","818 FARMERS UNION RD, CLARKTON, NC, 28433",64144262,"L"
297446,"818 FOOTHILL DR","SAN JOSE","CA",95123,37.236925344,-121.853427706,446,"818 FOOTHILL DR, SAN JOSE, CA, 95123","Match","Exact","818 FOOTHILL DR, SAN JOSE, CA, 95123",123015872,"L"
297447,"818 FREEDOM BLVD","DAVENPORT","FL",33837,28.1784576850001,-81.634223747,447,"818 FREEDOM BLVD, DAVENPORT, FL, 33837","Match","Exact","818 FREEDOM BLVD, DAVENPORT, FL, 33837",648236339,"L"
297448,"818 GALLIER STREET","NEW ORLEANS","LA",70117,29.9636306630001,-90.040486098,448,"818 GALLIER STREET, NEW ORLEANS, LA, 70117","Match","Exact","818 GALLIER ST, NEW ORLEANS, LA, 70117",191717346,"L"
297449,"818 GUNNAR LANE","FORSYTH","IL",62535,39.925244938,-88.9501584289999,449,"818 GUNNAR LANE, FORSYTH, IL, 62535","Match","Exact","818 GUNNAR LN, FORSYTH, IL, 62535",20760526,"R"
297450,"818 HAYNES ROAD","LAKELAND","FL",33809,28.139969396,-81.9398698429999,450,"818 HAYNES ROAD, LAKELAND, FL, 33809","Match","Exact","818 HAYNES RD, LAKELAND, FL, 33809",104807565,"R"
297451,"818 JEFFERSON ST APT 5F","HOBOKEN","NJ",7030,40.74757501,-74.035526939,451,"818 JEFFERSON ST APT 5F, HOBOKEN, NJ, 7030","Match","Exact","818 JEFFERSON ST, HOBOKEN, NJ, 07030",59605400,"L"
297452,"818 LAKESHORE DRIVE","REDWOOD CITY","CA",94065,37.5371167070001,-122.244794179,452,"818 LAKESHORE DRIVE, REDWOOD CITY, CA, 94065","Match","Exact","818 LAKESHORE DR, REDWOOD CITY, CA, 94065",192409576,"L"
297453,"818 LEGACY RD","VACAVILLE","CA",95688,38.3990554050001,-121.947187749,453,"818 LEGACY RD, VACAVILLE, CA, 95688","Match","Exact","818 LEGACY RD, VACAVILLE, CA, 95688",650648775,"L"
297454,"818 LINCOLN STREET","LONGMONT","CO",80501,40.1732393830001,-105.112978796,454,"818 LINCOLN STREET, LONGMONT, CO, 80501","Match","Exact","818 LINCOLN ST, LONGMONT, CO, 80501",188191409,"R"
297455,"818 LOWRY AVENUE","JEANNETTE","PA",15644,40.3186181240001,-79.6171622269999,455,"818 LOWRY AVENUE, JEANNETTE, PA, 15644","Match","Exact","818 LOWRY AVE, JEANNETTE, PA, 15644",52972649,"L"
297456,"818 MAHAN ROAD","SUMMERVILLE","GA",30747,34.479409215,-85.379456993,456,"818 MAHAN ROAD, SUMMERVILLE, GA, 30747","Match","Exact","818 MAHAN RD, SUMMERVILLE, GA, 30747",82025109,"R"
297457,"818 MELBOURNE RD","EAGLE","WI",53119,42.874403881,-88.459851688,457,"818 MELBOURNE RD, EAGLE, WI, 53119","Match","Exact","818 MELBOURNE RD, EAGLE, WI, 53119",637244179,"L"
297458,"818 MEREDITH STREET","DAYTON","OH",45402,39.764579536,-84.2124182599999,458,"818 MEREDITH STREET, DAYTON, OH, 45402","Match","Exact","818 MEREDITH ST, DAYTON, OH, 45402",143615064,"R"
297459,"818 MERIDIAN AVENUE APT 6","MIAMI BEACH","FL",33139,25.778543456,-80.1361860649999,459,"818 MERIDIAN AVENUE APT 6, MIAMI BEACH, FL, 33139","Match","Exact","818 MERIDIAN AVE, MIAMI BEACH, FL, 33139",116020715,"L"
297460,"818 MIDDLE STREET","FALL RIVER","MA",2721,41.693263104,-71.1633476059999,460,"818 MIDDLE STREET, FALL RIVER, MA, 2721","Match","Exact","818 MIDDLE ST, FALL RIVER, MA, 02721",46770131,"L"
297461,"818 N AINSWORTH AVE","TACOMA","WA",98403,47.2588677350001,-122.464764482,461,"818 N AINSWORTH AVE, TACOMA, WA, 98403","Match","Exact","818 N AINSWORTH AVE, TACOMA, WA, 98403",184646077,"L"
297462,"818 N BOEKE RD","EVANSVILLE","IN",47711,37.9845771770001,-87.520139318,462,"818 N BOEKE RD, EVANSVILLE, IN, 47711","Match","Exact","818 N BOEKE RD, EVANSVILLE, IN, 47711",39789012,"L"
297463,"818 NORTH CEDAR BLUFF ROAD","KNOXVILLE","TN",37923,35.9364654330001,-84.094841898,463,"818 NORTH CEDAR BLUFF ROAD, KNOXVILLE, TN, 37923","Match","Exact","818 N CEDAR BLUFF RD, KNOXVILLE, TN, 37923",42611162,"R"
297464,"818 NORTH MOUNTAIN AVENUE SUITE 219","UPLAND","CA",91786,34.10389919,-117.670184714,464,"818 NORTH MOUNTAIN AVENUE SUITE 219, UPLAND, CA, 91786","Match","Exact","818 N MOUNTAIN AVE, UPLAND, CA, 91786",638618450,"R"
297465,"818 PIZARRO STREET","CORAL GABLES","FL",33134,25.7637320960001,-80.273309554,465,"818 PIZARRO STREET, CORAL GABLES, FL, 33134","Match","Exact","818 PIZARRO ST, CORAL GABLES, FL, 33134",116010192,"R"
297466,"818 RED DRIVE SUITE 240","TRAVERSE CITY","MI",49684,44.749199918,-85.646673452,466,"818 RED DRIVE SUITE 240, TRAVERSE CITY, MI, 49684","Match","Exact","818 RED DR, TRAVERSE CITY, MI, 49684",145544470,"L"
297467,"818 RICHCREST DR 2911","HOUSTON","TX",77060,29.9551461680001,-95.393437547,467,"818 RICHCREST DR 2911, HOUSTON, TX, 77060","Match","Exact","818 RICHCREST DR, HOUSTON, TX, 77060",96587092,"L"
297468,"818 S 15TH ST","FORT PIERCE","FL",34950,27.439320701,-80.339099988,468,"818 S 15TH ST, FORT PIERCE, FL, 34950","Match","Exact","818 S 15TH ST, FORT PIERCE, FL, 34950",610738108,"L"
297469,"818 S GRAND AVE APT 701","LOS ANGELES","CA",90017,34.0455060570001,-118.258240566,469,"818 S GRAND AVE APT 701, LOS ANGELES, CA, 90017","Match","Non_Exact","818 S GRAND AVE, LOS ANGELES, CA, 90017",141619239,"L"
297470,"818 S WALNUT ST","BUCYRUS","OH",44820,40.8001243640001,-82.9740630699999,470,"818 S WALNUT ST, BUCYRUS, OH, 44820","Match","Exact","818 S WALNUT ST, BUCYRUS, OH, 44820",12073711,"R"
297471,"818 SHASTA DAISY DR","BRENTWOOD","CA",94513,37.93729388,-121.689683894,471,"818 SHASTA DAISY DR, BRENTWOOD, CA, 94513","Match","Exact","818 SHASTA DAISY DR, BRENTWOOD, CA, 94513",629311359,"R"
297472,"818 SIMICH DRIVE","SEVEN HILLS","OH",44131,41.3825930080001,-81.680092976,472,"818 SIMICH DRIVE, SEVEN HILLS, OH, 44131","Match","Exact","818 SIMICH DR, SEVEN HILLS, OH, 44131",61117671,"R"
297473,"818 SINCLAIR ROAD","POINT PLEASANT","NJ",8742,40.0901863350001,-74.0618508539999,473,"818 SINCLAIR ROAD, POINT PLEASANT, NJ, 8742","Match","Exact","818 SINCLAIR RD, PT PLEASANT, NJ, 08742",203734367,"R"
297474,"818 SOUTHERN AVE SE","WASHINGTON","MD",20032,NA,NA,474,"818 SOUTHERN AVE SE, WASHINGTON, MD, 20032","No_Match",NA,NA,NA,NA
297475,"818 SOUTHWEST 306TH STREET","FEDERAL WAY","WA",98023,47.3276362010001,-122.34633241,475,"818 SOUTHWEST 306TH STREET, FEDERAL WAY, WA, 98023","Match","Exact","818 SW 306TH ST, FEDERAL WAY, WA, 98023",239774298,"R"
297476,"818 SPRINGLAKE ROAD","LAWRENCEVILLE","GA",30045,33.9608208340001,-83.949533242,476,"818 SPRINGLAKE ROAD, LAWRENCEVILLE, GA, 30045","Match","Exact","818 SPRINGLAKE RD, LAWRENCEVILLE, GA, 30045",628080679,"R"
297477,"818 STOCKWILLOW CT","HUNTERTOWN","IN",46748,41.228137298,-85.153953314,477,"818 STOCKWILLOW CT, HUNTERTOWN, IN, 46748","Match","Exact","818 STOCKWILLOW CT, HUNTERTOWN, IN, 46748",606521971,"R"
297478,"818 SW 3RD AVENUE - NO 251","PORTLAND","OR",97204,45.517422337,-122.67597734,478,"818 SW 3RD AVENUE - NO 251, PORTLAND, OR, 97204","Match","Non_Exact","818 SW 3RD AVE, PORTLAND, OR, 97204",157504666,"L"
297479,"818 SW 3RD AVENUE NUM 221-2586","PORTLAND","OR",97204,45.517422337,-122.67597734,479,"818 SW 3RD AVENUE NUM 221-2586, PORTLAND, OR, 97204","Match","Non_Exact","818 SW 3RD AVE, PORTLAND, OR, 97204",157504666,"L"
297480,"818 SW 9TH STREET- E","HALLANDALE","FL",33029,NA,NA,480,"818 SW 9TH STREET- E, HALLANDALE, FL, 33029","No_Match",NA,NA,NA,NA
297481,"818 TEANECK ROAD STE 1","TEANECK","NJ",7666,40.884525507,-74.006913625,481,"818 TEANECK ROAD STE 1, TEANECK, NJ, 7666","Match","Exact","818 TEANECK RD, TEANECK, NJ, 07666",64389534,"L"
297482,"818 TEXAS STAR DRIVE","RICHMOND","TX",77469,29.5567433470001,-95.74661797,482,"818 TEXAS STAR DRIVE, RICHMOND, TX, 77469","Match","Exact","818 TEXAS STAR DR, RICHMOND, TX, 77469",641141671,"R"
297483,"818 TYVOLA ROAD UNIT 101","CHARLOTTE","NC",28217,35.1651249380001,-80.882232184,483,"818 TYVOLA ROAD UNIT 101, CHARLOTTE, NC, 28217","Match","Exact","818 TYVOLA RD, CHARLOTTE, NC, 28217",70486401,"R"
297484,"818 W CORAL STREET","TAMPA","FL",33602,27.969539846,-82.470176502,484,"818 W CORAL STREET, TAMPA, FL, 33602","Match","Exact","818 W CORAL ST, TAMPA, FL, 33602",104521176,"L"
297485,"818 W LAS TUNAS DR","SAN GABRIEL","CA",91776,34.1021566800001,-118.111822548,485,"818 W LAS TUNAS DR, SAN GABRIEL, CA, 91776","Match","Exact","818 W LAS TUNAS DR, SAN GABRIEL, CA, 91776",141633723,"L"
297486,"818 W MAIN ST","MONROE","WA",98272,47.8525154640001,-121.981086549,486,"818 W MAIN ST, MONROE, WA, 98272","Match","Exact","818 W MAIN ST, MONROE, WA, 98272",187797000,"R"
297487,"818 W MAIN","HOHENWALD","TN",38462,35.5510380270001,-87.575820705,487,"818 W MAIN, HOHENWALD, TN, 38462","Match","Non_Exact","818 W MAIN ST, HOHENWALD, TN, 38462",607139189,"L"
297488,"818 W SEVENTH STREET SUITE 930","LOS ANGELES","CA",90017,34.049057374,-118.259343913,488,"818 W SEVENTH STREET SUITE 930, LOS ANGELES, CA, 90017","Match","Non_Exact","818 W 7TH ST, LOS ANGELES, CA, 90017",141617178,"L"
297489,"818 W TISHOMINGO","SULPHUR","OK",73086,34.5042845580001,-96.977626116,489,"818 W TISHOMINGO, SULPHUR, OK, 73086","Match","Non_Exact","818 W TISHOMINGO AVE, SULPHUR, OK, 73086",58436381,"L"
297490,"818 W TREE COVE","COLLIERVILLE","TN",38017,35.067504763,-89.689462954,490,"818 W TREE COVE, COLLIERVILLE, TN, 38017","Match","Exact","818 W TREE COVE, COLLIERVILLE, TN, 38017",72950248,"L"
297491,"818 WADE CIRCLE","BOISE","ID",83705,43.596727769,-116.212152982,491,"818 WADE CIRCLE, BOISE, ID, 83705","Match","Exact","818 WADE CIR, BOISE, ID, 83705",117864578,"L"
297492,"818 WASHINGTON ST","MANITOWOC","WI",54220,44.0888658650001,-87.6581011759999,492,"818 WASHINGTON ST, MANITOWOC, WI, 54220","Match","Exact","818 WASHINGTON ST, MANITOWOC, WI, 54220",147950222,"R"
297493,"818 WATER STREET","WEST NEWFIELD","ME",4095,NA,NA,493,"818 WATER STREET, WEST NEWFIELD, ME, 4095","No_Match",NA,NA,NA,NA
297494,"818 WEST CENTER STREET","MEDINA","NY",14103,43.2206344350001,-78.401153135,494,"818 WEST CENTER STREET, MEDINA, NY, 14103","Match","Exact","818 W CENTER ST, MEDINA, NY, 14103",48803547,"R"
297495,"818 WEST PARK ROW DR","ARLINGTON","TX",76013,32.721154276,-97.1161384169999,495,"818 WEST PARK ROW DR, ARLINGTON, TX, 76013","Match","Exact","818 W PARK ROW DR, ARLINGTON, TX, 76013",101907891,"L"
297496,"818 WEST SEVENTH STRETT SUITE 930","LOS ANGELES","CA",90017,34.049057374,-118.259343913,496,"818 WEST SEVENTH STRETT SUITE 930, LOS ANGELES, CA, 90017","Match","Non_Exact","818 W 7TH ST, LOS ANGELES, CA, 90017",141617178,"L"
297497,"818 WEST SHERRI DRIVE","GILBERT","AZ",85233,33.3283915000001,-111.807684824,497,"818 WEST SHERRI DRIVE, GILBERT, AZ, 85233","Match","Exact","818 W SHERRI DR, GILBERT, AZ, 85233",128786939,"L"
297498,"818 WIDGEON ROAD","REDMOND","OR",97756,44.2697141400001,-121.278530206,498,"818 WIDGEON ROAD, REDMOND, OR, 97756","Match","Exact","818 WIDGEON RD, REDMOND, OR, 97756",152574374,"R"
297499,"818 WILDFLOWER LANE","ROGERS","AR",72756,36.4138127140001,-94.1209880229999,499,"818 WILDFLOWER LANE, ROGERS, AR, 72756","Match","Exact","818 WILDFLOWER LN, ROGERS, AR, 72756",648403487,"L"
297500,"818 WINDHURST","SAN ANTONIO","TX",78258,29.6358424850001,-98.50794286,500,"818 WINDHURST, SAN ANTONIO, TX, 78258","Match","Exact","818 WINDHURST, SAN ANTONIO, TX, 78258",101740428,"L"
