"ID","Address","City","State","Zip","lat","long","id","input_address","match_indicator","match_type","matched_address","tiger_line_id","tiger_side"
46501,"130 BRADLEY ROAD","DANVILLE","VA",24540,36.6057468340001,-79.3791156299999,1,"130 BRADLEY ROAD, DANVILLE, VA, 24540","Match","Exact","130 BRADLEY RD, DANVILLE, VA, 24540",56590494,"R"
46502,"130 BRAHMS CIRCLE","WHEATON","IL",60189,41.832354041,-88.105714387,2,"130 BRAHMS CIRCLE, WHEATON, IL, 60189","Match","Exact","130 BRAHMS CIR, WHEATON, IL, 60189",637436081,"L"
46503,"130 BRANDON WALLACE WAY","FESTUS","MO",63028,38.2381367520001,-90.396942962,3,"130 BRANDON WALLACE WAY, FESTUS, MO, 63028","Match","Exact","130 BRANDON WALLACE WAY, FESTUS, MO, 63028",625100524,"L"
46504,"130 BROADWAY","HAGERSTOWN","MD",21740,39.6466984530001,-77.711877895,4,"130 BROADWAY, HAGERSTOWN, MD, 21740","Match","Exact","130 BROADWAY, HAGERSTOWN, MD, 21740",612158050,"L"
46505,"130 BUELL ROAD","ROCHESTER","NY",14624,43.138585618,-77.6659791229999,5,"130 BUELL ROAD, ROCHESTER, NY, 14624","Match","Exact","130 BUELL RD, ROCHESTER, NY, 14624",14575767,"L"
46506,"130 BUENA VISTA","MILL VALLEY","CA",94941,37.9064839420001,-122.541019333,6,"130 BUENA VISTA, MILL VALLEY, CA, 94941","Match","Non_Exact","130 BUENA VISTA AVE, MILL VALLEY, CA, 94941",192766442,"R"
46507,"130 CALEB COURT","ANDERSON","SC",29625,34.520683739,-82.706082102,7,"130 CALEB COURT, ANDERSON, SC, 29625","Match","Exact","130 CALEB CT, ANDERSON, SC, 29625",624023755,"R"
46508,"130 CAMELOT DRIVE","HUNTINGTON","WV",25701,38.3984145810001,-82.4164577019999,8,"130 CAMELOT DRIVE, HUNTINGTON, WV, 25701","Match","Exact","130 CAMELOT DR, HUNTINGTON, WV, 25701",101318847,"R"
46509,"130 CAMP AVE","BRADDOCK","PA",15104,40.409044323,-79.871895135,9,"130 CAMP AVE, BRADDOCK, PA, 15104","Match","Exact","130 CAMP AVE, BRADDOCK, PA, 15104",51817181,"R"
46510,"130 CANARY LANE","GRAND JUNCTION","CO",81507,39.0692053550001,-108.601815199,10,"130 CANARY LANE, GRAND JUNCTION, CO, 81507","Match","Exact","130 CANARY LN, GRAND JCT, CO, 81507",624986328,"R"
46511,"130 CAROLINE STREET","ORANGE","VA",22960,38.242975309,-78.113394783,11,"130 CAROLINE STREET, ORANGE, VA, 22960","Match","Exact","130 CAROLINE ST, ORANGE, VA, 22960",29879503,"L"
46512,"130 CARRIEBROOKE DR","STEPHENS CITY","VA",22655,NA,NA,12,"130 CARRIEBROOKE DR, STEPHENS CITY, VA, 22655","No_Match",NA,NA,NA,NA
46513,"130 CASTLE BLVD","AKRON","OH",44313,41.1096077020001,-81.561435919,13,"130 CASTLE BLVD, AKRON, OH, 44313","Match","Exact","130 CASTLE BLVD, AKRON, OH, 44313",61338178,"L"
46514,"130 CEDAR COURT","SWEDESBORO","NJ",8085,39.7526243680001,-75.297667944,14,"130 CEDAR COURT, SWEDESBORO, NJ, 8085","Match","Exact","130 CEDAR CT, SWEDESBORO, NJ, 08085",625025216,"L"
46515,"130 CEDAR","ONALASKA","TX",77360,30.8293598860001,-95.0913061859999,15,"130 CEDAR, ONALASKA, TX, 77360","Match","Exact","130 CEDAR, ONALASKA, TX, 77360",23227971,"R"
46516,"130 CENTRAL AVE STE 105","DOVER","NH",3820,43.1862106090001,-70.8737961959999,16,"130 CENTRAL AVE STE 105, DOVER, NH, 3820","Match","Exact","130 CENTRAL AVE, DOVER, NH, 03820",117806646,"L"
46517,"130 CENTRAL AVENUE","DOVER","NH",3820,43.1862106090001,-70.8737961959999,17,"130 CENTRAL AVENUE, DOVER, NH, 3820","Match","Exact","130 CENTRAL AVE, DOVER, NH, 03820",117806646,"L"
46518,"130 CHAMPION HILL ROAD","BOLTON","MS",39041,NA,NA,18,"130 CHAMPION HILL ROAD, BOLTON, MS, 39041","No_Match",NA,NA,NA,NA
46519,"130 CHANCELLOR AVE APT 5B","NEWARK","NJ",7112,40.7054051850001,-74.2145252999999,19,"130 CHANCELLOR AVE APT 5B, NEWARK, NJ, 7112","Match","Exact","130 CHANCELLOR AVE, NEWARK, NJ, 07112",63465323,"L"
46520,"130 CHANNEL ROAD 2","ALPENA","MI",49707,45.029264412,-83.458798975,20,"130 CHANNEL ROAD 2, ALPENA, MI, 49707","Match","Exact","130 CHANNEL ROAD 2, ALPENA, MI, 49707",135791681,"R"
46521,"130 CHIFFON","IRVINE","CA",92618,33.699972546,-117.724668475,21,"130 CHIFFON, IRVINE, CA, 92618","Match","Exact","130 CHIFFON, IRVINE, CA, 92618",650719543,"R"
46522,"130 CHURCH AV","PANAMA CITY","FL",32401,NA,NA,22,"130 CHURCH AV, PANAMA CITY, FL, 32401","Tie",NA,NA,NA,NA
46523,"130 CHURCH AVE","FLORENCE","CO",81226,NA,NA,23,"130 CHURCH AVE, FLORENCE, CO, 81226","No_Match",NA,NA,NA,NA
46524,"130 CHURCH ST","NEW YORK","NY",10007,40.713981446,-74.008693496,24,"130 CHURCH ST, NEW YORK, NY, 10007","Match","Exact","130 CHURCH ST, NEW YORK, NY, 10007",59660347,"L"
46525,"130 CHURCH STREET","NAUGATUCK","CT",6770,41.4890884120001,-73.055761172,25,"130 CHURCH STREET, NAUGATUCK, CT, 6770","Match","Exact","130 CHURCH ST, NAUGATUCK, CT, 06770",3717373,"L"
46526,"130 CHURCH STREET","RICHFIELD","PA",17086,40.688901582,-77.106132523,26,"130 CHURCH STREET, RICHFIELD, PA, 17086","Match","Exact","130 CHURCH ST, RICHFIELD, PA, 17086",47933889,"L"
46527,"130 CLARKSON AVE APT 7F","BROOKLYN","NY",11226,40.655107016,-73.955282886,27,"130 CLARKSON AVE APT 7F, BROOKLYN, NY, 11226","Match","Exact","130 CLARKSON AVE, BROOKLYN, NY, 11226",650072981,"R"
46528,"130 CLEVELAND ST","LEBANON","OR",97355,44.5442048190001,-122.899618316,28,"130 CLEVELAND ST, LEBANON, OR, 97355","Match","Exact","130 CLEVELAND ST, LEBANON, OR, 97355",639086445,"L"
46529,"130 COFFEE BLUFF ROAD","LACEYS SPRING","AL",35754,34.5517763330001,-86.552765154,29,"130 COFFEE BLUFF ROAD, LACEYS SPRING, AL, 35754","Match","Exact","130 COFFEE BLUFF RD, LACEYS SPRING, AL, 35754",97111605,"L"
46530,"130 COLUMBIA LN NW","CRESTVIEW","FL",32536,30.7701586530001,-86.582812818,30,"130 COLUMBIA LN NW, CRESTVIEW, FL, 32536","Match","Non_Exact","130 COLUMBIA LN, CRESTVIEW, FL, 32536",74379657,"L"
46531,"130 COMBINE LN SE","LELAND","NC",28451,34.1841961690001,-78.073550656,31,"130 COMBINE LN SE, LELAND, NC, 28451","Match","Exact","130 COMBINE LN SE, LELAND, NC, 28451",627425203,"R"
46532,"130 CONCORD TRCE","ALPHARETTA","GA",30005,34.0895776950001,-84.2007885579999,32,"130 CONCORD TRCE, ALPHARETTA, GA, 30005","Match","Exact","130 CONCORD TRCE, ALPHARETTA, GA, 30005",17374819,"L"
46533,"130 COOK AVE SUITE 101","PASADENA","CA",91107,34.1488390440001,-118.099785302,33,"130 COOK AVE SUITE 101, PASADENA, CA, 91107","Match","Exact","130 COOK AVE, PASADENA, CA, 91107",141633230,"R"
46534,"130 COPPERMINE ROAD","PRINCETON","NJ",8540,40.4278035940001,-74.609604297,34,"130 COPPERMINE ROAD, PRINCETON, NJ, 8540","Match","Exact","130 COPPERMINE RD, PRINCETON, NJ, 08540",641257282,"R"
46535,"130 CORRIDOR RD / PO BOX 2482","PONTE VEDRA BEACH","FL",32082,30.194424666,-81.381982253,35,"130 CORRIDOR RD / PO BOX 2482, PONTE VEDRA BEACH, FL, 32082","Match","Exact","130 CORRIDOR RD, PONTE VEDRA BEACH, FL, 32082",92612617,"R"
46536,"130 COUNTY HIGHWAY 18C","WEST EDMESTON","NY",13485,42.763646884,-75.2773484429999,36,"130 COUNTY HIGHWAY 18C, WEST EDMESTON, NY, 13485","Match","Non_Exact","130 CO RD 18C, WEST EDMESTON, NY, 13485",125905538,"R"
46537,"130 COUNTY LINE ROAD","TYNER","NC",27980,36.2176147120001,-76.6041392509999,37,"130 COUNTY LINE ROAD, TYNER, NC, 27980","Match","Exact","130 COUNTY LINE RD, TYNER, NC, 27980",635648619,"R"
46538,"130 COUNTY ROAD 2121","BOONEVILLE","TN",38829,NA,NA,38,"130 COUNTY ROAD 2121, BOONEVILLE, TN, 38829","No_Match",NA,NA,NA,NA
46539,"130 COVERED COURT","CLAYTON","NC",27527,35.6902103790001,-78.3853080539999,39,"130 COVERED COURT, CLAYTON, NC, 27527","Match","Exact","130 COVERED CT, CLAYTON, NC, 27527",26552929,"R"
46540,"130 DANA AVE APT 2","HYDE PARK","MA",2136,42.2487475550001,-71.1211067149999,40,"130 DANA AVE APT 2, HYDE PARK, MA, 2136","Match","Exact","130 DANA AVE, HYDE PARK, MA, 02136",85715833,"L"
46541,"130 DANVILLE WAY","SACRAMENTO","CA",95838,38.6253135970001,-121.46540947,41,"130 DANVILLE WAY, SACRAMENTO, CA, 95838","Match","Exact","130 DANVILLE WAY, SACRAMENTO, CA, 95838",133320971,"R"
46542,"130 DARTMOUTH ST APT 1006","BOSTON","MA",2116,42.347021333,-71.075824871,42,"130 DARTMOUTH ST APT 1006, BOSTON, MA, 2116","Match","Exact","130 DARTMOUTH ST, BOSTON, MA, 02116",85698048,"L"
46543,"130 DAVIDSON STREET","WYANDANCH","NY",11798,40.7403355770001,-73.360157957,43,"130 DAVIDSON STREET, WYANDANCH, NY, 11798","Match","Exact","130 DAVIDSON ST, WYANDANCH, NY, 11798",113974957,"R"
46544,"130 DEEP RIVER RD","FAYETTEVILLE","GA",30214,33.505443536,-84.4817410649999,44,"130 DEEP RIVER RD, FAYETTEVILLE, GA, 30214","Match","Exact","130 DEEP RIVER RD, FAYETTEVILLE, GA, 30214",75937371,"L"
46545,"130 DICKERSON ROAD","FRANKLIN","GA",30217,33.3769194430001,-85.205713666,45,"130 DICKERSON ROAD, FRANKLIN, GA, 30217","Match","Exact","130 DICKERSON RD, FRANKLIN, GA, 30217",9414093,"R"
46546,"130 DORAL DR","JEROME","ID",83338,42.6339541300001,-114.509605487,46,"130 DORAL DR, JEROME, ID, 83338","Match","Exact","130 DORAL DR, JEROME, ID, 83338",105454000,"R"
46547,"130 DUDLEY RD","NEWTON","MA",2459,42.3158980000001,-71.1841326379999,47,"130 DUDLEY RD, NEWTON, MA, 2459","Match","Exact","130 DUDLEY RD, NEWTON, MA, 02459",87107907,"L"
46548,"130 E 1ST ST","MOREHEAD","KY",40351,38.1814602330001,-83.433515082,48,"130 E 1ST ST, MOREHEAD, KY, 40351","Match","Exact","130 E FIRST ST, MOREHEAD, KY, 40351",39624099,"R"
46549,"130 E 35TH ST","NEW YORK","NY",10016,40.74711975,-73.979368467,49,"130 E 35TH ST, NEW YORK, NY, 10016","Match","Exact","130 E 35TH ST, NEW YORK, NY, 10016",59654402,"R"
46550,"130 E 3RD","HINSDALE","IL",60521,41.799791354,-87.9262531269999,50,"130 E 3RD, HINSDALE, IL, 60521","Match","Non_Exact","130 E 3RD ST, HINSDALE, IL, 60521",112550276,"R"
46551,"130 E 7TH ST","AUBURN","IN",46706,41.366908579,-85.055404091,51,"130 E 7TH ST, AUBURN, IN, 46706","Match","Exact","130 E 7TH ST, AUBURN, IN, 46706",6520230,"R"
46552,"130 E 9 MILE RD","FERNDALE","MI",48220,42.4605886750001,-83.133782934,52,"130 E 9 MILE RD, FERNDALE, MI, 48220","Match","Exact","130 E 9 MILE RD, FERNDALE, MI, 48220",69746640,"R"
46553,"130 E 93RD ST APT 2E","NEW YORK","NY",10128,40.7841883180001,-73.952945029,53,"130 E 93RD ST APT 2E, NEW YORK, NY, 10128","Match","Non_Exact","130 E 93RD ST, NEW YORK, NY, 10128",59657861,"R"
46554,"130 E MAIN STREET","CLINTON","CT",6413,41.276528753,-72.515902856,54,"130 E MAIN STREET, CLINTON, CT, 6413","Match","Exact","130 E MAIN ST, CLINTON, CT, 06413",113892869,"R"
46555,"130 E MCDOWELL ROAD","JACKSON","MS",39204,32.268411783,-90.217964536,55,"130 E MCDOWELL ROAD, JACKSON, MS, 39204","Match","Exact","130 E MCDOWELL RD, JACKSON, MS, 39204",611222495,"L"
46556,"130 E UPSAL STREET","PHILADELPHIA","PA",19119,40.049513425,-75.1821108409999,56,"130 E UPSAL STREET, PHILADELPHIA, PA, 19119","Match","Exact","130 E UPSAL ST, PHILADELPHIA, PA, 19119",131395405,"R"
46557,"130 E WASHINGTON AVE STE 9","ATHENS","TN",37303,35.443111795,-84.5925998549999,57,"130 E WASHINGTON AVE STE 9, ATHENS, TN, 37303","Match","Non_Exact","130 E WASHINGTON AVE, ATHENS, TN, 37303",88534579,"L"
46558,"130 E WASHINGTON AVENUE","AVA","MO",65608,36.9521561540001,-92.660092504,58,"130 E WASHINGTON AVENUE, AVA, MO, 65608","Match","Exact","130 E WASHINGTON AVE, AVA, MO, 65608",46283431,"R"
46559,"130 E12TH ST","OAKLAND","CA",94606,NA,NA,59,"130 E12TH ST, OAKLAND, CA, 94606","No_Match",NA,NA,NA,NA
46560,"130 EAST LIBERTY STREET","SALISBURY","NC",28144,35.668808117,-80.4672691549999,60,"130 EAST LIBERTY STREET, SALISBURY, NC, 28144","Match","Exact","130 E LIBERTY ST, SALISBURY, NC, 28144",25269025,"L"
46561,"130 EAST SELWOOD LANE","COLUMBIA","SC",29212,34.076111821,-81.2264908399999,61,"130 EAST SELWOOD LANE, COLUMBIA, SC, 29212","Match","Exact","130 E SELWOOD LN, COLUMBIA, SC, 29212",70048315,"L"
46562,"130 EDGE WATER DRIVE","BRUNSWICK","GA",31525,31.2583453400001,-81.492192286,62,"130 EDGE WATER DRIVE, BRUNSWICK, GA, 31525","Match","Exact","130 EDGE WATER DR, BRUNSWICK, GA, 31525",636324805,"R"
46563,"130 EGLIN STREET","HANSCOM AFB","MA",1731,42.46239308,-71.2843534529999,63,"130 EGLIN STREET, HANSCOM AFB, MA, 1731","Match","Exact","130 EGLIN ST, HANSCOM AFB, MA, 01731",623538869,"L"
46564,"130 ELIOT ST","ASHLAND","MA",1721,42.239877447,-71.446184159,64,"130 ELIOT ST, ASHLAND, MA, 1721","Match","Exact","130 ELIOT ST, ASHLAND, MA, 01721",86849777,"L"
46565,"130 ELM AVENUE","OAKLYN","NJ",8107,39.9194957780001,-75.093828769,65,"130 ELM AVENUE, OAKLYN, NJ, 8107","Match","Exact","130 ELM AVE, OAKLYN, NJ, 08107",134348203,"L"
46566,"130 ESMA ST","SAN ANTONIO","TX",78223,29.327949975,-98.431842654,66,"130 ESMA ST, SAN ANTONIO, TX, 78223","Match","Exact","130 ESMA ST, SAN ANTONIO, TX, 78223",101535758,"R"
46567,"130 ESSEX ST   BOX 490","SOUTH HAMILTON","MA",1982,42.606373746,-70.845152238,67,"130 ESSEX ST   BOX 490, SOUTH HAMILTON, MA, 1982","Match","Exact","130 ESSEX ST, SOUTH HAMILTON, MA, 01982",86711854,"R"
46568,"130 ESTATES LANE","YOUNGSVILLE","LA",70592,30.1322750150001,-91.982136198,68,"130 ESTATES LANE, YOUNGSVILLE, LA, 70592","Match","Exact","130 ESTATES LN, YOUNGSVILLE, LA, 70592",85631734,"R"
46569,"130 FENIMORE ST APT 3I","BROOKLYN","NY",11225,40.6582342310001,-73.957732657,69,"130 FENIMORE ST APT 3I, BROOKLYN, NY, 11225","Match","Exact","130 FENIMORE ST, BROOKLYN, NY, 11225",59079514,"R"
46570,"130 FOLSOM","FOLSOM","PA",19033,39.891715581,-75.318210638,70,"130 FOLSOM, FOLSOM, PA, 19033","Match","Non_Exact","130 FOLSOM AVE, FOLSOM, PA, 19033",134880686,"R"
46571,"130 FOREST DRIVE","ONA","WV",25545,38.4227468780001,-82.242308108,71,"130 FOREST DRIVE, ONA, WV, 25545","Match","Exact","130 FOREST DR, ONA, WV, 25545",101327581,"L"
46572,"130 FORT WASHINGTON AVENUE 2F","NEW YORK","NY",10032,40.839623483,-73.943280628,72,"130 FORT WASHINGTON AVENUE 2F, NEW YORK, NY, 10032","Match","Exact","130 FORT WASHINGTON AVE, NEW YORK, NY, 10032",59655681,"R"
46573,"130 FOUNTAIN AVE","PADUCAH","KY",42001,37.0792802440001,-88.617561521,73,"130 FOUNTAIN AVE, PADUCAH, KY, 42001","Match","Exact","130 FOUNTAIN AVE, PADUCAH, KY, 42001",8416374,"R"
46574,"130 FOURTH STREET","HAMDEN","CT",6514,41.3446561850001,-72.9383379929999,74,"130 FOURTH STREET, HAMDEN, CT, 6514","Match","Exact","130 4TH ST, HAMDEN, CT, 06514",3698715,"L"
46575,"130 FREDS WAY","GATLINBURG","TN",37738,35.758071322,-83.3544201139999,75,"130 FREDS WAY, GATLINBURG, TN, 37738","Match","Exact","130 FREDS WAY, GATLINBURG, TN, 37738",619991076,"L"
46576,"130 GALE BLVD APT 301","MELVINDALE","MI",48122,42.2731739170001,-83.18802077,76,"130 GALE BLVD APT 301, MELVINDALE, MI, 48122","Match","Exact","130 GALE BLVD, MELVINDALE, MI, 48122",95504661,"R"
46577,"130 GARDENERS CIRCLE PMB-J","JOHNS ISLAND","SC",29455,32.6079779500001,-80.1480735759999,77,"130 GARDENERS CIRCLE PMB-J, JOHNS ISLAND, SC, 29455","Match","Exact","130 GARDENERS CIR, JOHNS ISLAND, SC, 29455",645439321,"R"
46578,"130 GARDNERS CIRCLE PMB 135","JOHNS ISLAND","SC",29455,32.6079779500001,-80.1480735759999,78,"130 GARDNERS CIRCLE PMB 135, JOHNS ISLAND, SC, 29455","Match","Non_Exact","130 GARDENERS CIR, JOHNS ISLAND, SC, 29455",645439321,"R"
46579,"130 GARIBALDI DR","VALLEJO","CA",94589,38.1322965740001,-122.25146906,79,"130 GARIBALDI DR, VALLEJO, CA, 94589","Match","Exact","130 GARIBALDI DR, VALLEJO, CA, 94589",192532087,"L"
46580,"130 GIERA COURT","PARLIN","NJ",8859,40.4561180860001,-74.28127205,80,"130 GIERA COURT, PARLIN, NJ, 8859","Match","Exact","130 GIERA CT, PARLIN, NJ, 08859",60319792,"L"
46581,"130 GINGERCAKE CT","FAYETTEVILLE","GA",30214,33.4551122680001,-84.474562652,81,"130 GINGERCAKE CT, FAYETTEVILLE, GA, 30214","Match","Exact","130 GINGERCAKE CT, FAYETTEVILLE, GA, 30214",75938420,"L"
46582,"130 GLENBROOK PKWY 8D","ENGLEWOOD","NJ",7631,40.9028744510001,-73.9818386109999,82,"130 GLENBROOK PKWY 8D, ENGLEWOOD, NJ, 7631","Match","Exact","130 GLENBROOK PKWY, ENGLEWOOD, NJ, 07631",64375054,"L"
46583,"130 GOLF COURT","TEANECK","NJ",7666,40.8833882160001,-74.0020560409999,83,"130 GOLF COURT, TEANECK, NJ, 7666","Match","Exact","130 GOLF CT, TEANECK, NJ, 07666",64389626,"R"
46584,"130 GOODRICH AVE","LEXINGTON","KY",40503,38.0147196070001,-84.519693278,84,"130 GOODRICH AVE, LEXINGTON, KY, 40503","Match","Exact","130 GOODRICH AVE, LEXINGTON, KY, 40503",31945488,"L"
46585,"130 GRANBY STREET SUITE 101","NORFOLK","VA",23510,36.8470474590001,-76.291980896,85,"130 GRANBY STREET SUITE 101, NORFOLK, VA, 23510","Match","Exact","130 GRANBY ST, NORFOLK, VA, 23510",122127423,"R"
46586,"130 HAMILTON WAY","ROSWELL","GA",30075,34.084274362,-84.371693879,86,"130 HAMILTON WAY, ROSWELL, GA, 30075","Match","Exact","130 HAMILTON WAY, ROSWELL, GA, 30075",17397331,"L"
46587,"130 HARVARD AVE E","SEATTLE","WA",98102,47.6191227150001,-122.322186521,87,"130 HARVARD AVE E, SEATTLE, WA, 98102","Match","Exact","130 HARVARD AVE E, SEATTLE, WA, 98102",186584345,"R"
46588,"130 HAWLEY ST","GRAYSLAKE","IL",60030,42.3453980630001,-88.041921107,88,"130 HAWLEY ST, GRAYSLAKE, IL, 60030","Match","Exact","130 HAWLEY ST, GRAYSLAKE, IL, 60030",119636005,"L"
46589,"130 HEAVENLY VIEW LANE","FANCY GAP","VA",24328,36.662943204,-80.655698733,89,"130 HEAVENLY VIEW LANE, FANCY GAP, VA, 24328","Match","Exact","130 HEAVENLY VW, FANCY GAP, VA, 24328",153814743,"L"
46590,"130 HEMPSTEAD AVE APT 231","WEST HEMPSTEAD","NY",11552,40.7028545790001,-73.641923477,90,"130 HEMPSTEAD AVE APT 231, WEST HEMPSTEAD, NY, 11552","Match","Exact","130 HEMPSTEAD AVE, W HEMPSTEAD, NY, 11552",147675891,"L"
46591,"130 HEMPSTEAD AVE APT 409","WEST HEMPSTEAD","NY",11552,40.7028545790001,-73.641923477,91,"130 HEMPSTEAD AVE APT 409, WEST HEMPSTEAD, NY, 11552","Match","Exact","130 HEMPSTEAD AVE, W HEMPSTEAD, NY, 11552",147675891,"L"
46592,"130 HEWES DRIVE","MULLICA HILL","NJ",8062,NA,NA,92,"130 HEWES DRIVE, MULLICA HILL, NJ, 8062","No_Match",NA,NA,NA,NA
46593,"130 HIDDEN BROOK LANE","NEWNAN","GA",30265,33.4761349520001,-84.6777036939999,93,"130 HIDDEN BROOK LANE, NEWNAN, GA, 30265","Match","Exact","130 HIDDEN BROOK LN, NEWNAN, GA, 30265",639790407,"R"
46594,"130 HIDDEN CT ROAD UNIT 25D","HOLLYWOOD","FL",33023,NA,NA,94,"130 HIDDEN CT ROAD UNIT 25D, HOLLYWOOD, FL, 33023","No_Match",NA,NA,NA,NA
46595,"130 HIDDEN VALLEY RD","MONROEVILLE","PA",15146,40.4357977330001,-79.7058808789999,95,"130 HIDDEN VALLEY RD, MONROEVILLE, PA, 15146","Match","Exact","130 HIDDEN VALLEY RD, MONROEVILLE, PA, 15146",51936974,"R"
46596,"130 HIGHLAND AVENUE","HAMDEN","CT",6518,41.389966649,-72.9018058629999,96,"130 HIGHLAND AVENUE, HAMDEN, CT, 6518","Match","Exact","130 HIGHLAND AVE, HAMDEN, CT, 06518",651692194,"L"
46597,"130 HIGHLAND AVENUE","SOMERVILE","MA",2143,42.3877678490001,-71.1015200259999,97,"130 HIGHLAND AVENUE, SOMERVILE, MA, 2143","Match","Non_Exact","130 HIGHLAND AVE, SOMERVILLE, MA, 02143",86868967,"L"
46598,"130 HILL ROAD SOUTH","PICKERINGTON","OH",43147,39.881591273,-82.759235452,98,"130 HILL ROAD SOUTH, PICKERINGTON, OH, 43147","Match","Exact","130 HILL RD S, PICKERINGTON, OH, 43147",37235028,"R"
46599,"130 HILLSON AVENUE","PITTSBURGH","PA",15227,40.3746491380001,-79.977958636,99,"130 HILLSON AVENUE, PITTSBURGH, PA, 15227","Match","Exact","130 HILLSON AVE, PITTSBURGH, PA, 15227",51639652,"R"
46600,"130 HOLDEN RD","PAXTON","MA",1612,42.3192790050001,-71.906945094,100,"130 HOLDEN RD, PAXTON, MA, 1612","Match","Exact","130 HOLDEN RD, PAXTON, MA, 01612",642603504,"R"
46601,"130 HOPKINS ST","DANVILLE","VA",24541,36.589535423,-79.434301464,101,"130 HOPKINS ST, DANVILLE, VA, 24541","Match","Exact","130 HOPKINS ST, DANVILLE, VA, 24541",56588091,"R"
46602,"130 INFIELD COURT","MOORESVILLE","NC",28117,35.600100776,-80.8525898,102,"130 INFIELD COURT, MOORESVILLE, NC, 28117","Match","Exact","130 INFIELD CT, MOORESVILLE, NC, 28117",46019166,"R"
46603,"130 INVERNESS PLAZA 218","BIRMINGHAM","AL",35242,NA,NA,103,"130 INVERNESS PLAZA 218, BIRMINGHAM, AL, 35242","Tie",NA,NA,NA,NA
46604,"130 INVERNESS PLAZA 275","BIRMINGHAM","AL",35242,NA,NA,104,"130 INVERNESS PLAZA 275, BIRMINGHAM, AL, 35242","Tie",NA,NA,NA,NA
46605,"130 INVERNESS PLAZA NUMBER 145","BIRMINGHAM","AL",35242,NA,NA,105,"130 INVERNESS PLAZA NUMBER 145, BIRMINGHAM, AL, 35242","Tie",NA,NA,NA,NA
46606,"130 JERICHO AVE SE","RENTON","WA",98059,47.4836588950001,-122.148279901,106,"130 JERICHO AVE SE, RENTON, WA, 98059","Match","Non_Exact","130 JERICHO AVE NE, RENTON, WA, 98059",651362067,"L"
46607,"130 LAKE DRIVE","DALTON","OH",44618,40.7975371950001,-81.734263465,107,"130 LAKE DRIVE, DALTON, OH, 44618","Match","Exact","130 LAKE DR, DALTON, OH, 44618",649599016,"R"
46608,"130 LAMBERT ROAD","WHITESBURG","GA",30185,33.535742973,-84.83819542,108,"130 LAMBERT ROAD, WHITESBURG, GA, 30185","Match","Exact","130 LAMBERT RD, WHITESBURG, GA, 30185",17118738,"L"
46609,"130 LAMPUS LN","TARENTUM PA","PA",15084,40.6181515710001,-79.783431346,109,"130 LAMPUS LN, TARENTUM PA, PA, 15084","Match","Non_Exact","130 LAMPUS LN, TARENTUM, PA, 15084",51709339,"R"
46610,"130 LANTERN LN","PLAIN CITY","OH",43064,40.0998989570001,-83.270607572,110,"130 LANTERN LN, PLAIN CITY, OH, 43064","Match","Exact","130 LANTERN LN, PLAIN CITY, OH, 43064",135267646,"R"
46611,"130 LATHROP STREET","MONOTROSE","PA",18801,NA,NA,111,"130 LATHROP STREET, MONOTROSE, PA, 18801","No_Match",NA,NA,NA,NA
46612,"130 LAWRENCE","DETROIT","MI",48202,42.3907879970001,-83.0880868309999,112,"130 LAWRENCE, DETROIT, MI, 48202","Match","Non_Exact","130 LAWRENCE ST, DETROIT, MI, 48202",95475159,"R"
46613,"130 LEA AVE","FREDERICA","DE",19946,39.0298143110001,-75.510934268,113,"130 LEA AVE, FREDERICA, DE, 19946","Match","Exact","130 LEA AVE, FREDERICA, DE, 19946",68106231,"R"
46614,"130 LEE AVE PMB 137","BROOKLYN","NY",11211,NA,NA,114,"130 LEE AVE PMB 137, BROOKLYN, NY, 11211","No_Match",NA,NA,NA,NA
46615,"130 LEE AVE STE 258","BROOKLYN","NY",11211,NA,NA,115,"130 LEE AVE STE 258, BROOKLYN, NY, 11211","No_Match",NA,NA,NA,NA
46616,"130 LENOX AVENUE   802","NEW YORK CITY","NY",10026,40.8022797190001,-73.949483204,116,"130 LENOX AVENUE   802, NEW YORK CITY, NY, 10026","Match","Exact","130 LENOX AVE, NEW YORK, NY, 10026",59657733,"R"
46617,"130 LENOX AVENUE SUITE 802","NEW YORK","NY",10026,40.8022797190001,-73.949483204,117,"130 LENOX AVENUE SUITE 802, NEW YORK, NY, 10026","Match","Exact","130 LENOX AVE, NEW YORK, NY, 10026",59657733,"R"
46618,"130 LEWIS STREET","SAN ANTONIO","TX",78212,29.438778905,-98.496704703,118,"130 LEWIS STREET, SAN ANTONIO, TX, 78212","Match","Exact","130 LEWIS ST, SAN ANTONIO, TX, 78212",101525563,"R"
46619,"130 LIBRARY LANE","MATTHEWS","NC",28105,35.1167015390001,-80.7227077919999,119,"130 LIBRARY LANE, MATTHEWS, NC, 28105","Match","Exact","130 LIBRARY LN, MATTHEWS, NC, 28105",70495715,"R"
46620,"130 LINCOLN BOULEVARD","MIDDLESEX","NJ",8846,40.562341243,-74.519117063,120,"130 LINCOLN BOULEVARD, MIDDLESEX, NJ, 8846","Match","Exact","130 LINCOLN BLVD, MIDDLESEX, NJ, 08846",60258605,"R"
46621,"130 LINDEN ST STE A","RENO","NV",89502,39.499965817,-119.79777047,121,"130 LINDEN ST STE A, RENO, NV, 89502","Match","Exact","130 LINDEN ST, RENO, NV, 89502",107052527,"R"
46622,"130 LONGLEAT DRIVE","NORTH WALES","PA",19454,40.247367442,-75.2189497379999,122,"130 LONGLEAT DRIVE, NORTH WALES, PA, 19454","Match","Exact","130 LONGLEAT DR, NORTH WALES, PA, 19454",135107500,"R"
46623,"130 LOUISIANA AVE S","GOLDEN VALLEY","MN",55426,44.9771424690001,-93.370177099,123,"130 LOUISIANA AVE S, GOLDEN VALLEY, MN, 55426","Match","Exact","130 LOUISIANA AVE S, GOLDEN VALLEY, MN, 55426",43831693,"R"
46624,"130 MACE STREET","STATEN ISLAND","NY",10306,40.5746867030001,-74.131484292,124,"130 MACE STREET, STATEN ISLAND, NY, 10306","Match","Exact","130 MACE ST, STATEN ISLAND, NY, 10306",59876659,"L"
46625,"130 MAGNOLIA DR","SAN ANTONIO","TX",78212,29.453275778,-98.479621634,125,"130 MAGNOLIA DR, SAN ANTONIO, TX, 78212","Match","Exact","130 MAGNOLIA DR, SAN ANTONIO, TX, 78212",101524858,"R"
46626,"130 MAIN ST PMB 269","RANCOCUS","NJ",8073,40.011084667,-74.86794535,126,"130 MAIN ST PMB 269, RANCOCUS, NJ, 8073","Match","Non_Exact","130 MAIN ST, RANCOCAS, NJ, 08073",134032445,"L"
46627,"130 MAIN ST","ELROY","WI",53929,43.73739413,-90.269306754,127,"130 MAIN ST, ELROY, WI, 53929","Match","Exact","130 MAIN ST, ELROY, WI, 53929",50951828,"R"
46628,"130 MAIN ST","OAKFIELD","WI",53065,43.6825313210001,-88.54750763,128,"130 MAIN ST, OAKFIELD, WI, 53065","Match","Non_Exact","130 S MAIN ST, OAKFIELD, WI, 53065",74818692,"L"
46629,"130 MAIN STREET 567","TRENTON","NJ",8073,40.011084667,-74.86794535,129,"130 MAIN STREET 567, TRENTON, NJ, 8073","Match","Non_Exact","130 MAIN ST, RANCOCAS, NJ, 08073",134032445,"L"
46630,"130 MAIN STREET 685","RANCOCAS","NJ",8703,NA,NA,130,"130 MAIN STREET 685, RANCOCAS, NJ, 8703","No_Match",NA,NA,NA,NA
46631,"130 MAIN STREET SUITE 121","NORTH MYRTLE BEACH","SC",29582,33.818314206,-78.672087797,131,"130 MAIN STREET SUITE 121, NORTH MYRTLE BEACH, SC, 29582","Match","Exact","130 MAIN ST, N MYRTLE BCH, SC, 29582",29055462,"L"
46632,"130 MAIN STREET","WEBSTER SPRINGS","WV",26288,38.4760909440001,-80.410441474,132,"130 MAIN STREET, WEBSTER SPRINGS, WV, 26288","Match","Non_Exact","130 S MAIN ST, WEBSTER SPRINGS, WV, 26288",50071131,"R"
46633,"130 MALCOLM X BLVD","NEW YORK","NY",10026,40.8022797190001,-73.949483204,133,"130 MALCOLM X BLVD, NEW YORK, NY, 10026","Match","Exact","130 MALCOLM X BLVD, NEW YORK, NY, 10026",59657733,"R"
46634,"130 MARBLE CROSSING DRIVE","WENTZVILLE","MO",63385,38.8341986510001,-90.8384355489999,134,"130 MARBLE CROSSING DRIVE, WENTZVILLE, MO, 63385","Match","Exact","130 MARBLE CROSSING DR, WENTZVILLE, MO, 63385",647315412,"L"
46635,"130 MARIAN CIRCLE","CHEYENNE","WY",82001,41.1318976630001,-104.749405016,135,"130 MARIAN CIRCLE, CHEYENNE, WY, 82001","Match","Exact","130 MARIAN CIR, CHEYENNE, WY, 82001",160152866,"L"
46636,"130 MATTHEW DRIVE","READING","PA",19608,40.2915812200001,-76.012605064,136,"130 MATTHEW DRIVE, READING, PA, 19608","Match","Exact","130 MATTHEW DR, READING, PA, 19608",645581151,"L"
46637,"130 MCHENRY LANE","WARD","AR",72176,34.9764489140001,-91.927871357,137,"130 MCHENRY LANE, WARD, AR, 72176","Match","Exact","130 MCHENRY LN, WARD, AR, 72176",79695902,"L"
46638,"130 MELROSE CT","VACAVILLE","CA",95687,38.341384147,-121.950386366,138,"130 MELROSE CT, VACAVILLE, CA, 95687","Match","Exact","130 MELROSE CT, VACAVILLE, CA, 95687",192535888,"R"
46639,"130 MEMORIAL HALL","ATHENS","GA",30602,NA,NA,139,"130 MEMORIAL HALL, ATHENS, GA, 30602","No_Match",NA,NA,NA,NA
46640,"130 MERRIMACK WAY","ARNOLD","MD",21012,NA,NA,140,"130 MERRIMACK WAY, ARNOLD, MD, 21012","No_Match",NA,NA,NA,NA
46641,"130 MICHIGAN AVE N E APT 24","WASHINGTON","DC",20017,38.928178217,-77.005022948,141,"130 MICHIGAN AVE N E APT 24, WASHINGTON, DC, 20017","Match","Non_Exact","130 MICHIGAN AVE NE, WASHINGTON, DC, 20017",635190432,"L"
46642,"130 MILDRED LANE","COVINGTON","GA",30016,33.5186350860001,-84.033876197,142,"130 MILDRED LANE, COVINGTON, GA, 30016","Match","Exact","130 MILDRED LN, COVINGTON, GA, 30016",635647343,"L"
46643,"130 MOCKINGBIRD DR","CRANSTON","RI",2920,41.7832927850001,-71.488711888,143,"130 MOCKINGBIRD DR, CRANSTON, RI, 2920","Match","Exact","130 MOCKINGBIRD DR, CRANSTON, RI, 02920",47452020,"L"
46644,"130 MONACO ST","BUTLER","PA",16002,40.745674858,-79.919467361,144,"130 MONACO ST, BUTLER, PA, 16002","Match","Exact","130 MONACO ST, BUTLER, PA, 16002",607362065,"R"
46645,"130 MONEY LANE","SAN ANTONIO","TX",78227,29.432961306,-98.588555123,145,"130 MONEY LANE, SAN ANTONIO, TX, 78227","Match","Exact","130 MONEY LN, SAN ANTONIO, TX, 78227",101510710,"L"
46646,"130 MORSE AVE","NILES","OH",44446,41.1843637750001,-80.7546156879999,146,"130 MORSE AVE, NILES, OH, 44446","Match","Non_Exact","130 MORSE AVE SE, NILES, OH, 44446",117409266,"L"
46647,"130 MOUNTAINVIEW ROAD","MOUNT LAUREL","NJ",8054,39.9180094810001,-74.904261898,147,"130 MOUNTAINVIEW ROAD, MOUNT LAUREL, NJ, 8054","Match","Exact","130 MOUNTAINVIEW RD, MOUNT LAUREL, NJ, 08054",134062625,"R"
46648,"130 MOZELLE ROAD","CHERRYVILLE","NC",28021,35.3464242160001,-81.3815579389999,148,"130 MOZELLE ROAD, CHERRYVILLE, NC, 28021","Match","Exact","130 MOZELLE RD, CHERRYVILLE, NC, 28021",70437309,"R"
46649,"130 MYSTIC RIDGE","SNEADS FERRY","NC",28460,34.5209466040001,-77.465833216,149,"130 MYSTIC RIDGE, SNEADS FERRY, NC, 28460","Match","Exact","130 MYSTIC RIDGE, SNEADS FERRY, NC, 28460",605411363,"R"
46650,"130 N BEECH AVE","HENRICO","VA",23075,37.5511943500001,-77.328030929,150,"130 N BEECH AVE, HENRICO, VA, 23075","Match","Exact","130 N BEECH AVE, HENRICO, VA, 23075",106651327,"L"
46651,"130 N BLACK BRIDGE ROAD","CAMP VERDE","AZ",86322,NA,NA,151,"130 N BLACK BRIDGE ROAD, CAMP VERDE, AZ, 86322","No_Match",NA,NA,NA,NA
46652,"130 N GARLAND CT STE 2209","CHICAGO","IL",60602,41.883662459,-87.625338321,152,"130 N GARLAND CT STE 2209, CHICAGO, IL, 60602","Match","Non_Exact","130 N GARLAND CT, CHICAGO, IL, 60602",111769124,"L"
46653,"130 N GREENWOOD AVE SUITE 420","TULSA","OK",74120,36.1600959470001,-95.9862471009999,153,"130 N GREENWOOD AVE SUITE 420, TULSA, OK, 74120","Match","Non_Exact","130 N GREENWOOD AVE, TULSA, OK, 74120",166437774,"L"
46654,"130 N GREENWOOD STE 306","TULSA","OK",74120,NA,NA,154,"130 N GREENWOOD STE 306, TULSA, OK, 74120","No_Match",NA,NA,NA,NA
46655,"130 N HAMILTON ST STE 202","GEORGETOWN","KY",40324,NA,NA,155,"130 N HAMILTON ST STE 202, GEORGETOWN, KY, 40324","Tie",NA,NA,NA,NA
46656,"130 N LIBERTY ST","HOBART","IN",46342,41.5402060690001,-87.2429174659999,156,"130 N LIBERTY ST, HOBART, IN, 46342","Match","Exact","130 N LIBERTY ST, HOBART, IN, 46342",629694108,"L"
46657,"130 N LOS ROBLES STE 7","PASADENA","CA",91101,NA,NA,157,"130 N LOS ROBLES STE 7, PASADENA, CA, 91101","No_Match",NA,NA,NA,NA
46658,"130 N MAIN STREET","ANDREWS","TX",79714,32.3198290490001,-102.546888271,158,"130 N MAIN STREET, ANDREWS, TX, 79714","Match","Exact","130 N MAIN ST, ANDREWS, TX, 79714",139076866,"R"
46659,"130 N MARTINWOOD ROAD","KNOXVILLE","GA",37923,NA,NA,159,"130 N MARTINWOOD ROAD, KNOXVILLE, GA, 37923","No_Match",NA,NA,NA,NA
46660,"130 N MONROE ST","WILLIAMSPORT","IN",47993,40.287438744,-87.294093253,160,"130 N MONROE ST, WILLIAMSPORT, IN, 47993","Match","Exact","130 N MONROE ST, WILLIAMSPORT, IN, 47993",55251754,"L"
46661,"130 N MONROE","WILLIAMSPORT","IN",47993,40.287438744,-87.294093253,161,"130 N MONROE, WILLIAMSPORT, IN, 47993","Match","Non_Exact","130 N MONROE ST, WILLIAMSPORT, IN, 47993",55251754,"L"
46662,"130 N PRESTON RD 100-424","PROSPER","TX",75078,33.2412730020001,-96.787268134,162,"130 N PRESTON RD 100-424, PROSPER, TX, 75078","Match","Non_Exact","130 N PRESTON RD, PROSPER, TX, 75078",123565797,"R"
46663,"130 N SCHOOL LANE","SOUDERTON","PA",18964,NA,NA,163,"130 N SCHOOL LANE, SOUDERTON, PA, 18964","Tie",NA,NA,NA,NA
46664,"130 NICKERSON ST STE 207","SEATTLE","WA",98109,47.6484952270001,-122.354888574,164,"130 NICKERSON ST STE 207, SEATTLE, WA, 98109","Match","Exact","130 NICKERSON ST, SEATTLE, WA, 98109",186581627,"L"
46665,"130 NORTH CENTRAL AVENUE","CHICAGO","IL",60644,41.8829165540001,-87.764958329,165,"130 NORTH CENTRAL AVENUE, CHICAGO, IL, 60644","Match","Exact","130 N CENTRAL AVE, CHICAGO, IL, 60644",111754222,"L"
46666,"130 NORTH GREENWOOD AVE SUITE 124-A","TULSA","OK",74120,36.160091274,-95.986244345,166,"130 NORTH GREENWOOD AVE SUITE 124-A, TULSA, OK, 74120","Match","Exact","130 N GREENWOOD AVE, TULSA, OK, 74120",166437774,"L"
46667,"130 NORTH JOHN PRINE AVENUE","DRAKESBORO","KY",42337,37.218439161,-87.045756113,167,"130 NORTH JOHN PRINE AVENUE, DRAKESBORO, KY, 42337","Match","Non_Exact","130 JOHN PRINE AVE, DRAKESBORO, KY, 42337",206964019,"R"
46668,"130 NORTH LAFAYETTE","GRIFFITH","IN",46319,41.5233974490001,-87.42644151,168,"130 NORTH LAFAYETTE, GRIFFITH, IN, 46319","Match","Non_Exact","130 N LAFAYETTE ST, GRIFFITH, IN, 46319",98428918,"L"
46669,"130 NORTH MADISON SREET","IOWA CITY","IA",52242,41.662865841,-91.537666045,169,"130 NORTH MADISON SREET, IOWA CITY, IA, 52242","Match","Non_Exact","130 N MADISON ST, IOWA CITY, IA, 52242",648845991,"L"
46670,"130 NORTH WALNUT STREET - SUITE B","PINEBLUFF","NC",28373,35.108993963,-79.4726714349999,170,"130 NORTH WALNUT STREET - SUITE B, PINEBLUFF, NC, 28373","Match","Exact","130 N WALNUT ST, PINEBLUFF, NC, 28373",20305288,"L"
46671,"130 NORTHEAST 30TH COURT","POMPANO BEACH","FL",33064,26.268238707,-80.12215106,171,"130 NORTHEAST 30TH COURT, POMPANO BEACH, FL, 33064","Match","Exact","130 NE 30TH CT, POMPANO BEACH, FL, 33064",114822465,"R"
46672,"130 OAKBROOK LANE","CLOVERDALE","CA",95425,38.807735338,-123.014762444,172,"130 OAKBROOK LANE, CLOVERDALE, CA, 95425","Match","Exact","130 OAKBROOK LN, CLOVERDALE, CA, 95425",633901018,"L"
46673,"130 OAKMONT DRIVE","BREMEN","IN",46506,41.4418617260001,-86.161597458,173,"130 OAKMONT DRIVE, BREMEN, IN, 46506","Match","Exact","130 OAKMONT DR, BREMEN, IN, 46506",7650465,"L"
46674,"130 OCEAN DRIVE","OCEAN RIDGE","FL",33435,26.5561839280001,-80.065875509,174,"130 OCEAN DRIVE, OCEAN RIDGE, FL, 33435","Match","Non_Exact","130 OCEAN PKWY, OCEAN RIDGE, FL, 33435",115295438,"R"
46675,"130 OCOTILLO DR","WAXAHACHIE","TX",75165,32.405451649,-96.8654257269999,175,"130 OCOTILLO DR, WAXAHACHIE, TX, 75165","Match","Exact","130 OCOTILLO DR, WAXAHACHIE, TX, 75165",608357496,"L"
46676,"130 ODILL DRIVE","NORWAY","MI",49870,NA,NA,176,"130 ODILL DRIVE, NORWAY, MI, 49870","No_Match",NA,NA,NA,NA
46677,"130 ORIE GRIFFIN ROAD","PALATKA","FL",32177,29.6679916680001,-81.6615612269999,177,"130 ORIE GRIFFIN ROAD, PALATKA, FL, 32177","Match","Non_Exact","130 ORIE GRIFFIN DR, PALATKA, FL, 32177",613345198,"R"
46678,"130 OVERLOOK AVE APT 17K","HACKENSACK","NJ",7601,40.8870596040001,-74.0549904229999,178,"130 OVERLOOK AVE APT 17K, HACKENSACK, NJ, 7601","Match","Exact","130 OVERLOOK AVE, HACKENSACK, NJ, 07601",64385817,"R"
46679,"130 PALISADE AVE","GARFIELD","NJ",7026,40.8685406280001,-74.1077504909999,179,"130 PALISADE AVE, GARFIELD, NJ, 7026","Match","Exact","130 PALISADE AVE, GARFIELD, NJ, 07026",64392682,"R"
46680,"130 PARK LANE","KIRKLAND","WA",98033,47.6761241730001,-122.205923015,180,"130 PARK LANE, KIRKLAND, WA, 98033","Match","Exact","130 PARK LN, KIRKLAND, WA, 98033",186681914,"L"
46681,"130 PEBBLE BEACH DRIVE","GEORGETOWN","KY",40324,38.24827988,-84.57391982,181,"130 PEBBLE BEACH DRIVE, GEORGETOWN, KY, 40324","Match","Exact","130 PEBBLE BEACH DR, GEORGETOWN, KY, 40324",41232718,"L"
46682,"130 PEBBLES LANE","WACO","TX",76708,31.648273315,-97.287118978,182,"130 PEBBLES LANE, WACO, TX, 76708","Match","Exact","130 PEBBLES LN, WACO, TX, 76708",146769801,"R"
46683,"130 PEPPERIDGE DR","GENEVA","OH",44041,41.7869922410001,-80.9399307899999,183,"130 PEPPERIDGE DR, GENEVA, OH, 44041","Match","Exact","130 PEPPERIDGE DR, GENEVA, OH, 44041",117312702,"L"
46684,"130 PLANTATION DRIVE","RICHMOND","KY",40475,37.7305883870001,-84.347408112,184,"130 PLANTATION DRIVE, RICHMOND, KY, 40475","Match","Exact","130 PLANTATION DR, RICHMOND, KY, 40475",624941604,"R"
46685,"130 PLANTATION ROAD","DESTREHAN","LA",70047,29.974898523,-90.378894902,185,"130 PLANTATION ROAD, DESTREHAN, LA, 70047","Match","Exact","130 PLANTATION RD, DESTREHAN, LA, 70047",93626103,"R"
46686,"130 PONDEROSA CIRCLE","MIDWAY","FL",32343,30.5080331360001,-84.474022958,186,"130 PONDEROSA CIRCLE, MIDWAY, FL, 32343","Match","Exact","130 PONDEROSA CIR, MIDWAY, FL, 32343",633868929,"R"
46687,"130 PRAIRIE AVE","BUTTERFIELD","MN",56120,43.953196146,-94.7943414,187,"130 PRAIRIE AVE, BUTTERFIELD, MN, 56120","Match","Exact","130 PRAIRIE AVE, BUTTERFIELD, MN, 56120",611816853,"L"
46688,"130 QUAIL RUN DR","WINFIELD","AL",35594,33.9473078120001,-87.798020142,188,"130 QUAIL RUN DR, WINFIELD, AL, 35594","Match","Non_Exact","130 QUAIL RUN RD, WINFIELD, AL, 35594",130633248,"L"
46689,"130 RADLE RD","HARRISBURG","PA",17112,40.326328629,-76.7550233119999,189,"130 RADLE RD, HARRISBURG, PA, 17112","Match","Exact","130 RADLE RD, HARRISBURG, PA, 17112",634138147,"R"
46690,"130 RC ALLEN DRIVE","COLUMBUS","GA",31907,32.447879374,-84.9034217729999,190,"130 RC ALLEN DRIVE, COLUMBUS, GA, 31907","Match","Exact","130 RC ALLEN DR, COLUMBUS, GA, 31907",98943594,"R"
46691,"130 RIVER LANDING DRIVE","CHARLESTON","SC",29492,NA,NA,191,"130 RIVER LANDING DRIVE, CHARLESTON, SC, 29492","No_Match",NA,NA,NA,NA
46692,"130 RIVERWOOD DR","ST ROSE","LA",70087,29.9455864620001,-90.319841315,192,"130 RIVERWOOD DR, ST ROSE, LA, 70087","Match","Exact","130 RIVERWOOD DR, SAINT ROSE, LA, 70087",631937716,"L"
46693,"130 ROBERT AVE","BELLEVUE","OH",44811,41.2825095750001,-82.839743644,193,"130 ROBERT AVE, BELLEVUE, OH, 44811","Match","Exact","130 ROBERT AVE, BELLEVUE, OH, 44811",12622784,"L"
46694,"130 ROBIN HILL ROAD SUITE 100","GOLETA","CA",93117,34.4343675380001,-119.844871117,194,"130 ROBIN HILL ROAD SUITE 100, GOLETA, CA, 93117","Match","Exact","130 ROBIN HILL RD, GOLETA, CA, 93117",108695769,"L"
46695,"130 ROBIN LANE N6","HUMMELSTOWN","PA",17036,40.312742761,-76.700477516,195,"130 ROBIN LANE N6, HUMMELSTOWN, PA, 17036","Match","Exact","130 ROBIN LN, HUMMELSTOWN, PA, 17036",624887367,"L"
46696,"130 ROCK HILL ROAD","ASHEVILLE","NC",28803,35.5352588160001,-82.520447116,196,"130 ROCK HILL ROAD, ASHEVILLE, NC, 28803","Match","Exact","130 ROCK HILL RD, ASHEVILLE, NC, 28803",627656094,"L"
46697,"130 ROCKVIEW","IRVINE","CA",92612,33.6527726360001,-117.820415092,197,"130 ROCKVIEW, IRVINE, CA, 92612","Match","Exact","130 ROCKVIEW, IRVINE, CA, 92612",144097008,"R"
46698,"130 S 2ND STREET","VICTOR","CO",80860,NA,NA,198,"130 S 2ND STREET, VICTOR, CO, 80860","Tie",NA,NA,NA,NA
46699,"130 S 700 E APT 2","SALT LAKE CITY","UT",84102,40.7664176580001,-111.87106285,199,"130 S 700 E APT 2, SALT LAKE CITY, UT, 84102","Match","Non_Exact","130 S 700 E, SALT LAKE CITY, UT, 84102",176068017,"R"
46700,"130 S ACADEMY DRIVE","EPHRATA","PA",17522,40.185559212,-76.191149942,200,"130 S ACADEMY DRIVE, EPHRATA, PA, 17522","Match","Exact","130 S ACADEMY DR, EPHRATA, PA, 17522",179656942,"R"
46701,"130 S BLAKE ST","OLATHE","KS",66061,38.8815394740001,-94.8049986029999,201,"130 S BLAKE ST, OLATHE, KS, 66061","Match","Exact","130 S BLAKE ST, OLATHE, KS, 66061",91283345,"L"
46702,"130 S CAMERON ST","WINCHESTER","VA",22601,39.182466591,-78.164647601,202,"130 S CAMERON ST, WINCHESTER, VA, 22601","Match","Exact","130 S CAMERON ST, WINCHESTER, VA, 22601",55578504,"R"
46703,"130 S CLOW INTERNATIONAL PKWY","BOLINGBROOK","IL",60440,41.701994019,-88.1289368,203,"130 S CLOW INTERNATIONAL PKWY, BOLINGBROOK, IL, 60440","Match","Non_Exact","130 CLOW INTERNATIONAL PKWY, BOLINGBROOK, IL, 60490",607943865,"L"
46704,"130 S FRONT ST APT 432","MEMPHIS","TN",38103,NA,NA,204,"130 S FRONT ST APT 432, MEMPHIS, TN, 38103","Tie",NA,NA,NA,NA
46705,"130 S INDIAN DRIVE SUITE 202","FORT PIERCE","FL",34950,NA,NA,205,"130 S INDIAN DRIVE SUITE 202, FORT PIERCE, FL, 34950","No_Match",NA,NA,NA,NA
46706,"130 S INDIAN RIVER DR STE 202","FORT PIERCE","FL",34950,NA,NA,206,"130 S INDIAN RIVER DR STE 202, FORT PIERCE, FL, 34950","Tie",NA,NA,NA,NA
46707,"130 S INDIAN RIVER DR SUITE 202","FORT PIERCE","FL",34950,NA,NA,207,"130 S INDIAN RIVER DR SUITE 202, FORT PIERCE, FL, 34950","Tie",NA,NA,NA,NA
46708,"130 S INDIAN RIVER DRIVE STE 202","FORT PIERCE","FL",34950,NA,NA,208,"130 S INDIAN RIVER DRIVE STE 202, FORT PIERCE, FL, 34950","Tie",NA,NA,NA,NA
46709,"130 S INDIAN RIVER DRIVE","FORT PIERCE","FL",34950,27.447693943,-80.3228017339999,209,"130 S INDIAN RIVER DRIVE, FORT PIERCE, FL, 34950","Match","Exact","130 S INDIAN RIVER DR, FORT PIERCE, FL, 34950",120148186,"L"
46710,"130 S JEFFERSON ST","STAUNTON","VA",24401,38.1469296720001,-79.0784336089999,210,"130 S JEFFERSON ST, STAUNTON, VA, 24401","Match","Exact","130 S JEFFERSON ST, STAUNTON, VA, 24401",98847423,"L"
46711,"130 S LAFAYETTE PARK PL APT 401","LOS ANGELES","CA",90057,34.06991119,-118.278788329,211,"130 S LAFAYETTE PARK PL APT 401, LOS ANGELES, CA, 90057","Match","Non_Exact","130 S LA FAYETTE PARK PL, LOS ANGELES, CA, 90057",141605249,"L"
46712,"130 S MAIN ST","BOWLING GREEN","OH",43402,41.3737716640001,-83.650420179,212,"130 S MAIN ST, BOWLING GREEN, OH, 43402","Match","Exact","130 S MAIN ST, BOWLING GREEN, OH, 43402",38720176,"L"
46713,"130 S MONTANA","DILLON","MT",59725,45.2167316250001,-112.638647015,213,"130 S MONTANA, DILLON, MT, 59725","Match","Non_Exact","130 S MONTANA ST, DILLON, MT, 59725",153005875,"R"
46714,"130 S PARK ST","STREATOR","IL",61364,41.1204146630001,-88.8341789039999,214,"130 S PARK ST, STREATOR, IL, 61364","Match","Exact","130 S PARK ST, STREATOR, IL, 61364",8593695,"L"
46715,"130 S PATTERSON AVE SUITE 1066","GOLETA","CA",93116,NA,NA,215,"130 S PATTERSON AVE SUITE 1066, GOLETA, CA, 93116","No_Match",NA,NA,NA,NA
46716,"130 S SEGUIN AVE","NEW BRAUNFELS","TX",78130,29.702459849,-98.1238923989999,216,"130 S SEGUIN AVE, NEW BRAUNFELS, TX, 78130","Match","Exact","130 S SEGUIN AVE, NEW BRAUNFELS, TX, 78130",72245659,"R"
46717,"130 S STATE ST STE 303","BELVIDERE","IL",61008,NA,NA,217,"130 S STATE ST STE 303, BELVIDERE, IL, 61008","Tie",NA,NA,NA,NA
46718,"130 S WALNUT STREET","BATESVILLE","IN",47006,39.2980687040001,-85.22394665,218,"130 S WALNUT STREET, BATESVILLE, IN, 47006","Match","Exact","130 S WALNUT ST, BATESVILLE, IN, 47006",31519506,"R"
46719,"130 SAGER ROAD","VALPARAISO","IN",46383,41.4539769950001,-87.058086869,219,"130 SAGER ROAD, VALPARAISO, IN, 46383","Match","Exact","130 SAGER RD, VALPARAISO, IN, 46383",641443559,"R"
46720,"130 SAND BAR","DETROIT","MI",48214,42.359530459,-82.9630978169999,220,"130 SAND BAR, DETROIT, MI, 48214","Match","Non_Exact","130 SAND BAR LN, DETROIT, MI, 48214",639388382,"R"
46721,"130 SAUK STREET","LODI","WI",53555,NA,NA,221,"130 SAUK STREET, LODI, WI, 53555","No_Match",NA,NA,NA,NA
46722,"130 SMOKY VALLEY BLVD -1902","ROUND MOUNTAI","NV",89045,NA,NA,222,"130 SMOKY VALLEY BLVD -1902, ROUND MOUNTAI, NV, 89045","No_Match",NA,NA,NA,NA
46723,"130 SOUTH 16TH STREET","WEST MEMPHIS","AR",72301,35.14585629,-90.1652273399999,223,"130 SOUTH 16TH STREET, WEST MEMPHIS, AR, 72301","Match","Exact","130 S 16TH ST, WEST MEMPHIS, AR, 72301",69372973,"R"
46724,"130 SOUTH 500 WEST SUITE 732","SALT LAKE CITY","UT",84101,40.7664373700001,-111.905478276,224,"130 SOUTH 500 WEST SUITE 732, SALT LAKE CITY, UT, 84101","Match","Exact","130 S 500 W, SALT LAKE CITY, UT, 84101",176066986,"R"
46725,"130 SOUTH FRONT STREET APT 331","MEMPHIS","TN",38103,35.141755382,-90.055590368,225,"130 SOUTH FRONT STREET APT 331, MEMPHIS, TN, 38103","Match","Exact","130 S FRONT ST, MEMPHIS, TN, 38103",72903206,"L"
46726,"130 SOUTH FRONT STREET SUITE 315","MEMPHIS","TN",38103,35.141755382,-90.055590368,226,"130 SOUTH FRONT STREET SUITE 315, MEMPHIS, TN, 38103","Match","Exact","130 S FRONT ST, MEMPHIS, TN, 38103",72903206,"L"
46727,"130 SOUTH MARKET STREET","MEMPHIS","MO",63555,40.4585099120001,-92.16937108,227,"130 SOUTH MARKET STREET, MEMPHIS, MO, 63555","Match","Exact","130 S MARKET ST, MEMPHIS, MO, 63555",13231839,"R"
46728,"130 SOUTH ST APT 2A","NEWARK","NJ",7114,40.7227188420001,-74.173342917,228,"130 SOUTH ST APT 2A, NEWARK, NJ, 7114","Match","Exact","130 SOUTH ST, NEWARK, NJ, 07114",63467948,"L"
46729,"130 SOUTH THIRD STREET","DOUGLAS","WY",82633,42.7587410830001,-105.384114583,229,"130 SOUTH THIRD STREET, DOUGLAS, WY, 82633","Match","Exact","130 S 3RD ST, DOUGLAS, WY, 82633",606570313,"L"
46730,"130 SOUTH16TH STREET","WEST MEMPHIS","AR",72301,NA,NA,230,"130 SOUTH16TH STREET, WEST MEMPHIS, AR, 72301","No_Match",NA,NA,NA,NA
46731,"130 SPENCER HILL CT","MACON","GA",31206,32.7964440170001,-83.6997843619999,231,"130 SPENCER HILL CT, MACON, GA, 31206","Match","Exact","130 SPENCER HILL CT, MACON, GA, 31206",81059978,"L"
46732,"130 SPRING RIDGE DR","ROSWELL","GA",30076,34.022293916,-84.293284786,232,"130 SPRING RIDGE DR, ROSWELL, GA, 30076","Match","Exact","130 SPRING RIDGE DR, ROSWELL, GA, 30076",17393567,"L"
46733,"130 SPRINGSIDE AVENUE","NEW HAVEN","CT",6515,41.3317742190001,-72.956280566,233,"130 SPRINGSIDE AVENUE, NEW HAVEN, CT, 6515","Match","Exact","130 SPRINGSIDE AVE, NEW HAVEN, CT, 06515",628113960,"L"
46734,"130 SPRUCE STREET APT 32B","PHILADELPHIA","PA",19106,39.94439852,-75.1442151589999,234,"130 SPRUCE STREET APT 32B, PHILADELPHIA, PA, 19106","Match","Exact","130 SPRUCE ST, PHILADELPHIA, PA, 19106",131459633,"L"
46735,"130 STEWARD RD","MONSON","ME",4464,45.26725671,-69.449744497,235,"130 STEWARD RD, MONSON, ME, 4464","Match","Exact","130 STEWARD RD, MONSON, ME, 04464",123967338,"R"
46736,"130 STRECKER DRIVE","TALLMADGE","OH",44278,41.0917106520001,-81.4365851589999,236,"130 STRECKER DRIVE, TALLMADGE, OH, 44278","Match","Exact","130 STRECKER DR, TALLMADGE, OH, 44278",61383764,"R"
46737,"130 SUGAR MIST DRIVE","DALLAS","GA",30132,34.017412887,-84.794415895,237,"130 SUGAR MIST DRIVE, DALLAS, GA, 30132","Match","Exact","130 SUGAR MIST DR, DALLAS, GA, 30132",618923779,"R"
46738,"130 SUMMER STREET","WESTON","MA",2493,42.359064629,-71.273085484,238,"130 SUMMER STREET, WESTON, MA, 2493","Match","Exact","130 SUMMER ST, WESTON, MA, 02493",87104312,"L"
46739,"130 SUNNYSLOPE RD","PETALUMA","CA",94952,38.22153124,-122.640571918,239,"130 SUNNYSLOPE RD, PETALUMA, CA, 94952","Match","Exact","130 SUNNYSLOPE RD, PETALUMA, CA, 94952",67488777,"R"
46740,"130 SUSSEX STREET 1B","JERSEY CITY","NJ",7302,40.7148264690001,-74.039691021,240,"130 SUSSEX STREET 1B, JERSEY CITY, NJ, 7302","Match","Exact","130 SUSSEX ST, JERSEY CITY, NJ, 07302",59606387,"R"
46741,"130 SUTTON DR","SAN ANTONIO","TX",78228,29.468872103,-98.540671528,241,"130 SUTTON DR, SAN ANTONIO, TX, 78228","Match","Exact","130 SUTTON DR, SAN ANTONIO, TX, 78228",101512121,"L"
46742,"130 SUTTONS BRANCH DRIVE","MCGRADY","NC",28649,36.286332471,-81.1998156609999,242,"130 SUTTONS BRANCH DRIVE, MCGRADY, NC, 28649","Match","Non_Exact","130 SUTTONS BRANCH DR, MC GRADY, NC, 28649",637652791,"R"
46743,"130 SYLVAN WAY","ZEBULON","NC",27597,35.901860942,-78.301830442,243,"130 SYLVAN WAY, ZEBULON, NC, 27597","Match","Exact","130 SYLVAN WAY, ZEBULON, NC, 27597",90243693,"R"
46744,"130 TALAVERA PKWY APT 532","SAN ANTONIO","TX",78232,29.6050987690001,-98.507739798,244,"130 TALAVERA PKWY APT 532, SAN ANTONIO, TX, 78232","Match","Exact","130 TALAVERA PKWY, SAN ANTONIO, TX, 78232",101576415,"R"
46745,"130 TAMMEN DRIVE APT 1","BLUE RIDGE","GA",30513,34.8827606880001,-84.2909356339999,245,"130 TAMMEN DRIVE APT 1, BLUE RIDGE, GA, 30513","Match","Exact","130 TAMMEN DR, BLUE RIDGE, GA, 30513",632867133,"R"
46746,"130 THEODORE FREMD AVE APT 4B","RYE","NY",10580,40.981115258,-73.689050446,246,"130 THEODORE FREMD AVE APT 4B, RYE, NY, 10580","Match","Exact","130 THEODORE FREMD AVE, RYE, NY, 10580",139756733,"R"
46747,"130 THORNTON DR","FAYETTEVILLE","GA",30214,33.508229988,-84.4606427479999,247,"130 THORNTON DR, FAYETTEVILLE, GA, 30214","Match","Exact","130 THORNTON DR, FAYETTEVILLE, GA, 30214",644923225,"L"
46748,"130 TITLOW AVE","OAK HILL","WV",25901,37.9808026210001,-81.147284998,248,"130 TITLOW AVE, OAK HILL, WV, 25901","Match","Exact","130 TITLOW AVE, OAK HILL, WV, 25901",75080161,"L"
46749,"130 TRUMBULL STREET","ELIZABETH","NJ",7206,40.6550474900001,-74.1780221179999,249,"130 TRUMBULL STREET, ELIZABETH, NJ, 7206","Match","Exact","130 TRUMBULL ST, ELIZABETH, NJ, 07206",60579605,"L"
46750,"130 TUCKAHOE ROAD","MARMORA","NJ",8223,39.2654309230001,-74.6536655639999,250,"130 TUCKAHOE ROAD, MARMORA, NJ, 8223","Match","Exact","130 TUCKAHOE RD, MARMORA, NJ, 08223",174341585,"R"
46751,"130 URLICH CT","HUMMELSTOWN","PA",17036,NA,NA,251,"130 URLICH CT, HUMMELSTOWN, PA, 17036","No_Match",NA,NA,NA,NA
46752,"130 VICTORIA PLACE","FAYETTEVILLE","GA",30214,33.4715880210001,-84.474863348,252,"130 VICTORIA PLACE, FAYETTEVILLE, GA, 30214","Match","Exact","130 VICTORIA PL, FAYETTEVILLE, GA, 30214",75930259,"R"
46753,"130 VILLA DI ESTE TERRACE UNIT 204","LAKE MARY","FL",32746,28.7540158460001,-81.3674038029999,253,"130 VILLA DI ESTE TERRACE UNIT 204, LAKE MARY, FL, 32746","Match","Exact","130 VILLA DI ESTE TER, LAKE MARY, FL, 32746",641072492,"R"
46754,"130 VIOLA WAY","PENDLETON","SC",29670,34.617805908,-82.7508104739999,254,"130 VIOLA WAY, PENDLETON, SC, 29670","Match","Exact","130 VIOLA WAY, PENDLETON, SC, 29670",634517180,"R"
46755,"130 W 113TH STREET   5A","NEW YORK CITY","NY",10026,40.800730576,-73.952625124,255,"130 W 113TH STREET   5A, NEW YORK CITY, NY, 10026","Match","Non_Exact","130 W 113TH ST, NEW YORK, NY, 10026",59657694,"L"
46756,"130 W 2ND ST FL 10TH","DAYTON","OH",45402,NA,NA,256,"130 W 2ND ST FL 10TH, DAYTON, OH, 45402","Tie",NA,NA,NA,NA
46757,"130 W 67TH ST APT 24E","NEW YORK","NY",10023,40.77495506,-73.982857091,257,"130 W 67TH ST APT 24E, NEW YORK, NY, 10023","Match","Non_Exact","130 W 67TH ST, NEW YORK, NY, 10023",650081613,"L"
46758,"130 W CELESTE AVENUE","FRESNO","CA",93704,36.8210805080001,-119.793408156,258,"130 W CELESTE AVENUE, FRESNO, CA, 93704","Match","Exact","130 W CELESTE AVE, FRESNO, CA, 93704",197572705,"R"
46759,"130 W GUADALUPE APT 2012","GILBERT","AZ",85233,NA,NA,259,"130 W GUADALUPE APT 2012, GILBERT, AZ, 85233","No_Match",NA,NA,NA,NA
46760,"130 W ITHICA PL","BROKEN ARROW","OK",74012,36.0204214710001,-95.791410882,260,"130 W ITHICA PL, BROKEN ARROW, OK, 74012","Match","Exact","130 W ITHICA PL, BROKEN ARROW, OK, 74012",166465345,"L"
46761,"130 W MADRID AVE","LAS CRUCES","NM",88005,32.327568001,-106.784341152,261,"130 W MADRID AVE, LAS CRUCES, NM, 88005","Match","Exact","130 W MADRID AVE, LAS CRUCES, NM, 88005",612721674,"R"
46762,"130 W MAIN STREET  SUITE 144-150","COLLEGEVILLE","PA",19426,40.279122048,-75.459120415,262,"130 W MAIN STREET  SUITE 144-150, COLLEGEVILLE, PA, 19426","Match","Non_Exact","130 MAIN ST, COLLEGEVILLE, PA, 19473",636462878,"R"
46763,"130 W MAIN STREET SUITE 144 -150","COLLEGEVILLE","PA",19426,40.279122048,-75.459120415,263,"130 W MAIN STREET SUITE 144 -150, COLLEGEVILLE, PA, 19426","Match","Non_Exact","130 MAIN ST, COLLEGEVILLE, PA, 19473",636462878,"R"
46764,"130 W MOUNTAIN ST APT 303","GLENDALE","CA",91202,34.1667379260001,-118.255728158,264,"130 W MOUNTAIN ST APT 303, GLENDALE, CA, 91202","Match","Non_Exact","130 W MOUNTAIN ST, GLENDALE, CA, 91202",141608664,"L"
46765,"130 W PINE AVE","LONGWOOD","FL",32750,28.6987102780001,-81.3480209429999,265,"130 W PINE AVE, LONGWOOD, FL, 32750","Match","Exact","130 W PINE AVE, LONGWOOD, FL, 32750",93737972,"L"
46766,"130 W PINE AVE","ROSELLE","IL",60172,NA,NA,266,"130 W PINE AVE, ROSELLE, IL, 60172","Tie",NA,NA,NA,NA
46767,"130 W SEMINARY AVE","LUTHERVILLE","MD",21093,39.4201911480001,-76.621116512,267,"130 W SEMINARY AVE, LUTHERVILLE, MD, 21093","Match","Exact","130 W SEMINARY AVE, LUTHERVILLE, MD, 21093",635885716,"R"
46768,"130 W STOCKBRIDGE LANDING CIR","SPRING","TX",77380,30.2235388300001,-95.516274843,268,"130 W STOCKBRIDGE LANDING CIR, SPRING, TX, 77380","Match","Non_Exact","130 W STOCKBRIDGE LANDING CIR, SPRING, TX, 77382",79310684,"R"
46769,"130 W SUPERIOR STREET SUITE 1000","DULUTH","MN",55802,NA,NA,269,"130 W SUPERIOR STREET SUITE 1000, DULUTH, MN, 55802","Tie",NA,NA,NA,NA
46770,"130 W WALNUT AVENUE SUITE A1","PERRIS","CA",92571,33.826583241,-117.228922321,270,"130 W WALNUT AVENUE SUITE A1, PERRIS, CA, 92571","Match","Exact","130 WALNUT AVE, PERRIS, CA, 92571",194873518,"L"
46771,"130 W WALNUT STREET","SOUTHGATE","KY",41071,39.069777392,-84.475417568,271,"130 W WALNUT STREET, SOUTHGATE, KY, 41071","Match","Exact","130 W WALNUT ST, SOUTHGATE, KY, 41071",647707748,"R"
46772,"130 W WISCONSIN AVENUE","OCONOMOWOC","WI",53066,43.1116231120001,-88.5005444929999,272,"130 W WISCONSIN AVENUE, OCONOMOWOC, WI, 53066","Match","Exact","130 W WISCONSIN AVE, OCONOMOWOC, WI, 53066",53805061,"L"
46773,"130 WADES WAY","MOORESVILLE","NC",28117,35.5340941950001,-80.863779289,273,"130 WADES WAY, MOORESVILLE, NC, 28117","Match","Exact","130 WADES WAY, MOORESVILLE, NC, 28117",648753314,"R"
46774,"130 WAKEFIELD STREET","ROCHESTER","NH",3867,43.3124544410001,-70.977477375,274,"130 WAKEFIELD STREET, ROCHESTER, NH, 3867","Match","Exact","130 WAKEFIELD ST, ROCHESTER, NH, 03867",627244897,"L"
46775,"130 WARD DRIVE","POCATELLO","ID",83202,42.9235539380001,-112.465851041,275,"130 WARD DRIVE, POCATELLO, ID, 83202","Match","Exact","130 WARD DR, POCATELLO, ID, 83202",204350088,"L"
46776,"130 WARRIOR LANE","WESTMINSTER","SC",29693,34.6210668910001,-83.0510423119999,276,"130 WARRIOR LANE, WESTMINSTER, SC, 29693","Match","Exact","130 WARRIOR LN, WESTMINSTER, SC, 29693",25661824,"R"
46777,"130 WASHINGTON AVE","ROCHESTER","NY",14617,43.2372659580001,-77.5963442949999,277,"130 WASHINGTON AVE, ROCHESTER, NY, 14617","Match","Exact","130 WASHINGTON AVE, ROCHESTER, NY, 14617",14535790,"R"
46778,"130 WATER STREET UNIT 3C","NEW YORK","NY",10005,40.7054833880001,-74.006976948,278,"130 WATER STREET UNIT 3C, NEW YORK, NY, 10005","Match","Exact","130 WATER ST, NEW YORK, NY, 10005",59660512,"L"
46779,"130 WATKINS ST","BROOKLYN","NY",11212,40.66992781,-73.907929339,279,"130 WATKINS ST, BROOKLYN, NY, 11212","Match","Exact","130 WATKINS ST, BROOKLYN, NY, 11212",59083934,"R"
46780,"130 WENDY ACRES","LONGVIEW","TX",75602,32.4905277840001,-94.631415756,280,"130 WENDY ACRES, LONGVIEW, TX, 75602","Match","Non_Exact","130 WENDY ACRES AVE, LONGVIEW, TX, 75602",629582726,"L"
46781,"130 WEST 113TH STREET 5-A","NEW YORK","NY",10026,40.800730576,-73.952625124,281,"130 WEST 113TH STREET 5-A, NEW YORK, NY, 10026","Match","Exact","130 W 113TH ST, NEW YORK, NY, 10026",59657694,"L"
46782,"130 WEST 3RD STREET APT 4","NEW YORK","NY",10012,40.730571969,-74.000411189,282,"130 WEST 3RD STREET APT 4, NEW YORK, NY, 10012","Match","Exact","130 W 3RD ST, NEW YORK, NY, 10012",59660026,"L"
46783,"130 WEST 42ND STREET SUITE 401","NEW YORK","NY",10036,40.7551634490001,-73.984887764,283,"130 WEST 42ND STREET SUITE 401, NEW YORK, NY, 10036","Match","Exact","130 W 42ND ST, NEW YORK, NY, 10036",59655316,"L"
46784,"130 WEST 79TH STREET APT 19B","NEW YORK","NY",10024,40.7822938950001,-73.9763005189999,284,"130 WEST 79TH STREET APT 19B, NEW YORK, NY, 10024","Match","Exact","130 W 79TH ST, NEW YORK, NY, 10024",650073091,"L"
46785,"130 WEST FIRST STREET","SPRINGFIELD","GA",31329,32.3635606670001,-81.3166991799999,285,"130 WEST FIRST STREET, SPRINGFIELD, GA, 31329","Match","Exact","130 W 1ST ST, SPRINGFIELD, GA, 31329",638960319,"L"
46786,"130 WEST JOHN STREET","MATTHEWS","NC",28105,35.1164458640001,-80.723158422,286,"130 WEST JOHN STREET, MATTHEWS, NC, 28105","Match","Exact","130 W JOHN ST, MATTHEWS, NC, 28105",70495698,"L"
46787,"130 WEST MAIN STREET","MARION","KS",66861,38.348267132,-97.022642616,287,"130 WEST MAIN STREET, MARION, KS, 66861","Match","Exact","130 W MAIN ST, MARION, KS, 66861",120705705,"R"
46788,"130 WEST MINISTER DR","VERONA","PA",15147,40.4730763850001,-79.865672784,288,"130 WEST MINISTER DR, VERONA, PA, 15147","Match","Non_Exact","130 WESTMINSTER DR, VERONA, PA, 15147",51666367,"L"
46789,"130 WEST WATER STREET","PAINTED POST","NY",14870,42.158372598,-77.094969444,289,"130 WEST WATER STREET, PAINTED POST, NY, 14870","Match","Exact","130 W WATER ST, PAINTED POST, NY, 14870",14732118,"R"
46790,"130 WESTMINSTER DRIVE","VERONA","PA",15147,40.4730763850001,-79.865672784,290,"130 WESTMINSTER DRIVE, VERONA, PA, 15147","Match","Exact","130 WESTMINSTER DR, VERONA, PA, 15147",51666367,"L"
46791,"130 WHEELER ROAD","NEWTON","MA",2459,42.310780515,-71.19471077,291,"130 WHEELER ROAD, NEWTON, MA, 2459","Match","Exact","130 WHEELER RD, NEWTON, MA, 02459",86866498,"L"
46792,"130 WILLAS HILL DR","CANDLER","NC",28715,NA,NA,292,"130 WILLAS HILL DR, CANDLER, NC, 28715","No_Match",NA,NA,NA,NA
46793,"130 WILLOW LEAF LN","BUDA","TX",78610,30.078477977,-97.813268298,293,"130 WILLOW LEAF LN, BUDA, TX, 78610","Match","Exact","130 WILLOW LEAF LN, BUDA, TX, 78610",627740405,"R"
46794,"130 WINDING PINE TRL","CARY","NC",27519,35.8537400220001,-78.90325072,294,"130 WINDING PINE TRL, CARY, NC, 27519","Match","Exact","130 WINDING PINE TRL, CARY, NC, 27519",601478241,"L"
46795,"130 WINDSOR PARK DRIVE","COVENTRY","RI",2816,41.688350262,-71.53597058,295,"130 WINDSOR PARK DRIVE, COVENTRY, RI, 2816","Match","Exact","130 WINDSOR PARK DR, COVENTRY, RI, 02816",159142842,"L"
46796,"130 WINSTON CHURCHIL STE 1 PMB203","SAN JUAN","PR",926,NA,NA,296,"130 WINSTON CHURCHIL STE 1 PMB203, SAN JUAN, PR, 926","No_Match",NA,NA,NA,NA
46797,"130 WOODBRIDGE DR","LEXINGTON","SC",29072,34.0198891570001,-81.2690776479999,297,"130 WOODBRIDGE DR, LEXINGTON, SC, 29072","Match","Exact","130 WOODBRIDGE DR, LEXINGTON, SC, 29072",70047914,"L"
46798,"130 WOODLAND AVENUE","RENO","NV",89523,39.508822319,-119.896623322,298,"130 WOODLAND AVENUE, RENO, NV, 89523","Match","Exact","130 WOODLAND AVE, RENO, NV, 89523",647885760,"R"
46799,"130 WOODWARD AVENUE","ESCONDIDO","CA",92025,33.125584916,-117.084158638,299,"130 WOODWARD AVENUE, ESCONDIDO, CA, 92025","Match","Exact","130 WOODWARD AVE, ESCONDIDO, CA, 92025",637443402,"R"
46800,"130 WRENWOOD LANE","TERRACE PARK","OH",45174,39.159307364,-84.3145653939999,300,"130 WRENWOOD LANE, TERRACE PARK, OH, 45174","Match","Exact","130 WRENWOOD LN, TERRACE PARK, OH, 45174",103940117,"R"
46801,"130-05 101ST AVENUE","SO. RICHMOND HILL","NY",11419,40.6925314260001,-73.816984288,301,"130-05 101ST AVENUE, SO. RICHMOND HILL, NY, 11419","Match","Exact","130-5 101ST AVE, SOUTH RICHMOND HILL, NY, 11419",59713091,"L"
46802,"130-12 232 STREET","LAURELTON","NY",11413,40.6803310220001,-73.735037087,302,"130-12 232 STREET, LAURELTON, NY, 11413","Match","Exact","130-12 232ND ST, LAURELTON, NY, 11413",59720971,"R"
46803,"130-30 31ST AVE 9TH FL","FLUSHING","NY",11354,40.7691964860001,-73.837702679,303,"130-30 31ST AVE 9TH FL, FLUSHING, NY, 11354","Match","Exact","130-30 31ST AVE, FLUSHING, NY, 11354",640870332,"R"
46804,"130-30 31ST AVE 9TH FLOOR","FLUSHING","NY",11354,40.7691964860001,-73.837702679,304,"130-30 31ST AVE 9TH FLOOR, FLUSHING, NY, 11354","Match","Exact","130-30 31ST AVE, FLUSHING, NY, 11354",640870332,"R"
46805,"130-30ST AVE","FLUSHING","NY",11354,NA,NA,305,"130-30ST AVE, FLUSHING, NY, 11354","No_Match",NA,NA,NA,NA
46806,"130-50 231 STREET","LAURELTON","NY",11413,40.6799675730001,-73.7362386579999,306,"130-50 231 STREET, LAURELTON, NY, 11413","Match","Exact","130-50 231ST ST, LAURELTON, NY, 11413",59720965,"R"
46807,"130-60 226STREET","LAURELTON","NY",11413,NA,NA,307,"130-60 226STREET, LAURELTON, NY, 11413","No_Match",NA,NA,NA,NA
46808,"130-72 GLENWOOD AVENUE","YONKERS","NY",10703,40.9468061000001,-73.893402578,308,"130-72 GLENWOOD AVENUE, YONKERS, NY, 10703","Match","Exact","130 GLENWOOD AVE, YONKERS, NY, 10703",652206719,"R"
46809,"130","LOCUST GROVE","GA",30248,NA,NA,309,"130, LOCUST GROVE, GA, 30248","No_Match",NA,NA,NA,NA
46810,"130","PENDLETON","OR",97801,NA,NA,310,"130, PENDLETON, OR, 97801","No_Match",NA,NA,NA,NA
46811,"1300 10TH AVE NE","ROCHESTER","MN",55906,44.035586568,-92.449995074,311,"1300 10TH AVE NE, ROCHESTER, MN, 55906","Match","Exact","1300 10TH AVE NE, ROCHESTER, MN, 55906",30551777,"R"
46812,"1300 11TH AVE SOUTH","CLINTON","IA",52732,41.8337278450001,-90.214195063,312,"1300 11TH AVE SOUTH, CLINTON, IA, 52732","Match","Exact","1300 11TH AVE S, CLINTON, IA, 52732",636515082,"L"
46813,"1300 15TH ST SUITE 2","LAWRENCEVILLE","IL",62439,38.72455898,-87.687326027,313,"1300 15TH ST SUITE 2, LAWRENCEVILLE, IL, 62439","Match","Exact","1300 15TH ST, LAWRENCEVILLE, IL, 62439",29662142,"R"
46814,"1300 17TH AVE N","FARGO","ND",58102,46.901119157,-96.798231645,314,"1300 17TH AVE N, FARGO, ND, 58102","Match","Exact","1300 17TH AVE N, FARGO, ND, 58102",151473517,"L"
46815,"1300 17TH ST","ROCKFORD","IL",61104,42.254443204,-89.0630515569999,315,"1300 17TH ST, ROCKFORD, IL, 61104","Match","Exact","1300 17TH ST, ROCKFORD, IL, 61104",605038685,"L"
46816,"1300 23RD STREET NORTH","BESSEMER","AL",35020,33.414445363,-86.963141486,316,"1300 23RD STREET NORTH, BESSEMER, AL, 35020","Match","Exact","1300 23RD ST N, BESSEMER, AL, 35020",81548236,"L"
46817,"1300 4TH STREET","JONESVILLE","LA",71343,31.6296967010001,-91.8257389509999,317,"1300 4TH STREET, JONESVILLE, LA, 71343","Match","Exact","1300 4TH ST, JONESVILLE, LA, 71343",118967217,"L"
46818,"1300 AINTREE ROAD","TOWSON","MD",21204,39.4232189360001,-76.5847667909999,318,"1300 AINTREE ROAD, TOWSON, MD, 21204","Match","Non_Exact","1300 AINTREE RD, TOWSON, MD, 21286",191474626,"L"
46819,"1300 AKRON DRIVE","TURLOCK","CA",95382,37.519647526,-120.834128462,319,"1300 AKRON DRIVE, TURLOCK, CA, 95382","Match","Exact","1300 AKRON DR, TURLOCK, CA, 95382",102594978,"R"
46820,"1300 ALLISON ST NW","WASHINGTON","DC",20011,38.945058363,-77.029858921,320,"1300 ALLISON ST NW, WASHINGTON, DC, 20011","Match","Exact","1300 ALLISON ST NW, WASHINGTON, DC, 20011",76223459,"L"
46821,"1300 ARKANSAS AVENUE FLR 1","PITTSBURGH","PA",15216,40.3940980900001,-80.03123332,321,"1300 ARKANSAS AVENUE FLR 1, PITTSBURGH, PA, 15216","Match","Exact","1300 ARKANSAS AVE, PITTSBURGH, PA, 15216",51922877,"R"
46822,"1300 AUGUSTA DR","HOUSTON","TX",77057,29.7542586340001,-95.482699472,322,"1300 AUGUSTA DR, HOUSTON, TX, 77057","Match","Exact","1300 AUGUSTA DR, HOUSTON, TX, 77057",96624515,"R"
46823,"1300 AUSTIN AVENUE","WACO","TX",76701,31.5503314600001,-97.1391682719999,323,"1300 AUSTIN AVENUE, WACO, TX, 76701","Match","Exact","1300 AUSTIN AVE, WACO, TX, 76701",146736194,"L"
46824,"1300 AVENUE AT PORT IMPERIAL 443","WEEHAWKEN","NJ",7086,NA,NA,324,"1300 AVENUE AT PORT IMPERIAL 443, WEEHAWKEN, NJ, 7086","No_Match",NA,NA,NA,NA
46825,"1300 AVENUE Q","HUNTSVILLE","TX",77340,30.721362776,-95.558524259,325,"1300 AVENUE Q, HUNTSVILLE, TX, 77340","Match","Exact","1300 AVE Q, HUNTSVILLE, TX, 77340",22196566,"L"
46826,"1300 AVENUE S","BROOKLYN","NY",11229,40.6032770890001,-73.959057214,326,"1300 AVENUE S, BROOKLYN, NY, 11229","Match","Exact","1300 AVENUE S, BROOKLYN, NY, 11229",59099175,"R"
46827,"1300 BACKUS STREET","EL PASO","TX",79925,31.774188252,-106.361769155,327,"1300 BACKUS STREET, EL PASO, TX, 79925","Match","Exact","1300 BACKUS ST, EL PASO, TX, 79925",189409606,"R"
46828,"1300 BAKER AVE","WHITEFISH","MT",59937,48.4005205010001,-114.337547898,328,"1300 BAKER AVE, WHITEFISH, MT, 59937","Match","Exact","1300 BAKER AVE, WHITEFISH, MT, 59937",642903249,"R"
46829,"1300 BALLYCASTLE LANE","CORINTH","TX",76210,33.1447587380001,-97.0884928839999,329,"1300 BALLYCASTLE LANE, CORINTH, TX, 76210","Match","Exact","1300 BALLYCASTLE LN, CORINTH, TX, 76210",218067092,"R"
46830,"1300 BARCLAY DR","CARROLLTON","TX",75007,33.0133508110001,-96.905439202,330,"1300 BARCLAY DR, CARROLLTON, TX, 75007","Match","Exact","1300 BARCLAY DR, CARROLLTON, TX, 75007",103420092,"L"
46831,"1300 BARLOW DRIVE","COOKEVILLE","TN",38501,36.154570263,-85.590242819,331,"1300 BARLOW DRIVE, COOKEVILLE, TN, 38501","Match","Exact","1300 BARLOW DR, COOKEVILLE, TN, 38501",624966411,"R"
46832,"1300 BEAR GULCH ROAD","WOODSIDE","CA",94062,37.402517372,-122.285994001,332,"1300 BEAR GULCH ROAD, WOODSIDE, CA, 94062","Match","Exact","1300 BEAR GULCH RD, WOODSIDE, CA, 94062",192383804,"R"
46833,"1300 BENT CREEK BLVD  STE 102","MECHANICSBURG","PA",17050,40.2631938150001,-77.0325893839999,333,"1300 BENT CREEK BLVD  STE 102, MECHANICSBURG, PA, 17050","Match","Exact","1300 BENT CREEK BLVD, MECHANICSBURG, PA, 17050",627621206,"L"
46834,"1300 BERKSHIRE COURT APT210","LINCOLN","NE",68005,40.8259900790001,-96.634866479,334,"1300 BERKSHIRE COURT APT210, LINCOLN, NE, 68005","Match","Non_Exact","1300 BERKSHIRE CT, LINCOLN, NE, 68505",28276708,"L"
46835,"1300 BEVERLY HILLS ST","NORMAN","OK",73072,35.2006931510001,-97.460201656,335,"1300 BEVERLY HILLS ST, NORMAN, OK, 73072","Match","Exact","1300 BEVERLY HILLS ST, NORMAN, OK, 73072",99910788,"L"
46836,"1300 BISCAYNE BLVD","MIAMI","FL",33132,25.7870573500001,-80.189113068,336,"1300 BISCAYNE BLVD, MIAMI, FL, 33132","Match","Exact","1300 BISCAYNE BLVD, MIAMI, FL, 33132",116018059,"L"
46837,"1300 BONNIE VIEW RD","DALLAS","TX",75203,32.7341848460001,-96.79367369,337,"1300 BONNIE VIEW RD, DALLAS, TX, 75203","Match","Exact","1300 BONNIE VIEW RD, DALLAS, TX, 75203",102950794,"L"
46838,"1300 BREA CANYON CUTOFF","WALNUT","CA",91748,NA,NA,338,"1300 BREA CANYON CUTOFF, WALNUT, CA, 91748","No_Match",NA,NA,NA,NA
46839,"1300 BRICKELL BAY DR UNIT 2310","MIAMI","FL",33131,25.760302553,-80.189999413,339,"1300 BRICKELL BAY DR UNIT 2310, MIAMI, FL, 33131","Match","Exact","1300 BRICKELL BAY DR, MIAMI, FL, 33131",116018840,"R"
46840,"1300 BRICKELL BAY DRIVE SUITE 500","MIAMI","FL",33131,25.760302553,-80.189999413,340,"1300 BRICKELL BAY DRIVE SUITE 500, MIAMI, FL, 33131","Match","Exact","1300 BRICKELL BAY DR, MIAMI, FL, 33131",116018840,"R"
46841,"1300 BRIDGE ROAD","CHARLESTON","WV",25314,NA,NA,341,"1300 BRIDGE ROAD, CHARLESTON, WV, 25314","No_Match",NA,NA,NA,NA
46842,"1300 BRISTOL STREET NORTH    SUITE","NEWPORT BEACH","CA",92660,NA,NA,342,"1300 BRISTOL STREET NORTH    SUITE, NEWPORT BEACH, CA, 92660","No_Match",NA,NA,NA,NA
46843,"1300 BULL RUN CT","NOLENSVILLE","TN",37135,35.9624798020001,-86.693674989,343,"1300 BULL RUN CT, NOLENSVILLE, TN, 37135","Match","Exact","1300 BULL RUN CT, NOLENSVILLE, TN, 37135",627266185,"R"
46844,"1300 CACTUS AVE","POST FALLS","ID",83854,47.7181955290001,-116.929655037,344,"1300 CACTUS AVE, POST FALLS, ID, 83854","Match","Non_Exact","1300 E CACTUS AVE, POST FALLS, ID, 83854",642900853,"L"
46845,"1300 CAMELBACK VIEW DR","POCATELLO","ID",83201,42.8997088130001,-112.397073444,345,"1300 CAMELBACK VIEW DR, POCATELLO, ID, 83201","Match","Exact","1300 CAMELBACK VIEW DR, POCATELLO, ID, 83201",628103015,"L"
46846,"1300 CANAL ST","NEW SMYRNA BEACH","LA",32168,NA,NA,346,"1300 CANAL ST, NEW SMYRNA BEACH, LA, 32168","No_Match",NA,NA,NA,NA
46847,"1300 CARAWAY COURT SUITE 200","LARGO","MD",20774,38.907264909,-76.845308092,347,"1300 CARAWAY COURT SUITE 200, LARGO, MD, 20774","Match","Exact","1300 CARAWAY CT, LARGO, MD, 20774",76381869,"L"
46848,"1300 CARMICHAEL ROAD","HUDSON","WI",54016,NA,NA,348,"1300 CARMICHAEL ROAD, HUDSON, WI, 54016","No_Match",NA,NA,NA,NA
46849,"1300 CEDAR LAKE DRIVE","PROSPER","TX",75078,33.2240220840001,-96.779869643,349,"1300 CEDAR LAKE DRIVE, PROSPER, TX, 75078","Match","Exact","1300 CEDAR LAKE DR, PROSPER, TX, 75078",614122562,"L"
46850,"1300 CEDAR SHOALS DRIVE","ATHENS","GA",30605,33.924870142,-83.332841425,350,"1300 CEDAR SHOALS DRIVE, ATHENS, GA, 30605","Match","Exact","1300 CEDAR SHOALS DR, ATHENS, GA, 30605",642887899,"R"
46851,"1300 CENTRAL AVENUE APT 3","UNION CITY","NJ",7087,40.761403059,-74.039772817,351,"1300 CENTRAL AVENUE APT 3, UNION CITY, NJ, 7087","Match","Exact","1300 CENTRAL AVE, UNION CITY, NJ, 07087",59597818,"R"
46852,"1300 CHERRY STREET","CHEYENNE","WY",82007,41.1016655920001,-104.816751309,352,"1300 CHERRY STREET, CHEYENNE, WY, 82007","Match","Exact","1300 CHERRY ST, CHEYENNE, WY, 82007",160150442,"R"
46853,"1300 CHESTNUT HILL DR","WYLIE","TX",75098,33.003636939,-96.5173742489999,353,"1300 CHESTNUT HILL DR, WYLIE, TX, 75098","Match","Exact","1300 CHESTNUT HILL DR, WYLIE, TX, 75098",616532612,"L"
46854,"1300 CHOATE STREET","CONWAY","AR",72032,35.095007391,-92.4029716479999,354,"1300 CHOATE STREET, CONWAY, AR, 72032","Match","Exact","1300 CHOATE ST, CONWAY, AR, 72032",627050686,"L"
46855,"1300 CLAY STREET SUITE 600","OAKLAND","CA",94612,37.8046312000001,-122.274011138,355,"1300 CLAY STREET SUITE 600, OAKLAND, CA, 94612","Match","Exact","1300 CLAY ST, OAKLAND, CA, 94612",606098418,"R"
46856,"1300 CLAY STREET SUITE 810","OAKLAND","CA",94612,37.8046312000001,-122.274011138,356,"1300 CLAY STREET SUITE 810, OAKLAND, CA, 94612","Match","Exact","1300 CLAY ST, OAKLAND, CA, 94612",606098418,"R"
46857,"1300 CLEARWATER LARGO ROAD","LARGO","FL",33770,27.9285188530001,-82.795934078,357,"1300 CLEARWATER LARGO ROAD, LARGO, FL, 33770","Match","Exact","1300 CLEARWATER LARGO RD, LARGO, FL, 33770",124671684,"R"
46858,"1300 CLINTON SQUARE","ROCHESTER","NY",14604,NA,NA,358,"1300 CLINTON SQUARE, ROCHESTER, NY, 14604","No_Match",NA,NA,NA,NA
46859,"1300 COAL MINE RD","TRENTON","IL",62293,38.5935012090001,-89.738101334,359,"1300 COAL MINE RD, TRENTON, IL, 62293","Match","Exact","1300 COAL MINE RD, TRENTON, IL, 62293",107934224,"L"
46860,"1300 COLLEGE DR","MADISONVILLE","KY",42431,37.363656834,-87.506463287,360,"1300 COLLEGE DR, MADISONVILLE, KY, 42431","Match","Exact","1300 COLLEGE DR, MADISONVILLE, KY, 42431",11513790,"L"
46861,"1300 CONNECTICUT AVENUE SOUTH","SARTELL","MN",56377,45.599001366,-94.200778169,361,"1300 CONNECTICUT AVENUE SOUTH, SARTELL, MN, 56377","Match","Non_Exact","1300 CONNECTICUT AVE, SARTELL, MN, 56377",611980945,"L"
46862,"1300 CRYSTAL DR UNIT 203","ARLINGTON","VA",22202,38.861487765,-77.049137575,362,"1300 CRYSTAL DR UNIT 203, ARLINGTON, VA, 22202","Match","Exact","1300 CRYSTAL DR, ARLINGTON, VA, 22202",76472450,"R"
46863,"1300 DEARBORN STREET","GARY","IN",46403,41.5907581980001,-87.278044189,363,"1300 DEARBORN STREET, GARY, IN, 46403","Match","Exact","1300 DEARBORN ST, GARY, IN, 46403",98427743,"R"
46864,"1300 DIVISION ROAD SUITE 203","WEST WARWICK","RI",2893,NA,NA,364,"1300 DIVISION ROAD SUITE 203, WEST WARWICK, RI, 2893","No_Match",NA,NA,NA,NA
46865,"1300 DIVISION STREET  SUITE 304","NASHVILLE","TN",37203,NA,NA,365,"1300 DIVISION STREET  SUITE 304, NASHVILLE, TN, 37203","No_Match",NA,NA,NA,NA
46866,"1300 DOUGLAS AVE","RACINE","WI",53402,42.736870837,-87.789652148,366,"1300 DOUGLAS AVE, RACINE, WI, 53402","Match","Exact","1300 DOUGLAS AVE, RACINE, WI, 53402",653014604,"L"
46867,"1300 E 33RD STREET","EDMOND","OK",73013,35.6236514330001,-97.463070637,367,"1300 E 33RD STREET, EDMOND, OK, 73013","Match","Exact","1300 E 33RD ST, EDMOND, OK, 73013",100410434,"R"
46868,"1300 E 6TH STREET","TUCSON","AZ",85719,32.227773402,-110.952246199,368,"1300 E 6TH STREET, TUCSON, AZ, 85719","Match","Exact","1300 E 6TH ST, TUCSON, AZ, 85719",121174194,"R"
46869,"1300 E 86TH ST STE 14","INDIANAPOLIS","IN",46240,NA,NA,369,"1300 E 86TH ST STE 14, INDIANAPOLIS, IN, 46240","No_Match",NA,NA,NA,NA
46870,"1300 E 86TH STREET SUITE 36A 40293","INDIANAPOLIS","IN",46240,NA,NA,370,"1300 E 86TH STREET SUITE 36A 40293, INDIANAPOLIS, IN, 46240","No_Match",NA,NA,NA,NA
46871,"1300 E 9TH ST STE 10","EDMOND","OK",73034,35.645489667,-97.463572243,371,"1300 E 9TH ST STE 10, EDMOND, OK, 73034","Match","Non_Exact","1300 E 9TH ST, EDMOND, OK, 73034",606128474,"R"
46872,"1300 E LAFAYETTE APT 908","DETROIT","MI",48207,NA,NA,372,"1300 E LAFAYETTE APT 908, DETROIT, MI, 48207","No_Match",NA,NA,NA,NA
46873,"1300 E LAFAYETTE ST UNIT 1105","DETROIT","MI",48207,42.336451131,-83.0359591009999,373,"1300 E LAFAYETTE ST UNIT 1105, DETROIT, MI, 48207","Match","Non_Exact","1300 LAFAYETTE ST E, DETROIT, MI, 48207",650158031,"R"
46874,"1300 E SHAW AVE SUITE 119","FRESNO","CA",93710,NA,NA,374,"1300 E SHAW AVE SUITE 119, FRESNO, CA, 93710","No_Match",NA,NA,NA,NA
46875,"1300 E SHAW AVE SUITE 121","FRESNO","CA",93710,NA,NA,375,"1300 E SHAW AVE SUITE 121, FRESNO, CA, 93710","No_Match",NA,NA,NA,NA
46876,"1300 E SHAW AVE SUITE 149","FRESNO","CA",93702,NA,NA,376,"1300 E SHAW AVE SUITE 149, FRESNO, CA, 93702","No_Match",NA,NA,NA,NA
46877,"1300 E SHAW AVE SUITE 149","FRESNO","CA",93710,NA,NA,377,"1300 E SHAW AVE SUITE 149, FRESNO, CA, 93710","No_Match",NA,NA,NA,NA
46878,"1300 E SHAW AVE SUITE 151","FRESNO","CA",93710,NA,NA,378,"1300 E SHAW AVE SUITE 151, FRESNO, CA, 93710","No_Match",NA,NA,NA,NA
46879,"1300 E SHAW AVE SUITE 172","FRESNO","CA",93710,NA,NA,379,"1300 E SHAW AVE SUITE 172, FRESNO, CA, 93710","No_Match",NA,NA,NA,NA
46880,"1300 E SHAW AVE","FRESNO","CA",93710,36.8085850940001,-119.765852143,380,"1300 E SHAW AVE, FRESNO, CA, 93710","Match","Exact","1300 E SHAW AVE, FRESNO, CA, 93710",197575352,"L"
46881,"1300 E WALL STREET","MIDLAND","TX",79701,31.9959722130001,-102.087994835,381,"1300 E WALL STREET, MIDLAND, TX, 79701","Match","Non_Exact","1300 W WALL ST, MIDLAND, TX, 79701",139583086,"R"
46882,"1300 E WATSON DRIVE","TEMPE","AZ",85283,33.3690510320001,-111.917698241,382,"1300 E WATSON DRIVE, TEMPE, AZ, 85283","Match","Exact","1300 E WATSON DR, TEMPE, AZ, 85283",128238639,"L"
46883,"1300 EAGLE ROAD","ST DAVIDS","PA",19087,40.054312247,-75.367855473,383,"1300 EAGLE ROAD, ST DAVIDS, PA, 19087","Match","Exact","1300 EAGLE RD, SAINT DAVIDS, PA, 19087",605247559,"R"
46884,"1300 EAST 86TH STREET 234","INDIANAPOLIS","IN",46240,39.9125312990001,-86.1385374769999,384,"1300 EAST 86TH STREET 234, INDIANAPOLIS, IN, 46240","Match","Exact","1300 E 86TH ST, INDIANAPOLIS, IN, 46240",107983222,"L"
46885,"1300 EAST 9TH STREET","EDMOND","OK",73034,35.645489667,-97.463572243,385,"1300 EAST 9TH STREET, EDMOND, OK, 73034","Match","Exact","1300 E 9TH ST, EDMOND, OK, 73034",606128474,"R"
46886,"1300 EAST ARAPAHO ROAD SUITE 101","RICHARDSON","TX",75081,32.960575068,-96.70298654,386,"1300 EAST ARAPAHO ROAD SUITE 101, RICHARDSON, TX, 75081","Match","Exact","1300 E ARAPAHO RD, RICHARDSON, TX, 75081",103211688,"R"
46887,"1300 EAST BLUE BELL RD SUITE 10","BRENHAM","TX",77833,30.161827438,-96.378344442,387,"1300 EAST BLUE BELL RD SUITE 10, BRENHAM, TX, 77833","Match","Non_Exact","1300 S BLUE BELL RD, BRENHAM, TX, 77833",39234906,"L"
46888,"1300 EAST EDGEWOOD DRIVE","WHITEFISH","MT",59937,48.4143493270001,-114.30992092,388,"1300 EAST EDGEWOOD DRIVE, WHITEFISH, MT, 59937","Match","Exact","1300 E EDGEWOOD DR, WHITEFISH, MT, 59937",204162245,"R"
46889,"1300 EAST LAFAYETTE  SUITE 712","DETROIT","MI",48207,NA,NA,389,"1300 EAST LAFAYETTE  SUITE 712, DETROIT, MI, 48207","No_Match",NA,NA,NA,NA
46890,"1300 EAST MAIN STREET SUITE 209E","ALHAMBRA","CA",91801,34.100826501,-118.114932993,390,"1300 EAST MAIN STREET SUITE 209E, ALHAMBRA, CA, 91801","Match","Exact","1300 E MAIN ST, ALHAMBRA, CA, 91801",141633665,"R"
46891,"1300 EASTMAN AVENUE","VENTURA","CA",93003,34.2611981580001,-119.230378479,391,"1300 EASTMAN AVENUE, VENTURA, CA, 93003","Match","Exact","1300 EASTMAN AVE, VENTURA, CA, 93003",109953018,"L"
46892,"1300 EDGEWOOD WAY 208","OXNARD","CA",93030,34.212497511,-119.192343548,392,"1300 EDGEWOOD WAY 208, OXNARD, CA, 93030","Match","Exact","1300 EDGEWOOD WAY, OXNARD, CA, 93030",110115470,"L"
46893,"1300 EL PASEO RD G 308","LAS CRUCES","NM",88001,32.297281925,-106.771430334,393,"1300 EL PASEO RD G 308, LAS CRUCES, NM, 88001","Match","Exact","1300 EL PASEO RD, LAS CRUCES, NM, 88001",612726987,"R"
46894,"1300 ELIZABETH AVENUE","BIRMINGHAM","AL",35217,33.5829376070001,-86.767485731,394,"1300 ELIZABETH AVENUE, BIRMINGHAM, AL, 35217","Match","Exact","1300 ELIZABETH AVE, BIRMINGHAM, AL, 35217",81577365,"L"
46895,"1300 ELLIOT STREET","LAKEWOOD","NJ",8701,40.086543786,-74.2367965939999,395,"1300 ELLIOT STREET, LAKEWOOD, NJ, 8701","Match","Exact","1300 ELLIOT ST, LAKEWOOD, NJ, 08701",203768303,"L"
46896,"1300 ELMWOOD AVENUE HOUSTON GYM 236","BUFFALO","NY",14222,42.933415677,-78.8770136699999,396,"1300 ELMWOOD AVENUE HOUSTON GYM 236, BUFFALO, NY, 14222","Match","Exact","1300 ELMWOOD AVE, BUFFALO, NY, 14222",638004552,"L"
46897,"1300 ENTERPRISE DR STE D","PORT CHARLOTTE","FL",33953,NA,NA,397,"1300 ENTERPRISE DR STE D, PORT CHARLOTTE, FL, 33953","No_Match",NA,NA,NA,NA
46898,"1300 ENTERPRISE DR UNIT D","PORT CHARLOTTE","FL",33953,NA,NA,398,"1300 ENTERPRISE DR UNIT D, PORT CHARLOTTE, FL, 33953","No_Match",NA,NA,NA,NA
46899,"1300 EUREKA","LANSING","MI",48912,42.732327883,-84.532861489,399,"1300 EUREKA, LANSING, MI, 48912","Match","Non_Exact","1300 EUREKA ST, LANSING, MI, 48912",17499650,"R"
46900,"1300 FAYETTE STREET   UNIT 105","CONSHOHOCKEN","PA",19428,NA,NA,400,"1300 FAYETTE STREET   UNIT 105, CONSHOHOCKEN, PA, 19428","No_Match",NA,NA,NA,NA
46901,"1300 FAYETTE STREET APT 231 CLARK","CONSHOHOCKEN","PA",19428,NA,NA,401,"1300 FAYETTE STREET APT 231 CLARK, CONSHOHOCKEN, PA, 19428","No_Match",NA,NA,NA,NA
46902,"1300 FOREST OAK LANE","SUFFOLK","VA",23434,36.7183355270001,-76.587889699,402,"1300 FOREST OAK LANE, SUFFOLK, VA, 23434","Match","Exact","1300 FOREST OAK LN, SUFFOLK, VA, 23434",122228720,"L"
46903,"1300 FORREST STREET","FOLSOM","CA",95630,NA,NA,403,"1300 FORREST STREET, FOLSOM, CA, 95630","No_Match",NA,NA,NA,NA
46904,"1300 FRANKLIN ST","GRAND HAVEN","MI",49417,43.0601813750001,-86.210604018,404,"1300 FRANKLIN ST, GRAND HAVEN, MI, 49417","Match","Non_Exact","1300 FRANKLIN AVE, GRAND HAVEN, MI, 49417",71085314,"L"
46905,"1300 FURLOUGH AVENUE","HIGH POINT","NC",27265,35.9574088470001,-79.989732702,405,"1300 FURLOUGH AVENUE, HIGH POINT, NC, 27265","Match","Non_Exact","1300 FURLOUGH AVE, HIGH POINT, NC, 27260",131040479,"R"
46906,"1300 GENDY ST","FORT WORTH","TX",76107,NA,NA,406,"1300 GENDY ST, FORT WORTH, TX, 76107","No_Match",NA,NA,NA,NA
46907,"1300 GODWARD STREET NE SUITE 2500","MINNEAPOLIS","MN",55413,44.9993484720001,-93.2140655709999,407,"1300 GODWARD STREET NE SUITE 2500, MINNEAPOLIS, MN, 55413","Match","Exact","1300 GODWARD ST NE, MINNEAPOLIS, MN, 55413",43836326,"L"
46908,"1300 GOVERNOR CT","ABINGDON","MD",21009,39.4475501050001,-76.290518321,408,"1300 GOVERNOR CT, ABINGDON, MD, 21009","Match","Exact","1300 GOVERNOR CT, ABINGDON, MD, 21009",191654753,"R"
46909,"1300 GRAND AVENUE","BALDWIN","NY",11510,40.6784977570001,-73.614488331,409,"1300 GRAND AVENUE, BALDWIN, NY, 11510","Match","Exact","1300 GRAND AVE, BALDWIN, NY, 11510",147629108,"R"
46910,"1300 GRAY HORSE ROAD","GREENSBORO","GA",30642,33.5119798490001,-83.166507683,410,"1300 GRAY HORSE ROAD, GREENSBORO, GA, 30642","Match","Exact","1300 GRAY HORSE RD, GREENSBORO, GA, 30642",16631634,"L"
46911,"1300 HAWTHORNE STREET","BAYTOWN","TX",77520,29.7285541520001,-94.984251882,411,"1300 HAWTHORNE STREET, BAYTOWN, TX, 77520","Match","Exact","1300 HAWTHORNE ST, BAYTOWN, TX, 77520",96109434,"L"
46912,"1300 HAYDEN BRIDGE ROAD","SPRINGFIELD","OR",97477,44.0697972510001,-123.006715785,412,"1300 HAYDEN BRIDGE ROAD, SPRINGFIELD, OR, 97477","Match","Exact","1300 HAYDEN BRIDGE RD, SPRINGFIELD, OR, 97477",178172098,"L"
46913,"1300 HERBERT ST","PORT ORANGE","FL",32129,29.13308261,-81.018133608,413,"1300 HERBERT ST, PORT ORANGE, FL, 32129","Match","Exact","1300 HERBERT ST, PORT ORANGE, FL, 32129",94527580,"L"
46914,"1300 HERBERT STREET","PORT ORANGE","FL",32129,29.13308261,-81.018133608,414,"1300 HERBERT STREET, PORT ORANGE, FL, 32129","Match","Exact","1300 HERBERT ST, PORT ORANGE, FL, 32129",94527580,"L"
46915,"1300 HIGBY ROAD","MONUMENT","CO",80132,39.078512727,-104.851628942,415,"1300 HIGBY ROAD, MONUMENT, CO, 80132","Match","Exact","1300 HIGBY RD, MONUMENT, CO, 80132",610673142,"R"
46916,"1300 HIGGINS RD  STE 111","PARK RIDGE","IL",60068,41.987201559,-87.84212196,416,"1300 HIGGINS RD  STE 111, PARK RIDGE, IL, 60068","Match","Exact","1300 HIGGINS RD, PARK RIDGE, IL, 60068",605007803,"R"
46917,"1300 HILLTOP AVENUE","CHICAGO HEIGHTS","IL",60411,41.5063211730001,-87.6694909409999,417,"1300 HILLTOP AVENUE, CHICAGO HEIGHTS, IL, 60411","Match","Exact","1300 HILLTOP AVE, CHICAGO HEIGHTS, IL, 60411",111711008,"R"
46918,"1300 HISTORIC GOLDBORO BLVD","SANFORD","FL",32771,NA,NA,418,"1300 HISTORIC GOLDBORO BLVD, SANFORD, FL, 32771","No_Match",NA,NA,NA,NA
46919,"1300 HOSPITAL DRIVE SUITE 360","MT PLEASANT","SC",29464,32.81649501,-79.852727833,419,"1300 HOSPITAL DRIVE SUITE 360, MT PLEASANT, SC, 29464","Match","Exact","1300 HOSPITAL DR, MOUNT PLEASANT, SC, 29464",108863326,"R"
46920,"1300 HOSPITAL DRIVE","MOUNT PLEASANT","SC",29464,32.81649501,-79.852727833,420,"1300 HOSPITAL DRIVE, MOUNT PLEASANT, SC, 29464","Match","Exact","1300 HOSPITAL DR, MOUNT PLEASANT, SC, 29464",108863326,"R"
46921,"1300 HULL AVE","YPSILANTI","MI",48198,42.2266373740001,-83.586616638,421,"1300 HULL AVE, YPSILANTI, MI, 48198","Match","Exact","1300 HULL AVE, YPSILANTI, MI, 48198",26021997,"R"
46922,"1300 HUSKY TRAIL","WARSAW","IN",46582,41.255853868,-85.823406349,422,"1300 HUSKY TRAIL, WARSAW, IN, 46582","Match","Exact","1300 HUSKY TRL, WARSAW, IN, 46582",7930863,"R"
46923,"1300 HWY 95 A","FERNLEY","NV",89408,NA,NA,423,"1300 HWY 95 A, FERNLEY, NV, 89408","No_Match",NA,NA,NA,NA
46924,"1300 I ST NW SUITE 400E","WASHINGTON","DC",20005,38.9013272880001,-77.0298100159999,424,"1300 I ST NW SUITE 400E, WASHINGTON, DC, 20005","Match","Exact","1300 I ST NW, WASHINGTON, DC, 20005",76225777,"L"
46925,"1300 I STREET NW  SUITE 400 E","WASHINGTON","DC",20005,38.9013272880001,-77.0298100159999,425,"1300 I STREET NW  SUITE 400 E, WASHINGTON, DC, 20005","Match","Exact","1300 I ST NW, WASHINGTON, DC, 20005",76225777,"L"
46926,"1300 I STREET NW SUITE 400E","WASHINGTON","DC",20005,38.9013272880001,-77.0298100159999,426,"1300 I STREET NW SUITE 400E, WASHINGTON, DC, 20005","Match","Exact","1300 I ST NW, WASHINGTON, DC, 20005",76225777,"L"
46927,"1300 I STREET NW SUITE 400E","WASHINGTON","DC",20036,38.9013272880001,-77.0298100159999,427,"1300 I STREET NW SUITE 400E, WASHINGTON, DC, 20036","Match","Non_Exact","1300 I ST NW, WASHINGTON, DC, 20005",76225777,"L"
46928,"1300 I STREET NW SUTIE 400E","WASHINGTON","DC",20005,38.9013272880001,-77.0298100159999,428,"1300 I STREET NW SUTIE 400E, WASHINGTON, DC, 20005","Match","Exact","1300 I ST NW, WASHINGTON, DC, 20005",76225777,"L"
46929,"1300 ISLAND ROAD","MORGAN","UT",84050,41.0491209780001,-111.705354014,429,"1300 ISLAND ROAD, MORGAN, UT, 84050","Match","Exact","1300 ISLAND RD, MORGAN, UT, 84050",611439186,"R"
46930,"1300 JERICHO TURNPIKE","NEW HYDE PARK","NY",11040,40.733131008,-73.6825765039999,430,"1300 JERICHO TURNPIKE, NEW HYDE PARK, NY, 11040","Match","Exact","1300 JERICHO TPKE, NEW HYDE PARK, NY, 11040",147666274,"R"
46931,"1300 LA QUINTA DRIVE","ORLANDO","FL",32809,28.4407044010001,-81.400528537,431,"1300 LA QUINTA DRIVE, ORLANDO, FL, 32809","Match","Exact","1300 LA QUINTA DR, ORLANDO, FL, 32809",637457793,"L"
46932,"1300 LANDFALL DR","WILMINGTON","NC",28405,34.231756037,-77.805576015,432,"1300 LANDFALL DR, WILMINGTON, NC, 28405","Match","Exact","1300 LANDFALL DR, WILMINGTON, NC, 28405",152740102,"L"
46933,"1300 LAWSON WHITE DRIVE","COLUMBIA","TN",38401,35.6438618930001,-87.066742169,433,"1300 LAWSON WHITE DRIVE, COLUMBIA, TN, 38401","Match","Exact","1300 LAWSON WHITE DR, COLUMBIA, TN, 38401",638398067,"L"
46934,"1300 LORENZO DRIVE","ATLANTA","GA",30310,33.7197544320001,-84.4325347939999,434,"1300 LORENZO DRIVE, ATLANTA, GA, 30310","Match","Non_Exact","1300 LORENZO DR SW, ATLANTA, GA, 30310",17341379,"L"
46935,"1300 MAIN STREET","ELY","IA",52227,41.8718145,-91.583059449,435,"1300 MAIN STREET, ELY, IA, 52227","Match","Exact","1300 MAIN ST, ELY, IA, 52227",17016782,"R"
46936,"1300 MAIN STREET","PECATONICA","IL",61063,42.3038768860001,-89.359297149,436,"1300 MAIN STREET, PECATONICA, IL, 61063","Match","Exact","1300 MAIN ST, PECATONICA, IL, 61063",49283205,"R"
46937,"1300 MANATEE AVE EAST","BRADENTON","FL",34208,27.495228291,-82.5495989839999,437,"1300 MANATEE AVE EAST, BRADENTON, FL, 34208","Match","Exact","1300 MANATEE AVE E, BRADENTON, FL, 34208",16234610,"R"
46938,"1300 MAPLE DR","GROVE","OK",74344,36.5827764970001,-94.7870461109999,438,"1300 MAPLE DR, GROVE, OK, 74344","Match","Non_Exact","1300 MAPLE ST, GROVE, OK, 74344",49653719,"L"
46939,"1300 MARSHALL ST","HAGERSTOWN","MD",21740,39.6584410560001,-77.73105556,439,"1300 MARSHALL ST, HAGERSTOWN, MD, 21740","Match","Exact","1300 MARSHALL ST, HAGERSTOWN, MD, 21740",60785512,"R"
46940,"1300 MARTIN LUTHER KING JR DRIVE","TARBORO","NC",27886,35.908042579,-77.524232592,440,"1300 MARTIN LUTHER KING JR DRIVE, TARBORO, NC, 27886","Match","Exact","1300 MARTIN LUTHER KING JR DR, TARBORO, NC, 27886",90178452,"L"
46941,"1300 MCDOWELL ROAD UNIT 204","NAPERVILLE","IL",60563,41.796438611,-88.1886398299999,441,"1300 MCDOWELL ROAD UNIT 204, NAPERVILLE, IL, 60563","Match","Non_Exact","1300 MC DOWELL RD, NAPERVILLE, IL, 60563",112686346,"R"
46942,"1300 MCGOWEN STREET SUITE 290","HOUSTON","TX",77004,29.7437882240001,-95.371415022,442,"1300 MCGOWEN STREET SUITE 290, HOUSTON, TX, 77004","Match","Exact","1300 MCGOWEN ST, HOUSTON, TX, 77004",96071453,"R"
46943,"1300 MEADOW ROAD SUITE 200","NORTHBROOK","IL",60062,42.129668193,-87.828072102,443,"1300 MEADOW ROAD SUITE 200, NORTHBROOK, IL, 60062","Match","Exact","1300 MEADOW RD, NORTHBROOK, IL, 60062",111839682,"R"
46944,"1300 MEDINA BASE ROAD BLDG 390","LACKLAND AFB","TX",78236,NA,NA,444,"1300 MEDINA BASE ROAD BLDG 390, LACKLAND AFB, TX, 78236","No_Match",NA,NA,NA,NA
46945,"1300 MERCANTIEL LANE SUITE 100 E","LARGO","MD",20774,NA,NA,445,"1300 MERCANTIEL LANE SUITE 100 E, LARGO, MD, 20774","No_Match",NA,NA,NA,NA
46946,"1300 MERCANTILE LANE SUITE 100 G","LARGO","MD",20774,38.9084485710001,-76.837229728,446,"1300 MERCANTILE LANE SUITE 100 G, LARGO, MD, 20774","Match","Exact","1300 MERCANTILE LN, LARGO, MD, 20774",76367375,"R"
46947,"1300 METZ RD","SOLEDAD","CA",93960,36.4270338970001,-121.317892612,447,"1300 METZ RD, SOLEDAD, CA, 93960","Match","Exact","1300 METZ RD, SOLEDAD, CA, 93960",196799923,"L"
46948,"1300 MOLESWORT ROAD","PARKTON","MD",21120,NA,NA,448,"1300 MOLESWORT ROAD, PARKTON, MD, 21120","No_Match",NA,NA,NA,NA
46949,"1300 MORRIS PARK AVENUE","BRONX","NY",10461,40.8510967670001,-73.844287074,449,"1300 MORRIS PARK AVENUE, BRONX, NY, 10461","Match","Exact","1300 MORRIS PARK AVE, BRONX, NY, 10461",80305364,"R"
46950,"1300 N 10TH ST SUITE 220A","MCALLEN","TX",78501,26.1919165780001,-98.232012695,450,"1300 N 10TH ST SUITE 220A, MCALLEN, TX, 78501","Match","Non_Exact","1300 S 10TH ST, MCALLEN, TX, 78501",71501932,"R"
46951,"1300 N BROAD ST","GLOBE","AZ",85501,33.4148207330001,-110.798474867,451,"1300 N BROAD ST, GLOBE, AZ, 85501","Match","Exact","1300 N BROAD ST, GLOBE, AZ, 85501",159382182,"L"
46952,"1300 N CATHY AVE","MERIDIAN","ID",83642,43.6156265870001,-116.384521277,452,"1300 N CATHY AVE, MERIDIAN, ID, 83642","Match","Exact","1300 N CATHY AVE, MERIDIAN, ID, 83642",117914992,"R"
46953,"1300 N FEDERAL HWY SUITE 110","BOCA RATON","FL",33432,NA,NA,453,"1300 N FEDERAL HWY SUITE 110, BOCA RATON, FL, 33432","Tie",NA,NA,NA,NA
46954,"1300 N FRESNO ST STE 220","FRESNO","CA",93703,36.7313077920001,-119.79873985,454,"1300 N FRESNO ST STE 220, FRESNO, CA, 93703","Match","Non_Exact","1300 FRESNO ST, FRESNO, CA, 93706",197579441,"R"
46955,"1300 N HARTFORD","BOLIVAR","MO",65613,37.6253259800001,-93.398185175,455,"1300 N HARTFORD, BOLIVAR, MO, 65613","Match","Non_Exact","1300 N HARTFORD AVE, BOLIVAR, MO, 65613",23043552,"L"
46956,"1300 N LAKE SHORE DRIVE APT 31AB","CHICAGO","IL",60610,NA,NA,456,"1300 N LAKE SHORE DRIVE APT 31AB, CHICAGO, IL, 60610","No_Match",NA,NA,NA,NA
46957,"1300 N LINDEN RD","FLINT","MI",48532,NA,NA,457,"1300 N LINDEN RD, FLINT, MI, 48532","Tie",NA,NA,NA,NA
46958,"1300 N PATE ST APT 198L","CARLSBAD","NM",88220,32.4389154200001,-104.252919709,458,"1300 N PATE ST APT 198L, CARLSBAD, NM, 88220","Match","Non_Exact","1300 N PATE ST, CARLSBAD, NM, 88220",131209169,"R"
46959,"1300 N PENNSYLVANIA ST UNIT 212","DENVER","CO",80203,39.737007991,-104.981084573,459,"1300 N PENNSYLVANIA ST UNIT 212, DENVER, CO, 80203","Match","Exact","1300 PENNSYLVANIA ST, DENVER, CO, 80203",177305754,"R"
46960,"1300 N ROBINSON DRIVE","ROBINSON","TX",76706,31.451055034,-97.109433763,460,"1300 N ROBINSON DRIVE, ROBINSON, TX, 76706","Match","Non_Exact","1302 S ROBINSON DR, ROBINSON, TX, 76706",146746036,"R"
46961,"1300 N STATE ST","BELLINGHAM","WA",98225,48.7484832920001,-122.476964638,461,"1300 N STATE ST, BELLINGHAM, WA, 98225","Match","Exact","1300 N STATE ST, BELLINGHAM, WA, 98225",183772278,"R"
46962,"1300 N STREET NW  202","WASHINGTON","DC",20005,38.9072383220001,-77.029734264,462,"1300 N STREET NW  202, WASHINGTON, DC, 20005","Match","Exact","1300 N ST NW, WASHINGTON, DC, 20005",76225734,"L"
46963,"1300 N TEMPLE DR","DIBOLL","TX",75941,31.204477302,-94.776584,463,"1300 N TEMPLE DR, DIBOLL, TX, 75941","Match","Exact","1300 N TEMPLE DR, DIBOLL, TX, 75941",23873939,"L"
46964,"1300 N VERMONT AVE/ SUITE 101","LOS ANGELES","CA",90027,NA,NA,464,"1300 N VERMONT AVE/ SUITE 101, LOS ANGELES, CA, 90027","No_Match",NA,NA,NA,NA
46965,"1300 N WASHINGTON AVE","LIVINGSTON","TX",77351,30.7178100730001,-94.933023941,465,"1300 N WASHINGTON AVE, LIVINGSTON, TX, 77351","Match","Exact","1300 N WASHINGTON AVE, LIVINGSTON, TX, 77351",23243678,"R"
46966,"1300 NE 23RD ST","OKLAHOMA CITY","OK",73111,35.359966974,-97.470171939,466,"1300 NE 23RD ST, OKLAHOMA CITY, OK, 73111","Match","Non_Exact","1300 NE 23RD ST, OKLAHOMA CITY, OK, 73160",99907441,"L"
46967,"1300 NE GARDINER DRIVE","ESTACADA","OR",97023,45.3003154420001,-122.323591322,467,"1300 NE GARDINER DRIVE, ESTACADA, OR, 97023","Match","Exact","1300 NE GARDINER DR, ESTACADA, OR, 97023",627287819,"R"
46968,"1300 NE MIAMI GARDENS DR APT 301","MIAMI","FL",33179,NA,NA,468,"1300 NE MIAMI GARDENS DR APT 301, MIAMI, FL, 33179","No_Match",NA,NA,NA,NA
46969,"1300 NE NORTON AVE","BEND","OR",97701,NA,NA,469,"1300 NE NORTON AVE, BEND, OR, 97701","No_Match",NA,NA,NA,NA
46970,"1300 NEELYS BEND ROAD","MADISON","TN",37115,36.2407288250001,-86.673562692,470,"1300 NEELYS BEND ROAD, MADISON, TN, 37115","Match","Exact","1300 NEELYS BEND RD, MADISON, TN, 37115",97195513,"R"
46971,"1300 NEWING AVENUE UNIT 108","AUSTIN","TX",78704,NA,NA,471,"1300 NEWING AVENUE UNIT 108, AUSTIN, TX, 78704","No_Match",NA,NA,NA,NA
46972,"1300 NORTH STATE PARKWAY UNIT 903","CHICAGO","IL",60610,41.905897882,-87.6287496859999,472,"1300 NORTH STATE PARKWAY UNIT 903, CHICAGO, IL, 60610","Match","Exact","1300 N STATE PKWY, CHICAGO, IL, 60610",111768397,"L"
46973,"1300 NW 192ND TERRACE","MIAMI","FL",33169,25.950506105,-80.223419641,473,"1300 NW 192ND TERRACE, MIAMI, FL, 33169","Match","Exact","1300 NW 192ND TER, MIAMI, FL, 33169",116029221,"L"
46974,"1300 NW 25TH STREET","FORT WORTH","TX",76164,32.7899866760001,-97.3637758899999,474,"1300 NW 25TH STREET, FORT WORTH, TX, 76164","Match","Exact","1300 NW 25TH ST, FORT WORTH, TX, 76164",101855675,"R"
46975,"1300 OAKMONT DRIVE SUITE 4","WALNUT CREEK","CA",94595,37.8706503660001,-122.078605654,475,"1300 OAKMONT DRIVE SUITE 4, WALNUT CREEK, CA, 94595","Match","Exact","1300 OAKMONT DR, WALNUT CREEK, CA, 94595",623944706,"R"
46976,"1300 OLD PLANK ROAD","MAYFIELD","PA",18433,NA,NA,476,"1300 OLD PLANK ROAD, MAYFIELD, PA, 18433","Tie",NA,NA,NA,NA
46977,"1300 OLIVE ST","MOBILE","AL",36605,30.6620181660001,-88.0690563749999,477,"1300 OLIVE ST, MOBILE, AL, 36605","Match","Exact","1300 OLIVE ST, MOBILE, AL, 36605",61863126,"R"
46978,"1300 OLIVE STREET","MOBILE","AL",36605,30.6620181660001,-88.0690563749999,478,"1300 OLIVE STREET, MOBILE, AL, 36605","Match","Exact","1300 OLIVE ST, MOBILE, AL, 36605",61863126,"R"
46979,"1300 ORCHARD VIEW RD","READING","PA",19606,40.2994798880001,-75.875785712,479,"1300 ORCHARD VIEW RD, READING, PA, 19606","Match","Exact","1300 ORCHARD VIEW RD, READING, PA, 19606",624716835,"L"
46980,"1300 PEACHTREE INDUSTRIAL BLVD 2110","ATLANTA","GA",30024,NA,NA,480,"1300 PEACHTREE INDUSTRIAL BLVD 2110, ATLANTA, GA, 30024","No_Match",NA,NA,NA,NA
46981,"1300 PEACHTREE INDUSTRIAL BLVD 3112","SUWANEE","GA",30024,NA,NA,481,"1300 PEACHTREE INDUSTRIAL BLVD 3112, SUWANEE, GA, 30024","No_Match",NA,NA,NA,NA
46982,"1300 PEACHTREE INDUSTRIAL BLVD","SUWANEE","GA",30024,NA,NA,482,"1300 PEACHTREE INDUSTRIAL BLVD, SUWANEE, GA, 30024","No_Match",NA,NA,NA,NA
46983,"1300 PENNSYLVANIA AVE NW ST 190-308","WASHINGTON","DC",20004,38.8954638050001,-77.029720929,483,"1300 PENNSYLVANIA AVE NW ST 190-308, WASHINGTON, DC, 20004","Match","Exact","1300 PENNSYLVANIA AVE NW, WASHINGTON, DC, 20004",76225908,"L"
46984,"1300 PENNSYLVANIA AVE NW SUITE 190","WASHINGTON","DC",20004,38.8954638050001,-77.029720929,484,"1300 PENNSYLVANIA AVE NW SUITE 190, WASHINGTON, DC, 20004","Match","Exact","1300 PENNSYLVANIA AVE NW, WASHINGTON, DC, 20004",76225908,"L"
46985,"1300 PENNSYLVANIA AVENUE NW /190","WASHINGTON","DC",20004,38.8954638050001,-77.029720929,485,"1300 PENNSYLVANIA AVENUE NW /190, WASHINGTON, DC, 20004","Match","Exact","1300 PENNSYLVANIA AVE NW, WASHINGTON, DC, 20004",76225908,"L"
46986,"1300 PERRY AVE SUITE 80982","RACINE","WI",53408,42.7168007670001,-87.839357884,486,"1300 PERRY AVE SUITE 80982, RACINE, WI, 53408","Match","Non_Exact","1300 PERRY AVE, RACINE, WI, 53406",77908766,"R"
46987,"1300 PERRY AVENUE 85836","RACINE","WI",53406,42.7168007670001,-87.839357884,487,"1300 PERRY AVENUE 85836, RACINE, WI, 53406","Match","Exact","1300 PERRY AVE, RACINE, WI, 53406",77908766,"R"
46988,"1300 POST OAK BOULEVARD STE 2000","HOUSTON","TX",77056,29.7516535770001,-95.46074694,488,"1300 POST OAK BOULEVARD STE 2000, HOUSTON, TX, 77056","Match","Exact","1300 POST OAK BLVD, HOUSTON, TX, 77056",96032864,"R"
46989,"1300 POST OAK SUITE 2400","HOUSTON","TX",77056,29.7516535770001,-95.46074694,489,"1300 POST OAK SUITE 2400, HOUSTON, TX, 77056","Match","Non_Exact","1300 POST OAK BLVD, HOUSTON, TX, 77056",96032864,"R"
46990,"1300 PRARIE CREEK TRAIL","JOILET","IL",60431,41.544342683,-88.2361884169999,490,"1300 PRARIE CREEK TRAIL, JOILET, IL, 60431","Match","Non_Exact","1300 PRAIRIE CREEK TRL, JOLIET, IL, 60431",627754695,"R"
46991,"1300 PROCHNOW  ROAD","DRIPPING SPRINGS","TX",78620,30.1642371610001,-98.151293145,491,"1300 PROCHNOW  ROAD, DRIPPING SPRINGS, TX, 78620","Match","Exact","1300 PROCHNOW RD, DRIPPING SPRINGS, TX, 78620",647714508,"R"
46992,"1300 RAINBOW WAY","EDGEWOOD","MD",21040,39.4243475490001,-76.322671117,492,"1300 RAINBOW WAY, EDGEWOOD, MD, 21040","Match","Exact","1300 RAINBOW WAY, EDGEWOOD, MD, 21040",191657663,"L"
46993,"1300 RAMSEUR LN","WINCHESTER","VA",22601,39.1814806040001,-78.188103527,493,"1300 RAMSEUR LN, WINCHESTER, VA, 22601","Match","Exact","1300 RAMSEUR LN, WINCHESTER, VA, 22601",649936231,"R"
46994,"1300 RED RIVER DR","AUBREY","TX",76227,33.199808461,-96.9819589699999,494,"1300 RED RIVER DR, AUBREY, TX, 76227","Match","Exact","1300 RED RIVER DR, AUBREY, TX, 76227",646828209,"R"
46995,"1300 RIDGEWAY STREET","MEMPHIS","TN",38106,35.11130439,-90.03246133,495,"1300 RIDGEWAY STREET, MEMPHIS, TN, 38106","Match","Exact","1300 RIDGEWAY ST, MEMPHIS, TN, 38106",607438018,"L"
46996,"1300 ROSEANNA DR","NORTHGLENN","CO",80234,39.891018479,-105.002975962,496,"1300 ROSEANNA DR, NORTHGLENN, CO, 80234","Match","Exact","1300 ROSEANNA DR, NORTHGLENN, CO, 80234",177295068,"L"
46997,"1300 S CASINO CENTER UNIT 206","LAS VEGAS","NV",89104,NA,NA,497,"1300 S CASINO CENTER UNIT 206, LAS VEGAS, NV, 89104","No_Match",NA,NA,NA,NA
46998,"1300 S CENTRAL AVE","GLENDALE","CA",91204,34.129721336,-118.257785712,498,"1300 S CENTRAL AVE, GLENDALE, CA, 91204","Match","Exact","1300 S CENTRAL AVE, GLENDALE, CA, 91204",241240459,"L"
46999,"1300 S COUNTRY CLUB RD","EL RENO","OK",73036,35.5222231880001,-97.9726386519999,499,"1300 S COUNTRY CLUB RD, EL RENO, OK, 73036","Match","Exact","1300 S COUNTRY CLUB RD, EL RENO, OK, 73036",638965396,"L"
47000,"1300 S COURTLAND AVE SUITE A","KOKOMO","IN",46902,40.4720294960001,-86.137719434,500,"1300 S COURTLAND AVE SUITE A, KOKOMO, IN, 46902","Match","Non_Exact","1300 S COURTLAND AVE, KOKOMO, IN, 46902",27284790,"L"
