"ID","Address","City","State","Zip","lat","long","id","input_address","match_indicator","match_type","matched_address","tiger_line_id","tiger_side"
6001,"101 WRIGHT AVENUE","DEER PARK","NY",11729,40.7692500220001,-73.3237080709999,1,"101 WRIGHT AVENUE, DEER PARK, NY, 11729","Match","Exact","101 WRIGHT AVE, DEER PARK, NY, 11729",113970168,"R"
6002,"101 WYNDHAM FARM BLVD","STEWARTSVILLE","NJ",8886,40.68158614,-75.129040597,2,"101 WYNDHAM FARM BLVD, STEWARTSVILLE, NJ, 8886","Match","Exact","101 WYNDHAM FARM BLVD, STEWARTSVILLE, NJ, 08886",98104080,"L"
6003,"101 WYOMING STREET","ADEL","GA",31620,31.1160834300001,-83.4149154149999,3,"101 WYOMING STREET, ADEL, GA, 31620","Match","Non_Exact","101 WYOMING, ADEL, GA, 31620",646186362,"L"
6004,"101 YALE AVE","M IDDLEBURY","CT",6762,41.5316557090001,-73.0945860529999,4,"101 YALE AVE, M IDDLEBURY, CT, 6762","Match","Non_Exact","101 YALE AVE, MIDDLEBURY, CT, 06762",3727704,"R"
6005,"101 YORKSHIRE DR","NEWBURGH","IN",47630,37.946505449,-87.416399164,5,"101 YORKSHIRE DR, NEWBURGH, IN, 47630","Match","Non_Exact","101 YORKSHIRE RD, NEWBURGH, IN, 47630",32210394,"R"
6006,"101 YOUNGS WAY","COLUMBUS","NM",88029,NA,NA,6,"101 YOUNGS WAY, COLUMBUS, NM, 88029","No_Match",NA,NA,NA,NA
6007,"101 ZEBRA WAY E1","NEW BRUNSWICK","NJ",8901,NA,NA,7,"101 ZEBRA WAY E1, NEW BRUNSWICK, NJ, 8901","No_Match",NA,NA,NA,NA
6008,"101-12 101ST AVE STE 2","OZONE PARK","NY",11416,40.685552305,-73.841453884,8,"101-12 101ST AVE STE 2, OZONE PARK, NY, 11416","Match","Exact","101-12 101ST AVE, OZONE PARK, NY, 11416",59708001,"R"
6009,"101-14 FARMERS BLVD","HOLLIS","NY",11423,40.7079415970001,-73.767751762,9,"101-14 FARMERS BLVD, HOLLIS, NY, 11423","Match","Exact","101-14 FARMERS BLVD, HOLLIS, NY, 11423",59716616,"R"
6010,"101-29 130TH ST","SOUTH RICHMOND HILL","NY",11419,40.6918626570001,-73.816740862,10,"101-29 130TH ST, SOUTH RICHMOND HILL, NY, 11419","Match","Exact","101-29 130TH ST, SOUTH RICHMOND HILL, NY, 11419",59712783,"L"
6011,"101-32 DUPONT STREET","PLAINVIEW","NY",11803,40.7980736700001,-73.4649341479999,11,"101-32 DUPONT STREET, PLAINVIEW, NY, 11803","Match","Exact","101 DUPONT ST, PLAINVIEW, NY, 11803",147841689,"R"
6012,"101-42 113TH ST","SOUTH RICHMOND HILL","NY",11419,40.687654077,-73.830577864,12,"101-42 113TH ST, SOUTH RICHMOND HILL, NY, 11419","Match","Exact","101-42 113TH ST, SOUTH RICHMOND HILL, NY, 11419",59708141,"R"
6013,"101-A BITTERSWEET LANE","ROSCOMMON","MI",48653,44.444318143,-84.6660814379999,13,"101-A BITTERSWEET LANE, ROSCOMMON, MI, 48653","Match","Exact","101 BITTERSWEET LN, ROSCOMMON, MI, 48653",179423530,"R"
6014,"101-C N GREENVILLE AVE 57","ALLEN","TX",75002,33.1005502410001,-96.6617862049999,14,"101-C N GREENVILLE AVE 57, ALLEN, TX, 75002","Match","Exact","101 N GREENVILLE AVE, ALLEN, TX, 75002",210471890,"L"
6015,"101-C NORTH GREENVILLE AVE  STE 614","ALLEN","TX",75002,33.1005502410001,-96.6617862049999,15,"101-C NORTH GREENVILLE AVE  STE 614, ALLEN, TX, 75002","Match","Exact","101 N GREENVILLE AVE, ALLEN, TX, 75002",210471890,"L"
6016,"101","HALF MOON BAY","CA",94019,NA,NA,16,"101, HALF MOON BAY, CA, 94019","No_Match",NA,NA,NA,NA
6017,"101","MILFORD","DE",19963,NA,NA,17,"101, MILFORD, DE, 19963","No_Match",NA,NA,NA,NA
6018,"101","MINERAL","WV",26726,NA,NA,18,"101, MINERAL, WV, 26726","No_Match",NA,NA,NA,NA
6019,"101","STATESBORO","GA",30461,NA,NA,19,"101, STATESBORO, GA, 30461","No_Match",NA,NA,NA,NA
6020,"101","TALLASSEE","AL",36078,NA,NA,20,"101, TALLASSEE, AL, 36078","No_Match",NA,NA,NA,NA
6021,"1010  S BELTLINE RD APT F","GRAND PRAIRIE","TX",75051,32.7336154490001,-96.994236791,21,"1010  S BELTLINE RD APT F, GRAND PRAIRIE, TX, 75051","Match","Non_Exact","1010 S BELT LINE RD, GRAND PRAIRIE, TX, 75051",102936809,"R"
6022,"1010 13TH ST S","MOORHEAD","MN",56560,46.863886951,-96.759781222,22,"1010 13TH ST S, MOORHEAD, MN, 56560","Match","Exact","1010 13TH ST S, MOORHEAD, MN, 56560",168030058,"L"
6023,"1010 19TH STREET APT 8","SANTA MONICA","CA",90403,34.0331186240001,-118.487036784,23,"1010 19TH STREET APT 8, SANTA MONICA, CA, 90403","Match","Exact","1010 19TH ST, SANTA MONICA, CA, 90403",141559306,"R"
6024,"1010 1ST STREET S","HOPKINS","MN",55343,44.9223806410001,-93.413041248,24,"1010 1ST STREET S, HOPKINS, MN, 55343","Match","Exact","1010 1ST ST S, HOPKINS, MN, 55343",43612416,"L"
6025,"1010 20TH AVE","LONGVIEW","WA",98632,46.1339618870001,-122.945233754,25,"1010 20TH AVE, LONGVIEW, WA, 98632","Match","Exact","1010 20TH AVE, LONGVIEW, WA, 98632",184489120,"R"
6026,"1010 20TH STREET S","ARLINGTON","VA",22202,38.855531193,-77.0635506529999,26,"1010 20TH STREET S, ARLINGTON, VA, 22202","Match","Exact","1010 20TH ST S, ARLINGTON, VA, 22202",76472102,"L"
6027,"1010 25TH ST NW","WASHINGTON","DC",20037,38.902762657,-77.0533101939999,27,"1010 25TH ST NW, WASHINGTON, DC, 20037","Match","Exact","1010 25TH ST NW, WASHINGTON, DC, 20037",638279937,"L"
6028,"1010 44TH AVENUE 411","LONG ISLAND CITY","NY",11101,NA,NA,28,"1010 44TH AVENUE 411, LONG ISLAND CITY, NY, 11101","No_Match",NA,NA,NA,NA
6029,"1010 44TH AVENUE SUITE 411","LONG ISLAND CITY","NY",11101,NA,NA,29,"1010 44TH AVENUE SUITE 411, LONG ISLAND CITY, NY, 11101","No_Match",NA,NA,NA,NA
6030,"1010 4TH AVENUE","EGG HARBOR CITY","NJ",8215,39.5598246610001,-74.668583368,30,"1010 4TH AVENUE, EGG HARBOR CITY, NJ, 8215","Match","Exact","1010 4TH AVE, EGG HARBOR CITY, NJ, 08215",202537194,"L"
6031,"1010 8TH AVE","BELLE FOURCHE","SD",57717,44.6667102120001,-103.849268872,31,"1010 8TH AVE, BELLE FOURCHE, SD, 57717","Match","Exact","1010 8TH AVE, BELLE FOURCHE, SD, 57717",199763417,"L"
6032,"1010 8TH AVENUE","CUMBERLAND","WI",54829,45.528054943,-92.031525573,32,"1010 8TH AVENUE, CUMBERLAND, WI, 54829","Match","Exact","1010 8TH AVE, CUMBERLAND, WI, 54829",126292548,"R"
6033,"1010 ABELINE DR","DELTONA","FL",32725,28.8899466390001,-81.243324747,33,"1010 ABELINE DR, DELTONA, FL, 32725","Match","Exact","1010 ABELINE DR, DELTONA, FL, 32725",94503376,"L"
6034,"1010 ADAMS STREET","KIEL","WI",53042,43.9175477580001,-88.028549423,34,"1010 ADAMS STREET, KIEL, WI, 53042","Match","Exact","1010 ADAMS ST, KIEL, WI, 53042",147963017,"R"
6035,"1010 AIRPORT ROAD","LOS BANOS","CA",93635,37.05828417,-120.868239141,35,"1010 AIRPORT ROAD, LOS BANOS, CA, 93635","Match","Exact","1010 AIRPORT RD, LOS BANOS, CA, 93635",125318848,"R"
6036,"1010 AMERICAN WAY","LEXINGTON","NC",27295,35.870283472,-80.248462021,36,"1010 AMERICAN WAY, LEXINGTON, NC, 27295","Match","Exact","1010 AMERICAN WAY, LEXINGTON, NC, 27295",604798469,"L"
6037,"1010 ANTIETAM","DETROIT","MI",48207,42.34008843,-83.0404232719999,37,"1010 ANTIETAM, DETROIT, MI, 48207","Match","Non_Exact","1010 ANTIETAM AVE, DETROIT, MI, 48207",95484271,"R"
6038,"1010 ASHWOOD ST","HARRISONBURG","VA",22802,38.464166133,-78.877910076,38,"1010 ASHWOOD ST, HARRISONBURG, VA, 22802","Match","Exact","1010 ASHWOOD ST, HARRISONBURG, VA, 22802",55709967,"L"
6039,"1010 AVENUE G","WEST POINT","GA",31833,32.8764721480001,-85.172266103,39,"1010 AVENUE G, WEST POINT, GA, 31833","Match","Exact","1010 AVE G, WEST POINT, GA, 31833",1763376,"R"
6040,"1010 B STREET SUITE 328","SAN RAFAEL","CA",40014,37.9733583570001,-122.52944502,40,"1010 B STREET SUITE 328, SAN RAFAEL, CA, 40014","Match","Non_Exact","1010 B ST, SAN RAFAEL, CA, 94901",192764587,"R"
6041,"1010 B STREET SUITE 328","SAN RAFAEL","CA",94901,37.9733583570001,-122.52944502,41,"1010 B STREET SUITE 328, SAN RAFAEL, CA, 94901","Match","Exact","1010 B ST, SAN RAFAEL, CA, 94901",192764587,"R"
6042,"1010 BALFOUR DR","CEDAR HILL","TX",75104,32.6063330270001,-96.939729799,42,"1010 BALFOUR DR, CEDAR HILL, TX, 75104","Match","Exact","1010 BALFOUR DR, CEDAR HILL, TX, 75104",102942587,"R"
6043,"1010 BARNET RD SUITE A","COLUMBUS","OH",43227,39.951418086,-82.9058304439999,43,"1010 BARNET RD SUITE A, COLUMBUS, OH, 43227","Match","Non_Exact","1010 BARNETT RD, COLUMBUS, OH, 43227",135591750,"L"
6044,"1010 BAY BREEZE TER","LARGO","FL",33770,27.9080627540001,-82.815041111,44,"1010 BAY BREEZE TER, LARGO, FL, 33770","Match","Exact","1010 BAY BREEZE TER, LARGO, FL, 33770",124741976,"R"
6045,"1010 BAYCREST LANE APT E","HARBOR","CA",90710,33.79400758,-118.293012677,45,"1010 BAYCREST LANE APT E, HARBOR, CA, 90710","Match","Non_Exact","1010 BAYCREST CT, HARBOR CITY, CA, 90710",142457089,"R"
6046,"1010 BELLA VISTA BLVD UNIT 116","SAINT AUGUSTINE","FL",32084,29.922978458,-81.3229891189999,46,"1010 BELLA VISTA BLVD UNIT 116, SAINT AUGUSTINE, FL, 32084","Match","Exact","1010 BELLA VISTA BLVD, SAINT AUGUSTINE, FL, 32084",92621770,"R"
6047,"1010 BELLAIRE BLVD","LEWISVILLE","TX",75067,33.0275078700001,-97.014471548,47,"1010 BELLAIRE BLVD, LEWISVILLE, TX, 75067","Match","Exact","1010 BELLAIRE BLVD, LEWISVILLE, TX, 75067",103442976,"L"
6048,"1010 BERKSHIRE ROAD","DAYTONA","FL",32117,29.2207546500001,-81.0607334919999,48,"1010 BERKSHIRE ROAD, DAYTONA, FL, 32117","Match","Non_Exact","1010 BERKSHIRE RD, DAYTONA BEACH, FL, 32117",647927100,"L"
6049,"1010 BLACK ROCK ROAD","GLADWYNE","PA",19035,40.0382801530001,-75.282192993,49,"1010 BLACK ROCK ROAD, GLADWYNE, PA, 19035","Match","Exact","1010 BLACK ROCK RD, GLADWYNE, PA, 19035",629034818,"L"
6050,"1010 BODIE ST","LONGVIEW","TX",75601,32.503852986,-94.727518393,50,"1010 BODIE ST, LONGVIEW, TX, 75601","Match","Exact","1010 BODIE ST, LONGVIEW, TX, 75601",141119655,"R"
6051,"1010 BRANDON AVENUE","COLUMBIA","SC",29209,33.9846434470001,-80.959723534,51,"1010 BRANDON AVENUE, COLUMBIA, SC, 29209","Match","Exact","1010 BRANDON AVE, COLUMBIA, SC, 29209",71829494,"R"
6052,"1010 BRANDY LANE STE D","RICHMOND","KY",40475,37.772970523,-84.3238154379999,52,"1010 BRANDY LANE STE D, RICHMOND, KY, 40475","Match","Exact","1010 BRANDY LN, RICHMOND, KY, 40475",639643464,"R"
6053,"1010 BRIGHTSEAT ROAD","LANDOVER","MD",20785,38.9038891050001,-76.853299743,53,"1010 BRIGHTSEAT ROAD, LANDOVER, MD, 20785","Match","Exact","1010 BRIGHTSEAT RD, LANDOVER, MD, 20785",76382118,"L"
6054,"1010 BROOKCLIFF CIR","SAN RAMON","CA",94582,37.771502045,-121.923683181,54,"1010 BROOKCLIFF CIR, SAN RAMON, CA, 94582","Match","Exact","1010 BROOKCLIFF CIR, SAN RAMON, CA, 94582",645543657,"R"
6055,"1010 BURKE DRIVE","JUNCTION CITY","KS",66441,39.016998228,-96.847774376,55,"1010 BURKE DRIVE, JUNCTION CITY, KS, 66441","Match","Exact","1010 BURKE DR, JUNCTION CITY, KS, 66441",28397044,"L"
6056,"1010 CALLOWAY DR SUITE 100","BAKERSFIELD","CA",93312,35.3677730050001,-119.111184392,56,"1010 CALLOWAY DR SUITE 100, BAKERSFIELD, CA, 93312","Match","Exact","1010 CALLOWAY DR, BAKERSFIELD, CA, 93312",109150938,"R"
6057,"1010 CAMDEN CT","ATLANTA","GA",30327,NA,NA,57,"1010 CAMDEN CT, ATLANTA, GA, 30327","No_Match",NA,NA,NA,NA
6058,"1010 CAMPHOR LANE","DELAND","FL",32720,29.022781536,-81.3220164099999,58,"1010 CAMPHOR LANE, DELAND, FL, 32720","Match","Exact","1010 CAMPHOR LN, DELAND, FL, 32720",94511066,"L"
6059,"1010 CENTER STREET","NEW ULM","MN",56073,44.309850112,-94.466140004,59,"1010 CENTER STREET, NEW ULM, MN, 56073","Match","Exact","1010 CENTER ST, NEW ULM, MN, 56073",28568952,"L"
6060,"1010 CENTRAL AVE APT 102","INDIANAPOLIS","IN",46202,39.7815089650001,-86.1494135569999,60,"1010 CENTRAL AVE APT 102, INDIANAPOLIS, IN, 46202","Match","Exact","1010 CENTRAL AVE, INDIANAPOLIS, IN, 46202",646927272,"L"
6061,"1010 CENTRAL AVE UNIT 326","ST PETERSBURG","FL",33705,27.7711453910001,-82.648333942,61,"1010 CENTRAL AVE UNIT 326, ST PETERSBURG, FL, 33705","Match","Exact","1010 CENTRAL AVE, SAINT PETERSBURG, FL, 33705",124708037,"L"
6062,"1010 CENTRAL AVENUE  UNIT 436","SAINT PETERSBURG","FL",33705,27.7711453910001,-82.648333942,62,"1010 CENTRAL AVENUE  UNIT 436, SAINT PETERSBURG, FL, 33705","Match","Exact","1010 CENTRAL AVE, SAINT PETERSBURG, FL, 33705",124708037,"L"
6063,"1010 CHAPEL STREET","CINCINNATI","OH",45206,39.1310940660001,-84.4865511789999,63,"1010 CHAPEL STREET, CINCINNATI, OH, 45206","Match","Exact","1010 CHAPEL ST, CINCINNATI, OH, 45206",103971028,"L"
6064,"1010 CO RD 126","VAN VLECK","TX",77482,29.01117721,-95.9072303679999,64,"1010 CO RD 126, VAN VLECK, TX, 77482","Match","Exact","1010 CO RD 126, VAN VLECK, TX, 77482",83292421,"R"
6065,"1010 COAL AVE SW","ALBUQUERQUE","NM",87102,35.081577108,-106.659649408,65,"1010 COAL AVE SW, ALBUQUERQUE, NM, 87102","Match","Exact","1010 COAL AVE SW, ALBUQUERQUE, NM, 87102",206706570,"L"
6066,"1010 COMMON STREET SUITE 2360","NEW ORLEANS","LA",70112,29.9538545990001,-90.073216856,66,"1010 COMMON STREET SUITE 2360, NEW ORLEANS, LA, 70112","Match","Non_Exact","1010 COMMON ST, NEW ORLEANS, LA, 70130",191710202,"L"
6067,"1010 CORNELL AVENUE","RUSTON","LA",71270,32.5178300600001,-92.6224548879999,67,"1010 CORNELL AVENUE, RUSTON, LA, 71270","Match","Exact","1010 CORNELL AVE, RUSTON, LA, 71270",164095312,"L"
6068,"1010 COURTSIDE DRIVE","ARLINGTON","TX",76006,32.6393990170001,-97.0927538239999,68,"1010 COURTSIDE DRIVE, ARLINGTON, TX, 76006","Match","Non_Exact","1010 COURTSIDE DR, ARLINGTON, TX, 76002",101960646,"L"
6069,"1010 CRANE ROAD","DAWSONVILLE","GA",30534,34.5229891500001,-84.214288688,69,"1010 CRANE ROAD, DAWSONVILLE, GA, 30534","Match","Exact","1010 CRANE RD, DAWSONVILLE, GA, 30534",70160471,"R"
6070,"1010 CUP LEAF HOLLY CT","GREAT FALLS","VA",22066,39.0121075750001,-77.361363425,70,"1010 CUP LEAF HOLLY CT, GREAT FALLS, VA, 22066","Match","Exact","1010 CUP LEAF HOLLY CT, GREAT FALLS, VA, 22066",647370359,"R"
6071,"1010 CURTIS COURT","ARLINGTON","TX",76012,32.7741029000001,-97.119250328,71,"1010 CURTIS COURT, ARLINGTON, TX, 76012","Match","Exact","1010 CURTIS CT, ARLINGTON, TX, 76012",101873288,"L"
6072,"1010 D LONG BEACH BLVD","NORTH BEACH","NJ",8008,39.570224927,-74.235469084,72,"1010 D LONG BEACH BLVD, NORTH BEACH, NJ, 8008","Match","Non_Exact","1010 LONG BEACH BLVD, HARVEY CEDARS, NJ, 08008",203713973,"L"
6073,"1010 DANDELION DR","CLARKSVILLE","TN",37042,36.632662705,-87.4033523099999,73,"1010 DANDELION DR, CLARKSVILLE, TN, 37042","Match","Exact","1010 DANDELION DR, CLARKSVILLE, TN, 37042",31827108,"R"
6074,"1010 DEARBORN STREET","CALDWELL","ID",83605,43.662069789,-116.688374217,74,"1010 DEARBORN STREET, CALDWELL, ID, 83605","Match","Exact","1010 DEARBORN ST, CALDWELL, ID, 83605",122780483,"L"
6075,"1010 DEERWOOD TRAIL","HAZLEHURST","MS",39083,31.9483740480001,-90.4162626729999,75,"1010 DEERWOOD TRAIL, HAZLEHURST, MS, 39083","Match","Exact","1010 DEERWOOD TRL, HAZLEHURST, MS, 39083",612369834,"R"
6076,"1010 DELTA RIVER WAY","KNIGHTDALE","NC",27545,35.788906765,-78.5050520349999,76,"1010 DELTA RIVER WAY, KNIGHTDALE, NC, 27545","Match","Exact","1010 DELTA RIVER WAY, KNIGHTDALE, NC, 27545",635867030,"R"
6077,"1010 DEPOT HILL ROAD SUITE 100","BROOMFIELD","CO",80020,39.929328608,-105.091909096,77,"1010 DEPOT HILL ROAD SUITE 100, BROOMFIELD, CO, 80020","Match","Exact","1010 DEPOT HILL RD, BROOMFIELD, CO, 80020",188167927,"R"
6078,"1010 DEVONSHIRE DRIVE","SAN DIEGO","CA",92107,32.726112356,-117.254243763,78,"1010 DEVONSHIRE DRIVE, SAN DIEGO, CA, 92107","Match","Exact","1010 DEVONSHIRE DR, SAN DIEGO, CA, 92107",612857281,"L"
6079,"1010 DIALS PLANTATION DRIVE","STATHAM","GA",30666,33.940898567,-83.564153414,79,"1010 DIALS PLANTATION DRIVE, STATHAM, GA, 30666","Match","Exact","1010 DIALS PLANTATION DR, STATHAM, GA, 30666",623855643,"R"
6080,"1010 DILLON LANE","GALLATIN","TN",37066,36.312140104,-86.524415053,80,"1010 DILLON LANE, GALLATIN, TN, 37066","Match","Non_Exact","1010 DILLON DR, GALLATIN, TN, 37066",642261414,"R"
6081,"1010 E 38 1/2 ST","AUSTIN","TX",78751,30.295911043,-97.721745214,81,"1010 E 38 1/2 ST, AUSTIN, TX, 78751","Match","Exact","1010 E 38TH 1/2 ST, AUSTIN, TX, 78751",63946084,"L"
6082,"1010 E APPLETON ST APT 4","LONG BEACH","CA",90802,33.7694911930001,-118.179983572,82,"1010 E APPLETON ST APT 4, LONG BEACH, CA, 90802","Match","Non_Exact","1010 E APPLETON ST, LONG BEACH, CA, 90802",141694906,"R"
6083,"1010 E ARKANSAS LANE APT 143","ARLINGTON","TX",76014,32.7062035490001,-97.0953933069999,83,"1010 E ARKANSAS LANE APT 143, ARLINGTON, TX, 76014","Match","Non_Exact","1010 E ARKANSAS LN, ARLINGTON, TX, 76014",102134442,"R"
6084,"1010 E CLARENDON","DALLAS","TX",75203,32.7441593950001,-96.809482938,84,"1010 E CLARENDON, DALLAS, TX, 75203","Match","Non_Exact","1010 E CLARENDON DR, DALLAS, TX, 75203",102949029,"R"
6085,"1010 E HIGHLAND AVE","ROBINSON","IL",62454,39.0176745410001,-87.732167939,85,"1010 E HIGHLAND AVE, ROBINSON, IL, 62454","Match","Exact","1010 E HIGHLAND AVE, ROBINSON, IL, 62454",26968185,"L"
6086,"1010 E MOUNT AIRY AVENUE","PHILADELPHIA","PA",19150,40.071523734,-75.179297032,86,"1010 E MOUNT AIRY AVENUE, PHILADELPHIA, PA, 19150","Match","Exact","1010 E MOUNT AIRY AVE, PHILADELPHIA, PA, 19150",131394793,"R"
6087,"1010 E OAKEY BLVD","LAS VEGAS","NV",89104,36.151549265,-115.14090872,87,"1010 E OAKEY BLVD, LAS VEGAS, NV, 89104","Match","Exact","1010 E OAKEY BLVD, LAS VEGAS, NV, 89104",201867766,"R"
6088,"1010 EAST ADAMS STREET SUITE 220","JACKSONVILLE","FL",32202,30.324462413,-81.6439189549999,88,"1010 EAST ADAMS STREET SUITE 220, JACKSONVILLE, FL, 32202","Match","Exact","1010 E ADAMS ST, JACKSONVILLE, FL, 32202",83900472,"R"
6089,"1010 EAST BROADWAY","PIERRE","SD",57501,44.366477402,-100.338336566,89,"1010 EAST BROADWAY, PIERRE, SD, 57501","Match","Non_Exact","1010 E BROADWAY AVE, PIERRE, SD, 57501",200329198,"R"
6090,"1010 EAST DRINKER STREET","DUNMORE","PA",18512,41.4163863250001,-75.606268216,90,"1010 EAST DRINKER STREET, DUNMORE, PA, 18512","Match","Exact","1010 E DRINKER ST, DUNMORE, PA, 18512",139330626,"R"
6091,"1010 EAST MILESTONE CT","BARDSTOWN","KY",40004,37.8509966180001,-85.52591274,91,"1010 EAST MILESTONE CT, BARDSTOWN, KY, 40004","Match","Exact","1010 E MILESTONE CT, BARDSTOWN, KY, 40004",35150214,"L"
6092,"1010 EAST OSCEOLA PARKWAY","KISSIMMEE","FL",34744,28.3396150930001,-81.394434138,92,"1010 EAST OSCEOLA PARKWAY, KISSIMMEE, FL, 34744","Match","Exact","1010 E OSCEOLA PKWY, KISSIMMEE, FL, 34744",176700272,"R"
6093,"1010 EMERSON STREET","PALO ALTO","CA",94301,37.440616021,-122.156338736,93,"1010 EMERSON STREET, PALO ALTO, CA, 94301","Match","Exact","1010 EMERSON ST, PALO ALTO, CA, 94301",122950474,"R"
6094,"1010 EVANGELINE DR","LELAND","NC",28451,34.1969939320001,-78.0444269669999,94,"1010 EVANGELINE DR, LELAND, NC, 28451","Match","Exact","1010 EVANGELINE DR, LELAND, NC, 28451",630146909,"L"
6095,"1010 FAIRGROUNDS","RIVERTON","WY",82501,NA,NA,95,"1010 FAIRGROUNDS, RIVERTON, WY, 82501","No_Match",NA,NA,NA,NA
6096,"1010 FREEDOM DR","LAS CRUCES","NM",88007,32.3222908770001,-106.795658562,96,"1010 FREEDOM DR, LAS CRUCES, NM, 88007","Match","Exact","1010 FREEDOM DR, LAS CRUCES, NM, 88007",623987101,"L"
6097,"1010 GREENBRIAR CIR","DECATUR","GA",30033,33.8084552660001,-84.263277382,97,"1010 GREENBRIAR CIR, DECATUR, GA, 30033","Match","Exact","1010 GREENBRIAR CIR, DECATUR, GA, 30033",23387432,"L"
6098,"1010 HERRIN AVE","CHARLOTTE","NC",28205,35.2441375400001,-80.797781831,98,"1010 HERRIN AVE, CHARLOTTE, NC, 28205","Match","Exact","1010 HERRIN AVE, CHARLOTTE, NC, 28205",70480261,"R"
6099,"1010 HIGHWAY 441","HOLDEN","LA",70744,30.664740932,-90.650876803,99,"1010 HIGHWAY 441, HOLDEN, LA, 70744","Match","Non_Exact","1010 STATE RTE 441, HOLDEN, LA, 70744",75718742,"R"
6100,"1010 HOLLYWOOD BLVD","HOLLYWOOD","FL",33019,26.0120011860001,-80.125898762,100,"1010 HOLLYWOOD BLVD, HOLLYWOOD, FL, 33019","Match","Exact","1010 HOLLYWOOD BLVD, HOLLYWOOD, FL, 33019",114730941,"L"
6101,"1010 HOMELAND AVE SUITE 102","GREENSBORO","NC",27401,36.08569298,-79.7727377419999,101,"1010 HOMELAND AVE SUITE 102, GREENSBORO, NC, 27401","Match","Non_Exact","1010 HOMELAND AVE, GREENSBORO, NC, 27405",642169052,"R"
6102,"1010 HUNTCLIFF SUITE 1210","SANDY SPRINGS","GA",30350,33.9929401270001,-84.356176867,102,"1010 HUNTCLIFF SUITE 1210, SANDY SPRINGS, GA, 30350","Match","Exact","1010 HUNTCLIFF, SANDY SPRINGS, GA, 30350",17372997,"R"
6103,"1010 HWY V37","LAPORTE CITY","IA",50651,42.4430134610001,-92.302000463,103,"1010 HWY V37, LAPORTE CITY, IA, 50651","Match","Non_Exact","1010 HWY V37, LA PORTE CITY, IA, 50651",212735742,"R"
6104,"1010 INDUSTRIAL DRIVE","PLEASANT HILL","MO",64080,38.816034475,-94.265933138,104,"1010 INDUSTRIAL DRIVE, PLEASANT HILL, MO, 64080","Match","Exact","1010 INDUSTRIAL DR, PLEASANT HILL, MO, 64080",100911861,"L"
6105,"1010 JADE CT","ABERDEEN","SD",57401,45.4545666000001,-98.457585735,105,"1010 JADE CT, ABERDEEN, SD, 57401","Match","Exact","1010 JADE CT, ABERDEEN, SD, 57401",620019854,"R"
6106,"1010 LAKE ST STE 110","OAK PARK","IL",60301,41.88866591,-87.800327006,106,"1010 LAKE ST STE 110, OAK PARK, IL, 60301","Match","Exact","1010 LAKE ST, OAK PARK, IL, 60301",111752781,"R"
6107,"1010 LAKE STREET SUITE 200","OAK PARK","IL",60301,41.88866591,-87.800327006,107,"1010 LAKE STREET SUITE 200, OAK PARK, IL, 60301","Match","Exact","1010 LAKE ST, OAK PARK, IL, 60301",111752781,"R"
6108,"1010 LEROY BELLAMY RD","INVERNESS","FL",34450,28.830580866,-82.317347449,108,"1010 LEROY BELLAMY RD, INVERNESS, FL, 34450","Match","Exact","1010 LEROY BELLAMY RD, INVERNESS, FL, 34450",86221359,"R"
6109,"1010 MAC DAVIS LANE SUITE 1","LUBBOCK","TX",79401,NA,NA,109,"1010 MAC DAVIS LANE SUITE 1, LUBBOCK, TX, 79401","No_Match",NA,NA,NA,NA
6110,"1010 MAIN ST","MILES CITY","MT",59301,46.4076619260001,-105.845528456,110,"1010 MAIN ST, MILES CITY, MT, 59301","Match","Exact","1010 MAIN ST, MILES CITY, MT, 59301",150379866,"R"
6111,"1010 MAIN STREET","MILES CITY","MT",59301,46.4076619260001,-105.845528456,111,"1010 MAIN STREET, MILES CITY, MT, 59301","Match","Exact","1010 MAIN ST, MILES CITY, MT, 59301",150379866,"R"
6112,"1010 MAIN STREET","WILLIMANTIC","CT",6226,41.7130057620001,-72.2182451629999,112,"1010 MAIN STREET, WILLIMANTIC, CT, 6226","Match","Exact","1010 MAIN ST, WILLIMANTIC, CT, 06226",56441613,"L"
6113,"1010 MATHIS ROAD","FARMINGTON","KY",42040,36.599728385,-88.4923326479999,113,"1010 MATHIS ROAD, FARMINGTON, KY, 42040","Match","Exact","1010 MATHIS RD, FARMINGTON, KY, 42040",27879014,"R"
6114,"1010 MOUNTAIN ROAD","SANTA FE","NM",87505,35.6548126970001,-105.917693077,114,"1010 MOUNTAIN ROAD, SANTA FE, NM, 87505","Match","Exact","1010 MOUNTAIN RD, SANTA FE, NM, 87505",641142601,"R"
6115,"1010 N ALMOND STREET","CARBONDALE","IL",62901,37.736614349,-89.2242544969999,115,"1010 N ALMOND STREET, CARBONDALE, IL, 62901","Match","Exact","1010 N ALMOND ST, CARBONDALE, IL, 62901",95067848,"L"
6116,"1010 N COUNTY ROAD 600E","GREENSBURG","IN",47240,NA,NA,116,"1010 N COUNTY ROAD 600E, GREENSBURG, IN, 47240","No_Match",NA,NA,NA,NA
6117,"1010 N DALE ST","SAINT PAUL","MN",55117,44.9718082640001,-93.1263493279999,117,"1010 N DALE ST, SAINT PAUL, MN, 55117","Match","Non_Exact","1010 DALE ST N, SAINT PAUL, MN, 55117",97643786,"R"
6118,"1010 N FIRST ST","STOCKTON","KS",67669,39.437758161,-99.265890091,118,"1010 N FIRST ST, STOCKTON, KS, 67669","Match","Exact","1010 N 1ST ST, STOCKTON, KS, 67669",149997250,"L"
6119,"1010 N FLORIDA AVE","TAMPA","FL",33602,27.952552924,-82.4591136719999,119,"1010 N FLORIDA AVE, TAMPA, FL, 33602","Match","Exact","1010 N FLORIDA AVE, TAMPA, FL, 33602",104530073,"L"
6120,"1010 N RAYMOND AVENUE","PASADENA","CA",91103,34.163297281,-118.149037303,120,"1010 N RAYMOND AVENUE, PASADENA, CA, 91103","Match","Exact","1010 N RAYMOND AVE, PASADENA, CA, 91103",141627834,"R"
6121,"1010 N RIDGE RD STE 1010","WICHITA","KS",67212,37.700711272,-97.426360062,121,"1010 N RIDGE RD STE 1010, WICHITA, KS, 67212","Match","Non_Exact","1010 N RIDGE RD, WICHITA, KS, 67212",650053671,"R"
6122,"1010 N SAVANNAH TERRACE","MUSTANG","OK",73064,35.400708464,-97.720898092,122,"1010 N SAVANNAH TERRACE, MUSTANG, OK, 73064","Match","Exact","1010 N SAVANNAH TER, MUSTANG, OK, 73064",92535510,"R"
6123,"1010 N UNIVERSITY BLVD","NORMAN","OK",73069,35.227570616,-97.4499738809999,123,"1010 N UNIVERSITY BLVD, NORMAN, OK, 73069","Match","Exact","1010 N UNIVERSITY BLVD, NORMAN, OK, 73069",99908779,"L"
6124,"1010 NE 16TH STREET","OKLAHOMA CITY","OK",73117,35.485936318,-97.494334341,124,"1010 NE 16TH STREET, OKLAHOMA CITY, OK, 73117","Match","Exact","1010 NE 16TH ST, OKLAHOMA CITY, OK, 73117",100401677,"R"
6125,"1010 NE 8TH AVENUE APT 35","DELRAY BEACH","FL",33483,26.475732775,-80.0653189449999,125,"1010 NE 8TH AVENUE APT 35, DELRAY BEACH, FL, 33483","Match","Non_Exact","1010 NE 8TH AVE, DELRAY BEACH, FL, 33483",115335799,"L"
6126,"1010 NICHOLWOOD DR APT 203","RALEIGH","NC",27605,35.794251478,-78.6516117479999,126,"1010 NICHOLWOOD DR APT 203, RALEIGH, NC, 27605","Match","Exact","1010 NICHOLWOOD DR, RALEIGH, NC, 27605",647015167,"R"
6127,"1010 NOLAN LN","CHULA VISTA","CA",91911,32.6235411490001,-117.045210083,127,"1010 NOLAN LN, CHULA VISTA, CA, 91911","Match","Exact","1010 NOLAN LN, CHULA VISTA, CA, 91911",195357310,"R"
6128,"1010 NORTH AVENUE","SPRINGFIELD","PA",19064,39.9181048780001,-75.3123895909999,128,"1010 NORTH AVENUE, SPRINGFIELD, PA, 19064","Match","Exact","1010 NORTH AVE, SPRINGFIELD, PA, 19064",134882955,"R"
6129,"1010 NORTH CAROLINA AVE SE","WASHINGTON","DC",20003,38.888907122,-76.99246852,129,"1010 NORTH CAROLINA AVE SE, WASHINGTON, DC, 20003","Match","Exact","1010 NORTH CAROLINA AVE SE, WASHINGTON, DC, 20003",76230063,"L"
6130,"1010 NORTH DAVIS DR","ARLINGTON","TX",76016,32.7481279680001,-97.123017443,130,"1010 NORTH DAVIS DR, ARLINGTON, TX, 76016","Match","Non_Exact","1010 N DAVIS DR, ARLINGTON, TX, 76012",102137257,"L"
6131,"1010 NORTH GUIGNARD DRIVE","SUMTER","SC",29150,33.9437364930001,-80.377337358,131,"1010 NORTH GUIGNARD DRIVE, SUMTER, SC, 29150","Match","Exact","1010 N GUIGNARD DR, SUMTER, SC, 29150",202680299,"L"
6132,"1010 NORTH LINCOLN AVE","DINUBA","CA",93618,36.5539696490001,-119.388347794,132,"1010 NORTH LINCOLN AVE, DINUBA, CA, 93618","Match","Non_Exact","1010 LINCOLN AVE, DINUBA, CA, 93618",650328887,"R"
6133,"1010 NORTH NIAGARA STREET","BURBANK","CA",91505,34.1722889390001,-118.340861914,133,"1010 NORTH NIAGARA STREET, BURBANK, CA, 91505","Match","Exact","1010 N NIAGARA ST, BURBANK, CA, 91505",142726018,"R"
6134,"1010 NORTH RIDGE ROAD","CHADDS FORD","PA",19317,39.8717312200001,-75.6123862119999,134,"1010 NORTH RIDGE ROAD, CHADDS FORD, PA, 19317","Match","Exact","1010 N RIDGE RD, CHADDS FORD, PA, 19317",179503974,"L"
6135,"1010 NORTH WASHINGTON STREET","BISMARCK","ND",58501,46.8159447100001,-100.794211395,135,"1010 NORTH WASHINGTON STREET, BISMARCK, ND, 58501","Match","Exact","1010 N WASHINGTON ST, BISMARCK, ND, 58501",198847933,"L"
6136,"1010 NORTH WILTON PLACE APT 2","LOS ANGELES","CA",90038,34.08876085,-118.313541552,136,"1010 NORTH WILTON PLACE APT 2, LOS ANGELES, CA, 90038","Match","Exact","1010 N WILTON PL, LOS ANGELES, CA, 90038",141602948,"R"
6137,"1010 NORTHERN BLVD SUITE 208","GREAT NECK","NY",11021,40.7859892170001,-73.7057674059999,137,"1010 NORTHERN BLVD SUITE 208, GREAT NECK, NY, 11021","Match","Exact","1010 NORTHERN BLVD, GREAT NECK, NY, 11021",638497139,"R"
6138,"1010 NORTHERN BOULEVARD SUITE 320","GREAT NECK","NY",11201,40.7859892170001,-73.7057674059999,138,"1010 NORTHERN BOULEVARD SUITE 320, GREAT NECK, NY, 11201","Match","Non_Exact","1010 NORTHERN BLVD, GREAT NECK, NY, 11021",638497139,"R"
6139,"1010 NW 181 STREET","MIAMI","FL",33169,25.9403726780001,-80.218907195,139,"1010 NW 181 STREET, MIAMI, FL, 33169","Match","Exact","1010 NW 181ST ST, MIAMI, FL, 33169",116029740,"L"
6140,"1010 NW 182ND STREET","MIAMI","FL",33169,25.9410355520001,-80.219184605,140,"1010 NW 182ND STREET, MIAMI, FL, 33169","Match","Exact","1010 NW 182ND ST, MIAMI, FL, 33169",116029738,"L"
6141,"1010 OLD PRETORIA RD","ALBANY","GA",31721,31.51771681,-84.231551387,141,"1010 OLD PRETORIA RD, ALBANY, GA, 31721","Match","Exact","1010 OLD PRETORIA RD, ALBANY, GA, 31721",84332988,"R"
6142,"1010 OLE TIME LANE NW","WARREN","OH",44481,41.300710334,-80.81766857,142,"1010 OLE TIME LANE NW, WARREN, OH, 44481","Match","Exact","1010 OLE TIME LN NW, WARREN, OH, 44481",117419727,"R"
6143,"1010 PARK AVE S","MINNEAPOLIS","MN",55404,44.9697889870001,-93.265111904,143,"1010 PARK AVE S, MINNEAPOLIS, MN, 55404","Match","Non_Exact","1010 PARK AVE N, MINNEAPOLIS, MN, 55404",43632513,"R"
6144,"1010 PARK GREEN DR","DEER PARK","TX",77536,29.7033468970001,-95.103695257,144,"1010 PARK GREEN DR, DEER PARK, TX, 77536","Match","Exact","1010 PARK GREEN, DEER PARK, TX, 77536",642010590,"R"
6145,"1010 PAWNEE LANE","GIRARD","OH",44420,41.1708606500001,-80.70039418,145,"1010 PAWNEE LANE, GIRARD, OH, 44420","Match","Exact","1010 PAWNEE LN, GIRARD, OH, 44420",117424522,"L"
6146,"1010 PEARL JOHNSON RD SE","RANGER","GA",30734,NA,NA,146,"1010 PEARL JOHNSON RD SE, RANGER, GA, 30734","Tie",NA,NA,NA,NA
6147,"1010 PENNSYLVANIA AVE","TYRONE","PA",16686,40.671473921,-78.2378764009999,147,"1010 PENNSYLVANIA AVE, TYRONE, PA, 16686","Match","Exact","1010 PENNSYLVANIA AVE, TYRONE, PA, 16686",49722072,"R"
6148,"1010 POWERS PLACE","ALPHARETTA","GA",30009,34.080259083,-84.295794714,148,"1010 POWERS PLACE, ALPHARETTA, GA, 30009","Match","Exact","1010 POWERS PL, ALPHARETTA, GA, 30009",618449029,"R"
6149,"1010 QUINCY STREET","PARKERSBURG","WV",26101,39.2677399360001,-81.552483803,149,"1010 QUINCY STREET, PARKERSBURG, WV, 26101","Match","Exact","1010 QUINCY ST, PARKERSBURG, WV, 26101",90887238,"L"
6150,"1010 RACHELS DRIVE","SUFFOLK","VA",23434,36.7180013060001,-76.630907995,150,"1010 RACHELS DRIVE, SUFFOLK, VA, 23434","Match","Exact","1010 RACHELS DR, SUFFOLK, VA, 23434",626992992,"R"
6151,"1010 RENNIE DRIVE","KATY","TX",77450,29.7724793410001,-95.725605955,151,"1010 RENNIE DRIVE, KATY, TX, 77450","Match","Exact","1010 RENNIE DR, KATY, TX, 77450",96016588,"R"
6152,"1010 S 22ND STREET","PHILADELPHIA","PA",19146,39.9403670820001,-75.179646986,152,"1010 S 22ND STREET, PHILADELPHIA, PA, 19146","Match","Exact","1010 S 22ND ST, PHILADELPHIA, PA, 19146",131407209,"R"
6153,"1010 S 2ND STREET","San Jose","CA",95110,37.3214604080001,-121.878173161,153,"1010 S 2ND STREET, San Jose, CA, 95110","Match","Non_Exact","1010 S 2ND ST, SAN JOSE, CA, 95112",652204718,"L"
6154,"1010 S 8TH STREET","ALLENTOWN","PA",18103,40.5903652580001,-75.468464249,154,"1010 S 8TH STREET, ALLENTOWN, PA, 18103","Match","Exact","1010 S 8TH ST, ALLENTOWN, PA, 18103",80770365,"R"
6155,"1010 S BEACON BLVD","GRAND HAVEN","MI",49417,43.051167445,-86.220136332,155,"1010 S BEACON BLVD, GRAND HAVEN, MI, 49417","Match","Exact","1010 S BEACON BLVD, GRAND HAVEN, MI, 49417",642646514,"R"
6156,"1010 S BUSEY AVE","URBANA","IL",61801,40.1044600450001,-88.217638655,156,"1010 S BUSEY AVE, URBANA, IL, 61801","Match","Exact","1010 S BUSEY AVE, URBANA, IL, 61801",8812282,"L"
6157,"1010 S JOLIET STREET STE 102","AURORA","CO",80012,39.731783035,-104.860511699,157,"1010 S JOLIET STREET STE 102, AURORA, CO, 80012","Match","Non_Exact","1010 JOLIET ST, AURORA, CO, 80010",177314391,"R"
6158,"1010 S JOSEPHINE RD","KETTLE FALLS","WA",99141,48.602849011,-118.072353909,158,"1010 S JOSEPHINE RD, KETTLE FALLS, WA, 99141","Match","Exact","1010 S JOSEPHINE RD, KETTLE FALLS, WA, 99141",631966740,"L"
6159,"1010 S KANSAS AVE UNIT B12","LIBERAL","KS",67901,NA,NA,159,"1010 S KANSAS AVE UNIT B12, LIBERAL, KS, 67901","Tie",NA,NA,NA,NA
6160,"1010 S MAGNOLIA BLVD SUITE L","MAGNOLIA","TX",77355,30.2117096160001,-95.755027505,160,"1010 S MAGNOLIA BLVD SUITE L, MAGNOLIA, TX, 77355","Match","Exact","1010 MAGNOLIA BLVD, MAGNOLIA, TX, 77355",79276954,"L"
6161,"1010 S MAIN ST","HOPE","AR",71801,33.66001364,-93.589184647,161,"1010 S MAIN ST, HOPE, AR, 71801","Match","Exact","1010 S MAIN ST, HOPE, AR, 71801",10860745,"L"
6162,"1010 SAINT FRANCIS DRIVE","PETALUMA","CA",94954,38.2373393390001,-122.611894325,162,"1010 SAINT FRANCIS DRIVE, PETALUMA, CA, 94954","Match","Exact","1010 ST FRANCIS DR, PETALUMA, CA, 94954",67478494,"R"
6163,"1010 SANDLAKE RD","ALTAMONTE SPRINGS","FL",32714,NA,NA,163,"1010 SANDLAKE RD, ALTAMONTE SPRINGS, FL, 32714","No_Match",NA,NA,NA,NA
6164,"1010 SCHILLINGER RD S STE B","MOBILE","AL",36695,30.670270406,-88.225466787,164,"1010 SCHILLINGER RD S STE B, MOBILE, AL, 36695","Match","Exact","1010 SCHILLINGER RD S, MOBILE, AL, 36695",61954705,"L"
6165,"1010 SCOTTSBURG SCHOOL TRAIL","SCOTTSBURG","VA",24589,36.7798154450001,-78.8119248249999,165,"1010 SCOTTSBURG SCHOOL TRAIL, SCOTTSBURG, VA, 24589","Match","Non_Exact","1010 SCOTTSBURG SCHOOL RD, SCOTTSBURG, VA, 24589",90323732,"L"
6166,"1010 SEMINOLE DRIVE APT 612","FT LAUDERDALE","FL",33304,26.138137155,-80.11083487,166,"1010 SEMINOLE DRIVE APT 612, FT LAUDERDALE, FL, 33304","Match","Exact","1010 SEMINOLE DR, FORT LAUDERDALE, FL, 33304",637284910,"R"
6167,"1010 SHERIDAN DR","JOPLIN","MO",64801,37.101338008,-94.5233302089999,167,"1010 SHERIDAN DR, JOPLIN, MO, 64801","Match","Exact","1010 SHERIDAN DR, JOPLIN, MO, 64801",66158379,"L"
6168,"1010 SHERWOOD DR","GREENCASTLE","IN",46135,39.6568165730001,-86.8473896529999,168,"1010 SHERWOOD DR, GREENCASTLE, IN, 46135","Match","Exact","1010 SHERWOOD DR, GREENCASTLE, IN, 46135",50104749,"L"
6169,"1010 SIERRA ST","BERKELEY","CA",94707,37.888452881,-122.280509171,169,"1010 SIERRA ST, BERKELEY, CA, 94707","Match","Exact","1010 SIERRA ST, BERKELEY, CA, 94707",124992304,"R"
6170,"1010 SOUTH 144TH STREET","OMAHA","NE",68154,41.2496771680001,-96.138653044,170,"1010 SOUTH 144TH STREET, OMAHA, NE, 68154","Match","Exact","1010 S 144TH ST, OMAHA, NE, 68154",649856318,"R"
6171,"1010 SOUTH CODY ST","LAKEWOOD","CO",80226,39.697759251,-105.091771751,171,"1010 SOUTH CODY ST, LAKEWOOD, CO, 80226","Match","Exact","1010 S CODY ST, LAKEWOOD, CO, 80226",177319695,"L"
6172,"1010 SOUTH I STREET","TACOMA","WA",98405,47.2531585040001,-122.449059708,172,"1010 SOUTH I STREET, TACOMA, WA, 98405","Match","Exact","1010 S I ST, TACOMA, WA, 98405",184646865,"R"
6173,"1010 SOUTH NEW YORK AVENUE","WELLSTON","OH",45692,39.1149712870001,-82.532656832,173,"1010 SOUTH NEW YORK AVENUE, WELLSTON, OH, 45692","Match","Exact","1010 S NEW YORK AVE, WELLSTON, OH, 45692",54773079,"R"
6174,"1010 SOUTH PARK BLVD","FREEPORT","IL",61032,42.289368955,-89.6513005319999,174,"1010 SOUTH PARK BLVD, FREEPORT, IL, 61032","Match","Exact","1010 S PARK BLVD, FREEPORT, IL, 61032",32693672,"L"
6175,"1010 SOUTH WEINBACH AVENUE","EVANSVILLE","IN",47714,37.9623958170001,-87.5296680499999,175,"1010 SOUTH WEINBACH AVENUE, EVANSVILLE, IN, 47714","Match","Exact","1010 S WEINBACH AVE, EVANSVILLE, IN, 47714",39786131,"L"
6176,"1010 ST PAUL STREET SUITE 10M","BALTMORE","MD",21202,39.301315812,-76.614341123,176,"1010 ST PAUL STREET SUITE 10M, BALTMORE, MD, 21202","Match","Non_Exact","1010 SAINT PAUL ST, BALTIMORE, MD, 21202",206419288,"L"
6177,"1010 STATE ROUTE 22","TIPTONVILLE","TN",38079,NA,NA,177,"1010 STATE ROUTE 22, TIPTONVILLE, TN, 38079","No_Match",NA,NA,NA,NA
6178,"1010 STATE ST","WINTERS","TX",79567,31.9569429690001,-99.97418907,178,"1010 STATE ST, WINTERS, TX, 79567","Match","Exact","1010 STATE ST, WINTERS, TX, 79567",129886449,"R"
6179,"1010 STEELHEAD CT","KENAI","AK",99611,60.562746707,-151.203781581,179,"1010 STEELHEAD CT, KENAI, AK, 99611","Match","Non_Exact","1010 STEELHEAD ST, KENAI, AK, 99611",190995936,"R"
6180,"1010 STONEBROOK LANE","GASTONIA","NC",28056,35.2890619200001,-81.084913899,180,"1010 STONEBROOK LANE, GASTONIA, NC, 28056","Match","Exact","1010 STONEBROOK LN, GASTONIA, NC, 28056",633795610,"R"
6181,"1010 SW 1ST AVE","OCALA","FL",34471,29.1790208200001,-82.1378767589999,181,"1010 SW 1ST AVE, OCALA, FL, 34471","Match","Exact","1010 SW 1ST AVE, OCALA, FL, 34471",116726436,"R"
6182,"1010 TAYLOR STREET NE","WASHINGTON","DC",20017,38.940733923,-76.992237394,182,"1010 TAYLOR STREET NE, WASHINGTON, DC, 20017","Match","Exact","1010 TAYLOR ST NE, WASHINGTON, DC, 20017",76228214,"L"
6183,"1010 TIMBERIDGE TRAIL","EAGLE LAKE","MN",56024,44.1570627300001,-93.887086056,183,"1010 TIMBERIDGE TRAIL, EAGLE LAKE, MN, 56024","Match","Exact","1010 TIMBERIDGE TRL, EAGLE LAKE, MN, 56024",653423204,"L"
6184,"1010 TRENT DR","LAREDO","TX",78046,27.487812595,-99.439952982,184,"1010 TRENT DR, LAREDO, TX, 78046","Match","Exact","1010 TRENT DR, LAREDO, TX, 78046",21693416,"R"
6185,"1010 VINTAGE CT","FAIRBURN","GA",30213,33.5593170710001,-84.615494359,185,"1010 VINTAGE CT, FAIRBURN, GA, 30213","Match","Exact","1010 VINTAGE CT, FAIRBURN, GA, 30213",627738998,"R"
6186,"1010 VIRGINIA WAY","JACKSON","MI",49201,42.3125522490001,-84.4059335159999,186,"1010 VIRGINIA WAY, JACKSON, MI, 49201","Match","Exact","1010 VIRGINIA WAY, JACKSON, MI, 49201",17627073,"L"
6187,"1010 W AVE B MSC 131","KINGSVILLE","TX",78363,NA,NA,187,"1010 W AVE B MSC 131, KINGSVILLE, TX, 78363","No_Match",NA,NA,NA,NA
6188,"1010 W DIVERSEY PKWY APT 2","CHICAGO","IL",60614,41.9326358000001,-87.654359598,188,"1010 W DIVERSEY PKWY APT 2, CHICAGO, IL, 60614","Match","Non_Exact","1010 W DIVERSEY PKWY, CHICAGO, IL, 60614",111764462,"R"
6189,"1010 W LABURNUM AVENUE","RICHMOND","VA",23227,NA,NA,189,"1010 W LABURNUM AVENUE, RICHMOND, VA, 23227","No_Match",NA,NA,NA,NA
6190,"1010 W LAKE ST SUITE 100-117","MINNEAPOLIS","MN",55408,44.9483641360001,-93.292117524,190,"1010 W LAKE ST SUITE 100-117, MINNEAPOLIS, MN, 55408","Match","Non_Exact","1010 W LAKE ST, MINNEAPOLIS, MN, 55408",43628641,"R"
6191,"1010 W LAKE STREET SUITE 100-117","MINNEAPOLIS","MN",55408,44.9483641360001,-93.292117524,191,"1010 W LAKE STREET SUITE 100-117, MINNEAPOLIS, MN, 55408","Match","Non_Exact","1010 W LAKE ST, MINNEAPOLIS, MN, 55408",43628641,"R"
6192,"1010 WALNUT APT 1611","CINCINNATI","OH",45202,39.10664518,-84.5126753389999,192,"1010 WALNUT APT 1611, CINCINNATI, OH, 45202","Match","Non_Exact","1010 WALNUT ST, CINCINNATI, OH, 45202",103936114,"R"
6193,"1010 WALNUT AVE NE","CANTON","OH",44704,40.8063660930001,-81.3701781029999,193,"1010 WALNUT AVE NE, CANTON, OH, 44704","Match","Exact","1010 WALNUT AVE NE, CANTON, OH, 44704",64720210,"R"
6194,"1010 WAYNE AVENUE SUITE 675","SILVER SPRING","MD",20910,38.9945576760001,-77.0271532309999,194,"1010 WAYNE AVENUE SUITE 675, SILVER SPRING, MD, 20910","Match","Exact","1010 WAYNE AVE, SILVER SPRING, MD, 20910",637198964,"L"
6195,"1010 WELLS ST","DURHAM","NC",27707,35.985491876,-78.914808509,195,"1010 WELLS ST, DURHAM, NC, 27707","Match","Exact","1010 WELLS ST, DURHAM, NC, 27707",71740359,"R"
6196,"1010 WEST 56TH PLACE","MERRILLVILLE","IN",46410,41.5160034210001,-87.348098959,196,"1010 WEST 56TH PLACE, MERRILLVILLE, IN, 46410","Match","Exact","1010 W 56TH PL, MERRILLVILLE, IN, 46410",98448852,"R"
6197,"1010 WEST HAYS STREET","BOISE","ID",83702,43.6222767790001,-116.200881534,197,"1010 WEST HAYS STREET, BOISE, ID, 83702","Match","Exact","1010 W HAYS ST, BOISE, ID, 83702",117860088,"R"
6198,"1010 WEST LINEBAUGH AVENUE","TAMPA","FL",33612,28.040003497,-82.468886025,198,"1010 WEST LINEBAUGH AVENUE, TAMPA, FL, 33612","Match","Exact","1010 W LINEBAUGH AVE, TAMPA, FL, 33612",104517593,"L"
6199,"1010 WEST UNIVERSITY DRIVE SUITE 1","MESA","AZ",85201,33.422216871,-111.852734547,199,"1010 WEST UNIVERSITY DRIVE SUITE 1, MESA, AZ, 85201","Match","Exact","1010 W UNIVERSITY DR, MESA, AZ, 85201",128234295,"R"
6200,"1010 WESTERN AVENUE SUITE 500","PITTSBURGH","PA",15233,40.451488189,-80.019091295,200,"1010 WESTERN AVENUE SUITE 500, PITTSBURGH, PA, 15233","Match","Exact","1010 WESTERN AVE, PITTSBURGH, PA, 15233",51626198,"R"
6201,"1010 WILDER AVENUE APT 1201","HONOLULU","HI",96822,21.308516119,-157.84334343,201,"1010 WILDER AVENUE APT 1201, HONOLULU, HI, 96822","Match","Exact","1010 WILDER AVE, HONOLULU, HI, 96822",203237301,"L"
6202,"1010 WILLOW CT","LONGMONT","CO",80503,40.1474365660001,-105.141128068,202,"1010 WILLOW CT, LONGMONT, CO, 80503","Match","Exact","1010 WILLOW CT, LONGMONT, CO, 80503",188189471,"R"
6203,"1010 WILSHIRE BLVD STE 513","LOS ANGELES","CA",90017,34.051559986,-118.261648016,203,"1010 WILSHIRE BLVD STE 513, LOS ANGELES, CA, 90017","Match","Exact","1010 WILSHIRE BLVD, LOS ANGELES, CA, 90017",141616811,"L"
6204,"1010 WOODLAWN  STREET","MEMPHIS","TN",38107,35.1681932970001,-90.033126118,204,"1010 WOODLAWN  STREET, MEMPHIS, TN, 38107","Match","Exact","1010 WOODLAWN ST, MEMPHIS, TN, 38107",72904044,"R"
6205,"1010 WYNDHAM WAY","SAFETY HARBOR","FL",34695,28.004579038,-82.698757751,205,"1010 WYNDHAM WAY, SAFETY HARBOR, FL, 34695","Match","Exact","1010 WYNDHAM WAY, SAFETY HARBOR, FL, 34695",124734968,"L"
6206,"1010 ZENOBIA RD","NORWALK","OH",44857,41.204115465,-82.554729531,206,"1010 ZENOBIA RD, NORWALK, OH, 44857","Match","Exact","1010 ZENOBIA RD, NORWALK, OH, 44857",12618862,"R"
6207,"10100 203RD AVE NE","REDMOND","WA",98053,47.6888753790001,-122.069477788,207,"10100 203RD AVE NE, REDMOND, WA, 98053","Match","Exact","10100 203RD AVE NE, REDMOND, WA, 98053",648558634,"R"
6208,"10100 BEECHNUT STREET  SUITE 200","HOUSTON","TX",77072,NA,NA,208,"10100 BEECHNUT STREET  SUITE 200, HOUSTON, TX, 77072","No_Match",NA,NA,NA,NA
6209,"10100 BLUEGRASS PKWY","LOUISVILLE","KY",40299,38.222466094,-85.563714513,209,"10100 BLUEGRASS PKWY, LOUISVILLE, KY, 40299","Match","Exact","10100 BLUEGRASS PKWY, LOUISVILLE, KY, 40299",621134862,"R"
6210,"10100 BRIDGEWATER DR","MCKINNEY","TX",75072,33.2022446340001,-96.752373875,210,"10100 BRIDGEWATER DR, MCKINNEY, TX, 75072","Match","Exact","10100 BRIDGEWATER DR, MCKINNEY, TX, 75072",641653205,"R"
6211,"10100 BURNET ROAD NUM R7600","AUSTIN","TX",78758,NA,NA,211,"10100 BURNET ROAD NUM R7600, AUSTIN, TX, 78758","No_Match",NA,NA,NA,NA
6212,"10100 DEAN CHASE BLVD","ORLANDO","FL",32825,28.553648814,-81.243307097,212,"10100 DEAN CHASE BLVD, ORLANDO, FL, 32825","Match","Exact","10100 DEAN CHASE BLVD, ORLANDO, FL, 32825",94372223,"R"
6213,"10100 E GOLF LINKS RD","TUCSON","AZ",85730,32.1917727790001,-110.775941151,213,"10100 E GOLF LINKS RD, TUCSON, AZ, 85730","Match","Exact","10100 E GOLF LINKS RD, TUCSON, AZ, 85730",633211811,"R"
6214,"10100 EMPYREAN WAY APT 304","LOS ANGELES","CA",90067,34.0541864200001,-118.408782762,214,"10100 EMPYREAN WAY APT 304, LOS ANGELES, CA, 90067","Match","Exact","10100 EMPYREAN WAY, LOS ANGELES, CA, 90067",142445346,"L"
6215,"10100 FOXES WAY","KING GEORGE","VA",22485,38.2751906610001,-77.195721866,215,"10100 FOXES WAY, KING GEORGE, VA, 22485","Match","Exact","10100 FOXES WAY, KING GEORGE, VA, 22485",641746637,"R"
6216,"10100 GOLDFINCH CT","CLINTON","MD",20613,38.7505879440001,-76.8917791659999,216,"10100 GOLDFINCH CT, CLINTON, MD, 20613","Match","Non_Exact","10100 GOLDFINCH CT, CLINTON, MD, 20735",76343098,"R"
6217,"10100 GOVERNORS DRIVE","CHAPEL HILL","NC",27517,35.854116983,-79.033668371,217,"10100 GOVERNORS DRIVE, CHAPEL HILL, NC, 27517","Match","Exact","10100 GOVERNORS DR, CHAPEL HILL, NC, 27517",71357278,"R"
6218,"10100 GRAND RIVER AVE","DETROIT","MI",48204,42.3701484150001,-83.1424764,218,"10100 GRAND RIVER AVE, DETROIT, MI, 48204","Match","Exact","10100 GRAND RIVER AVE, DETROIT, MI, 48204",95470351,"R"
6219,"10100 GREEN BRANCH CT","ORLANDO","FL",32825,28.5165314590001,-81.2382230869999,219,"10100 GREEN BRANCH CT, ORLANDO, FL, 32825","Match","Exact","10100 GREEN BRANCH CT, ORLANDO, FL, 32825",623955949,"R"
6220,"10100 HALEY LANE 104","WHITMORE LAKE","MI",48189,42.4292978390001,-83.742772795,220,"10100 HALEY LANE 104, WHITMORE LAKE, MI, 48189","Match","Exact","10100 HALEY LN, WHITMORE LAKE, MI, 48189",23567284,"L"
6221,"10100 HOSTA COVE","AUSTIN","TX",78750,30.444215333,-97.802110995,221,"10100 HOSTA COVE, AUSTIN, TX, 78750","Match","Exact","10100 HOSTA COVE, AUSTIN, TX, 78750",63992598,"L"
6222,"10100 INDEPENDENCE PKWY","FRISCO","TX",75035,NA,NA,222,"10100 INDEPENDENCE PKWY, FRISCO, TX, 75035","No_Match",NA,NA,NA,NA
6223,"10100 LAMBEAU COURT","ELK GROVE","CA",95757,38.390346654,-121.448018575,223,"10100 LAMBEAU COURT, ELK GROVE, CA, 95757","Match","Exact","10100 LAMBEAU CT, ELK GROVE, CA, 95757",624537360,"R"
6224,"10100 MAPLE AVE","OAK LAWN","IL",60453,41.7087424210001,-87.759157977,224,"10100 MAPLE AVE, OAK LAWN, IL, 60453","Match","Exact","10100 MAPLE AVE, OAK LAWN, IL, 60453",111813242,"R"
6225,"10100 N RTE E","HARRISBURG","MO",65256,39.0755775430001,-92.422213531,225,"10100 N RTE E, HARRISBURG, MO, 65256","Match","Exact","10100 N RTE E, HARRISBURG, MO, 65256",604836850,"L"
6226,"10100 NW 7TH STREET","PLANTATION","FL",33324,26.1297498060001,-80.285192066,226,"10100 NW 7TH STREET, PLANTATION, FL, 33324","Match","Exact","10100 NW 7TH ST, PLANTATION, FL, 33324",114776740,"L"
6227,"10100 PALACE WAY  C","HENRICO","VA",23238,37.595143315,-77.5995834129999,227,"10100 PALACE WAY  C, HENRICO, VA, 23238","Match","Exact","10100 PALACE WAY, HENRICO, VA, 23238",106666597,"L"
6228,"10100 PANTHER WAY 210","WACO","TX",76712,NA,NA,228,"10100 PANTHER WAY 210, WACO, TX, 76712","No_Match",NA,NA,NA,NA
6229,"10100 PARK CEDAR DR  STE 150","CHARLOTTE","NC",28210,35.091919311,-80.865217437,229,"10100 PARK CEDAR DR  STE 150, CHARLOTTE, NC, 28210","Match","Exact","10100 PARK CEDAR DR, CHARLOTTE, NC, 28210",70569413,"R"
6230,"10100 RIDGESIDE CT","STREETSBORO","OH",44223,41.26621226,-81.346899239,230,"10100 RIDGESIDE CT, STREETSBORO, OH, 44223","Match","Non_Exact","10100 RIDGESIDE CT, STREETSBORO, OH, 44241",617297981,"L"
6231,"10100 S MARY MOORE SEARIGHT DRIVE","AUSTIN","TX",78748,30.1737046270001,-97.807473,231,"10100 S MARY MOORE SEARIGHT DRIVE, AUSTIN, TX, 78748","Match","Exact","10100 S MARY MOORE SEARIGHT DR, AUSTIN, TX, 78748",650109259,"R"
6232,"10100 SAN LUIS ST","SOUTH GATE","CA",90280,33.9419505540001,-118.202149754,232,"10100 SAN LUIS ST, SOUTH GATE, CA, 90280","Match","Non_Exact","10100 SAN LUIS AVE, SOUTH GATE, CA, 90280",142764612,"L"
6233,"10100 SE 170TH LANE","SUMMERFIELD","FL",34491,NA,NA,233,"10100 SE 170TH LANE, SUMMERFIELD, FL, 34491","No_Match",NA,NA,NA,NA
6234,"10100 SW 50TH CT","COOPER CITY","FL",33328,26.056288216,-80.2809730559999,234,"10100 SW 50TH CT, COOPER CITY, FL, 33328","Match","Exact","10100 SW 50TH CT, COOPER CITY, FL, 33328",640129289,"L"
6235,"10100 TRINITY PARKWAY STE 310","STOCKTON","CA",95219,38.0465837150001,-121.371367268,235,"10100 TRINITY PARKWAY STE 310, STOCKTON, CA, 95219","Match","Exact","10100 TRINITY PKWY, STOCKTON, CA, 95219",133928778,"L"
6236,"10100 VENICE BLVD STE 217","CULVER CITY","CA",90232,34.0222921050001,-118.400314358,236,"10100 VENICE BLVD STE 217, CULVER CITY, CA, 90232","Match","Exact","10100 VENICE BLVD, CULVER CITY, CA, 90232",141575304,"L"
6237,"10100 VIKING DR NO 200","EDEN PRAIRIE","MN",55244,NA,NA,237,"10100 VIKING DR NO 200, EDEN PRAIRIE, MN, 55244","No_Match",NA,NA,NA,NA
6238,"10101 BRIGHTFIELD LANE","UPPER MARLBORO","MD",20772,38.7860029920001,-76.832718114,238,"10101 BRIGHTFIELD LANE, UPPER MARLBORO, MD, 20772","Match","Exact","10101 BRIGHTFIELD LN, UPPER MARLBORO, MD, 20772",76416516,"R"
6239,"10101 FONDREN RD 254","HOUSTON","TX",77096,NA,NA,239,"10101 FONDREN RD 254, HOUSTON, TX, 77096","No_Match",NA,NA,NA,NA
6240,"10101 FONDREN RD STE 106","HOUSTON","TX",77096,NA,NA,240,"10101 FONDREN RD STE 106, HOUSTON, TX, 77096","No_Match",NA,NA,NA,NA
6241,"10101 FONDREN RD STE 311","HOUSTON","TX",77096,NA,NA,241,"10101 FONDREN RD STE 311, HOUSTON, TX, 77096","No_Match",NA,NA,NA,NA
6242,"10101 FONDREN RD STE 311A","HOUSTON","TX",77096,NA,NA,242,"10101 FONDREN RD STE 311A, HOUSTON, TX, 77096","No_Match",NA,NA,NA,NA
6243,"10101 FONDREN RD STE 400","HOUSTON","TX",77096,NA,NA,243,"10101 FONDREN RD STE 400, HOUSTON, TX, 77096","No_Match",NA,NA,NA,NA
6244,"10101 FONDREN RD STE 454","HOUSTON","TX",77096,NA,NA,244,"10101 FONDREN RD STE 454, HOUSTON, TX, 77096","No_Match",NA,NA,NA,NA
6245,"10101 FONDREN RD STE106","HOUSTON","TX",77096,NA,NA,245,"10101 FONDREN RD STE106, HOUSTON, TX, 77096","No_Match",NA,NA,NA,NA
6246,"10101 FONDREN RD SUITE 400","HOUSTON","TX",77096,NA,NA,246,"10101 FONDREN RD SUITE 400, HOUSTON, TX, 77096","No_Match",NA,NA,NA,NA
6247,"10101 FONDREN STE 311","HOUSTON","TX",77096,NA,NA,247,"10101 FONDREN STE 311, HOUSTON, TX, 77096","No_Match",NA,NA,NA,NA
6248,"10101 GRAND PARK","SAN ANTONIO","TX",78239,29.532173787,-98.372327782,248,"10101 GRAND PARK, SAN ANTONIO, TX, 78239","Match","Exact","10101 GRAND PARK, SAN ANTONIO, TX, 78239",101502565,"L"
6249,"10101 HARWIN DR STE 175","HOUSTON","TX",77036,29.7181073730001,-95.541156127,249,"10101 HARWIN DR STE 175, HOUSTON, TX, 77036","Match","Exact","10101 HARWIN DR, HOUSTON, TX, 77036",96613718,"L"
6250,"10101 J STREET","OMAHA","NE",68127,41.214209048,-96.06976142,250,"10101 J STREET, OMAHA, NE, 68127","Match","Exact","10101 J ST, OMAHA, NE, 68127",116999275,"L"
6251,"10101 MICHELE AVE","BAKERSFIELD","CA",93312,35.393849705,-119.114474392,251,"10101 MICHELE AVE, BAKERSFIELD, CA, 93312","Match","Exact","10101 MICHELE AVE, BAKERSFIELD, CA, 93312",109150987,"R"
6252,"10101 MORRIS BRIDGE ROAD","TAMPA","FL",33637,28.041291012,-82.3523295099999,252,"10101 MORRIS BRIDGE ROAD, TAMPA, FL, 33637","Match","Exact","10101 MORRIS BRIDGE RD, TAMPA, FL, 33637",104605128,"R"
6253,"10101 N CRYSTAL RD","VESTABURG","MI",48891,43.4392028600001,-84.9055739,253,"10101 N CRYSTAL RD, VESTABURG, MI, 48891","Match","Exact","10101 CRYSTAL RD, VESTABURG, MI, 48891",110569572,"L"
6254,"10101 N HIGHWAY 75","WILLIS","TX",77378,NA,NA,254,"10101 N HIGHWAY 75, WILLIS, TX, 77378","No_Match",NA,NA,NA,NA
6255,"10101 N NANCY RD","OKLAHOMA CITY","OK",73131,35.571675122,-97.4561000639999,255,"10101 N NANCY RD, OKLAHOMA CITY, OK, 73131","Match","Exact","10101 NANCY RD, OKLAHOMA CITY, OK, 73131",100448830,"L"
6256,"10101 NORTH STATE ROAD 13","ELWOOD","IN",46036,40.2488076920001,-85.842160656,256,"10101 NORTH STATE ROAD 13, ELWOOD, IN, 46036","Match","Non_Exact","10101 STATE RD 13, ELWOOD, IN, 46036",31108505,"L"
6257,"10101 PARK RUN DRIVE SUITE 150","LAS VEGAS","NV",89145,36.161200906,-115.316476732,257,"10101 PARK RUN DRIVE SUITE 150, LAS VEGAS, NV, 89145","Match","Exact","10101 PARK RUN DR, LAS VEGAS, NV, 89145",627136860,"R"
6258,"10101 S 1ST STREET APT 5312","AUSTIN","TX",78748,30.1572170700001,-97.800304462,258,"10101 S 1ST STREET APT 5312, AUSTIN, TX, 78748","Match","Non_Exact","10101 S 1ST ST, AUSTIN, TX, 78748",624811259,"L"
6259,"10101 S EWING AVE","CHICAGO","IL",60617,41.7118214450001,-87.535269313,259,"10101 S EWING AVE, CHICAGO, IL, 60617","Match","Exact","10101 S EWING AVE, CHICAGO, IL, 60617",111782199,"L"
6260,"10101 S GESSNER  APT 416","HOUSTON","TX",77071,NA,NA,260,"10101 S GESSNER  APT 416, HOUSTON, TX, 77071","No_Match",NA,NA,NA,NA
6261,"10101 SACHS COURT","FREDERICKSBURG","VA",22408,38.2417316180001,-77.4586729169999,261,"10101 SACHS COURT, FREDERICKSBURG, VA, 22408","Match","Exact","10101 SACHS CT, FREDERICKSBURG, VA, 22408",632940762,"R"
6262,"10101 SOUTHWEST FREEWAY STE 400","HOUSTON","TX",77074,NA,NA,262,"10101 SOUTHWEST FREEWAY STE 400, HOUSTON, TX, 77074","No_Match",NA,NA,NA,NA
6263,"10101 SOUTHWEST FREEWAY SUITE 205","HOUSTON","TX",77074,NA,NA,263,"10101 SOUTHWEST FREEWAY SUITE 205, HOUSTON, TX, 77074","No_Match",NA,NA,NA,NA
6264,"10101 SOUTHWEST FREEWAY SUITE 400","HOUSTON","TX",77074,NA,NA,264,"10101 SOUTHWEST FREEWAY SUITE 400, HOUSTON, TX, 77074","No_Match",NA,NA,NA,NA
6265,"10101 SPRINGFIELD BLVD","QUEENS VILLAGE","NY",11429,NA,NA,265,"10101 SPRINGFIELD BLVD, QUEENS VILLAGE, NY, 11429","No_Match",NA,NA,NA,NA
6266,"10101 SUNRISE LAKES BLVD  407","SUNRISE","FL",33322,26.1604642250001,-80.284203271,266,"10101 SUNRISE LAKES BLVD  407, SUNRISE, FL, 33322","Match","Exact","10101 SUNRISE LAKES BLVD, SUNRISE, FL, 33322",650096332,"L"
6267,"10101 SW 152 ST","MIAMI","FL",33157,25.628466829,-80.35662547,267,"10101 SW 152 ST, MIAMI, FL, 33157","Match","Exact","10101 SW 152ND ST, MIAMI, FL, 33157",116048245,"R"
6268,"10101 SW 152ND STREET","MIAMI","FL",33157,25.628466829,-80.35662547,268,"10101 SW 152ND STREET, MIAMI, FL, 33157","Match","Exact","10101 SW 152ND ST, MIAMI, FL, 33157",116048245,"R"
6269,"10101 SW FREEWAY SUITE 400","HOUSTON","TX",77074,NA,NA,269,"10101 SW FREEWAY SUITE 400, HOUSTON, TX, 77074","No_Match",NA,NA,NA,NA
6270,"10101 W OVERLAND RD SUITE 110","BOISE","ID",83709,43.5902829730001,-116.313383694,270,"10101 W OVERLAND RD SUITE 110, BOISE, ID, 83709","Match","Exact","10101 OVERLAND RD, BOISE, ID, 83709",117869428,"L"
6271,"10101 WAXHAW MANOR DRIVE","WAXHAW","NC",28173,34.922008997,-80.766810392,271,"10101 WAXHAW MANOR DRIVE, WAXHAW, NC, 28173","Match","Non_Exact","10101 WAXHAW HWY, WAXHAW, NC, 28173",642171679,"R"
6272,"10102 CRAILET DRIVE","HUNTINGTON BEACH","CA",92646,33.666362206,-117.951441856,272,"10102 CRAILET DRIVE, HUNTINGTON BEACH, CA, 92646","Match","Exact","10102 CRAILET DR, HUNTINGTON BEACH, CA, 92646",144044942,"R"
6273,"10102 CRESTSIDE PL","SPRING VALLEY","CA",91977,32.733163679,-116.97683019,273,"10102 CRESTSIDE PL, SPRING VALLEY, CA, 91977","Match","Exact","10102 CRESTSIDE PL, SPRING VALLEY, CA, 91977",195699420,"L"
6274,"10102 E 19TH ST N","WICHITA","KS",67206,37.718993368,-97.220382617,274,"10102 E 19TH ST N, WICHITA, KS, 67206","Match","Exact","10102 E 19TH ST N, WICHITA, KS, 67206",115715931,"L"
6275,"10102 E WINDEMERE CIR","WICHITA","KS",67226,NA,NA,275,"10102 E WINDEMERE CIR, WICHITA, KS, 67226","Tie",NA,NA,NA,NA
6276,"10102 GRASSRUN RD","NEW MARSHFIELD","OH",45766,39.352217023,-82.245260364,276,"10102 GRASSRUN RD, NEW MARSHFIELD, OH, 45766","Match","Non_Exact","10102 GRASS RUN RD, NEW MARSHFIELD, OH, 45766",37097549,"R"
6277,"10102 KENSAL WAY APT 104","SPOTSYLVANIA","VA",22553,38.2360416500001,-77.53772916,277,"10102 KENSAL WAY APT 104, SPOTSYLVANIA, VA, 22553","Match","Exact","10102 KENSAL WAY, SPOTSYLVANIA, VA, 22553",632076827,"R"
6278,"10102 N MEMORY LN","RATHDRUM","ID",83858,47.762481468,-116.856421142,278,"10102 N MEMORY LN, RATHDRUM, ID, 83858","Match","Exact","10102 N MEMORY LN, RATHDRUM, ID, 83858",192930897,"R"
6279,"10102 NEUENS RD APT B100","HOUSTON","TX",77080,29.806005031,-95.543811111,279,"10102 NEUENS RD APT B100, HOUSTON, TX, 77080","Match","Exact","10102 NEUENS RD, HOUSTON, TX, 77080",96139928,"R"
6280,"10102 S REDWOOD ROAD / 951052","SOUTH JORDAN","UT",84095,40.567500769,-111.938653155,280,"10102 S REDWOOD ROAD / 951052, SOUTH JORDAN, UT, 84095","Match","Non_Exact","10102 S REDWOOD RD, SOUTH JORDAN, UT, 84095",635660926,"L"
6281,"10102 TRAYLOR WAY","GARDEN GROVE","CA",92843,33.7626147830001,-117.953137999,281,"10102 TRAYLOR WAY, GARDEN GROVE, CA, 92843","Match","Exact","10102 TRAYLOR WAY, GARDEN GROVE, CA, 92843",144035847,"R"
6282,"10102 TWO NOTCH RD STE 155","COLUMBIA","SC",29223,NA,NA,282,"10102 TWO NOTCH RD STE 155, COLUMBIA, SC, 29223","No_Match",NA,NA,NA,NA
6283,"10102 VANDERBILT CIRCLE","ROCKVILLE","MD",20850,39.1088921580001,-77.209436889,283,"10102 VANDERBILT CIRCLE, ROCKVILLE, MD, 20850","Match","Exact","10102 VANDERBILT CIR, ROCKVILLE, MD, 20850",62091061,"L"
6284,"10102 WAUNA ST SW","LAKEWOOD","WA",98498,47.1645781940001,-122.562980718,284,"10102 WAUNA ST SW, LAKEWOOD, WA, 98498","Match","Exact","10102 WAUNA ST SW, LAKEWOOD, WA, 98498",184621000,"R"
6285,"10103 ALPINE DR","REED CITY","MI",49677,43.965299058,-85.37914697,285,"10103 ALPINE DR, REED CITY, MI, 49677","Match","Exact","10103 ALPINE DR, REED CITY, MI, 49677",110615829,"L"
6286,"10103 FONDREN RD / SUITE 367","HOUSTON","TX",77096,29.670007212,-95.5085440509999,286,"10103 FONDREN RD / SUITE 367, HOUSTON, TX, 77096","Match","Exact","10103 FONDREN RD, HOUSTON, TX, 77096",96598742,"L"
6287,"10103 HIDDEN MEADOW DR","AUSTIN","TX",78750,30.453668355,-97.7962856519999,287,"10103 HIDDEN MEADOW DR, AUSTIN, TX, 78750","Match","Exact","10103 HIDDEN MEADOW DR, AUSTIN, TX, 78750",620007554,"L"
6288,"10103 MAKELYS WAY","MANASSAS","VA",20110,38.7322771090001,-77.492040699,288,"10103 MAKELYS WAY, MANASSAS, VA, 20110","Match","Exact","10103 MAKELYS WAY, MANASSAS, VA, 20110",76536059,"R"
6289,"10103 RIDGEGATE PARKWAY SUITE 112","LONE TREE","CO",80124,39.5285357720001,-104.873345186,289,"10103 RIDGEGATE PARKWAY SUITE 112, LONE TREE, CO, 80124","Match","Exact","10103 RIDGEGATE PKWY, LONE TREE, CO, 80124",649763913,"L"
6290,"10103 SENATE WAY","CUPERTINO","CA",95014,37.3244437550001,-122.042685889,290,"10103 SENATE WAY, CUPERTINO, CA, 95014","Match","Exact","10103 SENATE WAY, CUPERTINO, CA, 95014",122939828,"L"
6291,"10103 SW 166 CT","MIAMI","FL",33196,25.6737325490001,-80.46500181,291,"10103 SW 166 CT, MIAMI, FL, 33196","Match","Exact","10103 SW 166TH CT, MIAMI, FL, 33196",116090586,"R"
6292,"10104 CONGRESS PLACE","CUPERTINO","CA",95014,37.324752942,-122.043726397,292,"10104 CONGRESS PLACE, CUPERTINO, CA, 95014","Match","Exact","10104 CONGRESS PL, CUPERTINO, CA, 95014",122939826,"R"
6293,"10104 DUMFRIES ROAD","MANASSAS","VA",20110,38.739351592,-77.471729581,293,"10104 DUMFRIES ROAD, MANASSAS, VA, 20110","Match","Exact","10104 DUMFRIES RD, MANASSAS, VA, 20110",76537179,"R"
6294,"10104 FOX HOLLOW DRIVE","PARMA","OH",44130,41.358576052,-81.7565982199999,294,"10104 FOX HOLLOW DRIVE, PARMA, OH, 44130","Match","Exact","10104 FOX HOLLOW DR, PARMA, OH, 44130",61132640,"L"
6295,"10104 HERITAGE LANE","GLEN ALLEN","VA",23060,37.654762867,-77.515607713,295,"10104 HERITAGE LANE, GLEN ALLEN, VA, 23060","Match","Exact","10104 HERITAGE LN, GLEN ALLEN, VA, 23060",106655106,"L"
6296,"10104 LOMA DRIVE","KNOXVILLE","TN",37922,35.882253744,-84.114165731,296,"10104 LOMA DRIVE, KNOXVILLE, TN, 37922","Match","Exact","10104 LOMA DR, KNOXVILLE, TN, 37922",42636842,"L"
6297,"10104 PARKER SPRINGS DRIVE","WACO","TX",76708,31.6245652440001,-97.236719799,297,"10104 PARKER SPRINGS DRIVE, WACO, TX, 76708","Match","Exact","10104 PARKER SPRINGS DR, WACO, TX, 76708",617444129,"L"
6298,"10104 SE 187TH STREET","RENTON","WA",98055,47.4348254710001,-122.206025923,298,"10104 SE 187TH STREET, RENTON, WA, 98055","Match","Exact","10104 SE 187TH ST, RENTON, WA, 98055",239769930,"L"
6299,"10104 SENATE DRIVE SUITE 265","LANHAM","MD",20706,38.952117947,-76.829751675,299,"10104 SENATE DRIVE SUITE 265, LANHAM, MD, 20706","Match","Exact","10104 SENATE DR, LANHAM, MD, 20706",76348279,"R"
6300,"10104 W NORTH AVENUE","MILWAUKEE","WI",53226,43.0603269440001,-88.038892061,300,"10104 W NORTH AVENUE, MILWAUKEE, WI, 53226","Match","Exact","10104 W NORTH AVE, MILWAUKEE, WI, 53226",77727597,"R"
6301,"10105 120TH AVE","WEST OLIVE","MI",49460,42.953060764,-86.0822706659999,301,"10105 120TH AVE, WEST OLIVE, MI, 49460","Match","Exact","10105 120TH AVE, WEST OLIVE, MI, 49460",642174164,"L"
6302,"10105 BANBURRY CROSS DR STE 130","LAS VEGAS","NV",89144,36.1830151630001,-115.316001702,302,"10105 BANBURRY CROSS DR STE 130, LAS VEGAS, NV, 89144","Match","Exact","10105 BANBURRY CROSS DR, LAS VEGAS, NV, 89144",639325951,"L"
6303,"10105 CRAWFORD FARMS DRIVE","KELLER","TX",76244,32.9238443460001,-97.301903774,303,"10105 CRAWFORD FARMS DRIVE, KELLER, TX, 76244","Match","Exact","10105 CRAWFORD FARMS DR, KELLER, TX, 76244",619872621,"L"
6304,"10105 EAST VIA LINDA SUITE 103-167","SCOTTSDALE","AZ",85258,33.573954159,-111.86463617,304,"10105 EAST VIA LINDA SUITE 103-167, SCOTTSDALE, AZ, 85258","Match","Exact","10105 E VIA LINDA, SCOTTSDALE, AZ, 85258",128922433,"L"
6305,"10105 EAST VIA LINDA","SCOTTSDALE","AZ",85258,33.573954159,-111.86463617,305,"10105 EAST VIA LINDA, SCOTTSDALE, AZ, 85258","Match","Exact","10105 E VIA LINDA, SCOTTSDALE, AZ, 85258",128922433,"L"
6306,"10105 EVERGREEN DR","ROWLETT","TX",75089,32.9471490230001,-96.5269914679999,306,"10105 EVERGREEN DR, ROWLETT, TX, 75089","Match","Exact","10105 EVERGREEN DR, ROWLETT, TX, 75089",103256024,"R"
6307,"10105 HOLLY BERRY DRIVE","WEEKI WACHEE","FL",34613,28.571345781,-82.566025214,307,"10105 HOLLY BERRY DRIVE, WEEKI WACHEE, FL, 34613","Match","Exact","10105 HOLLY BERRY DR, WEEKI WACHEE, FL, 34613",85451732,"L"
6308,"10105 LEFFERTS BLVD STE 205","SOUTH RICHMOND HILL","NY",11419,NA,NA,308,"10105 LEFFERTS BLVD STE 205, SOUTH RICHMOND HILL, NY, 11419","No_Match",NA,NA,NA,NA
6309,"10105 N HEDGES AVE","KANSAS CITY","MO",64157,39.2763916590001,-94.4462156879999,309,"10105 N HEDGES AVE, KANSAS CITY, MO, 64157","Match","Exact","10105 N HEDGES AVE, KANSAS CITY, MO, 64157",624639402,"R"
6310,"10105 SIERRA DRIVE","HOUSTON","TX",77051,29.649224013,-95.3744477499999,310,"10105 SIERRA DRIVE, HOUSTON, TX, 77051","Match","Exact","10105 SIERRA DR, HOUSTON, TX, 77051",96088699,"L"
6311,"10105 TURNBULL ROAD","FAYETTEVILLE","NC",28312,34.859669474,-78.6387082689999,311,"10105 TURNBULL ROAD, FAYETTEVILLE, NC, 28312","Match","Exact","10105 TURNBULL RD, FAYETTEVILLE, NC, 28312",64208959,"R"
6312,"10105 ULLSWATER COVE","AUSTIN","TX",78750,30.4275369100001,-97.811161141,312,"10105 ULLSWATER COVE, AUSTIN, TX, 78750","Match","Exact","10105 ULLSWATER COVE, AUSTIN, TX, 78750",64006480,"R"
6313,"10105 VETERANS MEMORIAL DR","WHITMORE LAKE","MI",48189,NA,NA,313,"10105 VETERANS MEMORIAL DR, WHITMORE LAKE, MI, 48189","No_Match",NA,NA,NA,NA
6314,"10105 WEDGE CT","CHARLOTTE","NC",28277,35.0747259990001,-80.790281665,314,"10105 WEDGE CT, CHARLOTTE, NC, 28277","Match","Exact","10105 WEDGE CT, CHARLOTTE, NC, 28277",70495287,"R"
6315,"10105A VALENCIA DRIVE","WACO","TX",76708,31.630397283,-97.240594048,315,"10105A VALENCIA DRIVE, WACO, TX, 76708","Match","Exact","10105 VALENCIA DR, WACO, TX, 76708",621748263,"L"
6316,"10106 BRIAR FOREST DR","HOUSTON","TX",77042,29.747561052,-95.5510780229999,316,"10106 BRIAR FOREST DR, HOUSTON, TX, 77042","Match","Exact","10106 BRIAR FOREST DR, HOUSTON, TX, 77042",96023282,"R"
6317,"10106 CLINTON AVE S","BLOOMINGTON","MN",55420,44.819921423,-93.272070699,317,"10106 CLINTON AVE S, BLOOMINGTON, MN, 55420","Match","Exact","10106 CLINTON AVE S, BLOOMINGTON, MN, 55420",43596522,"R"
6318,"10106 EAST CROSBY LANE","MISSOURI CITY","TX",77459,29.498244298,-95.509974304,318,"10106 EAST CROSBY LANE, MISSOURI CITY, TX, 77459","Match","Exact","10106 E CROSBY LN, MISSOURI CITY, TX, 77459",635234802,"L"
6319,"10106 GREEN VALLEY LANE","HOUSTON","TX",77064,29.9143657700001,-95.56932578,319,"10106 GREEN VALLEY LANE, HOUSTON, TX, 77064","Match","Exact","10106 GREEN VALLEY LN, HOUSTON, TX, 77064",96006332,"R"
6320,"10106 TECHNOLOGY BLVD WEST APT 914","DALLAS","TX",75220,32.858066496,-96.90136191,320,"10106 TECHNOLOGY BLVD WEST APT 914, DALLAS, TX, 75220","Match","Exact","10106 TECHNOLOGY BLVD W, DALLAS, TX, 75220",103203301,"R"
6321,"10106 VICTORIA RIDGE LANE","HOUSTON","TX",77075,29.623549681,-95.236121848,321,"10106 VICTORIA RIDGE LANE, HOUSTON, TX, 77075","Match","Exact","10106 VICTORIA RIDGE LN, HOUSTON, TX, 77075",623814956,"R"
6322,"10106 WESLEY PROVIDENCE PARKWAY","LITHONIA","GA",30038,33.6960882280001,-84.106719852,322,"10106 WESLEY PROVIDENCE PARKWAY, LITHONIA, GA, 30038","Match","Exact","10106 WESLEY PROVIDENCE PKWY, LITHONIA, GA, 30038",636284322,"L"
6323,"10107 GOLDENVIEW PARK LANE","SUGAR LAND","TX",77498,29.6676456920001,-95.640492183,323,"10107 GOLDENVIEW PARK LANE, SUGAR LAND, TX, 77498","Match","Exact","10107 GOLDENVIEW PARK LN, SUGAR LAND, TX, 77498",641081426,"L"
6324,"10107 LEGACY COURT","CLINTON","MD",20735,38.7514885740001,-76.888612225,324,"10107 LEGACY COURT, CLINTON, MD, 20735","Match","Exact","10107 LEGACY CT, CLINTON, MD, 20735",76343138,"R"
6325,"10107 SANDLER RD","JACKSONVILLE","FL",32222,30.232608844,-81.826242775,325,"10107 SANDLER RD, JACKSONVILLE, FL, 32222","Match","Exact","10107 SANDLER RD, JACKSONVILLE, FL, 32222",614099609,"R"
6326,"10107 SIGNAL HILL RD UNIT A","AUSTIN","TX",78737,30.181521445,-97.959992546,326,"10107 SIGNAL HILL RD UNIT A, AUSTIN, TX, 78737","Match","Exact","10107 SIGNAL HILL RD, AUSTIN, TX, 78737",63830269,"R"
6327,"10108 AMIGO AVENUE","NORTHRIDGE","CA",91324,34.253408393,-118.538353142,327,"10108 AMIGO AVENUE, NORTHRIDGE, CA, 91324","Match","Exact","10108 AMIGO AVE, NORTHRIDGE, CA, 91324",141539759,"R"
6328,"10108 EGERTON FARM CT","PARKVILLE","MD",21234,39.40708497,-76.507040079,328,"10108 EGERTON FARM CT, PARKVILLE, MD, 21234","Match","Exact","10108 EGERTON FARM CT, PARKVILLE, MD, 21234",636781865,"L"
6329,"10108 FM 1472","LAREDO","TX",78045,27.592251714,-99.512287939,329,"10108 FM 1472, LAREDO, TX, 78045","Match","Exact","10108 FM 1472, LAREDO, TX, 78045",647942713,"L"
6330,"10108 LAKESHORE DR","CLERMONT","FL",34711,28.494021725,-81.773196051,330,"10108 LAKESHORE DR, CLERMONT, FL, 34711","Match","Exact","10108 LAKESHORE DR, CLERMONT, FL, 34711",617511574,"R"
6331,"10108 LITTLE CREEK CIRCLE","DRIPPING SPRINGS","TX",78620,30.275852679,-98.042098492,331,"10108 LITTLE CREEK CIRCLE, DRIPPING SPRINGS, TX, 78620","Match","Exact","10108 LITTLE CREEK CIR, DRIPPING SPRINGS, TX, 78620",64017396,"R"
6332,"10108 NE 1ST AVE","MIAMI SHORES","FL",33138,25.8679849170001,-80.1956702969999,332,"10108 NE 1ST AVE, MIAMI SHORES, FL, 33138","Match","Non_Exact","10108 NE 1ST AVE, MIAMI SHORES, FL, 33138",116003409,"L"
6333,"10108 NW 53RD ST","SUNRISE","FL",33351,26.1894041360001,-80.286290924,333,"10108 NW 53RD ST, SUNRISE, FL, 33351","Match","Exact","10108 NW 53RD ST, SUNRISE, FL, 33351",114811073,"L"
6334,"10108 PALERMO CIRCLE UNIT 103","TAMPA","FL",33619,27.926409124,-82.342639611,334,"10108 PALERMO CIRCLE UNIT 103, TAMPA, FL, 33619","Match","Exact","10108 PALERMO CIR, TAMPA, FL, 33619",646567473,"L"
6335,"10108 SORIANO ST","DENTON","TX",76207,33.1408517790001,-97.232656032,335,"10108 SORIANO ST, DENTON, TX, 76207","Match","Exact","10108 SORIANO ST, DENTON, TX, 76207",636961361,"L"
6336,"10108 VISTA ALEGRE COURT","BOWIE","MD",20721,38.938332744,-76.831909276,336,"10108 VISTA ALEGRE COURT, BOWIE, MD, 20721","Match","Exact","10108 VISTA ALEGRE CT, BOWIE, MD, 20721",76341914,"R"
6337,"10108 WOODLAND WATCH CT","CHARLOTTE","NC",28277,35.028733765,-80.8181126809999,337,"10108 WOODLAND WATCH CT, CHARLOTTE, NC, 28277","Match","Exact","10108 WOODLAND WATCH CT, CHARLOTTE, NC, 28277",625272505,"R"
6338,"10109 CLAIRMEL COURT","ORLANDO","FL",32817,28.610445601,-81.2415917929999,338,"10109 CLAIRMEL COURT, ORLANDO, FL, 32817","Match","Exact","10109 CLAIRMEL CT, ORLANDO, FL, 32817",94304804,"R"
6339,"10109 COLONY DR","WACO","TX",76708,31.624081518,-97.241168288,339,"10109 COLONY DR, WACO, TX, 76708","Match","Exact","10109 COLONY DR, WACO, TX, 76708",617443288,"R"
6340,"10109 E 63RD STREET","RAYTOWN","MO",64133,39.0087358590001,-94.461613394,340,"10109 E 63RD STREET, RAYTOWN, MO, 64133","Match","Exact","10109 E 63RD ST, RAYTOWN, MO, 64133",91466699,"R"
6341,"10109 EGERTON FARM CT","PARKVILLE","MD",21234,39.407084366,-76.5070259089999,341,"10109 EGERTON FARM CT, PARKVILLE, MD, 21234","Match","Exact","10109 EGERTON FARM CT, PARKVILLE, MD, 21234",636781865,"R"
6342,"10109 ELYS FORD RD","FREDERICKSBURG","VA",22407,38.344915563,-77.670856169,342,"10109 ELYS FORD RD, FREDERICKSBURG, VA, 22407","Match","Exact","10109 ELYS FORD RD, FREDERICKSBURG, VA, 22407",228788296,"R"
6343,"10109 FAIRWAY RIDGE ROAD","CHARLOTTE","NC",28277,35.064680509,-80.792068103,343,"10109 FAIRWAY RIDGE ROAD, CHARLOTTE, NC, 28277","Match","Exact","10109 FAIRWAY RIDGE RD, CHARLOTTE, NC, 28277",70495569,"L"
6344,"10109 KRAUSE RD SUITE 203","CHESTERFIELD","VA",23832,37.3741041000001,-77.5055764809999,344,"10109 KRAUSE RD SUITE 203, CHESTERFIELD, VA, 23832","Match","Exact","10109 KRAUSE RD, CHESTERFIELD, VA, 23832",201580509,"R"
6345,"10109 LAKE CREEK PKWY 171003","AUSTIN","TX",78729,30.4645246630001,-97.788456276,345,"10109 LAKE CREEK PKWY 171003, AUSTIN, TX, 78729","Match","Exact","10109 LAKE CREEK PKWY, AUSTIN, TX, 78729",126476082,"R"
6346,"10109 LONDONSHIRE LANE","TAMPA","FL",33647,28.155291721,-82.323922511,346,"10109 LONDONSHIRE LANE, TAMPA, FL, 33647","Match","Exact","10109 LONDONSHIRE LN, TAMPA, FL, 33647",104584916,"R"
6347,"10109 S 600 W","UNION MILLS","IN",46382,41.4610402370001,-86.8147439909999,347,"10109 S 600 W, UNION MILLS, IN, 46382","Match","Exact","10109 S 600 W, UNION MILLS, IN, 46382",15401432,"R"
6348,"10109 SAW MILL ROAD","CHARLOTTE","NC",28278,35.153927072,-81.005305699,348,"10109 SAW MILL ROAD, CHARLOTTE, NC, 28278","Match","Exact","10109 SAW MILL RD, CHARLOTTE, NC, 28278",70470371,"R"
6349,"10109 STANTON CT","ORLANDO","FL",32836,28.4242607080001,-81.48932164,349,"10109 STANTON CT, ORLANDO, FL, 32836","Match","Exact","10109 STANTON CT, ORLANDO, FL, 32836",94400652,"L"
6350,"10109 W DARTMOUTH PLACE UNIT 302","LAKEWOOD","CO",80227,39.6606275030001,-105.114726677,350,"10109 W DARTMOUTH PLACE UNIT 302, LAKEWOOD, CO, 80227","Match","Non_Exact","10109 W DARTMOUTH PL, LAKEWOOD, CO, 80227",611254657,"R"
6351,"101090 N FOOTHILL BLVD APT F14","CUPERTINO","CA",95014,NA,NA,351,"101090 N FOOTHILL BLVD APT F14, CUPERTINO, CA, 95014","No_Match",NA,NA,NA,NA
6352,"1011  MARION AVENUE","FAIRMONT","WV",26554,39.4720303560001,-80.165583166,352,"1011  MARION AVENUE, FAIRMONT, WV, 26554","Match","Exact","1011 MARION AVE, FAIRMONT, WV, 26554",51436579,"L"
6353,"1011 12TH STREET STE 201","HOOD RIVER","OR",97031,45.7030162520001,-121.523638136,353,"1011 12TH STREET STE 201, HOOD RIVER, OR, 97031","Match","Exact","1011 12TH ST, HOOD RIVER, OR, 97031",158132840,"R"
6354,"1011 4TH ST NW APT 515","WASHINGTON","DC",20001,38.902722281,-77.016165071,354,"1011 4TH ST NW APT 515, WASHINGTON, DC, 20001","Match","Exact","1011 4TH ST NW, WASHINGTON, DC, 20001",76226517,"R"
6355,"1011 4TH ST","FULTON","IL",61252,41.8670113090001,-90.1656906219999,355,"1011 4TH ST, FULTON, IL, 61252","Match","Exact","1011 4TH ST, FULTON, IL, 61252",48973598,"R"
6356,"1011 5TH ST N","SAINT PETERSBURG","FL",33701,27.782468457,-82.640611678,356,"1011 5TH ST N, SAINT PETERSBURG, FL, 33701","Match","Exact","1011 5TH ST N, SAINT PETERSBURG, FL, 33701",124707207,"R"
6357,"1011 6TH AVE N","LEWISTOWN","MT",59457,47.068237821,-109.436059397,357,"1011 6TH AVE N, LEWISTOWN, MT, 59457","Match","Exact","1011 6TH AVE N, LEWISTOWN, MT, 59457",170590609,"L"
6358,"1011 8TH AVE EAST","BRADENTON","FL",34208,27.4929621750001,-82.553274963,358,"1011 8TH AVE EAST, BRADENTON, FL, 34208","Match","Exact","1011 8TH AVE E, BRADENTON, FL, 34208",16236555,"L"
6359,"1011 ALBIN STREET","LARAMIE","WY",82072,41.3308916290001,-105.581999595,359,"1011 ALBIN STREET, LARAMIE, WY, 82072","Match","Non_Exact","1011 E ALBIN ST, LARAMIE, WY, 82072",168739527,"R"
6360,"1011 ANN DRIVE","ARNAUDVILLE","LA",70512,NA,NA,360,"1011 ANN DRIVE, ARNAUDVILLE, LA, 70512","No_Match",NA,NA,NA,NA
6361,"1011 ARDMORE TRAIL","HOSCHTON","GA",30548,34.0816618600001,-83.834389383,361,"1011 ARDMORE TRAIL, HOSCHTON, GA, 30548","Match","Exact","1011 ARDMORE TRL, HOSCHTON, GA, 30548",628073881,"R"
6362,"1011 AVALON AVE","FOSTER CITY","CA",94404,37.540424246,-122.270741002,362,"1011 AVALON AVE, FOSTER CITY, CA, 94404","Match","Exact","1011 AVALON AVE, FOSTER CITY, CA, 94404",627124117,"L"
6363,"1011 AVENUE F","RIVIERA BEACH","FL",33404,26.771029082,-80.058569088,363,"1011 AVENUE F, RIVIERA BEACH, FL, 33404","Match","Exact","1011 AVE F, RIVIERA BEACH, FL, 33404",115531524,"L"
6364,"1011 BEAUMONT AVENUE","BALTIMORE","MD",21212,39.3509389120001,-76.601382338,364,"1011 BEAUMONT AVENUE, BALTIMORE, MD, 21212","Match","Exact","1011 BEAUMONT AVE, BALTIMORE, MD, 21212",206408554,"R"
6365,"1011 BIOLOGICAL SCIENCES III","IRVINE","CA",92697,NA,NA,365,"1011 BIOLOGICAL SCIENCES III, IRVINE, CA, 92697","No_Match",NA,NA,NA,NA
6366,"1011 BIRCHSTONE DR","MISSOURI CITY","TX",77459,29.605223731,-95.5729239089999,366,"1011 BIRCHSTONE DR, MISSOURI CITY, TX, 77459","Match","Exact","1011 BIRCHSTONE DR, MISSOURI CITY, TX, 77459",637819922,"R"
6367,"1011 BLUE LANTERN DRIVE","HENDERSON","NV",89015,36.021267546,-114.948075681,367,"1011 BLUE LANTERN DRIVE, HENDERSON, NV, 89015","Match","Exact","1011 BLUE LANTERN DR, HENDERSON, NV, 89015",201928408,"R"
6368,"1011 BROADWAY","VANCOUVER","WA",98660,45.6288791790001,-122.670507987,368,"1011 BROADWAY, VANCOUVER, WA, 98660","Match","Non_Exact","1011 BROADWAY ST, VANCOUVER, WA, 98660",158325707,"R"
6369,"1011 BUSH CT SW","EYOTA","MN",55934,43.9765024610001,-92.2348742779999,369,"1011 BUSH CT SW, EYOTA, MN, 55934","Match","Exact","1011 BUSH CT SW, EYOTA, MN, 55934",30576120,"R"
6370,"1011 CEDARBROOK CIRCLE","GRAND PRAIRIE","TX",75052,32.698743404,-97.018809473,370,"1011 CEDARBROOK CIRCLE, GRAND PRAIRIE, TX, 75052","Match","Non_Exact","1011 CEDARBROOK DR, GRAND PRAIRIE, TX, 75052",103277298,"R"
6371,"1011 CHARLES STREET","FREDERICKSBURG","VA",22406,38.303062277,-77.461772463,371,"1011 CHARLES STREET, FREDERICKSBURG, VA, 22406","Match","Non_Exact","1011 CHARLES ST, FREDERICKSBURG, VA, 22401",85005258,"R"
6372,"1011 CLUSTER SPRINGS SCHOOL RD","SOUTH BOSTON","VA",24592,36.6278241810001,-78.913717564,372,"1011 CLUSTER SPRINGS SCHOOL RD, SOUTH BOSTON, VA, 24592","Match","Exact","1011 CLUSTER SPRINGS SCHOOL RD, SOUTH BOSTON, VA, 24592",90332173,"R"
6373,"1011 COLLIER RUN RD","MIDDLE RIVER","MD",21220,39.352862197,-76.419346893,373,"1011 COLLIER RUN RD, MIDDLE RIVER, MD, 21220","Match","Exact","1011 COLLIER RUN RD, MIDDLE RIVER, MD, 21220",648268079,"L"
6374,"1011 COMMERCIAL ST","CENTRAL CITY","IA",52214,42.2050654670001,-91.517979995,374,"1011 COMMERCIAL ST, CENTRAL CITY, IA, 52214","Match","Exact","1011 COMMERCIAL ST, CENTRAL CITY, IA, 52214",17013686,"R"
6375,"1011 COMMERCIAL STREET NE","SALEM","OR",97301,44.9504970610001,-123.035654622,375,"1011 COMMERCIAL STREET NE, SALEM, OR, 97301","Match","Exact","1011 COMMERCIAL ST NE, SALEM, OR, 97301",613688286,"L"
6376,"1011 COUNY ROAD 818","LOGAN","AL",35098,NA,NA,376,"1011 COUNY ROAD 818, LOGAN, AL, 35098","No_Match",NA,NA,NA,NA
6377,"1011 CREST RIDGE PL SW","MARIETTA","GA",30060,33.885789049,-84.584756871,377,"1011 CREST RIDGE PL SW, MARIETTA, GA, 30060","Match","Exact","1011 CREST RIDGE PL SW, MARIETTA, GA, 30060",618320329,"R"
6378,"1011 CROOKED CREEK COVE","NICEVILLE","FL",32578,30.526295712,-86.45692788,378,"1011 CROOKED CREEK COVE, NICEVILLE, FL, 32578","Match","Exact","1011 CROOKED CREEK COVE, NICEVILLE, FL, 32578",651734603,"L"
6379,"1011 CYPRESS DRIVE","TUNICA","MS",38676,34.644306542,-90.35517243,379,"1011 CYPRESS DRIVE, TUNICA, MS, 38676","Match","Exact","1011 CYPRESS DR, TUNICA, MS, 38676",121813178,"L"
6380,"1011 DOUGLAS STREET NE","WASHINGTON","DC",20018,38.923506806,-76.9920697439999,380,"1011 DOUGLAS STREET NE, WASHINGTON, DC, 20018","Match","Exact","1011 DOUGLAS ST NE, WASHINGTON, DC, 20018",76228910,"R"
6381,"1011 E 67 ST APT 1024","TULSA","OK",74136,36.066129382,-95.9754394399999,381,"1011 E 67 ST APT 1024, TULSA, OK, 74136","Match","Non_Exact","1011 E 67TH ST, TULSA, OK, 74136",166504835,"L"
6382,"1011 E BROMPTON DR","PEARLAND","TX",77584,29.5745394160001,-95.3785453099999,382,"1011 E BROMPTON DR, PEARLAND, TX, 77584","Match","Exact","1011 E BROMPTON DR, PEARLAND, TX, 77584",116567640,"R"
6383,"1011 E HARWOOD ST","ORLANDO","FL",32803,28.548541648,-81.366203276,383,"1011 E HARWOOD ST, ORLANDO, FL, 32803","Match","Exact","1011 E HARWOOD ST, ORLANDO, FL, 32803",94282248,"L"
6384,"1011 E MARKET STREET","LOGANSPORT","IN",46947,40.7543532390001,-86.3567962609999,384,"1011 E MARKET STREET, LOGANSPORT, IN, 46947","Match","Exact","1011 E MARKET ST, LOGANSPORT, IN, 46947",27185618,"R"
6385,"1011 EAST CHURCH STREET","CUERO","TX",77954,29.0875260560001,-97.2812040599999,385,"1011 EAST CHURCH STREET, CUERO, TX, 77954","Match","Exact","1011 E CHURCH ST, CUERO, TX, 77954",624695609,"L"
6386,"1011 FARMINGTON AVE","FARMINGTON","NM",87401,36.7411152,-108.179794875,386,"1011 FARMINGTON AVE, FARMINGTON, NM, 87401","Match","Exact","1011 FARMINGTON AVE, FARMINGTON, NM, 87401",127415893,"L"
6387,"1011 FELL STREET APARTMENT A","SAN FRANCISCO","CA",94117,37.7744410220001,-122.434562541,387,"1011 FELL STREET APARTMENT A, SAN FRANCISCO, CA, 94117","Match","Exact","1011 FELL ST, SAN FRANCISCO, CA, 94117",192283421,"L"
6388,"1011 FERNDALE DR","THOMASVILLE","NC",27360,35.8627587620001,-80.084059643,388,"1011 FERNDALE DR, THOMASVILLE, NC, 27360","Match","Exact","1011 FERNDALE DR, THOMASVILLE, NC, 27360",20229084,"R"
6389,"1011 FIRST STREET SE","WASHINGTON","DC",20003,38.878263842,-77.005887776,389,"1011 FIRST STREET SE, WASHINGTON, DC, 20003","Match","Exact","1011 1ST ST SE, WASHINGTON, DC, 20003",76227213,"R"
6390,"1011 GARDEN STREET","HOBOKEN","NJ",7030,40.7490967480001,-74.029189485,390,"1011 GARDEN STREET, HOBOKEN, NJ, 7030","Match","Exact","1011 GARDEN ST, HOBOKEN, NJ, 07030",59606841,"R"
6391,"1011 GREGORY JON CT","INDIAN LAND","SC",29707,34.9409624370001,-80.857901039,391,"1011 GREGORY JON CT, INDIAN LAND, SC, 29707","Match","Exact","1011 GREGORY JON CT, INDIAN LAND, SC, 29707",645294477,"L"
6392,"1011 GREYSTONE DRIVE","MORGANTOWN","WV",26508,39.6798419190001,-79.858234682,392,"1011 GREYSTONE DRIVE, MORGANTOWN, WV, 26508","Match","Non_Exact","1011 GREYSTONE CIR, MORGANTOWN, WV, 26508",50774287,"R"
6393,"1011 HAMPSHIRE LN","CARROLLTON","TX",75007,32.993297139,-96.910694405,393,"1011 HAMPSHIRE LN, CARROLLTON, TX, 75007","Match","Exact","1011 HAMPSHIRE LN, CARROLLTON, TX, 75007",103351840,"L"
6394,"1011 HARAL PLACE","CHERRY HILL","NJ",8034,39.886687243,-75.0138282789999,394,"1011 HARAL PLACE, CHERRY HILL, NJ, 8034","Match","Exact","1011 HARAL PL, CHERRY HILL, NJ, 08034",134355219,"R"
6395,"1011 HEGLAR ST","CHINA GROVE","NC",28023,35.570022517,-80.5662507119999,395,"1011 HEGLAR ST, CHINA GROVE, NC, 28023","Match","Exact","1011 HEGLAR ST, CHINA GROVE, NC, 28023",637995219,"L"
6396,"1011 HICKAM ROAD","MIDDLE RIVER","MD",21220,39.3485045150001,-76.448779169,396,"1011 HICKAM ROAD, MIDDLE RIVER, MD, 21220","Match","Exact","1011 HICKAM RD, MIDDLE RIVER, MD, 21220",191480607,"L"
6397,"1011 HUNTER AVE","NORTH MYRTLE BEACH","SC",29582,33.838544153,-78.645744507,397,"1011 HUNTER AVE, NORTH MYRTLE BEACH, SC, 29582","Match","Non_Exact","1011 HUNTER ST, N MYRTLE BCH, SC, 29582",29084744,"L"
6398,"1011 INDIANAPOLIS RD","GREENCASTLE","IN",46135,39.646254157,-86.839655997,398,"1011 INDIANAPOLIS RD, GREENCASTLE, IN, 46135","Match","Exact","1011 INDIANAPOLIS RD, GREENCASTLE, IN, 46135",50103813,"R"
6399,"1011 INDIANAPOLIS ROAD","GREENCASTLE","IN",46135,39.646254157,-86.839655997,399,"1011 INDIANAPOLIS ROAD, GREENCASTLE, IN, 46135","Match","Exact","1011 INDIANAPOLIS RD, GREENCASTLE, IN, 46135",50103813,"R"
6400,"1011 IRVING ST NE","WASHINGTON","DC",20017,38.928511686,-76.9922196479999,400,"1011 IRVING ST NE, WASHINGTON, DC, 20017","Match","Exact","1011 IRVING ST NE, WASHINGTON, DC, 20017",76228748,"R"
6401,"1011 JEROME STREET","BALDWIN","NY",11510,40.6306699360001,-73.600835522,401,"1011 JEROME STREET, BALDWIN, NY, 11510","Match","Exact","1011 JEROME ST, BALDWIN, NY, 11510",147638065,"L"
6402,"1011 KENOWA","LUDINGTON","MI",49431,43.9646550570001,-86.431198788,402,"1011 KENOWA, LUDINGTON, MI, 49431","Match","Non_Exact","1011 KENOWA DR, LUDINGTON, MI, 49431",148066498,"R"
6403,"1011 LAKE RIDGE DR UNIT 305","TRAVERSE CITY","MI",49684,44.753299881,-85.616546165,403,"1011 LAKE RIDGE DR UNIT 305, TRAVERSE CITY, MI, 49684","Match","Exact","1011 LAKE RIDGE DR, TRAVERSE CITY, MI, 49684",649419922,"R"
6404,"1011 LARCH AVENUE","TAKOMA PARK","MD",20912,38.977429267,-76.991482816,404,"1011 LARCH AVENUE, TAKOMA PARK, MD, 20912","Match","Exact","1011 LARCH AVE, TAKOMA PARK, MD, 20912",76303231,"R"
6405,"1011 LASCALA DR","WINDERMERE","FL",34786,28.5291492800001,-81.544967446,405,"1011 LASCALA DR, WINDERMERE, FL, 34786","Match","Exact","1011 LASCALA DR, WINDERMERE, FL, 34786",94408359,"L"
6406,"1011 LINCOLNTON ROAD","SALISBURY","NC",28144,35.665518182,-80.494691439,406,"1011 LINCOLNTON ROAD, SALISBURY, NC, 28144","Match","Exact","1011 LINCOLNTON RD, SALISBURY, NC, 28144",25267634,"L"
6407,"1011 LINDA VISTA AVE SUITE 5","DAYTON","OH",45405,39.7772107110001,-84.215648221,407,"1011 LINDA VISTA AVE SUITE 5, DAYTON, OH, 45405","Match","Exact","1011 LINDA VISTA AVE, DAYTON, OH, 45405",143569639,"L"
6408,"1011 LYNDE DRIVE","FRIDLEY","MN",55432,45.070379776,-93.244486996,408,"1011 LYNDE DRIVE, FRIDLEY, MN, 55432","Match","Non_Exact","1011 LYNDE DR NE, FRIDLEY, MN, 55432",97490359,"L"
6409,"1011 MADISON LANE","FALLS CHURCH","VA",22046,38.8889477020001,-77.18958715,409,"1011 MADISON LANE, FALLS CHURCH, VA, 22046","Match","Exact","1011 MADISON LN, FALLS CHURCH, VA, 22046",75978432,"L"
6410,"1011 MAIN STREET","BOULDER","CO",80302,40.0626710330001,-105.413367117,410,"1011 MAIN STREET, BOULDER, CO, 80302","Match","Exact","1011 MAIN ST, BOULDER, CO, 80302",188199195,"L"
6411,"1011 MAUREEN DRIVE","FREDERICKSBURG","VA",22401,38.311064634,-77.489167583,411,"1011 MAUREEN DRIVE, FREDERICKSBURG, VA, 22401","Match","Exact","1011 MAUREEN DR, FREDERICKSBURG, VA, 22401",616383742,"R"
6412,"1011 MCDANIEL AVE","EVANSTON","IL",60202,42.035902584,-87.7085725859999,412,"1011 MCDANIEL AVE, EVANSTON, IL, 60202","Match","Exact","1011 MCDANIEL AVE, EVANSTON, IL, 60202",111740530,"R"
6413,"1011 N CEDAR ST","SPOKANE","WA",99201,47.6663569350001,-117.43259398,413,"1011 N CEDAR ST, SPOKANE, WA, 99201","Match","Exact","1011 N CEDAR ST, SPOKANE, WA, 99201",605659732,"L"
6414,"1011 N WALNUT ST","NORMAL","IL",61761,40.5192021660001,-88.980312012,414,"1011 N WALNUT ST, NORMAL, IL, 61761","Match","Exact","1011 N WALNUT ST, NORMAL, IL, 61761",636386749,"L"
6415,"1011 NE TILLAMOOK APT 7","PORTLAND","OR",97212,NA,NA,415,"1011 NE TILLAMOOK APT 7, PORTLAND, OR, 97212","No_Match",NA,NA,NA,NA
6416,"1011 NE WILLIAMSBURG CT","ANKENY","IA",50021,41.739976272,-93.5671740399999,416,"1011 NE WILLIAMSBURG CT, ANKENY, IA, 50021","Match","Exact","1011 NE WILLIAMSBURG CT, ANKENY, IA, 50021",640790645,"R"
6417,"1011 NEILSON STREET 6G","FAR ROCKAWAY","NY",11691,NA,NA,417,"1011 NEILSON STREET 6G, FAR ROCKAWAY, NY, 11691","No_Match",NA,NA,NA,NA
6418,"1011 NIMITZ CT","HENDERSON","NV",89002,35.9978887410001,-114.979337425,418,"1011 NIMITZ CT, HENDERSON, NV, 89002","Match","Exact","1011 NIMITZ CT, HENDERSON, NV, 89002",201927893,"R"
6419,"1011 NORTH 16TH STREET","HARRISBURG","PA",17103,40.2749350010001,-76.8700411519999,419,"1011 NORTH 16TH STREET, HARRISBURG, PA, 17103","Match","Exact","1011 N 16TH ST, HARRISBURG, PA, 17103",70817901,"R"
6420,"1011 NORTHWOOD DR","GALESBURG","IL",61401,40.863331321,-90.350038922,420,"1011 NORTHWOOD DR, GALESBURG, IL, 61401","Match","Exact","1011 NORTHWOOD DR, GALESBURG, IL, 61401",9044375,"L"
6421,"1011 NW 142ND STREET","MIAMI","FL",33168,25.904604127,-80.215892847,421,"1011 NW 142ND STREET, MIAMI, FL, 33168","Match","Exact","1011 NW 142ND ST, MIAMI, FL, 33168",116033213,"R"
6422,"1011 OHIO AVE APT 11","LONG BEACH","CA",90804,33.7792734700001,-118.160050017,422,"1011 OHIO AVE APT 11, LONG BEACH, CA, 90804","Match","Exact","1011 OHIO AVE, LONG BEACH, CA, 90804",141701252,"L"
6423,"1011 OLD BUFFALO LANE","NEW MARKET","VA",22844,38.649649067,-78.625337851,423,"1011 OLD BUFFALO LANE, NEW MARKET, VA, 22844","Match","Exact","1011 OLD BUFFALO LN, NEW MARKET, VA, 22844",55946288,"R"
6424,"1011 OLGA STREET","AMBRIDGE","PA",15003,40.595232681,-80.2094817,424,"1011 OLGA STREET, AMBRIDGE, PA, 15003","Match","Exact","1011 OLGA ST, AMBRIDGE, PA, 15003",52569376,"L"
6425,"1011 ORCHARD AVENUE","CRAB ORCHARD","KY",40419,37.467665072,-84.507145905,425,"1011 ORCHARD AVENUE, CRAB ORCHARD, KY, 40419","Match","Non_Exact","1011 ORCHARD ST, CRAB ORCHARD, KY, 40419",32555443,"R"
6426,"1011 OSAGE ST STE 201","MANHATTAN","KS",66502,39.182588546,-96.5719068509999,426,"1011 OSAGE ST STE 201, MANHATTAN, KS, 66502","Match","Exact","1011 OSAGE ST, MANHATTAN, KS, 66502",27794471,"L"
6427,"1011 OWENS ROAD","OXON HILL","MD",20745,38.8243981910001,-76.992559187,427,"1011 OWENS ROAD, OXON HILL, MD, 20745","Match","Exact","1011 OWENS RD, OXON HILL, MD, 20745",76390276,"R"
6428,"1011 POST DRIVE BOX 3795","SALINAS","CA",93912,36.697807686,-121.670749558,428,"1011 POST DRIVE BOX 3795, SALINAS, CA, 93912","Match","Non_Exact","1011 POST DR, SALINAS, CA, 93907",196853309,"L"
6429,"1011 RAYNER STREET","MEMPHIS","TN",38114,35.11862261,-90.011788471,429,"1011 RAYNER STREET, MEMPHIS, TN, 38114","Match","Exact","1011 RAYNER ST, MEMPHIS, TN, 38114",72908734,"R"
6430,"1011 RHODES VILLA AVE","DELRAY BEACH","FL",33483,26.441847281,-80.0639121089999,430,"1011 RHODES VILLA AVE, DELRAY BEACH, FL, 33483","Match","Exact","1011 RHODES VILLA AVE, DELRAY BEACH, FL, 33483",115537004,"L"
6431,"1011 RIDGEGREEN LOOP N","LAKELAND","FL",33809,28.1458780350001,-81.9363825309999,431,"1011 RIDGEGREEN LOOP N, LAKELAND, FL, 33809","Match","Exact","1011 RIDGEGREEN LOOP N, LAKELAND, FL, 33809",104807568,"L"
6432,"1011 RURAL PLAINS CIRCLE","FRANKLIN","TN",37064,35.8640133930001,-86.8444858999999,432,"1011 RURAL PLAINS CIRCLE, FRANKLIN, TN, 37064","Match","Exact","1011 RURAL PLAINS CIR, FRANKLIN, TN, 37064",648009501,"L"
6433,"1011 RUSSELL PLACE","POMONA","CA",91767,34.077421186,-117.732422232,433,"1011 RUSSELL PLACE, POMONA, CA, 91767","Match","Exact","1011 RUSSELL PL, POMONA, CA, 91767",141734536,"L"
6434,"1011 S ADAMS RD STE B","BIRMINGHAM","MI",48009,NA,NA,434,"1011 S ADAMS RD STE B, BIRMINGHAM, MI, 48009","Tie",NA,NA,NA,NA
6435,"1011 S ALAMO STREET","SAN ANTONIO","TX",78210,29.413591904,-98.491132218,435,"1011 S ALAMO STREET, SAN ANTONIO, TX, 78210","Match","Exact","1011 S ALAMO ST, SAN ANTONIO, TX, 78210",101527137,"R"
6436,"1011 S BROWN AVENUE","TERRE HAUTE","IN",47803,39.4567178300001,-87.3694754639999,436,"1011 S BROWN AVENUE, TERRE HAUTE, IN, 47803","Match","Exact","1011 S BROWN AVE, TERRE HAUTE, IN, 47803",27118198,"R"
6437,"1011 S MAIN ST","COUDERSPORT","PA",16915,41.7625469660001,-78.022052646,437,"1011 S MAIN ST, COUDERSPORT, PA, 16915","Match","Exact","1011 S MAIN ST, COUDERSPORT, PA, 16915",613251015,"R"
6438,"1011 S MAIN STREET SUITE 100 NO110","CHELSEA","MI",48118,NA,NA,438,"1011 S MAIN STREET SUITE 100 NO110, CHELSEA, MI, 48118","No_Match",NA,NA,NA,NA
6439,"1011 S REXFORD LANE","ANAHEIM","CA",92808,33.85445265,-117.736447159,439,"1011 S REXFORD LANE, ANAHEIM, CA, 92808","Match","Exact","1011 S REXFORD LN, ANAHEIM, CA, 92808",144126071,"L"
6440,"1011 SAN JACINTO BLVD SUITE 500","AUSTIN","TX",78701,30.27127038,-97.738930212,440,"1011 SAN JACINTO BLVD SUITE 500, AUSTIN, TX, 78701","Match","Exact","1011 SAN JACINTO BLVD, AUSTIN, TX, 78701",63946365,"R"
6441,"1011 SIBLEY MEMORIAL HIGHWAY","LILYDALE","MN",55118,44.8985897370001,-93.140615638,441,"1011 SIBLEY MEMORIAL HIGHWAY, LILYDALE, MN, 55118","Match","Non_Exact","1011 SIBLEY MEMORIAL HWY, SAINT PAUL, MN, 55118",37922644,"R"
6442,"1011 SMITH STREET","PROVIDENCE","RI",2908,41.8427074590001,-71.445417576,442,"1011 SMITH STREET, PROVIDENCE, RI, 2908","Match","Exact","1011 SMITH ST, PROVIDENCE, RI, 02908",47458021,"R"
6443,"1011 SMITHFIELD AVENUE","LINCOLN","RI",2865,41.886552576,-71.413546568,443,"1011 SMITHFIELD AVENUE, LINCOLN, RI, 2865","Match","Exact","1011 SMITHFIELD AVE, LINCOLN, RI, 02865",635515373,"R"
6444,"1011 SOUTH CENTRAL AVE","COMPTON","CA",90220,33.8864381110001,-118.249598216,444,"1011 SOUTH CENTRAL AVE, COMPTON, CA, 90220","Match","Exact","1011 S CENTRAL AVE, COMPTON, CA, 90220",142766221,"R"
6445,"1011 SOUTH MAGNOLIA DRIVE","EL DORADO","AR",71730,33.2298540580001,-92.676038128,445,"1011 SOUTH MAGNOLIA DRIVE, EL DORADO, AR, 71730","Match","Exact","1011 S MAGNOLIA DR, EL DORADO, AR, 71730",28181969,"R"
6446,"1011 SPRUCE AVE","NORTON","VA",24273,36.9347426250001,-82.635367957,446,"1011 SPRUCE AVE, NORTON, VA, 24273","Match","Non_Exact","1011 SPRUCE AVE NW, NORTON, VA, 24273",83438870,"L"
6447,"1011 STANFORD DR","SIMI VALLEY","CA",93065,34.2575628320001,-118.757446236,447,"1011 STANFORD DR, SIMI VALLEY, CA, 93065","Match","Exact","1011 STANFORD DR, SIMI VALLEY, CA, 93065",642888117,"L"
6448,"1011 STILES CT","VISTA","CA",92083,33.2115009010001,-117.260873502,448,"1011 STILES CT, VISTA, CA, 92083","Match","Exact","1011 STILES CT, VISTA, CA, 92083",195286342,"L"
6449,"1011 SW 13TH STREET","REDMOND","OR",97756,44.267443601,-121.181918307,449,"1011 SW 13TH STREET, REDMOND, OR, 97756","Match","Exact","1011 SW 13TH ST, REDMOND, OR, 97756",152547503,"L"
6450,"1011 THISTLEGATE RD","OAK PARK","CA",91377,34.183473914,-118.760738895,450,"1011 THISTLEGATE RD, OAK PARK, CA, 91377","Match","Exact","1011 THISTLEGATE RD, OAK PARK, CA, 91377",110043088,"R"
6451,"1011 UNITY CHURCH RD","WESTMINSTER","SC",29693,34.6545883420001,-83.251810909,451,"1011 UNITY CHURCH RD, WESTMINSTER, SC, 29693","Match","Exact","1011 UNITY CHURCH RD, WESTMINSTER, SC, 29693",25636533,"R"
6452,"1011 VENETA AVE","BREMERTON","WA",98337,47.570377018,-122.638453267,452,"1011 VENETA AVE, BREMERTON, WA, 98337","Match","Exact","1011 VENETA AVE, BREMERTON, WA, 98337",187641828,"L"
6453,"1011 W 19TH ST APT 3R","CHICAGO","IL",60608,41.8566537900001,-87.6520704719999,453,"1011 W 19TH ST APT 3R, CHICAGO, IL, 60608","Match","Non_Exact","1011 W 19TH ST, CHICAGO, IL, 60608",605110378,"L"
6454,"1011 W BEARDSLEY","CHAMPAIGN","IL",61821,40.126295322,-88.260725067,454,"1011 W BEARDSLEY, CHAMPAIGN, IL, 61821","Match","Non_Exact","1011 W BEARDSLEY AVE, CHAMPAIGN, IL, 61821",8809922,"L"
6455,"1011 W OAKRIDGE RD","ORLANDO","FL",32809,NA,NA,455,"1011 W OAKRIDGE RD, ORLANDO, FL, 32809","No_Match",NA,NA,NA,NA
6456,"1011 W POPLAR SUITE 5","COLLIERVILLE","TN",38017,NA,NA,456,"1011 W POPLAR SUITE 5, COLLIERVILLE, TN, 38017","No_Match",NA,NA,NA,NA
6457,"1011 WALKER CIRCLE","ANDERSON","SC",29621,34.599230575,-82.677467787,457,"1011 WALKER CIRCLE, ANDERSON, SC, 29621","Match","Exact","1011 WALKER CIR, ANDERSON, SC, 29621",25449999,"L"
6458,"1011 WALSH HILL TRL","CEDAR PARK","TX",78613,30.5184615810001,-97.7515387829999,458,"1011 WALSH HILL TRL, CEDAR PARK, TX, 78613","Match","Exact","1011 WALSH HILL TRL, CEDAR PARK, TX, 78613",617958216,"R"
6459,"1011 WASHINGTON BLVD APT 1307","STAMFORD","CT",6901,41.053541335,-73.5427534039999,459,"1011 WASHINGTON BLVD APT 1307, STAMFORD, CT, 6901","Match","Exact","1011 WASHINGTON BLVD, STAMFORD, CT, 06901",650146318,"R"
6460,"1011 WASHINGTON","ELLIS","KS",67637,38.936416093,-99.560306359,460,"1011 WASHINGTON, ELLIS, KS, 67637","Match","Non_Exact","1011 WASHINGTON ST, ELLIS, KS, 67637",149823643,"R"
6461,"1011 WEST 31ST STREET","AUSTIN","TX",78705,30.3003393820001,-97.746525105,461,"1011 WEST 31ST STREET, AUSTIN, TX, 78705","Match","Exact","1011 W 31ST ST, AUSTIN, TX, 78705",63942396,"L"
6462,"1011 WEST 400 NORTH STE 100","LOGAN","UT",84321,41.738483413,-111.859795648,462,"1011 WEST 400 NORTH STE 100, LOGAN, UT, 84321","Match","Exact","1011 W 400 N, LOGAN, UT, 84321",155104881,"R"
6463,"1011 WEST BROADWAY AVENUE NO 105","MINNEAPOLIS","MN",55411,44.999136408,-93.2928594099999,463,"1011 WEST BROADWAY AVENUE NO 105, MINNEAPOLIS, MN, 55411","Match","Non_Exact","1011 W BROADWAY AVE, MINNEAPOLIS, MN, 55411",43623805,"L"
6464,"1011 WEST BUTLER ROAD APT 204","GREENVILLE","SC",29607,34.775847577,-82.330712767,464,"1011 WEST BUTLER ROAD APT 204, GREENVILLE, SC, 29607","Match","Exact","1011 W BUTLER RD, GREENVILLE, SC, 29607",38351607,"R"
6465,"1011 WEST GRACE STREET","CHICAGO","IL",60613,41.9511152200001,-87.654860309,465,"1011 WEST GRACE STREET, CHICAGO, IL, 60613","Match","Exact","1011 W GRACE ST, CHICAGO, IL, 60613",605237797,"L"
6466,"1011 WOODROW AVE","NORFOLK","VA",23507,36.8717120100001,-76.30193332,466,"1011 WOODROW AVE, NORFOLK, VA, 23507","Match","Exact","1011 WOODROW AVE, NORFOLK, VA, 23507",652322217,"L"
6467,"1011-E LEESVILLE AVE","RAHWAY","NJ",7065,40.5981007670001,-74.275284308,467,"1011-E LEESVILLE AVE, RAHWAY, NJ, 7065","Match","Exact","1011 LEESVILLE AVE, RAHWAY, NJ, 07065",60563234,"R"
6468,"10110 CHAPEL HILL BLVD","PASCO","WA",99301,46.2708283480001,-119.225904452,468,"10110 CHAPEL HILL BLVD, PASCO, WA, 99301","Match","Exact","10110 CHAPEL HILL BLVD, PASCO, WA, 99301",175257659,"R"
6469,"10110 CLIFFSIDE PLACE","SPRING VALLEY","CA",91977,32.7327383000001,-116.976371821,469,"10110 CLIFFSIDE PLACE, SPRING VALLEY, CA, 91977","Match","Exact","10110 CLIFFSIDE PL, SPRING VALLEY, CA, 91977",195362861,"L"
6470,"10110 CLINTON AVE S","BLOOMINGTON","MN",55420,44.8198873810001,-93.272070975,470,"10110 CLINTON AVE S, BLOOMINGTON, MN, 55420","Match","Exact","10110 CLINTON AVE S, BLOOMINGTON, MN, 55420",43596522,"R"
6471,"10110 DEERFIELD DRIVE","NEW ORLEANS","LA",70127,30.041915025,-89.978016119,471,"10110 DEERFIELD DRIVE, NEW ORLEANS, LA, 70127","Match","Exact","10110 DEERFIELD DR, NEW ORLEANS, LA, 70127",191721344,"R"
6472,"10110 GLENNDALE OAKS WAY","GLENN DALE","MD",20769,38.975430472,-76.8123385219999,472,"10110 GLENNDALE OAKS WAY, GLENN DALE, MD, 20769","Match","Exact","10110 GLENNDALE OAKS WAY, GLENN DALE, MD, 20769",76351247,"R"
6473,"10110 HOBBY HILL RD","RICHMOND","VA",23235,37.542705202,-77.5823269919999,473,"10110 HOBBY HILL RD, RICHMOND, VA, 23235","Match","Exact","10110 HOBBY HILL RD, RICHMOND, VA, 23235",201598244,"L"
6474,"10110 MORGAN MEADOW LANE","DALLAS","TX",75243,32.921381534,-96.710573554,474,"10110 MORGAN MEADOW LANE, DALLAS, TX, 75243","Match","Exact","10110 MORGAN MEADOW LN, DALLAS, TX, 75243",102917094,"R"
6475,"10110 N MIAMI AVENUE","MIAMI SHORES","FL",33150,25.867949111,-80.197668501,475,"10110 N MIAMI AVENUE, MIAMI SHORES, FL, 33150","Match","Exact","10110 N MIAMI AVE, MIAMI SHORES, FL, 33150",116003403,"L"
6476,"10110 SCOTCH PINE RD","KLAMATH FALLS","OR",97603,42.1915747250001,-121.664073739,476,"10110 SCOTCH PINE RD, KLAMATH FALLS, OR, 97603","Match","Exact","10110 SCOTCH PINE RD, KLAMATH FALLS, OR, 97603",156698989,"L"
6477,"10110 SEPULVEDA BLVD 24","MISSION HILLS","CA",91345,34.253961143,-118.467306495,477,"10110 SEPULVEDA BLVD 24, MISSION HILLS, CA, 91345","Match","Exact","10110 SEPULVEDA BLVD, MISSION HILLS, CA, 91345",640421990,"R"
6478,"10110 SW 145 PL","MIAMI","FL",33186,25.672665771,-80.4299450299999,478,"10110 SW 145 PL, MIAMI, FL, 33186","Match","Exact","10110 SW 145TH PL, MIAMI, FL, 33186",116046780,"R"
6479,"10110 WEST WABASH AVENUE","MILWAUKEE","WI",53224,43.1724175570001,-88.037155383,479,"10110 WEST WABASH AVENUE, MILWAUKEE, WI, 53224","Match","Exact","10110 W WABASH AVE, MILWAUKEE, WI, 53224",77769596,"L"
6480,"10111  COLESVILLE RD","SILVER SPRING","MD",20901,39.020482363,-77.012486348,480,"10111  COLESVILLE RD, SILVER SPRING, MD, 20901","Match","Exact","10111 COLESVILLE RD, SILVER SPRING, MD, 20901",62065156,"R"
6481,"10111 CEDAR LAKE ROAD APT 218","MINNETONKA","MN",55305,44.9561385700001,-93.4073364769999,481,"10111 CEDAR LAKE ROAD APT 218, MINNETONKA, MN, 55305","Match","Exact","10111 CEDAR LAKE RD, MINNETONKA, MN, 55305",43866119,"L"
6482,"10111 COLESVILLE ROAD STE 101","SILVER SPRING","MD",20901,39.020482363,-77.012486348,482,"10111 COLESVILLE ROAD STE 101, SILVER SPRING, MD, 20901","Match","Exact","10111 COLESVILLE RD, SILVER SPRING, MD, 20901",62065156,"R"
6483,"10111 ECTON LANE","JACKSONVILLE","FL",32246,30.2608161700001,-81.5367439519999,483,"10111 ECTON LANE, JACKSONVILLE, FL, 32246","Match","Exact","10111 ECTON LN, JACKSONVILLE, FL, 32246",83967512,"R"
6484,"10111 S LOWE AVENUE","CHICAGO","IL",60628,41.7103085690001,-87.6392697369999,484,"10111 S LOWE AVENUE, CHICAGO, IL, 60628","Match","Exact","10111 S LOWE AVE, CHICAGO, IL, 60628",111833006,"L"
6485,"10111 SE REEDWAY ST","PORTLAND","OR",97266,45.4811948710001,-122.559477994,485,"10111 SE REEDWAY ST, PORTLAND, OR, 97266","Match","Exact","10111 SE REEDWAY ST, PORTLAND, OR, 97266",157520993,"L"
6486,"10111 TOMS CT","FAIRFAX","VA",22032,38.839419182,-77.2946562179999,486,"10111 TOMS CT, FAIRFAX, VA, 22032","Match","Exact","10111 TOMS CT, FAIRFAX, VA, 22032",75969642,"L"
6487,"10111 VARIEL AVENUE","CHATSWORTH","CA",91311,34.2539035830001,-118.592937642,487,"10111 VARIEL AVENUE, CHATSWORTH, CA, 91311","Match","Exact","10111 VARIEL AVE, CHATSWORTH, CA, 91311",141532062,"L"
6488,"10111 W 105TH STREET","OVERLAND PARK","KS",66212,38.9385331450001,-94.702455191,488,"10111 W 105TH STREET, OVERLAND PARK, KS, 66212","Match","Exact","10111 W 105TH ST, OVERLAND PARK, KS, 66212",91290501,"L"
6489,"10111 WILDOAK GLEN LN","KATY","TX",77494,29.7084120150001,-95.823274402,489,"10111 WILDOAK GLEN LN, KATY, TX, 77494","Match","Exact","10111 WILDOAK GLEN LN, KATY, TX, 77494",631015283,"R"
6490,"10112 53RD AVE W","MUKILTEO","WA",98275,47.9064621460001,-122.306105081,490,"10112 53RD AVE W, MUKILTEO, WA, 98275","Match","Exact","10112 53RD AVE W, MUKILTEO, WA, 98275",608936283,"L"
6491,"10112 COURTNEY STREET","LOS ANGELES","CA",90002,33.944940151,-118.248137996,491,"10112 COURTNEY STREET, LOS ANGELES, CA, 90002","Match","Exact","10112 COURTNEY ST, LOS ANGELES, CA, 90002",141673337,"L"
6492,"10112 LONE DOVE STREET","SAN DIEGO","CA",92127,33.0087535330001,-117.11470794,492,"10112 LONE DOVE STREET, SAN DIEGO, CA, 92127","Match","Exact","10112 LONE DOVE ST, SAN DIEGO, CA, 92127",612883592,"L"
6493,"10112 NORTON RD","POTOMAC","MD",20854,39.026256532,-77.218686797,493,"10112 NORTON RD, POTOMAC, MD, 20854","Match","Exact","10112 NORTON RD, POTOMAC, MD, 20854",62105036,"L"
6494,"10112 SPRINGHURST GARDENS CIRCLE","LOUISVILLE","KY",40241,38.2972079570001,-85.565677179,494,"10112 SPRINGHURST GARDENS CIRCLE, LOUISVILLE, KY, 40241","Match","Exact","10112 SPRINGHURST GARDENS CIR, LOUISVILLE, KY, 40241",637478191,"L"
6495,"10112 W OVERLAND ROAD","BOISE","ID",83709,43.5902802850001,-116.308648476,495,"10112 W OVERLAND ROAD, BOISE, ID, 83709","Match","Exact","10112 OVERLAND RD, BOISE, ID, 83709",640433586,"R"
6496,"10113 FOREST LANDING DRIVE","CHARLOTTE","NC",28213,35.3090684700001,-80.7134151289999,496,"10113 FOREST LANDING DRIVE, CHARLOTTE, NC, 28213","Match","Exact","10113 FOREST LANDING DR, CHARLOTTE, NC, 28213",70542935,"R"
6497,"10113 GOOSECREEK COURT","CLINTON","MD",20735,38.749082076,-76.884377805,497,"10113 GOOSECREEK COURT, CLINTON, MD, 20735","Match","Exact","10113 GOOSECREEK CT, CLINTON, MD, 20735",76343153,"R"
6498,"10113 QUEENS CIR","OCEAN CITY","MD",21842,38.343119996,-75.1085078839999,498,"10113 QUEENS CIR, OCEAN CITY, MD, 21842","Match","Exact","10113 QUEENS CIR, OCEAN CITY, MD, 21842",114537608,"R"
6499,"10113 SORREL AVE","POTOMAC","MD",20854,39.0216189430001,-77.201021711,499,"10113 SORREL AVE, POTOMAC, MD, 20854","Match","Exact","10113 SORREL AVE, POTOMAC, MD, 20854",62053809,"R"
6500,"10114 GARDEN OAKS AVENUE","DENHAM SPRINGS","LA",70706,30.605684868,-90.913168244,500,"10114 GARDEN OAKS AVENUE, DENHAM SPRINGS, LA, 70706","Match","Exact","10114 GARDEN OAKS AVE, DENHAM SPRINGS, LA, 70706",624971685,"L"
