"ID","Address","City","State","Zip","lat","long","id","input_address","match_indicator","match_type","matched_address","tiger_line_id","tiger_side"
123501,"2233 S THROOP ST SUITE 214","CHICAGO","IL",60608,41.8518346440001,-87.658671937,1,"2233 S THROOP ST SUITE 214, CHICAGO, IL, 60608","Match","Non_Exact","2233 S THROOP ST, CHICAGO, IL, 60608",605633461,"L"
123502,"2233 S UNIVERSITY DRIVE","DAVIE","FL",33324,26.0927313660001,-80.2513543159999,2,"2233 S UNIVERSITY DRIVE, DAVIE, FL, 33324","Match","Exact","2233 S UNIVERSITY DR, DAVIE, FL, 33324",636782808,"R"
123503,"2233 ST CHARLES AV SUITE 602","NEW ORLEANS","LA",70130,NA,NA,3,"2233 ST CHARLES AV SUITE 602, NEW ORLEANS, LA, 70130","No_Match",NA,NA,NA,NA
123504,"2233 WALNUT AVE","VENICE","CA",90291,33.9975783560001,-118.451846981,4,"2233 WALNUT AVE, VENICE, CA, 90291","Match","Exact","2233 WALNUT AVE, VENICE, CA, 90291",141569436,"R"
123505,"2233 WATT AVE STE 120","SACRAMENTO","CA",95825,38.6044394140001,-121.3829522,5,"2233 WATT AVE STE 120, SACRAMENTO, CA, 95825","Match","Exact","2233 WATT AVE, SACRAMENTO, CA, 95825",133333529,"L"
123506,"2233 WISCONSIN AVENUE NW SUITE 300","WASHINGTON DC","DC",20007,38.9199331180001,-77.0712515719999,6,"2233 WISCONSIN AVENUE NW SUITE 300, WASHINGTON DC, DC, 20007","Match","Exact","2233 WISCONSIN AVE NW, WASHINGTON, DC, 20007",76221034,"R"
123507,"22330 KOPPERT ROAD","BUTLER","OH",44822,40.5343849070001,-82.340381827,7,"22330 KOPPERT ROAD, BUTLER, OH, 44822","Match","Exact","22330 KOPPERT RD, BUTLER, OH, 44822",649959923,"L"
123508,"22330 VICTORY BLVD 1004","WOODLAND HILLS","CA",91367,34.1864499700001,-118.613204065,8,"22330 VICTORY BLVD 1004, WOODLAND HILLS, CA, 91367","Match","Exact","22330 VICTORY BLVD, WOODLAND HILLS, CA, 91367",642865710,"L"
123509,"22331 SW GOPHER VALLEY RD","SHERIDAN","OR",97378,45.099477108,-123.35401959,9,"22331 SW GOPHER VALLEY RD, SHERIDAN, OR, 97378","Match","Exact","22331 GOPHER VALLEY RD, SHERIDAN, OR, 97378",605802376,"R"
123510,"22331 WOODWARD AVE","FERNDALE","MI",48220,42.4568414340001,-83.132274813,10,"22331 WOODWARD AVE, FERNDALE, MI, 48220","Match","Exact","22331 WOODWARD AVE, FERNDALE, MI, 48220",69824257,"L"
123511,"22332 CAIRNLOCH STREET","CALABASAS","CA",91302,34.133887175,-118.61419486,11,"22332 CAIRNLOCH STREET, CALABASAS, CA, 91302","Match","Exact","22332 CAIRNLOCH ST, CALABASAS, CA, 91302",640425389,"R"
123512,"22332 GOVERNORS HIGHWAY  UNIT 612","RICHTON PARK","IL",60471,NA,NA,12,"22332 GOVERNORS HIGHWAY  UNIT 612, RICHTON PARK, IL, 60471","No_Match",NA,NA,NA,NA
123513,"22332 GOVERNORS HIGHWAY SUITE 56","RICHTON PARK","IL",60471,NA,NA,13,"22332 GOVERNORS HIGHWAY SUITE 56, RICHTON PARK, IL, 60471","No_Match",NA,NA,NA,NA
123514,"22332 GOVERNORS HWY - BOX 146","RICHTON PARK","IL",60471,NA,NA,14,"22332 GOVERNORS HWY - BOX 146, RICHTON PARK, IL, 60471","No_Match",NA,NA,NA,NA
123515,"22335 TIREMAN","DETROIT","MI",48239,42.349253559,-83.258561355,15,"22335 TIREMAN, DETROIT, MI, 48239","Match","Non_Exact","22335 TIREMAN AVE, DETROIT, MI, 48239",95431834,"L"
123516,"22335 WHITE AVE","BONAPARTE","IA",52620,40.721490079,-91.744454124,16,"22335 WHITE AVE, BONAPARTE, IA, 52620","Match","Exact","22335 WHITE AVE, BONAPARTE, IA, 52620",12931117,"L"
123517,"22338 BRIARCLIFF DRIVE","SPICEWOOD","TX",78669,30.4053099550001,-98.050237093,17,"22338 BRIARCLIFF DRIVE, SPICEWOOD, TX, 78669","Match","Exact","22338 BRIARCLIFF DR, SPICEWOOD, TX, 78669",63920328,"R"
123518,"22338 CASA DE CAROL","RAMONA","CA",92065,32.9909484620001,-116.845660674,18,"22338 CASA DE CAROL, RAMONA, CA, 92065","Match","Exact","22338 CASA DE CAROL, RAMONA, CA, 92065",195330940,"R"
123519,"22339 WATSON CIRCLE NW","ELK RIVER","MN",55430,NA,NA,19,"22339 WATSON CIRCLE NW, ELK RIVER, MN, 55430","No_Match",NA,NA,NA,NA
123520,"2234 ACERO COURT","BRENTWOOD","CA",94513,37.9580438570001,-121.73329379,20,"2234 ACERO COURT, BRENTWOOD, CA, 94513","Match","Exact","2234 ACERO CT, BRENTWOOD, CA, 94513",650412632,"R"
123521,"2234 BIENVILLE BLVD","DAUPHIN ISLAND","AL",36528,30.2510542740001,-88.1492315529999,21,"2234 BIENVILLE BLVD, DAUPHIN ISLAND, AL, 36528","Match","Exact","2234 BIENVILLE BLVD, DAUPHIN ISLAND, AL, 36528",61840217,"L"
123522,"2234 DAYBREAK COURT","ANCHORAGE","AK",99501,61.2030477440001,-149.840495657,22,"2234 DAYBREAK COURT, ANCHORAGE, AK, 99501","Match","Exact","2234 DAYBREAK CT, ANCHORAGE, AK, 99501",190799126,"R"
123523,"2234 E 12TH ST APT 8","TULSA","OK",74104,36.1460110310001,-95.960001069,23,"2234 E 12TH ST APT 8, TULSA, OK, 74104","Match","Non_Exact","2234 E 12TH ST, TULSA, OK, 74104",627121454,"R"
123524,"2234 EAST STREET","BAKER CITY","OR",97814,44.779149456,-117.824635411,24,"2234 EAST STREET, BAKER CITY, OR, 97814","Match","Exact","2234 EAST ST, BAKER CITY, OR, 97814",137638977,"R"
123525,"2234 EDINBURGH AVE","TROPHY CLUB","TX",76262,33.0100534790001,-97.193157798,25,"2234 EDINBURGH AVE, TROPHY CLUB, TX, 76262","Match","Exact","2234 EDINBURGH AVE, TROPHY CLUB, TX, 76262",630365146,"L"
123526,"2234 EVERGREEN AVENUE SE","PORT ORCHARD","WA",98366,47.528187905,-122.622265895,26,"2234 EVERGREEN AVENUE SE, PORT ORCHARD, WA, 98366","Match","Exact","2234 EVERGREEN AVE SE, PORT ORCHARD, WA, 98366",187659540,"L"
123527,"2234 GODDARD AVE HANGAR B-3","NORMAN","OK",73069,35.24141537,-97.466033157,27,"2234 GODDARD AVE HANGAR B-3, NORMAN, OK, 73069","Match","Exact","2234 GODDARD AVE, NORMAN, OK, 73069",99939467,"L"
123528,"2234 IRONDALE DRIVE","BENTON","AR",72019,34.6064939170001,-92.609764883,28,"2234 IRONDALE DRIVE, BENTON, AR, 72019","Match","Exact","2234 IRONDALE DR, BENTON, AR, 72019",627600941,"L"
123529,"2234 JACKSON AVENUE","SEAFORD","NY",11783,40.666939095,-73.486893154,29,"2234 JACKSON AVENUE, SEAFORD, NY, 11783","Match","Exact","2234 JACKSON AVE, SEAFORD, NY, 11783",147648883,"R"
123530,"2234 LUANN LANE APT 110","MADISON","WI",53713,43.031327805,-89.417994811,30,"2234 LUANN LANE APT 110, MADISON, WI, 53713","Match","Exact","2234 LUANN LN, MADISON, WI, 53713",49530485,"L"
123531,"2234 N BELLFLOWER BLVD UNIT 15056","LONG BEACH","CA",90815,33.797160467,-118.125300793,31,"2234 N BELLFLOWER BLVD UNIT 15056, LONG BEACH, CA, 90815","Match","Non_Exact","2234 N BELLFLOWER BLVD, LONG BEACH, CA, 90815",141742482,"R"
123532,"2234 N FRONT STREET","PHILADELPHIA","PA",19133,39.9837619200001,-75.132419101,32,"2234 N FRONT STREET, PHILADELPHIA, PA, 19133","Match","Exact","2234 N FRONT ST, PHILADELPHIA, PA, 19133",131425053,"L"
123533,"2234 NE 6TH PL","OCALA","FL",34470,29.19373835,-82.1083078739999,33,"2234 NE 6TH PL, OCALA, FL, 34470","Match","Exact","2234 NE 6TH PL, OCALA, FL, 34470",116826075,"R"
123534,"2234 NW 7 ST","FORT LAUDERDALE","FL",33311,26.1312194430001,-80.173230154,34,"2234 NW 7 ST, FORT LAUDERDALE, FL, 33311","Match","Exact","2234 NW 7TH ST, FORT LAUDERDALE, FL, 33311",114720726,"L"
123535,"2234 SEVILLE RD","KRONENWETTER","WI",54475,44.8489982290001,-89.604410504,35,"2234 SEVILLE RD, KRONENWETTER, WI, 54475","Match","Non_Exact","2234 SEVILLE RD, KRONENWETTER, WI, 54455",617256423,"L"
123536,"2234 SW ORCHARD STREET","SEATTLE","WA",98106,47.537838976,-122.361694555,36,"2234 SW ORCHARD STREET, SEATTLE, WA, 98106","Match","Exact","2234 SW ORCHARD ST, SEATTLE, WA, 98106",186591138,"R"
123537,"2234 TATTERSALLS DRIVE","WILMINGTON","NC",28403,34.2010827560001,-77.919801894,37,"2234 TATTERSALLS DRIVE, WILMINGTON, NC, 28403","Match","Exact","2234 TATTERSALLS DR, WILMINGTON, NC, 28403",152749944,"R"
123538,"2234 W ELKHORN","CARUTHERS","CA",93609,36.489180527,-119.833325037,38,"2234 W ELKHORN, CARUTHERS, CA, 93609","Match","Non_Exact","2234 W ELKHORN AVE, CARUTHERS, CA, 93609",197609279,"R"
123539,"2234 WARREN RD","LAKEWOOD","OH",44107,41.4714109170001,-81.798119161,39,"2234 WARREN RD, LAKEWOOD, OH, 44107","Match","Exact","2234 WARREN RD, LAKEWOOD, OH, 44107",61102115,"R"
123540,"2234 WASHINGTON ST","HOLLYWOOD","FL",33020,26.0038325140001,-80.1521475009999,40,"2234 WASHINGTON ST, HOLLYWOOD, FL, 33020","Match","Exact","2234 WASHINGTON ST, HOLLYWOOD, FL, 33020",114732488,"L"
123541,"2234 WASHINGTON STREET","HOLLYWOOD","FL",33020,26.0038325140001,-80.1521475009999,41,"2234 WASHINGTON STREET, HOLLYWOOD, FL, 33020","Match","Exact","2234 WASHINGTON ST, HOLLYWOOD, FL, 33020",114732488,"L"
123542,"2234 WEST HAROLD STREET","PHILADELPHIA","PA",19132,39.994639883,-75.1683966479999,42,"2234 WEST HAROLD STREET, PHILADELPHIA, PA, 19132","Match","Exact","2234 W HAROLD ST, PHILADELPHIA, PA, 19132",131402629,"L"
123543,"22340 W WAR EAGLE RD","SPRINGDALE","AR",72764,36.2025765670001,-93.988518829,43,"22340 W WAR EAGLE RD, SPRINGDALE, AR, 72764","Match","Exact","22340 W WAR EAGLE RD, SPRINGDALE, AR, 72764",49077043,"R"
123544,"22341 LOST BRANCH CIRCLE","ASHBURN","VA",20148,38.999924553,-77.506820193,44,"22341 LOST BRANCH CIRCLE, ASHBURN, VA, 20148","Match","Exact","22341 LOST BRANCH CIR, ASHBURN, VA, 20148",635890735,"L"
123545,"22342 AVENIDA EMPRESA SUITE 220","RCHO STA MARG","CA",92688,33.6379473700001,-117.607719199,45,"22342 AVENIDA EMPRESA SUITE 220, RCHO STA MARG, CA, 92688","Match","Exact","22342 AVE EMPRESA, RCHO STA MARG, CA, 92688",144108326,"L"
123546,"22345 CENTURY DR","TAYLOR","MI",48180,42.2114463660001,-83.251921672,46,"22345 CENTURY DR, TAYLOR, MI, 48180","Match","Exact","22345 CENTURY DR, TAYLOR, MI, 48180",629091222,"R"
123547,"22346 PHILIPRIMM STREET","WOODLAND HILLS","CA",91367,34.1728864840001,-118.61319697,47,"22346 PHILIPRIMM STREET, WOODLAND HILLS, CA, 91367","Match","Exact","22346 PHILIPRIMM ST, WOODLAND HILLS, CA, 91367",142695503,"L"
123548,"22347 MARTIN RD","SAINT CLAIR SHORES","MI",48081,42.5026924200001,-82.889987698,48,"22347 MARTIN RD, SAINT CLAIR SHORES, MI, 48081","Match","Exact","22347 MARTIN RD, SAINT CLAIR SHORES, MI, 48081",110684289,"L"
123549,"22348 EAST SCHAFER STREET","CLINTON TOWNSHIP","MI",48035,42.5664373210001,-82.890452142,49,"22348 EAST SCHAFER STREET, CLINTON TOWNSHIP, MI, 48035","Match","Exact","22348 E SCHAFER ST, CLINTON TOWNSHIP, MI, 48035",110683013,"R"
123550,"22349 LA PALMA AVENUE SUITE 118","YORBA LINDA","CA",92887,33.8805669010001,-117.743726414,50,"22349 LA PALMA AVENUE SUITE 118, YORBA LINDA, CA, 92887","Match","Non_Exact","22349 LA PALMA AVE, YORBA LINDA, CA, 92887",647310222,"R"
123551,"22349 THOUSAND PINES LN","BOCA RATON","FL",33428,26.3436527980001,-80.231409674,51,"22349 THOUSAND PINES LN, BOCA RATON, FL, 33428","Match","Exact","22349 THOUSAND PINES LN, BOCA RATON, FL, 33428",115326861,"L"
123552,"2235 5TH AVENUE SUITE 5F","NEW YORK","NY",10037,40.813189547,-73.9373050519999,52,"2235 5TH AVENUE SUITE 5F, NEW YORK, NY, 10037","Match","Exact","2235 5TH AVE, NEW YORK, NY, 10037",59664118,"R"
123553,"2235 65TH STREET","BROOKLYN","NY",11204,40.6132470640001,-73.980430976,53,"2235 65TH STREET, BROOKLYN, NY, 11204","Match","Exact","2235 65TH ST, BROOKLYN, NY, 11204",59089396,"L"
123554,"2235 ARTHUR AVE","DAYTON","OH",45414,39.832348483,-84.193117991,54,"2235 ARTHUR AVE, DAYTON, OH, 45414","Match","Exact","2235 ARTHUR AVE, DAYTON, OH, 45414",143568781,"L"
123555,"2235 ASHLEY CROSSING DRIVE SUITE 8B","CHARLESTON","SC",29414,32.8141153550001,-80.037678961,55,"2235 ASHLEY CROSSING DRIVE SUITE 8B, CHARLESTON, SC, 29414","Match","Exact","2235 ASHLEY CROSSING DR, CHARLESTON, SC, 29414",639347834,"R"
123556,"2235 B AVE","WHITE CITY","KS",66872,38.8554004640001,-96.7527818409999,56,"2235 B AVE, WHITE CITY, KS, 66872","Match","Exact","2235 B AVE, WHITE CITY, KS, 66872",88187509,"L"
123557,"2235 CALIFORNIA AVE SW","CAMDEN","AR",71701,33.5448187210001,-92.881481048,57,"2235 CALIFORNIA AVE SW, CAMDEN, AR, 71701","Match","Exact","2235 CALIFORNIA AVE SW, CAMDEN, AR, 71701",639019644,"R"
123558,"2235 CANDIES LANE NW","CLEVELAND","TN",37312,35.1958841800001,-84.891814935,58,"2235 CANDIES LANE NW, CLEVELAND, TN, 37312","Match","Exact","2235 CANDIES LN NW, CLEVELAND, TN, 37312",57573083,"L"
123559,"2235 COUNTY ROAD 4106","GREENVILLE","TX",75401,33.1458661180001,-96.037149906,59,"2235 COUNTY ROAD 4106, GREENVILLE, TX, 75401","Match","Exact","2235 CO RD 4106, GREENVILLE, TX, 75401",42866914,"L"
123560,"2235 DRAWBRIDGE COURT","ROCK HILL","SC",29732,34.9861498220001,-81.011277853,60,"2235 DRAWBRIDGE COURT, ROCK HILL, SC, 29732","Match","Exact","2235 DRAWBRIDGE CT, ROCK HILL, SC, 29732",19806782,"L"
123561,"2235 E 6TH STREET STE 106","AUSTIN","TX",78702,30.2600945500001,-97.717976901,61,"2235 E 6TH STREET STE 106, AUSTIN, TX, 78702","Match","Non_Exact","2235 E 6TH ST, AUSTIN, TX, 78702",63947261,"R"
123562,"2235 FREDRICK DOUGLAS BLVD APT 7G","NY","NY",10027,40.807300469,-73.9532735349999,62,"2235 FREDRICK DOUGLAS BLVD APT 7G, NY, NY, 10027","Match","Non_Exact","2235 FREDERICK DOUGLASS BLVD, NEW YORK, NY, 10027",59656111,"L"
123563,"2235 GEORGETOWN","TOLEDO","OH",43613,41.689818223,-83.597331273,63,"2235 GEORGETOWN, TOLEDO, OH, 43613","Match","Non_Exact","2235 GEORGETOWN AVE, TOLEDO, OH, 43613",33933232,"L"
123564,"2235 HIGHWAY 330 W","FALMOUTH","KY",41040,38.662787881,-84.3779924039999,64,"2235 HIGHWAY 330 W, FALMOUTH, KY, 41040","Match","Exact","2235 HWY 330 W, FALMOUTH, KY, 41040",104478604,"R"
123565,"2235 INYO AVE APT 2","OAKLAND","CA",94601,37.7893644700001,-122.229509029,65,"2235 INYO AVE APT 2, OAKLAND, CA, 94601","Match","Exact","2235 INYO AVE, OAKLAND, CA, 94601",124992652,"L"
123566,"2235 LAKE AVENUE  SUITE 213","ALTADENA","CA",91001,34.184366552,-118.131558202,66,"2235 LAKE AVENUE  SUITE 213, ALTADENA, CA, 91001","Match","Non_Exact","2235 N LAKE AVE, ALTADENA, CA, 91001",141628388,"L"
123567,"2235 LANSINGWOOD DRIVE","GERMANTOWN","TN",38139,35.0877556720001,-89.780415848,67,"2235 LANSINGWOOD DRIVE, GERMANTOWN, TN, 38139","Match","Exact","2235 LANSINGWOOD DR, GERMANTOWN, TN, 38139",607447425,"R"
123568,"2235 LASSO AVE","BOZEMAN","MT",59718,45.701438728,-111.094088824,68,"2235 LASSO AVE, BOZEMAN, MT, 59718","Match","Exact","2235 LASSO AVE, BOZEMAN, MT, 59718",163539160,"R"
123569,"2235 LELA ST","BEAUMONT","TX",77705,30.046707801,-94.107603188,69,"2235 LELA ST, BEAUMONT, TX, 77705","Match","Exact","2235 LELA ST, BEAUMONT, TX, 77705",73855637,"L"
123570,"2235 MAYFAIRE DRIVE","TURLOCK","CA",95380,37.5036161100001,-120.873126934,70,"2235 MAYFAIRE DRIVE, TURLOCK, CA, 95380","Match","Exact","2235 MAYFAIRE DR, TURLOCK, CA, 95380",102623523,"R"
123571,"2235 MORRIS AVE","UNION","NJ",7083,40.6988180610001,-74.280458064,71,"2235 MORRIS AVE, UNION, NJ, 7083","Match","Exact","2235 MORRIS AVE, UNION, NJ, 07083",60571560,"R"
123572,"2235 N COUNTRY CLUB DRIVE","FLAGSTAFF","AZ",86004,35.1990039360001,-111.578793375,72,"2235 N COUNTRY CLUB DRIVE, FLAGSTAFF, AZ, 86004","Match","Exact","2235 N COUNTRY CLUB DR, FLAGSTAFF, AZ, 86004",188999043,"L"
123573,"2235 N COURTENAY PKWY","MERRITT ISLAND","FL",32953,28.396608498,-80.704676537,73,"2235 N COURTENAY PKWY, MERRITT ISLAND, FL, 32953","Match","Non_Exact","2235 N COURTENAY PKWY, MERRITT ISLAND, FL, 32953",93893141,"L"
123574,"2235 N THORNWOOD AVENUE","DAVENPORT","IA",52804,41.542374453,-90.61638078,74,"2235 N THORNWOOD AVENUE, DAVENPORT, IA, 52804","Match","Exact","2235 N THORNWOOD AVE, DAVENPORT, IA, 52804",122706030,"R"
123575,"2235 NOVUM RD","REVA","VA",22735,38.483264015,-78.196629875,75,"2235 NOVUM RD, REVA, VA, 22735","Match","Exact","2235 NOVUM RD, REVA, VA, 22735",29591353,"R"
123576,"2235 PICO LANE","MT DORA","FL",32757,28.802213884,-81.620607741,76,"2235 PICO LANE, MT DORA, FL, 32757","Match","Exact","2235 PICO LN, MOUNT DORA, FL, 32757",617494161,"L"
123577,"2235 PONTOON RD","GRANITE CITY","IL",62040,38.7316272460001,-90.10879489,77,"2235 PONTOON RD, GRANITE CITY, IL, 62040","Match","Exact","2235 PONTOON RD, GRANITE CITY, IL, 62040",107688227,"L"
123578,"2235 POYDRAS ST STE A","NEW ORLEANS","LA",70119,29.9566359300001,-90.08875091,78,"2235 POYDRAS ST STE A, NEW ORLEANS, LA, 70119","Match","Exact","2235 POYDRAS ST, NEW ORLEANS, LA, 70119",191708166,"R"
123579,"2235 S GARFIELD DRIVE","INDIANAPOLIS","IN",46203,39.7362233260001,-86.1445230589999,79,"2235 S GARFIELD DRIVE, INDIANAPOLIS, IN, 46203","Match","Exact","2235 S GARFIELD DR, INDIANAPOLIS, IN, 46203",107993071,"L"
123580,"2235 S STATE ROUTE 89 SUITE B5","CHINO VALLEY","AZ",86323,34.778538472,-112.452633917,80,"2235 S STATE ROUTE 89 SUITE B5, CHINO VALLEY, AZ, 86323","Match","Exact","2235 STATE RTE 89, CHINO VALLEY, AZ, 86323",608164732,"R"
123581,"2235 SPEARFISH LN","EMMETT","ID",83617,NA,NA,81,"2235 SPEARFISH LN, EMMETT, ID, 83617","No_Match",NA,NA,NA,NA
123582,"2235 THORNFIELD RD","CHARLOTTE","NC",28217,35.152160236,-80.922529214,82,"2235 THORNFIELD RD, CHARLOTTE, NC, 28217","Match","Exact","2235 THORNFIELD RD, CHARLOTTE, NC, 28217",70484188,"L"
123583,"2235 VENETIAN COURT SUITE 5","NAPLES","FL",34109,26.242676218,-81.7736508579999,83,"2235 VENETIAN COURT SUITE 5, NAPLES, FL, 34109","Match","Exact","2235 VENETIAN CT, NAPLES, FL, 34109",115212481,"R"
123584,"2235 VIVIAN ST","LONGMONT","CO",80501,40.197968917,-105.119206125,84,"2235 VIVIAN ST, LONGMONT, CO, 80501","Match","Exact","2235 VIVIAN ST, LONGMONT, CO, 80501",188154529,"R"
123585,"2235 W 4800 S","ROY","UT",84067,41.176201813,-112.033615931,85,"2235 W 4800 S, ROY, UT, 84067","Match","Exact","2235 W 4800 S, ROY, UT, 84067",155692508,"L"
123586,"2235 W BURNSIDE UNIT A","PORTLAND","OR",97210,NA,NA,86,"2235 W BURNSIDE UNIT A, PORTLAND, OR, 97210","No_Match",NA,NA,NA,NA
123587,"2235 W CITRUS ROAD","AVON PARK","FL",33825,27.630871137,-81.5372616129999,87,"2235 W CITRUS ROAD, AVON PARK, FL, 33825","Match","Exact","2235 W CITRUS RD, AVON PARK, FL, 33825",4645779,"L"
123588,"2235 W SARATOGA STREET","BALTIMORE","MD",21223,39.2918549990001,-76.652221622,88,"2235 W SARATOGA STREET, BALTIMORE, MD, 21223","Match","Exact","2235 W SARATOGA ST, BALTIMORE, MD, 21223",206415224,"L"
123589,"2235 WILLOW TREE GROVE APT 208","COLORADO SPRINGS","CO",80910,38.8291924640001,-104.786016589,89,"2235 WILLOW TREE GROVE APT 208, COLORADO SPRINGS, CO, 80910","Match","Exact","2235 WILLOW TREE GROVE, COLORADO SPRINGS, CO, 80910",105573367,"R"
123590,"22350 OLD HUNDRED RD","BARNESVILLE","MD",20838,39.221872821,-77.375112142,90,"22350 OLD HUNDRED RD, BARNESVILLE, MD, 20838","Match","Exact","22350 OLD HUNDRED RD, BARNESVILLE, MD, 20838",62088237,"L"
123591,"22350 VAQUERO DRIVE","TEHACHAPI","CA",93561,35.144449432,-118.48640454,91,"22350 VAQUERO DRIVE, TEHACHAPI, CA, 93561","Match","Exact","22350 VAQUERO DR, TEHACHAPI, CA, 93561",108982905,"R"
123592,"22358 E IDA PL","AURORA","CO",80015,39.610597951,-104.726872154,92,"22358 E IDA PL, AURORA, CO, 80015","Match","Exact","22358 E IDA PL, AURORA, CO, 80015",177531866,"R"
123593,"2236 ALICE AVE 103","OXON HILL","MD",20745,38.811175484,-76.968408546,93,"2236 ALICE AVE 103, OXON HILL, MD, 20745","Match","Exact","2236 ALICE AVE, OXON HILL, MD, 20745",76312549,"L"
123594,"2236 ASHLEY CROSSING DR","CHARLESTON","SC",29414,32.813963594,-80.037759839,94,"2236 ASHLEY CROSSING DR, CHARLESTON, SC, 29414","Match","Exact","2236 ASHLEY CROSSING DR, CHARLESTON, SC, 29414",639347834,"L"
123595,"2236 BELVINWOOD DRIVE","FUQUAY VARINA","NC",27526,35.6228207950001,-78.7914354219999,95,"2236 BELVINWOOD DRIVE, FUQUAY VARINA, NC, 27526","Match","Non_Exact","2236 BELVINWOOD ST, FUQUAY VARINA, NC, 27526",640612398,"L"
123596,"2236 BIRCHWOOD AVE","WILMETTE","IL",60091,42.076751879,-87.730794652,96,"2236 BIRCHWOOD AVE, WILMETTE, IL, 60091","Match","Exact","2236 BIRCHWOOD AVE, WILMETTE, IL, 60091",111738791,"R"
123597,"2236 BURNET AVE","CINCINNATI","OH",45219,39.121586016,-84.5025074329999,97,"2236 BURNET AVE, CINCINNATI, OH, 45219","Match","Exact","2236 BURNET AVE, CINCINNATI, OH, 45219",103925934,"R"
123598,"2236 E 10TH ST","INDIANAPOLIS","IN",46201,39.781329471,-86.1232839579999,98,"2236 E 10TH ST, INDIANAPOLIS, IN, 46201","Match","Exact","2236 E 10TH ST, INDIANAPOLIS, IN, 46201",107993564,"L"
123599,"2236 E 10TH STREET SUITE B","INDIANAPOLIS","IN",46201,39.781329471,-86.1232839579999,99,"2236 E 10TH STREET SUITE B, INDIANAPOLIS, IN, 46201","Match","Non_Exact","2236 E 10TH ST, INDIANAPOLIS, IN, 46201",107993564,"L"
123600,"2236 E COMISKY ST","MERIDIAN","ID",83646,43.652384613,-116.366501267,100,"2236 E COMISKY ST, MERIDIAN, ID, 83646","Match","Exact","2236 E COMISKY ST, MERIDIAN, ID, 83646",117917485,"L"
123601,"2236 E CONTOUR DR","BATON ROUGE","LA",70809,30.429547594,-91.088108743,101,"2236 E CONTOUR DR, BATON ROUGE, LA, 70809","Match","Exact","2236 E CONTOUR DR, BATON ROUGE, LA, 70809",92190024,"R"
123602,"2236 E VIRGINIA AVE","ANAHEIM","CA",92806,33.834912305,-117.88545939,102,"2236 E VIRGINIA AVE, ANAHEIM, CA, 92806","Match","Exact","2236 E VIRGINIA AVE, ANAHEIM, CA, 92806",144028171,"R"
123603,"2236 GIOVANNI AVE S","SALEM","OR",97306,44.8708135640001,-123.076306202,103,"2236 GIOVANNI AVE S, SALEM, OR, 97306","Match","Exact","2236 GIOVANNI AVE S, SALEM, OR, 97306",651597247,"L"
123604,"2236 GUILFORD AVE","BALTIMORE","MD",21218,39.315081306,-76.612706999,104,"2236 GUILFORD AVE, BALTIMORE, MD, 21218","Match","Exact","2236 GUILFORD AVE, BALTIMORE, MD, 21218",206419029,"L"
123605,"2236 HAWK DR","NEW BRAUNFELS","TX",78130,29.672749088,-98.036590287,105,"2236 HAWK DR, NEW BRAUNFELS, TX, 78130","Match","Exact","2236 HAWK DR, NEW BRAUNFELS, TX, 78130",650817293,"R"
123606,"2236 LAFAYETTE AVE","TERRE HAUTE","IN",47805,39.5123510820001,-87.382597771,106,"2236 LAFAYETTE AVE, TERRE HAUTE, IN, 47805","Match","Exact","2236 LAFAYETTE AVE, TERRE HAUTE, IN, 47805",27115539,"L"
123607,"2236 LAKE DR","PASADENA","MD",21122,39.138465167,-76.44287625,107,"2236 LAKE DR, PASADENA, MD, 21122","Match","Exact","2236 LAKE DR, PASADENA, MD, 21122",68166713,"L"
123608,"2236 LEE LOOP","OXFORD","MS",38655,34.3535960090001,-89.546705163,108,"2236 LEE LOOP, OXFORD, MS, 38655","Match","Exact","2236 LEE LOOP, OXFORD, MS, 38655",76963064,"L"
123609,"2236 MEYER PL","COSTA MESA","CA",92627,33.65563996,-117.925071732,109,"2236 MEYER PL, COSTA MESA, CA, 92627","Match","Exact","2236 MEYER PL, COSTA MESA, CA, 92627",144046244,"R"
123610,"2236 N CYPRESS BEND DR 505","POMPANO BEACH","FL",33069,NA,NA,110,"2236 N CYPRESS BEND DR 505, POMPANO BEACH, FL, 33069","Tie",NA,NA,NA,NA
123611,"2236 NICHOLAS CT","SEYMOUR","IN",47274,38.9614627940001,-85.846577157,111,"2236 NICHOLAS CT, SEYMOUR, IN, 47274","Match","Exact","2236 NICHOLAS CT, SEYMOUR, IN, 47274",31257579,"L"
123612,"2236 NORTH FOSTER DRIVE","BATON ROUGE","LA",70806,30.468899198,-91.1397769709999,112,"2236 NORTH FOSTER DRIVE, BATON ROUGE, LA, 70806","Match","Exact","2236 N FOSTER DR, BATON ROUGE, LA, 70806",92181757,"R"
123613,"2236 NORTH ROAD","GARDENDALE","AL",35071,33.6771070240001,-86.820328134,113,"2236 NORTH ROAD, GARDENDALE, AL, 35071","Match","Exact","2236 NORTH RD, GARDENDALE, AL, 35071",640552814,"L"
123614,"2236 ORIOLE STREET","NEW ORLEANS","LA",70122,30.0284292160001,-90.059419781,114,"2236 ORIOLE STREET, NEW ORLEANS, LA, 70122","Match","Exact","2236 ORIOLE ST, NEW ORLEANS, LA, 70122",191704014,"R"
123615,"2236 RIVER TRAILS CIRCLE","RANCHO CORDOVA","CA",95670,38.603979085,-121.302511097,115,"2236 RIVER TRAILS CIRCLE, RANCHO CORDOVA, CA, 95670","Match","Exact","2236 RIVER TRAILS CIR, RANCHO CORDOVA, CA, 95670",133343981,"R"
123616,"2236 S BROADWAY STREET SUITE M","SANTA MARIA","CA",93454,NA,NA,116,"2236 S BROADWAY STREET SUITE M, SANTA MARIA, CA, 93454","No_Match",NA,NA,NA,NA
123617,"2236 SPRING STONE CT","BUFORD","GA",30519,34.083622532,-83.885689116,117,"2236 SPRING STONE CT, BUFORD, GA, 30519","Match","Exact","2236 SPRING STONE CT, BUFORD, GA, 30519",645835870,"R"
123618,"2236 ST CHARLES AVENUE","NEW ORLEANS","LA",70130,29.9337823700001,-90.0809415689999,118,"2236 ST CHARLES AVENUE, NEW ORLEANS, LA, 70130","Match","Exact","2236 SAINT CHARLES AVE, NEW ORLEANS, LA, 70130",191713981,"L"
123619,"2236 SWAN LAKE COURT","GRAYSON GA","GA",30017,33.8721280410001,-83.963043764,119,"2236 SWAN LAKE COURT, GRAYSON GA, GA, 30017","Match","Non_Exact","2236 SWAN LAKE CT SW, GRAYSON, GA, 30017",624794603,"R"
123620,"2236 TAWNY OWL ROAD","GRAND PRAIRIE","TX",75052,32.6464154350001,-97.036213011,120,"2236 TAWNY OWL ROAD, GRAND PRAIRIE, TX, 75052","Match","Exact","2236 TAWNY OWL RD, GRAND PRAIRIE, TX, 75052",617673079,"R"
123621,"2236 TILLMAN AVENUE","WINTER GARDEN","FL",34787,28.5155515590001,-81.577916382,121,"2236 TILLMAN AVENUE, WINTER GARDEN, FL, 34787","Match","Exact","2236 TILLMAN AVE, WINTER GARDEN, FL, 34787",637577401,"L"
123622,"2236 TONIWOOD LANE","PALM HARBOR","FL",34685,28.093245542,-82.687799969,122,"2236 TONIWOOD LANE, PALM HARBOR, FL, 34685","Match","Exact","2236 TONIWOOD LN, PALM HARBOR, FL, 34685",124680427,"L"
123623,"2236 VILLAGE CENTER DRIVE","ENCINITAS","CA",92024,33.059192335,-117.246902821,123,"2236 VILLAGE CENTER DRIVE, ENCINITAS, CA, 92024","Match","Exact","2236 VILLAGE CENTER DR, ENCINITAS, CA, 92024",195293465,"L"
123624,"2236 WARM SPRINGS ROAD","COLUMBUS","GA",31904,32.498892046,-84.960224983,124,"2236 WARM SPRINGS ROAD, COLUMBUS, GA, 31904","Match","Exact","2236 WARM SPRINGS RD, COLUMBUS, GA, 31904",98938642,"R"
123625,"22360 FLAMINGO STREET","GRAND TERRACE","CA",92313,34.0222370540001,-117.316051418,125,"22360 FLAMINGO STREET, GRAND TERRACE, CA, 92313","Match","Exact","22360 FLAMINGO ST, GRAND TERRACE, CA, 92313",144658939,"L"
123626,"22362 475TH AVENUE","FLANDREAU","SD",57028,44.1407424430001,-96.7094840669999,126,"22362 475TH AVENUE, FLANDREAU, SD, 57028","Match","Exact","22362 475TH AVE, FLANDREAU, SD, 57028",639217578,"R"
123627,"22365 BARTON ROAD SUITE 207","GRAND TERRACE","CA",92313,34.033898686,-117.31771907,127,"22365 BARTON ROAD SUITE 207, GRAND TERRACE, CA, 92313","Match","Exact","22365 BARTON RD, GRAND TERRACE, CA, 92313",144975323,"R"
123628,"22365 EL TORO RD 442","LAKE FOREST","CA",92630,33.664815622,-117.631070756,128,"22365 EL TORO RD 442, LAKE FOREST, CA, 92630","Match","Exact","22365 EL TORO RD, LAKE FOREST, CA, 92630",144408511,"R"
123629,"22367 LASALLE RAOD","PORT CHARLOTTE","FL",33952,27.0002714120001,-82.079708118,129,"22367 LASALLE RAOD, PORT CHARLOTTE, FL, 33952","Match","Non_Exact","22367 LASALLE RD, PORT CHARLOTTE, FL, 33952",4309002,"R"
123630,"2237 33RD STREET NE","WASHINGTON","DC",20018,38.91895606,-76.961346097,130,"2237 33RD STREET NE, WASHINGTON, DC, 20018","Match","Exact","2237 33RD ST NE, WASHINGTON, DC, 20018",76237981,"R"
123631,"2237 ALLMAN DRIVE","LOVEJOY","GA",30236,NA,NA,131,"2237 ALLMAN DRIVE, LOVEJOY, GA, 30236","No_Match",NA,NA,NA,NA
123632,"2237 AMHERST AVE","SPRING HILL","FL",34609,28.4668674500001,-82.538700821,132,"2237 AMHERST AVE, SPRING HILL, FL, 34609","Match","Exact","2237 AMHERST AVE, SPRING HILL, FL, 34609",85431927,"L"
123633,"2237 BIA 27","PORCUPINE","SD",57772,NA,NA,133,"2237 BIA 27, PORCUPINE, SD, 57772","No_Match",NA,NA,NA,NA
123634,"2237 CADDEN ROAD","AUGUSTA","GA",30906,33.4042985770001,-82.03670027,134,"2237 CADDEN ROAD, AUGUSTA, GA, 30906","Match","Exact","2237 CADDEN RD, AUGUSTA, GA, 30906",55637501,"R"
123635,"2237 CARMACK RD","RIPLEY","TN",38063,35.780929917,-89.485790277,135,"2237 CARMACK RD, RIPLEY, TN, 38063","Match","Exact","2237 CARMACK RD, RIPLEY, TN, 38063",63779507,"L"
123636,"2237 COUNTY ROAD 1236","BLANCHARD","OK",73010,35.2236547480001,-97.7171368149999,136,"2237 COUNTY ROAD 1236, BLANCHARD, OK, 73010","Match","Exact","2237 CO RD 1236, BLANCHARD, OK, 73010",625153811,"R"
123637,"2237 E 151ST ST APT 4","CARMEL","IN",46033,NA,NA,137,"2237 E 151ST ST APT 4, CARMEL, IN, 46033","No_Match",NA,NA,NA,NA
123638,"2237 E MCDOWELL RD","PHOENIX","AZ",85008,33.465767048,-112.033193541,138,"2237 E MCDOWELL RD, PHOENIX, AZ, 85008","Match","Non_Exact","2237 E MCDOWELL RD, PHOENIX, AZ, 85006",128214605,"R"
123639,"2237 E WOOD ST","PHOENIX","AZ",85040,33.4085904310001,-112.032621053,139,"2237 E WOOD ST, PHOENIX, AZ, 85040","Match","Exact","2237 E WOOD ST, PHOENIX, AZ, 85040",128215984,"R"
123640,"2237 FLAT CREEK","RICHARDSON","TX",75080,32.9841138520001,-96.737409201,140,"2237 FLAT CREEK, RICHARDSON, TX, 75080","Match","Non_Exact","2237 FLAT CREEK DR, RICHARDSON, TX, 75080",102896547,"L"
123641,"2237 HARDING STREET REAR APARTMENT","HOLLYWOOD","FL",33020,26.027929913,-80.152102027,141,"2237 HARDING STREET REAR APARTMENT, HOLLYWOOD, FL, 33020","Match","Exact","2237 HARDING ST, HOLLYWOOD, FL, 33020",114730387,"R"
123642,"2237 HERITAGE DRIVE","SAINT LOUIS","MO",63136,38.769654288,-90.256338627,142,"2237 HERITAGE DRIVE, SAINT LOUIS, MO, 63136","Match","Exact","2237 HERITAGE DR, SAINT LOUIS, MO, 63136",100148198,"L"
123643,"2237 NORTH 42ND STREET","MILWAUKEE","WI",53208,43.0597796120001,-87.9658345189999,143,"2237 NORTH 42ND STREET, MILWAUKEE, WI, 53208","Match","Exact","2237 N 42ND ST, MILWAUKEE, WI, 53208",77732418,"L"
123644,"2237 REISTERSTOWN ROAD","BALTIMORE","MD",21217,39.3140130730001,-76.6472569589999,144,"2237 REISTERSTOWN ROAD, BALTIMORE, MD, 21217","Match","Exact","2237 REISTERSTOWN RD, BALTIMORE, MD, 21217",206414459,"R"
123645,"2237 SOUTH THIRD STREET WEST","MISSOULA","MT",59801,46.8669392790001,-114.033456393,145,"2237 SOUTH THIRD STREET WEST, MISSOULA, MT, 59801","Match","Exact","2237 S 3RD ST W, MISSOULA, MT, 59801",205277190,"L"
123646,"2237 SUWANEE DRIVE","MARRERO","LA",70072,29.8668687360001,-90.106861421,146,"2237 SUWANEE DRIVE, MARRERO, LA, 70072","Match","Exact","2237 SUWANEE DR, MARRERO, LA, 70072",93519516,"L"
123647,"2237 SW DAPSCO AVENUE","PORT SAINT LUCIE","FL",34953,27.270976908,-80.417115952,147,"2237 SW DAPSCO AVENUE, PORT SAINT LUCIE, FL, 34953","Match","Exact","2237 SW DAPSCO AVE, PORT ST LUCIE, FL, 34953",120172671,"L"
123648,"2237 TULIP TREE CIRCLE","SUFFOLK","VA",23435,36.853926766,-76.472693563,148,"2237 TULIP TREE CIRCLE, SUFFOLK, VA, 23435","Match","Non_Exact","2237 TULIPTREE CIR, SUFFOLK, VA, 23435",624898515,"R"
123649,"2237 VALLEY PLACE","SANTA ROSA","CA",95405,38.4319796670001,-122.657897061,149,"2237 VALLEY PLACE, SANTA ROSA, CA, 95405","Match","Exact","2237 VALLEY PL, SANTA ROSA, CA, 95405",67517550,"R"
123650,"2237 WEST 5140 SOUTH","TAYLORSVILLE","UT",84129,40.6578244880001,-111.949112154,150,"2237 WEST 5140 SOUTH, TAYLORSVILLE, UT, 84129","Match","Exact","2237 W 5140 S, TAYLORSVILLE, UT, 84129",645874201,"R"
123651,"2237 WESTMINSTER AVE","ALHAMBRA","CA",91803,34.067333186,-118.156953016,151,"2237 WESTMINSTER AVE, ALHAMBRA, CA, 91803","Match","Exact","2237 WESTMINSTER AVE, ALHAMBRA, CA, 91803",142736967,"R"
123652,"2237 WOODVILLE RD","LOCUST GROVE","VA",22508,38.3729226620001,-77.814367094,152,"2237 WOODVILLE RD, LOCUST GROVE, VA, 22508","Match","Exact","2237 WOODVILLE RD, LOCUST GROVE, VA, 22508",29892415,"R"
123653,"2237 YELLOW SMOKE ROAD","DENISON","IA",51442,42.03336692,-95.314417162,153,"2237 YELLOW SMOKE ROAD, DENISON, IA, 51442","Match","Exact","2237 YELLOW SMOKE RD, DENISON, IA, 51442",82270523,"L"
123654,"22372 SWEETSPIRE DR","CLARKSBURG","MD",20871,39.2262266280001,-77.24967371,154,"22372 SWEETSPIRE DR, CLARKSBURG, MD, 20871","Match","Exact","22372 SWEETSPIRE DR, CLARKSBURG, MD, 20871",648058483,"L"
123655,"22373 SWEET JASMINE LANE","WOODLAND HILLS","CA",91367,34.180234639,-118.61331867,155,"22373 SWEET JASMINE LANE, WOODLAND HILLS, CA, 91367","Match","Exact","22373 SWEET JASMINE LN, WOODLAND HILLS, CA, 91367",141824488,"R"
123656,"22374 DUCK LAKE DRIVE","MENAHGA","MN",56464,46.8027339440001,-94.907217206,156,"22374 DUCK LAKE DRIVE, MENAHGA, MN, 56464","Match","Exact","22374 DUCK LAKE DR, MENAHGA, MN, 56464",646693747,"L"
123657,"22374 W WAR EAGLE RD","SPRINGDALE","AR",72764,36.203260588,-93.9875930489999,157,"22374 W WAR EAGLE RD, SPRINGDALE, AR, 72764","Match","Exact","22374 W WAR EAGLE RD, SPRINGDALE, AR, 72764",625323758,"R"
123658,"22375 BRODERICK DR SUITE 140","DULLES","VA",20166,39.001604113,-77.448912967,158,"22375 BRODERICK DR SUITE 140, DULLES, VA, 20166","Match","Exact","22375 BRODERICK DR, DULLES, VA, 20166",62362936,"R"
123659,"22378 CANYON CLUB DRIVE","CANYON LAKE","CA",92587,33.684459626,-117.267686275,159,"22378 CANYON CLUB DRIVE, CANYON LAKE, CA, 92587","Match","Exact","22378 CANYON CLUB DR, CANYON LAKE, CA, 92587",194707178,"R"
123660,"2238 ASHEVILLE ROAD","WAYNESVILLE","NC",28786,35.50843201,-82.966362348,160,"2238 ASHEVILLE ROAD, WAYNESVILLE, NC, 28786","Match","Exact","2238 ASHEVILLE RD, WAYNESVILLE, NC, 28786",151804389,"R"
123661,"2238 BEACON POINT BLVD","PALM HARBOR","FL",34683,28.086376488,-82.7454582779999,161,"2238 BEACON POINT BLVD, PALM HARBOR, FL, 34683","Match","Exact","2238 BEACON POINT BLVD, PALM HARBOR, FL, 34683",124662595,"R"
123662,"2238 DEER SPRINGS TRAIL","SHILOH","IL",62221,38.565093717,-89.9440482649999,162,"2238 DEER SPRINGS TRAIL, SHILOH, IL, 62221","Match","Exact","2238 DEER SPRINGS TRL, SHILOH, IL, 62221",635625541,"R"
123663,"2238 GREENSIDE PLACE","SCOTCH PLAINS","NJ",7076,40.6577168690001,-74.392515875,163,"2238 GREENSIDE PLACE, SCOTCH PLAINS, NJ, 7076","Match","Exact","2238 GREENSIDE PL, SCOTCH PLAINS, NJ, 07076",60565961,"R"
123664,"2238 LEGACY TRAIL","IRVING","TX",75063,32.924151039,-96.9746930219999,164,"2238 LEGACY TRAIL, IRVING, TX, 75063","Match","Exact","2238 LEGACY TRL, IRVING, TX, 75063",635289913,"L"
123665,"2238 MOTT AVE","N CHARLESTON","SC",29405,32.8494197140001,-79.9788740549999,165,"2238 MOTT AVE, N CHARLESTON, SC, 29405","Match","Exact","2238 MOTT AVE, N CHARLESTON, SC, 29405",108802372,"L"
123666,"2238 NOLEN DR","FLINT","MI",48504,43.0118295010001,-83.719133616,166,"2238 NOLEN DR, FLINT, MI, 48504","Match","Exact","2238 NOLEN DR, FLINT, MI, 48504",69565400,"R"
123667,"2238 PASEO DEL REY STREET","NEEDLES","CA",92363,34.825171676,-114.608649912,167,"2238 PASEO DEL REY STREET, NEEDLES, CA, 92363","Match","Exact","2238 PASEO DEL REY ST, NEEDLES, CA, 92363",145201196,"R"
123668,"2238 SHOAL LOOP","MANDAN","ND",58554,46.8034425110001,-100.833661437,168,"2238 SHOAL LOOP, MANDAN, ND, 58554","Match","Exact","2238 SHOAL LOOP, MANDAN, ND, 58554",625744261,"R"
123669,"2238 W CERMAK ROAD","CHICAGO","IL",60608,41.8520864910001,-87.682187988,169,"2238 W CERMAK ROAD, CHICAGO, IL, 60608","Match","Exact","2238 W CERMAK RD, CHICAGO, IL, 60608",111802275,"R"
123670,"2238 W CERMAK","CHICAGO","IL",60608,NA,NA,170,"2238 W CERMAK, CHICAGO, IL, 60608","No_Match",NA,NA,NA,NA
123671,"2238 W NATIONAL AVE","MILWAUKEE","WI",53204,43.0225635840001,-87.941426151,171,"2238 W NATIONAL AVE, MILWAUKEE, WI, 53204","Match","Exact","2238 W NATIONAL AVE, MILWAUKEE, WI, 53204",77740802,"R"
123672,"22380 BROADWAY","SONOMA","CA",95476,38.250851331,-122.450922824,172,"22380 BROADWAY, SONOMA, CA, 95476","Match","Exact","22380 BROADWAY, SONOMA, CA, 95476",67508784,"L"
123673,"22383 THIRD RD","LOOGOOTEE","IN",47553,38.823170729,-86.88728292,173,"22383 THIRD RD, LOOGOOTEE, IN, 47553","Match","Exact","22383 THIRD RD, LOOGOOTEE, IN, 47553",32105107,"L"
123674,"22385 HWY 92 SOUTH","SILSBEE","TX",77656,NA,NA,174,"22385 HWY 92 SOUTH, SILSBEE, TX, 77656","No_Match",NA,NA,NA,NA
123675,"22386 MOUNTAIN VIEW ROAD","MORENO VALLEY","CA",92557,33.9702768940001,-117.271985891,175,"22386 MOUNTAIN VIEW ROAD, MORENO VALLEY, CA, 92557","Match","Exact","22386 MOUNTAIN VIEW RD, MORENO VALLEY, CA, 92557",194798355,"R"
123676,"22387 NE 101ST PL","REDMOND","WA",98053,47.6886837590001,-122.042664521,176,"22387 NE 101ST PL, REDMOND, WA, 98053","Match","Exact","22387 NE 101ST PL, REDMOND, WA, 98053",186958042,"R"
123677,"22387 SW 89TH AVE","CUTLER BAY","FL",33190,NA,NA,177,"22387 SW 89TH AVE, CUTLER BAY, FL, 33190","No_Match",NA,NA,NA,NA
123678,"22387 WHITMAN ROAD","BROOKSVILLE","FL",34601,28.5930229030001,-82.36328528,178,"22387 WHITMAN ROAD, BROOKSVILLE, FL, 34601","Match","Exact","22387 WHITMAN RD, BROOKSVILLE, FL, 34601",640084867,"L"
123679,"22388 ARMSTRONG DRIVE","LEONARDTOWN","MD",20650,38.282889853,-76.663506245,179,"22388 ARMSTRONG DRIVE, LEONARDTOWN, MD, 20650","Match","Exact","22388 ARMSTRONG DR, LEONARDTOWN, MD, 20650",36650335,"R"
123680,"223897","PRINCEVILLE","HI",96722,NA,NA,180,"223897, PRINCEVILLE, HI, 96722","No_Match",NA,NA,NA,NA
123681,"2239 1/2 CHERRY AVE","STEUBENVILLE","OH",43952,40.3734244240001,-80.6421962379999,181,"2239 1/2 CHERRY AVE, STEUBENVILLE, OH, 43952","Match","Exact","2239 CHERRY AVE, STEUBENVILLE, OH, 43952",37800593,"R"
123682,"2239 ALMA BLVD  2","VAN BUREN","AR",72956,35.4437839060001,-94.33444861,182,"2239 ALMA BLVD  2, VAN BUREN, AR, 72956","Match","Exact","2239 ALMA BLVD, VAN BUREN, AR, 72956",53476931,"L"
123683,"2239 AUTUMN TRACE PARKWAY","WENTZVILLE","MO",63385,38.836066939,-90.89731648,183,"2239 AUTUMN TRACE PARKWAY, WENTZVILLE, MO, 63385","Match","Exact","2239 AUTUMN TRACE PKWY, WENTZVILLE, MO, 63385",100097343,"R"
123684,"2239 CLARKSON STREET","DENVER","CO",80205,39.749989036,-104.976958325,184,"2239 CLARKSON STREET, DENVER, CO, 80205","Match","Exact","2239 CLARKSON ST, DENVER, CO, 80205",177305623,"L"
123685,"2239 CROMWELL CIRCLE UNIT 718","AUSTIN","TX",78741,30.228287019,-97.719259288,185,"2239 CROMWELL CIRCLE UNIT 718, AUSTIN, TX, 78741","Match","Exact","2239 CROMWELL CIR, AUSTIN, TX, 78741",650109961,"L"
123686,"2239 DEMOCRAT ROAD","MEMPHIS","TN",38132,35.068727037,-89.9890461529999,186,"2239 DEMOCRAT ROAD, MEMPHIS, TN, 38132","Match","Exact","2239 DEMOCRAT RD, MEMPHIS, TN, 38132",607513900,"R"
123687,"2239 DEVERON DRIVE","LOUISVILLE","KY",40216,38.199471815,-85.819529992,187,"2239 DEVERON DRIVE, LOUISVILLE, KY, 40216","Match","Exact","2239 DEVERON DR, LOUISVILLE, KY, 40216",96837116,"R"
123688,"2239 DOVER CENTER ROAD","WESTLAKE","OH",44145,41.455384914,-81.9220372569999,188,"2239 DOVER CENTER ROAD, WESTLAKE, OH, 44145","Match","Exact","2239 DOVER CENTER RD, WESTLAKE, OH, 44145",61137994,"L"
123689,"2239 DR SANDERS RD","CROSSROADS","TX",76227,33.245382078,-96.972967565,189,"2239 DR SANDERS RD, CROSSROADS, TX, 76227","Match","Exact","2239 DR SANDERS RD, CROSSROADS, TX, 76227",653236075,"R"
123690,"2239 E 1500 N ROAD","WATSEKA","IL",60970,40.7299170640001,-87.702832185,190,"2239 E 1500 N ROAD, WATSEKA, IL, 60970","Match","Exact","2239 E 1500 NORTH RD, WATSEKA, IL, 60970",90757001,"R"
123691,"2239 E MORES TRAIL DR","MERIDIAN","ID",83642,43.555415903,-116.366150982,191,"2239 E MORES TRAIL DR, MERIDIAN, ID, 83642","Match","Exact","2239 E MORES TRAIL DR, MERIDIAN, ID, 83642",649027714,"L"
123692,"2239 FM 716","CONCEPCION","TX",78349,27.39634533,-98.358243076,192,"2239 FM 716, CONCEPCION, TX, 78349","Match","Exact","2239 FM 716, CONCEPCION, TX, 78349",21379942,"R"
123693,"2239 JOHNNIE LANE","GREENVILLE","MS",38703,33.412058954,-91.022489944,193,"2239 JOHNNIE LANE, GREENVILLE, MS, 38703","Match","Exact","2239 JOHNNIE LN, GREENVILLE, MS, 38703",1155537,"R"
123694,"2239 NC HWY 181","MORGANTON","NC",28655,35.776559138,-81.754903778,194,"2239 NC HWY 181, MORGANTON, NC, 28655","Match","Non_Exact","2239 STATE HWY 181, MORGANTON, NC, 28655",640112390,"L"
123695,"2239 PENN AVE","WESTLAWN","PA",19609,NA,NA,195,"2239 PENN AVE, WESTLAWN, PA, 19609","No_Match",NA,NA,NA,NA
123696,"2239 ROLLING RIDGE RD","CHULA VISTA","CA",91914,32.662387134,-116.976147642,196,"2239 ROLLING RIDGE RD, CHULA VISTA, CA, 91914","Match","Exact","2239 ROLLING RIDGE RD, CHULA VISTA, CA, 91914",195655041,"L"
123697,"2239 S RENNICK","APACHE JUNCTION","AZ",85120,33.3947808890001,-111.555991322,197,"2239 S RENNICK, APACHE JUNCTION, AZ, 85120","Match","Non_Exact","2239 S RENNICK DR, APACHE JUNCTION, AZ, 85120",647364256,"R"
123698,"2239 S VALLE VERDE","MESA","AZ",85209,33.3746993070001,-111.607584543,198,"2239 S VALLE VERDE, MESA, AZ, 85209","Match","Exact","2239 S VALLE VERDE, MESA, AZ, 85209",243964006,"R"
123699,"2239 SUGARLOAF TRAIL","HAMPTON","GA",30228,33.4425211010001,-84.3186072249999,199,"2239 SUGARLOAF TRAIL, HAMPTON, GA, 30228","Match","Non_Exact","2239 SUGARLEAF TRL, HAMPTON, GA, 30228",637663362,"R"
123700,"2239 WEST 2075 NORTH","CLINTON","UT",84015,41.143803147,-112.068980457,200,"2239 WEST 2075 NORTH, CLINTON, UT, 84015","Match","Exact","2239 W 2075 N, CLINTON, UT, 84015",629561976,"L"
123701,"2239 WILSON DR","HAMILTON","IA",50116,41.165445774,-92.924209392,201,"2239 WILSON DR, HAMILTON, IA, 50116","Match","Exact","2239 WILSON DR, HAMILTON, IA, 50116",89474679,"L"
123702,"2239-43 EAST FAYETTE STREET","BALTIMORE","MD",21231,NA,NA,202,"2239-43 EAST FAYETTE STREET, BALTIMORE, MD, 21231","No_Match",NA,NA,NA,NA
123703,"22391 WOODGROVE ROAD","LAKE FOREST","CA",92630,33.639167811,-117.704936768,203,"22391 WOODGROVE ROAD, LAKE FOREST, CA, 92630","Match","Exact","22391 WOODGROVE RD, LAKE FOREST, CA, 92630",144062923,"L"
123704,"22392 BELLE TERRA DRIVE","ASHBURN","VA",20148,38.9966650260001,-77.513011079,204,"22392 BELLE TERRA DRIVE, ASHBURN, VA, 20148","Match","Exact","22392 BELLE TERRA DR, ASHBURN, VA, 20148",62353448,"L"
123705,"22392 FOOTHILL BLVD","HAYWARD","CA",94541,37.6764653330001,-122.082643921,205,"22392 FOOTHILL BLVD, HAYWARD, CA, 94541","Match","Exact","22392 FOOTHILL BLVD, HAYWARD, CA, 94541",617288048,"L"
123706,"223N REDWOOD HWY NUM 1459","CAVE JUNCTION","OR",97523,NA,NA,206,"223N REDWOOD HWY NUM 1459, CAVE JUNCTION, OR, 97523","No_Match",NA,NA,NA,NA
123707,"224 1/2 OLIVER EDWARDS RD","JONESBOROUGH","TN",37659,NA,NA,207,"224 1/2 OLIVER EDWARDS RD, JONESBOROUGH, TN, 37659","No_Match",NA,NA,NA,NA
123708,"224 12TH AVE W","BRADENTON","FL",34205,27.4890102250001,-82.5645665449999,208,"224 12TH AVE W, BRADENTON, FL, 34205","Match","Exact","224 12TH AVE W, BRADENTON, FL, 34205",16235471,"R"
123709,"224 18TH ST 4TH FLOOR","ROCK ISLAND","IL",61201,41.5107416490001,-90.574624326,209,"224 18TH ST 4TH FLOOR, ROCK ISLAND, IL, 61201","Match","Exact","224 18TH ST, ROCK ISLAND, IL, 61201",9207556,"R"
123710,"224 18TH STREET SUITE 300","ROCK ISLAND","IL",61201,41.5107416490001,-90.574624326,210,"224 18TH STREET SUITE 300, ROCK ISLAND, IL, 61201","Match","Exact","224 18TH ST, ROCK ISLAND, IL, 61201",9207556,"R"
123711,"224 22ND STREET","KENNER","LA",70062,29.997293578,-90.2696133429999,211,"224 22ND STREET, KENNER, LA, 70062","Match","Exact","224 22ND ST, KENNER, LA, 70062",93494324,"R"
123712,"224 3RD AVENUE","DEWITT","IA",52742,41.8011577,-90.3510044509999,212,"224 3RD AVENUE, DEWITT, IA, 52742","Match","Non_Exact","224 3RD AVE, DE WITT, IA, 52742",16816650,"L"
123713,"224 ABIGAIL COURT","ROCK HILL","SC",29730,34.895872302,-81.040858366,213,"224 ABIGAIL COURT, ROCK HILL, SC, 29730","Match","Exact","224 ABIGAIL CT, ROCK HILL, SC, 29730",649737973,"R"
123714,"224 ADAMS LAKE DR","LAWRENCEVILLE","GA",30046,33.938654926,-83.959044529,214,"224 ADAMS LAKE DR, LAWRENCEVILLE, GA, 30046","Match","Exact","224 ADAMS LAKE DR, LAWRENCEVILLE, GA, 30046",634064155,"L"
123715,"224 ADAMS STREET","MILTON","MA",2186,42.2652133980001,-71.064790551,215,"224 ADAMS STREET, MILTON, MA, 2186","Match","Exact","224 ADAMS ST, MILTON, MA, 02186",87295510,"L"
123716,"224 ALL ANGELS HILL RD","WAPPINGERS FALLS","NY",12590,41.5912209410001,-73.8651861239999,216,"224 ALL ANGELS HILL RD, WAPPINGERS FALLS, NY, 12590","Match","Exact","224 ALL ANGELS HILL RD, WAPPINGERS FALLS, NY, 12590",4174045,"R"
123717,"224 ANDREW DRIVE","GEORGETOWN","SC",29440,33.5336813420001,-79.351135827,217,"224 ANDREW DRIVE, GEORGETOWN, SC, 29440","Match","Exact","224 ANDREW DR, GEORGETOWN, SC, 29440",28956508,"R"
123718,"224 ANDREWS DR","GEORGETOWN","SC",29440,NA,NA,218,"224 ANDREWS DR, GEORGETOWN, SC, 29440","No_Match",NA,NA,NA,NA
123719,"224 ANTEBELLUM CIR","WARNER ROBINS","GA",31093,32.663279806,-83.695186049,219,"224 ANTEBELLUM CIR, WARNER ROBINS, GA, 31093","Match","Exact","224 ANTEBELLUM CIR, WARNER ROBINS, GA, 31093",91226987,"L"
123720,"224 ANTHONY DRIVE SUITE B","ANTHONY","NM",88021,NA,NA,220,"224 ANTHONY DRIVE SUITE B, ANTHONY, NM, 88021","No_Match",NA,NA,NA,NA
123721,"224 APPALOOSA DR","MILLS RIVER","NC",28759,35.378678074,-82.594476992,221,"224 APPALOOSA DR, MILLS RIVER, NC, 28759","Match","Exact","224 APPALOOSA DR, MILLS RIVER, NC, 28759",152324903,"R"
123722,"224 AVENIDA PELAYO STE B","SAN CLEMENTE","CA",92672,33.429307507,-117.625614076,222,"224 AVENIDA PELAYO STE B, SAN CLEMENTE, CA, 92672","Match","Exact","224 AVE PELAYO, SAN CLEMENTE, CA, 92672",144118661,"R"
123723,"224 AVENUE N","BROOKLYN","NY",11230,40.6141830450001,-73.972607551,223,"224 AVENUE N, BROOKLYN, NY, 11230","Match","Exact","224 AVENUE N, BROOKLYN, NY, 11230",59089525,"R"
123724,"224 AVENUE W","BROOKLYN","NY",11223,40.5921955520001,-73.974827504,224,"224 AVENUE W, BROOKLYN, NY, 11223","Match","Exact","224 AVENUE W, BROOKLYN, NY, 11223",59090762,"R"
123725,"224 BARNHILL ST","DURHAM","NC",27707,35.962033675,-78.9202167719999,225,"224 BARNHILL ST, DURHAM, NC, 27707","Match","Exact","224 BARNHILL ST, DURHAM, NC, 27707",71740879,"R"
123726,"224 BARRANCA AVENUE STE 6","SANTA BARBARA","CA",93109,34.402390095,-119.704414287,226,"224 BARRANCA AVENUE STE 6, SANTA BARBARA, CA, 93109","Match","Exact","224 BARRANCA AVE, SANTA BARBARA, CA, 93109",108607396,"R"
123727,"224 BENNETTS LANE","SOMERSET","NJ",8873,40.479452558,-74.511206667,227,"224 BENNETTS LANE, SOMERSET, NJ, 8873","Match","Exact","224 BENNETTS LN, SOMERSET, NJ, 08873",59974114,"R"
123728,"224 BERRY RIDGE LANE","CHESAPEAKE","VA",23435,36.804313393,-76.5153365639999,228,"224 BERRY RIDGE LANE, CHESAPEAKE, VA, 23435","Match","Non_Exact","224 BERRY RIDGE LN, SUFFOLK, VA, 23435",623820221,"R"
123729,"224 BIMINI DRIVE","PALMETTO","FL",34221,27.52434156,-82.601093842,229,"224 BIMINI DRIVE, PALMETTO, FL, 34221","Match","Exact","224 BIMINI DR, PALMETTO, FL, 34221",16261184,"R"
123730,"224 BLACK JANE LANE","NIANGUA","MO",65713,NA,NA,230,"224 BLACK JANE LANE, NIANGUA, MO, 65713","No_Match",NA,NA,NA,NA
123731,"224 BOGGS AVENUE","PITTSBURGH","PA",15211,40.4261770740001,-80.0078358979999,231,"224 BOGGS AVENUE, PITTSBURGH, PA, 15211","Match","Exact","224 BOGGS AVE, PITTSBURGH, PA, 15211",51633959,"R"
123732,"224 BOILING SPRINGS DRIVE","LEXINGTON","KY",40511,38.069083699,-84.52401632,232,"224 BOILING SPRINGS DRIVE, LEXINGTON, KY, 40511","Match","Exact","224 BOILING SPRINGS DR, LEXINGTON, KY, 40511",638660788,"R"
123733,"224 BREEZY HILL RD","LEESVILLE","SC",29070,33.935331127,-81.485974523,233,"224 BREEZY HILL RD, LEESVILLE, SC, 29070","Match","Exact","224 BREEZY HILL RD, LEESVILLE, SC, 29070",70037184,"L"
123734,"224 BRICK CHURCH RD","NEW HEMPSTEAD","NY",10977,41.139947351,-74.0628412459999,234,"224 BRICK CHURCH RD, NEW HEMPSTEAD, NY, 10977","Match","Non_Exact","224 BRICK CHURCH RD, NEW SQUARE, NY, 10977",124593089,"R"
123735,"224 BROAD STREET","JERSEY SHORE","PA",17740,NA,NA,235,"224 BROAD STREET, JERSEY SHORE, PA, 17740","Tie",NA,NA,NA,NA
123736,"224 BROOKHAVEN DRIVE","NITRO","WV",25143,38.4334883600001,-81.8044665039999,236,"224 BROOKHAVEN DRIVE, NITRO, WV, 25143","Match","Exact","224 BROOKHAVEN DR, NITRO, WV, 25143",78662260,"R"
123737,"224 BROOKSIDE AVENUE","MOUNT VERNON","NY",10553,40.908592131,-73.814817787,237,"224 BROOKSIDE AVENUE, MOUNT VERNON, NY, 10553","Match","Exact","224 BROOKSIDE AVE, MOUNT VERNON, NY, 10553",642862433,"R"
123738,"224 BURRWOOD AVENUE","HADDON TOWNSHIP","NJ",8108,39.9220751830001,-75.062314753,238,"224 BURRWOOD AVENUE, HADDON TOWNSHIP, NJ, 8108","Match","Exact","224 BURRWOOD AVE, HADDON TOWNSHIP, NJ, 08108",134349897,"R"
123739,"224 CAMBRIDGE","HOLLAND","MI",49423,42.7892984530001,-86.0683538,239,"224 CAMBRIDGE, HOLLAND, MI, 49423","Match","Non_Exact","224 CAMBRIDGE AVE, HOLLAND, MI, 49423",71077446,"L"
123740,"224 CARRIAGE WAY","WINDSOR","CT",6095,41.878030299,-72.631579244,240,"224 CARRIAGE WAY, WINDSOR, CT, 6095","Match","Exact","224 CARRIAGE WAY, WINDSOR, CT, 06095",3541015,"R"
123741,"224 CASSANDRA DR","CHALFONT","PA",18914,40.282376932,-75.223951132,241,"224 CASSANDRA DR, CHALFONT, PA, 18914","Match","Exact","224 CASSANDRA DR, CHALFONT, PA, 18914",134730456,"R"
123742,"224 CASTLE AVE","UPLAND","PA",19015,39.856474742,-75.3817411599999,242,"224 CASTLE AVE, UPLAND, PA, 19015","Match","Exact","224 CASTLE AVE, UPLAND, PA, 19015",134889684,"L"
123743,"224 CASTLE AVENUE","UPLAND","PA",19015,39.856474742,-75.3817411599999,243,"224 CASTLE AVENUE, UPLAND, PA, 19015","Match","Exact","224 CASTLE AVE, UPLAND, PA, 19015",134889684,"L"
123744,"224 CASTLETON PL","UPPER MARLBORO","MD",20774,38.889993879,-76.820378247,244,"224 CASTLETON PL, UPPER MARLBORO, MD, 20774","Match","Exact","224 CASTLETON PL, UPPER MARLBORO, MD, 20774",76411584,"R"
123745,"224 CHAMBERSBRIDGE ROAD","BRICK","NJ",8723,40.0684743910001,-74.147527829,245,"224 CHAMBERSBRIDGE ROAD, BRICK, NJ, 8723","Match","Exact","224 CHAMBERSBRIDGE RD, BRICK, NJ, 08723",647014070,"R"
123746,"224 CLUB LAKE ROAD","TYNER","KY",40486,NA,NA,246,"224 CLUB LAKE ROAD, TYNER, KY, 40486","No_Match",NA,NA,NA,NA
123747,"224 COLLINS RD","RICHMOND","TX",77469,29.5826675430001,-95.7720691329999,247,"224 COLLINS RD, RICHMOND, TX, 77469","Match","Exact","224 COLLINS RD, RICHMOND, TX, 77469",639260183,"R"
123748,"224 COMMERCIAL BLVD SUITE 300","LAUDERDALE BY THE SE","FL",33308,26.189863229,-80.0985009519999,248,"224 COMMERCIAL BLVD SUITE 300, LAUDERDALE BY THE SE, FL, 33308","Match","Non_Exact","224 COMMERCIAL BLVD, FORT LAUDERDALE, FL, 33308",114725057,"L"
123749,"224 COMMONWEALTH APT 312","FULLERTON","CA",92832,NA,NA,249,"224 COMMONWEALTH APT 312, FULLERTON, CA, 92832","No_Match",NA,NA,NA,NA
123750,"224 COUNTY ROAD 4770","CASTROVILLE","TX",78009,29.351837985,-98.900280972,250,"224 COUNTY ROAD 4770, CASTROVILLE, TX, 78009","Match","Exact","224 CO RD 4770, CASTROVILLE, TX, 78009",102811482,"R"
123751,"224 CRAFTSMAN CIR","SUFFOLK","VA",23434,36.776726619,-76.587451528,251,"224 CRAFTSMAN CIR, SUFFOLK, VA, 23434","Match","Exact","224 CRAFTSMAN CIR, SUFFOLK, VA, 23434",640861863,"L"
123752,"224 CUISEAUX CT","SAINT LOUIS","MO",63141,38.6588341660001,-90.4720436549999,252,"224 CUISEAUX CT, SAINT LOUIS, MO, 63141","Match","Exact","224 CUISEAUX CT, SAINT LOUIS, MO, 63141",100123202,"R"
123753,"224 CYPRESS STREET","PARK HILLS","MO",63601,37.8624746020001,-90.5220650809999,253,"224 CYPRESS STREET, PARK HILLS, MO, 63601","Match","Exact","224 CYPRESS ST, PARK HILLS, MO, 63601",639637567,"L"
123754,"224 DALTON DR STE A","DESOTO","TX",75115,32.600551195,-96.8598918929999,254,"224 DALTON DR STE A, DESOTO, TX, 75115","Match","Exact","224 DALTON DR, DESOTO, TX, 75115",102953629,"L"
123755,"224 DATURA ST SUITE 303","WEST PALM BEACH","FL",33401,26.7122427460001,-80.051056864,255,"224 DATURA ST SUITE 303, WEST PALM BEACH, FL, 33401","Match","Exact","224 DATURA ST, WEST PALM BEACH, FL, 33401",115278673,"L"
123756,"224 DATURA ST SUITE 815","WEST PALM BEACH","FL",33401,26.7122427460001,-80.051056864,256,"224 DATURA ST SUITE 815, WEST PALM BEACH, FL, 33401","Match","Exact","224 DATURA ST, WEST PALM BEACH, FL, 33401",115278673,"L"
123757,"224 DAVID LIND DRIVE","INDIANAPOLIS","IN",46217,39.69971925,-86.162665219,257,"224 DAVID LIND DRIVE, INDIANAPOLIS, IN, 46217","Match","Exact","224 DAVID LIND DR, INDIANAPOLIS, IN, 46217",108006587,"R"
123758,"224 DAVIS STREET","MINERAL POINT","WI",53563,42.8631658830001,-90.18002892,258,"224 DAVIS STREET, MINERAL POINT, WI, 53563","Match","Non_Exact","224 DAVIS ST, MINERAL POINT, WI, 53565",49797589,"L"
123759,"224 DEWBERRY DR","LAKE JACKSON","TX",77566,29.0635801810001,-95.454908928,259,"224 DEWBERRY DR, LAKE JACKSON, TX, 77566","Match","Exact","224 DEWBERRY DR, LAKE JACKSON, TX, 77566",116602364,"R"
123760,"224 DRUMMERS LANE","PHOENIXVILLE","PA",19460,40.122751081,-75.47752708,260,"224 DRUMMERS LANE, PHOENIXVILLE, PA, 19460","Match","Exact","224 DRUMMERS LN, PHOENIXVILLE, PA, 19460",179529208,"R"
123761,"224 E 1175 S","IVINS","UT",84738,37.1468836700001,-113.673485799,261,"224 E 1175 S, IVINS, UT, 84738","Match","Non_Exact","224 E 1175 ST S, IVINS, UT, 84738",629760938,"L"
123762,"224 E 13TH AVE","REDFIELD","SD",57469,44.868389162,-98.514787466,262,"224 E 13TH AVE, REDFIELD, SD, 57469","Match","Exact","224 E 13TH AVE, REDFIELD, SD, 57469",201208422,"L"
123763,"224 E 237TH ST","BRONX","NY",10470,40.8986881180001,-73.869860177,263,"224 E 237TH ST, BRONX, NY, 10470","Match","Exact","224 E 237TH ST, BRONX, NY, 10470",80296861,"R"
123764,"224 E 68TH WAY","LONG BEACH","CA",90805,33.8785134460001,-118.199503353,264,"224 E 68TH WAY, LONG BEACH, CA, 90805","Match","Exact","224 E 68TH WAY, LONG BEACH, CA, 90805",141683186,"R"
123765,"224 E BEALE ST","KINGMAN","AZ",86401,35.189851447,-114.0556423,265,"224 E BEALE ST, KINGMAN, AZ, 86401","Match","Exact","224 BEALE ST, KINGMAN, AZ, 86401",190314651,"L"
123766,"224 E EDINGER AVE","SANTA ANA","CA",92707,33.7271292770001,-117.866136681,266,"224 E EDINGER AVE, SANTA ANA, CA, 92707","Match","Exact","224 E EDINGER AVE, SANTA ANA, CA, 92707",609059496,"R"
123767,"224 E IVINSON AVE","LARAMIE","WY",82070,41.312027588,-105.594410061,267,"224 E IVINSON AVE, LARAMIE, WY, 82070","Match","Exact","224 E IVINSON AVE, LARAMIE, WY, 82070",168740159,"L"
123768,"224 E KIOWA STREET","COLORADO SPRINGS","CO",80903,38.835229391,-104.820399759,268,"224 E KIOWA STREET, COLORADO SPRINGS, CO, 80903","Match","Exact","224 E KIOWA ST, COLORADO SPRINGS, CO, 80903",617228946,"L"
123769,"224 E SOUTH STREET","ELMHURST","IL",60126,41.885446438,-87.933380712,269,"224 E SOUTH STREET, ELMHURST, IL, 60126","Match","Exact","224 SOUTH ST, ELMHURST, IL, 60126",112545560,"R"
123770,"224 EARL ST","GREER","SC",29651,34.944747217,-82.2226665159999,270,"224 EARL ST, GREER, SC, 29651","Match","Exact","224 EARL ST, GREER, SC, 29651",38311035,"L"
123771,"224 EAST 10TH ST SUITE 15","NEW YORK CITY","NY",10003,40.7292390100001,-73.9855405489999,271,"224 EAST 10TH ST SUITE 15, NEW YORK CITY, NY, 10003","Match","Exact","224 E 10TH ST, NEW YORK, NY, 10003",59654048,"R"
123772,"224 EAST AVE 42","LOS ANGELES","CA",90031,34.092710939,-118.20741885,272,"224 EAST AVE 42, LOS ANGELES, CA, 90031","Match","Exact","224 E AVE 42, LOS ANGELES, CA, 90031",141622011,"R"
123773,"224 EAST COLLEGE STREET","PRINCETON","TX",75407,33.1826155700001,-96.499499961,273,"224 EAST COLLEGE STREET, PRINCETON, TX, 75407","Match","Non_Exact","224 E COLLEGE AVE, PRINCETON, TX, 75407",123493984,"L"
123774,"224 EAST COURT STREET","FLINT","MI",48502,43.0132979570001,-83.686116844,274,"224 EAST COURT STREET, FLINT, MI, 48502","Match","Exact","224 E COURT ST, FLINT, MI, 48502",69568923,"R"
123775,"224 EAST GARDEN STREET UNIT 235","PENSACOLA","FL",32502,30.4136616320001,-87.2118236479999,275,"224 EAST GARDEN STREET UNIT 235, PENSACOLA, FL, 32502","Match","Exact","224 E GARDEN ST, PENSACOLA, FL, 32502",93269985,"L"
123776,"224 EAST HOWE STREET","ALLENTOWN","PA",18109,40.6090351600001,-75.450792497,276,"224 EAST HOWE STREET, ALLENTOWN, PA, 18109","Match","Exact","224 E HOWE ST, ALLENTOWN, PA, 18109",627645571,"L"
123777,"224 EAST MAIN ST STE 110","ELKTON","MD",21921,39.6098105230001,-75.824227717,277,"224 EAST MAIN ST STE 110, ELKTON, MD, 21921","Match","Exact","224 E MAIN ST, ELKTON, MD, 21921",636216946,"R"
123778,"224 EAST NOBLE","GUTHRIE","OK",73044,35.8801282590001,-97.423688327,278,"224 EAST NOBLE, GUTHRIE, OK, 73044","Match","Non_Exact","224 E NOBLE AVE, GUTHRIE, OK, 73044",121955967,"R"
123779,"224 EAST OAK RIDGE DR","WEST POINT","MS",39773,33.6322421090001,-88.68563727,279,"224 EAST OAK RIDGE DR, WEST POINT, MS, 39773","Match","Exact","224 E OAK RIDGE DR, WEST POINT, MS, 39773",164184688,"R"
123780,"224 EAST WALNUT STREET","STRAWN","TX",76475,32.5474019530001,-98.4969472669999,280,"224 EAST WALNUT STREET, STRAWN, TX, 76475","Match","Non_Exact","224 W WALNUT ST, STRAWN, TX, 76475",158846231,"L"
123781,"224 EAST WARREN ST","SHELBY","NC",28150,35.290781704,-81.537846227,281,"224 EAST WARREN ST, SHELBY, NC, 28150","Match","Exact","224 E WARREN ST, SHELBY, NC, 28150",19318127,"L"
123782,"224 EAST WASHINGTON STREET","ASHLAND","OH",44805,40.867450429,-82.310291616,282,"224 EAST WASHINGTON STREET, ASHLAND, OH, 44805","Match","Exact","224 E WASHINGTON ST, ASHLAND, OH, 44805",30168593,"L"
123783,"224 ELDER AVENUE","YEADON","PA",19050,39.9330122530001,-75.262912413,283,"224 ELDER AVENUE, YEADON, PA, 19050","Match","Exact","224 ELDER AVE, YEADON, PA, 19050",134886285,"R"
123784,"224 EMERSON STREET","CHULA VISTA","CA",91911,32.6128726640001,-117.06518907,284,"224 EMERSON STREET, CHULA VISTA, CA, 91911","Match","Exact","224 EMERSON ST, CHULA VISTA, CA, 91911",195358140,"R"
123785,"224 ESTRIDGE ROAD","SAINT LOUIS","MO",63137,38.752577424,-90.1986028759999,285,"224 ESTRIDGE ROAD, SAINT LOUIS, MO, 63137","Match","Exact","224 ESTRIDGE RD, SAINT LOUIS, MO, 63137",100175267,"L"
123786,"224 EXCALIBUR ST","NORTH SALT LAKE","UT",84053,40.8542198370001,-111.905900002,286,"224 EXCALIBUR ST, NORTH SALT LAKE, UT, 84053","Match","Non_Exact","224 EXCALIBUR ST, N SALT LAKE, UT, 84054",229353888,"R"
123787,"224 FAIRVIEW AVE","NEWTON","NJ",7860,41.1277472470001,-74.789946616,287,"224 FAIRVIEW AVE, NEWTON, NJ, 7860","Match","Exact","224 FAIRVIEW AVE, NEWTON, NJ, 07860",98022515,"R"
123788,"224 FOREST AVENUE","VERMILLION","SD",57069,42.77650092,-96.9283404619999,288,"224 FOREST AVENUE, VERMILLION, SD, 57069","Match","Exact","224 FOREST AVE, VERMILLION, SD, 57069",647788971,"R"
123789,"224 FOREST PRESERVE DR","GAITHERSBURG","MD",20878,39.1536302370001,-77.231920492,289,"224 FOREST PRESERVE DR, GAITHERSBURG, MD, 20878","Match","Exact","224 FOREST PRESERVE DR, GAITHERSBURG, MD, 20878",618607110,"L"
123790,"224 GALLINA CANYON ROAD","VALDEZ","NM",87580,36.5590770060001,-105.595580927,290,"224 GALLINA CANYON ROAD, VALDEZ, NM, 87580","Match","Exact","224 GALLINA CANYON RD, VALDEZ, NM, 87580",653344186,"R"
123791,"224 GARFIELD AVENUE","BRIDGEPORT","CT",6606,41.1959440380001,-73.203895034,291,"224 GARFIELD AVENUE, BRIDGEPORT, CT, 6606","Match","Exact","224 GARFIELD AVE, BRIDGEPORT, CT, 06606",3223457,"R"
123792,"224 GEISER ROAD","WYNANTSKILL","NY",12198,42.6584667500001,-73.637285493,292,"224 GEISER ROAD, WYNANTSKILL, NY, 12198","Match","Exact","224 GEISER RD, WYNANTSKILL, NY, 12198",35742189,"L"
123793,"224 GEORGE WYTHE LANE","WILLIAMSBURG","VA",23188,37.269768454,-76.7749189369999,293,"224 GEORGE WYTHE LANE, WILLIAMSBURG, VA, 23188","Match","Exact","224 GEORGE WYTHE LN, WILLIAMSBURG, VA, 23188",103778841,"R"
123794,"224 GERARD ROAD","YAPHANK","NY",11980,40.8034586050001,-72.8962361819999,294,"224 GERARD ROAD, YAPHANK, NY, 11980","Match","Exact","224 GERARD RD, YAPHANK, NY, 11980",114064766,"R"
123795,"224 GRAND CANAL","BALBOA ISLAND","CA",90254,33.606060432,-117.888744014,295,"224 GRAND CANAL, BALBOA ISLAND, CA, 90254","Match","Non_Exact","224 GRAND CANAL, BALBOA ISLAND, CA, 92662",144050452,"R"
123796,"224 GRANT 835","SHERIDAN","AR",72150,34.333607402,-92.384850204,296,"224 GRANT 835, SHERIDAN, AR, 72150","Match","Exact","224 GRANT 835, SHERIDAN, AR, 72150",624712720,"L"
123797,"224 GREYBULL AVE","GREYBULL","WY",82426,44.48888356,-108.05017216,297,"224 GREYBULL AVE, GREYBULL, WY, 82426","Match","Exact","224 GREYBULL AVE, GREYBULL, WY, 82426",180484762,"R"
123798,"224 GROVE PARK","LAPLACE","LA",70068,30.0808971750001,-90.5092202559999,298,"224 GROVE PARK, LAPLACE, LA, 70068","Match","Non_Exact","224 GROVE PARK, LA PLACE, LA, 70068",640783385,"R"
123799,"224 GROVE ST","BLUFFTON","OH",45817,40.89230136,-83.898373847,299,"224 GROVE ST, BLUFFTON, OH, 45817","Match","Exact","224 GROVE ST, BLUFFTON, OH, 45817",209545071,"R"
123800,"224 GWENDOLA DR","MCKINNEY","TX",75071,33.2013765950001,-96.644719113,300,"224 GWENDOLA DR, MCKINNEY, TX, 75071","Match","Exact","224 GWENDOLA DR, MCKINNEY, TX, 75071",123491214,"L"
123801,"224 HARGROVE PL","WINTERVILLE","GA",30683,33.957403524,-83.253636537,301,"224 HARGROVE PL, WINTERVILLE, GA, 30683","Match","Exact","224 HARGROVE PL, WINTERVILLE, GA, 30683",633993506,"R"
123802,"224 HARRISON AVE  APT 3","LODI","NJ",7644,40.8737997470001,-74.0979608759999,302,"224 HARRISON AVE  APT 3, LODI, NJ, 7644","Match","Exact","224 HARRISON AVE, LODI, NJ, 07644",64392813,"R"
123803,"224 HAZEL TERRACE","HADDON TOWNSHIP","NJ",8108,39.9033767600001,-75.046990375,303,"224 HAZEL TERRACE, HADDON TOWNSHIP, NJ, 8108","Match","Exact","224 HAZEL TER, HADDON TOWNSHIP, NJ, 08108",134353864,"L"
123804,"224 HERITAGE RD","TONAWANDA","NY",14150,43.011164476,-78.8445581829999,304,"224 HERITAGE RD, TONAWANDA, NY, 14150","Match","Exact","224 HERITAGE RD, TONAWANDA, NY, 14150",48284602,"L"
123805,"224 HIGH STREET","PERTH AMBOY","NJ",8861,40.50532945,-74.266499183,305,"224 HIGH STREET, PERTH AMBOY, NJ, 8861","Match","Exact","224 HIGH ST, PERTH AMBOY, NJ, 08861",60281268,"R"
123806,"224 HILLCREST AVE","SOMERSET","NJ",8873,40.4964899820001,-74.485168356,306,"224 HILLCREST AVE, SOMERSET, NJ, 8873","Match","Exact","224 HILLCREST AVE, SOMERSET, NJ, 08873",59942526,"R"
123807,"224 HWY 61 S","OGALLALA","NE",69153,NA,NA,307,"224 HWY 61 S, OGALLALA, NE, 69153","No_Match",NA,NA,NA,NA
123808,"224 JANICE ST","SHOREVIEW","MN",55126,45.044495516,-93.1100448239999,308,"224 JANICE ST, SHOREVIEW, MN, 55126","Match","Exact","224 JANICE ST, SHOREVIEW, MN, 55126",97642639,"L"
123809,"224 JEFFERSON STREET APT 1R","HOBOKEN","NJ",7030,40.740359045,-74.0377492969999,309,"224 JEFFERSON STREET APT 1R, HOBOKEN, NJ, 7030","Match","Exact","224 JEFFERSON ST, HOBOKEN, NJ, 07030",59605583,"L"
123810,"224 JUNIPER CIR","STREAMWOOD","IL",60107,42.029289062,-88.156430646,310,"224 JUNIPER CIR, STREAMWOOD, IL, 60107","Match","Exact","224 JUNIPER CIR, STREAMWOOD, IL, 60107",111691680,"L"
123811,"224 KADES CT","DECHERD","TN",37324,35.2087286400001,-86.045827676,311,"224 KADES CT, DECHERD, TN, 37324","Match","Exact","224 KADES CT, DECHERD, TN, 37324",57976419,"R"
123812,"224 LAKE DR","RIPLEY","TN",38063,35.7488459960001,-89.540049529,312,"224 LAKE DR, RIPLEY, TN, 38063","Match","Exact","224 LAKE DR, RIPLEY, TN, 38063",63784997,"L"
123813,"224 LAKELAND DR","PALOS PARK","IL",60464,41.659755454,-87.86996232,313,"224 LAKELAND DR, PALOS PARK, IL, 60464","Match","Exact","224 LAKELAND DR, PALOS PARK, IL, 60464",112208780,"L"
123814,"224 LEAH COURT","SYCAMORE","IL",60178,41.9731851560001,-88.686532818,314,"224 LEAH COURT, SYCAMORE, IL, 60178","Match","Exact","224 LEAH CT, SYCAMORE, IL, 60178",52288828,"R"
123815,"224 LOGAN","BEDFORD","OH",44146,41.398679886,-81.532972765,315,"224 LOGAN, BEDFORD, OH, 44146","Match","Non_Exact","224 LOGAN ST, BEDFORD, OH, 44146",61130241,"R"
123816,"224 LONGHOUSE DRIVE","HEWITT","NJ",7421,41.19995183,-74.3679333819999,316,"224 LONGHOUSE DRIVE, HEWITT, NJ, 7421","Match","Exact","224 LONGHOUSE DR, HEWITT, NJ, 07421",65282902,"L"
123817,"224 LOUISE DRIVE","MORRISVILLE","PA",19067,40.2059989260001,-74.815176945,317,"224 LOUISE DRIVE, MORRISVILLE, PA, 19067","Match","Exact","224 LOUISE DR, MORRISVILLE, PA, 19067",636358732,"L"
123818,"224 MAIN STREET SUITE B","MONSON","MA",1057,42.096041294,-72.31252332,318,"224 MAIN STREET SUITE B, MONSON, MA, 1057","Match","Exact","224 MAIN ST, MONSON, MA, 01057",4055942,"R"
123819,"224 MARINE VIEW DR","LEWISTON","ID",83501,46.3751171960001,-117.041783825,319,"224 MARINE VIEW DR, LEWISTON, ID, 83501","Match","Exact","224 MARINE VIEW DR, LEWISTON, ID, 83501",173142764,"L"
123820,"224 MARION STREET","SAYVILLE","NY",11782,40.7494700330001,-73.097318097,320,"224 MARION STREET, SAYVILLE, NY, 11782","Match","Exact","224 MARION ST, SAYVILLE, NY, 11782",114015085,"R"
123821,"224 MARKET STREET","GEORGETOWN","PA",15043,40.6403973120001,-80.4988915119999,321,"224 MARKET STREET, GEORGETOWN, PA, 15043","Match","Exact","224 MARKET ST, GEORGETOWN, PA, 15043",52554119,"L"
123822,"224 MASTERS DR SOUTH","PEACHTREE CITY","GA",30269,33.3692499220001,-84.5511381439999,322,"224 MASTERS DR SOUTH, PEACHTREE CITY, GA, 30269","Match","Exact","224 MASTERS DR S, PEACHTREE CITY, GA, 30269",75936219,"R"
123823,"224 MEADOWBROOK AVENUE","BOARDMAN","OH",44512,41.040724674,-80.6524013759999,323,"224 MEADOWBROOK AVENUE, BOARDMAN, OH, 44512","Match","Exact","224 MEADOWBROOK AVE, BOARDMAN, OH, 44512",64598861,"L"
123824,"224 MEADOWLAKE DRIVE","RADCLIFF","KY",40160,37.8040890710001,-85.9320353689999,324,"224 MEADOWLAKE DRIVE, RADCLIFF, KY, 40160","Match","Exact","224 MEADOWLAKE DR, RADCLIFF, KY, 40160",642309262,"R"
123825,"224 MEADOWLARK LANE","COLUMBUS","OH",43214,40.0732535940001,-83.014106823,325,"224 MEADOWLARK LANE, COLUMBUS, OH, 43214","Match","Exact","224 MEADOWLARK LN, COLUMBUS, OH, 43214",647812897,"L"
123826,"224 MEMORIAL AVENUE","HADDONFIELD","NJ",8033,39.9067896810001,-75.054654601,326,"224 MEMORIAL AVENUE, HADDONFIELD, NJ, 8033","Match","Exact","224 MEMORIAL AVE, HADDONFIELD, NJ, 08033",134353754,"R"
123827,"224 MICA CT","BETHEL PARK","PA",15102,40.3015000710001,-80.066658025,327,"224 MICA CT, BETHEL PARK, PA, 15102","Match","Exact","224 MICA CT, BETHEL PARK, PA, 15102",51922471,"R"
123828,"224 MILL CHAPEL ROAD","CHAPEL HILL","NC",27517,35.88659198,-78.991405366,328,"224 MILL CHAPEL ROAD, CHAPEL HILL, NC, 27517","Match","Exact","224 MILL CHAPEL RD, CHAPEL HILL, NC, 27517",651372614,"L"
123829,"224 MILLTOWN ROAD","EAST BRUNSWICK","NJ",8816,40.4384702610001,-74.416377142,329,"224 MILLTOWN ROAD, EAST BRUNSWICK, NJ, 8816","Match","Exact","224 MILLTOWN RD, E BRUNSWICK, NJ, 08816",60269267,"R"
123830,"224 MONTEREY STREET","BRISBANE","CA",94005,37.683058551,-122.401380245,330,"224 MONTEREY STREET, BRISBANE, CA, 94005","Match","Exact","224 MONTEREY ST, BRISBANE, CA, 94005",192373214,"R"
123831,"224 MORGAN RD","GALVA","IL",61434,41.1746427530001,-90.044746704,331,"224 MORGAN RD, GALVA, IL, 61434","Match","Exact","224 MORGAN RD, GALVA, IL, 61434",8911351,"R"
123832,"224 MORNING DEW LANE","MOUNT HOLLY","NC",28120,NA,NA,332,"224 MORNING DEW LANE, MOUNT HOLLY, NC, 28120","No_Match",NA,NA,NA,NA
123833,"224 MOTES ROAD","PALATKA","FL",32177,29.632870569,-81.7249237349999,333,"224 MOTES ROAD, PALATKA, FL, 32177","Match","Exact","224 MOTES RD, PALATKA, FL, 32177",647542102,"L"
123834,"224 MOUNTAIN LAUREL BLVD","RANSON","WV",25438,39.305502393,-77.8360041829999,334,"224 MOUNTAIN LAUREL BLVD, RANSON, WV, 25438","Match","Exact","224 MOUNTAIN LAUREL BLVD, RANSON, WV, 25438",627577887,"R"
123835,"224 MYRTLE STREET","ROCKLAND","MA",2370,42.1390062230001,-70.91560248,335,"224 MYRTLE STREET, ROCKLAND, MA, 2370","Match","Exact","224 MYRTLE ST, ROCKLAND, MA, 02370",87431033,"L"
123836,"224 MYSTERY HARBOR LN","FREEPORT","TX",77541,28.960423463,-95.3643409049999,336,"224 MYSTERY HARBOR LN, FREEPORT, TX, 77541","Match","Exact","224 MYSTERY HARBOR LN, FREEPORT, TX, 77541",116631523,"L"
123837,"224 N 2ND AVE E APT 301","DULUTH","MN",55805,46.7903928430001,-92.098202067,337,"224 N 2ND AVE E APT 301, DULUTH, MN, 55805","Match","Non_Exact","224 N 2ND AVE E, DULUTH, MN, 55805",163214364,"R"
123838,"224 N 4TH ST","ALLENTOWN","PA",18102,40.607449655,-75.46710039,338,"224 N 4TH ST, ALLENTOWN, PA, 18102","Match","Exact","224 N 4TH ST, ALLENTOWN, PA, 18102",80771367,"L"
123839,"224 N BEAUMONT RD","PRAIRIE DU CHIEN","WI",53821,43.054810909,-91.146548291,339,"224 N BEAUMONT RD, PRAIRIE DU CHIEN, WI, 53821","Match","Exact","224 N BEAUMONT RD, PRAIRIE DU CHIEN, WI, 53821",642474404,"R"
123840,"224 N EAST AVENUE","FAYETTEVILE","AR",72701,36.0651414160001,-94.159583789,340,"224 N EAST AVENUE, FAYETTEVILE, AR, 72701","Match","Non_Exact","224 N EAST AVE, FAYETTEVILLE, AR, 72701",49045647,"R"
123841,"224 N ELM ST","SAGINAW","MI",48602,43.416158151,-83.982731009,341,"224 N ELM ST, SAGINAW, MI, 48602","Match","Exact","224 N ELM ST, SAGINAW, MI, 48602",80214503,"R"
123842,"224 N FAIR OAKS AVE 3RD FL","PASADENA","CA",91103,34.149746044,-118.150492364,342,"224 N FAIR OAKS AVE 3RD FL, PASADENA, CA, 91103","Match","Non_Exact","224 N FAIR OAKS AVE, PASADENA, CA, 91103",141627998,"R"
123843,"224 N HWY 67 STE 212","FLORISSANT","MO",63031,NA,NA,343,"224 N HWY 67 STE 212, FLORISSANT, MO, 63031","No_Match",NA,NA,NA,NA
123844,"224 N HWY 67 SUITE 10","FLORISSANT","MO",63031,NA,NA,344,"224 N HWY 67 SUITE 10, FLORISSANT, MO, 63031","No_Match",NA,NA,NA,NA
123845,"224 N HWY 67 SUITE 219","FLORISSANT","MO",63031,NA,NA,345,"224 N HWY 67 SUITE 219, FLORISSANT, MO, 63031","No_Match",NA,NA,NA,NA
123846,"224 N POPLAR STREET","NEW WASHINGTON","IN",47162,38.5646957870001,-85.539571526,346,"224 N POPLAR STREET, NEW WASHINGTON, IN, 47162","Match","Exact","224 N POPLAR ST, NEW WASHINGTON, IN, 47162",64895736,"R"
123847,"224 N RAILWAY ST","MASCOUTAH","IL",62258,38.4925642850001,-89.797477338,347,"224 N RAILWAY ST, MASCOUTAH, IL, 62258","Match","Exact","224 N RAILWAY ST, MASCOUTAH, IL, 62258",107822667,"R"
123848,"224 N WOODSON DR","RAYMORE","MO",64083,38.8074735770001,-94.460329315,348,"224 N WOODSON DR, RAYMORE, MO, 64083","Match","Exact","224 N WOODSON DR, RAYMORE, MO, 64083",100908205,"L"
123849,"224 NORTH ELM STREET PO BOX 213","CRESCO","IA",52136,43.3740505920001,-92.116247775,349,"224 NORTH ELM STREET PO BOX 213, CRESCO, IA, 52136","Match","Exact","224 N ELM ST, CRESCO, IA, 52136",27407623,"L"
123850,"224 NORTH HIGHWAY 67 SUITE 214","FLORISSANT","MO",63031,38.7950819860001,-90.340627549,350,"224 NORTH HIGHWAY 67 SUITE 214, FLORISSANT, MO, 63031","Match","Non_Exact","224 N US HWY 67, FLORISSANT, MO, 63031",615048412,"R"
123851,"224 NORTH HIGHWAY 67","FLORISSANT","MO",63031,38.7950819860001,-90.340627549,351,"224 NORTH HIGHWAY 67, FLORISSANT, MO, 63031","Match","Non_Exact","224 N US HWY 67, FLORISSANT, MO, 63031",615048412,"R"
123852,"224 NORTH STREET","OTHO","IA",50569,42.424723397,-94.151016936,352,"224 NORTH STREET, OTHO, IA, 50569","Match","Exact","224 NORTH ST, OTHO, IA, 50569",66077545,"R"
123853,"224 NW 7 AVE APT 4","POMPANO BEACH","FL",33060,NA,NA,353,"224 NW 7 AVE APT 4, POMPANO BEACH, FL, 33060","Tie",NA,NA,NA,NA
123854,"224 NW EMERALD LAKES DRIVE","LAKE CITY","FL",32055,30.200261219,-82.718491249,354,"224 NW EMERALD LAKES DRIVE, LAKE CITY, FL, 32055","Match","Exact","224 NW EMERALD LAKES DR, LAKE CITY, FL, 32055",606853773,"L"
123855,"224 OAKLAND STREET","RAPID CITY","SD",57701,44.06036987,-103.22239275,355,"224 OAKLAND STREET, RAPID CITY, SD, 57701","Match","Exact","224 OAKLAND ST, RAPID CITY, SD, 57701",205508751,"R"
123856,"224 ODDVILLE AVENUE","CYNTHIANA","KY",41031,38.392942734,-84.2923482689999,356,"224 ODDVILLE AVENUE, CYNTHIANA, KY, 41031","Match","Exact","224 ODDVILLE AVE, CYNTHIANA, KY, 41031",57893456,"L"
123857,"224 ORLEANS ROAD","NEWBURGH","NY",12550,41.5321149430001,-74.082265505,357,"224 ORLEANS ROAD, NEWBURGH, NY, 12550","Match","Exact","224 ORLEANS RD, NEWBURGH, NY, 12550",124485296,"R"
123858,"224 PARK AVENUE","HIGHLAND PARK","IL",60035,42.189270493,-87.79317136,358,"224 PARK AVENUE, HIGHLAND PARK, IL, 60035","Match","Exact","224 PARK AVE, HIGHLAND PARK, IL, 60035",119648476,"L"
123859,"224 PINE SAPP DR","BLYTHEWOOD","SC",29016,34.1510876360001,-80.971446353,359,"224 PINE SAPP DR, BLYTHEWOOD, SC, 29016","Match","Exact","224 PINE SAPP DR, BLYTHEWOOD, SC, 29016",627709755,"R"
123860,"224 PINELYNN ROAD","GLEN ROCK","NJ",7452,40.9573496680001,-74.117641727,360,"224 PINELYNN ROAD, GLEN ROCK, NJ, 7452","Match","Exact","224 PINELYNN RD, GLEN ROCK, NJ, 07452",64379845,"R"
123861,"224 POST OAK RD","LANCASTER","PA",17603,40.037176597,-76.390862563,361,"224 POST OAK RD, LANCASTER, PA, 17603","Match","Exact","224 POST OAK RD, LANCASTER, PA, 17603",179690388,"L"
123862,"224 PROSPECT ST","ROME","NY",13440,43.2173770520001,-75.4460889489999,362,"224 PROSPECT ST, ROME, NY, 13440","Match","Exact","224 PROSPECT ST, ROME, NY, 13440",171522363,"R"
123863,"224 PUTNAM STREET","MARIETTA","OH",45750,39.4155892860001,-81.454288171,363,"224 PUTNAM STREET, MARIETTA, OH, 45750","Match","Exact","224 PUTNAM ST, MARIETTA, OH, 45750",45681553,"R"
123864,"224 QUINCY STREET 4","DORCHESTER","MA",2121,42.3124043380001,-71.0736168779999,364,"224 QUINCY STREET 4, DORCHESTER, MA, 2121","Match","Exact","224 QUINCY ST, DORCHESTER, MA, 02121",85701853,"L"
123865,"224 RENSHAW AVE","CLAWSON","MI",48017,42.5319438970001,-83.1441073129999,365,"224 RENSHAW AVE, CLAWSON, MI, 48017","Match","Exact","224 RENSHAW AVE, CLAWSON, MI, 48017",69743730,"R"
123866,"224 RIDGE TOP LANE","LINDEN","VA",22642,38.942454346,-78.051845881,366,"224 RIDGE TOP LANE, LINDEN, VA, 22642","Match","Exact","224 RIDGE TOP LN, LINDEN, VA, 22642",159079761,"R"
123867,"224 ROSEMARY AVENUE","AMBLER","PA",19002,40.1526098520001,-75.218000445,367,"224 ROSEMARY AVENUE, AMBLER, PA, 19002","Match","Exact","224 ROSEMARY AVE, AMBLER, PA, 19002",135077760,"R"
123868,"224 S 2ND STREET","ROGERS","AR",72756,36.3317692620001,-94.117563092,368,"224 S 2ND STREET, ROGERS, AR, 72756","Match","Exact","224 S 2ND ST, ROGERS, AR, 72756",47834988,"R"
123869,"224 S 6TH STREET SUITE 4800","MINNEAPOLIS","MN",55402,44.9765219610001,-93.268296967,369,"224 S 6TH STREET SUITE 4800, MINNEAPOLIS, MN, 55402","Match","Non_Exact","224 6TH ST S, MINNEAPOLIS, MN, 55402",43632352,"L"
123870,"224 S ALFRED ST","ALEXANDRIA","VA",22314,38.8034584050001,-77.049592472,370,"224 S ALFRED ST, ALEXANDRIA, VA, 22314","Match","Exact","224 S ALFRED ST, ALEXANDRIA, VA, 22314",638930638,"L"
123871,"224 S BONNIE AVE","PASADENA","CA",91106,34.1422634840001,-118.115641047,371,"224 S BONNIE AVE, PASADENA, CA, 91106","Match","Exact","224 S BONNIE AVE, PASADENA, CA, 91106",653249344,"R"
123872,"224 S BROADWAY AVE","ALBERT LEA","MN",56007,43.6485416180001,-93.368719642,372,"224 S BROADWAY AVE, ALBERT LEA, MN, 56007","Match","Exact","224 S BROADWAY AVE, ALBERT LEA, MN, 56007",39534732,"L"
123873,"224 S IRVING STREET","RIDGEWOOD","NJ",7450,40.9731116230001,-74.1109977099999,373,"224 S IRVING STREET, RIDGEWOOD, NJ, 7450","Match","Exact","224 S IRVING ST, RIDGEWOOD, NJ, 07450",64377060,"R"
123874,"224 S OGDEN AVE","COLUMBUS","OH",43204,39.9503253390001,-83.07025563,374,"224 S OGDEN AVE, COLUMBUS, OH, 43204","Match","Exact","224 S OGDEN AVE, COLUMBUS, OH, 43204",218646417,"L"
123875,"224 S SECOND STREET","CEDAR GROVE","WI",53013,43.5705073760001,-87.825478606,375,"224 S SECOND STREET, CEDAR GROVE, WI, 53013","Match","Exact","224 S 2ND ST, CEDAR GROVE, WI, 53013",79499763,"R"
123876,"224 SABLE TRACE DRIVE","ACWORTH","GA",30102,34.1004781230001,-84.60403156,376,"224 SABLE TRACE DRIVE, ACWORTH, GA, 30102","Match","Exact","224 SABLE TRACE DR, ACWORTH, GA, 30102",627617855,"R"
123877,"224 SAND GROUSE DR","LOVELAND","CO",80537,40.3905765750001,-105.050710006,377,"224 SAND GROUSE DR, LOVELAND, CO, 80537","Match","Exact","224 SAND GROUSE DR, LOVELAND, CO, 80537",623865987,"L"
123878,"224 SCHENLEY MANOR DR","PITTSBURGH","PA",15201,40.4747258090001,-79.936800064,378,"224 SCHENLEY MANOR DR, PITTSBURGH, PA, 15201","Match","Exact","224 SCHENLEY MANOR DR, PITTSBURGH, PA, 15201",629110153,"R"
123879,"224 SNOWBERRY WAY","WEST CHESTER","PA",19380,40.013713018,-75.627868542,379,"224 SNOWBERRY WAY, WEST CHESTER, PA, 19380","Match","Exact","224 SNOWBERRY WAY, WEST CHESTER, PA, 19380",179557017,"L"
123880,"224 SOUTH BLVD","TAMPA","FL",33606,27.942496082,-82.468545862,380,"224 SOUTH BLVD, TAMPA, FL, 33606","Match","Exact","224 SOUTH BLVD, TAMPA, FL, 33606",104653621,"L"
123881,"224 SOUTH MAIN STREET  SUITE 553","SPRINGVILLE","UT",84663,40.163462059,-111.610643571,381,"224 SOUTH MAIN STREET  SUITE 553, SPRINGVILLE, UT, 84663","Match","Exact","224 S MAIN ST, SPRINGVILLE, UT, 84663",134210927,"R"
123882,"224 SOUTH MAIN STREET","WILLIAMSTOWN","KY",41097,38.6355727960001,-84.5624508499999,382,"224 SOUTH MAIN STREET, WILLIAMSTOWN, KY, 41097","Match","Exact","224 S MAIN ST, WILLIAMSTOWN, KY, 41097",103852634,"R"
123883,"224 SOUTHERN VALLEY COURT","MARS","PA",16046,NA,NA,383,"224 SOUTHERN VALLEY COURT, MARS, PA, 16046","No_Match",NA,NA,NA,NA
123884,"224 SPRING VALLEY ROAD","DARBY","PA",19023,39.924699339,-75.262138576,384,"224 SPRING VALLEY ROAD, DARBY, PA, 19023","Match","Exact","224 SPRING VALLEY RD, DARBY, PA, 19023",134900096,"L"
123885,"224 STATE HWY C","PECULIAR","MO",64078,NA,NA,385,"224 STATE HWY C, PECULIAR, MO, 64078","No_Match",NA,NA,NA,NA
123886,"224 STONECREST DR","ROEBUCK","SC",29376,34.894749115,-81.960542631,386,"224 STONECREST DR, ROEBUCK, SC, 29376","Match","Exact","224 STONECREST DR, ROEBUCK, SC, 29376",619091694,"R"
123887,"224 STONEMONT DRIVE","IRMO","SC",29063,34.1327298250001,-81.196562365,387,"224 STONEMONT DRIVE, IRMO, SC, 29063","Match","Exact","224 STONEMONT DR, IRMO, SC, 29063",625132691,"L"
123888,"224 SUMMIT DRIVE","NEW WINDSOR","NY",12553,41.4788713990001,-74.058136888,388,"224 SUMMIT DRIVE, NEW WINDSOR, NY, 12553","Match","Exact","224 SUMMIT DR, NEW WINDSOR, NY, 12553",124469489,"R"
123889,"224 SUNSET DRIVE","ALPINE","UT",84004,40.44229506,-111.782207645,389,"224 SUNSET DRIVE, ALPINE, UT, 84004","Match","Exact","224 SUNSET DR, ALPINE, UT, 84004",627798696,"L"
123890,"224 SUNSET DRIVE","ANTIGO","WI",54409,45.1348722770001,-89.171855971,390,"224 SUNSET DRIVE, ANTIGO, WI, 54409","Match","Exact","224 SUNSET DR, ANTIGO, WI, 54409",196401952,"L"
123891,"224 SUNSET LANE","CAIRO","GA",39828,30.8643600730001,-84.132171945,391,"224 SUNSET LANE, CAIRO, GA, 39828","Match","Exact","224 SUNSET LN, CAIRO, GA, 39828",646156691,"R"
123892,"224 SUNSET RD","ANN ARBOR","MI",48103,42.2909299840001,-83.7483048399999,392,"224 SUNSET RD, ANN ARBOR, MI, 48103","Match","Exact","224 SUNSET RD, ANN ARBOR, MI, 48103",26013240,"R"
123893,"224 TILDEN SCHOOL RD","WINTER GARDEN","FL",34787,NA,NA,393,"224 TILDEN SCHOOL RD, WINTER GARDEN, FL, 34787","No_Match",NA,NA,NA,NA
123894,"224 TOCOA CIRCLE","HELENA","AL",35080,33.286974168,-86.8571103099999,394,"224 TOCOA CIRCLE, HELENA, AL, 35080","Match","Exact","224 TOCOA CIR, HELENA, AL, 35080",82088371,"L"
123895,"224 TOMPKINS AVENUE","STATEN ISLAND","NY",10304,40.6192370420001,-74.07612732,395,"224 TOMPKINS AVENUE, STATEN ISLAND, NY, 10304","Match","Exact","224 TOMPKINS AVE, STATEN ISLAND, NY, 10304",59887838,"R"
123896,"224 TOWERVIEW COURT","CARY","NC",27513,35.801645412,-78.810573441,396,"224 TOWERVIEW COURT, CARY, NC, 27513","Match","Exact","224 TOWERVIEW CT, CARY, NC, 27513",647331434,"R"
123897,"224 TROON W","MACON","GA",31210,32.854035181,-83.711380586,397,"224 TROON W, MACON, GA, 31210","Match","Exact","224 TROON W, MACON, GA, 31210",81086593,"R"
123898,"224 TUMBLEBROOK RD","MERIDEN","CT",6450,41.5359069630001,-72.761925339,398,"224 TUMBLEBROOK RD, MERIDEN, CT, 6450","Match","Exact","224 TUMBLEBROOK RD, MERIDEN, CT, 06450",3724790,"L"
123899,"224 TURNIPSEED ROAD","ELGIN","SC",29045,34.1166538620001,-80.7924777329999,399,"224 TURNIPSEED ROAD, ELGIN, SC, 29045","Match","Exact","224 TURNIPSEED RD, ELGIN, SC, 29045",71853058,"R"
123900,"224 VARSITY LANE","STATE COLLEGE","PA",16803,40.8251392770001,-77.87735968,400,"224 VARSITY LANE, STATE COLLEGE, PA, 16803","Match","Exact","224 VARSITY LN, STATE COLLEGE, PA, 16803",626570788,"L"
123901,"224 VETERANS MEMORIAL PKWY","RICHMOND HILL","GA",31324,NA,NA,401,"224 VETERANS MEMORIAL PKWY, RICHMOND HILL, GA, 31324","No_Match",NA,NA,NA,NA
123902,"224 W  SEQUOYAH","VINITA","OK",74301,36.642402018,-95.154068744,402,"224 W  SEQUOYAH, VINITA, OK, 74301","Match","Non_Exact","224 W SEQUOYAH AVE, VINITA, OK, 74301",611951304,"R"
123903,"224 W  WILLIAM ST","DECATUR","IL",62522,39.843544911,-88.957619526,403,"224 W  WILLIAM ST, DECATUR, IL, 62522","Match","Exact","224 W WILLIAM ST, DECATUR, IL, 62522",20746915,"R"
123904,"224 W 35TH STREET SUITE 1406","NEW YORK","NY",10001,40.7520020170001,-73.9909612819999,404,"224 W 35TH STREET SUITE 1406, NEW YORK, NY, 10001","Match","Non_Exact","224 W 35TH ST, NEW YORK, NY, 10001",59658582,"L"
123905,"224 W 57TH ST","NEW YORK","NY",10019,40.765946334,-73.981052168,405,"224 W 57TH ST, NEW YORK, NY, 10019","Match","Exact","224 W 57TH ST, NEW YORK, NY, 10019",59657096,"L"
123906,"224 W 8TH ST","SAN PEDRO","CA",90731,33.7369287870001,-118.281991585,406,"224 W 8TH ST, SAN PEDRO, CA, 90731","Match","Exact","224 W 8TH ST, SAN PEDRO, CA, 90731",141690886,"R"
123907,"224 W LANCASTER BLVD","LANCASTER","CA",93535,34.698912509,-118.132006817,407,"224 W LANCASTER BLVD, LANCASTER, CA, 93535","Match","Non_Exact","224 W LANCASTER BLVD, LANCASTER, CA, 93534",141526528,"R"
123908,"224 W MAIN","BARRINGTON","IL",60010,42.154229479,-88.13921927,408,"224 W MAIN, BARRINGTON, IL, 60010","Match","Non_Exact","224 W MAIN ST, BARRINGTON, IL, 60010",112362279,"R"
123909,"224 W RAINBOW BLVD SUITE 101-2","SALIDA","CO",81201,NA,NA,409,"224 W RAINBOW BLVD SUITE 101-2, SALIDA, CO, 81201","No_Match",NA,NA,NA,NA
123910,"224 W WEDGEWOOD AVE","SAN GABRIEL","CA",91776,34.0997570010001,-118.102238708,410,"224 W WEDGEWOOD AVE, SAN GABRIEL, CA, 91776","Match","Exact","224 W WEDGEWOOD AVE, SAN GABRIEL, CA, 91776",141633935,"L"
123911,"224 WEST 13TH STREET","APOPKA","FL",32703,28.662036845,-81.5161603559999,411,"224 WEST 13TH STREET, APOPKA, FL, 32703","Match","Exact","224 W 13TH ST, APOPKA, FL, 32703",636487219,"L"
123912,"224 WEST 26TH ST","WILMINGTON","DE",19802,39.756600077,-75.537520817,412,"224 WEST 26TH ST, WILMINGTON, DE, 19802","Match","Exact","224 W 26TH ST, WILMINGTON, DE, 19802",187258408,"L"
123913,"224 WEST 35TH STREET  11TH FL STE 9","NEW YORK","NY",10001,40.7519969000001,-73.9909491019999,413,"224 WEST 35TH STREET  11TH FL STE 9, NEW YORK, NY, 10001","Match","Exact","224 W 35TH ST, NEW YORK, NY, 10001",59658582,"L"
123914,"224 WEST 38TH STREET","NOROLK","VA",23504,36.880591323,-76.283733459,414,"224 WEST 38TH STREET, NOROLK, VA, 23504","Match","Non_Exact","224 W 38TH ST, NORFOLK, VA, 23504",122133966,"R"
123915,"224 WEST 53RD STREET","LOS ANGELES","CA",90037,33.994214583,-118.276585173,415,"224 WEST 53RD STREET, LOS ANGELES, CA, 90037","Match","Exact","224 W 53RD ST, LOS ANGELES, CA, 90037",638621596,"L"
123916,"224 WEST MAIN STREET SUITE 300","LEWISTOWN","MT",59457,47.0659717840001,-109.425268408,416,"224 WEST MAIN STREET SUITE 300, LEWISTOWN, MT, 59457","Match","Exact","224 W MAIN ST, LEWISTOWN, MT, 59457",170590764,"R"
123917,"224 WEST MASHTA DRIVE","KEY BISCAYNE","FL",33149,25.686454687,-80.167438609,417,"224 WEST MASHTA DRIVE, KEY BISCAYNE, FL, 33149","Match","Exact","224 W MASHTA DR, KEY BISCAYNE, FL, 33149",116021237,"L"
123918,"224 WEST WALNUT LANE","PHILADELPHIA","PA",19144,40.0367076100001,-75.1825201199999,418,"224 WEST WALNUT LANE, PHILADELPHIA, PA, 19144","Match","Exact","224 W WALNUT LN, PHILADELPHIA, PA, 19144",131401010,"L"
123919,"224 WOODWARD STREET","ZEELAND","MI",49464,42.815861721,-86.0251694849999,419,"224 WOODWARD STREET, ZEELAND, MI, 49464","Match","Exact","224 WOODWARD ST, ZEELAND, MI, 49464",71076773,"L"
123920,"224-02 LINDEN BLVD","CAMBRIA HEIGHTS","NY",11411,40.694015935,-73.7365579029999,420,"224-02 LINDEN BLVD, CAMBRIA HEIGHTS, NY, 11411","Match","Exact","224-2 LINDEN BLVD, CAMBRIA HTS, NY, 11411",59720778,"R"
123921,"224-14 LINDEN BLVD SUITE B","CAMBRIA HEIGHTS","NY",11411,40.693987819,-73.7364685919999,421,"224-14 LINDEN BLVD SUITE B, CAMBRIA HEIGHTS, NY, 11411","Match","Exact","224-14 LINDEN BLVD, CAMBRIA HTS, NY, 11411",59720778,"R"
123922,"224-18 114 ROAD","CAMBRIA HEIGHTS","NY",11411,40.700981847,-73.73318506,422,"224-18 114 ROAD, CAMBRIA HEIGHTS, NY, 11411","Match","Exact","224-18 114TH RD, CAMBRIA HTS, NY, 11411",59720800,"R"
123923,"2240 9TH AVENUE SOUTH","ST PETERSBURG","FL",33712,27.7610726340001,-82.6632367619999,423,"2240 9TH AVENUE SOUTH, ST PETERSBURG, FL, 33712","Match","Exact","2240 9TH AVE S, SAINT PETERSBURG, FL, 33712",124793255,"L"
123924,"2240 CACTUS ROAD","SAN DIEGO","CA",92154,32.557303748,-116.988448292,424,"2240 CACTUS ROAD, SAN DIEGO, CA, 92154","Match","Exact","2240 CACTUS RD, SAN DIEGO, CA, 92154",195662306,"R"
123925,"2240 CEDARWOOD COVE","SOUTHAVEN","MS",38671,34.9824486100001,-90.0301330359999,425,"2240 CEDARWOOD COVE, SOUTHAVEN, MS, 38671","Match","Exact","2240 CEDARWOOD COVE, SOUTHAVEN, MS, 38671",91823962,"R"
123926,"2240 COBBLEFIELD CIR","APOPKA","FL",32703,28.6407116570001,-81.489358269,426,"2240 COBBLEFIELD CIR, APOPKA, FL, 32703","Match","Exact","2240 COBBLEFIELD CIR, APOPKA, FL, 32703",94389953,"R"
123927,"2240 COUNTY ROAD 25","JEMISON","AL",35085,32.9619047510001,-86.775609801,427,"2240 COUNTY ROAD 25, JEMISON, AL, 35085","Match","Exact","2240 CO RD 25, JEMISON, AL, 35085",1244428,"R"
123928,"2240 DREW AVE S","MINNEAPOLIS","MN",55416,44.960028772,-93.328849637,428,"2240 DREW AVE S, MINNEAPOLIS, MN, 55416","Match","Exact","2240 DREW AVE S, MINNEAPOLIS, MN, 55416",43832902,"R"
123929,"2240 DUGSPUR RD","CALLAWAY","VA",24067,37.067284124,-80.048053524,429,"2240 DUGSPUR RD, CALLAWAY, VA, 24067","Match","Exact","2240 DUGSPUR RD, CALLAWAY, VA, 24067",632527708,"L"
123930,"2240 E KLEINDALE ROAD","TUCSON","AZ",85719,32.2685763650001,-110.93855817,430,"2240 E KLEINDALE ROAD, TUCSON, AZ, 85719","Match","Exact","2240 E KLEINDALE RD, TUCSON, AZ, 85719",618981799,"R"
123931,"2240 EAST TREMONT AVENUE SUITE 7D","BRONX","NY",10462,40.8421792660001,-73.855855629,431,"2240 EAST TREMONT AVENUE SUITE 7D, BRONX, NY, 10462","Match","Exact","2240 E TREMONT AVE, BRONX, NY, 10462",609398337,"R"
123932,"2240 ENCINITAS BLVD D275","ENCINITAS","CA",92014,33.0375857450001,-117.239506237,432,"2240 ENCINITAS BLVD D275, ENCINITAS, CA, 92014","Match","Non_Exact","2240 ENCINITAS BLVD, ENCINITAS, CA, 92024",651652191,"L"
123933,"2240 ENCINITAS BLVD SUITE D449","ENCINITAS","CA",92024,33.0375857450001,-117.239506237,433,"2240 ENCINITAS BLVD SUITE D449, ENCINITAS, CA, 92024","Match","Exact","2240 ENCINITAS BLVD, ENCINITAS, CA, 92024",651652191,"L"
123934,"2240 FRANCES LANE","MIDLOTHIAN","TX",76065,32.4818836090001,-96.966201272,434,"2240 FRANCES LANE, MIDLOTHIAN, TX, 76065","Match","Exact","2240 FRANCES LN, MIDLOTHIAN, TX, 76065",635881618,"R"
123935,"2240 GA HIGHWAY 212 WEST","MONTICELLO","GA",31064,NA,NA,435,"2240 GA HIGHWAY 212 WEST, MONTICELLO, GA, 31064","No_Match",NA,NA,NA,NA
123936,"2240 HANBACK ROAD","GORDONSVILLE","VA",22942,38.130201033,-78.1449980579999,436,"2240 HANBACK ROAD, GORDONSVILLE, VA, 22942","Match","Exact","2240 HANBACK RD, GORDONSVILLE, VA, 22942",84930012,"R"
123937,"2240 HOME AGAIN ROAD","APOPKA","FL",32712,28.7190378390001,-81.534427712,437,"2240 HOME AGAIN ROAD, APOPKA, FL, 32712","Match","Exact","2240 HOME AGAIN RD, APOPKA, FL, 32712",639761652,"L"
123938,"2240 JACKSON ST","SCRANTON","PA",18504,41.4197439600001,-75.695047242,438,"2240 JACKSON ST, SCRANTON, PA, 18504","Match","Exact","2240 JACKSON ST, SCRANTON, PA, 18504",139321795,"R"
123939,"2240 KNIGHTSBRIDGE PL","OXNARD","CA",93030,34.2097301790001,-119.201351124,439,"2240 KNIGHTSBRIDGE PL, OXNARD, CA, 93030","Match","Exact","2240 KNIGHTSBRIDGE PL, OXNARD, CA, 93030",109954522,"R"
123940,"2240 LA CASA LANE SE","OWATONNA","MN",55060,44.0619301450001,-93.204471938,440,"2240 LA CASA LANE SE, OWATONNA, MN, 55060","Match","Exact","2240 LA CASA LN SE, OWATONNA, MN, 55060",38178557,"L"
123941,"2240 LA SIERRA WAY","CLAREMONT","CA",91711,34.124031374,-117.73170691,441,"2240 LA SIERRA WAY, CLAREMONT, CA, 91711","Match","Exact","2240 LA SIERRA WAY, CLAREMONT, CA, 91711",141732235,"R"
123942,"2240 LAKE DRIVE","JACKSONVILLE","FL",32246,30.305031237,-81.552691954,442,"2240 LAKE DRIVE, JACKSONVILLE, FL, 32246","Match","Exact","2240 LAKE DR, JACKSONVILLE, FL, 32246",83920288,"R"
123943,"2240 LANDAU ST SE","SALEM","OR",97306,44.8721460290001,-123.0141367,443,"2240 LANDAU ST SE, SALEM, OR, 97306","Match","Exact","2240 LANDAU ST SE, SALEM, OR, 97306",647645427,"R"
123944,"2240 MCCULLOCH BLVD","LAKE HAVASU CITY","AZ",86403,34.4764809540001,-114.321313584,444,"2240 MCCULLOCH BLVD, LAKE HAVASU CITY, AZ, 86403","Match","Non_Exact","2240 MCCULLOCH BLVD N, LAKE HAVASU CITY, AZ, 86403",618633465,"R"
123945,"2240 MEADOW RIDGE LANE","VIRGINIA BEACH","VA",23456,36.7613711280001,-76.122655709,445,"2240 MEADOW RIDGE LANE, VIRGINIA BEACH, VA, 23456","Match","Exact","2240 MEADOW RIDGE LN, VA BCH, VA, 23456",122301061,"R"
123946,"2240 N SHERIDAN CIRCLE 101","MIRAMAR","FL",33025,NA,NA,446,"2240 N SHERIDAN CIRCLE 101, MIRAMAR, FL, 33025","No_Match",NA,NA,NA,NA
123947,"2240 N SHERMAN CIRCLE 101","MIRAMAR","FL",33025,25.989645491,-80.252157167,447,"2240 N SHERMAN CIRCLE 101, MIRAMAR, FL, 33025","Match","Exact","2240 SHERMAN CIR, MIRAMAR, FL, 33025",641074513,"R"
123948,"2240 NE 166TH DR","PORTLAND","OR",97230,45.5390060080001,-122.491260648,448,"2240 NE 166TH DR, PORTLAND, OR, 97230","Match","Exact","2240 NE 166TH DR, PORTLAND, OR, 97230",157555421,"L"
123949,"2240 NEW COLLEGE LN","PLANO","TX",75025,33.089890503,-96.73868856,449,"2240 NEW COLLEGE LN, PLANO, TX, 75025","Match","Exact","2240 NEW COLLEGE LN, PLANO, TX, 75025",123561628,"L"
123950,"2240 NORTH PADRE ISLAND DRIVE","CORPUS CHRISTI","TX",78408,27.802734458,-97.466736048,450,"2240 NORTH PADRE ISLAND DRIVE, CORPUS CHRISTI, TX, 78408","Match","Exact","2240 N PADRE ISLAND DR, CORPUS CHRISTI, TX, 78408",640133708,"R"
123951,"2240 OTAY LAKES ROAD SUITE 306","CHULA VISTA","CA",91915,32.649452539,-116.961742093,451,"2240 OTAY LAKES ROAD SUITE 306, CHULA VISTA, CA, 91915","Match","Exact","2240 OTAY LAKES RD, CHULA VISTA, CA, 91915",195667908,"R"
123952,"2240 PEACHTREE ROAD UNIT 303","ATLANTA","GA",30309,NA,NA,452,"2240 PEACHTREE ROAD UNIT 303, ATLANTA, GA, 30309","No_Match",NA,NA,NA,NA
123953,"2240 PINE TOP CT","AKRON","OH",44319,41.02125915,-81.516959782,453,"2240 PINE TOP CT, AKRON, OH, 44319","Match","Exact","2240 PINE TOP CT, AKRON, OH, 44319",61375486,"R"
123954,"2240 REMINGTON WAY","LEXINGTON","KY",40511,38.0941558260001,-84.5086337119999,454,"2240 REMINGTON WAY, LEXINGTON, KY, 40511","Match","Exact","2240 REMINGTON WAY, LEXINGTON, KY, 40511",31954615,"R"
123955,"2240 RIVERSIDE DR N","CLEARWATER","FL",33764,27.9211666190001,-82.7427866749999,455,"2240 RIVERSIDE DR N, CLEARWATER, FL, 33764","Match","Exact","2240 RIVERSIDE DR N, CLEARWATER, FL, 33764",124742192,"L"
123956,"2240 S MICHIGAN","CHICAGO","IL",60619,NA,NA,456,"2240 S MICHIGAN, CHICAGO, IL, 60619","No_Match",NA,NA,NA,NA
123957,"2240 SE HAWTHORNE BLVD","PORTLAND","OR",97214,45.5120700140001,-122.642892469,457,"2240 SE HAWTHORNE BLVD, PORTLAND, OR, 97214","Match","Exact","2240 SE HAWTHORNE BLVD, PORTLAND, OR, 97214",157509264,"R"
123958,"2240 SOUTH AIRPORT ROAD SUITE C","TRAVERSE CITY","MI",49684,44.733343844,-85.619940631,458,"2240 SOUTH AIRPORT ROAD SUITE C, TRAVERSE CITY, MI, 49684","Match","Non_Exact","2240 S AIRPORT RD W, TRAVERSE CITY, MI, 49684",145541067,"R"
123959,"2240 SOUTH COUNTY TRAIL SUITE 3","EAST GREENWICH","RI",2818,41.6335145800001,-71.493623451,459,"2240 SOUTH COUNTY TRAIL SUITE 3, EAST GREENWICH, RI, 2818","Match","Exact","2240 S COUNTY TRL, EAST GREENWICH, RI, 02818",159171134,"L"
123960,"2240 TARPLEY RD APT 173","CARROLLTON","TX",75006,32.9717913260001,-96.8514716129999,460,"2240 TARPLEY RD APT 173, CARROLLTON, TX, 75006","Match","Exact","2240 TARPLEY RD, CARROLLTON, TX, 75006",103212572,"L"
123961,"2240 THE GREAT ROAD","FIELDALE","VA",24089,36.7127506940001,-79.970462536,461,"2240 THE GREAT ROAD, FIELDALE, VA, 24089","Match","Exact","2240 THE GREAT RD, FIELDALE, VA, 24089",55512603,"R"
123962,"2240 W 122ND TER","LEAWOOD","KS",66209,38.9069503710001,-94.610597721,462,"2240 W 122ND TER, LEAWOOD, KS, 66209","Match","Exact","2240 W 122ND TER, LEAWOOD, KS, 66209",91329925,"R"
123963,"2240 W MADISON SUTIE 201","CHICAGO","IL",60613,NA,NA,463,"2240 W MADISON SUTIE 201, CHICAGO, IL, 60613","No_Match",NA,NA,NA,NA
123964,"2240 WHISTLER CREEK DR APT 411","FORT WORTH","TX",76177,NA,NA,464,"2240 WHISTLER CREEK DR APT 411, FORT WORTH, TX, 76177","No_Match",NA,NA,NA,NA
123965,"2240 WISTERIA  DR PO BOX 1820","SNELLVILLE","GA",30078,33.861560658,-84.017192365,465,"2240 WISTERIA  DR PO BOX 1820, SNELLVILLE, GA, 30078","Match","Non_Exact","2240 WISTERIA DR SW, SNELLVILLE, GA, 30078",88948945,"L"
123966,"22400 HILLVIEW LANE","BEVERLY HILLS","MI",48025,42.5115765730001,-83.264625157,466,"22400 HILLVIEW LANE, BEVERLY HILLS, MI, 48025","Match","Exact","22400 HILLVIEW LN, BEVERLY HILLS, MI, 48025",69815085,"R"
123967,"22400 SALAMO RD SUITE 200","WEST LINN","OR",97068,45.362528576,-122.648953922,467,"22400 SALAMO RD SUITE 200, WEST LINN, OR, 97068","Match","Exact","22400 SALAMO RD, WEST LINN, OR, 97068",157956847,"L"
123968,"22401 TALL OAKS TRAIL","EDMOND","OK",73025,NA,NA,468,"22401 TALL OAKS TRAIL, EDMOND, OK, 73025","No_Match",NA,NA,NA,NA
123969,"22402 GREENBROOK DRIVE","HOUSTON","TX",77073,30.035996084,-95.415470405,469,"22402 GREENBROOK DRIVE, HOUSTON, TX, 77073","Match","Exact","22402 GREENBROOK DR, HOUSTON, TX, 77073",96041991,"R"
123970,"22402 VERA ST","WARRENSVILLE HEIGHTS","OH",44128,41.428471469,-81.5210095049999,470,"22402 VERA ST, WARRENSVILLE HEIGHTS, OH, 44128","Match","Exact","22402 VERA ST, WARRENSVILLE HEIGHTS, OH, 44128",61155013,"R"
123971,"22403 W 46TH TERRACE","SHAWNEE","KS",66226,39.044045973,-94.845867251,471,"22403 W 46TH TERRACE, SHAWNEE, KS, 66226","Match","Exact","22403 W 46TH TER, SHAWNEE, KS, 66226",91326370,"L"
123972,"22404 NE SR 20","HOSFORD","FL",32334,NA,NA,472,"22404 NE SR 20, HOSFORD, FL, 32334","No_Match",NA,NA,NA,NA
123973,"22405 CR 260","CARROLLTON","MO",64633,39.384320141,-93.524841765,473,"22405 CR 260, CARROLLTON, MO, 64633","Match","Exact","22405 CO RD 260, CARROLLTON, MO, 64633",649831988,"L"
123974,"22405 KENT AVENUE SUITE 60","TORRANCE","CA",90505,33.8250218360001,-118.356434367,474,"22405 KENT AVENUE SUITE 60, TORRANCE, CA, 90505","Match","Exact","22405 KENT AVE, TORRANCE, CA, 90505",142756379,"R"
123975,"22406 ELIZABETH PLACE CT","KATY","TX",77494,29.7174835980001,-95.7669116659999,475,"22406 ELIZABETH PLACE CT, KATY, TX, 77494","Match","Exact","22406 ELIZABETH PLACE CT, KATY, TX, 77494",78326693,"R"
123976,"22407 BAUER CANYON DRIVE","HOCKLEY","TX",77447,30.0832695120001,-95.778892286,476,"22407 BAUER CANYON DRIVE, HOCKLEY, TX, 77447","Match","Non_Exact","22407 BAUER RD, HOCKLEY, TX, 77447",96170505,"R"
123977,"22408 92ND AVE WEST","EDMONDS","WA",98020,47.795616916,-122.356182218,477,"22408 92ND AVE WEST, EDMONDS, WA, 98020","Match","Exact","22408 92ND AVE W, EDMONDS, WA, 98020",187755012,"R"
123978,"22408 NE 102ND PL","REDMOND","WA",98053,47.690069674,-122.042103552,478,"22408 NE 102ND PL, REDMOND, WA, 98053","Match","Exact","22408 NE 102ND PL, REDMOND, WA, 98053",186958025,"L"
123979,"22408 NE 102ND PLACE","REDMOND","WA",98053,47.690069674,-122.042103552,479,"22408 NE 102ND PLACE, REDMOND, WA, 98053","Match","Exact","22408 NE 102ND PL, REDMOND, WA, 98053",186958025,"L"
123980,"22409 ELLIS DAVIS RD","PRAIRIE HOME","MO",65068,38.8493401200001,-92.646487196,480,"22409 ELLIS DAVIS RD, PRAIRIE HOME, MO, 65068","Match","Exact","22409 ELLIS DAVIS RD, PRAIRIE HOME, MO, 65068",23696986,"R"
123981,"22409 NE 137TH ST","WOODINVILLE","WA",98077,47.7215699880001,-122.043044803,481,"22409 NE 137TH ST, WOODINVILLE, WA, 98077","Match","Exact","22409 NE 137TH ST, WOODINVILLE, WA, 98077",640610520,"R"
123982,"2241 221ST AVE NE","EAST BETHEL","MN",55011,45.3703784080001,-93.215300637,482,"2241 221ST AVE NE, EAST BETHEL, MN, 55011","Match","Exact","2241 221ST AVE NE, EAST BETHEL, MN, 55011",97518042,"L"
123983,"2241 221ST AVE","EAST BETHEL","MN",55011,NA,NA,483,"2241 221ST AVE, EAST BETHEL, MN, 55011","Tie",NA,NA,NA,NA
123984,"2241 221ST AVENUE NE","EAST BETHEL","MN",55011,45.3703784080001,-93.215300637,484,"2241 221ST AVENUE NE, EAST BETHEL, MN, 55011","Match","Exact","2241 221ST AVE NE, EAST BETHEL, MN, 55011",97518042,"L"
123985,"2241 CATHERINE ST","NORTHBROOK","IL",60062,42.1291930790001,-87.8349626469999,485,"2241 CATHERINE ST, NORTHBROOK, IL, 60062","Match","Exact","2241 CATHERINE ST, NORTHBROOK, IL, 60062",111839634,"L"
123986,"2241 CHADWICK WAY","MUNDELEIN","IL",60060,42.2868961550001,-88.0332603689999,486,"2241 CHADWICK WAY, MUNDELEIN, IL, 60060","Match","Exact","2241 CHADWICK WAY, MUNDELEIN, IL, 60060",119698182,"L"
123987,"2241 COMMUNITY DRIVE","WALDORF","MD",20601,38.653624258,-76.9474173579999,487,"2241 COMMUNITY DRIVE, WALDORF, MD, 20601","Match","Exact","2241 COMMUNITY DR, WALDORF, MD, 20601",25383951,"L"
123988,"2241 E OLD RD 36","ROCKVILLE","IN",47872,NA,NA,488,"2241 E OLD RD 36, ROCKVILLE, IN, 47872","No_Match",NA,NA,NA,NA
123989,"2241 EDGARTOWN LANE SE","SMYRNA","GA",30080,33.849634576,-84.490937628,489,"2241 EDGARTOWN LANE SE, SMYRNA, GA, 30080","Match","Exact","2241 EDGARTOWN LN SE, SMYRNA, GA, 30080",614186454,"L"
123990,"2241 FORESTDALE BLVD","BIRMINGHAM","AL",35214,33.577149444,-86.913377469,490,"2241 FORESTDALE BLVD, BIRMINGHAM, AL, 35214","Match","Exact","2241 FORESTDALE BLVD, BIRMINGHAM, AL, 35214",81622439,"R"
123991,"2241 GLENDALE ROAD","PITTSTON TOWNSHIP","PA",18640,41.3320054270001,-75.696715964,491,"2241 GLENDALE ROAD, PITTSTON TOWNSHIP, PA, 18640","Match","Exact","2241 GLENDALE RD, PITTSTON TOWNSHIP, PA, 18640",653375018,"R"
123992,"2241 HIGH ROAD","HUNTINGDON VALLEY","PA",19006,40.1122109500001,-75.055452722,492,"2241 HIGH ROAD, HUNTINGDON VALLEY, PA, 19006","Match","Exact","2241 HIGH RD, HUNTINGDON VALLEY, PA, 19006",135106618,"R"
123993,"2241 IMPACT DR","ABILENE","TX",79603,32.4979173890001,-99.751421885,493,"2241 IMPACT DR, ABILENE, TX, 79603","Match","Exact","2241 IMPACT DR, ABILENE, TX, 79603",129957054,"L"
123994,"2241 LEWIS STREET NW","KENNESAW","GA",30144,34.02413496,-84.615885753,494,"2241 LEWIS STREET NW, KENNESAW, GA, 30144","Match","Non_Exact","2241 LEWIS ST, KENNESAW, GA, 30144",17256400,"L"
123995,"2241 LITTLE SEWICKLEY CREEK ROAD","SEWICKLEY","PA",15143,40.578771438,-80.132189895,495,"2241 LITTLE SEWICKLEY CREEK ROAD, SEWICKLEY, PA, 15143","Match","Exact","2241 LITTLE SEWICKLEY CREEK RD, SEWICKLEY, PA, 15143",51604813,"R"
123996,"2241 MANDARIN COURT","JOHNSTOWN","CO",80534,40.3024043090001,-104.906658048,496,"2241 MANDARIN COURT, JOHNSTOWN, CO, 80534","Match","Exact","2241 MANDARIN CT, JOHNSTOWN, CO, 80534",188743669,"R"
123997,"2241 MERIDIAN ST","FALLS CHURCH","VA",22046,38.8980119500001,-77.171682453,497,"2241 MERIDIAN ST, FALLS CHURCH, VA, 22046","Match","Exact","2241 MERIDIAN ST, FALLS CHURCH, VA, 22046",75979169,"L"
123998,"2241 N CAHUENGA BLVD","LOS ANGELES","CA",90068,34.1110029700001,-118.332507297,498,"2241 N CAHUENGA BLVD, LOS ANGELES, CA, 90068","Match","Exact","2241 N CAHUENGA BLVD, LOS ANGELES, CA, 90068",141594720,"L"
123999,"2241 N NUTMEG ST","ESCONDIDO","CA",92026,33.1612762130001,-117.108336722,499,"2241 N NUTMEG ST, ESCONDIDO, CA, 92026","Match","Exact","2241 N NUTMEG ST, ESCONDIDO, CA, 92026",647626170,"L"
124000,"2241 NE HYATT COURT","BEND","OR",97701,44.078041118,-121.270436077,500,"2241 NE HYATT COURT, BEND, OR, 97701","Match","Exact","2241 NE HYATT CT, BEND, OR, 97701",152572359,"L"
