"ID","Address","City","State","Zip","lat","long","id","input_address","match_indicator","match_type","matched_address","tiger_line_id","tiger_side"
65501,"1485 VILLA REAL","GILROY","CA",95020,37.0638492410001,-121.569712791,1,"1485 VILLA REAL, GILROY, CA, 95020","Match","Non_Exact","1485 VILLA REAL CT, GILROY, CA, 95020",122931584,"R"
65502,"1485 WEBSTER HILL ROAD","SOUTH ROYALTON","VT",5068,NA,NA,2,"1485 WEBSTER HILL ROAD, SOUTH ROYALTON, VT, 5068","No_Match",NA,NA,NA,NA
65503,"14850 DILBECK DR","SPRING HILL","FL",34610,28.416488465,-82.569556725,3,"14850 DILBECK DR, SPRING HILL, FL, 34610","Match","Exact","14850 DILBECK DR, SPRING HILL, FL, 34610",86402727,"L"
65504,"14850 N 156TH AVE","SURPRISE","AZ",85379,NA,NA,4,"14850 N 156TH AVE, SURPRISE, AZ, 85379","No_Match",NA,NA,NA,NA
65505,"14850 N 156TH STREET","SURPRISE","AZ",85379,NA,NA,5,"14850 N 156TH STREET, SURPRISE, AZ, 85379","No_Match",NA,NA,NA,NA
65506,"14850 N SCOTTSDALE RD STE 500","SCOTTSDALE","AZ",85254,NA,NA,6,"14850 N SCOTTSDALE RD STE 500, SCOTTSDALE, AZ, 85254","No_Match",NA,NA,NA,NA
65507,"14850 OKA RD 19","LOS GATOS","CA",95032,37.253134883,-121.960465325,7,"14850 OKA RD 19, LOS GATOS, CA, 95032","Match","Exact","14850 OKA RD, LOS GATOS, CA, 95032",618175606,"L"
65508,"14850 SPRINGFORD DRIVE","LA MIRADA","CA",90638,33.8968401180001,-118.013365129,8,"14850 SPRINGFORD DRIVE, LA MIRADA, CA, 90638","Match","Exact","14850 SPRINGFORD DR, LA MIRADA, CA, 90638",141752213,"L"
65509,"14850 SW 26TH STREET STE 210","MIAMI","FL",33185,NA,NA,9,"14850 SW 26TH STREET STE 210, MIAMI, FL, 33185","No_Match",NA,NA,NA,NA
65510,"14850","HOUSTON","TX",77083,NA,NA,10,"14850, HOUSTON, TX, 77083","No_Match",NA,NA,NA,NA
65511,"14852 SW 32 LANE","MIAMI","FL",33185,25.73683321,-80.435050788,11,"14852 SW 32 LANE, MIAMI, FL, 33185","Match","Exact","14852 SW 32ND LN, MIAMI, FL, 33185",116266901,"R"
65512,"14852 SW 70TH STREET","MIAMI","FL",33193,25.701179043,-80.433976843,12,"14852 SW 70TH STREET, MIAMI, FL, 33193","Match","Exact","14852 SW 70TH ST, MIAMI, FL, 33193",115966313,"L"
65513,"14853 HIMEBAUGH CIRCLE","OMAHA","NE",68116,41.309460981,-96.14609733,13,"14853 HIMEBAUGH CIRCLE, OMAHA, NE, 68116","Match","Non_Exact","14853 HIMEBAUGH AVE, OMAHA, NE, 68116",117018481,"L"
65514,"14855 FREEMANVILLE RD","MILTON","GA",30004,34.143141647,-84.319644801,14,"14855 FREEMANVILLE RD, MILTON, GA, 30004","Match","Exact","14855 FREEMANVILLE RD, MILTON, GA, 30004",628089708,"R"
65515,"14855 FROST ROAD","DUNMORE","WV",24934,38.332917245,-79.857203264,15,"14855 FROST ROAD, DUNMORE, WV, 24934","Match","Exact","14855 FROST RD, DUNMORE, WV, 24934",648127866,"L"
65516,"14855 MEMORIAL DR STE/1604","HOUSTON","TX",77079,29.772434995,-95.613949277,16,"14855 MEMORIAL DR STE/1604, HOUSTON, TX, 77079","Match","Exact","14855 MEMORIAL DR, HOUSTON, TX, 77079",96138897,"L"
65517,"14857 COUNTRY ROAD 2169D","HENDERSON","TX",75652,32.354993001,-94.6597384459999,17,"14857 COUNTRY ROAD 2169D, HENDERSON, TX, 75652","Match","Non_Exact","14857 CO RD 2169D, HENDERSON, TX, 75652",79642100,"L"
65518,"14857 SW 104 ST APT 105","MIAMI","FL",33196,25.670153703,-80.4357190169999,18,"14857 SW 104 ST APT 105, MIAMI, FL, 33196","Match","Non_Exact","14857 SW 104TH ST, MIAMI, FL, 33196",115966990,"L"
65519,"14858 ANOLA ST","WHITTIER","CA",90604,33.928013408,-118.015357821,19,"14858 ANOLA ST, WHITTIER, CA, 90604","Match","Exact","14858 ANOLA ST, WHITTIER, CA, 90604",141751575,"R"
65520,"14859 HWY 171","NORTHPORT","AL",35475,33.337032822,-87.680021129,20,"14859 HWY 171, NORTHPORT, AL, 35475","Match","Non_Exact","14859 STATE RTE 171, NORTHPORT, AL, 35475",82224615,"R"
65521,"1485B MONROE AVENUE","ROCHESTER","NY",14618,NA,NA,21,"1485B MONROE AVENUE, ROCHESTER, NY, 14618","No_Match",NA,NA,NA,NA
65522,"1486 8TH STREET APT A","OAKLAND","CA",94607,37.8065730000001,-122.295348612,22,"1486 8TH STREET APT A, OAKLAND, CA, 94607","Match","Exact","1486 8TH ST, OAKLAND, CA, 94607",124995402,"R"
65523,"1486 DOCTOR MARTIN LUTHER KING BLVD","WARRENTON","NC",27589,NA,NA,23,"1486 DOCTOR MARTIN LUTHER KING BLVD, WARRENTON, NC, 27589","No_Match",NA,NA,NA,NA
65524,"1486 DORCHESTER AVENUE","DORCHESTER","MA",2122,42.300053479,-71.060216335,24,"1486 DORCHESTER AVENUE, DORCHESTER, MA, 2122","Match","Exact","1486 DORCHESTER AVE, DORCHESTER, MA, 02122",85731142,"L"
65525,"1486 EL CAMINO DR","FLORISSANT","MO",63031,38.797886041,-90.372963184,25,"1486 EL CAMINO DR, FLORISSANT, MO, 63031","Match","Exact","1486 EL CAMINO DR, FLORISSANT, MO, 63031",100116869,"R"
65526,"1486 FAIRWAY DRIVE UNIT 202","NAPERVILLE","IL",60563,NA,NA,26,"1486 FAIRWAY DRIVE UNIT 202, NAPERVILLE, IL, 60563","No_Match",NA,NA,NA,NA
65527,"1486 FELIX AVENUE","MEMPHIS","TN",38114,35.11957069,-90.0123947,27,"1486 FELIX AVENUE, MEMPHIS, TN, 38114","Match","Exact","1486 FELIX AVE, MEMPHIS, TN, 38114",72908726,"L"
65528,"1486 FOX RIDGE COURT","ARNOLD","MO",63010,38.430170097,-90.373858319,28,"1486 FOX RIDGE COURT, ARNOLD, MO, 63010","Match","Exact","1486 FOX RIDGE CT, ARNOLD, MO, 63010",62794798,"R"
65529,"1486 GRAEBER ST SPACE 6517","MARCH AIR RESERVE BA","CA",92518,33.9096874840001,-117.270223383,29,"1486 GRAEBER ST SPACE 6517, MARCH AIR RESERVE BA, CA, 92518","Match","Non_Exact","1486 GRAEBER ST, RIVERSIDE, CA, 92518",641624536,"L"
65530,"1486 HIGHLAND AVENUE SUITE 7A","CHESHIRE","CT",6410,41.5419918150001,-72.8925784529999,30,"1486 HIGHLAND AVENUE SUITE 7A, CHESHIRE, CT, 6410","Match","Exact","1486 HIGHLAND AVE, CHESHIRE, CT, 06410",604747889,"R"
65531,"1486 MAGNOLIA DR","CRYSTAL LAKE","IL",60014,42.19969346,-88.355777318,31,"1486 MAGNOLIA DR, CRYSTAL LAKE, IL, 60014","Match","Exact","1486 MAGNOLIA DR, CRYSTAL LAKE, IL, 60014",119844325,"R"
65532,"1486 NE ELIZABETH PLACE","GRANTS PASS","OR",97526,42.453850254,-123.306243085,32,"1486 NE ELIZABETH PLACE, GRANTS PASS, OR, 97526","Match","Exact","1486 ELIZABETH PL, GRANTS PASS, OR, 97526",617665794,"L"
65533,"1486 PARKWOOD ROAD","LAKEWOOD","OH",44107,41.4829489040001,-81.7884363269999,33,"1486 PARKWOOD ROAD, LAKEWOOD, OH, 44107","Match","Exact","1486 PARKWOOD RD, LAKEWOOD, OH, 44107",61100390,"R"
65534,"1486 ROUTE 133","IRA","VT",5777,NA,NA,34,"1486 ROUTE 133, IRA, VT, 5777","No_Match",NA,NA,NA,NA
65535,"1486 SOUTH ALLEN ROAD","SAINT CLAIR","MI",48079,42.8615700570001,-82.517001122,35,"1486 SOUTH ALLEN ROAD, SAINT CLAIR, MI, 48079","Match","Exact","1486 S ALLEN RD, SAINT CLAIR, MI, 48079",110992138,"L"
65536,"1486 TOWERS STREET","LAKEWOOD","NJ",8701,40.065228774,-74.1952348569999,36,"1486 TOWERS STREET, LAKEWOOD, NJ, 8701","Match","Exact","1486 TOWERS ST, LAKEWOOD, NJ, 08701",203793525,"R"
65537,"1486 WEST  TOPANGA COURT","KUNA","ID",83634,43.4945142600001,-116.43195011,37,"1486 WEST  TOPANGA COURT, KUNA, ID, 83634","Match","Non_Exact","1486 W TOPANGA ST, KUNA, ID, 83634",117883868,"L"
65538,"14860 MONTFORT DR STE 145","DALLAS","TX",75254,NA,NA,38,"14860 MONTFORT DR STE 145, DALLAS, TX, 75254","No_Match",NA,NA,NA,NA
65539,"14860 S ORCHARD AVE","GARDENA","CA",90247,33.8966148320001,-118.287578281,39,"14860 S ORCHARD AVE, GARDENA, CA, 90247","Match","Exact","14860 S ORCHARD AVE, GARDENA, CA, 90247",141662506,"L"
65540,"14863 COVINGTON AVE","ROSEMOUNT","MN",55068,44.7338099630001,-93.143280663,40,"14863 COVINGTON AVE, ROSEMOUNT, MN, 55068","Match","Exact","14863 COVINGTON AVE, ROSEMOUNT, MN, 55068",37941123,"R"
65541,"14863 NW DEERFOOT LN","PORTLAND","OR",97229,45.5636093190001,-122.829654561,41,"14863 NW DEERFOOT LN, PORTLAND, OR, 97229","Match","Exact","14863 NW DEERFOOT LN, PORTLAND, OR, 97229",605214398,"L"
65542,"14865 MULBERRY DRIVE 1101","WHITTIER","CA",90604,33.9352601080001,-118.014794965,42,"14865 MULBERRY DRIVE 1101, WHITTIER, CA, 90604","Match","Exact","14865 MULBERRY DR, WHITTIER, CA, 90604",241147859,"R"
65543,"14867 SPINNING AVE","GARDENA","CA",90249,33.896776914,-118.318733103,43,"14867 SPINNING AVE, GARDENA, CA, 90249","Match","Exact","14867 SPINNING AVE, GARDENA, CA, 90249",141661143,"R"
65544,"14868 LAWRENCE 1137","MOUNT VERNON","MO",65712,37.055438574,-93.814307693,44,"14868 LAWRENCE 1137, MOUNT VERNON, MO, 65712","Match","Exact","14868 LAWRENCE 1137, MOUNT VERNON, MO, 65712",99858027,"R"
65545,"14869 LONG VIEW DRIVE","FONTANA","CA",92337,34.036846241,-117.480606709,45,"14869 LONG VIEW DRIVE, FONTANA, CA, 92337","Match","Exact","14869 LONG VIEW DR, FONTANA, CA, 92337",144690675,"L"
65546,"1486A EAST 52ND STREET","BROOKLYN","NY",11234,40.623206403,-73.925385261,46,"1486A EAST 52ND STREET, BROOKLYN, NY, 11234","Match","Exact","1486 E 52ND ST, BROOKLYN, NY, 11234",59092378,"R"
65547,"1487 BUTTERFIELD CIRCLE","NILES","OH",44446,41.1955343710001,-80.734979213,47,"1487 BUTTERFIELD CIRCLE, NILES, OH, 44446","Match","Exact","1487 BUTTERFIELD CIR, NILES, OH, 44446",117423807,"R"
65548,"1487 DUNSTER LN","POTOMAC","MD",20854,39.06188768,-77.1696466129999,48,"1487 DUNSTER LN, POTOMAC, MD, 20854","Match","Exact","1487 DUNSTER LN, POTOMAC, MD, 20854",62054092,"L"
65549,"1487 EAST HWY 76","BRANSON","MO",65616,36.6452753340001,-93.195638099,49,"1487 EAST HWY 76, BRANSON, MO, 65616","Match","Non_Exact","1487 E STATE HWY 76, BRANSON, MO, 65616",627694554,"L"
65550,"1487 FAR DRIVE","CORDOVA","TN",38106,35.1658804580001,-89.736452986,50,"1487 FAR DRIVE, CORDOVA, TN, 38106","Match","Non_Exact","1487 FAR DR, CORDOVA, TN, 38016",72976083,"L"
65551,"1487 GUERRERO ST","SAN FRANCISCO","CA",94110,37.7477694130001,-122.42240191,51,"1487 GUERRERO ST, SAN FRANCISCO, CA, 94110","Match","Exact","1487 GUERRERO ST, SAN FRANCISCO, CA, 94110",192300223,"L"
65552,"1487 HARFORD SQUARE DRIVE","EDGEWOOD","MD",21040,39.4211422910001,-76.315846569,52,"1487 HARFORD SQUARE DRIVE, EDGEWOOD, MD, 21040","Match","Exact","1487 HARFORD SQUARE DR, EDGEWOOD, MD, 21040",191657823,"R"
65553,"1487 LANGHORNE ROAD","LYNCHBURG","VA",24503,37.429794896,-79.183375605,53,"1487 LANGHORNE ROAD, LYNCHBURG, VA, 24503","Match","Exact","1487 LANGHORNE RD, LYNCHBURG, VA, 24503",62623477,"R"
65554,"1487 LUPINE DRIVE","SANTA ROSA","CA",95401,38.454490864,-122.803388385,54,"1487 LUPINE DRIVE, SANTA ROSA, CA, 95401","Match","Exact","1487 LUPINE DR, SANTA ROSA, CA, 95401",67464992,"L"
65555,"1487 MCLENDON AVE NE","ATLANTA","GA",30307,33.764853708,-84.338912039,55,"1487 MCLENDON AVE NE, ATLANTA, GA, 30307","Match","Exact","1487 MCLENDON AVE NE, ATLANTA, GA, 30307",23365373,"R"
65556,"1487 MCLENDON AVENUE","ATLANTA","GA",30307,33.764853708,-84.338912039,56,"1487 MCLENDON AVENUE, ATLANTA, GA, 30307","Match","Non_Exact","1487 MCLENDON AVE NE, ATLANTA, GA, 30307",23365373,"R"
65557,"1487 MONTALBAN DRIVE","SAN JOSE","CA",95120,37.2251408380001,-121.897327283,57,"1487 MONTALBAN DRIVE, SAN JOSE, CA, 95120","Match","Exact","1487 MONTALBAN DR, SAN JOSE, CA, 95120",122947090,"R"
65558,"1487 QATTARA","IDAHO FALLS","ID",83404,43.477074041,-112.004385594,58,"1487 QATTARA, IDAHO FALLS, ID, 83404","Match","Non_Exact","1487 QATTARA ST, IDAHO FALLS, ID, 83404",119119293,"R"
65559,"1487 RANGERS LOOP APT 304","WOODBRIDGE","VA",22191,NA,NA,59,"1487 RANGERS LOOP APT 304, WOODBRIDGE, VA, 22191","No_Match",NA,NA,NA,NA
65560,"1487 S 1100W","WOODS CROSS","UT",84087,NA,NA,60,"1487 S 1100W, WOODS CROSS, UT, 84087","No_Match",NA,NA,NA,NA
65561,"14870 PERIDOT STREET NW","RAMSEY","MN",55305,45.240628422,-93.4524420449999,61,"14870 PERIDOT STREET NW, RAMSEY, MN, 55305","Match","Non_Exact","14870 PERIDOT ST NW, RAMSEY, MN, 55303",614153445,"R"
65562,"14871 KEYLIME BLVD","LOXAHATCHEE","FL",33470,26.787416222,-80.275202532,62,"14871 KEYLIME BLVD, LOXAHATCHEE, FL, 33470","Match","Non_Exact","14871 KEY LIME BLVD, LOXAHATCHEE, FL, 33470",115347048,"L"
65563,"14872 GILES ROAD APT 301","OMAHA","NE",68138,41.17624011,-96.147638123,63,"14872 GILES ROAD APT 301, OMAHA, NE, 68138","Match","Exact","14872 GILES RD, OMAHA, NE, 68138",28500144,"L"
65564,"14873 HWY 51 N","GRENADA","MS",38901,33.865354768,-89.851365914,64,"14873 HWY 51 N, GRENADA, MS, 38901","Match","Exact","14873 HWY 51 N, GRENADA, MS, 38901",7554899,"L"
65565,"14873 TYBEE ISLAND DRIVE","NAPLES","FL",34119,26.259258936,-81.699227213,65,"14873 TYBEE ISLAND DRIVE, NAPLES, FL, 34119","Match","Exact","14873 TYBEE ISLAND DR, NAPLES, FL, 34119",619835992,"R"
65566,"14874 N 136TH DRIVE","SURPRIZE","AZ",85379,33.6189252890001,-112.352959955,66,"14874 N 136TH DRIVE, SURPRIZE, AZ, 85379","Match","Non_Exact","14874 N 136TH DR, SURPRISE, AZ, 85379",243993729,"L"
65567,"14874 W LAUREL LN","SURPRISE","AZ",85379,33.5918808700001,-112.380444683,67,"14874 W LAUREL LN, SURPRISE, AZ, 85379","Match","Exact","14874 W LAUREL LN, SURPRISE, AZ, 85379",243971614,"L"
65568,"14875 S AVENIDA CUCANA","SAHUARITA","AZ",85629,31.9800250800001,-110.965722137,68,"14875 S AVENIDA CUCANA, SAHUARITA, AZ, 85629","Match","Exact","14875 S AVE CUCANA, SAHUARITA, AZ, 85629",606835661,"L"
65569,"14875 S W  MOCKINGBIRD CT","BEAVERTON","OR",97007,45.4453066300001,-122.829611376,69,"14875 S W  MOCKINGBIRD CT, BEAVERTON, OR, 97007","Match","Exact","14875 SW MOCKINGBIRD CT, BEAVERTON, OR, 97007",158201670,"R"
65570,"14876 SW 30TH STREET","BENTON","KS",67017,37.7815854830001,-97.1154310589999,70,"14876 SW 30TH STREET, BENTON, KS, 67017","Match","Exact","14876 SW 30TH ST, BENTON, KS, 67017",648660604,"R"
65571,"14876 SW 30TH","BENTON","KS",67017,37.7815854830001,-97.1154310589999,71,"14876 SW 30TH, BENTON, KS, 67017","Match","Non_Exact","14876 SW 30TH ST, BENTON, KS, 67017",648660604,"R"
65572,"14878 TRUELOVE RD","WEST FORK","AR",72774,35.894027926,-94.11622995,72,"14878 TRUELOVE RD, WEST FORK, AR, 72774","Match","Exact","14878 TRUELOVE RD, WEST FORK, AR, 72774",239055081,"R"
65573,"14879 GARFIELD AVE","ALLEN PARK","MI",48101,42.254176699,-83.2013224569999,73,"14879 GARFIELD AVE, ALLEN PARK, MI, 48101","Match","Exact","14879 GARFIELD AVE, ALLEN PARK, MI, 48101",95447160,"L"
65574,"14879 SNOWDEN","DETROIT","MI",48227,42.3983700050001,-83.176801279,74,"14879 SNOWDEN, DETROIT, MI, 48227","Match","Non_Exact","14879 SNOWDEN ST, DETROIT, MI, 48227",95425051,"L"
65575,"1488 14TH ROAD","WASHINGTON","OK",66968,NA,NA,75,"1488 14TH ROAD, WASHINGTON, OK, 66968","No_Match",NA,NA,NA,NA
65576,"1488 23RD STREET","HOULTON","WI",54082,45.0785934630001,-92.755986647,76,"1488 23RD STREET, HOULTON, WI, 54082","Match","Exact","1488 23RD ST, HOULTON, WI, 54082",646677086,"R"
65577,"1488 4TH STREET","WEST BABYLON","NY",11704,40.7199211390001,-73.3623129699999,77,"1488 4TH STREET, WEST BABYLON, NY, 11704","Match","Exact","1488 4TH ST, WEST BABYLON, NY, 11704",113975443,"L"
65578,"1488 BETHAVEN ROAD","RIVERDALE","GA",30296,33.559742568,-84.438019196,78,"1488 BETHAVEN ROAD, RIVERDALE, GA, 30296","Match","Exact","1488 BETHAVEN RD, RIVERDALE, GA, 30296",23312499,"L"
65579,"1488 CAPITOL AVE UNIT D406","BRIDGEPORT","CT",6604,41.1892928440001,-73.2159585589999,79,"1488 CAPITOL AVE UNIT D406, BRIDGEPORT, CT, 6604","Match","Exact","1488 CAPITOL AVE, BRIDGEPORT, CT, 06604",3223608,"R"
65580,"1488 CRANBROOK DR","SAGINAW","MI",48638,43.4293361050001,-84.0265073959999,80,"1488 CRANBROOK DR, SAGINAW, MI, 48638","Match","Exact","1488 CRANBROOK DR, SAGINAW, MI, 48638",80219498,"R"
65581,"1488 E 100 N","WASHINGTON","IN",47501,38.668288503,-87.138849857,81,"1488 E 100 N, WASHINGTON, IN, 47501","Match","Exact","1488 E 100 N, WASHINGTON, IN, 47501",651735704,"L"
65582,"1488 E HIGHLAND RD","WAXAHACHIE","TX",75167,32.4917883090001,-96.847854689,82,"1488 E HIGHLAND RD, WAXAHACHIE, TX, 75167","Match","Exact","1488 E HIGHLAND RD, WAXAHACHIE, TX, 75167",647955262,"R"
65583,"1488 GLEN AVENUE","WAHIAWA","HI",96786,21.505150503,-158.014834271,83,"1488 GLEN AVENUE, WAHIAWA, HI, 96786","Match","Exact","1488 GLEN AVE, WAHIAWA, HI, 96786",203331234,"L"
65584,"1488 MONTEEL DRIVE NW","ATLANTA","GA",30318,33.7956900830001,-84.483250415,84,"1488 MONTEEL DRIVE NW, ATLANTA, GA, 30318","Match","Exact","1488 MONTEEL DR NW, ATLANTA, GA, 30318",17332615,"L"
65585,"1488 N PRAIRIE ST","GALESBURG","IL",61401,40.9655348040001,-90.367740683,85,"1488 N PRAIRIE ST, GALESBURG, IL, 61401","Match","Exact","1488 N PRAIRIE ST, GALESBURG, IL, 61401",9039437,"L"
65586,"1488 NEW YORK AVE","BROOKLYN","NY",11210,40.6368378660001,-73.9451713989999,86,"1488 NEW YORK AVE, BROOKLYN, NY, 11210","Match","Exact","1488 NEW YORK AVE, BROOKLYN, NY, 11210",59081966,"R"
65587,"1488 PARK KNOLL TRAIL","LAWRENCEVILLE","GA",30043,34.010617386,-83.978174816,87,"1488 PARK KNOLL TRAIL, LAWRENCEVILLE, GA, 30043","Match","Non_Exact","1488 PARK KNOLL TRL NE, LAWRENCEVILLE, GA, 30043",625182954,"R"
65588,"1488 PIONEER WAY SUITE 5","EL CAJON","CA",92020,32.8151586920001,-116.967760592,88,"1488 PIONEER WAY SUITE 5, EL CAJON, CA, 92020","Match","Exact","1488 PIONEER WAY, EL CAJON, CA, 92020",650372598,"L"
65589,"1488 S SHERIDAN RD","STANTON","MI",48888,43.2662121120001,-85.0736678169999,89,"1488 S SHERIDAN RD, STANTON, MI, 48888","Match","Exact","1488 S SHERIDAN RD, STANTON, MI, 48888",110561384,"L"
65590,"1488 SPRING RUN ROAD EXTENSION","MOON TOWNSHIP","PA",15108,NA,NA,90,"1488 SPRING RUN ROAD EXTENSION, MOON TOWNSHIP, PA, 15108","No_Match",NA,NA,NA,NA
65591,"1488 VENTURA DRIVE","PITTSBURG","CA",94565,37.9993086900001,-121.868468692,91,"1488 VENTURA DRIVE, PITTSBURG, CA, 94565","Match","Exact","1488 VENTURA DR, PITTSBURG, CA, 94565",192061669,"R"
65592,"1488 WAYLAND DRIVE","COLUMBUS","OH",43207,39.897850814,-82.9559934329999,92,"1488 WAYLAND DRIVE, COLUMBUS, OH, 43207","Match","Exact","1488 WAYLAND DR, COLUMBUS, OH, 43207",135586388,"L"
65593,"1488 WESTFIELD STREET","WESTSPRINGFIELD","MA",1089,42.1070204370001,-72.6485418619999,93,"1488 WESTFIELD STREET, WESTSPRINGFIELD, MA, 1089","Match","Non_Exact","1488 WESTFIELD ST, W SPRINGFIELD, MA, 01089",4032366,"R"
65594,"14880 MILL RIDGE RD","SAUCIER","MS",39574,30.5871315740001,-89.0850652029999,94,"14880 MILL RIDGE RD, SAUCIER, MS, 39574","Match","Exact","14880 MILL RIDGE RD, SAUCIER, MS, 39574",627527391,"R"
65595,"14880 S SUNFLOWER ROAD","GARDNER","KS",66030,NA,NA,95,"14880 S SUNFLOWER ROAD, GARDNER, KS, 66030","No_Match",NA,NA,NA,NA
65596,"14880 W US 84","NEWTON","AL",36352,31.2468074450001,-85.644365933,96,"14880 W US 84, NEWTON, AL, 36352","Match","Non_Exact","14880 US HWY 84, NEWTON, AL, 36352",101222549,"R"
65597,"14880 WYOMING","DETROIT","MI",48238,42.398922075,-83.159502862,97,"14880 WYOMING, DETROIT, MI, 48238","Match","Non_Exact","14880 WYOMING ST, DETROIT, MI, 48238",95426124,"R"
65598,"14881 RD 26","DOLORES","CO",81323,37.424401968,-108.573491222,98,"14881 RD 26, DOLORES, CO, 81323","Match","Exact","14881 RD 26, DOLORES, CO, 81323",648167435,"L"
65599,"14882 SW GREENFIELD DRIVE","TIGARD","OR",97224,45.412249617,-122.809381502,99,"14882 SW GREENFIELD DRIVE, TIGARD, OR, 97224","Match","Exact","14882 SW GREENFIELD DR, TIGARD, OR, 97224",627421991,"L"
65600,"14884 DILLOW STREET","WESTMINSTER","CA",92683,33.746217433,-117.966296861,100,"14884 DILLOW STREET, WESTMINSTER, CA, 92683","Match","Exact","14884 DILLOW ST, WESTMINSTER, CA, 92683",609057039,"L"
65601,"14885 S CAENEN LN","OLATHE","KS",66062,38.858402412,-94.730355152,101,"14885 S CAENEN LN, OLATHE, KS, 66062","Match","Exact","14885 S CAENEN LN, OLATHE, KS, 66062",91284727,"L"
65602,"14888 HWY 105W SUITE 210","MONTGOMERY","TX",77356,NA,NA,102,"14888 HWY 105W SUITE 210, MONTGOMERY, TX, 77356","No_Match",NA,NA,NA,NA
65603,"14888 LAGO DRIVE","RANCHO MURIETA","CA",95683,38.4999397190001,-121.099382374,103,"14888 LAGO DRIVE, RANCHO MURIETA, CA, 95683","Match","Exact","14888 LAGO DR, RANCHO MURIETA, CA, 95683",133358934,"R"
65604,"14889 ALSTONE DR","FRISCO","TX",75035,33.1252145020001,-96.7459095579999,104,"14889 ALSTONE DR, FRISCO, TX, 75035","Match","Exact","14889 ALSTONE DR, FRISCO, TX, 75035",647702753,"R"
65605,"14889 BUCKBOARD","SISTERS","OR",97759,44.316046584,-121.589601547,105,"14889 BUCKBOARD, SISTERS, OR, 97759","Match","Exact","14889 BUCKBOARD, SISTERS, OR, 97759",152544948,"R"
65606,"1489 AIRPORT RD","WORLAND","WY",82401,43.9707890010001,-107.946461575,106,"1489 AIRPORT RD, WORLAND, WY, 82401","Match","Exact","1489 AIRPORT RD, WORLAND, WY, 82401",653055296,"R"
65607,"1489 CALF CREEK LN","SHERMAN","TX",75090,33.67545291,-96.502122341,107,"1489 CALF CREEK LN, SHERMAN, TX, 75090","Match","Exact","1489 CALF CREEK LN, SHERMAN, TX, 75090",63378997,"L"
65608,"1489 MILBURN","TOLEDO","OH",43606,NA,NA,108,"1489 MILBURN, TOLEDO, OH, 43606","Tie",NA,NA,NA,NA
65609,"1489 N MILITARY TRL SUITE 219","WEST PALM BEACH","FL",33409,26.6993838820001,-80.1114145719999,109,"1489 N MILITARY TRL SUITE 219, WEST PALM BEACH, FL, 33409","Match","Non_Exact","1489 N MILITARY TRL, WEST PALM BEACH, FL, 33409",115271356,"L"
65610,"1489 NEWTON STREET NW APT 35","WASHINGTON","DC",20010,38.9325075680001,-77.034421919,110,"1489 NEWTON STREET NW APT 35, WASHINGTON, DC, 20010","Match","Exact","1489 NEWTON ST NW, WASHINGTON, DC, 20010",76222858,"R"
65611,"1489 RADCLIFF LN","AURORA","IL",60502,41.787976046,-88.242239976,111,"1489 RADCLIFF LN, AURORA, IL, 60502","Match","Exact","1489 RADCLIFF LN, AURORA, IL, 60502",112565169,"R"
65612,"1489 ROSE CENTER RD","FENTON","MI",48430,NA,NA,112,"1489 ROSE CENTER RD, FENTON, MI, 48430","No_Match",NA,NA,NA,NA
65613,"1489 ROSEMONT RD","WEST LINN","OR",97068,45.366750289,-122.634410001,113,"1489 ROSEMONT RD, WEST LINN, OR, 97068","Match","Exact","1489 ROSEMONT RD, WEST LINN, OR, 97068",614992731,"R"
65614,"1489 SARGENT AVE","SAINT PAUL","MN",55105,44.935158689,-93.1631602149999,114,"1489 SARGENT AVE, SAINT PAUL, MN, 55105","Match","Exact","1489 SARGENT AVE, SAINT PAUL, MN, 55105",97645862,"R"
65615,"1489 SARGENT AVENUE","SAINT PAUL","MN",55105,44.935158689,-93.1631602149999,115,"1489 SARGENT AVENUE, SAINT PAUL, MN, 55105","Match","Exact","1489 SARGENT AVE, SAINT PAUL, MN, 55105",97645862,"R"
65616,"1489 SOUND AVENUE","BAITING HOLLOW","NY",11933,40.955443825,-72.782864391,116,"1489 SOUND AVENUE, BAITING HOLLOW, NY, 11933","Match","Exact","1489 SOUND AVE, BAITING HOLLOW, NY, 11933",114021569,"L"
65617,"1489 US HWY 395 N","GARDNERVILLE","NV",89410,38.9429656770001,-119.751410638,117,"1489 US HWY 395 N, GARDNERVILLE, NV, 89410","Match","Exact","1489 US HWY 395 N, GARDNERVILLE, NV, 89410",636422643,"R"
65618,"1489 W PALMETTO","BOCA RATON","FL",33486,NA,NA,118,"1489 W PALMETTO, BOCA RATON, FL, 33486","No_Match",NA,NA,NA,NA
65619,"1489 WEST STREET","SHELDONVILLE","MA",2070,NA,NA,119,"1489 WEST STREET, SHELDONVILLE, MA, 2070","No_Match",NA,NA,NA,NA
65620,"14890 GRANDVILLE","DETROIT","MI",48223,42.3969818050001,-83.231208959,120,"14890 GRANDVILLE, DETROIT, MI, 48223","Match","Non_Exact","14890 GRANDVILLE AVE, DETROIT, MI, 48223",95422485,"R"
65621,"14890 NE 16TH PLACE","WILLISTON","FL",32696,29.3560463600001,-82.524043523,121,"14890 NE 16TH PLACE, WILLISTON, FL, 32696","Match","Exact","14890 NE 16TH PL, WILLISTON, FL, 32696",612199504,"L"
65622,"14892 ELLINGSWORTH LANE","WINTER GARDEN","FL",34787,NA,NA,122,"14892 ELLINGSWORTH LANE, WINTER GARDEN, FL, 34787","No_Match",NA,NA,NA,NA
65623,"14892 FIRESIDE LANE SUITE 2321","HELENDALE","CA",92342,34.7475182090001,-117.338867483,123,"14892 FIRESIDE LANE SUITE 2321, HELENDALE, CA, 92342","Match","Exact","14892 FIRESIDE LN, HELENDALE, CA, 92342",144565413,"R"
65624,"14893 CAMBRIA ST","FONTANA","CA",92335,34.0788631890001,-117.481033598,124,"14893 CAMBRIA ST, FONTANA, CA, 92335","Match","Exact","14893 CAMBRIA ST, FONTANA, CA, 92335",144964090,"R"
65625,"14893 GALAPAGO ST  APT F208","WESTMINSTER","CO",80023,39.966575683,-104.995401956,125,"14893 GALAPAGO ST  APT F208, WESTMINSTER, CO, 80023","Match","Exact","14893 GALAPAGO ST, WESTMINSTER, CO, 80023",649056910,"L"
65626,"14894 CLEVELAND AVE","ALLEN PARK","MI",48101,42.253506429,-83.2018795239999,126,"14894 CLEVELAND AVE, ALLEN PARK, MI, 48101","Match","Exact","14894 CLEVELAND AVE, ALLEN PARK, MI, 48101",95447164,"R"
65627,"14894 W DREYFUS ST","SURPRISE","AZ",85379,33.6032835870001,-112.381055996,127,"14894 W DREYFUS ST, SURPRISE, AZ, 85379","Match","Exact","14894 W DREYFUS ST, SURPRISE, AZ, 85379",617970251,"R"
65628,"14895","MOUNTAIN VIEW","AR",72560,NA,NA,128,"14895, MOUNTAIN VIEW, AR, 72560","No_Match",NA,NA,NA,NA
65629,"14896 SOUTH 2025 ROAD","STOCKTON","MO",65784,37.6786147500001,-93.7038216399999,129,"14896 SOUTH 2025 ROAD, STOCKTON, MO, 65784","Match","Non_Exact","14896 S 2025 RD, STOCKTON, MO, 65785",44905051,"R"
65630,"14897 NE 18 AVE APT 101","NORTH MIAMI","FL",33181,25.9128877910001,-80.1633547549999,130,"14897 NE 18 AVE APT 101, NORTH MIAMI, FL, 33181","Match","Non_Exact","14897 NE 18TH AVE, NORTH MIAMI, FL, 33181",116036434,"R"
65631,"14897 SKOG ROAD","GRANTSBURG","WI",54840,45.752246445,-92.7479906409999,131,"14897 SKOG ROAD, GRANTSBURG, WI, 54840","Match","Exact","14897 SKOG RD, GRANTSBURG, WI, 54840",167469022,"R"
65632,"14898 ELK CREEK ROAD","PIEDMONT","SD",57769,44.2274375380001,-103.071153702,132,"14898 ELK CREEK ROAD, PIEDMONT, SD, 57769","Match","Exact","14898 ELK CREEK RD, PIEDMONT, SD, 57769",200922581,"L"
65633,"14899 MEYER","ALLEN PARK","MI",48101,42.2580045110001,-83.19986152,133,"14899 MEYER, ALLEN PARK, MI, 48101","Match","Non_Exact","14899 MEYER AVE, ALLEN PARK, MI, 48101",95447154,"L"
65634,"14899 PENROD","DETROIT","MI",48223,42.3973255860001,-83.221548496,134,"14899 PENROD, DETROIT, MI, 48223","Match","Non_Exact","14899 PENROD ST, DETROIT, MI, 48223",95423417,"L"
65635,"148A MADISON ST","NEW YORK","NY",10002,40.71242564,-73.992872948,135,"148A MADISON ST, NEW YORK, NY, 10002","Match","Exact","148 MADISON ST, NEW YORK, NY, 10002",640783459,"R"
65636,"149  AUGUSTA DRIVE","MCDONOUGH","GA",30253,33.4929187110001,-84.215808851,136,"149  AUGUSTA DRIVE, MCDONOUGH, GA, 30253","Match","Exact","149 AUGUSTA DR, MCDONOUGH, GA, 30253",640023054,"L"
65637,"149 13TH STREET ROOM 4001","BOSTON","MA",2129,42.3767744680001,-71.050733937,137,"149 13TH STREET ROOM 4001, BOSTON, MA, 2129","Match","Exact","149 13TH ST, BOSTON, MA, 02129",85720057,"R"
65638,"149 1ST STREET","OAKMONT","PA",15139,40.5137534680001,-79.847101741,138,"149 1ST STREET, OAKMONT, PA, 15139","Match","Exact","149 1ST ST, OAKMONT, PA, 15139",641642902,"R"
65639,"149 26TH ST NW UNIT 1506","ATLANTA","GA",30309,33.8017818710001,-84.397483038,139,"149 26TH ST NW UNIT 1506, ATLANTA, GA, 30309","Match","Exact","149 26TH ST NW, ATLANTA, GA, 30309",650105325,"R"
65640,"149 ALEX CIRCLE","STATEN ISLAND","NY",10305,NA,NA,140,"149 ALEX CIRCLE, STATEN ISLAND, NY, 10305","No_Match",NA,NA,NA,NA
65641,"149 AMBER LANE","JARRELL","TX",76537,30.8052888880001,-97.595066278,141,"149 AMBER LANE, JARRELL, TX, 76537","Match","Exact","149 AMBER LN, JARRELL, TX, 76537",624800116,"R"
65642,"149 ANDREW ROAD","AMERICAN CANYON","CA",94503,38.1692540550001,-122.258126127,142,"149 ANDREW ROAD, AMERICAN CANYON, CA, 94503","Match","Exact","149 ANDREW RD, AMERICAN CANYON, CA, 94503",67418464,"R"
65643,"149 ANNATTO WAY","TEGA CAY","SC",29708,35.0296227960001,-80.9946046649999,143,"149 ANNATTO WAY, TEGA CAY, SC, 29708","Match","Exact","149 ANNATTO WAY, TEGA CAY, SC, 29708",641683090,"L"
65644,"149 ANTHONY STREET","EAST PROVIDENCE","RI",2914,41.823319074,-71.3759766489999,144,"149 ANTHONY STREET, EAST PROVIDENCE, RI, 2914","Match","Exact","149 ANTHONY ST, E PROVIDENCE, RI, 02914",47468096,"R"
65645,"149 AVON BELDEN ROAD","AVON LAKE","OH",44012,41.5102806040001,-82.018571465,145,"149 AVON BELDEN ROAD, AVON LAKE, OH, 44012","Match","Exact","149 AVON BELDEN RD, AVON LAKE, OH, 44012",55410148,"L"
65646,"149 BARRINGTON AVE SUITE 930","LOS ANGELES","CA",90049,NA,NA,146,"149 BARRINGTON AVE SUITE 930, LOS ANGELES, CA, 90049","Tie",NA,NA,NA,NA
65647,"149 BARTLEY AVENUE","MANSFIELD","OH",44905,40.7543653380001,-82.5325276519999,147,"149 BARTLEY AVENUE, MANSFIELD, OH, 44905","Match","Non_Exact","149 BARTLEY AVE, MANSFIELD, OH, 44903",12875494,"L"
65648,"149 BENTLEY AVENUE BSMT 1","JERSEY CITY","NJ",7304,40.7217662730001,-74.0787074949999,148,"149 BENTLEY AVENUE BSMT 1, JERSEY CITY, NJ, 7304","Match","Exact","149 BENTLEY AVE, JERSEY CITY, NJ, 07304",59604165,"L"
65649,"149 BLACKBIRD LANE","HUMMELSTOWN","PA",17036,40.312783815,-76.6951465069999,149,"149 BLACKBIRD LANE, HUMMELSTOWN, PA, 17036","Match","Exact","149 BLACKBIRD LN, HUMMELSTOWN, PA, 17036",647502947,"L"
65650,"149 BLUE BEARD DR","NORTH FORT MYERS","FL",33917,26.689935989,-81.8853957219999,150,"149 BLUE BEARD DR, NORTH FORT MYERS, FL, 33917","Match","Exact","149 BLUE BEARD DR, N FORT MYERS, FL, 33917",118048630,"L"
65651,"149 BONIFACIO PLACE","MONTEREY","CA",93940,36.5989103370001,-121.894167191,151,"149 BONIFACIO PLACE, MONTEREY, CA, 93940","Match","Exact","149 BONIFACIO PL, MONTEREY, CA, 93940",196815077,"L"
65652,"149 BONNER SPRINGS RANCH ROAD","LAPORTE","CO",80535,40.7524046830001,-105.17540857,152,"149 BONNER SPRINGS RANCH ROAD, LAPORTE, CO, 80535","Match","Exact","149 BONNER SPRINGS RANCH RD, LAPORTE, CO, 80535",188534641,"R"
65653,"149 BONNET MEADOW COVE","DRIFTWOOD","TX",78619,30.143577484,-97.988604052,153,"149 BONNET MEADOW COVE, DRIFTWOOD, TX, 78619","Match","Non_Exact","149 BONNETT MEADOW COVE, DRIFTWOOD, TX, 78619",625336894,"L"
65654,"149 BUMSTEAD RD","MONSON","MA",1057,42.067189215,-72.326899136,154,"149 BUMSTEAD RD, MONSON, MA, 1057","Match","Exact","149 BUMSTEAD RD, MONSON, MA, 01057",4067336,"L"
65655,"149 CARPENTER DRIVE","JACKSON","MS",39212,32.2243700180001,-90.3198481539999,155,"149 CARPENTER DRIVE, JACKSON, MS, 39212","Match","Exact","149 CARPENTER DR, JACKSON, MS, 39212",611224072,"R"
65656,"149 CARROLL STREET","SHREVEPORT","LA",71105,32.453756797,-93.714251016,156,"149 CARROLL STREET, SHREVEPORT, LA, 71105","Match","Exact","149 CARROLL ST, SHREVEPORT, LA, 71105",57441762,"L"
65657,"149 CEDAR RIDGE DRIVE","MONACA","PA",15061,40.6623292350001,-80.291378427,157,"149 CEDAR RIDGE DRIVE, MONACA, PA, 15061","Match","Exact","149 CEDAR RIDGE DR, MONACA, PA, 15061",52571060,"L"
65658,"149 CENTRAL AVE","MATTESON","IL",60443,41.523844162,-87.750339743,158,"149 CENTRAL AVE, MATTESON, IL, 60443","Match","Exact","149 CENTRAL AVE, MATTESON, IL, 60443",605677482,"L"
65659,"149 CENTRE AVENUE","EAST ROCKAWAY","NY",11518,40.648612599,-73.658273563,159,"149 CENTRE AVENUE, EAST ROCKAWAY, NY, 11518","Match","Exact","149 CENTRE AVE, EAST ROCKAWAY, NY, 11518",147680170,"R"
65660,"149 CHATEAU BEND","ARDMORE","OK",73401,34.124136419,-97.183221566,160,"149 CHATEAU BEND, ARDMORE, OK, 73401","Match","Exact","149 CHATEAU BEND, ARDMORE, OK, 73401",625584744,"L"
65661,"149 CHESTERFIELD RD","HAMPTON","VA",23661,37.0019673420001,-76.378034767,161,"149 CHESTERFIELD RD, HAMPTON, VA, 23661","Match","Exact","149 CHESTERFIELD RD, HAMPTON, VA, 23661",103805829,"L"
65662,"149 CHURCH ST","HAMDEN","CT",6514,41.354489733,-72.9354855879999,162,"149 CHURCH ST, HAMDEN, CT, 6514","Match","Exact","149 CHURCH ST, HAMDEN, CT, 06514",3698681,"R"
65663,"149 CLARENCE HOLLIS COURT","JONESBORO","GA",30238,33.5086295840001,-84.385826944,163,"149 CLARENCE HOLLIS COURT, JONESBORO, GA, 30238","Match","Exact","149 CLARENCE HOLLIS CT, JONESBORO, GA, 30238",624286563,"L"
65664,"149 CLINTON AVENUE APT 2A","BROOKLYN","NY",11205,40.693603479,-73.968896133,164,"149 CLINTON AVENUE APT 2A, BROOKLYN, NY, 11205","Match","Exact","149 CLINTON AVE, BROOKLYN, NY, 11205",59100611,"L"
65665,"149 COLES STREET","JERSEY CITY","NJ",7302,40.7276117220001,-74.046829981,165,"149 COLES STREET, JERSEY CITY, NJ, 7302","Match","Exact","149 COLES ST, JERSEY CITY, NJ, 07302",59606105,"L"
65666,"149 COLONEL ETHEREDGE BLVD 2308","HUNTSVILLE","TX",77340,30.7153094400001,-95.572655842,166,"149 COLONEL ETHEREDGE BLVD 2308, HUNTSVILLE, TX, 77340","Match","Exact","149 COL ETHEREDGE BLVD, HUNTSVILLE, TX, 77340",22219299,"R"
65667,"149 COLONIAL HEIGHTS DRIVE","RIVER RIDGE","LA",70123,29.943149685,-90.214434226,167,"149 COLONIAL HEIGHTS DRIVE, RIVER RIDGE, LA, 70123","Match","Non_Exact","149 COLONIAL HEIGHTS RD, RIVER RIDGE, LA, 70123",93535875,"R"
65668,"149 CONROY RD","PERHAM","ME",4766,46.871882183,-68.273142525,168,"149 CONROY RD, PERHAM, ME, 4766","Match","Exact","149 CONROY RD, PERHAM, ME, 04766",123830615,"L"
65669,"149 CORNER LN","BRANCHVILLE","SC",29432,33.235745304,-80.773744321,169,"149 CORNER LN, BRANCHVILLE, SC, 29432","Match","Exact","149 CORNER LN, BRANCHVILLE, SC, 29432",646599568,"R"
65670,"149 COTTONWOOD DR","COPPELL","TX",75019,32.9721174850001,-97.0048296479999,170,"149 COTTONWOOD DR, COPPELL, TX, 75019","Match","Exact","149 COTTONWOOD DR, COPPELL, TX, 75019",638656275,"R"
65671,"149 COUNTRY CLUB ROAD","ANDREWS","SC",29510,33.44353389,-79.5977303079999,171,"149 COUNTRY CLUB ROAD, ANDREWS, SC, 29510","Match","Exact","149 COUNTRY CLUB RD, ANDREWS, SC, 29510",29213959,"L"
65672,"149 COURT STREET","AUBURN","CA",95603,38.8962338320001,-121.07752998,172,"149 COURT STREET, AUBURN, CA, 95603","Match","Exact","149 COURT ST, AUBURN, CA, 95603",106772037,"L"
65673,"149 DANBROOK","IRVINE","CA",92603,33.6273964850001,-117.831615122,173,"149 DANBROOK, IRVINE, CA, 92603","Match","Exact","149 DANBROOK, IRVINE, CA, 92603",609042986,"R"
65674,"149 DAVIS SINGLETERRY RD","WAYNESBORO","MS",39367,31.5949688950001,-88.6621591749999,174,"149 DAVIS SINGLETERRY RD, WAYNESBORO, MS, 39367","Match","Exact","149 DAVIS SINGLETERRY RD, WAYNESBORO, MS, 39367",273446,"R"
65675,"149 DEYOUNG MEADOWS DRIVE","GREER","SC",29651,34.8345227840001,-82.167887018,175,"149 DEYOUNG MEADOWS DRIVE, GREER, SC, 29651","Match","Exact","149 DEYOUNG MEADOWS DR, GREER, SC, 29651",627597622,"L"
65676,"149 DODDS CT","BURLINGTON","VT",5408,44.5081351850001,-73.250071664,176,"149 DODDS CT, BURLINGTON, VT, 5408","Match","Exact","149 DODDS CT, BURLINGTON, VT, 05408",135826980,"L"
65677,"149 DREAMTIME LN","MENA","AR",71953,34.442984648,-94.092670249,177,"149 DREAMTIME LN, MENA, AR, 71953","Match","Exact","149 DREAMTIME LN, MENA, AR, 71953",34538390,"L"
65678,"149 DRINKWATER ROAD","HAMPTON FALLS","NH",3844,NA,NA,178,"149 DRINKWATER ROAD, HAMPTON FALLS, NH, 3844","No_Match",NA,NA,NA,NA
65679,"149 DUSKIN DR","COCHRAN","GA",31014,32.372021149,-83.363365997,179,"149 DUSKIN DR, COCHRAN, GA, 31014","Match","Exact","149 DUSKIN DR, COCHRAN, GA, 31014",91203437,"R"
65680,"149 E 17TH STREET","LOS ANGELES","CA",90003,34.0325871950001,-118.26263801,180,"149 E 17TH STREET, LOS ANGELES, CA, 90003","Match","Non_Exact","149 E 17TH ST, LOS ANGELES, CA, 90015",141619144,"R"
65681,"149 E AVENUE R3","PALMDALE","CA",93550,NA,NA,181,"149 E AVENUE R3, PALMDALE, CA, 93550","No_Match",NA,NA,NA,NA
65682,"149 E DIVISION","ROCKFORD","MI",49341,43.1174280540001,-85.5569513889999,182,"149 E DIVISION, ROCKFORD, MI, 49341","Match","Non_Exact","149 E DIVISION ST, ROCKFORD, MI, 49341",12466352,"L"
65683,"149 E GRAND AVE","HOT SPRINGS","AR",71901,34.502859481,-93.0518503659999,183,"149 E GRAND AVE, HOT SPRINGS, AR, 71901","Match","Non_Exact","149 W GRAND AVE, HOT SPRINGS, AR, 71901",22744805,"L"
65684,"149 E MAIN STREET UNIT 1","TRINIDAD","CO",81082,NA,NA,184,"149 E MAIN STREET UNIT 1, TRINIDAD, CO, 81082","Tie",NA,NA,NA,NA
65685,"149 E NEW ENGLAND DR","ELKTON","FL",32033,29.8037047710001,-81.395579523,185,"149 E NEW ENGLAND DR, ELKTON, FL, 32033","Match","Exact","149 E NEW ENGLAND DR, ELKTON, FL, 32033",639524935,"R"
65686,"149 EAST 23RD STREET  SUITE 1204","NEW YORK","NY",10010,40.739159064,-73.983899541,186,"149 EAST 23RD STREET  SUITE 1204, NEW YORK, NY, 10010","Match","Exact","149 E 23RD ST, NEW YORK, NY, 10010",639380177,"L"
65687,"149 EAST MAIN STREET","MOREHEAD","KY",40351,38.1829216850001,-83.434287314,187,"149 EAST MAIN STREET, MOREHEAD, KY, 40351","Match","Exact","149 E MAIN ST, MOREHEAD, KY, 40351",39624063,"L"
65688,"149 ESPLANADE","MOUNT VERNON","NY",10553,40.9168597460001,-73.822070337,188,"149 ESPLANADE, MOUNT VERNON, NY, 10553","Match","Exact","149 ESPLANADE, MOUNT VERNON, NY, 10553",139833574,"R"
65689,"149 FALL CREEK BLVD","SUMMERVILLE","SC",29483,32.997881713,-80.271207467,189,"149 FALL CREEK BLVD, SUMMERVILLE, SC, 29483","Match","Exact","149 FALL CREEK BLVD, SUMMERVILLE, SC, 29483",611317043,"L"
65690,"149 FORESTBROOK DR","MADISON","AL",35757,34.782488433,-86.7323175829999,190,"149 FORESTBROOK DR, MADISON, AL, 35757","Match","Exact","149 FORESTBROOK DR, MADISON, AL, 35757",632534483,"L"
65691,"149 GARDENIA DR","STAFFORD","VA",22554,38.436619539,-77.4266877479999,191,"149 GARDENIA DR, STAFFORD, VA, 22554","Match","Exact","149 GARDENIA DR, STAFFORD, VA, 22554",651967023,"R"
65692,"149 GARRISON AVE","JERSEY CITY","NJ",7306,40.7336648840001,-74.067586177,192,"149 GARRISON AVE, JERSEY CITY, NJ, 7306","Match","Exact","149 GARRISON AVE, JERSEY CITY, NJ, 07306",59603960,"L"
65693,"149 GEIBEL ROAD","FENELTON","PA",16034,40.9125668450001,-79.7535701629999,193,"149 GEIBEL ROAD, FENELTON, PA, 16034","Match","Exact","149 GEIBEL RD, FENELTON, PA, 16034",52651141,"R"
65694,"149 GRANDVIEW DRIVE","AMHERST","NY",14228,43.0441265200001,-78.807537757,194,"149 GRANDVIEW DRIVE, AMHERST, NY, 14228","Match","Exact","149 GRANDVIEW DR, AMHERST, NY, 14228",48284808,"R"
65695,"149 GREENWOOD AVE","AMBLER","PA",19002,40.154254586,-75.2193038509999,195,"149 GREENWOOD AVE, AMBLER, PA, 19002","Match","Exact","149 GREENWOOD AVE, AMBLER, PA, 19002",135077659,"L"
65696,"149 HESTER ST SUITE 300","NEW YORK","NY",10002,40.717262487,-73.995344615,196,"149 HESTER ST SUITE 300, NEW YORK, NY, 10002","Match","Exact","149 HESTER ST, NEW YORK, NY, 10002",59653983,"R"
65697,"149 HIDDEN VALLEY ESTATES","SCOTT DEPOT","WV",25560,38.4527590550001,-81.9193291409999,197,"149 HIDDEN VALLEY ESTATES, SCOTT DEPOT, WV, 25560","Match","Exact","149 HIDDEN VALLEY ESTS, SCOTT DEPOT, WV, 25560",130524484,"R"
65698,"149 HIGH PL","FORT COLLINS","CO",80521,40.5909201630001,-105.135197751,198,"149 HIGH PL, FORT COLLINS, CO, 80521","Match","Exact","149 HIGH PL, FORT COLLINS, CO, 80521",188519700,"R"
65699,"149 HIGHLANDS DR","CARMEL","CA",93923,NA,NA,199,"149 HIGHLANDS DR, CARMEL, CA, 93923","No_Match",NA,NA,NA,NA
65700,"149 HIGHWAY 18","RALEIGH","MS",39153,NA,NA,200,"149 HIGHWAY 18, RALEIGH, MS, 39153","No_Match",NA,NA,NA,NA
65701,"149 HILLSIDE DRIVE EAST","BURLESON","TX",76028,32.5457290150001,-97.264131049,201,"149 HILLSIDE DRIVE EAST, BURLESON, TX, 76028","Match","Exact","149 HILLSIDE DR E, BURLESON, TX, 76028",103536664,"L"
65702,"149 HORNOCK DRIVE","NEW ALEXANDRIA","PA",15670,40.395562834,-79.468995691,202,"149 HORNOCK DRIVE, NEW ALEXANDRIA, PA, 15670","Match","Exact","149 HORNOCK DR, NEW ALEXANDRIA, PA, 15670",613061746,"L"
65703,"149 IVEY HAYES RD","PICKENS","SC",29671,34.9326183740001,-82.6568551889999,203,"149 IVEY HAYES RD, PICKENS, SC, 29671","Match","Exact","149 IVEY HAYES RD, PICKENS, SC, 29671",26217993,"R"
65704,"149 KELLY LANE","EL DORADO","AR",71730,33.1714259780001,-92.628772662,204,"149 KELLY LANE, EL DORADO, AR, 71730","Match","Exact","149 KELLY LN, EL DORADO, AR, 71730",28171826,"R"
65705,"149 KIMBERLY AVENUE","BUFFALO","NY",14220,42.838062956,-78.809379416,205,"149 KIMBERLY AVENUE, BUFFALO, NY, 14220","Match","Exact","149 KIMBERLY AVE, BUFFALO, NY, 14220",48303005,"R"
65706,"149 LAKESIDE DRIVE SOUTH","LAWRENCE","NY",11559,40.606760577,-73.736605208,206,"149 LAKESIDE DRIVE SOUTH, LAWRENCE, NY, 11559","Match","Exact","149 LAKESIDE DR S, LAWRENCE, NY, 11559",147827516,"R"
65707,"149 LATHAM WORKS LANE","WHITE RIVER JUNCTION","VT",5001,43.6443193540001,-72.317015042,207,"149 LATHAM WORKS LANE, WHITE RIVER JUNCTION, VT, 5001","Match","Exact","149 LATHAM WORKS LN, WHITE RIVER JUNCTION, VT, 05001",139294647,"R"
65708,"149 LAWTON ROAD","MERRYVILLE","LA",70653,30.853224165,-93.430506909,208,"149 LAWTON ROAD, MERRYVILLE, LA, 70653","Match","Exact","149 LAWTON RD, MERRYVILLE, LA, 70653",88378418,"L"
65709,"149 LENOX AVE","PROVIDENCE","RI",2909,NA,NA,209,"149 LENOX AVE, PROVIDENCE, RI, 2909","No_Match",NA,NA,NA,NA
65710,"149 LISLE LN","OREGONIA","OH",45054,39.430752098,-84.097318661,210,"149 LISLE LN, OREGONIA, OH, 45054","Match","Exact","149 LISLE LN, OREGONIA, OH, 45054",617731141,"L"
65711,"149 LOSSIE LN","MCDONOUGH","GA",30253,33.38884362,-84.1761947159999,211,"149 LOSSIE LN, MCDONOUGH, GA, 30253","Match","Exact","149 LOSSIE LN, MCDONOUGH, GA, 30253",637573073,"L"
65712,"149 LUCY LANE","NORTHFIELD","OH",44067,41.3189812270001,-81.5442656069999,212,"149 LUCY LANE, NORTHFIELD, OH, 44067","Match","Exact","149 LUCY LN, NORTHFIELD, OH, 44067",61360934,"R"
65713,"149 MAIN ST","FRANCONIA","NH",3580,44.2306741830001,-71.754948913,213,"149 MAIN ST, FRANCONIA, NH, 3580","Match","Exact","149 MAIN ST, FRANCONIA, NH, 03580",145674130,"R"
65714,"149 MAIN STREET - PO BOX 252","EDGARTOWN","MA",2539,41.39122459,-70.5186609579999,214,"149 MAIN STREET - PO BOX 252, EDGARTOWN, MA, 2539","Match","Exact","149 MAIN ST, EDGARTOWN, MA, 02539",118871199,"R"
65715,"149 MAIN STREET","THOMSON","GA",30824,33.4668237650001,-82.502871007,215,"149 MAIN STREET, THOMSON, GA, 30824","Match","Exact","149 MAIN ST, THOMSON, GA, 30824",43141655,"L"
65716,"149 MAPLE ST","BURLINGTON","VT",5401,44.4736582370001,-73.21321392,216,"149 MAPLE ST, BURLINGTON, VT, 5401","Match","Exact","149 MAPLE ST, BURLINGTON, VT, 05401",135855675,"R"
65717,"149 MIDLAND AVE","GARFIELD","NJ",7026,40.869132753,-74.1045978889999,217,"149 MIDLAND AVE, GARFIELD, NJ, 7026","Match","Exact","149 MIDLAND AVE, GARFIELD, NJ, 07026",64392731,"L"
65718,"149 MITCHELL ROAD","HAMPTON","GA",30228,33.46737202,-84.255351172,218,"149 MITCHELL ROAD, HAMPTON, GA, 30228","Match","Exact","149 MITCHELL RD, HAMPTON, GA, 30228",23189551,"L"
65719,"149 N BENTON ST","PALATINE","IL",60067,42.11343236,-88.0413127859999,219,"149 N BENTON ST, PALATINE, IL, 60067","Match","Exact","149 N BENTON ST, PALATINE, IL, 60067",111695828,"R"
65720,"149 N MAIN STREET","GLEN CARBON","IL",62034,38.760480924,-89.973285338,220,"149 N MAIN STREET, GLEN CARBON, IL, 62034","Match","Exact","149 N MAIN ST, GLEN CARBON, IL, 62034",107710773,"R"
65721,"149 NE 193RD STREET","SHORELINE","WA",98155,47.7690726050001,-122.328991301,221,"149 NE 193RD STREET, SHORELINE, WA, 98155","Match","Exact","149 NE 193RD ST, SHORELINE, WA, 98155",186574596,"R"
65722,"149 NELSON ST","BATTLE CREEK","MI",49014,42.3062214020001,-85.162915259,222,"149 NELSON ST, BATTLE CREEK, MI, 49014","Match","Exact","149 NELSON ST, BATTLE CREEK, MI, 49014",11715229,"L"
65723,"149 NEW MONTGOMERY STREET","SAN FRANCISCO","CA",94105,37.7867833390001,-122.399673678,223,"149 NEW MONTGOMERY STREET, SAN FRANCISCO, CA, 94105","Match","Exact","149 NEW MONTGOMERY ST, SAN FRANCISCO, CA, 94105",192281566,"L"
65724,"149 NW 14 TH STREET","POMPANO BEACH","FL",33060,26.2450673270001,-80.124281584,224,"149 NW 14 TH STREET, POMPANO BEACH, FL, 33060","Match","Non_Exact","149 NW 14TH ST, POMPANO BEACH, FL, 33060",114694872,"R"
65725,"149 OAK LEAF RD","BERLIN","NJ",8009,39.7194500030001,-74.921732344,225,"149 OAK LEAF RD, BERLIN, NJ, 8009","Match","Exact","149 OAK LEAF RD, BERLIN, NJ, 08009",632485886,"R"
65726,"149 PACTOLUS ROAD","KINGSPORT","TN",37663,36.4914024460001,-82.527238604,226,"149 PACTOLUS ROAD, KINGSPORT, TN, 37663","Match","Exact","149 PACTOLUS RD, KINGSPORT, TN, 37663",604781213,"R"
65727,"149 PALO VERDES BLVD SUITE A","REDONDO BEACH","CA",90278,NA,NA,227,"149 PALO VERDES BLVD SUITE A, REDONDO BEACH, CA, 90278","No_Match",NA,NA,NA,NA
65728,"149 PASEO DEL SOL","LAKE HAVASU CITY","AZ",86403,NA,NA,228,"149 PASEO DEL SOL, LAKE HAVASU CITY, AZ, 86403","No_Match",NA,NA,NA,NA
65729,"149 PENNSYLVANIA AVE","MEDFORD","NY",11763,40.810045368,-72.994018899,229,"149 PENNSYLVANIA AVE, MEDFORD, NY, 11763","Match","Exact","149 PENNSYLVANIA AVE, MEDFORD, NY, 11763",114012355,"R"
65730,"149 PETERSON AVENUE","SOUTH PASADENA","CA",91030,34.1014926760001,-118.175203851,230,"149 PETERSON AVENUE, SOUTH PASADENA, CA, 91030","Match","Exact","149 PETERSON AVE, SOUTH PASADENA, CA, 91030",141615604,"R"
65731,"149 PETERSON ST","LEOMINSTER","MA",1453,42.4929147010001,-71.799191483,231,"149 PETERSON ST, LEOMINSTER, MA, 1453","Match","Exact","149 PETERSON ST, LEOMINSTER, MA, 01453",40150486,"R"
65732,"149 PINE HILL ROAD","BERWICK","ME",3901,43.2836885130001,-70.8642019179999,232,"149 PINE HILL ROAD, BERWICK, ME, 3901","Match","Exact","149 PINE HILL RD, BERWICK, ME, 03901",92764633,"L"
65733,"149 PLAYTER STREET","BUFFALO","NY",14212,42.891522788,-78.834478259,233,"149 PLAYTER STREET, BUFFALO, NY, 14212","Match","Exact","149 PLAYTER ST, BUFFALO, NY, 14212",48300721,"R"
65734,"149 PRESIDENTIAL CIR","HEALDSBURG","CA",95448,38.6001250040001,-122.861521639,234,"149 PRESIDENTIAL CIR, HEALDSBURG, CA, 95448","Match","Exact","149 PRESIDENTIAL CIR, HEALDSBURG, CA, 95448",67493546,"L"
65735,"149 PUBLIC SQUARE","LEBANON","TN",37087,NA,NA,235,"149 PUBLIC SQUARE, LEBANON, TN, 37087","No_Match",NA,NA,NA,NA
65736,"149 QUEEN STREET","DOVER","DE",19904,NA,NA,236,"149 QUEEN STREET, DOVER, DE, 19904","Tie",NA,NA,NA,NA
65737,"149 RHODE ISLAND AVENUE NW","WASHINGTON","DC",20001,38.91536419,-77.013370529,237,"149 RHODE ISLAND AVENUE NW, WASHINGTON, DC, 20001","Match","Exact","149 RHODE ISLAND AVE NW, WASHINGTON, DC, 20001",638293948,"R"
65738,"149 RICHMOND COURT","MARCO ISLAND","FL",34145,25.9340600670001,-81.705244017,238,"149 RICHMOND COURT, MARCO ISLAND, FL, 34145","Match","Exact","149 RICHMOND CT, MARCO ISLAND, FL, 34145",115123345,"L"
65739,"149 RIVER RD","NORMAN","AR",71960,34.4595024270001,-93.713612155,239,"149 RIVER RD, NORMAN, AR, 71960","Match","Exact","149 RIVER RD, NORMAN, AR, 71960",24039338,"L"
65740,"149 RIVER ST","SALAMANCA","NY",14779,42.1599524150001,-78.719772177,240,"149 RIVER ST, SALAMANCA, NY, 14779","Match","Exact","149 RIVER ST, SALAMANCA, NY, 14779",122025547,"L"
65741,"149 ROUNTREE DR","CEDAR CITY","UT",84720,37.6638911850001,-113.058263704,241,"149 ROUNTREE DR, CEDAR CITY, UT, 84720","Match","Exact","149 ROUNTREE DR, CEDAR CITY, UT, 84720",165426546,"L"
65742,"149 ROUNTREE DRIVE","CEDAR CITY","UT",84720,37.6638911850001,-113.058263704,242,"149 ROUNTREE DRIVE, CEDAR CITY, UT, 84720","Match","Exact","149 ROUNTREE DR, CEDAR CITY, UT, 84720",165426546,"L"
65743,"149 ROUTE 245","RUSHVILLE","NY",14544,42.7571724750001,-77.238378169,243,"149 ROUTE 245, RUSHVILLE, NY, 14544","Match","Non_Exact","149 STATE RTE 245, RUSHVILLE, NY, 14544",15102205,"R"
65744,"149 S BARRINGTON AVE STE 181","LOS ANGELES","CA",90049,NA,NA,244,"149 S BARRINGTON AVE STE 181, LOS ANGELES, CA, 90049","Tie",NA,NA,NA,NA
65745,"149 S BARRINGTON AVE UNIT 375","LOS ANGELES","CA",90049,NA,NA,245,"149 S BARRINGTON AVE UNIT 375, LOS ANGELES, CA, 90049","Tie",NA,NA,NA,NA
65746,"149 S HIGHLAND AVE","LOS ANGELES","CA",99036,34.0723262970001,-118.338652957,246,"149 S HIGHLAND AVE, LOS ANGELES, CA, 99036","Match","Non_Exact","149 S HIGHLAND AVE, LOS ANGELES, CA, 90036",241170157,"R"
65747,"149 SAGE BRUSH LN","ROMANCE","AR",72136,35.1835491510001,-92.069515372,247,"149 SAGE BRUSH LN, ROMANCE, AR, 72136","Match","Non_Exact","149 SAGEBRUSH LN, ROMANCE, AR, 72136",641795654,"L"
65748,"149 SALTONSTALL PARKWAY","EAST HAVEN","CT",6512,41.2800695930001,-72.8668355889999,248,"149 SALTONSTALL PARKWAY, EAST HAVEN, CT, 6512","Match","Exact","149 SALTONSTALL PKWY, EAST HAVEN, CT, 06512",3704756,"R"
65749,"149 SEACREST DRIVE","SEACREST","FL",32413,30.2916726330001,-86.046665332,249,"149 SEACREST DRIVE, SEACREST, FL, 32413","Match","Non_Exact","149 SEACREST DR, SEACREST, FL, 32461",32996532,"L"
65750,"149 SHELTER STREET","ROCHESTER","NY",14611,43.138881278,-77.633183178,250,"149 SHELTER STREET, ROCHESTER, NY, 14611","Match","Exact","149 SHELTER ST, ROCHESTER, NY, 14611",14533724,"L"
65751,"149 SITTON ROAD NW","CALHOUN","GA",30701,34.503256799,-85.000884925,251,"149 SITTON ROAD NW, CALHOUN, GA, 30701","Match","Exact","149 SITTON RD NW, CALHOUN, GA, 30701",57348298,"R"
65752,"149 SOUTH GOULDSBORO ROAD","GOULDSBORO","ME",4607,44.4652770020001,-68.094386389,252,"149 SOUTH GOULDSBORO ROAD, GOULDSBORO, ME, 4607","Match","Exact","149 S GOULDSBORO RD, GOULDSBORO, ME, 04607",110257371,"L"
65753,"149 SOUTH ST","MANTECA","CA",95337,37.793040353,-121.217912146,253,"149 SOUTH ST, MANTECA, CA, 95337","Match","Exact","149 SOUTH ST, MANTECA, CA, 95337",133858746,"R"
65754,"149 STONEBRIAR BLVD","JUPITER","FL",33458,26.9158180160001,-80.1258553759999,254,"149 STONEBRIAR BLVD, JUPITER, FL, 33458","Match","Exact","149 STONEBRIAR BLVD, JUPITER, FL, 33458",115342505,"L"
65755,"149 STOW ROAD","HARVARD","MA",1451,42.4745230080001,-71.56296871,255,"149 STOW ROAD, HARVARD, MA, 1451","Match","Exact","149 STOW RD, HARVARD, MA, 01451",40099060,"L"
65756,"149 SYDNEY JO LANE","BERWICK","LA",70342,29.7094425450001,-91.2445885179999,256,"149 SYDNEY JO LANE, BERWICK, LA, 70342","Match","Exact","149 SYDNEY JO LN, BERWICK, LA, 70342",651757651,"R"
65757,"149 TANO RD","SANTA FE","NM",87506,35.7339296760001,-105.952539749,257,"149 TANO RD, SANTA FE, NM, 87506","Match","Exact","149 TANO RD, SANTA FE, NM, 87506",636577216,"R"
65758,"149 TORREON DR","CLOVIS","NM",88101,34.4270015130001,-103.204099563,258,"149 TORREON DR, CLOVIS, NM, 88101","Match","Exact","149 TORREON DR, CLOVIS, NM, 88101",163759406,"L"
65759,"149 TWIN LAKE ROAD","GAFFNEY","SC",29341,35.0681269510001,-81.684886879,259,"149 TWIN LAKE ROAD, GAFFNEY, SC, 29341","Match","Non_Exact","149 TWIN LAKES RD, GAFFNEY, SC, 29341",19000234,"R"
65760,"149 TWN LAKE RD","GAFFNEY","SC",29341,35.139739897,-81.754191127,260,"149 TWN LAKE RD, GAFFNEY, SC, 29341","Match","Non_Exact","149 LAKE DR, GAFFNEY, SC, 29341",18997034,"L"
65761,"149 VANNESS AVE","OTTUMWA","IA",52501,41.0365920340001,-92.4033860439999,261,"149 VANNESS AVE, OTTUMWA, IA, 52501","Match","Exact","149 VANNESS AVE, OTTUMWA, IA, 52501",89614821,"R"
65762,"149 W BAYAUD AVE","DENVER","CO",80223,39.7148056010001,-104.990591666,262,"149 W BAYAUD AVE, DENVER, CO, 80223","Match","Exact","149 W BAYAUD AVE, DENVER, CO, 80223",177330850,"R"
65763,"149 W PLUM ST","SOUTH ELGIN","IL",60177,41.9923399210001,-88.296665553,263,"149 W PLUM ST, SOUTH ELGIN, IL, 60177","Match","Exact","149 W PLUM ST, SOUTH ELGIN, IL, 60177",119503695,"L"
65764,"149 WALNUT HILL DRIVE SE","CALHOUN","GA",30701,NA,NA,264,"149 WALNUT HILL DRIVE SE, CALHOUN, GA, 30701","No_Match",NA,NA,NA,NA
65765,"149 WATER AVE ELM SPRINGS","SPRINGDALE","AR",72762,36.2067998210001,-94.236013005,265,"149 WATER AVE ELM SPRINGS, SPRINGDALE, AR, 72762","Match","Exact","149 WATER AVE, SPRINGDALE, AR, 72762",637573748,"R"
65766,"149 WATERCRESS CT","COLONIAL HEIGHTS","VA",23834,37.283894027,-77.371589876,266,"149 WATERCRESS CT, COLONIAL HEIGHTS, VA, 23834","Match","Exact","149 WATERCRESS CT, COLONIAL HEIGHTS, VA, 23834",201633881,"R"
65767,"149 WELTON WAY","MOORESVILLE","NC",28117,35.588245688,-80.877453171,267,"149 WELTON WAY, MOORESVILLE, NC, 28117","Match","Exact","149 WELTON WAY, MOORESVILLE, NC, 28117",46022521,"L"
65768,"149 WENDELL DEPOT RD","WENDELL","MA",1379,NA,NA,268,"149 WENDELL DEPOT RD, WENDELL, MA, 1379","No_Match",NA,NA,NA,NA
65769,"149 WEST 33RD ST","LAROSE","LA",70373,29.555595817,-90.3542131579999,269,"149 WEST 33RD ST, LAROSE, LA, 70373","Match","Exact","149 W 33RD ST, LAROSE, LA, 70373",92336941,"R"
65770,"149 WEST MAIN RD","CONNEAUT","OH",44030,41.9369391220001,-80.585491261,270,"149 WEST MAIN RD, CONNEAUT, OH, 44030","Match","Exact","149 W MAIN RD, CONNEAUT, OH, 44030",117310285,"L"
65771,"149 WEST WAY DR","ALLEN","TX",75002,33.0980893610001,-96.653987934,271,"149 WEST WAY DR, ALLEN, TX, 75002","Match","Exact","149 W WAY DR, ALLEN, TX, 75002",123495215,"R"
65772,"149 WHIPPOORWILL DRIVE","CAMPOBELLO","SC",29322,35.1122754020001,-82.1045490019999,272,"149 WHIPPOORWILL DRIVE, CAMPOBELLO, SC, 29322","Match","Exact","149 WHIPPOORWILL DR, CAMPOBELLO, SC, 29322",19475917,"R"
65773,"149 WILD WINGS BOULEVARD","JERSEY SHORE","PA",17740,NA,NA,273,"149 WILD WINGS BOULEVARD, JERSEY SHORE, PA, 17740","No_Match",NA,NA,NA,NA
65774,"149 WILLIAMSBURG LN","LAKEWOOD","NJ",8701,40.1089775470001,-74.211727867,274,"149 WILLIAMSBURG LN, LAKEWOOD, NJ, 8701","Match","Exact","149 WILLIAMSBURG LN, LAKEWOOD, NJ, 08701",642917200,"R"
65775,"149 WILLIS ROAD","GOLDENDALE","WA",98620,45.8057973750001,-120.719241004,275,"149 WILLIS ROAD, GOLDENDALE, WA, 98620","Match","Exact","149 WILLIS RD, GOLDENDALE, WA, 98620",175644467,"L"
65776,"149 WISHING WELL LANE","SUNSET","SC",29685,34.9173716180001,-82.826363521,276,"149 WISHING WELL LANE, SUNSET, SC, 29685","Match","Exact","149 WISHING WELL LN, SUNSET, SC, 29685",26156065,"R"
65777,"149 YEAGER RD","MOORESVILLE","NC",28117,35.6101260730001,-80.895372677,277,"149 YEAGER RD, MOORESVILLE, NC, 28117","Match","Exact","149 YEAGER RD, MOORESVILLE, NC, 28117",46017281,"L"
65778,"149-05 79TH AVENUE SUITE 619","FLUSHING","NY",11367,40.7197222770001,-73.814215038,278,"149-05 79TH AVENUE SUITE 619, FLUSHING, NY, 11367","Match","Exact","149-5 79TH AVE, FLUSHING, NY, 11367",59710630,"L"
65779,"149-14 14 AVENUE","FLUSHING","NY",11357,40.78837945,-73.8156577629999,279,"149-14 14 AVENUE, FLUSHING, NY, 11357","Match","Exact","149-14 14TH AVE, FLUSHING, NY, 11357",59700630,"R"
65780,"149-14 14 AVENUE","WHITESTONE","NY",11357,40.78837945,-73.8156577629999,280,"149-14 14 AVENUE, WHITESTONE, NY, 11357","Match","Exact","149-14 14TH AVE, WHITESTONE, NY, 11357",59700630,"R"
65781,"149-33 WILLETS POINT BLVD","WHITESTONE","NY",11357,40.7767103680001,-73.816248984,281,"149-33 WILLETS POINT BLVD, WHITESTONE, NY, 11357","Match","Exact","149-33 WILLETS POINT BLVD, WHITESTONE, NY, 11357",59701218,"L"
65782,"149-45 21 AVE","WHITESTONE","NY",11357,40.7799954400001,-73.8158840309999,282,"149-45 21 AVE, WHITESTONE, NY, 11357","Match","Exact","149-45 21ST AVE, WHITESTONE, NY, 11357",59700950,"L"
65783,"149-47 ROOSEVELT AVENUE SUITE 3F","FLUSHING","NY",11354,40.763534265,-73.8150100829999,283,"149-47 ROOSEVELT AVENUE SUITE 3F, FLUSHING, NY, 11354","Match","Exact","149-47 ROOSEVELT AVE, FLUSHING, NY, 11354",59701448,"L"
65784,"149-57 45TH AVE 2FL","FLUSHING","NY",11355,40.756480923,-73.811498485,284,"149-57 45TH AVE 2FL, FLUSHING, NY, 11355","Match","Exact","149-57 45TH AVE, FLUSHING, NY, 11355",59701618,"L"
65785,"149-F COLONIAL DRIVE","HARRISONBURG","VA",22801,38.431542725,-78.8965718119999,285,"149-F COLONIAL DRIVE, HARRISONBURG, VA, 22801","Match","Exact","149 COLONIAL DR, HARRISONBURG, VA, 22801",55763422,"L"
65786,"1490 ADELINE STREET","OAKLAND","CA",94607,37.810064561,-122.286031491,286,"1490 ADELINE STREET, OAKLAND, CA, 94607","Match","Exact","1490 ADELINE ST, OAKLAND, CA, 94607",124995951,"R"
65787,"1490 BALL PARK RD","JEFFERSONVILLE","GA",31044,32.6182812910001,-83.3410469679999,287,"1490 BALL PARK RD, JEFFERSONVILLE, GA, 31044","Match","Exact","1490 BALL PARK RD, JEFFERSONVILLE, GA, 31044",81117626,"L"
65788,"1490 BALL PARK ROAD","JEFFERSONVILLE","GA",31044,32.6182812910001,-83.3410469679999,288,"1490 BALL PARK ROAD, JEFFERSONVILLE, GA, 31044","Match","Exact","1490 BALL PARK RD, JEFFERSONVILLE, GA, 31044",81117626,"L"
65789,"1490 BAY STREET","ALLENDALE","SC",29810,33.015317205,-81.316211321,289,"1490 BAY STREET, ALLENDALE, SC, 29810","Match","Non_Exact","1490 BAY ST W, ALLENDALE, SC, 29810",19045269,"R"
65790,"1490 COCHRAN DRIVE","LAKE WORTH BEACH","FL",33461,26.5965448430001,-80.0702580729999,290,"1490 COCHRAN DRIVE, LAKE WORTH BEACH, FL, 33461","Match","Exact","1490 COCHRAN DR, LAKE WORTH BEACH, FL, 33461",115294546,"L"
65791,"1490 DEERWOOD DR","DECATUR","GA",30030,33.753533336,-84.28473915,291,"1490 DEERWOOD DR, DECATUR, GA, 30030","Match","Exact","1490 DEERWOOD DR, DECATUR, GA, 30030",640464994,"L"
65792,"1490 DIAS DRIVE","SAN MARTIN","CA",95046,37.112809101,-121.600928982,292,"1490 DIAS DRIVE, SAN MARTIN, CA, 95046","Match","Exact","1490 DIAS DR, SAN MARTIN, CA, 95046",122930518,"R"
65793,"1490 DUMONT AVE APT 8C","BROOKLYN","NY",11208,40.6709613030001,-73.862469264,293,"1490 DUMONT AVE APT 8C, BROOKLYN, NY, 11208","Match","Exact","1490 DUMONT AVE, BROOKLYN, NY, 11208",59095481,"R"
65794,"1490 E FOREMASTER DR SUITE 100","ST GEORGE","UT",84790,37.098458742,-113.540567124,294,"1490 E FOREMASTER DR SUITE 100, ST GEORGE, UT, 84790","Match","Exact","1490 FOREMASTER DR, SAINT GEORGE, UT, 84790",166193275,"L"
65795,"1490 E SCHOOL ROAD","CLAREMORE","OK",74019,NA,NA,295,"1490 E SCHOOL ROAD, CLAREMORE, OK, 74019","No_Match",NA,NA,NA,NA
65796,"1490 EISENHOWER DRIVE","AUGUSTA","GA",30904,NA,NA,296,"1490 EISENHOWER DRIVE, AUGUSTA, GA, 30904","No_Match",NA,NA,NA,NA
65797,"1490 FITZHUGH","PARIS","TX",75460,33.6748263540001,-95.547112507,297,"1490 FITZHUGH, PARIS, TX, 75460","Match","Non_Exact","1490 FITZHUGH AVE, PARIS, TX, 75460",63573875,"R"
65798,"1490 FRANKLIN AVENUE","MINEOLA","NY",11501,NA,NA,298,"1490 FRANKLIN AVENUE, MINEOLA, NY, 11501","No_Match",NA,NA,NA,NA
65799,"1490 GEORGE DIETER DRIVE SUITE A193","EL PASO","TX",79936,31.743623975,-106.301658728,299,"1490 GEORGE DIETER DRIVE SUITE A193, EL PASO, TX, 79936","Match","Exact","1490 GEORGE DIETER DR, EL PASO, TX, 79936",189426649,"R"
65800,"1490 HARD ROAD","COLUMBUS","OH",43235,40.116934772,-83.054601708,300,"1490 HARD ROAD, COLUMBUS, OH, 43235","Match","Exact","1490 HARD RD, COLUMBUS, OH, 43235",218698249,"R"
65801,"1490 HELM RD","PICKENS","MS",39146,32.95154175,-90.1177918499999,301,"1490 HELM RD, PICKENS, MS, 39146","Match","Exact","1490 HELM RD, PICKENS, MS, 39146",649935415,"R"
65802,"1490 HIGHWAY 100 W","CENTERVILLE","TN",37033,35.7149748580001,-87.4830613829999,302,"1490 HIGHWAY 100 W, CENTERVILLE, TN, 37033","Match","Exact","1490 HWY 100 W, CENTERVILLE, TN, 37033",26778850,"L"
65803,"1490 HORNELL  LOOP","BROOKLYN","NY",11239,40.644691992,-73.87994315,303,"1490 HORNELL  LOOP, BROOKLYN, NY, 11239","Match","Exact","1490 HORNELL LOOP, BROOKLYN, NY, 11239",650066327,"R"
65804,"1490 HORNELL LOOP 13B","BROOKLYN","NY",11239,40.644691992,-73.87994315,304,"1490 HORNELL LOOP 13B, BROOKLYN, NY, 11239","Match","Exact","1490 HORNELL LOOP, BROOKLYN, NY, 11239",650066327,"R"
65805,"1490 HWY 99 STE A","GRIDLEY","CA",95948,39.359342242,-121.687881341,305,"1490 HWY 99 STE A, GRIDLEY, CA, 95948","Match","Non_Exact","1490 STATE RTE 99, GRIDLEY, CA, 95948",640585640,"R"
65806,"1490 KOKAI CIRCLE","DENVER","CO",80221,39.8435906830001,-105.005051715,306,"1490 KOKAI CIRCLE, DENVER, CO, 80221","Match","Exact","1490 KOKAI CIR, DENVER, CO, 80221",177436400,"R"
65807,"1490 LEGION DR","COLUMBIA","SC",29229,34.1563009110001,-80.8776314949999,307,"1490 LEGION DR, COLUMBIA, SC, 29229","Match","Exact","1490 LEGION DR, COLUMBIA, SC, 29229",604750711,"R"
65808,"1490 MONTGOMERY STREET","TUSTIN","CA",92782,33.7135511980001,-117.819347627,308,"1490 MONTGOMERY STREET, TUSTIN, CA, 92782","Match","Exact","1490 MONTGOMERY ST, TUSTIN, CA, 92782",639055251,"R"
65809,"1490 OLD LAKEPORT RD","MOORE HAVEN","FL",33471,26.9740770120001,-81.1218353849999,309,"1490 OLD LAKEPORT RD, MOORE HAVEN, FL, 33471","Match","Exact","1490 OLD LAKEPORT RD, MOORE HAVEN, FL, 33471",4252612,"L"
65810,"1490 PLEASANT HILL ROAD","LAFAYETTE","CA",94549,37.9179215440001,-122.100021995,310,"1490 PLEASANT HILL ROAD, LAFAYETTE, CA, 94549","Match","Exact","1490 PLEASANT HILL RD, LAFAYETTE, CA, 94549",616776147,"R"
65811,"1490 QUARTERPATH RD STE 5A-349","WILLIAMSBURG","VA",23185,37.249311054,-76.684632291,311,"1490 QUARTERPATH RD STE 5A-349, WILLIAMSBURG, VA, 23185","Match","Exact","1490 QUARTERPATH RD, WILLIAMSBURG, VA, 23185",639294605,"L"
65812,"1490 S PRICE RD STE 301","CHANDLER","AZ",85286,33.283646676,-111.891203013,312,"1490 S PRICE RD STE 301, CHANDLER, AZ, 85286","Match","Non_Exact","1490 S PRICE RD, CHANDLER, AZ, 85286",646720487,"R"
65813,"1490 SAINT FRANCIS DRIVE","ORANGE PARK","FL",32073,30.172557446,-81.727904581,313,"1490 SAINT FRANCIS DRIVE, ORANGE PARK, FL, 32073","Match","Exact","1490 ST FRANCIS DR, ORANGE PARK, FL, 32073",83814416,"L"
65814,"1490 THOMAS AVENUE","NORTH BRUNSWICK","NJ",8902,40.4429136150001,-74.525231413,314,"1490 THOMAS AVENUE, NORTH BRUNSWICK, NJ, 8902","Match","Exact","1490 THOMAS AVE, N BRUNSWICK, NJ, 08902",60325646,"L"
65815,"1490 TORREY RD SUITE D9","FENTON","MI",48430,NA,NA,315,"1490 TORREY RD SUITE D9, FENTON, MI, 48430","No_Match",NA,NA,NA,NA
65816,"1490 UNION AVE SUITE 435","MEMPHIS","TN",38104,35.1363322340001,-90.011483687,316,"1490 UNION AVE SUITE 435, MEMPHIS, TN, 38104","Match","Exact","1490 UNION AVE, MEMPHIS, TN, 38104",72905361,"L"
65817,"1490 UNION AVE","MEMPHIS","TN",38104,35.1363322340001,-90.011483687,317,"1490 UNION AVE, MEMPHIS, TN, 38104","Match","Exact","1490 UNION AVE, MEMPHIS, TN, 38104",72905361,"L"
65818,"1490 W 1500 N","PROVO","UT",84604,40.254245833,-111.685117607,318,"1490 W 1500 N, PROVO, UT, 84604","Match","Exact","1490 W 1500 N, PROVO, UT, 84604",134206971,"R"
65819,"1490 WEST 68 STREET SUITE 201","HIALEAH","FL",33014,25.8841655950001,-80.3134255429999,319,"1490 WEST 68 STREET SUITE 201, HIALEAH, FL, 33014","Match","Exact","1490 W 68TH ST, HIALEAH, FL, 33014",116024864,"L"
65820,"1490-5A QUARTERPATH ROAD UNIT 263","WILLIAMSBURG","VA",23185,37.249311054,-76.684632291,320,"1490-5A QUARTERPATH ROAD UNIT 263, WILLIAMSBURG, VA, 23185","Match","Exact","1490 QUARTERPATH RD, WILLIAMSBURG, VA, 23185",639294605,"L"
65821,"14900 AVERY RANCH BLVD  SUITE C200","AUSTIN","TX",78717,30.497505453,-97.777431502,321,"14900 AVERY RANCH BLVD  SUITE C200, AUSTIN, TX, 78717","Match","Exact","14900 AVERY RANCH BLVD, AUSTIN, TX, 78717",641270606,"R"
65822,"14900 AVERY RANCH BLVD STE C200","AUSTIN","TX",78717,30.497505453,-97.777431502,322,"14900 AVERY RANCH BLVD STE C200, AUSTIN, TX, 78717","Match","Exact","14900 AVERY RANCH BLVD, AUSTIN, TX, 78717",641270606,"R"
65823,"14900 DANA AVE","CLEVELAND","OH",44111,41.4670069840001,-81.8007773699999,323,"14900 DANA AVE, CLEVELAND, OH, 44111","Match","Exact","14900 DANA AVE, CLEVELAND, OH, 44111",61102093,"R"
65824,"14900 EAST CENTER AVE UNIT I","AURORA","CO",80012,39.705655978,-104.814570317,324,"14900 EAST CENTER AVE UNIT I, AURORA, CO, 80012","Match","Exact","14900 E CENTER AVE, AURORA, CO, 80012",617960176,"R"
65825,"14900 HWY 238","GRANTS PASS","OR",97527,42.276293105,-123.217369088,325,"14900 HWY 238, GRANTS PASS, OR, 97527","Match","Non_Exact","14900 STATE HWY 238, GRANTS PASS, OR, 97527",653413550,"R"
65826,"14900 INTERURBAN AVE S STE 285","TUKWILA","WA",98168,47.4685553790001,-122.252708397,326,"14900 INTERURBAN AVE S STE 285, TUKWILA, WA, 98168","Match","Exact","14900 INTERURBAN AVE S, TUKWILA, WA, 98168",633296067,"L"
65827,"14900 INTERURBAN AVE S STE 290","TUKWILA","WA",98168,47.4685553790001,-122.252708397,327,"14900 INTERURBAN AVE S STE 290, TUKWILA, WA, 98168","Match","Exact","14900 INTERURBAN AVE S, TUKWILA, WA, 98168",633296067,"L"
65828,"14900 LEAR LANE","SILVER SPRING","MD",20905,39.100566056,-76.98704828,328,"14900 LEAR LANE, SILVER SPRING, MD, 20905","Match","Exact","14900 LEAR LN, SILVER SPRING, MD, 20905",62072484,"L"
65829,"14900 MAGNOLIA BLVD   UNIT 5154","SHERMAN OAKS","CA",91413,34.1648485790001,-118.457518026,329,"14900 MAGNOLIA BLVD   UNIT 5154, SHERMAN OAKS, CA, 91413","Match","Non_Exact","14900 MAGNOLIA BLVD, SHERMAN OAKS, CA, 91403",141560769,"L"
65830,"14900 MAGNOLIA BLVD NO 56925","SHERMAN OAKS","CA",91403,34.1648485790001,-118.457518026,330,"14900 MAGNOLIA BLVD NO 56925, SHERMAN OAKS, CA, 91403","Match","Non_Exact","14900 MAGNOLIA BLVD, SHERMAN OAKS, CA, 91403",141560769,"L"
65831,"14900 MAGNOLIA BLVD SUITE 5236","SHERMAN OAKS","CA",91403,34.1648485790001,-118.457518026,331,"14900 MAGNOLIA BLVD SUITE 5236, SHERMAN OAKS, CA, 91403","Match","Exact","14900 MAGNOLIA BLVD, SHERMAN OAKS, CA, 91403",141560769,"L"
65832,"14900 MAGNOLIA ST SUITE 56834","SHERMAN OAKS","CA",91413,NA,NA,332,"14900 MAGNOLIA ST SUITE 56834, SHERMAN OAKS, CA, 91413","No_Match",NA,NA,NA,NA
65833,"14900 SOUTH BIRCH STREET SUITE 506","GLENPOOL","OK",74033,35.951270385,-96.007489333,333,"14900 SOUTH BIRCH STREET SUITE 506, GLENPOOL, OK, 74033","Match","Exact","14900 S BIRCH ST, GLENPOOL, OK, 74033",166459748,"R"
65834,"14900 SW 30 STREET UNIT 277514","MIRAMAR","FL",33027,25.9808178230001,-80.345813767,334,"14900 SW 30 STREET UNIT 277514, MIRAMAR, FL, 33027","Match","Non_Exact","14900 SW 30TH ST, MIRAMAR, FL, 33027",114813554,"L"
65835,"14900 SW 30TH ST UNIT 277861","MIRAMAR","FL",33027,25.9808178230001,-80.345813767,335,"14900 SW 30TH ST UNIT 277861, MIRAMAR, FL, 33027","Match","Non_Exact","14900 SW 30TH ST, MIRAMAR, FL, 33027",114813554,"L"
65836,"14900 WILSHIRE","DETROIT","MI",48213,42.412968961,-82.966697116,336,"14900 WILSHIRE, DETROIT, MI, 48213","Match","Non_Exact","14900 WILSHIRE DR, DETROIT, MI, 48213",95469380,"R"
65837,"14901 CAVELL ST","LIVONIA","MI",48154,42.3952647090001,-83.3172471079999,337,"14901 CAVELL ST, LIVONIA, MI, 48154","Match","Exact","14901 CAVELL ST, LIVONIA, MI, 48154",95419164,"L"
65838,"14901 EAST OLD SPANISH TRAIL","VAIL","AZ",85641,32.0876082190001,-110.666768172,338,"14901 EAST OLD SPANISH TRAIL, VAIL, AZ, 85641","Match","Exact","14901 E OLD SPANISH TRL, VAIL, AZ, 85641",639814351,"R"
65839,"14901 FM 1826","AUSTIN","TX",78737,30.158201062,-97.961376645,339,"14901 FM 1826, AUSTIN, TX, 78737","Match","Exact","14901 FM 1826, AUSTIN, TX, 78737",63846239,"L"
65840,"14901 INGLEWOOD AVE","LAWNDALE","CA",90260,33.897858252,-118.361290292,340,"14901 INGLEWOOD AVE, LAWNDALE, CA, 90260","Match","Exact","14901 INGLEWOOD AVE, LAWNDALE, CA, 90260",142807485,"R"
65841,"14901 NE CT","MIAMI","FL",33161,NA,NA,341,"14901 NE CT, MIAMI, FL, 33161","No_Match",NA,NA,NA,NA
65842,"14901 NW 7TH AVE","MIAMI","FL",33168,25.911129224,-80.2117051389999,342,"14901 NW 7TH AVE, MIAMI, FL, 33168","Match","Non_Exact","14901 NW 7TH AVE, MIAMI, FL, 33168",116030328,"R"
65843,"14901 S HARVARD AVE E","BIXBY","OK",74008,35.9479058060001,-95.9402303429999,343,"14901 S HARVARD AVE E, BIXBY, OK, 74008","Match","Non_Exact","14901 S HARVARD AVE, BIXBY, OK, 74008",166507699,"L"
65844,"14901 SOUTH FERN","GLENPOOL","OK",74033,35.9514938410001,-95.9999613539999,344,"14901 SOUTH FERN, GLENPOOL, OK, 74033","Match","Non_Exact","14901 S FERN PL, GLENPOOL, OK, 74033",651908157,"R"
65845,"14902 BRADWILL COURT","ROCKVILLE","MD",20850,39.1012064330001,-77.2198330749999,345,"14902 BRADWILL COURT, ROCKVILLE, MD, 20850","Match","Exact","14902 BRADWILL CT, ROCKVILLE, MD, 20850",62049119,"R"
65846,"14902 LAUREL RD","LAUREL","DE",19956,38.542209197,-75.4796239729999,346,"14902 LAUREL RD, LAUREL, DE, 19956","Match","Exact","14902 LAUREL RD, LAUREL, DE, 19956",607440047,"L"
65847,"14902 MORA STREET SUITE B","WESTMINSTER","CA",92683,NA,NA,347,"14902 MORA STREET SUITE B, WESTMINSTER, CA, 92683","No_Match",NA,NA,NA,NA
65848,"14902 PRESTON RD STE 404-821","DALLAS","TX",75254,32.9519168680001,-96.8035001699999,348,"14902 PRESTON RD STE 404-821, DALLAS, TX, 75254","Match","Exact","14902 PRESTON RD, DALLAS, TX, 75254",103273879,"R"
65849,"14904 62ND AVE E","PUYALLUP","WA",98375,47.120630883,-122.346641585,349,"14904 62ND AVE E, PUYALLUP, WA, 98375","Match","Exact","14904 62ND AVE E, PUYALLUP, WA, 98375",640609767,"R"
65850,"14904 DOWNEY COURT","BOWIE","MD",20721,38.906615189,-76.746954623,350,"14904 DOWNEY COURT, BOWIE, MD, 20721","Match","Exact","14904 DOWNEY CT, BOWIE, MD, 20721",76347494,"R"
65851,"14904 JEFFERSON DAVIS HWY SUITE 411","WOODBRIDGE","VA",22191,38.629013388,-77.275282512,351,"14904 JEFFERSON DAVIS HWY SUITE 411, WOODBRIDGE, VA, 22191","Match","Exact","14904 JEFFERSON DAVIS HWY, WOODBRIDGE, VA, 22191",76511495,"R"
65852,"14904 JUDSON DR","EUCLID","OH",44132,NA,NA,352,"14904 JUDSON DR, EUCLID, OH, 44132","No_Match",NA,NA,NA,NA
65853,"14905 CAMBRIDGE LN","ATHENS","AL",35613,34.7723615580001,-86.895026891,353,"14905 CAMBRIDGE LN, ATHENS, AL, 35613","Match","Exact","14905 CAMBRIDGE LN, ATHENS, AL, 35613",625711048,"L"
65854,"14905 FORT TRAIL","ACCOKEEK","MD",20607,38.6853929060001,-77.006705386,354,"14905 FORT TRAIL, ACCOKEEK, MD, 20607","Match","Exact","14905 FORT TRL, ACCOKEEK, MD, 20607",76302715,"R"
65855,"14905 GREYMONT DR","CENTREVILLE","VA",20120,38.8569321460001,-77.4605980649999,355,"14905 GREYMONT DR, CENTREVILLE, VA, 20120","Match","Exact","14905 GREYMONT DR, CENTREVILLE, VA, 20120",75955426,"L"
65856,"14905 HOPEDALE COURT","UPPER MARLBORO","MD",20774,38.8842820310001,-76.745325587,356,"14905 HOPEDALE COURT, UPPER MARLBORO, MD, 20774","Match","Exact","14905 HOPEDALE CT, UPPER MARLBORO, MD, 20774",648122863,"R"
65857,"14905 OAK BOWER ROAD","MULBERRY","AR",72947,35.560688172,-94.0496216779999,357,"14905 OAK BOWER ROAD, MULBERRY, AR, 72947","Match","Exact","14905 OAK BOWER RD, MULBERRY, AR, 72947",645628065,"R"
65858,"14906 CHADBOURNE DRIVE","HOUSTON","TX",77079,29.7689253390001,-95.6160591829999,358,"14906 CHADBOURNE DRIVE, HOUSTON, TX, 77079","Match","Exact","14906 CHADBOURNE DR, HOUSTON, TX, 77079",96020372,"R"
65859,"14906 E ILIFF PL","AURORA","CO",80014,39.6742540930001,-104.814553479,359,"14906 E ILIFF PL, AURORA, CO, 80014","Match","Exact","14906 E ILIFF PL, AURORA, CO, 80014",177355373,"R"
65860,"14906 E ILIFF PLACE","AURORA","CO",80014,39.6742540930001,-104.814553479,360,"14906 E ILIFF PLACE, AURORA, CO, 80014","Match","Exact","14906 E ILIFF PL, AURORA, CO, 80014",177355373,"R"
65861,"14906 MOUNT CALVERT RD","UPPER MARLBORO","MD",20772,38.7735582540001,-76.746976693,361,"14906 MOUNT CALVERT RD, UPPER MARLBORO, MD, 20772","Match","Exact","14906 MOUNT CALVERT RD, UPPER MARLBORO, MD, 20772",76396818,"R"
65862,"14906 RIDGE FARM COURT","BOWIE","MD",20715,39.0044636270001,-76.751380254,362,"14906 RIDGE FARM COURT, BOWIE, MD, 20715","Match","Exact","14906 RIDGE FARM CT, BOWIE, MD, 20715",76418544,"R"
65863,"14906 STONEBRIAR WAY","ORLANDO","FL",32826,NA,NA,363,"14906 STONEBRIAR WAY, ORLANDO, FL, 32826","No_Match",NA,NA,NA,NA
65864,"14906 WESTPARK DRIVE  APT 1632","HOUSTON","TX",77082,29.719326456,-95.64843796,364,"14906 WESTPARK DRIVE  APT 1632, HOUSTON, TX, 77082","Match","Exact","14906 WESTPARK DR, HOUSTON, TX, 77082",641833387,"L"
65865,"14907 NE 27TH ST","VANCOUVER","WA",98684,45.6422857800001,-122.519436052,365,"14907 NE 27TH ST, VANCOUVER, WA, 98684","Match","Exact","14907 NE 27TH ST, VANCOUVER, WA, 98684",158330492,"R"
65866,"14908 COLLEGE","ALLEN PARK","MI",48101,42.2677543770001,-83.191867128,366,"14908 COLLEGE, ALLEN PARK, MI, 48101","Match","Non_Exact","14908 COLLEGE AVE, ALLEN PARK, MI, 48101",95448835,"R"
65867,"14908 HARTFORD RUN DR","ORLANDO","FL",32828,28.524008211,-81.1626147699999,367,"14908 HARTFORD RUN DR, ORLANDO, FL, 32828","Match","Exact","14908 HARTFORD RUN DR, ORLANDO, FL, 32828",630294692,"R"
65868,"14908 N 130TH LANE","EL MIRAGE","AZ",85335,33.6190915390001,-112.341290124,368,"14908 N 130TH LANE, EL MIRAGE, AZ, 85335","Match","Exact","14908 N 130TH LN, EL MIRAGE, AZ, 85335",128877737,"L"
65869,"14908","GRANDVIEW","MO",64030,NA,NA,369,"14908, GRANDVIEW, MO, 64030","No_Match",NA,NA,NA,NA
65870,"14909 BOLLINGER RD","ROCKY RIDGE","MD",21778,39.6430512520001,-77.315838951,370,"14909 BOLLINGER RD, ROCKY RIDGE, MD, 21778","Match","Exact","14909 BOLLINGER RD, ROCKY RIDGE, MD, 21778",60714128,"L"
65871,"14909 HEALTH CENTER DRIVE","BOWIE","MD",20716,38.949071303,-76.743790098,371,"14909 HEALTH CENTER DRIVE, BOWIE, MD, 20716","Match","Exact","14909 HEALTH CENTER DR, BOWIE, MD, 20716",646659480,"R"
65872,"14909 SW 80 ST 216","MIAMI","FL",33193,25.6920350120001,-80.434732098,372,"14909 SW 80 ST 216, MIAMI, FL, 33193","Match","Non_Exact","14909 SW 80TH ST, MIAMI, FL, 33193",625272084,"R"
65873,"1491 ASTER AEVENUE","AKRON","OH",44301,41.04234031,-81.514581369,373,"1491 ASTER AEVENUE, AKRON, OH, 44301","Match","Non_Exact","1491 ASTER AVE, AKRON, OH, 44301",61345279,"L"
65874,"1491 COUNTY ROAD 1000 E","CARMI","IL",62821,38.0957692700001,-88.188952527,374,"1491 COUNTY ROAD 1000 E, CARMI, IL, 62821","Match","Exact","1491 CO RD 1000 E, CARMI, IL, 62821",38203596,"L"
65875,"1491 DOGWOOD DRIVE","ORANGEBURG","SC",29118,33.566076702,-80.8627619769999,375,"1491 DOGWOOD DRIVE, ORANGEBURG, SC, 29118","Match","Exact","1491 DOGWOOD DR, ORANGEBURG, SC, 29118",19227718,"R"
65876,"1491 HESS ROAD APT 324","REDWOOD CTY","CA",94061,37.472025753,-122.225196573,376,"1491 HESS ROAD APT 324, REDWOOD CTY, CA, 94061","Match","Exact","1491 HESS RD, REDWOOD CITY, CA, 94061",192362963,"L"
65877,"1491 NORTH OXFORD AVENUE","PASADENA","CA",91104,34.1717961300001,-118.116404051,377,"1491 NORTH OXFORD AVENUE, PASADENA, CA, 91104","Match","Exact","1491 N OXFORD AVE, PASADENA, CA, 91104",141631814,"L"
65878,"1491 NORTHCREST DR","HIGHLANDS RANCH","CO",80126,39.561862869,-104.971826169,378,"1491 NORTHCREST DR, HIGHLANDS RANCH, CO, 80126","Match","Exact","1491 NORTHCREST DR, HIGHLANDS RANCH, CO, 80126",130842292,"L"
65879,"1491 PARTRIDGE DRIVE","GILROY","CA",95020,37.022916434,-121.607509385,379,"1491 PARTRIDGE DRIVE, GILROY, CA, 95020","Match","Exact","1491 PARTRIDGE DR, GILROY, CA, 95020",123159554,"R"
65880,"1491 POLARIS PARKWAY","COLUMBUS","OH",43240,40.1413217780001,-82.978017473,380,"1491 POLARIS PARKWAY, COLUMBUS, OH, 43240","Match","Exact","1491 POLARIS PKWY, COLUMBUS, OH, 43240",24597267,"R"
65881,"1491 POLARIS PKWY SUITE 181","COLUMBUS","OH",43240,40.1413217780001,-82.978017473,381,"1491 POLARIS PKWY SUITE 181, COLUMBUS, OH, 43240","Match","Exact","1491 POLARIS PKWY, COLUMBUS, OH, 43240",24597267,"R"
65882,"1491 RAMBLA BRISA","SAN MARCOS","CA",92069,33.138444731,-117.124129874,382,"1491 RAMBLA BRISA, SAN MARCOS, CA, 92069","Match","Exact","1491 RAMBLA BRISA, SAN MARCOS, CA, 92069",195311136,"R"
65883,"1491 SECRETARIAT DRIVE","HELENA","AL",35080,33.271828376,-86.824542846,383,"1491 SECRETARIAT DRIVE, HELENA, AL, 35080","Match","Exact","1491 SECRETARIAT DR, HELENA, AL, 35080",647498361,"R"
65884,"1491 SOUTH COUNTY ROAD 250 WEST","DANVILLE","IN",46122,39.739895749,-86.564231122,384,"1491 SOUTH COUNTY ROAD 250 WEST, DANVILLE, IN, 46122","Match","Exact","1491 S CO RD 250 W, DANVILLE, IN, 46122",89217714,"R"
65885,"1491 TOWERS STREET","LAKEWOOD","NJ",8701,40.0644571120001,-74.193315333,385,"1491 TOWERS STREET, LAKEWOOD, NJ, 8701","Match","Exact","1491 TOWERS ST, LAKEWOOD, NJ, 08701",203793525,"L"
65886,"1491 VIALL HILL RD","WYALUSING","PA",18853,41.687937387,-76.321240856,386,"1491 VIALL HILL RD, WYALUSING, PA, 18853","Match","Non_Exact","1491 VIAL HILL RD, WYALUSING, PA, 18853",634118746,"R"
65887,"14910 99TH AVE SE","YELM","WA",98597,46.9440494400001,-122.624475766,387,"14910 99TH AVE SE, YELM, WA, 98597","Match","Exact","14910 99TH AVE SE, YELM, WA, 98597",633805600,"L"
65888,"14910 ASHFORD COURT","LAUREL","MD",20707,39.094108023,-76.8653136789999,388,"14910 ASHFORD COURT, LAUREL, MD, 20707","Match","Exact","14910 ASHFORD CT, LAUREL, MD, 20707",76331411,"R"
65889,"14910 BRAEMAR CRESCENT WAY","DARNESTOWN","MD",20878,39.0991022580001,-77.28416929,389,"14910 BRAEMAR CRESCENT WAY, DARNESTOWN, MD, 20878","Match","Exact","14910 BRAEMAR CRESCENT WAY, DARNESTOWN, MD, 20878",62121647,"L"
65890,"14910 CAROLINA FALLS LANE","CYPRESS","TX",77433,29.9892895610001,-95.729623155,390,"14910 CAROLINA FALLS LANE, CYPRESS, TX, 77433","Match","Exact","14910 CAROLINA FALLS LN, CYPRESS, TX, 77433",96161881,"R"
65891,"14910 LOC LOMEN LN","ANCHORAGE","AK",99516,61.0855859110001,-149.811592209,391,"14910 LOC LOMEN LN, ANCHORAGE, AK, 99516","Match","Non_Exact","14910 LOC LOMAN LN, ANCHORAGE, AK, 99516",190803843,"R"
65892,"14910 MILL BRANCH LANE","SUGARLAND","TX",77498,29.653739531,-95.64467717,392,"14910 MILL BRANCH LANE, SUGARLAND, TX, 77498","Match","Non_Exact","14910 MILL BRANCH LN, SUGAR LAND, TX, 77498",78332589,"R"
65893,"14910 N DALE MABRY HWY","TAMPA","FL",33618,28.0851010000001,-82.504865196,393,"14910 N DALE MABRY HWY, TAMPA, FL, 33618","Match","Exact","14910 N DALE MABRY HWY, TAMPA, FL, 33618",104550381,"R"
65894,"14910 PERRIS BLVD STE B172","PERRIS","CA",92555,NA,NA,394,"14910 PERRIS BLVD STE B172, PERRIS, CA, 92555","No_Match",NA,NA,NA,NA
65895,"14910 WOODLAND DAWN","HUMBLE","TX",77396,NA,NA,395,"14910 WOODLAND DAWN, HUMBLE, TX, 77396","No_Match",NA,NA,NA,NA
65896,"14911 BRONZE FINCH DR","CYPRESS","TX",77433,30.013143126,-95.7625967119999,396,"14911 BRONZE FINCH DR, CYPRESS, TX, 77433","Match","Exact","14911 BRONZE FINCH DR, CYPRESS, TX, 77433",624801129,"L"
65897,"14911 E 127TH STREET","LEMONT","IL",60439,41.656962729,-87.982022469,397,"14911 E 127TH STREET, LEMONT, IL, 60439","Match","Exact","14911 127TH ST, LEMONT, IL, 60439",634223651,"L"
65898,"14911 E CHANDLER HEIGHTS RD","CHANDLER","AZ",85249,33.233784551,-111.76146204,398,"14911 E CHANDLER HEIGHTS RD, CHANDLER, AZ, 85249","Match","Exact","14911 E CHANDLER HEIGHTS RD, CHANDLER, AZ, 85249",128854154,"L"
65899,"14911 ROSEMONT","MICHIGAN","MI",48223,NA,NA,399,"14911 ROSEMONT, MICHIGAN, MI, 48223","No_Match",NA,NA,NA,NA
65900,"14911 SE FRANCESCA LANE","HAPPY VALLEY","OR",97086,45.4344288140001,-122.509941967,400,"14911 SE FRANCESCA LANE, HAPPY VALLEY, OR, 97086","Match","Exact","14911 SE FRANCESCA LN, HAPPY VALLEY, OR, 97086",624566646,"R"
65901,"14911 WEST 127TH STREET","LEMONT","IL",60439,41.656962729,-87.982022469,401,"14911 WEST 127TH STREET, LEMONT, IL, 60439","Match","Non_Exact","14911 127TH ST, LEMONT, IL, 60439",634223651,"L"
65902,"14912 COUNTY RD 45","TYLER","TX",75704,32.4119226030001,-95.413212931,402,"14912 COUNTY RD 45, TYLER, TX, 75704","Match","Exact","14912 CO RD 45, TYLER, TX, 75704",141282573,"L"
65903,"14913 GREENLEAF VALLEY DR","CHESTERFIELD","MO",63017,38.638936427,-90.539747332,403,"14913 GREENLEAF VALLEY DR, CHESTERFIELD, MO, 63017","Match","Exact","14913 GREENLEAF VALLEY DR, CHESTERFIELD, MO, 63017",635627602,"R"
65904,"14913 MILVERTON ROAD","CLEVELAND","OH",44120,NA,NA,404,"14913 MILVERTON ROAD, CLEVELAND, OH, 44120","No_Match",NA,NA,NA,NA
65905,"14914 STONEY BROOK","SHELBY TOWNSHIP","MI",48315,NA,NA,405,"14914 STONEY BROOK, SHELBY TOWNSHIP, MI, 48315","No_Match",NA,NA,NA,NA
65906,"14915 63RD DR SE","SNOHOMISH","WA",98296,47.8615527210001,-122.145685358,406,"14915 63RD DR SE, SNOHOMISH, WA, 98296","Match","Exact","14915 63RD DR SE, SNOHOMISH, WA, 98296",187796090,"L"
65907,"14915 W 58TH PLACE","GOLDEN","CO",80403,39.802267984,-105.166999655,407,"14915 W 58TH PLACE, GOLDEN, CO, 80403","Match","Exact","14915 W 58TH PL, GOLDEN, CO, 80403",177759081,"R"
65908,"14915 WEST 58TH PLACE","GOLDEN","CO",80403,39.8022704300001,-105.166983101,408,"14915 WEST 58TH PLACE, GOLDEN, CO, 80403","Match","Exact","14915 W 58TH PL, GOLDEN, CO, 80403",177759081,"R"
65909,"14916 ABILENE WAY","WOODBRIDGE","VA",22193,38.628545897,-77.371558098,409,"14916 ABILENE WAY, WOODBRIDGE, VA, 22193","Match","Exact","14916 ABILENE WAY, WOODBRIDGE, VA, 22193",646643556,"L"
65910,"14916 AUSTIN AVE SE","MONROE","WA",98272,47.861760556,-121.999720153,410,"14916 AUSTIN AVE SE, MONROE, WA, 98272","Match","Exact","14916 AUSTIN AVE SE, MONROE, WA, 98272",187807188,"R"
65911,"14916 N ELM DR","DOLAN SPRINGS","AZ",86441,35.558768768,-114.307143214,411,"14916 N ELM DR, DOLAN SPRINGS, AZ, 86441","Match","Exact","14916 ELM DR, DOLAN SPRINGS, AZ, 86441",190269894,"R"
65912,"14916 W REITER DRIVE","HOMER GLEN","IL",60491,41.5770494710001,-87.97999817,412,"14916 W REITER DRIVE, HOMER GLEN, IL, 60491","Match","Exact","14916 REITER DR, HOMER GLEN, IL, 60491",111629930,"L"
65913,"14917 BROOKSIDE DR","VAN BUREN TOWNSHIP","MI",48111,42.1942530380001,-83.450972404,413,"14917 BROOKSIDE DR, VAN BUREN TOWNSHIP, MI, 48111","Match","Exact","14917 BROOKSIDE DR, VAN BUREN TWP, MI, 48111",95708933,"L"
65914,"14917 DARWIN AVENUE","CLEVELAND","OH",44110,41.56487716,-81.577641404,414,"14917 DARWIN AVENUE, CLEVELAND, OH, 44110","Match","Exact","14917 DARWIN AVE, CLEVELAND, OH, 44110",61121008,"L"
65915,"14917 EVERSHINE ST","TAMPA","FM",33624,NA,NA,415,"14917 EVERSHINE ST, TAMPA, FM, 33624","No_Match",NA,NA,NA,NA
65916,"14917 SCHOONER DRIVE","CORPUS CHRISTI","TX",78418,27.6096298350001,-97.2339723919999,416,"14917 SCHOONER DRIVE, CORPUS CHRISTI, TX, 78418","Match","Exact","14917 SCHOONER DR, CORPUS CHRISTI, TX, 78418",178524753,"L"
65917,"14918 11TH AVE CT E","TACOMA","WA",98445,47.121329378,-122.415222246,417,"14918 11TH AVE CT E, TACOMA, WA, 98445","Match","Exact","14918 11TH AVENUE CT E, TACOMA, WA, 98445",184631407,"L"
65918,"14918 27TH PL S","SEATAC","WA",98188,47.469388682,-122.297964675,418,"14918 27TH PL S, SEATAC, WA, 98188","Match","Exact","14918 27TH PL S, SEATAC, WA, 98188",642837057,"R"
65919,"14918 84TH AVE NE","KENMORE","WA",98028,47.7363691580001,-122.229010539,419,"14918 84TH AVE NE, KENMORE, WA, 98028","Match","Exact","14918 84TH AVE NE, KENMORE, WA, 98028",186598240,"R"
65920,"1492 BELLMORE AVE","NORTH BELLMORE","NY",11710,40.684761259,-73.541474635,420,"1492 BELLMORE AVE, NORTH BELLMORE, NY, 11710","Match","Exact","1492 BELLMORE AVE, N BELLMORE, NY, 11710",147636138,"R"
65921,"1492 COUNTY RD B NO 210","MAPLEWOOD","MN",55109,NA,NA,421,"1492 COUNTY RD B NO 210, MAPLEWOOD, MN, 55109","No_Match",NA,NA,NA,NA
65922,"1492 E BROAD ST SUITE 1203","COLUMBUS","OH",43205,39.9667997190001,-82.9608587929999,422,"1492 E BROAD ST SUITE 1203, COLUMBUS, OH, 43205","Match","Non_Exact","1492 E BROAD ST, COLUMBUS, OH, 43205",135581368,"L"
65923,"1492 HENDRIE","CANTON","MI",48187,42.3156902370001,-83.498431354,423,"1492 HENDRIE, CANTON, MI, 48187","Match","Exact","1492 HENDRIE, CANTON, MI, 48187",95688360,"L"
65924,"1492 OLD BRIDGE ROAD","AMISSVILLE","VA",20106,38.6789853390001,-77.916175314,424,"1492 OLD BRIDGE ROAD, AMISSVILLE, VA, 20106","Match","Exact","1492 OLD BRIDGE RD, AMISSVILLE, VA, 20106",29841621,"L"
65925,"1492 PARK AVENUE","PARK CITY","UT",84060,40.6543633800001,-111.50524455,425,"1492 PARK AVENUE, PARK CITY, UT, 84060","Match","Exact","1492 PARK AVE, PARK CITY, UT, 84060",160633838,"R"
65926,"1492 SIENA LANE","BOYNTON BEACH","FL",33436,26.5554580720001,-80.0977669649999,426,"1492 SIENA LANE, BOYNTON BEACH, FL, 33436","Match","Exact","1492 SIENA LN, BOYNTON BEACH, FL, 33436",115568186,"R"
65927,"1492 SOUTH MIAMI AVENUE","MIAMI","FL",33130,25.7588767720001,-80.193969991,427,"1492 SOUTH MIAMI AVENUE, MIAMI, FL, 33130","Match","Exact","1492 S MIAMI AVE, MIAMI, FL, 33130",116018739,"R"
65928,"14920 84TH STREET","HOWARD BEACH","NY",11414,NA,NA,428,"14920 84TH STREET, HOWARD BEACH, NY, 11414","No_Match",NA,NA,NA,NA
65929,"14920 DEARBORN SREET","DOLTON","IL",60419,41.6239956310001,-87.6232022579999,429,"14920 DEARBORN SREET, DOLTON, IL, 60419","Match","Non_Exact","14920 DEARBORN ST, DOLTON, IL, 60419",111778467,"R"
65930,"14920 DEARBORN STREET","DOLTON","IL",60419,41.6239956310001,-87.6232022579999,430,"14920 DEARBORN STREET, DOLTON, IL, 60419","Match","Exact","14920 DEARBORN ST, DOLTON, IL, 60419",111778467,"R"
65931,"14920 E BRIARWOOD RD","MARSHALL","IL",62441,39.361075564,-87.7341132129999,431,"14920 E BRIARWOOD RD, MARSHALL, IL, 62441","Match","Exact","14920 E BRIARWOOD RD, MARSHALL, IL, 62441",604824492,"R"
65932,"14920 LASALLE STREET","DOLTON","IL",60419,41.6235504150001,-87.625623721,432,"14920 LASALLE STREET, DOLTON, IL, 60419","Match","Exact","14920 LASALLE ST, DOLTON, IL, 60419",111712493,"R"
65933,"14920 WELLWOOD RD","SILVER SPRING","MD",20905,39.099737453,-77.0096779579999,433,"14920 WELLWOOD RD, SILVER SPRING, MD, 20905","Match","Exact","14920 WELLWOOD RD, SILVER SPRING, MD, 20905",62063343,"L"
65934,"14920 WELLWOOD ROAD","SILVER SPRING","MD",20905,39.099737453,-77.0096779579999,434,"14920 WELLWOOD ROAD, SILVER SPRING, MD, 20905","Match","Exact","14920 WELLWOOD RD, SILVER SPRING, MD, 20905",62063343,"L"
65935,"14921 ATHEL AVE","IRVINE","CA",92606,33.7043811360001,-117.798308377,435,"14921 ATHEL AVE, IRVINE, CA, 92606","Match","Exact","14921 ATHEL AVE, IRVINE, CA, 92606",144057157,"R"
65936,"14921 PIEDMONT ST","DETROIT","MI",48223,42.397324252,-83.2300521879999,436,"14921 PIEDMONT ST, DETROIT, MI, 48223","Match","Exact","14921 PIEDMONT ST, DETROIT, MI, 48223",95422487,"L"
65937,"14921 S STANFORD APT 140G","COMPTON","CA",90220,NA,NA,437,"14921 S STANFORD APT 140G, COMPTON, CA, 90220","No_Match",NA,NA,NA,NA
65938,"14921 S STANFORD AVE 127K","COMPTON","CA",90220,33.897457681,-118.260877499,438,"14921 S STANFORD AVE 127K, COMPTON, CA, 90220","Match","Non_Exact","14921 S STANFORD AVE, COMPTON, CA, 90220",142762104,"R"
65939,"14921 STANFORD AVE APT A208","COMPTON","CA",90220,33.897460896,-118.260878294,439,"14921 STANFORD AVE APT A208, COMPTON, CA, 90220","Match","Non_Exact","14921 S STANFORD AVE, COMPTON, CA, 90220",142762104,"R"
65940,"14921 STANFORD AVENUE APT 219K","COMPTON","CA",90220,33.897460896,-118.260878294,440,"14921 STANFORD AVENUE APT 219K, COMPTON, CA, 90220","Match","Non_Exact","14921 S STANFORD AVE, COMPTON, CA, 90220",142762104,"R"
65941,"14922 NW TWINFLOWER DR","PORTLAND","OR",97229,45.56429237,-122.830564982,441,"14922 NW TWINFLOWER DR, PORTLAND, OR, 97229","Match","Exact","14922 NW TWINFLOWER DR, PORTLAND, OR, 97229",158218979,"R"
65942,"14922 TRECASTLE DR","CHANNELVIEW","TX",77530,29.7951111510001,-95.156512141,442,"14922 TRECASTLE DR, CHANNELVIEW, TX, 77530","Match","Exact","14922 TRECASTLE DR, CHANNELVIEW, TX, 77530",96099182,"R"
65943,"14924 CHEYENNE","DETROIT","MI",48227,42.398921188,-83.174648927,443,"14924 CHEYENNE, DETROIT, MI, 48227","Match","Non_Exact","14924 CHEYENNE ST, DETROIT, MI, 48227",95425057,"R"
65944,"14924 MUSTANG TRAIL","FISHERS","IN",46040,39.9308671590001,-85.896144361,444,"14924 MUSTANG TRAIL, FISHERS, IN, 46040","Match","Exact","14924 MUSTANG TRL, FISHERS, IN, 46040",626272875,"L"
65945,"14924 ROSLYN DRIVE","HORIZON CITY","TX",79928,31.695833769,-106.206260189,445,"14924 ROSLYN DRIVE, HORIZON CITY, TX, 79928","Match","Exact","14924 ROSLYN DR, HORIZON CITY, TX, 79928",189357311,"R"
65946,"14924 S EDBROOKE STREET","DOLTON","IL",60419,41.6240864640001,-87.6183588009999,446,"14924 S EDBROOKE STREET, DOLTON, IL, 60419","Match","Non_Exact","14924 EDBROOKE AVE, DOLTON, IL, 60419",605572553,"R"
65947,"14925 ENERGY WAY","APPLE VALLEY","MN",55124,44.733360636,-93.1790950929999,447,"14925 ENERGY WAY, APPLE VALLEY, MN, 55124","Match","Exact","14925 ENERGY WAY, APPLE VALLEY, MN, 55124",37932763,"R"
65948,"14925 FIRST BAPTIST LANE","LAUREL","MD",20707,39.096329113,-76.878400287,448,"14925 FIRST BAPTIST LANE, LAUREL, MD, 20707","Match","Exact","14925 FIRST BAPTIST LN, LAUREL, MD, 20707",623893057,"R"
65949,"14925 GEMINI DR","HUNTERTOWN","IN",46748,41.2216089820001,-85.169579556,449,"14925 GEMINI DR, HUNTERTOWN, IN, 46748","Match","Exact","14925 GEMINI DR, HUNTERTOWN, IN, 46748",639235281,"L"
65950,"14925 HAWTHORNE AVENUE","OMAHA","NE",68154,41.2698950710001,-96.146382632,450,"14925 HAWTHORNE AVENUE, OMAHA, NE, 68154","Match","Exact","14925 HAWTHORNE AVE, OMAHA, NE, 68154",116967285,"R"
65951,"14925 MAGNOLIA BLVD 113","SHERMAN OAKS","CA",91403,34.164859544,-118.458328435,451,"14925 MAGNOLIA BLVD 113, SHERMAN OAKS, CA, 91403","Match","Exact","14925 MAGNOLIA BLVD, SHERMAN OAKS, CA, 91403",141560769,"R"
65952,"14925 PINEWOOD DR","PRIDE","LA",70770,30.589386511,-91.025803765,452,"14925 PINEWOOD DR, PRIDE, LA, 70770","Match","Exact","14925 PINEWOOD DR, PRIDE, LA, 70770",92202644,"L"
65953,"14925 SW 22 STREET","MMIAMI","FL",33185,25.7465481310001,-80.4369811619999,453,"14925 SW 22 STREET, MMIAMI, FL, 33185","Match","Non_Exact","14925 SW 22ND ST, MIAMI, FL, 33185",625402662,"L"
65954,"14925 SW BARROWS ROAD BOX 109-143","BEAVERTON","OR",97007,45.428742033,-122.831819191,454,"14925 SW BARROWS ROAD BOX 109-143, BEAVERTON, OR, 97007","Match","Non_Exact","14925 SW BARROWS RD, BEAVERTON, OR, 97007",158223953,"R"
65955,"14927 GAGELY APT 14","LA MIRADA","CA",90638,33.915211135,-118.012962892,455,"14927 GAGELY APT 14, LA MIRADA, CA, 90638","Match","Non_Exact","14927 GAGELY DR, LA MIRADA, CA, 90638",241236878,"L"
65956,"14927 SE CEDAR AVE","OAK GROVE","OR",97267,45.4157029890001,-122.644161389,456,"14927 SE CEDAR AVE, OAK GROVE, OR, 97267","Match","Exact","14927 SE CEDAR AVE, OAK GROVE, OR, 97267",157913144,"R"
65957,"14928 99TH AVE SE","YELM","WA",98597,46.944052207,-122.624213834,457,"14928 99TH AVE SE, YELM, WA, 98597","Match","Exact","14928 99TH AVE SE, YELM, WA, 98597",633805600,"L"
65958,"14928 BASSETT STREET","VAN NUYS","CA",91405,34.196183938,-118.45815183,458,"14928 BASSETT STREET, VAN NUYS, CA, 91405","Match","Exact","14928 BASSETT ST, VAN NUYS, CA, 91405",640414089,"L"
65959,"14929 BELLE AMI DRIVE","LAUREL","MD",20707,39.0948175230001,-76.871352869,459,"14929 BELLE AMI DRIVE, LAUREL, MD, 20707","Match","Exact","14929 BELLE AMI DR, LAUREL, MD, 20707",76377030,"R"
65960,"14929 GARFIELD AVE","PARAMOUNT","CA",90723,33.8976988680001,-118.168821119,460,"14929 GARFIELD AVE, PARAMOUNT, CA, 90723","Match","Exact","14929 GARFIELD AVE, PARAMOUNT, CA, 90723",241244942,"R"
65961,"14929 SOUTH NORMANDIE AVENUE 2","GARDENA","CA",90247,33.895967699,-118.300402736,461,"14929 SOUTH NORMANDIE AVENUE 2, GARDENA, CA, 90247","Match","Exact","14929 S NORMANDIE AVE, GARDENA, CA, 90247",241242971,"R"
65962,"1493 FISCHER ST","DETROIT","MI",48214,42.358762728,-82.9914434679999,462,"1493 FISCHER ST, DETROIT, MI, 48214","Match","Exact","1493 FISCHER ST, DETROIT, MI, 48214",95493959,"L"
65963,"1493 HICKORY RUN DRIVE","COLUMBUS","OH",43204,39.9831659390001,-83.11220815,463,"1493 HICKORY RUN DRIVE, COLUMBUS, OH, 43204","Match","Exact","1493 HICKORY RUN DR, COLUMBUS, OH, 43204",642843657,"L"
65964,"1493 INDIAN PASS ROAD","PORT ST JOE","FL",32456,29.681480036,-85.2545164319999,464,"1493 INDIAN PASS ROAD, PORT ST JOE, FL, 32456","Match","Exact","1493 INDIAN PASS RD, PORT SAINT JOE, FL, 32456",7150794,"R"
65965,"1493 N LARRABEE ST APT B","CHICAGO","IL",60610,41.9089919940001,-87.643362576,465,"1493 N LARRABEE ST APT B, CHICAGO, IL, 60610","Match","Non_Exact","1493 N LARRABEE ST, CHICAGO, IL, 60610",605073338,"R"
65966,"1493 OPHIR RD","CASTLEROCK","CO",80109,39.382048637,-104.874452887,466,"1493 OPHIR RD, CASTLEROCK, CO, 80109","Match","Non_Exact","1493 OPHIR RD, CASTLE ROCK, CO, 80109",627948111,"R"
65967,"1493 WEST 500 SOUTH","LAYTON","UT",84041,41.0529341280001,-111.993945023,467,"1493 WEST 500 SOUTH, LAYTON, UT, 84041","Match","Exact","1493 W 500 S, LAYTON, UT, 84041",630319544,"L"
65968,"1493 WEST INDIANAPOLIS AVENUE","FRESNO","CA",93705,36.79873301,-119.828720094,468,"1493 WEST INDIANAPOLIS AVENUE, FRESNO, CA, 93705","Match","Exact","1493 W INDIANAPOLIS AVE, FRESNO, CA, 93705",197568799,"L"
65969,"1493 WHITE FLOWER LANE","LAWRENCEVILLE","FL",30045,NA,NA,469,"1493 WHITE FLOWER LANE, LAWRENCEVILLE, FL, 30045","No_Match",NA,NA,NA,NA
65970,"14930 NW 8TH AVE","MIAMI","FL",33168,25.9113813270001,-80.213796326,470,"14930 NW 8TH AVE, MIAMI, FL, 33168","Match","Non_Exact","14930 NW 8TH AVE, MIAMI, FL, 33168",116030323,"L"
65971,"14930 TURRET RUN","SAN ANTONIO","TX",78248,29.587552869,-98.528144427,471,"14930 TURRET RUN, SAN ANTONIO, TX, 78248","Match","Exact","14930 TURRET RUN, SAN ANTONIO, TX, 78248",101582989,"L"
65972,"14931 MAGNOLIA BLVD APT 4","SHERMAN OAKS","CA",91403,34.1648592220001,-118.458595738,472,"14931 MAGNOLIA BLVD APT 4, SHERMAN OAKS, CA, 91403","Match","Exact","14931 MAGNOLIA BLVD, SHERMAN OAKS, CA, 91403",652035293,"R"
65973,"14931 SW 70 ST","MIAMI","FL",33193,25.701186798,-80.43562442,473,"14931 SW 70 ST, MIAMI, FL, 33193","Match","Exact","14931 SW 70TH ST, MIAMI, FL, 33193",115965610,"R"
65974,"14932 JERRY ARMSTRONG CT","EL PASO","TX",79938,31.7908478260001,-106.202085523,474,"14932 JERRY ARMSTRONG CT, EL PASO, TX, 79938","Match","Exact","14932 JERRY ARMSTRONG CT, EL PASO, TX, 79938",649173423,"R"
65975,"14932 SHERIDAN AVE","CLIVE","IA",50325,41.6174394430001,-93.824570174,475,"14932 SHERIDAN AVE, CLIVE, IA, 50325","Match","Exact","14932 SHERIDAN AVE, CLIVE, IA, 50325",65644094,"R"
65976,"14933 N 97TH PLACE","SCOTTSDALE","AZ",85260,33.6217347040001,-111.870719986,476,"14933 N 97TH PLACE, SCOTTSDALE, AZ, 85260","Match","Exact","14933 N 97TH PL, SCOTTSDALE, AZ, 85260",128363025,"R"
65977,"14933 SE JACKSON HILLS DR","HAPPY VALLEY","OR",97086,45.454956128,-122.510135033,477,"14933 SE JACKSON HILLS DR, HAPPY VALLEY, OR, 97086","Match","Exact","14933 SE JACKSON HILLS DR, HAPPY VALLEY, OR, 97086",619885846,"L"
65978,"14934 PROSPECT","DEARBORN","MI",48126,42.3148900730001,-83.1868599859999,478,"14934 PROSPECT, DEARBORN, MI, 48126","Match","Non_Exact","14934 PROSPECT ST, DEARBORN, MI, 48126",95444277,"R"
65979,"14934 W DORNER ROAD","BRODHEAD","WI",53520,42.6720890820001,-89.295988899,479,"14934 W DORNER ROAD, BRODHEAD, WI, 53520","Match","Exact","14934 W DORNER RD, BRODHEAD, WI, 53520",49861934,"R"
65980,"14934 WEST DORNER ROAD","BRODHEAD","WI",53520,42.6720890600001,-89.2959831539999,480,"14934 WEST DORNER ROAD, BRODHEAD, WI, 53520","Match","Exact","14934 W DORNER RD, BRODHEAD, WI, 53520",49861934,"R"
65981,"14935 SOUTH RICHMOND - SUITE 1314","HOUSTON","TX",77082,29.726924932,-95.650401183,481,"14935 SOUTH RICHMOND - SUITE 1314, HOUSTON, TX, 77082","Match","Non_Exact","14935 S RICHMOND AVE, HOUSTON, TX, 77082",636879735,"R"
65982,"14935 SUGAR MIST LN","SUGAR LAND","TX",77498,29.664374696,-95.6493653049999,482,"14935 SUGAR MIST LN, SUGAR LAND, TX, 77498","Match","Exact","14935 SUGAR MIST LN, SUGAR LAND, TX, 77498",627293469,"R"
65983,"14937 BAUMAN AVE","OMAHA","NE",68116,41.3187149230001,-96.1487636319999,483,"14937 BAUMAN AVE, OMAHA, NE, 68116","Match","Exact","14937 BAUMAN AVE, OMAHA, NE, 68116",117018506,"L"
65984,"14937 BEGONIA DR","FRISCO","TX",75035,33.1793424150001,-96.7467383599999,484,"14937 BEGONIA DR, FRISCO, TX, 75035","Match","Exact","14937 BEGONIA DR, FRISCO, TX, 75035",642948368,"R"
65985,"14937 COG HILL LANE","HOMER GLEN","IL",60491,41.616373896,-87.957002798,485,"14937 COG HILL LANE, HOMER GLEN, IL, 60491","Match","Exact","14937 COG HILL LN, HOMER GLEN, IL, 60491",111591930,"L"
65986,"14937 SHERMAN WAY UNIT 4","VAN NUYS","CA",91405,34.2013112550001,-118.458818641,486,"14937 SHERMAN WAY UNIT 4, VAN NUYS, CA, 91405","Match","Non_Exact","14937 W SHERMAN WAY, VAN NUYS, CA, 91405",241188394,"R"
65987,"14938 BALLANTYNE COUNTRY CLUB DRIVE","CHARLOTTE","NC",28277,35.0474376110001,-80.844186372,487,"14938 BALLANTYNE COUNTRY CLUB DRIVE, CHARLOTTE, NC, 28277","Match","Exact","14938 BALLANTYNE COUNTRY CLUB DR, CHARLOTTE, NC, 28277",70528931,"L"
65988,"14938 CAMDEN AVE 252","SAN JOSE","CA",95124,37.261734238,-121.930446395,488,"14938 CAMDEN AVE 252, SAN JOSE, CA, 95124","Match","Exact","14938 CAMDEN AVE, SAN JOSE, CA, 95124",122920862,"L"
65989,"14938 CAMDEN AVE BOX 62","SAN JOSE","CA",95124,37.261734238,-121.930446395,489,"14938 CAMDEN AVE BOX 62, SAN JOSE, CA, 95124","Match","Exact","14938 CAMDEN AVE, SAN JOSE, CA, 95124",122920862,"L"
65990,"14938 CAMDEN AVE STE 125","SAN JOSE","CA",95124,37.261734238,-121.930446395,490,"14938 CAMDEN AVE STE 125, SAN JOSE, CA, 95124","Match","Exact","14938 CAMDEN AVE, SAN JOSE, CA, 95124",122920862,"L"
65991,"14938 HOOD ROAD","DENHAM SPRINGS","LA",70726,30.396848495,-90.8360771599999,491,"14938 HOOD ROAD, DENHAM SPRINGS, LA, 70726","Match","Exact","14938 HOOD RD, DENHAM SPRINGS, LA, 70726",612917031,"R"
65992,"14939 91ST AVE SE","YELM","WA",98597,46.9557541340001,-122.623289836,492,"14939 91ST AVE SE, YELM, WA, 98597","Match","Exact","14939 91ST AVE SE, YELM, WA, 98597",630037456,"R"
65993,"14939 BECKETT RD","SEAGOVILLE","TX",75159,32.644325101,-96.605304137,493,"14939 BECKETT RD, SEAGOVILLE, TX, 75159","Match","Exact","14939 BECKETT RD, SEAGOVILLE, TX, 75159",103189863,"L"
65994,"14939 BUTLER AVE","OMAHA","NE",68116,41.300678249,-96.147996168,494,"14939 BUTLER AVE, OMAHA, NE, 68116","Match","Exact","14939 BUTLER AVE, OMAHA, NE, 68116",117036293,"L"
65995,"14939 SW 11 LANE","MIAMI","FL",33194,25.7558361110001,-80.436903845,495,"14939 SW 11 LANE, MIAMI, FL, 33194","Match","Exact","14939 SW 11TH LN, MIAMI, FL, 33194",647887057,"R"
65996,"14939 W CONCORD CT","WADSWORTH","IL",60083,42.436004428,-87.922001211,496,"14939 W CONCORD CT, WADSWORTH, IL, 60083","Match","Exact","14939 W CONCORD CT, WADSWORTH, IL, 60083",638868525,"L"
65997,"1494  SW BALMORAL TRAC","STUART","FL",34997,NA,NA,497,"1494  SW BALMORAL TRAC, STUART, FL, 34997","No_Match",NA,NA,NA,NA
65998,"1494 ARCADIA BLVD","BULLHEAD CITY","AZ",86442,35.1161633880001,-114.578049466,498,"1494 ARCADIA BLVD, BULLHEAD CITY, AZ, 86442","Match","Exact","1494 ARCADIA BLVD, BULLHEAD CITY, AZ, 86442",190316984,"R"
65999,"1494 CHURCHVILLE ROAD","WEST POINTV","VA",23181,37.606579266,-76.929021161,499,"1494 CHURCHVILLE ROAD, WEST POINTV, VA, 23181","Match","Non_Exact","1494 CHURCHVILLE RD, WEST POINT, VA, 23181",106717935,"R"
66000,"1494 CR 433","STOCKDALE","TX",78160,29.304817472,-97.9210403609999,500,"1494 CR 433, STOCKDALE, TX, 78160","Match","Exact","1494 CO RD 433, STOCKDALE, TX, 78160",54901753,"R"
