"ID","Address","City","State","Zip","lat","long","id","input_address","match_indicator","match_type","matched_address","tiger_line_id","tiger_side"
216001,"448 N LAKE DR","PRESTONSBURG","KY",41653,37.6726167420001,-82.7764797839999,1,"448 N LAKE DR, PRESTONSBURG, KY, 41653","Match","Exact","448 N LAKE DR, PRESTONSBURG, KY, 41653",33634710,"R"
216002,"448 NE 20TH ST","NEWCASTLE","OK",73065,35.2721265500001,-97.595066667,2,"448 NE 20TH ST, NEWCASTLE, OK, 73065","Match","Exact","448 NE 20TH ST, NEWCASTLE, OK, 73065",651908159,"R"
216003,"448 NEIGHBORS PL","LYNCHBURG","VA",24501,37.3226632710001,-79.112907292,3,"448 NEIGHBORS PL, LYNCHBURG, VA, 24501","Match","Exact","448 NEIGHBORS PL, LYNCHBURG, VA, 24501",644913111,"L"
216004,"448 NORTH DETROIT STREET","LOS ANGELES","CA",90036,34.0792495590001,-118.345131803,4,"448 NORTH DETROIT STREET, LOS ANGELES, CA, 90036","Match","Exact","448 N DETROIT ST, LOS ANGELES, CA, 90036",141599574,"R"
216005,"448 NORTH STREET","CROOKSVILLE","OH",43731,39.777231418,-82.101527685,5,"448 NORTH STREET, CROOKSVILLE, OH, 43731","Match","Exact","448 NORTH ST, CROOKSVILLE, OH, 43731",37376955,"L"
216006,"448 PALMETTO DRIVE","MIAMI SPRINGS","FL",33166,25.812535014,-80.281078865,6,"448 PALMETTO DRIVE, MIAMI SPRINGS, FL, 33166","Match","Exact","448 PALMETTO DR, MIAMI SPRINGS, FL, 33166",115999927,"R"
216007,"448 RAINTREE COURT - UNIT 3C","GLEN ELLYN","IL",60137,41.8465905050001,-88.069361322,7,"448 RAINTREE COURT - UNIT 3C, GLEN ELLYN, IL, 60137","Match","Exact","448 RAINTREE CT, GLEN ELLYN, IL, 60137",112530496,"L"
216008,"448 RED HAW RD","DAYTON","OH",45405,39.7789715960001,-84.216918252,8,"448 RED HAW RD, DAYTON, OH, 45405","Match","Exact","448 RED HAW RD, DAYTON, OH, 45405",143569629,"L"
216009,"448 ROCKVILLE ROAD","MONCKS CORNER","SC",29461,33.185241144,-79.999366885,9,"448 ROCKVILLE ROAD, MONCKS CORNER, SC, 29461","Match","Exact","448 ROCKVILLE RD, MONCKS CORNER, SC, 29461",645443282,"R"
216010,"448 S 1250 E","LAYTON","UT",84041,41.0535924070001,-111.942923592,10,"448 S 1250 E, LAYTON, UT, 84041","Match","Exact","448 S 1250 E, LAYTON, UT, 84041",155333194,"L"
216011,"448 S 4TH ST","CLINTON","IN",47842,39.6565830870001,-87.401056119,11,"448 S 4TH ST, CLINTON, IN, 47842","Match","Exact","448 S 4TH ST, CLINTON, IN, 47842",66502617,"R"
216012,"448 S 8600E","HUNTSVILLE","UT",84317,41.2563443860001,-111.742132851,12,"448 S 8600E, HUNTSVILLE, UT, 84317","Match","Non_Exact","448 S 8600 E, HUNTSVILLE, UT, 84317",641070797,"R"
216013,"448 S DIVISION STREET","BUFFALO","NY",14204,42.879786015,-78.8588399239999,13,"448 S DIVISION STREET, BUFFALO, NY, 14204","Match","Exact","448 S DIVISION ST, BUFFALO, NY, 14204",48291780,"L"
216014,"448 SANTA CLARA STREET","FILLMORE","CA",93015,34.39834999,-118.912361688,14,"448 SANTA CLARA STREET, FILLMORE, CA, 93015","Match","Exact","448 SANTA CLARA ST, FILLMORE, CA, 93015",109989955,"R"
216015,"448 SCHOFIELD DRIVE","POWDER SPRINGS","GA",30127,33.9450091530001,-84.697843908,15,"448 SCHOFIELD DRIVE, POWDER SPRINGS, GA, 30127","Match","Exact","448 SCHOFIELD DR, POWDER SPGS, GA, 30127",17254085,"L"
216016,"448 SHAWCROFT ROAD","FAYETTEVILLE","NC",28311,35.146739057,-78.889652413,16,"448 SHAWCROFT ROAD, FAYETTEVILLE, NC, 28311","Match","Exact","448 SHAWCROFT RD, FAYETTEVILLE, NC, 28311",64230365,"L"
216017,"448 SPANGLE DR","NORTH BABYLON","NY",11703,40.7295054530001,-73.328741596,17,"448 SPANGLE DR, NORTH BABYLON, NY, 11703","Match","Exact","448 SPANGLE DR, NORTH BABYLON, NY, 11703",113976528,"L"
216018,"448 TANGLEWOOD DR","SHOREVIEW","MN",55126,45.08635265,-93.1198668069999,18,"448 TANGLEWOOD DR, SHOREVIEW, MN, 55126","Match","Exact","448 TANGLEWOOD DR, SHOREVIEW, MN, 55126",97656580,"L"
216019,"448 THOMAS ST SE","GRAND RAPIDS","MI",49503,42.9503135080001,-85.657450502,19,"448 THOMAS ST SE, GRAND RAPIDS, MI, 49503","Match","Exact","448 THOMAS ST SE, GRAND RAPIDS, MI, 49503",12461281,"R"
216020,"448 W 19TH ST  612","HOUSTON","TX",77008,29.802858767,-95.404738637,20,"448 W 19TH ST  612, HOUSTON, TX, 77008","Match","Non_Exact","448 W 19TH ST, HOUSTON, TX, 77008",96055345,"L"
216021,"448 W 19TH ST NUMBER 498","HOUSTON","TX",77008,29.802858767,-95.404738637,21,"448 W 19TH ST NUMBER 498, HOUSTON, TX, 77008","Match","Non_Exact","448 W 19TH ST, HOUSTON, TX, 77008",96055345,"L"
216022,"448 W 19TH ST SUITE 533","HOUSTON","TX",77008,29.802858767,-95.404738637,22,"448 W 19TH ST SUITE 533, HOUSTON, TX, 77008","Match","Non_Exact","448 W 19TH ST, HOUSTON, TX, 77008",96055345,"L"
216023,"448 W HILLCREST DR","DEKALB","IL",60115,41.94292411,-88.755641436,23,"448 W HILLCREST DR, DEKALB, IL, 60115","Match","Exact","448 W HILLCREST DR, DEKALB, IL, 60115",52274658,"L"
216024,"448 W NATIONWIDE BLVD UNIT 405","COLUMBUS","OH",43215,39.967641917,-83.013652248,24,"448 W NATIONWIDE BLVD UNIT 405, COLUMBUS, OH, 43215","Match","Exact","448 NATIONWIDE BLVD, COLUMBUS, OH, 43215",135575502,"R"
216025,"448 WEST 167TH STREET APT 3E","NEW YORK","NY",10032,40.8385660260001,-73.9365828969999,25,"448 WEST 167TH STREET APT 3E, NEW YORK, NY, 10032","Match","Exact","448 W 167TH ST, NEW YORK, NY, 10032",59655823,"L"
216026,"448 WEST 19TH STREET","HOUSTON","TX",77028,29.8028591460001,-95.4047193069999,26,"448 WEST 19TH STREET, HOUSTON, TX, 77028","Match","Non_Exact","448 W 19TH ST, HOUSTON, TX, 77008",96055345,"L"
216027,"448 WEST 50TH ST APT 1W","NEW YORK","NY",10019,40.764070991,-73.990343878,27,"448 WEST 50TH ST APT 1W, NEW YORK, NY, 10019","Match","Exact","448 W 50TH ST, NEW YORK, NY, 10019",59655177,"L"
216028,"448 WEST CALDWELL STREET","COMPTON","CA",90220,33.8841515940001,-118.229738671,28,"448 WEST CALDWELL STREET, COMPTON, CA, 90220","Match","Exact","448 W CALDWELL ST, COMPTON, CA, 90220",141680992,"L"
216029,"4480 BARBADOS LOOP","CLERMONT","FL",34711,28.496299278,-81.690968706,29,"4480 BARBADOS LOOP, CLERMONT, FL, 34711","Match","Exact","4480 BARBADOS LOOP, CLERMONT, FL, 34711",617509858,"R"
216030,"4480 COLEMAN STREET","BISMARCK","ND",58503,46.8540931000001,-100.78027166,30,"4480 COLEMAN STREET, BISMARCK, ND, 58503","Match","Exact","4480 COLEMAN ST, BISMARCK, ND, 58503",639349537,"R"
216031,"4480 COVE CT","TRACY","CA",95377,37.6992416190001,-121.439971492,31,"4480 COVE CT, TRACY, CA, 95377","Match","Exact","4480 COVE CT, TRACY, CA, 95377",133920233,"L"
216032,"4480 CRANBROOK TRAIL","ORCHARD LAKE","MI",48323,42.5734140910001,-83.377725362,32,"4480 CRANBROOK TRAIL, ORCHARD LAKE, MI, 48323","Match","Exact","4480 CRANBROOK TRL, ORCHARD LAKE, MI, 48323",69759962,"L"
216033,"4480 DEERWOOD LAKE PKWY UNIT 131","JACKSONVILLE","FL",32216,30.260841359,-81.559075534,33,"4480 DEERWOOD LAKE PKWY UNIT 131, JACKSONVILLE, FL, 32216","Match","Non_Exact","4480 DEARWOOD LAKE PKWY, JACKSONVILLE, FL, 32216",650061122,"R"
216034,"4480 E PIKES PEAK AVE APT 358","COLORADO SPRINGS","CO",80916,38.8330142350001,-104.743736954,34,"4480 E PIKES PEAK AVE APT 358, COLORADO SPRINGS, CO, 80916","Match","Non_Exact","4480 E PIKES PEAK AVE, COLORADO SPRINGS, CO, 80916",105522783,"L"
216035,"4480 FOGG CT","SAN DIEGO","CA",92109,32.803478559,-117.224658783,35,"4480 FOGG CT, SAN DIEGO, CA, 92109","Match","Exact","4480 FOGG CT, SAN DIEGO, CA, 92109",195303302,"L"
216036,"4480 GENERAL DEGAULLE AVE SUITE 112","NEW ORLEANS","LA",70131,29.9186519130001,-90.010522005,36,"4480 GENERAL DEGAULLE AVE SUITE 112, NEW ORLEANS, LA, 70131","Match","Non_Exact","4480 GENERAL DEGAULLE DR, NEW ORLEANS, LA, 70131",191743082,"L"
216037,"4480 GENERAL DEGAULLE DR  STE 208","NEW ORLEANS","LA",70131,29.9186519130001,-90.010522005,37,"4480 GENERAL DEGAULLE DR  STE 208, NEW ORLEANS, LA, 70131","Match","Exact","4480 GENERAL DEGAULLE DR, NEW ORLEANS, LA, 70131",191743082,"L"
216038,"4480 GENERAL DEGAULLE DR STE 211","NEW ORLEANS","LA",70131,29.9186519130001,-90.010522005,38,"4480 GENERAL DEGAULLE DR STE 211, NEW ORLEANS, LA, 70131","Match","Exact","4480 GENERAL DEGAULLE DR, NEW ORLEANS, LA, 70131",191743082,"L"
216039,"4480 GENERAL DEGAULLE DR","NEW ORLEANS","LA",70131,29.9186519130001,-90.010522005,39,"4480 GENERAL DEGAULLE DR, NEW ORLEANS, LA, 70131","Match","Exact","4480 GENERAL DEGAULLE DR, NEW ORLEANS, LA, 70131",191743082,"L"
216040,"4480 H SOUTH COBB DRIVE STE 389","SMYRNA","GA",30080,33.84709816,-84.5052534229999,40,"4480 H SOUTH COBB DRIVE STE 389, SMYRNA, GA, 30080","Match","Non_Exact","4480 S COBB DR SE, SMYRNA, GA, 30080",17258754,"L"
216041,"4480 IRAN STREET","DENVER","CO",80249,39.7781208580001,-104.753512341,41,"4480 IRAN STREET, DENVER, CO, 80249","Match","Exact","4480 IRAN ST, DENVER, CO, 80249",177627327,"R"
216042,"4480 KIRBY DR","MANVEL","TX",77578,NA,NA,42,"4480 KIRBY DR, MANVEL, TX, 77578","No_Match",NA,NA,NA,NA
216043,"4480 LOTT ROAD","EIGHT MILE","AL",36613,30.7875366810001,-88.2024769769999,43,"4480 LOTT ROAD, EIGHT MILE, AL, 36613","Match","Exact","4480 LOTT RD, EIGHT MILE, AL, 36613",61924521,"L"
216044,"4480 MARCY LANE APT 60","INDIANAPOLIS","IN",46227,39.8384409060001,-86.1344850629999,44,"4480 MARCY LANE APT 60, INDIANAPOLIS, IN, 46227","Match","Non_Exact","4480 MARCY LN, INDIANAPOLIS, IN, 46205",609080835,"L"
216045,"4480 PORTOFINO WAY 203","WEST PALM BEACH","FL",33409,26.742969718,-80.106971863,45,"4480 PORTOFINO WAY 203, WEST PALM BEACH, FL, 33409","Match","Exact","4480 PORTOFINO WAY, WEST PALM BEACH, FL, 33409",618464707,"L"
216046,"4480 S COBB DR SE STE H348","SMYRNA","GA",30080,33.84709816,-84.5052534229999,46,"4480 S COBB DR SE STE H348, SMYRNA, GA, 30080","Match","Non_Exact","4480 S COBB DR SE, SMYRNA, GA, 30080",17258754,"L"
216047,"4480 SOUTH COBB DRIVE SUITE H462","SMYRNA","GA",30080,33.8470934910001,-84.505248244,47,"4480 SOUTH COBB DRIVE SUITE H462, SMYRNA, GA, 30080","Match","Non_Exact","4480 S COBB DR SE, SMYRNA, GA, 30080",17258754,"L"
216048,"4480-H S COBB DR STE 644","SMYRNA","GA",30080,33.8470934910001,-84.505248244,48,"4480-H S COBB DR STE 644, SMYRNA, GA, 30080","Match","Non_Exact","4480 S COBB DR SE, SMYRNA, GA, 30080",17258754,"L"
216049,"4480-H S COBB DR SUITE 609","SMYRNA","GA",30080,33.8470934910001,-84.505248244,49,"4480-H S COBB DR SUITE 609, SMYRNA, GA, 30080","Match","Non_Exact","4480 S COBB DR SE, SMYRNA, GA, 30080",17258754,"L"
216050,"4480-H SOUTH COBB DRIVE STE H","SMYRNA","GA",30080,33.8470934910001,-84.505248244,50,"4480-H SOUTH COBB DRIVE STE H, SMYRNA, GA, 30080","Match","Non_Exact","4480 S COBB DR SE, SMYRNA, GA, 30080",17258754,"L"
216051,"4480-H SOUTH COBB DRIVE","SMYRNA","GA",30080,33.8470934910001,-84.505248244,51,"4480-H SOUTH COBB DRIVE, SMYRNA, GA, 30080","Match","Non_Exact","4480 S COBB DR SE, SMYRNA, GA, 30080",17258754,"L"
216052,"44807 NORTH 20 STREET","NEW RIVER","AZ",85087,33.8917520540001,-112.039077242,52,"44807 NORTH 20 STREET, NEW RIVER, AZ, 85087","Match","Exact","44807 N 20TH ST, NEW RIVER, AZ, 85087",627213433,"R"
216053,"4480H S COBB DR 594","SMYRNA","GA",30080,33.84709816,-84.5052534229999,53,"4480H S COBB DR 594, SMYRNA, GA, 30080","Match","Non_Exact","4480 S COBB DR SE, SMYRNA, GA, 30080",17258754,"L"
216054,"4480H S COBB DR SE NUM 462","SMYRNA","GA",30080,33.84709816,-84.5052534229999,54,"4480H S COBB DR SE NUM 462, SMYRNA, GA, 30080","Match","Exact","4480 S COBB DR SE, SMYRNA, GA, 30080",17258754,"L"
216055,"4481 BOGAN GATES TRAIL","BUFORD","GA",30519,34.1251502120001,-83.9481870179999,55,"4481 BOGAN GATES TRAIL, BUFORD, GA, 30519","Match","Exact","4481 BOGAN GATES TRL, BUFORD, GA, 30519",88960270,"L"
216056,"4481 FORREST HILL DRIVE","COMMERCE TWP","MI",48382,42.5865726230001,-83.5146717759999,56,"4481 FORREST HILL DRIVE, COMMERCE TWP, MI, 48382","Match","Non_Exact","4481 FOREST HILL DR, COMMERCE TOWNSHIP, MI, 48382",69788547,"R"
216057,"4481 PONDS STREET NE","WASHINGTON","MD",20019,NA,NA,57,"4481 PONDS STREET NE, WASHINGTON, MD, 20019","No_Match",NA,NA,NA,NA
216058,"4481 SE PENNYWOOD DR","MILWAUKIE","OR",97222,45.4298704620001,-122.617952139,58,"4481 SE PENNYWOOD DR, MILWAUKIE, OR, 97222","Match","Exact","4481 SE PENNYWOOD DR, MILWAUKIE, OR, 97222",157945152,"R"
216059,"4481 STRICKLAND DRIVE","OWENSBORO","KY",42301,37.7238590800001,-87.156094852,59,"4481 STRICKLAND DRIVE, OWENSBORO, KY, 42301","Match","Exact","4481 STRICKLAND DR, OWENSBORO, KY, 42301",635546946,"L"
216060,"4481 WHITECLIFF WAY","RICHMOND","CA",94803,37.972946087,-122.291887118,60,"4481 WHITECLIFF WAY, RICHMOND, CA, 94803","Match","Exact","4481 WHITECLIFF WAY, RICHMOND, CA, 94803",192042219,"L"
216061,"44814 DATE AVE","LANCASTER","CA",83534,34.6964945170001,-118.140516681,61,"44814 DATE AVE, LANCASTER, CA, 83534","Match","Non_Exact","44814 DATE AVE, LANCASTER, CA, 93534",142706434,"L"
216062,"44814 DATE AVENUE","LANCASTER","CA",93534,34.6964945170001,-118.140516681,62,"44814 DATE AVENUE, LANCASTER, CA, 93534","Match","Exact","44814 DATE AVE, LANCASTER, CA, 93534",142706434,"L"
216063,"44814 RUTHRON STREET","LANCASTER","CA",93536,34.69737294,-118.187594413,63,"44814 RUTHRON STREET, LANCASTER, CA, 93536","Match","Non_Exact","44814 RUTHRON AVE, LANCASTER, CA, 93536",624541119,"L"
216064,"4482 YATES ST","DENVER","CO",80212,39.7779981730001,-105.0509076,64,"4482 YATES ST, DENVER, CO, 80212","Match","Exact","4482 YATES ST, DENVER, CO, 80212",177299331,"R"
216065,"44824 MARIGOLD DR","STERLING HEIGHTS","MI",48314,42.623107417,-83.062454041,65,"44824 MARIGOLD DR, STERLING HEIGHTS, MI, 48314","Match","Exact","44824 MARIGOLD DR, STERLING HEIGHTS, MI, 48314",618493255,"R"
216066,"4483 CATALINA CIRCLE","EAST POINT","GA",30344,33.6339576710001,-84.489342055,66,"4483 CATALINA CIRCLE, EAST POINT, GA, 30344","Match","Exact","4483 CATALINA CIR, EAST POINT, GA, 30344",17339133,"R"
216067,"4483 HOMINY RIDGE RD","SPRINGFIELD","OH",45502,39.9922945340001,-83.8590206489999,67,"4483 HOMINY RIDGE RD, SPRINGFIELD, OH, 45502","Match","Exact","4483 HOMINY RIDGE RD, SPRINGFIELD, OH, 45502",135024854,"L"
216068,"4483 LANGSTON PLACE","RIVERSIDE","CA",92507,33.9691407380001,-117.364286661,68,"4483 LANGSTON PLACE, RIVERSIDE, CA, 92507","Match","Exact","4483 LANGSTON PL, RIVERSIDE, CA, 92507",194742761,"R"
216069,"4483 LIONSHEAD CIRCLE","LITHONIA","GA",30038,33.692850229,-84.195402432,69,"4483 LIONSHEAD CIRCLE, LITHONIA, GA, 30038","Match","Exact","4483 LIONSHEAD CIR, LITHONIA, GA, 30038",640580778,"L"
216070,"4483 PERSIAN LANE","NORTH PORT","FL",34287,27.047506835,-82.2079176299999,70,"4483 PERSIAN LANE, NORTH PORT, FL, 34287","Match","Exact","4483 PERSIAN LN, NORTH PORT, FL, 34287",16340343,"L"
216071,"4483 VRAIN STREET","DEVNER","CO",80212,39.7779855850001,-105.046290956,71,"4483 VRAIN STREET, DEVNER, CO, 80212","Match","Non_Exact","4483 VRAIN ST, DENVER, CO, 80212",177299592,"L"
216072,"4483 W 56","CLEVELAND","OH",44144,41.4344118720001,-81.724632435,72,"4483 W 56, CLEVELAND, OH, 44144","Match","Non_Exact","4483 W 56TH ST, CLEVELAND, OH, 44144",61106225,"L"
216073,"4483 WEST 62ND ST","LOS ANGELES","CA",90043,33.9835075990001,-118.354020919,73,"4483 WEST 62ND ST, LOS ANGELES, CA, 90043","Match","Exact","4483 W 62ND ST, LOS ANGELES, CA, 90043",142749675,"R"
216074,"4484 BOULDER POND DRIVE","ANN ARBOR","MI",48108,42.2223242800001,-83.762978833,74,"4484 BOULDER POND DRIVE, ANN ARBOR, MI, 48108","Match","Exact","4484 BOULDER POND DR, ANN ARBOR, MI, 48108",26034946,"R"
216075,"4484 DESIN DRIVE","SAN JOSE","CA",95118,37.2620569690001,-121.881983029,75,"4484 DESIN DRIVE, SAN JOSE, CA, 95118","Match","Exact","4484 DESIN DR, SAN JOSE, CA, 95118",123005291,"R"
216076,"4484 FOREST DRIVE","BROWNSBURG","IN",46112,39.828283286,-86.410491395,76,"4484 FOREST DRIVE, BROWNSBURG, IN, 46112","Match","Exact","4484 FOREST DR, BROWNSBURG, IN, 46112",642891145,"L"
216077,"4484 HUMPHREY RD","GREAT VALLEY","NY",14741,42.2054393720001,-78.5404119579999,77,"4484 HUMPHREY RD, GREAT VALLEY, NY, 14741","Match","Exact","4484 HUMPHREY RD, GREAT VALLEY, NY, 14741",122026760,"L"
216078,"4484 MOLLY LANE","METROPOLIS","IL",62960,37.2417508520001,-88.7894341429999,78,"4484 MOLLY LANE, METROPOLIS, IL, 62960","Match","Exact","4484 MOLLY LN, METROPOLIS, IL, 62960",632045402,"R"
216079,"4484 PONTCHARTRAIN DE APT 9","SLIDELL","LA",70458,30.2396005370001,-89.7992571729999,79,"4484 PONTCHARTRAIN DE APT 9, SLIDELL, LA, 70458","Match","Non_Exact","4484 PONTCHARTRAIN DR, SLIDELL, LA, 70458",653328230,"L"
216080,"4484 SALVIA DRIVE","ORLANDO","FL",32839,28.478364992,-81.433700342,80,"4484 SALVIA DRIVE, ORLANDO, FL, 32839","Match","Exact","4484 SALVIA DR, ORLANDO, FL, 32839",94274816,"L"
216081,"4484 SMILEY RD","CHAPEL HILL","TN",37034,35.6414167660001,-86.720152331,81,"4484 SMILEY RD, CHAPEL HILL, TN, 37034","Match","Exact","4484 SMILEY RD, CHAPEL HILL, TN, 37034",58975229,"L"
216082,"4484 TRAILANE DRIVE","HILLIARD","OH",43026,40.0421175990001,-83.177303299,82,"4484 TRAILANE DRIVE, HILLIARD, OH, 43026","Match","Exact","4484 TRAILANE DR, HILLIARD, OH, 43026",135636519,"R"
216083,"4484 WEST 213 STREET","FAIRVIEW PARK","OH",44126,41.4423283040001,-81.856665907,83,"4484 WEST 213 STREET, FAIRVIEW PARK, OH, 44126","Match","Exact","4484 W 213TH ST, FAIRVIEW PARK, OH, 44126",61098501,"R"
216084,"44847 10TH STREET WEST","LANCASTER","CA",93534,34.6986893650001,-118.148054205,84,"44847 10TH STREET WEST, LANCASTER, CA, 93534","Match","Exact","44847 10TH ST W, LANCASTER, CA, 93534",241238608,"L"
216085,"4485 62ND CT","VERO BEACH","FL",32967,27.674785378,-80.454950751,85,"4485 62ND CT, VERO BEACH, FL, 32967","Match","Exact","4485 62ND CT, VERO BEACH, FL, 32967",120322684,"R"
216086,"4485 DALE BLVD","WOODBRIDGE","VA",22193,38.6532200350001,-77.342148773,86,"4485 DALE BLVD, WOODBRIDGE, VA, 22193","Match","Exact","4485 DALE BLVD, WOODBRIDGE, VA, 22193",76508744,"L"
216087,"4485 E 2900 N RD","ANCONA","IL",61311,41.04657187,-88.843499394,87,"4485 E 2900 N RD, ANCONA, IL, 61311","Match","Exact","4485 E 2900 N RD, ANCONA, IL, 61311",611657244,"R"
216088,"4485 ELLIPSE DR","JACKSONVILLE","FL",32246,30.2628971990001,-81.524925823,88,"4485 ELLIPSE DR, JACKSONVILLE, FL, 32246","Match","Exact","4485 ELLIPSE DR, JACKSONVILLE, FL, 32246",637636607,"L"
216089,"4485 GLENWOOD SPRING CT","COLUMBUS","OH",43228,39.9315080380001,-83.118072033,89,"4485 GLENWOOD SPRING CT, COLUMBUS, OH, 43228","Match","Exact","4485 GLENWOOD SPRING CT, COLUMBUS, OH, 43228",632049849,"R"
216090,"4485 HICKORY RD","CANTON","GA",30115,34.169199088,-84.427044054,90,"4485 HICKORY RD, CANTON, GA, 30115","Match","Exact","4485 HICKORY RD, CANTON, GA, 30115",633535491,"R"
216091,"4485 HICKORY ROAD","CANTON","GA",30115,34.169199088,-84.427044054,91,"4485 HICKORY ROAD, CANTON, GA, 30115","Match","Exact","4485 HICKORY RD, CANTON, GA, 30115",633535491,"R"
216092,"4485 HUMMEL DRIVE","SANTA MARIA","CA",93455,34.8735630300001,-120.429706948,92,"4485 HUMMEL DRIVE, SANTA MARIA, CA, 93455","Match","Exact","4485 HUMMEL DR, SANTA MARIA, CA, 93455",624976979,"L"
216093,"4485 SAINT JOHN LANE","PITTSBURG","CA",94565,37.9913137560001,-121.896584556,93,"4485 SAINT JOHN LANE, PITTSBURG, CA, 94565","Match","Exact","4485 ST JOHN LN, PITTSBURG, CA, 94565",192076573,"L"
216094,"4485 SE 53RD AVENUE","OCALA","FL",34480,29.1446142120001,-82.0611244629999,94,"4485 SE 53RD AVENUE, OCALA, FL, 34480","Match","Exact","4485 SE 53RD AVE, OCALA, FL, 34480",116799511,"L"
216095,"4485 SUNRISE SCHOOL RD","DESOTO","MO",63020,38.045292637,-90.551329015,95,"4485 SUNRISE SCHOOL RD, DESOTO, MO, 63020","Match","Non_Exact","4485 SUNRISE SCHOOL RD, DE SOTO, MO, 63020",62775254,"R"
216096,"4485 VICTORY DRIVE","NEW PALESTINE","IN",46163,NA,NA,96,"4485 VICTORY DRIVE, NEW PALESTINE, IN, 46163","No_Match",NA,NA,NA,NA
216097,"4485 WASHINGTON STREET","GARY","IN",46408,41.537120875,-87.3374386519999,97,"4485 WASHINGTON STREET, GARY, IN, 46408","Match","Exact","4485 WASHINGTON ST, GARY, IN, 46408",98433769,"L"
216098,"44852 101ST ST","LIDGERWOOD","ND",58053,NA,NA,98,"44852 101ST ST, LIDGERWOOD, ND, 58053","No_Match",NA,NA,NA,NA
216099,"44855 FOUNTAIN AVE","ST LOUIS","MO",63113,NA,NA,99,"44855 FOUNTAIN AVE, ST LOUIS, MO, 63113","No_Match",NA,NA,NA,NA
216100,"4486 BURGIS AVE","KENTWOOD","MI",49508,42.881863304,-85.638725431,100,"4486 BURGIS AVE, KENTWOOD, MI, 49508","Match","Non_Exact","4486 BURGIS AVE SE, KENTWOOD, MI, 49508",12464795,"L"
216101,"4486 CHATEAU PLACE","LISLE","IL",60532,41.801092426,-88.109019823,101,"4486 CHATEAU PLACE, LISLE, IL, 60532","Match","Exact","4486 CHATEAU PL, LISLE, IL, 60532",112530784,"R"
216102,"4486 GA HWY 86","SOPERTON","GA",30457,32.4743226210001,-82.587683323,102,"4486 GA HWY 86, SOPERTON, GA, 30457","Match","Non_Exact","4486 STATE RTE 86, SOPERTON, GA, 30457",38477348,"L"
216103,"4486 HILLSIDE DR","COPLEY","OH",44321,41.1321381870001,-81.671391774,103,"4486 HILLSIDE DR, COPLEY, OH, 44321","Match","Exact","4486 HILLSIDE DR, COPLEY, OH, 44321",624493930,"R"
216104,"4486 MAPLE CHASE TRAIL","KISSIMMEE","FL",34758,28.155147357,-81.468339584,104,"4486 MAPLE CHASE TRAIL, KISSIMMEE, FL, 34758","Match","Exact","4486 MAPLE CHASE TRL, KISSIMMEE, FL, 34758",634525915,"R"
216105,"4486 RED OAK CMN","FREMONT","CA",94538,37.5223964040001,-121.966254907,105,"4486 RED OAK CMN, FREMONT, CA, 94538","Match","Exact","4486 RED OAK CMN, FREMONT, CA, 94538",125031118,"L"
216106,"4486 STATE ROUTE 588","GALLIPOLIS","OH",45631,38.8322360290001,-82.273952677,106,"4486 STATE ROUTE 588, GALLIPOLIS, OH, 45631","Match","Exact","4486 STATE RTE 588, GALLIPOLIS, OH, 45631",624101540,"R"
216107,"4486 SW 152 STREET","OCALA","FL",34473,29.000739136,-82.196001499,107,"4486 SW 152 STREET, OCALA, FL, 34473","Match","Exact","4486 SW 152ND ST, OCALA, FL, 34473",116814674,"L"
216108,"4486","PALESTINE","TX",75802,NA,NA,108,"4486, PALESTINE, TX, 75802","No_Match",NA,NA,NA,NA
216109,"44863 MILESTONE SQUARE APT 300","ASHBURN","VA",20147,39.0667224640001,-77.449098232,109,"44863 MILESTONE SQUARE APT 300, ASHBURN, VA, 20147","Match","Exact","44863 MILESTONE SQ, ASHBURN, VA, 20147",62355615,"R"
216110,"4487 BENTS DR UNIT B","WINDSOR","CO",80550,NA,NA,110,"4487 BENTS DR UNIT B, WINDSOR, CO, 80550","No_Match",NA,NA,NA,NA
216111,"4487 FIELD","DETROIT","MI",48214,42.3705514060001,-83.015561662,111,"4487 FIELD, DETROIT, MI, 48214","Match","Non_Exact","4487 FIELD ST, DETROIT, MI, 48214",95483285,"L"
216112,"4487 HACKBERRY CT","MIDLAND","TX",79707,32.052155713,-102.156735904,112,"4487 HACKBERRY CT, MIDLAND, TX, 79707","Match","Exact","4487 HACKBERRY CT, MIDLAND, TX, 79707",139591468,"R"
216113,"4487 LYONS HILL RD","SPRINGDALE","WA",99173,48.018861343,-117.813879651,113,"4487 LYONS HILL RD, SPRINGDALE, WA, 99173","Match","Exact","4487 LYONS HILL RD, SPRINGDALE, WA, 99173",174864933,"R"
216114,"4487 OREGON STREET","SAN DIEGO","CA",92116,32.7587938280001,-117.135123736,114,"4487 OREGON STREET, SAN DIEGO, CA, 92116","Match","Exact","4487 OREGON ST, SAN DIEGO, CA, 92116",195345255,"R"
216115,"44873 RIVER RAT RD","GAYVILLE","SD",57031,NA,NA,115,"44873 RIVER RAT RD, GAYVILLE, SD, 57031","No_Match",NA,NA,NA,NA
216116,"4488 HICKORY DRIVE","PALM BEACH GARDENS","FL",33418,26.836627993,-80.1127378199999,116,"4488 HICKORY DRIVE, PALM BEACH GARDENS, FL, 33418","Match","Exact","4488 HICKORY DR, PALM BEACH GARDENS, FL, 33418",644056099,"L"
216117,"4488 N OCEANSHORE BLVD","PALM COAST","FL",32137,29.5702461400001,-81.183751887,117,"4488 N OCEANSHORE BLVD, PALM COAST, FL, 32137","Match","Exact","4488 N OCEANSHORE BLVD, PALM COAST, FL, 32137",648024533,"L"
216118,"4488 PRESERVE DRIVE","HOOVER","AL",35226,33.376676843,-86.833715647,118,"4488 PRESERVE DRIVE, HOOVER, AL, 35226","Match","Exact","4488 PRESERVE DR, HOOVER, AL, 35226",641616853,"R"
216119,"4488 STATE HWY NN","GOBLER","MO",63849,NA,NA,119,"4488 STATE HWY NN, GOBLER, MO, 63849","No_Match",NA,NA,NA,NA
216120,"4488 TOWNSHIP ROAD 354","MILLERSBURG","OH",44654,NA,NA,120,"4488 TOWNSHIP ROAD 354, MILLERSBURG, OH, 44654","No_Match",NA,NA,NA,NA
216121,"4488 VIA DEL VALLE","YORBA LINDA","CA",92886,33.894695439,-117.781301617,121,"4488 VIA DEL VALLE, YORBA LINDA, CA, 92886","Match","Exact","4488 VIA DEL VALLE, YORBA LINDA, CA, 92886",143995136,"L"
216122,"4488 WESTOVER DR","TALLAHASSEE","FL",32303,30.4791506390001,-84.3518928519999,122,"4488 WESTOVER DR, TALLAHASSEE, FL, 32303","Match","Exact","4488 WESTOVER DR, TALLAHASSEE, FL, 32303",82870139,"R"
216123,"4489 COOPER LAKE DRIVE","WINSTON SALEM","NC",27127,36.0151219460001,-80.289969813,123,"4489 COOPER LAKE DRIVE, WINSTON SALEM, NC, 27127","Match","Exact","4489 COOPER LAKE DR, WINSTON SALEM, NC, 27127",634076384,"R"
216124,"4489 HOOVER ROAD","REVA","VA",22735,38.4614354170001,-78.151933953,124,"4489 HOOVER ROAD, REVA, VA, 22735","Match","Exact","4489 HOOVER RD, REVA, VA, 22735",225081065,"L"
216125,"4489 N DIVISION","MCBRIDE","MI",48852,NA,NA,125,"4489 N DIVISION, MCBRIDE, MI, 48852","No_Match",NA,NA,NA,NA
216126,"449 12TH STREET  APT 2R","BROOKLYN","NY",11215,40.664311157,-73.981454699,126,"449 12TH STREET  APT 2R, BROOKLYN, NY, 11215","Match","Exact","449 12TH ST, BROOKLYN, NY, 11215",59078258,"L"
216127,"449 BOULDER DRIVE","MORGANVILLE","NJ",7751,40.3826255270001,-74.217843843,127,"449 BOULDER DRIVE, MORGANVILLE, NJ, 7751","Match","Exact","449 BOULDER DR, MORGANVILLE, NJ, 07751",647641391,"L"
216128,"449 CADENZA DR","ORLANDO","FL",32807,28.5470361270001,-81.307333414,128,"449 CADENZA DR, ORLANDO, FL, 32807","Match","Exact","449 CADENZA DR, ORLANDO, FL, 32807",94372511,"L"
216129,"449 CLAY AVE","ROCHESTER","NY",14613,43.1916699390001,-77.642696072,129,"449 CLAY AVE, ROCHESTER, NY, 14613","Match","Exact","449 CLAY AVE, ROCHESTER, NY, 14613",14531314,"L"
216130,"449 CRIMSON ROAD","FERNLEY","NV",89408,39.5879982050001,-119.236463496,130,"449 CRIMSON ROAD, FERNLEY, NV, 89408","Match","Exact","449 CRIMSON RD, FERNLEY, NV, 89408",140354557,"L"
216131,"449 CUMBERLAND RIDGE","MADISON","MS",39110,32.5311885410001,-90.137652026,131,"449 CUMBERLAND RIDGE, MADISON, MS, 39110","Match","Exact","449 CUMBERLAND RIDGE, MADISON, MS, 39110",648722757,"R"
216132,"449 E LANVALE ST","BALTIMORE","MD",21202,39.3090260760001,-76.609652474,132,"449 E LANVALE ST, BALTIMORE, MD, 21202","Match","Exact","449 E LANVALE ST, BALTIMORE, MD, 21202",206419192,"R"
216133,"449 EAST CENTER STREET APT 512","ROCHESTER","MN",55904,44.0234887170001,-92.456377357,133,"449 EAST CENTER STREET APT 512, ROCHESTER, MN, 55904","Match","Exact","449 E CENTER ST, ROCHESTER, MN, 55904",612122837,"L"
216134,"449 EDD RIDGE LN","TROY","VA",22974,37.9900348350001,-78.277795097,134,"449 EDD RIDGE LN, TROY, VA, 22974","Match","Exact","449 EDD RIDGE LN, TROY, VA, 22974",73794133,"L"
216135,"449 EMERALD HILLS DRIVE","FREDONIA","WI",53021,43.4777031020001,-87.945874082,135,"449 EMERALD HILLS DRIVE, FREDONIA, WI, 53021","Match","Exact","449 EMERALD HILLS DR, FREDONIA, WI, 53021",633609554,"L"
216136,"449 EVERGREEN CIR","GILBERTS","IL",60136,42.0819405390001,-88.365588562,136,"449 EVERGREEN CIR, GILBERTS, IL, 60136","Match","Exact","449 EVERGREEN CIR, GILBERTS, IL, 60136",119567828,"R"
216137,"449 FERN BAY DRIVE SW","ATLANTA","GA",30331,33.717376486,-84.5705188539999,137,"449 FERN BAY DRIVE SW, ATLANTA, GA, 30331","Match","Non_Exact","449 FERN BAY DR, ATLANTA, GA, 30331",627634085,"L"
216138,"449 HIGHWAY 72 SUITE 129","COLLIERVILLE","TN",38017,35.039510401,-89.677638848,138,"449 HIGHWAY 72 SUITE 129, COLLIERVILLE, TN, 38017","Match","Non_Exact","449 US HWY 72, COLLIERVILLE, TN, 38017",607499420,"L"
216139,"449 ILYSSA WAY","STATEN ISLAND","NY",10312,40.560273979,-74.186609873,139,"449 ILYSSA WAY, STATEN ISLAND, NY, 10312","Match","Exact","449 ILYSSA WAY, STATEN ISLAND, NY, 10312",59886943,"L"
216140,"449 LANE GATE ROAD","COLD SPRING","NY",10516,41.4242461050001,-73.932366733,140,"449 LANE GATE ROAD, COLD SPRING, NY, 10516","Match","Exact","449 LANE GATE RD, COLD SPRING, NY, 10516",139695811,"L"
216141,"449 LEBANON STREET","WINGO","KY",42088,36.642693282,-88.742216357,141,"449 LEBANON STREET, WINGO, KY, 42088","Match","Exact","449 LEBANON ST, WINGO, KY, 42088",27882584,"L"
216142,"449 LEXINGTON AVE","BROOKLYN","NY",11221,40.6884775350001,-73.9440349549999,142,"449 LEXINGTON AVE, BROOKLYN, NY, 11221","Match","Exact","449 LEXINGTON AVE, BROOKLYN, NY, 11221",59079168,"L"
216143,"449 LYNHURST DRIVE","FAYETTEVILLE","NC",28314,35.060790867,-78.976006699,143,"449 LYNHURST DRIVE, FAYETTEVILLE, NC, 28314","Match","Exact","449 LYNHURST DR, FAYETTEVILLE, NC, 28314",64195890,"L"
216144,"449 MCFALL COURT","SUISUN CITY","CA",94585,38.2413211730001,-121.995784667,144,"449 MCFALL COURT, SUISUN CITY, CA, 94585","Match","Exact","449 MCFALL CT, SUISUN CITY, CA, 94585",192559019,"L"
216145,"449 MISSOURI AVE","CINCINNATI","KY",45226,NA,NA,145,"449 MISSOURI AVE, CINCINNATI, KY, 45226","No_Match",NA,NA,NA,NA
216146,"449 N LOMBARD AVE APT 1","OAK PARK","IL",60302,NA,NA,146,"449 N LOMBARD AVE APT 1, OAK PARK, IL, 60302","Tie",NA,NA,NA,NA
216147,"449 NORTH ACADIAN THWY","BATON ROUGE","LA",70806,30.451898113,-91.154825417,147,"449 NORTH ACADIAN THWY, BATON ROUGE, LA, 70806","Match","Exact","449 N ACADIAN THWY, BATON ROUGE, LA, 70806",606170188,"L"
216148,"449 NORTH ST","RANDOLPH","MA",2368,42.1765369840001,-71.033717226,148,"449 NORTH ST, RANDOLPH, MA, 2368","Match","Exact","449 NORTH ST, RANDOLPH, MA, 02368",87268465,"R"
216149,"449 OFARRELL STREET UNIT 502","SAN FRANCISCO","CA",94102,37.7858790770001,-122.412236367,149,"449 OFARRELL STREET UNIT 502, SAN FRANCISCO, CA, 94102","Match","Exact","449 OFARRELL ST, SAN FRANCISCO, CA, 94102",192280927,"L"
216150,"449 OLD COAST HIGHWAY UNIT 4B","SANTA BARBARA","CA",93103,34.4232062470001,-119.666409295,150,"449 OLD COAST HIGHWAY UNIT 4B, SANTA BARBARA, CA, 93103","Match","Non_Exact","449 OLD COAST HWY, SANTA BARBARA, CA, 93103",108606337,"L"
216151,"449 OLDENBURG ROAD","NOLENSVILLE","TN",37135,35.954775522,-86.702259763,151,"449 OLDENBURG ROAD, NOLENSVILLE, TN, 37135","Match","Exact","449 OLDENBURG RD, NOLENSVILLE, TN, 37135",648249119,"R"
216152,"449 PATRICIA LANE","EL CAJON","CA",92020,32.7865950680001,-116.966508305,152,"449 PATRICIA LANE, EL CAJON, CA, 92020","Match","Exact","449 PATRICIA LN, EL CAJON, CA, 92020",612880568,"L"
216153,"449 PINE BEND DRIVE","CHESTERFIELD","MO",63005,38.6411719810001,-90.6555087679999,153,"449 PINE BEND DRIVE, CHESTERFIELD, MO, 63005","Match","Exact","449 PINE BEND DR, CHESTERFIELD, MO, 63005",100193156,"R"
216154,"449 POMPANO STREET","BAYOU VISTA","TX",77563,29.3277128450001,-94.938067941,154,"449 POMPANO STREET, BAYOU VISTA, TX, 77563","Match","Exact","449 POMPANO ST, BAYOU VISTA, TX, 77563",96678233,"L"
216155,"449 RHODE ISLAND AVENUE","BRICK","NJ",8724,40.103683849,-74.1189924139999,155,"449 RHODE ISLAND AVENUE, BRICK, NJ, 8724","Match","Exact","449 RHODE ISLAND AVE, BRICK, NJ, 08724",203732174,"L"
216156,"449 RUTLAND DR NW","AIKEN","SC",29801,33.5776808160001,-81.70560385,156,"449 RUTLAND DR NW, AIKEN, SC, 29801","Match","Non_Exact","449 RUTLAND DR, AIKEN, SC, 29801",65029060,"L"
216157,"449 RUTLAND DRIVE NW","AIKEN","SC",29801,33.5776808160001,-81.70560385,157,"449 RUTLAND DRIVE NW, AIKEN, SC, 29801","Match","Non_Exact","449 RUTLAND DR, AIKEN, SC, 29801",65029060,"L"
216158,"449 S DENNIS AVENUE","DECATUR","IL",62522,39.8373471790001,-88.984447116,158,"449 S DENNIS AVENUE, DECATUR, IL, 62522","Match","Exact","449 S DENNIS AVE, DECATUR, IL, 62522",20745719,"R"
216159,"449 S NEPTUNE DR","SATELLITE BEACH","FL",32937,28.188444781,-80.608335486,159,"449 S NEPTUNE DR, SATELLITE BEACH, FL, 32937","Match","Exact","449 S NEPTUNE DR, SATELLITE BEACH, FL, 32937",93900877,"R"
216160,"449 SE 31 AVE","HOMESTEAD","FL",33033,25.466019267,-80.4307136469999,160,"449 SE 31 AVE, HOMESTEAD, FL, 33033","Match","Exact","449 SE 31ST AVE, HOMESTEAD, FL, 33033",632007408,"L"
216161,"449 SHADOWOOD DRIVE","RIDGELAND","MS",39157,32.4234087360001,-90.1180965089999,161,"449 SHADOWOOD DRIVE, RIDGELAND, MS, 39157","Match","Exact","449 SHADOWOOD DR, RIDGELAND, MS, 39157",637800816,"R"
216162,"449 SKYLINE DR","VALLEJO","CA",94591,38.1173665600001,-122.223656423,162,"449 SKYLINE DR, VALLEJO, CA, 94591","Match","Exact","449 SKYLINE DR, VALLEJO, CA, 94591",192528429,"R"
216163,"449 SOUTH 12TH STREET NUMBER 806","TAMPA","FL",33602,27.9442850020001,-82.4472663069999,163,"449 SOUTH 12TH STREET NUMBER 806, TAMPA, FL, 33602","Match","Exact","449 S 12TH ST, TAMPA, FL, 33602",104530870,"R"
216164,"449 ST ANDREWS DRIVE","BARBOURSVILLE","WV",25504,38.401284972,-82.30907623,164,"449 ST ANDREWS DRIVE, BARBOURSVILLE, WV, 25504","Match","Exact","449 ST ANDREWS DR, BARBOURSVILLE, WV, 25504",101343102,"R"
216165,"449 TAVA LANE","PALM DESERT","CA",92211,33.745714396,-116.348095253,165,"449 TAVA LANE, PALM DESERT, CA, 92211","Match","Exact","449 TAVA LN, PALM DESERT, CA, 92211",194793844,"L"
216166,"449 TEAL LANE","TALLAHASSEE","FL",32308,30.463537973,-84.2471259499999,166,"449 TEAL LANE, TALLAHASSEE, FL, 32308","Match","Exact","449 TEAL LN, TALLAHASSEE, FL, 32308",82883506,"L"
216167,"449 TENNENT ROAD","MORGANVILLE","NJ",7751,40.3373959210001,-74.293661458,167,"449 TENNENT ROAD, MORGANVILLE, NJ, 7751","Match","Exact","449 TENNENT RD, MORGANVILLE, NJ, 07751",90532753,"R"
216168,"449 TRAPELO RD","BELMONT","MA",2478,42.386842567,-71.187466338,168,"449 TRAPELO RD, BELMONT, MA, 2478","Match","Exact","449 TRAPELO RD, BELMONT, MA, 02478",86891076,"R"
216169,"449 W FOOTHILL BLVD  301","GLENDORA","CA",91741,34.136064155,-117.860001447,169,"449 W FOOTHILL BLVD  301, GLENDORA, CA, 91741","Match","Non_Exact","449 E FOOTHILL BLVD, GLENDORA, CA, 91741",142783157,"L"
216170,"449 W FOOTHILL BLVD STE176","GLENDORA","CA",91741,34.136064155,-117.860001447,170,"449 W FOOTHILL BLVD STE176, GLENDORA, CA, 91741","Match","Non_Exact","449 E FOOTHILL BLVD, GLENDORA, CA, 91741",142783157,"L"
216171,"449 W KENILWORTH AVENUE","PALATINE","IL",60067,42.1067470620001,-88.055316771,171,"449 W KENILWORTH AVENUE, PALATINE, IL, 60067","Match","Exact","449 W KENILWORTH AVE, PALATINE, IL, 60067",112385063,"L"
216172,"449 W SILVER STAR RD PO BOX 762","OCOEE","FL",34761,NA,NA,172,"449 W SILVER STAR RD PO BOX 762, OCOEE, FL, 34761","Tie",NA,NA,NA,NA
216173,"449 W SILVER STAR ROAD SUITE 215","OCOEE","FL",34761,NA,NA,173,"449 W SILVER STAR ROAD SUITE 215, OCOEE, FL, 34761","Tie",NA,NA,NA,NA
216174,"449 WEST FOOTHILL BLVD  SUITE 223","GLENDORA","CA",91741,34.136063924,-117.860031377,174,"449 WEST FOOTHILL BLVD  SUITE 223, GLENDORA, CA, 91741","Match","Non_Exact","449 E FOOTHILL BLVD, GLENDORA, CA, 91741",142783157,"L"
216175,"4490 ACACIA LANE UNIT 101","STERLING","VA",20166,NA,NA,175,"4490 ACACIA LANE UNIT 101, STERLING, VA, 20166","No_Match",NA,NA,NA,NA
216176,"4490 CAMROSE LANE","WEST PALM BEACH","FL",33417,26.74273995,-80.115429176,176,"4490 CAMROSE LANE, WEST PALM BEACH, FL, 33417","Match","Exact","4490 CAMROSE LN, WEST PALM BEACH, FL, 33417",115343707,"R"
216177,"4490 CHALMETTE CT","PORT ORANGE","FL",32127,29.1289300980001,-80.995699676,177,"4490 CHALMETTE CT, PORT ORANGE, FL, 32127","Match","Exact","4490 CHALMETTE CT, PORT ORANGE, FL, 32127",94559179,"L"
216178,"4490 E CR800 N","FRANKFORT","IN",46041,40.4023207400001,-86.4214574869999,178,"4490 E CR800 N, FRANKFORT, IN, 46041","Match","Non_Exact","4490 E CO RD 800 N, FRANKFORT, IN, 46041",27225435,"L"
216179,"4490 E UNIVERSITY AVE","GEORGETOWN","TX",78626,NA,NA,179,"4490 E UNIVERSITY AVE, GEORGETOWN, TX, 78626","No_Match",NA,NA,NA,NA
216180,"4490 E UNIVERSITY AVE","GEORGETOWN","TX",78628,NA,NA,180,"4490 E UNIVERSITY AVE, GEORGETOWN, TX, 78628","No_Match",NA,NA,NA,NA
216181,"4490 E UNIVERSITY AVENUE","GEORGETOWN","TX",78626,NA,NA,181,"4490 E UNIVERSITY AVENUE, GEORGETOWN, TX, 78626","No_Match",NA,NA,NA,NA
216182,"4490 E UNIVERSITY DRIVE","GEORGETOWN","TX",78626,NA,NA,182,"4490 E UNIVERSITY DRIVE, GEORGETOWN, TX, 78626","No_Match",NA,NA,NA,NA
216183,"4490 EAST UNIVERSITY AVENUE","GEORGETOWN,","TX",78626,NA,NA,183,"4490 EAST UNIVERSITY AVENUE, GEORGETOWN,, TX, 78626","No_Match",NA,NA,NA,NA
216184,"4490 ELDORADO PKWY STE 1911","MCKINNEY","TX",75070,33.1696926500001,-96.6733098029999,184,"4490 ELDORADO PKWY STE 1911, MCKINNEY, TX, 75070","Match","Non_Exact","4490 W ELDORADO PKWY, MCKINNEY, TX, 75070",210482855,"L"
216185,"4490 HOLLAND OFFICE PARK SUITE 101","VIRGINIA BEACH","VA",23452,36.8284367640001,-76.1337083069999,185,"4490 HOLLAND OFFICE PARK SUITE 101, VIRGINIA BEACH, VA, 23452","Match","Exact","4490 HOLLAND OFFICE PARK, VA BCH, VA, 23452",122291910,"R"
216186,"4490 ISLAND REEF DR","WELLINGTON","FL",33449,26.6147788390001,-80.230934285,186,"4490 ISLAND REEF DR, WELLINGTON, FL, 33449","Match","Exact","4490 ISLAND REEF DR, WELLINGTON, FL, 33449",115571570,"L"
216187,"4490 JACKSON ST","RIVERSIDE","CA",92503,33.935288573,-117.447885978,187,"4490 JACKSON ST, RIVERSIDE, CA, 92503","Match","Exact","4490 JACKSON ST, RIVERSIDE, CA, 92503",609003976,"L"
216188,"4490 NORQUEST BLVD","AUSTINTOWN","OH",44515,41.10367569,-80.736045825,188,"4490 NORQUEST BLVD, AUSTINTOWN, OH, 44515","Match","Exact","4490 NORQUEST BLVD, AUSTINTOWN, OH, 44515",64591766,"R"
216189,"4490 PORTOFINO WAY APT 202","WEST PALM BEACH","FL",33409,26.7429945260001,-80.107033884,189,"4490 PORTOFINO WAY APT 202, WEST PALM BEACH, FL, 33409","Match","Exact","4490 PORTOFINO WAY, WEST PALM BEACH, FL, 33409",618464707,"L"
216190,"4490 RED FOREST ROAD","MONUMENT","CO",80132,39.0932591750001,-104.910062169,190,"4490 RED FOREST ROAD, MONUMENT, CO, 80132","Match","Exact","4490 RED FOREST RD, MONUMENT, CO, 80132",647964832,"R"
216191,"4490 WILDBROOKE PARKWAY","CUMMING","GA",30041,NA,NA,191,"4490 WILDBROOKE PARKWAY, CUMMING, GA, 30041","No_Match",NA,NA,NA,NA
216192,"44900 ACACIA LANE STE 101","STERLING","VA",20166,38.9959335630001,-77.447748616,192,"44900 ACACIA LANE STE 101, STERLING, VA, 20166","Match","Exact","44900 ACACIA LN, STERLING, VA, 20166",62362861,"L"
216193,"44900 CORTE RODRIGUEZ","TEMECULA","CA",92592,33.4749472130001,-117.074444437,193,"44900 CORTE RODRIGUEZ, TEMECULA, CA, 92592","Match","Exact","44900 CORTE RODRIGUEZ, TEMECULA, CA, 92592",194827431,"L"
216194,"44901 TROTSDALE DRIVE","TEMECULA","CA",92592,33.470539177,-117.120905313,194,"44901 TROTSDALE DRIVE, TEMECULA, CA, 92592","Match","Exact","44901 TROTSDALE DR, TEMECULA, CA, 92592",194828502,"R"
216195,"44904 W MIRAFLORES ST","MARICOPA","AZ",85139,33.067256322,-112.050254451,195,"44904 W MIRAFLORES ST, MARICOPA, AZ, 85139","Match","Exact","44904 MIRAFLORES ST, MARICOPA, AZ, 85139",129252846,"R"
216196,"44909 MUIRFILED DR","TEMECULA","CA",92592,33.4705390600001,-117.119496159,196,"44909 MUIRFILED DR, TEMECULA, CA, 92592","Match","Non_Exact","44909 MUIRFIELD DR, TEMECULA, CA, 92592",194828034,"R"
216197,"4491 CANAAN PLACE DR C","WINSTON SALEM","NC",27105,36.1507814300001,-80.203384871,197,"4491 CANAAN PLACE DR C, WINSTON SALEM, NC, 27105","Match","Exact","4491 CANAAN PLACE DR, WINSTON SALEM, NC, 27105",84695124,"R"
216198,"4491 CANAAN PLACE DR","WINSTON SALEM","NC",27105,36.1507814300001,-80.203384871,198,"4491 CANAAN PLACE DR, WINSTON SALEM, NC, 27105","Match","Exact","4491 CANAAN PLACE DR, WINSTON SALEM, NC, 27105",84695124,"R"
216199,"4491 CHARDONNAY DR","VIERA","FL",32955,28.2746998970001,-80.7329886909999,199,"4491 CHARDONNAY DR, VIERA, FL, 32955","Match","Exact","4491 CHARDONNAY DR, VIERA, FL, 32955",601723292,"L"
216200,"4491 CHESHIRE PLAZA NO 55","DALE CITY","VA",22193,NA,NA,200,"4491 CHESHIRE PLAZA NO 55, DALE CITY, VA, 22193","No_Match",NA,NA,NA,NA
216201,"4491 CHESHIRE STATION PLAZA 2024","WOODBRIDGE","VA",22193,38.6464871220001,-77.3337725229999,201,"4491 CHESHIRE STATION PLAZA 2024, WOODBRIDGE, VA, 22193","Match","Exact","4491 CHESHIRE STATION PLZ, WOODBRIDGE, VA, 22193",634553157,"L"
216202,"4491 MACBETH CIRCLE","FREMONT","CA",94555,37.5730513730001,-122.048200236,202,"4491 MACBETH CIRCLE, FREMONT, CA, 94555","Match","Exact","4491 MACBETH CIR, FREMONT, CA, 94555",125026744,"L"
216203,"4491 N RAINBOW BLVD","LAS VEGAS","NV",89108,36.2427490680001,-115.24220988,203,"4491 N RAINBOW BLVD, LAS VEGAS, NV, 89108","Match","Exact","4491 N RAINBOW BLVD, LAS VEGAS, NV, 89108",201935271,"L"
216204,"4491 PINE HALL RD","WINSTON-SALEM","NC",27051,36.195275381,-80.143498021,204,"4491 PINE HALL RD, WINSTON-SALEM, NC, 27051","Match","Non_Exact","4491 PINE HALL RD, WALKERTOWN, NC, 27051",635546203,"R"
216205,"4491 SPRINGFIELD ROAD","GLEN ALLEN","VA",23060,37.652837735,-77.5615321399999,205,"4491 SPRINGFIELD ROAD, GLEN ALLEN, VA, 23060","Match","Exact","4491 SPRINGFIELD RD, GLEN ALLEN, VA, 23060",106687324,"R"
216206,"44911 EHRLICH/ELM AVE","LANCASTER","CA",93534,NA,NA,206,"44911 EHRLICH/ELM AVE, LANCASTER, CA, 93534","No_Match",NA,NA,NA,NA
216207,"4492 CAMINO DE LA PLAZA  662","SAN YSIDRO","CA",92173,32.545427825,-117.03970485,207,"4492 CAMINO DE LA PLAZA  662, SAN YSIDRO, CA, 92173","Match","Exact","4492 CAMINO DE LA PLZ, SAN YSIDRO, CA, 92173",195654452,"L"
216208,"4492 CAMINO DE LA PLAZA 662","SAN YSIDRO","CA",92173,32.545427825,-117.03970485,208,"4492 CAMINO DE LA PLAZA 662, SAN YSIDRO, CA, 92173","Match","Exact","4492 CAMINO DE LA PLZ, SAN YSIDRO, CA, 92173",195654452,"L"
216209,"4492 GREYSTONE OAKS COVE","ARLINGTON","TN",38002,35.248478601,-89.8065986139999,209,"4492 GREYSTONE OAKS COVE, ARLINGTON, TN, 38002","Match","Non_Exact","4492 GREYSTONE OAKS COVE S, ARLINGTON, TN, 38002",607515535,"L"
216210,"4492 NORTH CANOE TERRACE","HERNANDO","FL",34442,28.9292273520001,-82.3742688469999,210,"4492 NORTH CANOE TERRACE, HERNANDO, FL, 34442","Match","Exact","4492 N CANOE TER, HERNANDO, FL, 34442",86196658,"L"
216211,"44920 W HATHAWAY AVE UNIT 1727","MARICOPA","AZ",85139,33.0627684240001,-112.051421183,211,"44920 W HATHAWAY AVE UNIT 1727, MARICOPA, AZ, 85139","Match","Non_Exact","44920 W HATHAWAY AVE, MARICOPA, AZ, 85139",639757444,"R"
216212,"44920 W HATHAWAY AVE UNIT 578","MARICOPA","AZ",85139,33.0627684240001,-112.051421183,212,"44920 W HATHAWAY AVE UNIT 578, MARICOPA, AZ, 85139","Match","Non_Exact","44920 W HATHAWAY AVE, MARICOPA, AZ, 85139",639757444,"R"
216213,"44921 ROAD 756","ELM CREEK","NE",68836,40.786450146,-99.441770178,213,"44921 ROAD 756, ELM CREEK, NE, 68836","Match","Exact","44921 RD 756, ELM CREEK, NE, 68836",650757782,"L"
216214,"44924 5TH STREET EAST","LANCASTER","CA",93535,34.6992906300001,-118.121488514,214,"44924 5TH STREET EAST, LANCASTER, CA, 93535","Match","Exact","44924 5TH ST E, LANCASTER, CA, 93535",141840810,"R"
216215,"44927 DATE AVE UNIT 10","LANCASTER","CA",93534,34.6985451460001,-118.140855989,215,"44927 DATE AVE UNIT 10, LANCASTER, CA, 93534","Match","Exact","44927 DATE AVE, LANCASTER, CA, 93534",142706423,"R"
216216,"4493 GONDOLIER RD","SPRING HILL","FL",34609,28.5006021250001,-82.520934465,216,"4493 GONDOLIER RD, SPRING HILL, FL, 34609","Match","Exact","4493 GONDOLIER RD, SPRING HILL, FL, 34609",85424103,"L"
216217,"4493 MAYO","MEMPHIS","TN",38182,NA,NA,217,"4493 MAYO, MEMPHIS, TN, 38182","No_Match",NA,NA,NA,NA
216218,"4493 N OCEAN BLVD","DELRAY BEACH","FL",33483,26.5034585970001,-80.053321572,218,"4493 N OCEAN BLVD, DELRAY BEACH, FL, 33483","Match","Exact","4493 N OCEAN BLVD, DELRAY BEACH, FL, 33483",647663265,"R"
216219,"4493 NORTH UNIVERSITY DRIVE","LAUDERHILL","FL",33351,26.174066694,-80.255332911,219,"4493 NORTH UNIVERSITY DRIVE, LAUDERHILL, FL, 33351","Match","Exact","4493 N UNIVERSITY DR, LAUDERHILL, FL, 33351",637689392,"R"
216220,"4493 PIEDMONT TRACE DRIVE","GREENSBORO","NC",27409,36.0471751470001,-79.9376624939999,220,"4493 PIEDMONT TRACE DRIVE, GREENSBORO, NC, 27409","Match","Exact","4493 PIEDMONT TRACE DR, GREENSBORO, NC, 27409",642868619,"L"
216221,"4493 TITANIC AVE","EL PASO","TX",79904,31.853385028,-106.437043369,221,"4493 TITANIC AVE, EL PASO, TX, 79904","Match","Exact","4493 TITANIC AVE, EL PASO, TX, 79904",189413279,"L"
216222,"4494 RISINGHILL RD","ALTADENA","CA",91001,34.2136879490001,-118.161449212,222,"4494 RISINGHILL RD, ALTADENA, CA, 91001","Match","Non_Exact","4494 RISING HILL RD, ALTADENA, CA, 91001",142816331,"R"
216223,"44940 COUNTY ROAD 54","OTIS","CO",80743,40.3519372440001,-102.852016815,223,"44940 COUNTY ROAD 54, OTIS, CO, 80743","Match","Exact","44940 CO RD 54, OTIS, CO, 80743",177849351,"L"
216224,"4495 ALPINE CIRCLE SE","RIO RANCHO","NM",87124,35.2369746570001,-106.64413953,224,"4495 ALPINE CIRCLE SE, RIO RANCHO, NM, 87124","Match","Exact","4495 ALPINE CIR SE, RIO RANCHO, NM, 87124",194033358,"R"
216225,"4495 AVERY ROAD","HILLIARD","OH",43026,40.043465435,-83.157432848,225,"4495 AVERY ROAD, HILLIARD, OH, 43026","Match","Exact","4495 AVERY RD, HILLIARD, OH, 43026",218692638,"L"
216226,"4495 BLUFF ROAD","PUTNAM","IL",61560,41.174658074,-89.390464714,226,"4495 BLUFF ROAD, PUTNAM, IL, 61560","Match","Exact","4495 BLUFF RD, PUTNAM, IL, 61560",8891821,"L"
216227,"4495 CALKINS RD APT 205","FLINT","MI",48532,43.0166083230001,-83.770890412,227,"4495 CALKINS RD APT 205, FLINT, MI, 48532","Match","Exact","4495 CALKINS RD, FLINT, MI, 48532",617947886,"L"
216228,"4495 CLEVELAND AVENUE","COLUMBUS","OH",43231,40.0609585810001,-82.952894063,228,"4495 CLEVELAND AVENUE, COLUMBUS, OH, 43231","Match","Exact","4495 CLEVELAND AVE, COLUMBUS, OH, 43231",135572097,"L"
216229,"4495 CRAWFORDVILLE HIGHWAY","CRAWFORDVILLE","FL",32327,30.1172019740001,-84.383445229,229,"4495 CRAWFORDVILLE HIGHWAY, CRAWFORDVILLE, FL, 32327","Match","Exact","4495 CRAWFORDVILLE HWY, CRAWFORDVILLE, FL, 32327",610456690,"R"
216230,"4495 FOX CREEK DRIVE","MARIETTA","GA",30062,34.0567022660001,-84.438342891,230,"4495 FOX CREEK DRIVE, MARIETTA, GA, 30062","Match","Exact","4495 FOX CREEK DR, MARIETTA, GA, 30062",17169666,"L"
216231,"4495 HALE PARKWAY SUITE 204","DENVER","CO",80220,39.7337340810001,-104.935123409,231,"4495 HALE PARKWAY SUITE 204, DENVER, CO, 80220","Match","Exact","4495 HALE PKWY, DENVER, CO, 80220",177312125,"L"
216232,"4495 HIDDEN GLEN DRIVE","ANTIOCH","CA",94531,37.9775150350001,-121.760307394,232,"4495 HIDDEN GLEN DRIVE, ANTIOCH, CA, 94531","Match","Exact","4495 HIDDEN GLEN DR, ANTIOCH, CA, 94531",192085160,"L"
216233,"4495 HILLSIDE AVENUE","CINCINNATI","OH",45233,39.0790961800001,-84.626318887,233,"4495 HILLSIDE AVENUE, CINCINNATI, OH, 45233","Match","Exact","4495 HILLSIDE AVE, CINCINNATI, OH, 45233",653653150,"L"
216234,"4495 MIDDLEWAY PIKE","KEARNEYSVILLE","WV",25430,39.314932265,-77.981919032,234,"4495 MIDDLEWAY PIKE, KEARNEYSVILLE, WV, 25430","Match","Exact","4495 MIDDLEWAY PIKE, KEARNEYSVILLE, WV, 25430",635729185,"R"
216235,"4495 S SANTA FE DR","ENGLEWOOD","CO",80110,39.634348894,-105.008128762,235,"4495 S SANTA FE DR, ENGLEWOOD, CO, 80110","Match","Exact","4495 S SANTA FE DR, ENGLEWOOD, CO, 80110",177333245,"R"
216236,"4495 SOUTH PECOS ROAD","LAS VEGAS","NV",89121,36.107810441,-115.100694103,236,"4495 SOUTH PECOS ROAD, LAS VEGAS, NV, 89121","Match","Exact","4495 S PECOS RD, LAS VEGAS, NV, 89121",201872294,"R"
216237,"4495 SOUTH STONE CREEK DRIVE","WEST HAVEN","UT",84401,41.1816900680001,-112.059629455,237,"4495 SOUTH STONE CREEK DRIVE, WEST HAVEN, UT, 84401","Match","Non_Exact","4495 S STONE CREEK RD, WEST HAVEN, UT, 84401",628883801,"R"
216238,"4495 W HACIENDA AVE SUITE 4","LAS VEGAS","NV",89118,36.0936167680001,-115.200338442,238,"4495 W HACIENDA AVE SUITE 4, LAS VEGAS, NV, 89118","Match","Non_Exact","4495 W HACIENDA AVE, LAS VEGAS, NV, 89118",201948951,"L"
216239,"44950 VISTA DUNES LANE APT 67","LA QUINTA","CA",92253,33.724501461,-116.288129379,239,"44950 VISTA DUNES LANE APT 67, LA QUINTA, CA, 92253","Match","Exact","44950 VISTA DUNES LN, LA QUINTA, CA, 92253",617916524,"R"
216240,"44955 SE CONNETT RD","CORBETT","OR",97019,45.4552219710001,-122.204893669,240,"44955 SE CONNETT RD, CORBETT, OR, 97019","Match","Exact","44955 SE CONNETT RD, CORBETT, OR, 97019",157924366,"L"
216241,"44959 WASHO CT","FREMONT","CA",94539,37.510185253,-121.921569846,241,"44959 WASHO CT, FREMONT, CA, 94539","Match","Exact","44959 WASHO CT, FREMONT, CA, 94539",125034424,"R"
216242,"4496 FLOYD DRIVE SW","MABLETON","GA",30126,33.8452972970001,-84.5854859,242,"4496 FLOYD DRIVE SW, MABLETON, GA, 30126","Match","Exact","4496 FLOYD DR SW, MABLETON, GA, 30126",618321789,"R"
216243,"4496 GOLDEN LAKE DR","SARASOTA","FL",34233,27.288339196,-82.4841873409999,243,"4496 GOLDEN LAKE DR, SARASOTA, FL, 34233","Match","Exact","4496 GOLDEN LAKE DR, SARASOTA, FL, 34233",651739766,"R"
216244,"4496 QUINTON DR","REDDING","CA",96001,40.574027765,-122.43652405,244,"4496 QUINTON DR, REDDING, CA, 96001","Match","Exact","4496 QUINTON DR, REDDING, CA, 96001",126668186,"L"
216245,"4496 SWEET WHISPER COVE","MEMPHIS","TN",38125,35.0260535420001,-89.804155894,245,"4496 SWEET WHISPER COVE, MEMPHIS, TN, 38125","Match","Exact","4496 SWEET WHISPER COVE, MEMPHIS, TN, 38125",618710091,"L"
216246,"44960 BISHOP TERRACE","ASHBURN","VA",20147,39.0644657830001,-77.44469466,246,"44960 BISHOP TERRACE, ASHBURN, VA, 20147","Match","Exact","44960 BISHOP TER, ASHBURN, VA, 20147",650859564,"L"
216247,"44961 COUGAR CIRCLE","FREMONT","CA",94539,37.510690804,-121.915872829,247,"44961 COUGAR CIRCLE, FREMONT, CA, 94539","Match","Exact","44961 COUGAR CIR, FREMONT, CA, 94539",606271654,"R"
216248,"44966 CREE CT","FREMONT","CA",94539,37.508126114,-121.929005969,248,"44966 CREE CT, FREMONT, CA, 94539","Match","Exact","44966 CREE CT, FREMONT, CA, 94539",125034393,"L"
216249,"4497 ASHER HEIGHTS  APARTMENT 306","COLORADO SPRINGS","CO",80917,38.899972968,-104.720381245,249,"4497 ASHER HEIGHTS  APARTMENT 306, COLORADO SPRINGS, CO, 80917","Match","Exact","4497 ASHER HTS, COLORADO SPRINGS, CO, 80917",650707902,"L"
216250,"4497 COUNTRY CLUB BOULEVARD","SOUTH CHARLESTON","WV",25309,38.3505243600001,-81.7220126,250,"4497 COUNTRY CLUB BOULEVARD, SOUTH CHARLESTON, WV, 25309","Match","Exact","4497 COUNTRY CLUB BLVD, S CHARLESTON, WV, 25309",78644179,"L"
216251,"4497 HEMPSTEAD 3","HOPE","AR",71801,NA,NA,251,"4497 HEMPSTEAD 3, HOPE, AR, 71801","No_Match",NA,NA,NA,NA
216252,"4497 ROSSER LOOP DRIVE","BESSEMER","AL",35022,33.3472787320001,-86.9862703859999,252,"4497 ROSSER LOOP DRIVE, BESSEMER, AL, 35022","Match","Exact","4497 ROSSER LOOP DR, BESSEMER, AL, 35022",646655495,"R"
216253,"4498 CARNES ROAD","ROSEBURG","OR",97471,43.149022985,-123.381295924,253,"4498 CARNES ROAD, ROSEBURG, OR, 97471","Match","Exact","4498 CARNES RD, ROSEBURG, OR, 97471",613835955,"L"
216254,"4498 CHURCHILL BOULEVARD","UNIVERSITY HEIGHTS","OH",44118,41.4957239060001,-81.518567493,254,"4498 CHURCHILL BOULEVARD, UNIVERSITY HEIGHTS, OH, 44118","Match","Exact","4498 CHURCHILL BLVD, UNIVERSITY HEIGHTS, OH, 44118",61126019,"R"
216255,"44984 - 189TH ST","HAYTI","SD",57241,NA,NA,255,"44984 - 189TH ST, HAYTI, SD, 57241","No_Match",NA,NA,NA,NA
216256,"4499 HENRY HUDSON PARKWAY","BRONX","NY",10471,40.890569204,-73.908617266,256,"4499 HENRY HUDSON PARKWAY, BRONX, NY, 10471","Match","Non_Exact","4499 HENRY HUDSON PKWY W, BRONX, NY, 10471",80310311,"L"
216257,"4499 HIGHWAY 302","OLIVE BRANCH","MS",38654,34.9627687220001,-89.694566843,257,"4499 HIGHWAY 302, OLIVE BRANCH, MS, 38654","Match","Non_Exact","4499 STATE HWY 302, OLIVE BRANCH, MS, 38654",608005293,"L"
216258,"4499 LILY BROOKE COURT","POWDER SPRINGS","GA",30127,33.845890379,-84.6848421,258,"4499 LILY BROOKE COURT, POWDER SPRINGS, GA, 30127","Match","Non_Exact","4499 LILLY BROOK CT, POWDER SPGS, GA, 30127",627725432,"R"
216259,"4499 POND HILL ROAD","SAN ANTONIO","TX",78231,NA,NA,259,"4499 POND HILL ROAD, SAN ANTONIO, TX, 78231","No_Match",NA,NA,NA,NA
216260,"4499 ROOSEVELT HWY","COLLEGE PARK","GA",30349,33.605152075,-84.5353741549999,260,"4499 ROOSEVELT HWY, COLLEGE PARK, GA, 30349","Match","Exact","4499 ROOSEVELT HWY, COLLEGE PARK, GA, 30349",647151866,"R"
216261,"4499 TOBAR STREET PORT","PORT SAINT LUCIE","FL",34953,NA,NA,261,"4499 TOBAR STREET PORT, PORT SAINT LUCIE, FL, 34953","No_Match",NA,NA,NA,NA
216262,"4499 TOWN HALL RD","PHELPS","WI",54554,46.065478216,-89.083815295,262,"4499 TOWN HALL RD, PHELPS, WI, 54554","Match","Exact","4499 TOWN HALL RD, PHELPS, WI, 54554",165559095,"R"
216263,"4499 VALLEY CIRCLE","FAYETTEVILLE","PA",17222,39.920623972,-77.54741938,263,"4499 VALLEY CIRCLE, FAYETTEVILLE, PA, 17222","Match","Exact","4499 VALLEY CIR, FAYETTEVILLE, PA, 17222",647531434,"L"
216264,"4499 VZCR 2318","CANTON","TX",75103,NA,NA,264,"4499 VZCR 2318, CANTON, TX, 75103","No_Match",NA,NA,NA,NA
216265,"44991 EAST END RD","HOMER","AK",99603,59.789999374,-151.092240858,265,"44991 EAST END RD, HOMER, AK, 99603","Match","Exact","44991 E END RD, HOMER, AK, 99603",647208288,"L"
216266,"449A MONROE ST","BROOKLYN","NY",11221,40.6867761180001,-73.93929596,266,"449A MONROE ST, BROOKLYN, NY, 11221","Match","Exact","449 MONROE ST, BROOKLYN, NY, 11221",59079198,"L"
216267,"449A MONROE STREET","BROOKLYN","NY",11221,40.6867761180001,-73.93929596,267,"449A MONROE STREET, BROOKLYN, NY, 11221","Match","Exact","449 MONROE ST, BROOKLYN, NY, 11221",59079198,"L"
216268,"449R WESTERN AVENUE","GLOUCESTER","MA",1930,42.591190999,-70.694835316,268,"449R WESTERN AVENUE, GLOUCESTER, MA, 1930","Match","Exact","449 WESTERN AVE, GLOUCESTER, MA, 01930",86696288,"L"
216269,"44A CUMBERLAND STREET","BRUNSWICK","ME",4011,43.915083135,-69.97121724,269,"44A CUMBERLAND STREET, BRUNSWICK, ME, 4011","Match","Exact","44 CUMBERLAND ST, BRUNSWICK, ME, 04011",78007572,"L"
216270,"44B DUCK POND RD","NATCHEZ","MS",39120,31.5419381770001,-91.272746037,270,"44B DUCK POND RD, NATCHEZ, MS, 39120","Match","Exact","44 DUCK POND RD, NATCHEZ, MS, 39120",79850060,"L"
216271,"44B HUDSON VIEW DR","BEACON","NY",12508,41.526740793,-73.977480542,271,"44B HUDSON VIEW DR, BEACON, NY, 12508","Match","Exact","44 HUDSON VIEW DR, BEACON, NY, 12508",4200802,"L"
216272,"44B MILL ST","HEALDSBURG","CA",95448,38.607801689,-122.871296585,272,"44B MILL ST, HEALDSBURG, CA, 95448","Match","Exact","44 MILL ST, HEALDSBURG, CA, 95448",606659308,"L"
216273,"44O7 S OLIVE AVENUE","BROKEN ARROW","OK",74011,NA,NA,273,"44O7 S OLIVE AVENUE, BROKEN ARROW, OK, 74011","No_Match",NA,NA,NA,NA
216274,"44W670 KESLINGER ROAD","ELBURN","IL",60119,41.8814351300001,-88.4854795429999,274,"44W670 KESLINGER ROAD, ELBURN, IL, 60119","Match","Exact","44W670 KESLINGER RD, ELBURN, IL, 60119",119532248,"L"
216275,"44W906 BERNER RD","HAMPSHIRE","IL",60140,42.0740450330001,-88.487244915,275,"44W906 BERNER RD, HAMPSHIRE, IL, 60140","Match","Exact","44W906 BERNER RD, HAMPSHIRE, IL, 60140",625356624,"L"
216276,"45 16TH AVE SW","CEDAR RAPIDS","IA",52404,41.9650423910001,-91.660851985,276,"45 16TH AVE SW, CEDAR RAPIDS, IA, 52404","Match","Exact","45 16TH AVE SW, CEDAR RAPIDS, IA, 52404",17026312,"L"
216277,"45 1ST AVENUE STE 202","CHARLESTOWN","MA",2129,42.375855508,-71.052919056,277,"45 1ST AVENUE STE 202, CHARLESTOWN, MA, 2129","Match","Exact","45 1ST AVE, CHARLESTOWN, MA, 02129",85721142,"L"
216278,"45 524A KAMEHAMEHA HIGHWAY","KANEOHE","HI",96744,NA,NA,278,"45 524A KAMEHAMEHA HIGHWAY, KANEOHE, HI, 96744","No_Match",NA,NA,NA,NA
216279,"45 AINSWORTH AVE","EAST BRUNSWICK","NJ",8816,40.4753049660001,-74.402129943,279,"45 AINSWORTH AVE, EAST BRUNSWICK, NJ, 8816","Match","Exact","45 AINSWORTH AVE, E BRUNSWICK, NJ, 08816",623827863,"R"
216280,"45 ALABAMA RD N STE 3","LEHIGH ACRES","FL",33970,26.601832121,-81.6456476559999,280,"45 ALABAMA RD N STE 3, LEHIGH ACRES, FL, 33970","Match","Non_Exact","45 ALABAMA RD N, LEHIGH ACRES, FL, 33936",117987779,"L"
216281,"45 ALDER STREET NW","EPHRATA","WA",98823,47.3206136570001,-119.54988254,281,"45 ALDER STREET NW, EPHRATA, WA, 98823","Match","Exact","45 ALDER ST NW, EPHRATA, WA, 98823",157086181,"L"
216282,"45 ALLEN ST APT 11E","NEW YORK","NY",10002,40.716333821,-73.991970352,282,"45 ALLEN ST APT 11E, NEW YORK, NY, 10002","Match","Exact","45 ALLEN ST, NEW YORK, NY, 10002",59654026,"L"
216283,"45 ALLERTON AVENUE","BRATTLEBORO","VT",5301,42.8517886430001,-72.578531426,283,"45 ALLERTON AVENUE, BRATTLEBORO, VT, 5301","Match","Exact","45 ALLERTON AVE, BRATTLEBORO, VT, 05301",171112051,"R"
216284,"45 ALMERIA","CORAL GABLES","FL",33134,25.7472892710001,-80.255457599,284,"45 ALMERIA, CORAL GABLES, FL, 33134","Match","Non_Exact","45 ALMERIA AVE, CORAL GABLES, FL, 33134",116014225,"R"
216285,"45 AMHERST RD","PELHAM","MA",1002,42.378559571,-72.468630112,285,"45 AMHERST RD, PELHAM, MA, 1002","Match","Exact","45 AMHERST RD, PELHAM, MA, 01002",39845447,"L"
216286,"45 AMIS DRIVE","SHALIMAR","FL",32579,30.442060773,-86.567396821,286,"45 AMIS DRIVE, SHALIMAR, FL, 32579","Match","Exact","45 AMIS DR, SHALIMAR, FL, 32579",74392238,"L"
216287,"45 ANN LEE LANE","TAMARAC","FL",33319,26.1993322660001,-80.2271731229999,287,"45 ANN LEE LANE, TAMARAC, FL, 33319","Match","Exact","45 ANN LEE LN, TAMARAC, FL, 33319",114705354,"R"
216288,"45 ARABIAN DRIVE","CHARLSETON","SC",29407,32.816417765,-80.026236909,288,"45 ARABIAN DRIVE, CHARLSETON, SC, 29407","Match","Non_Exact","45 ARABIAN DR, CHARLESTON, SC, 29407",108801131,"L"
216289,"45 ARCHIBALD AVE","METHUEN","MA",1844,42.7542602280001,-71.160642631,289,"45 ARCHIBALD AVE, METHUEN, MA, 1844","Match","Exact","45 ARCHIBALD AVE, METHUEN, MA, 01844",86670372,"L"
216290,"45 ASTEROID TRAIL","GRAY COURT","SC",29645,34.6185551230001,-82.075738342,290,"45 ASTEROID TRAIL, GRAY COURT, SC, 29645","Match","Exact","45 ASTEROID TRL, GRAY COURT, SC, 29645",44439446,"R"
216291,"45 AUSTIN AVENUE","ASHEVILLE","NC",28801,35.6112848880001,-82.553713327,291,"45 AUSTIN AVENUE, ASHEVILLE, NC, 28801","Match","Exact","45 AUSTIN AVE, ASHEVILLE, NC, 28801",36844977,"R"
216292,"45 AUTUMN ROAD","WEST SPRINGFIELD","MA",1089,42.1201651370001,-72.648738209,292,"45 AUTUMN ROAD, WEST SPRINGFIELD, MA, 1089","Match","Exact","45 AUTUMN RD, W SPRINGFIELD, MA, 01089",4032222,"L"
216293,"45 AVE ANTONIO RIVERA COMUNIDAD GON","SAN SEBASTIAN","PR",685,NA,NA,293,"45 AVE ANTONIO RIVERA COMUNIDAD GON, SAN SEBASTIAN, PR, 685","No_Match",NA,NA,NA,NA
216294,"45 BARNSTABLE ROAD","NORFOLK","MA",2056,42.1272479620001,-71.350179285,294,"45 BARNSTABLE ROAD, NORFOLK, MA, 2056","Match","Exact","45 BARNSTABLE RD, NORFOLK, MA, 02056",631988340,"L"
216295,"45 BARTLETT ST UNIT 201","SAN FRANCISCO","CA",94110,37.756238142,-122.41993107,295,"45 BARTLETT ST UNIT 201, SAN FRANCISCO, CA, 94110","Match","Exact","45 BARTLETT ST, SAN FRANCISCO, CA, 94110",192288296,"L"
216296,"45 BAY ROAD","NORTON","MA",2766,41.9732072940001,-71.12712464,296,"45 BAY ROAD, NORTON, MA, 2766","Match","Exact","45 BAY RD, NORTON, MA, 02766",46759282,"L"
216297,"45 BEECH STREET","NORTH ARLINGTON","NJ",7031,40.7809275070001,-74.1335073239999,297,"45 BEECH STREET, NORTH ARLINGTON, NJ, 7031","Match","Exact","45 BEECH ST, N ARLINGTON, NJ, 07031",647241224,"L"
216298,"45 BEL AIRE CT","HILLSBOROUGH","CA",94010,37.53564112,-122.342475573,298,"45 BEL AIRE CT, HILLSBOROUGH, CA, 94010","Match","Exact","45 BEL AIRE CT, HILLSBOROUGH, CA, 94010",192378168,"L"
216299,"45 BENTLEY DRIVE","STERLING","VA",20165,39.0513860930001,-77.416123972,299,"45 BENTLEY DRIVE, STERLING, VA, 20165","Match","Exact","45 BENTLEY DR, STERLING, VA, 20165",62326863,"L"
216300,"45 BETH AVENUE","LEOMINSTER","MA",1453,42.495673627,-71.742966263,300,"45 BETH AVENUE, LEOMINSTER, MA, 1453","Match","Exact","45 BETH AVE, LEOMINSTER, MA, 01453",40048597,"R"
216301,"45 BIRCH STREET","ROSLINDALE","MA",2131,42.2859008930001,-71.131141644,301,"45 BIRCH STREET, ROSLINDALE, MA, 2131","Match","Exact","45 BIRCH ST, ROSLINDALE, MA, 02131",85703531,"R"
216302,"45 BIRDSONG LN","TAYLORS","SC",29687,34.9222787080001,-82.332080848,302,"45 BIRDSONG LN, TAYLORS, SC, 29687","Match","Exact","45 BIRDSONG LN, TAYLORS, SC, 29687",624955201,"L"
216303,"45 BOW ST","WOBURN","MA",1801,42.4854637760001,-71.140867815,303,"45 BOW ST, WOBURN, MA, 1801","Match","Exact","45 BOW ST, WOBURN, MA, 01801",86886918,"R"
216304,"45 BRADLEY ROAD","WESTON","CT",6883,41.245732291,-73.3396240709999,304,"45 BRADLEY ROAD, WESTON, CT, 6883","Match","Exact","45 BRADLEY RD, WESTON, CT, 06883",3237425,"R"
216305,"45 BRIAR CREST MANOR","LITITZ","PA",17543,40.15327045,-76.233780349,305,"45 BRIAR CREST MANOR, LITITZ, PA, 17543","Match","Exact","45 BRIAR CREST MANOR, LITITZ, PA, 17543",179656748,"L"
216306,"45 BRIDGET ST  APT 44","PELHAM","NH",3076,NA,NA,306,"45 BRIDGET ST  APT 44, PELHAM, NH, 3076","No_Match",NA,NA,NA,NA
216307,"45 BRISTOL ROAD","PISCATAWAY","NJ",8854,40.5582707820001,-74.498397406,307,"45 BRISTOL ROAD, PISCATAWAY, NJ, 8854","Match","Exact","45 BRISTOL RD, PISCATAWAY, NJ, 08854",636497045,"L"
216308,"45 BROADWAY  SUITE 630","NEW YORK","NY",10006,40.706483097,-74.0127525189999,308,"45 BROADWAY  SUITE 630, NEW YORK, NY, 10006","Match","Exact","45 BROADWAY, NEW YORK, NY, 10006",59659614,"L"
216309,"45 BRONTE WAY   APT 20A","MARLBOROUGH","MA",1752,42.366740114,-71.5876411949999,309,"45 BRONTE WAY   APT 20A, MARLBOROUGH, MA, 1752","Match","Exact","45 BRONTE WAY, MARLBOROUGH, MA, 01752",646735932,"R"
216310,"45 BRUNSWICK AVENUE","FORT FAIRFIELD","ME",4742,46.767924199,-67.836422462,310,"45 BRUNSWICK AVENUE, FORT FAIRFIELD, ME, 4742","Match","Exact","45 BRUNSWICK AVE, FORT FAIRFIELD, ME, 04742",123832015,"R"
216311,"45 BUCHANAN STREET NE","WASHINGTON","DC",20011,38.9474254020001,-77.0075173979999,311,"45 BUCHANAN STREET NE, WASHINGTON, DC, 20011","Match","Exact","45 BUCHANAN ST NE, WASHINGTON, DC, 20011",638667082,"R"
216312,"45 BURBANK DR NW","ATLANTA","GA",30314,33.7561789920001,-84.428044756,312,"45 BURBANK DR NW, ATLANTA, GA, 30314","Match","Exact","45 BURBANK DR NW, ATLANTA, GA, 30314",17414268,"R"
216313,"45 CAMINO DE LAS PIEDRAS","PLACITAS","NM",87043,NA,NA,313,"45 CAMINO DE LAS PIEDRAS, PLACITAS, NM, 87043","No_Match",NA,NA,NA,NA
216314,"45 CANE BRAKE CIR","TOCCOA","GA",30577,34.582123299,-83.319898998,314,"45 CANE BRAKE CIR, TOCCOA, GA, 30577","Match","Exact","45 CANE BRAKE CIR, TOCCOA, GA, 30577",97862616,"L"
216315,"45 CAREY AVE STE 211","BUTLER","NJ",7405,40.9994102700001,-74.337033606,315,"45 CAREY AVE STE 211, BUTLER, NJ, 7405","Match","Exact","45 CAREY AVE, BUTLER, NJ, 07405",60427366,"R"
216316,"45 CATHEDRAL DR","ATTLEBORO","MA",2703,41.9094896760001,-71.303696891,316,"45 CATHEDRAL DR, ATTLEBORO, MA, 2703","Match","Exact","45 CATHEDRAL DR, ATTLEBORO, MA, 02703",46780902,"R"
216317,"45 CENTRE STREET","CONCORD","NH",3301,43.2070271850001,-71.5412223819999,317,"45 CENTRE STREET, CONCORD, NH, 3301","Match","Exact","45 CENTRE ST, CONCORD, NH, 03301",117716430,"R"
216318,"45 CHRISTOPHER STREET 9F","NEW YORK","NY",10014,40.7336760630001,-74.002432835,318,"45 CHRISTOPHER STREET 9F, NEW YORK, NY, 10014","Match","Exact","45 CHRISTOPHER ST, NEW YORK, NY, 10014",59661188,"R"
216319,"45 CHURCHILL DRIVE","MILLVILLE","NJ",8332,39.3810178960001,-75.06189528,319,"45 CHURCHILL DRIVE, MILLVILLE, NJ, 8332","Match","Exact","45 CHURCHILL DR, MILLVILLE, NJ, 08332",174126911,"R"
216320,"45 CLEARWATER POINT RD","CROPWELL","AL",35054,33.468198946,-86.316316345,320,"45 CLEARWATER POINT RD, CROPWELL, AL, 35054","Match","Exact","45 CLEARWATER POINT RD, CROPWELL, AL, 35054",66860197,"R"
216321,"45 CLIFFDALE AVENUE","CRANSTON","RI",2905,41.7720228050001,-71.4056773469999,321,"45 CLIFFDALE AVENUE, CRANSTON, RI, 2905","Match","Exact","45 CLIFFDALE AVE, CRANSTON, RI, 02905",642649249,"R"
216322,"45 CLIFFMOUNT DRIVE","BLOOMFIELD","CT",6002,41.8243213640001,-72.760127848,322,"45 CLIFFMOUNT DRIVE, BLOOMFIELD, CT, 6002","Match","Exact","45 CLIFFMOUNT DR, BLOOMFIELD, CT, 06002",3485129,"L"
216323,"45 CLUB FOREST LANE","GREENVILLE","SC",29605,34.8145646520001,-82.402060193,323,"45 CLUB FOREST LANE, GREENVILLE, SC, 29605","Match","Exact","45 CLUB FOREST LN, GREENVILLE, SC, 29605",635574844,"L"
216324,"45 COBBLESTONE DRIVE","HUDSON","NH",3051,NA,NA,324,"45 COBBLESTONE DRIVE, HUDSON, NH, 3051","No_Match",NA,NA,NA,NA
216325,"45 COLGATE DRIVE","NORTH ANDOVER","MA",1845,42.7061996080001,-71.1196866989999,325,"45 COLGATE DRIVE, NORTH ANDOVER, MA, 1845","Match","Exact","45 COLGATE DR, NORTH ANDOVER, MA, 01845",86665763,"R"
216326,"45 COLUMBIA ST","BANGOR","ME",4401,44.801033112,-68.772474457,326,"45 COLUMBIA ST, BANGOR, ME, 4401","Match","Exact","45 COLUMBIA ST, BANGOR, ME, 04401",123628530,"R"
216327,"45 COLUMBINE ROAD","NEWTON","MA",2459,42.2992692110001,-71.178388308,327,"45 COLUMBINE ROAD, NEWTON, MA, 2459","Match","Exact","45 COLUMBINE RD, NEWTON, MA, 02459",86867290,"L"
216328,"45 COLVIN AVE","ALBANY","NY",12206,42.678986701,-73.795186787,328,"45 COLVIN AVE, ALBANY, NY, 12206","Match","Exact","45 COLVIN AVE, ALBANY, NY, 12206",18360408,"R"
216329,"45 COMM PARK LANE","ANGIER","NC",27501,NA,NA,329,"45 COMM PARK LANE, ANGIER, NC, 27501","No_Match",NA,NA,NA,NA
216330,"45 CONKLING STREET","SAN FRANCISCO","CA",94124,37.7356771870001,-122.401907043,330,"45 CONKLING STREET, SAN FRANCISCO, CA, 94124","Match","Exact","45 CONKLING ST, SAN FRANCISCO, CA, 94124",192302799,"R"
216331,"45 CONNOLEY CIRCLE","CHULA VISTA","CA",91911,32.598036091,-117.053810997,331,"45 CONNOLEY CIRCLE, CHULA VISTA, CA, 91911","Match","Exact","45 CONNOLEY CIR, CHULA VISTA, CA, 91911",195358484,"R"
216332,"45 CORY COURT","COVINGTON","GA",30016,33.5742716170001,-83.910002124,332,"45 CORY COURT, COVINGTON, GA, 30016","Match","Exact","45 CORY CT, COVINGTON, GA, 30016",23630659,"L"
216333,"45 CROW WAY","LANCASTER","KY",40444,37.5889268080001,-84.5383548029999,333,"45 CROW WAY, LANCASTER, KY, 40444","Match","Exact","45 CROW WAY, LANCASTER, KY, 40444",32541228,"L"
216334,"45 CRYSTALWOOD DR","LITTLE ROCK","AR",72210,34.681336195,-92.426451824,334,"45 CRYSTALWOOD DR, LITTLE ROCK, AR, 72210","Match","Exact","45 CRYSTALWOOD DR, LITTLE ROCK, AR, 72210",618979391,"L"
216335,"45 DEAN AVENUE","JOHNSTON","RI",2919,41.867075852,-71.4981243299999,335,"45 DEAN AVENUE, JOHNSTON, RI, 2919","Match","Exact","45 DEAN AVE, JOHNSTON, RI, 02919",646769730,"R"
216336,"45 DELPRETE AVENUE","ROCKLAND","MA",2370,42.134190931,-70.914827428,336,"45 DELPRETE AVENUE, ROCKLAND, MA, 2370","Match","Exact","45 DELPRETE AVE, ROCKLAND, MA, 02370",87431347,"L"
216337,"45 DEPOT AVE","EMINENCE","KY",40019,NA,NA,337,"45 DEPOT AVE, EMINENCE, KY, 40019","No_Match",NA,NA,NA,NA
216338,"45 DERBY ST","CONCORD","MA",1742,42.4552609560001,-71.392393419,338,"45 DERBY ST, CONCORD, MA, 1742","Match","Exact","45 DERBY ST, CONCORD, MA, 01742",86844132,"R"
216339,"45 DOAWOOD LANE","HORSHAM","PA",19044,NA,NA,339,"45 DOAWOOD LANE, HORSHAM, PA, 19044","No_Match",NA,NA,NA,NA
216340,"45 DONOVAN","IRVINE","CA",92620,33.6947985200001,-117.751079841,340,"45 DONOVAN, IRVINE, CA, 92620","Match","Exact","45 DONOVAN, IRVINE, CA, 92620",646566762,"L"
216341,"45 DRAKE RD","LAKEWOOD","NJ",8701,40.0795497190001,-74.2481360909999,341,"45 DRAKE RD, LAKEWOOD, NJ, 8701","Match","Exact","45 DRAKE RD, LAKEWOOD, NJ, 08701",649714063,"R"
216342,"45 E 131ST STREET APT 2D","NEW YORK","NY",10037,NA,NA,342,"45 E 131ST STREET APT 2D, NEW YORK, NY, 10037","Tie",NA,NA,NA,NA
216343,"45 E 9TH STREET APT 10","NEW YORK","NY",10003,40.7318729730001,-73.993582397,343,"45 E 9TH STREET APT 10, NEW YORK, NY, 10003","Match","Non_Exact","45 E 9TH ST, NEW YORK, NY, 10003",650154507,"L"
216344,"45 E CITY AVE -1553","BALA CYNWYD","PA",19004,NA,NA,344,"45 E CITY AVE -1553, BALA CYNWYD, PA, 19004","Tie",NA,NA,NA,NA
216345,"45 E CITY AVE BOX 1861","BALA CYNWYD","PA",19004,NA,NA,345,"45 E CITY AVE BOX 1861, BALA CYNWYD, PA, 19004","Tie",NA,NA,NA,NA
216346,"45 E CITY AVE NUM 1615","BALA CYNWYD","PA",19004,NA,NA,346,"45 E CITY AVE NUM 1615, BALA CYNWYD, PA, 19004","Tie",NA,NA,NA,NA
216347,"45 E CITY AVE SUITE 1552","BALA CYNWYD","PA",19004,NA,NA,347,"45 E CITY AVE SUITE 1552, BALA CYNWYD, PA, 19004","Tie",NA,NA,NA,NA
216348,"45 E CITY AVE- 1601","BALA CYNWYD","PA",19004,NA,NA,348,"45 E CITY AVE- 1601, BALA CYNWYD, PA, 19004","No_Match",NA,NA,NA,NA
216349,"45 E CITY AVE","BALA CYNWYD","PA",19004,40.002050641,-75.224917376,349,"45 E CITY AVE, BALA CYNWYD, PA, 19004","Match","Exact","45 E CITY AVE, BALA CYNWYD, PA, 19004",634819552,"L"
216350,"45 E CITY AVENUE  SUITE 468","BALA CYNWYD","PA",19004,NA,NA,350,"45 E CITY AVENUE  SUITE 468, BALA CYNWYD, PA, 19004","Tie",NA,NA,NA,NA
216351,"45 E MAIN ST","WEST CARROLLTON","OH",45449,39.6727930220001,-84.252846349,351,"45 E MAIN ST, WEST CARROLLTON, OH, 45449","Match","Exact","45 E MAIN ST, WEST CARROLLTON, OH, 45449",143578252,"L"
216352,"45 E STRACK DRIVE","MYERSTOWN","PA",17067,NA,NA,352,"45 E STRACK DRIVE, MYERSTOWN, PA, 17067","Tie",NA,NA,NA,NA
216353,"45 EAST 40TH ST APT 5G","PATERSON","NJ",7514,40.9212478060001,-74.134570644,353,"45 EAST 40TH ST APT 5G, PATERSON, NJ, 7514","Match","Exact","45 E 40TH ST, PATERSON, NJ, 07514",65277722,"L"
216354,"45 EAST 40TH STREET APT 5G","PATERSON","NJ",7514,40.9212478060001,-74.134570644,354,"45 EAST 40TH STREET APT 5G, PATERSON, NJ, 7514","Match","Exact","45 E 40TH ST, PATERSON, NJ, 07514",65277722,"L"
216355,"45 EAST AVE","ROCHESTER","NY",14604,43.1572489920001,-77.60315723,355,"45 EAST AVE, ROCHESTER, NY, 14604","Match","Exact","45 EAST AVE, ROCHESTER, NY, 14604",14540112,"R"
216356,"45 EAST MARKET STREET","RED HOOK","NY",12571,41.99471536,-73.872452203,356,"45 EAST MARKET STREET, RED HOOK, NY, 12571","Match","Exact","45 E MARKET ST, RED HOOK, NY, 12571",4164583,"L"
216357,"45 EAST SANDRA LEE DRIVE","SAINT PAUL","MN",55119,44.942020224,-93.016313033,357,"45 EAST SANDRA LEE DRIVE, SAINT PAUL, MN, 55119","Match","Non_Exact","45 E SANDRALEE DR, SAINT PAUL, MN, 55119",97655072,"L"
216358,"45 EGLIN PARKWAY NE STE 301","FORT WALTON BCH","FL",32548,NA,NA,358,"45 EGLIN PARKWAY NE STE 301, FORT WALTON BCH, FL, 32548","Tie",NA,NA,NA,NA
216359,"45 EGLIN PARKWAY NE STE 301","FT WALTON BEACH","FM",32548,NA,NA,359,"45 EGLIN PARKWAY NE STE 301, FT WALTON BEACH, FM, 32548","No_Match",NA,NA,NA,NA
216360,"45 ELM ST","WEST PITTSTON","PA",18643,41.3366398750001,-75.797486154,360,"45 ELM ST, WEST PITTSTON, PA, 18643","Match","Exact","45 ELM ST, WEST PITTSTON, PA, 18643",80917578,"L"
216361,"45 ELMAR CIRCLE","ROYERSFORD","PA",19468,40.1750827930001,-75.526249381,361,"45 ELMAR CIRCLE, ROYERSFORD, PA, 19468","Match","Exact","45 ELMAR CIR, ROYERSFORD, PA, 19468",135120914,"L"
216362,"45 EMBASSY ROW","JOHNSON CITY","TN",37601,36.396453605,-82.370631133,362,"45 EMBASSY ROW, JOHNSON CITY, TN, 37601","Match","Exact","45 EMBASSY ROW, JOHNSON CITY, TN, 37601",617055692,"L"
216363,"45 ESPERANZA COURT","PIKESVILLE","MD",21208,39.3797275900001,-76.7393620839999,363,"45 ESPERANZA COURT, PIKESVILLE, MD, 21208","Match","Exact","45 ESPERANZA CT, PIKESVILLE, MD, 21208",191504052,"L"
216364,"45 EST MARSHILL","FREDERIKSTED","VI",840,NA,NA,364,"45 EST MARSHILL, FREDERIKSTED, VI, 840","No_Match",NA,NA,NA,NA
216365,"45 FAIRWAY AVE","RYE","NY",10580,40.955590919,-73.6873883979999,365,"45 FAIRWAY AVE, RYE, NY, 10580","Match","Exact","45 FAIRWAY AVE, RYE, NY, 10580",139757663,"L"
216366,"45 FARMERS ROAD","GROTON","MA",1450,42.605221397,-71.5824291329999,366,"45 FARMERS ROAD, GROTON, MA, 1450","Match","Non_Exact","45 FARMERS ROW, GROTON, MA, 01450",86834232,"R"
216367,"45 FERRELL CIRCLE","CADIZ","IN",42211,NA,NA,367,"45 FERRELL CIRCLE, CADIZ, IN, 42211","No_Match",NA,NA,NA,NA
216368,"45 FERRIS ST","HIGHLAND PARK","MI",48203,42.413722148,-83.100693114,368,"45 FERRIS ST, HIGHLAND PARK, MI, 48203","Match","Exact","45 FERRIS ST, HIGHLAND PARK, MI, 48203",95462529,"L"
216369,"45 FIRGLADE AVE","PROVIDENCE","RI",2906,41.8442728680001,-71.3985253829999,369,"45 FIRGLADE AVE, PROVIDENCE, RI, 2906","Match","Exact","45 FIRGLADE AVE, PROVIDENCE, RI, 02906",47463758,"R"
216370,"45 FLORIDA AVENUE NW","WASHINGTON","DC",20001,38.911609836,-77.010951397,370,"45 FLORIDA AVENUE NW, WASHINGTON, DC, 20001","Match","Exact","45 FLORIDA AVE NW, WASHINGTON, DC, 20001",76226494,"R"
216371,"45 FLORISTER DR","HAMILTON","NJ",8690,40.235493019,-74.67166248,371,"45 FLORISTER DR, HAMILTON, NJ, 8690","Match","Exact","45 FLORISTER DR, HAMILTON, NJ, 08690",60184531,"R"
216372,"45 FOREST AVE","WINDHAM","ME",4062,43.8163512850001,-70.330738582,372,"45 FOREST AVE, WINDHAM, ME, 4062","Match","Exact","45 FOREST AVE, WINDHAM, ME, 04062",628179653,"R"
216373,"45 FOREST ST","WELLESLEY","MA",2481,42.305901078,-71.276380929,373,"45 FOREST ST, WELLESLEY, MA, 2481","Match","Exact","45 FOREST ST, WELLESLEY, MA, 02481",87237169,"R"
216374,"45 FORT HILL ROAD","STANDISH","ME",4084,43.7544458260001,-70.514558096,374,"45 FORT HILL ROAD, STANDISH, ME, 4084","Match","Exact","45 FORT HILL RD, STANDISH, ME, 04084",78037372,"L"
216375,"45 FOXTROT DRIVE","FARMINGTON","NH",3835,43.40920498,-71.074336541,375,"45 FOXTROT DRIVE, FARMINGTON, NH, 3835","Match","Exact","45 FOXTROT DR, FARMINGTON, NH, 03835",117822261,"R"
216376,"45 FRANKLIN STREET","LAWRENCE","MA",1840,42.7072316590001,-71.1681001649999,376,"45 FRANKLIN STREET, LAWRENCE, MA, 1840","Match","Exact","45 FRANKLIN ST, LAWRENCE, MA, 01840",86625458,"R"
216377,"45 FULL SWEEP","HILTON HEAD ISLAND","SC",29928,32.188956305,-80.710108798,377,"45 FULL SWEEP, HILTON HEAD ISLAND, SC, 29928","Match","Exact","45 FULL SWEEP, HILTON HEAD ISLAND, SC, 29928",87616977,"L"
216378,"45 GARDEN DRIVE","ROCHESTER","NY",14609,43.175197837,-77.552339584,378,"45 GARDEN DRIVE, ROCHESTER, NY, 14609","Match","Exact","45 GARDEN DR, ROCHESTER, NY, 14609",14542202,"L"
216379,"45 GARNETT TERRACE","SAN FRANCISCO","CA",94124,37.73278587,-122.382044308,379,"45 GARNETT TERRACE, SAN FRANCISCO, CA, 94124","Match","Exact","45 GARNETT TER, SAN FRANCISCO, CA, 94124",192302236,"R"
216380,"45 GERALDINE PARKWAY","ROCHESTER","NY",14624,43.1536949630001,-77.7018927669999,380,"45 GERALDINE PARKWAY, ROCHESTER, NY, 14624","Match","Exact","45 GERALDINE PKWY, ROCHESTER, NY, 14624",14564352,"L"
216381,"45 GINGERQUILL COURT","DILLON","CO",80435,39.595402639,-106.015017864,381,"45 GINGERQUILL COURT, DILLON, CO, 80435","Match","Exact","45 GINGERQUILL CT, DILLON, CO, 80435",106053775,"R"
216382,"45 GODDARD ROAD","BROCKTON","MA",2301,42.0828019410001,-71.0241913579999,382,"45 GODDARD ROAD, BROCKTON, MA, 2301","Match","Exact","45 GODDARD RD, BROCKTON, MA, 02301",87443911,"R"
216383,"45 GOLDENROD COURT","HAMILTON","NJ",8690,40.205113419,-74.6748235809999,383,"45 GOLDENROD COURT, HAMILTON, NJ, 8690","Match","Exact","45 GOLDENROD CT, HAMILTON, NJ, 08690",60196202,"R"
216384,"45 GOVERNMENT COMPLEX ROAD","WHITEVILLE","NC",28472,34.355141158,-78.705080551,384,"45 GOVERNMENT COMPLEX ROAD, WHITEVILLE, NC, 28472","Match","Exact","45 GOVERNMENT COMPLEX RD, WHITEVILLE, NC, 28472",638233096,"L"
216385,"45 GRAFFIN DRIVE","LATHAM","NY",12110,42.759317669,-73.743114826,385,"45 GRAFFIN DRIVE, LATHAM, NY, 12110","Match","Exact","45 GRAFFIN DR, LATHAM, NY, 12110",18335023,"R"
216386,"45 GRAHAM AVENUE","BEAUMONT","CA",92223,33.920466063,-116.962374853,386,"45 GRAHAM AVENUE, BEAUMONT, CA, 92223","Match","Exact","45 GRAHAM AVE, BEAUMONT, CA, 92223",624571285,"R"
216387,"45 GRALYNN RD","NEWTON","MA",2459,42.3407958770001,-71.181247728,387,"45 GRALYNN RD, NEWTON, MA, 2459","Match","Exact","45 GRALYNN RD, NEWTON, MA, 02459",86866682,"R"
216388,"45 GREENWOOD STREET","SHERBORN","MA",1770,42.225403455,-71.385872257,388,"45 GREENWOOD STREET, SHERBORN, MA, 1770","Match","Exact","45 GREENWOOD ST, SHERBORN, MA, 01770",87103422,"R"
216389,"45 GROVE STREET","BERGENFIELD","NJ",7621,40.927338778,-73.989831131,389,"45 GROVE STREET, BERGENFIELD, NJ, 7621","Match","Exact","45 GROVE ST, BERGENFIELD, NJ, 07621",64372430,"L"
216390,"45 HARDY COURT CTR STE 129","GULFPORT","MS",39507,NA,NA,390,"45 HARDY COURT CTR STE 129, GULFPORT, MS, 39507","No_Match",NA,NA,NA,NA
216391,"45 HARDY COURT STE 272","GULFPORT","MS",39507,NA,NA,391,"45 HARDY COURT STE 272, GULFPORT, MS, 39507","No_Match",NA,NA,NA,NA
216392,"45 HARRISON PLACE","HARTFORD","CT",6112,41.7800325580001,-72.698949908,392,"45 HARRISON PLACE, HARTFORD, CT, 6112","Match","Exact","45 HARRISON PL, HARTFORD, CT, 06112",3488931,"L"
216393,"45 HASTINGS AVE","BUFFALO","NY",14215,42.9365418530001,-78.811999273,393,"45 HASTINGS AVE, BUFFALO, NY, 14215","Match","Exact","45 HASTINGS AVE, BUFFALO, NY, 14215",48297063,"R"
216394,"45 HEINZ AVENUE","STATEN ISLAND","NY",10308,40.5380740510001,-74.148120072,394,"45 HEINZ AVENUE, STATEN ISLAND, NY, 10308","Match","Exact","45 HEINZ AVE, STATEN ISLAND, NY, 10308",59889805,"L"
216395,"45 HEMLOCK RD","SHORT HILLS","NJ",7078,40.7298994980001,-74.341958639,395,"45 HEMLOCK RD, SHORT HILLS, NJ, 7078","Match","Exact","45 HEMLOCK RD, SHORT HILLS, NJ, 07078",63494952,"R"
216396,"45 HEWITT DR","TROY","NY",12180,42.753837864,-73.580403409,396,"45 HEWITT DR, TROY, NY, 12180","Match","Exact","45 HEWITT DR, TROY, NY, 12180",35746268,"L"
216397,"45 HICKORY LN","WATERTOWN","CT",6795,41.6158879810001,-73.131031547,397,"45 HICKORY LN, WATERTOWN, CT, 6795","Match","Exact","45 HICKORY LN, WATERTOWN, CT, 06795",3108549,"L"
216398,"45 HIGH STREET","RANDOLPH","MA",2368,42.1707057150001,-71.068543935,398,"45 HIGH STREET, RANDOLPH, MA, 2368","Match","Exact","45 HIGH ST, RANDOLPH, MA, 02368",87286117,"R"
216399,"45 HIGHWAY 281","HEFLIN","AL",36264,NA,NA,399,"45 HIGHWAY 281, HEFLIN, AL, 36264","No_Match",NA,NA,NA,NA
216400,"45 HITCHING POST DR","ROLLING HILLS ESTATE","CA",90274,33.7704432510001,-118.329597825,400,"45 HITCHING POST DR, ROLLING HILLS ESTATE, CA, 90274","Match","Non_Exact","45 HITCHING POST DR, ROLLING HILLS, CA, 90274",241244551,"R"
216401,"45 HOBART AVENUE","BRAINTREE","MA",2184,42.209012396,-71.006358768,401,"45 HOBART AVENUE, BRAINTREE, MA, 2184","Match","Exact","45 HOBART AVE, BRAINTREE, MA, 02184",87266282,"R"
216402,"45 HOYT ST","DARIEN","CT",6820,41.0810527240001,-73.511602088,402,"45 HOYT ST, DARIEN, CT, 6820","Match","Exact","45 HOYT ST, DARIEN, CT, 06820",3246543,"R"
216403,"45 HUDSON AVE NUMBER 1241","ALBANY","NY",12201,NA,NA,403,"45 HUDSON AVE NUMBER 1241, ALBANY, NY, 12201","Tie",NA,NA,NA,NA
216404,"45 HUNTER PLACE","STATEN ISLAND","NY",10301,40.633618604,-74.101925712,404,"45 HUNTER PLACE, STATEN ISLAND, NY, 10301","Match","Exact","45 HUNTER PL, STATEN ISLAND, NY, 10301",59878423,"L"
216405,"45 INTERLAKEN ROAD","ORLANDO","FL",32804,28.585816444,-81.404765757,405,"45 INTERLAKEN ROAD, ORLANDO, FL, 32804","Match","Exact","45 INTERLAKEN RD, ORLANDO, FL, 32804",624689336,"L"
216406,"45 IRONIA RD","RANDOLPH","NJ",7869,40.8169106030001,-74.622060668,406,"45 IRONIA RD, RANDOLPH, NJ, 7869","Match","Exact","45 IRONIA RD, RANDOLPH, NJ, 07869",60490686,"L"
216407,"45 JAMIE COURT STE 1","BLOOMFIELD","NJ",7003,40.8096128190001,-74.176834969,407,"45 JAMIE COURT STE 1, BLOOMFIELD, NJ, 7003","Match","Exact","45 JAMIE CT, BLOOMFIELD, NJ, 07003",646926353,"L"
216408,"45 JANET DR","EAST HARTFORD","CT",6118,41.7578548550001,-72.5980292579999,408,"45 JANET DR, EAST HARTFORD, CT, 6118","Match","Exact","45 JANET DR, EAST HARTFORD, CT, 06118",3496894,"R"
216409,"45 JENKINS RD","HEWITT","NJ",7421,41.1862724860001,-74.383013494,409,"45 JENKINS RD, HEWITT, NJ, 7421","Match","Exact","45 JENKINS RD, HEWITT, NJ, 07421",65248022,"L"
216410,"45 JESSICA CIR","SCHWENKSVILLE","PA",19473,40.2391572130001,-75.49933133,410,"45 JESSICA CIR, SCHWENKSVILLE, PA, 19473","Match","Exact","45 JESSICA CIR, SCHWENKSVILLE, PA, 19473",135124947,"R"
216411,"45 JONATHAN PLACE","AMHERST","NY",14228,43.0192436580001,-78.8074585689999,411,"45 JONATHAN PLACE, AMHERST, NY, 14228","Match","Exact","45 JONATHAN PL, AMHERST, NY, 14228",48317316,"L"
216412,"45 JONES AVE","CHELSEA","MA",2150,42.406395823,-71.030438263,412,"45 JONES AVE, CHELSEA, MA, 2150","Match","Exact","45 JONES AVE, CHELSEA, MA, 02150",85729672,"R"
216413,"45 KANE ROAD","MORGANTOWN","PA",19543,40.211347313,-75.878365141,413,"45 KANE ROAD, MORGANTOWN, PA, 19543","Match","Exact","45 KANE RD, MORGANTOWN, PA, 19543",616406899,"L"
216414,"45 KATRINA LANE","SLEEPY HOLLOW","IL",60118,42.083338907,-88.300816716,414,"45 KATRINA LANE, SLEEPY HOLLOW, IL, 60118","Match","Exact","45 KATRINA LN, SLEEPY HOLLOW, IL, 60118",119548146,"L"
216415,"45 KELSEYTOWN ROAD","CLINTON","CT",6413,41.3148234280001,-72.5168544919999,415,"45 KELSEYTOWN ROAD, CLINTON, CT, 6413","Match","Exact","45 KELSEYTOWN RD, CLINTON, CT, 06413",113879798,"L"
216416,"45 KENT STREET","LAWRENCE","MA",1843,42.688234316,-71.153308559,416,"45 KENT STREET, LAWRENCE, MA, 1843","Match","Exact","45 KENT ST, LAWRENCE, MA, 01843",86629106,"R"
216417,"45 KEUNE COURT","STATEN ISLAND","NY",10304,40.601576283,-74.099281864,417,"45 KEUNE COURT, STATEN ISLAND, NY, 10304","Match","Exact","45 KEUNE CT, STATEN ISLAND, NY, 10304",59879775,"L"
216418,"45 L ST SW        SUITE 70303","WASHINGTON","DC",20024,38.8775372150001,-77.0098848969999,418,"45 L ST SW        SUITE 70303, WASHINGTON, DC, 20024","Match","Exact","45 L ST SW, WASHINGTON, DC, 20024",640262205,"R"
216419,"45 L ST SW NO 71566","WASHINGTON","DC",20024,NA,NA,419,"45 L ST SW NO 71566, WASHINGTON, DC, 20024","No_Match",NA,NA,NA,NA
216420,"45 L STREET SUITE 70040","WASHINGTON","DC",20024,38.8775372150001,-77.0098848969999,420,"45 L STREET SUITE 70040, WASHINGTON, DC, 20024","Match","Non_Exact","45 L ST SW, WASHINGTON, DC, 20024",640262205,"R"
216421,"45 LANSING STREET APT 2501","SAN FRANCISCO","CA",94105,37.78633339,-122.39361367,421,"45 LANSING STREET APT 2501, SAN FRANCISCO, CA, 94105","Match","Exact","45 LANSING ST, SAN FRANCISCO, CA, 94105",192281720,"L"
216422,"45 LAURELHURST DR","LADERA RANCH","CA",92694,33.5698800210001,-117.635904639,422,"45 LAURELHURST DR, LADERA RANCH, CA, 92694","Match","Exact","45 LAURELHURST DR, LADERA RANCH, CA, 92694",638572180,"R"
216423,"45 LAURIE LANE","LITITZ","PA",17543,40.1656593650001,-76.30060244,423,"45 LAURIE LANE, LITITZ, PA, 17543","Match","Exact","45 LAURIE LN, LITITZ, PA, 17543",179686532,"L"
216424,"45 LAWRENCE CIRCLE","ABILENE","TX",79605,32.4111722280001,-99.771154173,424,"45 LAWRENCE CIRCLE, ABILENE, TX, 79605","Match","Exact","45 LAWRENCE CIR, ABILENE, TX, 79605",129975159,"L"
216425,"45 LEEBARRY LANE","LAS CRUCES","NM",88012,32.511596453,-106.688951591,425,"45 LEEBARRY LANE, LAS CRUCES, NM, 88012","Match","Exact","45 LEEBARRY LN, LAS CRUCES, NM, 88012",189561544,"R"
216426,"45 LENOX ROAD","SUMMIT","NJ",7901,40.7196267410001,-74.347704285,426,"45 LENOX ROAD, SUMMIT, NJ, 7901","Match","Exact","45 LENOX RD, SUMMIT, NJ, 07901",60603151,"R"
216427,"45 LIBBY AVENUE","HAZLEHURST","GA",31539,31.867340905,-82.5830947919999,427,"45 LIBBY AVENUE, HAZLEHURST, GA, 31539","Match","Exact","45 LIBBY AVE, HAZLEHURST, GA, 31539",4590593,"R"
216428,"45 LIMEWOOD DRIVE","HAMILTON","NJ",8690,40.2191406430001,-74.6456019519999,428,"45 LIMEWOOD DRIVE, HAMILTON, NJ, 8690","Match","Exact","45 LIMEWOOD DR, HAMILTON, NJ, 08690",60185520,"L"
216429,"45 LINCOLN DRIVE","JOHNSTON","RI",2919,41.819176827,-71.553311072,429,"45 LINCOLN DRIVE, JOHNSTON, RI, 2919","Match","Exact","45 LINCOLN DR, JOHNSTON, RI, 02919",47450028,"L"
216430,"45 LINDEN BLVD 4H","BROOKLYN","NY",11226,40.6522539110001,-73.957286005,430,"45 LINDEN BLVD 4H, BROOKLYN, NY, 11226","Match","Exact","45 LINDEN BLVD, BROOKLYN, NY, 11226",59081355,"L"
216431,"45 LOON PLACE","SOUTH WINDSOR","CT",6074,41.8195099440001,-72.584952721,431,"45 LOON PLACE, SOUTH WINDSOR, CT, 6074","Match","Exact","45 LOON PL, SOUTH WINDSOR, CT, 06074",637098589,"L"
216432,"45 MAIN ST","LUDLOW","VT",5149,43.3966214600001,-72.689197571,432,"45 MAIN ST, LUDLOW, VT, 5149","Match","Exact","45 MAIN ST, LUDLOW, VT, 05149",639060976,"R"
216433,"45 MAIN STREET","ANTWERP","NY",13608,44.199928845,-75.608389903,433,"45 MAIN STREET, ANTWERP, NY, 13608","Match","Exact","45 MAIN ST, ANTWERP, NY, 13608",154234794,"R"
216434,"45 MAIN STREET","HASTINGS ON HUDSON","NY",10706,40.994183166,-73.880771492,434,"45 MAIN STREET, HASTINGS ON HUDSON, NY, 10706","Match","Exact","45 MAIN ST, HASTINGS ON HUDSON, NY, 10706",640547340,"L"
216435,"45 MAIN STREET","PHELPS","NY",14532,42.956263269,-77.053683986,435,"45 MAIN STREET, PHELPS, NY, 14532","Match","Exact","45 MAIN ST, PHELPS, NY, 14532",13474010,"L"
216436,"45 MANCHESTER RD","HUNTINGTON","NY",11743,40.842069307,-73.36314408,436,"45 MANCHESTER RD, HUNTINGTON, NY, 11743","Match","Exact","45 MANCHESTER RD, HUNTINGTON, NY, 11743",113968228,"L"
216437,"45 MAPLE AVENUE","FAIR HAVEN","NJ",7704,40.361531825,-74.037391075,437,"45 MAPLE AVENUE, FAIR HAVEN, NJ, 7704","Match","Exact","45 MAPLE AVE, FAIR HAVEN, NJ, 07704",90452569,"L"
216438,"45 MARBURY COURT","SPRINGBORO","OH",45066,39.577244019,-84.1988092349999,438,"45 MARBURY COURT, SPRINGBORO, OH, 45066","Match","Exact","45 MARBURY CT, SPRINGBORO, OH, 45066",159041027,"R"
216439,"45 MARINA ISLES BLVD","INDIAN HARBOUR BEACH","FL",32937,28.152035577,-80.605436944,439,"45 MARINA ISLES BLVD, INDIAN HARBOUR BEACH, FL, 32937","Match","Exact","45 MARINA ISLES BLVD, INDIAN HARBOUR BEACH, FL, 32937",93921799,"R"
216440,"45 MARYKNOLL STREET","MATTAPAN","MA",2126,42.275339907,-71.078250592,440,"45 MARYKNOLL STREET, MATTAPAN, MA, 2126","Match","Exact","45 MARYKNOLL ST, MATTAPAN, MA, 02126",639989764,"R"
216441,"45 MEACHAM RD","SOMERVILLE","MA",2144,42.396422457,-71.1254117409999,441,"45 MEACHAM RD, SOMERVILLE, MA, 2144","Match","Exact","45 MEACHAM RD, SOMERVILLE, MA, 02144",86890074,"L"
216442,"45 MEDIA LINE RD - B 8","BROOMALL","PA",19008,39.983291244,-75.379037661,442,"45 MEDIA LINE RD - B 8, BROOMALL, PA, 19008","Match","Exact","45 MEDIA LINE RD, BROOMALL, PA, 19008",134867974,"L"
216443,"45 MERCURIO EL VERDE","CAGUAS","PR",725,NA,NA,443,"45 MERCURIO EL VERDE, CAGUAS, PR, 725","No_Match",NA,NA,NA,NA
216444,"45 MILL RD","GRANVILLE","VT",5674,44.111503477,-72.857081323,444,"45 MILL RD, GRANVILLE, VT, 5674","Match","Non_Exact","45 MILL RD, WARREN, VT, 05674",634546296,"R"
216445,"45 MITCHELL BLVD STE 9","SAN RAFAEL","CA",94903,38.016975604,-122.53859255,445,"45 MITCHELL BLVD STE 9, SAN RAFAEL, CA, 94903","Match","Exact","45 MITCHELL BLVD, SAN RAFAEL, CA, 94903",192762421,"L"
216446,"45 MORIS AVE","HAWORTH","NJ",7641,40.9674270720001,-73.977587687,446,"45 MORIS AVE, HAWORTH, NJ, 7641","Match","Non_Exact","45 MORRIS AVE, HAWORTH, NJ, 07641",645458438,"L"
216447,"45 MOUNT ROCK RD","NEWVILLE","PA",17241,40.1745913610001,-77.385974365,447,"45 MOUNT ROCK RD, NEWVILLE, PA, 17241","Match","Exact","45 MOUNT ROCK RD, NEWVILLE, PA, 17241",60981339,"R"
216448,"45 MOUNTAIN VIEW CIRCLE","JASPER","GA",30143,34.478398226,-84.457210543,448,"45 MOUNTAIN VIEW CIRCLE, JASPER, GA, 30143","Match","Exact","45 MOUNTAIN VIEW CIR, JASPER, GA, 30143",70208064,"L"
216449,"45 MUSKETEER DRIVE","GREENUP","KY",41144,NA,NA,449,"45 MUSKETEER DRIVE, GREENUP, KY, 41144","No_Match",NA,NA,NA,NA
216450,"45 N EDGEWOOD ST","PHILADELPHIA","PA",19139,39.9627699930001,-75.241241702,450,"45 N EDGEWOOD ST, PHILADELPHIA, PA, 19139","Match","Exact","45 N EDGEWOOD ST, PHILADELPHIA, PA, 19139",131397554,"R"
216451,"45 N FRONT STREET","NORTH LIBETY","IA",52317,41.7453816300001,-91.597991195,451,"45 N FRONT STREET, NORTH LIBETY, IA, 52317","Match","Non_Exact","45 N FRONT ST, NORTH LIBERTY, IA, 52317",84493592,"L"
216452,"45 N MAIN ST","MARLBORO","NJ",7746,NA,NA,452,"45 N MAIN ST, MARLBORO, NJ, 7746","Tie",NA,NA,NA,NA
216453,"45 N MONTROSE LN","SARATOGA SPGS","UT",84043,40.36306684,-111.863269846,453,"45 N MONTROSE LN, SARATOGA SPGS, UT, 84043","Match","Exact","45 MONTROSE LN, SARATOGA SPRINGS, UT, 84043",601247585,"L"
216454,"45 NE INDUSTRIAL RD","BRANFORD","CT",6405,41.3005948690001,-72.7699608569999,454,"45 NE INDUSTRIAL RD, BRANFORD, CT, 6405","Match","Non_Exact","45 NE INDUSTRIAL DR, BRANFORD, CT, 06405",3707306,"R"
216455,"45 NORTH 100 EAST","AURORA","UT",84620,38.92165263,-111.932151764,455,"45 NORTH 100 EAST, AURORA, UT, 84620","Match","Exact","45 N 100 E, AURORA, UT, 84620",175324167,"R"
216456,"45 NORTH 9TH STREET","PATERSON","NJ",7522,40.927919559,-74.181017706,456,"45 NORTH 9TH STREET, PATERSON, NJ, 7522","Match","Exact","45 N 9TH ST, PATERSON, NJ, 07522",65262663,"L"
216457,"45 NORTH GEORGE ST 3RD FLR","YORK","PA",17401,39.9633617050001,-76.728200563,457,"45 NORTH GEORGE ST 3RD FLR, YORK, PA, 17401","Match","Exact","45 N GEORGE ST, YORK, PA, 17401",88730717,"R"
216458,"45 NORTH HANCOCK STEET","LEXINGTON","MA",2420,42.4631764540001,-71.237888561,458,"45 NORTH HANCOCK STEET, LEXINGTON, MA, 2420","Match","Exact","45 N HANCOCK ST, LEXINGTON, MA, 02420",86881799,"R"
216459,"45 NORTH HILL DRIVE SUITE 100","WARRENTON","VA",20186,38.7243757900001,-77.791927485,459,"45 NORTH HILL DRIVE SUITE 100, WARRENTON, VA, 20186","Match","Exact","45 N HILL DR, WARRENTON, VA, 20186",641140571,"R"
216460,"45 NORTH MAIN STREET SUITE 203","FALL RIVER","MA",2720,41.7025410160001,-71.155237631,460,"45 NORTH MAIN STREET SUITE 203, FALL RIVER, MA, 2720","Match","Exact","45 N MAIN ST, FALL RIVER, MA, 02720",46769533,"R"
216461,"45 NORTH MANNING ST","HILLSDALE","MI",49242,41.921811373,-84.633630871,461,"45 NORTH MANNING ST, HILLSDALE, MI, 49242","Match","Exact","45 N MANNING ST, HILLSDALE, MI, 49242",8281484,"R"
216462,"45 NORTH ROAD","WINDHAM","CT",6280,41.7020057340001,-72.160488614,462,"45 NORTH ROAD, WINDHAM, CT, 6280","Match","Exact","45 NORTH RD, WINDHAM, CT, 06280",56459597,"L"
216463,"45 NORTH STREET","BINGHAMTON","NY",13905,42.1019112930001,-75.9235021549999,463,"45 NORTH STREET, BINGHAMTON, NY, 13905","Match","Exact","45 NORTH ST, BINGHAMTON, NY, 13905",46342184,"L"
216464,"45 NORTHWEST 54 STREET","MIAMI","FL",33127,25.825220218,-80.198249255,464,"45 NORTHWEST 54 STREET, MIAMI, FL, 33127","Match","Exact","45 NW 54TH ST, MIAMI, FL, 33127",116007247,"R"
216465,"45 NORTHWEST 8 STREET SUITE 105","HOMESTEAD","FL",33030,25.47715607,-80.4783570009999,465,"45 NORTHWEST 8 STREET SUITE 105, HOMESTEAD, FL, 33030","Match","Exact","45 NW 8TH ST, HOMESTEAD, FL, 33030",115991628,"R"
216466,"45 NW 109 AVENUE","MIAMI","FL",33172,25.7690667310001,-80.373047863,466,"45 NW 109 AVENUE, MIAMI, FL, 33172","Match","Exact","45 NW 109TH AVE, MIAMI, FL, 33172",115969822,"R"
216467,"45 OLD NEWTOWN ROAD","MONROE","CT",6468,41.309669521,-73.252974428,467,"45 OLD NEWTOWN ROAD, MONROE, CT, 6468","Match","Exact","45 OLD NEWTOWN RD, MONROE, CT, 06468",618519277,"L"
216468,"45 OLD WHIPPLE ST","CUMBERLAND","RI",2864,NA,NA,468,"45 OLD WHIPPLE ST, CUMBERLAND, RI, 2864","Tie",NA,NA,NA,NA
216469,"45 OVERHILL DRIVE","DEMING","NM",88030,NA,NA,469,"45 OVERHILL DRIVE, DEMING, NM, 88030","No_Match",NA,NA,NA,NA
216470,"45 OVERLOOK TERRACE APT 4A","NEW YORK","NY",10033,40.853601589,-73.9363697749999,470,"45 OVERLOOK TERRACE APT 4A, NEW YORK, NY, 10033","Match","Exact","45 OVERLOOK TER, NEW YORK, NY, 10033",59655554,"L"
216471,"45 OXFORD DRIVE","MONTEBELLO","NY",10901,41.12976976,-74.106581607,471,"45 OXFORD DRIVE, MONTEBELLO, NY, 10901","Match","Exact","45 OXFORD DR, MONTEBELLO, NY, 10901",124629469,"R"
216472,"45 PALOMA AVE APT 6","VENICE","CA",90291,33.9938533930001,-118.478316786,472,"45 PALOMA AVE APT 6, VENICE, CA, 90291","Match","Exact","45 PALOMA AVE, VENICE, CA, 90291",141575788,"L"
216473,"45 PARADISE CT","MCDONOUGH","GA",30252,33.4358564680001,-84.078416067,473,"45 PARADISE CT, MCDONOUGH, GA, 30252","Match","Exact","45 PARADISE CT, MCDONOUGH, GA, 30252",23185553,"L"
216474,"45 PARSONS ROAD","LANDENBERG","PA",19350,39.7552640540001,-75.820679962,474,"45 PARSONS ROAD, LANDENBERG, PA, 19350","Match","Exact","45 PARSONS RD, LANDENBERG, PA, 19350",179553559,"L"
216475,"45 PATRICIA AVE","DEER PARK","NY",11729,40.768296832,-73.328361748,475,"45 PATRICIA AVE, DEER PARK, NY, 11729","Match","Exact","45 PATRICIA AVE, DEER PARK, NY, 11729",113970108,"R"
216476,"45 PAYN AVENUE","CHATHAM","NY",12037,42.352179929,-73.600849458,476,"45 PAYN AVENUE, CHATHAM, NY, 12037","Match","Exact","45 PAYN AVE, CHATHAM, NY, 12037",41506419,"R"
216477,"45 PENN ROAD","VOORHEES","NJ",8043,39.823579157,-74.935287811,477,"45 PENN ROAD, VOORHEES, NJ, 8043","Match","Exact","45 PENN RD, VOORHEES, NJ, 08043",642523453,"R"
216478,"45 PERGOLA","IRVINE","CA",92612,33.6617767390001,-117.829764729,478,"45 PERGOLA, IRVINE, CA, 92612","Match","Exact","45 PERGOLA, IRVINE, CA, 92612",144400964,"R"
216479,"45 PHILLIPS AVE","GRAFTON","WV",26354,39.355184965,-80.040173635,479,"45 PHILLIPS AVE, GRAFTON, WV, 26354","Match","Exact","45 PHILLIPS AVE, GRAFTON, WV, 26354",51550996,"R"
216480,"45 PINEWOOD STRTEET","JACKSONVILLE","AL",36265,33.776551586,-85.762194801,480,"45 PINEWOOD STRTEET, JACKSONVILLE, AL, 36265","Match","Non_Exact","45 PINEWOOD ST, JACKSONVILLE, AL, 36265",66557908,"R"
216481,"45 POINT WEST CIRCLE","LITTLE ROCK","AR",72211,34.7470571010001,-92.415233192,481,"45 POINT WEST CIRCLE, LITTLE ROCK, AR, 72211","Match","Exact","45 POINT WEST CIR, LITTLE ROCK, AR, 72211",83533272,"R"
216482,"45 QUINTA COURT UNIT D","SACRAMENTO","CA",95823,38.473115374,-121.419138125,482,"45 QUINTA COURT UNIT D, SACRAMENTO, CA, 95823","Match","Exact","45 QUINTA CT, SACRAMENTO, CA, 95823",133353910,"R"
216483,"45 RAYMOND AVE","TOMS RIVER","NJ",8755,39.996634081,-74.215234766,483,"45 RAYMOND AVE, TOMS RIVER, NJ, 8755","Match","Exact","45 RAYMOND AVE, TOMS RIVER, NJ, 08755",203725806,"R"
216484,"45 REINHARDT ROAD","WAYNE","NJ",7470,40.92898827,-74.205951645,484,"45 REINHARDT ROAD, WAYNE, NJ, 7470","Match","Exact","45 REINHARDT RD, WAYNE, NJ, 07470",65273667,"L"
216485,"45 RICHMOND DRIVE","SKILLMAN","NJ",8558,40.4286499450001,-74.651214932,485,"45 RICHMOND DRIVE, SKILLMAN, NJ, 8558","Match","Exact","45 RICHMOND DR, SKILLMAN, NJ, 08558",59955203,"R"
216486,"45 RIVER RD STE 300","FLEMINGTON","NJ",8822,40.5218799300001,-74.831238436,486,"45 RIVER RD STE 300, FLEMINGTON, NJ, 8822","Match","Exact","45 RIVER RD, FLEMINGTON, NJ, 08822",60012696,"R"
216487,"45 RIVERDALE DR","CHARLESTON","SC",29407,NA,NA,487,"45 RIVERDALE DR, CHARLESTON, SC, 29407","No_Match",NA,NA,NA,NA
216488,"45 RIVERSIDE AVENUE","MEDFORD","MA",2155,42.4174527010001,-71.107136484,488,"45 RIVERSIDE AVENUE, MEDFORD, MA, 2155","Match","Exact","45 RIVERSIDE AVE, MEDFORD, MA, 02155",86858714,"R"
216489,"45 ROBIN ROAD","FARMINGTON","CT",6032,41.719693652,-72.7814405569999,489,"45 ROBIN ROAD, FARMINGTON, CT, 6032","Match","Exact","45 ROBIN RD, FARMINGTON, CT, 06032",3513344,"L"
216490,"45 ROCKEFELLER PLAZA SUITE 2000","NEW YORK","NY",10111,40.7592651910001,-73.978292051,490,"45 ROCKEFELLER PLAZA SUITE 2000, NEW YORK, NY, 10111","Match","Non_Exact","45 ROCKEFELLER PLZ, NEW YORK, NY, 10020",59657157,"R"
216491,"45 ROOSEVELT AVE","FREEPORT","NY",11520,40.649471851,-73.590100766,491,"45 ROOSEVELT AVE, FREEPORT, NY, 11520","Match","Exact","45 ROOSEVELT AVE, FREEPORT, NY, 11520",147638237,"L"
216492,"45 ROOSEVELT CT","WESTBURY","NY",11590,40.7474128980001,-73.6020017279999,492,"45 ROOSEVELT CT, WESTBURY, NY, 11590","Match","Exact","45 ROOSEVELT CT, WESTBURY, NY, 11590",652211372,"R"
216493,"45 RUSSETT LANE","MIDDLETOWN","CT",6405,NA,NA,493,"45 RUSSETT LANE, MIDDLETOWN, CT, 6405","No_Match",NA,NA,NA,NA
216494,"45 S 18TH STREET","PITTSBURGH","PA",15203,40.430156863,-79.9804105649999,494,"45 S 18TH STREET, PITTSBURGH, PA, 15203","Match","Exact","45 S 18TH ST, PITTSBURGH, PA, 15203",51636110,"L"
216495,"45 S ARROYO PARKWAY","PASADENA","CA",91105,34.1448382200001,-118.147482584,495,"45 S ARROYO PARKWAY, PASADENA, CA, 91105","Match","Exact","45 S ARROYO PKWY, PASADENA, CA, 91105",142251092,"R"
216496,"45 S FAIRFIELD STREET","LEESBURG","OH",45135,39.3439565080001,-83.554179937,496,"45 S FAIRFIELD STREET, LEESBURG, OH, 45135","Match","Exact","45 S FAIRFIELD ST, LEESBURG, OH, 45135",101073440,"L"
216497,"45 S MAIN ST","WEST HARTFORD","CT",6107,41.760573305,-72.7421571799999,497,"45 S MAIN ST, WEST HARTFORD, CT, 6107","Match","Exact","45 S MAIN ST, WEST HARTFORD, CT, 06107",604917698,"R"
216498,"45 S MAPLE ST","HOHENWALD","TN",38462,35.547247977,-87.5508077169999,498,"45 S MAPLE ST, HOHENWALD, TN, 38462","Match","Exact","45 S MAPLE ST, HOHENWALD, TN, 38462",26748911,"R"
216499,"45 S NATIONAL AVE","FOND DU LAC","WI",54937,43.7768338230001,-88.421993679,499,"45 S NATIONAL AVE, FOND DU LAC, WI, 54937","Match","Non_Exact","45 S NATIONAL AVE, FOND DU LAC, WI, 54935",74811860,"L"
216500,"45 S RIDGE RD","PISGAH FOREST","NC",28768,35.2262464230001,-82.703077282,500,"45 S RIDGE RD, PISGAH FOREST, NC, 28768","Match","Exact","45 S RIDGE RD, PISGAH FOREST, NC, 28768",133745631,"L"
