"ID","Address","City","State","Zip","lat","long","id","input_address","match_indicator","match_type","matched_address","tiger_line_id","tiger_side"
222501,"4730 NW 10 COURT 208","PLANTATION","FL",33313,26.1369204870001,-80.2142603519999,1,"4730 NW 10 COURT 208, PLANTATION, FL, 33313","Match","Non_Exact","4730 NW 10TH CT, PLANTATION, FL, 33313",640902926,"L"
222502,"4730 RALEIGH STREET","DENVER","CO",80212,39.782480908,-105.041576527,2,"4730 RALEIGH STREET, DENVER, CO, 80212","Match","Exact","4730 RALEIGH ST, DENVER, CO, 80212",177298405,"R"
222503,"4730 RIVERDALE RD STE 3","MEMPHIS","TN",38141,35.019476221,-89.8311482249999,3,"4730 RIVERDALE RD STE 3, MEMPHIS, TN, 38141","Match","Exact","4730 RIVERDALE RD, MEMPHIS, TN, 38141",607506381,"L"
222504,"4730 ROBERSONVILLE PRODUCTS ROAD","ROBERSONVILLE","NC",27871,35.84055899,-77.209104688,4,"4730 ROBERSONVILLE PRODUCTS ROAD, ROBERSONVILLE, NC, 27871","Match","Exact","4730 ROBERSONVILLE PRODUCTS RD, ROBERSONVILLE, NC, 27871",56804844,"L"
222505,"4730 RUSINA ROAD UNIT 108","COLORADO SPRINGS","CO",80907,NA,NA,5,"4730 RUSINA ROAD UNIT 108, COLORADO SPRINGS, CO, 80907","No_Match",NA,NA,NA,NA
222506,"4730 S FORT APACHE RD    SUITE 300","LAS VEGAS","NV",89147,36.1030366800001,-115.297212616,6,"4730 S FORT APACHE RD    SUITE 300, LAS VEGAS, NV, 89147","Match","Non_Exact","4730 S FORT APACHE RD, LAS VEGAS, NV, 89147",202004544,"L"
222507,"4730 S FORT APACHE RD STE 300","LAS VEGAS","NV",89147,36.1030366800001,-115.297212616,7,"4730 S FORT APACHE RD STE 300, LAS VEGAS, NV, 89147","Match","Non_Exact","4730 S FORT APACHE RD, LAS VEGAS, NV, 89147",202004544,"L"
222508,"4730 S FORT APACHE STE 300","LAS VEGAS","NV",89147,NA,NA,8,"4730 S FORT APACHE STE 300, LAS VEGAS, NV, 89147","No_Match",NA,NA,NA,NA
222509,"4730 STATE HIGHWAY","EASTHAM","MA",2651,NA,NA,9,"4730 STATE HIGHWAY, EASTHAM, MA, 2651","No_Match",NA,NA,NA,NA
222510,"4730 TABLE MESA DR SUITE K100","BOULDER","CO",80305,39.985752647,-105.239527556,10,"4730 TABLE MESA DR SUITE K100, BOULDER, CO, 80305","Match","Exact","4730 TABLE MESA DR, BOULDER, CO, 80305",188229089,"R"
222511,"4730 TIMBER PKWY S APT 207","FARGO","ND",58104,46.808939944,-96.8375763079999,11,"4730 TIMBER PKWY S APT 207, FARGO, ND, 58104","Match","Exact","4730 TIMBER PKWY S, FARGO, ND, 58104",650592808,"R"
222512,"4730 UNIVERSITY WAY NE APT 203","SEATTLE","WA",98105,47.6633867080001,-122.313090161,12,"4730 UNIVERSITY WAY NE APT 203, SEATTLE, WA, 98105","Match","Exact","4730 UNIVERSITY WAY NE, SEATTLE, WA, 98105",186586899,"R"
222513,"4730 VALLEY HI DR","SACRAMENTO","CA",95823,38.4671411200001,-121.446912608,13,"4730 VALLEY HI DR, SACRAMENTO, CA, 95823","Match","Exact","4730 VALLEY HI DR, SACRAMENTO, CA, 95823",133365919,"R"
222514,"4730 VERNON BLVD APT3F","LONG ISLAND CITY","NY",11101,NA,NA,14,"4730 VERNON BLVD APT3F, LONG ISLAND CITY, NY, 11101","No_Match",NA,NA,NA,NA
222515,"4730 WENDELL AVE","DUBLIN","OH",43016,NA,NA,15,"4730 WENDELL AVE, DUBLIN, OH, 43016","No_Match",NA,NA,NA,NA
222516,"4731 37TH STREET APT 2B","LONG ISLAND CITY","NY",11101,NA,NA,16,"4731 37TH STREET APT 2B, LONG ISLAND CITY, NY, 11101","No_Match",NA,NA,NA,NA
222517,"4731 BITTRICH ATLER RD","DEER PARK","WA",99006,47.9459802810001,-117.557908777,17,"4731 BITTRICH ATLER RD, DEER PARK, WA, 99006","Match","Non_Exact","4731 BITTRICH ANTLER RD, DEER PARK, WA, 99006",174851402,"R"
222518,"4731 CURETON FERRY ROAD","CATAWBA","SC",29704,34.854172734,-80.9138437139999,18,"4731 CURETON FERRY ROAD, CATAWBA, SC, 29704","Match","Exact","4731 CURETON FERRY RD, CATAWBA, SC, 29704",19779934,"R"
222519,"4731 DUNQUIN PLACE","TAMPA","FL",33610,27.990701987,-82.311472768,19,"4731 DUNQUIN PLACE, TAMPA, FL, 33610","Match","Exact","4731 DUNQUIN PL, TAMPA, FL, 33610",104578791,"R"
222520,"4731 ENGLISH AVE UNIT 206","FORT MEADE","MD",20755,NA,NA,20,"4731 ENGLISH AVE UNIT 206, FORT MEADE, MD, 20755","No_Match",NA,NA,NA,NA
222521,"4731 GRAND RIVER AVENUE","DETROIT","MI",48228,42.347534264,-83.086449865,21,"4731 GRAND RIVER AVENUE, DETROIT, MI, 48228","Match","Non_Exact","4731 GRAND RIVER AVE, DETROIT, MI, 48208",95476019,"L"
222522,"4731 GREENSBORO ROAD","EUPORA","MS",39744,33.535766509,-89.394758043,22,"4731 GREENSBORO ROAD, EUPORA, MS, 39744","Match","Exact","4731 GREENSBORO RD, EUPORA, MS, 39744",652084943,"L"
222523,"4731 HARBOR SHAM ST","ROSHARON","TX",77583,29.5171439480001,-95.4262629199999,23,"4731 HARBOR SHAM ST, ROSHARON, TX, 77583","Match","Exact","4731 HARBOR SHAM ST, ROSHARON, TX, 77583",648020989,"R"
222524,"4731 LIBRA PL","YORBA LINDA","CA",92886,33.891999786,-117.83704537,24,"4731 LIBRA PL, YORBA LINDA, CA, 92886","Match","Exact","4731 LIBRA PL, YORBA LINDA, CA, 92886",143995794,"R"
222525,"4731 MEGAN ROAD","FLORENCE","SC",29505,34.089658593,-79.660464627,25,"4731 MEGAN ROAD, FLORENCE, SC, 29505","Match","Exact","4731 MEGAN RD, FLORENCE, SC, 29505",28866557,"R"
222526,"4731 N SPAULDING AVE APT 2","CHICAGO","IL",60625,41.9675225240001,-87.710883853,26,"4731 N SPAULDING AVE APT 2, CHICAGO, IL, 60625","Match","Non_Exact","4731 N SPAULDING AVE, CHICAGO, IL, 60625",605193434,"R"
222527,"4731 NORTH CLAIREMONT AVENUE","EAU CLAIRE","WI",54703,44.825108658,-91.5440656059999,27,"4731 NORTH CLAIREMONT AVENUE, EAU CLAIRE, WI, 54703","Match","Exact","4731 N CLAIREMONT AVE, EAU CLAIRE, WI, 54703",636689169,"R"
222528,"4731 NORTH HILLCREST","BEL AIRE","KS",67220,37.768324186,-97.265264147,28,"4731 NORTH HILLCREST, BEL AIRE, KS, 67220","Match","Non_Exact","4731 N HILLCREST ST, BEL AIRE, KS, 67220",115638667,"L"
222529,"4731 NW 7TH MANOR","COCONUT CREEK","FL",33063,26.2381485290001,-80.188611704,29,"4731 NW 7TH MANOR, COCONUT CREEK, FL, 33063","Match","Exact","4731 NW 7TH MANOR, COCONUT CREEK, FL, 33063",114771554,"R"
222530,"4731 OUTER BANK DRIVE","PEACHTREE CORNERS","GA",30092,33.996910127,-84.242440157,30,"4731 OUTER BANK DRIVE, PEACHTREE CORNERS, GA, 30092","Match","Exact","4731 OUTER BANK DR, PEACHTREE CORNERS, GA, 30092",88893185,"R"
222531,"4731 S QUARRY CREEK DRIVE","WHITE LAKE","MI",48383,NA,NA,31,"4731 S QUARRY CREEK DRIVE, WHITE LAKE, MI, 48383","No_Match",NA,NA,NA,NA
222532,"4731 SHADYBROOK WAY SE","CONYERS","GA",30094,33.5554281070001,-84.031819403,32,"4731 SHADYBROOK WAY SE, CONYERS, GA, 30094","Match","Exact","4731 SHADYBROOK WAY SE, CONYERS, GA, 30094",642557130,"L"
222533,"4731 SHANNONHOUSE DR APT 307","RALEIGH","NC",27612,35.8462107170001,-78.67107743,33,"4731 SHANNONHOUSE DR APT 307, RALEIGH, NC, 27612","Match","Exact","4731 SHANNONHOUSE DR, RALEIGH, NC, 27612",612814018,"L"
222534,"4731 SUMMERTIME DRIVE","NASHVILLE","TN",37207,NA,NA,34,"4731 SUMMERTIME DRIVE, NASHVILLE, TN, 37207","No_Match",NA,NA,NA,NA
222535,"4731 TURNSTONE DR","PRESCOTT","AZ",86301,34.5534215960001,-112.398039305,35,"4731 TURNSTONE DR, PRESCOTT, AZ, 86301","Match","Exact","4731 TURNSTONE DR, PRESCOTT, AZ, 86301",159503911,"R"
222536,"4731 VALLEY STREET","OMAHA","NE",68106,41.227745488,-95.984152719,36,"4731 VALLEY STREET, OMAHA, NE, 68106","Match","Exact","4731 VALLEY ST, OMAHA, NE, 68106",116983975,"L"
222537,"4731COUNTRY LANE APARTMENT B18","WARRENSVILLE","OH",44128,NA,NA,37,"4731COUNTRY LANE APARTMENT B18, WARRENSVILLE, OH, 44128","No_Match",NA,NA,NA,NA
222538,"4732 AMARYLLIS ST","ELIDA","OH",45807,40.780311248,-84.192071675,38,"4732 AMARYLLIS ST, ELIDA, OH, 45807","Match","Exact","4732 AMARYLLIS ST, ELIDA, OH, 45807",35572809,"L"
222539,"4732 CONGRESS DRIVE","NEW ORLEANS","LA",70126,30.0109093310001,-90.033268882,39,"4732 CONGRESS DRIVE, NEW ORLEANS, LA, 70126","Match","Exact","4732 CONGRESS DR, NEW ORLEANS, LA, 70126",191705188,"L"
222540,"4732 COOL SPRINGS RD","GAINESVILLE","GA",30506,34.38591209,-83.928172568,40,"4732 COOL SPRINGS RD, GAINESVILLE, GA, 30506","Match","Exact","4732 COOL SPRINGS RD, GAINESVILLE, GA, 30506",98244324,"L"
222541,"4732 COURTNEY LN","RALEIGH","NC",27616,35.8472240080001,-78.57032214,41,"4732 COURTNEY LN, RALEIGH, NC, 27616","Match","Exact","4732 COURTNEY LN, RALEIGH, NC, 27616",612812989,"R"
222542,"4732 GRISCOM STREET","PHIADELPHIA","PA",19124,40.0173563170001,-75.084455738,42,"4732 GRISCOM STREET, PHIADELPHIA, PA, 19124","Match","Non_Exact","4732 GRISCOM ST, PHILADELPHIA, PA, 19124",131428356,"L"
222543,"4732 KINGBIRD LANE","SAINT LOUIS","MO",63128,38.504013451,-90.352664488,43,"4732 KINGBIRD LANE, SAINT LOUIS, MO, 63128","Match","Exact","4732 KINGBIRD LN, SAINT LOUIS, MO, 63128",100142726,"L"
222544,"4732 MARPLE STREET 2ND FLR","PHILADELPHIA","PA",19136,40.0324380440001,-75.0293495179999,44,"4732 MARPLE STREET 2ND FLR, PHILADELPHIA, PA, 19136","Match","Exact","4732 MARPLE ST, PHILADELPHIA, PA, 19136",131435778,"R"
222545,"4732 OLD PINEVILLE RD","CHARLOTTE","NC",28217,35.1772710860001,-80.879594695,45,"4732 OLD PINEVILLE RD, CHARLOTTE, NC, 28217","Match","Exact","4732 OLD PINEVILLE RD, CHARLOTTE, NC, 28217",70557083,"R"
222546,"4732 SOMERS POINT ROAD","MAYS LANDING","NJ",8330,39.4163616290001,-74.708899881,46,"4732 SOMERS POINT ROAD, MAYS LANDING, NJ, 8330","Match","Exact","4732 SOMERS POINT RD, MAYS LANDING, NJ, 08330",642899401,"L"
222547,"4732 W BLUE MOUND RD","MILWAUKEE","WI",53208,43.0369361850001,-87.9734447129999,47,"4732 W BLUE MOUND RD, MILWAUKEE, WI, 53208","Match","Non_Exact","4732 W BLUEMOUND RD, MILWAUKEE, WI, 53208",77734178,"R"
222548,"4733 ALVIN STREET","HOUSTON","TX",77033,29.664174991,-95.35390577,48,"4733 ALVIN STREET, HOUSTON, TX, 77033","Match","Exact","4733 ALVIN ST, HOUSTON, TX, 77033",96089771,"L"
222549,"4733 BONITA DR","NEW ORLEANS","LA",70126,30.0198162680001,-89.99458443,49,"4733 BONITA DR, NEW ORLEANS, LA, 70126","Match","Exact","4733 BONITA DR, NEW ORLEANS, LA, 70126",191721048,"R"
222550,"4733 BRIDGETOWN CT","FORT WAYNE","IN",46804,41.040974718,-85.259787912,50,"4733 BRIDGETOWN CT, FORT WAYNE, IN, 46804","Match","Exact","4733 BRIDGETOWN CT, FORT WAYNE, IN, 46804",6373677,"L"
222551,"4733 CLEARWOOD LANE","OSAGE BEACH","MO",65065,38.1459868540001,-92.6350873969999,51,"4733 CLEARWOOD LANE, OSAGE BEACH, MO, 65065","Match","Exact","4733 CLEARWOOD LN, OSAGE BEACH, MO, 65065",22843347,"L"
222552,"4733 IRISH RED COURT","UNION CITY","GA",30291,33.546306477,-84.542348981,52,"4733 IRISH RED COURT, UNION CITY, GA, 30291","Match","Exact","4733 IRISH RED CT, UNION CITY, GA, 30291",627314421,"R"
222553,"4733 KLONDIKE CIRCLE","LITHONIA","GA",30038,33.638091876,-84.1358324239999,53,"4733 KLONDIKE CIRCLE, LITHONIA, GA, 30038","Match","Exact","4733 KLONDIKE CIR, LITHONIA, GA, 30038",23395846,"L"
222554,"4733 LIMBERLOST LANE","MANLIUS","NY",13104,43.001177925,-76.008223996,54,"4733 LIMBERLOST LANE, MANLIUS, NY, 13104","Match","Exact","4733 LIMBERLOST LN, MANLIUS, NY, 13104",46607569,"L"
222555,"4733 RALEIGH ROAD","HENDERSON","NC",27537,36.2663121310001,-78.408019205,55,"4733 RALEIGH ROAD, HENDERSON, NC, 27537","Match","Exact","4733 RALEIGH RD, HENDERSON, NC, 27537",652170076,"R"
222556,"4733 S CEDAR TRAIL","STEVENSVILLE","MI",49127,42.032557824,-86.5037725719999,56,"4733 S CEDAR TRAIL, STEVENSVILLE, MI, 49127","Match","Exact","4733 S CEDAR TRL, STEVENSVILLE, MI, 49127",119991364,"R"
222557,"4733 W BROWNS CANYON RD","PEOA","UT",84061,NA,NA,57,"4733 W BROWNS CANYON RD, PEOA, UT, 84061","Tie",NA,NA,NA,NA
222558,"4733 WALTONS CIRCLE","EVANS","GA",30809,33.577399567,-82.159946939,58,"4733 WALTONS CIRCLE, EVANS, GA, 30809","Match","Exact","4733 WALTONS CIR, EVANS, GA, 30809",55388958,"R"
222559,"47334 YUCATAN DRIVE","FREMONT","CA",94539,37.4868812,-121.917645839,59,"47334 YUCATAN DRIVE, FREMONT, CA, 94539","Match","Exact","47334 YUCATAN DR, FREMONT, CA, 94539",124990121,"L"
222560,"473398","AURORA","CO",80047,NA,NA,60,"473398, AURORA, CO, 80047","No_Match",NA,NA,NA,NA
222561,"4734 9TH AVE SOUTH","SAINT PETERSBURG","FL",33711,27.760851034,-82.69757999,61,"4734 9TH AVE SOUTH, SAINT PETERSBURG, FL, 33711","Match","Exact","4734 9TH AVE S, SAINT PETERSBURG, FL, 33711",124700940,"L"
222562,"4734 FOLSE DRIVE","METAIRIE","LA",70006,30.0242542890001,-90.192286944,62,"4734 FOLSE DRIVE, METAIRIE, LA, 70006","Match","Exact","4734 FOLSE DR, METAIRIE, LA, 70006",93497164,"L"
222563,"4734 JOHN STREET","SUITLAND","MD",20746,38.8242155610001,-76.8965525409999,63,"4734 JOHN STREET, SUITLAND, MD, 20746","Match","Exact","4734 JOHN ST, SUITLAND, MD, 20746",636219783,"R"
222564,"4734 MANULELE STREET","LIHUE","HI",96766,21.9946667900001,-159.362634853,64,"4734 MANULELE STREET, LIHUE, HI, 96766","Match","Exact","4734 MANULELE ST, LIHUE, HI, 96766",203392362,"R"
222565,"4734 SABAL KEY DRIVE","BRADENTON","FL",34203,27.450314056,-82.502971789,65,"4734 SABAL KEY DRIVE, BRADENTON, FL, 34203","Match","Exact","4734 SABAL KEY DR, BRADENTON, FL, 34203",16278228,"R"
222566,"4734 SPRUCE STREET","PHILADELPHIA","PA",19139,39.9534290060001,-75.216676996,66,"4734 SPRUCE STREET, PHILADELPHIA, PA, 19139","Match","Exact","4734 SPRUCE ST, PHILADELPHIA, PA, 19139",652295316,"L"
222567,"4734 THOROUGHBRED LOOP","ERIE","PA",16506,42.0530952290001,-80.174807799,67,"4734 THOROUGHBRED LOOP, ERIE, PA, 16506","Match","Exact","4734 THOROUGHBRED LOOP, ERIE, PA, 16506",617262005,"L"
222568,"47340 WINDMILL DRIVE","TICKFAW","LA",70466,30.542984861,-90.5433426719999,68,"47340 WINDMILL DRIVE, TICKFAW, LA, 70466","Match","Exact","47340 WINDMILL DR, TICKFAW, LA, 70466",75762858,"L"
222569,"4735 BLUE MOUNTAIN DR","YORBA LINDA","CA",92887,33.891906029,-117.757037272,69,"4735 BLUE MOUNTAIN DR, YORBA LINDA, CA, 92887","Match","Exact","4735 BLUE MOUNTAIN DR, YORBA LINDA, CA, 92887",144415645,"R"
222570,"4735 BRICKYARD ROAD","TILLAMOOK","OR",97141,45.419214534,-123.780209073,70,"4735 BRICKYARD ROAD, TILLAMOOK, OR, 97141","Match","Exact","4735 BRICKYARD RD, TILLAMOOK, OR, 97141",606589477,"R"
222571,"4735 CAROLWOOD DRIVE","MELBOURNE","FL",32934,28.138796821,-80.703138049,71,"4735 CAROLWOOD DRIVE, MELBOURNE, FL, 32934","Match","Exact","4735 CAROLWOOD DR, MELBOURNE, FL, 32934",93958593,"L"
222572,"4735 CEDAR SPRINGS ROAD","COLUMBIA","SC",29206,34.040028405,-80.971702694,72,"4735 CEDAR SPRINGS ROAD, COLUMBIA, SC, 29206","Match","Exact","4735 CEDAR SPRINGS RD, COLUMBIA, SC, 29206",71869718,"R"
222573,"4735 CORNELL RD","BLUE ASH","OH",45241,39.270349912,-84.377007772,73,"4735 CORNELL RD, BLUE ASH, OH, 45241","Match","Exact","4735 CORNELL RD, BLUE ASH, OH, 45241",103945258,"R"
222574,"4735 CORNELL ROAD","CINCINNATI","OH",45241,39.270349912,-84.377007772,74,"4735 CORNELL ROAD, CINCINNATI, OH, 45241","Match","Exact","4735 CORNELL RD, CINCINNATI, OH, 45241",103945258,"R"
222575,"4735 DESPERADO WAY","PARKER","CO",80134,39.431303063,-104.787138955,75,"4735 DESPERADO WAY, PARKER, CO, 80134","Match","Exact","4735 DESPERADO WAY, PARKER, CO, 80134",641020357,"R"
222576,"4735 HASSMAN COURT","CINCINNATI","OH",45223,39.1795467800001,-84.538679843,76,"4735 HASSMAN COURT, CINCINNATI, OH, 45223","Match","Exact","4735 HASSMAN CT, CINCINNATI, OH, 45223",645441309,"R"
222577,"4735 LANTANA ROAD","LAKE WORTH","FL",33463,26.5887655230001,-80.118348609,77,"4735 LANTANA ROAD, LAKE WORTH, FL, 33463","Match","Exact","4735 LANTANA RD, LAKE WORTH, FL, 33463",115558329,"R"
222578,"4735 MULBERRY STREET","PHILADELPHIA","PA",19124,40.014874745,-75.0790686879999,78,"4735 MULBERRY STREET, PHILADELPHIA, PA, 19124","Match","Exact","4735 MULBERRY ST, PHILADELPHIA, PA, 19124",636465477,"R"
222579,"4735 SEPULVEDA BLVD APT 406","SHERMAN OAKS","CA",91403,34.156219761,-118.466157761,79,"4735 SEPULVEDA BLVD APT 406, SHERMAN OAKS, CA, 91403","Match","Exact","4735 SEPULVEDA BLVD, SHERMAN OAKS, CA, 91403",629805438,"L"
222580,"4735 SEPULVEDA BLVD NUMBER 120","SHERMAN OAKS","CA",91403,34.156219761,-118.466157761,80,"4735 SEPULVEDA BLVD NUMBER 120, SHERMAN OAKS, CA, 91403","Match","Exact","4735 SEPULVEDA BLVD, SHERMAN OAKS, CA, 91403",629805438,"L"
222581,"4735 SEPULVEDA BLVD UNIT 247","SHERMAN OAKS","CA",91403,34.156219761,-118.466157761,81,"4735 SEPULVEDA BLVD UNIT 247, SHERMAN OAKS, CA, 91403","Match","Exact","4735 SEPULVEDA BLVD, SHERMAN OAKS, CA, 91403",629805438,"L"
222582,"4735 SEPULVEDA BLVE APT 107","SHERMAN OAKS","CA",91403,34.156219761,-118.466157761,82,"4735 SEPULVEDA BLVE APT 107, SHERMAN OAKS, CA, 91403","Match","Non_Exact","4735 SEPULVEDA BLVD, SHERMAN OAKS, CA, 91403",629805438,"L"
222583,"4735 SHILOH CROSSING WAY","CUMMNG","GA",30040,34.1437586770001,-84.198902075,83,"4735 SHILOH CROSSING WAY, CUMMNG, GA, 30040","Match","Non_Exact","4735 SHILOH CROSSING WAY, CUMMING, GA, 30040",627231199,"R"
222584,"4735 SOUTH 23RD WEST AVENUE","TULSA","OK",74107,36.09424374,-96.0182907399999,84,"4735 SOUTH 23RD WEST AVENUE, TULSA, OK, 74107","Match","Exact","4735 S 23RD WEST AVE, TULSA, OK, 74107",166441311,"R"
222585,"4735 SW 18 STREET","WEST PARK","FL",33023,25.99446471,-80.190717712,85,"4735 SW 18 STREET, WEST PARK, FL, 33023","Match","Exact","4735 SW 18TH ST, WEST PARK, FL, 33023",114735250,"R"
222586,"4735 TURNPIKE ROAD","BATH","NY",14810,42.332004366,-77.4399630249999,86,"4735 TURNPIKE ROAD, BATH, NY, 14810","Match","Exact","4735 TURNPIKE RD, BATH, NY, 14810",14711856,"R"
222587,"4735 W 115TH PLACE","ALSIP","IL",60803,41.6831379970001,-87.7361102469999,87,"4735 W 115TH PLACE, ALSIP, IL, 60803","Match","Exact","4735 W 115TH PL, ALSIP, IL, 60803",111818432,"L"
222588,"4735 W MAYPOLE AVE","CHICAGO","IL",60644,41.8844694210001,-87.743683324,88,"4735 W MAYPOLE AVE, CHICAGO, IL, 60644","Match","Exact","4735 W MAYPOLE AVE, CHICAGO, IL, 60644",605043388,"L"
222589,"4735 W TRAIL DUST ST","FAYETTEVILLE","AR",72704,36.0730809990001,-94.228748807,89,"4735 W TRAIL DUST ST, FAYETTEVILLE, AR, 72704","Match","Exact","4735 W TRAIL DUST ST, FAYETTEVILLE, AR, 72704",49094281,"L"
222590,"4735 WAVERLY LANE","JACKSONVILLE","FL",32210,30.258979229,-81.70669366,90,"4735 WAVERLY LANE, JACKSONVILLE, FL, 32210","Match","Exact","4735 WAVERLY LN, JACKSONVILLE, FL, 32210",83913950,"R"
222591,"4735 WESTCHESTER","PASADENA","TX",77505,29.640695271,-95.1397256979999,91,"4735 WESTCHESTER, PASADENA, TX, 77505","Match","Non_Exact","4735 WESTCHESTER ST, PASADENA, TX, 77505",96129138,"L"
222592,"4736 COUNTY ROAD GG","OSHKOSH","WI",54904,NA,NA,92,"4736 COUNTY ROAD GG, OSHKOSH, WI, 54904","No_Match",NA,NA,NA,NA
222593,"4736 CRATER RIM ROAD","CARLSBAD","CA",92040,33.158769566,-117.293492608,93,"4736 CRATER RIM ROAD, CARLSBAD, CA, 92040","Match","Non_Exact","4736 CRATER RIM RD, CARLSBAD, CA, 92010",195768543,"L"
222594,"4736 DRUID HILLS DRIVE","FRISCO","TX",75034,33.120422579,-96.846213798,94,"4736 DRUID HILLS DRIVE, FRISCO, TX, 75034","Match","Exact","4736 DRUID HILLS DR, FRISCO, TX, 75034",103419182,"R"
222595,"4736 GATESBURY DRIVE","SAINT LOUIS","MO",63128,38.5078945720001,-90.348152163,95,"4736 GATESBURY DRIVE, SAINT LOUIS, MO, 63128","Match","Exact","4736 GATESBURY DR, SAINT LOUIS, MO, 63128",100142728,"L"
222596,"4736 GREY DRIVE","LOS ANGELES","CA",90032,34.0834420780001,-118.183078925,96,"4736 GREY DRIVE, LOS ANGELES, CA, 90032","Match","Exact","4736 GREY DR, LOS ANGELES, CA, 90032",142255038,"R"
222597,"4736 HADLEY LANE","MANLIUS","NY",13104,43.0006044580001,-75.963715698,97,"4736 HADLEY LANE, MANLIUS, NY, 13104","Match","Exact","4736 HADLEY LN, MANLIUS, NY, 13104",46583639,"L"
222598,"4736 KINGDOM DR","MURFREESBORO","TN",37128,35.833752857,-86.478402764,98,"4736 KINGDOM DR, MURFREESBORO, TN, 37128","Match","Exact","4736 KINGDOM DR, MURFREESBORO, TN, 37128",652014440,"R"
222599,"4736 LAWRENCE LN","PLANO","TX",75093,33.045837104,-96.790465469,99,"4736 LAWRENCE LN, PLANO, TX, 75093","Match","Exact","4736 LAWRENCE LN, PLANO, TX, 75093",123532420,"L"
222600,"4736 LODGELANE DRIVE","COLUMBUS","OH",43229,40.0638126000001,-82.971328635,100,"4736 LODGELANE DRIVE, COLUMBUS, OH, 43229","Match","Exact","4736 LODGELANE DR, COLUMBUS, OH, 43229",640027496,"R"
222601,"4736 MANSFIELD HIGHWAY","FOREST HILL","TX",76119,32.67156529,-97.2546348559999,101,"4736 MANSFIELD HIGHWAY, FOREST HILL, TX, 76119","Match","Exact","4736 MANSFIELD HWY, FOREST HILL, TX, 76119",101899292,"R"
222602,"4736 MEADOWBROOK DR","OCEANSIDE","CA",92056,33.2202562160001,-117.268925397,102,"4736 MEADOWBROOK DR, OCEANSIDE, CA, 92056","Match","Exact","4736 MEADOWBROOK DR, OCEANSIDE, CA, 92056",195412584,"L"
222603,"4736 MORNING GLORY COURT","MEMPHIS","TN",38118,35.019449621,-89.943373679,103,"4736 MORNING GLORY COURT, MEMPHIS, TN, 38118","Match","Exact","4736 MORNING GLORY CT, MEMPHIS, TN, 38118",72923377,"L"
222604,"4736 N 12TH ST","PHILADELPHIA","PA",19141,40.0249289120001,-75.143950951,104,"4736 N 12TH ST, PHILADELPHIA, PA, 19141","Match","Exact","4736 N 12TH ST, PHILADELPHIA, PA, 19141",652294500,"L"
222605,"4736 OAK CLUB DRIVE","ARLINGTON","TX",76017,32.6688620730001,-97.1572169199999,105,"4736 OAK CLUB DRIVE, ARLINGTON, TX, 76017","Match","Exact","4736 OAK CLUB DR, ARLINGTON, TX, 76017",101906466,"R"
222606,"4736 OCEANIA STREET","BAYSIDE","NY",11361,NA,NA,106,"4736 OCEANIA STREET, BAYSIDE, NY, 11361","No_Match",NA,NA,NA,NA
222607,"4736 PENN AVENUE","PITTSBURGH","PA",15224,40.4655839860001,-79.94727468,107,"4736 PENN AVENUE, PITTSBURGH, PA, 15224","Match","Exact","4736 PENN AVE, PITTSBURGH, PA, 15224",619163875,"R"
222608,"4736 SE 136TH AVE","PORTLAND","OR",97236,45.487797582,-122.523560334,108,"4736 SE 136TH AVE, PORTLAND, OR, 97236","Match","Exact","4736 SE 136TH AVE, PORTLAND, OR, 97236",157537440,"L"
222609,"4736 SYLVAN AVE","PITTSBURGH","PA",15207,40.413048621,-79.942411106,109,"4736 SYLVAN AVE, PITTSBURGH, PA, 15207","Match","Exact","4736 SYLVAN AVE, PITTSBURGH, PA, 15207",51650408,"R"
222610,"4736 WHISPERING WINDS PL","DOUGLASVILLE","GA",30135,33.6744775060001,-84.659352632,110,"4736 WHISPERING WINDS PL, DOUGLASVILLE, GA, 30135","Match","Exact","4736 WHISPERING WINDS PL, DOUGLASVILLE, GA, 30135",618466077,"L"
222611,"4736 WHITE WILLOW LANE","ORLANDO","FL",32808,28.5834258250001,-81.445484375,111,"4736 WHITE WILLOW LANE, ORLANDO, FL, 32808","Match","Exact","4736 WHITE WILLOW LN, ORLANDO, FL, 32808",94270261,"R"
222612,"4737 CARNOUSTIE LANE","MANLIUS","NY",13104,43.0015165250001,-75.9504729879999,112,"4737 CARNOUSTIE LANE, MANLIUS, NY, 13104","Match","Exact","4737 CARNOUSTIE LN, MANLIUS, NY, 13104",46587677,"L"
222613,"4737 CEDAR LAKE DRIVE SE","CONYERS","GA",30094,33.5576137850001,-84.024658605,113,"4737 CEDAR LAKE DRIVE SE, CONYERS, GA, 30094","Match","Exact","4737 CEDAR LAKE DR SE, CONYERS, GA, 30094",23745556,"R"
222614,"4737 COUNTRY RD 101 NO 298","MINNETONKA","MN",55345,NA,NA,114,"4737 COUNTRY RD 101 NO 298, MINNETONKA, MN, 55345","No_Match",NA,NA,NA,NA
222615,"4737 COUNTY ROAD 101 STE 128","MINNETONKA","MN",55345,44.9200324780001,-93.503248994,115,"4737 COUNTY ROAD 101 STE 128, MINNETONKA, MN, 55345","Match","Exact","4737 CO RD 101, MINNETONKA, MN, 55345",641220175,"L"
222616,"4737 EUREKA ROAD","GRANITE BAY","CA",95746,38.736458956,-121.213645996,116,"4737 EUREKA ROAD, GRANITE BAY, CA, 95746","Match","Exact","4737 EUREKA RD, GRANITE BAY, CA, 95746",106810161,"L"
222617,"4737 GOLDEN SKY WAY 181","SAN DIEGO","CA",92154,NA,NA,117,"4737 GOLDEN SKY WAY 181, SAN DIEGO, CA, 92154","No_Match",NA,NA,NA,NA
222618,"4737 GULF BLVD","ST. PETE BEACH","FL",33706,27.722221529,-82.740321839,118,"4737 GULF BLVD, ST. PETE BEACH, FL, 33706","Match","Exact","4737 GULF BLVD, SAINT PETE BEACH, FL, 33706",636396353,"R"
222619,"4737 LEVELSIDE AVE","LAKEWOOD","CA",90712,33.844140591,-118.154599224,119,"4737 LEVELSIDE AVE, LAKEWOOD, CA, 90712","Match","Exact","4737 LEVELSIDE AVE, LAKEWOOD, CA, 90712",141699139,"L"
222620,"4737 MAYER TRACE","ELLENWOOD","GA",30294,33.6522275460001,-84.219230253,120,"4737 MAYER TRACE, ELLENWOOD, GA, 30294","Match","Exact","4737 MAYER TRCE, ELLENWOOD, GA, 30294",640580638,"R"
222621,"4737 S SEMINOLE DR","DOUGLASVILLE","GA",30135,33.677222144,-84.785733305,121,"4737 S SEMINOLE DR, DOUGLASVILLE, GA, 30135","Match","Exact","4737 S SEMINOLE DR, DOUGLASVILLE, GA, 30135",16648963,"R"
222622,"4737 SHINNECOCK HILLS 104","TOLEDO","OH",43615,41.6502717340001,-83.65541654,122,"4737 SHINNECOCK HILLS 104, TOLEDO, OH, 43615","Match","Exact","4737 SHINNECOCK HILLS, TOLEDO, OH, 43615",33959807,"L"
222623,"4737 SOUTH QUAIL POINT ROAD","SALT LAKE CITY","UT",84124,40.6662356520001,-111.799053137,123,"4737 SOUTH QUAIL POINT ROAD, SALT LAKE CITY, UT, 84124","Match","Exact","4737 S QUAIL POINT RD, SALT LAKE CITY, UT, 84124",176094937,"L"
222624,"4737 W SLAUSON AVE","LOS ANGELES","CA",90056,33.9884321860001,-118.359662578,124,"4737 W SLAUSON AVE, LOS ANGELES, CA, 90056","Match","Exact","4737 W SLAUSON AVE, LOS ANGELES, CA, 90056",141814065,"R"
222625,"4737 WOODRIDGE ROAD","MINNETONKA","MN",55345,44.917114713,-93.458167147,125,"4737 WOODRIDGE ROAD, MINNETONKA, MN, 55345","Match","Exact","4737 WOODRIDGE RD, MINNETONKA, MN, 55345",43826046,"L"
222626,"4738 NW 107 AVE APT 202","DORAL","FL",33178,25.816579602,-80.369596187,126,"4738 NW 107 AVE APT 202, DORAL, FL, 33178","Match","Non_Exact","4738 NW 107TH AVE, DORAL, FL, 33178",625161091,"R"
222627,"4738 ROSE WAY","UNION CITY","CA",94587,37.5772792980001,-122.077427872,127,"4738 ROSE WAY, UNION CITY, CA, 94587","Match","Exact","4738 ROSE WAY, UNION CITY, CA, 94587",125039614,"L"
222628,"4738 ROSEMONT PL","NEW ORLEANS","LA",70126,30.0188410870001,-90.0001549469999,128,"4738 ROSEMONT PL, NEW ORLEANS, LA, 70126","Match","Exact","4738 ROSEMONT PL, NEW ORLEANS, LA, 70126",191720891,"L"
222629,"4738 SW 13TH COURT","DEERFIELD BEACH","FL",33442,26.298137582,-80.167751725,129,"4738 SW 13TH COURT, DEERFIELD BEACH, FL, 33442","Match","Exact","4738 SW 13TH CT, DEERFIELD BEACH, FL, 33442",640129627,"L"
222630,"4738 W AVENUE M10","QUARTZ HILL","CA",93536,34.6363833840001,-118.215806121,130,"4738 W AVENUE M10, QUARTZ HILL, CA, 93536","Match","Exact","4738 W AVE M10, QUARTZ HILL, CA, 93536",141523025,"R"
222631,"47385 WARM SPRINGS BLVD","FREMONT","CA",94539,37.4826788180001,-121.925487291,131,"47385 WARM SPRINGS BLVD, FREMONT, CA, 94539","Match","Exact","47385 WARM SPRINGS BLVD, FREMONT, CA, 94539",124989987,"R"
222632,"4739 BIG SKY CT","RED WING","MN",55066,44.562455406,-92.623646363,132,"4739 BIG SKY CT, RED WING, MN, 55066","Match","Exact","4739 BIG SKY CT, RED WING, MN, 55066",31561627,"L"
222633,"4739 CHARLESTON HWY","WALTERBORO","SC",29488,32.866052692,-80.611528645,133,"4739 CHARLESTON HWY, WALTERBORO, SC, 29488","Match","Exact","4739 CHARLESTON HWY, WALTERBORO, SC, 29488",652092037,"R"
222634,"4739 E W T HARRIS BLVD","CHARLOTTE","NC",28215,35.2510582800001,-80.736951178,134,"4739 E W T HARRIS BLVD, CHARLOTTE, NC, 28215","Match","Non_Exact","4739 E WT HARRIS BLVD, CHARLOTTE, NC, 28215",70482446,"R"
222635,"4739 HAIRSTON CROSSING ROAD","STONE MOUNTAIN","GA",30083,33.7967554680001,-84.1961974009999,135,"4739 HAIRSTON CROSSING ROAD, STONE MOUNTAIN, GA, 30083","Match","Exact","4739 HAIRSTON CROSSING RD, STONE MOUNTAIN, GA, 30083",23364546,"R"
222636,"4739 LARKWOOD STREET","EUGENE","OR",97405,44.0024289260001,-123.082579513,136,"4739 LARKWOOD STREET, EUGENE, OR, 97405","Match","Exact","4739 LARKWOOD ST, EUGENE, OR, 97405",178175654,"L"
222637,"4739 RUBY FORREST DRIVE","STONE MOUNTAIN","GA",30083,33.771050933,-84.199969502,137,"4739 RUBY FORREST DRIVE, STONE MOUNTAIN, GA, 30083","Match","Exact","4739 RUBY FORREST DR, STONE MOUNTAIN, GA, 30083",637481349,"R"
222638,"4739 STARGAZER PLACE","PALMDALE","CA",93552,34.5452775630001,-118.043660626,138,"4739 STARGAZER PLACE, PALMDALE, CA, 93552","Match","Exact","4739 STARGAZER PL, PALMDALE, CA, 93552",625709570,"L"
222639,"4739 SW 5TH ST","MIAMI","FL",33134,25.76705952,-80.272392264,139,"4739 SW 5TH ST, MIAMI, FL, 33134","Match","Non_Exact","4739 SW 5TH ST, MIAMI, FL, 33134",116010002,"R"
222640,"4739 TIMES DTREET","GRAND PRAIRIE","TX",75052,32.656841296,-97.015779697,140,"4739 TIMES DTREET, GRAND PRAIRIE, TX, 75052","Match","Non_Exact","4739 TIMES ST, GRAND PRAIRIE, TX, 75052",103277409,"R"
222641,"474 ARMORY ST","SPRINGFIELD","MA",1104,42.1216651010001,-72.588099025,141,"474 ARMORY ST, SPRINGFIELD, MA, 1104","Match","Exact","474 ARMORY ST, SPRINGFIELD, MA, 01104",4045091,"L"
222642,"474 BACK COVE ROAD","WALDOBORO","ME",4572,44.0329987580001,-69.34709321,142,"474 BACK COVE ROAD, WALDOBORO, ME, 4572","Match","Exact","474 BACK COVE RD, WALDOBORO, ME, 04572",635849719,"R"
222643,"474 BROAD RIVER BLVD","BEAUFORT","SC",29906,32.4207420550001,-80.755203997,143,"474 BROAD RIVER BLVD, BEAUFORT, SC, 29906","Match","Exact","474 BROAD RIVER BLVD, BEAUFORT, SC, 29906",87632572,"L"
222644,"474 BRUSH CREEK RD","ALEXANDRIA","TN",37012,36.0733919410001,-86.024614177,144,"474 BRUSH CREEK RD, ALEXANDRIA, TN, 37012","Match","Exact","474 BRUSH CREEK RD, ALEXANDRIA, TN, 37012",34205099,"R"
222645,"474 GILMORE MALL","DETROIT","MI",48202,NA,NA,145,"474 GILMORE MALL, DETROIT, MI, 48202","No_Match",NA,NA,NA,NA
222646,"474 GODDARD","KYLE","TX",78640,29.9692300740001,-97.863653507,146,"474 GODDARD, KYLE, TX, 78640","Match","Exact","474 GODDARD, KYLE, TX, 78640",648220175,"R"
222647,"474 GREENWOOD ROAD","KENNETT SQUARE","PA",19348,39.8551377320001,-75.6606729329999,147,"474 GREENWOOD ROAD, KENNETT SQUARE, PA, 19348","Match","Exact","474 GREENWOOD RD, KENNETT SQUARE, PA, 19348",179535544,"L"
222648,"474 HUNTING PARK LANE","YORK","PA",17402,39.9677734320001,-76.67423,148,"474 HUNTING PARK LANE, YORK, PA, 17402","Match","Exact","474 HUNTING PARK LN, YORK, PA, 17402",88733421,"R"
222649,"474 JAMUL CT","CHULA VISTA","CA",91911,32.6246912600001,-117.039162475,149,"474 JAMUL CT, CHULA VISTA, CA, 91911","Match","Exact","474 JAMUL CT, CHULA VISTA, CA, 91911",195363769,"R"
222650,"474 LCR 799","GROESBECK","TX",76642,NA,NA,150,"474 LCR 799, GROESBECK, TX, 76642","No_Match",NA,NA,NA,NA
222651,"474 LIBERTY RD","SALEM","OR",97302,NA,NA,151,"474 LIBERTY RD, SALEM, OR, 97302","No_Match",NA,NA,NA,NA
222652,"474 MEADOW WIND","NEW BRAUNFELS","TX",78132,29.649249491,-98.1814909509999,152,"474 MEADOW WIND, NEW BRAUNFELS, TX, 78132","Match","Exact","474 MEADOW WIND, NEW BRAUNFELS, TX, 78132",650287574,"R"
222653,"474 MILTON ROAD","RYE","NY",10580,40.9637989450001,-73.687608425,153,"474 MILTON ROAD, RYE, NY, 10580","Match","Exact","474 MILTON RD, RYE, NY, 10580",139756919,"R"
222654,"474 MOSSYCUP DRIVE","FAIRBURN","GA",30213,33.6326523870001,-84.6202474039999,154,"474 MOSSYCUP DRIVE, FAIRBURN, GA, 30213","Match","Exact","474 MOSSYCUP DR, FAIRBURN, GA, 30213",653481690,"L"
222655,"474 N 7TH ST","NEWARK","NJ",7107,40.765943867,-74.1843083919999,155,"474 N 7TH ST, NEWARK, NJ, 7107","Match","Exact","474 N 7TH ST, NEWARK, NJ, 07107",63454821,"L"
222656,"474 N 7TH STREET","NEWARK","NJ",7107,40.765943867,-74.1843083919999,156,"474 N 7TH STREET, NEWARK, NJ, 7107","Match","Exact","474 N 7TH ST, NEWARK, NJ, 07107",63454821,"L"
222657,"474 N CENTER CT","ORCUTT","CA",93455,34.882666532,-120.428614564,157,"474 N CENTER CT, ORCUTT, CA, 93455","Match","Exact","474 N CENTER CT, ORCUTT, CA, 93455",617078467,"L"
222658,"474 N CORAL CANYON LOOP APT 229","FAYETTEVILLE","AR",72704,36.070550483,-94.208658815,158,"474 N CORAL CANYON LOOP APT 229, FAYETTEVILLE, AR, 72704","Match","Non_Exact","474 N CORAL CANYON LOOP, FAYETTEVILLE, AR, 72704",617846366,"R"
222659,"474 N LAKE SHORE DR APT 2009","CHICAGO","IL",60611,41.8908581110001,-87.614236416,159,"474 N LAKE SHORE DR APT 2009, CHICAGO, IL, 60611","Match","Non_Exact","474 N LAKE SHORE DR, CHICAGO, IL, 60611",111769236,"L"
222660,"474 NE OLEARY ST","OAK HARBOR","WA",98277,48.301868181,-122.640060268,160,"474 NE OLEARY ST, OAK HARBOR, WA, 98277","Match","Exact","474 NE OLEARY ST, OAK HARBOR, WA, 98277",187613022,"R"
222661,"474 OCEAN FOREST DR","ST AUGUSTINE","FL",32089,29.837308245,-81.2721110479999,161,"474 OCEAN FOREST DR, ST AUGUSTINE, FL, 32089","Match","Non_Exact","474 OCEAN FOREST DR, SAINT AUGUSTINE, FL, 32080",92626660,"R"
222662,"474 POSSUM COURT","CAPITOL HEIGHTS","MD",20743,38.884059044,-76.8662294649999,162,"474 POSSUM COURT, CAPITOL HEIGHTS, MD, 20743","Match","Exact","474 POSSUM CT, CAPITOL HEIGHTS, MD, 20743",624430529,"L"
222663,"474 RURAL HILL RD","NASHVILLE","TN",37217,36.0796395090001,-86.627902023,163,"474 RURAL HILL RD, NASHVILLE, TN, 37217","Match","Exact","474 RURAL HILL RD, NASHVILLE, TN, 37217",97199966,"R"
222664,"474 S MARGINAL RD","JERICHO","NY",11753,40.7828576650001,-73.548376638,164,"474 S MARGINAL RD, JERICHO, NY, 11753","Match","Exact","474 S MARGINAL RD, JERICHO, NY, 11753",147841756,"R"
222665,"474 S STATE STREET NO 78","OREM","UT",84058,NA,NA,165,"474 S STATE STREET NO 78, OREM, UT, 84058","No_Match",NA,NA,NA,NA
222666,"474 SNELL ROAD","GENEVA","NY",14456,42.8336317930001,-76.9951302489999,166,"474 SNELL ROAD, GENEVA, NY, 14456","Match","Exact","474 SNELL RD, GENEVA, NY, 14456",647714152,"L"
222667,"474 SOUTH KENDALL AVENUE","BRADFORD","PA",16701,41.9463784160001,-78.598345772,167,"474 SOUTH KENDALL AVENUE, BRADFORD, PA, 16701","Match","Exact","474 S KENDALL AVE, BRADFORD, PA, 16701",122645830,"L"
222668,"474 STAMBAUGH AVE","SHARON","PA",16146,41.2262708530001,-80.4934055319999,168,"474 STAMBAUGH AVE, SHARON, PA, 16146","Match","Exact","474 STAMBAUGH AVE, SHARON, PA, 16146",70653142,"R"
222669,"474 SUNSET AVENUE NW UNIT B","ATLANTA","GA",30318,33.7676233770001,-84.4099003539999,169,"474 SUNSET AVENUE NW UNIT B, ATLANTA, GA, 30318","Match","Exact","474 SUNSET AVE NW, ATLANTA, GA, 30318",17342304,"L"
222670,"474 W BROADWAY","CEDARHURST","NY",11516,NA,NA,170,"474 W BROADWAY, CEDARHURST, NY, 11516","Tie",NA,NA,NA,NA
222671,"474 W MENLO AVE","CLOVIS","AR",93612,NA,NA,171,"474 W MENLO AVE, CLOVIS, AR, 93612","No_Match",NA,NA,NA,NA
222672,"474 W WISER LAKE RD","FERNDALE","WA",98248,48.9060955050001,-122.506886677,172,"474 W WISER LAKE RD, FERNDALE, WA, 98248","Match","Exact","474 W WISER LAKE RD, FERNDALE, WA, 98248",624727402,"L"
222673,"474 WEISNER DR","LEXINGTON","NC",27295,35.9230248050001,-80.2061604359999,173,"474 WEISNER DR, LEXINGTON, NC, 27295","Match","Exact","474 WEISNER DR, LEXINGTON, NC, 27295",20214996,"L"
222674,"474 WEST MAIN STREET","HYANNIS","MA",2601,41.649990476,-70.31307226,174,"474 WEST MAIN STREET, HYANNIS, MA, 2601","Match","Exact","474 W MAIN ST, HYANNIS, MA, 02601",121641201,"R"
222675,"474 WHITE PINE RD","COLUMBUS","NJ",8022,40.0990899880001,-74.705469496,175,"474 WHITE PINE RD, COLUMBUS, NJ, 8022","Match","Exact","474 WHITE PINE RD, COLUMBUS, NJ, 08022",134054024,"L"
222676,"474 WYANDOTTE AVE","COLUMBUS","OH",43202,40.0100050670001,-82.997518966,176,"474 WYANDOTTE AVE, COLUMBUS, OH, 43202","Match","Exact","474 WYANDOTTE AVE, COLUMBUS, OH, 43202",218652814,"L"
222677,"4740 68TH AVENUE","HYATTSVILLE","MD",20784,38.947278736,-76.903210096,177,"4740 68TH AVENUE, HYATTSVILLE, MD, 20784","Match","Exact","4740 68TH AVE, HYATTSVILLE, MD, 20784",76358309,"L"
222678,"4740 6TH AVENUE SE","ABERDEEN","SD",57401,NA,NA,178,"4740 6TH AVENUE SE, ABERDEEN, SD, 57401","No_Match",NA,NA,NA,NA
222679,"4740 ASHURST STREET","KISSIMMEE","FL",34758,28.204521073,-81.474317518,179,"4740 ASHURST STREET, KISSIMMEE, FL, 34758","Match","Exact","4740 ASHURST ST, KISSIMMEE, FL, 34758",624648589,"R"
222680,"4740 BALBOA STREET APT 310","SAN FRANCISCO","CA",94121,37.775164284,-122.509544469,180,"4740 BALBOA STREET APT 310, SAN FRANCISCO, CA, 94121","Match","Exact","4740 BALBOA ST, SAN FRANCISCO, CA, 94121",192276683,"R"
222681,"4740 BAUER RD","BRIGHTON","MI",48116,42.5325556490001,-83.812651188,181,"4740 BAUER RD, BRIGHTON, MI, 48116","Match","Exact","4740 BAUER RD, BRIGHTON, MI, 48116",23544523,"L"
222682,"4740 BRADLEY BLVD APT 321","CHEVY CHASE","MD",20815,38.9781337100001,-77.093452326,182,"4740 BRADLEY BLVD APT 321, CHEVY CHASE, MD, 20815","Match","Exact","4740 BRADLEY BLVD, CHEVY CHASE, MD, 20815",62065888,"L"
222683,"4740 DRDA LANE","EDWARDSVILLE","IL",62025,38.832958236,-89.985379579,183,"4740 DRDA LANE, EDWARDSVILLE, IL, 62025","Match","Exact","4740 DRDA LN, EDWARDSVILLE, IL, 62025",107704657,"L"
222684,"4740 EAST 2ND STREET UNIT 32","BENICIA","CA",94510,38.080878824,-122.128854579,184,"4740 EAST 2ND STREET UNIT 32, BENICIA, CA, 94510","Match","Exact","4740 E 2ND ST, BENICIA, CA, 94510",192561293,"R"
222685,"4740 EULATON RD","ANNISTON","AL",36201,33.654430254,-85.895150858,185,"4740 EULATON RD, ANNISTON, AL, 36201","Match","Exact","4740 EULATON RD, ANNISTON, AL, 36201",66540761,"L"
222686,"4740 FIREBROOK BLVD","LEXINGTON","KY",40513,37.9944956640001,-84.5925475289999,186,"4740 FIREBROOK BLVD, LEXINGTON, KY, 40513","Match","Exact","4740 FIREBROOK BLVD, LEXINGTON, KY, 40513",31937988,"R"
222687,"4740 FLINTRIDGE DR 120","COLORADO SPRINGS","CO",80918,38.900332731,-104.768722265,187,"4740 FLINTRIDGE DR 120, COLORADO SPRINGS, CO, 80918","Match","Exact","4740 FLINTRIDGE DR, COLORADO SPRINGS, CO, 80918",105516008,"L"
222688,"4740 FLINTRIDGE DR STE 220D","COLORADO SPRINGS","CO",80918,38.900332731,-104.768722265,188,"4740 FLINTRIDGE DR STE 220D, COLORADO SPRINGS, CO, 80918","Match","Exact","4740 FLINTRIDGE DR, COLORADO SPRINGS, CO, 80918",105516008,"L"
222689,"4740 GREEN RIVER RD STE 217","CORONA","CA",92880,33.876711691,-117.661528985,189,"4740 GREEN RIVER RD STE 217, CORONA, CA, 92880","Match","Non_Exact","4740 GREEN RIVER RD, CORONA, CA, 92878",638580162,"L"
222690,"4740 KANDEL CT","ANNANDALE","VA",22003,38.820662213,-77.18925725,190,"4740 KANDEL CT, ANNANDALE, VA, 22003","Match","Exact","4740 KANDEL CT, ANNANDALE, VA, 22003",76021151,"L"
222691,"4740 LEWIS AND CLARK TRAIL","SUMMERVILLE","SC",29485,33.004269601,-80.134969316,191,"4740 LEWIS AND CLARK TRAIL, SUMMERVILLE, SC, 29485","Match","Exact","4740 LEWIS AND CLARK TRL, SUMMERVILLE, SC, 29485",645437398,"R"
222692,"4740 MEMORIAL DRIVE SUITE E","DECATUR","GA",30032,33.784510089,-84.235678757,192,"4740 MEMORIAL DRIVE SUITE E, DECATUR, GA, 30032","Match","Exact","4740 MEMORIAL DR, DECATUR, GA, 30032",23370034,"L"
222693,"4740 MISSION GORGE PL UNIT 600944","SAN DIEGO","CA",92160,32.7826141560001,-117.092242814,193,"4740 MISSION GORGE PL UNIT 600944, SAN DIEGO, CA, 92160","Match","Non_Exact","4740 MISSION GORGE PL, SAN DIEGO, CA, 92120",195752009,"L"
222694,"4740 MOORPARK WAY","SACRAMENTO","CA",95842,38.671797015,-121.354181913,194,"4740 MOORPARK WAY, SACRAMENTO, CA, 95842","Match","Exact","4740 MOORPARK WAY, SACRAMENTO, CA, 95842",133332679,"R"
222695,"4740 N 19TH ST - 102","BISMARCK","ND",58503,46.856661446,-100.762063701,195,"4740 N 19TH ST - 102, BISMARCK, ND, 58503","Match","Non_Exact","4740 N 19TH ST, BISMARCK, ND, 58503",198883988,"L"
222696,"4740 N CUMBERLAND AVE NUM 260","CHICAGO","IL",60656,41.9657857880001,-87.836707243,196,"4740 N CUMBERLAND AVE NUM 260, CHICAGO, IL, 60656","Match","Exact","4740 CUMBERLAND AVE, CHICAGO, IL, 60656",111746195,"L"
222697,"4740 N STATE ROAD 7","FT LAUDERDALE","FL",33319,NA,NA,197,"4740 N STATE ROAD 7, FT LAUDERDALE, FL, 33319","No_Match",NA,NA,NA,NA
222698,"4740 NORTH MARKET STREET","SHREVEPORT","LA",71107,32.584040766,-93.8066507949999,198,"4740 NORTH MARKET STREET, SHREVEPORT, LA, 71107","Match","Exact","4740 N MARKET ST, SHREVEPORT, LA, 71107",647891792,"R"
222699,"4740 ROANOKE PKWY SUITE 404","KANSAS CITY","MO",64112,39.041696318,-94.597335609,199,"4740 ROANOKE PKWY SUITE 404, KANSAS CITY, MO, 64112","Match","Exact","4740 ROANOKE PKWY, KANSAS CITY, MO, 64112",91446938,"R"
222700,"4740 S COURT STREET","MONTGOMERY","AL",36105,32.3206065730001,-86.307716821,200,"4740 S COURT STREET, MONTGOMERY, AL, 36105","Match","Exact","4740 S COURT ST, MONTGOMERY, AL, 36105",642884373,"R"
222701,"4740 TRUELAND DRIVE","FORT WORTH","TN",76119,NA,NA,201,"4740 TRUELAND DRIVE, FORT WORTH, TN, 76119","No_Match",NA,NA,NA,NA
222702,"4740 WALKERTOWN PLAZA BOULEVARD","WALKERTOWN","NC",27051,NA,NA,202,"4740 WALKERTOWN PLAZA BOULEVARD, WALKERTOWN, NC, 27051","No_Match",NA,NA,NA,NA
222703,"4741 26TH AVE SW","SEATTLE","WA",98106,47.5599224310001,-122.365511479,203,"4741 26TH AVE SW, SEATTLE, WA, 98106","Match","Exact","4741 26TH AVE SW, SEATTLE, WA, 98106",186590871,"R"
222704,"4741 2ND AVE","DETROIT","MI",48201,42.3534803480001,-83.067884985,204,"4741 2ND AVE, DETROIT, MI, 48201","Match","Exact","4741 2ND AVE, DETROIT, MI, 48201",95477530,"L"
222705,"4741 ATLANTIC BLVD SUITE C","JACKSONVILLE","FL",32207,30.3091650590001,-81.61536797,205,"4741 ATLANTIC BLVD SUITE C, JACKSONVILLE, FL, 32207","Match","Exact","4741 ATLANTIC BLVD, JACKSONVILLE, FL, 32207",83968542,"L"
222706,"4741 CENTRAL PMB 270","KANSAS CITY","MO",64112,39.041220853,-94.59036516,206,"4741 CENTRAL PMB 270, KANSAS CITY, MO, 64112","Match","Non_Exact","4741 CENTRAL ST, KANSAS CITY, MO, 64112",91447581,"L"
222707,"4741 CENTRAL STREET SUITE 453","KANSAS CITY","KS",64112,NA,NA,207,"4741 CENTRAL STREET SUITE 453, KANSAS CITY, KS, 64112","No_Match",NA,NA,NA,NA
222708,"4741 CENTRAL SUITE 131","KANSAS CITY","MO",64112,39.041220853,-94.59036516,208,"4741 CENTRAL SUITE 131, KANSAS CITY, MO, 64112","Match","Non_Exact","4741 CENTRAL ST, KANSAS CITY, MO, 64112",91447581,"L"
222709,"4741 CLAIREMONT MESA BLVD 202","SAN DIEGO","CA",92117,32.834463683,-117.188527541,209,"4741 CLAIREMONT MESA BLVD 202, SAN DIEGO, CA, 92117","Match","Exact","4741 CLAIREMONT MESA BLVD, SAN DIEGO, CA, 92117",195304701,"R"
222710,"4741 EAST 173RD","CLEVELAND","OH",44128,41.4304206940001,-81.558810379,210,"4741 EAST 173RD, CLEVELAND, OH, 44128","Match","Non_Exact","4741 E 173RD ST, CLEVELAND, OH, 44128",61129233,"L"
222711,"4741 EAST 85TH STREET","GARFIELD HTS","OH",44125,41.4303672230001,-81.625800355,211,"4741 EAST 85TH STREET, GARFIELD HTS, OH, 44125","Match","Exact","4741 E 85TH ST, GARFIELD HEIGHTS, OH, 44125",61119298,"L"
222712,"4741 GLENN PINE LANE","BOYNTON BEACH","FL",33436,26.4862370810001,-80.11892656,212,"4741 GLENN PINE LANE, BOYNTON BEACH, FL, 33436","Match","Exact","4741 GLENN PINE LN, BOYNTON BEACH, FL, 33436",115490066,"R"
222713,"4741 LUSK RD","GILBERTOWN","AL",36908,31.907060933,-88.285041174,213,"4741 LUSK RD, GILBERTOWN, AL, 36908","Match","Non_Exact","4741 OLD LUSK RD, GILBERTOWN, AL, 36908",109300,"R"
222714,"4741 MATTERHORN WAY","ANTIOCH","CA",94531,37.973018176,-121.80399196,214,"4741 MATTERHORN WAY, ANTIOCH, CA, 94531","Match","Exact","4741 MATTERHORN WAY, ANTIOCH, CA, 94531",192109562,"R"
222715,"4741 N VIKING TRAIL","NEW CASTLE","IN",47362,39.9994090210001,-85.327688548,215,"4741 N VIKING TRAIL, NEW CASTLE, IN, 47362","Match","Exact","4741 VIKING TRL, NEW CASTLE, IN, 47362",635606982,"L"
222716,"4741 NW GAINSVILLE RD","OCALA","FL",34475,29.2369478090001,-82.16026211,216,"4741 NW GAINSVILLE RD, OCALA, FL, 34475","Match","Non_Exact","4741 NW GAINESVILLE RD, OCALA, FL, 34475",116818069,"R"
222717,"4741 ORANGEWOOD  CT","PLEASANTON","CA",94588,37.6792327810001,-121.921885203,217,"4741 ORANGEWOOD  CT, PLEASANTON, CA, 94588","Match","Exact","4741 ORANGEWOOD CT, PLEASANTON, CA, 94588",125031398,"R"
222718,"4741 PINE VIEW LANE","CHATTANOOGA","TN",37516,35.0922963940001,-85.173391856,218,"4741 PINE VIEW LANE, CHATTANOOGA, TN, 37516","Match","Non_Exact","4741 PINE VIEW LN, CHATTANOOGA, TN, 37416",59316466,"L"
222719,"4741 RHETT DR","EVANS","GA",30809,33.517752521,-82.1522669559999,219,"4741 RHETT DR, EVANS, GA, 30809","Match","Exact","4741 RHETT DR, EVANS, GA, 30809",55386393,"R"
222720,"4741 ROSEWOOD CT","NOBLE","OK",73068,35.139146006,-97.3713053979999,220,"4741 ROSEWOOD CT, NOBLE, OK, 73068","Match","Exact","4741 ROSEWOOD CT, NOBLE, OK, 73068",649103909,"R"
222721,"4741 ROXBURY LANE","DALLAS","TX",75229,32.8884983090001,-96.8274284569999,221,"4741 ROXBURY LANE, DALLAS, TX, 75229","Match","Exact","4741 ROXBURY LN, DALLAS, TX, 75229",102899667,"L"
222722,"4741 ROYAL TROON","SAN ANGELO","TX",76904,31.4085431980001,-100.46774512,222,"4741 ROYAL TROON, SAN ANGELO, TX, 76904","Match","Non_Exact","4741 ROYAL TROON DR, SAN ANGELO, TX, 76904",646348037,"R"
222723,"4741 SAMUELL BLVD APT 306","MESQUITE","TX",75149,32.7923871580001,-96.670391302,223,"4741 SAMUELL BLVD APT 306, MESQUITE, TX, 75149","Match","Exact","4741 SAMUELL BLVD, MESQUITE, TX, 75149",103231618,"L"
222724,"4741 SE NELSON ROAD","OLALLA","WA",98359,47.418190054,-122.590346183,224,"4741 SE NELSON ROAD, OLALLA, WA, 98359","Match","Exact","4741 SE NELSON RD, OLALLA, WA, 98359",187669491,"L"
222725,"4741 TROUSDALE DR STE 6","ANTIOCH","TN",37220,36.0789356760001,-86.758654587,225,"4741 TROUSDALE DR STE 6, ANTIOCH, TN, 37220","Match","Non_Exact","4741 TROUSDALE DR, OAK HILL, TN, 37220",97193250,"R"
222726,"4741 W ADDISYN COURT","VISALIA","CA",93291,36.3451070020001,-119.343220656,226,"4741 W ADDISYN COURT, VISALIA, CA, 93291","Match","Exact","4741 W ADDISYN CT, VISALIA, CA, 93291",607595467,"L"
222727,"4741 WHITEHALL LANE","HIGHLANDS RANCH","CO",80126,39.550129317,-104.934859323,227,"4741 WHITEHALL LANE, HIGHLANDS RANCH, CO, 80126","Match","Exact","4741 WHITEHALL LN, HIGHLANDS RANCH, CO, 80126",130818755,"L"
222728,"4742 106TH AVE NE","CIRCLE PINES","MN",55014,45.161577322,-93.1502082809999,228,"4742 106TH AVE NE, CIRCLE PINES, MN, 55014","Match","Exact","4742 106TH AVE NE, CIRCLE PINES, MN, 55014",97492087,"R"
222729,"4742 42ND AVE NW","SEATTLE","WA",98116,47.5603015740001,-122.385471756,229,"4742 42ND AVE NW, SEATTLE, WA, 98116","Match","Non_Exact","4742 42ND AVE SW, SEATTLE, WA, 98116",186661427,"L"
222730,"4742 42ND AVE SW  BOX 182","SEATTLE","WA",98116,47.5603015740001,-122.385471756,230,"4742 42ND AVE SW  BOX 182, SEATTLE, WA, 98116","Match","Exact","4742 42ND AVE SW, SEATTLE, WA, 98116",186661427,"L"
222731,"4742 42ND AVE SW 136","SEATTLE","WA",98116,47.5603015740001,-122.385471756,231,"4742 42ND AVE SW 136, SEATTLE, WA, 98116","Match","Exact","4742 42ND AVE SW, SEATTLE, WA, 98116",186661427,"L"
222732,"4742 42ND AVE SW BOX 199","SEATTLE","WA",98116,47.5603015740001,-122.385471756,232,"4742 42ND AVE SW BOX 199, SEATTLE, WA, 98116","Match","Exact","4742 42ND AVE SW, SEATTLE, WA, 98116",186661427,"L"
222733,"4742 42ND AVE SW NO 352","SEATTLE","WA",98116,47.5603015740001,-122.385471756,233,"4742 42ND AVE SW NO 352, SEATTLE, WA, 98116","Match","Exact","4742 42ND AVE SW, SEATTLE, WA, 98116",186661427,"L"
222734,"4742 AUTUMN ROSE TRAIL","OAKWOOD","GA",30566,34.2485727540001,-83.893943072,234,"4742 AUTUMN ROSE TRAIL, OAKWOOD, GA, 30566","Match","Exact","4742 AUTUMN ROSE TRL, OAKWOOD, GA, 30566",620004483,"R"
222735,"4742 GAWAIN DR","NEW ORLEANS","LA",70127,30.020332995,-89.986697885,235,"4742 GAWAIN DR, NEW ORLEANS, LA, 70127","Match","Exact","4742 GAWAIN DR, NEW ORLEANS, LA, 70127",191721136,"L"
222736,"4742 LIBERTY ROAD S  NUMBER 397","SALEM","OR",97302,44.8899021350001,-123.060451857,236,"4742 LIBERTY ROAD S  NUMBER 397, SALEM, OR, 97302","Match","Exact","4742 LIBERTY RD S, SALEM, OR, 97302",613653331,"L"
222737,"4742 LONESTONE CIR","KATY","TX",77449,29.8412584810001,-95.717123828,237,"4742 LONESTONE CIR, KATY, TX, 77449","Match","Exact","4742 LONESTONE CIR, KATY, TX, 77449",624617063,"L"
222738,"4742 N 24TH ST 300","PHOENIX","AZ",85016,NA,NA,238,"4742 N 24TH ST 300, PHOENIX, AZ, 85016","No_Match",NA,NA,NA,NA
222739,"4742 N 24TH ST STE 300","PHOENIX","AZ",85016,NA,NA,239,"4742 N 24TH ST STE 300, PHOENIX, AZ, 85016","No_Match",NA,NA,NA,NA
222740,"4742 N 24TH ST SUITE 300","PHOENIX","AZ",85016,NA,NA,240,"4742 N 24TH ST SUITE 300, PHOENIX, AZ, 85016","No_Match",NA,NA,NA,NA
222741,"4742 N JAECKLES BLVD","NASHOTAH","WI",53058,43.1060593280001,-88.423904206,241,"4742 N JAECKLES BLVD, NASHOTAH, WI, 53058","Match","Non_Exact","4742 JAECKLES DR, NASHOTAH, WI, 53058",53856194,"L"
222742,"4742 N ST LOUIS APT 2","CHICAGO","IL",60625,NA,NA,242,"4742 N ST LOUIS APT 2, CHICAGO, IL, 60625","No_Match",NA,NA,NA,NA
222743,"4742 TODD DR","AMES","IA",50014,42.0218912600001,-93.68229877,243,"4742 TODD DR, AMES, IA, 50014","Match","Exact","4742 TODD DR, AMES, IA, 50014",65961794,"L"
222744,"4742 W TOPEKA DRIVE","GLENDALE","AZ",85308,NA,NA,244,"4742 W TOPEKA DRIVE, GLENDALE, AZ, 85308","Tie",NA,NA,NA,NA
222745,"4742 WILLIAMETTE CIR","ORLANDO","FL",32826,28.608506075,-81.173888709,245,"4742 WILLIAMETTE CIR, ORLANDO, FL, 32826","Match","Non_Exact","4742 WILLAMETTE CIR, ORLANDO, FL, 32826",94409725,"R"
222746,"47427 BRENT CT","CHESTERFIELD","MI",48047,42.656155724,-82.823673589,246,"47427 BRENT CT, CHESTERFIELD, MI, 48047","Match","Exact","47427 BRENT CT, CHESTERFIELD, MI, 48047",110665629,"L"
222747,"4743 AMBRUZZI DRIVE","CYPRESS","CA",90630,33.8180983120001,-118.050287905,247,"4743 AMBRUZZI DRIVE, CYPRESS, CA, 90630","Match","Exact","4743 AMBRUZZI DR, CYPRESS, CA, 90630",144251058,"L"
222748,"4743 BACCARRAT COURT","JOLIET","IL",60431,41.5429074470001,-88.1976718939999,248,"4743 BACCARRAT COURT, JOLIET, IL, 60431","Match","Exact","4743 BACCARRAT CT, JOLIET, IL, 60431",111634367,"R"
222749,"4743 EZEKIEL AVENUE","NORTH CHARLESTON","SC",29405,32.879857746,-79.994379323,249,"4743 EZEKIEL AVENUE, NORTH CHARLESTON, SC, 29405","Match","Exact","4743 EZEKIEL AVE, N CHARLESTON, SC, 29405",108799436,"L"
222750,"4743 JACQUES COURT","FREMONT","CA",94555,NA,NA,250,"4743 JACQUES COURT, FREMONT, CA, 94555","No_Match",NA,NA,NA,NA
222751,"4743 JOHNSON CREEK LOOP","COLLEGE STATION","TX",77845,30.5774779430001,-96.223404068,251,"4743 JOHNSON CREEK LOOP, COLLEGE STATION, TX, 77845","Match","Exact","4743 JOHNSON CREEK LOOP, COLLEGE STATION, TX, 77845",644531593,"L"
222752,"4743 MAIN STREET","ZACHARY","LA",70791,30.6482214820001,-91.15386069,252,"4743 MAIN STREET, ZACHARY, LA, 70791","Match","Exact","4743 MAIN ST, ZACHARY, LA, 70791",92210382,"L"
222753,"4743 PEDENVILLE ROAD","CONCORD","GA",30206,33.0911879710001,-84.498909193,253,"4743 PEDENVILLE ROAD, CONCORD, GA, 30206","Match","Exact","4743 PEDENVILLE RD, CONCORD, GA, 30206",83666119,"R"
222754,"4743 RED PINE WAY","WESLEY CHAPEL","FL",33545,28.2262874350001,-82.281891991,254,"4743 RED PINE WAY, WESLEY CHAPEL, FL, 33545","Match","Exact","4743 RED PINE WAY, WESLEY CHAPEL, FL, 33545",640554185,"R"
222755,"4743 S 125 W","WASHINGTON","IN",47501,38.586089176,-87.18953785,255,"4743 S 125 W, WASHINGTON, IN, 47501","Match","Exact","4743 S 125 W, WASHINGTON, IN, 47501",645324380,"L"
222756,"4743 SISSON ROAD","TITUSVILLE","FL",32780,28.5557450000001,-80.806273494,256,"4743 SISSON ROAD, TITUSVILLE, FL, 32780","Match","Exact","4743 SISSON RD, TITUSVILLE, FL, 32780",93892180,"L"
222757,"4743 SW IOWA ST","PORTLAND","OR",97221,45.479826206,-122.726014541,257,"4743 SW IOWA ST, PORTLAND, OR, 97221","Match","Exact","4743 SW IOWA ST, PORTLAND, OR, 97221",157499710,"R"
222758,"4743 TAIN DR","HOUSTON","TX",77084,29.8450922580001,-95.652124052,258,"4743 TAIN DR, HOUSTON, TX, 77084","Match","Exact","4743 TAIN DR, HOUSTON, TX, 77084",642104684,"L"
222759,"4743 TROOST AVENUE","KANSAS CITY","MO",64110,39.040949466,-94.572977166,259,"4743 TROOST AVENUE, KANSAS CITY, MO, 64110","Match","Exact","4743 TROOST AVE, KANSAS CITY, MO, 64110",638438353,"L"
222760,"4743 WHITE HERON DRIVE","MELBOURNE","FL",32934,28.1249181530001,-80.698091582,260,"4743 WHITE HERON DRIVE, MELBOURNE, FL, 32934","Match","Exact","4743 WHITE HERON DR, MELBOURNE, FL, 32934",93933523,"R"
222761,"4744 BENNER STREET","PHILADELPHIA","PA",19135,40.0177804840001,-75.057010294,261,"4744 BENNER STREET, PHILADELPHIA, PA, 19135","Match","Exact","4744 BENNER ST, PHILADELPHIA, PA, 19135",131435136,"R"
222762,"4744 COX SMITH ROAD","MASON","OH",45040,39.367430536,-84.267815281,262,"4744 COX SMITH ROAD, MASON, OH, 45040","Match","Exact","4744 COX SMITH RD, MASON, OH, 45040",653467768,"L"
222763,"4744 DEL MORENO DRIVE","WOODLAND HILLS","CA",91364,34.156121381,-118.57429451,263,"4744 DEL MORENO DRIVE, WOODLAND HILLS, CA, 91364","Match","Exact","4744 DEL MORENO DR, WOODLAND HILLS, CA, 91364",141553971,"R"
222764,"4744 MCGINTY DRIVE","EVANS","GA",30809,33.5248006630001,-82.166602132,264,"4744 MCGINTY DRIVE, EVANS, GA, 30809","Match","Exact","4744 MCGINTY DR, EVANS, GA, 30809",635797614,"R"
222765,"4744 NE COLIN KELLY HIGHWAY","MADISON","FL",32340,NA,NA,265,"4744 NE COLIN KELLY HIGHWAY, MADISON, FL, 32340","No_Match",NA,NA,NA,NA
222766,"4744 R T CASSIDY DRIVE","EL PASO","TX",79924,31.8769605150001,-106.43051528,266,"4744 R T CASSIDY DRIVE, EL PASO, TX, 79924","Match","Non_Exact","4744 RT CASSIDY DR, EL PASO, TX, 79924",189338931,"L"
222767,"4744 RENOVO WAY","SAN DIEGO","CA",92124,32.8270558950001,-117.077741626,267,"4744 RENOVO WAY, SAN DIEGO, CA, 92124","Match","Exact","4744 RENOVO WAY, SAN DIEGO, CA, 92124",195322399,"L"
222768,"4744 SOUTH ST","STANLEY","NY",14561,42.7965181370001,-77.1324589279999,268,"4744 SOUTH ST, STANLEY, NY, 14561","Match","Exact","4744 SOUTH ST, STANLEY, NY, 14561",13477635,"L"
222769,"4744 TANGLEBRIAR DR","CHARLOTTE","NC",28208,35.263820432,-80.9097299969999,269,"4744 TANGLEBRIAR DR, CHARLOTTE, NC, 28208","Match","Exact","4744 TANGLEBRIAR DR, CHARLOTTE, NC, 28208",70475295,"R"
222770,"4744 VISTA DEL SOL","SANTA FE","NM",87507,35.6224266130001,-106.052253855,270,"4744 VISTA DEL SOL, SANTA FE, NM, 87507","Match","Exact","4744 VIS DEL SOL, SANTA FE, NM, 87507",616729567,"R"
222771,"4744 W POINSETTIA DR","GLENDALE","AZ",85305,33.5928522770001,-112.16097013,271,"4744 W POINSETTIA DR, GLENDALE, AZ, 85305","Match","Non_Exact","4744 W POINSETTIA DR, GLENDALE, AZ, 85304",128177125,"R"
222772,"4744 WEST MAPLE LEAF CIRCLE","GREENFIELD","WI",53220,42.9687727890001,-87.9768055329999,272,"4744 WEST MAPLE LEAF CIRCLE, GREENFIELD, WI, 53220","Match","Exact","4744 W MAPLE LEAF CIR, GREENFIELD, WI, 53220",77768260,"L"
222773,"47448 PONTIAC TRAIL","WIXOM","MI",48393,42.5249588,-83.51698339,273,"47448 PONTIAC TRAIL, WIXOM, MI, 48393","Match","Exact","47448 PONTIAC TRL, WIXOM, MI, 48393",69717404,"R"
222774,"4745 15TH AVENUE","SACRAMENTO","CA",95820,38.5386544450001,-121.450512455,274,"4745 15TH AVENUE, SACRAMENTO, CA, 95820","Match","Exact","4745 15TH AVE, SACRAMENTO, CA, 95820",133327409,"L"
222775,"4745 9TH AVENUE NORTH","BIRMINGHAM","AL",35212,33.53935584,-86.7640654589999,275,"4745 9TH AVENUE NORTH, BIRMINGHAM, AL, 35212","Match","Exact","4745 9TH AVE N, BIRMINGHAM, AL, 35212",81578051,"R"
222776,"4745 BRAMBLE ROSE LANE","SUWANEE","GA",30024,34.07816387,-84.08187077,276,"4745 BRAMBLE ROSE LANE, SUWANEE, GA, 30024","Match","Exact","4745 BRAMBLE ROSE LN, SUWANEE, GA, 30024",88930679,"R"
222777,"4745 BRIGGS RD","TOBACCOVILLE","NC",27050,36.208611397,-80.386203182,277,"4745 BRIGGS RD, TOBACCOVILLE, NC, 27050","Match","Exact","4745 BRIGGS RD, TOBACCOVILLE, NC, 27050",635546939,"R"
222778,"4745 BYWOOD CT","COLORADO SPRINGS","CO",80906,38.7624536340001,-104.831357776,278,"4745 BYWOOD CT, COLORADO SPRINGS, CO, 80906","Match","Exact","4745 BYWOOD CT, COLORADO SPRINGS, CO, 80906",105529512,"L"
222779,"4745 DEL MAR AVE","SAN DIEGO","CA",92107,32.7390827950001,-117.251015828,279,"4745 DEL MAR AVE, SAN DIEGO, CA, 92107","Match","Exact","4745 DEL MAR AVE, SAN DIEGO, CA, 92107",195339133,"L"
222780,"4745 E LANCASTER AVENUE","FORT WORTH","TX",76103,32.7410033850001,-97.2506792729999,280,"4745 E LANCASTER AVENUE, FORT WORTH, TX, 76103","Match","Exact","4745 E LANCASTER AVE, FORT WORTH, TX, 76103",101897717,"L"
222781,"4745 E TANGLEWOOD DR","PHOENIX","AZ",85048,33.2988000280001,-111.981624166,281,"4745 E TANGLEWOOD DR, PHOENIX, AZ, 85048","Match","Exact","4745 E TANGLEWOOD DR, PHOENIX, AZ, 85048",128790008,"R"
222782,"4745 E WAVERLY STREET","TUCSON","AZ",85712,32.2461172970001,-110.891665824,282,"4745 E WAVERLY STREET, TUCSON, AZ, 85712","Match","Exact","4745 E WAVERLY ST, TUCSON, AZ, 85712",121179499,"L"
222783,"4745 EAST 90TH STREET","GARFIELD HTS","OH",44125,41.4303987500001,-81.622580479,283,"4745 EAST 90TH STREET, GARFIELD HTS, OH, 44125","Match","Exact","4745 E 90TH ST, GARFIELD HEIGHTS, OH, 44125",61119446,"L"
222784,"4745 FOREST VALLEY PLACE","MARIETTA","GA",30066,34.063150208,-84.4700498289999,284,"4745 FOREST VALLEY PLACE, MARIETTA, GA, 30066","Match","Exact","4745 FOREST VALLEY PL, MARIETTA, GA, 30066",17199080,"L"
222785,"4745 LINDBERGH DRIVE","BETTENDORF","IA",52722,41.569582575,-90.496450587,285,"4745 LINDBERGH DRIVE, BETTENDORF, IA, 52722","Match","Exact","4745 LINDBERGH DR, BETTENDORF, IA, 52722",122717094,"R"
222786,"4745 N 173RD CIRCLE","OMAHA","NE",68116,41.301630071,-96.1856181589999,286,"4745 N 173RD CIRCLE, OMAHA, NE, 68116","Match","Exact","4745 N 173RD CIR, OMAHA, NE, 68116",617547599,"L"
222787,"4745 NE 15TH AVE","PORTLAND","OR",97211,45.5572915160001,-122.649731816,287,"4745 NE 15TH AVE, PORTLAND, OR, 97211","Match","Exact","4745 NE 15TH AVE, PORTLAND, OR, 97211",157505674,"L"
222788,"4745 NORTH 7TH STREET 310","PHOENIX","AZ",85014,33.505316082,-112.065012621,288,"4745 NORTH 7TH STREET 310, PHOENIX, AZ, 85014","Match","Exact","4745 N 7TH ST, PHOENIX, AZ, 85014",128885347,"R"
222789,"4745 OGLETOWN-STANTON RD SUITE 111","NEWARK","DE",19713,NA,NA,289,"4745 OGLETOWN-STANTON RD SUITE 111, NEWARK, DE, 19713","No_Match",NA,NA,NA,NA
222790,"4745 PROVIDENCE WOODS CIRCLE","WENTZVILLE","MO",63385,38.837220873,-90.883479297,290,"4745 PROVIDENCE WOODS CIRCLE, WENTZVILLE, MO, 63385","Match","Exact","4745 PROVIDENCE WOODS CIR, WENTZVILLE, MO, 63385",100097207,"L"
222791,"4745 ROCKWELL PLACE","TOBACCOVILLE","NC",27050,36.2340257130001,-80.382742373,291,"4745 ROCKWELL PLACE, TOBACCOVILLE, NC, 27050","Match","Non_Exact","4745 ROCKWELL PLACE DR, TOBACCOVILLE, NC, 27050",84680067,"R"
222792,"4745 SW 148TH AVE SUITE 301","DAVIE","FL",33330,26.060755371,-80.346087439,292,"4745 SW 148TH AVE SUITE 301, DAVIE, FL, 33330","Match","Non_Exact","4745 SW 148TH AVE, DAVIE, FL, 33330",637473786,"R"
222793,"4745 WHEELER DR","FREMONT","CA",94538,37.5334105740001,-121.983969307,293,"4745 WHEELER DR, FREMONT, CA, 94538","Match","Exact","4745 WHEELER DR, FREMONT, CA, 94538",125030414,"R"
222794,"4746 BIBLE WAY CHURCH ROAD","LINDEN","NC",28356,35.1857471810001,-78.741390316,294,"4746 BIBLE WAY CHURCH ROAD, LINDEN, NC, 28356","Match","Non_Exact","4746 BIBLEWAY CHURCH RD, LINDEN, NC, 28356",64271746,"L"
222795,"4746 CAVERN DR","FRIENDSWOOD","TX",77546,29.541142226,-95.180084627,295,"4746 CAVERN DR, FRIENDSWOOD, TX, 77546","Match","Exact","4746 CAVERN DR, FRIENDSWOOD, TX, 77546",96546452,"R"
222796,"4746 E EDEN DRIVE","CAVE CREEK","AZ",85331,33.7540974180001,-111.980901395,296,"4746 E EDEN DRIVE, CAVE CREEK, AZ, 85331","Match","Exact","4746 E EDEN DR, CAVE CREEK, AZ, 85331",128842123,"L"
222797,"4746 E GRANT ROAD","TUCSON","AZ",85712,32.2506465610001,-110.891641102,297,"4746 E GRANT ROAD, TUCSON, AZ, 85712","Match","Exact","4746 E GRANT RD, TUCSON, AZ, 85712",121179456,"R"
222798,"4746 EAST EVANS AVENUE","TERRE HAUTE","IN",47805,39.571907412,-87.345479289,298,"4746 EAST EVANS AVENUE, TERRE HAUTE, IN, 47805","Match","Exact","4746 E EVANS AVE, TERRE HAUTE, IN, 47805",27112172,"R"
222799,"4746 EISENHOWER AVE","ALEXANDRIA","VA",22304,38.803581766,-77.117097777,299,"4746 EISENHOWER AVE, ALEXANDRIA, VA, 22304","Match","Exact","4746 EISENHOWER AVE, ALEXANDRIA, VA, 22304",76023500,"L"
222800,"4746 EISENHOWER AVENUE","ALEXANDRIA","VA",22304,38.803581766,-77.117097777,300,"4746 EISENHOWER AVENUE, ALEXANDRIA, VA, 22304","Match","Exact","4746 EISENHOWER AVE, ALEXANDRIA, VA, 22304",76023500,"L"
222801,"4746 KERTH DR","ST LOUIS","MO",63128,38.4951559180001,-90.354719025,301,"4746 KERTH DR, ST LOUIS, MO, 63128","Match","Exact","4746 KERTH DR, SAINT LOUIS, MO, 63128",100156977,"L"
222802,"4746 N 15TH AVE  APT 3","PHOENIX","AZ",85015,33.5068621410001,-112.091255536,302,"4746 N 15TH AVE  APT 3, PHOENIX, AZ, 85015","Match","Non_Exact","4746 N 15TH AVE, PHOENIX, AZ, 85015",647681165,"L"
222803,"4746 NORTH SUGAR MILL ROAD","EIGHT MILE","AL",36613,NA,NA,303,"4746 NORTH SUGAR MILL ROAD, EIGHT MILE, AL, 36613","No_Match",NA,NA,NA,NA
222804,"4746 PAW PAW CREEK RD","SNOW HILL","MD",21863,38.1605076820001,-75.312051579,304,"4746 PAW PAW CREEK RD, SNOW HILL, MD, 21863","Match","Exact","4746 PAW PAW CREEK RD, SNOW HILL, MD, 21863",114517703,"R"
222805,"4746 S IRONBRIDGE CIRCLE N","SPRINGFIELD","MO",65810,37.1272550400001,-93.281718113,305,"4746 S IRONBRIDGE CIRCLE N, SPRINGFIELD, MO, 65810","Match","Exact","4746 S IRONBRIDGE CIR N, SPRINGFIELD, MO, 65810",76700971,"L"
222806,"4746 W BYRON ST","CHICAGO","IL",60641,41.951597571,-87.7459068759999,306,"4746 W BYRON ST, CHICAGO, IL, 60641","Match","Exact","4746 W BYRON ST, CHICAGO, IL, 60641",616788367,"R"
222807,"4746 WALDEN COURT","DENVER","CO",80249,39.782364241,-104.776524513,307,"4746 WALDEN COURT, DENVER, CO, 80249","Match","Non_Exact","4746 N WALDEN CT, DENVER, CO, 80249",640740606,"R"
222808,"47466 US HIGHWAY 2","MALTA","MT",59538,48.3668770080001,-107.815224214,308,"47466 US HIGHWAY 2, MALTA, MT, 59538","Match","Exact","47466 US HWY 2, MALTA, MT, 59538",166893350,"R"
222809,"4747 4TH AVE NE","SEATTLE","WA",98105,47.663535246,-122.324011969,309,"4747 4TH AVE NE, SEATTLE, WA, 98105","Match","Exact","4747 4TH AVE NE, SEATTLE, WA, 98105",186583273,"L"
222810,"4747 GEARY BLVD 1","SAN FRANCISCO","CA",94118,37.780670581,-122.470137431,310,"4747 GEARY BLVD 1, SAN FRANCISCO, CA, 94118","Match","Exact","4747 GEARY BLVD, SAN FRANCISCO, CA, 94118",192301490,"L"
222811,"4747 HARVEST PARK","MEMPHIS","TN",38125,35.018605817,-89.813362356,311,"4747 HARVEST PARK, MEMPHIS, TN, 38125","Match","Non_Exact","4747 HARVEST PARK DR, MEMPHIS, TN, 38125",72960379,"R"
222812,"4747 LAKESHORE DRIVE","BOLTON LANDING","NY",12814,43.5466832180001,-73.664507815,312,"4747 LAKESHORE DRIVE, BOLTON LANDING, NY, 12814","Match","Exact","4747 LAKESHORE DR, BOLTON LANDING, NY, 12814",647762543,"L"
222813,"4747 LINCOLN MALL DR SUITE 300","MATTESON","IL",60443,41.5043328150001,-87.731030029,313,"4747 LINCOLN MALL DR SUITE 300, MATTESON, IL, 60443","Match","Exact","4747 LINCOLN MALL DR, MATTESON, IL, 60443",605643699,"L"
222814,"4747 LINCOLN MALL DRIVE SUITE 412","MATTESON","IL",60443,41.5043328150001,-87.731030029,314,"4747 LINCOLN MALL DRIVE SUITE 412, MATTESON, IL, 60443","Match","Exact","4747 LINCOLN MALL DR, MATTESON, IL, 60443",605643699,"L"
222815,"4747 LOGAN ARMS DR","YOUNGSTOWN","OH",44505,41.1661441030001,-80.651122253,315,"4747 LOGAN ARMS DR, YOUNGSTOWN, OH, 44505","Match","Exact","4747 LOGAN ARMS DR, YOUNGSTOWN, OH, 44505",636567629,"R"
222816,"4747 MISSION BLVD STE 1","SAN DIEGO","CA",92109,32.800598447,-117.256720409,316,"4747 MISSION BLVD STE 1, SAN DIEGO, CA, 92109","Match","Exact","4747 MISSION BLVD, SAN DIEGO, CA, 92109",612855898,"R"
222817,"4747 N GLENWOOD","BOISE","ID",83714,43.6476543730001,-116.279054991,317,"4747 N GLENWOOD, BOISE, ID, 83714","Match","Non_Exact","4747 GLENWOOD ST, BOISE, ID, 83714",117886657,"L"
222818,"4747 NORTH PEORIA SUITE B","TULSA","OK",74126,36.2235823390001,-95.9755511389999,318,"4747 NORTH PEORIA SUITE B, TULSA, OK, 74126","Match","Non_Exact","4747 N PEORIA AVE, TULSA, OK, 74126",166501823,"R"
222819,"4747 OHIO DR","FRISCO","TX",75035,NA,NA,319,"4747 OHIO DR, FRISCO, TX, 75035","No_Match",NA,NA,NA,NA
222820,"4747 PEARL SUITE V3A","BOULDER","CO",80301,40.0252367250001,-105.242705266,320,"4747 PEARL SUITE V3A, BOULDER, CO, 80301","Match","Non_Exact","4747 PEARL ST, BOULDER, CO, 80301",188163057,"L"
222821,"4747 PENNWOOD AVENUE UNIT 2038","LAS VEGAS","CA",89102,NA,NA,321,"4747 PENNWOOD AVENUE UNIT 2038, LAS VEGAS, CA, 89102","No_Match",NA,NA,NA,NA
222822,"4747 RIVER ROAD","ELLENWOOD","GA",30294,33.6560631140001,-84.2168022229999,322,"4747 RIVER ROAD, ELLENWOOD, GA, 30294","Match","Exact","4747 RIVER RD, ELLENWOOD, GA, 30294",623988543,"R"
222823,"4747 SHERWOOD COMMON BLVD","BATON ROUGE","LA",70816,30.4052108650001,-91.0581773279999,323,"4747 SHERWOOD COMMON BLVD, BATON ROUGE, LA, 70816","Match","Exact","4747 SHERWOOD COMMON BLVD, BATON ROUGE, LA, 70816",92198894,"L"
222824,"4747 SOUTH KING DRIVE","CHICAGO","IL",60615,NA,NA,324,"4747 SOUTH KING DRIVE, CHICAGO, IL, 60615","No_Match",NA,NA,NA,NA
222825,"4747 TROOST AVENUE SUITE 207","KANSAS CITY","MO",64114,39.0407744010001,-94.572987751,325,"4747 TROOST AVENUE SUITE 207, KANSAS CITY, MO, 64114","Match","Non_Exact","4747 TROOST AVE, KANSAS CITY, MO, 64110",638438354,"L"
222826,"47470 MANORWOOD","NORTHVILLE","MI",48168,42.413471085,-83.512152322,326,"47470 MANORWOOD, NORTHVILLE, MI, 48168","Match","Non_Exact","47470 MANORWOOD DR, NORTHVILLE, MI, 48168",95719415,"R"
222827,"47476 274TH ST","HARRISBURG","SD",57032,43.417051137,-96.711266635,327,"47476 274TH ST, HARRISBURG, SD, 57032","Match","Exact","47476 274TH ST, HARRISBURG, SD, 57032",176326240,"R"
222828,"4748 60TH STREET","SAN DIEGO","CA",92115,32.7634857730001,-117.068726705,328,"4748 60TH STREET, SAN DIEGO, CA, 92115","Match","Exact","4748 60TH ST, SAN DIEGO, CA, 92115",195350973,"L"
222829,"4748 ELIZABETH ST","RACINE","WI",53402,42.7808302700001,-87.801642024,329,"4748 ELIZABETH ST, RACINE, WI, 53402","Match","Exact","4748 ELIZABETH ST, RACINE, WI, 53402",636692914,"L"
222830,"4748 ENGLE RD SUITE 105","CARMICHAEL","CA",95608,38.6319582400001,-121.353286912,330,"4748 ENGLE RD SUITE 105, CARMICHAEL, CA, 95608","Match","Exact","4748 ENGLE RD, CARMICHAEL, CA, 95608",627653432,"R"
222831,"4748 N SPRINGFIELD AVE APT 2W","CHICAGO","IL",60625,41.9678456520001,-87.725583002,331,"4748 N SPRINGFIELD AVE APT 2W, CHICAGO, IL, 60625","Match","Non_Exact","4748 N SPRINGFIELD AVE, CHICAGO, IL, 60625",605187127,"L"
222832,"4748 PEARMAIN DRIVE","WAXHAW","NC",28173,34.963586762,-80.7352853849999,332,"4748 PEARMAIN DRIVE, WAXHAW, NC, 28173","Match","Exact","4748 PEARMAIN DR, WAXHAW, NC, 28173",650599825,"R"
222833,"4748 SHIRE DRIVE","LIITHONIA","GA",30038,33.702128439,-84.19290964,333,"4748 SHIRE DRIVE, LIITHONIA, GA, 30038","Match","Non_Exact","4748 SHIRE DR, LITHONIA, GA, 30038",642388532,"L"
222834,"4748 W ATLANTIC BLVD  UNIT 101","COCONUT CREEK","FM",33063,NA,NA,334,"4748 W ATLANTIC BLVD  UNIT 101, COCONUT CREEK, FM, 33063","No_Match",NA,NA,NA,NA
222835,"4748 WILDGINGER RUN","LITHONIA","GA",30038,33.690575634,-84.194532271,335,"4748 WILDGINGER RUN, LITHONIA, GA, 30038","Match","Exact","4748 WILDGINGER RUN, LITHONIA, GA, 30038",23373047,"L"
222836,"4749 CHEVY PLACE UNIT 153","ORLANDO","FL",32811,28.495808674,-81.439906494,336,"4749 CHEVY PLACE UNIT 153, ORLANDO, FL, 32811","Match","Exact","4749 CHEVY PL, ORLANDO, FL, 32811",94274169,"R"
222837,"4749 COTE BRILLANTE AVE","SAINT LOUIS","MO",63113,38.6619743380001,-90.2540339559999,337,"4749 COTE BRILLANTE AVE, SAINT LOUIS, MO, 63113","Match","Non_Exact","4749 COTE BRILLIANTE AVE, SAINT LOUIS, MO, 63113",107595407,"R"
222838,"4749 FAIRHILL DRIVE SE","BUFFALO","MN",55313,45.123229279,-93.789960575,338,"4749 FAIRHILL DRIVE SE, BUFFALO, MN, 55313","Match","Exact","4749 FAIRHILL DR SE, BUFFALO, MN, 55313",44005518,"R"
222839,"4749 LAKE CALABAY DRIVE","ORLANDO","FL",32837,28.3558783290001,-81.433524161,339,"4749 LAKE CALABAY DRIVE, ORLANDO, FL, 32837","Match","Exact","4749 LAKE CALABAY DR, ORLANDO, FL, 32837",94338528,"R"
222840,"4749 NORTH HILLCREST STREET","BEL AIRE","KS",67220,37.7685782770001,-97.265264147,340,"4749 NORTH HILLCREST STREET, BEL AIRE, KS, 67220","Match","Exact","4749 N HILLCREST ST, BEL AIRE, KS, 67220",115638667,"L"
222841,"4749 S PRAIRIE AVE APT 1","CHICAGO","IL",60615,41.808443047,-87.619558721,341,"4749 S PRAIRIE AVE APT 1, CHICAGO, IL, 60615","Match","Non_Exact","4749 S PRAIRIE AVE, CHICAGO, IL, 60615",111770642,"L"
222842,"4749 STARFIRE CIR","CASTLE ROCK","CO",80104,39.2934956230001,-104.868612376,342,"4749 STARFIRE CIR, CASTLE ROCK, CO, 80104","Match","Exact","4749 STARFIRE CIR, CASTLE ROCK, CO, 80104",130837611,"L"
222843,"4749 W CALLE DON ANTONIO","TUCSON","AZ",85757,32.1663328340001,-111.065710506,343,"4749 W CALLE DON ANTONIO, TUCSON, AZ, 85757","Match","Non_Exact","4749 W CLL DON ANTONIO, TUCSON, AZ, 85757",121228148,"R"
222844,"475 BAILEY AVENUE","UNION","NJ",7083,40.6825063570001,-74.270759573,344,"475 BAILEY AVENUE, UNION, NJ, 7083","Match","Exact","475 BAILEY AVE, UNION, NJ, 07083",60604374,"R"
222845,"475 BANTA AVE","GARFIELD","NJ",7026,40.8891903370001,-74.1040459719999,345,"475 BANTA AVE, GARFIELD, NJ, 7026","Match","Exact","475 BANTA AVE, GARFIELD, NJ, 07026",64382367,"L"
222846,"475 BLAKER DRIVE","EAST GREENVILLE","PA",18041,40.4053203330001,-75.5110460889999,346,"475 BLAKER DRIVE, EAST GREENVILLE, PA, 18041","Match","Exact","475 BLAKER DR, E GREENVILLE, PA, 18041",135114592,"R"
222847,"475 BOMAR LN","DOUGLASVILLE","GA",30134,33.8115473120001,-84.809240997,347,"475 BOMAR LN, DOUGLASVILLE, GA, 30134","Match","Exact","475 BOMAR LN, DOUGLASVILLE, GA, 30134",17741547,"L"
222848,"475 CAMDEN RD","HOPE","ME",4847,44.264238123,-69.157169299,348,"475 CAMDEN RD, HOPE, ME, 4847","Match","Exact","475 CAMDEN RD, HOPE, ME, 04847",624254116,"R"
222849,"475 CARLTON AVENUE APT 2G","BROOKLYN","NY",11238,40.6833657110001,-73.970844497,349,"475 CARLTON AVENUE APT 2G, BROOKLYN, NY, 11238","Match","Exact","475 CARLTON AVE, BROOKLYN, NY, 11238",612458683,"L"
222850,"475 CAROLTON AVENUE APT 3G","BROOKLYN","NY",11238,40.6833657110001,-73.970844497,350,"475 CAROLTON AVENUE APT 3G, BROOKLYN, NY, 11238","Match","Non_Exact","475 CARLTON AVE, BROOKLYN, NY, 11238",612458683,"L"
222851,"475 CASTLE CREST DR","SPRING CREEK","NV",89815,40.795147044,-115.669356422,351,"475 CASTLE CREST DR, SPRING CREEK, NV, 89815","Match","Non_Exact","475 CASTLECREST DR, SPRING CREEK, NV, 89815",154551497,"R"
222852,"475 CEDAR LN","MILLVILLE","NJ",8332,39.385636506,-75.0637968029999,352,"475 CEDAR LN, MILLVILLE, NJ, 8332","Match","Exact","475 CEDAR LN, MILLVILLE, NJ, 08332",174119381,"R"
222853,"475 CHURCH ROAD EXT","KITTANNING","PA",16201,40.7642951930001,-79.5907906529999,353,"475 CHURCH ROAD EXT, KITTANNING, PA, 16201","Match","Non_Exact","475 CHURCH RD EXD, KITTANNING, PA, 16201",608073556,"R"
222854,"475 CLEVELAND AVE N STE 316","ST PAUL","MN",55104,45.0423307720001,-93.1877008389999,354,"475 CLEVELAND AVE N STE 316, ST PAUL, MN, 55104","Match","Non_Exact","475 CLEVELAND AVE N, SAINT PAUL, MN, 55112",97638068,"R"
222855,"475 CLEVELAND AVE N SUITE 103","ST PAUL","MN",55104,45.0423307720001,-93.1877008389999,355,"475 CLEVELAND AVE N SUITE 103, ST PAUL, MN, 55104","Match","Non_Exact","475 CLEVELAND AVE N, SAINT PAUL, MN, 55112",97638068,"R"
222856,"475 CLEVELAND AVE NORTH SUITE 315","SAINT PAUL","MN",55104,45.0423307720001,-93.1877008389999,356,"475 CLEVELAND AVE NORTH SUITE 315, SAINT PAUL, MN, 55104","Match","Non_Exact","475 CLEVELAND AVE N, SAINT PAUL, MN, 55112",97638068,"R"
222857,"475 CONCORD LANE SE","SMYRNA","GA",30082,NA,NA,357,"475 CONCORD LANE SE, SMYRNA, GA, 30082","Tie",NA,NA,NA,NA
222858,"475 CONTINENTAL DRIVE","COLUMBIA","SC",29221,NA,NA,358,"475 CONTINENTAL DRIVE, COLUMBIA, SC, 29221","No_Match",NA,NA,NA,NA
222859,"475 CUNNINGHAM LN","JEFFERSONVILLE","KY",40337,37.941096977,-83.831859258,359,"475 CUNNINGHAM LN, JEFFERSONVILLE, KY, 40337","Match","Non_Exact","475 CUNNINGHAM RD, JEFFERSONVILLE, KY, 40337",32034554,"L"
222860,"475 D SOUTH BARRETT ROAD","YUBA CITY","CA",95991,39.1202857100001,-121.631049514,360,"475 D SOUTH BARRETT ROAD, YUBA CITY, CA, 95991","Match","Exact","475 S BARRETT RD, YUBA CITY, CA, 95991",68568301,"R"
222861,"475 DAVISTOWN RD","MIDWAY","KY",40347,38.1434173230001,-84.65040069,361,"475 DAVISTOWN RD, MIDWAY, KY, 40347","Match","Exact","475 DAVISTOWN RD, MIDWAY, KY, 40347",38494695,"L"
222862,"475 DUCKER ROAD","MIDWAY","KY",40347,NA,NA,362,"475 DUCKER ROAD, MIDWAY, KY, 40347","No_Match",NA,NA,NA,NA
222863,"475 E 10TH STREET","ROANOKE RAPIDS","NC",27870,36.454795016,-77.6532723029999,363,"475 E 10TH STREET, ROANOKE RAPIDS, NC, 27870","Match","Exact","475 E 10TH ST, ROANOKE RAPIDS, NC, 27870",56712282,"L"
222864,"475 E 138TH PL","GLENPOOL","OK",74033,35.9636828760001,-96.003066137,364,"475 E 138TH PL, GLENPOOL, OK, 74033","Match","Exact","475 E 138TH PL, GLENPOOL, OK, 74033",166459672,"L"
222865,"475 E 2ND S","SODA SPRINGS","ID",83276,42.6546509520001,-111.589097047,365,"475 E 2ND S, SODA SPRINGS, ID, 83276","Match","Exact","475 E 2ND S, SODA SPRINGS, ID, 83276",638325575,"R"
222866,"475 E 34TH ST","PATESON","NJ",7504,40.9075267170001,-74.143126439,366,"475 E 34TH ST, PATESON, NJ, 7504","Match","Non_Exact","475 E 34TH ST, PATERSON, NJ, 07504",65266254,"L"
222867,"475 E GREG STREET  SUITE 107","SPARKS","NV",89431,39.5216449760001,-119.747394468,367,"475 E GREG STREET  SUITE 107, SPARKS, NV, 89431","Match","Exact","475 GREG ST, SPARKS, NV, 89431",107054016,"L"
222868,"475 E JOSEPH WAY","GILBERT","AZ",85295,33.298620575,-111.779459351,368,"475 E JOSEPH WAY, GILBERT, AZ, 85295","Match","Exact","475 E JOSEPH WAY, GILBERT, AZ, 85295",243925733,"R"
222869,"475 E MAIN ST 154","CARTERSVILLE","GA",30121,NA,NA,369,"475 E MAIN ST 154, CARTERSVILLE, GA, 30121","No_Match",NA,NA,NA,NA
222870,"475 E MAIN ST","HERMISTON","OR",97838,45.8404597570001,-119.283829595,370,"475 E MAIN ST, HERMISTON, OR, 97838","Match","Exact","475 E MAIN ST, HERMISTON, OR, 97838",170390738,"R"
222871,"475 E MAIN STREET 154","CARTERSVILLE","GA",30121,NA,NA,371,"475 E MAIN STREET 154, CARTERSVILLE, GA, 30121","No_Match",NA,NA,NA,NA
222872,"475 E MAIN STREET","BARTOW","FL",33830,27.8964477760001,-81.840082491,372,"475 E MAIN STREET, BARTOW, FL, 33830","Match","Exact","475 E MAIN ST, BARTOW, FL, 33830",104820796,"R"
222873,"475 E PARKCENTER BLVD","BOISE","ID",83706,43.5943330900001,-116.177961265,373,"475 E PARKCENTER BLVD, BOISE, ID, 83706","Match","Exact","475 E PARKCENTER BLVD, BOISE, ID, 83706",117872214,"R"
222874,"475 E PROGRESS PKWY","SHELBYVILLE","IN",46176,39.496819697,-85.763971558,374,"475 E PROGRESS PKWY, SHELBYVILLE, IN, 46176","Match","Exact","475 PROGRESS PKWY, SHELBYVILLE, IN, 46176",642370583,"R"
222875,"475 EAST 117TH STREET","CLEVELAND","OH",44108,41.543670503,-81.60387743,375,"475 EAST 117TH STREET, CLEVELAND, OH, 44108","Match","Exact","475 E 117TH ST, CLEVELAND, OH, 44108",638271651,"L"
222876,"475 EAST FM 1382 SUITE 1762","CEDAR HILL","TX",75104,32.5922855270001,-96.937257809,376,"475 EAST FM 1382 SUITE 1762, CEDAR HILL, TX, 75104","Match","Exact","475 E FM 1382, CEDAR HILL, TX, 75104",646818742,"L"
222877,"475 EAST MAIN STREET SUITE 316","CARTERSVILLE","GA",30121,34.1667281260001,-84.789866683,377,"475 EAST MAIN STREET SUITE 316, CARTERSVILLE, GA, 30121","Match","Non_Exact","475 E MAIN ST, CARTERSVILLE, GA, 30120",635653872,"R"
222878,"475 EAST MAIN STREET","HERMISTON","OR",97838,45.840459867,-119.283836839,378,"475 EAST MAIN STREET, HERMISTON, OR, 97838","Match","Exact","475 E MAIN ST, HERMISTON, OR, 97838",170390738,"R"
222879,"475 ELINOR AVENUE","ROSELLE PARK","NJ",7204,40.6682447690001,-74.251856306,379,"475 ELINOR AVENUE, ROSELLE PARK, NJ, 7204","Match","Exact","475 ELINOR AVE, ROSELLE PARK, NJ, 07204",60573441,"L"
222880,"475 EVERGREEN DR","ANN ARBOR","MI",48103,42.287179764,-83.7870422669999,380,"475 EVERGREEN DR, ANN ARBOR, MI, 48103","Match","Exact","475 EVERGREEN DR, ANN ARBOR, MI, 48103",26044472,"L"
222881,"475 FAIR ST","CARMEL","NY",10512,41.4514205520001,-73.645884209,381,"475 FAIR ST, CARMEL, NY, 10512","Match","Exact","475 FAIR ST, CARMEL, NY, 10512",616698472,"L"
222882,"475 FDR DR APT L101","NEW YORK","NY",10002,NA,NA,382,"475 FDR DR APT L101, NEW YORK, NY, 10002","No_Match",NA,NA,NA,NA
222883,"475 GARNER COURT APT 401","PITTSBURGH","PA",15213,40.442419683,-79.970395049,383,"475 GARNER COURT APT 401, PITTSBURGH, PA, 15213","Match","Exact","475 GARNER CT, PITTSBURGH, PA, 15213",641831715,"R"
222884,"475 GRANDVIEW LN","PLATTEVILLE","WI",53818,42.747328731,-90.4828485629999,384,"475 GRANDVIEW LN, PLATTEVILLE, WI, 53818","Match","Exact","475 GRANDVIEW LN, PLATTEVILLE, WI, 53818",32755979,"R"
222885,"475 HALF DAY RD STE 250","LINCOLNSHIRE","IL",60069,NA,NA,385,"475 HALF DAY RD STE 250, LINCOLNSHIRE, IL, 60069","Tie",NA,NA,NA,NA
222886,"475 HALF DAY ROAD SUITE 500","LINCOLNSHIRE","IL",60069,NA,NA,386,"475 HALF DAY ROAD SUITE 500, LINCOLNSHIRE, IL, 60069","Tie",NA,NA,NA,NA
222887,"475 HAYTER DRIVE","MORRISTOWN","TN",37813,36.200433375,-83.276705917,387,"475 HAYTER DRIVE, MORRISTOWN, TN, 37813","Match","Exact","475 HAYTER DR, MORRISTOWN, TN, 37813",42225830,"R"
222888,"475 HAZEL AVENUE","GLENCOE","IL",60022,42.130949392,-87.76277178,388,"475 HAZEL AVENUE, GLENCOE, IL, 60022","Match","Exact","475 HAZEL AVE, GLENCOE, IL, 60022",111840432,"R"
222889,"475 HERRMANN HL RD","KINGSBURY","TX",78638,29.7161283670001,-97.935748572,389,"475 HERRMANN HL RD, KINGSBURY, TX, 78638","Match","Non_Exact","475 HERMANN HILL, KINGSBURY, TX, 78638",54837449,"R"
222890,"475 HIGHLAND HILL RD","LEHIGHTON","PA",18235,40.839711892,-75.769711864,390,"475 HIGHLAND HILL RD, LEHIGHTON, PA, 18235","Match","Exact","475 HIGHLAND HILL RD, LEHIGHTON, PA, 18235",634845168,"L"
222891,"475 HIGHLANDS CIRCLE","ERIE","CO",80516,NA,NA,391,"475 HIGHLANDS CIRCLE, ERIE, CO, 80516","No_Match",NA,NA,NA,NA
222892,"475 HOLLY AVE","ST. PAUL","MN",55102,44.943445512,-93.120056434,392,"475 HOLLY AVE, ST. PAUL, MN, 55102","Match","Non_Exact","475 W HOLLY AVE, SAINT PAUL, MN, 55102",97647571,"R"
222893,"475 JUNIPER DR","PETERSBURG","IL",62675,39.98301071,-89.8634523059999,393,"475 JUNIPER DR, PETERSBURG, IL, 62675","Match","Exact","475 JUNIPER DR, PETERSBURG, IL, 62675",53272343,"R"
222894,"475 K ST NW UNIT 1007","WASHINGTON","DC",20001,38.9025271190001,-77.018407869,394,"475 K ST NW UNIT 1007, WASHINGTON, DC, 20001","Match","Exact","475 K ST NW, WASHINGTON, DC, 20001",648823444,"R"
222895,"475 K STREET NW 420","WASHINGTON","DC",20001,38.9025271190001,-77.018407869,395,"475 K STREET NW 420, WASHINGTON, DC, 20001","Match","Exact","475 K ST NW, WASHINGTON, DC, 20001",648823444,"R"
222896,"475 KAMALEI CIRCLE","KAHULUI","HI",96732,20.8797471280001,-156.492417785,396,"475 KAMALEI CIRCLE, KAHULUI, HI, 96732","Match","Exact","475 KAMALEI CIR, KAHULUI, HI, 96732",85102298,"R"
222897,"475 KEMP ROAD","POTTSTOWN","PA",19465,40.218602049,-75.652518035,397,"475 KEMP ROAD, POTTSTOWN, PA, 19465","Match","Exact","475 KEMP RD, POTTSTOWN, PA, 19465",179474017,"L"
222898,"475 KENDRICKS ROAD","BROOKLET","GA",30415,32.240098141,-81.527786104,398,"475 KENDRICKS ROAD, BROOKLET, GA, 30415","Match","Exact","475 KENDRICKS RD, BROOKLET, GA, 30415",642620264,"L"
222899,"475 LAUREL STREET","ELK GROVE VILLAGE","IL",60007,42.011132871,-87.9846057829999,399,"475 LAUREL STREET, ELK GROVE VILLAGE, IL, 60007","Match","Exact","475 LAUREL ST, ELK GROVE VILLAGE, IL, 60007",111717230,"R"
222900,"475 LOCKE ST 405","BROOKLYN","NY",11239,NA,NA,400,"475 LOCKE ST 405, BROOKLYN, NY, 11239","No_Match",NA,NA,NA,NA
222901,"475 LONGLEAF PINE PARKWAY","SAINT JOHNS","FL",32259,NA,NA,401,"475 LONGLEAF PINE PARKWAY, SAINT JOHNS, FL, 32259","No_Match",NA,NA,NA,NA
222902,"475 METROPLEX DRIVE STE 503","NASHVILLE","TN",37211,36.092102986,-86.7023510829999,402,"475 METROPLEX DRIVE STE 503, NASHVILLE, TN, 37211","Match","Exact","475 METROPLEX DR, NASHVILLE, TN, 37211",97197692,"R"
222903,"475 MOE ROAD","CLIFTON PARK","NY",12065,42.8585037180001,-73.794365651,403,"475 MOE ROAD, CLIFTON PARK, NY, 12065","Match","Exact","475 MOE RD, CLIFTON PARK, NY, 12065",18785449,"R"
222904,"475 N 3RD ST","MIFFLINBURG","PA",17844,40.9250688920001,-77.046450647,404,"475 N 3RD ST, MIFFLINBURG, PA, 17844","Match","Exact","475 N 3RD ST, MIFFLINBURG, PA, 17844",48187656,"L"
222905,"475 N BROADWAY ST","FRESNO","CA",93701,36.749938,-119.802982924,405,"475 N BROADWAY ST, FRESNO, CA, 93701","Match","Exact","475 N BROADWAY ST, FRESNO, CA, 93701",197578557,"L"
222906,"475 N MAIN ST","HEBER CITY","UT",84032,40.5138451610001,-111.413406795,406,"475 N MAIN ST, HEBER CITY, UT, 84032","Match","Exact","475 N MAIN ST, HEBER CITY, UT, 84032",177183971,"L"
222907,"475 N PREVATT AVE","LAKE HELEN","FL",32744,28.9916121310001,-81.223540896,407,"475 N PREVATT AVE, LAKE HELEN, FL, 32744","Match","Exact","475 N PREVATT AVE, LAKE HELEN, FL, 32744",636389518,"R"
222908,"475 NORTHERN BLVD SUTE 24","GREAT NECK","NY",11021,40.779502075,-73.722330136,408,"475 NORTHERN BLVD SUTE 24, GREAT NECK, NY, 11021","Match","Exact","475 NORTHERN BLVD, GREAT NECK, NY, 11021",147660334,"L"
222909,"475 Oakmead Parkway","Sunnyvale","CA",94085,NA,NA,409,"475 Oakmead Parkway, Sunnyvale, CA, 94085","No_Match",NA,NA,NA,NA
222910,"475 OSCEOLA STREET","DENVER","CO",80204,39.7240860310001,-105.038372347,410,"475 OSCEOLA STREET, DENVER, CO, 80204","Match","Exact","475 OSCEOLA ST, DENVER, CO, 80204",177326373,"L"
222911,"475 POTTERTON HTS","PHILADELPHIA","PA",19144,40.0382603460001,-75.1627316839999,411,"475 POTTERTON HTS, PHILADELPHIA, PA, 19144","Match","Exact","475 POTTERTON HTS, PHILADELPHIA, PA, 19144",131401407,"R"
222912,"475 PRESTON RD","GRISWOLD","CT",6351,41.573033029,-71.971343012,412,"475 PRESTON RD, GRISWOLD, CT, 6351","Match","Exact","475 PRESTON RD, GRISWOLD, CT, 06351",56835062,"L"
222913,"475 PROVIDENCE MAIN ST SUITE 303F","HUNTSVILLE","AL",35806,34.7543700690001,-86.692205241,413,"475 PROVIDENCE MAIN ST SUITE 303F, HUNTSVILLE, AL, 35806","Match","Non_Exact","475 PROVIDENCE MAIN ST NW, HUNTSVILLE, AL, 35806",648025880,"R"
222914,"475 PULASKI PLACE","DALLASTOWN","PA",17313,39.8990605180001,-76.653427353,414,"475 PULASKI PLACE, DALLASTOWN, PA, 17313","Match","Exact","475 PULASKI PL, DALLASTOWN, PA, 17313",623780517,"L"
222915,"475 REGENCY PARK - SUITE 175","O'FALLON","IL",62269,NA,NA,415,"475 REGENCY PARK - SUITE 175, O'FALLON, IL, 62269","No_Match",NA,NA,NA,NA
222916,"475 RIDGE STREET","LEWISTON","NY",14092,43.173599794,-79.0430116049999,416,"475 RIDGE STREET, LEWISTON, NY, 14092","Match","Exact","475 RIDGE ST, LEWISTON, NY, 14092",48684579,"R"
222917,"475 RIVERSIDE DR / SUITE 401","NEW YORK","NY",10115,40.8108003450001,-73.964383507,417,"475 RIVERSIDE DR / SUITE 401, NEW YORK, NY, 10115","Match","Exact","475 RIVERSIDE DR, NEW YORK, NY, 10115",59655375,"R"
222918,"475 RIVERSIDE DRIVE SUITE 1260","NEW YORK","NY",10115,40.8108003450001,-73.964383507,418,"475 RIVERSIDE DRIVE SUITE 1260, NEW YORK, NY, 10115","Match","Exact","475 RIVERSIDE DR, NEW YORK, NY, 10115",59655375,"R"
222919,"475 RIVERSIDE DRIVE SUITE 725","NEW YORK","NY",10115,40.8108003450001,-73.964383507,419,"475 RIVERSIDE DRIVE SUITE 725, NEW YORK, NY, 10115","Match","Exact","475 RIVERSIDE DR, NEW YORK, NY, 10115",59655375,"R"
222920,"475 ROCCO CIRCLE","CORONA","CA",92882,33.8521226290001,-117.573789873,420,"475 ROCCO CIRCLE, CORONA, CA, 92882","Match","Exact","475 ROCCO CIR, CORONA, CA, 92882",194835096,"L"
222921,"475 ROGER WILLIAMS AVENUE","HIGHLAND PARK","IL",60035,42.165485135,-87.782250984,421,"475 ROGER WILLIAMS AVENUE, HIGHLAND PARK, IL, 60035","Match","Exact","475 ROGER WILLIAMS AVE, HIGHLAND PARK, IL, 60035",119728078,"R"
222922,"475 ROSEWOOD DR E","TWIN FALLS","ID",83301,42.5789462970001,-114.487887883,422,"475 ROSEWOOD DR E, TWIN FALLS, ID, 83301","Match","Exact","475 ROSEWOOD DR E, TWIN FALLS, ID, 83301",118763707,"R"
222923,"475 RUSHMORE LANE","MADISON","WI",53711,43.0572620030001,-89.465416483,423,"475 RUSHMORE LANE, MADISON, WI, 53711","Match","Exact","475 RUSHMORE LN, MADISON, WI, 53711",49468027,"L"
222924,"475 S 440 E","EPHRAIM","UT",84627,39.3509860070001,-111.576189105,424,"475 S 440 E, EPHRAIM, UT, 84627","Match","Exact","475 S 440 E, EPHRAIM, UT, 84627",634737898,"R"
222925,"475 S JOHN RODES BLVD","MELBOURNE","FL",32904,NA,NA,425,"475 S JOHN RODES BLVD, MELBOURNE, FL, 32904","No_Match",NA,NA,NA,NA
222926,"475 S LA VERNE AVE","LOS ANGELES","CA",90022,34.0287973040001,-118.159936883,426,"475 S LA VERNE AVE, LOS ANGELES, CA, 90022","Match","Exact","475 S LA VERNE AVE, LOS ANGELES, CA, 90022",141637593,"R"
222927,"475 S STATE ST","PEWAMO","MI",48873,42.997298422,-84.8472618599999,427,"475 S STATE ST, PEWAMO, MI, 48873","Match","Exact","475 S STATE ST, PEWAMO, MI, 48873",12143032,"L"
222928,"475 SPELLTOWN ROAD","COTTAGEVILLE","SC",29435,32.9462922330001,-80.449299894,428,"475 SPELLTOWN ROAD, COTTAGEVILLE, SC, 29435","Match","Exact","475 SPELLTOWN RD, COTTAGEVILLE, SC, 29435",624873607,"L"
222929,"475 STARBOARD LANDING","FERNANDINA BEACH","FL",32034,30.6629943790001,-81.43738591,429,"475 STARBOARD LANDING, FERNANDINA BEACH, FL, 32034","Match","Exact","475 STARBOARD LNDG, FERNANDINA BCH, FL, 32034",84120213,"R"
222930,"475 STORM MOUNTAIN COURT","STEAMBOAT SPRINGS","CO",80487,40.476333115,-106.817442073,430,"475 STORM MOUNTAIN COURT, STEAMBOAT SPRINGS, CO, 80487","Match","Exact","475 STORM MOUNTAIN CT, STEAMBOAT SPRINGS, CO, 80487",106002861,"R"
222931,"475 THIN EDGE ROAD","SANTA CRUZ","CA",95065,37.0673845270001,-121.980572069,431,"475 THIN EDGE ROAD, SANTA CRUZ, CA, 95065","Match","Exact","475 THIN EDGE RD, SANTA CRUZ, CA, 95065",651481831,"L"
222932,"475 TYLER STREET","PITTSFIELD","MA",1201,42.45731354,-73.240488912,432,"475 TYLER STREET, PITTSFIELD, MA, 1201","Match","Exact","475 TYLER ST, PITTSFIELD, MA, 01201",3921124,"L"
222933,"475 VALLEY ROAD","WAYNE","NJ",7470,40.928644809,-74.229496046,433,"475 VALLEY ROAD, WAYNE, NJ, 7470","Match","Exact","475 VALLEY RD, WAYNE, NJ, 07470",638547980,"R"
222934,"475 VIRGINIA HIGHLANDS","FAYETTEVILLE","GA",30215,33.4444717050001,-84.4319934009999,434,"475 VIRGINIA HIGHLANDS, FAYETTEVILLE, GA, 30215","Match","Non_Exact","475 VIRGINA PARK, FAYETTEVILLE, GA, 30215",638648021,"L"
222935,"475 W 186TH STREET APT 4H","NEW YORK","NY",10033,NA,NA,435,"475 W 186TH STREET APT 4H, NEW YORK, NY, 10033","No_Match",NA,NA,NA,NA
222936,"475 W 910 S","HEBER CITY","UT",84032,40.4960239700001,-111.421867901,436,"475 W 910 S, HEBER CITY, UT, 84032","Match","Exact","475 W 910 S, HEBER CITY, UT, 84032",177193339,"L"
222937,"475 W MEADOW DR","TULARE","CA",93274,36.194746412,-119.351677263,437,"475 W MEADOW DR, TULARE, CA, 93274","Match","Exact","475 W MEADOW DR, TULARE, CA, 93274",607517298,"R"
222938,"475 W MESA LANE","CAMP VERDE","AZ",86322,34.583288365,-111.862559681,438,"475 W MESA LANE, CAMP VERDE, AZ, 86322","Match","Exact","475 W MESA LN, CAMP VERDE, AZ, 86322",159492572,"R"
222939,"475 W STETSON AVE  STE T 288","HEMET","CA",92543,NA,NA,439,"475 W STETSON AVE  STE T 288, HEMET, CA, 92543","Tie",NA,NA,NA,NA
222940,"475 WASHINGTON BLVD","WHITE LAKE","MI",48386,42.631934545,-83.489800192,440,"475 WASHINGTON BLVD, WHITE LAKE, MI, 48386","Match","Exact","475 WASHINGTON BLVD, WHITE LAKE, MI, 48386",69691115,"L"
222941,"475 WEST 57TH STREET 9B2","NEW YORK","NY",10019,40.768820453,-73.987838123,441,"475 WEST 57TH STREET 9B2, NEW YORK, NY, 10019","Match","Exact","475 W 57TH ST, NEW YORK, NY, 10019",650153718,"R"
222942,"475 WESTON WALK","ALPHARETTA","GA",30004,34.1530736,-84.235752454,442,"475 WESTON WALK, ALPHARETTA, GA, 30004","Match","Exact","475 WESTON WALK, ALPHARETTA, GA, 30004",649241522,"L"
222943,"475 WHITLOCK RD","PURYEAR","TN",38251,36.3619216380001,-88.343188174,443,"475 WHITLOCK RD, PURYEAR, TN, 38251","Match","Exact","475 WHITLOCK RD, PURYEAR, TN, 38251",19672659,"L"
222944,"475 WILLIAMSBURG WAY","FAYETTEVILLE","GA",30214,33.439910017,-84.45047683,444,"475 WILLIAMSBURG WAY, FAYETTEVILLE, GA, 30214","Match","Exact","475 WILLIAMSBURG WAY, FAYETTEVILLE, GA, 30214",75940997,"L"
222945,"475-750 RICE CANYON RD","SUSANVILLE","CA",96130,40.4011525010001,-120.525787436,445,"475-750 RICE CANYON RD, SUSANVILLE, CA, 96130","Match","Non_Exact","475 RICE CANYON RD, SUSANVILLE, CA, 96127",639030016,"R"
222946,"4750 41ST ST NW APT","WASHINGTON","DC",20016,38.951430155,-77.080316468,446,"4750 41ST ST NW APT, WASHINGTON, DC, 20016","Match","Exact","4750 41ST ST NW, WASHINGTON, DC, 20016",76220289,"L"
222947,"4750 41ST STREET NW UNIT 3","WASHINGTON","DC",20016,38.951430155,-77.080316468,447,"4750 41ST STREET NW UNIT 3, WASHINGTON, DC, 20016","Match","Exact","4750 41ST ST NW, WASHINGTON, DC, 20016",76220289,"L"
222948,"4750 AIRLINE ROAD","WESLEY","ME",4686,44.9429295400001,-67.7107053089999,448,"4750 AIRLINE ROAD, WESLEY, ME, 4686","Match","Exact","4750 AIRLINE RD, WESLEY, ME, 04686",124252645,"R"
222949,"4750 ALMADEN EXPRESSWAY STE124 111","SAN JOSE","CA",95118,NA,NA,449,"4750 ALMADEN EXPRESSWAY STE124 111, SAN JOSE, CA, 95118","No_Match",NA,NA,NA,NA
222950,"4750 BIG RUN SOUTH RD","GROVE CITY","OH",43123,39.894005468,-83.116321709,450,"4750 BIG RUN SOUTH RD, GROVE CITY, OH, 43123","Match","Exact","4750 BIG RUN SOUTH RD, GROVE CITY, OH, 43123",218674731,"R"
222951,"4750 CROSSCREEK DR","COLUMBUS","OH",43232,NA,NA,451,"4750 CROSSCREEK DR, COLUMBUS, OH, 43232","No_Match",NA,NA,NA,NA
222952,"4750 DEHNER ST","PORTSMOUTH","OH",45662,38.7910362380001,-82.9783221549999,452,"4750 DEHNER ST, PORTSMOUTH, OH, 45662","Match","Exact","4750 DEHNER ST, PORTSMOUTH, OH, 45662",55109113,"R"
222953,"4750 E MOODY BLVD 225 227","BUNNELL","FL",32110,29.4757767900001,-81.2235064239999,453,"4750 E MOODY BLVD 225 227, BUNNELL, FL, 32110","Match","Exact","4750 MOODY BLVD, BUNNELL, FL, 32110",635226847,"L"
222954,"4750 FM 855 W","BULLARD","TX",75757,32.0788356100001,-95.3915555579999,454,"4750 FM 855 W, BULLARD, TX, 75757","Match","Non_Exact","4750 FM 855, BULLARD, TX, 75757",72300277,"L"
222955,"4750 GOLF AVE","CLEARLAKE","CA",95422,38.9490211950001,-122.635252885,455,"4750 GOLF AVE, CLEARLAKE, CA, 95422","Match","Exact","4750 GOLF AVE, CLEARLAKE, CA, 95422",67045613,"L"
222956,"4750 HARRIS TRAIL NW","ATLANTA","GA",30327,33.88385269,-84.430205126,456,"4750 HARRIS TRAIL NW, ATLANTA, GA, 30327","Match","Exact","4750 HARRIS TRL NW, ATLANTA, GA, 30327",17361432,"L"
222957,"4750 J STREET - 19445","SACRAMENTO","CA",95819,38.5671261530001,-121.444083102,457,"4750 J STREET - 19445, SACRAMENTO, CA, 95819","Match","Exact","4750 J ST, SACRAMENTO, CA, 95819",133334815,"R"
222958,"4750 LANG RIDGE DR","NORTH CHARLESTON","SC",29405,32.8522545770001,-80.025249932,458,"4750 LANG RIDGE DR, NORTH CHARLESTON, SC, 29405","Match","Exact","4750 LANG RIDGE DR, N CHARLESTON, SC, 29405",108825694,"L"
222959,"4750 MAYBANK AVENUE","LAKEWOOD","CA",90712,33.843757295,-118.160930499,459,"4750 MAYBANK AVENUE, LAKEWOOD, CA, 90712","Match","Exact","4750 MAYBANK AVE, LAKEWOOD, CA, 90712",141698947,"R"
222960,"4750 N 6TH ST","MINNEAPOLIS","MN",55411,45.0412492680001,-93.28758284,460,"4750 N 6TH ST, MINNEAPOLIS, MN, 55411","Match","Non_Exact","4750 N 6TH ST, MINNEAPOLIS, MN, 55430",43621912,"R"
222961,"4750 NE 121 AVE","WILLISTON","FL",32696,29.4030334230001,-82.571445652,461,"4750 NE 121 AVE, WILLISTON, FL, 32696","Match","Exact","4750 NE 121ST AVE, WILLISTON, FL, 32696",612310481,"R"
222962,"4750 NE 180TH AVE","WILLISTON","FL",32696,29.3995898320001,-82.4734596329999,462,"4750 NE 180TH AVE, WILLISTON, FL, 32696","Match","Exact","4750 NE 180TH AVE, WILLISTON, FL, 32696",612204698,"L"
222963,"4750 PEAR RIDGE DR APT 10203","DALLAS","TX",75287,33.0043429720001,-96.824799658,463,"4750 PEAR RIDGE DR APT 10203, DALLAS, TX, 75287","Match","Exact","4750 PEAR RIDGE DR, DALLAS, TX, 75287",210493911,"L"
222964,"4750 REAR COTTONVILLE RD PO BOX43","JAMESTOWN","OH",45335,NA,NA,464,"4750 REAR COTTONVILLE RD PO BOX43, JAMESTOWN, OH, 45335","No_Match",NA,NA,NA,NA
222965,"4750 S RAEBURN DRIVE","CINCINNATI","OH",45223,39.172429607,-84.558018106,465,"4750 S RAEBURN DRIVE, CINCINNATI, OH, 45223","Match","Exact","4750 S RAEBURN DR, CINCINNATI, OH, 45223",103920909,"R"
222966,"4750 S VERNON AVENUE","MCCOOK","IL",60525,NA,NA,466,"4750 S VERNON AVENUE, MCCOOK, IL, 60525","No_Match",NA,NA,NA,NA
222967,"4750 SHAGBARK COURT","BROOKFIELD","WI",53005,43.103528785,-88.114092533,467,"4750 SHAGBARK COURT, BROOKFIELD, WI, 53005","Match","Exact","4750 SHAGBARK CT, BROOKFIELD, WI, 53005",53828252,"R"
222968,"4750 ST JOHNS AVE STE B","JACKSONVILLE","FL",32210,NA,NA,468,"4750 ST JOHNS AVE STE B, JACKSONVILLE, FL, 32210","No_Match",NA,NA,NA,NA
222969,"4750 TALLEYBROOK DRIVE NW","KENNESAW","GA",30152,33.98284348,-84.6860661979999,469,"4750 TALLEYBROOK DRIVE NW, KENNESAW, GA, 30152","Match","Exact","4750 TALLEYBROOK DR NW, KENNESAW, GA, 30152",17224208,"L"
222970,"4750 WHITE BEAR PKWY","WHITE BEARL LAKE","MN",55110,45.083380833,-93.048584292,470,"4750 WHITE BEAR PKWY, WHITE BEARL LAKE, MN, 55110","Match","Non_Exact","4750 WHITE BEAR PKWY, WHITE BEAR LAKE, MN, 55110",646589514,"L"
222971,"4750 WINKLER AVENUE","FORT  MYERS","FL",33966,NA,NA,471,"4750 WINKLER AVENUE, FORT  MYERS, FL, 33966","No_Match",NA,NA,NA,NA
222972,"47504 HWY 10","FRANKLINTON","LA",70438,30.851466013,-90.09318201,472,"47504 HWY 10, FRANKLINTON, LA, 70438","Match","Non_Exact","47504 STATE RTE 10, FRANKLINTON, LA, 70438",616466604,"R"
222973,"4751 ADOBE RD","TWENTYNINE PALMS","CA",92277,34.1675819930001,-116.054063519,473,"4751 ADOBE RD, TWENTYNINE PALMS, CA, 92277","Match","Exact","4751 ADOBE RD, TWENTYNINE PALMS, CA, 92277",638618656,"R"
222974,"4751 BEST RD 400N","COLLEGE PARK","GA",30337,33.624821652,-84.458380467,474,"4751 BEST RD 400N, COLLEGE PARK, GA, 30337","Match","Exact","4751 BEST RD, COLLEGE PARK, GA, 30337",17348892,"R"
222975,"4751 BEST ROAD      SUITE 400P","COLLEGE PARK","GA",30337,33.624821652,-84.458380467,475,"4751 BEST ROAD      SUITE 400P, COLLEGE PARK, GA, 30337","Match","Exact","4751 BEST RD, COLLEGE PARK, GA, 30337",17348892,"R"
222976,"4751 COUNTY ROAD 547 NORTH","DAVENPORT","FL",33837,28.2264355620001,-81.584952082,476,"4751 COUNTY ROAD 547 NORTH, DAVENPORT, FL, 33837","Match","Non_Exact","4751 CO RD 547, DAVENPORT, FL, 33837",648237086,"L"
222977,"4751 DE INVIERNO PLACE","MOUNT AIRY","MD",21771,39.3648823410001,-77.191658629,477,"4751 DE INVIERNO PLACE, MOUNT AIRY, MD, 21771","Match","Exact","4751 DE INVIERNO PL, MOUNT AIRY, MD, 21771",648637512,"R"
222978,"4751 GULF SHORE BLVD N UNIT 1505","NAPLES","FL",34103,26.205667378,-81.8138514079999,478,"4751 GULF SHORE BLVD N UNIT 1505, NAPLES, FL, 34103","Match","Exact","4751 GULF SHORE BLVD N, NAPLES, FL, 34103",115176701,"L"
222979,"4751 HODE RD","WARFIELD","KY",41267,37.8868114630001,-82.427622039,479,"4751 HODE RD, WARFIELD, KY, 41267","Match","Exact","4751 HODE RD, WARFIELD, KY, 41267",624942447,"L"
222980,"4751 HOPKINS AVE","DALLAS","TX",75209,32.8476751150001,-96.829394614,480,"4751 HOPKINS AVE, DALLAS, TX, 75209","Match","Exact","4751 HOPKINS AVE, DALLAS, TX, 75209",102903564,"L"
222981,"4751 LUBBOCK AVENUE","FORT WORTH","TX",76115,32.6784907040001,-97.356502142,481,"4751 LUBBOCK AVENUE, FORT WORTH, TX, 76115","Match","Exact","4751 LUBBOCK AVE, FORT WORTH, TX, 76115",101887861,"L"
222982,"4751 N ARTESIAN AVE","CHICAGO","IL",60625,41.96821773,-87.690107304,482,"4751 N ARTESIAN AVE, CHICAGO, IL, 60625","Match","Exact","4751 N ARTESIAN AVE, CHICAGO, IL, 60625",605184578,"R"
222983,"4751 N WASILLA FISHHOOK ROAD","WASILLA","AK",99654,61.6347708210001,-149.349023786,483,"4751 N WASILLA FISHHOOK ROAD, WASILLA, AK, 99654","Match","Non_Exact","4751 N WASILLA-FISHHOOK RD, WASILLA, AK, 99654",191073868,"R"
222984,"4751 NE 185TH AVENUE","WILLISTON","FM",32696,NA,NA,484,"4751 NE 185TH AVENUE, WILLISTON, FM, 32696","No_Match",NA,NA,NA,NA
222985,"4751 PRESERVE PKWY N","GREENWOOD VILLAGE","CO",80121,39.61585782,-104.930598126,485,"4751 PRESERVE PKWY N, GREENWOOD VILLAGE, CO, 80121","Match","Exact","4751 PRESERVE PKWY N, GREENWOOD VILLAGE, CO, 80121",177538113,"L"
222986,"4751 S HONORE STREET APT B","CHICAGO","IL",60609,41.8070843400001,-87.670992632,486,"4751 S HONORE STREET APT B, CHICAGO, IL, 60609","Match","Non_Exact","4751 S HONORE ST, CHICAGO, IL, 60609",604987093,"L"
222987,"4751 SOUTH NC 62","BURLINGTON","NC",27215,36.0243093510001,-79.4867761689999,487,"4751 SOUTH NC 62, BURLINGTON, NC, 27215","Match","Exact","4751 S STATE HWY 62, BURLINGTON, NC, 27215",621584007,"R"
222988,"47510 CAPRI COURT","NORTHVILLE","MI",48167,42.445104584,-83.5150669339999,488,"47510 CAPRI COURT, NORTHVILLE, MI, 48167","Match","Exact","47510 CAPRI CT, NORTHVILLE, MI, 48167",624101479,"L"
222989,"475164 E 750 RD","WESTVILLE","OK",74965,NA,NA,489,"475164 E 750 RD, WESTVILLE, OK, 74965","No_Match",NA,NA,NA,NA
222990,"47519 COLDSPRING PLACE","STERLING","VA",20165,39.0352211530001,-77.35373391,490,"47519 COLDSPRING PLACE, STERLING, VA, 20165","Match","Exact","47519 COLDSPRING PL, STERLING, VA, 20165",62366062,"R"
222991,"4752 CRYSTAL BROOK DRIVE","CANE RIDGE","TN",37013,36.03830679,-86.67463417,491,"4752 CRYSTAL BROOK DRIVE, CANE RIDGE, TN, 37013","Match","Exact","4752 CRYSTAL BROOK DR, CANE RIDGE, TN, 37013",97216024,"R"
222992,"4752 E 114TH ST","TULSA","OK",74137,35.9980808070001,-95.9260013959999,492,"4752 E 114TH ST, TULSA, OK, 74137","Match","Exact","4752 E 114TH ST, TULSA, OK, 74137",627314594,"R"
222993,"4752 E SOUTH FORK DR","PHOENIX","AZ",85044,33.3068174040001,-111.981691732,493,"4752 E SOUTH FORK DR, PHOENIX, AZ, 85044","Match","Exact","4752 E SOUTH FORK DR, PHOENIX, AZ, 85044",128789939,"L"
222994,"4752 HIGHWAY 311 SUITE 108","HOUMA","LA",70360,29.6008153390001,-90.760440548,494,"4752 HIGHWAY 311 SUITE 108, HOUMA, LA, 70360","Match","Non_Exact","4752 STATE RTE 311, HOUMA, LA, 70360",92069077,"L"
222995,"4752 HOLLY ST","ORANGE","TX",77630,30.055442435,-93.8900761,495,"4752 HOLLY ST, ORANGE, TX, 77630","Match","Exact","4752 HOLLY ST, ORANGE, TX, 77630",74019108,"L"
222996,"4752 HUNTINGTON DR","LOS ANGELES","CA",90032,NA,NA,496,"4752 HUNTINGTON DR, LOS ANGELES, CA, 90032","Tie",NA,NA,NA,NA
222997,"4752 LEGARE LN","COLUMBUS","OH",43230,40.076238695,-82.863315045,497,"4752 LEGARE LN, COLUMBUS, OH, 43230","Match","Exact","4752 LEGARE LN, COLUMBUS, OH, 43230",135761704,"R"
222998,"4752 N 24TH STREET","MILWAUKEE","WI",53209,43.1038418640001,-87.9416430909999,498,"4752 N 24TH STREET, MILWAUKEE, WI, 53209","Match","Exact","4752 N 24TH ST, MILWAUKEE, WI, 53209",77737666,"R"
222999,"4752 OLD INDIAN TRAIL","BLACK EARTH","WI",53515,43.1140943730001,-89.784171006,499,"4752 OLD INDIAN TRAIL, BLACK EARTH, WI, 53515","Match","Exact","4752 OLD INDIAN TRL, BLACK EARTH, WI, 53515",49543850,"R"
223000,"4752 SHADY WAY","ARLINGTON","TX",76018,32.671019474,-97.084492509,500,"4752 SHADY WAY, ARLINGTON, TX, 76018","Match","Non_Exact","4752 SHADYWAY DR, ARLINGTON, TX, 76018",101910434,"L"
