"ID","Address","City","State","Zip","lat","long","id","input_address","match_indicator","match_type","matched_address","tiger_line_id","tiger_side"
77001,"1610 AVE PONCE DE LEON  SUITE 2B","SAN JUAN","PR",909,18.4438598400001,-66.0653917609999,1,"1610 AVE PONCE DE LEON  SUITE 2B, SAN JUAN, PR, 909","Match","Exact","1610 AVE PONCE DE LEON, SAN JUAN, PR, 00909",206605311,"R"
77002,"1610 AVON AVE SW","ATLANTA","GA",30311,33.7225012960001,-84.4402704569999,2,"1610 AVON AVE SW, ATLANTA, GA, 30311","Match","Exact","1610 AVON AVE SW, ATLANTA, GA, 30311",17341189,"L"
77003,"1610 BARLOW","TRAVERSE CITY","MI",49686,44.740488199,-85.6055280319999,3,"1610 BARLOW, TRAVERSE CITY, MI, 49686","Match","Non_Exact","1610 BARLOW ST, TRAVERSE CITY, MI, 49686",647597689,"L"
77004,"1610 BEAVERS SPRING CIRCLE","HOUSTON","TX",77090,30.016011844,-95.4564514039999,4,"1610 BEAVERS SPRING CIRCLE, HOUSTON, TX, 77090","Match","Non_Exact","1610 BEAVER SPRINGS CIR, HOUSTON, TX, 77090",96009283,"L"
77005,"1610 BEECH","TEXARKANA","AR",71854,33.4384741900001,-94.0394123309999,5,"1610 BEECH, TEXARKANA, AR, 71854","Match","Non_Exact","1610 BEECH ST, TEXARKANA, AR, 71854",57274965,"R"
77006,"1610 BROOKHAVEN ROAD","WYNNEWOOD","PA",19096,39.9880718800001,-75.28221352,6,"1610 BROOKHAVEN ROAD, WYNNEWOOD, PA, 19096","Match","Exact","1610 BROOKHAVEN RD, WYNNEWOOD, PA, 19096",616028879,"L"
77007,"1610 BROOKS STREET POB 3938","BATESVILLE","AR",72501,35.781066953,-91.657062098,7,"1610 BROOKS STREET POB 3938, BATESVILLE, AR, 72501","Match","Exact","1610 BROOKS ST, BATESVILLE, AR, 72501",41642453,"R"
77008,"1610 CAFFREY AVENUE APT 4C","FAR ROCKAWAY","NY",11691,NA,NA,8,"1610 CAFFREY AVENUE APT 4C, FAR ROCKAWAY, NY, 11691","No_Match",NA,NA,NA,NA
77009,"1610 CALLAWAY LOOP","CONYERS","GA",30012,33.691296197,-84.0021905739999,9,"1610 CALLAWAY LOOP, CONYERS, GA, 30012","Match","Exact","1610 CALLAWAY LOOP, CONYERS, GA, 30012",632674210,"L"
77010,"1610 CHRISTIAN AVE","SPRINGDALE","AR",72762,36.191562747,-94.148409208,10,"1610 CHRISTIAN AVE, SPRINGDALE, AR, 72762","Match","Exact","1610 CHRISTIAN AVE, SPRINGDALE, AR, 72762",652954648,"R"
77011,"1610 COOLHURST AVE","SHERWOOD","AR",72120,34.819022451,-92.2084151459999,11,"1610 COOLHURST AVE, SHERWOOD, AR, 72120","Match","Exact","1610 COOLHURST AVE, SHERWOOD, AR, 72120",83498441,"L"
77012,"1610 COOPER FOSTER PK RD","LORAIN","OH",44053,41.41825584,-82.195288531,12,"1610 COOPER FOSTER PK RD, LORAIN, OH, 44053","Match","Exact","1610 COOPER FOSTER PARK RD, LORAIN, OH, 44053",55437557,"L"
77013,"1610 CORSICANA","ABILENE","TX",79605,32.434128362,-99.794620276,13,"1610 CORSICANA, ABILENE, TX, 79605","Match","Non_Exact","1610 CORSICANA AVE, ABILENE, TX, 79605",129967438,"R"
77014,"1610 DES PERES ROAD SUITE 300","SAINT LOUIS","MO",63131,NA,NA,14,"1610 DES PERES ROAD SUITE 300, SAINT LOUIS, MO, 63131","No_Match",NA,NA,NA,NA
77015,"1610 DIXIE AVENUE","GULFPORT","MS",39501,30.3675218400001,-89.12664926,15,"1610 DIXIE AVENUE, GULFPORT, MS, 39501","Match","Exact","1610 DIXIE AVE, GULFPORT, MS, 39501",111377125,"R"
77016,"1610 DIXIE HIGHWAY","PARK HILLS","KY",41011,39.063772349,-84.535002941,16,"1610 DIXIE HIGHWAY, PARK HILLS, KY, 41011","Match","Exact","1610 DIXIE HWY, PARK HILLS, KY, 41011",103875477,"R"
77017,"1610 E ALTON ST","PASCO","WA",99301,46.2306630570001,-119.075778133,17,"1610 E ALTON ST, PASCO, WA, 99301","Match","Exact","1610 E ALTON ST, PASCO, WA, 99301",175250501,"R"
77018,"1610 E CHARLESTON BLVD STE 140--A","LAS VEGAS","NV",89115,NA,NA,18,"1610 E CHARLESTON BLVD STE 140--A, LAS VEGAS, NV, 89115","No_Match",NA,NA,NA,NA
77019,"1610 E COUNTY LINE RD","MINERAL RIDGE","OH",44440,41.1340801700001,-80.76166712,19,"1610 E COUNTY LINE RD, MINERAL RIDGE, OH, 44440","Match","Exact","1610 COUNTY LINE RD, MINERAL RIDGE, OH, 44440",640432399,"L"
77020,"1610 E CROCKETT AVE","HARLINGEN","TX",78550,26.2042656300001,-97.678788421,20,"1610 E CROCKETT AVE, HARLINGEN, TX, 78550","Match","Exact","1610 E CROCKETT AVE, HARLINGEN, TX, 78550",89956972,"R"
77021,"1610 E PARK AVENUE","DES MOINES","IA",50320,41.5553164040001,-93.591693338,21,"1610 E PARK AVENUE, DES MOINES, IA, 50320","Match","Exact","1610 E PARK AVE, DES MOINES, IA, 50320",651712878,"L"
77022,"1610 EAST BELL ROAD SUITE 108","PHOENIX","AZ",85022,33.6404014890001,-112.047744239,22,"1610 EAST BELL ROAD SUITE 108, PHOENIX, AZ, 85022","Match","Exact","1610 E BELL RD, PHOENIX, AZ, 85022",649792114,"L"
77023,"1610 ELAINE ST 2ND FLOOR","PHILADELPHIA","PA",19150,40.0819308390001,-75.174582078,23,"1610 ELAINE ST 2ND FLOOR, PHILADELPHIA, PA, 19150","Match","Exact","1610 ELAINE ST, PHILADELPHIA, PA, 19150",131394883,"R"
77024,"1610 ENFIELD ROAD APT 305","AUSTIN","TX",78703,30.283059144,-97.758969878,24,"1610 ENFIELD ROAD APT 305, AUSTIN, TX, 78703","Match","Exact","1610 ENFIELD RD, AUSTIN, TX, 78703",63942842,"R"
77025,"1610 FILLMORE ST","LITTLE ROCK","AR",72204,34.737482937,-92.3369097519999,25,"1610 FILLMORE ST, LITTLE ROCK, AR, 72204","Match","Non_Exact","1610 S FILLMORE ST, LITTLE ROCK, AR, 72204",83505993,"R"
77026,"1610 FIVE FORKS TRICKUM RD","LAWRENCEVILLE","GA",30044,33.9162928960001,-84.0209395539999,26,"1610 FIVE FORKS TRICKUM RD, LAWRENCEVILLE, GA, 30044","Match","Exact","1610 FIVE FORKS TRICKUM RD, LAWRENCEVILLE, GA, 30044",88903622,"L"
77027,"1610 FM 839 N","REKLAW","TX",75784,31.884254019,-94.9723391699999,27,"1610 FM 839 N, REKLAW, TX, 75784","Match","Non_Exact","1610 FM 839 S, REKLAW, TX, 75784",79636338,"R"
77028,"1610 GEORGE AVENUE","SEVERN","MD",21144,39.1038066580001,-76.687084693,28,"1610 GEORGE AVENUE, SEVERN, MD, 21144","Match","Exact","1610 GEORGE AVE, SEVERN, MD, 21144",68211937,"L"
77029,"1610 GILCREASE AVE","PICAYUNE","MS",39466,30.5378387600001,-89.6682403469999,29,"1610 GILCREASE AVE, PICAYUNE, MS, 39466","Match","Exact","1610 GILCREASE AVE, PICAYUNE, MS, 39466",111488593,"R"
77030,"1610 GREGORY ST","YPSILANTI","MI",48197,42.256610005,-83.639605385,30,"1610 GREGORY ST, YPSILANTI, MI, 48197","Match","Exact","1610 GREGORY ST, YPSILANTI, MI, 48197",26046996,"R"
77031,"1610 HAVENHURST DRIVE","LOS ALTOS","CA",94024,37.354458477,-122.068303368,31,"1610 HAVENHURST DRIVE, LOS ALTOS, CA, 94024","Match","Exact","1610 HAVENHURST DR, LOS ALTOS, CA, 94024",122935374,"L"
77032,"1610 HEATHER LANE","SOUTHLAKE","TX",76092,32.9653890550001,-97.1226018419999,32,"1610 HEATHER LANE, SOUTHLAKE, TX, 76092","Match","Exact","1610 HEATHER LN, SOUTHLAKE, TX, 76092",102121184,"R"
77033,"1610 HILLCREST DR","GRAHAM","TX",76450,33.0835606530001,-98.575865209,33,"1610 HILLCREST DR, GRAHAM, TX, 76450","Match","Exact","1610 HILLCREST DR, GRAHAM, TX, 76450",183300873,"L"
77034,"1610 HOVER STREET SUITE 203","LONGMONT","CO",80501,40.1867195610001,-105.130911355,34,"1610 HOVER STREET SUITE 203, LONGMONT, CO, 80501","Match","Exact","1610 HOVER ST, LONGMONT, CO, 80501",188154888,"R"
77035,"1610 HUMPHREY CT","DELTONA","FL",32738,28.908246003,-81.1932484659999,35,"1610 HUMPHREY CT, DELTONA, FL, 32738","Match","Exact","1610 HUMPHREY CT, DELTONA, FL, 32738",94502513,"L"
77036,"1610 JUDSON AVENUE","RICHLAND","WA",99354,46.293985429,-119.282030741,36,"1610 JUDSON AVENUE, RICHLAND, WA, 99354","Match","Exact","1610 JUDSON AVE, RICHLAND, WA, 99354",174987056,"R"
77037,"1610 KLONDIKE ROAD","WEST LAFAYETTE","IN",47906,40.4388694370001,-86.961903208,37,"1610 KLONDIKE ROAD, WEST LAFAYETTE, IN, 47906","Match","Exact","1610 KLONDIKE RD, W LAFAYETTE, IN, 47906",27303863,"L"
77038,"1610 KNOLL RIDGE CIRCLE","CORINTH","TX",76210,33.157001252,-97.0723400689999,38,"1610 KNOLL RIDGE CIRCLE, CORINTH, TX, 76210","Match","Exact","1610 KNOLL RIDGE CIR, CORINTH, TX, 76210",103374907,"R"
77039,"1610 LABURNUM AVENUE","CHICO","CA",95926,39.744648415,-121.846369684,39,"1610 LABURNUM AVENUE, CHICO, CA, 95926","Match","Exact","1610 LABURNUM AVE, CHICO, CA, 95926",68426824,"R"
77040,"1610 LAKE LOUELLA RD","SUWANEE","GA",30024,34.015581405,-84.090825923,40,"1610 LAKE LOUELLA RD, SUWANEE, GA, 30024","Match","Exact","1610 LAKE LOUELLA RD, SUWANEE, GA, 30024",88881574,"R"
77041,"1610 LANDIS ROAD","MOUNT JOY","PA",17552,40.1147112730001,-76.582128486,41,"1610 LANDIS ROAD, MOUNT JOY, PA, 17552","Match","Exact","1610 LANDIS RD, MOUNT JOY, PA, 17552",647528478,"R"
77042,"1610 LOCUST STREET","NORRISTOWN","PA",19401,40.1277336410001,-75.332659204,42,"1610 LOCUST STREET, NORRISTOWN, PA, 19401","Match","Exact","1610 LOCUST ST, NORRISTOWN, PA, 19401",135082658,"R"
77043,"1610 MAMARONECK AVE","MAMARONECK","NY",10543,40.967562759,-73.738775543,43,"1610 MAMARONECK AVE, MAMARONECK, NY, 10543","Match","Exact","1610 MAMARONECK AVE, MAMARONECK, NY, 10543",139754749,"L"
77044,"1610 MERIDIAN AVE SUITE 6","MIAMI BEACH","FL",33139,25.789266674,-80.136522514,44,"1610 MERIDIAN AVE SUITE 6, MIAMI BEACH, FL, 33139","Match","Exact","1610 MERIDIAN AVE, MIAMI BEACH, FL, 33139",116248145,"L"
77045,"1610 MONTGOMERY ST","RAHWAY","NJ",7065,40.6049550160001,-74.267699734,45,"1610 MONTGOMERY ST, RAHWAY, NJ, 7065","Match","Exact","1610 MONTGOMERY ST, RAHWAY, NJ, 07065",60562827,"L"
77046,"1610 N 25TH ST","TERRE HAUTE","IN",47804,39.48509668,-87.379029208,46,"1610 N 25TH ST, TERRE HAUTE, IN, 47804","Match","Exact","1610 N 25TH ST, TERRE HAUTE, IN, 47804",27116289,"L"
77047,"1610 N 54TH STREET","PHILADELPHIA","PA",19131,39.9775859810001,-75.2299541579999,47,"1610 N 54TH STREET, PHILADELPHIA, PA, 19131","Match","Exact","1610 N 54TH ST, PHILADELPHIA, PA, 19131",131398112,"L"
77048,"1610 N LOWELL AVE","PIERRE","SD",57501,NA,NA,48,"1610 N LOWELL AVE, PIERRE, SD, 57501","No_Match",NA,NA,NA,NA
77049,"1610 N PROSPECT AVE APT 1001","MILWAUKEE","WI",53202,43.0509940420001,-87.892486747,49,"1610 N PROSPECT AVE APT 1001, MILWAUKEE, WI, 53202","Match","Non_Exact","1610 N PROSPECT AVE, MILWAUKEE, WI, 53202",77744865,"R"
77050,"1610 N WEST STREET","CARROLL","IA",51401,42.0758324620001,-94.8689230319999,50,"1610 N WEST STREET, CARROLL, IA, 51401","Match","Exact","1610 N WEST ST, CARROLL, IA, 51401",68630032,"R"
77051,"1610 NE EXPRESSWAY","BROOKHAVEN","GA",30329,NA,NA,51,"1610 NE EXPRESSWAY, BROOKHAVEN, GA, 30329","No_Match",NA,NA,NA,NA
77052,"1610 NE GREENBRIER RD","BENTONVILLE","AR",72712,36.391358482,-94.194531766,52,"1610 NE GREENBRIER RD, BENTONVILLE, AR, 72712","Match","Exact","1610 NE GREENBRIER RD, BENTONVILLE, AR, 72712",47886147,"L"
77053,"1610 NE RED BUD LN APT 302","KANSAS CITY","MO",64116,39.1516427880001,-94.562463727,53,"1610 NE RED BUD LN APT 302, KANSAS CITY, MO, 64116","Match","Non_Exact","1610 NE RED BUD LN, KANSAS CITY, MO, 64116",89768457,"L"
77054,"1610 NORTH Q STREET","PENSACOLA","FL",32505,30.4284792490001,-87.243023877,54,"1610 NORTH Q STREET, PENSACOLA, FL, 32505","Match","Exact","1610 N Q ST, PENSACOLA, FL, 32505",93219400,"R"
77055,"1610 NORTHWICK RD","BALTIMORE","MD",21218,39.3435591840001,-76.5889979849999,55,"1610 NORTHWICK RD, BALTIMORE, MD, 21218","Match","Exact","1610 NORTHWICK RD, BALTIMORE, MD, 21218",206409456,"L"
77056,"1610 OGLETOWN ROAD","NEWARK","DE",19711,39.6844194780001,-75.7200258029999,56,"1610 OGLETOWN ROAD, NEWARK, DE, 19711","Match","Exact","1610 OGLETOWN RD, NEWARK, DE, 19711",649933950,"L"
77057,"1610 OREGON AVE S","ST LOUIS PARK","MN",55426,44.9672924280001,-93.374861627,57,"1610 OREGON AVE S, ST LOUIS PARK, MN, 55426","Match","Exact","1610 OREGON AVE S, SAINT LOUIS PARK, MN, 55426",43619426,"R"
77058,"1610 ORETHA CASTLE HALEY BLVD STE D","NEW ORLEANS","LA",70113,29.9402670970001,-90.079748302,58,"1610 ORETHA CASTLE HALEY BLVD STE D, NEW ORLEANS, LA, 70113","Match","Exact","1610 ORETHA CASTLE HALEY BLVD, NEW ORLEANS, LA, 70113",191713826,"L"
77059,"1610 OSCEOLA STREET","JACKSONVILLE","FL",32204,30.311445511,-81.68633786,59,"1610 OSCEOLA STREET, JACKSONVILLE, FL, 32204","Match","Exact","1610 OSCEOLA ST, JACKSONVILLE, FL, 32204",83896664,"R"
77060,"1610 PACE ST UNIT 900 PMB 324","LONGMONT","CO",80504,40.1850231070001,-105.074193432,60,"1610 PACE ST UNIT 900 PMB 324, LONGMONT, CO, 80504","Match","Exact","1610 PACE ST, LONGMONT, CO, 80504",220753807,"R"
77061,"1610 PINE ROAD","ROTHSCHILD","WI",54474,44.851102961,-89.632045555,61,"1610 PINE ROAD, ROTHSCHILD, WI, 54474","Match","Exact","1610 PINE RD, ROTHSCHILD, WI, 54474",649631551,"R"
77062,"1610 PLEASANT AVE","DES MOINES","IA",50314,41.5898721900001,-93.638366466,62,"1610 PLEASANT AVE, DES MOINES, IA, 50314","Match","Non_Exact","1610 PLEASANT ST, DES MOINES, IA, 50314",65853192,"L"
77063,"1610 PLEASANTVILLE DR","GLEN BURNIE","MD",21061,39.1906814210001,-76.629186982,63,"1610 PLEASANTVILLE DR, GLEN BURNIE, MD, 21061","Match","Exact","1610 PLEASANTVILLE DR, GLEN BURNIE, MD, 21061",68156822,"L"
77064,"1610 POPLAR RUN DR","SILVER SPRING","MD",20906,39.0791840540001,-77.035901017,64,"1610 POPLAR RUN DR, SILVER SPRING, MD, 20906","Match","Exact","1610 POPLAR RUN DR, SILVER SPRING, MD, 20906",645612036,"R"
77065,"1610 R ST SUITE 285","SACRAMENTO","CA",95811,NA,NA,65,"1610 R ST SUITE 285, SACRAMENTO, CA, 95811","No_Match",NA,NA,NA,NA
77066,"1610 REDWATER DRIVE","AUSTIN","TX",78748,30.166591243,-97.825272954,66,"1610 REDWATER DRIVE, AUSTIN, TX, 78748","Match","Exact","1610 REDWATER DR, AUSTIN, TX, 78748",641270301,"L"
77067,"1610 REYNOLDS ROAD LOT 61","LAKELAND","FL",33801,28.0230883190001,-81.891303723,67,"1610 REYNOLDS ROAD LOT 61, LAKELAND, FL, 33801","Match","Exact","1610 REYNOLDS RD, LAKELAND, FL, 33801",104913025,"L"
77068,"1610 RIDGEWOOD AVE SE","GRAND RAPIDS","MI",49506,42.933702076,-85.596673768,68,"1610 RIDGEWOOD AVE SE, GRAND RAPIDS, MI, 49506","Match","Exact","1610 RIDGEWOOD AVE SE, GRAND RAPIDS, MI, 49506",12502707,"L"
77069,"1610 ROBERTS STREET","WINCHESTER","VA",22601,39.171709912,-78.1749667839999,69,"1610 ROBERTS STREET, WINCHESTER, VA, 22601","Match","Exact","1610 ROBERTS ST, WINCHESTER, VA, 22601",55609398,"L"
77070,"1610 ROCK RD","NAPLES","FL",34120,26.2592432120001,-81.628810575,70,"1610 ROCK RD, NAPLES, FL, 34120","Match","Exact","1610 ROCK RD, NAPLES, FL, 34120",115172069,"R"
77071,"1610 ROUTE 88 SUITE 303","BRICK","NJ",8724,40.0779334100001,-74.1365198399999,71,"1610 ROUTE 88 SUITE 303, BRICK, NJ, 8724","Match","Non_Exact","1610 STATE RTE 88, BRICK, NJ, 08724",203732783,"L"
77072,"1610 S  25TH AVE","HOLLYWOOD","FL",33020,25.9973715520001,-80.156952992,72,"1610 S  25TH AVE, HOLLYWOOD, FL, 33020","Match","Exact","1610 S 25TH AVE, HOLLYWOOD, FL, 33020",114735851,"R"
77073,"1610 S 6TH STREET","SPRINGFIELD","IL",62703,39.7848009690001,-89.6483079239999,73,"1610 S 6TH STREET, SPRINGFIELD, IL, 62703","Match","Exact","1610 S 6TH ST, SPRINGFIELD, IL, 62703",97325386,"L"
77074,"1610 S BOULDER AVENUE","TULSA","OK",74119,36.1394218930001,-95.988508926,74,"1610 S BOULDER AVENUE, TULSA, OK, 74119","Match","Exact","1610 S BOULDER AVE, TULSA, OK, 74119",166441827,"R"
77075,"1610 S DEER HEIGHTS RD D16","SPOKANE","WA",99224,47.6377704450001,-117.550769897,75,"1610 S DEER HEIGHTS RD D16, SPOKANE, WA, 99224","Match","Non_Exact","1610 S DEER HEIGHTS RD, SPOKANE, WA, 99224",650455163,"R"
77076,"1610 S LAKE SHORE DR","SARASOTA","FL",34231,27.288811007,-82.5353857329999,76,"1610 S LAKE SHORE DR, SARASOTA, FL, 34231","Match","Exact","1610 S LAKE SHORE DR, SARASOTA, FL, 34231",16353710,"R"
77077,"1610 SADDLE CREEK CIRCLE APT 916","ARLINGTON","TX",76015,NA,NA,77,"1610 SADDLE CREEK CIRCLE APT 916, ARLINGTON, TX, 76015","No_Match",NA,NA,NA,NA
77078,"1610 SEMMES STREET","MEMPHIS","TN",38114,35.0881393400001,-89.961544125,78,"1610 SEMMES STREET, MEMPHIS, TN, 38114","Match","Exact","1610 SEMMES ST, MEMPHIS, TN, 38114",72918649,"L"
77079,"1610 SHERIDAN ST","ANDERSON","IN",46016,40.099929183,-85.688532553,79,"1610 SHERIDAN ST, ANDERSON, IN, 46016","Match","Exact","1610 SHERIDAN ST, ANDERSON, IN, 46016",31113726,"L"
77080,"1610 SHIVELY CT","FAYETTEVILLE","NC",28303,NA,NA,80,"1610 SHIVELY CT, FAYETTEVILLE, NC, 28303","No_Match",NA,NA,NA,NA
77081,"1610 SOUTH 8TH STREET APT 2","GOSHEN","IN",46526,41.5675053940001,-85.8278101179999,81,"1610 SOUTH 8TH STREET APT 2, GOSHEN, IN, 46526","Match","Exact","1610 S 8TH ST, GOSHEN, IN, 46526",638715151,"L"
77082,"1610 SOUTH HALSTED ST","CHICAGO","IL",60608,41.859784673,-87.646708028,82,"1610 SOUTH HALSTED ST, CHICAGO, IL, 60608","Match","Exact","1610 S HALSTED ST, CHICAGO, IL, 60608",605014589,"R"
77083,"1610 SOUTH MUNN AVENUE","MARYVILLE","MO",64468,40.328393141,-94.883545313,83,"1610 SOUTH MUNN AVENUE, MARYVILLE, MO, 64468","Match","Exact","1610 S MUNN AVE, MARYVILLE, MO, 64468",639742926,"L"
77084,"1610 SOUTHERN BLVD","WEST PALM BEACH","FL",33406,26.676328767,-80.077519162,84,"1610 SOUTHERN BLVD, WEST PALM BEACH, FL, 33406","Match","Exact","1610 SOUTHERN BLVD, WEST PALM BEACH, FL, 33406",640586123,"L"
77085,"1610 SUITE E VAUGHN ROAD","BURLINGTON","NC",27217,NA,NA,85,"1610 SUITE E VAUGHN ROAD, BURLINGTON, NC, 27217","No_Match",NA,NA,NA,NA
77086,"1610 SUN VALLEY PL","HUNTSVILLE","AL",35801,34.7239329830001,-86.5591770509999,86,"1610 SUN VALLEY PL, HUNTSVILLE, AL, 35801","Match","Non_Exact","1610 SUNVALLEY PL SE, HUNTSVILLE, AL, 35801",58170955,"R"
77087,"1610 SUNSET AVENUE","LANCASTER","PA",17601,40.0647806470001,-76.300332741,87,"1610 SUNSET AVENUE, LANCASTER, PA, 17601","Match","Exact","1610 SUNSET AVE, LANCASTER, PA, 17601",179662363,"L"
77088,"1610 TIBURON BLVD STE 200","TIBURON","CA",94920,37.875167579,-122.458753043,88,"1610 TIBURON BLVD STE 200, TIBURON, CA, 94920","Match","Exact","1610 TIBURON BLVD, TIBURON, CA, 94920",647389129,"R"
77089,"1610 TREERIDGE PARKWAY","ALPHARETTA","GA",30022,33.9939486820001,-84.277082854,89,"1610 TREERIDGE PARKWAY, ALPHARETTA, GA, 30022","Match","Exact","1610 TREERIDGE PKWY, ALPHARETTA, GA, 30022",644988888,"L"
77090,"1610 US HIGHWAY 431 SOUTH","ABBEVILLE","AL",36310,NA,NA,90,"1610 US HIGHWAY 431 SOUTH, ABBEVILLE, AL, 36310","No_Match",NA,NA,NA,NA
77091,"1610 VALLEYVIEW LN","DUNCANVILLE","TX",75137,32.6307959270001,-96.893351407,91,"1610 VALLEYVIEW LN, DUNCANVILLE, TX, 75137","Match","Non_Exact","1610 VALLEY VIEW LN, DUNCANVILLE, TX, 75137",102943910,"L"
77092,"1610 W 52ND AVENUE","MERRILLVILLE","IN",46410,41.5234182300001,-87.35546436,92,"1610 W 52ND AVENUE, MERRILLVILLE, IN, 46410","Match","Non_Exact","1610 W 52ND PL, MERRILLVILLE, IN, 46410",98430681,"R"
77093,"1610 W ELM ST APT 3","PHOENIX","AZ",85015,33.5068029600001,-112.093701759,93,"1610 W ELM ST APT 3, PHOENIX, AZ, 85015","Match","Non_Exact","1610 W ELM ST, PHOENIX, AZ, 85015",128205888,"R"
77094,"1610 W PIERSON","FLINT","MI",48054,NA,NA,94,"1610 W PIERSON, FLINT, MI, 48054","No_Match",NA,NA,NA,NA
77095,"1610 WALNUT STREET","CENTREVILLE","AL",35042,32.9448888810001,-87.128297348,95,"1610 WALNUT STREET, CENTREVILLE, AL, 35042","Match","Exact","1610 WALNUT ST, CENTREVILLE, AL, 35042",38851538,"R"
77096,"1610 WEST 100 NORTH NUMBER 90","SAINT GEORGE","UT",84770,NA,NA,96,"1610 WEST 100 NORTH NUMBER 90, SAINT GEORGE, UT, 84770","No_Match",NA,NA,NA,NA
77097,"1610 WEST 7TH STREET UNIT 305","LOS ANGELES","CA",90017,34.05397958,-118.27133537,97,"1610 WEST 7TH STREET UNIT 305, LOS ANGELES, CA, 90017","Match","Exact","1610 W 7TH ST, LOS ANGELES, CA, 90017",141616639,"L"
77098,"1610 WEST MILL CREEK ROAD","WARRENSVILLE","NC",28693,36.4668550650001,-81.577570829,98,"1610 WEST MILL CREEK ROAD, WARRENSVILLE, NC, 28693","Match","Exact","1610 W MILL CREEK RD, WARRENSVILLE, NC, 28693",642897486,"R"
77099,"1610 WESTLAWN AVE","FAYETTEVILLE","NC",28305,35.060326257,-78.907968776,99,"1610 WESTLAWN AVE, FAYETTEVILLE, NC, 28305","Match","Exact","1610 WESTLAWN AVE, FAYETTEVILLE, NC, 28305",64199992,"R"
77100,"1610 WESTWOOD DR STE 4","SAN JOSE","CA",95125,37.3027293120001,-121.914119152,100,"1610 WESTWOOD DR STE 4, SAN JOSE, CA, 95125","Match","Exact","1610 WESTWOOD DR, SAN JOSE, CA, 95125",122905994,"L"
77101,"1610 WHARTON STREET","PHILADELPHIA","PA",19146,39.9346045790001,-75.17118296,101,"1610 WHARTON STREET, PHILADELPHIA, PA, 19146","Match","Exact","1610 WHARTON ST, PHILADELPHIA, PA, 19146",131411636,"L"
77102,"1610 WINDING CANYON COURT","KATY","TX",77493,NA,NA,102,"1610 WINDING CANYON COURT, KATY, TX, 77493","No_Match",NA,NA,NA,NA
77103,"1610 WRIGHT AV","GREENSBORO","NC",27403,36.0697283980001,-79.8154385079999,103,"1610 WRIGHT AV, GREENSBORO, NC, 27403","Match","Exact","1610 WRIGHT AVE, GREENSBORO, NC, 27403",131032032,"R"
77104,"1610-D CHURCH STREET BOX 260","CONWAY","SC",29526,33.846372407,-79.064261003,104,"1610-D CHURCH STREET BOX 260, CONWAY, SC, 29526","Match","Exact","1610 CHURCH ST, CONWAY, SC, 29526",640608217,"R"
77105,"1610","BROOKLYN","NY",11236,NA,NA,105,"1610, BROOKLYN, NY, 11236","No_Match",NA,NA,NA,NA
77106,"16100 CHESTERFIELD PKWY WEST 305","CHESTERFIELD","MO",63017,38.647705769,-90.5638691619999,106,"16100 CHESTERFIELD PKWY WEST 305, CHESTERFIELD, MO, 63017","Match","Exact","16100 CHESTERFIELD PKWY W, CHESTERFIELD, MO, 63017",100110695,"L"
77107,"16100 CRAMUR DRIVE","HUNTERSVILLE","NC",28078,35.4298894940001,-80.913580337,107,"16100 CRAMUR DRIVE, HUNTERSVILLE, NC, 28078","Match","Exact","16100 CRAMUR DR, HUNTERSVILLE, NC, 28078",70468211,"R"
77108,"16100 E SMOKY HILL RD","AURORA","CO",80015,39.6292192550001,-104.800527873,108,"16100 E SMOKY HILL RD, AURORA, CO, 80015","Match","Exact","16100 E SMOKY HILL RD, AURORA, CO, 80015",177357923,"R"
77109,"16100 E SMOKY HILL ROAD","AURORA","CO",80015,39.6292192550001,-104.800527873,109,"16100 E SMOKY HILL ROAD, AURORA, CO, 80015","Match","Exact","16100 E SMOKY HILL RD, AURORA, CO, 80015",177357923,"R"
77110,"16100 LAWTON","DETROIT","MI",48221,42.4102815730001,-83.130081312,110,"16100 LAWTON, DETROIT, MI, 48221","Match","Non_Exact","16100 LAWTON ST, DETROIT, MI, 48221",95461541,"R"
77111,"16100 S LATHROP AVENUE","HARVEY","IL",60426,41.59698574,-87.641310274,111,"16100 S LATHROP AVENUE, HARVEY, IL, 60426","Match","Exact","16100 LATHROP AVE, HARVEY, IL, 60426",605648320,"R"
77112,"16100 SAND CANYON AVE SUITE 230","IRVINE","CA",92618,33.6625565040001,-117.773085529,112,"16100 SAND CANYON AVE SUITE 230, IRVINE, CA, 92618","Match","Exact","16100 SAND CANYON AVE, IRVINE, CA, 92618",612206695,"L"
77113,"16100 STRATFORD ESTATES DRIVE","UPPER MARLBORO","MD",20772,38.830751031,-76.726456656,113,"16100 STRATFORD ESTATES DRIVE, UPPER MARLBORO, MD, 20772","Match","Exact","16100 STRATFORD ESTATES DR, UPPER MARLBORO, MD, 20772",647291202,"L"
77114,"16100 SUNDERLAND","DETROIT","MI",48219,42.4082771390001,-83.2275063399999,114,"16100 SUNDERLAND, DETROIT, MI, 48219","Match","Non_Exact","16100 SUNDERLAND RD, DETROIT, MI, 48219",95422377,"R"
77115,"16100 VAN AKEN BLVD  UNIT 405","SHAKER HEIGHTS","OH",44120,41.466591249,-81.5689045399999,115,"16100 VAN AKEN BLVD  UNIT 405, SHAKER HEIGHTS, OH, 44120","Match","Exact","16100 VAN AKEN BLVD, SHAKER HEIGHTS, OH, 44120",61127312,"R"
77116,"16101 E POWDERHORN DR","FOUNTAIN HILLS","AZ",85268,33.5684991460001,-111.731886639,116,"16101 E POWDERHORN DR, FOUNTAIN HILLS, AZ, 85268","Match","Exact","16101 E POWDERHORN DR, FOUNTAIN HILLS, AZ, 85268",244031847,"L"
77117,"16101 GREENWOOD AVENUE N","SHORELINE","WA",98133,47.747895215,-122.355692522,117,"16101 GREENWOOD AVENUE N, SHORELINE, WA, 98133","Match","Exact","16101 GREENWOOD AVE N, SHORELINE, WA, 98133",239776118,"L"
77118,"16101 HWY 71 W","AUSTIN","TX",78738,NA,NA,118,"16101 HWY 71 W, AUSTIN, TX, 78738","No_Match",NA,NA,NA,NA
77119,"16101 REDWOOD LODGE RD","LOS GATOS","CA",95033,37.1087641240001,-121.955579837,119,"16101 REDWOOD LODGE RD, LOS GATOS, CA, 95033","Match","Exact","16101 REDWOOD LODGE RD, LOS GATOS, CA, 95033",630148674,"R"
77120,"16101 S LELAND RD","BEAVERCREEK","OR",97004,45.2879041210001,-122.537298593,120,"16101 S LELAND RD, BEAVERCREEK, OR, 97004","Match","Exact","16101 S LELAND RD, BEAVERCREEK, OR, 97004",641531467,"L"
77121,"16101 SCHOOLCRAFT","DETROIT","MI",48227,42.3869245290001,-83.204166055,121,"16101 SCHOOLCRAFT, DETROIT, MI, 48227","Match","Non_Exact","16101 SCHOOLCRAFT ST, DETROIT, MI, 48227",95439674,"L"
77122,"16102 EMERALD ESTATES DR","WESTON","FL",33331,NA,NA,122,"16102 EMERALD ESTATES DR, WESTON, FL, 33331","No_Match",NA,NA,NA,NA
77123,"16102 EMERALD ESTATES DRIVE","WESTON","FL",33331,NA,NA,123,"16102 EMERALD ESTATES DRIVE, WESTON, FL, 33331","No_Match",NA,NA,NA,NA
77124,"16102 PAGETT PLACE COURT","HOUSTON","TX",77044,29.959143274,-95.1660023599999,124,"16102 PAGETT PLACE COURT, HOUSTON, TX, 77044","Match","Exact","16102 PAGETT PLACE CT, HOUSTON, TX, 77044",645133095,"L"
77125,"16102 PARKGROVE APT 1","CLEVELAND","OH",44110,41.574909991,-81.568142914,125,"16102 PARKGROVE APT 1, CLEVELAND, OH, 44110","Match","Non_Exact","16102 PARKGROVE AVE, CLEVELAND, OH, 44110",61107736,"R"
77126,"16103 BALDWIN CIR","HOLLY","MI",48442,42.88456108,-83.6021669689999,126,"16103 BALDWIN CIR, HOLLY, MI, 48442","Match","Exact","16103 BALDWIN CIR, HOLLY, MI, 48442",617492034,"L"
77127,"16103 CASTLE GROVE CT","TOMBALL","TX",77377,30.0073340640001,-95.602531496,127,"16103 CASTLE GROVE CT, TOMBALL, TX, 77377","Match","Non_Exact","16103 CASTLEGROVE CT, TOMBALL, TX, 77377",96163696,"L"
77128,"16103 RAWLINGS RD","PRAIRIEVILE","LA",70769,30.3013659430001,-90.963944815,128,"16103 RAWLINGS RD, PRAIRIEVILE, LA, 70769","Match","Non_Exact","16103 RAWLINGS RD, PRAIRIEVILLE, LA, 70769",115035824,"L"
77129,"16104 ECKHART ROAD","BOWIE","MD",20716,38.937142475,-76.727636203,129,"16104 ECKHART ROAD, BOWIE, MD, 20716","Match","Exact","16104 ECKHART RD, BOWIE, MD, 20716",76352747,"L"
77130,"16105 BARTON STREET","OVERLAND PARK","KS",66221,38.837457396,-94.7150500989999,130,"16105 BARTON STREET, OVERLAND PARK, KS, 66221","Match","Exact","16105 BARTON ST, OVERLAND PARK, KS, 66221",648742384,"L"
77131,"16105 FM 2465","CHILDRESS","TX",79201,34.5405915160001,-100.219084118,131,"16105 FM 2465, CHILDRESS, TX, 79201","Match","Exact","16105 FM 2465, CHILDRESS, TX, 79201",648354563,"R"
77132,"16105 HAMILTON POINT CIRCLE","MANOR","TX",78653,30.3378885010001,-97.54902837,132,"16105 HAMILTON POINT CIRCLE, MANOR, TX, 78653","Match","Exact","16105 HAMILTON POINT CIR, MANOR, TX, 78653",653233909,"L"
77133,"16105 SPRING ST","OMAHA","NE",68130,41.2291002650001,-96.165233034,133,"16105 SPRING ST, OMAHA, NE, 68130","Match","Exact","16105 SPRING ST, OMAHA, NE, 68130",116966777,"L"
77134,"16105 SWINGLEY RIDGE RD UNIT 884","CHESTERFIELD","MO",63006,38.655480455,-90.562583268,134,"16105 SWINGLEY RIDGE RD UNIT 884, CHESTERFIELD, MO, 63006","Match","Non_Exact","16105 SWINGLEY RIDGE RD, CHESTERFIELD, MO, 63017",637741633,"R"
77135,"16105 SWINGLEY RIDGE ROAD UNIT 773","CHESTERFIELD","MO",63017,38.655480455,-90.562583268,135,"16105 SWINGLEY RIDGE ROAD UNIT 773, CHESTERFIELD, MO, 63017","Match","Exact","16105 SWINGLEY RIDGE RD, CHESTERFIELD, MO, 63017",637741633,"R"
77136,"16106 395TH AVENUE","TURTON","SD",57477,45.0524842620001,-98.329683464,136,"16106 395TH AVENUE, TURTON, SD, 57477","Match","Exact","16106 395TH AVE, TURTON, SD, 57477",201204749,"R"
77137,"16106 BROOKWOOD DR","BUCHANAN","MI",49107,41.8270163920001,-86.340178879,137,"16106 BROOKWOOD DR, BUCHANAN, MI, 49107","Match","Exact","16106 BROOKWOOD DR, BUCHANAN, MI, 49107",643702319,"R"
77138,"16106 NORTHGLENN DR","TAMPA","FL",33618,28.10402286,-82.489127341,138,"16106 NORTHGLENN DR, TAMPA, FL, 33618","Match","Exact","16106 NORTHGLENN DR, TAMPA, FL, 33618",104510543,"R"
77139,"16107 KENSINGTON DR SUITE 185","SUGAR LAND","TX",77479,29.598708905,-95.6261254039999,139,"16107 KENSINGTON DR SUITE 185, SUGAR LAND, TX, 77479","Match","Non_Exact","16107 KENSINGTON BLVD, SUGAR LAND, TX, 77479",617957536,"L"
77140,"16107 KENSINGTON DRIVE NUMBER 409","SUGAR LAND","TX",77479,29.598708905,-95.6261254039999,140,"16107 KENSINGTON DRIVE NUMBER 409, SUGAR LAND, TX, 77479","Match","Non_Exact","16107 KENSINGTON BLVD, SUGAR LAND, TX, 77479",617957536,"L"
77141,"16108 EDENWOOD DR","BOWIE","MD",20716,38.9386717890001,-76.728129929,141,"16108 EDENWOOD DR, BOWIE, MD, 20716","Match","Exact","16108 EDENWOOD DR, BOWIE, MD, 20716",76350161,"R"
77142,"16108 SW 4TH STREET","PEMBROKE PINES","FL",33027,26.0023828970001,-80.364068979,142,"16108 SW 4TH STREET, PEMBROKE PINES, FL, 33027","Match","Non_Exact","16108 SW 4TH ST, PEMBROKE PINES, FL, 33027",114792160,"L"
77143,"16109 EAST LAWN COURT","BOWIE","MD",20716,38.9372942800001,-76.726494751,143,"16109 EAST LAWN COURT, BOWIE, MD, 20716","Match","Non_Exact","16109 EASTLAWN CT, BOWIE, MD, 20716",76352743,"L"
77144,"16109 ELDAMERE AVE","CLEVELAND","OH",44128,41.450550537,-81.568142802,144,"16109 ELDAMERE AVE, CLEVELAND, OH, 44128","Match","Exact","16109 ELDAMERE AVE, CLEVELAND, OH, 44128",61127520,"L"
77145,"16109 TOWN GREEN DRIVE","ELMSFORD","NY",10523,41.052348378,-73.828941222,145,"16109 TOWN GREEN DRIVE, ELMSFORD, NY, 10523","Match","Exact","16109 TOWN GREEN DR, ELMSFORD, NY, 10523",653446604,"L"
77146,"1611 42ND STREET","EVANS","CO",80620,40.370119828,-104.705245593,146,"1611 42ND STREET, EVANS, CO, 80620","Match","Exact","1611 42ND ST, EVANS, CO, 80620",617265605,"R"
77147,"1611 4TH ST","WHITE BEAR LAKE","MN",55110,45.085125169,-93.033102179,147,"1611 4TH ST, WHITE BEAR LAKE, MN, 55110","Match","Exact","1611 4TH ST, WHITE BEAR LAKE, MN, 55110",97664037,"L"
77148,"1611 APPLE STREET","UPPER CHICHESTER","PA",19061,39.8422084950001,-75.448539983,148,"1611 APPLE STREET, UPPER CHICHESTER, PA, 19061","Match","Exact","1611 APPLE ST, UPPER CHICHESTER, PA, 19061",619273437,"L"
77149,"1611 ARENA DR","DAVIS","CA",95618,38.563063519,-121.708814267,149,"1611 ARENA DR, DAVIS, CA, 95618","Match","Exact","1611 ARENA DR, DAVIS, CA, 95618",67705885,"L"
77150,"1611 BIRCHWOOD ST","DELAVAN","WI",53115,42.6285997030001,-88.674984899,150,"1611 BIRCHWOOD ST, DELAVAN, WI, 53115","Match","Exact","1611 BIRCHWOOD ST, DELAVAN, WI, 53115",607344932,"R"
77151,"1611 BUCKINGHAM ROAD","HARRISBURG","PA",17111,40.2908977390001,-76.7612299849999,151,"1611 BUCKINGHAM ROAD, HARRISBURG, PA, 17111","Match","Exact","1611 BUCKINGHAM RD, HARRISBURG, PA, 17111",70841377,"R"
77152,"1611 CANTIGNY LN","KATY","TX",77450,29.7571285830001,-95.764409875,152,"1611 CANTIGNY LN, KATY, TX, 77450","Match","Exact","1611 CANTIGNY LN, KATY, TX, 77450",96293996,"L"
77153,"1611 CARLTON AVENUE","MODESTO","CA",95350,37.66779437,-121.003795794,153,"1611 CARLTON AVENUE, MODESTO, CA, 95350","Match","Exact","1611 CARLTON AVE, MODESTO, CA, 95350",102636438,"L"
77154,"1611 CARRIAGE DR","FRANKLINTON","NC",27525,36.1090874290001,-78.549779551,154,"1611 CARRIAGE DR, FRANKLINTON, NC, 27525","Match","Exact","1611 CARRIAGE DR, FRANKLINTON, NC, 27525",623790519,"R"
77155,"1611 CHAPPEL WOODS TRL","NATIONAL CITY","MI",48478,44.3254791950001,-83.658759795,155,"1611 CHAPPEL WOODS TRL, NATIONAL CITY, MI, 48478","Match","Non_Exact","1611 CHAPPEL WOODS TRL, NATIONAL CITY, MI, 48748",627676316,"L"
77156,"1611 COLON AVE","NORFOLK","VA",23523,36.829046991,-76.2624587509999,156,"1611 COLON AVE, NORFOLK, VA, 23523","Match","Exact","1611 COLON AVE, NORFOLK, VA, 23523",122146305,"R"
77157,"1611 CONNECTICUT AVE SUITE 400","WASHINGTON","DC",20009,38.9113477970001,-77.044421605,157,"1611 CONNECTICUT AVE SUITE 400, WASHINGTON, DC, 20009","Match","Non_Exact","1611 CONNECTICUT AVE NW, WASHINGTON, DC, 20009",76225305,"R"
77158,"1611 COPPERFIELD DRIVE","MORTON","IL",61550,40.5940904810001,-89.460893383,158,"1611 COPPERFIELD DRIVE, MORTON, IL, 61550","Match","Exact","1611 COPPERFIELD DR, MORTON, IL, 61550",22519277,"R"
77159,"1611 DOLPHIN DR","SPRING LAKE","NC",28390,35.192390432,-79.007681292,159,"1611 DOLPHIN DR, SPRING LAKE, NC, 28390","Match","Non_Exact","1611 DOLPHIN CIR, SPRING LAKE, NC, 28390",64211119,"L"
77160,"1611 DYER RD","PAHRUMP","NV",89048,36.2165602380001,-116.044156427,160,"1611 DYER RD, PAHRUMP, NV, 89048","Match","Exact","1611 DYER RD, PAHRUMP, NV, 89048",140526070,"L"
77161,"1611 E 114TH STREET","LOS ANGELES","CA",90059,33.9311231940001,-118.245750024,161,"1611 E 114TH STREET, LOS ANGELES, CA, 90059","Match","Exact","1611 E 114TH ST, LOS ANGELES, CA, 90059",141674267,"L"
77162,"1611 E CENTERTON BLVD","CENTERTON","AR",72719,36.3579192760001,-94.2573547979999,162,"1611 E CENTERTON BLVD, CENTERTON, AR, 72719","Match","Exact","1611 E CENTERTON BLVD, CENTERTON, AR, 72719",47853531,"L"
77163,"1611 E DONNER DR","TEMPE","AZ",85282,33.3788962840001,-111.912309939,163,"1611 E DONNER DR, TEMPE, AZ, 85282","Match","Exact","1611 E DONNER DR, TEMPE, AZ, 85282",128238528,"R"
77164,"1611 E MILLBROOK RD","RALEIGH","NC",27609,35.8501661600001,-78.6088453099999,164,"1611 E MILLBROOK RD, RALEIGH, NC, 27609","Match","Exact","1611 E MILLBROOK RD, RALEIGH, NC, 27609",72506221,"L"
77165,"1611 E OAK AVE  STE 104","MUSKEGON","MI",49442,43.2378257290001,-86.203489088,165,"1611 E OAK AVE  STE 104, MUSKEGON, MI, 49442","Match","Exact","1611 OAK AVE, MUSKEGON, MI, 49442",77664494,"R"
77166,"1611 E PFENNIG LANE","PFLUGERVILLE","TX",78660,30.4524221550001,-97.6082570729999,166,"1611 E PFENNIG LANE, PFLUGERVILLE, TX, 78660","Match","Exact","1611 E PFENNIG LN, PFLUGERVILLE, TX, 78660",649001699,"L"
77167,"1611 EAST 91 ST","BROOKLYN","NY",11236,40.6320977760001,-73.895577332,167,"1611 EAST 91 ST, BROOKLYN, NY, 11236","Match","Exact","1611 E 91ST ST, BROOKLYN, NY, 11236",59086950,"L"
77168,"1611 EASTERN AVENUE","PLYMOUTH","WI",53073,43.7470972950001,-87.960743055,168,"1611 EASTERN AVENUE, PLYMOUTH, WI, 53073","Match","Exact","1611 EASTERN AVE, PLYMOUTH, WI, 53073",640212068,"R"
77169,"1611 FAIRHAVEN LANE","MURFREESBORO","TN",37128,35.8277816950001,-86.481886572,169,"1611 FAIRHAVEN LANE, MURFREESBORO, TN, 37128","Match","Exact","1611 FAIRHAVEN LN, MURFREESBORO, TN, 37128",606778536,"L"
77170,"1611 FOGGY MEADOW DRIVE","O'FALLON","MO",63366,38.8244296350001,-90.728669677,170,"1611 FOGGY MEADOW DRIVE, O'FALLON, MO, 63366","Match","Non_Exact","1611 FOGGY MEADOW DR, O FALLON, MO, 63366",645740857,"R"
77171,"1611 GARFIELD DRIVE","NORFOLK","VA",23503,36.9313353270001,-76.23229574,171,"1611 GARFIELD DRIVE, NORFOLK, VA, 23503","Match","Exact","1611 GARFIELD DR, NORFOLK, VA, 23503",122124908,"R"
77172,"1611 GEORGE WILLIAMS WAY","LAWRENCE","KS",66047,38.9552394580001,-95.3249476559999,172,"1611 GEORGE WILLIAMS WAY, LAWRENCE, KS, 66047","Match","Exact","1611 GEORGE WILLIAMS WAY, LAWRENCE, KS, 66047",17698456,"R"
77173,"1611 GLENDON AVE APT 2","LOS ANGELES","CA",90024,34.0529002750001,-118.438260083,173,"1611 GLENDON AVE APT 2, LOS ANGELES, CA, 90024","Match","Exact","1611 GLENDON AVE, LOS ANGELES, CA, 90024",141567900,"R"
77174,"1611 GROVE STREET","WILLIAMSPORT","PA",17701,41.2575345870001,-76.9900266449999,174,"1611 GROVE STREET, WILLIAMSPORT, PA, 17701","Match","Exact","1611 GROVE ST, WILLIAMSPORT, PA, 17701",59447562,"L"
77175,"1611 HILLSIDE DRIVE SOUTH","NORTH MYRTLE BEACH","SC",29582,33.8108105970001,-78.700245889,175,"1611 HILLSIDE DRIVE SOUTH, NORTH MYRTLE BEACH, SC, 29582","Match","Exact","1611 HILLSIDE DR S, N MYRTLE BCH, SC, 29582",29053978,"R"
77176,"1611 KANE STREET","LA CROSSE","WI",54603,43.846692164,-91.2411332999999,176,"1611 KANE STREET, LA CROSSE, WI, 54603","Match","Exact","1611 KANE ST, LA CROSSE, WI, 54603",51010073,"L"
77177,"1611 KILDARE DRIVE","REDDING","CA",96001,40.5746670350001,-122.429876397,177,"1611 KILDARE DRIVE, REDDING, CA, 96001","Match","Exact","1611 KILDARE DR, REDDING, CA, 96001",126646628,"R"
77178,"1611 LANGHORNE RD","LYNCHBURG","VA",24503,37.421582969,-79.1855971799999,178,"1611 LANGHORNE RD, LYNCHBURG, VA, 24503","Match","Exact","1611 LANGHORNE RD, LYNCHBURG, VA, 24503",62739797,"R"
77179,"1611 LONE OAK AVENUE","SAN ANTONIO","TX",78220,29.4080771760001,-98.429394743,179,"1611 LONE OAK AVENUE, SAN ANTONIO, TX, 78220","Match","Non_Exact","1611 LONE OAK ST, SAN ANTONIO, TX, 78220",101532321,"R"
77180,"1611 MANCHESTER DRIVE","VINELAND","NJ",8360,39.474149862,-75.057393552,180,"1611 MANCHESTER DRIVE, VINELAND, NJ, 8360","Match","Exact","1611 MANCHESTER DR, VINELAND, NJ, 08360",174111152,"L"
77181,"1611 MORENO DRIVE","GLENDALE","CA",91207,34.170048868,-118.233756514,181,"1611 MORENO DRIVE, GLENDALE, CA, 91207","Match","Exact","1611 MORENO DR, GLENDALE, CA, 91207",241237517,"L"
77182,"1611 MORGAN AVE N","MINNEAPOLIS","MN",55411,44.995399036,-93.304472646,182,"1611 MORGAN AVE N, MINNEAPOLIS, MN, 55411","Match","Exact","1611 MORGAN AVE N, MINNEAPOLIS, MN, 55411",43623520,"L"
77183,"1611 NEW SWEDEN ROAD","STOCKHOLM","ME",4783,NA,NA,183,"1611 NEW SWEDEN ROAD, STOCKHOLM, ME, 4783","No_Match",NA,NA,NA,NA
77184,"1611 NORTH CLEVELAND AVENUE","WINSTON-SALEM","NC",27105,36.114375889,-80.230567752,184,"1611 NORTH CLEVELAND AVENUE, WINSTON-SALEM, NC, 27105","Match","Exact","1611 N CLEVELAND AVE, WINSTON SALEM, NC, 27105",640631018,"R"
77185,"1611 NW 8TH STREET","MIAMI","FL",33125,25.780858509,-80.221503105,185,"1611 NW 8TH STREET, MIAMI, FL, 33125","Match","Non_Exact","1611 NW 8TH ST, MIAMI, FL, 33125",116015770,"R"
77186,"1611 NW FEDERAL HWY","STUART","FL",34994,27.2258928100001,-80.264804253,186,"1611 NW FEDERAL HWY, STUART, FL, 34994","Match","Exact","1611 NW FEDERAL HWY, STUART, FL, 34994",651237478,"L"
77187,"1611 PEBBLE BEACH DRIVE","BOWIE","MD",20721,38.911964309,-76.817136988,187,"1611 PEBBLE BEACH DRIVE, BOWIE, MD, 20721","Match","Exact","1611 PEBBLE BEACH DR, BOWIE, MD, 20721",76333487,"R"
77188,"1611 PICCADILLY DR","DAYTONA BEACH","FL",32117,29.2248252260001,-81.068531777,188,"1611 PICCADILLY DR, DAYTONA BEACH, FL, 32117","Match","Exact","1611 PICCADILLY DR, DAYTONA BEACH, FL, 32117",94564221,"R"
77189,"1611 POMONA ROAD 200","CORONA","CA",92880,33.8817753430001,-117.595655534,189,"1611 POMONA ROAD 200, CORONA, CA, 92880","Match","Non_Exact","1611 POMONA RD, CORONA, CA, 92878",638580011,"R"
77190,"1611 PRAYER MISSION RD","WINDSOR","PA",17366,39.9559950340001,-76.53401586,190,"1611 PRAYER MISSION RD, WINDSOR, PA, 17366","Match","Exact","1611 PRAYER MISSION RD, WINDSOR, PA, 17366",88740150,"R"
77191,"1611 S CATALINA AVE SUITE 214","REDONDO BEACH","CA",90277,33.820160876,-118.388349346,191,"1611 S CATALINA AVE SUITE 214, REDONDO BEACH, CA, 90277","Match","Non_Exact","1611 S CATALINA AVE, REDONDO BEACH, CA, 90277",141584034,"R"
77192,"1611 S GIDDINGS ST","VISALIA","CA",93277,36.3165797340001,-119.305370251,192,"1611 S GIDDINGS ST, VISALIA, CA, 93277","Match","Exact","1611 S GIDDINGS ST, VISALIA, CA, 93277",651105440,"R"
77193,"1611 S MILLER ST ATTN A ANDOLZ","SHELBYVILLE","IN",46176,NA,NA,193,"1611 S MILLER ST ATTN A ANDOLZ, SHELBYVILLE, IN, 46176","Tie",NA,NA,NA,NA
77194,"1611 S PACIFIC COAST HWY SUITE 204","LOS ANGELES","CA",90277,NA,NA,194,"1611 S PACIFIC COAST HWY SUITE 204, LOS ANGELES, CA, 90277","No_Match",NA,NA,NA,NA
77195,"1611 S UTICA AVE PMB 526","TULSA","OK",74104,36.1390779920001,-95.967100162,195,"1611 S UTICA AVE PMB 526, TULSA, OK, 74104","Match","Non_Exact","1611 S UTICA AVE, TULSA, OK, 74104",166442739,"L"
77196,"1611 SAWMILL RD","COLFAX","CA",95713,39.123181834,-120.910097221,196,"1611 SAWMILL RD, COLFAX, CA, 95713","Match","Exact","1611 SAWMILL RD, COLFAX, CA, 95713",106754117,"R"
77197,"1611 SHOSHANNA DRIVE","ORLANDO","FL",32825,NA,NA,197,"1611 SHOSHANNA DRIVE, ORLANDO, FL, 32825","No_Match",NA,NA,NA,NA
77198,"1611 SMITHFIELD CIR W","LAKELAND","FL",33801,NA,NA,198,"1611 SMITHFIELD CIR W, LAKELAND, FL, 33801","No_Match",NA,NA,NA,NA
77199,"1611 SOUTH DRAKE AVE","CHICAGO","IL",60623,41.8587669950001,-87.713971504,199,"1611 SOUTH DRAKE AVE, CHICAGO, IL, 60623","Match","Exact","1611 S DRAKE AVE, CHICAGO, IL, 60623",111798980,"L"
77200,"1611 SPRING DRIVE UNIT 5B","LOUISVILLE","KY",40205,38.2329110960001,-85.699773325,200,"1611 SPRING DRIVE UNIT 5B, LOUISVILLE, KY, 40205","Match","Exact","1611 SPRING DR, LOUISVILLE, KY, 40205",640123635,"L"
77201,"1611 SPRINGFIELD HWY","GOODLETTSVILLE","TN",37072,36.3735591650001,-86.7452968979999,201,"1611 SPRINGFIELD HWY, GOODLETTSVILLE, TN, 37072","Match","Exact","1611 SPRINGFIELD HWY, GOODLETTSVILLE, TN, 37072",97227660,"L"
77202,"1611 STUART SQUARE CIRCLE","MYRTLE BEACH","SC",29577,33.698549929,-78.9111343609999,202,"1611 STUART SQUARE CIRCLE, MYRTLE BEACH, SC, 29577","Match","Exact","1611 STUART SQUARE CIR, MYRTLE BEACH, SC, 29577",635746690,"L"
77203,"1611 TOMPY STREET","MILES CITY","MT",59301,46.3991421690001,-105.840642143,203,"1611 TOMPY STREET, MILES CITY, MT, 59301","Match","Exact","1611 TOMPY ST, MILES CITY, MT, 59301",150380231,"R"
77204,"1611 TULEY STREET","CEDAR HILL","TX",75104,32.624936076,-96.95351348,204,"1611 TULEY STREET, CEDAR HILL, TX, 75104","Match","Exact","1611 TULEY ST, CEDAR HILL, TX, 75104",102990942,"L"
77205,"1611 VT RTE 232","MARSHFIELD","VT",5658,44.349124139,-72.301204954,205,"1611 VT RTE 232, MARSHFIELD, VT, 5658","Match","Non_Exact","1611 STATE RTE 232, MARSHFIELD, VT, 05658",641172968,"R"
77206,"1611 W 208TH ST APT 3","TORRANCE","CA",90501,33.8418937340001,-118.307002635,206,"1611 W 208TH ST APT 3, TORRANCE, CA, 90501","Match","Non_Exact","1611 W 208TH ST, TORRANCE, CA, 90501",142759107,"R"
77207,"1611 W MARCELO BLVD","BROWNSVILLE","TX",78526,NA,NA,207,"1611 W MARCELO BLVD, BROWNSVILLE, TX, 78526","No_Match",NA,NA,NA,NA
77208,"1611 W PACIFIC COAST HWY APT 129","WILMINGTON","CA",90744,33.791151418,-118.243698243,208,"1611 W PACIFIC COAST HWY APT 129, WILMINGTON, CA, 90744","Match","Exact","1611 PACIFIC COAST HWY, WILMINGTON, CA, 90744",141691922,"L"
77209,"1611 W SAM HOUSTON PKWY S","HOUSTON","TX",77042,29.7473450140001,-95.557251218,209,"1611 W SAM HOUSTON PKWY S, HOUSTON, TX, 77042","Match","Exact","1611 W SAM HOUSTON PKWY S, HOUSTON, TX, 77042",638163359,"L"
77210,"1611 WALKERS CROSSING DRIVE","FOREST","VA",24551,37.3378603400001,-79.308792957,210,"1611 WALKERS CROSSING DRIVE, FOREST, VA, 24551","Match","Exact","1611 WALKERS CROSSING DR, FOREST, VA, 24551",640502302,"R"
77211,"1611 WEST MARKET STREET PO BOX 568","LOGANSPORT","IN",46947,40.7565959250001,-86.388830148,211,"1611 WEST MARKET STREET PO BOX 568, LOGANSPORT, IN, 46947","Match","Exact","1611 W MARKET ST, LOGANSPORT, IN, 46947",647472568,"L"
77212,"16110 89TH AVE","CHIPPEWA FALLS","WI",54729,44.9713237330001,-91.344116933,212,"16110 89TH AVE, CHIPPEWA FALLS, WI, 54729","Match","Exact","16110 89TH AVE, CHIPPEWA FALLS, WI, 54729",78923806,"R"
77213,"16110 COUNTY ROAD 210","DANBURY","TX",77534,29.214989304,-95.318720608,213,"16110 COUNTY ROAD 210, DANBURY, TX, 77534","Match","Exact","16110 CO RD 210, DANBURY, TX, 77534",624972938,"L"
77214,"16110 DENHAM CT","CLERMONT","FM",34711,NA,NA,214,"16110 DENHAM CT, CLERMONT, FM, 34711","No_Match",NA,NA,NA,NA
77215,"16110 VENTURA BLVD STE 311","ENCINO","CA",91436,34.1564153410001,-118.483970528,215,"16110 VENTURA BLVD STE 311, ENCINO, CA, 91436","Match","Exact","16110 VENTURA BLVD, ENCINO, CA, 91436",637822097,"L"
77216,"16110 WAKELEY ST","OMAHA","NE",68118,41.2611977810001,-96.166097524,216,"16110 WAKELEY ST, OMAHA, NE, 68118","Match","Exact","16110 WAKELEY ST, OMAHA, NE, 68118",117001571,"R"
77217,"16111 APRIL RIDGE DR","HOUSTON","TX",77083,29.684806623,-95.6727325529999,217,"16111 APRIL RIDGE DR, HOUSTON, TX, 77083","Match","Exact","16111 APRIL RIDGE DR, HOUSTON, TX, 77083",641086703,"R"
77218,"16111 CEREZA DRIVE","HOUSTON","TX",77083,29.689643168,-95.670019075,218,"16111 CEREZA DRIVE, HOUSTON, TX, 77083","Match","Exact","16111 CEREZA DR, HOUSTON, TX, 77083",78276262,"R"
77219,"16111 LOS SEDONA","HELOTES","TX",78023,29.5943981180001,-98.657169717,219,"16111 LOS SEDONA, HELOTES, TX, 78023","Match","Exact","16111 LOS SEDONA, HELOTES, TX, 78023",619994338,"R"
77220,"16111 PARK CENTER DR","HOUSTON","TX",77059,29.604004509,-95.116092115,220,"16111 PARK CENTER DR, HOUSTON, TX, 77059","Match","Non_Exact","16111 PARK CENTER WAY, HOUSTON, TX, 77059",96546755,"L"
77221,"16111 PORTER LANE","PORTER","TX",77365,30.158436613,-95.3305895139999,221,"16111 PORTER LANE, PORTER, TX, 77365","Match","Exact","16111 PORTER LN, PORTER, TX, 77365",79285888,"L"
77222,"16112 E 101ST STREET","FORTVILLE","IN",46040,39.9360839660001,-85.875239402,222,"16112 E 101ST STREET, FORTVILLE, IN, 46040","Match","Exact","16112 E 101ST ST, FORTVILLE, IN, 46040",636758233,"L"
77223,"16112 E PREAKNESS DRIVE","LOXAHATCHEE","FL",33470,26.725389905,-80.302832742,223,"16112 E PREAKNESS DRIVE, LOXAHATCHEE, FL, 33470","Match","Non_Exact","16112 PREAKNESS DR E, LOXAHATCHEE, FL, 33470",115254565,"R"
77224,"16112 LONEOAK VIEW DRIVE","LITHIA","FL",33547,27.8451705210001,-82.215640738,224,"16112 LONEOAK VIEW DRIVE, LITHIA, FL, 33547","Match","Exact","16112 LONEOAK VIEW DR, LITHIA, FL, 33547",641072102,"L"
77225,"16112 NW 22 STREET","PEMBROKE PINES","FL",33028,26.0275130210001,-80.3623907799999,225,"16112 NW 22 STREET, PEMBROKE PINES, FL, 33028","Match","Exact","16112 NW 22ND ST, PEMBROKE PINES, FL, 33028",114801533,"L"
77226,"16112 PARKLAWN PLACE","BOWIE","MD",20716,38.902078622,-76.7265595499999,226,"16112 PARKLAWN PLACE, BOWIE, MD, 20716","Match","Exact","16112 PARKLAWN PL, BOWIE, MD, 20716",76348242,"L"
77227,"16112 S MARSHFIELD AVE","MARKHAM","IL",60428,41.596636389,-87.657158932,227,"16112 S MARSHFIELD AVE, MARKHAM, IL, 60428","Match","Exact","16112 MARSHFIELD AVE, MARKHAM, IL, 60428",111705990,"R"
77228,"16112 VAN NESS AVE APT 7","TORRANCE","CA",90504,33.884547878,-118.317794609,228,"16112 VAN NESS AVE APT 7, TORRANCE, CA, 90504","Match","Exact","16112 VAN NESS AVE, TORRANCE, CA, 90504",640117977,"L"
77229,"16113 GOSSUM COURT","HAYMARKET","VA",20169,38.8785744670001,-77.673104439,229,"16113 GOSSUM COURT, HAYMARKET, VA, 20169","Match","Exact","16113 GOSSUM CT, HAYMARKET, VA, 20169",207162278,"R"
77230,"16113 SAINT HELIER","JERSEY VILLAGE","TX",77040,29.887737332,-95.565373477,230,"16113 SAINT HELIER, JERSEY VILLAGE, TX, 77040","Match","Non_Exact","16113 SAINT HELIER ST, JERSEY VILLAGE, TX, 77040",96019003,"R"
77231,"16113 SW 8TH ST","PEMBROKE PINES","FL",33027,25.99971578,-80.364252216,231,"16113 SW 8TH ST, PEMBROKE PINES, FL, 33027","Match","Exact","16113 SW 8TH ST, PEMBROKE PINES, FL, 33027",114790328,"L"
77232,"16115 CRAIGEND PLACE","ODESSA","FL",33556,28.09964087,-82.6397173249999,232,"16115 CRAIGEND PLACE, ODESSA, FL, 33556","Match","Exact","16115 CRAIGEND PL, ODESSA, FL, 33556",104572778,"L"
77233,"16115 HICKORY DRIVE","FAYETTEVILLE","AR",72704,36.0962034470001,-94.292149506,233,"16115 HICKORY DRIVE, FAYETTEVILLE, AR, 72704","Match","Exact","16115 HICKORY DR, FAYETTEVILLE, AR, 72704",49097831,"L"
77234,"16115 JOPLIN AVE    APT 1","LAKEVILLE","MN",55044,44.7162685960001,-93.279752477,234,"16115 JOPLIN AVE    APT 1, LAKEVILLE, MN, 55044","Match","Exact","16115 JOPLIN AVE, LAKEVILLE, MN, 55044",37906360,"R"
77235,"16115 N 87TH DRIVE","PEORIA","AZ",85382,33.630907538,-112.247889511,235,"16115 N 87TH DRIVE, PEORIA, AZ, 85382","Match","Exact","16115 N 87TH DR, PEORIA, AZ, 85382",128830372,"R"
77236,"16115 PADONS TRACE ST","MISSOURI CITY","TX",77489,29.6344192600001,-95.5295825599999,236,"16115 PADONS TRACE ST, MISSOURI CITY, TX, 77489","Match","Non_Exact","16115 PADONS TRACE CT, MISSOURI CITY, TX, 77489",96353464,"R"
77237,"16115 S LANGDON RD","LANGDON","KS",67583,37.881353474,-98.325469902,237,"16115 S LANGDON RD, LANGDON, KS, 67583","Match","Non_Exact","16117 S LANGDON RD, LANGDON, KS, 67583",142952386,"L"
77238,"16115 SPADE RD","HAGERSTOWN","MD",21740,39.67779598,-77.8122617499999,238,"16115 SPADE RD, HAGERSTOWN, MD, 21740","Match","Exact","16115 SPADE RD, HAGERSTOWN, MD, 21740",60784801,"L"
77239,"16115 STATE ROAD 60","BORDEN","IN",47106,38.4411670210001,-85.8743302079999,239,"16115 STATE ROAD 60, BORDEN, IN, 47106","Match","Exact","16115 STATE RD 60, BORDEN, IN, 47106",64905509,"L"
77240,"16116 MAIDSTONE AVE","NORWALK","CA",90650,33.8850220750001,-118.086834327,240,"16116 MAIDSTONE AVE, NORWALK, CA, 90650","Match","Exact","16116 MAIDSTONE AVE, NORWALK, CA, 90650",141743674,"L"
77241,"16117 S AINSWORTH STREET 10","GARDENA","CA",90247,33.8849812500001,-118.290340635,241,"16117 S AINSWORTH STREET 10, GARDENA, CA, 90247","Match","Non_Exact","16117 S AINSWORTH ST, GARDENA, CA, 90247",141667424,"R"
77242,"16117 THOMPSON RD","CHARLOTTE","NC",28227,35.151327576,-80.641838158,242,"16117 THOMPSON RD, CHARLOTTE, NC, 28227","Match","Exact","16117 THOMPSON RD, CHARLOTTE, NC, 28227",70496799,"R"
77243,"16117 WHITESTONE DRIVE","PARKER","CO",80134,39.525092231,-104.802994995,243,"16117 WHITESTONE DRIVE, PARKER, CO, 80134","Match","Exact","16117 WHITESTONE DR, PARKER, CO, 80134",130822647,"L"
77244,"16118 CAYENNE RIDGE RD","SAN DIEGO","CA",92127,33.0059440200001,-117.103589266,244,"16118 CAYENNE RIDGE RD, SAN DIEGO, CA, 92127","Match","Exact","16118 CAYENNE RIDGE RD, SAN DIEGO, CA, 92127",612873002,"L"
77245,"16118 GREEN VALLEY TRUCK TRAIL","RAMONA","CA",92065,33.038977501,-116.983727144,245,"16118 GREEN VALLEY TRUCK TRAIL, RAMONA, CA, 92065","Match","Exact","16118 GREEN VALLEY TRUCK TRL, RAMONA, CA, 92065",195664704,"L"
77246,"16119 LOS SEDONA","HELOTES","TX",78023,29.5944653940001,-98.657141758,246,"16119 LOS SEDONA, HELOTES, TX, 78023","Match","Exact","16119 LOS SEDONA, HELOTES, TX, 78023",619994338,"R"
77247,"16119 SWIFT RD","HENLEY","MO",65040,38.350586654,-92.355238657,247,"16119 SWIFT RD, HENLEY, MO, 65040","Match","Exact","16119 SWIFT RD, HENLEY, MO, 65040",34412606,"R"
77248,"16119 WOODBEND TRAIL DR","HOUSTON","TX",77070,30.0049112230001,-95.578735683,248,"16119 WOODBEND TRAIL DR, HOUSTON, TX, 77070","Match","Exact","16119 WOODBEND TRAIL DR, HOUSTON, TX, 77070",96567422,"L"
77249,"1611A S MELROSE DR SUITE 205","VISTA","CA",92081,33.16470307,-117.245554799,249,"1611A S MELROSE DR SUITE 205, VISTA, CA, 92081","Match","Exact","1611 S MELROSE DR, VISTA, CA, 92081",195460410,"R"
77250,"1611A S MELROSE DRIVE 287","VISTA","CA",92081,33.16470307,-117.245554799,250,"1611A S MELROSE DRIVE 287, VISTA, CA, 92081","Match","Exact","1611 S MELROSE DR, VISTA, CA, 92081",195460410,"R"
77251,"1611B OWEN DRIVE","FAYETTEVILLE","NC",28304,35.033679557,-78.931603013,251,"1611B OWEN DRIVE, FAYETTEVILLE, NC, 28304","Match","Exact","1611 OWEN DR, FAYETTEVILLE, NC, 28304",64225590,"L"
77252,"1612 15TH ST NW UNIT","WASHINGTON","DC",20001,38.911605539,-77.0345580859999,252,"1612 15TH ST NW UNIT, WASHINGTON, DC, 20001","Match","Non_Exact","1612 15TH ST NW, WASHINGTON, DC, 20009",76225680,"L"
77253,"1612 ALAMO AVE SE","ALBUQUERQUE","NM",87106,35.0547366850001,-106.630408751,253,"1612 ALAMO AVE SE, ALBUQUERQUE, NM, 87106","Match","Exact","1612 ALAMO AVE SE, ALBUQUERQUE, NM, 87106",206710902,"R"
77254,"1612 AMBER LN","PLANO","TX",75075,33.0208625240001,-96.735448716,254,"1612 AMBER LN, PLANO, TX, 75075","Match","Exact","1612 AMBER LN, PLANO, TX, 75075",123538329,"L"
77255,"1612 ANDERSON AVENUE","TUSKEGEE","AL",36088,32.428481511,-85.719055579,255,"1612 ANDERSON AVENUE, TUSKEGEE, AL, 36088","Match","Non_Exact","1612 ANDERSON AVE, TUSKEGEE INST, AL, 36088",69127405,"L"
77256,"1612 ARIZONA STREET","TALLAHASSEE","FL",32304,30.45456046,-84.3095510759999,256,"1612 ARIZONA STREET, TALLAHASSEE, FL, 32304","Match","Exact","1612 ARIZONA ST, TALLAHASSEE, FL, 32304",82849476,"R"
77257,"1612 ARMSTRONG STREET","HUNTSVILLE","AL",35816,34.740113068,-86.615180078,257,"1612 ARMSTRONG STREET, HUNTSVILLE, AL, 35816","Match","Non_Exact","1612 ARMSTRONG ST NW, HUNTSVILLE, AL, 35816",58116419,"R"
77258,"1612 AUSTIN ST","HOUSTON","TX",77002,29.7502560090001,-95.365134231,258,"1612 AUSTIN ST, HOUSTON, TX, 77002","Match","Exact","1612 AUSTIN ST, HOUSTON, TX, 77002",96067790,"R"
77259,"1612 AUSTIN ST","PORTLAND","TX",78374,27.885735493,-97.326429278,259,"1612 AUSTIN ST, PORTLAND, TX, 78374","Match","Exact","1612 AUSTIN ST, PORTLAND, TX, 78374",36333568,"L"
77260,"1612 AVENIDA VERDE VISTA","SAN DIMAS","CA",91773,34.080728408,-117.835377883,260,"1612 AVENIDA VERDE VISTA, SAN DIMAS, CA, 91773","Match","Exact","1612 AVENIDA VERDE VIS, SAN DIMAS, CA, 91773",141775899,"L"
77261,"1612 CARROL STREET","BROOKLYN","NY",11213,40.666284601,-73.934358631,261,"1612 CARROL STREET, BROOKLYN, NY, 11213","Match","Non_Exact","1612 CARROLL ST, BROOKLYN, NY, 11213",59079769,"R"
77262,"1612 CASCADE FALLS DR","FRIENDSWOOD","TX",77546,29.4931029630001,-95.199839695,262,"1612 CASCADE FALLS DR, FRIENDSWOOD, TX, 77546","Match","Exact","1612 CASCADE FALLS DR, FRIENDSWOOD, TX, 77546",96722238,"L"
77263,"1612 CASSIDY STREET","OCEANSIDE","CA",92054,33.1811872920001,-117.35218601,263,"1612 CASSIDY STREET, OCEANSIDE, CA, 92054","Match","Exact","1612 CASSIDY ST, OCEANSIDE, CA, 92054",195697830,"L"
77264,"1612 CHAMPLAIN ST","OTTAWA","IL",61350,41.3567883750001,-88.828770879,264,"1612 CHAMPLAIN ST, OTTAWA, IL, 61350","Match","Exact","1612 CHAMPLAIN ST, OTTAWA, IL, 61350",8620747,"R"
77265,"1612 CHARLESTON CIRCLE","WAUNAKEE","WI",53597,43.171577341,-89.4387535279999,265,"1612 CHARLESTON CIRCLE, WAUNAKEE, WI, 53597","Match","Exact","1612 CHARLESTON CIR, WAUNAKEE, WI, 53597",49513675,"L"
77266,"1612 CHERRY VIEW COURT","HENRICO","VA",23228,37.6481513580001,-77.479839963,266,"1612 CHERRY VIEW COURT, HENRICO, VA, 23228","Match","Exact","1612 CHERRY VIEW CT, HENRICO, VA, 23228",106671135,"L"
77267,"1612 COMO AVENUE - SUITE B2","SAINT PAUL","MN",55108,44.9772923400001,-93.168589966,267,"1612 COMO AVENUE - SUITE B2, SAINT PAUL, MN, 55108","Match","Exact","1612 COMO AVE, SAINT PAUL, MN, 55108",97641342,"L"
77268,"1612 COUNTY HIGHWAY 514","SIKESTON","MO",63801,37.008593268,-89.466036017,268,"1612 COUNTY HIGHWAY 514, SIKESTON, MO, 63801","Match","Non_Exact","1612 CO RD 514, SIKESTON, MO, 63801",38957673,"R"
77269,"1612 COUNTY ROAD 227","CAPE GIRARDEAU","MO",63701,37.279774026,-89.707304132,269,"1612 COUNTY ROAD 227, CAPE GIRARDEAU, MO, 63701","Match","Exact","1612 CO RD 227, CAPE GIRARDEAU, MO, 63701",651272331,"L"
77270,"1612 CRESCENT DRIVE","HENDERSON","NC",27536,36.3237458560001,-78.427109081,270,"1612 CRESCENT DRIVE, HENDERSON, NC, 27536","Match","Exact","1612 CRESCENT DR, HENDERSON, NC, 27536",90271415,"L"
77271,"1612 DUKE LANE","CHATTANOOGA","TN",37421,35.00422603,-85.114750492,271,"1612 DUKE LANE, CHATTANOOGA, TN, 37421","Match","Exact","1612 DUKE LN, CHATTANOOGA, TN, 37421",59319851,"L"
77272,"1612 DUMPLING RUN ROAD","MOOREFIELD","WV",26836,38.883518737,-79.0658007169999,272,"1612 DUMPLING RUN ROAD, MOOREFIELD, WV, 26836","Match","Exact","1612 DUMPLING RUN RD, MOOREFIELD, WV, 26836",55481868,"L"
77273,"1612 E 66TH","CLEVELAND","OH",44103,NA,NA,273,"1612 E 66TH, CLEVELAND, OH, 44103","Tie",NA,NA,NA,NA
77274,"1612 E 7TH AVE","TAMPA","FL",33605,27.9602825280001,-82.441476436,274,"1612 E 7TH AVE, TAMPA, FL, 33605","Match","Exact","1612 E 7TH AVE, TAMPA, FL, 33605",104524202,"L"
77275,"1612 EAST COLONIAL DRIVE SUITE 10","ORLANDO","FL",32803,28.553109443,-81.359811813,275,"1612 EAST COLONIAL DRIVE SUITE 10, ORLANDO, FL, 32803","Match","Exact","1612 E COLONIAL DR, ORLANDO, FL, 32803",94282326,"R"
77276,"1612 EAST MARKET STREET","CHARLOTTESVILLE","VA",22902,NA,NA,276,"1612 EAST MARKET STREET, CHARLOTTESVILLE, VA, 22902","No_Match",NA,NA,NA,NA
77277,"1612 FULTON STREET 107","FRESNO","CA",93721,36.7400487470001,-119.796858592,277,"1612 FULTON STREET 107, FRESNO, CA, 93721","Match","Exact","1612 FULTON ST, FRESNO, CA, 93721",197578816,"R"
77278,"1612 GRANVIA ALTAMIRA","PALOS VERDES ESTATES","CA",90274,33.7840897880001,-118.390848291,278,"1612 GRANVIA ALTAMIRA, PALOS VERDES ESTATES, CA, 90274","Match","Exact","1612 GRANVIA ALTAMIRA, PALOS VERDES ESTATES, CA, 90274",638622029,"L"
77279,"1612 HIDDEN LEAF CT","RALEIGH","NC",27606,35.704142561,-78.697074247,279,"1612 HIDDEN LEAF CT, RALEIGH, NC, 27606","Match","Exact","1612 HIDDEN LEAF CT, RALEIGH, NC, 27606",648792875,"R"
77280,"1612 HUNTCLIFFE","TEMPERANCE","MI",48182,41.755177347,-83.585209462,280,"1612 HUNTCLIFFE, TEMPERANCE, MI, 48182","Match","Non_Exact","1612 HUNTCLIFFE CT, TEMPERANCE, MI, 48182",40483978,"L"
77281,"1612 JEWEL LN","FRISCO","TX",75034,33.1552510970001,-96.9000906429999,281,"1612 JEWEL LN, FRISCO, TX, 75034","Match","Non_Exact","1612 JEWEL LN, FRISCO, TX, 75036",619813209,"L"
77282,"1612 KATYE STREET","MOBILE","AL",36617,30.724174131,-88.111987547,282,"1612 KATYE STREET, MOBILE, AL, 36617","Match","Exact","1612 KATYE ST, MOBILE, AL, 36617",61850172,"R"
77283,"1612 LAMONTE LANE","HOUSTON","TX",77018,29.827059444,-95.441117226,283,"1612 LAMONTE LANE, HOUSTON, TX, 77018","Match","Exact","1612 LAMONTE LN, HOUSTON, TX, 77018",96028902,"R"
77284,"1612 LARWOOD RD","LEMON GROVE","CA",91945,32.721055624,-117.037864135,284,"1612 LARWOOD RD, LEMON GROVE, CA, 91945","Match","Exact","1612 LARWOOD RD, LEMON GROVE, CA, 91945",647697885,"L"
77285,"1612 LATIMER STREET","PHILADELPHIA","PA",19103,39.948206177,-75.168361352,285,"1612 LATIMER STREET, PHILADELPHIA, PA, 19103","Match","Exact","1612 LATIMER ST, PHILADELPHIA, PA, 19103",652293166,"L"
77286,"1612 LIMA DRIVE","SAN LUIS OBISPO","CA",93405,35.2576223620001,-120.686990177,286,"1612 LIMA DRIVE, SAN LUIS OBISPO, CA, 93405","Match","Exact","1612 LIMA DR, SAN LUIS OBISPO, CA, 93405",109732867,"R"
77287,"1612 LUCAS AVENUE UNIT 211","ST. LOUIS","MO",63103,38.6333878930001,-90.201780389,287,"1612 LUCAS AVENUE UNIT 211, ST. LOUIS, MO, 63103","Match","Exact","1612 LUCAS AVE, SAINT LOUIS, MO, 63103",107604533,"L"
77288,"1612 MARION STREET SUITE 201","COLUMBIA","SC",29201,34.0078019010001,-81.032778997,288,"1612 MARION STREET SUITE 201, COLUMBIA, SC, 29201","Match","Exact","1612 MARION ST, COLUMBIA, SC, 29201",639496439,"R"
77289,"1612 N KENDRICK AVE","GLENDIVE","MT",59330,47.1203479000001,-104.70226398,289,"1612 N KENDRICK AVE, GLENDIVE, MT, 59330","Match","Exact","1612 N KENDRICK AVE, GLENDIVE, MT, 59330",161614433,"R"
77290,"1612 N MARTA DRIVE","PLEASANT HILL","CA",94523,NA,NA,290,"1612 N MARTA DRIVE, PLEASANT HILL, CA, 94523","Tie",NA,NA,NA,NA
77291,"1612 N MICHIGAN AVE","ATLANTIC CITY","NJ",8401,39.373843483,-74.449394942,291,"1612 N MICHIGAN AVE, ATLANTIC CITY, NJ, 8401","Match","Exact","1612 N MICHIGAN AVE, ATLANTIC CITY, NJ, 08401",202488006,"L"
77292,"1612 NE GARFIELD STREET","CAMAS","WA",98607,45.5910230000001,-122.403259635,292,"1612 NE GARFIELD STREET, CAMAS, WA, 98607","Match","Exact","1612 NE GARFIELD ST, CAMAS, WA, 98607",158331673,"L"
77293,"1612 NEWCASTLE STREET SUITE 228","BRUNSWICK","GA",31520,NA,NA,293,"1612 NEWCASTLE STREET SUITE 228, BRUNSWICK, GA, 31520","No_Match",NA,NA,NA,NA
77294,"1612 NORFOLK AVE","CRETE","IL",60417,NA,NA,294,"1612 NORFOLK AVE, CRETE, IL, 60417","No_Match",NA,NA,NA,NA
77295,"1612 NORTH EAST 25TH AVE LOT 110","OCALA","FL",34470,NA,NA,295,"1612 NORTH EAST 25TH AVE LOT 110, OCALA, FL, 34470","No_Match",NA,NA,NA,NA
77296,"1612 NORTH HIGH POINT ROAD","MIDDLETON","WI",53562,43.0917555660001,-89.518800589,296,"1612 NORTH HIGH POINT ROAD, MIDDLETON, WI, 53562","Match","Exact","1612 N HIGH POINT RD, MIDDLETON, WI, 53562",49489014,"L"
77297,"1612 NPBLE FIR ST","LAKE PLACID","FL",33852,NA,NA,297,"1612 NPBLE FIR ST, LAKE PLACID, FL, 33852","No_Match",NA,NA,NA,NA
77298,"1612 NW 15TH AVENUE","PORTLAND","OR",97209,45.534663288,-122.686584198,298,"1612 NW 15TH AVENUE, PORTLAND, OR, 97209","Match","Non_Exact","1612 NW 15TH AVE, PORTLAND, OR, 97209",157577192,"R"
77299,"1612 OAK ST NW","WASH","DC",20010,38.935563281,-77.037092407,299,"1612 OAK ST NW, WASH, DC, 20010","Match","Exact","1612 OAK ST NW, WASHINGTON, DC, 20010",650096151,"L"
77300,"1612 POTTER DRIVE","POTTSTOWN","PA",19464,40.2528867250001,-75.6094381189999,300,"1612 POTTER DRIVE, POTTSTOWN, PA, 19464","Match","Exact","1612 POTTER DR, POTTSTOWN, PA, 19464",135114177,"R"
77301,"1612 RAMBLEWOOD RD","BALTIMORE","MD",21239,39.3603844940001,-76.585332025,301,"1612 RAMBLEWOOD RD, BALTIMORE, MD, 21239","Match","Exact","1612 RAMBLEWOOD RD, BALTIMORE, MD, 21239",206409584,"L"
77302,"1612 REIDINGER RIDGE","NEW ALBANY","IN",47150,38.37171118,-85.791948126,302,"1612 REIDINGER RIDGE, NEW ALBANY, IN, 47150","Match","Exact","1612 REIDINGER RIDGE, NEW ALBANY, IN, 47150",89550736,"R"
77303,"1612 S BERENDO ST","LOS ANGELES","CA",90006,34.0437469760001,-118.293385841,303,"1612 S BERENDO ST, LOS ANGELES, CA, 90006","Match","Exact","1612 S BERENDO ST, LOS ANGELES, CA, 90006",141606813,"L"
77304,"1612 SHADOW COURT","EDMOND","OK",73013,35.6378961,-97.505656318,304,"1612 SHADOW COURT, EDMOND, OK, 73013","Match","Exact","1612 SHADOW CT, EDMOND, OK, 73013",100386249,"R"
77305,"1612 SHADY AVENUE","PITTSBURGH","PA",15217,40.4398180380001,-79.919564556,305,"1612 SHADY AVENUE, PITTSBURGH, PA, 15217","Match","Exact","1612 SHADY AVE, PITTSBURGH, PA, 15217",51652141,"R"
77306,"1612 SHERI LEE DRIVE","MISSION","TX",78572,26.219840816,-98.297841553,306,"1612 SHERI LEE DRIVE, MISSION, TX, 78572","Match","Exact","1612 SHERI LEE DR, MISSION, TX, 78572",647570053,"R"
77307,"1612 SHERWOOD WAY","EAGAN","MN",55122,44.7800664220001,-93.180725998,307,"1612 SHERWOOD WAY, EAGAN, MN, 55122","Match","Exact","1612 SHERWOOD WAY, EAGAN, MN, 55122",37909241,"R"
77308,"1612 SKELTON ROAD","GAINESVILLE","GA",30504,34.2892654140001,-83.849060438,308,"1612 SKELTON ROAD, GAINESVILLE, GA, 30504","Match","Exact","1612 SKELTON RD, GAINESVILLE, GA, 30504",98249684,"L"
77309,"1612 SOUTH MILDRED STREET SUITE A","TACOMA","WA",98465,47.2464750720001,-122.526353479,309,"1612 SOUTH MILDRED STREET SUITE A, TACOMA, WA, 98465","Match","Exact","1612 S MILDRED ST, TACOMA, WA, 98465",650112388,"L"
77310,"1612 SUN GAZER DRIVE SUITE C2","ROCKLEDGE","FL",32955,28.2712530310001,-80.7139004159999,310,"1612 SUN GAZER DRIVE SUITE C2, ROCKLEDGE, FL, 32955","Match","Exact","1612 SUN GAZER DR, ROCKLEDGE, FL, 32955",619179044,"L"
77311,"1612 TUFTS COURT","VIRGINIA BEACH","VA",23456,36.789702752,-76.1447672899999,311,"1612 TUFTS COURT, VIRGINIA BEACH, VA, 23456","Match","Exact","1612 TUFTS CT, VA BCH, VA, 23456",122265433,"R"
77312,"1612 TULLY ROAD","MODESTO","CA",95350,37.6679031190001,-121.012178982,312,"1612 TULLY ROAD, MODESTO, CA, 95350","Match","Exact","1612 TULLY RD, MODESTO, CA, 95350",102602954,"R"
77313,"1612 VALLEY BROOKE CT","WEXFORD","PA",15090,40.6032671520001,-80.074925815,313,"1612 VALLEY BROOKE CT, WEXFORD, PA, 15090","Match","Exact","1612 VALLEY BROOKE CT, WEXFORD, PA, 15090",633900010,"R"
77314,"1612 VEECHDALE  ROAD","SIMPONSVILLE","KY",40067,NA,NA,314,"1612 VEECHDALE  ROAD, SIMPONSVILLE, KY, 40067","No_Match",NA,NA,NA,NA
77315,"1612 VIDA CT","DALLAS","TX",75253,32.6801805490001,-96.599655867,315,"1612 VIDA CT, DALLAS, TX, 75253","Match","Exact","1612 VIDA CT, DALLAS, TX, 75253",103167319,"R"
77316,"1612 VIZCAYA LANE","NAPLES","FL",34113,26.0532293210001,-81.7208294549999,316,"1612 VIZCAYA LANE, NAPLES, FL, 34113","Match","Exact","1612 VIZCAYA LN, NAPLES, FL, 34113",650500926,"L"
77317,"1612 W PERSHING AVENUE","PHOENIX","AZ",85029,33.605768847,-112.094116079,317,"1612 W PERSHING AVENUE, PHOENIX, AZ, 85029","Match","Exact","1612 W PERSHING AVE, PHOENIX, AZ, 85029",128181911,"R"
77318,"1612 WEAVER STREET","DAYTON","OH",45417,39.7390937110001,-84.2225126869999,318,"1612 WEAVER STREET, DAYTON, OH, 45417","Match","Exact","1612 WEAVER ST, DAYTON, OH, 45417",143570563,"L"
77319,"1612 WEST 55TH STREET","NORTH LITTLE ROCK","AR",72118,34.805617136,-92.283068331,319,"1612 WEST 55TH STREET, NORTH LITTLE ROCK, AR, 72118","Match","Exact","1612 W 55TH ST, N LITTLE ROCK, AR, 72118",83507232,"L"
77320,"1612 WESTRIDGE RD","CARLSBAD","NM",88220,32.437579468,-104.248705247,320,"1612 WESTRIDGE RD, CARLSBAD, NM, 88220","Match","Exact","1612 WESTRIDGE RD, CARLSBAD, NM, 88220",131264728,"R"
77321,"1612 WHITENER ROAD","NEWBERRY","SC",29108,34.303169773,-81.611569802,321,"1612 WHITENER ROAD, NEWBERRY, SC, 29108","Match","Exact","1612 WHITENER RD, NEWBERRY, SC, 29108",45372513,"R"
77322,"1612 WILLOW SPRINGS CT","DALLAS","NC",28034,35.3397594300001,-81.227497204,322,"1612 WILLOW SPRINGS CT, DALLAS, NC, 28034","Match","Exact","1612 WILLOW SPRINGS CT, DALLAS, NC, 28034",70419228,"R"
77323,"1612 WOODLAND LN","BOLINGBROOK","IL",60490,41.6806147500001,-88.143796375,323,"1612 WOODLAND LN, BOLINGBROOK, IL, 60490","Match","Exact","1612 WOODLAND LN, BOLINGBROOK, IL, 60490",111624859,"R"
77324,"16120 CATHYS LOOP","PEYTON","CO",80831,38.8890600400001,-104.532567644,324,"16120 CATHYS LOOP, PEYTON, CO, 80831","Match","Exact","16120 CATHYS LOOP, PEYTON, CO, 80831",105565608,"L"
77325,"16120 GLASTONBURY RD","DETROIT","MI",48219,42.408462894,-83.222563017,325,"16120 GLASTONBURY RD, DETROIT, MI, 48219","Match","Exact","16120 GLASTONBURY RD, DETROIT, MI, 48219",95423246,"R"
77326,"16120 NW 124TH STREET","PLATTE CITY","MO",64079,39.3178271100001,-94.766750362,326,"16120 NW 124TH STREET, PLATTE CITY, MO, 64079","Match","Exact","16120 NW 124TH ST, PLATTE CITY, MO, 64079",39719390,"L"
77327,"16121 EARNSHAW ST","OVERLAND PARK","KS",66221,38.8364920000001,-94.724926411,327,"16121 EARNSHAW ST, OVERLAND PARK, KS, 66221","Match","Exact","16121 EARNSHAW ST, OVERLAND PARK, KS, 66221",641636539,"R"
77328,"16121 N CAVE CREEK RD","PHOENIX","AZ",85032,33.632971421,-112.030775991,328,"16121 N CAVE CREEK RD, PHOENIX, AZ, 85032","Match","Exact","16121 N CAVE CREEK RD, PHOENIX, AZ, 85032",128353873,"R"
77329,"16122 JESSAMINE STREET","CORPUS CHRISTI","TX",78418,27.582322769,-97.232566035,329,"16122 JESSAMINE STREET, CORPUS CHRISTI, TX, 78418","Match","Exact","16122 JESSAMINE ST, CORPUS CHRISTI, TX, 78418",178525109,"L"
77330,"16122 KENNEDY ST","WOODBRIDGE","VA",22191,38.602409573,-77.274720155,330,"16122 KENNEDY ST, WOODBRIDGE, VA, 22191","Match","Exact","16122 KENNEDY ST, WOODBRIDGE, VA, 22191",207158179,"R"
77331,"16122 SW 96 TERRACE","MIAMI","FL",33196,25.6763027820001,-80.45633775,331,"16122 SW 96 TERRACE, MIAMI, FL, 33196","Match","Exact","16122 SW 96TH TER, MIAMI, FL, 33196",116267373,"R"
77332,"16123 TALONCREST DR","HOUSTON","TX",77083,29.678913306,-95.6666114879999,332,"16123 TALONCREST DR, HOUSTON, TX, 77083","Match","Exact","16123 TALONCREST DR, HOUSTON, TX, 77083",78334702,"R"
77333,"16123","LEWES","DE",19958,NA,NA,333,"16123, LEWES, DE, 19958","No_Match",NA,NA,NA,NA
77334,"16124 BECKER ROAD","HOCKLEY","TX",77447,30.0075211810001,-95.799178124,334,"16124 BECKER ROAD, HOCKLEY, TX, 77447","Match","Exact","16124 BECKER RD, HOCKLEY, TX, 77447",646694891,"R"
77335,"16124 BLACKWOOD ST","LA PUENTE","CA",91744,34.038330939,-117.933709252,335,"16124 BLACKWOOD ST, LA PUENTE, CA, 91744","Match","Non_Exact","16124 E BLACKWOOD ST, LA PUENTE, CA, 91744",141714121,"R"
77336,"16124 W 58TH AVENUE","GOLDEN","CO",80403,39.803145042,-105.180665392,336,"16124 W 58TH AVENUE, GOLDEN, CO, 80403","Match","Exact","16124 W 58TH AVE, GOLDEN, CO, 80403",177764227,"L"
77337,"16125 CORNUTA AVE","BELLFLOWER","CA",90706,33.88777022,-118.119825689,337,"16125 CORNUTA AVE, BELLFLOWER, CA, 90706","Match","Exact","16125 CORNUTA AVE, BELLFLOWER, CA, 90706",142794767,"R"
77338,"16125 JUANITA WOODINVILLE WAY NE419","BOTHELL","WA",98021,NA,NA,338,"16125 JUANITA WOODINVILLE WAY NE419, BOTHELL, WA, 98021","No_Match",NA,NA,NA,NA
77339,"16125 TIMBER CREEK PLACE LN STE 500","HOUSTON","TX",77084,29.856846768,-95.644693608,339,"16125 TIMBER CREEK PLACE LN STE 500, HOUSTON, TX, 77084","Match","Exact","16125 TIMBER CREEK PLACE LN, HOUSTON, TX, 77084",233347498,"L"
77340,"16126 CASTLEGROVE CT","TOMBALL","TX",77377,30.0076079080001,-95.602531385,340,"16126 CASTLEGROVE CT, TOMBALL, TX, 77377","Match","Exact","16126 CASTLEGROVE CT, TOMBALL, TX, 77377",96163696,"R"
77341,"16126 HITCHING POST CT","CYPRESS","TX",77429,29.993723464,-95.6684019899999,341,"16126 HITCHING POST CT, CYPRESS, TX, 77429","Match","Exact","16126 HITCHING POST CT, CYPRESS, TX, 77429",627723769,"L"
77342,"16126 SE STARK","PORTLAND","OR",97233,45.5191490350001,-122.496961622,342,"16126 SE STARK, PORTLAND, OR, 97233","Match","Non_Exact","16126 SE STARK ST, PORTLAND, OR, 97233",157537041,"R"
77343,"16127 ALEXANDER PLACE","DUMFRIES","VA",22025,38.6026287490001,-77.338592617,343,"16127 ALEXANDER PLACE, DUMFRIES, VA, 22025","Match","Exact","16127 ALEXANDER PL, DUMFRIES, VA, 22025",76509567,"L"
77344,"16127 ELZA DRIVE","HACIENDA HEIGHTS","CA",91745,33.974923652,-117.963453681,344,"16127 ELZA DRIVE, HACIENDA HEIGHTS, CA, 91745","Match","Exact","16127 ELZA DR, HACIENDA HTS, CA, 91745",640420897,"R"
77345,"16127 LONEOAK VIEW DR","LITHIA","FL",33547,27.8451682560001,-82.2149488049999,345,"16127 LONEOAK VIEW DR, LITHIA, FL, 33547","Match","Exact","16127 LONEOAK VIEW DR, LITHIA, FL, 33547",633885861,"R"
77346,"16129 EVANS AVENUE","SOUTHHOLLAND","IL",60473,41.602008846,-87.598981414,346,"16129 EVANS AVENUE, SOUTHHOLLAND, IL, 60473","Match","Non_Exact","16129 EVANS AVE, SOUTH HOLLAND, IL, 60473",111780142,"L"
77347,"1613 130TH AVE","MORLEY","MI",49336,43.493083568,-85.343258497,347,"1613 130TH AVE, MORLEY, MI, 49336","Match","Non_Exact","1613 S 130TH AVE, MORLEY, MI, 49336",110520407,"L"
77348,"1613 251ST ST","HARBOR CITY","CA",90710,33.7967767440001,-118.304842261,348,"1613 251ST ST, HARBOR CITY, CA, 90710","Match","Non_Exact","1613 W 251ST ST, HARBOR CITY, CA, 90710",141669208,"R"
77349,"1613 67TH LANE NORTH","BROOKLYN CENTER","MN",55430,45.079143844,-93.301853845,349,"1613 67TH LANE NORTH, BROOKLYN CENTER, MN, 55430","Match","Exact","1613 67TH LN N, BROOKLYN CENTER, MN, 55430",618172964,"L"
77350,"1613 6TH ST SW","MINOT","ND",58701,48.2179756150001,-101.301425997,350,"1613 6TH ST SW, MINOT, ND, 58701","Match","Exact","1613 6TH ST SW, MINOT, ND, 58701",200490224,"R"
77351,"1613 6TH STREET","HULL","IA",51239,43.1942613360001,-96.126446091,351,"1613 6TH STREET, HULL, IA, 51239","Match","Exact","1613 SIXTH ST, HULL, IA, 51239",652071886,"L"
77352,"1613 BROLINGTON COURT","CONYERS","GA",30013,33.6099034430001,-84.007352349,352,"1613 BROLINGTON COURT, CONYERS, GA, 30013","Match","Non_Exact","1613 BROLINGTON CT SE, CONYERS, GA, 30013",619876531,"R"
77353,"1613 CEDAR CREST DR","FORNEY","TX",75126,32.7248938650001,-96.4192097759999,353,"1613 CEDAR CREST DR, FORNEY, TX, 75126","Match","Exact","1613 CEDAR CREST DR, FORNEY, TX, 75126",648283497,"R"
77354,"1613 CELINA PL","MONTGOMERY","AL",36110,32.4180911920001,-86.266043269,354,"1613 CELINA PL, MONTGOMERY, AL, 36110","Match","Exact","1613 CELINA PL, MONTGOMERY, AL, 36110",1532541,"R"
77355,"1613 CHELSEA RD NUM 173","SAN MARINO","CA",91108,34.113403066,-118.125246603,355,"1613 CHELSEA RD NUM 173, SAN MARINO, CA, 91108","Match","Exact","1613 CHELSEA RD, SAN MARINO, CA, 91108",141631399,"R"
77356,"1613 CHELSEA RD UNIT 816","SAN MARINO","CA",91108,34.113403066,-118.125246603,356,"1613 CHELSEA RD UNIT 816, SAN MARINO, CA, 91108","Match","Exact","1613 CHELSEA RD, SAN MARINO, CA, 91108",141631399,"R"
77357,"1613 CHELSEA ROAD NUM 110","SAN MARINO","CA",91108,34.113403066,-118.125246603,357,"1613 CHELSEA ROAD NUM 110, SAN MARINO, CA, 91108","Match","Exact","1613 CHELSEA RD, SAN MARINO, CA, 91108",141631399,"R"
77358,"1613 CLOVER LANE","FORT WORTH","TX",76107,32.743801273,-97.378433595,358,"1613 CLOVER LANE, FORT WORTH, TX, 76107","Match","Exact","1613 CLOVER LN, FORT WORTH, TX, 76107",101883589,"L"
77359,"1613 COLUSA STREET","CHULA VISTA","CA",91913,32.633360671,-116.989964234,359,"1613 COLUSA STREET, CHULA VISTA, CA, 91913","Match","Exact","1613 COLUSA ST, CHULA VISTA, CA, 91913",195670947,"R"
77360,"1613 COUNTY ROAD 1095","ASHLAND","OH",44805,40.8273777150001,-82.3335933399999,360,"1613 COUNTY ROAD 1095, ASHLAND, OH, 44805","Match","Exact","1613 CO RD 1095, ASHLAND, OH, 44805",30168095,"R"
77361,"1613 E GOWEN AVE","PHILADELPHIA","PA",19150,40.0818775000001,-75.1736424869999,361,"1613 E GOWEN AVE, PHILADELPHIA, PA, 19150","Match","Exact","1613 E GOWEN AVE, PHILADELPHIA, PA, 19150",131394885,"L"
77362,"1613 EAST TULPEHOCKEN STREET","PHILADELPHIA","PA",19138,40.0609575,-75.1608871349999,362,"1613 EAST TULPEHOCKEN STREET, PHILADELPHIA, PA, 19138","Match","Exact","1613 E TULPEHOCKEN ST, PHILADELPHIA, PA, 19138",131413104,"L"
77363,"1613 EASTERN PARKWAY   2D","BROOKLYN","NY",11233,40.6715771990001,-73.914872109,363,"1613 EASTERN PARKWAY   2D, BROOKLYN, NY, 11233","Match","Exact","1613 EASTERN PKWY, BROOKLYN, NY, 11233",59083812,"L"
77364,"1613 EASTERN PARKWAY 4A","BROOKLYN","NY",11233,40.6715771990001,-73.914872109,364,"1613 EASTERN PARKWAY 4A, BROOKLYN, NY, 11233","Match","Exact","1613 EASTERN PKWY, BROOKLYN, NY, 11233",59083812,"L"
77365,"1613 FAIRWAY RIDGE DRIVE","FLEMING ISLAND","FL",32003,30.119753163,-81.738150881,365,"1613 FAIRWAY RIDGE DRIVE, FLEMING ISLAND, FL, 32003","Match","Exact","1613 FAIRWAY RIDGE DR, FLEMING ISLAND, FL, 32003",83836477,"L"
77366,"1613 GROVE DR","FORT WAYNE","IN",46825,41.1501381480001,-85.164213339,366,"1613 GROVE DR, FORT WAYNE, IN, 46825","Match","Exact","1613 GROVE DR, FORT WAYNE, IN, 46825",606503983,"L"
77367,"1613 HARRIS STREET","TALLAHASSEE","FL",32310,30.426750769,-84.336751095,367,"1613 HARRIS STREET, TALLAHASSEE, FL, 32310","Match","Exact","1613 HARRIS ST, TALLAHASSEE, FL, 32310",647736818,"L"
77368,"1613 HILLCREST DRIVE","POLSON","MT",59860,47.68918317,-114.140053634,368,"1613 HILLCREST DRIVE, POLSON, MT, 59860","Match","Exact","1613 HILLCREST DR, POLSON, MT, 59860",647236285,"L"
77369,"1613 HOOVER AVE","NATIONAL CITY","CA",91950,32.6681955760001,-117.106232457,369,"1613 HOOVER AVE, NATIONAL CITY, CA, 91950","Match","Exact","1613 HOOVER AVE, NATIONAL CITY, CA, 91950",195349755,"L"
77370,"1613 LANDMARK CIRCLE","NEW BERN","NC",28560,35.0740839790001,-77.0314546399999,370,"1613 LANDMARK CIRCLE, NEW BERN, NC, 28560","Match","Exact","1613 LANDMARK CIR, NEW BERN, NC, 28560",34116386,"L"
77371,"1613 LINCOLN AVE","MARRERO","LA",70072,29.885716858,-90.114489323,371,"1613 LINCOLN AVE, MARRERO, LA, 70072","Match","Exact","1613 LINCOLN AVE, MARRERO, LA, 70072",93526878,"L"
77372,"1613 MALLARD CREEK CT","ANTIOCH","TN",37013,36.070472925,-86.59621111,372,"1613 MALLARD CREEK CT, ANTIOCH, TN, 37013","Match","Exact","1613 MALLARD CREEK CT, ANTIOCH, TN, 37013",97214656,"L"
77373,"1613 MILSTEAD RD NE","CONYERS","GA",30012,33.682933044,-83.9931656809999,373,"1613 MILSTEAD RD NE, CONYERS, GA, 30012","Match","Exact","1613 MILSTEAD RD NE, CONYERS, GA, 30012",23750550,"R"
77374,"1613 MISSOURI STREET","PECOS","TX",79772,31.410262732,-103.506654476,374,"1613 MISSOURI STREET, PECOS, TX, 79772","Match","Non_Exact","1613 S MISSOURI ST, PECOS, TX, 79772",132658685,"L"
77375,"1613 N 11TH STREET","BOISE","ID",83702,43.630363571,-116.201055218,375,"1613 N 11TH STREET, BOISE, ID, 83702","Match","Exact","1613 N 11TH ST, BOISE, ID, 83702",117860014,"L"
77376,"1613 N 2ND STREET","SHEBOYGAN","WI",53081,43.7617450500001,-87.702922488,376,"1613 N 2ND STREET, SHEBOYGAN, WI, 53081","Match","Exact","1613 N 2ND ST, SHEBOYGAN, WI, 53081",79497804,"R"
77377,"1613 N 52ND ST","SEATTLE","WA",98103,47.6664884400001,-122.33821379,377,"1613 N 52ND ST, SEATTLE, WA, 98103","Match","Exact","1613 N 52ND ST, SEATTLE, WA, 98103",186582885,"R"
77378,"1613 N GLENDALE","WICHITA","KS",67208,37.7122033420001,-97.279556812,378,"1613 N GLENDALE, WICHITA, KS, 67208","Match","Non_Exact","1613 N GLENDALE ST, WICHITA, KS, 67208",115639168,"L"
77379,"1613 NE 15TH ST","OKLAHOMA CITY","OK",73117,35.484629113,-97.483055828,379,"1613 NE 15TH ST, OKLAHOMA CITY, OK, 73117","Match","Exact","1613 NE 15TH ST, OKLAHOMA CITY, OK, 73117",100411845,"L"
77380,"1613 NE 15TH STREET","OKLAHOMA CITY","OK",73117,35.484629113,-97.483055828,380,"1613 NE 15TH STREET, OKLAHOMA CITY, OK, 73117","Match","Exact","1613 NE 15TH ST, OKLAHOMA CITY, OK, 73117",100411845,"L"
77381,"1613 NE 15TH","OKLAHOMA CITY","OK",73117,NA,NA,381,"1613 NE 15TH, OKLAHOMA CITY, OK, 73117","No_Match",NA,NA,NA,NA
77382,"1613 NORTHERN AVE","HUNTLEY","MT",59037,45.899542034,-108.300079143,382,"1613 NORTHERN AVE, HUNTLEY, MT, 59037","Match","Exact","1613 NORTHERN AVE, HUNTLEY, MT, 59037",647269264,"L"
77383,"1613 NW 12TH COURT","FORT LAUDERDALE","FL",33311,26.1409789350001,-80.1645944539999,383,"1613 NW 12TH COURT, FORT LAUDERDALE, FL, 33311","Match","Non_Exact","1613 NW 12TH CT, FORT LAUDERDALE, FL, 33311",114720518,"R"
77384,"1613 NW 90 TER","GAINESVILLE","FL",32606,29.6676216610001,-82.438572488,384,"1613 NW 90 TER, GAINESVILLE, FL, 32606","Match","Exact","1613 NW 90TH TER, GAINESVILLE, FL, 32606",6879058,"L"
77385,"1613 NW 90TH TERRACE","GAINESVILLE","FL",32606,29.6676216610001,-82.438572488,385,"1613 NW 90TH TERRACE, GAINESVILLE, FL, 32606","Match","Exact","1613 NW 90TH TER, GAINESVILLE, FL, 32606",6879058,"L"
77386,"1613 OLD PRINCETON ROAD","NEW CASTLE","PA",16101,40.9625680300001,-80.2735707859999,386,"1613 OLD PRINCETON ROAD, NEW CASTLE, PA, 16101","Match","Exact","1613 OLD PRINCETON RD, NEW CASTLE, PA, 16101",634071577,"R"
77387,"1613 PINE KNOLL DR","AUSTIN","TX",78758,30.381037866,-97.7047716019999,387,"1613 PINE KNOLL DR, AUSTIN, TX, 78758","Match","Exact","1613 PINE KNOLL DR, AUSTIN, TX, 78758",64025460,"L"
77388,"1613 PRESIDENT STREET","BROOKLYN","NY",11213,40.667199666,-73.934494687,388,"1613 PRESIDENT STREET, BROOKLYN, NY, 11213","Match","Exact","1613 PRESIDENT ST, BROOKLYN, NY, 11213",59079768,"L"
77389,"1613 QUAIL CANYON DRIVE","LOGAN","UT",84321,41.728612598,-111.793863759,389,"1613 QUAIL CANYON DRIVE, LOGAN, UT, 84321","Match","Exact","1613 QUAIL CANYON DR, LOGAN, UT, 84321",155105952,"L"
77390,"1613 S MICHIGAN AVE","CHICAGO","IL",60616,41.8599738610001,-87.6239724599999,390,"1613 S MICHIGAN AVE, CHICAGO, IL, 60616","Match","Exact","1613 S MICHIGAN AVE, CHICAGO, IL, 60616",610528307,"L"
77391,"1613 SE CLOVER LN","LAWTON","OK",73501,34.590489189,-98.330375503,391,"1613 SE CLOVER LN, LAWTON, OK, 73501","Match","Exact","1613 SE CLOVER LN, LAWTON, OK, 73501",14996399,"R"
77392,"1613 SEMINOLE DRIVE","COLUMBUS","MS",39705,33.5239184710001,-88.415393012,392,"1613 SEMINOLE DRIVE, COLUMBUS, MS, 39705","Match","Non_Exact","1613 SEMINOLE RD, COLUMBUS, MS, 39705",746797,"L"
77393,"1613 SOUTH UNIVERSITY","SPOKANE VALLEY","WA",99206,47.6421856760001,-117.261395872,393,"1613 SOUTH UNIVERSITY, SPOKANE VALLEY, WA, 99206","Match","Non_Exact","1613 S UNIVERSITY RD, SPOKANE VALLEY, WA, 99206",189887216,"L"
77394,"1613 W BIG OAK STREET","PHOENIX","AZ",85085,33.734371249,-112.095051415,394,"1613 W BIG OAK STREET, PHOENIX, AZ, 85085","Match","Exact","1613 W BIG OAK ST, PHOENIX, AZ, 85085",627479776,"L"
77395,"1613 W THOME AVE","CHICAGO","IL",60660,41.995638408,-87.6708864129999,395,"1613 W THOME AVE, CHICAGO, IL, 60660","Match","Exact","1613 W THOME AVE, CHICAGO, IL, 60660",605177809,"L"
77396,"1613 W UNION A","CHAMPAIGN","IL",61821,NA,NA,396,"1613 W UNION A, CHAMPAIGN, IL, 61821","No_Match",NA,NA,NA,NA
77397,"1613 W WILLETTA ST","PHOENIX","AZ",85007,33.4637279670001,-112.094073977,397,"1613 W WILLETTA ST, PHOENIX, AZ, 85007","Match","Exact","1613 W WILLETTA ST, PHOENIX, AZ, 85007",128211162,"L"
77398,"1613 WEST MAIN STREET","FRANKLIN","TN",37064,35.9097092040001,-86.892520217,398,"1613 WEST MAIN STREET, FRANKLIN, TN, 37064","Match","Exact","1613 W MAIN ST, FRANKLIN, TN, 37064",636650848,"R"
77399,"1613 WILSON BOULEVARD","KANSAS CITY","KS",66102,39.104100245,-94.647244657,399,"1613 WILSON BOULEVARD, KANSAS CITY, KS, 66102","Match","Exact","1613 WILSON BLVD, KANSAS CITY, KS, 66102",91140022,"L"
77400,"1613 YERKES STREET","PHILADELPHIA","PA",19150,40.064185137,-75.1680582119999,400,"1613 YERKES STREET, PHILADELPHIA, PA, 19150","Match","Exact","1613 YERKES ST, PHILADELPHIA, PA, 19150",131395114,"L"
77401,"16130 C R 1130","FLINT","TX",75762,32.2855970640001,-95.438200804,401,"16130 C R 1130, FLINT, TX, 75762","Match","Non_Exact","16130 CO RD 1130, FLINT, TX, 75762",141297209,"L"
77402,"16130 FOXFIRE DR","TAMPA","FL",33618,28.103037106,-82.497027084,402,"16130 FOXFIRE DR, TAMPA, FL, 33618","Match","Exact","16130 FOXFIRE DR, TAMPA, FL, 33618",104569737,"R"
77403,"16130 VIA SOLERA CIRCLE APT 101","FORT MYERS","FL",33908,NA,NA,403,"16130 VIA SOLERA CIRCLE APT 101, FORT MYERS, FL, 33908","No_Match",NA,NA,NA,NA
77404,"16131 E WHITTIER BLVD STE 107","WHITTIER","CA",90603,33.941260508,-117.985082431,404,"16131 E WHITTIER BLVD STE 107, WHITTIER, CA, 90603","Match","Exact","16131 WHITTIER BLVD, WHITTIER, CA, 90603",241120997,"L"
77405,"16131 W 125TH PLACE","OLATHE","KS",66062,38.8997071160001,-94.772711296,405,"16131 W 125TH PLACE, OLATHE, KS, 66062","Match","Exact","16131 W 125TH PL, OLATHE, KS, 66062",91352465,"R"
77406,"16133 EGO AVE","EASTPOINTE","MI",48021,42.4528833000001,-82.954609545,406,"16133 EGO AVE, EASTPOINTE, MI, 48021","Match","Exact","16133 EGO AVE, EASTPOINTE, MI, 48021",110679477,"L"
77407,"16133 US HIGHWAY 23","WAVERLY","OH",45690,39.177920554,-82.97319275,407,"16133 US HIGHWAY 23, WAVERLY, OH, 45690","Match","Exact","16133 US HWY 23, WAVERLY, OH, 45690",641180370,"L"
77408,"16133 VENTURA BLVD STE 700","ENCINO","CA",91436,34.156485746,-118.484404296,408,"16133 VENTURA BLVD STE 700, ENCINO, CA, 91436","Match","Exact","16133 VENTURA BLVD, ENCINO, CA, 91436",637822097,"R"
77409,"16133 VENTURA BLVD SUITE 500","ENCINO","CA",91436,34.156485746,-118.484404296,409,"16133 VENTURA BLVD SUITE 500, ENCINO, CA, 91436","Match","Exact","16133 VENTURA BLVD, ENCINO, CA, 91436",637822097,"R"
77410,"16135 55TH AVE N","PLYMOUTH","MN",55446,45.0536641800001,-93.4861864549999,410,"16135 55TH AVE N, PLYMOUTH, MN, 55446","Match","Exact","16135 55TH AVE N, PLYMOUTH, MN, 55446",641215905,"R"
77411,"16135 IH-45 S","CONROE","TX",77385,NA,NA,411,"16135 IH-45 S, CONROE, TX, 77385","No_Match",NA,NA,NA,NA
77412,"16135 N 157TH DR","SURPRISE","AZ",85374,33.630318367,-112.398595215,412,"16135 N 157TH DR, SURPRISE, AZ, 85374","Match","Exact","16135 N 157TH DR, SURPRISE, AZ, 85374",128414101,"R"
77413,"16135 NW 22CT","MIAMI","FL",33054,NA,NA,413,"16135 NW 22CT, MIAMI, FL, 33054","No_Match",NA,NA,NA,NA
77414,"16135 SR 50 SUITE 203","CLERMONT","FL",34711,28.546613076,-81.68817713,414,"16135 SR 50 SUITE 203, CLERMONT, FL, 34711","Match","Non_Exact","16135 STATE RD 50, CLERMONT, FL, 34711",649268545,"L"
77415,"16135 W CINNABAR CT","WADDELL","AZ",85355,33.575314721,-112.407001741,415,"16135 W CINNABAR CT, WADDELL, AZ, 85355","Match","Exact","16135 W CINNABAR CT, WADDELL, AZ, 85355",243967218,"R"
77416,"16136 FOSTER PARK ROAD","DEXTER","NY",13634,44.0009973730001,-76.04875264,416,"16136 FOSTER PARK ROAD, DEXTER, NY, 13634","Match","Exact","16136 FOSTER PARK RD, DEXTER, NY, 13634",154230508,"R"
77417,"16136 HWY B","RICHMOND","MO",64085,NA,NA,417,"16136 HWY B, RICHMOND, MO, 64085","No_Match",NA,NA,NA,NA
77418,"16137 OXFORD CIRCLE","TRUCKEE","CA",96161,39.3515444830001,-120.093067945,418,"16137 OXFORD CIRCLE, TRUCKEE, CA, 96161","Match","Exact","16137 OXFORD CIR, TRUCKEE, CA, 96161",106526075,"L"
77419,"16138 COLT SPRINGS LN","CYPRESS","TX",77429,29.994607537,-95.668743072,419,"16138 COLT SPRINGS LN, CYPRESS, TX, 77429","Match","Exact","16138 COLT SPRINGS LN, CYPRESS, TX, 77429",652895590,"R"
77420,"16139 63RD AVE NW","CASS LAKE","MN",56633,47.384835079,-94.6181857,420,"16139 63RD AVE NW, CASS LAKE, MN, 56633","Match","Exact","16139 63RD AVE NW, CASS LAKE, MN, 56633",162738474,"L"
77421,"16139 DRAKE RD","SEDLEY","VA",23878,36.800311594,-76.96403047,421,"16139 DRAKE RD, SEDLEY, VA, 23878","Match","Exact","16139 DRAKE RD, SEDLEY, VA, 23878",82718631,"R"
77422,"16139 HACKNEY DRIVE","ORLAND PARK","IL",60467,41.596405942,-87.855678838,422,"16139 HACKNEY DRIVE, ORLAND PARK, IL, 60467","Match","Exact","16139 HACKNEY DR, ORLAND PARK, IL, 60467",111883982,"R"
77423,"16139 SEMINOLE BOULEVARD","BROOKSVILLE","FL",34601,28.6558714560001,-82.287503509,423,"16139 SEMINOLE BOULEVARD, BROOKSVILLE, FL, 34601","Match","Exact","16139 SEMINOLE BLVD, BROOKSVILLE, FL, 34601",85421051,"L"
77424,"16139 TOWNSHIP ROAD 166","ARLINGTON","OH",45814,NA,NA,424,"16139 TOWNSHIP ROAD 166, ARLINGTON, OH, 45814","No_Match",NA,NA,NA,NA
77425,"1613A N 5TH STREET","HARRISBURG","PA",17102,40.2745363490001,-76.888369691,425,"1613A N 5TH STREET, HARRISBURG, PA, 17102","Match","Exact","1613 N 5TH ST, HARRISBURG, PA, 17102",70817184,"R"
77426,"1614  YORKTOWNE DRIVE","LAPLACE","LA",70068,NA,NA,426,"1614  YORKTOWNE DRIVE, LAPLACE, LA, 70068","No_Match",NA,NA,NA,NA
77427,"1614 217TH PL SE","SAMMAMISH","WA",98075,47.5946303420001,-122.04957759,427,"1614 217TH PL SE, SAMMAMISH, WA, 98075","Match","Exact","1614 217TH PL SE, SAMMAMISH, WA, 98075",186618180,"L"
77428,"1614 52ND AVE","OAKLAND","CA",94601,37.770685825,-122.205516435,428,"1614 52ND AVE, OAKLAND, CA, 94601","Match","Exact","1614 52ND AVE, OAKLAND, CA, 94601",125007634,"R"
77429,"1614 AMERICAN WAY","MYRTLE BEACH","SC",29577,33.691630301,-78.924311283,429,"1614 AMERICAN WAY, MYRTLE BEACH, SC, 29577","Match","Exact","1614 AMERICAN WAY, MYRTLE BEACH, SC, 29577",647263003,"L"
77430,"1614 AMY AVE","GLENDALE HEIGHTS","IL",60139,41.9182460270001,-88.07369634,430,"1614 AMY AVE, GLENDALE HEIGHTS, IL, 60139","Match","Exact","1614 AMY AVE, GLENDALE HEIGHTS, IL, 60139",112520676,"L"
77431,"1614 CALIPER WAY","DURHAM","NC",27713,35.9399692420001,-78.922752739,431,"1614 CALIPER WAY, DURHAM, NC, 27713","Match","Exact","1614 CALIPER WAY, DURHAM, NC, 27713",618113720,"R"
77432,"1614 CAMINITO BARLOVENTO","LA JOLLA","CA",92037,NA,NA,432,"1614 CAMINITO BARLOVENTO, LA JOLLA, CA, 92037","No_Match",NA,NA,NA,NA
77433,"1614 CHAMBER ST","BASTROP","TX",78602,NA,NA,433,"1614 CHAMBER ST, BASTROP, TX, 78602","No_Match",NA,NA,NA,NA
77434,"1614 CRESCENT OAK DR","MISSOURI CITY","TX",77459,29.5568402120001,-95.5226424539999,434,"1614 CRESCENT OAK DR, MISSOURI CITY, TX, 77459","Match","Exact","1614 CRESCENT OAK DR, MISSOURI CITY, TX, 77459",78295998,"R"
77435,"1614 DAYTON AVE","DAYTON","MN",55327,NA,NA,435,"1614 DAYTON AVE, DAYTON, MN, 55327","No_Match",NA,NA,NA,NA
77436,"1614 E EAGER STREET","BALTIMORE","MD",21205,39.301841575,-76.596078479,436,"1614 E EAGER STREET, BALTIMORE, MD, 21205","Match","Exact","1614 E EAGER ST, BALTIMORE, MD, 21205",206423693,"L"
77437,"1614 E KATHLEEN RD","PHOENIX","AZ",85022,33.630048291,-112.047801439,437,"1614 E KATHLEEN RD, PHOENIX, AZ, 85022","Match","Exact","1614 E KATHLEEN RD, PHOENIX, AZ, 85022",128362827,"L"
77438,"1614 E MT PLEASANT AVE","PHILADELPHIA","PA",19150,40.0785301180001,-75.1685597379999,438,"1614 E MT PLEASANT AVE, PHILADELPHIA, PA, 19150","Match","Exact","1614 E MOUNT PLEASANT AVE, PHILADELPHIA, PA, 19150",131394924,"R"
77439,"1614 E WOOD STREET","PHOENIX","AZ",85040,33.408587298,-112.046640775,439,"1614 E WOOD STREET, PHOENIX, AZ, 85040","Match","Exact","1614 E WOOD ST, PHOENIX, AZ, 85040",128215857,"L"
77440,"1614 EAST 40TH STREET","CLEVELAND","OH",44103,41.5118439840001,-81.660438289,440,"1614 EAST 40TH STREET, CLEVELAND, OH, 44103","Match","Exact","1614 E 40TH ST, CLEVELAND, OH, 44103",61112573,"R"
77441,"1614 EAST MAIN STREET SUITE D","NEW IBERIA","LA",70560,29.9947169220001,-91.797296739,441,"1614 EAST MAIN STREET SUITE D, NEW IBERIA, LA, 70560","Match","Exact","1614 E MAIN ST, NEW IBERIA, LA, 70560",85353935,"L"
77442,"1614 ESCALANTE AVE","ALBUQUERQUE","NM",87104,35.083732706,-106.668132837,442,"1614 ESCALANTE AVE, ALBUQUERQUE, NM, 87104","Match","Non_Exact","1614 ESCALANTE AVE SW, ALBUQUERQUE, NM, 87104",206706104,"L"
77443,"1614 GILMORE STREET","FAYETTEVILLE","NC",28301,35.080099999,-78.8769592789999,443,"1614 GILMORE STREET, FAYETTEVILLE, NC, 28301","Match","Exact","1614 GILMORE ST, FAYETTEVILLE, NC, 28301",64201078,"R"
77444,"1614 GRANADA STREET","LAUGHLIN","NV",89029,35.1391723400001,-114.61694077,444,"1614 GRANADA STREET, LAUGHLIN, NV, 89029","Match","Exact","1614 GRANADA ST, LAUGHLIN, NV, 89029",201898836,"L"
77445,"1614 GROSBEAK AVENUE","SUNNYVALE","CA",94087,37.3407039950001,-122.019210112,445,"1614 GROSBEAK AVENUE, SUNNYVALE, CA, 94087","Match","Exact","1614 GROSBEAK AVE, SUNNYVALE, CA, 94087",122939214,"L"
77446,"1614 HALLIANA COURT","BAKERSFIELD","CA",93311,35.3406396720001,-119.136060886,446,"1614 HALLIANA COURT, BAKERSFIELD, CA, 93311","Match","Exact","1614 HALLIANA CT, BAKERSFIELD, CA, 93311",109530720,"L"
77447,"1614 HEATHER LANE","DARIEN","IL",60561,41.7355450640001,-87.985384003,447,"1614 HEATHER LANE, DARIEN, IL, 60561","Match","Exact","1614 HEATHER LN, DARIEN, IL, 60561",112551424,"R"
77448,"1614 LAKE RD","TROUT RUN","PA",17771,41.3970793780001,-76.996277461,448,"1614 LAKE RD, TROUT RUN, PA, 17771","Match","Exact","1614 LAKE RD, TROUT RUN, PA, 17771",629865430,"R"
77449,"1614 MARTIN AVE","SUNNYVALE","CA",94087,37.340769396,-122.015150026,449,"1614 MARTIN AVE, SUNNYVALE, CA, 94087","Match","Exact","1614 MARTIN AVE, SUNNYVALE, CA, 94087",641279205,"R"
77450,"1614 MCKINNON AVENUE","SAN FRANCISCO","CA",94124,37.7360525720001,-122.38954781,450,"1614 MCKINNON AVENUE, SAN FRANCISCO, CA, 94124","Match","Exact","1614 MCKINNON AVE, SAN FRANCISCO, CA, 94124",192289916,"R"
77451,"1614 MICHAEL DRIVE","PITTSBURGH","PA",15227,40.3950423160001,-79.9616738619999,451,"1614 MICHAEL DRIVE, PITTSBURGH, PA, 15227","Match","Exact","1614 MICHAEL DR, PITTSBURGH, PA, 15227",639548494,"R"
77452,"1614 N NAVAJO DR","FLAGSTAFF","AZ",86001,35.215014427,-111.652141592,452,"1614 N NAVAJO DR, FLAGSTAFF, AZ, 86001","Match","Exact","1614 N NAVAJO DR, FLAGSTAFF, AZ, 86001",188860631,"R"
77453,"1614 NE 17TH TERRACE","OCALA","FL",34470,29.2018956100001,-82.1150890599999,453,"1614 NE 17TH TERRACE, OCALA, FL, 34470","Match","Non_Exact","1614 NE 17TH TER, OCALA, FL, 34470",116728112,"L"
77454,"1614 NE CRUMLEY ST","GRAIN VALLEY","MO",64029,NA,NA,454,"1614 NE CRUMLEY ST, GRAIN VALLEY, MO, 64029","No_Match",NA,NA,NA,NA
77455,"1614 NE OCEAN BLVD","STUART","FL",34996,27.2240930770001,-80.180797265,455,"1614 NE OCEAN BLVD, STUART, FL, 34996","Match","Exact","1614 NE OCEAN BLVD, STUART, FL, 34996",618063132,"L"
77456,"1614 NORTH 6TH STREET","HARRISBURG","PA",17102,40.274948115,-76.887568281,456,"1614 NORTH 6TH STREET, HARRISBURG, PA, 17102","Match","Exact","1614 N 6TH ST, HARRISBURG, PA, 17102",70817166,"L"
77457,"1614 NORTH 72ND AVENUE","PHOENIX","AZ",85035,33.466409035,-112.214527147,457,"1614 NORTH 72ND AVENUE, PHOENIX, AZ, 85035","Match","Exact","1614 N 72ND AVE, PHOENIX, AZ, 85035",128199669,"L"
77458,"1614 OAK TREE DRIVE","ROSEVILLE","CA",95661,38.7389054670001,-121.258880549,458,"1614 OAK TREE DRIVE, ROSEVILLE, CA, 95661","Match","Non_Exact","1614 OAKTREE DR, ROSEVILLE, CA, 95661",106765390,"R"
77459,"1614 PARADISE COVE LANE","WELLINGTON","FL",33449,NA,NA,459,"1614 PARADISE COVE LANE, WELLINGTON, FL, 33449","No_Match",NA,NA,NA,NA
77460,"1614 QUARRY DRIVE","KILLEEN","TX",76549,31.0944633080001,-97.705859665,460,"1614 QUARRY DRIVE, KILLEEN, TX, 76549","Match","Non_Exact","1614 QUARRY DR, KILLEEN, TX, 76543",146197962,"R"
77461,"1614 RIVERVIEW LANE","TOMAHAWK","WI",54487,45.479908247,-89.699058522,461,"1614 RIVERVIEW LANE, TOMAHAWK, WI, 54487","Match","Exact","1614 RIVERVIEW LN, TOMAHAWK, WI, 54487",201789341,"R"
77462,"1614 S 74TH AVE","YAKIMA","WA",98908,46.57666312,-120.6070877,462,"1614 S 74TH AVE, YAKIMA, WA, 98908","Match","Exact","1614 S 74TH AVE, YAKIMA, WA, 98908",184960409,"R"
77463,"1614 S CANYON WOODS LN","SPOKANE","WA",99224,47.640694377,-117.45244418,463,"1614 S CANYON WOODS LN, SPOKANE, WA, 99224","Match","Exact","1614 S CANYON WOODS LN, SPOKANE, WA, 99224",652965708,"R"
77464,"1614 SE STEPHENS STREET SUITE 9","ROSEBURG","OR",97470,NA,NA,464,"1614 SE STEPHENS STREET SUITE 9, ROSEBURG, OR, 97470","Tie",NA,NA,NA,NA
77465,"1614 SIDNEY BAKER ST","KERRVILLE","TX",78028,30.060797108,-99.125214349,465,"1614 SIDNEY BAKER ST, KERRVILLE, TX, 78028","Match","Exact","1614 SIDNEY BAKER ST, KERRVILLE, TX, 78028",639946124,"L"
77466,"1614 SIDNEY BAKER","KERRVILLE","TX",78028,NA,NA,466,"1614 SIDNEY BAKER, KERRVILLE, TX, 78028","Tie",NA,NA,NA,NA
77467,"1614 SOUTH DESPLAINES STREET","CHICAGO","IL",60616,41.8596992130001,-87.642935408,467,"1614 SOUTH DESPLAINES STREET, CHICAGO, IL, 60616","Match","Exact","1614 S DESPLAINES ST, CHICAGO, IL, 60616",605101618,"R"
77468,"1614 SOUTH MEDIO RIVER CIRCLE","SUGAR LAND","TX",77478,29.602894959,-95.58973044,468,"1614 SOUTH MEDIO RIVER CIRCLE, SUGAR LAND, TX, 77478","Match","Exact","1614 S MEDIO RIVER CIR, SUGAR LAND, TX, 77478",78290188,"R"
77469,"1614 SPRINGWOOD DR","HOUSTON","TX",77055,29.7990508880001,-95.508253049,469,"1614 SPRINGWOOD DR, HOUSTON, TX, 77055","Match","Exact","1614 SPRINGWOOD DR, HOUSTON, TX, 77055",96026342,"R"
77470,"1614 TIMBER CREEK","MISSIOURI CITY","TX",77459,29.5575358360001,-95.522959616,470,"1614 TIMBER CREEK, MISSIOURI CITY, TX, 77459","Match","Non_Exact","1614 TIMBER CREEK DR, MISSOURI CITY, TX, 77459",78296000,"L"
77471,"1614 VETERAN AVE STE 102","LOS ANGELES","CA",90024,34.049705073,-118.440793457,471,"1614 VETERAN AVE STE 102, LOS ANGELES, CA, 90024","Match","Exact","1614 VETERAN AVE, LOS ANGELES, CA, 90024",652036813,"L"
77472,"1614 W NEWPORT PIKE","WILMINGTON","DE",19804,39.715366825,-75.627632809,472,"1614 W NEWPORT PIKE, WILMINGTON, DE, 19804","Match","Exact","1614 W NEWPORT PIKE, WILMINGTON, DE, 19804",606275374,"L"
77473,"1614 W ROOSEVELT  SUITE 106","PHOENIX","AZ",85007,NA,NA,473,"1614 W ROOSEVELT  SUITE 106, PHOENIX, AZ, 85007","No_Match",NA,NA,NA,NA
77474,"1614 W STEPHANIE LN","QUEEN CREEK","AZ",85142,33.1990655160001,-111.583420121,474,"1614 W STEPHANIE LN, QUEEN CREEK, AZ, 85142","Match","Non_Exact","1614 STEPHANIE DR, QUEEN CREEK, AZ, 85142",627629352,"R"
77475,"1614 W VELVET OAKS AVE","HARLINGEN","TX",78550,26.217971026,-97.712062434,475,"1614 W VELVET OAKS AVE, HARLINGEN, TX, 78550","Match","Exact","1614 W VELVET OAKS AVE, HARLINGEN, TX, 78550",90003546,"R"
77476,"1614 WEST LYNN DRIVE","WEST CHESTER","PA",19382,39.9588980030001,-75.512641581,476,"1614 WEST LYNN DRIVE, WEST CHESTER, PA, 19382","Match","Exact","1614 W LYNN DR, WEST CHESTER, PA, 19382",179514832,"R"
77477,"1614 WINDSOR RD","TEANECK","NJ",7666,40.907507545,-74.004578744,477,"1614 WINDSOR RD, TEANECK, NJ, 7666","Match","Exact","1614 WINDSOR RD, TEANECK, NJ, 07666",64389367,"L"
77478,"1614","FORT DEFIANCE","AZ",86504,NA,NA,478,"1614, FORT DEFIANCE, AZ, 86504","No_Match",NA,NA,NA,NA
77479,"16140 148TH AVE","SPRING LAKE","MI",49456,43.0620183840001,-86.155882202,479,"16140 148TH AVE, SPRING LAKE, MI, 49456","Match","Exact","16140 148TH AVE, SPRING LAKE, MI, 49456",650176908,"R"
77480,"16140 MARSHFIELD AVENUE","MARKHAM","IL",60428,41.5962716550001,-87.657154546,480,"16140 MARSHFIELD AVENUE, MARKHAM, IL, 60428","Match","Exact","16140 MARSHFIELD AVE, MARKHAM, IL, 60428",111705990,"R"
77481,"16140 SAND CANYON AVE","IRVINE","CA",92618,33.6622886750001,-117.7733521,481,"16140 SAND CANYON AVE, IRVINE, CA, 92618","Match","Exact","16140 SAND CANYON AVE, IRVINE, CA, 92618",612206695,"L"
77482,"16140 SE EASTGATE WAY APT E105","BELLEVUE","WA",98008,47.577032929,-122.127003683,482,"16140 SE EASTGATE WAY APT E105, BELLEVUE, WA, 98008","Match","Non_Exact","16140 SE EASTGATE WAY, BELLEVUE, WA, 98008",187105395,"L"
77483,"16140 SHERFIELD PL","SOUTHFIELD","MI",48075,42.4769389210001,-83.208687465,483,"16140 SHERFIELD PL, SOUTHFIELD, MI, 48075","Match","Exact","16140 SHERFIELD PL, SOUTHFIELD, MI, 48075",69740071,"R"
77484,"16141 HOMINY CT","LAKEVILLE","MN",55044,44.716245556,-93.241442475,484,"16141 HOMINY CT, LAKEVILLE, MN, 55044","Match","Exact","16141 HOMINY CT, LAKEVILLE, MN, 55044",37982035,"R"
77485,"16141 MALAGA LN    A","HUNTINGTON BEACH","CA",92647,33.727840601,-117.986554626,485,"16141 MALAGA LN    A, HUNTINGTON BEACH, CA, 92647","Match","Exact","16141 MALAGA LN, HUNTINGTON BEACH, CA, 92647",144017897,"R"
77486,"16141 S RAINTREE DR","OLATHE","KS",66062,38.8360546640001,-94.773923316,486,"16141 S RAINTREE DR, OLATHE, KS, 66062","Match","Exact","16141 S RAINTREE DR, OLATHE, KS, 66062",91328574,"R"
77487,"16142 RUDGEWICK LANE","SPRING","TX",77379,30.0007260080001,-95.5457602609999,487,"16142 RUDGEWICK LANE, SPRING, TX, 77379","Match","Exact","16142 RUDGEWICK LN, SPRING, TX, 77379",96005755,"R"
77488,"16142 VIA LUPINE","SAN LORENZO","CA",94580,37.6747421210001,-122.134820582,488,"16142 VIA LUPINE, SAN LORENZO, CA, 94580","Match","Exact","16142 VIA LUPINE, SAN LORENZO, CA, 94580",125019243,"L"
77489,"16143 KOKANEE ROAD SUITE A","APPLE VALLEY","CA",92307,34.544924151,-117.268690004,489,"16143 KOKANEE ROAD SUITE A, APPLE VALLEY, CA, 92307","Match","Exact","16143 KOKANEE RD, APPLE VALLEY, CA, 92307",614840532,"L"
77490,"16144 WOOD STREET","MARKHAM","IL",60428,41.596209727,-87.6607669539999,490,"16144 WOOD STREET, MARKHAM, IL, 60428","Match","Exact","16144 WOOD ST, MARKHAM, IL, 60428",111705948,"R"
77491,"16145 - 673RD AVE","HUTCHINSON","MN",55350,NA,NA,491,"16145 - 673RD AVE, HUTCHINSON, MN, 55350","No_Match",NA,NA,NA,NA
77492,"16148 S KEDZIE","MARKHAM","IL",60428,41.5959018,-87.6945635119999,492,"16148 S KEDZIE, MARKHAM, IL, 60428","Match","Non_Exact","16148 KEDZIE AVE, MARKHAM, IL, 60428",112224460,"R"
77493,"16148 SAND CANYON AVE","IRVINE","CA",92618,33.66223511,-117.773405414,493,"16148 SAND CANYON AVE, IRVINE, CA, 92618","Match","Exact","16148 SAND CANYON AVE, IRVINE, CA, 92618",612206695,"L"
77494,"16149 TWIN COURT","BROOKSVILLE","FL",34614,28.6207537170001,-82.464519406,494,"16149 TWIN COURT, BROOKSVILLE, FL, 34614","Match","Exact","16149 TWIN CT, BROOKSVILLE, FL, 34614",85426601,"R"
77495,"161492","DULUTH","MN",55806,NA,NA,495,"161492, DULUTH, MN, 55806","No_Match",NA,NA,NA,NA
77496,"1615 10TH AVENUE","N GRAND FORKS","ND",58203,47.929211638,-97.049764361,496,"1615 10TH AVENUE, N GRAND FORKS, ND, 58203","Match","Non_Exact","1615 10TH AVE N, GRAND FORKS, ND, 58203",171275690,"L"
77497,"1615 262ND STREET NO 3","HARBOR CITY","CA",90710,NA,NA,497,"1615 262ND STREET NO 3, HARBOR CITY, CA, 90710","No_Match",NA,NA,NA,NA
77498,"1615 2ND ST S APT 8","NAMPA","ID",83651,43.575058212,-116.556348814,498,"1615 2ND ST S APT 8, NAMPA, ID, 83651","Match","Exact","1615 2ND ST S, NAMPA, ID, 83651",122787092,"L"
77499,"1615 3RD ST","LIVERMORE","CA",94550,37.6780454460001,-121.77521181,499,"1615 3RD ST, LIVERMORE, CA, 94550","Match","Exact","1615 3RD ST, LIVERMORE, CA, 94550",125035526,"R"
77500,"1615 6TH ST SE","RUSKIN","FL",33570,27.701681568,-82.4271034559999,500,"1615 6TH ST SE, RUSKIN, FL, 33570","Match","Exact","1615 6TH ST SE, RUSKIN, FL, 33570",649946599,"L"
