"ID","Address","City","State","Zip","lat","long","id","input_address","match_indicator","match_type","matched_address","tiger_line_id","tiger_side"
324001,"N2004 HILL ROAD","MAUSTON","WI",53948,43.708545804,-90.0876894209999,1,"N2004 HILL ROAD, MAUSTON, WI, 53948","Match","Exact","N2004 HILL RD, MAUSTON, WI, 53948",50953577,"R"
324002,"N20522 BERTERSON LANE","ETTRICK","WI",54627,NA,NA,2,"N20522 BERTERSON LANE, ETTRICK, WI, 54627","No_Match",NA,NA,NA,NA
324003,"N20657 ROBINSON LANE","ETTRICK","WI",54627,44.1377116680001,-91.157048746,3,"N20657 ROBINSON LANE, ETTRICK, WI, 54627","Match","Exact","N20657 ROBINSON LN, ETTRICK, WI, 54627",46245085,"L"
324004,"N208 COLBO ROAD","BURLINGTON","WI",53105,NA,NA,4,"N208 COLBO ROAD, BURLINGTON, WI, 53105","No_Match",NA,NA,NA,NA
324005,"N2082 STATE HWY 13","MEDFORD","WI",54451,45.1086792940001,-90.329066029,5,"N2082 STATE HWY 13, MEDFORD, WI, 54451","Match","Exact","N2082 STATE HWY 13, MEDFORD, WI, 54451",117240697,"R"
324006,"N2093 REAL SHORT RD","LODI","WI",53555,43.354613355,-89.559464901,6,"N2093 REAL SHORT RD, LODI, WI, 53555","Match","Exact","N2093 REAL SHORT RD, LODI, WI, 53555",73339088,"R"
324007,"N2110 MIGHTY MAPLES ROAD","MELROSE","WI",54642,44.144820071,-91.089440011,7,"N2110 MIGHTY MAPLES ROAD, MELROSE, WI, 54642","Match","Exact","N2110 MIGHTY MAPLES RD, MELROSE, WI, 54642",50687338,"L"
324008,"N2136 VALLEY ROAD","LA CROSSE","WI",54601,43.7985710580001,-91.1951129019999,8,"N2136 VALLEY ROAD, LA CROSSE, WI, 54601","Match","Exact","N2136 VALLEY RD, LA CROSSE, WI, 54601",51021538,"R"
324009,"N21752 PACH LANE","PERRONVILLE","MI",49873,NA,NA,9,"N21752 PACH LANE, PERRONVILLE, MI, 49873","No_Match",NA,NA,NA,NA
324010,"N2190 CTY RD K","WAUPACA","WI",54981,NA,NA,10,"N2190 CTY RD K, WAUPACA, WI, 54981","No_Match",NA,NA,NA,NA
324011,"N2192 CLARNO ROAD","MONROE","WI",53566,42.57873936,-89.646653913,11,"N2192 CLARNO ROAD, MONROE, WI, 53566","Match","Exact","N2192 CLARNO RD, MONROE, WI, 53566",48536503,"R"
324012,"N2192 CLEAR VIEW LANE","FORT ATKINSON","WI",53538,42.9192411440001,-88.774572762,12,"N2192 CLEAR VIEW LANE, FORT ATKINSON, WI, 53538","Match","Non_Exact","N2192 CLEARVIEW LN, FORT ATKINSON, WI, 53538",53217431,"R"
324013,"N21W24304 CUMBERLAND DRIVE 29L","PEWAUKEE","WI",53072,43.059089171,-88.231274834,13,"N21W24304 CUMBERLAND DRIVE 29L, PEWAUKEE, WI, 53072","Match","Exact","N21W24304 CUMBERLAND DR, PEWAUKEE, WI, 53072",53850029,"R"
324014,"N22 W24117 CLOISTER CIRCLE 7E","PEWAUKEE","WI",53072,NA,NA,14,"N22 W24117 CLOISTER CIRCLE 7E, PEWAUKEE, WI, 53072","Tie",NA,NA,NA,NA
324015,"N22676 HIGHWAY 53","ETTRICK","WI",54627,NA,NA,15,"N22676 HIGHWAY 53, ETTRICK, WI, 54627","No_Match",NA,NA,NA,NA
324016,"N2304 PLEASANT VIEW DRIVE","LODI","WI",53555,43.360250971,-89.633473436,16,"N2304 PLEASANT VIEW DRIVE, LODI, WI, 53555","Match","Non_Exact","N2304 PLEASANT VIEW CIR, LODI, WI, 53555",639269075,"R"
324017,"N2346 TENNY ROAD","BRODHEAD","WI",53520,42.5862733100001,-89.383067334,17,"N2346 TENNY ROAD, BRODHEAD, WI, 53520","Match","Exact","N2346 TENNY RD, BRODHEAD, WI, 53520",48535457,"R"
324018,"N2348 KUTZ ROAD","FORT ATKINSON","WI",53538,42.924379947,-88.801980145,18,"N2348 KUTZ ROAD, FORT ATKINSON, WI, 53538","Match","Exact","N2348 KUTZ RD, FORT ATKINSON, WI, 53538",642923513,"R"
324019,"N2356 LINDNER LN","OXFORD","WI",53952,43.7216343690001,-89.588026164,19,"N2356 LINDNER LN, OXFORD, WI, 53952","Match","Exact","N2356 LINDNER LN, OXFORD, WI, 53952",73204320,"R"
324020,"N2385 SPRING STREET","JUDA","WI",53500,42.590699064,-89.509659815,20,"N2385 SPRING STREET, JUDA, WI, 53500","Match","Non_Exact","N2385 SPRING ST, JUDA, WI, 53550",48533885,"L"
324021,"N2420 COUNTY RD O","DELAVAN","WI",53115,NA,NA,21,"N2420 COUNTY RD O, DELAVAN, WI, 53115","No_Match",NA,NA,NA,NA
324022,"N2550 STATE ROAD 47","APPLETON","WI",54913,NA,NA,22,"N2550 STATE ROAD 47, APPLETON, WI, 54913","No_Match",NA,NA,NA,NA
324023,"N25W24333 RIVER PARK DRIVE UNIT 420","PEWAUKEE","WI",53072,43.066670118,-88.22959314,23,"N25W24333 RIVER PARK DRIVE UNIT 420, PEWAUKEE, WI, 53072","Match","Exact","N25W24333 RIVER PARK DR, PEWAUKEE, WI, 53072",648276374,"L"
324024,"N25W30824 OVERLOOK COURT","PEWAUKEE","WI",53072,43.065117822,-88.3588431269999,24,"N25W30824 OVERLOOK COURT, PEWAUKEE, WI, 53072","Match","Exact","N25W30824 OVERLOOK CT, PEWAUKEE, WI, 53072",53831387,"R"
324025,"N2649 SCHOFIELD RD","LAKE GENEVA","WI",53147,42.5867992490001,-88.482316507,25,"N2649 SCHOFIELD RD, LAKE GENEVA, WI, 53147","Match","Exact","N2649 SCHOFIELD RD, LAKE GENEVA, WI, 53147",53671959,"L"
324026,"N2662 WOODS VIEW LANE","CLINTONVILLE","WI",54929,44.6841229360001,-88.669448003,26,"N2662 WOODS VIEW LANE, CLINTONVILLE, WI, 54929","Match","Exact","N2662 WOODS VIEW LN, CLINTONVILLE, WI, 54929",618388817,"R"
324027,"N27072 COUNTY ROAD T","ARCADIA","WI",54612,NA,NA,27,"N27072 COUNTY ROAD T, ARCADIA, WI, 54612","No_Match",NA,NA,NA,NA
324028,"N2767 CLOVERLAND ROAD","CONRATH","WI",54731,45.386566304,-91.0279756469999,28,"N2767 CLOVERLAND ROAD, CONRATH, WI, 54731","Match","Exact","N2767 CLOVERLAND RD, CONRATH, WI, 54731",126539324,"L"
324029,"N2860 W PINE HILL RD","BLACK RIVER FALLS","WI",54615,44.172258835,-90.8699099419999,29,"N2860 W PINE HILL RD, BLACK RIVER FALLS, WI, 54615","Match","Exact","N2860 W PINE HILL RD, BLACK RIVER FALLS, WI, 54615",50688706,"R"
324030,"N2863 LAKESHORE ROAD","KEWAUNEE","WI",54216,44.427392911,-87.507029341,30,"N2863 LAKESHORE ROAD, KEWAUNEE, WI, 54216","Match","Exact","N2863 LAKESHORE RD, KEWAUNEE, WI, 54216",148178472,"L"
324031,"N2875 DUSTY LANE","CASCADE","WI",53011,43.643941914,-88.026466993,31,"N2875 DUSTY LANE, CASCADE, WI, 53011","Match","Exact","N2875 DUSTY LN, CASCADE, WI, 53011",79522167,"L"
324032,"N28W24389 SINGLE TREE CT","PEWAUKEE","WI",53072,43.070789845,-88.2326679669999,32,"N28W24389 SINGLE TREE CT, PEWAUKEE, WI, 53072","Match","Exact","N28W24389 SINGLE TREE CT, PEWAUKEE, WI, 53072",221922113,"R"
324033,"N2949 ICELAND PATH","REDGRANITE","WI",54970,NA,NA,33,"N2949 ICELAND PATH, REDGRANITE, WI, 54970","No_Match",NA,NA,NA,NA
324034,"N2965 COUNTY HIGHWAY M","WAUPUN","WI",53963,NA,NA,34,"N2965 COUNTY HIGHWAY M, WAUPUN, WI, 53963","No_Match",NA,NA,NA,NA
324035,"N2982 POINTE AUX CHENES RD","SAINT IGNACE","MI",49781,45.9244459980001,-84.90379469,35,"N2982 POINTE AUX CHENES RD, SAINT IGNACE, MI, 49781","Match","Exact","N2982 POINTE AUX CHENES RD, SAINT IGNACE, MI, 49781",130708440,"L"
324036,"N29W29902 SHEL MAR DR","PEWAUKEE","WI",53072,43.072668885,-88.343265194,36,"N29W29902 SHEL MAR DR, PEWAUKEE, WI, 53072","Match","Non_Exact","N29 SHEL-MAR DR, PEWAUKEE, WI, 53072",53809118,"L"
324037,"N3041 MILL RD","WALDO","WI",53093,43.650546295,-87.920498102,37,"N3041 MILL RD, WALDO, WI, 53093","Match","Exact","N3041 MILL RD, WALDO, WI, 53093",645277510,"L"
324038,"N3049 NELSON LANE","STOCKHOLM",NA,54769,44.5215556960001,-92.206877541,38,"N3049 NELSON LANE, STOCKHOLM, , 54769","Match","Exact","N3049 NELSON LN, STOCKHOLM, WI, 54769",46205467,"L"
324039,"N3070 SMITH VALLEY RD","LA CROSSE","WI",54601,43.8288650050001,-91.1693556439999,39,"N3070 SMITH VALLEY RD, LA CROSSE, WI, 54601","Match","Exact","N3070 SMITH VALLEY RD, LA CROSSE, WI, 54601",51023333,"R"
324040,"N3121 SLEEPY HOLLOW DRIVE","FALL RIVER","WI",53932,43.3940441670001,-89.037519091,40,"N3121 SLEEPY HOLLOW DRIVE, FALL RIVER, WI, 53932","Match","Non_Exact","N3121 SLEEPY HOLLOW RD, FALL RIVER, WI, 53932",642531821,"L"
324041,"N3123 LUNDT RD","HELENVILLE","WI",53137,NA,NA,41,"N3123 LUNDT RD, HELENVILLE, WI, 53137","No_Match",NA,NA,NA,NA
324042,"N3142 FEATHER RIDGE DRIVE","APPLETON","WI",54913,44.3562045400001,-88.383819465,42,"N3142 FEATHER RIDGE DRIVE, APPLETON, WI, 54913","Match","Exact","N3142 FEATHER RIDGE DR, APPLETON, WI, 54913",74917756,"R"
324043,"N3238 SOUTH CEDAR ROAD","CAMBRIDGE","WI",53523,42.9509670080001,-88.983903348,43,"N3238 SOUTH CEDAR ROAD, CAMBRIDGE, WI, 53523","Match","Exact","N3238 S CEDAR RD, CAMBRIDGE, WI, 53523",53236348,"R"
324044,"N3285 STATE HWY 67","CAMPBELLSPORT","WI",53010,43.6531692840001,-88.178134416,44,"N3285 STATE HWY 67, CAMPBELLSPORT, WI, 53010","Match","Exact","N3285 STATE HWY 67, CAMPBELLSPORT, WI, 53010",74855660,"R"
324045,"N33W23799 FIELDSIDE RD","PEWAUKEE","WI",53072,43.0801785940001,-88.221821558,45,"N33W23799 FIELDSIDE RD, PEWAUKEE, WI, 53072","Match","Exact","N33W23799 FIELDSIDE RD, PEWAUKEE, WI, 53072",53832925,"R"
324046,"N34 W23314 HUNTERS COURT 203","PEWAUKEE","WI",53072,NA,NA,46,"N34 W23314 HUNTERS COURT 203, PEWAUKEE, WI, 53072","Tie",NA,NA,NA,NA
324047,"N3400 WELSH ROAD","JUNEAU","WI",53039,43.3150548510001,-88.759604297,47,"N3400 WELSH ROAD, JUNEAU, WI, 53039","Match","Exact","N3400 WELSH RD, JUNEAU, WI, 53039",53532468,"R"
324048,"N3481 WAHLER RD","TIGERTON","WI",54486,44.709513364,-88.971509672,48,"N3481 WAHLER RD, TIGERTON, WI, 54486","Match","Exact","N3481 WAHLER RD, TIGERTON, WI, 54486",126866636,"L"
324049,"N34W23704 FIVE FIELDS RD APT 202","PEWAUKEE","WI",53072,43.0831389940001,-88.219903164,49,"N34W23704 FIVE FIELDS RD APT 202, PEWAUKEE, WI, 53072","Match","Exact","N34W23704 FIVE FIELDS RD, PEWAUKEE, WI, 53072",53848080,"L"
324050,"N3567 STATE ROAD 32","SHEBOYGAN FALLS","WI",53085,NA,NA,50,"N3567 STATE ROAD 32, SHEBOYGAN FALLS, WI, 53085","No_Match",NA,NA,NA,NA
324051,"N3605 CTY RD S","ANTIGO","WI",54409,NA,NA,51,"N3605 CTY RD S, ANTIGO, WI, 54409","No_Match",NA,NA,NA,NA
324052,"N3618 RIVERSIDE LANE","JEFFERSON","WI",53549,42.9740586870001,-88.803126748,52,"N3618 RIVERSIDE LANE, JEFFERSON, WI, 53549","Match","Exact","N3618 RIVERSIDE LN, JEFFERSON, WI, 53549",53227816,"L"
324053,"N3633 NORTH WATER STREET","CAROLINE","WI",54928,NA,NA,53,"N3633 NORTH WATER STREET, CAROLINE, WI, 54928","No_Match",NA,NA,NA,NA
324054,"N368 US HWY 51","DEFOREST","WI",53532,43.290381359,-89.3247372279999,54,"N368 US HWY 51, DEFOREST, WI, 53532","Match","Exact","N368 US HWY 51, DEFOREST, WI, 53532",73325779,"R"
324055,"N3686 COUNTY RD X","GLEASON","WI",54435,NA,NA,55,"N3686 COUNTY RD X, GLEASON, WI, 54435","No_Match",NA,NA,NA,NA
324056,"N3690 ELMWOOD RD","HAWKINS","WI",54530,45.510172034,-90.669050172,56,"N3690 ELMWOOD RD, HAWKINS, WI, 54530","Match","Exact","N3690 ELMWOOD RD, HAWKINS, WI, 54530",653396221,"L"
324057,"N37 W7599 GREYSTONE CT","CEDARBURG","WI",53012,43.289847174,-88.0027291769999,57,"N37 W7599 GREYSTONE CT, CEDARBURG, WI, 53012","Match","Exact","N37 GREYSTONE CT, CEDARBURG, WI, 53012",95909633,"L"
324058,"N375 COUNTY ROAD 6A","NAPOLEON","OH",43545,41.3618367060001,-83.989843816,58,"N375 COUNTY ROAD 6A, NAPOLEON, OH, 43545","Match","Exact","N375 CO RD 6A, NAPOLEON, OH, 43545",33774736,"L"
324059,"N3851 BONEHAM ADDITION ROAD","MARINETTE","WI",54143,45.098130177,-87.693414225,59,"N3851 BONEHAM ADDITION ROAD, MARINETTE, WI, 54143","Match","Exact","N3851 BONEHAM ADDITION RD, MARINETTE, WI, 54143",170010565,"L"
324060,"N38705 TUFF COULEE RD","BLAIR","WI",54616,44.3973212080001,-91.1752264679999,60,"N38705 TUFF COULEE RD, BLAIR, WI, 54616","Match","Exact","N38705 TUFF COULEE RD, BLAIR, WI, 54616",647200119,"L"
324061,"N3927 COUNTY HIGHWAY J","MONROE","WI",53566,NA,NA,61,"N3927 COUNTY HIGHWAY J, MONROE, WI, 53566","No_Match",NA,NA,NA,NA
324062,"N3928 PARK ROAD","BRODHEAD","WI",53520,42.636352285,-89.411562852,62,"N3928 PARK ROAD, BRODHEAD, WI, 53520","Match","Exact","N3928 PARK RD, BRODHEAD, WI, 53520",639695820,"R"
324063,"N3937 VISTA DR","CAMPBELLSPORT","WI",53010,43.683256064,-88.200661484,63,"N3937 VISTA DR, CAMPBELLSPORT, WI, 53010","Match","Exact","N3937 VISTA DR, CAMPBELLSPORT, WI, 53010",74827847,"R"
324064,"N3938 CTY ROAD F","BRODHEAD","WI",53520,NA,NA,64,"N3938 CTY ROAD F, BRODHEAD, WI, 53520","No_Match",NA,NA,NA,NA
324065,"N3963 COUNTY ROAD I","TONY","WI",54563,NA,NA,65,"N3963 COUNTY ROAD I, TONY, WI, 54563","No_Match",NA,NA,NA,NA
324066,"N3965 N STEINE RD","ETTRICK","WI",54627,44.21097081,-91.128606025,66,"N3965 N STEINE RD, ETTRICK, WI, 54627","Match","Exact","N3965 N STEINE RD, ETTRICK, WI, 54627",653034278,"L"
324067,"N4021 COUNTY ROAD E","FREEDOM","WI",54130,NA,NA,67,"N4021 COUNTY ROAD E, FREEDOM, WI, 54130","No_Match",NA,NA,NA,NA
324068,"N4024 STATE ROAD 32","SHEBOYGAN FALLS","WI",53085,NA,NA,68,"N4024 STATE ROAD 32, SHEBOYGAN FALLS, WI, 53085","No_Match",NA,NA,NA,NA
324069,"N4032 SUNNY VIEW ROAD","WAUPACA","WI",54981,44.379898043,-89.017050594,69,"N4032 SUNNY VIEW ROAD, WAUPACA, WI, 54981","Match","Exact","N4032 SUNNY VIEW RD, WAUPACA, WI, 54981",74965286,"R"
324070,"N409 OLD 26 ROAD","ANIWA","WI",54408,45.04035306,-89.1836264299999,70,"N409 OLD 26 ROAD, ANIWA, WI, 54408","Match","Exact","N409 OLD 26 RD, ANIWA, WI, 54408",196403288,"R"
324071,"N4126 DUCK CREEK COURT","FREEDOM","WI",54130,44.3865653410001,-88.297523658,71,"N4126 DUCK CREEK COURT, FREEDOM, WI, 54130","Match","Exact","N4126 DUCK CREEK CT, FREEDOM, WI, 54130",74915726,"R"
324072,"N4144 DIVISION DRIVE","MEDFORD","WI",54451,45.176649259,-90.494698259,72,"N4144 DIVISION DRIVE, MEDFORD, WI, 54451","Match","Exact","N4144 DIVISION DR, MEDFORD, WI, 54451",117238082,"R"
324073,"N4154 MARKET ROAD","SHIOCTON","WI",54170,44.3886036420001,-88.536450069,73,"N4154 MARKET ROAD, SHIOCTON, WI, 54170","Match","Exact","N4154 MARKET RD, SHIOCTON, WI, 54170",639272717,"R"
324074,"N4154 MOODY LAKE ROAD","SARONA","WI",54870,45.7789736230001,-91.743965348,74,"N4154 MOODY LAKE ROAD, SARONA, WI, 54870","Match","Exact","N4154 MOODY LAKE RD, SARONA, WI, 54870",196354911,"R"
324075,"N427 RIVER DRIVE","MENOMINEE","MI",49858,45.125564238,-87.6701531099999,75,"N427 RIVER DRIVE, MENOMINEE, MI, 49858","Match","Exact","N427 RIVER DR, MENOMINEE, MI, 49858",170210757,"L"
324076,"N4398 US HIGHWAY 12","HUMBIRD","WI",54746,44.5762462820001,-90.913165207,76,"N4398 US HIGHWAY 12, HUMBIRD, WI, 54746","Match","Exact","N4398 US HWY 12, HUMBIRD, WI, 54746",50862937,"R"
324077,"N44 W22925 BRIDGE ST","PEWAUKEE","WI",53072,NA,NA,77,"N44 W22925 BRIDGE ST, PEWAUKEE, WI, 53072","Tie",NA,NA,NA,NA
324078,"N4411 13TH LANE","WAUTOMA","WI",54982,44.1306540040001,-89.353108635,78,"N4411 13TH LANE, WAUTOMA, WI, 54982","Match","Exact","N4411 13TH LN, WAUTOMA, WI, 54982",637372224,"L"
324079,"N4419 BARTON ROAD S","OAKFIELD","WI",53065,NA,NA,79,"N4419 BARTON ROAD S, OAKFIELD, WI, 53065","No_Match",NA,NA,NA,NA
324080,"N4439 FOREST CREEK DR","SHELL LAKE","WI",54871,45.7898387180001,-91.915349635,80,"N4439 FOREST CREEK DR, SHELL LAKE, WI, 54871","Match","Exact","N4439 FOREST CREEK DR, SHELL LAKE, WI, 54871",196356892,"L"
324081,"N4442 COUNTY ROAD EE","FREEDOM","WI",54913,NA,NA,81,"N4442 COUNTY ROAD EE, FREEDOM, WI, 54913","No_Match",NA,NA,NA,NA
324082,"N4481 HEISE ROAD","WHITE LAKE","WI",54491,45.1861545790001,-88.707334856,82,"N4481 HEISE ROAD, WHITE LAKE, WI, 54491","Match","Exact","N4481 HEISE RD, WHITE LAKE, WI, 54491",196398387,"L"
324083,"N4486 STATE HIGHWAY M-35","MENOMINEE","MI",49858,NA,NA,83,"N4486 STATE HIGHWAY M-35, MENOMINEE, MI, 49858","No_Match",NA,NA,NA,NA
324084,"N44W7230 W POINTE ST","CEDARBURG","WI",53012,43.291438928,-88.0001412989999,84,"N44W7230 W POINTE ST, CEDARBURG, WI, 53012","Match","Exact","N44W7230 W POINTE ST, CEDARBURG, WI, 53012",95909638,"L"
324085,"N4571 CTY ROAD E","HUSTISFORD","WI",53034,NA,NA,85,"N4571 CTY ROAD E, HUSTISFORD, WI, 53034","No_Match",NA,NA,NA,NA
324086,"N4680 INDIAN POINT ROAD","SULLIVAN","WI",53178,43.0100614410001,-88.548204033,86,"N4680 INDIAN POINT ROAD, SULLIVAN, WI, 53178","Match","Exact","N4680 INDIAN POINT RD, SULLIVAN, WI, 53178",53222232,"R"
324087,"N4685 CHICAGO JCT RD","SPOONER","WI",54801,NA,NA,87,"N4685 CHICAGO JCT RD, SPOONER, WI, 54801","No_Match",NA,NA,NA,NA
324088,"N4686 455TH STREET","MENOMONIE","WI",54751,44.8515475940001,-91.932784095,88,"N4686 455TH STREET, MENOMONIE, WI, 54751","Match","Exact","N4686 455TH ST, MENOMONIE, WI, 54751",79001948,"L"
324089,"N4726 MORAINE LANE","MEDFORD","WI",54451,45.204044422,-90.627241842,89,"N4726 MORAINE LANE, MEDFORD, WI, 54451","Match","Exact","N4726 MORAINE LN, MEDFORD, WI, 54451",617444820,"L"
324090,"N4730 HIGHWAY 73","INGRAM","WI",54526,45.459272443,-90.816788983,90,"N4730 HIGHWAY 73, INGRAM, WI, 54526","Match","Non_Exact","N4730 STATE HWY 73, INGRAM, WI, 54526",126536692,"R"
324091,"N479 JULIUS DR","APPLETON","WI",54914,44.2569041300001,-88.557332951,91,"N479 JULIUS DR, APPLETON, WI, 54914","Match","Exact","N479 JULIUS DR, APPLETON, WI, 54914",74895324,"R"
324092,"N4795 PRICE POLAR ROAD","BRYANT","WI",54418,45.191733739,-88.968761108,92,"N4795 PRICE POLAR ROAD, BRYANT, WI, 54418","Match","Exact","N4795 PRICE POLAR RD, BRYANT, WI, 54418",196397374,"R"
324093,"N4809 METOVALE RD","BRANDON","WI",53919,43.7199659250001,-88.765072668,93,"N4809 METOVALE RD, BRANDON, WI, 53919","Match","Exact","N4809 METOVALE RD, BRANDON, WI, 53919",74817568,"L"
324094,"N4937 ASPEN RD","PRENTICE","WI",54556,45.566228729,-90.408474973,94,"N4937 ASPEN RD, PRENTICE, WI, 54556","Match","Exact","N4937 ASPEN RD, PRENTICE, WI, 54556",649744037,"R"
324095,"N4953 HIGHWAY WS","WOODLAND","WI",53099,NA,NA,95,"N4953 HIGHWAY WS, WOODLAND, WI, 53099","No_Match",NA,NA,NA,NA
324096,"N4969 HILLCREST RD","MEDFORD","WI",54451,45.2060804120001,-90.419519604,96,"N4969 HILLCREST RD, MEDFORD, WI, 54451","Match","Exact","N4969 HILLCREST RD, MEDFORD, WI, 54451",117241583,"L"
324097,"N4986 BEACH GARDEN RD","POYNETTE","WI",53955,NA,NA,97,"N4986 BEACH GARDEN RD, POYNETTE, WI, 53955","No_Match",NA,NA,NA,NA
324098,"N49W31079 OLD STEEPLE ROAD","HARTLAND","WI",53029,43.1080363140001,-88.364145946,98,"N49W31079 OLD STEEPLE ROAD, HARTLAND, WI, 53029","Match","Exact","N49W31079 OLD STEEPLE RD, HARTLAND, WI, 53029",53855705,"L"
324099,"N49W35398 WISCONSIN AVE","OCONOMOWOC","WI",53066,NA,NA,99,"N49W35398 WISCONSIN AVE, OCONOMOWOC, WI, 53066","Tie",NA,NA,NA,NA
324100,"N5062 COUNTY ROAD QQ","PRESCOTT","WI",54021,NA,NA,100,"N5062 COUNTY ROAD QQ, PRESCOTT, WI, 54021","No_Match",NA,NA,NA,NA
324101,"N50768 COUNTY ROAD D","STRUM","WI",54770,NA,NA,101,"N50768 COUNTY ROAD D, STRUM, WI, 54770","No_Match",NA,NA,NA,NA
324102,"N50W15815 MAPLE CREST LANE","MENOMONEE FALLS","WI",53051,43.1100418550001,-88.108256072,102,"N50W15815 MAPLE CREST LANE, MENOMONEE FALLS, WI, 53051","Match","Exact","N50W15815 MAPLE CREST LN, MENOMONEE FALLS, WI, 53051",53815971,"R"
324103,"N5119 COUNTY ROAD K","FOND DU LAC","WI",54937,NA,NA,103,"N5119 COUNTY ROAD K, FOND DU LAC, WI, 54937","No_Match",NA,NA,NA,NA
324104,"N5122 SUMMIT DR","FOND DU LAC","WI",54937,43.728365341,-88.386397809,104,"N5122 SUMMIT DR, FOND DU LAC, WI, 54937","Match","Exact","N5122 SUMMIT DR, FOND DU LAC, WI, 54937",633433331,"R"
324105,"N5178 KNOLL DR","SULLIVAN","WI",53178,43.029585399,-88.578410343,105,"N5178 KNOLL DR, SULLIVAN, WI, 53178","Match","Exact","N5178 KNOLL DR, SULLIVAN, WI, 53178",53228359,"L"
324106,"N5218 E 5TH ST N","LADYSMITH","WI",54848,45.4747557690001,-91.095840091,106,"N5218 E 5TH ST N, LADYSMITH, WI, 54848","Match","Exact","N5218 E 5TH ST N, LADYSMITH, WI, 54848",611918444,"R"
324107,"N534 FAIRVIEW RD","MERRILL","WI",54452,45.1355566600001,-89.713888383,107,"N534 FAIRVIEW RD, MERRILL, WI, 54452","Match","Exact","N534 FAIRVIEW RD, MERRILL, WI, 54452",201783230,"R"
324108,"N5402 STEPHENSON LANE","ALBANY","WI",53502,42.7043518770001,-89.4499667109999,108,"N5402 STEPHENSON LANE, ALBANY, WI, 53502","Match","Exact","N5402 STEPHENSON LN, ALBANY, WI, 53502",629351868,"L"
324109,"N5448 BRODER ROAD","SHAWANO","WI",54166,44.7888692670001,-88.5936890469999,109,"N5448 BRODER ROAD, SHAWANO, WI, 54166","Match","Exact","N5448 BRODER RD, SHAWANO, WI, 54166",126864059,"L"
324110,"N5479 KENTWOODS RD","BRYANT","WI",54418,45.220348175,-88.9622953269999,110,"N5479 KENTWOODS RD, BRYANT, WI, 54418","Match","Exact","N5479 KENTWOODS RD, BRYANT, WI, 54418",196405569,"R"
324111,"N5507 HERMAN ROAD","SHIOCTON","WI",54170,44.438025694,-88.515528161,111,"N5507 HERMAN ROAD, SHIOCTON, WI, 54170","Match","Exact","N5507 HERMAN RD, SHIOCTON, WI, 54170",74877720,"L"
324112,"N5589 BROAD ST","SHIOCTON","WI",54170,44.441110472,-88.575717432,112,"N5589 BROAD ST, SHIOCTON, WI, 54170","Match","Exact","N5589 BROAD ST, SHIOCTON, WI, 54170",74878274,"L"
324113,"N5611 COUNTY ROAD A","LAKE MILLS","WI",53551,NA,NA,113,"N5611 COUNTY ROAD A, LAKE MILLS, WI, 53551","No_Match",NA,NA,NA,NA
324114,"N5626 HILLCREST DRIVE","PLYMOUTH","WI",53073,43.7404164690001,-88.061104679,114,"N5626 HILLCREST DRIVE, PLYMOUTH, WI, 53073","Match","Exact","N5626 HILLCREST DR, PLYMOUTH, WI, 53073",79490493,"L"
324115,"N5628 OAK DR","SHAWANO","WI",54166,44.7933851230001,-88.599173927,115,"N5628 OAK DR, SHAWANO, WI, 54166","Match","Exact","N5628 OAK DR, SHAWANO, WI, 54166",126874330,"R"
324116,"N5669 STATE ROAD 73","COLUMBUS","WI",53925,NA,NA,116,"N5669 STATE ROAD 73, COLUMBUS, WI, 53925","No_Match",NA,NA,NA,NA
324117,"N5720 JARVINEN ROAD","SKANDIA","MI",49885,NA,NA,117,"N5720 JARVINEN ROAD, SKANDIA, MI, 49885","No_Match",NA,NA,NA,NA
324118,"N5749 RIVERSIDE DRIVE","SHAWANO","WI",54166,44.7983842690001,-88.614948458,118,"N5749 RIVERSIDE DRIVE, SHAWANO, WI, 54166","Match","Exact","N5749 RIVERSIDE DR, SHAWANO, WI, 54166",126863961,"L"
324119,"N58 W22350 SILVER SPRING DRIVE","SUSSEX","WI",53089,NA,NA,119,"N58 W22350 SILVER SPRING DRIVE, SUSSEX, WI, 53089","Tie",NA,NA,NA,NA
324120,"N5821 COUNTY ROAD J","WESTFIELD","WI",53964,NA,NA,120,"N5821 COUNTY ROAD J, WESTFIELD, WI, 53964","No_Match",NA,NA,NA,NA
324121,"N5821 FAIRWAY DRIVE","FREDONIA","WI",53021,43.4973184090001,-87.9882692689999,121,"N5821 FAIRWAY DRIVE, FREDONIA, WI, 53021","Match","Exact","N5821 FAIRWAY DR, FREDONIA, WI, 53021",95905929,"R"
324122,"N5840 STATE ROAD 32","SHEBOYGAN FALLS","WI",53085,NA,NA,122,"N5840 STATE ROAD 32, SHEBOYGAN FALLS, WI, 53085","No_Match",NA,NA,NA,NA
324123,"N5850 PIONEER RD","PLYMOUTH","WI",53073,43.751773089,-88.021166514,123,"N5850 PIONEER RD, PLYMOUTH, WI, 53073","Match","Exact","N5850 PIONEER RD, PLYMOUTH, WI, 53073",79488857,"L"
324124,"N5882 SWAN ACRE DRIVE","CECIL","WI",54111,44.8006715440001,-88.4766117679999,124,"N5882 SWAN ACRE DRIVE, CECIL, WI, 54111","Match","Exact","N5882 SWAN ACRE DR, CECIL, WI, 54111",126865538,"R"
324125,"N5990 SHAW HILL ROAD","BEAVER DAM","WI",53916,43.4079856760001,-88.8417654199999,125,"N5990 SHAW HILL ROAD, BEAVER DAM, WI, 53916","Match","Exact","N5990 SHAW HILL RD, BEAVER DAM, WI, 53916",53547044,"R"
324126,"N60 W24140 RED WIND DRIVE","WAUKESHA","WI",53189,NA,NA,126,"N60 W24140 RED WIND DRIVE, WAUKESHA, WI, 53189","No_Match",NA,NA,NA,NA
324127,"N6019 LAMBIE RD","DE PERE","WI",54115,44.4585518820001,-88.2243623849999,127,"N6019 LAMBIE RD, DE PERE, WI, 54115","Match","Exact","N6019 LAMBIE RD, DE PERE, WI, 54115",74894224,"R"
324128,"N6075 GREYFOX TRAIL","SULLIVAN","WI",53178,43.0662960240001,-88.590967243,128,"N6075 GREYFOX TRAIL, SULLIVAN, WI, 53178","Match","Non_Exact","N6075 GREY FOX TRL, SULLIVAN, WI, 53178",53227582,"R"
324129,"N60W27062 TRAPPERS RUN","SUSSEX","WI",53089,43.127767911,-88.288417646,129,"N60W27062 TRAPPERS RUN, SUSSEX, WI, 53089","Match","Exact","N60W27062 TRAPPERS RUN, SUSSEX, WI, 53089",221922227,"L"
324130,"N61 W6058 COLUMBIA ROAD","CEDARBURG","WI",53012,NA,NA,130,"N61 W6058 COLUMBIA ROAD, CEDARBURG, WI, 53012","Tie",NA,NA,NA,NA
324131,"N6105 MANN RD      POB217","SPOONER","WI",54801,45.8579601800001,-91.806274512,131,"N6105 MANN RD      POB217, SPOONER, WI, 54801","Match","Exact","N6105 MANN RD, SPOONER, WI, 54801",196359485,"L"
324132,"N6105 SEARLE ROAD","RIPON","WI",54971,43.7603057430001,-88.885295281,132,"N6105 SEARLE ROAD, RIPON, WI, 54971","Match","Exact","N6105 SEARLE RD, RIPON, WI, 54971",73448758,"R"
324133,"N6185 FOX STREET","ONALASKA","WI",54650,43.9432062010001,-91.3116484559999,133,"N6185 FOX STREET, ONALASKA, WI, 54650","Match","Exact","N6185 FOX ST, ONALASKA, WI, 54650",51022950,"L"
324134,"N62 W23326 SILVER SPG DR UNIT 105","SUSSEX","WI",53089,NA,NA,134,"N62 W23326 SILVER SPG DR UNIT 105, SUSSEX, WI, 53089","Tie",NA,NA,NA,NA
324135,"N6288 SUGAR CREEK PRAIRIE DR","BURLINGTON","WI",53105,42.719754686,-88.348756323,135,"N6288 SUGAR CREEK PRAIRIE DR, BURLINGTON, WI, 53105","Match","Exact","N6288 SUGAR CREEK PRAIRIE DR, BURLINGTON, WI, 53105",618482644,"L"
324136,"N63 W24335 MAIN STREET","SUSSEX","WI",53089,NA,NA,136,"N63 W24335 MAIN STREET, SUSSEX, WI, 53089","Tie",NA,NA,NA,NA
324137,"N6385 STATE HIGHWAY 73","NEILLSVILLE","WI",54456,44.6502409920001,-90.59798123,137,"N6385 STATE HIGHWAY 73, NEILLSVILLE, WI, 54456","Match","Exact","N6385 STATE HWY 73, NEILLSVILLE, WI, 54456",50869117,"L"
324138,"N6387 RYE BLUFF ROAD","BLACK RIVER FALLS","WI",54615,44.302163761,-90.8717757859999,138,"N6387 RYE BLUFF ROAD, BLACK RIVER FALLS, WI, 54615","Match","Exact","N6387 RYE BLUFF RD, BLACK RIVER FALLS, WI, 54615",640762094,"L"
324139,"N6389  CONNERS  ROAD","MUNISING","ME",49862,NA,NA,139,"N6389  CONNERS  ROAD, MUNISING, ME, 49862","No_Match",NA,NA,NA,NA
324140,"N6396 BANNER ROAD","WITTENBERG","WI",54499,44.812602908,-89.0829473969999,140,"N6396 BANNER ROAD, WITTENBERG, WI, 54499","Match","Exact","N6396 BANNER RD, WITTENBERG, WI, 54499",126860696,"R"
324141,"N63W14512 ASH DRIVE","MENOMONEE FALLS","WI",53051,43.132278001,-88.091313142,141,"N63W14512 ASH DRIVE, MENOMONEE FALLS, WI, 53051","Match","Exact","N63W14512 ASH DR, MENOMONEE FALLS, WI, 53051",53839533,"L"
324142,"N64 W31243 BEAVER LAKE RD","HARTLAND","WI",53029,NA,NA,142,"N64 W31243 BEAVER LAKE RD, HARTLAND, WI, 53029","Tie",NA,NA,NA,NA
324143,"N6409 HWY P","MAYVILLE","WI",53050,NA,NA,143,"N6409 HWY P, MAYVILLE, WI, 53050","No_Match",NA,NA,NA,NA
324144,"N6448 SOUTH CRYSTAL LAKE ROAD","BEAVER DAM","WI",53916,43.428343392,-88.803625304,144,"N6448 SOUTH CRYSTAL LAKE ROAD, BEAVER DAM, WI, 53916","Match","Exact","N6448 S CRYSTAL LAKE RD, BEAVER DAM, WI, 53916",53547020,"R"
324145,"N6468 TOWER RD","FOND DU LAC","WI",54937,43.769811304,-88.3231992459999,145,"N6468 TOWER RD, FOND DU LAC, WI, 54937","Match","Exact","N6468 TOWER RD, FOND DU LAC, WI, 54937",74827375,"L"
324146,"N64W28024 FOREST RIDGE CIR","SUSSEX","WI",53089,43.134902966,-88.300908444,146,"N64W28024 FOREST RIDGE CIR, SUSSEX, WI, 53089","Match","Exact","N64W28024 FOREST RIDGE CIR, SUSSEX, WI, 53089",53910166,"R"
324147,"N6518 COUNTY ROAD D","NEW LONDON","WI",54961,NA,NA,147,"N6518 COUNTY ROAD D, NEW LONDON, WI, 54961","No_Match",NA,NA,NA,NA
324148,"N6522 US HIGHWAY 51 SUITE A5","PORTAGE","WI",53901,NA,NA,148,"N6522 US HIGHWAY 51 SUITE A5, PORTAGE, WI, 53901","No_Match",NA,NA,NA,NA
324149,"N6526 17TH DR","WILD ROSE","WI",54984,44.2146184800001,-89.277228099,149,"N6526 17TH DR, WILD ROSE, WI, 54984","Match","Exact","N6526 17TH DR, WILD ROSE, WI, 54984",73475829,"R"
324150,"N6574 NEVA LAKE RD","DEERBROOK","WI",54424,45.2644930340001,-89.10041417,150,"N6574 NEVA LAKE RD, DEERBROOK, WI, 54424","Match","Exact","N6574 NEVA LAKE RD, DEERBROOK, WI, 54424",196400957,"L"
324151,"N6628 THOMPSON ROAD","BEAVER DAM","WI",53916,43.4337017350001,-88.7896866299999,151,"N6628 THOMPSON ROAD, BEAVER DAM, WI, 53916","Match","Exact","N6628 THOMPSON RD, BEAVER DAM, WI, 53916",53528487,"R"
324152,"N67 W33015 OAK RIDGE LANE","HARTLAND","WI",53029,43.140275994,-88.40313494,152,"N67 W33015 OAK RIDGE LANE, HARTLAND, WI, 53029","Match","Exact","N67 OAK RIDGE LN, HARTLAND, WI, 53029",53861405,"R"
324153,"N6757 COUNTY RD X","ALBANY","WI",53502,NA,NA,153,"N6757 COUNTY RD X, ALBANY, WI, 53502","No_Match",NA,NA,NA,NA
324154,"N6796 CO RD XX","HOLMEN","WI",54636,43.969526581,-91.306601142,154,"N6796 CO RD XX, HOLMEN, WI, 54636","Match","Exact","N6796 CO RD XX, HOLMEN, WI, 54636",51008785,"L"
324155,"N67W35875 W STONEWOOD DRIVE","OCONOMOWOC","WI",53066,43.139852159,-88.457815287,155,"N67W35875 W STONEWOOD DRIVE, OCONOMOWOC, WI, 53066","Match","Exact","N67W35875 W STONEWOOD DR, OCONOMOWOC, WI, 53066",633846500,"L"
324156,"N68 W14855 PRUDENCE DRIVE","MENOMONEE FALLS","WI",53051,NA,NA,156,"N68 W14855 PRUDENCE DRIVE, MENOMONEE FALLS, WI, 53051","Tie",NA,NA,NA,NA
324157,"N6832 USH 51","PORTAGE","WI",53901,NA,NA,157,"N6832 USH 51, PORTAGE, WI, 53901","No_Match",NA,NA,NA,NA
324158,"N6883 PARK AVE","SHAWANO","WI",54166,44.8296479090001,-88.528801046,158,"N6883 PARK AVE, SHAWANO, WI, 54166","Match","Exact","N6883 PARK AVE, SHAWANO, WI, 54166",635640461,"L"
324159,"N69 W28688 BEVERLY LN","HARTLAND","WI",53029,NA,NA,159,"N69 W28688 BEVERLY LN, HARTLAND, WI, 53029","Tie",NA,NA,NA,NA
324160,"N6W29959 BRYN DR","WAUKESHA","WI",53188,43.039986888,-88.349530208,160,"N6W29959 BRYN DR, WAUKESHA, WI, 53188","Match","Exact","N6W29959 BRYN DR, WAUKESHA, WI, 53188",53809207,"R"
324161,"N71 W30885 CLUB E","HARTLAND","WI",53029,NA,NA,161,"N71 W30885 CLUB E, HARTLAND, WI, 53029","Tie",NA,NA,NA,NA
324162,"N7135 HIGHVIEW ROAD","PLYMOUTH","WI",53073,43.797790751,-88.009786678,162,"N7135 HIGHVIEW ROAD, PLYMOUTH, WI, 53073","Match","Exact","N7135 HIGHVIEW RD, PLYMOUTH, WI, 53073",79512237,"R"
324163,"N7156 E PLAZA DR","BEAVER DAM","WI",53916,43.454323543,-88.808242661,163,"N7156 E PLAZA DR, BEAVER DAM, WI, 53916","Match","Exact","N7156 E PLAZA DR, BEAVER DAM, WI, 53916",53528134,"L"
324164,"N7269 COLBO ROAD","BURLINGTON","WI",53105,42.7558398690001,-88.347974818,164,"N7269 COLBO ROAD, BURLINGTON, WI, 53105","Match","Exact","N7269 COLBO RD, BURLINGTON, WI, 53105",53689930,"L"
324165,"N7285 WOODFIELD LANE","WHITEWATER","WI",53190,42.7565442970001,-88.682016273,165,"N7285 WOODFIELD LANE, WHITEWATER, WI, 53190","Match","Exact","N7285 WOODFIELD LN, WHITEWATER, WI, 53190",53678720,"R"
324166,"N72W5897 APPLETREE LN","CEDARBURG","WI",53012,43.3020944190001,-87.983920327,166,"N72W5897 APPLETREE LN, CEDARBURG, WI, 53012","Match","Exact","N72 APPLETREE LN, CEDARBURG, WI, 53012",612752574,"R"
324167,"N7339 MEADOWLARK RD","SHEBOYGAN FALLS","WI",53085,43.8070489020001,-87.840897075,167,"N7339 MEADOWLARK RD, SHEBOYGAN FALLS, WI, 53085","Match","Non_Exact","N7339 MEADOW LARK RD, SHEBOYGAN FALLS, WI, 53085",79505469,"R"
324168,"N7341 STATE ROAD 175","THERESA","WI",53091,NA,NA,168,"N7341 STATE ROAD 175, THERESA, WI, 53091","No_Match",NA,NA,NA,NA
324169,"N7344 LORWOOD DR","WHITEWATER","WI",53190,42.757750367,-88.690520455,169,"N7344 LORWOOD DR, WHITEWATER, WI, 53190","Match","Exact","N7344 LORWOOD DR, WHITEWATER, WI, 53190",53689820,"L"
324170,"N7349 RED BIRCH LANE","ALGOMA","WI",54201,44.589355911,-87.557051894,170,"N7349 RED BIRCH LANE, ALGOMA, WI, 54201","Match","Exact","N7349 RED BIRCH LN, ALGOMA, WI, 54201",148176403,"L"
324171,"N7430 HIGH PRAIRIE LANE","NEW GLARUS","WI",53574,42.7755559990001,-89.6596702579999,171,"N7430 HIGH PRAIRIE LANE, NEW GLARUS, WI, 53574","Match","Exact","N7430 HIGH PRAIRIE LN, NEW GLARUS, WI, 53574",641020708,"L"
324172,"N7431 BURR OAK RD","WHITEWATER","WI",53190,42.758775004,-88.67957151,172,"N7431 BURR OAK RD, WHITEWATER, WI, 53190","Match","Exact","N7431 BURR OAK RD, WHITEWATER, WI, 53190",53663755,"L"
324173,"N7440 COUNTY RD J","PLYMOUTH","WI",53073,NA,NA,173,"N7440 COUNTY RD J, PLYMOUTH, WI, 53073","No_Match",NA,NA,NA,NA
324174,"N7443 CTY RD M","PLYMOUTH","WI",53073,NA,NA,174,"N7443 CTY RD M, PLYMOUTH, WI, 53073","No_Match",NA,NA,NA,NA
324175,"N7451 HEMLOCK ROAD","ALGOMA","WI",54201,44.5898954840001,-87.581765165,175,"N7451 HEMLOCK ROAD, ALGOMA, WI, 54201","Match","Exact","N7451 HEMLOCK RD, ALGOMA, WI, 54201",148182444,"L"
324176,"N7458 COUNTY ROAD HD","HOLMEN","WI",54636,NA,NA,176,"N7458 COUNTY ROAD HD, HOLMEN, WI, 54636","No_Match",NA,NA,NA,NA
324177,"N74W13604 APPLETON AVE","MENOMONEE FALLS","WI",53051,43.149810916,-88.07609595,177,"N74W13604 APPLETON AVE, MENOMONEE FALLS, WI, 53051","Match","Exact","N74W13604 APPLETON AVE, MENOMONEE FALLS, WI, 53051",53889247,"L"
324178,"N751 GRANDVIEW AVENUE","CAMPBELLSPORT","WI",53010,NA,NA,178,"N751 GRANDVIEW AVENUE, CAMPBELLSPORT, WI, 53010","No_Match",NA,NA,NA,NA
324179,"N7521 STATE ROAD 65","RIVER FALLS","WI",54022,44.8096451960001,-92.5619725189999,179,"N7521 STATE ROAD 65, RIVER FALLS, WI, 54022","Match","Exact","N7521 STATE RD 65, RIVER FALLS, WI, 54022",95875237,"L"
324180,"N753 E HILLS RD","LA CROSSE","WI",54601,43.753348255,-91.120465514,180,"N753 E HILLS RD, LA CROSSE, WI, 54601","Match","Exact","N753 E HILLS RD, LA CROSSE, WI, 54601",51023353,"R"
324181,"N75W23453 N RIDGEVIEW CIRCLE","SUSSEX","WI",53089,43.1549186840001,-88.2132811069999,181,"N75W23453 N RIDGEVIEW CIRCLE, SUSSEX, WI, 53089","Match","Exact","N75W23453 N RIDGEVIEW CIR, SUSSEX, WI, 53089",53843625,"R"
324182,"N75W28492 STILLWATER CT","HARTLAND","WI",53029,43.1547173970001,-88.309506614,182,"N75W28492 STILLWATER CT, HARTLAND, WI, 53029","Match","Exact","N75 STILLWATER CT, HARTLAND, WI, 53029",53859643,"R"
324183,"N76 W15295 PRAIRIE LANE","MENOMONEE FALLS","WI",53051,NA,NA,183,"N76 W15295 PRAIRIE LANE, MENOMONEE FALLS, WI, 53051","Tie",NA,NA,NA,NA
324184,"N7742 BUSHEY RD","TREGO","WI",54801,45.914299618,-91.851482033,184,"N7742 BUSHEY RD, TREGO, WI, 54801","Match","Non_Exact","N7742 BUSHEY RD, TREGO, WI, 54888",196358637,"R"
324185,"N7763 MAPLE RIDGE RD","OCONOMOWOC","WI",53066,43.123651857,-88.5462211939999,185,"N7763 MAPLE RIDGE RD, OCONOMOWOC, WI, 53066","Match","Exact","N7763 MAPLE RIDGE RD, OCONOMOWOC, WI, 53066",53245977,"L"
324186,"N7793 920TH STREET","RIVER FALLS","WI",54022,44.8290315310001,-92.594869922,186,"N7793 920TH STREET, RIVER FALLS, WI, 54022","Match","Exact","N7793 920TH ST, RIVER FALLS, WI, 54022",95872787,"R"
324187,"N77W16336 OVERLOOK DR","MEMOMONEE FALLS","WI",53051,43.1588624870001,-88.1104295649999,187,"N77W16336 OVERLOOK DR, MEMOMONEE FALLS, WI, 53051","Match","Non_Exact","N77 OVERLOOK DR, MENOMONEE FALLS, WI, 53051",53840186,"R"
324188,"N77W23766 SUN VALLEY RUN","SUSSEX","WI",53089,43.157667765,-88.21491231,188,"N77W23766 SUN VALLEY RUN, SUSSEX, WI, 53089","Match","Exact","N77W23766 SUN VALLEY RUN, SUSSEX, WI, 53089",53859772,"R"
324189,"N7869 COUNTY ROAD V","IRMA","WI",54442,NA,NA,189,"N7869 COUNTY ROAD V, IRMA, WI, 54442","No_Match",NA,NA,NA,NA
324190,"N78W14573 APPLETON AVE SUITE 258","MENOMONEE FALLS","WI",53051,43.1605452150001,-88.0913262669999,190,"N78W14573 APPLETON AVE SUITE 258, MENOMONEE FALLS, WI, 53051","Match","Exact","N78W14573 APPLETON AVE, MENOMONEE FALLS, WI, 53051",53814268,"L"
324191,"N78W15706 LONGWOOD STREET","MENOMONEE FALLS","WI",53051,43.1610454460001,-88.1054704269999,191,"N78W15706 LONGWOOD STREET, MENOMONEE FALLS, WI, 53051","Match","Exact","N78W15706 LONGWOOD ST, MENOMONEE FALLS, WI, 53051",53813966,"R"
324192,"N7906 LOWER MCKENZIE RD","SPOONER","WI",54801,45.921040385,-91.9614844819999,192,"N7906 LOWER MCKENZIE RD, SPOONER, WI, 54801","Match","Exact","N7906 LOWER MCKENZIE RD, SPOONER, WI, 54801",196339694,"R"
324193,"N7916 WINDING RIDGE CT","IXONIA","WI",53036,43.1306417600001,-88.591632012,193,"N7916 WINDING RIDGE CT, IXONIA, WI, 53036","Match","Exact","N7916 WINDING RIDGE CT, IXONIA, WI, 53036",624291884,"R"
324194,"N7963 WOODY LN","IXONIA","WI",53036,43.1313158580001,-88.6036863849999,194,"N7963 WOODY LN, IXONIA, WI, 53036","Match","Exact","N7963 WOODY LN, IXONIA, WI, 53036",637181545,"R"
324195,"N7W29031 LARKSPUR CT","WAUKESHA","WI",53188,43.040341971,-88.326367077,195,"N7W29031 LARKSPUR CT, WAUKESHA, WI, 53188","Match","Exact","N7W29031 LARKSPUR CT, WAUKESHA, WI, 53188",53882664,"R"
324196,"N8047 CATTAIL LANE","IRMA","WI",54441,45.4123028490001,-89.672332236,196,"N8047 CATTAIL LANE, IRMA, WI, 54441","Match","Non_Exact","N8047 CATTAIL LN, IRMA, WI, 54442",620123389,"R"
324197,"N8056 NORTH ROAD","SPRINGBROOK","WI",54875,45.921645713,-91.763960927,197,"N8056 NORTH ROAD, SPRINGBROOK, WI, 54875","Match","Exact","N8056 NORTH RD, SPRINGBROOK, WI, 54875",635245574,"R"
324198,"N8161 COUNTY ROAD Y","WATERTOWN","WI",53094,NA,NA,198,"N8161 COUNTY ROAD Y, WATERTOWN, WI, 53094","No_Match",NA,NA,NA,NA
324199,"N8166 SERENITY DR","CRIVITZ","WI",54114,45.2492768500001,-87.939514994,199,"N8166 SERENITY DR, CRIVITZ, WI, 54114","Match","Exact","N8166 SERENITY DR, CRIVITZ, WI, 54114",170016869,"R"
324200,"N81W14972 APPLETON AVENUE","MENOMONEE FALLS","WI",53051,43.1647250290001,-88.0967897689999,200,"N81W14972 APPLETON AVENUE, MENOMONEE FALLS, WI, 53051","Match","Exact","N81W14972 APPLETON AVE, MENOMONEE FALLS, WI, 53051",53889210,"R"
324201,"N8233 PLEASANT HILL LN","EAST TROY","WI",53120,42.7890645100001,-88.544063111,201,"N8233 PLEASANT HILL LN, EAST TROY, WI, 53120","Match","Exact","N8233 PLEASANT HILL LN, EAST TROY, WI, 53120",53675069,"R"
324202,"N8238 WOODY LANE","IXONIA","WI",53036,NA,NA,202,"N8238 WOODY LANE, IXONIA, WI, 53036","No_Match",NA,NA,NA,NA
324203,"N8265 COUNTY RD J","NEW GLARUS","WI",53574,NA,NA,203,"N8265 COUNTY RD J, NEW GLARUS, WI, 53574","No_Match",NA,NA,NA,NA
324204,"N8282 COUNTY ROAD B","DEERBROOK","WI",54424,NA,NA,204,"N8282 COUNTY ROAD B, DEERBROOK, WI, 54424","No_Match",NA,NA,NA,NA
324205,"N8290 577TH STREET","COLFAX","WI",54730,44.979787378,-91.872935169,205,"N8290 577TH STREET, COLFAX, WI, 54730","Match","Exact","N8290 577TH ST, COLFAX, WI, 54730",653398481,"L"
324206,"N82W13432 FOND DU LAC AVE","MENOMONEE FALLS","WI",53051,43.167435519,-88.077496447,206,"N82W13432 FOND DU LAC AVE, MENOMONEE FALLS, WI, 53051","Match","Exact","N82W13432 FOND DU LAC AVE, MENOMONEE FALLS, WI, 53051",53814178,"L"
324207,"N82W13510 FOND DU LAC AVE","MENOMONEE FALLS","WI",53051,43.1679672320001,-88.078249133,207,"N82W13510 FOND DU LAC AVE, MENOMONEE FALLS, WI, 53051","Match","Exact","N82W13510 FOND DU LAC AVE, MENOMONEE FALLS, WI, 53051",53814178,"L"
324208,"N82W28583 HILLCREST DR","HARTLAND","WI",53029,43.168018535,-88.3109971929999,208,"N82W28583 HILLCREST DR, HARTLAND, WI, 53029","Match","Exact","N82W28583 HILLCREST DR, HARTLAND, WI, 53029",53808544,"L"
324209,"N83 W13410 LEON RD","MENOMONEE FALLS","WI",53051,43.1688266850001,-88.0756471669999,209,"N83 W13410 LEON RD, MENOMONEE FALLS, WI, 53051","Match","Exact","N83 LEON RD, MENOMONEE FALLS, WI, 53051",634267822,"R"
324210,"N8331 BULGRIN ROAD","PORTAGE","WI",53901,43.5741677600001,-89.497605365,210,"N8331 BULGRIN ROAD, PORTAGE, WI, 53901","Match","Exact","N8331 BULGRIN RD, PORTAGE, WI, 53901",73329230,"L"
324211,"N84 W15787 MENOMONEE AVE SUITE 5","MENOMONEE FALLS","WI",53051,NA,NA,211,"N84 W15787 MENOMONEE AVE SUITE 5, MENOMONEE FALLS, WI, 53051","Tie",NA,NA,NA,NA
324212,"N8411 ELM ROAD","MOUNT CALVARY","WI",53057,43.843623931,-88.256971752,212,"N8411 ELM ROAD, MOUNT CALVARY, WI, 53057","Match","Exact","N8411 ELM RD, MOUNT CALVARY, WI, 53057",74815696,"R"
324213,"N8416 1090TH ST","RIVER FALLS","WI",54022,44.8457599280001,-92.6801580969999,213,"N8416 1090TH ST, RIVER FALLS, WI, 54022","Match","Exact","N8416 1090TH ST, RIVER FALLS, WI, 54022",95866092,"R"
324214,"N8430 COUNTY RD E","HAYWARD","WI",54843,NA,NA,214,"N8430 COUNTY RD E, HAYWARD, WI, 54843","No_Match",NA,NA,NA,NA
324215,"N8492 BANCROFT ROAD","THERESA","WI",53091,43.4999600460001,-88.460059977,215,"N8492 BANCROFT ROAD, THERESA, WI, 53091","Match","Exact","N8492 BANCROFT RD, THERESA, WI, 53091",53541294,"R"
324216,"N85 W17314 LEE PLACE","MENOMONEE FALLS","WI",53051,NA,NA,216,"N85 W17314 LEE PLACE, MENOMONEE FALLS, WI, 53051","Tie",NA,NA,NA,NA
324217,"N8501 E SNOW CREEK RD","MERRILLAN","WI",54754,44.3774631050001,-90.837249861,217,"N8501 E SNOW CREEK RD, MERRILLAN, WI, 54754","Match","Exact","N8501 E SNOW CREEK RD, MERRILLAN, WI, 54754",646590126,"L"
324218,"N8527 870TH STREET","COLFAX","WI",54730,44.9833124140001,-91.722814839,218,"N8527 870TH STREET, COLFAX, WI, 54730","Match","Exact","N8527 870TH ST, COLFAX, WI, 54730",78988211,"L"
324219,"N8540 COUNTY ROAD","MENASHA","WI",54952,NA,NA,219,"N8540 COUNTY ROAD, MENASHA, WI, 54952","No_Match",NA,NA,NA,NA
324220,"N8579 SEWARD DR","BERLIN","WI",54923,43.94181696,-88.952989158,220,"N8579 SEWARD DR, BERLIN, WI, 54923","Match","Exact","N8579 SEWARD DR, BERLIN, WI, 54923",73454591,"L"
324221,"N85W16110 APPLETON AVE UNIT 282","MENOMONEE FALLS","WI",53052,43.1732407060001,-88.110520333,221,"N85W16110 APPLETON AVE UNIT 282, MENOMONEE FALLS, WI, 53052","Match","Non_Exact","N85W16110 APPLETON AVE, MENOMONEE FLS, WI, 53051",53813915,"R"
324222,"N85W16110 APPLETON AVENUE 651","MENOMONEE FALLS","WI",53052,43.1732407060001,-88.110520333,222,"N85W16110 APPLETON AVENUE 651, MENOMONEE FALLS, WI, 53052","Match","Non_Exact","N85W16110 APPLETON AVE, MENOMONEE FLS, WI, 53051",53813915,"R"
324223,"N85W16110 APPLETON AVENUE BOX 651","MENOMONEE FALLS","WI",53052,43.1732407060001,-88.110520333,223,"N85W16110 APPLETON AVENUE BOX 651, MENOMONEE FALLS, WI, 53052","Match","Non_Exact","N85W16110 APPLETON AVE, MENOMONEE FLS, WI, 53051",53813915,"R"
324224,"N85W16110 APPLETON AVENUE","MENOMONEE FALLS","WI",53051,43.1732407060001,-88.110520333,224,"N85W16110 APPLETON AVENUE, MENOMONEE FALLS, WI, 53051","Match","Exact","N85W16110 APPLETON AVE, MENOMONEE FALLS, WI, 53051",53813915,"R"
324225,"N8687 PICKERAL LAKE RD","EAST TROY","WI",53120,42.8060410050001,-88.444239694,225,"N8687 PICKERAL LAKE RD, EAST TROY, WI, 53120","Match","Exact","N8687 PICKERAL LAKE RD, EAST TROY, WI, 53120",53675297,"L"
324226,"N87 W18162 QUEENSWAY","MENOMONEE FALLS","WI",53051,NA,NA,226,"N87 W18162 QUEENSWAY, MENOMONEE FALLS, WI, 53051","Tie",NA,NA,NA,NA
324227,"N873 MILE SQUARE AVE","MERRILL","WI",54452,45.1350784200001,-89.487515296,227,"N873 MILE SQUARE AVE, MERRILL, WI, 54452","Match","Exact","N873 MILE SQUARE AVE, MERRILL, WI, 54452",201789301,"L"
324228,"N8790 FAIRGROUND AVE","GREENWOOD","WI",54437,44.7347843480001,-90.5777161519999,228,"N8790 FAIRGROUND AVE, GREENWOOD, WI, 54437","Match","Exact","N8790 FAIRGROUND AVE, GREENWOOD, WI, 54437",50885599,"R"
324229,"N87W22439 NORTH LISBON RD","SUSSEX","WI",53089,43.1771351020001,-88.19511943,229,"N87W22439 NORTH LISBON RD, SUSSEX, WI, 53089","Match","Exact","N87W22439 N LISBON RD, SUSSEX, WI, 53089",630407087,"R"
324230,"N88 W17051 MAIN STREET","MENOMONEE FALLS","WI",53051,NA,NA,230,"N88 W17051 MAIN STREET, MENOMONEE FALLS, WI, 53051","Tie",NA,NA,NA,NA
324231,"N8897 280TH ST","BOYCEVILLE","WI",54725,44.988232172,-92.033166083,231,"N8897 280TH ST, BOYCEVILLE, WI, 54725","Match","Exact","N8897 280TH ST, BOYCEVILLE, WI, 54725",642888353,"L"
324232,"N8988 LAKESHORE DR","VAN DYNE","WI",54979,NA,NA,232,"N8988 LAKESHORE DR, VAN DYNE, WI, 54979","Tie",NA,NA,NA,NA
324233,"N9025 NORTH BRANCH RD","HIXTON","WI",54635,44.397683172,-90.991637048,233,"N9025 NORTH BRANCH RD, HIXTON, WI, 54635","Match","Exact","N9025 N BRANCH RD, HIXTON, WI, 54635",50676871,"L"
324234,"N9046 COUNTY ROAD H-33","CURTIS","MI",49820,NA,NA,234,"N9046 COUNTY ROAD H-33, CURTIS, MI, 49820","No_Match",NA,NA,NA,NA
324235,"N9075 KERNAN AVE","MENASHA","WI",54952,44.221126638,-88.3827090409999,235,"N9075 KERNAN AVE, MENASHA, WI, 54952","Match","Exact","N9075 KERNAN AVE, MENASHA, WI, 54952",638843970,"R"
324236,"N90992 COUNTY ROAD V V","MINDORO","WI",54644,NA,NA,236,"N90992 COUNTY ROAD V V, MINDORO, WI, 54644","No_Match",NA,NA,NA,NA
324237,"N9103 DUFFIN ROAD","WHITEWATER","WI",53190,42.831483173,-88.621826203,237,"N9103 DUFFIN ROAD, WHITEWATER, WI, 53190","Match","Exact","N9103 DUFFIN RD, WHITEWATER, WI, 53190",653398639,"R"
324238,"N9124 STATE ROAD 162","SPARTA","WI",54656,44.051990344,-90.9153198719999,238,"N9124 STATE ROAD 162, SPARTA, WI, 54656","Match","Exact","N9124 STATE RD 162, SPARTA, WI, 54656",51029413,"R"
324239,"N9286 EAST SHORE ROAD","EAST TROY","WI",53120,NA,NA,239,"N9286 EAST SHORE ROAD, EAST TROY, WI, 53120","Tie",NA,NA,NA,NA
324240,"N92W17420 APPLETON AVE","MENOMONEE FLS","WI",53051,43.185342314,-88.125645154,240,"N92W17420 APPLETON AVE, MENOMONEE FLS, WI, 53051","Match","Exact","N92W17420 APPLETON AVE, MENOMONEE FALLS, WI, 53051",53890972,"L"
324241,"N931 HILLSIDE RD","LAKE GENEVA","WI",53147,42.524079597,-88.462361663,241,"N931 HILLSIDE RD, LAKE GENEVA, WI, 53147","Match","Exact","N931 HILLSIDE RD, LAKE GENEVA, WI, 53147",651275034,"L"
324242,"N9310 ELDER DR","ALGOMA","WI",54201,44.6620049360001,-87.488647418,242,"N9310 ELDER DR, ALGOMA, WI, 54201","Match","Exact","N9310 ELDER DR, ALGOMA, WI, 54201",148174793,"R"
324243,"N9572 VAN DYNE RD","VAN DYNE","WI",54979,43.8885485690001,-88.503563817,243,"N9572 VAN DYNE RD, VAN DYNE, WI, 54979","Match","Exact","N9572 VAN DYNE RD, VAN DYNE, WI, 54979",615534633,"L"
324244,"N9607 N FOUNTAIN RD","BERLIN","WI",54923,43.979299837,-89.0163257789999,244,"N9607 N FOUNTAIN RD, BERLIN, WI, 54923","Match","Exact","N9607 N FOUNTAIN RD, BERLIN, WI, 54923",73449801,"L"
324245,"N9615 MARY DR","APPLETON","WI",54915,44.2401373770001,-88.3235974089999,245,"N9615 MARY DR, APPLETON, WI, 54915","Match","Exact","N9615 MARY DR, APPLETON, WI, 54915",636681813,"L"
324246,"N9621 CEMETERY ROAD","BRILLION","WI",54110,44.238217245,-88.1536785329999,246,"N9621 CEMETERY ROAD, BRILLION, WI, 54110","Match","Exact","N9621 CEMETERY RD, BRILLION, WI, 54110",74795231,"R"
324247,"N9637 PATTI CT","APPLETON","WI",54915,44.24171835,-88.334623331,247,"N9637 PATTI CT, APPLETON, WI, 54915","Match","Exact","N9637 PATTI CT, APPLETON, WI, 54915",74789591,"R"
324248,"N9657 CO RD A","CRIVITZ","WI",54114,45.304507071,-88.102808442,248,"N9657 CO RD A, CRIVITZ, WI, 54114","Match","Exact","N9657 CO RD A, CRIVITZ, WI, 54114",170007968,"L"
324249,"N9658 COTTAGE LN","WAUSAUKEE","WI",54177,45.2945040590001,-87.693664971,249,"N9658 COTTAGE LN, WAUSAUKEE, WI, 54177","Match","Exact","N9658 COTTAGE LN, WAUSAUKEE, WI, 54177",169992143,"R"
324250,"N9660 VAN DYNE RD","VAN DYNE","WI",54979,43.8909269010001,-88.503820617,250,"N9660 VAN DYNE RD, VAN DYNE, WI, 54979","Match","Exact","N9660 VAN DYNE RD, VAN DYNE, WI, 54979",635784579,"L"
324251,"N9680 COUNTY ROAD EF","BERLIN","WI",54923,NA,NA,251,"N9680 COUNTY ROAD EF, BERLIN, WI, 54923","No_Match",NA,NA,NA,NA
324252,"N9984 370TH STREET","BOYCEVILLE","WI",54725,45.0402294990001,-91.976397546,252,"N9984 370TH STREET, BOYCEVILLE, WI, 54725","Match","Exact","N9984 370TH ST, BOYCEVILLE, WI, 54725",625110993,"R"
324253,"NA 4 MIRMONTE ST","GUAYNABO","PR",966,NA,NA,253,"NA 4 MIRMONTE ST, GUAYNABO, PR, 966","No_Match",NA,NA,NA,NA
324254,NA,"FLOWERY BRANCH","GA",30542,NA,NA,254,", FLOWERY BRANCH, GA, 30542","No_Match",NA,NA,NA,NA
324255,NA,"MILILANI","HI",96789,NA,NA,255,", MILILANI, HI, 96789","No_Match",NA,NA,NA,NA
324256,NA,"RANCHO CORDOVA","CA",95670,NA,NA,256,", RANCHO CORDOVA, CA, 95670","No_Match",NA,NA,NA,NA
324257,"NAISH AVE","COCOA BEACH","FL",32931,NA,NA,257,"NAISH AVE, COCOA BEACH, FL, 32931","No_Match",NA,NA,NA,NA
324258,"NANCY MERCADO 299 13TH STREET APT","BROOKLYN","NY",11215,NA,NA,258,"NANCY MERCADO 299 13TH STREET APT, BROOKLYN, NY, 11215","No_Match",NA,NA,NA,NA
324259,"NAVAL STATION MAYPORT PO BOX 280112","JACKSONVILLE","FL",32228,NA,NA,259,"NAVAL STATION MAYPORT PO BOX 280112, JACKSONVILLE, FL, 32228","No_Match",NA,NA,NA,NA
324260,"NAZARETH DEPT OF SW  4245 EAST AVE","ROCHESTER","NY",14618,43.103397971,-77.5149195239999,260,"NAZARETH DEPT OF SW  4245 EAST AVE, ROCHESTER, NY, 14618","Match","Exact","4245 EAST AVE, ROCHESTER, NY, 14618",14546611,"R"
324261,"NCSU BOX 8205","RALEIGH","NC",27695,NA,NA,261,"NCSU BOX 8205, RALEIGH, NC, 27695","No_Match",NA,NA,NA,NA
324262,"NDSU DEPT 7670 PO BOX 6050","FARGO","ND",58108,NA,NA,262,"NDSU DEPT 7670 PO BOX 6050, FARGO, ND, 58108","No_Match",NA,NA,NA,NA
324263,"NEW ADDRESS 1550 W MAIN ST","EL CENTRO","CA",92243,32.792843852,-115.572079485,263,"NEW ADDRESS 1550 W MAIN ST, EL CENTRO, CA, 92243","Match","Exact","1550 W MAIN ST, EL CENTRO, CA, 92243",194542200,"R"
324264,"NEWTOWN EARTH DAY INC","NEWTOWN","CT",6470,NA,NA,264,"NEWTOWN EARTH DAY INC, NEWTOWN, CT, 6470","No_Match",NA,NA,NA,NA
324265,"NJIT CAMPBELL HALL 5TH FLOOR","NEAWRK","NJ",7102,NA,NA,265,"NJIT CAMPBELL HALL 5TH FLOOR, NEAWRK, NJ, 7102","No_Match",NA,NA,NA,NA
324266,"NO 10 - 2515 SHAKESPEARE ST","HOUSTON","TX",77030,29.714200315,-95.417201246,266,"NO 10 - 2515 SHAKESPEARE ST, HOUSTON, TX, 77030","Match","Exact","2515 SHAKESPEARE ST, HOUSTON, TX, 77030",637940077,"L"
324267,"NO 16 6TH STREET NORTH SUITE 35","GREAT FALLS","MT",59401,NA,NA,267,"NO 16 6TH STREET NORTH SUITE 35, GREAT FALLS, MT, 59401","No_Match",NA,NA,NA,NA
324268,"NO 18 6TH ST N STE 35","GREAT FALLS","MT",59401,NA,NA,268,"NO 18 6TH ST N STE 35, GREAT FALLS, MT, 59401","No_Match",NA,NA,NA,NA
324269,"NO 18 6TH STREET NORTH SUITE 35","GREAT FALLS","MT",59401,NA,NA,269,"NO 18 6TH STREET NORTH SUITE 35, GREAT FALLS, MT, 59401","No_Match",NA,NA,NA,NA
324270,"NO 8 DOCTORS PARK","MT VERNON","IL",62864,NA,NA,270,"NO 8 DOCTORS PARK, MT VERNON, IL, 62864","No_Match",NA,NA,NA,NA
324271,"NO 9 CALLE NUEVA FINAL","RINCON","PR",677,NA,NA,271,"NO 9 CALLE NUEVA FINAL, RINCON, PR, 677","No_Match",NA,NA,NA,NA
324272,"NONE","JACKSONVILLE","NC",28540,NA,NA,272,"NONE, JACKSONVILLE, NC, 28540","No_Match",NA,NA,NA,NA
324273,"NONPROFIT  5 CONCOURSE PKWAY 3000","ATLANTA","GA",30328,NA,NA,273,"NONPROFIT  5 CONCOURSE PKWAY 3000, ATLANTA, GA, 30328","No_Match",NA,NA,NA,NA
324274,"NONPROFIT OFFICE P O BOX 674404","MARIETTA","GA",30006,NA,NA,274,"NONPROFIT OFFICE P O BOX 674404, MARIETTA, GA, 30006","No_Match",NA,NA,NA,NA
324275,"NORFOLK NAVAL SHIPYARD","PORTSMOUTH","VA",23709,NA,NA,275,"NORFOLK NAVAL SHIPYARD, PORTSMOUTH, VA, 23709","No_Match",NA,NA,NA,NA
324276,"NORMANDIE LANE","VINELAND","NJ",8362,NA,NA,276,"NORMANDIE LANE, VINELAND, NJ, 8362","No_Match",NA,NA,NA,NA
324277,"NORTH 205 20TH STREET","BIRMINGHAM","AL",35203,NA,NA,277,"NORTH 205 20TH STREET, BIRMINGHAM, AL, 35203","No_Match",NA,NA,NA,NA
324278,"NORTHWEST APTS 72D","CORSICANA","TX",75110,NA,NA,278,"NORTHWEST APTS 72D, CORSICANA, TX, 75110","No_Match",NA,NA,NA,NA
324279,"NUNN DRIVE","HIGHLAND HEIGHTS","KY",41099,NA,NA,279,"NUNN DRIVE, HIGHLAND HEIGHTS, KY, 41099","No_Match",NA,NA,NA,NA
324280,"NW 27TH AVENUE","GAINESVILLE","FL",32606,NA,NA,280,"NW 27TH AVENUE, GAINESVILLE, FL, 32606","No_Match",NA,NA,NA,NA
324281,"NW 43RD COURT","MIAMI GARDENS","FL",33054,NA,NA,281,"NW 43RD COURT, MIAMI GARDENS, FL, 33054","No_Match",NA,NA,NA,NA
324282,"NYU 239 GREENE ST 4TH FLOOR","NEW YORK","NY",10003,NA,NA,282,"NYU 239 GREENE ST 4TH FLOOR, NEW YORK, NY, 10003","No_Match",NA,NA,NA,NA
324283,"O-103 CALLE COMERCIO","SAN JUAN","PR",931,NA,NA,283,"O-103 CALLE COMERCIO, SAN JUAN, PR, 931","No_Match",NA,NA,NA,NA
324284,"OCU CNAFME","OKLAHOMA","OK",73106,NA,NA,284,"OCU CNAFME, OKLAHOMA, OK, 73106","No_Match",NA,NA,NA,NA
324285,"ODAY 35 W 35TH ST","NEW YORK","NY",10001,NA,NA,285,"ODAY 35 W 35TH ST, NEW YORK, NY, 10001","No_Match",NA,NA,NA,NA
324286,"OGDEN POST OFFICE PO BOX 495","OGDEN","KS",66517,NA,NA,286,"OGDEN POST OFFICE PO BOX 495, OGDEN, KS, 66517","No_Match",NA,NA,NA,NA
324287,"OLD HOSPITAL TRAILER CT NW 25","PINE RIDGE","SD",57770,NA,NA,287,"OLD HOSPITAL TRAILER CT NW 25, PINE RIDGE, SD, 57770","No_Match",NA,NA,NA,NA
324288,"ONE  SNYDER CIRCLE","NEW MILFORD","NJ",7646,NA,NA,288,"ONE  SNYDER CIRCLE, NEW MILFORD, NJ, 7646","No_Match",NA,NA,NA,NA
324289,"ONE 18TH AVENUE","PAGE","AZ",86040,NA,NA,289,"ONE 18TH AVENUE, PAGE, AZ, 86040","No_Match",NA,NA,NA,NA
324290,"ONE AIR PKWY TERMINAL SUITE 107","MELBOURNE","FL",32901,NA,NA,290,"ONE AIR PKWY TERMINAL SUITE 107, MELBOURNE, FL, 32901","No_Match",NA,NA,NA,NA
324291,"ONE ALUMNI DRIVE","HAMPTON","NH",3842,NA,NA,291,"ONE ALUMNI DRIVE, HAMPTON, NH, 3842","No_Match",NA,NA,NA,NA
324292,"ONE ARABIAN DRIVE","PENDLETON","IN",46064,NA,NA,292,"ONE ARABIAN DRIVE, PENDLETON, IN, 46064","No_Match",NA,NA,NA,NA
324293,"ONE ARMORY SQUARE SUITE 2","SPRINGFIELD","MA",1105,NA,NA,293,"ONE ARMORY SQUARE SUITE 2, SPRINGFIELD, MA, 1105","No_Match",NA,NA,NA,NA
324294,"ONE ASSELBORN WAY","GLENWOOD","IL",60425,NA,NA,294,"ONE ASSELBORN WAY, GLENWOOD, IL, 60425","No_Match",NA,NA,NA,NA
324295,"ONE AVE OF THE PALMS SUITE 307","SAN FRANCISCO","CA",94130,NA,NA,295,"ONE AVE OF THE PALMS SUITE 307, SAN FRANCISCO, CA, 94130","No_Match",NA,NA,NA,NA
324296,"ONE BEACH DRIVE SE","ST PETERSBURG","FL",33701,NA,NA,296,"ONE BEACH DRIVE SE, ST PETERSBURG, FL, 33701","No_Match",NA,NA,NA,NA
324297,"ONE BEACON STREET 15TH FLOOR","BOSTON","MA",2108,NA,NA,297,"ONE BEACON STREET 15TH FLOOR, BOSTON, MA, 2108","No_Match",NA,NA,NA,NA
324298,"ONE BEAR PLACE 98006","WACO","TX",76798,NA,NA,298,"ONE BEAR PLACE 98006, WACO, TX, 76798","No_Match",NA,NA,NA,NA
324299,"ONE BEAR PLACE PO BOX 97341","WACO","TX",76798,NA,NA,299,"ONE BEAR PLACE PO BOX 97341, WACO, TX, 76798","No_Match",NA,NA,NA,NA
324300,"ONE BELMONT AVE SUITE 315","BALA CYNWYD","PA",19004,NA,NA,300,"ONE BELMONT AVE SUITE 315, BALA CYNWYD, PA, 19004","No_Match",NA,NA,NA,NA
324301,"ONE BETHANY PIKE","WHEELING","WV",26003,NA,NA,301,"ONE BETHANY PIKE, WHEELING, WV, 26003","No_Match",NA,NA,NA,NA
324302,"ONE BIG BLUE AVE","SOUTH WHITLEY","IN",46787,NA,NA,302,"ONE BIG BLUE AVE, SOUTH WHITLEY, IN, 46787","No_Match",NA,NA,NA,NA
324303,"ONE BLACKBURN CENTER SUITE 1","GLOUCESTER","MA",1930,NA,NA,303,"ONE BLACKBURN CENTER SUITE 1, GLOUCESTER, MA, 1930","No_Match",NA,NA,NA,NA
324304,"ONE BLACKBURN CENTER","GLOUCESTER","MA",1930,NA,NA,304,"ONE BLACKBURN CENTER, GLOUCESTER, MA, 1930","No_Match",NA,NA,NA,NA
324305,"ONE BLUE HAWK DRIVE","EXETER","NH",3833,NA,NA,305,"ONE BLUE HAWK DRIVE, EXETER, NH, 3833","No_Match",NA,NA,NA,NA
324306,"ONE BOSTON PLACE SUITE 2600","BOSTON","MA",2108,NA,NA,306,"ONE BOSTON PLACE SUITE 2600, BOSTON, MA, 2108","No_Match",NA,NA,NA,NA
324307,"ONE BOSTON PLACE SUITE 2605","BOSTON","MA",2108,NA,NA,307,"ONE BOSTON PLACE SUITE 2605, BOSTON, MA, 2108","No_Match",NA,NA,NA,NA
324308,"ONE BROADWAY 14TH FLOOR","CAMBRIDGE","MA",2142,NA,NA,308,"ONE BROADWAY 14TH FLOOR, CAMBRIDGE, MA, 2142","No_Match",NA,NA,NA,NA
324309,"ONE BROOKINGS DRIVE CAMPUS BOX 1122","ST LOUIS","MO",63130,NA,NA,309,"ONE BROOKINGS DRIVE CAMPUS BOX 1122, ST LOUIS, MO, 63130","No_Match",NA,NA,NA,NA
324310,"ONE CAMPUS MARTIUS SUITE 200","DETROIT","MI",48226,NA,NA,310,"ONE CAMPUS MARTIUS SUITE 200, DETROIT, MI, 48226","No_Match",NA,NA,NA,NA
324311,"ONE CAPO DRIVE","MARLBORO","NJ",7746,NA,NA,311,"ONE CAPO DRIVE, MARLBORO, NJ, 7746","No_Match",NA,NA,NA,NA
324312,"ONE CARE DRIVE","ERVING","MA",1344,NA,NA,312,"ONE CARE DRIVE, ERVING, MA, 1344","No_Match",NA,NA,NA,NA
324313,"ONE CHAPEL STREET","NEEDHAM","MA",2492,NA,NA,313,"ONE CHAPEL STREET, NEEDHAM, MA, 2492","No_Match",NA,NA,NA,NA
324314,"ONE CHILDRENS PLAZA","DAYTON","OH",45404,NA,NA,314,"ONE CHILDRENS PLAZA, DAYTON, OH, 45404","No_Match",NA,NA,NA,NA
324315,"ONE CIRCLE DRIVE","MEREDITH","NH",3253,NA,NA,315,"ONE CIRCLE DRIVE, MEREDITH, NH, 3253","No_Match",NA,NA,NA,NA
324316,"ONE CIRCULAR AVE","HAMDEN","CT",6514,NA,NA,316,"ONE CIRCULAR AVE, HAMDEN, CT, 6514","No_Match",NA,NA,NA,NA
324317,"ONE COLLEGE AVENUE - SUITE 3002","MECHANICSBURG","PA",17055,NA,NA,317,"ONE COLLEGE AVENUE - SUITE 3002, MECHANICSBURG, PA, 17055","No_Match",NA,NA,NA,NA
324318,"ONE COLUMBUS STREET SUITE 695","VIRGINIA BEACH","VA",23462,NA,NA,318,"ONE COLUMBUS STREET SUITE 695, VIRGINIA BEACH, VA, 23462","No_Match",NA,NA,NA,NA
324319,"ONE COMMERCE PLAZA","ALBANY","NY",12260,NA,NA,319,"ONE COMMERCE PLAZA, ALBANY, NY, 12260","No_Match",NA,NA,NA,NA
324320,"ONE COMMERCE SQUARE","GADSDEN","AL",35901,NA,NA,320,"ONE COMMERCE SQUARE, GADSDEN, AL, 35901","No_Match",NA,NA,NA,NA
324321,"ONE CROWN DRIVE SUITE 100","KIRKSVILLE","MO",63501,NA,NA,321,"ONE CROWN DRIVE SUITE 100, KIRKSVILLE, MO, 63501","No_Match",NA,NA,NA,NA
324322,"ONE CUMBERLAND AVENUE","PLATTSBURGH","NY",12901,NA,NA,322,"ONE CUMBERLAND AVENUE, PLATTSBURGH, NY, 12901","No_Match",NA,NA,NA,NA
324323,"ONE DEPOT PLAZA","TARRYTOWN","NY",10591,NA,NA,323,"ONE DEPOT PLAZA, TARRYTOWN, NY, 10591","No_Match",NA,NA,NA,NA
324324,"ONE DUPONT CIRCLE NW SUITE 530","WASHINGTON","DC",20036,NA,NA,324,"ONE DUPONT CIRCLE NW SUITE 530, WASHINGTON, DC, 20036","No_Match",NA,NA,NA,NA
324325,"ONE E MAIN STREET","HUDSON","OH",44236,NA,NA,325,"ONE E MAIN STREET, HUDSON, OH, 44236","No_Match",NA,NA,NA,NA
324326,"ONE EAGLE CROSSING","SPRING","TX",77373,NA,NA,326,"ONE EAGLE CROSSING, SPRING, TX, 77373","No_Match",NA,NA,NA,NA
324327,"ONE EAST DELAWARE APT 24B","CHICAGO","IL",60611,NA,NA,327,"ONE EAST DELAWARE APT 24B, CHICAGO, IL, 60611","No_Match",NA,NA,NA,NA
324328,"ONE EAST FOURTH STREET SUITE 1400","CINCINNATI","OH",45202,NA,NA,328,"ONE EAST FOURTH STREET SUITE 1400, CINCINNATI, OH, 45202","No_Match",NA,NA,NA,NA
324329,"ONE EAST MELLEN STREET","HAMPTON","VA",23663,NA,NA,329,"ONE EAST MELLEN STREET, HAMPTON, VA, 23663","No_Match",NA,NA,NA,NA
324330,"ONE EAST PRATT STREET","BALTIMORE","MD",21202,NA,NA,330,"ONE EAST PRATT STREET, BALTIMORE, MD, 21202","No_Match",NA,NA,NA,NA
324331,"ONE ENERGY PLAZA EP10-233","JACKSON","MI",49201,NA,NA,331,"ONE ENERGY PLAZA EP10-233, JACKSON, MI, 49201","No_Match",NA,NA,NA,NA
324332,"ONE FARMER ST","NANTUCKET","MA",2554,NA,NA,332,"ONE FARMER ST, NANTUCKET, MA, 2554","No_Match",NA,NA,NA,NA
324333,"ONE FBI PLAZA","BUFFALO","NY",14202,NA,NA,333,"ONE FBI PLAZA, BUFFALO, NY, 14202","No_Match",NA,NA,NA,NA
324334,"ONE FIRST AVENUE","CHARLESTOWN","MA",2129,NA,NA,334,"ONE FIRST AVENUE, CHARLESTOWN, MA, 2129","No_Match",NA,NA,NA,NA
324335,"ONE FRANKLIN SQUARE STE 211","GENEVA","NY",14456,NA,NA,335,"ONE FRANKLIN SQUARE STE 211, GENEVA, NY, 14456","No_Match",NA,NA,NA,NA
324336,"ONE GATEWAY CENTER STE 2600","NEWARK","NJ",7102,NA,NA,336,"ONE GATEWAY CENTER STE 2600, NEWARK, NJ, 7102","No_Match",NA,NA,NA,NA
324337,"ONE GATEWAY CENTER","NEWARK","NJ",7102,NA,NA,337,"ONE GATEWAY CENTER, NEWARK, NJ, 7102","No_Match",NA,NA,NA,NA
324338,"ONE GATEWAY STE 2500","NEWARK","NJ",7102,NA,NA,338,"ONE GATEWAY STE 2500, NEWARK, NJ, 7102","No_Match",NA,NA,NA,NA
324339,"ONE GAYLORD DRIVE","NASHVILLE","TN",37214,NA,NA,339,"ONE GAYLORD DRIVE, NASHVILLE, TN, 37214","No_Match",NA,NA,NA,NA
324340,"ONE GORDON MILLS WAY","ST JOHNSBURY","VT",5819,NA,NA,340,"ONE GORDON MILLS WAY, ST JOHNSBURY, VT, 5819","No_Match",NA,NA,NA,NA
324341,"ONE GUSTAVE LEVY PLACE BOX 1163","NEW YORK","NY",10029,NA,NA,341,"ONE GUSTAVE LEVY PLACE BOX 1163, NEW YORK, NY, 10029","No_Match",NA,NA,NA,NA
324342,"ONE HAMILTON HEALTH PLACE","HAMILTON","NJ",8690,NA,NA,342,"ONE HAMILTON HEALTH PLACE, HAMILTON, NJ, 8690","No_Match",NA,NA,NA,NA
324343,"ONE HARTWICK DRIVE","ONEONTA","NY",13820,NA,NA,343,"ONE HARTWICK DRIVE, ONEONTA, NY, 13820","No_Match",NA,NA,NA,NA
324344,"ONE HOSPITAL DR- CE740 CSE BLDG","COLUMBIA","MO",65212,NA,NA,344,"ONE HOSPITAL DR- CE740 CSE BLDG, COLUMBIA, MO, 65212","No_Match",NA,NA,NA,NA
324345,"ONE HUNTINGTON QUADRANGLE STE 4C10","MELVILLE","NY",11747,NA,NA,345,"ONE HUNTINGTON QUADRANGLE STE 4C10, MELVILLE, NY, 11747","No_Match",NA,NA,NA,NA
324346,"ONE INDEPENDENT DRIVE SUITE 1200","JACKSONVILLE","FL",32202,NA,NA,346,"ONE INDEPENDENT DRIVE SUITE 1200, JACKSONVILLE, FL, 32202","No_Match",NA,NA,NA,NA
324347,"ONE KELLOGG HILL ROAD","WESTON","CT",6883,NA,NA,347,"ONE KELLOGG HILL ROAD, WESTON, CT, 6883","No_Match",NA,NA,NA,NA
324348,"ONE KENSINGTON CIRCLE","TOMS RIVER","NJ",8755,NA,NA,348,"ONE KENSINGTON CIRCLE, TOMS RIVER, NJ, 8755","No_Match",NA,NA,NA,NA
324349,"ONE LAKESHORE DRIVE DRIVE SUITE 900","LAKE CHARLES","LA",70629,NA,NA,349,"ONE LAKESHORE DRIVE DRIVE SUITE 900, LAKE CHARLES, LA, 70629","No_Match",NA,NA,NA,NA
324350,"ONE LAKESHORE DRIVE SUITE 1110","LAKE CHARLES","LA",70629,NA,NA,350,"ONE LAKESHORE DRIVE SUITE 1110, LAKE CHARLES, LA, 70629","No_Match",NA,NA,NA,NA
324351,"ONE LETTERMAN DR BLDG C SUITE 300","SAN FRANCISCO","CA",94129,NA,NA,351,"ONE LETTERMAN DR BLDG C SUITE 300, SAN FRANCISCO, CA, 94129","No_Match",NA,NA,NA,NA
324352,"ONE LEVERICH PL","HUNTINGTON","NY",11743,NA,NA,352,"ONE LEVERICH PL, HUNTINGTON, NY, 11743","No_Match",NA,NA,NA,NA
324353,"ONE LIBERTY SQUARE 7TH FLOOR","BOSTON","MA",2478,NA,NA,353,"ONE LIBERTY SQUARE 7TH FLOOR, BOSTON, MA, 2478","No_Match",NA,NA,NA,NA
324354,"ONE LINCOLN CENTER 18TH FLOOR","SYRACUSE","NY",13202,NA,NA,354,"ONE LINCOLN CENTER 18TH FLOOR, SYRACUSE, NY, 13202","No_Match",NA,NA,NA,NA
324355,"ONE LOGAN SQUARE 14TH FLOOR","PHILADELPHIA","PA",19103,NA,NA,355,"ONE LOGAN SQUARE 14TH FLOOR, PHILADELPHIA, PA, 19103","No_Match",NA,NA,NA,NA
324356,"ONE MAIN STREET   PO BOX 304","CHARLESTOWN","NH",3603,NA,NA,356,"ONE MAIN STREET   PO BOX 304, CHARLESTOWN, NH, 3603","No_Match",NA,NA,NA,NA
324357,"ONE MAIN STREET","CANTON","NY",13617,NA,NA,357,"ONE MAIN STREET, CANTON, NY, 13617","No_Match",NA,NA,NA,NA
324358,"ONE MARINE VIEW PLAZA - 12A","HOBOKEN","NJ",7030,NA,NA,358,"ONE MARINE VIEW PLAZA - 12A, HOBOKEN, NJ, 7030","No_Match",NA,NA,NA,NA
324359,"ONE MENDON RD  SUITE 310","CUMBERLAND","RI",2864,NA,NA,359,"ONE MENDON RD  SUITE 310, CUMBERLAND, RI, 2864","No_Match",NA,NA,NA,NA
324360,"ONE MIDAMERICA PLAZA SUITE 125","OAK BROOK TERRACE","IL",60181,NA,NA,360,"ONE MIDAMERICA PLAZA SUITE 125, OAK BROOK TERRACE, IL, 60181","No_Match",NA,NA,NA,NA
324361,"ONE MIDAMERICA PLAZA SUITE 125","OAKBROOK TERRACE","IL",60181,NA,NA,361,"ONE MIDAMERICA PLAZA SUITE 125, OAKBROOK TERRACE, IL, 60181","No_Match",NA,NA,NA,NA
324362,"ONE MONARCH PLACE SUITE 2220","SPRINGFIELD","MA",1144,NA,NA,362,"ONE MONARCH PLACE SUITE 2220, SPRINGFIELD, MA, 1144","No_Match",NA,NA,NA,NA
324363,"ONE MOUNT HOPE BLVD C/O HASTINGS HS","HASTINGS ON HUDSON","NY",10706,NA,NA,363,"ONE MOUNT HOPE BLVD C/O HASTINGS HS, HASTINGS ON HUDSON, NY, 10706","No_Match",NA,NA,NA,NA
324364,"ONE MOUNTAIN ROAD","BURLINGTON","MA",1803,NA,NA,364,"ONE MOUNTAIN ROAD, BURLINGTON, MA, 1803","No_Match",NA,NA,NA,NA
324365,"ONE MUNICIPAL PLAZA","ASBURY PARK","NJ",7712,NA,NA,365,"ONE MUNICIPAL PLAZA, ASBURY PARK, NJ, 7712","No_Match",NA,NA,NA,NA
324366,"ONE MUNICIPAL PLAZA","MONROE","NJ",8831,NA,NA,366,"ONE MUNICIPAL PLAZA, MONROE, NJ, 8831","No_Match",NA,NA,NA,NA
324367,"ONE MUSEUM MILE 1280 5TH AVENUE 18C","NEW YORK","NY",10029,NA,NA,367,"ONE MUSEUM MILE 1280 5TH AVENUE 18C, NEW YORK, NY, 10029","No_Match",NA,NA,NA,NA
324368,"ONE N LASALLE ST   SUITE 2205","CHICAGO","IL",60602,NA,NA,368,"ONE N LASALLE ST   SUITE 2205, CHICAGO, IL, 60602","No_Match",NA,NA,NA,NA
324369,"ONE NATIONAL LIFE DRIVE","MONTPELIER","VT",5633,NA,NA,369,"ONE NATIONAL LIFE DRIVE, MONTPELIER, VT, 5633","No_Match",NA,NA,NA,NA
324370,"ONE NATURAL RESOURCES WAY","SPRINGFIELD","IL",62702,NA,NA,370,"ONE NATURAL RESOURCES WAY, SPRINGFIELD, IL, 62702","No_Match",NA,NA,NA,NA
324371,"ONE NEUMANN DR RAB 326","ASTON","PA",19014,NA,NA,371,"ONE NEUMANN DR RAB 326, ASTON, PA, 19014","No_Match",NA,NA,NA,NA
324372,"ONE NEW HAVEN AVENUE","MILFORD","CT",6460,NA,NA,372,"ONE NEW HAVEN AVENUE, MILFORD, CT, 6460","No_Match",NA,NA,NA,NA
324373,"ONE NORTH SCHOOL AVENUE","FAYETTEVILLE","AR",72701,NA,NA,373,"ONE NORTH SCHOOL AVENUE, FAYETTEVILLE, AR, 72701","No_Match",NA,NA,NA,NA
324374,"ONE OAK PLACE","OXFORD","MS",38655,NA,NA,374,"ONE OAK PLACE, OXFORD, MS, 38655","No_Match",NA,NA,NA,NA
324375,"ONE PARK LANE UNIT 3B","MOUNT VERNON","NY",10552,NA,NA,375,"ONE PARK LANE UNIT 3B, MOUNT VERNON, NY, 10552","No_Match",NA,NA,NA,NA
324376,"ONE PARK PLACE","PLYMOUTH","MA",2360,NA,NA,376,"ONE PARK PLACE, PLYMOUTH, MA, 2360","No_Match",NA,NA,NA,NA
324377,"ONE PARSONS STREET","RYE","NY",10580,NA,NA,377,"ONE PARSONS STREET, RYE, NY, 10580","No_Match",NA,NA,NA,NA
324378,"ONE PAUL BROWN DR SE","MASSILLON","OH",44646,NA,NA,378,"ONE PAUL BROWN DR SE, MASSILLON, OH, 44646","No_Match",NA,NA,NA,NA
324379,"ONE PETOSKEY STREET","PETOSKEY","MI",49770,NA,NA,379,"ONE PETOSKEY STREET, PETOSKEY, MI, 49770","No_Match",NA,NA,NA,NA
324380,"ONE POLICE PLAZA 106 HUDSON STREET","HOBOKEN","NJ",7030,40.7372918680001,-74.0297947139999,380,"ONE POLICE PLAZA 106 HUDSON STREET, HOBOKEN, NJ, 7030","Match","Exact","106 HUDSON ST, HOBOKEN, NJ, 07030",646609511,"L"
324381,"ONE PUBLIC SQUARE","WILLOUGHBY","OH",44094,NA,NA,381,"ONE PUBLIC SQUARE, WILLOUGHBY, OH, 44094","No_Match",NA,NA,NA,NA
324382,"ONE RANKIN AVENUE THIRD FLOOR","ASHEVILLE","NC",28801,NA,NA,382,"ONE RANKIN AVENUE THIRD FLOOR, ASHEVILLE, NC, 28801","No_Match",NA,NA,NA,NA
324383,"ONE RAPP ROAD","ALBANY","NY",12203,NA,NA,383,"ONE RAPP ROAD, ALBANY, NY, 12203","No_Match",NA,NA,NA,NA
324384,"ONE REGENCY PLAZA SUITE 600","PROVIDENCE","RI",2903,NA,NA,384,"ONE REGENCY PLAZA SUITE 600, PROVIDENCE, RI, 2903","No_Match",NA,NA,NA,NA
324385,"ONE RICHMOND SQUARE STE 125B","PROVIDENCE","RI",2906,NA,NA,385,"ONE RICHMOND SQUARE STE 125B, PROVIDENCE, RI, 2906","No_Match",NA,NA,NA,NA
324386,"ONE RIVERFRONT PLAZA STE 410","NEWARK","NJ",7102,NA,NA,386,"ONE RIVERFRONT PLAZA STE 410, NEWARK, NJ, 7102","No_Match",NA,NA,NA,NA
324387,"ONE RIVERWAY STE 2450","HOUSTON","TX",77056,NA,NA,387,"ONE RIVERWAY STE 2450, HOUSTON, TX, 77056","No_Match",NA,NA,NA,NA
324388,"ONE RIVERWAY","HOUSTON","TX",77056,NA,NA,388,"ONE RIVERWAY, HOUSTON, TX, 77056","No_Match",NA,NA,NA,NA
324389,"ONE ROOSEVELT SQUARE - ROOM 11","MOUNT VERNON","NY",10550,NA,NA,389,"ONE ROOSEVELT SQUARE - ROOM 11, MOUNT VERNON, NY, 10550","No_Match",NA,NA,NA,NA
324390,"ONE S MAIN ST 8TH FLOOR","MT CLEMENS","MI",48043,NA,NA,390,"ONE S MAIN ST 8TH FLOOR, MT CLEMENS, MI, 48043","No_Match",NA,NA,NA,NA
324391,"ONE SE 3RD AVE STE 2950","MIAMI","FL",33131,NA,NA,391,"ONE SE 3RD AVE STE 2950, MIAMI, FL, 33131","No_Match",NA,NA,NA,NA
324392,"ONE SEAGATE STE 1630","TOLEDO","OH",43604,NA,NA,392,"ONE SEAGATE STE 1630, TOLEDO, OH, 43604","No_Match",NA,NA,NA,NA
324393,"ONE SHIELDS AVENUE","DAVIS","CA",95616,NA,NA,393,"ONE SHIELDS AVENUE, DAVIS, CA, 95616","No_Match",NA,NA,NA,NA
324394,"ONE SNYDER CIRCLE","NEW MILFORD","NJ",7646,NA,NA,394,"ONE SNYDER CIRCLE, NEW MILFORD, NJ, 7646","No_Match",NA,NA,NA,NA
324395,"ONE SOUTH ROAD","OYSTER BAY COVE","NY",11771,NA,NA,395,"ONE SOUTH ROAD, OYSTER BAY COVE, NY, 11771","No_Match",NA,NA,NA,NA
324396,"ONE ST THOMAS PLAZA","OLD BRIDGE","NJ",8857,NA,NA,396,"ONE ST THOMAS PLAZA, OLD BRIDGE, NJ, 8857","No_Match",NA,NA,NA,NA
324397,"ONE STATE FARM PLAZA","BLOOMINGTON","IL",61710,NA,NA,397,"ONE STATE FARM PLAZA, BLOOMINGTON, IL, 61710","No_Match",NA,NA,NA,NA
324398,"ONE SUNRISE MALL UNIT 1025","MASSAPEQUA","NY",11758,NA,NA,398,"ONE SUNRISE MALL UNIT 1025, MASSAPEQUA, NY, 11758","No_Match",NA,NA,NA,NA
324399,"ONE TARA BLV ST 200","NASHUA","NH",3062,NA,NA,399,"ONE TARA BLV ST 200, NASHUA, NH, 3062","No_Match",NA,NA,NA,NA
324400,"ONE THRASHER STREET","TAUNTON","MA",2780,NA,NA,400,"ONE THRASHER STREET, TAUNTON, MA, 2780","No_Match",NA,NA,NA,NA
324401,"ONE TOOLE AVENUE","TUCSON","AZ",85701,NA,NA,401,"ONE TOOLE AVENUE, TUCSON, AZ, 85701","No_Match",NA,NA,NA,NA
324402,"ONE TUSCOLA STREET","SAGINAW","MI",48607,NA,NA,402,"ONE TUSCOLA STREET, SAGINAW, MI, 48607","No_Match",NA,NA,NA,NA
324403,"ONE UNIVERSITY BLVD - ZH 217","LA GRANDE","OR",97850,NA,NA,403,"ONE UNIVERSITY BLVD - ZH 217, LA GRANDE, OR, 97850","No_Match",NA,NA,NA,NA
324404,"ONE UNIVERSITY PLACE","CHESTER","PA",19013,NA,NA,404,"ONE UNIVERSITY PLACE, CHESTER, PA, 19013","No_Match",NA,NA,NA,NA
324405,"ONE UNIVERSITY PLACE","SHREVEPORT","LA",71115,NA,NA,405,"ONE UNIVERSITY PLACE, SHREVEPORT, LA, 71115","No_Match",NA,NA,NA,NA
324406,"ONE UNIVERSITY PLAZA MS 6100","CAPE GIRARDEAU","MO",63701,NA,NA,406,"ONE UNIVERSITY PLAZA MS 6100, CAPE GIRARDEAU, MO, 63701","No_Match",NA,NA,NA,NA
324407,"ONE UNIVERSITY PLAZA MSC 2920","CAPE GIRARDEAU","MO",63701,NA,NA,407,"ONE UNIVERSITY PLAZA MSC 2920, CAPE GIRARDEAU, MO, 63701","No_Match",NA,NA,NA,NA
324408,"ONE UNIVERSITY PLAZA","YOUNGSTOWN","OH",44555,NA,NA,408,"ONE UNIVERSITY PLAZA, YOUNGSTOWN, OH, 44555","No_Match",NA,NA,NA,NA
324409,"ONE UNIVERSITY ROAD","LAKE SUCCESS","NY",11020,NA,NA,409,"ONE UNIVERSITY ROAD, LAKE SUCCESS, NY, 11020","No_Match",NA,NA,NA,NA
324410,"ONE US BANK PLAZA","SAINT LOUIS","MO",63101,NA,NA,410,"ONE US BANK PLAZA, SAINT LOUIS, MO, 63101","No_Match",NA,NA,NA,NA
324411,"ONE VANTAGE WAY SUITE E250","NASHVILLE","TN",37228,NA,NA,411,"ONE VANTAGE WAY SUITE E250, NASHVILLE, TN, 37228","No_Match",NA,NA,NA,NA
324412,"ONE W BROAD STREET SUITE 700","BETHLEHEM","PA",18018,NA,NA,412,"ONE W BROAD STREET SUITE 700, BETHLEHEM, PA, 18018","No_Match",NA,NA,NA,NA
324413,"ONE WAMPANOAG DRIVE","MASHPEE","MA",2649,NA,NA,413,"ONE WAMPANOAG DRIVE, MASHPEE, MA, 2649","No_Match",NA,NA,NA,NA
324414,"ONE WAPALANNE ROAD","BRANCHVILLE","NJ",7826,NA,NA,414,"ONE WAPALANNE ROAD, BRANCHVILLE, NJ, 7826","No_Match",NA,NA,NA,NA
324415,"ONE WASHINGTON MALL 16TH FLOOR","BOSTON","MA",2108,NA,NA,415,"ONE WASHINGTON MALL 16TH FLOOR, BOSTON, MA, 2108","No_Match",NA,NA,NA,NA
324416,"ONE WEIGT COURT","GREAT NECK","NY",11021,NA,NA,416,"ONE WEIGT COURT, GREAT NECK, NY, 11021","No_Match",NA,NA,NA,NA
324417,"ONE WEST COURT SQUARE SUITE 750","DECATUR","GA",30030,NA,NA,417,"ONE WEST COURT SQUARE SUITE 750, DECATUR, GA, 30030","No_Match",NA,NA,NA,NA
324418,"ONE WEST FIRESTORM WAY - BLDG 2100","GLENDALE","AZ",85306,NA,NA,418,"ONE WEST FIRESTORM WAY - BLDG 2100, GLENDALE, AZ, 85306","No_Match",NA,NA,NA,NA
324419,"ONE WEST WATER STREET SUITE 235","ST PAUL","MN",55107,NA,NA,419,"ONE WEST WATER STREET SUITE 235, ST PAUL, MN, 55107","No_Match",NA,NA,NA,NA
324420,"ONE WILDCAT WAY","LOGAN","WV",25601,NA,NA,420,"ONE WILDCAT WAY, LOGAN, WV, 25601","No_Match",NA,NA,NA,NA
324421,"ONE WILLOW BROOK COURT SUITE 320","PETALUMA","CA",94954,NA,NA,421,"ONE WILLOW BROOK COURT SUITE 320, PETALUMA, CA, 94954","No_Match",NA,NA,NA,NA
324422,"ONE WOODWARD AVENUE - SUITE 1550","DETROIT","MI",48226,NA,NA,422,"ONE WOODWARD AVENUE - SUITE 1550, DETROIT, MI, 48226","No_Match",NA,NA,NA,NA
324423,"ONE WORD TRADE CENTER SUITE 8500","NEW YORK","NY",10007,NA,NA,423,"ONE WORD TRADE CENTER SUITE 8500, NEW YORK, NY, 10007","No_Match",NA,NA,NA,NA
324424,"ONE WORLD TRADE CENTER 85TH FLOOR","NEW YORK","NY",10007,NA,NA,424,"ONE WORLD TRADE CENTER 85TH FLOOR, NEW YORK, NY, 10007","No_Match",NA,NA,NA,NA
324425,"ONE","INDIANAPOLIS","IN",46282,NA,NA,425,"ONE, INDIANAPOLIS, IN, 46282","No_Match",NA,NA,NA,NA
324426,"ONLINE BUSINESS","BUNKER HILL","WV",25413,NA,NA,426,"ONLINE BUSINESS, BUNKER HILL, WV, 25413","No_Match",NA,NA,NA,NA
324427,"OREGON STATE 832 WEST COMPLEX","CORVALLIS","OR",97331,NA,NA,427,"OREGON STATE 832 WEST COMPLEX, CORVALLIS, OR, 97331","No_Match",NA,NA,NA,NA
324428,"OSU FRENCH DEPT 1775 HAGERTY HALL","COLUMBUS","OH",43210,NA,NA,428,"OSU FRENCH DEPT 1775 HAGERTY HALL, COLUMBUS, OH, 43210","No_Match",NA,NA,NA,NA
324429,"OUTER S RANGE ST PO BOX 45","OBLONG","IL",62449,NA,NA,429,"OUTER S RANGE ST PO BOX 45, OBLONG, IL, 62449","No_Match",NA,NA,NA,NA
324430,"P  O  BOX 13409","GREENSBORO","NC",27415,NA,NA,430,"P  O  BOX 13409, GREENSBORO, NC, 27415","No_Match",NA,NA,NA,NA
324431,"P  O  BOX 179","VARNVILLE","SC",29944,NA,NA,431,"P  O  BOX 179, VARNVILLE, SC, 29944","No_Match",NA,NA,NA,NA
324432,"P  O  BOX 278","SHEPHERDSTOWN","WV",25443,NA,NA,432,"P  O  BOX 278, SHEPHERDSTOWN, WV, 25443","No_Match",NA,NA,NA,NA
324433,"P  O  BOX 301","MORSE","LA",70559,NA,NA,433,"P  O  BOX 301, MORSE, LA, 70559","No_Match",NA,NA,NA,NA
324434,"P  O  BOX 5234","SUFFOLK","VA",23435,NA,NA,434,"P  O  BOX 5234, SUFFOLK, VA, 23435","No_Match",NA,NA,NA,NA
324435,"P  O  BOX 596","PASCAGOULA","MS",39568,NA,NA,435,"P  O  BOX 596, PASCAGOULA, MS, 39568","No_Match",NA,NA,NA,NA
324436,"P  O BOX 11450","OMAHA","NE",68111,NA,NA,436,"P  O BOX 11450, OMAHA, NE, 68111","No_Match",NA,NA,NA,NA
324437,"P  O BOX 138","SINTON","TX",78387,NA,NA,437,"P  O BOX 138, SINTON, TX, 78387","No_Match",NA,NA,NA,NA
324438,"P  O BOX 1495","RAYMOND","MS",39154,NA,NA,438,"P  O BOX 1495, RAYMOND, MS, 39154","No_Match",NA,NA,NA,NA
324439,"P  O BOX 1515","HARWICH","MA",2645,NA,NA,439,"P  O BOX 1515, HARWICH, MA, 2645","No_Match",NA,NA,NA,NA
324440,"P  O BOX 1991","PRENTISS","MS",39474,NA,NA,440,"P  O BOX 1991, PRENTISS, MS, 39474","No_Match",NA,NA,NA,NA
324441,"P  O BOX 33","MEYERSDALE","PA",15552,NA,NA,441,"P  O BOX 33, MEYERSDALE, PA, 15552","No_Match",NA,NA,NA,NA
324442,"P  O BOX 5068","PASADENA","TX",77508,NA,NA,442,"P  O BOX 5068, PASADENA, TX, 77508","No_Match",NA,NA,NA,NA
324443,"P  O BOX 564","HARTFORD","CT",6141,NA,NA,443,"P  O BOX 564, HARTFORD, CT, 6141","No_Match",NA,NA,NA,NA
324444,"P 0 BOX 159","MARSHALLTOWN","IA",50158,NA,NA,444,"P 0 BOX 159, MARSHALLTOWN, IA, 50158","No_Match",NA,NA,NA,NA
324445,"P AMATUZZO     83 SHERMAN PLACE","JERSEY CITY","NJ",7307,40.745223841,-74.0545715489999,445,"P AMATUZZO     83 SHERMAN PLACE, JERSEY CITY, NJ, 7307","Match","Exact","83 SHERMAN PL, JERSEY CITY, NJ, 07307",59604937,"L"
324446,"P O   BOX 2214","ELIZABETH","NJ",7207,NA,NA,446,"P O   BOX 2214, ELIZABETH, NJ, 7207","No_Match",NA,NA,NA,NA
324447,"P O  BOX   14","COLLINSVILLE","IL",62234,NA,NA,447,"P O  BOX   14, COLLINSVILLE, IL, 62234","No_Match",NA,NA,NA,NA
324448,"P O  BOX  100096","FT  LAUDERDALE","FL",33310,NA,NA,448,"P O  BOX  100096, FT  LAUDERDALE, FL, 33310","No_Match",NA,NA,NA,NA
324449,"P O  BOX  2136","FLORISSNT","MO",63032,NA,NA,449,"P O  BOX  2136, FLORISSNT, MO, 63032","No_Match",NA,NA,NA,NA
324450,"P O  BOX  46456","WEST HOLLYWOOD","CA",90046,NA,NA,450,"P O  BOX  46456, WEST HOLLYWOOD, CA, 90046","No_Match",NA,NA,NA,NA
324451,"P O  BOX  631","MATTAWAN","MI",49071,NA,NA,451,"P O  BOX  631, MATTAWAN, MI, 49071","No_Match",NA,NA,NA,NA
324452,"P O  BOX  880275","PUKALANI","HI",96788,NA,NA,452,"P O  BOX  880275, PUKALANI, HI, 96788","No_Match",NA,NA,NA,NA
324453,"P O  BOX  960370","MIAMI","FL",33296,NA,NA,453,"P O  BOX  960370, MIAMI, FL, 33296","No_Match",NA,NA,NA,NA
324454,"P O  BOX 100","FAIR HAVEN","NY",13064,NA,NA,454,"P O  BOX 100, FAIR HAVEN, NY, 13064","No_Match",NA,NA,NA,NA
324455,"P O  BOX 100","VAN BUREN","OH",45889,NA,NA,455,"P O  BOX 100, VAN BUREN, OH, 45889","No_Match",NA,NA,NA,NA
324456,"P O  BOX 1071","FORESTHILL","CA",95631,NA,NA,456,"P O  BOX 1071, FORESTHILL, CA, 95631","No_Match",NA,NA,NA,NA
324457,"P O  BOX 1099","CHATSWORTH","GA",30705,NA,NA,457,"P O  BOX 1099, CHATSWORTH, GA, 30705","No_Match",NA,NA,NA,NA
324458,"P O  BOX 111","WAVERLY HALL","GA",31831,NA,NA,458,"P O  BOX 111, WAVERLY HALL, GA, 31831","No_Match",NA,NA,NA,NA
324459,"P O  BOX 1121","FAIR OAKS","CA",95628,NA,NA,459,"P O  BOX 1121, FAIR OAKS, CA, 95628","No_Match",NA,NA,NA,NA
324460,"P O  BOX 1221","SANDUSKY","OH",44871,NA,NA,460,"P O  BOX 1221, SANDUSKY, OH, 44871","No_Match",NA,NA,NA,NA
324461,"P O  BOX 12401","SAN FRANCISCO","CA",94112,NA,NA,461,"P O  BOX 12401, SAN FRANCISCO, CA, 94112","No_Match",NA,NA,NA,NA
324462,"P O  BOX 1251 196 MAIN STREET","KEENE","NH",3431,42.929281679,-72.277712536,462,"P O  BOX 1251 196 MAIN STREET, KEENE, NH, 3431","Match","Exact","196 MAIN ST, KEENE, NH, 03431",124078525,"R"
324463,"P O  BOX 1268","CAMPTON","KY",41301,NA,NA,463,"P O  BOX 1268, CAMPTON, KY, 41301","No_Match",NA,NA,NA,NA
324464,"P O  BOX 1274","GARDNER","MA",1440,NA,NA,464,"P O  BOX 1274, GARDNER, MA, 1440","No_Match",NA,NA,NA,NA
324465,"P O  BOX 13987","LAS CRUCES","NM",88013,NA,NA,465,"P O  BOX 13987, LAS CRUCES, NM, 88013","No_Match",NA,NA,NA,NA
324466,"P O  BOX 1429","STAFFORD","TX",77497,NA,NA,466,"P O  BOX 1429, STAFFORD, TX, 77497","No_Match",NA,NA,NA,NA
324467,"P O  BOX 14531","VAN NUYS","CA",91409,NA,NA,467,"P O  BOX 14531, VAN NUYS, CA, 91409","No_Match",NA,NA,NA,NA
324468,"P O  BOX 161","COLUMBIA","MO",65205,NA,NA,468,"P O  BOX 161, COLUMBIA, MO, 65205","No_Match",NA,NA,NA,NA
324469,"P O  BOX 1672","EDDYVILLE","KY",42038,NA,NA,469,"P O  BOX 1672, EDDYVILLE, KY, 42038","No_Match",NA,NA,NA,NA
324470,"P O  BOX 1736","LAKE PLACID","FL",33862,NA,NA,470,"P O  BOX 1736, LAKE PLACID, FL, 33862","No_Match",NA,NA,NA,NA
324471,"P O  BOX 179","JAMAICA","VT",5343,NA,NA,471,"P O  BOX 179, JAMAICA, VT, 5343","No_Match",NA,NA,NA,NA
324472,"P O  BOX 1953","ROGERS","AR",72757,NA,NA,472,"P O  BOX 1953, ROGERS, AR, 72757","No_Match",NA,NA,NA,NA
324473,"P O  BOX 20454","CHEYENNE","WY",82003,NA,NA,473,"P O  BOX 20454, CHEYENNE, WY, 82003","No_Match",NA,NA,NA,NA
324474,"P O  BOX 211","GOULD","AR",71643,NA,NA,474,"P O  BOX 211, GOULD, AR, 71643","No_Match",NA,NA,NA,NA
324475,"P O  BOX 2113","VIRGINIA BEACH","VA",23450,NA,NA,475,"P O  BOX 2113, VIRGINIA BEACH, VA, 23450","No_Match",NA,NA,NA,NA
324476,"P O  BOX 223407","WEST PALM BEACH","FL",33407,NA,NA,476,"P O  BOX 223407, WEST PALM BEACH, FL, 33407","No_Match",NA,NA,NA,NA
324477,"P O  BOX 227133","DALLAS","TX",75222,NA,NA,477,"P O  BOX 227133, DALLAS, TX, 75222","No_Match",NA,NA,NA,NA
324478,"P O  BOX 23","WEST NYACK","NY",10994,NA,NA,478,"P O  BOX 23, WEST NYACK, NY, 10994","No_Match",NA,NA,NA,NA
324479,"P O  BOX 231294","SAN DIEGO","CA",92193,NA,NA,479,"P O  BOX 231294, SAN DIEGO, CA, 92193","No_Match",NA,NA,NA,NA
324480,"P O  BOX 233","LUMPKIN","GA",31815,NA,NA,480,"P O  BOX 233, LUMPKIN, GA, 31815","No_Match",NA,NA,NA,NA
324481,"P O  BOX 245","FRAMINGHAM","MA",1701,NA,NA,481,"P O  BOX 245, FRAMINGHAM, MA, 1701","No_Match",NA,NA,NA,NA
324482,"P O  BOX 2541","MALTA","NY",12020,NA,NA,482,"P O  BOX 2541, MALTA, NY, 12020","No_Match",NA,NA,NA,NA
324483,"P O  BOX 2546","ROANOKE","VA",24010,NA,NA,483,"P O  BOX 2546, ROANOKE, VA, 24010","No_Match",NA,NA,NA,NA
324484,"P O  BOX 2606","MARRIFILED","VA",22116,NA,NA,484,"P O  BOX 2606, MARRIFILED, VA, 22116","No_Match",NA,NA,NA,NA
324485,"P O  BOX 27341","RICHMOND","VA",23261,NA,NA,485,"P O  BOX 27341, RICHMOND, VA, 23261","No_Match",NA,NA,NA,NA
324486,"P O  BOX 278","GREELEY","CO",80632,NA,NA,486,"P O  BOX 278, GREELEY, CO, 80632","No_Match",NA,NA,NA,NA
324487,"P O  BOX 28022","SANTA FE","NM",87592,NA,NA,487,"P O  BOX 28022, SANTA FE, NM, 87592","No_Match",NA,NA,NA,NA
324488,"P O  BOX 280556","MEMPHIS","TN",38168,NA,NA,488,"P O  BOX 280556, MEMPHIS, TN, 38168","No_Match",NA,NA,NA,NA
324489,"P O  BOX 28092","MACON","GA",31221,NA,NA,489,"P O  BOX 28092, MACON, GA, 31221","No_Match",NA,NA,NA,NA
324490,"P O  BOX 2851","JACKSONVILLE","FL",32202,NA,NA,490,"P O  BOX 2851, JACKSONVILLE, FL, 32202","No_Match",NA,NA,NA,NA
324491,"P O  BOX 28701 SEATTLE WA 98118","SEATTLE","WA",98118,NA,NA,491,"P O  BOX 28701 SEATTLE WA 98118, SEATTLE, WA, 98118","No_Match",NA,NA,NA,NA
324492,"P O  BOX 293106","DAYTON","OH",45429,NA,NA,492,"P O  BOX 293106, DAYTON, OH, 45429","No_Match",NA,NA,NA,NA
324493,"P O  BOX 2981","JACKSONVILLE","FL",32203,NA,NA,493,"P O  BOX 2981, JACKSONVILLE, FL, 32203","No_Match",NA,NA,NA,NA
324494,"P O  BOX 3","LITTLE FERRY","NJ",7643,NA,NA,494,"P O  BOX 3, LITTLE FERRY, NJ, 7643","No_Match",NA,NA,NA,NA
324495,"P O  BOX 301","MOREHEAD CITY","NC",28557,NA,NA,495,"P O  BOX 301, MOREHEAD CITY, NC, 28557","No_Match",NA,NA,NA,NA
324496,"P O  BOX 322","MANITOWOC","WI",54221,NA,NA,496,"P O  BOX 322, MANITOWOC, WI, 54221","No_Match",NA,NA,NA,NA
324497,"P O  BOX 325","WATERFORD","WI",53105,NA,NA,497,"P O  BOX 325, WATERFORD, WI, 53105","No_Match",NA,NA,NA,NA
324498,"P O  BOX 3254","SUNRIVER","OR",97707,NA,NA,498,"P O  BOX 3254, SUNRIVER, OR, 97707","No_Match",NA,NA,NA,NA
324499,"P O  BOX 33","ASHFIELD","PA",18212,NA,NA,499,"P O  BOX 33, ASHFIELD, PA, 18212","No_Match",NA,NA,NA,NA
324500,"P O  BOX 3372","ATLANTA","GA",30302,NA,NA,500,"P O  BOX 3372, ATLANTA, GA, 30302","No_Match",NA,NA,NA,NA
